station,valid,lon,lat,elevation,tmpf,dwpf,relh,drct,sknt,p01i,alti,mslp,vsby,gust,skyc1,skyc2,skyc3,skyc4,skyl1,skyl2,skyl3,skyl4,wxcodes,ice_accretion_1hr,ice_accretion_3hr,ice_accretion_6hr,peak_wind_gust,peak_wind_drct,peak_wind_time,feel,metar,snowdepth
EKO,2024-08-09 00:09,-115.7860,40.8242,1367.00,95.00,34.00,11.76,250.00,11.00,0.00,30.02,M,10.00,17.00,CLR,M,M,M,M,M,M,M,M,M,M,M,M,M,M,90.00,KEKO 090009Z AUTO 25011G17KT 10SM CLR 35/01 A3002 RMK AO2 WSHFT 2349 T03500011 $,M
BVU,2024-08-09 00:15,-114.8611,35.9475,671.00,100.40,55.40,22.54,190.00,7.00,0.00,29.79,M,10.00,M,CLR,M,M,M,M,M,M,M,M,M,M,M,M,M,M,99.06,KBVU 090015Z AUTO 19007KT 160V220 10SM CLR 38/13 A2979 RMK AO2,M
CXP,2024-08-09 00:15,-119.7326,39.1923,1431.00,89.60,41.00,18.33,260.00,11.00,0.00,30.07,M,10.00,18.00,CLR,M,M,M,M,M,M,M,M,M,M,M,M,M,M,85.82,KCXP 090015Z AUTO 26011G18KT 230V290 10SM CLR 32/05 A3007 RMK AO2,M
05U,2024-08-09 00:15,-116.0051,39.6042,1811.23,M,M,M,250.00,23.00,0.00,30.17,M,7.00,41.00,FEW,BKN,M,M,9000.00,12000.00,M,M,M,M,M,M,M,M,M,M,K05U 090015Z AUTO 25023G41KT 7SM FEW090 BKN120 A3017 RMK A01,M
BAM,2024-08-09 00:15,-116.8743,40.5990,1382.36,96.80,35.60,11.86,350.00,10.00,0.00,30.00,M,10.00,M,CLR,M,M,M,M,M,M,M,M,M,M,M,M,M,M,91.72,KBAM 090015Z AUTO 35010KT 10SM CLR 36/02 A3000 RMK AO1,M
HTH,2024-08-09 00:15,-118.6315,38.5448,1282.89,95.00,41.00,15.49,310.00,5.00,0.00,29.97,M,10.00,M,CLR,M,M,M,M,M,M,M,M,M,M,M,M,M,M,90.70,KHTH 090015Z AUTO 31005KT 10SM CLR 35/05 A2997 RMK A01,M
10U,2024-08-09 00:15,-116.1876,41.9532,1637.00,89.60,26.60,10.30,250.00,8.00,0.00,30.07,M,10.00,M,CLR,M,M,M,M,M,M,M,M,M,M,M,M,M,M,85.02,K10U 090015Z AUTO 25008KT 220V280 10SM CLR 32/M03 A3007 RMK AO2,M
TMT,2024-08-09 00:15,-117.1971,39.4643,1749.34,92.00,38.00,15.12,290.00,18.00,0.00,30.10,M,10.00,22.00,SCT,M,M,M,12000.00,M,M,M,M,M,M,M,M,M,M,87.78,KTMT 090015Z AUTO 29018G22KT 10SM SCT120 33/03 A3010 RMK AO2 T03340033,M
BVU,2024-08-09 00:35,-114.8611,35.9475,671.00,100.40,55.40,22.54,210.00,12.00,0.00,29.78,M,10.00,M,CLR,M,M,M,M,M,M,M,M,M,M,M,M,M,M,99.06,KBVU 090035Z AUTO 21012KT 10SM CLR 38/13 A2978 RMK AO2,M
CXP,2024-08-09 00:35,-119.7326,39.1923,1431.00,89.60,39.20,17.09,240.00,10.00,0.00,30.07,M,9.00,16.00,CLR,M,M,M,M,M,M,M,M,M,M,M,M,M,M,85.73,KCXP 090035Z AUTO 24010G16KT 9SM CLR 32/04 A3007 RMK AO2,M
05U,2024-08-09 00:35,-116.0051,39.6042,1811.23,M,M,M,220.00,15.00,0.00,30.19,M,8.00,22.00,FEW,SCT,BKN,M,6000.00,9500.00,11000.00,M,M,M,M,M,M,M,M,M,K05U 090035Z AUTO 22015G22KT 8SM FEW060 SCT095 BKN110 A3019 RMK A01,M
BAM,2024-08-09 00:35,-116.8743,40.5990,1382.36,95.00,37.40,13.46,350.00,11.00,0.00,30.00,M,10.00,M,CLR,M,M,M,M,M,M,M,M,M,M,M,M,M,M,90.46,KBAM 090035Z AUTO 35011KT 10SM CLR 35/03 A3000 RMK AO1,M
HTH,2024-08-09 00:35,-118.6315,38.5448,1282.89,89.60,55.40,31.45,190.00,15.00,0.00,29.98,M,6.00,M,FEW,FEW,BKN,M,4500.00,5500.00,12000.00,M,HZ,M,M,M,M,M,M,87.78,KHTH 090035Z AUTO 19015KT 6SM HZ FEW045 FEW055 BKN120 32/13 A2998 RMK A01,M
10U,2024-08-09 00:35,-116.1876,41.9532,1637.00,87.80,26.60,10.91,200.00,9.00,0.00,30.06,M,10.00,M,CLR,M,M,M,M,M,M,M,M,M,M,M,M,M,M,83.69,K10U 090035Z AUTO 20009KT 10SM CLR 31/M03 A3006 RMK AO2,M
TMT,2024-08-09 00:35,-117.1971,39.4643,1749.34,91.60,37.80,15.19,290.00,13.00,0.00,30.10,M,10.00,17.00,CLR,M,M,M,M,M,M,M,M,M,M,M,M,M,M,87.42,KTMT 090035Z AUTO 29013G17KT 10SM CLR 33/03 A3010 RMK AO2 T03310032,M
P68,2024-08-09 00:53,-116.0056,39.6014,1993.00,81.00,41.00,24.14,280.00,10.00,0.00,30.16,1012.50,M,18.00,M,M,M,M,M,M,M,M,M,M,M,M,31.00,240.00,2024-08-09 00:22,79.43,KP68 090053Z AUTO 28010G18KT 27/05 A3016 RMK AO1 PK WND 24031/0022 SLP125 T02720050,M
DRA,2024-08-09 00:53,-116.0278,36.6206,1009.00,104.00,40.00,11.35,250.00,11.00,0.00,29.85,1004.60,10.00,M,CLR,M,M,M,M,M,M,M,M,M,M,M,M,M,M,98.73,KDRA 090053Z AUTO 25011KT 10SM CLR 40/04 A2985 RMK AO2 SLP046 T04000044,M
ELY,2024-08-09 00:53,-114.8453,39.2950,1909.00,88.00,33.00,14.06,0.00,0.00,0.00,30.11,1008.70,10.00,M,FEW,M,M,M,11000.00,M,M,M,M,M,M,M,M,M,M,84.25,KELY 090053Z AUTO 00000KT 10SM FEW110 31/01 A3011 RMK AO2 SLP087 T03110006,M
VGT,2024-08-09 00:53,-115.1933,36.2111,667.00,102.00,60.00,25.35,100.00,8.00,0.00,29.77,1006.50,10.00,M,CLR,M,M,M,M,M,M,M,M,M,M,M,M,M,M,102.90,KVGT 090053Z 10008KT 10SM CLR 39/16 A2977 RMK AO2 SLP065 T03890156,M
LOL,2024-08-09 00:53,-118.5701,40.0684,1192.43,97.00,38.00,12.96,260.00,7.00,0.00,29.93,1009.10,10.00,18.00,CLR,M,M,M,M,M,M,M,M,M,M,M,M,M,M,92.32,KLOL 090053Z AUTO 26007G18KT 10SM CLR 36/03 A2993 RMK AO2 SLP091 T03610033,M
NFL,2024-08-09 00:54,-118.7010,39.4166,1199.00,100.00,42.00,13.82,310.00,12.00,0.00,29.94,1011.10,10.00,19.00,SCT,SCT,SCT,M,8000.00,15000.00,25000.00,M,M,M,M,M,M,M,M,95.54,KNFL 090054Z 31012G19KT 10SM SCT080 SCT150 SCT250 38/06 A2994 RMK AO2 SLP111 CB DSNT SW T03780056,M
BVU,2024-08-09 00:55,-114.8611,35.9475,671.00,100.40,55.40,22.54,210.00,14.00,0.00,29.77,M,10.00,M,CLR,M,M,M,M,M,M,M,M,M,M,M,M,M,M,99.06,KBVU 090055Z AUTO 21014KT 10SM CLR 38/13 A2977 RMK AO2,M
CXP,2024-08-09 00:55,-119.7326,39.1923,1431.00,89.60,39.20,17.09,280.00,11.00,0.00,30.07,M,7.00,19.00,CLR,M,M,M,M,M,M,M,M,M,M,M,M,M,M,85.73,KCXP 090055Z AUTO 28011G19KT 7SM CLR 32/04 A3007 RMK AO2,M
INS,2024-08-09 00:55,-115.6733,36.5872,955.00,102.60,49.30,16.86,110.00,15.00,0.00,29.82,1003.50,10.00,18.00,CLR,M,M,M,M,M,M,M,M,M,M,M,M,M,M,99.51,KINS 090055Z AUTO 11015G18KT 10SM CLR 39/10 A2982 RMK AO2 SLP035 T03920096,M
RNO,2024-08-09 00:55,-119.7711,39.4839,1341.00,95.00,41.00,15.49,280.00,12.00,0.00,30.02,1009.90,10.00,23.00,FEW,SCT,M,M,10000.00,23000.00,M,M,M,M,M,M,M,M,M,90.70,KRNO 090055Z 28012G23KT 10SM FEW100 SCT230 35/05 A3002 RMK AO2 SLP099 T03500050,M
05U,2024-08-09 00:55,-116.0051,39.6042,1811.23,M,M,M,280.00,9.00,0.00,30.18,M,9.00,M,FEW,FEW,FEW,M,5000.00,6500.00,7500.00,M,M,M,M,M,M,M,M,M,K05U 090055Z AUTO 28009KT 9SM FEW050 FEW065 FEW075 A3018 RMK A01,M
BAM,2024-08-09 00:55,-116.8743,40.5990,1382.36,95.00,37.40,13.46,360.00,6.00,0.00,30.00,M,10.00,M,CLR,M,M,M,M,M,M,M,M,M,M,M,M,M,M,90.46,KBAM 090055Z AUTO 36006KT 10SM CLR 35/03 A3000 RMK AO1,M
HTH,2024-08-09 00:55,-118.6315,38.5448,1282.89,86.00,51.80,30.90,200.00,20.00,0.03,29.99,M,10.00,26.00,FEW,FEW,BKN,M,2700.00,6000.00,12000.00,M,M,M,M,M,M,M,M,83.87,KHTH 090055Z AUTO 20020G26KT 10SM FEW027 FEW060 BKN120 30/11 A2999 RMK A01 P0003,M
10U,2024-08-09 00:55,-116.1876,41.9532,1637.00,87.80,28.40,11.74,160.00,11.00,0.00,30.05,M,10.00,16.00,CLR,M,M,M,M,M,M,M,M,M,M,M,M,M,M,83.84,K10U 090055Z AUTO 16011G16KT 10SM CLR 31/M02 A3005 RMK AO2,M
TMT,2024-08-09 00:55,-117.1971,39.4643,1749.34,91.00,38.70,16.04,290.00,11.00,0.00,30.10,M,10.00,M,CLR,M,M,M,M,M,M,M,M,M,M,M,M,M,M,86.93,KTMT 090055Z AUTO 29011KT 10SM CLR 33/04 A3010 RMK AO2 T03270037,M
LSV,2024-08-09 00:55,-115.0343,36.2362,570.00,102.20,56.00,21.83,130.00,6.00,0.00,29.72,1003.10,10.00,M,FEW,M,M,M,20000.00,M,M,M,M,M,M,M,M,M,M,101.27,KLSV 090055Z AUTO 13006KT 10SM FEW200 39/13 A2972 RMK AO2 SLP031 T03900134 $,M
EKO,2024-08-09 00:56,-115.7860,40.8242,1367.00,94.00,34.00,12.13,290.00,12.00,0.00,30.02,1010.10,10.00,18.00,CLR,M,M,M,M,M,M,M,M,M,M,M,M,M,M,89.21,KEKO 090056Z AUTO 29012G18KT 10SM CLR 34/01 A3002 RMK AO2 WSHFT 2349 SLP101 T03440011 $,M
WMC,2024-08-09 00:56,-117.8072,40.9019,1315.00,95.00,36.00,12.73,M,M,0.00,29.96,1009.40,10.00,M,CLR,M,M,M,M,M,M,M,M,M,M,M,M,M,M,90.32,KWMC 090056Z AUTO 10SM CLR 35/02 A2996 RMK AO2 SLP094 T03500022,M
HND,2024-08-09 00:56,-115.1344,35.9729,742.79,103.00,54.00,19.81,220.00,16.00,0.00,29.82,1007.50,10.00,M,CLR,M,M,M,M,M,M,M,M,M,M,M,M,M,M,101.38,KHND 090056Z 22016KT 10SM CLR 39/12 A2982 RMK AO2 SLP075 T03940122,M
TPH,2024-08-09 00:56,-117.0904,38.0505,1654.00,89.00,42.00,19.41,280.00,19.00,0.00,30.08,1009.70,10.00,36.00,CLR,M,M,M,M,M,M,M,M,M,M,M,37.00,280.00,2024-08-09 00:42,85.36,KTPH 090056Z AUTO 28019G36KT 10SM CLR 32/06 A3008 RMK AO2 PK WND 28037/0042 SLP097 T03170056,M
LAS,2024-08-09 00:56,-115.1634,36.0719,663.00,105.00,54.00,18.67,200.00,8.00,0.00,29.78,1005.10,10.00,17.00,SCT,SCT,BKN,M,14000.00,18000.00,22000.00,M,M,M,M,M,M,M,M,103.53,KLAS 090056Z 20008G17KT 10SM SCT140 SCT180 BKN220 41/12 A2978 RMK AO2 SLP051 CB DSNT SE-S T04060122,M
BVU,2024-08-09 01:15,-114.8611,35.9475,671.00,98.60,55.40,23.81,200.00,10.00,0.00,29.78,M,10.00,M,CLR,M,M,M,M,M,M,M,M,M,M,M,M,M,M,97.09,KBVU 090115Z AUTO 20010KT 10SM CLR 37/13 A2978 RMK AO2,M
CXP,2024-08-09 01:15,-119.7326,39.1923,1431.00,89.60,37.40,15.92,270.00,11.00,0.00,30.07,M,10.00,16.00,CLR,M,M,M,M,M,M,M,M,M,M,M,M,M,M,85.67,KCXP 090115Z AUTO 27011G16KT 10SM CLR 32/03 A3007 RMK AO2,M
05U,2024-08-09 01:15,-116.0051,39.6042,1811.23,M,M,M,0.00,0.00,0.00,30.16,M,10.00,M,CLR,M,M,M,M,M,M,M,M,M,M,M,M,M,M,M,K05U 090115Z AUTO 00000KT 10SM CLR A3016 RMK A01,M
BAM,2024-08-09 01:15,-116.8743,40.5990,1382.36,95.00,39.20,14.44,360.00,9.00,0.00,29.99,M,10.00,M,CLR,M,M,M,M,M,M,M,M,M,M,M,M,M,M,90.57,KBAM 090115Z AUTO 36009KT 10SM CLR 35/04 A2999 RMK AO1,M
HTH,2024-08-09 01:15,-118.6315,38.5448,1282.89,78.80,48.20,34.13,110.00,12.00,0.00,29.98,M,1.25,27.00,SCT,BKN,BKN,M,300.00,2900.00,4600.00,M,HZ,M,M,M,M,M,M,78.80,KHTH 090115Z AUTO 11012G27KT 060V130 1 1/4SM HZ SCT003 BKN029 BKN046 26/09 A2998 RMK A01,M
10U,2024-08-09 01:15,-116.1876,41.9532,1637.00,87.80,26.60,10.91,260.00,9.00,0.00,30.05,M,10.00,M,CLR,M,M,M,M,M,M,M,M,M,M,M,M,M,M,83.69,K10U 090115Z AUTO 26009KT 10SM CLR 31/M03 A3005 RMK AO2,M
TMT,2024-08-09 01:15,-117.1971,39.4643,1749.34,89.80,39.00,16.85,330.00,12.00,0.00,30.10,M,10.00,17.00,CLR,M,M,M,M,M,M,M,M,M,M,M,M,M,M,85.90,KTMT 090115Z AUTO 33012G17KT 10SM CLR 32/04 A3010 RMK AO2 T03210039,M
05U,2024-08-09 01:30,-116.0051,39.6042,1811.23,M,M,M,0.00,0.00,0.00,30.15,M,10.00,M,CLR,M,M,M,M,M,M,M,M,M,M,M,M,M,M,M,K05U 090130Z AUTO 00000KT 10SM CLR A3015 RMK A01,M
BVU,2024-08-09 01:35,-114.8611,35.9475,671.00,100.40,53.60,21.11,200.00,8.00,0.00,29.78,M,10.00,M,CLR,M,M,M,M,M,M,M,M,M,M,M,M,M,M,98.44,KBVU 090135Z AUTO 20008KT 10SM CLR 38/12 A2978 RMK AO2,M
CXP,2024-08-09 01:35,-119.7326,39.1923,1431.00,87.80,41.00,19.40,260.00,11.00,0.00,30.07,M,7.00,M,CLR,M,M,M,M,M,M,M,M,M,M,M,M,M,M,84.30,KCXP 090135Z AUTO 26011KT 7SM CLR 31/05 A3007 RMK AO2,M
BAM,2024-08-09 01:35,-116.8743,40.5990,1382.36,93.20,39.20,15.27,360.00,8.00,0.00,29.99,M,10.00,M,CLR,M,M,M,M,M,M,M,M,M,M,M,M,M,M,88.92,KBAM 090135Z AUTO 36008KT 10SM CLR 34/04 A2999 RMK AO1,M
HTH,2024-08-09 01:35,-118.6315,38.5448,1282.89,82.40,50.00,32.46,M,3.00,0.00,30.00,M,10.00,M,FEW,FEW,FEW,M,300.00,2700.00,3200.00,M,M,M,M,M,M,M,M,80.99,KHTH 090135Z AUTO VRB03KT 10SM FEW003 FEW027 FEW032 28/10 A3000 RMK A01,M
10U,2024-08-09 01:35,-116.1876,41.9532,1637.00,89.60,26.60,10.30,270.00,8.00,0.00,30.05,M,10.00,14.00,CLR,M,M,M,M,M,M,M,M,M,M,M,M,M,M,85.02,K10U 090135Z AUTO 27008G14KT 10SM CLR 32/M03 A3005 RMK AO2,M
TMT,2024-08-09 01:35,-117.1971,39.4643,1749.34,89.40,39.20,17.20,330.00,6.00,0.00,30.10,M,10.00,M,CLR,M,M,M,M,M,M,M,M,M,M,M,M,M,M,85.56,KTMT 090135Z AUTO 33006KT 10SM CLR 32/04 A3010 RMK AO2 T03190040,M
05U,2024-08-09 01:50,-116.0051,39.6042,1811.23,M,M,M,30.00,9.00,0.00,30.15,M,10.00,14.00,CLR,M,M,M,M,M,M,M,M,M,M,M,M,M,M,M,K05U 090150Z AUTO 03009G14KT 10SM CLR A3015 RMK A01,M
DRA,2024-08-09 01:53,-116.0278,36.6206,1009.00,102.00,40.00,12.04,220.00,13.00,0.00,29.85,1004.80,10.00,17.00,CLR,M,M,M,M,M,M,M,M,M,M,M,M,M,M,96.98,KDRA 090153Z AUTO 22013G17KT 10SM CLR 39/04 A2985 RMK AO2 SLP048 T03890044,M
ELY,2024-08-09 01:53,-114.8453,39.2950,1909.00,83.00,37.00,19.35,220.00,5.00,0.00,30.12,1009.10,10.00,M,FEW,M,M,M,11000.00,M,M,M,M,M,M,M,M,M,M,80.53,KELY 090153Z AUTO 22005KT 10SM FEW110 28/03 A3012 RMK AO2 SLP091 T02830028,M
VGT,2024-08-09 01:53,-115.1933,36.2111,667.00,103.00,54.00,19.81,170.00,9.00,0.00,29.77,1006.30,10.00,M,CLR,M,M,M,M,M,M,M,M,M,M,M,M,M,M,101.38,KVGT 090153Z 17009KT 10SM CLR 39/12 A2977 RMK AO2 SLP063 T03940122,M
LOL,2024-08-09 01:53,-118.5701,40.0684,1192.43,94.00,41.00,15.97,280.00,14.00,0.00,29.93,1009.30,10.00,M,CLR,M,M,M,M,M,M,M,M,M,M,M,M,M,M,89.77,KLOL 090153Z AUTO 28014KT 10SM CLR 34/05 A2993 RMK AO2 SLP093 T03440050,M
NFL,2024-08-09 01:54,-118.7010,39.4166,1199.00,97.00,42.00,15.14,300.00,11.00,0.00,29.94,1011.10,9.00,M,SCT,SCT,SCT,M,8000.00,15000.00,25000.00,M,M,M,M,M,M,M,M,92.68,KNFL 090154Z 30011KT 9SM SCT080 SCT150 SCT250 36/06 A2994 RMK AO2 SLP111 CB DSNT S T03610056,M
BVU,2024-08-09 01:55,-114.8611,35.9475,671.00,100.40,55.40,22.54,160.00,6.00,0.00,29.78,M,10.00,M,CLR,M,M,M,M,M,M,M,M,M,M,M,M,M,M,99.06,KBVU 090155Z AUTO 16006KT 10SM CLR 38/13 A2978 RMK AO2,M
CXP,2024-08-09 01:55,-119.7326,39.1923,1431.00,87.80,41.00,19.40,250.00,11.00,0.00,30.07,M,6.00,17.00,CLR,M,M,M,M,M,M,M,HZ,M,M,M,M,M,M,84.30,KCXP 090155Z AUTO 25011G17KT 230V300 6SM HZ CLR 31/05 A3007 RMK AO2,M
INS,2024-08-09 01:55,-115.6733,36.5872,955.00,101.00,53.80,20.88,120.00,10.00,0.00,29.82,1003.50,10.00,M,CLR,M,M,M,M,M,M,M,M,M,M,M,M,M,M,99.15,KINS 090155Z AUTO 12010KT 10SM CLR 38/12 A2982 RMK AO2 SLP035 T03830121,M
RNO,2024-08-09 01:55,-119.7711,39.4839,1341.00,92.00,41.00,17.00,270.00,16.00,0.00,30.01,1009.80,10.00,26.00,SCT,BKN,M,M,10000.00,23000.00,M,M,M,M,M,M,26.00,270.00,2024-08-09 01:46,87.94,KRNO 090155Z 27016G26KT 10SM SCT100 BKN230 33/05 A3001 RMK AO2 PK WND 27026/0146 SLP098 ACSL ALQDS T03330050,M
LSV,2024-08-09 01:55,-115.0343,36.2362,570.00,104.00,52.00,17.87,170.00,11.00,0.00,29.71,1002.70,10.00,M,BKN,M,M,M,20000.00,M,M,M,M,M,M,M,M,M,M,101.76,KLSV 090155Z AUTO 17011KT 10SM BKN200 40/11 A2971 RMK AO2 SLP027 T04010112 $,M
BAM,2024-08-09 01:55,-116.8743,40.5990,1382.36,89.60,41.00,18.33,350.00,6.00,0.00,29.99,M,10.00,M,CLR,M,M,M,M,M,M,M,M,M,M,M,M,M,M,85.82,KBAM 090155Z AUTO 35006KT 10SM CLR 32/05 A2999 RMK AO1,M
HTH,2024-08-09 01:55,-118.6315,38.5448,1282.89,82.40,60.80,48.05,M,M,0.25,M,M,10.00,M,FEW,SCT,BKN,M,6000.00,7500.00,11000.00,M,M,M,M,M,M,M,M,82.90,KHTH 090155Z AUTO 10SM FEW060 SCT075 BKN110 28/16 RMK A01 P0025,M
10U,2024-08-09 01:55,-116.1876,41.9532,1637.00,87.80,26.60,10.91,330.00,10.00,0.00,30.05,M,10.00,M,CLR,M,M,M,M,M,M,M,M,M,M,M,M,M,M,83.69,K10U 090155Z AUTO 33010KT 10SM CLR 31/M03 A3005 RMK AO2,M
TMT,2024-08-09 01:55,-117.1971,39.4643,1749.34,87.00,38.70,18.19,310.00,12.00,0.00,30.10,M,10.00,15.00,CLR,M,M,M,M,M,M,M,M,M,M,M,M,M,M,83.56,KTMT 090155Z AUTO 31012G15KT 10SM CLR 31/04 A3010 RMK AO2 T03060037,M
EKO,2024-08-09 01:56,-115.7860,40.8242,1367.00,89.00,33.00,13.62,320.00,11.00,0.00,30.02,1010.80,10.00,M,CLR,M,M,M,M,M,M,M,M,M,M,M,M,M,M,85.08,KEKO 090156Z AUTO 32011KT 10SM CLR 32/01 A3002 RMK AO2 SLP108 T03170006 $,M
WMC,2024-08-09 01:56,-117.8072,40.9019,1315.00,95.00,36.00,12.73,270.00,8.00,0.00,29.96,1009.00,10.00,15.00,CLR,M,M,M,M,M,M,M,M,M,M,M,M,M,M,90.32,KWMC 090156Z AUTO 27008G15KT 10SM CLR 35/02 A2996 RMK AO2 SLP090 T03500022,M
HND,2024-08-09 01:56,-115.1344,35.9729,742.79,101.00,55.00,21.82,220.00,15.00,0.00,29.82,1007.80,10.00,M,CLR,M,M,M,M,M,M,M,M,M,M,M,M,M,M,99.57,KHND 090156Z 22015KT 10SM CLR 38/13 A2982 RMK AO2 SLP078 T03830128,M
TPH,2024-08-09 01:56,-117.0904,38.0505,1654.00,87.00,41.00,19.90,320.00,17.00,T,30.07,1009.50,10.00,30.00,CLR,M,M,M,M,M,M,M,M,M,M,M,32.00,300.00,2024-08-09 01:35,83.65,KTPH 090156Z AUTO 32017G30KT 10SM CLR 31/05 A3007 RMK AO2 PK WND 30032/0135 RAB07E18 SLP095 P0000 T03060050,M
LAS,2024-08-09 01:56,-115.1634,36.0719,663.00,103.00,53.00,19.10,190.00,9.00,0.00,29.78,1005.20,10.00,16.00,SCT,SCT,BKN,M,14000.00,18000.00,22000.00,M,M,M,M,M,M,M,M,101.03,KLAS 090156Z 19009G16KT 10SM SCT140 SCT180 BKN220 39/12 A2978 RMK AO2 SLP052 T03940117,M
BVU,2024-08-09 02:15,-114.8611,35.9475,671.00,98.60,55.40,23.81,150.00,9.00,0.00,29.78,M,10.00,M,CLR,M,M,M,M,M,M,M,M,M,M,M,M,M,M,97.09,KBVU 090215Z AUTO 15009KT 10SM CLR 37/13 A2978 RMK AO2,M
CXP,2024-08-09 02:15,-119.7326,39.1923,1431.00,86.00,41.00,20.54,250.00,10.00,0.00,30.07,M,6.00,15.00,CLR,M,M,M,M,M,M,M,HZ,M,M,M,M,M,M,82.86,KCXP 090215Z AUTO 25010G15KT 200V300 6SM HZ CLR 30/05 A3007 RMK AO2,M
05U,2024-08-09 02:15,-116.0051,39.6042,1811.23,M,M,M,360.00,7.00,0.00,30.16,M,10.00,M,CLR,M,M,M,M,M,M,M,M,M,M,M,M,M,M,M,K05U 090215Z AUTO 36007KT 10SM CLR A3016 RMK A01,M
BAM,2024-08-09 02:15,-116.8743,40.5990,1382.36,89.60,41.00,18.33,350.00,6.00,0.00,30.00,M,10.00,M,CLR,M,M,M,M,M,M,M,M,M,M,M,M,M,M,85.82,KBAM 090215Z AUTO 35006KT 10SM CLR 32/05 A3000 RMK AO1,M
HTH,2024-08-09 02:15,-118.6315,38.5448,1282.89,82.40,62.60,51.21,170.00,8.00,0.00,30.03,M,10.00,M,M,M,M,M,M,M,M,M,M,M,M,M,M,M,M,83.41,KHTH 090215Z AUTO 17008KT 10SM 28/17 A3003 RMK A01,M
10U,2024-08-09 02:15,-116.1876,41.9532,1637.00,84.20,32.00,15.25,10.00,10.00,0.00,30.05,M,10.00,M,CLR,M,M,M,M,M,M,M,M,M,M,M,M,M,M,81.28,K10U 090215Z AUTO 01010KT 10SM CLR 29/00 A3005 RMK AO2,M
TMT,2024-08-09 02:15,-117.1971,39.4643,1749.34,85.30,37.60,18.40,300.00,11.00,0.00,30.10,M,10.00,M,CLR,M,M,M,M,M,M,M,M,M,M,M,M,M,M,82.20,KTMT 090215Z AUTO 30011KT 10SM CLR 30/03 A3010 RMK AO2 T02960031,M
BVU,2024-08-09 02:35,-114.8611,35.9475,671.00,98.60,53.60,22.29,160.00,8.00,0.00,29.79,M,10.00,M,CLR,M,M,M,M,M,M,M,M,M,M,M,M,M,M,96.51,KBVU 090235Z AUTO 16008KT 10SM CLR 37/12 A2979 RMK AO2,M
CXP,2024-08-09 02:35,-119.7326,39.1923,1431.00,86.00,41.00,20.54,M,5.00,0.00,30.08,M,9.00,18.00,CLR,M,M,M,M,M,M,M,M,M,M,M,M,M,M,82.86,KCXP 090235Z AUTO VRB05G18KT 9SM CLR 30/05 A3008 RMK AO2,M
05U,2024-08-09 02:35,-116.0051,39.6042,1811.23,M,M,M,0.00,0.00,0.00,30.15,M,10.00,M,CLR,M,M,M,M,M,M,M,M,M,M,M,M,M,M,M,K05U 090235Z AUTO 00000KT 10SM CLR A3015 RMK A01,M
BAM,2024-08-09 02:35,-116.8743,40.5990,1382.36,89.60,41.00,18.33,350.00,5.00,0.00,30.00,M,10.00,M,CLR,M,M,M,M,M,M,M,M,M,M,M,M,M,M,85.82,KBAM 090235Z AUTO 35005KT 10SM CLR 32/05 A3000 RMK AO1,M
HTH,2024-08-09 02:35,-118.6315,38.5448,1282.89,M,M,M,M,M,0.00,30.02,M,M,M,M,M,M,M,M,M,M,M,M,M,M,M,M,M,M,M,KHTH 090235Z AUTO A3002 RMK A01,M
10U,2024-08-09 02:35,-116.1876,41.9532,1637.00,80.60,32.00,17.14,40.00,6.00,0.00,30.05,M,10.00,12.00,CLR,M,M,M,M,M,M,M,M,M,M,M,M,M,M,78.82,K10U 090235Z AUTO 04006G12KT 10SM CLR 27/00 A3005 RMK AO2,M
TMT,2024-08-09 02:35,-117.1971,39.4643,1749.34,84.00,37.60,19.18,310.00,9.00,0.00,30.11,M,10.00,M,CLR,M,M,M,M,M,M,M,M,M,M,M,M,M,M,81.24,KTMT 090235Z AUTO 31009KT 10SM CLR 29/03 A3011 RMK AO2 T02880031,M
05U,2024-08-09 02:50,-116.0051,39.6042,1811.23,M,M,M,0.00,0.00,0.00,30.16,M,10.00,M,CLR,M,M,M,M,M,M,M,M,M,M,M,M,M,M,M,K05U 090250Z AUTO 00000KT 10SM CLR A3016 RMK A01,M
P68,2024-08-09 02:53,-116.0056,39.6014,1993.00,75.00,44.00,33.03,0.00,0.00,0.00,30.13,1011.20,M,M,M,M,M,M,M,M,M,M,M,M,M,M,M,M,M,75.00,KP68 090253Z AUTO 00000KT 24/07 A3013 RMK AO1 SLP112 T02390067 51002,M
DRA,2024-08-09 02:53,-116.0278,36.6206,1009.00,98.00,40.00,13.59,210.00,8.00,0.00,29.85,1004.90,10.00,M,CLR,M,M,M,M,M,M,M,M,M,M,M,M,M,M,93.42,KDRA 090253Z AUTO 21008KT 10SM CLR 37/04 A2985 RMK AO2 SLP049 T03670044 53000,M
ELY,2024-08-09 02:53,-114.8453,39.2950,1909.00,80.00,35.00,19.71,20.00,6.00,0.00,30.14,1009.60,10.00,M,CLR,M,M,M,M,M,M,M,M,M,M,M,M,M,M,78.63,KELY 090253Z AUTO 02006KT 10SM CLR 27/02 A3014 RMK AO2 SLP096 T02670017 53008,M
VGT,2024-08-09 02:53,-115.1933,36.2111,667.00,100.00,55.00,22.49,190.00,10.00,0.00,29.78,1006.70,10.00,M,CLR,M,M,M,M,M,M,M,M,M,M,M,M,M,M,98.48,KVGT 090253Z AUTO 19010KT 10SM CLR 38/13 A2978 RMK AO2 SLP067 T03780128 55001,M
LOL,2024-08-09 02:53,-118.5701,40.0684,1192.43,90.00,41.00,18.10,280.00,6.00,0.00,29.94,1009.10,10.00,M,CLR,M,M,M,M,M,M,M,M,M,M,M,M,M,M,86.16,KLOL 090253Z AUTO 28006KT 10SM CLR 32/05 A2994 RMK AO2 SLP091 T03220050 55001,M
NFL,2024-08-09 02:54,-118.7010,39.4166,1199.00,92.00,41.00,17.00,280.00,6.00,0.00,29.95,1011.40,9.00,M,FEW,SCT,SCT,M,8000.00,15000.00,25000.00,M,M,M,M,M,M,M,M,87.94,KNFL 090254Z 28006KT 9SM FEW080 SCT150 SCT250 33/05 A2995 RMK AO2 SLP114 T03330050 53003,M
BVU,2024-08-09 02:55,-114.8611,35.9475,671.00,96.80,53.60,23.55,140.00,6.00,0.00,29.79,M,10.00,M,CLR,M,M,M,M,M,M,M,M,M,M,M,M,M,M,94.59,KBVU 090255Z AUTO 14006KT 10SM CLR 36/12 A2979 RMK AO2,M
CXP,2024-08-09 02:55,-119.7326,39.1923,1431.00,84.20,41.00,21.76,0.00,0.00,0.00,30.08,M,9.00,M,CLR,M,M,M,M,M,M,M,M,M,M,M,M,M,M,81.52,KCXP 090255Z AUTO 00000KT 9SM CLR 29/05 A3008 RMK AO2,M
INS,2024-08-09 02:55,-115.6733,36.5872,955.00,96.40,56.00,26.02,110.00,14.00,0.00,29.84,1004.10,10.00,M,CLR,M,M,M,M,M,M,M,M,M,M,M,M,M,M,94.91,KINS 090255Z AUTO 11014KT 10SM CLR 36/13 A2984 RMK AO2 SLP041 T03580133 53004,M
RNO,2024-08-09 02:55,-119.7711,39.4839,1341.00,88.00,42.00,20.03,260.00,10.00,0.00,30.04,1010.80,10.00,18.00,FEW,SCT,M,M,6000.00,10000.00,M,M,M,M,M,M,32.00,280.00,2024-08-09 01:56,84.52,KRNO 090255Z 26010G18KT 10SM FEW060 SCT100 31/06 A3004 RMK AO2 PK WND 28032/0156 SLP108 FU FEW060 ACSL ALQDS T03110056 53007,M
BAM,2024-08-09 02:55,-116.8743,40.5990,1382.36,87.80,41.00,19.40,360.00,3.00,0.00,30.00,M,10.00,M,CLR,M,M,M,M,M,M,M,M,M,M,M,M,M,M,84.30,KBAM 090255Z AUTO 36003KT 10SM CLR 31/05 A3000 RMK AO1,M
HTH,2024-08-09 02:55,-118.6315,38.5448,1282.89,82.40,55.40,39.58,170.00,10.00,0.00,30.02,M,10.00,16.00,M,M,M,M,M,M,M,M,M,M,M,M,M,M,M,81.75,KHTH 090255Z AUTO 17010G16KT 10SM 28/13 A3002 RMK A01,M
10U,2024-08-09 02:55,-116.1876,41.9532,1637.00,78.80,30.20,16.90,60.00,10.00,0.00,30.06,M,10.00,17.00,CLR,M,M,M,M,M,M,M,M,M,M,M,M,M,M,78.80,K10U 090255Z AUTO 06010G17KT 10SM CLR 26/M01 A3006 RMK AO2,M
TMT,2024-08-09 02:55,-117.1971,39.4643,1749.34,81.50,37.80,20.97,310.00,8.00,0.00,30.12,M,10.00,M,CLR,M,M,M,M,M,M,M,M,M,M,M,M,M,M,79.58,KTMT 090255Z AUTO 31008KT 10SM CLR 28/03 A3012 RMK AO2 T02750032,M
LSV,2024-08-09 02:55,-115.0343,36.2362,570.00,102.20,52.00,18.86,180.00,12.00,0.00,29.72,1003.10,10.00,M,FEW,M,M,M,20000.00,M,M,M,M,M,M,M,M,M,M,99.86,KLSV 090255Z AUTO 18012KT 10SM FEW200 39/11 A2972 RMK AO2 SLP031 T03900111 55001 $,M
EKO,2024-08-09 02:56,-115.7860,40.8242,1367.00,84.00,33.00,15.98,330.00,3.00,0.00,30.04,1010.90,10.00,M,CLR,M,M,M,M,M,M,M,M,M,M,M,M,M,M,81.14,KEKO 090256Z AUTO 33003KT 10SM CLR 29/01 A3004 RMK AO2 SLP109 T02890006 53003 $,M
WMC,2024-08-09 02:56,-117.8072,40.9019,1315.00,86.00,36.00,16.89,260.00,4.00,0.00,29.96,1009.50,9.00,M,CLR,M,M,M,M,M,M,M,M,M,M,M,M,M,M,82.70,KWMC 090256Z AUTO 26004KT 9SM CLR 30/02 A2996 RMK AO2 SLP095 T03000022 55004,M
HND,2024-08-09 02:56,-115.1344,35.9729,742.79,96.00,54.00,24.49,220.00,10.00,0.00,29.84,1008.40,10.00,M,CLR,M,M,M,M,M,M,M,M,M,M,M,M,M,M,93.86,KHND 090256Z 22010KT 10SM CLR 36/12 A2984 RMK AO2 SLP084 T03560122 53004,M
TPH,2024-08-09 02:56,-117.0904,38.0505,1654.00,86.00,40.00,19.76,350.00,12.00,0.00,30.09,1009.40,10.00,M,FEW,M,M,M,12000.00,M,M,M,M,M,M,M,27.00,300.00,2024-08-09 02:03,82.82,KTPH 090256Z AUTO 35012KT 10SM FEW120 30/04 A3009 RMK AO2 PK WND 30027/0203 SLP094 60000 T03000044 51013,M
LAS,2024-08-09 02:56,-115.1634,36.0719,663.00,100.00,53.00,20.90,200.00,10.00,0.00,29.80,1005.60,10.00,17.00,FEW,FEW,BKN,M,14000.00,18000.00,22000.00,M,M,M,M,M,M,M,M,97.82,KLAS 090256Z 20010G17KT 10SM FEW140 FEW180 BKN220 38/12 A2980 RMK AO2 SLP056 T03780117 53003,M
05U,2024-08-09 03:10,-116.0051,39.6042,1811.23,M,M,M,0.00,0.00,0.00,30.16,M,10.00,M,CLR,M,M,M,M,M,M,M,M,M,M,M,M,M,M,M,K05U 090310Z AUTO 00000KT 10SM CLR A3016 RMK A01,M
BVU,2024-08-09 03:15,-114.8611,35.9475,671.00,96.80,53.60,23.55,130.00,4.00,0.00,29.79,M,10.00,M,CLR,M,M,M,M,M,M,M,M,M,M,M,M,M,M,94.59,KBVU 090315Z AUTO 13004KT 10SM CLR 36/12 A2979 RMK AO2,M
CXP,2024-08-09 03:15,-119.7326,39.1923,1431.00,84.20,39.20,20.29,0.00,0.00,0.00,30.08,M,9.00,M,CLR,M,M,M,M,M,M,M,M,M,M,M,M,M,M,81.44,KCXP 090315Z AUTO 00000KT 9SM CLR 29/04 A3008 RMK AO2,M
BAM,2024-08-09 03:15,-116.8743,40.5990,1382.36,82.40,41.00,23.07,350.00,3.00,0.00,30.01,M,10.00,M,CLR,M,M,M,M,M,M,M,M,M,M,M,M,M,M,80.29,KBAM 090315Z AUTO 35003KT 10SM CLR 28/05 A3001 RMK AO1,M
HTH,2024-08-09 03:15,-118.6315,38.5448,1282.89,78.80,57.20,47.52,210.00,10.00,0.00,30.03,M,10.00,M,CLR,M,M,M,M,M,M,M,M,M,M,M,M,M,M,78.80,KHTH 090315Z AUTO 21010KT 10SM CLR 26/14 A3003 RMK A01,M
10U,2024-08-09 03:15,-116.1876,41.9532,1637.00,75.20,32.00,20.49,150.00,5.00,0.00,30.07,M,10.00,M,CLR,M,M,M,M,M,M,M,M,M,M,M,M,M,M,75.20,K10U 090315Z AUTO 15005KT 10SM CLR 24/M00 A3007 RMK AO2,M
TMT,2024-08-09 03:15,-117.1971,39.4643,1749.34,79.00,38.30,23.20,310.00,6.00,0.00,30.12,M,10.00,M,CLR,M,M,M,M,M,M,M,M,M,M,M,M,M,M,79.00,KTMT 090315Z AUTO 31006KT 10SM CLR 26/04 A3012 RMK AO2 T02610035,M
05U,2024-08-09 03:30,-116.0051,39.6042,1811.23,M,M,M,0.00,0.00,0.00,30.16,M,10.00,M,CLR,M,M,M,M,M,M,M,M,M,M,M,M,M,M,M,K05U 090330Z AUTO 00000KT 10SM CLR A3016 RMK A01,M
BVU,2024-08-09 03:35,-114.8611,35.9475,671.00,95.00,55.40,26.58,90.00,4.00,0.00,29.80,M,10.00,M,CLR,M,M,M,M,M,M,M,M,M,M,M,M,M,M,93.22,KBVU 090335Z AUTO 09004KT 10SM CLR 35/13 A2980 RMK AO2,M
CXP,2024-08-09 03:35,-119.7326,39.1923,1431.00,82.40,41.00,23.07,M,3.00,0.00,30.09,M,10.00,M,CLR,M,M,M,M,M,M,M,M,M,M,M,M,M,M,80.29,KCXP 090335Z AUTO VRB03KT 10SM CLR 28/05 A3009 RMK AO2,M
BAM,2024-08-09 03:35,-116.8743,40.5990,1382.36,82.40,41.00,23.07,0.00,0.00,0.00,30.01,M,10.00,M,CLR,M,M,M,M,M,M,M,M,M,M,M,M,M,M,80.29,KBAM 090335Z AUTO 00000KT 10SM CLR 28/05 A3001 RMK AO1,M
HTH,2024-08-09 03:35,-118.6315,38.5448,1282.89,80.60,57.20,44.80,200.00,5.00,0.00,30.03,M,10.00,12.00,SCT,M,M,M,12000.00,M,M,M,M,M,M,M,M,M,M,80.81,KHTH 090335Z AUTO 20005G12KT 10SM SCT120 27/14 A3003 RMK A01,M
10U,2024-08-09 03:35,-116.1876,41.9532,1637.00,75.20,32.00,20.49,320.00,8.00,0.00,30.09,M,10.00,14.00,CLR,M,M,M,M,M,M,M,M,M,M,M,M,M,M,75.20,K10U 090335Z AUTO 32008G14KT 10SM CLR 24/M00 A3009 RMK AO2,M
TMT,2024-08-09 03:35,-117.1971,39.4643,1749.34,78.00,39.00,24.65,340.00,3.00,0.00,30.13,M,10.00,M,CLR,M,M,M,M,M,M,M,M,M,M,M,M,M,M,78.00,KTMT 090335Z AUTO 34003KT 10SM CLR 26/04 A3013 RMK AO2 T02550038,M
05U,2024-08-09 03:50,-116.0051,39.6042,1811.23,M,M,M,0.00,0.00,0.00,30.17,M,10.00,M,CLR,M,M,M,M,M,M,M,M,M,M,M,M,M,M,M,K05U 090350Z AUTO 00000KT 10SM CLR A3017 RMK A01,M
P68,2024-08-09 03:53,-116.0056,39.6014,1993.00,69.00,44.00,40.47,190.00,7.00,0.00,30.14,1012.30,M,M,M,M,M,M,M,M,M,M,M,M,M,M,M,M,M,69.00,KP68 090353Z AUTO 19007KT 21/07 A3014 RMK AO1 SLP123 T02060067,M
DRA,2024-08-09 03:53,-116.0278,36.6206,1009.00,96.00,41.00,15.02,230.00,6.00,0.00,29.87,1005.30,10.00,M,CLR,M,M,M,M,M,M,M,M,M,M,M,M,M,M,91.64,KDRA 090353Z AUTO 23006KT 10SM CLR 36/05 A2987 RMK AO2 SLP053 T03560050,M
ELY,2024-08-09 03:53,-114.8453,39.2950,1909.00,78.00,38.00,23.70,30.00,11.00,0.00,30.17,1010.20,10.00,20.00,CLR,M,M,M,M,M,M,M,M,M,M,M,M,M,M,78.00,KELY 090353Z AUTO 03011G20KT 10SM CLR 26/03 A3017 RMK AO2 SLP102 T02560033,M
VGT,2024-08-09 03:53,-115.1933,36.2111,667.00,98.00,52.00,21.41,130.00,7.00,0.00,29.80,1007.40,10.00,M,CLR,M,M,M,M,M,M,M,M,M,M,M,M,M,M,95.42,KVGT 090353Z AUTO 13007KT 10SM CLR 37/11 A2980 RMK AO2 SLP074 T03670111,M
LOL,2024-08-09 03:53,-118.5701,40.0684,1192.43,85.00,40.00,20.40,290.00,9.00,0.00,29.96,1009.60,10.00,M,CLR,M,M,M,M,M,M,M,M,M,M,M,M,M,M,82.06,KLOL 090353Z AUTO 29009KT 10SM CLR 29/04 A2996 RMK AO2 SLP096 T02940044,M
NFL,2024-08-09 03:54,-118.7010,39.4166,1199.00,84.00,46.00,26.52,240.00,7.00,0.00,29.98,1012.30,10.00,M,FEW,FEW,SCT,M,8000.00,15000.00,25000.00,M,M,M,M,M,M,M,M,81.69,KNFL 090354Z 24007KT 10SM FEW080 FEW150 SCT250 29/08 A2998 RMK SLP123 T02890078,M
BVU,2024-08-09 03:55,-114.8611,35.9475,671.00,95.00,55.40,26.58,170.00,4.00,0.00,29.81,M,10.00,M,CLR,M,M,M,M,M,M,M,M,M,M,M,M,M,M,93.22,KBVU 090355Z AUTO 17004KT 10SM CLR 35/13 A2981 RMK AO2,M
CXP,2024-08-09 03:55,-119.7326,39.1923,1431.00,82.40,39.20,21.51,40.00,5.00,0.00,30.10,M,10.00,10.00,CLR,M,M,M,M,M,M,M,M,M,M,M,M,M,M,80.21,KCXP 090355Z AUTO 04005G10KT 10SM CLR 28/04 A3010 RMK AO2,M
INS,2024-08-09 03:55,-115.6733,36.5872,955.00,95.00,54.70,25.91,110.00,10.00,0.00,29.87,1005.20,10.00,M,CLR,M,M,M,M,M,M,M,M,M,M,M,M,M,M,93.01,KINS 090355Z AUTO 11010KT 10SM CLR 35/13 A2987 RMK AO2 SLP052 T03500126,M
RNO,2024-08-09 03:55,-119.7711,39.4839,1341.00,86.00,42.00,21.35,260.00,6.00,0.00,30.07,1011.40,10.00,M,FEW,FEW,M,M,10000.00,25000.00,M,M,M,M,M,M,M,M,M,82.91,KRNO 090355Z 26006KT 10SM FEW100 FEW250 30/06 A3007 RMK AO2 SLP114 ACSL ALQDS T03000056,M
BAM,2024-08-09 03:55,-116.8743,40.5990,1382.36,77.00,39.20,25.67,130.00,4.00,0.00,30.03,M,10.00,M,CLR,M,M,M,M,M,M,M,M,M,M,M,M,M,M,77.00,KBAM 090355Z AUTO 13004KT 10SM CLR 25/04 A3003 RMK AO1,M
HTH,2024-08-09 03:55,-118.6315,38.5448,1282.89,78.80,57.20,47.52,230.00,5.00,0.00,30.04,M,10.00,M,SCT,SCT,M,M,9500.00,12000.00,M,M,M,M,M,M,M,M,M,78.80,KHTH 090355Z AUTO 23005KT 10SM SCT095 SCT120 26/14 A3004 RMK A01,M
10U,2024-08-09 03:55,-116.1876,41.9532,1637.00,75.20,30.20,19.05,350.00,7.00,0.00,30.09,M,10.00,M,CLR,M,M,M,M,M,M,M,M,M,M,M,M,M,M,75.20,K10U 090355Z AUTO 35007KT 10SM CLR 24/M01 A3009 RMK AO2,M
TMT,2024-08-09 03:55,-117.1971,39.4643,1749.34,73.40,37.40,26.98,130.00,6.00,0.00,30.15,M,10.00,M,CLR,M,M,M,M,M,M,M,M,M,M,M,M,M,M,73.40,KTMT 090355Z AUTO 13006KT 10SM CLR 23/03 A3015 RMK AO2 T02300030,M
LSV,2024-08-09 03:55,-115.0343,36.2362,570.00,99.00,51.00,20.01,170.00,6.00,0.00,29.76,1004.40,10.00,M,BKN,M,M,M,21000.00,M,M,M,M,M,M,M,M,M,M,96.21,KLSV 090355Z AUTO 17006KT 10SM BKN210 37/11 A2976 RMK AO2 SLP044 T03730105 $,M
EKO,2024-08-09 03:56,-115.7860,40.8242,1367.00,76.00,38.00,25.32,0.00,0.00,0.00,30.06,1011.70,10.00,M,CLR,M,M,M,M,M,M,M,M,M,M,M,M,M,M,76.00,KEKO 090356Z AUTO 00000KT 10SM CLR 24/03 A3006 RMK AO2 SLP117 T02440033 $,M
WMC,2024-08-09 03:56,-117.8072,40.9019,1315.00,75.00,36.00,24.20,190.00,5.00,0.00,29.98,1010.20,10.00,M,CLR,M,M,M,M,M,M,M,M,M,M,M,M,M,M,75.00,KWMC 090356Z AUTO 19005KT 10SM CLR 24/02 A2998 RMK AO2 SLP102 T02390022,M
HND,2024-08-09 03:56,-115.1344,35.9729,742.79,94.00,55.00,27.02,200.00,13.00,0.00,29.86,1008.90,10.00,M,CLR,M,M,M,M,M,M,M,M,M,M,M,M,M,M,92.06,KHND 090356Z AUTO 20013KT 10SM CLR 34/13 A2986 RMK AO2 SLP089 T03440128,M
TPH,2024-08-09 03:56,-117.0904,38.0505,1654.00,86.00,40.00,19.76,350.00,13.00,0.00,30.10,1009.30,10.00,M,FEW,SCT,M,M,9000.00,11000.00,M,M,M,M,M,M,M,M,M,82.82,KTPH 090356Z AUTO 35013KT 10SM FEW090 SCT110 30/04 A3010 RMK AO2 SLP093 T03000044,M
LAS,2024-08-09 03:56,-115.1634,36.0719,663.00,98.00,53.00,22.21,170.00,7.00,0.00,29.82,1006.50,10.00,M,FEW,FEW,SCT,M,14000.00,18000.00,22000.00,M,M,M,M,M,M,M,M,95.69,KLAS 090356Z 17007KT 10SM FEW140 FEW180 SCT220 37/12 A2982 RMK AO2 SLP065 T03670117,M
BVU,2024-08-09 04:15,-114.8611,35.9475,671.00,95.00,55.40,26.58,0.00,0.00,0.00,29.83,M,10.00,M,CLR,M,M,M,M,M,M,M,M,M,M,M,M,M,M,93.22,KBVU 090415Z AUTO 00000KT 10SM CLR 35/13 A2983 RMK AO2,M
CXP,2024-08-09 04:15,-119.7326,39.1923,1431.00,80.60,41.00,24.46,360.00,7.00,0.00,30.11,M,10.00,M,CLR,M,M,M,M,M,M,M,M,M,M,M,M,M,M,79.20,KCXP 090415Z AUTO 36007KT 10SM CLR 27/05 A3011 RMK AO2,M
05U,2024-08-09 04:15,-116.0051,39.6042,1811.23,M,M,M,200.00,5.00,0.00,30.17,M,10.00,M,CLR,M,M,M,M,M,M,M,M,M,M,M,M,M,M,M,K05U 090415Z AUTO 20005KT 10SM CLR A3017 RMK A01,M
HTH,2024-08-09 04:15,-118.6315,38.5448,1282.89,80.60,51.80,36.79,240.00,4.00,0.00,30.04,M,10.00,10.00,CLR,M,M,M,M,M,M,M,M,M,M,M,M,M,M,80.08,KHTH 090415Z AUTO 24004G10KT 10SM CLR 27/11 A3004 RMK A01,M
10U,2024-08-09 04:15,-116.1876,41.9532,1637.00,71.60,30.20,21.50,10.00,6.00,0.00,30.10,M,10.00,M,CLR,M,M,M,M,M,M,M,M,M,M,M,M,M,M,71.60,K10U 090415Z AUTO 01006KT 10SM CLR 22/M01 A3010 RMK AO2,M
BAM,2024-08-09 04:15,-116.8743,40.5990,1382.36,75.20,37.40,25.40,150.00,7.00,0.00,30.03,M,10.00,M,CLR,M,M,M,M,M,M,M,M,M,M,M,M,M,M,75.20,KBAM 090415Z AUTO 15007KT 10SM CLR 24/03 A3003 RMK AO1,M
TMT,2024-08-09 04:15,-117.1971,39.4643,1749.34,75.70,39.00,26.60,100.00,3.00,0.00,30.15,M,10.00,M,SCT,M,M,M,12000.00,M,M,M,M,M,M,M,M,M,M,75.70,KTMT 090415Z AUTO 10003KT 10SM SCT120 24/04 A3015 RMK AO2 T02430039,M
BVU,2024-08-09 04:35,-114.8611,35.9475,671.00,91.40,57.20,31.72,80.00,3.00,0.00,29.83,M,10.00,M,CLR,M,M,M,M,M,M,M,M,M,M,M,M,M,M,90.06,KBVU 090435Z AUTO 08003KT 10SM CLR 33/14 A2983 RMK AO2,M
CXP,2024-08-09 04:35,-119.7326,39.1923,1431.00,80.60,42.80,26.22,0.00,0.00,0.00,30.12,M,10.00,M,CLR,M,M,M,M,M,M,M,M,M,M,M,M,M,M,79.30,KCXP 090435Z AUTO 00000KT 10SM CLR 27/06 A3012 RMK AO2,M
05U,2024-08-09 04:35,-116.0051,39.6042,1811.23,M,M,M,0.00,0.00,0.00,30.18,M,10.00,M,CLR,M,M,M,M,M,M,M,M,M,M,M,M,M,M,M,K05U 090435Z AUTO 00000KT 10SM CLR A3018 RMK A01,M
HTH,2024-08-09 04:35,-118.6315,38.5448,1282.89,77.00,60.80,57.36,100.00,8.00,0.00,30.05,M,10.00,M,CLR,M,M,M,M,M,M,M,M,M,M,M,M,M,M,77.00,KHTH 090435Z AUTO 10008KT 10SM CLR 25/16 A3005 RMK A01,M
10U,2024-08-09 04:35,-116.1876,41.9532,1637.00,71.60,28.40,19.98,350.00,4.00,0.00,30.11,M,10.00,M,CLR,M,M,M,M,M,M,M,M,M,M,M,M,M,M,71.60,K10U 090435Z AUTO 35004KT 10SM CLR 22/M02 A3011 RMK AO2,M
BAM,2024-08-09 04:35,-116.8743,40.5990,1382.36,73.40,35.60,25.13,150.00,6.00,0.00,30.03,M,10.00,M,CLR,M,M,M,M,M,M,M,M,M,M,M,M,M,M,73.40,KBAM 090435Z AUTO 15006KT 10SM CLR 23/02 A3003 RMK AO1,M
TMT,2024-08-09 04:35,-117.1971,39.4643,1749.34,75.00,38.00,26.18,130.00,6.00,0.00,30.15,M,10.00,M,BKN,M,M,M,12000.00,M,M,M,M,M,M,M,M,M,M,75.00,KTMT 090435Z AUTO 13006KT 10SM BKN120 24/03 A3015 RMK AO2 T02380033,M
LSV,2024-08-09 04:46,-115.0343,36.2362,570.00,98.60,55.40,23.81,50.00,8.00,0.00,29.79,1005.40,10.00,M,FEW,BKN,OVC,M,8500.00,14000.00,21000.00,M,-DZ,M,M,M,M,M,M,97.09,KLSV 090446Z AUTO 05008KT 10SM -DZ FEW085 BKN140 OVC210 37/13 A2979 RMK AO2 DZB46 SLP054 $,M
05U,2024-08-09 04:50,-116.0051,39.6042,1811.23,M,M,M,0.00,0.00,0.00,30.18,M,10.00,M,CLR,M,M,M,M,M,M,M,M,M,M,M,M,M,M,M,K05U 090450Z AUTO 00000KT 10SM CLR A3018 RMK A01,M
P68,2024-08-09 04:53,-116.0056,39.6014,1993.00,70.00,43.00,37.64,190.00,7.00,0.00,30.16,1012.20,M,M,M,M,M,M,M,M,M,M,M,M,M,M,M,M,M,70.00,KP68 090453Z AUTO 19007KT 21/06 A3016 RMK AO1 SLP122 T02110061,M
DRA,2024-08-09 04:53,-116.0278,36.6206,1009.00,93.00,45.00,19.21,210.00,5.00,0.00,29.89,1006.00,10.00,M,CLR,M,M,M,M,M,M,M,M,M,M,M,M,M,M,89.20,KDRA 090453Z AUTO 21005KT 10SM CLR 34/07 A2989 RMK AO2 SLP060 T03390072,M
ELY,2024-08-09 04:53,-114.8453,39.2950,1909.00,78.00,37.00,22.79,340.00,5.00,0.00,30.20,1010.60,10.00,M,SCT,M,M,M,12000.00,M,M,M,M,M,M,M,28.00,360.00,2024-08-09 04:08,78.00,KELY 090453Z AUTO 34005KT 10SM SCT120 26/03 A3020 RMK AO2 PK WND 36028/0408 SLP106 T02560028,M
VGT,2024-08-09 04:53,-115.1933,36.2111,667.00,96.00,54.00,24.49,90.00,11.00,0.00,29.84,1008.80,10.00,M,CLR,M,M,M,M,M,M,M,M,M,M,M,M,M,M,93.86,KVGT 090453Z AUTO 09011KT 10SM CLR 36/12 A2984 RMK AO2 LTG DSNT NE SLP088 T03560122,M
LOL,2024-08-09 04:53,-118.5701,40.0684,1192.43,86.00,36.00,16.89,290.00,13.00,0.00,29.98,1009.80,10.00,M,CLR,M,M,M,M,M,M,M,M,M,M,M,M,M,M,82.70,KLOL 090453Z AUTO 29013KT 10SM CLR 30/02 A2998 RMK AO2 SLP098 T03000022,M
NFL,2024-08-09 04:54,-118.7010,39.4166,1199.00,86.00,43.00,22.19,280.00,10.00,0.00,30.00,1012.90,10.00,M,FEW,FEW,M,M,15000.00,25000.00,M,M,M,M,M,M,M,M,M,82.97,KNFL 090454Z 28010KT 10SM FEW150 FEW250 30/06 A3000 RMK AO2 SLP129 T03000061,M
BVU,2024-08-09 04:55,-114.8611,35.9475,671.00,91.40,57.20,31.72,0.00,0.00,0.00,29.84,M,10.00,M,CLR,M,M,M,M,M,M,M,M,M,M,M,M,M,M,90.06,KBVU 090455Z AUTO 00000KT 10SM CLR 33/14 A2984 RMK AO2,M
CXP,2024-08-09 04:55,-119.7326,39.1923,1431.00,77.00,42.80,29.51,0.00,0.00,0.00,30.13,M,10.00,M,CLR,M,M,M,M,M,M,M,M,M,M,M,M,M,M,77.00,KCXP 090455Z AUTO 00000KT 10SM CLR 25/06 A3013 RMK AO2,M
RNO,2024-08-09 04:55,-119.7711,39.4839,1341.00,83.00,42.00,23.51,310.00,6.00,0.00,30.09,1012.10,10.00,M,FEW,FEW,M,M,10000.00,22000.00,M,M,M,M,M,M,M,M,M,80.74,KRNO 090455Z 31006KT 10SM FEW100 FEW220 28/06 A3009 RMK AO2 SLP121 T02830056,M
BAM,2024-08-09 04:55,-116.8743,40.5990,1382.36,73.40,35.60,25.13,140.00,7.00,0.00,30.03,M,10.00,M,CLR,M,M,M,M,M,M,M,M,M,M,M,M,M,M,73.40,KBAM 090455Z AUTO 14007KT 10SM CLR 23/02 A3003 RMK AO1,M
HTH,2024-08-09 04:55,-118.6315,38.5448,1282.89,75.20,57.20,53.55,150.00,10.00,0.00,30.05,M,10.00,M,CLR,M,M,M,M,M,M,M,M,M,M,M,M,M,M,75.20,KHTH 090455Z AUTO 15010KT 10SM CLR 24/14 A3005 RMK A01,M
10U,2024-08-09 04:55,-116.1876,41.9532,1637.00,69.80,30.20,22.86,350.00,5.00,0.00,30.11,M,10.00,11.00,CLR,M,M,M,M,M,M,M,M,M,M,M,M,M,M,69.80,K10U 090455Z AUTO 35005G11KT 10SM CLR 21/M01 A3011 RMK AO2,M
TMT,2024-08-09 04:55,-117.1971,39.4643,1749.34,75.20,38.30,26.32,0.00,0.00,0.00,30.16,M,10.00,M,SCT,M,M,M,12000.00,M,M,M,M,M,M,M,M,M,M,75.20,KTMT 090455Z AUTO 00000KT 10SM SCT120 24/04 A3016 RMK AO2 T02400035,M
INS,2024-08-09 04:55,-115.6733,36.5872,955.00,94.00,52.70,24.84,100.00,11.00,0.00,29.89,1005.80,10.00,M,CLR,M,M,M,M,M,M,M,M,M,M,M,M,M,M,91.46,KINS 090455Z AUTO 10011KT 10SM CLR 34/12 A2989 RMK AO2 SLP058 T03440115,M
LSV,2024-08-09 04:55,-115.0343,36.2362,570.00,92.30,69.60,47.67,30.00,18.00,0.02,29.81,1006.20,10.00,M,FEW,BKN,M,M,8000.00,14000.00,M,M,+RA,M,M,M,M,M,M,97.90,KLSV 090455Z AUTO 03018KT 10SM +RA FEW080 BKN140 34/21 A2981 RMK AO2 DZB46E49RAB49 PRESRR SLP062 P0002 T03350209 $,M
EKO,2024-08-09 04:56,-115.7860,40.8242,1367.00,72.00,34.00,24.72,0.00,0.00,0.00,30.08,1012.20,10.00,M,CLR,M,M,M,M,M,M,M,M,M,M,M,M,M,M,72.00,KEKO 090456Z AUTO 00000KT 10SM CLR 22/01 A3008 RMK AO2 SLP122 T02220011 $,M
WMC,2024-08-09 04:56,-117.8072,40.9019,1315.00,72.00,36.00,26.77,190.00,3.00,0.00,29.99,1010.00,10.00,M,CLR,M,M,M,M,M,M,M,M,M,M,M,M,M,M,72.00,KWMC 090456Z AUTO 19003KT 10SM CLR 22/02 A2999 RMK AO2 SLP100 T02220022,M
HND,2024-08-09 04:56,-115.1344,35.9729,742.79,95.00,53.00,24.35,190.00,7.00,0.00,29.88,1009.60,10.00,M,CLR,M,M,M,M,M,M,M,M,M,M,M,M,M,M,92.55,KHND 090456Z AUTO 19007KT 10SM CLR 35/12 A2988 RMK AO2 SLP096 T03500117,M
TPH,2024-08-09 04:56,-117.0904,38.0505,1654.00,84.00,40.00,21.07,330.00,10.00,0.00,30.12,1009.50,10.00,M,CLR,M,M,M,M,M,M,M,M,M,M,M,M,M,M,81.33,KTPH 090456Z AUTO 33010KT 10SM CLR 29/04 A3012 RMK AO2 SLP095 T02890044,M
LAS,2024-08-09 04:56,-115.1634,36.0719,663.00,97.00,54.00,23.75,140.00,5.00,0.00,29.85,1007.40,10.00,M,FEW,FEW,SCT,M,14000.00,18000.00,22000.00,M,M,M,M,M,M,M,M,94.92,KLAS 090456Z 14005KT 10SM FEW140 FEW180 SCT220 36/12 A2985 RMK AO2 SLP074 T03610122,M
CXP,2024-08-09 05:10,-119.7326,39.1923,1431.00,77.00,42.80,29.51,0.00,0.00,0.00,30.12,M,10.00,M,CLR,M,M,M,M,M,M,M,M,M,M,M,M,M,M,77.00,KCXP 090510Z AUTO 00000KT 10SM CLR 25/06 A3012 RMK AO2,M
05U,2024-08-09 05:10,-116.0051,39.6042,1811.23,M,M,M,0.00,0.00,0.00,30.18,M,10.00,M,CLR,M,M,M,M,M,M,M,M,M,M,M,M,M,M,M,K05U 090510Z AUTO 00000KT 10SM CLR A3018 RMK A01,M
LSV,2024-08-09 05:12,-115.0343,36.2362,570.00,87.80,62.60,43.07,40.00,24.00,0.00,29.84,1007.40,10.00,35.00,FEW,FEW,M,M,5000.00,8500.00,M,M,VCTS,M,M,M,M,M,M,88.48,KLSV 090512Z AUTO 04024G35KT 10SM VCTS FEW050 FEW085 31/17 A2984 RMK AO2 RAE12 PRESRR SLP074 $,M
BVU,2024-08-09 05:15,-114.8611,35.9475,671.00,91.40,57.20,31.72,40.00,4.00,0.00,29.84,M,10.00,M,CLR,M,M,M,M,M,M,M,M,M,M,M,M,M,M,90.06,KBVU 090515Z AUTO 04004KT 10SM CLR 33/14 A2984 RMK AO2,M
BAM,2024-08-09 05:15,-116.8743,40.5990,1382.36,71.60,35.60,26.71,150.00,3.00,0.00,30.03,M,10.00,M,CLR,M,M,M,M,M,M,M,M,M,M,M,M,M,M,71.60,KBAM 090515Z AUTO 15003KT 10SM CLR 22/02 A3003 RMK AO1,M
HTH,2024-08-09 05:15,-118.6315,38.5448,1282.89,77.00,55.40,47.25,140.00,7.00,0.00,30.05,M,10.00,M,CLR,M,M,M,M,M,M,M,M,M,M,M,M,M,M,77.00,KHTH 090515Z AUTO 14007KT 10SM CLR 25/13 A3005 RMK A01,M
10U,2024-08-09 05:15,-116.1876,41.9532,1637.00,66.20,30.20,25.88,0.00,0.00,0.00,30.11,M,10.00,M,CLR,M,M,M,M,M,M,M,M,M,M,M,M,M,M,66.20,K10U 090515Z AUTO 00000KT 10SM CLR 19/M01 A3011 RMK AO2,M
TMT,2024-08-09 05:15,-117.1971,39.4643,1749.34,73.80,38.70,28.02,0.00,0.00,0.00,30.16,M,10.00,M,SCT,M,M,M,12000.00,M,M,M,M,M,M,M,M,M,M,73.80,KTMT 090515Z AUTO 00000KT 10SM SCT120 23/04 A3016 RMK AO2 T02320037,M
LSV,2024-08-09 05:29,-115.0343,36.2362,570.00,82.40,64.40,54.55,60.00,25.00,0.00,29.85,1007.80,8.00,35.00,FEW,FEW,M,M,5000.00,9000.00,M,M,TS,M,M,M,M,M,M,83.98,KLSV 090529Z AUTO 06025G35KT 8SM TS FEW050 FEW090 28/18 A2985 RMK AO2 RAE12 TSB29 SLP078 $,M
LSV,2024-08-09 05:30,-115.0343,36.2362,570.00,82.40,64.40,54.55,60.00,23.00,0.00,29.85,1007.80,9.00,35.00,FEW,M,M,M,9000.00,M,M,M,-TSRA,M,M,M,M,M,M,83.98,KLSV 090530Z AUTO 06023G35KT 9SM -TSRA FEW090 28/18 A2985 RMK AO2 RAE12RAB30 TSB29 SLP078 $,M
05U,2024-08-09 05:30,-116.0051,39.6042,1811.23,M,M,M,0.00,0.00,0.00,30.19,M,10.00,14.00,SCT,M,M,M,12000.00,M,M,M,M,M,M,M,M,M,M,M,K05U 090530Z AUTO 00000G14KT 10SM SCT120 A3019 RMK A01,M
BVU,2024-08-09 05:35,-114.8611,35.9475,671.00,91.40,55.40,29.72,50.00,10.00,0.00,29.85,M,10.00,M,FEW,SCT,BKN,M,5000.00,9000.00,11000.00,M,M,M,M,M,M,M,M,89.53,KBVU 090535Z AUTO 05010KT 10SM FEW050 SCT090 BKN110 33/13 A2985 RMK AO2,M
CXP,2024-08-09 05:35,-119.7326,39.1923,1431.00,75.20,41.00,29.23,310.00,4.00,0.00,30.12,M,10.00,M,CLR,M,M,M,M,M,M,M,M,M,M,M,M,M,M,75.20,KCXP 090535Z AUTO 31004KT 10SM CLR 24/05 A3012 RMK AO2,M
RTS,2024-08-09 05:35,-119.8764,39.6682,1539.00,77.00,39.20,25.67,M,4.00,0.00,30.14,M,10.00,17.00,CLR,M,M,M,M,M,M,M,M,M,M,M,M,M,M,77.00,KRTS 090535Z AUTO VRB04G17KT 10SM CLR 25/04 A3014 RMK AO2,M
MEV,2024-08-09 05:35,-119.7500,38.9963,1441.42,77.00,42.80,29.51,250.00,7.00,0.00,30.12,M,9.00,13.00,FEW,FEW,M,M,3000.00,4200.00,M,M,M,M,M,M,M,M,M,77.00,KMEV 090535Z AUTO 25007G13KT 9SM FEW030 FEW042 25/06 A3012 RMK AO2,M
BAM,2024-08-09 05:35,-116.8743,40.5990,1382.36,71.60,35.60,26.71,200.00,3.00,0.00,30.03,M,10.00,M,CLR,M,M,M,M,M,M,M,M,M,M,M,M,M,M,71.60,KBAM 090535Z AUTO 20003KT 10SM CLR 22/02 A3003 RMK AO1,M
HTH,2024-08-09 05:35,-118.6315,38.5448,1282.89,75.20,55.40,50.17,160.00,5.00,0.00,30.05,M,10.00,M,CLR,M,M,M,M,M,M,M,M,M,M,M,M,M,M,75.20,KHTH 090535Z AUTO 16005KT 10SM CLR 24/13 A3005 RMK A01,M
10U,2024-08-09 05:35,-116.1876,41.9532,1637.00,66.20,28.40,24.04,170.00,4.00,0.00,30.10,M,10.00,M,CLR,M,M,M,M,M,M,M,M,M,M,M,M,M,M,66.20,K10U 090535Z AUTO 17004KT 10SM CLR 19/M02 A3010 RMK AO2,M
TMT,2024-08-09 05:35,-117.1971,39.4643,1749.34,75.60,38.70,26.38,220.00,3.00,0.00,30.16,M,10.00,M,CLR,M,M,M,M,M,M,M,M,M,M,M,M,M,M,75.60,KTMT 090535Z AUTO 22003KT 10SM CLR 24/04 A3016 RMK AO2 T02420037,M
05U,2024-08-09 05:50,-116.0051,39.6042,1811.23,M,M,M,0.00,0.00,0.00,30.19,M,10.00,M,SCT,M,M,M,12000.00,M,M,M,M,M,M,M,M,M,M,M,K05U 090550Z AUTO 00000KT 10SM SCT120 A3019 RMK A01,M
LSV,2024-08-09 05:51,-115.0343,36.2362,570.00,80.60,66.20,61.58,80.00,22.00,0.00,29.84,1007.40,10.00,28.00,FEW,FEW,SCT,M,5000.00,6000.00,8500.00,M,VCTS -RA,M,M,M,M,M,M,82.75,KLSV 090551Z AUTO 08022G28KT 10SM VCTS -RA FEW050 FEW060 SCT085 27/19 A2984 RMK AO2 RAE12RAB30E39DZB39E43RAB43 TSB29E51 SLP074 $,M
P68,2024-08-09 05:53,-116.0056,39.6014,1993.00,72.00,41.00,32.56,190.00,5.00,0.00,30.16,1011.80,M,M,M,M,M,M,M,M,M,M,M,M,M,M,M,M,M,72.00,KP68 090553Z AUTO 19005KT 22/05 A3016 RMK AO1 SLP118 T02220050 10294 20194 51009,M
DRA,2024-08-09 05:53,-116.0278,36.6206,1009.00,91.00,43.00,18.94,110.00,7.00,0.00,29.90,1006.20,10.00,M,CLR,M,M,M,M,M,M,M,M,M,M,M,M,M,M,87.18,KDRA 090553Z AUTO 11007KT 10SM CLR 33/06 A2990 RMK AO2 SLP062 T03280061 10411 20322 51015,M
ELY,2024-08-09 05:53,-114.8453,39.2950,1909.00,76.00,38.00,25.32,200.00,7.00,0.00,30.19,1010.20,10.00,M,BKN,M,M,M,11000.00,M,M,M,M,M,M,M,M,M,M,76.00,KELY 090553Z AUTO 20007KT 10SM BKN110 24/03 A3019 RMK AO2 SLP102 T02440033 10322 20244 50015,M
VGT,2024-08-09 05:53,-115.1933,36.2111,667.00,93.00,57.00,29.96,60.00,23.00,0.00,29.88,1010.40,10.00,33.00,CLR,M,M,M,M,M,M,M,M,M,M,M,37.00,60.00,2024-08-09 05:34,91.64,KVGT 090553Z AUTO 06023G33KT 10SM CLR 34/14 A2988 RMK AO2 PK WND 06037/0534 LTG DSNT NE AND E SLP104 T03390139 10394 20339 53033,M
LOL,2024-08-09 05:53,-118.5701,40.0684,1192.43,82.00,36.00,19.21,310.00,6.00,0.00,29.98,1009.90,10.00,M,CLR,M,M,M,M,M,M,M,M,M,M,M,M,M,M,79.83,KLOL 090553Z AUTO 31006KT 10SM CLR 28/02 A2998 RMK AO2 SLP099 T02780022 10372 20278 51012,M
NFL,2024-08-09 05:54,-118.7010,39.4166,1199.00,83.00,43.00,24.44,280.00,8.00,0.00,30.01,1013.10,10.00,M,FEW,FEW,M,M,15000.00,25000.00,M,M,M,M,M,M,M,M,M,80.79,KNFL 090554Z 28008KT 10SM FEW150 FEW250 28/06 A3001 RMK SLP131 T02830061 10383 20283 51017,M
BVU,2024-08-09 05:55,-114.8611,35.9475,671.00,93.20,59.00,31.99,30.00,16.00,0.00,29.87,M,10.00,M,FEW,BKN,OVC,M,7000.00,9000.00,11000.00,M,M,M,M,M,M,M,M,92.57,KBVU 090555Z AUTO 03016KT 10SM FEW070 BKN090 OVC110 34/15 A2987 RMK AO2 LTG DSNT N,M
CXP,2024-08-09 05:55,-119.7326,39.1923,1431.00,75.20,42.80,31.34,0.00,0.00,0.00,30.12,M,10.00,M,CLR,M,M,M,M,M,M,M,M,M,M,M,M,M,M,75.20,KCXP 090555Z AUTO 00000KT 10SM CLR 24/06 A3012 RMK AO2,M
INS,2024-08-09 05:55,-115.6733,36.5872,955.00,93.70,51.40,23.89,130.00,16.00,0.00,29.90,1006.10,10.00,23.00,BKN,M,M,M,16000.00,M,M,M,M,M,M,M,29.00,110.00,2024-08-09 05:49,90.87,KINS 090555Z AUTO 13016G23KT 10SM BKN160 34/11 A2990 RMK AO2 PK WND 11029/49 SLP061 T03430108 10397 20340 52018,M
RNO,2024-08-09 05:55,-119.7711,39.4839,1341.00,82.00,42.00,24.29,280.00,9.00,0.00,30.08,1011.50,10.00,M,FEW,FEW,M,M,10000.00,25000.00,M,M,M,M,M,M,M,M,M,80.09,KRNO 090555Z 28009KT 10SM FEW100 FEW250 28/06 A3008 RMK AO2 SLP115 T02780056 10361 20278 50011,M
RTS,2024-08-09 05:55,-119.8764,39.6682,1539.00,77.00,39.20,25.67,M,5.00,0.00,30.14,M,10.00,10.00,CLR,M,M,M,M,M,M,M,M,M,M,M,M,M,M,77.00,KRTS 090555Z AUTO VRB05G10KT 10SM CLR 25/04 A3014 RMK AO2,M
MEV,2024-08-09 05:55,-119.7500,38.9963,1441.42,71.60,42.80,35.37,190.00,7.00,0.00,30.12,M,9.00,M,FEW,FEW,M,M,3300.00,4400.00,M,M,M,M,M,M,M,M,M,71.60,KMEV 090555Z AUTO 19007KT 9SM FEW033 FEW044 22/06 A3012 RMK AO2,M
HTH,2024-08-09 05:55,-118.6315,38.5448,1282.89,75.20,59.00,57.12,0.00,0.00,0.00,30.05,M,10.00,M,FEW,FEW,FEW,M,3200.00,3700.00,4500.00,M,M,M,M,M,M,M,M,75.20,KHTH 090555Z AUTO 00000KT 10SM FEW032 FEW037 FEW045 24/15 A3005 RMK A01,M
10U,2024-08-09 05:55,-116.1876,41.9532,1637.00,60.80,28.40,29.06,170.00,4.00,0.00,30.10,M,10.00,M,CLR,M,M,M,M,M,M,M,M,M,M,M,M,M,M,60.80,K10U 090555Z AUTO 17004KT 10SM CLR 16/M02 A3010 RMK AO2,M
BAM,2024-08-09 05:55,-116.8743,40.5990,1382.36,71.60,35.60,26.71,210.00,3.00,0.00,30.03,M,10.00,M,CLR,M,M,M,M,M,M,M,M,M,M,M,M,M,M,71.60,KBAM 090555Z AUTO 21003KT 10SM CLR 22/02 A3003 RMK AO1,M
TMT,2024-08-09 05:55,-117.1971,39.4643,1749.34,71.20,39.00,30.95,220.00,7.00,0.00,30.16,M,10.00,M,CLR,M,M,M,M,M,M,M,M,M,M,M,M,M,M,71.20,KTMT 090555Z AUTO 22007KT 10SM CLR 22/04 A3016 RMK AO2 T02180039 10338 20215,M
LSV,2024-08-09 05:55,-115.0343,36.2362,570.00,81.70,64.40,55.81,90.00,24.00,0.01,29.84,1007.40,10.00,28.00,FEW,FEW,M,M,6000.00,8500.00,M,M,VCTS -RA,M,M,M,35.00,50.00,2024-08-09 05:23,83.31,KLSV 090555Z AUTO 09024G28KT 10SM VCTS -RA FEW060 FEW085 28/18 A2984 RMK AO2 PK WND 05035/23 RAE12RAB30E39DZB39E43RAB43 TSB29E51 SLP074 P0001 60003 T02760180 10402 20269 52038 $,M
EKO,2024-08-09 05:56,-115.7860,40.8242,1367.00,69.00,37.00,30.84,0.00,0.00,0.00,30.08,1011.90,10.00,M,CLR,M,M,M,M,M,M,M,M,M,M,M,M,M,M,69.00,KEKO 090556Z AUTO 00000KT 10SM CLR 21/03 A3008 RMK AO2 SLP119 T02060028 10350 20206 51012 $,M
WMC,2024-08-09 05:56,-117.8072,40.9019,1315.00,70.00,36.00,28.65,160.00,8.00,0.00,29.99,1009.90,10.00,M,CLR,M,M,M,M,M,M,M,M,M,M,M,M,M,M,70.00,KWMC 090556Z AUTO 16008KT 10SM CLR 21/02 A2999 RMK AO2 SLP099 T02110022 10367 20200 51008,M
HND,2024-08-09 05:56,-115.1344,35.9729,742.79,93.00,56.00,28.90,40.00,14.00,0.00,29.92,1011.20,10.00,22.00,CLR,M,M,M,M,M,M,M,M,M,M,M,26.00,360.00,2024-08-09 05:39,91.32,KHND 090556Z AUTO 04014G22KT 10SM CLR 34/13 A2992 RMK AO2 PK WND 36026/0539 LTG DSNT NE SLP112 T03390133 10406 20339 53027,M
TPH,2024-08-09 05:56,-117.0904,38.0505,1654.00,81.00,41.00,24.14,10.00,8.00,0.00,30.12,1009.50,10.00,M,CLR,M,M,M,M,M,M,M,M,M,M,M,M,M,M,79.43,KTPH 090556Z AUTO 01008KT 10SM CLR 27/05 A3012 RMK AO2 SLP095 60000 T02720050 10350 20272 51009,M
LAS,2024-08-09 05:56,-115.1634,36.0719,663.00,89.00,64.00,43.55,20.00,14.00,T,29.89,1008.90,10.00,23.00,FEW,BKN,BKN,M,10000.00,13000.00,18000.00,M,M,M,M,M,31.00,30.00,2024-08-09 05:25,90.38,KLAS 090556Z 02014G23KT 10SM FEW100 BKN130 BKN180 32/18 A2989 RMK AO2 PK WND 03031/0525 LTG DSNT N-E RAB34E52 SLP089 CB DSNT N-E P0000 60000 T03170178 10422 20306 53029,M
LSV,2024-08-09 06:01,-115.0343,36.2362,570.00,84.20,64.40,51.47,80.00,19.00,0.00,29.85,1007.70,10.00,28.00,FEW,FEW,FEW,M,6000.00,8500.00,17000.00,M,VCTS,M,M,M,M,M,M,85.71,KLSV 090601Z AUTO 08019G28KT 10SM VCTS FEW060 FEW085 FEW170 29/18 A2985 RMK AO2 RAE01 SLP077 $,M
BVU,2024-08-09 06:15,-114.8611,35.9475,671.00,91.40,57.20,31.72,20.00,15.00,0.00,29.89,M,10.00,24.00,FEW,SCT,OVC,M,6500.00,9000.00,12000.00,M,M,M,M,M,M,M,M,90.06,KBVU 090615Z AUTO 02015G24KT 10SM FEW065 SCT090 OVC120 33/14 A2989 RMK AO2,M
CXP,2024-08-09 06:15,-119.7326,39.1923,1431.00,73.40,42.80,33.29,110.00,4.00,0.00,30.12,M,10.00,M,CLR,M,M,M,M,M,M,M,M,M,M,M,M,M,M,73.40,KCXP 090615Z AUTO 11004KT 10SM CLR 23/06 A3012 RMK AO2,M
RTS,2024-08-09 06:15,-119.8764,39.6682,1539.00,71.60,39.20,30.77,330.00,8.00,0.00,30.15,M,10.00,M,CLR,M,M,M,M,M,M,M,M,M,M,M,M,M,M,71.60,KRTS 090615Z AUTO 33008KT 10SM CLR 22/04 A3015 RMK AO2,M
05U,2024-08-09 06:15,-116.0051,39.6042,1811.23,M,M,M,170.00,5.00,0.00,30.19,M,10.00,M,SCT,M,M,M,12000.00,M,M,M,M,M,M,M,M,M,M,M,K05U 090615Z AUTO 17005KT 10SM SCT120 A3019 RMK A01,M
MEV,2024-08-09 06:15,-119.7500,38.9963,1441.42,68.00,44.60,42.85,120.00,8.00,0.00,30.12,M,9.00,M,FEW,FEW,FEW,M,3000.00,3500.00,4400.00,M,M,M,M,M,M,M,M,68.00,KMEV 090615Z AUTO 12008KT 9SM FEW030 FEW035 FEW044 20/07 A3012 RMK AO2,M
HTH,2024-08-09 06:15,-118.6315,38.5448,1282.89,73.40,59.00,60.67,180.00,4.00,0.00,30.05,M,10.00,M,SCT,SCT,M,M,3500.00,4100.00,M,M,M,M,M,M,M,M,M,73.40,KHTH 090615Z AUTO 18004KT 10SM SCT035 SCT041 23/15 A3005 RMK A01,M
10U,2024-08-09 06:15,-116.1876,41.9532,1637.00,66.20,26.60,22.33,110.00,5.00,0.00,30.10,M,10.00,M,CLR,M,M,M,M,M,M,M,M,M,M,M,M,M,M,66.20,K10U 090615Z AUTO 11005KT 10SM CLR 19/M03 A3010 RMK AO2,M
BAM,2024-08-09 06:15,-116.8743,40.5990,1382.36,71.60,35.60,26.71,170.00,3.00,0.00,30.03,M,10.00,M,CLR,M,M,M,M,M,M,M,M,M,M,M,M,M,M,71.60,KBAM 090615Z AUTO 17003KT 10SM CLR 22/02 A3003 RMK AO1,M
TMT,2024-08-09 06:15,-117.1971,39.4643,1749.34,68.70,41.00,36.43,230.00,4.00,0.00,30.16,M,10.00,M,SCT,M,M,M,11000.00,M,M,M,M,M,M,M,M,M,M,68.70,KTMT 090615Z AUTO 23004KT 10SM SCT110 20/05 A3016 RMK AO2 T02040051,M
BVU,2024-08-09 06:35,-114.8611,35.9475,671.00,91.40,57.20,31.72,40.00,15.00,0.00,29.89,M,10.00,21.00,FEW,BKN,M,M,8500.00,12000.00,M,M,M,M,M,M,M,M,M,90.06,KBVU 090635Z AUTO 04015G21KT 10SM FEW085 BKN120 33/14 A2989 RMK AO2 LTG DSNT N-E,M
CXP,2024-08-09 06:35,-119.7326,39.1923,1431.00,73.40,42.80,33.29,100.00,4.00,0.00,30.13,M,10.00,M,CLR,M,M,M,M,M,M,M,M,M,M,M,M,M,M,73.40,KCXP 090635Z AUTO 10004KT 10SM CLR 23/06 A3013 RMK AO2,M
RTS,2024-08-09 06:35,-119.8764,39.6682,1539.00,73.40,39.20,28.96,290.00,10.00,0.00,30.14,M,10.00,M,CLR,M,M,M,M,M,M,M,M,M,M,M,M,M,M,73.40,KRTS 090635Z AUTO 29010KT 10SM CLR 23/04 A3014 RMK AO2,M
05U,2024-08-09 06:35,-116.0051,39.6042,1811.23,M,M,M,0.00,0.00,0.00,30.19,M,10.00,M,FEW,M,M,M,12000.00,M,M,M,M,M,M,M,M,M,M,M,K05U 090635Z AUTO 00000KT 10SM FEW120 A3019 RMK A01,M
MEV,2024-08-09 06:35,-119.7500,38.9963,1441.42,66.20,42.80,42.57,110.00,4.00,0.00,30.12,M,9.00,M,FEW,FEW,M,M,3000.00,3600.00,M,M,M,M,M,M,M,M,M,66.20,KMEV 090635Z AUTO 11004KT 9SM FEW030 FEW036 19/06 A3012 RMK AO2,M
HTH,2024-08-09 06:35,-118.6315,38.5448,1282.89,73.40,57.20,56.88,180.00,6.00,0.00,30.05,M,10.00,M,FEW,M,M,M,3600.00,M,M,M,M,M,M,M,M,M,M,73.40,KHTH 090635Z AUTO 18006KT 10SM FEW036 23/14 A3005 RMK A01,M
10U,2024-08-09 06:35,-116.1876,41.9532,1637.00,69.80,26.60,19.72,120.00,8.00,0.00,30.10,M,10.00,M,CLR,M,M,M,M,M,M,M,M,M,M,M,M,M,M,69.80,K10U 090635Z AUTO 12008KT 10SM CLR 21/M03 A3010 RMK AO2,M
BAM,2024-08-09 06:35,-116.8743,40.5990,1382.36,71.60,35.60,26.71,130.00,4.00,0.00,30.03,M,10.00,M,CLR,M,M,M,M,M,M,M,M,M,M,M,M,M,M,71.60,KBAM 090635Z AUTO 13004KT 10SM CLR 22/02 A3003 RMK AO1,M
TMT,2024-08-09 06:35,-117.1971,39.4643,1749.34,67.60,41.40,38.43,230.00,5.00,0.00,30.16,M,10.00,M,SCT,M,M,M,11000.00,M,M,M,M,M,M,M,M,M,M,67.60,KTMT 090635Z AUTO 23005KT 10SM SCT110 20/05 A3016 RMK AO2 T01980052,M
P68,2024-08-09 06:53,-116.0056,39.6014,1993.00,70.00,41.00,34.85,240.00,4.00,0.00,30.16,1011.50,M,M,M,M,M,M,M,M,M,M,M,M,M,M,M,M,M,70.00,KP68 090653Z AUTO 24004KT 21/05 A3016 RMK AO1 SLP115 T02110050,M
DRA,2024-08-09 06:53,-116.0278,36.6206,1009.00,92.00,51.00,24.82,100.00,18.00,0.00,29.93,1007.10,10.00,25.00,CLR,M,M,M,M,M,M,M,M,M,M,M,M,M,M,89.11,KDRA 090653Z AUTO 10018G25KT 10SM CLR 33/11 A2993 RMK AO2 SLP071 T03330106,M
ELY,2024-08-09 06:53,-114.8453,39.2950,1909.00,74.00,40.00,29.28,160.00,8.00,0.00,30.20,1010.10,10.00,M,FEW,M,M,M,6500.00,M,M,M,M,M,M,M,M,M,M,74.00,KELY 090653Z AUTO 16008KT 10SM FEW065 23/04 A3020 RMK AO2 SLP101 T02330044,M
VGT,2024-08-09 06:53,-115.1933,36.2111,667.00,85.00,60.00,42.95,50.00,17.00,0.00,29.92,1011.80,10.00,29.00,CLR,M,M,M,M,M,M,M,M,M,M,M,30.00,60.00,2024-08-09 05:55,84.89,KVGT 090653Z AUTO 05017G29KT 10SM CLR 29/16 A2992 RMK AO2 PK WND 06030/0555 LTG DSNT NE-SE SLP118 T02940156,M
LOL,2024-08-09 06:53,-118.5701,40.0684,1192.43,76.00,35.00,22.49,0.00,0.00,0.00,30.00,1010.80,10.00,M,CLR,M,M,M,M,M,M,M,M,M,M,M,M,M,M,76.00,KLOL 090653Z AUTO 00000KT 10SM CLR 24/02 A3000 RMK AO2 SLP108 T02440017,M
NFL,2024-08-09 06:54,-118.7010,39.4166,1199.00,78.00,44.00,29.90,270.00,5.00,0.00,30.02,1013.50,10.00,M,CLR,M,M,M,M,M,M,M,M,M,M,M,M,M,M,78.00,KNFL 090654Z AUTO 27005KT 10SM CLR 26/07 A3002 RMK AO2 SLP135 T02560067,M
BVU,2024-08-09 06:55,-114.8611,35.9475,671.00,91.40,57.20,31.72,40.00,13.00,0.00,29.91,M,10.00,M,FEW,BKN,BKN,M,4000.00,6000.00,7000.00,M,M,M,M,M,M,M,M,90.06,KBVU 090655Z AUTO 04013KT 10SM FEW040 BKN060 BKN070 33/14 A2991 RMK AO2 LTG DSNT N AND NE,M
CXP,2024-08-09 06:55,-119.7326,39.1923,1431.00,73.40,42.80,33.29,70.00,3.00,0.00,30.13,M,10.00,M,CLR,M,M,M,M,M,M,M,M,M,M,M,M,M,M,73.40,KCXP 090655Z AUTO 07003KT 10SM CLR 23/06 A3013 RMK AO2,M
INS,2024-08-09 06:55,-115.6733,36.5872,955.00,91.00,52.30,26.87,130.00,21.00,0.00,29.94,1007.40,10.00,31.00,SCT,BKN,M,M,14000.00,18000.00,M,M,M,M,M,M,31.00,140.00,2024-08-09 06:45,88.41,KINS 090655Z AUTO 13021G31KT 10SM SCT140 BKN180 33/11 A2994 RMK AO2 PK WND 14031/45 SLP074 T03280113,M
RNO,2024-08-09 06:55,-119.7711,39.4839,1341.00,80.00,42.00,25.93,280.00,9.00,0.00,30.09,1012.00,10.00,M,CLR,M,M,M,M,M,M,M,M,M,M,M,M,M,M,78.92,KRNO 090655Z 28009KT 10SM CLR 27/06 A3009 RMK AO2 SLP120 T02670056,M
RTS,2024-08-09 06:55,-119.8764,39.6682,1539.00,69.80,39.20,32.72,0.00,0.00,0.00,30.15,M,10.00,M,CLR,M,M,M,M,M,M,M,M,M,M,M,M,M,M,69.80,KRTS 090655Z AUTO 00000KT 10SM CLR 21/04 A3015 RMK AO2,M
05U,2024-08-09 06:55,-116.0051,39.6042,1811.23,M,M,M,0.00,0.00,0.00,30.19,M,10.00,M,FEW,M,M,M,12000.00,M,M,M,M,M,M,M,M,M,M,M,K05U 090655Z AUTO 00000KT 10SM FEW120 A3019 RMK A01,M
MEV,2024-08-09 06:55,-119.7500,38.9963,1441.42,64.40,42.80,45.32,120.00,7.00,0.00,30.12,M,9.00,M,FEW,SCT,SCT,M,3200.00,3700.00,4300.00,M,M,M,M,M,M,M,M,64.40,KMEV 090655Z AUTO 12007KT 9SM FEW032 SCT037 SCT043 18/06 A3012 RMK AO2,M
BAM,2024-08-09 06:55,-116.8743,40.5990,1382.36,69.80,35.60,28.39,140.00,5.00,0.00,30.03,M,10.00,M,CLR,M,M,M,M,M,M,M,M,M,M,M,M,M,M,69.80,KBAM 090655Z AUTO 14005KT 10SM CLR 21/02 A3003 RMK AO1,M
HTH,2024-08-09 06:55,-118.6315,38.5448,1282.89,73.40,57.20,56.88,190.00,4.00,0.00,30.05,M,10.00,M,CLR,M,M,M,M,M,M,M,M,M,M,M,M,M,M,73.40,KHTH 090655Z AUTO 19004KT 10SM CLR 23/14 A3005 RMK A01,M
10U,2024-08-09 06:55,-116.1876,41.9532,1637.00,69.80,28.40,21.24,120.00,9.00,0.00,30.10,M,10.00,M,CLR,M,M,M,M,M,M,M,M,M,M,M,M,M,M,69.80,K10U 090655Z AUTO 12009KT 10SM CLR 21/M02 A3010 RMK AO2,M
TMT,2024-08-09 06:55,-117.1971,39.4643,1749.34,67.30,39.20,35.65,170.00,4.00,0.00,30.16,M,10.00,M,CLR,M,M,M,M,M,M,M,M,M,M,M,M,M,M,67.30,KTMT 090655Z AUTO 17004KT 10SM CLR 20/04 A3016 RMK AO2 T01960040,M
LSV,2024-08-09 06:55,-115.0343,36.2362,570.00,84.00,61.00,45.96,60.00,19.00,T,29.86,1008.10,10.00,31.00,SCT,M,M,M,13000.00,M,M,M,M,M,M,M,31.00,60.00,2024-08-09 06:49,84.32,KLSV 090655Z AUTO 06019G31KT 10SM SCT130 29/16 A2986 RMK AO2 PK WND 06031/49 LTG DSNT NE-E RAE01 SLP081 P0000 T02890161 $,M
EKO,2024-08-09 06:56,-115.7860,40.8242,1367.00,65.00,40.00,39.83,0.00,0.00,0.00,30.08,1012.10,10.00,M,CLR,M,M,M,M,M,M,M,M,M,M,M,M,M,M,65.00,KEKO 090656Z AUTO 00000KT 10SM CLR 18/04 A3008 RMK AO2 SLP121 T01830044 $,M
WMC,2024-08-09 06:56,-117.8072,40.9019,1315.00,70.00,37.00,29.81,0.00,0.00,0.00,30.00,1010.20,10.00,M,CLR,M,M,M,M,M,M,M,M,M,M,M,M,M,M,70.00,KWMC 090656Z AUTO 00000KT 10SM CLR 21/03 A3000 RMK AO2 SLP102 T02110028,M
HND,2024-08-09 06:56,-115.1344,35.9729,742.79,90.00,61.00,37.97,50.00,11.00,0.00,29.96,1012.40,10.00,M,CLR,M,M,M,M,M,M,M,M,M,M,M,M,M,M,90.03,KHND 090656Z AUTO 05011KT 10SM CLR 32/16 A2996 RMK AO2 LTG DSNT NE AND E SLP124 T03220161 404110300,M
TPH,2024-08-09 06:56,-117.0904,38.0505,1654.00,78.00,40.00,25.62,350.00,3.00,0.00,30.13,1009.80,10.00,M,CLR,M,M,M,M,M,M,M,M,M,M,M,M,M,M,78.00,KTPH 090656Z AUTO 35003KT 10SM CLR 26/04 A3013 RMK AO2 SLP098 T02560044,M
LAS,2024-08-09 06:56,-115.1634,36.0719,663.00,92.00,58.00,32.04,10.00,7.00,0.00,29.94,1010.30,10.00,16.00,FEW,SCT,BKN,M,6000.00,13000.00,18000.00,M,M,M,M,M,M,M,M,90.94,KLAS 090656Z 01007G16KT 340V040 10SM FEW060 SCT130 BKN180 33/14 A2994 RMK AO2 LTG DSNT NE AND E SLP103 CB DSNT N-E T03330144,M
BVU,2024-08-09 07:15,-114.8611,35.9475,671.00,89.60,59.00,35.81,40.00,18.00,0.00,29.91,M,10.00,23.00,FEW,BKN,OVC,M,4400.00,5000.00,6500.00,M,VCTS,M,M,M,M,M,M,88.86,KBVU 090715Z AUTO 04018G23KT 10SM VCTS FEW044 BKN050 OVC065 32/15 A2991 RMK AO2 LTG DSNT N AND NE,M
CXP,2024-08-09 07:15,-119.7326,39.1923,1431.00,71.60,42.80,35.37,0.00,0.00,0.00,30.13,M,10.00,M,CLR,M,M,M,M,M,M,M,M,M,M,M,M,M,M,71.60,KCXP 090715Z AUTO 00000KT 10SM CLR 22/06 A3013 RMK AO2,M
RTS,2024-08-09 07:15,-119.8764,39.6682,1539.00,73.40,41.00,31.05,240.00,3.00,0.00,30.16,M,10.00,M,CLR,M,M,M,M,M,M,M,M,M,M,M,M,M,M,73.40,KRTS 090715Z AUTO 24003KT 10SM CLR 23/05 A3016 RMK AO2,M
05U,2024-08-09 07:15,-116.0051,39.6042,1811.23,M,M,M,0.00,0.00,0.00,30.19,M,10.00,M,CLR,M,M,M,M,M,M,M,M,M,M,M,M,M,M,M,K05U 090715Z AUTO 00000KT 10SM CLR A3019 RMK A01,M
MEV,2024-08-09 07:15,-119.7500,38.9963,1441.42,66.20,41.00,39.72,130.00,5.00,0.00,30.13,M,9.00,M,FEW,FEW,M,M,3200.00,4300.00,M,M,M,M,M,M,M,M,M,66.20,KMEV 090715Z AUTO 13005KT 9SM FEW032 FEW043 19/05 A3013 RMK AO2,M
BAM,2024-08-09 07:15,-116.8743,40.5990,1382.36,68.00,33.80,28.11,160.00,3.00,0.00,30.04,M,10.00,M,CLR,M,M,M,M,M,M,M,M,M,M,M,M,M,M,68.00,KBAM 090715Z AUTO 16003KT 10SM CLR 20/01 A3004 RMK AO1,M
HTH,2024-08-09 07:15,-118.6315,38.5448,1282.89,73.40,57.20,56.88,230.00,6.00,0.00,30.06,M,10.00,M,FEW,M,M,M,4300.00,M,M,M,M,M,M,M,M,M,M,73.40,KHTH 090715Z AUTO 23006KT 10SM FEW043 23/14 A3006 RMK A01,M
10U,2024-08-09 07:15,-116.1876,41.9532,1637.00,68.00,28.40,22.59,M,5.00,0.00,30.11,M,10.00,M,CLR,M,M,M,M,M,M,M,M,M,M,M,M,M,M,68.00,K10U 090715Z AUTO VRB05KT 10SM CLR 20/M02 A3011 RMK AO2,M
TMT,2024-08-09 07:15,-117.1971,39.4643,1749.34,65.70,38.00,35.95,200.00,8.00,0.00,30.16,M,10.00,M,CLR,M,M,M,M,M,M,M,M,M,M,M,M,M,M,65.70,KTMT 090715Z AUTO 20008KT 10SM CLR 19/03 A3016 RMK AO2 T01870033,M
BVU,2024-08-09 07:35,-114.8611,35.9475,671.00,86.00,62.60,45.61,30.00,21.00,0.00,29.92,M,10.00,M,FEW,BKN,OVC,M,3400.00,5000.00,8500.00,M,M,M,M,M,M,M,M,86.72,KBVU 090735Z AUTO 03021KT 10SM FEW034 BKN050 OVC085 30/17 A2992 RMK AO2 LTG DSNT NE AND SE,M
CXP,2024-08-09 07:35,-119.7326,39.1923,1431.00,71.60,42.80,35.37,0.00,0.00,0.00,30.14,M,10.00,M,CLR,M,M,M,M,M,M,M,M,M,M,M,M,M,M,71.60,KCXP 090735Z AUTO 00000KT 10SM CLR 22/06 A3014 RMK AO2,M
RTS,2024-08-09 07:35,-119.8764,39.6682,1539.00,73.40,41.00,31.05,240.00,4.00,0.00,30.16,M,10.00,M,CLR,M,M,M,M,M,M,M,M,M,M,M,M,M,M,73.40,KRTS 090735Z AUTO 24004KT 10SM CLR 23/05 A3016 RMK AO2,M
05U,2024-08-09 07:35,-116.0051,39.6042,1811.23,M,M,M,0.00,0.00,0.00,30.19,M,10.00,M,CLR,M,M,M,M,M,M,M,M,M,M,M,M,M,M,M,K05U 090735Z AUTO 00000KT 10SM CLR A3019 RMK A01,M
MEV,2024-08-09 07:35,-119.7500,38.9963,1441.42,66.20,41.00,39.72,110.00,4.00,0.00,30.13,M,10.00,M,FEW,FEW,FEW,M,2500.00,3500.00,4400.00,M,M,M,M,M,M,M,M,66.20,KMEV 090735Z AUTO 11004KT 10SM FEW025 FEW035 FEW044 19/05 A3013 RMK AO2,M
BAM,2024-08-09 07:35,-116.8743,40.5990,1382.36,64.40,33.80,31.85,130.00,4.00,0.00,30.04,M,10.00,M,CLR,M,M,M,M,M,M,M,M,M,M,M,M,M,M,64.40,KBAM 090735Z AUTO 13004KT 10SM CLR 18/01 A3004 RMK AO1,M
HTH,2024-08-09 07:35,-118.6315,38.5448,1282.89,71.60,59.00,64.48,240.00,5.00,0.00,30.06,M,10.00,M,FEW,FEW,M,M,3700.00,4400.00,M,M,M,M,M,M,M,M,M,71.60,KHTH 090735Z AUTO 24005KT 10SM FEW037 FEW044 22/15 A3006 RMK A01,M
10U,2024-08-09 07:35,-116.1876,41.9532,1637.00,68.00,28.40,22.59,120.00,7.00,0.00,30.10,M,10.00,M,CLR,M,M,M,M,M,M,M,M,M,M,M,M,M,M,68.00,K10U 090735Z AUTO 12007KT 10SM CLR 20/M02 A3010 RMK AO2,M
TMT,2024-08-09 07:35,-117.1971,39.4643,1749.34,64.60,38.00,37.36,200.00,9.00,0.00,30.16,M,10.00,M,CLR,M,M,M,M,M,M,M,M,M,M,M,M,M,M,64.60,KTMT 090735Z AUTO 20009KT 10SM CLR 18/03 A3016 RMK AO2 T01810033,M
05U,2024-08-09 07:50,-116.0051,39.6042,1811.23,M,M,M,0.00,0.00,0.00,30.19,M,10.00,M,CLR,M,M,M,M,M,M,M,M,M,M,M,M,M,M,M,K05U 090750Z AUTO 00000KT 10SM CLR A3019 RMK A01,M
P68,2024-08-09 07:53,-116.0056,39.6014,1993.00,67.00,43.00,41.72,0.00,0.00,0.00,30.17,1011.70,M,M,M,M,M,M,M,M,M,M,M,M,M,M,M,M,M,67.00,KP68 090753Z AUTO 00000KT 19/06 A3017 RMK AO1 SLP117 T01940061 403440128,M
DRA,2024-08-09 07:53,-116.0278,36.6206,1009.00,89.00,53.00,29.36,100.00,17.00,0.00,29.94,1007.50,10.00,26.00,CLR,M,M,M,M,M,M,M,M,M,M,M,32.00,90.00,2024-08-09 07:09,86.68,KDRA 090753Z AUTO 10017G26KT 10SM CLR 32/12 A2994 RMK AO2 PK WND 09032/0709 SLP075 T03170117 404110244,M
ELY,2024-08-09 07:53,-114.8453,39.2950,1909.00,74.00,39.00,28.16,170.00,6.00,0.00,30.21,1010.20,10.00,M,FEW,M,M,M,7500.00,M,M,M,M,M,M,M,M,M,M,74.00,KELY 090753Z AUTO 17006KT 10SM FEW075 23/04 A3021 RMK AO2 SLP102 T02330039 403390122,M
VGT,2024-08-09 07:53,-115.1933,36.2111,667.00,88.00,58.00,36.34,100.00,8.00,0.00,29.93,1012.00,10.00,M,CLR,M,M,M,M,M,M,M,M,M,M,M,M,M,M,86.99,KVGT 090753Z AUTO 10008KT 10SM CLR 31/14 A2993 RMK AO2 LTG DSNT E AND SE SLP120 T03110144 403940283,M
LOL,2024-08-09 07:53,-118.5701,40.0684,1192.43,78.00,36.00,21.90,110.00,7.00,0.00,30.02,1011.10,10.00,M,CLR,M,M,M,M,M,M,M,M,M,M,M,M,M,M,78.00,KLOL 090753Z AUTO 11007KT 10SM CLR 26/02 A3002 RMK AO2 SLP111 T02560022 403780144,M
BVU,2024-08-09 07:55,-114.8611,35.9475,671.00,82.40,62.60,51.21,50.00,14.00,0.00,29.94,M,10.00,22.00,SCT,BKN,OVC,M,6000.00,9500.00,11000.00,M,TS,M,M,M,M,M,M,83.41,KBVU 090755Z AUTO 05014G22KT 10SM TS SCT060 BKN095 OVC110 28/17 A2994 RMK AO2 LTG DSNT E-S,M
CXP,2024-08-09 07:55,-119.7326,39.1923,1431.00,69.80,42.80,37.61,0.00,0.00,0.00,30.14,M,10.00,M,CLR,M,M,M,M,M,M,M,M,M,M,M,M,M,M,69.80,KCXP 090755Z AUTO 00000KT 10SM CLR 21/06 A3014 RMK AO2,M
INS,2024-08-09 07:55,-115.6733,36.5872,955.00,89.00,53.40,29.79,130.00,21.00,0.00,29.95,1007.70,10.00,28.00,CLR,M,M,M,M,M,M,M,M,M,M,M,33.00,130.00,2024-08-09 07:00,86.76,KINS 090755Z AUTO 13021G28KT 10SM CLR 32/12 A2995 RMK AO2 PK WND 13033/00 SLP077 T03160119 404010259,M
RNO,2024-08-09 07:55,-119.7711,39.4839,1341.00,79.00,42.00,26.79,0.00,0.00,0.00,30.10,1012.20,10.00,M,CLR,M,M,M,M,M,M,M,M,M,M,M,M,M,M,79.00,KRNO 090755Z 00000KT 10SM CLR 26/06 A3010 RMK AO2 SLP122 T02610056 403610194,M
RTS,2024-08-09 07:55,-119.8764,39.6682,1539.00,64.40,37.40,36.74,310.00,7.00,0.00,30.16,M,10.00,M,CLR,M,M,M,M,M,M,M,M,M,M,M,M,M,M,64.40,KRTS 090755Z AUTO 31007KT 10SM CLR 18/03 A3016 RMK AO2,M
MEV,2024-08-09 07:55,-119.7500,38.9963,1441.42,64.40,41.00,42.28,110.00,6.00,0.00,30.13,M,10.00,M,CLR,M,M,M,M,M,M,M,M,M,M,M,M,M,M,64.40,KMEV 090755Z AUTO 11006KT 10SM CLR 18/05 A3013 RMK AO2,M
BAM,2024-08-09 07:55,-116.8743,40.5990,1382.36,62.60,33.80,33.93,190.00,6.00,0.00,30.04,M,10.00,M,CLR,M,M,M,M,M,M,M,M,M,M,M,M,M,M,62.60,KBAM 090755Z AUTO 19006KT 10SM CLR 17/01 A3004 RMK AO1,M
HTH,2024-08-09 07:55,-118.6315,38.5448,1282.89,73.40,55.40,53.29,220.00,5.00,0.00,30.06,M,10.00,M,FEW,FEW,M,M,3800.00,4500.00,M,M,M,M,M,M,M,M,M,73.40,KHTH 090755Z AUTO 22005KT 10SM FEW038 FEW045 23/13 A3006 RMK A01,M
10U,2024-08-09 07:55,-116.1876,41.9532,1637.00,68.00,28.40,22.59,110.00,6.00,0.00,30.10,M,10.00,11.00,CLR,M,M,M,M,M,M,M,M,M,M,M,M,M,M,68.00,K10U 090755Z AUTO 11006G11KT 10SM CLR 20/M02 A3010 RMK AO2,M
TMT,2024-08-09 07:55,-117.1971,39.4643,1749.34,68.50,40.60,36.12,220.00,7.00,0.00,30.17,M,10.00,M,CLR,M,M,M,M,M,M,M,M,M,M,M,M,M,M,68.50,KTMT 090755Z AUTO 22007KT 10SM CLR 20/05 A3017 RMK AO2 T02030048 403380080,M
LSV,2024-08-09 07:55,-115.0343,36.2362,570.00,86.00,60.60,42.49,350.00,3.00,0.00,29.86,1008.10,10.00,M,FEW,SCT,M,M,15000.00,21000.00,M,M,M,M,M,M,M,M,M,85.98,KLSV 090755Z AUTO 35003KT 10SM FEW150 SCT210 30/16 A2986 RMK AO2 LTG DSNT SE SLP081 T02990159 404020269 $,M
EKO,2024-08-09 07:56,-115.7860,40.8242,1367.00,68.00,38.00,33.20,0.00,0.00,0.00,30.08,1011.70,10.00,M,CLR,M,M,M,M,M,M,M,M,M,M,M,M,M,M,68.00,KEKO 090756Z AUTO 00000KT 10SM CLR 20/03 A3008 RMK AO2 SLP117 T02000033 403560122 $,M
WMC,2024-08-09 07:56,-117.8072,40.9019,1315.00,75.00,32.00,20.63,60.00,4.00,0.00,30.02,1010.50,10.00,M,CLR,M,M,M,M,M,M,M,M,M,M,M,M,M,M,75.00,KWMC 090756Z AUTO 06004KT 10SM CLR 24/00 A3002 RMK AO2 SLP105 T02390000 403670111,M
HND,2024-08-09 07:56,-115.1344,35.9729,742.79,87.00,61.00,41.75,360.00,4.00,0.00,29.98,1013.50,10.00,M,CLR,M,M,M,M,M,M,M,M,M,M,M,M,M,M,87.06,KHND 090756Z AUTO 36004KT 10SM CLR 31/16 A2998 RMK AO2 LTG DSNT NE-SE SLP135 T03060161,M
TPH,2024-08-09 07:56,-117.0904,38.0505,1654.00,76.00,40.00,27.38,310.00,6.00,0.00,30.14,1010.40,10.00,M,CLR,M,M,M,M,M,M,M,M,M,M,M,M,M,M,76.00,KTPH 090756Z AUTO 31006KT 10SM CLR 24/04 A3014 RMK AO2 SLP104 T02440044 403720194,M
LAS,2024-08-09 07:56,-115.1634,36.0719,663.00,87.00,60.00,40.29,280.00,6.00,0.00,29.95,1011.10,10.00,M,SCT,BKN,M,M,13000.00,19000.00,M,M,M,M,M,M,M,M,M,86.70,KLAS 090756Z 28006KT 10SM SCT130 BKN190 31/16 A2995 RMK AO2 LTG DSNT E AND SE SLP111 CB DSNT NE-SE T03060156 404220306,M
05U,2024-08-09 08:10,-116.0051,39.6042,1811.23,M,M,M,0.00,0.00,0.00,30.19,M,10.00,M,CLR,M,M,M,M,M,M,M,M,M,M,M,M,M,M,M,K05U 090810Z AUTO 00000KT 10SM CLR A3019 RMK A01,M
BVU,2024-08-09 08:15,-114.8611,35.9475,671.00,86.00,60.80,42.80,90.00,15.00,0.00,29.93,M,10.00,M,FEW,FEW,M,M,9500.00,11000.00,M,M,VCTS,M,M,M,M,M,M,86.05,KBVU 090815Z AUTO 09015KT 10SM VCTS FEW095 FEW110 30/16 A2993 RMK AO2 LTG DSNT E AND SE,M
CXP,2024-08-09 08:15,-119.7326,39.1923,1431.00,69.80,42.80,37.61,0.00,0.00,0.00,30.14,M,10.00,M,CLR,M,M,M,M,M,M,M,M,M,M,M,M,M,M,69.80,KCXP 090815Z AUTO 00000KT 10SM CLR 21/06 A3014 RMK AO2,M
RTS,2024-08-09 08:15,-119.8764,39.6682,1539.00,60.80,37.40,41.71,350.00,7.00,0.00,30.16,M,10.00,M,CLR,M,M,M,M,M,M,M,M,M,M,M,M,M,M,60.80,KRTS 090815Z AUTO 35007KT 10SM CLR 16/03 A3016 RMK AO2,M
MEV,2024-08-09 08:15,-119.7500,38.9963,1441.42,62.60,42.80,48.28,110.00,7.00,0.00,30.13,M,10.00,M,FEW,SCT,M,M,2600.00,3400.00,M,M,M,M,M,M,M,M,M,62.60,KMEV 090815Z AUTO 11007KT 10SM FEW026 SCT034 17/06 A3013 RMK AO2,M
BAM,2024-08-09 08:15,-116.8743,40.5990,1382.36,69.80,35.60,28.39,200.00,8.00,0.00,30.04,M,10.00,M,CLR,M,M,M,M,M,M,M,M,M,M,M,M,M,M,69.80,KBAM 090815Z AUTO 20008KT 10SM CLR 21/02 A3004 RMK AO1,M
HTH,2024-08-09 08:15,-118.6315,38.5448,1282.89,71.60,57.20,60.44,0.00,0.00,0.00,30.06,M,10.00,M,FEW,M,M,M,3600.00,M,M,M,M,M,M,M,M,M,M,71.60,KHTH 090815Z AUTO 00000KT 10SM FEW036 22/14 A3006 RMK A01,M
10U,2024-08-09 08:15,-116.1876,41.9532,1637.00,68.00,28.40,22.59,110.00,10.00,0.00,30.10,M,10.00,M,CLR,M,M,M,M,M,M,M,M,M,M,M,M,M,M,68.00,K10U 090815Z AUTO 11010KT 10SM CLR 20/M02 A3010 RMK AO2,M
TMT,2024-08-09 08:15,-117.1971,39.4643,1749.34,63.70,42.00,45.04,220.00,6.00,0.00,30.18,M,10.00,M,CLR,M,M,M,M,M,M,M,M,M,M,M,M,M,M,63.70,KTMT 090815Z AUTO 22006KT 10SM CLR 18/06 A3018 RMK AO2 T01760055,M
BVU,2024-08-09 08:35,-114.8611,35.9475,671.00,84.20,60.80,45.34,100.00,15.00,0.00,29.92,M,10.00,20.00,SCT,M,M,M,12000.00,M,M,M,M,M,M,M,M,M,M,84.43,KBVU 090835Z AUTO 10015G20KT 10SM SCT120 29/16 A2992 RMK AO2,M
CXP,2024-08-09 08:35,-119.7326,39.1923,1431.00,68.00,42.80,40.00,0.00,0.00,0.00,30.14,M,10.00,M,CLR,M,M,M,M,M,M,M,M,M,M,M,M,M,M,68.00,KCXP 090835Z AUTO 00000KT 10SM CLR 20/06 A3014 RMK AO2,M
RTS,2024-08-09 08:35,-119.8764,39.6682,1539.00,64.40,39.20,39.43,320.00,8.00,0.00,30.16,M,10.00,M,CLR,M,M,M,M,M,M,M,M,M,M,M,M,M,M,64.40,KRTS 090835Z AUTO 32008KT 10SM CLR 18/04 A3016 RMK AO2,M
05U,2024-08-09 08:35,-116.0051,39.6042,1811.23,M,M,M,0.00,0.00,0.00,30.19,M,10.00,M,CLR,M,M,M,M,M,M,M,M,M,M,M,M,M,M,M,K05U 090835Z AUTO 00000KT 10SM CLR A3019 RMK A01,M
MEV,2024-08-09 08:35,-119.7500,38.9963,1441.42,62.60,41.00,45.04,130.00,3.00,0.00,30.13,M,10.00,M,FEW,SCT,BKN,M,2300.00,2800.00,3600.00,M,M,M,M,M,M,M,M,62.60,KMEV 090835Z AUTO 13003KT 10SM FEW023 SCT028 BKN036 17/05 A3013 RMK AO2,M
BAM,2024-08-09 08:35,-116.8743,40.5990,1382.36,66.20,33.80,29.92,0.00,0.00,0.00,30.04,M,10.00,M,CLR,M,M,M,M,M,M,M,M,M,M,M,M,M,M,66.20,KBAM 090835Z AUTO 00000KT 10SM CLR 19/01 A3004 RMK AO1,M
HTH,2024-08-09 08:35,-118.6315,38.5448,1282.89,71.60,55.40,56.63,0.00,0.00,0.00,30.07,M,10.00,M,FEW,M,M,M,4600.00,M,M,M,M,M,M,M,M,M,M,71.60,KHTH 090835Z AUTO 00000KT 10SM FEW046 22/13 A3007 RMK A01,M
10U,2024-08-09 08:35,-116.1876,41.9532,1637.00,68.00,28.40,22.59,120.00,8.00,0.00,30.10,M,10.00,M,CLR,M,M,M,M,M,M,M,M,M,M,M,M,M,M,68.00,K10U 090835Z AUTO 12008KT 10SM CLR 20/M02 A3010 RMK AO2,M
TMT,2024-08-09 08:35,-117.1971,39.4643,1749.34,58.30,37.80,46.33,140.00,5.00,0.00,30.18,M,10.00,M,CLR,M,M,M,M,M,M,M,M,M,M,M,M,M,M,58.30,KTMT 090835Z AUTO 14005KT 10SM CLR 15/03 A3018 RMK AO2 T01460032,M
P68,2024-08-09 08:53,-116.0056,39.6014,1993.00,65.00,43.00,44.73,0.00,0.00,0.00,30.17,1011.80,M,M,M,M,M,M,M,M,M,M,M,M,M,M,M,M,M,65.00,KP68 090853Z AUTO 00000KT 18/06 A3017 RMK AO1 SLP118 T01830061 53001,M
DRA,2024-08-09 08:53,-116.0278,36.6206,1009.00,88.00,52.00,29.21,130.00,6.00,0.00,29.94,1007.30,10.00,M,CLR,M,M,M,M,M,M,M,M,M,M,M,M,M,M,85.60,KDRA 090853Z AUTO 13006KT 10SM CLR 31/11 A2994 RMK AO2 SLP073 T03110111 50010,M
ELY,2024-08-09 08:53,-114.8453,39.2950,1909.00,71.00,40.00,32.40,180.00,8.00,0.00,30.20,1010.10,10.00,M,FEW,M,M,M,11000.00,M,M,M,M,M,M,M,M,M,M,71.00,KELY 090853Z AUTO 18008KT 10SM FEW110 22/04 A3020 RMK AO2 SLP101 T02170044 50002,M
VGT,2024-08-09 08:53,-115.1933,36.2111,667.00,89.00,59.00,36.49,220.00,4.00,0.00,29.93,1011.80,10.00,M,CLR,M,M,M,M,M,M,M,M,M,M,M,M,M,M,88.27,KVGT 090853Z AUTO 22004KT 10SM CLR 32/15 A2993 RMK AO2 SLP118 T03170150 50013,M
LOL,2024-08-09 08:53,-118.5701,40.0684,1192.43,73.00,35.00,24.87,110.00,4.00,0.00,30.02,1011.30,10.00,M,CLR,M,M,M,M,M,M,M,M,M,M,M,M,M,M,73.00,KLOL 090853Z AUTO 11004KT 10SM CLR 23/02 A3002 RMK AO2 SLP113 T02280017 51011,M
BVU,2024-08-09 08:55,-114.8611,35.9475,671.00,84.20,62.60,48.32,120.00,13.00,0.00,29.91,M,10.00,M,FEW,SCT,BKN,M,6500.00,8000.00,12000.00,M,M,M,M,M,M,M,M,85.03,KBVU 090855Z AUTO 12013KT 10SM FEW065 SCT080 BKN120 29/17 A2991 RMK AO2,M
CXP,2024-08-09 08:55,-119.7326,39.1923,1431.00,68.00,42.80,40.00,290.00,3.00,0.00,30.14,M,10.00,M,CLR,M,M,M,M,M,M,M,M,M,M,M,M,M,M,68.00,KCXP 090855Z AUTO 29003KT 10SM CLR 20/06 A3014 RMK AO2,M
INS,2024-08-09 08:55,-115.6733,36.5872,955.00,88.50,52.00,28.75,120.00,17.00,0.00,29.94,1007.40,10.00,M,CLR,M,M,M,M,M,M,M,M,M,M,M,29.00,100.00,2024-08-09 08:04,86.04,KINS 090855Z AUTO 12017KT 10SM CLR 31/11 A2994 RMK AO2 PK WND 10029/04 SLP074 T03140112 50012,M
RNO,2024-08-09 08:55,-119.7711,39.4839,1341.00,74.00,45.00,35.48,180.00,3.00,0.00,30.10,1012.60,10.00,M,FEW,M,M,M,12000.00,M,M,M,M,M,M,M,M,M,M,74.00,KRNO 090855Z 18003KT 10SM FEW120 23/07 A3010 RMK AO2 SLP126 T02330072 51006,M
RTS,2024-08-09 08:55,-119.8764,39.6682,1539.00,64.40,37.40,36.74,320.00,7.00,0.00,30.15,M,10.00,M,CLR,M,M,M,M,M,M,M,M,M,M,M,M,M,M,64.40,KRTS 090855Z AUTO 32007KT 10SM CLR 18/03 A3015 RMK AO2,M
05U,2024-08-09 08:55,-116.0051,39.6042,1811.23,M,M,M,0.00,0.00,0.00,30.19,M,10.00,M,CLR,M,M,M,M,M,M,M,M,M,M,M,M,M,M,M,K05U 090855Z AUTO 00000KT 10SM CLR A3019 RMK A01,M
MEV,2024-08-09 08:55,-119.7500,38.9963,1441.42,59.00,41.00,51.18,140.00,4.00,0.00,30.13,M,10.00,M,FEW,FEW,M,M,2900.00,3600.00,M,M,M,M,M,M,M,M,M,59.00,KMEV 090855Z AUTO 14004KT 10SM FEW029 FEW036 15/05 A3013 RMK AO2,M
BAM,2024-08-09 08:55,-116.8743,40.5990,1382.36,64.40,33.80,31.85,150.00,4.00,0.00,30.04,M,10.00,M,CLR,M,M,M,M,M,M,M,M,M,M,M,M,M,M,64.40,KBAM 090855Z AUTO 15004KT 10SM CLR 18/01 A3004 RMK AO1,M
HTH,2024-08-09 08:55,-118.6315,38.5448,1282.89,69.80,59.00,68.55,0.00,0.00,0.00,30.07,M,10.00,M,CLR,M,M,M,M,M,M,M,M,M,M,M,M,M,M,69.80,KHTH 090855Z AUTO 00000KT 10SM CLR 21/15 A3007 RMK A01,M
10U,2024-08-09 08:55,-116.1876,41.9532,1637.00,66.20,28.40,24.04,110.00,11.00,0.00,30.09,M,10.00,M,CLR,M,M,M,M,M,M,M,M,M,M,M,M,M,M,66.20,K10U 090855Z AUTO 11011KT 10SM CLR 19/M02 A3009 RMK AO2,M
LSV,2024-08-09 08:55,-115.0343,36.2362,570.00,88.00,57.60,35.82,280.00,7.00,0.00,29.88,1008.70,10.00,M,FEW,FEW,M,M,16000.00,21000.00,M,M,M,M,M,M,M,M,M,86.88,KLSV 090855Z AUTO 28007KT 10SM FEW160 FEW210 31/14 A2988 RMK AO2 SLP087 60000 T03110142 50010 $,M
TMT,2024-08-09 08:55,-117.1971,39.4643,1749.34,60.00,37.60,43.25,170.00,6.00,0.00,30.18,M,10.00,M,CLR,M,M,M,M,M,M,M,M,M,M,M,M,M,M,60.00,KTMT 090855Z AUTO 17006KT 10SM CLR 16/03 A3018 RMK AO2 T01550031,M
EKO,2024-08-09 08:56,-115.7860,40.8242,1367.00,61.00,38.00,42.40,0.00,0.00,0.00,30.08,1012.10,10.00,M,CLR,M,M,M,M,M,M,M,M,M,M,M,M,M,M,61.00,KEKO 090856Z AUTO 00000KT 10SM CLR 16/03 A3008 RMK AO2 SLP121 T01610033 52000 $,M
WMC,2024-08-09 08:56,-117.8072,40.9019,1315.00,72.00,32.00,22.82,60.00,4.00,0.00,30.03,1010.60,10.00,M,CLR,M,M,M,M,M,M,M,M,M,M,M,M,M,M,72.00,KWMC 090856Z AUTO 06004KT 10SM CLR 22/00 A3003 RMK AO2 SLP106 T02220000 51010,M
HND,2024-08-09 08:56,-115.1344,35.9729,742.79,86.00,60.00,41.60,210.00,6.00,0.00,29.97,1012.90,10.00,M,CLR,M,M,M,M,M,M,M,M,M,M,M,M,M,M,85.78,KHND 090856Z AUTO 21006KT 10SM CLR 30/16 A2997 RMK AO2 SLP129 T03000156 50014,M
TPH,2024-08-09 08:56,-117.0904,38.0505,1654.00,76.00,41.00,28.47,320.00,4.00,0.00,30.14,1010.40,10.00,M,CLR,M,M,M,M,M,M,M,M,M,M,M,M,M,M,76.00,KTPH 090856Z AUTO 32004KT 10SM CLR 24/05 A3014 RMK AO2 SLP104 T02440050 51007,M
LAS,2024-08-09 08:56,-115.1634,36.0719,663.00,89.00,60.00,37.82,240.00,6.00,0.00,29.93,1010.30,10.00,M,FEW,BKN,BKN,M,13000.00,15000.00,20000.00,M,M,M,M,M,M,M,M,88.63,KLAS 090856Z 24006KT 10SM FEW130 BKN150 BKN200 32/16 A2993 RMK AO2 SLP103 CB DSNT NE-SE DSIPTD T03170156 50013,M
05U,2024-08-09 09:10,-116.0051,39.6042,1811.23,M,M,M,0.00,0.00,0.00,30.19,M,10.00,M,CLR,M,M,M,M,M,M,M,M,M,M,M,M,M,M,M,K05U 090910Z AUTO 00000KT 10SM CLR A3019 RMK A01,M
BVU,2024-08-09 09:15,-114.8611,35.9475,671.00,84.20,60.80,45.34,290.00,10.00,0.00,29.91,M,10.00,16.00,FEW,SCT,BKN,M,3200.00,7000.00,9500.00,M,M,M,M,M,M,M,M,84.43,KBVU 090915Z AUTO 29010G16KT 240V310 10SM FEW032 SCT070 BKN095 29/16 A2991 RMK AO2,M
CXP,2024-08-09 09:15,-119.7326,39.1923,1431.00,68.00,42.80,40.00,320.00,4.00,0.00,30.14,M,10.00,M,CLR,M,M,M,M,M,M,M,M,M,M,M,M,M,M,68.00,KCXP 090915Z AUTO 32004KT 10SM CLR 20/06 A3014 RMK AO2,M
RTS,2024-08-09 09:15,-119.8764,39.6682,1539.00,62.60,37.40,39.14,310.00,8.00,0.00,30.15,M,10.00,M,CLR,M,M,M,M,M,M,M,M,M,M,M,M,M,M,62.60,KRTS 090915Z AUTO 31008KT 10SM CLR 17/03 A3015 RMK AO2,M
MEV,2024-08-09 09:15,-119.7500,38.9963,1441.42,59.00,41.00,51.18,120.00,7.00,0.00,30.13,M,10.00,M,FEW,SCT,M,M,2900.00,3700.00,M,M,M,M,M,M,M,M,M,59.00,KMEV 090915Z AUTO 12007KT 10SM FEW029 SCT037 15/05 A3013 RMK AO2,M
BAM,2024-08-09 09:15,-116.8743,40.5990,1382.36,64.40,33.80,31.85,220.00,4.00,0.00,30.04,M,10.00,M,CLR,M,M,M,M,M,M,M,M,M,M,M,M,M,M,64.40,KBAM 090915Z AUTO 22004KT 10SM CLR 18/01 A3004 RMK AO1,M
HTH,2024-08-09 09:15,-118.6315,38.5448,1282.89,69.80,57.20,64.26,210.00,3.00,0.00,30.07,M,10.00,M,CLR,M,M,M,M,M,M,M,M,M,M,M,M,M,M,69.80,KHTH 090915Z AUTO 21003KT 10SM CLR 21/14 A3007 RMK A01,M
10U,2024-08-09 09:15,-116.1876,41.9532,1637.00,66.20,28.40,24.04,120.00,10.00,0.00,30.10,M,10.00,M,CLR,M,M,M,M,M,M,M,M,M,M,M,M,M,M,66.20,K10U 090915Z AUTO 12010KT 10SM CLR 19/M02 A3010 RMK AO2,M
TMT,2024-08-09 09:15,-117.1971,39.4643,1749.34,56.70,37.80,49.07,190.00,6.00,0.00,30.18,M,10.00,M,CLR,M,M,M,M,M,M,M,M,M,M,M,M,M,M,56.70,KTMT 090915Z AUTO 19006KT 10SM CLR 14/03 A3018 RMK AO2 T01370032,M
05U,2024-08-09 09:30,-116.0051,39.6042,1811.23,M,M,M,0.00,0.00,0.00,30.19,M,10.00,M,CLR,M,M,M,M,M,M,M,M,M,M,M,M,M,M,M,K05U 090930Z AUTO 00000KT 10SM CLR A3019 RMK A01,M
BVU,2024-08-09 09:35,-114.8611,35.9475,671.00,86.00,60.80,42.80,270.00,7.00,0.00,29.91,M,10.00,13.00,CLR,M,M,M,M,M,M,M,M,M,M,M,M,M,M,86.05,KBVU 090935Z AUTO 27007G13KT 10SM CLR 30/16 A2991 RMK AO2 LTG DSNT SE,M
CXP,2024-08-09 09:35,-119.7326,39.1923,1431.00,69.80,42.80,37.61,0.00,0.00,0.00,30.14,M,10.00,M,CLR,M,M,M,M,M,M,M,M,M,M,M,M,M,M,69.80,KCXP 090935Z AUTO 00000KT 10SM CLR 21/06 A3014 RMK AO2,M
RTS,2024-08-09 09:35,-119.8764,39.6682,1539.00,60.80,37.40,41.71,340.00,5.00,0.00,30.15,M,10.00,M,CLR,M,M,M,M,M,M,M,M,M,M,M,M,M,M,60.80,KRTS 090935Z AUTO 34005KT 10SM CLR 16/03 A3015 RMK AO2,M
MEV,2024-08-09 09:35,-119.7500,38.9963,1441.42,59.00,41.00,51.18,170.00,6.00,0.00,30.12,M,10.00,M,SCT,SCT,M,M,2900.00,3700.00,M,M,M,M,M,M,M,M,M,59.00,KMEV 090935Z AUTO 17006KT 10SM SCT029 SCT037 15/05 A3012 RMK AO2,M
BAM,2024-08-09 09:35,-116.8743,40.5990,1382.36,64.40,35.60,34.22,0.00,0.00,0.00,30.04,M,10.00,M,CLR,M,M,M,M,M,M,M,M,M,M,M,M,M,M,64.40,KBAM 090935Z AUTO 00000KT 10SM CLR 18/02 A3004 RMK AO1,M
HTH,2024-08-09 09:35,-118.6315,38.5448,1282.89,68.00,59.00,72.92,0.00,0.00,0.00,30.07,M,10.00,M,FEW,FEW,FEW,M,3200.00,4900.00,5500.00,M,M,M,M,M,M,M,M,68.00,KHTH 090935Z AUTO 00000KT 10SM FEW032 FEW049 FEW055 20/15 A3007 RMK A01,M
10U,2024-08-09 09:35,-116.1876,41.9532,1637.00,64.40,28.40,25.60,100.00,9.00,0.00,30.10,M,10.00,M,CLR,M,M,M,M,M,M,M,M,M,M,M,M,M,M,64.40,K10U 090935Z AUTO 10009KT 10SM CLR 18/M02 A3010 RMK AO2,M
TMT,2024-08-09 09:35,-117.1971,39.4643,1749.34,60.00,38.00,43.94,220.00,5.00,0.00,30.18,M,10.00,M,CLR,M,M,M,M,M,M,M,M,M,M,M,M,M,M,60.00,KTMT 090935Z AUTO 22005KT 10SM CLR 16/03 A3018 RMK AO2 T01550033,M
05U,2024-08-09 09:50,-116.0051,39.6042,1811.23,M,M,M,0.00,0.00,0.00,30.19,M,10.00,M,BKN,M,M,M,11000.00,M,M,M,M,M,M,M,M,M,M,M,K05U 090950Z AUTO 00000KT 10SM BKN110 A3019 RMK A01,M
P68,2024-08-09 09:53,-116.0056,39.6014,1993.00,63.00,44.00,49.84,210.00,4.00,0.00,30.16,1011.60,M,M,M,M,M,M,M,M,M,M,M,M,M,M,M,M,M,63.00,KP68 090953Z AUTO 21004KT 17/07 A3016 RMK AO1 SLP116 T01720067,M
DRA,2024-08-09 09:53,-116.0278,36.6206,1009.00,84.00,52.00,33.19,360.00,8.00,0.00,29.95,1007.90,10.00,M,CLR,M,M,M,M,M,M,M,M,M,M,M,M,M,M,82.36,KDRA 090953Z AUTO 36008KT 10SM CLR 29/11 A2995 RMK AO2 SLP079 T02890111,M
ELY,2024-08-09 09:53,-114.8453,39.2950,1909.00,70.00,45.00,40.63,230.00,11.00,0.00,30.20,1010.30,10.00,M,CLR,M,M,M,M,M,M,M,M,M,M,M,M,M,M,70.00,KELY 090953Z AUTO 23011KT 10SM CLR 21/07 A3020 RMK AO2 SLP103 T02110072,M
VGT,2024-08-09 09:53,-115.1933,36.2111,667.00,88.00,59.00,37.66,50.00,4.00,0.00,29.93,1011.90,10.00,M,CLR,M,M,M,M,M,M,M,M,M,M,M,M,M,M,87.31,KVGT 090953Z AUTO 05004KT 10SM CLR 31/15 A2993 RMK AO2 SLP119 T03110150,M
LOL,2024-08-09 09:53,-118.5701,40.0684,1192.43,72.00,36.00,26.77,0.00,0.00,0.00,30.02,1011.50,10.00,M,CLR,M,M,M,M,M,M,M,M,M,M,M,M,M,M,72.00,KLOL 090953Z AUTO 00000KT 10SM CLR 22/02 A3002 RMK AO2 SLP115 T02220022,M
BVU,2024-08-09 09:55,-114.8611,35.9475,671.00,86.00,59.00,40.14,0.00,0.00,0.00,29.91,M,10.00,M,FEW,SCT,SCT,M,7000.00,9000.00,12000.00,M,M,M,M,M,M,M,M,85.47,KBVU 090955Z AUTO 00000KT 10SM FEW070 SCT090 SCT120 30/15 A2991 RMK AO2 LTG DSNT SE AND S,M
CXP,2024-08-09 09:55,-119.7326,39.1923,1431.00,71.60,41.00,33.00,0.00,0.00,0.00,30.13,M,10.00,M,CLR,M,M,M,M,M,M,M,M,M,M,M,M,M,M,71.60,KCXP 090955Z AUTO 00000KT 10SM CLR 22/05 A3013 RMK AO2,M
INS,2024-08-09 09:55,-115.6733,36.5872,955.00,87.00,51.80,29.93,100.00,20.00,0.00,29.94,1007.40,10.00,23.00,SCT,M,M,M,14000.00,M,M,M,M,M,M,M,M,M,M,84.70,KINS 090955Z AUTO 10020G23KT 10SM SCT140 31/11 A2994 RMK AO2 SLP074 T03060110,M
RNO,2024-08-09 09:55,-119.7711,39.4839,1341.00,71.00,45.00,39.27,170.00,3.00,0.00,30.10,1012.60,10.00,M,CLR,M,M,M,M,M,M,M,M,M,M,M,M,M,M,71.00,KRNO 090955Z 17003KT 10SM CLR 22/07 A3010 RMK AO2 SLP126 T02170072,M
RTS,2024-08-09 09:55,-119.8764,39.6682,1539.00,60.80,37.40,41.71,0.00,0.00,0.00,30.15,M,10.00,M,CLR,M,M,M,M,M,M,M,M,M,M,M,M,M,M,60.80,KRTS 090955Z AUTO 00000KT 10SM CLR 16/03 A3015 RMK AO2,M
MEV,2024-08-09 09:55,-119.7500,38.9963,1441.42,57.20,41.00,54.60,150.00,3.00,0.00,30.12,M,10.00,M,FEW,SCT,SCT,M,2500.00,3100.00,3700.00,M,M,M,M,M,M,M,M,57.20,KMEV 090955Z AUTO 15003KT 10SM FEW025 SCT031 SCT037 14/05 A3012 RMK AO2,M
BAM,2024-08-09 09:55,-116.8743,40.5990,1382.36,62.60,35.60,36.45,110.00,4.00,0.00,30.05,M,10.00,M,CLR,M,M,M,M,M,M,M,M,M,M,M,M,M,M,62.60,KBAM 090955Z AUTO 11004KT 10SM CLR 17/02 A3005 RMK AO1,M
HTH,2024-08-09 09:55,-118.6315,38.5448,1282.89,68.00,57.20,68.35,130.00,3.00,0.00,30.07,M,10.00,M,FEW,M,M,M,5000.00,M,M,M,M,M,M,M,M,M,M,68.00,KHTH 090955Z AUTO 13003KT 10SM FEW050 20/14 A3007 RMK A01,M
10U,2024-08-09 09:55,-116.1876,41.9532,1637.00,62.60,30.20,29.35,80.00,7.00,0.00,30.10,M,10.00,M,CLR,M,M,M,M,M,M,M,M,M,M,M,M,M,M,62.60,K10U 090955Z AUTO 08007KT 020V120 10SM CLR 17/M01 A3010 RMK AO2,M
LSV,2024-08-09 09:55,-115.0343,36.2362,570.00,84.00,64.40,51.80,70.00,3.00,0.00,29.88,1008.70,10.00,M,OVC,M,M,M,15000.00,M,M,M,M,M,M,M,M,M,M,85.52,KLSV 090955Z AUTO 07003KT 10SM OVC150 29/18 A2988 RMK AO2 SLP087 T02890180 $,M
TMT,2024-08-09 09:55,-117.1971,39.4643,1749.34,58.00,38.70,48.51,0.00,0.00,0.00,30.18,M,10.00,M,CLR,M,M,M,M,M,M,M,M,M,M,M,M,M,M,58.00,KTMT 090955Z AUTO 00000KT 10SM CLR 14/04 A3018 RMK AO2 T01440037,M
EKO,2024-08-09 09:56,-115.7860,40.8242,1367.00,65.00,37.00,35.42,60.00,5.00,0.00,30.09,1012.00,10.00,M,CLR,M,M,M,M,M,M,M,M,M,M,M,M,M,M,65.00,KEKO 090956Z AUTO 06005KT 10SM CLR 18/03 A3009 RMK AO2 SLP120 T01830028 $,M
WMC,2024-08-09 09:56,-117.8072,40.9019,1315.00,67.00,32.00,27.07,80.00,3.00,0.00,30.03,1011.10,10.00,M,CLR,M,M,M,M,M,M,M,M,M,M,M,M,M,M,67.00,KWMC 090956Z AUTO 08003KT 10SM CLR 19/00 A3003 RMK AO2 SLP111 T01940000,M
HND,2024-08-09 09:56,-115.1344,35.9729,742.79,86.00,61.00,43.10,200.00,7.00,0.00,29.96,1012.50,10.00,M,CLR,M,M,M,M,M,M,M,M,M,M,M,M,M,M,86.12,KHND 090956Z AUTO 20007KT 10SM CLR 30/16 A2996 RMK AO2 SLP125 T03000161,M
TPH,2024-08-09 09:56,-117.0904,38.0505,1654.00,76.00,40.00,27.38,350.00,6.00,0.00,30.14,1010.40,10.00,M,CLR,M,M,M,M,M,M,M,M,M,M,M,M,M,M,76.00,KTPH 090956Z AUTO 35006KT 10SM CLR 24/04 A3014 RMK AO2 SLP104 T02440044,M
LAS,2024-08-09 09:56,-115.1634,36.0719,663.00,89.00,59.00,36.49,10.00,5.00,0.00,29.94,1010.50,10.00,M,FEW,SCT,BKN,M,12000.00,15000.00,18000.00,M,M,M,M,M,M,M,M,88.27,KLAS 090956Z 01005KT 10SM FEW120 SCT150 BKN180 32/15 A2994 RMK AO2 SLP105 T03170150,M
BVU,2024-08-09 10:15,-114.8611,35.9475,671.00,86.00,59.00,40.14,10.00,8.00,0.00,29.92,M,10.00,M,FEW,SCT,BKN,M,8000.00,9000.00,11000.00,M,M,M,M,M,M,M,M,85.47,KBVU 091015Z AUTO 01008KT 10SM FEW080 SCT090 BKN110 30/15 A2992 RMK AO2,M
CXP,2024-08-09 10:15,-119.7326,39.1923,1431.00,69.80,41.00,35.09,0.00,0.00,0.00,30.13,M,10.00,M,CLR,M,M,M,M,M,M,M,M,M,M,M,M,M,M,69.80,KCXP 091015Z AUTO 00000KT 10SM CLR 21/05 A3013 RMK AO2,M
RTS,2024-08-09 10:15,-119.8764,39.6682,1539.00,62.60,37.40,39.14,350.00,5.00,0.00,30.15,M,10.00,M,CLR,M,M,M,M,M,M,M,M,M,M,M,M,M,M,62.60,KRTS 091015Z AUTO 35005KT 10SM CLR 17/03 A3015 RMK AO2,M
05U,2024-08-09 10:15,-116.0051,39.6042,1811.23,M,M,M,0.00,0.00,0.00,30.19,M,10.00,M,BKN,M,M,M,12000.00,M,M,M,M,M,M,M,M,M,M,M,K05U 091015Z AUTO 00000KT 10SM BKN120 A3019 RMK A01,M
MEV,2024-08-09 10:15,-119.7500,38.9963,1441.42,59.00,41.00,51.18,130.00,4.00,0.00,30.12,M,10.00,M,FEW,SCT,SCT,M,2600.00,3100.00,3800.00,M,M,M,M,M,M,M,M,59.00,KMEV 091015Z AUTO 13004KT 10SM FEW026 SCT031 SCT038 15/05 A3012 RMK AO2,M
BAM,2024-08-09 10:15,-116.8743,40.5990,1382.36,60.80,33.80,36.16,100.00,3.00,0.00,30.05,M,10.00,M,CLR,M,M,M,M,M,M,M,M,M,M,M,M,M,M,60.80,KBAM 091015Z AUTO 10003KT 10SM CLR 16/01 A3005 RMK AO1,M
HTH,2024-08-09 10:15,-118.6315,38.5448,1282.89,68.00,55.40,64.04,140.00,4.00,0.00,30.07,M,10.00,M,CLR,M,M,M,M,M,M,M,M,M,M,M,M,M,M,68.00,KHTH 091015Z AUTO 14004KT 10SM CLR 20/13 A3007 RMK A01,M
10U,2024-08-09 10:15,-116.1876,41.9532,1637.00,57.20,30.20,35.57,310.00,4.00,0.00,30.10,M,10.00,M,CLR,M,M,M,M,M,M,M,M,M,M,M,M,M,M,57.20,K10U 091015Z AUTO 31004KT 10SM CLR 14/M01 A3010 RMK AO2,M
TMT,2024-08-09 10:15,-117.1971,39.4643,1749.34,56.30,38.30,50.77,0.00,0.00,0.00,30.18,M,10.00,M,CLR,M,M,M,M,M,M,M,M,M,M,M,M,M,M,56.30,KTMT 091015Z AUTO 00000KT 10SM CLR 14/04 A3018 RMK AO2 T01350035,M
HTH,2024-08-09 10:30,-118.6315,38.5448,1282.89,69.80,55.40,60.21,190.00,4.00,0.00,30.07,M,10.00,M,CLR,M,M,M,M,M,M,M,M,M,M,M,M,M,M,69.80,KHTH 091030Z AUTO 19004KT 10SM CLR 21/13 A3007 RMK A01,M
BVU,2024-08-09 10:35,-114.8611,35.9475,671.00,84.20,60.80,45.34,30.00,10.00,0.00,29.92,M,10.00,M,FEW,BKN,OVC,M,7000.00,8500.00,11000.00,M,M,M,M,M,M,M,M,84.43,KBVU 091035Z AUTO 03010KT 10SM FEW070 BKN085 OVC110 29/16 A2992 RMK AO2,M
CXP,2024-08-09 10:35,-119.7326,39.1923,1431.00,68.00,41.00,37.32,0.00,0.00,0.00,30.13,M,10.00,M,CLR,M,M,M,M,M,M,M,M,M,M,M,M,M,M,68.00,KCXP 091035Z AUTO 00000KT 10SM CLR 20/05 A3013 RMK AO2,M
RTS,2024-08-09 10:35,-119.8764,39.6682,1539.00,64.40,37.40,36.74,340.00,6.00,0.00,30.14,M,10.00,M,CLR,M,M,M,M,M,M,M,M,M,M,M,M,M,M,64.40,KRTS 091035Z AUTO 34006KT 10SM CLR 18/03 A3014 RMK AO2,M
05U,2024-08-09 10:35,-116.0051,39.6042,1811.23,M,M,M,0.00,0.00,0.00,30.18,M,10.00,M,FEW,M,M,M,12000.00,M,M,M,M,M,M,M,M,M,M,M,K05U 091035Z AUTO 00000KT 10SM FEW120 A3018 RMK A01,M
MEV,2024-08-09 10:35,-119.7500,38.9963,1441.42,57.20,41.00,54.60,150.00,4.00,0.00,30.12,M,10.00,M,FEW,FEW,FEW,M,2800.00,3400.00,4000.00,M,M,M,M,M,M,M,M,57.20,KMEV 091035Z AUTO 15004KT 10SM FEW028 FEW034 FEW040 14/05 A3012 RMK AO2,M
BAM,2024-08-09 10:35,-116.8743,40.5990,1382.36,60.80,35.60,38.85,130.00,3.00,0.00,30.05,M,10.00,M,CLR,M,M,M,M,M,M,M,M,M,M,M,M,M,M,60.80,KBAM 091035Z AUTO 13003KT 10SM CLR 16/02 A3005 RMK AO1,M
10U,2024-08-09 10:35,-116.1876,41.9532,1637.00,53.60,30.20,40.54,0.00,0.00,0.00,30.09,M,10.00,M,CLR,M,M,M,M,M,M,M,M,M,M,M,M,M,M,53.60,K10U 091035Z AUTO 00000KT 10SM CLR 12/M01 A3009 RMK AO2,M
TMT,2024-08-09 10:35,-117.1971,39.4643,1749.34,54.70,36.30,49.74,20.00,4.00,0.00,30.18,M,10.00,M,CLR,M,M,M,M,M,M,M,M,M,M,M,M,M,M,54.70,KTMT 091035Z AUTO 02004KT 10SM CLR 13/02 A3018 RMK AO2 T01260024,M
05U,2024-08-09 10:50,-116.0051,39.6042,1811.23,M,M,M,0.00,0.00,0.00,30.18,M,10.00,M,CLR,M,M,M,M,M,M,M,M,M,M,M,M,M,M,M,K05U 091050Z AUTO 00000KT 10SM CLR A3018 RMK A01,M
P68,2024-08-09 10:53,-116.0056,39.6014,1993.00,63.00,42.00,46.16,180.00,7.00,0.00,30.16,1011.60,M,M,M,M,M,M,M,M,M,M,M,M,M,M,M,M,M,63.00,KP68 091053Z AUTO 18007KT 17/06 A3016 RMK AO1 SLP116 T01720056,M
DRA,2024-08-09 10:53,-116.0278,36.6206,1009.00,85.00,52.00,32.14,330.00,3.00,0.00,29.96,1008.10,10.00,M,CLR,M,M,M,M,M,M,M,M,M,M,M,M,M,M,83.11,KDRA 091053Z AUTO 33003KT 10SM CLR 29/11 A2996 RMK AO2 SLP081 T02940111,M
ELY,2024-08-09 10:53,-114.8453,39.2950,1909.00,69.00,46.00,43.67,220.00,11.00,0.00,30.20,1010.40,10.00,M,CLR,M,M,M,M,M,M,M,M,M,M,M,M,M,M,69.00,KELY 091053Z AUTO 22011KT 10SM CLR 21/08 A3020 RMK AO2 SLP104 T02060078,M
VGT,2024-08-09 10:53,-115.1933,36.2111,667.00,87.00,58.00,37.51,80.00,8.00,0.00,29.93,1012.00,10.00,M,CLR,M,M,M,M,M,M,M,M,M,M,M,M,M,M,86.07,KVGT 091053Z AUTO 08008KT 10SM CLR 31/14 A2993 RMK AO2 SLP120 T03060144,M
LOL,2024-08-09 10:53,-118.5701,40.0684,1192.43,65.00,34.00,31.44,0.00,0.00,0.00,30.02,1011.90,10.00,M,CLR,M,M,M,M,M,M,M,M,M,M,M,M,M,M,65.00,KLOL 091053Z AUTO 00000KT 10SM CLR 18/01 A3002 RMK AO2 SLP119 T01830011,M
NFL,2024-08-09 10:54,-118.7010,39.4166,1199.00,70.00,42.00,36.22,150.00,3.00,0.00,30.03,1014.00,10.00,M,CLR,M,M,M,M,M,M,M,M,M,M,M,M,M,M,70.00,KNFL 091054Z AUTO 15003KT 10SM CLR 21/06 A3003 RMK AO2 SLP140 T02110056,M
BVU,2024-08-09 10:55,-114.8611,35.9475,671.00,84.20,60.80,45.34,20.00,6.00,0.00,29.92,M,10.00,11.00,FEW,FEW,FEW,M,8000.00,9500.00,12000.00,M,M,M,M,M,M,M,M,84.43,KBVU 091055Z AUTO 02006G11KT 10SM FEW080 FEW095 FEW120 29/16 A2992 RMK AO2,M
CXP,2024-08-09 10:55,-119.7326,39.1923,1431.00,64.40,42.80,45.32,0.00,0.00,0.00,30.13,M,10.00,M,CLR,M,M,M,M,M,M,M,M,M,M,M,M,M,M,64.40,KCXP 091055Z AUTO 00000KT 10SM CLR 18/06 A3013 RMK AO2,M
INS,2024-08-09 10:55,-115.6733,36.5872,955.00,83.00,54.00,36.89,90.00,17.00,0.00,29.95,1007.80,10.00,M,FEW,M,M,M,14000.00,M,M,M,M,M,M,M,26.00,100.00,2024-08-09 10:38,81.94,KINS 091055Z AUTO 09017KT 10SM FEW140 28/12 A2995 RMK AO2 PK WND 10026/38 SLP078 T02840123,M
RNO,2024-08-09 10:55,-119.7711,39.4839,1341.00,68.00,45.00,43.51,140.00,3.00,0.00,30.09,1012.40,10.00,M,CLR,M,M,M,M,M,M,M,M,M,M,M,M,M,M,68.00,KRNO 091055Z 14003KT 10SM CLR 20/07 A3009 RMK AO2 SLP124 T02000072,M
LSV,2024-08-09 10:55,-115.0343,36.2362,570.00,83.00,65.30,55.21,80.00,5.00,0.00,29.88,1008.70,10.00,M,FEW,M,M,M,23000.00,M,M,M,M,M,M,M,M,M,M,84.89,KLSV 091055Z AUTO 08005KT 10SM FEW230 28/19 A2988 RMK AO2 SLP087 T02840185 $,M
RTS,2024-08-09 10:55,-119.8764,39.6682,1539.00,62.60,37.40,39.14,330.00,7.00,0.00,30.14,M,10.00,M,CLR,M,M,M,M,M,M,M,M,M,M,M,M,M,M,62.60,KRTS 091055Z AUTO 33007KT 10SM CLR 17/03 A3014 RMK AO2,M
MEV,2024-08-09 10:55,-119.7500,38.9963,1441.42,57.20,41.00,54.60,0.00,0.00,0.00,30.12,M,10.00,M,FEW,FEW,M,M,2900.00,4000.00,M,M,M,M,M,M,M,M,M,57.20,KMEV 091055Z AUTO 00000KT 10SM FEW029 FEW040 14/05 A3012 RMK AO2,M
BAM,2024-08-09 10:55,-116.8743,40.5990,1382.36,60.80,35.60,38.85,120.00,3.00,0.00,30.05,M,10.00,M,CLR,M,M,M,M,M,M,M,M,M,M,M,M,M,M,60.80,KBAM 091055Z AUTO 12003KT 10SM CLR 16/02 A3005 RMK AO1,M
HTH,2024-08-09 10:55,-118.6315,38.5448,1282.89,68.00,57.20,68.35,200.00,5.00,0.00,30.07,M,10.00,M,CLR,M,M,M,M,M,M,M,M,M,M,M,M,M,M,68.00,KHTH 091055Z AUTO 20005KT 10SM CLR 20/14 A3007 RMK A01,M
10U,2024-08-09 10:55,-116.1876,41.9532,1637.00,55.40,28.40,35.28,0.00,0.00,0.00,30.09,M,10.00,M,CLR,M,M,M,M,M,M,M,M,M,M,M,M,M,M,55.40,K10U 091055Z AUTO 00000KT 10SM CLR 13/M02 A3009 RMK AO2,M
TMT,2024-08-09 10:55,-117.1971,39.4643,1749.34,53.00,35.80,51.89,0.00,0.00,0.00,30.18,M,10.00,M,CLR,M,M,M,M,M,M,M,M,M,M,M,M,M,M,53.00,KTMT 091055Z AUTO 00000KT 10SM CLR 12/02 A3018 RMK AO2 T01170021,M
EKO,2024-08-09 10:56,-115.7860,40.8242,1367.00,62.00,36.00,37.83,0.00,0.00,0.00,30.09,1012.20,10.00,M,CLR,M,M,M,M,M,M,M,M,M,M,M,M,M,M,62.00,KEKO 091056Z AUTO 00000KT 10SM CLR 17/02 A3009 RMK AO2 SLP122 T01670022 $,M
WMC,2024-08-09 10:56,-117.8072,40.9019,1315.00,60.00,34.00,37.50,160.00,3.00,0.00,30.03,1011.50,10.00,M,CLR,M,M,M,M,M,M,M,M,M,M,M,M,M,M,60.00,KWMC 091056Z AUTO 16003KT 10SM CLR 16/01 A3003 RMK AO2 SLP115 T01560011,M
HND,2024-08-09 10:56,-115.1344,35.9729,742.79,85.00,60.00,42.95,50.00,6.00,0.00,29.97,1012.90,10.00,M,CLR,M,M,M,M,M,M,M,M,M,M,M,M,M,M,84.89,KHND 091056Z AUTO 05006KT 10SM CLR 29/16 A2997 RMK AO2 SLP129 T02940156,M
TPH,2024-08-09 10:56,-117.0904,38.0505,1654.00,71.00,39.00,31.16,340.00,3.00,0.00,30.15,1010.80,10.00,M,CLR,M,M,M,M,M,M,M,M,M,M,M,M,M,M,71.00,KTPH 091056Z AUTO 34003KT 10SM CLR 22/04 A3015 RMK AO2 SLP108 T02170039,M
LAS,2024-08-09 10:56,-115.1634,36.0719,663.00,88.00,60.00,39.03,60.00,9.00,0.00,29.94,1010.70,10.00,M,FEW,BKN,M,M,12000.00,16000.00,M,M,M,M,M,M,M,M,M,87.65,KLAS 091056Z 06009KT 10SM FEW120 BKN160 31/16 A2994 RMK AO2 SLP107 T03110156,M
05U,2024-08-09 11:10,-116.0051,39.6042,1811.23,M,M,M,170.00,5.00,0.00,30.18,M,10.00,M,CLR,M,M,M,M,M,M,M,M,M,M,M,M,M,M,M,K05U 091110Z AUTO 17005KT 10SM CLR A3018 RMK A01,M
BVU,2024-08-09 11:15,-114.8611,35.9475,671.00,84.20,60.80,45.34,30.00,5.00,0.00,29.92,M,10.00,M,CLR,M,M,M,M,M,M,M,M,M,M,M,M,M,M,84.43,KBVU 091115Z AUTO 03005KT 10SM CLR 29/16 A2992 RMK AO2,M
CXP,2024-08-09 11:15,-119.7326,39.1923,1431.00,64.40,42.80,45.32,0.00,0.00,0.00,30.13,M,10.00,M,CLR,M,M,M,M,M,M,M,M,M,M,M,M,M,M,64.40,KCXP 091115Z AUTO 00000KT 10SM CLR 18/06 A3013 RMK AO2,M
RTS,2024-08-09 11:15,-119.8764,39.6682,1539.00,62.60,37.40,39.14,330.00,8.00,0.00,30.15,M,10.00,M,CLR,M,M,M,M,M,M,M,M,M,M,M,M,M,M,62.60,KRTS 091115Z AUTO 33008KT 10SM CLR 17/03 A3015 RMK AO2,M
MEV,2024-08-09 11:15,-119.7500,38.9963,1441.42,57.20,41.00,54.60,120.00,4.00,0.00,30.12,M,10.00,M,FEW,SCT,BKN,M,2400.00,3000.00,3900.00,M,M,M,M,M,M,M,M,57.20,KMEV 091115Z AUTO 12004KT 10SM FEW024 SCT030 BKN039 14/05 A3012 RMK AO2,M
BAM,2024-08-09 11:15,-116.8743,40.5990,1382.36,59.00,37.40,44.47,50.00,3.00,0.00,30.06,M,10.00,M,CLR,M,M,M,M,M,M,M,M,M,M,M,M,M,M,59.00,KBAM 091115Z AUTO 05003KT 10SM CLR 15/03 A3006 RMK AO1,M
HTH,2024-08-09 11:15,-118.6315,38.5448,1282.89,68.00,57.20,68.35,240.00,5.00,0.00,30.07,M,10.00,M,CLR,M,M,M,M,M,M,M,M,M,M,M,M,M,M,68.00,KHTH 091115Z AUTO 24005KT 10SM CLR 20/14 A3007 RMK A01,M
10U,2024-08-09 11:15,-116.1876,41.9532,1637.00,60.80,30.20,31.28,110.00,5.00,0.00,30.09,M,10.00,M,FEW,M,M,M,12000.00,M,M,M,M,M,M,M,M,M,M,60.80,K10U 091115Z AUTO 11005KT 10SM FEW120 16/M01 A3009 RMK AO2,M
TMT,2024-08-09 11:15,-117.1971,39.4643,1749.34,51.30,35.00,53.52,0.00,0.00,0.00,30.18,M,10.00,M,CLR,M,M,M,M,M,M,M,M,M,M,M,M,M,M,51.30,KTMT 091115Z AUTO 00000KT 10SM CLR 11/02 A3018 RMK AO2 T01070016,M
05U,2024-08-09 11:30,-116.0051,39.6042,1811.23,M,M,M,0.00,0.00,0.00,30.18,M,10.00,M,CLR,M,M,M,M,M,M,M,M,M,M,M,M,M,M,M,K05U 091130Z AUTO 00000KT 10SM CLR A3018 RMK A01,M
BVU,2024-08-09 11:35,-114.8611,35.9475,671.00,82.40,60.80,48.05,110.00,8.00,0.00,29.93,M,10.00,M,CLR,M,M,M,M,M,M,M,M,M,M,M,M,M,M,82.90,KBVU 091135Z AUTO 11008KT 10SM CLR 28/16 A2993 RMK AO2,M
CXP,2024-08-09 11:35,-119.7326,39.1923,1431.00,64.40,42.80,45.32,0.00,0.00,0.00,30.13,M,10.00,M,CLR,M,M,M,M,M,M,M,M,M,M,M,M,M,M,64.40,KCXP 091135Z AUTO 00000KT 10SM CLR 18/06 A3013 RMK AO2,M
RTS,2024-08-09 11:35,-119.8764,39.6682,1539.00,60.80,37.40,41.71,340.00,6.00,0.00,30.15,M,10.00,M,CLR,M,M,M,M,M,M,M,M,M,M,M,M,M,M,60.80,KRTS 091135Z AUTO 34006KT 10SM CLR 16/03 A3015 RMK AO2,M
MEV,2024-08-09 11:35,-119.7500,38.9963,1441.42,55.40,41.00,58.27,110.00,4.00,0.00,30.12,M,10.00,M,SCT,SCT,M,M,3000.00,3800.00,M,M,M,M,M,M,M,M,M,55.40,KMEV 091135Z AUTO 11004KT 10SM SCT030 SCT038 13/05 A3012 RMK AO2,M
BAM,2024-08-09 11:35,-116.8743,40.5990,1382.36,59.00,37.40,44.47,0.00,0.00,0.00,30.06,M,10.00,M,CLR,M,M,M,M,M,M,M,M,M,M,M,M,M,M,59.00,KBAM 091135Z AUTO 00000KT 10SM CLR 15/03 A3006 RMK AO1,M
HTH,2024-08-09 11:35,-118.6315,38.5448,1282.89,66.20,57.20,72.74,0.00,0.00,0.00,30.08,M,10.00,M,CLR,M,M,M,M,M,M,M,M,M,M,M,M,M,M,66.20,KHTH 091135Z AUTO 00000KT 10SM CLR 19/14 A3008 RMK A01,M
10U,2024-08-09 11:35,-116.1876,41.9532,1637.00,59.00,30.20,33.35,140.00,6.00,0.00,30.10,M,10.00,M,SCT,M,M,M,12000.00,M,M,M,M,M,M,M,M,M,M,59.00,K10U 091135Z AUTO 14006KT 10SM SCT120 15/M01 A3010 RMK AO2,M
TMT,2024-08-09 11:35,-117.1971,39.4643,1749.34,51.40,35.20,53.75,0.00,0.00,0.00,30.18,M,10.00,M,CLR,M,M,M,M,M,M,M,M,M,M,M,M,M,M,51.40,KTMT 091135Z AUTO 00000KT 10SM CLR 11/02 A3018 RMK AO2 T01080018,M
P68,2024-08-09 11:53,-116.0056,39.6014,1993.00,60.00,42.00,51.33,190.00,7.00,0.00,30.16,1012.50,M,M,M,M,M,M,M,M,M,M,M,M,M,M,M,M,M,60.00,KP68 091153Z AUTO 19007KT 16/06 A3016 RMK AO1 SLP125 T01560056 10228 20156 55001,M
DRA,2024-08-09 11:53,-116.0278,36.6206,1009.00,80.00,52.00,37.79,340.00,5.00,0.00,29.97,1008.70,10.00,M,CLR,M,M,M,M,M,M,M,M,M,M,M,M,M,M,79.75,KDRA 091153Z AUTO 34005KT 10SM CLR 27/11 A2997 RMK AO2 SLP087 T02670111 10339 20267 52011,M
ELY,2024-08-09 11:53,-114.8453,39.2950,1909.00,68.00,45.00,43.51,220.00,6.00,0.00,30.21,1010.80,10.00,M,CLR,M,M,M,M,M,M,M,M,M,M,M,M,M,M,68.00,KELY 091153Z AUTO 22006KT 10SM CLR 20/07 A3021 RMK AO2 SLP108 T02000072 10261 20200 53003,M
VGT,2024-08-09 11:53,-115.1933,36.2111,667.00,85.00,60.00,42.95,140.00,3.00,0.00,29.93,1012.00,10.00,M,CLR,M,M,M,M,M,M,M,M,M,M,M,M,M,M,84.89,KVGT 091153Z AUTO 14003KT 10SM CLR 29/16 A2993 RMK AO2 SLP120 T02940156 10339 20283 51002,M
LOL,2024-08-09 11:53,-118.5701,40.0684,1192.43,66.00,35.00,31.60,70.00,5.00,0.00,30.03,1012.00,10.00,M,CLR,M,M,M,M,M,M,M,M,M,M,M,M,M,M,66.00,KLOL 091153Z AUTO 07005KT 10SM CLR 19/02 A3003 RMK AO2 SLP120 T01890017 10289 20167 52003,M
BVU,2024-08-09 11:55,-114.8611,35.9475,671.00,82.40,60.80,48.05,70.00,8.00,0.00,29.94,M,10.00,M,CLR,M,M,M,M,M,M,M,M,M,M,M,M,M,M,82.90,KBVU 091155Z AUTO 07008KT 10SM CLR 28/16 A2994 RMK AO2,M
CXP,2024-08-09 11:55,-119.7326,39.1923,1431.00,64.40,42.80,45.32,0.00,0.00,0.00,30.13,M,10.00,M,CLR,M,M,M,M,M,M,M,M,M,M,M,M,M,M,64.40,KCXP 091155Z AUTO 00000KT 10SM CLR 18/06 A3013 RMK AO2,M
INS,2024-08-09 11:55,-115.6733,36.5872,955.00,84.00,55.60,37.86,90.00,20.00,0.00,29.96,1008.20,10.00,M,CLR,M,M,M,M,M,M,M,M,M,M,M,M,M,M,82.97,KINS 091155Z AUTO 09020KT 10SM CLR 29/13 A2996 RMK AO2 SLP082 T02890131 10342 20284 52006,M
RNO,2024-08-09 11:55,-119.7711,39.4839,1341.00,68.00,45.00,43.51,0.00,0.00,0.00,30.10,1012.80,10.00,M,CLR,M,M,M,M,M,M,M,M,M,M,M,M,M,M,68.00,KRNO 091155Z 00000KT 10SM CLR 20/07 A3010 RMK AO2 SLP128 T02000072 10278 20200 55000,M
RTS,2024-08-09 11:55,-119.8764,39.6682,1539.00,57.20,35.60,44.19,350.00,8.00,0.00,30.15,M,10.00,M,CLR,M,M,M,M,M,M,M,M,M,M,M,M,M,M,57.20,KRTS 091155Z AUTO 35008KT 10SM CLR 14/02 A3015 RMK AO2,M
05U,2024-08-09 11:55,-116.0051,39.6042,1811.23,M,M,M,0.00,0.00,0.00,30.19,M,10.00,M,CLR,M,M,M,M,M,M,M,M,M,M,M,M,M,M,M,K05U 091155Z AUTO 00000KT 10SM CLR A3019 RMK A01,M
MEV,2024-08-09 11:55,-119.7500,38.9963,1441.42,57.20,41.00,54.60,140.00,3.00,0.00,30.12,M,10.00,M,FEW,SCT,SCT,M,2700.00,3300.00,3900.00,M,M,M,M,M,M,M,M,57.20,KMEV 091155Z AUTO 14003KT 10SM FEW027 SCT033 SCT039 14/05 A3012 RMK AO2,M
HTH,2024-08-09 11:55,-118.6315,38.5448,1282.89,66.20,55.40,68.15,160.00,3.00,0.00,30.08,M,10.00,M,CLR,M,M,M,M,M,M,M,M,M,M,M,M,M,M,66.20,KHTH 091155Z AUTO 16003KT 10SM CLR 19/13 A3008 RMK A01,M
10U,2024-08-09 11:55,-116.1876,41.9532,1637.00,53.60,28.40,37.67,150.00,5.00,0.00,30.10,M,10.00,M,SCT,M,M,M,12000.00,M,M,M,M,M,M,M,M,M,M,53.60,K10U 091155Z AUTO 15005KT 10SM SCT120 12/M02 A3010 RMK AO2,M
BAM,2024-08-09 11:55,-116.8743,40.5990,1382.36,59.00,35.60,41.42,120.00,3.00,0.00,30.06,M,10.00,M,CLR,M,M,M,M,M,M,M,M,M,M,M,M,M,M,59.00,KBAM 091155Z AUTO 12003KT 10SM CLR 15/02 A3006 RMK AO1,M
TMT,2024-08-09 11:55,-117.1971,39.4643,1749.34,56.30,37.80,49.79,0.00,0.00,0.00,30.19,M,10.00,M,CLR,M,M,M,M,M,M,M,M,M,M,M,M,M,M,56.30,KTMT 091155Z AUTO 00000KT 10SM CLR 14/03 A3019 RMK AO2 T01350032 10213 20097,M
LSV,2024-08-09 11:55,-115.0343,36.2362,570.00,80.60,67.30,63.97,90.00,8.00,0.00,29.88,1008.70,10.00,M,CLR,M,M,M,M,M,M,M,M,M,M,M,M,M,M,83.08,KLSV 091155Z AUTO 09008KT 10SM CLR 27/20 A2988 RMK AO2 SLP087 60000 70003 T02700196 10321 20269 53002 $,M
EKO,2024-08-09 11:56,-115.7860,40.8242,1367.00,56.00,37.00,48.77,0.00,0.00,0.00,30.10,1013.10,10.00,M,CLR,M,M,M,M,M,M,M,M,M,M,M,M,M,M,56.00,KEKO 091156Z AUTO 00000KT 10SM CLR 13/03 A3010 RMK AO2 SLP131 T01330028 10222 20122 53007 $,M
WMC,2024-08-09 11:56,-117.8072,40.9019,1315.00,60.00,32.00,34.61,80.00,4.00,0.00,30.04,1011.80,10.00,M,CLR,M,M,M,M,M,M,M,M,M,M,M,M,M,M,60.00,KWMC 091156Z AUTO 08004KT 10SM CLR 16/00 A3004 RMK AO2 SLP118 T01560000 10244 20139 53004,M
HND,2024-08-09 11:56,-115.1344,35.9729,742.79,83.00,61.00,47.47,60.00,3.00,0.00,29.98,1013.20,10.00,M,CLR,M,M,M,M,M,M,M,M,M,M,M,M,M,M,83.46,KHND 091156Z AUTO 06003KT 10SM CLR 28/16 A2998 RMK AO2 SLP132 T02830161 10339 20283 53004,M
TPH,2024-08-09 11:56,-117.0904,38.0505,1654.00,68.00,39.00,34.53,M,3.00,0.00,30.16,1012.00,10.00,M,CLR,M,M,M,M,M,M,M,M,M,M,M,M,M,M,68.00,KTPH 091156Z AUTO VRB03KT 10SM CLR 20/04 A3016 RMK AO2 SLP120 T02000039 10272 20194 53005,M
LAS,2024-08-09 11:56,-115.1634,36.0719,663.00,86.00,61.00,43.10,140.00,3.00,0.00,29.95,1010.80,10.00,M,FEW,M,M,M,16000.00,M,M,M,M,M,M,M,M,M,M,86.12,KLAS 091156Z 14003KT 10SM FEW160 30/16 A2995 RMK AO2 SLP108 T03000161 10333 20300 51006,M
BVU,2024-08-09 12:15,-114.8611,35.9475,671.00,82.40,60.80,48.05,80.00,6.00,0.00,29.93,M,10.00,M,CLR,M,M,M,M,M,M,M,M,M,M,M,M,M,M,82.90,KBVU 091215Z AUTO 08006KT 10SM CLR 28/16 A2993 RMK AO2,M
CXP,2024-08-09 12:15,-119.7326,39.1923,1431.00,62.60,41.00,45.04,0.00,0.00,0.00,30.14,M,10.00,M,CLR,M,M,M,M,M,M,M,M,M,M,M,M,M,M,62.60,KCXP 091215Z AUTO 00000KT 10SM CLR 17/05 A3014 RMK AO2,M
RTS,2024-08-09 12:15,-119.8764,39.6682,1539.00,57.20,35.60,44.19,340.00,8.00,0.00,30.15,M,10.00,M,CLR,M,M,M,M,M,M,M,M,M,M,M,M,M,M,57.20,KRTS 091215Z AUTO 34008KT 10SM CLR 14/02 A3015 RMK AO2,M
05U,2024-08-09 12:15,-116.0051,39.6042,1811.23,M,M,M,0.00,0.00,0.00,30.19,M,10.00,M,CLR,M,M,M,M,M,M,M,M,M,M,M,M,M,M,M,K05U 091215Z AUTO 00000KT 10SM CLR A3019 RMK A01,M
MEV,2024-08-09 12:15,-119.7500,38.9963,1441.42,57.20,41.00,54.60,0.00,0.00,0.00,30.13,M,10.00,M,SCT,BKN,BKN,M,2800.00,3500.00,4000.00,M,M,M,M,M,M,M,M,57.20,KMEV 091215Z AUTO 00000KT 10SM SCT028 BKN035 BKN040 14/05 A3013 RMK AO2,M
BAM,2024-08-09 12:15,-116.8743,40.5990,1382.36,55.40,35.60,47.16,160.00,4.00,0.00,30.07,M,10.00,M,CLR,M,M,M,M,M,M,M,M,M,M,M,M,M,M,55.40,KBAM 091215Z AUTO 16004KT 10SM CLR 13/02 A3007 RMK AO1,M
HTH,2024-08-09 12:15,-118.6315,38.5448,1282.89,68.00,55.40,64.04,0.00,0.00,0.00,30.08,M,10.00,M,CLR,M,M,M,M,M,M,M,M,M,M,M,M,M,M,68.00,KHTH 091215Z AUTO 00000KT 10SM CLR 20/13 A3008 RMK A01,M
10U,2024-08-09 12:15,-116.1876,41.9532,1637.00,57.20,28.40,33.05,140.00,4.00,0.00,30.10,M,10.00,M,FEW,M,M,M,12000.00,M,M,M,M,M,M,M,M,M,M,57.20,K10U 091215Z AUTO 14004KT 10SM FEW120 14/M02 A3010 RMK AO2,M
TMT,2024-08-09 12:15,-117.1971,39.4643,1749.34,50.40,35.80,57.12,310.00,4.00,0.00,30.19,M,10.00,M,CLR,M,M,M,M,M,M,M,M,M,M,M,M,M,M,50.40,KTMT 091215Z AUTO 31004KT 10SM CLR 10/02 A3019 RMK AO2 T01020021,M
05U,2024-08-09 12:30,-116.0051,39.6042,1811.23,M,M,M,0.00,0.00,0.00,30.20,M,10.00,M,CLR,M,M,M,M,M,M,M,M,M,M,M,M,M,M,M,K05U 091230Z AUTO 00000KT 10SM CLR A3020 RMK A01,M
BVU,2024-08-09 12:35,-114.8611,35.9475,671.00,82.40,62.60,51.21,70.00,5.00,0.00,29.94,M,10.00,M,CLR,M,M,M,M,M,M,M,M,M,M,M,M,M,M,83.41,KBVU 091235Z AUTO 07005KT 10SM CLR 28/17 A2994 RMK AO2,M
CXP,2024-08-09 12:35,-119.7326,39.1923,1431.00,60.80,41.00,48.00,0.00,0.00,0.00,30.14,M,10.00,M,CLR,M,M,M,M,M,M,M,M,M,M,M,M,M,M,60.80,KCXP 091235Z AUTO 00000KT 10SM CLR 16/05 A3014 RMK AO2,M
RTS,2024-08-09 12:35,-119.8764,39.6682,1539.00,57.20,35.60,44.19,360.00,7.00,0.00,30.15,M,10.00,M,CLR,M,M,M,M,M,M,M,M,M,M,M,M,M,M,57.20,KRTS 091235Z AUTO 36007KT 10SM CLR 14/02 A3015 RMK AO2,M
MEV,2024-08-09 12:35,-119.7500,38.9963,1441.42,55.40,41.00,58.27,0.00,0.00,0.00,30.13,M,10.00,M,FEW,BKN,BKN,M,2800.00,3700.00,4400.00,M,M,M,M,M,M,M,M,55.40,KMEV 091235Z AUTO 00000KT 10SM FEW028 BKN037 BKN044 13/05 A3013 RMK AO2,M
HTH,2024-08-09 12:35,-118.6315,38.5448,1282.89,66.20,55.40,68.15,170.00,6.00,0.00,30.09,M,10.00,M,FEW,M,M,M,6000.00,M,M,M,M,M,M,M,M,M,M,66.20,KHTH 091235Z AUTO 17006KT 10SM FEW060 19/13 A3009 RMK A01,M
10U,2024-08-09 12:35,-116.1876,41.9532,1637.00,53.60,30.20,40.54,140.00,5.00,0.00,30.11,M,10.00,M,SCT,M,M,M,12000.00,M,M,M,M,M,M,M,M,M,M,53.60,K10U 091235Z AUTO 14005KT 10SM SCT120 12/M01 A3011 RMK AO2,M
BAM,2024-08-09 12:35,-116.8743,40.5990,1382.36,55.40,33.80,43.90,170.00,5.00,0.00,30.08,M,10.00,M,CLR,M,M,M,M,M,M,M,M,M,M,M,M,M,M,55.40,KBAM 091235Z AUTO 17005KT 10SM CLR 13/01 A3008 RMK AO1,M
TMT,2024-08-09 12:35,-117.1971,39.4643,1749.34,52.30,36.70,55.17,250.00,4.00,0.00,30.19,M,10.00,M,BKN,M,M,M,12000.00,M,M,M,M,M,M,M,M,M,M,52.30,KTMT 091235Z AUTO 25004KT 10SM BKN120 11/03 A3019 RMK AO2 T01130026,M
05U,2024-08-09 12:50,-116.0051,39.6042,1811.23,M,M,M,0.00,0.00,0.00,30.20,M,10.00,M,CLR,M,M,M,M,M,M,M,M,M,M,M,M,M,M,M,K05U 091250Z AUTO 00000KT 10SM CLR A3020 RMK A01,M
P68,2024-08-09 12:53,-116.0056,39.6014,1993.00,61.00,42.00,49.54,200.00,6.00,0.00,30.17,1013.10,M,M,M,M,M,M,M,M,M,M,M,M,M,M,M,M,M,61.00,KP68 091253Z AUTO 20006KT 16/06 A3017 RMK AO1 SLP131 T01610056,M
DRA,2024-08-09 12:53,-116.0278,36.6206,1009.00,78.00,53.00,41.88,310.00,6.00,0.00,29.98,1009.20,10.00,M,CLR,M,M,M,M,M,M,M,M,M,M,M,M,M,M,78.00,KDRA 091253Z AUTO 31006KT 10SM CLR 26/12 A2998 RMK AO2 SLP092 T02560117,M
ELY,2024-08-09 12:53,-114.8453,39.2950,1909.00,63.00,44.00,49.84,100.00,4.00,0.00,30.22,1011.80,10.00,M,CLR,M,M,M,M,M,M,M,M,M,M,M,M,M,M,63.00,KELY 091253Z AUTO 10004KT 10SM CLR 17/07 A3022 RMK AO2 SLP118 T01720067,M
VGT,2024-08-09 12:53,-115.1933,36.2111,667.00,86.00,60.00,41.60,210.00,4.00,0.00,29.94,1012.30,10.00,M,CLR,M,M,M,M,M,M,M,M,M,M,M,M,M,M,85.78,KVGT 091253Z 21004KT 10SM CLR 30/16 A2994 RMK AO2 SLP123 T03000156,M
LOL,2024-08-09 12:53,-118.5701,40.0684,1192.43,61.00,34.00,36.19,0.00,0.00,0.00,30.04,1012.80,10.00,M,CLR,M,M,M,M,M,M,M,M,M,M,M,M,M,M,61.00,KLOL 091253Z AUTO 00000KT 10SM CLR 16/01 A3004 RMK AO2 SLP128 T01610011,M
NFL,2024-08-09 12:54,-118.7010,39.4166,1199.00,64.00,44.00,48.12,160.00,7.00,0.00,30.05,1014.40,10.00,M,CLR,M,M,M,M,M,M,M,M,M,M,M,M,M,M,64.00,KNFL 091254Z AUTO 16007KT 10SM CLR 18/07 A3005 RMK AO2 SLP144 T01780067,M
BVU,2024-08-09 12:55,-114.8611,35.9475,671.00,80.60,62.60,54.30,70.00,5.00,0.00,29.94,M,10.00,M,CLR,M,M,M,M,M,M,M,M,M,M,M,M,M,M,81.84,KBVU 091255Z AUTO 07005KT 10SM CLR 27/17 A2994 RMK AO2,M
CXP,2024-08-09 12:55,-119.7326,39.1923,1431.00,60.80,44.60,55.12,0.00,0.00,0.00,30.14,M,10.00,M,CLR,M,M,M,M,M,M,M,M,M,M,M,M,M,M,60.80,KCXP 091255Z AUTO 00000KT 10SM CLR 16/07 A3014 RMK AO2,M
INS,2024-08-09 12:55,-115.6733,36.5872,955.00,83.30,54.30,36.94,110.00,13.00,0.00,29.96,1008.20,10.00,M,CLR,M,M,M,M,M,M,M,M,M,M,M,27.00,90.00,2024-08-09 12:22,82.20,KINS 091255Z AUTO 11013KT 10SM CLR 29/12 A2996 RMK AO2 PK WND 09027/22 SLP082 T02850124,M
RNO,2024-08-09 12:55,-119.7711,39.4839,1341.00,68.00,45.00,43.51,0.00,0.00,0.00,30.12,1013.40,10.00,M,CLR,M,M,M,M,M,M,M,M,M,M,M,M,M,M,68.00,KRNO 091255Z 00000KT 10SM CLR 20/07 A3012 RMK AO2 SLP134 T02000072,M
LSV,2024-08-09 12:55,-115.0343,36.2362,570.00,81.50,66.20,59.80,120.00,3.00,0.00,29.89,1009.00,10.00,M,CLR,M,M,M,M,M,M,M,M,M,M,M,M,M,M,83.70,KLSV 091255Z AUTO 12003KT 10SM CLR 28/19 A2989 RMK AO2 SLP090 T02750190 $,M
RTS,2024-08-09 12:55,-119.8764,39.6682,1539.00,59.00,35.60,41.42,0.00,0.00,0.00,30.16,M,10.00,M,CLR,M,M,M,M,M,M,M,M,M,M,M,M,M,M,59.00,KRTS 091255Z AUTO 00000KT 10SM CLR 15/02 A3016 RMK AO2,M
MEV,2024-08-09 12:55,-119.7500,38.9963,1441.42,55.40,42.80,62.46,140.00,4.00,0.00,30.13,M,9.00,M,FEW,FEW,M,M,3800.00,4500.00,M,M,M,M,M,M,M,M,M,55.40,KMEV 091255Z AUTO 14004KT 9SM FEW038 FEW045 13/06 A3013 RMK AO2,M
BAM,2024-08-09 12:55,-116.8743,40.5990,1382.36,55.40,33.80,43.90,190.00,4.00,0.00,30.08,M,10.00,M,CLR,M,M,M,M,M,M,M,M,M,M,M,M,M,M,55.40,KBAM 091255Z AUTO 19004KT 10SM CLR 13/01 A3008 RMK AO1,M
HTH,2024-08-09 12:55,-118.6315,38.5448,1282.89,68.00,51.80,56.13,200.00,5.00,0.00,30.09,M,10.00,M,CLR,M,M,M,M,M,M,M,M,M,M,M,M,M,M,68.00,KHTH 091255Z AUTO 20005KT 10SM CLR 20/11 A3009 RMK A01,M
10U,2024-08-09 12:55,-116.1876,41.9532,1637.00,53.60,30.20,40.54,150.00,6.00,0.00,30.11,M,10.00,M,FEW,M,M,M,12000.00,M,M,M,M,M,M,M,M,M,M,53.60,K10U 091255Z AUTO 15006KT 10SM FEW120 12/M01 A3011 RMK AO2,M
TMT,2024-08-09 12:55,-117.1971,39.4643,1749.34,50.00,35.00,56.16,0.00,0.00,0.00,30.20,M,10.00,M,BKN,M,M,M,12000.00,M,M,M,M,M,M,M,M,M,M,50.00,KTMT 091255Z AUTO 00000KT 10SM BKN120 10/02 A3020 RMK AO2 T01010017,M
EKO,2024-08-09 12:56,-115.7860,40.8242,1367.00,55.00,38.00,52.60,0.00,0.00,0.00,30.11,1013.70,10.00,M,CLR,M,M,M,M,M,M,M,M,M,M,M,M,M,M,55.00,KEKO 091256Z AUTO 00000KT 10SM CLR 13/03 A3011 RMK AO2 SLP137 T01280033 $,M
WMC,2024-08-09 12:56,-117.8072,40.9019,1315.00,56.00,31.00,38.38,150.00,3.00,0.00,30.05,1012.50,10.00,M,CLR,M,M,M,M,M,M,M,M,M,M,M,M,M,M,56.00,KWMC 091256Z AUTO 15003KT 10SM CLR 13/M01 A3005 RMK AO2 SLP125 T01331006,M
HND,2024-08-09 12:56,-115.1344,35.9729,742.79,83.00,61.00,47.47,0.00,0.00,0.00,29.98,1013.40,10.00,M,CLR,M,M,M,M,M,M,M,M,M,M,M,M,M,M,83.46,KHND 091256Z AUTO 00000KT 10SM CLR 28/16 A2998 RMK AO2 SLP134 T02830161,M
TPH,2024-08-09 12:56,-117.0904,38.0505,1654.00,67.00,41.00,38.63,360.00,7.00,0.00,30.17,1012.80,10.00,M,CLR,M,M,M,M,M,M,M,M,M,M,M,M,M,M,67.00,KTPH 091256Z AUTO 36007KT 10SM CLR 19/05 A3017 RMK AO2 SLP128 T01940050,M
LAS,2024-08-09 12:56,-115.1634,36.0719,663.00,86.00,62.00,44.65,0.00,0.00,0.00,29.95,1011.00,10.00,M,SCT,M,M,M,16000.00,M,M,M,M,M,M,M,M,M,M,86.48,KLAS 091256Z 00000KT 10SM SCT160 30/17 A2995 RMK AO2 SLP110 T03000167,M
RTS,2024-08-09 13:10,-119.8764,39.6682,1539.00,57.20,33.80,41.13,350.00,5.00,0.00,30.16,M,10.00,M,CLR,M,M,M,M,M,M,M,M,M,M,M,M,M,M,57.20,KRTS 091310Z AUTO 35005KT 10SM CLR 14/01 A3016 RMK AO2,M
BVU,2024-08-09 13:15,-114.8611,35.9475,671.00,80.60,62.60,54.30,60.00,4.00,0.00,29.94,M,10.00,M,CLR,M,M,M,M,M,M,M,M,M,M,M,M,M,M,81.84,KBVU 091315Z AUTO 06004KT 10SM CLR 27/17 A2994 RMK AO2,M
CXP,2024-08-09 13:15,-119.7326,39.1923,1431.00,60.80,42.80,51.45,0.00,0.00,0.00,30.14,M,10.00,M,CLR,M,M,M,M,M,M,M,M,M,M,M,M,M,M,60.80,KCXP 091315Z AUTO 00000KT 10SM CLR 16/06 A3014 RMK AO2,M
05U,2024-08-09 13:15,-116.0051,39.6042,1811.23,M,M,M,0.00,0.00,0.00,30.20,M,10.00,M,CLR,M,M,M,M,M,M,M,M,M,M,M,M,M,M,M,K05U 091315Z AUTO 00000KT 10SM CLR A3020 RMK A01,M
MEV,2024-08-09 13:15,-119.7500,38.9963,1441.42,53.60,41.00,62.23,160.00,4.00,0.00,30.13,M,10.00,M,CLR,M,M,M,M,M,M,M,M,M,M,M,M,M,M,53.60,KMEV 091315Z AUTO 16004KT 10SM CLR 12/05 A3013 RMK AO2,M
HTH,2024-08-09 13:15,-118.6315,38.5448,1282.89,68.00,53.60,59.97,220.00,5.00,0.00,30.09,M,10.00,M,CLR,M,M,M,M,M,M,M,M,M,M,M,M,M,M,68.00,KHTH 091315Z AUTO 22005KT 10SM CLR 20/12 A3009 RMK A01,M
10U,2024-08-09 13:15,-116.1876,41.9532,1637.00,57.20,30.20,35.57,160.00,5.00,0.00,30.11,M,10.00,M,SCT,M,M,M,12000.00,M,M,M,M,M,M,M,M,M,M,57.20,K10U 091315Z AUTO 16005KT 10SM SCT120 14/M01 A3011 RMK AO2,M
BAM,2024-08-09 13:15,-116.8743,40.5990,1382.36,57.20,35.60,44.19,0.00,0.00,0.00,30.08,M,10.00,M,CLR,M,M,M,M,M,M,M,M,M,M,M,M,M,M,57.20,KBAM 091315Z AUTO 00000KT 10SM CLR 14/02 A3008 RMK AO1,M
TMT,2024-08-09 13:15,-117.1971,39.4643,1749.34,53.00,35.40,51.07,0.00,0.00,0.00,30.20,M,10.00,M,SCT,M,M,M,11000.00,M,M,M,M,M,M,M,M,M,M,53.00,KTMT 091315Z AUTO 00000KT 10SM SCT110 12/02 A3020 RMK AO2 T01160019,M
BVU,2024-08-09 13:35,-114.8611,35.9475,671.00,82.40,62.60,51.21,0.00,0.00,0.00,29.94,M,10.00,M,CLR,M,M,M,M,M,M,M,M,M,M,M,M,M,M,83.41,KBVU 091335Z AUTO 00000KT 10SM CLR 28/17 A2994 RMK AO2,M
CXP,2024-08-09 13:35,-119.7326,39.1923,1431.00,60.80,42.80,51.45,0.00,0.00,0.00,30.15,M,10.00,M,CLR,M,M,M,M,M,M,M,M,M,M,M,M,M,M,60.80,KCXP 091335Z AUTO 00000KT 10SM CLR 16/06 A3015 RMK AO2,M
05U,2024-08-09 13:35,-116.0051,39.6042,1811.23,M,M,M,0.00,0.00,0.00,30.21,M,10.00,M,CLR,M,M,M,M,M,M,M,M,M,M,M,M,M,M,M,K05U 091335Z AUTO 00000KT 10SM CLR A3021 RMK A01,M
MEV,2024-08-09 13:35,-119.7500,38.9963,1441.42,51.80,41.00,66.48,160.00,4.00,0.00,30.14,M,10.00,M,CLR,M,M,M,M,M,M,M,M,M,M,M,M,M,M,51.80,KMEV 091335Z AUTO 16004KT 10SM CLR 11/05 A3014 RMK AO2,M
BAM,2024-08-09 13:35,-116.8743,40.5990,1382.36,55.40,35.60,47.16,0.00,0.00,0.00,30.09,M,10.00,M,CLR,M,M,M,M,M,M,M,M,M,M,M,M,M,M,55.40,KBAM 091335Z AUTO 00000KT 10SM CLR 13/02 A3009 RMK AO1,M
HTH,2024-08-09 13:35,-118.6315,38.5448,1282.89,68.00,53.60,59.97,230.00,4.00,0.00,30.10,M,10.00,M,CLR,M,M,M,M,M,M,M,M,M,M,M,M,M,M,68.00,KHTH 091335Z AUTO 23004KT 10SM CLR 20/12 A3010 RMK A01,M
10U,2024-08-09 13:35,-116.1876,41.9532,1637.00,60.80,32.00,33.64,180.00,4.00,0.00,30.11,M,10.00,10.00,SCT,M,M,M,12000.00,M,M,M,M,M,M,M,M,M,M,60.80,K10U 091335Z AUTO 18004G10KT 10SM SCT120 16/M00 A3011 RMK AO2,M
TMT,2024-08-09 13:35,-117.1971,39.4643,1749.34,52.00,36.30,54.91,0.00,0.00,0.00,30.20,M,10.00,M,SCT,M,M,M,11000.00,M,M,M,M,M,M,M,M,M,M,52.00,KTMT 091335Z AUTO 00000KT 10SM SCT110 11/02 A3020 RMK AO2 T01110024,M
NFL,2024-08-09 13:43,-118.7010,39.4166,1199.00,69.00,42.00,37.48,160.00,6.00,0.00,30.06,M,10.00,M,FEW,M,M,M,9000.00,M,M,M,M,M,M,M,M,M,M,69.00,KNFL 091343Z 16006KT 10SM FEW090 21/06 A3006 RMK AO2 FU DSNT ALQDS T02060056,M
05U,2024-08-09 13:50,-116.0051,39.6042,1811.23,M,M,M,0.00,0.00,0.00,30.21,M,10.00,M,CLR,M,M,M,M,M,M,M,M,M,M,M,M,M,M,M,K05U 091350Z AUTO 00000KT 10SM CLR A3021 RMK A01,M
P68,2024-08-09 13:53,-116.0056,39.6014,1993.00,63.00,42.00,46.16,190.00,6.00,0.00,30.19,1013.20,M,M,M,M,M,M,M,M,M,M,M,M,M,M,M,M,M,63.00,KP68 091353Z AUTO 19006KT 17/06 A3019 RMK AO1 SLP132 T01720056,M
DRA,2024-08-09 13:53,-116.0278,36.6206,1009.00,81.00,54.00,39.37,0.00,0.00,0.00,30.00,1009.90,10.00,M,CLR,M,M,M,M,M,M,M,M,M,M,M,M,M,M,80.59,KDRA 091353Z AUTO 00000KT 10SM CLR 27/12 A3000 RMK AO2 SLP099 T02720122,M
ELY,2024-08-09 13:53,-114.8453,39.2950,1909.00,61.00,44.00,53.49,200.00,7.00,0.00,30.23,1012.90,10.00,M,CLR,M,M,M,M,M,M,M,M,M,M,M,M,M,M,61.00,KELY 091353Z AUTO 20007KT 10SM CLR 16/07 A3023 RMK AO2 SLP129 T01610067,M
VGT,2024-08-09 13:53,-115.1933,36.2111,667.00,85.00,61.00,44.50,0.00,0.00,0.00,29.94,1012.40,10.00,M,CLR,M,M,M,M,M,M,M,M,M,M,M,M,M,M,85.21,KVGT 091353Z 00000KT 10SM CLR 29/16 A2994 RMK AO2 SLP124 T02940161,M
LOL,2024-08-09 13:53,-118.5701,40.0684,1192.43,60.00,35.00,39.03,0.00,0.00,0.00,30.06,1013.50,10.00,M,CLR,M,M,M,M,M,M,M,M,M,M,M,M,M,M,60.00,KLOL 091353Z AUTO 00000KT 10SM CLR 16/02 A3006 RMK AO2 SLP135 T01560017,M
NFL,2024-08-09 13:54,-118.7010,39.4166,1199.00,71.00,43.00,36.38,170.00,5.00,0.00,30.06,1014.70,10.00,M,FEW,M,M,M,10000.00,M,M,M,M,M,M,M,M,M,M,71.00,KNFL 091354Z 17005KT 10SM FEW100 22/06 A3006 RMK SLP147 FU DSNT ALQDS T02170061,M
BVU,2024-08-09 13:55,-114.8611,35.9475,671.00,80.60,62.60,54.30,0.00,0.00,0.00,29.94,M,10.00,M,CLR,M,M,M,M,M,M,M,M,M,M,M,M,M,M,81.84,KBVU 091355Z AUTO 00000KT 10SM CLR 27/17 A2994 RMK AO2,M
CXP,2024-08-09 13:55,-119.7326,39.1923,1431.00,62.60,44.60,51.72,0.00,0.00,0.00,30.15,M,10.00,M,CLR,M,M,M,M,M,M,M,M,M,M,M,M,M,M,62.60,KCXP 091355Z AUTO 00000KT 10SM CLR 17/07 A3015 RMK AO2,M
INS,2024-08-09 13:55,-115.6733,36.5872,955.00,84.00,55.60,37.86,110.00,12.00,0.00,29.99,1009.20,10.00,M,CLR,M,M,M,M,M,M,M,M,M,M,M,M,M,M,82.97,KINS 091355Z AUTO 11012KT 10SM CLR 29/13 A2999 RMK AO2 SLP092 T02890131,M
RNO,2024-08-09 13:55,-119.7711,39.4839,1341.00,67.00,46.00,46.78,0.00,0.00,0.00,30.12,1013.60,10.00,M,CLR,M,M,M,M,M,M,M,M,M,M,M,M,M,M,67.00,KRNO 091355Z 00000KT 10SM CLR 19/08 A3012 RMK AO2 SLP136 T01940078,M
LSV,2024-08-09 13:55,-115.0343,36.2362,570.00,84.40,63.00,48.69,20.00,4.00,0.00,29.90,1009.30,10.00,M,FEW,M,M,M,24000.00,M,M,M,M,M,M,M,M,M,M,85.36,KLSV 091355Z AUTO 02004KT 10SM FEW240 29/17 A2990 RMK AO2 SLP093 T02910173 $,M
MEV,2024-08-09 13:55,-119.7500,38.9963,1441.42,57.20,42.80,58.52,0.00,0.00,0.00,30.14,M,10.00,M,CLR,M,M,M,M,M,M,M,M,M,M,M,M,M,M,57.20,KMEV 091355Z AUTO 00000KT 10SM CLR 14/06 A3014 RMK AO2,M
BAM,2024-08-09 13:55,-116.8743,40.5990,1382.36,59.00,37.40,44.47,0.00,0.00,0.00,30.09,M,10.00,M,CLR,M,M,M,M,M,M,M,M,M,M,M,M,M,M,59.00,KBAM 091355Z AUTO 00000KT 10SM CLR 15/03 A3009 RMK AO1,M
HTH,2024-08-09 13:55,-118.6315,38.5448,1282.89,69.80,55.40,60.21,0.00,0.00,0.00,30.10,M,10.00,M,CLR,M,M,M,M,M,M,M,M,M,M,M,M,M,M,69.80,KHTH 091355Z AUTO 00000KT 10SM CLR 21/13 A3010 RMK A01,M
10U,2024-08-09 13:55,-116.1876,41.9532,1637.00,59.00,30.20,33.35,190.00,4.00,0.00,30.12,M,10.00,M,SCT,M,M,M,12000.00,M,M,M,M,M,M,M,M,M,M,59.00,K10U 091355Z AUTO 19004KT 10SM SCT120 15/M01 A3012 RMK AO2,M
TMT,2024-08-09 13:55,-117.1971,39.4643,1749.34,57.00,39.40,51.68,0.00,0.00,0.00,30.20,M,10.00,M,CLR,M,M,M,M,M,M,M,M,M,M,M,M,M,M,57.00,KTMT 091355Z AUTO 00000KT 10SM CLR 14/04 A3020 RMK AO2 T01390041,M
EKO,2024-08-09 13:56,-115.7860,40.8242,1367.00,61.00,40.00,45.85,100.00,4.00,0.00,30.12,1014.00,10.00,M,CLR,M,M,M,M,M,M,M,M,M,M,M,M,M,M,61.00,KEKO 091356Z AUTO 10004KT 10SM CLR 16/04 A3012 RMK AO2 SLP140 T01610044 $,M
WMC,2024-08-09 13:56,-117.8072,40.9019,1315.00,64.00,34.00,32.56,150.00,5.00,0.00,30.06,1012.20,10.00,M,CLR,M,M,M,M,M,M,M,M,M,M,M,M,M,M,64.00,KWMC 091356Z AUTO 15005KT 10SM CLR 18/01 A3006 RMK AO2 SLP122 T01780011,M
HND,2024-08-09 13:56,-115.1344,35.9729,742.79,82.00,61.00,49.03,180.00,4.00,0.00,29.99,1013.60,10.00,M,CLR,M,M,M,M,M,M,M,M,M,M,M,M,M,M,82.62,KHND 091356Z 18004KT 10SM CLR 28/16 A2999 RMK AO2 SLP136 T02780161,M
TPH,2024-08-09 13:56,-117.0904,38.0505,1654.00,70.00,41.00,34.85,10.00,6.00,0.00,30.17,1012.80,10.00,M,CLR,M,M,M,M,M,M,M,M,M,M,M,M,M,M,70.00,KTPH 091356Z AUTO 01006KT 10SM CLR 21/05 A3017 RMK AO2 SLP128 T02110050,M
LAS,2024-08-09 13:56,-115.1634,36.0719,663.00,87.00,61.00,41.75,110.00,3.00,0.00,29.96,1011.30,10.00,M,FEW,SCT,M,M,16000.00,20000.00,M,M,M,M,M,M,M,M,M,87.06,KLAS 091356Z 11003KT 10SM FEW160 SCT200 31/16 A2996 RMK AO2 SLP113 T03060161,M
05U,2024-08-09 14:10,-116.0051,39.6042,1811.23,M,M,M,0.00,0.00,0.00,30.21,M,10.00,M,CLR,M,M,M,M,M,M,M,M,M,M,M,M,M,M,M,K05U 091410Z AUTO 00000KT 10SM CLR A3021 RMK A01,M
BVU,2024-08-09 14:15,-114.8611,35.9475,671.00,80.60,62.60,54.30,0.00,0.00,0.00,29.95,M,10.00,M,CLR,M,M,M,M,M,M,M,M,M,M,M,M,M,M,81.84,KBVU 091415Z AUTO 00000KT 10SM CLR 27/17 A2995 RMK AO2,M
CXP,2024-08-09 14:15,-119.7326,39.1923,1431.00,66.20,44.60,45.60,0.00,0.00,0.00,30.16,M,10.00,M,CLR,M,M,M,M,M,M,M,M,M,M,M,M,M,M,66.20,KCXP 091415Z AUTO 00000KT 10SM CLR 19/07 A3016 RMK AO2,M
RTS,2024-08-09 14:15,-119.8764,39.6682,1539.00,62.60,33.80,33.93,0.00,0.00,0.00,30.17,M,6.00,M,CLR,M,M,M,M,M,M,M,HZ,M,M,M,M,M,M,62.60,KRTS 091415Z AUTO 00000KT 6SM HZ CLR 17/01 A3017 RMK AO2,M
MEV,2024-08-09 14:15,-119.7500,38.9963,1441.42,60.80,44.60,55.12,170.00,3.00,0.00,30.14,M,10.00,M,CLR,M,M,M,M,M,M,M,M,M,M,M,M,M,M,60.80,KMEV 091415Z AUTO 17003KT 10SM CLR 16/07 A3014 RMK AO2,M
BAM,2024-08-09 14:15,-116.8743,40.5990,1382.36,60.80,37.40,41.71,90.00,3.00,0.00,30.09,M,10.00,M,CLR,M,M,M,M,M,M,M,M,M,M,M,M,M,M,60.80,KBAM 091415Z AUTO 09003KT 10SM CLR 16/03 A3009 RMK AO1,M
HTH,2024-08-09 14:15,-118.6315,38.5448,1282.89,69.80,57.20,64.26,0.00,0.00,0.00,30.10,M,10.00,M,CLR,M,M,M,M,M,M,M,M,M,M,M,M,M,M,69.80,KHTH 091415Z AUTO 00000KT 10SM CLR 21/14 A3010 RMK A01,M
10U,2024-08-09 14:15,-116.1876,41.9532,1637.00,64.40,32.00,29.63,170.00,3.00,0.00,30.13,M,10.00,M,FEW,M,M,M,12000.00,M,M,M,M,M,M,M,M,M,M,64.40,K10U 091415Z AUTO 17003KT 10SM FEW120 18/00 A3013 RMK AO2,M
TMT,2024-08-09 14:15,-117.1971,39.4643,1749.34,60.00,40.60,48.63,0.00,0.00,0.00,30.21,M,10.00,M,CLR,M,M,M,M,M,M,M,M,M,M,M,M,M,M,60.00,KTMT 091415Z AUTO 00000KT 10SM CLR 16/05 A3021 RMK AO2 T01550048,M
05U,2024-08-09 14:30,-116.0051,39.6042,1811.23,M,M,M,0.00,0.00,0.00,30.22,M,10.00,M,CLR,M,M,M,M,M,M,M,M,M,M,M,M,M,M,M,K05U 091430Z AUTO 00000KT 10SM CLR A3022 RMK A01,M
BVU,2024-08-09 14:35,-114.8611,35.9475,671.00,82.40,62.60,51.21,50.00,3.00,0.00,29.95,M,10.00,M,CLR,M,M,M,M,M,M,M,M,M,M,M,M,M,M,83.41,KBVU 091435Z AUTO 05003KT 10SM CLR 28/17 A2995 RMK AO2,M
CXP,2024-08-09 14:35,-119.7326,39.1923,1431.00,69.80,42.80,37.61,0.00,0.00,0.00,30.16,M,10.00,M,CLR,M,M,M,M,M,M,M,M,M,M,M,M,M,M,69.80,KCXP 091435Z AUTO 00000KT 10SM CLR 21/06 A3016 RMK AO2,M
RTS,2024-08-09 14:35,-119.8764,39.6682,1539.00,66.20,33.80,29.92,0.00,0.00,0.00,30.17,M,6.00,M,CLR,M,M,M,M,M,M,M,HZ,M,M,M,M,M,M,66.20,KRTS 091435Z AUTO 00000KT 6SM HZ CLR 19/01 A3017 RMK AO2,M
MEV,2024-08-09 14:35,-119.7500,38.9963,1441.42,66.20,44.60,45.60,0.00,0.00,0.00,30.14,M,10.00,M,CLR,M,M,M,M,M,M,M,M,M,M,M,M,M,M,66.20,KMEV 091435Z AUTO 00000KT 10SM CLR 19/07 A3014 RMK AO2,M
HTH,2024-08-09 14:35,-118.6315,38.5448,1282.89,71.60,51.80,49.64,220.00,4.00,0.00,30.11,M,10.00,M,CLR,M,M,M,M,M,M,M,M,M,M,M,M,M,M,71.60,KHTH 091435Z AUTO 22004KT 10SM CLR 22/11 A3011 RMK A01,M
10U,2024-08-09 14:35,-116.1876,41.9532,1637.00,64.40,32.00,29.63,0.00,0.00,0.00,30.13,M,10.00,M,CLR,M,M,M,M,M,M,M,M,M,M,M,M,M,M,64.40,K10U 091435Z AUTO 00000KT 10SM CLR 18/M00 A3013 RMK AO2,M
BAM,2024-08-09 14:35,-116.8743,40.5990,1382.36,66.20,39.20,37.03,60.00,4.00,0.00,30.10,M,10.00,M,CLR,M,M,M,M,M,M,M,M,M,M,M,M,M,M,66.20,KBAM 091435Z AUTO 06004KT 10SM CLR 19/04 A3010 RMK AO1,M
TMT,2024-08-09 14:35,-117.1971,39.4643,1749.34,64.00,42.00,44.57,140.00,3.00,0.00,30.20,M,10.00,M,CLR,M,M,M,M,M,M,M,M,M,M,M,M,M,M,64.00,KTMT 091435Z AUTO 14003KT 10SM CLR 18/06 A3020 RMK AO2 T01770055,M
P68,2024-08-09 14:53,-116.0056,39.6014,1993.00,74.00,43.00,32.87,M,3.00,0.00,30.19,1013.10,M,M,M,M,M,M,M,M,M,M,M,M,M,M,M,M,M,74.00,KP68 091453Z AUTO VRB03KT 23/06 A3019 RMK AO1 SLP131 T02330061 51008,M
DRA,2024-08-09 14:53,-116.0278,36.6206,1009.00,87.00,55.00,33.65,180.00,3.00,0.00,30.02,1010.40,10.00,M,CLR,M,M,M,M,M,M,M,M,M,M,M,M,M,M,85.31,KDRA 091453Z AUTO 18003KT 10SM CLR 31/13 A3002 RMK AO2 SLP104 T03060128 53015,M
ELY,2024-08-09 14:53,-114.8453,39.2950,1909.00,73.00,47.00,39.58,190.00,6.00,0.00,30.24,1012.00,10.00,M,CLR,M,M,M,M,M,M,M,M,M,M,M,M,M,M,73.00,KELY 091453Z AUTO 19006KT 10SM CLR 23/08 A3024 RMK AO2 SLP120 T02280083 51007,M
VGT,2024-08-09 14:53,-115.1933,36.2111,667.00,88.00,62.00,41.90,130.00,4.00,0.00,29.96,1013.10,10.00,M,CLR,M,M,M,M,M,M,M,M,M,M,M,M,M,M,88.43,KVGT 091453Z 13004KT 10SM CLR 31/17 A2996 RMK AO2 SLP131 T03110167 53009,M
LOL,2024-08-09 14:53,-118.5701,40.0684,1192.43,70.00,36.00,28.65,0.00,0.00,0.00,30.07,1013.50,10.00,M,CLR,M,M,M,M,M,M,M,M,M,M,M,M,M,M,70.00,KLOL 091453Z AUTO 00000KT 10SM CLR 21/02 A3007 RMK AO2 SLP135 T02110022 51011,M
NFL,2024-08-09 14:54,-118.7010,39.4166,1199.00,78.00,44.00,29.90,150.00,5.00,0.00,30.07,1015.20,10.00,M,FEW,M,M,M,10000.00,M,M,M,M,M,M,M,M,M,M,78.00,KNFL 091454Z 15005KT 10SM FEW100 26/07 A3007 RMK AO2 SLP152 FU DSNT ALQDS T02560067 53011,M
BVU,2024-08-09 14:55,-114.8611,35.9475,671.00,82.40,62.60,51.21,50.00,3.00,0.00,29.96,M,10.00,M,CLR,M,M,M,M,M,M,M,M,M,M,M,M,M,M,83.41,KBVU 091455Z AUTO 05003KT 10SM CLR 28/17 A2996 RMK AO2,M
CXP,2024-08-09 14:55,-119.7326,39.1923,1431.00,71.60,44.60,37.89,0.00,0.00,0.00,30.16,M,10.00,M,CLR,M,M,M,M,M,M,M,M,M,M,M,M,M,M,71.60,KCXP 091455Z AUTO 00000KT 10SM CLR 22/07 A3016 RMK AO2,M
INS,2024-08-09 14:55,-115.6733,36.5872,955.00,86.00,55.00,34.74,130.00,10.00,0.00,30.00,1009.60,10.00,M,CLR,M,M,M,M,M,M,M,M,M,M,M,M,M,M,84.46,KINS 091455Z AUTO 13010KT 10SM CLR 30/13 A3000 RMK AO2 SLP096 T02990128 52014,M
RNO,2024-08-09 14:55,-119.7711,39.4839,1341.00,73.00,43.00,34.00,280.00,3.00,0.00,30.13,1013.80,10.00,M,CLR,M,M,M,M,M,M,M,M,M,M,M,M,M,M,73.00,KRNO 091455Z 28003KT 10SM CLR 23/06 A3013 RMK AO2 SLP138 T02280061 51008,M
LSV,2024-08-09 14:55,-115.0343,36.2362,570.00,84.20,66.20,54.80,60.00,9.00,0.00,29.91,1009.70,10.00,M,CLR,M,M,M,M,M,M,M,M,M,M,M,M,M,M,86.50,KLSV 091455Z AUTO 06009KT 10SM CLR 29/19 A2991 RMK AO2 SLP097 T02900190 53009 $,M
RTS,2024-08-09 14:55,-119.8764,39.6682,1539.00,68.00,42.80,40.00,0.00,0.00,0.00,30.17,M,10.00,M,CLR,M,M,M,M,M,M,M,M,M,M,M,M,M,M,68.00,KRTS 091455Z AUTO 00000KT 10SM CLR 20/06 A3017 RMK AO2,M
05U,2024-08-09 14:55,-116.0051,39.6042,1811.23,M,M,M,0.00,0.00,0.00,30.22,M,10.00,M,CLR,M,M,M,M,M,M,M,M,M,M,M,M,M,M,M,K05U 091455Z AUTO 00000KT 10SM CLR A3022 RMK A01,M
MEV,2024-08-09 14:55,-119.7500,38.9963,1441.42,68.00,44.60,42.85,0.00,0.00,0.00,30.14,M,9.00,M,CLR,M,M,M,M,M,M,M,M,M,M,M,M,M,M,68.00,KMEV 091455Z AUTO 00000KT 9SM CLR 20/07 A3014 RMK AO2,M
BAM,2024-08-09 14:55,-116.8743,40.5990,1382.36,69.80,41.00,35.09,60.00,3.00,0.00,30.10,M,10.00,M,CLR,M,M,M,M,M,M,M,M,M,M,M,M,M,M,69.80,KBAM 091455Z AUTO 06003KT 10SM CLR 21/05 A3010 RMK AO1,M
HTH,2024-08-09 14:55,-118.6315,38.5448,1282.89,75.20,51.80,43.97,210.00,4.00,0.00,30.11,M,10.00,M,M,M,M,M,M,M,M,M,M,M,M,M,M,M,M,75.20,KHTH 091455Z AUTO 21004KT 10SM 24/11 A3011 RMK A01,M
10U,2024-08-09 14:55,-116.1876,41.9532,1637.00,66.20,32.00,27.83,0.00,0.00,0.00,30.13,M,10.00,M,CLR,M,M,M,M,M,M,M,M,M,M,M,M,M,M,66.20,K10U 091455Z AUTO 00000KT 10SM CLR 19/M00 A3013 RMK AO2,M
TMT,2024-08-09 14:55,-117.1971,39.4643,1749.34,69.00,44.00,40.47,190.00,6.00,0.00,30.20,M,10.00,M,CLR,M,M,M,M,M,M,M,M,M,M,M,M,M,M,69.00,KTMT 091455Z AUTO 19006KT 10SM CLR 21/07 A3020 RMK AO2 T02060066,M
EKO,2024-08-09 14:56,-115.7860,40.8242,1367.00,69.00,36.00,29.65,50.00,3.00,0.00,30.13,1014.10,10.00,M,FEW,M,M,M,11000.00,M,M,M,M,M,M,M,M,M,M,69.00,KEKO 091456Z AUTO 05003KT 10SM FEW110 21/02 A3013 RMK AO2 SLP141 T02060022 51009 $,M
WMC,2024-08-09 14:56,-117.8072,40.9019,1315.00,71.00,34.00,25.58,0.00,0.00,0.00,30.08,1013.00,10.00,M,CLR,M,M,M,M,M,M,M,M,M,M,M,M,M,M,71.00,KWMC 091456Z AUTO 00000KT 10SM CLR 22/01 A3008 RMK AO2 SLP130 T02170011 53012,M
HND,2024-08-09 14:56,-115.1344,35.9729,742.79,87.00,61.00,41.75,240.00,3.00,0.00,30.00,1014.10,10.00,M,CLR,M,M,M,M,M,M,M,M,M,M,M,M,M,M,87.06,KHND 091456Z 24003KT 10SM CLR 31/16 A3000 RMK AO2 SLP141 T03060161 53008,M
TPH,2024-08-09 14:56,-117.0904,38.0505,1654.00,77.00,45.00,32.10,0.00,0.00,0.00,30.19,1012.80,10.00,M,CLR,M,M,M,M,M,M,M,M,M,M,M,M,M,M,77.00,KTPH 091456Z AUTO 00000KT 10SM CLR 25/07 A3019 RMK AO2 SLP128 T02500072 53008,M
LAS,2024-08-09 14:56,-115.1634,36.0719,663.00,88.00,62.00,41.90,M,3.00,0.00,29.97,1011.80,10.00,M,FEW,FEW,M,M,16000.00,20000.00,M,M,M,M,M,M,M,M,M,88.43,KLAS 091456Z VRB03KT 10SM FEW160 FEW200 31/17 A2997 RMK AO2 SLP118 T03110167 53008,M
05U,2024-08-09 15:10,-116.0051,39.6042,1811.23,M,M,M,0.00,0.00,0.00,30.22,M,10.00,M,CLR,M,M,M,M,M,M,M,M,M,M,M,M,M,M,M,K05U 091510Z AUTO 00000KT 10SM CLR A3022 RMK A01,M
BVU,2024-08-09 15:15,-114.8611,35.9475,671.00,86.00,60.80,42.80,150.00,3.00,0.00,29.96,M,10.00,M,CLR,M,M,M,M,M,M,M,M,M,M,M,M,M,M,86.05,KBVU 091515Z AUTO 15003KT 10SM CLR 30/16 A2996 RMK AO2,M
CXP,2024-08-09 15:15,-119.7326,39.1923,1431.00,73.40,44.60,35.66,0.00,0.00,0.00,30.16,M,10.00,M,CLR,M,M,M,M,M,M,M,M,M,M,M,M,M,M,73.40,KCXP 091515Z AUTO 00000KT 10SM CLR 23/07 A3016 RMK AO2,M
RTS,2024-08-09 15:15,-119.8764,39.6682,1539.00,69.80,41.00,35.09,0.00,0.00,0.00,30.17,M,10.00,M,CLR,M,M,M,M,M,M,M,M,M,M,M,M,M,M,69.80,KRTS 091515Z AUTO 00000KT 10SM CLR 21/05 A3017 RMK AO2,M
MEV,2024-08-09 15:15,-119.7500,38.9963,1441.42,69.80,44.60,40.29,300.00,3.00,0.00,30.15,M,10.00,M,CLR,M,M,M,M,M,M,M,M,M,M,M,M,M,M,69.80,KMEV 091515Z AUTO 30003KT 10SM CLR 21/07 A3015 RMK AO2,M
BAM,2024-08-09 15:15,-116.8743,40.5990,1382.36,73.40,41.00,31.05,0.00,0.00,0.00,30.10,M,10.00,M,CLR,M,M,M,M,M,M,M,M,M,M,M,M,M,M,73.40,KBAM 091515Z AUTO 00000KT 10SM CLR 23/05 A3010 RMK AO1,M
HTH,2024-08-09 15:15,-118.6315,38.5448,1282.89,77.00,51.80,41.42,240.00,3.00,0.00,30.11,M,10.00,M,M,M,M,M,M,M,M,M,M,M,M,M,M,M,M,77.00,KHTH 091515Z AUTO 24003KT 10SM 25/11 A3011 RMK A01,M
10U,2024-08-09 15:15,-116.1876,41.9532,1637.00,69.80,32.00,24.59,0.00,0.00,0.00,30.14,M,10.00,M,CLR,M,M,M,M,M,M,M,M,M,M,M,M,M,M,69.80,K10U 091515Z AUTO 00000KT 10SM CLR 21/00 A3014 RMK AO2 LTG DSNT E,M
TMT,2024-08-09 15:15,-117.1971,39.4643,1749.34,75.20,42.40,30.86,210.00,6.00,0.00,30.21,M,10.00,M,CLR,M,M,M,M,M,M,M,M,M,M,M,M,M,M,75.20,KTMT 091515Z AUTO 21006KT 10SM CLR 24/06 A3021 RMK AO2 T02400058,M
05U,2024-08-09 15:30,-116.0051,39.6042,1811.23,M,M,M,0.00,0.00,0.00,30.22,M,10.00,M,CLR,M,M,M,M,M,M,M,M,M,M,M,M,M,M,M,K05U 091530Z AUTO 00000KT 10SM CLR A3022 RMK A01,M
BVU,2024-08-09 15:35,-114.8611,35.9475,671.00,86.00,60.80,42.80,140.00,6.00,0.00,29.96,M,10.00,M,CLR,M,M,M,M,M,M,M,M,M,M,M,M,M,M,86.05,KBVU 091535Z AUTO 14006KT 10SM CLR 30/16 A2996 RMK AO2,M
CXP,2024-08-09 15:35,-119.7326,39.1923,1431.00,75.20,42.80,31.34,0.00,0.00,0.00,30.16,M,10.00,M,CLR,M,M,M,M,M,M,M,M,M,M,M,M,M,M,75.20,KCXP 091535Z AUTO 00000KT 10SM CLR 24/06 A3016 RMK AO2,M
RTS,2024-08-09 15:35,-119.8764,39.6682,1539.00,71.60,37.40,28.68,220.00,3.00,0.00,30.17,M,10.00,M,CLR,M,M,M,M,M,M,M,M,M,M,M,M,M,M,71.60,KRTS 091535Z AUTO 22003KT 10SM CLR 22/03 A3017 RMK AO2,M
MEV,2024-08-09 15:35,-119.7500,38.9963,1441.42,71.60,46.40,40.57,330.00,3.00,0.00,30.14,M,10.00,M,CLR,M,M,M,M,M,M,M,M,M,M,M,M,M,M,71.60,KMEV 091535Z AUTO 33003KT 10SM CLR 22/08 A3014 RMK AO2,M
BAM,2024-08-09 15:35,-116.8743,40.5990,1382.36,77.00,41.00,27.53,0.00,0.00,0.00,30.10,M,10.00,M,CLR,M,M,M,M,M,M,M,M,M,M,M,M,M,M,77.00,KBAM 091535Z AUTO 00000KT 10SM CLR 25/05 A3010 RMK AO1,M
HTH,2024-08-09 15:35,-118.6315,38.5448,1282.89,77.00,48.20,36.22,0.00,0.00,0.00,30.11,M,10.00,M,CLR,M,M,M,M,M,M,M,M,M,M,M,M,M,M,77.00,KHTH 091535Z AUTO 00000KT 10SM CLR 25/09 A3011 RMK A01,M
10U,2024-08-09 15:35,-116.1876,41.9532,1637.00,73.40,33.80,23.39,0.00,0.00,0.00,30.14,M,10.00,M,CLR,M,M,M,M,M,M,M,M,M,M,M,M,M,M,73.40,K10U 091535Z AUTO 00000KT 10SM CLR 23/01 A3014 RMK AO2,M
TMT,2024-08-09 15:35,-117.1971,39.4643,1749.34,75.20,46.80,36.49,0.00,0.00,0.00,30.20,M,10.00,M,CLR,M,M,M,M,M,M,M,M,M,M,M,M,M,M,75.20,KTMT 091535Z AUTO 00000KT 10SM CLR 24/08 A3020 RMK AO2 T02400082,M
05U,2024-08-09 15:50,-116.0051,39.6042,1811.23,M,M,M,0.00,0.00,0.00,30.22,M,10.00,M,CLR,M,M,M,M,M,M,M,M,M,M,M,M,M,M,M,K05U 091550Z AUTO 00000KT 10SM CLR A3022 RMK A01,M
P68,2024-08-09 15:53,-116.0056,39.6014,1993.00,78.00,44.00,29.90,30.00,3.00,0.00,30.19,1013.30,M,M,M,M,M,M,M,M,M,M,M,M,M,M,M,M,M,78.00,KP68 091553Z AUTO 03003KT 26/07 A3019 RMK AO1 SLP133 T02560067,M
DRA,2024-08-09 15:53,-116.0278,36.6206,1009.00,90.00,55.00,30.61,0.00,0.00,0.00,30.02,1010.40,10.00,M,CLR,M,M,M,M,M,M,M,M,M,M,M,M,M,M,88.06,KDRA 091553Z AUTO 00000KT 10SM CLR 32/13 A3002 RMK AO2 SLP104 T03220128,M
ELY,2024-08-09 15:53,-114.8453,39.2950,1909.00,78.00,47.00,33.50,190.00,5.00,0.00,30.23,1011.60,10.00,M,CLR,M,M,M,M,M,M,M,M,M,M,M,M,M,M,78.00,KELY 091553Z AUTO 19005KT 10SM CLR 26/08 A3023 RMK AO2 SLP116 T02560083,M
VGT,2024-08-09 15:53,-115.1933,36.2111,667.00,90.00,61.00,37.97,90.00,5.00,0.00,29.96,1013.10,10.00,M,CLR,M,M,M,M,M,M,M,M,M,M,M,M,M,M,90.03,KVGT 091553Z 09005KT 10SM CLR 32/16 A2996 RMK AO2 SLP131 T03220161,M
LOL,2024-08-09 15:53,-118.5701,40.0684,1192.43,80.00,35.00,19.71,0.00,0.00,0.00,30.07,1013.30,8.00,M,CLR,M,M,M,M,M,M,M,M,M,M,M,M,M,M,78.63,KLOL 091553Z AUTO 00000KT 8SM CLR 27/02 A3007 RMK AO2 SLP133 T02670017,M
BVU,2024-08-09 15:55,-114.8611,35.9475,671.00,87.80,60.80,40.41,170.00,9.00,0.00,29.96,M,10.00,M,CLR,M,M,M,M,M,M,M,M,M,M,M,M,M,M,87.75,KBVU 091555Z AUTO 17009KT 10SM CLR 31/16 A2996 RMK AO2,M
CXP,2024-08-09 15:55,-119.7326,39.1923,1431.00,75.20,42.80,31.34,0.00,0.00,0.00,30.16,M,10.00,M,CLR,M,M,M,M,M,M,M,M,M,M,M,M,M,M,75.20,KCXP 091555Z AUTO 00000KT 10SM CLR 24/06 A3016 RMK AO2,M
RNO,2024-08-09 15:55,-119.7711,39.4839,1341.00,76.00,44.00,31.95,0.00,0.00,0.00,30.12,1013.70,10.00,M,CLR,M,M,M,M,M,M,M,M,M,M,M,M,M,M,76.00,KRNO 091555Z 00000KT 10SM CLR 24/07 A3012 RMK AO2 SLP137 T02440067,M
RTS,2024-08-09 15:55,-119.8764,39.6682,1539.00,75.20,37.40,25.40,0.00,0.00,0.00,30.17,M,10.00,M,CLR,M,M,M,M,M,M,M,M,M,M,M,M,M,M,75.20,KRTS 091555Z AUTO 00000KT 10SM CLR 24/03 A3017 RMK AO2,M
MEV,2024-08-09 15:55,-119.7500,38.9963,1441.42,73.40,44.60,35.66,0.00,0.00,0.00,30.14,M,10.00,M,CLR,M,M,M,M,M,M,M,M,M,M,M,M,M,M,73.40,KMEV 091555Z AUTO 00000KT 10SM CLR 23/07 A3014 RMK AO2,M
BAM,2024-08-09 15:55,-116.8743,40.5990,1382.36,78.80,41.00,25.95,170.00,4.00,0.00,30.10,M,10.00,M,CLR,M,M,M,M,M,M,M,M,M,M,M,M,M,M,78.80,KBAM 091555Z AUTO 17004KT 10SM CLR 26/05 A3010 RMK AO1,M
HTH,2024-08-09 15:55,-118.6315,38.5448,1282.89,78.80,48.20,34.13,0.00,0.00,0.00,30.10,M,10.00,M,CLR,M,M,M,M,M,M,M,M,M,M,M,M,M,M,78.80,KHTH 091555Z AUTO 00000KT 10SM CLR 26/09 A3010 RMK A01,M
10U,2024-08-09 15:55,-116.1876,41.9532,1637.00,78.80,30.20,16.90,210.00,8.00,0.00,30.13,M,10.00,M,CLR,M,M,M,M,M,M,M,M,M,M,M,M,M,M,78.80,K10U 091555Z AUTO 21008KT 10SM CLR 26/M01 A3013 RMK AO2,M
TMT,2024-08-09 15:55,-117.1971,39.4643,1749.34,77.70,42.60,28.62,270.00,3.00,0.00,30.20,M,10.00,M,CLR,M,M,M,M,M,M,M,M,M,M,M,M,M,M,77.70,KTMT 091555Z AUTO 27003KT 10SM CLR 25/06 A3020 RMK AO2 T02540059,M
INS,2024-08-09 15:55,-115.6733,36.5872,955.00,89.00,53.60,30.01,160.00,3.00,0.00,30.00,1009.50,10.00,M,CLR,M,M,M,M,M,M,M,M,M,M,M,M,M,M,86.80,KINS 091555Z AUTO 16003KT 10SM CLR 32/12 A3000 RMK AO2 SLP095 T03170120,M
LSV,2024-08-09 15:55,-115.0343,36.2362,570.00,88.00,62.80,43.10,80.00,11.00,0.00,29.91,1009.70,10.00,M,CLR,M,M,M,M,M,M,M,M,M,M,M,M,M,M,88.77,KLSV 091555Z AUTO 08011KT 10SM CLR 31/17 A2991 RMK AO2 SLP097 T03120171 $,M
EKO,2024-08-09 15:56,-115.7860,40.8242,1367.00,75.00,42.00,30.59,250.00,4.00,0.00,30.13,1014.00,10.00,M,FEW,M,M,M,12000.00,M,M,M,M,M,M,M,M,M,M,75.00,KEKO 091556Z AUTO 25004KT 10SM FEW120 24/06 A3013 RMK AO2 SLP140 T02390056,M
WMC,2024-08-09 15:56,-117.8072,40.9019,1315.00,81.00,33.00,17.61,0.00,0.00,0.00,30.08,1013.20,10.00,M,CLR,M,M,M,M,M,M,M,M,M,M,M,M,M,M,79.10,KWMC 091556Z AUTO 00000KT 10SM CLR 27/01 A3008 RMK AO2 SLP132 T02720006,M
HND,2024-08-09 15:56,-115.1344,35.9729,742.79,89.00,61.00,39.18,20.00,4.00,0.00,30.00,1014.10,10.00,M,CLR,M,M,M,M,M,M,M,M,M,M,M,M,M,M,89.01,KHND 091556Z 02004KT 10SM CLR 32/16 A3000 RMK AO2 SLP141 T03170161,M
TPH,2024-08-09 15:56,-117.0904,38.0505,1654.00,80.00,48.00,32.57,150.00,6.00,0.00,30.19,1012.50,10.00,M,CLR,M,M,M,M,M,M,M,M,M,M,M,M,M,M,79.37,KTPH 091556Z AUTO 15006KT 10SM CLR 27/09 A3019 RMK AO2 SLP125 T02670089,M
LAS,2024-08-09 15:56,-115.1634,36.0719,663.00,90.00,62.00,39.34,100.00,4.00,0.00,29.98,1011.80,10.00,M,FEW,FEW,M,M,16000.00,20000.00,M,M,M,M,M,M,M,M,M,90.46,KLAS 091556Z 10004KT 10SM FEW160 FEW200 32/17 A2998 RMK AO2 SLP118 T03220167,M
NFL,2024-08-09 15:57,-118.7010,39.4166,1199.00,83.00,41.00,22.62,320.00,3.00,0.00,30.08,1015.20,10.00,M,FEW,M,M,M,10000.00,M,M,M,M,M,M,M,M,M,M,80.69,KNFL 091557Z 32003KT 10SM FEW100 28/05 A3008 RMK SLP152 FU DSNT ALQDS T02830050,M
05U,2024-08-09 16:10,-116.0051,39.6042,1811.23,M,M,M,0.00,0.00,0.00,30.22,M,10.00,M,CLR,M,M,M,M,M,M,M,M,M,M,M,M,M,M,M,K05U 091610Z AUTO 00000KT 10SM CLR A3022 RMK A01,M
BVU,2024-08-09 16:15,-114.8611,35.9475,671.00,87.80,59.00,37.90,160.00,8.00,0.00,29.97,M,10.00,M,CLR,M,M,M,M,M,M,M,M,M,M,M,M,M,M,87.12,KBVU 091615Z AUTO 16008KT 10SM CLR 31/15 A2997 RMK AO2,M
CXP,2024-08-09 16:15,-119.7326,39.1923,1431.00,77.00,42.80,29.51,0.00,0.00,0.00,30.15,M,10.00,M,CLR,M,M,M,M,M,M,M,M,M,M,M,M,M,M,77.00,KCXP 091615Z AUTO 00000KT 10SM CLR 25/06 A3015 RMK AO2,M
RTS,2024-08-09 16:15,-119.8764,39.6682,1539.00,77.00,37.40,23.93,140.00,4.00,0.00,30.17,M,10.00,M,CLR,M,M,M,M,M,M,M,M,M,M,M,M,M,M,77.00,KRTS 091615Z AUTO 14004KT 10SM CLR 25/03 A3017 RMK AO2,M
MEV,2024-08-09 16:15,-119.7500,38.9963,1441.42,77.00,44.60,31.62,0.00,0.00,0.00,30.14,M,10.00,M,CLR,M,M,M,M,M,M,M,M,M,M,M,M,M,M,77.00,KMEV 091615Z AUTO 00000KT 10SM CLR 25/07 A3014 RMK AO2,M
BAM,2024-08-09 16:15,-116.8743,40.5990,1382.36,80.60,41.00,24.46,0.00,0.00,0.00,30.10,M,10.00,M,CLR,M,M,M,M,M,M,M,M,M,M,M,M,M,M,79.20,KBAM 091615Z AUTO 00000KT 10SM CLR 27/05 A3010 RMK AO1,M
HTH,2024-08-09 16:15,-118.6315,38.5448,1282.89,80.60,46.40,30.07,0.00,0.00,0.00,30.10,M,10.00,M,CLR,M,M,M,M,M,M,M,M,M,M,M,M,M,M,79.56,KHTH 091615Z AUTO 00000KT 10SM CLR 27/08 A3010 RMK A01,M
10U,2024-08-09 16:15,-116.1876,41.9532,1637.00,80.60,30.20,15.94,230.00,10.00,0.00,30.13,M,10.00,16.00,CLR,M,M,M,M,M,M,M,M,M,M,M,M,M,M,78.77,K10U 091615Z AUTO 23010G16KT 10SM CLR 27/M01 A3013 RMK AO2,M
TMT,2024-08-09 16:15,-117.1971,39.4643,1749.34,79.50,43.00,27.39,250.00,4.00,0.00,30.20,M,10.00,M,CLR,M,M,M,M,M,M,M,M,M,M,M,M,M,M,79.50,KTMT 091615Z AUTO 25004KT 10SM CLR 26/06 A3020 RMK AO2 T02640061,M
BVU,2024-08-09 16:35,-114.8611,35.9475,671.00,89.60,60.80,38.18,110.00,11.00,0.00,29.97,M,10.00,M,CLR,M,M,M,M,M,M,M,M,M,M,M,M,M,M,89.54,KBVU 091635Z AUTO 11011KT 10SM CLR 32/16 A2997 RMK AO2,M
CXP,2024-08-09 16:35,-119.7326,39.1923,1431.00,80.60,42.80,26.22,0.00,0.00,0.00,30.15,M,10.00,M,CLR,M,M,M,M,M,M,M,M,M,M,M,M,M,M,79.30,KCXP 091635Z AUTO 00000KT 10SM CLR 27/06 A3015 RMK AO2,M
RTS,2024-08-09 16:35,-119.8764,39.6682,1539.00,78.80,39.20,24.19,110.00,5.00,0.00,30.17,M,10.00,M,CLR,M,M,M,M,M,M,M,M,M,M,M,M,M,M,78.80,KRTS 091635Z AUTO 11005KT 10SM CLR 26/04 A3017 RMK AO2,M
05U,2024-08-09 16:35,-116.0051,39.6042,1811.23,M,M,M,0.00,0.00,0.00,30.22,M,10.00,M,CLR,M,M,M,M,M,M,M,M,M,M,M,M,M,M,M,K05U 091635Z AUTO 00000KT 10SM CLR A3022 RMK A01,M
MEV,2024-08-09 16:35,-119.7500,38.9963,1441.42,78.80,44.60,29.79,M,3.00,0.00,30.14,M,10.00,M,CLR,M,M,M,M,M,M,M,M,M,M,M,M,M,M,78.80,KMEV 091635Z AUTO VRB03KT 10SM CLR 26/07 A3014 RMK AO2,M
HTH,2024-08-09 16:35,-118.6315,38.5448,1282.89,82.40,48.20,30.35,350.00,4.00,0.00,30.10,M,10.00,M,CLR,M,M,M,M,M,M,M,M,M,M,M,M,M,M,80.80,KHTH 091635Z AUTO 35004KT 10SM CLR 28/09 A3010 RMK A01,M
10U,2024-08-09 16:35,-116.1876,41.9532,1637.00,82.40,30.20,15.03,240.00,11.00,0.00,30.13,M,10.00,M,CLR,M,M,M,M,M,M,M,M,M,M,M,M,M,M,79.97,K10U 091635Z AUTO 24011KT 10SM CLR 28/M01 A3013 RMK AO2,M
BAM,2024-08-09 16:35,-116.8743,40.5990,1382.36,82.40,41.00,23.07,240.00,3.00,0.00,30.10,M,10.00,M,SCT,M,M,M,12000.00,M,M,M,M,M,M,M,M,M,M,80.29,KBAM 091635Z AUTO 24003KT 10SM SCT120 28/05 A3010 RMK AO1,M
TMT,2024-08-09 16:35,-117.1971,39.4643,1749.34,81.30,41.40,24.28,280.00,3.00,0.00,30.19,M,10.00,M,CLR,M,M,M,M,M,M,M,M,M,M,M,M,M,M,79.63,KTMT 091635Z AUTO 28003KT 10SM CLR 27/05 A3019 RMK AO2 T02740052,M
P68,2024-08-09 16:53,-116.0056,39.6014,1993.00,83.00,42.00,23.51,20.00,4.00,0.00,30.19,1012.60,M,M,M,M,M,M,M,M,M,M,M,M,M,M,M,M,M,80.74,KP68 091653Z AUTO 02004KT 28/06 A3019 RMK AO1 SLP126 T02830056,M
DRA,2024-08-09 16:53,-116.0278,36.6206,1009.00,92.00,55.00,28.75,230.00,7.00,0.00,30.02,1010.40,10.00,15.00,CLR,M,M,M,M,M,M,M,M,M,M,M,M,M,M,90.02,KDRA 091653Z AUTO 23007G15KT 10SM CLR 33/13 A3002 RMK AO2 SLP104 T03330128,M
ELY,2024-08-09 16:53,-114.8453,39.2950,1909.00,82.00,46.00,28.30,M,M,0.00,30.22,1011.10,10.00,M,CLR,M,M,M,M,M,M,M,M,M,M,M,M,M,M,80.36,KELY 091653Z AUTO 10SM CLR 28/08 A3022 RMK AO2 SLP111 T02780078,M
VGT,2024-08-09 16:53,-115.1933,36.2111,667.00,93.00,61.00,34.57,80.00,6.00,0.00,29.96,1013.00,10.00,M,CLR,M,M,M,M,M,M,M,M,M,M,M,M,M,M,93.20,KVGT 091653Z 08006KT 10SM CLR 34/16 A2996 RMK AO2 SLP130 T03390161,M
LOL,2024-08-09 16:53,-118.5701,40.0684,1192.43,85.00,39.00,19.62,110.00,3.00,0.00,30.07,1012.90,10.00,M,CLR,M,M,M,M,M,M,M,M,M,M,M,M,M,M,82.02,KLOL 091653Z AUTO 11003KT 10SM CLR 29/04 A3007 RMK AO2 SLP129 T02940039,M
BVU,2024-08-09 16:55,-114.8611,35.9475,671.00,87.80,60.80,40.41,120.00,7.00,0.00,29.97,M,10.00,13.00,CLR,M,M,M,M,M,M,M,M,M,M,M,M,M,M,87.75,KBVU 091655Z AUTO 12007G13KT 10SM CLR 31/16 A2997 RMK AO2,M
CXP,2024-08-09 16:55,-119.7326,39.1923,1431.00,80.60,42.80,26.22,0.00,0.00,0.00,30.15,M,10.00,M,CLR,M,M,M,M,M,M,M,M,M,M,M,M,M,M,79.30,KCXP 091655Z AUTO 00000KT 10SM CLR 27/06 A3015 RMK AO2,M
INS,2024-08-09 16:55,-115.6733,36.5872,955.00,91.80,53.00,26.89,50.00,3.00,0.00,30.00,1009.50,10.00,M,CLR,M,M,M,M,M,M,M,M,M,M,M,M,M,M,89.33,KINS 091655Z AUTO 05003KT 10SM CLR 33/12 A3000 RMK AO2 SLP095 T03320116,M
RNO,2024-08-09 16:55,-119.7711,39.4839,1341.00,81.00,44.00,27.09,90.00,3.00,0.00,30.12,1013.60,10.00,M,CLR,M,M,M,M,M,M,M,M,M,M,M,M,M,M,79.61,KRNO 091655Z 09003KT 10SM CLR 27/07 A3012 RMK AO2 SLP136 T02720067,M
RTS,2024-08-09 16:55,-119.8764,39.6682,1539.00,80.60,37.40,21.25,130.00,5.00,0.00,30.17,M,10.00,M,CLR,M,M,M,M,M,M,M,M,M,M,M,M,M,M,79.02,KRTS 091655Z AUTO 13005KT 10SM CLR 27/03 A3017 RMK AO2,M
05U,2024-08-09 16:55,-116.0051,39.6042,1811.23,M,M,M,0.00,0.00,0.00,30.21,M,10.00,M,CLR,M,M,M,M,M,M,M,M,M,M,M,M,M,M,M,K05U 091655Z AUTO 00000KT 10SM CLR A3021 RMK A01,M
MEV,2024-08-09 16:55,-119.7500,38.9963,1441.42,80.60,44.60,28.08,0.00,0.00,0.00,30.14,M,10.00,M,CLR,M,M,M,M,M,M,M,M,M,M,M,M,M,M,79.42,KMEV 091655Z AUTO 00000KT 10SM CLR 27/07 A3014 RMK AO2,M
HTH,2024-08-09 16:55,-118.6315,38.5448,1282.89,82.40,46.40,28.36,330.00,5.00,0.00,30.10,M,10.00,M,CLR,M,M,M,M,M,M,M,M,M,M,M,M,M,M,80.64,KHTH 091655Z AUTO 33005KT 10SM CLR 28/08 A3010 RMK A01,M
10U,2024-08-09 16:55,-116.1876,41.9532,1637.00,82.40,30.20,15.03,220.00,9.00,0.00,30.13,M,10.00,M,CLR,M,M,M,M,M,M,M,M,M,M,M,M,M,M,79.97,K10U 091655Z AUTO 22009KT 180V250 10SM CLR 28/M01 A3013 RMK AO2,M
LSV,2024-08-09 16:55,-115.0343,36.2362,570.00,90.50,62.00,38.72,130.00,10.00,0.00,29.92,1010.10,10.00,M,CLR,M,M,M,M,M,M,M,M,M,M,M,M,M,M,90.98,KLSV 091655Z AUTO 13010KT 10SM CLR 33/17 A2992 RMK AO2 SLP101 T03250167 $,M
BAM,2024-08-09 16:55,-116.8743,40.5990,1382.36,86.00,41.00,20.54,200.00,5.00,0.00,30.10,M,10.00,M,CLR,M,M,M,M,M,M,M,M,M,M,M,M,M,M,82.86,KBAM 091655Z AUTO 20005KT 10SM CLR 30/05 A3010 RMK AO1,M
TMT,2024-08-09 16:55,-117.1971,39.4643,1749.34,83.00,41.70,23.24,240.00,4.00,0.00,30.19,M,10.00,M,CLR,M,M,M,M,M,M,M,M,M,M,M,M,M,M,80.72,KTMT 091655Z AUTO 24004KT 10SM CLR 28/05 A3019 RMK AO2 T02830054,M
EKO,2024-08-09 16:56,-115.7860,40.8242,1367.00,81.00,44.00,27.09,210.00,6.00,0.00,30.12,1013.60,10.00,M,CLR,M,M,M,M,M,M,M,M,M,M,M,M,M,M,79.61,KEKO 091656Z AUTO 21006KT 10SM CLR 27/07 A3012 RMK AO2 SLP136 T02720067,M
WMC,2024-08-09 16:56,-117.8072,40.9019,1315.00,87.00,33.00,14.52,0.00,0.00,0.00,30.07,1012.70,10.00,M,CLR,M,M,M,M,M,M,M,M,M,M,M,M,M,M,83.44,KWMC 091656Z AUTO 00000KT 10SM CLR 31/01 A3007 RMK AO2 SLP127 T03060006,M
HND,2024-08-09 16:56,-115.1344,35.9729,742.79,91.00,63.00,39.49,50.00,8.00,0.00,30.00,1014.10,10.00,M,CLR,M,M,M,M,M,M,M,M,M,M,M,M,M,M,92.00,KHND 091656Z 05008KT 10SM CLR 33/17 A3000 RMK AO2 SLP141 T03280172,M
TPH,2024-08-09 16:56,-117.0904,38.0505,1654.00,84.00,47.00,27.55,180.00,8.00,0.00,30.18,1012.20,10.00,M,CLR,M,M,M,M,M,M,M,M,M,M,M,M,M,M,81.78,KTPH 091656Z AUTO 18008KT 10SM CLR 29/08 A3018 RMK AO2 SLP122 T02890083,M
LAS,2024-08-09 16:56,-115.1634,36.0719,663.00,92.00,60.00,34.42,100.00,6.00,0.00,29.98,1011.90,10.00,M,FEW,FEW,M,M,16000.00,20000.00,M,M,M,M,M,M,M,M,M,91.69,KLAS 091656Z 10006KT 10SM FEW160 FEW200 33/16 A2998 RMK AO2 SLP119 T03330156,M
NFL,2024-08-09 16:57,-118.7010,39.4166,1199.00,87.00,39.00,18.41,280.00,4.00,0.00,30.07,1015.10,10.00,M,CLR,M,M,M,M,M,M,M,M,M,M,M,M,M,M,83.57,KNFL 091657Z 28004KT 10SM CLR 31/04 A3007 RMK AO2 SLP151 FU ALOFT ALQDS T03060039,M
05U,2024-08-09 17:10,-116.0051,39.6042,1811.23,M,M,M,0.00,0.00,0.00,30.21,M,10.00,M,CLR,M,M,M,M,M,M,M,M,M,M,M,M,M,M,M,K05U 091710Z AUTO 00000KT 10SM CLR A3021 RMK A01,M
BVU,2024-08-09 17:15,-114.8611,35.9475,671.00,87.80,60.80,40.41,130.00,9.00,0.00,29.97,M,10.00,M,CLR,M,M,M,M,M,M,M,M,M,M,M,M,M,M,87.75,KBVU 091715Z AUTO 13009KT 10SM CLR 31/16 A2997 RMK AO2,M
CXP,2024-08-09 17:15,-119.7326,39.1923,1431.00,82.40,42.80,24.72,0.00,0.00,0.00,30.15,M,10.00,M,CLR,M,M,M,M,M,M,M,M,M,M,M,M,M,M,80.39,KCXP 091715Z AUTO 00000KT 10SM CLR 28/06 A3015 RMK AO2,M
RTS,2024-08-09 17:15,-119.8764,39.6682,1539.00,82.40,37.40,20.04,90.00,6.00,0.00,30.17,M,10.00,M,CLR,M,M,M,M,M,M,M,M,M,M,M,M,M,M,80.14,KRTS 091715Z AUTO 09006KT 10SM CLR 28/03 A3017 RMK AO2,M
MEV,2024-08-09 17:15,-119.7500,38.9963,1441.42,84.20,44.60,24.99,0.00,0.00,0.00,30.14,M,10.00,M,CLR,M,M,M,M,M,M,M,M,M,M,M,M,M,M,81.73,KMEV 091715Z AUTO 00000KT 10SM CLR 29/07 A3014 RMK AO2,M
BAM,2024-08-09 17:15,-116.8743,40.5990,1382.36,87.80,37.40,16.86,0.00,0.00,0.00,30.10,M,10.00,M,CLR,M,M,M,M,M,M,M,M,M,M,M,M,M,M,84.16,KBAM 091715Z AUTO 00000KT 10SM CLR 31/03 A3010 RMK AO1,M
HTH,2024-08-09 17:15,-118.6315,38.5448,1282.89,84.20,46.40,26.76,330.00,4.00,0.00,30.10,M,10.00,M,CLR,M,M,M,M,M,M,M,M,M,M,M,M,M,M,81.87,KHTH 091715Z AUTO 33004KT 10SM CLR 29/08 A3010 RMK A01,M
10U,2024-08-09 17:15,-116.1876,41.9532,1637.00,82.40,30.20,15.03,220.00,11.00,0.00,30.13,M,10.00,M,CLR,M,M,M,M,M,M,M,M,M,M,M,M,M,M,79.97,K10U 091715Z AUTO 22011KT 10SM CLR 28/M01 A3013 RMK AO2,M
TMT,2024-08-09 17:15,-117.1971,39.4643,1749.34,84.60,41.00,21.49,260.00,7.00,0.00,30.19,M,10.00,M,CLR,M,M,M,M,M,M,M,M,M,M,M,M,M,M,81.81,KTMT 091715Z AUTO 26007KT 10SM CLR 29/05 A3019 RMK AO2 T02920050,M
CXP,2024-08-09 17:30,-119.7326,39.1923,1431.00,84.20,42.80,23.33,0.00,0.00,0.00,30.15,M,10.00,M,CLR,M,M,M,M,M,M,M,M,M,M,M,M,M,M,81.61,KCXP 091730Z AUTO 00000KT 10SM CLR 29/06 A3015 RMK AO2,M
05U,2024-08-09 17:30,-116.0051,39.6042,1811.23,M,M,M,0.00,0.00,0.00,30.21,M,10.00,M,CLR,M,M,M,M,M,M,M,M,M,M,M,M,M,M,M,K05U 091730Z AUTO 00000KT 10SM CLR A3021 RMK A01,M
HTH,2024-08-09 17:30,-118.6315,38.5448,1282.89,86.00,46.40,25.26,360.00,6.00,0.00,30.10,M,10.00,M,CLR,M,M,M,M,M,M,M,M,M,M,M,M,M,M,83.22,KHTH 091730Z AUTO 36006KT 10SM CLR 30/08 A3010 RMK A01,M
10U,2024-08-09 17:30,-116.1876,41.9532,1637.00,84.20,30.20,14.18,250.00,9.00,0.00,30.13,M,10.00,14.00,CLR,M,M,M,M,M,M,M,M,M,M,M,M,M,M,81.26,K10U 091730Z AUTO 25009G14KT 10SM CLR 29/M01 A3013 RMK AO2,M
BVU,2024-08-09 17:35,-114.8611,35.9475,671.00,89.60,60.80,38.18,100.00,7.00,0.00,29.96,M,10.00,M,CLR,M,M,M,M,M,M,M,M,M,M,M,M,M,M,89.54,KBVU 091735Z AUTO 10007KT 10SM CLR 32/16 A2996 RMK AO2,M
RTS,2024-08-09 17:35,-119.8764,39.6682,1539.00,82.40,39.20,21.51,120.00,6.00,0.00,30.17,M,10.00,M,CLR,M,M,M,M,M,M,M,M,M,M,M,M,M,M,80.21,KRTS 091735Z AUTO 12006KT 10SM CLR 28/04 A3017 RMK AO2,M
MEV,2024-08-09 17:35,-119.7500,38.9963,1441.42,86.00,41.00,20.54,M,4.00,0.00,30.14,M,10.00,M,CLR,M,M,M,M,M,M,M,M,M,M,M,M,M,M,82.86,KMEV 091735Z AUTO VRB04KT 10SM CLR 30/05 A3014 RMK AO2,M
BAM,2024-08-09 17:35,-116.8743,40.5990,1382.36,89.60,37.40,15.92,0.00,0.00,0.00,30.09,M,10.00,M,CLR,M,M,M,M,M,M,M,M,M,M,M,M,M,M,85.67,KBAM 091735Z AUTO 00000KT 10SM CLR 32/03 A3009 RMK AO1,M
TMT,2024-08-09 17:35,-117.1971,39.4643,1749.34,84.60,40.60,21.15,200.00,5.00,0.00,30.19,M,10.00,M,CLR,M,M,M,M,M,M,M,M,M,M,M,M,M,M,81.79,KTMT 091735Z AUTO 20005KT 10SM CLR 29/05 A3019 RMK AO2 T02920048,M
P68,2024-08-09 17:53,-116.0056,39.6014,1993.00,87.00,40.00,19.14,230.00,6.00,0.00,30.18,1011.70,M,M,M,M,M,M,M,M,M,M,M,M,M,M,M,M,M,83.60,KP68 091753Z AUTO 23006KT 31/04 A3018 RMK AO1 SLP117 T03060044 10311 20150 58005,M
DRA,2024-08-09 17:53,-116.0278,36.6206,1009.00,96.00,56.00,26.34,220.00,9.00,0.00,30.01,1009.90,10.00,15.00,CLR,M,M,M,M,M,M,M,M,M,M,M,M,M,M,94.48,KDRA 091753Z AUTO 22009G15KT 190V270 10SM CLR 36/13 A3001 RMK AO2 SLP099 T03560133 10356 20256 58003,M
ELY,2024-08-09 17:53,-114.8453,39.2950,1909.00,84.00,45.00,25.54,240.00,4.00,0.00,30.21,1010.70,10.00,M,CLR,M,M,M,M,M,M,M,M,M,M,M,M,M,M,81.61,KELY 091753Z AUTO 24004KT 10SM CLR 29/07 A3021 RMK AO2 SLP107 T02890072 10294 20156 58006,M
VGT,2024-08-09 17:53,-115.1933,36.2111,667.00,94.00,60.00,32.34,140.00,8.00,0.00,29.95,1012.70,10.00,M,CLR,M,M,M,M,M,M,M,M,M,M,M,M,M,M,93.84,KVGT 091753Z 14008KT 100V160 10SM CLR 34/16 A2995 RMK AO2 SLP127 T03440156 10344 20294 58003,M
LOL,2024-08-09 17:53,-118.5701,40.0684,1192.43,89.00,37.00,15.97,M,4.00,0.00,30.06,1012.70,8.00,M,CLR,M,M,M,M,M,M,M,M,M,M,M,M,M,M,85.15,KLOL 091753Z AUTO VRB04KT 8SM CLR 32/03 A3006 RMK AO2 SLP127 T03170028 10317 20150 58001,M
BVU,2024-08-09 17:55,-114.8611,35.9475,671.00,91.40,57.20,31.72,M,6.00,0.00,29.96,M,10.00,M,CLR,M,M,M,M,M,M,M,M,M,M,M,M,M,M,90.06,KBVU 091755Z AUTO VRB06KT 10SM CLR 33/14 A2996 RMK AO2,M
CXP,2024-08-09 17:55,-119.7326,39.1923,1431.00,86.00,39.20,19.15,0.00,0.00,0.00,30.14,M,10.00,M,CLR,M,M,M,M,M,M,M,M,M,M,M,M,M,M,82.79,KCXP 091755Z AUTO 00000KT 10SM CLR 30/04 A3014 RMK AO2,M
INS,2024-08-09 17:55,-115.6733,36.5872,955.00,94.30,54.00,25.81,60.00,7.00,0.00,29.99,1009.10,10.00,M,CLR,M,M,M,M,M,M,M,M,M,M,M,M,M,M,92.09,KINS 091755Z AUTO 06007KT 10SM CLR 35/12 A2999 RMK AO2 SLP091 T03460123 10347 20283 58003,M
RNO,2024-08-09 17:55,-119.7711,39.4839,1341.00,85.00,42.00,22.05,M,3.00,0.00,30.11,1013.00,10.00,M,CLR,M,M,M,M,M,M,M,M,M,M,M,M,M,M,82.15,KRNO 091755Z VRB03KT 10SM CLR 29/06 A3011 RMK AO2 SLP130 T02940056 10306 20189 58004,M
RTS,2024-08-09 17:55,-119.8764,39.6682,1539.00,84.20,39.20,20.29,140.00,10.00,0.00,30.16,M,10.00,M,CLR,M,M,M,M,M,M,M,M,M,M,M,M,M,M,81.44,KRTS 091755Z AUTO 14010KT 100V170 10SM CLR 29/04 A3016 RMK AO2,M
05U,2024-08-09 17:55,-116.0051,39.6042,1811.23,M,M,M,0.00,0.00,0.00,30.20,M,10.00,10.00,CLR,M,M,M,M,M,M,M,M,M,M,M,M,M,M,M,K05U 091755Z AUTO 00000G10KT 10SM CLR A3020 RMK A01,M
MEV,2024-08-09 17:55,-119.7500,38.9963,1441.42,86.00,41.00,20.54,330.00,5.00,0.00,30.13,M,10.00,M,CLR,M,M,M,M,M,M,M,M,M,M,M,M,M,M,82.86,KMEV 091755Z AUTO 33005KT 10SM CLR 30/05 A3013 RMK AO2,M
BAM,2024-08-09 17:55,-116.8743,40.5990,1382.36,89.60,37.40,15.92,100.00,5.00,0.00,30.09,M,10.00,M,CLR,M,M,M,M,M,M,M,M,M,M,M,M,M,M,85.67,KBAM 091755Z AUTO 10005KT 10SM CLR 32/03 A3009 RMK AO1,M
HTH,2024-08-09 17:55,-118.6315,38.5448,1282.89,86.00,44.60,23.59,290.00,5.00,0.00,30.09,M,10.00,M,CLR,M,M,M,M,M,M,M,M,M,M,M,M,M,M,83.07,KHTH 091755Z AUTO 29005KT 10SM CLR 30/07 A3009 RMK A01,M
10U,2024-08-09 17:55,-116.1876,41.9532,1637.00,86.00,30.20,13.38,220.00,11.00,0.00,30.13,M,10.00,16.00,CLR,M,M,M,M,M,M,M,M,M,M,M,M,M,M,82.64,K10U 091755Z AUTO 22011G16KT 10SM CLR 30/M01 A3013 RMK AO2,M
TMT,2024-08-09 17:55,-117.1971,39.4643,1749.34,85.00,41.00,21.21,280.00,4.00,0.00,30.19,M,10.00,M,CLR,M,M,M,M,M,M,M,M,M,M,M,M,M,M,82.10,KTMT 091755Z AUTO 28004KT 10SM CLR 29/05 A3019 RMK AO2 T02940051 10295 20101,M
LSV,2024-08-09 17:55,-115.0343,36.2362,570.00,92.50,60.00,33.89,140.00,7.00,0.00,29.91,1009.90,10.00,M,FEW,FEW,M,M,17000.00,20000.00,M,M,M,M,M,M,M,M,M,92.22,KLSV 091755Z AUTO 14007KT 10SM FEW170 FEW200 34/16 A2991 RMK AO2 SLP099 T03360155 10336 20271 55001 $,M
EKO,2024-08-09 17:56,-115.7860,40.8242,1367.00,88.00,37.00,16.49,240.00,8.00,0.00,30.11,1013.10,10.00,M,CLR,M,M,M,M,M,M,M,M,M,M,M,M,M,M,84.32,KEKO 091756Z AUTO 24008KT 10SM CLR 31/03 A3011 RMK AO2 SLP131 T03110028 10311 20122 58006,M
WMC,2024-08-09 17:56,-117.8072,40.9019,1315.00,91.00,33.00,12.79,M,M,0.00,30.07,1012.40,10.00,M,CLR,M,M,M,M,M,M,M,M,M,M,M,M,M,M,86.73,KWMC 091756Z AUTO 10SM CLR 33/01 A3007 RMK AO2 SLP124 T03280006 10333 20128 58003,M
HND,2024-08-09 17:56,-115.1344,35.9729,742.79,94.00,63.00,35.97,20.00,7.00,0.00,29.99,1013.60,10.00,M,CLR,M,M,M,M,M,M,M,M,M,M,M,M,M,M,95.30,KHND 091756Z 02007KT 10SM CLR 34/17 A2999 RMK AO2 SLP136 T03440172 10344 20272 58004,M
TPH,2024-08-09 17:56,-117.0904,38.0505,1654.00,86.00,47.00,25.83,210.00,6.00,0.00,30.17,1011.80,10.00,M,CLR,M,M,M,M,M,M,M,M,M,M,M,M,M,M,83.28,KTPH 091756Z AUTO 21006KT 10SM CLR 30/08 A3017 RMK AO2 SLP118 T03000083 10306 20194 58004,M
LAS,2024-08-09 17:56,-115.1634,36.0719,663.00,95.00,62.00,33.67,100.00,9.00,0.00,29.97,1011.60,10.00,14.00,FEW,FEW,M,M,10000.00,16000.00,M,M,M,M,M,M,M,M,M,95.90,KLAS 091756Z 10009G14KT 040V110 10SM FEW100 FEW160 35/17 A2997 RMK AO2 SLP116 T03500167 10350 20300 58002,M
NFL,2024-08-09 17:57,-118.7010,39.4166,1199.00,89.00,38.00,16.61,0.00,0.00,0.00,30.06,1014.90,10.00,M,FEW,M,M,M,9000.00,M,M,M,M,M,M,M,M,M,M,85.18,KNFL 091757Z 00000KT 10SM FEW090 32/03 A3006 RMK SLP149 T03170033 10322 20178 58003,M
CXP,2024-08-09 18:10,-119.7326,39.1923,1431.00,87.80,39.20,18.09,300.00,4.00,0.00,30.14,M,10.00,M,CLR,M,M,M,M,M,M,M,M,M,M,M,M,M,M,84.22,KCXP 091810Z AUTO 30004KT 10SM CLR 31/04 A3014 RMK AO2,M
BVU,2024-08-09 18:15,-114.8611,35.9475,671.00,93.20,57.20,29.99,M,4.00,0.00,29.95,M,10.00,11.00,CLR,M,M,M,M,M,M,M,M,M,M,M,M,M,M,91.91,KBVU 091815Z AUTO VRB04G11KT 10SM CLR 34/14 A2995 RMK AO2,M
RTS,2024-08-09 18:15,-119.8764,39.6682,1539.00,84.20,37.40,18.91,0.00,0.00,0.00,30.16,M,10.00,M,CLR,M,M,M,M,M,M,M,M,M,M,M,M,M,M,81.38,KRTS 091815Z AUTO 00000KT 10SM CLR 29/03 A3016 RMK AO2,M
05U,2024-08-09 18:15,-116.0051,39.6042,1811.23,M,M,M,280.00,4.00,0.00,30.20,M,10.00,13.00,CLR,M,M,M,M,M,M,M,M,M,M,M,M,M,M,M,K05U 091815Z AUTO 28004G13KT 10SM CLR A3020 RMK A01,M
MEV,2024-08-09 18:15,-119.7500,38.9963,1441.42,87.80,41.00,19.40,310.00,7.00,0.00,30.13,M,10.00,M,CLR,M,M,M,M,M,M,M,M,M,M,M,M,M,M,84.30,KMEV 091815Z AUTO 31007KT 10SM CLR 31/05 A3013 RMK AO2,M
BAM,2024-08-09 18:15,-116.8743,40.5990,1382.36,91.40,35.60,14.02,0.00,0.00,0.00,30.09,M,10.00,M,CLR,M,M,M,M,M,M,M,M,M,M,M,M,M,M,87.17,KBAM 091815Z AUTO 00000KT 10SM CLR 33/02 A3009 RMK AO1,M
HTH,2024-08-09 18:15,-118.6315,38.5448,1282.89,87.80,44.60,22.27,0.00,0.00,0.00,30.09,M,10.00,M,CLR,M,M,M,M,M,M,M,M,M,M,M,M,M,M,84.53,KHTH 091815Z AUTO 00000KT 10SM CLR 31/07 A3009 RMK A01,M
10U,2024-08-09 18:15,-116.1876,41.9532,1637.00,86.00,30.20,13.38,M,6.00,0.00,30.13,M,10.00,13.00,CLR,M,M,M,M,M,M,M,M,M,M,M,M,M,M,82.64,K10U 091815Z AUTO VRB06G13KT 10SM CLR 30/M01 A3013 RMK AO2,M
TMT,2024-08-09 18:15,-117.1971,39.4643,1749.34,86.50,40.60,19.91,290.00,4.00,0.00,30.18,M,10.00,M,CLR,M,M,M,M,M,M,M,M,M,M,M,M,M,M,83.23,KTMT 091815Z AUTO 29004KT 10SM CLR 30/05 A3018 RMK AO2 T03030048,M
05U,2024-08-09 18:30,-116.0051,39.6042,1811.23,M,M,M,0.00,0.00,0.00,30.19,M,10.00,M,CLR,M,M,M,M,M,M,M,M,M,M,M,M,M,M,M,K05U 091830Z AUTO 00000KT 10SM CLR A3019 RMK A01,M
BVU,2024-08-09 18:35,-114.8611,35.9475,671.00,93.20,59.00,31.99,110.00,8.00,0.00,29.94,M,10.00,13.00,CLR,M,M,M,M,M,M,M,M,M,M,M,M,M,M,92.57,KBVU 091835Z AUTO 11008G13KT 10SM CLR 34/15 A2994 RMK AO2,M
CXP,2024-08-09 18:35,-119.7326,39.1923,1431.00,89.60,37.40,15.92,M,5.00,0.00,30.13,M,10.00,M,CLR,M,M,M,M,M,M,M,M,M,M,M,M,M,M,85.67,KCXP 091835Z AUTO VRB05KT 10SM CLR 32/03 A3013 RMK AO2,M
RTS,2024-08-09 18:35,-119.8764,39.6682,1539.00,86.00,33.80,15.48,220.00,8.00,0.00,30.15,M,10.00,M,CLR,M,M,M,M,M,M,M,M,M,M,M,M,M,M,82.66,KRTS 091835Z AUTO 22008KT 10SM CLR 30/01 A3015 RMK AO2,M
MEV,2024-08-09 18:35,-119.7500,38.9963,1441.42,87.80,39.20,18.09,M,5.00,0.00,30.12,M,9.00,M,CLR,M,M,M,M,M,M,M,M,M,M,M,M,M,M,84.22,KMEV 091835Z AUTO VRB05KT 9SM CLR 31/04 A3012 RMK AO2,M
HTH,2024-08-09 18:35,-118.6315,38.5448,1282.89,87.80,42.80,20.79,0.00,0.00,0.00,30.08,M,10.00,M,CLR,M,M,M,M,M,M,M,M,M,M,M,M,M,M,84.40,KHTH 091835Z AUTO 00000KT 10SM CLR 31/06 A3008 RMK A01,M
10U,2024-08-09 18:35,-116.1876,41.9532,1637.00,87.80,30.20,12.64,230.00,9.00,0.00,30.12,M,10.00,14.00,CLR,M,M,M,M,M,M,M,M,M,M,M,M,M,M,84.01,K10U 091835Z AUTO 23009G14KT 200V260 10SM CLR 31/M01 A3012 RMK AO2,M
BAM,2024-08-09 18:35,-116.8743,40.5990,1382.36,91.40,35.60,14.02,270.00,7.00,0.00,30.08,M,10.00,M,SCT,M,M,M,12000.00,M,M,M,M,M,M,M,M,M,M,87.17,KBAM 091835Z AUTO 27007KT 10SM SCT120 33/02 A3008 RMK AO1,M
TMT,2024-08-09 18:35,-117.1971,39.4643,1749.34,87.30,41.00,19.71,240.00,5.00,0.00,30.18,M,10.00,M,CLR,M,M,M,M,M,M,M,M,M,M,M,M,M,M,83.89,KTMT 091835Z AUTO 24005KT 10SM CLR 31/05 A3018 RMK AO2 T03070051,M
05U,2024-08-09 18:50,-116.0051,39.6042,1811.23,M,M,M,280.00,12.00,0.00,30.18,M,10.00,M,CLR,M,M,M,M,M,M,M,M,M,M,M,M,M,M,M,K05U 091850Z AUTO 28012KT 10SM CLR A3018 RMK A01,M
P68,2024-08-09 18:53,-116.0056,39.6014,1993.00,91.00,40.00,16.87,280.00,11.00,0.00,30.15,1010.80,M,20.00,M,M,M,M,M,M,M,M,M,M,M,M,M,M,M,86.99,KP68 091853Z AUTO 28011G20KT 33/04 A3015 RMK AO1 SLP108 T03280044,M
DRA,2024-08-09 18:53,-116.0278,36.6206,1009.00,97.00,55.00,24.63,260.00,12.00,0.00,29.99,1009.20,10.00,20.00,CLR,M,M,M,M,M,M,M,M,M,M,M,M,M,M,95.23,KDRA 091853Z AUTO 26012G20KT 10SM CLR 36/13 A2999 RMK AO2 SLP092 T03610128,M
ELY,2024-08-09 18:53,-114.8453,39.2950,1909.00,87.00,41.00,19.90,M,4.00,0.00,30.20,1010.00,10.00,M,CLR,M,M,M,M,M,M,M,M,M,M,M,M,M,M,83.65,KELY 091853Z AUTO VRB04KT 10SM CLR 31/05 A3020 RMK AO2 SLP100 T03060050,M
VGT,2024-08-09 18:53,-115.1933,36.2111,667.00,96.00,60.00,30.41,150.00,4.00,0.00,29.94,1012.40,10.00,M,CLR,M,M,M,M,M,M,M,M,M,M,M,M,M,M,96.05,KVGT 091853Z 15004KT 10SM CLR 36/16 A2994 RMK AO2 SLP124 T03560156,M
LOL,2024-08-09 18:53,-118.5701,40.0684,1192.43,92.00,36.00,13.98,0.00,0.00,0.00,30.04,1012.30,10.00,M,CLR,M,M,M,M,M,M,M,M,M,M,M,M,M,M,87.71,KLOL 091853Z AUTO 00000KT 10SM CLR 33/02 A3004 RMK AO2 SLP123 T03330022,M
BVU,2024-08-09 18:55,-114.8611,35.9475,671.00,93.20,59.00,31.99,M,5.00,0.00,29.94,M,10.00,M,CLR,M,M,M,M,M,M,M,M,M,M,M,M,M,M,92.57,KBVU 091855Z AUTO VRB05KT 10SM CLR 34/15 A2994 RMK AO2,M
CXP,2024-08-09 18:55,-119.7326,39.1923,1431.00,89.60,37.40,15.92,M,6.00,0.00,30.13,M,10.00,13.00,CLR,M,M,M,M,M,M,M,M,M,M,M,M,M,M,85.67,KCXP 091855Z AUTO VRB06G13KT 10SM CLR 32/03 A3013 RMK AO2,M
INS,2024-08-09 18:55,-115.6733,36.5872,955.00,95.40,52.70,23.79,100.00,8.00,0.00,29.98,1008.80,10.00,M,CLR,M,M,M,M,M,M,M,M,M,M,M,M,M,M,92.89,KINS 091855Z AUTO 10008KT 10SM CLR 35/12 A2998 RMK AO2 SLP088 T03520115,M
RNO,2024-08-09 18:55,-119.7711,39.4839,1341.00,92.00,40.00,16.35,M,4.00,0.00,30.09,1012.10,10.00,M,CLR,M,M,M,M,M,M,M,M,M,M,M,M,M,M,87.88,KRNO 091855Z VRB04KT 10SM CLR 33/04 A3009 RMK AO2 SLP121 T03330044,M
LSV,2024-08-09 18:55,-115.0343,36.2362,570.00,94.50,59.00,30.73,130.00,8.00,0.00,29.89,1009.20,10.00,M,CLR,M,M,M,M,M,M,M,M,M,M,M,M,M,M,93.96,KLSV 091855Z AUTO 13008KT 10SM CLR 35/15 A2989 RMK AO2 SLP092 T03470150 $,M
RTS,2024-08-09 18:55,-119.8764,39.6682,1539.00,86.00,32.00,14.40,190.00,6.00,0.00,30.15,M,10.00,M,CLR,M,M,M,M,M,M,M,M,M,M,M,M,M,M,82.64,KRTS 091855Z AUTO 19006KT 10SM CLR 30/00 A3015 RMK AO2,M
MEV,2024-08-09 18:55,-119.7500,38.9963,1441.42,89.60,39.20,17.09,M,5.00,0.00,30.12,M,8.00,M,CLR,M,M,M,M,M,M,M,M,M,M,M,M,M,M,85.73,KMEV 091855Z AUTO VRB05KT 8SM CLR 32/04 A3012 RMK AO2,M
BAM,2024-08-09 18:55,-116.8743,40.5990,1382.36,93.20,35.60,13.25,250.00,6.00,0.00,30.08,M,10.00,M,SCT,M,M,M,12000.00,M,M,M,M,M,M,M,M,M,M,88.76,KBAM 091855Z AUTO 25006KT 10SM SCT120 34/02 A3008 RMK AO1,M
HTH,2024-08-09 18:55,-118.6315,38.5448,1282.89,89.60,41.00,18.33,320.00,6.00,0.00,30.07,M,10.00,M,CLR,M,M,M,M,M,M,M,M,M,M,M,M,M,M,85.82,KHTH 091855Z AUTO 32006KT 10SM CLR 32/05 A3007 RMK A01,M
10U,2024-08-09 18:55,-116.1876,41.9532,1637.00,87.80,30.20,12.64,0.00,0.00,0.00,30.11,M,10.00,M,CLR,M,M,M,M,M,M,M,M,M,M,M,M,M,M,84.01,K10U 091855Z AUTO 00000KT 10SM CLR 31/M01 A3011 RMK AO2,M
TMT,2024-08-09 18:55,-117.1971,39.4643,1749.34,88.00,41.50,19.65,240.00,8.00,0.00,30.17,M,10.00,M,CLR,M,M,M,M,M,M,M,M,M,M,M,M,M,M,84.49,KTMT 091855Z AUTO 24008KT 10SM CLR 31/05 A3017 RMK AO2 T03110053,M
EKO,2024-08-09 18:56,-115.7860,40.8242,1367.00,90.00,37.00,15.48,220.00,8.00,0.00,30.10,1012.70,10.00,15.00,CLR,M,M,M,M,M,M,M,M,M,M,M,M,M,M,86.00,KEKO 091856Z AUTO 22008G15KT 10SM CLR 32/03 A3010 RMK AO2 SLP127 T03220028,M
WMC,2024-08-09 18:56,-117.8072,40.9019,1315.00,94.00,34.00,12.13,240.00,7.00,0.00,30.05,1011.80,10.00,17.00,CLR,M,M,M,M,M,M,M,M,M,M,M,M,M,M,89.21,KWMC 091856Z AUTO 24007G17KT 10SM CLR 34/01 A3005 RMK AO2 SLP118 T03440011,M
HND,2024-08-09 18:56,-115.1344,35.9729,742.79,96.00,59.00,29.34,280.00,3.00,0.00,29.98,1013.10,10.00,M,CLR,M,M,M,M,M,M,M,M,M,M,M,M,M,M,95.61,KHND 091856Z 28003KT 10SM CLR 36/15 A2998 RMK AO2 SLP131 T03560150,M
TPH,2024-08-09 18:56,-117.0904,38.0505,1654.00,89.00,45.00,21.77,M,M,0.00,30.16,1011.20,10.00,M,CLR,M,M,M,M,M,M,M,M,M,M,M,M,M,M,85.58,KTPH 091856Z AUTO 10SM CLR 32/07 A3016 RMK AO2 SLP112 T03170072,M
LAS,2024-08-09 18:56,-115.1634,36.0719,663.00,99.00,60.00,27.75,M,M,0.00,29.95,1010.90,10.00,M,FEW,FEW,M,M,10000.00,16000.00,M,M,M,M,M,M,M,M,M,99.45,KLAS 091856Z 10SM FEW100 FEW160 37/16 A2995 RMK AO2 SLP109 T03720156,M
NFL,2024-08-09 18:57,-118.7010,39.4166,1199.00,93.00,39.00,15.24,M,5.00,0.00,30.05,1014.40,10.00,M,FEW,M,M,M,9000.00,M,M,M,M,M,M,M,M,M,M,88.73,KNFL 091857Z VRB05KT 10SM FEW090 34/04 A3005 RMK SLP144 T03390039,M
LAS,2024-08-09 18:59,-115.1634,36.0719,663.00,99.00,60.00,27.75,100.00,9.00,0.00,29.95,M,10.00,M,FEW,FEW,M,M,10000.00,16000.00,M,M,M,M,M,M,M,M,M,99.45,KLAS 091859Z 10009KT 10SM FEW100 FEW160 37/16 A2995 RMK AO2 T03720156,M
05U,2024-08-09 19:10,-116.0051,39.6042,1811.23,M,M,M,260.00,9.00,0.00,30.18,M,10.00,16.00,CLR,M,M,M,M,M,M,M,M,M,M,M,M,M,M,M,K05U 091910Z AUTO 26009G16KT 220V290 10SM CLR A3018 RMK A01,M
BVU,2024-08-09 19:15,-114.8611,35.9475,671.00,93.20,59.00,31.99,100.00,7.00,0.00,29.93,M,10.00,13.00,CLR,M,M,M,M,M,M,M,M,M,M,M,M,M,M,92.57,KBVU 091915Z AUTO 10007G13KT 10SM CLR 34/15 A2993 RMK AO2,M
CXP,2024-08-09 19:15,-119.7326,39.1923,1431.00,91.40,37.40,15.05,220.00,9.00,0.00,30.13,M,10.00,15.00,CLR,M,M,M,M,M,M,M,M,M,M,M,M,M,M,87.23,KCXP 091915Z AUTO 22009G15KT 10SM CLR 33/03 A3013 RMK AO2,M
RTS,2024-08-09 19:15,-119.8764,39.6682,1539.00,87.80,33.80,14.61,M,5.00,0.00,30.14,M,10.00,13.00,CLR,M,M,M,M,M,M,M,M,M,M,M,M,M,M,84.10,KRTS 091915Z AUTO VRB05G13KT 10SM CLR 31/01 A3014 RMK AO2,M
MEV,2024-08-09 19:15,-119.7500,38.9963,1441.42,89.60,39.20,17.09,0.00,0.00,0.00,30.11,M,6.00,M,CLR,M,M,M,M,M,M,M,HZ,M,M,M,M,M,M,85.73,KMEV 091915Z AUTO 00000KT 6SM HZ CLR 32/04 A3011 RMK AO2,M
BAM,2024-08-09 19:15,-116.8743,40.5990,1382.36,95.00,35.60,12.53,240.00,9.00,0.00,30.07,M,10.00,16.00,CLR,M,M,M,M,M,M,M,M,M,M,M,M,M,M,90.25,KBAM 091915Z AUTO 24009G16KT 10SM CLR 35/02 A3007 RMK AO1,M
HTH,2024-08-09 19:15,-118.6315,38.5448,1282.89,91.40,41.00,17.32,320.00,6.00,0.00,30.07,M,10.00,M,CLR,M,M,M,M,M,M,M,M,M,M,M,M,M,M,87.40,KHTH 091915Z AUTO 32006KT 10SM CLR 33/05 A3007 RMK A01,M
TMT,2024-08-09 19:15,-117.1971,39.4643,1749.34,89.60,41.70,18.83,220.00,5.00,0.00,30.16,M,10.00,14.00,CLR,M,M,M,M,M,M,M,M,M,M,M,M,M,M,85.86,KTMT 091915Z AUTO 22005G14KT 10SM CLR 32/05 A3016 RMK AO2 T03200054,M
10U,2024-08-09 19:15,-116.1876,41.9532,1637.00,89.60,30.20,11.94,270.00,10.00,0.00,30.10,M,10.00,M,CLR,M,M,M,M,M,M,M,M,M,M,M,M,M,M,85.34,K10U 091915Z AUTO 27010KT 10SM CLR 32/M01 A3010 RMK AO2,M
BVU,2024-08-09 19:35,-114.8611,35.9475,671.00,95.00,57.20,28.37,0.00,0.00,0.00,29.93,M,10.00,14.00,CLR,M,M,M,M,M,M,M,M,M,M,M,M,M,M,93.82,KBVU 091935Z AUTO 00000G14KT 10SM CLR 35/14 A2993 RMK AO2,M
CXP,2024-08-09 19:35,-119.7326,39.1923,1431.00,91.40,35.60,14.02,250.00,9.00,0.00,30.12,M,8.00,16.00,CLR,M,M,M,M,M,M,M,M,M,M,M,M,M,M,87.17,KCXP 091935Z AUTO 25009G16KT 230V290 8SM CLR 33/02 A3012 RMK AO2,M
RTS,2024-08-09 19:35,-119.8764,39.6682,1539.00,89.60,32.00,12.84,210.00,17.00,0.00,30.13,M,10.00,M,CLR,M,M,M,M,M,M,M,M,M,M,M,M,M,M,85.54,KRTS 091935Z AUTO 21017KT 10SM CLR 32/M00 A3013 RMK AO2,M
05U,2024-08-09 19:35,-116.0051,39.6042,1811.23,M,M,M,280.00,8.00,0.00,30.17,M,10.00,24.00,CLR,M,M,M,M,M,M,M,M,M,M,M,M,M,M,M,K05U 091935Z AUTO 28008G24KT 10SM CLR A3017 RMK A01,M
MEV,2024-08-09 19:35,-119.7500,38.9963,1441.42,89.60,39.20,17.09,M,4.00,0.00,30.11,M,9.00,M,CLR,M,M,M,M,M,M,M,M,M,M,M,M,M,M,85.73,KMEV 091935Z AUTO VRB04KT 9SM CLR 32/04 A3011 RMK AO2,M
BAM,2024-08-09 19:35,-116.8743,40.5990,1382.36,95.00,37.40,13.46,310.00,15.00,0.00,30.06,M,10.00,23.00,CLR,M,M,M,M,M,M,M,M,M,M,M,M,M,M,90.46,KBAM 091935Z AUTO 31015G23KT 10SM CLR 35/03 A3006 RMK AO1,M
HTH,2024-08-09 19:35,-118.6315,38.5448,1282.89,91.40,39.20,16.15,M,4.00,0.00,30.06,M,10.00,11.00,CLR,M,M,M,M,M,M,M,M,M,M,M,M,M,M,87.30,KHTH 091935Z AUTO VRB04G11KT 10SM CLR 33/04 A3006 RMK A01,M
10U,2024-08-09 19:35,-116.1876,41.9532,1637.00,89.60,30.20,11.94,M,4.00,0.00,30.10,M,10.00,16.00,CLR,M,M,M,M,M,M,M,M,M,M,M,M,M,M,85.34,K10U 091935Z AUTO VRB04G16KT 10SM CLR 32/M01 A3010 RMK AO2,M
TMT,2024-08-09 19:35,-117.1971,39.4643,1749.34,90.00,41.00,18.10,280.00,11.00,0.00,30.16,M,10.00,16.00,CLR,M,M,M,M,M,M,M,M,M,M,M,M,M,M,86.16,KTMT 091935Z AUTO 28011G16KT 10SM CLR 32/05 A3016 RMK AO2 T03230051,M
P68,2024-08-09 19:53,-116.0056,39.6014,1993.00,91.00,39.00,16.23,270.00,11.00,0.00,30.13,1010.30,M,19.00,M,M,M,M,M,M,M,M,M,M,M,M,M,M,M,86.94,KP68 091953Z AUTO 27011G19KT 33/04 A3013 RMK AO1 SLP103 T03280039,M
DRA,2024-08-09 19:53,-116.0278,36.6206,1009.00,100.00,54.00,21.68,250.00,9.00,0.00,29.97,1008.60,10.00,17.00,CLR,M,M,M,M,M,M,M,M,M,M,M,M,M,M,98.14,KDRA 091953Z AUTO 25009G17KT 10SM CLR 38/12 A2997 RMK AO2 SLP086 T03780122,M
ELY,2024-08-09 19:53,-114.8453,39.2950,1909.00,88.00,41.00,19.28,200.00,7.00,0.00,30.17,1009.10,10.00,M,SCT,M,M,M,10000.00,M,M,M,M,M,M,M,M,M,M,84.46,KELY 091953Z AUTO 20007KT 10SM SCT100 31/05 A3017 RMK AO2 SLP091 T03110050,M
VGT,2024-08-09 19:53,-115.1933,36.2111,667.00,99.00,61.00,28.75,120.00,9.00,0.00,29.91,1011.30,10.00,M,CLR,M,M,M,M,M,M,M,M,M,M,M,M,M,M,99.96,KVGT 091953Z 12009KT 090V160 10SM CLR 37/16 A2991 RMK AO2 SLP113 T03720161,M
LOL,2024-08-09 19:53,-118.5701,40.0684,1192.43,96.00,36.00,12.35,230.00,11.00,0.00,30.02,1011.10,10.00,16.00,CLR,M,M,M,M,M,M,M,M,M,M,M,M,M,M,91.13,KLOL 091953Z AUTO 23011G16KT 10SM CLR 36/02 A3002 RMK AO2 SLP111 T03560022,M
BVU,2024-08-09 19:55,-114.8611,35.9475,671.00,95.00,57.20,28.37,M,6.00,0.00,29.92,M,10.00,15.00,CLR,M,M,M,M,M,M,M,M,M,M,M,M,M,M,93.82,KBVU 091955Z AUTO VRB06G15KT 10SM CLR 35/14 A2992 RMK AO2,M
CXP,2024-08-09 19:55,-119.7326,39.1923,1431.00,91.40,35.60,14.02,280.00,10.00,0.00,30.12,M,10.00,16.00,CLR,M,M,M,M,M,M,M,M,M,M,M,M,M,M,87.17,KCXP 091955Z AUTO 28010G16KT 240V300 10SM CLR 33/02 A3012 RMK AO2,M
INS,2024-08-09 19:55,-115.6733,36.5872,955.00,97.30,52.00,21.87,40.00,8.00,0.00,29.96,1008.20,10.00,M,CLR,M,M,M,M,M,M,M,M,M,M,M,M,M,M,94.69,KINS 091955Z AUTO 04008KT 10SM CLR 36/11 A2996 RMK AO2 SLP082 T03630111,M
RNO,2024-08-09 19:55,-119.7711,39.4839,1341.00,94.00,40.00,15.37,30.00,8.00,0.00,30.07,1011.20,10.00,M,FEW,M,M,M,9000.00,M,M,M,M,M,M,M,M,M,M,89.70,KRNO 091955Z 03008KT 10SM FEW090 34/04 A3007 RMK AO2 SLP112 T03440044,M
LSV,2024-08-09 19:55,-115.0343,36.2362,570.00,97.30,55.60,24.95,150.00,4.00,0.00,29.87,1008.40,10.00,M,CLR,M,M,M,M,M,M,M,M,M,M,M,M,M,M,95.75,KLSV 091955Z AUTO 15004KT 10SM CLR 36/13 A2987 RMK AO2 SLP084 T03630131 $,M
RTS,2024-08-09 19:55,-119.8764,39.6682,1539.00,89.60,33.80,13.80,300.00,11.00,0.00,30.13,M,10.00,M,CLR,M,M,M,M,M,M,M,M,M,M,M,M,M,M,85.59,KRTS 091955Z AUTO 30011KT 250V330 10SM CLR 32/01 A3013 RMK AO2,M
05U,2024-08-09 19:55,-116.0051,39.6042,1811.23,M,M,M,270.00,8.00,0.00,30.16,M,10.00,15.00,CLR,M,M,M,M,M,M,M,M,M,M,M,M,M,M,M,K05U 091955Z AUTO 27008G15KT 10SM CLR A3016 RMK A01,M
MEV,2024-08-09 19:55,-119.7500,38.9963,1441.42,91.40,37.40,15.05,310.00,6.00,0.00,30.10,M,10.00,M,CLR,M,M,M,M,M,M,M,M,M,M,M,M,M,M,87.23,KMEV 091955Z AUTO 31006KT 10SM CLR 33/03 A3010 RMK AO2,M
HTH,2024-08-09 19:55,-118.6315,38.5448,1282.89,93.20,39.20,15.27,M,5.00,0.00,30.05,M,10.00,M,CLR,M,M,M,M,M,M,M,M,M,M,M,M,M,M,88.92,KHTH 091955Z AUTO VRB05KT 10SM CLR 34/04 A3005 RMK A01,M
10U,2024-08-09 19:55,-116.1876,41.9532,1637.00,91.40,28.40,10.48,220.00,16.00,0.00,30.10,M,10.00,25.00,CLR,M,M,M,M,M,M,M,M,M,M,M,M,M,M,86.53,K10U 091955Z AUTO 22016G25KT 10SM CLR 33/M02 A3010 RMK AO2,M
BAM,2024-08-09 19:55,-116.8743,40.5990,1382.36,96.80,37.40,12.73,250.00,10.00,0.00,30.06,M,10.00,21.00,CLR,M,M,M,M,M,M,M,M,M,M,M,M,M,M,92.04,KBAM 091955Z AUTO 25010G21KT 10SM CLR 36/03 A3006 RMK AO1,M
TMT,2024-08-09 19:55,-117.1971,39.4643,1749.34,90.70,38.00,15.75,260.00,14.00,0.00,30.15,M,10.00,19.00,SCT,M,M,M,11000.00,M,M,M,M,M,M,M,M,M,M,86.64,KTMT 091955Z AUTO 26014G19KT 10SM SCT110 33/03 A3015 RMK AO2 T03260034,M
EKO,2024-08-09 19:56,-115.7860,40.8242,1367.00,93.00,38.00,14.66,200.00,9.00,0.00,30.08,1011.70,10.00,18.00,CLR,M,M,M,M,M,M,M,M,M,M,M,M,M,M,88.68,KEKO 091956Z AUTO 20009G18KT 10SM CLR 34/03 A3008 RMK AO2 SLP117 T03390033,M
WMC,2024-08-09 19:56,-117.8072,40.9019,1315.00,96.00,33.00,10.96,250.00,11.00,0.00,30.04,1010.80,10.00,17.00,CLR,M,M,M,M,M,M,M,M,M,M,M,M,M,M,90.66,KWMC 091956Z AUTO 25011G17KT 10SM CLR 36/01 A3004 RMK AO2 SLP108 T03560006,M
HND,2024-08-09 19:56,-115.1344,35.9729,742.79,98.00,59.00,27.60,0.00,0.00,0.00,29.95,1012.30,10.00,M,CLR,M,M,M,M,M,M,M,M,M,M,M,M,M,M,97.84,KHND 091956Z 00000KT 10SM CLR 37/15 A2995 RMK AO2 SLP123 T03670150,M
TPH,2024-08-09 19:56,-117.0904,38.0505,1654.00,91.00,45.00,20.45,0.00,0.00,0.00,30.13,1010.30,10.00,M,FEW,M,M,M,10000.00,M,M,M,M,M,M,M,M,M,M,87.35,KTPH 091956Z AUTO 00000KT 10SM FEW100 33/07 A3013 RMK AO2 SLP103 T03280072,M
LAS,2024-08-09 19:56,-115.1634,36.0719,663.00,100.00,59.00,25.98,70.00,9.00,0.00,29.93,1010.20,10.00,14.00,FEW,FEW,M,M,10000.00,16000.00,M,M,M,M,M,M,M,M,M,100.11,KLAS 091956Z 07009G14KT 10SM FEW100 FEW160 38/15 A2993 RMK AO2 SLP102 T03780150,M
NFL,2024-08-09 19:57,-118.7010,39.4166,1199.00,96.00,41.00,15.02,310.00,7.00,0.00,30.03,1013.80,10.00,M,FEW,M,M,M,9000.00,M,M,M,M,M,M,M,M,M,M,91.64,KNFL 091957Z 31007KT 280V360 10SM FEW090 36/05 A3003 RMK SLP138 T03560050,M
05U,2024-08-09 20:10,-116.0051,39.6042,1811.23,M,M,M,M,5.00,0.00,30.15,M,10.00,15.00,CLR,M,M,M,M,M,M,M,M,M,M,M,M,M,M,M,K05U 092010Z AUTO VRB05G15KT 10SM CLR A3015 RMK A01,M
BVU,2024-08-09 20:15,-114.8611,35.9475,671.00,95.00,55.40,26.58,M,3.00,0.00,29.91,M,10.00,M,CLR,M,M,M,M,M,M,M,M,M,M,M,M,M,M,93.22,KBVU 092015Z AUTO VRB03KT 10SM CLR 35/13 A2991 RMK AO2,M
CXP,2024-08-09 20:15,-119.7326,39.1923,1431.00,91.40,35.60,14.02,280.00,13.00,0.00,30.12,M,10.00,21.00,CLR,M,M,M,M,M,M,M,M,M,M,M,M,M,M,87.17,KCXP 092015Z AUTO 28013G21KT 10SM CLR 33/02 A3012 RMK AO2,M
RTS,2024-08-09 20:15,-119.8764,39.6682,1539.00,87.80,33.80,14.61,0.00,0.00,0.00,30.13,M,10.00,M,CLR,M,M,M,M,M,M,M,M,M,M,M,M,M,M,84.10,KRTS 092015Z AUTO 00000KT 10SM CLR 31/01 A3013 RMK AO2,M
MEV,2024-08-09 20:15,-119.7500,38.9963,1441.42,89.60,39.20,17.09,M,5.00,0.00,30.10,M,10.00,13.00,CLR,M,M,M,M,M,M,M,M,M,M,M,M,M,M,85.73,KMEV 092015Z AUTO VRB05G13KT 10SM CLR 32/04 A3010 RMK AO2,M
BAM,2024-08-09 20:15,-116.8743,40.5990,1382.36,96.80,37.40,12.73,210.00,9.00,0.00,30.05,M,10.00,18.00,CLR,M,M,M,M,M,M,M,M,M,M,M,M,M,M,92.04,KBAM 092015Z AUTO 21009G18KT 190V250 10SM CLR 36/03 A3005 RMK AO1,M
HTH,2024-08-09 20:15,-118.6315,38.5448,1282.89,93.20,39.20,15.27,330.00,6.00,0.00,30.04,M,10.00,M,CLR,M,M,M,M,M,M,M,M,M,M,M,M,M,M,88.92,KHTH 092015Z AUTO 33006KT 10SM CLR 34/04 A3004 RMK A01,M
10U,2024-08-09 20:15,-116.1876,41.9532,1637.00,91.40,30.20,11.28,250.00,17.00,0.00,30.09,M,10.00,26.00,FEW,M,M,M,12000.00,M,M,M,M,M,M,M,M,M,M,86.71,K10U 092015Z AUTO 25017G26KT 10SM FEW120 33/M01 A3009 RMK AO2,M
TMT,2024-08-09 20:15,-117.1971,39.4643,1749.34,90.50,39.00,16.48,240.00,11.00,0.00,30.15,M,10.00,20.00,CLR,M,M,M,M,M,M,M,M,M,M,M,M,M,M,86.50,KTMT 092015Z AUTO 24011G20KT 10SM CLR 33/04 A3015 RMK AO2 T03250039,M
05U,2024-08-09 20:30,-116.0051,39.6042,1811.23,M,M,M,270.00,7.00,0.00,30.15,M,10.00,22.00,CLR,M,M,M,M,M,M,M,M,M,M,M,M,M,M,M,K05U 092030Z AUTO 27007G22KT 10SM CLR A3015 RMK A01,M
P68,2024-08-09 20:31,-116.0056,39.6014,1993.00,92.00,37.00,14.54,290.00,8.00,0.00,30.12,M,M,21.00,M,M,M,M,M,M,M,M,M,M,M,M,27.00,240.00,2024-08-09 20:19,87.74,KP68 092031Z AUTO 29008G21KT 33/03 A3012 RMK AO1 PK WND 24027/2019 WSHFT 2014 T03330028,M
BVU,2024-08-09 20:35,-114.8611,35.9475,671.00,96.80,55.40,25.15,M,4.00,0.00,29.90,M,10.00,M,CLR,M,M,M,M,M,M,M,M,M,M,M,M,M,M,95.14,KBVU 092035Z AUTO VRB04KT 10SM CLR 36/13 A2990 RMK AO2,M
CXP,2024-08-09 20:35,-119.7326,39.1923,1431.00,93.20,35.60,13.25,260.00,9.00,0.00,30.11,M,10.00,16.00,CLR,M,M,M,M,M,M,M,M,M,M,M,M,M,M,88.76,KCXP 092035Z AUTO 26009G16KT 210V290 10SM CLR 34/02 A3011 RMK AO2,M
RTS,2024-08-09 20:35,-119.8764,39.6682,1539.00,89.60,33.80,13.80,M,4.00,0.00,30.12,M,10.00,11.00,CLR,M,M,M,M,M,M,M,M,M,M,M,M,M,M,85.59,KRTS 092035Z AUTO VRB04G11KT 10SM CLR 32/01 A3012 RMK AO2,M
MEV,2024-08-09 20:35,-119.7500,38.9963,1441.42,93.20,35.60,13.25,260.00,8.00,0.00,30.09,M,10.00,13.00,CLR,M,M,M,M,M,M,M,M,M,M,M,M,M,M,88.76,KMEV 092035Z AUTO 26008G13KT 10SM CLR 34/02 A3009 RMK AO2,M
BAM,2024-08-09 20:35,-116.8743,40.5990,1382.36,96.80,37.40,12.73,210.00,8.00,0.00,30.05,M,10.00,M,CLR,M,M,M,M,M,M,M,M,M,M,M,M,M,M,92.04,KBAM 092035Z AUTO 21008KT 10SM CLR 36/03 A3005 RMK AO1,M
HTH,2024-08-09 20:35,-118.6315,38.5448,1282.89,93.20,39.20,15.27,M,4.00,0.00,30.03,M,10.00,M,CLR,M,M,M,M,M,M,M,M,M,M,M,M,M,M,88.92,KHTH 092035Z AUTO VRB04KT 10SM CLR 34/04 A3003 RMK A01,M
10U,2024-08-09 20:35,-116.1876,41.9532,1637.00,91.40,30.20,11.28,210.00,16.00,0.00,30.09,M,10.00,23.00,CLR,M,M,M,M,M,M,M,M,M,M,M,M,M,M,86.71,K10U 092035Z AUTO 21016G23KT 10SM CLR 33/M01 A3009 RMK AO2,M
TMT,2024-08-09 20:35,-117.1971,39.4643,1749.34,91.40,40.00,16.66,290.00,7.00,0.00,30.14,M,10.00,14.00,SCT,M,M,M,12000.00,M,M,M,M,M,M,M,M,M,M,87.34,KTMT 092035Z AUTO 29007G14KT 10SM SCT120 33/04 A3014 RMK AO2 T03300044,M
P68,2024-08-09 20:53,-116.0056,39.6014,1993.00,92.00,38.00,15.12,200.00,10.00,0.00,30.11,1009.50,M,20.00,M,M,M,M,M,M,M,M,M,M,M,M,27.00,240.00,2024-08-09 20:19,87.78,KP68 092053Z AUTO 20010G20KT 33/03 A3011 RMK AO1 PK WND 24027/2019 WSHFT 2014 SLP095 T03330033 58019,M
DRA,2024-08-09 20:53,-116.0278,36.6206,1009.00,101.00,51.00,18.84,250.00,10.00,0.00,29.95,1007.80,10.00,M,CLR,M,M,M,M,M,M,M,M,M,M,M,M,M,M,98.30,KDRA 092053Z AUTO 25010KT 10SM CLR 38/11 A2995 RMK AO2 SLP078 T03830106 58019,M
ELY,2024-08-09 20:53,-114.8453,39.2950,1909.00,86.00,40.00,19.76,10.00,23.00,0.00,30.17,1009.20,10.00,35.00,BKN,M,M,M,11000.00,M,M,M,M,M,M,M,35.00,10.00,2024-08-09 20:47,82.82,KELY 092053Z AUTO 01023G35KT 10SM BKN110 30/04 A3017 RMK AO2 PK WND 01035/2047 SLP092 T03000044 56014,M
VGT,2024-08-09 20:53,-115.1933,36.2111,667.00,99.00,60.00,27.75,M,M,0.00,29.88,1010.40,10.00,M,CLR,M,M,M,M,M,M,M,M,M,M,M,M,M,M,99.45,KVGT 092053Z 10SM CLR 37/16 A2988 RMK AO2 LTG DSNT W SLP104 T03720156 58021,M
LOL,2024-08-09 20:53,-118.5701,40.0684,1192.43,96.00,35.00,11.87,M,M,0.00,30.00,1010.70,10.00,M,CLR,M,M,M,M,M,M,M,M,M,M,M,M,M,M,90.97,KLOL 092053Z AUTO 10SM CLR 36/02 A3000 RMK AO2 SLP107 T03560017 56018,M
BVU,2024-08-09 20:55,-114.8611,35.9475,671.00,96.80,55.40,25.15,30.00,4.00,0.00,29.89,M,10.00,M,CLR,M,M,M,M,M,M,M,M,M,M,M,M,M,M,95.14,KBVU 092055Z AUTO 03004KT 10SM CLR 36/13 A2989 RMK AO2,M
CXP,2024-08-09 20:55,-119.7326,39.1923,1431.00,93.20,35.60,13.25,230.00,5.00,0.00,30.11,M,10.00,19.00,CLR,M,M,M,M,M,M,M,M,M,M,M,M,M,M,88.76,KCXP 092055Z AUTO 23005G19KT 10SM CLR 34/02 A3011 RMK AO2,M
INS,2024-08-09 20:55,-115.6733,36.5872,955.00,99.30,51.00,19.83,70.00,8.00,0.00,29.93,1007.10,10.00,M,CLR,M,M,M,M,M,M,M,M,M,M,M,M,M,M,96.53,KINS 092055Z AUTO 07008KT 10SM CLR 37/11 A2993 RMK AO2 SLP071 T03740106 57018,M
RNO,2024-08-09 20:55,-119.7711,39.4839,1341.00,96.00,39.00,13.90,M,6.00,0.00,30.05,1010.80,10.00,M,FEW,M,M,M,9000.00,M,M,M,M,M,M,M,M,M,M,91.48,KRNO 092055Z VRB06KT 10SM FEW090 36/04 A3005 RMK AO2 SLP108 T03560039 56018,M
LSV,2024-08-09 20:55,-115.0343,36.2362,570.00,98.80,55.60,23.83,110.00,6.00,0.00,29.84,1007.30,10.00,M,CLR,M,M,M,M,M,M,M,M,M,M,M,M,M,M,97.38,KLSV 092055Z AUTO 11006KT 10SM CLR 37/13 A2984 RMK AO2 SLP073 T03710131 57023 $,M
RTS,2024-08-09 20:55,-119.8764,39.6682,1539.00,89.60,32.00,12.84,240.00,10.00,0.00,30.12,M,10.00,21.00,CLR,M,M,M,M,M,M,M,M,M,M,M,M,M,M,85.54,KRTS 092055Z AUTO 24010G21KT 220V290 10SM CLR 32/M00 A3012 RMK AO2,M
05U,2024-08-09 20:55,-116.0051,39.6042,1811.23,M,M,M,0.00,0.00,0.00,30.14,M,10.00,16.00,CLR,M,M,M,M,M,M,M,M,M,M,M,M,M,M,M,K05U 092055Z AUTO 00000G16KT 10SM CLR A3014 RMK A01,M
MEV,2024-08-09 20:55,-119.7500,38.9963,1441.42,95.00,37.40,13.46,290.00,13.00,0.00,30.08,M,10.00,18.00,CLR,M,M,M,M,M,M,M,M,M,M,M,M,M,M,90.46,KMEV 092055Z AUTO 29013G18KT 10SM CLR 35/03 A3008 RMK AO2,M
BAM,2024-08-09 20:55,-116.8743,40.5990,1382.36,96.80,35.60,11.86,250.00,10.00,0.00,30.04,M,10.00,21.00,CLR,M,M,M,M,M,M,M,M,M,M,M,M,M,M,91.72,KBAM 092055Z AUTO 25010G21KT 220V300 10SM CLR 36/02 A3004 RMK AO1,M
HTH,2024-08-09 20:55,-118.6315,38.5448,1282.89,95.00,37.40,13.46,10.00,7.00,0.00,30.03,M,10.00,12.00,CLR,M,M,M,M,M,M,M,M,M,M,M,M,M,M,90.46,KHTH 092055Z AUTO 01007G12KT 350V060 10SM CLR 35/03 A3003 RMK A01,M
10U,2024-08-09 20:55,-116.1876,41.9532,1637.00,93.20,26.60,9.21,250.00,15.00,0.00,30.08,M,10.00,20.00,CLR,M,M,M,M,M,M,M,M,M,M,M,M,M,M,87.72,K10U 092055Z AUTO 25015G20KT 220V280 10SM CLR 34/M03 A3008 RMK AO2,M
TMT,2024-08-09 20:55,-117.1971,39.4643,1749.34,91.40,38.70,15.84,260.00,12.00,0.00,30.14,M,10.00,15.00,SCT,M,M,M,12000.00,M,M,M,M,M,M,M,M,M,M,87.28,KTMT 092055Z AUTO 26012G15KT 10SM SCT120 33/04 A3014 RMK AO2 T03300037,M
EKO,2024-08-09 20:56,-115.7860,40.8242,1367.00,95.00,39.00,14.33,260.00,12.00,0.00,30.06,1011.20,10.00,21.00,CLR,M,M,M,M,M,M,M,M,M,M,M,M,M,M,90.55,KEKO 092056Z AUTO 26012G21KT 220V280 10SM CLR 35/04 A3006 RMK AO2 SLP112 T03500039 58017,M
WMC,2024-08-09 20:56,-117.8072,40.9019,1315.00,96.00,33.00,10.96,M,5.00,0.00,30.02,1010.40,10.00,16.00,CLR,M,M,M,M,M,M,M,M,M,M,M,M,M,M,90.66,KWMC 092056Z AUTO VRB05G16KT 10SM CLR 36/01 A3002 RMK AO2 SLP104 T03560006 58014,M
HND,2024-08-09 20:56,-115.1344,35.9729,742.79,100.00,59.00,25.98,M,4.00,0.00,29.93,1011.40,10.00,M,CLR,M,M,M,M,M,M,M,M,M,M,M,M,M,M,100.11,KHND 092056Z VRB04KT 10SM CLR 38/15 A2993 RMK AO2 SLP114 T03780150 58021,M
TPH,2024-08-09 20:56,-117.0904,38.0505,1654.00,96.00,41.00,15.02,M,M,0.00,30.11,1009.40,10.00,M,CLR,M,M,M,M,M,M,M,M,M,M,M,M,M,M,91.64,KTPH 092056Z AUTO 10SM CLR 36/05 A3011 RMK AO2 SLP094 T03560050 56017,M
LAS,2024-08-09 20:56,-115.1634,36.0719,663.00,102.00,58.00,23.60,60.00,8.00,0.00,29.89,1009.00,10.00,M,FEW,FEW,SCT,M,10000.00,16000.00,25000.00,M,M,M,M,M,M,M,M,101.92,KLAS 092056Z 06008KT 10SM FEW100 FEW160 SCT250 39/14 A2989 RMK AO2 LTG DSNT NW SLP090 T03890144 58023,M
NFL,2024-08-09 20:57,-118.7010,39.4166,1199.00,97.00,40.00,14.01,M,5.00,0.00,30.01,1013.20,10.00,M,FEW,M,M,M,9000.00,M,M,M,M,M,M,M,M,M,M,92.49,KNFL 092057Z VRB05KT 10SM FEW090 36/04 A3001 RMK AO2 SLP132 T03610044 58017,M
ELY,2024-08-09 21:01,-114.8453,39.2950,1909.00,85.00,41.00,21.21,10.00,17.00,0.00,30.18,M,10.00,35.00,SCT,M,M,M,11000.00,M,M,M,M,M,M,M,35.00,10.00,2024-08-09 20:54,82.10,KELY 092101Z AUTO 01017G35KT 10SM SCT110 29/05 A3018 RMK AO2 PK WND 01035/2054 WSHFT 2041 T02940050,M
BVU,2024-08-09 21:15,-114.8611,35.9475,671.00,96.80,57.20,26.84,110.00,9.00,0.00,29.88,M,10.00,M,CLR,M,M,M,M,M,M,M,M,M,M,M,M,M,M,95.77,KBVU 092115Z AUTO 11009KT 10SM CLR 36/14 A2988 RMK AO2,M
CXP,2024-08-09 21:15,-119.7326,39.1923,1431.00,93.20,33.80,12.34,290.00,13.00,0.00,30.10,M,10.00,18.00,CLR,M,M,M,M,M,M,M,M,M,M,M,M,M,M,88.55,KCXP 092115Z AUTO 29013G18KT 10SM CLR 34/01 A3010 RMK AO2,M
RTS,2024-08-09 21:15,-119.8764,39.6682,1539.00,91.40,32.00,12.14,240.00,10.00,0.00,30.11,M,10.00,18.00,CLR,M,M,M,M,M,M,M,M,M,M,M,M,M,M,86.91,KRTS 092115Z AUTO 24010G18KT 10SM CLR 33/M00 A3011 RMK AO2,M
05U,2024-08-09 21:15,-116.0051,39.6042,1811.23,M,M,M,0.00,0.00,0.00,30.15,M,10.00,11.00,CLR,M,M,M,M,M,M,M,M,M,M,M,M,M,M,M,K05U 092115Z AUTO 00000G11KT 10SM CLR A3015 RMK A01,M
MEV,2024-08-09 21:15,-119.7500,38.9963,1441.42,95.00,35.60,12.53,290.00,12.00,0.00,30.08,M,10.00,19.00,CLR,M,M,M,M,M,M,M,M,M,M,M,M,M,M,90.25,KMEV 092115Z AUTO 29012G19KT 10SM CLR 35/02 A3008 RMK AO2,M
HTH,2024-08-09 21:15,-118.6315,38.5448,1282.89,95.00,37.40,13.46,340.00,9.00,0.00,30.02,M,10.00,M,CLR,M,M,M,M,M,M,M,M,M,M,M,M,M,M,90.46,KHTH 092115Z AUTO 34009KT 10SM CLR 35/03 A3002 RMK A01,M
10U,2024-08-09 21:15,-116.1876,41.9532,1637.00,93.20,24.80,8.54,220.00,16.00,0.00,30.07,M,10.00,28.00,CLR,M,M,M,M,M,M,M,M,M,M,M,M,M,M,87.56,K10U 092115Z AUTO 22016G28KT 10SM CLR 34/M04 A3007 RMK AO2,M
BAM,2024-08-09 21:15,-116.8743,40.5990,1382.36,96.80,35.60,11.86,280.00,3.00,0.00,30.03,M,10.00,21.00,CLR,M,M,M,M,M,M,M,M,M,M,M,M,M,M,91.72,KBAM 092115Z AUTO 28003G21KT 10SM CLR 36/02 A3003 RMK AO1,M
TMT,2024-08-09 21:15,-117.1971,39.4643,1749.34,92.00,38.00,15.12,250.00,10.00,0.00,30.13,M,10.00,16.00,CLR,M,M,M,M,M,M,M,M,M,M,M,M,M,M,87.78,KTMT 092115Z AUTO 25010G16KT 10SM CLR 33/03 A3013 RMK AO2 T03340033,M
BVU,2024-08-09 21:35,-114.8611,35.9475,671.00,98.60,57.20,25.41,M,5.00,0.00,29.87,M,10.00,13.00,CLR,M,M,M,M,M,M,M,M,M,M,M,M,M,M,97.76,KBVU 092135Z AUTO VRB05G13KT 10SM CLR 37/14 A2987 RMK AO2,M
CXP,2024-08-09 21:35,-119.7326,39.1923,1431.00,93.20,33.80,12.34,280.00,10.00,0.00,30.10,M,10.00,16.00,CLR,M,M,M,M,M,M,M,M,M,M,M,M,M,M,88.55,KCXP 092135Z AUTO 28010G16KT 230V310 10SM CLR 34/01 A3010 RMK AO2,M
RTS,2024-08-09 21:35,-119.8764,39.6682,1539.00,91.40,30.20,11.28,220.00,14.00,0.00,30.11,M,10.00,M,CLR,M,M,M,M,M,M,M,M,M,M,M,M,M,M,86.71,KRTS 092135Z AUTO 22014KT 10SM CLR 33/M01 A3011 RMK AO2,M
05U,2024-08-09 21:35,-116.0051,39.6042,1811.23,M,M,M,140.00,18.00,0.00,30.14,M,10.00,27.00,SCT,M,M,M,12000.00,M,M,M,M,M,M,M,M,M,M,M,K05U 092135Z AUTO 14018G27KT 10SM SCT120 A3014 RMK A01,M
MEV,2024-08-09 21:35,-119.7500,38.9963,1441.42,95.00,35.60,12.53,300.00,12.00,0.00,30.07,M,10.00,M,CLR,M,M,M,M,M,M,M,M,M,M,M,M,M,M,90.25,KMEV 092135Z AUTO 30012KT 10SM CLR 35/02 A3007 RMK AO2,M
BAM,2024-08-09 21:35,-116.8743,40.5990,1382.36,98.60,35.60,11.23,240.00,12.00,0.00,30.03,M,10.00,19.00,CLR,M,M,M,M,M,M,M,M,M,M,M,M,M,M,93.23,KBAM 092135Z AUTO 24012G19KT 10SM CLR 37/02 A3003 RMK AO1,M
HTH,2024-08-09 21:35,-118.6315,38.5448,1282.89,95.00,35.60,12.53,300.00,8.00,0.00,30.01,M,10.00,14.00,CLR,M,M,M,M,M,M,M,M,M,M,M,M,M,M,90.25,KHTH 092135Z AUTO 30008G14KT 10SM CLR 35/02 A3001 RMK A01,M
10U,2024-08-09 21:35,-116.1876,41.9532,1637.00,93.20,21.20,7.34,250.00,14.00,0.00,30.07,M,10.00,23.00,CLR,M,M,M,M,M,M,M,M,M,M,M,M,M,M,87.29,K10U 092135Z AUTO 25014G23KT 10SM CLR 34/M06 A3007 RMK AO2,M
TMT,2024-08-09 21:35,-117.1971,39.4643,1749.34,93.00,36.00,13.55,250.00,9.00,0.00,30.13,M,10.00,17.00,CLR,M,M,M,M,M,M,M,M,M,M,M,M,M,M,88.59,KTMT 092135Z AUTO 25009G17KT 10SM CLR 34/02 A3013 RMK AO2 T03390022,M
P68,2024-08-09 21:36,-116.0056,39.6014,1993.00,86.00,41.00,20.54,140.00,20.00,0.00,30.12,M,M,31.00,M,M,M,M,M,M,M,M,M,M,M,M,31.00,150.00,2024-08-09 21:28,82.86,KP68 092136Z AUTO 14020G31KT 30/05 A3012 RMK AO1 PK WND 15031/2128 WSHFT 2119 T03000050,M
ELY,2024-08-09 21:44,-114.8453,39.2950,1909.00,81.00,43.00,26.08,360.00,11.00,0.00,30.19,M,10.00,20.00,FEW,M,M,M,11000.00,M,M,M,VCTS,M,M,M,35.00,10.00,2024-08-09 20:54,79.54,KELY 092144Z AUTO 36011G20KT 10SM VCTS FEW110 27/06 A3019 RMK AO2 PK WND 01035/2054 WSHFT 2041 LTG DSNT E AND SW AND W T02720061,M
INS,2024-08-09 21:45,-115.6733,36.5872,955.00,100.40,50.00,18.48,70.00,11.00,0.00,29.91,1006.30,10.00,M,CLR,M,M,M,M,M,M,M,M,M,M,M,M,M,M,97.42,KINS 092145Z AUTO 07011KT 10SM CLR 38/10 A2991 RMK AO2 WSHFT 42 SLP063,M
INS,2024-08-09 21:46,-115.6733,36.5872,955.00,100.40,50.00,18.48,120.00,10.00,0.00,29.91,1006.30,10.00,M,CLR,M,M,M,M,M,M,M,M,M,M,M,M,M,M,97.42,KINS 092146Z AUTO 12010KT 10SM CLR 38/10 A2991 RMK AO2 WSHFT 45 SLP063,M
05U,2024-08-09 21:50,-116.0051,39.6042,1811.23,M,M,M,140.00,10.00,0.00,30.13,M,10.00,23.00,SCT,M,M,M,12000.00,M,M,M,M,M,M,M,M,M,M,M,K05U 092150Z AUTO 14010G23KT 10SM SCT120 A3013 RMK A01,M
P68,2024-08-09 21:53,-116.0056,39.6014,1993.00,86.00,39.00,19.01,130.00,15.00,0.00,30.11,1010.20,M,26.00,M,M,M,M,M,M,M,M,M,M,M,M,31.00,150.00,2024-08-09 21:28,82.78,KP68 092153Z AUTO 13015G26KT 30/04 A3011 RMK AO1 PK WND 15031/2128 WSHFT 2119 SLP102 T03000039,M
DRA,2024-08-09 21:53,-116.0278,36.6206,1009.00,103.00,51.00,17.74,210.00,9.00,0.00,29.92,1006.80,10.00,18.00,CLR,M,M,M,M,M,M,M,M,M,M,M,M,M,M,100.40,KDRA 092153Z AUTO 21009G18KT 10SM CLR 39/11 A2992 RMK AO2 SLP068 T03940106,M
ELY,2024-08-09 21:53,-114.8453,39.2950,1909.00,81.00,43.00,26.08,310.00,15.00,0.00,30.20,1011.10,10.00,23.00,BKN,M,M,M,11000.00,M,M,M,VCTS,M,M,M,35.00,10.00,2024-08-09 20:54,79.54,KELY 092153Z AUTO 31015G23KT 10SM VCTS BKN110 27/06 A3020 RMK AO2 PK WND 01035/2054 WSHFT 2041 LTG DSNT E AND SW AND W PRESRR SLP111 T02720061,M
VGT,2024-08-09 21:53,-115.1933,36.2111,667.00,102.00,60.00,25.35,M,6.00,0.00,29.85,1009.30,10.00,M,CLR,M,M,M,M,M,M,M,M,M,M,M,M,M,M,102.90,KVGT 092153Z VRB06KT 10SM CLR 39/16 A2985 RMK AO2 LTG DSNT W SLP093 T03890156,M
LOL,2024-08-09 21:53,-118.5701,40.0684,1192.43,98.00,35.00,11.16,230.00,13.00,0.00,29.98,1010.00,10.00,20.00,CLR,M,M,M,M,M,M,M,M,M,M,M,M,M,M,92.63,KLOL 092153Z AUTO 23013G20KT 10SM CLR 37/02 A2998 RMK AO2 SLP100 T03670017,M
BVU,2024-08-09 21:55,-114.8611,35.9475,671.00,98.60,55.40,23.81,100.00,7.00,0.00,29.85,M,10.00,14.00,CLR,M,M,M,M,M,M,M,M,M,M,M,M,M,M,97.09,KBVU 092155Z AUTO 10007G14KT 10SM CLR 37/13 A2985 RMK AO2,M
CXP,2024-08-09 21:55,-119.7326,39.1923,1431.00,93.20,33.80,12.34,240.00,8.00,0.00,30.09,M,10.00,18.00,CLR,M,M,M,M,M,M,M,M,M,M,M,M,M,M,88.55,KCXP 092155Z AUTO 24008G18KT 10SM CLR 34/01 A3009 RMK AO2,M
INS,2024-08-09 21:55,-115.6733,36.5872,955.00,100.00,50.40,18.99,60.00,5.00,0.00,29.90,1006.10,10.00,M,CLR,M,M,M,M,M,M,M,M,M,M,M,M,M,M,97.10,KINS 092155Z AUTO 06005KT 10SM CLR 38/10 A2990 RMK AO2 LTG DSNT S SLP061 T03780102,M
RNO,2024-08-09 21:55,-119.7711,39.4839,1341.00,97.00,35.00,11.51,280.00,13.00,0.00,30.03,1010.00,10.00,23.00,FEW,M,M,M,9000.00,M,M,M,M,M,M,M,32.00,290.00,2024-08-09 21:11,91.79,KRNO 092155Z 28013G23KT 250V310 10SM FEW090 36/02 A3003 RMK AO2 PK WND 29032/2111 SLP100 FU SW THRU NW T03610017,M
LSV,2024-08-09 21:55,-115.0343,36.2362,570.00,100.20,55.60,22.84,0.00,0.00,0.00,29.80,1006.00,10.00,M,FEW,M,M,M,21000.00,M,M,M,M,M,M,M,M,M,M,98.91,KLSV 092155Z AUTO 00000KT 10SM FEW210 38/13 A2980 RMK AO2 SLP060 T03790131 $,M
RTS,2024-08-09 21:55,-119.8764,39.6682,1539.00,93.20,28.40,9.91,230.00,15.00,0.00,30.10,M,10.00,23.00,CLR,M,M,M,M,M,M,M,M,M,M,M,M,M,M,87.89,KRTS 092155Z AUTO 23015G23KT 10SM CLR 34/M02 A3010 RMK AO2,M
MEV,2024-08-09 21:55,-119.7500,38.9963,1441.42,95.00,35.60,12.53,290.00,13.00,0.00,30.06,M,10.00,19.00,CLR,M,M,M,M,M,M,M,M,M,M,M,M,M,M,90.25,KMEV 092155Z AUTO 29013G19KT 10SM CLR 35/02 A3006 RMK AO2,M
HTH,2024-08-09 21:55,-118.6315,38.5448,1282.89,96.80,37.40,12.73,300.00,9.00,0.00,30.00,M,10.00,M,CLR,M,M,M,M,M,M,M,M,M,M,M,M,M,M,92.04,KHTH 092155Z AUTO 30009KT 10SM CLR 36/03 A3000 RMK A01,M
10U,2024-08-09 21:55,-116.1876,41.9532,1637.00,93.20,23.00,7.92,230.00,11.00,0.00,30.06,M,10.00,21.00,CLR,M,M,M,M,M,M,M,M,M,M,M,M,M,M,87.42,K10U 092155Z AUTO 23011G21KT 10SM CLR 34/M05 A3006 RMK AO2,M
BAM,2024-08-09 21:55,-116.8743,40.5990,1382.36,98.60,35.60,11.23,250.00,11.00,0.00,30.02,M,10.00,21.00,CLR,M,M,M,M,M,M,M,M,M,M,M,M,M,M,93.23,KBAM 092155Z AUTO 25011G21KT 10SM CLR 37/02 A3002 RMK AO1,M
TMT,2024-08-09 21:55,-117.1971,39.4643,1749.34,92.70,33.60,12.43,240.00,5.00,0.00,30.12,M,10.00,16.00,CLR,M,M,M,M,M,M,M,M,M,M,M,M,M,M,88.13,KTMT 092155Z AUTO 24005G16KT 10SM CLR 34/01 A3012 RMK AO2 T03370009,M
EKO,2024-08-09 21:56,-115.7860,40.8242,1367.00,94.00,37.00,13.66,M,M,0.00,30.04,1010.30,10.00,M,CLR,M,M,M,M,M,M,M,M,M,M,M,M,M,M,89.53,KEKO 092156Z AUTO 10SM CLR 34/03 A3004 RMK AO2 SLP103 T03440028,M
WMC,2024-08-09 21:56,-117.8072,40.9019,1315.00,98.00,31.00,9.51,320.00,9.00,0.00,30.00,1010.00,10.00,14.00,FEW,M,M,M,11000.00,M,M,M,M,M,M,M,M,M,M,92.06,KWMC 092156Z AUTO 32009G14KT 10SM FEW110 37/M01 A3000 RMK AO2 SLP100 T03671006,M
HND,2024-08-09 21:56,-115.1344,35.9729,742.79,103.00,59.00,23.74,M,4.00,0.00,29.89,1010.10,10.00,M,CLR,M,M,M,M,M,M,M,M,M,M,M,M,M,M,103.53,KHND 092156Z VRB04KT 10SM CLR 39/15 A2989 RMK AO2 SLP101 T03940150,M
TPH,2024-08-09 21:56,-117.0904,38.0505,1654.00,95.00,37.00,13.25,280.00,9.00,0.00,30.09,1008.40,10.00,17.00,CLR,M,M,M,M,M,M,M,M,M,M,M,M,M,M,90.44,KTPH 092156Z AUTO 28009G17KT 230V310 10SM CLR 35/03 A3009 RMK AO2 SLP084 T03500028,M
LAS,2024-08-09 21:56,-115.1634,36.0719,663.00,103.00,58.00,22.90,90.00,8.00,0.00,29.87,1008.00,10.00,M,FEW,FEW,SCT,M,10000.00,16000.00,25000.00,M,M,M,M,M,M,M,M,103.05,KLAS 092156Z 09008KT 10SM FEW100 FEW160 SCT250 39/14 A2987 RMK AO2 SLP080 T03940144,M
NFL,2024-08-09 21:57,-118.7010,39.4166,1199.00,99.00,36.00,11.27,M,5.00,0.00,29.98,1012.30,10.00,M,FEW,M,M,M,9000.00,M,M,M,M,M,M,M,M,M,M,93.63,KNFL 092157Z VRB05KT 10SM FEW090 37/02 A2998 RMK AO2 SLP123 T03720022,M
RTS,2024-08-09 22:00,-119.8764,39.6682,1539.00,93.20,26.60,9.21,230.00,15.00,0.00,30.10,M,10.00,23.00,CLR,M,M,M,M,M,M,M,M,M,M,M,M,M,M,87.72,KRTS 092200Z AUTO 23015G23KT 10SM CLR 34/M03 A3010 RMK AO2,M
ELY,2024-08-09 22:04,-114.8453,39.2950,1909.00,75.00,46.00,35.64,320.00,21.00,0.00,30.21,M,10.00,32.00,BKN,M,M,M,10000.00,M,M,M,M,M,M,M,32.00,320.00,2024-08-09 22:02,75.00,KELY 092204Z AUTO 32021G32KT 10SM BKN100 24/08 A3021 RMK AO2 PK WND 32032/2202 WSHFT 2146 LTG DSNT SW T02390078,M
05U,2024-08-09 22:10,-116.0051,39.6042,1811.23,M,M,M,160.00,16.00,0.00,30.13,M,10.00,22.00,FEW,M,M,M,12000.00,M,M,M,M,M,M,M,M,M,M,M,K05U 092210Z AUTO 16016G22KT 10SM FEW120 A3013 RMK A01,M
BVU,2024-08-09 22:15,-114.8611,35.9475,671.00,100.40,55.40,22.54,M,6.00,0.00,29.84,M,10.00,13.00,CLR,M,M,M,M,M,M,M,M,M,M,M,M,M,M,99.06,KBVU 092215Z AUTO VRB06G13KT 10SM CLR 38/13 A2984 RMK AO2,M
CXP,2024-08-09 22:15,-119.7326,39.1923,1431.00,93.20,33.80,12.34,280.00,11.00,0.00,30.09,M,10.00,16.00,CLR,M,M,M,M,M,M,M,M,M,M,M,M,M,M,88.55,KCXP 092215Z AUTO 28011G16KT 10SM CLR 34/01 A3009 RMK AO2,M
ELY,2024-08-09 22:15,-114.8453,39.2950,1909.00,74.00,46.00,36.85,300.00,10.00,0.00,30.23,M,10.00,25.00,OVC,M,M,M,10000.00,M,M,M,TS,M,M,M,32.00,320.00,2024-08-09 22:02,74.00,KELY 092215Z AUTO 30010G25KT 10SM TS OVC100 23/08 A3023 RMK AO2 PK WND 32032/2202 WSHFT 2146 LTG DSNT SW TSB09 PRESRR T02330078,M
MEV,2024-08-09 22:15,-119.7500,38.9963,1441.42,95.00,35.60,12.53,280.00,15.00,0.00,30.06,M,10.00,21.00,CLR,M,M,M,M,M,M,M,M,M,M,M,M,M,M,90.25,KMEV 092215Z AUTO 28015G21KT 10SM CLR 35/02 A3006 RMK AO2,M
BAM,2024-08-09 22:15,-116.8743,40.5990,1382.36,98.60,33.80,10.45,250.00,14.00,0.00,30.01,M,10.00,19.00,CLR,M,M,M,M,M,M,M,M,M,M,M,M,M,M,92.94,KBAM 092215Z AUTO 25014G19KT 10SM CLR 37/01 A3001 RMK AO1,M
HTH,2024-08-09 22:15,-118.6315,38.5448,1282.89,96.80,37.40,12.73,330.00,9.00,0.00,29.99,M,10.00,17.00,CLR,M,M,M,M,M,M,M,M,M,M,M,M,M,M,92.04,KHTH 092215Z AUTO 33009G17KT 10SM CLR 36/03 A2999 RMK A01,M
10U,2024-08-09 22:15,-116.1876,41.9532,1637.00,91.40,26.60,9.74,270.00,14.00,0.00,30.06,M,10.00,M,CLR,M,M,M,M,M,M,M,M,M,M,M,M,M,M,86.36,K10U 092215Z AUTO 27014KT 10SM CLR 33/M03 A3006 RMK AO2,M
TMT,2024-08-09 22:15,-117.1971,39.4643,1749.34,92.50,36.50,14.03,240.00,16.00,0.00,30.11,M,10.00,20.00,CLR,M,M,M,M,M,M,M,M,M,M,M,M,M,M,88.17,KTMT 092215Z AUTO 24016G20KT 10SM CLR 34/03 A3011 RMK AO2 T03360025,M
ELY,2024-08-09 22:25,-114.8453,39.2950,1909.00,73.00,49.00,42.67,250.00,17.00,T,30.25,M,10.00,27.00,OVC,M,M,M,10000.00,M,M,M,-RA,M,M,M,32.00,320.00,2024-08-09 22:02,73.00,KELY 092225Z AUTO 25017G27KT 10SM -RA OVC100 23/09 A3025 RMK AO2 PK WND 32032/2202 WSHFT 2211 LTG DSNT SE AND SW RAB24 TSB09E24 PRESRR P0000 T02280094,M
05U,2024-08-09 22:30,-116.0051,39.6042,1811.23,M,M,M,150.00,15.00,0.00,30.12,M,10.00,M,FEW,M,M,M,12000.00,M,M,M,M,M,M,M,M,M,M,M,K05U 092230Z AUTO 15015KT 10SM FEW120 A3012 RMK A01,M
BVU,2024-08-09 22:35,-114.8611,35.9475,671.00,100.40,55.40,22.54,130.00,9.00,0.00,29.83,M,10.00,M,CLR,M,M,M,M,M,M,M,M,M,M,M,M,M,M,99.06,KBVU 092235Z AUTO 13009KT 10SM CLR 38/13 A2983 RMK AO2,M
CXP,2024-08-09 22:35,-119.7326,39.1923,1431.00,93.20,33.80,12.34,240.00,7.00,0.00,30.08,M,10.00,18.00,CLR,M,M,M,M,M,M,M,M,M,M,M,M,M,M,88.55,KCXP 092235Z AUTO 24007G18KT 200V270 10SM CLR 34/01 A3008 RMK AO2,M
MEV,2024-08-09 22:35,-119.7500,38.9963,1441.42,95.00,35.60,12.53,280.00,13.00,0.00,30.06,M,10.00,19.00,CLR,M,M,M,M,M,M,M,M,M,M,M,M,M,M,90.25,KMEV 092235Z AUTO 28013G19KT 10SM CLR 35/02 A3006 RMK AO2,M
HTH,2024-08-09 22:35,-118.6315,38.5448,1282.89,96.80,37.40,12.73,310.00,9.00,0.00,29.98,M,10.00,14.00,CLR,M,M,M,M,M,M,M,M,M,M,M,M,M,M,92.04,KHTH 092235Z AUTO 31009G14KT 260V340 10SM CLR 36/03 A2998 RMK A01,M
10U,2024-08-09 22:35,-116.1876,41.9532,1637.00,93.20,26.60,9.21,260.00,8.00,0.00,30.06,M,10.00,25.00,CLR,M,M,M,M,M,M,M,M,M,M,M,M,M,M,87.72,K10U 092235Z AUTO 26008G25KT 220V290 10SM CLR 34/M03 A3006 RMK AO2,M
BAM,2024-08-09 22:35,-116.8743,40.5990,1382.36,98.60,33.80,10.45,250.00,10.00,0.00,30.01,M,10.00,16.00,CLR,M,M,M,M,M,M,M,M,M,M,M,M,M,M,92.94,KBAM 092235Z AUTO 25010G16KT 10SM CLR 37/01 A3001 RMK AO1,M
TMT,2024-08-09 22:35,-117.1971,39.4643,1749.34,92.70,35.20,13.25,280.00,9.00,0.00,30.11,M,10.00,20.00,CLR,M,M,M,M,M,M,M,M,M,M,M,M,M,M,88.30,KTMT 092235Z AUTO 28009G20KT 10SM CLR 34/02 A3011 RMK AO2 T03370018,M
05U,2024-08-09 22:50,-116.0051,39.6042,1811.23,M,M,M,160.00,11.00,0.00,30.14,M,10.00,21.00,SCT,M,M,M,11000.00,M,M,M,M,M,M,M,M,M,M,M,K05U 092250Z AUTO 16011G21KT 10SM SCT110 A3014 RMK A01,M
P68,2024-08-09 22:53,-116.0056,39.6014,1993.00,87.00,38.00,17.70,160.00,14.00,0.00,30.11,1010.30,M,26.00,M,M,M,M,M,M,M,M,M,M,M,M,26.00,160.00,2024-08-09 22:39,83.53,KP68 092253Z AUTO 16014G26KT 31/03 A3011 RMK AO1 PK WND 16026/2239 SLP103 T03060033,M
DRA,2024-08-09 22:53,-116.0278,36.6206,1009.00,104.00,49.00,15.99,240.00,9.00,0.00,29.89,1005.90,10.00,18.00,CLR,M,M,M,M,M,M,M,M,M,M,M,M,M,M,100.86,KDRA 092253Z AUTO 24009G18KT 200V270 10SM CLR 40/09 A2989 RMK AO2 SLP059 T04000094,M
ELY,2024-08-09 22:53,-114.8453,39.2950,1909.00,69.00,51.00,52.66,220.00,12.00,T,30.25,1014.20,8.00,M,FEW,OVC,M,M,7500.00,9500.00,M,M,-RA,M,M,M,32.00,320.00,2024-08-09 22:02,69.00,KELY 092253Z AUTO 22012KT 8SM -RA FEW075 OVC095 21/11 A3025 RMK AO2 PK WND 32032/2202 WSHFT 2211 LTG DSNT E AND SE RAB24 TSB09E24 SLP142 P0000 T02060106,M
VGT,2024-08-09 22:53,-115.1933,36.2111,667.00,102.00,59.00,24.46,170.00,7.00,0.00,29.82,1008.20,10.00,15.00,CLR,M,M,M,M,M,M,M,M,M,M,M,M,M,M,102.39,KVGT 092253Z 17007G15KT 10SM CLR 39/15 A2982 RMK AO2 SLP082 T03890150,M
LOL,2024-08-09 22:53,-118.5701,40.0684,1192.43,98.00,34.00,10.73,240.00,12.00,0.00,29.96,1009.60,10.00,M,CLR,M,M,M,M,M,M,M,M,M,M,M,M,M,M,92.47,KLOL 092253Z AUTO 24012KT 10SM CLR 37/01 A2996 RMK AO2 SLP096 T03670011,M
BVU,2024-08-09 22:55,-114.8611,35.9475,671.00,102.20,53.60,20.00,130.00,9.00,0.00,29.83,M,10.00,M,CLR,M,M,M,M,M,M,M,M,M,M,M,M,M,M,100.38,KBVU 092255Z AUTO 13009KT 10SM CLR 39/12 A2983 RMK AO2,M
CXP,2024-08-09 22:55,-119.7326,39.1923,1431.00,93.20,33.80,12.34,280.00,12.00,0.00,30.07,M,10.00,19.00,CLR,M,M,M,M,M,M,M,M,M,M,M,M,M,M,88.55,KCXP 092255Z AUTO 28012G19KT 10SM CLR 34/01 A3007 RMK AO2,M
INS,2024-08-09 22:55,-115.6733,36.5872,955.00,102.20,50.50,17.84,120.00,6.00,0.00,29.88,1005.40,10.00,15.00,CLR,M,M,M,M,M,M,M,M,M,M,M,M,M,M,99.42,KINS 092255Z AUTO 12006G15KT 10SM CLR 39/10 A2988 RMK AO2 SLP054 T03900103,M
RNO,2024-08-09 22:55,-119.7711,39.4839,1341.00,97.00,35.00,11.51,280.00,18.00,0.00,30.01,1009.60,10.00,26.00,FEW,M,M,M,10000.00,M,M,M,M,M,M,M,27.00,280.00,2024-08-09 22:31,91.79,KRNO 092255Z 28018G26KT 10SM FEW100 36/02 A3001 RMK AO2 PK WND 28027/2231 SLP096 FU SW THRU NW T03610017,M
MEV,2024-08-09 22:55,-119.7500,38.9963,1441.42,95.00,35.60,12.53,290.00,15.00,0.00,30.05,M,10.00,M,CLR,M,M,M,M,M,M,M,M,M,M,M,M,M,M,90.25,KMEV 092255Z AUTO 29015KT 10SM CLR 35/02 A3005 RMK AO2,M
BAM,2024-08-09 22:55,-116.8743,40.5990,1382.36,98.60,32.00,9.72,270.00,12.00,0.00,30.00,M,10.00,18.00,CLR,M,M,M,M,M,M,M,M,M,M,M,M,M,M,92.69,KBAM 092255Z AUTO 27012G18KT 10SM CLR 37/00 A3000 RMK AO1,M
HTH,2024-08-09 22:55,-118.6315,38.5448,1282.89,96.80,35.60,11.86,320.00,10.00,0.00,29.98,M,10.00,15.00,CLR,M,M,M,M,M,M,M,M,M,M,M,M,M,M,91.72,KHTH 092255Z AUTO 32010G15KT 10SM CLR 36/02 A2998 RMK A01,M
10U,2024-08-09 22:55,-116.1876,41.9532,1637.00,93.20,26.60,9.21,280.00,15.00,0.00,30.06,M,10.00,22.00,CLR,M,M,M,M,M,M,M,M,M,M,M,M,M,M,87.72,K10U 092255Z AUTO 28015G22KT 10SM CLR 34/M03 A3006 RMK AO2,M
LSV,2024-08-09 22:55,-115.0343,36.2362,570.00,102.60,53.80,19.91,110.00,5.00,0.00,29.77,1004.90,10.00,M,CLR,M,M,M,M,M,M,M,M,M,M,M,M,M,M,100.88,KLSV 092255Z AUTO 11005KT 10SM CLR 39/12 A2977 RMK AO2 SLP049 T03920121 $,M
TMT,2024-08-09 22:55,-117.1971,39.4643,1749.34,92.50,34.50,12.96,290.00,12.00,0.00,30.11,M,10.00,M,CLR,M,M,M,M,M,M,M,M,M,M,M,M,M,M,88.10,KTMT 092255Z AUTO 29012KT 10SM CLR 34/01 A3011 RMK AO2 T03360014,M
EKO,2024-08-09 22:56,-115.7860,40.8242,1367.00,95.00,37.00,13.25,260.00,11.00,0.00,30.02,1009.80,10.00,20.00,CLR,M,M,M,M,M,M,M,M,M,M,M,38.00,280.00,2024-08-09 22:31,90.44,KEKO 092256Z AUTO 26011G20KT 10SM CLR 35/03 A3002 RMK AO2 PK WND 28038/2231 SLP098 T03500028,M
WMC,2024-08-09 22:56,-117.8072,40.9019,1315.00,98.00,31.00,9.51,240.00,10.00,0.00,29.98,1009.80,10.00,17.00,CLR,M,M,M,M,M,M,M,M,M,M,M,M,M,M,92.06,KWMC 092256Z AUTO 24010G17KT 10SM CLR 37/M01 A2998 RMK AO2 SLP098 T03671006,M
HND,2024-08-09 22:56,-115.1344,35.9729,742.79,102.00,58.00,23.60,0.00,0.00,0.00,29.87,1009.30,10.00,M,CLR,M,M,M,M,M,M,M,M,M,M,M,M,M,M,101.92,KHND 092256Z 00000KT 10SM CLR 39/14 A2987 RMK AO2 LTG DSNT W AND NW SLP093 T03890144,M
TPH,2024-08-09 22:56,-117.0904,38.0505,1654.00,95.00,38.00,13.78,230.00,11.00,0.00,30.06,1008.10,10.00,16.00,SCT,M,M,M,12000.00,M,M,M,M,M,M,M,M,M,M,90.49,KTPH 092256Z AUTO 23011G16KT 10SM SCT120 35/03 A3006 RMK AO2 SLP081 T03500033,M
LAS,2024-08-09 22:56,-115.1634,36.0719,663.00,104.00,57.00,21.45,80.00,10.00,0.00,29.84,1006.90,10.00,15.00,FEW,FEW,SCT,M,10000.00,16000.00,22000.00,M,M,M,M,M,M,M,M,103.70,KLAS 092256Z 08010G15KT 10SM FEW100 FEW160 SCT220 40/14 A2984 RMK AO2 LTG DSNT W SLP069 T04000139,M
NFL,2024-08-09 22:57,-118.7010,39.4166,1199.00,101.00,35.00,10.20,250.00,7.00,0.00,29.95,1011.60,10.00,M,FEW,M,M,M,9000.00,M,M,M,M,M,M,M,M,M,M,95.17,KNFL 092257Z 25007KT 10SM FEW090 38/02 A2995 RMK AO2 SLP116 T03830017,M
ELY,2024-08-09 23:06,-114.8453,39.2950,1909.00,73.00,49.00,42.67,140.00,11.00,T,30.22,M,10.00,28.00,FEW,SCT,BKN,M,3700.00,7500.00,9500.00,M,-RA,M,M,M,28.00,170.00,2024-08-09 22:58,73.00,KELY 092306Z AUTO 14011G28KT 10SM -RA FEW037 SCT075 BKN095 23/09 A3022 RMK AO2 PK WND 17028/2258 WSHFT 2246 LTG DSNT E P0000 T02280094,M
05U,2024-08-09 23:10,-116.0051,39.6042,1811.23,M,M,M,220.00,8.00,0.00,30.16,M,6.00,M,FEW,FEW,BKN,M,2100.00,4400.00,11000.00,M,HZ,M,M,M,M,M,M,M,K05U 092310Z AUTO 22008KT 6SM HZ FEW021 FEW044 BKN110 A3016 RMK A01,M
ELY,2024-08-09 23:14,-114.8453,39.2950,1909.00,73.00,52.00,47.69,100.00,15.00,T,30.22,M,10.00,22.00,FEW,SCT,BKN,M,4200.00,9000.00,11000.00,M,M,M,M,M,28.00,170.00,2024-08-09 22:58,73.00,KELY 092314Z AUTO 10015G22KT 10SM FEW042 SCT090 BKN110 23/11 A3022 RMK AO2 PK WND 17028/2258 WSHFT 2254 RAE10 P0000 T02280111,M
BVU,2024-08-09 23:15,-114.8611,35.9475,671.00,100.40,53.60,21.11,140.00,5.00,0.00,29.82,M,10.00,12.00,CLR,M,M,M,M,M,M,M,M,M,M,M,M,M,M,98.44,KBVU 092315Z AUTO 14005G12KT 10SM CLR 38/12 A2982 RMK AO2,M
CXP,2024-08-09 23:15,-119.7326,39.1923,1431.00,91.40,35.60,14.02,280.00,13.00,0.00,30.07,M,10.00,19.00,CLR,M,M,M,M,M,M,M,M,M,M,M,M,M,M,87.17,KCXP 092315Z AUTO 28013G19KT 10SM CLR 33/02 A3007 RMK AO2,M
MEV,2024-08-09 23:15,-119.7500,38.9963,1441.42,95.00,35.60,12.53,260.00,14.00,0.00,30.05,M,10.00,22.00,CLR,M,M,M,M,M,M,M,M,M,M,M,M,M,M,90.25,KMEV 092315Z AUTO 26014G22KT 10SM CLR 35/02 A3005 RMK AO2,M
BAM,2024-08-09 23:15,-116.8743,40.5990,1382.36,98.60,32.00,9.72,230.00,7.00,0.00,30.00,M,10.00,17.00,CLR,M,M,M,M,M,M,M,M,M,M,M,M,M,M,92.69,KBAM 092315Z AUTO 23007G17KT 180V250 10SM CLR 37/00 A3000 RMK AO1,M
HTH,2024-08-09 23:15,-118.6315,38.5448,1282.89,96.80,37.40,12.73,310.00,8.00,0.00,29.97,M,10.00,M,CLR,M,M,M,M,M,M,M,M,M,M,M,M,M,M,92.04,KHTH 092315Z AUTO 31008KT 10SM CLR 36/03 A2997 RMK A01,M
10U,2024-08-09 23:15,-116.1876,41.9532,1637.00,93.20,24.80,8.54,280.00,11.00,0.00,30.06,M,10.00,17.00,CLR,M,M,M,M,M,M,M,M,M,M,M,M,M,M,87.56,K10U 092315Z AUTO 28011G17KT 10SM CLR 34/M04 A3006 RMK AO2,M
TMT,2024-08-09 23:15,-117.1971,39.4643,1749.34,92.70,35.00,13.14,280.00,14.00,0.00,30.11,M,10.00,19.00,CLR,M,M,M,M,M,M,M,M,M,M,M,M,M,M,88.30,KTMT 092315Z AUTO 28014G19KT 10SM CLR 34/02 A3011 RMK AO2 T03370016,M
ELY,2024-08-09 23:23,-114.8453,39.2950,1909.00,76.00,48.00,37.17,100.00,14.00,T,30.20,M,10.00,M,FEW,FEW,M,M,4400.00,11000.00,M,M,M,M,M,M,28.00,170.00,2024-08-09 22:58,76.00,KELY 092323Z AUTO 10014KT 10SM FEW044 FEW110 24/09 A3020 RMK AO2 PK WND 17028/2258 WSHFT 2303 RAE10 P0000 T02440089,M
BVU,2024-08-09 23:35,-114.8611,35.9475,671.00,102.20,53.60,20.00,140.00,8.00,0.00,29.82,M,10.00,14.00,CLR,M,M,M,M,M,M,M,M,M,M,M,M,M,M,100.38,KBVU 092335Z AUTO 14008G14KT 100V170 10SM CLR 39/12 A2982 RMK AO2 LTG DSNT SE,M
CXP,2024-08-09 23:35,-119.7326,39.1923,1431.00,93.20,35.60,13.25,280.00,15.00,0.00,30.07,M,10.00,M,CLR,M,M,M,M,M,M,M,M,M,M,M,M,M,M,88.76,KCXP 092335Z AUTO 28015KT 10SM CLR 34/02 A3007 RMK AO2,M
05U,2024-08-09 23:35,-116.0051,39.6042,1811.23,M,M,M,100.00,10.00,0.00,30.14,M,10.00,16.00,FEW,FEW,FEW,M,5500.00,7000.00,12000.00,M,M,M,M,M,M,M,M,M,K05U 092335Z AUTO 10010G16KT 10SM FEW055 FEW070 FEW120 A3014 RMK A01,M
MEV,2024-08-09 23:35,-119.7500,38.9963,1441.42,93.20,35.60,13.25,280.00,13.00,0.00,30.05,M,10.00,21.00,CLR,M,M,M,M,M,M,M,M,M,M,M,M,M,M,88.76,KMEV 092335Z AUTO 28013G21KT 10SM CLR 34/02 A3005 RMK AO2,M
HTH,2024-08-09 23:35,-118.6315,38.5448,1282.89,96.80,35.60,11.86,320.00,7.00,0.00,29.97,M,10.00,16.00,CLR,M,M,M,M,M,M,M,M,M,M,M,M,M,M,91.72,KHTH 092335Z AUTO 32007G16KT 10SM CLR 36/02 A2997 RMK A01,M
10U,2024-08-09 23:35,-116.1876,41.9532,1637.00,93.20,23.00,7.92,290.00,14.00,0.00,30.05,M,10.00,22.00,CLR,M,M,M,M,M,M,M,M,M,M,M,M,M,M,87.42,K10U 092335Z AUTO 29014G22KT 10SM CLR 34/M05 A3005 RMK AO2,M
BAM,2024-08-09 23:35,-116.8743,40.5990,1382.36,98.60,32.00,9.72,240.00,14.00,0.00,29.99,M,10.00,M,CLR,M,M,M,M,M,M,M,M,M,M,M,M,M,M,92.69,KBAM 092335Z AUTO 24014KT 10SM CLR 37/00 A2999 RMK AO1,M
TMT,2024-08-09 23:35,-117.1971,39.4643,1749.34,92.00,33.80,12.80,280.00,14.00,0.00,30.11,M,10.00,19.00,CLR,M,M,M,M,M,M,M,M,M,M,M,M,M,M,87.61,KTMT 092335Z AUTO 28014G19KT 10SM CLR 33/01 A3011 RMK AO2 T03330010,M
P68,2024-08-09 23:53,-116.0056,39.6014,1993.00,85.00,43.00,22.91,130.00,14.00,0.01,30.11,1010.60,M,24.00,M,M,M,M,M,M,M,M,M,M,M,M,M,M,M,82.21,KP68 092353Z AUTO 13014G24KT 29/06 A3011 RMK AO1 SLP106 P0001 60001 T02940061 10344 20278 50001,M
DRA,2024-08-09 23:53,-116.0278,36.6206,1009.00,103.00,47.00,15.28,250.00,7.00,0.00,29.88,1005.70,10.00,M,CLR,M,M,M,M,M,M,M,M,M,M,M,27.00,230.00,2024-08-09 23:34,99.35,KDRA 092353Z AUTO 25007KT 10SM CLR 39/08 A2988 RMK AO2 PK WND 23027/2334 SLP057 T03940083 10406 20356 56020,M
ELY,2024-08-09 23:53,-114.8453,39.2950,1909.00,80.00,41.00,24.94,0.00,0.00,T,30.18,1010.90,10.00,M,CLR,M,M,M,M,M,M,M,M,M,M,M,28.00,170.00,2024-08-09 22:58,78.87,KELY 092353Z AUTO 00000KT 10SM CLR 27/05 A3018 RMK AO2 PK WND 17028/2258 WSHFT 2303 RAE10 SLP109 P0000 60000 T02670050 10328 20200 50005,M
VGT,2024-08-09 23:53,-115.1933,36.2111,667.00,102.00,58.00,23.60,180.00,6.00,0.00,29.81,1007.80,10.00,M,CLR,M,M,M,M,M,M,M,M,M,M,M,M,M,M,101.92,KVGT 092353Z 18006KT 10SM CLR 39/14 A2981 RMK AO2 LTG DSNT SW SLP078 T03890144 10394 20344 56024,M
LOL,2024-08-09 23:53,-118.5701,40.0684,1192.43,98.00,34.00,10.73,M,5.00,0.00,29.94,1009.00,10.00,M,CLR,M,M,M,M,M,M,M,M,M,M,M,M,M,M,92.47,KLOL 092353Z AUTO VRB05KT 10SM CLR 37/01 A2994 RMK AO2 SLP090 T03670011 10372 20311 56018,M
BVU,2024-08-09 23:55,-114.8611,35.9475,671.00,102.20,51.80,18.72,200.00,7.00,0.00,29.81,M,10.00,M,CLR,M,M,M,M,M,M,M,M,M,M,M,M,M,M,99.80,KBVU 092355Z AUTO 20007KT 10SM CLR 39/11 A2981 RMK AO2,M
CXP,2024-08-09 23:55,-119.7326,39.1923,1431.00,91.40,35.60,14.02,260.00,14.00,0.00,30.07,M,10.00,20.00,CLR,M,M,M,M,M,M,M,M,M,M,M,M,M,M,87.17,KCXP 092355Z AUTO 26014G20KT 10SM CLR 33/02 A3007 RMK AO2,M
INS,2024-08-09 23:55,-115.6733,36.5872,955.00,102.00,50.40,17.88,70.00,9.00,0.00,29.86,1004.70,10.00,M,CLR,M,M,M,M,M,M,M,M,M,M,M,M,M,M,99.18,KINS 092355Z AUTO 07009KT 10SM CLR 39/10 A2986 RMK AO2 SLP047 T03890102 10393 20347 57023,M
RNO,2024-08-09 23:55,-119.7711,39.4839,1341.00,97.00,37.00,12.46,300.00,14.00,0.00,30.01,1009.50,10.00,23.00,FEW,M,M,M,10000.00,M,M,M,M,M,M,M,M,M,M,92.13,KRNO 092355Z 30014G23KT 10SM FEW100 36/03 A3001 RMK AO2 SLP095 FU ALQDS T03610028 10372 20294 56012,M
LSV,2024-08-09 23:55,-115.0343,36.2362,570.00,103.30,54.30,19.85,110.00,7.00,0.00,29.75,1004.20,10.00,M,CLR,M,M,M,M,M,M,M,M,M,M,M,M,M,M,101.82,KLSV 092355Z AUTO 11007KT 10SM CLR 40/12 A2975 RMK AO2 SLP042 T03960124 10399 20337 57027 $,M
05U,2024-08-09 23:55,-116.0051,39.6042,1811.23,M,M,M,140.00,10.00,0.00,30.14,M,10.00,20.00,CLR,M,M,M,M,M,M,M,M,M,M,M,M,M,M,M,K05U 092355Z AUTO 14010G20KT 10SM CLR A3014 RMK A01,M
MEV,2024-08-09 23:55,-119.7500,38.9963,1441.42,93.20,35.60,13.25,270.00,15.00,0.00,30.05,M,10.00,25.00,CLR,M,M,M,M,M,M,M,M,M,M,M,M,M,M,88.76,KMEV 092355Z AUTO 27015G25KT 10SM CLR 34/02 A3005 RMK AO2,M
BAM,2024-08-09 23:55,-116.8743,40.5990,1382.36,96.80,32.00,10.27,0.00,0.00,0.00,29.99,M,10.00,M,CLR,M,M,M,M,M,M,M,M,M,M,M,M,M,M,91.19,KBAM 092355Z AUTO 00000KT 10SM CLR 36/00 A2999 RMK AO1,M
HTH,2024-08-09 23:55,-118.6315,38.5448,1282.89,96.80,35.60,11.86,360.00,8.00,0.00,29.97,M,10.00,M,CLR,M,M,M,M,M,M,M,M,M,M,M,M,M,M,91.72,KHTH 092355Z AUTO 36008KT 10SM CLR 36/02 A2997 RMK A01,M
10U,2024-08-09 23:55,-116.1876,41.9532,1637.00,91.40,24.80,9.04,M,6.00,0.00,30.05,M,10.00,16.00,CLR,M,M,M,M,M,M,M,M,M,M,M,M,M,M,86.21,K10U 092355Z AUTO VRB06G16KT 10SM CLR 33/M04 A3005 RMK AO2,M
TMT,2024-08-09 23:55,-117.1971,39.4643,1749.34,91.60,31.60,11.87,280.00,8.00,0.00,30.11,M,10.00,16.00,CLR,M,M,M,M,M,M,M,M,M,M,M,M,M,M,87.02,KTMT 092355Z AUTO 28008G16KT 10SM CLR 33/00 A3011 RMK AO2 T03311002 10341 20301,M
EKO,2024-08-09 23:56,-115.7860,40.8242,1367.00,95.00,34.00,11.76,280.00,13.00,0.00,30.02,1010.00,10.00,21.00,CLR,M,M,M,M,M,M,M,M,M,M,M,M,M,M,90.00,KEKO 092356Z AUTO 28013G21KT 10SM CLR 35/01 A3002 RMK AO2 SLP100 T03500011 10356 20311 56012,M
WMC,2024-08-09 23:56,-117.8072,40.9019,1315.00,98.00,31.00,9.51,300.00,10.00,0.00,29.97,1009.40,10.00,20.00,CLR,M,M,M,M,M,M,M,M,M,M,M,M,M,M,92.06,KWMC 092356Z AUTO 30010G20KT 10SM CLR 37/M01 A2997 RMK AO2 SLP094 T03671006 10378 20328 56014,M
HND,2024-08-09 23:56,-115.1344,35.9729,742.79,102.00,57.00,22.77,0.00,0.00,0.00,29.86,1009.00,10.00,M,CLR,M,M,M,M,M,M,M,M,M,M,M,M,M,M,101.47,KHND 092356Z 00000KT 10SM CLR 39/14 A2986 RMK AO2 LTG DSNT W SLP090 T03890139 10400 20344 56022,M
TPH,2024-08-09 23:56,-117.0904,38.0505,1654.00,94.00,36.00,13.13,250.00,8.00,0.00,30.05,1008.30,10.00,M,CLR,M,M,M,M,M,M,M,M,M,M,M,M,M,M,89.49,KTPH 092356Z AUTO 25008KT 10SM CLR 34/02 A3005 RMK AO2 SLP083 T03440022 10361 20300 56017,M
LAS,2024-08-09 23:56,-115.1634,36.0719,663.00,103.00,56.00,21.31,70.00,7.00,0.00,29.83,1006.70,10.00,M,FEW,FEW,SCT,M,10000.00,16000.00,22000.00,M,M,M,M,M,M,M,M,102.16,KLAS 092356Z 07007KT 10SM FEW100 FEW160 SCT220 39/13 A2983 RMK AO2 LTG DSNT SW SLP067 CB DSNT E AND SW-NW T03940133 10411 20350 56022,M
NFL,2024-08-09 23:57,-118.7010,39.4166,1199.00,101.00,31.00,8.68,260.00,15.00,0.00,29.94,1011.20,10.00,20.00,FEW,M,M,M,9000.00,M,M,M,M,M,M,M,M,M,M,94.59,KNFL 092357Z 26015G20KT 10SM FEW090 38/M01 A2994 RMK SLP112 T03831006 10389 20317 56020,M
