station,valid,lon,lat,elevation,tmpf,dwpf,relh,drct,sknt,p01i,alti,mslp,vsby,gust,skyc1,skyc2,skyc3,skyc4,skyl1,skyl2,skyl3,skyl4,wxcodes,ice_accretion_1hr,ice_accretion_3hr,ice_accretion_6hr,peak_wind_gust,peak_wind_drct,peak_wind_time,feel,metar,snowdepth
CXP,2024-08-17 00:10,-119.7326,39.1923,1431.00,84.20,28.40,13.18,280.00,16.00,0.00,30.03,M,9.00,30.00,CLR,M,M,M,M,M,M,M,M,M,M,M,M,M,M,81.25,KCXP 170010Z AUTO 28016G30KT 9SM CLR 29/M02 A3003 RMK AO2,M
05U,2024-08-17 00:10,-116.0051,39.6042,1811.23,M,M,M,250.00,12.00,0.00,30.05,M,10.00,M,CLR,M,M,M,M,M,M,M,M,M,M,M,M,M,M,M,K05U 170010Z AUTO 25012KT 210V270 10SM CLR A3005 RMK A01,M
BVU,2024-08-17 00:15,-114.8611,35.9475,671.00,102.20,46.40,15.30,150.00,21.00,0.00,29.80,M,10.00,28.00,CLR,M,M,M,M,M,M,M,M,M,M,M,M,M,M,98.43,KBVU 170015Z AUTO 15021G28KT 10SM CLR 39/08 A2980 RMK AO2,M
RTS,2024-08-17 00:15,-119.8764,39.6682,1539.00,84.20,19.40,9.04,240.00,12.00,0.00,30.05,M,10.00,19.00,CLR,M,M,M,M,M,M,M,M,M,M,M,M,M,M,80.68,KRTS 170015Z AUTO 24012G19KT 10SM CLR 29/M07 A3005 RMK AO2,M
MEV,2024-08-17 00:15,-119.7500,38.9963,1441.42,86.00,28.40,12.44,280.00,14.00,0.00,30.01,M,10.00,M,CLR,M,M,M,M,M,M,M,M,M,M,M,M,M,M,82.54,KMEV 170015Z AUTO 28014KT 10SM CLR 30/M02 A3001 RMK AO2,M
BAM,2024-08-17 00:15,-116.8743,40.5990,1382.36,91.40,28.40,10.48,260.00,10.00,0.00,29.99,M,10.00,16.00,CLR,M,M,M,M,M,M,M,M,M,M,M,M,M,M,86.53,KBAM 170015Z AUTO 26010G16KT 10SM CLR 33/M02 A2999 RMK AO1,M
HTH,2024-08-17 00:15,-118.6315,38.5448,1282.89,93.20,23.00,7.92,320.00,13.00,0.00,29.93,M,10.00,M,CLR,M,M,M,M,M,M,M,M,M,M,M,M,M,M,87.42,KHTH 170015Z AUTO 32013KT 10SM CLR 34/M05 A2993 RMK A01,M
10U,2024-08-17 00:15,-116.1876,41.9532,1637.00,84.20,24.80,11.35,210.00,9.00,0.00,30.06,M,10.00,M,FEW,M,M,M,12000.00,M,M,M,M,M,M,M,M,M,M,81.00,K10U 170015Z AUTO 21009KT 180V240 10SM FEW120 29/M04 A3006 RMK AO2,M
TMT,2024-08-17 00:15,-117.1971,39.4643,1749.34,87.60,24.00,9.85,280.00,4.00,0.00,30.05,M,10.00,M,CLR,M,M,M,M,M,M,M,M,M,M,M,M,M,M,83.35,KTMT 170015Z AUTO 28004KT 10SM CLR 31/M04 A3005 RMK AO2 T03091044,M
05U,2024-08-17 00:30,-116.0051,39.6042,1811.23,M,M,M,260.00,11.00,0.00,30.05,M,10.00,19.00,CLR,M,M,M,M,M,M,M,M,M,M,M,M,M,M,M,K05U 170030Z AUTO 26011G19KT 10SM CLR A3005 RMK A01,M
BVU,2024-08-17 00:35,-114.8611,35.9475,671.00,102.20,46.40,15.30,160.00,18.00,0.00,29.80,M,10.00,25.00,CLR,M,M,M,M,M,M,M,M,M,M,M,M,M,M,98.43,KBVU 170035Z AUTO 16018G25KT 10SM CLR 39/08 A2980 RMK AO2,M
CXP,2024-08-17 00:35,-119.7326,39.1923,1431.00,84.20,30.20,14.18,290.00,14.00,0.00,30.03,M,10.00,22.00,CLR,M,M,M,M,M,M,M,M,M,M,M,M,M,M,81.26,KCXP 170035Z AUTO 29014G22KT 10SM CLR 29/M01 A3003 RMK AO2,M
RTS,2024-08-17 00:35,-119.8764,39.6682,1539.00,82.40,21.20,10.34,250.00,14.00,0.00,30.05,M,10.00,M,CLR,M,M,M,M,M,M,M,M,M,M,M,M,M,M,79.55,KRTS 170035Z AUTO 25014KT 10SM CLR 28/M06 A3005 RMK AO2,M
MEV,2024-08-17 00:35,-119.7500,38.9963,1441.42,86.00,28.40,12.44,270.00,14.00,0.00,30.01,M,10.00,M,CLR,M,M,M,M,M,M,M,M,M,M,M,M,M,M,82.54,KMEV 170035Z AUTO 27014KT 10SM CLR 30/M02 A3001 RMK AO2,M
BAM,2024-08-17 00:35,-116.8743,40.5990,1382.36,91.40,26.60,9.74,270.00,11.00,0.00,29.98,M,10.00,14.00,CLR,M,M,M,M,M,M,M,M,M,M,M,M,M,M,86.36,KBAM 170035Z AUTO 27011G14KT 10SM CLR 33/M03 A2998 RMK AO1,M
HTH,2024-08-17 00:35,-118.6315,38.5448,1282.89,91.40,23.00,8.38,330.00,13.00,0.00,29.93,M,10.00,M,CLR,M,M,M,M,M,M,M,M,M,M,M,M,M,M,86.08,KHTH 170035Z AUTO 33013KT 10SM CLR 33/M05 A2993 RMK A01,M
10U,2024-08-17 00:35,-116.1876,41.9532,1637.00,84.20,24.80,11.35,260.00,7.00,0.00,30.06,M,10.00,14.00,CLR,M,M,M,M,M,M,M,M,M,M,M,M,M,M,81.00,K10U 170035Z AUTO 26007G14KT 230V290 10SM CLR 29/M04 A3006 RMK AO2,M
TMT,2024-08-17 00:35,-117.1971,39.4643,1749.34,87.00,24.00,10.04,320.00,8.00,0.00,30.05,M,5.00,M,SCT,M,M,M,100.00,M,M,M,HZ,M,M,M,M,M,M,82.92,KTMT 170035Z AUTO 32008KT 280V350 5SM HZ SCT001 31/M04 A3005 RMK AO2 T03051045,M
05U,2024-08-17 00:50,-116.0051,39.6042,1811.23,M,M,M,290.00,5.00,0.00,30.04,M,10.00,16.00,CLR,M,M,M,M,M,M,M,M,M,M,M,M,M,M,M,K05U 170050Z AUTO 29005G16KT 10SM CLR A3004 RMK A01,M
P68,2024-08-17 00:53,-116.0056,39.6014,1993.00,90.00,8.00,4.56,290.00,11.00,0.00,30.02,1007.90,M,19.00,M,M,M,M,M,M,M,M,M,M,M,M,M,M,M,84.39,KP68 170053Z AUTO 29011G19KT 32/M13 A3002 RMK AO1 SLP079 T03221133,M
DRA,2024-08-17 00:53,-116.0278,36.6206,1009.00,98.00,35.00,11.16,210.00,17.00,0.00,29.90,1007.50,10.00,24.00,CLR,M,M,M,M,M,M,M,M,M,M,M,28.00,200.00,2024-08-17 00:38,92.63,KDRA 170053Z AUTO 21017G24KT 10SM CLR 37/02 A2990 RMK AO2 PK WND 20028/0038 SLP075 T03670017,M
ELY,2024-08-17 00:53,-114.8453,39.2950,1909.00,88.00,17.00,7.22,180.00,12.00,0.00,30.09,1009.50,10.00,21.00,CLR,M,M,M,M,M,M,M,M,M,M,M,M,M,M,83.26,KELY 170053Z AUTO 18012G21KT 10SM CLR 31/M08 A3009 RMK AO2 SLP095 T03111083,M
VGT,2024-08-17 00:53,-115.1933,36.2111,667.00,107.00,43.00,11.66,220.00,13.00,0.00,29.80,1007.50,10.00,18.00,CLR,M,M,M,M,M,M,M,M,M,M,M,M,M,M,102.15,KVGT 170053Z 22013G18KT 10SM CLR 42/06 A2980 RMK AO2 SLP075 T04170061,M
LOL,2024-08-17 00:53,-118.5701,40.0684,1192.43,90.00,29.00,11.23,180.00,4.00,0.00,29.93,1009.30,10.00,M,CLR,M,M,M,M,M,M,M,M,M,M,M,M,M,M,85.53,KLOL 170053Z AUTO 18004KT 10SM CLR 32/M02 A2993 RMK AO2 SLP093 T03221017,M
BVU,2024-08-17 00:55,-114.8611,35.9475,671.00,102.20,46.40,15.30,150.00,21.00,0.00,29.79,M,10.00,28.00,CLR,M,M,M,M,M,M,M,M,M,M,M,M,M,M,98.43,KBVU 170055Z AUTO 15021G28KT 10SM CLR 39/08 A2979 RMK AO2,M
CXP,2024-08-17 00:55,-119.7326,39.1923,1431.00,84.20,30.20,14.18,280.00,16.00,0.00,30.03,M,10.00,21.00,CLR,M,M,M,M,M,M,M,M,M,M,M,M,M,M,81.26,KCXP 170055Z AUTO 28016G21KT 10SM CLR 29/M01 A3003 RMK AO2,M
RNO,2024-08-17 00:55,-119.7711,39.4839,1341.00,87.00,28.00,11.85,280.00,15.00,0.00,29.98,1009.80,10.00,M,CLR,M,M,M,M,M,M,M,M,M,M,M,M,M,M,83.22,KRNO 170055Z 28015KT 10SM CLR 31/M02 A2998 RMK AO2 SLP098 T03061022,M
RTS,2024-08-17 00:55,-119.8764,39.6682,1539.00,82.40,23.00,11.16,240.00,14.00,0.00,30.05,M,10.00,M,CLR,M,M,M,M,M,M,M,M,M,M,M,M,M,M,79.67,KRTS 170055Z AUTO 24014KT 10SM CLR 28/M05 A3005 RMK AO2,M
MEV,2024-08-17 00:55,-119.7500,38.9963,1441.42,84.20,28.40,13.18,270.00,12.00,0.00,30.01,M,10.00,17.00,CLR,M,M,M,M,M,M,M,M,M,M,M,M,M,M,81.25,KMEV 170055Z AUTO 27012G17KT 10SM CLR 29/M02 A3001 RMK AO2,M
BAM,2024-08-17 00:55,-116.8743,40.5990,1382.36,91.40,24.80,9.04,260.00,9.00,0.00,29.98,M,10.00,M,CLR,M,M,M,M,M,M,M,M,M,M,M,M,M,M,86.21,KBAM 170055Z AUTO 26009KT 10SM CLR 33/M04 A2998 RMK AO1,M
HTH,2024-08-17 00:55,-118.6315,38.5448,1282.89,91.40,24.80,9.04,330.00,13.00,0.00,29.93,M,10.00,M,CLR,M,M,M,M,M,M,M,M,M,M,M,M,M,M,86.21,KHTH 170055Z AUTO 33013KT 10SM CLR 33/M04 A2993 RMK A01,M
10U,2024-08-17 00:55,-116.1876,41.9532,1637.00,84.20,23.00,10.53,300.00,5.00,0.00,30.05,M,10.00,15.00,CLR,M,M,M,M,M,M,M,M,M,M,M,M,M,M,80.88,K10U 170055Z AUTO 30005G15KT 10SM CLR 29/M05 A3005 RMK AO2,M
TMT,2024-08-17 00:55,-117.1971,39.4643,1749.34,87.00,24.00,10.04,270.00,4.00,0.00,30.05,M,10.00,M,CLR,M,M,M,M,M,M,M,M,M,M,M,M,M,M,82.92,KTMT 170055Z AUTO 27004KT 10SM CLR 31/M04 A3005 RMK AO2 T03051045,M
INS,2024-08-17 00:55,-115.6733,36.5872,955.00,100.80,28.80,7.99,220.00,16.00,0.00,29.86,1005.60,10.00,M,CLR,M,M,M,M,M,M,M,M,M,M,M,27.00,220.00,2024-08-17 00:09,94.15,KINS 170055Z AUTO 22016KT 10SM CLR 38/M02 A2986 RMK AO2 PK WND 22027/09 SLP056 T03821018 $,M
LSV,2024-08-17 00:55,-115.0343,36.2362,570.00,105.80,46.40,13.75,190.00,8.00,0.00,29.79,M,10.00,M,FEW,M,M,M,15000.00,M,M,M,M,M,M,M,M,M,M,101.97,KLSV 170055Z 19008KT 10SM FEW150 41/08 A2979 RMK SLPNO AO2A WND DATA ESTMD ALSTG ESTMD,M
EKO,2024-08-17 00:56,-115.7860,40.8242,1367.00,89.00,27.00,10.67,300.00,13.00,0.00,29.99,1009.90,10.00,M,CLR,M,M,M,M,M,M,M,M,M,M,M,M,M,M,84.60,KEKO 170056Z AUTO 30013KT 10SM CLR 32/M03 A2999 RMK AO2 SLP099 T03171028,M
WMC,2024-08-17 00:56,-117.8072,40.9019,1315.00,89.00,24.00,9.42,230.00,11.00,0.00,29.97,1010.30,10.00,22.00,CLR,M,M,M,M,M,M,M,M,M,M,M,M,M,M,84.38,KWMC 170056Z AUTO 23011G22KT 10SM CLR 32/M04 A2997 RMK AO2 SLP103 T03171044,M
HND,2024-08-17 00:56,-115.1344,35.9729,742.79,104.00,49.00,15.99,210.00,10.00,0.00,29.85,1009.10,10.00,18.00,CLR,M,M,M,M,M,M,M,M,M,M,M,M,M,M,100.86,KHND 170056Z 21010G18KT 10SM CLR 40/09 A2985 RMK AO2 SLP091 T04000094,M
TPH,2024-08-17 00:56,-117.0904,38.0505,1654.00,90.00,14.00,5.95,170.00,13.00,0.00,30.03,1009.40,10.00,25.00,CLR,M,M,M,M,M,M,M,M,M,M,M,28.00,180.00,2024-08-17 00:11,84.59,KTPH 170056Z AUTO 17013G25KT 10SM CLR 32/M10 A3003 RMK AO2 PK WND 18028/0011 SLP094 T03221100,M
LAS,2024-08-17 00:56,-115.1634,36.0719,663.00,106.00,45.00,12.96,230.00,11.00,0.00,29.82,1006.40,10.00,18.00,FEW,FEW,M,M,12000.00,20000.00,M,M,M,M,M,M,M,M,M,101.83,KLAS 170056Z 23011G18KT 10SM FEW120 FEW200 41/07 A2982 RMK AO2 SLP064 T04110072,M
NFL,2024-08-17 00:57,-118.7010,39.4166,1199.00,92.00,26.00,9.32,300.00,10.00,0.00,29.92,1010.50,10.00,M,FEW,M,M,M,8000.00,M,M,M,M,M,M,M,M,M,M,86.76,KNFL 170057Z 30010KT 10SM FEW080 33/M03 A2992 RMK AO2 SLP105 T03331033,M
05U,2024-08-17 01:10,-116.0051,39.6042,1811.23,M,M,M,260.00,12.00,0.00,30.04,M,10.00,M,CLR,M,M,M,M,M,M,M,M,M,M,M,M,M,M,M,K05U 170110Z AUTO 26012KT 10SM CLR A3004 RMK A01,M
TMT,2024-08-17 01:15,-117.1971,39.4643,1749.34,84.70,26.40,11.94,360.00,11.00,0.00,30.05,M,10.00,18.00,CLR,M,M,M,M,M,M,M,M,M,M,M,M,M,M,81.46,KTMT 170115Z AUTO 36011G18KT 10SM CLR 29/M03 A3005 RMK AO2 T02931031,M
BVU,2024-08-17 01:15,-114.8611,35.9475,671.00,102.20,48.20,16.37,160.00,20.00,0.00,29.80,M,10.00,M,CLR,M,M,M,M,M,M,M,M,M,M,M,M,M,M,98.83,KBVU 170115Z AUTO 16020KT 10SM CLR 39/09 A2980 RMK AO2,M
CXP,2024-08-17 01:15,-119.7326,39.1923,1431.00,82.40,32.00,16.17,300.00,13.00,0.00,30.02,M,10.00,M,CLR,M,M,M,M,M,M,M,M,M,M,M,M,M,M,80.00,KCXP 170115Z AUTO 30013KT 10SM CLR 28/00 A3002 RMK AO2,M
RTS,2024-08-17 01:15,-119.8764,39.6682,1539.00,82.40,23.00,11.16,250.00,11.00,0.00,30.05,M,10.00,19.00,CLR,M,M,M,M,M,M,M,M,M,M,M,M,M,M,79.67,KRTS 170115Z AUTO 25011G19KT 10SM CLR 28/M05 A3005 RMK AO2,M
MEV,2024-08-17 01:15,-119.7500,38.9963,1441.42,84.20,30.20,14.18,260.00,14.00,0.00,30.01,M,10.00,M,CLR,M,M,M,M,M,M,M,M,M,M,M,M,M,M,81.26,KMEV 170115Z AUTO 26014KT 10SM CLR 29/M01 A3001 RMK AO2,M
BAM,2024-08-17 01:15,-116.8743,40.5990,1382.36,89.60,23.00,8.87,260.00,9.00,0.00,29.98,M,10.00,17.00,CLR,M,M,M,M,M,M,M,M,M,M,M,M,M,M,84.75,KBAM 170115Z AUTO 26009G17KT 10SM CLR 32/M05 A2998 RMK AO1,M
HTH,2024-08-17 01:15,-118.6315,38.5448,1282.89,91.40,24.80,9.04,320.00,12.00,0.00,29.92,M,10.00,17.00,CLR,M,M,M,M,M,M,M,M,M,M,M,M,M,M,86.21,KHTH 170115Z AUTO 32012G17KT 10SM CLR 33/M04 A2992 RMK A01,M
10U,2024-08-17 01:15,-116.1876,41.9532,1637.00,84.20,24.80,11.35,230.00,6.00,0.00,30.05,M,10.00,16.00,CLR,M,M,M,M,M,M,M,M,M,M,M,M,M,M,81.00,K10U 170115Z AUTO 23006G16KT 10SM CLR 29/M04 A3005 RMK AO2,M
05U,2024-08-17 01:30,-116.0051,39.6042,1811.23,M,M,M,280.00,10.00,0.00,30.04,M,10.00,16.00,CLR,M,M,M,M,M,M,M,M,M,M,M,M,M,M,M,K05U 170130Z AUTO 28010G16KT 10SM CLR A3004 RMK A01,M
BVU,2024-08-17 01:35,-114.8611,35.9475,671.00,102.20,48.20,16.37,160.00,18.00,0.00,29.80,M,10.00,24.00,CLR,M,M,M,M,M,M,M,M,M,M,M,M,M,M,98.83,KBVU 170135Z AUTO 16018G24KT 10SM CLR 39/09 A2980 RMK AO2,M
CXP,2024-08-17 01:35,-119.7326,39.1923,1431.00,82.40,32.00,16.17,290.00,12.00,0.00,30.02,M,10.00,18.00,CLR,M,M,M,M,M,M,M,M,M,M,M,M,M,M,80.00,KCXP 170135Z AUTO 29012G18KT 10SM CLR 28/00 A3002 RMK AO2,M
RTS,2024-08-17 01:35,-119.8764,39.6682,1539.00,80.60,24.80,12.76,250.00,12.00,0.00,30.05,M,10.00,18.00,CLR,M,M,M,M,M,M,M,M,M,M,M,M,M,M,78.94,KRTS 170135Z AUTO 25012G18KT 10SM CLR 27/M04 A3005 RMK AO2,M
MEV,2024-08-17 01:35,-119.7500,38.9963,1441.42,82.40,32.00,16.17,270.00,12.00,0.00,30.01,M,10.00,M,CLR,M,M,M,M,M,M,M,M,M,M,M,M,M,M,80.00,KMEV 170135Z AUTO 27012KT 10SM CLR 28/M00 A3001 RMK AO2,M
BAM,2024-08-17 01:35,-116.8743,40.5990,1382.36,89.60,23.00,8.87,280.00,12.00,0.00,29.98,M,10.00,16.00,CLR,M,M,M,M,M,M,M,M,M,M,M,M,M,M,84.75,KBAM 170135Z AUTO 28012G16KT 10SM CLR 32/M05 A2998 RMK AO1,M
HTH,2024-08-17 01:35,-118.6315,38.5448,1282.89,91.40,26.60,9.74,320.00,11.00,0.00,29.93,M,10.00,M,CLR,M,M,M,M,M,M,M,M,M,M,M,M,M,M,86.36,KHTH 170135Z AUTO 32011KT 10SM CLR 33/M03 A2993 RMK A01,M
10U,2024-08-17 01:35,-116.1876,41.9532,1637.00,82.40,24.80,12.03,270.00,5.00,0.00,30.05,M,10.00,12.00,CLR,M,M,M,M,M,M,M,M,M,M,M,M,M,M,79.79,K10U 170135Z AUTO 27005G12KT 10SM CLR 28/M04 A3005 RMK AO2,M
TMT,2024-08-17 01:35,-117.1971,39.4643,1749.34,83.30,26.00,12.29,10.00,12.00,0.00,30.06,M,10.00,M,CLR,M,M,M,M,M,M,M,M,M,M,M,M,M,M,80.47,KTMT 170135Z AUTO 01012KT 10SM CLR 29/M03 A3006 RMK AO2 T02851034,M
05U,2024-08-17 01:50,-116.0051,39.6042,1811.23,M,M,M,300.00,8.00,0.00,30.05,M,10.00,M,CLR,M,M,M,M,M,M,M,M,M,M,M,M,M,M,M,K05U 170150Z AUTO 30008KT 10SM CLR A3005 RMK A01,M
P68,2024-08-17 01:53,-116.0056,39.6014,1993.00,86.00,20.00,8.75,310.00,9.00,0.00,30.02,1008.20,M,M,M,M,M,M,M,M,M,M,M,M,M,M,M,M,M,81.97,KP68 170153Z AUTO 31009KT 30/M07 A3002 RMK AO1 SLP082 T03001067,M
DRA,2024-08-17 01:53,-116.0278,36.6206,1009.00,96.00,36.00,12.35,180.00,15.00,0.00,29.90,1007.30,10.00,24.00,CLR,M,M,M,M,M,M,M,M,M,M,M,26.00,210.00,2024-08-17 01:17,91.13,KDRA 170153Z AUTO 18015G24KT 10SM CLR 36/02 A2990 RMK AO2 PK WND 21026/0117 SLP073 T03560022,M
ELY,2024-08-17 01:53,-114.8453,39.2950,1909.00,84.00,14.00,7.20,190.00,11.00,0.00,30.09,1009.60,10.00,M,CLR,M,M,M,M,M,M,M,M,M,M,M,M,M,M,80.30,KELY 170153Z AUTO 19011KT 10SM CLR 29/M10 A3009 RMK AO2 SLP096 T02891100,M
VGT,2024-08-17 01:53,-115.1933,36.2111,667.00,105.00,42.00,11.90,260.00,14.00,0.00,29.79,1007.40,10.00,18.00,CLR,M,M,M,M,M,M,M,M,M,M,M,M,M,M,100.10,KVGT 170153Z 26014G18KT 10SM CLR 41/06 A2979 RMK AO2 SLP074 T04060056,M
LOL,2024-08-17 01:53,-118.5701,40.0684,1192.43,89.00,30.00,12.07,M,3.00,0.00,29.92,1009.00,10.00,M,CLR,M,M,M,M,M,M,M,M,M,M,M,M,M,M,84.88,KLOL 170153Z AUTO VRB03KT 10SM CLR 32/M01 A2992 RMK AO2 SLP090 T03171011,M
BVU,2024-08-17 01:55,-114.8611,35.9475,671.00,100.40,48.20,17.28,150.00,20.00,0.00,29.80,M,10.00,M,CLR,M,M,M,M,M,M,M,M,M,M,M,M,M,M,97.00,KBVU 170155Z AUTO 15020KT 10SM CLR 38/09 A2980 RMK AO2,M
CXP,2024-08-17 01:55,-119.7326,39.1923,1431.00,80.60,33.80,18.42,280.00,9.00,0.00,30.02,M,10.00,17.00,CLR,M,M,M,M,M,M,M,M,M,M,M,M,M,M,78.88,KCXP 170155Z AUTO 28009G17KT 10SM CLR 27/01 A3002 RMK AO2,M
RNO,2024-08-17 01:55,-119.7711,39.4839,1341.00,85.00,31.00,14.28,270.00,16.00,0.00,29.99,1010.10,10.00,M,CLR,M,M,M,M,M,M,M,M,M,M,M,M,M,M,81.87,KRNO 170155Z 27016KT 10SM CLR 29/M01 A2999 RMK AO2 SLP101 T02941006,M
RTS,2024-08-17 01:55,-119.8764,39.6682,1539.00,80.60,24.80,12.76,250.00,11.00,0.00,30.05,M,10.00,17.00,CLR,M,M,M,M,M,M,M,M,M,M,M,M,M,M,78.94,KRTS 170155Z AUTO 25011G17KT 10SM CLR 27/M04 A3005 RMK AO2,M
MEV,2024-08-17 01:55,-119.7500,38.9963,1441.42,80.60,32.00,17.14,260.00,11.00,0.00,30.01,M,10.00,20.00,CLR,M,M,M,M,M,M,M,M,M,M,M,M,M,M,78.82,KMEV 170155Z AUTO 26011G20KT 10SM CLR 27/00 A3001 RMK AO2,M
BAM,2024-08-17 01:55,-116.8743,40.5990,1382.36,87.80,21.20,8.70,270.00,9.00,0.00,29.97,M,10.00,M,CLR,M,M,M,M,M,M,M,M,M,M,M,M,M,M,83.33,KBAM 170155Z AUTO 27009KT 10SM CLR 31/M06 A2997 RMK AO1,M
HTH,2024-08-17 01:55,-118.6315,38.5448,1282.89,89.60,24.80,9.56,320.00,11.00,0.00,29.93,M,10.00,M,CLR,M,M,M,M,M,M,M,M,M,M,M,M,M,M,84.88,KHTH 170155Z AUTO 32011KT 10SM CLR 32/M04 A2993 RMK A01,M
10U,2024-08-17 01:55,-116.1876,41.9532,1637.00,80.60,23.00,11.83,270.00,7.00,0.00,30.05,M,10.00,M,CLR,M,M,M,M,M,M,M,M,M,M,M,M,M,M,78.80,K10U 170155Z AUTO 27007KT 10SM CLR 27/M05 A3005 RMK AO2,M
TMT,2024-08-17 01:55,-117.1971,39.4643,1749.34,81.50,26.20,13.13,350.00,12.00,0.00,30.06,M,10.00,M,CLR,M,M,M,M,M,M,M,M,M,M,M,M,M,M,79.28,KTMT 170155Z AUTO 35012KT 10SM CLR 28/M03 A3006 RMK AO2 T02751032,M
INS,2024-08-17 01:55,-115.6733,36.5872,955.00,98.20,29.70,8.96,210.00,18.00,0.00,29.87,1006.00,10.00,22.00,CLR,M,M,M,M,M,M,M,M,M,M,M,27.00,230.00,2024-08-17 01:18,92.06,KINS 170155Z AUTO 21018G22KT 10SM CLR 37/M01 A2987 RMK AO2 PK WND 23027/18 SLP060 T03681013 $,M
LSV,2024-08-17 01:55,-115.0343,36.2362,570.00,104.00,46.40,14.50,190.00,10.00,0.00,29.79,M,10.00,M,FEW,M,M,M,15000.00,M,M,M,M,M,M,M,M,M,M,100.21,KLSV 170155Z 19010KT 10SM FEW150 40/08 A2979 RMK AO2A WND DATA ESTMD ALSTG ESTMD,M
EKO,2024-08-17 01:56,-115.7860,40.8242,1367.00,87.00,23.00,9.63,280.00,8.00,0.00,29.99,1010.10,10.00,M,CLR,M,M,M,M,M,M,M,M,M,M,M,M,M,M,82.86,KEKO 170156Z AUTO 28008KT 10SM CLR 31/M05 A2999 RMK AO2 SLP101 T03061050,M
WMC,2024-08-17 01:56,-117.8072,40.9019,1315.00,86.00,24.00,10.37,240.00,8.00,0.00,29.96,1010.30,10.00,M,CLR,M,M,M,M,M,M,M,M,M,M,M,M,M,M,82.21,KWMC 170156Z AUTO 24008KT 10SM CLR 30/M04 A2996 RMK AO2 SLP103 T03001044,M
HND,2024-08-17 01:56,-115.1344,35.9729,742.79,102.00,49.00,16.97,220.00,11.00,0.00,29.85,1008.90,10.00,M,CLR,M,M,M,M,M,M,M,M,M,M,M,M,M,M,98.82,KHND 170156Z 22011KT 10SM CLR 39/09 A2985 RMK AO2 SLP089 T03890094,M
TPH,2024-08-17 01:56,-117.0904,38.0505,1654.00,87.00,15.00,6.84,180.00,19.00,0.00,30.04,1009.30,10.00,26.00,CLR,M,M,M,M,M,M,M,M,M,M,M,32.00,170.00,2024-08-17 01:03,82.46,KTPH 170156Z AUTO 18019G26KT 10SM CLR 31/M09 A3004 RMK AO2 PK WND 17032/0103 SLP093 T03061094,M
LAS,2024-08-17 01:56,-115.1634,36.0719,663.00,105.00,44.00,12.85,240.00,10.00,0.00,29.82,1006.40,10.00,18.00,FEW,SCT,M,M,12000.00,20000.00,M,M,M,M,M,M,M,M,M,100.64,KLAS 170156Z 24010G18KT 10SM FEW120 SCT200 41/07 A2982 RMK AO2 SLP064 T04060067,M
NFL,2024-08-17 01:57,-118.7010,39.4166,1199.00,91.00,27.00,10.02,330.00,12.00,0.00,29.91,1010.40,10.00,M,FEW,M,M,M,8000.00,M,M,M,M,M,M,M,M,M,M,86.10,KNFL 170157Z 33012KT 10SM FEW080 33/M03 A2991 RMK AO2 SLP104 T03281028,M
CXP,2024-08-17 02:10,-119.7326,39.1923,1431.00,80.60,33.80,18.42,270.00,14.00,0.00,30.02,M,10.00,19.00,CLR,M,M,M,M,M,M,M,M,M,M,M,M,M,M,78.88,KCXP 170210Z AUTO 27014G19KT 230V290 10SM CLR 27/01 A3002 RMK AO2,M
05U,2024-08-17 02:10,-116.0051,39.6042,1811.23,M,M,M,320.00,3.00,0.00,30.06,M,10.00,13.00,CLR,M,M,M,M,M,M,M,M,M,M,M,M,M,M,M,K05U 170210Z AUTO 32003G13KT 10SM CLR A3006 RMK A01,M
BVU,2024-08-17 02:15,-114.8611,35.9475,671.00,100.40,48.20,17.28,150.00,19.00,0.00,29.80,M,10.00,26.00,CLR,M,M,M,M,M,M,M,M,M,M,M,M,M,M,97.00,KBVU 170215Z AUTO 15019G26KT 10SM CLR 38/09 A2980 RMK AO2,M
RTS,2024-08-17 02:15,-119.8764,39.6682,1539.00,78.80,24.80,13.54,240.00,9.00,0.00,30.06,M,10.00,14.00,CLR,M,M,M,M,M,M,M,M,M,M,M,M,M,M,78.80,KRTS 170215Z AUTO 24009G14KT 10SM CLR 26/M04 A3006 RMK AO2,M
MEV,2024-08-17 02:15,-119.7500,38.9963,1441.42,78.80,35.60,21.00,260.00,15.00,0.00,30.01,M,10.00,M,CLR,M,M,M,M,M,M,M,M,M,M,M,M,M,M,78.80,KMEV 170215Z AUTO 26015KT 10SM CLR 26/02 A3001 RMK AO2,M
BAM,2024-08-17 02:15,-116.8743,40.5990,1382.36,86.00,21.20,9.21,270.00,10.00,0.00,29.98,M,10.00,M,CLR,M,M,M,M,M,M,M,M,M,M,M,M,M,M,82.04,KBAM 170215Z AUTO 27010KT 10SM CLR 30/M06 A2998 RMK AO1,M
HTH,2024-08-17 02:15,-118.6315,38.5448,1282.89,87.80,26.60,10.91,320.00,11.00,0.00,29.93,M,10.00,M,CLR,M,M,M,M,M,M,M,M,M,M,M,M,M,M,83.69,KHTH 170215Z AUTO 32011KT 10SM CLR 31/M03 A2993 RMK A01,M
10U,2024-08-17 02:15,-116.1876,41.9532,1637.00,78.80,23.00,12.55,290.00,6.00,0.00,30.06,M,9.00,M,CLR,M,M,M,M,M,M,M,M,M,M,M,M,M,M,78.80,K10U 170215Z AUTO 29006KT 9SM CLR 26/M05 A3006 RMK AO2,M
TMT,2024-08-17 02:15,-117.1971,39.4643,1749.34,79.50,26.60,14.25,360.00,8.00,0.00,30.07,M,10.00,M,CLR,M,M,M,M,M,M,M,M,M,M,M,M,M,M,79.50,KTMT 170215Z AUTO 36008KT 10SM CLR 26/M03 A3007 RMK AO2 T02641030,M
MEV,2024-08-17 02:25,-119.7500,38.9963,1441.42,77.00,37.40,23.93,260.00,11.00,0.00,30.01,M,10.00,M,CLR,M,M,M,M,M,M,M,M,M,M,M,M,M,M,77.00,KMEV 170225Z AUTO 26011KT 10SM CLR 25/03 A3001 RMK AO2,M
05U,2024-08-17 02:30,-116.0051,39.6042,1811.23,M,M,M,0.00,0.00,0.00,30.07,M,10.00,M,CLR,M,M,M,M,M,M,M,M,M,M,M,M,M,M,M,K05U 170230Z AUTO 00000KT 10SM CLR A3007 RMK A01,M
BVU,2024-08-17 02:35,-114.8611,35.9475,671.00,100.40,48.20,17.28,150.00,18.00,0.00,29.80,M,10.00,M,CLR,M,M,M,M,M,M,M,M,M,M,M,M,M,M,97.00,KBVU 170235Z AUTO 15018KT 10SM CLR 38/09 A2980 RMK AO2,M
CXP,2024-08-17 02:35,-119.7326,39.1923,1431.00,77.00,35.60,22.28,280.00,10.00,0.00,30.02,M,10.00,21.00,CLR,M,M,M,M,M,M,M,M,M,M,M,M,M,M,77.00,KCXP 170235Z AUTO 28010G21KT 10SM CLR 25/02 A3002 RMK AO2,M
BAM,2024-08-17 02:35,-116.8743,40.5990,1382.36,84.20,21.20,9.76,280.00,6.00,0.00,29.98,M,10.00,M,CLR,M,M,M,M,M,M,M,M,M,M,M,M,M,M,80.77,KBAM 170235Z AUTO 28006KT 10SM CLR 29/M06 A2998 RMK AO1,M
HTH,2024-08-17 02:35,-118.6315,38.5448,1282.89,86.00,28.40,12.44,320.00,10.00,0.00,29.93,M,10.00,M,CLR,M,M,M,M,M,M,M,M,M,M,M,M,M,M,82.54,KHTH 170235Z AUTO 32010KT 10SM CLR 30/M02 A2993 RMK A01,M
10U,2024-08-17 02:35,-116.1876,41.9532,1637.00,75.20,24.80,15.25,280.00,5.00,0.00,30.06,M,10.00,M,CLR,M,M,M,M,M,M,M,M,M,M,M,M,M,M,75.20,K10U 170235Z AUTO 28005KT 10SM CLR 24/M04 A3006 RMK AO2,M
TMT,2024-08-17 02:35,-117.1971,39.4643,1749.34,76.60,25.70,15.11,360.00,7.00,0.00,30.08,M,10.00,M,CLR,M,M,M,M,M,M,M,M,M,M,M,M,M,M,76.60,KTMT 170235Z AUTO 36007KT 10SM CLR 25/M03 A3008 RMK AO2 T02481035,M
05U,2024-08-17 02:50,-116.0051,39.6042,1811.23,M,M,M,0.00,0.00,0.00,30.08,M,10.00,M,CLR,M,M,M,M,M,M,M,M,M,M,M,M,M,M,M,K05U 170250Z AUTO 00000KT 10SM CLR A3008 RMK A01,M
P68,2024-08-17 02:53,-116.0056,39.6014,1993.00,75.00,24.00,14.85,0.00,0.00,0.00,30.06,1009.90,M,M,M,M,M,M,M,M,M,M,M,M,M,M,M,M,M,75.00,KP68 170253Z AUTO 00000KT 24/M04 A3006 RMK AO1 SLP099 T02391044 53010,M
DRA,2024-08-17 02:53,-116.0278,36.6206,1009.00,93.00,37.00,14.09,180.00,10.00,0.00,29.91,1007.40,10.00,M,CLR,M,M,M,M,M,M,M,M,M,M,M,M,M,M,88.63,KDRA 170253Z AUTO 18010KT 10SM CLR 34/03 A2991 RMK AO2 SLP074 T03390028 55002,M
ELY,2024-08-17 02:53,-114.8453,39.2950,1909.00,74.00,15.00,10.45,170.00,10.00,0.00,30.11,1010.10,10.00,M,CLR,M,M,M,M,M,M,M,M,M,M,M,M,M,M,74.00,KELY 170253Z AUTO 17010KT 10SM CLR 23/M09 A3011 RMK AO2 SLP101 T02331094 53003,M
VGT,2024-08-17 02:53,-115.1933,36.2111,667.00,102.00,41.00,12.52,250.00,9.00,0.00,29.81,1007.90,10.00,M,CLR,M,M,M,M,M,M,M,M,M,M,M,M,M,M,97.21,KVGT 170253Z 25009KT 10SM CLR 39/05 A2981 RMK AO2 SLP079 T03890050 55000,M
LOL,2024-08-17 02:53,-118.5701,40.0684,1192.43,80.00,34.00,18.94,50.00,4.00,T,29.92,1009.20,10.00,M,CLR,M,M,M,M,M,M,M,-RA,M,M,M,M,M,M,78.59,KLOL 170253Z AUTO 05004KT 10SM -RA CLR 27/01 A2992 RMK AO2 RAB45 SLP092 P0000 60000 T02670011 56007,M
RTS,2024-08-17 02:55,-119.8764,39.6682,1539.00,75.20,24.80,15.25,260.00,15.00,0.00,30.05,M,10.00,M,CLR,M,M,M,M,M,M,M,M,M,M,M,M,M,M,75.20,KRTS 170255Z AUTO 26015KT 10SM CLR 24/M04 A3005 RMK AO2,M
MEV,2024-08-17 02:55,-119.7500,38.9963,1441.42,75.20,39.20,27.26,260.00,13.00,0.00,30.01,M,10.00,M,CLR,M,M,M,M,M,M,M,M,M,M,M,M,M,M,75.20,KMEV 170255Z AUTO 26013KT 10SM CLR 24/04 A3001 RMK AO2,M
BAM,2024-08-17 02:55,-116.8743,40.5990,1382.36,80.60,21.20,10.97,0.00,0.00,0.00,29.99,M,10.00,M,CLR,M,M,M,M,M,M,M,M,M,M,M,M,M,M,78.68,KBAM 170255Z AUTO 00000KT 10SM CLR 27/M06 A2999 RMK AO1,M
HTH,2024-08-17 02:55,-118.6315,38.5448,1282.89,84.20,26.60,12.23,310.00,10.00,0.00,29.93,M,10.00,M,CLR,M,M,M,M,M,M,M,M,M,M,M,M,M,M,81.13,KHTH 170255Z AUTO 31010KT 10SM CLR 29/M03 A2993 RMK A01,M
10U,2024-08-17 02:55,-116.1876,41.9532,1637.00,71.60,23.00,15.97,300.00,6.00,0.00,30.06,M,10.00,M,CLR,M,M,M,M,M,M,M,M,M,M,M,M,M,M,71.60,K10U 170255Z AUTO 30006KT 10SM CLR 22/M05 A3006 RMK AO2,M
BVU,2024-08-17 02:55,-114.8611,35.9475,671.00,98.60,48.20,18.25,170.00,11.00,0.00,29.81,M,10.00,M,CLR,M,M,M,M,M,M,M,M,M,M,M,M,M,M,95.17,KBVU 170255Z AUTO 17011KT 10SM CLR 37/09 A2981 RMK AO2,M
CXP,2024-08-17 02:55,-119.7326,39.1923,1431.00,77.00,33.80,20.74,250.00,7.00,0.00,30.03,M,10.00,15.00,CLR,M,M,M,M,M,M,M,M,M,M,M,M,M,M,77.00,KCXP 170255Z AUTO 25007G15KT 10SM CLR 25/01 A3003 RMK AO2,M
RNO,2024-08-17 02:55,-119.7711,39.4839,1341.00,81.00,33.00,17.61,270.00,10.00,0.00,29.99,1010.30,10.00,M,CLR,M,M,M,M,M,M,M,M,M,M,M,M,M,M,79.10,KRNO 170255Z 27010KT 10SM CLR 27/01 A2999 RMK AO2 SLP103 T02720006 53001,M
TMT,2024-08-17 02:55,-117.1971,39.4643,1749.34,73.40,25.30,16.54,30.00,4.00,0.00,30.08,M,10.00,M,CLR,M,M,M,M,M,M,M,M,M,M,M,M,M,M,73.40,KTMT 170255Z AUTO 03004KT 10SM CLR 23/M04 A3008 RMK AO2 T02301037,M
INS,2024-08-17 02:55,-115.6733,36.5872,955.00,95.40,30.20,9.97,190.00,9.00,0.00,29.88,1006.10,10.00,M,CLR,M,M,M,M,M,M,M,M,M,M,M,M,M,M,89.80,KINS 170255Z AUTO 19009KT 10SM CLR 35/M01 A2988 RMK AO2 SLP061 T03521010 53003 $,M
LSV,2024-08-17 02:55,-115.0343,36.2362,570.00,102.20,42.80,13.34,230.00,5.00,0.00,29.80,M,10.00,M,FEW,M,M,M,15000.00,M,M,M,M,M,M,M,M,M,M,97.76,KLSV 170255Z 23005KT 10SM FEW150 39/06 A2980 RMK SLPNO AO2A WND DATA ESTMD ALSTG ESTMD,M
TPH,2024-08-17 02:56,-117.0904,38.0505,1654.00,82.00,15.00,8.03,170.00,12.00,0.00,30.05,1009.50,10.00,M,CLR,M,M,M,M,M,M,M,M,M,M,M,27.00,170.00,2024-08-17 02:10,78.97,KTPH 170256Z AUTO 17012KT 10SM CLR 28/M09 A3005 RMK AO2 PK WND 17027/0210 SLP095 T02781094 53003,M
LAS,2024-08-17 02:56,-115.1634,36.0719,663.00,103.00,44.00,13.64,240.00,7.00,0.00,29.83,1006.70,10.00,M,FEW,BKN,M,M,12000.00,20000.00,M,M,M,M,M,M,M,M,M,98.74,KLAS 170256Z 24007KT 10SM FEW120 BKN200 39/07 A2983 RMK AO2 SLP067 T03940067 55000,M
EKO,2024-08-17 02:56,-115.7860,40.8242,1367.00,78.00,24.00,13.44,310.00,8.00,0.00,30.00,1010.80,10.00,M,CLR,M,M,M,M,M,M,M,M,M,M,M,M,M,M,78.00,KEKO 170256Z AUTO 31008KT 10SM CLR 26/M04 A3000 RMK AO2 SLP108 T02561044 53004,M
WMC,2024-08-17 02:56,-117.8072,40.9019,1315.00,74.00,30.00,19.67,280.00,7.00,0.00,29.97,1010.80,10.00,M,CLR,M,M,M,M,M,M,M,M,M,M,M,M,M,M,74.00,KWMC 170256Z AUTO 28007KT 10SM CLR 23/M01 A2997 RMK AO2 SLP108 T02331011 55001,M
HND,2024-08-17 02:56,-115.1344,35.9729,742.79,100.00,50.00,18.71,210.00,10.00,0.00,29.86,1009.20,10.00,M,CLR,M,M,M,M,M,M,M,M,M,M,M,M,M,M,97.00,KHND 170256Z 21010KT 10SM CLR 38/10 A2986 RMK AO2 SLP092 T03780100 55000,M
NFL,2024-08-17 02:57,-118.7010,39.4166,1199.00,85.00,32.00,14.86,290.00,8.00,0.00,29.92,1010.60,10.00,M,CLR,M,M,M,M,M,M,M,M,M,M,M,M,M,M,81.87,KNFL 170257Z 29008KT 10SM CLR 29/00 A2992 RMK AO2 SLP106 T02940000 55003,M
05U,2024-08-17 03:10,-116.0051,39.6042,1811.23,M,M,M,0.00,0.00,0.00,30.10,M,10.00,M,CLR,M,M,M,M,M,M,M,M,M,M,M,M,M,M,M,K05U 170310Z AUTO 00000KT 10SM CLR A3010 RMK A01,M
BVU,2024-08-17 03:15,-114.8611,35.9475,671.00,98.60,50.00,19.52,160.00,13.00,0.00,29.81,M,10.00,M,CLR,M,M,M,M,M,M,M,M,M,M,M,M,M,M,95.56,KBVU 170315Z AUTO 16013KT 10SM CLR 37/10 A2981 RMK AO2,M
CXP,2024-08-17 03:15,-119.7326,39.1923,1431.00,75.20,35.60,23.66,270.00,6.00,0.00,30.03,M,10.00,M,CLR,M,M,M,M,M,M,M,M,M,M,M,M,M,M,75.20,KCXP 170315Z AUTO 27006KT 10SM CLR 24/02 A3003 RMK AO2,M
RTS,2024-08-17 03:15,-119.8764,39.6682,1539.00,73.40,24.80,16.20,270.00,15.00,0.00,30.05,M,10.00,M,CLR,M,M,M,M,M,M,M,M,M,M,M,M,M,M,73.40,KRTS 170315Z AUTO 27015KT 10SM CLR 23/M04 A3005 RMK AO2,M
MEV,2024-08-17 03:15,-119.7500,38.9963,1441.42,73.40,39.20,28.96,260.00,8.00,0.00,30.01,M,10.00,M,CLR,M,M,M,M,M,M,M,M,M,M,M,M,M,M,73.40,KMEV 170315Z AUTO 26008KT 10SM CLR 23/04 A3001 RMK AO2,M
BAM,2024-08-17 03:15,-116.8743,40.5990,1382.36,77.00,26.60,15.48,340.00,4.00,0.00,29.99,M,10.00,M,CLR,M,M,M,M,M,M,M,M,M,M,M,M,M,M,77.00,KBAM 170315Z AUTO 34004KT 10SM CLR 25/M03 A2999 RMK AO1,M
HTH,2024-08-17 03:15,-118.6315,38.5448,1282.89,84.20,28.40,13.18,310.00,12.00,0.00,29.94,M,10.00,M,CLR,M,M,M,M,M,M,M,M,M,M,M,M,M,M,81.25,KHTH 170315Z AUTO 31012KT 10SM CLR 29/M02 A2994 RMK A01,M
10U,2024-08-17 03:15,-116.1876,41.9532,1637.00,64.40,23.00,20.46,280.00,4.00,0.00,30.06,M,10.00,M,CLR,M,M,M,M,M,M,M,M,M,M,M,M,M,M,64.40,K10U 170315Z AUTO 28004KT 10SM CLR 18/M05 A3006 RMK AO2,M
TMT,2024-08-17 03:15,-117.1971,39.4643,1749.34,70.70,24.80,17.75,30.00,3.00,0.00,30.09,M,10.00,M,CLR,M,M,M,M,M,M,M,M,M,M,M,M,M,M,70.70,KTMT 170315Z AUTO 03003KT 10SM CLR 22/M04 A3009 RMK AO2 T02151040,M
05U,2024-08-17 03:30,-116.0051,39.6042,1811.23,M,M,M,0.00,0.00,0.00,30.10,M,10.00,M,CLR,M,M,M,M,M,M,M,M,M,M,M,M,M,M,M,K05U 170330Z AUTO 00000KT 10SM CLR A3010 RMK A01,M
BVU,2024-08-17 03:35,-114.8611,35.9475,671.00,98.60,50.00,19.52,170.00,9.00,0.00,29.82,M,10.00,18.00,CLR,M,M,M,M,M,M,M,M,M,M,M,M,M,M,95.56,KBVU 170335Z AUTO 17009G18KT 10SM CLR 37/10 A2982 RMK AO2,M
CXP,2024-08-17 03:35,-119.7326,39.1923,1431.00,75.20,35.60,23.66,280.00,5.00,0.00,30.03,M,10.00,M,CLR,M,M,M,M,M,M,M,M,M,M,M,M,M,M,75.20,KCXP 170335Z AUTO 28005KT 10SM CLR 24/02 A3003 RMK AO2,M
RTS,2024-08-17 03:35,-119.8764,39.6682,1539.00,73.40,24.80,16.20,260.00,15.00,0.00,30.05,M,10.00,24.00,CLR,M,M,M,M,M,M,M,M,M,M,M,M,M,M,73.40,KRTS 170335Z AUTO 26015G24KT 10SM CLR 23/M04 A3005 RMK AO2,M
MEV,2024-08-17 03:35,-119.7500,38.9963,1441.42,69.80,41.00,35.09,M,4.00,0.00,30.02,M,10.00,M,CLR,M,M,M,M,M,M,M,M,M,M,M,M,M,M,69.80,KMEV 170335Z AUTO VRB04KT 10SM CLR 21/05 A3002 RMK AO2,M
BAM,2024-08-17 03:35,-116.8743,40.5990,1382.36,73.40,30.20,20.23,310.00,7.00,0.00,29.99,M,10.00,M,CLR,M,M,M,M,M,M,M,M,M,M,M,M,M,M,73.40,KBAM 170335Z AUTO 31007KT 10SM CLR 23/M01 A2999 RMK AO1,M
HTH,2024-08-17 03:35,-118.6315,38.5448,1282.89,84.20,33.80,16.39,320.00,14.00,0.00,29.95,M,10.00,19.00,CLR,M,M,M,M,M,M,M,M,M,M,M,M,M,M,81.30,KHTH 170335Z AUTO 32014G19KT 10SM CLR 29/01 A2995 RMK A01,M
10U,2024-08-17 03:35,-116.1876,41.9532,1637.00,64.40,28.40,25.60,140.00,5.00,0.00,30.07,M,10.00,M,CLR,M,M,M,M,M,M,M,M,M,M,M,M,M,M,64.40,K10U 170335Z AUTO 14005KT 10SM CLR 18/M02 A3007 RMK AO2,M
TMT,2024-08-17 03:35,-117.1971,39.4643,1749.34,59.40,23.00,24.41,70.00,4.00,0.00,30.09,M,10.00,M,CLR,M,M,M,M,M,M,M,M,M,M,M,M,M,M,59.40,KTMT 170335Z AUTO 07004KT 10SM CLR 15/M05 A3009 RMK AO2 T01521051,M
05U,2024-08-17 03:50,-116.0051,39.6042,1811.23,M,M,M,0.00,0.00,0.00,30.11,M,10.00,M,CLR,M,M,M,M,M,M,M,M,M,M,M,M,M,M,M,K05U 170350Z AUTO 00000KT 10SM CLR A3011 RMK A01,M
P68,2024-08-17 03:53,-116.0056,39.6014,1993.00,66.00,29.00,24.81,210.00,4.00,0.00,30.09,1011.20,M,M,M,M,M,M,M,M,M,M,M,M,M,M,M,M,M,66.00,KP68 170353Z AUTO 21004KT 19/M02 A3009 RMK AO1 SLP112 T01891017,M
DRA,2024-08-17 03:53,-116.0278,36.6206,1009.00,90.00,38.00,16.10,190.00,5.00,0.00,29.91,1007.30,10.00,M,CLR,M,M,M,M,M,M,M,M,M,M,M,M,M,M,86.03,KDRA 170353Z AUTO 19005KT 10SM CLR 32/03 A2991 RMK AO2 SLP073 T03220033,M
ELY,2024-08-17 03:53,-114.8453,39.2950,1909.00,73.00,10.00,8.67,160.00,9.00,0.00,30.13,1009.00,10.00,M,CLR,M,M,M,M,M,M,M,M,M,M,M,M,M,M,73.00,KELY 170353Z AUTO 16009KT 10SM CLR 23/M12 A3013 RMK AO2 SLP090 T02281122,M
VGT,2024-08-17 03:53,-115.1933,36.2111,667.00,100.00,42.00,13.82,260.00,4.00,0.00,29.82,1008.20,10.00,M,CLR,M,M,M,M,M,M,M,M,M,M,M,M,M,M,95.54,KVGT 170353Z AUTO 26004KT 10SM CLR 38/06 A2982 RMK AO2 SLP082 T03780056,M
LOL,2024-08-17 03:53,-118.5701,40.0684,1192.43,76.00,28.00,16.95,320.00,4.00,T,29.93,1009.60,10.00,M,CLR,M,M,M,M,M,M,M,M,M,M,M,M,M,M,76.00,KLOL 170353Z AUTO 32004KT 10SM CLR 24/M02 A2993 RMK AO2 RAE0259 SLP096 P0000 T02441022,M
BVU,2024-08-17 03:55,-114.8611,35.9475,671.00,96.80,50.00,20.62,170.00,7.00,0.00,29.83,M,10.00,M,CLR,M,M,M,M,M,M,M,M,M,M,M,M,M,M,93.71,KBVU 170355Z AUTO 17007KT 10SM CLR 36/10 A2983 RMK AO2,M
CXP,2024-08-17 03:55,-119.7326,39.1923,1431.00,73.40,35.60,25.13,90.00,6.00,0.00,30.04,M,10.00,M,CLR,M,M,M,M,M,M,M,M,M,M,M,M,M,M,73.40,KCXP 170355Z AUTO 09006KT 10SM CLR 23/02 A3004 RMK AO2,M
RNO,2024-08-17 03:55,-119.7711,39.4839,1341.00,78.00,36.00,21.90,290.00,16.00,0.00,30.00,1010.60,10.00,22.00,CLR,M,M,M,M,M,M,M,M,M,M,M,M,M,M,78.00,KRNO 170355Z 29016G22KT 10SM CLR 26/02 A3000 RMK AO2 SLP106 T02560022,M
RTS,2024-08-17 03:55,-119.8764,39.6682,1539.00,73.40,26.60,17.46,250.00,11.00,0.00,30.06,M,10.00,17.00,CLR,M,M,M,M,M,M,M,M,M,M,M,M,M,M,73.40,KRTS 170355Z AUTO 25011G17KT 10SM CLR 23/M03 A3006 RMK AO2,M
MEV,2024-08-17 03:55,-119.7500,38.9963,1441.42,69.80,39.20,32.72,M,4.00,0.00,30.03,M,10.00,M,CLR,M,M,M,M,M,M,M,M,M,M,M,M,M,M,69.80,KMEV 170355Z AUTO VRB04KT 10SM CLR 21/04 A3003 RMK AO2,M
BAM,2024-08-17 03:55,-116.8743,40.5990,1382.36,71.60,30.20,21.50,300.00,7.00,0.00,30.00,M,10.00,M,CLR,M,M,M,M,M,M,M,M,M,M,M,M,M,M,71.60,KBAM 170355Z AUTO 30007KT 10SM CLR 22/M01 A3000 RMK AO1,M
HTH,2024-08-17 03:55,-118.6315,38.5448,1282.89,80.60,41.00,24.46,320.00,12.00,0.00,29.96,M,10.00,M,CLR,M,M,M,M,M,M,M,M,M,M,M,M,M,M,79.20,KHTH 170355Z AUTO 32012KT 10SM CLR 27/05 A2996 RMK A01,M
10U,2024-08-17 03:55,-116.1876,41.9532,1637.00,62.60,30.20,29.35,100.00,4.00,0.00,30.08,M,10.00,M,CLR,M,M,M,M,M,M,M,M,M,M,M,M,M,M,62.60,K10U 170355Z AUTO 10004KT 10SM CLR 17/M01 A3008 RMK AO2,M
TMT,2024-08-17 03:55,-117.1971,39.4643,1749.34,60.60,22.50,22.90,120.00,4.00,0.00,30.09,M,10.00,M,CLR,M,M,M,M,M,M,M,M,M,M,M,M,M,M,60.60,KTMT 170355Z AUTO 12004KT 10SM CLR 16/M05 A3009 RMK AO2 T01591053,M
INS,2024-08-17 03:55,-115.6733,36.5872,955.00,93.20,33.00,11.95,190.00,5.00,0.00,29.90,1006.40,10.00,M,CLR,M,M,M,M,M,M,M,M,M,M,M,M,M,M,88.44,KINS 170355Z AUTO 19005KT 10SM CLR 34/01 A2990 RMK AO2 SLP064 T03400006 $,M
LSV,2024-08-17 03:55,-115.0343,36.2362,570.00,98.60,44.60,15.93,M,6.00,0.00,29.82,M,10.00,M,FEW,M,M,M,15000.00,M,M,M,M,M,M,M,M,M,M,94.55,KLSV 170355Z VRB06KT 10SM FEW150 37/07 A2982 RMK SLPNO AO2A WND DATA ESTMD ALSTG ESTMD,M
EKO,2024-08-17 03:56,-115.7860,40.8242,1367.00,75.00,22.00,13.65,0.00,0.00,0.00,30.02,1011.00,10.00,M,CLR,M,M,M,M,M,M,M,M,M,M,M,M,M,M,75.00,KEKO 170356Z AUTO 00000KT 10SM CLR 24/M06 A3002 RMK AO2 SLP110 T02391056,M
WMC,2024-08-17 03:56,-117.8072,40.9019,1315.00,68.00,28.00,22.23,0.00,0.00,0.00,29.97,1010.70,10.00,M,CLR,M,M,M,M,M,M,M,M,M,M,M,M,M,M,68.00,KWMC 170356Z AUTO 00000KT 10SM CLR 20/M02 A2997 RMK AO2 SLP107 T02001022,M
HND,2024-08-17 03:56,-115.1344,35.9729,742.79,98.00,52.00,21.41,190.00,11.00,0.00,29.87,1009.50,10.00,M,CLR,M,M,M,M,M,M,M,M,M,M,M,M,M,M,95.42,KHND 170356Z AUTO 19011KT 10SM CLR 37/11 A2987 RMK AO2 SLP095 T03670111,M
TPH,2024-08-17 03:56,-117.0904,38.0505,1654.00,76.00,14.00,9.36,180.00,7.00,0.00,30.06,1009.80,10.00,M,CLR,M,M,M,M,M,M,M,M,M,M,M,M,M,M,76.00,KTPH 170356Z AUTO 18007KT 10SM CLR 24/M10 A3006 RMK AO2 SLP098 T02441100,M
LAS,2024-08-17 03:56,-115.1634,36.0719,663.00,101.00,47.00,16.22,220.00,6.00,0.00,29.84,1007.10,10.00,M,FEW,BKN,M,M,12000.00,20000.00,M,M,M,M,M,M,M,M,M,97.35,KLAS 170356Z 22006KT 10SM FEW120 BKN200 38/08 A2984 RMK AO2 SLP071 T03830083,M
NFL,2024-08-17 03:57,-118.7010,39.4166,1199.00,80.00,32.00,17.48,290.00,9.00,0.00,29.93,1010.90,10.00,M,CLR,M,M,M,M,M,M,M,M,M,M,M,M,M,M,78.52,KNFL 170357Z 29009KT 10SM CLR 27/00 A2993 RMK AO2 SLP109 T02670000,M
LSV,2024-08-17 04:07,-115.0343,36.2362,570.00,98.60,44.60,15.93,M,6.00,0.00,29.82,M,10.00,M,FEW,M,M,M,15000.00,M,M,M,M,M,M,M,M,M,M,94.55,KLSV 170407Z VRB06KT 10SM FEW150 37/07 A2982 RMK SLPNO AO2A WND DATA ESTMD ALSTG ESTMD,M
05U,2024-08-17 04:10,-116.0051,39.6042,1811.23,M,M,M,0.00,0.00,0.00,30.12,M,10.00,M,CLR,M,M,M,M,M,M,M,M,M,M,M,M,M,M,M,K05U 170410Z AUTO 00000KT 10SM CLR A3012 RMK A01,M
BVU,2024-08-17 04:15,-114.8611,35.9475,671.00,96.80,50.00,20.62,180.00,8.00,0.00,29.83,M,10.00,15.00,CLR,M,M,M,M,M,M,M,M,M,M,M,M,M,M,93.71,KBVU 170415Z AUTO 18008G15KT 10SM CLR 36/10 A2983 RMK AO2,M
CXP,2024-08-17 04:15,-119.7326,39.1923,1431.00,73.40,35.60,25.13,M,6.00,0.00,30.04,M,10.00,M,CLR,M,M,M,M,M,M,M,M,M,M,M,M,M,M,73.40,KCXP 170415Z AUTO VRB06KT 310V010 10SM CLR 23/02 A3004 RMK AO2,M
RTS,2024-08-17 04:15,-119.8764,39.6682,1539.00,69.80,32.00,24.59,340.00,8.00,0.00,30.07,M,10.00,M,CLR,M,M,M,M,M,M,M,M,M,M,M,M,M,M,69.80,KRTS 170415Z AUTO 34008KT 10SM CLR 21/M00 A3007 RMK AO2,M
MEV,2024-08-17 04:15,-119.7500,38.9963,1441.42,68.00,41.00,37.32,M,5.00,0.00,30.03,M,10.00,M,CLR,M,M,M,M,M,M,M,M,M,M,M,M,M,M,68.00,KMEV 170415Z AUTO VRB05KT 10SM CLR 20/05 A3003 RMK AO2,M
BAM,2024-08-17 04:15,-116.8743,40.5990,1382.36,71.60,32.00,23.13,330.00,8.00,0.00,30.00,M,10.00,M,CLR,M,M,M,M,M,M,M,M,M,M,M,M,M,M,71.60,KBAM 170415Z AUTO 33008KT 10SM CLR 22/00 A3000 RMK AO1,M
HTH,2024-08-17 04:15,-118.6315,38.5448,1282.89,80.60,37.40,21.25,M,M,0.00,29.97,M,10.00,M,CLR,M,M,M,M,M,M,M,M,M,M,M,M,M,M,79.02,KHTH 170415Z AUTO 10SM CLR 27/03 A2997 RMK A01,M
10U,2024-08-17 04:15,-116.1876,41.9532,1637.00,59.00,28.40,30.98,M,3.00,0.00,30.08,M,10.00,M,CLR,M,M,M,M,M,M,M,M,M,M,M,M,M,M,59.00,K10U 170415Z AUTO VRB03KT 10SM CLR 15/M02 A3008 RMK AO2,M
TMT,2024-08-17 04:15,-117.1971,39.4643,1749.34,57.70,23.00,25.95,170.00,4.00,0.00,30.10,M,10.00,M,CLR,M,M,M,M,M,M,M,M,M,M,M,M,M,M,57.70,KTMT 170415Z AUTO 17004KT 10SM CLR 14/M05 A3010 RMK AO2 T01431051,M
05U,2024-08-17 04:30,-116.0051,39.6042,1811.23,M,M,M,0.00,0.00,0.00,30.12,M,10.00,M,CLR,M,M,M,M,M,M,M,M,M,M,M,M,M,M,M,K05U 170430Z AUTO 00000KT 10SM CLR A3012 RMK A01,M
BVU,2024-08-17 04:35,-114.8611,35.9475,671.00,96.80,50.00,20.62,160.00,7.00,0.00,29.83,M,10.00,M,CLR,M,M,M,M,M,M,M,M,M,M,M,M,M,M,93.71,KBVU 170435Z AUTO 16007KT 10SM CLR 36/10 A2983 RMK AO2,M
CXP,2024-08-17 04:35,-119.7326,39.1923,1431.00,73.40,35.60,25.13,0.00,0.00,0.00,30.05,M,10.00,M,CLR,M,M,M,M,M,M,M,M,M,M,M,M,M,M,73.40,KCXP 170435Z AUTO 00000KT 10SM CLR 23/02 A3005 RMK AO2,M
RTS,2024-08-17 04:35,-119.8764,39.6682,1539.00,68.00,33.80,28.11,320.00,5.00,0.00,30.07,M,10.00,M,CLR,M,M,M,M,M,M,M,M,M,M,M,M,M,M,68.00,KRTS 170435Z AUTO 32005KT 10SM CLR 20/01 A3007 RMK AO2,M
MEV,2024-08-17 04:35,-119.7500,38.9963,1441.42,69.80,37.40,30.49,210.00,5.00,0.00,30.04,M,10.00,13.00,CLR,M,M,M,M,M,M,M,M,M,M,M,M,M,M,69.80,KMEV 170435Z AUTO 21005G13KT 10SM CLR 21/03 A3004 RMK AO2,M
BAM,2024-08-17 04:35,-116.8743,40.5990,1382.36,68.00,30.20,24.32,0.00,0.00,0.00,30.01,M,10.00,M,CLR,M,M,M,M,M,M,M,M,M,M,M,M,M,M,68.00,KBAM 170435Z AUTO 00000KT 10SM CLR 20/M01 A3001 RMK AO1,M
HTH,2024-08-17 04:35,-118.6315,38.5448,1282.89,80.60,30.20,15.94,340.00,10.00,0.00,29.98,M,10.00,M,M,M,M,M,M,M,M,M,M,M,M,M,M,M,M,78.77,KHTH 170435Z AUTO 34010KT 10SM 27/M01 A2998 RMK A01,M
10U,2024-08-17 04:35,-116.1876,41.9532,1637.00,66.20,35.60,32.14,290.00,4.00,0.00,30.08,M,10.00,M,CLR,M,M,M,M,M,M,M,M,M,M,M,M,M,M,66.20,K10U 170435Z AUTO 29004KT 10SM CLR 19/02 A3008 RMK AO2,M
TMT,2024-08-17 04:35,-117.1971,39.4643,1749.34,57.00,22.30,25.84,130.00,3.00,0.00,30.10,M,10.00,M,CLR,M,M,M,M,M,M,M,M,M,M,M,M,M,M,57.00,KTMT 170435Z AUTO 13003KT 10SM CLR 14/M05 A3010 RMK AO2 T01391054,M
05U,2024-08-17 04:50,-116.0051,39.6042,1811.23,M,M,M,0.00,0.00,0.00,30.13,M,10.00,M,CLR,M,M,M,M,M,M,M,M,M,M,M,M,M,M,M,K05U 170450Z AUTO 00000KT 10SM CLR A3013 RMK A01,M
P68,2024-08-17 04:53,-116.0056,39.6014,1993.00,60.00,23.00,23.90,200.00,6.00,0.00,30.10,1011.30,M,M,M,M,M,M,M,M,M,M,M,M,M,M,M,M,M,60.00,KP68 170453Z AUTO 20006KT 16/M05 A3010 RMK AO1 SLP113 T01561050,M
DRA,2024-08-17 04:53,-116.0278,36.6206,1009.00,86.00,37.00,17.57,0.00,0.00,0.00,29.91,1007.10,10.00,M,CLR,M,M,M,M,M,M,M,M,M,M,M,M,M,M,82.72,KDRA 170453Z AUTO 00000KT 10SM CLR 30/03 A2991 RMK AO2 SLP071 T03000028,M
ELY,2024-08-17 04:53,-114.8453,39.2950,1909.00,64.00,14.00,14.10,190.00,9.00,0.00,30.13,1009.30,10.00,M,CLR,M,M,M,M,M,M,M,M,M,M,M,M,M,M,64.00,KELY 170453Z AUTO 19009KT 10SM CLR 18/M10 A3013 RMK AO2 SLP093 T01781100,M
VGT,2024-08-17 04:53,-115.1933,36.2111,667.00,99.00,44.00,15.38,210.00,4.00,0.00,29.83,1008.40,10.00,M,CLR,M,M,M,M,M,M,M,M,M,M,M,M,M,M,94.85,KVGT 170453Z AUTO 21004KT 10SM CLR 37/07 A2983 RMK AO2 SLP084 T03720067,M
LOL,2024-08-17 04:53,-118.5701,40.0684,1192.43,71.00,27.00,19.25,310.00,4.00,0.00,29.94,1010.00,10.00,M,CLR,M,M,M,M,M,M,M,M,M,M,M,M,M,M,71.00,KLOL 170453Z AUTO 31004KT 10SM CLR 22/M03 A2994 RMK AO2 SLP100 T02171028,M
BVU,2024-08-17 04:55,-114.8611,35.9475,671.00,95.00,50.00,21.79,170.00,7.00,0.00,29.84,M,10.00,M,CLR,M,M,M,M,M,M,M,M,M,M,M,M,M,M,91.89,KBVU 170455Z AUTO 17007KT 10SM CLR 35/10 A2984 RMK AO2,M
CXP,2024-08-17 04:55,-119.7326,39.1923,1431.00,71.60,35.60,26.71,0.00,0.00,0.00,30.05,M,10.00,M,CLR,M,M,M,M,M,M,M,M,M,M,M,M,M,M,71.60,KCXP 170455Z AUTO 00000KT 10SM CLR 22/02 A3005 RMK AO2,M
RNO,2024-08-17 04:55,-119.7711,39.4839,1341.00,75.00,38.00,26.18,280.00,13.00,0.00,30.01,1010.90,10.00,M,CLR,M,M,M,M,M,M,M,M,M,M,M,M,M,M,75.00,KRNO 170455Z 28013KT 10SM CLR 24/03 A3001 RMK AO2 SLP109 T02390033,M
RTS,2024-08-17 04:55,-119.8764,39.6682,1539.00,68.00,32.00,26.15,250.00,8.00,0.00,30.07,M,10.00,17.00,CLR,M,M,M,M,M,M,M,M,M,M,M,M,M,M,68.00,KRTS 170455Z AUTO 25008G17KT 10SM CLR 20/00 A3007 RMK AO2,M
MEV,2024-08-17 04:55,-119.7500,38.9963,1441.42,73.40,33.80,23.39,M,3.00,0.00,30.03,M,10.00,M,CLR,M,M,M,M,M,M,M,M,M,M,M,M,M,M,73.40,KMEV 170455Z AUTO VRB03KT 10SM CLR 23/01 A3003 RMK AO2,M
BAM,2024-08-17 04:55,-116.8743,40.5990,1382.36,68.00,32.00,26.15,0.00,0.00,0.00,30.01,M,10.00,M,CLR,M,M,M,M,M,M,M,M,M,M,M,M,M,M,68.00,KBAM 170455Z AUTO 00000KT 10SM CLR 20/00 A3001 RMK AO1,M
HTH,2024-08-17 04:55,-118.6315,38.5448,1282.89,80.60,28.40,14.81,330.00,6.00,0.00,29.98,M,10.00,12.00,M,M,M,M,M,M,M,M,M,M,M,M,M,M,M,78.72,KHTH 170455Z AUTO 33006G12KT 10SM 27/M02 A2998 RMK A01,M
10U,2024-08-17 04:55,-116.1876,41.9532,1637.00,60.80,33.80,36.16,300.00,4.00,0.00,30.08,M,10.00,M,CLR,M,M,M,M,M,M,M,M,M,M,M,M,M,M,60.80,K10U 170455Z AUTO 30004KT 10SM CLR 16/01 A3008 RMK AO2,M
TMT,2024-08-17 04:55,-117.1971,39.4643,1749.34,54.30,22.30,28.50,0.00,0.00,0.00,30.10,M,10.00,M,CLR,M,M,M,M,M,M,M,M,M,M,M,M,M,M,54.30,KTMT 170455Z AUTO 00000KT 10SM CLR 12/M05 A3010 RMK AO2 T01241054,M
LSV,2024-08-17 04:55,-115.0343,36.2362,570.00,98.60,46.40,17.05,M,6.00,0.00,29.82,M,10.00,M,FEW,M,M,M,15000.00,M,M,M,M,M,M,M,M,M,M,94.84,KLSV 170455Z VRB06KT 10SM FEW150 37/08 A2982 RMK SLPNO AO2A WND DATA ESTMD ALSTG ESTMD,M
INS,2024-08-17 04:55,-115.6733,36.5872,955.00,87.30,32.00,13.81,310.00,3.00,0.00,29.90,1006.40,10.00,M,CLR,M,M,M,M,M,M,M,M,M,M,M,M,M,M,83.68,KINS 170455Z AUTO 31003KT 10SM CLR 31/00 A2990 RMK AO2 SLP064 T03070001 $,M
EKO,2024-08-17 04:56,-115.7860,40.8242,1367.00,68.00,25.00,19.63,0.00,0.00,0.00,30.02,1011.10,10.00,M,CLR,M,M,M,M,M,M,M,M,M,M,M,M,M,M,68.00,KEKO 170456Z AUTO 00000KT 10SM CLR 20/M04 A3002 RMK AO2 SLP111 T02001039,M
WMC,2024-08-17 04:56,-117.8072,40.9019,1315.00,63.00,27.00,25.38,230.00,5.00,0.00,29.97,1010.60,10.00,M,CLR,M,M,M,M,M,M,M,M,M,M,M,M,M,M,63.00,KWMC 170456Z AUTO 23005KT 10SM CLR 17/M03 A2997 RMK AO2 SLP106 T01721028,M
HND,2024-08-17 04:56,-115.1344,35.9729,742.79,97.00,54.00,23.75,180.00,13.00,0.00,29.88,1009.60,10.00,M,CLR,M,M,M,M,M,M,M,M,M,M,M,M,M,M,94.92,KHND 170456Z AUTO 18013KT 10SM CLR 36/12 A2988 RMK AO2 SLP096 T03610122,M
TPH,2024-08-17 04:56,-117.0904,38.0505,1654.00,77.00,12.00,8.29,150.00,8.00,0.00,30.06,1009.50,10.00,18.00,CLR,M,M,M,M,M,M,M,M,M,M,M,M,M,M,77.00,KTPH 170456Z AUTO 15008G18KT 10SM CLR 25/M11 A3006 RMK AO2 SLP095 T02501111,M
LAS,2024-08-17 04:56,-115.1634,36.0719,663.00,100.00,52.00,20.15,190.00,7.00,0.00,29.85,1007.20,10.00,M,FEW,BKN,M,M,12000.00,20000.00,M,M,M,M,M,M,M,M,M,97.53,KLAS 170456Z 19007KT 10SM FEW120 BKN200 38/11 A2985 RMK AO2 SLP072 T03780111,M
LSV,2024-08-17 04:56,-115.0343,36.2362,570.00,98.60,46.40,17.05,M,6.00,0.00,29.82,M,10.00,M,FEW,M,M,M,15000.00,M,M,M,M,M,M,M,M,M,M,94.84,KLSV 170456Z VRB06KT 10SM FEW150 37/08 A2982 RMK SLPNO AO2A WND DATA ESTMD ALSTG ESTMD,M
NFL,2024-08-17 04:57,-118.7010,39.4166,1199.00,75.00,32.00,20.63,290.00,7.00,0.00,29.95,1011.30,10.00,M,CLR,M,M,M,M,M,M,M,M,M,M,M,M,M,M,75.00,KNFL 170457Z 29007KT 10SM CLR 24/00 A2995 RMK AO2 SLP113 T02390000,M
05U,2024-08-17 05:10,-116.0051,39.6042,1811.23,M,M,M,0.00,0.00,0.00,30.13,M,10.00,M,CLR,M,M,M,M,M,M,M,M,M,M,M,M,M,M,M,K05U 170510Z AUTO 00000KT 10SM CLR A3013 RMK A01,M
BVU,2024-08-17 05:15,-114.8611,35.9475,671.00,95.00,50.00,21.79,170.00,10.00,0.00,29.84,M,10.00,M,CLR,M,M,M,M,M,M,M,M,M,M,M,M,M,M,91.89,KBVU 170515Z AUTO 17010KT 10SM CLR 35/10 A2984 RMK AO2,M
CXP,2024-08-17 05:15,-119.7326,39.1923,1431.00,68.00,37.40,32.43,70.00,4.00,0.00,30.05,M,10.00,M,CLR,M,M,M,M,M,M,M,M,M,M,M,M,M,M,68.00,KCXP 170515Z AUTO 07004KT 10SM CLR 20/03 A3005 RMK AO2,M
RTS,2024-08-17 05:15,-119.8764,39.6682,1539.00,68.00,33.80,28.11,270.00,10.00,0.00,30.07,M,10.00,M,CLR,M,M,M,M,M,M,M,M,M,M,M,M,M,M,68.00,KRTS 170515Z AUTO 27010KT 10SM CLR 20/01 A3007 RMK AO2,M
MEV,2024-08-17 05:15,-119.7500,38.9963,1441.42,60.80,39.20,44.76,80.00,9.00,0.00,30.04,M,10.00,M,CLR,M,M,M,M,M,M,M,M,M,M,M,M,M,M,60.80,KMEV 170515Z AUTO 08009KT 10SM CLR 16/04 A3004 RMK AO2,M
BAM,2024-08-17 05:15,-116.8743,40.5990,1382.36,64.40,28.40,25.60,130.00,4.00,0.00,30.01,M,10.00,M,CLR,M,M,M,M,M,M,M,M,M,M,M,M,M,M,64.40,KBAM 170515Z AUTO 13004KT 10SM CLR 18/M02 A3001 RMK AO1,M
HTH,2024-08-17 05:15,-118.6315,38.5448,1282.89,77.00,35.60,22.28,310.00,8.00,0.00,29.98,M,10.00,M,CLR,M,M,M,M,M,M,M,M,M,M,M,M,M,M,77.00,KHTH 170515Z AUTO 31008KT 10SM CLR 25/02 A2998 RMK A01,M
10U,2024-08-17 05:15,-116.1876,41.9532,1637.00,57.20,35.60,44.19,0.00,0.00,0.00,30.07,M,10.00,M,CLR,M,M,M,M,M,M,M,M,M,M,M,M,M,M,57.20,K10U 170515Z AUTO 00000KT 10SM CLR 14/02 A3007 RMK AO2,M
TMT,2024-08-17 05:15,-117.1971,39.4643,1749.34,56.70,24.00,28.05,270.00,3.00,0.00,30.10,M,10.00,M,CLR,M,M,M,M,M,M,M,M,M,M,M,M,M,M,56.70,KTMT 170515Z AUTO 27003KT 10SM CLR 14/M04 A3010 RMK AO2 T01371044,M
05U,2024-08-17 05:30,-116.0051,39.6042,1811.23,M,M,M,0.00,0.00,0.00,30.13,M,10.00,M,CLR,M,M,M,M,M,M,M,M,M,M,M,M,M,M,M,K05U 170530Z AUTO 00000KT 10SM CLR A3013 RMK A01,M
BVU,2024-08-17 05:35,-114.8611,35.9475,671.00,95.00,53.60,24.89,170.00,9.00,0.00,29.84,M,10.00,M,CLR,M,M,M,M,M,M,M,M,M,M,M,M,M,M,92.71,KBVU 170535Z AUTO 17009KT 10SM CLR 35/12 A2984 RMK AO2,M
CXP,2024-08-17 05:35,-119.7326,39.1923,1431.00,66.20,37.40,34.51,70.00,4.00,0.00,30.05,M,10.00,M,CLR,M,M,M,M,M,M,M,M,M,M,M,M,M,M,66.20,KCXP 170535Z AUTO 07004KT 10SM CLR 19/03 A3005 RMK AO2,M
RTS,2024-08-17 05:35,-119.8764,39.6682,1539.00,66.20,33.80,29.92,260.00,13.00,0.00,30.07,M,10.00,M,CLR,M,M,M,M,M,M,M,M,M,M,M,M,M,M,66.20,KRTS 170535Z AUTO 26013KT 10SM CLR 19/01 A3007 RMK AO2,M
MEV,2024-08-17 05:35,-119.7500,38.9963,1441.42,60.80,37.40,41.71,90.00,5.00,0.00,30.03,M,10.00,M,CLR,M,M,M,M,M,M,M,M,M,M,M,M,M,M,60.80,KMEV 170535Z AUTO 09005KT 10SM CLR 16/03 A3003 RMK AO2,M
BAM,2024-08-17 05:35,-116.8743,40.5990,1382.36,60.80,23.00,23.23,200.00,4.00,0.00,30.01,M,10.00,M,CLR,M,M,M,M,M,M,M,M,M,M,M,M,M,M,60.80,KBAM 170535Z AUTO 20004KT 10SM CLR 16/M05 A3001 RMK AO1,M
HTH,2024-08-17 05:35,-118.6315,38.5448,1282.89,77.00,33.80,20.74,280.00,8.00,0.00,29.98,M,10.00,M,CLR,M,M,M,M,M,M,M,M,M,M,M,M,M,M,77.00,KHTH 170535Z AUTO 28008KT 10SM CLR 25/01 A2998 RMK A01,M
10U,2024-08-17 05:35,-116.1876,41.9532,1637.00,55.40,35.60,47.16,290.00,3.00,0.00,30.08,M,10.00,M,CLR,M,M,M,M,M,M,M,M,M,M,M,M,M,M,55.40,K10U 170535Z AUTO 29003KT 10SM CLR 13/02 A3008 RMK AO2,M
TMT,2024-08-17 05:35,-117.1971,39.4643,1749.34,55.60,23.40,28.47,290.00,4.00,0.00,30.10,M,10.00,M,CLR,M,M,M,M,M,M,M,M,M,M,M,M,M,M,55.60,KTMT 170535Z AUTO 29004KT 10SM CLR 13/M05 A3010 RMK AO2 T01311048,M
05U,2024-08-17 05:50,-116.0051,39.6042,1811.23,M,M,M,0.00,0.00,0.00,30.13,M,10.00,M,CLR,M,M,M,M,M,M,M,M,M,M,M,M,M,M,M,K05U 170550Z AUTO 00000KT 10SM CLR A3013 RMK A01,M
P68,2024-08-17 05:53,-116.0056,39.6014,1993.00,60.00,24.00,24.92,M,3.00,0.00,30.11,1011.10,M,M,M,M,M,M,M,M,M,M,M,M,M,M,M,M,M,60.00,KP68 170553Z AUTO VRB03KT 16/M04 A3011 RMK AO1 SLP111 T01561044 10333 20144 51015,M
DRA,2024-08-17 05:53,-116.0278,36.6206,1009.00,84.00,39.00,20.27,80.00,8.00,0.00,29.92,1007.10,10.00,M,CLR,M,M,M,M,M,M,M,M,M,M,M,M,M,M,81.29,KDRA 170553Z AUTO 08008KT 10SM CLR 29/04 A2992 RMK AO2 SLP071 T02890039 10378 20283 51003,M
ELY,2024-08-17 05:53,-114.8453,39.2950,1909.00,63.00,17.00,16.64,200.00,10.00,0.00,30.15,1009.70,10.00,M,CLR,M,M,M,M,M,M,M,M,M,M,M,M,M,M,63.00,KELY 170553Z AUTO 20010KT 10SM CLR 17/M08 A3015 RMK AO2 SLP097 T01721083 10317 20161 51010,M
VGT,2024-08-17 05:53,-115.1933,36.2111,667.00,98.00,54.00,23.04,200.00,8.00,0.00,29.83,1008.40,10.00,M,CLR,M,M,M,M,M,M,M,M,M,M,M,M,M,M,95.99,KVGT 170553Z AUTO 20008KT 10SM CLR 37/12 A2983 RMK AO2 SLP084 T03670122 10422 20367 51007,M
LOL,2024-08-17 05:53,-118.5701,40.0684,1192.43,62.00,34.00,34.93,140.00,6.00,0.00,29.95,1010.50,10.00,M,CLR,M,M,M,M,M,M,M,M,M,M,M,M,M,M,62.00,KLOL 170553Z AUTO 14006KT 10SM CLR 17/01 A2995 RMK AO2 SLP105 60000 T01670011 10322 20161 51008,M
BVU,2024-08-17 05:55,-114.8611,35.9475,671.00,95.00,51.80,23.30,180.00,8.00,0.00,29.84,M,10.00,M,CLR,M,M,M,M,M,M,M,M,M,M,M,M,M,M,92.26,KBVU 170555Z AUTO 18008KT 10SM CLR 35/11 A2984 RMK AO2,M
CXP,2024-08-17 05:55,-119.7326,39.1923,1431.00,66.20,37.40,34.51,80.00,5.00,0.00,30.05,M,10.00,M,CLR,M,M,M,M,M,M,M,M,M,M,M,M,M,M,66.20,KCXP 170555Z AUTO 08005KT 10SM CLR 19/03 A3005 RMK AO2,M
RNO,2024-08-17 05:55,-119.7711,39.4839,1341.00,73.00,38.00,28.00,M,3.00,0.00,30.02,1010.80,10.00,M,CLR,M,M,M,M,M,M,M,M,M,M,M,M,M,M,73.00,KRNO 170555Z VRB03KT 10SM CLR 23/03 A3002 RMK AO2 SLP108 T02280033 10317 20228 51008,M
RTS,2024-08-17 05:55,-119.8764,39.6682,1539.00,66.20,33.80,29.92,250.00,15.00,0.00,30.06,M,10.00,M,CLR,M,M,M,M,M,M,M,M,M,M,M,M,M,M,66.20,KRTS 170555Z AUTO 25015KT 10SM CLR 19/01 A3006 RMK AO2,M
MEV,2024-08-17 05:55,-119.7500,38.9963,1441.42,60.80,35.60,38.85,0.00,0.00,0.00,30.03,M,10.00,M,CLR,M,M,M,M,M,M,M,M,M,M,M,M,M,M,60.80,KMEV 170555Z AUTO 00000KT 10SM CLR 16/02 A3003 RMK AO2,M
BAM,2024-08-17 05:55,-116.8743,40.5990,1382.36,60.80,24.80,25.04,0.00,0.00,0.00,30.00,M,10.00,M,CLR,M,M,M,M,M,M,M,M,M,M,M,M,M,M,60.80,KBAM 170555Z AUTO 00000KT 10SM CLR 16/M04 A3000 RMK AO1,M
HTH,2024-08-17 05:55,-118.6315,38.5448,1282.89,77.00,35.60,22.28,280.00,6.00,0.00,29.98,M,10.00,M,CLR,M,M,M,M,M,M,M,M,M,M,M,M,M,M,77.00,KHTH 170555Z AUTO 28006KT 10SM CLR 25/02 A2998 RMK A01,M
10U,2024-08-17 05:55,-116.1876,41.9532,1637.00,55.40,35.60,47.16,270.00,4.00,0.00,30.08,M,10.00,M,CLR,M,M,M,M,M,M,M,M,M,M,M,M,M,M,55.40,K10U 170555Z AUTO 27004KT 10SM CLR 13/02 A3008 RMK AO2,M
TMT,2024-08-17 05:55,-117.1971,39.4643,1749.34,51.40,21.40,30.52,220.00,3.00,0.00,30.10,M,10.00,M,CLR,M,M,M,M,M,M,M,M,M,M,M,M,M,M,51.40,KTMT 170555Z AUTO 22003KT 10SM CLR 11/M06 A3010 RMK AO2 T01081059 10310 20108,M
INS,2024-08-17 05:55,-115.6733,36.5872,955.00,85.60,32.70,15.00,0.00,0.00,0.00,29.90,1006.30,10.00,M,CLR,M,M,M,M,M,M,M,M,M,M,M,M,M,M,82.34,KINS 170555Z AUTO 00000KT 10SM CLR 30/00 A2990 RMK AO2 SLP063 T02980004 10390 20298 51004 $,M
EKO,2024-08-17 05:56,-115.7860,40.8242,1367.00,64.00,26.00,23.51,0.00,0.00,0.00,30.03,1011.30,10.00,M,CLR,M,M,M,M,M,M,M,M,M,M,M,M,M,M,64.00,KEKO 170556Z AUTO 00000KT 10SM CLR 18/M03 A3003 RMK AO2 SLP113 T01781033 10328 20172 51009,M
WMC,2024-08-17 05:56,-117.8072,40.9019,1315.00,60.00,24.00,24.92,330.00,4.00,0.00,29.97,1010.40,10.00,M,CLR,M,M,M,M,M,M,M,M,M,M,M,M,M,M,60.00,KWMC 170556Z AUTO 33004KT 10SM CLR 16/M04 A2997 RMK AO2 SLP104 T01561044 10322 20156 50001,M
HND,2024-08-17 05:56,-115.1344,35.9729,742.79,95.00,54.00,25.26,200.00,14.00,0.00,29.89,1009.80,10.00,M,CLR,M,M,M,M,M,M,M,M,M,M,M,M,M,M,92.82,KHND 170556Z AUTO 20014KT 10SM CLR 35/12 A2989 RMK AO2 SLP098 T03500122 10406 20350 51008,M
TPH,2024-08-17 05:56,-117.0904,38.0505,1654.00,70.00,11.00,10.04,90.00,6.00,0.00,30.07,1010.10,10.00,M,CLR,M,M,M,M,M,M,M,M,M,M,M,M,M,M,70.00,KTPH 170556Z AUTO 09006KT 10SM CLR 21/M12 A3007 RMK AO2 SLP101 T02111117 10333 20211 51007,M
LAS,2024-08-17 05:56,-115.1634,36.0719,663.00,99.00,53.00,21.54,180.00,9.00,0.00,29.85,1007.30,10.00,M,FEW,BKN,M,M,12000.00,20000.00,M,M,M,M,M,M,M,M,M,96.76,KLAS 170556Z 18009KT 10SM FEW120 BKN200 37/12 A2985 RMK AO2 SLP073 T03720117 10422 20372 51007,M
NFL,2024-08-17 05:57,-118.7010,39.4166,1199.00,68.00,31.00,25.12,M,5.00,0.00,29.95,1011.50,10.00,M,CLR,M,M,M,M,M,M,M,M,M,M,M,M,M,M,68.00,KNFL 170557Z VRB05KT 10SM CLR 20/M01 A2995 RMK AO2 SLP115 T02001006 10344 20200 51010,M
LSV,2024-08-17 06:00,-115.0343,36.2362,570.00,98.00,53.40,22.54,150.00,12.00,0.00,29.83,1004.20,10.00,M,SCT,M,M,M,14000.00,M,M,M,M,M,M,M,M,M,M,95.81,KLSV 170600Z 15012KT 10SM SCT140 37/12 A2983 RMK A02A SLP042 WND DATA ESTMD T03670119,M
05U,2024-08-17 06:10,-116.0051,39.6042,1811.23,M,M,M,0.00,0.00,0.00,30.13,M,10.00,M,CLR,M,M,M,M,M,M,M,M,M,M,M,M,M,M,M,K05U 170610Z AUTO 00000KT 10SM CLR A3013 RMK A01,M
BVU,2024-08-17 06:15,-114.8611,35.9475,671.00,95.00,51.80,23.30,190.00,7.00,0.00,29.84,M,10.00,M,CLR,M,M,M,M,M,M,M,M,M,M,M,M,M,M,92.26,KBVU 170615Z AUTO 19007KT 10SM CLR 35/11 A2984 RMK AO2,M
CXP,2024-08-17 06:15,-119.7326,39.1923,1431.00,64.40,37.40,36.74,120.00,4.00,0.00,30.05,M,10.00,M,CLR,M,M,M,M,M,M,M,M,M,M,M,M,M,M,64.40,KCXP 170615Z AUTO 12004KT 10SM CLR 18/03 A3005 RMK AO2,M
RTS,2024-08-17 06:15,-119.8764,39.6682,1539.00,66.20,33.80,29.92,260.00,16.00,0.00,30.06,M,10.00,M,CLR,M,M,M,M,M,M,M,M,M,M,M,M,M,M,66.20,KRTS 170615Z AUTO 26016KT 10SM CLR 19/01 A3006 RMK AO2,M
MEV,2024-08-17 06:15,-119.7500,38.9963,1441.42,60.80,35.60,38.85,100.00,7.00,0.00,30.03,M,10.00,M,CLR,M,M,M,M,M,M,M,M,M,M,M,M,M,M,60.80,KMEV 170615Z AUTO 10007KT 10SM CLR 16/02 A3003 RMK AO2,M
BAM,2024-08-17 06:15,-116.8743,40.5990,1382.36,59.00,23.00,24.76,140.00,5.00,0.00,30.01,M,10.00,M,CLR,M,M,M,M,M,M,M,M,M,M,M,M,M,M,59.00,KBAM 170615Z AUTO 14005KT 10SM CLR 15/M05 A3001 RMK AO1,M
HTH,2024-08-17 06:15,-118.6315,38.5448,1282.89,77.00,33.80,20.74,290.00,8.00,0.00,29.98,M,10.00,M,CLR,M,M,M,M,M,M,M,M,M,M,M,M,M,M,77.00,KHTH 170615Z AUTO 29008KT 10SM CLR 25/01 A2998 RMK A01,M
10U,2024-08-17 06:15,-116.1876,41.9532,1637.00,55.40,37.40,50.64,230.00,5.00,0.00,30.08,M,10.00,M,CLR,M,M,M,M,M,M,M,M,M,M,M,M,M,M,55.40,K10U 170615Z AUTO 23005KT 10SM CLR 13/03 A3008 RMK AO2,M
TMT,2024-08-17 06:15,-117.1971,39.4643,1749.34,47.50,18.00,30.53,160.00,7.00,0.00,30.10,M,10.00,M,CLR,M,M,M,M,M,M,M,M,M,M,M,M,M,M,43.67,KTMT 170615Z AUTO 16007KT 10SM CLR 09/M08 A3010 RMK AO2 T00861077,M
05U,2024-08-17 06:30,-116.0051,39.6042,1811.23,M,M,M,0.00,0.00,0.00,30.13,M,10.00,M,CLR,M,M,M,M,M,M,M,M,M,M,M,M,M,M,M,K05U 170630Z AUTO 00000KT 10SM CLR A3013 RMK A01,M
RTS,2024-08-17 06:35,-119.8764,39.6682,1539.00,64.40,35.60,34.22,260.00,12.00,0.00,30.06,M,10.00,M,CLR,M,M,M,M,M,M,M,M,M,M,M,M,M,M,64.40,KRTS 170635Z AUTO 26012KT 10SM CLR 18/02 A3006 RMK AO2,M
MEV,2024-08-17 06:35,-119.7500,38.9963,1441.42,62.60,35.60,36.45,140.00,6.00,0.00,30.03,M,10.00,M,CLR,M,M,M,M,M,M,M,M,M,M,M,M,M,M,62.60,KMEV 170635Z AUTO 14006KT 10SM CLR 17/02 A3003 RMK AO2,M
BAM,2024-08-17 06:35,-116.8743,40.5990,1382.36,60.80,23.00,23.23,0.00,0.00,0.00,30.01,M,10.00,M,CLR,M,M,M,M,M,M,M,M,M,M,M,M,M,M,60.80,KBAM 170635Z AUTO 00000KT 10SM CLR 16/M05 A3001 RMK AO1,M
HTH,2024-08-17 06:35,-118.6315,38.5448,1282.89,75.20,33.80,22.02,300.00,9.00,0.00,29.98,M,10.00,M,CLR,M,M,M,M,M,M,M,M,M,M,M,M,M,M,75.20,KHTH 170635Z AUTO 30009KT 10SM CLR 24/01 A2998 RMK A01,M
10U,2024-08-17 06:35,-116.1876,41.9532,1637.00,57.20,39.20,50.91,270.00,7.00,0.00,30.07,M,10.00,M,CLR,M,M,M,M,M,M,M,M,M,M,M,M,M,M,57.20,K10U 170635Z AUTO 27007KT 10SM CLR 14/04 A3007 RMK AO2,M
TMT,2024-08-17 06:35,-117.1971,39.4643,1749.34,52.00,21.00,29.35,200.00,6.00,0.00,30.10,M,10.00,M,CLR,M,M,M,M,M,M,M,M,M,M,M,M,M,M,52.00,KTMT 170635Z AUTO 20006KT 10SM CLR 11/M06 A3010 RMK AO2 T01111062,M
BVU,2024-08-17 06:35,-114.8611,35.9475,671.00,93.20,51.80,24.63,180.00,5.00,0.00,29.84,M,10.00,M,CLR,M,M,M,M,M,M,M,M,M,M,M,M,M,M,90.45,KBVU 170635Z AUTO 18005KT 10SM CLR 34/11 A2984 RMK AO2,M
CXP,2024-08-17 06:35,-119.7326,39.1923,1431.00,62.60,37.40,39.14,90.00,4.00,0.00,30.05,M,10.00,M,CLR,M,M,M,M,M,M,M,M,M,M,M,M,M,M,62.60,KCXP 170635Z AUTO 09004KT 10SM CLR 17/03 A3005 RMK AO2,M
05U,2024-08-17 06:50,-116.0051,39.6042,1811.23,M,M,M,0.00,0.00,0.00,30.13,M,10.00,M,CLR,M,M,M,M,M,M,M,M,M,M,M,M,M,M,M,K05U 170650Z AUTO 00000KT 10SM CLR A3013 RMK A01,M
P68,2024-08-17 06:53,-116.0056,39.6014,1993.00,53.00,21.00,28.29,230.00,3.00,0.00,30.11,1010.90,M,M,M,M,M,M,M,M,M,M,M,M,M,M,M,M,M,53.00,KP68 170653Z AUTO 23003KT 12/M06 A3011 RMK AO1 SLP109 T01171061,M
DRA,2024-08-17 06:53,-116.0278,36.6206,1009.00,86.00,39.00,19.01,230.00,6.00,0.00,29.93,1007.30,10.00,M,CLR,M,M,M,M,M,M,M,M,M,M,M,M,M,M,82.78,KDRA 170653Z AUTO 23006KT 10SM CLR 30/04 A2993 RMK AO2 SLP073 T03000039,M
ELY,2024-08-17 06:53,-114.8453,39.2950,1909.00,66.00,18.00,15.64,200.00,11.00,0.00,30.15,1009.40,10.00,M,CLR,M,M,M,M,M,M,M,M,M,M,M,M,M,M,66.00,KELY 170653Z AUTO 20011KT 10SM CLR 19/M08 A3015 RMK AO2 SLP094 T01891078,M
VGT,2024-08-17 06:53,-115.1933,36.2111,667.00,97.00,51.00,21.27,190.00,9.00,0.00,29.84,1008.40,10.00,M,CLR,M,M,M,M,M,M,M,M,M,M,M,M,M,M,94.14,KVGT 170653Z AUTO 19009KT 10SM CLR 36/11 A2984 RMK AO2 SLP084 T03610106,M
LOL,2024-08-17 06:53,-118.5701,40.0684,1192.43,65.00,32.00,29.02,70.00,4.00,0.00,29.96,1010.60,10.00,M,CLR,M,M,M,M,M,M,M,M,M,M,M,M,M,M,65.00,KLOL 170653Z AUTO 07004KT 10SM CLR 18/00 A2996 RMK AO2 SLP106 T01830000,M
BVU,2024-08-17 06:55,-114.8611,35.9475,671.00,93.20,50.00,23.04,270.00,4.00,0.00,29.84,M,10.00,M,CLR,M,M,M,M,M,M,M,M,M,M,M,M,M,M,90.10,KBVU 170655Z AUTO 27004KT 10SM CLR 34/10 A2984 RMK AO2,M
CXP,2024-08-17 06:55,-119.7326,39.1923,1431.00,64.40,37.40,36.74,110.00,4.00,0.00,30.05,M,10.00,M,CLR,M,M,M,M,M,M,M,M,M,M,M,M,M,M,64.40,KCXP 170655Z AUTO 11004KT 10SM CLR 18/03 A3005 RMK AO2,M
RNO,2024-08-17 06:55,-119.7711,39.4839,1341.00,71.00,39.00,31.16,290.00,7.00,0.00,30.03,1010.90,10.00,M,CLR,M,M,M,M,M,M,M,M,M,M,M,M,M,M,71.00,KRNO 170655Z 29007KT 10SM CLR 22/04 A3003 RMK AO2 SLP109 T02170039,M
RTS,2024-08-17 06:55,-119.8764,39.6682,1539.00,64.40,35.60,34.22,250.00,12.00,0.00,30.07,M,10.00,M,CLR,M,M,M,M,M,M,M,M,M,M,M,M,M,M,64.40,KRTS 170655Z AUTO 25012KT 10SM CLR 18/02 A3007 RMK AO2,M
MEV,2024-08-17 06:55,-119.7500,38.9963,1441.42,59.00,35.60,41.42,160.00,6.00,0.00,30.04,M,10.00,M,CLR,M,M,M,M,M,M,M,M,M,M,M,M,M,M,59.00,KMEV 170655Z AUTO 16006KT 10SM CLR 15/02 A3004 RMK AO2,M
BAM,2024-08-17 06:55,-116.8743,40.5990,1382.36,60.80,23.00,23.23,0.00,0.00,0.00,30.01,M,10.00,M,CLR,M,M,M,M,M,M,M,M,M,M,M,M,M,M,60.80,KBAM 170655Z AUTO 00000KT 10SM CLR 16/M05 A3001 RMK AO1,M
HTH,2024-08-17 06:55,-118.6315,38.5448,1282.89,75.20,32.00,20.49,300.00,8.00,0.00,29.98,M,10.00,M,CLR,M,M,M,M,M,M,M,M,M,M,M,M,M,M,75.20,KHTH 170655Z AUTO 30008KT 10SM CLR 24/M00 A2998 RMK A01,M
10U,2024-08-17 06:55,-116.1876,41.9532,1637.00,57.20,39.20,50.91,0.00,0.00,0.00,30.07,M,10.00,M,CLR,M,M,M,M,M,M,M,M,M,M,M,M,M,M,57.20,K10U 170655Z AUTO 00000KT 10SM CLR 14/04 A3007 RMK AO2,M
TMT,2024-08-17 06:55,-117.1971,39.4643,1749.34,50.00,20.00,30.29,200.00,4.00,0.00,30.10,M,10.00,M,CLR,M,M,M,M,M,M,M,M,M,M,M,M,M,M,50.00,KTMT 170655Z AUTO 20004KT 10SM CLR 10/M07 A3010 RMK AO2 T01011066,M
INS,2024-08-17 06:55,-115.6733,36.5872,955.00,83.50,32.50,15.92,0.00,0.00,0.00,29.91,1006.70,10.00,M,CLR,M,M,M,M,M,M,M,M,M,M,M,M,M,M,80.77,KINS 170655Z AUTO 00000KT 10SM CLR 29/00 A2991 RMK AO2 SLP067 T02860003 $,M
LSV,2024-08-17 06:55,-115.0343,36.2362,570.00,96.00,53.20,23.78,150.00,5.00,0.00,29.84,1004.30,10.00,M,CLR,M,M,M,M,M,M,M,M,M,M,M,M,M,M,93.64,KLSV 170655Z 15005KT 10SM CLR 36/12 A2984 RMK A02A SLP043 WND DATA ESTMD T03560118,M
EKO,2024-08-17 06:56,-115.7860,40.8242,1367.00,57.00,31.00,37.01,0.00,0.00,0.00,30.03,1011.40,10.00,M,CLR,M,M,M,M,M,M,M,M,M,M,M,M,M,M,57.00,KEKO 170656Z AUTO 00000KT 10SM CLR 14/M01 A3003 RMK AO2 SLP114 T01391006,M
WMC,2024-08-17 06:56,-117.8072,40.9019,1315.00,57.00,25.00,28.93,180.00,6.00,0.00,29.98,1010.60,10.00,M,CLR,M,M,M,M,M,M,M,M,M,M,M,M,M,M,57.00,KWMC 170656Z AUTO 18006KT 10SM CLR 14/M04 A2998 RMK AO2 SLP106 T01391039,M
HND,2024-08-17 06:56,-115.1344,35.9729,742.79,94.00,53.00,25.11,200.00,15.00,0.00,29.89,1009.80,10.00,M,CLR,M,M,M,M,M,M,M,M,M,M,M,M,M,M,91.53,KHND 170656Z AUTO 20015KT 10SM CLR 34/12 A2989 RMK AO2 SLP098 T03440117 404170244,M
TPH,2024-08-17 06:56,-117.0904,38.0505,1654.00,66.00,14.00,13.15,90.00,5.00,0.00,30.07,1010.10,10.00,M,CLR,M,M,M,M,M,M,M,M,M,M,M,M,M,M,66.00,KTPH 170656Z AUTO 09005KT 10SM CLR 19/M10 A3007 RMK AO2 SLP101 T01891100,M
LAS,2024-08-17 06:56,-115.1634,36.0719,663.00,97.00,50.00,20.49,200.00,9.00,0.00,29.86,1007.60,10.00,M,FEW,BKN,M,M,12000.00,20000.00,M,M,M,M,M,M,M,M,M,93.91,KLAS 170656Z 20009KT 10SM FEW120 BKN200 36/10 A2986 RMK AO2 SLP076 T03610100,M
NFL,2024-08-17 06:57,-118.7010,39.4166,1199.00,66.00,32.00,28.03,60.00,5.00,0.00,29.96,1011.70,10.00,M,CLR,M,M,M,M,M,M,M,M,M,M,M,M,M,M,66.00,KNFL 170657Z AUTO 06005KT 10SM CLR 19/00 A2996 RMK AO2 SLP117 T01890000,M
05U,2024-08-17 07:10,-116.0051,39.6042,1811.23,M,M,M,0.00,0.00,0.00,30.13,M,10.00,M,CLR,M,M,M,M,M,M,M,M,M,M,M,M,M,M,M,K05U 170710Z AUTO 00000KT 10SM CLR A3013 RMK A01,M
BVU,2024-08-17 07:15,-114.8611,35.9475,671.00,89.60,51.80,27.56,0.00,0.00,0.00,29.84,M,10.00,M,CLR,M,M,M,M,M,M,M,M,M,M,M,M,M,M,87.00,KBVU 170715Z AUTO 00000KT 10SM CLR 32/11 A2984 RMK AO2 LTG DSNT SE,M
CXP,2024-08-17 07:15,-119.7326,39.1923,1431.00,64.40,35.60,34.22,90.00,4.00,0.00,30.06,M,10.00,M,CLR,M,M,M,M,M,M,M,M,M,M,M,M,M,M,64.40,KCXP 170715Z AUTO 09004KT 10SM CLR 18/02 A3006 RMK AO2,M
RTS,2024-08-17 07:15,-119.8764,39.6682,1539.00,64.40,35.60,34.22,250.00,13.00,0.00,30.07,M,10.00,M,CLR,M,M,M,M,M,M,M,M,M,M,M,M,M,M,64.40,KRTS 170715Z AUTO 25013KT 10SM CLR 18/02 A3007 RMK AO2,M
MEV,2024-08-17 07:15,-119.7500,38.9963,1441.42,53.60,35.60,50.36,150.00,4.00,0.00,30.04,M,10.00,M,CLR,M,M,M,M,M,M,M,M,M,M,M,M,M,M,53.60,KMEV 170715Z AUTO 15004KT 10SM CLR 12/02 A3004 RMK AO2,M
BAM,2024-08-17 07:15,-116.8743,40.5990,1382.36,59.00,23.00,24.76,110.00,7.00,0.00,30.01,M,10.00,M,CLR,M,M,M,M,M,M,M,M,M,M,M,M,M,M,59.00,KBAM 170715Z AUTO 11007KT 10SM CLR 15/M05 A3001 RMK AO1,M
HTH,2024-08-17 07:15,-118.6315,38.5448,1282.89,71.60,33.80,24.86,70.00,4.00,0.00,29.99,M,10.00,M,CLR,M,M,M,M,M,M,M,M,M,M,M,M,M,M,71.60,KHTH 170715Z AUTO 07004KT 10SM CLR 22/01 A2999 RMK A01,M
10U,2024-08-17 07:15,-116.1876,41.9532,1637.00,57.20,37.40,47.44,0.00,0.00,0.00,30.07,M,10.00,M,CLR,M,M,M,M,M,M,M,M,M,M,M,M,M,M,57.20,K10U 170715Z AUTO 00000KT 10SM CLR 14/03 A3007 RMK AO2,M
TMT,2024-08-17 07:15,-117.1971,39.4643,1749.34,47.00,23.00,38.48,0.00,0.00,0.00,30.10,M,10.00,M,CLR,M,M,M,M,M,M,M,M,M,M,M,M,M,M,47.00,KTMT 170715Z AUTO 00000KT 10SM CLR 08/M05 A3010 RMK AO2 T00841050,M
05U,2024-08-17 07:30,-116.0051,39.6042,1811.23,M,M,M,0.00,0.00,0.00,30.13,M,10.00,M,CLR,M,M,M,M,M,M,M,M,M,M,M,M,M,M,M,K05U 170730Z AUTO 00000KT 10SM CLR A3013 RMK A01,M
BVU,2024-08-17 07:35,-114.8611,35.9475,671.00,89.60,53.60,29.45,80.00,4.00,0.00,29.85,M,10.00,M,CLR,M,M,M,M,M,M,M,M,M,M,M,M,M,M,87.36,KBVU 170735Z AUTO 08004KT 10SM CLR 32/12 A2985 RMK AO2,M
CXP,2024-08-17 07:35,-119.7326,39.1923,1431.00,64.40,35.60,34.22,0.00,0.00,0.00,30.05,M,10.00,M,CLR,M,M,M,M,M,M,M,M,M,M,M,M,M,M,64.40,KCXP 170735Z AUTO 00000KT 10SM CLR 18/02 A3005 RMK AO2,M
RTS,2024-08-17 07:35,-119.8764,39.6682,1539.00,66.20,35.60,32.14,270.00,13.00,0.00,30.07,M,10.00,M,CLR,M,M,M,M,M,M,M,M,M,M,M,M,M,M,66.20,KRTS 170735Z AUTO 27013KT 10SM CLR 19/02 A3007 RMK AO2,M
MEV,2024-08-17 07:35,-119.7500,38.9963,1441.42,55.40,35.60,47.16,0.00,0.00,0.00,30.04,M,10.00,M,CLR,M,M,M,M,M,M,M,M,M,M,M,M,M,M,55.40,KMEV 170735Z AUTO 00000KT 10SM CLR 13/02 A3004 RMK AO2,M
BAM,2024-08-17 07:35,-116.8743,40.5990,1382.36,57.20,23.00,26.42,110.00,4.00,0.00,30.01,M,10.00,M,CLR,M,M,M,M,M,M,M,M,M,M,M,M,M,M,57.20,KBAM 170735Z AUTO 11004KT 10SM CLR 14/M05 A3001 RMK AO1,M
HTH,2024-08-17 07:35,-118.6315,38.5448,1282.89,71.60,33.80,24.86,80.00,3.00,0.00,29.99,M,10.00,M,CLR,M,M,M,M,M,M,M,M,M,M,M,M,M,M,71.60,KHTH 170735Z AUTO 08003KT 10SM CLR 22/01 A2999 RMK A01,M
10U,2024-08-17 07:35,-116.1876,41.9532,1637.00,55.40,37.40,50.64,0.00,0.00,0.00,30.07,M,10.00,M,CLR,M,M,M,M,M,M,M,M,M,M,M,M,M,M,55.40,K10U 170735Z AUTO 00000KT 10SM CLR 13/03 A3007 RMK AO2,M
TMT,2024-08-17 07:35,-117.1971,39.4643,1749.34,45.50,24.40,43.18,0.00,0.00,0.00,30.10,M,10.00,M,CLR,M,M,M,M,M,M,M,M,M,M,M,M,M,M,45.50,KTMT 170735Z AUTO 00000KT 10SM CLR 08/M04 A3010 RMK AO2 T00751042,M
05U,2024-08-17 07:50,-116.0051,39.6042,1811.23,M,M,M,0.00,0.00,0.00,30.13,M,10.00,M,CLR,M,M,M,M,M,M,M,M,M,M,M,M,M,M,M,K05U 170750Z AUTO 00000KT 10SM CLR A3013 RMK A01,M
P68,2024-08-17 07:53,-116.0056,39.6014,1993.00,54.00,22.00,28.45,160.00,5.00,0.00,30.10,1010.50,M,M,M,M,M,M,M,M,M,M,M,M,M,M,M,M,M,54.00,KP68 170753Z AUTO 16005KT 12/M06 A3010 RMK AO1 SLP105 T01221056 403330078,M
DRA,2024-08-17 07:53,-116.0278,36.6206,1009.00,87.00,35.00,15.72,210.00,8.00,0.00,29.93,1007.20,10.00,M,CLR,M,M,M,M,M,M,M,M,M,M,M,M,M,M,83.47,KDRA 170753Z AUTO 21008KT 10SM CLR 31/02 A2993 RMK AO2 SLP072 T03060017 403940172,M
ELY,2024-08-17 07:53,-114.8453,39.2950,1909.00,56.00,19.00,23.28,210.00,9.00,0.00,30.16,1010.50,10.00,M,CLR,M,M,M,M,M,M,M,M,M,M,M,M,M,M,56.00,KELY 170753Z AUTO 21009KT 10SM CLR 13/M07 A3016 RMK AO2 SLP105 T01331072 403170044,M
VGT,2024-08-17 07:53,-115.1933,36.2111,667.00,96.00,49.00,20.36,220.00,5.00,0.00,29.84,1008.60,10.00,M,CLR,M,M,M,M,M,M,M,M,M,M,M,M,M,M,92.70,KVGT 170753Z AUTO 22005KT 10SM CLR 36/09 A2984 RMK AO2 SLP086 T03560094 404280244,M
LOL,2024-08-17 07:53,-118.5701,40.0684,1192.43,57.00,30.00,35.54,0.00,0.00,0.00,29.96,1010.80,10.00,M,CLR,M,M,M,M,M,M,M,M,M,M,M,M,M,M,57.00,KLOL 170753Z AUTO 00000KT 10SM CLR 14/M01 A2996 RMK AO2 SLP108 T01391011 403280117,M
BVU,2024-08-17 07:55,-114.8611,35.9475,671.00,91.40,51.80,26.05,M,3.00,0.00,29.85,M,10.00,M,CLR,M,M,M,M,M,M,M,M,M,M,M,M,M,M,88.69,KBVU 170755Z AUTO VRB03KT 10SM CLR 33/11 A2985 RMK AO2,M
CXP,2024-08-17 07:55,-119.7326,39.1923,1431.00,60.80,35.60,38.85,0.00,0.00,0.00,30.05,M,10.00,M,CLR,M,M,M,M,M,M,M,M,M,M,M,M,M,M,60.80,KCXP 170755Z AUTO 00000KT 10SM CLR 16/02 A3005 RMK AO2,M
RNO,2024-08-17 07:55,-119.7711,39.4839,1341.00,69.00,38.00,32.08,0.00,0.00,0.00,30.03,1011.10,10.00,M,CLR,M,M,M,M,M,M,M,M,M,M,M,M,M,M,69.00,KRNO 170755Z 00000KT 10SM CLR 21/03 A3003 RMK AO2 SLP111 T02060033 403280139,M
RTS,2024-08-17 07:55,-119.8764,39.6682,1539.00,64.40,35.60,34.22,280.00,10.00,0.00,30.07,M,10.00,M,CLR,M,M,M,M,M,M,M,M,M,M,M,M,M,M,64.40,KRTS 170755Z AUTO 28010KT 10SM CLR 18/02 A3007 RMK AO2,M
MEV,2024-08-17 07:55,-119.7500,38.9963,1441.42,55.40,33.80,43.90,70.00,7.00,0.00,30.04,M,10.00,M,CLR,M,M,M,M,M,M,M,M,M,M,M,M,M,M,55.40,KMEV 170755Z AUTO 07007KT 10SM CLR 13/01 A3004 RMK AO2,M
BAM,2024-08-17 07:55,-116.8743,40.5990,1382.36,55.40,23.00,28.20,0.00,0.00,0.00,30.01,M,10.00,M,CLR,M,M,M,M,M,M,M,M,M,M,M,M,M,M,55.40,KBAM 170755Z AUTO 00000KT 10SM CLR 13/M05 A3001 RMK AO1,M
HTH,2024-08-17 07:55,-118.6315,38.5448,1282.89,71.60,37.40,28.68,10.00,6.00,0.00,29.99,M,10.00,M,CLR,M,M,M,M,M,M,M,M,M,M,M,M,M,M,71.60,KHTH 170755Z AUTO 01006KT 10SM CLR 22/03 A2999 RMK A01,M
10U,2024-08-17 07:55,-116.1876,41.9532,1637.00,53.60,37.40,54.07,0.00,0.00,0.00,30.07,M,10.00,M,FEW,M,M,M,8500.00,M,M,M,M,M,M,M,M,M,M,53.60,K10U 170755Z AUTO 00000KT 10SM FEW085 12/03 A3007 RMK AO2,M
TMT,2024-08-17 07:55,-117.1971,39.4643,1749.34,46.00,23.00,39.96,200.00,4.00,0.00,30.10,M,10.00,M,CLR,M,M,M,M,M,M,M,M,M,M,M,M,M,M,43.77,KTMT 170755Z AUTO 20004KT 10SM CLR 08/M05 A3010 RMK AO2 T00771051 403161002,M
INS,2024-08-17 07:55,-115.6733,36.5872,955.00,86.00,36.00,16.89,220.00,3.00,0.00,29.91,1006.60,10.00,M,CLR,M,M,M,M,M,M,M,M,M,M,M,M,M,M,82.70,KINS 170755Z AUTO 22003KT 10SM CLR 30/02 A2991 RMK AO2 SLP066 T03010023 404000176 $,M
LSV,2024-08-17 07:55,-115.0343,36.2362,570.00,95.40,52.30,23.44,140.00,6.00,0.00,29.84,1004.30,10.00,M,FEW,M,M,M,17000.00,M,M,M,M,M,M,M,M,M,M,92.79,KLSV 170755Z 14006KT 10SM FEW170 35/11 A2984 RMK A02A SLP043 WND DATA ESTMD T03520113,M
EKO,2024-08-17 07:56,-115.7860,40.8242,1367.00,56.00,27.00,32.59,0.00,0.00,0.00,30.04,1011.40,10.00,M,CLR,M,M,M,M,M,M,M,M,M,M,M,M,M,M,56.00,KEKO 170756Z AUTO 00000KT 10SM CLR 13/M03 A3004 RMK AO2 SLP114 T01331028 403330067,M
WMC,2024-08-17 07:56,-117.8072,40.9019,1315.00,56.00,26.00,31.27,130.00,7.00,0.00,29.98,1010.50,10.00,M,CLR,M,M,M,M,M,M,M,M,M,M,M,M,M,M,56.00,KWMC 170756Z AUTO 13007KT 10SM CLR 13/M03 A2998 RMK AO2 SLP105 T01331033 403280078,M
HND,2024-08-17 07:56,-115.1344,35.9729,742.79,93.00,51.00,24.06,220.00,10.00,0.00,29.90,1010.10,10.00,M,CLR,M,M,M,M,M,M,M,M,M,M,M,M,M,M,90.09,KHND 170756Z AUTO 22010KT 10SM CLR 34/11 A2990 RMK AO2 SLP101 T03390106,M
TPH,2024-08-17 07:56,-117.0904,38.0505,1654.00,60.00,11.00,14.22,330.00,4.00,0.00,30.07,1010.40,10.00,M,CLR,M,M,M,M,M,M,M,M,M,M,M,M,M,M,60.00,KTPH 170756Z AUTO 33004KT 10SM CLR 16/M12 A3007 RMK AO2 SLP104 T01561117 403390117,M
LAS,2024-08-17 07:56,-115.1634,36.0719,663.00,97.00,48.00,19.02,220.00,10.00,0.00,29.86,1007.60,10.00,M,FEW,BKN,M,M,12000.00,20000.00,M,M,M,M,M,M,M,M,M,93.52,KLAS 170756Z 22010KT 10SM FEW120 BKN200 36/09 A2986 RMK AO2 SLP076 T03610089 404280278,M
NFL,2024-08-17 07:57,-118.7010,39.4166,1199.00,67.00,34.00,29.33,40.00,3.00,0.00,29.97,1012.00,10.00,M,CLR,M,M,M,M,M,M,M,M,M,M,M,M,M,M,67.00,KNFL 170757Z AUTO 04003KT 10SM CLR 19/01 A2997 RMK AO2 SLP120 T01940011 403440122,M
05U,2024-08-17 08:10,-116.0051,39.6042,1811.23,M,M,M,0.00,0.00,0.00,30.13,M,10.00,M,CLR,M,M,M,M,M,M,M,M,M,M,M,M,M,M,M,K05U 170810Z AUTO 00000KT 10SM CLR A3013 RMK A01,M
BVU,2024-08-17 08:15,-114.8611,35.9475,671.00,89.60,53.60,29.45,60.00,4.00,0.00,29.85,M,10.00,M,CLR,M,M,M,M,M,M,M,M,M,M,M,M,M,M,87.36,KBVU 170815Z AUTO 06004KT 10SM CLR 32/12 A2985 RMK AO2,M
CXP,2024-08-17 08:15,-119.7326,39.1923,1431.00,62.60,33.80,33.93,0.00,0.00,0.00,30.05,M,10.00,M,CLR,M,M,M,M,M,M,M,M,M,M,M,M,M,M,62.60,KCXP 170815Z AUTO 00000KT 10SM CLR 17/01 A3005 RMK AO2,M
RTS,2024-08-17 08:15,-119.8764,39.6682,1539.00,62.60,35.60,36.45,280.00,9.00,0.00,30.07,M,10.00,M,CLR,M,M,M,M,M,M,M,M,M,M,M,M,M,M,62.60,KRTS 170815Z AUTO 28009KT 10SM CLR 17/02 A3007 RMK AO2,M
MEV,2024-08-17 08:15,-119.7500,38.9963,1441.42,53.60,35.60,50.36,100.00,7.00,0.00,30.04,M,10.00,M,CLR,M,M,M,M,M,M,M,M,M,M,M,M,M,M,53.60,KMEV 170815Z AUTO 10007KT 10SM CLR 12/02 A3004 RMK AO2,M
BAM,2024-08-17 08:15,-116.8743,40.5990,1382.36,53.60,23.00,30.11,100.00,5.00,0.00,30.01,M,10.00,M,CLR,M,M,M,M,M,M,M,M,M,M,M,M,M,M,53.60,KBAM 170815Z AUTO 10005KT 10SM CLR 12/M05 A3001 RMK AO1,M
HTH,2024-08-17 08:15,-118.6315,38.5448,1282.89,69.80,35.60,28.39,0.00,0.00,0.00,29.99,M,10.00,M,CLR,M,M,M,M,M,M,M,M,M,M,M,M,M,M,69.80,KHTH 170815Z AUTO 00000KT 10SM CLR 21/02 A2999 RMK A01,M
10U,2024-08-17 08:15,-116.1876,41.9532,1637.00,55.40,37.40,50.64,0.00,0.00,0.00,30.07,M,10.00,M,CLR,M,M,M,M,M,M,M,M,M,M,M,M,M,M,55.40,K10U 170815Z AUTO 00000KT 10SM CLR 13/03 A3007 RMK AO2,M
TMT,2024-08-17 08:15,-117.1971,39.4643,1749.34,48.20,22.00,35.26,220.00,8.00,0.00,30.10,M,10.00,M,CLR,M,M,M,M,M,M,M,M,M,M,M,M,M,M,44.07,KTMT 170815Z AUTO 22008KT 10SM CLR 09/M06 A3010 RMK AO2 T00901056,M
05U,2024-08-17 08:30,-116.0051,39.6042,1811.23,M,M,M,0.00,0.00,0.00,30.12,M,10.00,M,CLR,M,M,M,M,M,M,M,M,M,M,M,M,M,M,M,K05U 170830Z AUTO 00000KT 10SM CLR A3012 RMK A01,M
BVU,2024-08-17 08:35,-114.8611,35.9475,671.00,87.80,55.40,33.29,80.00,6.00,0.00,29.85,M,10.00,M,CLR,M,M,M,M,M,M,M,M,M,M,M,M,M,M,86.11,KBVU 170835Z AUTO 08006KT 10SM CLR 31/13 A2985 RMK AO2,M
CXP,2024-08-17 08:35,-119.7326,39.1923,1431.00,60.80,32.00,33.64,0.00,0.00,0.00,30.05,M,10.00,M,CLR,M,M,M,M,M,M,M,M,M,M,M,M,M,M,60.80,KCXP 170835Z AUTO 00000KT 10SM CLR 16/00 A3005 RMK AO2,M
RTS,2024-08-17 08:35,-119.8764,39.6682,1539.00,57.20,35.60,44.19,310.00,8.00,0.00,30.06,M,10.00,M,CLR,M,M,M,M,M,M,M,M,M,M,M,M,M,M,57.20,KRTS 170835Z AUTO 31008KT 10SM CLR 14/02 A3006 RMK AO2,M
MEV,2024-08-17 08:35,-119.7500,38.9963,1441.42,51.80,35.60,53.81,170.00,3.00,0.00,30.04,M,10.00,M,CLR,M,M,M,M,M,M,M,M,M,M,M,M,M,M,51.80,KMEV 170835Z AUTO 17003KT 10SM CLR 11/02 A3004 RMK AO2,M
BAM,2024-08-17 08:35,-116.8743,40.5990,1382.36,51.80,23.00,32.17,0.00,0.00,0.00,30.00,M,10.00,M,CLR,M,M,M,M,M,M,M,M,M,M,M,M,M,M,51.80,KBAM 170835Z AUTO 00000KT 10SM CLR 11/M05 A3000 RMK AO1,M
HTH,2024-08-17 08:35,-118.6315,38.5448,1282.89,69.80,37.40,30.49,0.00,0.00,0.00,29.99,M,10.00,M,CLR,M,M,M,M,M,M,M,M,M,M,M,M,M,M,69.80,KHTH 170835Z AUTO 00000KT 10SM CLR 21/03 A2999 RMK A01,M
10U,2024-08-17 08:35,-116.1876,41.9532,1637.00,59.00,39.20,47.72,110.00,7.00,0.00,30.07,M,10.00,M,CLR,M,M,M,M,M,M,M,M,M,M,M,M,M,M,59.00,K10U 170835Z AUTO 11007KT 10SM CLR 15/04 A3007 RMK AO2,M
TMT,2024-08-17 08:35,-117.1971,39.4643,1749.34,40.30,18.30,40.72,190.00,5.00,0.00,30.09,M,10.00,M,CLR,M,M,M,M,M,M,M,M,M,M,M,M,M,M,36.25,KTMT 170835Z AUTO 19005KT 10SM CLR 05/M08 A3009 RMK AO2 T00461076,M
05U,2024-08-17 08:50,-116.0051,39.6042,1811.23,M,M,M,0.00,0.00,0.00,30.12,M,10.00,M,CLR,M,M,M,M,M,M,M,M,M,M,M,M,M,M,M,K05U 170850Z AUTO 00000KT 10SM CLR A3012 RMK A01,M
P68,2024-08-17 08:53,-116.0056,39.6014,1993.00,52.00,23.00,31.93,190.00,6.00,0.00,30.10,1010.50,M,M,M,M,M,M,M,M,M,M,M,M,M,M,M,M,M,52.00,KP68 170853Z AUTO 19006KT 11/M05 A3010 RMK AO1 SLP105 T01111050 58004,M
DRA,2024-08-17 08:53,-116.0278,36.6206,1009.00,88.00,36.00,15.85,200.00,11.00,0.00,29.93,1007.10,10.00,17.00,CLR,M,M,M,M,M,M,M,M,M,M,M,M,M,M,84.29,KDRA 170853Z AUTO 20011G17KT 10SM CLR 31/02 A2993 RMK AO2 SLP071 T03110022 51003,M
ELY,2024-08-17 08:53,-114.8453,39.2950,1909.00,56.00,22.00,26.45,200.00,9.00,0.00,30.15,1010.40,10.00,M,CLR,M,M,M,M,M,M,M,M,M,M,M,M,M,M,56.00,KELY 170853Z AUTO 20009KT 10SM CLR 13/M06 A3015 RMK AO2 SLP104 T01331056 50002,M
VGT,2024-08-17 08:53,-115.1933,36.2111,667.00,94.00,49.00,21.65,200.00,5.00,0.00,29.84,1008.50,10.00,M,CLR,M,M,M,M,M,M,M,M,M,M,M,M,M,M,90.71,KVGT 170853Z AUTO 20005KT 10SM CLR 34/09 A2984 RMK AO2 SLP085 T03440094 50002,M
LOL,2024-08-17 08:53,-118.5701,40.0684,1192.43,56.00,31.00,38.38,0.00,0.00,0.00,29.96,1010.80,10.00,M,CLR,M,M,M,M,M,M,M,M,M,M,M,M,M,M,56.00,KLOL 170853Z AUTO 00000KT 10SM CLR 13/M01 A2996 RMK AO2 SLP108 T01331006 51003,M
BVU,2024-08-17 08:55,-114.8611,35.9475,671.00,91.40,51.80,26.05,170.00,7.00,0.00,29.85,M,10.00,M,SCT,M,M,M,9500.00,M,M,M,M,M,M,M,M,M,M,88.69,KBVU 170855Z AUTO 17007KT 10SM SCT095 33/11 A2985 RMK AO2,M
CXP,2024-08-17 08:55,-119.7326,39.1923,1431.00,60.80,32.00,33.64,0.00,0.00,0.00,30.05,M,10.00,M,CLR,M,M,M,M,M,M,M,M,M,M,M,M,M,M,60.80,KCXP 170855Z AUTO 00000KT 10SM CLR 16/00 A3005 RMK AO2,M
RNO,2024-08-17 08:55,-119.7711,39.4839,1341.00,63.00,38.00,39.51,180.00,3.00,0.00,30.03,1010.90,10.00,M,CLR,M,M,M,M,M,M,M,M,M,M,M,M,M,M,63.00,KRNO 170855Z 18003KT 10SM CLR 17/03 A3003 RMK AO2 SLP109 T01720033 50003,M
RTS,2024-08-17 08:55,-119.8764,39.6682,1539.00,57.20,33.80,41.13,280.00,4.00,0.00,30.06,M,10.00,M,CLR,M,M,M,M,M,M,M,M,M,M,M,M,M,M,57.20,KRTS 170855Z AUTO 28004KT 10SM CLR 14/01 A3006 RMK AO2,M
TMT,2024-08-17 08:55,-117.1971,39.4643,1749.34,41.40,20.70,43.23,180.00,3.00,0.00,30.09,M,10.00,M,CLR,M,M,M,M,M,M,M,M,M,M,M,M,M,M,39.43,KTMT 170855Z AUTO 18003KT 10SM CLR 05/M06 A3009 RMK AO2 T00521063,M
MEV,2024-08-17 08:55,-119.7500,38.9963,1441.42,50.00,33.80,53.54,0.00,0.00,0.00,30.03,M,10.00,M,CLR,M,M,M,M,M,M,M,M,M,M,M,M,M,M,50.00,KMEV 170855Z AUTO 00000KT 10SM CLR 10/01 A3003 RMK AO2,M
BAM,2024-08-17 08:55,-116.8743,40.5990,1382.36,53.60,26.60,34.98,180.00,4.00,0.00,30.01,M,10.00,M,CLR,M,M,M,M,M,M,M,M,M,M,M,M,M,M,53.60,KBAM 170855Z AUTO 18004KT 10SM CLR 12/M03 A3001 RMK AO1,M
HTH,2024-08-17 08:55,-118.6315,38.5448,1282.89,68.00,39.20,34.80,0.00,0.00,0.00,29.99,M,10.00,M,CLR,M,M,M,M,M,M,M,M,M,M,M,M,M,M,68.00,KHTH 170855Z AUTO 00000KT 10SM CLR 20/04 A2999 RMK A01,M
10U,2024-08-17 08:55,-116.1876,41.9532,1637.00,57.20,39.20,50.91,110.00,6.00,0.00,30.06,M,10.00,M,CLR,M,M,M,M,M,M,M,M,M,M,M,M,M,M,57.20,K10U 170855Z AUTO 11006KT 10SM CLR 14/04 A3006 RMK AO2,M
INS,2024-08-17 08:55,-115.6733,36.5872,955.00,84.40,36.00,17.78,0.00,0.00,0.00,29.90,1006.20,10.00,M,FEW,BKN,M,M,12000.00,16000.00,M,M,M,M,M,M,M,M,M,81.49,KINS 170855Z AUTO 00000KT 10SM FEW120 BKN160 29/02 A2990 RMK AO2 SLP062 T02910023 50001 $,M
LSV,2024-08-17 08:55,-115.0343,36.2362,570.00,94.60,50.70,22.64,130.00,6.00,0.00,29.84,1004.30,10.00,M,SCT,M,M,M,24000.00,M,M,M,M,M,M,M,M,M,M,91.62,KLSV 170855Z 13006KT 10SM SCT240 35/10 A2984 RMK A02A SLP043 WND DATA ESTMD T03480104 52003,M
EKO,2024-08-17 08:56,-115.7860,40.8242,1367.00,56.00,26.00,31.27,60.00,3.00,0.00,30.04,1011.60,10.00,M,CLR,M,M,M,M,M,M,M,M,M,M,M,M,M,M,56.00,KEKO 170856Z AUTO 06003KT 10SM CLR 13/M03 A3004 RMK AO2 SLP116 T01331033 53003,M
WMC,2024-08-17 08:56,-117.8072,40.9019,1315.00,51.00,25.00,36.03,180.00,3.00,0.00,29.98,1010.70,10.00,M,CLR,M,M,M,M,M,M,M,M,M,M,M,M,M,M,51.00,KWMC 170856Z AUTO 18003KT 10SM CLR 11/M04 A2998 RMK AO2 SLP107 T01061039 50002,M
HND,2024-08-17 08:56,-115.1344,35.9729,742.79,91.00,51.00,25.61,220.00,7.00,0.00,29.89,1010.00,10.00,M,CLR,M,M,M,M,M,M,M,M,M,M,M,M,M,M,88.16,KHND 170856Z AUTO 22007KT 10SM CLR 33/11 A2989 RMK AO2 SLP100 T03280106 50002,M
TPH,2024-08-17 08:56,-117.0904,38.0505,1654.00,60.00,13.00,15.54,20.00,8.00,0.00,30.07,1010.30,10.00,M,CLR,M,M,M,M,M,M,M,M,M,M,M,M,M,M,60.00,KTPH 170856Z AUTO 02008KT 10SM CLR 16/M11 A3007 RMK AO2 SLP103 T01561106 58000,M
LAS,2024-08-17 08:56,-115.1634,36.0719,663.00,94.00,49.00,21.65,160.00,6.00,0.00,29.86,1007.50,10.00,M,SCT,BKN,M,M,12000.00,20000.00,M,M,M,M,M,M,M,M,M,90.71,KLAS 170856Z 16006KT 10SM SCT120 BKN200 34/09 A2986 RMK AO2 SLP075 T03440094 50002,M
NFL,2024-08-17 08:57,-118.7010,39.4166,1199.00,65.00,35.00,32.72,340.00,5.00,0.00,29.96,1011.80,10.00,M,CLR,M,M,M,M,M,M,M,M,M,M,M,M,M,M,65.00,KNFL 170857Z AUTO 34005KT 10SM CLR 18/02 A2996 RMK AO2 SLP118 T01830017 50002,M
05U,2024-08-17 09:10,-116.0051,39.6042,1811.23,M,M,M,0.00,0.00,0.00,30.12,M,10.00,M,CLR,M,M,M,M,M,M,M,M,M,M,M,M,M,M,M,K05U 170910Z AUTO 00000KT 10SM CLR A3012 RMK A01,M
BVU,2024-08-17 09:15,-114.8611,35.9475,671.00,91.40,51.80,26.05,160.00,4.00,0.00,29.85,M,10.00,M,FEW,M,M,M,9500.00,M,M,M,M,M,M,M,M,M,M,88.69,KBVU 170915Z AUTO 16004KT 10SM FEW095 33/11 A2985 RMK AO2,M
CXP,2024-08-17 09:15,-119.7326,39.1923,1431.00,60.80,33.80,36.16,M,4.00,0.00,30.04,M,10.00,M,CLR,M,M,M,M,M,M,M,M,M,M,M,M,M,M,60.80,KCXP 170915Z AUTO VRB04KT 10SM CLR 16/01 A3004 RMK AO2,M
RTS,2024-08-17 09:15,-119.8764,39.6682,1539.00,60.80,32.00,33.64,270.00,7.00,0.00,30.06,M,10.00,M,CLR,M,M,M,M,M,M,M,M,M,M,M,M,M,M,60.80,KRTS 170915Z AUTO 27007KT 10SM CLR 16/00 A3006 RMK AO2,M
MEV,2024-08-17 09:15,-119.7500,38.9963,1441.42,51.80,32.00,46.59,M,M,0.00,30.03,M,10.00,M,CLR,M,M,M,M,M,M,M,M,M,M,M,M,M,M,51.80,KMEV 170915Z AUTO 10SM CLR 11/M00 A3003 RMK AO2,M
BAM,2024-08-17 09:15,-116.8743,40.5990,1382.36,51.80,23.00,32.17,220.00,3.00,0.00,30.00,M,10.00,M,CLR,M,M,M,M,M,M,M,M,M,M,M,M,M,M,51.80,KBAM 170915Z AUTO 22003KT 10SM CLR 11/M05 A3000 RMK AO1,M
HTH,2024-08-17 09:15,-118.6315,38.5448,1282.89,68.00,37.40,32.43,190.00,4.00,0.00,29.99,M,10.00,M,CLR,M,M,M,M,M,M,M,M,M,M,M,M,M,M,68.00,KHTH 170915Z AUTO 19004KT 10SM CLR 20/03 A2999 RMK A01,M
10U,2024-08-17 09:15,-116.1876,41.9532,1637.00,51.80,37.40,57.77,90.00,6.00,0.00,30.06,M,10.00,M,CLR,M,M,M,M,M,M,M,M,M,M,M,M,M,M,51.80,K10U 170915Z AUTO 09006KT 10SM CLR 11/03 A3006 RMK AO2,M
TMT,2024-08-17 09:15,-117.1971,39.4643,1749.34,42.40,21.70,43.40,0.00,0.00,0.00,30.09,M,10.00,M,CLR,M,M,M,M,M,M,M,M,M,M,M,M,M,M,42.40,KTMT 170915Z AUTO 00000KT 10SM CLR 06/M06 A3009 RMK AO2 T00581057,M
05U,2024-08-17 09:30,-116.0051,39.6042,1811.23,M,M,M,0.00,0.00,0.00,30.12,M,10.00,M,CLR,M,M,M,M,M,M,M,M,M,M,M,M,M,M,M,K05U 170930Z AUTO 00000KT 10SM CLR A3012 RMK A01,M
BVU,2024-08-17 09:35,-114.8611,35.9475,671.00,89.60,53.60,29.45,150.00,3.00,0.00,29.85,M,10.00,M,CLR,M,M,M,M,M,M,M,M,M,M,M,M,M,M,87.36,KBVU 170935Z AUTO 15003KT 10SM CLR 32/12 A2985 RMK AO2,M
CXP,2024-08-17 09:35,-119.7326,39.1923,1431.00,57.20,33.80,41.13,0.00,0.00,0.00,30.04,M,10.00,M,CLR,M,M,M,M,M,M,M,M,M,M,M,M,M,M,57.20,KCXP 170935Z AUTO 00000KT 10SM CLR 14/01 A3004 RMK AO2,M
RTS,2024-08-17 09:35,-119.8764,39.6682,1539.00,62.60,33.80,33.93,280.00,9.00,0.00,30.05,M,10.00,M,CLR,M,M,M,M,M,M,M,M,M,M,M,M,M,M,62.60,KRTS 170935Z AUTO 28009KT 10SM CLR 17/01 A3005 RMK AO2,M
MEV,2024-08-17 09:35,-119.7500,38.9963,1441.42,50.00,32.00,49.81,90.00,6.00,0.00,30.02,M,10.00,M,CLR,M,M,M,M,M,M,M,M,M,M,M,M,M,M,50.00,KMEV 170935Z AUTO 09006KT 10SM CLR 10/M00 A3002 RMK AO2,M
BAM,2024-08-17 09:35,-116.8743,40.5990,1382.36,51.80,23.00,32.17,0.00,0.00,0.00,30.00,M,10.00,M,CLR,M,M,M,M,M,M,M,M,M,M,M,M,M,M,51.80,KBAM 170935Z AUTO 00000KT 10SM CLR 11/M05 A3000 RMK AO1,M
HTH,2024-08-17 09:35,-118.6315,38.5448,1282.89,66.20,35.60,32.14,210.00,5.00,0.00,29.99,M,10.00,M,CLR,M,M,M,M,M,M,M,M,M,M,M,M,M,M,66.20,KHTH 170935Z AUTO 21005KT 10SM CLR 19/02 A2999 RMK A01,M
10U,2024-08-17 09:35,-116.1876,41.9532,1637.00,46.40,35.60,65.83,70.00,3.00,0.00,30.06,M,10.00,M,CLR,M,M,M,M,M,M,M,M,M,M,M,M,M,M,45.15,K10U 170935Z AUTO 07003KT 10SM CLR 08/02 A3006 RMK AO2,M
TMT,2024-08-17 09:35,-117.1971,39.4643,1749.34,42.00,24.80,50.19,0.00,0.00,0.00,30.09,M,10.00,M,CLR,M,M,M,M,M,M,M,M,M,M,M,M,M,M,42.00,KTMT 170935Z AUTO 00000KT 10SM CLR 06/M04 A3009 RMK AO2 T00561040,M
05U,2024-08-17 09:50,-116.0051,39.6042,1811.23,M,M,M,0.00,0.00,0.00,30.12,M,10.00,M,CLR,M,M,M,M,M,M,M,M,M,M,M,M,M,M,M,K05U 170950Z AUTO 00000KT 10SM CLR A3012 RMK A01,M
P68,2024-08-17 09:53,-116.0056,39.6014,1993.00,48.00,21.00,34.05,220.00,5.00,0.00,30.09,1010.50,M,M,M,M,M,M,M,M,M,M,M,M,M,M,M,M,M,45.40,KP68 170953Z AUTO 22005KT 09/M06 A3009 RMK AO1 SLP105 T00891061,M
DRA,2024-08-17 09:53,-116.0278,36.6206,1009.00,86.00,38.00,18.28,210.00,7.00,0.00,29.92,1007.00,10.00,M,CLR,M,M,M,M,M,M,M,M,M,M,M,M,M,M,82.75,KDRA 170953Z AUTO 21007KT 10SM CLR 30/03 A2992 RMK AO2 SLP070 T03000033,M
ELY,2024-08-17 09:53,-114.8453,39.2950,1909.00,55.00,25.00,31.11,180.00,5.00,0.00,30.15,1010.00,10.00,M,CLR,M,M,M,M,M,M,M,M,M,M,M,M,M,M,55.00,KELY 170953Z AUTO 18005KT 10SM CLR 13/M04 A3015 RMK AO2 SLP100 T01281039,M
VGT,2024-08-17 09:53,-115.1933,36.2111,667.00,94.00,49.00,21.65,190.00,5.00,0.00,29.84,1008.60,10.00,M,CLR,M,M,M,M,M,M,M,M,M,M,M,M,M,M,90.71,KVGT 170953Z AUTO 19005KT 10SM CLR 34/09 A2984 RMK AO2 SLP086 T03440094,M
LOL,2024-08-17 09:53,-118.5701,40.0684,1192.43,57.00,34.00,41.76,90.00,4.00,0.00,29.95,1010.50,10.00,M,CLR,M,M,M,M,M,M,M,M,M,M,M,M,M,M,57.00,KLOL 170953Z AUTO 09004KT 10SM CLR 14/01 A2995 RMK AO2 SLP105 T01390011,M
BVU,2024-08-17 09:55,-114.8611,35.9475,671.00,89.60,53.60,29.45,160.00,6.00,0.00,29.85,M,10.00,M,CLR,M,M,M,M,M,M,M,M,M,M,M,M,M,M,87.36,KBVU 170955Z AUTO 16006KT 10SM CLR 32/12 A2985 RMK AO2,M
CXP,2024-08-17 09:55,-119.7326,39.1923,1431.00,57.20,33.80,41.13,0.00,0.00,0.00,30.04,M,10.00,M,CLR,M,M,M,M,M,M,M,M,M,M,M,M,M,M,57.20,KCXP 170955Z AUTO 00000KT 10SM CLR 14/01 A3004 RMK AO2,M
RNO,2024-08-17 09:55,-119.7711,39.4839,1341.00,63.00,38.00,39.51,0.00,0.00,0.00,30.02,1010.60,10.00,M,CLR,M,M,M,M,M,M,M,M,M,M,M,M,M,M,63.00,KRNO 170955Z 00000KT 10SM CLR 17/03 A3002 RMK AO2 SLP106 T01720033,M
RTS,2024-08-17 09:55,-119.8764,39.6682,1539.00,60.80,33.80,36.16,M,3.00,0.00,30.05,M,10.00,M,CLR,M,M,M,M,M,M,M,M,M,M,M,M,M,M,60.80,KRTS 170955Z AUTO VRB03KT 10SM CLR 16/01 A3005 RMK AO2,M
MEV,2024-08-17 09:55,-119.7500,38.9963,1441.42,50.00,32.00,49.81,100.00,6.00,0.00,30.02,M,10.00,M,CLR,M,M,M,M,M,M,M,M,M,M,M,M,M,M,50.00,KMEV 170955Z AUTO 10006KT 10SM CLR 10/M00 A3002 RMK AO2,M
BAM,2024-08-17 09:55,-116.8743,40.5990,1382.36,48.20,21.20,34.09,0.00,0.00,0.00,30.00,M,10.00,M,CLR,M,M,M,M,M,M,M,M,M,M,M,M,M,M,48.20,KBAM 170955Z AUTO 00000KT 10SM CLR 09/M06 A3000 RMK AO1,M
HTH,2024-08-17 09:55,-118.6315,38.5448,1282.89,68.00,32.00,26.15,290.00,4.00,0.00,29.98,M,10.00,M,CLR,M,M,M,M,M,M,M,M,M,M,M,M,M,M,68.00,KHTH 170955Z AUTO 29004KT 10SM CLR 20/M00 A2998 RMK A01,M
10U,2024-08-17 09:55,-116.1876,41.9532,1637.00,44.60,35.60,70.48,0.00,0.00,0.00,30.06,M,10.00,M,CLR,M,M,M,M,M,M,M,M,M,M,M,M,M,M,44.60,K10U 170955Z AUTO 00000KT 10SM CLR 07/02 A3006 RMK AO2,M
TMT,2024-08-17 09:55,-117.1971,39.4643,1749.34,41.50,25.30,52.25,280.00,3.00,0.00,30.09,M,10.00,M,CLR,M,M,M,M,M,M,M,M,M,M,M,M,M,M,39.55,KTMT 170955Z AUTO 28003KT 10SM CLR 05/M04 A3009 RMK AO2 T00531037,M
INS,2024-08-17 09:55,-115.6733,36.5872,955.00,84.20,36.00,17.89,90.00,6.00,0.00,29.91,1006.40,10.00,M,FEW,SCT,OVC,M,12000.00,15000.00,18000.00,M,M,M,M,M,M,M,M,81.35,KINS 170955Z AUTO 09006KT 10SM FEW120 SCT150 OVC180 29/02 A2991 RMK AO2 SLP064 T02900023 $,M
LSV,2024-08-17 09:55,-115.0343,36.2362,570.00,94.00,51.80,24.03,140.00,6.00,0.00,29.84,1004.40,10.00,M,BKN,M,M,M,18000.00,M,M,M,M,M,M,M,M,M,M,91.25,KLSV 170955Z 14006KT 10SM BKN180 34/11 A2984 RMK A02A SLP044 WND DATA ESTMD T03440110,M
EKO,2024-08-17 09:56,-115.7860,40.8242,1367.00,56.00,29.00,35.38,100.00,4.00,0.00,30.04,1011.30,10.00,M,CLR,M,M,M,M,M,M,M,M,M,M,M,M,M,M,56.00,KEKO 170956Z AUTO 10004KT 10SM CLR 13/M02 A3004 RMK AO2 SLP113 T01331017,M
WMC,2024-08-17 09:56,-117.8072,40.9019,1315.00,48.00,29.00,47.52,170.00,7.00,0.00,29.98,1010.80,10.00,M,CLR,M,M,M,M,M,M,M,M,M,M,M,M,M,M,44.28,KWMC 170956Z AUTO 17007KT 10SM CLR 09/M02 A2998 RMK AO2 SLP108 T00891017,M
HND,2024-08-17 09:56,-115.1344,35.9729,742.79,89.00,54.00,30.45,210.00,3.00,0.00,29.90,1010.10,10.00,M,CLR,M,M,M,M,M,M,M,M,M,M,M,M,M,M,86.89,KHND 170956Z AUTO 21003KT 10SM CLR 32/12 A2990 RMK AO2 SLP101 T03170122,M
TPH,2024-08-17 09:56,-117.0904,38.0505,1654.00,57.00,13.00,17.30,350.00,7.00,0.00,30.08,1010.60,10.00,M,CLR,M,M,M,M,M,M,M,M,M,M,M,M,M,M,57.00,KTPH 170956Z AUTO 35007KT 10SM CLR 14/M11 A3008 RMK AO2 SLP106 T01391106,M
LAS,2024-08-17 09:56,-115.1634,36.0719,663.00,94.00,49.00,21.65,180.00,4.00,0.00,29.86,1007.60,10.00,M,SCT,BKN,M,M,12000.00,20000.00,M,M,M,M,M,M,M,M,M,90.71,KLAS 170956Z 18004KT 10SM SCT120 BKN200 34/09 A2986 RMK AO2 SLP076 T03440094,M
NFL,2024-08-17 09:57,-118.7010,39.4166,1199.00,60.00,32.00,34.61,0.00,0.00,0.00,29.96,1011.70,10.00,M,CLR,M,M,M,M,M,M,M,M,M,M,M,M,M,M,60.00,KNFL 170957Z AUTO 00000KT 10SM CLR 16/00 A2996 RMK AO2 SLP117 T01560000,M
05U,2024-08-17 10:10,-116.0051,39.6042,1811.23,M,M,M,0.00,0.00,0.00,30.11,M,10.00,M,CLR,M,M,M,M,M,M,M,M,M,M,M,M,M,M,M,K05U 171010Z AUTO 00000KT 10SM CLR A3011 RMK A01,M
BVU,2024-08-17 10:15,-114.8611,35.9475,671.00,89.60,53.60,29.45,270.00,3.00,0.00,29.85,M,10.00,M,CLR,M,M,M,M,M,M,M,M,M,M,M,M,M,M,87.36,KBVU 171015Z AUTO 27003KT 10SM CLR 32/12 A2985 RMK AO2,M
CXP,2024-08-17 10:15,-119.7326,39.1923,1431.00,53.60,33.80,46.88,0.00,0.00,0.00,30.04,M,10.00,M,CLR,M,M,M,M,M,M,M,M,M,M,M,M,M,M,53.60,KCXP 171015Z AUTO 00000KT 10SM CLR 12/01 A3004 RMK AO2,M
RTS,2024-08-17 10:15,-119.8764,39.6682,1539.00,59.00,33.80,38.56,M,3.00,0.00,30.05,M,10.00,M,CLR,M,M,M,M,M,M,M,M,M,M,M,M,M,M,59.00,KRTS 171015Z AUTO VRB03KT 10SM CLR 15/01 A3005 RMK AO2,M
MEV,2024-08-17 10:15,-119.7500,38.9963,1441.42,50.00,30.20,46.31,120.00,6.00,0.00,30.03,M,10.00,M,CLR,M,M,M,M,M,M,M,M,M,M,M,M,M,M,50.00,KMEV 171015Z AUTO 12006KT 10SM CLR 10/M01 A3003 RMK AO2,M
BAM,2024-08-17 10:15,-116.8743,40.5990,1382.36,50.00,21.20,31.87,0.00,0.00,0.00,30.00,M,10.00,M,CLR,M,M,M,M,M,M,M,M,M,M,M,M,M,M,50.00,KBAM 171015Z AUTO 00000KT 10SM CLR 10/M06 A3000 RMK AO1,M
HTH,2024-08-17 10:15,-118.6315,38.5448,1282.89,68.00,32.00,26.15,220.00,6.00,0.00,29.99,M,10.00,M,CLR,M,M,M,M,M,M,M,M,M,M,M,M,M,M,68.00,KHTH 171015Z AUTO 22006KT 10SM CLR 20/00 A2999 RMK A01,M
10U,2024-08-17 10:15,-116.1876,41.9532,1637.00,48.20,37.40,66.05,100.00,4.00,0.00,30.06,M,10.00,M,CLR,M,M,M,M,M,M,M,M,M,M,M,M,M,M,46.34,K10U 171015Z AUTO 10004KT 10SM CLR 09/03 A3006 RMK AO2,M
TMT,2024-08-17 10:15,-117.1971,39.4643,1749.34,36.00,18.70,49.03,0.00,0.00,0.00,30.09,M,10.00,M,CLR,M,M,M,M,M,M,M,M,M,M,M,M,M,M,36.00,KTMT 171015Z AUTO 00000KT 10SM CLR 02/M07 A3009 RMK AO2 T00231074,M
05U,2024-08-17 10:30,-116.0051,39.6042,1811.23,M,M,M,0.00,0.00,0.00,30.12,M,10.00,M,CLR,M,M,M,M,M,M,M,M,M,M,M,M,M,M,M,K05U 171030Z AUTO 00000KT 10SM CLR A3012 RMK A01,M
BVU,2024-08-17 10:35,-114.8611,35.9475,671.00,87.80,53.60,31.17,250.00,4.00,0.00,29.85,M,10.00,M,CLR,M,M,M,M,M,M,M,M,M,M,M,M,M,M,85.72,KBVU 171035Z AUTO 25004KT 10SM CLR 31/12 A2985 RMK AO2,M
CXP,2024-08-17 10:35,-119.7326,39.1923,1431.00,53.60,33.80,46.88,0.00,0.00,0.00,30.04,M,10.00,M,CLR,M,M,M,M,M,M,M,M,M,M,M,M,M,M,53.60,KCXP 171035Z AUTO 00000KT 10SM CLR 12/01 A3004 RMK AO2,M
RTS,2024-08-17 10:35,-119.8764,39.6682,1539.00,55.40,33.80,43.90,110.00,4.00,0.00,30.05,M,10.00,M,CLR,M,M,M,M,M,M,M,M,M,M,M,M,M,M,55.40,KRTS 171035Z AUTO 11004KT 10SM CLR 13/01 A3005 RMK AO2,M
MEV,2024-08-17 10:35,-119.7500,38.9963,1441.42,48.20,32.00,53.27,120.00,6.00,0.00,30.03,M,10.00,M,CLR,M,M,M,M,M,M,M,M,M,M,M,M,M,M,45.04,KMEV 171035Z AUTO 12006KT 10SM CLR 09/M00 A3003 RMK AO2,M
BAM,2024-08-17 10:35,-116.8743,40.5990,1382.36,51.80,23.00,32.17,220.00,3.00,0.00,30.00,M,10.00,M,CLR,M,M,M,M,M,M,M,M,M,M,M,M,M,M,51.80,KBAM 171035Z AUTO 22003KT 10SM CLR 11/M05 A3000 RMK AO1,M
HTH,2024-08-17 10:35,-118.6315,38.5448,1282.89,64.40,32.00,29.63,200.00,3.00,0.00,29.99,M,10.00,M,CLR,M,M,M,M,M,M,M,M,M,M,M,M,M,M,64.40,KHTH 171035Z AUTO 20003KT 10SM CLR 18/00 A2999 RMK A01,M
10U,2024-08-17 10:35,-116.1876,41.9532,1637.00,53.60,39.20,58.02,90.00,6.00,0.00,30.06,M,10.00,M,CLR,M,M,M,M,M,M,M,M,M,M,M,M,M,M,53.60,K10U 171035Z AUTO 09006KT 10SM CLR 12/04 A3006 RMK AO2,M
TMT,2024-08-17 10:35,-117.1971,39.4643,1749.34,39.20,20.00,45.70,210.00,3.00,0.00,30.08,M,10.00,M,CLR,M,M,M,M,M,M,M,M,M,M,M,M,M,M,36.92,KTMT 171035Z AUTO 21003KT 10SM CLR 04/M07 A3008 RMK AO2 T00401066,M
INS,2024-08-17 10:48,-115.6733,36.5872,955.00,86.00,39.20,19.15,70.00,3.00,0.00,29.91,1006.30,10.00,M,BKN,OVC,M,M,12000.00,15000.00,M,M,-RA,M,M,M,M,M,M,82.79,KINS 171048Z AUTO 07003KT 10SM -RA BKN120 OVC150 30/04 A2991 RMK AO2 RAB48 SLP063 $,M
RTS,2024-08-17 10:50,-119.8764,39.6682,1539.00,57.20,33.80,41.13,120.00,4.00,0.00,30.04,M,10.00,M,CLR,M,M,M,M,M,M,M,M,M,M,M,M,M,M,57.20,KRTS 171050Z AUTO 12004KT 10SM CLR 14/01 A3004 RMK AO2,M
05U,2024-08-17 10:50,-116.0051,39.6042,1811.23,M,M,M,0.00,0.00,0.00,30.11,M,10.00,M,CLR,M,M,M,M,M,M,M,M,M,M,M,M,M,M,M,K05U 171050Z AUTO 00000KT 10SM CLR A3011 RMK A01,M
MEV,2024-08-17 10:50,-119.7500,38.9963,1441.42,46.40,30.20,53.00,250.00,5.00,0.00,30.03,M,10.00,M,CLR,M,M,M,M,M,M,M,M,M,M,M,M,M,M,43.50,KMEV 171050Z AUTO 25005KT 10SM CLR 08/M01 A3003 RMK AO2,M
P68,2024-08-17 10:53,-116.0056,39.6014,1993.00,57.00,19.00,22.46,190.00,6.00,0.00,30.09,1009.50,M,M,M,M,M,M,M,M,M,M,M,M,M,M,M,M,M,57.00,KP68 171053Z AUTO 19006KT 14/M07 A3009 RMK AO1 SLP095 T01391072,M
DRA,2024-08-17 10:53,-116.0278,36.6206,1009.00,83.00,37.00,19.35,230.00,4.00,0.00,29.92,1007.20,10.00,M,BKN,M,M,M,9000.00,M,M,M,M,M,M,M,M,M,M,80.53,KDRA 171053Z AUTO 23004KT 10SM BKN090 28/03 A2992 RMK AO2 SLP072 T02830028,M
ELY,2024-08-17 10:53,-114.8453,39.2950,1909.00,57.00,26.00,30.16,250.00,4.00,0.00,30.15,1009.80,10.00,M,CLR,M,M,M,M,M,M,M,M,M,M,M,M,M,M,57.00,KELY 171053Z AUTO 25004KT 10SM CLR 14/M03 A3015 RMK AO2 SLP098 T01391033,M
VGT,2024-08-17 10:53,-115.1933,36.2111,667.00,91.00,50.00,24.68,150.00,6.00,0.00,29.84,1008.60,10.00,M,CLR,M,M,M,M,M,M,M,M,M,M,M,M,M,M,87.99,KVGT 171053Z AUTO 15006KT 10SM CLR 33/10 A2984 RMK AO2 SLP086 T03280100,M
LOL,2024-08-17 10:53,-118.5701,40.0684,1192.43,56.00,31.00,38.38,0.00,0.00,0.00,29.95,1010.40,10.00,M,CLR,M,M,M,M,M,M,M,M,M,M,M,M,M,M,56.00,KLOL 171053Z AUTO 00000KT 10SM CLR 13/M01 A2995 RMK AO2 SLP104 T01331006,M
BVU,2024-08-17 10:55,-114.8611,35.9475,671.00,89.60,53.60,29.45,200.00,6.00,0.00,29.85,M,10.00,M,CLR,M,M,M,M,M,M,M,M,M,M,M,M,M,M,87.36,KBVU 171055Z AUTO 20006KT 10SM CLR 32/12 A2985 RMK AO2,M
CXP,2024-08-17 10:55,-119.7326,39.1923,1431.00,53.60,33.80,46.88,0.00,0.00,0.00,30.04,M,10.00,M,CLR,M,M,M,M,M,M,M,M,M,M,M,M,M,M,53.60,KCXP 171055Z AUTO 00000KT 10SM CLR 12/01 A3004 RMK AO2,M
RNO,2024-08-17 10:55,-119.7711,39.4839,1341.00,60.00,38.00,43.94,200.00,3.00,0.00,30.01,1010.60,10.00,M,CLR,M,M,M,M,M,M,M,M,M,M,M,M,M,M,60.00,KRNO 171055Z 20003KT 10SM CLR 16/03 A3001 RMK AO2 SLP106 T01560033,M
BAM,2024-08-17 10:55,-116.8743,40.5990,1382.36,50.00,23.00,34.39,220.00,3.00,0.00,30.00,M,10.00,M,CLR,M,M,M,M,M,M,M,M,M,M,M,M,M,M,50.00,KBAM 171055Z AUTO 22003KT 10SM CLR 10/M05 A3000 RMK AO1,M
HTH,2024-08-17 10:55,-118.6315,38.5448,1282.89,66.20,33.80,29.92,M,4.00,0.00,29.99,M,10.00,M,CLR,M,M,M,M,M,M,M,M,M,M,M,M,M,M,66.20,KHTH 171055Z AUTO VRB04KT 10SM CLR 19/01 A2999 RMK A01,M
10U,2024-08-17 10:55,-116.1876,41.9532,1637.00,51.80,37.40,57.77,70.00,3.00,0.00,30.06,M,10.00,M,CLR,M,M,M,M,M,M,M,M,M,M,M,M,M,M,51.80,K10U 171055Z AUTO 07003KT 10SM CLR 11/03 A3006 RMK AO2,M
TMT,2024-08-17 10:55,-117.1971,39.4643,1749.34,36.00,17.60,46.76,140.00,3.00,0.00,30.09,M,10.00,M,CLR,M,M,M,M,M,M,M,M,M,M,M,M,M,M,33.26,KTMT 171055Z AUTO 14003KT 10SM CLR 02/M08 A3009 RMK AO2 T00221080,M
INS,2024-08-17 10:55,-115.6733,36.5872,955.00,86.40,45.30,23.92,0.00,0.00,T,29.90,1006.00,10.00,M,BKN,OVC,M,M,12000.00,15000.00,M,M,-RA,M,M,M,M,M,M,83.44,KINS 171055Z AUTO 00000KT 10SM -RA BKN120 OVC150 30/07 A2990 RMK AO2 RAB48 SLP060 P0000 T03020074 $,M
LSV,2024-08-17 10:55,-115.0343,36.2362,570.00,93.40,53.40,25.96,140.00,6.00,0.00,29.84,1004.40,10.00,M,BKN,M,M,M,20000.00,M,M,M,M,M,M,M,M,M,M,91.02,KLSV 171055Z 14006KT 10SM BKN200 34/12 A2984 RMK A02A SLP044 WND DATA ESTMD T03410119 10418 20350 54001,M
EKO,2024-08-17 10:56,-115.7860,40.8242,1367.00,50.00,29.00,44.10,0.00,0.00,0.00,30.05,1012.00,10.00,M,CLR,M,M,M,M,M,M,M,M,M,M,M,M,M,M,50.00,KEKO 171056Z AUTO 00000KT 10SM CLR 10/M02 A3005 RMK AO2 SLP120 T01001017,M
WMC,2024-08-17 10:56,-117.8072,40.9019,1315.00,47.00,25.00,41.83,0.00,0.00,0.00,29.97,1010.60,10.00,M,CLR,M,M,M,M,M,M,M,M,M,M,M,M,M,M,47.00,KWMC 171056Z AUTO 00000KT 10SM CLR 08/M04 A2997 RMK AO2 SLP106 T00831039,M
HND,2024-08-17 10:56,-115.1344,35.9729,742.79,88.00,53.00,30.30,0.00,0.00,0.00,29.90,1010.20,10.00,M,CLR,M,M,M,M,M,M,M,M,M,M,M,M,M,M,85.78,KHND 171056Z AUTO 00000KT 10SM CLR 31/12 A2990 RMK AO2 SLP102 T03110117,M
TPH,2024-08-17 10:56,-117.0904,38.0505,1654.00,57.00,14.00,18.08,350.00,7.00,0.00,30.07,1010.10,10.00,M,CLR,M,M,M,M,M,M,M,M,M,M,M,M,M,M,57.00,KTPH 171056Z AUTO 35007KT 10SM CLR 14/M10 A3007 RMK AO2 SLP101 T01391100,M
LAS,2024-08-17 10:56,-115.1634,36.0719,663.00,93.00,50.00,23.18,170.00,5.00,0.00,29.86,1007.70,10.00,M,SCT,BKN,M,M,12000.00,20000.00,M,M,M,M,M,M,M,M,M,89.90,KLAS 171056Z 17005KT 10SM SCT120 BKN200 34/10 A2986 RMK AO2 SLP077 T03390100,M
NFL,2024-08-17 10:57,-118.7010,39.4166,1199.00,59.00,35.00,40.45,220.00,3.00,0.00,29.96,1011.80,10.00,M,CLR,M,M,M,M,M,M,M,M,M,M,M,M,M,M,59.00,KNFL 171057Z AUTO 22003KT 10SM CLR 15/02 A2996 RMK AO2 SLP118 T01500017,M
INS,2024-08-17 11:05,-115.6733,36.5872,955.00,84.20,50.00,30.62,0.00,0.00,0.00,29.91,1006.40,10.00,M,OVC,M,M,M,11000.00,M,M,M,M,M,M,M,M,M,M,82.24,KINS 171105Z AUTO 00000KT 10SM OVC110 29/10 A2991 RMK AO2 RAE02DZB02E03RAB03E05 SLP064 $,M
05U,2024-08-17 11:10,-116.0051,39.6042,1811.23,M,M,M,0.00,0.00,0.00,30.11,M,10.00,10.00,CLR,M,M,M,M,M,M,M,M,M,M,M,M,M,M,M,K05U 171110Z AUTO 00000G10KT 10SM CLR A3011 RMK A01,M
INS,2024-08-17 11:12,-115.6733,36.5872,955.00,82.40,55.40,39.58,0.00,0.00,0.00,29.91,1006.40,10.00,M,OVC,M,M,M,11000.00,M,M,M,-RA,M,M,M,M,M,M,81.75,KINS 171112Z AUTO 00000KT 10SM -RA OVC110 28/13 A2991 RMK AO2 RAE02DZB02E03RAB03E05RAB12 SLP064 $,M
BVU,2024-08-17 11:15,-114.8611,35.9475,671.00,89.60,53.60,29.45,180.00,5.00,0.00,29.85,M,10.00,M,CLR,M,M,M,M,M,M,M,M,M,M,M,M,M,M,87.36,KBVU 171115Z AUTO 18005KT 10SM CLR 32/12 A2985 RMK AO2,M
CXP,2024-08-17 11:15,-119.7326,39.1923,1431.00,51.80,33.80,50.08,0.00,0.00,0.00,30.04,M,10.00,M,CLR,M,M,M,M,M,M,M,M,M,M,M,M,M,M,51.80,KCXP 171115Z AUTO 00000KT 10SM CLR 11/01 A3004 RMK AO2,M
RTS,2024-08-17 11:15,-119.8764,39.6682,1539.00,57.20,33.80,41.13,120.00,5.00,0.00,30.04,M,10.00,M,CLR,M,M,M,M,M,M,M,M,M,M,M,M,M,M,57.20,KRTS 171115Z AUTO 12005KT 10SM CLR 14/01 A3004 RMK AO2,M
MEV,2024-08-17 11:15,-119.7500,38.9963,1441.42,48.20,30.20,49.53,100.00,7.00,0.00,30.02,M,10.00,M,CLR,M,M,M,M,M,M,M,M,M,M,M,M,M,M,44.53,KMEV 171115Z AUTO 10007KT 10SM CLR 09/M01 A3002 RMK AO2,M
BAM,2024-08-17 11:15,-116.8743,40.5990,1382.36,46.40,21.20,36.48,0.00,0.00,0.00,30.00,M,10.00,M,CLR,M,M,M,M,M,M,M,M,M,M,M,M,M,M,46.40,KBAM 171115Z AUTO 00000KT 10SM CLR 08/M06 A3000 RMK AO1,M
HTH,2024-08-17 11:15,-118.6315,38.5448,1282.89,62.60,33.80,33.93,0.00,0.00,0.00,29.99,M,10.00,M,CLR,M,M,M,M,M,M,M,M,M,M,M,M,M,M,62.60,KHTH 171115Z AUTO 00000KT 10SM CLR 17/01 A2999 RMK A01,M
10U,2024-08-17 11:15,-116.1876,41.9532,1637.00,51.80,39.20,61.99,0.00,0.00,0.00,30.06,M,10.00,M,CLR,M,M,M,M,M,M,M,M,M,M,M,M,M,M,51.80,K10U 171115Z AUTO 00000KT 10SM CLR 11/04 A3006 RMK AO2,M
TMT,2024-08-17 11:15,-117.1971,39.4643,1749.34,39.00,19.40,44.90,0.00,0.00,0.00,30.08,M,10.00,M,CLR,M,M,M,M,M,M,M,M,M,M,M,M,M,M,39.00,KTMT 171115Z AUTO 00000KT 10SM CLR 04/M07 A3008 RMK AO2 T00391070,M
05U,2024-08-17 11:30,-116.0051,39.6042,1811.23,M,M,M,0.00,0.00,0.00,30.11,M,10.00,M,CLR,M,M,M,M,M,M,M,M,M,M,M,M,M,M,M,K05U 171130Z AUTO 00000KT 10SM CLR A3011 RMK A01,M
BVU,2024-08-17 11:35,-114.8611,35.9475,671.00,89.60,53.60,29.45,150.00,6.00,0.00,29.86,M,10.00,M,CLR,M,M,M,M,M,M,M,M,M,M,M,M,M,M,87.36,KBVU 171135Z AUTO 15006KT 10SM CLR 32/12 A2986 RMK AO2,M
CXP,2024-08-17 11:35,-119.7326,39.1923,1431.00,51.80,33.80,50.08,0.00,0.00,0.00,30.04,M,10.00,M,CLR,M,M,M,M,M,M,M,M,M,M,M,M,M,M,51.80,KCXP 171135Z AUTO 00000KT 10SM CLR 11/01 A3004 RMK AO2,M
RTS,2024-08-17 11:35,-119.8764,39.6682,1539.00,53.60,32.00,43.61,110.00,5.00,0.00,30.04,M,10.00,M,CLR,M,M,M,M,M,M,M,M,M,M,M,M,M,M,53.60,KRTS 171135Z AUTO 11005KT 10SM CLR 12/00 A3004 RMK AO2,M
MEV,2024-08-17 11:35,-119.7500,38.9963,1441.42,50.00,30.20,46.31,0.00,0.00,0.00,30.03,M,10.00,M,CLR,M,M,M,M,M,M,M,M,M,M,M,M,M,M,50.00,KMEV 171135Z AUTO 00000KT 10SM CLR 10/M01 A3003 RMK AO2,M
BAM,2024-08-17 11:35,-116.8743,40.5990,1382.36,46.40,21.20,36.48,70.00,5.00,0.00,30.00,M,10.00,M,CLR,M,M,M,M,M,M,M,M,M,M,M,M,M,M,43.50,KBAM 171135Z AUTO 07005KT 10SM CLR 08/M06 A3000 RMK AO1,M
HTH,2024-08-17 11:35,-118.6315,38.5448,1282.89,62.60,35.60,36.45,200.00,5.00,0.00,29.99,M,10.00,M,CLR,M,M,M,M,M,M,M,M,M,M,M,M,M,M,62.60,KHTH 171135Z AUTO 20005KT 10SM CLR 17/02 A2999 RMK A01,M
10U,2024-08-17 11:35,-116.1876,41.9532,1637.00,51.80,39.20,61.99,100.00,6.00,0.00,30.06,M,10.00,M,CLR,M,M,M,M,M,M,M,M,M,M,M,M,M,M,51.80,K10U 171135Z AUTO 10006KT 10SM CLR 11/04 A3006 RMK AO2,M
TMT,2024-08-17 11:35,-117.1971,39.4643,1749.34,41.50,22.60,46.67,0.00,0.00,0.00,30.08,M,10.00,M,CLR,M,M,M,M,M,M,M,M,M,M,M,M,M,M,41.50,KTMT 171135Z AUTO 00000KT 10SM CLR 05/M05 A3008 RMK AO2 T00531052,M
05U,2024-08-17 11:50,-116.0051,39.6042,1811.23,M,M,M,0.00,0.00,0.00,30.11,M,10.00,M,CLR,M,M,M,M,M,M,M,M,M,M,M,M,M,M,M,K05U 171150Z AUTO 00000KT 10SM CLR A3011 RMK A01,M
P68,2024-08-17 11:53,-116.0056,39.6014,1993.00,54.00,22.00,28.45,190.00,7.00,0.00,30.09,1009.80,M,M,M,M,M,M,M,M,M,M,M,M,M,M,M,M,M,54.00,KP68 171153Z AUTO 19007KT 12/M06 A3009 RMK AO1 SLP098 T01221056 10156 20083 56002,M
DRA,2024-08-17 11:53,-116.0278,36.6206,1009.00,86.00,54.00,33.50,160.00,8.00,0.00,29.93,1007.20,10.00,M,FEW,OVC,M,M,8500.00,11000.00,M,M,M,M,M,M,M,M,M,84.26,KDRA 171153Z AUTO 16008KT 10SM FEW085 OVC110 30/12 A2993 RMK AO2 SLP072 T03000122 10311 20283 53000,M
ELY,2024-08-17 11:53,-114.8453,39.2950,1909.00,58.00,30.00,34.28,210.00,6.00,0.00,30.15,1009.90,10.00,M,CLR,M,M,M,M,M,M,M,M,M,M,M,M,M,M,58.00,KELY 171153Z AUTO 21006KT 10SM CLR 14/M01 A3015 RMK AO2 SLP099 T01441011 10194 20122 55001,M
VGT,2024-08-17 11:53,-115.1933,36.2111,667.00,93.00,50.00,23.18,160.00,8.00,0.00,29.85,1008.90,10.00,M,CLR,M,M,M,M,M,M,M,M,M,M,M,M,M,M,89.90,KVGT 171153Z AUTO 16008KT 10SM CLR 34/10 A2985 RMK AO2 SLP089 T03390100 10367 20328 53004,M
LOL,2024-08-17 11:53,-118.5701,40.0684,1192.43,48.00,32.00,53.67,240.00,3.00,0.00,29.96,1011.00,10.00,M,CLR,M,M,M,M,M,M,M,M,M,M,M,M,M,M,46.98,KLOL 171153Z AUTO 24003KT 10SM CLR 09/00 A2996 RMK AO2 SLP110 T00890000 10189 20089 55001,M
RTS,2024-08-17 11:55,-119.8764,39.6682,1539.00,53.60,35.60,50.36,130.00,4.00,0.00,30.04,M,10.00,M,CLR,M,M,M,M,M,M,M,M,M,M,M,M,M,M,53.60,KRTS 171155Z AUTO 13004KT 10SM CLR 12/02 A3004 RMK AO2,M
MEV,2024-08-17 11:55,-119.7500,38.9963,1441.42,42.80,28.40,56.48,0.00,0.00,0.00,30.02,M,10.00,M,CLR,M,M,M,M,M,M,M,M,M,M,M,M,M,M,42.80,KMEV 171155Z AUTO 00000KT 10SM CLR 06/M02 A3002 RMK AO2,M
BAM,2024-08-17 11:55,-116.8743,40.5990,1382.36,50.00,23.00,34.39,0.00,0.00,0.00,29.99,M,10.00,M,CLR,M,M,M,M,M,M,M,M,M,M,M,M,M,M,50.00,KBAM 171155Z AUTO 00000KT 10SM CLR 10/M05 A2999 RMK AO1,M
HTH,2024-08-17 11:55,-118.6315,38.5448,1282.89,62.60,35.60,36.45,220.00,4.00,0.00,29.99,M,10.00,M,CLR,M,M,M,M,M,M,M,M,M,M,M,M,M,M,62.60,KHTH 171155Z AUTO 22004KT 10SM CLR 17/02 A2999 RMK A01,M
10U,2024-08-17 11:55,-116.1876,41.9532,1637.00,51.80,37.40,57.77,70.00,5.00,0.00,30.06,M,10.00,M,CLR,M,M,M,M,M,M,M,M,M,M,M,M,M,M,51.80,K10U 171155Z AUTO 07005KT 10SM CLR 11/03 A3006 RMK AO2,M
BVU,2024-08-17 11:55,-114.8611,35.9475,671.00,89.60,53.60,29.45,150.00,10.00,0.00,29.86,M,10.00,M,CLR,M,M,M,M,M,M,M,M,M,M,M,M,M,M,87.36,KBVU 171155Z AUTO 15010KT 10SM CLR 32/12 A2986 RMK AO2,M
CXP,2024-08-17 11:55,-119.7326,39.1923,1431.00,51.80,33.80,50.08,0.00,0.00,0.00,30.04,M,10.00,M,CLR,M,M,M,M,M,M,M,M,M,M,M,M,M,M,51.80,KCXP 171155Z AUTO 00000KT 10SM CLR 11/01 A3004 RMK AO2,M
RNO,2024-08-17 11:55,-119.7711,39.4839,1341.00,59.00,38.00,45.53,260.00,4.00,0.00,30.01,1010.60,10.00,M,CLR,M,M,M,M,M,M,M,M,M,M,M,M,M,M,59.00,KRNO 171155Z 26004KT 10SM CLR 15/03 A3001 RMK AO2 SLP106 T01500033 10228 20144 56004,M
TMT,2024-08-17 11:55,-117.1971,39.4643,1749.34,38.50,20.00,46.97,0.00,0.00,0.00,30.08,M,10.00,M,CLR,M,M,M,M,M,M,M,M,M,M,M,M,M,M,38.50,KTMT 171155Z AUTO 00000KT 10SM CLR 04/M07 A3008 RMK AO2 T00361067 10113 20010,M
INS,2024-08-17 11:55,-115.6733,36.5872,955.00,79.50,60.30,51.89,40.00,8.00,0.05,29.93,1007.40,10.00,M,SCT,OVC,M,M,8500.00,10000.00,M,M,VCTS -RA,M,M,M,M,M,M,79.50,KINS 171155Z AUTO 04008KT 10SM VCTS -RA SCT085 OVC100 26/16 A2993 RMK AO2 RAE02DZB02E03RAB03E05RAB12 SLP074 P0005 60005 70005 T02640157 10321 20264 50009 $,M
LSV,2024-08-17 11:55,-115.0343,36.2362,570.00,93.40,53.40,25.96,150.00,6.00,0.00,29.85,1004.60,10.00,M,BKN,M,M,M,18000.00,M,M,M,M,M,M,M,M,M,M,91.02,KLSV 171155Z 15006KT 10SM BKN180 34/12 A2985 RMK A02A SLP046 WND DATA ESTMD T03410119,M
HND,2024-08-17 11:56,-115.1344,35.9729,742.79,89.00,56.00,32.75,220.00,7.00,0.00,29.90,1010.40,10.00,M,CLR,M,M,M,M,M,M,M,M,M,M,M,M,M,M,87.37,KHND 171156Z AUTO 22007KT 10SM CLR 32/13 A2990 RMK AO2 SLP104 T03170133 10350 20306 53004,M
TPH,2024-08-17 11:56,-117.0904,38.0505,1654.00,56.00,14.00,18.75,360.00,7.00,0.00,30.07,1010.10,10.00,M,CLR,M,M,M,M,M,M,M,M,M,M,M,M,M,M,56.00,KTPH 171156Z AUTO 36007KT 10SM CLR 13/M10 A3007 RMK AO2 SLP101 T01331100 10211 20117 58002,M
LAS,2024-08-17 11:56,-115.1634,36.0719,663.00,92.00,51.00,24.82,210.00,3.00,0.00,29.87,1008.00,10.00,M,SCT,BKN,M,M,12000.00,20000.00,M,M,M,M,M,M,M,M,M,89.11,KLAS 171156Z 21003KT 10SM SCT120 BKN200 33/11 A2987 RMK AO2 SLP080 T03330106 10372 20333 53005,M
EKO,2024-08-17 11:56,-115.7860,40.8242,1367.00,50.00,28.00,42.33,0.00,0.00,0.00,30.06,1012.50,10.00,M,CLR,M,M,M,M,M,M,M,M,M,M,M,M,M,M,50.00,KEKO 171156Z AUTO 00000KT 10SM CLR 10/M02 A3006 RMK AO2 SLP125 T01001022 10189 20078 53004,M
WMC,2024-08-17 11:56,-117.8072,40.9019,1315.00,46.00,25.00,43.44,0.00,0.00,0.00,29.97,1010.80,10.00,M,CLR,M,M,M,M,M,M,M,M,M,M,M,M,M,M,46.00,KWMC 171156Z AUTO 00000KT 10SM CLR 08/M04 A2997 RMK AO2 SLP108 T00781039 10183 20072 58001,M
NFL,2024-08-17 11:57,-118.7010,39.4166,1199.00,58.00,37.00,45.38,210.00,4.00,0.00,29.96,1011.70,10.00,M,CLR,M,M,M,M,M,M,M,M,M,M,M,M,M,M,58.00,KNFL 171157Z AUTO 21004KT 10SM CLR 14/03 A2996 RMK AO2 SLP117 T01440028 10217 20133 57000,M
INS,2024-08-17 12:00,-115.6733,36.5872,955.00,77.00,62.60,61.13,340.00,7.00,0.00,29.93,1007.40,10.00,M,SCT,OVC,M,M,8500.00,10000.00,M,M,M,M,M,M,M,M,M,77.00,KINS 171200Z AUTO 34007KT 10SM SCT085 OVC100 25/17 A2993 RMK AO2 LTG DSNT NW RAE00 SLP074 $,M
05U,2024-08-17 12:10,-116.0051,39.6042,1811.23,M,M,M,0.00,0.00,0.00,30.12,M,10.00,M,CLR,M,M,M,M,M,M,M,M,M,M,M,M,M,M,M,K05U 171210Z AUTO 00000KT 10SM CLR A3012 RMK A01,M
INS,2024-08-17 12:14,-115.6733,36.5872,955.00,77.00,62.60,61.13,320.00,8.00,0.00,29.94,1007.70,10.00,M,OVC,M,M,M,10000.00,M,M,M,-RA,M,M,M,M,M,M,77.00,KINS 171214Z AUTO 32008KT 10SM -RA OVC100 25/17 A2994 RMK AO2 LTG DSNT NW RAE00RAB14 SLP077 $,M
BVU,2024-08-17 12:15,-114.8611,35.9475,671.00,87.80,53.60,31.17,130.00,3.00,0.00,29.86,M,10.00,M,CLR,M,M,M,M,M,M,M,M,M,M,M,M,M,M,85.72,KBVU 171215Z AUTO 13003KT 10SM CLR 31/12 A2986 RMK AO2,M
CXP,2024-08-17 12:15,-119.7326,39.1923,1431.00,50.00,33.80,53.54,0.00,0.00,0.00,30.04,M,10.00,M,CLR,M,M,M,M,M,M,M,M,M,M,M,M,M,M,50.00,KCXP 171215Z AUTO 00000KT 10SM CLR 10/01 A3004 RMK AO2,M
RTS,2024-08-17 12:15,-119.8764,39.6682,1539.00,51.80,32.00,46.59,0.00,0.00,0.00,30.05,M,10.00,M,CLR,M,M,M,M,M,M,M,M,M,M,M,M,M,M,51.80,KRTS 171215Z AUTO 00000KT 10SM CLR 11/00 A3005 RMK AO2,M
MEV,2024-08-17 12:15,-119.7500,38.9963,1441.42,42.80,30.20,60.79,0.00,0.00,0.00,30.02,M,10.00,M,CLR,M,M,M,M,M,M,M,M,M,M,M,M,M,M,42.80,KMEV 171215Z AUTO 00000KT 10SM CLR 06/M01 A3002 RMK AO2,M
BAM,2024-08-17 12:15,-116.8743,40.5990,1382.36,46.40,23.00,39.36,0.00,0.00,0.00,29.99,M,10.00,M,CLR,M,M,M,M,M,M,M,M,M,M,M,M,M,M,46.40,KBAM 171215Z AUTO 00000KT 10SM CLR 08/M05 A2999 RMK AO1,M
HTH,2024-08-17 12:15,-118.6315,38.5448,1282.89,62.60,37.40,39.14,190.00,4.00,0.00,29.99,M,10.00,M,CLR,M,M,M,M,M,M,M,M,M,M,M,M,M,M,62.60,KHTH 171215Z AUTO 19004KT 10SM CLR 17/03 A2999 RMK A01,M
10U,2024-08-17 12:15,-116.1876,41.9532,1637.00,46.40,35.60,65.83,350.00,4.00,0.00,30.06,M,10.00,M,CLR,M,M,M,M,M,M,M,M,M,M,M,M,M,M,44.24,K10U 171215Z AUTO 35004KT 10SM CLR 08/02 A3006 RMK AO2,M
TMT,2024-08-17 12:15,-117.1971,39.4643,1749.34,35.60,18.70,49.81,0.00,0.00,0.00,30.08,M,10.00,M,CLR,M,M,M,M,M,M,M,M,M,M,M,M,M,M,35.60,KTMT 171215Z AUTO 00000KT 10SM CLR 02/M07 A3008 RMK AO2 T00201074,M
05U,2024-08-17 12:30,-116.0051,39.6042,1811.23,M,M,M,210.00,6.00,0.00,30.12,M,10.00,M,CLR,M,M,M,M,M,M,M,M,M,M,M,M,M,M,M,K05U 171230Z AUTO 21006KT 10SM CLR A3012 RMK A01,M
BVU,2024-08-17 12:35,-114.8611,35.9475,671.00,86.00,53.60,33.01,280.00,5.00,0.00,29.87,M,10.00,M,CLR,M,M,M,M,M,M,M,M,M,M,M,M,M,M,84.18,KBVU 171235Z AUTO 28005KT 10SM CLR 30/12 A2987 RMK AO2,M
CXP,2024-08-17 12:35,-119.7326,39.1923,1431.00,50.00,33.80,53.54,0.00,0.00,0.00,30.04,M,10.00,M,CLR,M,M,M,M,M,M,M,M,M,M,M,M,M,M,50.00,KCXP 171235Z AUTO 00000KT 10SM CLR 10/01 A3004 RMK AO2,M
RTS,2024-08-17 12:35,-119.8764,39.6682,1539.00,51.80,32.00,46.59,0.00,0.00,0.00,30.05,M,10.00,M,CLR,M,M,M,M,M,M,M,M,M,M,M,M,M,M,51.80,KRTS 171235Z AUTO 00000KT 10SM CLR 11/00 A3005 RMK AO2,M
MEV,2024-08-17 12:35,-119.7500,38.9963,1441.42,44.60,30.20,56.74,0.00,0.00,0.00,30.03,M,10.00,M,CLR,M,M,M,M,M,M,M,M,M,M,M,M,M,M,44.60,KMEV 171235Z AUTO 00000KT 10SM CLR 07/M01 A3003 RMK AO2,M
BAM,2024-08-17 12:35,-116.8743,40.5990,1382.36,50.00,24.80,37.08,360.00,3.00,0.00,30.00,M,10.00,M,CLR,M,M,M,M,M,M,M,M,M,M,M,M,M,M,50.00,KBAM 171235Z AUTO 36003KT 10SM CLR 10/M04 A3000 RMK AO1,M
HTH,2024-08-17 12:35,-118.6315,38.5448,1282.89,62.60,37.40,39.14,210.00,4.00,0.00,30.00,M,10.00,M,CLR,M,M,M,M,M,M,M,M,M,M,M,M,M,M,62.60,KHTH 171235Z AUTO 21004KT 10SM CLR 17/03 A3000 RMK A01,M
10U,2024-08-17 12:35,-116.1876,41.9532,1637.00,46.40,35.60,65.83,0.00,0.00,0.00,30.06,M,10.00,M,CLR,M,M,M,M,M,M,M,M,M,M,M,M,M,M,46.40,K10U 171235Z AUTO 00000KT 10SM CLR 08/02 A3006 RMK AO2,M
TMT,2024-08-17 12:35,-117.1971,39.4643,1749.34,34.30,15.60,45.88,130.00,3.00,0.00,30.09,M,10.00,M,CLR,M,M,M,M,M,M,M,M,M,M,M,M,M,M,31.32,KTMT 171235Z AUTO 13003KT 10SM CLR 01/M09 A3009 RMK AO2 T00131091,M
INS,2024-08-17 12:47,-115.6733,36.5872,955.00,73.40,64.40,73.44,280.00,6.00,0.00,29.96,1008.50,10.00,M,FEW,BKN,OVC,M,300.00,9500.00,12000.00,M,M,M,M,M,M,M,M,73.40,KINS 171247Z AUTO 28006KT 10SM FEW003 BKN095 OVC120 23/18 A2996 RMK AO2 RAE00RAB14E47 SLP085 $,M
INS,2024-08-17 12:48,-115.6733,36.5872,955.00,73.40,64.40,73.44,290.00,6.00,0.00,29.96,1008.50,10.00,M,FEW,BKN,OVC,M,300.00,9500.00,12000.00,M,-RA,M,M,M,M,M,M,73.40,KINS 171248Z AUTO 29006KT 10SM -RA FEW003 BKN095 OVC120 23/18 A2996 RMK AO2 RAE00RAB14E47RAB48 SLP085 $,M
INS,2024-08-17 12:49,-115.6733,36.5872,955.00,73.40,64.40,73.44,290.00,6.00,0.00,29.96,1008.50,10.00,M,FEW,BKN,OVC,M,300.00,9500.00,12000.00,M,-TSRA,M,M,M,M,M,M,73.40,KINS 171249Z AUTO 29006KT 10SM -TSRA FEW003 BKN095 OVC120 23/18 A2996 RMK AO2 RAE00RAB14E47RAB48 TSB49 SLP085 $,M
05U,2024-08-17 12:50,-116.0051,39.6042,1811.23,M,M,M,0.00,0.00,0.00,30.12,M,10.00,M,CLR,M,M,M,M,M,M,M,M,M,M,M,M,M,M,M,K05U 171250Z AUTO 00000KT 10SM CLR A3012 RMK A01,M
P68,2024-08-17 12:53,-116.0056,39.6014,1993.00,51.00,20.00,29.18,160.00,6.00,0.00,30.10,1010.40,M,M,M,M,M,M,M,M,M,M,M,M,M,M,M,M,M,51.00,KP68 171253Z AUTO 16006KT 11/M07 A3010 RMK AO1 SLP104 T01061067,M
DRA,2024-08-17 12:53,-116.0278,36.6206,1009.00,83.00,54.00,36.89,140.00,7.00,0.00,29.93,1007.60,10.00,M,BKN,BKN,M,M,8000.00,11000.00,M,M,M,M,M,M,M,M,M,81.94,KDRA 171253Z AUTO 14007KT 10SM BKN080 BKN110 28/12 A2993 RMK AO2 SLP076 T02830122,M
ELY,2024-08-17 12:53,-114.8453,39.2950,1909.00,57.00,32.00,38.54,190.00,7.00,0.00,30.16,1010.20,10.00,M,BKN,M,M,M,9500.00,M,M,M,M,M,M,M,M,M,M,57.00,KELY 171253Z AUTO 19007KT 10SM BKN095 14/00 A3016 RMK AO2 SLP102 T01390000,M
VGT,2024-08-17 12:53,-115.1933,36.2111,667.00,91.00,50.00,24.68,160.00,4.00,0.00,29.87,1009.70,10.00,M,CLR,M,M,M,M,M,M,M,M,M,M,M,M,M,M,87.99,KVGT 171253Z 16004KT 10SM CLR 33/10 A2987 RMK AO2 SLP097 T03280100,M
LOL,2024-08-17 12:53,-118.5701,40.0684,1192.43,48.00,31.00,51.54,60.00,4.00,0.00,29.96,1011.10,10.00,M,CLR,M,M,M,M,M,M,M,M,M,M,M,M,M,M,46.10,KLOL 171253Z AUTO 06004KT 10SM CLR 09/M01 A2996 RMK AO2 SLP111 T00891006,M
BVU,2024-08-17 12:55,-114.8611,35.9475,671.00,87.80,53.60,31.17,230.00,4.00,0.00,29.88,M,10.00,M,CLR,M,M,M,M,M,M,M,M,M,M,M,M,M,M,85.72,KBVU 171255Z AUTO 23004KT 10SM CLR 31/12 A2988 RMK AO2,M
CXP,2024-08-17 12:55,-119.7326,39.1923,1431.00,50.00,35.60,57.52,0.00,0.00,0.00,30.04,M,10.00,M,CLR,M,M,M,M,M,M,M,M,M,M,M,M,M,M,50.00,KCXP 171255Z AUTO 00000KT 10SM CLR 10/02 A3004 RMK AO2,M
RNO,2024-08-17 12:55,-119.7711,39.4839,1341.00,59.00,35.00,40.45,0.00,0.00,0.00,30.01,1010.90,10.00,M,CLR,M,M,M,M,M,M,M,M,M,M,M,M,M,M,59.00,KRNO 171255Z 00000KT 10SM CLR 15/02 A3001 RMK AO2 SLP109 T01500017,M
RTS,2024-08-17 12:55,-119.8764,39.6682,1539.00,48.20,30.20,49.53,0.00,0.00,0.00,30.05,M,10.00,M,CLR,M,M,M,M,M,M,M,M,M,M,M,M,M,M,48.20,KRTS 171255Z AUTO 00000KT 10SM CLR 09/M01 A3005 RMK AO2,M
MEV,2024-08-17 12:55,-119.7500,38.9963,1441.42,44.60,30.20,56.74,0.00,0.00,0.00,30.03,M,10.00,M,CLR,M,M,M,M,M,M,M,M,M,M,M,M,M,M,44.60,KMEV 171255Z AUTO 00000KT 10SM CLR 07/M01 A3003 RMK AO2,M
BAM,2024-08-17 12:55,-116.8743,40.5990,1382.36,51.80,28.40,40.25,360.00,4.00,0.00,30.00,M,10.00,M,CLR,M,M,M,M,M,M,M,M,M,M,M,M,M,M,51.80,KBAM 171255Z AUTO 36004KT 10SM CLR 11/M02 A3000 RMK AO1,M
HTH,2024-08-17 12:55,-118.6315,38.5448,1282.89,60.80,39.20,44.76,210.00,4.00,0.00,30.00,M,10.00,M,CLR,M,M,M,M,M,M,M,M,M,M,M,M,M,M,60.80,KHTH 171255Z AUTO 21004KT 10SM CLR 16/04 A3000 RMK A01,M
10U,2024-08-17 12:55,-116.1876,41.9532,1637.00,51.80,37.40,57.77,90.00,4.00,0.00,30.06,M,10.00,M,CLR,M,M,M,M,M,M,M,M,M,M,M,M,M,M,51.80,K10U 171255Z AUTO 09004KT 10SM CLR 11/03 A3006 RMK AO2,M
TMT,2024-08-17 12:55,-117.1971,39.4643,1749.34,34.50,16.30,46.92,230.00,7.00,0.00,30.10,M,10.00,M,SCT,M,M,M,200.00,M,M,M,M,M,M,M,M,M,M,27.83,KTMT 171255Z AUTO 23007KT 10SM SCT002 01/M09 A3010 RMK AO2 T00141087,M
INS,2024-08-17 12:55,-115.6733,36.5872,955.00,74.00,64.80,72.99,330.00,4.00,0.05,29.96,1008.50,8.00,M,FEW,BKN,OVC,M,300.00,9500.00,12000.00,M,TSRA,M,M,M,M,M,M,74.00,KINS 171255Z AUTO 33004KT 8SM TSRA FEW003 BKN095 OVC120 23/18 A2996 RMK AO2 RAE00RAB14E47RAB48 TSB49 SLP085 P0005 T02330182 $,M
LSV,2024-08-17 12:55,-115.0343,36.2362,570.00,92.30,57.00,30.62,150.00,5.00,0.00,29.87,1005.30,10.00,M,BKN,M,M,M,18000.00,M,M,M,M,M,M,M,M,M,M,90.91,KLSV 171255Z 15005KT 10SM BKN180 34/14 A2987 RMK A02A SLP053 WND DATA ESTMD T03350138,M
EKO,2024-08-17 12:56,-115.7860,40.8242,1367.00,52.00,31.00,44.42,80.00,4.00,0.00,30.06,1012.40,10.00,M,CLR,M,M,M,M,M,M,M,M,M,M,M,M,M,M,52.00,KEKO 171256Z AUTO 08004KT 10SM CLR 11/M01 A3006 RMK AO2 SLP124 T01111006,M
WMC,2024-08-17 12:56,-117.8072,40.9019,1315.00,44.00,25.00,46.88,140.00,6.00,0.00,29.98,1011.20,10.00,M,CLR,M,M,M,M,M,M,M,M,M,M,M,M,M,M,39.98,KWMC 171256Z AUTO 14006KT 10SM CLR 07/M04 A2998 RMK AO2 SLP112 T00671039,M
HND,2024-08-17 12:56,-115.1344,35.9729,742.79,88.00,57.00,35.05,170.00,7.00,0.00,29.92,1011.00,10.00,M,CLR,M,M,M,M,M,M,M,M,M,M,M,M,M,M,86.71,KHND 171256Z AUTO 17007KT 10SM CLR 31/14 A2992 RMK AO2 SLP110 T03110139,M
TPH,2024-08-17 12:56,-117.0904,38.0505,1654.00,55.00,16.00,21.21,350.00,7.00,0.00,30.07,1010.50,10.00,M,CLR,M,M,M,M,M,M,M,M,M,M,M,M,M,M,55.00,KTPH 171256Z AUTO 35007KT 10SM CLR 13/M09 A3007 RMK AO2 SLP105 T01281089,M
LAS,2024-08-17 12:56,-115.1634,36.0719,663.00,93.00,54.00,26.87,200.00,5.00,0.00,29.89,1008.50,10.00,M,BKN,BKN,M,M,12000.00,25000.00,M,M,M,M,M,M,M,M,M,90.76,KLAS 171256Z 20005KT 10SM BKN120 BKN250 34/12 A2989 RMK AO2 SLP085 T03390122,M
NFL,2024-08-17 12:57,-118.7010,39.4166,1199.00,52.00,36.00,54.26,140.00,6.00,0.00,29.96,1011.90,10.00,M,CLR,M,M,M,M,M,M,M,M,M,M,M,M,M,M,52.00,KNFL 171257Z AUTO 14006KT 10SM CLR 11/02 A2996 RMK AO2 SLP119 T01110022,M
05U,2024-08-17 13:10,-116.0051,39.6042,1811.23,M,M,M,0.00,0.00,0.00,30.12,M,10.00,M,CLR,M,M,M,M,M,M,M,M,M,M,M,M,M,M,M,K05U 171310Z AUTO 00000KT 10SM CLR A3012 RMK A01,M
INS,2024-08-17 13:13,-115.6733,36.5872,955.00,73.40,62.60,68.94,240.00,3.00,0.00,29.96,1008.60,10.00,M,FEW,FEW,SCT,BKN,700.00,7000.00,9500.00,13000.00,TS,M,M,M,M,M,M,73.40,KINS 171313Z AUTO 24003KT 10SM TS FEW007 FEW070 SCT095 BKN130 23/17 A2996 RMK AO2 RAE13 SLP086 $,M
BVU,2024-08-17 13:15,-114.8611,35.9475,671.00,87.80,53.60,31.17,220.00,4.00,0.00,29.88,M,10.00,M,CLR,M,M,M,M,M,M,M,M,M,M,M,M,M,M,85.72,KBVU 171315Z AUTO 22004KT 10SM CLR 31/12 A2988 RMK AO2,M
CXP,2024-08-17 13:15,-119.7326,39.1923,1431.00,48.20,35.60,61.52,0.00,0.00,0.00,30.04,M,10.00,M,CLR,M,M,M,M,M,M,M,M,M,M,M,M,M,M,48.20,KCXP 171315Z AUTO 00000KT 10SM CLR 09/02 A3004 RMK AO2,M
INS,2024-08-17 13:15,-115.6733,36.5872,955.00,73.40,62.60,68.94,0.00,0.00,0.00,29.96,1008.60,10.00,M,FEW,FEW,SCT,BKN,400.00,7000.00,9500.00,13000.00,VCTS,M,M,M,M,M,M,73.40,KINS 171315Z AUTO 00000KT 10SM VCTS FEW004 FEW070 SCT095 BKN130 23/17 A2996 RMK AO2 RAE13 TSE15 SLP086 $,M
RTS,2024-08-17 13:15,-119.8764,39.6682,1539.00,46.40,28.40,49.24,350.00,4.00,0.00,30.05,M,10.00,M,CLR,M,M,M,M,M,M,M,M,M,M,M,M,M,M,44.24,KRTS 171315Z AUTO 35004KT 10SM CLR 08/M02 A3005 RMK AO2,M
MEV,2024-08-17 13:15,-119.7500,38.9963,1441.42,41.00,28.40,60.54,0.00,0.00,0.00,30.03,M,10.00,M,CLR,M,M,M,M,M,M,M,M,M,M,M,M,M,M,41.00,KMEV 171315Z AUTO 00000KT 10SM CLR 05/M02 A3003 RMK AO2,M
BAM,2024-08-17 13:15,-116.8743,40.5990,1382.36,51.80,30.20,43.32,30.00,6.00,0.00,30.00,M,10.00,M,CLR,M,M,M,M,M,M,M,M,M,M,M,M,M,M,51.80,KBAM 171315Z AUTO 03006KT 10SM CLR 11/M01 A3000 RMK AO1,M
HTH,2024-08-17 13:15,-118.6315,38.5448,1282.89,62.60,35.60,36.45,210.00,6.00,0.00,30.00,M,10.00,M,CLR,M,M,M,M,M,M,M,M,M,M,M,M,M,M,62.60,KHTH 171315Z AUTO 21006KT 10SM CLR 17/02 A3000 RMK A01,M
10U,2024-08-17 13:15,-116.1876,41.9532,1637.00,53.60,39.20,58.02,100.00,6.00,0.00,30.07,M,10.00,M,CLR,M,M,M,M,M,M,M,M,M,M,M,M,M,M,53.60,K10U 171315Z AUTO 10006KT 10SM CLR 12/04 A3007 RMK AO2,M
TMT,2024-08-17 13:15,-117.1971,39.4643,1749.34,34.70,18.00,50.10,0.00,0.00,0.00,30.11,M,10.00,M,CLR,M,M,M,M,M,M,M,M,M,M,M,M,M,M,34.70,KTMT 171315Z AUTO 00000KT 10SM CLR 02/M08 A3011 RMK AO2 T00151077,M
VGT,2024-08-17 13:16,-115.1933,36.2111,667.00,91.00,50.00,24.68,120.00,4.00,T,29.88,M,10.00,M,SCT,M,M,M,11000.00,M,M,M,-RA,M,M,M,M,M,M,87.99,KVGT 171316Z 12004KT 10SM -RA SCT110 33/10 A2988 RMK AO2 RAB16 P0000 T03280100,M
05U,2024-08-17 13:30,-116.0051,39.6042,1811.23,M,M,M,0.00,0.00,0.00,30.12,M,10.00,M,CLR,M,M,M,M,M,M,M,M,M,M,M,M,M,M,M,K05U 171330Z AUTO 00000KT 10SM CLR A3012 RMK A01,M
BVU,2024-08-17 13:35,-114.8611,35.9475,671.00,87.80,53.60,31.17,0.00,0.00,0.00,29.89,M,10.00,M,CLR,M,M,M,M,M,M,M,M,M,M,M,M,M,M,85.72,KBVU 171335Z AUTO 00000KT 10SM CLR 31/12 A2989 RMK AO2,M
CXP,2024-08-17 13:35,-119.7326,39.1923,1431.00,50.00,35.60,57.52,0.00,0.00,0.00,30.04,M,10.00,M,CLR,M,M,M,M,M,M,M,M,M,M,M,M,M,M,50.00,KCXP 171335Z AUTO 00000KT 10SM CLR 10/02 A3004 RMK AO2,M
RTS,2024-08-17 13:35,-119.8764,39.6682,1539.00,48.20,28.40,46.02,30.00,5.00,0.00,30.05,M,10.00,M,CLR,M,M,M,M,M,M,M,M,M,M,M,M,M,M,45.63,KRTS 171335Z AUTO 03005KT 10SM CLR 09/M02 A3005 RMK AO2,M
MEV,2024-08-17 13:35,-119.7500,38.9963,1441.42,44.60,32.00,61.03,M,3.00,0.00,30.02,M,10.00,M,CLR,M,M,M,M,M,M,M,M,M,M,M,M,M,M,43.09,KMEV 171335Z AUTO VRB03KT 10SM CLR 07/M00 A3002 RMK AO2,M
BAM,2024-08-17 13:35,-116.8743,40.5990,1382.36,53.60,30.20,40.54,30.00,7.00,0.00,30.00,M,10.00,M,CLR,M,M,M,M,M,M,M,M,M,M,M,M,M,M,53.60,KBAM 171335Z AUTO 03007KT 10SM CLR 12/M01 A3000 RMK AO1,M
HTH,2024-08-17 13:35,-118.6315,38.5448,1282.89,62.60,35.60,36.45,0.00,0.00,0.00,30.00,M,10.00,M,CLR,M,M,M,M,M,M,M,M,M,M,M,M,M,M,62.60,KHTH 171335Z AUTO 00000KT 10SM CLR 17/02 A3000 RMK A01,M
10U,2024-08-17 13:35,-116.1876,41.9532,1637.00,55.40,37.40,50.64,100.00,6.00,0.00,30.07,M,10.00,M,CLR,M,M,M,M,M,M,M,M,M,M,M,M,M,M,55.40,K10U 171335Z AUTO 10006KT 10SM CLR 13/03 A3007 RMK AO2,M
TMT,2024-08-17 13:35,-117.1971,39.4643,1749.34,36.70,21.70,54.19,0.00,0.00,0.00,30.10,M,10.00,M,CLR,M,M,M,M,M,M,M,M,M,M,M,M,M,M,36.70,KTMT 171335Z AUTO 00000KT 10SM CLR 03/M06 A3010 RMK AO2 T00261057,M
05U,2024-08-17 13:50,-116.0051,39.6042,1811.23,M,M,M,0.00,0.00,0.00,30.12,M,10.00,M,FEW,M,M,M,9000.00,M,M,M,M,M,M,M,M,M,M,M,K05U 171350Z AUTO 00000KT 10SM FEW090 A3012 RMK A01,M
P68,2024-08-17 13:53,-116.0056,39.6014,1993.00,54.00,20.00,26.13,0.00,0.00,0.00,30.10,1010.80,M,M,M,M,M,M,M,M,M,M,M,M,M,M,M,M,M,54.00,KP68 171353Z AUTO 00000KT 12/M07 A3010 RMK AO1 SLP108 T01221067,M
DRA,2024-08-17 13:53,-116.0278,36.6206,1009.00,81.00,58.00,45.51,130.00,13.00,0.00,29.95,1008.50,10.00,17.00,OVC,M,M,M,8000.00,M,M,M,M,M,M,M,M,M,M,81.22,KDRA 171353Z AUTO 13013G17KT 10SM OVC080 27/14 A2995 RMK AO2 SLP085 T02720144,M
ELY,2024-08-17 13:53,-114.8453,39.2950,1909.00,59.00,34.00,38.87,190.00,8.00,0.00,30.16,1010.60,10.00,M,BKN,OVC,M,M,8000.00,10000.00,M,M,M,M,M,M,M,M,M,59.00,KELY 171353Z AUTO 19008KT 10SM BKN080 OVC100 15/01 A3016 RMK AO2 SLP106 T01500011,M
VGT,2024-08-17 13:53,-115.1933,36.2111,667.00,92.00,51.00,24.82,150.00,6.00,T,29.88,1010.10,10.00,M,CLR,M,M,M,M,M,M,M,M,M,M,M,M,M,M,89.11,KVGT 171353Z 15006KT 10SM CLR 33/11 A2988 RMK AO2 RAB16E27 SLP101 P0000 T03330106,M
LOL,2024-08-17 13:53,-118.5701,40.0684,1192.43,50.00,30.00,45.93,0.00,0.00,0.00,29.97,1011.40,10.00,M,CLR,M,M,M,M,M,M,M,M,M,M,M,M,M,M,50.00,KLOL 171353Z AUTO 00000KT 10SM CLR 10/M01 A2997 RMK AO2 SLP114 T01001011,M
BVU,2024-08-17 13:55,-114.8611,35.9475,671.00,87.80,55.40,33.29,0.00,0.00,0.00,29.89,M,10.00,M,CLR,M,M,M,M,M,M,M,M,M,M,M,M,M,M,86.11,KBVU 171355Z AUTO 00000KT 10SM CLR 31/13 A2989 RMK AO2,M
CXP,2024-08-17 13:55,-119.7326,39.1923,1431.00,51.80,35.60,53.81,0.00,0.00,0.00,30.04,M,10.00,M,CLR,M,M,M,M,M,M,M,M,M,M,M,M,M,M,51.80,KCXP 171355Z AUTO 00000KT 10SM CLR 11/02 A3004 RMK AO2,M
RNO,2024-08-17 13:55,-119.7711,39.4839,1341.00,59.00,35.00,40.45,280.00,5.00,0.00,30.02,1011.20,10.00,M,CLR,M,M,M,M,M,M,M,M,M,M,M,M,M,M,59.00,KRNO 171355Z 28005KT 10SM CLR 15/02 A3002 RMK AO2 SLP112 T01500017,M
RTS,2024-08-17 13:55,-119.8764,39.6682,1539.00,51.80,37.40,57.77,0.00,0.00,0.00,30.05,M,10.00,M,CLR,M,M,M,M,M,M,M,M,M,M,M,M,M,M,51.80,KRTS 171355Z AUTO 00000KT 10SM CLR 11/03 A3005 RMK AO2,M
MEV,2024-08-17 13:55,-119.7500,38.9963,1441.42,46.40,32.00,57.00,40.00,4.00,0.00,30.02,M,10.00,M,CLR,M,M,M,M,M,M,M,M,M,M,M,M,M,M,44.24,KMEV 171355Z AUTO 04004KT 10SM CLR 08/00 A3002 RMK AO2,M
BAM,2024-08-17 13:55,-116.8743,40.5990,1382.36,53.60,30.20,40.54,0.00,0.00,0.00,30.01,M,10.00,M,CLR,M,M,M,M,M,M,M,M,M,M,M,M,M,M,53.60,KBAM 171355Z AUTO 00000KT 10SM CLR 12/M01 A3001 RMK AO1,M
HTH,2024-08-17 13:55,-118.6315,38.5448,1282.89,62.60,35.60,36.45,150.00,5.00,0.00,30.00,M,10.00,M,CLR,M,M,M,M,M,M,M,M,M,M,M,M,M,M,62.60,KHTH 171355Z AUTO 15005KT 10SM CLR 17/02 A3000 RMK A01,M
10U,2024-08-17 13:55,-116.1876,41.9532,1637.00,53.60,39.20,58.02,0.00,0.00,0.00,30.07,M,10.00,M,CLR,M,M,M,M,M,M,M,M,M,M,M,M,M,M,53.60,K10U 171355Z AUTO 00000KT 10SM CLR 12/04 A3007 RMK AO2,M
TMT,2024-08-17 13:55,-117.1971,39.4643,1749.34,42.00,20.70,42.24,0.00,0.00,0.00,30.10,M,10.00,M,CLR,M,M,M,M,M,M,M,M,M,M,M,M,M,M,42.00,KTMT 171355Z AUTO 00000KT 10SM CLR 06/M06 A3010 RMK AO2 T00551063,M
INS,2024-08-17 13:55,-115.6733,36.5872,955.00,73.40,62.20,67.98,340.00,4.00,0.02,29.97,1009.00,10.00,M,OVC,M,M,M,11000.00,M,M,M,VCTS,M,M,M,M,M,M,73.40,KINS 171355Z AUTO 34004KT 10SM VCTS OVC110 23/17 A2997 RMK AO2 RAE13 TSE15 SLP090 P0002 T02300168 $,M
LSV,2024-08-17 13:55,-115.0343,36.2362,570.00,92.30,57.00,30.62,160.00,5.00,0.00,29.88,1005.90,10.00,M,SCT,BKN,M,M,15000.00,18000.00,M,M,M,M,M,M,M,M,M,90.91,KLSV 171355Z 16005KT 10SM SCT150 BKN180 34/14 A2988 RMK A02A SLP059 WND DATA ESTMD T03350139,M
EKO,2024-08-17 13:56,-115.7860,40.8242,1367.00,53.00,30.00,41.11,80.00,6.00,0.00,30.07,1012.80,10.00,M,CLR,M,M,M,M,M,M,M,M,M,M,M,M,M,M,53.00,KEKO 171356Z AUTO 08006KT 10SM CLR 12/M01 A3007 RMK AO2 SLP128 T01171011,M
WMC,2024-08-17 13:56,-117.8072,40.9019,1315.00,49.00,26.00,40.45,140.00,5.00,0.00,29.99,1011.20,10.00,M,CLR,M,M,M,M,M,M,M,M,M,M,M,M,M,M,46.58,KWMC 171356Z AUTO 14005KT 10SM CLR 09/M03 A2999 RMK AO2 SLP112 T00941033,M
HND,2024-08-17 13:56,-115.1344,35.9729,742.79,89.00,57.00,33.96,180.00,9.00,0.00,29.93,1011.50,10.00,M,CLR,M,M,M,M,M,M,M,M,M,M,M,M,M,M,87.64,KHND 171356Z 18009KT 10SM CLR 32/14 A2993 RMK AO2 SLP115 T03170139,M
TPH,2024-08-17 13:56,-117.0904,38.0505,1654.00,57.00,17.00,20.60,330.00,7.00,0.00,30.09,1011.20,10.00,M,CLR,M,M,M,M,M,M,M,M,M,M,M,M,M,M,57.00,KTPH 171356Z AUTO 33007KT 10SM CLR 14/M08 A3009 RMK AO2 SLP112 T01391083,M
LAS,2024-08-17 13:56,-115.1634,36.0719,663.00,93.00,56.00,28.90,M,3.00,0.00,29.90,1009.20,10.00,M,BKN,BKN,M,M,12000.00,25000.00,M,M,M,M,M,M,M,M,M,91.32,KLAS 171356Z VRB03KT 10SM BKN120 BKN250 34/13 A2990 RMK AO2 SLP092 T03390133,M
NFL,2024-08-17 13:57,-118.7010,39.4166,1199.00,60.00,37.00,42.24,190.00,3.00,0.00,29.97,1011.90,10.00,M,CLR,M,M,M,M,M,M,M,M,M,M,M,M,M,M,60.00,KNFL 171357Z AUTO 19003KT 10SM CLR 16/03 A2997 RMK AO2 SLP119 T01560028,M
05U,2024-08-17 14:10,-116.0051,39.6042,1811.23,M,M,M,0.00,0.00,0.00,30.13,M,10.00,M,FEW,M,M,M,9000.00,M,M,M,M,M,M,M,M,M,M,M,K05U 171410Z AUTO 00000KT 10SM FEW090 A3013 RMK A01,M
TMT,2024-08-17 14:15,-117.1971,39.4643,1749.34,42.30,20.70,41.76,0.00,0.00,0.00,30.10,M,10.00,M,CLR,M,M,M,M,M,M,M,M,M,M,M,M,M,M,42.30,KTMT 171415Z AUTO 00000KT 10SM CLR 06/M06 A3010 RMK AO2 T00571063,M
BVU,2024-08-17 14:15,-114.8611,35.9475,671.00,89.60,55.40,31.45,0.00,0.00,0.00,29.90,M,10.00,M,CLR,M,M,M,M,M,M,M,M,M,M,M,M,M,M,87.78,KBVU 171415Z AUTO 00000KT 10SM CLR 32/13 A2990 RMK AO2,M
CXP,2024-08-17 14:15,-119.7326,39.1923,1431.00,53.60,35.60,50.36,0.00,0.00,0.00,30.04,M,10.00,M,CLR,M,M,M,M,M,M,M,M,M,M,M,M,M,M,53.60,KCXP 171415Z AUTO 00000KT 10SM CLR 12/02 A3004 RMK AO2,M
RTS,2024-08-17 14:15,-119.8764,39.6682,1539.00,51.80,32.00,46.59,0.00,0.00,0.00,30.05,M,10.00,M,CLR,M,M,M,M,M,M,M,M,M,M,M,M,M,M,51.80,KRTS 171415Z AUTO 00000KT 10SM CLR 11/00 A3005 RMK AO2,M
MEV,2024-08-17 14:15,-119.7500,38.9963,1441.42,51.80,35.60,53.81,0.00,0.00,0.00,30.02,M,10.00,M,CLR,M,M,M,M,M,M,M,M,M,M,M,M,M,M,51.80,KMEV 171415Z AUTO 00000KT 10SM CLR 11/02 A3002 RMK AO2,M
BAM,2024-08-17 14:15,-116.8743,40.5990,1382.36,55.40,30.20,37.97,0.00,0.00,0.00,30.01,M,10.00,M,CLR,M,M,M,M,M,M,M,M,M,M,M,M,M,M,55.40,KBAM 171415Z AUTO 00000KT 10SM CLR 13/M01 A3001 RMK AO1,M
HTH,2024-08-17 14:15,-118.6315,38.5448,1282.89,66.20,35.60,32.14,0.00,0.00,0.00,30.00,M,10.00,M,CLR,M,M,M,M,M,M,M,M,M,M,M,M,M,M,66.20,KHTH 171415Z AUTO 00000KT 10SM CLR 19/02 A3000 RMK A01,M
10U,2024-08-17 14:15,-116.1876,41.9532,1637.00,57.20,39.20,50.91,0.00,0.00,0.00,30.07,M,10.00,M,CLR,M,M,M,M,M,M,M,M,M,M,M,M,M,M,57.20,K10U 171415Z AUTO 00000KT 10SM CLR 14/04 A3007 RMK AO2,M
05U,2024-08-17 14:30,-116.0051,39.6042,1811.23,M,M,M,0.00,0.00,0.00,30.12,M,10.00,M,CLR,M,M,M,M,M,M,M,M,M,M,M,M,M,M,M,K05U 171430Z AUTO 00000KT 10SM CLR A3012 RMK A01,M
BVU,2024-08-17 14:35,-114.8611,35.9475,671.00,91.40,55.40,29.72,0.00,0.00,0.00,29.90,M,10.00,M,CLR,M,M,M,M,M,M,M,M,M,M,M,M,M,M,89.53,KBVU 171435Z AUTO 00000KT 10SM CLR 33/13 A2990 RMK AO2,M
CXP,2024-08-17 14:35,-119.7326,39.1923,1431.00,57.20,37.40,47.44,0.00,0.00,0.00,30.04,M,9.00,M,CLR,M,M,M,M,M,M,M,M,M,M,M,M,M,M,57.20,KCXP 171435Z AUTO 00000KT 9SM CLR 14/03 A3004 RMK AO2,M
RTS,2024-08-17 14:35,-119.8764,39.6682,1539.00,55.40,33.80,43.90,0.00,0.00,0.00,30.04,M,10.00,M,CLR,M,M,M,M,M,M,M,M,M,M,M,M,M,M,55.40,KRTS 171435Z AUTO 00000KT 10SM CLR 13/01 A3004 RMK AO2,M
MEV,2024-08-17 14:35,-119.7500,38.9963,1441.42,57.20,32.00,38.26,0.00,0.00,0.00,30.02,M,10.00,M,CLR,M,M,M,M,M,M,M,M,M,M,M,M,M,M,57.20,KMEV 171435Z AUTO 00000KT 10SM CLR 14/00 A3002 RMK AO2,M
BAM,2024-08-17 14:35,-116.8743,40.5990,1382.36,59.00,32.00,35.87,30.00,5.00,0.00,30.01,M,10.00,M,CLR,M,M,M,M,M,M,M,M,M,M,M,M,M,M,59.00,KBAM 171435Z AUTO 03005KT 10SM CLR 15/00 A3001 RMK AO1,M
HTH,2024-08-17 14:35,-118.6315,38.5448,1282.89,69.80,35.60,28.39,0.00,0.00,0.00,30.00,M,10.00,M,CLR,M,M,M,M,M,M,M,M,M,M,M,M,M,M,69.80,KHTH 171435Z AUTO 00000KT 10SM CLR 21/02 A3000 RMK A01,M
10U,2024-08-17 14:35,-116.1876,41.9532,1637.00,62.60,39.20,42.00,60.00,9.00,0.00,30.06,M,10.00,M,CLR,M,M,M,M,M,M,M,M,M,M,M,M,M,M,62.60,K10U 171435Z AUTO 06009KT 040V110 10SM CLR 17/04 A3006 RMK AO2,M
TMT,2024-08-17 14:35,-117.1971,39.4643,1749.34,47.00,22.00,36.89,0.00,0.00,0.00,30.10,M,10.00,M,CLR,M,M,M,M,M,M,M,M,M,M,M,M,M,M,47.00,KTMT 171435Z AUTO 00000KT 10SM CLR 08/M05 A3010 RMK AO2 T00831055,M
05U,2024-08-17 14:50,-116.0051,39.6042,1811.23,M,M,M,0.00,0.00,0.00,30.12,M,10.00,M,FEW,M,M,M,8500.00,M,M,M,M,M,M,M,M,M,M,M,K05U 171450Z AUTO 00000KT 10SM FEW085 A3012 RMK A01,M
P68,2024-08-17 14:53,-116.0056,39.6014,1993.00,60.00,27.00,28.23,40.00,5.00,0.00,30.10,1011.00,M,M,M,M,M,M,M,M,M,M,M,M,M,M,M,M,M,60.00,KP68 171453Z AUTO 04005KT 16/M03 A3010 RMK AO1 SLP110 T01561028 50002,M
DRA,2024-08-17 14:53,-116.0278,36.6206,1009.00,80.00,58.00,47.02,110.00,13.00,0.00,29.97,1009.30,10.00,M,CLR,M,M,M,M,M,M,M,M,M,M,M,M,M,M,80.53,KDRA 171453Z AUTO 11013KT 10SM CLR 27/14 A2997 RMK AO2 SLP093 T02670144 53013,M
ELY,2024-08-17 14:53,-114.8453,39.2950,1909.00,66.00,39.00,37.00,200.00,6.00,0.00,30.16,1010.80,10.00,M,BKN,OVC,M,M,8000.00,10000.00,M,M,M,M,M,M,M,M,M,66.00,KELY 171453Z AUTO 20006KT 10SM BKN080 OVC100 19/04 A3016 RMK AO2 SLP108 T01890039 50002,M
VGT,2024-08-17 14:53,-115.1933,36.2111,667.00,94.00,56.00,28.01,150.00,8.00,0.00,29.89,1010.40,10.00,M,CLR,M,M,M,M,M,M,M,M,M,M,M,M,M,M,92.36,KVGT 171453Z 15008KT 10SM CLR 34/13 A2989 RMK AO2 SLP104 60000 T03440133 51013,M
LOL,2024-08-17 14:53,-118.5701,40.0684,1192.43,61.00,36.00,39.19,0.00,0.00,0.00,29.97,1011.20,10.00,M,CLR,M,M,M,M,M,M,M,M,M,M,M,M,M,M,61.00,KLOL 171453Z AUTO 00000KT 10SM CLR 16/02 A2997 RMK AO2 SLP112 T01610022 50004,M
BVU,2024-08-17 14:55,-114.8611,35.9475,671.00,91.40,57.20,31.72,220.00,5.00,0.00,29.90,M,10.00,11.00,CLR,M,M,M,M,M,M,M,M,M,M,M,M,M,M,90.06,KBVU 171455Z AUTO 22005G11KT 10SM CLR 33/14 A2990 RMK AO2,M
CXP,2024-08-17 14:55,-119.7326,39.1923,1431.00,60.80,35.60,38.85,0.00,0.00,0.00,30.04,M,10.00,M,CLR,M,M,M,M,M,M,M,M,M,M,M,M,M,M,60.80,KCXP 171455Z AUTO 00000KT 10SM CLR 16/02 A3004 RMK AO2,M
RNO,2024-08-17 14:55,-119.7711,39.4839,1341.00,63.00,37.00,37.99,0.00,0.00,0.00,30.01,1010.90,10.00,M,CLR,M,M,M,M,M,M,M,M,M,M,M,M,M,M,63.00,KRNO 171455Z 00000KT 10SM CLR 17/03 A3001 RMK AO2 SLP109 T01720028 58001,M
RTS,2024-08-17 14:55,-119.8764,39.6682,1539.00,57.20,32.00,38.26,300.00,4.00,0.00,30.04,M,10.00,M,CLR,M,M,M,M,M,M,M,M,M,M,M,M,M,M,57.20,KRTS 171455Z AUTO 30004KT 10SM CLR 14/00 A3004 RMK AO2,M
MEV,2024-08-17 14:55,-119.7500,38.9963,1441.42,60.80,32.00,33.64,310.00,4.00,0.00,30.02,M,10.00,M,CLR,M,M,M,M,M,M,M,M,M,M,M,M,M,M,60.80,KMEV 171455Z AUTO 31004KT 10SM CLR 16/00 A3002 RMK AO2,M
BAM,2024-08-17 14:55,-116.8743,40.5990,1382.36,60.80,32.00,33.64,0.00,0.00,0.00,30.01,M,10.00,M,CLR,M,M,M,M,M,M,M,M,M,M,M,M,M,M,60.80,KBAM 171455Z AUTO 00000KT 10SM CLR 16/00 A3001 RMK AO1,M
HTH,2024-08-17 14:55,-118.6315,38.5448,1282.89,69.80,33.80,26.43,0.00,0.00,0.00,30.00,M,10.00,M,CLR,M,M,M,M,M,M,M,M,M,M,M,M,M,M,69.80,KHTH 171455Z AUTO 00000KT 10SM CLR 21/01 A3000 RMK A01,M
10U,2024-08-17 14:55,-116.1876,41.9532,1637.00,66.20,39.20,37.03,90.00,9.00,0.00,30.06,M,10.00,16.00,CLR,M,M,M,M,M,M,M,M,M,M,M,M,M,M,66.20,K10U 171455Z AUTO 09009G16KT 10SM CLR 19/04 A3006 RMK AO2,M
TMT,2024-08-17 14:55,-117.1971,39.4643,1749.34,51.00,23.00,33.13,0.00,0.00,0.00,30.10,M,10.00,M,CLR,M,M,M,M,M,M,M,M,M,M,M,M,M,M,51.00,KTMT 171455Z AUTO 00000KT 10SM CLR 11/M05 A3010 RMK AO2 T01061050,M
INS,2024-08-17 14:55,-115.6733,36.5872,955.00,72.30,64.60,76.75,170.00,5.00,0.00,29.99,1009.90,10.00,M,BKN,BKN,OVC,M,14000.00,16000.00,20000.00,M,M,M,M,M,M,M,M,72.30,KINS 171455Z AUTO 17005KT 10SM BKN140 BKN160 OVC200 22/18 A2999 RMK AO2 LTG DSNT N SLP099 60007 T02240181 52019 $,M
LSV,2024-08-17 14:55,-115.0343,36.2362,570.00,92.30,57.00,30.62,120.00,13.00,0.00,29.89,1006.30,10.00,18.00,FEW,M,M,M,13000.00,M,M,M,M,M,M,M,M,M,M,90.91,KLSV 171455Z 12013G18KT 10SM FEW130 35/15 A2989 RMK SLP063 A02A WND DATA ESTMD ALSTG/SLP ESTMD T03350139,M
EKO,2024-08-17 14:56,-115.7860,40.8242,1367.00,61.00,33.00,34.77,50.00,4.00,0.00,30.06,1012.60,10.00,M,CLR,M,M,M,M,M,M,M,M,M,M,M,M,M,M,61.00,KEKO 171456Z AUTO 05004KT 10SM CLR 16/01 A3006 RMK AO2 SLP126 T01610006 50001,M
WMC,2024-08-17 14:56,-117.8072,40.9019,1315.00,60.00,29.00,30.64,0.00,0.00,0.00,29.99,1011.40,10.00,M,CLR,M,M,M,M,M,M,M,M,M,M,M,M,M,M,60.00,KWMC 171456Z AUTO 00000KT 10SM CLR 16/M02 A2999 RMK AO2 SLP114 T01561017 51004,M
HND,2024-08-17 14:56,-115.1344,35.9729,742.79,89.00,59.00,36.49,170.00,10.00,0.00,29.94,1011.80,10.00,M,CLR,M,M,M,M,M,M,M,M,M,M,M,M,M,M,88.27,KHND 171456Z 17010KT 10SM CLR 32/15 A2994 RMK AO2 SLP118 T03170150 51012,M
TPH,2024-08-17 14:56,-117.0904,38.0505,1654.00,70.00,28.00,20.75,340.00,3.00,0.00,30.09,1010.60,10.00,M,CLR,M,M,M,M,M,M,M,M,M,M,M,M,M,M,70.00,KTPH 171456Z AUTO 34003KT 10SM CLR 21/M02 A3009 RMK AO2 SLP106 T02111022 51008,M
LAS,2024-08-17 14:56,-115.1634,36.0719,663.00,93.00,57.00,29.96,170.00,7.00,0.00,29.91,1009.40,10.00,16.00,FEW,SCT,M,M,12000.00,25000.00,M,M,M,M,M,M,M,M,M,91.64,KLAS 171456Z 17007G16KT 10SM FEW120 SCT250 34/14 A2991 RMK AO2 SLP094 T03390139 51012,M
NFL,2024-08-17 14:57,-118.7010,39.4166,1199.00,67.00,37.00,33.04,0.00,0.00,0.00,29.97,1012.00,10.00,M,CLR,M,M,M,M,M,M,M,M,M,M,M,M,M,M,67.00,KNFL 171457Z AUTO 00000KT 10SM CLR 19/03 A2997 RMK AO2 SLP120 T01940028 52003,M
05U,2024-08-17 15:10,-116.0051,39.6042,1811.23,M,M,M,0.00,0.00,0.00,30.12,M,10.00,M,BKN,M,M,M,8500.00,M,M,M,M,M,M,M,M,M,M,M,K05U 171510Z AUTO 00000KT 10SM BKN085 A3012 RMK A01,M
TMT,2024-08-17 15:15,-117.1971,39.4643,1749.34,57.00,24.30,28.10,0.00,0.00,0.00,30.10,M,10.00,M,CLR,M,M,M,M,M,M,M,M,M,M,M,M,M,M,57.00,KTMT 171515Z AUTO 00000KT 10SM CLR 14/M04 A3010 RMK AO2 T01391043,M
BVU,2024-08-17 15:15,-114.8611,35.9475,671.00,93.20,57.20,29.99,260.00,7.00,0.00,29.90,M,10.00,M,CLR,M,M,M,M,M,M,M,M,M,M,M,M,M,M,91.91,KBVU 171515Z AUTO 26007KT 10SM CLR 34/14 A2990 RMK AO2,M
CXP,2024-08-17 15:15,-119.7326,39.1923,1431.00,62.60,33.80,33.93,0.00,0.00,0.00,30.03,M,10.00,M,CLR,M,M,M,M,M,M,M,M,M,M,M,M,M,M,62.60,KCXP 171515Z AUTO 00000KT 10SM CLR 17/01 A3003 RMK AO2,M
RTS,2024-08-17 15:15,-119.8764,39.6682,1539.00,60.80,33.80,36.16,130.00,4.00,0.00,30.04,M,10.00,M,CLR,M,M,M,M,M,M,M,M,M,M,M,M,M,M,60.80,KRTS 171515Z AUTO 13004KT 10SM CLR 16/01 A3004 RMK AO2,M
MEV,2024-08-17 15:15,-119.7500,38.9963,1441.42,60.80,39.20,44.76,310.00,3.00,0.00,30.01,M,10.00,M,CLR,M,M,M,M,M,M,M,M,M,M,M,M,M,M,60.80,KMEV 171515Z AUTO 31003KT 10SM CLR 16/04 A3001 RMK AO2,M
BAM,2024-08-17 15:15,-116.8743,40.5990,1382.36,62.60,32.00,31.56,0.00,0.00,0.00,30.01,M,10.00,M,CLR,M,M,M,M,M,M,M,M,M,M,M,M,M,M,62.60,KBAM 171515Z AUTO 00000KT 10SM CLR 17/00 A3001 RMK AO1,M
HTH,2024-08-17 15:15,-118.6315,38.5448,1282.89,71.60,32.00,23.13,0.00,0.00,0.00,30.00,M,10.00,M,CLR,M,M,M,M,M,M,M,M,M,M,M,M,M,M,71.60,KHTH 171515Z AUTO 00000KT 10SM CLR 22/00 A3000 RMK A01,M
10U,2024-08-17 15:15,-116.1876,41.9532,1637.00,68.00,39.20,34.80,0.00,0.00,0.00,30.05,M,10.00,11.00,CLR,M,M,M,M,M,M,M,M,M,M,M,M,M,M,68.00,K10U 171515Z AUTO 00000G11KT 10SM CLR 20/04 A3005 RMK AO2,M
05U,2024-08-17 15:30,-116.0051,39.6042,1811.23,M,M,M,140.00,13.00,0.00,30.12,M,10.00,M,OVC,M,M,M,8500.00,M,M,M,M,M,M,M,M,M,M,M,K05U 171530Z AUTO 14013KT 10SM OVC085 A3012 RMK A01,M
HTH,2024-08-17 15:30,-118.6315,38.5448,1282.89,73.40,32.00,21.76,0.00,0.00,0.00,30.00,M,10.00,M,CLR,M,M,M,M,M,M,M,M,M,M,M,M,M,M,73.40,KHTH 171530Z AUTO 00000KT 10SM CLR 23/00 A3000 RMK A01,M
BVU,2024-08-17 15:35,-114.8611,35.9475,671.00,95.00,57.20,28.37,160.00,14.00,0.00,29.90,M,10.00,M,CLR,M,M,M,M,M,M,M,M,M,M,M,M,M,M,93.82,KBVU 171535Z AUTO 16014KT 10SM CLR 35/14 A2990 RMK AO2 LTG DSNT NE,M
CXP,2024-08-17 15:35,-119.7326,39.1923,1431.00,64.40,35.60,34.22,0.00,0.00,0.00,30.03,M,10.00,M,CLR,M,M,M,M,M,M,M,M,M,M,M,M,M,M,64.40,KCXP 171535Z AUTO 00000KT 10SM CLR 18/02 A3003 RMK AO2,M
RTS,2024-08-17 15:35,-119.8764,39.6682,1539.00,64.40,35.60,34.22,80.00,4.00,0.00,30.03,M,10.00,M,CLR,M,M,M,M,M,M,M,M,M,M,M,M,M,M,64.40,KRTS 171535Z AUTO 08004KT 10SM CLR 18/02 A3003 RMK AO2,M
MEV,2024-08-17 15:35,-119.7500,38.9963,1441.42,64.40,41.00,42.28,310.00,4.00,0.00,30.01,M,10.00,M,CLR,M,M,M,M,M,M,M,M,M,M,M,M,M,M,64.40,KMEV 171535Z AUTO 31004KT 10SM CLR 18/05 A3001 RMK AO2,M
BAM,2024-08-17 15:35,-116.8743,40.5990,1382.36,64.40,32.00,29.63,0.00,0.00,0.00,30.01,M,10.00,M,CLR,M,M,M,M,M,M,M,M,M,M,M,M,M,M,64.40,KBAM 171535Z AUTO 00000KT 10SM CLR 18/00 A3001 RMK AO1,M
10U,2024-08-17 15:35,-116.1876,41.9532,1637.00,71.60,39.20,30.77,100.00,12.00,0.00,30.05,M,10.00,M,CLR,M,M,M,M,M,M,M,M,M,M,M,M,M,M,71.60,K10U 171535Z AUTO 10012KT 10SM CLR 22/04 A3005 RMK AO2,M
TMT,2024-08-17 15:35,-117.1971,39.4643,1749.34,66.20,22.50,18.82,0.00,0.00,0.00,30.09,M,10.00,M,CLR,M,M,M,M,M,M,M,M,M,M,M,M,M,M,66.20,KTMT 171535Z AUTO 00000KT 10SM CLR 19/M05 A3009 RMK AO2 T01901053,M
05U,2024-08-17 15:50,-116.0051,39.6042,1811.23,M,M,M,160.00,12.00,0.00,30.12,M,10.00,M,OVC,M,M,M,8500.00,M,M,M,M,M,M,M,M,M,M,M,K05U 171550Z AUTO 16012KT 10SM OVC085 A3012 RMK A01,M
P68,2024-08-17 15:53,-116.0056,39.6014,1993.00,74.00,31.00,20.48,160.00,14.00,0.00,30.09,1010.40,M,M,M,M,M,M,M,M,M,M,M,M,M,M,M,M,M,74.00,KP68 171553Z AUTO 16014KT 23/M01 A3009 RMK AO1 SLP104 T02331006,M
DRA,2024-08-17 15:53,-116.0278,36.6206,1009.00,80.00,60.00,50.51,110.00,12.00,0.00,29.98,1009.90,10.00,M,CLR,M,M,M,M,M,M,M,M,M,M,M,M,M,M,80.85,KDRA 171553Z AUTO 11012KT 10SM CLR 27/16 A2998 RMK AO2 SLP099 T02670156,M
ELY,2024-08-17 15:53,-114.8453,39.2950,1909.00,71.00,39.00,31.16,190.00,10.00,0.00,30.18,1011.30,10.00,M,OVC,M,M,M,8000.00,M,M,M,M,M,M,M,M,M,M,71.00,KELY 171553Z AUTO 19010KT 10SM OVC080 22/04 A3018 RMK AO2 LTG DSNT SE SLP113 T02170039,M
VGT,2024-08-17 15:53,-115.1933,36.2111,667.00,93.00,58.00,31.06,170.00,8.00,0.00,29.90,1010.80,10.00,M,CLR,M,M,M,M,M,M,M,M,M,M,M,M,M,M,91.98,KVGT 171553Z 17008KT 10SM CLR 34/14 A2990 RMK AO2 SLP108 T03390144,M
LOL,2024-08-17 15:53,-118.5701,40.0684,1192.43,71.00,37.00,28.81,0.00,0.00,0.00,29.96,1010.60,10.00,M,CLR,M,M,M,M,M,M,M,M,M,M,M,M,M,M,71.00,KLOL 171553Z AUTO 00000KT 10SM CLR 22/03 A2996 RMK AO2 SLP106 T02170028,M
MEV,2024-08-17 15:55,-119.7500,38.9963,1441.42,66.20,39.20,37.03,290.00,3.00,0.00,30.01,M,10.00,M,CLR,M,M,M,M,M,M,M,M,M,M,M,M,M,M,66.20,KMEV 171555Z AUTO 29003KT 10SM CLR 19/04 A3001 RMK AO2,M
BAM,2024-08-17 15:55,-116.8743,40.5990,1382.36,66.20,32.00,27.83,0.00,0.00,0.00,30.01,M,10.00,M,CLR,M,M,M,M,M,M,M,M,M,M,M,M,M,M,66.20,KBAM 171555Z AUTO 00000KT 10SM CLR 19/00 A3001 RMK AO1,M
HTH,2024-08-17 15:55,-118.6315,38.5448,1282.89,75.20,33.80,22.02,0.00,0.00,0.00,29.99,M,10.00,M,CLR,M,M,M,M,M,M,M,M,M,M,M,M,M,M,75.20,KHTH 171555Z AUTO 00000KT 10SM CLR 24/01 A2999 RMK A01,M
10U,2024-08-17 15:55,-116.1876,41.9532,1637.00,75.20,37.40,25.40,110.00,15.00,0.00,30.04,M,10.00,M,CLR,M,M,M,M,M,M,M,M,M,M,M,M,M,M,75.20,K10U 171555Z AUTO 11015KT 10SM CLR 24/03 A3004 RMK AO2,M
BVU,2024-08-17 15:55,-114.8611,35.9475,671.00,95.00,57.20,28.37,150.00,12.00,0.00,29.90,M,10.00,M,CLR,M,M,M,M,M,M,M,M,M,M,M,M,M,M,93.82,KBVU 171555Z AUTO 15012KT 10SM CLR 35/14 A2990 RMK AO2,M
CXP,2024-08-17 15:55,-119.7326,39.1923,1431.00,68.00,30.20,24.32,0.00,0.00,0.00,30.03,M,10.00,M,CLR,M,M,M,M,M,M,M,M,M,M,M,M,M,M,68.00,KCXP 171555Z AUTO 00000KT 10SM CLR 20/M01 A3003 RMK AO2,M
RNO,2024-08-17 15:55,-119.7711,39.4839,1341.00,67.00,36.00,31.76,0.00,0.00,0.00,30.00,1010.50,10.00,M,CLR,M,M,M,M,M,M,M,M,M,M,M,M,M,M,67.00,KRNO 171555Z 00000KT 10SM CLR 19/02 A3000 RMK AO2 SLP105 T01940022,M
RTS,2024-08-17 15:55,-119.8764,39.6682,1539.00,68.00,35.60,30.20,130.00,5.00,0.00,30.03,M,10.00,M,CLR,M,M,M,M,M,M,M,M,M,M,M,M,M,M,68.00,KRTS 171555Z AUTO 13005KT 10SM CLR 20/02 A3003 RMK AO2,M
TMT,2024-08-17 15:55,-117.1971,39.4643,1749.34,69.40,22.60,16.92,0.00,0.00,0.00,30.09,M,10.00,M,CLR,M,M,M,M,M,M,M,M,M,M,M,M,M,M,69.40,KTMT 171555Z AUTO 00000KT 10SM CLR 21/M05 A3009 RMK AO2 T02081052,M
INS,2024-08-17 15:55,-115.6733,36.5872,955.00,75.00,64.60,70.09,0.00,0.00,0.00,29.98,1009.50,10.00,M,FEW,SCT,M,M,15000.00,21000.00,M,M,M,M,M,M,M,M,M,75.00,KINS 171555Z AUTO 00000KT 10SM FEW150 SCT210 24/18 A2998 RMK AO2 SLP095 T02390181 $,M
LSV,2024-08-17 15:55,-115.0343,36.2362,570.00,96.80,59.00,28.63,120.00,13.00,0.00,29.90,1006.50,10.00,20.00,BKN,BKN,M,M,12000.00,14000.00,M,M,M,M,M,M,M,M,M,96.50,KLSV 171555Z 12013G20KT 10SM BKN120 BKN140 36/15 A2990 RMK SLP065 A02A WND DATA ESTMD ALSTG/SLP ESTMD,M
EKO,2024-08-17 15:56,-115.7860,40.8242,1367.00,70.00,37.00,29.81,70.00,5.00,0.00,30.05,1011.60,10.00,M,CLR,M,M,M,M,M,M,M,M,M,M,M,M,M,M,70.00,KEKO 171556Z AUTO 07005KT 10SM CLR 21/03 A3005 RMK AO2 SLP116 T02110028,M
WMC,2024-08-17 15:56,-117.8072,40.9019,1315.00,71.00,29.00,20.90,0.00,0.00,0.00,29.98,1010.90,10.00,M,CLR,M,M,M,M,M,M,M,M,M,M,M,M,M,M,71.00,KWMC 171556Z AUTO 00000KT 10SM CLR 22/M02 A2998 RMK AO2 SLP109 T02171017,M
HND,2024-08-17 15:56,-115.1344,35.9729,742.79,94.00,59.00,31.21,160.00,13.00,0.00,29.94,1011.80,10.00,M,CLR,M,M,M,M,M,M,M,M,M,M,M,M,M,M,93.42,KHND 171556Z 16013KT 10SM CLR 34/15 A2994 RMK AO2 SLP118 T03440150,M
TPH,2024-08-17 15:56,-117.0904,38.0505,1654.00,76.00,32.00,19.95,180.00,8.00,0.00,30.09,1010.50,10.00,17.00,CLR,M,M,M,M,M,M,M,M,M,M,M,M,M,M,76.00,KTPH 171556Z AUTO 18008G17KT 10SM CLR 24/00 A3009 RMK AO2 SLP105 T02440000,M
LAS,2024-08-17 15:56,-115.1634,36.0719,663.00,96.00,57.00,27.31,170.00,7.00,0.00,29.92,1009.60,10.00,M,CLR,M,M,M,M,M,M,M,M,M,M,M,M,M,M,94.83,KLAS 171556Z 17007KT 10SM CLR 36/14 A2992 RMK AO2 SLP096 T03560139,M
NFL,2024-08-17 15:57,-118.7010,39.4166,1199.00,75.00,35.00,23.26,M,5.00,0.00,29.96,1011.80,10.00,M,CLR,M,M,M,M,M,M,M,M,M,M,M,M,M,M,75.00,KNFL 171557Z VRB05KT 10SM CLR 24/02 A2996 RMK AO2 SLP118 T02390017,M
05U,2024-08-17 16:10,-116.0051,39.6042,1811.23,M,M,M,150.00,13.00,0.00,30.12,M,10.00,M,OVC,M,M,M,9000.00,M,M,M,M,M,M,M,M,M,M,M,K05U 171610Z AUTO 15013KT 10SM OVC090 A3012 RMK A01,M
BVU,2024-08-17 16:15,-114.8611,35.9475,671.00,95.00,57.20,28.37,140.00,15.00,0.00,29.90,M,10.00,20.00,CLR,M,M,M,M,M,M,M,M,M,M,M,M,M,M,93.82,KBVU 171615Z AUTO 14015G20KT 10SM CLR 35/14 A2990 RMK AO2 LTG DSNT NE,M
CXP,2024-08-17 16:15,-119.7326,39.1923,1431.00,71.60,30.20,21.50,280.00,3.00,0.00,30.02,M,10.00,M,CLR,M,M,M,M,M,M,M,M,M,M,M,M,M,M,71.60,KCXP 171615Z AUTO 28003KT 10SM CLR 22/M01 A3002 RMK AO2,M
RTS,2024-08-17 16:15,-119.8764,39.6682,1539.00,68.00,32.00,26.15,120.00,3.00,0.00,30.03,M,10.00,M,CLR,M,M,M,M,M,M,M,M,M,M,M,M,M,M,68.00,KRTS 171615Z AUTO 12003KT 10SM CLR 20/00 A3003 RMK AO2,M
MEV,2024-08-17 16:15,-119.7500,38.9963,1441.42,69.80,35.60,28.39,0.00,0.00,0.00,30.01,M,10.00,M,CLR,M,M,M,M,M,M,M,M,M,M,M,M,M,M,69.80,KMEV 171615Z AUTO 00000KT 10SM CLR 21/02 A3001 RMK AO2,M
BAM,2024-08-17 16:15,-116.8743,40.5990,1382.36,69.80,32.00,24.59,0.00,0.00,0.00,30.01,M,10.00,M,CLR,M,M,M,M,M,M,M,M,M,M,M,M,M,M,69.80,KBAM 171615Z AUTO 00000KT 10SM CLR 21/00 A3001 RMK AO1,M
HTH,2024-08-17 16:15,-118.6315,38.5448,1282.89,75.20,33.80,22.02,0.00,0.00,0.00,29.99,M,10.00,M,CLR,M,M,M,M,M,M,M,M,M,M,M,M,M,M,75.20,KHTH 171615Z AUTO 00000KT 10SM CLR 24/01 A2999 RMK A01,M
10U,2024-08-17 16:15,-116.1876,41.9532,1637.00,77.00,37.40,23.93,120.00,14.00,0.00,30.03,M,10.00,M,CLR,M,M,M,M,M,M,M,M,M,M,M,M,M,M,77.00,K10U 171615Z AUTO 12014KT 10SM CLR 25/03 A3003 RMK AO2,M
TMT,2024-08-17 16:15,-117.1971,39.4643,1749.34,71.40,23.00,16.08,0.00,0.00,0.00,30.08,M,10.00,M,CLR,M,M,M,M,M,M,M,M,M,M,M,M,M,M,71.40,KTMT 171615Z AUTO 00000KT 10SM CLR 22/M05 A3008 RMK AO2 T02191050,M
05U,2024-08-17 16:30,-116.0051,39.6042,1811.23,M,M,M,150.00,15.00,0.00,30.13,M,10.00,M,BKN,M,M,M,9500.00,M,M,M,M,M,M,M,M,M,M,M,K05U 171630Z AUTO 15015KT 10SM BKN095 A3013 RMK A01,M
BVU,2024-08-17 16:35,-114.8611,35.9475,671.00,96.80,57.20,26.84,150.00,15.00,0.00,29.91,M,10.00,M,CLR,M,M,M,M,M,M,M,M,M,M,M,M,M,M,95.77,KBVU 171635Z AUTO 15015KT 10SM CLR 36/14 A2991 RMK AO2 LTG DSNT NE,M
CXP,2024-08-17 16:35,-119.7326,39.1923,1431.00,75.20,30.20,19.05,M,4.00,0.00,30.02,M,10.00,M,CLR,M,M,M,M,M,M,M,M,M,M,M,M,M,M,75.20,KCXP 171635Z AUTO VRB04KT 10SM CLR 24/M01 A3002 RMK AO2,M
RTS,2024-08-17 16:35,-119.8764,39.6682,1539.00,71.60,30.20,21.50,0.00,0.00,0.00,30.03,M,10.00,M,CLR,M,M,M,M,M,M,M,M,M,M,M,M,M,M,71.60,KRTS 171635Z AUTO 00000KT 10SM CLR 22/M01 A3003 RMK AO2,M
MEV,2024-08-17 16:35,-119.7500,38.9963,1441.42,73.40,35.60,25.13,150.00,6.00,0.00,30.00,M,10.00,M,CLR,M,M,M,M,M,M,M,M,M,M,M,M,M,M,73.40,KMEV 171635Z AUTO 15006KT 10SM CLR 23/02 A3000 RMK AO2,M
BAM,2024-08-17 16:35,-116.8743,40.5990,1382.36,71.60,32.00,23.13,0.00,0.00,0.00,30.01,M,10.00,M,CLR,M,M,M,M,M,M,M,M,M,M,M,M,M,M,71.60,KBAM 171635Z AUTO 00000KT 10SM CLR 22/00 A3001 RMK AO1,M
HTH,2024-08-17 16:35,-118.6315,38.5448,1282.89,75.20,32.00,20.49,10.00,4.00,0.00,29.99,M,10.00,M,CLR,M,M,M,M,M,M,M,M,M,M,M,M,M,M,75.20,KHTH 171635Z AUTO 01004KT 10SM CLR 24/00 A2999 RMK A01,M
10U,2024-08-17 16:35,-116.1876,41.9532,1637.00,78.80,35.60,21.00,110.00,16.00,0.00,30.03,M,10.00,22.00,CLR,M,M,M,M,M,M,M,M,M,M,M,M,M,M,78.80,K10U 171635Z AUTO 11016G22KT 10SM CLR 26/02 A3003 RMK AO2,M
TMT,2024-08-17 16:35,-117.1971,39.4643,1749.34,73.80,25.70,16.59,220.00,4.00,0.00,30.08,M,10.00,M,CLR,M,M,M,M,M,M,M,M,M,M,M,M,M,M,73.80,KTMT 171635Z AUTO 22004KT 10SM CLR 23/M03 A3008 RMK AO2 T02321035,M
LAS,2024-08-17 16:40,-115.1634,36.0719,663.00,97.00,57.00,26.49,190.00,6.00,0.00,29.92,M,10.00,M,SCT,SCT,M,M,12000.00,20000.00,M,M,M,M,M,M,M,M,M,95.92,KLAS 171640Z 19006KT 10SM SCT120 SCT200 36/14 A2992 RMK AO2 T03610139,M
05U,2024-08-17 16:50,-116.0051,39.6042,1811.23,M,M,M,160.00,12.00,0.00,30.13,M,10.00,M,BKN,M,M,M,10000.00,M,M,M,M,M,M,M,M,M,M,M,K05U 171650Z AUTO 16012KT 10SM BKN100 A3013 RMK A01,M
P68,2024-08-17 16:53,-116.0056,39.6014,1993.00,75.00,35.00,23.26,170.00,13.00,0.00,30.10,1011.30,M,M,M,M,M,M,M,M,M,M,M,M,M,M,27.00,150.00,2024-08-17 16:33,75.00,KP68 171653Z AUTO 17013KT 24/02 A3010 RMK AO1 PK WND 15027/1633 SLP113 T02390017,M
DRA,2024-08-17 16:53,-116.0278,36.6206,1009.00,88.00,57.00,35.05,70.00,4.00,0.00,29.98,1009.70,10.00,M,CLR,M,M,M,M,M,M,M,M,M,M,M,M,M,M,86.71,KDRA 171653Z AUTO 07004KT 10SM CLR 31/14 A2998 RMK AO2 SLP097 T03110139,M
ELY,2024-08-17 16:53,-114.8453,39.2950,1909.00,58.00,54.00,86.51,140.00,16.00,0.06,30.24,1015.90,4.00,26.00,SCT,OVC,M,M,7000.00,9000.00,M,M,RA BR,M,M,M,41.00,170.00,2024-08-17 16:08,58.00,KELY 171653Z AUTO 14016G26KT 4SM RA BR SCT070 OVC090 14/12 A3024 RMK AO2 PK WND 17041/1608 RAB09 SLP159 P0006 T01440122,M
VGT,2024-08-17 16:53,-115.1933,36.2111,667.00,96.00,57.00,27.31,150.00,9.00,0.00,29.90,1010.90,10.00,M,CLR,M,M,M,M,M,M,M,M,M,M,M,M,M,M,94.83,KVGT 171653Z 15009KT 10SM CLR 36/14 A2990 RMK AO2 SLP109 T03560139,M
LOL,2024-08-17 16:53,-118.5701,40.0684,1192.43,79.00,35.00,20.37,0.00,0.00,0.00,29.96,1010.40,10.00,M,CLR,M,M,M,M,M,M,M,M,M,M,M,M,M,M,79.00,KLOL 171653Z AUTO 00000KT 10SM CLR 26/02 A2996 RMK AO2 SLP104 T02610017,M
TMT,2024-08-17 16:55,-117.1971,39.4643,1749.34,76.00,27.00,16.27,260.00,4.00,0.00,30.08,M,10.00,M,CLR,M,M,M,M,M,M,M,M,M,M,M,M,M,M,76.00,KTMT 171655Z AUTO 26004KT 10SM CLR 24/M03 A3008 RMK AO2 T02441028,M
BVU,2024-08-17 16:55,-114.8611,35.9475,671.00,96.80,57.20,26.84,150.00,16.00,0.00,29.91,M,10.00,M,CLR,M,M,M,M,M,M,M,M,M,M,M,M,M,M,95.77,KBVU 171655Z AUTO 15016KT 10SM CLR 36/14 A2991 RMK AO2,M
CXP,2024-08-17 16:55,-119.7326,39.1923,1431.00,75.20,30.20,19.05,0.00,0.00,0.00,30.01,M,10.00,M,CLR,M,M,M,M,M,M,M,M,M,M,M,M,M,M,75.20,KCXP 171655Z AUTO 00000KT 10SM CLR 24/M01 A3001 RMK AO2,M
RNO,2024-08-17 16:55,-119.7711,39.4839,1341.00,72.00,37.00,27.85,M,3.00,0.00,29.99,1009.90,10.00,M,CLR,M,M,M,M,M,M,M,M,M,M,M,M,M,M,72.00,KRNO 171655Z VRB03KT 10SM CLR 22/03 A2999 RMK AO2 SLP099 T02220028,M
RTS,2024-08-17 16:55,-119.8764,39.6682,1539.00,71.60,26.60,18.55,0.00,0.00,0.00,30.03,M,10.00,M,CLR,M,M,M,M,M,M,M,M,M,M,M,M,M,M,71.60,KRTS 171655Z AUTO 00000KT 10SM CLR 22/M03 A3003 RMK AO2,M
MEV,2024-08-17 16:55,-119.7500,38.9963,1441.42,77.00,35.60,22.28,170.00,7.00,0.00,30.00,M,10.00,M,CLR,M,M,M,M,M,M,M,M,M,M,M,M,M,M,77.00,KMEV 171655Z AUTO 17007KT 10SM CLR 25/02 A3000 RMK AO2,M
BAM,2024-08-17 16:55,-116.8743,40.5990,1382.36,73.40,32.00,21.76,0.00,0.00,0.00,30.01,M,10.00,M,CLR,M,M,M,M,M,M,M,M,M,M,M,M,M,M,73.40,KBAM 171655Z AUTO 00000KT 10SM CLR 23/00 A3001 RMK AO1,M
HTH,2024-08-17 16:55,-118.6315,38.5448,1282.89,77.00,32.00,19.30,0.00,0.00,0.00,29.99,M,10.00,M,CLR,M,M,M,M,M,M,M,M,M,M,M,M,M,M,77.00,KHTH 171655Z AUTO 00000KT 10SM CLR 25/00 A2999 RMK A01,M
10U,2024-08-17 16:55,-116.1876,41.9532,1637.00,80.60,35.60,19.79,110.00,11.00,0.00,30.02,M,10.00,17.00,CLR,M,M,M,M,M,M,M,M,M,M,M,M,M,M,78.94,K10U 171655Z AUTO 11011G17KT 10SM CLR 27/02 A3002 RMK AO2 LTG DSNT SE,M
INS,2024-08-17 16:55,-115.6733,36.5872,955.00,78.80,65.00,62.66,0.00,0.00,0.00,29.98,1009.80,10.00,M,FEW,M,M,M,23000.00,M,M,M,M,M,M,M,M,M,M,78.80,KINS 171655Z AUTO 00000KT 10SM FEW230 26/18 A2998 RMK AO2 SLP098 T02600184 $,M
EKO,2024-08-17 16:56,-115.7860,40.8242,1367.00,79.00,36.00,21.19,20.00,8.00,0.00,30.04,1011.00,10.00,M,FEW,M,M,M,11000.00,M,M,M,M,M,M,M,M,M,M,79.00,KEKO 171656Z AUTO 02008KT 10SM FEW110 26/02 A3004 RMK AO2 SLP110 T02610022,M
WMC,2024-08-17 16:56,-117.8072,40.9019,1315.00,79.00,31.00,17.35,270.00,4.00,0.00,29.98,1010.60,10.00,M,CLR,M,M,M,M,M,M,M,M,M,M,M,M,M,M,79.00,KWMC 171656Z AUTO 27004KT 10SM CLR 26/M01 A2998 RMK AO2 SLP106 T02611006,M
HND,2024-08-17 16:56,-115.1344,35.9729,742.79,98.00,60.00,28.61,150.00,13.00,0.00,29.95,1011.70,10.00,17.00,CLR,M,M,M,M,M,M,M,M,M,M,M,M,M,M,98.31,KHND 171656Z 15013G17KT 10SM CLR 37/16 A2995 RMK AO2 SLP117 T03670156,M
TPH,2024-08-17 16:56,-117.0904,38.0505,1654.00,83.00,40.00,21.76,180.00,21.00,0.00,30.08,1009.30,10.00,29.00,CLR,M,M,M,M,M,M,M,M,M,M,M,29.00,170.00,2024-08-17 16:55,80.64,KTPH 171656Z AUTO 18021G29KT 10SM CLR 28/04 A3008 RMK AO2 PK WND 17029/1655 SLP093 T02830044,M
LAS,2024-08-17 16:56,-115.1634,36.0719,663.00,97.00,57.00,26.49,150.00,6.00,0.00,29.92,1009.80,10.00,M,SCT,SCT,M,M,12000.00,20000.00,M,M,M,M,M,M,M,M,M,95.92,KLAS 171656Z 15006KT 10SM SCT120 SCT200 36/14 A2992 RMK AO2 SLP098 T03610139,M
LSV,2024-08-17 16:56,-115.0343,36.2362,570.00,98.60,59.00,27.10,120.00,11.00,0.00,29.90,1006.70,10.00,16.00,FEW,SCT,M,M,12000.00,14000.00,M,M,M,M,M,M,M,M,M,98.52,KLSV 171656Z 12011G16KT 10SM FEW120 SCT140 37/15 A2990 RMK SLP067 A02A WND DATA ESTMD ALSTG/SLPNO ESTMD,M
NFL,2024-08-17 16:57,-118.7010,39.4166,1199.00,80.00,31.00,16.79,290.00,5.00,0.00,29.96,1011.70,10.00,M,CLR,M,M,M,M,M,M,M,M,M,M,M,M,M,M,78.49,KNFL 171657Z 29005KT 10SM CLR 27/M01 A2996 RMK AO2 SLP117 T02671006,M
05U,2024-08-17 17:10,-116.0051,39.6042,1811.23,M,M,M,150.00,19.00,0.00,30.12,M,10.00,M,FEW,M,M,M,11000.00,M,M,M,M,M,M,M,M,M,M,M,K05U 171710Z AUTO 15019KT 10SM FEW110 A3012 RMK A01,M
BVU,2024-08-17 17:15,-114.8611,35.9475,671.00,98.60,57.20,25.41,160.00,18.00,0.00,29.90,M,10.00,25.00,CLR,M,M,M,M,M,M,M,M,M,M,M,M,M,M,97.76,KBVU 171715Z AUTO 16018G25KT 10SM CLR 37/14 A2990 RMK AO2,M
CXP,2024-08-17 17:15,-119.7326,39.1923,1431.00,77.00,30.20,17.94,M,6.00,0.00,30.01,M,10.00,M,CLR,M,M,M,M,M,M,M,M,M,M,M,M,M,M,77.00,KCXP 171715Z AUTO VRB06KT 10SM CLR 25/M01 A3001 RMK AO2,M
RTS,2024-08-17 17:15,-119.8764,39.6682,1539.00,75.20,28.40,17.70,130.00,3.00,0.00,30.03,M,10.00,M,CLR,M,M,M,M,M,M,M,M,M,M,M,M,M,M,75.20,KRTS 171715Z AUTO 13003KT 10SM CLR 24/M02 A3003 RMK AO2,M
MEV,2024-08-17 17:15,-119.7500,38.9963,1441.42,80.60,30.20,15.94,190.00,16.00,0.00,29.99,M,10.00,21.00,CLR,M,M,M,M,M,M,M,M,M,M,M,M,M,M,78.77,KMEV 171715Z AUTO 19016G21KT 10SM CLR 27/M01 A2999 RMK AO2,M
BAM,2024-08-17 17:15,-116.8743,40.5990,1382.36,77.00,32.00,19.30,0.00,0.00,0.00,30.01,M,10.00,M,CLR,M,M,M,M,M,M,M,M,M,M,M,M,M,M,77.00,KBAM 171715Z AUTO 00000KT 10SM CLR 25/00 A3001 RMK AO1,M
HTH,2024-08-17 17:15,-118.6315,38.5448,1282.89,78.80,30.20,16.90,0.00,0.00,0.00,29.98,M,10.00,M,CLR,M,M,M,M,M,M,M,M,M,M,M,M,M,M,78.80,KHTH 171715Z AUTO 00000KT 10SM CLR 26/M01 A2998 RMK A01,M
10U,2024-08-17 17:15,-116.1876,41.9532,1637.00,82.40,32.00,16.17,150.00,6.00,0.00,30.02,M,10.00,M,CLR,M,M,M,M,M,M,M,M,M,M,M,M,M,M,80.00,K10U 171715Z AUTO 15006KT 10SM CLR 28/M00 A3002 RMK AO2,M
TMT,2024-08-17 17:15,-117.1971,39.4643,1749.34,77.40,28.20,16.32,280.00,4.00,0.00,30.07,M,10.00,M,CLR,M,M,M,M,M,M,M,M,M,M,M,M,M,M,77.40,KTMT 171715Z AUTO 28004KT 10SM CLR 25/M02 A3007 RMK AO2 T02521021,M
05U,2024-08-17 17:30,-116.0051,39.6042,1811.23,M,M,M,150.00,18.00,0.00,30.12,M,10.00,26.00,CLR,M,M,M,M,M,M,M,M,M,M,M,M,M,M,M,K05U 171730Z AUTO 15018G26KT 10SM CLR A3012 RMK A01,M
BVU,2024-08-17 17:35,-114.8611,35.9475,671.00,98.60,57.20,25.41,160.00,19.00,0.00,29.90,M,10.00,M,CLR,M,M,M,M,M,M,M,M,M,M,M,M,M,M,97.76,KBVU 171735Z AUTO 16019KT 10SM CLR 37/14 A2990 RMK AO2,M
CXP,2024-08-17 17:35,-119.7326,39.1923,1431.00,80.60,30.20,15.94,180.00,16.00,0.00,30.00,M,10.00,21.00,CLR,M,M,M,M,M,M,M,M,M,M,M,M,M,M,78.77,KCXP 171735Z AUTO 18016G21KT 10SM CLR 27/M01 A3000 RMK AO2,M
RTS,2024-08-17 17:35,-119.8764,39.6682,1539.00,75.20,28.40,17.70,M,3.00,0.00,30.02,M,10.00,M,CLR,M,M,M,M,M,M,M,M,M,M,M,M,M,M,75.20,KRTS 171735Z AUTO VRB03KT 10SM CLR 24/M02 A3002 RMK AO2,M
MEV,2024-08-17 17:35,-119.7500,38.9963,1441.42,80.60,30.20,15.94,200.00,17.00,0.00,29.99,M,10.00,24.00,CLR,M,M,M,M,M,M,M,M,M,M,M,M,M,M,78.77,KMEV 171735Z AUTO 20017G24KT 10SM CLR 27/M01 A2999 RMK AO2,M
BAM,2024-08-17 17:35,-116.8743,40.5990,1382.36,80.60,32.00,17.14,240.00,3.00,0.00,30.00,M,10.00,M,CLR,M,M,M,M,M,M,M,M,M,M,M,M,M,M,78.82,KBAM 171735Z AUTO 24003KT 10SM CLR 27/00 A3000 RMK AO1,M
HTH,2024-08-17 17:35,-118.6315,38.5448,1282.89,78.80,30.20,16.90,0.00,0.00,0.00,29.97,M,10.00,M,CLR,M,M,M,M,M,M,M,M,M,M,M,M,M,M,78.80,KHTH 171735Z AUTO 00000KT 10SM CLR 26/M01 A2997 RMK A01,M
10U,2024-08-17 17:35,-116.1876,41.9532,1637.00,84.20,23.00,10.53,200.00,12.00,0.00,30.02,M,10.00,18.00,CLR,M,M,M,M,M,M,M,M,M,M,M,M,M,M,80.88,K10U 171735Z AUTO 20012G18KT 170V230 10SM CLR 29/M05 A3002 RMK AO2,M
TMT,2024-08-17 17:35,-117.1971,39.4643,1749.34,79.00,28.40,15.60,240.00,3.00,0.00,30.07,M,10.00,M,CLR,M,M,M,M,M,M,M,M,M,M,M,M,M,M,79.00,KTMT 171735Z AUTO 24003KT 10SM CLR 26/M02 A3007 RMK AO2 T02621020,M
05U,2024-08-17 17:50,-116.0051,39.6042,1811.23,M,M,M,150.00,20.00,0.00,30.12,M,10.00,26.00,CLR,M,M,M,M,M,M,M,M,M,M,M,M,M,M,M,K05U 171750Z AUTO 15020G26KT 10SM CLR A3012 RMK A01,M
P68,2024-08-17 17:53,-116.0056,39.6014,1993.00,80.00,41.00,24.94,150.00,22.00,0.00,30.09,1010.50,M,32.00,M,M,M,M,M,M,M,M,M,M,M,M,32.00,140.00,2024-08-17 17:53,78.87,KP68 171753Z AUTO 15022G32KT 27/05 A3009 RMK AO1 PK WND 14032/1753 SLP105 T02670050 10267 20100 58001,M
DRA,2024-08-17 17:53,-116.0278,36.6206,1009.00,95.00,51.00,22.62,180.00,14.00,0.00,29.97,1008.90,10.00,28.00,CLR,M,M,M,M,M,M,M,M,M,M,M,28.00,190.00,2024-08-17 17:51,92.09,KDRA 171753Z AUTO 18014G28KT 10SM CLR 35/11 A2997 RMK AO2 PK WND 19028/1751 SLP089 T03500106 10356 20261 58001,M
ELY,2024-08-17 17:53,-114.8453,39.2950,1909.00,59.00,56.00,89.76,190.00,10.00,0.08,30.24,1015.70,10.00,M,OVC,M,M,M,8500.00,M,M,M,-RA,M,M,M,M,M,M,59.00,KELY 171753Z AUTO 19010KT 10SM -RA OVC085 15/13 A3024 RMK AO2 SLP157 P0008 60014 T01500133 10217 20128 50023,M
VGT,2024-08-17 17:53,-115.1933,36.2111,667.00,100.00,57.00,24.18,120.00,8.00,0.00,29.89,1010.20,10.00,16.00,CLR,M,M,M,M,M,M,M,M,M,M,M,M,M,M,99.24,KVGT 171753Z 12008G16KT 10SM CLR 38/14 A2989 RMK AO2 SLP102 60000 T03780139 10378 20317 58001,M
LOL,2024-08-17 17:53,-118.5701,40.0684,1192.43,82.00,32.00,16.38,90.00,3.00,0.00,29.95,1010.40,10.00,M,CLR,M,M,M,M,M,M,M,M,M,M,M,M,M,M,79.73,KLOL 171753Z AUTO 09003KT 10SM CLR 28/00 A2995 RMK AO2 SLP104 T02780000 10278 20078 58006,M
BVU,2024-08-17 17:55,-114.8611,35.9475,671.00,98.60,57.20,25.41,140.00,18.00,0.00,29.90,M,10.00,23.00,CLR,M,M,M,M,M,M,M,M,M,M,M,M,M,M,97.76,KBVU 171755Z AUTO 14018G23KT 10SM CLR 37/14 A2990 RMK AO2,M
CXP,2024-08-17 17:55,-119.7326,39.1923,1431.00,82.40,30.20,15.03,170.00,11.00,0.00,30.00,M,10.00,19.00,CLR,M,M,M,M,M,M,M,M,M,M,M,M,M,M,79.97,KCXP 171755Z AUTO 17011G19KT 10SM CLR 28/M01 A3000 RMK AO2,M
RTS,2024-08-17 17:55,-119.8764,39.6682,1539.00,75.20,28.40,17.70,140.00,7.00,0.00,30.02,M,10.00,M,CLR,M,M,M,M,M,M,M,M,M,M,M,M,M,M,75.20,KRTS 171755Z AUTO 14007KT 10SM CLR 24/M02 A3002 RMK AO2,M
MEV,2024-08-17 17:55,-119.7500,38.9963,1441.42,82.40,30.20,15.03,180.00,21.00,0.00,29.99,M,10.00,27.00,CLR,M,M,M,M,M,M,M,M,M,M,M,M,M,M,79.97,KMEV 171755Z AUTO 18021G27KT 10SM CLR 28/M01 A2999 RMK AO2,M
BAM,2024-08-17 17:55,-116.8743,40.5990,1382.36,80.60,30.20,15.94,240.00,4.00,0.00,30.00,M,10.00,M,CLR,M,M,M,M,M,M,M,M,M,M,M,M,M,M,78.77,KBAM 171755Z AUTO 24004KT 10SM CLR 27/M01 A3000 RMK AO1,M
HTH,2024-08-17 17:55,-118.6315,38.5448,1282.89,80.60,28.40,14.81,M,4.00,0.00,29.96,M,10.00,M,CLR,M,M,M,M,M,M,M,M,M,M,M,M,M,M,78.72,KHTH 171755Z AUTO VRB04KT 10SM CLR 27/M02 A2996 RMK A01,M
10U,2024-08-17 17:55,-116.1876,41.9532,1637.00,84.20,23.00,10.53,160.00,10.00,0.00,30.01,M,10.00,16.00,CLR,M,M,M,M,M,M,M,M,M,M,M,M,M,M,80.88,K10U 171755Z AUTO 16010G16KT 10SM CLR 29/M05 A3001 RMK AO2 LTG DSNT SE,M
RNO,2024-08-17 17:55,-119.7711,39.4839,1341.00,81.00,33.00,17.61,170.00,9.00,0.00,29.97,1008.90,10.00,15.00,FEW,M,M,M,9000.00,M,M,M,M,M,M,M,M,M,M,79.10,KRNO 171755Z COR 17009G15KT 10SM FEW090 27/01 A2997 RMK AO2 SLP089 T02720006 10272 20150 58012,M
TMT,2024-08-17 17:55,-117.1971,39.4643,1749.34,81.30,28.40,14.47,230.00,4.00,0.00,30.06,M,10.00,M,CLR,M,M,M,M,M,M,M,M,M,M,M,M,M,M,79.18,KTMT 171755Z AUTO 23004KT 10SM CLR 27/M02 A3006 RMK AO2 T02741020 10274 21005,M
INS,2024-08-17 17:55,-115.6733,36.5872,955.00,84.70,61.70,46.06,280.00,3.00,0.00,29.97,1009.20,10.00,M,SCT,M,M,M,11000.00,M,M,M,M,M,M,M,M,M,M,85.17,KINS 171755Z AUTO 28003KT 10SM SCT110 29/17 A2997 RMK AO2 SLP092 60007 T02930165 10293 20217 55008 $,M
LSV,2024-08-17 17:55,-115.0343,36.2362,570.00,101.00,54.00,21.04,170.00,15.00,0.00,29.83,M,10.00,22.00,BKN,M,M,M,12000.00,M,M,M,M,M,M,M,M,M,M,99.22,KLSV 171755Z COR 17015G22KT 10SM BKN120 38/12 A2983 RMK AO2 PRESFR SLPNO T03840122 10385 20378 $ COR 1801,M
EKO,2024-08-17 17:56,-115.7860,40.8242,1367.00,85.00,36.00,17.44,0.00,0.00,0.00,30.01,1010.00,10.00,M,CLR,M,M,M,M,M,M,M,M,M,M,M,M,M,M,81.93,KEKO 171756Z AUTO 00000KT 10SM CLR 29/02 A3001 RMK AO2 SLP100 T02940022 10300 20089 58015,M
WMC,2024-08-17 17:56,-117.8072,40.9019,1315.00,84.00,30.00,14.16,0.00,0.00,0.00,29.97,1010.00,10.00,M,CLR,M,M,M,M,M,M,M,M,M,M,M,M,M,M,81.11,KWMC 171756Z AUTO 00000KT 10SM CLR 29/M01 A2997 RMK AO2 SLP100 T02891011 10289 20056 58006,M
HND,2024-08-17 17:56,-115.1344,35.9729,742.79,100.00,59.00,25.98,160.00,16.00,0.00,29.93,1011.20,10.00,22.00,CLR,M,M,M,M,M,M,M,M,M,M,M,M,M,M,100.11,KHND 171756Z 16016G22KT 10SM CLR 38/15 A2993 RMK AO2 SLP112 T03780150 10383 20311 58003,M
TPH,2024-08-17 17:56,-117.0904,38.0505,1654.00,86.00,43.00,22.19,180.00,21.00,0.00,30.07,1009.30,10.00,35.00,CLR,M,M,M,M,M,M,M,M,M,M,M,38.00,180.00,2024-08-17 17:40,82.97,KTPH 171756Z AUTO 18021G35KT 10SM CLR 30/06 A3007 RMK AO2 PK WND 18038/1740 SLP093 T03000061 10300 20128 58007,M
LAS,2024-08-17 17:56,-115.1634,36.0719,663.00,101.00,55.00,21.82,220.00,11.00,0.00,29.90,1009.10,10.00,20.00,FEW,SCT,M,M,9500.00,20000.00,M,M,M,M,M,M,M,M,M,99.57,KLAS 171756Z 22011G20KT 10SM FEW095 SCT200 38/13 A2990 RMK AO2 SLP091 T03830128 10383 20333 58002,M
NFL,2024-08-17 17:57,-118.7010,39.4166,1199.00,83.00,34.00,17.18,M,5.00,0.00,29.94,1011.30,10.00,M,CLR,M,M,M,M,M,M,M,M,M,M,M,M,M,M,80.45,KNFL 171757Z VRB05KT 10SM CLR 28/01 A2994 RMK AO2 SLP113 T02830011 10283 20111 58007,M
DRA,2024-08-17 18:00,-116.0278,36.6206,1009.00,94.00,51.00,23.33,200.00,16.00,0.00,29.97,M,10.00,28.00,CLR,M,M,M,M,M,M,M,M,M,M,M,M,M,M,91.08,KDRA 171800Z AUTO 20016G28KT 10SM CLR 34/11 A2997 RMK AO2 WSHFT 1743 T03440106,M
05U,2024-08-17 18:10,-116.0051,39.6042,1811.23,M,M,M,140.00,22.00,0.00,30.11,M,10.00,27.00,CLR,M,M,M,M,M,M,M,M,M,M,M,M,M,M,M,K05U 171810Z AUTO 14022G27KT 10SM CLR A3011 RMK A01,M
BVU,2024-08-17 18:15,-114.8611,35.9475,671.00,100.40,55.40,22.54,150.00,19.00,0.00,29.89,M,10.00,M,CLR,M,M,M,M,M,M,M,M,M,M,M,M,M,M,99.06,KBVU 171815Z AUTO 15019KT 10SM CLR 38/13 A2989 RMK AO2,M
CXP,2024-08-17 18:15,-119.7326,39.1923,1431.00,84.20,26.60,12.23,180.00,9.00,0.00,30.00,M,9.00,19.00,CLR,M,M,M,M,M,M,M,M,M,M,M,M,M,M,81.13,KCXP 171815Z AUTO 18009G19KT 9SM CLR 29/M03 A3000 RMK AO2,M
RTS,2024-08-17 18:15,-119.8764,39.6682,1539.00,77.00,26.60,15.48,M,11.00,0.00,30.01,M,10.00,21.00,CLR,M,M,M,M,M,M,M,M,M,M,M,M,M,M,77.00,KRTS 171815Z AUTO VRB11G21KT 10SM CLR 25/M03 A3001 RMK AO2,M
MEV,2024-08-17 18:15,-119.7500,38.9963,1441.42,82.40,30.20,15.03,200.00,17.00,0.00,29.99,M,10.00,23.00,CLR,M,M,M,M,M,M,M,M,M,M,M,M,M,M,79.97,KMEV 171815Z AUTO 20017G23KT 10SM CLR 28/M01 A2999 RMK AO2,M
BAM,2024-08-17 18:15,-116.8743,40.5990,1382.36,82.40,30.20,15.03,160.00,4.00,0.00,29.99,M,10.00,M,CLR,M,M,M,M,M,M,M,M,M,M,M,M,M,M,79.97,KBAM 171815Z AUTO 16004KT 10SM CLR 28/M01 A2999 RMK AO1,M
HTH,2024-08-17 18:15,-118.6315,38.5448,1282.89,82.40,28.40,13.96,M,5.00,0.00,29.96,M,10.00,11.00,CLR,M,M,M,M,M,M,M,M,M,M,M,M,M,M,79.94,KHTH 171815Z AUTO VRB05G11KT 10SM CLR 28/M02 A2996 RMK A01,M
10U,2024-08-17 18:15,-116.1876,41.9532,1637.00,87.80,19.40,8.06,200.00,16.00,0.00,30.01,M,10.00,22.00,CLR,M,M,M,M,M,M,M,M,M,M,M,M,M,M,83.23,K10U 171815Z AUTO 20016G22KT 10SM CLR 31/M07 A3001 RMK AO2,M
TMT,2024-08-17 18:15,-117.1971,39.4643,1749.34,82.20,28.40,14.06,240.00,7.00,0.00,30.05,M,10.00,M,CLR,M,M,M,M,M,M,M,M,M,M,M,M,M,M,79.80,KTMT 171815Z AUTO 24007KT 10SM CLR 28/M02 A3005 RMK AO2 T02791020,M
05U,2024-08-17 18:30,-116.0051,39.6042,1811.23,M,M,M,150.00,23.00,0.00,30.10,M,10.00,M,CLR,M,M,M,M,M,M,M,M,M,M,M,M,M,M,M,K05U 171830Z AUTO 15023KT 10SM CLR A3010 RMK A01,M
BVU,2024-08-17 18:35,-114.8611,35.9475,671.00,100.40,53.60,21.11,200.00,17.00,0.00,29.88,M,10.00,22.00,FEW,M,M,M,9500.00,M,M,M,M,M,M,M,M,M,M,98.44,KBVU 171835Z AUTO 20017G22KT 10SM FEW095 38/12 A2988 RMK AO2,M
CXP,2024-08-17 18:35,-119.7326,39.1923,1431.00,84.20,28.40,13.18,180.00,14.00,0.00,29.99,M,10.00,24.00,CLR,M,M,M,M,M,M,M,M,M,M,M,M,M,M,81.25,KCXP 171835Z AUTO 18014G24KT 10SM CLR 29/M02 A2999 RMK AO2,M
RTS,2024-08-17 18:35,-119.8764,39.6682,1539.00,80.60,26.60,13.75,220.00,12.00,0.00,30.01,M,10.00,19.00,CLR,M,M,M,M,M,M,M,M,M,M,M,M,M,M,78.68,KRTS 171835Z AUTO 22012G19KT 190V250 10SM CLR 27/M03 A3001 RMK AO2,M
MEV,2024-08-17 18:35,-119.7500,38.9963,1441.42,84.20,28.40,13.18,210.00,19.00,0.00,29.99,M,10.00,25.00,CLR,M,M,M,M,M,M,M,M,M,M,M,M,M,M,81.25,KMEV 171835Z AUTO 21019G25KT 10SM CLR 29/M02 A2999 RMK AO2,M
BAM,2024-08-17 18:35,-116.8743,40.5990,1382.36,84.20,30.20,14.18,210.00,4.00,0.00,29.99,M,10.00,M,CLR,M,M,M,M,M,M,M,M,M,M,M,M,M,M,81.26,KBAM 171835Z AUTO 21004KT 10SM CLR 29/M01 A2999 RMK AO1,M
HTH,2024-08-17 18:35,-118.6315,38.5448,1282.89,84.20,28.40,13.18,310.00,5.00,0.00,29.94,M,10.00,M,CLR,M,M,M,M,M,M,M,M,M,M,M,M,M,M,81.25,KHTH 171835Z AUTO 31005KT 10SM CLR 29/M02 A2994 RMK A01,M
10U,2024-08-17 18:35,-116.1876,41.9532,1637.00,87.80,21.20,8.70,200.00,15.00,0.00,30.01,M,10.00,23.00,CLR,M,M,M,M,M,M,M,M,M,M,M,M,M,M,83.33,K10U 171835Z AUTO 20015G23KT 10SM CLR 31/M06 A3001 RMK AO2,M
TMT,2024-08-17 18:35,-117.1971,39.4643,1749.34,82.80,30.00,14.72,220.00,6.00,0.00,30.05,M,10.00,M,CLR,M,M,M,M,M,M,M,M,M,M,M,M,M,M,80.24,KTMT 171835Z AUTO 22006KT 10SM CLR 28/M01 A3005 RMK AO2 T02821011,M
05U,2024-08-17 18:50,-116.0051,39.6042,1811.23,M,M,M,140.00,22.00,0.00,30.10,M,10.00,M,CLR,M,M,M,M,M,M,M,M,M,M,M,M,M,M,M,K05U 171850Z AUTO 14022KT 10SM CLR A3010 RMK A01,M
P68,2024-08-17 18:53,-116.0056,39.6014,1993.00,83.00,46.00,27.39,150.00,22.00,0.00,30.07,1009.90,M,32.00,M,M,M,M,M,M,M,M,M,M,M,M,35.00,180.00,2024-08-17 18:19,81.00,KP68 171853Z AUTO 15022G32KT 28/08 A3007 RMK AO1 PK WND 18035/1819 SLP099 T02830078,M
DRA,2024-08-17 18:53,-116.0278,36.6206,1009.00,97.00,50.00,20.49,220.00,18.00,0.00,29.96,1008.40,10.00,30.00,CLR,M,M,M,M,M,M,M,M,M,M,M,30.00,210.00,2024-08-17 18:48,93.91,KDRA 171853Z AUTO 22018G30KT 10SM CLR 36/10 A2996 RMK AO2 PK WND 21030/1848 WSHFT 1743 SLP084 T03610100,M
ELY,2024-08-17 18:53,-114.8453,39.2950,1909.00,67.00,58.00,72.82,180.00,13.00,T,30.21,1013.50,10.00,23.00,CLR,M,M,M,M,M,M,M,M,M,M,M,27.00,180.00,2024-08-17 18:40,67.00,KELY 171853Z AUTO 18013G23KT 10SM CLR 19/14 A3021 RMK AO2 PK WND 18027/1840 RAE1757 SLP135 P0000 T01940144,M
VGT,2024-08-17 18:53,-115.1933,36.2111,667.00,103.00,55.00,20.55,190.00,17.00,0.00,29.86,1009.40,10.00,29.00,CLR,M,M,M,M,M,M,M,M,M,M,M,29.00,170.00,2024-08-17 18:49,101.76,KVGT 171853Z 19017G29KT 10SM CLR 39/13 A2986 RMK AO2 PK WND 17029/1849 SLP094 T03940128,M
LOL,2024-08-17 18:53,-118.5701,40.0684,1192.43,84.00,33.00,15.98,M,3.00,0.00,29.93,1009.20,10.00,M,CLR,M,M,M,M,M,M,M,M,M,M,M,M,M,M,81.14,KLOL 171853Z AUTO VRB03KT 10SM CLR 29/01 A2993 RMK AO2 SLP092 T02890006,M
BVU,2024-08-17 18:55,-114.8611,35.9475,671.00,102.20,51.80,18.72,200.00,18.00,0.00,29.87,M,10.00,25.00,FEW,M,M,M,9500.00,M,M,M,M,M,M,M,M,M,M,99.80,KBVU 171855Z AUTO 20018G25KT 150V230 10SM FEW095 39/11 A2987 RMK AO2,M
CXP,2024-08-17 18:55,-119.7326,39.1923,1431.00,86.00,26.60,11.55,180.00,15.00,0.00,29.98,M,6.00,24.00,CLR,M,M,M,M,M,M,M,HZ,M,M,M,M,M,M,82.39,KCXP 171855Z AUTO 18015G24KT 6SM HZ CLR 30/M03 A2998 RMK AO2,M
RNO,2024-08-17 18:55,-119.7711,39.4839,1341.00,85.00,30.00,13.71,200.00,12.00,0.00,29.95,1008.10,10.00,23.00,FEW,M,M,M,9000.00,M,M,M,M,M,M,M,28.00,200.00,2024-08-17 18:40,81.86,KRNO 171855Z 20012G23KT 10SM FEW090 29/M01 A2995 RMK AO2 PK WND 20028/1840 SLP081 T02941011,M
RTS,2024-08-17 18:55,-119.8764,39.6682,1539.00,80.60,24.80,12.76,230.00,19.00,0.00,30.00,M,10.00,M,CLR,M,M,M,M,M,M,M,M,M,M,M,M,M,M,78.94,KRTS 171855Z AUTO 23019KT 10SM CLR 27/M04 A3000 RMK AO2,M
MEV,2024-08-17 18:55,-119.7500,38.9963,1441.42,82.40,30.20,15.03,200.00,21.00,0.00,29.98,M,10.00,27.00,CLR,M,M,M,M,M,M,M,M,M,M,M,M,M,M,79.97,KMEV 171855Z AUTO 20021G27KT 10SM CLR 28/M01 A2998 RMK AO2,M
BAM,2024-08-17 18:55,-116.8743,40.5990,1382.36,86.00,28.40,12.44,0.00,0.00,0.00,29.97,M,10.00,M,CLR,M,M,M,M,M,M,M,M,M,M,M,M,M,M,82.54,KBAM 171855Z AUTO 00000KT 10SM CLR 30/M02 A2997 RMK AO1,M
HTH,2024-08-17 18:55,-118.6315,38.5448,1282.89,84.20,28.40,13.18,M,4.00,0.00,29.93,M,10.00,M,CLR,M,M,M,M,M,M,M,M,M,M,M,M,M,M,81.25,KHTH 171855Z AUTO VRB04KT 10SM CLR 29/M02 A2993 RMK A01,M
10U,2024-08-17 18:55,-116.1876,41.9532,1637.00,87.80,21.20,8.70,190.00,16.00,0.00,30.00,M,10.00,22.00,CLR,M,M,M,M,M,M,M,M,M,M,M,M,M,M,83.33,K10U 171855Z AUTO 19016G22KT 160V230 10SM CLR 31/M06 A3000 RMK AO2,M
TMT,2024-08-17 18:55,-117.1971,39.4643,1749.34,84.40,33.00,15.78,200.00,13.00,0.00,30.04,M,10.00,19.00,CLR,M,M,M,M,M,M,M,M,M,M,M,M,M,M,81.44,KTMT 171855Z AUTO 20013G19KT 10SM CLR 29/01 A3004 RMK AO2 T02910006,M
INS,2024-08-17 18:55,-115.6733,36.5872,955.00,89.80,59.00,35.58,350.00,6.00,0.00,29.94,1007.90,10.00,M,BKN,M,M,M,11000.00,M,M,M,M,M,M,M,M,M,M,89.06,KINS 171855Z AUTO 35006KT 10SM BKN110 32/15 A2994 RMK AO2 SLP079 T03210151 $,M
LSV,2024-08-17 18:55,-115.0343,36.2362,570.00,103.50,51.60,17.87,160.00,22.00,0.00,29.81,M,10.00,M,CLR,M,M,M,M,M,M,M,M,M,M,M,28.00,170.00,2024-08-17 18:52,101.10,KLSV 171855Z AUTO 16022KT 10SM CLR 40/11 A2981 RMK AO2 PK WND 17028/52 SLPNO T03970109 $,M
EKO,2024-08-17 18:56,-115.7860,40.8242,1367.00,89.00,38.00,16.61,190.00,14.00,0.00,29.99,1009.50,10.00,32.00,CLR,M,M,M,M,M,M,M,M,M,M,M,32.00,190.00,2024-08-17 18:48,85.18,KEKO 171856Z AUTO 19014G32KT 10SM CLR 32/03 A2999 RMK AO2 PK WND 19032/1848 SLP095 T03170033,M
WMC,2024-08-17 18:56,-117.8072,40.9019,1315.00,85.00,30.00,13.71,M,5.00,0.00,29.94,1009.30,10.00,M,CLR,M,M,M,M,M,M,M,M,M,M,M,M,M,M,81.86,KWMC 171856Z AUTO VRB05KT 10SM CLR 29/M01 A2994 RMK AO2 SLP093 T02941011,M
HND,2024-08-17 18:56,-115.1344,35.9729,742.79,100.00,56.00,23.32,200.00,17.00,0.00,29.91,1010.70,10.00,24.00,CLR,M,M,M,M,M,M,M,M,M,M,M,29.00,190.00,2024-08-17 18:39,98.84,KHND 171856Z 20017G24KT 10SM CLR 38/13 A2991 RMK AO2 PK WND 19029/1839 SLP107 T03780133,M
TPH,2024-08-17 18:56,-117.0904,38.0505,1654.00,85.00,42.00,22.05,180.00,23.00,0.00,30.05,1009.30,10.00,36.00,SCT,M,M,M,11000.00,M,M,M,M,M,M,M,39.00,190.00,2024-08-17 18:04,82.15,KTPH 171856Z AUTO 18023G36KT 10SM SCT110 29/06 A3005 RMK AO2 PK WND 19039/1804 SLP093 T02940056,M
LAS,2024-08-17 18:56,-115.1634,36.0719,663.00,102.00,54.00,20.42,190.00,11.00,0.00,29.89,1008.50,10.00,24.00,FEW,SCT,M,M,10000.00,20000.00,M,M,M,M,M,M,M,M,M,100.30,KLAS 171856Z 19011G24KT 10SM FEW100 SCT200 39/12 A2989 RMK AO2 SLP085 T03890122,M
NFL,2024-08-17 18:57,-118.7010,39.4166,1199.00,85.00,30.00,13.71,M,5.00,0.00,29.92,1010.60,10.00,M,CLR,M,M,M,M,M,M,M,M,M,M,M,M,M,M,81.86,KNFL 171857Z COR VRB05KT 10SM CLR 29/M01 A2992 RMK AO2 SLP106 T02941011,M
MEV,2024-08-17 19:05,-119.7500,38.9963,1441.42,82.40,28.40,13.96,210.00,20.00,0.00,29.98,M,10.00,26.00,CLR,M,M,M,M,M,M,M,M,M,M,M,M,M,M,79.94,KMEV 171905Z AUTO 21020G26KT 10SM CLR 28/M02 A2998 RMK AO2,M
05U,2024-08-17 19:10,-116.0051,39.6042,1811.23,M,M,M,160.00,21.00,0.00,30.09,M,10.00,28.00,CLR,M,M,M,M,M,M,M,M,M,M,M,M,M,M,M,K05U 171910Z AUTO 16021G28KT 10SM CLR A3009 RMK A01,M
BVU,2024-08-17 19:15,-114.8611,35.9475,671.00,102.20,51.80,18.72,180.00,21.00,0.00,29.87,M,10.00,29.00,FEW,M,M,M,10000.00,M,M,M,M,M,M,M,M,M,M,99.80,KBVU 171915Z AUTO 18021G29KT 10SM FEW100 39/11 A2987 RMK AO2,M
CXP,2024-08-17 19:15,-119.7326,39.1923,1431.00,86.00,24.80,10.72,180.00,15.00,0.00,29.98,M,10.00,22.00,CLR,M,M,M,M,M,M,M,M,M,M,M,M,M,M,82.26,KCXP 171915Z AUTO 18015G22KT 10SM CLR 30/M04 A2998 RMK AO2,M
BAM,2024-08-17 19:15,-116.8743,40.5990,1382.36,89.60,28.40,11.09,190.00,5.00,0.00,29.96,M,10.00,M,CLR,M,M,M,M,M,M,M,M,M,M,M,M,M,M,85.17,KBAM 171915Z AUTO 19005KT 10SM CLR 32/M02 A2996 RMK AO1,M
HTH,2024-08-17 19:15,-118.6315,38.5448,1282.89,86.00,28.40,12.44,340.00,9.00,0.00,29.91,M,10.00,M,CLR,M,M,M,M,M,M,M,M,M,M,M,M,M,M,82.54,KHTH 171915Z AUTO 34009KT 10SM CLR 30/M02 A2991 RMK A01,M
10U,2024-08-17 19:15,-116.1876,41.9532,1637.00,87.80,19.40,8.06,180.00,10.00,0.00,29.99,M,10.00,23.00,CLR,M,M,M,M,M,M,M,M,M,M,M,M,M,M,83.23,K10U 171915Z AUTO 18010G23KT 10SM CLR 31/M07 A2999 RMK AO2,M
TMT,2024-08-17 19:15,-117.1971,39.4643,1749.34,86.00,35.00,16.23,210.00,10.00,0.00,30.03,M,10.00,21.00,CLR,M,M,M,M,M,M,M,M,M,M,M,M,M,M,82.68,KTMT 171915Z AUTO 21010G21KT 10SM CLR 30/02 A3003 RMK AO2 T02990016,M
05U,2024-08-17 19:30,-116.0051,39.6042,1811.23,M,M,M,160.00,16.00,0.00,30.08,M,10.00,M,FEW,M,M,M,8000.00,M,M,M,M,M,M,M,M,M,M,M,K05U 171930Z AUTO 16016KT 10SM FEW080 A3008 RMK A01,M
BVU,2024-08-17 19:35,-114.8611,35.9475,671.00,102.20,53.60,20.00,160.00,20.00,0.00,29.86,M,10.00,28.00,FEW,M,M,M,10000.00,M,M,M,M,M,M,M,M,M,M,100.38,KBVU 171935Z AUTO 16020G28KT 10SM FEW100 39/12 A2986 RMK AO2,M
CXP,2024-08-17 19:35,-119.7326,39.1923,1431.00,86.00,26.60,11.55,200.00,13.00,0.00,29.98,M,10.00,25.00,CLR,M,M,M,M,M,M,M,M,M,M,M,M,M,M,82.39,KCXP 171935Z AUTO 20013G25KT 10SM CLR 30/M03 A2998 RMK AO2,M
RTS,2024-08-17 19:35,-119.8764,39.6682,1539.00,82.40,24.80,12.03,220.00,21.00,0.00,30.00,M,10.00,27.00,CLR,M,M,M,M,M,M,M,M,M,M,M,M,M,M,79.79,KRTS 171935Z AUTO 22021G27KT 10SM CLR 28/M04 A3000 RMK AO2,M
MEV,2024-08-17 19:35,-119.7500,38.9963,1441.42,84.20,28.40,13.18,190.00,21.00,0.00,29.98,M,10.00,31.00,CLR,M,M,M,M,M,M,M,M,M,M,M,M,M,M,81.25,KMEV 171935Z AUTO 19021G31KT 10SM CLR 29/M02 A2998 RMK AO2 LTG DSNT W AND NW,M
BAM,2024-08-17 19:35,-116.8743,40.5990,1382.36,89.60,26.60,10.30,140.00,3.00,0.00,29.95,M,10.00,14.00,CLR,M,M,M,M,M,M,M,M,M,M,M,M,M,M,85.02,KBAM 171935Z AUTO 14003G14KT 10SM CLR 32/M03 A2995 RMK AO1,M
HTH,2024-08-17 19:35,-118.6315,38.5448,1282.89,87.80,28.40,11.74,360.00,7.00,0.00,29.91,M,10.00,M,CLR,M,M,M,M,M,M,M,M,M,M,M,M,M,M,83.84,KHTH 171935Z AUTO 36007KT 10SM CLR 31/M02 A2991 RMK A01,M
10U,2024-08-17 19:35,-116.1876,41.9532,1637.00,87.80,21.20,8.70,180.00,7.00,0.00,29.99,M,10.00,18.00,CLR,M,M,M,M,M,M,M,M,M,M,M,M,M,M,83.33,K10U 171935Z AUTO 18007G18KT 150V210 10SM CLR 31/M06 A2999 RMK AO2,M
TMT,2024-08-17 19:35,-117.1971,39.4643,1749.34,85.60,34.70,16.25,230.00,6.00,0.00,30.02,M,10.00,M,SCT,M,M,M,11000.00,M,M,M,M,M,M,M,M,M,M,82.36,KTMT 171935Z AUTO 23006KT 10SM SCT110 30/02 A3002 RMK AO2 T02980015,M
05U,2024-08-17 19:50,-116.0051,39.6042,1811.23,M,M,M,160.00,15.00,0.00,30.07,M,10.00,27.00,FEW,M,M,M,10000.00,M,M,M,M,M,M,M,M,M,M,M,K05U 171950Z AUTO 16015G27KT 10SM FEW100 A3007 RMK A01,M
P68,2024-08-17 19:53,-116.0056,39.6014,1993.00,87.00,47.00,25.02,160.00,15.00,0.00,30.04,1008.30,M,29.00,M,M,M,M,M,M,M,M,M,M,M,M,35.00,130.00,2024-08-17 19:42,84.08,KP68 171953Z AUTO 16015G29KT 31/08 A3004 RMK AO1 PK WND 13035/1942 SLP083 T03060083,M
DRA,2024-08-17 19:53,-116.0278,36.6206,1009.00,99.00,50.00,19.28,210.00,21.00,0.00,29.94,1007.60,10.00,38.00,CLR,M,M,M,M,M,M,M,M,M,M,M,38.00,170.00,2024-08-17 19:46,95.97,KDRA 171953Z AUTO 21021G38KT 10SM CLR 37/10 A2994 RMK AO2 PK WND 17038/1946 SLP076 T03720100,M
ELY,2024-08-17 19:53,-114.8453,39.2950,1909.00,73.00,58.00,59.33,170.00,10.00,0.00,30.19,1012.90,10.00,17.00,CLR,M,M,M,M,M,M,M,M,M,M,M,M,M,M,73.00,KELY 171953Z AUTO 17010G17KT 10SM CLR 23/14 A3019 RMK AO2 SLP129 T02280144,M
VGT,2024-08-17 19:53,-115.1933,36.2111,667.00,105.00,54.00,18.67,200.00,16.00,0.00,29.84,1008.30,10.00,26.00,CLR,M,M,M,M,M,M,M,M,M,M,M,32.00,160.00,2024-08-17 19:04,103.53,KVGT 171953Z 20016G26KT 10SM CLR 41/12 A2984 RMK AO2 PK WND 16032/1904 SLP083 T04060122,M
LOL,2024-08-17 19:53,-118.5701,40.0684,1192.43,87.00,31.00,13.39,180.00,4.00,0.00,29.91,1008.90,10.00,M,CLR,M,M,M,M,M,M,M,M,M,M,M,M,M,M,83.43,KLOL 171953Z AUTO 18004KT 10SM CLR 31/M01 A2991 RMK AO2 SLP089 T03061006,M
BVU,2024-08-17 19:55,-114.8611,35.9475,671.00,104.00,53.60,18.95,170.00,17.00,0.00,29.86,M,10.00,33.00,CLR,M,M,M,M,M,M,M,M,M,M,M,M,M,M,102.31,KBVU 171955Z AUTO 17017G33KT 10SM CLR 40/12 A2986 RMK AO2,M
CXP,2024-08-17 19:55,-119.7326,39.1923,1431.00,86.00,26.60,11.55,210.00,12.00,0.00,29.98,M,10.00,21.00,CLR,M,M,M,M,M,M,M,M,M,M,M,M,M,M,82.39,KCXP 171955Z AUTO 21012G21KT 10SM CLR 30/M03 A2998 RMK AO2,M
RNO,2024-08-17 19:55,-119.7711,39.4839,1341.00,87.00,31.00,13.39,220.00,21.00,0.00,29.93,1007.40,10.00,30.00,FEW,M,M,M,9000.00,M,M,M,M,M,M,M,30.00,220.00,2024-08-17 19:54,83.43,KRNO 171955Z 22021G30KT 10SM FEW090 31/M01 A2993 RMK AO2 PK WND 22030/1954 SLP074 T03061006,M
RTS,2024-08-17 19:55,-119.8764,39.6682,1539.00,82.40,26.60,12.97,230.00,19.00,0.00,30.00,M,10.00,27.00,CLR,M,M,M,M,M,M,M,M,M,M,M,M,M,M,79.92,KRTS 171955Z AUTO 23019G27KT 10SM CLR 28/M03 A3000 RMK AO2,M
MEV,2024-08-17 19:55,-119.7500,38.9963,1441.42,84.20,30.20,14.18,190.00,17.00,0.00,29.99,M,10.00,26.00,CLR,M,M,M,M,M,M,M,M,M,M,M,M,M,M,81.26,KMEV 171955Z AUTO 19017G26KT 10SM CLR 29/M01 A2999 RMK AO2,M
BAM,2024-08-17 19:55,-116.8743,40.5990,1382.36,91.40,24.80,9.04,260.00,10.00,0.00,29.94,M,10.00,16.00,CLR,M,M,M,M,M,M,M,M,M,M,M,M,M,M,86.21,KBAM 171955Z AUTO 26010G16KT 10SM CLR 33/M04 A2994 RMK AO1,M
HTH,2024-08-17 19:55,-118.6315,38.5448,1282.89,89.60,26.60,10.30,340.00,8.00,0.00,29.90,M,10.00,M,CLR,M,M,M,M,M,M,M,M,M,M,M,M,M,M,85.02,KHTH 171955Z AUTO 34008KT 10SM CLR 32/M03 A2990 RMK A01,M
10U,2024-08-17 19:55,-116.1876,41.9532,1637.00,89.60,19.40,7.61,190.00,19.00,0.00,29.98,M,10.00,26.00,CLR,M,M,M,M,M,M,M,M,M,M,M,M,M,M,84.54,K10U 171955Z AUTO 19019G26KT 10SM CLR 32/M07 A2998 RMK AO2,M
TMT,2024-08-17 19:55,-117.1971,39.4643,1749.34,87.00,35.80,16.23,170.00,13.00,0.00,30.02,M,10.00,18.00,CLR,M,M,M,M,M,M,M,M,M,M,M,M,M,M,83.48,KTMT 171955Z AUTO 17013G18KT 10SM CLR 31/02 A3002 RMK AO2 T03050021,M
INS,2024-08-17 19:55,-115.6733,36.5872,955.00,95.00,51.30,22.87,0.00,0.00,0.00,29.91,1006.70,10.00,M,BKN,M,M,M,11000.00,M,M,M,M,M,M,M,M,M,M,92.15,KINS 171955Z AUTO 00000KT 10SM BKN110 35/11 A2991 RMK AO2 SLP067 T03490107 $,M
LSV,2024-08-17 19:55,-115.0343,36.2362,570.00,103.50,50.00,16.84,160.00,13.00,0.00,29.79,M,10.00,25.00,FEW,FEW,M,M,11000.00,21000.00,M,M,M,M,M,M,28.00,160.00,2024-08-17 19:06,100.62,KLSV 171955Z AUTO 16013G25KT 10SM FEW110 FEW210 40/10 A2979 RMK AO2 PK WND 16028/06 SLPNO T03970100 $,M
EKO,2024-08-17 19:56,-115.7860,40.8242,1367.00,92.00,38.00,15.12,190.00,18.00,0.00,29.97,1008.80,10.00,27.00,CLR,M,M,M,M,M,M,M,M,M,M,M,31.00,190.00,2024-08-17 19:36,87.78,KEKO 171956Z AUTO 19018G27KT 10SM CLR 33/03 A2997 RMK AO2 PK WND 19031/1936 SLP088 T03330033,M
WMC,2024-08-17 19:56,-117.8072,40.9019,1315.00,90.00,28.00,10.78,190.00,8.00,0.00,29.92,1008.20,10.00,18.00,CLR,M,M,M,M,M,M,M,M,M,M,M,M,M,M,85.43,KWMC 171956Z AUTO 19008G18KT 10SM CLR 32/M02 A2992 RMK AO2 SLP082 T03221022,M
HND,2024-08-17 19:56,-115.1344,35.9729,742.79,103.00,55.00,20.55,190.00,17.00,0.00,29.89,1009.80,10.00,27.00,CLR,M,M,M,M,M,M,M,M,M,M,M,31.00,190.00,2024-08-17 19:23,101.76,KHND 171956Z 19017G27KT 10SM CLR 39/13 A2989 RMK AO2 PK WND 19031/1923 SLP098 T03940128,M
TPH,2024-08-17 19:56,-117.0904,38.0505,1654.00,89.00,40.00,17.96,170.00,25.00,0.00,30.04,1009.10,10.00,37.00,CLR,M,M,M,M,M,M,M,M,M,M,M,39.00,180.00,2024-08-17 18:59,85.26,KTPH 171956Z AUTO 17025G37KT 10SM CLR 32/04 A3004 RMK AO2 PK WND 18039/1859 SLP091 T03170044,M
LAS,2024-08-17 19:56,-115.1634,36.0719,663.00,105.00,53.00,18.00,220.00,11.00,0.00,29.87,1007.80,10.00,19.00,SCT,SCT,M,M,10000.00,20000.00,M,M,M,M,M,M,28.00,190.00,2024-08-17 19:36,103.16,KLAS 171956Z 22011G19KT 10SM SCT100 SCT200 41/12 A2987 RMK AO2 PK WND 19028/1936 SLP078 T04060117,M
NFL,2024-08-17 19:57,-118.7010,39.4166,1199.00,90.00,29.00,11.23,M,5.00,0.00,29.89,1009.80,10.00,M,FEW,M,M,M,8000.00,M,M,M,M,M,M,M,M,M,M,85.53,KNFL 171957Z VRB05KT 10SM FEW080 32/M02 A2989 RMK AO2 SLP098 T03221017,M
05U,2024-08-17 20:10,-116.0051,39.6042,1811.23,M,M,M,180.00,20.00,0.00,30.06,M,10.00,27.00,FEW,FEW,M,M,8500.00,11000.00,M,M,M,M,M,M,M,M,M,M,K05U 172010Z AUTO 18020G27KT 10SM FEW085 FEW110 A3006 RMK A01,M
LSV,2024-08-17 20:13,-115.0343,36.2362,570.00,104.00,50.00,16.59,190.00,18.00,0.00,29.78,M,10.00,25.00,FEW,M,M,M,11000.00,M,M,M,M,M,M,M,M,M,M,101.14,KLSV 172013Z AUTO 19018G25KT 10SM FEW110 40/10 A2978 RMK AO2 WSHFT 1958 SLPNO $,M
BAM,2024-08-17 20:15,-116.8743,40.5990,1382.36,93.20,23.00,7.92,250.00,7.00,0.00,29.93,M,10.00,19.00,CLR,M,M,M,M,M,M,M,M,M,M,M,M,M,M,87.42,KBAM 172015Z AUTO 25007G19KT 10SM CLR 34/M05 A2993 RMK AO1,M
HTH,2024-08-17 20:15,-118.6315,38.5448,1282.89,91.40,24.80,9.04,20.00,7.00,0.00,29.89,M,10.00,M,CLR,M,M,M,M,M,M,M,M,M,M,M,M,M,M,86.21,KHTH 172015Z AUTO 02007KT 330V060 10SM CLR 33/M04 A2989 RMK A01,M
10U,2024-08-17 20:15,-116.1876,41.9532,1637.00,89.60,15.80,6.52,230.00,19.00,0.00,29.98,M,10.00,27.00,CLR,M,M,M,M,M,M,M,M,M,M,M,M,M,M,84.37,K10U 172015Z AUTO 23019G27KT 10SM CLR 32/M09 A2998 RMK AO2,M
TMT,2024-08-17 20:15,-117.1971,39.4643,1749.34,87.60,35.20,15.55,150.00,14.00,0.00,30.01,M,10.00,22.00,SCT,M,M,M,12000.00,M,M,M,M,M,M,M,M,M,M,83.95,KTMT 172015Z AUTO 15014G22KT 10SM SCT120 31/02 A3001 RMK AO2 T03090018,M
BVU,2024-08-17 20:15,-114.8611,35.9475,671.00,104.00,51.80,17.74,180.00,26.00,0.00,29.85,M,10.00,M,CLR,M,M,M,M,M,M,M,M,M,M,M,M,M,M,101.69,KBVU 172015Z AUTO 18026KT 10SM CLR 40/11 A2985 RMK AO2,M
CXP,2024-08-17 20:15,-119.7326,39.1923,1431.00,86.00,35.60,16.63,220.00,12.00,0.00,29.99,M,10.00,23.00,CLR,M,M,M,M,M,M,M,M,M,M,M,M,M,M,82.69,KCXP 172015Z AUTO 22012G23KT 10SM CLR 30/02 A2999 RMK AO2,M
RTS,2024-08-17 20:15,-119.8764,39.6682,1539.00,82.40,26.60,12.97,230.00,20.00,0.00,30.00,M,10.00,31.00,CLR,M,M,M,M,M,M,M,M,M,M,M,M,M,M,79.92,KRTS 172015Z AUTO 23020G31KT 10SM CLR 28/M03 A3000 RMK AO2,M
MEV,2024-08-17 20:15,-119.7500,38.9963,1441.42,84.20,30.20,14.18,180.00,15.00,0.00,29.98,M,10.00,28.00,CLR,M,M,M,M,M,M,M,M,M,M,M,M,M,M,81.26,KMEV 172015Z AUTO 18015G28KT 10SM CLR 29/M01 A2998 RMK AO2,M
LSV,2024-08-17 20:23,-115.0343,36.2362,570.00,105.80,48.20,14.71,160.00,16.00,0.00,29.78,M,10.00,25.00,FEW,FEW,M,M,11000.00,17000.00,M,M,M,M,M,M,M,M,M,102.45,KLSV 172023Z AUTO 16016G25KT 10SM FEW110 FEW170 41/09 A2978 RMK AO2 WSHFT 15 SLPNO $,M
LSV,2024-08-17 20:25,-115.0343,36.2362,570.00,105.80,50.00,15.73,200.00,23.00,0.00,29.78,M,9.00,31.00,FEW,FEW,M,M,11000.00,17000.00,M,M,M,M,M,M,M,M,M,102.98,KLSV 172025Z AUTO 20023G31KT 9SM FEW110 FEW170 41/10 A2978 RMK AO2 WSHFT 24 SLPNO $,M
05U,2024-08-17 20:30,-116.0051,39.6042,1811.23,M,M,M,150.00,24.00,0.00,30.06,M,10.00,M,SCT,SCT,M,M,9000.00,11000.00,M,M,M,M,M,M,M,M,M,M,K05U 172030Z AUTO 15024KT 10SM SCT090 SCT110 A3006 RMK A01,M
BVU,2024-08-17 20:35,-114.8611,35.9475,671.00,104.00,51.80,17.74,180.00,17.00,0.00,29.84,M,10.00,24.00,CLR,M,M,M,M,M,M,M,M,M,M,M,M,M,M,101.69,KBVU 172035Z AUTO 18017G24KT 10SM CLR 40/11 A2984 RMK AO2,M
CXP,2024-08-17 20:35,-119.7326,39.1923,1431.00,82.40,35.60,18.67,240.00,14.00,0.00,29.98,M,10.00,21.00,CLR,M,M,M,M,M,M,M,M,M,M,M,M,M,M,80.08,KCXP 172035Z AUTO 24014G21KT 10SM CLR 28/02 A2998 RMK AO2,M
INS,2024-08-17 20:35,-115.6733,36.5872,955.00,98.60,44.60,15.93,200.00,19.00,0.00,29.89,1005.90,10.00,29.00,SCT,SCT,M,M,10000.00,12000.00,M,M,M,M,M,M,M,M,M,94.55,KINS 172035Z AUTO 20019G29KT 10SM SCT100 SCT120 37/07 A2989 RMK AO2 WSHFT 20 SLP059 $,M
LSV,2024-08-17 20:35,-115.0343,36.2362,570.00,104.00,50.00,16.59,170.00,19.00,0.00,29.77,M,10.00,24.00,FEW,FEW,M,M,11000.00,17000.00,M,M,M,M,M,M,M,M,M,101.14,KLSV 172035Z AUTO 17019G24KT 10SM FEW110 FEW170 40/10 A2977 RMK AO2 WSHFT 26 SLPNO $,M
RTS,2024-08-17 20:35,-119.8764,39.6682,1539.00,80.60,32.00,17.14,230.00,22.00,0.00,30.00,M,10.00,30.00,CLR,M,M,M,M,M,M,M,M,M,M,M,M,M,M,78.82,KRTS 172035Z AUTO 23022G30KT 10SM CLR 27/00 A3000 RMK AO2,M
MEV,2024-08-17 20:35,-119.7500,38.9963,1441.42,84.20,32.00,15.25,190.00,17.00,0.00,29.98,M,10.00,29.00,CLR,M,M,M,M,M,M,M,M,M,M,M,M,M,M,81.28,KMEV 172035Z AUTO 19017G29KT 10SM CLR 29/M00 A2998 RMK AO2,M
BAM,2024-08-17 20:35,-116.8743,40.5990,1382.36,93.20,24.80,8.54,220.00,11.00,0.00,29.92,M,10.00,15.00,CLR,M,M,M,M,M,M,M,M,M,M,M,M,M,M,87.56,KBAM 172035Z AUTO 22011G15KT 10SM CLR 34/M04 A2992 RMK AO1,M
HTH,2024-08-17 20:35,-118.6315,38.5448,1282.89,91.40,23.00,8.38,10.00,7.00,0.00,29.88,M,10.00,M,CLR,M,M,M,M,M,M,M,M,M,M,M,M,M,M,86.08,KHTH 172035Z AUTO 01007KT 340V050 10SM CLR 33/M05 A2988 RMK A01,M
10U,2024-08-17 20:35,-116.1876,41.9532,1637.00,89.60,15.80,6.52,210.00,20.00,0.00,29.98,M,10.00,27.00,CLR,M,M,M,M,M,M,M,M,M,M,M,M,M,M,84.37,K10U 172035Z AUTO 21020G27KT 10SM CLR 32/M09 A2998 RMK AO2,M
TMT,2024-08-17 20:35,-117.1971,39.4643,1749.34,87.00,35.60,16.10,200.00,17.00,0.00,30.00,M,10.00,23.00,SCT,M,M,M,12000.00,M,M,M,M,M,M,M,M,M,M,83.48,KTMT 172035Z AUTO 20017G23KT 10SM SCT120 31/02 A3000 RMK AO2 T03060020,M
INS,2024-08-17 20:39,-115.6733,36.5872,955.00,98.60,44.60,15.93,160.00,15.00,0.00,29.89,1005.90,10.00,29.00,SCT,M,M,M,11000.00,M,M,M,M,M,M,M,M,M,M,94.55,KINS 172039Z AUTO 16015G29KT 10SM SCT110 37/07 A2989 RMK AO2 WSHFT 36 SLP059 $,M
05U,2024-08-17 20:50,-116.0051,39.6042,1811.23,M,M,M,160.00,16.00,0.00,30.06,M,10.00,23.00,FEW,FEW,M,M,9000.00,11000.00,M,M,M,M,M,M,M,M,M,M,K05U 172050Z AUTO 16016G23KT 10SM FEW090 FEW110 A3006 RMK A01,M
P68,2024-08-17 20:53,-116.0056,39.6014,1993.00,86.00,49.00,27.85,140.00,20.00,0.00,30.03,1008.40,M,31.00,M,M,M,M,M,M,M,M,M,M,M,M,35.00,160.00,2024-08-17 20:32,83.49,KP68 172053Z AUTO 14020G31KT 30/09 A3003 RMK AO1 PK WND 16035/2032 SLP084 T03000094 56018,M
DRA,2024-08-17 20:53,-116.0278,36.6206,1009.00,99.00,49.00,18.58,200.00,18.00,0.00,29.92,1007.00,10.00,32.00,CLR,M,M,M,M,M,M,M,M,M,M,M,36.00,210.00,2024-08-17 20:10,95.75,KDRA 172053Z AUTO 20018G32KT 10SM CLR 37/09 A2992 RMK AO2 PK WND 21036/2010 SLP070 T03720094 58013,M
ELY,2024-08-17 20:53,-114.8453,39.2950,1909.00,78.00,56.00,46.72,170.00,12.00,0.00,30.14,1011.00,10.00,26.00,SCT,M,M,M,7000.00,M,M,M,M,M,M,M,26.00,180.00,2024-08-17 20:49,78.00,KELY 172053Z AUTO 17012G26KT 10SM SCT070 26/13 A3014 RMK AO2 PK WND 18026/2049 SLP110 60000 T02560133 58027,M
VGT,2024-08-17 20:53,-115.1933,36.2111,667.00,106.00,52.00,16.84,170.00,24.00,0.00,29.82,1007.80,10.00,34.00,FEW,M,M,M,11000.00,M,M,M,M,M,M,M,34.00,170.00,2024-08-17 20:50,103.85,KVGT 172053Z 17024G34KT 10SM FEW110 41/11 A2982 RMK AO2 PK WND 17034/2050 SLP078 T04110111 56023,M
LOL,2024-08-17 20:53,-118.5701,40.0684,1192.43,90.00,28.00,10.78,240.00,14.00,0.00,29.88,1008.00,10.00,20.00,CLR,M,M,M,M,M,M,M,M,M,M,M,M,M,M,85.43,KLOL 172053Z AUTO 24014G20KT 10SM CLR 32/M02 A2988 RMK AO2 SLP080 T03221022 57020,M
BVU,2024-08-17 20:55,-114.8611,35.9475,671.00,105.80,50.00,15.73,180.00,21.00,0.00,29.83,M,10.00,29.00,FEW,M,M,M,10000.00,M,M,M,M,M,M,M,M,M,M,102.98,KBVU 172055Z AUTO 18021G29KT 10SM FEW100 41/10 A2983 RMK AO2,M
CXP,2024-08-17 20:55,-119.7326,39.1923,1431.00,82.40,35.60,18.67,230.00,10.00,0.00,29.99,M,10.00,25.00,CLR,M,M,M,M,M,M,M,M,M,M,M,M,M,M,80.08,KCXP 172055Z AUTO 23010G25KT 10SM CLR 28/02 A2999 RMK AO2,M
RNO,2024-08-17 20:55,-119.7711,39.4839,1341.00,87.00,33.00,14.52,210.00,16.00,0.00,29.94,1008.10,10.00,26.00,FEW,M,M,M,9000.00,M,M,M,M,M,M,M,32.00,240.00,2024-08-17 19:56,83.44,KRNO 172055Z 21016G26KT 10SM FEW090 31/01 A2994 RMK AO2 PK WND 24032/1956 SLP081 T03060006 55008,M
RTS,2024-08-17 20:55,-119.8764,39.6682,1539.00,82.40,32.00,16.17,230.00,15.00,0.00,30.00,M,10.00,27.00,CLR,M,M,M,M,M,M,M,M,M,M,M,M,M,M,80.00,KRTS 172055Z AUTO 23015G27KT 10SM CLR 28/00 A3000 RMK AO2,M
MEV,2024-08-17 20:55,-119.7500,38.9963,1441.42,84.20,32.00,15.25,190.00,15.00,0.00,29.98,M,10.00,23.00,CLR,M,M,M,M,M,M,M,M,M,M,M,M,M,M,81.28,KMEV 172055Z AUTO 19015G23KT 10SM CLR 29/00 A2998 RMK AO2,M
BAM,2024-08-17 20:55,-116.8743,40.5990,1382.36,93.20,24.80,8.54,220.00,10.00,0.00,29.91,M,10.00,15.00,CLR,M,M,M,M,M,M,M,M,M,M,M,M,M,M,87.56,KBAM 172055Z AUTO 22010G15KT 190V250 10SM CLR 34/M04 A2991 RMK AO1,M
HTH,2024-08-17 20:55,-118.6315,38.5448,1282.89,95.00,12.20,4.70,230.00,20.00,0.00,29.87,M,9.00,30.00,CLR,M,M,M,M,M,M,M,M,M,M,M,M,M,M,88.11,KHTH 172055Z AUTO 23020G30KT 9SM CLR 35/M11 A2987 RMK A01,M
10U,2024-08-17 20:55,-116.1876,41.9532,1637.00,89.60,12.20,5.57,210.00,24.00,0.00,29.97,M,10.00,30.00,CLR,M,M,M,M,M,M,M,M,M,M,M,M,M,M,84.23,K10U 172055Z AUTO 21024G30KT 10SM CLR 32/M11 A2997 RMK AO2,M
TMT,2024-08-17 20:55,-117.1971,39.4643,1749.34,90.00,35.00,14.30,220.00,19.00,0.00,30.00,M,10.00,25.00,SCT,M,M,M,12000.00,M,M,M,M,M,M,M,M,M,M,85.95,KTMT 172055Z AUTO 22019G25KT 10SM SCT120 32/02 A3000 RMK AO2 T03230016,M
INS,2024-08-17 20:55,-115.6733,36.5872,955.00,99.00,45.00,15.98,210.00,12.00,0.00,29.89,1005.90,10.00,18.00,CLR,M,M,M,M,M,M,M,M,M,M,M,30.00,210.00,2024-08-17 20:00,95.00,KINS 172055Z AUTO 21012G18KT 10SM CLR 37/07 A2989 RMK AO2 PK WND 21030/00 SLP059 T03730072 57023 $,M
LSV,2024-08-17 20:55,-115.0343,36.2362,570.00,106.00,48.70,14.90,170.00,21.00,0.00,29.76,M,10.00,28.00,FEW,FEW,M,M,11000.00,20000.00,M,M,M,M,M,M,31.00,220.00,2024-08-17 20:24,102.79,KLSV 172055Z AUTO 17021G28KT 10SM FEW110 FEW200 41/09 A2976 RMK AO2 PK WND 22031/24 SLPNO T04110093 57023 $,M
EKO,2024-08-17 20:56,-115.7860,40.8242,1367.00,92.00,39.00,15.73,200.00,13.00,0.00,29.95,1008.00,10.00,27.00,FEW,M,M,M,12000.00,M,M,M,M,M,M,M,31.00,210.00,2024-08-17 20:17,87.83,KEKO 172056Z AUTO 20013G27KT 10SM FEW120 33/04 A2995 RMK AO2 PK WND 21031/2017 SLP080 T03330039 56018,M
WMC,2024-08-17 20:56,-117.8072,40.9019,1315.00,91.00,26.00,9.62,M,6.00,0.00,29.89,1007.40,10.00,17.00,CLR,M,M,M,M,M,M,M,M,M,M,M,M,M,M,86.01,KWMC 172056Z AUTO VRB06G17KT 10SM CLR 33/M03 A2989 RMK AO2 SLP074 T03281033 58023,M
HND,2024-08-17 20:56,-115.1344,35.9729,742.79,104.00,55.00,19.95,180.00,20.00,0.00,29.88,1009.30,10.00,27.00,CLR,M,M,M,M,M,M,M,M,M,M,M,29.00,200.00,2024-08-17 20:20,102.85,KHND 172056Z 18020G27KT 10SM CLR 40/13 A2988 RMK AO2 PK WND 20029/2020 SLP093 T04000128 56017,M
TPH,2024-08-17 20:56,-117.0904,38.0505,1654.00,90.00,39.00,16.74,180.00,23.00,0.00,30.03,1008.50,10.00,38.00,CLR,M,M,M,M,M,M,M,M,M,M,M,39.00,180.00,2024-08-17 20:39,86.07,KTPH 172056Z AUTO 18023G38KT 10SM CLR 32/04 A3003 RMK AO2 PK WND 18039/2039 SLP085 T03220039 58012,M
LAS,2024-08-17 20:56,-115.1634,36.0719,663.00,107.00,51.00,15.76,190.00,16.00,0.00,29.84,1007.00,10.00,25.00,SCT,SCT,M,M,10000.00,20000.00,M,M,M,M,M,M,32.00,200.00,2024-08-17 20:36,104.53,KLAS 172056Z 19016G25KT 10SM SCT100 SCT200 42/11 A2984 RMK AO2 PK WND 20032/2036 SLP070 CB DSNT NE ACC DSNT E T04170106 58020,M
NFL,2024-08-17 20:57,-118.7010,39.4166,1199.00,91.00,30.00,11.33,M,5.00,0.00,29.87,1009.10,10.00,M,FEW,M,M,M,8000.00,M,M,M,M,M,M,M,M,M,M,86.38,KNFL 172057Z VRB05KT 10SM FEW080 33/M01 A2987 RMK AO2 SLP091 T03281011 58022,M
INS,2024-08-17 21:04,-115.6733,36.5872,955.00,100.40,44.60,15.08,170.00,15.00,0.00,29.88,1005.40,10.00,22.00,FEW,M,M,M,11000.00,M,M,M,M,M,M,M,M,M,M,96.31,KINS 172104Z AUTO 17015G22KT 10SM FEW110 38/07 A2988 RMK AO2 WSHFT 2058 SLP054 $,M
05U,2024-08-17 21:10,-116.0051,39.6042,1811.23,M,M,M,150.00,18.00,0.00,30.05,M,10.00,M,SCT,M,M,M,9000.00,M,M,M,M,M,M,M,M,M,M,M,K05U 172110Z AUTO 15018KT 10SM SCT090 A3005 RMK A01,M
RTS,2024-08-17 21:15,-119.8764,39.6682,1539.00,80.60,32.00,17.14,240.00,21.00,0.00,30.00,M,10.00,30.00,CLR,M,M,M,M,M,M,M,M,M,M,M,M,M,M,78.82,KRTS 172115Z AUTO 24021G30KT 10SM CLR 27/M00 A3000 RMK AO2,M
MEV,2024-08-17 21:15,-119.7500,38.9963,1441.42,84.20,30.20,14.18,180.00,16.00,0.00,29.98,M,10.00,23.00,CLR,M,M,M,M,M,M,M,M,M,M,M,M,M,M,81.26,KMEV 172115Z AUTO 18016G23KT 10SM CLR 29/M01 A2998 RMK AO2,M
BAM,2024-08-17 21:15,-116.8743,40.5990,1382.36,93.20,23.00,7.92,230.00,6.00,0.00,29.90,M,10.00,15.00,CLR,M,M,M,M,M,M,M,M,M,M,M,M,M,M,87.42,KBAM 172115Z AUTO 23006G15KT 10SM CLR 34/M05 A2990 RMK AO1,M
HTH,2024-08-17 21:15,-118.6315,38.5448,1282.89,95.00,12.20,4.70,220.00,23.00,0.00,29.86,M,10.00,33.00,CLR,M,M,M,M,M,M,M,M,M,M,M,M,M,M,88.11,KHTH 172115Z AUTO 22023G33KT 10SM CLR 35/M11 A2986 RMK A01,M
10U,2024-08-17 21:15,-116.1876,41.9532,1637.00,89.60,14.00,6.03,210.00,15.00,0.00,29.97,M,10.00,28.00,CLR,M,M,M,M,M,M,M,M,M,M,M,M,M,M,84.30,K10U 172115Z AUTO 21015G28KT 10SM CLR 32/M10 A2997 RMK AO2,M
TMT,2024-08-17 21:15,-117.1971,39.4643,1749.34,90.00,33.00,13.20,230.00,21.00,0.00,29.99,M,10.00,33.00,CLR,M,M,M,M,M,M,M,M,M,M,M,M,M,M,85.92,KTMT 172115Z AUTO 23021G33KT 10SM CLR 32/01 A2999 RMK AO2 T03220005,M
BVU,2024-08-17 21:15,-114.8611,35.9475,671.00,105.80,50.00,15.73,190.00,19.00,0.00,29.82,M,10.00,30.00,CLR,M,M,M,M,M,M,M,M,M,M,M,M,M,M,102.98,KBVU 172115Z AUTO 19019G30KT 10SM CLR 41/10 A2982 RMK AO2,M
CXP,2024-08-17 21:15,-119.7326,39.1923,1431.00,82.40,35.60,18.67,250.00,14.00,0.00,29.99,M,9.00,24.00,CLR,M,M,M,M,M,M,M,M,M,M,M,M,M,M,80.08,KCXP 172115Z AUTO 25014G24KT 220V280 9SM CLR 28/02 A2999 RMK AO2,M
LSV,2024-08-17 21:18,-115.0343,36.2362,570.00,107.60,48.20,13.95,230.00,16.00,0.00,29.76,M,10.00,25.00,CLR,M,M,M,M,M,M,M,M,M,M,M,M,M,M,104.23,KLSV 172118Z AUTO 23016G25KT 10SM CLR 42/09 A2976 RMK AO2 WSHFT 08 SLPNO $,M
INS,2024-08-17 21:24,-115.6733,36.5872,955.00,100.40,46.40,16.15,200.00,11.00,0.00,29.88,1005.40,10.00,18.00,FEW,M,M,M,11000.00,M,M,M,M,M,M,M,M,M,M,96.63,KINS 172124Z AUTO 20011G18KT 10SM FEW110 38/08 A2988 RMK AO2 WSHFT 16 SLP054 $,M
05U,2024-08-17 21:30,-116.0051,39.6042,1811.23,M,M,M,170.00,19.00,0.00,30.04,M,10.00,28.00,FEW,M,M,M,9000.00,M,M,M,M,M,M,M,M,M,M,M,K05U 172130Z AUTO 17019G28KT 10SM FEW090 A3004 RMK A01,M
INS,2024-08-17 21:32,-115.6733,36.5872,955.00,100.40,46.40,16.15,190.00,13.00,0.00,29.88,1005.40,10.00,24.00,CLR,M,M,M,M,M,M,M,M,M,M,M,M,M,M,96.63,KINS 172132Z AUTO 19013G24KT 10SM CLR 38/08 A2988 RMK AO2 WSHFT 29 SLP054 $,M
BVU,2024-08-17 21:35,-114.8611,35.9475,671.00,105.80,50.00,15.73,180.00,18.00,0.00,29.82,M,10.00,30.00,CLR,M,M,M,M,M,M,M,M,M,M,M,M,M,M,102.98,KBVU 172135Z AUTO 18018G30KT 10SM CLR 41/10 A2982 RMK AO2,M
CXP,2024-08-17 21:35,-119.7326,39.1923,1431.00,82.40,37.40,20.04,250.00,14.00,0.00,29.98,M,10.00,21.00,CLR,M,M,M,M,M,M,M,M,M,M,M,M,M,M,80.14,KCXP 172135Z AUTO 25014G21KT 10SM CLR 28/03 A2998 RMK AO2,M
RTS,2024-08-17 21:35,-119.8764,39.6682,1539.00,80.60,28.40,14.81,220.00,25.00,0.00,29.99,M,10.00,31.00,CLR,M,M,M,M,M,M,M,M,M,M,M,M,M,M,78.72,KRTS 172135Z AUTO 22025G31KT 10SM CLR 27/M02 A2999 RMK AO2,M
MEV,2024-08-17 21:35,-119.7500,38.9963,1441.42,84.20,32.00,15.25,180.00,16.00,0.00,29.97,M,10.00,30.00,CLR,M,M,M,M,M,M,M,M,M,M,M,M,M,M,81.28,KMEV 172135Z AUTO 18016G30KT 10SM CLR 29/M00 A2997 RMK AO2,M
BAM,2024-08-17 21:35,-116.8743,40.5990,1382.36,95.00,24.80,8.08,240.00,6.00,0.00,29.89,M,10.00,M,CLR,M,M,M,M,M,M,M,M,M,M,M,M,M,M,88.91,KBAM 172135Z AUTO 24006KT 10SM CLR 35/M04 A2989 RMK AO1,M
HTH,2024-08-17 21:35,-118.6315,38.5448,1282.89,96.80,10.40,4.11,220.00,20.00,0.00,29.86,M,10.00,38.00,CLR,M,M,M,M,M,M,M,M,M,M,M,M,M,M,89.54,KHTH 172135Z AUTO 22020G38KT 10SM CLR 36/M12 A2986 RMK A01,M
10U,2024-08-17 21:35,-116.1876,41.9532,1637.00,89.60,12.20,5.57,190.00,16.00,0.00,29.97,M,10.00,22.00,CLR,M,M,M,M,M,M,M,M,M,M,M,M,M,M,84.23,K10U 172135Z AUTO 19016G22KT 10SM CLR 32/M11 A2997 RMK AO2,M
TMT,2024-08-17 21:35,-117.1971,39.4643,1749.34,90.00,35.80,14.76,240.00,21.00,0.00,29.98,M,10.00,29.00,CLR,M,M,M,M,M,M,M,M,M,M,M,M,M,M,85.97,KTMT 172135Z AUTO 24021G29KT 10SM CLR 32/02 A2998 RMK AO2 T03230021,M
INS,2024-08-17 21:40,-115.6733,36.5872,955.00,100.40,44.60,15.08,140.00,17.00,0.00,29.87,1005.10,10.00,30.00,CLR,M,M,M,M,M,M,M,M,M,M,M,M,M,M,96.31,KINS 172140Z AUTO 14017G30KT 10SM CLR 38/07 A2987 RMK AO2 WSHFT 36 SLP051 $,M
05U,2024-08-17 21:50,-116.0051,39.6042,1811.23,M,M,M,180.00,25.00,0.00,30.04,M,10.00,31.00,FEW,M,M,M,9000.00,M,M,M,M,M,M,M,M,M,M,M,K05U 172150Z AUTO 18025G31KT 10SM FEW090 A3004 RMK A01,M
P68,2024-08-17 21:53,-116.0056,39.6014,1993.00,83.00,48.00,29.54,170.00,23.00,0.00,30.01,1008.40,M,40.00,M,M,M,M,M,M,M,M,M,M,M,M,40.00,180.00,2024-08-17 21:49,81.18,KP68 172153Z AUTO 17023G40KT 28/09 A3001 RMK AO1 PK WND 18040/2149 SLP084 T02830089,M
DRA,2024-08-17 21:53,-116.0278,36.6206,1009.00,98.00,47.00,17.77,220.00,15.00,0.00,29.91,1006.60,10.00,31.00,CLR,M,M,M,M,M,M,M,M,M,M,M,38.00,210.00,2024-08-17 21:24,94.34,KDRA 172153Z AUTO 22015G31KT 10SM CLR 37/08 A2991 RMK AO2 PK WND 21038/2124 SLP066 T03670083,M
ELY,2024-08-17 21:53,-114.8453,39.2950,1909.00,81.00,52.00,36.58,190.00,23.00,0.00,30.12,1009.80,10.00,34.00,CLR,M,M,M,M,M,M,M,M,M,M,M,40.00,170.00,2024-08-17 20:56,80.34,KELY 172153Z AUTO 19023G34KT 10SM CLR 27/11 A3012 RMK AO2 PK WND 17040/2056 SLP098 T02720111,M
VGT,2024-08-17 21:53,-115.1933,36.2111,667.00,105.00,52.00,17.35,180.00,21.00,0.00,29.79,1006.80,10.00,29.00,CLR,M,M,M,M,M,M,M,M,M,M,M,34.00,170.00,2024-08-17 21:24,102.81,KVGT 172153Z 18021G29KT 10SM CLR 41/11 A2979 RMK AO2 PK WND 17034/2124 SLP068 T04060111,M
LOL,2024-08-17 21:53,-118.5701,40.0684,1192.43,91.00,27.00,10.02,240.00,9.00,0.00,29.86,1006.90,10.00,M,CLR,M,M,M,M,M,M,M,M,M,M,M,M,M,M,86.10,KLOL 172153Z AUTO 24009KT 10SM CLR 33/M03 A2986 RMK AO2 SLP069 T03281028,M
BVU,2024-08-17 21:55,-114.8611,35.9475,671.00,105.80,48.20,14.71,200.00,22.00,0.00,29.81,M,10.00,31.00,CLR,M,M,M,M,M,M,M,M,M,M,M,M,M,M,102.45,KBVU 172155Z AUTO 20022G31KT 10SM CLR 41/09 A2981 RMK AO2,M
CXP,2024-08-17 21:55,-119.7326,39.1923,1431.00,80.60,35.60,19.79,250.00,14.00,0.00,29.98,M,10.00,25.00,FEW,M,M,M,10000.00,M,M,M,M,M,M,M,M,M,M,78.94,KCXP 172155Z AUTO 25014G25KT 220V280 10SM FEW100 27/02 A2998 RMK AO2,M
RNO,2024-08-17 21:55,-119.7711,39.4839,1341.00,86.00,31.00,13.83,220.00,20.00,0.00,29.94,1008.10,10.00,34.00,FEW,M,M,M,9000.00,M,M,M,M,M,M,M,35.00,230.00,2024-08-17 21:36,82.64,KRNO 172155Z 22020G34KT 10SM FEW090 30/M01 A2994 RMK AO2 PK WND 23035/2136 SLP081 T03001006,M
RTS,2024-08-17 21:55,-119.8764,39.6682,1539.00,80.60,32.00,17.14,220.00,23.00,0.00,30.00,M,10.00,30.00,CLR,M,M,M,M,M,M,M,M,M,M,M,M,M,M,78.82,KRTS 172155Z AUTO 22023G30KT 10SM CLR 27/M00 A3000 RMK AO2,M
MEV,2024-08-17 21:55,-119.7500,38.9963,1441.42,84.20,30.20,14.18,190.00,19.00,0.00,29.97,M,10.00,26.00,CLR,M,M,M,M,M,M,M,M,M,M,M,M,M,M,81.26,KMEV 172155Z AUTO 19019G26KT 10SM CLR 29/M01 A2997 RMK AO2,M
BAM,2024-08-17 21:55,-116.8743,40.5990,1382.36,93.20,23.00,7.92,270.00,7.00,0.00,29.88,M,10.00,M,CLR,M,M,M,M,M,M,M,M,M,M,M,M,M,M,87.42,KBAM 172155Z AUTO 27007KT 10SM CLR 34/M05 A2988 RMK AO1,M
HTH,2024-08-17 21:55,-118.6315,38.5448,1282.89,96.80,8.60,3.79,200.00,25.00,0.00,29.85,M,10.00,32.00,CLR,M,M,M,M,M,M,M,M,M,M,M,M,M,M,89.47,KHTH 172155Z AUTO 20025G32KT 10SM CLR 36/M13 A2985 RMK A01,M
10U,2024-08-17 21:55,-116.1876,41.9532,1637.00,89.60,14.00,6.03,200.00,17.00,0.00,29.97,M,10.00,25.00,CLR,M,M,M,M,M,M,M,M,M,M,M,M,M,M,84.30,K10U 172155Z AUTO 20017G25KT 10SM CLR 32/M10 A2997 RMK AO2,M
TMT,2024-08-17 21:55,-117.1971,39.4643,1749.34,89.40,37.40,16.02,210.00,22.00,0.00,29.98,M,10.00,27.00,SCT,M,M,M,12000.00,M,M,M,M,M,M,M,M,M,M,85.50,KTMT 172155Z AUTO 21022G27KT 10SM SCT120 32/03 A2998 RMK AO2 T03190030,M
INS,2024-08-17 21:55,-115.6733,36.5872,955.00,99.70,43.70,14.89,180.00,7.00,0.00,29.87,1005.10,10.00,19.00,CLR,M,M,M,M,M,M,M,M,M,M,M,30.00,140.00,2024-08-17 21:40,95.49,KINS 172155Z AUTO 18007G19KT 10SM CLR 38/07 A2987 RMK AO2 PK WND 14030/40 SLP051 T03760065 $,M
LSV,2024-08-17 21:55,-115.0343,36.2362,570.00,107.00,45.70,12.92,220.00,20.00,0.00,29.74,M,10.00,M,CLR,M,M,M,M,M,M,M,M,M,M,M,28.00,160.00,2024-08-17 20:55,102.95,KLSV 172155Z AUTO 22020KT 10SM CLR 42/08 A2974 RMK AO2 PK WND 16028/2055 SLPNO T04170076 $,M
EKO,2024-08-17 21:56,-115.7860,40.8242,1367.00,92.00,43.00,18.36,210.00,15.00,0.00,29.93,1007.10,10.00,21.00,SCT,M,M,M,10000.00,M,M,M,M,M,M,M,M,M,M,88.08,KEKO 172156Z AUTO 21015G21KT 10SM SCT100 33/06 A2993 RMK AO2 LTG DSNT S SLP071 T03330061,M
WMC,2024-08-17 21:56,-117.8072,40.9019,1315.00,94.00,21.00,7.10,190.00,13.00,0.00,29.87,1006.80,10.00,23.00,CLR,M,M,M,M,M,M,M,M,M,M,M,30.00,180.00,2024-08-17 21:29,87.87,KWMC 172156Z AUTO 19013G23KT 10SM CLR 34/M06 A2987 RMK AO2 PK WND 18030/2129 SLP068 T03441061,M
HND,2024-08-17 21:56,-115.1344,35.9729,742.79,105.00,54.00,18.67,200.00,22.00,0.00,29.85,1008.40,10.00,26.00,FEW,M,M,M,11000.00,M,M,M,M,M,M,M,28.00,210.00,2024-08-17 21:44,103.53,KHND 172156Z 20022G26KT 10SM FEW110 41/12 A2985 RMK AO2 PK WND 21028/2144 SLP084 T04060122,M
TPH,2024-08-17 21:56,-117.0904,38.0505,1654.00,90.00,38.00,16.10,170.00,23.00,0.00,30.02,1008.40,10.00,32.00,CLR,M,M,M,M,M,M,M,M,M,M,M,39.00,170.00,2024-08-17 21:13,86.03,KTPH 172156Z AUTO 17023G32KT 10SM CLR 32/03 A3002 RMK AO2 PK WND 17039/2113 SLP084 T03220033,M
LAS,2024-08-17 21:56,-115.1634,36.0719,663.00,105.00,51.00,16.72,170.00,12.00,0.00,29.82,1006.30,10.00,27.00,SCT,SCT,M,M,10000.00,20000.00,M,M,M,M,M,M,29.00,190.00,2024-08-17 21:44,102.47,KLAS 172156Z 17012G27KT 10SM SCT100 SCT200 41/11 A2982 RMK AO2 PK WND 19029/2144 SLP063 CB DSNT NE ACC DSNT E T04060106,M
NFL,2024-08-17 21:57,-118.7010,39.4166,1199.00,93.00,26.00,9.04,220.00,10.00,0.00,29.85,1008.30,10.00,18.00,FEW,M,M,M,8000.00,M,M,M,M,M,M,M,M,M,M,87.51,KNFL 172157Z 22010G18KT 10SM FEW080 34/M03 A2985 RMK AO2 SLP083 T03391033,M
05U,2024-08-17 22:10,-116.0051,39.6042,1811.23,M,M,M,160.00,21.00,0.00,30.04,M,10.00,28.00,CLR,M,M,M,M,M,M,M,M,M,M,M,M,M,M,M,K05U 172210Z AUTO 16021G28KT 10SM CLR A3004 RMK A01,M
BVU,2024-08-17 22:15,-114.8611,35.9475,671.00,105.80,48.20,14.71,190.00,20.00,0.00,29.80,M,10.00,31.00,CLR,M,M,M,M,M,M,M,M,M,M,M,M,M,M,102.45,KBVU 172215Z AUTO 19020G31KT 10SM CLR 41/09 A2980 RMK AO2,M
CXP,2024-08-17 22:15,-119.7326,39.1923,1431.00,80.60,37.40,21.25,240.00,11.00,0.00,29.98,M,10.00,23.00,FEW,M,M,M,10000.00,M,M,M,M,M,M,M,M,M,M,79.02,KCXP 172215Z AUTO 24011G23KT 10SM FEW100 27/03 A2998 RMK AO2,M
RTS,2024-08-17 22:15,-119.8764,39.6682,1539.00,78.80,33.80,19.55,200.00,22.00,0.00,30.00,M,10.00,30.00,CLR,M,M,M,M,M,M,M,M,M,M,M,M,M,M,78.80,KRTS 172215Z AUTO 20022G30KT 170V230 10SM CLR 26/01 A3000 RMK AO2,M
MEV,2024-08-17 22:15,-119.7500,38.9963,1441.42,84.20,32.00,15.25,180.00,16.00,0.00,29.97,M,10.00,24.00,CLR,M,M,M,M,M,M,M,M,M,M,M,M,M,M,81.28,KMEV 172215Z AUTO 18016G24KT 10SM CLR 29/M00 A2997 RMK AO2,M
BAM,2024-08-17 22:15,-116.8743,40.5990,1382.36,95.00,24.80,8.08,290.00,4.00,0.00,29.88,M,10.00,M,CLR,M,M,M,M,M,M,M,M,M,M,M,M,M,M,88.91,KBAM 172215Z AUTO 29004KT 10SM CLR 35/M04 A2988 RMK AO1,M
HTH,2024-08-17 22:15,-118.6315,38.5448,1282.89,95.00,5.00,3.40,220.00,29.00,0.00,29.85,M,10.00,M,CLR,M,M,M,M,M,M,M,M,M,M,M,M,M,M,87.86,KHTH 172215Z AUTO 22029KT 10SM CLR 35/M15 A2985 RMK A01,M
TMT,2024-08-17 22:15,-117.1971,39.4643,1749.34,91.00,35.40,14.08,200.00,24.00,0.00,29.97,M,10.00,30.00,SCT,M,M,M,12000.00,M,M,M,M,M,M,M,M,M,M,86.82,KTMT 172215Z AUTO 20024G30KT 10SM SCT120 33/02 A2997 RMK AO2 T03280019,M
10U,2024-08-17 22:15,-116.1876,41.9532,1637.00,89.60,14.00,6.03,210.00,19.00,0.00,29.96,M,10.00,M,CLR,M,M,M,M,M,M,M,M,M,M,M,M,M,M,84.30,K10U 172215Z AUTO 21019KT 190V250 10SM CLR 32/M10 A2996 RMK AO2,M
MEV,2024-08-17 22:25,-119.7500,38.9963,1441.42,84.20,32.00,15.25,190.00,19.00,0.00,29.97,M,10.00,27.00,CLR,M,M,M,M,M,M,M,M,M,M,M,M,M,M,81.28,KMEV 172225Z AUTO 19019G27KT 10SM CLR 29/M00 A2997 RMK AO2,M
05U,2024-08-17 22:30,-116.0051,39.6042,1811.23,M,M,M,130.00,16.00,0.00,30.03,M,10.00,21.00,CLR,M,M,M,M,M,M,M,M,M,M,M,M,M,M,M,K05U 172230Z AUTO 13016G21KT 10SM CLR A3003 RMK A01,M
BAM,2024-08-17 22:35,-116.8743,40.5990,1382.36,95.00,24.80,8.08,200.00,6.00,0.00,29.87,M,10.00,M,CLR,M,M,M,M,M,M,M,M,M,M,M,M,M,M,88.91,KBAM 172235Z AUTO 20006KT 10SM CLR 35/M04 A2987 RMK AO1,M
HTH,2024-08-17 22:35,-118.6315,38.5448,1282.89,95.00,8.60,4.01,230.00,21.00,0.00,29.84,M,10.00,31.00,CLR,M,M,M,M,M,M,M,M,M,M,M,M,M,M,87.97,KHTH 172235Z AUTO 23021G31KT 10SM CLR 35/M13 A2984 RMK A01,M
10U,2024-08-17 22:35,-116.1876,41.9532,1637.00,89.60,14.00,6.03,230.00,12.00,0.00,29.95,M,10.00,19.00,CLR,M,M,M,M,M,M,M,M,M,M,M,M,M,M,84.30,K10U 172235Z AUTO 23012G19KT 10SM CLR 32/M10 A2995 RMK AO2,M
TMT,2024-08-17 22:35,-117.1971,39.4643,1749.34,90.00,33.80,13.63,220.00,21.00,0.00,29.97,M,10.00,26.00,SCT,M,M,M,12000.00,M,M,M,M,M,M,M,M,M,M,85.93,KTMT 172235Z AUTO 22021G26KT 10SM SCT120 32/01 A2997 RMK AO2 T03230010,M
BVU,2024-08-17 22:35,-114.8611,35.9475,671.00,105.80,48.20,14.71,180.00,26.00,0.00,29.79,M,10.00,32.00,CLR,M,M,M,M,M,M,M,M,M,M,M,M,M,M,102.45,KBVU 172235Z AUTO 18026G32KT 10SM CLR 41/09 A2979 RMK AO2,M
CXP,2024-08-17 22:35,-119.7326,39.1923,1431.00,80.60,37.40,21.25,250.00,15.00,0.00,29.98,M,10.00,25.00,CLR,M,M,M,M,M,M,M,M,M,M,M,M,M,M,79.02,KCXP 172235Z AUTO 25015G25KT 10SM CLR 27/03 A2998 RMK AO2,M
RTS,2024-08-17 22:35,-119.8764,39.6682,1539.00,78.80,35.60,21.00,230.00,17.00,0.00,30.01,M,10.00,25.00,CLR,M,M,M,M,M,M,M,M,M,M,M,M,M,M,78.80,KRTS 172235Z AUTO 23017G25KT 10SM CLR 26/02 A3001 RMK AO2,M
INS,2024-08-17 22:39,-115.6733,36.5872,955.00,100.40,44.60,15.08,220.00,15.00,0.00,29.85,1004.40,10.00,M,CLR,M,M,M,M,M,M,M,M,M,M,M,M,M,M,96.31,KINS 172239Z AUTO 22015KT 10SM CLR 38/07 A2985 RMK AO2 WSHFT 36 SLP044 $,M
INS,2024-08-17 22:44,-115.6733,36.5872,955.00,100.40,44.60,15.08,160.00,14.00,0.00,29.85,1004.40,10.00,M,CLR,M,M,M,M,M,M,M,M,M,M,M,M,M,M,96.31,KINS 172244Z AUTO 16014KT 10SM CLR 38/07 A2985 RMK AO2 WSHFT 42 SLP044 $,M
05U,2024-08-17 22:50,-116.0051,39.6042,1811.23,M,M,M,140.00,16.00,0.00,30.02,M,10.00,23.00,FEW,M,M,M,9500.00,M,M,M,M,M,M,M,M,M,M,M,K05U 172250Z AUTO 14016G23KT 10SM FEW095 A3002 RMK A01,M
P68,2024-08-17 22:53,-116.0056,39.6014,1993.00,87.00,49.00,26.97,170.00,18.00,0.00,29.98,1006.30,M,27.00,M,M,M,M,M,M,M,M,M,M,M,M,34.00,180.00,2024-08-17 22:12,84.30,KP68 172253Z AUTO 17018G27KT 31/09 A2998 RMK AO1 PK WND 18034/2212 SLP063 T03060094,M
DRA,2024-08-17 22:53,-116.0278,36.6206,1009.00,100.00,46.00,16.10,220.00,21.00,0.00,29.89,1006.00,10.00,27.00,CLR,M,M,M,M,M,M,M,M,M,M,M,32.00,220.00,2024-08-17 22:11,96.16,KDRA 172253Z AUTO 22021G27KT 10SM CLR 38/08 A2989 RMK AO2 PK WND 22032/2211 SLP060 T03780078,M
ELY,2024-08-17 22:53,-114.8453,39.2950,1909.00,82.00,53.00,36.74,180.00,19.00,0.00,30.09,1008.50,10.00,31.00,BKN,M,M,M,7500.00,M,M,M,M,M,M,M,31.00,170.00,2024-08-17 22:51,81.10,KELY 172253Z AUTO 18019G31KT 10SM BKN075 28/12 A3009 RMK AO2 PK WND 17031/2251 SLP085 T02780117,M
VGT,2024-08-17 22:53,-115.1933,36.2111,667.00,106.00,51.00,16.23,190.00,16.00,0.00,29.77,1006.30,10.00,27.00,FEW,M,M,M,11000.00,M,M,M,M,M,M,M,30.00,190.00,2024-08-17 22:09,103.51,KVGT 172253Z 19016G27KT 10SM FEW110 41/11 A2977 RMK AO2 PK WND 19030/2209 SLP063 T04110106,M
LOL,2024-08-17 22:53,-118.5701,40.0684,1192.43,92.00,26.00,9.32,230.00,21.00,0.00,29.83,1006.00,10.00,31.00,CLR,M,M,M,M,M,M,M,M,M,M,M,31.00,220.00,2024-08-17 22:52,86.76,KLOL 172253Z AUTO 23021G31KT 10SM CLR 33/M03 A2983 RMK AO2 PK WND 22031/2252 SLP060 T03331033,M
NFL,2024-08-17 22:54,-118.7010,39.4166,1199.00,95.00,23.00,7.49,240.00,13.00,0.00,29.83,M,10.00,21.00,FEW,M,M,M,8000.00,M,M,M,M,M,M,M,M,M,M,88.76,KNFL 172254Z 24013G21KT 10SM FEW080 35/M05 A2983 RMK AO2 WSHFT 2234,M
TMT,2024-08-17 22:55,-117.1971,39.4643,1749.34,89.80,32.00,12.76,230.00,20.00,0.00,29.97,M,10.00,30.00,CLR,M,M,M,M,M,M,M,M,M,M,M,M,M,M,85.69,KTMT 172255Z AUTO 23020G30KT 10SM CLR 32/00 A2997 RMK AO2 T03210000,M
BVU,2024-08-17 22:55,-114.8611,35.9475,671.00,105.80,50.00,15.73,180.00,23.00,0.00,29.79,M,10.00,29.00,CLR,M,M,M,M,M,M,M,M,M,M,M,M,M,M,102.98,KBVU 172255Z AUTO 18023G29KT 10SM CLR 41/10 A2979 RMK AO2,M
CXP,2024-08-17 22:55,-119.7326,39.1923,1431.00,78.80,37.40,22.54,240.00,14.00,0.00,29.98,M,10.00,25.00,CLR,M,M,M,M,M,M,M,M,M,M,M,M,M,M,78.80,KCXP 172255Z AUTO 24014G25KT 10SM CLR 26/03 A2998 RMK AO2,M
RNO,2024-08-17 22:55,-119.7711,39.4839,1341.00,85.00,34.00,16.11,220.00,22.00,0.00,29.94,1008.50,10.00,28.00,FEW,M,M,M,9000.00,M,M,M,M,M,M,M,35.00,210.00,2024-08-17 22:26,81.90,KRNO 172255Z 22022G28KT 10SM FEW090 29/01 A2994 RMK AO2 PK WND 21035/2226 SLP085 T02940011,M
RTS,2024-08-17 22:55,-119.8764,39.6682,1539.00,78.80,33.80,19.55,230.00,16.00,0.00,30.01,M,10.00,26.00,FEW,M,M,M,8500.00,M,M,M,M,M,M,M,M,M,M,78.80,KRTS 172255Z AUTO 23016G26KT 10SM FEW085 26/01 A3001 RMK AO2,M
MEV,2024-08-17 22:55,-119.7500,38.9963,1441.42,82.40,32.00,16.17,210.00,16.00,0.00,29.97,M,10.00,26.00,CLR,M,M,M,M,M,M,M,M,M,M,M,M,M,M,80.00,KMEV 172255Z AUTO 21016G26KT 10SM CLR 28/00 A2997 RMK AO2,M
BAM,2024-08-17 22:55,-116.8743,40.5990,1382.36,95.00,26.60,8.71,270.00,7.00,0.00,29.86,M,10.00,M,CLR,M,M,M,M,M,M,M,M,M,M,M,M,M,M,89.08,KBAM 172255Z AUTO 27007KT 250V330 10SM CLR 35/M03 A2986 RMK AO1,M
HTH,2024-08-17 22:55,-118.6315,38.5448,1282.89,95.00,6.80,3.69,220.00,26.00,0.00,29.83,M,10.00,34.00,CLR,M,M,M,M,M,M,M,M,M,M,M,M,M,M,87.91,KHTH 172255Z AUTO 22026G34KT 10SM CLR 35/M14 A2983 RMK A01,M
10U,2024-08-17 22:55,-116.1876,41.9532,1637.00,89.60,14.00,6.03,230.00,10.00,0.00,29.95,M,10.00,20.00,CLR,M,M,M,M,M,M,M,M,M,M,M,M,M,M,84.30,K10U 172255Z AUTO 23010G20KT 10SM CLR 32/M10 A2995 RMK AO2,M
INS,2024-08-17 22:55,-115.6733,36.5872,955.00,101.50,43.30,13.89,210.00,15.00,0.00,29.85,1004.30,10.00,26.00,CLR,M,M,M,M,M,M,M,M,M,M,M,31.00,230.00,2024-08-17 22:25,97.17,KINS 172255Z AUTO 21015G26KT 10SM CLR 39/06 A2985 RMK AO2 PK WND 23031/25 SLP043 T03860063 $,M
LSV,2024-08-17 22:55,-115.0343,36.2362,570.00,107.20,43.70,11.90,220.00,18.00,0.00,29.72,M,10.00,28.00,CLR,M,M,M,M,M,M,M,M,M,M,M,29.00,210.00,2024-08-17 22:45,102.52,KLSV 172255Z AUTO 22018G28KT 10SM CLR 42/07 A2972 RMK AO2 PK WND 21029/45 SLPNO T04180065 $,M
EKO,2024-08-17 22:56,-115.7860,40.8242,1367.00,90.00,46.00,21.91,170.00,20.00,0.00,29.91,1007.30,10.00,29.00,CLR,M,M,M,M,M,M,M,M,M,M,M,32.00,170.00,2024-08-17 22:21,86.55,KEKO 172256Z AUTO 17020G29KT 10SM CLR 32/08 A2991 RMK AO2 PK WND 17032/2221 LTG DSNT ALQDS SLP073 T03220078,M
WMC,2024-08-17 22:56,-117.8072,40.9019,1315.00,94.00,22.00,7.41,240.00,15.00,0.00,29.85,1006.10,10.00,24.00,CLR,M,M,M,M,M,M,M,M,M,M,M,33.00,240.00,2024-08-17 22:22,87.94,KWMC 172256Z AUTO 24015G24KT 10SM CLR 34/M06 A2985 RMK AO2 PK WND 24033/2222 SLP061 T03441056,M
HND,2024-08-17 22:56,-115.1344,35.9729,742.79,104.00,54.00,19.23,220.00,14.00,0.00,29.84,1008.20,10.00,21.00,FEW,M,M,M,11000.00,M,M,M,M,M,M,M,31.00,210.00,2024-08-17 22:09,102.46,KHND 172256Z 22014G21KT 10SM FEW110 40/12 A2984 RMK AO2 PK WND 21031/2209 SLP082 T04000122,M
TPH,2024-08-17 22:56,-117.0904,38.0505,1654.00,90.00,29.00,11.23,200.00,24.00,0.00,30.00,1007.90,10.00,34.00,FEW,M,M,M,11000.00,M,M,M,M,M,M,M,38.00,180.00,2024-08-17 22:18,85.53,KTPH 172256Z AUTO 20024G34KT 10SM FEW110 32/M02 A3000 RMK AO2 PK WND 18038/2218 SLP079 T03221017,M
LAS,2024-08-17 22:56,-115.1634,36.0719,663.00,107.00,51.00,15.76,180.00,13.00,0.00,29.80,1005.50,10.00,22.00,FEW,M,M,M,12000.00,M,M,M,M,M,M,M,31.00,210.00,2024-08-17 22:14,104.53,KLAS 172256Z 18013G22KT 10SM FEW120 42/11 A2980 RMK AO2 PK WND 21031/2214 SLP055 CB DSNT E ACC DSNT E T04170106,M
NFL,2024-08-17 22:57,-118.7010,39.4166,1199.00,96.00,23.00,7.27,250.00,15.00,0.00,29.83,1007.70,10.00,21.00,FEW,M,M,M,8000.00,M,M,M,M,M,M,M,M,M,M,89.59,KNFL 172257Z 25015G21KT 10SM FEW080 36/M05 A2983 RMK AO2 WSHFT 2234 SLP077 T03561050,M
05U,2024-08-17 23:10,-116.0051,39.6042,1811.23,M,M,M,180.00,18.00,0.00,30.01,M,10.00,25.00,BKN,M,M,M,10000.00,M,M,M,M,M,M,M,M,M,M,M,K05U 172310Z AUTO 18018G25KT 10SM BKN100 A3001 RMK A01,M
EKO,2024-08-17 23:11,-115.7860,40.8242,1367.00,86.00,47.00,25.83,150.00,18.00,0.00,29.91,M,10.00,28.00,SCT,M,M,M,11000.00,M,M,M,VCTS,M,M,M,29.00,170.00,2024-08-17 22:59,83.28,KEKO 172311Z AUTO 15018G28KT 10SM VCTS SCT110 30/08 A2991 RMK AO2 PK WND 17029/2259 LTG DSNT NE AND S T03000083,M
BVU,2024-08-17 23:15,-114.8611,35.9475,671.00,104.00,50.00,16.59,190.00,18.00,0.00,29.78,M,10.00,28.00,CLR,M,M,M,M,M,M,M,M,M,M,M,M,M,M,101.14,KBVU 172315Z AUTO 19018G28KT 10SM CLR 40/10 A2978 RMK AO2,M
CXP,2024-08-17 23:15,-119.7326,39.1923,1431.00,78.80,37.40,22.54,240.00,13.00,0.00,29.99,M,10.00,28.00,CLR,M,M,M,M,M,M,M,M,M,M,M,M,M,M,78.80,KCXP 172315Z AUTO 24013G28KT 10SM CLR 26/03 A2999 RMK AO2,M
RTS,2024-08-17 23:15,-119.8764,39.6682,1539.00,78.80,32.00,18.18,230.00,19.00,0.00,30.01,M,10.00,31.00,CLR,M,M,M,M,M,M,M,M,M,M,M,M,M,M,78.80,KRTS 172315Z AUTO 23019G31KT 10SM CLR 26/00 A3001 RMK AO2,M
MEV,2024-08-17 23:15,-119.7500,38.9963,1441.42,82.40,32.00,16.17,190.00,19.00,0.00,29.97,M,10.00,30.00,CLR,M,M,M,M,M,M,M,M,M,M,M,M,M,M,80.00,KMEV 172315Z AUTO 19019G30KT 10SM CLR 28/M00 A2997 RMK AO2,M
BAM,2024-08-17 23:15,-116.8743,40.5990,1382.36,95.00,26.60,8.71,290.00,5.00,0.00,29.85,M,10.00,15.00,CLR,M,M,M,M,M,M,M,M,M,M,M,M,M,M,89.08,KBAM 172315Z AUTO 29005G15KT 10SM CLR 35/M03 A2985 RMK AO1,M
HTH,2024-08-17 23:15,-118.6315,38.5448,1282.89,95.00,10.40,4.34,230.00,30.00,0.00,29.83,M,7.00,40.00,CLR,M,M,M,M,M,M,M,M,M,M,M,M,M,M,88.04,KHTH 172315Z AUTO 23030G40KT 7SM CLR 35/M12 A2983 RMK A01,M
10U,2024-08-17 23:15,-116.1876,41.9532,1637.00,91.40,14.00,5.69,210.00,11.00,0.00,29.94,M,10.00,19.00,CLR,M,M,M,M,M,M,M,M,M,M,M,M,M,M,85.60,K10U 172315Z AUTO 21011G19KT 10SM CLR 33/M10 A2994 RMK AO2,M
TMT,2024-08-17 23:15,-117.1971,39.4643,1749.34,89.60,32.40,13.05,230.00,19.00,0.00,29.97,M,10.00,29.00,CLR,M,M,M,M,M,M,M,M,M,M,M,M,M,M,85.58,KTMT 172315Z AUTO 23019G29KT 10SM CLR 32/00 A2997 RMK AO2 T03200002,M
NFL,2024-08-17 23:16,-118.7010,39.4166,1199.00,94.00,31.00,10.75,300.00,14.00,0.00,29.82,M,10.00,25.00,CLR,M,M,M,M,M,M,M,M,M,M,M,27.00,290.00,2024-08-17 23:05,88.80,KNFL 172316Z 30014G25KT 10SM CLR 34/M01 A2982 RMK AO2 PK WND 29027/2305 WSHFT 2256 T03441006,M
05U,2024-08-17 23:30,-116.0051,39.6042,1811.23,M,M,M,170.00,21.00,0.00,30.01,M,10.00,26.00,BKN,M,M,M,10000.00,M,M,M,M,M,M,M,M,M,M,M,K05U 172330Z AUTO 17021G26KT 10SM BKN100 A3001 RMK A01,M
EKO,2024-08-17 23:34,-115.7860,40.8242,1367.00,85.00,46.00,25.69,170.00,13.00,0.00,29.92,M,10.00,20.00,BKN,M,M,M,11000.00,M,M,M,TS,M,M,M,35.00,170.00,2024-08-17 23:19,82.42,KEKO 172334Z AUTO 17013G20KT 10SM TS BKN110 29/08 A2992 RMK AO2 PK WND 17035/2319 LTG DSNT ALQDS TSB28 T02940078,M
BVU,2024-08-17 23:35,-114.8611,35.9475,671.00,104.00,48.20,15.52,200.00,19.00,0.00,29.78,M,10.00,28.00,CLR,M,M,M,M,M,M,M,M,M,M,M,M,M,M,100.65,KBVU 172335Z AUTO 20019G28KT 10SM CLR 40/09 A2978 RMK AO2,M
CXP,2024-08-17 23:35,-119.7326,39.1923,1431.00,78.80,37.40,22.54,230.00,11.00,0.00,29.99,M,10.00,24.00,CLR,M,M,M,M,M,M,M,M,M,M,M,M,M,M,78.80,KCXP 172335Z AUTO 23011G24KT 10SM CLR 26/03 A2999 RMK AO2,M
RTS,2024-08-17 23:35,-119.8764,39.6682,1539.00,77.00,33.80,20.74,240.00,14.00,0.00,30.01,M,10.00,29.00,CLR,M,M,M,M,M,M,M,M,M,M,M,M,M,M,77.00,KRTS 172335Z AUTO 24014G29KT 10SM CLR 25/01 A3001 RMK AO2,M
MEV,2024-08-17 23:35,-119.7500,38.9963,1441.42,82.40,32.00,16.17,200.00,15.00,0.00,29.97,M,10.00,25.00,CLR,M,M,M,M,M,M,M,M,M,M,M,M,M,M,80.00,KMEV 172335Z AUTO 20015G25KT 10SM CLR 28/00 A2997 RMK AO2,M
BAM,2024-08-17 23:35,-116.8743,40.5990,1382.36,96.80,28.40,8.87,260.00,9.00,0.00,29.85,M,10.00,17.00,CLR,M,M,M,M,M,M,M,M,M,M,M,M,M,M,90.75,KBAM 172335Z AUTO 26009G17KT 10SM CLR 36/M02 A2985 RMK AO1,M
HTH,2024-08-17 23:35,-118.6315,38.5448,1282.89,93.20,8.60,4.24,240.00,24.00,0.00,29.83,M,10.00,32.00,CLR,M,M,M,M,M,M,M,M,M,M,M,M,M,M,86.70,KHTH 172335Z AUTO 24024G32KT 10SM CLR 34/M13 A2983 RMK A01,M
10U,2024-08-17 23:35,-116.1876,41.9532,1637.00,89.60,14.00,6.03,210.00,7.00,0.00,29.93,M,10.00,14.00,CLR,M,M,M,M,M,M,M,M,M,M,M,M,M,M,84.30,K10U 172335Z AUTO 21007G14KT 120V280 10SM CLR 32/M10 A2993 RMK AO2,M
TMT,2024-08-17 23:35,-117.1971,39.4643,1749.34,89.00,32.00,13.09,220.00,14.00,0.00,29.96,M,10.00,24.00,CLR,M,M,M,M,M,M,M,M,M,M,M,M,M,M,85.07,KTMT 172335Z AUTO 22014G24KT 10SM CLR 32/00 A2996 RMK AO2 T03170000,M
NFL,2024-08-17 23:36,-118.7010,39.4166,1199.00,94.00,28.00,9.51,240.00,23.00,0.00,29.83,M,10.00,29.00,CLR,M,M,M,M,M,M,M,M,M,M,M,29.00,240.00,2024-08-17 23:29,88.46,KNFL 172336Z 24023G29KT 10SM CLR 34/M02 A2983 RMK AO2 PK WND 24029/2329 WSHFT 2316 T03441022,M
05U,2024-08-17 23:50,-116.0051,39.6042,1811.23,M,M,M,170.00,18.00,0.00,30.01,M,10.00,26.00,BKN,BKN,M,M,10000.00,12000.00,M,M,M,M,M,M,M,M,M,M,K05U 172350Z AUTO 17018G26KT 10SM BKN100 BKN120 A3001 RMK A01,M
LSV,2024-08-17 23:51,-115.0343,36.2362,570.00,107.60,46.40,13.04,220.00,16.00,0.00,29.71,M,10.00,22.00,CLR,M,M,M,M,M,M,M,M,M,M,M,M,M,M,103.71,KLSV 172351Z AUTO 22016G22KT 10SM CLR 42/08 A2971 RMK AO2 WSHFT 43 SLPNO $,M
P68,2024-08-17 23:53,-116.0056,39.6014,1993.00,89.00,43.00,20.17,180.00,19.00,0.00,29.98,1006.20,M,30.00,M,M,M,M,M,M,M,M,M,M,M,M,33.00,180.00,2024-08-17 23:00,85.42,KP68 172353Z AUTO 18019G30KT 32/06 A2998 RMK AO1 PK WND 18033/2300 SLP062 T03170061 10317 20267 56013,M
DRA,2024-08-17 23:53,-116.0278,36.6206,1009.00,99.00,46.00,16.60,220.00,14.00,0.00,29.88,1005.50,10.00,26.00,CLR,M,M,M,M,M,M,M,M,M,M,M,28.00,200.00,2024-08-17 23:39,95.17,KDRA 172353Z AUTO 22014G26KT 10SM CLR 37/08 A2988 RMK AO2 PK WND 20028/2339 SLP055 T03720078 10383 20344 56015,M
ELY,2024-08-17 23:53,-114.8453,39.2950,1909.00,81.00,49.00,32.73,190.00,15.00,0.00,30.09,1008.30,10.00,30.00,BKN,M,M,M,8500.00,M,M,M,M,M,M,M,31.00,170.00,2024-08-17 23:42,80.02,KELY 172353Z AUTO 19015G30KT 10SM BKN085 27/09 A3009 RMK AO2 PK WND 17031/2342 SLP083 60000 T02720094 10283 20150 56015,M
VGT,2024-08-17 23:53,-115.1933,36.2111,667.00,106.00,51.00,16.23,200.00,19.00,0.00,29.77,1006.10,10.00,30.00,SCT,M,M,M,12000.00,M,M,M,M,M,M,M,30.00,210.00,2024-08-17 23:52,103.51,KVGT 172353Z 20019G30KT 10SM SCT120 41/11 A2977 RMK AO2 PK WND 21030/2352 SLP061 T04110106 10422 20372 56016,M
LOL,2024-08-17 23:53,-118.5701,40.0684,1192.43,92.00,29.00,10.55,240.00,15.00,0.00,29.82,1006.20,10.00,21.00,CLR,M,M,M,M,M,M,M,M,M,M,M,30.00,230.00,2024-08-17 23:08,87.04,KLOL 172353Z AUTO 24015G21KT 10SM CLR 33/M02 A2982 RMK AO2 PK WND 23030/2308 SLP062 T03331017 10339 20278 56019,M
EKO,2024-08-17 23:54,-115.7860,40.8242,1367.00,80.60,51.80,36.79,140.00,15.94,M,29.91,M,10.00,25.08,SCT,M,M,M,11000.00,M,M,M,VCTS,M,M,M,38.00,170.00,2024-08-17 23:38,80.08,SPECI KEKO 172354Z 14016G25KT 10SM VCTS SCT110 27/11 A2991 RMK AO2 PK WND 17038/2338 LTG DSNT E TSB28E52 FIBI,M
TMT,2024-08-17 23:55,-117.1971,39.4643,1749.34,89.00,31.30,12.72,220.00,17.00,0.00,29.96,M,10.00,25.00,CLR,M,M,M,M,M,M,M,M,M,M,M,M,M,M,85.01,KTMT 172355Z AUTO 22017G25KT 10SM CLR 32/00 A2996 RMK AO2 T03171004 10330 20275,M
BVU,2024-08-17 23:55,-114.8611,35.9475,671.00,104.00,50.00,16.59,190.00,19.00,0.00,29.78,M,10.00,28.00,CLR,M,M,M,M,M,M,M,M,M,M,M,M,M,M,101.14,KBVU 172355Z AUTO 19019G28KT 10SM CLR 40/10 A2978 RMK AO2,M
CXP,2024-08-17 23:55,-119.7326,39.1923,1431.00,78.80,33.80,19.55,220.00,14.00,0.00,29.99,M,10.00,27.00,CLR,M,M,M,M,M,M,M,M,M,M,M,M,M,M,78.80,KCXP 172355Z AUTO 22014G27KT 10SM CLR 26/01 A2999 RMK AO2,M
RNO,2024-08-17 23:55,-119.7711,39.4839,1341.00,82.00,38.00,20.79,190.00,18.00,0.00,29.96,1009.40,10.00,25.00,FEW,M,M,M,9000.00,M,M,M,M,M,M,M,33.00,190.00,2024-08-17 23:05,79.90,KRNO 172355Z 19018G25KT 10SM FEW090 28/03 A2996 RMK AO2 PK WND 19033/2305 SLP094 T02780033 10311 20272 53007,M
RTS,2024-08-17 23:55,-119.8764,39.6682,1539.00,77.00,32.00,19.30,240.00,24.00,0.00,30.01,M,10.00,30.00,CLR,M,M,M,M,M,M,M,M,M,M,M,M,M,M,77.00,KRTS 172355Z AUTO 24024G30KT 10SM CLR 25/00 A3001 RMK AO2,M
MEV,2024-08-17 23:55,-119.7500,38.9963,1441.42,80.60,33.80,18.42,190.00,19.00,0.00,29.97,M,10.00,26.00,CLR,M,M,M,M,M,M,M,M,M,M,M,M,M,M,78.88,KMEV 172355Z AUTO 19019G26KT 10SM CLR 27/01 A2997 RMK AO2,M
BAM,2024-08-17 23:55,-116.8743,40.5990,1382.36,96.80,28.40,8.87,260.00,9.00,0.00,29.85,M,10.00,18.00,CLR,M,M,M,M,M,M,M,M,M,M,M,M,M,M,90.75,KBAM 172355Z AUTO 26009G18KT 10SM CLR 36/M02 A2985 RMK AO1,M
HTH,2024-08-17 23:55,-118.6315,38.5448,1282.89,93.20,8.60,4.24,230.00,18.00,0.00,29.85,M,10.00,31.00,CLR,M,M,M,M,M,M,M,M,M,M,M,M,M,M,86.70,KHTH 172355Z AUTO 23018G31KT 10SM CLR 34/M13 A2985 RMK A01,M
10U,2024-08-17 23:55,-116.1876,41.9532,1637.00,89.60,15.80,6.52,240.00,8.00,0.00,29.92,M,10.00,19.00,CLR,M,M,M,M,M,M,M,M,M,M,M,M,M,M,84.37,K10U 172355Z AUTO 24008G19KT 10SM CLR 32/M09 A2992 RMK AO2,M
INS,2024-08-17 23:55,-115.6733,36.5872,955.00,100.40,44.20,14.86,210.00,19.00,0.00,29.84,1004.30,10.00,25.00,CLR,M,M,M,M,M,M,M,M,M,M,M,31.00,220.00,2024-08-17 23:34,96.25,KINS 172355Z AUTO 21019G25KT 10SM CLR 38/07 A2984 RMK AO2 PK WND 22031/34 SLP043 T03800068 10388 20294 56016 $,M
LSV,2024-08-17 23:55,-115.0343,36.2362,570.00,106.30,45.00,12.84,230.00,14.00,0.00,29.71,M,10.00,22.00,CLR,M,M,M,M,M,M,M,M,M,M,M,28.00,200.00,2024-08-17 22:59,102.10,KLSV 172355Z AUTO 23014G22KT 10SM CLR 41/07 A2971 RMK AO2 PK WND 20028/2259 SLPNO T04130073 10423 20384 57016 $,M
EKO,2024-08-17 23:56,-115.7860,40.8242,1367.00,82.00,51.00,34.12,150.00,15.00,0.00,29.91,1008.00,10.00,25.00,SCT,M,M,M,11000.00,M,M,M,VCTS,M,M,M,38.00,170.00,2024-08-17 23:38,80.84,KEKO 172356Z AUTO 15015G25KT 10SM VCTS SCT110 28/11 A2991 RMK AO2 PK WND 17038/2338 LTG DSNT E TSB28E52 SLP080 T02780106 10339 20272 56011,M
WMC,2024-08-17 23:56,-117.8072,40.9019,1315.00,92.00,23.00,8.22,240.00,16.00,0.00,29.83,1005.80,10.00,27.00,CLR,M,M,M,M,M,M,M,M,M,M,M,28.00,240.00,2024-08-17 23:26,86.53,KWMC 172356Z AUTO 24016G27KT 10SM CLR 33/M05 A2983 RMK AO2 PK WND 24028/2326 SLP058 T03331050 10350 20283 56016,M
HND,2024-08-17 23:56,-115.1344,35.9729,742.79,104.00,53.00,18.54,210.00,18.00,0.00,29.82,1007.50,10.00,23.00,FEW,M,M,M,11000.00,M,M,M,M,M,M,M,29.00,200.00,2024-08-17 23:20,102.10,KHND 172356Z 21018G23KT 10SM FEW110 40/12 A2982 RMK AO2 PK WND 20029/2320 SLP075 T04000117 10411 20372 56018,M
TPH,2024-08-17 23:56,-117.0904,38.0505,1654.00,90.00,32.00,12.68,200.00,20.00,0.00,29.99,1007.80,10.00,33.00,CLR,M,M,M,M,M,M,M,M,M,M,M,36.00,170.00,2024-08-17 23:01,85.84,KTPH 172356Z AUTO 20020G33KT 10SM CLR 32/00 A2999 RMK AO2 PK WND 17036/2301 SLP078 T03220000 10328 20294 56009,M
LAS,2024-08-17 23:56,-115.1634,36.0719,663.00,106.00,50.00,15.64,200.00,10.00,0.00,29.79,1005.20,10.00,24.00,FEW,M,M,M,12000.00,M,M,M,M,M,M,M,30.00,200.00,2024-08-17 23:36,103.18,KLAS 172356Z 20010G24KT 10SM FEW120 41/10 A2979 RMK AO2 PK WND 20030/2336 SLP052 CB DSNT NE ACC DSNT E T04110100 10422 20383 56018,M
NFL,2024-08-17 23:57,-118.7010,39.4166,1199.00,94.00,22.00,7.41,240.00,20.00,0.00,29.83,1007.90,10.00,30.00,CLR,M,M,M,M,M,M,M,M,M,M,M,30.00,230.00,2024-08-17 23:53,87.94,KNFL 172357Z 24020G30KT 10SM CLR 34/M06 A2983 RMK AO2 PK WND 23030/2353 WSHFT 2316 SLP079 T03441056 10356 20278 55003,M
