station,valid,lon,lat,elevation,tmpf,dwpf,relh,drct,sknt,p01i,alti,mslp,vsby,gust,skyc1,skyc2,skyc3,skyc4,skyl1,skyl2,skyl3,skyl4,wxcodes,ice_accretion_1hr,ice_accretion_3hr,ice_accretion_6hr,peak_wind_gust,peak_wind_drct,peak_wind_time,feel,metar,snowdepth
10U,2025-02-14 00:00,-116.1876,41.9532,1637.00,37.40,33.80,86.69,200.00,11.00,0.00,29.52,M,9.00,M,BKN,M,M,M,2800.00,M,M,M,-RA,M,M,M,M,M,M,29.29,K10U 140000Z AUTO 20011KT 9SM -RA BKN028 03/01 A2952 RMK AO2,M
ELY,2025-02-14 00:08,-114.8453,39.2950,1909.00,35.00,30.00,81.78,150.00,28.00,T,29.67,M,2.50,41.00,BKN,BKN,OVC,M,2600.00,3200.00,3900.00,M,-SN,M,M,M,41.00,140.00,2025-02-14 00:01,21.22,KELY 140008Z AUTO 15028G41KT 2 1/2SM -SN BKN026 BKN032 OVC039 02/M01 A2967 RMK AO2 PK WND 14041/0001 P0000 T00171011,M
TMT,2025-02-14 00:10,-117.1971,39.4643,1749.34,41.00,34.70,78.09,220.00,16.00,0.00,29.58,M,10.00,M,SCT,BKN,M,M,2100.00,6000.00,M,M,M,M,M,M,M,M,M,32.15,KTMT 140010Z AUTO 22016KT 10SM SCT021 BKN060 05/02 A2958 RMK AO2 T00500015,M
BVU,2025-02-14 00:15,-114.8611,35.9475,671.00,50.00,42.80,76.18,170.00,23.00,0.00,29.86,M,10.00,32.00,FEW,SCT,BKN,M,2600.00,3900.00,7500.00,M,M,M,M,M,M,M,M,50.00,KBVU 140015Z AUTO 17023G32KT 10SM FEW026 SCT039 BKN075 10/06 A2986 RMK AO2,M
BAM,2025-02-14 00:15,-116.8743,40.5990,1382.36,39.20,37.40,93.19,180.00,4.00,0.00,29.56,M,10.00,M,SCT,BKN,BKN,M,6000.00,7000.00,8000.00,M,M,M,M,M,M,M,M,35.83,KBAM 140015Z AUTO 18004KT 10SM SCT060 BKN070 BKN080 04/03 A2956 RMK AO1,M
CXP,2025-02-14 00:15,-119.7326,39.1923,1431.00,39.20,33.80,80.79,210.00,4.00,0.00,29.53,M,10.00,10.00,FEW,SCT,BKN,M,1600.00,2100.00,3000.00,M,-RA,M,M,M,M,M,M,35.83,KCXP 140015Z AUTO 21004G10KT 10SM -RA FEW016 SCT021 BKN030 04/01 A2953 RMK AO2,M
RTS,2025-02-14 00:15,-119.8764,39.6682,1539.00,33.80,33.80,100.00,140.00,10.00,0.00,29.50,M,3.00,M,SCT,SCT,BKN,M,400.00,2400.00,3300.00,M,-RA,M,M,M,M,M,M,25.23,KRTS 140015Z AUTO 14010KT 3SM -RA SCT004 SCT024 BKN033 01/01 A2950 RMK AO2,M
MEV,2025-02-14 00:15,-119.7500,38.9963,1441.42,41.00,35.60,80.93,160.00,12.00,0.00,29.51,M,9.00,20.00,FEW,BKN,OVC,M,2100.00,2800.00,3400.00,M,-RA,M,M,M,M,M,M,33.46,KMEV 140015Z AUTO 16012G20KT 9SM -RA FEW021 BKN028 OVC034 05/02 A2951 RMK AO2,M
INS,2025-02-14 00:18,-115.6733,36.5872,955.00,44.60,41.00,87.09,110.00,17.00,0.00,29.77,1006.90,10.00,24.00,FEW,OVC,M,M,1000.00,5000.00,M,M,-RA,M,M,M,M,M,M,36.58,KINS 140018Z AUTO 11017G24KT 10SM -RA FEW010 OVC050 07/05 A2977 RMK AO2 RAB18 SLP069 $,M
ELY,2025-02-14 00:18,-114.8453,39.2950,1909.00,34.00,31.00,88.63,150.00,26.00,T,29.67,M,1.75,38.00,SCT,OVC,M,M,2400.00,3200.00,M,M,-SN BR,M,M,M,41.00,140.00,2025-02-14 00:01,20.29,KELY 140018Z AUTO 15026G38KT 1 3/4SM -SN BR SCT024 OVC032 01/M01 A2967 RMK AO2 PK WND 14041/0001 P0000 T00111006,M
10U,2025-02-14 00:20,-116.1876,41.9532,1637.00,37.40,33.80,86.69,210.00,7.00,0.00,29.53,M,10.00,12.00,BKN,BKN,BKN,M,2900.00,4400.00,5000.00,M,M,M,M,M,M,M,M,31.36,K10U 140020Z AUTO 21007G12KT 10SM BKN029 BKN044 BKN050 03/01 A2953 RMK AO2,M
TPH,2025-02-14 00:24,-117.0904,38.0505,1654.00,42.00,31.00,64.75,180.00,20.00,0.00,29.64,M,10.00,31.00,BKN,BKN,M,M,1600.00,2100.00,M,M,M,M,M,M,31.00,200.00,2025-02-14 00:21,32.42,KTPH 140024Z AUTO 18020G31KT 10SM BKN016 BKN021 06/M01 A2964 RMK AO2 PK WND 20031/0021 T00561006,M
EKO,2025-02-14 00:25,-115.7860,40.8242,1367.00,33.00,33.00,100.00,0.00,0.00,0.05,29.60,M,3.00,M,OVC,M,M,M,900.00,M,M,M,-SN BR,M,M,M,M,M,M,33.00,KEKO 140025Z AUTO 00000KT 3SM -SN BR OVC009 01/01 A2960 RMK AO2 P0005 T00060006 $,M
TMT,2025-02-14 00:30,-117.1971,39.4643,1749.34,40.00,33.80,78.31,210.00,18.00,0.00,29.58,M,10.00,23.00,SCT,BKN,OVC,M,3000.00,6000.00,11000.00,M,M,M,M,M,M,M,M,30.28,KTMT 140030Z AUTO 21018G23KT 10SM SCT030 BKN060 OVC110 04/01 A2958 RMK AO2 T00440010,M
ELY,2025-02-14 00:31,-114.8453,39.2950,1909.00,34.00,31.00,88.63,150.00,30.00,T,29.66,M,3.00,41.00,SCT,OVC,M,M,2100.00,3300.00,M,M,-SN BR,M,M,M,41.00,140.00,2025-02-14 00:01,19.45,KELY 140031Z AUTO 15030G41KT 3SM -SN BR SCT021 OVC033 01/M01 A2966 RMK AO2 PK WND 14041/0001 P0000 T00111006,M
EKO,2025-02-14 00:33,-115.7860,40.8242,1367.00,33.00,33.00,100.00,0.00,0.00,0.06,29.60,M,1.75,M,OVC,M,M,M,900.00,M,M,M,-SN BR,M,M,M,M,M,M,33.00,KEKO 140033Z AUTO 00000KT 1 3/4SM -SN BR OVC009 01/01 A2960 RMK AO2 P0006 T00060006 $,M
BVU,2025-02-14 00:35,-114.8611,35.9475,671.00,50.00,42.80,76.18,170.00,16.00,0.00,29.87,M,10.00,22.00,BKN,BKN,OVC,M,2900.00,4000.00,9500.00,M,M,M,M,M,M,M,M,50.00,KBVU 140035Z AUTO 17016G22KT 10SM BKN029 BKN040 OVC095 10/06 A2987 RMK AO2,M
BAM,2025-02-14 00:35,-116.8743,40.5990,1382.36,39.20,37.40,93.19,0.00,0.00,0.00,29.56,M,10.00,M,SCT,SCT,SCT,M,2800.00,3900.00,4800.00,M,M,M,M,M,M,M,M,39.20,KBAM 140035Z AUTO 00000KT 10SM SCT028 SCT039 SCT048 04/03 A2956 RMK AO1,M
CXP,2025-02-14 00:35,-119.7326,39.1923,1431.00,39.20,33.80,80.79,140.00,4.00,0.00,29.53,M,6.00,M,FEW,SCT,BKN,M,1600.00,2100.00,2800.00,M,-RA HZ,M,M,M,M,M,M,35.83,KCXP 140035Z AUTO 14004KT 6SM -RA HZ FEW016 SCT021 BKN028 04/01 A2953 RMK AO2,M
LSV,2025-02-14 00:35,-115.0343,36.2362,570.00,53.60,42.80,66.70,120.00,7.00,0.00,29.81,1009.10,10.00,M,OVC,M,M,M,3400.00,M,M,M,M,M,M,M,M,M,M,53.60,KLSV 140035Z AUTO 12007KT 10SM OVC034 12/06 A2981 RMK AO2 SLP091 $,M
RTS,2025-02-14 00:35,-119.8764,39.6682,1539.00,33.80,33.80,100.00,130.00,10.00,0.00,29.50,M,7.00,M,SCT,BKN,BKN,M,400.00,3400.00,4100.00,M,-RA,M,M,M,M,M,M,25.23,KRTS 140035Z AUTO 13010KT 7SM -RA SCT004 BKN034 BKN041 01/01 A2950 RMK AO2,M
MEV,2025-02-14 00:35,-119.7500,38.9963,1441.42,39.20,35.60,86.79,150.00,12.00,0.00,29.53,M,10.00,18.00,FEW,BKN,OVC,M,2100.00,2800.00,3200.00,M,-RA,M,M,M,M,M,M,31.17,KMEV 140035Z AUTO 15012G18KT 10SM -RA FEW021 BKN028 OVC032 04/02 A2953 RMK AO2,M
TPH,2025-02-14 00:36,-117.0904,38.0505,1654.00,41.00,31.00,67.30,180.00,23.00,0.00,29.65,M,10.00,30.00,BKN,M,M,M,1400.00,M,M,M,M,M,M,M,31.00,200.00,2025-02-14 00:21,30.41,KTPH 140036Z AUTO 18023G30KT 10SM BKN014 05/M01 A2965 RMK AO2 PK WND 20031/0021 T00501006,M
VGT,2025-02-14 00:39,-115.1933,36.2111,667.00,47.00,31.00,53.52,330.00,3.00,0.01,29.84,M,9.00,M,SCT,BKN,OVC,M,1800.00,6000.00,7000.00,M,-RA,M,M,M,M,M,M,45.84,KVGT 140039Z 33003KT 9SM -RA SCT018 BKN060 OVC070 08/M01 A2984 RMK AO2 P0001 T00831006,M
DRA,2025-02-14 00:40,-116.0278,36.6206,1009.00,48.00,32.00,53.67,210.00,15.00,0.08,29.80,M,2.50,23.00,SCT,OVC,M,M,2200.00,3300.00,M,M,+RA,M,M,M,40.00,230.00,2025-02-14 00:00,41.52,KDRA 140040Z AUTO 21015G23KT 2 1/2SM +RA SCT022 OVC033 09/00 A2980 RMK AO2 PK WND 23040/0000 RAB01 P0008 T00890000,M
LSV,2025-02-14 00:40,-115.0343,36.2362,570.00,53.60,44.60,71.45,150.00,13.00,0.00,29.81,1009.10,10.00,18.00,BKN,OVC,M,M,2800.00,3600.00,M,M,-RA,M,M,M,M,M,M,53.60,KLSV 140040Z AUTO 15013G18KT 10SM -RA BKN028 OVC036 12/07 A2981 RMK AO2 RAB40 CIG 028V034 SLP091 $,M
10U,2025-02-14 00:40,-116.1876,41.9532,1637.00,37.40,33.80,86.69,210.00,8.00,0.00,29.53,M,10.00,16.00,OVC,M,M,M,3000.00,M,M,M,M,M,M,M,M,M,M,30.76,K10U 140040Z AUTO 21008G16KT 10SM OVC030 03/01 A2953 RMK AO2,M
TPH,2025-02-14 00:44,-117.0904,38.0505,1654.00,41.00,31.00,67.30,190.00,21.00,0.00,29.66,M,10.00,31.00,BKN,M,M,M,1600.00,M,M,M,M,M,M,M,31.00,200.00,2025-02-14 00:21,30.86,KTPH 140044Z AUTO 19021G31KT 10SM BKN016 05/M01 A2966 RMK AO2 PK WND 20031/0021 T00501006,M
TMT,2025-02-14 00:50,-117.1971,39.4643,1749.34,39.20,33.30,79.19,230.00,14.00,0.00,29.58,M,10.00,M,SCT,SCT,OVC,M,3400.00,4900.00,11000.00,M,M,M,M,M,M,M,M,30.44,KTMT 140050Z AUTO 23014KT 10SM SCT034 SCT049 OVC110 04/01 A2958 RMK AO2 T00400007,M
EKO,2025-02-14 00:51,-115.7860,40.8242,1367.00,33.80,33.80,100.00,30.00,3.00,0.09,29.60,M,1.25,M,OVC,M,M,M,1000.00,M,M,M,-SN BR,M,M,M,M,M,M,30.75,KEKO 140051Z AUTO 03003KT 1 1/4SM -SN BR OVC010 01/01 A2960 RMK AO2 P0009 $,M
DRA,2025-02-14 00:53,-116.0278,36.6206,1009.00,48.00,32.00,53.67,210.00,17.00,0.15,29.81,1008.40,2.50,29.00,FEW,BKN,OVC,M,900.00,2900.00,3500.00,M,+RA,M,M,M,40.00,230.00,2025-02-14 00:00,41.04,KDRA 140053Z AUTO 21017G29KT 2 1/2SM +RA FEW009 BKN029 OVC035 09/00 A2981 RMK AO2 PK WND 23040/0000 RAB01 SLP084 P0015 T00890000,M
ELY,2025-02-14 00:53,-114.8453,39.2950,1909.00,35.00,30.00,81.78,150.00,27.00,T,29.66,1004.10,10.00,38.00,FEW,SCT,OVC,M,2300.00,3600.00,4700.00,M,UP,M,M,M,41.00,140.00,2025-02-14 00:42,21.43,KELY 140053Z AUTO 15027G38KT 10SM UP FEW023 SCT036 OVC047 02/M01 A2966 RMK AO2 PK WND 14041/0042 UPB38SNE38 SLP041 P0000 T00171011,M
VGT,2025-02-14 00:53,-115.1933,36.2111,667.00,47.00,31.00,53.52,320.00,5.00,0.01,29.85,1012.80,10.00,M,SCT,BKN,OVC,M,1800.00,6000.00,7000.00,M,-RA,M,M,M,M,M,M,44.21,KVGT 140053Z 32005KT 10SM -RA SCT018 BKN060 OVC070 08/M01 A2985 RMK AO2 SLP128 P0001 T00831006,M
LOL,2025-02-14 00:53,-118.5701,40.0684,1192.43,46.00,37.00,70.64,210.00,13.00,T,29.53,1000.50,10.00,24.00,BKN,OVC,M,M,3500.00,4300.00,M,M,M,M,M,M,M,M,M,39.50,KLOL 140053Z AUTO 21013G24KT 10SM BKN035 OVC043 08/03 A2953 RMK AO2 RAB34E45 SLP005 P0000 T00780028,M
P68,2025-02-14 00:53,-116.0056,39.6014,1993.00,37.00,32.00,81.93,150.00,11.00,0.00,29.59,1001.40,M,M,M,M,M,M,M,M,M,M,M,M,M,M,28.00,210.00,2025-02-13 23:57,28.79,KP68 140053Z AUTO 15011KT 03/00 A2959 RMK AO1 PK WND 21028/2357 SLP014 T00280000,M
BVU,2025-02-14 00:55,-114.8611,35.9475,671.00,51.80,42.80,71.26,170.00,20.00,0.00,29.86,M,10.00,28.00,BKN,OVC,M,M,2900.00,3400.00,M,M,M,M,M,M,M,M,M,51.80,KBVU 140055Z AUTO 17020G28KT 10SM BKN029 OVC034 11/06 A2986 RMK AO2,M
RNO,2025-02-14 00:55,-119.7711,39.4839,1341.00,38.00,34.00,85.35,180.00,10.00,0.02,29.50,999.10,10.00,M,BKN,OVC,M,M,3000.00,4500.00,M,M,-RA,M,M,M,M,M,M,30.49,KRNO 140055Z 18010KT 10SM -RA BKN030 OVC045 03/01 A2950 RMK AO2 SLP991 P0002 T00330011,M
BAM,2025-02-14 00:55,-116.8743,40.5990,1382.36,39.20,37.40,93.19,40.00,5.00,0.00,29.57,M,10.00,M,SCT,M,M,M,5000.00,M,M,M,M,M,M,M,M,M,M,34.95,KBAM 140055Z AUTO 04005KT 10SM SCT050 04/03 A2957 RMK AO1,M
CXP,2025-02-14 00:55,-119.7326,39.1923,1431.00,39.20,33.80,80.79,170.00,7.00,0.00,29.53,M,10.00,15.00,FEW,SCT,BKN,M,1600.00,2200.00,2900.00,M,M,M,M,M,M,M,M,33.56,KCXP 140055Z AUTO 17007G15KT 10SM FEW016 SCT022 BKN029 04/01 A2953 RMK AO2,M
LSV,2025-02-14 00:55,-115.0343,36.2362,570.00,53.40,44.60,71.98,160.00,14.00,T,29.80,1008.80,10.00,19.00,BKN,BKN,M,M,2800.00,3500.00,M,M,-RA,M,M,M,26.00,200.00,2025-02-13 23:58,53.40,KLSV 140055Z AUTO 16014G19KT 10SM -RA BKN028 BKN035 12/07 A2980 RMK AO2 PK WND 20026/2358 RAE2355RAB40 SLP088 P0000 T01190070 $,M
RTS,2025-02-14 00:55,-119.8764,39.6682,1539.00,33.80,33.80,100.00,140.00,14.00,0.02,29.49,M,10.00,M,FEW,SCT,BKN,M,500.00,3400.00,3900.00,M,M,M,M,M,M,M,M,23.48,KRTS 140055Z AUTO 14014KT 10SM FEW005 SCT034 BKN039 01/01 A2949 RMK AO2 P0002,M
MEV,2025-02-14 00:55,-119.7500,38.9963,1441.42,41.00,33.80,75.33,160.00,9.00,0.00,29.53,M,10.00,21.00,FEW,SCT,BKN,M,2700.00,3400.00,4300.00,M,M,M,M,M,M,M,M,34.70,KMEV 140055Z AUTO 16009G21KT 140V200 10SM FEW027 SCT034 BKN043 05/01 A2953 RMK AO2,M
INS,2025-02-14 00:55,-115.6733,36.5872,955.00,45.30,41.40,86.12,120.00,14.00,0.01,29.80,1008.20,8.00,M,FEW,SCT,OVC,M,3700.00,4500.00,6000.00,M,-RA,M,M,M,30.00,100.00,2025-02-14 00:25,38.31,KINS 140055Z AUTO 12014KT 8SM -RA FEW037 SCT045 OVC060 07/05 A2980 RMK AO2 PK WND 10030/25 RAE2355RAB18 SLP082 P0001 T00740052 $,M
EKO,2025-02-14 00:56,-115.7860,40.8242,1367.00,33.00,33.00,100.00,360.00,3.00,0.10,29.60,1004.40,2.00,M,BKN,OVC,M,M,1000.00,1600.00,M,M,-SN BR,M,M,M,M,M,M,29.83,KEKO 140056Z AUTO 36003KT 2SM -SN BR BKN010 OVC016 01/01 A2960 RMK AO2 SLP044 P0010 T00060006 $,M
WMC,2025-02-14 00:56,-117.8072,40.9019,1315.00,34.00,33.00,96.08,30.00,6.00,T,29.53,1000.70,10.00,M,BKN,OVC,M,M,3400.00,4200.00,M,M,UP,M,M,M,M,M,M,27.94,KWMC 140056Z AUTO 03006KT 10SM UP BKN034 OVC042 01/01 A2953 RMK AO2 RAB2357E38UPB06E09B48 SLP007 P0000 T00110006,M
HND,2025-02-14 00:56,-115.1344,35.9729,742.79,50.00,44.00,79.76,150.00,15.00,T,29.86,1012.90,10.00,25.00,FEW,BKN,OVC,M,3400.00,4600.00,6000.00,M,M,M,M,M,27.00,160.00,2025-02-14 00:23,50.00,KHND 140056Z 15015G25KT 10SM FEW034 BKN046 OVC060 10/07 A2986 RMK AO2 PK WND 16027/0023 RAE16 SLP129 P0000 T01000067 $,M
TPH,2025-02-14 00:56,-117.0904,38.0505,1654.00,41.00,31.00,67.30,190.00,20.00,0.00,29.66,1004.10,10.00,26.00,BKN,BKN,OVC,M,1600.00,2200.00,2700.00,M,M,M,M,M,31.00,200.00,2025-02-14 00:21,31.09,KTPH 140056Z AUTO 19020G26KT 10SM BKN016 BKN022 OVC027 05/M01 A2966 RMK AO2 PK WND 20031/0021 SLP041 T00501006,M
LAS,2025-02-14 00:56,-115.1634,36.0719,663.00,50.00,45.00,82.86,160.00,7.00,T,29.85,1010.60,10.00,M,SCT,BKN,BKN,OVC,4500.00,6000.00,9000.00,15000.00,-RA,M,M,M,M,M,M,50.00,KLAS 140056Z 16007KT 10SM -RA SCT045 BKN060 BKN090 OVC150 10/07 A2985 RMK AO2 RAB48 SLP106 P0000 T01000072,M
NFL,2025-02-14 00:57,-118.7010,39.4166,1199.00,46.00,36.00,67.90,210.00,12.00,T,29.54,999.20,9.00,M,BKN,BKN,BKN,M,4500.00,6000.00,12000.00,M,-RA,M,M,M,M,M,M,39.82,KNFL 140057Z 21012KT 9SM -RA BKN045 BKN060 BKN120 08/02 A2954 RMK AO2 RAB56 SLP992 P0000 T00780022,M
LSV,2025-02-14 00:59,-115.0343,36.2362,570.00,53.60,44.60,71.45,170.00,18.00,0.00,29.81,1009.10,10.00,22.00,SCT,BKN,M,M,2800.00,3600.00,M,M,M,M,M,M,M,M,M,53.60,KLSV 140059Z AUTO 17018G22KT 10SM SCT028 BKN036 12/07 A2981 RMK AO2 RAE59 SLP091 $,M
VGT,2025-02-14 01:00,-115.1933,36.2111,667.00,47.00,31.00,53.52,320.00,6.00,T,29.85,M,8.00,M,BKN,BKN,OVC,M,1900.00,3800.00,6000.00,M,-RA,M,M,M,M,M,M,43.60,KVGT 140100Z 32006KT 8SM -RA BKN019 BKN038 OVC060 08/M01 A2985 RMK AO2 P0000 T00831006,M
10U,2025-02-14 01:00,-116.1876,41.9532,1637.00,37.40,33.80,86.69,200.00,11.00,0.00,29.54,M,10.00,M,BKN,OVC,M,M,3000.00,4300.00,M,M,M,M,M,M,M,M,M,29.29,K10U 140100Z AUTO 20011KT 10SM BKN030 OVC043 03/01 A2954 RMK AO2,M
LSV,2025-02-14 01:05,-115.0343,36.2362,570.00,53.60,44.60,71.45,170.00,19.00,0.00,29.81,1009.10,10.00,27.00,SCT,BKN,M,M,2800.00,3600.00,M,M,M,M,M,M,M,M,M,53.60,KLSV 140105Z 17019G27KT 10SM SCT028 BKN036 12/07 A2981 RMK RAE0059 SLP091 $,M
DRA,2025-02-14 01:06,-116.0278,36.6206,1009.00,48.00,32.00,53.67,180.00,24.00,0.07,29.78,M,3.00,35.00,FEW,BKN,OVC,M,900.00,3000.00,3400.00,M,RA,M,M,M,35.00,180.00,2025-02-14 01:05,39.64,KDRA 140106Z AUTO 18024G35KT 3SM RA FEW009 BKN030 OVC034 09/00 A2978 RMK AO2 PK WND 18035/0105 P0007 T00890000,M
EKO,2025-02-14 01:09,-115.7860,40.8242,1367.00,33.00,33.00,100.00,20.00,5.00,0.01,29.60,M,1.25,M,BKN,OVC,M,M,1000.00,1600.00,M,M,-SN BR,M,M,M,M,M,M,27.58,KEKO 140109Z AUTO 02005KT 1 1/4SM -SN BR BKN010 OVC016 01/01 A2960 RMK AO2 P0001 T00060006 $,M
TPH,2025-02-14 01:09,-117.0904,38.0505,1654.00,41.00,31.00,67.30,180.00,17.00,0.00,29.66,M,10.00,26.00,BKN,OVC,M,M,1400.00,1900.00,M,M,M,M,M,M,29.00,200.00,2025-02-14 00:58,31.87,KTPH 140109Z AUTO 18017G26KT 10SM BKN014 OVC019 05/M01 A2966 RMK AO2 PK WND 20029/0058 T00501006,M
TMT,2025-02-14 01:10,-117.1971,39.4643,1749.34,39.00,32.00,75.75,210.00,13.00,0.00,29.58,M,10.00,19.00,SCT,SCT,BKN,M,4500.00,6500.00,11000.00,M,M,M,M,M,M,M,M,30.54,KTMT 140110Z AUTO 21013G19KT 10SM SCT045 SCT065 BKN110 04/00 A2958 RMK AO2 T00380001,M
BVU,2025-02-14 01:15,-114.8611,35.9475,671.00,51.80,42.80,71.26,160.00,19.00,0.00,29.87,M,10.00,25.00,OVC,M,M,M,2900.00,M,M,M,M,M,M,M,M,M,M,51.80,KBVU 140115Z AUTO 16019G25KT 10SM OVC029 11/06 A2987 RMK AO2,M
BAM,2025-02-14 01:15,-116.8743,40.5990,1382.36,39.20,35.60,86.79,100.00,3.00,0.00,29.57,M,10.00,M,CLR,M,M,M,M,M,M,M,M,M,M,M,M,M,M,36.92,KBAM 140115Z AUTO 10003KT 10SM CLR 04/02 A2957 RMK AO1,M
CXP,2025-02-14 01:15,-119.7326,39.1923,1431.00,39.20,32.00,75.16,170.00,10.00,0.00,29.53,M,10.00,21.00,BKN,BKN,OVC,M,2900.00,3700.00,5000.00,M,M,M,M,M,M,M,M,32.00,KCXP 140115Z AUTO 17010G21KT 10SM BKN029 BKN037 OVC050 04/00 A2953 RMK AO2,M
RTS,2025-02-14 01:15,-119.8764,39.6682,1539.00,33.80,33.80,100.00,140.00,11.00,0.00,29.49,M,10.00,M,FEW,BKN,BKN,M,2800.00,3900.00,4700.00,M,M,M,M,M,M,M,M,24.74,KRTS 140115Z AUTO 14011KT 10SM FEW028 BKN039 BKN047 01/01 A2949 RMK AO2,M
MEV,2025-02-14 01:15,-119.7500,38.9963,1441.42,39.20,33.80,80.79,M,6.00,0.00,29.53,M,10.00,M,SCT,BKN,OVC,M,3400.00,4400.00,6000.00,M,M,M,M,M,M,M,M,34.20,KMEV 140115Z AUTO VRB06KT 10SM SCT034 BKN044 OVC060 04/01 A2953 RMK AO2,M
EKO,2025-02-14 01:16,-115.7860,40.8242,1367.00,33.00,33.00,100.00,30.00,5.00,0.01,29.60,M,3.00,M,SCT,OVC,M,M,1000.00,1600.00,M,M,-SN BR,M,M,M,M,M,M,27.58,KEKO 140116Z AUTO 03005KT 3SM -SN BR SCT010 OVC016 01/01 A2960 RMK AO2 P0001 T00060006 $,M
10U,2025-02-14 01:20,-116.1876,41.9532,1637.00,37.40,32.00,80.65,200.00,11.00,0.00,29.54,M,10.00,18.00,SCT,SCT,OVC,M,3200.00,3800.00,4500.00,M,M,M,M,M,M,M,M,29.29,K10U 140120Z AUTO 20011G18KT 10SM SCT032 SCT038 OVC045 03/00 A2954 RMK AO2,M
EKO,2025-02-14 01:25,-115.7860,40.8242,1367.00,34.00,33.00,96.08,30.00,5.00,0.02,29.60,M,4.00,M,BKN,OVC,M,M,1000.00,1800.00,M,M,-SN BR,M,M,M,M,M,M,28.77,KEKO 140125Z AUTO 03005KT 4SM -SN BR BKN010 OVC018 01/01 A2960 RMK AO2 P0002 T00110006 $,M
LSV,2025-02-14 01:25,-115.0343,36.2362,570.00,51.80,44.60,76.34,200.00,8.00,0.00,29.82,1009.60,10.00,19.00,BKN,BKN,M,M,3200.00,4100.00,M,M,-RA,M,M,M,M,M,M,51.80,KLSV 140125Z 20008G19KT 10SM -RA BKN032 BKN041 11/07 A2982 RMK AO2A RAB0055E0059RAB25 SLP096 $,M
EKO,2025-02-14 01:28,-115.7860,40.8242,1367.00,34.00,33.00,96.08,30.00,6.00,0.02,29.60,M,4.00,M,SCT,OVC,M,M,800.00,1500.00,M,M,-SN BR,M,M,M,M,M,M,27.94,KEKO 140128Z AUTO 03006KT 4SM -SN BR SCT008 OVC015 01/01 A2960 RMK AO2 P0002 T00110006 $,M
VGT,2025-02-14 01:28,-115.1933,36.2111,667.00,47.00,30.00,51.39,330.00,3.00,0.02,29.85,M,6.00,M,SCT,OVC,M,M,1800.00,3400.00,M,M,-RA,M,M,M,M,M,M,45.84,KVGT 140128Z 33003KT 6SM -RA SCT018 OVC034 08/M01 A2985 RMK AO2 P0002 T00831011,M
INS,2025-02-14 01:30,-115.6733,36.5872,955.00,44.60,41.00,87.09,100.00,11.00,0.00,29.83,1009.20,9.00,M,BKN,BKN,M,M,400.00,3700.00,M,M,-RA,M,M,M,M,M,M,38.39,KINS 140130Z AUTO 10011KT 9SM -RA BKN004 BKN037 07/05 A2983 RMK AO2 BKN004 V SCT SLP092 $,M
TMT,2025-02-14 01:30,-117.1971,39.4643,1749.34,38.30,32.00,77.85,250.00,8.00,0.00,29.59,M,10.00,M,BKN,BKN,BKN,M,4700.00,7000.00,9500.00,M,M,M,M,M,M,M,M,31.87,KTMT 140130Z AUTO 25008KT 10SM BKN047 BKN070 BKN095 04/00 A2959 RMK AO2 T00350001,M
BVU,2025-02-14 01:35,-114.8611,35.9475,671.00,51.80,42.80,71.26,160.00,21.00,0.00,29.86,M,10.00,29.00,OVC,M,M,M,2900.00,M,M,M,M,M,M,M,M,M,M,51.80,KBVU 140135Z AUTO 16021G29KT 10SM OVC029 11/06 A2986 RMK AO2,M
BAM,2025-02-14 01:35,-116.8743,40.5990,1382.36,39.20,35.60,86.79,60.00,3.00,0.00,29.57,M,10.00,M,SCT,SCT,BKN,M,6500.00,8000.00,9000.00,M,M,M,M,M,M,M,M,36.92,KBAM 140135Z AUTO 06003KT 10SM SCT065 SCT080 BKN090 04/02 A2957 RMK AO1,M
CXP,2025-02-14 01:35,-119.7326,39.1923,1431.00,39.20,32.00,75.16,160.00,13.00,0.00,29.52,M,10.00,26.00,FEW,BKN,OVC,M,2900.00,3700.00,5000.00,M,M,M,M,M,M,M,M,30.79,KCXP 140135Z AUTO 16013G26KT 10SM FEW029 BKN037 OVC050 04/M00 A2952 RMK AO2,M
RTS,2025-02-14 01:35,-119.8764,39.6682,1539.00,33.80,33.80,100.00,110.00,9.00,0.00,29.49,M,10.00,M,SCT,BKN,OVC,M,1000.00,2200.00,4700.00,M,M,M,M,M,M,M,M,25.75,KRTS 140135Z AUTO 11009KT 10SM SCT010 BKN022 OVC047 01/01 A2949 RMK AO2,M
MEV,2025-02-14 01:35,-119.7500,38.9963,1441.42,41.00,32.00,70.08,M,6.00,0.00,29.52,M,10.00,11.00,SCT,BKN,OVC,M,3500.00,4600.00,5500.00,M,M,M,M,M,M,M,M,36.37,KMEV 140135Z AUTO VRB06G11KT 10SM SCT035 BKN046 OVC055 05/00 A2952 RMK AO2,M
10U,2025-02-14 01:40,-116.1876,41.9532,1637.00,37.40,32.00,80.65,210.00,9.00,0.00,29.54,M,10.00,M,BKN,BKN,OVC,M,4700.00,6500.00,7500.00,M,M,M,M,M,M,M,M,30.23,K10U 140140Z AUTO 21009KT 10SM BKN047 BKN065 OVC075 03/00 A2954 RMK AO2,M
EKO,2025-02-14 01:44,-115.7860,40.8242,1367.00,34.00,33.00,96.08,10.00,7.00,0.03,29.60,M,7.00,M,BKN,BKN,OVC,M,1000.00,1500.00,2000.00,M,-SN,M,M,M,M,M,M,27.22,KEKO 140144Z AUTO 01007KT 7SM -SN BKN010 BKN015 OVC020 01/01 A2960 RMK AO2 P0003 T00110006 $,M
EKO,2025-02-14 01:49,-115.7860,40.8242,1367.00,34.00,33.00,96.08,10.00,8.00,0.03,29.60,M,9.00,M,SCT,OVC,M,M,700.00,1500.00,M,M,M,M,M,M,M,M,M,26.58,KEKO 140149Z AUTO 01008KT 9SM SCT007 OVC015 01/01 A2960 RMK AO2 SNE49 P0003 T00110006 $,M
TMT,2025-02-14 01:50,-117.1971,39.4643,1749.34,37.00,32.00,81.93,240.00,6.00,0.00,29.59,M,10.00,M,BKN,BKN,OVC,M,4700.00,6500.00,10000.00,M,M,M,M,M,M,M,M,31.55,KTMT 140150Z AUTO 24006KT 10SM BKN047 BKN065 OVC100 03/00 A2959 RMK AO2 T00270001,M
P68,2025-02-14 01:53,-116.0056,39.6014,1993.00,37.00,32.00,81.93,130.00,8.00,0.00,29.60,1001.80,M,M,M,M,M,M,M,M,M,M,M,M,M,M,M,M,M,30.27,KP68 140153Z AUTO 13008KT 03/00 A2960 RMK AO1 SLP018 T00280000,M
DRA,2025-02-14 01:53,-116.0278,36.6206,1009.00,49.00,32.00,51.70,210.00,18.00,0.09,29.79,1007.90,10.00,34.00,BKN,OVC,M,M,7000.00,8500.00,M,M,M,M,M,M,36.00,190.00,2025-02-14 01:07,42.13,KDRA 140153Z AUTO 21018G34KT 10SM BKN070 OVC085 09/00 A2979 RMK AO2 PK WND 19036/0107 RAE26 SLP079 P0009 T00940000,M
ELY,2025-02-14 01:53,-114.8453,39.2950,1909.00,35.00,30.00,81.78,160.00,21.00,T,29.68,1004.70,10.00,32.00,FEW,BKN,OVC,M,1800.00,4300.00,6000.00,M,UP,M,M,M,41.00,140.00,2025-02-14 00:59,22.85,KELY 140153Z AUTO 16021G32KT 10SM UP FEW018 BKN043 OVC060 02/M01 A2968 RMK AO2 PK WND 14041/0059 UPE03B34 SLP047 P0000 T00171011,M
VGT,2025-02-14 01:53,-115.1933,36.2111,667.00,48.00,30.00,49.49,30.00,5.00,0.04,29.86,1013.20,6.00,M,BKN,OVC,M,M,1700.00,3100.00,M,M,-RA,M,M,M,M,M,M,45.40,KVGT 140153Z 03005KT 6SM -RA BKN017 OVC031 09/M01 A2986 RMK AO2 SLP132 P0004 T00891011,M
LOL,2025-02-14 01:53,-118.5701,40.0684,1192.43,43.00,35.00,73.16,210.00,14.00,0.00,29.52,1000.50,10.00,23.00,SCT,SCT,M,M,3500.00,6000.00,M,M,M,M,M,M,M,M,M,35.34,KLOL 140153Z AUTO 21014G23KT 10SM SCT035 SCT060 06/02 A2952 RMK AO2 SLP005 T00610017,M
BVU,2025-02-14 01:55,-114.8611,35.9475,671.00,51.80,42.80,71.26,160.00,9.00,0.00,29.87,M,10.00,17.00,OVC,M,M,M,2900.00,M,M,M,M,M,M,M,M,M,M,51.80,KBVU 140155Z AUTO 16009G17KT 10SM OVC029 11/06 A2987 RMK AO2,M
RNO,2025-02-14 01:55,-119.7711,39.4839,1341.00,41.00,32.00,70.08,180.00,18.00,T,29.47,997.50,10.00,28.00,BKN,BKN,M,M,7000.00,17000.00,M,M,M,M,M,M,28.00,180.00,2025-02-14 01:54,31.60,KRNO 140155Z 18018G28KT 10SM BKN070 BKN170 05/00 A2947 RMK AO2 PK WND 18028/0154 RAE12 SLP975 P0000 T00500000,M
BAM,2025-02-14 01:55,-116.8743,40.5990,1382.36,37.40,35.60,93.14,60.00,5.00,0.00,29.57,M,10.00,M,SCT,SCT,SCT,M,6500.00,8000.00,9000.00,M,M,M,M,M,M,M,M,32.81,KBAM 140155Z AUTO 06005KT 10SM SCT065 SCT080 SCT090 03/02 A2957 RMK AO1,M
CXP,2025-02-14 01:55,-119.7326,39.1923,1431.00,39.20,30.20,69.88,170.00,7.00,0.00,29.53,M,10.00,13.00,SCT,BKN,OVC,M,3200.00,3800.00,4800.00,M,-RA,M,M,M,M,M,M,33.56,KCXP 140155Z AUTO 17007G13KT 10SM -RA SCT032 BKN038 OVC048 04/M01 A2953 RMK AO2,M
RTS,2025-02-14 01:55,-119.8764,39.6682,1539.00,35.60,33.80,93.08,80.00,7.00,0.00,29.49,M,10.00,12.00,FEW,BKN,OVC,M,900.00,2000.00,5000.00,M,M,M,M,M,M,M,M,29.17,KRTS 140155Z AUTO 08007G12KT 040V110 10SM FEW009 BKN020 OVC050 02/01 A2949 RMK AO2,M
MEV,2025-02-14 01:55,-119.7500,38.9963,1441.42,39.20,30.20,69.88,150.00,14.00,0.00,29.51,M,10.00,M,FEW,BKN,OVC,M,3900.00,4600.00,7000.00,M,M,M,M,M,M,M,M,30.44,KMEV 140155Z AUTO 15014KT 10SM FEW039 BKN046 OVC070 04/M01 A2951 RMK AO2,M
INS,2025-02-14 01:55,-115.6733,36.5872,955.00,45.30,42.30,89.16,110.00,21.00,0.06,29.83,1009.20,4.00,M,OVC,M,M,M,400.00,M,M,M,-RA,M,M,M,M,M,M,36.59,KINS 140155Z AUTO 11021KT 4SM -RA OVC004 07/06 A2983 RMK AO2 OVC V BKN SLP092 P0006 T00740057 $,M
LSV,2025-02-14 01:55,-115.0343,36.2362,570.00,52.00,44.40,75.20,190.00,11.00,0.01,29.83,1010.00,10.00,M,FEW,BKN,M,M,2700.00,3700.00,M,M,-RA,M,M,M,27.00,190.00,2025-02-14 01:02,52.00,KLSV 140155Z 19011KT 10SM -RA FEW027 BKN037 11/07 A2983 RMK AO2A PK WND 19027/02 RAE0059RAB25 SLP100 P0001 T01120069 $,M
EKO,2025-02-14 01:56,-115.7860,40.8242,1367.00,34.00,33.00,96.08,20.00,6.00,0.03,29.60,1004.20,10.00,M,FEW,OVC,M,M,700.00,1500.00,M,M,M,M,M,M,M,M,M,27.94,KEKO 140156Z AUTO 02006KT 10SM FEW007 OVC015 01/01 A2960 RMK AO2 SNE49 SLP042 P0003 T00110006 $,M
WMC,2025-02-14 01:56,-117.8072,40.9019,1315.00,38.00,35.00,88.83,170.00,6.00,T,29.51,1000.30,10.00,M,FEW,SCT,BKN,M,4200.00,5500.00,6500.00,M,M,M,M,M,M,M,M,32.76,KWMC 140156Z AUTO 17006KT 10SM FEW042 SCT055 BKN065 03/02 A2951 RMK AO2 UPE04RAB04E33 SLP003 P0000 T00330017,M
HND,2025-02-14 01:56,-115.1344,35.9729,742.79,49.00,44.00,82.79,160.00,15.00,0.01,29.85,1012.90,10.00,23.00,OVC,M,M,M,5000.00,M,M,M,-RA,M,M,M,27.00,160.00,2025-02-14 01:42,42.82,KHND 140156Z 16015G23KT 10SM -RA OVC050 09/07 A2985 RMK AO2 PK WND 16027/0142 RAB0059 SLP129 P0001 T00940067 $,M
TPH,2025-02-14 01:56,-117.0904,38.0505,1654.00,39.00,31.00,72.75,170.00,10.00,T,29.67,1004.60,10.00,M,FEW,OVC,M,M,900.00,1500.00,M,M,-RA,M,M,M,29.00,200.00,2025-02-14 00:58,31.75,KTPH 140156Z AUTO 17010KT 10SM -RA FEW009 OVC015 04/M01 A2967 RMK AO2 PK WND 20029/0058 RAB53 SLP046 P0000 T00391006,M
LAS,2025-02-14 01:56,-115.1634,36.0719,663.00,51.00,45.00,79.84,160.00,10.00,0.04,29.86,1011.00,8.00,21.00,BKN,OVC,M,M,4000.00,5000.00,M,M,-RA,M,M,M,M,M,M,51.00,KLAS 140156Z 16010G21KT 8SM -RA BKN040 OVC050 11/07 A2986 RMK AO2 SLP110 P0004 T01060072,M
NFL,2025-02-14 01:57,-118.7010,39.4166,1199.00,43.00,36.00,76.12,190.00,14.00,0.02,29.55,999.40,10.00,M,FEW,SCT,BKN,BKN,2000.00,4000.00,9000.00,15000.00,M,M,M,M,28.00,200.00,2025-02-14 01:04,35.34,KNFL 140157Z 19014KT 10SM FEW020 SCT040 BKN090 BKN150 06/02 A2955 RMK AO2 PK WND 20028/0104 RAE32 SLP994 P0002 T00610022,M
10U,2025-02-14 02:00,-116.1876,41.9532,1637.00,35.60,32.00,86.59,200.00,7.00,0.00,29.54,M,10.00,M,FEW,OVC,M,M,5000.00,6500.00,M,M,M,M,M,M,M,M,M,29.17,K10U 140200Z AUTO 20007KT 10SM FEW050 OVC065 02/M00 A2954 RMK AO2,M
TPH,2025-02-14 02:03,-117.0904,38.0505,1654.00,39.00,31.00,72.75,170.00,11.00,T,29.67,M,10.00,M,OVC,M,M,M,1300.00,M,M,M,M,M,M,M,M,M,M,31.31,KTPH 140203Z AUTO 17011KT 10SM OVC013 04/M01 A2967 RMK AO2 RAE02 P0000 T00391006,M
RTS,2025-02-14 02:05,-119.8764,39.6682,1539.00,35.60,32.00,86.59,130.00,9.00,0.00,29.51,M,10.00,M,FEW,SCT,BKN,M,900.00,2000.00,3600.00,M,M,M,M,M,M,M,M,27.99,KRTS 140205Z AUTO 13009KT 100V160 10SM FEW009 SCT020 BKN036 02/00 A2951 RMK AO2,M
EKO,2025-02-14 02:09,-115.7860,40.8242,1367.00,34.00,33.00,96.08,20.00,4.00,0.00,29.60,M,10.00,M,BKN,OVC,M,M,1300.00,2700.00,M,M,M,M,M,M,M,M,M,29.76,KEKO 140209Z AUTO 02004KT 10SM BKN013 OVC027 01/01 A2960 RMK AO2 T00110006 $,M
TMT,2025-02-14 02:10,-117.1971,39.4643,1749.34,37.80,32.40,80.68,220.00,12.00,0.00,29.61,M,10.00,15.00,SCT,BKN,OVC,M,3700.00,4800.00,6500.00,M,M,M,M,M,M,M,M,29.38,KTMT 140210Z AUTO 22012G15KT 10SM SCT037 BKN048 OVC065 03/00 A2961 RMK AO2 T00320002,M
BVU,2025-02-14 02:15,-114.8611,35.9475,671.00,51.80,42.80,71.26,170.00,13.00,0.00,29.87,M,10.00,M,OVC,M,M,M,3100.00,M,M,M,M,M,M,M,M,M,M,51.80,KBVU 140215Z AUTO 17013KT 10SM OVC031 11/06 A2987 RMK AO2,M
BAM,2025-02-14 02:15,-116.8743,40.5990,1382.36,37.40,35.60,93.14,50.00,3.00,0.00,29.57,M,10.00,M,SCT,BKN,BKN,M,4900.00,5500.00,8000.00,M,M,M,M,M,M,M,M,34.86,KBAM 140215Z AUTO 05003KT 10SM SCT049 BKN055 BKN080 03/02 A2957 RMK AO1,M
CXP,2025-02-14 02:15,-119.7326,39.1923,1431.00,41.00,30.20,65.16,200.00,8.00,0.00,29.53,M,10.00,15.00,FEW,BKN,OVC,M,2900.00,3700.00,4400.00,M,M,M,M,M,M,M,M,35.20,KCXP 140215Z AUTO 20008G15KT 10SM FEW029 BKN037 OVC044 05/M01 A2953 RMK AO2,M
MEV,2025-02-14 02:15,-119.7500,38.9963,1441.42,41.00,30.20,65.16,150.00,14.00,0.00,29.52,M,10.00,23.00,FEW,BKN,OVC,M,4400.00,5000.00,7000.00,M,M,M,M,M,M,M,M,32.76,KMEV 140215Z AUTO 15014G23KT 10SM FEW044 BKN050 OVC070 05/M01 A2952 RMK AO2,M
INS,2025-02-14 02:20,-115.6733,36.5872,955.00,46.40,42.80,87.19,120.00,8.00,0.00,29.83,1009.00,6.00,M,SCT,BKN,M,M,400.00,3600.00,M,M,-RA,M,M,M,M,M,M,41.85,KINS 140220Z AUTO 12008KT 6SM -RA SCT004 BKN036 08/06 A2983 RMK AO2 SLP090 $,M
10U,2025-02-14 02:20,-116.1876,41.9532,1637.00,35.60,32.00,86.59,200.00,7.00,0.00,29.55,M,10.00,M,BKN,OVC,M,M,6500.00,7000.00,M,M,M,M,M,M,M,M,M,29.17,K10U 140220Z AUTO 20007KT 10SM BKN065 OVC070 02/M00 A2955 RMK AO2,M
EKO,2025-02-14 02:24,-115.7860,40.8242,1367.00,34.00,33.00,96.08,M,4.00,0.00,29.61,M,10.00,M,SCT,SCT,OVC,M,1200.00,2000.00,2700.00,M,M,M,M,M,M,M,M,29.76,KEKO 140224Z AUTO VRB04KT 10SM SCT012 SCT020 OVC027 01/01 A2961 RMK AO2 T00110006 $,M
RTS,2025-02-14 02:25,-119.8764,39.6682,1539.00,35.60,32.00,86.59,170.00,11.00,0.00,29.51,M,6.00,21.00,SCT,BKN,OVC,M,1200.00,2200.00,5000.00,M,-RA,M,M,M,M,M,M,27.02,KRTS 140225Z AUTO 17011G21KT 6SM -RA SCT012 BKN022 OVC050 02/00 A2951 RMK AO2,M
MEV,2025-02-14 02:25,-119.7500,38.9963,1441.42,41.00,30.20,65.16,150.00,16.00,0.00,29.53,M,10.00,24.00,SCT,OVC,M,M,4700.00,5500.00,M,M,M,M,M,M,M,M,M,32.15,KMEV 140225Z AUTO 15016G24KT 10SM SCT047 OVC055 05/M01 A2953 RMK AO2,M
TPH,2025-02-14 02:27,-117.0904,38.0505,1654.00,40.00,31.00,69.97,180.00,18.00,T,29.66,M,10.00,25.00,BKN,BKN,OVC,M,1500.00,2200.00,2900.00,M,M,M,M,M,M,M,M,30.28,KTPH 140227Z AUTO 18018G25KT 10SM BKN015 BKN022 OVC029 04/M01 A2966 RMK AO2 RAE02 P0000 T00441006,M
TMT,2025-02-14 02:30,-117.1971,39.4643,1749.34,38.70,32.00,76.64,220.00,18.00,0.00,29.62,M,10.00,29.00,SCT,BKN,OVC,M,2400.00,3300.00,4700.00,M,-RA,M,M,M,M,M,M,28.57,KTMT 140230Z AUTO 22018G29KT 10SM -RA SCT024 BKN033 OVC047 04/00 A2962 RMK AO2 T00370000,M
BVU,2025-02-14 02:35,-114.8611,35.9475,671.00,51.80,42.80,71.26,180.00,11.00,0.00,29.87,M,10.00,20.00,OVC,M,M,M,3300.00,M,M,M,M,M,M,M,M,M,M,51.80,KBVU 140235Z AUTO 18011G20KT 10SM OVC033 11/06 A2987 RMK AO2,M
BAM,2025-02-14 02:35,-116.8743,40.5990,1382.36,37.40,35.60,93.14,0.00,0.00,0.00,29.58,M,10.00,M,BKN,OVC,M,M,4000.00,5500.00,M,M,M,M,M,M,M,M,M,37.40,KBAM 140235Z AUTO 00000KT 10SM BKN040 OVC055 03/02 A2958 RMK AO1,M
CXP,2025-02-14 02:35,-119.7326,39.1923,1431.00,41.00,30.20,65.16,0.00,0.00,0.00,29.56,M,10.00,M,FEW,OVC,M,M,2700.00,4000.00,M,M,M,M,M,M,M,M,M,41.00,KCXP 140235Z AUTO 00000KT 10SM FEW027 OVC040 05/M01 A2956 RMK AO2,M
RNO,2025-02-14 02:36,-119.7711,39.4839,1341.00,40.00,33.00,75.84,190.00,17.00,0.01,29.50,M,8.00,25.00,BKN,BKN,M,M,4000.00,16000.00,M,M,-RA,M,M,M,27.00,190.00,2025-02-14 02:18,30.56,KRNO 140236Z 19017G25KT 8SM -RA BKN040 BKN160 04/01 A2950 RMK AO2 PK WND 19027/0218 WSHFT 0216 RAB16 P0001 T00440006,M
LSV,2025-02-14 02:38,-115.0343,36.2362,570.00,51.80,44.60,76.34,190.00,8.00,0.00,29.85,1010.60,10.00,M,FEW,BKN,M,M,2500.00,3600.00,M,M,M,M,M,M,M,M,M,51.80,KLSV 140238Z AUTO 19008KT 10SM FEW025 BKN036 11/07 A2985 RMK AO2 RAE38 SLP106 $,M
10U,2025-02-14 02:40,-116.1876,41.9532,1637.00,35.60,32.00,86.59,170.00,5.00,0.00,29.54,M,10.00,M,SCT,BKN,M,M,6000.00,12000.00,M,M,M,M,M,M,M,M,M,30.67,K10U 140240Z AUTO 17005KT 10SM SCT060 BKN120 02/M00 A2954 RMK AO2,M
LSV,2025-02-14 02:43,-115.0343,36.2362,570.00,51.80,44.60,76.34,200.00,7.00,0.00,29.85,1010.60,10.00,M,FEW,BKN,M,M,2500.00,3600.00,M,M,-RA,M,M,M,M,M,M,51.80,KLSV 140243Z AUTO 20007KT 10SM -RA FEW025 BKN036 11/07 A2985 RMK AO2 RAB0155E38RAB43 SLP106 $,M
TMT,2025-02-14 02:50,-117.1971,39.4643,1749.34,38.00,32.00,78.77,230.00,13.00,0.00,29.63,M,10.00,M,SCT,BKN,OVC,M,2400.00,4100.00,5000.00,M,M,M,M,M,M,M,M,29.26,KTMT 140250Z AUTO 23013KT 10SM SCT024 BKN041 OVC050 03/00 A2963 RMK AO2 T00330000,M
P68,2025-02-14 02:53,-116.0056,39.6014,1993.00,39.00,32.00,75.75,110.00,15.00,0.00,29.61,1001.40,M,21.00,M,M,M,M,M,M,M,M,M,M,M,M,M,M,M,29.85,KP68 140253Z AUTO 11015G21KT 04/00 A2961 RMK AO1 SLP014 T00390000 51007,M
DRA,2025-02-14 02:53,-116.0278,36.6206,1009.00,48.00,32.00,53.67,190.00,21.00,T,29.78,1007.70,10.00,33.00,FEW,SCT,BKN,M,5500.00,7000.00,10000.00,M,M,M,M,M,43.00,230.00,2025-02-14 02:02,40.19,KDRA 140253Z AUTO 19021G33KT 10SM FEW055 SCT070 BKN100 09/00 A2978 RMK AO2 PK WND 23043/0202 RAB10E43 SLP077 P0000 60024 T00890000 50005,M
ELY,2025-02-14 02:53,-114.8453,39.2950,1909.00,34.00,31.00,88.63,150.00,21.00,T,29.67,1005.10,10.00,37.00,BKN,OVC,M,M,4000.00,4900.00,M,M,-RA,M,M,M,37.00,140.00,2025-02-14 02:47,21.52,KELY 140253Z AUTO 15021G37KT 10SM -RA BKN040 OVC049 01/M01 A2967 RMK AO2 PK WND 14037/0247 UPE08B30E49RAB49SNB08E30 SLP051 P0000 60000 T00111006 50002,M
VGT,2025-02-14 02:53,-115.1933,36.2111,667.00,48.00,30.00,49.49,0.00,0.00,0.10,29.88,1014.10,3.00,M,SCT,BKN,OVC,M,2400.00,2900.00,3900.00,M,RA,M,M,M,M,M,M,48.00,KVGT 140253Z 00000KT 3SM RA SCT024 BKN029 OVC039 09/M01 A2988 RMK AO2 SLP141 P0010 60015 T00891011 53009,M
LOL,2025-02-14 02:53,-118.5701,40.0684,1192.43,41.00,34.00,75.94,230.00,10.00,0.00,29.54,1001.40,10.00,M,FEW,M,M,M,3800.00,M,M,M,M,M,M,M,M,M,M,34.25,KLOL 140253Z AUTO 23010KT 10SM FEW038 05/01 A2954 RMK AO2 SLP014 60000 T00500011 53007,M
EKO,2025-02-14 02:54,-115.7860,40.8242,1367.00,35.60,33.80,93.08,280.00,7.00,M,29.61,M,10.00,M,BKN,BKN,OVC,M,1200.00,2201.00,2900.00,M,M,M,M,M,M,M,M,29.17,SPECI KEKO 140254Z 28007KT 10SM BKN012 BKN022 OVC029 02/01 A2961 RMK AO2 $ FIBI,M
BVU,2025-02-14 02:55,-114.8611,35.9475,671.00,51.80,42.80,71.26,190.00,10.00,0.00,29.88,M,10.00,M,BKN,OVC,M,M,3300.00,3900.00,M,M,M,M,M,M,M,M,M,51.80,KBVU 140255Z AUTO 19010KT 10SM BKN033 OVC039 11/06 A2988 RMK AO2,M
RNO,2025-02-14 02:55,-119.7711,39.4839,1341.00,40.00,34.00,78.94,180.00,21.00,0.02,29.51,998.70,10.00,32.00,BKN,OVC,M,M,4000.00,7000.00,M,M,-RA,M,M,M,32.00,190.00,2025-02-14 02:52,29.52,KRNO 140255Z 18021G32KT 10SM -RA BKN040 OVC070 04/01 A2951 RMK AO2 PK WND 19032/0252 WSHFT 0216 RAB16 SLP987 P0002 60004 T00440011 53000,M
BAM,2025-02-14 02:55,-116.8743,40.5990,1382.36,37.40,35.60,93.14,0.00,0.00,0.00,29.59,M,10.00,M,BKN,BKN,OVC,M,3700.00,4500.00,7000.00,M,M,M,M,M,M,M,M,37.40,KBAM 140255Z AUTO 00000KT 10SM BKN037 BKN045 OVC070 03/02 A2959 RMK AO1,M
CXP,2025-02-14 02:55,-119.7326,39.1923,1431.00,39.20,33.80,80.79,180.00,12.00,0.03,29.57,M,3.00,20.00,BKN,BKN,OVC,M,1400.00,1800.00,4200.00,M,RA HZ,M,M,M,M,M,M,31.17,KCXP 140255Z AUTO 18012G20KT 3SM RA HZ BKN014 BKN018 OVC042 04/01 A2957 RMK AO2 P0003,M
RTS,2025-02-14 02:55,-119.8764,39.6682,1539.00,33.80,33.80,100.00,160.00,10.00,0.06,29.53,M,6.00,M,SCT,BKN,OVC,M,1000.00,2300.00,3700.00,M,-RA,M,M,M,M,M,M,25.23,KRTS 140255Z AUTO 16010KT 6SM -RA SCT010 BKN023 OVC037 01/01 A2953 RMK AO2 P0006,M
MEV,2025-02-14 02:55,-119.7500,38.9963,1441.42,39.20,33.80,80.79,190.00,14.00,0.02,29.56,M,4.00,20.00,BKN,BKN,OVC,M,1300.00,2400.00,3800.00,M,HZ,M,M,M,M,M,M,30.44,KMEV 140255Z AUTO 19014G20KT 4SM HZ BKN013 BKN024 OVC038 04/01 A2956 RMK AO2 P0002,M
INS,2025-02-14 02:55,-115.6733,36.5872,955.00,45.50,42.40,88.83,90.00,12.00,0.10,29.83,1009.20,10.00,M,FEW,FEW,SCT,SCT,400.00,1600.00,3000.00,3600.00,-RA,M,M,M,M,M,M,39.18,KINS 140255Z AUTO 09012KT 10SM -RA FEW004 FEW016 SCT030 SCT036 08/06 A2983 RMK AO2 SLP092 P0010 60017 T00750058 51018 $,M
LSV,2025-02-14 02:55,-115.0343,36.2362,570.00,51.30,45.70,81.08,220.00,5.00,0.04,29.85,1010.60,10.00,M,BKN,M,M,M,3500.00,M,M,M,-RA,M,M,M,M,M,M,51.30,KLSV 140255Z AUTO 22005KT 10SM -RA BKN035 11/08 A2985 RMK AO2 RAE38RAB43 SLP106 P0004 60005 T01070076 53010 $,M
EKO,2025-02-14 02:56,-115.7860,40.8242,1367.00,36.00,34.00,92.35,290.00,7.00,0.00,29.60,1004.20,10.00,M,BKN,BKN,OVC,M,1200.00,2200.00,2900.00,M,M,M,M,M,M,M,M,29.65,KEKO 140256Z AUTO 29007KT 10SM BKN012 BKN022 OVC029 02/01 A2960 RMK AO2 SLP042 60013 T00220011 51001 $,M
WMC,2025-02-14 02:56,-117.8072,40.9019,1315.00,39.00,36.00,88.87,180.00,13.00,T,29.52,1000.30,10.00,19.00,FEW,FEW,BKN,M,2500.00,3600.00,7000.00,M,M,M,M,M,M,M,M,30.54,KWMC 140256Z AUTO 18013G19KT 10SM FEW025 FEW036 BKN070 04/02 A2952 RMK AO2 RAB16E27 SLP003 P0000 60000 T00390022 51002,M
HND,2025-02-14 02:56,-115.1344,35.9729,742.79,49.00,44.00,82.79,160.00,13.00,0.01,29.89,1014.20,10.00,22.00,BKN,OVC,M,M,3400.00,4300.00,M,M,-RA,M,M,M,M,M,M,43.35,KHND 140256Z 16013G22KT 10SM -RA BKN034 OVC043 09/07 A2989 RMK AO2 SLP142 P0001 60002 T00940067 53013 $,M
TPH,2025-02-14 02:56,-117.0904,38.0505,1654.00,39.00,31.00,72.75,180.00,18.00,T,29.66,1004.30,10.00,27.00,OVC,M,M,M,2900.00,M,M,M,M,M,M,M,27.00,180.00,2025-02-14 02:51,28.96,KTPH 140256Z AUTO 18018G27KT 10SM OVC029 04/M01 A2966 RMK AO2 PK WND 18027/0251 RAE02 SLP043 P0000 60000 T00391006 50003,M
LAS,2025-02-14 02:56,-115.1634,36.0719,663.00,48.00,46.00,92.74,0.00,0.00,0.12,29.89,1012.50,5.00,M,BKN,OVC,M,M,3000.00,3500.00,M,M,RA BR,M,M,M,M,M,M,48.00,KLAS 140256Z 00000KT 5SM RA BR BKN030 OVC035 09/08 A2989 RMK AO2 SLP125 P0012 60016 T00890078 53013,M
NFL,2025-02-14 02:57,-118.7010,39.4166,1199.00,41.00,36.00,82.22,160.00,21.00,0.00,29.54,999.00,10.00,28.00,FEW,SCT,SCT,M,4000.00,9000.00,18000.00,M,M,M,M,M,28.00,150.00,2025-02-14 02:57,30.86,KNFL 140257Z 16021G28KT 10SM FEW040 SCT090 SCT180 05/02 A2954 RMK AO2 PK WND 15028/0257 SLP990 60002 T00500022 50006,M
10U,2025-02-14 03:00,-116.1876,41.9532,1637.00,35.60,32.00,86.59,180.00,4.00,0.00,29.54,M,10.00,M,SCT,SCT,M,M,10000.00,12000.00,M,M,M,M,M,M,M,M,M,31.62,K10U 140300Z AUTO 18004KT 10SM SCT100 SCT120 02/M00 A2954 RMK AO2,M
VGT,2025-02-14 03:03,-115.1933,36.2111,667.00,48.00,30.00,49.49,290.00,3.00,0.03,29.89,M,3.00,M,FEW,SCT,OVC,M,2400.00,3100.00,4500.00,M,RA,M,M,M,M,M,M,46.98,KVGT 140303Z 29003KT 3SM RA FEW024 SCT031 OVC045 09/M01 A2989 RMK AO2 P0003 T00891011,M
LSV,2025-02-14 03:05,-115.0343,36.2362,570.00,51.80,46.40,81.74,220.00,5.00,0.00,29.86,1011.00,10.00,M,FEW,M,M,M,3500.00,M,M,M,-RA,M,M,M,M,M,M,51.80,KLSV 140305Z AUTO 22005KT 10SM -RA FEW035 11/08 A2986 RMK AO2 SLP110 $,M
TMT,2025-02-14 03:10,-117.1971,39.4643,1749.34,36.50,32.00,83.56,220.00,13.00,0.00,29.65,M,10.00,22.00,SCT,BKN,OVC,M,1700.00,2600.00,4900.00,M,-RA,M,M,M,M,M,M,27.33,KTMT 140310Z AUTO 22013G22KT 10SM -RA SCT017 BKN026 OVC049 03/00 A2965 RMK AO2 T00250000,M
TPH,2025-02-14 03:11,-117.0904,38.0505,1654.00,39.00,31.00,72.75,180.00,17.00,0.00,29.68,M,10.00,26.00,BKN,M,M,M,3200.00,M,M,M,M,M,M,M,26.00,180.00,2025-02-14 03:06,29.25,KTPH 140311Z AUTO 18017G26KT 10SM BKN032 04/M01 A2968 RMK AO2 PK WND 18026/0306 T00391006,M
HND,2025-02-14 03:13,-115.1344,35.9729,742.79,48.20,44.60,87.28,200.00,9.00,0.03,29.91,M,9.00,M,BKN,BKN,OVC,M,2100.00,2800.00,3300.00,M,RA,M,M,M,M,M,M,43.66,KHND 140313Z 20009KT 9SM RA BKN021 BKN028 OVC033 09/07 A2991 RMK AO2 PRESRR P0003 $,M
BVU,2025-02-14 03:15,-114.8611,35.9475,671.00,51.80,42.80,71.26,180.00,11.00,0.00,29.89,M,10.00,M,BKN,OVC,M,M,3100.00,3800.00,M,M,M,M,M,M,M,M,M,51.80,KBVU 140315Z AUTO 18011KT 10SM BKN031 OVC038 11/06 A2989 RMK AO2,M
EKO,2025-02-14 03:15,-115.7860,40.8242,1367.00,36.00,34.00,92.35,260.00,4.00,0.00,29.60,M,10.00,M,SCT,BKN,OVC,M,1100.00,3300.00,4800.00,M,M,M,M,M,M,M,M,32.09,KEKO 140315Z AUTO 26004KT 10SM SCT011 BKN033 OVC048 02/01 A2960 RMK AO2 T00220011 $,M
BAM,2025-02-14 03:15,-116.8743,40.5990,1382.36,35.60,35.60,100.00,70.00,4.00,0.00,29.59,M,10.00,M,BKN,BKN,BKN,M,3700.00,7000.00,8500.00,M,M,M,M,M,M,M,M,31.62,KBAM 140315Z AUTO 07004KT 10SM BKN037 BKN070 BKN085 02/02 A2959 RMK AO1,M
CXP,2025-02-14 03:15,-119.7326,39.1923,1431.00,37.40,33.80,86.69,170.00,13.00,0.00,29.57,M,3.00,M,BKN,BKN,M,M,1300.00,1800.00,M,M,-RA BR,M,M,M,M,M,M,28.49,KCXP 140315Z AUTO 17013KT 3SM -RA BR BKN013 BKN018 03/01 A2957 RMK AO2,M
RTS,2025-02-14 03:15,-119.8764,39.6682,1539.00,33.80,33.80,100.00,M,5.00,0.00,29.54,M,8.00,M,SCT,BKN,BKN,M,900.00,1700.00,2200.00,M,-RA,M,M,M,M,M,M,28.53,KRTS 140315Z AUTO VRB05KT 8SM -RA SCT009 BKN017 BKN022 01/01 A2954 RMK AO2,M
MEV,2025-02-14 03:15,-119.7500,38.9963,1441.42,39.20,35.60,86.79,170.00,15.00,0.00,29.57,M,8.00,M,BKN,OVC,M,M,1400.00,2100.00,M,M,VCTS RA,M,M,M,M,M,M,30.11,KMEV 140315Z AUTO 17015KT 8SM VCTS RA BKN014 OVC021 04/02 A2957 RMK AO2 LTG DSNT ALQDS,M
INS,2025-02-14 03:19,-115.6733,36.5872,955.00,46.40,42.80,87.19,120.00,13.00,0.00,29.83,1009.20,10.00,M,BKN,OVC,M,M,5000.00,6500.00,M,M,M,M,M,M,M,M,M,40.02,KINS 140319Z AUTO 12013KT 10SM BKN050 OVC065 08/06 A2983 RMK AO2 RAE01DZB01E04RAB04E19 SLP092 $,M
VGT,2025-02-14 03:20,-115.1933,36.2111,667.00,47.00,30.00,51.39,310.00,4.00,0.06,29.91,M,2.50,M,FEW,FEW,OVC,M,1400.00,2600.00,4200.00,M,RA,M,M,M,M,M,M,44.94,KVGT 140320Z 31004KT 2 1/2SM RA FEW014 FEW026 OVC042 08/M01 A2991 RMK AO2 P0006 T00831011,M
10U,2025-02-14 03:20,-116.1876,41.9532,1637.00,37.40,32.00,80.65,160.00,11.00,0.00,29.54,M,10.00,M,FEW,SCT,BKN,M,7000.00,9500.00,12000.00,M,M,M,M,M,M,M,M,29.29,K10U 140320Z AUTO 16011KT 10SM FEW070 SCT095 BKN120 03/M00 A2954 RMK AO2,M
LAS,2025-02-14 03:23,-115.1634,36.0719,663.00,48.00,46.00,92.74,310.00,11.00,0.11,29.92,M,6.00,M,SCT,BKN,OVC,M,2000.00,2700.00,3900.00,M,+RA BR,M,M,M,M,M,M,42.69,KLAS 140323Z 31011KT 6SM +RA BR SCT020 BKN027 OVC039 09/08 A2992 RMK AO2 P0011 T00890078,M
TMT,2025-02-14 03:30,-117.1971,39.4643,1749.34,35.00,32.70,91.22,230.00,14.00,0.00,29.68,M,7.00,18.00,SCT,BKN,OVC,M,1500.00,2300.00,2800.00,M,-RA,M,M,M,M,M,M,25.03,KTMT 140330Z AUTO 23014G18KT 7SM -RA SCT015 BKN023 OVC028 02/00 A2968 RMK AO2 T00170004,M
ELY,2025-02-14 03:33,-114.8453,39.2950,1909.00,36.00,30.00,78.60,140.00,22.00,T,29.68,M,10.00,36.00,BKN,OVC,M,M,2200.00,3700.00,M,M,M,M,M,M,37.00,150.00,2025-02-14 03:07,23.93,KELY 140333Z AUTO 14022G36KT 10SM BKN022 OVC037 02/M01 A2968 RMK AO2 PK WND 15037/0307 RAE0254 P0000 T00221011,M
VGT,2025-02-14 03:34,-115.1933,36.2111,667.00,47.00,30.00,51.39,0.00,0.00,0.06,29.91,M,3.00,M,FEW,OVC,M,M,2200.00,4600.00,M,M,RA,M,M,M,M,M,M,47.00,KVGT 140334Z 00000KT 3SM RA FEW022 OVC046 08/M01 A2991 RMK AO2 P0006 T00831011,M
BVU,2025-02-14 03:35,-114.8611,35.9475,671.00,51.80,42.80,71.26,200.00,12.00,0.00,29.91,M,10.00,M,OVC,M,M,M,3100.00,M,M,M,M,M,M,M,M,M,M,51.80,KBVU 140335Z AUTO 20012KT 10SM OVC031 11/06 A2991 RMK AO2,M
BAM,2025-02-14 03:35,-116.8743,40.5990,1382.36,35.60,35.60,100.00,50.00,5.00,0.00,29.59,M,10.00,M,SCT,SCT,BKN,M,3500.00,6500.00,11000.00,M,M,M,M,M,M,M,M,30.67,KBAM 140335Z AUTO 05005KT 10SM SCT035 SCT065 BKN110 02/02 A2959 RMK AO1,M
CXP,2025-02-14 03:35,-119.7326,39.1923,1431.00,37.40,33.80,86.69,160.00,7.00,0.00,29.58,M,5.00,14.00,SCT,BKN,BKN,M,1400.00,1800.00,3200.00,M,UP BR,M,M,M,M,M,M,31.36,KCXP 140335Z AUTO 16007G14KT 5SM UP BR SCT014 BKN018 BKN032 03/01 A2958 RMK AO2,M
RTS,2025-02-14 03:35,-119.8764,39.6682,1539.00,33.80,33.80,100.00,0.00,0.00,0.00,29.54,M,5.00,M,BKN,BKN,BKN,M,800.00,1500.00,2100.00,M,-RA,M,M,M,M,M,M,33.80,KRTS 140335Z AUTO 00000KT 5SM -RA BKN008 BKN015 BKN021 01/01 A2954 RMK AO2,M
MEV,2025-02-14 03:35,-119.7500,38.9963,1441.42,37.40,35.60,93.14,140.00,8.00,0.00,29.58,M,4.00,14.00,FEW,BKN,OVC,M,400.00,1500.00,2400.00,M,-RA BR,M,M,M,M,M,M,30.76,KMEV 140335Z AUTO 14008G14KT 4SM -RA BR FEW004 BKN015 OVC024 03/02 A2958 RMK AO2,M
INS,2025-02-14 03:39,-115.6733,36.5872,955.00,46.40,42.80,87.19,100.00,14.00,0.00,29.80,1008.00,10.00,30.00,FEW,SCT,BKN,OVC,4400.00,6000.00,7000.00,17000.00,M,M,M,M,M,M,M,39.72,KINS 140339Z AUTO 10014G30KT 10SM FEW044 SCT060 BKN070 OVC170 08/06 A2980 RMK AO2 WSHFT 36 RAB0255E01DZB01E04RAB04E19 PRESFR SLP080 $,M
10U,2025-02-14 03:40,-116.1876,41.9532,1637.00,37.40,32.00,80.65,170.00,10.00,0.00,29.54,M,10.00,M,FEW,FEW,OVC,M,7000.00,8000.00,11000.00,M,M,M,M,M,M,M,M,29.74,K10U 140340Z AUTO 17010KT 10SM FEW070 FEW080 OVC110 03/M00 A2954 RMK AO2,M
LSV,2025-02-14 03:42,-115.0343,36.2362,570.00,50.00,46.40,87.37,230.00,3.00,0.00,29.89,1012.10,7.00,M,CLR,M,M,M,M,M,M,M,M,M,M,M,M,M,M,50.00,KLSV 140342Z AUTO 23003KT 7SM CLR 10/08 A2989 RMK AO2 RAE42 SLP121 $,M
LSV,2025-02-14 03:43,-115.0343,36.2362,570.00,50.00,46.40,87.37,230.00,3.00,0.00,29.89,1012.10,8.00,M,CLR,M,M,M,M,M,M,M,-RA,M,M,M,M,M,M,50.00,KLSV 140343Z AUTO 23003KT 8SM -RA CLR 10/08 A2989 RMK AO2 RAB0255E42RAB43 SLP121 $,M
ELY,2025-02-14 03:46,-114.8453,39.2950,1909.00,36.00,30.00,78.60,140.00,26.00,T,29.68,M,10.00,37.00,SCT,OVC,M,M,2400.00,3700.00,M,M,M,M,M,M,37.00,150.00,2025-02-14 03:07,23.01,KELY 140346Z AUTO 14026G37KT 10SM SCT024 OVC037 02/M01 A2968 RMK AO2 PK WND 15037/0307 RAE0254 P0000 T00221011,M
LSV,2025-02-14 03:49,-115.0343,36.2362,570.00,50.00,46.40,87.37,190.00,3.00,0.00,29.89,1012.10,10.00,M,CLR,M,M,M,M,M,M,M,M,M,M,M,M,M,M,50.00,KLSV 140349Z AUTO 19003KT 10SM CLR 10/08 A2989 RMK AO2 RAE42RAB43E49 SLP121 $,M
TMT,2025-02-14 03:50,-117.1971,39.4643,1749.34,32.70,32.00,97.22,220.00,11.00,0.00,29.68,M,4.00,M,BKN,OVC,M,M,1100.00,2000.00,M,M,-SN,M,M,M,M,M,M,23.35,KTMT 140350Z AUTO 22011KT 4SM -SN BKN011 OVC020 00/00 A2968 RMK AO2 T00040000,M
P68,2025-02-14 03:53,-116.0056,39.6014,1993.00,38.00,31.00,75.65,120.00,10.00,0.00,29.62,1002.30,M,M,M,M,M,M,M,M,M,M,M,M,M,M,M,M,M,30.49,KP68 140353Z AUTO 12010KT 03/M01 A2962 RMK AO1 SLP023 T00331006,M
DRA,2025-02-14 03:53,-116.0278,36.6206,1009.00,50.00,32.00,49.81,190.00,22.00,0.00,29.77,1007.00,10.00,38.00,CLR,M,M,M,M,M,M,M,M,M,M,M,38.00,180.00,2025-02-14 03:50,50.00,KDRA 140353Z AUTO 19022G38KT 10SM CLR 10/00 A2977 RMK AO2 PK WND 18038/0350 SLP070 T01000000,M
ELY,2025-02-14 03:53,-114.8453,39.2950,1909.00,35.00,31.00,85.17,140.00,24.00,T,29.69,1005.40,10.00,37.00,SCT,OVC,M,M,2200.00,3700.00,M,M,M,M,M,M,37.00,150.00,2025-02-14 03:07,22.11,KELY 140353Z AUTO 14024G37KT 10SM SCT022 OVC037 02/M01 A2969 RMK AO2 PK WND 15037/0307 RAE0254 SLP054 P0000 T00171006,M
VGT,2025-02-14 03:53,-115.1933,36.2111,667.00,48.00,29.00,47.52,0.00,0.00,0.06,29.91,1015.20,5.00,M,OVC,M,M,M,5500.00,M,M,M,-RA,M,M,M,M,M,M,48.00,KVGT 140353Z 00000KT 5SM -RA OVC055 09/M02 A2991 RMK AO2 SLP152 P0006 T00891017,M
LSV,2025-02-14 03:53,-115.0343,36.2362,570.00,50.00,46.40,87.37,170.00,5.00,0.00,29.88,1011.80,10.00,M,CLR,M,M,M,M,M,M,M,-RA,M,M,M,M,M,M,50.00,KLSV 140353Z AUTO 17005KT 10SM -RA CLR 10/08 A2988 RMK AO2 RAB0255E42RAB43E49RAB53 SLP118 $,M
LOL,2025-02-14 03:53,-118.5701,40.0684,1192.43,39.00,34.00,82.08,220.00,6.00,0.00,29.57,1002.30,10.00,M,BKN,M,M,M,6500.00,M,M,M,M,M,M,M,M,M,M,33.96,KLOL 140353Z AUTO 22006KT 10SM BKN065 04/01 A2957 RMK AO2 SLP023 T00390011,M
BVU,2025-02-14 03:55,-114.8611,35.9475,671.00,50.00,44.60,81.61,240.00,11.00,0.00,29.93,M,5.00,M,OVC,M,M,M,2900.00,M,M,M,-RA,M,M,M,M,M,M,50.00,KBVU 140355Z AUTO 24011KT 5SM -RA OVC029 10/07 A2993 RMK AO2,M
RNO,2025-02-14 03:55,-119.7711,39.4839,1341.00,39.00,34.00,82.08,200.00,11.00,0.03,29.56,1000.40,10.00,21.00,BKN,OVC,M,M,3200.00,6000.00,M,M,-RA,M,M,M,29.00,170.00,2025-02-14 02:57,31.31,KRNO 140355Z 20011G21KT 10SM -RA BKN032 OVC060 04/01 A2956 RMK AO2 PK WND 17029/0257 SLP004 P0003 T00390011,M
LSV,2025-02-14 03:55,-115.0343,36.2362,570.00,50.00,47.00,89.37,160.00,5.00,0.12,29.88,1011.80,10.00,M,CLR,M,M,M,M,M,M,M,-RA,M,M,M,M,M,M,50.00,KLSV 140355Z AUTO 16005KT 10SM -RA CLR 10/08 A2988 RMK AO2 RAE42RAB43E49RAB53 SLP118 P0012 T00990083 $,M
BAM,2025-02-14 03:55,-116.8743,40.5990,1382.36,37.40,35.60,93.14,0.00,0.00,0.00,29.59,M,10.00,M,SCT,M,M,M,11000.00,M,M,M,M,M,M,M,M,M,M,37.40,KBAM 140355Z AUTO 00000KT 10SM SCT110 03/02 A2959 RMK AO1,M
CXP,2025-02-14 03:55,-119.7326,39.1923,1431.00,37.40,33.80,86.69,190.00,9.00,0.08,29.59,M,3.00,23.00,BKN,BKN,BKN,M,1300.00,1700.00,3200.00,M,-RA BR,M,M,M,M,M,M,30.23,KCXP 140355Z AUTO 19009G23KT 3SM -RA BR BKN013 BKN017 BKN032 03/01 A2959 RMK AO2 P0008,M
RTS,2025-02-14 03:55,-119.8764,39.6682,1539.00,35.60,33.80,93.08,150.00,4.00,0.07,29.55,M,8.00,M,FEW,SCT,BKN,M,900.00,1400.00,2300.00,M,-DZ,M,M,M,M,M,M,31.62,KRTS 140355Z AUTO 15004KT 8SM -DZ FEW009 SCT014 BKN023 02/01 A2955 RMK AO2 P0007,M
MEV,2025-02-14 03:55,-119.7500,38.9963,1441.42,37.40,35.60,93.14,190.00,10.00,0.05,29.59,M,5.00,17.00,FEW,BKN,OVC,M,500.00,1500.00,2400.00,M,-RA BR,M,M,M,M,M,M,29.74,KMEV 140355Z AUTO 19010G17KT 5SM -RA BR FEW005 BKN015 OVC024 03/02 A2959 RMK AO2 P0005,M
INS,2025-02-14 03:55,-115.6733,36.5872,955.00,46.40,42.40,85.85,160.00,11.00,0.01,29.80,1008.00,10.00,M,SCT,BKN,BKN,M,4500.00,17000.00,19000.00,M,M,M,M,M,30.00,60.00,2025-02-14 03:36,40.66,KINS 140355Z AUTO 16011KT 10SM SCT045 BKN170 BKN190 08/06 A2980 RMK AO2 PK WND 06030/36 RAB0255E01DZB01E04RAB04E19 SLP080 P0001 T00800058 $,M
EKO,2025-02-14 03:56,-115.7860,40.8242,1367.00,36.00,34.00,92.35,260.00,4.00,0.00,29.60,1004.00,10.00,M,OVC,M,M,M,5500.00,M,M,M,M,M,M,M,M,M,M,32.09,KEKO 140356Z AUTO 26004KT 10SM OVC055 02/01 A2960 RMK AO2 SLP040 T00220011 $,M
WMC,2025-02-14 03:56,-117.8072,40.9019,1315.00,39.00,36.00,88.87,180.00,8.00,0.00,29.54,1000.70,10.00,M,SCT,BKN,OVC,M,3700.00,7500.00,9500.00,M,M,M,M,M,M,M,M,32.74,KWMC 140356Z AUTO 18008KT 10SM SCT037 BKN075 OVC095 04/02 A2954 RMK AO2 SLP007 T00390022,M
HND,2025-02-14 03:56,-115.1344,35.9729,742.79,48.00,45.00,89.29,120.00,5.00,0.19,29.95,1016.30,6.00,M,FEW,SCT,OVC,M,1000.00,2100.00,4900.00,M,RA BR,M,M,M,M,M,M,45.40,KHND 140356Z 12005KT 6SM RA BR FEW010 SCT021 OVC049 09/07 A2995 RMK AO2 SLP163 P0019 T00890072 $,M
TPH,2025-02-14 03:56,-117.0904,38.0505,1654.00,38.00,31.00,75.65,170.00,13.00,0.00,29.71,1006.10,10.00,21.00,FEW,SCT,SCT,M,3100.00,4300.00,10000.00,M,M,M,M,M,32.00,180.00,2025-02-14 03:19,29.26,KTPH 140356Z AUTO 17013G21KT 10SM FEW031 SCT043 SCT100 03/M01 A2971 RMK AO2 PK WND 18032/0319 SLP061 T00331006,M
LAS,2025-02-14 03:56,-115.1634,36.0719,663.00,49.00,46.00,89.33,240.00,5.00,0.23,29.93,1013.50,7.00,M,FEW,BKN,OVC,M,2000.00,2700.00,4900.00,M,-RA,M,M,M,M,M,M,46.58,KLAS 140356Z 24005KT 7SM -RA FEW020 BKN027 OVC049 09/08 A2993 RMK AO2 SLP135 P0023 T00940078,M
NFL,2025-02-14 03:57,-118.7010,39.4166,1199.00,42.00,35.00,76.03,180.00,14.00,0.00,29.57,1000.00,10.00,M,SCT,SCT,BKN,M,4000.00,10000.00,18000.00,M,M,M,M,M,27.00,170.00,2025-02-14 03:16,34.05,KNFL 140357Z 18014KT 10SM SCT040 SCT100 BKN180 06/02 A2957 RMK AO2 PK WND 17027/0316 SLP000 T00560017,M
LSV,2025-02-14 03:59,-115.0343,36.2362,570.00,50.00,46.40,87.37,160.00,7.00,0.00,29.88,1011.80,9.00,M,CLR,M,M,M,M,M,M,M,M,M,M,M,M,M,M,50.00,KLSV 140359Z AUTO 16007KT 9SM CLR 10/08 A2988 RMK AO2 RAE59 SLP118 $,M
LSV,2025-02-14 04:00,-115.0343,36.2362,570.00,50.00,46.40,87.37,160.00,6.00,0.00,29.88,1011.80,9.00,M,CLR,M,M,M,M,M,M,M,-RA,M,M,M,M,M,M,50.00,KLSV 140400Z AUTO 16006KT 9SM -RA CLR 10/08 A2988 RMK AO2 RAB0355E0359RAB00 SLP118 $,M
10U,2025-02-14 04:00,-116.1876,41.9532,1637.00,37.40,30.20,74.98,180.00,7.00,0.00,29.54,M,10.00,M,SCT,BKN,M,M,6000.00,11000.00,M,M,M,M,M,M,M,M,M,31.36,K10U 140400Z AUTO 18007KT 10SM SCT060 BKN110 03/M01 A2954 RMK AO2,M
LSV,2025-02-14 04:06,-115.0343,36.2362,570.00,50.00,48.20,93.50,170.00,5.00,0.00,29.88,1011.80,8.00,M,CLR,M,M,M,M,M,M,M,M,M,M,M,M,M,M,50.00,KLSV 140406Z AUTO 17005KT 8SM CLR 10/09 A2988 RMK AO2 RAE0359RAB00E06 SLP118 $,M
LSV,2025-02-14 04:09,-115.0343,36.2362,570.00,50.00,48.20,93.50,180.00,4.00,0.00,29.88,1011.80,9.00,M,CLR,M,M,M,M,M,M,M,-RA,M,M,M,M,M,M,50.00,KLSV 140409Z AUTO 18004KT 9SM -RA CLR 10/09 A2988 RMK AO2 RAB0355E0359RAB00E06RAB09 SLP118 $,M
TMT,2025-02-14 04:10,-117.1971,39.4643,1749.34,32.40,32.00,98.40,180.00,10.00,0.00,29.66,M,10.00,M,SCT,BKN,OVC,M,1100.00,3600.00,10000.00,M,M,M,M,M,M,M,M,23.47,KTMT 140410Z AUTO 18010KT 10SM SCT011 BKN036 OVC100 00/00 A2966 RMK AO2 T00020000,M
ELY,2025-02-14 04:13,-114.8453,39.2950,1909.00,35.00,31.00,85.17,140.00,21.00,0.00,29.68,M,10.00,36.00,SCT,BKN,OVC,M,1800.00,2300.00,3700.00,M,M,M,M,M,36.00,150.00,2025-02-14 04:09,22.85,KELY 140413Z AUTO 14021G36KT 10SM SCT018 BKN023 OVC037 02/M01 A2968 RMK AO2 PK WND 15036/0409 T00171006,M
BVU,2025-02-14 04:15,-114.8611,35.9475,671.00,50.00,46.40,87.37,240.00,6.00,0.00,29.93,M,5.00,M,BKN,OVC,M,M,2800.00,3300.00,M,M,RA,M,M,M,M,M,M,50.00,KBVU 140415Z AUTO 24006KT 5SM RA BKN028 OVC033 10/08 A2993 RMK AO2,M
TPH,2025-02-14 04:15,-117.0904,38.0505,1654.00,39.00,31.00,72.75,170.00,15.00,T,29.71,M,10.00,24.00,SCT,BKN,OVC,M,2200.00,2900.00,4300.00,M,-RA,M,M,M,M,M,M,29.85,KTPH 140415Z AUTO 17015G24KT 10SM -RA SCT022 BKN029 OVC043 04/M01 A2971 RMK AO2 RAB09 P0000 T00391006,M
BAM,2025-02-14 04:15,-116.8743,40.5990,1382.36,37.40,35.60,93.14,180.00,4.00,0.00,29.60,M,10.00,M,SCT,BKN,BKN,M,3800.00,4400.00,4900.00,M,M,M,M,M,M,M,M,33.73,KBAM 140415Z AUTO 18004KT 10SM SCT038 BKN044 BKN049 03/02 A2960 RMK AO1,M
CXP,2025-02-14 04:15,-119.7326,39.1923,1431.00,37.40,33.80,86.69,170.00,7.00,0.00,29.60,M,4.00,12.00,OVC,M,M,M,1400.00,M,M,M,UP BR,M,M,M,M,M,M,31.36,KCXP 140415Z AUTO 17007G12KT 4SM UP BR OVC014 03/01 A2960 RMK AO2,M
RTS,2025-02-14 04:15,-119.8764,39.6682,1539.00,37.40,33.80,86.69,270.00,5.00,0.00,29.55,M,7.00,14.00,FEW,BKN,OVC,M,1300.00,2200.00,6500.00,M,-RA,M,M,M,M,M,M,32.81,KRTS 140415Z AUTO 27005G14KT 7SM -RA FEW013 BKN022 OVC065 03/01 A2955 RMK AO2,M
MEV,2025-02-14 04:15,-119.7500,38.9963,1441.42,39.20,35.60,86.79,220.00,10.00,0.00,29.60,M,2.50,18.00,BKN,OVC,M,M,400.00,1300.00,M,M,BR,M,M,M,M,M,M,32.00,KMEV 140415Z AUTO 22010G18KT 2 1/2SM BR BKN004 OVC013 04/02 A2960 RMK AO2 VIS 1 1/2V3,M
LAS,2025-02-14 04:19,-115.1634,36.0719,663.00,49.00,45.00,86.00,190.00,5.00,0.04,29.92,M,8.00,M,FEW,SCT,OVC,M,2000.00,2700.00,4900.00,M,-RA,M,M,M,M,M,M,46.58,KLAS 140419Z 19005KT 8SM -RA FEW020 SCT027 OVC049 09/07 A2992 RMK AO2 P0004 T00940072,M
ELY,2025-02-14 04:20,-114.8453,39.2950,1909.00,35.00,31.00,85.17,150.00,19.00,T,29.68,M,10.00,31.00,FEW,OVC,M,M,1800.00,3700.00,M,M,-RA,M,M,M,36.00,150.00,2025-02-14 04:09,23.40,KELY 140420Z AUTO 15019G31KT 10SM -RA FEW018 OVC037 02/M01 A2968 RMK AO2 PK WND 15036/0409 RAB18 P0000 T00171006,M
10U,2025-02-14 04:20,-116.1876,41.9532,1637.00,37.40,32.00,80.65,190.00,9.00,0.00,29.54,M,10.00,M,OVC,M,M,M,6000.00,M,M,M,M,M,M,M,M,M,M,30.23,K10U 140420Z AUTO 19009KT 10SM OVC060 03/M00 A2954 RMK AO2,M
LSV,2025-02-14 04:25,-115.0343,36.2362,570.00,50.00,46.40,87.37,180.00,7.00,0.00,29.87,1011.40,10.00,M,CLR,M,M,M,M,M,M,M,M,M,M,M,M,M,M,50.00,KLSV 140425Z AUTO 18007KT 10SM CLR 10/08 A2987 RMK AO2 RAE0359RAB00E06RAB09E25 SLP114 $,M
LSV,2025-02-14 04:26,-115.0343,36.2362,570.00,50.00,46.40,87.37,180.00,9.00,0.00,29.86,1011.10,10.00,M,CLR,M,M,M,M,M,M,M,-RA,M,M,M,M,M,M,50.00,KLSV 140426Z AUTO 18009KT 10SM -RA CLR 10/08 A2986 RMK AO2 RAE0359RAB00E06RAB09E25RAB26 SLP111 $,M
TMT,2025-02-14 04:30,-117.1971,39.4643,1749.34,32.00,32.00,100.00,250.00,5.00,0.00,29.67,M,10.00,M,SCT,OVC,M,M,3200.00,11000.00,M,M,M,M,M,M,M,M,M,26.40,KTMT 140430Z AUTO 25005KT 10SM SCT032 OVC110 00/00 A2967 RMK AO2 T00000000,M
LSV,2025-02-14 04:32,-115.0343,36.2362,570.00,51.80,46.40,81.74,180.00,12.00,0.00,29.86,1011.10,10.00,M,CLR,M,M,M,M,M,M,M,M,M,M,M,M,M,M,51.80,KLSV 140432Z AUTO 18012KT 10SM CLR 11/08 A2986 RMK AO2 RAE0359RAB00E06RAB09E25RAB26E32 SLP111 $,M
BVU,2025-02-14 04:35,-114.8611,35.9475,671.00,48.20,46.40,93.45,230.00,11.00,0.00,29.93,M,6.00,23.00,FEW,SCT,BKN,M,1800.00,2500.00,3200.00,M,-RA,M,M,M,M,M,M,42.94,KBVU 140435Z AUTO 23011G23KT 6SM -RA FEW018 SCT025 BKN032 09/08 A2993 RMK AO2,M
BAM,2025-02-14 04:35,-116.8743,40.5990,1382.36,41.00,35.60,80.93,220.00,15.00,0.00,29.60,M,10.00,20.00,SCT,SCT,SCT,M,3300.00,4100.00,5000.00,M,M,M,M,M,M,M,M,32.45,KBAM 140435Z AUTO 22015G20KT 10SM SCT033 SCT041 SCT050 05/02 A2960 RMK AO1,M
CXP,2025-02-14 04:35,-119.7326,39.1923,1431.00,37.40,33.80,86.69,230.00,5.00,0.00,29.61,M,5.00,13.00,BKN,BKN,OVC,M,1400.00,2500.00,4500.00,M,UP BR,M,M,M,M,M,M,32.81,KCXP 140435Z AUTO 23005G13KT 5SM UP BR BKN014 BKN025 OVC045 03/01 A2961 RMK AO2,M
RTS,2025-02-14 04:35,-119.8764,39.6682,1539.00,35.60,33.80,93.08,0.00,0.00,0.00,29.57,M,10.00,M,FEW,SCT,BKN,M,1300.00,2200.00,2800.00,M,M,M,M,M,M,M,M,35.60,KRTS 140435Z AUTO 00000KT 10SM FEW013 SCT022 BKN028 02/01 A2957 RMK AO2,M
MEV,2025-02-14 04:35,-119.7500,38.9963,1441.42,39.20,33.80,80.79,0.00,0.00,0.00,29.60,M,4.00,M,SCT,OVC,M,M,400.00,1300.00,M,M,-RA BR,M,M,M,M,M,M,39.20,KMEV 140435Z AUTO 00000KT 4SM -RA BR SCT004 OVC013 04/01 A2960 RMK AO2,M
VGT,2025-02-14 04:40,-115.1933,36.2111,667.00,47.00,27.00,45.45,140.00,13.00,0.00,29.86,M,3.00,M,SCT,BKN,OVC,M,200.00,5500.00,7000.00,M,-RA,M,M,M,M,M,M,40.79,KVGT 140440Z AUTO 14013KT 3SM -RA SCT002 BKN055 OVC070 08/M03 A2986 RMK AO2 T00831028 PNO $,M
10U,2025-02-14 04:40,-116.1876,41.9532,1637.00,37.40,32.00,80.65,190.00,8.00,0.00,29.54,M,10.00,M,FEW,OVC,M,M,4600.00,5500.00,M,M,M,M,M,M,M,M,M,30.76,K10U 140440Z AUTO 19008KT 10SM FEW046 OVC055 03/M00 A2954 RMK AO2,M
EKO,2025-02-14 04:42,-115.7860,40.8242,1367.00,36.00,35.00,96.11,250.00,7.00,0.02,29.61,M,10.00,M,BKN,BKN,OVC,M,2100.00,3200.00,4900.00,M,UP,M,M,M,M,M,M,29.65,KEKO 140442Z AUTO 25007KT 10SM UP BKN021 BKN032 OVC049 02/02 A2961 RMK AO2 RAB06E37UPB37 P0002 T00220017 $,M
TMT,2025-02-14 04:50,-117.1971,39.4643,1749.34,33.60,32.00,93.78,220.00,10.00,0.00,29.66,M,10.00,M,SCT,SCT,BKN,M,2600.00,3400.00,11000.00,M,M,M,M,M,M,M,M,24.97,KTMT 140450Z AUTO 22010KT 10SM SCT026 SCT034 BKN110 01/00 A2966 RMK AO2 T00091001,M
P68,2025-02-14 04:53,-116.0056,39.6014,1993.00,38.00,33.00,82.00,150.00,13.00,0.00,29.65,1003.00,M,M,M,M,M,M,M,M,M,M,M,M,M,M,M,M,M,29.26,KP68 140453Z AUTO 15013KT 03/01 A2965 RMK AO1 SLP030 T00330006,M
DRA,2025-02-14 04:53,-116.0278,36.6206,1009.00,49.00,32.00,51.70,190.00,29.00,0.00,29.76,1006.80,10.00,41.00,CLR,M,M,M,M,M,M,M,M,M,M,M,41.00,210.00,2025-02-14 04:53,40.22,KDRA 140453Z AUTO 19029G41KT 10SM CLR 09/00 A2976 RMK AO2 PK WND 21041/0453 SLP068 T00940000,M
ELY,2025-02-14 04:53,-114.8453,39.2950,1909.00,36.00,30.00,78.60,140.00,19.00,T,29.69,1004.70,10.00,37.00,FEW,OVC,M,M,2400.00,3600.00,M,M,-RA,M,M,M,37.00,140.00,2025-02-14 04:44,24.73,KELY 140453Z AUTO 14019G37KT 10SM -RA FEW024 OVC036 02/M01 A2969 RMK AO2 PK WND 14037/0444 RAB18E21B53UPB21E53 SLP047 P0000 T00221011,M
VGT,2025-02-14 04:53,-115.1933,36.2111,667.00,47.00,32.00,55.73,170.00,15.00,0.00,29.84,1012.80,7.00,M,FEW,SCT,BKN,M,200.00,4400.00,7000.00,M,-RA,M,M,M,M,M,M,40.23,KVGT 140453Z AUTO 17015KT 7SM -RA FEW002 SCT044 BKN070 08/00 A2984 RMK AO2 SLP128 T00830000 PNO $,M
LOL,2025-02-14 04:53,-118.5701,40.0684,1192.43,41.00,34.00,75.94,220.00,9.00,0.00,29.60,1003.00,10.00,M,SCT,BKN,OVC,M,6000.00,7500.00,9500.00,M,M,M,M,M,M,M,M,34.70,KLOL 140453Z AUTO 22009KT 10SM SCT060 BKN075 OVC095 05/01 A2960 RMK AO2 SLP030 T00500011,M
CXP,2025-02-14 04:55,-119.7326,39.1923,1431.00,37.40,35.60,93.14,210.00,5.00,0.05,29.63,M,3.00,14.00,SCT,SCT,BKN,M,1500.00,2600.00,3100.00,M,UP BR,M,M,M,M,M,M,32.81,KCXP 140455Z AUTO 21005G14KT 3SM UP BR SCT015 SCT026 BKN031 03/02 A2963 RMK AO2 P0005,M
BVU,2025-02-14 04:55,-114.8611,35.9475,671.00,48.20,44.60,87.28,180.00,7.00,0.00,29.93,M,5.00,M,FEW,SCT,OVC,M,2500.00,3200.00,4600.00,M,-RA,M,M,M,M,M,M,44.53,KBVU 140455Z AUTO 18007KT 5SM -RA FEW025 SCT032 OVC046 09/07 A2993 RMK AO2,M
RNO,2025-02-14 04:55,-119.7711,39.4839,1341.00,38.00,34.00,85.35,270.00,10.00,0.03,29.59,1001.50,10.00,29.00,BKN,BKN,M,M,4400.00,7000.00,M,M,-RA,M,M,M,29.00,270.00,2025-02-14 04:54,30.49,KRNO 140455Z 27010G29KT 180V310 10SM -RA BKN044 BKN070 03/01 A2959 RMK AO2 PK WND 27029/0454 RAE39B55 SLP015 P0003 T00330011,M
BAM,2025-02-14 04:55,-116.8743,40.5990,1382.36,39.20,35.60,86.79,230.00,9.00,0.00,29.60,M,10.00,M,CLR,M,M,M,M,M,M,M,M,M,M,M,M,M,M,32.47,KBAM 140455Z AUTO 23009KT 10SM CLR 04/02 A2960 RMK AO1,M
RTS,2025-02-14 04:55,-119.8764,39.6682,1539.00,35.60,33.80,93.08,0.00,0.00,0.02,29.57,M,8.00,M,SCT,BKN,OVC,M,2000.00,2700.00,4900.00,M,-DZ,M,M,M,M,M,M,35.60,KRTS 140455Z AUTO 00000KT 8SM -DZ SCT020 BKN027 OVC049 02/01 A2957 RMK AO2 P0002,M
MEV,2025-02-14 04:55,-119.7500,38.9963,1441.42,39.20,35.60,86.79,160.00,7.00,0.10,29.62,M,4.00,13.00,FEW,OVC,M,M,400.00,1400.00,M,M,UP BR,M,M,M,M,M,M,33.56,KMEV 140455Z AUTO 16007G13KT 4SM UP BR FEW004 OVC014 04/02 A2962 RMK AO2 P0010,M
INS,2025-02-14 04:55,-115.6733,36.5872,955.00,47.70,39.40,72.78,0.00,0.00,0.00,29.79,1007.60,10.00,M,CLR,M,M,M,M,M,M,M,M,M,M,M,M,M,M,47.70,KINS 140455Z AUTO 00000KT 10SM CLR 09/04 A2979 RMK AO2 SLP076 T00870041 $,M
LSV,2025-02-14 04:55,-115.0343,36.2362,570.00,52.00,42.80,70.74,190.00,8.00,0.05,29.84,1010.40,10.00,M,CLR,M,M,M,M,M,M,M,M,M,M,M,M,M,M,52.00,KLSV 140455Z AUTO 19008KT 10SM CLR 11/06 A2984 RMK AO2 RAB0355E0359RAB00E06RAB09E25RAB26E32 SLP104 P0005 T01110060 $,M
EKO,2025-02-14 04:56,-115.7860,40.8242,1367.00,36.00,34.00,92.35,230.00,13.00,0.02,29.61,1004.50,8.00,19.00,FEW,BKN,OVC,M,1600.00,2200.00,2800.00,M,-RA,M,M,M,M,M,M,26.69,KEKO 140456Z AUTO 23013G19KT 8SM -RA FEW016 BKN022 OVC028 02/01 A2961 RMK AO2 RAB06E37B51UPB37E51 SLP045 P0002 T00220011 $,M
WMC,2025-02-14 04:56,-117.8072,40.9019,1315.00,40.00,36.00,85.48,180.00,13.00,T,29.56,1001.40,10.00,22.00,FEW,OVC,M,M,2300.00,5500.00,M,M,-RA,M,M,M,M,M,M,31.82,KWMC 140456Z AUTO 18013G22KT 10SM -RA FEW023 OVC055 04/02 A2956 RMK AO2 RAB53 SLP014 P0000 T00440022,M
HND,2025-02-14 04:56,-115.1344,35.9729,742.79,48.00,43.00,82.72,160.00,17.00,0.07,29.90,1014.80,10.00,M,OVC,M,M,M,6000.00,M,M,M,-RA,M,M,M,M,M,M,41.04,KHND 140456Z AUTO 16017KT 10SM -RA OVC060 09/06 A2990 RMK AO2 SLP148 P0007 T00890061 $,M
TPH,2025-02-14 04:56,-117.0904,38.0505,1654.00,38.00,31.00,75.65,180.00,10.00,T,29.74,1006.90,10.00,M,BKN,OVC,M,M,1600.00,2400.00,M,M,-RA,M,M,M,M,M,M,30.49,KTPH 140456Z AUTO 18010KT 10SM -RA BKN016 OVC024 03/M01 A2974 RMK AO2 RAB09 SLP069 P0000 T00331006,M
LAS,2025-02-14 04:56,-115.1634,36.0719,663.00,49.00,44.00,82.79,170.00,12.00,0.05,29.88,1011.80,10.00,19.00,FEW,SCT,OVC,M,2000.00,2700.00,8000.00,M,M,M,M,M,M,M,M,43.64,KLAS 140456Z 17012G19KT 10SM FEW020 SCT027 OVC080 09/07 A2988 RMK AO2 RAE35 SLP118 P0005 T00940067,M
NFL,2025-02-14 04:57,-118.7010,39.4166,1199.00,41.00,34.00,75.94,170.00,11.00,0.00,29.61,1001.10,10.00,M,SCT,SCT,BKN,BKN,5000.00,9000.00,15000.00,18000.00,M,M,M,M,M,M,M,33.84,KNFL 140457Z 17011KT 10SM SCT050 SCT090 BKN150 BKN180 05/01 A2961 RMK AO2 SLP011 T00500011,M
10U,2025-02-14 05:00,-116.1876,41.9532,1637.00,37.40,32.00,80.65,190.00,10.00,0.00,29.54,M,10.00,M,BKN,OVC,M,M,4500.00,6000.00,M,M,M,M,M,M,M,M,M,29.74,K10U 140500Z AUTO 19010KT 10SM BKN045 OVC060 03/00 A2954 RMK AO2,M
RTS,2025-02-14 05:05,-119.8764,39.6682,1539.00,37.40,33.80,86.69,0.00,0.00,0.00,29.58,M,10.00,M,SCT,BKN,OVC,M,2100.00,3100.00,4700.00,M,M,M,M,M,M,M,M,37.40,KRTS 140505Z AUTO 00000KT 10SM SCT021 BKN031 OVC047 03/01 A2958 RMK AO2,M
LSV,2025-02-14 05:08,-115.0343,36.2362,570.00,51.80,42.80,71.26,150.00,13.00,0.00,29.83,1010.10,10.00,M,CLR,M,M,M,M,M,M,M,M,M,M,M,M,M,M,51.80,KLSV 140508Z AUTO 15013KT 10SM CLR 11/06 A2983 RMK AO2 WSHFT 00 SLP101 $,M
LSV,2025-02-14 05:09,-115.0343,36.2362,570.00,53.60,42.80,66.70,110.00,11.00,0.00,29.83,1010.00,10.00,M,CLR,M,M,M,M,M,M,M,M,M,M,M,M,M,M,53.60,KLSV 140509Z AUTO 11011KT 10SM CLR 12/06 A2983 RMK AO2 WSHFT 08 SLP100 $,M
TMT,2025-02-14 05:10,-117.1971,39.4643,1749.34,34.00,32.00,92.29,230.00,8.00,0.00,29.66,M,10.00,M,CLR,M,M,M,M,M,M,M,M,M,M,M,M,M,M,26.58,KTMT 140510Z AUTO 23008KT 10SM CLR 01/00 A2966 RMK AO2 T00111001,M
BVU,2025-02-14 05:15,-114.8611,35.9475,671.00,48.20,44.60,87.28,160.00,10.00,0.00,29.92,M,4.00,M,FEW,BKN,OVC,M,3000.00,4500.00,5000.00,M,-RA,M,M,M,M,M,M,43.28,KBVU 140515Z AUTO 16010KT 4SM -RA FEW030 BKN045 OVC050 09/07 A2992 RMK AO2,M
BAM,2025-02-14 05:15,-116.8743,40.5990,1382.36,39.20,35.60,86.79,240.00,7.00,0.00,29.61,M,10.00,M,CLR,M,M,M,M,M,M,M,M,M,M,M,M,M,M,33.56,KBAM 140515Z AUTO 24007KT 10SM CLR 04/02 A2961 RMK AO1,M
CXP,2025-02-14 05:15,-119.7326,39.1923,1431.00,37.40,33.80,86.69,210.00,8.00,0.00,29.63,M,3.00,17.00,FEW,SCT,BKN,M,900.00,1300.00,3000.00,M,-SN BR,M,M,M,M,M,M,30.76,KCXP 140515Z AUTO 21008G17KT 3SM -SN BR FEW009 SCT013 BKN030 03/01 A2963 RMK AO2,M
MEV,2025-02-14 05:15,-119.7500,38.9963,1441.42,37.40,35.60,93.14,160.00,7.00,0.00,29.62,M,7.00,M,FEW,BKN,OVC,M,300.00,1400.00,1900.00,M,UP,M,M,M,M,M,M,31.36,KMEV 140515Z AUTO 16007KT 7SM UP FEW003 BKN014 OVC019 03/02 A2962 RMK AO2,M
ELY,2025-02-14 05:17,-114.8453,39.2950,1909.00,36.00,30.00,78.60,140.00,19.00,T,29.70,M,10.00,35.00,BKN,OVC,M,M,2500.00,3600.00,M,M,M,M,M,M,35.00,130.00,2025-02-14 05:08,24.73,KELY 140517Z AUTO 14019G35KT 10SM BKN025 OVC036 02/M01 A2970 RMK AO2 PK WND 13035/0508 RAE0454 P0000 T00221011,M
TPH,2025-02-14 05:17,-117.0904,38.0505,1654.00,37.00,31.00,78.69,170.00,11.00,0.01,29.73,M,10.00,M,BKN,BKN,OVC,M,1400.00,1900.00,3500.00,M,-RA,M,M,M,M,M,M,28.79,KTPH 140517Z AUTO 17011KT 10SM -RA BKN014 BKN019 OVC035 03/M01 A2973 RMK AO2 P0001 T00281006,M
10U,2025-02-14 05:20,-116.1876,41.9532,1637.00,37.40,32.00,80.65,210.00,10.00,0.00,29.55,M,10.00,M,FEW,BKN,OVC,M,2800.00,3400.00,6000.00,M,M,M,M,M,M,M,M,29.74,K10U 140520Z AUTO 21010KT 10SM FEW028 BKN034 OVC060 03/00 A2955 RMK AO2,M
TPH,2025-02-14 05:24,-117.0904,38.0505,1654.00,37.00,31.00,78.69,170.00,12.00,0.01,29.73,M,10.00,M,SCT,BKN,OVC,M,1400.00,3500.00,8000.00,M,M,M,M,M,M,M,M,28.37,KTPH 140524Z AUTO 17012KT 10SM SCT014 BKN035 OVC080 03/M01 A2973 RMK AO2 RAE23 P0001 T00281006,M
TMT,2025-02-14 05:30,-117.1971,39.4643,1749.34,33.80,32.00,93.03,280.00,11.00,0.00,29.67,M,10.00,M,CLR,M,M,M,M,M,M,M,M,M,M,M,M,M,M,24.74,KTMT 140530Z AUTO 28011KT 10SM CLR 01/00 A2967 RMK AO2 T00100000,M
BVU,2025-02-14 05:35,-114.8611,35.9475,671.00,48.20,46.40,93.45,150.00,13.00,0.00,29.90,M,7.00,M,FEW,FEW,OVC,M,3200.00,4400.00,5000.00,M,-RA,M,M,M,M,M,M,42.32,KBVU 140535Z AUTO 15013KT 7SM -RA FEW032 FEW044 OVC050 09/08 A2990 RMK AO2,M
BAM,2025-02-14 05:35,-116.8743,40.5990,1382.36,41.00,35.60,80.93,270.00,9.00,0.00,29.62,M,10.00,M,CLR,M,M,M,M,M,M,M,M,M,M,M,M,M,M,34.70,KBAM 140535Z AUTO 27009KT 10SM CLR 05/02 A2962 RMK AO1,M
CXP,2025-02-14 05:35,-119.7326,39.1923,1431.00,37.40,33.80,86.69,190.00,7.00,0.00,29.65,M,3.00,M,FEW,FEW,BKN,M,600.00,1400.00,3000.00,M,UP BR,M,M,M,M,M,M,31.36,KCXP 140535Z AUTO 19007KT 3SM UP BR FEW006 FEW014 BKN030 03/01 A2965 RMK AO2,M
RTS,2025-02-14 05:35,-119.8764,39.6682,1539.00,37.40,32.00,80.65,230.00,9.00,0.00,29.59,M,10.00,M,BKN,OVC,M,M,3700.00,4200.00,M,M,M,M,M,M,M,M,M,30.23,KRTS 140535Z AUTO 23009KT 190V250 10SM BKN037 OVC042 03/00 A2959 RMK AO2,M
MEV,2025-02-14 05:35,-119.7500,38.9963,1441.42,39.20,35.60,86.79,M,6.00,0.00,29.64,M,5.00,16.00,FEW,SCT,BKN,M,400.00,1200.00,1600.00,M,-RA BR,M,M,M,M,M,M,34.20,KMEV 140535Z AUTO VRB06G16KT 5SM -RA BR FEW004 SCT012 BKN016 04/02 A2964 RMK AO2,M
10U,2025-02-14 05:40,-116.1876,41.9532,1637.00,37.40,32.00,80.65,200.00,11.00,0.00,29.56,M,10.00,M,OVC,M,M,M,3000.00,M,M,M,M,M,M,M,M,M,M,29.29,K10U 140540Z AUTO 20011KT 10SM OVC030 03/00 A2956 RMK AO2,M
TMT,2025-02-14 05:50,-117.1971,39.4643,1749.34,33.80,32.00,93.03,230.00,10.00,0.00,29.68,M,10.00,M,CLR,M,M,M,M,M,M,M,M,M,M,M,M,M,M,25.23,KTMT 140550Z AUTO 23010KT 10SM CLR 01/00 A2968 RMK AO2 T00100000,M
P68,2025-02-14 05:53,-116.0056,39.6014,1993.00,33.00,32.00,96.06,320.00,4.00,0.06,29.68,1004.50,M,M,M,M,M,M,M,M,M,M,M,M,M,M,M,M,M,28.59,KP68 140553Z AUTO 32004KT 01/00 A2968 RMK AO1 SLP045 P0006 60006 T00060000 10044 20006 53021,M
DRA,2025-02-14 05:53,-116.0278,36.6206,1009.00,50.00,32.00,49.81,200.00,24.00,0.00,29.78,1006.90,10.00,38.00,CLR,M,M,M,M,M,M,M,M,M,M,M,43.00,200.00,2025-02-14 05:16,50.00,KDRA 140553Z AUTO 20024G38KT 10SM CLR 10/00 A2978 RMK AO2 PK WND 20043/0516 SLP069 60024 T01000000 10106 20083 55001,M
ELY,2025-02-14 05:53,-114.8453,39.2950,1909.00,37.00,31.00,78.69,130.00,20.00,T,29.70,1004.30,10.00,35.00,OVC,M,M,M,2400.00,M,M,M,UP,M,M,M,37.00,130.00,2025-02-14 05:39,25.78,KELY 140553Z AUTO 13020G35KT 10SM UP OVC024 03/M01 A2970 RMK AO2 PK WND 13037/0539 RAE0454UPB38 SLP043 P0000 60000 T00281006 10028 20011 51008,M
VGT,2025-02-14 05:53,-115.1933,36.2111,667.00,48.00,32.00,53.67,90.00,11.00,0.00,29.87,1013.50,10.00,M,CLR,M,M,M,M,M,M,M,M,M,M,M,M,M,M,42.69,KVGT 140553Z AUTO 09011KT 10SM CLR 09/00 A2987 RMK AO2 RAE0456 SLP135 6//// T00890000 10100 20078 58005 PNO $,M
LOL,2025-02-14 05:53,-118.5701,40.0684,1192.43,40.00,33.00,75.84,220.00,9.00,0.00,29.61,1003.40,10.00,M,BKN,OVC,M,M,6500.00,8500.00,M,M,M,M,M,M,M,M,M,33.46,KLOL 140553Z AUTO 22009KT 10SM BKN065 OVC085 04/01 A2961 RMK AO2 SLP034 60000 T00440006 10078 20039 51022,M
BVU,2025-02-14 05:55,-114.8611,35.9475,671.00,48.20,46.40,93.45,170.00,10.00,0.00,29.90,M,10.00,M,FEW,SCT,BKN,M,2100.00,5500.00,6500.00,M,M,M,M,M,M,M,M,43.28,KBVU 140555Z AUTO 17010KT 10SM FEW021 SCT055 BKN065 09/08 A2990 RMK AO2,M
RNO,2025-02-14 05:55,-119.7711,39.4839,1341.00,40.00,34.00,78.94,110.00,5.00,0.02,29.60,1001.70,10.00,17.00,BKN,BKN,M,M,4100.00,6500.00,M,M,-RA,M,M,M,26.00,200.00,2025-02-14 05:08,35.90,KRNO 140555Z 11005G17KT 10SM -RA BKN041 BKN065 04/01 A2960 RMK AO2 PK WND 20026/0508 SLP017 P0002 60012 T00440011 10050 20022 51026,M
LSV,2025-02-14 05:55,-115.0343,36.2362,570.00,50.70,45.50,82.28,130.00,8.00,0.00,29.85,1010.80,10.00,M,SCT,BKN,BKN,M,3400.00,6000.00,8500.00,M,M,M,M,M,M,M,M,50.70,KLSV 140555Z AUTO 13008KT 10SM SCT034 BKN060 BKN085 10/08 A2985 RMK AO2 SLP108 60022 T01040075 10120 20096 50001 $,M
BAM,2025-02-14 05:55,-116.8743,40.5990,1382.36,37.40,33.80,86.69,280.00,7.00,0.00,29.62,M,10.00,M,CLR,M,M,M,M,M,M,M,M,M,M,M,M,M,M,31.36,KBAM 140555Z AUTO 28007KT 10SM CLR 03/01 A2962 RMK AO1,M
CXP,2025-02-14 05:55,-119.7326,39.1923,1431.00,37.40,33.80,86.69,200.00,6.00,0.11,29.65,M,2.50,15.00,FEW,SCT,BKN,M,400.00,1300.00,3100.00,M,RA BR,M,M,M,M,M,M,32.03,KCXP 140555Z AUTO 20006G15KT 2 1/2SM RA BR FEW004 SCT013 BKN031 03/01 A2965 RMK AO2 P0011 VIS 2V4,M
RTS,2025-02-14 05:55,-119.8764,39.6682,1539.00,37.40,32.00,80.65,250.00,11.00,0.01,29.60,M,10.00,M,FEW,BKN,OVC,M,1700.00,3700.00,4500.00,M,M,M,M,M,M,M,M,29.29,KRTS 140555Z AUTO 25011KT 220V280 10SM FEW017 BKN037 OVC045 03/M00 A2960 RMK AO2 P0001,M
MEV,2025-02-14 05:55,-119.7500,38.9963,1441.42,39.20,35.60,86.79,170.00,8.00,0.03,29.65,M,9.00,M,FEW,SCT,OVC,M,400.00,1600.00,2500.00,M,UP,M,M,M,M,M,M,32.98,KMEV 140555Z AUTO 17008KT 9SM UP FEW004 SCT016 OVC025 04/02 A2965 RMK AO2 P0003,M
INS,2025-02-14 05:55,-115.6733,36.5872,955.00,49.00,35.40,59.23,140.00,9.00,0.00,29.80,1007.80,10.00,18.00,CLR,M,M,M,M,M,M,M,M,M,M,M,M,M,M,44.65,KINS 140555Z AUTO 14009G18KT 10SM CLR 10/02 A2980 RMK AO2 SLP078 60018 T00950019 10109 20072 55010 $,M
EKO,2025-02-14 05:56,-115.7860,40.8242,1367.00,34.00,34.00,100.00,220.00,4.00,0.11,29.64,1005.20,10.00,M,BKN,M,M,M,1700.00,M,M,M,-RA,M,M,M,M,M,M,29.76,KEKO 140556Z AUTO 22004KT 10SM -RA BKN017 01/01 A2964 RMK AO2 SLP052 P0011 60026 T00110011 10028 20006 53009 $,M
WMC,2025-02-14 05:56,-117.8072,40.9019,1315.00,40.00,36.00,85.48,190.00,16.00,0.01,29.59,1002.10,9.00,25.00,FEW,BKN,OVC,M,2600.00,3700.00,5000.00,M,-RA,M,M,M,M,M,M,30.85,KWMC 140556Z AUTO 19016G25KT 9SM -RA FEW026 BKN037 OVC050 04/02 A2959 RMK AO2 SLP021 P0001 60001 T00440022 10050 20011 53020,M
HND,2025-02-14 05:56,-115.1344,35.9729,742.79,48.00,43.00,82.72,170.00,11.00,T,29.90,1014.80,10.00,M,FEW,SCT,M,M,7000.00,11000.00,M,M,M,M,M,M,M,M,M,42.69,KHND 140556Z AUTO 17011KT 10SM FEW070 SCT110 09/06 A2990 RMK AO2 RAE25 SLP148 P0000 60028 T00890061 10106 20083 55013 $,M
TPH,2025-02-14 05:56,-117.0904,38.0505,1654.00,37.00,31.00,78.69,180.00,13.00,0.01,29.75,1007.10,10.00,18.00,SCT,OVC,M,M,2400.00,4400.00,M,M,M,M,M,M,M,M,M,27.97,KTPH 140556Z AUTO 18013G18KT 10SM SCT024 OVC044 03/M01 A2975 RMK AO2 RAE23 SLP071 P0001 60001 T00281006 10056 20028 51024,M
LAS,2025-02-14 05:56,-115.1634,36.0719,663.00,51.00,43.00,73.97,190.00,11.00,0.00,29.86,1011.00,10.00,27.00,SCT,BKN,OVC,M,7000.00,9000.00,18000.00,M,M,M,M,M,27.00,190.00,2025-02-14 05:50,51.00,KLAS 140556Z 19011G27KT 10SM SCT070 BKN090 OVC180 11/06 A2986 RMK AO2 PK WND 19027/0550 SLP110 60044 T01060061 10111 20078 58011,M
NFL,2025-02-14 05:57,-118.7010,39.4166,1199.00,41.00,33.00,72.96,200.00,4.00,0.00,29.63,1001.70,10.00,M,BKN,BKN,BKN,M,5000.00,7000.00,18000.00,M,M,M,M,M,M,M,M,37.93,KNFL 140557Z 20004KT 10SM BKN050 BKN070 BKN180 05/01 A2963 RMK AO2 SLP017 60002 T00500006 10089 20050 51027,M
10U,2025-02-14 06:00,-116.1876,41.9532,1637.00,37.40,32.00,80.65,190.00,9.00,0.00,29.55,M,10.00,M,SCT,BKN,OVC,M,3000.00,7000.00,10000.00,M,M,M,M,M,M,M,M,30.23,K10U 140600Z AUTO 19009KT 10SM SCT030 BKN070 OVC100 03/00 A2955 RMK AO2,M
INS,2025-02-14 06:04,-115.6733,36.5872,955.00,50.00,33.80,53.54,180.00,16.00,0.00,29.80,1007.80,10.00,21.00,CLR,M,M,M,M,M,M,M,M,M,M,M,M,M,M,50.00,KINS 140604Z AUTO 18016G21KT 10SM CLR 10/01 A2980 RMK AO2 WSHFT 04 SLP078 $,M
EKO,2025-02-14 06:06,-115.7860,40.8242,1367.00,34.00,34.00,100.00,300.00,3.00,T,29.64,M,10.00,M,SCT,BKN,M,M,2300.00,3700.00,M,M,M,M,M,M,M,M,M,30.97,KEKO 140606Z AUTO 30003KT 10SM SCT023 BKN037 01/01 A2964 RMK AO2 RAE0557 P0000 T00110011 $,M
INS,2025-02-14 06:09,-115.6733,36.5872,955.00,48.20,35.60,61.52,140.00,11.00,0.00,29.80,1008.00,10.00,26.00,CLR,M,M,M,M,M,M,M,M,M,M,M,M,M,M,42.94,KINS 140609Z AUTO 14011G26KT 10SM CLR 09/02 A2980 RMK AO2 WSHFT 05 SLP080 $,M
TMT,2025-02-14 06:10,-117.1971,39.4643,1749.34,33.80,31.30,90.44,220.00,11.00,0.00,29.68,M,10.00,17.00,CLR,M,M,M,M,M,M,M,M,M,M,M,M,M,M,24.74,KTMT 140610Z AUTO 22011G17KT 10SM CLR 01/00 A2968 RMK AO2 T00101004,M
BVU,2025-02-14 06:15,-114.8611,35.9475,671.00,50.00,44.60,81.61,200.00,5.00,0.00,29.89,M,10.00,12.00,SCT,BKN,OVC,M,7500.00,10000.00,12000.00,M,M,M,M,M,M,M,M,50.00,KBVU 140615Z AUTO 20005G12KT 10SM SCT075 BKN100 OVC120 10/07 A2989 RMK AO2,M
BAM,2025-02-14 06:15,-116.8743,40.5990,1382.36,37.40,33.80,86.69,260.00,6.00,0.00,29.61,M,10.00,M,CLR,M,M,M,M,M,M,M,M,M,M,M,M,M,M,32.03,KBAM 140615Z AUTO 26006KT 10SM CLR 03/01 A2961 RMK AO1,M
CXP,2025-02-14 06:15,-119.7326,39.1923,1431.00,37.40,33.80,86.69,0.00,0.00,0.00,29.66,M,9.00,M,SCT,BKN,BKN,M,1400.00,3000.00,4200.00,M,UP,M,M,M,M,M,M,37.40,KCXP 140615Z AUTO 00000KT 9SM UP SCT014 BKN030 BKN042 03/01 A2966 RMK AO2,M
RTS,2025-02-14 06:15,-119.8764,39.6682,1539.00,37.40,30.20,74.98,M,M,0.00,29.61,M,10.00,M,FEW,SCT,BKN,M,900.00,2300.00,3000.00,M,-DZ,M,M,M,M,M,M,M,KRTS 140615Z AUTO 10SM -DZ FEW009 SCT023 BKN030 03/M01 A2961 RMK AO2,M
MEV,2025-02-14 06:15,-119.7500,38.9963,1441.42,37.40,35.60,93.14,0.00,0.00,0.00,29.67,M,3.00,M,FEW,SCT,BKN,M,600.00,1100.00,1500.00,M,-RA BR,M,M,M,M,M,M,37.40,KMEV 140615Z AUTO 00000KT 3SM -RA BR FEW006 SCT011 BKN015 03/02 A2967 RMK AO2,M
10U,2025-02-14 06:20,-116.1876,41.9532,1637.00,37.40,32.00,80.65,210.00,10.00,0.00,29.56,M,10.00,M,FEW,SCT,BKN,M,2800.00,3900.00,4800.00,M,M,M,M,M,M,M,M,29.74,K10U 140620Z AUTO 21010KT 10SM FEW028 SCT039 BKN048 03/00 A2956 RMK AO2,M
TPH,2025-02-14 06:25,-117.0904,38.0505,1654.00,38.00,31.00,75.65,160.00,10.00,0.00,29.75,M,10.00,M,SCT,BKN,OVC,M,1700.00,2600.00,4300.00,M,M,M,M,M,M,M,M,30.49,KTPH 140625Z AUTO 16010KT 10SM SCT017 BKN026 OVC043 03/M01 A2975 RMK AO2 T00331006,M
RTS,2025-02-14 06:25,-119.8764,39.6682,1539.00,35.60,32.00,86.59,260.00,11.00,0.00,29.62,M,4.00,26.00,SCT,BKN,OVC,M,600.00,2400.00,4200.00,M,-SN,M,M,M,M,M,M,27.02,KRTS 140625Z AUTO 26011G26KT 4SM -SN SCT006 BKN024 OVC042 02/M00 A2962 RMK AO2,M
MEV,2025-02-14 06:25,-119.7500,38.9963,1441.42,37.40,33.80,86.69,190.00,5.00,0.00,29.68,M,2.50,11.00,FEW,BKN,OVC,M,400.00,1000.00,1500.00,M,-SN BR,M,M,M,M,M,M,32.81,KMEV 140625Z AUTO 19005G11KT 2 1/2SM -SN BR FEW004 BKN010 OVC015 03/01 A2968 RMK AO2 VIS 2V5,M
TMT,2025-02-14 06:30,-117.1971,39.4643,1749.34,33.30,31.00,91.15,230.00,11.00,0.00,29.69,M,10.00,M,SCT,M,M,M,8000.00,M,M,M,M,M,M,M,M,M,M,24.11,KTMT 140630Z AUTO 23011KT 10SM SCT080 01/M01 A2969 RMK AO2 T00071006,M
BVU,2025-02-14 06:35,-114.8611,35.9475,671.00,50.00,44.60,81.61,180.00,7.00,0.00,29.88,M,10.00,M,SCT,BKN,M,M,9500.00,11000.00,M,M,M,M,M,M,M,M,M,50.00,KBVU 140635Z AUTO 18007KT 10SM SCT095 BKN110 10/07 A2988 RMK AO2,M
BAM,2025-02-14 06:35,-116.8743,40.5990,1382.36,35.60,33.80,93.08,270.00,4.00,0.00,29.63,M,10.00,M,CLR,M,M,M,M,M,M,M,M,M,M,M,M,M,M,31.62,KBAM 140635Z AUTO 27004KT 10SM CLR 02/01 A2963 RMK AO1,M
CXP,2025-02-14 06:35,-119.7326,39.1923,1431.00,37.40,33.80,86.69,190.00,10.00,0.00,29.67,M,10.00,21.00,FEW,SCT,BKN,M,1500.00,3000.00,4800.00,M,-RA,M,M,M,M,M,M,29.74,KCXP 140635Z AUTO 19010G21KT 10SM -RA FEW015 SCT030 BKN048 03/01 A2967 RMK AO2,M
10U,2025-02-14 06:40,-116.1876,41.9532,1637.00,37.40,32.00,80.65,200.00,14.00,0.00,29.56,M,10.00,M,FEW,SCT,BKN,M,3400.00,4500.00,7000.00,M,M,M,M,M,M,M,M,28.12,K10U 140640Z AUTO 20014KT 10SM FEW034 SCT045 BKN070 03/00 A2956 RMK AO2,M
TMT,2025-02-14 06:50,-117.1971,39.4643,1749.34,33.00,30.70,91.14,230.00,13.00,0.00,29.69,M,10.00,17.00,SCT,BKN,M,M,7000.00,10000.00,M,M,M,M,M,M,M,M,M,22.85,KTMT 140650Z AUTO 23013G17KT 10SM SCT070 BKN100 01/M01 A2969 RMK AO2 T00061007,M
P68,2025-02-14 06:53,-116.0056,39.6014,1993.00,33.00,32.00,96.06,140.00,9.00,0.20,29.69,1005.00,M,M,M,M,M,M,M,M,M,M,M,M,M,M,M,M,M,24.76,KP68 140653Z AUTO 14009KT 01/00 A2969 RMK AO1 SLP050 P0020 T00060000,M
DRA,2025-02-14 06:53,-116.0278,36.6206,1009.00,50.00,32.00,49.81,200.00,23.00,0.00,29.78,1007.10,10.00,39.00,CLR,M,M,M,M,M,M,M,M,M,M,M,42.00,190.00,2025-02-14 06:21,50.00,KDRA 140653Z AUTO 20023G39KT 10SM CLR 10/00 A2978 RMK AO2 PK WND 19042/0621 SLP071 T01000000,M
ELY,2025-02-14 06:53,-114.8453,39.2950,1909.00,36.00,32.00,85.23,150.00,18.00,T,29.72,1004.70,8.00,25.00,OVC,M,M,M,2600.00,M,M,M,-SN,M,M,M,37.00,140.00,2025-02-14 06:17,25.01,KELY 140653Z AUTO 15018G25KT 8SM -SN OVC026 02/00 A2972 RMK AO2 PK WND 14037/0617 UPE0554B10E14B34E47RAB0554E43SNB47 SLP047 P0000 T00220000,M
VGT,2025-02-14 06:53,-115.1933,36.2111,667.00,48.00,32.00,53.67,90.00,11.00,0.00,29.84,1012.70,10.00,M,CLR,M,M,M,M,M,M,M,M,M,M,M,M,M,M,42.69,KVGT 140653Z AUTO 09011KT 10SM CLR 09/00 A2984 RMK AO2 SLP127 T00890000 PNO $,M
LOL,2025-02-14 06:53,-118.5701,40.0684,1192.43,38.00,33.00,82.00,210.00,11.00,0.00,29.63,1004.50,10.00,M,BKN,BKN,M,M,9000.00,10000.00,M,M,M,M,M,M,M,M,M,30.05,KLOL 140653Z AUTO 21011KT 10SM BKN090 BKN100 03/01 A2963 RMK AO2 SLP045 T00330006,M
BVU,2025-02-14 06:55,-114.8611,35.9475,671.00,50.00,44.60,81.61,180.00,5.00,0.00,29.87,M,10.00,M,BKN,OVC,M,M,9500.00,12000.00,M,M,M,M,M,M,M,M,M,50.00,KBVU 140655Z AUTO 18005KT 10SM BKN095 OVC120 10/07 A2987 RMK AO2,M
RNO,2025-02-14 06:55,-119.7711,39.4839,1341.00,41.00,32.00,70.08,50.00,7.00,T,29.61,1002.30,10.00,M,BKN,BKN,M,M,3800.00,6000.00,M,M,M,M,M,M,M,M,M,35.75,KRNO 140655Z 05007KT 10SM BKN038 BKN060 05/00 A2961 RMK AO2 RAE11 SLP023 P0000 T00500000,M
BAM,2025-02-14 06:55,-116.8743,40.5990,1382.36,35.60,33.80,93.08,320.00,3.00,0.00,29.64,M,10.00,M,SCT,BKN,BKN,M,4400.00,5000.00,7500.00,M,M,M,M,M,M,M,M,32.80,KBAM 140655Z AUTO 32003KT 10SM SCT044 BKN050 BKN075 02/01 A2964 RMK AO1,M
CXP,2025-02-14 06:55,-119.7326,39.1923,1431.00,35.60,33.80,93.08,0.00,0.00,0.00,29.67,M,10.00,M,SCT,SCT,BKN,M,2500.00,4300.00,5500.00,M,M,M,M,M,M,M,M,35.60,KCXP 140655Z AUTO 00000KT 10SM SCT025 SCT043 BKN055 02/01 A2967 RMK AO2,M
RTS,2025-02-14 06:55,-119.8764,39.6682,1539.00,35.60,33.80,93.08,280.00,12.00,0.03,29.63,M,9.00,19.00,FEW,BKN,BKN,M,1000.00,2200.00,2800.00,M,-DZ,M,M,M,M,M,M,26.58,KRTS 140655Z AUTO 28012G19KT 9SM -DZ FEW010 BKN022 BKN028 02/01 A2963 RMK AO2 P0003,M
MEV,2025-02-14 06:55,-119.7500,38.9963,1441.42,35.60,33.80,93.08,130.00,14.00,0.07,29.67,M,9.00,M,SCT,BKN,OVC,M,1100.00,1700.00,2200.00,M,UP,M,M,M,M,M,M,25.80,KMEV 140655Z AUTO 13014KT 9SM UP SCT011 BKN017 OVC022 02/01 A2967 RMK AO2 P0007,M
INS,2025-02-14 06:55,-115.6733,36.5872,955.00,47.30,35.40,63.13,10.00,6.00,0.00,29.80,1008.00,10.00,M,FEW,M,M,M,9000.00,M,M,M,M,M,M,M,26.00,190.00,2025-02-14 06:06,43.96,KINS 140655Z AUTO 01006KT 10SM FEW090 09/02 A2980 RMK AO2 PK WND 19026/06 SLP080 T00850019 $,M
LSV,2025-02-14 06:55,-115.0343,36.2362,570.00,51.00,44.40,78.04,90.00,12.00,0.00,29.83,1010.00,10.00,M,FEW,SCT,M,M,4000.00,4800.00,M,M,M,M,M,M,M,M,M,51.00,KLSV 140655Z AUTO 09012KT 10SM FEW040 SCT048 11/07 A2983 RMK AO2 SLP100 T01060069 $,M
EKO,2025-02-14 06:56,-115.7860,40.8242,1367.00,37.00,35.00,92.39,200.00,7.00,T,29.62,1003.50,10.00,M,BKN,BKN,M,M,4400.00,12000.00,M,M,M,M,M,M,M,M,M,30.87,KEKO 140656Z AUTO 20007KT 10SM BKN044 BKN120 03/02 A2962 RMK AO2 RAE0557 SLP035 P0000 T00280017 $,M
WMC,2025-02-14 06:56,-117.8072,40.9019,1315.00,39.00,35.00,85.42,180.00,11.00,0.01,29.60,1002.50,10.00,M,FEW,OVC,M,M,2500.00,4400.00,M,M,M,M,M,M,M,M,M,31.31,KWMC 140656Z AUTO 18011KT 10SM FEW025 OVC044 04/02 A2960 RMK AO2 RAE22 SLP025 P0001 T00390017,M
HND,2025-02-14 06:56,-115.1344,35.9729,742.79,50.00,42.00,73.87,230.00,8.00,0.00,29.86,1013.20,10.00,M,CLR,M,M,M,M,M,M,M,M,M,M,M,M,M,M,50.00,KHND 140656Z AUTO 23008KT 10SM CLR 10/06 A2986 RMK AO2 SLP132 T01000056 401060022 $,M
TPH,2025-02-14 06:56,-117.0904,38.0505,1654.00,36.00,31.00,81.86,160.00,11.00,0.00,29.75,1007.10,10.00,M,SCT,BKN,M,M,1700.00,3600.00,M,M,M,M,M,M,M,M,M,27.52,KTPH 140656Z AUTO 16011KT 10SM SCT017 BKN036 02/M01 A2975 RMK AO2 SLP071 T00221006,M
LAS,2025-02-14 06:56,-115.1634,36.0719,663.00,52.00,41.00,66.00,230.00,12.00,0.00,29.86,1010.90,10.00,22.00,FEW,FEW,OVC,M,7000.00,9000.00,18000.00,M,M,M,M,M,27.00,200.00,2025-02-14 05:58,52.00,KLAS 140656Z 23012G22KT 10SM FEW070 FEW090 OVC180 11/05 A2986 RMK AO2 PK WND 20027/0558 SLP109 T01110050,M
NFL,2025-02-14 06:57,-118.7010,39.4166,1199.00,40.00,32.00,72.85,190.00,4.00,0.00,29.65,1002.30,10.00,M,SCT,OVC,M,M,6500.00,9000.00,M,M,M,M,M,M,M,M,M,36.76,KNFL 140657Z 19004KT 10SM SCT065 OVC090 04/00 A2965 RMK AO2 SLP023 T00440000,M
10U,2025-02-14 07:00,-116.1876,41.9532,1637.00,37.40,32.00,80.65,210.00,15.00,0.00,29.57,M,9.00,22.00,SCT,BKN,OVC,M,1000.00,2700.00,7500.00,M,-RA,M,M,M,M,M,M,27.78,K10U 140700Z AUTO 21015G22KT 9SM -RA SCT010 BKN027 OVC075 03/00 A2957 RMK AO2,M
TMT,2025-02-14 07:10,-117.1971,39.4643,1749.34,34.00,30.00,85.11,210.00,13.00,0.00,29.70,M,10.00,16.00,BKN,OVC,M,M,7000.00,10000.00,M,M,M,M,M,M,M,M,M,24.13,KTMT 140710Z AUTO 21013G16KT 10SM BKN070 OVC100 01/M01 A2970 RMK AO2 T00121012,M
BVU,2025-02-14 07:15,-114.8611,35.9475,671.00,50.00,44.60,81.61,190.00,5.00,0.00,29.88,M,10.00,M,BKN,M,M,M,11000.00,M,M,M,M,M,M,M,M,M,M,50.00,KBVU 140715Z AUTO 19005KT 10SM BKN110 10/07 A2988 RMK AO2,M
BAM,2025-02-14 07:15,-116.8743,40.5990,1382.36,39.20,33.80,80.79,0.00,0.00,0.00,29.65,M,10.00,M,SCT,BKN,OVC,M,2900.00,4400.00,5000.00,M,M,M,M,M,M,M,M,39.20,KBAM 140715Z AUTO 00000KT 10SM SCT029 BKN044 OVC050 04/01 A2965 RMK AO1,M
CXP,2025-02-14 07:15,-119.7326,39.1923,1431.00,35.60,33.80,93.08,200.00,5.00,0.00,29.68,M,9.00,11.00,FEW,BKN,OVC,M,2400.00,3300.00,4400.00,M,-RA,M,M,M,M,M,M,30.67,KCXP 140715Z AUTO 20005G11KT 9SM -RA FEW024 BKN033 OVC044 02/01 A2968 RMK AO2,M
RTS,2025-02-14 07:15,-119.8764,39.6682,1539.00,35.60,30.20,80.51,270.00,17.00,0.00,29.62,M,10.00,22.00,FEW,SCT,BKN,M,2300.00,3900.00,4600.00,M,M,M,M,M,M,M,M,24.79,KRTS 140715Z AUTO 27017G22KT 10SM FEW023 SCT039 BKN046 02/M01 A2962 RMK AO2,M
MEV,2025-02-14 07:15,-119.7500,38.9963,1441.42,35.60,33.80,93.08,140.00,8.00,0.00,29.67,M,3.00,19.00,SCT,BKN,OVC,M,800.00,1100.00,1900.00,M,-SN BR,M,M,M,M,M,M,28.55,KMEV 140715Z AUTO 14008G19KT 3SM -SN BR SCT008 BKN011 OVC019 02/01 A2967 RMK AO2,M
10U,2025-02-14 07:20,-116.1876,41.9532,1637.00,37.40,32.00,80.65,220.00,10.00,0.00,29.57,M,10.00,16.00,FEW,SCT,BKN,M,1000.00,2800.00,3700.00,M,M,M,M,M,M,M,M,29.74,K10U 140720Z AUTO 22010G16KT 10SM FEW010 SCT028 BKN037 03/00 A2957 RMK AO2,M
RTS,2025-02-14 07:25,-119.8764,39.6682,1539.00,37.40,30.20,74.98,280.00,14.00,0.00,29.62,M,10.00,23.00,FEW,FEW,SCT,M,2900.00,3900.00,4700.00,M,M,M,M,M,M,M,M,28.12,KRTS 140725Z AUTO 28014G23KT 10SM FEW029 FEW039 SCT047 03/M01 A2962 RMK AO2,M
MEV,2025-02-14 07:25,-119.7500,38.9963,1441.42,37.40,33.80,86.69,130.00,7.00,0.00,29.68,M,6.00,13.00,FEW,SCT,BKN,M,800.00,1100.00,1900.00,M,UP BR,M,M,M,M,M,M,31.36,KMEV 140725Z AUTO 13007G13KT 6SM UP BR FEW008 SCT011 BKN019 03/01 A2968 RMK AO2,M
TMT,2025-02-14 07:30,-117.1971,39.4643,1749.34,35.00,28.80,77.87,220.00,11.00,0.00,29.70,M,10.00,M,OVC,M,M,M,7000.00,M,M,M,M,M,M,M,M,M,M,26.26,KTMT 140730Z AUTO 22011KT 10SM OVC070 02/M02 A2970 RMK AO2 T00161018,M
BVU,2025-02-14 07:35,-114.8611,35.9475,671.00,50.00,42.80,76.18,150.00,11.00,0.00,29.85,M,10.00,M,FEW,M,M,M,11000.00,M,M,M,M,M,M,M,M,M,M,50.00,KBVU 140735Z AUTO 15011KT 10SM FEW110 10/06 A2985 RMK AO2,M
BAM,2025-02-14 07:35,-116.8743,40.5990,1382.36,41.00,33.80,75.33,310.00,4.00,0.00,29.65,M,10.00,M,OVC,M,M,M,4800.00,M,M,M,M,M,M,M,M,M,M,37.93,KBAM 140735Z AUTO 31004KT 10SM OVC048 05/01 A2965 RMK AO1,M
CXP,2025-02-14 07:35,-119.7326,39.1923,1431.00,37.40,33.80,86.69,210.00,6.00,0.00,29.68,M,5.00,12.00,BKN,BKN,OVC,M,1200.00,2100.00,3100.00,M,UP BR,M,M,M,M,M,M,32.03,KCXP 140735Z AUTO 21006G12KT 5SM UP BR BKN012 BKN021 OVC031 03/01 A2968 RMK AO2,M
TPH,2025-02-14 07:39,-117.0904,38.0505,1654.00,35.00,31.00,85.17,150.00,9.00,0.00,29.76,M,10.00,M,SCT,BKN,M,M,1000.00,1400.00,M,M,M,M,M,M,M,M,M,27.24,KTPH 140739Z AUTO 15009KT 10SM SCT010 BKN014 02/M01 A2976 RMK AO2 T00171006,M
10U,2025-02-14 07:40,-116.1876,41.9532,1637.00,37.40,32.00,80.65,200.00,14.00,0.00,29.57,M,10.00,19.00,BKN,OVC,M,M,3200.00,4000.00,M,M,M,M,M,M,M,M,M,28.12,K10U 140740Z AUTO 20014G19KT 10SM BKN032 OVC040 03/00 A2957 RMK AO2,M
TPH,2025-02-14 07:49,-117.0904,38.0505,1654.00,36.00,31.00,81.86,150.00,8.00,0.00,29.76,M,10.00,M,BKN,OVC,M,M,900.00,1500.00,M,M,M,M,M,M,M,M,M,29.04,KTPH 140749Z AUTO 15008KT 10SM BKN009 OVC015 02/M01 A2976 RMK AO2 CIG 008V012 T00221006,M
TMT,2025-02-14 07:50,-117.1971,39.4643,1749.34,34.00,29.00,81.71,230.00,8.00,0.00,29.70,M,10.00,14.00,SCT,OVC,M,M,6000.00,7000.00,M,M,M,M,M,M,M,M,M,26.58,KTMT 140750Z AUTO 23008G14KT 10SM SCT060 OVC070 01/M02 A2970 RMK AO2 T00121017,M
P68,2025-02-14 07:53,-116.0056,39.6014,1993.00,28.00,27.00,95.97,290.00,3.00,0.00,29.68,1004.80,M,M,M,M,M,M,M,M,M,M,M,M,M,M,M,M,M,24.12,KP68 140753Z AUTO 29003KT M02/M03 A2968 RMK AO1 SLP048 T10221028 400781100,M
DRA,2025-02-14 07:53,-116.0278,36.6206,1009.00,50.00,31.00,47.83,200.00,23.00,0.00,29.79,1006.90,10.00,42.00,CLR,M,M,M,M,M,M,M,M,M,M,M,43.00,230.00,2025-02-14 07:23,50.00,KDRA 140753Z AUTO 20023G42KT 10SM CLR 10/M01 A2979 RMK AO2 PK WND 23043/0723 SLP069 T01001006 401220011,M
ELY,2025-02-14 07:53,-114.8453,39.2950,1909.00,37.00,31.00,78.69,170.00,9.00,0.01,29.72,1004.40,10.00,23.00,OVC,M,M,M,2900.00,M,M,M,M,M,M,M,28.00,140.00,2025-02-14 07:22,29.73,KELY 140753Z AUTO 17009G23KT 10SM OVC029 03/M01 A2972 RMK AO2 PK WND 14028/0722 RAB17E34UPB20E33SNE17 SLP044 P0001 T00281006 400331089,M
VGT,2025-02-14 07:53,-115.1933,36.2111,667.00,52.00,32.00,46.25,90.00,4.00,0.00,29.82,1011.80,10.00,26.00,CLR,M,M,M,M,M,M,M,M,M,M,M,26.00,110.00,2025-02-14 07:47,52.00,KVGT 140753Z AUTO 09004G26KT 10SM CLR 11/00 A2982 RMK AO2 PK WND 11026/0747 SLP118 T01110000 401110044 PNO $,M
LOL,2025-02-14 07:53,-118.5701,40.0684,1192.43,40.00,33.00,75.84,220.00,18.00,0.00,29.64,1004.40,10.00,M,CLR,M,M,M,M,M,M,M,M,M,M,M,26.00,210.00,2025-02-14 07:38,30.28,KLOL 140753Z AUTO 22018KT 10SM CLR 04/01 A2964 RMK AO2 PK WND 21026/0738 SLP044 T00440006 400891083,M
BVU,2025-02-14 07:55,-114.8611,35.9475,671.00,50.00,41.00,71.07,200.00,10.00,0.00,29.85,M,10.00,M,CLR,M,M,M,M,M,M,M,M,M,M,M,M,M,M,50.00,KBVU 140755Z AUTO 20010KT 10SM CLR 10/05 A2985 RMK AO2,M
RNO,2025-02-14 07:55,-119.7711,39.4839,1341.00,38.00,34.00,85.35,200.00,11.00,T,29.65,1003.60,10.00,18.00,BKN,OVC,M,M,2500.00,4000.00,M,M,-RA,M,M,M,M,M,M,30.05,KRNO 140755Z 20011G18KT 10SM -RA BKN025 OVC040 03/01 A2965 RMK AO2 RAB49 SLP036 P0000 T00330011 400501028,M
BAM,2025-02-14 07:55,-116.8743,40.5990,1382.36,39.20,33.80,80.79,250.00,3.00,0.00,29.65,M,10.00,M,OVC,M,M,M,4600.00,M,M,M,M,M,M,M,M,M,M,36.92,KBAM 140755Z AUTO 25003KT 10SM OVC046 04/01 A2965 RMK AO1,M
CXP,2025-02-14 07:55,-119.7326,39.1923,1431.00,35.60,33.80,93.08,190.00,5.00,0.02,29.67,M,5.00,M,SCT,BKN,BKN,M,1100.00,1600.00,2800.00,M,-RA BR,M,M,M,M,M,M,30.67,KCXP 140755Z AUTO 19005KT 5SM -RA BR SCT011 BKN016 BKN028 02/01 A2967 RMK AO2 P0002,M
RTS,2025-02-14 07:55,-119.8764,39.6682,1539.00,37.40,30.20,74.98,240.00,12.00,0.00,29.64,M,10.00,M,FEW,SCT,BKN,M,2500.00,3500.00,4300.00,M,M,M,M,M,M,M,M,28.87,KRTS 140755Z AUTO 24012KT 10SM FEW025 SCT035 BKN043 03/M01 A2964 RMK AO2,M
MEV,2025-02-14 07:55,-119.7500,38.9963,1441.42,35.60,33.80,93.08,170.00,5.00,0.04,29.68,M,8.00,M,SCT,BKN,OVC,M,1100.00,1600.00,2900.00,M,-RA,M,M,M,M,M,M,30.67,KMEV 140755Z AUTO 17005KT 8SM -RA SCT011 BKN016 OVC029 02/01 A2968 RMK AO2 P0004,M
INS,2025-02-14 07:55,-115.6733,36.5872,955.00,46.60,35.40,64.82,10.00,8.00,0.00,29.80,1008.00,10.00,M,CLR,M,M,M,M,M,M,M,M,M,M,M,M,M,M,42.10,KINS 140755Z AUTO 01008KT 10SM CLR 08/02 A2980 RMK AO2 SLP080 T00810019 401091001 $,M
LSV,2025-02-14 07:55,-115.0343,36.2362,570.00,52.50,42.00,67.34,190.00,12.00,0.00,29.80,1008.90,10.00,15.00,CLR,M,M,M,M,M,M,M,M,M,M,M,M,M,M,52.50,KLSV 140755Z AUTO 19012G15KT 10SM CLR 11/06 A2980 RMK AO2 SLP089 T01140055 401200054 $,M
EKO,2025-02-14 07:56,-115.7860,40.8242,1367.00,37.00,35.00,92.39,230.00,7.00,0.00,29.64,1003.90,10.00,M,BKN,OVC,M,M,6000.00,10000.00,M,M,M,M,M,M,M,M,M,30.87,KEKO 140756Z AUTO 23007KT 10SM BKN060 OVC100 03/02 A2964 RMK AO2 SLP039 T00280017 400501094 $,M
WMC,2025-02-14 07:56,-117.8072,40.9019,1315.00,39.00,35.00,85.42,190.00,10.00,0.00,29.61,1002.90,10.00,M,BKN,BKN,M,M,4300.00,11000.00,M,M,M,M,M,M,M,M,M,31.75,KWMC 140756Z AUTO 19010KT 10SM BKN043 BKN110 04/02 A2961 RMK AO2 SLP029 T00390017 400501056,M
HND,2025-02-14 07:56,-115.1344,35.9729,742.79,51.00,40.00,65.87,210.00,18.00,0.00,29.85,1012.60,10.00,M,CLR,M,M,M,M,M,M,M,M,M,M,M,M,M,M,51.00,KHND 140756Z AUTO 21018KT 10SM CLR 11/04 A2985 RMK AO2 SLP126 T01060044 $,M
TPH,2025-02-14 07:56,-117.0904,38.0505,1654.00,36.00,31.00,81.86,160.00,9.00,0.00,29.76,1007.40,10.00,M,BKN,OVC,M,M,900.00,1500.00,M,M,M,M,M,M,M,M,M,28.49,KTPH 140756Z AUTO 16009KT 10SM BKN009 OVC015 02/M01 A2976 RMK AO2 CIG 008V014 SLP074 T00221006 400611033,M
LAS,2025-02-14 07:56,-115.1634,36.0719,663.00,53.00,40.00,61.19,210.00,13.00,0.00,29.84,1010.20,10.00,20.00,FEW,SCT,M,M,9000.00,18000.00,M,M,M,M,M,M,M,M,M,53.00,KLAS 140756Z 21013G20KT 10SM FEW090 SCT180 12/04 A2984 RMK AO2 SLP102 T01170044 401170044,M
NFL,2025-02-14 07:57,-118.7010,39.4166,1199.00,38.00,31.00,75.65,90.00,7.00,0.00,29.66,1002.70,10.00,M,BKN,BKN,M,M,6000.00,7000.00,M,M,M,M,M,M,M,M,M,32.09,KNFL 140757Z AUTO 09007KT 10SM BKN060 BKN070 03/M01 A2966 RMK AO2 SLP027 T00331006 400941028,M
10U,2025-02-14 08:00,-116.1876,41.9532,1637.00,37.40,32.00,80.65,210.00,15.00,0.00,29.58,M,10.00,22.00,BKN,OVC,M,M,2600.00,3300.00,M,M,M,M,M,M,M,M,M,27.78,K10U 140800Z AUTO 21015G22KT 10SM BKN026 OVC033 03/M00 A2958 RMK AO2,M
TMT,2025-02-14 08:10,-117.1971,39.4643,1749.34,33.00,29.00,85.04,230.00,4.00,0.00,29.70,M,10.00,M,OVC,M,M,M,6000.00,M,M,M,M,M,M,M,M,M,M,28.59,KTMT 140810Z AUTO 23004KT 10SM OVC060 01/M02 A2970 RMK AO2 T00051016,M
BVU,2025-02-14 08:15,-114.8611,35.9475,671.00,50.00,41.00,71.07,200.00,7.00,0.00,29.84,M,10.00,14.00,CLR,M,M,M,M,M,M,M,M,M,M,M,M,M,M,50.00,KBVU 140815Z AUTO 20007G14KT 10SM CLR 10/05 A2984 RMK AO2,M
BAM,2025-02-14 08:15,-116.8743,40.5990,1382.36,37.40,33.80,86.69,230.00,8.00,0.00,29.67,M,10.00,M,SCT,SCT,BKN,M,4600.00,5500.00,12000.00,M,M,M,M,M,M,M,M,30.76,KBAM 140815Z AUTO 23008KT 10SM SCT046 SCT055 BKN120 03/01 A2967 RMK AO1,M
CXP,2025-02-14 08:15,-119.7326,39.1923,1431.00,35.60,32.00,86.59,0.00,0.00,0.00,29.68,M,3.00,10.00,FEW,BKN,OVC,M,900.00,1200.00,3800.00,M,-SN BR,M,M,M,M,M,M,35.60,KCXP 140815Z AUTO 00000G10KT 3SM -SN BR FEW009 BKN012 OVC038 02/00 A2968 RMK AO2,M
RTS,2025-02-14 08:15,-119.8764,39.6682,1539.00,37.40,30.20,74.98,250.00,10.00,0.00,29.65,M,10.00,M,SCT,BKN,OVC,M,2500.00,3100.00,5500.00,M,M,M,M,M,M,M,M,29.74,KRTS 140815Z AUTO 25010KT 10SM SCT025 BKN031 OVC055 03/M01 A2965 RMK AO2,M
MEV,2025-02-14 08:15,-119.7500,38.9963,1441.42,35.60,33.80,93.08,M,3.00,0.00,29.67,M,8.00,M,SCT,OVC,M,M,1300.00,2000.00,M,M,UP,M,M,M,M,M,M,32.80,KMEV 140815Z AUTO VRB03KT 8SM UP SCT013 OVC020 02/01 A2967 RMK AO2,M
ELY,2025-02-14 08:19,-114.8453,39.2950,1909.00,36.00,31.00,81.86,150.00,9.00,0.00,29.73,M,10.00,M,BKN,OVC,M,M,3000.00,3400.00,M,M,M,M,M,M,M,M,M,28.49,KELY 140819Z AUTO 15009KT 10SM BKN030 OVC034 02/M01 A2973 RMK AO2 T00221006,M
TPH,2025-02-14 08:19,-117.0904,38.0505,1654.00,35.00,31.00,85.17,170.00,11.00,0.00,29.76,M,10.00,M,SCT,M,M,M,1000.00,M,M,M,M,M,M,M,M,M,M,26.26,KTPH 140819Z AUTO 17011KT 10SM SCT010 02/M01 A2976 RMK AO2 T00171006,M
10U,2025-02-14 08:20,-116.1876,41.9532,1637.00,37.40,32.00,80.65,210.00,14.00,0.00,29.58,M,10.00,21.00,OVC,M,M,M,2600.00,M,M,M,M,M,M,M,M,M,M,28.12,K10U 140820Z AUTO 21014G21KT 10SM OVC026 03/M00 A2958 RMK AO2,M
RTS,2025-02-14 08:25,-119.8764,39.6682,1539.00,35.60,30.20,80.51,230.00,11.00,0.00,29.65,M,6.00,19.00,FEW,SCT,BKN,M,300.00,1000.00,2200.00,M,+UP,M,M,M,M,M,M,27.02,KRTS 140825Z AUTO 23011G19KT 6SM +UP FEW003 SCT010 BKN022 02/M01 A2965 RMK AO2,M
MEV,2025-02-14 08:25,-119.7500,38.9963,1441.42,35.60,33.80,93.08,0.00,0.00,0.00,29.68,M,9.00,M,FEW,BKN,OVC,M,1300.00,2100.00,2800.00,M,UP,M,M,M,M,M,M,35.60,KMEV 140825Z AUTO 00000KT 9SM UP FEW013 BKN021 OVC028 02/01 A2968 RMK AO2,M
TMT,2025-02-14 08:30,-117.1971,39.4643,1749.34,33.00,29.30,86.09,240.00,7.00,0.00,29.71,M,10.00,M,OVC,M,M,M,6000.00,M,M,M,M,M,M,M,M,M,M,26.00,KTMT 140830Z AUTO 24007KT 10SM OVC060 01/M01 A2971 RMK AO2 T00051015,M
BVU,2025-02-14 08:35,-114.8611,35.9475,671.00,50.00,42.80,76.18,150.00,10.00,0.00,29.85,M,10.00,M,CLR,M,M,M,M,M,M,M,M,M,M,M,M,M,M,50.00,KBVU 140835Z AUTO 15010KT 10SM CLR 10/06 A2985 RMK AO2,M
BAM,2025-02-14 08:35,-116.8743,40.5990,1382.36,39.20,33.80,80.79,220.00,10.00,0.00,29.67,M,10.00,M,SCT,SCT,BKN,M,4800.00,5500.00,12000.00,M,M,M,M,M,M,M,M,32.00,KBAM 140835Z AUTO 22010KT 10SM SCT048 SCT055 BKN120 04/01 A2967 RMK AO1,M
CXP,2025-02-14 08:35,-119.7326,39.1923,1431.00,35.60,33.80,93.08,0.00,0.00,0.00,29.68,M,9.00,M,BKN,OVC,M,M,1000.00,1600.00,M,M,UP,M,M,M,M,M,M,35.60,KCXP 140835Z AUTO 00000KT 9SM UP BKN010 OVC016 02/01 A2968 RMK AO2,M
10U,2025-02-14 08:40,-116.1876,41.9532,1637.00,37.40,32.00,80.65,220.00,11.00,0.00,29.60,M,10.00,20.00,OVC,M,M,M,2500.00,M,M,M,M,M,M,M,M,M,M,29.29,K10U 140840Z AUTO 22011G20KT 10SM OVC025 03/M00 A2960 RMK AO2,M
TPH,2025-02-14 08:41,-117.0904,38.0505,1654.00,35.00,31.00,85.17,160.00,9.00,0.00,29.77,M,10.00,M,BKN,M,M,M,1500.00,M,M,M,M,M,M,M,M,M,M,27.24,KTPH 140841Z AUTO 16009KT 10SM BKN015 02/M01 A2977 RMK AO2 T00171006,M
TMT,2025-02-14 08:50,-117.1971,39.4643,1749.34,33.60,29.70,85.43,240.00,8.00,0.00,29.71,M,10.00,M,OVC,M,M,M,6000.00,M,M,M,M,M,M,M,M,M,M,26.08,KTMT 140850Z AUTO 24008KT 10SM OVC060 01/M01 A2971 RMK AO2 T00091013,M
P68,2025-02-14 08:53,-116.0056,39.6014,1993.00,29.00,27.00,92.12,10.00,5.00,0.00,29.70,1004.90,M,M,M,M,M,M,M,M,M,M,M,M,M,M,M,M,M,22.83,KP68 140853Z AUTO 01005KT M02/M03 A2970 RMK AO1 SLP049 60020 T10171028 53007,M
DRA,2025-02-14 08:53,-116.0278,36.6206,1009.00,49.00,31.00,49.65,200.00,13.00,0.00,29.80,1006.90,10.00,29.00,BKN,M,M,M,4400.00,M,M,M,M,M,M,M,40.00,190.00,2025-02-14 08:21,43.35,KDRA 140853Z AUTO 20013G29KT 10SM BKN044 09/M01 A2980 RMK AO2 PK WND 19040/0821 SLP069 T00941006 53006,M
ELY,2025-02-14 08:53,-114.8453,39.2950,1909.00,37.00,30.00,75.56,180.00,9.00,0.00,29.73,1004.80,10.00,M,BKN,BKN,OVC,M,3000.00,3700.00,7000.00,M,M,M,M,M,M,M,M,29.73,KELY 140853Z AUTO 18009KT 10SM BKN030 BKN037 OVC070 03/M01 A2973 RMK AO2 SLP048 60001 T00281011 51009,M
VGT,2025-02-14 08:53,-115.1933,36.2111,667.00,50.00,32.00,49.81,200.00,8.00,0.00,29.81,1011.50,10.00,M,CLR,M,M,M,M,M,M,M,M,M,M,M,M,M,M,50.00,KVGT 140853Z AUTO 20008KT 10SM CLR 10/00 A2981 RMK AO2 SLP115 6//// T01000000 56017 PNO $,M
LOL,2025-02-14 08:53,-118.5701,40.0684,1192.43,40.00,33.00,75.84,280.00,7.00,0.00,29.65,1004.70,10.00,M,FEW,OVC,M,M,4600.00,11000.00,M,M,M,M,M,M,M,M,M,34.53,KLOL 140853Z AUTO 28007KT 240V320 10SM FEW046 OVC110 04/01 A2965 RMK AO2 SLP047 T00440006 51011,M
BVU,2025-02-14 08:55,-114.8611,35.9475,671.00,48.20,41.00,76.01,120.00,8.00,0.00,29.85,M,10.00,M,CLR,M,M,M,M,M,M,M,M,M,M,M,M,M,M,44.07,KBVU 140855Z AUTO 12008KT 10SM CLR 09/05 A2985 RMK AO2,M
RNO,2025-02-14 08:55,-119.7711,39.4839,1341.00,38.00,33.00,82.00,190.00,7.00,0.01,29.64,1003.20,10.00,M,FEW,SCT,BKN,M,2500.00,3200.00,4500.00,M,M,M,M,M,M,M,M,32.09,KRNO 140855Z 19007KT 10SM FEW025 SCT032 BKN045 03/01 A2964 RMK AO2 RAE44 SLP032 P0001 60001 T00330006 50012,M
BAM,2025-02-14 08:55,-116.8743,40.5990,1382.36,41.00,33.80,75.33,220.00,7.00,0.00,29.67,M,10.00,M,SCT,SCT,SCT,M,3800.00,4400.00,5000.00,M,M,M,M,M,M,M,M,35.75,KBAM 140855Z AUTO 22007KT 10SM SCT038 SCT044 SCT050 05/01 A2967 RMK AO1,M
CXP,2025-02-14 08:55,-119.7326,39.1923,1431.00,35.60,33.80,93.08,M,3.00,0.03,29.69,M,7.00,M,BKN,BKN,BKN,M,1200.00,1700.00,2700.00,M,-RA,M,M,M,M,M,M,32.80,KCXP 140855Z AUTO VRB03KT 7SM -RA BKN012 BKN017 BKN027 02/01 A2969 RMK AO2 P0003,M
RTS,2025-02-14 08:55,-119.8764,39.6682,1539.00,35.60,33.80,93.08,240.00,14.00,0.04,29.63,M,9.00,22.00,FEW,SCT,BKN,M,400.00,1000.00,2100.00,M,-RA,M,M,M,M,M,M,25.80,KRTS 140855Z AUTO 24014G22KT 9SM -RA FEW004 SCT010 BKN021 02/01 A2963 RMK AO2 P0004,M
MEV,2025-02-14 08:55,-119.7500,38.9963,1441.42,37.40,33.80,86.69,0.00,0.00,0.01,29.68,M,10.00,M,FEW,SCT,OVC,M,1400.00,2300.00,3000.00,M,UP,M,M,M,M,M,M,37.40,KMEV 140855Z AUTO 00000KT 10SM UP FEW014 SCT023 OVC030 03/01 A2968 RMK AO2 P0001,M
INS,2025-02-14 08:55,-115.6733,36.5872,955.00,48.40,36.00,62.03,0.00,0.00,0.00,29.80,1007.80,10.00,M,SCT,M,M,M,6000.00,M,M,M,M,M,M,M,M,M,M,48.40,KINS 140855Z AUTO 00000KT 10SM SCT060 09/02 A2980 RMK AO2 SLP078 T00910022 58001 $,M
LSV,2025-02-14 08:55,-115.0343,36.2362,570.00,54.30,40.00,58.35,190.00,17.00,0.00,29.79,1008.50,10.00,22.00,CLR,M,M,M,M,M,M,M,M,M,M,M,M,M,M,54.30,KLSV 140855Z AUTO 19017G22KT 10SM CLR 12/04 A2979 RMK AO2 SLP085 T01240044 57022 $,M
EKO,2025-02-14 08:56,-115.7860,40.8242,1367.00,35.00,34.00,96.09,210.00,5.00,0.00,29.65,1004.30,10.00,M,SCT,BKN,OVC,M,5000.00,6000.00,7500.00,M,M,M,M,M,M,M,M,29.96,KEKO 140856Z AUTO 21005KT 10SM SCT050 BKN060 OVC075 02/01 A2965 RMK AO2 SLP043 60000 T00170011 53005 $,M
WMC,2025-02-14 08:56,-117.8072,40.9019,1315.00,39.00,35.00,85.42,150.00,12.00,0.00,29.62,1003.40,10.00,M,FEW,BKN,OVC,M,4000.00,4700.00,8000.00,M,M,M,M,M,M,M,M,30.91,KWMC 140856Z AUTO 15012KT 10SM FEW040 BKN047 OVC080 04/02 A2962 RMK AO2 SLP034 60001 T00390017 53012,M
HND,2025-02-14 08:56,-115.1344,35.9729,742.79,50.00,39.00,65.75,210.00,13.00,0.00,29.86,1013.00,10.00,19.00,CLR,M,M,M,M,M,M,M,M,M,M,M,M,M,M,50.00,KHND 140856Z AUTO 21013G19KT 10SM CLR 10/04 A2986 RMK AO2 SLP130 T01000039 55015 $,M
TPH,2025-02-14 08:56,-117.0904,38.0505,1654.00,35.00,31.00,85.17,170.00,10.00,0.00,29.77,1007.30,10.00,M,BKN,M,M,M,1700.00,M,M,M,M,M,M,M,M,M,M,26.73,KTPH 140856Z AUTO 17010KT 10SM BKN017 02/M01 A2977 RMK AO2 SLP073 T00171006 53006,M
LAS,2025-02-14 08:56,-115.1634,36.0719,663.00,53.00,39.00,58.85,200.00,11.00,0.00,29.84,1010.30,10.00,24.00,FEW,FEW,M,M,9000.00,18000.00,M,M,M,M,M,M,M,M,M,53.00,KLAS 140856Z 20011G24KT 10SM FEW090 FEW180 12/04 A2984 RMK AO2 SLP103 T01170039 55006,M
NFL,2025-02-14 08:57,-118.7010,39.4166,1199.00,40.00,31.00,69.97,170.00,7.00,0.00,29.66,1002.70,10.00,M,OVC,M,M,M,7500.00,M,M,M,M,M,M,M,M,M,M,34.53,KNFL 140857Z AUTO 17007KT 10SM OVC075 04/M01 A2966 RMK AO2 SLP027 T00441006 50010,M
10U,2025-02-14 09:00,-116.1876,41.9532,1637.00,37.40,32.00,80.65,210.00,15.00,0.00,29.60,M,10.00,24.00,BKN,OVC,M,M,2400.00,3000.00,M,M,M,M,M,M,M,M,M,27.78,K10U 140900Z AUTO 21015G24KT 10SM BKN024 OVC030 03/M00 A2960 RMK AO2,M
TMT,2025-02-14 09:10,-117.1971,39.4643,1749.34,34.00,29.30,82.71,250.00,6.00,0.00,29.73,M,10.00,M,OVC,M,M,M,6000.00,M,M,M,M,M,M,M,M,M,M,27.94,KTMT 140910Z AUTO 25006KT 10SM OVC060 01/M01 A2973 RMK AO2 T00111015,M
BVU,2025-02-14 09:15,-114.8611,35.9475,671.00,50.00,41.00,71.07,140.00,7.00,0.00,29.86,M,10.00,M,CLR,M,M,M,M,M,M,M,M,M,M,M,M,M,M,50.00,KBVU 140915Z AUTO 14007KT 10SM CLR 10/05 A2986 RMK AO2,M
BAM,2025-02-14 09:15,-116.8743,40.5990,1382.36,39.20,33.80,80.79,80.00,4.00,0.00,29.68,M,10.00,M,SCT,BKN,M,M,4400.00,6500.00,M,M,M,M,M,M,M,M,M,35.83,KBAM 140915Z AUTO 08004KT 10SM SCT044 BKN065 04/01 A2968 RMK AO1,M
CXP,2025-02-14 09:15,-119.7326,39.1923,1431.00,35.60,33.80,93.08,160.00,6.00,0.00,29.68,M,3.00,M,SCT,BKN,BKN,M,1000.00,1500.00,2700.00,M,-RA BR,M,M,M,M,M,M,29.87,KCXP 140915Z AUTO 16006KT 3SM -RA BR SCT010 BKN015 BKN027 02/01 A2968 RMK AO2,M
RTS,2025-02-14 09:15,-119.8764,39.6682,1539.00,35.60,32.00,86.59,110.00,4.00,0.00,29.63,M,10.00,M,FEW,SCT,BKN,M,1400.00,2200.00,2800.00,M,-RA,M,M,M,M,M,M,31.62,KRTS 140915Z AUTO 11004KT 10SM -RA FEW014 SCT022 BKN028 02/00 A2963 RMK AO2,M
MEV,2025-02-14 09:15,-119.7500,38.9963,1441.42,37.40,33.80,86.69,170.00,13.00,0.00,29.68,M,10.00,20.00,FEW,BKN,OVC,M,1300.00,2200.00,2900.00,M,-RA,M,M,M,M,M,M,28.49,KMEV 140915Z AUTO 17013G20KT 10SM -RA FEW013 BKN022 OVC029 03/01 A2968 RMK AO2,M
10U,2025-02-14 09:20,-116.1876,41.9532,1637.00,37.40,32.00,80.65,210.00,19.00,0.00,29.60,M,10.00,26.00,FEW,SCT,OVC,M,1000.00,2500.00,3000.00,M,M,M,M,M,M,M,M,26.58,K10U 140920Z AUTO 21019G26KT 10SM FEW010 SCT025 OVC030 03/M00 A2960 RMK AO2,M
TPH,2025-02-14 09:23,-117.0904,38.0505,1654.00,34.00,31.00,88.63,170.00,8.00,0.00,29.76,M,10.00,M,SCT,M,M,M,1900.00,M,M,M,M,M,M,M,M,M,M,26.58,KTPH 140923Z AUTO 17008KT 10SM SCT019 01/M01 A2976 RMK AO2 T00111006,M
TMT,2025-02-14 09:30,-117.1971,39.4643,1749.34,34.00,29.30,82.71,250.00,7.00,0.00,29.73,M,10.00,M,OVC,M,M,M,6000.00,M,M,M,M,M,M,M,M,M,M,27.22,KTMT 140930Z AUTO 25007KT 10SM OVC060 01/M01 A2973 RMK AO2 T00121015,M
BVU,2025-02-14 09:35,-114.8611,35.9475,671.00,50.00,41.00,71.07,150.00,11.00,0.00,29.86,M,10.00,18.00,CLR,M,M,M,M,M,M,M,M,M,M,M,M,M,M,50.00,KBVU 140935Z AUTO 15011G18KT 10SM CLR 10/05 A2986 RMK AO2,M
BAM,2025-02-14 09:35,-116.8743,40.5990,1382.36,41.00,33.80,75.33,240.00,7.00,0.00,29.68,M,10.00,M,SCT,BKN,OVC,M,4600.00,5500.00,7500.00,M,M,M,M,M,M,M,M,35.75,KBAM 140935Z AUTO 24007KT 10SM SCT046 BKN055 OVC075 05/01 A2968 RMK AO1,M
CXP,2025-02-14 09:35,-119.7326,39.1923,1431.00,35.60,33.80,93.08,250.00,4.00,0.00,29.70,M,5.00,M,FEW,BKN,OVC,M,1000.00,1300.00,2800.00,M,-RA BR,M,M,M,M,M,M,31.62,KCXP 140935Z AUTO 25004KT 5SM -RA BR FEW010 BKN013 OVC028 02/01 A2970 RMK AO2,M
RTS,2025-02-14 09:35,-119.8764,39.6682,1539.00,33.80,32.00,93.03,140.00,11.00,0.00,29.64,M,5.00,M,FEW,BKN,OVC,M,700.00,1800.00,6500.00,M,-SN,M,M,M,M,M,M,24.74,KRTS 140935Z AUTO 14011KT 5SM -SN FEW007 BKN018 OVC065 01/00 A2964 RMK AO2,M
MEV,2025-02-14 09:35,-119.7500,38.9963,1441.42,35.60,33.80,93.08,180.00,13.00,0.00,29.68,M,5.00,18.00,SCT,BKN,OVC,M,1100.00,1700.00,2700.00,M,-SN BR,M,M,M,M,M,M,26.18,KMEV 140935Z AUTO 18013G18KT 5SM -SN BR SCT011 BKN017 OVC027 02/01 A2968 RMK AO2,M
10U,2025-02-14 09:40,-116.1876,41.9532,1637.00,35.60,32.00,86.59,210.00,13.00,0.00,29.61,M,10.00,20.00,FEW,SCT,BKN,M,1400.00,2500.00,3100.00,M,M,M,M,M,M,M,M,26.18,K10U 140940Z AUTO 21013G20KT 10SM FEW014 SCT025 BKN031 02/M00 A2961 RMK AO2,M
TPH,2025-02-14 09:49,-117.0904,38.0505,1654.00,34.00,31.00,88.63,140.00,7.00,0.00,29.76,M,10.00,M,FEW,BKN,BKN,M,1000.00,1700.00,2300.00,M,M,M,M,M,M,M,M,27.22,KTPH 140949Z AUTO 14007KT 10SM FEW010 BKN017 BKN023 01/M01 A2976 RMK AO2 T00111006,M
TMT,2025-02-14 09:50,-117.1971,39.4643,1749.34,33.00,29.70,87.51,240.00,6.00,0.00,29.73,M,10.00,M,OVC,M,M,M,6000.00,M,M,M,M,M,M,M,M,M,M,26.73,KTMT 140950Z AUTO 24006KT 10SM OVC060 01/M01 A2973 RMK AO2 T00051013,M
P68,2025-02-14 09:53,-116.0056,39.6014,1993.00,28.00,26.00,92.08,330.00,6.00,0.00,29.72,1005.00,M,M,M,M,M,M,M,M,M,M,M,M,M,M,M,M,M,20.71,KP68 140953Z AUTO 33006KT M02/M03 A2972 RMK AO1 SLP050 T10221033,M
DRA,2025-02-14 09:53,-116.0278,36.6206,1009.00,49.00,31.00,49.65,200.00,21.00,0.00,29.80,1007.10,10.00,31.00,BKN,M,M,M,4400.00,M,M,M,M,M,M,M,36.00,220.00,2025-02-14 09:08,41.53,KDRA 140953Z AUTO 20021G31KT 10SM BKN044 09/M01 A2980 RMK AO2 PK WND 22036/0908 SLP071 T00941006,M
ELY,2025-02-14 09:53,-114.8453,39.2950,1909.00,35.00,31.00,85.17,200.00,8.00,T,29.75,1005.60,10.00,M,BKN,BKN,OVC,M,2900.00,3500.00,5500.00,M,UP,M,M,M,M,M,M,27.81,KELY 140953Z AUTO 20008KT 10SM UP BKN029 BKN035 OVC055 02/M01 A2975 RMK AO2 UPB46 SLP056 P0000 T00171006,M
VGT,2025-02-14 09:53,-115.1933,36.2111,667.00,50.00,31.00,47.83,140.00,11.00,0.00,29.81,1011.40,10.00,M,FEW,M,M,M,6500.00,M,M,M,M,M,M,M,M,M,M,50.00,KVGT 140953Z AUTO 14011KT 10SM FEW065 10/M01 A2981 RMK AO2 SLP114 T01001006 PNO $,M
LOL,2025-02-14 09:53,-118.5701,40.0684,1192.43,39.00,33.00,78.86,250.00,5.00,0.00,29.67,1004.80,10.00,M,OVC,M,M,M,5500.00,M,M,M,M,M,M,M,M,M,M,34.71,KLOL 140953Z AUTO 25005KT 10SM OVC055 04/01 A2967 RMK AO2 SLP048 T00390006,M
BVU,2025-02-14 09:55,-114.8611,35.9475,671.00,50.00,41.00,71.07,170.00,8.00,0.00,29.86,M,10.00,17.00,FEW,M,M,M,7000.00,M,M,M,M,M,M,M,M,M,M,50.00,KBVU 140955Z AUTO 17008G17KT 10SM FEW070 10/05 A2986 RMK AO2,M
RNO,2025-02-14 09:55,-119.7711,39.4839,1341.00,38.00,33.00,82.00,200.00,7.00,0.01,29.64,1003.00,10.00,M,OVC,M,M,M,3500.00,M,M,M,-RA,M,M,M,M,M,M,32.09,KRNO 140955Z 20007KT 10SM -RA OVC035 03/01 A2964 RMK AO2 RAB08 SLP030 P0001 T00330006,M
BAM,2025-02-14 09:55,-116.8743,40.5990,1382.36,41.00,32.00,70.08,290.00,6.00,0.00,29.69,M,10.00,9.00,BKN,BKN,OVC,M,4300.00,5000.00,7500.00,M,M,M,M,M,M,M,M,36.37,KBAM 140955Z AUTO 29006G09KT 10SM BKN043 BKN050 OVC075 05/00 A2969 RMK AO1,M
CXP,2025-02-14 09:55,-119.7326,39.1923,1431.00,35.60,33.80,93.08,0.00,0.00,0.11,29.70,M,2.00,M,SCT,BKN,BKN,M,1000.00,1300.00,1800.00,M,RA BR,M,M,M,M,M,M,35.60,KCXP 140955Z AUTO 00000KT 2SM RA BR SCT010 BKN013 BKN018 02/01 A2970 RMK AO2 P0011 VIS 3/4V3,M
RTS,2025-02-14 09:55,-119.8764,39.6682,1539.00,33.80,33.80,100.00,110.00,10.00,0.01,29.64,M,8.00,M,FEW,SCT,BKN,M,700.00,1700.00,2900.00,M,-RA,M,M,M,M,M,M,25.23,KRTS 140955Z AUTO 11010KT 8SM -RA FEW007 SCT017 BKN029 01/01 A2964 RMK AO2 P0001,M
MEV,2025-02-14 09:55,-119.7500,38.9963,1441.42,35.60,33.80,93.08,160.00,11.00,0.02,29.69,M,8.00,M,BKN,BKN,OVC,M,1300.00,1800.00,2400.00,M,-RA,M,M,M,M,M,M,27.02,KMEV 140955Z AUTO 16011KT 8SM -RA BKN013 BKN018 OVC024 02/01 A2969 RMK AO2 P0002,M
INS,2025-02-14 09:55,-115.6733,36.5872,955.00,50.50,33.00,50.90,290.00,6.00,0.00,29.78,1006.90,10.00,16.00,FEW,SCT,M,M,5500.00,9500.00,M,M,M,M,M,M,M,M,M,50.50,KINS 140955Z AUTO 29006G16KT 10SM FEW055 SCT095 10/01 A2978 RMK AO2 SLP069 T01030006 $,M
LSV,2025-02-14 09:55,-115.0343,36.2362,570.00,55.20,38.30,52.84,200.00,22.00,0.00,29.78,1008.00,10.00,27.00,CLR,M,M,M,M,M,M,M,M,M,M,M,M,M,M,55.20,KLSV 140955Z AUTO 20022G27KT 10SM CLR 13/04 A2978 RMK AO2 SLP080 T01290035 $,M
EKO,2025-02-14 09:56,-115.7860,40.8242,1367.00,37.00,34.00,88.78,220.00,15.00,T,29.67,1004.50,10.00,25.00,OVC,M,M,M,6500.00,M,M,M,UP,M,M,M,M,M,M,27.26,KEKO 140956Z AUTO 22015G25KT 10SM UP OVC065 03/01 A2967 RMK AO2 UPB49 SLP045 P0000 T00280011 $,M
WMC,2025-02-14 09:56,-117.8072,40.9019,1315.00,40.00,34.00,78.94,170.00,10.00,0.00,29.63,1003.40,10.00,19.00,FEW,SCT,OVC,M,4500.00,8000.00,9000.00,M,M,M,M,M,M,M,M,33.00,KWMC 140956Z AUTO 17010G19KT 10SM FEW045 SCT080 OVC090 04/01 A2963 RMK AO2 SLP034 T00440011,M
HND,2025-02-14 09:56,-115.1344,35.9729,742.79,50.00,39.00,65.75,210.00,20.00,0.00,29.84,1011.90,10.00,24.00,CLR,M,M,M,M,M,M,M,M,M,M,M,M,M,M,50.00,KHND 140956Z AUTO 21020G24KT 10SM CLR 10/04 A2984 RMK AO2 SLP119 T01000039 $,M
TPH,2025-02-14 09:56,-117.0904,38.0505,1654.00,34.00,31.00,88.63,150.00,7.00,0.00,29.76,1007.30,10.00,M,FEW,BKN,BKN,M,1000.00,1700.00,2300.00,M,M,M,M,M,M,M,M,27.22,KTPH 140956Z AUTO 15007KT 10SM FEW010 BKN017 BKN023 01/M01 A2976 RMK AO2 SLP073 T00111006,M
LAS,2025-02-14 09:56,-115.1634,36.0719,663.00,54.00,38.00,54.56,210.00,9.00,0.00,29.84,1010.20,10.00,24.00,FEW,FEW,M,M,8000.00,14000.00,M,M,M,M,M,M,28.00,200.00,2025-02-14 09:31,54.00,KLAS 140956Z 21009G24KT 170V240 10SM FEW080 FEW140 12/03 A2984 RMK AO2 PK WND 20028/0931 SLP102 T01220033,M
NFL,2025-02-14 09:57,-118.7010,39.4166,1199.00,42.00,31.00,64.75,210.00,6.00,0.00,29.67,1003.10,10.00,M,BKN,BKN,M,M,9000.00,11000.00,M,M,M,M,M,M,M,M,M,37.57,KNFL 140957Z AUTO 21006KT 10SM BKN090 BKN110 06/M01 A2967 RMK AO2 SLP031 T00561006,M
INS,2025-02-14 10:00,-115.6733,36.5872,955.00,50.00,33.80,53.54,250.00,16.00,0.00,29.78,1006.90,10.00,19.00,FEW,SCT,M,M,5500.00,10000.00,M,M,M,M,M,M,M,M,M,50.00,KINS 141000Z AUTO 25016G19KT 10SM FEW055 SCT100 10/01 A2978 RMK AO2 WSHFT 0957 SLP069 $,M
10U,2025-02-14 10:00,-116.1876,41.9532,1637.00,35.60,32.00,86.59,220.00,12.00,0.00,29.62,M,10.00,M,FEW,BKN,BKN,M,2400.00,3000.00,7000.00,M,M,M,M,M,M,M,M,26.58,K10U 141000Z AUTO 22012KT 10SM FEW024 BKN030 BKN070 02/M00 A2962 RMK AO2,M
MEV,2025-02-14 10:05,-119.7500,38.9963,1441.42,35.60,33.80,93.08,160.00,10.00,0.00,29.71,M,8.00,M,BKN,BKN,OVC,M,1500.00,2000.00,2400.00,M,M,M,M,M,M,M,M,27.48,KMEV 141005Z AUTO 16010KT 8SM BKN015 BKN020 OVC024 02/01 A2971 RMK AO2,M
CXP,2025-02-14 10:10,-119.7326,39.1923,1431.00,35.60,33.80,93.08,0.00,0.00,0.00,29.70,M,4.00,M,BKN,BKN,BKN,M,1000.00,1300.00,2500.00,M,UP BR,M,M,M,M,M,M,35.60,KCXP 141010Z AUTO 00000KT 4SM UP BR BKN010 BKN013 BKN025 02/01 A2970 RMK AO2,M
TMT,2025-02-14 10:10,-117.1971,39.4643,1749.34,33.00,29.00,85.04,220.00,8.00,0.00,29.72,M,10.00,M,OVC,M,M,M,6000.00,M,M,M,M,M,M,M,M,M,M,25.34,KTMT 141010Z AUTO 22008KT 10SM OVC060 01/M02 A2972 RMK AO2 T00051016,M
BVU,2025-02-14 10:15,-114.8611,35.9475,671.00,51.80,41.00,66.48,150.00,13.00,0.00,29.85,M,10.00,M,BKN,BKN,BKN,M,5000.00,6000.00,7000.00,M,M,M,M,M,M,M,M,51.80,KBVU 141015Z AUTO 15013KT 10SM BKN050 BKN060 BKN070 11/05 A2985 RMK AO2,M
BAM,2025-02-14 10:15,-116.8743,40.5990,1382.36,39.20,33.80,80.79,320.00,5.00,0.00,29.69,M,10.00,M,SCT,SCT,SCT,M,4300.00,5000.00,8500.00,M,M,M,M,M,M,M,M,34.95,KBAM 141015Z AUTO 32005KT 10SM SCT043 SCT050 SCT085 04/01 A2969 RMK AO1,M
RTS,2025-02-14 10:15,-119.8764,39.6682,1539.00,33.80,33.80,100.00,130.00,7.00,0.00,29.65,M,10.00,12.00,FEW,SCT,BKN,M,1800.00,2300.00,2900.00,M,M,M,M,M,M,M,M,26.97,KRTS 141015Z AUTO 13007G12KT 10SM FEW018 SCT023 BKN029 01/01 A2965 RMK AO2,M
ELY,2025-02-14 10:20,-114.8453,39.2950,1909.00,36.00,30.00,78.60,210.00,12.00,T,29.74,M,10.00,19.00,BKN,OVC,M,M,3000.00,8000.00,M,M,M,M,M,M,M,M,M,27.09,KELY 141020Z AUTO 21012G19KT 10SM BKN030 OVC080 02/M01 A2974 RMK AO2 UPE0956 P0000 T00221011,M
10U,2025-02-14 10:20,-116.1876,41.9532,1637.00,35.60,32.00,86.59,210.00,14.00,0.00,29.62,M,10.00,M,SCT,SCT,BKN,M,2900.00,7500.00,11000.00,M,M,M,M,M,M,M,M,25.80,K10U 141020Z AUTO 21014KT 10SM SCT029 SCT075 BKN110 02/M00 A2962 RMK AO2,M
RTS,2025-02-14 10:25,-119.8764,39.6682,1539.00,33.80,33.80,100.00,160.00,4.00,0.00,29.65,M,9.00,M,SCT,SCT,BKN,M,1800.00,2400.00,2900.00,M,-RA,M,M,M,M,M,M,29.52,KRTS 141025Z AUTO 16004KT 9SM -RA SCT018 SCT024 BKN029 01/01 A2965 RMK AO2,M
MEV,2025-02-14 10:25,-119.7500,38.9963,1441.42,37.40,33.80,86.69,170.00,9.00,0.00,29.68,M,4.00,15.00,BKN,BKN,OVC,M,1100.00,1700.00,2200.00,M,-RA BR,M,M,M,M,M,M,30.23,KMEV 141025Z AUTO 17009G15KT 4SM -RA BR BKN011 BKN017 OVC022 03/01 A2968 RMK AO2,M
TMT,2025-02-14 10:30,-117.1971,39.4643,1749.34,32.00,28.20,85.68,250.00,6.00,0.00,29.71,M,10.00,M,SCT,M,M,M,6000.00,M,M,M,M,M,M,M,M,M,M,25.53,KTMT 141030Z AUTO 25006KT 10SM SCT060 00/M02 A2971 RMK AO2 T00001021,M
BVU,2025-02-14 10:35,-114.8611,35.9475,671.00,50.00,42.80,76.18,150.00,9.00,0.00,29.84,M,10.00,M,SCT,OVC,M,M,5000.00,6500.00,M,M,M,M,M,M,M,M,M,50.00,KBVU 141035Z AUTO 15009KT 10SM SCT050 OVC065 10/06 A2984 RMK AO2,M
BAM,2025-02-14 10:35,-116.8743,40.5990,1382.36,39.20,33.80,80.79,250.00,8.00,0.00,29.69,M,10.00,M,SCT,M,M,M,8000.00,M,M,M,M,M,M,M,M,M,M,32.98,KBAM 141035Z AUTO 25008KT 10SM SCT080 04/01 A2969 RMK AO1,M
CXP,2025-02-14 10:35,-119.7326,39.1923,1431.00,35.60,33.80,93.08,180.00,14.00,0.00,29.68,M,5.00,M,BKN,BKN,OVC,M,900.00,3700.00,4400.00,M,UP BR,M,M,M,M,M,M,25.80,KCXP 141035Z AUTO 18014KT 5SM UP BR BKN009 BKN037 OVC044 02/01 A2968 RMK AO2,M
10U,2025-02-14 10:40,-116.1876,41.9532,1637.00,35.60,32.00,86.59,210.00,12.00,0.00,29.63,M,10.00,M,SCT,BKN,OVC,M,3300.00,4600.00,11000.00,M,M,M,M,M,M,M,M,26.58,K10U 141040Z AUTO 21012KT 10SM SCT033 BKN046 OVC110 02/M00 A2963 RMK AO2,M
INS,2025-02-14 10:43,-115.6733,36.5872,955.00,48.20,33.80,57.26,200.00,11.00,0.00,29.79,1007.40,10.00,M,SCT,SCT,M,M,6000.00,10000.00,M,M,M,M,M,M,M,M,M,42.94,KINS 141043Z AUTO 20011KT 10SM SCT060 SCT100 09/01 A2979 RMK AO2 WSHFT 29 SLP074 $,M
TMT,2025-02-14 10:50,-117.1971,39.4643,1749.34,32.00,28.20,85.68,260.00,4.00,0.00,29.72,M,10.00,M,SCT,BKN,M,M,6000.00,8000.00,M,M,M,M,M,M,M,M,M,27.42,KTMT 141050Z AUTO 26004KT 10SM SCT060 BKN080 00/M02 A2972 RMK AO2 T00001021,M
INS,2025-02-14 10:53,-115.6733,36.5872,955.00,48.20,35.60,61.52,200.00,12.00,0.00,29.79,1007.20,10.00,M,SCT,BKN,M,M,6500.00,11000.00,M,M,M,M,M,M,M,M,M,42.62,KINS 141053Z AUTO 20012KT 10SM SCT065 BKN110 09/02 A2979 RMK AO2 WSHFT 50 SLP072 $,M
P68,2025-02-14 10:53,-116.0056,39.6014,1993.00,27.00,27.00,100.00,170.00,3.00,0.00,29.70,1004.90,M,M,M,M,M,M,M,M,M,M,M,M,M,M,M,M,M,22.97,KP68 141053Z AUTO 17003KT M03/M03 A2970 RMK AO1 SLP049 T10281028,M
DRA,2025-02-14 10:53,-116.0278,36.6206,1009.00,49.00,38.00,65.63,210.00,18.00,0.00,29.80,1007.20,10.00,31.00,OVC,M,M,M,4300.00,M,M,M,M,M,M,M,34.00,220.00,2025-02-14 10:13,42.13,KDRA 141053Z AUTO 21018G31KT 10SM OVC043 09/03 A2980 RMK AO2 PK WND 22034/1013 SLP072 T00940033,M
ELY,2025-02-14 10:53,-114.8453,39.2950,1909.00,35.00,31.00,85.17,190.00,11.00,T,29.75,1005.80,10.00,M,FEW,SCT,OVC,M,3200.00,5500.00,7000.00,M,M,M,M,M,M,M,M,26.26,KELY 141053Z AUTO 19011KT 10SM FEW032 SCT055 OVC070 02/M01 A2975 RMK AO2 UPE0956 SLP058 P0000 T00171006,M
VGT,2025-02-14 10:53,-115.1933,36.2111,667.00,51.00,32.00,47.99,210.00,11.00,0.00,29.81,1011.10,10.00,M,SCT,M,M,M,6000.00,M,M,M,M,M,M,M,M,M,M,51.00,KVGT 141053Z AUTO 21011KT 10SM SCT060 11/00 A2981 RMK AO2 SLP111 T01060000 PNO $,M
LOL,2025-02-14 10:53,-118.5701,40.0684,1192.43,39.00,32.00,75.75,240.00,7.00,0.00,29.67,1004.60,10.00,M,SCT,BKN,BKN,M,4900.00,5500.00,11000.00,M,M,M,M,M,M,M,M,33.31,KLOL 141053Z AUTO 24007KT 10SM SCT049 BKN055 BKN110 04/00 A2967 RMK AO2 SLP046 T00390000,M
BVU,2025-02-14 10:55,-114.8611,35.9475,671.00,51.80,41.00,66.48,170.00,9.00,0.00,29.84,M,10.00,15.00,FEW,BKN,OVC,M,4000.00,6000.00,7000.00,M,M,M,M,M,M,M,M,51.80,KBVU 141055Z AUTO 17009G15KT 10SM FEW040 BKN060 OVC070 11/05 A2984 RMK AO2,M
RNO,2025-02-14 10:55,-119.7711,39.4839,1341.00,40.00,32.00,72.85,180.00,10.00,0.01,29.63,1002.80,10.00,22.00,BKN,OVC,M,M,3500.00,5500.00,M,M,M,M,M,M,M,M,M,33.00,KRNO 141055Z 18010G22KT 10SM BKN035 OVC055 04/00 A2963 RMK AO2 RAE54 SLP028 P0001 T00440000,M
BAM,2025-02-14 10:55,-116.8743,40.5990,1382.36,37.40,33.80,86.69,280.00,5.00,0.00,29.69,M,10.00,M,BKN,BKN,BKN,M,7000.00,8000.00,9000.00,M,M,M,M,M,M,M,M,32.81,KBAM 141055Z AUTO 28005KT 10SM BKN070 BKN080 BKN090 03/01 A2969 RMK AO1,M
CXP,2025-02-14 10:55,-119.7326,39.1923,1431.00,35.60,33.80,93.08,150.00,9.00,0.06,29.69,M,8.00,M,FEW,SCT,BKN,M,700.00,1400.00,3000.00,M,UP,M,M,M,M,M,M,27.99,KCXP 141055Z AUTO 15009KT 8SM UP FEW007 SCT014 BKN030 02/01 A2969 RMK AO2 P0006,M
RTS,2025-02-14 10:55,-119.8764,39.6682,1539.00,37.40,32.00,80.65,250.00,17.00,0.00,29.65,M,8.00,24.00,SCT,BKN,BKN,M,2100.00,2500.00,3000.00,M,-DZ,M,M,M,M,M,M,27.15,KRTS 141055Z AUTO 25017G24KT 8SM -DZ SCT021 BKN025 BKN030 03/00 A2965 RMK AO2,M
MEV,2025-02-14 10:55,-119.7500,38.9963,1441.42,35.60,33.80,93.08,160.00,8.00,0.04,29.68,M,10.00,16.00,SCT,BKN,OVC,M,2200.00,3400.00,4900.00,M,M,M,M,M,M,M,M,28.55,KMEV 141055Z AUTO 16008G16KT 10SM SCT022 BKN034 OVC049 02/01 A2968 RMK AO2 P0004,M
INS,2025-02-14 10:55,-115.6733,36.5872,955.00,49.00,34.00,56.02,190.00,9.00,0.00,29.79,1007.20,10.00,M,BKN,BKN,M,M,6000.00,10000.00,M,M,M,M,M,M,39.00,230.00,2025-02-14 10:02,44.65,KINS 141055Z AUTO 19009KT 10SM BKN060 BKN100 10/01 A2979 RMK AO2 PK WND 23039/02 SLP072 T00950012 $,M
LSV,2025-02-14 10:55,-115.0343,36.2362,570.00,54.00,39.70,58.31,180.00,19.00,0.00,29.76,1007.30,10.00,26.00,CLR,M,M,M,M,M,M,M,M,M,M,M,30.00,190.00,2025-02-14 10:17,54.00,KLSV 141055Z AUTO 18019G26KT 10SM CLR 12/04 A2976 RMK AO2 PK WND 19030/17 SLP073 T01230043 $,M
EKO,2025-02-14 10:56,-115.7860,40.8242,1367.00,35.00,34.00,96.09,220.00,5.00,T,29.67,1004.70,10.00,M,FEW,OVC,M,M,4900.00,6500.00,M,M,M,M,M,M,M,M,M,29.96,KEKO 141056Z AUTO 22005KT 10SM FEW049 OVC065 02/01 A2967 RMK AO2 UPE04 SLP047 P0000 T00170011 $,M
WMC,2025-02-14 10:56,-117.8072,40.9019,1315.00,40.00,33.00,75.84,180.00,13.00,0.00,29.64,1003.60,10.00,M,OVC,M,M,M,5000.00,M,M,M,M,M,M,M,M,M,M,31.82,KWMC 141056Z AUTO 18013KT 10SM OVC050 04/01 A2964 RMK AO2 SLP036 T00440006,M
HND,2025-02-14 10:56,-115.1344,35.9729,742.79,51.00,40.00,65.87,200.00,14.00,0.00,29.84,1012.00,10.00,M,FEW,M,M,M,7000.00,M,M,M,M,M,M,M,M,M,M,51.00,KHND 141056Z AUTO 20014KT 10SM FEW070 11/04 A2984 RMK AO2 SLP120 T01060044 $,M
TPH,2025-02-14 10:56,-117.0904,38.0505,1654.00,33.00,32.00,96.06,170.00,6.00,0.00,29.78,1007.70,10.00,M,SCT,M,M,M,1500.00,M,M,M,M,M,M,M,M,M,M,26.73,KTPH 141056Z AUTO 17006KT 10SM SCT015 01/00 A2978 RMK AO2 SLP077 T00060000,M
LAS,2025-02-14 10:56,-115.1634,36.0719,663.00,54.00,38.00,54.56,190.00,7.00,0.00,29.84,1010.00,10.00,M,OVC,M,M,M,6500.00,M,M,M,M,M,M,M,M,M,M,54.00,KLAS 141056Z 19007KT 10SM OVC065 12/03 A2984 RMK AO2 SLP100 T01220033,M
NFL,2025-02-14 10:57,-118.7010,39.4166,1199.00,40.00,32.00,72.85,240.00,8.00,0.00,29.67,1003.10,10.00,M,FEW,BKN,OVC,M,6000.00,8000.00,10000.00,M,M,M,M,M,M,M,M,33.97,KNFL 141057Z AUTO 24008KT 10SM FEW060 BKN080 OVC100 04/00 A2967 RMK AO2 SLP031 T00440000,M
10U,2025-02-14 11:00,-116.1876,41.9532,1637.00,35.60,32.00,86.59,200.00,12.00,0.00,29.64,M,10.00,M,FEW,SCT,BKN,M,2200.00,4700.00,5500.00,M,M,M,M,M,M,M,M,26.58,K10U 141100Z AUTO 20012KT 10SM FEW022 SCT047 BKN055 02/M00 A2964 RMK AO2,M
TMT,2025-02-14 11:10,-117.1971,39.4643,1749.34,31.00,27.50,86.68,210.00,5.00,0.00,29.72,M,10.00,M,BKN,M,M,M,7500.00,M,M,M,M,M,M,M,M,M,M,25.21,KTMT 141110Z AUTO 21005KT 10SM BKN075 00/M02 A2972 RMK AO2 T10051025,M
TPH,2025-02-14 11:14,-117.0904,38.0505,1654.00,34.00,32.00,92.29,140.00,6.00,0.00,29.77,M,10.00,M,BKN,M,M,M,1900.00,M,M,M,M,M,M,M,M,M,M,27.94,KTPH 141114Z AUTO 14006KT 10SM BKN019 01/00 A2977 RMK AO2 T00110000,M
BVU,2025-02-14 11:15,-114.8611,35.9475,671.00,51.80,42.80,71.26,180.00,10.00,0.00,29.85,M,10.00,17.00,OVC,M,M,M,5500.00,M,M,M,M,M,M,M,M,M,M,51.80,KBVU 141115Z AUTO 18010G17KT 10SM OVC055 11/06 A2985 RMK AO2,M
BAM,2025-02-14 11:15,-116.8743,40.5990,1382.36,39.20,33.80,80.79,300.00,3.00,0.00,29.69,M,10.00,M,SCT,BKN,OVC,M,2800.00,4600.00,7000.00,M,M,M,M,M,M,M,M,36.92,KBAM 141115Z AUTO 30003KT 10SM SCT028 BKN046 OVC070 04/01 A2969 RMK AO1,M
CXP,2025-02-14 11:15,-119.7326,39.1923,1431.00,37.40,33.80,86.69,150.00,7.00,0.00,29.70,M,7.00,14.00,FEW,BKN,OVC,M,1300.00,2900.00,4000.00,M,UP,M,M,M,M,M,M,31.36,KCXP 141115Z AUTO 15007G14KT 7SM UP FEW013 BKN029 OVC040 03/01 A2970 RMK AO2,M
RTS,2025-02-14 11:15,-119.8764,39.6682,1539.00,35.60,32.00,86.59,240.00,6.00,0.00,29.67,M,4.00,17.00,BKN,BKN,BKN,M,2100.00,2900.00,4500.00,M,-RA,M,M,M,M,M,M,29.87,KRTS 141115Z AUTO 24006G17KT 4SM -RA BKN021 BKN029 BKN045 02/00 A2967 RMK AO2,M
MEV,2025-02-14 11:15,-119.7500,38.9963,1441.42,37.40,33.80,86.69,170.00,7.00,0.00,29.68,M,10.00,M,FEW,BKN,OVC,M,2900.00,3800.00,4600.00,M,M,M,M,M,M,M,M,31.36,KMEV 141115Z AUTO 17007KT 10SM FEW029 BKN038 OVC046 03/01 A2968 RMK AO2,M
INS,2025-02-14 11:17,-115.6733,36.5872,955.00,46.40,35.60,65.83,240.00,14.00,0.00,29.79,1007.40,10.00,21.00,OVC,M,M,M,6000.00,M,M,M,M,M,M,M,M,M,M,39.72,KINS 141117Z AUTO 24014G21KT 10SM OVC060 08/02 A2979 RMK AO2 WSHFT 14 SLP074 $,M
10U,2025-02-14 11:20,-116.1876,41.9532,1637.00,35.60,32.00,86.59,210.00,9.00,0.00,29.64,M,10.00,M,FEW,BKN,OVC,M,2100.00,3800.00,6000.00,M,M,M,M,M,M,M,M,27.99,K10U 141120Z AUTO 21009KT 10SM FEW021 BKN038 OVC060 02/M00 A2964 RMK AO2,M
RTS,2025-02-14 11:25,-119.8764,39.6682,1539.00,35.60,32.00,86.59,250.00,11.00,0.00,29.68,M,6.00,16.00,FEW,BKN,BKN,M,1500.00,2200.00,3800.00,M,-DZ,M,M,M,M,M,M,27.02,KRTS 141125Z AUTO 25011G16KT 6SM -DZ FEW015 BKN022 BKN038 02/00 A2968 RMK AO2,M
MEV,2025-02-14 11:25,-119.7500,38.9963,1441.42,37.40,32.00,80.65,130.00,7.00,0.00,29.68,M,10.00,M,FEW,BKN,OVC,M,2400.00,3900.00,4600.00,M,M,M,M,M,M,M,M,31.36,KMEV 141125Z AUTO 13007KT 10SM FEW024 BKN039 OVC046 03/00 A2968 RMK AO2,M
TMT,2025-02-14 11:30,-117.1971,39.4643,1749.34,30.40,27.00,87.01,0.00,0.00,0.00,29.73,M,10.00,M,OVC,M,M,M,7500.00,M,M,M,M,M,M,M,M,M,M,30.40,KTMT 141130Z AUTO 00000KT 10SM OVC075 M01/M03 A2973 RMK AO2 T10091027,M
BVU,2025-02-14 11:35,-114.8611,35.9475,671.00,51.80,42.80,71.26,M,5.00,0.00,29.86,M,10.00,M,OVC,M,M,M,5000.00,M,M,M,M,M,M,M,M,M,M,51.80,KBVU 141135Z AUTO VRB05KT 10SM OVC050 11/06 A2986 RMK AO2,M
BAM,2025-02-14 11:35,-116.8743,40.5990,1382.36,39.20,33.80,80.79,240.00,6.00,0.00,29.70,M,10.00,M,SCT,BKN,OVC,M,3000.00,3900.00,5000.00,M,M,M,M,M,M,M,M,34.20,KBAM 141135Z AUTO 24006KT 10SM SCT030 BKN039 OVC050 04/01 A2970 RMK AO1,M
CXP,2025-02-14 11:35,-119.7326,39.1923,1431.00,37.40,32.00,80.65,M,6.00,0.00,29.69,M,9.00,19.00,SCT,BKN,OVC,M,3400.00,4400.00,5000.00,M,-RA,M,M,M,M,M,M,32.03,KCXP 141135Z AUTO VRB06G19KT 9SM -RA SCT034 BKN044 OVC050 03/00 A2969 RMK AO2,M
TPH,2025-02-14 11:38,-117.0904,38.0505,1654.00,34.00,32.00,92.29,170.00,8.00,0.00,29.76,M,10.00,M,FEW,OVC,M,M,800.00,1600.00,M,M,M,M,M,M,M,M,M,26.58,KTPH 141138Z AUTO 17008KT 10SM FEW008 OVC016 01/00 A2976 RMK AO2 T00110000,M
10U,2025-02-14 11:40,-116.1876,41.9532,1637.00,35.60,32.00,86.59,220.00,14.00,0.00,29.65,M,10.00,M,FEW,SCT,BKN,M,2000.00,3900.00,5000.00,M,M,M,M,M,M,M,M,25.80,K10U 141140Z AUTO 22014KT 10SM FEW020 SCT039 BKN050 02/M00 A2965 RMK AO2,M
TMT,2025-02-14 11:50,-117.1971,39.4643,1749.34,31.60,28.00,86.36,230.00,7.00,0.00,29.74,M,10.00,M,OVC,M,M,M,6500.00,M,M,M,M,M,M,M,M,M,M,24.29,KTMT 141150Z AUTO 23007KT 10SM OVC065 00/M02 A2974 RMK AO2 T10021023,M
P68,2025-02-14 11:53,-116.0056,39.6014,1993.00,27.00,26.00,95.95,M,3.00,0.00,29.73,1005.70,M,M,M,M,M,M,M,M,M,M,M,M,M,M,M,M,M,22.97,KP68 141153Z AUTO VRB03KT M03/M03 A2973 RMK AO1 SLP057 60020 70026 T10281033 10006 21044 53006,M
DRA,2025-02-14 11:53,-116.0278,36.6206,1009.00,48.00,38.00,68.13,200.00,14.00,0.00,29.79,1006.80,10.00,33.00,FEW,M,M,M,4600.00,M,M,M,M,M,M,M,34.00,200.00,2025-02-14 11:21,41.79,KDRA 141153Z AUTO 20014G33KT 10SM FEW046 09/03 A2979 RMK AO2 PK WND 20034/1121 SLP068 70030 T00890033 10100 20089 58003,M
ELY,2025-02-14 11:53,-114.8453,39.2950,1909.00,35.00,30.00,81.78,190.00,8.00,T,29.75,1005.90,10.00,16.00,OVC,M,M,M,8000.00,M,M,M,M,M,M,M,M,M,M,27.81,KELY 141153Z AUTO 19008G16KT 10SM OVC080 02/M01 A2975 RMK AO2 SNB1056E02 SLP059 P0000 60001 70002 T00171011 10028 20011 51006,M
VGT,2025-02-14 11:53,-115.1933,36.2111,667.00,54.00,32.00,42.98,210.00,14.00,0.00,29.80,1010.90,10.00,19.00,FEW,SCT,BKN,M,6000.00,7500.00,9000.00,M,M,M,M,M,M,M,M,54.00,KVGT 141153Z AUTO 21014G19KT 10SM FEW060 SCT075 BKN090 12/00 A2980 RMK AO2 SLP109 6//// 7//// T01220000 10122 20089 58003 PNO $,M
LOL,2025-02-14 11:53,-118.5701,40.0684,1192.43,35.00,31.00,85.17,190.00,8.00,0.00,29.68,1005.50,10.00,M,FEW,BKN,BKN,M,5500.00,8000.00,11000.00,M,M,M,M,M,M,M,M,27.81,KLOL 141153Z AUTO 19008KT 10SM FEW055 BKN080 BKN110 02/M01 A2968 RMK AO2 SLP055 70006 T00171006 10044 20017 53010,M
BVU,2025-02-14 11:55,-114.8611,35.9475,671.00,51.80,42.80,71.26,210.00,8.00,0.00,29.85,M,10.00,M,BKN,OVC,M,M,5000.00,6500.00,M,M,M,M,M,M,M,M,M,51.80,KBVU 141155Z AUTO 21008KT 10SM BKN050 OVC065 11/06 A2985 RMK AO2,M
RNO,2025-02-14 11:55,-119.7711,39.4839,1341.00,39.00,33.00,78.86,10.00,3.00,T,29.68,1004.60,10.00,M,SCT,OVC,M,M,3000.00,5000.00,M,M,-RA,M,M,M,M,M,M,36.69,KRNO 141155Z 01003KT 10SM -RA SCT030 OVC050 04/01 A2968 RMK AO2 RAB01E15B50 SLP046 P0000 60003 70115 T00390006 10056 20028 53013,M
LSV,2025-02-14 11:55,-115.0343,36.2362,570.00,54.00,39.60,58.08,180.00,12.00,0.00,29.77,1007.50,10.00,M,FEW,BKN,M,M,7000.00,8000.00,M,M,M,M,M,M,M,M,M,54.00,KLSV 141155Z AUTO 18012KT 10SM FEW070 BKN080 12/04 A2977 RMK AO2 SLP075 70036 T01220042 10129 20104 58003 $,M
BAM,2025-02-14 11:55,-116.8743,40.5990,1382.36,39.20,33.80,80.79,270.00,5.00,0.00,29.71,M,10.00,M,BKN,BKN,OVC,M,2700.00,3300.00,3900.00,M,M,M,M,M,M,M,M,34.95,KBAM 141155Z AUTO 27005KT 10SM BKN027 BKN033 OVC039 04/01 A2971 RMK AO1,M
CXP,2025-02-14 11:55,-119.7326,39.1923,1431.00,39.20,32.00,75.16,180.00,15.00,0.01,29.70,M,10.00,26.00,SCT,OVC,M,M,3600.00,4400.00,M,M,-RA,M,M,M,M,M,M,30.11,KCXP 141155Z AUTO 18015G26KT 10SM -RA SCT036 OVC044 04/M00 A2970 RMK AO2 P0001,M
RTS,2025-02-14 11:55,-119.8764,39.6682,1539.00,37.40,30.20,74.98,240.00,8.00,0.02,29.68,M,10.00,13.00,SCT,OVC,M,M,3900.00,5000.00,M,M,M,M,M,M,M,M,M,30.76,KRTS 141155Z AUTO 24008G13KT 10SM SCT039 OVC050 03/M01 A2968 RMK AO2 P0002,M
MEV,2025-02-14 11:55,-119.7500,38.9963,1441.42,39.20,32.00,75.16,220.00,11.00,0.00,29.70,M,10.00,20.00,FEW,BKN,OVC,M,2400.00,3900.00,5500.00,M,-RA,M,M,M,M,M,M,31.57,KMEV 141155Z AUTO 22011G20KT 10SM -RA FEW024 BKN039 OVC055 04/M00 A2970 RMK AO2,M
INS,2025-02-14 11:55,-115.6733,36.5872,955.00,51.00,32.00,47.99,220.00,21.00,0.00,29.79,1007.20,10.00,28.00,FEW,M,M,M,6000.00,M,M,M,M,M,M,M,28.00,220.00,2025-02-14 11:51,51.00,KINS 141155Z AUTO 22021G28KT 10SM FEW060 11/00 A2979 RMK AO2 PK WND 22028/51 SLP072 70062 T01060000 10114 20064 55002 $,M
EKO,2025-02-14 11:56,-115.7860,40.8242,1367.00,35.00,33.00,92.32,230.00,7.00,0.00,29.69,1006.10,10.00,M,SCT,BKN,OVC,M,3600.00,4500.00,8500.00,M,M,M,M,M,M,M,M,28.44,KEKO 141156Z AUTO 23007KT 10SM SCT036 BKN045 OVC085 02/01 A2969 RMK AO2 SLP061 60000 70052 T00170006 10033 20011 53013 $,M
WMC,2025-02-14 11:56,-117.8072,40.9019,1315.00,40.00,33.00,75.84,190.00,10.00,T,29.64,1003.60,10.00,22.00,OVC,M,M,M,5000.00,M,M,M,-RA,M,M,M,M,M,M,33.00,KWMC 141156Z AUTO 19010G22KT 10SM -RA OVC050 04/01 A2964 RMK AO2 RAB50 SLP036 P0000 60001 70024 T00440006 10050 20033 50004,M
HND,2025-02-14 11:56,-115.1344,35.9729,742.79,51.00,39.00,63.36,220.00,10.00,0.00,29.86,1012.70,10.00,19.00,BKN,BKN,M,M,8000.00,9000.00,M,M,M,M,M,M,M,M,M,51.00,KHND 141156Z AUTO 22010G19KT 10SM BKN080 BKN090 11/04 A2986 RMK AO2 SLP127 70041 T01060039 10111 20089 53002 $,M
TPH,2025-02-14 11:56,-117.0904,38.0505,1654.00,34.00,33.00,96.08,170.00,8.00,0.00,29.77,1007.20,10.00,M,BKN,OVC,M,M,900.00,1400.00,M,M,M,M,M,M,M,M,M,26.58,KTPH 141156Z AUTO 17008KT 10SM BKN009 OVC014 01/01 A2977 RMK AO2 SLP072 70002 T00110006 10033 20006 50000,M
LAS,2025-02-14 11:56,-115.1634,36.0719,663.00,53.00,38.00,56.59,220.00,12.00,0.00,29.83,1009.80,10.00,21.00,BKN,BKN,M,M,6000.00,8000.00,M,M,M,M,M,M,26.00,200.00,2025-02-14 11:16,53.00,KLAS 141156Z 22012G21KT 10SM BKN060 BKN080 12/03 A2983 RMK AO2 PK WND 20026/1116 SLP098 70057 T01170033 10122 20106 58004,M
NFL,2025-02-14 11:57,-118.7010,39.4166,1199.00,39.00,30.00,69.85,150.00,8.00,0.00,29.70,1003.90,10.00,M,FEW,OVC,M,M,5500.00,7000.00,M,M,M,M,M,M,M,M,M,32.74,KNFL 141157Z AUTO 15008KT 10SM FEW055 OVC070 04/M01 A2970 RMK AO2 SLP039 7//// T00391011 10056 20028 53013,M
10U,2025-02-14 12:00,-116.1876,41.9532,1637.00,35.60,32.00,86.59,210.00,8.00,0.00,29.66,M,4.00,14.00,BKN,BKN,OVC,M,500.00,1700.00,7000.00,M,-SN,M,M,M,M,M,M,28.55,K10U 141200Z AUTO 21008G14KT 4SM -SN BKN005 BKN017 OVC070 02/00 A2966 RMK AO2,M
TMT,2025-02-14 12:10,-117.1971,39.4643,1749.34,32.40,28.00,83.62,240.00,9.00,0.00,29.74,M,10.00,M,OVC,M,M,M,6500.00,M,M,M,M,M,M,M,M,M,M,24.01,KTMT 141210Z AUTO 24009KT 10SM OVC065 00/M02 A2974 RMK AO2 T00021022,M
INS,2025-02-14 12:10,-115.6733,36.5872,955.00,48.20,33.80,57.26,200.00,11.00,0.00,29.80,1007.80,10.00,25.00,CLR,M,M,M,M,M,M,M,M,M,M,M,M,M,M,42.94,KINS 141210Z AUTO 20011G25KT 10SM CLR 09/01 A2980 RMK AO2 WSHFT 01 SLP078 $,M
BVU,2025-02-14 12:15,-114.8611,35.9475,671.00,50.00,42.80,76.18,160.00,13.00,0.00,29.85,M,10.00,M,OVC,M,M,M,5000.00,M,M,M,M,M,M,M,M,M,M,50.00,KBVU 141215Z AUTO 16013KT 10SM OVC050 10/06 A2985 RMK AO2,M
BAM,2025-02-14 12:15,-116.8743,40.5990,1382.36,39.20,33.80,80.79,240.00,9.00,0.00,29.70,M,10.00,M,SCT,SCT,BKN,M,2700.00,3800.00,12000.00,M,M,M,M,M,M,M,M,32.47,KBAM 141215Z AUTO 24009KT 10SM SCT027 SCT038 BKN120 04/01 A2970 RMK AO1,M
CXP,2025-02-14 12:15,-119.7326,39.1923,1431.00,39.20,30.20,69.88,160.00,9.00,0.00,29.72,M,10.00,20.00,BKN,OVC,M,M,4100.00,4700.00,M,M,M,M,M,M,M,M,M,32.47,KCXP 141215Z AUTO 16009G20KT 10SM BKN041 OVC047 04/M01 A2972 RMK AO2,M
RTS,2025-02-14 12:15,-119.8764,39.6682,1539.00,37.40,30.20,74.98,250.00,13.00,0.00,29.69,M,10.00,18.00,SCT,BKN,OVC,M,3800.00,4700.00,7000.00,M,M,M,M,M,M,M,M,28.49,KRTS 141215Z AUTO 25013G18KT 10SM SCT038 BKN047 OVC070 03/M01 A2969 RMK AO2,M
MEV,2025-02-14 12:15,-119.7500,38.9963,1441.42,39.20,32.00,75.16,250.00,6.00,0.00,29.70,M,10.00,14.00,FEW,BKN,OVC,M,2500.00,3800.00,6500.00,M,VCTS,M,M,M,M,M,M,34.20,KMEV 141215Z AUTO 25006G14KT 10SM VCTS FEW025 BKN038 OVC065 04/M00 A2970 RMK AO2 LTG DSNT ALQDS,M
10U,2025-02-14 12:20,-116.1876,41.9532,1637.00,33.80,32.00,93.03,210.00,7.00,0.00,29.66,M,2.00,12.00,BKN,OVC,M,M,300.00,900.00,M,M,-SN,M,M,M,M,M,M,26.97,K10U 141220Z AUTO 21007G12KT 2SM -SN BKN003 OVC009 01/00 A2966 RMK AO2,M
EKO,2025-02-14 12:28,-115.7860,40.8242,1367.00,36.00,33.00,88.73,220.00,8.00,T,29.70,M,10.00,M,SCT,BKN,OVC,M,2100.00,2800.00,3900.00,M,M,M,M,M,M,M,M,29.04,KEKO 141228Z AUTO 22008KT 10SM SCT021 BKN028 OVC039 02/01 A2970 RMK AO2 RAB15E17UPB17E28 P0000 T00220006 $,M
TMT,2025-02-14 12:30,-117.1971,39.4643,1749.34,32.00,28.20,85.68,220.00,6.00,0.00,29.74,M,10.00,M,SCT,SCT,OVC,M,2900.00,3800.00,6500.00,M,M,M,M,M,M,M,M,25.53,KTMT 141230Z AUTO 22006KT 10SM SCT029 SCT038 OVC065 00/M02 A2974 RMK AO2 T00001021,M
TPH,2025-02-14 12:32,-117.0904,38.0505,1654.00,35.00,33.00,92.32,150.00,7.00,0.00,29.78,M,10.00,M,SCT,OVC,M,M,700.00,1200.00,M,M,M,M,M,M,M,M,M,28.44,KTPH 141232Z AUTO 15007KT 10SM SCT007 OVC012 02/01 A2978 RMK AO2 T00170006,M
BVU,2025-02-14 12:35,-114.8611,35.9475,671.00,51.80,42.80,71.26,170.00,10.00,0.00,29.86,M,10.00,18.00,BKN,BKN,OVC,M,5000.00,6000.00,9000.00,M,M,M,M,M,M,M,M,51.80,KBVU 141235Z AUTO 17010G18KT 10SM BKN050 BKN060 OVC090 11/06 A2986 RMK AO2,M
BAM,2025-02-14 12:35,-116.8743,40.5990,1382.36,37.40,32.00,80.65,250.00,9.00,0.00,29.70,M,10.00,M,SCT,M,M,M,12000.00,M,M,M,M,M,M,M,M,M,M,30.23,KBAM 141235Z AUTO 25009KT 10SM SCT120 03/00 A2970 RMK AO1,M
CXP,2025-02-14 12:35,-119.7326,39.1923,1431.00,39.20,30.20,69.88,160.00,7.00,0.00,29.72,M,10.00,15.00,BKN,OVC,M,M,4100.00,5000.00,M,M,M,M,M,M,M,M,M,33.56,KCXP 141235Z AUTO 16007G15KT 10SM BKN041 OVC050 04/M01 A2972 RMK AO2,M
RTS,2025-02-14 12:35,-119.8764,39.6682,1539.00,35.60,30.20,80.51,160.00,5.00,0.00,29.71,M,10.00,12.00,FEW,BKN,OVC,M,3600.00,4300.00,7500.00,M,M,M,M,M,M,M,M,30.67,KRTS 141235Z AUTO 16005G12KT 10SM FEW036 BKN043 OVC075 02/M01 A2971 RMK AO2,M
MEV,2025-02-14 12:35,-119.7500,38.9963,1441.42,39.20,30.20,69.88,140.00,8.00,0.00,29.71,M,10.00,13.00,BKN,OVC,M,M,5000.00,6000.00,M,M,M,M,M,M,M,M,M,32.98,KMEV 141235Z AUTO 14008G13KT 10SM BKN050 OVC060 04/M01 A2971 RMK AO2,M
EKO,2025-02-14 12:36,-115.7860,40.8242,1367.00,36.00,33.00,88.73,210.00,12.00,T,29.70,M,10.00,19.00,SCT,BKN,OVC,M,2300.00,5000.00,6000.00,M,M,M,M,M,M,M,M,27.09,KEKO 141236Z AUTO 21012G19KT 10SM SCT023 BKN050 OVC060 02/01 A2970 RMK AO2 RAB15E17UPB17E28 P0000 T00220006 $,M
TPH,2025-02-14 12:40,-117.0904,38.0505,1654.00,35.00,33.00,92.32,140.00,5.00,0.00,29.79,M,10.00,M,BKN,OVC,M,M,600.00,1200.00,M,M,M,M,M,M,M,M,M,29.96,KTPH 141240Z AUTO 14005KT 10SM BKN006 OVC012 02/01 A2979 RMK AO2 CIG 004V008 T00170006,M
10U,2025-02-14 12:40,-116.1876,41.9532,1637.00,33.80,32.00,93.03,210.00,10.00,0.00,29.66,M,3.00,16.00,BKN,BKN,OVC,M,400.00,900.00,1300.00,M,-SN,M,M,M,M,M,M,25.23,K10U 141240Z AUTO 21010G16KT 3SM -SN BKN004 BKN009 OVC013 01/00 A2966 RMK AO2,M
TMT,2025-02-14 12:50,-117.1971,39.4643,1749.34,32.00,28.40,86.39,230.00,7.00,0.00,29.75,M,10.00,M,OVC,M,M,M,6500.00,M,M,M,M,M,M,M,M,M,M,24.78,KTMT 141250Z AUTO 23007KT 10SM OVC065 00/M02 A2975 RMK AO2 T00001020,M
P68,2025-02-14 12:53,-116.0056,39.6014,1993.00,29.00,28.00,95.99,330.00,3.00,0.00,29.73,1006.20,M,M,M,M,M,M,M,M,M,M,M,M,M,M,M,M,M,25.26,KP68 141253Z AUTO 33003KT M02/M02 A2973 RMK AO1 SLP062 T10171022,M
DRA,2025-02-14 12:53,-116.0278,36.6206,1009.00,48.00,38.00,68.13,200.00,12.00,0.00,29.82,1008.00,10.00,19.00,BKN,M,M,M,4000.00,M,M,M,M,M,M,M,34.00,190.00,2025-02-14 12:06,42.37,KDRA 141253Z AUTO 20012G19KT 10SM BKN040 09/03 A2982 RMK AO2 PK WND 19034/1206 SLP080 T00890033,M
ELY,2025-02-14 12:53,-114.8453,39.2950,1909.00,34.00,31.00,88.63,190.00,5.00,T,29.78,1007.10,9.00,M,FEW,SCT,OVC,M,3100.00,3900.00,4600.00,M,-SN,M,M,M,M,M,M,28.77,KELY 141253Z AUTO 19005KT 9SM -SN FEW031 SCT039 OVC046 01/M01 A2978 RMK AO2 SNB36 SLP071 P0000 T00111006,M
VGT,2025-02-14 12:53,-115.1933,36.2111,667.00,53.00,31.00,42.81,220.00,12.00,0.00,29.81,1011.30,10.00,21.00,OVC,M,M,M,8500.00,M,M,M,M,M,M,M,27.00,210.00,2025-02-14 11:56,53.00,KVGT 141253Z AUTO 22012G21KT 10SM OVC085 12/M01 A2981 RMK AO2 PK WND 21027/1156 RAB14E23 SLP113 T01171006 PNO $,M
LOL,2025-02-14 12:53,-118.5701,40.0684,1192.43,37.00,32.00,81.93,220.00,9.00,0.00,29.70,1005.80,10.00,M,BKN,OVC,M,M,5500.00,7000.00,M,M,M,M,M,M,M,M,M,29.73,KLOL 141253Z AUTO 22009KT 10SM BKN055 OVC070 03/00 A2970 RMK AO2 SLP058 T00280000,M
BVU,2025-02-14 12:55,-114.8611,35.9475,671.00,50.00,42.80,76.18,180.00,15.00,0.00,29.86,M,10.00,M,BKN,BKN,BKN,M,5000.00,5500.00,9000.00,M,M,M,M,M,M,M,M,50.00,KBVU 141255Z AUTO 18015KT 10SM BKN050 BKN055 BKN090 10/06 A2986 RMK AO2,M
RNO,2025-02-14 12:55,-119.7711,39.4839,1341.00,38.00,34.00,85.35,330.00,7.00,T,29.71,1005.60,10.00,M,SCT,OVC,M,M,3000.00,5500.00,M,M,M,M,M,M,M,M,M,32.09,KRNO 141255Z 33007KT 10SM SCT030 OVC055 03/01 A2971 RMK AO2 RAE32 SLP056 P0000 T00330011,M
LSV,2025-02-14 12:55,-115.0343,36.2362,570.00,53.40,38.50,56.87,200.00,14.00,0.00,29.79,1008.20,10.00,M,BKN,M,M,M,8000.00,M,M,M,M,M,M,M,M,M,M,53.40,KLSV 141255Z AUTO 20014KT 10SM BKN080 12/04 A2979 RMK AO2 SLP082 T01190036 $,M
BAM,2025-02-14 12:55,-116.8743,40.5990,1382.36,41.00,32.00,70.08,240.00,8.00,0.00,29.71,M,10.00,15.00,SCT,SCT,M,M,4200.00,5000.00,M,M,M,M,M,M,M,M,M,35.20,KBAM 141255Z AUTO 24008G15KT 10SM SCT042 SCT050 05/00 A2971 RMK AO1,M
CXP,2025-02-14 12:55,-119.7326,39.1923,1431.00,39.20,30.20,69.88,210.00,7.00,0.00,29.73,M,9.00,16.00,BKN,BKN,OVC,M,3600.00,4200.00,4900.00,M,-RA,M,M,M,M,M,M,33.56,KCXP 141255Z AUTO 21007G16KT 9SM -RA BKN036 BKN042 OVC049 04/M01 A2973 RMK AO2,M
RTS,2025-02-14 12:55,-119.8764,39.6682,1539.00,37.40,30.20,74.98,150.00,5.00,0.00,29.71,M,10.00,M,FEW,BKN,OVC,M,4000.00,4600.00,9000.00,M,M,M,M,M,M,M,M,32.81,KRTS 141255Z AUTO 15005KT 10SM FEW040 BKN046 OVC090 03/M01 A2971 RMK AO2,M
MEV,2025-02-14 12:55,-119.7500,38.9963,1441.42,37.40,30.20,74.98,260.00,11.00,0.00,29.72,M,10.00,M,SCT,BKN,OVC,M,4300.00,5000.00,5500.00,M,M,M,M,M,M,M,M,29.29,KMEV 141255Z AUTO 26011KT 10SM SCT043 BKN050 OVC055 03/M01 A2972 RMK AO2,M
EKO,2025-02-14 12:56,-115.7860,40.8242,1367.00,35.00,34.00,96.09,240.00,6.00,T,29.71,1007.00,10.00,M,FEW,BKN,OVC,M,2800.00,3600.00,6000.00,M,UP,M,M,M,M,M,M,29.14,KEKO 141256Z AUTO 24006KT 10SM UP FEW028 BKN036 OVC060 02/01 A2971 RMK AO2 RAB15E17UPB17E28B55 SLP070 P0000 T00170011 $,M
WMC,2025-02-14 12:56,-117.8072,40.9019,1315.00,38.00,34.00,85.35,190.00,6.00,T,29.68,1005.20,10.00,M,OVC,M,M,M,3400.00,M,M,M,-RA,M,M,M,M,M,M,32.76,KWMC 141256Z AUTO 19006KT 10SM -RA OVC034 03/01 A2968 RMK AO2 RAE1159B28 SLP052 P0000 T00330011,M
HND,2025-02-14 12:56,-115.1344,35.9729,742.79,51.00,38.00,60.92,190.00,13.00,0.00,29.88,1013.30,10.00,M,SCT,BKN,M,M,5000.00,8000.00,M,M,M,M,M,M,M,M,M,51.00,KHND 141256Z AUTO 19013KT 10SM SCT050 BKN080 11/03 A2988 RMK AO2 SLP133 T01060033 $,M
TPH,2025-02-14 12:56,-117.0904,38.0505,1654.00,35.00,33.00,92.32,160.00,7.00,0.00,29.79,1008.10,10.00,M,BKN,OVC,M,M,600.00,1200.00,M,M,M,M,M,M,M,M,M,28.44,KTPH 141256Z AUTO 16007KT 10SM BKN006 OVC012 02/01 A2979 RMK AO2 CIG 004V009 SLP081 T00170006,M
LAS,2025-02-14 12:56,-115.1634,36.0719,663.00,54.00,37.00,52.45,220.00,14.00,0.00,29.85,1010.20,10.00,32.00,SCT,M,M,M,6000.00,M,M,M,M,M,M,M,32.00,240.00,2025-02-14 12:53,54.00,KLAS 141256Z 22014G32KT 10SM SCT060 12/03 A2985 RMK AO2 PK WND 24032/1253 SLP102 T01220028,M
NFL,2025-02-14 12:57,-118.7010,39.4166,1199.00,39.00,30.00,69.85,310.00,4.00,0.00,29.73,1004.90,10.00,M,OVC,M,M,M,5000.00,M,M,M,M,M,M,M,M,M,M,35.59,KNFL 141257Z AUTO 31004KT 10SM OVC050 04/M01 A2973 RMK AO2 SLP049 T00391011,M
10U,2025-02-14 13:00,-116.1876,41.9532,1637.00,33.80,32.00,93.03,190.00,12.00,0.00,29.67,M,4.00,M,BKN,BKN,OVC,M,400.00,900.00,1900.00,M,-SN,M,M,M,M,M,M,24.29,K10U 141300Z AUTO 19012KT 4SM -SN BKN004 BKN009 OVC019 01/00 A2967 RMK AO2,M
EKO,2025-02-14 13:09,-115.7860,40.8242,1367.00,35.00,33.00,92.32,250.00,6.00,T,29.72,M,7.00,M,OVC,M,M,M,2200.00,M,M,M,-RA,M,M,M,M,M,M,29.14,KEKO 141309Z AUTO 25006KT 7SM -RA OVC022 02/01 A2972 RMK AO2 UPE1259RAB1259 P0000 T00170006 $,M
TPH,2025-02-14 13:09,-117.0904,38.0505,1654.00,35.00,34.00,96.09,160.00,6.00,0.00,29.80,M,10.00,15.00,SCT,OVC,M,M,500.00,1300.00,M,M,M,M,M,M,M,M,M,29.14,KTPH 141309Z AUTO 16006G15KT 10SM SCT005 OVC013 02/01 A2980 RMK AO2 T00170011,M
TMT,2025-02-14 13:10,-117.1971,39.4643,1749.34,32.00,29.00,88.53,230.00,6.00,0.00,29.75,M,10.00,M,OVC,M,M,M,6500.00,M,M,M,M,M,M,M,M,M,M,25.53,KTMT 141310Z AUTO 23006KT 10SM OVC065 00/M02 A2975 RMK AO2 T00001017,M
BVU,2025-02-14 13:15,-114.8611,35.9475,671.00,50.00,42.80,76.18,190.00,9.00,0.00,29.87,M,10.00,15.00,BKN,OVC,M,M,5000.00,6000.00,M,M,M,M,M,M,M,M,M,50.00,KBVU 141315Z AUTO 19009G15KT 10SM BKN050 OVC060 10/06 A2987 RMK AO2,M
BAM,2025-02-14 13:15,-116.8743,40.5990,1382.36,39.20,33.80,80.79,230.00,7.00,0.00,29.71,M,10.00,M,SCT,BKN,BKN,M,3700.00,4300.00,5000.00,M,M,M,M,M,M,M,M,33.56,KBAM 141315Z AUTO 23007KT 10SM SCT037 BKN043 BKN050 04/01 A2971 RMK AO1,M
CXP,2025-02-14 13:15,-119.7326,39.1923,1431.00,37.40,30.20,74.98,180.00,12.00,0.00,29.74,M,9.00,M,FEW,BKN,OVC,M,1200.00,3200.00,4100.00,M,-RA,M,M,M,M,M,M,28.87,KCXP 141315Z AUTO 18012KT 9SM -RA FEW012 BKN032 OVC041 03/M01 A2974 RMK AO2,M
RTS,2025-02-14 13:15,-119.8764,39.6682,1539.00,37.40,28.40,69.67,200.00,5.00,0.00,29.72,M,10.00,M,SCT,BKN,OVC,M,4400.00,7000.00,8500.00,M,M,M,M,M,M,M,M,32.81,KRTS 141315Z AUTO 20005KT 10SM SCT044 BKN070 OVC085 03/M02 A2972 RMK AO2,M
MEV,2025-02-14 13:15,-119.7500,38.9963,1441.42,39.20,30.20,69.88,250.00,11.00,0.00,29.73,M,10.00,16.00,FEW,SCT,OVC,M,3000.00,3700.00,4500.00,M,M,M,M,M,M,M,M,31.57,KMEV 141315Z AUTO 25011G16KT 10SM FEW030 SCT037 OVC045 04/M01 A2973 RMK AO2,M
10U,2025-02-14 13:20,-116.1876,41.9532,1637.00,33.80,32.00,93.03,190.00,12.00,0.00,29.67,M,3.00,M,BKN,BKN,BKN,M,300.00,1400.00,1900.00,M,-SN,M,M,M,M,M,M,24.29,K10U 141320Z AUTO 19012KT 3SM -SN BKN003 BKN014 BKN019 01/00 A2967 RMK AO2,M
TPH,2025-02-14 13:21,-117.0904,38.0505,1654.00,35.00,33.00,92.32,170.00,6.00,0.00,29.80,M,10.00,M,BKN,OVC,M,M,500.00,1300.00,M,M,M,M,M,M,M,M,M,29.14,KTPH 141321Z AUTO 17006KT 10SM BKN005 OVC013 02/01 A2980 RMK AO2 CIG 004V010 T00170006,M
TMT,2025-02-14 13:30,-117.1971,39.4643,1749.34,32.00,29.00,88.53,230.00,7.00,0.00,29.77,M,10.00,M,SCT,SCT,OVC,M,4200.00,4900.00,5500.00,M,M,M,M,M,M,M,M,24.78,KTMT 141330Z AUTO 23007KT 10SM SCT042 SCT049 OVC055 00/M02 A2977 RMK AO2 T00001016,M
TPH,2025-02-14 13:33,-117.0904,38.0505,1654.00,34.00,33.00,96.08,140.00,3.00,0.00,29.81,M,10.00,M,SCT,BKN,BKN,M,500.00,1300.00,2000.00,M,M,M,M,M,M,M,M,30.97,KTPH 141333Z AUTO 14003KT 10SM SCT005 BKN013 BKN020 01/01 A2981 RMK AO2 T00110006,M
BVU,2025-02-14 13:35,-114.8611,35.9475,671.00,50.00,42.80,76.18,200.00,13.00,0.00,29.86,M,10.00,M,BKN,M,M,M,4800.00,M,M,M,M,M,M,M,M,M,M,50.00,KBVU 141335Z AUTO 20013KT 10SM BKN048 10/06 A2986 RMK AO2,M
BAM,2025-02-14 13:35,-116.8743,40.5990,1382.36,39.20,33.80,80.79,220.00,10.00,0.00,29.72,M,10.00,M,SCT,SCT,BKN,M,3700.00,4600.00,9500.00,M,M,M,M,M,M,M,M,32.00,KBAM 141335Z AUTO 22010KT 10SM SCT037 SCT046 BKN095 04/01 A2972 RMK AO1,M
CXP,2025-02-14 13:35,-119.7326,39.1923,1431.00,37.40,30.20,74.98,200.00,7.00,0.00,29.76,M,6.00,12.00,FEW,BKN,OVC,M,1000.00,3200.00,4100.00,M,UP HZ,M,M,M,M,M,M,31.36,KCXP 141335Z AUTO 20007G12KT 170V230 6SM UP HZ FEW010 BKN032 OVC041 03/M01 A2976 RMK AO2,M
RTS,2025-02-14 13:35,-119.8764,39.6682,1539.00,37.40,30.20,74.98,240.00,7.00,0.00,29.74,M,10.00,M,FEW,BKN,OVC,M,3800.00,4400.00,7500.00,M,M,M,M,M,M,M,M,31.36,KRTS 141335Z AUTO 24007KT 10SM FEW038 BKN044 OVC075 03/M01 A2974 RMK AO2,M
MEV,2025-02-14 13:35,-119.7500,38.9963,1441.42,37.40,30.20,74.98,0.00,0.00,0.00,29.74,M,10.00,M,FEW,BKN,OVC,M,2700.00,4400.00,5000.00,M,VCTS,M,M,M,M,M,M,37.40,KMEV 141335Z AUTO 00000KT 10SM VCTS FEW027 BKN044 OVC050 03/M01 A2974 RMK AO2 LTG DSNT ALQDS,M
10U,2025-02-14 13:40,-116.1876,41.9532,1637.00,33.80,32.00,93.03,200.00,12.00,0.00,29.67,M,7.00,M,FEW,FEW,SCT,M,300.00,2200.00,3100.00,M,-SN,M,M,M,M,M,M,24.29,K10U 141340Z AUTO 20012KT 7SM -SN FEW003 FEW022 SCT031 01/00 A2967 RMK AO2,M
EKO,2025-02-14 13:41,-115.7860,40.8242,1367.00,34.00,33.00,96.08,0.00,0.00,0.01,29.71,M,10.00,M,SCT,BKN,OVC,M,2800.00,6000.00,9500.00,M,M,M,M,M,M,M,M,34.00,KEKO 141341Z AUTO 00000KT 10SM SCT028 BKN060 OVC095 01/01 A2971 RMK AO2 UPE1259B21E29RAB1259E21 P0001 T00110006 $,M
MEV,2025-02-14 13:45,-119.7500,38.9963,1441.42,39.20,28.40,64.93,100.00,5.00,0.00,29.74,M,10.00,M,FEW,BKN,OVC,M,3900.00,4500.00,5000.00,M,M,M,M,M,M,M,M,34.95,KMEV 141345Z AUTO 10005KT 10SM FEW039 BKN045 OVC050 04/M02 A2974 RMK AO2,M
RTS,2025-02-14 13:45,-119.8764,39.6682,1539.00,37.40,30.20,74.98,250.00,12.00,0.00,29.74,M,9.00,20.00,SCT,BKN,OVC,M,2400.00,4100.00,6500.00,M,-RA,M,M,M,M,M,M,28.87,KRTS 141345Z AUTO 25012G20KT 9SM -RA SCT024 BKN041 OVC065 03/M01 A2974 RMK AO2,M
TMT,2025-02-14 13:50,-117.1971,39.4643,1749.34,32.00,29.00,88.53,220.00,8.00,0.00,29.77,M,10.00,M,SCT,BKN,OVC,M,4400.00,5500.00,10000.00,M,M,M,M,M,M,M,M,24.11,KTMT 141350Z AUTO 22008KT 10SM SCT044 BKN055 OVC100 00/M02 A2977 RMK AO2 T00011017,M
P68,2025-02-14 13:53,-116.0056,39.6014,1993.00,28.00,27.00,95.97,350.00,4.00,0.00,29.75,1006.70,M,M,M,M,M,M,M,M,M,M,M,M,M,M,M,M,M,22.75,KP68 141353Z AUTO 35004KT M02/M03 A2975 RMK AO1 SLP067 T10221028,M
DRA,2025-02-14 13:53,-116.0278,36.6206,1009.00,47.00,37.00,68.02,190.00,16.00,0.00,29.83,1008.50,10.00,25.00,BKN,M,M,M,4000.00,M,M,M,M,M,M,M,26.00,190.00,2025-02-14 13:34,39.97,KDRA 141353Z AUTO 19016G25KT 10SM BKN040 08/03 A2983 RMK AO2 PK WND 19026/1334 SLP085 T00830028,M
ELY,2025-02-14 13:53,-114.8453,39.2950,1909.00,34.00,30.00,85.11,120.00,4.00,T,29.78,1007.20,10.00,M,BKN,BKN,OVC,M,3400.00,4100.00,8000.00,M,M,M,M,M,M,M,M,29.76,KELY 141353Z AUTO 12004KT 10SM BKN034 BKN041 OVC080 01/M01 A2978 RMK AO2 SNE1258 SLP072 P0000 T00111011,M
VGT,2025-02-14 13:53,-115.1933,36.2111,667.00,53.00,31.00,42.81,230.00,13.00,0.00,29.83,1011.60,10.00,18.00,FEW,M,M,M,8500.00,M,M,M,M,M,M,M,M,M,M,53.00,KVGT 141353Z 23013G18KT 10SM FEW085 12/M01 A2983 RMK AO2 SLP116 T01171006 PNO $,M
LOL,2025-02-14 13:53,-118.5701,40.0684,1192.43,38.00,32.00,78.77,220.00,10.00,0.00,29.72,1006.50,10.00,M,SCT,BKN,M,M,9000.00,11000.00,M,M,M,M,M,M,M,M,M,30.49,KLOL 141353Z AUTO 22010KT 10SM SCT090 BKN110 03/00 A2972 RMK AO2 SLP065 T00330000,M
BVU,2025-02-14 13:55,-114.8611,35.9475,671.00,50.00,41.00,71.07,210.00,7.00,0.00,29.87,M,10.00,M,SCT,M,M,M,4900.00,M,M,M,M,M,M,M,M,M,M,50.00,KBVU 141355Z AUTO 21007KT 10SM SCT049 10/05 A2987 RMK AO2,M
RNO,2025-02-14 13:55,-119.7711,39.4839,1341.00,37.00,34.00,88.78,0.00,0.00,T,29.74,1006.70,10.00,M,BKN,BKN,OVC,M,3500.00,6500.00,9000.00,M,M,M,M,M,M,M,M,37.00,KRNO 141355Z 00000KT 10SM BKN035 BKN065 OVC090 03/01 A2974 RMK AO2 RAB20E45 SLP067 P0000 T00280011,M
BAM,2025-02-14 13:55,-116.8743,40.5990,1382.36,39.20,33.80,80.79,240.00,12.00,0.00,29.72,M,10.00,17.00,SCT,BKN,BKN,M,4100.00,5000.00,9000.00,M,M,M,M,M,M,M,M,31.17,KBAM 141355Z AUTO 24012G17KT 10SM SCT041 BKN050 BKN090 04/01 A2972 RMK AO1,M
CXP,2025-02-14 13:55,-119.7326,39.1923,1431.00,37.40,32.00,80.65,160.00,10.00,0.00,29.77,M,5.00,15.00,FEW,SCT,BKN,M,900.00,2600.00,3000.00,M,UP HZ,M,M,M,M,M,M,29.74,KCXP 141355Z AUTO 16010G15KT 5SM UP HZ FEW009 SCT026 BKN030 03/M00 A2977 RMK AO2,M
INS,2025-02-14 13:55,-115.6733,36.5872,955.00,47.50,33.40,57.85,170.00,3.00,0.00,29.84,1009.10,10.00,M,BKN,M,M,M,8000.00,M,M,M,M,M,M,M,M,M,M,46.41,KINS 141355Z AUTO 17003KT 10SM BKN080 09/01 A2984 RMK AO2 SLP091 T00860008 $,M
LSV,2025-02-14 13:55,-115.0343,36.2362,570.00,52.00,38.70,60.35,180.00,13.00,0.00,29.80,1008.70,10.00,M,CLR,M,M,M,M,M,M,M,M,M,M,M,M,M,M,52.00,KLSV 141355Z AUTO 18013KT 10SM CLR 11/04 A2980 RMK AO2 SLP087 T01120037 $,M
EKO,2025-02-14 13:56,-115.7860,40.8242,1367.00,35.00,34.00,96.09,0.00,0.00,0.01,29.71,1006.80,10.00,M,FEW,BKN,OVC,M,5000.00,6000.00,7500.00,M,M,M,M,M,M,M,M,35.00,KEKO 141356Z AUTO 00000KT 10SM FEW050 BKN060 OVC075 02/01 A2971 RMK AO2 UPE1259B21E29RAB1259E21 SLP068 P0001 T00170011 $,M
WMC,2025-02-14 13:56,-117.8072,40.9019,1315.00,40.00,34.00,78.94,190.00,9.00,T,29.69,1005.10,10.00,M,OVC,M,M,M,3400.00,M,M,M,-RA,M,M,M,M,M,M,33.46,KWMC 141356Z AUTO 19009KT 10SM -RA OVC034 04/01 A2969 RMK AO2 RAE06B41 SLP051 P0000 T00440011,M
HND,2025-02-14 13:56,-115.1344,35.9729,742.79,51.00,38.00,60.92,210.00,20.00,0.00,29.86,1012.60,10.00,29.00,FEW,M,M,M,7500.00,M,M,M,M,M,M,M,29.00,210.00,2025-02-14 13:53,51.00,KHND 141356Z 21020G29KT 10SM FEW075 11/03 A2986 RMK AO2 PK WND 21029/1353 SLP126 T01060033 $,M
TPH,2025-02-14 13:56,-117.0904,38.0505,1654.00,34.00,32.00,92.29,80.00,4.00,0.00,29.81,1009.20,10.00,M,BKN,OVC,M,M,1000.00,1500.00,M,M,M,M,M,M,M,M,M,29.76,KTPH 141356Z AUTO 08004KT 10SM BKN010 OVC015 01/00 A2981 RMK AO2 CIG 005V013 SLP092 T00110000,M
LAS,2025-02-14 13:56,-115.1634,36.0719,663.00,52.00,37.00,56.45,160.00,5.00,0.00,29.85,1010.20,10.00,M,BKN,M,M,M,6000.00,M,M,M,M,M,M,M,31.00,220.00,2025-02-14 13:10,52.00,KLAS 141356Z 16005KT 10SM BKN060 11/03 A2985 RMK AO2 PK WND 22031/1310 SLP102 T01110028,M
NFL,2025-02-14 13:57,-118.7010,39.4166,1199.00,35.00,29.00,78.51,140.00,6.00,0.00,29.74,1005.00,10.00,M,CLR,M,M,M,M,M,M,M,M,M,M,M,M,M,M,29.14,KNFL 141357Z AUTO 14006KT 10SM CLR 02/M02 A2974 RMK AO2 SLP050 T00171017,M
10U,2025-02-14 14:00,-116.1876,41.9532,1637.00,33.80,32.00,93.03,200.00,6.00,0.00,29.67,M,7.00,M,FEW,SCT,BKN,M,400.00,1100.00,2800.00,M,-SN,M,M,M,M,M,M,27.70,K10U 141400Z AUTO 20006KT 7SM -SN FEW004 SCT011 BKN028 01/00 A2967 RMK AO2,M
TPH,2025-02-14 14:01,-117.0904,38.0505,1654.00,34.00,32.00,92.29,110.00,4.00,0.00,29.81,M,10.00,M,BKN,OVC,M,M,900.00,1400.00,M,M,M,M,M,M,M,M,M,29.76,KTPH 141401Z AUTO 11004KT 10SM BKN009 OVC014 01/00 A2981 RMK AO2 CIG 005V012 T00110000,M
TMT,2025-02-14 14:10,-117.1971,39.4643,1749.34,32.70,29.70,88.57,220.00,10.00,0.00,29.78,M,10.00,M,SCT,SCT,BKN,M,3900.00,5000.00,6500.00,M,M,M,M,M,M,M,M,23.85,KTMT 141410Z AUTO 22010KT 10SM SCT039 SCT050 BKN065 00/M01 A2978 RMK AO2 T00041013,M
TPH,2025-02-14 14:13,-117.0904,38.0505,1654.00,34.00,32.00,92.29,140.00,4.00,0.00,29.82,M,10.00,M,FEW,OVC,M,M,600.00,1400.00,M,M,M,M,M,M,M,M,M,29.76,KTPH 141413Z AUTO 14004KT 10SM FEW006 OVC014 01/00 A2982 RMK AO2 T00110000,M
BVU,2025-02-14 14:15,-114.8611,35.9475,671.00,51.80,39.20,61.99,230.00,12.00,0.00,29.87,M,10.00,M,SCT,SCT,M,M,4600.00,5500.00,M,M,M,M,M,M,M,M,M,51.80,KBVU 141415Z AUTO 23012KT 10SM SCT046 SCT055 11/04 A2987 RMK AO2,M
BAM,2025-02-14 14:15,-116.8743,40.5990,1382.36,37.40,33.80,86.69,240.00,10.00,0.00,29.71,M,10.00,M,SCT,SCT,BKN,M,2800.00,4300.00,5500.00,M,M,M,M,M,M,M,M,29.74,KBAM 141415Z AUTO 24010KT 10SM SCT028 SCT043 BKN055 03/01 A2971 RMK AO1,M
CXP,2025-02-14 14:15,-119.7326,39.1923,1431.00,39.20,28.40,64.93,190.00,10.00,0.00,29.79,M,10.00,18.00,FEW,BKN,OVC,M,900.00,3800.00,4500.00,M,M,M,M,M,M,M,M,32.00,KCXP 141415Z AUTO 19010G18KT 10SM FEW009 BKN038 OVC045 04/M02 A2979 RMK AO2,M
TMT,2025-02-14 14:30,-117.1971,39.4643,1749.34,32.00,30.00,92.22,240.00,9.00,0.00,29.78,M,10.00,M,SCT,BKN,BKN,M,5000.00,6500.00,7000.00,M,M,M,M,M,M,M,M,23.51,KTMT 141430Z AUTO 24009KT 10SM SCT050 BKN065 BKN070 00/M01 A2978 RMK AO2 T00001012,M
BVU,2025-02-14 14:35,-114.8611,35.9475,671.00,50.00,37.40,61.76,220.00,14.00,0.00,29.87,M,10.00,21.00,FEW,M,M,M,4400.00,M,M,M,M,M,M,M,M,M,M,50.00,KBVU 141435Z AUTO 22014G21KT 10SM FEW044 10/03 A2987 RMK AO2,M
BAM,2025-02-14 14:35,-116.8743,40.5990,1382.36,37.40,33.80,86.69,260.00,8.00,0.00,29.72,M,10.00,M,SCT,M,M,M,5500.00,M,M,M,M,M,M,M,M,M,M,30.76,KBAM 141435Z AUTO 26008KT 10SM SCT055 03/01 A2972 RMK AO1,M
CXP,2025-02-14 14:35,-119.7326,39.1923,1431.00,39.20,28.40,64.93,M,4.00,0.00,29.80,M,10.00,10.00,FEW,BKN,OVC,M,3800.00,4500.00,5000.00,M,M,M,M,M,M,M,M,35.83,KCXP 141435Z AUTO VRB04G10KT 10SM FEW038 BKN045 OVC050 04/M02 A2980 RMK AO2,M
RTS,2025-02-14 14:35,-119.8764,39.6682,1539.00,37.40,30.20,74.98,240.00,9.00,0.00,29.77,M,10.00,M,FEW,SCT,BKN,M,3000.00,4400.00,4900.00,M,M,M,M,M,M,M,M,30.23,KRTS 141435Z AUTO 24009KT 10SM FEW030 SCT044 BKN049 03/M01 A2977 RMK AO2,M
MEV,2025-02-14 14:35,-119.7500,38.9963,1441.42,41.00,24.80,52.17,160.00,7.00,0.00,29.78,M,10.00,15.00,FEW,FEW,OVC,M,2000.00,4000.00,5500.00,M,M,M,M,M,M,M,M,35.75,KMEV 141435Z AUTO 16007G15KT 120V220 10SM FEW020 FEW040 OVC055 05/M04 A2978 RMK AO2,M
NFL,2025-02-14 14:38,-118.7010,39.4166,1199.00,35.00,29.00,78.51,130.00,6.00,0.00,29.75,M,10.00,M,BKN,BKN,BKN,M,5000.00,10000.00,18000.00,M,M,M,M,M,M,M,M,29.14,KNFL 141438Z 13006KT 10SM BKN050 BKN100 BKN180 02/M02 A2975 RMK AO2 T00171017,M
10U,2025-02-14 14:40,-116.1876,41.9532,1637.00,33.80,32.00,93.03,190.00,11.00,0.00,29.68,M,2.00,M,BKN,BKN,BKN,M,200.00,700.00,1700.00,M,-SN,M,M,M,M,M,M,24.74,K10U 141440Z AUTO 19011KT 2SM -SN BKN002 BKN007 BKN017 01/00 A2968 RMK AO2,M
EKO,2025-02-14 14:45,-115.7860,40.8242,1367.00,34.00,33.00,96.08,220.00,3.00,T,29.72,M,10.00,M,BKN,OVC,M,M,2800.00,4100.00,M,M,M,M,M,M,M,M,M,30.97,KEKO 141445Z AUTO 22003KT 10SM BKN028 OVC041 01/01 A2972 RMK AO2 RAB14E25UPB25E44 P0000 T00110006 $,M
MEV,2025-02-14 14:45,-119.7500,38.9963,1441.42,39.20,24.80,55.95,0.00,0.00,0.00,29.78,M,10.00,15.00,BKN,BKN,OVC,M,5000.00,5500.00,6500.00,M,M,M,M,M,M,M,M,39.20,KMEV 141445Z AUTO 00000G15KT 10SM BKN050 BKN055 OVC065 04/M04 A2978 RMK AO2,M
RTS,2025-02-14 14:45,-119.8764,39.6682,1539.00,35.60,30.20,80.51,310.00,4.00,0.00,29.78,M,10.00,10.00,BKN,BKN,OVC,M,4300.00,4900.00,6000.00,M,M,M,M,M,M,M,M,31.62,KRTS 141445Z AUTO 31004G10KT 10SM BKN043 BKN049 OVC060 02/M01 A2978 RMK AO2,M
CXP,2025-02-14 14:50,-119.7326,39.1923,1431.00,39.20,26.60,60.29,200.00,8.00,0.00,29.81,M,10.00,16.00,BKN,OVC,M,M,4500.00,5000.00,M,M,M,M,M,M,M,M,M,32.98,KCXP 141450Z AUTO 20008G16KT 10SM BKN045 OVC050 04/M03 A2981 RMK AO2,M
TMT,2025-02-14 14:50,-117.1971,39.4643,1749.34,33.00,30.20,89.31,240.00,8.00,0.00,29.79,M,10.00,M,SCT,OVC,M,M,5000.00,6000.00,M,M,M,M,M,M,M,M,M,25.34,KTMT 141450Z AUTO 24008KT 10SM SCT050 OVC060 01/M01 A2979 RMK AO2 T00051010,M
P68,2025-02-14 14:53,-116.0056,39.6014,1993.00,30.00,28.00,92.15,10.00,3.00,0.00,29.76,1006.50,M,M,M,M,M,M,M,M,M,M,M,M,M,M,M,M,M,26.40,KP68 141453Z AUTO 01003KT M01/M02 A2976 RMK AO1 SLP065 T10111022 52008,M
DRA,2025-02-14 14:53,-116.0278,36.6206,1009.00,48.00,37.00,65.51,210.00,12.00,0.00,29.84,1008.90,10.00,24.00,SCT,M,M,M,4100.00,M,M,M,M,M,M,M,26.00,200.00,2025-02-14 14:01,42.37,KDRA 141453Z AUTO 21012G24KT 10SM SCT041 09/03 A2984 RMK AO2 PK WND 20026/1401 SLP089 T00890028 51016,M
ELY,2025-02-14 14:53,-114.8453,39.2950,1909.00,33.00,30.00,88.58,160.00,7.00,0.00,29.79,1007.90,10.00,M,FEW,BKN,OVC,M,1900.00,3400.00,8000.00,M,M,M,M,M,M,M,M,26.00,KELY 141453Z AUTO 16007KT 10SM FEW019 BKN034 OVC080 01/M01 A2979 RMK AO2 SLP079 60000 T00061011 51011,M
VGT,2025-02-14 14:53,-115.1933,36.2111,667.00,50.00,31.00,47.83,160.00,8.00,0.00,29.86,1012.90,10.00,M,CLR,M,M,M,M,M,M,M,M,M,M,M,M,M,M,50.00,KVGT 141453Z 16008KT 10SM CLR 10/M01 A2986 RMK AO2 SLP129 6//// T01001006 53018 PNO $,M
LOL,2025-02-14 14:53,-118.5701,40.0684,1192.43,39.00,33.00,78.86,230.00,9.00,T,29.75,1007.90,10.00,M,BKN,OVC,M,M,4200.00,7000.00,M,M,-RA,M,M,M,M,M,M,32.22,KLOL 141453Z AUTO 23009KT 10SM -RA BKN042 OVC070 04/01 A2975 RMK AO2 RAB49 SLP079 P0000 60000 T00390006 53021,M
BVU,2025-02-14 14:55,-114.8611,35.9475,671.00,51.80,37.40,57.77,230.00,13.00,0.00,29.89,M,10.00,21.00,CLR,M,M,M,M,M,M,M,M,M,M,M,M,M,M,51.80,KBVU 141455Z AUTO 23013G21KT 10SM CLR 11/03 A2989 RMK AO2,M
RNO,2025-02-14 14:55,-119.7711,39.4839,1341.00,37.00,33.00,85.29,210.00,4.00,0.00,29.77,1007.70,10.00,M,SCT,BKN,BKN,M,3500.00,5000.00,7000.00,M,M,M,M,M,M,M,M,33.26,KRNO 141455Z 21004KT 10SM SCT035 BKN050 BKN070 03/01 A2977 RMK AO2 SLP077 60000 T00280006 51027,M
BAM,2025-02-14 14:55,-116.8743,40.5990,1382.36,37.40,33.80,86.69,260.00,11.00,0.00,29.74,M,10.00,15.00,SCT,BKN,BKN,M,4200.00,5000.00,12000.00,M,M,M,M,M,M,M,M,29.29,KBAM 141455Z AUTO 26011G15KT 10SM SCT042 BKN050 BKN120 03/01 A2974 RMK AO1,M
INS,2025-02-14 14:55,-115.6733,36.5872,955.00,40.50,33.80,76.81,100.00,7.00,0.00,29.84,1009.50,10.00,M,CLR,M,M,M,M,M,M,M,M,M,M,M,M,M,M,35.14,KINS 141455Z AUTO 10007KT 10SM CLR 05/01 A2984 RMK AO2 SLP095 T00470010 52017 $,M
LSV,2025-02-14 14:55,-115.0343,36.2362,570.00,51.80,39.00,61.51,180.00,8.00,0.00,29.83,1009.70,10.00,M,FEW,M,M,M,8500.00,M,M,M,M,M,M,M,M,M,M,51.80,KLSV 141455Z AUTO 18008KT 10SM FEW085 11/04 A2983 RMK AO2 SLP097 T01100038 52019 $,M
EKO,2025-02-14 14:56,-115.7860,40.8242,1367.00,34.00,33.00,96.08,220.00,3.00,T,29.73,1007.30,9.00,M,FEW,SCT,OVC,M,1800.00,2600.00,3600.00,M,UP,M,M,M,M,M,M,30.97,KEKO 141456Z AUTO 22003KT 9SM UP FEW018 SCT026 OVC036 01/01 A2973 RMK AO2 RAB14E25UPB25E44B51 SLP073 P0000 60001 T00110006 51009 $,M
WMC,2025-02-14 14:56,-117.8072,40.9019,1315.00,38.00,35.00,88.83,180.00,9.00,0.01,29.71,1005.90,10.00,M,OVC,M,M,M,3400.00,M,M,M,-RA,M,M,M,M,M,M,30.97,KWMC 141456Z AUTO 18009KT 10SM -RA OVC034 03/02 A2971 RMK AO2 SLP059 P0001 60001 T00330017 51021,M
HND,2025-02-14 14:56,-115.1344,35.9729,742.79,50.00,38.00,63.23,190.00,16.00,0.00,29.90,1014.20,10.00,21.00,SCT,M,M,M,7500.00,M,M,M,M,M,M,M,M,M,M,50.00,KHND 141456Z 19016G21KT 10SM SCT075 10/03 A2990 RMK AO2 SLP142 T01000033 53012 $,M
TPH,2025-02-14 14:56,-117.0904,38.0505,1654.00,34.00,32.00,92.29,80.00,4.00,0.00,29.84,1010.10,10.00,M,OVC,M,M,M,1200.00,M,M,M,M,M,M,M,M,M,M,29.76,KTPH 141456Z AUTO 08004KT 10SM OVC012 01/00 A2984 RMK AO2 SLP101 T00110000 53020,M
LAS,2025-02-14 14:56,-115.1634,36.0719,663.00,52.00,38.00,58.71,140.00,9.00,0.00,29.89,1011.70,10.00,M,BKN,BKN,M,M,6000.00,20000.00,M,M,M,M,M,M,M,M,M,52.00,KLAS 141456Z 14009KT 10SM BKN060 BKN200 11/03 A2989 RMK AO2 SLP117 T01110033 53018,M
NFL,2025-02-14 14:57,-118.7010,39.4166,1199.00,36.00,29.00,75.46,140.00,6.00,0.00,29.76,1005.70,10.00,M,BKN,BKN,BKN,M,5000.00,10000.00,18000.00,M,M,M,M,M,M,M,M,30.35,KNFL 141457Z 14006KT 10SM BKN050 BKN100 BKN180 02/M02 A2976 RMK AO2 SLP057 T00221017 51018,M
10U,2025-02-14 15:00,-116.1876,41.9532,1637.00,33.80,32.00,93.03,190.00,10.00,0.00,29.68,M,5.00,16.00,SCT,SCT,BKN,M,300.00,800.00,1700.00,M,-SN,M,M,M,M,M,M,25.23,K10U 141500Z AUTO 19010G16KT 5SM -SN SCT003 SCT008 BKN017 01/00 A2968 RMK AO2,M
ELY,2025-02-14 15:09,-114.8453,39.2950,1909.00,34.00,31.00,88.63,170.00,7.00,T,29.80,M,1.75,M,BKN,BKN,OVC,M,2400.00,3500.00,5000.00,M,-SN BR,M,M,M,M,M,M,27.22,KELY 141509Z AUTO 17007KT 1 3/4SM -SN BR BKN024 BKN035 OVC050 01/M01 A2980 RMK AO2 SNB02 P0000 T00111006,M
TMT,2025-02-14 15:10,-117.1971,39.4643,1749.34,32.70,30.00,89.66,240.00,8.00,0.00,29.80,M,10.00,M,OVC,M,M,M,6000.00,M,M,M,M,M,M,M,M,M,M,24.98,KTMT 141510Z AUTO 24008KT 10SM OVC060 00/M01 A2980 RMK AO2 T00041011,M
WMC,2025-02-14 15:14,-117.8072,40.9019,1315.00,38.00,35.00,88.83,170.00,9.00,T,29.72,M,10.00,M,OVC,M,M,M,2900.00,M,M,M,-RA,M,M,M,M,M,M,30.97,KWMC 141514Z AUTO 17009KT 10SM -RA OVC029 03/02 A2972 RMK AO2 P0000 T00330017,M
BVU,2025-02-14 15:15,-114.8611,35.9475,671.00,51.80,39.20,61.99,220.00,9.00,0.00,29.90,M,10.00,15.00,CLR,M,M,M,M,M,M,M,M,M,M,M,M,M,M,51.80,KBVU 141515Z AUTO 22009G15KT 190V250 10SM CLR 11/04 A2990 RMK AO2,M
BAM,2025-02-14 15:15,-116.8743,40.5990,1382.36,37.40,33.80,86.69,250.00,9.00,0.00,29.75,M,10.00,M,SCT,BKN,OVC,M,4400.00,5000.00,6500.00,M,M,M,M,M,M,M,M,30.23,KBAM 141515Z AUTO 25009KT 10SM SCT044 BKN050 OVC065 03/01 A2975 RMK AO1,M
CXP,2025-02-14 15:15,-119.7326,39.1923,1431.00,39.20,26.60,60.29,230.00,11.00,0.00,29.82,M,10.00,18.00,BKN,OVC,M,M,4600.00,5500.00,M,M,-RA,M,M,M,M,M,M,31.57,KCXP 141515Z AUTO 23011G18KT 200V260 10SM -RA BKN046 OVC055 04/M03 A2982 RMK AO2,M
ELY,2025-02-14 15:19,-114.8453,39.2950,1909.00,34.00,31.00,88.63,150.00,7.00,T,29.80,M,3.00,M,BKN,OVC,M,M,2600.00,3500.00,M,M,-SN BR,M,M,M,M,M,M,27.22,KELY 141519Z AUTO 15007KT 3SM -SN BR BKN026 OVC035 01/M01 A2980 RMK AO2 SNB02 P0000 T00111006,M
10U,2025-02-14 15:20,-116.1876,41.9532,1637.00,33.80,32.00,93.03,200.00,8.00,0.00,29.68,M,1.25,M,BKN,BKN,BKN,M,300.00,700.00,1200.00,M,-SN,M,M,M,M,M,M,26.33,K10U 141520Z AUTO 20008KT 1 1/4SM -SN BKN003 BKN007 BKN012 01/00 A2968 RMK AO2,M
RTS,2025-02-14 15:25,-119.8764,39.6682,1539.00,35.60,28.40,74.80,230.00,10.00,0.00,29.79,M,10.00,M,SCT,BKN,OVC,M,3400.00,4000.00,7500.00,M,M,M,M,M,M,M,M,27.48,KRTS 141525Z AUTO 23010KT 10SM SCT034 BKN040 OVC075 02/M02 A2979 RMK AO2,M
MEV,2025-02-14 15:25,-119.7500,38.9963,1441.42,37.40,26.60,64.70,300.00,9.00,0.00,29.80,M,10.00,M,BKN,OVC,M,M,5000.00,6500.00,M,M,M,M,M,M,M,M,M,30.23,KMEV 141525Z AUTO 30009KT 10SM BKN050 OVC065 03/M03 A2980 RMK AO2,M
TMT,2025-02-14 15:30,-117.1971,39.4643,1749.34,32.40,29.30,88.19,230.00,6.00,0.00,29.80,M,10.00,M,SCT,M,M,M,6000.00,M,M,M,M,M,M,M,M,M,M,26.01,KTMT 141530Z AUTO 23006KT 10SM SCT060 00/M01 A2980 RMK AO2 T00021015,M
BVU,2025-02-14 15:35,-114.8611,35.9475,671.00,53.60,37.40,54.07,230.00,16.00,0.00,29.90,M,10.00,22.00,CLR,M,M,M,M,M,M,M,M,M,M,M,M,M,M,53.60,KBVU 141535Z AUTO 23016G22KT 10SM CLR 12/03 A2990 RMK AO2,M
BAM,2025-02-14 15:35,-116.8743,40.5990,1382.36,37.40,33.80,86.69,250.00,7.00,0.00,29.75,M,10.00,M,SCT,BKN,OVC,M,3900.00,4600.00,12000.00,M,M,M,M,M,M,M,M,31.36,KBAM 141535Z AUTO 25007KT 10SM SCT039 BKN046 OVC120 03/01 A2975 RMK AO1,M
CXP,2025-02-14 15:35,-119.7326,39.1923,1431.00,39.20,26.60,60.29,220.00,6.00,0.00,29.83,M,4.00,14.00,BKN,OVC,M,M,5000.00,6500.00,M,M,-RA HZ,M,M,M,M,M,M,34.20,KCXP 141535Z AUTO 22006G14KT 4SM -RA HZ BKN050 OVC065 04/M03 A2983 RMK AO2,M
10U,2025-02-14 15:40,-116.1876,41.9532,1637.00,33.80,32.00,93.03,200.00,11.00,0.00,29.69,M,3.00,M,SCT,SCT,SCT,M,500.00,1000.00,1400.00,M,UP,M,M,M,M,M,M,24.74,K10U 141540Z AUTO 20011KT 3SM UP SCT005 SCT010 SCT014 01/00 A2969 RMK AO2,M
ELY,2025-02-14 15:42,-114.8453,39.2950,1909.00,34.00,31.00,88.63,200.00,7.00,T,29.81,M,5.00,M,FEW,OVC,M,M,2600.00,3200.00,M,M,-SN BR,M,M,M,M,M,M,27.22,KELY 141542Z AUTO 20007KT 5SM -SN BR FEW026 OVC032 01/M01 A2981 RMK AO2 SNB02 P0000 T00111006,M
TMT,2025-02-14 15:50,-117.1971,39.4643,1749.34,33.00,30.00,88.58,220.00,6.00,0.00,29.81,M,10.00,M,CLR,M,M,M,M,M,M,M,M,M,M,M,M,M,M,26.73,KTMT 141550Z AUTO 22006KT 10SM CLR 01/M01 A2981 RMK AO2 T00051012,M
TPH,2025-02-14 15:51,-117.0904,38.0505,1654.00,35.60,33.80,93.08,100.00,3.00,0.00,29.85,M,10.00,M,BKN,OVC,M,M,800.00,1200.00,M,M,M,M,M,M,M,M,M,32.80,KTPH 141551Z AUTO 10003KT 10SM BKN008 OVC012 02/01 A2985 RMK AO2,M
P68,2025-02-14 15:53,-116.0056,39.6014,1993.00,33.00,31.00,92.25,330.00,3.00,0.00,29.80,1007.60,M,M,M,M,M,M,M,M,M,M,M,M,M,M,M,M,M,29.83,KP68 141553Z AUTO 33003KT 01/M01 A2980 RMK AO1 SLP076 T00061006,M
DRA,2025-02-14 15:53,-116.0278,36.6206,1009.00,48.00,37.00,65.51,220.00,12.00,0.00,29.87,1009.70,10.00,M,SCT,M,M,M,4500.00,M,M,M,M,M,M,M,27.00,220.00,2025-02-14 15:02,42.37,KDRA 141553Z AUTO 22012KT 10SM SCT045 09/03 A2987 RMK AO2 PK WND 22027/1502 SLP097 T00890028,M
ELY,2025-02-14 15:53,-114.8453,39.2950,1909.00,34.00,31.00,88.63,190.00,6.00,T,29.81,1008.10,5.00,M,FEW,OVC,M,M,2600.00,3200.00,M,M,-SN BR,M,M,M,M,M,M,27.94,KELY 141553Z AUTO 19006KT 5SM -SN BR FEW026 OVC032 01/M01 A2981 RMK AO2 SNB02 SLP081 P0000 T00111006,M
VGT,2025-02-14 15:53,-115.1933,36.2111,667.00,53.00,31.00,42.81,200.00,6.00,0.00,29.87,1012.90,10.00,17.00,CLR,M,M,M,M,M,M,M,M,M,M,M,M,M,M,53.00,KVGT 141553Z 20006G17KT 10SM CLR 12/M01 A2987 RMK AO2 SLP129 T01171006 PNO $,M
LOL,2025-02-14 15:53,-118.5701,40.0684,1192.43,39.00,33.00,78.86,180.00,4.00,T,29.79,1009.40,10.00,M,BKN,OVC,M,M,6000.00,7000.00,M,M,M,M,M,M,M,M,M,35.59,KLOL 141553Z AUTO 18004KT 10SM BKN060 OVC070 04/01 A2979 RMK AO2 RAE09 SLP094 P0000 T00390006,M
RTS,2025-02-14 15:55,-119.8764,39.6682,1539.00,35.60,26.60,69.46,230.00,10.00,0.00,29.81,M,10.00,M,BKN,M,M,M,8500.00,M,M,M,M,M,M,M,M,M,M,27.48,KRTS 141555Z AUTO 23010KT 10SM BKN085 02/M03 A2981 RMK AO2,M
BVU,2025-02-14 15:55,-114.8611,35.9475,671.00,53.60,37.40,54.07,230.00,14.00,0.00,29.91,M,10.00,M,FEW,M,M,M,7500.00,M,M,M,M,M,M,M,M,M,M,53.60,KBVU 141555Z AUTO 23014KT 10SM FEW075 12/03 A2991 RMK AO2,M
RNO,2025-02-14 15:55,-119.7711,39.4839,1341.00,38.00,31.00,75.65,250.00,12.00,T,29.80,1008.60,10.00,17.00,BKN,BKN,M,M,4000.00,9500.00,M,M,M,M,M,M,M,M,M,29.64,KRNO 141555Z 25012G17KT 10SM BKN040 BKN095 03/M01 A2980 RMK AO2 RAB29E53 SLP086 MTN TOPS OBSCD DSNT SW P0000 T00331006,M
BAM,2025-02-14 15:55,-116.8743,40.5990,1382.36,39.20,33.80,80.79,230.00,7.00,0.00,29.76,M,10.00,M,SCT,BKN,OVC,M,3500.00,4400.00,12000.00,M,M,M,M,M,M,M,M,33.56,KBAM 141555Z AUTO 23007KT 10SM SCT035 BKN044 OVC120 04/01 A2976 RMK AO1,M
CXP,2025-02-14 15:55,-119.7326,39.1923,1431.00,39.20,26.60,60.29,210.00,8.00,0.00,29.84,M,10.00,M,FEW,BKN,BKN,M,4300.00,5000.00,6000.00,M,M,M,M,M,M,M,M,32.98,KCXP 141555Z AUTO 21008KT 10SM FEW043 BKN050 BKN060 04/M03 A2984 RMK AO2,M
MEV,2025-02-14 15:55,-119.7500,38.9963,1441.42,39.20,24.80,55.95,270.00,11.00,0.00,29.82,M,9.00,17.00,FEW,FEW,BKN,M,4200.00,5500.00,7000.00,M,-RA,M,M,M,M,M,M,31.57,KMEV 141555Z AUTO 27011G17KT 9SM -RA FEW042 FEW055 BKN070 04/M04 A2982 RMK AO2,M
INS,2025-02-14 15:55,-115.6733,36.5872,955.00,43.00,35.60,74.93,0.00,0.00,0.00,29.88,1010.70,10.00,M,FEW,M,M,M,19000.00,M,M,M,M,M,M,M,M,M,M,43.00,KINS 141555Z AUTO 00000KT 10SM FEW190 06/02 A2988 RMK AO2 SLP107 T00610020 $,M
LSV,2025-02-14 15:55,-115.0343,36.2362,570.00,54.00,39.20,57.18,190.00,13.00,0.00,29.84,1010.10,10.00,M,CLR,M,M,M,M,M,M,M,M,M,M,M,M,M,M,54.00,KLSV 141555Z AUTO 19013KT 10SM CLR 12/04 A2984 RMK AO2 SLP101 T01230040 $,M
EKO,2025-02-14 15:56,-115.7860,40.8242,1367.00,36.00,34.00,92.35,240.00,6.00,0.01,29.74,1007.60,10.00,M,BKN,OVC,M,M,4100.00,6000.00,M,M,M,M,M,M,M,M,M,30.35,KEKO 141556Z AUTO 24006KT 10SM BKN041 OVC060 02/01 A2974 RMK AO2 UPE23 SLP076 P0001 T00220011 $,M
WMC,2025-02-14 15:56,-117.8072,40.9019,1315.00,38.00,35.00,88.83,170.00,8.00,0.01,29.74,1007.10,10.00,M,OVC,M,M,M,2800.00,M,M,M,M,M,M,M,M,M,M,31.50,KWMC 141556Z AUTO 17008KT 10SM OVC028 03/02 A2974 RMK AO2 RAE47 SLP071 P0001 T00330017,M
HND,2025-02-14 15:56,-115.1344,35.9729,742.79,51.00,38.00,60.92,220.00,17.00,0.00,29.91,1014.40,10.00,M,FEW,M,M,M,6500.00,M,M,M,M,M,M,M,28.00,210.00,2025-02-14 15:09,51.00,KHND 141556Z 22017KT 10SM FEW065 11/03 A2991 RMK AO2 PK WND 21028/1509 SLP144 T01060033 $,M
TPH,2025-02-14 15:56,-117.0904,38.0505,1654.00,36.00,34.00,92.35,120.00,3.00,0.00,29.86,1010.70,10.00,M,BKN,OVC,M,M,800.00,1200.00,M,M,M,M,M,M,M,M,M,33.26,KTPH 141556Z AUTO 12003KT 10SM BKN008 OVC012 02/01 A2986 RMK AO2 SLP107 T00220011,M
LAS,2025-02-14 15:56,-115.1634,36.0719,663.00,54.00,38.00,54.56,200.00,13.00,0.00,29.89,1011.50,10.00,22.00,SCT,SCT,BKN,M,6000.00,12000.00,20000.00,M,M,M,M,M,M,M,M,54.00,KLAS 141556Z 20013G22KT 10SM SCT060 SCT120 BKN200 12/03 A2989 RMK AO2 SLP115 T01220033,M
NFL,2025-02-14 15:57,-118.7010,39.4166,1199.00,38.00,30.00,72.64,220.00,6.00,0.00,29.80,1006.80,10.00,M,SCT,SCT,BKN,BKN,5000.00,9000.00,15000.00,20000.00,M,M,M,M,M,M,M,32.76,KNFL 141557Z 22006KT 10SM SCT050 SCT090 BKN150 BKN200 03/M01 A2980 RMK AO2 SLP068 T00331011,M
10U,2025-02-14 16:00,-116.1876,41.9532,1637.00,33.80,32.00,93.03,210.00,9.00,0.00,29.69,M,9.00,M,CLR,M,M,M,M,M,M,M,UP,M,M,M,M,M,M,25.75,K10U 141600Z AUTO 21009KT 9SM UP CLR 01/00 A2969 RMK AO2,M
ELY,2025-02-14 16:03,-114.8453,39.2950,1909.00,34.00,32.00,92.29,190.00,7.00,T,29.81,M,2.50,M,BKN,BKN,OVC,M,2500.00,3000.00,3600.00,M,-SN BR,M,M,M,M,M,M,27.22,KELY 141603Z AUTO 19007KT 2 1/2SM -SN BR BKN025 BKN030 OVC036 01/00 A2981 RMK AO2 VIS 1 1/4V5 P0000 T00110000,M
RTS,2025-02-14 16:05,-119.8764,39.6682,1539.00,35.60,26.60,69.46,250.00,7.00,0.00,29.83,M,10.00,14.00,BKN,M,M,M,8500.00,M,M,M,M,M,M,M,M,M,M,29.17,KRTS 141605Z AUTO 25007G14KT 10SM BKN085 02/M03 A2983 RMK AO2,M
MEV,2025-02-14 16:05,-119.7500,38.9963,1441.42,39.20,24.80,55.95,300.00,6.00,0.00,29.82,M,8.00,17.00,FEW,SCT,BKN,M,2700.00,6500.00,7500.00,M,-RA,M,M,M,M,M,M,34.20,KMEV 141605Z AUTO 30006G17KT 8SM -RA FEW027 SCT065 BKN075 04/M04 A2982 RMK AO2,M
TMT,2025-02-14 16:10,-117.1971,39.4643,1749.34,35.60,30.20,80.51,230.00,9.00,0.00,29.82,M,10.00,M,SCT,SCT,SCT,M,4800.00,6500.00,8000.00,M,M,M,M,M,M,M,M,27.99,KTMT 141610Z AUTO 23009KT 10SM SCT048 SCT065 SCT080 02/M01 A2982 RMK AO2 T00201010,M
ELY,2025-02-14 16:12,-114.8453,39.2950,1909.00,34.00,32.00,92.29,190.00,5.00,T,29.81,M,1.50,M,BKN,BKN,OVC,M,1900.00,3000.00,5000.00,M,-SN BR,M,M,M,M,M,M,28.77,KELY 141612Z AUTO 19005KT 1 1/2SM -SN BR BKN019 BKN030 OVC050 01/00 A2981 RMK AO2 P0000 T00110000,M
BVU,2025-02-14 16:15,-114.8611,35.9475,671.00,53.60,41.00,62.23,170.00,9.00,0.00,29.91,M,10.00,M,FEW,M,M,M,8000.00,M,M,M,M,M,M,M,M,M,M,53.60,KBVU 141615Z AUTO 17009KT 10SM FEW080 12/05 A2991 RMK AO2,M
TPH,2025-02-14 16:15,-117.0904,38.0505,1654.00,36.00,34.00,92.35,100.00,5.00,0.00,29.86,M,10.00,M,SCT,OVC,M,M,800.00,1400.00,M,M,M,M,M,M,M,M,M,31.15,KTPH 141615Z AUTO 10005KT 10SM SCT008 OVC014 02/01 A2986 RMK AO2 T00220011,M
BAM,2025-02-14 16:15,-116.8743,40.5990,1382.36,41.00,33.80,75.33,230.00,11.00,0.00,29.77,M,10.00,M,SCT,BKN,OVC,M,3300.00,4300.00,4900.00,M,M,M,M,M,M,M,M,33.84,KBAM 141615Z AUTO 23011KT 10SM SCT033 BKN043 OVC049 05/01 A2977 RMK AO1,M
CXP,2025-02-14 16:15,-119.7326,39.1923,1431.00,39.20,24.80,55.95,210.00,15.00,0.00,29.86,M,10.00,M,FEW,BKN,OVC,M,4200.00,5000.00,5500.00,M,-RA,M,M,M,M,M,M,30.11,KCXP 141615Z AUTO 21015KT 10SM -RA FEW042 BKN050 OVC055 04/M04 A2986 RMK AO2,M
ELY,2025-02-14 16:17,-114.8453,39.2950,1909.00,34.00,32.00,92.29,210.00,4.00,T,29.82,M,3.00,M,SCT,BKN,OVC,M,1900.00,2500.00,7000.00,M,-SN BR,M,M,M,M,M,M,29.76,KELY 141617Z AUTO 21004KT 3SM -SN BR SCT019 BKN025 OVC070 01/00 A2982 RMK AO2 P0000 T00110000,M
10U,2025-02-14 16:20,-116.1876,41.9532,1637.00,33.80,32.00,93.03,200.00,10.00,0.00,29.70,M,4.00,M,CLR,M,M,M,M,M,M,M,-SN,M,M,M,M,M,M,25.23,K10U 141620Z AUTO 20010KT 4SM -SN CLR 01/00 A2970 RMK AO2,M
TMT,2025-02-14 16:30,-117.1971,39.4643,1749.34,35.00,30.00,81.78,230.00,8.00,0.00,29.83,M,10.00,M,BKN,OVC,M,M,4800.00,5500.00,M,M,M,M,M,M,M,M,M,27.81,KTMT 141630Z AUTO 23008KT 10SM BKN048 OVC055 02/M01 A2983 RMK AO2 T00161011,M
EKO,2025-02-14 16:34,-115.7860,40.8242,1367.00,37.00,34.00,88.78,240.00,12.00,T,29.75,M,6.00,M,FEW,BKN,OVC,M,1800.00,2400.00,5000.00,M,-RA BR,M,M,M,M,M,M,28.37,KEKO 141634Z AUTO 24012KT 6SM -RA BR FEW018 BKN024 OVC050 03/01 A2975 RMK AO2 UPB28E30RAB30 P0000 T00280011 $,M
BVU,2025-02-14 16:35,-114.8611,35.9475,671.00,53.60,39.20,58.02,170.00,8.00,0.00,29.92,M,10.00,M,SCT,BKN,M,M,6000.00,7000.00,M,M,M,M,M,M,M,M,M,53.60,KBVU 141635Z AUTO 17008KT 10SM SCT060 BKN070 12/04 A2992 RMK AO2,M
BAM,2025-02-14 16:35,-116.8743,40.5990,1382.36,41.00,33.80,75.33,230.00,13.00,0.00,29.78,M,10.00,20.00,SCT,BKN,OVC,M,2700.00,3600.00,4200.00,M,M,M,M,M,M,M,M,33.10,KBAM 141635Z AUTO 23013G20KT 10SM SCT027 BKN036 OVC042 05/01 A2978 RMK AO1,M
CXP,2025-02-14 16:35,-119.7326,39.1923,1431.00,39.20,24.80,55.95,230.00,11.00,0.00,29.87,M,10.00,17.00,FEW,BKN,M,M,4400.00,5000.00,M,M,M,M,M,M,M,M,M,31.57,KCXP 141635Z AUTO 23011G17KT 200V260 10SM FEW044 BKN050 04/M04 A2987 RMK AO2,M
RTS,2025-02-14 16:35,-119.8764,39.6682,1539.00,35.60,26.60,69.46,250.00,12.00,0.00,29.85,M,10.00,M,SCT,SCT,OVC,M,4300.00,5000.00,8000.00,M,M,M,M,M,M,M,M,26.58,KRTS 141635Z AUTO 25012KT 10SM SCT043 SCT050 OVC080 02/M03 A2985 RMK AO2,M
MEV,2025-02-14 16:35,-119.7500,38.9963,1441.42,41.00,21.20,44.85,240.00,5.00,0.00,29.85,M,10.00,17.00,SCT,BKN,BKN,M,6500.00,8000.00,10000.00,M,VCTS,M,M,M,M,M,M,37.08,KMEV 141635Z AUTO 24005G17KT 10SM VCTS SCT065 BKN080 BKN100 05/M06 A2985 RMK AO2 LTG DSNT ALQDS,M
10U,2025-02-14 16:40,-116.1876,41.9532,1637.00,33.80,32.00,93.03,200.00,10.00,0.00,29.71,M,5.00,M,CLR,M,M,M,M,M,M,M,-SN,M,M,M,M,M,M,25.23,K10U 141640Z AUTO 20010KT 5SM -SN CLR 01/00 A2971 RMK AO2,M
WMC,2025-02-14 16:41,-117.8072,40.9019,1315.00,39.00,36.00,88.87,190.00,7.00,0.00,29.77,M,10.00,M,SCT,SCT,OVC,M,2800.00,3500.00,4700.00,M,M,M,M,M,M,M,M,33.31,KWMC 141641Z AUTO 19007KT 10SM SCT028 SCT035 OVC047 04/02 A2977 RMK AO2 T00390022,M
TMT,2025-02-14 16:50,-117.1971,39.4643,1749.34,35.60,30.70,82.16,240.00,6.00,0.00,29.84,M,10.00,M,SCT,SCT,OVC,M,3400.00,4800.00,5500.00,M,M,M,M,M,M,M,M,29.87,KTMT 141650Z AUTO 24006KT 10SM SCT034 SCT048 OVC055 02/M01 A2984 RMK AO2 T00201007,M
P68,2025-02-14 16:53,-116.0056,39.6014,1993.00,32.00,31.00,96.04,140.00,3.00,0.00,29.81,1008.30,M,M,M,M,M,M,M,M,M,M,M,M,M,M,M,M,M,28.69,KP68 141653Z AUTO 14003KT 00/M01 A2981 RMK AO1 SLP083 T00001006,M
DRA,2025-02-14 16:53,-116.0278,36.6206,1009.00,50.00,35.00,56.16,210.00,12.00,0.00,29.88,1009.90,10.00,23.00,BKN,M,M,M,5500.00,M,M,M,M,M,M,M,M,M,M,50.00,KDRA 141653Z AUTO 21012G23KT 10SM BKN055 10/02 A2988 RMK AO2 SLP099 T01000017,M
ELY,2025-02-14 16:53,-114.8453,39.2950,1909.00,37.00,33.00,85.29,190.00,5.00,T,29.82,1007.90,10.00,M,BKN,OVC,M,M,1800.00,2400.00,M,M,-SN,M,M,M,M,M,M,32.33,KELY 141653Z AUTO 19005KT 10SM -SN BKN018 OVC024 03/01 A2982 RMK AO2 SNE23B53 SLP079 P0000 T00280006,M
VGT,2025-02-14 16:53,-115.1933,36.2111,667.00,54.00,31.00,41.27,210.00,11.00,0.00,29.89,1013.70,10.00,M,CLR,M,M,M,M,M,M,M,M,M,M,M,M,M,M,54.00,KVGT 141653Z 21011KT 10SM CLR 12/M01 A2989 RMK AO2 SLP137 T01221006 PNO,M
LOL,2025-02-14 16:53,-118.5701,40.0684,1192.43,41.00,35.00,79.02,200.00,5.00,T,29.82,1010.00,10.00,M,FEW,BKN,OVC,M,5000.00,7000.00,9000.00,M,M,M,M,M,M,M,M,37.08,KLOL 141653Z AUTO 20005KT 10SM FEW050 BKN070 OVC090 05/02 A2982 RMK AO2 RAB1554E28 SLP100 P0000 T00500017,M
BVU,2025-02-14 16:55,-114.8611,35.9475,671.00,55.40,39.20,54.34,220.00,14.00,0.00,29.92,M,10.00,M,BKN,BKN,OVC,M,5000.00,6000.00,7000.00,M,M,M,M,M,M,M,M,55.40,KBVU 141655Z AUTO 22014KT 10SM BKN050 BKN060 OVC070 13/04 A2992 RMK AO2,M
RNO,2025-02-14 16:55,-119.7711,39.4839,1341.00,41.00,29.00,62.04,M,6.00,0.00,29.85,1010.40,10.00,M,BKN,BKN,M,M,5500.00,11000.00,M,M,M,M,M,M,M,M,M,36.37,KRNO 141655Z VRB06KT 10SM BKN055 BKN110 05/M02 A2985 RMK AO2 SLP104 CLDS TPG MTNS SW THRU NW T00501017,M
BAM,2025-02-14 16:55,-116.8743,40.5990,1382.36,39.20,35.60,86.79,230.00,11.00,0.00,29.79,M,10.00,M,BKN,OVC,M,M,2700.00,3400.00,M,M,M,M,M,M,M,M,M,31.57,KBAM 141655Z AUTO 23011KT 10SM BKN027 OVC034 04/02 A2979 RMK AO1,M
CXP,2025-02-14 16:55,-119.7326,39.1923,1431.00,41.00,24.80,52.17,220.00,14.00,0.00,29.86,M,10.00,20.00,FEW,FEW,M,M,4800.00,5500.00,M,M,M,M,M,M,M,M,M,32.76,KCXP 141655Z AUTO 22014G20KT 10SM FEW048 FEW055 05/M04 A2986 RMK AO2,M
RTS,2025-02-14 16:55,-119.8764,39.6682,1539.00,35.60,26.60,69.46,240.00,11.00,0.00,29.87,M,10.00,M,BKN,BKN,BKN,M,4200.00,4700.00,8000.00,M,M,M,M,M,M,M,M,27.02,KRTS 141655Z AUTO 24011KT 10SM BKN042 BKN047 BKN080 02/M03 A2987 RMK AO2,M
MEV,2025-02-14 16:55,-119.7500,38.9963,1441.42,42.80,24.80,48.67,260.00,7.00,0.00,29.87,M,10.00,13.00,BKN,BKN,M,M,6500.00,9000.00,M,M,M,M,M,M,M,M,M,37.94,KMEV 141655Z AUTO 26007G13KT 10SM BKN065 BKN090 06/M04 A2987 RMK AO2,M
INS,2025-02-14 16:55,-115.6733,36.5872,955.00,48.40,37.60,66.07,120.00,3.00,0.00,29.89,1010.70,10.00,M,SCT,SCT,M,M,18000.00,21000.00,M,M,M,M,M,M,M,M,M,47.44,KINS 141655Z AUTO 12003KT 10SM SCT180 SCT210 09/03 A2989 RMK AO2 SLP107 T00910031 $,M
LSV,2025-02-14 16:55,-115.0343,36.2362,570.00,55.40,39.00,53.91,200.00,12.00,0.00,29.87,1011.00,10.00,M,CLR,M,M,M,M,M,M,M,M,M,M,M,M,M,M,55.40,KLSV 141655Z AUTO 20012KT 10SM CLR 13/04 A2987 RMK AO2 SLP110 T01300039 $,M
EKO,2025-02-14 16:56,-115.7860,40.8242,1367.00,37.00,35.00,92.39,220.00,7.00,0.01,29.76,1008.10,9.00,M,FEW,BKN,OVC,M,1600.00,2200.00,3500.00,M,-RA,M,M,M,M,M,M,30.87,KEKO 141656Z AUTO 22007KT 9SM -RA FEW016 BKN022 OVC035 03/02 A2976 RMK AO2 UPB28E30RAB30 SLP081 P0001 T00280017 $,M
WMC,2025-02-14 16:56,-117.8072,40.9019,1315.00,39.00,36.00,88.87,180.00,5.00,0.00,29.77,1008.00,10.00,M,BKN,OVC,M,M,4700.00,5500.00,M,M,M,M,M,M,M,M,M,34.71,KWMC 141656Z AUTO 18005KT 10SM BKN047 OVC055 04/02 A2977 RMK AO2 SLP080 T00390022,M
HND,2025-02-14 16:56,-115.1344,35.9729,742.79,53.00,39.00,58.85,230.00,16.00,0.00,29.93,1015.00,10.00,M,FEW,M,M,M,6000.00,M,M,M,M,M,M,M,M,M,M,53.00,KHND 141656Z 23016KT 10SM FEW060 12/04 A2993 RMK AO2 SLP150 T01170039 $,M
TPH,2025-02-14 16:56,-117.0904,38.0505,1654.00,38.00,34.00,85.35,150.00,5.00,0.00,29.87,1010.80,10.00,M,BKN,M,M,M,1300.00,M,M,M,M,M,M,M,M,M,M,33.52,KTPH 141656Z AUTO 15005KT 10SM BKN013 03/01 A2987 RMK AO2 SLP108 T00330011,M
LAS,2025-02-14 16:56,-115.1634,36.0719,663.00,55.00,38.00,52.60,220.00,17.00,0.00,29.91,1012.30,10.00,27.00,FEW,SCT,BKN,M,6000.00,12000.00,20000.00,M,M,M,M,M,32.00,220.00,2025-02-14 16:21,55.00,KLAS 141656Z 22017G27KT 10SM FEW060 SCT120 BKN200 13/03 A2991 RMK AO2 PK WND 22032/1621 SLP123 T01280033,M
NFL,2025-02-14 16:57,-118.7010,39.4166,1199.00,46.00,31.00,55.58,240.00,12.00,0.00,29.83,1007.70,10.00,M,FEW,SCT,BKN,BKN,2500.00,5000.00,9000.00,14000.00,M,M,M,M,M,M,M,39.82,KNFL 141657Z 24012KT 10SM FEW025 SCT050 BKN090 BKN140 BKN200 08/M01 A2983 RMK AO2 SLP077 T00781006,M
10U,2025-02-14 17:00,-116.1876,41.9532,1637.00,33.80,33.80,100.00,210.00,10.00,0.00,29.72,M,4.00,M,CLR,M,M,M,M,M,M,M,-SN,M,M,M,M,M,M,25.23,K10U 141700Z AUTO 21010KT 4SM -SN CLR 01/01 A2972 RMK AO2,M
TMT,2025-02-14 17:10,-117.1971,39.4643,1749.34,37.00,30.70,77.73,230.00,8.00,0.00,29.84,M,10.00,M,BKN,BKN,M,M,5000.00,8500.00,M,M,M,M,M,M,M,M,M,30.27,KTMT 141710Z AUTO 23008KT 10SM BKN050 BKN085 03/M01 A2984 RMK AO2 T00271007,M
ELY,2025-02-14 17:14,-114.8453,39.2950,1909.00,37.00,31.00,78.69,170.00,5.00,T,29.82,M,10.00,M,FEW,OVC,M,M,1800.00,3300.00,M,M,M,M,M,M,M,M,M,32.33,KELY 141714Z AUTO 17005KT 10SM FEW018 OVC033 03/M01 A2982 RMK AO2 SNE01 P0000 T00281006,M
BVU,2025-02-14 17:15,-114.8611,35.9475,671.00,57.20,37.40,47.44,230.00,13.00,0.00,29.92,M,10.00,23.00,BKN,OVC,M,M,5000.00,6000.00,M,M,M,M,M,M,M,M,M,57.20,KBVU 141715Z AUTO 23013G23KT 10SM BKN050 OVC060 14/03 A2992 RMK AO2,M
BAM,2025-02-14 17:15,-116.8743,40.5990,1382.36,41.00,35.60,80.93,220.00,11.00,0.00,29.79,M,10.00,17.00,BKN,OVC,M,M,2900.00,3500.00,M,M,M,M,M,M,M,M,M,33.84,KBAM 141715Z AUTO 22011G17KT 10SM BKN029 OVC035 05/02 A2979 RMK AO1,M
CXP,2025-02-14 17:15,-119.7326,39.1923,1431.00,41.00,23.00,48.39,220.00,12.00,0.00,29.89,M,10.00,20.00,SCT,M,M,M,5000.00,M,M,M,-RA,M,M,M,M,M,M,33.46,KCXP 141715Z AUTO 22012G20KT 10SM -RA SCT050 05/M05 A2989 RMK AO2,M
RTS,2025-02-14 17:15,-119.8764,39.6682,1539.00,37.40,26.60,64.70,260.00,9.00,0.00,29.88,M,10.00,M,FEW,BKN,OVC,M,3000.00,3900.00,6000.00,M,M,M,M,M,M,M,M,30.23,KRTS 141715Z AUTO 26009KT 10SM FEW030 BKN039 OVC060 03/M03 A2988 RMK AO2,M
MEV,2025-02-14 17:15,-119.7500,38.9963,1441.42,42.80,24.80,48.67,300.00,11.00,0.00,29.88,M,10.00,M,BKN,OVC,M,M,6500.00,8000.00,M,M,M,M,M,M,M,M,M,36.11,KMEV 141715Z AUTO 30011KT 10SM BKN065 OVC080 06/M04 A2988 RMK AO2,M
10U,2025-02-14 17:20,-116.1876,41.9532,1637.00,33.80,33.80,100.00,210.00,12.00,0.00,29.73,M,6.00,M,CLR,M,M,M,M,M,M,M,UP,M,M,M,M,M,M,24.29,K10U 141720Z AUTO 21012KT 6SM UP CLR 01/01 A2973 RMK AO2,M
TMT,2025-02-14 17:30,-117.1971,39.4643,1749.34,38.30,30.60,73.56,230.00,11.00,0.00,29.85,M,10.00,M,SCT,SCT,BKN,M,4900.00,6000.00,8500.00,M,M,M,M,M,M,M,M,30.43,KTMT 141730Z AUTO 23011KT 10SM SCT049 SCT060 BKN085 04/M01 A2985 RMK AO2 T00351008,M
BVU,2025-02-14 17:35,-114.8611,35.9475,671.00,57.20,39.20,50.91,210.00,14.00,0.00,29.92,M,10.00,19.00,BKN,OVC,M,M,5000.00,6000.00,M,M,M,M,M,M,M,M,M,57.20,KBVU 141735Z AUTO 21014G19KT 10SM BKN050 OVC060 14/04 A2992 RMK AO2,M
BAM,2025-02-14 17:35,-116.8743,40.5990,1382.36,41.00,35.60,80.93,240.00,15.00,0.00,29.80,M,10.00,22.00,BKN,OVC,M,M,2500.00,3200.00,M,M,M,M,M,M,M,M,M,32.45,KBAM 141735Z AUTO 24015G22KT 10SM BKN025 OVC032 05/02 A2980 RMK AO1,M
CXP,2025-02-14 17:35,-119.7326,39.1923,1431.00,41.00,23.00,48.39,240.00,7.00,0.00,29.92,M,10.00,12.00,FEW,SCT,BKN,M,4900.00,5500.00,8000.00,M,-RA,M,M,M,M,M,M,35.75,KCXP 141735Z AUTO 24007G12KT 10SM -RA FEW049 SCT055 BKN080 05/M05 A2992 RMK AO2,M
RTS,2025-02-14 17:35,-119.8764,39.6682,1539.00,35.60,28.40,74.80,270.00,9.00,0.00,29.90,M,10.00,M,FEW,SCT,BKN,M,3200.00,4200.00,4900.00,M,M,M,M,M,M,M,M,27.99,KRTS 141735Z AUTO 27009KT 10SM FEW032 SCT042 BKN049 02/M02 A2990 RMK AO2,M
MEV,2025-02-14 17:35,-119.7500,38.9963,1441.42,42.80,24.80,48.67,250.00,13.00,0.00,29.89,M,10.00,M,BKN,BKN,M,M,6500.00,8000.00,M,M,M,M,M,M,M,M,M,35.40,KMEV 141735Z AUTO 25013KT 10SM BKN065 BKN080 06/M04 A2989 RMK AO2,M
10U,2025-02-14 17:40,-116.1876,41.9532,1637.00,33.80,32.00,93.03,210.00,11.00,0.00,29.74,M,3.00,16.00,FEW,FEW,M,M,400.00,1500.00,M,M,-SN,M,M,M,M,M,M,24.74,K10U 141740Z AUTO 21011G16KT 3SM -SN FEW004 FEW015 01/00 A2974 RMK AO2,M
MEV,2025-02-14 17:45,-119.7500,38.9963,1441.42,42.80,26.60,52.45,270.00,14.00,0.00,29.89,M,10.00,20.00,FEW,SCT,M,M,6500.00,8000.00,M,M,M,M,M,M,M,M,M,35.08,KMEV 141745Z AUTO 27014G20KT 10SM FEW065 SCT080 06/M03 A2989 RMK AO2,M
RTS,2025-02-14 17:45,-119.8764,39.6682,1539.00,37.40,28.40,69.67,270.00,13.00,0.00,29.90,M,10.00,M,FEW,BKN,OVC,M,4200.00,4900.00,5500.00,M,M,M,M,M,M,M,M,28.49,KRTS 141745Z AUTO 27013KT 10SM FEW042 BKN049 OVC055 03/M02 A2990 RMK AO2,M
TMT,2025-02-14 17:50,-117.1971,39.4643,1749.34,37.80,30.00,73.21,230.00,16.00,0.00,29.87,M,10.00,21.00,SCT,SCT,SCT,M,4300.00,6000.00,9000.00,M,M,M,M,M,M,M,M,27.98,KTMT 141750Z AUTO 23016G21KT 10SM SCT043 SCT060 SCT090 03/M01 A2987 RMK AO2 T00321011,M
P68,2025-02-14 17:53,-116.0056,39.6014,1993.00,39.00,34.00,82.08,0.00,0.00,0.00,29.81,1008.20,M,M,M,M,M,M,M,M,M,M,M,M,M,M,M,M,M,39.00,KP68 141753Z AUTO 00000KT 04/01 A2981 RMK AO1 SLP082 T00390011 10044 21028 51016,M
DRA,2025-02-14 17:53,-116.0278,36.6206,1009.00,51.00,37.00,58.58,220.00,8.00,0.00,29.89,1010.20,10.00,M,CLR,M,M,M,M,M,M,M,M,M,M,M,M,M,M,51.00,KDRA 141753Z AUTO 22008KT 10SM CLR 11/03 A2989 RMK AO2 SLP102 T01060028 10106 20083 51015,M
ELY,2025-02-14 17:53,-114.8453,39.2950,1909.00,39.00,30.00,69.85,220.00,9.00,T,29.83,1008.20,9.00,16.00,BKN,BKN,OVC,M,2800.00,3300.00,6000.00,M,M,M,M,M,M,M,M,32.22,KELY 141753Z AUTO 22009G16KT 9SM BKN028 BKN033 OVC060 04/M01 A2983 RMK AO2 SNE01 SLP082 P0000 60000 T00391011 10044 20006 53011,M
VGT,2025-02-14 17:53,-115.1933,36.2111,667.00,58.00,31.00,35.70,220.00,18.00,0.00,29.88,1013.30,10.00,27.00,CLR,M,M,M,M,M,M,M,M,M,M,M,27.00,240.00,2025-02-14 17:46,58.00,KVGT 141753Z 22018G27KT 10SM CLR 14/M01 A2988 RMK AO2 PK WND 24027/1746 SLP133 6//// T01441006 10144 20094 50008 PNO,M
LOL,2025-02-14 17:53,-118.5701,40.0684,1192.43,45.00,33.00,62.58,220.00,11.00,0.00,29.84,1010.60,10.00,M,FEW,SCT,BKN,M,5500.00,7000.00,12000.00,M,M,M,M,M,M,M,M,38.89,KLOL 141753Z AUTO 22011KT 10SM FEW055 SCT070 BKN120 07/01 A2984 RMK AO2 SLP106 60000 T00720006 10072 20017 51027,M
BVU,2025-02-14 17:55,-114.8611,35.9475,671.00,57.20,37.40,47.44,240.00,17.00,0.00,29.92,M,10.00,24.00,OVC,M,M,M,5500.00,M,M,M,M,M,M,M,M,M,M,57.20,KBVU 141755Z AUTO 24017G24KT 10SM OVC055 14/03 A2992 RMK AO2,M
RNO,2025-02-14 17:55,-119.7711,39.4839,1341.00,41.00,27.00,57.15,290.00,16.00,0.00,29.89,1011.50,10.00,32.00,BKN,BKN,M,M,5500.00,11000.00,M,M,M,M,M,M,32.00,300.00,2025-02-14 17:53,32.15,KRNO 141755Z 29016G32KT 10SM BKN055 BKN110 05/M03 A2989 RMK AO2 PK WND 30032/1753 SLP115 CLDS TPG MTNS SW THRU NW 60000 T00501028 10050 20022 53035,M
BAM,2025-02-14 17:55,-116.8743,40.5990,1382.36,41.00,35.60,80.93,230.00,14.00,0.00,29.81,M,10.00,19.00,SCT,BKN,OVC,M,2300.00,2900.00,3600.00,M,M,M,M,M,M,M,M,32.76,KBAM 141755Z AUTO 23014G19KT 10SM SCT023 BKN029 OVC036 05/02 A2981 RMK AO1,M
CXP,2025-02-14 17:55,-119.7326,39.1923,1431.00,39.20,23.00,51.89,230.00,12.00,0.00,29.90,M,9.00,22.00,FEW,FEW,SCT,M,5500.00,6500.00,8000.00,M,-RA,M,M,M,M,M,M,31.17,KCXP 141755Z AUTO 23012G22KT 9SM -RA FEW055 FEW065 SCT080 04/M05 A2990 RMK AO2,M
INS,2025-02-14 17:55,-115.6733,36.5872,955.00,51.80,35.60,53.81,100.00,8.00,0.00,29.89,1010.50,10.00,M,BKN,BKN,M,M,16000.00,18000.00,M,M,M,M,M,M,M,M,M,51.80,KINS 141755Z AUTO 10008KT 10SM BKN160 BKN180 11/02 A2989 RMK AO2 SLP105 T01100020 10110 20044 51015 $,M
LSV,2025-02-14 17:55,-115.0343,36.2362,570.00,58.00,39.40,49.85,210.00,16.00,0.00,29.86,1010.60,10.00,M,CLR,M,M,M,M,M,M,M,M,M,M,M,M,M,M,58.00,KLSV 141755Z AUTO 21016KT 10SM CLR 14/04 A2986 RMK AO2 SLP106 T01440041 10147 20107 50009 $,M
EKO,2025-02-14 17:56,-115.7860,40.8242,1367.00,38.00,35.00,88.83,230.00,13.00,T,29.78,1009.00,10.00,M,BKN,OVC,M,M,2000.00,2600.00,M,M,M,M,M,M,M,M,M,29.26,KEKO 141756Z AUTO 23013KT 10SM BKN020 OVC026 03/02 A2978 RMK AO2 RAE1659UPB1659E07 SLP090 P0000 60003 T00330017 10033 20006 53016 $,M
WMC,2025-02-14 17:56,-117.8072,40.9019,1315.00,40.00,35.00,82.15,240.00,12.00,T,29.81,1009.10,10.00,20.00,BKN,OVC,M,M,5000.00,6000.00,M,M,-RA,M,M,M,M,M,M,32.18,KWMC 141756Z AUTO 24012G20KT 10SM -RA BKN050 OVC060 04/02 A2981 RMK AO2 RAB33 SLP091 P0000 60002 T00440017 10044 20033 51028,M
HND,2025-02-14 17:56,-115.1344,35.9729,742.79,55.00,38.00,52.60,220.00,15.00,0.00,29.94,1015.20,10.00,22.00,BKN,M,M,M,5000.00,M,M,M,M,M,M,M,M,M,M,55.00,KHND 141756Z 22015G22KT 10SM BKN050 13/03 A2994 RMK AO2 SLP152 T01280033 10128 20094 53011 $,M
TPH,2025-02-14 17:56,-117.0904,38.0505,1654.00,40.00,33.00,75.84,190.00,5.00,0.00,29.88,1011.10,10.00,M,OVC,M,M,M,1600.00,M,M,M,M,M,M,M,M,M,M,35.90,KTPH 141756Z AUTO 19005KT 10SM OVC016 04/01 A2988 RMK AO2 SLP111 T00440006 10044 20006 53007,M
LAS,2025-02-14 17:56,-115.1634,36.0719,663.00,56.00,37.00,48.77,220.00,15.00,0.00,29.91,1012.20,10.00,26.00,FEW,SCT,BKN,M,6000.00,12000.00,20000.00,M,M,M,M,M,30.00,220.00,2025-02-14 17:40,56.00,KLAS 141756Z 22015G26KT 10SM FEW060 SCT120 BKN200 13/03 A2991 RMK AO2 PK WND 22030/1740 SLP122 T01330028 10133 20106 53008,M
NFL,2025-02-14 17:57,-118.7010,39.4166,1199.00,48.00,25.00,40.29,240.00,20.00,0.00,29.87,1008.90,10.00,29.00,FEW,SCT,BKN,BKN,3000.00,5000.00,9000.00,14000.00,M,M,M,M,29.00,240.00,2025-02-14 17:56,40.39,KNFL 141757Z 24020G29KT 10SM FEW030 SCT050 BKN090 BKN140 BKN200 09/M04 A2987 RMK AO2 PK WND 24029/1756 SLP089 T00891039 10089 20011 53032,M
10U,2025-02-14 18:00,-116.1876,41.9532,1637.00,35.60,33.80,93.08,220.00,13.00,0.00,29.74,M,4.00,M,FEW,M,M,M,400.00,M,M,M,-RA,M,M,M,M,M,M,26.18,K10U 141800Z AUTO 22013KT 4SM -RA FEW004 02/01 A2974 RMK AO2,M
ELY,2025-02-14 18:02,-114.8453,39.2950,1909.00,39.00,29.00,67.06,200.00,13.00,0.00,29.83,M,10.00,18.00,SCT,BKN,OVC,M,2800.00,3400.00,6500.00,M,M,M,M,M,M,M,M,30.54,KELY 141802Z AUTO 20013G18KT 10SM SCT028 BKN034 OVC065 04/M02 A2983 RMK AO2 T00391017,M
RTS,2025-02-14 18:05,-119.8764,39.6682,1539.00,39.20,26.60,60.29,260.00,22.00,0.00,29.91,M,10.00,M,FEW,SCT,SCT,M,3900.00,4800.00,6500.00,M,M,M,M,M,M,M,M,28.22,KRTS 141805Z AUTO 26022KT 10SM FEW039 SCT048 SCT065 04/M03 A2991 RMK AO2,M
TMT,2025-02-14 18:10,-117.1971,39.4643,1749.34,37.60,29.00,70.84,250.00,13.00,0.00,29.87,M,10.00,18.00,SCT,BKN,BKN,M,3200.00,4000.00,4700.00,M,M,M,M,M,M,M,M,28.74,KTMT 141810Z AUTO 25013G18KT 10SM SCT032 BKN040 BKN047 03/M02 A2987 RMK AO2 T00311016,M
BVU,2025-02-14 18:15,-114.8611,35.9475,671.00,59.00,35.60,41.42,250.00,13.00,0.00,29.92,M,10.00,18.00,BKN,M,M,M,5500.00,M,M,M,M,M,M,M,M,M,M,59.00,KBVU 141815Z AUTO 25013G18KT 10SM BKN055 15/02 A2992 RMK AO2,M
BAM,2025-02-14 18:15,-116.8743,40.5990,1382.36,41.00,35.60,80.93,240.00,10.00,0.00,29.83,M,10.00,15.00,BKN,OVC,M,M,2300.00,3700.00,M,M,M,M,M,M,M,M,M,34.25,KBAM 141815Z AUTO 24010G15KT 10SM BKN023 OVC037 05/02 A2983 RMK AO1,M
CXP,2025-02-14 18:15,-119.7326,39.1923,1431.00,39.20,24.80,55.95,M,6.00,0.00,29.94,M,10.00,21.00,CLR,M,M,M,M,M,M,M,M,M,M,M,M,M,M,34.20,KCXP 141815Z AUTO VRB06G21KT 10SM CLR 04/M04 A2994 RMK AO2,M
MEV,2025-02-14 18:15,-119.7500,38.9963,1441.42,41.00,24.80,52.17,280.00,11.00,0.00,29.92,M,10.00,18.00,SCT,SCT,M,M,5500.00,7500.00,M,M,M,M,M,M,M,M,M,33.84,KMEV 141815Z AUTO 28011G18KT 10SM SCT055 SCT075 05/M04 A2992 RMK AO2,M
10U,2025-02-14 18:20,-116.1876,41.9532,1637.00,33.80,32.00,93.03,200.00,14.00,0.00,29.75,M,1.50,M,SCT,M,M,M,300.00,M,M,M,-SN,M,M,M,M,M,M,23.48,K10U 141820Z AUTO 20014KT 1 1/2SM -SN SCT003 01/00 A2975 RMK AO2,M
RTS,2025-02-14 18:25,-119.8764,39.6682,1539.00,37.40,28.40,69.67,300.00,15.00,0.00,29.93,M,10.00,M,FEW,M,M,M,4500.00,M,M,M,M,M,M,M,M,M,M,27.78,KRTS 141825Z AUTO 30015KT 10SM FEW045 03/M02 A2993 RMK AO2,M
TMT,2025-02-14 18:30,-117.1971,39.4643,1749.34,37.60,29.30,71.72,240.00,12.00,0.00,29.89,M,7.00,19.00,SCT,SCT,BKN,M,600.00,1600.00,4900.00,M,M,M,M,M,M,M,M,29.13,KTMT 141830Z AUTO 24012G19KT 7SM SCT006 SCT016 BKN049 03/M01 A2989 RMK AO2 T00311015,M
BVU,2025-02-14 18:35,-114.8611,35.9475,671.00,59.00,35.60,41.42,240.00,16.00,0.00,29.92,M,10.00,22.00,SCT,M,M,M,6000.00,M,M,M,M,M,M,M,M,M,M,59.00,KBVU 141835Z AUTO 24016G22KT 10SM SCT060 15/02 A2992 RMK AO2,M
BAM,2025-02-14 18:35,-116.8743,40.5990,1382.36,41.00,35.60,80.93,230.00,15.00,0.00,29.83,M,10.00,20.00,OVC,M,M,M,2100.00,M,M,M,M,M,M,M,M,M,M,32.45,KBAM 141835Z AUTO 23015G20KT 10SM OVC021 05/02 A2983 RMK AO1,M
CXP,2025-02-14 18:35,-119.7326,39.1923,1431.00,39.20,24.80,55.95,210.00,9.00,0.00,29.95,M,10.00,M,FEW,SCT,SCT,M,4600.00,5500.00,6500.00,M,M,M,M,M,M,M,M,32.47,KCXP 141835Z AUTO 21009KT 10SM FEW046 SCT055 SCT065 04/M04 A2995 RMK AO2,M
MEV,2025-02-14 18:35,-119.7500,38.9963,1441.42,42.80,24.80,48.67,260.00,14.00,0.00,29.93,M,10.00,26.00,BKN,SCT,M,M,6000.00,7500.00,M,M,M,M,M,M,M,M,M,35.08,KMEV 141835Z AUTO 26014G26KT 10SM BKN060 SCT075 06/M04 A2993 RMK AO2,M
10U,2025-02-14 18:40,-116.1876,41.9532,1637.00,33.80,32.00,93.03,210.00,10.00,0.00,29.76,M,2.00,M,FEW,M,M,M,300.00,M,M,M,-SN,M,M,M,M,M,M,25.23,K10U 141840Z AUTO 21010KT 2SM -SN FEW003 01/00 A2976 RMK AO2,M
TMT,2025-02-14 18:50,-117.1971,39.4643,1749.34,39.20,30.20,69.88,230.00,11.00,0.00,29.89,M,10.00,M,SCT,M,M,M,4800.00,M,M,M,M,M,M,M,M,M,M,31.57,KTMT 141850Z AUTO 23011KT 10SM SCT048 04/M01 A2989 RMK AO2 T00401010,M
P68,2025-02-14 18:53,-116.0056,39.6014,1993.00,40.00,34.00,78.94,260.00,11.00,0.00,29.83,1008.50,M,M,M,M,M,M,M,M,M,M,M,M,M,M,M,M,M,32.58,KP68 141853Z AUTO 26011KT 04/01 A2983 RMK AO1 SLP085 T00440011,M
DRA,2025-02-14 18:53,-116.0278,36.6206,1009.00,55.00,37.00,50.58,210.00,12.00,0.00,29.89,1010.10,10.00,21.00,CLR,M,M,M,M,M,M,M,M,M,M,M,M,M,M,55.00,KDRA 141853Z AUTO 21012G21KT 10SM CLR 13/03 A2989 RMK AO2 SLP101 T01280028,M
ELY,2025-02-14 18:53,-114.8453,39.2950,1909.00,42.00,31.00,64.75,200.00,10.00,0.00,29.83,1007.90,10.00,19.00,SCT,BKN,BKN,M,3500.00,7000.00,8500.00,M,M,M,M,M,M,M,M,35.51,KELY 141853Z AUTO 20010G19KT 10SM SCT035 BKN070 BKN085 06/M01 A2983 RMK AO2 SLP079 T00561006,M
VGT,2025-02-14 18:53,-115.1933,36.2111,667.00,58.00,30.00,34.28,220.00,16.00,0.00,29.89,1013.70,10.00,24.00,CLR,M,M,M,M,M,M,M,M,M,M,M,29.00,200.00,2025-02-14 17:59,58.00,KVGT 141853Z 22016G24KT 10SM CLR 14/M01 A2989 RMK AO2 PK WND 20029/1759 SLP137 T01441011 PNO,M
LOL,2025-02-14 18:53,-118.5701,40.0684,1192.43,44.00,33.00,65.01,260.00,17.00,0.00,29.89,1012.60,10.00,27.00,BKN,BKN,OVC,M,3900.00,6000.00,7000.00,M,M,M,M,M,27.00,250.00,2025-02-14 18:47,35.80,KLOL 141853Z AUTO 26017G27KT 10SM BKN039 BKN060 OVC070 07/01 A2989 RMK AO2 PK WND 25027/1847 SLP126 T00670006,M
TPH,2025-02-14 18:53,-117.0904,38.0505,1654.00,42.80,33.80,70.28,M,5.00,0.00,29.89,M,10.00,M,SCT,SCT,BKN,M,2000.00,2800.00,4400.00,M,M,M,M,M,M,M,M,39.22,KTPH 141853Z AUTO VRB05KT 10SM SCT020 SCT028 BKN044 06/01 A2989 RMK AO2,M
BVU,2025-02-14 18:55,-114.8611,35.9475,671.00,57.20,35.60,44.19,240.00,18.00,0.00,29.93,M,10.00,M,FEW,BKN,M,M,5000.00,6000.00,M,M,M,M,M,M,M,M,M,57.20,KBVU 141855Z AUTO 24018KT 10SM FEW050 BKN060 14/02 A2993 RMK AO2,M
RNO,2025-02-14 18:55,-119.7711,39.4839,1341.00,44.00,26.00,48.86,290.00,15.00,0.00,29.93,1012.60,10.00,25.00,SCT,SCT,BKN,M,6000.00,11000.00,20000.00,M,M,M,M,M,26.00,300.00,2025-02-14 17:56,36.34,KRNO 141855Z 29015G25KT 10SM SCT060 SCT110 BKN200 07/M03 A2993 RMK AO2 PK WND 30026/1756 SLP126 T00671033,M
BAM,2025-02-14 18:55,-116.8743,40.5990,1382.36,42.80,33.80,70.28,240.00,17.00,0.00,29.84,M,10.00,24.00,BKN,BKN,OVC,M,2300.00,6500.00,7500.00,M,M,M,M,M,M,M,M,34.22,KBAM 141855Z AUTO 24017G24KT 10SM BKN023 BKN065 OVC075 06/01 A2984 RMK AO1,M
CXP,2025-02-14 18:55,-119.7326,39.1923,1431.00,39.20,24.80,55.95,210.00,9.00,0.00,29.97,M,10.00,17.00,SCT,BKN,BKN,M,4300.00,5000.00,6000.00,M,-RA,M,M,M,M,M,M,32.47,KCXP 141855Z AUTO 21009G17KT 10SM -RA SCT043 BKN050 BKN060 04/M04 A2997 RMK AO2,M
RTS,2025-02-14 18:55,-119.8764,39.6682,1539.00,35.60,30.20,80.51,310.00,19.00,0.00,29.96,M,6.00,M,CLR,M,M,M,M,M,M,M,-SN,M,M,M,M,M,M,24.20,KRTS 141855Z AUTO 31019KT 6SM -SN CLR 02/M01 A2996 RMK AO2,M
MEV,2025-02-14 18:55,-119.7500,38.9963,1441.42,42.80,24.80,48.67,270.00,16.00,0.00,29.95,M,10.00,30.00,FEW,SCT,M,M,4600.00,5500.00,M,M,M,M,M,M,M,M,M,34.50,KMEV 141855Z AUTO 27016G30KT 10SM FEW046 SCT055 06/M04 A2995 RMK AO2,M
INS,2025-02-14 18:55,-115.6733,36.5872,955.00,54.00,34.00,46.57,60.00,7.00,0.00,29.90,1010.80,10.00,M,FEW,M,M,M,17000.00,M,M,M,M,M,M,M,M,M,M,54.00,KINS 141855Z AUTO 06007KT 10SM FEW170 12/01 A2990 RMK AO2 SLP108 T01220012 $,M
LSV,2025-02-14 18:55,-115.0343,36.2362,570.00,59.70,37.80,44.06,210.00,16.00,0.00,29.87,1010.80,10.00,M,FEW,M,M,M,5500.00,M,M,M,M,M,M,M,M,M,M,59.70,KLSV 141855Z AUTO 21016KT 10SM FEW055 15/03 A2987 RMK AO2 SLP108 T01540032 $,M
EKO,2025-02-14 18:56,-115.7860,40.8242,1367.00,38.00,37.00,96.14,220.00,10.00,0.01,29.81,1009.40,8.00,M,FEW,BKN,OVC,M,1300.00,2400.00,3200.00,M,-RA,M,M,M,M,M,M,30.49,KEKO 141856Z AUTO 22010KT 8SM -RA FEW013 BKN024 OVC032 03/03 A2981 RMK AO2 RAB02E22B39UPB22E50 SLP094 P0001 T00330028,M
WMC,2025-02-14 18:56,-117.8072,40.9019,1315.00,42.00,35.00,76.03,230.00,18.00,T,29.84,1010.20,10.00,25.00,FEW,BKN,OVC,M,4400.00,5000.00,7500.00,M,M,M,M,M,26.00,240.00,2025-02-14 18:24,32.91,KWMC 141856Z AUTO 23018G25KT 10SM FEW044 BKN050 OVC075 06/02 A2984 RMK AO2 PK WND 24026/1824 RAE18 SLP102 P0000 T00560017,M
HND,2025-02-14 18:56,-115.1344,35.9729,742.79,56.00,36.00,46.88,240.00,11.00,0.00,29.94,1015.10,10.00,19.00,FEW,M,M,M,4500.00,M,M,M,M,M,M,M,M,M,M,56.00,KHND 141856Z 24011G19KT 10SM FEW045 13/02 A2994 RMK AO2 SLP151 T01330022 $,M
TPH,2025-02-14 18:56,-117.0904,38.0505,1654.00,44.00,33.00,65.01,190.00,6.00,0.00,29.89,1011.40,10.00,M,SCT,SCT,BKN,M,2000.00,3000.00,4400.00,M,M,M,M,M,M,M,M,39.98,KTPH 141856Z AUTO 19006KT 10SM SCT020 SCT030 BKN044 07/01 A2989 RMK AO2 SLP114 T00670006,M
LAS,2025-02-14 18:56,-115.1634,36.0719,663.00,58.00,36.00,43.62,230.00,13.00,0.00,29.92,1012.50,10.00,M,FEW,SCT,BKN,M,6500.00,12000.00,20000.00,M,M,M,M,M,29.00,220.00,2025-02-14 18:10,58.00,KLAS 141856Z 23013KT 10SM FEW065 SCT120 BKN200 14/02 A2992 RMK AO2 PK WND 22029/1810 SLP125 T01440022,M
NFL,2025-02-14 18:57,-118.7010,39.4166,1199.00,48.00,25.00,40.29,270.00,15.00,0.00,29.91,1010.20,10.00,23.00,SCT,BKN,BKN,BKN,4000.00,8500.00,11000.00,15000.00,M,M,M,M,29.00,240.00,2025-02-14 18:11,41.52,KNFL 141857Z 27015G23KT 10SM SCT040 BKN085 BKN110 BKN150 BKN190 09/M04 A2991 RMK AO2 PK WND 24029/1811 SLP102 T00891039,M
10U,2025-02-14 19:00,-116.1876,41.9532,1637.00,35.60,33.80,93.08,230.00,16.00,0.00,29.77,M,5.00,M,FEW,FEW,M,M,700.00,1200.00,M,M,-DZ,M,M,M,M,M,M,25.11,K10U 141900Z AUTO 23016KT 5SM -DZ FEW007 FEW012 02/01 A2977 RMK AO2,M
RTS,2025-02-14 19:05,-119.8764,39.6682,1539.00,35.60,28.40,74.80,300.00,20.00,0.00,29.96,M,9.00,M,CLR,M,M,M,M,M,M,M,-RA,M,M,M,M,M,M,23.92,KRTS 141905Z AUTO 30020KT 9SM -RA CLR 02/M02 A2996 RMK AO2,M
MEV,2025-02-14 19:05,-119.7500,38.9963,1441.42,44.60,24.80,45.44,260.00,16.00,0.00,29.95,M,10.00,24.00,SCT,SCT,SCT,M,4400.00,5500.00,7500.00,M,M,M,M,M,M,M,M,36.84,KMEV 141905Z AUTO 26016G24KT 230V290 10SM SCT044 SCT055 SCT075 07/M04 A2995 RMK AO2,M
TMT,2025-02-14 19:10,-117.1971,39.4643,1749.34,37.00,30.70,77.73,210.00,14.00,0.00,29.90,M,10.00,M,SCT,BKN,BKN,M,4100.00,5000.00,6000.00,M,M,M,M,M,M,M,M,27.61,KTMT 141910Z AUTO 21014KT 10SM SCT041 BKN050 BKN060 03/M01 A2990 RMK AO2 T00271007,M
BVU,2025-02-14 19:15,-114.8611,35.9475,671.00,57.20,35.60,44.19,230.00,14.00,0.00,29.93,M,10.00,20.00,BKN,M,M,M,6000.00,M,M,M,M,M,M,M,M,M,M,57.20,KBVU 141915Z AUTO 23014G20KT 10SM BKN060 14/02 A2993 RMK AO2,M
BAM,2025-02-14 19:15,-116.8743,40.5990,1382.36,42.80,33.80,70.28,240.00,16.00,0.00,29.84,M,10.00,23.00,SCT,OVC,M,M,2300.00,7500.00,M,M,M,M,M,M,M,M,M,34.50,KBAM 141915Z AUTO 24016G23KT 10SM SCT023 OVC075 06/01 A2984 RMK AO1,M
CXP,2025-02-14 19:15,-119.7326,39.1923,1431.00,41.00,24.80,52.17,220.00,11.00,0.00,29.98,M,10.00,17.00,BKN,BKN,OVC,M,4400.00,6000.00,6500.00,M,M,M,M,M,M,M,M,33.84,KCXP 141915Z AUTO 22011G17KT 200V270 10SM BKN044 BKN060 OVC065 05/M04 A2998 RMK AO2,M
10U,2025-02-14 19:20,-116.1876,41.9532,1637.00,35.60,33.80,93.08,230.00,13.00,0.00,29.78,M,5.00,23.00,FEW,SCT,M,M,800.00,1300.00,M,M,-RA,M,M,M,M,M,M,26.18,K10U 141920Z AUTO 23013G23KT 5SM -RA FEW008 SCT013 02/01 A2978 RMK AO2,M
TMT,2025-02-14 19:30,-117.1971,39.4643,1749.34,38.30,32.40,79.11,200.00,12.00,0.00,29.90,M,10.00,M,SCT,BKN,BKN,M,4500.00,6500.00,7000.00,M,M,M,M,M,M,M,M,30.02,KTMT 141930Z AUTO 20012KT 10SM SCT045 BKN065 BKN070 04/00 A2990 RMK AO2 T00350002,M
EKO,2025-02-14 19:31,-115.7860,40.8242,1367.00,37.00,35.00,92.39,230.00,15.00,0.02,29.81,M,10.00,23.00,FEW,BKN,OVC,M,1400.00,3700.00,4800.00,M,UP,M,M,M,M,M,M,27.26,KEKO 141931Z AUTO 23015G23KT 10SM UP FEW014 BKN037 OVC048 03/02 A2981 RMK AO2 RAE28UPB28 P0002 T00280017,M
BVU,2025-02-14 19:35,-114.8611,35.9475,671.00,57.20,37.40,47.44,240.00,14.00,0.00,29.91,M,10.00,M,SCT,M,M,M,6000.00,M,M,M,M,M,M,M,M,M,M,57.20,KBVU 141935Z AUTO 24014KT 10SM SCT060 14/03 A2991 RMK AO2,M
BAM,2025-02-14 19:35,-116.8743,40.5990,1382.36,42.80,33.80,70.28,250.00,17.00,0.00,29.85,M,10.00,24.00,SCT,BKN,OVC,M,2300.00,6000.00,7500.00,M,M,M,M,M,M,M,M,34.22,KBAM 141935Z AUTO 25017G24KT 10SM SCT023 BKN060 OVC075 06/01 A2985 RMK AO1,M
CXP,2025-02-14 19:35,-119.7326,39.1923,1431.00,41.00,23.00,48.39,230.00,13.00,0.00,29.99,M,10.00,20.00,FEW,SCT,BKN,M,4400.00,6500.00,7000.00,M,M,M,M,M,M,M,M,33.10,KCXP 141935Z AUTO 23013G20KT 10SM FEW044 SCT065 BKN070 05/M05 A2999 RMK AO2,M
RTS,2025-02-14 19:35,-119.8764,39.6682,1539.00,35.60,30.20,80.51,290.00,16.00,0.00,29.97,M,4.00,24.00,CLR,M,M,M,M,M,M,M,-SN,M,M,M,M,M,M,25.11,KRTS 141935Z AUTO 29016G24KT 4SM -SN CLR 02/M01 A2997 RMK AO2,M
MEV,2025-02-14 19:35,-119.7500,38.9963,1441.42,44.60,23.00,42.14,260.00,14.00,0.00,29.97,M,10.00,25.00,FEW,FEW,M,M,4600.00,6000.00,M,M,M,M,M,M,M,M,M,37.40,KMEV 141935Z AUTO 26014G25KT 10SM FEW046 FEW060 07/M05 A2997 RMK AO2,M
10U,2025-02-14 19:40,-116.1876,41.9532,1637.00,35.60,33.80,93.08,230.00,13.00,0.00,29.78,M,3.00,18.00,CLR,M,M,M,M,M,M,M,UP,M,M,M,M,M,M,26.18,K10U 141940Z AUTO 23013G18KT 3SM UP CLR 02/01 A2978 RMK AO2,M
RTS,2025-02-14 19:45,-119.8764,39.6682,1539.00,35.60,28.40,74.80,300.00,19.00,0.00,29.97,M,7.00,24.00,CLR,M,M,M,M,M,M,M,-RA,M,M,M,M,M,M,24.20,KRTS 141945Z AUTO 30019G24KT 7SM -RA CLR 02/M02 A2997 RMK AO2,M
TMT,2025-02-14 19:50,-117.1971,39.4643,1749.34,40.30,32.00,72.01,200.00,10.00,0.00,29.90,M,10.00,18.00,SCT,SCT,BKN,M,2200.00,3700.00,6000.00,M,M,M,M,M,M,M,M,33.38,KTMT 141950Z AUTO 20010G18KT 10SM SCT022 SCT037 BKN060 05/00 A2990 RMK AO2 T00460001,M
P68,2025-02-14 19:53,-116.0056,39.6014,1993.00,39.00,28.00,64.37,250.00,12.00,0.00,29.84,1009.70,M,22.00,M,M,M,M,M,M,M,M,M,M,M,M,M,M,M,30.91,KP68 141953Z AUTO 25012G22KT 04/M02 A2984 RMK AO1 SLP097 T00391022,M
DRA,2025-02-14 19:53,-116.0278,36.6206,1009.00,56.00,35.00,45.06,240.00,14.00,0.00,29.88,1009.60,10.00,20.00,CLR,M,M,M,M,M,M,M,M,M,M,M,M,M,M,56.00,KDRA 141953Z AUTO 24014G20KT 10SM CLR 13/02 A2988 RMK AO2 SLP096 T01330017,M
ELY,2025-02-14 19:53,-114.8453,39.2950,1909.00,43.00,28.00,55.14,210.00,15.00,0.00,29.82,1007.10,10.00,22.00,FEW,M,M,M,3400.00,M,M,M,M,M,M,M,M,M,M,35.04,KELY 141953Z AUTO 21015G22KT 10SM FEW034 06/M02 A2982 RMK AO2 SLP071 T00611022,M
VGT,2025-02-14 19:53,-115.1933,36.2111,667.00,58.00,30.00,34.28,220.00,14.00,0.00,29.87,1012.80,10.00,M,CLR,M,M,M,M,M,M,M,M,M,M,M,M,M,M,58.00,KVGT 141953Z 22014KT 10SM CLR 14/M01 A2987 RMK AO2 SLP128 T01441011 PNO,M
LOL,2025-02-14 19:53,-118.5701,40.0684,1192.43,45.00,31.00,57.73,260.00,12.00,0.00,29.92,1013.40,10.00,M,FEW,SCT,BKN,M,4500.00,5500.00,7500.00,M,M,M,M,M,M,M,M,38.55,KLOL 141953Z AUTO 26012KT 10SM FEW045 SCT055 BKN075 07/M01 A2992 RMK AO2 SLP134 T00721006,M
BVU,2025-02-14 19:55,-114.8611,35.9475,671.00,59.00,35.60,41.42,230.00,11.00,0.00,29.90,M,10.00,19.00,FEW,SCT,M,M,5500.00,6500.00,M,M,M,M,M,M,M,M,M,59.00,KBVU 141955Z AUTO 23011G19KT 10SM FEW055 SCT065 15/02 A2990 RMK AO2,M
RNO,2025-02-14 19:55,-119.7711,39.4839,1341.00,46.00,24.00,41.67,280.00,17.00,0.00,29.96,1013.60,10.00,28.00,SCT,SCT,BKN,M,5500.00,12000.00,20000.00,M,M,M,M,M,28.00,290.00,2025-02-14 19:52,38.42,KRNO 141955Z 28017G28KT 10SM SCT055 SCT120 BKN200 08/M04 A2996 RMK AO2 PK WND 29028/1952 SLP136 MTN TOPS OBSCD DSNT SW THRU NW T00781044,M
BAM,2025-02-14 19:55,-116.8743,40.5990,1382.36,42.80,33.80,70.28,240.00,19.00,0.00,29.85,M,10.00,24.00,SCT,OVC,M,M,4300.00,5500.00,M,M,M,M,M,M,M,M,M,33.72,KBAM 141955Z AUTO 24019G24KT 10SM SCT043 OVC055 06/01 A2985 RMK AO1,M
CXP,2025-02-14 19:55,-119.7326,39.1923,1431.00,41.00,24.80,52.17,250.00,9.00,0.00,30.00,M,10.00,19.00,SCT,BKN,BKN,M,4300.00,4900.00,7000.00,M,M,M,M,M,M,M,M,34.70,KCXP 141955Z AUTO 25009G19KT 10SM SCT043 BKN049 BKN070 05/M04 A3000 RMK AO2,M
MEV,2025-02-14 19:55,-119.7500,38.9963,1441.42,44.60,26.60,48.96,270.00,13.00,0.00,29.98,M,10.00,18.00,CLR,M,M,M,M,M,M,M,M,M,M,M,M,M,M,37.71,KMEV 141955Z AUTO 27013G18KT 10SM CLR 07/M03 A2998 RMK AO2,M
INS,2025-02-14 19:55,-115.6733,36.5872,955.00,56.00,35.60,46.15,40.00,4.00,0.00,29.88,1009.90,10.00,M,CLR,M,M,M,M,M,M,M,M,M,M,M,M,M,M,56.00,KINS 141955Z AUTO 04004KT 10SM CLR 13/02 A2988 RMK AO2 SLP099 T01340020 $,M
LSV,2025-02-14 19:55,-115.0343,36.2362,570.00,60.00,35.00,39.03,210.00,11.00,0.00,29.85,1010.00,10.00,M,FEW,M,M,M,17000.00,M,M,M,M,M,M,M,M,M,M,60.00,KLSV 141955Z AUTO 21011KT 10SM FEW170 16/02 A2985 RMK AO2 SLP100 T01560017 $,M
EKO,2025-02-14 19:56,-115.7860,40.8242,1367.00,39.00,36.00,88.87,230.00,12.00,0.02,29.81,1009.70,10.00,24.00,SCT,BKN,OVC,M,1700.00,3300.00,4600.00,M,-RA,M,M,M,M,M,M,30.91,KEKO 141956Z AUTO 23012G24KT 10SM -RA SCT017 BKN033 OVC046 04/02 A2981 RMK AO2 RAE28B34UPB28E34 SLP097 P0002 T00390022,M
WMC,2025-02-14 19:56,-117.8072,40.9019,1315.00,43.00,32.00,64.88,240.00,17.00,0.00,29.87,1011.20,10.00,24.00,FEW,BKN,OVC,M,3600.00,4200.00,6500.00,M,M,M,M,M,M,M,M,34.49,KWMC 141956Z AUTO 24017G24KT 10SM FEW036 BKN042 OVC065 06/00 A2987 RMK AO2 SLP112 T00610000,M
HND,2025-02-14 19:56,-115.1344,35.9729,742.79,59.00,37.00,43.78,220.00,14.00,0.00,29.92,1014.10,10.00,M,SCT,M,M,M,5000.00,M,M,M,M,M,M,M,M,M,M,59.00,KHND 141956Z 22014KT 10SM SCT050 15/03 A2992 RMK AO2 SLP141 T01500028 $,M
TPH,2025-02-14 19:56,-117.0904,38.0505,1654.00,46.00,32.00,57.87,M,3.00,0.00,29.89,1010.90,10.00,M,FEW,BKN,M,M,8000.00,9500.00,M,M,M,M,M,M,M,M,M,44.69,KTPH 141956Z AUTO VRB03KT 10SM FEW080 BKN095 08/00 A2989 RMK AO2 SLP109 T00780000,M
LAS,2025-02-14 19:56,-115.1634,36.0719,663.00,59.00,36.00,42.08,210.00,9.00,0.00,29.90,1011.70,10.00,18.00,FEW,SCT,BKN,M,7000.00,12000.00,20000.00,M,M,M,M,M,M,M,M,59.00,KLAS 141956Z 21009G18KT 10SM FEW070 SCT120 BKN200 15/02 A2990 RMK AO2 SLP117 T01500022,M
NFL,2025-02-14 19:57,-118.7010,39.4166,1199.00,48.00,25.00,40.29,270.00,18.00,0.00,29.93,1010.80,10.00,25.00,SCT,BKN,BKN,BKN,4000.00,6500.00,10000.00,16000.00,M,M,M,M,29.00,270.00,2025-02-14 19:14,40.81,KNFL 141957Z 27018G25KT 10SM SCT040 BKN065 BKN100 BKN160 09/M04 A2993 RMK AO2 PK WND 27029/1914 SLP108 T00891039,M
10U,2025-02-14 20:00,-116.1876,41.9532,1637.00,35.60,33.80,93.08,230.00,12.00,0.00,29.79,M,7.00,M,FEW,M,M,M,1200.00,M,M,M,UP,M,M,M,M,M,M,26.58,K10U 142000Z AUTO 23012KT 7SM UP FEW012 02/01 A2979 RMK AO2,M
MEV,2025-02-14 20:05,-119.7500,38.9963,1441.42,44.60,28.40,52.72,270.00,12.00,0.00,29.98,M,10.00,M,FEW,SCT,M,M,5000.00,9000.00,M,M,M,M,M,M,M,M,M,38.04,KMEV 142005Z AUTO 27012KT 10SM FEW050 SCT090 07/M02 A2998 RMK AO2,M
RTS,2025-02-14 20:05,-119.8764,39.6682,1539.00,35.60,28.40,74.80,310.00,17.00,0.00,29.98,M,10.00,M,SCT,M,M,M,8500.00,M,M,M,M,M,M,M,M,M,M,24.79,KRTS 142005Z AUTO 31017KT 10SM SCT085 02/M02 A2998 RMK AO2,M
CXP,2025-02-14 20:10,-119.7326,39.1923,1431.00,41.00,24.80,52.17,260.00,9.00,0.00,30.01,M,10.00,16.00,BKN,BKN,OVC,M,4500.00,5500.00,9500.00,M,M,M,M,M,M,M,M,34.70,KCXP 142010Z AUTO 26009G16KT 10SM BKN045 BKN055 OVC095 05/M04 A3001 RMK AO2,M
TMT,2025-02-14 20:10,-117.1971,39.4643,1749.34,39.70,29.00,65.26,280.00,7.00,0.00,29.90,M,10.00,M,SCT,BKN,OVC,M,2200.00,4400.00,5000.00,M,M,M,M,M,M,M,M,34.16,KTMT 142010Z AUTO 28007KT 250V330 10SM SCT022 BKN044 OVC050 04/M02 A2990 RMK AO2 T00431017,M
BVU,2025-02-14 20:15,-114.8611,35.9475,671.00,59.00,35.60,41.42,240.00,11.00,0.00,29.89,M,10.00,18.00,FEW,M,M,M,5500.00,M,M,M,M,M,M,M,M,M,M,59.00,KBVU 142015Z AUTO 24011G18KT 10SM FEW055 15/02 A2989 RMK AO2,M
BAM,2025-02-14 20:15,-116.8743,40.5990,1382.36,42.80,33.80,70.28,240.00,16.00,0.00,29.86,M,10.00,21.00,SCT,BKN,OVC,M,2700.00,7000.00,8500.00,M,M,M,M,M,M,M,M,34.50,KBAM 142015Z AUTO 24016G21KT 10SM SCT027 BKN070 OVC085 06/01 A2986 RMK AO1,M
10U,2025-02-14 20:20,-116.1876,41.9532,1637.00,35.60,33.80,93.08,230.00,12.00,0.00,29.79,M,6.00,20.00,CLR,M,M,M,M,M,M,M,-DZ,M,M,M,M,M,M,26.58,K10U 142020Z AUTO 23012G20KT 6SM -DZ CLR 02/01 A2979 RMK AO2,M
TMT,2025-02-14 20:30,-117.1971,39.4643,1749.34,40.00,23.70,51.80,240.00,9.00,0.00,29.91,M,10.00,M,OVC,M,M,M,4800.00,M,M,M,M,M,M,M,M,M,M,33.46,KTMT 142030Z AUTO 24009KT 10SM OVC048 04/M05 A2991 RMK AO2 T00441046,M
BVU,2025-02-14 20:35,-114.8611,35.9475,671.00,59.00,37.40,44.47,240.00,14.00,0.00,29.89,M,10.00,M,BKN,BKN,M,M,5000.00,6000.00,M,M,M,M,M,M,M,M,M,59.00,KBVU 142035Z AUTO 24014KT 10SM BKN050 BKN060 15/03 A2989 RMK AO2,M
BAM,2025-02-14 20:35,-116.8743,40.5990,1382.36,42.80,33.80,70.28,230.00,21.00,0.00,29.86,M,10.00,24.00,BKN,BKN,OVC,M,2700.00,3400.00,5000.00,M,M,M,M,M,M,M,M,33.26,KBAM 142035Z AUTO 23021G24KT 10SM BKN027 BKN034 OVC050 06/01 A2986 RMK AO1,M
CXP,2025-02-14 20:35,-119.7326,39.1923,1431.00,41.00,24.80,52.17,M,3.00,0.00,30.01,M,10.00,14.00,BKN,OVC,M,M,4100.00,5000.00,M,M,M,M,M,M,M,M,M,38.98,KCXP 142035Z AUTO VRB03G14KT 10SM BKN041 OVC050 05/M04 A3001 RMK AO2,M
TMT,2025-02-14 20:50,-117.1971,39.4643,1749.34,39.60,24.30,53.95,270.00,11.00,0.00,29.92,M,10.00,M,BKN,OVC,M,M,4800.00,5500.00,M,M,M,M,M,M,M,M,M,32.07,KTMT 142050Z AUTO 27011KT 10SM BKN048 OVC055 04/M04 A2992 RMK AO2 T00421043,M
P68,2025-02-14 20:53,-116.0056,39.6014,1993.00,40.00,26.00,57.01,280.00,11.00,0.00,29.85,1009.80,M,21.00,M,M,M,M,M,M,M,M,M,M,M,M,M,M,M,32.58,KP68 142053Z AUTO 28011G21KT 04/M03 A2985 RMK AO1 SLP098 T00441033 51010,M
DRA,2025-02-14 20:53,-116.0278,36.6206,1009.00,57.00,37.00,47.04,210.00,18.00,0.00,29.88,1009.60,10.00,24.00,CLR,M,M,M,M,M,M,M,M,M,M,M,26.00,210.00,2025-02-14 20:34,57.00,KDRA 142053Z AUTO 21018G24KT 10SM CLR 14/03 A2988 RMK AO2 PK WND 21026/2034 SLP096 T01390028 58003,M
ELY,2025-02-14 20:53,-114.8453,39.2950,1909.00,44.00,26.00,48.86,210.00,9.00,0.00,29.81,1006.60,10.00,17.00,FEW,M,M,M,10000.00,M,M,M,M,M,M,M,M,M,M,38.44,KELY 142053Z AUTO 21009G17KT 10SM FEW100 07/M03 A2981 RMK AO2 SLP066 T00671033 58006,M
VGT,2025-02-14 20:53,-115.1933,36.2111,667.00,59.00,30.00,33.08,230.00,15.00,0.00,29.86,1012.50,10.00,21.00,CLR,M,M,M,M,M,M,M,M,M,M,M,26.00,230.00,2025-02-14 20:38,59.00,KVGT 142053Z 23015G21KT 10SM CLR 15/M01 A2986 RMK AO2 PK WND 23026/2038 SLP125 6//// T01501011 58006 PNO,M
LOL,2025-02-14 20:53,-118.5701,40.0684,1192.43,44.00,26.00,48.86,270.00,16.00,0.00,29.93,1013.90,10.00,22.00,OVC,M,M,M,11000.00,M,M,M,M,M,M,M,M,M,M,36.06,KLOL 142053Z AUTO 27016G22KT 10SM OVC110 07/M03 A2993 RMK AO2 SLP139 T00671033 51027,M
BVU,2025-02-14 20:55,-114.8611,35.9475,671.00,60.80,37.40,41.71,230.00,13.00,0.00,29.89,M,10.00,19.00,BKN,BKN,M,M,5500.00,6500.00,M,M,M,M,M,M,M,M,M,60.80,KBVU 142055Z AUTO 23013G19KT 10SM BKN055 BKN065 16/03 A2989 RMK AO2,M
RNO,2025-02-14 20:55,-119.7711,39.4839,1341.00,43.00,26.00,50.77,290.00,17.00,0.00,29.98,1014.60,10.00,27.00,SCT,BKN,M,M,5500.00,11000.00,M,M,M,M,M,M,28.00,270.00,2025-02-14 20:29,34.49,KRNO 142055Z 29017G27KT 10SM SCT055 BKN110 06/M03 A2998 RMK AO2 PK WND 27028/2029 SLP146 MTN TOPS OBSCD DSNT SW THRU NW T00611033 51027,M
BAM,2025-02-14 20:55,-116.8743,40.5990,1382.36,42.80,35.60,75.50,250.00,19.00,0.00,29.87,M,10.00,24.00,SCT,BKN,OVC,M,2500.00,3400.00,4400.00,M,M,M,M,M,M,M,M,33.72,KBAM 142055Z AUTO 25019G24KT 10SM SCT025 BKN034 OVC044 06/02 A2987 RMK AO1,M
CXP,2025-02-14 20:55,-119.7326,39.1923,1431.00,42.80,24.80,48.67,230.00,10.00,0.00,30.00,M,10.00,18.00,BKN,OVC,M,M,4200.00,8000.00,M,M,M,M,M,M,M,M,M,36.51,KCXP 142055Z AUTO 23010G18KT 10SM BKN042 OVC080 06/M04 A3000 RMK AO2,M
INS,2025-02-14 20:55,-115.6733,36.5872,955.00,56.30,32.40,40.17,50.00,5.00,0.00,29.88,1009.90,10.00,M,CLR,M,M,M,M,M,M,M,M,M,M,M,M,M,M,56.30,KINS 142055Z AUTO 05005KT 10SM CLR 14/00 A2988 RMK AO2 SLP099 T01350002 58005 $,M
LSV,2025-02-14 20:55,-115.0343,36.2362,570.00,61.00,33.80,35.90,230.00,10.00,0.00,29.84,1009.70,10.00,17.00,CLR,M,M,M,M,M,M,M,M,M,M,M,M,M,M,61.00,KLSV 142055Z AUTO 23010G17KT 10SM CLR 16/01 A2984 RMK AO2 SLP097 T01610010 58007 $,M
EKO,2025-02-14 20:56,-115.7860,40.8242,1367.00,39.00,36.00,88.87,250.00,20.00,T,29.82,1010.20,9.00,27.00,FEW,BKN,OVC,M,1700.00,3000.00,4500.00,M,M,M,M,M,27.00,250.00,2025-02-14 20:56,28.44,KEKO 142056Z AUTO 25020G27KT 9SM FEW017 BKN030 OVC045 04/02 A2982 RMK AO2 PK WND 25027/2056 RAE06B34E45 SLP102 P0000 60003 T00390022 51011,M
WMC,2025-02-14 20:56,-117.8072,40.9019,1315.00,43.00,30.00,59.83,260.00,17.00,0.00,29.88,1011.70,10.00,25.00,BKN,OVC,M,M,3600.00,4900.00,M,M,M,M,M,M,28.00,260.00,2025-02-14 20:38,34.49,KWMC 142056Z AUTO 26017G25KT 10SM BKN036 OVC049 06/M01 A2988 RMK AO2 PK WND 26028/2038 SLP117 60000 T00611011 51023,M
HND,2025-02-14 20:56,-115.1344,35.9729,742.79,59.00,37.00,43.78,220.00,14.00,0.00,29.91,1013.80,10.00,22.00,CLR,M,M,M,M,M,M,M,M,M,M,M,M,M,M,59.00,KHND 142056Z 22014G22KT 10SM CLR 15/03 A2991 RMK AO2 SLP138 T01500028 58010 $,M
TPH,2025-02-14 20:56,-117.0904,38.0505,1654.00,40.00,32.00,72.85,0.00,0.00,0.06,29.88,1011.40,6.00,M,SCT,BKN,OVC,M,3400.00,4700.00,9000.00,M,-RA,M,M,M,M,M,M,40.00,KTPH 142056Z AUTO 00000KT 6SM -RA SCT034 BKN047 OVC090 04/00 A2988 RMK AO2 RAB38 SLP114 P0006 60006 T00440000 58003,M
LAS,2025-02-14 20:56,-115.1634,36.0719,663.00,61.00,36.00,39.19,240.00,12.00,0.00,29.89,1011.40,10.00,23.00,FEW,SCT,BKN,M,7000.00,12000.00,20000.00,M,M,M,M,M,M,M,M,61.00,KLAS 142056Z 24012G23KT 10SM FEW070 SCT120 BKN200 16/02 A2989 RMK AO2 SLP114 T01610022 58006,M
NFL,2025-02-14 20:57,-118.7010,39.4166,1199.00,48.00,26.00,42.00,280.00,13.00,0.00,29.95,1011.30,10.00,22.00,SCT,BKN,BKN,BKN,4000.00,6000.00,9000.00,15000.00,M,M,M,M,27.00,270.00,2025-02-14 20:08,42.07,KNFL 142057Z 28013G22KT 10SM SCT040 BKN060 BKN090 BKN150 09/M03 A2995 RMK AO2 PK WND 27027/2008 SLP113 T00891033 51024,M
10U,2025-02-14 21:00,-116.1876,41.9532,1637.00,33.80,32.00,93.03,230.00,10.00,0.00,29.80,M,2.00,M,FEW,M,M,M,400.00,M,M,M,-SN,M,M,M,M,M,M,25.23,K10U 142100Z AUTO 23010KT 2SM -SN FEW004 01/00 A2980 RMK AO2,M
EKO,2025-02-14 21:06,-115.7860,40.8242,1367.00,38.00,36.00,92.42,240.00,11.00,T,29.82,M,10.00,M,FEW,BKN,OVC,M,1500.00,2400.00,4500.00,M,-RA,M,M,M,M,M,M,30.05,KEKO 142106Z AUTO 24011KT 10SM -RA FEW015 BKN024 OVC045 03/02 A2982 RMK AO2 RAB2057 P0000 T00330022,M
TMT,2025-02-14 21:10,-117.1971,39.4643,1749.34,39.60,25.00,55.55,260.00,13.00,0.00,29.92,M,10.00,19.00,SCT,BKN,BKN,M,4800.00,5500.00,7500.00,M,M,M,M,M,M,M,M,31.30,KTMT 142110Z AUTO 26013G19KT 10SM SCT048 BKN055 BKN075 04/M04 A2992 RMK AO2 T00421039,M
ELY,2025-02-14 21:12,-114.8453,39.2950,1909.00,39.00,31.00,72.75,280.00,19.00,T,29.84,M,1.50,36.00,FEW,BKN,M,M,900.00,6000.00,M,M,-RA,M,M,M,36.00,280.00,2025-02-14 21:09,28.69,KELY 142112Z AUTO 28019G36KT 1 1/2SM -RA FEW009 BKN060 04/M01 A2984 RMK AO2 PK WND 28036/2109 RAB11 PRESRR P0000 T00391006,M
ELY,2025-02-14 21:14,-114.8453,39.2950,1909.00,35.00,32.00,88.68,280.00,21.00,T,29.85,M,0.75,36.00,FEW,BKN,M,M,900.00,6000.00,M,M,-SN BR,M,M,M,36.00,280.00,2025-02-14 21:09,22.85,KELY 142114Z AUTO 28021G36KT 3/4SM -SN BR FEW009 BKN060 02/00 A2985 RMK AO2 PK WND 28036/2109 RAB11E14SNB14 PRESRR P0000 T00170000,M
BVU,2025-02-14 21:15,-114.8611,35.9475,671.00,60.80,37.40,41.71,220.00,17.00,0.00,29.88,M,10.00,M,BKN,M,M,M,6000.00,M,M,M,M,M,M,M,M,M,M,60.80,KBVU 142115Z AUTO 22017KT 10SM BKN060 16/03 A2988 RMK AO2,M
BAM,2025-02-14 21:15,-116.8743,40.5990,1382.36,42.80,35.60,75.50,230.00,17.00,0.00,29.88,M,10.00,22.00,SCT,BKN,OVC,M,1600.00,3100.00,4500.00,M,M,M,M,M,M,M,M,34.22,KBAM 142115Z AUTO 23017G22KT 10SM SCT016 BKN031 OVC045 06/02 A2988 RMK AO1,M
CXP,2025-02-14 21:15,-119.7326,39.1923,1431.00,42.80,24.80,48.67,M,6.00,0.00,30.01,M,10.00,16.00,SCT,OVC,M,M,7500.00,9500.00,M,M,M,M,M,M,M,M,M,38.54,KCXP 142115Z AUTO VRB06G16KT 10SM SCT075 OVC095 06/M04 A3001 RMK AO2,M
10U,2025-02-14 21:20,-116.1876,41.9532,1637.00,33.80,33.80,100.00,230.00,12.00,0.00,29.80,M,2.50,M,SCT,M,M,M,700.00,M,M,M,-SN,M,M,M,M,M,M,24.29,K10U 142120Z AUTO 23012KT 2 1/2SM -SN SCT007 01/01 A2980 RMK AO2,M
EKO,2025-02-14 21:24,-115.7860,40.8242,1367.00,40.00,37.00,88.92,240.00,12.00,T,29.82,M,10.00,M,FEW,BKN,BKN,M,1000.00,3400.00,6000.00,M,M,M,M,M,M,M,M,32.18,KEKO 142124Z AUTO 24012KT 10SM FEW010 BKN034 BKN060 04/03 A2982 RMK AO2 RAB2057E17 P0000 T00440028,M
ELY,2025-02-14 21:25,-114.8453,39.2950,1909.00,32.00,32.00,100.00,280.00,11.00,T,29.86,M,0.25,22.00,BKN,OVC,M,M,800.00,6000.00,M,M,SN FG,M,M,M,36.00,280.00,2025-02-14 21:09,22.47,KELY 142125Z AUTO 28011G22KT 1/4SM SN FG BKN008 OVC060 00/00 A2986 RMK AO2 PK WND 28036/2109 RAB11E14SNB14 P0000 T00000000,M
RTS,2025-02-14 21:25,-119.8764,39.6682,1539.00,37.40,26.60,64.70,300.00,17.00,0.00,30.00,M,10.00,24.00,FEW,FEW,M,M,2600.00,8000.00,M,M,M,M,M,M,M,M,M,27.15,KRTS 142125Z AUTO 30017G24KT 10SM FEW026 FEW080 03/M03 A3000 RMK AO2,M
MEV,2025-02-14 21:25,-119.7500,38.9963,1441.42,46.40,26.60,45.73,240.00,16.00,0.00,29.98,M,10.00,22.00,BKN,M,M,M,9500.00,M,M,M,M,M,M,M,M,M,M,39.19,KMEV 142125Z AUTO 24016G22KT 10SM BKN095 08/M03 A2998 RMK AO2,M
TMT,2025-02-14 21:30,-117.1971,39.4643,1749.34,37.00,29.00,72.54,220.00,12.00,0.00,29.93,M,10.00,15.00,SCT,SCT,OVC,M,1600.00,3100.00,4700.00,M,M,M,M,M,M,M,M,28.37,KTMT 142130Z AUTO 22012G15KT 10SM SCT016 SCT031 OVC047 03/M02 A2993 RMK AO2 T00271017,M
ELY,2025-02-14 21:31,-114.8453,39.2950,1909.00,32.00,31.00,96.04,290.00,10.00,T,29.86,M,0.50,M,BKN,OVC,M,M,1000.00,6000.00,M,M,SN FG,M,M,M,36.00,280.00,2025-02-14 21:09,22.97,KELY 142131Z AUTO 29010KT 1/2SM SN FG BKN010 OVC060 00/M01 A2986 RMK AO2 PK WND 28036/2109 RAB11E14SNB14 P0000 T00001006,M
BVU,2025-02-14 21:35,-114.8611,35.9475,671.00,60.80,35.60,38.85,230.00,14.00,0.00,29.88,M,10.00,M,SCT,M,M,M,6000.00,M,M,M,M,M,M,M,M,M,M,60.80,KBVU 142135Z AUTO 23014KT 10SM SCT060 16/02 A2988 RMK AO2,M
BAM,2025-02-14 21:35,-116.8743,40.5990,1382.36,42.80,33.80,70.28,230.00,15.00,0.00,29.88,M,10.00,21.00,SCT,BKN,OVC,M,3300.00,5500.00,7500.00,M,M,M,M,M,M,M,M,34.78,KBAM 142135Z AUTO 23015G21KT 10SM SCT033 BKN055 OVC075 06/01 A2988 RMK AO1,M
CXP,2025-02-14 21:35,-119.7326,39.1923,1431.00,42.80,24.80,48.67,0.00,0.00,0.00,30.02,M,10.00,16.00,BKN,OVC,M,M,7500.00,10000.00,M,M,M,M,M,M,M,M,M,42.80,KCXP 142135Z AUTO 00000G16KT 10SM BKN075 OVC100 06/M04 A3002 RMK AO2,M
10U,2025-02-14 21:40,-116.1876,41.9532,1637.00,32.00,32.00,100.00,270.00,14.00,0.00,29.82,M,0.75,20.00,BKN,OVC,M,M,200.00,700.00,M,M,-SN,M,M,M,M,M,M,21.16,K10U 142140Z AUTO 27014G20KT 3/4SM -SN BKN002 OVC007 00/M00 A2982 RMK AO2,M
ELY,2025-02-14 21:50,-114.8453,39.2950,1909.00,32.00,30.20,92.97,300.00,4.00,0.03,29.87,M,1.00,M,BKN,OVC,M,M,1500.00,3200.00,M,M,-SN BR,M,M,M,36.00,280.00,2025-02-14 21:09,27.42,KELY 142150Z AUTO 30004KT 1SM -SN BR BKN015 OVC032 00/M01 A2987 RMK AO2 PK WND 28036/2109 RAB11E14SNB14 P0003,M
TMT,2025-02-14 21:50,-117.1971,39.4643,1749.34,38.30,27.70,65.35,270.00,14.00,0.00,29.93,M,10.00,19.00,SCT,BKN,OVC,M,3100.00,4200.00,4900.00,M,M,M,M,M,M,M,M,29.28,KTMT 142150Z AUTO 27014G19KT 10SM SCT031 BKN042 OVC049 04/M02 A2993 RMK AO2 T00351024,M
P68,2025-02-14 21:53,-116.0056,39.6014,1993.00,40.00,26.00,57.01,260.00,13.00,0.00,29.86,1010.50,M,18.00,M,M,M,M,M,M,M,M,M,M,M,M,26.00,250.00,2025-02-14 21:40,31.82,KP68 142153Z AUTO 26013G18KT 04/M03 A2986 RMK AO1 PK WND 25026/2140 SLP105 T00441033,M
DRA,2025-02-14 21:53,-116.0278,36.6206,1009.00,57.00,35.00,43.46,230.00,14.00,0.00,29.88,1009.60,10.00,20.00,FEW,M,M,M,4600.00,M,M,M,M,M,M,M,27.00,220.00,2025-02-14 20:54,57.00,KDRA 142153Z AUTO 23014G20KT 10SM FEW046 14/02 A2988 RMK AO2 PK WND 22027/2054 SLP096 T01390017,M
ELY,2025-02-14 21:53,-114.8453,39.2950,1909.00,32.00,31.00,96.04,300.00,4.00,0.03,29.87,1010.50,1.25,M,BKN,OVC,M,M,1700.00,3200.00,M,M,-SN BR,M,M,M,36.00,280.00,2025-02-14 21:09,27.42,KELY 142153Z AUTO 30004KT 1 1/4SM -SN BR BKN017 OVC032 00/M01 A2987 RMK AO2 PK WND 28036/2109 RAB11E14SNB14 SLP105 P0003 T00001006,M
VGT,2025-02-14 21:53,-115.1933,36.2111,667.00,61.00,30.00,30.80,220.00,13.00,0.00,29.85,1011.90,10.00,23.00,CLR,M,M,M,M,M,M,M,M,M,M,M,M,M,M,61.00,KVGT 142153Z 22013G23KT 10SM CLR 16/M01 A2985 RMK AO2 SLP119 T01611011 PNO,M
LOL,2025-02-14 21:53,-118.5701,40.0684,1192.43,44.00,26.00,48.86,290.00,10.00,0.00,29.96,1015.00,10.00,M,BKN,BKN,OVC,M,4800.00,6000.00,9500.00,M,M,M,M,M,26.00,260.00,2025-02-14 21:04,38.02,KLOL 142153Z AUTO 29010KT 10SM BKN048 BKN060 OVC095 07/M03 A2996 RMK AO2 PK WND 26026/2104 SLP150 T00671033,M
BVU,2025-02-14 21:55,-114.8611,35.9475,671.00,62.60,35.60,36.45,240.00,14.00,0.00,29.88,M,10.00,19.00,SCT,M,M,M,5500.00,M,M,M,M,M,M,M,M,M,M,62.60,KBVU 142155Z AUTO 24014G19KT 10SM SCT055 17/02 A2988 RMK AO2,M
RNO,2025-02-14 21:55,-119.7711,39.4839,1341.00,43.00,26.00,50.77,290.00,13.00,0.00,30.01,1015.50,10.00,21.00,SCT,BKN,BKN,M,4200.00,9000.00,12000.00,M,M,M,M,M,28.00,290.00,2025-02-14 21:02,35.66,KRNO 142155Z 29013G21KT 10SM SCT042 BKN090 BKN120 06/M03 A3001 RMK AO2 PK WND 29028/2102 SLP155 MTN TOPS OBSCD DSNT SW THRU NW T00611033,M
BAM,2025-02-14 21:55,-116.8743,40.5990,1382.36,42.80,33.80,70.28,230.00,14.00,0.00,29.89,M,10.00,19.00,SCT,BKN,BKN,M,3300.00,4800.00,5000.00,M,M,M,M,M,M,M,M,35.08,KBAM 142155Z AUTO 23014G19KT 10SM SCT033 BKN048 BKN050 06/01 A2989 RMK AO1,M
CXP,2025-02-14 21:55,-119.7326,39.1923,1431.00,42.80,26.60,52.45,M,4.00,0.00,30.03,M,10.00,M,SCT,SCT,OVC,M,4200.00,6000.00,7000.00,M,M,M,M,M,M,M,M,40.03,KCXP 142155Z AUTO VRB04KT 10SM SCT042 SCT060 OVC070 06/M03 A3003 RMK AO2,M
RTS,2025-02-14 21:55,-119.8764,39.6682,1539.00,37.40,26.60,64.70,300.00,16.00,0.00,30.01,M,10.00,24.00,FEW,SCT,BKN,M,1900.00,2400.00,8000.00,M,M,M,M,M,M,M,M,27.46,KRTS 142155Z AUTO 30016G24KT 10SM FEW019 SCT024 BKN080 03/M03 A3001 RMK AO2,M
MEV,2025-02-14 21:55,-119.7500,38.9963,1441.42,44.60,23.00,42.14,250.00,15.00,0.00,30.01,M,10.00,23.00,FEW,BKN,M,M,8000.00,10000.00,M,M,M,M,M,M,M,M,M,37.11,KMEV 142155Z AUTO 25015G23KT 10SM FEW080 BKN100 07/M05 A3001 RMK AO2,M
INS,2025-02-14 21:55,-115.6733,36.5872,955.00,58.60,33.00,37.88,0.00,0.00,0.00,29.86,1008.80,10.00,M,CLR,M,M,M,M,M,M,M,M,M,M,M,M,M,M,58.60,KINS 142155Z AUTO 00000KT 10SM CLR 15/01 A2986 RMK AO2 SLP088 T01480006 $,M
LSV,2025-02-14 21:55,-115.0343,36.2362,570.00,62.00,32.50,32.90,200.00,12.00,0.00,29.82,1008.90,10.00,M,CLR,M,M,M,M,M,M,M,M,M,M,M,M,M,M,62.00,KLSV 142155Z AUTO 20012KT 10SM CLR 17/00 A2982 RMK AO2 SLP089 T01670003 $,M
EKO,2025-02-14 21:56,-115.7860,40.8242,1367.00,36.00,34.00,92.35,270.00,18.00,T,29.84,1011.10,2.00,27.00,BKN,BKN,OVC,M,1200.00,2000.00,3000.00,M,-SN BR,M,M,M,27.00,270.00,2025-02-14 21:47,25.01,KEKO 142156Z AUTO 27018G27KT 2SM -SN BR BKN012 BKN020 OVC030 02/01 A2984 RMK AO2 PK WND 27027/2147 VIS 1 3/4V2 1/2 RAB2057E17B46E50SNB50 SLP111 P0000 T00220011,M
WMC,2025-02-14 21:56,-117.8072,40.9019,1315.00,44.00,31.00,59.97,260.00,19.00,0.00,29.90,1012.20,10.00,26.00,FEW,BKN,M,M,3900.00,4700.00,M,M,M,M,M,M,27.00,250.00,2025-02-14 20:57,35.31,KWMC 142156Z AUTO 26019G26KT 10SM FEW039 BKN047 07/M01 A2990 RMK AO2 PK WND 25027/2057 SLP122 T00671006,M
HND,2025-02-14 21:56,-115.1344,35.9729,742.79,60.00,36.00,40.61,220.00,16.00,0.00,29.89,1013.30,10.00,M,CLR,M,M,M,M,M,M,M,M,M,M,M,M,M,M,60.00,KHND 142156Z 22016KT 10SM CLR 16/02 A2989 RMK AO2 SLP133 T01560022 $,M
TPH,2025-02-14 21:56,-117.0904,38.0505,1654.00,44.00,29.00,55.29,330.00,21.00,T,29.91,1012.10,9.00,35.00,SCT,BKN,M,M,5500.00,7500.00,M,M,-RA,M,M,M,35.00,300.00,2025-02-14 21:52,34.86,KTPH 142156Z AUTO 33021G35KT 9SM -RA SCT055 BKN075 07/M02 A2991 RMK AO2 PK WND 30035/2152 LTG DSNT SE RAE2059B55 PRESRR SLP121 P0000 T00671017,M
LAS,2025-02-14 21:56,-115.1634,36.0719,663.00,61.00,35.00,37.66,270.00,14.00,0.00,29.88,1010.90,10.00,M,FEW,SCT,SCT,M,6000.00,12000.00,20000.00,M,M,M,M,M,M,M,M,61.00,KLAS 142156Z 27014KT 10SM FEW060 SCT120 SCT200 16/02 A2988 RMK AO2 SLP109 T01610017,M
NFL,2025-02-14 21:57,-118.7010,39.4166,1199.00,48.00,28.00,45.61,290.00,20.00,0.00,29.96,1011.80,10.00,29.00,SCT,BKN,BKN,BKN,4000.00,5500.00,9000.00,14000.00,M,M,M,M,29.00,280.00,2025-02-14 21:37,40.39,KNFL 142157Z 29020G29KT 10SM SCT040 BKN055 BKN090 BKN140 09/M02 A2996 RMK AO2 PK WND 28029/2137 SLP118 T00891022,M
10U,2025-02-14 22:00,-116.1876,41.9532,1637.00,32.00,32.00,100.00,270.00,9.00,0.00,29.84,M,2.00,16.00,FEW,FEW,M,M,200.00,700.00,M,M,-SN,M,M,M,M,M,M,23.51,K10U 142200Z AUTO 27009G16KT 2SM -SN FEW002 FEW007 00/M00 A2984 RMK AO2,M
TPH,2025-02-14 22:04,-117.0904,38.0505,1654.00,41.00,31.00,67.30,320.00,24.00,T,29.92,M,10.00,36.00,FEW,BKN,OVC,M,4200.00,5500.00,7500.00,M,-RA,M,M,M,36.00,320.00,2025-02-14 22:02,30.20,KTPH 142204Z AUTO 32024G36KT 10SM -RA FEW042 BKN055 OVC075 05/M01 A2992 RMK AO2 PK WND 32036/2202 WSHFT 2144 LTG DSNT SE AND S PRESRR P0000 T00501006,M
ELY,2025-02-14 22:08,-114.8453,39.2950,1909.00,33.00,32.00,96.06,110.00,7.00,T,29.86,M,1.75,M,BKN,OVC,M,M,3200.00,5500.00,M,M,-SN BR,M,M,M,M,M,M,26.00,KELY 142208Z AUTO 11007KT 1 3/4SM -SN BR BKN032 OVC055 01/00 A2986 RMK AO2 P0000 T00060000,M
TMT,2025-02-14 22:10,-117.1971,39.4643,1749.34,39.00,25.30,57.58,270.00,14.00,0.00,29.94,M,10.00,M,SCT,BKN,OVC,M,4200.00,5500.00,7500.00,M,M,M,M,M,M,M,M,30.19,KTMT 142210Z AUTO 27014KT 10SM SCT042 BKN055 OVC075 04/M04 A2994 RMK AO2 T00381037,M
ELY,2025-02-14 22:11,-114.8453,39.2950,1909.00,32.00,32.00,100.00,110.00,8.00,T,29.86,M,3.00,M,BKN,OVC,M,M,3400.00,6000.00,M,M,-SN BR,M,M,M,M,M,M,24.11,KELY 142211Z AUTO 11008KT 3SM -SN BR BKN034 OVC060 00/00 A2986 RMK AO2 P0000 T00000000,M
BVU,2025-02-14 22:15,-114.8611,35.9475,671.00,62.60,35.60,36.45,250.00,14.00,0.00,29.87,M,10.00,M,SCT,M,M,M,5500.00,M,M,M,M,M,M,M,M,M,M,62.60,KBVU 142215Z AUTO 25014KT 10SM SCT055 17/02 A2987 RMK AO2,M
BAM,2025-02-14 22:15,-116.8743,40.5990,1382.36,44.60,33.80,65.61,230.00,12.00,0.00,29.89,M,10.00,16.00,SCT,SCT,BKN,M,3300.00,4800.00,7000.00,M,M,M,M,M,M,M,M,38.04,KBAM 142215Z AUTO 23012G16KT 10SM SCT033 SCT048 BKN070 07/01 A2989 RMK AO1,M
CXP,2025-02-14 22:15,-119.7326,39.1923,1431.00,41.00,24.80,52.17,140.00,7.00,0.00,30.03,M,10.00,M,BKN,BKN,OVC,M,4200.00,4700.00,6500.00,M,M,M,M,M,M,M,M,35.75,KCXP 142215Z AUTO 14007KT 090V160 10SM BKN042 BKN047 OVC065 05/M04 A3003 RMK AO2,M
RTS,2025-02-14 22:15,-119.8764,39.6682,1539.00,39.20,28.40,64.93,300.00,20.00,0.00,30.02,M,10.00,26.00,FEW,FEW,SCT,M,2100.00,2500.00,8000.00,M,M,M,M,M,M,M,M,28.70,KRTS 142215Z AUTO 30020G26KT 10SM FEW021 FEW025 SCT080 04/M02 A3002 RMK AO2,M
MEV,2025-02-14 22:15,-119.7500,38.9963,1441.42,44.60,24.80,45.44,250.00,12.00,0.00,30.02,M,10.00,20.00,BKN,OVC,M,M,8000.00,10000.00,M,M,VCTS,M,M,M,M,M,M,38.04,KMEV 142215Z AUTO 25012G20KT 10SM VCTS BKN080 OVC100 07/M04 A3002 RMK AO2 LTG DSNT ALQDS,M
EKO,2025-02-14 22:16,-115.7860,40.8242,1367.00,35.00,33.00,92.32,260.00,15.00,0.01,29.85,M,1.50,32.00,BKN,M,M,M,1200.00,M,M,M,-SN BR,M,M,M,32.00,270.00,2025-02-14 22:09,24.67,KEKO 142216Z AUTO 26015G32KT 1 1/2SM -SN BR BKN012 02/01 A2985 RMK AO2 PK WND 27032/2209 P0001 T00170006,M
ELY,2025-02-14 22:18,-114.8453,39.2950,1909.00,33.00,31.00,92.25,110.00,7.00,T,29.86,M,7.00,M,FEW,BKN,OVC,M,900.00,4000.00,6000.00,M,-SN,M,M,M,M,M,M,26.00,KELY 142218Z AUTO 11007KT 7SM -SN FEW009 BKN040 OVC060 01/M01 A2986 RMK AO2 P0000 T00061006,M
10U,2025-02-14 22:20,-116.1876,41.9532,1637.00,33.80,32.00,93.03,260.00,8.00,0.00,29.85,M,3.00,M,SCT,M,M,M,900.00,M,M,M,-SN,M,M,M,M,M,M,26.33,K10U 142220Z AUTO 26008KT 3SM -SN SCT009 01/M00 A2985 RMK AO2,M
EKO,2025-02-14 22:21,-115.7860,40.8242,1367.00,36.00,34.00,92.35,250.00,15.00,0.02,29.85,M,4.00,29.00,BKN,BKN,OVC,M,1600.00,3500.00,4800.00,M,-SN BR,M,M,M,32.00,270.00,2025-02-14 22:09,25.97,KEKO 142221Z AUTO 25015G29KT 4SM -SN BR BKN016 BKN035 OVC048 02/01 A2985 RMK AO2 PK WND 27032/2209 P0002 T00220011,M
CXP,2025-02-14 22:30,-119.7326,39.1923,1431.00,42.80,24.80,48.67,M,6.00,0.00,30.03,M,10.00,14.00,FEW,SCT,BKN,M,4200.00,4800.00,7000.00,M,M,M,M,M,M,M,M,38.54,KCXP 142230Z AUTO VRB06G14KT 10SM FEW042 SCT048 BKN070 06/M04 A3003 RMK AO2,M
TMT,2025-02-14 22:30,-117.1971,39.4643,1749.34,39.00,24.80,56.39,270.00,13.00,0.00,29.94,M,10.00,19.00,SCT,SCT,OVC,M,5000.00,7500.00,9000.00,M,M,M,M,M,M,M,M,30.54,KTMT 142230Z AUTO 27013G19KT 10SM SCT050 SCT075 OVC090 04/M04 A2994 RMK AO2 T00391040,M
BAM,2025-02-14 22:35,-116.8743,40.5990,1382.36,44.60,32.00,61.03,290.00,8.00,0.00,29.91,M,10.00,17.00,BKN,BKN,OVC,M,3800.00,4600.00,7500.00,M,M,M,M,M,M,M,M,39.63,KBAM 142235Z AUTO 29008G17KT 250V310 10SM BKN038 BKN046 OVC075 07/00 A2991 RMK AO1,M
BVU,2025-02-14 22:35,-114.8611,35.9475,671.00,62.60,35.60,36.45,230.00,14.00,0.00,29.87,M,10.00,22.00,FEW,M,M,M,6000.00,M,M,M,M,M,M,M,M,M,M,62.60,KBVU 142235Z AUTO 23014G22KT 10SM FEW060 17/02 A2987 RMK AO2,M
EKO,2025-02-14 22:35,-115.7860,40.8242,1367.00,39.00,35.00,85.42,240.00,12.00,0.02,29.86,M,9.00,M,SCT,SCT,BKN,M,1800.00,4700.00,7500.00,M,M,M,M,M,32.00,270.00,2025-02-14 22:09,30.91,KEKO 142235Z AUTO 24012KT 9SM SCT018 SCT047 BKN075 04/02 A2986 RMK AO2 PK WND 27032/2209 SNE30 P0002 T00390017,M
RTS,2025-02-14 22:35,-119.8764,39.6682,1539.00,39.20,28.40,64.93,290.00,18.00,0.00,30.02,M,10.00,27.00,FEW,M,M,M,9000.00,M,M,M,M,M,M,M,M,M,M,29.23,KRTS 142235Z AUTO 29018G27KT 10SM FEW090 04/M02 A3002 RMK AO2,M
MEV,2025-02-14 22:35,-119.7500,38.9963,1441.42,44.60,24.80,45.44,270.00,12.00,0.00,30.03,M,10.00,18.00,BKN,M,M,M,9000.00,M,M,M,M,M,M,M,M,M,M,38.04,KMEV 142235Z AUTO 27012G18KT 10SM BKN090 07/M04 A3003 RMK AO2,M
10U,2025-02-14 22:40,-116.1876,41.9532,1637.00,33.80,32.00,93.03,270.00,12.00,0.00,29.87,M,3.00,18.00,FEW,BKN,BKN,M,400.00,1000.00,1400.00,M,-SN,M,M,M,M,M,M,24.29,K10U 142240Z AUTO 27012G18KT 3SM -SN FEW004 BKN010 BKN014 01/M00 A2987 RMK AO2,M
TMT,2025-02-14 22:50,-117.1971,39.4643,1749.34,39.40,25.00,55.98,270.00,14.00,0.00,29.95,M,10.00,M,BKN,OVC,M,M,5000.00,9000.00,M,M,M,M,M,M,M,M,M,30.70,KTMT 142250Z AUTO 27014KT 10SM BKN050 OVC090 04/M04 A2995 RMK AO2 T00411039,M
P68,2025-02-14 22:53,-116.0056,39.6014,1993.00,40.00,25.00,54.69,310.00,14.00,0.00,29.88,1011.20,M,19.00,M,M,M,M,M,M,M,M,M,M,M,M,M,M,M,31.47,KP68 142253Z AUTO 31014G19KT 04/M04 A2988 RMK AO1 SLP112 T00441039,M
DRA,2025-02-14 22:53,-116.0278,36.6206,1009.00,57.00,34.00,41.76,210.00,15.00,0.00,29.88,1009.50,10.00,25.00,CLR,M,M,M,M,M,M,M,M,M,M,M,M,M,M,57.00,KDRA 142253Z AUTO 21015G25KT 10SM CLR 14/01 A2988 RMK AO2 SLP095 T01390011,M
ELY,2025-02-14 22:53,-114.8453,39.2950,1909.00,34.00,30.00,85.11,200.00,5.00,T,29.87,1010.40,8.00,M,SCT,BKN,OVC,M,3600.00,4500.00,6000.00,M,M,M,M,M,M,M,M,28.77,KELY 142253Z AUTO 20005KT 8SM SCT036 BKN045 OVC060 01/M01 A2987 RMK AO2 SNE24 SLP104 P0000 T00111011,M
VGT,2025-02-14 22:53,-115.1933,36.2111,667.00,62.00,29.00,28.54,240.00,11.00,0.00,29.84,1011.70,10.00,19.00,CLR,M,M,M,M,M,M,M,M,M,M,M,M,M,M,62.00,KVGT 142253Z 24011G19KT 10SM CLR 17/M02 A2984 RMK AO2 SLP117 T01671017 PNO,M
LOL,2025-02-14 22:53,-118.5701,40.0684,1192.43,44.00,27.00,50.93,290.00,14.00,0.00,29.99,1015.80,10.00,26.00,BKN,M,M,M,4400.00,M,M,M,M,M,M,M,26.00,310.00,2025-02-14 22:49,36.63,KLOL 142253Z AUTO 29014G26KT 10SM BKN044 07/M03 A2999 RMK AO2 PK WND 31026/2249 SLP158 T00671028,M
EKO,2025-02-14 22:54,-115.7860,40.8242,1367.00,39.20,35.60,86.79,240.00,9.91,M,29.88,M,10.00,M,BKN,BKN,BKN,M,2500.00,6000.00,7500.00,M,M,M,M,M,32.00,270.00,2025-02-14 22:09,32.04,SPECI KEKO 142254Z 24010KT 10SM BKN025 BKN060 BKN075 04/02 A2988 RMK AO2 PK WND 27032/2209 SNE30 P0002 FIBI,M
BVU,2025-02-14 22:55,-114.8611,35.9475,671.00,62.60,35.60,36.45,230.00,16.00,0.00,29.87,M,10.00,M,CLR,M,M,M,M,M,M,M,M,M,M,M,M,M,M,62.60,KBVU 142255Z AUTO 23016KT 10SM CLR 17/02 A2987 RMK AO2,M
RNO,2025-02-14 22:55,-119.7711,39.4839,1341.00,44.00,26.00,48.86,310.00,14.00,0.00,30.03,1016.30,10.00,20.00,SCT,BKN,BKN,M,5000.00,9000.00,15000.00,M,M,M,M,M,30.00,280.00,2025-02-14 22:40,36.63,KRNO 142255Z 31014G20KT 10SM SCT050 BKN090 BKN150 07/M03 A3003 RMK AO2 PK WND 28030/2240 SLP163 MTN TOPS OBSCD DSNT SW THRU NW T00671033,M
BAM,2025-02-14 22:55,-116.8743,40.5990,1382.36,42.80,32.00,65.38,280.00,8.00,0.00,29.93,M,10.00,M,BKN,OVC,M,M,3800.00,6000.00,M,M,M,M,M,M,M,M,M,37.42,KBAM 142255Z AUTO 28008KT 10SM BKN038 OVC060 06/00 A2993 RMK AO1,M
CXP,2025-02-14 22:55,-119.7326,39.1923,1431.00,42.80,24.80,48.67,350.00,3.00,0.00,30.04,M,10.00,M,FEW,SCT,M,M,6000.00,9500.00,M,M,M,M,M,M,M,M,M,41.03,KCXP 142255Z AUTO 35003KT 10SM FEW060 SCT095 06/M04 A3004 RMK AO2,M
RTS,2025-02-14 22:55,-119.8764,39.6682,1539.00,39.20,26.60,60.29,300.00,16.00,0.00,30.04,M,10.00,M,SCT,M,M,M,9000.00,M,M,M,M,M,M,M,M,M,M,29.80,KRTS 142255Z AUTO 30016KT 10SM SCT090 04/M03 A3004 RMK AO2,M
MEV,2025-02-14 22:55,-119.7500,38.9963,1441.42,44.60,24.80,45.44,280.00,10.00,0.00,30.04,M,10.00,M,BKN,M,M,M,8500.00,M,M,M,M,M,M,M,M,M,M,38.77,KMEV 142255Z AUTO 28010KT 10SM BKN085 07/M04 A3004 RMK AO2,M
INS,2025-02-14 22:55,-115.6733,36.5872,955.00,59.50,30.40,33.02,280.00,5.00,0.00,29.86,1009.00,10.00,M,FEW,OVC,M,M,6000.00,9000.00,M,M,M,M,M,M,M,M,M,59.50,KINS 142255Z AUTO 28005KT 10SM FEW060 OVC090 15/M01 A2986 RMK AO2 SLP090 T01531009 $,M
LSV,2025-02-14 22:55,-115.0343,36.2362,570.00,63.70,33.30,32.00,210.00,14.00,0.00,29.81,1008.50,10.00,M,CLR,M,M,M,M,M,M,M,M,M,M,M,M,M,M,63.70,KLSV 142255Z AUTO 21014KT 10SM CLR 18/01 A2981 RMK AO2 SLP085 T01760007 $,M
EKO,2025-02-14 22:56,-115.7860,40.8242,1367.00,38.00,35.00,88.83,230.00,11.00,0.02,29.88,1012.20,10.00,M,BKN,BKN,BKN,M,2300.00,6000.00,7500.00,M,M,M,M,M,32.00,270.00,2025-02-14 22:09,30.05,KEKO 142256Z AUTO 23011KT 10SM BKN023 BKN060 BKN075 03/02 A2988 RMK AO2 PK WND 27032/2209 SNE30 SLP122 P0002 T00330017,M
WMC,2025-02-14 22:56,-117.8072,40.9019,1315.00,42.00,29.00,59.69,280.00,16.00,0.00,29.94,1013.80,10.00,25.00,SCT,BKN,OVC,M,3600.00,4300.00,5000.00,M,M,M,M,M,M,M,M,33.45,KWMC 142256Z AUTO 28016G25KT 10SM SCT036 BKN043 OVC050 06/M02 A2994 RMK AO2 SLP138 T00561017,M
HND,2025-02-14 22:56,-115.1344,35.9729,742.79,60.00,35.00,39.03,230.00,14.00,0.00,29.89,1013.20,10.00,M,CLR,M,M,M,M,M,M,M,M,M,M,M,M,M,M,60.00,KHND 142256Z 23014KT 10SM CLR 16/02 A2989 RMK AO2 SLP132 T01560017 $,M
TPH,2025-02-14 22:56,-117.0904,38.0505,1654.00,43.00,30.00,59.83,330.00,19.00,T,29.92,1012.80,10.00,28.00,FEW,FEW,SCT,M,4400.00,6500.00,8500.00,M,M,M,M,M,36.00,320.00,2025-02-14 22:02,33.98,KTPH 142256Z AUTO 33019G28KT 10SM FEW044 FEW065 SCT085 06/M01 A2992 RMK AO2 PK WND 32036/2202 WSHFT 2144 LTG DSNT SE RAE43 SLP128 P0000 T00611011,M
LAS,2025-02-14 22:56,-115.1634,36.0719,663.00,61.00,33.00,34.77,250.00,14.00,0.00,29.87,1010.70,10.00,22.00,FEW,SCT,BKN,M,6000.00,12000.00,20000.00,M,M,M,M,M,M,M,M,61.00,KLAS 142256Z 25014G22KT 10SM FEW060 SCT120 BKN200 16/01 A2987 RMK AO2 SLP107 CB DSNT NW AND NE T01610006,M
NFL,2025-02-14 22:57,-118.7010,39.4166,1199.00,47.00,26.00,43.61,290.00,21.00,0.00,30.00,1013.00,10.00,29.00,SCT,BKN,BKN,BKN,3000.00,5000.00,10000.00,25000.00,M,M,M,M,32.00,300.00,2025-02-14 22:32,38.86,KNFL 142257Z 29021G29KT 10SM SCT030 BKN050 BKN100 BKN250 08/M03 A3000 RMK AO2 PK WND 30032/2232 SLP130 SH VC N-NE T00831033,M
10U,2025-02-14 23:00,-116.1876,41.9532,1637.00,32.00,30.20,92.97,280.00,14.00,0.00,29.89,M,3.00,23.00,FEW,M,M,M,1100.00,M,M,M,-SN,M,M,M,M,M,M,21.16,K10U 142300Z AUTO 28014G23KT 3SM -SN FEW011 00/M01 A2989 RMK AO2,M
RTS,2025-02-14 23:05,-119.8764,39.6682,1539.00,39.20,26.60,60.29,290.00,13.00,0.00,30.05,M,10.00,18.00,SCT,M,M,M,10000.00,M,M,M,M,M,M,M,M,M,M,30.79,KRTS 142305Z AUTO 29013G18KT 10SM SCT100 04/M03 A3005 RMK AO2,M
MEV,2025-02-14 23:05,-119.7500,38.9963,1441.42,42.80,24.80,48.67,290.00,10.00,0.00,30.04,M,10.00,M,BKN,BKN,M,M,8000.00,10000.00,M,M,M,M,M,M,M,M,M,36.51,KMEV 142305Z AUTO 29010KT 10SM BKN080 BKN100 06/M04 A3004 RMK AO2,M
TMT,2025-02-14 23:10,-117.1971,39.4643,1749.34,38.70,24.30,55.88,260.00,12.00,0.00,29.96,M,10.00,17.00,BKN,OVC,M,M,4500.00,5000.00,M,M,M,M,M,M,M,M,M,30.53,KTMT 142310Z AUTO 26012G17KT 10SM BKN045 OVC050 04/M04 A2996 RMK AO2 T00371043,M
BVU,2025-02-14 23:15,-114.8611,35.9475,671.00,62.60,35.60,36.45,220.00,11.00,0.00,29.87,M,10.00,21.00,CLR,M,M,M,M,M,M,M,M,M,M,M,M,M,M,62.60,KBVU 142315Z AUTO 22011G21KT 10SM CLR 17/02 A2987 RMK AO2,M
BAM,2025-02-14 23:15,-116.8743,40.5990,1382.36,42.80,32.00,65.38,260.00,7.00,0.00,29.93,M,10.00,M,SCT,BKN,OVC,M,3800.00,5000.00,6000.00,M,M,M,M,M,M,M,M,37.94,KBAM 142315Z AUTO 26007KT 10SM SCT038 BKN050 OVC060 06/00 A2993 RMK AO1,M
CXP,2025-02-14 23:15,-119.7326,39.1923,1431.00,42.80,24.80,48.67,0.00,0.00,0.00,30.05,M,10.00,M,FEW,M,M,M,9500.00,M,M,M,M,M,M,M,M,M,M,42.80,KCXP 142315Z AUTO 00000KT 10SM FEW095 06/M04 A3005 RMK AO2,M
10U,2025-02-14 23:20,-116.1876,41.9532,1637.00,32.00,30.20,92.97,270.00,9.00,0.00,29.90,M,4.00,15.00,CLR,M,M,M,M,M,M,M,UP,M,M,M,M,M,M,23.51,K10U 142320Z AUTO 27009G15KT 4SM UP CLR 00/M01 A2990 RMK AO2,M
ELY,2025-02-14 23:25,-114.8453,39.2950,1909.00,35.00,31.00,85.17,0.00,0.00,T,29.89,M,1.75,M,SCT,BKN,OVC,M,1700.00,3200.00,7000.00,M,-SN BR,M,M,M,M,M,M,35.00,KELY 142325Z AUTO 00000KT 1 3/4SM -SN BR SCT017 BKN032 OVC070 02/M01 A2989 RMK AO2 VIS 1/2V4 SNB17 P0000 T00171006,M
EKO,2025-02-14 23:28,-115.7860,40.8242,1367.00,35.00,34.00,96.09,220.00,10.00,T,29.89,M,5.00,M,BKN,OVC,M,M,1400.00,2300.00,M,M,-SN BR,M,M,M,M,M,M,26.73,KEKO 142328Z AUTO 22010KT 5SM -SN BR BKN014 OVC023 02/01 A2989 RMK AO2 SNB04 P0000 T00170011,M
ELY,2025-02-14 23:28,-114.8453,39.2950,1909.00,34.00,31.00,88.63,M,3.00,T,29.89,M,0.75,M,BKN,BKN,OVC,M,1700.00,3500.00,4700.00,M,-SN BR,M,M,M,M,M,M,30.97,KELY 142328Z AUTO VRB03KT 3/4SM -SN BR BKN017 BKN035 OVC047 01/M01 A2989 RMK AO2 SNB17 P0000 T00111006,M
TMT,2025-02-14 23:30,-117.1971,39.4643,1749.34,38.00,25.00,59.13,320.00,10.00,0.00,29.97,M,10.00,M,OVC,M,M,M,4500.00,M,M,M,M,M,M,M,M,M,M,30.49,KTMT 142330Z AUTO 32010KT 10SM OVC045 03/M04 A2997 RMK AO2 T00331038,M
BVU,2025-02-14 23:35,-114.8611,35.9475,671.00,60.80,33.80,36.16,230.00,12.00,0.00,29.87,M,10.00,22.00,CLR,M,M,M,M,M,M,M,M,M,M,M,M,M,M,60.80,KBVU 142335Z AUTO 23012G22KT 10SM CLR 16/01 A2987 RMK AO2,M
BAM,2025-02-14 23:35,-116.8743,40.5990,1382.36,42.80,32.00,65.38,270.00,10.00,0.00,29.95,M,10.00,M,SCT,BKN,OVC,M,6000.00,6500.00,8000.00,M,M,M,M,M,M,M,M,36.51,KBAM 142335Z AUTO 27010KT 10SM SCT060 BKN065 OVC080 06/00 A2995 RMK AO1,M
CXP,2025-02-14 23:35,-119.7326,39.1923,1431.00,42.80,24.80,48.67,70.00,7.00,0.00,30.05,M,10.00,M,CLR,M,M,M,M,M,M,M,M,M,M,M,M,M,M,37.94,KCXP 142335Z AUTO 07007KT 10SM CLR 06/M04 A3005 RMK AO2,M
RTS,2025-02-14 23:35,-119.8764,39.6682,1539.00,39.20,26.60,60.29,320.00,10.00,0.00,30.07,M,10.00,M,FEW,BKN,OVC,M,3500.00,4600.00,10000.00,M,M,M,M,M,M,M,M,32.00,KRTS 142335Z AUTO 32010KT 10SM FEW035 BKN046 OVC100 04/M03 A3007 RMK AO2,M
MEV,2025-02-14 23:35,-119.7500,38.9963,1441.42,42.80,24.80,48.67,M,4.00,0.00,30.04,M,10.00,14.00,CLR,M,M,M,M,M,M,M,M,M,M,M,M,M,M,40.03,KMEV 142335Z AUTO VRB04G14KT 10SM CLR 06/M04 A3004 RMK AO2,M
EKO,2025-02-14 23:38,-115.7860,40.8242,1367.00,35.00,35.00,100.00,220.00,9.00,0.01,29.90,M,8.00,M,SCT,BKN,OVC,M,1500.00,2900.00,6000.00,M,-SN,M,M,M,M,M,M,27.24,KEKO 142338Z AUTO 22009KT 8SM -SN SCT015 BKN029 OVC060 02/02 A2990 RMK AO2 SNB04 P0001 T00170017,M
10U,2025-02-14 23:40,-116.1876,41.9532,1637.00,32.00,30.20,92.97,270.00,9.00,0.00,29.91,M,2.50,17.00,FEW,FEW,M,M,1100.00,1600.00,M,M,-SN,M,M,M,M,M,M,23.51,K10U 142340Z AUTO 27009G17KT 2 1/2SM -SN FEW011 FEW016 00/M01 A2991 RMK AO2,M
ELY,2025-02-14 23:46,-114.8453,39.2950,1909.00,32.00,32.00,100.00,0.00,0.00,0.01,29.90,M,0.50,M,VV ,M,M,M,1200.00,M,M,M,SN FG,M,M,M,M,M,M,32.00,KELY 142346Z AUTO 00000KT 1/2SM SN FG VV012 00/00 A2990 RMK AO2 SNB17 P0001 T00000000,M
TMT,2025-02-14 23:50,-117.1971,39.4643,1749.34,36.00,28.00,72.43,310.00,13.00,0.00,29.99,M,10.00,16.00,BKN,OVC,M,M,4100.00,4700.00,M,M,M,M,M,M,M,M,M,26.69,KTMT 142350Z AUTO 31013G16KT 10SM BKN041 OVC047 02/M02 A2999 RMK AO2 T00221023,M
DRA,2025-02-14 23:53,-116.0278,36.6206,1009.00,55.00,32.00,41.44,240.00,11.00,0.00,29.87,1009.50,10.00,M,CLR,M,M,M,M,M,M,M,M,M,M,M,M,M,M,55.00,KDRA 142353Z AUTO 24011KT 10SM CLR 13/00 A2987 RMK AO2 SLP095 T01280000 10144 20106 58001,M
ELY,2025-02-14 23:53,-114.8453,39.2950,1909.00,32.00,32.00,100.00,0.00,0.00,0.02,29.90,1011.90,0.50,M,VV ,M,M,M,1200.00,M,M,M,SN FG,M,M,M,M,M,M,32.00,KELY 142353Z AUTO 00000KT 1/2SM SN FG VV012 00/00 A2990 RMK AO2 SNB17 SLP119 P0002 60005 T00000000 10072 20000 51026,M
VGT,2025-02-14 23:53,-115.1933,36.2111,667.00,61.00,28.00,28.38,240.00,14.00,0.00,29.85,1011.70,10.00,21.00,CLR,M,M,M,M,M,M,M,M,M,M,M,M,M,M,61.00,KVGT 142353Z 24014G21KT 10SM CLR 16/M02 A2985 RMK AO2 SLP117 6//// T01611022 10167 20139 55006 PNO,M
LOL,2025-02-14 23:53,-118.5701,40.0684,1192.43,45.00,27.00,49.02,300.00,19.00,0.00,30.01,1016.80,10.00,31.00,FEW,BKN,M,M,9000.00,12000.00,M,M,M,M,M,M,34.00,310.00,2025-02-14 23:32,36.63,KLOL 142353Z AUTO 30019G31KT 10SM FEW090 BKN120 07/M03 A3001 RMK AO2 PK WND 31034/2332 SLP168 T00721028 10083 20056 51022,M
P68,2025-02-14 23:53,-116.0056,39.6014,1993.00,39.00,26.00,59.27,320.00,12.00,0.00,29.91,1012.60,M,M,M,M,M,M,M,M,M,M,M,M,M,M,M,M,M,30.91,KP68 142353Z AUTO 32012KT 04/M03 A2991 RMK AO1 SLP126 T00391033 10056 20033 53018,M
EKO,2025-02-14 23:54,-115.7860,40.8242,1367.00,35.60,33.80,93.08,240.00,12.05,M,29.91,M,10.00,20.02,FEW,BKN,OVC,M,1601.00,3398.00,5498.00,M,M,M,M,M,M,M,M,26.56,SPECI KEKO 142354Z 24012G20KT 10SM FEW016 BKN034 OVC055 02/01 A2991 RMK AO2 UPB39E40SNB04E39B40E41 P0001 FIBI,M
BVU,2025-02-14 23:55,-114.8611,35.9475,671.00,60.80,35.60,38.85,230.00,15.00,0.00,29.87,M,10.00,M,CLR,M,M,M,M,M,M,M,M,M,M,M,M,M,M,60.80,KBVU 142355Z AUTO 23015KT 10SM CLR 16/02 A2987 RMK AO2 LTG DSNT N,M
RNO,2025-02-14 23:55,-119.7711,39.4839,1341.00,43.00,25.00,48.70,300.00,12.00,0.00,30.06,1017.20,10.00,M,SCT,BKN,M,M,6000.00,10000.00,M,M,M,M,M,M,M,M,M,36.00,KRNO 142355Z 30012KT 10SM SCT060 BKN100 06/M04 A3006 RMK AO2 SLP172 T00611039 10078 20050 51022,M
BAM,2025-02-14 23:55,-116.8743,40.5990,1382.36,42.80,32.00,65.38,280.00,13.00,0.00,29.97,M,10.00,17.00,SCT,BKN,OVC,M,4000.00,4900.00,6500.00,M,M,M,M,M,M,M,M,35.40,KBAM 142355Z AUTO 28013G17KT 10SM SCT040 BKN049 OVC065 06/00 A2997 RMK AO1,M
CXP,2025-02-14 23:55,-119.7326,39.1923,1431.00,44.60,23.00,42.14,0.00,0.00,0.00,30.06,M,10.00,M,FEW,M,M,M,4900.00,M,M,M,M,M,M,M,M,M,M,44.60,KCXP 142355Z AUTO 00000KT 10SM FEW049 07/M05 A3006 RMK AO2,M
RTS,2025-02-14 23:55,-119.8764,39.6682,1539.00,39.20,26.60,60.29,320.00,12.00,0.00,30.08,M,10.00,M,SCT,BKN,OVC,M,4500.00,5500.00,6500.00,M,M,M,M,M,M,M,M,31.17,KRTS 142355Z AUTO 32012KT 10SM SCT045 BKN055 OVC065 04/M03 A3008 RMK AO2,M
MEV,2025-02-14 23:55,-119.7500,38.9963,1441.42,44.60,23.00,42.14,M,3.00,0.00,30.05,M,10.00,17.00,FEW,M,M,M,9000.00,M,M,M,M,M,M,M,M,M,M,43.09,KMEV 142355Z AUTO VRB03G17KT 10SM FEW090 07/M05 A3005 RMK AO2,M
INS,2025-02-14 23:55,-115.6733,36.5872,955.00,58.00,26.60,29.82,280.00,9.00,0.00,29.86,1009.00,10.00,M,SCT,M,M,M,7500.00,M,M,M,M,M,M,M,M,M,M,58.00,KINS 142355Z AUTO 28009KT 10SM SCT075 14/M03 A2986 RMK AO2 SLP090 T01441030 10157 20109 55004 $,M
LSV,2025-02-14 23:55,-115.0343,36.2362,570.00,62.80,32.50,31.98,220.00,16.00,0.00,29.81,1008.50,10.00,M,CLR,M,M,M,M,M,M,M,M,M,M,M,M,M,M,62.80,KLSV 142355Z AUTO 22016KT 10SM CLR 17/00 A2981 RMK AO2 SLP085 T01710003 10176 20144 57009 $,M
EKO,2025-02-14 23:56,-115.7860,40.8242,1367.00,36.00,35.00,96.11,230.00,11.00,0.01,29.91,1013.50,10.00,20.00,FEW,BKN,OVC,M,2600.00,3400.00,9000.00,M,M,M,M,M,M,M,M,27.52,KEKO 142356Z AUTO 23011G20KT 10SM FEW026 BKN034 OVC090 02/02 A2991 RMK AO2 UPB39E40SNB04E39B40E41 SLP135 P0001 60006 T00220017 10050 20017 53026,M
WMC,2025-02-14 23:56,-117.8072,40.9019,1315.00,42.00,31.00,64.75,280.00,14.00,0.00,29.98,1015.00,10.00,24.00,FEW,BKN,M,M,4800.00,6500.00,M,M,M,M,M,M,26.00,280.00,2025-02-14 23:15,34.05,KWMC 142356Z AUTO 28014G24KT 10SM FEW048 BKN065 06/M01 A2998 RMK AO2 PK WND 28026/2315 SLP150 60000 T00561006 10067 20044 53028,M
HND,2025-02-14 23:56,-115.1344,35.9729,742.79,60.00,36.00,40.61,230.00,14.00,0.00,29.89,1013.20,10.00,M,CLR,M,M,M,M,M,M,M,M,M,M,M,M,M,M,60.00,KHND 142356Z 23014KT 10SM CLR 16/02 A2989 RMK AO2 SLP132 T01560022 10156 20122 56005 $,M
TPH,2025-02-14 23:56,-117.0904,38.0505,1654.00,41.00,24.00,50.46,320.00,22.00,0.00,29.96,1014.00,10.00,32.00,CLR,M,M,M,M,M,M,M,M,M,M,M,37.00,330.00,2025-02-14 23:40,30.63,KTPH 142356Z AUTO 32022G32KT 10SM CLR 05/M04 A2996 RMK AO2 PK WND 33037/2340 SLP140 60006 T00501044 10083 20033 53021,M
LAS,2025-02-14 23:56,-115.1634,36.0719,663.00,61.00,33.00,34.77,240.00,16.00,0.00,29.87,1010.80,10.00,23.00,FEW,SCT,SCT,M,6000.00,12000.00,20000.00,M,M,M,M,M,M,M,M,61.00,KLAS 142356Z 24016G23KT 10SM FEW060 SCT120 SCT200 16/01 A2987 RMK AO2 SLP108 VCSH NW-NE T01610006 10167 20133 56005,M
NFL,2025-02-14 23:57,-118.7010,39.4166,1199.00,46.00,26.00,45.29,300.00,18.00,0.00,30.03,1013.80,10.00,25.00,SCT,BKN,BKN,BKN,3000.00,5000.00,10000.00,25000.00,M,M,M,M,29.00,290.00,2025-02-14 22:58,38.18,KNFL 142357Z 30018G25KT 10SM SCT030 BKN050 BKN100 BKN250 08/M03 A3003 RMK AO2 PK WND 29029/2258 SLP138 SH VC N-NE T00781033 10094 20078 53024,M
