station,valid,lon,lat,elevation,tmpf,dwpf,relh,drct,sknt,p01i,alti,mslp,vsby,gust,skyc1,skyc2,skyc3,skyc4,skyl1,skyl2,skyl3,skyl4,wxcodes,ice_accretion_1hr,ice_accretion_3hr,ice_accretion_6hr,peak_wind_gust,peak_wind_drct,peak_wind_time,feel,metar,snowdepth
TPH,2022-08-26 00:03,-117.0904,38.0505,1654.00,80.00,46.00,30.11,110.00,23.00,T,30.16,M,10.00,34.00,SCT,M,M,M,10000.00,M,M,M,-RA,M,M,M,34.00,100.00,2022-08-26 00:01,79.26,KTPH 260003Z AUTO 11023G34KT 10SM -RA SCT100 27/08 A3016 RMK AO2 PK WND 10034/0001 LTG DSNT SE RAB2358 P0000 T02670078,M
BAM,2022-08-26 00:15,-116.8743,40.5990,1382.36,96.80,32.00,10.27,230.00,7.00,0.00,30.04,M,10.00,M,CLR,M,M,M,M,M,M,M,M,M,M,M,M,M,M,91.19,KBAM 260015Z AUTO 23007KT 10SM CLR 36/00 A3004 RMK AO1,M
RTS,2022-08-26 00:15,-119.8764,39.6682,1539.00,89.60,24.80,9.56,250.00,15.00,0.00,30.13,M,10.00,20.00,CLR,M,M,M,M,M,M,M,M,M,M,M,M,M,M,84.88,KRTS 260015Z AUTO 25015G20KT 10SM CLR 32/M04 A3013 RMK AO2,M
TMT,2022-08-26 00:15,-117.1971,39.4643,1749.34,M,M,M,10.00,7.00,0.00,30.14,M,10.00,M,CLR,M,M,M,M,M,M,M,M,M,M,M,M,M,M,M,KTMT 260015Z AUTO 01007KT 10SM CLR A3014 RMK AO2,M
MEV,2022-08-26 00:15,-119.7500,38.9963,1441.42,91.40,32.00,12.14,270.00,14.00,0.00,30.09,M,10.00,22.00,CLR,M,M,M,M,M,M,M,M,M,M,M,M,M,M,86.91,KMEV 260015Z AUTO 27014G22KT 10SM CLR 33/M00 A3009 RMK AO2,M
HTH,2022-08-26 00:15,-118.6315,38.5448,1282.89,93.20,28.40,9.91,320.00,10.00,0.00,30.01,M,10.00,M,CLR,M,M,M,M,M,M,M,M,M,M,M,M,M,M,87.89,KHTH 260015Z AUTO 32010KT 10SM CLR 34/M02 A3001 RMK A01,M
CXP,2022-08-26 00:15,-119.7326,39.1923,1431.00,89.60,28.40,11.09,270.00,9.00,0.00,30.11,M,10.00,21.00,CLR,M,M,M,M,M,M,M,M,M,M,M,M,M,M,85.17,KCXP 260015Z AUTO 27009G21KT 10SM CLR 32/M02 A3011 RMK AO2,M
BVU,2022-08-26 00:15,-114.8611,35.9475,671.00,95.00,50.00,21.79,50.00,4.00,0.00,29.93,M,M,M,M,M,M,M,M,M,M,M,M,M,M,M,M,M,M,91.89,KBVU 260015Z AUTO 05004KT 35/10 A2993 RMK AO2 PWINO TSNO,M
LSV,2022-08-26 00:25,-115.0343,36.2362,570.00,100.40,53.60,21.11,M,3.00,0.00,M,1009.90,10.00,M,CLR,M,M,M,M,M,M,M,M,M,M,M,M,M,M,98.44,KLSV 260025Z VRB03KT 10SM CLR 38/12 A2990 RMKA02A LTG DSNT N NW SLP099 $,M
CXP,2022-08-26 00:35,-119.7326,39.1923,1431.00,89.60,28.40,11.09,270.00,13.00,0.00,30.11,M,10.00,20.00,CLR,M,M,M,M,M,M,M,M,M,M,M,M,M,M,85.17,KCXP 260035Z AUTO 27013G20KT 10SM CLR 32/M02 A3011 RMK AO2,M
BVU,2022-08-26 00:35,-114.8611,35.9475,671.00,95.00,50.00,21.79,0.00,0.00,0.00,29.93,M,M,M,M,M,M,M,M,M,M,M,M,M,M,M,M,M,M,91.89,KBVU 260035Z AUTO 00000KT 35/10 A2993 RMK AO2 PWINO TSNO,M
RTS,2022-08-26 00:35,-119.8764,39.6682,1539.00,89.60,24.80,9.56,250.00,16.00,0.00,30.13,M,10.00,M,CLR,M,M,M,M,M,M,M,M,M,M,M,M,M,M,84.88,KRTS 260035Z AUTO 25016KT 10SM CLR 32/M04 A3013 RMK AO2,M
MEV,2022-08-26 00:35,-119.7500,38.9963,1441.42,89.60,30.20,11.94,280.00,12.00,0.00,30.10,M,10.00,20.00,CLR,M,M,M,M,M,M,M,M,M,M,M,M,M,M,85.34,KMEV 260035Z AUTO 28012G20KT 10SM CLR 32/M01 A3010 RMK AO2,M
BAM,2022-08-26 00:35,-116.8743,40.5990,1382.36,96.80,32.00,10.27,250.00,11.00,0.00,30.04,M,10.00,M,CLR,M,M,M,M,M,M,M,M,M,M,M,M,M,M,91.19,KBAM 260035Z AUTO 25011KT 10SM CLR 36/00 A3004 RMK AO1,M
HTH,2022-08-26 00:35,-118.6315,38.5448,1282.89,93.20,28.40,9.91,330.00,9.00,0.00,30.01,M,10.00,M,CLR,M,M,M,M,M,M,M,M,M,M,M,M,M,M,87.89,KHTH 260035Z AUTO 33009KT 10SM CLR 34/M02 A3001 RMK A01,M
TMT,2022-08-26 00:35,-117.1971,39.4643,1749.34,M,M,M,330.00,6.00,0.00,30.15,M,10.00,M,CLR,M,M,M,M,M,M,M,M,M,M,M,M,M,M,M,KTMT 260035Z AUTO 33006KT 10SM CLR A3015 RMK AO2,M
LOL,2022-08-26 00:53,-118.5701,40.0684,1192.43,97.00,21.90,6.73,300.00,11.00,0.00,29.98,1011.30,10.00,16.00,CLR,M,M,M,M,M,M,M,M,M,M,M,M,M,M,90.33,KLOL 260053Z AUTO 30011G16KT 10SM CLR 36/M06 A2998 RMK AO2 SLP113 T03611056,M
VGT,2022-08-26 00:53,-115.1933,36.2111,667.00,97.00,53.00,22.98,0.00,0.00,0.00,29.92,1011.70,10.00,M,CLR,M,M,M,M,M,M,M,M,M,M,M,M,M,M,94.67,KVGT 260053Z 00000KT 10SM CLR 36/12 A2992 RMK AO2 LTG DSNT N SLP117 T03610117,M
DRA,2022-08-26 00:53,-116.0278,36.6206,1009.00,91.00,56.00,30.65,180.00,14.00,0.00,30.00,1010.90,10.00,21.00,CLR,M,M,M,M,M,M,M,M,M,M,M,31.00,50.00,2022-08-25 23:55,89.27,KDRA 260053Z AUTO 18014G21KT 10SM CLR 33/13 A3000 RMK AO2 PK WND 05031/2355 SLP109 T03280133,M
P68,2022-08-26 00:53,-116.0056,39.6014,1993.00,86.00,30.90,13.77,M,5.00,0.00,30.13,1011.50,M,M,M,M,M,M,M,M,M,M,M,M,M,M,M,M,M,82.64,KP68 260053Z AUTO VRB05KT 30/M01 A3013 RMK AO1 SLP115 T03001006,M
ELY,2022-08-26 00:53,-114.8453,39.2950,1909.00,69.00,48.00,46.92,180.00,14.00,0.00,30.25,1015.20,10.00,M,CLR,M,M,M,M,M,M,M,M,M,M,M,M,M,M,69.10,KELY 260053Z AUTO 18014KT 10SM CLR 21/09 A3025 RMK AO2 SLP152 T02060089,M
BVU,2022-08-26 00:55,-114.8611,35.9475,671.00,95.00,50.00,21.79,130.00,4.00,0.00,29.93,M,M,M,M,M,M,M,M,M,M,M,M,M,M,M,M,M,M,91.89,KBVU 260055Z AUTO 13004KT 35/10 A2993 RMK AO2 PWINO TSNO,M
LSV,2022-08-26 00:55,-115.0343,36.2362,570.00,99.00,53.40,21.86,0.00,0.00,0.00,29.89,1009.50,10.00,M,CLR,M,M,M,M,M,M,M,M,M,M,M,M,M,M,96.88,KLSV 260055Z AUTO 00000KT 10SM CLR 37/12 A2989 RMK AO2 SLP095 T03720119 $,M
CXP,2022-08-26 00:55,-119.7326,39.1923,1431.00,89.60,28.40,11.09,250.00,9.00,0.00,30.11,M,10.00,21.00,CLR,M,M,M,M,M,M,M,M,M,M,M,M,M,M,85.17,KCXP 260055Z AUTO 25009G21KT 10SM CLR 32/M02 A3011 RMK AO2,M
RNO,2022-08-26 00:55,-119.7711,39.4839,1341.00,93.00,32.00,11.55,300.00,18.00,0.00,30.06,1011.80,10.00,23.00,FEW,M,M,M,10000.00,M,M,M,M,M,M,M,26.00,280.00,2022-08-25 23:59,88.15,KRNO 260055Z 30018G23KT 10SM FEW100 34/00 A3006 RMK AO2 PK WND 28026/2359 SLP118 T03390000,M
RTS,2022-08-26 00:55,-119.8764,39.6682,1539.00,87.80,24.80,10.12,250.00,13.00,0.00,30.13,M,10.00,19.00,CLR,M,M,M,M,M,M,M,M,M,M,M,M,M,M,83.56,KRTS 260055Z AUTO 25013G19KT 10SM CLR 31/M04 A3013 RMK AO2,M
MEV,2022-08-26 00:55,-119.7500,38.9963,1441.42,89.60,30.20,11.94,260.00,13.00,0.00,30.10,M,10.00,M,CLR,M,M,M,M,M,M,M,M,M,M,M,M,M,M,85.34,KMEV 260055Z AUTO 26013KT 10SM CLR 32/M01 A3010 RMK AO2,M
HTH,2022-08-26 00:55,-118.6315,38.5448,1282.89,95.00,28.40,9.38,320.00,8.00,0.00,30.01,M,10.00,M,CLR,M,M,M,M,M,M,M,M,M,M,M,M,M,M,89.27,KHTH 260055Z AUTO 32008KT 10SM CLR 35/M02 A3001 RMK A01,M
BAM,2022-08-26 00:55,-116.8743,40.5990,1382.36,95.00,32.00,10.85,260.00,10.00,0.00,30.04,M,10.00,15.00,CLR,M,M,M,M,M,M,M,M,M,M,M,M,M,M,89.71,KBAM 260055Z AUTO 26010G15KT 10SM CLR 35/00 A3004 RMK AO1,M
TMT,2022-08-26 00:55,-117.1971,39.4643,1749.34,M,M,M,340.00,10.00,0.00,30.15,M,10.00,M,CLR,M,M,M,M,M,M,M,M,M,M,M,M,M,M,M,KTMT 260055Z AUTO 34010KT 10SM CLR A3015 RMK AO2 LTG DSNT S,M
INS,2022-08-26 00:55,-115.6733,36.5872,955.00,88.00,50.70,27.84,30.00,22.00,0.00,29.99,1010.80,10.00,M,SCT,M,M,M,13000.00,M,M,M,M,M,M,M,M,M,M,85.38,KINS 260055Z AUTO 03022KT 10SM SCT130 31/10 A2999 RMK AO2 SLP108 T03110104 $,M
EKO,2022-08-26 00:56,-115.7860,40.8242,1367.00,86.00,27.00,11.74,280.00,9.00,0.00,30.06,1012.90,10.00,M,CLR,M,M,M,M,M,M,M,M,M,M,M,M,M,M,82.42,KEKO 260056Z AUTO 28009KT 10SM CLR 30/M03 A3006 RMK AO2 SLP129 T03001028,M
WMC,2022-08-26 00:56,-117.8072,40.9019,1315.00,95.00,21.00,6.89,290.00,12.00,0.00,30.02,1011.50,10.00,18.00,CLR,M,M,M,M,M,M,M,M,M,M,M,M,M,M,88.61,KWMC 260056Z AUTO 29012G18KT 10SM CLR 35/M06 A3002 RMK AO2 SLP115 T03501061,M
LAS,2022-08-26 00:56,-115.1634,36.0719,663.00,93.00,56.00,28.79,200.00,7.00,0.00,29.93,1010.70,10.00,19.00,FEW,FEW,BKN,M,11000.00,15000.00,22000.00,M,M,M,M,M,M,M,M,91.29,KLAS 260056Z 20007G19KT 10SM FEW110 FEW150 BKN220 34/13 A2993 RMK AO2 SLP107 CB DSNT NW-N T03390133,M
NFL,2022-08-26 00:56,-118.7010,39.4166,1199.00,97.00,25.00,7.66,340.00,9.00,0.00,29.98,1012.30,10.00,M,SCT,M,M,M,8000.00,M,M,M,M,M,M,M,M,M,M,90.58,KNFL 260056Z 34009KT 10SM SCT080 36/M04 A2998 RMK AO2 SLP123 T03611039,M
TPH,2022-08-26 00:56,-117.0904,38.0505,1654.00,77.00,48.00,35.95,120.00,17.00,T,30.20,1015.30,10.00,M,CLR,M,M,M,M,M,M,M,M,M,M,M,34.00,100.00,2022-08-26 00:01,77.00,KTPH 260056Z AUTO 12017KT 10SM CLR 25/09 A3020 RMK AO2 PK WND 10034/0001 LTG DSNT SE RAB2358E14 PRESRR SLP153 P0000 T02500089,M
MEV,2022-08-26 01:15,-119.7500,38.9963,1441.42,87.80,32.00,13.59,270.00,12.00,0.00,30.10,M,10.00,M,CLR,M,M,M,M,M,M,M,M,M,M,M,M,M,M,84.08,KMEV 260115Z AUTO 27012KT 10SM CLR 31/00 A3010 RMK AO2,M
BAM,2022-08-26 01:15,-116.8743,40.5990,1382.36,95.00,30.20,10.09,270.00,8.00,0.00,30.04,M,10.00,M,CLR,M,M,M,M,M,M,M,M,M,M,M,M,M,M,89.48,KBAM 260115Z AUTO 27008KT 230V290 10SM CLR 35/M01 A3004 RMK AO1,M
HTH,2022-08-26 01:15,-118.6315,38.5448,1282.89,95.00,28.40,9.38,310.00,6.00,0.00,30.01,M,10.00,M,CLR,M,M,M,M,M,M,M,M,M,M,M,M,M,M,89.27,KHTH 260115Z AUTO 31006KT 10SM CLR 35/M02 A3001 RMK A01,M
TMT,2022-08-26 01:15,-117.1971,39.4643,1749.34,M,M,M,340.00,5.00,0.00,30.15,M,10.00,M,CLR,M,M,M,M,M,M,M,M,M,M,M,M,M,M,M,KTMT 260115Z AUTO 34005KT 10SM CLR A3015 RMK AO2,M
BVU,2022-08-26 01:15,-114.8611,35.9475,671.00,95.00,53.60,24.89,230.00,8.00,0.00,29.92,M,M,M,M,M,M,M,M,M,M,M,M,M,M,M,M,M,M,92.71,KBVU 260115Z AUTO 23008KT 35/12 A2992 RMK AO2 PWINO TSNO,M
CXP,2022-08-26 01:15,-119.7326,39.1923,1431.00,87.80,28.40,11.74,250.00,9.00,0.00,30.11,M,10.00,22.00,CLR,M,M,M,M,M,M,M,M,M,M,M,M,M,M,83.84,KCXP 260115Z AUTO 25009G22KT 10SM CLR 31/M02 A3011 RMK AO2,M
RTS,2022-08-26 01:15,-119.8764,39.6682,1539.00,87.80,24.80,10.12,250.00,11.00,0.00,30.14,M,10.00,M,CLR,M,M,M,M,M,M,M,M,M,M,M,M,M,M,83.56,KRTS 260115Z AUTO 25011KT 10SM CLR 31/M04 A3014 RMK AO2,M
HTH,2022-08-26 01:35,-118.6315,38.5448,1282.89,93.20,28.40,9.91,300.00,6.00,0.00,30.01,M,10.00,M,CLR,M,M,M,M,M,M,M,M,M,M,M,M,M,M,87.89,KHTH 260135Z AUTO 30006KT 10SM CLR 34/M02 A3001 RMK A01,M
TMT,2022-08-26 01:35,-117.1971,39.4643,1749.34,M,M,M,280.00,6.00,0.00,30.15,M,10.00,M,CLR,M,M,M,M,M,M,M,M,M,M,M,M,M,M,M,KTMT 260135Z AUTO 28006KT 10SM CLR A3015 RMK AO2,M
BVU,2022-08-26 01:35,-114.8611,35.9475,671.00,93.20,57.20,29.99,200.00,6.00,0.00,29.92,M,M,M,M,M,M,M,M,M,M,M,M,M,M,M,M,M,M,91.91,KBVU 260135Z AUTO 20006KT 34/14 A2992 RMK AO2 PWINO TSNO,M
CXP,2022-08-26 01:35,-119.7326,39.1923,1431.00,87.80,28.40,11.74,260.00,8.00,0.00,30.11,M,10.00,17.00,CLR,M,M,M,M,M,M,M,M,M,M,M,M,M,M,83.84,KCXP 260135Z AUTO 26008G17KT 10SM CLR 31/M02 A3011 RMK AO2,M
RTS,2022-08-26 01:35,-119.8764,39.6682,1539.00,86.00,23.00,9.94,270.00,15.00,0.00,30.14,M,10.00,M,CLR,M,M,M,M,M,M,M,M,M,M,M,M,M,M,82.14,KRTS 260135Z AUTO 27015KT 10SM CLR 30/M05 A3014 RMK AO2,M
MEV,2022-08-26 01:35,-119.7500,38.9963,1441.42,86.00,32.00,14.40,260.00,12.00,0.00,30.10,M,10.00,M,CLR,M,M,M,M,M,M,M,M,M,M,M,M,M,M,82.64,KMEV 260135Z AUTO 26012KT 10SM CLR 30/00 A3010 RMK AO2,M
BAM,2022-08-26 01:35,-116.8743,40.5990,1382.36,93.20,30.20,10.67,270.00,8.00,0.00,30.04,M,10.00,M,CLR,M,M,M,M,M,M,M,M,M,M,M,M,M,M,88.09,KBAM 260135Z AUTO 27008KT 10SM CLR 34/M01 A3004 RMK AO1,M
VGT,2022-08-26 01:53,-115.1933,36.2111,667.00,96.00,53.00,23.62,180.00,5.00,0.00,29.91,1011.60,10.00,M,CLR,M,M,M,M,M,M,M,M,M,M,M,M,M,M,93.72,KVGT 260153Z 18005KT 10SM CLR 36/12 A2991 RMK AO2 LTG DSNT N AND W SLP116 T03560117,M
P68,2022-08-26 01:53,-116.0056,39.6014,1993.00,78.00,46.00,32.15,120.00,15.00,0.00,30.15,1013.00,M,22.00,M,M,M,M,M,M,M,M,M,M,M,M,M,M,M,78.10,KP68 260153Z AUTO 12015G22KT 26/08 A3015 RMK AO1 SLP130 T02560078,M
DRA,2022-08-26 01:53,-116.0278,36.6206,1009.00,89.00,52.00,28.21,130.00,9.00,0.00,30.01,1011.20,10.00,M,CLR,M,M,M,M,M,M,M,M,M,M,M,M,M,M,86.58,KDRA 260153Z AUTO 13009KT 10SM CLR 32/11 A3001 RMK AO2 SLP112 T03170111,M
ELY,2022-08-26 01:53,-114.8453,39.2950,1909.00,66.00,48.00,52.22,150.00,18.00,0.00,30.27,1016.30,10.00,26.00,CLR,M,M,M,M,M,M,M,M,M,M,M,27.00,150.00,2022-08-26 01:20,66.00,KELY 260153Z AUTO 15018G26KT 10SM CLR 19/09 A3027 RMK AO2 PK WND 15027/0120 SLP163 T01890089,M
LOL,2022-08-26 01:53,-118.5701,40.0684,1192.43,94.00,23.00,7.75,330.00,12.00,0.00,29.99,1011.30,10.00,M,CLR,M,M,M,M,M,M,M,M,M,M,M,M,M,M,87.94,KLOL 260153Z AUTO 33012KT 10SM CLR 34/M05 A2999 RMK AO2 SLP113 T03441050,M
MEV,2022-08-26 01:55,-119.7500,38.9963,1441.42,84.20,32.00,15.25,260.00,10.00,0.00,30.11,M,10.00,16.00,CLR,M,M,M,M,M,M,M,M,M,M,M,M,M,M,81.28,KMEV 260155Z AUTO 26010G16KT 10SM CLR 29/00 A3011 RMK AO2,M
BAM,2022-08-26 01:55,-116.8743,40.5990,1382.36,91.40,30.20,11.28,290.00,9.00,0.00,30.04,M,10.00,M,CLR,M,M,M,M,M,M,M,M,M,M,M,M,M,M,86.71,KBAM 260155Z AUTO 29009KT 10SM CLR 33/M01 A3004 RMK AO1,M
HTH,2022-08-26 01:55,-118.6315,38.5448,1282.89,93.20,28.40,9.91,290.00,6.00,0.00,30.01,M,10.00,M,CLR,M,M,M,M,M,M,M,M,M,M,M,M,M,M,87.89,KHTH 260155Z AUTO 29006KT 10SM CLR 34/M02 A3001 RMK A01,M
TMT,2022-08-26 01:55,-117.1971,39.4643,1749.34,M,M,M,330.00,8.00,0.00,30.16,M,10.00,25.00,SCT,SCT,M,M,10000.00,12000.00,M,M,M,M,M,M,M,M,M,M,KTMT 260155Z AUTO 33008G25KT 310V010 10SM SCT100 SCT120 A3016 RMK AO2,M
LSV,2022-08-26 01:55,-115.0343,36.2362,570.00,97.20,54.30,23.87,210.00,7.00,0.00,29.89,1009.60,10.00,M,FEW,M,M,M,23000.00,M,M,M,M,M,M,M,M,M,M,95.22,KLSV 260155Z AUTO 21007KT 10SM FEW230 36/12 A2989 RMK AO2 SLP096 T03620124 $,M
RNO,2022-08-26 01:55,-119.7711,39.4839,1341.00,90.00,33.00,13.26,300.00,15.00,0.00,30.06,1012.20,10.00,23.00,CLR,M,M,M,M,M,M,M,M,M,M,M,M,M,M,85.92,KRNO 260155Z 30015G23KT 10SM CLR 32/01 A3006 RMK AO2 SLP122 T03220006,M
INS,2022-08-26 01:55,-115.6733,36.5872,955.00,88.50,47.00,23.95,30.00,4.00,0.00,29.99,1010.60,10.00,M,SCT,M,M,M,17000.00,M,M,M,M,M,M,M,M,M,M,85.35,KINS 260155Z AUTO 03004KT 10SM SCT170 31/08 A2999 RMK AO2 SLP106 T03140084 $,M
CXP,2022-08-26 01:55,-119.7326,39.1923,1431.00,86.00,26.60,11.55,280.00,10.00,0.00,30.11,M,10.00,19.00,CLR,M,M,M,M,M,M,M,M,M,M,M,M,M,M,82.39,KCXP 260155Z AUTO 28010G19KT 10SM CLR 30/M03 A3011 RMK AO2,M
BVU,2022-08-26 01:55,-114.8611,35.9475,671.00,93.20,57.20,29.99,200.00,4.00,0.00,29.92,M,M,M,M,M,M,M,M,M,M,M,M,M,M,M,M,M,M,91.91,KBVU 260155Z AUTO 20004KT 34/14 A2992 RMK AO2 PWINO TSNO,M
RTS,2022-08-26 01:55,-119.8764,39.6682,1539.00,84.20,23.00,10.53,280.00,13.00,0.00,30.14,M,10.00,18.00,CLR,M,M,M,M,M,M,M,M,M,M,M,M,M,M,80.88,KRTS 260155Z AUTO 28013G18KT 10SM CLR 29/M05 A3014 RMK AO2,M
NFL,2022-08-26 01:56,-118.7010,39.4166,1199.00,94.00,28.00,9.54,300.00,10.00,0.00,29.98,1012.40,10.00,M,SCT,M,M,M,8000.00,M,M,M,M,M,M,M,M,M,M,88.39,KNFL 260156Z 30010KT 10SM SCT080 34/M02 A2998 RMK AO2 SLP124 T03441022,M
TPH,2022-08-26 01:56,-117.0904,38.0505,1654.00,76.00,48.00,37.29,140.00,18.00,T,30.17,1014.40,10.00,25.00,SCT,M,M,M,11000.00,M,M,M,M,M,M,M,27.00,110.00,2022-08-26 01:25,75.90,KTPH 260156Z AUTO 14018G25KT 10SM SCT110 24/09 A3017 RMK AO2 PK WND 11027/0125 LTG DSNT SW RAB20E35 SLP144 P0000 T02440089,M
EKO,2022-08-26 01:56,-115.7860,40.8242,1367.00,82.00,27.00,13.36,310.00,7.00,0.00,30.06,1013.10,10.00,M,CLR,M,M,M,M,M,M,M,M,M,M,M,M,M,M,79.64,KEKO 260156Z AUTO 31007KT 10SM CLR 28/M03 A3006 RMK AO2 SLP131 T02781028,M
LAS,2022-08-26 01:56,-115.1634,36.0719,663.00,94.00,56.00,28.00,0.00,0.00,0.00,29.93,1010.60,10.00,M,FEW,SCT,BKN,M,11000.00,15000.00,22000.00,M,M,M,M,M,M,M,M,92.22,KLAS 260156Z 00000KT 10SM FEW110 SCT150 BKN220 34/13 A2993 RMK AO2 SLP106 T03440133,M
WMC,2022-08-26 01:56,-117.8072,40.9019,1315.00,91.00,19.00,7.16,300.00,8.00,0.00,30.02,1011.70,10.00,M,CLR,M,M,M,M,M,M,M,M,M,M,M,M,M,M,85.54,KWMC 260156Z AUTO 30008KT 10SM CLR 33/M07 A3002 RMK AO2 SLP117 T03281072,M
RTS,2022-08-26 02:15,-119.8764,39.6682,1539.00,82.40,24.80,12.03,250.00,13.00,0.00,30.14,M,10.00,M,CLR,M,M,M,M,M,M,M,M,M,M,M,M,M,M,79.79,KRTS 260215Z AUTO 25013KT 10SM CLR 28/M04 A3014 RMK AO2,M
BVU,2022-08-26 02:15,-114.8611,35.9475,671.00,93.20,57.20,29.99,0.00,0.00,0.00,29.93,M,M,M,M,M,M,M,M,M,M,M,M,M,M,M,M,M,M,91.91,KBVU 260215Z AUTO 00000KT 34/14 A2993 RMK AO2 PWINO TSNO,M
CXP,2022-08-26 02:15,-119.7326,39.1923,1431.00,84.20,28.40,13.18,250.00,7.00,0.00,30.11,M,10.00,12.00,CLR,M,M,M,M,M,M,M,M,M,M,M,M,M,M,81.25,KCXP 260215Z AUTO 25007G12KT 220V280 10SM CLR 29/M02 A3011 RMK AO2,M
MEV,2022-08-26 02:15,-119.7500,38.9963,1441.42,82.40,33.80,17.38,220.00,9.00,0.00,30.11,M,10.00,M,CLR,M,M,M,M,M,M,M,M,M,M,M,M,M,M,80.03,KMEV 260215Z AUTO 22009KT 10SM CLR 28/01 A3011 RMK AO2,M
BAM,2022-08-26 02:15,-116.8743,40.5990,1382.36,89.60,30.20,11.94,310.00,7.00,0.00,30.04,M,10.00,M,CLR,M,M,M,M,M,M,M,M,M,M,M,M,M,M,85.34,KBAM 260215Z AUTO 31007KT 10SM CLR 32/M01 A3004 RMK AO1,M
HTH,2022-08-26 02:15,-118.6315,38.5448,1282.89,91.40,30.20,11.28,290.00,6.00,0.00,30.01,M,10.00,M,CLR,M,M,M,M,M,M,M,M,M,M,M,M,M,M,86.71,KHTH 260215Z AUTO 29006KT 10SM CLR 33/M01 A3001 RMK A01,M
TMT,2022-08-26 02:15,-117.1971,39.4643,1749.34,M,M,M,0.00,0.00,0.00,30.15,M,10.00,M,SCT,SCT,SCT,M,2700.00,6000.00,8000.00,M,M,M,M,M,M,M,M,M,KTMT 260215Z AUTO 00000KT 10SM SCT027 SCT060 SCT080 A3015 RMK AO2,M
TMT,2022-08-26 02:30,-117.1971,39.4643,1749.34,M,M,M,330.00,5.00,0.00,30.16,M,10.00,M,CLR,M,M,M,M,M,M,M,M,M,M,M,M,M,M,M,KTMT 260230Z AUTO 33005KT 10SM CLR A3016 RMK AO2,M
CXP,2022-08-26 02:30,-119.7326,39.1923,1431.00,84.20,30.20,14.18,250.00,5.00,0.00,30.12,M,10.00,M,CLR,M,M,M,M,M,M,M,M,M,M,M,M,M,M,81.26,KCXP 260230Z AUTO 25005KT 10SM CLR 29/M01 A3012 RMK AO2,M
MEV,2022-08-26 02:35,-119.7500,38.9963,1441.42,80.60,32.00,17.14,260.00,9.00,0.00,30.12,M,10.00,15.00,CLR,M,M,M,M,M,M,M,M,M,M,M,M,M,M,78.82,KMEV 260235Z AUTO 26009G15KT 10SM CLR 27/00 A3012 RMK AO2,M
BAM,2022-08-26 02:35,-116.8743,40.5990,1382.36,86.00,30.20,13.38,300.00,5.00,0.00,30.05,M,10.00,M,CLR,M,M,M,M,M,M,M,M,M,M,M,M,M,M,82.64,KBAM 260235Z AUTO 30005KT 10SM CLR 30/M01 A3005 RMK AO1,M
HTH,2022-08-26 02:35,-118.6315,38.5448,1282.89,89.60,32.00,12.84,350.00,11.00,0.00,30.02,M,10.00,M,CLR,M,M,M,M,M,M,M,M,M,M,M,M,M,M,85.54,KHTH 260235Z AUTO 35011KT 10SM CLR 32/M00 A3002 RMK A01,M
BVU,2022-08-26 02:35,-114.8611,35.9475,671.00,91.40,57.20,31.72,0.00,0.00,0.00,29.94,M,M,M,M,M,M,M,M,M,M,M,M,M,M,M,M,M,M,90.06,KBVU 260235Z AUTO 00000KT 33/14 A2994 RMK AO2 PWINO TSNO,M
RTS,2022-08-26 02:35,-119.8764,39.6682,1539.00,80.60,24.80,12.76,270.00,10.00,0.00,30.15,M,10.00,17.00,CLR,M,M,M,M,M,M,M,M,M,M,M,M,M,M,78.94,KRTS 260235Z AUTO 27010G17KT 10SM CLR 27/M04 A3015 RMK AO2,M
P68,2022-08-26 02:53,-116.0056,39.6014,1993.00,74.00,43.00,32.98,160.00,24.00,0.00,30.18,1013.30,M,33.00,M,M,M,M,M,M,M,M,M,M,M,M,33.00,170.00,2022-08-26 02:41,73.90,KP68 260253Z AUTO 16024G33KT 23/06 A3018 RMK AO1 PK WND 17033/0241 SLP133 T02330061 53012,M
LOL,2022-08-26 02:53,-118.5701,40.0684,1192.43,87.00,25.00,10.43,310.00,8.00,0.00,30.00,1011.60,10.00,M,CLR,M,M,M,M,M,M,M,M,M,M,M,M,M,M,83.06,KLOL 260253Z AUTO 31008KT 10SM CLR 31/M04 A3000 RMK AO2 SLP116 T03061039 53002,M
ELY,2022-08-26 02:53,-114.8453,39.2950,1909.00,62.00,49.00,61.91,200.00,12.00,0.00,30.28,1016.70,10.00,22.00,CLR,M,M,M,M,M,M,M,M,M,M,M,30.00,140.00,2022-08-26 02:32,62.10,KELY 260253Z AUTO 20012G22KT 10SM CLR 17/09 A3028 RMK AO2 PK WND 14030/0232 SLP167 T01670094 53006,M
DRA,2022-08-26 02:53,-116.0278,36.6206,1009.00,83.00,53.00,35.81,300.00,12.00,0.00,30.07,1013.40,10.00,19.00,BKN,M,M,M,9500.00,M,M,M,M,M,M,M,28.00,290.00,2022-08-26 02:26,81.73,KDRA 260253Z AUTO 30012G19KT 10SM BKN095 28/12 A3007 RMK AO2 PK WND 29028/0226 SLP134 T02830117 53022,M
VGT,2022-08-26 02:53,-115.1933,36.2111,667.00,95.00,55.00,26.19,200.00,3.00,0.00,29.93,1012.40,10.00,M,CLR,M,M,M,M,M,M,M,M,M,M,M,M,M,M,93.10,KVGT 260253Z 20003KT 10SM CLR 35/13 A2993 RMK AO2 SLP124 T03500128 53004,M
BAM,2022-08-26 02:55,-116.8743,40.5990,1382.36,86.00,28.40,12.44,340.00,6.00,0.00,30.05,M,10.00,M,CLR,M,M,M,M,M,M,M,M,M,M,M,M,M,M,82.54,KBAM 260255Z AUTO 34006KT 10SM CLR 30/M02 A3005 RMK AO1,M
RNO,2022-08-26 02:55,-119.7711,39.4839,1341.00,86.00,32.00,14.40,280.00,15.00,0.00,30.07,1012.50,10.00,M,CLR,M,M,M,M,M,M,M,M,M,M,M,M,M,M,82.64,KRNO 260255Z 28015KT 10SM CLR 30/00 A3007 RMK AO2 SLP125 T03000000 53007,M
RTS,2022-08-26 02:55,-119.8764,39.6682,1539.00,78.80,24.80,13.54,270.00,11.00,0.00,30.15,M,10.00,M,CLR,M,M,M,M,M,M,M,M,M,M,M,M,M,M,78.80,KRTS 260255Z AUTO 27011KT 10SM CLR 26/M04 A3015 RMK AO2,M
MEV,2022-08-26 02:55,-119.7500,38.9963,1441.42,78.80,33.80,19.55,240.00,7.00,0.00,30.12,M,10.00,13.00,CLR,M,M,M,M,M,M,M,M,M,M,M,M,M,M,78.80,KMEV 260255Z AUTO 24007G13KT 10SM CLR 26/01 A3012 RMK AO2,M
HTH,2022-08-26 02:55,-118.6315,38.5448,1282.89,89.60,37.40,15.92,330.00,13.00,0.00,30.03,M,10.00,M,CLR,M,M,M,M,M,M,M,M,M,M,M,M,M,M,85.67,KHTH 260255Z AUTO 33013KT 10SM CLR 32/03 A3003 RMK A01,M
TMT,2022-08-26 02:55,-117.1971,39.4643,1749.34,M,M,M,340.00,7.00,0.00,30.16,M,10.00,M,CLR,M,M,M,M,M,M,M,M,M,M,M,M,M,M,M,KTMT 260255Z AUTO 34007KT 10SM CLR A3016 RMK AO2,M
LSV,2022-08-26 02:55,-115.0343,36.2362,570.00,94.30,55.00,26.77,180.00,4.00,0.00,29.91,1010.30,10.00,M,SCT,M,M,M,22000.00,M,M,M,M,M,M,M,M,M,M,92.37,KLSV 260255Z AUTO 18004KT 10SM SCT220 35/13 A2991 RMK AO2 SLP103 T03460128 53004 $,M
CXP,2022-08-26 02:55,-119.7326,39.1923,1431.00,82.40,33.80,17.38,260.00,8.00,0.00,30.13,M,10.00,M,CLR,M,M,M,M,M,M,M,M,M,M,M,M,M,M,80.03,KCXP 260255Z AUTO 26008KT 220V300 10SM CLR 28/01 A3013 RMK AO2,M
BVU,2022-08-26 02:55,-114.8611,35.9475,671.00,91.40,57.20,31.72,230.00,3.00,0.00,29.95,M,M,M,M,M,M,M,M,M,M,M,M,M,M,M,M,M,M,90.06,KBVU 260255Z AUTO 23003KT 33/14 A2995 RMK AO2 PWINO TSNO,M
INS,2022-08-26 02:55,-115.6733,36.5872,955.00,86.50,52.30,30.97,0.00,0.00,0.00,30.02,1011.60,10.00,M,FEW,M,M,M,18000.00,M,M,M,M,M,M,M,M,M,M,84.37,KINS 260255Z AUTO 00000KT 10SM FEW180 30/11 A3002 RMK AO2 SLP116 T03030113 53009 $,M
EKO,2022-08-26 02:56,-115.7860,40.8242,1367.00,76.00,26.10,15.73,330.00,6.00,0.00,30.07,1013.70,10.00,M,CLR,M,M,M,M,M,M,M,M,M,M,M,M,M,M,75.90,KEKO 260256Z AUTO 33006KT 10SM CLR 24/M03 A3007 RMK AO2 SLP137 T02441033 53003,M
NFL,2022-08-26 02:56,-118.7010,39.4166,1199.00,86.00,34.00,15.60,260.00,6.00,0.00,30.00,1013.00,10.00,M,SCT,SCT,M,M,8000.00,10000.00,M,M,M,M,M,M,M,M,M,82.66,KNFL 260256Z COR 26006KT 10SM SCT080 SCT100 30/01 A3000 RMK SLP130 T03000011 53006,M
WMC,2022-08-26 02:56,-117.8072,40.9019,1315.00,78.00,19.00,10.84,240.00,7.00,0.00,30.04,1012.50,10.00,M,CLR,M,M,M,M,M,M,M,M,M,M,M,M,M,M,78.10,KWMC 260256Z AUTO 24007KT 10SM CLR 26/M07 A3004 RMK AO2 SLP125 T02561072 53004,M
TPH,2022-08-26 02:56,-117.0904,38.0505,1654.00,74.00,48.00,39.87,190.00,16.00,0.00,30.18,1014.40,10.00,23.00,FEW,M,M,M,12000.00,M,M,M,M,M,M,M,26.00,160.00,2022-08-26 02:11,73.90,KTPH 260256Z AUTO 19016G23KT 10SM FEW120 23/09 A3018 RMK AO2 PK WND 16026/0211 SLP144 60000 T02330089 51006,M
LAS,2022-08-26 02:56,-115.1634,36.0719,663.00,92.00,56.00,29.80,160.00,3.00,0.00,29.95,1011.30,10.00,M,FEW,BKN,BKN,M,11000.00,15000.00,22000.00,M,M,M,M,M,M,M,M,90.17,KLAS 260256Z 16003KT 10SM FEW110 BKN150 BKN220 33/13 A2995 RMK AO2 SLP113 T03330133 53004,M
ELY,2022-08-26 03:01,-114.8453,39.2950,1909.00,61.00,50.00,67.06,200.00,13.00,0.00,30.28,M,10.00,M,CLR,M,M,M,M,M,M,M,M,M,M,M,M,M,M,61.00,KELY 260301Z AUTO 20013KT 10SM CLR 16/10 A3028 RMK AO2 WSHFT 0241 T01610100,M
MEV,2022-08-26 03:15,-119.7500,38.9963,1441.42,75.20,33.80,22.02,240.00,4.00,0.00,30.13,M,10.00,M,CLR,M,M,M,M,M,M,M,M,M,M,M,M,M,M,75.20,KMEV 260315Z AUTO 24004KT 10SM CLR 24/01 A3013 RMK AO2,M
TMT,2022-08-26 03:15,-117.1971,39.4643,1749.34,M,M,M,360.00,7.00,0.00,30.18,M,10.00,M,CLR,M,M,M,M,M,M,M,M,M,M,M,M,M,M,M,KTMT 260315Z AUTO 36007KT 10SM CLR A3018 RMK AO2,M
HTH,2022-08-26 03:15,-118.6315,38.5448,1282.89,87.80,32.00,13.59,350.00,14.00,0.00,30.04,M,10.00,M,CLR,M,M,M,M,M,M,M,M,M,M,M,M,M,M,84.08,KHTH 260315Z AUTO 35014KT 10SM CLR 31/00 A3004 RMK A01,M
BAM,2022-08-26 03:15,-116.8743,40.5990,1382.36,80.60,28.40,14.81,330.00,6.00,0.00,30.07,M,10.00,M,CLR,M,M,M,M,M,M,M,M,M,M,M,M,M,M,78.72,KBAM 260315Z AUTO 33006KT 10SM CLR 27/M02 A3007 RMK AO1,M
BVU,2022-08-26 03:15,-114.8611,35.9475,671.00,89.60,57.20,33.56,310.00,3.00,0.00,29.96,M,M,M,M,M,M,M,M,M,M,M,M,M,M,M,M,M,M,88.28,KBVU 260315Z AUTO 31003KT 32/14 A2996 RMK AO2 PWINO TSNO,M
CXP,2022-08-26 03:15,-119.7326,39.1923,1431.00,82.40,33.80,17.38,M,3.00,0.00,30.13,M,10.00,M,CLR,M,M,M,M,M,M,M,M,M,M,M,M,M,M,80.03,KCXP 260315Z AUTO VRB03KT 10SM CLR 28/01 A3013 RMK AO2,M
RTS,2022-08-26 03:15,-119.8764,39.6682,1539.00,75.20,24.80,15.25,290.00,8.00,0.00,30.16,M,10.00,M,CLR,M,M,M,M,M,M,M,M,M,M,M,M,M,M,75.20,KRTS 260315Z AUTO 29008KT 10SM CLR 24/M04 A3016 RMK AO2,M
BAM,2022-08-26 03:35,-116.8743,40.5990,1382.36,78.80,26.60,14.59,320.00,5.00,0.00,30.08,M,10.00,M,CLR,M,M,M,M,M,M,M,M,M,M,M,M,M,M,78.80,KBAM 260335Z AUTO 32005KT 10SM CLR 26/M03 A3008 RMK AO1,M
HTH,2022-08-26 03:35,-118.6315,38.5448,1282.89,87.80,32.00,13.59,350.00,14.00,0.00,30.05,M,10.00,20.00,CLR,M,M,M,M,M,M,M,M,M,M,M,M,M,M,84.08,KHTH 260335Z AUTO 35014G20KT 10SM CLR 31/00 A3005 RMK A01,M
TMT,2022-08-26 03:35,-117.1971,39.4643,1749.34,M,M,M,40.00,4.00,0.00,30.18,M,10.00,M,CLR,M,M,M,M,M,M,M,M,M,M,M,M,M,M,M,KTMT 260335Z AUTO 04004KT 10SM CLR A3018 RMK AO2,M
BVU,2022-08-26 03:35,-114.8611,35.9475,671.00,89.60,57.20,33.56,0.00,0.00,0.00,29.96,M,M,M,M,M,M,M,M,M,M,M,M,M,M,M,M,M,M,88.28,KBVU 260335Z AUTO 00000KT 32/14 A2996 RMK AO2 PWINO TSNO,M
CXP,2022-08-26 03:35,-119.7326,39.1923,1431.00,80.60,35.60,19.79,M,4.00,0.00,30.14,M,10.00,10.00,CLR,M,M,M,M,M,M,M,M,M,M,M,M,M,M,78.94,KCXP 260335Z AUTO VRB04G10KT 10SM CLR 27/02 A3014 RMK AO2,M
RTS,2022-08-26 03:35,-119.8764,39.6682,1539.00,75.20,24.80,15.25,270.00,8.00,0.00,30.17,M,10.00,M,CLR,M,M,M,M,M,M,M,M,M,M,M,M,M,M,75.20,KRTS 260335Z AUTO 27008KT 10SM CLR 24/M04 A3017 RMK AO2,M
MEV,2022-08-26 03:35,-119.7500,38.9963,1441.42,75.20,32.00,20.49,250.00,4.00,0.00,30.13,M,10.00,M,CLR,M,M,M,M,M,M,M,M,M,M,M,M,M,M,75.20,KMEV 260335Z AUTO 25004KT 10SM CLR 24/00 A3013 RMK AO2,M
INS,2022-08-26 03:37,-115.6733,36.5872,955.00,82.40,55.40,39.58,250.00,15.00,0.00,30.06,1013.00,10.00,M,FEW,SCT,M,M,13000.00,17000.00,M,M,M,M,M,M,M,M,M,81.75,KINS 260337Z AUTO 25015KT 10SM FEW130 SCT170 28/13 A3006 RMK AO2 SLP130 $,M
P68,2022-08-26 03:53,-116.0056,39.6014,1993.00,72.00,43.00,35.16,160.00,11.00,0.00,30.21,1013.90,M,19.00,M,M,M,M,M,M,M,M,M,M,M,M,31.00,160.00,2022-08-26 02:54,72.00,KP68 260353Z AUTO 16011G19KT 22/06 A3021 RMK AO1 PK WND 16031/0254 SLP139 T02220061,M
LOL,2022-08-26 03:53,-118.5701,40.0684,1192.43,81.00,24.10,12.23,330.00,9.00,0.00,30.02,1012.30,10.00,M,CLR,M,M,M,M,M,M,M,M,M,M,M,M,M,M,78.83,KLOL 260353Z AUTO 33009KT 10SM CLR 27/M04 A3002 RMK AO2 SLP123 T02721044,M
VGT,2022-08-26 03:53,-115.1933,36.2111,667.00,95.00,55.00,26.19,190.00,3.00,0.00,29.94,1012.60,10.00,M,CLR,M,M,M,M,M,M,M,M,M,M,M,M,M,M,93.10,KVGT 260353Z 19003KT 10SM CLR 35/13 A2994 RMK AO2 SLP126 T03500128,M
ELY,2022-08-26 03:53,-114.8453,39.2950,1909.00,61.00,50.00,67.06,210.00,11.00,0.00,30.29,1016.40,10.00,M,CLR,M,M,M,M,M,M,M,M,M,M,M,M,M,M,61.00,KELY 260353Z AUTO 21011KT 10SM CLR 16/10 A3029 RMK AO2 WSHFT 0241 SLP164 T01610100,M
DRA,2022-08-26 03:53,-116.0278,36.6206,1009.00,82.00,52.00,35.41,100.00,9.00,0.00,30.06,1012.80,10.00,M,SCT,M,M,M,11000.00,M,M,M,M,M,M,M,M,M,M,80.97,KDRA 260353Z AUTO 10009KT 10SM SCT110 28/11 A3006 RMK AO2 SLP128 T02780111,M
LSV,2022-08-26 03:55,-115.0343,36.2362,570.00,92.30,56.30,29.86,170.00,4.00,0.00,29.92,M,10.00,M,CLR,M,M,M,M,M,M,M,M,M,M,M,M,M,M,90.69,KLSV 260355Z AUTO 17004KT 10SM CLR 34/14 A2992 RMK AO2 SLPNO T03350135 $,M
INS,2022-08-26 03:55,-115.6733,36.5872,955.00,81.50,55.60,41.05,240.00,13.00,0.00,30.06,M,10.00,M,FEW,BKN,M,M,13000.00,17000.00,M,M,M,M,M,M,M,M,M,81.16,KINS 260355Z AUTO 24013KT 10SM FEW130 BKN170 28/13 A3006 RMK AO2 SLPNO T02750131 $,M
BVU,2022-08-26 03:55,-114.8611,35.9475,671.00,87.80,60.80,40.41,0.00,0.00,0.00,29.96,M,M,M,M,M,M,M,M,M,M,M,M,M,M,M,M,M,M,87.75,KBVU 260355Z AUTO 00000KT 31/16 A2996 RMK AO2 PWINO TSNO,M
CXP,2022-08-26 03:55,-119.7326,39.1923,1431.00,78.80,35.60,21.00,0.00,0.00,0.00,30.15,M,10.00,M,CLR,M,M,M,M,M,M,M,M,M,M,M,M,M,M,78.80,KCXP 260355Z AUTO 00000KT 10SM CLR 26/02 A3015 RMK AO2,M
RNO,2022-08-26 03:55,-119.7711,39.4839,1341.00,84.00,34.00,16.63,280.00,14.00,0.00,30.10,1013.30,10.00,M,CLR,M,M,M,M,M,M,M,M,M,M,M,M,M,M,81.16,KRNO 260355Z 28014KT 10SM CLR 29/01 A3010 RMK AO2 SLP133 T02890011,M
RTS,2022-08-26 03:55,-119.8764,39.6682,1539.00,75.20,24.80,15.25,0.00,0.00,0.00,30.18,M,10.00,M,CLR,M,M,M,M,M,M,M,M,M,M,M,M,M,M,75.20,KRTS 260355Z AUTO 00000KT 10SM CLR 24/M04 A3018 RMK AO2,M
MEV,2022-08-26 03:55,-119.7500,38.9963,1441.42,71.60,32.00,23.13,250.00,6.00,0.00,30.14,M,10.00,M,CLR,M,M,M,M,M,M,M,M,M,M,M,M,M,M,71.60,KMEV 260355Z AUTO 25006KT 10SM CLR 22/00 A3014 RMK AO2,M
BAM,2022-08-26 03:55,-116.8743,40.5990,1382.36,78.80,26.60,14.59,320.00,7.00,0.00,30.08,M,10.00,M,CLR,M,M,M,M,M,M,M,M,M,M,M,M,M,M,78.80,KBAM 260355Z AUTO 32007KT 10SM CLR 26/M03 A3008 RMK AO1,M
HTH,2022-08-26 03:55,-118.6315,38.5448,1282.89,86.00,33.80,15.48,10.00,12.00,0.00,30.07,M,10.00,M,CLR,M,M,M,M,M,M,M,M,M,M,M,M,M,M,82.66,KHTH 260355Z AUTO 01012KT 10SM CLR 30/01 A3007 RMK A01,M
TMT,2022-08-26 03:55,-117.1971,39.4643,1749.34,M,M,M,70.00,3.00,0.00,30.19,M,10.00,M,CLR,M,M,M,M,M,M,M,M,M,M,M,M,M,M,M,KTMT 260355Z AUTO 07003KT 10SM CLR A3019 RMK AO2,M
EKO,2022-08-26 03:56,-115.7860,40.8242,1367.00,68.00,28.00,22.23,0.00,0.00,0.00,30.10,1014.60,10.00,M,CLR,M,M,M,M,M,M,M,M,M,M,M,M,M,M,68.00,KEKO 260356Z AUTO 00000KT 10SM CLR 20/M02 A3010 RMK AO2 SLP146 T02001022,M
NFL,2022-08-26 03:56,-118.7010,39.4166,1199.00,85.00,30.00,13.75,270.00,8.00,0.00,30.03,1014.00,10.00,M,SCT,SCT,M,M,8000.00,12000.00,M,M,M,M,M,M,M,M,M,81.79,KNFL 260356Z 27008KT 10SM SCT080 SCT120 29/M01 A3003 RMK AO2 SLP140 T02941011,M
TPH,2022-08-26 03:56,-117.0904,38.0505,1654.00,75.00,49.00,39.75,270.00,12.00,0.00,30.23,1015.80,10.00,23.00,FEW,M,M,M,12000.00,M,M,M,M,M,M,M,M,M,M,75.00,KTPH 260356Z AUTO 27012G23KT 10SM FEW120 24/09 A3023 RMK AO2 SLP158 T02390094,M
WMC,2022-08-26 03:56,-117.8072,40.9019,1315.00,72.00,16.00,11.68,0.00,0.00,0.00,30.05,1012.40,10.00,M,CLR,M,M,M,M,M,M,M,M,M,M,M,M,M,M,72.00,KWMC 260356Z AUTO 00000KT 10SM CLR 22/M09 A3005 RMK AO2 SLP124 T02221089,M
LAS,2022-08-26 03:56,-115.1634,36.0719,663.00,91.00,54.00,28.60,180.00,7.00,0.00,29.96,1011.60,10.00,M,FEW,SCT,SCT,M,11000.00,15000.00,22000.00,M,M,M,M,M,M,M,M,88.78,KLAS 260356Z 18007KT 10SM FEW110 SCT150 SCT220 33/12 A2996 RMK AO2 SLP116 T03280122,M
BVU,2022-08-26 04:15,-114.8611,35.9475,671.00,89.60,59.00,35.81,0.00,0.00,0.00,29.96,M,M,M,M,M,M,M,M,M,M,M,M,M,M,M,M,M,M,88.86,KBVU 260415Z AUTO 00000KT 32/15 A2996 RMK AO2 PWINO TSNO,M
HTH,2022-08-26 04:15,-118.6315,38.5448,1282.89,87.80,28.40,11.74,330.00,17.00,0.00,30.07,M,10.00,M,CLR,M,M,M,M,M,M,M,M,M,M,M,M,M,M,83.84,KHTH 260415Z AUTO 33017KT 10SM CLR 31/M02 A3007 RMK A01,M
BAM,2022-08-26 04:15,-116.8743,40.5990,1382.36,78.80,26.60,14.59,320.00,6.00,0.00,30.08,M,10.00,M,CLR,M,M,M,M,M,M,M,M,M,M,M,M,M,M,78.80,KBAM 260415Z AUTO 32006KT 10SM CLR 26/M03 A3008 RMK AO1,M
MEV,2022-08-26 04:15,-119.7500,38.9963,1441.42,69.80,33.80,26.43,150.00,3.00,0.00,30.14,M,10.00,M,CLR,M,M,M,M,M,M,M,M,M,M,M,M,M,M,69.80,KMEV 260415Z AUTO 15003KT 10SM CLR 21/01 A3014 RMK AO2,M
RTS,2022-08-26 04:15,-119.8764,39.6682,1539.00,73.40,24.80,16.20,280.00,6.00,0.00,30.19,M,10.00,M,CLR,M,M,M,M,M,M,M,M,M,M,M,M,M,M,73.40,KRTS 260415Z AUTO 28006KT 10SM CLR 23/M04 A3019 RMK AO2,M
CXP,2022-08-26 04:15,-119.7326,39.1923,1431.00,78.80,35.60,21.00,240.00,5.00,0.00,30.16,M,10.00,M,CLR,M,M,M,M,M,M,M,M,M,M,M,M,M,M,78.80,KCXP 260415Z AUTO 24005KT 10SM CLR 26/02 A3016 RMK AO2,M
TMT,2022-08-26 04:15,-117.1971,39.4643,1749.34,M,M,M,170.00,6.00,0.00,30.20,M,10.00,M,CLR,M,M,M,M,M,M,M,M,M,M,M,M,M,M,M,KTMT 260415Z AUTO 17006KT 10SM CLR A3020 RMK AO2,M
TPH,2022-08-26 04:20,-117.0904,38.0505,1654.00,74.00,49.00,41.24,210.00,10.00,0.00,30.22,M,10.00,M,FEW,M,M,M,12000.00,M,M,M,M,M,M,M,M,M,M,73.90,KTPH 260420Z AUTO 21010KT 10SM FEW120 23/09 A3022 RMK AO2 WSHFT 0400 T02330094,M
MEV,2022-08-26 04:35,-119.7500,38.9963,1441.42,69.80,33.80,26.43,0.00,0.00,0.00,30.15,M,10.00,M,CLR,M,M,M,M,M,M,M,M,M,M,M,M,M,M,69.80,KMEV 260435Z AUTO 00000KT 10SM CLR 21/01 A3015 RMK AO2,M
CXP,2022-08-26 04:35,-119.7326,39.1923,1431.00,78.80,35.60,21.00,0.00,0.00,0.00,30.16,M,10.00,M,CLR,M,M,M,M,M,M,M,M,M,M,M,M,M,M,78.80,KCXP 260435Z AUTO 00000KT 10SM CLR 26/02 A3016 RMK AO2,M
BVU,2022-08-26 04:35,-114.8611,35.9475,671.00,86.00,60.80,42.80,0.00,0.00,0.00,29.97,M,M,M,M,M,M,M,M,M,M,M,M,M,M,M,M,M,M,86.05,KBVU 260435Z AUTO 00000KT 30/16 A2997 RMK AO2 PWINO TSNO,M
BAM,2022-08-26 04:35,-116.8743,40.5990,1382.36,80.60,23.00,11.83,330.00,8.00,0.00,30.08,M,10.00,M,CLR,M,M,M,M,M,M,M,M,M,M,M,M,M,M,78.80,KBAM 260435Z AUTO 33008KT 10SM CLR 27/M05 A3008 RMK AO1,M
HTH,2022-08-26 04:35,-118.6315,38.5448,1282.89,86.00,28.40,12.44,M,3.00,0.00,30.08,M,10.00,10.00,CLR,M,M,M,M,M,M,M,M,M,M,M,M,M,M,82.54,KHTH 260435Z AUTO VRB03G10KT 10SM CLR 30/M02 A3008 RMK A01,M
RTS,2022-08-26 04:35,-119.8764,39.6682,1539.00,71.60,23.00,15.97,340.00,6.00,0.00,30.19,M,10.00,M,CLR,M,M,M,M,M,M,M,M,M,M,M,M,M,M,71.60,KRTS 260435Z AUTO 34006KT 10SM CLR 22/M05 A3019 RMK AO2,M
TMT,2022-08-26 04:35,-117.1971,39.4643,1749.34,M,M,M,180.00,4.00,0.00,30.20,M,10.00,M,CLR,M,M,M,M,M,M,M,M,M,M,M,M,M,M,M,KTMT 260435Z AUTO 18004KT 10SM CLR A3020 RMK AO2,M
DRA,2022-08-26 04:53,-116.0278,36.6206,1009.00,83.00,54.00,37.01,80.00,5.00,0.00,30.07,1013.10,10.00,M,CLR,M,M,M,M,M,M,M,M,M,M,M,M,M,M,81.87,KDRA 260453Z AUTO 08005KT 10SM CLR 28/12 A3007 RMK AO2 SLP131 T02830122,M
VGT,2022-08-26 04:53,-115.1933,36.2111,667.00,93.00,52.00,24.97,340.00,13.00,0.00,29.97,1013.40,10.00,19.00,CLR,M,M,M,M,M,M,M,M,M,M,M,M,M,M,90.29,KVGT 260453Z AUTO 34013G19KT 10SM CLR 34/11 A2997 RMK AO2 SLP134 T03390111,M
ELY,2022-08-26 04:53,-114.8453,39.2950,1909.00,59.00,51.00,75.02,220.00,11.00,0.00,30.30,1016.40,10.00,M,CLR,M,M,M,M,M,M,M,M,M,M,M,M,M,M,59.00,KELY 260453Z AUTO 22011KT 10SM CLR 15/11 A3030 RMK AO2 SLP164 T01500106,M
LOL,2022-08-26 04:53,-118.5701,40.0684,1192.43,82.00,25.00,12.29,320.00,10.00,0.00,30.03,1012.20,10.00,M,CLR,M,M,M,M,M,M,M,M,M,M,M,M,M,M,79.54,KLOL 260453Z AUTO 32010KT 10SM CLR 28/M04 A3003 RMK AO2 SLP122 T02781039,M
P68,2022-08-26 04:53,-116.0056,39.6014,1993.00,71.00,43.00,36.25,170.00,15.00,0.00,30.21,1013.70,M,23.00,M,M,M,M,M,M,M,M,M,M,M,M,27.00,160.00,2022-08-26 04:25,71.10,KP68 260453Z AUTO 17015G23KT 22/06 A3021 RMK AO1 PK WND 16027/0425 SLP137 T02170061,M
INS,2022-08-26 04:55,-115.6733,36.5872,955.00,82.20,54.00,37.86,320.00,5.00,0.00,30.05,M,10.00,M,BKN,M,M,M,17000.00,M,M,M,M,M,M,M,M,M,M,81.38,KINS 260455Z AUTO 32005KT 10SM BKN170 28/12 A3005 RMK AO2 SLPNO T02790122 $,M
CXP,2022-08-26 04:55,-119.7326,39.1923,1431.00,77.00,35.60,22.28,310.00,3.00,0.00,30.16,M,10.00,M,CLR,M,M,M,M,M,M,M,M,M,M,M,M,M,M,77.00,KCXP 260455Z AUTO 31003KT 10SM CLR 25/02 A3016 RMK AO2,M
RTS,2022-08-26 04:55,-119.8764,39.6682,1539.00,71.60,24.80,17.22,350.00,11.00,0.00,30.19,M,10.00,M,CLR,M,M,M,M,M,M,M,M,M,M,M,M,M,M,71.60,KRTS 260455Z AUTO 35011KT 10SM CLR 22/M04 A3019 RMK AO2,M
MEV,2022-08-26 04:55,-119.7500,38.9963,1441.42,66.20,33.80,29.92,100.00,6.00,0.00,30.15,M,10.00,M,CLR,M,M,M,M,M,M,M,M,M,M,M,M,M,M,66.20,KMEV 260455Z AUTO 10006KT 10SM CLR 19/01 A3015 RMK AO2,M
BAM,2022-08-26 04:55,-116.8743,40.5990,1382.36,78.80,23.00,12.55,330.00,6.00,0.00,30.08,M,10.00,M,CLR,M,M,M,M,M,M,M,M,M,M,M,M,M,M,78.80,KBAM 260455Z AUTO 33006KT 10SM CLR 26/M05 A3008 RMK AO1,M
HTH,2022-08-26 04:55,-118.6315,38.5448,1282.89,86.00,30.20,13.38,150.00,7.00,0.00,30.09,M,10.00,M,CLR,M,M,M,M,M,M,M,M,M,M,M,M,M,M,82.64,KHTH 260455Z AUTO 15007KT 10SM CLR 30/M01 A3009 RMK A01,M
TMT,2022-08-26 04:55,-117.1971,39.4643,1749.34,M,M,M,180.00,5.00,0.00,30.20,M,10.00,M,CLR,M,M,M,M,M,M,M,M,M,M,M,M,M,M,M,KTMT 260455Z AUTO 18005KT 10SM CLR A3020 RMK AO2,M
BVU,2022-08-26 04:55,-114.8611,35.9475,671.00,84.20,60.80,45.34,0.00,0.00,0.00,29.98,M,M,M,M,M,M,M,M,M,M,M,M,M,M,M,M,M,M,84.43,KBVU 260455Z AUTO 00000KT 29/16 A2998 RMK AO2 PWINO TSNO,M
RNO,2022-08-26 04:55,-119.7711,39.4839,1341.00,81.00,33.00,17.68,M,3.00,0.00,30.13,1014.00,10.00,M,CLR,M,M,M,M,M,M,M,M,M,M,M,M,M,M,79.10,KRNO 260455Z VRB03KT 10SM CLR 27/01 A3013 RMK AO2 SLP140 T02720006,M
LSV,2022-08-26 04:55,-115.0343,36.2362,570.00,91.40,59.00,33.84,300.00,7.00,0.00,29.93,M,10.00,M,SCT,M,M,M,18000.00,M,M,M,M,M,M,M,M,M,M,90.68,KLSV 260455Z 30007KT 10SM SCT180 33/15 A2993 RMK AO2A SLPNO WND DATA ESTMD $,M
LAS,2022-08-26 04:56,-115.1634,36.0719,663.00,90.00,55.00,30.61,230.00,4.00,0.00,29.98,1012.20,10.00,M,FEW,SCT,SCT,M,11000.00,15000.00,22000.00,M,M,M,M,M,M,M,M,88.06,KLAS 260456Z 23004KT 10SM FEW110 SCT150 SCT220 32/13 A2998 RMK AO2 SLP122 T03220128,M
TPH,2022-08-26 04:56,-117.0904,38.0505,1654.00,74.00,48.00,39.87,110.00,11.00,0.00,30.21,1014.70,10.00,M,CLR,M,M,M,M,M,M,M,M,M,M,M,M,M,M,73.90,KTPH 260456Z AUTO 11011KT 10SM CLR 23/09 A3021 RMK AO2 WSHFT 0400 SLP147 T02330089,M
EKO,2022-08-26 04:56,-115.7860,40.8242,1367.00,70.00,30.00,22.52,M,3.00,0.00,30.12,1014.60,10.00,M,CLR,M,M,M,M,M,M,M,M,M,M,M,M,M,M,70.00,KEKO 260456Z AUTO VRB03KT 10SM CLR 21/M01 A3012 RMK AO2 SLP146 T02111011,M
NFL,2022-08-26 04:56,-118.7010,39.4166,1199.00,81.00,30.90,16.18,270.00,11.00,0.00,30.05,1014.50,10.00,M,SCT,SCT,M,M,8000.00,12000.00,M,M,M,M,M,M,M,M,M,79.04,KNFL 260456Z 27011KT 10SM SCT080 SCT120 27/M01 A3005 RMK AO2 SLP145 T02721006,M
WMC,2022-08-26 04:56,-117.8072,40.9019,1315.00,68.00,21.90,17.24,90.00,4.00,0.00,30.06,1012.70,10.00,M,CLR,M,M,M,M,M,M,M,M,M,M,M,M,M,M,68.00,KWMC 260456Z AUTO 09004KT 10SM CLR 20/M06 A3006 RMK AO2 SLP127 T02001056,M
MEV,2022-08-26 05:15,-119.7500,38.9963,1441.42,66.20,33.80,29.92,70.00,10.00,0.00,30.15,M,10.00,M,CLR,M,M,M,M,M,M,M,M,M,M,M,M,M,M,66.20,KMEV 260515Z AUTO 07010KT 10SM CLR 19/01 A3015 RMK AO2,M
BVU,2022-08-26 05:15,-114.8611,35.9475,671.00,86.00,59.00,40.14,0.00,0.00,0.00,29.98,M,M,M,M,M,M,M,M,M,M,M,M,M,M,M,M,M,M,85.47,KBVU 260515Z AUTO 00000KT 30/15 A2998 RMK AO2 PWINO TSNO,M
CXP,2022-08-26 05:15,-119.7326,39.1923,1431.00,69.80,37.40,30.49,0.00,0.00,0.00,30.17,M,10.00,M,CLR,M,M,M,M,M,M,M,M,M,M,M,M,M,M,69.80,KCXP 260515Z AUTO 00000KT 10SM CLR 21/03 A3017 RMK AO2,M
RTS,2022-08-26 05:15,-119.8764,39.6682,1539.00,71.60,24.80,17.22,0.00,0.00,0.00,30.19,M,10.00,M,CLR,M,M,M,M,M,M,M,M,M,M,M,M,M,M,71.60,KRTS 260515Z AUTO 00000KT 10SM CLR 22/M04 A3019 RMK AO2,M
BAM,2022-08-26 05:15,-116.8743,40.5990,1382.36,71.60,23.00,15.97,200.00,3.00,0.00,30.09,M,10.00,M,CLR,M,M,M,M,M,M,M,M,M,M,M,M,M,M,71.60,KBAM 260515Z AUTO 20003KT 10SM CLR 22/M05 A3009 RMK AO1,M
HTH,2022-08-26 05:15,-118.6315,38.5448,1282.89,84.20,30.20,14.18,40.00,12.00,0.00,30.09,M,10.00,M,CLR,M,M,M,M,M,M,M,M,M,M,M,M,M,M,81.26,KHTH 260515Z AUTO 04012KT 10SM CLR 29/M01 A3009 RMK A01,M
TMT,2022-08-26 05:15,-117.1971,39.4643,1749.34,68.00,31.10,25.22,230.00,5.00,0.00,30.20,M,10.00,M,CLR,M,M,M,M,M,M,M,M,M,M,M,M,M,M,68.00,KTMT 260515Z AUTO 23005KT 10SM CLR 20/00 A3020 RMK AO2 T02001005,M
CXP,2022-08-26 05:35,-119.7326,39.1923,1431.00,71.60,35.60,26.71,0.00,0.00,0.00,30.17,M,10.00,M,CLR,M,M,M,M,M,M,M,M,M,M,M,M,M,M,71.60,KCXP 260535Z AUTO 00000KT 10SM CLR 22/02 A3017 RMK AO2,M
HTH,2022-08-26 05:35,-118.6315,38.5448,1282.89,84.20,33.80,16.39,150.00,12.00,0.00,30.10,M,10.00,M,CLR,M,M,M,M,M,M,M,M,M,M,M,M,M,M,81.30,KHTH 260535Z AUTO 15012KT 10SM CLR 29/01 A3010 RMK A01,M
BAM,2022-08-26 05:35,-116.8743,40.5990,1382.36,69.80,23.00,16.98,210.00,4.00,0.00,30.09,M,10.00,M,CLR,M,M,M,M,M,M,M,M,M,M,M,M,M,M,69.80,KBAM 260535Z AUTO 21004KT 10SM CLR 21/M05 A3009 RMK AO1,M
MEV,2022-08-26 05:35,-119.7500,38.9963,1441.42,62.60,33.80,33.93,100.00,9.00,0.00,30.15,M,10.00,M,CLR,M,M,M,M,M,M,M,M,M,M,M,M,M,M,62.60,KMEV 260535Z AUTO 10009KT 10SM CLR 17/01 A3015 RMK AO2,M
BVU,2022-08-26 05:35,-114.8611,35.9475,671.00,84.20,60.80,45.34,0.00,0.00,0.00,29.98,M,M,M,M,M,M,M,M,M,M,M,M,M,M,M,M,M,M,84.43,KBVU 260535Z AUTO 00000KT 29/16 A2998 RMK AO2 PWINO TSNO,M
RTS,2022-08-26 05:35,-119.8764,39.6682,1539.00,71.60,24.80,17.22,330.00,3.00,0.00,30.19,M,10.00,M,CLR,M,M,M,M,M,M,M,M,M,M,M,M,M,M,71.60,KRTS 260535Z AUTO 33003KT 10SM CLR 22/M04 A3019 RMK AO2,M
TMT,2022-08-26 05:35,-117.1971,39.4643,1749.34,M,M,M,220.00,7.00,0.00,30.21,M,10.00,M,CLR,M,M,M,M,M,M,M,M,M,M,M,M,M,M,M,KTMT 260535Z AUTO 22007KT 10SM CLR A3021 RMK AO2,M
LOL,2022-08-26 05:53,-118.5701,40.0684,1192.43,81.00,25.00,12.70,180.00,4.00,0.00,30.05,1012.30,10.00,M,CLR,M,M,M,M,M,M,M,M,M,M,M,M,M,M,78.89,KLOL 260553Z AUTO 18004KT 10SM CLR 27/M04 A3005 RMK AO2 SLP123 T02721039 10367 20233 51015,M
VGT,2022-08-26 05:53,-115.1933,36.2111,667.00,91.00,54.00,28.60,330.00,10.00,0.00,29.97,1013.50,10.00,M,CLR,M,M,M,M,M,M,M,M,M,M,M,M,M,M,88.78,KVGT 260553Z AUTO 33010KT 10SM CLR 33/12 A2997 RMK AO2 SLP135 T03280122 10372 20328 51011,M
DRA,2022-08-26 05:53,-116.0278,36.6206,1009.00,81.00,52.00,36.58,320.00,3.00,0.00,30.08,1013.40,10.00,M,CLR,M,M,M,M,M,M,M,M,M,M,M,M,M,M,80.34,KDRA 260553Z AUTO 32003KT 10SM CLR 27/11 A3008 RMK AO2 SLP134 T02720111 10339 20267 53005,M
P68,2022-08-26 05:53,-116.0056,39.6014,1993.00,67.00,43.00,41.87,160.00,8.00,0.00,30.22,1014.20,M,M,M,M,M,M,M,M,M,M,M,M,M,M,M,M,M,66.90,KP68 260553Z AUTO 16008KT 19/06 A3022 RMK AO1 SLP142 T01940061 10311 20189 51013,M
ELY,2022-08-26 05:53,-114.8453,39.2950,1909.00,58.00,49.00,71.90,230.00,9.00,0.00,30.30,1015.90,10.00,M,CLR,M,M,M,M,M,M,M,M,M,M,M,M,M,M,57.90,KELY 260553Z AUTO 23009KT 10SM CLR 14/09 A3030 RMK AO2 SLP159 T01440094 10217 20144 50005,M
RNO,2022-08-26 05:55,-119.7711,39.4839,1341.00,77.00,35.00,21.85,0.00,0.00,0.00,30.13,1014.00,10.00,M,CLR,M,M,M,M,M,M,M,M,M,M,M,M,M,M,77.00,KRNO 260555Z 00000KT 10SM CLR 25/02 A3013 RMK AO2 SLP140 T02500017 10350 20244 51017,M
INS,2022-08-26 05:55,-115.6733,36.5872,955.00,83.00,51.00,33.02,240.00,4.00,0.00,30.07,M,10.00,M,BKN,BKN,M,M,13000.00,20000.00,M,M,M,M,M,M,M,M,M,81.43,KINS 260555Z AUTO 24004KT 10SM BKN130 BKN200 28/11 A3007 RMK AO2 SLPNO T02830105 10346 20274 50014 $,M
BVU,2022-08-26 05:55,-114.8611,35.9475,671.00,86.00,59.00,40.14,0.00,0.00,0.00,29.98,M,M,M,M,M,M,M,M,M,M,M,M,M,M,M,M,M,M,85.47,KBVU 260555Z AUTO 00000KT 30/15 A2998 RMK AO2 PWINO TSNO,M
CXP,2022-08-26 05:55,-119.7326,39.1923,1431.00,69.80,35.60,28.39,0.00,0.00,0.00,30.17,M,10.00,M,CLR,M,M,M,M,M,M,M,M,M,M,M,M,M,M,69.80,KCXP 260555Z AUTO 00000KT 10SM CLR 21/02 A3017 RMK AO2,M
RTS,2022-08-26 05:55,-119.8764,39.6682,1539.00,73.40,24.80,16.20,300.00,3.00,0.00,30.19,M,10.00,M,CLR,M,M,M,M,M,M,M,M,M,M,M,M,M,M,73.40,KRTS 260555Z AUTO 30003KT 10SM CLR 23/M04 A3019 RMK AO2,M
MEV,2022-08-26 05:55,-119.7500,38.9963,1441.42,62.60,33.80,33.93,100.00,7.00,0.00,30.15,M,10.00,M,CLR,M,M,M,M,M,M,M,M,M,M,M,M,M,M,62.60,KMEV 260555Z AUTO 10007KT 10SM CLR 17/01 A3015 RMK AO2,M
BAM,2022-08-26 05:55,-116.8743,40.5990,1382.36,68.00,23.00,18.06,240.00,4.00,0.00,30.09,M,10.00,M,CLR,M,M,M,M,M,M,M,M,M,M,M,M,M,M,68.00,KBAM 260555Z AUTO 24004KT 10SM CLR 20/M05 A3009 RMK AO1,M
LSV,2022-08-26 05:55,-115.0343,36.2362,570.00,90.30,56.50,32.01,80.00,7.00,0.00,29.95,M,10.00,M,FEW,M,M,M,12000.00,M,M,M,M,M,M,M,M,M,M,88.75,KLSV 260555Z 08007KT 10SM FEW120 32/14 A2995 RMK AO2A SLPNO T03240136 10378 20324 $,M
HTH,2022-08-26 05:55,-118.6315,38.5448,1282.89,84.20,33.80,16.39,140.00,12.00,0.00,30.11,M,10.00,17.00,CLR,M,M,M,M,M,M,M,M,M,M,M,M,M,M,81.30,KHTH 260555Z AUTO 14012G17KT 10SM CLR 29/01 A3011 RMK A01,M
TMT,2022-08-26 05:55,-117.1971,39.4643,1749.34,M,M,M,240.00,4.00,0.00,30.21,M,10.00,M,CLR,M,M,M,M,M,M,M,M,M,M,M,M,M,M,M,KTMT 260555Z AUTO 24004KT 10SM CLR A3021 RMK AO2 LTG DSNT S,M
LAS,2022-08-26 05:56,-115.1634,36.0719,663.00,90.00,53.00,28.55,340.00,9.00,0.00,29.98,1012.20,10.00,M,SCT,BKN,M,M,14000.00,20000.00,M,M,M,M,M,M,M,M,M,87.62,KLAS 260556Z 34009KT 10SM SCT140 BKN200 32/12 A2998 RMK AO2 SLP122 ACC DSNT NE T03220117 10356 20322 51010,M
NFL,2022-08-26 05:56,-118.7010,39.4166,1199.00,81.00,28.00,14.38,280.00,8.00,0.00,30.06,1014.80,10.00,M,FEW,FEW,M,M,8000.00,12000.00,M,M,M,M,M,M,M,M,M,78.98,KNFL 260556Z 28008KT 10SM FEW080 FEW120 27/M02 A3006 RMK AO2 SLP148 T02721022 10367 20261 51018,M
WMC,2022-08-26 05:56,-117.8072,40.9019,1315.00,64.00,19.90,18.20,350.00,3.00,0.00,30.07,1012.80,10.00,M,CLR,M,M,M,M,M,M,M,M,M,M,M,M,M,M,64.00,KWMC 260556Z AUTO 35003KT 10SM CLR 18/M07 A3007 RMK AO2 SLP128 T01781067 10361 20172 51009,M
TPH,2022-08-26 05:56,-117.0904,38.0505,1654.00,71.00,51.00,49.20,90.00,6.00,0.00,30.23,1015.30,10.00,M,CLR,M,M,M,M,M,M,M,M,M,M,M,M,M,M,71.10,KTPH 260556Z AUTO 09006KT 10SM CLR 22/11 A3023 RMK AO2 SLP153 60000 T02170106 10278 20217 51014,M
EKO,2022-08-26 05:56,-115.7860,40.8242,1367.00,68.00,37.00,31.92,M,4.00,0.00,30.13,1014.50,10.00,M,CLR,M,M,M,M,M,M,M,M,M,M,M,M,M,M,68.00,KEKO 260556Z AUTO VRB04KT 10SM CLR 20/03 A3013 RMK AO2 SLP145 T02000028 10306 20178 51017,M
HTH,2022-08-26 06:15,-118.6315,38.5448,1282.89,82.40,37.40,20.04,100.00,5.00,0.00,30.11,M,10.00,M,CLR,M,M,M,M,M,M,M,M,M,M,M,M,M,M,80.14,KHTH 260615Z AUTO 10005KT 10SM CLR 28/03 A3011 RMK A01,M
BAM,2022-08-26 06:15,-116.8743,40.5990,1382.36,68.00,23.00,18.06,230.00,5.00,0.00,30.09,M,10.00,M,CLR,M,M,M,M,M,M,M,M,M,M,M,M,M,M,68.00,KBAM 260615Z AUTO 23005KT 10SM CLR 20/M05 A3009 RMK AO1,M
TMT,2022-08-26 06:15,-117.1971,39.4643,1749.34,M,M,M,160.00,4.00,0.00,30.22,M,10.00,M,CLR,M,M,M,M,M,M,M,M,M,M,M,M,M,M,M,KTMT 260615Z AUTO 16004KT 10SM CLR A3022 RMK AO2,M
CXP,2022-08-26 06:15,-119.7326,39.1923,1431.00,68.00,33.80,28.11,0.00,0.00,0.00,30.17,M,10.00,M,CLR,M,M,M,M,M,M,M,M,M,M,M,M,M,M,68.00,KCXP 260615Z AUTO 00000KT 10SM CLR 20/01 A3017 RMK AO2,M
MEV,2022-08-26 06:15,-119.7500,38.9963,1441.42,62.60,33.80,33.93,100.00,9.00,0.00,30.15,M,10.00,M,CLR,M,M,M,M,M,M,M,M,M,M,M,M,M,M,62.60,KMEV 260615Z AUTO 10009KT 10SM CLR 17/01 A3015 RMK AO2,M
BVU,2022-08-26 06:15,-114.8611,35.9475,671.00,84.20,57.20,39.86,310.00,4.00,0.00,29.98,M,M,M,M,M,M,M,M,M,M,M,M,M,M,M,M,M,M,83.47,KBVU 260615Z AUTO 31004KT 29/14 A2998 RMK AO2 PWINO TSNO,M
RTS,2022-08-26 06:15,-119.8764,39.6682,1539.00,71.60,24.80,17.22,300.00,4.00,0.00,30.19,M,10.00,M,CLR,M,M,M,M,M,M,M,M,M,M,M,M,M,M,71.60,KRTS 260615Z AUTO 30004KT 10SM CLR 22/M04 A3019 RMK AO2,M
BAM,2022-08-26 06:35,-116.8743,40.5990,1382.36,64.40,23.00,20.46,160.00,3.00,0.00,30.09,M,10.00,M,CLR,M,M,M,M,M,M,M,M,M,M,M,M,M,M,64.40,KBAM 260635Z AUTO 16003KT 10SM CLR 18/M05 A3009 RMK AO1,M
RTS,2022-08-26 06:35,-119.8764,39.6682,1539.00,66.20,24.80,20.72,300.00,6.00,0.00,30.19,M,10.00,M,CLR,M,M,M,M,M,M,M,M,M,M,M,M,M,M,66.20,KRTS 260635Z AUTO 30006KT 10SM CLR 19/M04 A3019 RMK AO2,M
CXP,2022-08-26 06:35,-119.7326,39.1923,1431.00,69.80,33.80,26.43,0.00,0.00,0.00,30.17,M,10.00,M,CLR,M,M,M,M,M,M,M,M,M,M,M,M,M,M,69.80,KCXP 260635Z AUTO 00000KT 10SM CLR 21/01 A3017 RMK AO2,M
TMT,2022-08-26 06:35,-117.1971,39.4643,1749.34,M,M,M,160.00,5.00,0.00,30.22,M,10.00,M,CLR,M,M,M,M,M,M,M,M,M,M,M,M,M,M,M,KTMT 260635Z AUTO 16005KT 10SM CLR A3022 RMK AO2,M
BVU,2022-08-26 06:35,-114.8611,35.9475,671.00,84.20,57.20,39.86,310.00,7.00,0.00,29.98,M,M,M,M,M,M,M,M,M,M,M,M,M,M,M,M,M,M,83.47,KBVU 260635Z AUTO 31007KT 29/14 A2998 RMK AO2 PWINO TSNO,M
HTH,2022-08-26 06:35,-118.6315,38.5448,1282.89,78.80,39.20,24.19,120.00,9.00,0.00,30.11,M,10.00,M,CLR,M,M,M,M,M,M,M,M,M,M,M,M,M,M,78.80,KHTH 260635Z AUTO 12009KT 10SM CLR 26/04 A3011 RMK A01,M
MEV,2022-08-26 06:35,-119.7500,38.9963,1441.42,62.60,33.80,33.93,90.00,8.00,0.00,30.15,M,10.00,M,CLR,M,M,M,M,M,M,M,M,M,M,M,M,M,M,62.60,KMEV 260635Z AUTO 09008KT 10SM CLR 17/01 A3015 RMK AO2,M
DRA,2022-08-26 06:53,-116.0278,36.6206,1009.00,79.00,50.00,36.27,300.00,4.00,0.00,30.08,1013.20,10.00,M,CLR,M,M,M,M,M,M,M,M,M,M,M,M,M,M,79.00,KDRA 260653Z AUTO 30004KT 10SM CLR 26/10 A3008 RMK AO2 SLP132 T02610100,M
ELY,2022-08-26 06:53,-114.8453,39.2950,1909.00,54.00,48.00,80.07,80.00,5.00,0.00,30.29,1015.50,10.00,M,CLR,M,M,M,M,M,M,M,M,M,M,M,M,M,M,54.00,KELY 260653Z AUTO 08005KT 10SM CLR 12/09 A3029 RMK AO2 SLP155 T01220089 403170122,M
VGT,2022-08-26 06:53,-115.1933,36.2111,667.00,91.00,54.00,28.60,310.00,6.00,0.00,29.97,1013.30,10.00,M,CLR,M,M,M,M,M,M,M,M,M,M,M,M,M,M,88.78,KVGT 260653Z AUTO 31006KT 10SM CLR 33/12 A2997 RMK AO2 SLP133 T03280122,M
LOL,2022-08-26 06:53,-118.5701,40.0684,1192.43,82.00,24.10,11.84,340.00,8.00,0.00,30.05,1012.30,10.00,M,CLR,M,M,M,M,M,M,M,M,M,M,M,M,M,M,79.47,KLOL 260653Z AUTO 34008KT 10SM CLR 28/M04 A3005 RMK AO2 SLP123 T02781044,M
P68,2022-08-26 06:53,-116.0056,39.6014,1993.00,61.00,42.00,49.73,230.00,4.00,0.00,30.21,1014.40,M,M,M,M,M,M,M,M,M,M,M,M,M,M,M,M,M,61.00,KP68 260653Z AUTO 23004KT 16/06 A3021 RMK AO1 SLP144 T01610056,M
CXP,2022-08-26 06:55,-119.7326,39.1923,1431.00,66.20,37.40,34.51,120.00,3.00,0.00,30.17,M,10.00,M,CLR,M,M,M,M,M,M,M,M,M,M,M,M,M,M,66.20,KCXP 260655Z AUTO 12003KT 10SM CLR 19/03 A3017 RMK AO2,M
LSV,2022-08-26 06:55,-115.0343,36.2362,570.00,90.00,53.60,28.99,60.00,13.00,0.00,29.94,1011.10,10.00,M,FEW,M,M,M,20000.00,M,M,M,M,M,M,M,M,M,M,87.83,KLSV 260655Z AUTO 06013KT 10SM FEW200 32/12 A2994 RMK AO2 SLP111 T03230120 $,M
RTS,2022-08-26 06:55,-119.8764,39.6682,1539.00,64.40,24.80,22.06,300.00,9.00,0.00,30.19,M,10.00,M,CLR,M,M,M,M,M,M,M,M,M,M,M,M,M,M,64.40,KRTS 260655Z AUTO 30009KT 10SM CLR 18/M04 A3019 RMK AO2,M
MEV,2022-08-26 06:55,-119.7500,38.9963,1441.42,60.80,35.60,38.85,90.00,5.00,0.00,30.16,M,10.00,M,CLR,M,M,M,M,M,M,M,M,M,M,M,M,M,M,60.80,KMEV 260655Z AUTO 09005KT 10SM CLR 16/02 A3016 RMK AO2,M
BAM,2022-08-26 06:55,-116.8743,40.5990,1382.36,64.40,23.00,20.46,190.00,3.00,0.00,30.09,M,10.00,M,CLR,M,M,M,M,M,M,M,M,M,M,M,M,M,M,64.40,KBAM 260655Z AUTO 19003KT 10SM CLR 18/M05 A3009 RMK AO1,M
HTH,2022-08-26 06:55,-118.6315,38.5448,1282.89,77.00,39.20,25.67,140.00,6.00,0.00,30.11,M,10.00,M,CLR,M,M,M,M,M,M,M,M,M,M,M,M,M,M,77.00,KHTH 260655Z AUTO 14006KT 10SM CLR 25/04 A3011 RMK A01,M
TMT,2022-08-26 06:55,-117.1971,39.4643,1749.34,M,M,M,190.00,7.00,0.00,30.22,M,10.00,M,CLR,M,M,M,M,M,M,M,M,M,M,M,M,M,M,M,KTMT 260655Z AUTO 19007KT 10SM CLR A3022 RMK AO2,M
BVU,2022-08-26 06:55,-114.8611,35.9475,671.00,86.00,57.20,37.62,310.00,3.00,0.00,29.98,M,M,M,M,M,M,M,M,M,M,M,M,M,M,M,M,M,M,84.97,KBVU 260655Z AUTO 31003KT 30/14 A2998 RMK AO2 PWINO TSNO,M
INS,2022-08-26 06:55,-115.6733,36.5872,955.00,82.20,51.00,34.03,0.00,0.00,0.00,30.06,1012.70,10.00,M,FEW,M,M,M,15000.00,M,M,M,M,M,M,M,M,M,M,80.98,KINS 260655Z AUTO 00000KT 10SM FEW150 28/11 A3006 RMK AO2 SLP127 T02790106 $,M
RNO,2022-08-26 06:55,-119.7711,39.4839,1341.00,70.00,37.00,29.81,180.00,3.00,0.00,30.13,1014.10,10.00,M,CLR,M,M,M,M,M,M,M,M,M,M,M,M,M,M,70.00,KRNO 260655Z 18003KT 10SM CLR 21/03 A3013 RMK AO2 SLP141 T02110028,M
EKO,2022-08-26 06:56,-115.7860,40.8242,1367.00,69.00,33.00,26.32,360.00,5.00,0.00,30.13,1014.00,10.00,M,CLR,M,M,M,M,M,M,M,M,M,M,M,M,M,M,69.10,KEKO 260656Z AUTO 36005KT 10SM CLR 21/01 A3013 RMK AO2 SLP140 T02060006,M
WMC,2022-08-26 06:56,-117.8072,40.9019,1315.00,61.00,24.10,24.15,180.00,5.00,0.00,30.07,1013.00,10.00,M,CLR,M,M,M,M,M,M,M,M,M,M,M,M,M,M,61.00,KWMC 260656Z AUTO 18005KT 10SM CLR 16/M04 A3007 RMK AO2 SLP130 T01611044,M
LAS,2022-08-26 06:56,-115.1634,36.0719,663.00,90.00,54.00,29.51,20.00,5.00,0.00,29.98,1012.10,10.00,M,FEW,SCT,BKN,M,11000.00,14000.00,20000.00,M,M,M,M,M,M,M,M,87.82,KLAS 260656Z 02005KT 10SM FEW110 SCT140 BKN200 32/12 A2998 RMK AO2 SLP121 ACC NE AND DSNT W T03220122,M
NFL,2022-08-26 06:56,-118.7010,39.4166,1199.00,72.00,30.00,21.04,M,3.00,0.00,30.08,1015.40,10.00,M,FEW,FEW,M,M,8000.00,12000.00,M,M,M,M,M,M,M,M,M,72.00,KNFL 260656Z VRB03KT 10SM FEW080 FEW120 22/M01 A3008 RMK AO2 SLP154 T02221011,M
TPH,2022-08-26 06:56,-117.0904,38.0505,1654.00,71.00,52.00,50.86,0.00,0.00,0.00,30.23,1015.30,10.00,M,CLR,M,M,M,M,M,M,M,M,M,M,M,M,M,M,71.10,KTPH 260656Z AUTO 00000KT 10SM CLR 22/11 A3023 RMK AO2 SLP153 T02170111,M
CXP,2022-08-26 07:10,-119.7326,39.1923,1431.00,66.20,35.60,32.14,290.00,3.00,0.00,30.17,M,10.00,M,CLR,M,M,M,M,M,M,M,M,M,M,M,M,M,M,66.20,KCXP 260710Z AUTO 29003KT 10SM CLR 19/02 A3017 RMK AO2,M
TMT,2022-08-26 07:15,-117.1971,39.4643,1749.34,M,M,M,170.00,8.00,0.00,30.22,M,10.00,M,CLR,M,M,M,M,M,M,M,M,M,M,M,M,M,M,M,KTMT 260715Z AUTO 17008KT 10SM CLR A3022 RMK AO2,M
BAM,2022-08-26 07:15,-116.8743,40.5990,1382.36,64.40,23.00,20.46,190.00,5.00,0.00,30.09,M,10.00,M,CLR,M,M,M,M,M,M,M,M,M,M,M,M,M,M,64.40,KBAM 260715Z AUTO 19005KT 10SM CLR 18/M05 A3009 RMK AO1,M
MEV,2022-08-26 07:15,-119.7500,38.9963,1441.42,60.80,35.60,38.85,0.00,0.00,0.00,30.16,M,10.00,M,CLR,M,M,M,M,M,M,M,M,M,M,M,M,M,M,60.80,KMEV 260715Z AUTO 00000KT 10SM CLR 16/02 A3016 RMK AO2,M
BVU,2022-08-26 07:15,-114.8611,35.9475,671.00,86.00,57.20,37.62,0.00,0.00,0.00,29.98,M,M,M,M,M,M,M,M,M,M,M,M,M,M,M,M,M,M,84.97,KBVU 260715Z AUTO 00000KT 30/14 A2998 RMK AO2 PWINO TSNO,M
RTS,2022-08-26 07:15,-119.8764,39.6682,1539.00,64.40,24.80,22.06,320.00,8.00,0.00,30.19,M,10.00,M,CLR,M,M,M,M,M,M,M,M,M,M,M,M,M,M,64.40,KRTS 260715Z AUTO 32008KT 10SM CLR 18/M04 A3019 RMK AO2,M
HTH,2022-08-26 07:15,-118.6315,38.5448,1282.89,75.20,35.60,23.66,220.00,3.00,0.00,30.11,M,10.00,M,M,M,M,M,M,M,M,M,M,M,M,M,M,M,M,75.20,KHTH 260715Z AUTO 22003KT 10SM 24/02 A3011 RMK A01,M
CXP,2022-08-26 07:35,-119.7326,39.1923,1431.00,64.40,33.80,31.85,0.00,0.00,0.00,30.17,M,10.00,M,CLR,M,M,M,M,M,M,M,M,M,M,M,M,M,M,64.40,KCXP 260735Z AUTO 00000KT 10SM CLR 18/01 A3017 RMK AO2,M
TMT,2022-08-26 07:35,-117.1971,39.4643,1749.34,M,M,M,200.00,10.00,0.00,30.22,M,10.00,M,CLR,M,M,M,M,M,M,M,M,M,M,M,M,M,M,M,KTMT 260735Z AUTO 20010KT 10SM CLR A3022 RMK AO2,M
HTH,2022-08-26 07:35,-118.6315,38.5448,1282.89,73.40,37.40,26.98,140.00,6.00,0.00,30.11,M,10.00,M,CLR,M,M,M,M,M,M,M,M,M,M,M,M,M,M,73.40,KHTH 260735Z AUTO 14006KT 10SM CLR 23/03 A3011 RMK A01,M
BAM,2022-08-26 07:35,-116.8743,40.5990,1382.36,62.60,23.00,21.79,0.00,0.00,0.00,30.09,M,10.00,M,CLR,M,M,M,M,M,M,M,M,M,M,M,M,M,M,62.60,KBAM 260735Z AUTO 00000KT 10SM CLR 17/M05 A3009 RMK AO1,M
MEV,2022-08-26 07:35,-119.7500,38.9963,1441.42,60.80,33.80,36.16,40.00,3.00,0.00,30.16,M,10.00,M,CLR,M,M,M,M,M,M,M,M,M,M,M,M,M,M,60.80,KMEV 260735Z AUTO 04003KT 10SM CLR 16/01 A3016 RMK AO2,M
RTS,2022-08-26 07:35,-119.8764,39.6682,1539.00,60.80,23.00,23.23,350.00,8.00,0.00,30.19,M,10.00,M,CLR,M,M,M,M,M,M,M,M,M,M,M,M,M,M,60.80,KRTS 260735Z AUTO 35008KT 10SM CLR 16/M05 A3019 RMK AO2,M
BVU,2022-08-26 07:35,-114.8611,35.9475,671.00,84.20,57.20,39.86,340.00,4.00,0.00,29.98,M,M,M,M,M,M,M,M,M,M,M,M,M,M,M,M,M,M,83.47,KBVU 260735Z AUTO 34004KT 29/14 A2998 RMK AO2 PWINO TSNO,M
VGT,2022-08-26 07:53,-115.1933,36.2111,667.00,90.00,54.00,29.51,0.00,0.00,0.00,29.97,1013.30,10.00,M,CLR,M,M,M,M,M,M,M,M,M,M,M,M,M,M,87.82,KVGT 260753Z AUTO 00000KT 10SM CLR 32/12 A2997 RMK AO2 SLP133 T03220122 403720272,M
LOL,2022-08-26 07:53,-118.5701,40.0684,1192.43,72.00,25.00,17.13,150.00,7.00,0.00,30.07,1013.30,10.00,M,CLR,M,M,M,M,M,M,M,M,M,M,M,M,M,M,72.00,KLOL 260753Z AUTO 15007KT 10SM CLR 22/M04 A3007 RMK AO2 SLP133 T02221039 403720100,M
ELY,2022-08-26 07:53,-114.8453,39.2950,1909.00,54.00,48.00,80.07,120.00,4.00,0.00,30.28,1015.10,10.00,M,CLR,M,M,M,M,M,M,M,M,M,M,M,M,M,M,54.00,KELY 260753Z AUTO 12004KT 10SM CLR 12/09 A3028 RMK AO2 SLP151 T01220089,M
DRA,2022-08-26 07:53,-116.0278,36.6206,1009.00,77.00,52.00,41.72,230.00,4.00,0.00,30.08,1013.10,10.00,M,CLR,M,M,M,M,M,M,M,M,M,M,M,M,M,M,77.00,KDRA 260753Z AUTO 23004KT 10SM CLR 25/11 A3008 RMK AO2 SLP131 T02500111 403560233,M
P68,2022-08-26 07:53,-116.0056,39.6014,1993.00,58.00,40.00,51.02,M,M,0.00,30.22,1014.40,M,M,M,M,M,M,M,M,M,M,M,M,M,M,M,M,M,57.90,KP68 260753Z AUTO 14/04 A3022 RMK AO1 SLP144 T01440044 403220122,M
LSV,2022-08-26 07:55,-115.0343,36.2362,570.00,87.30,53.80,31.90,60.00,8.00,0.00,29.94,1011.00,10.00,M,SCT,M,M,M,22000.00,M,M,M,M,M,M,M,M,M,M,85.32,KLSV 260755Z AUTO 06008KT 10SM SCT220 31/12 A2994 RMK AO2 SLP110 T03070121 403940260 $,M
RNO,2022-08-26 07:55,-119.7711,39.4839,1341.00,68.00,38.00,33.07,0.00,0.00,0.00,30.14,1014.40,10.00,M,CLR,M,M,M,M,M,M,M,M,M,M,M,M,M,M,68.00,KRNO 260755Z 00000KT 10SM CLR 20/03 A3014 RMK AO2 SLP144 T02000033 403670156,M
BVU,2022-08-26 07:55,-114.8611,35.9475,671.00,82.40,59.00,45.07,0.00,0.00,0.00,29.97,M,M,M,M,M,M,M,M,M,M,M,M,M,M,M,M,M,M,82.46,KBVU 260755Z AUTO 00000KT 28/15 A2997 RMK AO2 PWINO TSNO,M
CXP,2022-08-26 07:55,-119.7326,39.1923,1431.00,64.40,33.80,31.85,0.00,0.00,0.00,30.18,M,10.00,M,CLR,M,M,M,M,M,M,M,M,M,M,M,M,M,M,64.40,KCXP 260755Z AUTO 00000KT 10SM CLR 18/01 A3018 RMK AO2,M
TMT,2022-08-26 07:55,-117.1971,39.4643,1749.34,M,M,M,200.00,9.00,0.00,30.22,M,10.00,M,CLR,M,M,M,M,M,M,M,M,M,M,M,M,M,M,M,KTMT 260755Z AUTO 20009KT 10SM CLR A3022 RMK AO2,M
HTH,2022-08-26 07:55,-118.6315,38.5448,1282.89,73.40,33.80,23.39,140.00,6.00,0.00,30.11,M,10.00,M,CLR,M,M,M,M,M,M,M,M,M,M,M,M,M,M,73.40,KHTH 260755Z AUTO 14006KT 10SM CLR 23/01 A3011 RMK A01,M
BAM,2022-08-26 07:55,-116.8743,40.5990,1382.36,62.60,21.20,20.20,150.00,3.00,0.00,30.09,M,10.00,M,CLR,M,M,M,M,M,M,M,M,M,M,M,M,M,M,62.60,KBAM 260755Z AUTO 15003KT 10SM CLR 17/M06 A3009 RMK AO1,M
MEV,2022-08-26 07:55,-119.7500,38.9963,1441.42,59.00,33.80,38.56,0.00,0.00,0.00,30.17,M,10.00,M,CLR,M,M,M,M,M,M,M,M,M,M,M,M,M,M,59.00,KMEV 260755Z AUTO 00000KT 10SM CLR 15/01 A3017 RMK AO2,M
RTS,2022-08-26 07:55,-119.8764,39.6682,1539.00,64.40,24.80,22.06,330.00,11.00,0.00,30.19,M,10.00,M,CLR,M,M,M,M,M,M,M,M,M,M,M,M,M,M,64.40,KRTS 260755Z AUTO 33011KT 10SM CLR 18/M04 A3019 RMK AO2,M
INS,2022-08-26 07:55,-115.6733,36.5872,955.00,82.00,51.40,34.75,240.00,8.00,0.00,30.05,1012.20,10.00,M,SCT,OVC,M,M,16000.00,18000.00,M,M,M,M,M,M,M,M,M,80.83,KINS 260755Z AUTO 24008KT 10SM SCT160 OVC180 28/11 A3005 RMK AO2 SLP122 T02770108 403460233 $,M
EKO,2022-08-26 07:56,-115.7860,40.8242,1367.00,64.00,39.00,39.67,0.00,0.00,0.00,30.13,1014.20,10.00,M,CLR,M,M,M,M,M,M,M,M,M,M,M,M,M,M,64.00,KEKO 260756Z AUTO 00000KT 10SM CLR 18/04 A3013 RMK AO2 SLP142 T01780039 403440061,M
TPH,2022-08-26 07:56,-117.0904,38.0505,1654.00,70.00,52.00,52.80,0.00,0.00,0.00,30.23,1014.80,10.00,M,CLR,M,M,M,M,M,M,M,M,M,M,M,M,M,M,70.00,KTPH 260756Z AUTO 00000KT 10SM CLR 21/11 A3023 RMK AO2 SLP148 T02110111 403330172,M
LAS,2022-08-26 07:56,-115.1634,36.0719,663.00,88.00,56.00,33.68,170.00,4.00,0.00,29.97,1012.00,10.00,M,FEW,SCT,BKN,M,11000.00,14000.00,18000.00,M,M,M,M,M,M,M,M,86.42,KLAS 260756Z 17004KT 10SM FEW110 SCT140 BKN180 31/13 A2997 RMK AO2 SLP120 T03110133 403610261,M
WMC,2022-08-26 07:56,-117.8072,40.9019,1315.00,63.00,21.90,20.52,0.00,0.00,0.00,30.07,1012.90,10.00,M,CLR,M,M,M,M,M,M,M,M,M,M,M,M,M,M,63.00,KWMC 260756Z AUTO 00000KT 10SM CLR 17/M06 A3007 RMK AO2 SLP129 T01721056 403670106,M
NFL,2022-08-26 07:56,-118.7010,39.4166,1199.00,68.00,30.90,25.02,160.00,5.00,0.00,30.08,1015.40,10.00,M,CLR,M,M,M,M,M,M,M,M,M,M,M,M,M,M,68.00,KNFL 260756Z 16005KT 10SM CLR 20/M01 A3008 RMK AO2 SLP154 T02001006 403670150,M
BAM,2022-08-26 08:15,-116.8743,40.5990,1382.36,59.00,21.20,22.95,190.00,3.00,0.00,30.10,M,10.00,M,CLR,M,M,M,M,M,M,M,M,M,M,M,M,M,M,59.00,KBAM 260815Z AUTO 19003KT 10SM CLR 15/M06 A3010 RMK AO1,M
RTS,2022-08-26 08:15,-119.8764,39.6682,1539.00,62.60,24.80,23.50,0.00,0.00,0.00,30.20,M,10.00,12.00,CLR,M,M,M,M,M,M,M,M,M,M,M,M,M,M,62.60,KRTS 260815Z AUTO 00000G12KT 10SM CLR 17/M04 A3020 RMK AO2,M
MEV,2022-08-26 08:15,-119.7500,38.9963,1441.42,59.00,33.80,38.56,0.00,0.00,0.00,30.17,M,10.00,M,CLR,M,M,M,M,M,M,M,M,M,M,M,M,M,M,59.00,KMEV 260815Z AUTO 00000KT 10SM CLR 15/01 A3017 RMK AO2,M
CXP,2022-08-26 08:15,-119.7326,39.1923,1431.00,62.60,33.80,33.93,0.00,0.00,0.00,30.18,M,10.00,M,CLR,M,M,M,M,M,M,M,M,M,M,M,M,M,M,62.60,KCXP 260815Z AUTO 00000KT 10SM CLR 17/01 A3018 RMK AO2,M
BVU,2022-08-26 08:15,-114.8611,35.9475,671.00,82.40,59.00,45.07,50.00,5.00,0.00,29.96,M,M,M,M,M,M,M,M,M,M,M,M,M,M,M,M,M,M,82.46,KBVU 260815Z AUTO 05005KT 28/15 A2996 RMK AO2 PWINO TSNO,M
TMT,2022-08-26 08:15,-117.1971,39.4643,1749.34,M,M,M,0.00,0.00,0.00,30.22,M,10.00,M,CLR,M,M,M,M,M,M,M,M,M,M,M,M,M,M,M,KTMT 260815Z AUTO 00000KT 10SM CLR A3022 RMK AO2,M
HTH,2022-08-26 08:15,-118.6315,38.5448,1282.89,71.60,33.80,24.86,140.00,9.00,0.00,30.11,M,10.00,M,CLR,M,M,M,M,M,M,M,M,M,M,M,M,M,M,71.60,KHTH 260815Z AUTO 14009KT 10SM CLR 22/01 A3011 RMK A01,M
HTH,2022-08-26 08:35,-118.6315,38.5448,1282.89,73.40,32.00,21.76,130.00,8.00,0.00,30.11,M,10.00,M,CLR,M,M,M,M,M,M,M,M,M,M,M,M,M,M,73.40,KHTH 260835Z AUTO 13008KT 10SM CLR 23/00 A3011 RMK A01,M
BVU,2022-08-26 08:35,-114.8611,35.9475,671.00,82.40,59.00,45.07,0.00,0.00,0.00,29.96,M,M,M,M,M,M,M,M,M,M,M,M,M,M,M,M,M,M,82.46,KBVU 260835Z AUTO 00000KT 28/15 A2996 RMK AO2 PWINO TSNO,M
CXP,2022-08-26 08:35,-119.7326,39.1923,1431.00,60.80,35.60,38.85,0.00,0.00,0.00,30.18,M,10.00,M,CLR,M,M,M,M,M,M,M,M,M,M,M,M,M,M,60.80,KCXP 260835Z AUTO 00000KT 10SM CLR 16/02 A3018 RMK AO2,M
RTS,2022-08-26 08:35,-119.8764,39.6682,1539.00,62.60,23.00,21.79,330.00,3.00,0.00,30.20,M,10.00,M,CLR,M,M,M,M,M,M,M,M,M,M,M,M,M,M,62.60,KRTS 260835Z AUTO 33003KT 10SM CLR 17/M05 A3020 RMK AO2,M
MEV,2022-08-26 08:35,-119.7500,38.9963,1441.42,55.40,32.00,40.84,0.00,0.00,0.00,30.16,M,10.00,M,CLR,M,M,M,M,M,M,M,M,M,M,M,M,M,M,55.40,KMEV 260835Z AUTO 00000KT 10SM CLR 13/00 A3016 RMK AO2,M
BAM,2022-08-26 08:35,-116.8743,40.5990,1382.36,55.40,21.20,26.13,180.00,5.00,0.00,30.10,M,10.00,M,CLR,M,M,M,M,M,M,M,M,M,M,M,M,M,M,55.40,KBAM 260835Z AUTO 18005KT 10SM CLR 13/M06 A3010 RMK AO1,M
VGT,2022-08-26 08:53,-115.1933,36.2111,667.00,89.00,54.00,30.36,300.00,8.00,0.00,29.95,1012.60,10.00,M,CLR,M,M,M,M,M,M,M,M,M,M,M,M,M,M,86.98,KVGT 260853Z AUTO 30008KT 10SM CLR 32/12 A2995 RMK AO2 SLP126 T03170122 58006,M
ELY,2022-08-26 08:53,-114.8453,39.2950,1909.00,50.00,46.00,86.06,160.00,3.00,0.00,30.27,1015.60,10.00,M,CLR,M,M,M,M,M,M,M,M,M,M,M,M,M,M,50.00,KELY 260853Z AUTO 16003KT 10SM CLR 10/08 A3027 RMK AO2 SLP156 T01000078 56006,M
DRA,2022-08-26 08:53,-116.0278,36.6206,1009.00,78.00,53.00,41.89,70.00,4.00,0.00,30.06,1012.40,10.00,M,CLR,M,M,M,M,M,M,M,M,M,M,M,M,M,M,78.10,KDRA 260853Z AUTO 07004KT 10SM CLR 26/12 A3006 RMK AO2 SLP124 T02560117 58008,M
P68,2022-08-26 08:53,-116.0056,39.6014,1993.00,58.00,40.00,51.02,0.00,0.00,0.00,30.21,1014.20,M,M,M,M,M,M,M,M,M,M,M,M,M,M,M,M,M,57.90,KP68 260853Z AUTO 00000KT 14/04 A3021 RMK AO1 SLP142 T01440044 56002,M
LOL,2022-08-26 08:53,-118.5701,40.0684,1192.43,67.00,26.10,21.35,0.00,0.00,0.00,30.07,1013.40,10.00,M,CLR,M,M,M,M,M,M,M,M,M,M,M,M,M,M,66.90,KLOL 260853Z AUTO 00000KT 10SM CLR 19/M03 A3007 RMK AO2 SLP134 T01941033 51007,M
RNO,2022-08-26 08:55,-119.7711,39.4839,1341.00,68.00,37.00,31.92,0.00,0.00,0.00,30.15,1014.50,10.00,M,SCT,M,M,M,15000.00,M,M,M,M,M,M,M,M,M,M,68.00,KRNO 260855Z COR 00000KT 10SM SCT150 20/03 A3015 RMK AO2 SLP145 T02000028 53004,M
LSV,2022-08-26 08:55,-115.0343,36.2362,570.00,86.50,54.00,32.97,90.00,4.00,0.00,29.93,1010.70,10.00,M,FEW,M,M,M,20000.00,M,M,M,M,M,M,M,M,M,M,84.68,KLSV 260855Z AUTO 09004KT 10SM FEW200 30/12 A2993 RMK AO2 SLP107 T03030122 55007 $,M
RTS,2022-08-26 08:55,-119.8764,39.6682,1539.00,60.80,23.00,23.23,350.00,5.00,0.00,30.20,M,10.00,M,CLR,M,M,M,M,M,M,M,M,M,M,M,M,M,M,60.80,KRTS 260855Z AUTO 35005KT 10SM CLR 16/M05 A3020 RMK AO2,M
MEV,2022-08-26 08:55,-119.7500,38.9963,1441.42,53.60,33.80,46.88,100.00,4.00,0.00,30.16,M,10.00,M,CLR,M,M,M,M,M,M,M,M,M,M,M,M,M,M,53.60,KMEV 260855Z AUTO 10004KT 10SM CLR 12/01 A3016 RMK AO2,M
BAM,2022-08-26 08:55,-116.8743,40.5990,1382.36,55.40,23.00,28.20,140.00,6.00,0.00,30.10,M,10.00,M,CLR,M,M,M,M,M,M,M,M,M,M,M,M,M,M,55.40,KBAM 260855Z AUTO 14006KT 10SM CLR 13/M05 A3010 RMK AO1,M
HTH,2022-08-26 08:55,-118.6315,38.5448,1282.89,73.40,33.80,23.39,180.00,5.00,0.00,30.11,M,10.00,M,CLR,M,M,M,M,M,M,M,M,M,M,M,M,M,M,73.40,KHTH 260855Z AUTO 18005KT 10SM CLR 23/01 A3011 RMK A01,M
TMT,2022-08-26 08:55,-117.1971,39.4643,1749.34,M,M,M,170.00,5.00,0.00,30.22,M,10.00,M,CLR,M,M,M,M,M,M,M,M,M,M,M,M,M,M,M,KTMT 260855Z AUTO 17005KT 10SM CLR A3022 RMK AO2,M
BVU,2022-08-26 08:55,-114.8611,35.9475,671.00,84.20,57.20,39.86,0.00,0.00,0.00,29.96,M,M,M,M,M,M,M,M,M,M,M,M,M,M,M,M,M,M,83.47,KBVU 260855Z AUTO 00000KT 29/14 A2996 RMK AO2 PWINO TSNO,M
CXP,2022-08-26 08:55,-119.7326,39.1923,1431.00,60.80,37.40,41.71,100.00,3.00,0.00,30.18,M,10.00,M,CLR,M,M,M,M,M,M,M,M,M,M,M,M,M,M,60.80,KCXP 260855Z AUTO 10003KT 10SM CLR 16/03 A3018 RMK AO2,M
INS,2022-08-26 08:55,-115.6733,36.5872,955.00,78.60,54.00,42.74,270.00,8.00,0.00,30.04,1012.00,10.00,M,BKN,OVC,M,M,15000.00,21000.00,M,M,M,M,M,M,M,M,M,78.60,KINS 260855Z AUTO 27008KT 10SM BKN150 OVC210 26/12 A3004 RMK AO2 SLP120 T02590123 57008 $,M
WMC,2022-08-26 08:56,-117.8072,40.9019,1315.00,58.00,21.00,23.67,110.00,3.00,0.00,30.07,1012.90,10.00,M,CLR,M,M,M,M,M,M,M,M,M,M,M,M,M,M,57.90,KWMC 260856Z AUTO 11003KT 10SM CLR 14/M06 A3007 RMK AO2 SLP129 T01441061 50001,M
NFL,2022-08-26 08:56,-118.7010,39.4166,1199.00,70.00,30.90,23.36,0.00,0.00,0.00,30.09,1015.60,10.00,M,CLR,M,M,M,M,M,M,M,M,M,M,M,M,M,M,70.00,KNFL 260856Z 00000KT 10SM CLR 21/M01 A3009 RMK AO2 SLP156 T02111006 51008,M
EKO,2022-08-26 08:56,-115.7860,40.8242,1367.00,59.00,39.00,47.35,0.00,0.00,0.00,30.13,1014.10,10.00,M,CLR,M,M,M,M,M,M,M,M,M,M,M,M,M,M,59.00,KEKO 260856Z AUTO 00000KT 10SM CLR 15/04 A3013 RMK AO2 SLP141 T01500039 56001,M
TPH,2022-08-26 08:56,-117.0904,38.0505,1654.00,68.00,52.00,56.55,320.00,3.00,0.00,30.22,1014.60,10.00,M,CLR,M,M,M,M,M,M,M,M,M,M,M,M,M,M,68.00,KTPH 260856Z AUTO 32003KT 10SM CLR 20/11 A3022 RMK AO2 SLP146 T02000111 58002,M
LAS,2022-08-26 08:56,-115.1634,36.0719,663.00,88.00,55.00,32.60,0.00,0.00,0.00,29.96,1011.50,10.00,M,FEW,SCT,BKN,M,11000.00,14000.00,18000.00,M,M,M,M,M,M,M,M,86.20,KLAS 260856Z 00000KT 10SM FEW110 SCT140 BKN180 31/13 A2996 RMK AO2 SLP115 T03110128 58005,M
CXP,2022-08-26 09:15,-119.7326,39.1923,1431.00,60.80,35.60,38.85,0.00,0.00,0.00,30.17,M,10.00,M,CLR,M,M,M,M,M,M,M,M,M,M,M,M,M,M,60.80,KCXP 260915Z AUTO 00000KT 10SM CLR 16/02 A3017 RMK AO2,M
HTH,2022-08-26 09:15,-118.6315,38.5448,1282.89,73.40,33.80,23.39,160.00,5.00,0.00,30.11,M,10.00,M,CLR,M,M,M,M,M,M,M,M,M,M,M,M,M,M,73.40,KHTH 260915Z AUTO 16005KT 10SM CLR 23/01 A3011 RMK A01,M
BAM,2022-08-26 09:15,-116.8743,40.5990,1382.36,55.40,21.20,26.13,150.00,5.00,0.00,30.10,M,10.00,M,CLR,M,M,M,M,M,M,M,M,M,M,M,M,M,M,55.40,KBAM 260915Z AUTO 15005KT 10SM CLR 13/M06 A3010 RMK AO1,M
BVU,2022-08-26 09:15,-114.8611,35.9475,671.00,82.40,57.20,42.25,210.00,3.00,0.00,29.96,M,M,M,M,M,M,M,M,M,M,M,M,M,M,M,M,M,M,82.08,KBVU 260915Z AUTO 21003KT 28/14 A2996 RMK AO2 PWINO TSNO,M
TMT,2022-08-26 09:15,-117.1971,39.4643,1749.34,M,M,M,190.00,6.00,0.00,30.22,M,10.00,M,CLR,M,M,M,M,M,M,M,M,M,M,M,M,M,M,M,KTMT 260915Z AUTO 19006KT 10SM CLR A3022 RMK AO2,M
RTS,2022-08-26 09:15,-119.8764,39.6682,1539.00,62.60,23.00,21.79,0.00,0.00,0.00,30.20,M,10.00,M,CLR,M,M,M,M,M,M,M,M,M,M,M,M,M,M,62.60,KRTS 260915Z AUTO 00000KT 10SM CLR 17/M05 A3020 RMK AO2,M
MEV,2022-08-26 09:15,-119.7500,38.9963,1441.42,57.20,32.00,38.26,120.00,6.00,0.00,30.16,M,10.00,M,CLR,M,M,M,M,M,M,M,M,M,M,M,M,M,M,57.20,KMEV 260915Z AUTO 12006KT 10SM CLR 14/00 A3016 RMK AO2,M
MEV,2022-08-26 09:35,-119.7500,38.9963,1441.42,53.60,35.60,50.36,0.00,0.00,0.00,30.16,M,10.00,M,CLR,M,M,M,M,M,M,M,M,M,M,M,M,M,M,53.60,KMEV 260935Z AUTO 00000KT 10SM CLR 12/02 A3016 RMK AO2,M
CXP,2022-08-26 09:35,-119.7326,39.1923,1431.00,59.00,35.60,41.42,310.00,3.00,0.00,30.17,M,10.00,M,CLR,M,M,M,M,M,M,M,M,M,M,M,M,M,M,59.00,KCXP 260935Z AUTO 31003KT 10SM CLR 15/02 A3017 RMK AO2,M
BVU,2022-08-26 09:35,-114.8611,35.9475,671.00,80.60,57.20,44.80,0.00,0.00,0.00,29.96,M,M,M,M,M,M,M,M,M,M,M,M,M,M,M,M,M,M,80.81,KBVU 260935Z AUTO 00000KT 27/14 A2996 RMK AO2 PWINO TSNO,M
TMT,2022-08-26 09:35,-117.1971,39.4643,1749.34,M,M,M,200.00,5.00,0.00,30.22,M,10.00,M,CLR,M,M,M,M,M,M,M,M,M,M,M,M,M,M,M,KTMT 260935Z AUTO 20005KT 10SM CLR A3022 RMK AO2,M
HTH,2022-08-26 09:35,-118.6315,38.5448,1282.89,71.60,35.60,26.71,0.00,0.00,0.00,30.12,M,10.00,M,CLR,M,M,M,M,M,M,M,M,M,M,M,M,M,M,71.60,KHTH 260935Z AUTO 00000KT 10SM CLR 22/02 A3012 RMK A01,M
BAM,2022-08-26 09:35,-116.8743,40.5990,1382.36,57.20,23.00,26.42,190.00,6.00,0.00,30.10,M,10.00,M,CLR,M,M,M,M,M,M,M,M,M,M,M,M,M,M,57.20,KBAM 260935Z AUTO 19006KT 10SM CLR 14/M05 A3010 RMK AO1,M
RTS,2022-08-26 09:35,-119.8764,39.6682,1539.00,60.80,23.00,23.23,350.00,5.00,0.00,30.19,M,10.00,M,CLR,M,M,M,M,M,M,M,M,M,M,M,M,M,M,60.80,KRTS 260935Z AUTO 35005KT 10SM CLR 16/M05 A3019 RMK AO2,M
LOL,2022-08-26 09:53,-118.5701,40.0684,1192.43,63.00,25.00,23.36,0.00,0.00,0.00,30.07,1013.80,10.00,M,CLR,M,M,M,M,M,M,M,M,M,M,M,M,M,M,63.00,KLOL 260953Z AUTO 00000KT 10SM CLR 17/M04 A3007 RMK AO2 SLP138 T01721039,M
P68,2022-08-26 09:53,-116.0056,39.6014,1993.00,59.00,41.00,51.18,190.00,8.00,0.00,30.21,1014.00,M,M,M,M,M,M,M,M,M,M,M,M,M,M,M,M,M,59.00,KP68 260953Z AUTO 19008KT 15/05 A3021 RMK AO1 SLP140 T01500050,M
VGT,2022-08-26 09:53,-115.1933,36.2111,667.00,89.00,54.00,30.36,280.00,7.00,0.00,29.95,1012.90,10.00,M,CLR,M,M,M,M,M,M,M,M,M,M,M,M,M,M,86.98,KVGT 260953Z AUTO 28007KT 10SM CLR 32/12 A2995 RMK AO2 SLP129 T03170122,M
DRA,2022-08-26 09:53,-116.0278,36.6206,1009.00,78.00,54.00,43.30,40.00,7.00,0.00,30.04,1011.90,10.00,M,CLR,M,M,M,M,M,M,M,M,M,M,M,M,M,M,78.10,KDRA 260953Z AUTO 04007KT 10SM CLR 26/12 A3004 RMK AO2 SLP119 T02560122,M
ELY,2022-08-26 09:53,-114.8453,39.2950,1909.00,52.00,48.00,86.17,180.00,7.00,0.00,30.27,1016.80,10.00,M,CLR,M,M,M,M,M,M,M,M,M,M,M,M,M,M,52.00,KELY 260953Z AUTO 18007KT 10SM CLR 11/09 A3027 RMK AO2 SLP168 T01110089,M
INS,2022-08-26 09:55,-115.6733,36.5872,955.00,77.50,52.50,41.80,310.00,5.00,0.00,30.04,1012.10,10.00,M,SCT,OVC,M,M,17000.00,22000.00,M,M,M,M,M,M,M,M,M,77.50,KINS 260955Z AUTO 31005KT 10SM SCT170 OVC220 25/11 A3004 RMK AO2 SLP121 T02530114 $,M
BAM,2022-08-26 09:55,-116.8743,40.5990,1382.36,55.40,23.00,28.20,210.00,5.00,0.00,30.10,M,10.00,M,CLR,M,M,M,M,M,M,M,M,M,M,M,M,M,M,55.40,KBAM 260955Z AUTO 21005KT 10SM CLR 13/M05 A3010 RMK AO1,M
HTH,2022-08-26 09:55,-118.6315,38.5448,1282.89,71.60,35.60,26.71,220.00,4.00,0.00,30.12,M,10.00,M,CLR,M,M,M,M,M,M,M,M,M,M,M,M,M,M,71.60,KHTH 260955Z AUTO 22004KT 10SM CLR 22/02 A3012 RMK A01,M
TMT,2022-08-26 09:55,-117.1971,39.4643,1749.34,M,M,M,200.00,10.00,0.00,30.22,M,10.00,M,CLR,M,M,M,M,M,M,M,M,M,M,M,M,M,M,M,KTMT 260955Z AUTO 20010KT 10SM CLR A3022 RMK AO2,M
RTS,2022-08-26 09:55,-119.8764,39.6682,1539.00,59.00,24.80,26.70,330.00,6.00,0.00,30.19,M,10.00,M,CLR,M,M,M,M,M,M,M,M,M,M,M,M,M,M,59.00,KRTS 260955Z AUTO 33006KT 10SM CLR 15/M04 A3019 RMK AO2,M
RNO,2022-08-26 09:55,-119.7711,39.4839,1341.00,68.00,36.00,30.69,240.00,3.00,0.00,30.14,1014.10,10.00,M,SCT,M,M,M,14000.00,M,M,M,M,M,M,M,M,M,M,68.00,KRNO 260955Z 24003KT 10SM SCT140 20/02 A3014 RMK AO2 SLP141 T02000022,M
CXP,2022-08-26 09:55,-119.7326,39.1923,1431.00,60.80,33.80,36.16,0.00,0.00,0.00,30.17,M,10.00,M,CLR,M,M,M,M,M,M,M,M,M,M,M,M,M,M,60.80,KCXP 260955Z AUTO 00000KT 10SM CLR 16/01 A3017 RMK AO2,M
BVU,2022-08-26 09:55,-114.8611,35.9475,671.00,80.60,59.00,47.79,330.00,5.00,0.00,29.96,M,M,M,M,M,M,M,M,M,M,M,M,M,M,M,M,M,M,81.11,KBVU 260955Z AUTO 33005KT 27/15 A2996 RMK AO2 PWINO TSNO,M
LSV,2022-08-26 09:55,-115.0343,36.2362,570.00,85.60,55.60,35.97,60.00,5.00,0.00,29.93,1010.70,10.00,M,SCT,BKN,BKN,M,14000.00,17000.00,21000.00,M,M,M,M,M,M,M,M,84.25,KLSV 260955Z AUTO 06005KT 10SM SCT140 BKN170 BKN210 30/13 A2993 RMK AO2 SLP107 T02980131 $,M
MEV,2022-08-26 09:55,-119.7500,38.9963,1441.42,50.00,35.60,57.52,130.00,5.00,0.00,30.16,M,10.00,M,CLR,M,M,M,M,M,M,M,M,M,M,M,M,M,M,50.00,KMEV 260955Z AUTO 13005KT 10SM CLR 10/02 A3016 RMK AO2,M
EKO,2022-08-26 09:56,-115.7860,40.8242,1367.00,57.00,40.00,52.70,100.00,5.00,0.00,30.14,1015.00,10.00,M,CLR,M,M,M,M,M,M,M,M,M,M,M,M,M,M,57.00,KEKO 260956Z AUTO 10005KT 10SM CLR 14/04 A3014 RMK AO2 SLP150 T01390044,M
LAS,2022-08-26 09:56,-115.1634,36.0719,663.00,86.00,57.00,37.35,150.00,3.00,0.00,29.96,1011.60,10.00,M,FEW,SCT,OVC,M,10000.00,13000.00,19000.00,M,M,M,M,M,M,M,M,84.92,KLAS 260956Z 15003KT 10SM FEW100 SCT130 OVC190 30/14 A2996 RMK AO2 SLP116 T03000139,M
NFL,2022-08-26 09:56,-118.7010,39.4166,1199.00,67.00,30.90,25.98,180.00,5.00,0.00,30.09,1015.50,10.00,M,CLR,M,M,M,M,M,M,M,M,M,M,M,M,M,M,66.90,KNFL 260956Z 18005KT 10SM CLR 19/M01 A3009 RMK AO2 SLP155 T01941006,M
WMC,2022-08-26 09:56,-117.8072,40.9019,1315.00,59.00,21.90,23.64,0.00,0.00,0.00,30.08,1013.00,10.00,M,CLR,M,M,M,M,M,M,M,M,M,M,M,M,M,M,59.00,KWMC 260956Z AUTO 00000KT 10SM CLR 15/M06 A3008 RMK AO2 SLP130 T01501056,M
TPH,2022-08-26 09:56,-117.0904,38.0505,1654.00,65.00,51.00,60.90,350.00,3.00,0.00,30.21,1014.40,10.00,M,CLR,M,M,M,M,M,M,M,M,M,M,M,M,M,M,64.90,KTPH 260956Z AUTO 35003KT 10SM CLR 18/11 A3021 RMK AO2 SLP144 T01830106,M
MEV,2022-08-26 10:15,-119.7500,38.9963,1441.42,50.00,32.00,49.81,M,3.00,0.00,30.16,M,10.00,M,CLR,M,M,M,M,M,M,M,M,M,M,M,M,M,M,50.00,KMEV 261015Z AUTO VRB03KT 10SM CLR 10/M00 A3016 RMK AO2,M
BVU,2022-08-26 10:15,-114.8611,35.9475,671.00,80.60,59.00,47.79,0.00,0.00,0.00,29.96,M,M,M,M,M,M,M,M,M,M,M,M,M,M,M,M,M,M,81.11,KBVU 261015Z AUTO 00000KT 27/15 A2996 RMK AO2 PWINO TSNO,M
CXP,2022-08-26 10:15,-119.7326,39.1923,1431.00,57.20,35.60,44.19,0.00,0.00,0.00,30.17,M,10.00,M,CLR,M,M,M,M,M,M,M,M,M,M,M,M,M,M,57.20,KCXP 261015Z AUTO 00000KT 10SM CLR 14/02 A3017 RMK AO2,M
RTS,2022-08-26 10:15,-119.8764,39.6682,1539.00,59.00,24.80,26.70,340.00,4.00,0.00,30.19,M,10.00,M,CLR,M,M,M,M,M,M,M,M,M,M,M,M,M,M,59.00,KRTS 261015Z AUTO 34004KT 10SM CLR 15/M04 A3019 RMK AO2,M
TMT,2022-08-26 10:15,-117.1971,39.4643,1749.34,M,M,M,240.00,4.00,0.00,30.22,M,10.00,M,CLR,M,M,M,M,M,M,M,M,M,M,M,M,M,M,M,KTMT 261015Z AUTO 24004KT 10SM CLR A3022 RMK AO2,M
HTH,2022-08-26 10:15,-118.6315,38.5448,1282.89,73.40,37.40,26.98,0.00,0.00,0.00,30.11,M,10.00,M,CLR,M,M,M,M,M,M,M,M,M,M,M,M,M,M,73.40,KHTH 261015Z AUTO 00000KT 10SM CLR 23/03 A3011 RMK A01,M
BAM,2022-08-26 10:15,-116.8743,40.5990,1382.36,60.80,23.00,23.23,0.00,0.00,0.00,30.10,M,10.00,M,CLR,M,M,M,M,M,M,M,M,M,M,M,M,M,M,60.80,KBAM 261015Z AUTO 00000KT 10SM CLR 16/M05 A3010 RMK AO1,M
CXP,2022-08-26 10:35,-119.7326,39.1923,1431.00,55.40,35.60,47.16,0.00,0.00,0.00,30.17,M,10.00,M,CLR,M,M,M,M,M,M,M,M,M,M,M,M,M,M,55.40,KCXP 261035Z AUTO 00000KT 10SM CLR 13/02 A3017 RMK AO2,M
TMT,2022-08-26 10:35,-117.1971,39.4643,1749.34,M,M,M,180.00,5.00,0.00,30.22,M,10.00,M,CLR,M,M,M,M,M,M,M,M,M,M,M,M,M,M,M,KTMT 261035Z AUTO 18005KT 10SM CLR A3022 RMK AO2,M
HTH,2022-08-26 10:35,-118.6315,38.5448,1282.89,71.60,37.40,28.68,0.00,0.00,0.00,30.11,M,10.00,M,CLR,M,M,M,M,M,M,M,M,M,M,M,M,M,M,71.60,KHTH 261035Z AUTO 00000KT 10SM CLR 22/03 A3011 RMK A01,M
BAM,2022-08-26 10:35,-116.8743,40.5990,1382.36,55.40,21.20,26.13,80.00,4.00,0.00,30.10,M,10.00,M,CLR,M,M,M,M,M,M,M,M,M,M,M,M,M,M,55.40,KBAM 261035Z AUTO 08004KT 10SM CLR 13/M06 A3010 RMK AO1,M
MEV,2022-08-26 10:35,-119.7500,38.9963,1441.42,53.60,35.60,50.36,250.00,3.00,0.00,30.16,M,10.00,M,CLR,M,M,M,M,M,M,M,M,M,M,M,M,M,M,53.60,KMEV 261035Z AUTO 25003KT 10SM CLR 12/02 A3016 RMK AO2,M
RTS,2022-08-26 10:35,-119.8764,39.6682,1539.00,59.00,23.00,24.76,330.00,4.00,0.00,30.19,M,10.00,M,CLR,M,M,M,M,M,M,M,M,M,M,M,M,M,M,59.00,KRTS 261035Z AUTO 33004KT 10SM CLR 15/M05 A3019 RMK AO2,M
BVU,2022-08-26 10:35,-114.8611,35.9475,671.00,80.60,59.00,47.79,0.00,0.00,0.00,29.96,M,M,M,M,M,M,M,M,M,M,M,M,M,M,M,M,M,M,81.11,KBVU 261035Z AUTO 00000KT 27/15 A2996 RMK AO2 PWINO TSNO,M
LOL,2022-08-26 10:53,-118.5701,40.0684,1192.43,57.00,26.10,30.28,M,3.00,0.00,30.07,1014.00,10.00,M,CLR,M,M,M,M,M,M,M,M,M,M,M,M,M,M,57.00,KLOL 261053Z AUTO VRB03KT 10SM CLR 14/M03 A3007 RMK AO2 SLP140 T01391033,M
P68,2022-08-26 10:53,-116.0056,39.6014,1993.00,54.00,40.00,58.76,200.00,5.00,0.00,30.21,1014.50,M,M,M,M,M,M,M,M,M,M,M,M,M,M,M,M,M,54.00,KP68 261053Z AUTO 20005KT 12/04 A3021 RMK AO1 SLP145 T01220044,M
DRA,2022-08-26 10:53,-116.0278,36.6206,1009.00,77.00,53.00,43.44,40.00,11.00,0.00,30.04,1011.70,10.00,M,CLR,M,M,M,M,M,M,M,M,M,M,M,M,M,M,77.00,KDRA 261053Z AUTO 04011KT 10SM CLR 25/12 A3004 RMK AO2 SLP117 T02500117,M
ELY,2022-08-26 10:53,-114.8453,39.2950,1909.00,50.00,47.00,89.04,160.00,10.00,0.00,30.26,1016.70,10.00,M,CLR,M,M,M,M,M,M,M,M,M,M,M,M,M,M,50.00,KELY 261053Z AUTO 16010KT 10SM CLR 10/08 A3026 RMK AO2 SLP167 T01000083,M
VGT,2022-08-26 10:53,-115.1933,36.2111,667.00,88.00,54.00,31.43,330.00,6.00,0.00,29.95,1012.90,10.00,M,CLR,M,M,M,M,M,M,M,M,M,M,M,M,M,M,85.98,KVGT 261053Z AUTO 33006KT 10SM CLR 31/12 A2995 RMK AO2 SLP129 T03110122,M
LSV,2022-08-26 10:55,-115.0343,36.2362,570.00,85.00,54.30,34.86,80.00,7.00,0.00,29.93,1010.70,10.00,M,CLR,M,M,M,M,M,M,M,M,M,M,M,M,M,M,83.58,KLSV 261055Z AUTO 08007KT 10SM CLR 30/12 A2993 RMK AO2 SLP107 T02950124 $,M
BVU,2022-08-26 10:55,-114.8611,35.9475,671.00,80.60,59.00,47.79,310.00,4.00,0.00,29.96,M,M,M,M,M,M,M,M,M,M,M,M,M,M,M,M,M,M,81.11,KBVU 261055Z AUTO 31004KT 27/15 A2996 RMK AO2 PWINO TSNO,M
CXP,2022-08-26 10:55,-119.7326,39.1923,1431.00,55.40,37.40,50.64,0.00,0.00,0.00,30.17,M,10.00,M,CLR,M,M,M,M,M,M,M,M,M,M,M,M,M,M,55.40,KCXP 261055Z AUTO 00000KT 10SM CLR 13/03 A3017 RMK AO2,M
RNO,2022-08-26 10:55,-119.7711,39.4839,1341.00,64.00,39.00,39.67,0.00,0.00,0.00,30.15,1014.50,10.00,M,FEW,M,M,M,14000.00,M,M,M,M,M,M,M,M,M,M,64.00,KRNO 261055Z 00000KT 10SM FEW140 18/04 A3015 RMK AO2 SLP145 T01780039,M
RTS,2022-08-26 10:55,-119.8764,39.6682,1539.00,53.60,23.00,30.11,360.00,4.00,0.00,30.19,M,10.00,M,CLR,M,M,M,M,M,M,M,M,M,M,M,M,M,M,53.60,KRTS 261055Z AUTO 36004KT 10SM CLR 12/M05 A3019 RMK AO2,M
MEV,2022-08-26 10:55,-119.7500,38.9963,1441.42,50.00,33.80,53.54,0.00,0.00,0.00,30.16,M,10.00,M,CLR,M,M,M,M,M,M,M,M,M,M,M,M,M,M,50.00,KMEV 261055Z AUTO 00000KT 10SM CLR 10/01 A3016 RMK AO2,M
BAM,2022-08-26 10:55,-116.8743,40.5990,1382.36,55.40,23.00,28.20,40.00,4.00,0.00,30.11,M,10.00,M,CLR,M,M,M,M,M,M,M,M,M,M,M,M,M,M,55.40,KBAM 261055Z AUTO 04004KT 10SM CLR 13/M05 A3011 RMK AO1,M
HTH,2022-08-26 10:55,-118.6315,38.5448,1282.89,69.80,37.40,30.49,310.00,3.00,0.00,30.11,M,10.00,M,CLR,M,M,M,M,M,M,M,M,M,M,M,M,M,M,69.80,KHTH 261055Z AUTO 31003KT 10SM CLR 21/03 A3011 RMK A01,M
TMT,2022-08-26 10:55,-117.1971,39.4643,1749.34,M,M,M,0.00,0.00,0.00,30.22,M,10.00,M,CLR,M,M,M,M,M,M,M,M,M,M,M,M,M,M,M,KTMT 261055Z AUTO 00000KT 10SM CLR A3022 RMK AO2,M
INS,2022-08-26 10:55,-115.6733,36.5872,955.00,76.00,52.30,43.76,280.00,3.00,0.00,30.03,1012.00,10.00,M,CLR,M,M,M,M,M,M,M,M,M,M,M,M,M,M,75.90,KINS 261055Z AUTO 28003KT 10SM CLR 24/11 A3003 RMK AO2 SLP120 T02440113 $,M
EKO,2022-08-26 10:56,-115.7860,40.8242,1367.00,47.00,40.00,76.48,160.00,5.00,0.00,30.13,1015.60,10.00,M,CLR,M,M,M,M,M,M,M,M,M,M,M,M,M,M,44.09,KEKO 261056Z AUTO 16005KT 10SM CLR 08/04 A3013 RMK AO2 SLP156 T00830044,M
NFL,2022-08-26 10:56,-118.7010,39.4166,1199.00,63.00,34.00,33.72,180.00,7.00,0.00,30.08,1015.50,10.00,M,CLR,M,M,M,M,M,M,M,M,M,M,M,M,M,M,63.00,KNFL 261056Z 18007KT 10SM CLR 17/01 A3008 RMK AO2 SLP155 T01720011,M
LAS,2022-08-26 10:56,-115.1634,36.0719,663.00,85.00,56.00,37.18,150.00,3.00,0.00,29.96,1011.50,10.00,M,FEW,SCT,OVC,M,10000.00,13000.00,19000.00,M,M,M,M,M,M,M,M,83.74,KLAS 261056Z 15003KT 10SM FEW100 SCT130 OVC190 29/13 A2996 RMK AO2 SLP115 T02940133,M
WMC,2022-08-26 10:56,-117.8072,40.9019,1315.00,57.00,25.00,28.93,170.00,6.00,0.00,30.09,1013.60,10.00,M,CLR,M,M,M,M,M,M,M,M,M,M,M,M,M,M,57.00,KWMC 261056Z AUTO 17006KT 10SM CLR 14/M04 A3009 RMK AO2 SLP136 T01391039,M
TPH,2022-08-26 10:56,-117.0904,38.0505,1654.00,63.00,53.00,70.07,360.00,4.00,0.00,30.21,1014.70,10.00,M,CLR,M,M,M,M,M,M,M,M,M,M,M,M,M,M,63.00,KTPH 261056Z AUTO 36004KT 10SM CLR 17/12 A3021 RMK AO2 SLP147 T01720117,M
BVU,2022-08-26 11:15,-114.8611,35.9475,671.00,82.40,55.40,39.58,0.00,0.00,0.00,29.96,M,M,M,M,M,M,M,M,M,M,M,M,M,M,M,M,M,M,81.75,KBVU 261115Z AUTO 00000KT 28/13 A2996 RMK AO2 PWINO TSNO,M
TMT,2022-08-26 11:15,-117.1971,39.4643,1749.34,M,M,M,190.00,3.00,0.00,30.22,M,10.00,M,CLR,M,M,M,M,M,M,M,M,M,M,M,M,M,M,M,KTMT 261115Z AUTO 19003KT 10SM CLR A3022 RMK AO2,M
HTH,2022-08-26 11:15,-118.6315,38.5448,1282.89,68.00,37.40,32.43,0.00,0.00,0.00,30.11,M,10.00,M,CLR,M,M,M,M,M,M,M,M,M,M,M,M,M,M,68.00,KHTH 261115Z AUTO 00000KT 10SM CLR 20/03 A3011 RMK A01,M
BAM,2022-08-26 11:15,-116.8743,40.5990,1382.36,53.60,26.60,34.98,70.00,5.00,0.00,30.11,M,10.00,M,CLR,M,M,M,M,M,M,M,M,M,M,M,M,M,M,53.60,KBAM 261115Z AUTO 07005KT 10SM CLR 12/M03 A3011 RMK AO1,M
MEV,2022-08-26 11:15,-119.7500,38.9963,1441.42,48.20,32.00,53.27,0.00,0.00,0.00,30.16,M,10.00,M,CLR,M,M,M,M,M,M,M,M,M,M,M,M,M,M,48.20,KMEV 261115Z AUTO 00000KT 10SM CLR 09/M00 A3016 RMK AO2,M
RTS,2022-08-26 11:15,-119.8764,39.6682,1539.00,57.20,24.80,28.48,0.00,0.00,0.00,30.19,M,10.00,M,CLR,M,M,M,M,M,M,M,M,M,M,M,M,M,M,57.20,KRTS 261115Z AUTO 00000KT 10SM CLR 14/M04 A3019 RMK AO2,M
CXP,2022-08-26 11:15,-119.7326,39.1923,1431.00,55.40,37.40,50.64,0.00,0.00,0.00,30.17,M,10.00,M,CLR,M,M,M,M,M,M,M,M,M,M,M,M,M,M,55.40,KCXP 261115Z AUTO 00000KT 10SM CLR 13/03 A3017 RMK AO2,M
BVU,2022-08-26 11:35,-114.8611,35.9475,671.00,80.60,59.00,47.79,60.00,3.00,0.00,29.95,M,M,M,M,M,M,M,M,M,M,M,M,M,M,M,M,M,M,81.11,KBVU 261135Z AUTO 06003KT 27/15 A2995 RMK AO2 PWINO TSNO,M
RTS,2022-08-26 11:35,-119.8764,39.6682,1539.00,51.80,23.00,32.17,360.00,7.00,0.00,30.19,M,10.00,M,CLR,M,M,M,M,M,M,M,M,M,M,M,M,M,M,51.80,KRTS 261135Z AUTO 36007KT 10SM CLR 11/M05 A3019 RMK AO2,M
HTH,2022-08-26 11:35,-118.6315,38.5448,1282.89,66.20,37.40,34.51,0.00,0.00,0.00,30.11,M,10.00,M,CLR,M,M,M,M,M,M,M,M,M,M,M,M,M,M,66.20,KHTH 261135Z AUTO 00000KT 10SM CLR 19/03 A3011 RMK A01,M
BAM,2022-08-26 11:35,-116.8743,40.5990,1382.36,51.80,23.00,32.17,150.00,4.00,0.00,30.11,M,10.00,M,CLR,M,M,M,M,M,M,M,M,M,M,M,M,M,M,51.80,KBAM 261135Z AUTO 15004KT 10SM CLR 11/M05 A3011 RMK AO1,M
MEV,2022-08-26 11:35,-119.7500,38.9963,1441.42,48.20,32.00,53.27,0.00,0.00,0.00,30.16,M,10.00,M,CLR,M,M,M,M,M,M,M,M,M,M,M,M,M,M,48.20,KMEV 261135Z AUTO 00000KT 10SM CLR 09/M00 A3016 RMK AO2,M
TMT,2022-08-26 11:35,-117.1971,39.4643,1749.34,M,M,M,0.00,0.00,0.00,30.22,M,10.00,M,CLR,M,M,M,M,M,M,M,M,M,M,M,M,M,M,M,KTMT 261135Z AUTO 00000KT 10SM CLR A3022 RMK AO2,M
CXP,2022-08-26 11:35,-119.7326,39.1923,1431.00,53.60,37.40,54.07,0.00,0.00,0.00,30.17,M,10.00,M,CLR,M,M,M,M,M,M,M,M,M,M,M,M,M,M,53.60,KCXP 261135Z AUTO 00000KT 10SM CLR 12/03 A3017 RMK AO2,M
DRA,2022-08-26 11:53,-116.0278,36.6206,1009.00,75.00,53.00,46.44,60.00,7.00,0.00,30.04,1012.00,10.00,M,CLR,M,M,M,M,M,M,M,M,M,M,M,M,M,M,75.00,KDRA 261153Z AUTO 06007KT 10SM CLR 24/12 A3004 RMK AO2 SLP120 T02390117 10272 20233 55005,M
LOL,2022-08-26 11:53,-118.5701,40.0684,1192.43,58.00,27.00,30.43,0.00,0.00,0.00,30.07,1013.90,10.00,M,CLR,M,M,M,M,M,M,M,M,M,M,M,M,M,M,57.90,KLOL 261153Z AUTO 00000KT 10SM CLR 14/M03 A3007 RMK AO2 SLP139 T01441028 10294 20128 50000,M
VGT,2022-08-26 11:53,-115.1933,36.2111,667.00,85.00,54.00,34.70,50.00,3.00,0.00,29.95,1012.90,10.00,M,CLR,M,M,M,M,M,M,M,M,M,M,M,M,M,M,83.37,KVGT 261153Z AUTO 05003KT 10SM CLR 29/12 A2995 RMK AO2 SLP129 T02940122 10328 20294 50000,M
ELY,2022-08-26 11:53,-114.8453,39.2950,1909.00,48.00,46.00,92.74,130.00,4.00,0.00,30.25,1017.00,10.00,M,CLR,M,M,M,M,M,M,M,M,M,M,M,M,M,M,46.10,KELY 261153Z AUTO 13004KT 10SM CLR 09/08 A3025 RMK AO2 SLP170 T00890078 10150 20089 58006 $,M
P68,2022-08-26 11:53,-116.0056,39.6014,1993.00,55.00,41.00,59.13,200.00,9.00,0.00,30.21,1014.30,M,M,M,M,M,M,M,M,M,M,M,M,M,M,M,M,M,55.00,KP68 261153Z AUTO 20009KT 13/05 A3021 RMK AO1 SLP143 T01280050 10200 20117 58002,M
RNO,2022-08-26 11:55,-119.7711,39.4839,1341.00,63.00,39.00,41.09,0.00,0.00,0.00,30.14,1014.40,10.00,M,FEW,M,M,M,14000.00,M,M,M,M,M,M,M,M,M,M,63.00,KRNO 261155Z 00000KT 10SM FEW140 17/04 A3014 RMK AO2 SLP144 T01720039 10250 20167 58002,M
BVU,2022-08-26 11:55,-114.8611,35.9475,671.00,80.60,57.20,44.80,50.00,4.00,0.00,29.95,M,M,M,M,M,M,M,M,M,M,M,M,M,M,M,M,M,M,80.81,KBVU 261155Z AUTO 05004KT 27/14 A2995 RMK AO2 PWINO TSNO,M
CXP,2022-08-26 11:55,-119.7326,39.1923,1431.00,53.60,37.40,54.07,0.00,0.00,0.00,30.17,M,10.00,M,CLR,M,M,M,M,M,M,M,M,M,M,M,M,M,M,53.60,KCXP 261155Z AUTO 00000KT 10SM CLR 12/03 A3017 RMK AO2,M
RTS,2022-08-26 11:55,-119.8764,39.6682,1539.00,51.80,24.80,34.69,0.00,0.00,0.00,30.19,M,10.00,M,CLR,M,M,M,M,M,M,M,M,M,M,M,M,M,M,51.80,KRTS 261155Z AUTO 00000KT 10SM CLR 11/M04 A3019 RMK AO2,M
MEV,2022-08-26 11:55,-119.7500,38.9963,1441.42,46.40,32.00,57.00,0.00,0.00,0.00,30.15,M,10.00,M,CLR,M,M,M,M,M,M,M,M,M,M,M,M,M,M,46.40,KMEV 261155Z AUTO 00000KT 10SM CLR 08/M00 A3015 RMK AO2,M
BAM,2022-08-26 11:55,-116.8743,40.5990,1382.36,53.60,23.00,30.11,170.00,5.00,0.00,30.11,M,10.00,M,CLR,M,M,M,M,M,M,M,M,M,M,M,M,M,M,53.60,KBAM 261155Z AUTO 17005KT 10SM CLR 12/M05 A3011 RMK AO1,M
HTH,2022-08-26 11:55,-118.6315,38.5448,1282.89,66.20,35.60,32.14,110.00,6.00,0.00,30.12,M,10.00,M,CLR,M,M,M,M,M,M,M,M,M,M,M,M,M,M,66.20,KHTH 261155Z AUTO 11006KT 10SM CLR 19/02 A3012 RMK A01,M
TMT,2022-08-26 11:55,-117.1971,39.4643,1749.34,47.00,33.60,59.20,0.00,0.00,0.00,30.22,M,10.00,M,CLR,M,M,M,M,M,M,M,M,M,M,M,M,M,M,47.10,KTMT 261155Z AUTO 00000KT 10SM CLR 08/01 A3022 RMK AO2 T00840009,M
LSV,2022-08-26 11:55,-115.0343,36.2362,570.00,84.20,55.00,36.81,70.00,8.00,0.00,29.93,1010.80,10.00,M,CLR,M,M,M,M,M,M,M,M,M,M,M,M,M,M,83.01,KLSV 261155Z AUTO 07008KT 10SM CLR 29/13 A2993 RMK AO2 SLP108 T02900128 10327 20290 58001 $,M
INS,2022-08-26 11:55,-115.6733,36.5872,955.00,74.00,51.80,45.93,0.00,0.00,0.00,30.03,1011.80,10.00,M,CLR,M,M,M,M,M,M,M,M,M,M,M,M,M,M,73.90,KINS 261155Z AUTO 00000KT 10SM CLR 23/11 A3003 RMK AO2 SLP118 T02330110 10285 20233 57004 $,M
NFL,2022-08-26 11:56,-118.7010,39.4166,1199.00,62.00,33.00,33.58,140.00,3.00,0.00,30.08,1015.30,10.00,M,CLR,M,M,M,M,M,M,M,M,M,M,M,M,M,M,62.10,KNFL 261156Z 14003KT 10SM CLR 17/01 A3008 RMK AO2 SLP153 T01670006 10272 20156 58003,M
WMC,2022-08-26 11:56,-117.8072,40.9019,1315.00,53.00,25.00,33.34,0.00,0.00,0.00,30.09,1013.90,10.00,M,CLR,M,M,M,M,M,M,M,M,M,M,M,M,M,M,53.10,KWMC 261156Z AUTO 00000KT 10SM CLR 12/M04 A3009 RMK AO2 SLP139 T01171039 10189 20117 53006,M
EKO,2022-08-26 11:56,-115.7860,40.8242,1367.00,51.00,39.00,63.12,0.00,0.00,0.00,30.13,1015.30,10.00,M,CLR,M,M,M,M,M,M,M,M,M,M,M,M,M,M,51.10,KEKO 261156Z AUTO 00000KT 10SM CLR 11/04 A3013 RMK AO2 SLP153 T01060039 10244 20083 51002,M
LAS,2022-08-26 11:56,-115.1634,36.0719,663.00,83.00,57.00,41.27,0.00,0.00,0.00,29.96,1011.60,10.00,M,FEW,FEW,M,M,14000.00,20000.00,M,M,M,M,M,M,M,M,M,82.41,KLAS 261156Z 00000KT 10SM FEW140 FEW200 28/14 A2996 RMK AO2 SLP116 T02830139 10322 20283 58001 $,M
TPH,2022-08-26 11:56,-117.0904,38.0505,1654.00,61.00,53.00,75.20,360.00,6.00,0.00,30.20,1015.20,10.00,M,CLR,M,M,M,M,M,M,M,M,M,M,M,M,M,M,61.00,KTPH 261156Z AUTO 36006KT 10SM CLR 16/12 A3020 RMK AO2 SLP152 T01610117 10217 20161 58005,M
RTS,2022-08-26 12:15,-119.8764,39.6682,1539.00,50.00,23.00,34.39,340.00,4.00,0.00,30.18,M,10.00,M,CLR,M,M,M,M,M,M,M,M,M,M,M,M,M,M,50.00,KRTS 261215Z AUTO 34004KT 10SM CLR 10/M05 A3018 RMK AO2,M
BVU,2022-08-26 12:15,-114.8611,35.9475,671.00,82.40,57.20,42.25,0.00,0.00,0.00,29.96,M,M,M,M,M,M,M,M,M,M,M,M,M,M,M,M,M,M,82.08,KBVU 261215Z AUTO 00000KT 28/14 A2996 RMK AO2 PWINO TSNO,M
CXP,2022-08-26 12:15,-119.7326,39.1923,1431.00,53.60,37.40,54.07,0.00,0.00,0.00,30.17,M,10.00,M,CLR,M,M,M,M,M,M,M,M,M,M,M,M,M,M,53.60,KCXP 261215Z AUTO 00000KT 10SM CLR 12/03 A3017 RMK AO2,M
TMT,2022-08-26 12:15,-117.1971,39.4643,1749.34,46.60,32.00,56.57,0.00,0.00,0.00,30.22,M,10.00,M,CLR,M,M,M,M,M,M,M,M,M,M,M,M,M,M,46.60,KTMT 261215Z AUTO 00000KT 10SM CLR 08/00 A3022 RMK AO2 T00810000,M
HTH,2022-08-26 12:15,-118.6315,38.5448,1282.89,66.20,33.80,29.92,0.00,0.00,0.00,30.11,M,10.00,M,CLR,M,M,M,M,M,M,M,M,M,M,M,M,M,M,66.20,KHTH 261215Z AUTO 00000KT 10SM CLR 19/01 A3011 RMK A01,M
BAM,2022-08-26 12:15,-116.8743,40.5990,1382.36,51.80,21.20,29.82,120.00,3.00,0.00,30.11,M,10.00,M,CLR,M,M,M,M,M,M,M,M,M,M,M,M,M,M,51.80,KBAM 261215Z AUTO 12003KT 10SM CLR 11/M06 A3011 RMK AO1,M
MEV,2022-08-26 12:15,-119.7500,38.9963,1441.42,46.40,33.80,61.28,0.00,0.00,0.00,30.16,M,10.00,M,CLR,M,M,M,M,M,M,M,M,M,M,M,M,M,M,46.40,KMEV 261215Z AUTO 00000KT 10SM CLR 08/01 A3016 RMK AO2,M
CXP,2022-08-26 12:35,-119.7326,39.1923,1431.00,53.60,33.80,46.88,0.00,0.00,0.00,30.17,M,10.00,M,CLR,M,M,M,M,M,M,M,M,M,M,M,M,M,M,53.60,KCXP 261235Z AUTO 00000KT 10SM CLR 12/01 A3017 RMK AO2,M
TMT,2022-08-26 12:35,-117.1971,39.4643,1749.34,48.20,33.80,57.26,290.00,6.00,0.00,30.23,M,10.00,M,CLR,M,M,M,M,M,M,M,M,M,M,M,M,M,M,45.04,KTMT 261235Z AUTO 29006KT 10SM CLR 09/01 A3023 RMK AO2 T00900010,M
HTH,2022-08-26 12:35,-118.6315,38.5448,1282.89,68.00,35.60,30.20,0.00,0.00,0.00,30.12,M,10.00,M,CLR,M,M,M,M,M,M,M,M,M,M,M,M,M,M,68.00,KHTH 261235Z AUTO 00000KT 10SM CLR 20/02 A3012 RMK A01,M
BVU,2022-08-26 12:35,-114.8611,35.9475,671.00,82.40,57.20,42.25,0.00,0.00,0.00,29.96,M,M,M,M,M,M,M,M,M,M,M,M,M,M,M,M,M,M,82.08,KBVU 261235Z AUTO 00000KT 28/14 A2996 RMK AO2 PWINO TSNO,M
RTS,2022-08-26 12:35,-119.8764,39.6682,1539.00,50.00,23.00,34.39,340.00,6.00,0.00,30.18,M,10.00,M,CLR,M,M,M,M,M,M,M,M,M,M,M,M,M,M,50.00,KRTS 261235Z AUTO 34006KT 10SM CLR 10/M05 A3018 RMK AO2,M
MEV,2022-08-26 12:35,-119.7500,38.9963,1441.42,46.40,33.80,61.28,0.00,0.00,0.00,30.16,M,10.00,M,CLR,M,M,M,M,M,M,M,M,M,M,M,M,M,M,46.40,KMEV 261235Z AUTO 00000KT 10SM CLR 08/01 A3016 RMK AO2,M
BAM,2022-08-26 12:35,-116.8743,40.5990,1382.36,50.00,21.20,31.87,110.00,3.00,0.00,30.11,M,10.00,M,CLR,M,M,M,M,M,M,M,M,M,M,M,M,M,M,50.00,KBAM 261235Z AUTO 11003KT 10SM CLR 10/M06 A3011 RMK AO1,M
CXP,2022-08-26 12:50,-119.7326,39.1923,1431.00,55.40,35.60,47.16,0.00,0.00,0.00,30.17,M,10.00,M,CLR,M,M,M,M,M,M,M,M,M,M,M,M,M,M,55.40,KCXP 261250Z AUTO 00000KT 10SM CLR 13/02 A3017 RMK AO2,M
DRA,2022-08-26 12:53,-116.0278,36.6206,1009.00,74.00,53.00,48.18,350.00,4.00,0.00,30.04,1012.10,10.00,M,CLR,M,M,M,M,M,M,M,M,M,M,M,M,M,M,73.90,KDRA 261253Z AUTO 35004KT 10SM CLR 23/12 A3004 RMK AO2 SLP121 T02330117,M
ELY,2022-08-26 12:53,-114.8453,39.2950,1909.00,49.00,46.00,89.67,170.00,8.00,0.00,30.25,1016.60,10.00,M,CLR,M,M,M,M,M,M,M,M,M,M,M,M,M,M,44.93,KELY 261253Z AUTO 17008KT 10SM CLR 09/08 A3025 RMK AO2 SLP166 T00940078 $,M
VGT,2022-08-26 12:53,-115.1933,36.2111,667.00,84.00,55.00,37.05,0.00,0.00,0.00,29.96,1013.00,10.00,M,CLR,M,M,M,M,M,M,M,M,M,M,M,M,M,M,82.85,KVGT 261253Z 00000KT 10SM CLR 29/13 A2996 RMK AO2 SLP130 T02890128,M
LOL,2022-08-26 12:53,-118.5701,40.0684,1192.43,55.00,26.10,32.56,0.00,0.00,0.00,30.07,1014.20,10.00,M,CLR,M,M,M,M,M,M,M,M,M,M,M,M,M,M,55.00,KLOL 261253Z AUTO 00000KT 10SM CLR 13/M03 A3007 RMK AO2 SLP142 T01281033,M
P68,2022-08-26 12:53,-116.0056,39.6014,1993.00,55.00,41.00,59.13,190.00,10.00,0.00,30.21,1014.50,M,M,M,M,M,M,M,M,M,M,M,M,M,M,M,M,M,55.00,KP68 261253Z AUTO 19010KT 13/05 A3021 RMK AO1 SLP145 T01280050,M
TMT,2022-08-26 12:55,-117.1971,39.4643,1749.34,M,M,M,0.00,0.00,0.00,30.22,M,10.00,M,CLR,M,M,M,M,M,M,M,M,M,M,M,M,M,M,M,KTMT 261255Z AUTO 00000KT 10SM CLR A3022 RMK AO2,M
INS,2022-08-26 12:55,-115.6733,36.5872,955.00,70.00,52.50,53.78,270.00,4.00,0.00,30.03,1012.30,10.00,M,CLR,M,M,M,M,M,M,M,M,M,M,M,M,M,M,70.00,KINS 261255Z AUTO 27004KT 10SM CLR 21/11 A3003 RMK AO2 SLP123 T02110114 $,M
LSV,2022-08-26 12:55,-115.0343,36.2362,570.00,82.80,55.20,38.79,70.00,6.00,0.00,29.93,1010.80,10.00,M,CLR,M,M,M,M,M,M,M,M,M,M,M,M,M,M,82.00,KLSV 261255Z AUTO 07006KT 10SM CLR 28/13 A2993 RMK AO2 SLP108 T02820129 $,M
HTH,2022-08-26 12:55,-118.6315,38.5448,1282.89,66.20,35.60,32.14,230.00,5.00,0.00,30.12,M,10.00,M,CLR,M,M,M,M,M,M,M,M,M,M,M,M,M,M,66.20,KHTH 261255Z AUTO 23005KT 10SM CLR 19/02 A3012 RMK A01,M
MEV,2022-08-26 12:55,-119.7500,38.9963,1441.42,44.60,32.00,61.03,140.00,3.00,0.00,30.16,M,10.00,M,CLR,M,M,M,M,M,M,M,M,M,M,M,M,M,M,43.09,KMEV 261255Z AUTO 14003KT 10SM CLR 07/M00 A3016 RMK AO2,M
BAM,2022-08-26 12:55,-116.8743,40.5990,1382.36,51.80,21.20,29.82,0.00,0.00,0.00,30.11,M,10.00,M,CLR,M,M,M,M,M,M,M,M,M,M,M,M,M,M,51.80,KBAM 261255Z AUTO 00000KT 10SM CLR 11/M06 A3011 RMK AO1,M
BVU,2022-08-26 12:55,-114.8611,35.9475,671.00,80.60,57.20,44.80,0.00,0.00,0.00,29.96,M,M,M,M,M,M,M,M,M,M,M,M,M,M,M,M,M,M,80.81,KBVU 261255Z AUTO 00000KT 27/14 A2996 RMK AO2 PWINO TSNO,M
RNO,2022-08-26 12:55,-119.7711,39.4839,1341.00,61.00,39.00,44.10,190.00,3.00,0.00,30.14,1014.80,10.00,M,FEW,M,M,M,14000.00,M,M,M,M,M,M,M,M,M,M,61.00,KRNO 261255Z 19003KT 10SM FEW140 16/04 A3014 RMK AO2 SLP148 T01610039,M
RTS,2022-08-26 12:55,-119.8764,39.6682,1539.00,48.20,23.00,36.78,0.00,0.00,0.00,30.19,M,10.00,M,CLR,M,M,M,M,M,M,M,M,M,M,M,M,M,M,48.20,KRTS 261255Z AUTO 00000KT 10SM CLR 09/M05 A3019 RMK AO2,M
TPH,2022-08-26 12:56,-117.0904,38.0505,1654.00,59.00,52.00,77.55,360.00,6.00,0.00,30.20,1016.00,10.00,M,CLR,M,M,M,M,M,M,M,M,M,M,M,M,M,M,59.00,KTPH 261256Z AUTO 36006KT 10SM CLR 15/11 A3020 RMK AO2 SLP160 T01500111,M
EKO,2022-08-26 12:56,-115.7860,40.8242,1367.00,46.00,39.00,76.40,0.00,0.00,0.00,30.14,1016.20,10.00,M,CLR,M,M,M,M,M,M,M,M,M,M,M,M,M,M,46.00,KEKO 261256Z AUTO 00000KT 10SM CLR 08/04 A3014 RMK AO2 SLP162 T00780039,M
NFL,2022-08-26 12:56,-118.7010,39.4166,1199.00,60.00,30.90,32.99,150.00,5.00,0.00,30.08,1015.30,10.00,M,CLR,M,M,M,M,M,M,M,M,M,M,M,M,M,M,60.10,KNFL 261256Z 15005KT 10SM CLR 16/M01 A3008 RMK AO2 SLP153 T01561006,M
WMC,2022-08-26 12:56,-117.8072,40.9019,1315.00,50.00,25.00,37.39,140.00,7.00,0.00,30.09,1014.30,10.00,M,CLR,M,M,M,M,M,M,M,M,M,M,M,M,M,M,50.00,KWMC 261256Z AUTO 14007KT 10SM CLR 10/M04 A3009 RMK AO2 SLP143 T01001039,M
LAS,2022-08-26 12:56,-115.1634,36.0719,663.00,84.00,54.00,35.72,20.00,6.00,0.00,29.97,1011.80,10.00,M,FEW,M,M,M,14000.00,M,M,M,M,M,M,M,M,M,M,82.67,KLAS 261256Z 02006KT 10SM FEW140 29/12 A2997 RMK AO2 SLP118 T02890122 /,M
MEV,2022-08-26 13:15,-119.7500,38.9963,1441.42,42.80,32.00,65.38,60.00,4.00,0.00,30.16,M,10.00,M,CLR,M,M,M,M,M,M,M,M,M,M,M,M,M,M,40.03,KMEV 261315Z AUTO 06004KT 10SM CLR 06/M00 A3016 RMK AO2,M
RTS,2022-08-26 13:15,-119.8764,39.6682,1539.00,48.20,24.80,39.66,0.00,0.00,0.00,30.18,M,10.00,M,CLR,M,M,M,M,M,M,M,M,M,M,M,M,M,M,48.20,KRTS 261315Z AUTO 00000KT 10SM CLR 09/M04 A3018 RMK AO2,M
CXP,2022-08-26 13:15,-119.7326,39.1923,1431.00,51.80,37.40,57.77,0.00,0.00,0.00,30.18,M,10.00,M,CLR,M,M,M,M,M,M,M,M,M,M,M,M,M,M,51.80,KCXP 261315Z AUTO 00000KT 10SM CLR 11/03 A3018 RMK AO2,M
TMT,2022-08-26 13:15,-117.1971,39.4643,1749.34,45.30,32.50,60.64,0.00,0.00,0.00,30.23,M,10.00,M,CLR,M,M,M,M,M,M,M,M,M,M,M,M,M,M,45.30,KTMT 261315Z AUTO 00000KT 10SM CLR 07/00 A3023 RMK AO2 T00740003,M
BVU,2022-08-26 13:15,-114.8611,35.9475,671.00,78.80,57.20,47.52,0.00,0.00,0.00,29.97,M,M,M,M,M,M,M,M,M,M,M,M,M,M,M,M,M,M,78.80,KBVU 261315Z AUTO 00000KT 26/14 A2997 RMK AO2 PWINO TSNO,M
HTH,2022-08-26 13:15,-118.6315,38.5448,1282.89,64.40,37.40,36.74,0.00,0.00,0.00,30.12,M,10.00,M,CLR,M,M,M,M,M,M,M,M,M,M,M,M,M,M,64.40,KHTH 261315Z AUTO 00000KT 10SM CLR 18/03 A3012 RMK A01,M
BAM,2022-08-26 13:15,-116.8743,40.5990,1382.36,48.20,19.40,31.57,50.00,4.00,0.00,30.12,M,10.00,M,CLR,M,M,M,M,M,M,M,M,M,M,M,M,M,M,46.34,KBAM 261315Z AUTO 05004KT 10SM CLR 09/M07 A3012 RMK AO1,M
MEV,2022-08-26 13:35,-119.7500,38.9963,1441.42,44.60,33.80,65.61,0.00,0.00,0.00,30.17,M,10.00,M,CLR,M,M,M,M,M,M,M,M,M,M,M,M,M,M,44.60,KMEV 261335Z AUTO 00000KT 10SM CLR 07/01 A3017 RMK AO2,M
RTS,2022-08-26 13:35,-119.8764,39.6682,1539.00,48.20,24.80,39.66,330.00,3.00,0.00,30.19,M,10.00,M,CLR,M,M,M,M,M,M,M,M,M,M,M,M,M,M,47.21,KRTS 261335Z AUTO 33003KT 10SM CLR 09/M04 A3019 RMK AO2,M
CXP,2022-08-26 13:35,-119.7326,39.1923,1431.00,51.80,39.20,61.99,0.00,0.00,0.00,30.18,M,10.00,M,CLR,M,M,M,M,M,M,M,M,M,M,M,M,M,M,51.80,KCXP 261335Z AUTO 00000KT 10SM CLR 11/04 A3018 RMK AO2,M
BVU,2022-08-26 13:35,-114.8611,35.9475,671.00,78.80,59.00,50.69,0.00,0.00,0.00,29.97,M,M,M,M,M,M,M,M,M,M,M,M,M,M,M,M,M,M,78.80,KBVU 261335Z AUTO 00000KT 26/15 A2997 RMK AO2 PWINO TSNO,M
TMT,2022-08-26 13:35,-117.1971,39.4643,1749.34,44.60,32.50,62.27,0.00,0.00,0.00,30.23,M,10.00,M,CLR,M,M,M,M,M,M,M,M,M,M,M,M,M,M,44.60,KTMT 261335Z AUTO 00000KT 10SM CLR 07/00 A3023 RMK AO2 T00700003,M
HTH,2022-08-26 13:35,-118.6315,38.5448,1282.89,64.40,37.40,36.74,240.00,3.00,0.00,30.13,M,10.00,M,CLR,M,M,M,M,M,M,M,M,M,M,M,M,M,M,64.40,KHTH 261335Z AUTO 24003KT 10SM CLR 18/03 A3013 RMK A01,M
BAM,2022-08-26 13:35,-116.8743,40.5990,1382.36,50.00,23.00,34.39,50.00,4.00,0.00,30.13,M,10.00,M,CLR,M,M,M,M,M,M,M,M,M,M,M,M,M,M,50.00,KBAM 261335Z AUTO 05004KT 10SM CLR 10/M05 A3013 RMK AO1,M
ELY,2022-08-26 13:53,-114.8453,39.2950,1909.00,51.00,47.00,85.48,190.00,6.00,0.00,30.26,1016.90,10.00,M,CLR,M,M,M,M,M,M,M,M,M,M,M,M,M,M,51.10,KELY 261353Z AUTO 19006KT 10SM CLR 11/08 A3026 RMK AO2 SLP169 T01060083 $,M
LOL,2022-08-26 13:53,-118.5701,40.0684,1192.43,53.00,26.10,34.90,0.00,0.00,0.00,30.09,1015.00,10.00,M,CLR,M,M,M,M,M,M,M,M,M,M,M,M,M,M,53.10,KLOL 261353Z AUTO 00000KT 10SM CLR 12/M03 A3009 RMK AO2 SLP150 T01171033,M
VGT,2022-08-26 13:53,-115.1933,36.2111,667.00,85.00,54.00,34.70,280.00,4.00,0.00,29.97,1013.60,10.00,M,CLR,M,M,M,M,M,M,M,M,M,M,M,M,M,M,83.37,KVGT 261353Z 28004KT 10SM CLR 29/12 A2997 RMK AO2 SLP136 T02940122,M
P68,2022-08-26 13:53,-116.0056,39.6014,1993.00,56.00,41.00,57.23,180.00,7.00,0.00,30.22,1015.70,M,M,M,M,M,M,M,M,M,M,M,M,M,M,M,M,M,55.90,KP68 261353Z AUTO 18007KT 13/05 A3022 RMK AO1 SLP157 T01330050,M
DRA,2022-08-26 13:53,-116.0278,36.6206,1009.00,72.00,53.00,51.37,0.00,0.00,0.00,30.05,1012.90,10.00,M,CLR,M,M,M,M,M,M,M,M,M,M,M,M,M,M,72.00,KDRA 261353Z AUTO 00000KT 10SM CLR 22/12 A3005 RMK AO2 SLP129 T02220117,M
HTH,2022-08-26 13:55,-118.6315,38.5448,1282.89,64.40,37.40,36.74,210.00,6.00,0.00,30.13,M,10.00,M,CLR,M,M,M,M,M,M,M,M,M,M,M,M,M,M,64.40,KHTH 261355Z AUTO 21006KT 10SM CLR 18/03 A3013 RMK A01,M
LSV,2022-08-26 13:55,-115.0343,36.2362,570.00,82.20,54.70,38.84,100.00,6.00,0.00,29.95,1011.60,10.00,M,CLR,M,M,M,M,M,M,M,M,M,M,M,M,M,M,81.49,KLSV 261355Z AUTO 10006KT 10SM CLR 28/13 A2995 RMK AO2 SLP116 T02790126 $,M
CXP,2022-08-26 13:55,-119.7326,39.1923,1431.00,55.40,37.40,50.64,0.00,0.00,0.00,30.18,M,10.00,M,CLR,M,M,M,M,M,M,M,M,M,M,M,M,M,M,55.40,KCXP 261355Z AUTO 00000KT 10SM CLR 13/03 A3018 RMK AO2,M
RTS,2022-08-26 13:55,-119.8764,39.6682,1539.00,51.80,24.80,34.69,10.00,4.00,0.00,30.19,M,10.00,M,CLR,M,M,M,M,M,M,M,M,M,M,M,M,M,M,51.80,KRTS 261355Z AUTO 01004KT 10SM CLR 11/M04 A3019 RMK AO2,M
INS,2022-08-26 13:55,-115.6733,36.5872,955.00,72.50,52.70,49.77,0.00,0.00,0.00,30.05,1012.80,10.00,M,CLR,M,M,M,M,M,M,M,M,M,M,M,M,M,M,72.50,KINS 261355Z AUTO 00000KT 10SM CLR 23/12 A3005 RMK AO2 SLP128 T02250115 $,M
MEV,2022-08-26 13:55,-119.7500,38.9963,1441.42,48.20,32.00,53.27,130.00,5.00,0.00,30.17,M,10.00,M,CLR,M,M,M,M,M,M,M,M,M,M,M,M,M,M,45.63,KMEV 261355Z AUTO 13005KT 10SM CLR 09/00 A3017 RMK AO2,M
TMT,2022-08-26 13:55,-117.1971,39.4643,1749.34,45.00,32.00,59.88,190.00,3.00,0.00,30.24,M,10.00,M,CLR,M,M,M,M,M,M,M,M,M,M,M,M,M,M,43.66,KTMT 261355Z AUTO 19003KT 10SM CLR 07/00 A3024 RMK AO2 T00730000,M
BAM,2022-08-26 13:55,-116.8743,40.5990,1382.36,53.60,26.60,34.98,0.00,0.00,0.00,30.13,M,10.00,M,CLR,M,M,M,M,M,M,M,M,M,M,M,M,M,M,53.60,KBAM 261355Z AUTO 00000KT 10SM CLR 12/M03 A3013 RMK AO1,M
RNO,2022-08-26 13:55,-119.7711,39.4839,1341.00,61.00,39.00,44.10,0.00,0.00,0.00,30.15,1015.30,10.00,M,FEW,M,M,M,14000.00,M,M,M,M,M,M,M,M,M,M,61.00,KRNO 261355Z 00000KT 10SM FEW140 16/04 A3015 RMK AO2 SLP153 T01610039,M
BVU,2022-08-26 13:55,-114.8611,35.9475,671.00,80.60,59.00,47.79,0.00,0.00,0.00,29.98,M,M,M,M,M,M,M,M,M,M,M,M,M,M,M,M,M,M,81.11,KBVU 261355Z AUTO 00000KT 27/15 A2998 RMK AO2 PWINO TSNO,M
WMC,2022-08-26 13:56,-117.8072,40.9019,1315.00,56.00,28.00,34.08,150.00,4.00,0.00,30.11,1014.60,10.00,M,CLR,M,M,M,M,M,M,M,M,M,M,M,M,M,M,55.90,KWMC 261356Z AUTO 15004KT 10SM CLR 13/M02 A3011 RMK AO2 SLP146 T01331022,M
NFL,2022-08-26 13:56,-118.7010,39.4166,1199.00,61.00,30.90,31.95,160.00,5.00,0.00,30.09,1015.70,10.00,M,CLR,M,M,M,M,M,M,M,M,M,M,M,M,M,M,61.00,KNFL 261356Z 16005KT 10SM CLR 16/M01 A3009 RMK AO2 SLP157 T01611006,M
LAS,2022-08-26 13:56,-115.1634,36.0719,663.00,84.00,54.00,35.72,30.00,5.00,0.00,29.99,1012.50,10.00,M,FEW,M,M,M,15000.00,M,M,M,M,M,M,M,M,M,M,82.67,KLAS 261356Z 03005KT 10SM FEW150 29/12 A2999 RMK AO2 SLP125 T02890122 $,M
TPH,2022-08-26 13:56,-117.0904,38.0505,1654.00,60.00,51.00,72.13,350.00,9.00,0.00,30.21,1016.50,10.00,M,CLR,M,M,M,M,M,M,M,M,M,M,M,M,M,M,60.10,KTPH 261356Z AUTO 35009KT 10SM CLR 16/11 A3021 RMK AO2 SLP165 T01560106,M
EKO,2022-08-26 13:56,-115.7860,40.8242,1367.00,48.00,40.00,73.38,0.00,0.00,0.00,30.16,1016.80,10.00,M,CLR,M,M,M,M,M,M,M,M,M,M,M,M,M,M,48.00,KEKO 261356Z AUTO 00000KT 10SM CLR 09/04 A3016 RMK AO2 SLP168 T00890044,M
MEV,2022-08-26 14:15,-119.7500,38.9963,1441.42,48.20,33.80,57.26,0.00,0.00,0.00,30.18,M,8.00,M,CLR,M,M,M,M,M,M,M,M,M,M,M,M,M,M,48.20,KMEV 261415Z AUTO 00000KT 8SM CLR 09/01 A3018 RMK AO2,M
BAM,2022-08-26 14:15,-116.8743,40.5990,1382.36,55.40,24.80,30.40,0.00,0.00,0.00,30.14,M,10.00,M,CLR,M,M,M,M,M,M,M,M,M,M,M,M,M,M,55.40,KBAM 261415Z AUTO 00000KT 10SM CLR 13/M04 A3014 RMK AO1,M
TMT,2022-08-26 14:15,-117.1971,39.4643,1749.34,M,M,M,0.00,0.00,0.00,30.24,M,10.00,M,CLR,M,M,M,M,M,M,M,M,M,M,M,M,M,M,M,KTMT 261415Z AUTO 00000KT 10SM CLR A3024 RMK AO2,M
HTH,2022-08-26 14:15,-118.6315,38.5448,1282.89,66.20,37.40,34.51,220.00,4.00,0.00,30.14,M,10.00,M,CLR,M,M,M,M,M,M,M,M,M,M,M,M,M,M,66.20,KHTH 261415Z AUTO 22004KT 10SM CLR 19/03 A3014 RMK A01,M
BVU,2022-08-26 14:15,-114.8611,35.9475,671.00,82.40,57.20,42.25,0.00,0.00,0.00,29.98,M,M,M,M,M,M,M,M,M,M,M,M,M,M,M,M,M,M,82.08,KBVU 261415Z AUTO 00000KT 28/14 A2998 RMK AO2 PWINO TSNO,M
CXP,2022-08-26 14:15,-119.7326,39.1923,1431.00,57.20,33.80,41.13,0.00,0.00,0.00,30.18,M,10.00,M,CLR,M,M,M,M,M,M,M,M,M,M,M,M,M,M,57.20,KCXP 261415Z AUTO 00000KT 10SM CLR 14/01 A3018 RMK AO2,M
RTS,2022-08-26 14:15,-119.8764,39.6682,1539.00,53.60,26.60,34.98,0.00,0.00,0.00,30.20,M,10.00,M,CLR,M,M,M,M,M,M,M,M,M,M,M,M,M,M,53.60,KRTS 261415Z AUTO 00000KT 10SM CLR 12/M03 A3020 RMK AO2,M
MEV,2022-08-26 14:35,-119.7500,38.9963,1441.42,53.60,33.80,46.88,0.00,0.00,0.00,30.17,M,9.00,M,CLR,M,M,M,M,M,M,M,M,M,M,M,M,M,M,53.60,KMEV 261435Z AUTO 00000KT 9SM CLR 12/01 A3017 RMK AO2,M
CXP,2022-08-26 14:35,-119.7326,39.1923,1431.00,59.00,37.40,44.47,0.00,0.00,0.00,30.19,M,10.00,M,CLR,M,M,M,M,M,M,M,M,M,M,M,M,M,M,59.00,KCXP 261435Z AUTO 00000KT 10SM CLR 15/03 A3019 RMK AO2,M
BVU,2022-08-26 14:35,-114.8611,35.9475,671.00,82.40,57.20,42.25,0.00,0.00,0.00,29.99,M,M,M,M,M,M,M,M,M,M,M,M,M,M,M,M,M,M,82.08,KBVU 261435Z AUTO 00000KT 28/14 A2999 RMK AO2 PWINO TSNO,M
TMT,2022-08-26 14:35,-117.1971,39.4643,1749.34,M,M,M,0.00,0.00,0.00,30.24,M,10.00,M,CLR,M,M,M,M,M,M,M,M,M,M,M,M,M,M,M,KTMT 261435Z AUTO 00000KT 10SM CLR A3024 RMK AO2,M
HTH,2022-08-26 14:35,-118.6315,38.5448,1282.89,68.00,37.40,32.43,80.00,3.00,0.00,30.14,M,10.00,M,CLR,M,M,M,M,M,M,M,M,M,M,M,M,M,M,68.00,KHTH 261435Z AUTO 08003KT 10SM CLR 20/03 A3014 RMK A01,M
BAM,2022-08-26 14:35,-116.8743,40.5990,1382.36,59.00,26.60,28.77,0.00,0.00,0.00,30.14,M,10.00,M,CLR,M,M,M,M,M,M,M,M,M,M,M,M,M,M,59.00,KBAM 261435Z AUTO 00000KT 10SM CLR 15/M03 A3014 RMK AO1,M
RTS,2022-08-26 14:35,-119.8764,39.6682,1539.00,57.20,28.40,33.05,0.00,0.00,0.00,30.20,M,10.00,M,CLR,M,M,M,M,M,M,M,M,M,M,M,M,M,M,57.20,KRTS 261435Z AUTO 00000KT 10SM CLR 14/M02 A3020 RMK AO2,M
P68,2022-08-26 14:53,-116.0056,39.6014,1993.00,66.00,43.00,43.20,220.00,5.00,0.00,30.23,1015.20,M,M,M,M,M,M,M,M,M,M,M,M,M,M,M,M,M,66.00,KP68 261453Z AUTO 22005KT 19/06 A3023 RMK AO1 SLP152 T01890061 51006,M
VGT,2022-08-26 14:53,-115.1933,36.2111,667.00,86.00,55.00,34.74,0.00,0.00,0.00,29.98,1013.80,10.00,M,CLR,M,M,M,M,M,M,M,M,M,M,M,M,M,M,84.46,KVGT 261453Z 00000KT 10SM CLR 30/13 A2998 RMK AO2 SLP138 T03000128 53009,M
LOL,2022-08-26 14:53,-118.5701,40.0684,1192.43,63.00,30.00,28.70,0.00,0.00,0.00,30.10,1015.40,10.00,M,CLR,M,M,M,M,M,M,M,M,M,M,M,M,M,M,63.00,KLOL 261453Z AUTO 00000KT 10SM CLR 17/M01 A3010 RMK AO2 SLP154 T01721011 53010,M
ELY,2022-08-26 14:53,-114.8453,39.2950,1909.00,58.00,49.00,71.90,180.00,10.00,0.00,30.26,1016.90,10.00,M,CLR,M,M,M,M,M,M,M,M,M,M,M,M,M,M,57.90,KELY 261453Z AUTO 18010KT 10SM CLR 14/09 A3026 RMK AO2 SLP169 T01440094 53003 $,M
DRA,2022-08-26 14:53,-116.0278,36.6206,1009.00,78.00,54.00,43.30,0.00,0.00,0.00,30.06,1013.20,10.00,M,CLR,M,M,M,M,M,M,M,M,M,M,M,M,M,M,78.10,KDRA 261453Z AUTO 00000KT 10SM CLR 26/12 A3006 RMK AO2 SLP132 T02560122 53007,M
RTS,2022-08-26 14:55,-119.8764,39.6682,1539.00,60.80,28.40,29.06,350.00,3.00,0.00,30.20,M,10.00,M,CLR,M,M,M,M,M,M,M,M,M,M,M,M,M,M,60.80,KRTS 261455Z AUTO 35003KT 10SM CLR 16/M02 A3020 RMK AO2,M
BVU,2022-08-26 14:55,-114.8611,35.9475,671.00,82.40,57.20,42.25,0.00,0.00,0.00,29.99,M,M,M,M,M,M,M,M,M,M,M,M,M,M,M,M,M,M,82.08,KBVU 261455Z AUTO 00000KT 28/14 A2999 RMK AO2 PWINO TSNO,M
CXP,2022-08-26 14:55,-119.7326,39.1923,1431.00,60.80,37.40,41.71,0.00,0.00,0.00,30.19,M,10.00,M,CLR,M,M,M,M,M,M,M,M,M,M,M,M,M,M,60.80,KCXP 261455Z AUTO 00000KT 10SM CLR 16/03 A3019 RMK AO2,M
RNO,2022-08-26 14:55,-119.7711,39.4839,1341.00,67.00,36.00,31.87,0.00,0.00,0.00,30.16,1015.40,10.00,M,FEW,M,M,M,14000.00,M,M,M,M,M,M,M,M,M,M,66.90,KRNO 261455Z 00000KT 10SM FEW140 19/02 A3016 RMK AO2 SLP154 T01940022 53006,M
MEV,2022-08-26 14:55,-119.7500,38.9963,1441.42,59.00,32.00,35.87,0.00,0.00,0.00,30.17,M,10.00,M,CLR,M,M,M,M,M,M,M,M,M,M,M,M,M,M,59.00,KMEV 261455Z AUTO 00000KT 10SM CLR 15/00 A3017 RMK AO2,M
BAM,2022-08-26 14:55,-116.8743,40.5990,1382.36,64.40,28.40,25.60,80.00,3.00,0.00,30.14,M,10.00,M,CLR,M,M,M,M,M,M,M,M,M,M,M,M,M,M,64.40,KBAM 261455Z AUTO 08003KT 10SM CLR 18/M02 A3014 RMK AO1,M
HTH,2022-08-26 14:55,-118.6315,38.5448,1282.89,69.80,39.20,32.72,90.00,3.00,0.00,30.14,M,10.00,M,CLR,M,M,M,M,M,M,M,M,M,M,M,M,M,M,69.80,KHTH 261455Z AUTO 09003KT 10SM CLR 21/04 A3014 RMK A01,M
TMT,2022-08-26 14:55,-117.1971,39.4643,1749.34,M,M,M,0.00,0.00,0.00,30.24,M,10.00,M,CLR,M,M,M,M,M,M,M,M,M,M,M,M,M,M,M,KTMT 261455Z AUTO 00000KT 10SM CLR A3024 RMK AO2,M
INS,2022-08-26 14:55,-115.6733,36.5872,955.00,78.00,52.30,40.95,0.00,0.00,0.00,30.05,1012.60,10.00,M,CLR,M,M,M,M,M,M,M,M,M,M,M,M,M,M,77.90,KINS 261455Z AUTO 00000KT 10SM CLR 26/11 A3005 RMK AO2 SLP126 T02550113 52008 $,M
LSV,2022-08-26 14:55,-115.0343,36.2362,570.00,85.80,54.00,33.84,90.00,5.00,0.00,29.96,1011.90,10.00,M,CLR,M,M,M,M,M,M,M,M,M,M,M,M,M,M,84.11,KLSV 261455Z AUTO 09005KT 10SM CLR 30/12 A2996 RMK AO2 SLP119 T02990123 52010 $,M
LAS,2022-08-26 14:56,-115.1634,36.0719,663.00,87.00,54.00,32.34,0.00,0.00,0.00,29.99,1012.50,10.00,M,FEW,FEW,M,M,12000.00,17000.00,M,M,M,M,M,M,M,M,M,85.19,KLAS 261456Z 00000KT 10SM FEW120 FEW170 31/12 A2999 RMK AO2 SLP125 T03060122 51009 $,M
EKO,2022-08-26 14:56,-115.7860,40.8242,1367.00,57.00,41.00,54.99,240.00,3.00,0.00,30.17,1016.80,10.00,M,CLR,M,M,M,M,M,M,M,M,M,M,M,M,M,M,57.00,KEKO 261456Z AUTO 24003KT 10SM CLR 14/05 A3017 RMK AO2 SLP168 T01390050 51009,M
TPH,2022-08-26 14:56,-117.0904,38.0505,1654.00,66.00,50.00,56.27,10.00,5.00,0.00,30.22,1016.30,10.00,M,CLR,M,M,M,M,M,M,M,M,M,M,M,M,M,M,66.00,KTPH 261456Z AUTO 01005KT 10SM CLR 19/10 A3022 RMK AO2 SLP163 T01890100 53006,M
WMC,2022-08-26 14:56,-117.8072,40.9019,1315.00,67.00,27.00,22.15,200.00,4.00,0.00,30.12,1015.10,10.00,M,CLR,M,M,M,M,M,M,M,M,M,M,M,M,M,M,66.90,KWMC 261456Z AUTO 20004KT 10SM CLR 19/M03 A3012 RMK AO2 SLP151 T01941028 53008,M
RTS,2022-08-26 15:15,-119.8764,39.6682,1539.00,64.40,30.20,27.55,0.00,0.00,0.00,30.20,M,10.00,M,CLR,M,M,M,M,M,M,M,M,M,M,M,M,M,M,64.40,KRTS 261515Z AUTO 00000KT 10SM CLR 18/M01 A3020 RMK AO2,M
CXP,2022-08-26 15:15,-119.7326,39.1923,1431.00,64.40,33.80,31.85,0.00,0.00,0.00,30.18,M,10.00,M,CLR,M,M,M,M,M,M,M,M,M,M,M,M,M,M,64.40,KCXP 261515Z AUTO 00000KT 10SM CLR 18/01 A3018 RMK AO2,M
BVU,2022-08-26 15:15,-114.8611,35.9475,671.00,82.40,57.20,42.25,0.00,0.00,0.00,29.99,M,M,M,M,M,M,M,M,M,M,M,M,M,M,M,M,M,M,82.08,KBVU 261515Z AUTO 00000KT 28/14 A2999 RMK AO2 PWINO TSNO,M
TMT,2022-08-26 15:15,-117.1971,39.4643,1749.34,63.50,37.00,37.18,0.00,0.00,0.00,30.25,M,10.00,M,CLR,M,M,M,M,M,M,M,M,M,M,M,M,M,M,63.50,KTMT 261515Z AUTO 00000KT 10SM CLR 18/03 A3025 RMK AO2 T01750027,M
HTH,2022-08-26 15:15,-118.6315,38.5448,1282.89,71.60,41.00,33.00,0.00,0.00,0.00,30.14,M,10.00,M,CLR,M,M,M,M,M,M,M,M,M,M,M,M,M,M,71.60,KHTH 261515Z AUTO 00000KT 10SM CLR 22/05 A3014 RMK A01,M
BAM,2022-08-26 15:15,-116.8743,40.5990,1382.36,68.00,28.40,22.59,0.00,0.00,0.00,30.14,M,10.00,M,CLR,M,M,M,M,M,M,M,M,M,M,M,M,M,M,68.00,KBAM 261515Z AUTO 00000KT 10SM CLR 20/M02 A3014 RMK AO1,M
MEV,2022-08-26 15:15,-119.7500,38.9963,1441.42,62.60,33.80,33.93,0.00,0.00,0.00,30.17,M,10.00,M,CLR,M,M,M,M,M,M,M,M,M,M,M,M,M,M,62.60,KMEV 261515Z AUTO 00000KT 10SM CLR 17/01 A3017 RMK AO2,M
RTS,2022-08-26 15:35,-119.8764,39.6682,1539.00,66.20,30.20,25.88,0.00,0.00,0.00,30.20,M,10.00,M,CLR,M,M,M,M,M,M,M,M,M,M,M,M,M,M,66.20,KRTS 261535Z AUTO 00000KT 10SM CLR 19/M01 A3020 RMK AO2,M
TMT,2022-08-26 15:35,-117.1971,39.4643,1749.34,M,M,M,0.00,0.00,0.00,30.24,M,10.00,M,CLR,M,M,M,M,M,M,M,M,M,M,M,M,M,M,M,KTMT 261535Z AUTO 00000KT 10SM CLR A3024 RMK AO2,M
CXP,2022-08-26 15:35,-119.7326,39.1923,1431.00,68.00,30.20,24.32,0.00,0.00,0.00,30.18,M,10.00,M,CLR,M,M,M,M,M,M,M,M,M,M,M,M,M,M,68.00,KCXP 261535Z AUTO 00000KT 10SM CLR 20/M01 A3018 RMK AO2,M
HTH,2022-08-26 15:35,-118.6315,38.5448,1282.89,73.40,39.20,28.96,0.00,0.00,0.00,30.14,M,10.00,M,CLR,M,M,M,M,M,M,M,M,M,M,M,M,M,M,73.40,KHTH 261535Z AUTO 00000KT 10SM CLR 23/04 A3014 RMK A01,M
BAM,2022-08-26 15:35,-116.8743,40.5990,1382.36,71.60,28.40,19.98,0.00,0.00,0.00,30.14,M,10.00,M,CLR,M,M,M,M,M,M,M,M,M,M,M,M,M,M,71.60,KBAM 261535Z AUTO 00000KT 10SM CLR 22/M02 A3014 RMK AO1,M
BVU,2022-08-26 15:35,-114.8611,35.9475,671.00,82.40,57.20,42.25,0.00,0.00,0.00,29.99,M,M,M,M,M,M,M,M,M,M,M,M,M,M,M,M,M,M,82.08,KBVU 261535Z AUTO 00000KT 28/14 A2999 RMK AO2 PWINO TSNO,M
MEV,2022-08-26 15:35,-119.7500,38.9963,1441.42,64.40,33.80,31.85,0.00,0.00,0.00,30.17,M,10.00,M,CLR,M,M,M,M,M,M,M,M,M,M,M,M,M,M,64.40,KMEV 261535Z AUTO 00000KT 10SM CLR 18/01 A3017 RMK AO2,M
ELY,2022-08-26 15:53,-114.8453,39.2950,1909.00,66.00,48.00,52.22,180.00,7.00,0.00,30.26,1015.60,10.00,M,CLR,M,M,M,M,M,M,M,M,M,M,M,M,M,M,66.00,KELY 261553Z AUTO 18007KT 10SM CLR 19/09 A3026 RMK AO2 SLP156 T01890089,M
LOL,2022-08-26 15:53,-118.5701,40.0684,1192.43,73.00,30.00,20.34,0.00,0.00,0.00,30.10,1015.10,10.00,M,CLR,M,M,M,M,M,M,M,M,M,M,M,M,M,M,73.00,KLOL 261553Z AUTO 00000KT 10SM CLR 23/M01 A3010 RMK AO2 SLP151 T02281011,M
DRA,2022-08-26 15:53,-116.0278,36.6206,1009.00,83.00,53.00,35.81,0.00,0.00,0.00,30.07,1013.00,10.00,M,CLR,M,M,M,M,M,M,M,M,M,M,M,M,M,M,81.73,KDRA 261553Z AUTO 00000KT 10SM CLR 28/12 A3007 RMK AO2 SLP130 T02830117,M
VGT,2022-08-26 15:53,-115.1933,36.2111,667.00,89.00,55.00,31.49,120.00,3.00,0.00,29.98,1013.80,10.00,M,CLR,M,M,M,M,M,M,M,M,M,M,M,M,M,M,87.21,KVGT 261553Z 12003KT 10SM CLR 32/13 A2998 RMK AO2 SLP138 T03170128,M
P68,2022-08-26 15:53,-116.0056,39.6014,1993.00,72.00,42.00,33.97,200.00,4.00,0.00,30.22,1014.70,M,M,M,M,M,M,M,M,M,M,M,M,M,M,M,M,M,72.00,KP68 261553Z AUTO 20004KT 22/06 A3022 RMK AO1 SLP147 T02220056,M
MEV,2022-08-26 15:55,-119.7500,38.9963,1441.42,68.00,32.00,26.15,0.00,0.00,0.00,30.17,M,10.00,M,CLR,M,M,M,M,M,M,M,M,M,M,M,M,M,M,68.00,KMEV 261555Z AUTO 00000KT 10SM CLR 20/00 A3017 RMK AO2,M
INS,2022-08-26 15:55,-115.6733,36.5872,955.00,82.00,52.30,35.80,0.00,0.00,0.00,30.05,1012.60,10.00,M,CLR,M,M,M,M,M,M,M,M,M,M,M,M,M,M,81.00,KINS 261555Z AUTO 00000KT 10SM CLR 28/11 A3005 RMK AO2 SLP126 T02780113 $,M
TMT,2022-08-26 15:55,-117.1971,39.4643,1749.34,M,M,M,220.00,5.00,0.00,30.24,M,10.00,M,CLR,M,M,M,M,M,M,M,M,M,M,M,M,M,M,M,KTMT 261555Z AUTO 22005KT 10SM CLR A3024 RMK AO2,M
RTS,2022-08-26 15:55,-119.8764,39.6682,1539.00,69.80,30.20,22.86,0.00,0.00,0.00,30.20,M,10.00,M,CLR,M,M,M,M,M,M,M,M,M,M,M,M,M,M,69.80,KRTS 261555Z AUTO 00000KT 10SM CLR 21/M01 A3020 RMK AO2,M
RNO,2022-08-26 15:55,-119.7711,39.4839,1341.00,72.00,37.00,27.85,0.00,0.00,0.00,30.15,1015.10,10.00,M,CLR,M,M,M,M,M,M,M,M,M,M,M,M,M,M,72.00,KRNO 261555Z 00000KT 10SM CLR 22/03 A3015 RMK AO2 SLP151 T02220028,M
CXP,2022-08-26 15:55,-119.7326,39.1923,1431.00,69.80,32.00,24.59,0.00,0.00,0.00,30.18,M,10.00,M,CLR,M,M,M,M,M,M,M,M,M,M,M,M,M,M,69.80,KCXP 261555Z AUTO 00000KT 10SM CLR 21/M00 A3018 RMK AO2,M
BVU,2022-08-26 15:55,-114.8611,35.9475,671.00,84.20,57.20,39.86,0.00,0.00,0.00,29.99,M,M,M,M,M,M,M,M,M,M,M,M,M,M,M,M,M,M,83.47,KBVU 261555Z AUTO 00000KT 29/14 A2999 RMK AO2 PWINO TSNO,M
LSV,2022-08-26 15:55,-115.0343,36.2362,570.00,93.00,55.00,27.87,0.00,0.00,0.00,29.96,1011.70,10.00,M,CLR,M,M,M,M,M,M,M,M,M,M,M,M,M,M,91.03,KLSV 261555Z AUTO 00000KT 10SM CLR 34/13 A2996 RMK AO2 SLP117 T03390128 $,M
BAM,2022-08-26 15:55,-116.8743,40.5990,1382.36,75.20,28.40,17.70,0.00,0.00,0.00,30.14,M,10.00,M,CLR,M,M,M,M,M,M,M,M,M,M,M,M,M,M,75.20,KBAM 261555Z AUTO 00000KT 10SM CLR 24/M02 A3014 RMK AO1,M
HTH,2022-08-26 15:55,-118.6315,38.5448,1282.89,75.20,39.20,27.26,230.00,5.00,0.00,30.14,M,10.00,M,CLR,M,M,M,M,M,M,M,M,M,M,M,M,M,M,75.20,KHTH 261555Z AUTO 23005KT 10SM CLR 24/04 A3014 RMK A01,M
EKO,2022-08-26 15:56,-115.7860,40.8242,1367.00,65.00,42.00,43.36,M,M,0.00,30.16,1016.60,10.00,M,CLR,M,M,M,M,M,M,M,M,M,M,M,M,M,M,64.90,KEKO 261556Z AUTO 10SM CLR 18/06 A3016 RMK AO2 SLP166 T01830056,M
TPH,2022-08-26 15:56,-117.0904,38.0505,1654.00,72.00,50.00,45.81,0.00,0.00,0.00,30.22,1015.40,10.00,M,CLR,M,M,M,M,M,M,M,M,M,M,M,M,M,M,72.00,KTPH 261556Z AUTO 00000KT 10SM CLR 22/10 A3022 RMK AO2 SLP154 T02220100,M
LAS,2022-08-26 15:56,-115.1634,36.0719,663.00,88.00,54.00,31.43,80.00,4.00,0.00,29.99,1012.60,10.00,M,FEW,FEW,M,M,12000.00,20000.00,M,M,M,M,M,M,M,M,M,85.98,KLAS 261556Z 08004KT 10SM FEW120 FEW200 31/12 A2999 RMK AO2 SLP126 T03110122 $,M
WMC,2022-08-26 15:56,-117.8072,40.9019,1315.00,77.00,28.00,16.40,260.00,3.00,0.00,30.11,1014.70,10.00,M,CLR,M,M,M,M,M,M,M,M,M,M,M,M,M,M,77.00,KWMC 261556Z AUTO 26003KT 10SM CLR 25/M02 A3011 RMK AO2 SLP147 T02501022 $,M
NFL,2022-08-26 15:56,-118.7010,39.4166,1199.00,79.00,30.00,16.66,190.00,3.00,0.00,30.11,1016.20,10.00,M,FEW,M,M,M,10000.00,M,M,M,M,M,M,M,M,M,M,79.00,KNFL 261556Z 19003KT 10SM FEW100 26/M01 A3011 RMK AO2 SLP162 T02611011,M
CXP,2022-08-26 16:15,-119.7326,39.1923,1431.00,71.60,30.20,21.50,0.00,0.00,0.00,30.18,M,10.00,M,CLR,M,M,M,M,M,M,M,M,M,M,M,M,M,M,71.60,KCXP 261615Z AUTO 00000KT 10SM CLR 22/M01 A3018 RMK AO2,M
MEV,2022-08-26 16:15,-119.7500,38.9963,1441.42,69.80,33.80,26.43,0.00,0.00,0.00,30.17,M,10.00,M,CLR,M,M,M,M,M,M,M,M,M,M,M,M,M,M,69.80,KMEV 261615Z AUTO 00000KT 10SM CLR 21/01 A3017 RMK AO2,M
BAM,2022-08-26 16:15,-116.8743,40.5990,1382.36,77.00,28.40,16.67,0.00,0.00,0.00,30.13,M,10.00,M,CLR,M,M,M,M,M,M,M,M,M,M,M,M,M,M,77.00,KBAM 261615Z AUTO 00000KT 10SM CLR 25/M02 A3013 RMK AO1,M
HTH,2022-08-26 16:15,-118.6315,38.5448,1282.89,77.00,37.40,23.93,270.00,4.00,0.00,30.14,M,10.00,M,CLR,M,M,M,M,M,M,M,M,M,M,M,M,M,M,77.00,KHTH 261615Z AUTO 27004KT 10SM CLR 25/03 A3014 RMK A01,M
TMT,2022-08-26 16:15,-117.1971,39.4643,1749.34,M,M,M,230.00,3.00,0.00,30.24,M,10.00,M,CLR,M,M,M,M,M,M,M,M,M,M,M,M,M,M,M,KTMT 261615Z AUTO 23003KT 10SM CLR A3024 RMK AO2,M
BVU,2022-08-26 16:15,-114.8611,35.9475,671.00,87.80,55.40,33.29,0.00,0.00,0.00,29.99,M,M,M,M,M,M,M,M,M,M,M,M,M,M,M,M,M,M,86.11,KBVU 261615Z AUTO 00000KT 31/13 A2999 RMK AO2 PWINO TSNO,M
RTS,2022-08-26 16:15,-119.8764,39.6682,1539.00,73.40,30.20,20.23,0.00,0.00,0.00,30.20,M,10.00,M,CLR,M,M,M,M,M,M,M,M,M,M,M,M,M,M,73.40,KRTS 261615Z AUTO 00000KT 10SM CLR 23/M01 A3020 RMK AO2,M
CXP,2022-08-26 16:35,-119.7326,39.1923,1431.00,73.40,30.20,20.23,0.00,0.00,0.00,30.18,M,10.00,M,CLR,M,M,M,M,M,M,M,M,M,M,M,M,M,M,73.40,KCXP 261635Z AUTO 00000KT 10SM CLR 23/M01 A3018 RMK AO2,M
TMT,2022-08-26 16:35,-117.1971,39.4643,1749.34,M,M,M,200.00,4.00,0.00,30.24,M,10.00,M,CLR,M,M,M,M,M,M,M,M,M,M,M,M,M,M,M,KTMT 261635Z AUTO 20004KT 10SM CLR A3024 RMK AO2,M
MEV,2022-08-26 16:35,-119.7500,38.9963,1441.42,73.40,33.80,23.39,0.00,0.00,0.00,30.16,M,10.00,M,CLR,M,M,M,M,M,M,M,M,M,M,M,M,M,M,73.40,KMEV 261635Z AUTO 00000KT 10SM CLR 23/01 A3016 RMK AO2,M
BAM,2022-08-26 16:35,-116.8743,40.5990,1382.36,78.80,28.40,15.71,0.00,0.00,0.00,30.14,M,10.00,M,CLR,M,M,M,M,M,M,M,M,M,M,M,M,M,M,78.80,KBAM 261635Z AUTO 00000KT 10SM CLR 26/M02 A3014 RMK AO1,M
HTH,2022-08-26 16:35,-118.6315,38.5448,1282.89,77.00,37.40,23.93,250.00,3.00,0.00,30.14,M,10.00,M,CLR,M,M,M,M,M,M,M,M,M,M,M,M,M,M,77.00,KHTH 261635Z AUTO 25003KT 10SM CLR 25/03 A3014 RMK A01,M
BVU,2022-08-26 16:35,-114.8611,35.9475,671.00,87.80,55.40,33.29,0.00,0.00,0.00,29.99,M,M,M,M,M,M,M,M,M,M,M,M,M,M,M,M,M,M,86.11,KBVU 261635Z AUTO 00000KT 31/13 A2999 RMK AO2 PWINO TSNO,M
RTS,2022-08-26 16:35,-119.8764,39.6682,1539.00,73.40,28.40,18.80,M,3.00,0.00,30.19,M,10.00,M,CLR,M,M,M,M,M,M,M,M,M,M,M,M,M,M,73.40,KRTS 261635Z AUTO VRB03KT 10SM CLR 23/M02 A3019 RMK AO2,M
P68,2022-08-26 16:53,-116.0056,39.6014,1993.00,78.00,39.00,24.56,M,3.00,0.00,30.22,1014.30,M,M,M,M,M,M,M,M,M,M,M,M,M,M,M,M,M,78.10,KP68 261653Z AUTO VRB03KT 26/04 A3022 RMK AO1 SLP143 T02560039,M
VGT,2022-08-26 16:53,-115.1933,36.2111,667.00,92.00,54.00,27.80,M,M,0.00,29.98,1013.90,10.00,M,CLR,M,M,M,M,M,M,M,M,M,M,M,M,M,M,89.66,KVGT 261653Z 10SM CLR 33/12 A2998 RMK AO2 SLP139 T03330122,M
ELY,2022-08-26 16:53,-114.8453,39.2950,1909.00,73.00,46.00,38.11,M,4.00,0.00,30.25,1015.10,10.00,M,CLR,M,M,M,M,M,M,M,M,M,M,M,M,M,M,73.00,KELY 261653Z AUTO VRB04KT 10SM CLR 23/08 A3025 RMK AO2 SLP151 T02280078,M
LOL,2022-08-26 16:53,-118.5701,40.0684,1192.43,82.00,32.00,16.38,0.00,0.00,0.00,30.10,1014.50,10.00,M,CLR,M,M,M,M,M,M,M,M,M,M,M,M,M,M,79.73,KLOL 261653Z AUTO 00000KT 10SM CLR 28/00 A3010 RMK AO2 SLP145 T02780000,M
DRA,2022-08-26 16:53,-116.0278,36.6206,1009.00,86.00,52.00,31.13,0.00,0.00,0.00,30.06,1012.80,10.00,M,CLR,M,M,M,M,M,M,M,M,M,M,M,M,M,M,83.91,KDRA 261653Z AUTO 00000KT 10SM CLR 30/11 A3006 RMK AO2 SLP128 T03000111,M
BVU,2022-08-26 16:55,-114.8611,35.9475,671.00,89.60,57.20,33.56,110.00,3.00,0.00,29.99,M,M,M,M,M,M,M,M,M,M,M,M,M,M,M,M,M,M,88.28,KBVU 261655Z AUTO 11003KT 32/14 A2999 RMK AO2 PWINO TSNO,M
CXP,2022-08-26 16:55,-119.7326,39.1923,1431.00,77.00,30.20,17.94,0.00,0.00,0.00,30.18,M,10.00,M,CLR,M,M,M,M,M,M,M,M,M,M,M,M,M,M,77.00,KCXP 261655Z AUTO 00000KT 10SM CLR 25/M01 A3018 RMK AO2,M
RNO,2022-08-26 16:55,-119.7711,39.4839,1341.00,77.00,36.00,22.64,0.00,0.00,0.00,30.15,1014.80,10.00,M,CLR,M,M,M,M,M,M,M,M,M,M,M,M,M,M,77.00,KRNO 261655Z 00000KT 10SM CLR 25/02 A3015 RMK AO2 SLP148 T02500022,M
RTS,2022-08-26 16:55,-119.8764,39.6682,1539.00,75.20,28.40,17.70,0.00,0.00,0.00,30.19,M,10.00,M,CLR,M,M,M,M,M,M,M,M,M,M,M,M,M,M,75.20,KRTS 261655Z AUTO 00000KT 10SM CLR 24/M02 A3019 RMK AO2,M
LSV,2022-08-26 16:55,-115.0343,36.2362,570.00,98.60,55.40,23.81,0.00,0.00,0.00,29.96,M,10.00,M,CLR,M,M,M,M,M,M,M,M,M,M,M,M,M,M,97.09,KLSV 261655Z AUTO 00000KT 10SM CLR 37/13 A2996 RMK AO2 SLPNO T03700130 $,M
MEV,2022-08-26 16:55,-119.7500,38.9963,1441.42,77.00,33.80,20.74,0.00,0.00,0.00,30.16,M,10.00,M,CLR,M,M,M,M,M,M,M,M,M,M,M,M,M,M,77.00,KMEV 261655Z AUTO 00000KT 10SM CLR 25/01 A3016 RMK AO2,M
BAM,2022-08-26 16:55,-116.8743,40.5990,1382.36,82.40,30.20,15.03,0.00,0.00,0.00,30.13,M,10.00,M,CLR,M,M,M,M,M,M,M,M,M,M,M,M,M,M,79.97,KBAM 261655Z AUTO 00000KT 10SM CLR 28/M01 A3013 RMK AO1,M
HTH,2022-08-26 16:55,-118.6315,38.5448,1282.89,78.80,35.60,21.00,0.00,0.00,0.00,30.14,M,10.00,M,CLR,M,M,M,M,M,M,M,M,M,M,M,M,M,M,78.80,KHTH 261655Z AUTO 00000KT 10SM CLR 26/02 A3014 RMK A01,M
TMT,2022-08-26 16:55,-117.1971,39.4643,1749.34,M,M,M,220.00,3.00,0.00,30.24,M,10.00,M,CLR,M,M,M,M,M,M,M,M,M,M,M,M,M,M,M,KTMT 261655Z AUTO 22003KT 10SM CLR A3024 RMK AO2,M
INS,2022-08-26 16:55,-115.6733,36.5872,955.00,85.50,51.30,30.82,0.00,0.00,0.00,30.05,1012.50,10.00,M,CLR,M,M,M,M,M,M,M,M,M,M,M,M,M,M,83.40,KINS 261655Z AUTO 00000KT 10SM CLR 30/11 A3005 RMK AO2 SLP125 T02970107 $,M
WMC,2022-08-26 16:56,-117.8072,40.9019,1315.00,85.00,30.00,13.75,0.00,0.00,0.00,30.11,1014.40,10.00,M,CLR,M,M,M,M,M,M,M,M,M,M,M,M,M,M,81.79,KWMC 261656Z AUTO 00000KT 10SM CLR 29/M01 A3011 RMK AO2 SLP144 T02941011,M
EKO,2022-08-26 16:56,-115.7860,40.8242,1367.00,72.00,42.00,33.97,0.00,0.00,0.00,30.16,1015.70,10.00,M,CLR,M,M,M,M,M,M,M,M,M,M,M,M,M,M,72.00,KEKO 261656Z AUTO 00000KT 10SM CLR 22/06 A3016 RMK AO2 SLP157 T02220056,M
LAS,2022-08-26 16:56,-115.1634,36.0719,663.00,89.00,54.00,30.36,0.00,0.00,0.00,30.00,1012.80,10.00,M,FEW,FEW,M,M,12000.00,20000.00,M,M,M,M,M,M,M,M,M,86.98,KLAS 261656Z 00000KT 10SM FEW120 FEW200 32/12 A3000 RMK AO2 SLP128 T03170122 $,M
NFL,2022-08-26 16:56,-118.7010,39.4166,1199.00,83.00,30.00,14.67,290.00,4.00,0.00,30.11,1016.30,10.00,M,FEW,M,M,M,10000.00,M,M,M,M,M,M,M,M,M,M,80.31,KNFL 261656Z 29004KT 10SM FEW100 28/M01 A3011 RMK AO2 SLP163 T02831011,M
TPH,2022-08-26 16:56,-117.0904,38.0505,1654.00,77.00,49.00,37.19,0.00,0.00,0.00,30.22,1015.10,10.00,M,CLR,M,M,M,M,M,M,M,M,M,M,M,M,M,M,77.00,KTPH 261656Z AUTO 00000KT 10SM CLR 25/09 A3022 RMK AO2 SLP151 T02500094,M
CXP,2022-08-26 17:15,-119.7326,39.1923,1431.00,78.80,30.20,16.90,0.00,0.00,0.00,30.17,M,10.00,M,CLR,M,M,M,M,M,M,M,M,M,M,M,M,M,M,78.80,KCXP 261715Z AUTO 00000KT 10SM CLR 26/M01 A3017 RMK AO2,M
HTH,2022-08-26 17:15,-118.6315,38.5448,1282.89,80.60,35.60,19.79,0.00,0.00,0.00,30.14,M,10.00,M,CLR,M,M,M,M,M,M,M,M,M,M,M,M,M,M,78.94,KHTH 261715Z AUTO 00000KT 10SM CLR 27/02 A3014 RMK A01,M
BAM,2022-08-26 17:15,-116.8743,40.5990,1382.36,84.20,30.20,14.18,240.00,3.00,0.00,30.13,M,10.00,M,CLR,M,M,M,M,M,M,M,M,M,M,M,M,M,M,81.26,KBAM 261715Z AUTO 24003KT 10SM CLR 29/M01 A3013 RMK AO1,M
BVU,2022-08-26 17:15,-114.8611,35.9475,671.00,89.60,57.20,33.56,140.00,4.00,0.00,29.99,M,M,M,M,M,M,M,M,M,M,M,M,M,M,M,M,M,M,88.28,KBVU 261715Z AUTO 14004KT 32/14 A2999 RMK AO2 PWINO TSNO,M
TMT,2022-08-26 17:15,-117.1971,39.4643,1749.34,M,M,M,0.00,0.00,0.00,30.24,M,10.00,M,CLR,M,M,M,M,M,M,M,M,M,M,M,M,M,M,M,KTMT 261715Z AUTO 00000KT 10SM CLR A3024 RMK AO2,M
RTS,2022-08-26 17:15,-119.8764,39.6682,1539.00,78.80,26.60,14.59,120.00,3.00,0.00,30.19,M,10.00,M,CLR,M,M,M,M,M,M,M,M,M,M,M,M,M,M,78.80,KRTS 261715Z AUTO 12003KT 10SM CLR 26/M03 A3019 RMK AO2,M
MEV,2022-08-26 17:15,-119.7500,38.9963,1441.42,78.80,32.00,18.18,0.00,0.00,0.00,30.16,M,10.00,M,CLR,M,M,M,M,M,M,M,M,M,M,M,M,M,M,78.80,KMEV 261715Z AUTO 00000KT 10SM CLR 26/00 A3016 RMK AO2,M
RTS,2022-08-26 17:35,-119.8764,39.6682,1539.00,80.60,23.00,11.83,M,4.00,0.00,30.19,M,10.00,M,CLR,M,M,M,M,M,M,M,M,M,M,M,M,M,M,78.80,KRTS 261735Z AUTO VRB04KT 10SM CLR 27/M05 A3019 RMK AO2,M
BVU,2022-08-26 17:35,-114.8611,35.9475,671.00,91.40,57.20,31.72,220.00,5.00,0.00,29.99,M,M,M,M,M,M,M,M,M,M,M,M,M,M,M,M,M,M,90.06,KBVU 261735Z AUTO 22005KT 33/14 A2999 RMK AO2 PWINO TSNO,M
CXP,2022-08-26 17:35,-119.7326,39.1923,1431.00,82.40,28.40,13.96,0.00,0.00,0.00,30.17,M,10.00,M,CLR,M,M,M,M,M,M,M,M,M,M,M,M,M,M,79.94,KCXP 261735Z AUTO 00000KT 10SM CLR 28/M02 A3017 RMK AO2,M
TMT,2022-08-26 17:35,-117.1971,39.4643,1749.34,M,M,M,0.00,0.00,0.00,30.24,M,10.00,M,CLR,M,M,M,M,M,M,M,M,M,M,M,M,M,M,M,KTMT 261735Z AUTO 00000KT 10SM CLR A3024 RMK AO2,M
HTH,2022-08-26 17:35,-118.6315,38.5448,1282.89,82.40,35.60,18.67,0.00,0.00,0.00,30.13,M,10.00,M,CLR,M,M,M,M,M,M,M,M,M,M,M,M,M,M,80.08,KHTH 261735Z AUTO 00000KT 10SM CLR 28/02 A3013 RMK A01,M
BAM,2022-08-26 17:35,-116.8743,40.5990,1382.36,86.00,30.20,13.38,0.00,0.00,0.00,30.13,M,10.00,M,CLR,M,M,M,M,M,M,M,M,M,M,M,M,M,M,82.64,KBAM 261735Z AUTO 00000KT 10SM CLR 30/M01 A3013 RMK AO1,M
MEV,2022-08-26 17:35,-119.7500,38.9963,1441.42,80.60,30.20,15.94,0.00,0.00,0.00,30.15,M,10.00,M,CLR,M,M,M,M,M,M,M,M,M,M,M,M,M,M,78.77,KMEV 261735Z AUTO 00000KT 10SM CLR 27/M01 A3015 RMK AO2,M
P68,2022-08-26 17:53,-116.0056,39.6014,1993.00,79.00,38.00,22.84,50.00,7.00,0.00,30.21,1014.20,M,M,M,M,M,M,M,M,M,M,M,M,M,M,M,M,M,79.00,KP68 261753Z AUTO 05007KT 26/03 A3021 RMK AO1 SLP142 T02610033 10272 20117 58004,M
ELY,2022-08-26 17:53,-114.8453,39.2950,1909.00,77.00,45.00,32.10,0.00,0.00,0.00,30.24,1014.20,10.00,M,CLR,M,M,M,M,M,M,M,M,M,M,M,M,M,M,77.00,KELY 261753Z AUTO 00000KT 10SM CLR 25/07 A3024 RMK AO2 SLP142 T02500072 10250 20089 58007,M
VGT,2022-08-26 17:53,-115.1933,36.2111,667.00,93.00,54.00,26.87,M,4.00,0.00,29.98,1013.60,10.00,M,CLR,M,M,M,M,M,M,M,M,M,M,M,M,M,M,90.76,KVGT 261753Z VRB04KT 10SM CLR 34/12 A2998 RMK AO2 SLP136 T03390122 10344 20283 58001,M
LOL,2022-08-26 17:53,-118.5701,40.0684,1192.43,87.00,28.90,12.26,M,6.00,0.00,30.09,1014.00,10.00,M,CLR,M,M,M,M,M,M,M,M,M,M,M,M,M,M,83.37,KLOL 261753Z AUTO VRB06KT 10SM CLR 31/M02 A3009 RMK AO2 SLP140 T03061017 10306 20100 58004,M
DRA,2022-08-26 17:53,-116.0278,36.6206,1009.00,91.00,49.00,23.68,220.00,9.00,0.00,30.06,1012.50,10.00,M,CLR,M,M,M,M,M,M,M,M,M,M,M,M,M,M,87.82,KDRA 261753Z AUTO 22009KT 10SM CLR 33/09 A3006 RMK AO2 SLP125 T03280094 10328 20217 58002,M
RNO,2022-08-26 17:55,-119.7711,39.4839,1341.00,82.00,36.00,19.21,M,3.00,0.00,30.14,1014.30,10.00,M,CLR,M,M,M,M,M,M,M,M,M,M,M,M,M,M,79.83,KRNO 261755Z VRB03KT 10SM CLR 28/02 A3014 RMK AO2 SLP143 T02780022 10278 20156 58005,M
HTH,2022-08-26 17:55,-118.6315,38.5448,1282.89,84.20,35.60,17.61,M,3.00,0.00,30.13,M,10.00,M,CLR,M,M,M,M,M,M,M,M,M,M,M,M,M,M,81.34,KHTH 261755Z AUTO VRB03KT 10SM CLR 29/02 A3013 RMK A01,M
TMT,2022-08-26 17:55,-117.1971,39.4643,1749.34,M,M,M,330.00,3.00,0.00,30.24,M,10.00,M,SCT,M,M,M,12000.00,M,M,M,M,M,M,M,M,M,M,M,KTMT 261755Z AUTO 33003KT 10SM SCT120 A3024 RMK AO2,M
LSV,2022-08-26 17:55,-115.0343,36.2362,570.00,101.70,55.60,21.84,0.00,0.00,0.00,29.96,1011.60,10.00,M,CLR,M,M,M,M,M,M,M,M,M,M,M,M,M,M,100.56,KLSV 261755Z AUTO 00000KT 10SM CLR 39/13 A2996 RMK AO2 SLP116 T03870131 10389 20277 58002 $,M
BVU,2022-08-26 17:55,-114.8611,35.9475,671.00,91.40,57.20,31.72,0.00,0.00,0.00,29.99,M,M,M,M,M,M,M,M,M,M,M,M,M,M,M,M,M,M,90.06,KBVU 261755Z AUTO 00000KT 33/14 A2999 RMK AO2 PWINO TSNO,M
MEV,2022-08-26 17:55,-119.7500,38.9963,1441.42,84.20,28.40,13.18,0.00,0.00,0.00,30.15,M,10.00,M,CLR,M,M,M,M,M,M,M,M,M,M,M,M,M,M,81.25,KMEV 261755Z AUTO 00000KT 10SM CLR 29/M02 A3015 RMK AO2,M
CXP,2022-08-26 17:55,-119.7326,39.1923,1431.00,84.20,26.60,12.23,M,4.00,0.00,30.16,M,10.00,M,CLR,M,M,M,M,M,M,M,M,M,M,M,M,M,M,81.13,KCXP 261755Z AUTO VRB04KT 10SM CLR 29/M03 A3016 RMK AO2,M
RTS,2022-08-26 17:55,-119.8764,39.6682,1539.00,80.60,24.80,12.76,M,3.00,0.00,30.19,M,10.00,M,CLR,M,M,M,M,M,M,M,M,M,M,M,M,M,M,78.94,KRTS 261755Z AUTO VRB03KT 10SM CLR 27/M04 A3019 RMK AO2,M
INS,2022-08-26 17:55,-115.6733,36.5872,955.00,88.30,51.00,27.98,0.00,0.00,0.00,30.04,1012.00,10.00,M,CLR,M,M,M,M,M,M,M,M,M,M,M,M,M,M,85.71,KINS 261755Z AUTO 00000KT 10SM CLR 31/11 A3004 RMK AO2 SLP120 T03130106 10313 20211 58003 $,M
BAM,2022-08-26 17:55,-116.8743,40.5990,1382.36,87.80,30.20,12.64,0.00,0.00,0.00,30.12,M,10.00,M,CLR,M,M,M,M,M,M,M,M,M,M,M,M,M,M,84.01,KBAM 261755Z AUTO 00000KT 10SM CLR 31/M01 A3012 RMK AO1,M
EKO,2022-08-26 17:56,-115.7860,40.8242,1367.00,79.00,33.00,18.88,210.00,9.00,0.00,30.14,1014.80,10.00,M,CLR,M,M,M,M,M,M,M,M,M,M,M,M,M,M,79.00,KEKO 261756Z AUTO 21009KT 10SM CLR 26/01 A3014 RMK AO2 SLP148 T02610006 10261 20078 58008,M
LAS,2022-08-26 17:56,-115.1634,36.0719,663.00,93.00,54.00,26.87,20.00,3.00,0.00,29.99,1012.40,10.00,M,FEW,FEW,M,M,12000.00,20000.00,M,M,M,M,M,M,M,M,M,90.76,KLAS 261756Z 02003KT 10SM FEW120 FEW200 34/12 A2999 RMK AO2 SLP124 ACC DSNT E-SE T03390122 10339 20283 50001 $,M
WMC,2022-08-26 17:56,-117.8072,40.9019,1315.00,89.00,30.00,12.03,M,6.00,0.00,30.10,1014.10,10.00,M,CLR,M,M,M,M,M,M,M,M,M,M,M,M,M,M,84.95,KWMC 261756Z AUTO VRB06KT 10SM CLR 32/M01 A3010 RMK AO2 SLP141 T03171011 10317 20094 58005,M
TPH,2022-08-26 17:56,-117.0904,38.0505,1654.00,81.00,46.00,29.23,0.00,0.00,0.00,30.21,1014.70,10.00,M,CLR,M,M,M,M,M,M,M,M,M,M,M,M,M,M,79.76,KTPH 261756Z AUTO 00000KT 10SM CLR 27/08 A3021 RMK AO2 SLP147 T02720078 10272 20150 58003,M
NFL,2022-08-26 17:56,-118.7010,39.4166,1199.00,87.00,30.00,12.82,290.00,4.00,0.00,30.10,1016.00,10.00,M,FEW,M,M,M,10000.00,M,M,M,M,M,M,M,M,M,M,83.48,KNFL 261756Z 29004KT 10SM FEW100 31/M01 A3010 RMK AO2 SLP160 T03061011 10306 20144 50001,M
BVU,2022-08-26 18:15,-114.8611,35.9475,671.00,93.20,55.40,28.10,170.00,5.00,0.00,29.98,M,M,M,M,M,M,M,M,M,M,M,M,M,M,M,M,M,M,91.35,KBVU 261815Z AUTO 17005KT 34/13 A2998 RMK AO2 PWINO TSNO,M
TMT,2022-08-26 18:15,-117.1971,39.4643,1749.34,M,M,M,0.00,0.00,0.00,30.24,M,10.00,M,SCT,M,M,M,12000.00,M,M,M,M,M,M,M,M,M,M,M,KTMT 261815Z AUTO 00000KT 10SM SCT120 A3024 RMK AO2,M
HTH,2022-08-26 18:15,-118.6315,38.5448,1282.89,86.00,35.60,16.63,0.00,0.00,0.00,30.13,M,10.00,M,CLR,M,M,M,M,M,M,M,M,M,M,M,M,M,M,82.69,KHTH 261815Z AUTO 00000KT 10SM CLR 30/02 A3013 RMK A01,M
BAM,2022-08-26 18:15,-116.8743,40.5990,1382.36,87.80,30.20,12.64,0.00,0.00,0.00,30.12,M,10.00,M,CLR,M,M,M,M,M,M,M,M,M,M,M,M,M,M,84.01,KBAM 261815Z AUTO 00000KT 10SM CLR 31/M01 A3012 RMK AO1,M
MEV,2022-08-26 18:15,-119.7500,38.9963,1441.42,86.00,26.60,11.55,M,4.00,0.00,30.15,M,10.00,M,CLR,M,M,M,M,M,M,M,M,M,M,M,M,M,M,82.39,KMEV 261815Z AUTO VRB04KT 10SM CLR 30/M03 A3015 RMK AO2,M
RTS,2022-08-26 18:15,-119.8764,39.6682,1539.00,82.40,23.00,11.16,130.00,9.00,0.00,30.18,M,10.00,M,CLR,M,M,M,M,M,M,M,M,M,M,M,M,M,M,79.67,KRTS 261815Z AUTO 13009KT 10SM CLR 28/M05 A3018 RMK AO2,M
CXP,2022-08-26 18:15,-119.7326,39.1923,1431.00,86.00,26.60,11.55,130.00,4.00,0.00,30.16,M,10.00,M,CLR,M,M,M,M,M,M,M,M,M,M,M,M,M,M,82.39,KCXP 261815Z AUTO 13004KT 10SM CLR 30/M03 A3016 RMK AO2,M
BVU,2022-08-26 18:35,-114.8611,35.9475,671.00,93.20,55.40,28.10,0.00,0.00,0.00,29.97,M,M,M,M,M,M,M,M,M,M,M,M,M,M,M,M,M,M,91.35,KBVU 261835Z AUTO 00000KT 34/13 A2997 RMK AO2 PWINO TSNO,M
TMT,2022-08-26 18:35,-117.1971,39.4643,1749.34,M,M,M,200.00,3.00,0.00,30.22,M,10.00,M,SCT,M,M,M,12000.00,M,M,M,M,M,M,M,M,M,M,M,KTMT 261835Z AUTO 20003KT 10SM SCT120 A3022 RMK AO2,M
HTH,2022-08-26 18:35,-118.6315,38.5448,1282.89,87.80,33.80,14.61,0.00,0.00,0.00,30.12,M,10.00,M,CLR,M,M,M,M,M,M,M,M,M,M,M,M,M,M,84.10,KHTH 261835Z AUTO 00000KT 10SM CLR 31/01 A3012 RMK A01,M
BAM,2022-08-26 18:35,-116.8743,40.5990,1382.36,89.60,30.20,11.94,0.00,0.00,0.00,30.11,M,10.00,M,CLR,M,M,M,M,M,M,M,M,M,M,M,M,M,M,85.34,KBAM 261835Z AUTO 00000KT 10SM CLR 32/M01 A3011 RMK AO1,M
MEV,2022-08-26 18:35,-119.7500,38.9963,1441.42,87.80,23.00,9.39,0.00,0.00,0.00,30.14,M,10.00,M,CLR,M,M,M,M,M,M,M,M,M,M,M,M,M,M,83.43,KMEV 261835Z AUTO 00000KT 10SM CLR 31/M05 A3014 RMK AO2,M
RTS,2022-08-26 18:35,-119.8764,39.6682,1539.00,86.00,21.20,9.21,210.00,14.00,0.00,30.18,M,10.00,20.00,CLR,M,M,M,M,M,M,M,M,M,M,M,M,M,M,82.04,KRTS 261835Z AUTO 21014G20KT 10SM CLR 30/M06 A3018 RMK AO2,M
CXP,2022-08-26 18:35,-119.7326,39.1923,1431.00,89.60,21.20,8.22,250.00,8.00,0.00,30.15,M,10.00,16.00,CLR,M,M,M,M,M,M,M,M,M,M,M,M,M,M,84.64,KCXP 261835Z AUTO 25008G16KT 230V290 10SM CLR 32/M06 A3015 RMK AO2,M
DRA,2022-08-26 18:53,-116.0278,36.6206,1009.00,93.00,49.00,22.25,230.00,9.00,0.00,30.05,1012.10,10.00,19.00,CLR,M,M,M,M,M,M,M,M,M,M,M,M,M,M,89.72,KDRA 261853Z AUTO 23009G19KT 10SM CLR 34/09 A3005 RMK AO2 SLP121 T03390094,M
ELY,2022-08-26 18:53,-114.8453,39.2950,1909.00,84.00,39.00,20.27,M,5.00,0.00,30.22,1013.20,10.00,M,CLR,M,M,M,M,M,M,M,M,M,M,M,M,M,M,81.29,KELY 261853Z AUTO VRB05KT 10SM CLR 29/04 A3022 RMK AO2 SLP132 T02890039,M
VGT,2022-08-26 18:53,-115.1933,36.2111,667.00,97.00,55.00,24.63,90.00,4.00,0.00,29.95,1012.80,10.00,M,CLR,M,M,M,M,M,M,M,M,M,M,M,M,M,M,95.23,KVGT 261853Z 09004KT 10SM CLR 36/13 A2995 RMK AO2 SLP128 T03610128,M
LOL,2022-08-26 18:53,-118.5701,40.0684,1192.43,90.00,24.10,9.17,M,4.00,0.00,30.08,1013.30,10.00,M,CLR,M,M,M,M,M,M,M,M,M,M,M,M,M,M,85.12,KLOL 261853Z AUTO VRB04KT 10SM CLR 32/M04 A3008 RMK AO2 SLP133 T03221044,M
P68,2022-08-26 18:53,-116.0056,39.6014,1993.00,79.00,36.00,21.19,230.00,6.00,0.00,30.21,1014.70,M,M,M,M,M,M,M,M,M,M,M,M,M,M,M,M,M,79.00,KP68 261853Z AUTO 23006KT 26/02 A3021 RMK AO1 SLP147 T02610022,M
BAM,2022-08-26 18:55,-116.8743,40.5990,1382.36,89.60,30.20,11.94,0.00,0.00,0.00,30.10,M,10.00,M,CLR,M,M,M,M,M,M,M,M,M,M,M,M,M,M,85.34,KBAM 261855Z AUTO 00000KT 10SM CLR 32/M01 A3010 RMK AO1,M
BVU,2022-08-26 18:55,-114.8611,35.9475,671.00,95.00,55.40,26.58,M,4.00,0.00,29.96,M,M,M,M,M,M,M,M,M,M,M,M,M,M,M,M,M,M,93.22,KBVU 261855Z AUTO VRB04KT 35/13 A2996 RMK AO2 PWINO TSNO,M
CXP,2022-08-26 18:55,-119.7326,39.1923,1431.00,89.60,21.20,8.22,280.00,10.00,0.00,30.15,M,10.00,M,CLR,M,M,M,M,M,M,M,M,M,M,M,M,M,M,84.64,KCXP 261855Z AUTO 28010KT 10SM CLR 32/M06 A3015 RMK AO2,M
RNO,2022-08-26 18:55,-119.7711,39.4839,1341.00,88.00,30.90,12.92,0.00,0.00,0.00,30.12,1013.70,10.00,M,CLR,M,M,M,M,M,M,M,M,M,M,M,M,M,M,84.22,KRNO 261855Z 00000KT 10SM CLR 31/M01 A3012 RMK AO2 SLP137 T03111006,M
RTS,2022-08-26 18:55,-119.8764,39.6682,1539.00,87.80,19.40,8.06,210.00,14.00,0.00,30.16,M,10.00,22.00,CLR,M,M,M,M,M,M,M,M,M,M,M,M,M,M,83.23,KRTS 261855Z AUTO 21014G22KT 10SM CLR 31/M07 A3016 RMK AO2,M
MEV,2022-08-26 18:55,-119.7500,38.9963,1441.42,87.80,23.00,9.39,160.00,6.00,0.00,30.14,M,10.00,M,CLR,M,M,M,M,M,M,M,M,M,M,M,M,M,M,83.43,KMEV 261855Z AUTO 16006KT 10SM CLR 31/M05 A3014 RMK AO2,M
HTH,2022-08-26 18:55,-118.6315,38.5448,1282.89,87.80,32.00,13.59,30.00,5.00,0.00,30.11,M,10.00,M,CLR,M,M,M,M,M,M,M,M,M,M,M,M,M,M,84.08,KHTH 261855Z AUTO 03005KT 10SM CLR 31/00 A3011 RMK A01,M
TMT,2022-08-26 18:55,-117.1971,39.4643,1749.34,M,M,M,270.00,7.00,0.00,30.22,M,10.00,M,BKN,M,M,M,12000.00,M,M,M,M,M,M,M,M,M,M,M,KTMT 261855Z AUTO 27007KT 10SM BKN120 A3022 RMK AO2,M
TPH,2022-08-26 18:56,-117.0904,38.0505,1654.00,85.00,38.00,18.86,20.00,4.00,0.00,30.19,1013.70,10.00,M,CLR,M,M,M,M,M,M,M,M,M,M,M,M,M,M,81.91,KTPH 261856Z AUTO 02004KT 10SM CLR 29/03 A3019 RMK AO2 SLP137 T02940033,M
WMC,2022-08-26 18:56,-117.8072,40.9019,1315.00,92.00,21.90,7.88,M,6.00,0.00,30.08,1013.50,10.00,M,CLR,M,M,M,M,M,M,M,M,M,M,M,M,M,M,86.38,KWMC 261856Z AUTO VRB06KT 10SM CLR 33/M06 A3008 RMK AO2 SLP135 T03331056,M
EKO,2022-08-26 18:56,-115.7860,40.8242,1367.00,82.00,32.00,16.38,210.00,10.00,0.00,30.13,1013.90,10.00,M,CLR,M,M,M,M,M,M,M,M,M,M,M,M,M,M,79.73,KEKO 261856Z AUTO 21010KT 10SM CLR 28/00 A3013 RMK AO2 SLP139 T02780000,M
LSV,2022-08-26 18:56,-115.0343,36.2362,570.00,102.20,55.00,20.97,0.00,0.00,0.00,29.93,1010.50,10.00,M,CLR,M,M,M,M,M,M,M,M,M,M,M,M,M,M,100.85,KLSV 261856Z AUTO 00000KT 10SM CLR 39/13 A2993 RMK AO2 SLP105 T03900127 $,M
LAS,2022-08-26 18:56,-115.1634,36.0719,663.00,94.00,55.00,27.10,M,4.00,0.00,29.97,1011.70,10.00,M,FEW,FEW,M,M,12000.00,20000.00,M,M,M,M,M,M,M,M,M,91.95,KLAS 261856Z VRB04KT 10SM FEW120 FEW200 34/13 A2997 RMK AO2 SLP117 CB DSNT E ACC DSNT E-SE T03440128 $,M
NFL,2022-08-26 18:56,-118.7010,39.4166,1199.00,90.00,26.10,9.96,0.00,0.00,0.00,30.09,1015.60,10.00,M,FEW,FEW,M,M,8000.00,10000.00,M,M,M,M,M,M,M,M,M,85.27,KNFL 261856Z 00000KT 10SM FEW080 FEW100 32/M03 A3009 RMK AO2 SLP156 T03221033,M
INS,2022-08-26 18:56,-115.6733,36.5872,955.00,91.40,49.50,23.92,240.00,5.00,0.00,30.02,1011.30,10.00,M,CLR,M,M,M,M,M,M,M,M,M,M,M,M,M,M,88.28,KINS 261856Z AUTO 24005KT 10SM CLR 33/10 A3002 RMK AO2 SLP113 T03300097 $,M
BVU,2022-08-26 19:15,-114.8611,35.9475,671.00,95.00,53.60,24.89,0.00,0.00,0.00,29.95,M,M,M,M,M,M,M,M,M,M,M,M,M,M,M,M,M,M,92.71,KBVU 261915Z AUTO 00000KT 35/12 A2995 RMK AO2 PWINO TSNO,M
TMT,2022-08-26 19:15,-117.1971,39.4643,1749.34,M,M,M,310.00,5.00,0.00,30.21,M,10.00,M,BKN,M,M,M,12000.00,M,M,M,M,M,M,M,M,M,M,M,KTMT 261915Z AUTO 31005KT 10SM BKN120 A3021 RMK AO2,M
CXP,2022-08-26 19:15,-119.7326,39.1923,1431.00,89.60,21.20,8.22,260.00,8.00,0.00,30.14,M,10.00,17.00,CLR,M,M,M,M,M,M,M,M,M,M,M,M,M,M,84.64,KCXP 261915Z AUTO 26008G17KT 10SM CLR 32/M06 A3014 RMK AO2,M
RTS,2022-08-26 19:15,-119.8764,39.6682,1539.00,87.80,21.20,8.70,250.00,10.00,0.00,30.16,M,10.00,18.00,CLR,M,M,M,M,M,M,M,M,M,M,M,M,M,M,83.33,KRTS 261915Z AUTO 25010G18KT 10SM CLR 31/M06 A3016 RMK AO2,M
MEV,2022-08-26 19:15,-119.7500,38.9963,1441.42,89.60,21.20,8.22,M,3.00,0.00,30.13,M,10.00,10.00,CLR,M,M,M,M,M,M,M,M,M,M,M,M,M,M,84.64,KMEV 261915Z AUTO VRB03G10KT 10SM CLR 32/M06 A3013 RMK AO2,M
BAM,2022-08-26 19:15,-116.8743,40.5990,1382.36,93.20,30.20,10.67,200.00,7.00,0.00,30.09,M,10.00,16.00,CLR,M,M,M,M,M,M,M,M,M,M,M,M,M,M,88.09,KBAM 261915Z AUTO 20007G16KT 150V220 10SM CLR 34/M01 A3009 RMK AO1,M
HTH,2022-08-26 19:15,-118.6315,38.5448,1282.89,89.60,30.20,11.94,0.00,0.00,0.00,30.10,M,10.00,10.00,CLR,M,M,M,M,M,M,M,M,M,M,M,M,M,M,85.34,KHTH 261915Z AUTO 00000G10KT 10SM CLR 32/M01 A3010 RMK A01,M
BAM,2022-08-26 19:35,-116.8743,40.5990,1382.36,93.20,28.40,9.91,0.00,0.00,0.00,30.08,M,10.00,M,CLR,M,M,M,M,M,M,M,M,M,M,M,M,M,M,87.89,KBAM 261935Z AUTO 00000KT 10SM CLR 34/M02 A3008 RMK AO1,M
TMT,2022-08-26 19:35,-117.1971,39.4643,1749.34,M,M,M,230.00,4.00,0.00,30.21,M,10.00,M,BKN,M,M,M,12000.00,M,M,M,M,M,M,M,M,M,M,M,KTMT 261935Z AUTO 23004KT 10SM BKN120 A3021 RMK AO2,M
BVU,2022-08-26 19:35,-114.8611,35.9475,671.00,96.80,53.60,23.55,280.00,7.00,0.00,29.94,M,M,M,M,M,M,M,M,M,M,M,M,M,M,M,M,M,M,94.59,KBVU 261935Z AUTO 28007KT 250V310 36/12 A2994 RMK AO2 PWINO TSNO,M
CXP,2022-08-26 19:35,-119.7326,39.1923,1431.00,91.40,21.20,7.77,230.00,10.00,0.00,30.13,M,10.00,M,CLR,M,M,M,M,M,M,M,M,M,M,M,M,M,M,85.96,KCXP 261935Z AUTO 23010KT 10SM CLR 33/M06 A3013 RMK AO2,M
RTS,2022-08-26 19:35,-119.8764,39.6682,1539.00,87.80,17.60,7.46,230.00,13.00,0.00,30.15,M,10.00,19.00,CLR,M,M,M,M,M,M,M,M,M,M,M,M,M,M,83.14,KRTS 261935Z AUTO 23013G19KT 10SM CLR 31/M08 A3015 RMK AO2,M
MEV,2022-08-26 19:35,-119.7500,38.9963,1441.42,89.60,23.00,8.87,160.00,6.00,0.00,30.12,M,10.00,M,CLR,M,M,M,M,M,M,M,M,M,M,M,M,M,M,84.75,KMEV 261935Z AUTO 16006KT 10SM CLR 32/M05 A3012 RMK AO2,M
HTH,2022-08-26 19:35,-118.6315,38.5448,1282.89,89.60,28.40,11.09,50.00,6.00,0.00,30.09,M,10.00,M,CLR,M,M,M,M,M,M,M,M,M,M,M,M,M,M,85.17,KHTH 261935Z AUTO 05006KT 10SM CLR 32/M02 A3009 RMK A01,M
DRA,2022-08-26 19:53,-116.0278,36.6206,1009.00,95.00,48.00,20.22,220.00,9.00,0.00,30.02,1011.20,10.00,16.00,CLR,M,M,M,M,M,M,M,M,M,M,M,M,M,M,91.53,KDRA 261953Z AUTO 22009G16KT 10SM CLR 35/09 A3002 RMK AO2 SLP112 T03500089,M
LOL,2022-08-26 19:53,-118.5701,40.0684,1192.43,92.00,24.10,8.64,M,6.00,0.00,30.05,1012.70,10.00,M,CLR,M,M,M,M,M,M,M,M,M,M,M,M,M,M,86.53,KLOL 261953Z AUTO VRB06KT 10SM CLR 33/M04 A3005 RMK AO2 SLP127 T03331044,M
P68,2022-08-26 19:53,-116.0056,39.6014,1993.00,84.00,28.00,13.04,140.00,4.00,0.00,30.19,1013.60,M,M,M,M,M,M,M,M,M,M,M,M,M,M,M,M,M,81.10,KP68 261953Z AUTO 14004KT 29/M02 A3019 RMK AO1 SLP136 T02891022,M
ELY,2022-08-26 19:53,-114.8453,39.2950,1909.00,84.00,34.00,16.63,40.00,10.00,0.00,30.20,1012.40,10.00,14.00,CLR,M,M,M,M,M,M,M,M,M,M,M,M,M,M,81.16,KELY 261953Z AUTO 04010G14KT 10SM CLR 29/01 A3020 RMK AO2 SLP124 T02890011,M
VGT,2022-08-26 19:53,-115.1933,36.2111,667.00,99.00,53.00,21.62,M,3.00,0.00,29.92,1011.70,10.00,M,CLR,M,M,M,M,M,M,M,M,M,M,M,M,M,M,96.79,KVGT 261953Z VRB03KT 10SM CLR 37/12 A2992 RMK AO2 SLP117 T03720117,M
HTH,2022-08-26 19:55,-118.6315,38.5448,1282.89,91.40,28.40,10.48,360.00,7.00,0.00,30.08,M,10.00,M,CLR,M,M,M,M,M,M,M,M,M,M,M,M,M,M,86.53,KHTH 261955Z AUTO 36007KT 10SM CLR 33/M02 A3008 RMK A01,M
BVU,2022-08-26 19:55,-114.8611,35.9475,671.00,96.80,53.60,23.55,210.00,8.00,0.00,29.93,M,M,M,M,M,M,M,M,M,M,M,M,M,M,M,M,M,M,94.59,KBVU 261955Z AUTO 21008KT 36/12 A2993 RMK AO2 PWINO TSNO,M
TMT,2022-08-26 19:55,-117.1971,39.4643,1749.34,M,M,M,140.00,3.00,0.00,30.20,M,10.00,M,SCT,BKN,M,M,9000.00,12000.00,M,M,M,M,M,M,M,M,M,M,KTMT 261955Z AUTO 14003KT 10SM SCT090 BKN120 A3020 RMK AO2,M
RNO,2022-08-26 19:55,-119.7711,39.4839,1341.00,91.00,30.00,11.33,120.00,4.00,0.00,30.09,1012.60,10.00,M,CLR,M,M,M,M,M,M,M,M,M,M,M,M,M,M,86.38,KRNO 261955Z 12004KT 10SM CLR 33/M01 A3009 RMK AO2 SLP126 T03281011,M
RTS,2022-08-26 19:55,-119.8764,39.6682,1539.00,87.80,15.80,6.90,210.00,15.00,0.00,30.15,M,10.00,21.00,CLR,M,M,M,M,M,M,M,M,M,M,M,M,M,M,83.07,KRTS 261955Z AUTO 21015G21KT 10SM CLR 31/M09 A3015 RMK AO2,M
CXP,2022-08-26 19:55,-119.7326,39.1923,1431.00,91.40,23.00,8.38,260.00,12.00,0.00,30.13,M,10.00,19.00,CLR,M,M,M,M,M,M,M,M,M,M,M,M,M,M,86.08,KCXP 261955Z AUTO 26012G19KT 230V290 10SM CLR 33/M05 A3013 RMK AO2,M
MEV,2022-08-26 19:55,-119.7500,38.9963,1441.42,91.40,23.00,8.38,250.00,8.00,0.00,30.11,M,10.00,17.00,CLR,M,M,M,M,M,M,M,M,M,M,M,M,M,M,86.08,KMEV 261955Z AUTO 25008G17KT 210V280 10SM CLR 33/M05 A3011 RMK AO2,M
BAM,2022-08-26 19:55,-116.8743,40.5990,1382.36,93.20,30.20,10.67,300.00,5.00,0.00,30.08,M,10.00,9.00,CLR,M,M,M,M,M,M,M,M,M,M,M,M,M,M,88.09,KBAM 261955Z AUTO 30005G09KT 10SM CLR 34/M01 A3008 RMK AO1,M
EKO,2022-08-26 19:56,-115.7860,40.8242,1367.00,84.00,28.90,13.53,270.00,12.00,0.00,30.10,1013.30,10.00,20.00,CLR,M,M,M,M,M,M,M,M,M,M,M,M,M,M,81.10,KEKO 261956Z AUTO 27012G20KT 220V290 10SM CLR 29/M02 A3010 RMK AO2 SLP133 T02891017,M
LAS,2022-08-26 19:56,-115.1634,36.0719,663.00,98.00,54.00,22.97,130.00,4.00,0.00,29.94,1010.60,10.00,M,FEW,FEW,M,M,12000.00,20000.00,M,M,M,M,M,M,M,M,M,96.10,KLAS 261956Z 13004KT 10SM FEW120 FEW200 37/12 A2994 RMK AO2 SLP106 CB DSNT E AND SE AND NW ACC DSNT E-SE SH DSNT NW T03670122 $,M
NFL,2022-08-26 19:56,-118.7010,39.4166,1199.00,91.00,21.90,8.10,M,3.00,0.00,30.06,1014.80,10.00,M,SCT,SCT,M,M,8000.00,10000.00,M,M,M,M,M,M,M,M,M,85.71,KNFL 261956Z VRB03KT 10SM SCT080 SCT100 33/M06 A3006 RMK AO2 SLP148 T03281056,M
TPH,2022-08-26 19:56,-117.0904,38.0505,1654.00,87.00,33.00,14.53,60.00,4.00,0.00,30.17,1012.70,10.00,M,CLR,M,M,M,M,M,M,M,M,M,M,M,M,M,M,83.52,KTPH 261956Z AUTO 06004KT 10SM CLR 31/01 A3017 RMK AO2 SLP127 T03060006,M
WMC,2022-08-26 19:56,-117.8072,40.9019,1315.00,94.00,19.00,6.54,250.00,7.00,0.00,30.06,1012.40,10.00,M,CLR,M,M,M,M,M,M,M,M,M,M,M,M,M,M,87.67,KWMC 261956Z AUTO 25007KT 10SM CLR 34/M07 A3006 RMK AO2 SLP124 T03441072,M
INS,2022-08-26 19:56,-115.6733,36.5872,955.00,94.50,47.00,19.85,270.00,7.00,0.00,29.99,1010.10,10.00,M,CLR,M,M,M,M,M,M,M,M,M,M,M,M,M,M,90.90,KINS 261956Z AUTO 27007KT 10SM CLR 35/08 A2999 RMK AO2 SLP101 T03470084 $,M
LSV,2022-08-26 19:56,-115.0343,36.2362,570.00,103.50,54.50,19.88,170.00,6.00,0.00,29.90,1009.60,10.00,M,CLR,M,M,M,M,M,M,M,M,M,M,M,M,M,M,102.11,KLSV 261956Z AUTO 17006KT 10SM CLR 40/13 A2990 RMK AO2 SLP096 T03970125 $,M
CXP,2022-08-26 20:10,-119.7326,39.1923,1431.00,89.60,23.00,8.87,220.00,11.00,0.00,30.12,M,10.00,21.00,CLR,M,M,M,M,M,M,M,M,M,M,M,M,M,M,84.75,KCXP 262010Z AUTO 22011G21KT 10SM CLR 32/M05 A3012 RMK AO2,M
RTS,2022-08-26 20:15,-119.8764,39.6682,1539.00,89.60,15.80,6.52,190.00,14.00,0.00,30.14,M,10.00,M,CLR,M,M,M,M,M,M,M,M,M,M,M,M,M,M,84.37,KRTS 262015Z AUTO 19014KT 10SM CLR 32/M09 A3014 RMK AO2,M
MEV,2022-08-26 20:15,-119.7500,38.9963,1441.42,91.40,23.00,8.38,M,4.00,0.00,30.11,M,10.00,14.00,CLR,M,M,M,M,M,M,M,M,M,M,M,M,M,M,86.08,KMEV 262015Z AUTO VRB04G14KT 10SM CLR 33/M05 A3011 RMK AO2,M
BAM,2022-08-26 20:15,-116.8743,40.5990,1382.36,95.00,28.40,9.38,220.00,14.00,0.00,30.07,M,10.00,24.00,CLR,M,M,M,M,M,M,M,M,M,M,M,M,M,M,89.27,KBAM 262015Z AUTO 22014G24KT 10SM CLR 35/M02 A3007 RMK AO1,M
HTH,2022-08-26 20:15,-118.6315,38.5448,1282.89,91.40,26.60,9.74,310.00,9.00,0.00,30.07,M,10.00,M,CLR,M,M,M,M,M,M,M,M,M,M,M,M,M,M,86.36,KHTH 262015Z AUTO 31009KT 10SM CLR 33/M03 A3007 RMK A01,M
TMT,2022-08-26 20:15,-117.1971,39.4643,1749.34,M,M,M,150.00,6.00,0.00,30.19,M,10.00,M,CLR,M,M,M,M,M,M,M,M,M,M,M,M,M,M,M,KTMT 262015Z AUTO 15006KT 10SM CLR A3019 RMK AO2,M
BVU,2022-08-26 20:15,-114.8611,35.9475,671.00,96.80,51.80,22.04,120.00,5.00,0.00,29.92,M,M,M,M,M,M,M,M,M,M,M,M,M,M,M,M,M,M,94.12,KBVU 262015Z AUTO 12005KT 36/11 A2992 RMK AO2 PWINO TSNO,M
RTS,2022-08-26 20:35,-119.8764,39.6682,1539.00,87.80,15.80,6.90,280.00,6.00,0.00,30.14,M,10.00,22.00,CLR,M,M,M,M,M,M,M,M,M,M,M,M,M,M,83.07,KRTS 262035Z AUTO 28006G22KT 10SM CLR 31/M09 A3014 RMK AO2,M
HTH,2022-08-26 20:35,-118.6315,38.5448,1282.89,91.40,26.60,9.74,0.00,0.00,0.00,30.06,M,10.00,M,CLR,M,M,M,M,M,M,M,M,M,M,M,M,M,M,86.36,KHTH 262035Z AUTO 00000KT 10SM CLR 33/M03 A3006 RMK A01,M
BVU,2022-08-26 20:35,-114.8611,35.9475,671.00,98.60,51.80,20.87,190.00,5.00,0.00,29.91,M,M,13.00,M,M,M,M,M,M,M,M,M,M,M,M,M,M,M,96.00,KBVU 262035Z AUTO 19005G13KT 37/11 A2991 RMK AO2 PWINO TSNO,M
CXP,2022-08-26 20:35,-119.7326,39.1923,1431.00,91.40,24.80,9.04,250.00,13.00,0.00,30.11,M,10.00,23.00,CLR,M,M,M,M,M,M,M,M,M,M,M,M,M,M,86.21,KCXP 262035Z AUTO 25013G23KT 10SM CLR 33/M04 A3011 RMK AO2,M
MEV,2022-08-26 20:35,-119.7500,38.9963,1441.42,93.20,24.80,8.54,240.00,10.00,0.00,30.10,M,10.00,19.00,CLR,M,M,M,M,M,M,M,M,M,M,M,M,M,M,87.56,KMEV 262035Z AUTO 24010G19KT 10SM CLR 34/M04 A3010 RMK AO2,M
TMT,2022-08-26 20:35,-117.1971,39.4643,1749.34,M,M,M,0.00,0.00,0.00,30.18,M,10.00,M,SCT,M,M,M,12000.00,M,M,M,M,M,M,M,M,M,M,M,KTMT 262035Z AUTO 00000KT 10SM SCT120 A3018 RMK AO2,M
BAM,2022-08-26 20:35,-116.8743,40.5990,1382.36,95.00,28.40,9.38,230.00,9.00,0.00,30.06,M,10.00,20.00,CLR,M,M,M,M,M,M,M,M,M,M,M,M,M,M,89.27,KBAM 262035Z AUTO 23009G20KT 10SM CLR 35/M02 A3006 RMK AO1,M
LOL,2022-08-26 20:53,-118.5701,40.0684,1192.43,93.00,24.10,8.35,140.00,10.00,0.00,30.03,1012.10,10.00,M,CLR,M,M,M,M,M,M,M,M,M,M,M,M,M,M,87.36,KLOL 262053Z AUTO 14010KT 10SM CLR 34/M04 A3003 RMK AO2 SLP121 T03391044 58020,M
ELY,2022-08-26 20:53,-114.8453,39.2950,1909.00,81.00,33.00,17.68,200.00,4.00,0.00,30.18,1012.50,10.00,M,CLR,M,M,M,M,M,M,M,M,M,M,M,M,M,M,79.10,KELY 262053Z AUTO 20004KT 10SM CLR 27/01 A3018 RMK AO2 SLP125 T02720006 56018,M
P68,2022-08-26 20:53,-116.0056,39.6014,1993.00,86.00,21.90,9.49,160.00,9.00,0.00,30.16,1012.50,M,16.00,M,M,M,M,M,M,M,M,M,M,M,M,M,M,M,82.08,KP68 262053Z AUTO 16009G16KT 130V200 30/M06 A3016 RMK AO1 SLP125 T03001056 58015,M
DRA,2022-08-26 20:53,-116.0278,36.6206,1009.00,95.00,48.00,20.22,220.00,9.00,0.00,30.00,1010.20,10.00,19.00,CLR,M,M,M,M,M,M,M,M,M,M,M,M,M,M,91.53,KDRA 262053Z AUTO 22009G19KT 10SM CLR 35/09 A3000 RMK AO2 SLP102 T03500089 58019,M
VGT,2022-08-26 20:53,-115.1933,36.2111,667.00,99.00,54.00,22.35,120.00,4.00,0.00,29.90,1010.90,10.00,M,CLR,M,M,M,M,M,M,M,M,M,M,M,M,M,M,97.06,KVGT 262053Z 12004KT 10SM CLR 37/12 A2990 RMK AO2 SLP109 T03720122 58024,M
MEV,2022-08-26 20:55,-119.7500,38.9963,1441.42,93.20,24.80,8.54,250.00,14.00,0.00,30.09,M,10.00,22.00,CLR,M,M,M,M,M,M,M,M,M,M,M,M,M,M,87.56,KMEV 262055Z AUTO 25014G22KT 10SM CLR 34/M04 A3009 RMK AO2,M
TMT,2022-08-26 20:55,-117.1971,39.4643,1749.34,M,M,M,120.00,7.00,0.00,30.18,M,10.00,M,SCT,M,M,M,12000.00,M,M,M,M,M,M,M,M,M,M,M,KTMT 262055Z AUTO 12007KT 10SM SCT120 A3018 RMK AO2,M
RTS,2022-08-26 20:55,-119.8764,39.6682,1539.00,89.60,17.60,7.05,250.00,10.00,0.00,30.14,M,10.00,19.00,CLR,M,M,M,M,M,M,M,M,M,M,M,M,M,M,84.45,KRTS 262055Z AUTO 25010G19KT 10SM CLR 32/M08 A3014 RMK AO2,M
BAM,2022-08-26 20:55,-116.8743,40.5990,1382.36,95.00,28.40,9.38,180.00,4.00,0.00,30.05,M,10.00,M,CLR,M,M,M,M,M,M,M,M,M,M,M,M,M,M,89.27,KBAM 262055Z AUTO 18004KT 10SM CLR 35/M02 A3005 RMK AO1,M
BVU,2022-08-26 20:55,-114.8611,35.9475,671.00,98.60,51.80,20.87,80.00,5.00,0.00,29.91,M,M,M,M,M,M,M,M,M,M,M,M,M,M,M,M,M,M,96.00,KBVU 262055Z AUTO 08005KT 37/11 A2991 RMK AO2 PWINO TSNO,M
CXP,2022-08-26 20:55,-119.7326,39.1923,1431.00,91.40,24.80,9.04,240.00,9.00,0.00,30.11,M,10.00,18.00,CLR,M,M,M,M,M,M,M,M,M,M,M,M,M,M,86.21,KCXP 262055Z AUTO 24009G18KT 10SM CLR 33/M04 A3011 RMK AO2,M
HTH,2022-08-26 20:55,-118.6315,38.5448,1282.89,91.40,26.60,9.74,M,3.00,0.00,30.04,M,10.00,12.00,CLR,M,M,M,M,M,M,M,M,M,M,M,M,M,M,86.36,KHTH 262055Z AUTO VRB03G12KT 10SM CLR 33/M03 A3004 RMK A01,M
RNO,2022-08-26 20:55,-119.7711,39.4839,1341.00,94.00,28.90,9.90,M,6.00,0.00,30.07,1011.80,10.00,M,FEW,M,M,M,14000.00,M,M,M,M,M,M,M,M,M,M,88.48,KRNO 262055Z VRB06KT 10SM FEW140 34/M02 A3007 RMK AO2 SLP118 T03441017 56021,M
EKO,2022-08-26 20:56,-115.7860,40.8242,1367.00,85.00,30.00,13.75,240.00,15.00,0.00,30.08,1012.80,10.00,22.00,CLR,M,M,M,M,M,M,M,M,M,M,M,M,M,M,81.79,KEKO 262056Z AUTO 24015G22KT 10SM CLR 29/M01 A3008 RMK AO2 SLP128 T02941011 58019,M
NFL,2022-08-26 20:56,-118.7010,39.4166,1199.00,92.00,21.90,7.88,0.00,0.00,0.00,30.03,1013.90,10.00,M,SCT,SCT,M,M,8000.00,10000.00,M,M,M,M,M,M,M,M,M,86.38,KNFL 262056Z 00000KT 10SM SCT080 SCT100 33/M06 A3003 RMK AO2 SLP139 T03331056 58021,M
WMC,2022-08-26 20:56,-117.8072,40.9019,1315.00,95.00,19.00,6.32,270.00,11.00,0.00,30.04,1011.90,10.00,23.00,CLR,M,M,M,M,M,M,M,M,M,M,M,26.00,260.00,2022-08-26 20:27,88.47,KWMC 262056Z AUTO 27011G23KT 10SM CLR 35/M07 A3004 RMK AO2 PK WND 26026/2027 SLP119 T03501072 58018,M
LAS,2022-08-26 20:56,-115.1634,36.0719,663.00,100.00,51.00,19.49,M,4.00,0.00,29.91,1009.70,10.00,M,FEW,FEW,M,M,12000.00,20000.00,M,M,M,M,M,M,M,M,M,97.28,KLAS 262056Z VRB04KT 10SM FEW120 FEW200 38/11 A2991 RMK AO2 SLP097 CB DSNT E AND SE AND NW ACC DSNT E-SE T03780106 58025 $,M
TPH,2022-08-26 20:56,-117.0904,38.0505,1654.00,89.00,34.00,14.14,M,M,0.00,30.15,1011.90,10.00,M,CLR,M,M,M,M,M,M,M,M,M,M,M,M,M,M,85.17,KTPH 262056Z AUTO 10SM CLR 32/01 A3015 RMK AO2 LTG DSNT NE SLP119 T03170011 58018,M
LSV,2022-08-26 20:56,-115.0343,36.2362,570.00,106.50,54.00,17.93,190.00,4.00,0.00,29.87,1008.50,10.00,M,CLR,M,M,M,M,M,M,M,M,M,M,M,M,M,M,105.18,KLSV 262056Z AUTO 19004KT 10SM CLR 41/12 A2987 RMK AO2 SLP085 T04140123 57026 $,M
INS,2022-08-26 20:56,-115.6733,36.5872,955.00,97.00,45.00,16.98,280.00,7.00,0.00,29.97,1009.40,10.00,M,CLR,M,M,M,M,M,M,M,M,M,M,M,M,M,M,93.04,KINS 262056Z AUTO 28007KT 10SM CLR 36/07 A2997 RMK AO2 SLP094 T03610072 57022 $,M
BAM,2022-08-26 21:15,-116.8743,40.5990,1382.36,96.80,26.60,8.24,280.00,13.00,0.00,30.05,M,10.00,17.00,CLR,M,M,M,M,M,M,M,M,M,M,M,M,M,M,90.57,KBAM 262115Z AUTO 28013G17KT 10SM CLR 36/M03 A3005 RMK AO1,M
TMT,2022-08-26 21:15,-117.1971,39.4643,1749.34,M,M,M,200.00,7.00,0.00,30.17,M,10.00,M,CLR,M,M,M,M,M,M,M,M,M,M,M,M,M,M,M,KTMT 262115Z AUTO 20007KT 160V220 10SM CLR A3017 RMK AO2,M
HTH,2022-08-26 21:15,-118.6315,38.5448,1282.89,93.20,26.60,9.21,M,6.00,0.00,30.03,M,10.00,12.00,CLR,M,M,M,M,M,M,M,M,M,M,M,M,M,M,87.72,KHTH 262115Z AUTO VRB06G12KT 10SM CLR 34/M03 A3003 RMK A01,M
MEV,2022-08-26 21:15,-119.7500,38.9963,1441.42,93.20,24.80,8.54,240.00,16.00,0.00,30.09,M,10.00,23.00,CLR,M,M,M,M,M,M,M,M,M,M,M,M,M,M,87.56,KMEV 262115Z AUTO 24016G23KT 10SM CLR 34/M04 A3009 RMK AO2,M
RTS,2022-08-26 21:15,-119.8764,39.6682,1539.00,89.60,17.60,7.05,250.00,14.00,0.00,30.13,M,10.00,M,CLR,M,M,M,M,M,M,M,M,M,M,M,M,M,M,84.45,KRTS 262115Z AUTO 25014KT 10SM CLR 32/M08 A3013 RMK AO2,M
CXP,2022-08-26 21:15,-119.7326,39.1923,1431.00,91.40,24.80,9.04,270.00,7.00,0.00,30.11,M,10.00,18.00,CLR,M,M,M,M,M,M,M,M,M,M,M,M,M,M,86.21,KCXP 262115Z AUTO 27007G18KT 10SM CLR 33/M04 A3011 RMK AO2,M
BVU,2022-08-26 21:15,-114.8611,35.9475,671.00,98.60,53.60,22.29,210.00,6.00,0.00,29.89,M,M,M,M,M,M,M,M,M,M,M,M,M,M,M,M,M,M,96.51,KBVU 262115Z AUTO 21006KT 37/12 A2989 RMK AO2 PWINO TSNO,M
BVU,2022-08-26 21:35,-114.8611,35.9475,671.00,100.40,53.60,21.11,M,4.00,0.00,29.88,M,M,M,M,M,M,M,M,M,M,M,M,M,M,M,M,M,M,98.44,KBVU 262135Z AUTO VRB04KT 38/12 A2988 RMK AO2 PWINO TSNO,M
RTS,2022-08-26 21:35,-119.8764,39.6682,1539.00,89.60,17.60,7.05,230.00,18.00,0.00,30.12,M,10.00,M,CLR,M,M,M,M,M,M,M,M,M,M,M,M,M,M,84.45,KRTS 262135Z AUTO 23018KT 10SM CLR 32/M08 A3012 RMK AO2,M
BAM,2022-08-26 21:35,-116.8743,40.5990,1382.36,95.00,26.60,8.71,240.00,10.00,0.00,30.03,M,10.00,21.00,CLR,M,M,M,M,M,M,M,M,M,M,M,M,M,M,89.08,KBAM 262135Z AUTO 24010G21KT 200V270 10SM CLR 35/M03 A3003 RMK AO1,M
HTH,2022-08-26 21:35,-118.6315,38.5448,1282.89,93.20,26.60,9.21,310.00,6.00,0.00,30.02,M,10.00,12.00,CLR,M,M,M,M,M,M,M,M,M,M,M,M,M,M,87.72,KHTH 262135Z AUTO 31006G12KT 10SM CLR 34/M03 A3002 RMK A01,M
TMT,2022-08-26 21:35,-117.1971,39.4643,1749.34,M,M,M,310.00,5.00,0.00,30.16,M,10.00,M,CLR,M,M,M,M,M,M,M,M,M,M,M,M,M,M,M,KTMT 262135Z AUTO 31005KT 10SM CLR A3016 RMK AO2,M
MEV,2022-08-26 21:35,-119.7500,38.9963,1441.42,91.40,24.80,9.04,240.00,15.00,0.00,30.08,M,10.00,23.00,CLR,M,M,M,M,M,M,M,M,M,M,M,M,M,M,86.21,KMEV 262135Z AUTO 24015G23KT 10SM CLR 33/M04 A3008 RMK AO2,M
CXP,2022-08-26 21:35,-119.7326,39.1923,1431.00,91.40,28.40,10.48,270.00,13.00,0.00,30.10,M,10.00,21.00,CLR,M,M,M,M,M,M,M,M,M,M,M,M,M,M,86.53,KCXP 262135Z AUTO 27013G21KT 10SM CLR 33/M02 A3010 RMK AO2,M
DRA,2022-08-26 21:53,-116.0278,36.6206,1009.00,98.00,46.00,17.06,240.00,11.00,0.00,29.97,1009.10,10.00,M,CLR,M,M,M,M,M,M,M,M,M,M,M,M,M,M,94.28,KDRA 262153Z AUTO 24011KT 10SM CLR 37/08 A2997 RMK AO2 SLP091 T03670078,M
LOL,2022-08-26 21:53,-118.5701,40.0684,1192.43,96.00,25.00,7.88,220.00,14.00,0.00,29.99,1011.00,10.00,M,CLR,M,M,M,M,M,M,M,M,M,M,M,M,M,M,89.84,KLOL 262153Z AUTO 22014KT 10SM CLR 36/M04 A2999 RMK AO2 SLP110 T03561039,M
VGT,2022-08-26 21:53,-115.1933,36.2111,667.00,101.00,54.00,21.10,0.00,0.00,0.00,29.86,1009.60,10.00,M,CLR,M,M,M,M,M,M,M,M,M,M,M,M,M,M,99.11,KVGT 262153Z 00000KT 10SM CLR 38/12 A2986 RMK AO2 SLP096 T03830122,M
P68,2022-08-26 21:53,-116.0056,39.6014,1993.00,86.00,28.00,12.23,20.00,9.00,0.00,30.14,1011.50,M,M,M,M,M,M,M,M,M,M,M,M,M,M,M,M,M,82.50,KP68 262153Z AUTO 02009KT 30/M02 A3014 RMK AO1 SLP115 T03001022,M
ELY,2022-08-26 21:53,-114.8453,39.2950,1909.00,78.00,37.00,22.71,160.00,10.00,0.00,30.16,1012.00,10.00,M,CLR,M,M,M,M,M,M,M,M,M,M,M,M,M,M,78.10,KELY 262153Z AUTO 16010KT 10SM CLR 26/03 A3016 RMK AO2 SLP120 T02560028 $,M
CXP,2022-08-26 21:55,-119.7326,39.1923,1431.00,91.40,30.20,11.28,260.00,7.00,0.00,30.10,M,10.00,25.00,CLR,M,M,M,M,M,M,M,M,M,M,M,M,M,M,86.71,KCXP 262155Z AUTO 26007G25KT 220V280 10SM CLR 33/M01 A3010 RMK AO2,M
BVU,2022-08-26 21:55,-114.8611,35.9475,671.00,100.40,51.80,19.76,310.00,8.00,0.00,29.87,M,M,M,M,M,M,M,M,M,M,M,M,M,M,M,M,M,M,97.90,KBVU 262155Z AUTO 31008KT 38/11 A2987 RMK AO2 PWINO TSNO,M
RNO,2022-08-26 21:55,-119.7711,39.4839,1341.00,95.00,30.90,10.38,290.00,17.00,0.00,30.04,1010.70,10.00,23.00,FEW,M,M,M,14000.00,M,M,M,M,M,M,M,M,M,M,89.56,KRNO 262155Z 29017G23KT 10SM FEW140 35/M01 A3004 RMK AO2 SLP107 T03501006,M
RTS,2022-08-26 21:55,-119.8764,39.6682,1539.00,89.60,17.60,7.05,250.00,12.00,0.00,30.12,M,10.00,19.00,CLR,M,M,M,M,M,M,M,M,M,M,M,M,M,M,84.45,KRTS 262155Z AUTO 25012G19KT 10SM CLR 32/M08 A3012 RMK AO2,M
MEV,2022-08-26 21:55,-119.7500,38.9963,1441.42,91.40,26.60,9.74,240.00,15.00,0.00,30.08,M,10.00,22.00,CLR,M,M,M,M,M,M,M,M,M,M,M,M,M,M,86.36,KMEV 262155Z AUTO 24015G22KT 10SM CLR 33/M03 A3008 RMK AO2,M
BAM,2022-08-26 21:55,-116.8743,40.5990,1382.36,96.80,26.60,8.24,270.00,13.00,0.00,30.03,M,10.00,21.00,CLR,M,M,M,M,M,M,M,M,M,M,M,M,M,M,90.57,KBAM 262155Z AUTO 27013G21KT 10SM CLR 36/M03 A3003 RMK AO1,M
HTH,2022-08-26 21:55,-118.6315,38.5448,1282.89,93.20,26.60,9.21,M,4.00,0.00,30.01,M,10.00,M,CLR,M,M,M,M,M,M,M,M,M,M,M,M,M,M,87.72,KHTH 262155Z AUTO VRB04KT 10SM CLR 34/M03 A3001 RMK A01,M
TMT,2022-08-26 21:55,-117.1971,39.4643,1749.34,M,M,M,290.00,6.00,0.00,30.15,M,10.00,M,CLR,M,M,M,M,M,M,M,M,M,M,M,M,M,M,M,KTMT 262155Z AUTO 29006KT 10SM CLR A3015 RMK AO2,M
WMC,2022-08-26 21:56,-117.8072,40.9019,1315.00,95.00,21.90,7.15,220.00,6.00,0.00,30.01,1010.90,10.00,16.00,CLR,M,M,M,M,M,M,M,M,M,M,M,M,M,M,88.67,KWMC 262156Z AUTO 22006G16KT 10SM CLR 35/M06 A3001 RMK AO2 SLP109 T03501056,M
NFL,2022-08-26 21:56,-118.7010,39.4166,1199.00,95.00,21.90,7.15,290.00,5.00,0.00,30.00,1013.00,10.00,M,SCT,SCT,M,M,8000.00,10000.00,M,M,M,M,M,M,M,M,M,88.67,KNFL 262156Z 29005KT 10SM SCT080 SCT100 35/M06 A3000 RMK AO2 SLP130 T03501056,M
EKO,2022-08-26 21:56,-115.7860,40.8242,1367.00,86.00,26.10,11.31,260.00,9.00,0.00,30.05,1011.90,10.00,23.00,CLR,M,M,M,M,M,M,M,M,M,M,M,27.00,270.00,2022-08-26 21:00,82.35,KEKO 262156Z AUTO 26009G23KT 10SM CLR 30/M03 A3005 RMK AO2 PK WND 27027/2100 SLP119 T03001033,M
TPH,2022-08-26 21:56,-117.0904,38.0505,1654.00,90.00,33.00,13.26,10.00,3.00,0.00,30.12,1011.10,10.00,M,CLR,M,M,M,M,M,M,M,M,M,M,M,M,M,M,85.92,KTPH 262156Z AUTO 01003KT 10SM CLR 32/01 A3012 RMK AO2 SLP111 T03220006,M
LAS,2022-08-26 21:56,-115.1634,36.0719,663.00,100.00,51.00,19.49,0.00,0.00,0.00,29.87,1008.30,10.00,M,FEW,FEW,M,M,12000.00,20000.00,M,M,M,M,M,M,M,M,M,97.28,KLAS 262156Z 00000KT 10SM FEW120 FEW200 38/11 A2987 RMK AO2 SLP083 CB DSNT E AND SE T03780106,M
INS,2022-08-26 21:56,-115.6733,36.5872,955.00,97.20,43.50,15.94,260.00,5.00,0.00,29.94,1008.40,10.00,M,CLR,M,M,M,M,M,M,M,M,M,M,M,M,M,M,93.04,KINS 262156Z AUTO 26005KT 10SM CLR 36/06 A2994 RMK AO2 SLP084 T03620064 $,M
LSV,2022-08-26 21:56,-115.0343,36.2362,570.00,106.50,52.50,16.90,0.00,0.00,0.00,29.83,1007.20,10.00,M,CLR,M,M,M,M,M,M,M,M,M,M,M,M,M,M,104.55,KLSV 262156Z AUTO 00000KT 10SM CLR 41/11 A2983 RMK AO2 SLP072 T04140114 $,M
BAM,2022-08-26 22:15,-116.8743,40.5990,1382.36,96.80,23.00,7.09,260.00,13.00,0.00,30.02,M,10.00,19.00,CLR,M,M,M,M,M,M,M,M,M,M,M,M,M,M,90.25,KBAM 262215Z AUTO 26013G19KT 10SM CLR 36/M05 A3002 RMK AO1,M
TMT,2022-08-26 22:15,-117.1971,39.4643,1749.34,M,M,M,20.00,5.00,0.00,30.14,M,10.00,M,CLR,M,M,M,M,M,M,M,M,M,M,M,M,M,M,M,KTMT 262215Z AUTO 02005KT 10SM CLR A3014 RMK AO2,M
BVU,2022-08-26 22:15,-114.8611,35.9475,671.00,100.40,51.80,19.76,M,5.00,0.00,29.86,M,M,12.00,M,M,M,M,M,M,M,M,M,M,M,M,M,M,M,97.90,KBVU 262215Z AUTO VRB05G12KT 38/11 A2986 RMK AO2 PWINO TSNO,M
RTS,2022-08-26 22:15,-119.8764,39.6682,1539.00,89.60,17.60,7.05,240.00,15.00,0.00,30.11,M,10.00,20.00,CLR,M,M,M,M,M,M,M,M,M,M,M,M,M,M,84.45,KRTS 262215Z AUTO 24015G20KT 10SM CLR 32/M08 A3011 RMK AO2,M
MEV,2022-08-26 22:15,-119.7500,38.9963,1441.42,93.20,26.60,9.21,250.00,15.00,0.00,30.07,M,10.00,M,CLR,M,M,M,M,M,M,M,M,M,M,M,M,M,M,87.72,KMEV 262215Z AUTO 25015KT 10SM CLR 34/M03 A3007 RMK AO2,M
HTH,2022-08-26 22:15,-118.6315,38.5448,1282.89,93.20,26.60,9.21,10.00,9.00,0.00,30.00,M,10.00,14.00,CLR,M,M,M,M,M,M,M,M,M,M,M,M,M,M,87.72,KHTH 262215Z AUTO 01009G14KT 330V030 10SM CLR 34/M03 A3000 RMK A01,M
CXP,2022-08-26 22:15,-119.7326,39.1923,1431.00,91.40,28.40,10.48,280.00,17.00,0.00,30.09,M,10.00,25.00,CLR,M,M,M,M,M,M,M,M,M,M,M,M,M,M,86.53,KCXP 262215Z AUTO 28017G25KT 240V300 10SM CLR 33/M02 A3009 RMK AO2,M
TMT,2022-08-26 22:35,-117.1971,39.4643,1749.34,M,M,M,320.00,5.00,0.00,30.13,M,10.00,M,CLR,M,M,M,M,M,M,M,M,M,M,M,M,M,M,M,KTMT 262235Z AUTO 32005KT 10SM CLR A3013 RMK AO2,M
BVU,2022-08-26 22:35,-114.8611,35.9475,671.00,100.40,51.80,19.76,M,4.00,0.00,29.85,M,M,M,M,M,M,M,M,M,M,M,M,M,M,M,M,M,M,97.90,KBVU 262235Z AUTO VRB04KT 38/11 A2985 RMK AO2 PWINO TSNO,M
HTH,2022-08-26 22:35,-118.6315,38.5448,1282.89,93.20,26.60,9.21,330.00,12.00,0.00,29.99,M,10.00,M,CLR,M,M,M,M,M,M,M,M,M,M,M,M,M,M,87.72,KHTH 262235Z AUTO 33012KT 10SM CLR 34/M03 A2999 RMK A01,M
BAM,2022-08-26 22:35,-116.8743,40.5990,1382.36,96.80,26.60,8.24,250.00,11.00,0.00,30.01,M,10.00,15.00,CLR,M,M,M,M,M,M,M,M,M,M,M,M,M,M,90.57,KBAM 262235Z AUTO 25011G15KT 10SM CLR 36/M03 A3001 RMK AO1,M
MEV,2022-08-26 22:35,-119.7500,38.9963,1441.42,91.40,26.60,9.74,280.00,15.00,0.00,30.07,M,10.00,28.00,CLR,M,M,M,M,M,M,M,M,M,M,M,M,M,M,86.36,KMEV 262235Z AUTO 28015G28KT 10SM CLR 33/M03 A3007 RMK AO2,M
RTS,2022-08-26 22:35,-119.8764,39.6682,1539.00,89.60,17.60,7.05,250.00,11.00,0.00,30.11,M,10.00,20.00,CLR,M,M,M,M,M,M,M,M,M,M,M,M,M,M,84.45,KRTS 262235Z AUTO 25011G20KT 10SM CLR 32/M08 A3011 RMK AO2,M
CXP,2022-08-26 22:35,-119.7326,39.1923,1431.00,89.60,30.20,11.94,260.00,12.00,0.00,30.09,M,10.00,23.00,CLR,M,M,M,M,M,M,M,M,M,M,M,M,M,M,85.34,KCXP 262235Z AUTO 26012G23KT 10SM CLR 32/M01 A3009 RMK AO2,M
VGT,2022-08-26 22:53,-115.1933,36.2111,667.00,102.00,53.00,19.75,M,3.00,0.00,29.83,1008.60,10.00,M,CLR,M,M,M,M,M,M,M,M,M,M,M,M,M,M,100.00,KVGT 262253Z VRB03KT 10SM CLR 39/12 A2983 RMK AO2 SLP086 T03890117,M
LOL,2022-08-26 22:53,-118.5701,40.0684,1192.43,96.00,24.10,7.59,290.00,9.00,0.00,29.97,1010.40,10.00,M,CLR,M,M,M,M,M,M,M,M,M,M,M,M,M,M,89.76,KLOL 262253Z AUTO 29009KT 10SM CLR 36/M04 A2997 RMK AO2 SLP104 T03561044,M
DRA,2022-08-26 22:53,-116.0278,36.6206,1009.00,98.00,44.00,15.87,210.00,3.00,0.00,29.94,1008.10,10.00,M,CLR,M,M,M,M,M,M,M,M,M,M,M,M,M,M,93.99,KDRA 262253Z AUTO 21003KT 10SM CLR 37/07 A2994 RMK AO2 SLP081 T03670067,M
P68,2022-08-26 22:53,-116.0056,39.6014,1993.00,88.00,26.10,10.61,20.00,12.00,0.00,30.11,1010.90,M,16.00,M,M,M,M,M,M,M,M,M,M,M,M,M,M,M,83.80,KP68 262253Z AUTO 02012G16KT 31/M03 A3011 RMK AO1 SLP109 T03111033,M
ELY,2022-08-26 22:53,-114.8453,39.2950,1909.00,81.00,36.00,19.85,160.00,13.00,0.00,30.14,1011.30,10.00,M,CLR,M,M,M,M,M,M,M,M,M,M,M,M,M,M,79.20,KELY 262253Z AUTO 16013KT 10SM CLR 27/02 A3014 RMK AO2 LTG DSNT SE AND S SLP113 T02720022,M
RTS,2022-08-26 22:55,-119.8764,39.6682,1539.00,89.60,21.20,8.22,230.00,17.00,0.00,30.10,M,10.00,M,CLR,M,M,M,M,M,M,M,M,M,M,M,M,M,M,84.64,KRTS 262255Z AUTO 23017KT 10SM CLR 32/M06 A3010 RMK AO2,M
MEV,2022-08-26 22:55,-119.7500,38.9963,1441.42,91.40,26.60,9.74,270.00,16.00,0.00,30.07,M,10.00,22.00,CLR,M,M,M,M,M,M,M,M,M,M,M,M,M,M,86.36,KMEV 262255Z AUTO 27016G22KT 10SM CLR 33/M03 A3007 RMK AO2,M
HTH,2022-08-26 22:55,-118.6315,38.5448,1282.89,93.20,26.60,9.21,330.00,9.00,0.00,29.99,M,10.00,M,CLR,M,M,M,M,M,M,M,M,M,M,M,M,M,M,87.72,KHTH 262255Z AUTO 33009KT 10SM CLR 34/M03 A2999 RMK A01,M
BAM,2022-08-26 22:55,-116.8743,40.5990,1382.36,95.00,24.80,8.08,240.00,16.00,0.00,30.01,M,10.00,20.00,CLR,M,M,M,M,M,M,M,M,M,M,M,M,M,M,88.91,KBAM 262255Z AUTO 24016G20KT 200V260 10SM CLR 35/M04 A3001 RMK AO1,M
TMT,2022-08-26 22:55,-117.1971,39.4643,1749.34,M,M,M,0.00,0.00,0.00,30.12,M,10.00,M,CLR,M,M,M,M,M,M,M,M,M,M,M,M,M,M,M,KTMT 262255Z AUTO 00000KT 10SM CLR A3012 RMK AO2,M
CXP,2022-08-26 22:55,-119.7326,39.1923,1431.00,89.60,28.40,11.09,280.00,20.00,0.00,30.08,M,10.00,26.00,CLR,M,M,M,M,M,M,M,M,M,M,M,M,M,M,85.17,KCXP 262255Z AUTO 28020G26KT 10SM CLR 32/M02 A3008 RMK AO2,M
BVU,2022-08-26 22:55,-114.8611,35.9475,671.00,100.40,51.80,19.76,M,4.00,0.00,29.84,M,M,M,M,M,M,M,M,M,M,M,M,M,M,M,M,M,M,97.90,KBVU 262255Z AUTO VRB04KT 38/11 A2984 RMK AO2 PWINO TSNO,M
RNO,2022-08-26 22:55,-119.7711,39.4839,1341.00,94.00,30.90,10.74,290.00,19.00,0.00,30.02,1010.50,10.00,23.00,FEW,M,M,M,7000.00,M,M,M,M,M,M,M,26.00,290.00,2022-08-26 22:32,88.71,KRNO 262255Z 29019G23KT 10SM FEW070 34/M01 A3002 RMK AO2 PK WND 29026/2232 SLP105 T03441006,M
LSV,2022-08-26 22:56,-115.0343,36.2362,570.00,106.50,52.50,16.90,260.00,8.00,0.00,29.80,1006.20,10.00,M,CLR,M,M,M,M,M,M,M,M,M,M,M,M,M,M,104.55,KLSV 262256Z AUTO 26008KT 10SM CLR 41/11 A2980 RMK AO2 SLP062 T04140114 $,M
LAS,2022-08-26 22:56,-115.1634,36.0719,663.00,99.00,51.00,20.09,0.00,0.00,0.00,29.84,1007.40,10.00,M,FEW,FEW,M,M,12000.00,20000.00,M,M,M,M,M,M,M,M,M,96.24,KLAS 262256Z 00000KT 10SM FEW120 FEW200 37/11 A2984 RMK AO2 SLP074 T03720106,M
NFL,2022-08-26 22:56,-118.7010,39.4166,1199.00,96.00,19.90,6.35,270.00,4.00,0.00,29.97,1012.00,10.00,16.00,SCT,SCT,M,M,8000.00,10000.00,M,M,M,M,M,M,M,M,M,89.44,KNFL 262256Z 27004G16KT 10SM SCT080 SCT100 36/M07 A2997 RMK AO2 SLP120 T03561067,M
TPH,2022-08-26 22:56,-117.0904,38.0505,1654.00,90.00,32.00,12.68,M,5.00,0.00,30.09,1010.60,10.00,15.00,CLR,M,M,M,M,M,M,M,M,M,M,M,M,M,M,85.84,KTPH 262256Z AUTO VRB05G15KT 10SM CLR 32/00 A3009 RMK AO2 SLP106 T03220000,M
WMC,2022-08-26 22:56,-117.8072,40.9019,1315.00,95.00,24.10,7.85,240.00,13.00,0.00,29.99,1010.20,10.00,22.00,CLR,M,M,M,M,M,M,M,M,M,M,M,28.00,230.00,2022-08-26 22:02,88.85,KWMC 262256Z AUTO 24013G22KT 10SM CLR 35/M04 A2999 RMK AO2 PK WND 23028/2202 SLP102 T03501044,M
EKO,2022-08-26 22:56,-115.7860,40.8242,1367.00,88.00,25.00,10.14,250.00,14.00,0.00,30.03,1011.70,10.00,24.00,CLR,M,M,M,M,M,M,M,M,M,M,M,M,M,M,83.71,KEKO 262256Z AUTO 25014G24KT 230V290 10SM CLR 31/M04 A3003 RMK AO2 SLP117 T03111039,M
INS,2022-08-26 22:56,-115.6733,36.5872,955.00,97.70,42.30,14.99,10.00,4.00,0.00,29.91,1007.30,10.00,M,CLR,M,M,M,M,M,M,M,M,M,M,M,M,M,M,93.38,KINS 262256Z AUTO 01004KT 10SM CLR 37/06 A2991 RMK AO2 SLP073 T03650057 $,M
BAM,2022-08-26 23:15,-116.8743,40.5990,1382.36,95.00,26.60,8.71,280.00,14.00,0.00,30.00,M,10.00,21.00,CLR,M,M,M,M,M,M,M,M,M,M,M,M,M,M,89.08,KBAM 262315Z AUTO 28014G21KT 10SM CLR 35/M03 A3000 RMK AO1,M
MEV,2022-08-26 23:15,-119.7500,38.9963,1441.42,89.60,26.60,10.30,280.00,16.00,0.00,30.06,M,10.00,M,CLR,M,M,M,M,M,M,M,M,M,M,M,M,M,M,85.02,KMEV 262315Z AUTO 28016KT 10SM CLR 32/M03 A3006 RMK AO2,M
RTS,2022-08-26 23:15,-119.8764,39.6682,1539.00,87.80,21.20,8.70,240.00,15.00,0.00,30.10,M,10.00,24.00,CLR,M,M,M,M,M,M,M,M,M,M,M,M,M,M,83.33,KRTS 262315Z AUTO 24015G24KT 10SM CLR 31/M06 A3010 RMK AO2,M
CXP,2022-08-26 23:15,-119.7326,39.1923,1431.00,89.60,28.40,11.09,260.00,16.00,0.00,30.08,M,10.00,24.00,CLR,M,M,M,M,M,M,M,M,M,M,M,M,M,M,85.17,KCXP 262315Z AUTO 26016G24KT 10SM CLR 32/M02 A3008 RMK AO2,M
BVU,2022-08-26 23:15,-114.8611,35.9475,671.00,100.40,50.00,18.48,60.00,3.00,0.00,29.83,M,M,M,M,M,M,M,M,M,M,M,M,M,M,M,M,M,M,97.42,KBVU 262315Z AUTO 06003KT 38/10 A2983 RMK AO2 PWINO TSNO,M
TMT,2022-08-26 23:15,-117.1971,39.4643,1749.34,M,M,M,300.00,10.00,0.00,30.11,M,10.00,14.00,CLR,M,M,M,M,M,M,M,M,M,M,M,M,M,M,M,KTMT 262315Z AUTO 30010G14KT 10SM CLR A3011 RMK AO2,M
HTH,2022-08-26 23:15,-118.6315,38.5448,1282.89,93.20,26.60,9.21,340.00,8.00,0.00,29.98,M,10.00,15.00,CLR,M,M,M,M,M,M,M,M,M,M,M,M,M,M,87.72,KHTH 262315Z AUTO 34008G15KT 10SM CLR 34/M03 A2998 RMK A01,M
BAM,2022-08-26 23:35,-116.8743,40.5990,1382.36,95.00,26.60,8.71,290.00,5.00,0.00,29.99,M,10.00,16.00,CLR,M,M,M,M,M,M,M,M,M,M,M,M,M,M,89.08,KBAM 262335Z AUTO 29005G16KT 270V350 10SM CLR 35/M03 A2999 RMK AO1,M
BVU,2022-08-26 23:35,-114.8611,35.9475,671.00,100.40,46.40,16.15,M,5.00,0.00,29.83,M,M,M,M,M,M,M,M,M,M,M,M,M,M,M,M,M,M,96.63,KBVU 262335Z AUTO VRB05KT 38/08 A2983 RMK AO2 PWINO TSNO,M
CXP,2022-08-26 23:35,-119.7326,39.1923,1431.00,89.60,26.60,10.30,270.00,11.00,0.00,30.08,M,10.00,20.00,CLR,M,M,M,M,M,M,M,M,M,M,M,M,M,M,85.02,KCXP 262335Z AUTO 27011G20KT 10SM CLR 32/M03 A3008 RMK AO2,M
RTS,2022-08-26 23:35,-119.8764,39.6682,1539.00,87.80,19.40,8.06,250.00,16.00,0.00,30.09,M,10.00,25.00,CLR,M,M,M,M,M,M,M,M,M,M,M,M,M,M,83.23,KRTS 262335Z AUTO 25016G25KT 10SM CLR 31/M07 A3009 RMK AO2,M
MEV,2022-08-26 23:35,-119.7500,38.9963,1441.42,89.60,26.60,10.30,270.00,16.00,0.00,30.06,M,10.00,M,CLR,M,M,M,M,M,M,M,M,M,M,M,M,M,M,85.02,KMEV 262335Z AUTO 27016KT 10SM CLR 32/M03 A3006 RMK AO2,M
TMT,2022-08-26 23:35,-117.1971,39.4643,1749.34,M,M,M,280.00,9.00,0.00,30.11,M,10.00,M,CLR,M,M,M,M,M,M,M,M,M,M,M,M,M,M,M,KTMT 262335Z AUTO 28009KT 10SM CLR A3011 RMK AO2,M
HTH,2022-08-26 23:35,-118.6315,38.5448,1282.89,93.20,26.60,9.21,350.00,7.00,0.00,29.98,M,10.00,M,CLR,M,M,M,M,M,M,M,M,M,M,M,M,M,M,87.72,KHTH 262335Z AUTO 35007KT 10SM CLR 34/M03 A2998 RMK A01,M
ELY,2022-08-26 23:53,-114.8453,39.2950,1909.00,79.00,39.00,23.85,190.00,5.00,T,30.14,1011.60,10.00,M,BKN,M,M,M,12000.00,M,M,M,M,M,M,M,M,M,M,79.00,KELY 262353Z AUTO 19005KT 10SM BKN120 26/04 A3014 RMK AO2 RAB25E43 SLP116 P0000 60000 T02610039 10294 20250 56010,M
P68,2022-08-26 23:53,-116.0056,39.6014,1993.00,86.00,25.00,10.81,M,3.00,0.00,30.10,1010.40,M,M,M,M,M,M,M,M,M,M,M,M,M,M,M,M,M,82.27,KP68 262353Z AUTO VRB03KT 30/M04 A3010 RMK AO1 SLP104 T03001039 10322 20256 56018,M
LOL,2022-08-26 23:53,-118.5701,40.0684,1192.43,96.00,21.00,6.66,290.00,10.00,0.00,29.94,1009.50,10.00,M,CLR,M,M,M,M,M,M,M,M,M,M,M,M,M,M,89.52,KLOL 262353Z AUTO 29010KT 10SM CLR 36/M06 A2994 RMK AO2 SLP095 T03561061 10361 20311 56025,M
DRA,2022-08-26 23:53,-116.0278,36.6206,1009.00,97.00,45.00,16.98,260.00,6.00,0.00,29.92,1007.60,10.00,M,CLR,M,M,M,M,M,M,M,M,M,M,M,M,M,M,93.04,KDRA 262353Z AUTO 26006KT 10SM CLR 36/07 A2992 RMK AO2 SLP076 T03610072 10372 20322 56024,M
VGT,2022-08-26 23:53,-115.1933,36.2111,667.00,102.00,51.00,18.35,M,4.00,0.00,29.81,1007.80,10.00,M,CLR,M,M,M,M,M,M,M,M,M,M,M,M,M,M,99.38,KVGT 262353Z VRB04KT 10SM CLR 39/11 A2981 RMK AO2 SLP078 T03890106 10400 20339 56028,M
BAM,2022-08-26 23:55,-116.8743,40.5990,1382.36,95.00,26.60,8.71,270.00,6.00,0.00,29.99,M,10.00,M,CLR,M,M,M,M,M,M,M,M,M,M,M,M,M,M,89.08,KBAM 262355Z AUTO 27006KT 10SM CLR 35/M03 A2999 RMK AO1,M
BVU,2022-08-26 23:55,-114.8611,35.9475,671.00,100.40,46.40,16.15,0.00,0.00,0.00,29.82,M,M,M,M,M,M,M,M,M,M,M,M,M,M,M,M,M,M,96.63,KBVU 262355Z AUTO 00000KT 38/08 A2982 RMK AO2 PWINO TSNO,M
MEV,2022-08-26 23:55,-119.7500,38.9963,1441.42,89.60,26.60,10.30,260.00,17.00,0.00,30.06,M,10.00,23.00,CLR,M,M,M,M,M,M,M,M,M,M,M,M,M,M,85.02,KMEV 262355Z AUTO 26017G23KT 10SM CLR 32/M03 A3006 RMK AO2,M
CXP,2022-08-26 23:55,-119.7326,39.1923,1431.00,87.80,26.60,10.91,280.00,15.00,0.00,30.07,M,10.00,23.00,CLR,M,M,M,M,M,M,M,M,M,M,M,M,M,M,83.69,KCXP 262355Z AUTO 28015G23KT 10SM CLR 31/M03 A3007 RMK AO2,M
RTS,2022-08-26 23:55,-119.8764,39.6682,1539.00,87.80,19.40,8.06,250.00,14.00,0.00,30.09,M,10.00,20.00,CLR,M,M,M,M,M,M,M,M,M,M,M,M,M,M,83.23,KRTS 262355Z AUTO 25014G20KT 10SM CLR 31/M07 A3009 RMK AO2,M
TMT,2022-08-26 23:55,-117.1971,39.4643,1749.34,M,M,M,300.00,11.00,0.00,30.11,M,10.00,M,CLR,M,M,M,M,M,M,M,M,M,M,M,M,M,M,M,KTMT 262355Z AUTO 30011KT 10SM CLR A3011 RMK AO2,M
HTH,2022-08-26 23:55,-118.6315,38.5448,1282.89,93.20,24.80,8.54,340.00,7.00,0.00,29.97,M,10.00,M,CLR,M,M,M,M,M,M,M,M,M,M,M,M,M,M,87.56,KHTH 262355Z AUTO 34007KT 10SM CLR 34/M04 A2997 RMK A01,M
RNO,2022-08-26 23:55,-119.7711,39.4839,1341.00,92.00,30.00,11.02,270.00,18.00,0.00,30.02,1010.30,10.00,26.00,CLR,M,M,M,M,M,M,M,M,M,M,M,27.00,300.00,2022-08-26 23:01,87.07,KRNO 262355Z 27018G26KT 10SM CLR 33/M01 A3002 RMK AO2 PK WND 30027/2301 SLP103 T03331011 10356 20278 56016,M
WMC,2022-08-26 23:56,-117.8072,40.9019,1315.00,95.00,19.90,6.57,240.00,15.00,0.00,29.97,1009.90,10.00,26.00,CLR,M,M,M,M,M,M,M,M,M,M,M,26.00,240.00,2022-08-26 23:52,88.53,KWMC 262356Z AUTO 24015G26KT 10SM CLR 35/M07 A2997 RMK AO2 PK WND 24026/2352 SLP099 T03501067 10361 20311 56020,M
LSV,2022-08-26 23:56,-115.0343,36.2362,570.00,105.40,51.60,16.89,200.00,7.00,0.00,29.78,1005.50,10.00,M,CLR,M,M,M,M,M,M,M,M,M,M,M,M,M,M,103.09,KLSV 262356Z AUTO 20007KT 10SM CLR 41/11 A2978 RMK AO2 SLP055 T04080109 10419 20385 57030 $,M
INS,2022-08-26 23:56,-115.6733,36.5872,955.00,97.20,43.50,15.94,300.00,7.00,0.00,29.89,1006.80,10.00,M,CLR,M,M,M,M,M,M,M,M,M,M,M,M,M,M,93.04,KINS 262356Z AUTO 30007KT 10SM CLR 36/06 A2989 RMK AO2 SLP068 T03620064 10371 20312 57025 $,M
NFL,2022-08-26 23:56,-118.7010,39.4166,1199.00,95.00,21.00,6.89,M,M,0.00,29.94,1011.20,10.00,M,SCT,SCT,M,M,8000.00,10000.00,M,M,M,M,M,M,M,M,M,88.61,KNFL 262356Z 10SM SCT080 SCT100 35/M06 A2994 RMK AO2 SLP112 T03501061 10361 20300 56027,M
LAS,2022-08-26 23:56,-115.1634,36.0719,663.00,103.00,51.00,17.86,320.00,5.00,0.00,29.82,1006.60,10.00,M,FEW,FEW,M,M,12000.00,20000.00,M,M,M,M,M,M,M,M,M,100.32,KLAS 262356Z 32005KT 10SM FEW120 FEW200 39/11 A2982 RMK AO2 SLP066 T03940106 10394 20333 56029,M
TPH,2022-08-26 23:56,-117.0904,38.0505,1654.00,90.00,30.90,12.13,300.00,9.00,0.00,30.08,1010.20,10.00,M,CLR,M,M,M,M,M,M,M,M,M,M,M,M,M,M,85.72,KTPH 262356Z AUTO 30009KT 10SM CLR 32/M01 A3008 RMK AO2 SLP102 T03221006 10328 20267 56019,M
EKO,2022-08-26 23:56,-115.7860,40.8242,1367.00,86.00,24.10,10.41,270.00,10.00,0.00,30.01,1010.80,10.00,21.00,CLR,M,M,M,M,M,M,M,M,M,M,M,M,M,M,82.21,KEKO 262356Z AUTO 27010G21KT 10SM CLR 30/M04 A3001 RMK AO2 SLP108 T03001044 10328 20261 56020,M
