station,valid,lon,lat,elevation,tmpf,dwpf,relh,drct,sknt,p01i,alti,mslp,vsby,gust,skyc1,skyc2,skyc3,skyc4,skyl1,skyl2,skyl3,skyl4,wxcodes,ice_accretion_1hr,ice_accretion_3hr,ice_accretion_6hr,peak_wind_gust,peak_wind_drct,peak_wind_time,feel,metar,snowdepth
RNO,2024-07-22 00:05,-119.7711,39.4839,1341.00,102.00,46.00,15.16,270.00,11.00,0.00,30.00,M,10.00,23.00,SCT,M,M,M,11000.00,M,M,M,TS,M,M,M,M,M,M,98.15,KRNO 220005Z 27011G23KT 10SM TS SCT110CB 39/08 A3000 RMK AO2 TSB2359 OCNL LTGIC SE TS SE MOV NE T03890078,M
LAS,2024-07-22 00:12,-115.1634,36.0719,663.00,112.00,47.00,11.73,0.00,0.00,0.00,29.79,M,10.00,M,FEW,FEW,M,M,12000.00,18000.00,M,M,M,M,M,M,M,M,M,108.01,KLAS 220012Z 00000KT 10SM FEW120 FEW180 44/08 A2979 RMK AO2 CB DSNT SE AND S T04440083 $,M
BVU,2024-07-22 00:15,-114.8611,35.9475,671.00,109.40,42.80,10.78,0.00,0.00,0.00,29.77,M,10.00,M,CLR,M,M,M,M,M,M,M,M,M,M,M,M,M,M,104.25,KBVU 220015Z AUTO 00000KT 10SM CLR 43/06 A2977 RMK AO2,M
CXP,2024-07-22 00:15,-119.7326,39.1923,1431.00,98.60,48.20,18.25,M,4.00,0.00,30.08,M,10.00,15.00,SCT,BKN,M,M,10000.00,12000.00,M,M,M,M,M,M,M,M,M,95.17,KCXP 220015Z AUTO VRB04G15KT 10SM SCT100 BKN120 37/09 A3008 RMK AO2 LTG DSNT SE AND SW,M
RTS,2024-07-22 00:15,-119.8764,39.6682,1539.00,93.20,42.80,17.55,320.00,13.00,0.00,30.09,M,10.00,M,CLR,M,M,M,M,M,M,M,M,M,M,M,M,M,M,89.17,KRTS 220015Z AUTO 32013KT 10SM CLR 34/06 A3009 RMK AO2,M
05U,2024-07-22 00:15,-116.0051,39.6042,1811.23,84.20,48.20,28.63,0.00,0.00,0.00,30.25,M,10.00,M,SCT,SCT,M,M,10000.00,12000.00,M,M,M,M,M,M,M,M,M,82.04,K05U 220015Z AUTO 00000KT 10SM SCT100 SCT120 29/09 A3025 RMK A01,M
MEV,2024-07-22 00:15,-119.7500,38.9963,1441.42,84.20,51.80,32.73,180.00,13.00,0.00,30.09,M,10.00,23.00,FEW,M,M,M,11000.00,M,M,M,M,M,M,M,M,M,M,82.48,KMEV 220015Z AUTO 18013G23KT 10SM FEW110 29/11 A3009 RMK AO2 LTG DSNT ALQDS,M
HTH,2024-07-22 00:15,-118.6315,38.5448,1282.89,91.40,46.40,21.29,250.00,23.00,0.00,30.00,M,10.00,29.00,CLR,M,M,M,M,M,M,M,M,M,M,M,M,M,M,87.86,KHTH 220015Z AUTO 25023G29KT 10SM CLR 33/08 A3000 RMK A01,M
10U,2024-07-22 00:15,-116.1876,41.9532,1637.00,89.60,39.20,17.09,20.00,6.00,0.00,30.14,M,10.00,M,CLR,M,M,M,M,M,M,M,M,M,M,M,M,M,M,85.73,K10U 220015Z AUTO 02006KT 10SM CLR 32/04 A3014 RMK AO2,M
BAM,2024-07-22 00:15,-116.8743,40.5990,1382.36,95.00,44.60,17.78,170.00,16.00,0.00,30.06,M,10.00,23.00,CLR,M,M,M,M,M,M,M,M,M,M,M,M,M,M,91.06,KBAM 220015Z AUTO 17016G23KT 10SM CLR 35/07 A3006 RMK AO1,M
TMT,2024-07-22 00:15,-117.1971,39.4643,1749.34,86.00,46.00,24.88,80.00,21.00,0.00,30.18,M,10.00,24.00,CLR,M,M,M,M,M,M,M,M,M,M,M,M,M,M,83.19,KTMT 220015Z AUTO 08021G24KT 10SM CLR 30/08 A3018 RMK AO2 T02990077,M
05U,2024-07-22 00:30,-116.0051,39.6042,1811.23,84.20,46.40,26.76,330.00,5.00,0.00,30.24,M,10.00,10.00,CLR,M,M,M,M,M,M,M,M,M,M,M,M,M,M,81.87,K05U 220030Z AUTO 33005G10KT 10SM CLR 29/08 A3024 RMK A01,M
BVU,2024-07-22 00:35,-114.8611,35.9475,671.00,109.40,41.00,10.06,0.00,0.00,0.00,29.77,M,10.00,M,CLR,M,M,M,M,M,M,M,M,M,M,M,M,M,M,103.77,KBVU 220035Z AUTO 00000KT 10SM CLR 43/05 A2977 RMK AO2,M
CXP,2024-07-22 00:35,-119.7326,39.1923,1431.00,95.00,50.00,21.79,180.00,14.00,0.00,30.09,M,10.00,22.00,SCT,BKN,M,M,10000.00,12000.00,M,M,M,M,M,M,M,M,M,91.89,KCXP 220035Z AUTO 18014G22KT 10SM SCT100 BKN120 35/10 A3009 RMK AO2,M
RTS,2024-07-22 00:35,-119.8764,39.6682,1539.00,91.40,44.60,19.89,340.00,13.00,0.00,30.09,M,10.00,18.00,CLR,M,M,M,M,M,M,M,M,M,M,M,M,M,M,87.68,KRTS 220035Z AUTO 34013G18KT 10SM CLR 33/07 A3009 RMK AO2,M
MEV,2024-07-22 00:35,-119.7500,38.9963,1441.42,82.40,50.00,32.46,250.00,11.00,0.00,30.09,M,10.00,M,FEW,M,M,M,11000.00,M,M,M,M,M,M,M,M,M,M,80.99,KMEV 220035Z AUTO 25011KT 10SM FEW110 28/10 A3009 RMK AO2 LTG DSNT NW,M
BAM,2024-07-22 00:35,-116.8743,40.5990,1382.36,93.20,42.80,17.55,190.00,10.00,0.00,30.07,M,10.00,18.00,CLR,M,M,M,M,M,M,M,M,M,M,M,M,M,M,89.17,KBAM 220035Z AUTO 19010G18KT 10SM CLR 34/06 A3007 RMK AO1,M
HTH,2024-07-22 00:35,-118.6315,38.5448,1282.89,91.40,46.40,21.29,260.00,22.00,0.00,30.00,M,10.00,29.00,CLR,M,M,M,M,M,M,M,M,M,M,M,M,M,M,87.86,KHTH 220035Z AUTO 26022G29KT 10SM CLR 33/08 A3000 RMK A01,M
10U,2024-07-22 00:35,-116.1876,41.9532,1637.00,87.80,41.00,19.40,10.00,6.00,0.00,30.14,M,10.00,M,CLR,M,M,M,M,M,M,M,M,M,M,M,M,M,M,84.30,K10U 220035Z AUTO 01006KT 10SM CLR 31/05 A3014 RMK AO2,M
TMT,2024-07-22 00:35,-117.1971,39.4643,1749.34,87.00,46.00,24.10,90.00,17.00,0.00,30.18,M,10.00,24.00,CLR,M,M,M,M,M,M,M,M,M,M,M,M,M,M,83.98,KTMT 220035Z AUTO 09017G24KT 10SM CLR 31/08 A3018 RMK AO2 T03060078,M
05U,2024-07-22 00:50,-116.0051,39.6042,1811.23,86.00,44.60,23.59,0.00,0.00,0.00,30.23,M,10.00,M,CLR,M,M,M,M,M,M,M,M,M,M,M,M,M,M,83.07,K05U 220050Z AUTO 00000KT 10SM CLR 30/07 A3023 RMK A01,M
P68,2024-07-22 00:53,-116.0056,39.6014,1993.00,87.00,46.00,24.10,10.00,8.00,0.00,30.20,1014.00,M,M,M,M,M,M,M,M,M,M,M,M,M,M,M,M,M,83.98,KP68 220053Z AUTO 01008KT 31/08 A3020 RMK AO1 SLP140 T03060078,M
DRA,2024-07-22 00:53,-116.0278,36.6206,1009.00,107.00,41.00,10.79,240.00,8.00,0.00,29.88,1005.60,10.00,M,CLR,M,M,M,M,M,M,M,M,M,M,M,M,M,M,101.62,KDRA 220053Z AUTO 24008KT 10SM CLR 42/05 A2988 RMK AO2 SLP056 T04170050,M
ELY,2024-07-22 00:53,-114.8453,39.2950,1909.00,87.00,40.00,19.14,0.00,0.00,0.00,30.22,1013.20,10.00,M,BKN,M,M,M,12000.00,M,M,M,M,M,M,M,M,M,M,83.60,KELY 220053Z AUTO 00000KT 10SM BKN120 31/04 A3022 RMK AO2 SLP132 T03060044 $,M
VGT,2024-07-22 00:53,-115.1933,36.2111,667.00,110.00,48.00,12.91,M,3.00,0.00,29.77,1006.30,10.00,M,CLR,M,M,M,M,M,M,M,M,M,M,M,M,M,M,106.47,KVGT 220053Z VRB03KT 10SM CLR 43/09 A2977 RMK AO2 SLP063 T04330089,M
LOL,2024-07-22 00:53,-118.5701,40.0684,1192.43,99.00,43.00,14.80,130.00,6.00,0.00,29.93,1008.50,10.00,M,CLR,M,M,M,M,M,M,M,M,M,M,M,M,M,M,94.72,KLOL 220053Z AUTO 13006KT 10SM CLR 37/06 A2993 RMK AO2 SLP085 T03720061,M
NFL,2024-07-22 00:54,-118.7010,39.4166,1199.00,96.00,48.00,19.61,280.00,17.00,0.00,29.96,1011.70,9.00,24.00,CLR,M,M,M,M,M,M,M,M,M,M,M,M,M,M,92.52,KNFL 220054Z AUTO 28017G24KT 9SM CLR 36/09 A2996 RMK AO2 SLP117 T03560089,M
BVU,2024-07-22 00:55,-114.8611,35.9475,671.00,109.40,41.00,10.06,M,3.00,0.00,29.77,M,10.00,M,CLR,M,M,M,M,M,M,M,M,M,M,M,M,M,M,103.77,KBVU 220055Z AUTO VRB03KT 10SM CLR 43/05 A2977 RMK AO2,M
CXP,2024-07-22 00:55,-119.7326,39.1923,1431.00,89.60,50.00,25.79,190.00,12.00,0.00,30.09,M,10.00,21.00,CLR,M,M,M,M,M,M,M,M,M,M,M,M,M,M,86.70,KCXP 220055Z AUTO 19012G21KT 10SM CLR 32/10 A3009 RMK AO2,M
RNO,2024-07-22 00:55,-119.7711,39.4839,1341.00,90.00,52.00,27.42,100.00,17.00,0.00,30.03,1010.60,10.00,34.00,BKN,M,M,M,11000.00,M,M,M,TS,M,M,M,34.00,120.00,2024-07-22 00:48,87.40,KRNO 220055Z 10017G34KT 10SM TS BKN110CB 32/11 A3003 RMK AO2 PK WND 12034/0048 SLP106 TSB2359 OCNL LTGIC E TS E MOV NE T03220111,M
RTS,2024-07-22 00:55,-119.8764,39.6682,1539.00,95.00,44.60,17.78,280.00,7.00,0.00,30.09,M,10.00,M,SCT,M,M,M,11000.00,M,M,M,M,M,M,M,M,M,M,91.06,KRTS 220055Z AUTO 28007KT 240V310 10SM SCT110 35/07 A3009 RMK AO2,M
MEV,2024-07-22 00:55,-119.7500,38.9963,1441.42,82.40,53.60,37.07,300.00,5.00,0.00,30.09,M,10.00,M,FEW,M,M,M,11000.00,M,M,M,M,M,M,M,M,M,M,81.46,KMEV 220055Z AUTO 30005KT 10SM FEW110 28/12 A3009 RMK AO2 LTG DSNT SE,M
BAM,2024-07-22 00:55,-116.8743,40.5990,1382.36,93.20,42.80,17.55,310.00,22.00,0.00,30.07,M,10.00,30.00,CLR,M,M,M,M,M,M,M,M,M,M,M,M,M,M,89.17,KBAM 220055Z AUTO 31022G30KT 250V330 10SM CLR 34/06 A3007 RMK AO1,M
HTH,2024-07-22 00:55,-118.6315,38.5448,1282.89,91.40,44.60,19.89,260.00,13.00,0.00,30.01,M,10.00,19.00,CLR,M,M,M,M,M,M,M,M,M,M,M,M,M,M,87.68,KHTH 220055Z AUTO 26013G19KT 10SM CLR 33/07 A3001 RMK A01,M
10U,2024-07-22 00:55,-116.1876,41.9532,1637.00,86.00,44.60,23.59,360.00,5.00,0.00,30.14,M,10.00,M,CLR,M,M,M,M,M,M,M,M,M,M,M,M,M,M,83.07,K10U 220055Z AUTO 36005KT 10SM CLR 30/07 A3014 RMK AO2,M
TMT,2024-07-22 00:55,-117.1971,39.4643,1749.34,87.40,44.40,22.39,100.00,16.00,0.00,30.17,M,10.00,M,CLR,M,M,M,M,M,M,M,M,M,M,M,M,M,M,84.18,KTMT 220055Z AUTO 10016KT 10SM CLR 31/07 A3017 RMK AO2 T03080069,M
INS,2024-07-22 00:55,-115.6733,36.5872,955.00,107.20,36.30,8.93,260.00,5.00,0.00,29.86,1004.70,10.00,M,CLR,M,M,M,M,M,M,M,M,M,M,M,M,M,M,100.77,KINS 220055Z AUTO 26005KT 10SM CLR 42/02 A2986 RMK AO2 SLP047 T04180024 $,M
LSV,2024-07-22 00:55,-115.0343,36.2362,570.00,111.20,39.40,8.97,300.00,6.00,0.00,29.71,1002.60,10.00,M,CLR,M,M,M,M,M,M,M,M,M,M,M,M,M,M,105.03,KLSV 220055Z AUTO 30006KT 10SM CLR 44/04 A2971 RMK AO2 SLP026 T04400041 $,M
EKO,2024-07-22 00:56,-115.7860,40.8242,1367.00,92.00,42.00,17.67,220.00,4.00,0.00,30.08,1012.50,10.00,M,CLR,M,M,M,M,M,M,M,M,M,M,M,M,M,M,88.01,KEKO 220056Z AUTO 22004KT 10SM CLR 33/06 A3008 RMK AO2 SLP125 T03330056,M
WMC,2024-07-22 00:56,-117.8072,40.9019,1315.00,100.00,42.00,13.82,M,3.00,0.00,29.98,1008.90,10.00,M,CLR,M,M,M,M,M,M,M,M,M,M,M,M,M,M,95.54,KWMC 220056Z AUTO VRB03KT 10SM CLR 38/06 A2998 RMK AO2 SLP089 T03780056,M
HND,2024-07-22 00:56,-115.1344,35.9729,742.79,108.00,48.00,13.69,0.00,0.00,0.00,29.83,1007.80,10.00,M,CLR,M,M,M,M,M,M,M,M,M,M,M,M,M,M,104.56,KHND 220056Z 00000KT 10SM CLR 42/09 A2983 RMK AO2 SLP078 T04220089,M
TPH,2024-07-22 00:56,-117.0904,38.0505,1654.00,77.00,55.00,46.57,90.00,22.00,0.09,30.09,1011.10,4.00,43.00,FEW,SCT,OVC,M,2800.00,7500.00,11000.00,M,+RA,M,M,M,43.00,90.00,2024-07-22 00:54,77.00,KTPH 220056Z AUTO 09022G43KT 4SM +RA FEW028 SCT075 OVC110 25/13 A3009 RMK AO2 PK WND 09043/0054 RAB17 SLP111 P0009 T02500128,M
LAS,2024-07-22 00:56,-115.1634,36.0719,663.00,111.00,46.00,11.63,310.00,5.00,0.00,29.78,1001.40,10.00,M,FEW,SCT,M,M,12000.00,16000.00,M,M,M,M,M,M,M,M,M,106.70,KLAS 220056Z 31005KT 10SM FEW120 SCT160 44/08 A2978 RMK AO2 SLP014 CB DSNT NE T04390078 $,M
05U,2024-07-22 01:10,-116.0051,39.6042,1811.23,84.20,46.40,26.76,40.00,9.00,0.00,30.23,M,10.00,18.00,CLR,M,M,M,M,M,M,M,M,M,M,M,M,M,M,81.87,K05U 220110Z AUTO 04009G18KT 10SM CLR 29/08 A3023 RMK A01,M
RNO,2024-07-22 01:14,-119.7711,39.4839,1341.00,90.00,53.00,28.45,110.00,8.00,T,30.04,M,10.00,18.00,BKN,M,M,M,12000.00,M,M,M,M,M,M,M,M,M,M,87.60,KRNO 220114Z COR 11008G18KT 10SM BKN120 32/12 A3004 RMK AO2 RAB0057E06 TSE09 CB DSNT NE THRU E P0000 T03220117,M
BVU,2024-07-22 01:15,-114.8611,35.9475,671.00,109.40,46.40,12.37,190.00,9.00,0.00,29.77,M,10.00,M,CLR,M,M,M,M,M,M,M,M,M,M,M,M,M,M,105.36,KBVU 220115Z AUTO 19009KT 10SM CLR 43/08 A2977 RMK AO2,M
CXP,2024-07-22 01:15,-119.7326,39.1923,1431.00,89.60,51.80,27.56,140.00,5.00,0.00,30.09,M,10.00,11.00,FEW,M,M,M,12000.00,M,M,M,M,M,M,M,M,M,M,87.00,KCXP 220115Z AUTO 14005G11KT 10SM FEW120 32/11 A3009 RMK AO2 LTG DSNT NE AND SE,M
RTS,2024-07-22 01:15,-119.8764,39.6682,1539.00,95.00,42.80,16.60,240.00,14.00,0.00,30.10,M,10.00,21.00,FEW,M,M,M,11000.00,M,M,M,M,M,M,M,M,M,M,90.86,KRTS 220115Z AUTO 24014G21KT 10SM FEW110 35/06 A3010 RMK AO2,M
MEV,2024-07-22 01:15,-119.7500,38.9963,1441.42,87.80,55.40,33.29,270.00,4.00,0.00,30.09,M,10.00,M,FEW,M,M,M,11000.00,M,M,M,M,M,M,M,M,M,M,86.11,KMEV 220115Z AUTO 27004KT 10SM FEW110 31/13 A3009 RMK AO2 LTG DSNT NE AND SE,M
BAM,2024-07-22 01:15,-116.8743,40.5990,1382.36,95.00,41.00,15.49,50.00,8.00,0.00,30.05,M,10.00,20.00,SCT,SCT,BKN,M,4500.00,5000.00,8500.00,M,M,M,M,M,M,M,M,90.70,KBAM 220115Z AUTO 05008G20KT 10SM SCT045 SCT050 BKN085 35/05 A3005 RMK AO1,M
HTH,2024-07-22 01:15,-118.6315,38.5448,1282.89,91.40,44.60,19.89,190.00,9.00,0.00,30.03,M,10.00,17.00,FEW,BKN,M,M,8000.00,11000.00,M,M,M,M,M,M,M,M,M,87.68,KHTH 220115Z AUTO 19009G17KT 10SM FEW080 BKN110 33/07 A3003 RMK A01,M
10U,2024-07-22 01:15,-116.1876,41.9532,1637.00,86.00,44.60,23.59,10.00,5.00,0.00,30.14,M,10.00,M,CLR,M,M,M,M,M,M,M,M,M,M,M,M,M,M,83.07,K10U 220115Z AUTO 01005KT 10SM CLR 30/07 A3014 RMK AO2,M
TMT,2024-07-22 01:15,-117.1971,39.4643,1749.34,88.00,44.00,21.63,100.00,11.00,0.00,30.16,M,10.00,M,CLR,M,M,M,M,M,M,M,M,M,M,M,M,M,M,84.65,KTMT 220115Z AUTO 10011KT 10SM CLR 31/07 A3016 RMK AO2 T03110066,M
05U,2024-07-22 01:30,-116.0051,39.6042,1811.23,84.20,46.40,26.76,30.00,3.00,0.00,30.23,M,10.00,13.00,CLR,M,M,M,M,M,M,M,M,M,M,M,M,M,M,81.87,K05U 220130Z AUTO 03003G13KT 10SM CLR 29/08 A3023 RMK A01,M
BVU,2024-07-22 01:35,-114.8611,35.9475,671.00,109.40,44.60,11.55,190.00,8.00,0.00,29.77,M,10.00,14.00,CLR,M,M,M,M,M,M,M,M,M,M,M,M,M,M,104.78,KBVU 220135Z AUTO 19008G14KT 10SM CLR 43/07 A2977 RMK AO2,M
CXP,2024-07-22 01:35,-119.7326,39.1923,1431.00,87.80,51.80,29.18,150.00,7.00,0.00,30.09,M,10.00,M,FEW,M,M,M,12000.00,M,M,M,M,M,M,M,M,M,M,85.39,KCXP 220135Z AUTO 15007KT 10SM FEW120 31/11 A3009 RMK AO2,M
RTS,2024-07-22 01:35,-119.8764,39.6682,1539.00,93.20,42.80,17.55,230.00,15.00,0.00,30.11,M,10.00,M,FEW,M,M,M,12000.00,M,M,M,M,M,M,M,M,M,M,89.17,KRTS 220135Z AUTO 23015KT 10SM FEW120 34/06 A3011 RMK AO2,M
MEV,2024-07-22 01:35,-119.7500,38.9963,1441.42,86.00,57.20,37.62,170.00,8.00,0.00,30.10,M,10.00,M,FEW,M,M,M,11000.00,M,M,M,M,M,M,M,M,M,M,84.97,KMEV 220135Z AUTO 17008KT 10SM FEW110 30/14 A3010 RMK AO2,M
HTH,2024-07-22 01:35,-118.6315,38.5448,1282.89,89.60,46.40,22.53,180.00,12.00,0.00,30.03,M,10.00,M,FEW,FEW,SCT,M,6500.00,8000.00,11000.00,M,M,M,M,M,M,M,M,86.24,KHTH 220135Z AUTO 18012KT 10SM FEW065 FEW080 SCT110 32/08 A3003 RMK A01,M
10U,2024-07-22 01:35,-116.1876,41.9532,1637.00,84.20,46.40,26.76,360.00,5.00,0.00,30.15,M,10.00,M,CLR,M,M,M,M,M,M,M,M,M,M,M,M,M,M,81.87,K10U 220135Z AUTO 36005KT 10SM CLR 29/08 A3015 RMK AO2,M
BAM,2024-07-22 01:35,-116.8743,40.5990,1382.36,96.80,41.00,14.66,360.00,3.00,0.00,30.03,M,10.00,M,SCT,SCT,SCT,M,4500.00,5000.00,7000.00,M,M,M,M,M,M,M,M,92.39,KBAM 220135Z AUTO 36003KT 10SM SCT045 SCT050 SCT070 36/05 A3003 RMK AO1,M
TMT,2024-07-22 01:35,-117.1971,39.4643,1749.34,87.30,43.00,21.29,120.00,13.00,0.00,30.16,M,10.00,18.00,CLR,M,M,M,M,M,M,M,M,M,M,M,M,M,M,84.00,KTMT 220135Z AUTO 12013G18KT 10SM CLR 31/06 A3016 RMK AO2 T03070062,M
05U,2024-07-22 01:50,-116.0051,39.6042,1811.23,84.20,44.60,24.99,0.00,0.00,0.00,30.22,M,10.00,M,CLR,M,M,M,M,M,M,M,M,M,M,M,M,M,M,81.73,K05U 220150Z AUTO 00000KT 10SM CLR 29/07 A3022 RMK A01,M
RNO,2024-07-22 01:51,-119.7711,39.4839,1341.00,87.80,53.60,31.17,90.00,8.00,T,30.06,M,10.00,16.00,BKN,M,M,M,11000.00,M,M,M,M,M,M,M,M,M,M,85.72,KRNO 220151Z COR 09008G16KT 10SM BKN110 31/12 A3006 RMK AO2 RAB0057E06 TSE09E48 CB DSNT E THRU NE P0000,M
P68,2024-07-22 01:53,-116.0056,39.6014,1993.00,84.00,46.00,26.52,40.00,7.00,0.00,30.19,1013.30,M,M,M,M,M,M,M,M,M,M,M,M,M,M,M,M,M,81.69,KP68 220153Z AUTO 04007KT 29/08 A3019 RMK AO1 SLP133 T02890078,M
DRA,2024-07-22 01:53,-116.0278,36.6206,1009.00,105.00,42.00,11.90,210.00,8.00,0.00,29.88,1005.70,10.00,17.00,CLR,M,M,M,M,M,M,M,M,M,M,M,M,M,M,100.10,KDRA 220153Z AUTO 21008G17KT 10SM CLR 41/06 A2988 RMK AO2 SLP057 T04060056,M
ELY,2024-07-22 01:53,-114.8453,39.2950,1909.00,83.00,43.00,24.44,270.00,10.00,0.00,30.22,1013.10,10.00,M,CLR,M,M,M,M,M,M,M,M,M,M,M,M,M,M,80.79,KELY 220153Z AUTO 27010KT 10SM CLR 28/06 A3022 RMK AO2 SLP131 T02830061 $,M
VGT,2024-07-22 01:53,-115.1933,36.2111,667.00,111.00,47.00,12.08,180.00,7.00,0.00,29.77,1006.10,10.00,M,CLR,M,M,M,M,M,M,M,M,M,M,M,M,M,M,107.04,KVGT 220153Z 18007KT 10SM CLR 44/08 A2977 RMK AO2 SLP061 T04390083,M
LOL,2024-07-22 01:53,-118.5701,40.0684,1192.43,96.00,48.00,19.61,130.00,4.00,0.00,29.94,1009.00,10.00,M,CLR,M,M,M,M,M,M,M,M,M,M,M,M,M,M,92.52,KLOL 220153Z AUTO 13004KT 10SM CLR 36/09 A2994 RMK AO2 LTG DSNT SW AND W SLP090 T03560089,M
NFL,2024-07-22 01:54,-118.7010,39.4166,1199.00,93.00,49.00,22.34,160.00,21.00,0.00,30.02,1013.60,9.00,31.00,CLR,M,M,M,M,M,M,M,M,M,M,M,31.00,160.00,2024-07-22 01:52,89.73,KNFL 220154Z AUTO 16021G31KT 9SM CLR 34/09 A3002 RMK AO2 PK WND 16031/0152 WSHFT 0130 SLP136 T03390094,M
BVU,2024-07-22 01:55,-114.8611,35.9475,671.00,109.40,44.60,11.55,0.00,0.00,0.00,29.77,M,10.00,M,CLR,M,M,M,M,M,M,M,M,M,M,M,M,M,M,104.78,KBVU 220155Z AUTO 00000KT 10SM CLR 43/07 A2977 RMK AO2,M
CXP,2024-07-22 01:55,-119.7326,39.1923,1431.00,87.80,50.00,27.29,30.00,5.00,0.00,30.10,M,10.00,M,FEW,M,M,M,10000.00,M,M,M,M,M,M,M,M,M,M,85.11,KCXP 220155Z AUTO 03005KT 10SM FEW100 31/10 A3010 RMK AO2 LTG DSNT N AND NE,M
RNO,2024-07-22 01:55,-119.7711,39.4839,1341.00,88.00,53.00,30.30,110.00,7.00,T,30.06,1011.40,10.00,M,BKN,M,M,M,11000.00,M,M,M,M,M,M,M,M,M,M,85.78,KRNO 220155Z 11007KT 10SM BKN110 31/12 A3006 RMK AO2 RAB0057E06 TSE09E48 SLP114 CB DSNT NE P0000 T03110117,M
RTS,2024-07-22 01:55,-119.8764,39.6682,1539.00,91.40,42.80,18.56,160.00,11.00,0.00,30.12,M,10.00,18.00,SCT,M,M,M,12000.00,M,M,M,M,M,M,M,M,M,M,87.52,KRTS 220155Z AUTO 16011G18KT 10SM SCT120 33/06 A3012 RMK AO2,M
MEV,2024-07-22 01:55,-119.7500,38.9963,1441.42,82.40,51.80,34.69,150.00,9.00,0.00,30.10,M,10.00,M,CLR,M,M,M,M,M,M,M,M,M,M,M,M,M,M,81.20,KMEV 220155Z AUTO 15009KT 10SM CLR 28/11 A3010 RMK AO2,M
BAM,2024-07-22 01:55,-116.8743,40.5990,1382.36,96.80,41.00,14.66,120.00,4.00,0.00,30.03,M,10.00,M,CLR,M,M,M,M,M,M,M,M,M,M,M,M,M,M,92.39,KBAM 220155Z AUTO 12004KT 10SM CLR 36/05 A3003 RMK AO1,M
HTH,2024-07-22 01:55,-118.6315,38.5448,1282.89,89.60,44.60,21.04,260.00,8.00,0.00,30.04,M,10.00,M,CLR,M,M,M,M,M,M,M,M,M,M,M,M,M,M,86.07,KHTH 220155Z AUTO 26008KT 10SM CLR 32/07 A3004 RMK A01,M
10U,2024-07-22 01:55,-116.1876,41.9532,1637.00,82.40,44.60,26.49,10.00,5.00,0.00,30.15,M,10.00,10.00,CLR,M,M,M,M,M,M,M,M,M,M,M,M,M,M,80.50,K10U 220155Z AUTO 01005G10KT 10SM CLR 28/07 A3015 RMK AO2,M
TMT,2024-07-22 01:55,-117.1971,39.4643,1749.34,85.00,43.00,22.91,110.00,6.00,0.00,30.16,M,10.00,M,CLR,M,M,M,M,M,M,M,M,M,M,M,M,M,M,82.21,KTMT 220155Z AUTO 11006KT 10SM CLR 30/06 A3016 RMK AO2 T02950062,M
INS,2024-07-22 01:55,-115.6733,36.5872,955.00,106.00,32.50,7.95,290.00,10.00,0.00,29.86,1004.70,10.00,M,CLR,M,M,M,M,M,M,M,M,M,M,M,M,M,M,99.07,KINS 220155Z AUTO 29010KT 10SM CLR 41/00 A2986 RMK AO2 SLP047 T04110003 $,M
LSV,2024-07-22 01:55,-115.0343,36.2362,570.00,110.70,39.00,8.96,220.00,4.00,0.00,29.71,1002.50,10.00,M,FEW,M,M,M,22000.00,M,M,M,M,M,M,M,M,M,M,104.47,KLSV 220155Z AUTO 22004KT 10SM FEW220 44/04 A2971 RMK AO2 SLP025 T04370038 $,M
EKO,2024-07-22 01:56,-115.7860,40.8242,1367.00,91.00,40.00,16.87,170.00,11.00,0.00,30.09,1012.20,10.00,24.00,CLR,M,M,M,M,M,M,M,M,M,M,M,35.00,210.00,2024-07-22 01:19,86.99,KEKO 220156Z AUTO 17011G24KT 10SM CLR 33/04 A3009 RMK AO2 PK WND 21035/0119 SLP122 T03280044,M
WMC,2024-07-22 01:56,-117.8072,40.9019,1315.00,96.00,43.00,16.22,20.00,5.00,0.00,29.99,1009.00,10.00,M,CLR,M,M,M,M,M,M,M,M,M,M,M,M,M,M,91.83,KWMC 220156Z AUTO 02005KT 10SM CLR 36/06 A2999 RMK AO2 SLP090 T03560061,M
HND,2024-07-22 01:56,-115.1344,35.9729,742.79,109.00,49.00,13.80,310.00,4.00,0.00,29.83,1007.70,10.00,M,CLR,M,M,M,M,M,M,M,M,M,M,M,M,M,M,105.85,KHND 220156Z 31004KT 10SM CLR 43/09 A2983 RMK AO2 SLP077 T04280094,M
TPH,2024-07-22 01:56,-117.0904,38.0505,1654.00,83.00,50.00,31.83,70.00,10.00,T,30.13,1011.70,10.00,16.00,SCT,M,M,M,12000.00,M,M,M,M,M,M,M,36.00,70.00,2024-07-22 00:57,81.39,KTPH 220156Z AUTO 07010G16KT 10SM SCT120 28/10 A3013 RMK AO2 PK WND 07036/0057 LTG DSNT SW RAE14 SLP117 P0000 T02830100,M
LAS,2024-07-22 01:56,-115.1634,36.0719,663.00,111.00,46.00,11.63,150.00,4.00,0.00,29.78,1001.40,10.00,M,FEW,SCT,M,M,12000.00,16000.00,M,M,M,M,M,M,M,M,M,106.70,KLAS 220156Z 15004KT 10SM FEW120 SCT160 44/08 A2978 RMK AO2 SLP014 CB DSNT N T04390078 $,M
EKO,2024-07-22 02:05,-115.7860,40.8242,1367.00,90.00,42.00,18.81,180.00,12.00,0.00,30.09,M,10.00,25.00,CLR,M,M,M,M,M,M,M,M,M,M,M,M,M,M,86.22,KEKO 220205Z AUTO 18012G25KT 10SM CLR 32/06 A3009 RMK AO2 WSHFT 0145 T03220056,M
05U,2024-07-22 02:10,-116.0051,39.6042,1811.23,84.20,44.60,24.99,0.00,0.00,0.00,30.21,M,10.00,M,CLR,M,M,M,M,M,M,M,M,M,M,M,M,M,M,81.73,K05U 220210Z AUTO 00000KT 10SM CLR 29/07 A3021 RMK A01,M
BVU,2024-07-22 02:15,-114.8611,35.9475,671.00,109.40,44.60,11.55,180.00,8.00,0.00,29.77,M,10.00,M,CLR,M,M,M,M,M,M,M,M,M,M,M,M,M,M,104.78,KBVU 220215Z AUTO 18008KT 10SM CLR 43/07 A2977 RMK AO2,M
CXP,2024-07-22 02:15,-119.7326,39.1923,1431.00,89.60,50.00,25.79,M,5.00,0.00,30.11,M,10.00,M,CLR,M,M,M,M,M,M,M,VCTS,M,M,M,M,M,M,86.70,KCXP 220215Z AUTO VRB05KT 10SM VCTS CLR 32/10 A3011 RMK AO2 LTG DSNT N-SE,M
RTS,2024-07-22 02:15,-119.8764,39.6682,1539.00,89.60,46.40,22.53,150.00,13.00,0.00,30.12,M,10.00,M,FEW,M,M,M,12000.00,M,M,M,M,M,M,M,M,M,M,86.24,KRTS 220215Z AUTO 15013KT 10SM FEW120 32/08 A3012 RMK AO2,M
MEV,2024-07-22 02:15,-119.7500,38.9963,1441.42,82.40,51.80,34.69,140.00,6.00,0.00,30.10,M,10.00,M,CLR,M,M,M,M,M,M,M,M,M,M,M,M,M,M,81.20,KMEV 220215Z AUTO 14006KT 10SM CLR 28/11 A3010 RMK AO2 LTG DSNT NE AND S,M
BAM,2024-07-22 02:15,-116.8743,40.5990,1382.36,95.00,42.80,16.60,140.00,5.00,0.00,30.04,M,10.00,M,CLR,M,M,M,M,M,M,M,M,M,M,M,M,M,M,90.86,KBAM 220215Z AUTO 14005KT 10SM CLR 35/06 A3004 RMK AO1,M
HTH,2024-07-22 02:15,-118.6315,38.5448,1282.89,89.60,44.60,21.04,230.00,8.00,0.00,30.04,M,10.00,14.00,FEW,M,M,M,11000.00,M,M,M,M,M,M,M,M,M,M,86.07,KHTH 220215Z AUTO 23008G14KT 10SM FEW110 32/07 A3004 RMK A01,M
10U,2024-07-22 02:15,-116.1876,41.9532,1637.00,82.40,44.60,26.49,350.00,7.00,0.00,30.15,M,10.00,M,CLR,M,M,M,M,M,M,M,M,M,M,M,M,M,M,80.50,K10U 220215Z AUTO 35007KT 10SM CLR 28/07 A3015 RMK AO2,M
TMT,2024-07-22 02:15,-117.1971,39.4643,1749.34,83.00,44.00,25.39,0.00,0.00,0.00,30.16,M,10.00,M,CLR,M,M,M,M,M,M,M,M,M,M,M,M,M,M,80.86,KTMT 220215Z AUTO 00000KT 10SM CLR 28/07 A3016 RMK AO2 T02830066,M
LOL,2024-07-22 02:22,-118.5701,40.0684,1192.43,95.00,45.00,18.06,190.00,16.00,0.00,29.96,M,10.00,24.00,FEW,M,M,M,12000.00,M,M,M,VCTS,M,M,M,27.00,120.00,2024-07-22 02:11,91.10,KLOL 220222Z AUTO 19016G24KT 10SM VCTS FEW120 35/07 A2996 RMK AO2 PK WND 12027/0211 LTG DSNT SW AND W T03500072,M
BVU,2024-07-22 02:35,-114.8611,35.9475,671.00,107.60,44.60,12.18,170.00,9.00,0.00,29.77,M,10.00,M,CLR,M,M,M,M,M,M,M,M,M,M,M,M,M,M,103.15,KBVU 220235Z AUTO 17009KT 10SM CLR 42/07 A2977 RMK AO2,M
CXP,2024-07-22 02:35,-119.7326,39.1923,1431.00,87.80,50.00,27.29,0.00,0.00,0.00,30.12,M,10.00,11.00,FEW,M,M,M,11000.00,M,M,M,M,M,M,M,M,M,M,85.11,KCXP 220235Z AUTO 00000G11KT 10SM FEW110 31/10 A3012 RMK AO2 LTG DSNT NE AND E,M
RTS,2024-07-22 02:35,-119.8764,39.6682,1539.00,87.80,44.60,22.27,160.00,13.00,0.00,30.13,M,10.00,19.00,FEW,M,M,M,12000.00,M,M,M,M,M,M,M,M,M,M,84.53,KRTS 220235Z AUTO 16013G19KT 10SM FEW120 31/07 A3013 RMK AO2,M
05U,2024-07-22 02:35,-116.0051,39.6042,1811.23,82.40,48.20,30.35,310.00,3.00,0.00,30.21,M,10.00,M,CLR,M,M,M,M,M,M,M,M,M,M,M,M,M,M,80.80,K05U 220235Z AUTO 31003KT 10SM CLR 28/09 A3021 RMK A01,M
MEV,2024-07-22 02:35,-119.7500,38.9963,1441.42,82.40,50.00,32.46,210.00,4.00,0.00,30.11,M,10.00,M,CLR,M,M,M,M,M,M,M,M,M,M,M,M,M,M,80.99,KMEV 220235Z AUTO 21004KT 10SM CLR 28/10 A3011 RMK AO2 LTG DSNT NE,M
BAM,2024-07-22 02:35,-116.8743,40.5990,1382.36,91.40,44.60,19.89,210.00,3.00,0.00,30.04,M,10.00,M,CLR,M,M,M,M,M,M,M,M,M,M,M,M,M,M,87.68,KBAM 220235Z AUTO 21003KT 10SM CLR 33/07 A3004 RMK AO1,M
HTH,2024-07-22 02:35,-118.6315,38.5448,1282.89,87.80,44.60,22.27,290.00,17.00,0.00,30.05,M,10.00,24.00,FEW,SCT,M,M,7500.00,12000.00,M,M,M,M,M,M,M,M,M,84.53,KHTH 220235Z AUTO 29017G24KT 10SM FEW075 SCT120 31/07 A3005 RMK A01,M
10U,2024-07-22 02:35,-116.1876,41.9532,1637.00,80.60,46.40,30.07,40.00,5.00,0.00,30.15,M,10.00,M,CLR,M,M,M,M,M,M,M,M,M,M,M,M,M,M,79.56,K10U 220235Z AUTO 04005KT 10SM CLR 27/08 A3015 RMK AO2,M
TMT,2024-07-22 02:35,-117.1971,39.4643,1749.34,81.00,43.70,26.78,90.00,4.00,0.00,30.16,M,10.00,M,CLR,M,M,M,M,M,M,M,M,M,M,M,M,M,M,79.59,KTMT 220235Z AUTO 09004KT 10SM CLR 27/07 A3016 RMK AO2 T02720065,M
LOL,2024-07-22 02:37,-118.5701,40.0684,1192.43,92.00,46.00,20.58,240.00,14.00,T,29.99,M,10.00,25.00,FEW,BKN,BKN,M,8000.00,9500.00,12000.00,M,-RA,M,M,M,27.00,120.00,2024-07-22 02:11,88.38,KLOL 220237Z AUTO 24014G25KT 10SM -RA FEW080 BKN095 BKN120 33/08 A2999 RMK AO2 PK WND 12027/0211 LTG DSNT SW RAB31 PRESRR P0000 T03330078,M
05U,2024-07-22 02:50,-116.0051,39.6042,1811.23,78.80,46.40,31.90,0.00,0.00,0.00,30.21,M,10.00,M,CLR,M,M,M,M,M,M,M,M,M,M,M,M,M,M,78.80,K05U 220250Z AUTO 00000KT 10SM CLR 26/08 A3021 RMK A01,M
P68,2024-07-22 02:53,-116.0056,39.6014,1993.00,78.00,46.00,32.26,290.00,4.00,0.00,30.18,1012.80,M,M,M,M,M,M,M,M,M,M,M,M,M,M,M,M,M,78.00,KP68 220253Z AUTO 29004KT 26/08 A3018 RMK AO1 SLP128 T02560078 56014,M
DRA,2024-07-22 02:53,-116.0278,36.6206,1009.00,101.00,42.00,13.41,230.00,10.00,0.00,29.89,1005.80,10.00,M,CLR,M,M,M,M,M,M,M,M,M,M,M,M,M,M,96.50,KDRA 220253Z AUTO 23010KT 10SM CLR 38/06 A2989 RMK AO2 SLP058 T03830056 55002,M
ELY,2024-07-22 02:53,-114.8453,39.2950,1909.00,80.00,42.00,25.93,300.00,4.00,0.00,30.22,1012.30,10.00,M,CLR,M,M,M,M,M,M,M,M,M,M,M,M,M,M,78.92,KELY 220253Z AUTO 30004KT 10SM CLR 27/06 A3022 RMK AO2 SLP123 T02670056 56006 $,M
VGT,2024-07-22 02:53,-115.1933,36.2111,667.00,109.00,47.00,12.80,180.00,5.00,0.00,29.78,1006.30,10.00,M,CLR,M,M,M,M,M,M,M,M,M,M,M,M,M,M,105.20,KVGT 220253Z 18005KT 10SM CLR 43/08 A2978 RMK AO2 SLP063 T04280083 55004,M
LOL,2024-07-22 02:53,-118.5701,40.0684,1192.43,86.00,51.00,30.00,140.00,9.00,0.03,30.00,1011.10,3.00,31.00,FEW,BKN,OVC,M,5000.00,10000.00,11000.00,M,RA,M,M,M,31.00,200.00,2024-07-22 02:50,83.75,KLOL 220253Z AUTO 14009G31KT 070V300 3SM RA FEW050 BKN100 OVC110 30/11 A3000 RMK AO2 PK WND 20031/0250 LTG DSNT SW RAB31 SLP111 P0003 60003 T03000106 53017,M
NFL,2024-07-22 02:54,-118.7010,39.4166,1199.00,92.00,48.00,22.19,210.00,12.00,0.00,30.02,1013.60,10.00,21.00,CLR,M,M,M,M,M,M,M,M,M,M,M,33.00,170.00,2024-07-22 02:05,88.63,KNFL 220254Z AUTO 21012G21KT 10SM CLR 33/09 A3002 RMK AO2 PK WND 17033/0205 SLP136 T03330089 51019,M
BVU,2024-07-22 02:55,-114.8611,35.9475,671.00,105.80,46.40,13.75,160.00,9.00,0.00,29.78,M,10.00,M,CLR,M,M,M,M,M,M,M,M,M,M,M,M,M,M,101.97,KBVU 220255Z AUTO 16009KT 10SM CLR 41/08 A2978 RMK AO2,M
CXP,2024-07-22 02:55,-119.7326,39.1923,1431.00,86.00,50.00,28.90,0.00,0.00,0.00,30.13,M,10.00,M,BKN,M,M,M,11000.00,M,M,M,M,M,M,M,M,M,M,83.62,KCXP 220255Z AUTO 00000KT 10SM BKN110 30/10 A3013 RMK AO2,M
RNO,2024-07-22 02:55,-119.7711,39.4839,1341.00,87.00,51.00,29.06,M,3.00,0.00,30.07,1011.70,10.00,M,SCT,M,M,M,11000.00,M,M,M,M,M,M,M,M,M,M,84.58,KRNO 220255Z VRB03KT 10SM SCT110 31/11 A3007 RMK AO2 SLP117 VIRGA 60000 T03060106 51019,M
RTS,2024-07-22 02:55,-119.8764,39.6682,1539.00,84.20,44.60,24.99,170.00,10.00,0.00,30.14,M,10.00,M,FEW,M,M,M,12000.00,M,M,M,M,M,M,M,M,M,M,81.73,KRTS 220255Z AUTO 17010KT 10SM FEW120 29/07 A3014 RMK AO2,M
MEV,2024-07-22 02:55,-119.7500,38.9963,1441.42,82.40,48.20,30.35,200.00,10.00,0.00,30.11,M,3.00,M,CLR,M,M,M,M,M,M,M,HZ,M,M,M,M,M,M,80.80,KMEV 220255Z AUTO 20010KT 3SM HZ CLR 28/09 A3011 RMK AO2,M
BAM,2024-07-22 02:55,-116.8743,40.5990,1382.36,87.80,48.20,25.52,180.00,5.00,0.00,30.05,M,10.00,M,CLR,M,M,M,M,M,M,M,M,M,M,M,M,M,M,84.87,KBAM 220255Z AUTO 18005KT 10SM CLR 31/09 A3005 RMK AO1,M
HTH,2024-07-22 02:55,-118.6315,38.5448,1282.89,87.80,44.60,22.27,280.00,11.00,0.00,30.07,M,10.00,20.00,FEW,FEW,FEW,M,7500.00,9000.00,12000.00,M,M,M,M,M,M,M,M,84.53,KHTH 220255Z AUTO 28011G20KT 10SM FEW075 FEW090 FEW120 31/07 A3007 RMK A01,M
10U,2024-07-22 02:55,-116.1876,41.9532,1637.00,80.60,42.80,26.22,0.00,0.00,0.00,30.16,M,10.00,10.00,CLR,M,M,M,M,M,M,M,M,M,M,M,M,M,M,79.30,K10U 220255Z AUTO 00000G10KT 10SM CLR 27/06 A3016 RMK AO2,M
TMT,2024-07-22 02:55,-117.1971,39.4643,1749.34,81.50,43.00,25.65,0.00,0.00,0.00,30.17,M,10.00,M,CLR,M,M,M,M,M,M,M,M,M,M,M,M,M,M,79.84,KTMT 220255Z AUTO 00000KT 10SM CLR 28/06 A3017 RMK AO2 T02750062,M
INS,2024-07-22 02:55,-115.6733,36.5872,955.00,103.30,36.00,9.90,250.00,7.00,0.00,29.87,1004.80,10.00,M,BKN,M,M,M,14000.00,M,M,M,M,M,M,M,M,M,M,97.32,KINS 220255Z AUTO 25007KT 10SM BKN140 40/02 A2987 RMK AO2 SLP048 T03960023 55002 $,M
LSV,2024-07-22 02:55,-115.0343,36.2362,570.00,108.70,40.00,9.88,210.00,6.00,0.00,29.71,1002.50,10.00,M,CLR,M,M,M,M,M,M,M,M,M,M,M,M,M,M,102.89,KLSV 220255Z AUTO 21006KT 10SM CLR 43/05 A2971 RMK AO2 SLP025 T04260045 55003 $,M
EKO,2024-07-22 02:56,-115.7860,40.8242,1367.00,87.00,43.00,21.49,160.00,9.00,0.00,30.10,1012.60,10.00,M,CLR,M,M,M,M,M,M,M,M,M,M,M,M,M,M,83.76,KEKO 220256Z AUTO 16009KT 10SM CLR 31/06 A3010 RMK AO2 WSHFT 0145 SLP126 T03060061 53004,M
WMC,2024-07-22 02:56,-117.8072,40.9019,1315.00,92.00,42.00,17.67,250.00,4.00,0.00,30.02,1010.00,10.00,M,CLR,M,M,M,M,M,M,M,M,M,M,M,M,M,M,88.01,KWMC 220256Z AUTO 25004KT 10SM CLR 33/06 A3002 RMK AO2 SLP100 T03330056 53005,M
HND,2024-07-22 02:56,-115.1344,35.9729,742.79,106.00,49.00,15.07,170.00,7.00,0.00,29.84,1007.90,10.00,M,CLR,M,M,M,M,M,M,M,M,M,M,M,M,M,M,102.88,KHND 220256Z 17007KT 10SM CLR 41/09 A2984 RMK AO2 SLP079 T04110094 55001,M
TPH,2024-07-22 02:56,-117.0904,38.0505,1654.00,82.00,49.00,31.68,310.00,7.00,T,30.16,1012.10,10.00,M,FEW,FEW,SCT,M,5500.00,9000.00,11000.00,M,M,M,M,M,M,M,M,80.62,KTPH 220256Z AUTO 31007KT 10SM FEW055 FEW090 SCT110 28/09 A3016 RMK AO2 RAB29E54 SLP121 P0000 60009 T02780094 53020,M
LAS,2024-07-22 02:56,-115.1634,36.0719,663.00,110.00,46.00,11.97,0.00,0.00,0.00,29.78,1001.30,10.00,M,FEW,M,M,M,12000.00,M,M,M,M,M,M,M,M,M,M,105.77,KLAS 220256Z 00000KT 10SM FEW120 43/08 A2978 RMK AO2 SLP013 SH DSNT W T04330078 56003 $,M
05U,2024-07-22 03:10,-116.0051,39.6042,1811.23,77.00,44.60,31.62,0.00,0.00,0.00,30.21,M,10.00,M,CLR,M,M,M,M,M,M,M,M,M,M,M,M,M,M,77.00,K05U 220310Z AUTO 00000KT 10SM CLR 25/07 A3021 RMK A01,M
BVU,2024-07-22 03:15,-114.8611,35.9475,671.00,105.80,44.60,12.84,170.00,9.00,0.00,29.78,M,10.00,M,CLR,M,M,M,M,M,M,M,M,M,M,M,M,M,M,101.53,KBVU 220315Z AUTO 17009KT 10SM CLR 41/07 A2978 RMK AO2,M
CXP,2024-07-22 03:15,-119.7326,39.1923,1431.00,86.00,50.00,28.90,0.00,0.00,0.00,30.13,M,10.00,M,FEW,M,M,M,12000.00,M,M,M,M,M,M,M,M,M,M,83.62,KCXP 220315Z AUTO 00000KT 10SM FEW120 30/10 A3013 RMK AO2,M
RTS,2024-07-22 03:15,-119.8764,39.6682,1539.00,84.20,46.40,26.76,100.00,8.00,0.00,30.15,M,10.00,M,CLR,M,M,M,M,M,M,M,M,M,M,M,M,M,M,81.87,KRTS 220315Z AUTO 10008KT 10SM CLR 29/08 A3015 RMK AO2,M
MEV,2024-07-22 03:15,-119.7500,38.9963,1441.42,80.60,50.00,34.41,190.00,7.00,0.00,30.12,M,10.00,M,FEW,M,M,M,11000.00,M,M,M,M,M,M,M,M,M,M,79.88,KMEV 220315Z AUTO 19007KT 10SM FEW110 27/10 A3012 RMK AO2,M
HTH,2024-07-22 03:15,-118.6315,38.5448,1282.89,87.80,44.60,22.27,290.00,12.00,0.00,30.08,M,10.00,M,CLR,M,M,M,M,M,M,M,M,M,M,M,M,M,M,84.53,KHTH 220315Z AUTO 29012KT 250V350 10SM CLR 31/07 A3008 RMK A01,M
10U,2024-07-22 03:15,-116.1876,41.9532,1637.00,80.60,44.60,28.08,20.00,5.00,0.00,30.16,M,10.00,M,FEW,FEW,M,M,10000.00,12000.00,M,M,M,M,M,M,M,M,M,79.42,K10U 220315Z AUTO 02005KT 10SM FEW100 FEW120 27/07 A3016 RMK AO2,M
BAM,2024-07-22 03:15,-116.8743,40.5990,1382.36,87.80,46.40,23.85,180.00,5.00,0.00,30.05,M,10.00,M,CLR,M,M,M,M,M,M,M,M,M,M,M,M,M,M,84.68,KBAM 220315Z AUTO 18005KT 10SM CLR 31/08 A3005 RMK AO1,M
TMT,2024-07-22 03:15,-117.1971,39.4643,1749.34,79.00,42.80,27.63,120.00,6.00,0.00,30.18,M,10.00,M,CLR,M,M,M,M,M,M,M,M,M,M,M,M,M,M,79.00,KTMT 220315Z AUTO 12006KT 10SM CLR 26/06 A3018 RMK AO2 T02610060,M
05U,2024-07-22 03:30,-116.0051,39.6042,1811.23,73.40,46.40,38.18,0.00,0.00,0.00,30.21,M,10.00,M,CLR,M,M,M,M,M,M,M,M,M,M,M,M,M,M,73.40,K05U 220330Z AUTO 00000KT 10SM CLR 23/08 A3021 RMK A01,M
BVU,2024-07-22 03:35,-114.8611,35.9475,671.00,104.00,46.40,14.50,170.00,5.00,0.00,29.79,M,10.00,M,CLR,M,M,M,M,M,M,M,M,M,M,M,M,M,M,100.21,KBVU 220335Z AUTO 17005KT 10SM CLR 40/08 A2979 RMK AO2,M
CXP,2024-07-22 03:35,-119.7326,39.1923,1431.00,84.20,48.20,28.63,180.00,4.00,0.00,30.14,M,10.00,M,CLR,M,M,M,M,M,M,M,M,M,M,M,M,M,M,82.04,KCXP 220335Z AUTO 18004KT 10SM CLR 29/09 A3014 RMK AO2,M
RTS,2024-07-22 03:35,-119.8764,39.6682,1539.00,82.40,46.40,28.36,160.00,6.00,0.00,30.16,M,10.00,M,CLR,M,M,M,M,M,M,M,M,M,M,M,M,M,M,80.64,KRTS 220335Z AUTO 16006KT 10SM CLR 28/08 A3016 RMK AO2,M
MEV,2024-07-22 03:35,-119.7500,38.9963,1441.42,78.80,48.20,34.13,190.00,5.00,0.00,30.12,M,10.00,M,CLR,M,M,M,M,M,M,M,M,M,M,M,M,M,M,78.80,KMEV 220335Z AUTO 19005KT 10SM CLR 26/09 A3012 RMK AO2,M
HTH,2024-07-22 03:35,-118.6315,38.5448,1282.89,87.80,44.60,22.27,M,6.00,0.00,30.07,M,10.00,14.00,CLR,M,M,M,M,M,M,M,M,M,M,M,M,M,M,84.53,KHTH 220335Z AUTO VRB06G14KT 270V340 10SM CLR 31/07 A3007 RMK A01,M
10U,2024-07-22 03:35,-116.1876,41.9532,1637.00,78.80,42.80,27.81,0.00,0.00,0.00,30.16,M,10.00,M,FEW,FEW,M,M,9500.00,12000.00,M,M,M,M,M,M,M,M,M,78.80,K10U 220335Z AUTO 00000KT 10SM FEW095 FEW120 26/06 A3016 RMK AO2,M
BAM,2024-07-22 03:35,-116.8743,40.5990,1382.36,84.20,44.60,24.99,150.00,4.00,0.00,30.06,M,10.00,M,CLR,M,M,M,M,M,M,M,M,M,M,M,M,M,M,81.73,KBAM 220335Z AUTO 15004KT 10SM CLR 29/07 A3006 RMK AO1,M
TMT,2024-07-22 03:35,-117.1971,39.4643,1749.34,78.40,43.30,28.72,230.00,3.00,0.00,30.18,M,10.00,M,CLR,M,M,M,M,M,M,M,M,M,M,M,M,M,M,78.40,KTMT 220335Z AUTO 23003KT 10SM CLR 26/06 A3018 RMK AO2 T02580063,M
05U,2024-07-22 03:50,-116.0051,39.6042,1811.23,73.40,46.40,38.18,0.00,0.00,0.00,30.21,M,10.00,M,CLR,M,M,M,M,M,M,M,M,M,M,M,M,M,M,73.40,K05U 220350Z AUTO 00000KT 10SM CLR 23/08 A3021 RMK A01,M
P68,2024-07-22 03:53,-116.0056,39.6014,1993.00,72.00,46.00,39.42,180.00,6.00,0.00,30.19,1013.10,M,M,M,M,M,M,M,M,M,M,M,M,M,M,M,M,M,72.00,KP68 220353Z AUTO 18006KT 22/08 A3019 RMK AO1 SLP131 T02220078,M
DRA,2024-07-22 03:53,-116.0278,36.6206,1009.00,97.00,43.00,15.73,240.00,5.00,0.00,29.90,1006.10,10.00,M,CLR,M,M,M,M,M,M,M,M,M,M,M,M,M,M,92.79,KDRA 220353Z AUTO 24005KT 10SM CLR 36/06 A2990 RMK AO2 SLP061 T03610061,M
ELY,2024-07-22 03:53,-114.8453,39.2950,1909.00,75.00,43.00,31.79,0.00,0.00,0.00,30.24,1012.50,10.00,M,CLR,M,M,M,M,M,M,M,M,M,M,M,M,M,M,75.00,KELY 220353Z AUTO 00000KT 10SM CLR 24/06 A3024 RMK AO2 SLP125 T02390061 $,M
VGT,2024-07-22 03:53,-115.1933,36.2111,667.00,107.00,48.00,14.09,170.00,6.00,0.00,29.80,1007.00,10.00,M,CLR,M,M,M,M,M,M,M,M,M,M,M,M,M,M,103.58,KVGT 220353Z AUTO 17006KT 10SM CLR 42/09 A2980 RMK AO2 SLP070 T04170089,M
LOL,2024-07-22 03:53,-118.5701,40.0684,1192.43,90.00,48.00,23.63,M,5.00,0.01,29.99,1010.00,10.00,16.00,CLR,M,M,M,M,M,M,M,M,M,M,M,M,M,M,86.78,KLOL 220353Z AUTO VRB05G16KT 10SM CLR 32/09 A2999 RMK AO2 RAE14 SLP100 P0001 T03220089,M
NFL,2024-07-22 03:54,-118.7010,39.4166,1199.00,88.00,48.00,25.17,250.00,9.00,0.00,30.03,1013.90,10.00,M,CLR,M,M,M,M,M,M,M,M,M,M,M,M,M,M,85.02,KNFL 220354Z AUTO 25009KT 10SM CLR 31/09 A3003 RMK AO2 SLP139 T03110089,M
BVU,2024-07-22 03:55,-114.8611,35.9475,671.00,104.00,46.40,14.50,160.00,5.00,0.00,29.80,M,10.00,M,CLR,M,M,M,M,M,M,M,M,M,M,M,M,M,M,100.21,KBVU 220355Z AUTO 16005KT 10SM CLR 40/08 A2980 RMK AO2,M
CXP,2024-07-22 03:55,-119.7326,39.1923,1431.00,82.40,48.20,30.35,0.00,0.00,0.00,30.14,M,10.00,M,CLR,M,M,M,M,M,M,M,M,M,M,M,M,M,M,80.80,KCXP 220355Z AUTO 00000KT 10SM CLR 28/09 A3014 RMK AO2,M
RNO,2024-07-22 03:55,-119.7711,39.4839,1341.00,84.00,58.00,41.29,0.00,0.00,T,30.10,1012.60,10.00,M,BKN,M,M,M,10000.00,M,M,M,-RA,M,M,M,M,M,M,83.50,KRNO 220355Z 00000KT 10SM -RA BKN100 29/14 A3010 RMK AO2 SLP126 RAB49 P0000 T02890144,M
RTS,2024-07-22 03:55,-119.8764,39.6682,1539.00,82.40,44.60,26.49,130.00,6.00,0.00,30.16,M,10.00,M,FEW,M,M,M,12000.00,M,M,M,M,M,M,M,M,M,M,80.50,KRTS 220355Z AUTO 13006KT 10SM FEW120 28/07 A3016 RMK AO2,M
MEV,2024-07-22 03:55,-119.7500,38.9963,1441.42,77.00,48.20,36.22,0.00,0.00,0.00,30.13,M,10.00,M,CLR,M,M,M,M,M,M,M,M,M,M,M,M,M,M,77.00,KMEV 220355Z AUTO 00000KT 10SM CLR 25/09 A3013 RMK AO2,M
BAM,2024-07-22 03:55,-116.8743,40.5990,1382.36,82.40,42.80,24.72,110.00,7.00,0.00,30.07,M,10.00,M,CLR,M,M,M,M,M,M,M,M,M,M,M,M,M,M,80.39,KBAM 220355Z AUTO 11007KT 10SM CLR 28/06 A3007 RMK AO1,M
HTH,2024-07-22 03:55,-118.6315,38.5448,1282.89,86.00,46.40,25.26,20.00,9.00,0.00,30.07,M,10.00,M,FEW,SCT,BKN,M,5000.00,6500.00,9000.00,M,M,M,M,M,M,M,M,83.22,KHTH 220355Z AUTO 02009KT 10SM FEW050 SCT065 BKN090 30/08 A3007 RMK A01,M
10U,2024-07-22 03:55,-116.1876,41.9532,1637.00,77.00,42.80,29.51,70.00,4.00,0.00,30.17,M,10.00,M,FEW,M,M,M,12000.00,M,M,M,M,M,M,M,M,M,M,77.00,K10U 220355Z AUTO 07004KT 10SM FEW120 25/06 A3017 RMK AO2,M
TMT,2024-07-22 03:55,-117.1971,39.4643,1749.34,76.00,46.20,34.73,280.00,8.00,0.00,30.21,M,10.00,M,CLR,M,M,M,M,M,M,M,M,M,M,M,M,M,M,76.00,KTMT 220355Z AUTO 28008KT 10SM CLR 25/08 A3021 RMK AO2 T02450079,M
INS,2024-07-22 03:55,-115.6733,36.5872,955.00,102.00,37.40,10.88,150.00,3.00,0.00,29.89,1005.50,10.00,M,BKN,M,M,M,14000.00,M,M,M,M,M,M,M,M,M,M,96.45,KINS 220355Z AUTO 15003KT 10SM BKN140 39/03 A2989 RMK AO2 SLP055 T03880030 $,M
LSV,2024-07-22 03:55,-115.0343,36.2362,570.00,104.40,45.70,13.95,50.00,21.00,0.00,29.75,1003.90,10.00,30.00,BKN,BKN,M,M,15000.00,18000.00,M,M,M,M,M,M,32.00,50.00,2024-07-22 03:51,100.44,KLSV 220355Z AUTO 05021G30KT 10SM BKN150 BKN180 40/08 A2975 RMK AO2 PK WND 05032/51 SLP039 T04020076 $,M
EKO,2024-07-22 03:56,-115.7860,40.8242,1367.00,83.00,45.00,26.37,0.00,0.00,0.00,30.12,1012.90,10.00,M,CLR,M,M,M,M,M,M,M,M,M,M,M,M,M,M,80.93,KEKO 220356Z AUTO 00000KT 10SM CLR 28/07 A3012 RMK AO2 SLP129 T02830072,M
WMC,2024-07-22 03:56,-117.8072,40.9019,1315.00,88.00,44.00,21.63,80.00,11.00,0.00,30.04,1010.70,10.00,M,CLR,M,M,M,M,M,M,M,M,M,M,M,M,M,M,84.65,KWMC 220356Z AUTO 08011KT 10SM CLR 31/07 A3004 RMK AO2 SLP107 T03110067,M
HND,2024-07-22 03:56,-115.1344,35.9729,742.79,104.00,48.00,15.40,190.00,7.00,0.00,29.86,1008.50,10.00,M,CLR,M,M,M,M,M,M,M,M,M,M,M,M,M,M,100.60,KHND 220356Z AUTO 19007KT 10SM CLR 40/09 A2986 RMK AO2 SLP085 T04000089,M
TPH,2024-07-22 03:56,-117.0904,38.0505,1654.00,81.00,50.00,33.97,40.00,14.00,0.00,30.16,1011.80,10.00,M,BKN,M,M,M,11000.00,M,M,M,M,M,M,M,M,M,M,80.12,KTPH 220356Z AUTO 04014KT 10SM BKN110 27/10 A3016 RMK AO2 SLP118 T02720100,M
LAS,2024-07-22 03:56,-115.1634,36.0719,663.00,108.00,47.00,13.18,220.00,7.00,0.00,29.80,1002.00,10.00,M,FEW,M,M,M,12000.00,M,M,M,M,M,M,M,M,M,M,104.26,KLAS 220356Z 22007KT 10SM FEW120 42/08 A2980 RMK AO2 SLP020 SH DSNT W T04220083 $,M
LSV,2024-07-22 04:01,-115.0343,36.2362,570.00,104.00,48.20,15.52,70.00,20.00,0.00,29.75,1003.90,10.00,M,BKN,BKN,M,M,15000.00,17000.00,M,M,-DZ,M,M,M,M,M,M,100.65,KLSV 220401Z AUTO 07020KT 10SM -DZ BKN150 BKN170 40/09 A2975 RMK AO2 DZB01 SLP039 $,M
RNO,2024-07-22 04:05,-119.7711,39.4839,1341.00,84.00,58.00,41.29,30.00,4.00,0.01,30.10,M,10.00,M,SCT,M,M,M,11000.00,M,M,M,-TSRA,M,M,M,M,M,M,83.50,KRNO 220405Z 03004KT 10SM -TSRA SCT110CB 29/14 A3010 RMK AO2 TSB04 OCNL LTGICCG NE THRU E TS NE THRU E MOV NE P0001 T02890144,M
05U,2024-07-22 04:10,-116.0051,39.6042,1811.23,68.00,46.40,45.88,0.00,0.00,0.00,30.22,M,10.00,M,CLR,M,M,M,M,M,M,M,M,M,M,M,M,M,M,68.00,K05U 220410Z AUTO 00000KT 10SM CLR 20/08 A3022 RMK A01,M
LSV,2024-07-22 04:12,-115.0343,36.2362,570.00,100.40,50.00,18.48,60.00,22.00,0.00,29.74,1003.60,10.00,M,BKN,M,M,M,15000.00,M,M,M,M,M,M,M,M,M,M,97.42,KLSV 220412Z AUTO 06022KT 10SM BKN150 38/10 A2974 RMK AO2 DZB01E12 SLP036 $,M
LSV,2024-07-22 04:14,-115.0343,36.2362,570.00,102.20,50.00,17.51,50.00,24.00,0.00,29.75,1003.90,10.00,30.00,BKN,M,M,M,15000.00,M,M,M,-DZ,M,M,M,M,M,M,99.28,KLSV 220414Z AUTO 05024G30KT 10SM -DZ BKN150 39/10 A2975 RMK AO2 DZB01E12DZB14 SLP039 $,M
BVU,2024-07-22 04:15,-114.8611,35.9475,671.00,104.00,46.40,14.50,0.00,0.00,0.00,29.81,M,10.00,M,CLR,M,M,M,M,M,M,M,M,M,M,M,M,M,M,100.21,KBVU 220415Z AUTO 00000KT 10SM CLR 40/08 A2981 RMK AO2,M
CXP,2024-07-22 04:15,-119.7326,39.1923,1431.00,82.40,48.20,30.35,0.00,0.00,0.00,30.14,M,10.00,M,CLR,M,M,M,M,M,M,M,M,M,M,M,M,M,M,80.80,KCXP 220415Z AUTO 00000KT 10SM CLR 28/09 A3014 RMK AO2 LTG DSNT NE,M
RTS,2024-07-22 04:15,-119.8764,39.6682,1539.00,80.60,48.20,32.18,90.00,5.00,0.00,30.17,M,10.00,M,CLR,M,M,M,M,M,M,M,M,M,M,M,M,M,M,79.71,KRTS 220415Z AUTO 09005KT 10SM CLR 27/09 A3017 RMK AO2,M
MEV,2024-07-22 04:15,-119.7500,38.9963,1441.42,80.60,48.20,32.18,0.00,0.00,0.00,30.13,M,10.00,M,CLR,M,M,M,M,M,M,M,M,M,M,M,M,M,M,79.71,KMEV 220415Z AUTO 00000KT 10SM CLR 27/09 A3013 RMK AO2 LTG DSNT N AND NE,M
BAM,2024-07-22 04:15,-116.8743,40.5990,1382.36,80.60,44.60,28.08,130.00,7.00,0.00,30.07,M,10.00,M,CLR,M,M,M,M,M,M,M,M,M,M,M,M,M,M,79.42,KBAM 220415Z AUTO 13007KT 10SM CLR 27/07 A3007 RMK AO1,M
HTH,2024-07-22 04:15,-118.6315,38.5448,1282.89,86.00,48.20,27.03,M,4.00,0.00,30.07,M,10.00,M,FEW,SCT,BKN,M,4300.00,6000.00,11000.00,M,M,M,M,M,M,M,M,83.40,KHTH 220415Z AUTO VRB04KT 10SM FEW043 SCT060 BKN110 30/09 A3007 RMK A01,M
10U,2024-07-22 04:15,-116.1876,41.9532,1637.00,78.80,41.00,25.95,90.00,4.00,0.00,30.17,M,10.00,M,FEW,M,M,M,12000.00,M,M,M,M,M,M,M,M,M,M,78.80,K10U 220415Z AUTO 09004KT 10SM FEW120 26/05 A3017 RMK AO2,M
TMT,2024-07-22 04:15,-117.1971,39.4643,1749.34,78.00,46.00,32.26,260.00,6.00,0.00,30.22,M,10.00,M,BKN,M,M,M,12000.00,M,M,M,M,M,M,M,M,M,M,78.00,KTMT 220415Z AUTO 26006KT 10SM BKN120 26/08 A3022 RMK AO2 T02560077,M
RNO,2024-07-22 04:19,-119.7711,39.4839,1341.00,84.00,56.00,38.42,60.00,8.00,0.01,30.11,M,10.00,M,FEW,SCT,M,M,8000.00,11000.00,M,M,M,M,M,M,M,M,M,83.05,KRNO 220419Z COR 06008KT 10SM FEW080 SCT110 29/13 A3011 RMK AO2 RAE08 TSB04E18 TS DSNT NE THRU E P0001 T02890133,M
VGT,2024-07-22 04:23,-115.1933,36.2111,667.00,103.00,51.00,17.74,60.00,14.00,0.00,29.83,M,10.00,25.00,CLR,M,M,M,M,M,M,M,M,M,M,M,M,M,M,100.40,KVGT 220423Z AUTO 06014G25KT 10SM CLR 39/11 A2983 RMK AO2 WSHFT 0403 T03940106,M
LSV,2024-07-22 04:24,-115.0343,36.2362,570.00,100.40,50.00,18.48,50.00,21.00,0.00,29.75,1003.90,10.00,30.00,SCT,M,M,M,15000.00,M,M,M,M,M,M,M,M,M,M,97.42,KLSV 220424Z AUTO 05021G30KT 10SM SCT150 38/10 A2975 RMK AO2 DZB01E12DZB14E24 SLP039 $,M
05U,2024-07-22 04:30,-116.0051,39.6042,1811.23,66.20,46.40,48.83,0.00,0.00,0.00,30.23,M,10.00,M,CLR,M,M,M,M,M,M,M,M,M,M,M,M,M,M,66.20,K05U 220430Z AUTO 00000KT 10SM CLR 19/08 A3023 RMK A01,M
BVU,2024-07-22 04:35,-114.8611,35.9475,671.00,98.60,51.80,20.87,50.00,12.00,0.00,29.83,M,10.00,M,CLR,M,M,M,M,M,M,M,M,M,M,M,M,M,M,96.00,KBVU 220435Z AUTO 05012KT 10SM CLR 37/11 A2983 RMK AO2,M
CXP,2024-07-22 04:35,-119.7326,39.1923,1431.00,80.60,48.20,32.18,0.00,0.00,0.00,30.15,M,10.00,M,CLR,M,M,M,M,M,M,M,M,M,M,M,M,M,M,79.71,KCXP 220435Z AUTO 00000KT 10SM CLR 27/09 A3015 RMK AO2 LTG DSNT NE,M
RTS,2024-07-22 04:35,-119.8764,39.6682,1539.00,80.60,48.20,32.18,100.00,4.00,0.00,30.17,M,10.00,M,CLR,M,M,M,M,M,M,M,M,M,M,M,M,M,M,79.71,KRTS 220435Z AUTO 10004KT 10SM CLR 27/09 A3017 RMK AO2,M
MEV,2024-07-22 04:35,-119.7500,38.9963,1441.42,77.00,48.20,36.22,130.00,3.00,0.00,30.13,M,10.00,M,CLR,M,M,M,M,M,M,M,M,M,M,M,M,M,M,77.00,KMEV 220435Z AUTO 13003KT 10SM CLR 25/09 A3013 RMK AO2,M
BAM,2024-07-22 04:35,-116.8743,40.5990,1382.36,80.60,46.40,30.07,130.00,4.00,0.00,30.07,M,10.00,M,CLR,M,M,M,M,M,M,M,M,M,M,M,M,M,M,79.56,KBAM 220435Z AUTO 13004KT 10SM CLR 27/08 A3007 RMK AO1,M
HTH,2024-07-22 04:35,-118.6315,38.5448,1282.89,87.80,48.20,25.52,0.00,0.00,0.00,30.08,M,10.00,M,FEW,FEW,SCT,M,6000.00,7500.00,11000.00,M,M,M,M,M,M,M,M,84.87,KHTH 220435Z AUTO 00000KT 10SM FEW060 FEW075 SCT110 31/09 A3008 RMK A01,M
10U,2024-07-22 04:35,-116.1876,41.9532,1637.00,80.60,41.00,24.46,20.00,4.00,0.00,30.17,M,10.00,M,CLR,M,M,M,M,M,M,M,M,M,M,M,M,M,M,79.20,K10U 220435Z AUTO 02004KT 10SM CLR 27/05 A3017 RMK AO2,M
TMT,2024-07-22 04:35,-117.1971,39.4643,1749.34,77.00,46.20,33.60,220.00,4.00,0.00,30.24,M,10.00,M,SCT,M,M,M,12000.00,M,M,M,M,M,M,M,M,M,M,77.00,KTMT 220435Z AUTO 22004KT 10SM SCT120 25/08 A3024 RMK AO2 T02490079,M
LAS,2024-07-22 04:40,-115.1634,36.0719,663.00,105.00,50.00,16.11,60.00,9.00,0.00,29.80,M,10.00,M,SCT,M,M,M,12000.00,M,M,M,M,M,M,M,M,M,M,102.16,KLAS 220440Z 06009KT 10SM SCT120 41/10 A2980 RMK AO2 WSHFT 0420 T04060100 $,M
HND,2024-07-22 04:47,-115.1344,35.9729,742.79,102.20,51.80,18.72,60.00,11.00,0.00,29.88,M,10.00,17.00,CLR,M,M,M,M,M,M,M,VCTS,M,M,M,M,M,M,99.80,KHND 220447Z AUTO 06011G17KT 10SM VCTS CLR 39/11 A2988 RMK AO2 LTG DSNT NE TSB41,M
05U,2024-07-22 04:50,-116.0051,39.6042,1811.23,64.40,46.40,51.98,0.00,0.00,0.00,30.23,M,10.00,M,CLR,M,M,M,M,M,M,M,M,M,M,M,M,M,M,64.40,K05U 220450Z AUTO 00000KT 10SM CLR 18/08 A3023 RMK A01,M
P68,2024-07-22 04:53,-116.0056,39.6014,1993.00,65.00,46.00,50.14,70.00,5.00,0.00,30.21,1013.90,M,M,M,M,M,M,M,M,M,M,M,M,M,M,M,M,M,65.00,KP68 220453Z AUTO 07005KT 18/08 A3021 RMK AO1 SLP139 T01830078,M
DRA,2024-07-22 04:53,-116.0278,36.6206,1009.00,95.00,42.00,16.10,10.00,6.00,0.00,29.92,1006.70,10.00,M,CLR,M,M,M,M,M,M,M,M,M,M,M,M,M,M,90.79,KDRA 220453Z AUTO 01006KT 10SM CLR 35/06 A2992 RMK AO2 SLP067 T03500056,M
ELY,2024-07-22 04:53,-114.8453,39.2950,1909.00,71.00,45.00,39.27,160.00,7.00,0.00,30.23,1012.20,10.00,M,CLR,M,M,M,M,M,M,M,M,M,M,M,M,M,M,71.00,KELY 220453Z AUTO 16007KT 10SM CLR 22/07 A3023 RMK AO2 SLP122 T02170072 $,M
VGT,2024-07-22 04:53,-115.1933,36.2111,667.00,102.00,51.00,18.28,70.00,14.00,0.00,29.84,1008.50,10.00,29.00,CLR,M,M,M,M,M,M,M,M,M,M,M,29.00,60.00,2024-07-22 04:44,99.35,KVGT 220453Z AUTO 07014G29KT 10SM CLR 39/11 A2984 RMK AO2 PK WND 06029/0444 WSHFT 0403 LTG DSNT E AND SE SLP085 T03890106,M
LOL,2024-07-22 04:53,-118.5701,40.0684,1192.43,88.00,49.00,26.13,350.00,10.00,0.00,30.04,1011.80,10.00,22.00,CLR,M,M,M,M,M,M,M,M,M,M,M,M,M,M,85.14,KLOL 220453Z AUTO 35010G22KT 320V020 10SM CLR 31/09 A3004 RMK AO2 SLP118 T03110094,M
NFL,2024-07-22 04:54,-118.7010,39.4166,1199.00,88.00,48.00,25.17,270.00,6.00,0.00,30.07,1015.00,10.00,M,FEW,FEW,BKN,M,6000.00,7500.00,9000.00,M,M,M,M,M,M,M,M,85.02,KNFL 220454Z AUTO 27006KT 10SM FEW060 FEW075 BKN090 31/09 A3007 RMK AO2 SLP150 T03110089,M
BVU,2024-07-22 04:55,-114.8611,35.9475,671.00,100.40,51.80,19.76,90.00,15.00,0.00,29.85,M,10.00,21.00,CLR,M,M,M,M,M,M,M,M,M,M,M,M,M,M,97.90,KBVU 220455Z AUTO 09015G21KT 10SM CLR 38/11 A2985 RMK AO2 LTG DSNT NW,M
CXP,2024-07-22 04:55,-119.7326,39.1923,1431.00,80.60,48.20,32.18,0.00,0.00,0.00,30.15,M,10.00,M,CLR,M,M,M,M,M,M,M,M,M,M,M,M,M,M,79.71,KCXP 220455Z AUTO 00000KT 10SM CLR 27/09 A3015 RMK AO2,M
RNO,2024-07-22 04:55,-119.7711,39.4839,1341.00,81.00,51.00,35.25,120.00,6.00,0.01,30.11,1012.90,10.00,M,SCT,M,M,M,12000.00,M,M,M,M,M,M,M,M,M,M,80.22,KRNO 220455Z 12006KT 10SM SCT120 27/11 A3011 RMK AO2 SLP129 RAE08 TSB04E18 P0001 T02720106,M
LSV,2024-07-22 04:55,-115.0343,36.2362,570.00,100.80,51.00,18.95,80.00,16.00,T,29.79,1005.20,10.00,22.00,BKN,M,M,M,14000.00,M,M,M,VCTS,M,M,M,30.00,50.00,2024-07-22 04:21,98.09,KLSV 220455Z AUTO 08016G22KT 10SM VCTS BKN140 38/11 A2979 RMK AO2 PK WND 05030/21 DZB01E12DZB14E24 PRESRR SLP052 P0000 T03820105 $,M
RTS,2024-07-22 04:55,-119.8764,39.6682,1539.00,78.80,48.20,34.13,80.00,6.00,0.00,30.18,M,10.00,13.00,CLR,M,M,M,M,M,M,M,M,M,M,M,M,M,M,78.80,KRTS 220455Z AUTO 08006G13KT 10SM CLR 26/09 A3018 RMK AO2,M
MEV,2024-07-22 04:55,-119.7500,38.9963,1441.42,73.40,50.00,43.69,0.00,0.00,0.00,30.13,M,10.00,M,FEW,M,M,M,9500.00,M,M,M,M,M,M,M,M,M,M,73.40,KMEV 220455Z AUTO 00000KT 10SM FEW095 23/10 A3013 RMK AO2,M
BAM,2024-07-22 04:55,-116.8743,40.5990,1382.36,78.80,46.40,31.90,150.00,3.00,0.00,30.08,M,10.00,M,CLR,M,M,M,M,M,M,M,M,M,M,M,M,M,M,78.80,KBAM 220455Z AUTO 15003KT 10SM CLR 26/08 A3008 RMK AO1,M
HTH,2024-07-22 04:55,-118.6315,38.5448,1282.89,84.20,48.20,28.63,180.00,9.00,0.00,30.08,M,10.00,M,CLR,M,M,M,M,M,M,M,M,M,M,M,M,M,M,82.04,KHTH 220455Z AUTO 18009KT 10SM CLR 29/09 A3008 RMK A01,M
10U,2024-07-22 04:55,-116.1876,41.9532,1637.00,77.00,41.00,27.53,320.00,5.00,0.00,30.17,M,10.00,M,CLR,M,M,M,M,M,M,M,M,M,M,M,M,M,M,77.00,K10U 220455Z AUTO 32005KT 10SM CLR 25/05 A3017 RMK AO2,M
TMT,2024-07-22 04:55,-117.1971,39.4643,1749.34,77.00,45.70,32.97,210.00,3.00,0.00,30.24,M,10.00,M,SCT,M,M,M,12000.00,M,M,M,M,M,M,M,M,M,M,77.00,KTMT 220455Z AUTO 21003KT 10SM SCT120 25/08 A3024 RMK AO2 T02500076,M
INS,2024-07-22 04:55,-115.6733,36.5872,955.00,96.00,37.20,12.95,310.00,4.00,0.00,29.91,1006.20,10.00,M,FEW,M,M,M,14000.00,M,M,M,M,M,M,M,M,M,M,91.34,KINS 220455Z AUTO 31004KT 10SM FEW140 36/03 A2991 RMK AO2 SLP062 T03560029 $,M
EKO,2024-07-22 04:56,-115.7860,40.8242,1367.00,81.00,46.00,29.23,M,4.00,0.00,30.13,1013.10,10.00,M,CLR,M,M,M,M,M,M,M,M,M,M,M,M,M,M,79.76,KEKO 220456Z AUTO VRB04KT 10SM CLR 27/08 A3013 RMK AO2 SLP131 T02720078,M
WMC,2024-07-22 04:56,-117.8072,40.9019,1315.00,83.00,52.00,34.28,0.00,0.00,T,30.11,1012.90,6.00,M,FEW,BKN,M,M,5500.00,11000.00,M,M,-RA,M,M,M,M,M,M,81.64,KWMC 220456Z AUTO 00000KT 6SM -RA FEW055 BKN110 28/11 A3011 RMK AO2 LTG DSNT SW RAB45 PRESRR SLP129 P0000 T02830111,M
HND,2024-07-22 04:56,-115.1344,35.9729,742.79,101.00,54.00,21.04,40.00,23.00,0.00,29.88,1009.50,10.00,34.00,CLR,M,M,M,M,M,M,M,TS,M,M,M,34.00,40.00,2024-07-22 04:55,99.22,KHND 220456Z AUTO 04023G34KT 10SM TS CLR 38/12 A2988 RMK AO2 PK WND 04034/0455 LTG DSNT NE TSB41 SLP095 T03830122,M
TPH,2024-07-22 04:56,-117.0904,38.0505,1654.00,75.00,57.00,53.52,290.00,6.00,T,30.19,1013.20,10.00,M,FEW,BKN,M,M,6500.00,11000.00,M,M,M,M,M,M,M,M,M,75.00,KTPH 220456Z AUTO 29006KT 10SM FEW065 BKN110 24/14 A3019 RMK AO2 RAB11E26 SLP132 P0000 T02390139,M
LAS,2024-07-22 04:56,-115.1634,36.0719,663.00,103.00,52.00,18.41,80.00,28.00,0.00,29.84,1003.50,9.00,37.00,FEW,BKN,M,M,12000.00,14000.00,M,M,VCTS,M,M,M,37.00,80.00,2024-07-22 04:55,100.70,KLAS 220456Z 08028G37KT 9SM VCTS FEW120CB BKN140 39/11 A2984 RMK AO2 PK WND 08037/0455 WSHFT 0420 LTG DSNT NE AND E SLP035 OCNL LTGICCG VC NE-E TSB51 TS VC NE-E MOV S T03940111 $,M
LSV,2024-07-22 04:57,-115.0343,36.2362,570.00,100.40,51.80,19.76,70.00,18.00,0.00,29.80,1005.60,10.00,22.00,BKN,M,M,M,14000.00,M,M,M,VCTS -RA,M,M,M,M,M,M,97.90,KLSV 220457Z AUTO 07018G22KT 10SM VCTS -RA BKN140 38/11 A2980 RMK AO2 RAB57 SLP056 $,M
LSV,2024-07-22 05:10,-115.0343,36.2362,570.00,98.60,53.60,22.29,100.00,14.00,0.00,29.81,1006.00,10.00,26.00,BKN,OVC,M,M,14000.00,16000.00,M,M,M,M,M,M,M,M,M,96.51,KLSV 220510Z AUTO 10014G26KT 10SM BKN140 OVC160 37/12 A2981 RMK AO2 LTG DSNT SE RAB0457E06DZB06E10 SLP060 $,M
05U,2024-07-22 05:10,-116.0051,39.6042,1811.23,69.80,42.80,37.61,0.00,0.00,0.00,30.24,M,10.00,M,CLR,M,M,M,M,M,M,M,M,M,M,M,M,M,M,69.80,K05U 220510Z AUTO 00000KT 10SM CLR 21/06 A3024 RMK A01,M
LSV,2024-07-22 05:13,-115.0343,36.2362,570.00,98.60,51.80,20.87,120.00,17.00,0.00,29.80,1005.60,10.00,23.00,BKN,OVC,M,M,14000.00,16000.00,M,M,M,M,M,M,M,M,M,96.00,KLSV 220513Z AUTO 12017G23KT 10SM BKN140 OVC160 37/11 A2980 RMK AO2 WSHFT 0458 RAB0457E06DZB06E10 SLP056 $,M
BVU,2024-07-22 05:15,-114.8611,35.9475,671.00,98.60,51.80,20.87,80.00,19.00,0.00,29.87,M,10.00,25.00,SCT,SCT,BKN,M,4600.00,5500.00,6500.00,M,M,M,M,M,M,M,M,96.00,KBVU 220515Z AUTO 08019G25KT 10SM SCT046 SCT055 BKN065 37/11 A2987 RMK AO2,M
CXP,2024-07-22 05:15,-119.7326,39.1923,1431.00,78.80,50.00,36.51,0.00,0.00,0.00,30.15,M,10.00,M,CLR,M,M,M,M,M,M,M,M,M,M,M,M,M,M,78.80,KCXP 220515Z AUTO 00000KT 10SM CLR 26/10 A3015 RMK AO2,M
RTS,2024-07-22 05:15,-119.8764,39.6682,1539.00,77.00,48.20,36.22,0.00,0.00,0.00,30.18,M,10.00,M,CLR,M,M,M,M,M,M,M,M,M,M,M,M,M,M,77.00,KRTS 220515Z AUTO 00000KT 10SM CLR 25/09 A3018 RMK AO2,M
MEV,2024-07-22 05:15,-119.7500,38.9963,1441.42,69.80,51.80,52.77,0.00,0.00,0.00,30.13,M,10.00,M,FEW,M,M,M,9500.00,M,M,M,M,M,M,M,M,M,M,69.80,KMEV 220515Z AUTO 00000KT 10SM FEW095 21/11 A3013 RMK AO2,M
BAM,2024-07-22 05:15,-116.8743,40.5990,1382.36,78.80,48.20,34.13,240.00,3.00,0.00,30.08,M,10.00,M,CLR,M,M,M,M,M,M,M,M,M,M,M,M,M,M,78.80,KBAM 220515Z AUTO 24003KT 10SM CLR 26/09 A3008 RMK AO1,M
HTH,2024-07-22 05:15,-118.6315,38.5448,1282.89,84.20,46.40,26.76,170.00,4.00,0.00,30.08,M,10.00,11.00,CLR,M,M,M,M,M,M,M,M,M,M,M,M,M,M,81.87,KHTH 220515Z AUTO 17004G11KT 10SM CLR 29/08 A3008 RMK A01,M
10U,2024-07-22 05:15,-116.1876,41.9532,1637.00,73.40,44.60,35.66,0.00,0.00,0.00,30.17,M,10.00,M,FEW,M,M,M,12000.00,M,M,M,M,M,M,M,M,M,M,73.40,K10U 220515Z AUTO 00000KT 10SM FEW120 23/07 A3017 RMK AO2,M
TMT,2024-07-22 05:15,-117.1971,39.4643,1749.34,72.00,46.00,39.42,190.00,7.00,0.00,30.24,M,10.00,M,SCT,M,M,M,12000.00,M,M,M,M,M,M,M,M,M,M,72.00,KTMT 220515Z AUTO 19007KT 10SM SCT120 22/08 A3024 RMK AO2 T02220078,M
LAS,2024-07-22 05:17,-115.1634,36.0719,663.00,99.00,56.00,24.04,70.00,25.00,0.00,29.84,M,10.00,33.00,FEW,BKN,M,M,12000.00,14000.00,M,M,M,M,M,M,41.00,90.00,2024-07-22 04:58,97.74,KLAS 220517Z COR 07025G33KT 10SM FEW120 BKN140 37/13 A2984 RMK AO2 PK WND 09041/0458 LTG DSNT E TSE15 VCSH E CB DSNT NE-E T03720133 $,M
LOL,2024-07-22 05:19,-118.5701,40.0684,1192.43,86.00,49.00,27.85,30.00,9.00,0.00,30.05,M,10.00,M,CLR,M,M,M,M,M,M,M,VCTS,M,M,M,M,M,M,83.49,KLOL 220519Z AUTO 03009KT 10SM VCTS CLR 30/09 A3005 RMK AO2 LTG DSNT NW T03000094,M
LAS,2024-07-22 05:21,-115.1634,36.0719,663.00,99.00,55.00,23.18,90.00,18.00,0.00,29.84,M,10.00,33.00,FEW,BKN,M,M,12000.00,14000.00,M,M,M,M,M,M,41.00,90.00,2024-07-22 04:58,97.39,KLAS 220521Z 09018G33KT 10SM FEW120 BKN140 37/13 A2984 RMK AO2 PK WND 09041/0458 TSE15 VCSH E CB DSNT NE-E T03720128 $,M
HND,2024-07-22 05:25,-115.1344,35.9729,742.79,93.20,59.00,31.99,100.00,21.00,T,29.90,M,10.00,29.00,CLR,M,M,M,M,M,M,M,-RA,M,M,M,33.00,50.00,2024-07-22 05:01,92.57,KHND 220525Z AUTO 10021G29KT 10SM -RA CLR 34/15 A2990 RMK AO2 PK WND 05033/0501 LTG DSNT E TSE19RAB06 P0000,M
05U,2024-07-22 05:30,-116.0051,39.6042,1811.23,64.40,44.60,48.55,0.00,0.00,0.00,30.24,M,10.00,M,CLR,M,M,M,M,M,M,M,M,M,M,M,M,M,M,64.40,K05U 220530Z AUTO 00000KT 10SM CLR 18/07 A3024 RMK A01,M
LOL,2024-07-22 05:34,-118.5701,40.0684,1192.43,85.00,50.00,29.85,20.00,10.00,0.00,30.05,M,10.00,M,CLR,M,M,M,M,M,M,M,M,M,M,M,M,M,M,82.83,KLOL 220534Z AUTO 02010KT 10SM CLR 29/10 A3005 RMK AO2 LTG DSNT NW T02940100,M
BVU,2024-07-22 05:35,-114.8611,35.9475,671.00,96.80,53.60,23.55,70.00,14.00,0.00,29.90,M,10.00,M,FEW,SCT,BKN,M,4600.00,5500.00,7000.00,M,M,M,M,M,M,M,M,94.59,KBVU 220535Z AUTO 07014KT 10SM FEW046 SCT055 BKN070 36/12 A2990 RMK AO2 LTG DSNT E AND W AND NW,M
CXP,2024-07-22 05:35,-119.7326,39.1923,1431.00,77.00,50.00,38.74,0.00,0.00,0.00,30.15,M,10.00,M,CLR,M,M,M,M,M,M,M,M,M,M,M,M,M,M,77.00,KCXP 220535Z AUTO 00000KT 10SM CLR 25/10 A3015 RMK AO2,M
RTS,2024-07-22 05:35,-119.8764,39.6682,1539.00,77.00,46.40,33.85,0.00,0.00,0.00,30.17,M,10.00,M,CLR,M,M,M,M,M,M,M,M,M,M,M,M,M,M,77.00,KRTS 220535Z AUTO 00000KT 10SM CLR 25/08 A3017 RMK AO2,M
MEV,2024-07-22 05:35,-119.7500,38.9963,1441.42,71.60,51.80,49.64,0.00,0.00,0.00,30.13,M,10.00,M,CLR,M,M,M,M,M,M,M,M,M,M,M,M,M,M,71.60,KMEV 220535Z AUTO 00000KT 10SM CLR 22/11 A3013 RMK AO2,M
BAM,2024-07-22 05:35,-116.8743,40.5990,1382.36,80.60,46.40,30.07,310.00,5.00,0.00,30.10,M,10.00,M,CLR,M,M,M,M,M,M,M,M,M,M,M,M,M,M,79.56,KBAM 220535Z AUTO 31005KT 10SM CLR 27/08 A3010 RMK AO1,M
HTH,2024-07-22 05:35,-118.6315,38.5448,1282.89,84.20,46.40,26.76,0.00,0.00,0.00,30.09,M,10.00,M,CLR,M,M,M,M,M,M,M,M,M,M,M,M,M,M,81.87,KHTH 220535Z AUTO 00000KT 10SM CLR 29/08 A3009 RMK A01,M
10U,2024-07-22 05:35,-116.1876,41.9532,1637.00,73.40,42.80,33.29,0.00,0.00,0.00,30.17,M,10.00,M,FEW,M,M,M,12000.00,M,M,M,M,M,M,M,M,M,M,73.40,K10U 220535Z AUTO 00000KT 10SM FEW120 23/06 A3017 RMK AO2,M
TMT,2024-07-22 05:35,-117.1971,39.4643,1749.34,71.80,46.40,40.30,190.00,4.00,0.00,30.23,M,10.00,M,CLR,M,M,M,M,M,M,M,M,M,M,M,M,M,M,71.80,KTMT 220535Z AUTO 19004KT 10SM CLR 22/08 A3023 RMK AO2 T02210080,M
05U,2024-07-22 05:50,-116.0051,39.6042,1811.23,62.60,44.60,51.72,0.00,0.00,0.00,30.24,M,10.00,M,CLR,M,M,M,M,M,M,M,M,M,M,M,M,M,M,62.60,K05U 220550Z AUTO 00000KT 10SM CLR 17/07 A3024 RMK A01,M
P68,2024-07-22 05:53,-116.0056,39.6014,1993.00,63.00,45.00,51.78,190.00,7.00,0.00,30.22,1013.90,M,M,M,M,M,M,M,M,M,M,M,M,M,M,M,M,M,63.00,KP68 220553Z AUTO 19007KT 17/07 A3022 RMK AO1 SLP139 T01720072 10306 20167 53010,M
DRA,2024-07-22 05:53,-116.0278,36.6206,1009.00,95.00,46.00,18.76,20.00,10.00,0.00,29.93,1006.90,10.00,M,CLR,M,M,M,M,M,M,M,M,M,M,M,M,M,M,91.23,KDRA 220553Z AUTO 02010KT 10SM CLR 35/08 A2993 RMK AO2 SLP069 T03500078 10422 20344 51011,M
ELY,2024-07-22 05:53,-114.8453,39.2950,1909.00,69.00,45.00,42.04,0.00,0.00,0.00,30.24,1012.10,10.00,M,CLR,M,M,M,M,M,M,M,M,M,M,M,M,M,M,69.00,KELY 220553Z AUTO 00000KT 10SM CLR 21/07 A3024 RMK AO2 SLP121 T02060072 10317 20206 51006 $,M
VGT,2024-07-22 05:53,-115.1933,36.2111,667.00,98.00,55.00,23.89,110.00,13.00,0.00,29.88,1009.70,10.00,21.00,CLR,M,M,M,M,M,M,M,M,M,M,M,32.00,80.00,2024-07-22 05:08,96.31,KVGT 220553Z AUTO 11013G21KT 10SM CLR 37/13 A2988 RMK AO2 PK WND 08032/0508 LTG DSNT E AND SE SLP097 T03670128 10439 20367 53031,M
LOL,2024-07-22 05:53,-118.5701,40.0684,1192.43,83.00,50.00,31.83,30.00,5.00,0.00,30.06,1012.50,10.00,M,CLR,M,M,M,M,M,M,M,M,M,M,M,M,M,M,81.39,KLOL 220553Z AUTO 03005KT 10SM CLR 28/10 A3006 RMK AO2 LTG DSNT NW SLP125 60004 T02830100 10394 20283 53017,M
NFL,2024-07-22 05:54,-118.7010,39.4166,1199.00,85.00,48.00,27.70,170.00,5.00,0.00,30.06,1014.70,10.00,M,CLR,M,M,M,M,M,M,M,M,M,M,M,M,M,M,82.61,KNFL 220554Z AUTO 17005KT 10SM CLR 29/09 A3006 RMK AO2 SLP147 T02940089 10389 20294 50010,M
BVU,2024-07-22 05:55,-114.8611,35.9475,671.00,96.80,55.40,25.15,60.00,9.00,0.00,29.91,M,10.00,M,SCT,BKN,OVC,M,6500.00,9000.00,11000.00,M,VCTS,M,M,M,M,M,M,95.14,KBVU 220555Z AUTO 06009KT 10SM VCTS SCT065 BKN090 OVC110 36/13 A2991 RMK AO2 LTG DSNT NE AND E,M
CXP,2024-07-22 05:55,-119.7326,39.1923,1431.00,75.20,51.80,43.97,200.00,3.00,0.00,30.15,M,10.00,M,CLR,M,M,M,M,M,M,M,M,M,M,M,M,M,M,75.20,KCXP 220555Z AUTO 20003KT 10SM CLR 24/11 A3015 RMK AO2,M
RNO,2024-07-22 05:55,-119.7711,39.4839,1341.00,82.00,51.00,34.12,310.00,5.00,0.00,30.11,1012.40,10.00,M,FEW,M,M,M,12000.00,M,M,M,M,M,M,M,M,M,M,80.84,KRNO 220555Z 31005KT 10SM FEW120 28/11 A3011 RMK AO2 SLP124 60001 T02780106 10389 20267 50011,M
RTS,2024-07-22 05:55,-119.8764,39.6682,1539.00,75.20,46.40,35.94,0.00,0.00,0.00,30.17,M,10.00,M,CLR,M,M,M,M,M,M,M,M,M,M,M,M,M,M,75.20,KRTS 220555Z AUTO 00000KT 10SM CLR 24/08 A3017 RMK AO2,M
MEV,2024-07-22 05:55,-119.7500,38.9963,1441.42,69.80,51.80,52.77,60.00,4.00,0.00,30.13,M,10.00,M,FEW,M,M,M,4800.00,M,M,M,M,M,M,M,M,M,M,69.80,KMEV 220555Z AUTO 06004KT 10SM FEW048 21/11 A3013 RMK AO2,M
BAM,2024-07-22 05:55,-116.8743,40.5990,1382.36,80.60,48.20,32.18,260.00,4.00,0.00,30.11,M,10.00,M,CLR,M,M,M,M,M,M,M,M,M,M,M,M,M,M,79.71,KBAM 220555Z AUTO 26004KT 10SM CLR 27/09 A3011 RMK AO1,M
HTH,2024-07-22 05:55,-118.6315,38.5448,1282.89,80.60,46.40,30.07,150.00,6.00,0.00,30.09,M,10.00,M,CLR,M,M,M,M,M,M,M,M,M,M,M,M,M,M,79.56,KHTH 220555Z AUTO 15006KT 10SM CLR 27/08 A3009 RMK A01,M
10U,2024-07-22 05:55,-116.1876,41.9532,1637.00,73.40,42.80,33.29,0.00,0.00,0.00,30.16,M,10.00,M,CLR,M,M,M,M,M,M,M,M,M,M,M,M,M,M,73.40,K10U 220555Z AUTO 00000KT 10SM CLR 23/06 A3016 RMK AO2,M
TMT,2024-07-22 05:55,-117.1971,39.4643,1749.34,69.00,46.00,43.67,0.00,0.00,0.00,30.23,M,10.00,M,CLR,M,M,M,M,M,M,M,M,M,M,M,M,M,M,69.00,KTMT 220555Z AUTO 00000KT 10SM CLR 21/08 A3023 RMK AO2 T02060077 10316 20206,M
INS,2024-07-22 05:55,-115.6733,36.5872,955.00,97.30,40.00,13.88,90.00,7.00,0.00,29.92,1006.40,10.00,M,SCT,M,M,M,15000.00,M,M,M,M,M,M,M,M,M,M,92.77,KINS 220555Z AUTO 09007KT 10SM SCT150 36/05 A2992 RMK AO2 SLP064 T03630045 10419 20354 52016 $,M
LSV,2024-07-22 05:55,-115.0343,36.2362,570.00,99.50,51.30,19.93,110.00,27.00,T,29.79,1005.20,10.00,33.00,SCT,M,M,M,16000.00,M,M,M,M,M,M,M,38.00,110.00,2024-07-22 05:47,96.81,KLSV 220555Z AUTO 11027G33KT 10SM SCT160 38/11 A2979 RMK AO2 PK WND 11038/47 LTG DSNT E RAB0457E06DZB06E10 SLP052 P0000 60000 T03750107 10448 20372 50023 $,M
EKO,2024-07-22 05:56,-115.7860,40.8242,1367.00,80.00,46.00,30.20,90.00,4.00,0.00,30.14,1013.10,10.00,M,CLR,M,M,M,M,M,M,M,M,M,M,M,M,M,M,79.20,KEKO 220556Z AUTO 09004KT 10SM CLR 27/08 A3014 RMK AO2 SLP131 T02670078 10350 20256 51010,M
WMC,2024-07-22 05:56,-117.8072,40.9019,1315.00,81.00,51.00,35.25,160.00,12.00,T,30.11,1013.10,10.00,21.00,FEW,M,M,M,9500.00,M,M,M,M,M,M,M,M,M,M,80.22,KWMC 220556Z AUTO 16012G21KT 10SM FEW095 27/11 A3011 RMK AO2 RAE10 SLP131 P0000 60000 T02720106 10394 20272 51028,M
HND,2024-07-22 05:56,-115.1344,35.9729,742.79,92.00,60.00,34.42,120.00,8.00,T,29.91,1010.70,10.00,20.00,CLR,M,M,M,M,M,M,M,M,M,M,M,33.00,50.00,2024-07-22 05:01,91.69,KHND 220556Z AUTO 12008G20KT 10SM CLR 33/16 A2991 RMK AO2 PK WND 05033/0501 LTG DSNT E TSE19RAB06E30 SLP107 P0000 60000 T03330156 10439 20328 53024,M
TPH,2024-07-22 05:56,-117.0904,38.0505,1654.00,75.00,55.00,49.78,320.00,5.00,0.00,30.19,1012.60,10.00,M,FEW,M,M,M,12000.00,M,M,M,M,M,M,M,M,M,M,75.00,KTPH 220556Z AUTO 32005KT 10SM FEW120 24/13 A3019 RMK AO2 SLP126 60009 T02390128 10372 20239 50007,M
LAS,2024-07-22 05:56,-115.1634,36.0719,663.00,96.00,57.00,27.31,100.00,12.00,0.00,29.87,1004.40,10.00,27.00,SCT,BKN,BKN,M,12000.00,14000.00,20000.00,M,M,M,M,M,27.00,110.00,2024-07-22 05:52,94.83,KLAS 220556Z 10012G27KT 10SM SCT120 BKN140 BKN200 36/14 A2987 RMK AO2 PK WND 11027/0552 LTG DSNT E SLP044 T03560139 10450 20356 $,M
05U,2024-07-22 06:10,-116.0051,39.6042,1811.23,60.80,44.60,55.12,0.00,0.00,0.00,30.24,M,10.00,M,CLR,M,M,M,M,M,M,M,M,M,M,M,M,M,M,60.80,K05U 220610Z AUTO 00000KT 10SM CLR 16/07 A3024 RMK A01,M
INS,2024-07-22 06:13,-115.6733,36.5872,955.00,98.60,41.00,13.87,110.00,19.00,0.00,29.92,1006.40,10.00,M,BKN,M,M,M,14000.00,M,M,M,M,M,M,M,M,M,M,94.09,KINS 220613Z AUTO 11019KT 10SM BKN140 37/05 A2992 RMK AO2 WSHFT 02 SLP064 $,M
BVU,2024-07-22 06:15,-114.8611,35.9475,671.00,96.80,55.40,25.15,100.00,17.00,0.00,29.91,M,10.00,M,FEW,SCT,BKN,M,5000.00,6500.00,9000.00,M,VCTS,M,M,M,M,M,M,95.14,KBVU 220615Z AUTO 10017KT 10SM VCTS FEW050 SCT065 BKN090 36/13 A2991 RMK AO2 LTG DSNT E,M
CXP,2024-07-22 06:15,-119.7326,39.1923,1431.00,75.20,51.80,43.97,0.00,0.00,0.00,30.15,M,10.00,M,CLR,M,M,M,M,M,M,M,M,M,M,M,M,M,M,75.20,KCXP 220615Z AUTO 00000KT 10SM CLR 24/11 A3015 RMK AO2,M
RTS,2024-07-22 06:15,-119.8764,39.6682,1539.00,71.60,46.40,40.57,10.00,7.00,0.00,30.17,M,10.00,M,CLR,M,M,M,M,M,M,M,M,M,M,M,M,M,M,71.60,KRTS 220615Z AUTO 01007KT 10SM CLR 22/08 A3017 RMK AO2,M
MEV,2024-07-22 06:15,-119.7500,38.9963,1441.42,66.20,53.60,63.82,120.00,5.00,0.00,30.13,M,10.00,M,CLR,M,M,M,M,M,M,M,M,M,M,M,M,M,M,66.20,KMEV 220615Z AUTO 12005KT 10SM CLR 19/12 A3013 RMK AO2,M
BAM,2024-07-22 06:15,-116.8743,40.5990,1382.36,82.40,50.00,32.46,240.00,7.00,0.00,30.11,M,10.00,M,BKN,M,M,M,10000.00,M,M,M,M,M,M,M,M,M,M,80.99,KBAM 220615Z AUTO 24007KT 10SM BKN100 28/10 A3011 RMK AO1,M
HTH,2024-07-22 06:15,-118.6315,38.5448,1282.89,82.40,46.40,28.36,180.00,6.00,0.00,30.09,M,10.00,M,CLR,M,M,M,M,M,M,M,M,M,M,M,M,M,M,80.64,KHTH 220615Z AUTO 18006KT 10SM CLR 28/08 A3009 RMK A01,M
10U,2024-07-22 06:15,-116.1876,41.9532,1637.00,69.80,42.80,37.61,0.00,0.00,0.00,30.16,M,10.00,M,CLR,M,M,M,M,M,M,M,M,M,M,M,M,M,M,69.80,K10U 220615Z AUTO 00000KT 10SM CLR 21/06 A3016 RMK AO2,M
TMT,2024-07-22 06:15,-117.1971,39.4643,1749.34,69.40,46.00,43.07,0.00,0.00,0.00,30.23,M,10.00,M,CLR,M,M,M,M,M,M,M,M,M,M,M,M,M,M,69.40,KTMT 220615Z AUTO 00000KT 10SM CLR 21/08 A3023 RMK AO2 T02080077,M
05U,2024-07-22 06:30,-116.0051,39.6042,1811.23,59.00,44.60,58.77,0.00,0.00,0.00,30.25,M,10.00,M,CLR,M,M,M,M,M,M,M,M,M,M,M,M,M,M,59.00,K05U 220630Z AUTO 00000KT 10SM CLR 15/07 A3025 RMK A01,M
BVU,2024-07-22 06:35,-114.8611,35.9475,671.00,95.00,55.40,26.58,120.00,18.00,0.00,29.89,M,10.00,25.00,SCT,BKN,OVC,M,4800.00,6500.00,7500.00,M,VCTS,M,M,M,M,M,M,93.22,KBVU 220635Z AUTO 12018G25KT 10SM VCTS SCT048 BKN065 OVC075 35/13 A2989 RMK AO2 LTG DSNT E AND SE,M
CXP,2024-07-22 06:35,-119.7326,39.1923,1431.00,75.20,50.00,41.14,0.00,0.00,0.00,30.15,M,10.00,M,CLR,M,M,M,M,M,M,M,M,M,M,M,M,M,M,75.20,KCXP 220635Z AUTO 00000KT 10SM CLR 24/10 A3015 RMK AO2,M
RTS,2024-07-22 06:35,-119.8764,39.6682,1539.00,73.40,46.40,38.18,350.00,4.00,0.00,30.17,M,10.00,M,CLR,M,M,M,M,M,M,M,M,M,M,M,M,M,M,73.40,KRTS 220635Z AUTO 35004KT 10SM CLR 23/08 A3017 RMK AO2,M
MEV,2024-07-22 06:35,-119.7500,38.9963,1441.42,66.20,51.80,59.74,240.00,5.00,0.00,30.14,M,10.00,M,CLR,M,M,M,M,M,M,M,M,M,M,M,M,M,M,66.20,KMEV 220635Z AUTO 24005KT 10SM CLR 19/11 A3014 RMK AO2,M
BAM,2024-07-22 06:35,-116.8743,40.5990,1382.36,80.60,50.00,34.41,0.00,0.00,0.00,30.11,M,10.00,M,SCT,M,M,M,10000.00,M,M,M,M,M,M,M,M,M,M,79.88,KBAM 220635Z AUTO 00000KT 10SM SCT100 27/10 A3011 RMK AO1,M
HTH,2024-07-22 06:35,-118.6315,38.5448,1282.89,80.60,46.40,30.07,160.00,4.00,0.00,30.10,M,10.00,M,CLR,M,M,M,M,M,M,M,M,M,M,M,M,M,M,79.56,KHTH 220635Z AUTO 16004KT 10SM CLR 27/08 A3010 RMK A01,M
10U,2024-07-22 06:35,-116.1876,41.9532,1637.00,66.20,42.80,42.57,310.00,3.00,0.00,30.17,M,10.00,M,CLR,M,M,M,M,M,M,M,M,M,M,M,M,M,M,66.20,K10U 220635Z AUTO 31003KT 10SM CLR 19/06 A3017 RMK AO2,M
TMT,2024-07-22 06:35,-117.1971,39.4643,1749.34,68.00,47.00,46.93,60.00,5.00,0.00,30.24,M,10.00,M,CLR,M,M,M,M,M,M,M,M,M,M,M,M,M,M,68.00,KTMT 220635Z AUTO 06005KT 10SM CLR 20/08 A3024 RMK AO2 T02000083,M
05U,2024-07-22 06:50,-116.0051,39.6042,1811.23,60.80,44.60,55.12,0.00,0.00,0.00,30.25,M,10.00,M,CLR,M,M,M,M,M,M,M,M,M,M,M,M,M,M,60.80,K05U 220650Z AUTO 00000KT 10SM CLR 16/07 A3025 RMK A01,M
P68,2024-07-22 06:53,-116.0056,39.6014,1993.00,62.00,46.00,55.71,160.00,8.00,0.00,30.23,1014.30,M,M,M,M,M,M,M,M,M,M,M,M,M,M,M,M,M,62.00,KP68 220653Z AUTO 16008KT 17/08 A3023 RMK AO1 SLP143 T01670078,M
DRA,2024-07-22 06:53,-116.0278,36.6206,1009.00,94.00,46.00,19.34,70.00,10.00,0.00,29.93,1007.00,10.00,M,CLR,M,M,M,M,M,M,M,M,M,M,M,M,M,M,90.27,KDRA 220653Z AUTO 07010KT 10SM CLR 34/08 A2993 RMK AO2 SLP070 T03440078,M
ELY,2024-07-22 06:53,-114.8453,39.2950,1909.00,65.00,46.00,50.14,210.00,6.00,0.00,30.25,1012.50,10.00,M,CLR,M,M,M,M,M,M,M,M,M,M,M,M,M,M,65.00,KELY 220653Z AUTO 21006KT 10SM CLR 18/08 A3025 RMK AO2 SLP125 T01830078 $,M
VGT,2024-07-22 06:53,-115.1933,36.2111,667.00,96.00,59.00,29.34,190.00,4.00,0.00,29.91,1011.00,10.00,M,CLR,M,M,M,M,M,M,M,M,M,M,M,M,M,M,95.61,KVGT 220653Z AUTO 19004KT 10SM CLR 36/15 A2991 RMK AO2 SLP110 T03560150,M
LOL,2024-07-22 06:53,-118.5701,40.0684,1192.43,83.00,51.00,33.04,350.00,15.00,0.00,30.06,1012.30,10.00,23.00,FEW,M,M,M,12000.00,M,M,M,M,M,M,M,28.00,360.00,2024-07-22 06:25,81.51,KLOL 220653Z AUTO 35015G23KT 10SM FEW120 28/11 A3006 RMK AO2 PK WND 36028/0625 SLP123 T02830106,M
NFL,2024-07-22 06:54,-118.7010,39.4166,1199.00,84.00,50.00,30.82,0.00,0.00,0.00,30.04,1014.20,10.00,M,FEW,FEW,M,M,9500.00,12000.00,M,M,M,M,M,M,M,M,M,82.09,KNFL 220654Z AUTO 00000KT 10SM FEW095 FEW120 29/10 A3004 RMK AO2 SLP142 T02890100,M
BVU,2024-07-22 06:55,-114.8611,35.9475,671.00,93.20,57.20,29.99,150.00,13.00,0.00,29.89,M,10.00,27.00,FEW,SCT,OVC,M,4800.00,6000.00,7000.00,M,VCTS,M,M,M,M,M,M,91.91,KBVU 220655Z AUTO 15013G27KT 10SM VCTS FEW048 SCT060 OVC070 34/14 A2989 RMK AO2 LTG DSNT E AND SE,M
CXP,2024-07-22 06:55,-119.7326,39.1923,1431.00,75.20,50.00,41.14,0.00,0.00,0.00,30.14,M,10.00,M,CLR,M,M,M,M,M,M,M,M,M,M,M,M,M,M,75.20,KCXP 220655Z AUTO 00000KT 10SM CLR 24/10 A3014 RMK AO2,M
RNO,2024-07-22 06:55,-119.7711,39.4839,1341.00,78.00,54.00,43.44,110.00,3.00,0.00,30.11,1012.40,10.00,M,FEW,M,M,M,12000.00,M,M,M,M,M,M,M,M,M,M,78.00,KRNO 220655Z 11003KT 10SM FEW120 26/12 A3011 RMK AO2 SLP124 T02560122,M
RTS,2024-07-22 06:55,-119.8764,39.6682,1539.00,68.00,46.40,45.88,330.00,4.00,0.00,30.16,M,10.00,M,CLR,M,M,M,M,M,M,M,M,M,M,M,M,M,M,68.00,KRTS 220655Z AUTO 33004KT 10SM CLR 20/08 A3016 RMK AO2,M
MEV,2024-07-22 06:55,-119.7500,38.9963,1441.42,64.40,53.60,67.95,210.00,6.00,0.00,30.14,M,10.00,M,CLR,M,M,M,M,M,M,M,M,M,M,M,M,M,M,64.40,KMEV 220655Z AUTO 21006KT 10SM CLR 18/12 A3014 RMK AO2,M
BAM,2024-07-22 06:55,-116.8743,40.5990,1382.36,82.40,50.00,32.46,0.00,0.00,0.00,30.11,M,10.00,M,CLR,M,M,M,M,M,M,M,M,M,M,M,M,M,M,80.99,KBAM 220655Z AUTO 00000KT 10SM CLR 28/10 A3011 RMK AO1,M
HTH,2024-07-22 06:55,-118.6315,38.5448,1282.89,M,M,M,M,M,0.00,M,M,M,M,M,M,M,M,M,M,M,M,M,M,M,M,M,M,M,M,KHTH 220655Z AUTO RMK A01,M
10U,2024-07-22 06:55,-116.1876,41.9532,1637.00,80.60,39.20,22.81,50.00,9.00,0.00,30.16,M,10.00,20.00,CLR,M,M,M,M,M,M,M,M,M,M,M,M,M,M,79.10,K10U 220655Z AUTO 05009G20KT 10SM CLR 27/04 A3016 RMK AO2,M
TMT,2024-07-22 06:55,-117.1971,39.4643,1749.34,68.40,47.30,46.82,0.00,0.00,0.00,30.23,M,10.00,M,CLR,M,M,M,M,M,M,M,M,M,M,M,M,M,M,68.40,KTMT 220655Z AUTO 00000KT 10SM CLR 20/09 A3023 RMK AO2 T02020085,M
INS,2024-07-22 06:55,-115.6733,36.5872,955.00,95.00,48.70,20.76,120.00,21.00,0.00,29.94,1007.10,10.00,28.00,CLR,M,M,M,M,M,M,M,M,M,M,M,30.00,130.00,2024-07-22 06:16,91.65,KINS 220655Z AUTO 12021G28KT 10SM CLR 35/09 A2994 RMK AO2 PK WND 13030/16 SLP071 T03490093 $,M
LSV,2024-07-22 06:55,-115.0343,36.2362,570.00,96.40,56.00,26.02,140.00,5.00,0.00,29.84,1007.00,10.00,M,BKN,BKN,M,M,14000.00,17000.00,M,M,M,M,M,M,36.00,110.00,2024-07-22 05:56,94.91,KLSV 220655Z AUTO 14005KT 10SM BKN140 BKN170 36/13 A2984 RMK AO2 PK WND 11036/0556 LTG DSNT E SLP070 T03580133 $,M
EKO,2024-07-22 06:56,-115.7860,40.8242,1367.00,77.00,46.00,33.34,0.00,0.00,0.00,30.13,1012.80,10.00,M,CLR,M,M,M,M,M,M,M,M,M,M,M,M,M,M,77.00,KEKO 220656Z AUTO 00000KT 10SM CLR 25/08 A3013 RMK AO2 SLP128 T02500078,M
WMC,2024-07-22 06:56,-117.8072,40.9019,1315.00,77.00,55.00,46.57,130.00,6.00,T,30.11,1013.20,10.00,M,SCT,OVC,M,M,9000.00,11000.00,M,M,-RA,M,M,M,M,M,M,77.00,KWMC 220656Z AUTO 13006KT 10SM -RA SCT090 OVC110 25/13 A3011 RMK AO2 RAB35 SLP132 P0000 T02500128,M
HND,2024-07-22 06:56,-115.1344,35.9729,742.79,93.00,59.00,32.19,120.00,12.00,0.00,29.94,1011.60,10.00,23.00,CLR,M,M,M,M,M,M,M,M,M,M,M,M,M,M,92.35,KHND 220656Z AUTO 12012G23KT 10SM CLR 34/15 A2994 RMK AO2 SLP116 T03390150 404390289,M
TPH,2024-07-22 06:56,-117.0904,38.0505,1654.00,75.00,54.00,47.99,350.00,6.00,0.00,30.17,1011.70,10.00,M,CLR,M,M,M,M,M,M,M,M,M,M,M,M,M,M,75.00,KTPH 220656Z AUTO 35006KT 10SM CLR 24/12 A3017 RMK AO2 SLP117 T02390122,M
LAS,2024-07-22 06:56,-115.1634,36.0719,663.00,96.00,58.00,28.31,350.00,10.00,0.00,29.90,1005.50,10.00,20.00,FEW,SCT,BKN,M,12000.00,17000.00,21000.00,M,M,M,M,M,M,M,M,95.20,KLAS 220656Z 35010G20KT 10SM FEW120 SCT170 BKN210 36/14 A2990 RMK AO2 SLP055 T03560144 $,M
05U,2024-07-22 07:10,-116.0051,39.6042,1811.23,64.40,42.80,45.32,180.00,5.00,0.00,30.25,M,10.00,M,CLR,M,M,M,M,M,M,M,M,M,M,M,M,M,M,64.40,K05U 220710Z AUTO 18005KT 10SM CLR 18/06 A3025 RMK A01,M
BVU,2024-07-22 07:15,-114.8611,35.9475,671.00,93.20,57.20,29.99,170.00,9.00,0.00,29.91,M,10.00,16.00,FEW,SCT,BKN,M,5000.00,7000.00,8000.00,M,M,M,M,M,M,M,M,91.91,KBVU 220715Z AUTO 17009G16KT 10SM FEW050 SCT070 BKN080 34/14 A2991 RMK AO2 LTG DSNT SE,M
CXP,2024-07-22 07:15,-119.7326,39.1923,1431.00,75.20,50.00,41.14,0.00,0.00,0.00,30.14,M,10.00,M,CLR,M,M,M,M,M,M,M,M,M,M,M,M,M,M,75.20,KCXP 220715Z AUTO 00000KT 10SM CLR 24/10 A3014 RMK AO2,M
RTS,2024-07-22 07:15,-119.8764,39.6682,1539.00,68.00,48.20,49.10,330.00,8.00,0.00,30.16,M,10.00,M,CLR,M,M,M,M,M,M,M,M,M,M,M,M,M,M,68.00,KRTS 220715Z AUTO 33008KT 10SM CLR 20/09 A3016 RMK AO2,M
MEV,2024-07-22 07:15,-119.7500,38.9963,1441.42,62.60,53.60,72.38,150.00,7.00,0.00,30.14,M,10.00,M,CLR,M,M,M,M,M,M,M,M,M,M,M,M,M,M,62.60,KMEV 220715Z AUTO 15007KT 10SM CLR 17/12 A3014 RMK AO2,M
BAM,2024-07-22 07:15,-116.8743,40.5990,1382.36,82.40,46.40,28.36,40.00,3.00,0.00,30.12,M,10.00,M,CLR,M,M,M,M,M,M,M,M,M,M,M,M,M,M,80.64,KBAM 220715Z AUTO 04003KT 10SM CLR 28/08 A3012 RMK AO1,M
HTH,2024-07-22 07:15,-118.6315,38.5448,1282.89,80.60,46.40,30.07,230.00,6.00,0.00,30.09,M,10.00,M,M,M,M,M,M,M,M,M,M,M,M,M,M,M,M,79.56,KHTH 220715Z AUTO 23006KT 10SM 27/08 A3009 RMK A01,M
10U,2024-07-22 07:15,-116.1876,41.9532,1637.00,80.60,39.20,22.81,M,5.00,0.00,30.16,M,10.00,12.00,CLR,M,M,M,M,M,M,M,M,M,M,M,M,M,M,79.10,K10U 220715Z AUTO VRB05G12KT 10SM CLR 27/04 A3016 RMK AO2,M
TMT,2024-07-22 07:15,-117.1971,39.4643,1749.34,68.70,47.50,46.69,0.00,0.00,0.00,30.23,M,10.00,M,CLR,M,M,M,M,M,M,M,M,M,M,M,M,M,M,68.70,KTMT 220715Z AUTO 00000KT 10SM CLR 20/09 A3023 RMK AO2 T02040086,M
BVU,2024-07-22 07:35,-114.8611,35.9475,671.00,91.40,57.20,31.72,130.00,7.00,0.00,29.91,M,10.00,M,FEW,BKN,OVC,M,4200.00,5500.00,11000.00,M,M,M,M,M,M,M,M,90.06,KBVU 220735Z AUTO 13007KT 10SM FEW042 BKN055 OVC110 33/14 A2991 RMK AO2 LTG DSNT SE,M
CXP,2024-07-22 07:35,-119.7326,39.1923,1431.00,71.60,51.80,49.64,100.00,3.00,0.00,30.14,M,10.00,M,CLR,M,M,M,M,M,M,M,M,M,M,M,M,M,M,71.60,KCXP 220735Z AUTO 10003KT 10SM CLR 22/11 A3014 RMK AO2,M
RTS,2024-07-22 07:35,-119.8764,39.6682,1539.00,68.00,48.20,49.10,350.00,5.00,0.00,30.16,M,10.00,M,CLR,M,M,M,M,M,M,M,M,M,M,M,M,M,M,68.00,KRTS 220735Z AUTO 35005KT 10SM CLR 20/09 A3016 RMK AO2,M
05U,2024-07-22 07:35,-116.0051,39.6042,1811.23,62.60,42.80,48.28,150.00,6.00,0.00,30.25,M,10.00,M,CLR,M,M,M,M,M,M,M,M,M,M,M,M,M,M,62.60,K05U 220735Z AUTO 15006KT 10SM CLR 17/06 A3025 RMK A01,M
MEV,2024-07-22 07:35,-119.7500,38.9963,1441.42,64.40,53.60,67.95,110.00,8.00,0.00,30.14,M,10.00,M,FEW,FEW,M,M,6000.00,10000.00,M,M,M,M,M,M,M,M,M,64.40,KMEV 220735Z AUTO 11008KT 10SM FEW060 FEW100 18/12 A3014 RMK AO2,M
BAM,2024-07-22 07:35,-116.8743,40.5990,1382.36,80.60,48.20,32.18,0.00,0.00,0.00,30.12,M,10.00,M,CLR,M,M,M,M,M,M,M,M,M,M,M,M,M,M,79.71,KBAM 220735Z AUTO 00000KT 10SM CLR 27/09 A3012 RMK AO1,M
HTH,2024-07-22 07:35,-118.6315,38.5448,1282.89,78.80,48.20,34.13,270.00,6.00,0.00,30.09,M,10.00,M,M,M,M,M,M,M,M,M,M,M,M,M,M,M,M,78.80,KHTH 220735Z AUTO 27006KT 10SM 26/09 A3009 RMK A01,M
10U,2024-07-22 07:35,-116.1876,41.9532,1637.00,77.00,39.20,25.67,250.00,7.00,0.00,30.17,M,10.00,M,CLR,M,M,M,M,M,M,M,M,M,M,M,M,M,M,77.00,K10U 220735Z AUTO 25007KT 10SM CLR 25/04 A3017 RMK AO2,M
TMT,2024-07-22 07:35,-117.1971,39.4643,1749.34,63.50,45.00,50.88,0.00,0.00,0.00,30.23,M,10.00,M,CLR,M,M,M,M,M,M,M,M,M,M,M,M,M,M,63.50,KTMT 220735Z AUTO 00000KT 10SM CLR 18/07 A3023 RMK AO2 T01750072,M
05U,2024-07-22 07:50,-116.0051,39.6042,1811.23,59.00,44.60,58.77,0.00,0.00,0.00,30.26,M,10.00,M,CLR,M,M,M,M,M,M,M,M,M,M,M,M,M,M,59.00,K05U 220750Z AUTO 00000KT 10SM CLR 15/07 A3026 RMK A01,M
P68,2024-07-22 07:53,-116.0056,39.6014,1993.00,65.00,44.00,46.47,160.00,7.00,0.00,30.23,1014.10,M,M,M,M,M,M,M,M,M,M,M,M,M,M,M,M,M,65.00,KP68 220753Z AUTO 16007KT 18/07 A3023 RMK AO1 SLP141 T01830067 403280128,M
DRA,2024-07-22 07:53,-116.0278,36.6206,1009.00,93.00,51.00,24.06,100.00,14.00,0.00,29.93,1006.70,10.00,M,CLR,M,M,M,M,M,M,M,M,M,M,M,28.00,110.00,2024-07-22 07:30,90.09,KDRA 220753Z AUTO 10014KT 10SM CLR 34/11 A2993 RMK AO2 PK WND 11028/0730 SLP067 T03390106 404280267,M
ELY,2024-07-22 07:53,-114.8453,39.2950,1909.00,63.00,45.00,51.78,160.00,6.00,0.00,30.25,1012.90,10.00,M,CLR,M,M,M,M,M,M,M,M,M,M,M,M,M,M,63.00,KELY 220753Z AUTO 16006KT 10SM CLR 17/07 A3025 RMK AO2 SLP129 T01720072 403280111 $,M
VGT,2024-07-22 07:53,-115.1933,36.2111,667.00,96.00,58.00,28.31,230.00,4.00,0.00,29.90,1010.60,10.00,M,CLR,M,M,M,M,M,M,M,M,M,M,M,M,M,M,95.20,KVGT 220753Z AUTO 23004KT 10SM CLR 36/14 A2990 RMK AO2 SLP106 T03560144 404440322,M
LOL,2024-07-22 07:53,-118.5701,40.0684,1192.43,80.00,54.00,40.67,50.00,15.00,0.00,30.06,1012.50,10.00,21.00,CLR,M,M,M,M,M,M,M,M,M,M,M,M,M,M,79.98,KLOL 220753Z AUTO 05015G21KT 10SM CLR 27/12 A3006 RMK AO2 SLP125 T02670122 403940194,M
NFL,2024-07-22 07:54,-118.7010,39.4166,1199.00,83.00,52.00,34.28,320.00,8.00,0.00,30.05,1014.60,10.00,M,CLR,M,M,M,M,M,M,M,M,M,M,M,M,M,M,81.64,KNFL 220754Z AUTO 32008KT 10SM CLR 28/11 A3005 RMK AO2 SLP146 T02830111 404000206,M
BVU,2024-07-22 07:55,-114.8611,35.9475,671.00,91.40,57.20,31.72,230.00,8.00,0.00,29.91,M,10.00,M,FEW,FEW,SCT,M,4300.00,5500.00,9000.00,M,M,M,M,M,M,M,M,90.06,KBVU 220755Z AUTO 23008KT 10SM FEW043 FEW055 SCT090 33/14 A2991 RMK AO2 LTG DSNT SE,M
CXP,2024-07-22 07:55,-119.7326,39.1923,1431.00,69.80,51.80,52.77,0.00,0.00,0.00,30.15,M,10.00,M,CLR,M,M,M,M,M,M,M,M,M,M,M,M,M,M,69.80,KCXP 220755Z AUTO 00000KT 10SM CLR 21/11 A3015 RMK AO2,M
RNO,2024-07-22 07:55,-119.7711,39.4839,1341.00,79.00,51.00,37.64,270.00,5.00,0.00,30.10,1011.90,10.00,M,FEW,M,M,M,18000.00,M,M,M,M,M,M,M,M,M,M,79.00,KRNO 220755Z 27005KT 10SM FEW180 26/11 A3010 RMK AO2 SLP119 T02610106 404000211,M
RTS,2024-07-22 07:55,-119.8764,39.6682,1539.00,68.00,46.40,45.88,350.00,5.00,0.00,30.16,M,10.00,M,CLR,M,M,M,M,M,M,M,M,M,M,M,M,M,M,68.00,KRTS 220755Z AUTO 35005KT 10SM CLR 20/08 A3016 RMK AO2,M
MEV,2024-07-22 07:55,-119.7500,38.9963,1441.42,64.40,53.60,67.95,90.00,7.00,0.00,30.14,M,10.00,M,FEW,M,M,M,5500.00,M,M,M,M,M,M,M,M,M,M,64.40,KMEV 220755Z AUTO 09007KT 10SM FEW055 18/12 A3014 RMK AO2,M
BAM,2024-07-22 07:55,-116.8743,40.5990,1382.36,78.80,50.00,36.51,0.00,0.00,0.00,30.12,M,10.00,M,CLR,M,M,M,M,M,M,M,M,M,M,M,M,M,M,78.80,KBAM 220755Z AUTO 00000KT 10SM CLR 26/10 A3012 RMK AO1,M
HTH,2024-07-22 07:55,-118.6315,38.5448,1282.89,78.80,48.20,34.13,280.00,4.00,0.00,30.10,M,10.00,M,CLR,M,M,M,M,M,M,M,M,M,M,M,M,M,M,78.80,KHTH 220755Z AUTO 28004KT 10SM CLR 26/09 A3010 RMK A01,M
10U,2024-07-22 07:55,-116.1876,41.9532,1637.00,73.40,41.00,31.05,270.00,6.00,0.00,30.17,M,10.00,M,CLR,M,M,M,M,M,M,M,M,M,M,M,M,M,M,73.40,K10U 220755Z AUTO 27006KT 10SM CLR 23/05 A3017 RMK AO2,M
TMT,2024-07-22 07:55,-117.1971,39.4643,1749.34,66.20,46.20,48.46,0.00,0.00,0.00,30.23,M,10.00,M,SCT,M,M,M,12000.00,M,M,M,M,M,M,M,M,M,M,66.20,KTMT 220755Z AUTO 00000KT 10SM SCT120 19/08 A3023 RMK AO2 T01900079 403450143,M
INS,2024-07-22 07:55,-115.6733,36.5872,955.00,91.00,50.40,25.05,110.00,11.00,0.00,29.93,1006.90,10.00,M,CLR,M,M,M,M,M,M,M,M,M,M,M,30.00,120.00,2024-07-22 06:55,88.05,KINS 220755Z AUTO 11011KT 10SM CLR 33/10 A2993 RMK AO2 PK WND 12030/0655 SLP069 T03280102 404190248 $,M
LSV,2024-07-22 07:55,-115.0343,36.2362,570.00,96.80,55.00,24.79,210.00,15.00,0.00,29.84,1006.90,10.00,M,SCT,M,M,M,16000.00,M,M,M,M,M,M,M,M,M,M,95.01,KLSV 220755Z AUTO 21015KT 10SM SCT160 36/13 A2984 RMK AO2 SLP069 T03600128 404480322 $,M
EKO,2024-07-22 07:56,-115.7860,40.8242,1367.00,75.00,46.00,35.64,0.00,0.00,0.00,30.14,1013.00,10.00,M,CLR,M,M,M,M,M,M,M,M,M,M,M,M,M,M,75.00,KEKO 220756Z AUTO 00000KT 10SM CLR 24/08 A3014 RMK AO2 SLP130 T02390078 403830133,M
WMC,2024-07-22 07:56,-117.8072,40.9019,1315.00,80.00,51.00,36.42,260.00,8.00,T,30.10,1012.90,10.00,M,FEW,SCT,BKN,M,7500.00,9500.00,12000.00,M,M,M,M,M,M,M,M,79.65,KWMC 220756Z AUTO 26008KT 10SM FEW075 SCT095 BKN120 27/11 A3010 RMK AO2 RAE20B44E56 SLP129 P0000 T02670106 403940217,M
HND,2024-07-22 07:56,-115.1344,35.9729,742.79,92.00,59.00,33.21,150.00,17.00,0.00,29.94,1011.40,10.00,22.00,CLR,M,M,M,M,M,M,M,M,M,M,M,M,M,M,91.30,KHND 220756Z AUTO 15017G22KT 10SM CLR 33/15 A2994 RMK AO2 SLP114 T03330150,M
TPH,2024-07-22 07:56,-117.0904,38.0505,1654.00,74.00,52.00,46.11,340.00,6.00,0.00,30.17,1011.30,10.00,M,FEW,M,M,M,11000.00,M,M,M,M,M,M,M,M,M,M,74.00,KTPH 220756Z AUTO 34006KT 10SM FEW110 23/11 A3017 RMK AO2 SLP113 T02330111 403780200,M
LAS,2024-07-22 07:56,-115.1634,36.0719,663.00,97.00,57.00,26.49,140.00,9.00,0.00,29.91,1005.70,10.00,21.00,FEW,BKN,OVC,M,12000.00,18000.00,21000.00,M,M,M,M,M,M,M,M,95.92,KLAS 220756Z 14009G21KT 10SM FEW120 BKN180 OVC210 36/14 A2991 RMK AO2 SLP057 T03610139 404560328 $,M
05U,2024-07-22 08:10,-116.0051,39.6042,1811.23,62.60,42.80,48.28,0.00,0.00,0.00,30.26,M,10.00,M,CLR,M,M,M,M,M,M,M,M,M,M,M,M,M,M,62.60,K05U 220810Z AUTO 00000KT 10SM CLR 17/06 A3026 RMK A01,M
LAS,2024-07-22 08:11,-115.1634,36.0719,663.00,96.00,57.00,27.31,M,6.00,0.00,29.91,M,10.00,M,FEW,BKN,OVC,M,12000.00,18000.00,21000.00,M,M,M,M,M,M,M,M,94.83,KLAS 220811Z VRB06KT 10SM FEW120 BKN180 OVC210 36/14 A2991 RMK AO2 T03560139 $,M
BVU,2024-07-22 08:15,-114.8611,35.9475,671.00,91.40,55.40,29.72,210.00,10.00,0.00,29.90,M,10.00,16.00,FEW,FEW,SCT,M,6500.00,7500.00,9000.00,M,M,M,M,M,M,M,M,89.53,KBVU 220815Z AUTO 21010G16KT 10SM FEW065 FEW075 SCT090 33/13 A2990 RMK AO2 LTG DSNT SE,M
CXP,2024-07-22 08:15,-119.7326,39.1923,1431.00,69.80,51.80,52.77,340.00,5.00,0.00,30.15,M,10.00,M,BKN,M,M,M,1900.00,M,M,M,M,M,M,M,M,M,M,69.80,KCXP 220815Z AUTO 34005KT 10SM BKN019 21/11 A3015 RMK AO2,M
RTS,2024-07-22 08:15,-119.8764,39.6682,1539.00,69.80,46.40,43.13,60.00,4.00,0.00,30.16,M,10.00,M,CLR,M,M,M,M,M,M,M,M,M,M,M,M,M,M,69.80,KRTS 220815Z AUTO 06004KT 10SM CLR 21/08 A3016 RMK AO2,M
MEV,2024-07-22 08:15,-119.7500,38.9963,1441.42,62.60,51.80,67.75,M,6.00,0.00,30.14,M,10.00,M,FEW,FEW,M,M,5000.00,5500.00,M,M,M,M,M,M,M,M,M,62.60,KMEV 220815Z AUTO VRB06KT 10SM FEW050 FEW055 17/11 A3014 RMK AO2,M
HTH,2024-07-22 08:15,-118.6315,38.5448,1282.89,77.00,50.00,38.74,260.00,5.00,0.00,30.09,M,10.00,M,CLR,M,M,M,M,M,M,M,M,M,M,M,M,M,M,77.00,KHTH 220815Z AUTO 26005KT 10SM CLR 25/10 A3009 RMK A01,M
10U,2024-07-22 08:15,-116.1876,41.9532,1637.00,71.60,41.00,33.00,0.00,0.00,0.00,30.16,M,10.00,M,CLR,M,M,M,M,M,M,M,M,M,M,M,M,M,M,71.60,K10U 220815Z AUTO 00000KT 10SM CLR 22/05 A3016 RMK AO2,M
BAM,2024-07-22 08:15,-116.8743,40.5990,1382.36,78.80,50.00,36.51,0.00,0.00,0.00,30.12,M,10.00,M,CLR,M,M,M,M,M,M,M,M,M,M,M,M,M,M,78.80,KBAM 220815Z AUTO 00000KT 10SM CLR 26/10 A3012 RMK AO1,M
TMT,2024-07-22 08:15,-117.1971,39.4643,1749.34,63.50,49.00,59.16,0.00,0.00,0.00,30.24,M,10.00,M,BKN,M,M,M,12000.00,M,M,M,M,M,M,M,M,M,M,63.50,KTMT 220815Z AUTO 00000KT 10SM BKN120 18/10 A3024 RMK AO2 T01750095,M
05U,2024-07-22 08:30,-116.0051,39.6042,1811.23,60.80,42.80,51.45,0.00,0.00,0.00,30.26,M,10.00,M,CLR,M,M,M,M,M,M,M,M,M,M,M,M,M,M,60.80,K05U 220830Z AUTO 00000KT 10SM CLR 16/06 A3026 RMK A01,M
BVU,2024-07-22 08:35,-114.8611,35.9475,671.00,91.40,57.20,31.72,250.00,11.00,0.00,29.89,M,10.00,M,FEW,SCT,BKN,M,4900.00,6500.00,7500.00,M,M,M,M,M,M,M,M,90.06,KBVU 220835Z AUTO 25011KT 10SM FEW049 SCT065 BKN075 33/14 A2989 RMK AO2,M
CXP,2024-07-22 08:35,-119.7326,39.1923,1431.00,73.40,50.00,43.69,320.00,4.00,0.00,30.14,M,10.00,M,OVC,M,M,M,1700.00,M,M,M,M,M,M,M,M,M,M,73.40,KCXP 220835Z AUTO 32004KT 10SM OVC017 23/10 A3014 RMK AO2,M
RTS,2024-07-22 08:35,-119.8764,39.6682,1539.00,69.80,48.20,46.16,80.00,9.00,0.00,30.17,M,10.00,M,SCT,M,M,M,12000.00,M,M,M,M,M,M,M,M,M,M,69.80,KRTS 220835Z AUTO 08009KT 10SM SCT120 21/09 A3017 RMK AO2,M
MEV,2024-07-22 08:35,-119.7500,38.9963,1441.42,64.40,53.60,67.95,0.00,0.00,0.00,30.13,M,10.00,M,FEW,FEW,M,M,5000.00,5500.00,M,M,M,M,M,M,M,M,M,64.40,KMEV 220835Z AUTO 00000KT 10SM FEW050 FEW055 18/12 A3013 RMK AO2,M
HTH,2024-07-22 08:35,-118.6315,38.5448,1282.89,77.00,50.00,38.74,200.00,4.00,0.00,30.08,M,10.00,M,CLR,M,M,M,M,M,M,M,M,M,M,M,M,M,M,77.00,KHTH 220835Z AUTO 20004KT 10SM CLR 25/10 A3008 RMK A01,M
10U,2024-07-22 08:35,-116.1876,41.9532,1637.00,71.60,41.00,33.00,M,3.00,0.00,30.16,M,10.00,M,CLR,M,M,M,M,M,M,M,M,M,M,M,M,M,M,71.60,K10U 220835Z AUTO VRB03KT 10SM CLR 22/05 A3016 RMK AO2,M
BAM,2024-07-22 08:35,-116.8743,40.5990,1382.36,77.00,50.00,38.74,0.00,0.00,0.00,30.12,M,10.00,M,CLR,M,M,M,M,M,M,M,M,M,M,M,M,M,M,77.00,KBAM 220835Z AUTO 00000KT 10SM CLR 25/10 A3012 RMK AO1,M
TMT,2024-07-22 08:35,-117.1971,39.4643,1749.34,62.00,46.40,56.56,70.00,5.00,0.00,30.22,M,10.00,M,SCT,M,M,M,12000.00,M,M,M,M,M,M,M,M,M,M,62.00,KTMT 220835Z AUTO 07005KT 10SM SCT120 17/08 A3022 RMK AO2 T01670080,M
05U,2024-07-22 08:50,-116.0051,39.6042,1811.23,60.80,42.80,51.45,0.00,0.00,0.00,30.26,M,10.00,M,CLR,M,M,M,M,M,M,M,M,M,M,M,M,M,M,60.80,K05U 220850Z AUTO 00000KT 10SM CLR 16/06 A3026 RMK A01,M
P68,2024-07-22 08:53,-116.0056,39.6014,1993.00,61.00,44.00,53.49,190.00,5.00,0.00,30.23,1014.30,M,M,M,M,M,M,M,M,M,M,M,M,M,M,M,M,M,61.00,KP68 220853Z AUTO 19005KT 16/07 A3023 RMK AO1 SLP143 T01610067 50003,M
DRA,2024-07-22 08:53,-116.0278,36.6206,1009.00,92.00,49.00,23.04,80.00,5.00,0.00,29.93,1007.00,10.00,M,CLR,M,M,M,M,M,M,M,M,M,M,M,M,M,M,88.77,KDRA 220853Z AUTO 08005KT 10SM CLR 33/09 A2993 RMK AO2 SLP070 T03330094 51002,M
ELY,2024-07-22 08:53,-114.8453,39.2950,1909.00,63.00,46.00,53.78,190.00,7.00,0.00,30.24,1012.70,10.00,M,FEW,M,M,M,12000.00,M,M,M,M,M,M,M,M,M,M,63.00,KELY 220853Z AUTO 19007KT 10SM FEW120 17/08 A3024 RMK AO2 SLP127 T01720078 50001 $,M
VGT,2024-07-22 08:53,-115.1933,36.2111,667.00,95.00,58.00,29.20,210.00,12.00,0.00,29.90,1010.50,10.00,M,CLR,M,M,M,M,M,M,M,M,M,M,M,M,M,M,94.11,KVGT 220853Z AUTO 21012KT 10SM CLR 35/14 A2990 RMK AO2 SLP105 T03500144 50008,M
LOL,2024-07-22 08:53,-118.5701,40.0684,1192.43,73.00,55.00,53.23,0.00,0.00,0.00,30.05,1012.10,10.00,M,CLR,M,M,M,M,M,M,M,M,M,M,M,M,M,M,73.00,KLOL 220853Z AUTO 00000KT 10SM CLR 23/13 A3005 RMK AO2 SLP121 T02280128 58004,M
NFL,2024-07-22 08:54,-118.7010,39.4166,1199.00,80.00,49.00,33.81,300.00,4.00,0.00,30.05,1014.50,9.00,M,CLR,M,M,M,M,M,M,M,M,M,M,M,M,M,M,79.46,KNFL 220854Z AUTO 30004KT 9SM CLR 27/09 A3005 RMK AO2 SLP145 T02670094 56002,M
BVU,2024-07-22 08:55,-114.8611,35.9475,671.00,93.20,55.40,28.10,210.00,8.00,0.00,29.88,M,10.00,M,FEW,FEW,SCT,M,4700.00,5500.00,6500.00,M,M,M,M,M,M,M,M,91.35,KBVU 220855Z AUTO 21008KT 10SM FEW047 FEW055 SCT065 34/13 A2988 RMK AO2,M
CXP,2024-07-22 08:55,-119.7326,39.1923,1431.00,73.40,50.00,43.69,280.00,3.00,0.00,30.14,M,10.00,M,SCT,M,M,M,1600.00,M,M,M,M,M,M,M,M,M,M,73.40,KCXP 220855Z AUTO 28003KT 10SM SCT016 23/10 A3014 RMK AO2,M
RNO,2024-07-22 08:55,-119.7711,39.4839,1341.00,77.00,53.00,43.29,240.00,4.00,0.00,30.11,1012.20,10.00,M,FEW,FEW,M,M,15000.00,18000.00,M,M,M,M,M,M,M,M,M,77.00,KRNO 220855Z 24004KT 10SM FEW150 FEW180 25/12 A3011 RMK AO2 SLP122 T02500117 53001,M
RTS,2024-07-22 08:55,-119.8764,39.6682,1539.00,71.60,46.40,40.57,0.00,0.00,0.00,30.17,M,10.00,M,BKN,M,M,M,12000.00,M,M,M,M,M,M,M,M,M,M,71.60,KRTS 220855Z AUTO 00000KT 10SM BKN120 22/08 A3017 RMK AO2,M
MEV,2024-07-22 08:55,-119.7500,38.9963,1441.42,62.60,51.80,67.75,70.00,5.00,0.00,30.13,M,10.00,M,CLR,M,M,M,M,M,M,M,M,M,M,M,M,M,M,62.60,KMEV 220855Z AUTO 07005KT 10SM CLR 17/11 A3013 RMK AO2,M
HTH,2024-07-22 08:55,-118.6315,38.5448,1282.89,77.00,50.00,38.74,150.00,6.00,0.00,30.08,M,10.00,M,CLR,M,M,M,M,M,M,M,M,M,M,M,M,M,M,77.00,KHTH 220855Z AUTO 15006KT 10SM CLR 25/10 A3008 RMK A01,M
10U,2024-07-22 08:55,-116.1876,41.9532,1637.00,73.40,41.00,31.05,60.00,4.00,0.00,30.15,M,10.00,M,CLR,M,M,M,M,M,M,M,M,M,M,M,M,M,M,73.40,K10U 220855Z AUTO 06004KT 10SM CLR 23/05 A3015 RMK AO2,M
BAM,2024-07-22 08:55,-116.8743,40.5990,1382.36,71.60,48.20,43.42,170.00,5.00,0.00,30.12,M,10.00,M,CLR,M,M,M,M,M,M,M,M,M,M,M,M,M,M,71.60,KBAM 220855Z AUTO 17005KT 10SM CLR 22/09 A3012 RMK AO1,M
TMT,2024-07-22 08:55,-117.1971,39.4643,1749.34,62.80,46.60,55.40,0.00,0.00,0.00,30.22,M,10.00,M,CLR,M,M,M,M,M,M,M,M,M,M,M,M,M,M,62.80,KTMT 220855Z AUTO 00000KT 10SM CLR 17/08 A3022 RMK AO2 T01710081,M
INS,2024-07-22 08:55,-115.6733,36.5872,955.00,89.40,53.80,29.85,110.00,20.00,0.00,29.93,1006.90,10.00,M,CLR,M,M,M,M,M,M,M,M,M,M,M,M,M,M,87.21,KINS 220855Z AUTO 11020KT 10SM CLR 32/12 A2993 RMK AO2 SLP069 T03190121 50005 $,M
LSV,2024-07-22 08:55,-115.0343,36.2362,570.00,95.40,56.00,26.83,220.00,7.00,0.00,29.83,1006.60,10.00,M,BKN,BKN,M,M,15000.00,17000.00,M,M,M,M,M,M,M,M,M,93.84,KLSV 220855Z AUTO 22007KT 10SM BKN150 BKN170 35/13 A2983 RMK AO2 SLP066 T03520133 50014 $,M
EKO,2024-07-22 08:56,-115.7860,40.8242,1367.00,71.00,47.00,42.35,140.00,3.00,0.00,30.15,1013.50,10.00,M,CLR,M,M,M,M,M,M,M,M,M,M,M,M,M,M,71.00,KEKO 220856Z AUTO 14003KT 10SM CLR 22/08 A3015 RMK AO2 SLP135 T02170083 53004,M
WMC,2024-07-22 08:56,-117.8072,40.9019,1315.00,78.00,51.00,38.90,0.00,0.00,0.00,30.09,1012.40,10.00,M,FEW,M,M,M,12000.00,M,M,M,M,M,M,M,M,M,M,78.00,KWMC 220856Z AUTO 00000KT 10SM FEW120 26/11 A3009 RMK AO2 SLP124 60000 T02560106 58005,M
HND,2024-07-22 08:56,-115.1344,35.9729,742.79,92.00,59.00,33.21,160.00,20.00,0.00,29.92,1010.90,10.00,24.00,CLR,M,M,M,M,M,M,M,M,M,M,M,26.00,160.00,2024-07-22 08:46,91.30,KHND 220856Z AUTO 16020G24KT 10SM CLR 33/15 A2992 RMK AO2 PK WND 16026/0846 SLP109 T03330150 50003,M
TPH,2024-07-22 08:56,-117.0904,38.0505,1654.00,75.00,50.00,41.41,360.00,7.00,0.00,30.16,1011.00,10.00,M,CLR,M,M,M,M,M,M,M,M,M,M,M,M,M,M,75.00,KTPH 220856Z AUTO 36007KT 10SM CLR 24/10 A3016 RMK AO2 SLP110 T02390100 56007,M
LAS,2024-07-22 08:56,-115.1634,36.0719,663.00,95.00,57.00,28.16,M,6.00,0.00,29.90,1005.40,10.00,M,FEW,OVC,M,M,14000.00,17000.00,M,M,M,M,M,M,M,M,M,93.75,KLAS 220856Z VRB06KT 10SM FEW140 OVC170 35/14 A2990 RMK AO2 SLP054 T03500139 50009 $,M
05U,2024-07-22 09:10,-116.0051,39.6042,1811.23,59.00,42.80,54.86,0.00,0.00,0.00,30.25,M,10.00,M,CLR,M,M,M,M,M,M,M,M,M,M,M,M,M,M,59.00,K05U 220910Z AUTO 00000KT 10SM CLR 15/06 A3025 RMK A01,M
BVU,2024-07-22 09:15,-114.8611,35.9475,671.00,91.40,55.40,29.72,220.00,7.00,0.00,29.90,M,10.00,M,FEW,FEW,SCT,M,6500.00,7500.00,9000.00,M,M,M,M,M,M,M,M,89.53,KBVU 220915Z AUTO 22007KT 10SM FEW065 FEW075 SCT090 33/13 A2990 RMK AO2,M
CXP,2024-07-22 09:15,-119.7326,39.1923,1431.00,71.60,50.00,46.43,0.00,0.00,0.00,30.15,M,10.00,M,CLR,M,M,M,M,M,M,M,M,M,M,M,M,M,M,71.60,KCXP 220915Z AUTO 00000KT 10SM CLR 22/10 A3015 RMK AO2,M
RTS,2024-07-22 09:15,-119.8764,39.6682,1539.00,68.00,48.20,49.10,0.00,0.00,0.00,30.17,M,10.00,M,FEW,M,M,M,12000.00,M,M,M,M,M,M,M,M,M,M,68.00,KRTS 220915Z AUTO 00000KT 10SM FEW120 20/09 A3017 RMK AO2,M
MEV,2024-07-22 09:15,-119.7500,38.9963,1441.42,60.80,53.60,77.14,100.00,5.00,0.00,30.13,M,10.00,M,FEW,M,M,M,5500.00,M,M,M,M,M,M,M,M,M,M,60.80,KMEV 220915Z AUTO 10005KT 10SM FEW055 16/12 A3013 RMK AO2,M
BAM,2024-07-22 09:15,-116.8743,40.5990,1382.36,73.40,50.00,43.69,260.00,5.00,0.00,30.12,M,10.00,M,CLR,M,M,M,M,M,M,M,M,M,M,M,M,M,M,73.40,KBAM 220915Z AUTO 26005KT 10SM CLR 23/10 A3012 RMK AO1,M
HTH,2024-07-22 09:15,-118.6315,38.5448,1282.89,77.00,46.40,33.85,170.00,8.00,0.00,30.08,M,10.00,M,CLR,M,M,M,M,M,M,M,M,M,M,M,M,M,M,77.00,KHTH 220915Z AUTO 17008KT 10SM CLR 25/08 A3008 RMK A01,M
10U,2024-07-22 09:15,-116.1876,41.9532,1637.00,71.60,39.20,30.77,230.00,9.00,0.00,30.18,M,10.00,14.00,CLR,M,M,M,M,M,M,M,M,M,M,M,M,M,M,71.60,K10U 220915Z AUTO 23009G14KT 10SM CLR 22/04 A3018 RMK AO2,M
TMT,2024-07-22 09:15,-117.1971,39.4643,1749.34,63.00,46.80,55.43,0.00,0.00,0.00,30.22,M,10.00,M,CLR,M,M,M,M,M,M,M,M,M,M,M,M,M,M,63.00,KTMT 220915Z AUTO 00000KT 10SM CLR 17/08 A3022 RMK AO2 T01720082,M
05U,2024-07-22 09:30,-116.0051,39.6042,1811.23,59.00,44.60,58.77,0.00,0.00,0.00,30.25,M,10.00,M,CLR,M,M,M,M,M,M,M,M,M,M,M,M,M,M,59.00,K05U 220930Z AUTO 00000KT 10SM CLR 15/07 A3025 RMK A01,M
BVU,2024-07-22 09:35,-114.8611,35.9475,671.00,91.40,55.40,29.72,230.00,7.00,0.00,29.88,M,10.00,M,CLR,M,M,M,M,M,M,M,M,M,M,M,M,M,M,89.53,KBVU 220935Z AUTO 23007KT 10SM CLR 33/13 A2988 RMK AO2,M
CXP,2024-07-22 09:35,-119.7326,39.1923,1431.00,71.60,50.00,46.43,310.00,3.00,0.00,30.15,M,10.00,M,CLR,M,M,M,M,M,M,M,M,M,M,M,M,M,M,71.60,KCXP 220935Z AUTO 31003KT 10SM CLR 22/10 A3015 RMK AO2,M
RTS,2024-07-22 09:35,-119.8764,39.6682,1539.00,68.00,50.00,52.51,280.00,4.00,0.00,30.16,M,10.00,M,CLR,M,M,M,M,M,M,M,M,M,M,M,M,M,M,68.00,KRTS 220935Z AUTO 28004KT 10SM CLR 20/10 A3016 RMK AO2,M
MEV,2024-07-22 09:35,-119.7500,38.9963,1441.42,60.80,51.80,72.20,110.00,4.00,0.00,30.14,M,10.00,M,FEW,FEW,M,M,5000.00,5500.00,M,M,M,M,M,M,M,M,M,60.80,KMEV 220935Z AUTO 11004KT 10SM FEW050 FEW055 16/11 A3014 RMK AO2,M
BAM,2024-07-22 09:35,-116.8743,40.5990,1382.36,73.40,50.00,43.69,240.00,3.00,0.00,30.12,M,10.00,M,CLR,M,M,M,M,M,M,M,M,M,M,M,M,M,M,73.40,KBAM 220935Z AUTO 24003KT 10SM CLR 23/10 A3012 RMK AO1,M
HTH,2024-07-22 09:35,-118.6315,38.5448,1282.89,78.80,46.40,31.90,230.00,6.00,0.00,30.08,M,10.00,M,CLR,M,M,M,M,M,M,M,M,M,M,M,M,M,M,78.80,KHTH 220935Z AUTO 23006KT 10SM CLR 26/08 A3008 RMK A01,M
10U,2024-07-22 09:35,-116.1876,41.9532,1637.00,69.80,39.20,32.72,190.00,6.00,0.00,30.18,M,10.00,11.00,CLR,M,M,M,M,M,M,M,M,M,M,M,M,M,M,69.80,K10U 220935Z AUTO 19006G11KT 10SM CLR 21/04 A3018 RMK AO2,M
TMT,2024-07-22 09:35,-117.1971,39.4643,1749.34,64.60,47.30,53.40,0.00,0.00,0.00,30.22,M,10.00,M,CLR,M,M,M,M,M,M,M,M,M,M,M,M,M,M,64.60,KTMT 220935Z AUTO 00000KT 10SM CLR 18/09 A3022 RMK AO2 T01810085,M
05U,2024-07-22 09:50,-116.0051,39.6042,1811.23,59.00,42.80,54.86,0.00,0.00,0.00,30.24,M,10.00,M,CLR,M,M,M,M,M,M,M,M,M,M,M,M,M,M,59.00,K05U 220950Z AUTO 00000KT 10SM CLR 15/06 A3024 RMK A01,M
P68,2024-07-22 09:53,-116.0056,39.6014,1993.00,59.00,43.00,55.28,140.00,6.00,0.00,30.22,1014.00,M,M,M,M,M,M,M,M,M,M,M,M,M,M,M,M,M,59.00,KP68 220953Z AUTO 14006KT 15/06 A3022 RMK AO1 SLP140 T01500061,M
DRA,2024-07-22 09:53,-116.0278,36.6206,1009.00,88.00,50.00,27.12,M,4.00,0.00,29.95,1007.80,10.00,M,CLR,M,M,M,M,M,M,M,M,M,M,M,M,M,M,85.28,KDRA 220953Z AUTO VRB04KT 10SM CLR 31/10 A2995 RMK AO2 SLP078 T03110100,M
ELY,2024-07-22 09:53,-114.8453,39.2950,1909.00,62.00,46.00,55.71,170.00,9.00,0.00,30.24,1012.50,10.00,M,FEW,M,M,M,12000.00,M,M,M,M,M,M,M,M,M,M,62.00,KELY 220953Z AUTO 17009KT 10SM FEW120 17/08 A3024 RMK AO2 SLP125 T01670078 $,M
VGT,2024-07-22 09:53,-115.1933,36.2111,667.00,95.00,58.00,29.20,190.00,3.00,0.00,29.88,1009.90,10.00,M,CLR,M,M,M,M,M,M,M,M,M,M,M,M,M,M,94.11,KVGT 220953Z AUTO 19003KT 10SM CLR 35/14 A2988 RMK AO2 SLP099 T03500144,M
LOL,2024-07-22 09:53,-118.5701,40.0684,1192.43,72.00,55.00,55.06,170.00,5.00,0.00,30.04,1011.80,10.00,M,CLR,M,M,M,M,M,M,M,M,M,M,M,M,M,M,72.00,KLOL 220953Z AUTO 17005KT 10SM CLR 22/13 A3004 RMK AO2 SLP118 T02220128,M
NFL,2024-07-22 09:54,-118.7010,39.4166,1199.00,77.00,50.00,38.74,270.00,6.00,0.00,30.04,1014.20,9.00,M,CLR,M,M,M,M,M,M,M,M,M,M,M,M,M,M,77.00,KNFL 220954Z AUTO 27006KT 9SM CLR 25/10 A3004 RMK AO2 SLP142 T02500100,M
BVU,2024-07-22 09:55,-114.8611,35.9475,671.00,91.40,55.40,29.72,240.00,7.00,0.00,29.88,M,10.00,M,CLR,M,M,M,M,M,M,M,M,M,M,M,M,M,M,89.53,KBVU 220955Z AUTO 24007KT 10SM CLR 33/13 A2988 RMK AO2,M
CXP,2024-07-22 09:55,-119.7326,39.1923,1431.00,69.80,51.80,52.77,0.00,0.00,0.00,30.16,M,10.00,M,CLR,M,M,M,M,M,M,M,M,M,M,M,M,M,M,69.80,KCXP 220955Z AUTO 00000KT 10SM CLR 21/11 A3016 RMK AO2,M
RNO,2024-07-22 09:55,-119.7711,39.4839,1341.00,74.00,54.00,49.63,170.00,3.00,0.00,30.11,1012.50,10.00,M,FEW,M,M,M,15000.00,M,M,M,M,M,M,M,M,M,M,74.00,KRNO 220955Z 17003KT 10SM FEW150 23/12 A3011 RMK AO2 SLP125 T02330122,M
RTS,2024-07-22 09:55,-119.8764,39.6682,1539.00,66.20,48.20,52.25,360.00,5.00,0.00,30.16,M,10.00,M,CLR,M,M,M,M,M,M,M,M,M,M,M,M,M,M,66.20,KRTS 220955Z AUTO 36005KT 10SM CLR 19/09 A3016 RMK AO2,M
MEV,2024-07-22 09:55,-119.7500,38.9963,1441.42,60.80,51.80,72.20,0.00,0.00,0.00,30.14,M,10.00,M,SCT,SCT,M,M,5000.00,5500.00,M,M,M,M,M,M,M,M,M,60.80,KMEV 220955Z AUTO 00000KT 10SM SCT050 SCT055 16/11 A3014 RMK AO2,M
BAM,2024-07-22 09:55,-116.8743,40.5990,1382.36,71.60,50.00,46.43,180.00,5.00,0.00,30.12,M,10.00,M,CLR,M,M,M,M,M,M,M,M,M,M,M,M,M,M,71.60,KBAM 220955Z AUTO 18005KT 10SM CLR 22/10 A3012 RMK AO1,M
HTH,2024-07-22 09:55,-118.6315,38.5448,1282.89,77.00,48.20,36.22,0.00,0.00,0.00,30.08,M,10.00,M,CLR,M,M,M,M,M,M,M,M,M,M,M,M,M,M,77.00,KHTH 220955Z AUTO 00000KT 10SM CLR 25/09 A3008 RMK A01,M
10U,2024-07-22 09:55,-116.1876,41.9532,1637.00,69.80,39.20,32.72,190.00,7.00,0.00,30.17,M,10.00,M,CLR,M,M,M,M,M,M,M,M,M,M,M,M,M,M,69.80,K10U 220955Z AUTO 19007KT 10SM CLR 21/04 A3017 RMK AO2,M
TMT,2024-07-22 09:55,-117.1971,39.4643,1749.34,63.70,48.00,56.58,350.00,4.00,0.00,30.22,M,10.00,M,CLR,M,M,M,M,M,M,M,M,M,M,M,M,M,M,63.70,KTMT 220955Z AUTO 35004KT 10SM CLR 18/09 A3022 RMK AO2 T01760088,M
INS,2024-07-22 09:55,-115.6733,36.5872,955.00,87.40,54.70,32.87,100.00,14.00,0.00,29.93,1006.90,10.00,M,CLR,M,M,M,M,M,M,M,M,M,M,M,M,M,M,85.60,KINS 220955Z AUTO 10014KT 10SM CLR 31/13 A2993 RMK AO2 SLP069 T03080126 $,M
LSV,2024-07-22 09:55,-115.0343,36.2362,570.00,95.00,56.50,27.66,90.00,3.00,0.00,29.82,1006.30,10.00,M,BKN,M,M,M,20000.00,M,M,M,M,M,M,M,M,M,M,93.58,KLSV 220955Z AUTO 09003KT 10SM BKN200 35/14 A2982 RMK AO2 SLP063 T03490136 $,M
EKO,2024-07-22 09:56,-115.7860,40.8242,1367.00,73.00,47.00,39.58,30.00,4.00,0.00,30.14,1013.00,10.00,M,CLR,M,M,M,M,M,M,M,M,M,M,M,M,M,M,73.00,KEKO 220956Z AUTO 03004KT 10SM CLR 23/08 A3014 RMK AO2 SLP130 T02280083,M
WMC,2024-07-22 09:56,-117.8072,40.9019,1315.00,82.00,49.00,31.68,M,5.00,0.00,30.05,1010.70,10.00,M,FEW,SCT,BKN,M,6000.00,9000.00,11000.00,M,M,M,M,M,M,M,M,80.62,KWMC 220956Z AUTO VRB05KT 10SM FEW060 SCT090 BKN110 28/09 A3005 RMK AO2 SLP107 T02780094,M
HND,2024-07-22 09:56,-115.1344,35.9729,742.79,93.00,58.00,31.06,160.00,11.00,0.00,29.92,1010.50,10.00,18.00,CLR,M,M,M,M,M,M,M,M,M,M,M,M,M,M,91.98,KHND 220956Z AUTO 16011G18KT 10SM CLR 34/14 A2992 RMK AO2 SLP105 T03390144,M
TPH,2024-07-22 09:56,-117.0904,38.0505,1654.00,73.00,51.00,45.96,330.00,7.00,0.00,30.16,1011.20,10.00,M,CLR,M,M,M,M,M,M,M,M,M,M,M,M,M,M,73.00,KTPH 220956Z AUTO 33007KT 10SM CLR 23/11 A3016 RMK AO2 SLP112 T02280106,M
LAS,2024-07-22 09:56,-115.1634,36.0719,663.00,96.00,57.00,27.31,210.00,7.00,0.00,29.88,1004.60,10.00,M,FEW,BKN,OVC,M,15000.00,18000.00,22000.00,M,M,M,M,M,M,M,M,94.83,KLAS 220956Z 21007KT 10SM FEW150 BKN180 OVC220 36/14 A2988 RMK AO2 SLP046 T03560139 $,M
05U,2024-07-22 10:10,-116.0051,39.6042,1811.23,60.80,42.80,51.45,0.00,0.00,0.00,30.24,M,10.00,M,CLR,M,M,M,M,M,M,M,M,M,M,M,M,M,M,60.80,K05U 221010Z AUTO 00000KT 10SM CLR 16/06 A3024 RMK A01,M
BVU,2024-07-22 10:15,-114.8611,35.9475,671.00,91.40,55.40,29.72,230.00,9.00,0.00,29.87,M,10.00,M,CLR,M,M,M,M,M,M,M,M,M,M,M,M,M,M,89.53,KBVU 221015Z AUTO 23009KT 10SM CLR 33/13 A2987 RMK AO2,M
CXP,2024-07-22 10:15,-119.7326,39.1923,1431.00,69.80,51.80,52.77,0.00,0.00,0.00,30.15,M,10.00,M,CLR,M,M,M,M,M,M,M,M,M,M,M,M,M,M,69.80,KCXP 221015Z AUTO 00000KT 10SM CLR 21/11 A3015 RMK AO2,M
RTS,2024-07-22 10:15,-119.8764,39.6682,1539.00,66.20,46.40,48.83,M,4.00,0.00,30.16,M,8.00,M,CLR,M,M,M,M,M,M,M,M,M,M,M,M,M,M,66.20,KRTS 221015Z AUTO VRB04KT 8SM CLR 19/08 A3016 RMK AO2,M
MEV,2024-07-22 10:15,-119.7500,38.9963,1441.42,60.80,51.80,72.20,0.00,0.00,0.00,30.13,M,10.00,M,FEW,FEW,M,M,5000.00,5500.00,M,M,M,M,M,M,M,M,M,60.80,KMEV 221015Z AUTO 00000KT 10SM FEW050 FEW055 16/11 A3013 RMK AO2,M
HTH,2024-07-22 10:15,-118.6315,38.5448,1282.89,73.40,50.00,43.69,130.00,5.00,0.00,30.07,M,10.00,M,CLR,M,M,M,M,M,M,M,M,M,M,M,M,M,M,73.40,KHTH 221015Z AUTO 13005KT 10SM CLR 23/10 A3007 RMK A01,M
10U,2024-07-22 10:15,-116.1876,41.9532,1637.00,66.20,39.20,37.03,190.00,6.00,0.00,30.17,M,10.00,M,CLR,M,M,M,M,M,M,M,M,M,M,M,M,M,M,66.20,K10U 221015Z AUTO 19006KT 10SM CLR 19/04 A3017 RMK AO2,M
BAM,2024-07-22 10:15,-116.8743,40.5990,1382.36,71.60,46.40,40.57,130.00,4.00,0.00,30.12,M,10.00,M,CLR,M,M,M,M,M,M,M,M,M,M,M,M,M,M,71.60,KBAM 221015Z AUTO 13004KT 10SM CLR 22/08 A3012 RMK AO1,M
TMT,2024-07-22 10:15,-117.1971,39.4643,1749.34,62.20,47.00,57.45,150.00,4.00,0.00,30.21,M,10.00,M,CLR,M,M,M,M,M,M,M,M,M,M,M,M,M,M,62.20,KTMT 221015Z AUTO 15004KT 10SM CLR 17/08 A3021 RMK AO2 T01680083,M
05U,2024-07-22 10:30,-116.0051,39.6042,1811.23,59.00,42.80,54.86,0.00,0.00,0.00,30.24,M,10.00,M,CLR,M,M,M,M,M,M,M,M,M,M,M,M,M,M,59.00,K05U 221030Z AUTO 00000KT 10SM CLR 15/06 A3024 RMK A01,M
BVU,2024-07-22 10:35,-114.8611,35.9475,671.00,91.40,55.40,29.72,230.00,6.00,0.00,29.87,M,10.00,M,CLR,M,M,M,M,M,M,M,M,M,M,M,M,M,M,89.53,KBVU 221035Z AUTO 23006KT 10SM CLR 33/13 A2987 RMK AO2,M
CXP,2024-07-22 10:35,-119.7326,39.1923,1431.00,68.00,50.00,52.51,330.00,4.00,0.00,30.15,M,10.00,M,CLR,M,M,M,M,M,M,M,M,M,M,M,M,M,M,68.00,KCXP 221035Z AUTO 33004KT 10SM CLR 20/10 A3015 RMK AO2,M
RTS,2024-07-22 10:35,-119.8764,39.6682,1539.00,68.00,48.20,49.10,140.00,4.00,0.00,30.16,M,9.00,M,CLR,M,M,M,M,M,M,M,M,M,M,M,M,M,M,68.00,KRTS 221035Z AUTO 14004KT 9SM CLR 20/09 A3016 RMK AO2,M
MEV,2024-07-22 10:35,-119.7500,38.9963,1441.42,59.00,50.00,72.01,0.00,0.00,0.00,30.14,M,10.00,M,CLR,M,M,M,M,M,M,M,M,M,M,M,M,M,M,59.00,KMEV 221035Z AUTO 00000KT 10SM CLR 15/10 A3014 RMK AO2,M
BAM,2024-07-22 10:35,-116.8743,40.5990,1382.36,68.00,46.40,45.88,0.00,0.00,0.00,30.12,M,10.00,M,CLR,M,M,M,M,M,M,M,M,M,M,M,M,M,M,68.00,KBAM 221035Z AUTO 00000KT 10SM CLR 20/08 A3012 RMK AO1,M
HTH,2024-07-22 10:35,-118.6315,38.5448,1282.89,75.20,48.20,38.46,0.00,0.00,0.00,30.08,M,10.00,M,CLR,M,M,M,M,M,M,M,M,M,M,M,M,M,M,75.20,KHTH 221035Z AUTO 00000KT 10SM CLR 24/09 A3008 RMK A01,M
10U,2024-07-22 10:35,-116.1876,41.9532,1637.00,64.40,39.20,39.43,0.00,0.00,0.00,30.17,M,10.00,M,CLR,M,M,M,M,M,M,M,M,M,M,M,M,M,M,64.40,K10U 221035Z AUTO 00000KT 10SM CLR 18/04 A3017 RMK AO2,M
TMT,2024-07-22 10:35,-117.1971,39.4643,1749.34,64.00,47.70,55.36,0.00,0.00,0.00,30.21,M,10.00,M,CLR,M,M,M,M,M,M,M,M,M,M,M,M,M,M,64.00,KTMT 221035Z AUTO 00000KT 10SM CLR 18/09 A3021 RMK AO2 T01770087,M
05U,2024-07-22 10:50,-116.0051,39.6042,1811.23,60.80,44.60,55.12,0.00,0.00,0.00,30.24,M,10.00,M,CLR,M,M,M,M,M,M,M,M,M,M,M,M,M,M,60.80,K05U 221050Z AUTO 00000KT 10SM CLR 16/07 A3024 RMK A01,M
P68,2024-07-22 10:53,-116.0056,39.6014,1993.00,64.00,44.00,48.12,160.00,5.00,0.00,30.21,1014.00,M,M,M,M,M,M,M,M,M,M,M,M,M,M,M,M,M,64.00,KP68 221053Z AUTO 16005KT 18/07 A3021 RMK AO1 SLP140 T01780067,M
DRA,2024-07-22 10:53,-116.0278,36.6206,1009.00,83.00,52.00,34.28,300.00,7.00,0.00,29.95,1008.00,10.00,M,CLR,M,M,M,M,M,M,M,M,M,M,M,M,M,M,81.64,KDRA 221053Z AUTO 30007KT 10SM CLR 28/11 A2995 RMK AO2 SLP080 T02830111,M
ELY,2024-07-22 10:53,-114.8453,39.2950,1909.00,61.00,45.00,55.57,180.00,8.00,0.00,30.24,1012.90,10.00,M,CLR,M,M,M,M,M,M,M,M,M,M,M,M,M,M,61.00,KELY 221053Z AUTO 18008KT 10SM CLR 16/07 A3024 RMK AO2 SLP129 T01610072 $,M
VGT,2024-07-22 10:53,-115.1933,36.2111,667.00,95.00,58.00,29.20,170.00,10.00,0.00,29.86,1009.20,10.00,M,FEW,M,M,M,10000.00,M,M,M,M,M,M,M,M,M,M,94.11,KVGT 221053Z AUTO 17010KT 10SM FEW100 35/14 A2986 RMK AO2 SLP092 T03500144,M
LOL,2024-07-22 10:53,-118.5701,40.0684,1192.43,70.00,56.00,61.11,260.00,5.00,0.00,30.03,1011.70,10.00,M,CLR,M,M,M,M,M,M,M,M,M,M,M,M,M,M,70.00,KLOL 221053Z AUTO 26005KT 10SM CLR 21/13 A3003 RMK AO2 SLP117 T02110133,M
NFL,2024-07-22 10:54,-118.7010,39.4166,1199.00,74.00,51.00,44.44,220.00,5.00,0.00,30.04,1014.10,10.00,M,CLR,M,M,M,M,M,M,M,M,M,M,M,M,M,M,74.00,KNFL 221054Z AUTO 22005KT 10SM CLR 23/11 A3004 RMK AO2 SLP141 T02330106,M
BVU,2024-07-22 10:55,-114.8611,35.9475,671.00,91.40,55.40,29.72,250.00,8.00,0.00,29.87,M,10.00,M,CLR,M,M,M,M,M,M,M,M,M,M,M,M,M,M,89.53,KBVU 221055Z AUTO 25008KT 10SM CLR 33/13 A2987 RMK AO2,M
CXP,2024-07-22 10:55,-119.7326,39.1923,1431.00,68.00,50.00,52.51,0.00,0.00,0.00,30.14,M,10.00,M,CLR,M,M,M,M,M,M,M,M,M,M,M,M,M,M,68.00,KCXP 221055Z AUTO 00000KT 10SM CLR 20/10 A3014 RMK AO2,M
RNO,2024-07-22 10:55,-119.7711,39.4839,1341.00,75.00,51.00,42.98,300.00,3.00,0.00,30.11,1012.10,10.00,M,CLR,M,M,M,M,M,M,M,M,M,M,M,M,M,M,75.00,KRNO 221055Z 30003KT 10SM CLR 24/11 A3011 RMK AO2 SLP121 T02390106,M
RTS,2024-07-22 10:55,-119.8764,39.6682,1539.00,60.80,46.40,59.01,330.00,7.00,0.00,30.16,M,10.00,M,CLR,M,M,M,M,M,M,M,M,M,M,M,M,M,M,60.80,KRTS 221055Z AUTO 33007KT 10SM CLR 16/08 A3016 RMK AO2,M
MEV,2024-07-22 10:55,-119.7500,38.9963,1441.42,57.20,50.00,76.82,0.00,0.00,0.00,30.13,M,10.00,M,CLR,M,M,M,M,M,M,M,M,M,M,M,M,M,M,57.20,KMEV 221055Z AUTO 00000KT 10SM CLR 14/10 A3013 RMK AO2,M
BAM,2024-07-22 10:55,-116.8743,40.5990,1382.36,68.00,50.00,52.51,0.00,0.00,0.00,30.11,M,10.00,M,CLR,M,M,M,M,M,M,M,M,M,M,M,M,M,M,68.00,KBAM 221055Z AUTO 00000KT 10SM CLR 20/10 A3011 RMK AO1,M
HTH,2024-07-22 10:55,-118.6315,38.5448,1282.89,75.20,50.00,41.14,270.00,6.00,0.00,30.08,M,10.00,M,CLR,M,M,M,M,M,M,M,M,M,M,M,M,M,M,75.20,KHTH 221055Z AUTO 27006KT 10SM CLR 24/10 A3008 RMK A01,M
10U,2024-07-22 10:55,-116.1876,41.9532,1637.00,64.40,39.20,39.43,0.00,0.00,0.00,30.17,M,10.00,M,CLR,M,M,M,M,M,M,M,M,M,M,M,M,M,M,64.40,K10U 221055Z AUTO 00000KT 10SM CLR 18/04 A3017 RMK AO2,M
TMT,2024-07-22 10:55,-117.1971,39.4643,1749.34,65.30,47.50,52.51,0.00,0.00,0.00,30.20,M,10.00,M,CLR,M,M,M,M,M,M,M,M,M,M,M,M,M,M,65.30,KTMT 221055Z AUTO 00000KT 10SM CLR 19/09 A3020 RMK AO2 T01850086,M
INS,2024-07-22 10:55,-115.6733,36.5872,955.00,87.00,54.30,32.80,140.00,8.00,0.00,29.94,1007.20,10.00,M,CLR,M,M,M,M,M,M,M,M,M,M,M,M,M,M,85.16,KINS 221055Z AUTO 14008KT 10SM CLR 31/12 A2994 RMK AO2 SLP072 T03050124 $,M
LSV,2024-07-22 10:55,-115.0343,36.2362,570.00,93.00,59.50,32.77,70.00,4.00,0.00,29.81,1005.90,10.00,M,BKN,M,M,M,15000.00,M,M,M,M,M,M,M,M,M,M,92.55,KLSV 221055Z AUTO 07004KT 10SM BKN150 34/15 A2981 RMK AO2 SLP059 T03390153 $,M
EKO,2024-07-22 10:56,-115.7860,40.8242,1367.00,68.00,46.00,45.19,0.00,0.00,0.00,30.14,1013.40,10.00,M,CLR,M,M,M,M,M,M,M,M,M,M,M,M,M,M,68.00,KEKO 221056Z AUTO 00000KT 10SM CLR 20/08 A3014 RMK AO2 SLP134 T02000078,M
WMC,2024-07-22 10:56,-117.8072,40.9019,1315.00,76.00,49.00,38.59,130.00,8.00,0.00,30.06,1011.20,10.00,M,CLR,M,M,M,M,M,M,M,M,M,M,M,M,M,M,76.00,KWMC 221056Z AUTO 13008KT 10SM CLR 24/09 A3006 RMK AO2 SLP112 T02440094,M
HND,2024-07-22 10:56,-115.1344,35.9729,742.79,90.00,62.00,39.34,150.00,8.00,T,29.92,1010.80,10.00,M,CLR,M,M,M,M,M,M,M,-RA,M,M,M,M,M,M,90.46,KHND 221056Z AUTO 15008KT 10SM -RA CLR 32/17 A2992 RMK AO2 RAB49 SLP108 P0000 T03220167,M
TPH,2024-07-22 10:56,-117.0904,38.0505,1654.00,70.00,51.00,50.89,320.00,7.00,0.00,30.15,1011.10,10.00,M,CLR,M,M,M,M,M,M,M,M,M,M,M,M,M,M,70.00,KTPH 221056Z AUTO 32007KT 10SM CLR 21/11 A3015 RMK AO2 SLP111 T02110106,M
LAS,2024-07-22 10:56,-115.1634,36.0719,663.00,95.00,58.00,29.20,90.00,4.00,0.00,29.88,1004.60,10.00,M,FEW,BKN,OVC,M,14000.00,16000.00,22000.00,M,M,M,M,M,M,M,M,94.11,KLAS 221056Z 09004KT 10SM FEW140 BKN160 OVC220 35/14 A2988 RMK AO2 SLP046 T03500144 $,M
05U,2024-07-22 11:10,-116.0051,39.6042,1811.23,64.40,44.60,48.55,0.00,0.00,0.00,30.24,M,10.00,M,CLR,M,M,M,M,M,M,M,M,M,M,M,M,M,M,64.40,K05U 221110Z AUTO 00000KT 10SM CLR 18/07 A3024 RMK A01,M
BVU,2024-07-22 11:15,-114.8611,35.9475,671.00,91.40,55.40,29.72,250.00,8.00,0.00,29.87,M,10.00,13.00,CLR,M,M,M,M,M,M,M,M,M,M,M,M,M,M,89.53,KBVU 221115Z AUTO 25008G13KT 10SM CLR 33/13 A2987 RMK AO2,M
CXP,2024-07-22 11:15,-119.7326,39.1923,1431.00,66.20,51.80,59.74,90.00,4.00,0.00,30.14,M,10.00,M,CLR,M,M,M,M,M,M,M,M,M,M,M,M,M,M,66.20,KCXP 221115Z AUTO 09004KT 10SM CLR 19/11 A3014 RMK AO2,M
RTS,2024-07-22 11:15,-119.8764,39.6682,1539.00,62.60,46.40,55.37,350.00,3.00,0.00,30.16,M,10.00,M,CLR,M,M,M,M,M,M,M,M,M,M,M,M,M,M,62.60,KRTS 221115Z AUTO 35003KT 10SM CLR 17/08 A3016 RMK AO2,M
MEV,2024-07-22 11:15,-119.7500,38.9963,1441.42,57.20,51.80,82.12,0.00,0.00,0.00,30.13,M,10.00,M,CLR,M,M,M,M,M,M,M,M,M,M,M,M,M,M,57.20,KMEV 221115Z AUTO 00000KT 10SM CLR 14/11 A3013 RMK AO2,M
BAM,2024-07-22 11:15,-116.8743,40.5990,1382.36,68.00,50.00,52.51,190.00,4.00,0.00,30.11,M,10.00,M,CLR,M,M,M,M,M,M,M,M,M,M,M,M,M,M,68.00,KBAM 221115Z AUTO 19004KT 10SM CLR 20/10 A3011 RMK AO1,M
HTH,2024-07-22 11:15,-118.6315,38.5448,1282.89,73.40,50.00,43.69,300.00,4.00,0.00,30.09,M,10.00,M,CLR,M,M,M,M,M,M,M,M,M,M,M,M,M,M,73.40,KHTH 221115Z AUTO 30004KT 10SM CLR 23/10 A3009 RMK A01,M
10U,2024-07-22 11:15,-116.1876,41.9532,1637.00,62.60,41.00,45.04,190.00,6.00,0.00,30.16,M,10.00,M,CLR,M,M,M,M,M,M,M,M,M,M,M,M,M,M,62.60,K10U 221115Z AUTO 19006KT 10SM CLR 17/05 A3016 RMK AO2,M
TMT,2024-07-22 11:15,-117.1971,39.4643,1749.34,62.60,47.70,58.15,0.00,0.00,0.00,30.21,M,10.00,M,CLR,M,M,M,M,M,M,M,M,M,M,M,M,M,M,62.60,KTMT 221115Z AUTO 00000KT 10SM CLR 17/09 A3021 RMK AO2 T01700087,M
BVU,2024-07-22 11:35,-114.8611,35.9475,671.00,91.40,55.40,29.72,260.00,6.00,0.00,29.87,M,10.00,M,CLR,M,M,M,M,M,M,M,M,M,M,M,M,M,M,89.53,KBVU 221135Z AUTO 26006KT 10SM CLR 33/13 A2987 RMK AO2,M
CXP,2024-07-22 11:35,-119.7326,39.1923,1431.00,66.20,51.80,59.74,0.00,0.00,0.00,30.14,M,10.00,M,CLR,M,M,M,M,M,M,M,M,M,M,M,M,M,M,66.20,KCXP 221135Z AUTO 00000KT 10SM CLR 19/11 A3014 RMK AO2,M
RTS,2024-07-22 11:35,-119.8764,39.6682,1539.00,64.40,46.40,51.98,10.00,4.00,0.00,30.16,M,10.00,M,CLR,M,M,M,M,M,M,M,M,M,M,M,M,M,M,64.40,KRTS 221135Z AUTO 01004KT 10SM CLR 18/08 A3016 RMK AO2,M
05U,2024-07-22 11:35,-116.0051,39.6042,1811.23,64.40,44.60,48.55,0.00,0.00,0.00,30.24,M,10.00,M,CLR,M,M,M,M,M,M,M,M,M,M,M,M,M,M,64.40,K05U 221135Z AUTO 00000KT 10SM CLR 18/07 A3024 RMK A01,M
MEV,2024-07-22 11:35,-119.7500,38.9963,1441.42,57.20,51.80,82.12,140.00,5.00,0.00,30.13,M,10.00,M,CLR,M,M,M,M,M,M,M,M,M,M,M,M,M,M,57.20,KMEV 221135Z AUTO 14005KT 10SM CLR 14/11 A3013 RMK AO2,M
BAM,2024-07-22 11:35,-116.8743,40.5990,1382.36,68.00,46.40,45.88,130.00,3.00,0.00,30.11,M,10.00,M,CLR,M,M,M,M,M,M,M,M,M,M,M,M,M,M,68.00,KBAM 221135Z AUTO 13003KT 10SM CLR 20/08 A3011 RMK AO1,M
HTH,2024-07-22 11:35,-118.6315,38.5448,1282.89,73.40,50.00,43.69,250.00,4.00,0.00,30.09,M,10.00,M,CLR,M,M,M,M,M,M,M,M,M,M,M,M,M,M,73.40,KHTH 221135Z AUTO 25004KT 10SM CLR 23/10 A3009 RMK A01,M
10U,2024-07-22 11:35,-116.1876,41.9532,1637.00,62.60,41.00,45.04,180.00,5.00,0.00,30.16,M,10.00,M,CLR,M,M,M,M,M,M,M,M,M,M,M,M,M,M,62.60,K10U 221135Z AUTO 18005KT 10SM CLR 17/05 A3016 RMK AO2,M
TMT,2024-07-22 11:35,-117.1971,39.4643,1749.34,62.40,50.00,63.82,220.00,4.00,0.00,30.22,M,10.00,M,CLR,M,M,M,M,M,M,M,M,M,M,M,M,M,M,62.40,KTMT 221135Z AUTO 22004KT 10SM CLR 17/10 A3022 RMK AO2 T01690099,M
P68,2024-07-22 11:53,-116.0056,39.6014,1993.00,63.00,46.00,53.78,200.00,5.00,0.00,30.21,1014.00,M,M,M,M,M,M,M,M,M,M,M,M,M,M,M,M,M,63.00,KP68 221153Z AUTO 20005KT 17/08 A3021 RMK AO1 SLP140 T01720078 10183 20144 56006,M
DRA,2024-07-22 11:53,-116.0278,36.6206,1009.00,82.00,51.00,34.12,110.00,6.00,0.00,29.97,1008.80,10.00,M,CLR,M,M,M,M,M,M,M,M,M,M,M,M,M,M,80.84,KDRA 221153Z AUTO 11006KT 10SM CLR 28/11 A2997 RMK AO2 SLP088 T02780106 10350 20278 53013,M
ELY,2024-07-22 11:53,-114.8453,39.2950,1909.00,58.00,44.00,59.54,170.00,9.00,0.00,30.25,1013.50,10.00,M,CLR,M,M,M,M,M,M,M,M,M,M,M,M,M,M,58.00,KELY 221153Z AUTO 17009KT 10SM CLR 14/07 A3025 RMK AO2 SLP135 T01440067 10206 20144 53001 $,M
VGT,2024-07-22 11:53,-115.1933,36.2111,667.00,94.00,59.00,31.21,0.00,0.00,0.00,29.88,1009.80,10.00,M,CLR,M,M,M,M,M,M,M,M,M,M,M,M,M,M,93.42,KVGT 221153Z AUTO 00000KT 10SM CLR 34/15 A2988 RMK AO2 SLP098 T03440150 10367 20344 55006,M
LOL,2024-07-22 11:53,-118.5701,40.0684,1192.43,67.00,56.00,67.75,140.00,5.00,0.00,30.04,1012.10,10.00,M,CLR,M,M,M,M,M,M,M,M,M,M,M,M,M,M,67.00,KLOL 221153Z AUTO 14005KT 10SM CLR 19/13 A3004 RMK AO2 SLP121 70004 T01940133 10294 20189 55002,M
NFL,2024-07-22 11:54,-118.7010,39.4166,1199.00,71.00,50.00,47.39,180.00,3.00,0.00,30.04,1014.20,10.00,M,CLR,M,M,M,M,M,M,M,M,M,M,M,M,M,M,71.00,KNFL 221154Z AUTO 18003KT 10SM CLR 22/10 A3004 RMK AO2 SLP142 T02170100 10294 20217 55003,M
BVU,2024-07-22 11:55,-114.8611,35.9475,671.00,91.40,55.40,29.72,250.00,5.00,0.00,29.88,M,10.00,M,CLR,M,M,M,M,M,M,M,M,M,M,M,M,M,M,89.53,KBVU 221155Z AUTO 25005KT 10SM CLR 33/13 A2988 RMK AO2,M
CXP,2024-07-22 11:55,-119.7326,39.1923,1431.00,66.20,51.80,59.74,0.00,0.00,0.00,30.15,M,10.00,M,CLR,M,M,M,M,M,M,M,M,M,M,M,M,M,M,66.20,KCXP 221155Z AUTO 00000KT 10SM CLR 19/11 A3015 RMK AO2,M
RNO,2024-07-22 11:55,-119.7711,39.4839,1341.00,72.00,55.00,55.06,0.00,0.00,0.00,30.10,1012.30,10.00,M,CLR,M,M,M,M,M,M,M,M,M,M,M,M,M,M,72.00,KRNO 221155Z 00000KT 10SM CLR 22/13 A3010 RMK AO2 SLP123 70001 T02220128 10278 20217 58001,M
RTS,2024-07-22 11:55,-119.8764,39.6682,1539.00,60.80,46.40,59.01,310.00,5.00,0.00,30.16,M,10.00,M,CLR,M,M,M,M,M,M,M,M,M,M,M,M,M,M,60.80,KRTS 221155Z AUTO 31005KT 10SM CLR 16/08 A3016 RMK AO2,M
05U,2024-07-22 11:55,-116.0051,39.6042,1811.23,62.60,46.40,55.37,0.00,0.00,0.00,30.23,M,10.00,M,CLR,M,M,M,M,M,M,M,M,M,M,M,M,M,M,62.60,K05U 221155Z AUTO 00000KT 10SM CLR 17/08 A3023 RMK A01,M
MEV,2024-07-22 11:55,-119.7500,38.9963,1441.42,57.20,50.00,76.82,130.00,7.00,0.00,30.14,M,10.00,M,CLR,M,M,M,M,M,M,M,M,M,M,M,M,M,M,57.20,KMEV 221155Z AUTO 13007KT 10SM CLR 14/10 A3014 RMK AO2,M
HTH,2024-07-22 11:55,-118.6315,38.5448,1282.89,73.40,51.80,46.71,220.00,5.00,0.00,30.09,M,10.00,M,CLR,M,M,M,M,M,M,M,M,M,M,M,M,M,M,73.40,KHTH 221155Z AUTO 22005KT 10SM CLR 23/11 A3009 RMK A01,M
10U,2024-07-22 11:55,-116.1876,41.9532,1637.00,64.40,41.00,42.28,160.00,4.00,0.00,30.16,M,10.00,M,CLR,M,M,M,M,M,M,M,M,M,M,M,M,M,M,64.40,K10U 221155Z AUTO 16004KT 10SM CLR 18/05 A3016 RMK AO2,M
BAM,2024-07-22 11:55,-116.8743,40.5990,1382.36,66.20,48.20,52.25,0.00,0.00,0.00,30.11,M,10.00,M,CLR,M,M,M,M,M,M,M,M,M,M,M,M,M,M,66.20,KBAM 221155Z AUTO 00000KT 10SM CLR 19/09 A3011 RMK AO1,M
TMT,2024-07-22 11:55,-117.1971,39.4643,1749.34,63.50,49.30,59.82,210.00,5.00,0.00,30.22,M,10.00,M,CLR,M,M,M,M,M,M,M,M,M,M,M,M,M,M,63.50,KTMT 221155Z AUTO 21005KT 10SM CLR 18/10 A3022 RMK AO2 T01750096 10211 20166,M
INS,2024-07-22 11:55,-115.6733,36.5872,955.00,85.50,53.80,33.79,290.00,4.00,0.00,29.96,1007.90,10.00,M,CLR,M,M,M,M,M,M,M,M,M,M,M,M,M,M,83.81,KINS 221155Z AUTO 29004KT 10SM CLR 30/12 A2996 RMK AO2 SLP079 T02970121 10366 20297 53007 $,M
LSV,2024-07-22 11:55,-115.0343,36.2362,570.00,94.30,57.00,28.78,20.00,5.00,0.00,29.82,1006.20,10.00,M,CLR,M,M,M,M,M,M,M,M,M,M,M,M,M,M,93.00,KLSV 221155Z AUTO 02005KT 10SM CLR 35/14 A2982 RMK AO2 SLP062 T03460139 10374 20336 58002 $,M
EKO,2024-07-22 11:56,-115.7860,40.8242,1367.00,65.00,46.00,50.14,150.00,3.00,0.00,30.14,1014.00,10.00,M,CLR,M,M,M,M,M,M,M,M,M,M,M,M,M,M,65.00,KEKO 221156Z AUTO 15003KT 10SM CLR 18/08 A3014 RMK AO2 SLP140 T01830078 10267 20161 55001,M
WMC,2024-07-22 11:56,-117.8072,40.9019,1315.00,75.00,52.00,44.59,180.00,8.00,0.00,30.06,1011.50,10.00,M,CLR,M,M,M,M,M,M,M,M,M,M,M,M,M,M,75.00,KWMC 221156Z AUTO 18008KT 10SM CLR 24/11 A3006 RMK AO2 SLP115 60000 T02390111 10283 20239 55008,M
HND,2024-07-22 11:56,-115.1344,35.9729,742.79,90.00,60.00,36.64,180.00,7.00,T,29.93,1011.00,10.00,M,CLR,M,M,M,M,M,M,M,M,M,M,M,M,M,M,89.63,KHND 221156Z AUTO 18007KT 10SM CLR 32/16 A2993 RMK AO2 RAE00 SLP110 P0000 60000 T03220156 10344 20317 53001,M
TPH,2024-07-22 11:56,-117.0904,38.0505,1654.00,69.00,51.00,52.66,330.00,5.00,0.00,30.17,1011.50,10.00,M,BKN,M,M,M,11000.00,M,M,M,M,M,M,M,M,M,M,69.00,KTPH 221156Z AUTO 33005KT 10SM BKN110 21/11 A3017 RMK AO2 SLP115 70009 T02060106 10244 20206 53001,M
LAS,2024-07-22 11:56,-115.1634,36.0719,663.00,94.00,59.00,31.21,80.00,4.00,0.00,29.88,1004.60,10.00,M,BKN,OVC,M,M,14000.00,16000.00,M,M,M,M,M,M,M,M,M,93.42,KLAS 221156Z 08004KT 10SM BKN140 OVC160 34/15 A2988 RMK AO2 SLP046 T03440150 10367 20344 56006 $,M
05U,2024-07-22 12:10,-116.0051,39.6042,1811.23,62.60,46.40,55.37,0.00,0.00,0.00,30.23,M,10.00,M,CLR,M,M,M,M,M,M,M,M,M,M,M,M,M,M,62.60,K05U 221210Z AUTO 00000KT 10SM CLR 17/08 A3023 RMK A01,M
BVU,2024-07-22 12:15,-114.8611,35.9475,671.00,91.40,55.40,29.72,260.00,5.00,0.00,29.88,M,10.00,M,CLR,M,M,M,M,M,M,M,M,M,M,M,M,M,M,89.53,KBVU 221215Z AUTO 26005KT 10SM CLR 33/13 A2988 RMK AO2,M
CXP,2024-07-22 12:15,-119.7326,39.1923,1431.00,66.20,50.00,55.88,340.00,4.00,0.00,30.15,M,10.00,M,CLR,M,M,M,M,M,M,M,M,M,M,M,M,M,M,66.20,KCXP 221215Z AUTO 34004KT 10SM CLR 19/10 A3015 RMK AO2,M
RTS,2024-07-22 12:15,-119.8764,39.6682,1539.00,60.80,46.40,59.01,330.00,5.00,0.00,30.16,M,10.00,M,CLR,M,M,M,M,M,M,M,M,M,M,M,M,M,M,60.80,KRTS 221215Z AUTO 33005KT 10SM CLR 16/08 A3016 RMK AO2,M
MEV,2024-07-22 12:15,-119.7500,38.9963,1441.42,57.20,50.00,76.82,130.00,8.00,0.00,30.14,M,10.00,M,CLR,M,M,M,M,M,M,M,M,M,M,M,M,M,M,57.20,KMEV 221215Z AUTO 13008KT 10SM CLR 14/10 A3014 RMK AO2,M
BAM,2024-07-22 12:15,-116.8743,40.5990,1382.36,68.00,50.00,52.51,0.00,0.00,0.00,30.12,M,10.00,M,CLR,M,M,M,M,M,M,M,M,M,M,M,M,M,M,68.00,KBAM 221215Z AUTO 00000KT 10SM CLR 20/10 A3012 RMK AO1,M
HTH,2024-07-22 12:15,-118.6315,38.5448,1282.89,71.60,51.80,49.64,200.00,4.00,0.00,30.09,M,10.00,M,CLR,M,M,M,M,M,M,M,M,M,M,M,M,M,M,71.60,KHTH 221215Z AUTO 20004KT 10SM CLR 22/11 A3009 RMK A01,M
10U,2024-07-22 12:15,-116.1876,41.9532,1637.00,62.60,41.00,45.04,140.00,6.00,0.00,30.17,M,10.00,M,CLR,M,M,M,M,M,M,M,M,M,M,M,M,M,M,62.60,K10U 221215Z AUTO 14006KT 10SM CLR 17/05 A3017 RMK AO2,M
TMT,2024-07-22 12:15,-117.1971,39.4643,1749.34,62.80,48.20,58.84,200.00,5.00,0.00,30.22,M,10.00,M,CLR,M,M,M,M,M,M,M,M,M,M,M,M,M,M,62.80,KTMT 221215Z AUTO 20005KT 10SM CLR 17/09 A3022 RMK AO2 T01710090,M
BVU,2024-07-22 12:35,-114.8611,35.9475,671.00,91.40,55.40,29.72,250.00,4.00,0.00,29.88,M,10.00,M,CLR,M,M,M,M,M,M,M,M,M,M,M,M,M,M,89.53,KBVU 221235Z AUTO 25004KT 10SM CLR 33/13 A2988 RMK AO2,M
CXP,2024-07-22 12:35,-119.7326,39.1923,1431.00,66.20,50.00,55.88,0.00,0.00,0.00,30.15,M,10.00,M,CLR,M,M,M,M,M,M,M,M,M,M,M,M,M,M,66.20,KCXP 221235Z AUTO 00000KT 10SM CLR 19/10 A3015 RMK AO2,M
RTS,2024-07-22 12:35,-119.8764,39.6682,1539.00,60.80,44.60,55.12,0.00,0.00,0.00,30.16,M,10.00,M,CLR,M,M,M,M,M,M,M,M,M,M,M,M,M,M,60.80,KRTS 221235Z AUTO 00000KT 10SM CLR 16/07 A3016 RMK AO2,M
05U,2024-07-22 12:35,-116.0051,39.6042,1811.23,62.60,46.40,55.37,0.00,0.00,0.00,30.24,M,10.00,M,FEW,M,M,M,12000.00,M,M,M,M,M,M,M,M,M,M,62.60,K05U 221235Z AUTO 00000KT 10SM FEW120 17/08 A3024 RMK A01,M
MEV,2024-07-22 12:35,-119.7500,38.9963,1441.42,57.20,50.00,76.82,0.00,0.00,0.00,30.14,M,10.00,M,CLR,M,M,M,M,M,M,M,M,M,M,M,M,M,M,57.20,KMEV 221235Z AUTO 00000KT 10SM CLR 14/10 A3014 RMK AO2,M
BAM,2024-07-22 12:35,-116.8743,40.5990,1382.36,68.00,50.00,52.51,0.00,0.00,0.00,30.12,M,10.00,M,CLR,M,M,M,M,M,M,M,M,M,M,M,M,M,M,68.00,KBAM 221235Z AUTO 00000KT 10SM CLR 20/10 A3012 RMK AO1,M
HTH,2024-07-22 12:35,-118.6315,38.5448,1282.89,73.40,51.80,46.71,220.00,3.00,0.00,30.10,M,10.00,M,CLR,M,M,M,M,M,M,M,M,M,M,M,M,M,M,73.40,KHTH 221235Z AUTO 22003KT 10SM CLR 23/11 A3010 RMK A01,M
10U,2024-07-22 12:35,-116.1876,41.9532,1637.00,62.60,41.00,45.04,120.00,6.00,0.00,30.16,M,10.00,M,CLR,M,M,M,M,M,M,M,M,M,M,M,M,M,M,62.60,K10U 221235Z AUTO 12006KT 10SM CLR 17/05 A3016 RMK AO2,M
TMT,2024-07-22 12:35,-117.1971,39.4643,1749.34,61.00,47.70,61.54,0.00,0.00,0.00,30.22,M,10.00,M,CLR,M,M,M,M,M,M,M,M,M,M,M,M,M,M,61.00,KTMT 221235Z AUTO 00000KT 10SM CLR 16/09 A3022 RMK AO2 T01610087,M
05U,2024-07-22 12:50,-116.0051,39.6042,1811.23,64.40,46.40,51.98,0.00,0.00,0.00,30.24,M,10.00,M,FEW,M,M,M,12000.00,M,M,M,M,M,M,M,M,M,M,64.40,K05U 221250Z AUTO 00000KT 10SM FEW120 18/08 A3024 RMK A01,M
P68,2024-07-22 12:53,-116.0056,39.6014,1993.00,65.00,47.00,52.07,220.00,5.00,0.00,30.21,1013.70,M,M,M,M,M,M,M,M,M,M,M,M,M,M,M,M,M,65.00,KP68 221253Z AUTO 22005KT 18/08 A3021 RMK AO1 SLP137 T01830083,M
DRA,2024-07-22 12:53,-116.0278,36.6206,1009.00,82.00,54.00,38.11,90.00,4.00,0.00,29.99,1009.30,10.00,M,CLR,M,M,M,M,M,M,M,M,M,M,M,M,M,M,81.24,KDRA 221253Z AUTO 09004KT 10SM CLR 28/12 A2999 RMK AO2 SLP093 T02780122,M
ELY,2024-07-22 12:53,-114.8453,39.2950,1909.00,59.00,44.00,57.44,170.00,7.00,0.00,30.25,1013.40,10.00,M,FEW,M,M,M,11000.00,M,M,M,M,M,M,M,M,M,M,59.00,KELY 221253Z AUTO 17007KT 10SM FEW110 15/07 A3025 RMK AO2 SLP134 T01500067 $,M
VGT,2024-07-22 12:53,-115.1933,36.2111,667.00,94.00,59.00,31.21,0.00,0.00,0.00,29.88,1010.00,10.00,M,CLR,M,M,M,M,M,M,M,M,M,M,M,M,M,M,93.42,KVGT 221253Z 00000KT 10SM CLR 34/15 A2988 RMK AO2 SLP100 T03440150,M
LOL,2024-07-22 12:53,-118.5701,40.0684,1192.43,68.00,55.00,63.12,10.00,4.00,0.00,30.05,1012.60,10.00,M,CLR,M,M,M,M,M,M,M,M,M,M,M,M,M,M,68.00,KLOL 221253Z AUTO 01004KT 10SM CLR 20/13 A3005 RMK AO2 SLP126 T02000128,M
NFL,2024-07-22 12:54,-118.7010,39.4166,1199.00,68.00,51.00,54.50,160.00,7.00,0.00,30.05,1014.60,10.00,M,CLR,M,M,M,M,M,M,M,M,M,M,M,M,M,M,68.00,KNFL 221254Z AUTO 16007KT 10SM CLR 20/11 A3005 RMK AO2 SLP146 T02000106,M
BVU,2024-07-22 12:55,-114.8611,35.9475,671.00,89.60,57.20,33.56,0.00,0.00,0.00,29.88,M,10.00,M,CLR,M,M,M,M,M,M,M,M,M,M,M,M,M,M,88.28,KBVU 221255Z AUTO 00000KT 10SM CLR 32/14 A2988 RMK AO2,M
CXP,2024-07-22 12:55,-119.7326,39.1923,1431.00,64.40,51.80,63.60,0.00,0.00,0.00,30.16,M,10.00,M,CLR,M,M,M,M,M,M,M,M,M,M,M,M,M,M,64.40,KCXP 221255Z AUTO 00000KT 10SM CLR 18/11 A3016 RMK AO2,M
RNO,2024-07-22 12:55,-119.7711,39.4839,1341.00,72.00,50.00,45.81,260.00,4.00,0.00,30.11,1013.30,10.00,M,FEW,M,M,M,10000.00,M,M,M,M,M,M,M,M,M,M,72.00,KRNO 221255Z 26004KT 10SM FEW100 22/10 A3011 RMK AO2 SLP133 FU ALF ALQDS T02220100,M
RTS,2024-07-22 12:55,-119.8764,39.6682,1539.00,64.40,46.40,51.98,0.00,0.00,0.00,30.16,M,10.00,M,CLR,M,M,M,M,M,M,M,M,M,M,M,M,M,M,64.40,KRTS 221255Z AUTO 00000KT 10SM CLR 18/08 A3016 RMK AO2,M
MEV,2024-07-22 12:55,-119.7500,38.9963,1441.42,57.20,51.80,82.12,250.00,5.00,0.00,30.15,M,9.00,M,CLR,M,M,M,M,M,M,M,M,M,M,M,M,M,M,57.20,KMEV 221255Z AUTO 25005KT 9SM CLR 14/11 A3015 RMK AO2,M
HTH,2024-07-22 12:55,-118.6315,38.5448,1282.89,71.60,51.80,49.64,210.00,3.00,0.00,30.10,M,10.00,M,CLR,M,M,M,M,M,M,M,M,M,M,M,M,M,M,71.60,KHTH 221255Z AUTO 21003KT 10SM CLR 22/11 A3010 RMK A01,M
10U,2024-07-22 12:55,-116.1876,41.9532,1637.00,66.20,41.00,39.72,190.00,6.00,0.00,30.17,M,10.00,12.00,CLR,M,M,M,M,M,M,M,M,M,M,M,M,M,M,66.20,K10U 221255Z AUTO 19006G12KT 10SM CLR 19/05 A3017 RMK AO2,M
BAM,2024-07-22 12:55,-116.8743,40.5990,1382.36,68.00,50.00,52.51,50.00,5.00,0.00,30.12,M,10.00,M,CLR,M,M,M,M,M,M,M,M,M,M,M,M,M,M,68.00,KBAM 221255Z AUTO 05005KT 10SM CLR 20/10 A3012 RMK AO1,M
TMT,2024-07-22 12:55,-117.1971,39.4643,1749.34,59.00,48.00,66.83,0.00,0.00,0.00,30.23,M,10.00,M,CLR,M,M,M,M,M,M,M,M,M,M,M,M,M,M,59.00,KTMT 221255Z AUTO 00000KT 10SM CLR 15/09 A3023 RMK AO2 T01500088,M
INS,2024-07-22 12:55,-115.6733,36.5872,955.00,85.00,53.60,34.09,250.00,7.00,0.00,29.97,1008.30,10.00,M,BKN,M,M,M,13000.00,M,M,M,M,M,M,M,M,M,M,83.37,KINS 221255Z AUTO 25007KT 10SM BKN130 30/12 A2997 RMK AO2 SLP083 T02950120 $,M
LSV,2024-07-22 12:55,-115.0343,36.2362,570.00,93.00,59.40,32.66,110.00,3.00,0.00,29.82,1006.30,10.00,M,BKN,M,M,M,15000.00,M,M,M,M,M,M,M,M,M,M,92.51,KLSV 221255Z AUTO 11003KT 10SM BKN150 34/15 A2982 RMK AO2 SLP063 T03380152 $,M
EKO,2024-07-22 12:56,-115.7860,40.8242,1367.00,66.00,44.00,44.88,80.00,5.00,0.00,30.15,1014.50,10.00,M,CLR,M,M,M,M,M,M,M,M,M,M,M,M,M,M,66.00,KEKO 221256Z AUTO 08005KT 10SM CLR 19/07 A3015 RMK AO2 SLP145 T01890067,M
WMC,2024-07-22 12:56,-117.8072,40.9019,1315.00,74.00,50.00,42.82,0.00,0.00,0.00,30.08,1012.20,10.00,M,CLR,M,M,M,M,M,M,M,M,M,M,M,M,M,M,74.00,KWMC 221256Z AUTO 00000KT 10SM CLR 23/10 A3008 RMK AO2 SLP122 T02330100,M
HND,2024-07-22 12:56,-115.1344,35.9729,742.79,89.00,60.00,37.82,160.00,5.00,0.00,29.93,1011.30,10.00,M,CLR,M,M,M,M,M,M,M,M,M,M,M,M,M,M,88.63,KHND 221256Z AUTO 16005KT 10SM CLR 32/16 A2993 RMK AO2 SLP113 T03170156,M
TPH,2024-07-22 12:56,-117.0904,38.0505,1654.00,70.00,50.00,49.03,350.00,5.00,0.00,30.18,1014.20,10.00,M,OVC,M,M,M,11000.00,M,M,M,M,M,M,M,M,M,M,70.00,KTPH 221256Z AUTO 35005KT 10SM OVC110 21/10 A3018 RMK AO2 SLP142 T02110100,M
LAS,2024-07-22 12:56,-115.1634,36.0719,663.00,94.00,59.00,31.21,160.00,3.00,0.00,29.89,1005.00,10.00,M,BKN,M,M,M,15000.00,M,M,M,M,M,M,M,M,M,M,93.42,KLAS 221256Z 16003KT 10SM BKN150 34/15 A2989 RMK AO2 SLP050 VIRGA DSNT S AND NW T03440150 $,M
05U,2024-07-22 13:10,-116.0051,39.6042,1811.23,66.20,46.40,48.83,240.00,5.00,0.00,30.24,M,10.00,M,CLR,M,M,M,M,M,M,M,M,M,M,M,M,M,M,66.20,K05U 221310Z AUTO 24005KT 10SM CLR 19/08 A3024 RMK A01,M
BVU,2024-07-22 13:15,-114.8611,35.9475,671.00,87.80,60.80,40.41,50.00,3.00,0.00,29.89,M,10.00,M,CLR,M,M,M,M,M,M,M,M,M,M,M,M,M,M,87.75,KBVU 221315Z AUTO 05003KT 10SM CLR 31/16 A2989 RMK AO2,M
CXP,2024-07-22 13:15,-119.7326,39.1923,1431.00,66.20,50.00,55.88,270.00,5.00,0.00,30.15,M,10.00,M,CLR,M,M,M,M,M,M,M,M,M,M,M,M,M,M,66.20,KCXP 221315Z AUTO 27005KT 10SM CLR 19/10 A3015 RMK AO2,M
RTS,2024-07-22 13:15,-119.8764,39.6682,1539.00,64.40,46.40,51.98,350.00,3.00,0.00,30.16,M,10.00,M,CLR,M,M,M,M,M,M,M,M,M,M,M,M,M,M,64.40,KRTS 221315Z AUTO 35003KT 10SM CLR 18/08 A3016 RMK AO2,M
MEV,2024-07-22 13:15,-119.7500,38.9963,1441.42,59.00,53.60,82.25,0.00,0.00,0.00,30.14,M,8.00,M,CLR,M,M,M,M,M,M,M,M,M,M,M,M,M,M,59.00,KMEV 221315Z AUTO 00000KT 8SM CLR 15/12 A3014 RMK AO2,M
BAM,2024-07-22 13:15,-116.8743,40.5990,1382.36,68.00,50.00,52.51,150.00,3.00,0.00,30.12,M,10.00,M,CLR,M,M,M,M,M,M,M,M,M,M,M,M,M,M,68.00,KBAM 221315Z AUTO 15003KT 10SM CLR 20/10 A3012 RMK AO1,M
HTH,2024-07-22 13:15,-118.6315,38.5448,1282.89,71.60,51.80,49.64,0.00,0.00,0.00,30.11,M,10.00,M,CLR,M,M,M,M,M,M,M,M,M,M,M,M,M,M,71.60,KHTH 221315Z AUTO 00000KT 10SM CLR 22/11 A3011 RMK A01,M
10U,2024-07-22 13:15,-116.1876,41.9532,1637.00,64.40,41.00,42.28,0.00,0.00,0.00,30.17,M,10.00,M,CLR,M,M,M,M,M,M,M,M,M,M,M,M,M,M,64.40,K10U 221315Z AUTO 00000KT 10SM CLR 18/05 A3017 RMK AO2,M
TMT,2024-07-22 13:15,-117.1971,39.4643,1749.34,59.70,48.70,66.91,280.00,3.00,0.00,30.22,M,10.00,M,CLR,M,M,M,M,M,M,M,M,M,M,M,M,M,M,59.70,KTMT 221315Z AUTO 28003KT 10SM CLR 15/09 A3022 RMK AO2 T01540093,M
NFL,2024-07-22 13:29,-118.7010,39.4166,1199.00,69.00,52.00,54.64,140.00,3.00,0.00,30.06,M,10.00,M,SCT,SCT,SCT,M,8000.00,12000.00,18000.00,M,M,M,M,M,M,M,M,69.00,KNFL 221329Z 14003KT 10SM SCT080 SCT120 SCT180 21/11 A3006 RMK AO2 T02060111,M
05U,2024-07-22 13:30,-116.0051,39.6042,1811.23,68.00,44.60,42.85,240.00,3.00,0.00,30.25,M,10.00,M,CLR,M,M,M,M,M,M,M,M,M,M,M,M,M,M,68.00,K05U 221330Z AUTO 24003KT 10SM CLR 20/07 A3025 RMK A01,M
BVU,2024-07-22 13:35,-114.8611,35.9475,671.00,89.60,59.00,35.81,0.00,0.00,0.00,29.89,M,10.00,M,CLR,M,M,M,M,M,M,M,M,M,M,M,M,M,M,88.86,KBVU 221335Z AUTO 00000KT 10SM CLR 32/15 A2989 RMK AO2,M
CXP,2024-07-22 13:35,-119.7326,39.1923,1431.00,68.00,50.00,52.51,250.00,4.00,0.00,30.16,M,10.00,M,CLR,M,M,M,M,M,M,M,M,M,M,M,M,M,M,68.00,KCXP 221335Z AUTO 25004KT 10SM CLR 20/10 A3016 RMK AO2,M
RTS,2024-07-22 13:35,-119.8764,39.6682,1539.00,64.40,46.40,51.98,0.00,0.00,0.00,30.16,M,10.00,M,CLR,M,M,M,M,M,M,M,M,M,M,M,M,M,M,64.40,KRTS 221335Z AUTO 00000KT 10SM CLR 18/08 A3016 RMK AO2,M
MEV,2024-07-22 13:35,-119.7500,38.9963,1441.42,57.20,51.80,82.12,60.00,4.00,0.00,30.15,M,10.00,M,CLR,M,M,M,M,M,M,M,M,M,M,M,M,M,M,57.20,KMEV 221335Z AUTO 06004KT 10SM CLR 14/11 A3015 RMK AO2,M
BAM,2024-07-22 13:35,-116.8743,40.5990,1382.36,68.00,50.00,52.51,0.00,0.00,0.00,30.12,M,10.00,M,CLR,M,M,M,M,M,M,M,M,M,M,M,M,M,M,68.00,KBAM 221335Z AUTO 00000KT 10SM CLR 20/10 A3012 RMK AO1,M
HTH,2024-07-22 13:35,-118.6315,38.5448,1282.89,71.60,51.80,49.64,0.00,0.00,0.00,30.10,M,10.00,M,CLR,M,M,M,M,M,M,M,M,M,M,M,M,M,M,71.60,KHTH 221335Z AUTO 00000KT 10SM CLR 22/11 A3010 RMK A01,M
10U,2024-07-22 13:35,-116.1876,41.9532,1637.00,66.20,42.80,42.57,120.00,3.00,0.00,30.17,M,10.00,M,CLR,M,M,M,M,M,M,M,M,M,M,M,M,M,M,66.20,K10U 221335Z AUTO 12003KT 10SM CLR 19/06 A3017 RMK AO2,M
TMT,2024-07-22 13:35,-117.1971,39.4643,1749.34,62.80,50.00,62.93,0.00,0.00,0.00,30.22,M,10.00,M,CLR,M,M,M,M,M,M,M,M,M,M,M,M,M,M,62.80,KTMT 221335Z AUTO 00000KT 10SM CLR 17/10 A3022 RMK AO2 T01710101,M
05U,2024-07-22 13:50,-116.0051,39.6042,1811.23,66.20,46.40,48.83,0.00,0.00,0.00,30.25,M,10.00,M,CLR,M,M,M,M,M,M,M,M,M,M,M,M,M,M,66.20,K05U 221350Z AUTO 00000KT 10SM CLR 19/08 A3025 RMK A01,M
P68,2024-07-22 13:53,-116.0056,39.6014,1993.00,67.00,46.00,46.78,0.00,0.00,0.00,30.23,1014.20,M,M,M,M,M,M,M,M,M,M,M,M,M,M,M,M,M,67.00,KP68 221353Z AUTO 00000KT 19/08 A3023 RMK AO1 SLP142 T01940078,M
DRA,2024-07-22 13:53,-116.0278,36.6206,1009.00,86.00,54.00,33.50,0.00,0.00,0.00,29.99,1009.20,10.00,M,CLR,M,M,M,M,M,M,M,M,M,M,M,M,M,M,84.26,KDRA 221353Z AUTO 00000KT 10SM CLR 30/12 A2999 RMK AO2 SLP092 T03000122,M
ELY,2024-07-22 13:53,-114.8453,39.2950,1909.00,65.00,46.00,50.14,180.00,10.00,0.00,30.26,1013.40,10.00,M,CLR,M,M,M,M,M,M,M,M,M,M,M,M,M,M,65.00,KELY 221353Z AUTO 18010KT 10SM CLR 18/08 A3026 RMK AO2 SLP134 T01830078 $,M
VGT,2024-07-22 13:53,-115.1933,36.2111,667.00,95.00,59.00,30.26,330.00,4.00,0.00,29.89,1010.00,10.00,M,CLR,M,M,M,M,M,M,M,M,M,M,M,M,M,M,94.51,KVGT 221353Z 33004KT 10SM CLR 35/15 A2989 RMK AO2 SLP100 T03500150,M
LOL,2024-07-22 13:53,-118.5701,40.0684,1192.43,72.00,54.00,53.09,0.00,0.00,0.00,30.05,1012.70,10.00,M,CLR,M,M,M,M,M,M,M,M,M,M,M,M,M,M,72.00,KLOL 221353Z AUTO 00000KT 10SM CLR 22/12 A3005 RMK AO2 SLP127 T02220122,M
NFL,2024-07-22 13:54,-118.7010,39.4166,1199.00,72.00,52.00,49.33,150.00,5.00,0.00,30.06,1014.90,10.00,M,SCT,SCT,SCT,M,8000.00,12000.00,18000.00,M,M,M,M,M,M,M,M,72.00,KNFL 221354Z 15005KT 10SM SCT080 SCT120 SCT180 22/11 A3006 RMK AO2 SLP149 T02220111,M
BVU,2024-07-22 13:55,-114.8611,35.9475,671.00,91.40,57.20,31.72,0.00,0.00,0.00,29.89,M,10.00,M,CLR,M,M,M,M,M,M,M,M,M,M,M,M,M,M,90.06,KBVU 221355Z AUTO 00000KT 10SM CLR 33/14 A2989 RMK AO2,M
CXP,2024-07-22 13:55,-119.7326,39.1923,1431.00,68.00,50.00,52.51,0.00,0.00,0.00,30.16,M,10.00,M,CLR,M,M,M,M,M,M,M,M,M,M,M,M,M,M,68.00,KCXP 221355Z AUTO 00000KT 10SM CLR 20/10 A3016 RMK AO2,M
RNO,2024-07-22 13:55,-119.7711,39.4839,1341.00,72.00,54.00,53.09,0.00,0.00,0.00,30.11,1013.50,10.00,M,FEW,FEW,M,M,10000.00,14000.00,M,M,M,M,M,M,M,M,M,72.00,KRNO 221355Z 00000KT 10SM FEW100 FEW140 22/12 A3011 RMK AO2 SLP135 FU ALF ALQDS T02220122,M
RTS,2024-07-22 13:55,-119.8764,39.6682,1539.00,66.20,48.20,52.25,0.00,0.00,0.00,30.16,M,6.00,M,CLR,M,M,M,M,M,M,M,HZ,M,M,M,M,M,M,66.20,KRTS 221355Z AUTO 00000KT 6SM HZ CLR 19/09 A3016 RMK AO2,M
MEV,2024-07-22 13:55,-119.7500,38.9963,1441.42,59.00,51.80,76.98,110.00,4.00,0.00,30.15,M,10.00,M,CLR,M,M,M,M,M,M,M,M,M,M,M,M,M,M,59.00,KMEV 221355Z AUTO 11004KT 10SM CLR 15/11 A3015 RMK AO2,M
BAM,2024-07-22 13:55,-116.8743,40.5990,1382.36,68.00,50.00,52.51,140.00,3.00,0.00,30.12,M,10.00,M,CLR,M,M,M,M,M,M,M,M,M,M,M,M,M,M,68.00,KBAM 221355Z AUTO 14003KT 10SM CLR 20/10 A3012 RMK AO1,M
HTH,2024-07-22 13:55,-118.6315,38.5448,1282.89,75.20,50.00,41.14,0.00,0.00,0.00,30.11,M,10.00,M,CLR,M,M,M,M,M,M,M,M,M,M,M,M,M,M,75.20,KHTH 221355Z AUTO 00000KT 10SM CLR 24/10 A3011 RMK A01,M
10U,2024-07-22 13:55,-116.1876,41.9532,1637.00,69.80,44.60,40.29,0.00,0.00,0.00,30.18,M,10.00,M,CLR,M,M,M,M,M,M,M,M,M,M,M,M,M,M,69.80,K10U 221355Z AUTO 00000KT 10SM CLR 21/07 A3018 RMK AO2,M
TMT,2024-07-22 13:55,-117.1971,39.4643,1749.34,64.40,50.40,60.39,0.00,0.00,0.00,30.23,M,10.00,M,CLR,M,M,M,M,M,M,M,M,M,M,M,M,M,M,64.40,KTMT 221355Z AUTO 00000KT 10SM CLR 18/10 A3023 RMK AO2 T01800102,M
INS,2024-07-22 13:55,-115.6733,36.5872,955.00,85.00,54.00,34.59,270.00,5.00,0.00,29.98,1008.70,10.00,M,CLR,M,M,M,M,M,M,M,M,M,M,M,M,M,M,83.45,KINS 221355Z AUTO 27005KT 10SM CLR 29/12 A2998 RMK AO2 SLP087 T02940123 $,M
LSV,2024-07-22 13:55,-115.0343,36.2362,570.00,92.70,56.70,29.92,90.00,5.00,0.00,29.83,1006.60,10.00,M,FEW,M,M,M,20000.00,M,M,M,M,M,M,M,M,M,M,91.23,KLSV 221355Z AUTO 09005KT 10SM FEW200 34/14 A2983 RMK AO2 SLP066 T03370137 $,M
EKO,2024-07-22 13:56,-115.7860,40.8242,1367.00,70.00,45.00,40.63,70.00,3.00,0.00,30.15,1014.20,10.00,M,CLR,M,M,M,M,M,M,M,M,M,M,M,M,M,M,70.00,KEKO 221356Z AUTO 07003KT 10SM CLR 21/07 A3015 RMK AO2 SLP142 T02110072,M
WMC,2024-07-22 13:56,-117.8072,40.9019,1315.00,70.00,55.00,58.94,100.00,4.00,0.00,30.08,1012.80,10.00,M,CLR,M,M,M,M,M,M,M,M,M,M,M,M,M,M,70.00,KWMC 221356Z AUTO 10004KT 10SM CLR 21/13 A3008 RMK AO2 SLP128 T02110128,M
HND,2024-07-22 13:56,-115.1344,35.9729,742.79,90.00,59.00,35.36,180.00,9.00,0.00,29.93,1011.30,10.00,M,CLR,M,M,M,M,M,M,M,M,M,M,M,M,M,M,89.26,KHND 221356Z 18009KT 10SM CLR 32/15 A2993 RMK AO2 SLP113 T03220150,M
TPH,2024-07-22 13:56,-117.0904,38.0505,1654.00,74.00,51.00,44.44,340.00,5.00,0.00,30.19,1013.50,10.00,M,CLR,M,M,M,M,M,M,M,M,M,M,M,M,M,M,74.00,KTPH 221356Z AUTO 34005KT 10SM CLR 23/11 A3019 RMK AO2 SLP135 T02330106,M
LAS,2024-07-22 13:56,-115.1634,36.0719,663.00,95.00,58.00,29.20,M,4.00,T,29.89,1005.00,10.00,M,FEW,BKN,M,M,11000.00,15000.00,M,M,M,M,M,M,M,M,M,94.11,KLAS 221356Z VRB04KT 10SM FEW110 BKN150 35/14 A2989 RMK AO2 RAB28E37 SLP050 VIRGA E AND DSNT S AND W P0000 T03500144 $,M
05U,2024-07-22 14:10,-116.0051,39.6042,1811.23,66.20,46.40,48.83,0.00,0.00,0.00,30.25,M,10.00,M,CLR,M,M,M,M,M,M,M,M,M,M,M,M,M,M,66.20,K05U 221410Z AUTO 00000KT 10SM CLR 19/08 A3025 RMK A01,M
BVU,2024-07-22 14:15,-114.8611,35.9475,671.00,91.40,57.20,31.72,50.00,4.00,0.00,29.90,M,10.00,M,CLR,M,M,M,M,M,M,M,M,M,M,M,M,M,M,90.06,KBVU 221415Z AUTO 05004KT 10SM CLR 33/14 A2990 RMK AO2,M
CXP,2024-07-22 14:15,-119.7326,39.1923,1431.00,68.00,50.00,52.51,0.00,0.00,0.00,30.16,M,10.00,M,CLR,M,M,M,M,M,M,M,M,M,M,M,M,M,M,68.00,KCXP 221415Z AUTO 00000KT 10SM CLR 20/10 A3016 RMK AO2,M
RTS,2024-07-22 14:15,-119.8764,39.6682,1539.00,68.00,48.20,49.10,0.00,0.00,0.00,30.17,M,10.00,M,CLR,M,M,M,M,M,M,M,M,M,M,M,M,M,M,68.00,KRTS 221415Z AUTO 00000KT 10SM CLR 20/09 A3017 RMK AO2,M
MEV,2024-07-22 14:15,-119.7500,38.9963,1441.42,62.60,51.80,67.75,90.00,3.00,0.00,30.15,M,10.00,M,CLR,M,M,M,M,M,M,M,M,M,M,M,M,M,M,62.60,KMEV 221415Z AUTO 09003KT 10SM CLR 17/11 A3015 RMK AO2,M
BAM,2024-07-22 14:15,-116.8743,40.5990,1382.36,71.60,50.00,46.43,0.00,0.00,0.00,30.12,M,10.00,M,CLR,M,M,M,M,M,M,M,M,M,M,M,M,M,M,71.60,KBAM 221415Z AUTO 00000KT 10SM CLR 22/10 A3012 RMK AO1,M
HTH,2024-07-22 14:15,-118.6315,38.5448,1282.89,77.00,50.00,38.74,0.00,0.00,0.00,30.11,M,10.00,M,CLR,M,M,M,M,M,M,M,M,M,M,M,M,M,M,77.00,KHTH 221415Z AUTO 00000KT 10SM CLR 25/10 A3011 RMK A01,M
10U,2024-07-22 14:15,-116.1876,41.9532,1637.00,71.60,44.60,37.89,0.00,0.00,0.00,30.18,M,10.00,M,CLR,M,M,M,M,M,M,M,M,M,M,M,M,M,M,71.60,K10U 221415Z AUTO 00000KT 10SM CLR 22/07 A3018 RMK AO2,M
TMT,2024-07-22 14:15,-117.1971,39.4643,1749.34,67.00,50.00,54.35,260.00,3.00,0.00,30.23,M,10.00,M,CLR,M,M,M,M,M,M,M,M,M,M,M,M,M,M,67.00,KTMT 221415Z AUTO 26003KT 10SM CLR 20/10 A3023 RMK AO2 T01950101,M
CXP,2024-07-22 14:30,-119.7326,39.1923,1431.00,68.00,51.80,56.13,0.00,0.00,0.00,30.17,M,10.00,M,CLR,M,M,M,M,M,M,M,M,M,M,M,M,M,M,68.00,KCXP 221430Z AUTO 00000KT 10SM CLR 20/11 A3017 RMK AO2,M
05U,2024-07-22 14:30,-116.0051,39.6042,1811.23,68.00,48.20,49.10,310.00,3.00,0.00,30.26,M,10.00,M,CLR,M,M,M,M,M,M,M,M,M,M,M,M,M,M,68.00,K05U 221430Z AUTO 31003KT 10SM CLR 20/09 A3026 RMK A01,M
BVU,2024-07-22 14:35,-114.8611,35.9475,671.00,91.40,57.20,31.72,100.00,6.00,0.00,29.90,M,10.00,M,CLR,M,M,M,M,M,M,M,M,M,M,M,M,M,M,90.06,KBVU 221435Z AUTO 10006KT 10SM CLR 33/14 A2990 RMK AO2,M
RTS,2024-07-22 14:35,-119.8764,39.6682,1539.00,69.80,48.20,46.16,0.00,0.00,0.00,30.17,M,10.00,M,CLR,M,M,M,M,M,M,M,M,M,M,M,M,M,M,69.80,KRTS 221435Z AUTO 00000KT 10SM CLR 21/09 A3017 RMK AO2,M
MEV,2024-07-22 14:35,-119.7500,38.9963,1441.42,68.00,51.80,56.13,100.00,3.00,0.00,30.15,M,10.00,M,CLR,M,M,M,M,M,M,M,M,M,M,M,M,M,M,68.00,KMEV 221435Z AUTO 10003KT 10SM CLR 20/11 A3015 RMK AO2,M
BAM,2024-07-22 14:35,-116.8743,40.5990,1382.36,73.40,50.00,43.69,0.00,0.00,0.00,30.12,M,10.00,M,CLR,M,M,M,M,M,M,M,M,M,M,M,M,M,M,73.40,KBAM 221435Z AUTO 00000KT 10SM CLR 23/10 A3012 RMK AO1,M
HTH,2024-07-22 14:35,-118.6315,38.5448,1282.89,78.80,50.00,36.51,0.00,0.00,0.00,30.11,M,10.00,M,CLR,M,M,M,M,M,M,M,M,M,M,M,M,M,M,78.80,KHTH 221435Z AUTO 00000KT 10SM CLR 26/10 A3011 RMK A01,M
10U,2024-07-22 14:35,-116.1876,41.9532,1637.00,73.40,42.80,33.29,0.00,0.00,0.00,30.18,M,10.00,M,CLR,M,M,M,M,M,M,M,M,M,M,M,M,M,M,73.40,K10U 221435Z AUTO 00000KT 10SM CLR 23/06 A3018 RMK AO2,M
TMT,2024-07-22 14:35,-117.1971,39.4643,1749.34,68.70,49.60,50.51,0.00,0.00,0.00,30.22,M,10.00,M,CLR,M,M,M,M,M,M,M,M,M,M,M,M,M,M,68.70,KTMT 221435Z AUTO 00000KT 10SM CLR 20/10 A3022 RMK AO2 T02040098,M
05U,2024-07-22 14:50,-116.0051,39.6042,1811.23,68.00,48.20,49.10,0.00,0.00,0.00,30.26,M,10.00,M,CLR,M,M,M,M,M,M,M,M,M,M,M,M,M,M,68.00,K05U 221450Z AUTO 00000KT 10SM CLR 20/09 A3026 RMK A01,M
P68,2024-07-22 14:53,-116.0056,39.6014,1993.00,70.00,48.00,45.50,0.00,0.00,0.00,30.23,1014.70,M,M,M,M,M,M,M,M,M,M,M,M,M,M,M,M,M,70.00,KP68 221453Z AUTO 00000KT 21/09 A3023 RMK AO1 SLP147 T02110089 51007,M
DRA,2024-07-22 14:53,-116.0278,36.6206,1009.00,91.00,55.00,29.66,0.00,0.00,0.00,29.99,1009.10,10.00,M,CLR,M,M,M,M,M,M,M,M,M,M,M,M,M,M,89.03,KDRA 221453Z AUTO 00000KT 10SM CLR 33/13 A2999 RMK AO2 SLP091 T03280128 50003,M
ELY,2024-07-22 14:53,-114.8453,39.2950,1909.00,71.00,46.00,40.78,190.00,8.00,0.00,30.26,1013.00,10.00,M,CLR,M,M,M,M,M,M,M,M,M,M,M,M,M,M,71.00,KELY 221453Z AUTO 19008KT 10SM CLR 22/08 A3026 RMK AO2 SLP130 T02170078 51003 $,M
VGT,2024-07-22 14:53,-115.1933,36.2111,667.00,97.00,58.00,27.46,80.00,4.00,0.00,29.91,1010.70,10.00,M,CLR,M,M,M,M,M,M,M,M,M,M,M,M,M,M,96.30,KVGT 221453Z 08004KT 10SM CLR 36/14 A2991 RMK AO2 SLP107 T03610144 53008,M
LOL,2024-07-22 14:53,-118.5701,40.0684,1192.43,76.00,59.00,55.62,120.00,4.00,0.00,30.07,1013.40,10.00,M,CLR,M,M,M,M,M,M,M,M,M,M,M,M,M,M,76.00,KLOL 221453Z AUTO 12004KT 10SM CLR 24/15 A3007 RMK AO2 SLP134 T02440150 51008,M
NFL,2024-07-22 14:54,-118.7010,39.4166,1199.00,80.60,51.80,36.79,170.00,4.00,0.00,30.07,1015.00,10.00,M,FEW,SCT,SCT,M,8000.00,12000.00,18000.00,M,M,M,M,M,M,M,M,80.08,KNFL 221454Z COR 17004KT 10SM FEW080 SCT120 SCT180 27/11 A3007 TMK SLP150 T02720111 51008,M
BVU,2024-07-22 14:55,-114.8611,35.9475,671.00,93.20,55.40,28.10,120.00,7.00,0.00,29.91,M,10.00,M,CLR,M,M,M,M,M,M,M,M,M,M,M,M,M,M,91.35,KBVU 221455Z AUTO 12007KT 10SM CLR 34/13 A2991 RMK AO2,M
CXP,2024-07-22 14:55,-119.7326,39.1923,1431.00,69.80,51.80,52.77,0.00,0.00,0.00,30.17,M,10.00,M,CLR,M,M,M,M,M,M,M,M,M,M,M,M,M,M,69.80,KCXP 221455Z AUTO 00000KT 10SM CLR 21/11 A3017 RMK AO2,M
RNO,2024-07-22 14:55,-119.7711,39.4839,1341.00,76.00,53.00,44.75,0.00,0.00,0.00,30.12,1013.50,10.00,M,FEW,M,M,M,11000.00,M,M,M,M,M,M,M,M,M,M,76.00,KRNO 221455Z 00000KT 10SM FEW110 24/12 A3012 RMK AO2 SLP135 FU ALF ALQDS T02440117 51004,M
LSV,2024-07-22 14:55,-115.0343,36.2362,570.00,97.00,55.20,24.81,110.00,4.00,0.00,29.85,1007.30,10.00,M,CLR,M,M,M,M,M,M,M,M,M,M,M,M,M,M,95.29,KLSV 221455Z AUTO 11004KT 10SM CLR 36/13 A2985 RMK AO2 SLP073 T03610129 53009 $,M
RTS,2024-07-22 14:55,-119.8764,39.6682,1539.00,71.60,48.20,43.42,0.00,0.00,0.00,30.17,M,10.00,M,CLR,M,M,M,M,M,M,M,M,M,M,M,M,M,M,71.60,KRTS 221455Z AUTO 00000KT 10SM CLR 22/09 A3017 RMK AO2,M
MEV,2024-07-22 14:55,-119.7500,38.9963,1441.42,69.80,53.60,56.38,0.00,0.00,0.00,30.15,M,10.00,M,CLR,M,M,M,M,M,M,M,M,M,M,M,M,M,M,69.80,KMEV 221455Z AUTO 00000KT 10SM CLR 21/12 A3015 RMK AO2,M
BAM,2024-07-22 14:55,-116.8743,40.5990,1382.36,73.40,51.80,46.71,0.00,0.00,0.00,30.13,M,10.00,M,CLR,M,M,M,M,M,M,M,M,M,M,M,M,M,M,73.40,KBAM 221455Z AUTO 00000KT 10SM CLR 23/11 A3013 RMK AO1,M
HTH,2024-07-22 14:55,-118.6315,38.5448,1282.89,78.80,50.00,36.51,0.00,0.00,0.00,30.11,M,10.00,M,CLR,M,M,M,M,M,M,M,M,M,M,M,M,M,M,78.80,KHTH 221455Z AUTO 00000KT 10SM CLR 26/10 A3011 RMK A01,M
10U,2024-07-22 14:55,-116.1876,41.9532,1637.00,75.20,42.80,31.34,0.00,0.00,0.00,30.18,M,10.00,M,CLR,M,M,M,M,M,M,M,M,M,M,M,M,M,M,75.20,K10U 221455Z AUTO 00000KT 10SM CLR 24/06 A3018 RMK AO2,M
TMT,2024-07-22 14:55,-117.1971,39.4643,1749.34,71.20,50.70,48.31,0.00,0.00,0.00,30.22,M,10.00,M,CLR,M,M,M,M,M,M,M,M,M,M,M,M,M,M,71.20,KTMT 221455Z AUTO 00000KT 10SM CLR 22/10 A3022 RMK AO2 T02180104,M
INS,2024-07-22 14:55,-115.6733,36.5872,955.00,85.30,53.80,34.01,50.00,3.00,0.00,29.99,1009.10,10.00,M,CLR,M,M,M,M,M,M,M,M,M,M,M,M,M,M,83.65,KINS 221455Z AUTO 05003KT 10SM CLR 30/12 A2999 RMK AO2 SLP091 T02960121 52009 $,M
EKO,2024-07-22 14:56,-115.7860,40.8242,1367.00,75.00,46.00,35.64,50.00,3.00,0.00,30.16,1014.40,10.00,M,CLR,M,M,M,M,M,M,M,M,M,M,M,M,M,M,75.00,KEKO 221456Z AUTO 05003KT 10SM CLR 24/08 A3016 RMK AO2 SLP144 T02390078 51003,M
WMC,2024-07-22 14:56,-117.8072,40.9019,1315.00,82.00,51.00,34.12,0.00,0.00,0.00,30.09,1012.50,10.00,M,CLR,M,M,M,M,M,M,M,M,M,M,M,M,M,M,80.84,KWMC 221456Z AUTO 00000KT 10SM CLR 28/11 A3009 RMK AO2 SLP125 T02780106 51008,M
HND,2024-07-22 14:56,-115.1344,35.9729,742.79,92.00,59.00,33.21,0.00,0.00,0.00,29.95,1011.90,10.00,M,CLR,M,M,M,M,M,M,M,M,M,M,M,M,M,M,91.30,KHND 221456Z 00000KT 10SM CLR 33/15 A2995 RMK AO2 SLP119 T03330150 53007,M
TPH,2024-07-22 14:56,-117.0904,38.0505,1654.00,78.00,50.00,37.48,0.00,0.00,0.00,30.20,1013.60,10.00,M,CLR,M,M,M,M,M,M,M,M,M,M,M,M,M,M,78.00,KTPH 221456Z AUTO 00000KT 10SM CLR 26/10 A3020 RMK AO2 SLP136 T02560100 51010,M
LAS,2024-07-22 14:56,-115.1634,36.0719,663.00,96.00,60.00,30.41,90.00,8.00,0.00,29.91,1005.70,10.00,M,FEW,SCT,M,M,11000.00,15000.00,M,M,M,M,M,M,M,M,M,96.05,KLAS 221456Z 09008KT 10SM FEW110 SCT150 36/16 A2991 RMK AO2 SLP057 60000 T03560156 53009 $,M
05U,2024-07-22 15:10,-116.0051,39.6042,1811.23,69.80,48.20,46.16,0.00,0.00,0.00,30.26,M,10.00,M,CLR,M,M,M,M,M,M,M,M,M,M,M,M,M,M,69.80,K05U 221510Z AUTO 00000KT 10SM CLR 21/09 A3026 RMK A01,M
BVU,2024-07-22 15:15,-114.8611,35.9475,671.00,95.00,55.40,26.58,160.00,8.00,0.00,29.91,M,10.00,M,CLR,M,M,M,M,M,M,M,M,M,M,M,M,M,M,93.22,KBVU 221515Z AUTO 16008KT 10SM CLR 35/13 A2991 RMK AO2,M
CXP,2024-07-22 15:15,-119.7326,39.1923,1431.00,71.60,50.00,46.43,0.00,0.00,0.00,30.17,M,10.00,M,CLR,M,M,M,M,M,M,M,M,M,M,M,M,M,M,71.60,KCXP 221515Z AUTO 00000KT 10SM CLR 22/10 A3017 RMK AO2,M
RTS,2024-07-22 15:15,-119.8764,39.6682,1539.00,73.40,48.20,40.85,0.00,0.00,0.00,30.17,M,10.00,M,CLR,M,M,M,M,M,M,M,M,M,M,M,M,M,M,73.40,KRTS 221515Z AUTO 00000KT 10SM CLR 23/09 A3017 RMK AO2,M
MEV,2024-07-22 15:15,-119.7500,38.9963,1441.42,69.80,51.80,52.77,0.00,0.00,0.00,30.15,M,10.00,M,CLR,M,M,M,M,M,M,M,M,M,M,M,M,M,M,69.80,KMEV 221515Z AUTO 00000KT 10SM CLR 21/11 A3015 RMK AO2,M
HTH,2024-07-22 15:15,-118.6315,38.5448,1282.89,80.60,50.00,34.41,0.00,0.00,0.00,30.11,M,10.00,M,CLR,M,M,M,M,M,M,M,M,M,M,M,M,M,M,79.88,KHTH 221515Z AUTO 00000KT 10SM CLR 27/10 A3011 RMK A01,M
10U,2024-07-22 15:15,-116.1876,41.9532,1637.00,75.20,46.40,35.94,0.00,0.00,0.00,30.18,M,10.00,M,CLR,M,M,M,M,M,M,M,M,M,M,M,M,M,M,75.20,K10U 221515Z AUTO 00000KT 10SM CLR 24/08 A3018 RMK AO2,M
BAM,2024-07-22 15:15,-116.8743,40.5990,1382.36,75.20,51.80,43.97,0.00,0.00,0.00,30.13,M,10.00,M,CLR,M,M,M,M,M,M,M,M,M,M,M,M,M,M,75.20,KBAM 221515Z AUTO 00000KT 10SM CLR 24/11 A3013 RMK AO1,M
TMT,2024-07-22 15:15,-117.1971,39.4643,1749.34,73.80,50.00,43.11,0.00,0.00,0.00,30.22,M,10.00,M,CLR,M,M,M,M,M,M,M,M,M,M,M,M,M,M,73.80,KTMT 221515Z AUTO 00000KT 10SM CLR 23/10 A3022 RMK AO2 T02320100,M
05U,2024-07-22 15:30,-116.0051,39.6042,1811.23,73.40,48.20,40.85,0.00,0.00,0.00,30.26,M,10.00,M,CLR,M,M,M,M,M,M,M,M,M,M,M,M,M,M,73.40,K05U 221530Z AUTO 00000KT 10SM CLR 23/09 A3026 RMK A01,M
BVU,2024-07-22 15:35,-114.8611,35.9475,671.00,95.00,57.20,28.37,130.00,9.00,0.00,29.91,M,10.00,M,CLR,M,M,M,M,M,M,M,M,M,M,M,M,M,M,93.82,KBVU 221535Z AUTO 13009KT 10SM CLR 35/14 A2991 RMK AO2,M
CXP,2024-07-22 15:35,-119.7326,39.1923,1431.00,73.40,50.00,43.69,310.00,3.00,0.00,30.17,M,10.00,M,CLR,M,M,M,M,M,M,M,M,M,M,M,M,M,M,73.40,KCXP 221535Z AUTO 31003KT 10SM CLR 23/10 A3017 RMK AO2,M
RTS,2024-07-22 15:35,-119.8764,39.6682,1539.00,75.20,48.20,38.46,0.00,0.00,0.00,30.17,M,10.00,M,CLR,M,M,M,M,M,M,M,M,M,M,M,M,M,M,75.20,KRTS 221535Z AUTO 00000KT 10SM CLR 24/09 A3017 RMK AO2,M
MEV,2024-07-22 15:35,-119.7500,38.9963,1441.42,71.60,51.80,49.64,0.00,0.00,0.00,30.15,M,9.00,M,CLR,M,M,M,M,M,M,M,M,M,M,M,M,M,M,71.60,KMEV 221535Z AUTO 00000KT 9SM CLR 22/11 A3015 RMK AO2,M
HTH,2024-07-22 15:35,-118.6315,38.5448,1282.89,80.60,50.00,34.41,310.00,3.00,0.00,30.11,M,10.00,M,CLR,M,M,M,M,M,M,M,M,M,M,M,M,M,M,79.88,KHTH 221535Z AUTO 31003KT 10SM CLR 27/10 A3011 RMK A01,M
10U,2024-07-22 15:35,-116.1876,41.9532,1637.00,77.00,44.60,31.62,0.00,0.00,0.00,30.17,M,10.00,M,CLR,M,M,M,M,M,M,M,M,M,M,M,M,M,M,77.00,K10U 221535Z AUTO 00000KT 10SM CLR 25/07 A3017 RMK AO2,M
BAM,2024-07-22 15:35,-116.8743,40.5990,1382.36,78.80,51.80,39.02,0.00,0.00,0.00,30.13,M,10.00,M,CLR,M,M,M,M,M,M,M,M,M,M,M,M,M,M,78.80,KBAM 221535Z AUTO 00000KT 10SM CLR 26/11 A3013 RMK AO1,M
TMT,2024-07-22 15:35,-117.1971,39.4643,1749.34,76.30,51.60,42.08,0.00,0.00,0.00,30.22,M,10.00,M,CLR,M,M,M,M,M,M,M,M,M,M,M,M,M,M,76.30,KTMT 221535Z AUTO 00000KT 10SM CLR 25/11 A3022 RMK AO2 T02460109,M
P68,2024-07-22 15:53,-116.0056,39.6014,1993.00,78.00,46.00,32.26,0.00,0.00,0.00,30.23,1014.40,M,M,M,M,M,M,M,M,M,M,M,M,M,M,M,M,M,78.00,KP68 221553Z AUTO 00000KT 26/08 A3023 RMK AO1 SLP144 T02560078,M
DRA,2024-07-22 15:53,-116.0278,36.6206,1009.00,95.00,54.00,25.26,110.00,6.00,0.00,29.99,1009.20,10.00,M,CLR,M,M,M,M,M,M,M,M,M,M,M,M,M,M,92.82,KDRA 221553Z AUTO 11006KT 10SM CLR 35/12 A2999 RMK AO2 SLP092 T03500122,M
ELY,2024-07-22 15:53,-114.8453,39.2950,1909.00,76.00,47.00,35.80,130.00,5.00,0.00,30.26,1013.10,10.00,M,CLR,M,M,M,M,M,M,M,M,M,M,M,M,M,M,76.00,KELY 221553Z AUTO 13005KT 10SM CLR 24/08 A3026 RMK AO2 SLP131 T02440083 $,M
VGT,2024-07-22 15:53,-115.1933,36.2111,667.00,98.00,58.00,26.63,140.00,8.00,0.00,29.91,1010.90,10.00,M,CLR,M,M,M,M,M,M,M,M,M,M,M,M,M,M,97.42,KVGT 221553Z 14008KT 10SM CLR 37/14 A2991 RMK AO2 SLP109 T03670144,M
LOL,2024-07-22 15:53,-118.5701,40.0684,1192.43,83.00,52.00,34.28,0.00,0.00,0.00,30.07,1012.80,10.00,M,CLR,M,M,M,M,M,M,M,M,M,M,M,M,M,M,81.64,KLOL 221553Z AUTO 00000KT 10SM CLR 28/11 A3007 RMK AO2 SLP128 T02830111,M
NFL,2024-07-22 15:54,-118.7010,39.4166,1199.00,85.00,51.00,30.97,230.00,4.00,0.00,30.07,1015.10,10.00,M,FEW,FEW,SCT,M,8000.00,12000.00,18000.00,M,M,M,M,M,M,M,M,82.97,KNFL 221554Z 23004KT 10SM FEW080 FEW120 SCT180 29/11 A3007 RMK AO2 SLP151 T02940106,M
BVU,2024-07-22 15:55,-114.8611,35.9475,671.00,96.80,57.20,26.84,140.00,7.00,0.00,29.90,M,10.00,M,CLR,M,M,M,M,M,M,M,M,M,M,M,M,M,M,95.77,KBVU 221555Z AUTO 14007KT 10SM CLR 36/14 A2990 RMK AO2,M
CXP,2024-07-22 15:55,-119.7326,39.1923,1431.00,75.20,50.00,41.14,0.00,0.00,0.00,30.16,M,10.00,M,CLR,M,M,M,M,M,M,M,M,M,M,M,M,M,M,75.20,KCXP 221555Z AUTO 00000KT 10SM CLR 24/10 A3016 RMK AO2,M
RNO,2024-07-22 15:55,-119.7711,39.4839,1341.00,78.00,52.00,40.36,M,3.00,0.00,30.11,1013.40,10.00,M,FEW,M,M,M,11000.00,M,M,M,M,M,M,M,M,M,M,78.00,KRNO 221555Z VRB03KT 10SM FEW110 26/11 A3011 RMK AO2 SLP134 T02560111,M
RTS,2024-07-22 15:55,-119.8764,39.6682,1539.00,78.80,48.20,34.13,140.00,3.00,0.00,30.17,M,10.00,M,CLR,M,M,M,M,M,M,M,M,M,M,M,M,M,M,78.80,KRTS 221555Z AUTO 14003KT 10SM CLR 26/09 A3017 RMK AO2,M
05U,2024-07-22 15:55,-116.0051,39.6042,1811.23,78.80,46.40,31.90,0.00,0.00,0.00,30.26,M,10.00,M,CLR,M,M,M,M,M,M,M,M,M,M,M,M,M,M,78.80,K05U 221555Z AUTO 00000KT 10SM CLR 26/08 A3026 RMK A01,M
MEV,2024-07-22 15:55,-119.7500,38.9963,1441.42,75.20,50.00,41.14,0.00,0.00,0.00,30.15,M,10.00,M,CLR,M,M,M,M,M,M,M,M,M,M,M,M,M,M,75.20,KMEV 221555Z AUTO 00000KT 10SM CLR 24/10 A3015 RMK AO2,M
HTH,2024-07-22 15:55,-118.6315,38.5448,1282.89,82.40,48.20,30.35,0.00,0.00,0.00,30.11,M,10.00,M,CLR,M,M,M,M,M,M,M,M,M,M,M,M,M,M,80.80,KHTH 221555Z AUTO 00000KT 10SM CLR 28/09 A3011 RMK A01,M
BAM,2024-07-22 15:55,-116.8743,40.5990,1382.36,82.40,51.80,34.69,0.00,0.00,0.00,30.13,M,10.00,M,CLR,M,M,M,M,M,M,M,M,M,M,M,M,M,M,81.20,KBAM 221555Z AUTO 00000KT 10SM CLR 28/11 A3013 RMK AO1,M
TMT,2024-07-22 15:55,-117.1971,39.4643,1749.34,79.30,50.00,35.91,190.00,4.00,0.00,30.23,M,10.00,M,CLR,M,M,M,M,M,M,M,M,M,M,M,M,M,M,79.30,KTMT 221555Z AUTO 19004KT 10SM CLR 26/10 A3023 RMK AO2 T02630099,M
10U,2024-07-22 15:55,-116.1876,41.9532,1637.00,78.80,42.80,27.81,200.00,4.00,0.00,30.17,M,10.00,M,CLR,M,M,M,M,M,M,M,M,M,M,M,M,M,M,78.80,K10U 221555Z AUTO 20004KT 10SM CLR 26/06 A3017 RMK AO2,M
INS,2024-07-22 15:55,-115.6733,36.5872,955.00,92.00,54.00,27.72,0.00,0.00,0.00,29.98,1008.60,10.00,M,CLR,M,M,M,M,M,M,M,M,M,M,M,M,M,M,89.76,KINS 221555Z AUTO 00000KT 10SM CLR 33/12 A2998 RMK AO2 SLP086 T03330123 $,M
LSV,2024-07-22 15:55,-115.0343,36.2362,570.00,98.40,54.00,22.76,100.00,6.00,0.00,29.85,1007.30,10.00,M,CLR,M,M,M,M,M,M,M,M,M,M,M,M,M,M,96.42,KLSV 221555Z AUTO 10006KT 10SM CLR 37/12 A2985 RMK AO2 SLP073 T03690123 $,M
EKO,2024-07-22 15:56,-115.7860,40.8242,1367.00,80.00,47.00,31.37,0.00,0.00,0.00,30.16,1014.10,10.00,M,CLR,M,M,M,M,M,M,M,M,M,M,M,M,M,M,79.28,KEKO 221556Z AUTO 00000KT 10SM CLR 27/08 A3016 RMK AO2 SLP141 T02670083,M
WMC,2024-07-22 15:56,-117.8072,40.9019,1315.00,87.00,49.00,26.97,0.00,0.00,0.00,30.09,1012.40,10.00,M,CLR,M,M,M,M,M,M,M,M,M,M,M,M,M,M,84.30,KWMC 221556Z AUTO 00000KT 10SM CLR 31/09 A3009 RMK AO2 SLP124 T03060094,M
HND,2024-07-22 15:56,-115.1344,35.9729,742.79,95.00,59.00,30.26,0.00,0.00,0.00,29.96,1012.10,10.00,M,CLR,M,M,M,M,M,M,M,M,M,M,M,M,M,M,94.51,KHND 221556Z 00000KT 10SM CLR 35/15 A2996 RMK AO2 SLP121 T03500150,M
TPH,2024-07-22 15:56,-117.0904,38.0505,1654.00,83.00,49.00,30.67,0.00,0.00,0.00,30.20,1013.00,10.00,M,CLR,M,M,M,M,M,M,M,M,M,M,M,M,M,M,81.28,KTPH 221556Z AUTO 00000KT 10SM CLR 28/09 A3020 RMK AO2 SLP130 T02830094,M
LAS,2024-07-22 15:56,-115.1634,36.0719,663.00,97.00,58.00,27.46,110.00,4.00,0.00,29.93,1006.50,10.00,M,FEW,SCT,M,M,11000.00,15000.00,M,M,M,M,M,M,M,M,M,96.30,KLAS 221556Z 11004KT 10SM FEW110 SCT150 36/14 A2993 RMK AO2 SLP065 T03610144 $,M
05U,2024-07-22 16:10,-116.0051,39.6042,1811.23,78.80,44.60,29.79,0.00,0.00,0.00,30.26,M,10.00,M,CLR,M,M,M,M,M,M,M,M,M,M,M,M,M,M,78.80,K05U 221610Z AUTO 00000KT 10SM CLR 26/07 A3026 RMK A01,M
BVU,2024-07-22 16:15,-114.8611,35.9475,671.00,96.80,57.20,26.84,150.00,6.00,0.00,29.90,M,10.00,13.00,CLR,M,M,M,M,M,M,M,M,M,M,M,M,M,M,95.77,KBVU 221615Z AUTO 15006G13KT 10SM CLR 36/14 A2990 RMK AO2,M
CXP,2024-07-22 16:15,-119.7326,39.1923,1431.00,77.00,50.00,38.74,0.00,0.00,0.00,30.16,M,10.00,M,CLR,M,M,M,M,M,M,M,M,M,M,M,M,M,M,77.00,KCXP 221615Z AUTO 00000KT 10SM CLR 25/10 A3016 RMK AO2,M
RTS,2024-07-22 16:15,-119.8764,39.6682,1539.00,78.80,48.20,34.13,0.00,0.00,0.00,30.16,M,10.00,M,CLR,M,M,M,M,M,M,M,M,M,M,M,M,M,M,78.80,KRTS 221615Z AUTO 00000KT 10SM CLR 26/09 A3016 RMK AO2,M
MEV,2024-07-22 16:15,-119.7500,38.9963,1441.42,78.80,50.00,36.51,0.00,0.00,0.00,30.14,M,10.00,M,CLR,M,M,M,M,M,M,M,M,M,M,M,M,M,M,78.80,KMEV 221615Z AUTO 00000KT 10SM CLR 26/10 A3014 RMK AO2,M
BAM,2024-07-22 16:15,-116.8743,40.5990,1382.36,86.00,50.00,28.90,0.00,0.00,0.00,30.13,M,10.00,M,CLR,M,M,M,M,M,M,M,M,M,M,M,M,M,M,83.62,KBAM 221615Z AUTO 00000KT 10SM CLR 30/10 A3013 RMK AO1,M
HTH,2024-07-22 16:15,-118.6315,38.5448,1282.89,84.20,48.20,28.63,0.00,0.00,0.00,30.11,M,10.00,M,CLR,M,M,M,M,M,M,M,M,M,M,M,M,M,M,82.04,KHTH 221615Z AUTO 00000KT 10SM CLR 29/09 A3011 RMK A01,M
10U,2024-07-22 16:15,-116.1876,41.9532,1637.00,82.40,42.80,24.72,0.00,0.00,0.00,30.17,M,10.00,M,CLR,M,M,M,M,M,M,M,M,M,M,M,M,M,M,80.39,K10U 221615Z AUTO 00000KT 10SM CLR 28/06 A3017 RMK AO2,M
TMT,2024-07-22 16:15,-117.1971,39.4643,1749.34,81.50,48.20,31.25,180.00,5.00,0.00,30.22,M,10.00,M,CLR,M,M,M,M,M,M,M,M,M,M,M,M,M,M,80.24,KTMT 221615Z AUTO 18005KT 10SM CLR 28/09 A3022 RMK AO2 T02750090,M
05U,2024-07-22 16:30,-116.0051,39.6042,1811.23,82.40,44.60,26.49,0.00,0.00,0.00,30.25,M,10.00,M,CLR,M,M,M,M,M,M,M,M,M,M,M,M,M,M,80.50,K05U 221630Z AUTO 00000KT 10SM CLR 28/07 A3025 RMK A01,M
BVU,2024-07-22 16:35,-114.8611,35.9475,671.00,96.80,57.20,26.84,M,3.00,0.00,29.90,M,10.00,M,CLR,M,M,M,M,M,M,M,M,M,M,M,M,M,M,95.77,KBVU 221635Z AUTO VRB03KT 10SM CLR 36/14 A2990 RMK AO2,M
CXP,2024-07-22 16:35,-119.7326,39.1923,1431.00,80.60,48.20,32.18,0.00,0.00,0.00,30.15,M,10.00,M,CLR,M,M,M,M,M,M,M,M,M,M,M,M,M,M,79.71,KCXP 221635Z AUTO 00000KT 10SM CLR 27/09 A3015 RMK AO2,M
RTS,2024-07-22 16:35,-119.8764,39.6682,1539.00,82.40,48.20,30.35,110.00,5.00,0.00,30.16,M,10.00,M,CLR,M,M,M,M,M,M,M,M,M,M,M,M,M,M,80.80,KRTS 221635Z AUTO 11005KT 10SM CLR 28/09 A3016 RMK AO2,M
MEV,2024-07-22 16:35,-119.7500,38.9963,1441.42,80.60,51.80,36.79,M,3.00,0.00,30.14,M,10.00,M,CLR,M,M,M,M,M,M,M,M,M,M,M,M,M,M,80.08,KMEV 221635Z AUTO VRB03KT 10SM CLR 27/11 A3014 RMK AO2,M
HTH,2024-07-22 16:35,-118.6315,38.5448,1282.89,84.20,48.20,28.63,0.00,0.00,0.00,30.11,M,10.00,M,CLR,M,M,M,M,M,M,M,M,M,M,M,M,M,M,82.04,KHTH 221635Z AUTO 00000KT 10SM CLR 29/09 A3011 RMK A01,M
10U,2024-07-22 16:35,-116.1876,41.9532,1637.00,84.20,42.80,23.33,0.00,0.00,0.00,30.17,M,10.00,M,CLR,M,M,M,M,M,M,M,M,M,M,M,M,M,M,81.61,K10U 221635Z AUTO 00000KT 10SM CLR 29/06 A3017 RMK AO2,M
BAM,2024-07-22 16:35,-116.8743,40.5990,1382.36,87.80,51.80,29.18,0.00,0.00,0.00,30.13,M,10.00,M,CLR,M,M,M,M,M,M,M,M,M,M,M,M,M,M,85.39,KBAM 221635Z AUTO 00000KT 10SM CLR 31/11 A3013 RMK AO1,M
TMT,2024-07-22 16:35,-117.1971,39.4643,1749.34,82.00,49.00,31.68,260.00,4.00,0.00,30.22,M,10.00,M,CLR,M,M,M,M,M,M,M,M,M,M,M,M,M,M,80.62,KTMT 221635Z AUTO 26004KT 10SM CLR 28/09 A3022 RMK AO2 T02770094,M
05U,2024-07-22 16:50,-116.0051,39.6042,1811.23,84.20,44.60,24.99,0.00,0.00,0.00,30.25,M,10.00,M,CLR,M,M,M,M,M,M,M,M,M,M,M,M,M,M,81.73,K05U 221650Z AUTO 00000KT 10SM CLR 29/07 A3025 RMK A01,M
CXP,2024-07-22 16:50,-119.7326,39.1923,1431.00,82.40,50.00,32.46,0.00,0.00,0.00,30.15,M,10.00,M,CLR,M,M,M,M,M,M,M,M,M,M,M,M,M,M,80.99,KCXP 221650Z AUTO 00000KT 10SM CLR 28/10 A3015 RMK AO2,M
P68,2024-07-22 16:53,-116.0056,39.6014,1993.00,85.00,45.00,24.73,70.00,3.00,0.00,30.21,1013.90,M,M,M,M,M,M,M,M,M,M,M,M,M,M,M,M,M,82.34,KP68 221653Z AUTO 07003KT 29/07 A3021 RMK AO1 SLP139 T02940072,M
DRA,2024-07-22 16:53,-116.0278,36.6206,1009.00,97.00,53.00,22.90,M,3.00,0.00,29.98,1009.00,10.00,M,CLR,M,M,M,M,M,M,M,M,M,M,M,M,M,M,94.64,KDRA 221653Z AUTO VRB03KT 10SM CLR 36/12 A2998 RMK AO2 SLP090 T03610117,M
ELY,2024-07-22 16:53,-114.8453,39.2950,1909.00,84.00,45.00,25.54,M,4.00,0.00,30.25,1012.30,10.00,M,BKN,M,M,M,12000.00,M,M,M,M,M,M,M,M,M,M,81.61,KELY 221653Z AUTO VRB04KT 10SM BKN120 29/07 A3025 RMK AO2 SLP123 T02890072 $,M
VGT,2024-07-22 16:53,-115.1933,36.2111,667.00,99.00,57.00,24.92,0.00,0.00,0.00,29.91,1010.80,10.00,M,CLR,M,M,M,M,M,M,M,M,M,M,M,M,M,M,98.12,KVGT 221653Z 00000KT 10SM CLR 37/14 A2991 RMK AO2 SLP108 T03720139,M
LOL,2024-07-22 16:53,-118.5701,40.0684,1192.43,88.00,53.00,30.30,140.00,6.00,0.00,30.06,1012.50,10.00,M,CLR,M,M,M,M,M,M,M,M,M,M,M,M,M,M,85.78,KLOL 221653Z AUTO 14006KT 10SM CLR 31/12 A3006 RMK AO2 SLP125 T03110117,M
NFL,2024-07-22 16:54,-118.7010,39.4166,1199.00,87.00,50.00,28.00,0.00,0.00,0.00,30.06,1014.80,10.00,M,FEW,FEW,SCT,M,8000.00,12000.00,18000.00,M,M,M,M,M,M,M,M,84.43,KNFL 221654Z 00000KT 10SM FEW080 FEW120 SCT180 31/10 A3006 RMK AO2 SLP148 T03060100,M
BVU,2024-07-22 16:55,-114.8611,35.9475,671.00,98.60,57.20,25.41,M,6.00,0.00,29.90,M,10.00,M,CLR,M,M,M,M,M,M,M,M,M,M,M,M,M,M,97.76,KBVU 221655Z AUTO VRB06KT 10SM CLR 37/14 A2990 RMK AO2,M
RNO,2024-07-22 16:55,-119.7711,39.4839,1341.00,85.00,50.00,29.85,0.00,0.00,0.00,30.10,1012.60,10.00,M,FEW,M,M,M,11000.00,M,M,M,M,M,M,M,M,M,M,82.83,KRNO 221655Z 00000KT 10SM FEW110 29/10 A3010 RMK AO2 SLP126 T02940100,M
RTS,2024-07-22 16:55,-119.8764,39.6682,1539.00,84.20,46.40,26.76,100.00,5.00,0.00,30.16,M,10.00,M,CLR,M,M,M,M,M,M,M,M,M,M,M,M,M,M,81.87,KRTS 221655Z AUTO 10005KT 10SM CLR 29/08 A3016 RMK AO2,M
MEV,2024-07-22 16:55,-119.7500,38.9963,1441.42,82.40,51.80,34.69,0.00,0.00,0.00,30.14,M,10.00,M,CLR,M,M,M,M,M,M,M,M,M,M,M,M,M,M,81.20,KMEV 221655Z AUTO 00000KT 10SM CLR 28/11 A3014 RMK AO2,M
BAM,2024-07-22 16:55,-116.8743,40.5990,1382.36,87.80,50.00,27.29,0.00,0.00,0.00,30.12,M,10.00,M,CLR,M,M,M,M,M,M,M,M,M,M,M,M,M,M,85.11,KBAM 221655Z AUTO 00000KT 10SM CLR 31/10 A3012 RMK AO1,M
HTH,2024-07-22 16:55,-118.6315,38.5448,1282.89,86.00,48.20,27.03,0.00,0.00,0.00,30.10,M,10.00,M,CLR,M,M,M,M,M,M,M,M,M,M,M,M,M,M,83.40,KHTH 221655Z AUTO 00000KT 10SM CLR 30/09 A3010 RMK A01,M
10U,2024-07-22 16:55,-116.1876,41.9532,1637.00,84.20,42.80,23.33,M,6.00,0.00,30.17,M,10.00,M,CLR,M,M,M,M,M,M,M,M,M,M,M,M,M,M,81.61,K10U 221655Z AUTO VRB06KT 10SM CLR 29/06 A3017 RMK AO2,M
TMT,2024-07-22 16:55,-117.1971,39.4643,1749.34,82.80,46.20,27.78,0.00,0.00,0.00,30.22,M,10.00,M,CLR,M,M,M,M,M,M,M,M,M,M,M,M,M,M,80.89,KTMT 221655Z AUTO 00000KT 10SM CLR 28/08 A3022 RMK AO2 T02820079,M
INS,2024-07-22 16:55,-115.6733,36.5872,955.00,95.50,51.80,22.94,0.00,0.00,0.00,29.97,1008.40,10.00,M,CLR,M,M,M,M,M,M,M,M,M,M,M,M,M,M,92.78,KINS 221655Z AUTO 00000KT 10SM CLR 35/11 A2997 RMK AO2 SLP084 T03530110 $,M
LSV,2024-07-22 16:55,-115.0343,36.2362,570.00,99.50,52.50,20.83,200.00,5.00,0.00,29.85,1007.40,10.00,M,CLR,M,M,M,M,M,M,M,M,M,M,M,M,M,M,97.14,KLSV 221655Z AUTO 20005KT 10SM CLR 38/11 A2985 RMK AO2 SLP074 T03750114 $,M
EKO,2024-07-22 16:56,-115.7860,40.8242,1367.00,85.00,47.00,26.67,210.00,3.00,0.00,30.15,1013.90,10.00,M,CLR,M,M,M,M,M,M,M,M,M,M,M,M,M,M,82.51,KEKO 221656Z AUTO 21003KT 10SM CLR 29/08 A3015 RMK AO2 SLP139 T02940083,M
WMC,2024-07-22 16:56,-117.8072,40.9019,1315.00,92.00,50.00,23.92,M,3.00,0.00,30.08,1012.10,10.00,M,CLR,M,M,M,M,M,M,M,M,M,M,M,M,M,M,88.94,KWMC 221656Z AUTO VRB03KT 10SM CLR 33/10 A3008 RMK AO2 SLP121 T03330100,M
HND,2024-07-22 16:56,-115.1344,35.9729,742.79,97.00,57.00,26.49,0.00,0.00,0.00,29.96,1012.20,10.00,M,CLR,M,M,M,M,M,M,M,M,M,M,M,M,M,M,95.92,KHND 221656Z 00000KT 10SM CLR 36/14 A2996 RMK AO2 SLP122 T03610139,M
TPH,2024-07-22 16:56,-117.0904,38.0505,1654.00,87.00,49.00,26.97,120.00,6.00,0.00,30.19,1012.90,10.00,M,CLR,M,M,M,M,M,M,M,M,M,M,M,M,M,M,84.30,KTPH 221656Z AUTO 12006KT 10SM CLR 31/09 A3019 RMK AO2 SLP129 T03060094,M
LAS,2024-07-22 16:56,-115.1634,36.0719,663.00,100.00,57.00,24.18,M,4.00,0.00,29.91,1005.70,10.00,M,FEW,FEW,M,M,11000.00,15000.00,M,M,M,M,M,M,M,M,M,99.24,KLAS 221656Z VRB04KT 10SM FEW110 FEW150 38/14 A2991 RMK AO2 SLP057 T03780139 $,M
05U,2024-07-22 17:10,-116.0051,39.6042,1811.23,84.20,44.60,24.99,M,4.00,0.00,30.24,M,10.00,M,CLR,M,M,M,M,M,M,M,M,M,M,M,M,M,M,81.73,K05U 221710Z AUTO VRB04KT 10SM CLR 29/07 A3024 RMK A01,M
BVU,2024-07-22 17:15,-114.8611,35.9475,671.00,98.60,55.40,23.81,80.00,3.00,0.00,29.90,M,10.00,10.00,CLR,M,M,M,M,M,M,M,M,M,M,M,M,M,M,97.09,KBVU 221715Z AUTO 08003G10KT 10SM CLR 37/13 A2990 RMK AO2,M
CXP,2024-07-22 17:15,-119.7326,39.1923,1431.00,84.20,48.20,28.63,0.00,0.00,0.00,30.14,M,10.00,M,CLR,M,M,M,M,M,M,M,M,M,M,M,M,M,M,82.04,KCXP 221715Z AUTO 00000KT 10SM CLR 29/09 A3014 RMK AO2,M
RTS,2024-07-22 17:15,-119.8764,39.6682,1539.00,86.00,46.40,25.26,120.00,4.00,0.00,30.16,M,10.00,M,CLR,M,M,M,M,M,M,M,M,M,M,M,M,M,M,83.22,KRTS 221715Z AUTO 12004KT 10SM CLR 30/08 A3016 RMK AO2,M
MEV,2024-07-22 17:15,-119.7500,38.9963,1441.42,84.20,51.80,32.73,0.00,0.00,0.00,30.13,M,10.00,M,CLR,M,M,M,M,M,M,M,M,M,M,M,M,M,M,82.48,KMEV 221715Z AUTO 00000KT 10SM CLR 29/11 A3013 RMK AO2,M
HTH,2024-07-22 17:15,-118.6315,38.5448,1282.89,87.80,46.40,23.85,360.00,4.00,0.00,30.09,M,10.00,M,CLR,M,M,M,M,M,M,M,M,M,M,M,M,M,M,84.68,KHTH 221715Z AUTO 36004KT 10SM CLR 31/08 A3009 RMK A01,M
10U,2024-07-22 17:15,-116.1876,41.9532,1637.00,84.20,41.00,21.76,M,5.00,0.00,30.17,M,10.00,M,CLR,M,M,M,M,M,M,M,M,M,M,M,M,M,M,81.52,K10U 221715Z AUTO VRB05KT 10SM CLR 29/05 A3017 RMK AO2,M
BAM,2024-07-22 17:15,-116.8743,40.5990,1382.36,87.80,50.00,27.29,0.00,0.00,0.00,30.12,M,10.00,M,CLR,M,M,M,M,M,M,M,M,M,M,M,M,M,M,85.11,KBAM 221715Z AUTO 00000KT 10SM CLR 31/10 A3012 RMK AO1,M
TMT,2024-07-22 17:15,-117.1971,39.4643,1749.34,85.50,47.30,26.55,240.00,4.00,0.00,30.22,M,10.00,M,CLR,M,M,M,M,M,M,M,M,M,M,M,M,M,M,82.92,KTMT 221715Z AUTO 24004KT 10SM CLR 30/09 A3022 RMK AO2 T02970085,M
05U,2024-07-22 17:30,-116.0051,39.6042,1811.23,84.20,44.60,24.99,0.00,0.00,0.00,30.24,M,10.00,M,CLR,M,M,M,M,M,M,M,M,M,M,M,M,M,M,81.73,K05U 221730Z AUTO 00000KT 10SM CLR 29/07 A3024 RMK A01,M
BVU,2024-07-22 17:35,-114.8611,35.9475,671.00,100.40,55.40,22.54,170.00,7.00,0.00,29.89,M,10.00,M,CLR,M,M,M,M,M,M,M,M,M,M,M,M,M,M,99.06,KBVU 221735Z AUTO 17007KT 140V210 10SM CLR 38/13 A2989 RMK AO2,M
CXP,2024-07-22 17:35,-119.7326,39.1923,1431.00,86.00,48.20,27.03,0.00,0.00,0.00,30.14,M,10.00,M,CLR,M,M,M,M,M,M,M,M,M,M,M,M,M,M,83.40,KCXP 221735Z AUTO 00000KT 10SM CLR 30/09 A3014 RMK AO2,M
RTS,2024-07-22 17:35,-119.8764,39.6682,1539.00,86.00,46.40,25.26,150.00,5.00,0.00,30.15,M,10.00,M,CLR,M,M,M,M,M,M,M,M,M,M,M,M,M,M,83.22,KRTS 221735Z AUTO 15005KT 10SM CLR 30/08 A3015 RMK AO2,M
MEV,2024-07-22 17:35,-119.7500,38.9963,1441.42,84.20,51.80,32.73,M,4.00,0.00,30.12,M,10.00,M,CLR,M,M,M,M,M,M,M,M,M,M,M,M,M,M,82.48,KMEV 221735Z AUTO VRB04KT 10SM CLR 29/11 A3012 RMK AO2,M
BAM,2024-07-22 17:35,-116.8743,40.5990,1382.36,89.60,50.00,25.79,20.00,4.00,0.00,30.11,M,10.00,M,CLR,M,M,M,M,M,M,M,M,M,M,M,M,M,M,86.70,KBAM 221735Z AUTO 02004KT 10SM CLR 32/10 A3011 RMK AO1,M
HTH,2024-07-22 17:35,-118.6315,38.5448,1282.89,87.80,46.40,23.85,20.00,5.00,0.00,30.09,M,10.00,M,CLR,M,M,M,M,M,M,M,M,M,M,M,M,M,M,84.68,KHTH 221735Z AUTO 02005KT 10SM CLR 31/08 A3009 RMK A01,M
10U,2024-07-22 17:35,-116.1876,41.9532,1637.00,87.80,41.00,19.40,230.00,7.00,0.00,30.17,M,10.00,M,CLR,M,M,M,M,M,M,M,M,M,M,M,M,M,M,84.30,K10U 221735Z AUTO 23007KT 210V270 10SM CLR 31/05 A3017 RMK AO2,M
TMT,2024-07-22 17:35,-117.1971,39.4643,1749.34,86.00,46.00,24.88,260.00,4.00,0.00,30.22,M,10.00,M,CLR,M,M,M,M,M,M,M,M,M,M,M,M,M,M,83.19,KTMT 221735Z AUTO 26004KT 10SM CLR 30/08 A3022 RMK AO2 T03010077,M
05U,2024-07-22 17:50,-116.0051,39.6042,1811.23,86.00,44.60,23.59,220.00,5.00,0.00,30.24,M,10.00,M,CLR,M,M,M,M,M,M,M,M,M,M,M,M,M,M,83.07,K05U 221750Z AUTO 22005KT 10SM CLR 30/07 A3024 RMK A01,M
P68,2024-07-22 17:53,-116.0056,39.6014,1993.00,86.00,45.00,23.95,220.00,5.00,0.00,30.21,1013.70,M,M,M,M,M,M,M,M,M,M,M,M,M,M,M,M,M,83.10,KP68 221753Z AUTO 22005KT 30/07 A3021 RMK AO1 SLP137 T03000072 10300 20172 58007,M
DRA,2024-07-22 17:53,-116.0278,36.6206,1009.00,101.00,52.00,19.55,M,M,0.00,29.98,1008.70,10.00,M,CLR,M,M,M,M,M,M,M,M,M,M,M,M,M,M,98.59,KDRA 221753Z AUTO 10SM CLR 38/11 A2998 RMK AO2 SLP087 T03830111 10383 20278 58002,M
ELY,2024-07-22 17:53,-114.8453,39.2950,1909.00,88.00,45.00,22.47,M,3.00,0.00,30.24,1011.70,10.00,M,CLR,M,M,M,M,M,M,M,M,M,M,M,M,M,M,84.72,KELY 221753Z AUTO VRB03KT 10SM CLR 31/07 A3024 RMK AO2 SLP117 T03110072 10311 20144 58005 $,M
VGT,2024-07-22 17:53,-115.1933,36.2111,667.00,101.00,57.00,23.46,120.00,6.00,0.00,29.90,1010.80,10.00,M,CLR,M,M,M,M,M,M,M,M,M,M,M,M,M,M,100.35,KVGT 221753Z 12006KT 10SM CLR 38/14 A2990 RMK AO2 SLP108 T03830139 10383 20339 58001,M
LOL,2024-07-22 17:53,-118.5701,40.0684,1192.43,90.00,49.00,24.53,M,3.00,0.00,30.06,1012.40,10.00,M,CLR,M,M,M,M,M,M,M,M,M,M,M,M,M,M,86.91,KLOL 221753Z AUTO VRB03KT 10SM CLR 32/09 A3006 RMK AO2 SLP124 T03220094 10322 20178 58003,M
NFL,2024-07-22 17:54,-118.7010,39.4166,1199.00,91.00,50.00,24.68,M,3.00,0.00,30.05,1014.50,10.00,M,FEW,FEW,SCT,M,8000.00,12000.00,18000.00,M,M,M,M,M,M,M,M,87.99,KNFL 221754Z VRB03KT 10SM FEW080 FEW120 SCT180 33/10 A3005 RMK AO2 SLP145 T03280100 10339 20200 58004,M
BVU,2024-07-22 17:55,-114.8611,35.9475,671.00,100.40,55.40,22.54,M,5.00,0.00,29.89,M,10.00,13.00,CLR,M,M,M,M,M,M,M,M,M,M,M,M,M,M,99.06,KBVU 221755Z AUTO VRB05G13KT 10SM CLR 38/13 A2989 RMK AO2,M
CXP,2024-07-22 17:55,-119.7326,39.1923,1431.00,87.80,46.40,23.85,M,3.00,0.00,30.13,M,10.00,M,CLR,M,M,M,M,M,M,M,M,M,M,M,M,M,M,84.68,KCXP 221755Z AUTO VRB03KT 10SM CLR 31/08 A3013 RMK AO2,M
RNO,2024-07-22 17:55,-119.7711,39.4839,1341.00,91.00,50.00,24.68,40.00,5.00,0.00,30.09,1011.80,10.00,M,FEW,M,M,M,9000.00,M,M,M,M,M,M,M,M,M,M,87.99,KRNO 221755Z 04005KT 10SM FEW090 33/10 A3009 RMK AO2 SLP118 FU ALF SE THRU SW T03280100 10328 20217 58009,M
RTS,2024-07-22 17:55,-119.8764,39.6682,1539.00,87.80,44.60,22.27,120.00,7.00,0.00,30.15,M,10.00,M,CLR,M,M,M,M,M,M,M,M,M,M,M,M,M,M,84.53,KRTS 221755Z AUTO 12007KT 10SM CLR 31/07 A3015 RMK AO2,M
MEV,2024-07-22 17:55,-119.7500,38.9963,1441.42,86.00,50.00,28.90,250.00,4.00,0.00,30.12,M,4.00,M,CLR,M,M,M,M,M,M,M,HZ,M,M,M,M,M,M,83.62,KMEV 221755Z AUTO 25004KT 4SM HZ CLR 30/10 A3012 RMK AO2,M
BAM,2024-07-22 17:55,-116.8743,40.5990,1382.36,89.60,50.00,25.79,320.00,4.00,0.00,30.11,M,10.00,M,CLR,M,M,M,M,M,M,M,M,M,M,M,M,M,M,86.70,KBAM 221755Z AUTO 32004KT 10SM CLR 32/10 A3011 RMK AO1,M
HTH,2024-07-22 17:55,-118.6315,38.5448,1282.89,89.60,46.40,22.53,330.00,3.00,0.00,30.08,M,10.00,M,CLR,M,M,M,M,M,M,M,M,M,M,M,M,M,M,86.24,KHTH 221755Z AUTO 33003KT 10SM CLR 32/08 A3008 RMK A01,M
10U,2024-07-22 17:55,-116.1876,41.9532,1637.00,91.40,41.00,17.32,210.00,7.00,0.00,30.16,M,10.00,M,CLR,M,M,M,M,M,M,M,M,M,M,M,M,M,M,87.40,K10U 221755Z AUTO 21007KT 10SM CLR 33/05 A3016 RMK AO2,M
TMT,2024-07-22 17:55,-117.1971,39.4643,1749.34,86.50,44.60,23.21,240.00,3.00,0.00,30.21,M,10.00,M,CLR,M,M,M,M,M,M,M,M,M,M,M,M,M,M,83.47,KTMT 221755Z AUTO 24003KT 10SM CLR 30/07 A3021 RMK AO2 T03030070 10305 20147,M
INS,2024-07-22 17:55,-115.6733,36.5872,955.00,99.00,48.20,18.03,100.00,6.00,0.00,29.96,1007.80,10.00,M,CLR,M,M,M,M,M,M,M,M,M,M,M,M,M,M,95.58,KINS 221755Z AUTO 10006KT 10SM CLR 37/09 A2996 RMK AO2 SLP078 T03730090 10373 20285 57006 $,M
LSV,2024-07-22 17:55,-115.0343,36.2362,570.00,101.30,52.70,19.88,0.00,0.00,0.00,29.84,1007.00,10.00,M,CLR,M,M,M,M,M,M,M,M,M,M,M,M,M,M,99.12,KLSV 221755Z AUTO 00000KT 10SM CLR 39/12 A2984 RMK AO2 SLP070 T03850115 10388 20331 58001 $,M
EKO,2024-07-22 17:56,-115.7860,40.8242,1367.00,89.00,45.00,21.77,M,3.00,0.00,30.14,1013.10,10.00,M,CLR,M,M,M,M,M,M,M,M,M,M,M,M,M,M,85.58,KEKO 221756Z AUTO VRB03KT 10SM CLR 32/07 A3014 RMK AO2 SLP131 T03170072 10317 20183 58006,M
WMC,2024-07-22 17:56,-117.8072,40.9019,1315.00,95.00,48.00,20.22,M,M,0.00,30.07,1011.80,10.00,M,CLR,M,M,M,M,M,M,M,M,M,M,M,M,M,M,91.53,KWMC 221756Z AUTO 10SM CLR 35/09 A3007 RMK AO2 SLP118 T03500089 10350 20206 58005,M
HND,2024-07-22 17:56,-115.1344,35.9729,742.79,100.00,56.00,23.32,130.00,6.00,0.00,29.95,1012.00,10.00,M,CLR,M,M,M,M,M,M,M,M,M,M,M,M,M,M,98.84,KHND 221756Z 13006KT 10SM CLR 38/13 A2995 RMK AO2 SLP120 T03780133 10383 20317 58001,M
TPH,2024-07-22 17:56,-117.0904,38.0505,1654.00,90.00,47.00,22.76,190.00,9.00,0.00,30.18,1012.20,10.00,16.00,CLR,M,M,M,M,M,M,M,M,M,M,M,M,M,M,86.66,KTPH 221756Z AUTO 19009G16KT 160V250 10SM CLR 32/08 A3018 RMK AO2 SLP122 T03220083 10322 20206 58007,M
LAS,2024-07-22 17:56,-115.1634,36.0719,663.00,101.00,57.00,23.46,M,4.00,0.00,29.91,1005.90,10.00,M,FEW,FEW,M,M,11000.00,15000.00,M,M,M,M,M,M,M,M,M,100.35,KLAS 221756Z VRB04KT 10SM FEW110 FEW150 38/14 A2991 RMK AO2 SLP059 60000 T03830139 10389 20344 51000 $,M
05U,2024-07-22 18:10,-116.0051,39.6042,1811.23,84.20,44.60,24.99,0.00,0.00,0.00,30.24,M,10.00,M,CLR,M,M,M,M,M,M,M,M,M,M,M,M,M,M,81.73,K05U 221810Z AUTO 00000KT 10SM CLR 29/07 A3024 RMK A01,M
BVU,2024-07-22 18:15,-114.8611,35.9475,671.00,102.20,55.40,21.36,90.00,7.00,0.00,29.89,M,10.00,13.00,CLR,M,M,M,M,M,M,M,M,M,M,M,M,M,M,101.04,KBVU 221815Z AUTO 09007G13KT 10SM CLR 39/13 A2989 RMK AO2,M
CXP,2024-07-22 18:15,-119.7326,39.1923,1431.00,89.60,46.40,22.53,0.00,0.00,0.00,30.12,M,10.00,M,CLR,M,M,M,M,M,M,M,M,M,M,M,M,M,M,86.24,KCXP 221815Z AUTO 00000KT 10SM CLR 32/08 A3012 RMK AO2,M
RTS,2024-07-22 18:15,-119.8764,39.6682,1539.00,89.60,44.60,21.04,100.00,8.00,0.00,30.15,M,10.00,M,CLR,M,M,M,M,M,M,M,M,M,M,M,M,M,M,86.07,KRTS 221815Z AUTO 10008KT 10SM CLR 32/07 A3015 RMK AO2,M
MEV,2024-07-22 18:15,-119.7500,38.9963,1441.42,87.80,48.20,25.52,320.00,4.00,0.00,30.11,M,10.00,M,CLR,M,M,M,M,M,M,M,M,M,M,M,M,M,M,84.87,KMEV 221815Z AUTO 32004KT 10SM CLR 31/09 A3011 RMK AO2,M
BAM,2024-07-22 18:15,-116.8743,40.5990,1382.36,89.60,48.20,24.11,0.00,0.00,0.00,30.11,M,10.00,M,CLR,M,M,M,M,M,M,M,M,M,M,M,M,M,M,86.44,KBAM 221815Z AUTO 00000KT 10SM CLR 32/09 A3011 RMK AO1,M
HTH,2024-07-22 18:15,-118.6315,38.5448,1282.89,91.40,48.20,22.78,310.00,6.00,0.00,30.08,M,10.00,M,CLR,M,M,M,M,M,M,M,M,M,M,M,M,M,M,88.09,KHTH 221815Z AUTO 31006KT 10SM CLR 33/09 A3008 RMK A01,M
10U,2024-07-22 18:15,-116.1876,41.9532,1637.00,86.00,42.80,22.02,220.00,13.00,0.00,30.17,M,10.00,18.00,CLR,M,M,M,M,M,M,M,M,M,M,M,M,M,M,82.95,K10U 221815Z AUTO 22013G18KT 10SM CLR 30/06 A3017 RMK AO2,M
TMT,2024-07-22 18:15,-117.1971,39.4643,1749.34,89.40,45.30,21.75,240.00,7.00,0.00,30.21,M,10.00,M,CLR,M,M,M,M,M,M,M,M,M,M,M,M,M,M,85.95,KTMT 221815Z AUTO 24007KT 10SM CLR 32/07 A3021 RMK AO2 T03190074,M
05U,2024-07-22 18:30,-116.0051,39.6042,1811.23,86.00,44.60,23.59,0.00,0.00,0.00,30.24,M,10.00,M,CLR,M,M,M,M,M,M,M,M,M,M,M,M,M,M,83.07,K05U 221830Z AUTO 00000KT 10SM CLR 30/07 A3024 RMK A01,M
BVU,2024-07-22 18:35,-114.8611,35.9475,671.00,102.20,55.40,21.36,0.00,0.00,0.00,29.88,M,10.00,M,CLR,M,M,M,M,M,M,M,M,M,M,M,M,M,M,101.04,KBVU 221835Z AUTO 00000KT 10SM CLR 39/13 A2988 RMK AO2,M
CXP,2024-07-22 18:35,-119.7326,39.1923,1431.00,91.40,46.40,21.29,0.00,0.00,0.00,30.12,M,10.00,M,CLR,M,M,M,M,M,M,M,M,M,M,M,M,M,M,87.86,KCXP 221835Z AUTO 00000KT 10SM CLR 33/08 A3012 RMK AO2,M
RTS,2024-07-22 18:35,-119.8764,39.6682,1539.00,89.60,44.60,21.04,M,6.00,0.00,30.14,M,10.00,M,CLR,M,M,M,M,M,M,M,M,M,M,M,M,M,M,86.07,KRTS 221835Z AUTO VRB06KT 10SM CLR 32/07 A3014 RMK AO2,M
MEV,2024-07-22 18:35,-119.7500,38.9963,1441.42,89.60,50.00,25.79,M,5.00,0.00,30.11,M,10.00,M,CLR,M,M,M,M,M,M,M,M,M,M,M,M,M,M,86.70,KMEV 221835Z AUTO VRB05KT 10SM CLR 32/10 A3011 RMK AO2,M
BAM,2024-07-22 18:35,-116.8743,40.5990,1382.36,91.40,46.40,21.29,220.00,3.00,0.00,30.11,M,10.00,M,CLR,M,M,M,M,M,M,M,M,M,M,M,M,M,M,87.86,KBAM 221835Z AUTO 22003KT 10SM CLR 33/08 A3011 RMK AO1,M
HTH,2024-07-22 18:35,-118.6315,38.5448,1282.89,91.40,46.40,21.29,M,4.00,0.00,30.07,M,10.00,10.00,CLR,M,M,M,M,M,M,M,M,M,M,M,M,M,M,87.86,KHTH 221835Z AUTO VRB04G10KT 10SM CLR 33/08 A3007 RMK A01,M
10U,2024-07-22 18:35,-116.1876,41.9532,1637.00,86.00,42.80,22.02,220.00,11.00,0.00,30.17,M,10.00,17.00,CLR,M,M,M,M,M,M,M,M,M,M,M,M,M,M,82.95,K10U 221835Z AUTO 22011G17KT 10SM CLR 30/06 A3017 RMK AO2,M
TMT,2024-07-22 18:35,-117.1971,39.4643,1749.34,88.50,45.00,22.12,220.00,9.00,0.00,30.20,M,10.00,M,CLR,M,M,M,M,M,M,M,M,M,M,M,M,M,M,85.15,KTMT 221835Z AUTO 22009KT 10SM CLR 31/07 A3020 RMK AO2 T03140073,M
ELY,2024-07-22 18:38,-114.8453,39.2950,1909.00,88.00,43.00,20.82,M,M,0.00,30.22,M,10.00,M,FEW,M,M,M,12000.00,M,M,M,VCTS,M,M,M,M,M,M,84.58,KELY 221838Z AUTO 10SM VCTS FEW120 31/06 A3022 RMK AO2 T03110061,M
05U,2024-07-22 18:50,-116.0051,39.6042,1811.23,86.00,44.60,23.59,0.00,0.00,0.00,30.23,M,10.00,M,CLR,M,M,M,M,M,M,M,M,M,M,M,M,M,M,83.07,K05U 221850Z AUTO 00000KT 10SM CLR 30/07 A3023 RMK A01,M
P68,2024-07-22 18:53,-116.0056,39.6014,1993.00,86.00,44.00,23.05,170.00,4.00,0.00,30.20,1013.60,M,M,M,M,M,M,M,M,M,M,M,M,M,M,M,M,M,83.03,KP68 221853Z AUTO 17004KT 30/07 A3020 RMK AO1 SLP136 T03000067,M
DRA,2024-07-22 18:53,-116.0278,36.6206,1009.00,102.00,51.00,18.28,0.00,0.00,0.00,29.96,1008.10,10.00,M,CLR,M,M,M,M,M,M,M,M,M,M,M,M,M,M,99.35,KDRA 221853Z AUTO 00000KT 10SM CLR 39/11 A2996 RMK AO2 SLP081 T03890106,M
ELY,2024-07-22 18:53,-114.8453,39.2950,1909.00,88.00,42.00,20.03,M,M,0.00,30.22,1011.50,10.00,M,FEW,M,M,M,11000.00,M,M,M,M,M,M,M,M,M,M,84.52,KELY 221853Z AUTO 10SM FEW110 31/06 A3022 RMK AO2 SLP115 T03110056,M
VGT,2024-07-22 18:53,-115.1933,36.2111,667.00,103.00,56.00,21.31,160.00,5.00,0.00,29.89,1010.10,10.00,M,CLR,M,M,M,M,M,M,M,M,M,M,M,M,M,M,102.16,KVGT 221853Z 16005KT 10SM CLR 39/13 A2989 RMK AO2 LTG DSNT W SLP101 T03940133,M
LOL,2024-07-22 18:53,-118.5701,40.0684,1192.43,95.00,49.00,21.00,170.00,6.00,0.00,30.04,1011.80,10.00,M,CLR,M,M,M,M,M,M,M,M,M,M,M,M,M,M,91.70,KLOL 221853Z AUTO 17006KT 10SM CLR 35/09 A3004 RMK AO2 SLP118 T03500094,M
NFL,2024-07-22 18:54,-118.7010,39.4166,1199.00,96.00,48.00,19.61,M,4.00,0.00,30.04,1014.10,10.00,M,SCT,SCT,SCT,M,8000.00,12000.00,18000.00,M,M,M,M,M,M,M,M,92.52,KNFL 221854Z VRB04KT 10SM SCT080 SCT120 SCT180 36/09 A3004 RMK AO2 SLP141 T03560089,M
BVU,2024-07-22 18:55,-114.8611,35.9475,671.00,102.20,55.40,21.36,170.00,6.00,0.00,29.88,M,10.00,13.00,CLR,M,M,M,M,M,M,M,M,M,M,M,M,M,M,101.04,KBVU 221855Z AUTO 17006G13KT 10SM CLR 39/13 A2988 RMK AO2,M
CXP,2024-07-22 18:55,-119.7326,39.1923,1431.00,91.40,46.40,21.29,0.00,0.00,0.00,30.11,M,10.00,M,CLR,M,M,M,M,M,M,M,M,M,M,M,M,M,M,87.86,KCXP 221855Z AUTO 00000KT 10SM CLR 33/08 A3011 RMK AO2,M
RNO,2024-07-22 18:55,-119.7711,39.4839,1341.00,94.00,49.00,21.65,M,4.00,0.00,30.07,1011.30,10.00,M,FEW,M,M,M,9000.00,M,M,M,M,M,M,M,M,M,M,90.71,KRNO 221855Z VRB04KT 10SM FEW090 34/09 A3007 RMK AO2 SLP113 TCU DSNT W T03440094,M
RTS,2024-07-22 18:55,-119.8764,39.6682,1539.00,91.40,44.60,19.89,130.00,6.00,0.00,30.14,M,10.00,M,CLR,M,M,M,M,M,M,M,M,M,M,M,M,M,M,87.68,KRTS 221855Z AUTO 13006KT 10SM CLR 33/07 A3014 RMK AO2,M
MEV,2024-07-22 18:55,-119.7500,38.9963,1441.42,89.60,48.20,24.11,M,4.00,0.00,30.10,M,10.00,M,CLR,M,M,M,M,M,M,M,M,M,M,M,M,M,M,86.44,KMEV 221855Z AUTO VRB04KT 10SM CLR 32/09 A3010 RMK AO2,M
BAM,2024-07-22 18:55,-116.8743,40.5990,1382.36,93.20,48.20,21.54,350.00,4.00,0.00,30.10,M,10.00,M,CLR,M,M,M,M,M,M,M,M,M,M,M,M,M,M,89.80,KBAM 221855Z AUTO 35004KT 10SM CLR 34/09 A3010 RMK AO1,M
HTH,2024-07-22 18:55,-118.6315,38.5448,1282.89,93.20,46.40,20.13,360.00,7.00,0.00,30.06,M,10.00,M,CLR,M,M,M,M,M,M,M,M,M,M,M,M,M,M,89.55,KHTH 221855Z AUTO 36007KT 320V020 10SM CLR 34/08 A3006 RMK A01,M
10U,2024-07-22 18:55,-116.1876,41.9532,1637.00,86.00,42.80,22.02,210.00,10.00,0.00,30.17,M,10.00,M,CLR,M,M,M,M,M,M,M,M,M,M,M,M,M,M,82.95,K10U 221855Z AUTO 21010KT 10SM CLR 30/06 A3017 RMK AO2,M
TMT,2024-07-22 18:55,-117.1971,39.4643,1749.34,88.50,45.30,22.37,200.00,9.00,0.00,30.20,M,10.00,M,CLR,M,M,M,M,M,M,M,M,M,M,M,M,M,M,85.17,KTMT 221855Z AUTO 20009KT 10SM CLR 31/07 A3020 RMK AO2 T03140074,M
INS,2024-07-22 18:55,-115.6733,36.5872,955.00,100.40,46.00,15.91,60.00,3.00,0.00,29.95,1007.60,10.00,M,CLR,M,M,M,M,M,M,M,M,M,M,M,M,M,M,96.56,KINS 221855Z AUTO 06003KT 10SM CLR 38/08 A2995 RMK AO2 LTG DSNT N AND S SLP076 T03800078 $,M
LSV,2024-07-22 18:55,-115.0343,36.2362,570.00,104.00,51.80,17.74,120.00,3.00,0.00,29.82,1006.30,10.00,M,CLR,M,M,M,M,M,M,M,M,M,M,M,M,M,M,101.69,KLSV 221855Z AUTO 12003KT 10SM CLR 40/11 A2982 RMK AO2 SLP063 T03990110 $,M
EKO,2024-07-22 18:56,-115.7860,40.8242,1367.00,91.00,46.00,21.24,M,M,0.00,30.12,1012.60,10.00,M,CLR,M,M,M,M,M,M,M,M,M,M,M,M,M,M,87.45,KEKO 221856Z AUTO 10SM CLR 33/08 A3012 RMK AO2 SLP126 T03280078,M
WMC,2024-07-22 18:56,-117.8072,40.9019,1315.00,96.00,46.00,18.19,0.00,0.00,0.00,30.06,1011.60,10.00,M,CLR,M,M,M,M,M,M,M,M,M,M,M,M,M,M,92.21,KWMC 221856Z AUTO 00000KT 10SM CLR 36/08 A3006 RMK AO2 SLP116 T03560078,M
HND,2024-07-22 18:56,-115.1344,35.9729,742.79,102.00,56.00,21.96,290.00,5.00,0.00,29.93,1011.30,10.00,M,CLR,M,M,M,M,M,M,M,M,M,M,M,M,M,M,101.05,KHND 221856Z 29005KT 10SM CLR 39/13 A2993 RMK AO2 SLP113 T03890133,M
TPH,2024-07-22 18:56,-117.0904,38.0505,1654.00,91.00,47.00,22.05,180.00,4.00,0.00,30.16,1011.70,10.00,M,CLR,M,M,M,M,M,M,M,M,M,M,M,M,M,M,87.57,KTPH 221856Z AUTO 18004KT 10SM CLR 33/08 A3016 RMK AO2 SLP117 T03280083,M
LAS,2024-07-22 18:56,-115.1634,36.0719,663.00,104.00,56.00,20.68,0.00,0.00,0.00,29.89,1005.10,10.00,M,FEW,FEW,M,M,11000.00,25000.00,M,M,M,M,M,M,M,M,M,103.26,KLAS 221856Z 00000KT 10SM FEW110 FEW250 40/13 A2989 RMK AO2 LTG DSNT NW SLP051 CB DSNT NW T04000133 $,M
CXP,2024-07-22 19:10,-119.7326,39.1923,1431.00,91.40,46.40,21.29,0.00,0.00,0.00,30.11,M,10.00,M,CLR,M,M,M,M,M,M,M,M,M,M,M,M,M,M,87.86,KCXP 221910Z AUTO 00000KT 10SM CLR 33/08 A3011 RMK AO2,M
05U,2024-07-22 19:10,-116.0051,39.6042,1811.23,87.80,44.60,22.27,0.00,0.00,0.00,30.22,M,10.00,M,CLR,M,M,M,M,M,M,M,M,M,M,M,M,M,M,84.53,K05U 221910Z AUTO 00000KT 10SM CLR 31/07 A3022 RMK A01,M
BVU,2024-07-22 19:15,-114.8611,35.9475,671.00,104.00,55.40,20.24,170.00,8.00,0.00,29.87,M,10.00,M,CLR,M,M,M,M,M,M,M,M,M,M,M,M,M,M,103.01,KBVU 221915Z AUTO 17008KT 10SM CLR 40/13 A2987 RMK AO2,M
RTS,2024-07-22 19:15,-119.8764,39.6682,1539.00,91.40,42.80,18.56,110.00,6.00,0.00,30.14,M,10.00,M,CLR,M,M,M,M,M,M,M,M,M,M,M,M,M,M,87.52,KRTS 221915Z AUTO 11006KT 10SM CLR 33/06 A3014 RMK AO2,M
MEV,2024-07-22 19:15,-119.7500,38.9963,1441.42,91.40,48.20,22.78,0.00,0.00,0.00,30.09,M,8.00,M,CLR,M,M,M,M,M,M,M,M,M,M,M,M,M,M,88.09,KMEV 221915Z AUTO 00000KT 8SM CLR 33/09 A3009 RMK AO2,M
BAM,2024-07-22 19:15,-116.8743,40.5990,1382.36,93.20,46.40,20.13,100.00,3.00,0.00,30.09,M,10.00,M,CLR,M,M,M,M,M,M,M,M,M,M,M,M,M,M,89.55,KBAM 221915Z AUTO 10003KT 10SM CLR 34/08 A3009 RMK AO1,M
HTH,2024-07-22 19:15,-118.6315,38.5448,1282.89,93.20,46.40,20.13,270.00,5.00,0.00,30.05,M,10.00,M,CLR,M,M,M,M,M,M,M,M,M,M,M,M,M,M,89.55,KHTH 221915Z AUTO 27005KT 10SM CLR 34/08 A3005 RMK A01,M
10U,2024-07-22 19:15,-116.1876,41.9532,1637.00,86.00,42.80,22.02,220.00,8.00,0.00,30.17,M,10.00,13.00,CLR,M,M,M,M,M,M,M,M,M,M,M,M,M,M,82.95,K10U 221915Z AUTO 22008G13KT 10SM CLR 30/06 A3017 RMK AO2,M
TMT,2024-07-22 19:15,-117.1971,39.4643,1749.34,88.30,45.00,22.26,200.00,4.00,0.00,30.19,M,10.00,M,CLR,M,M,M,M,M,M,M,M,M,M,M,M,M,M,84.98,KTMT 221915Z AUTO 20004KT 10SM CLR 31/07 A3019 RMK AO2 T03130072,M
LSV,2024-07-22 19:27,-115.0343,36.2362,570.00,104.00,53.60,18.95,290.00,7.00,0.00,29.81,1006.00,10.00,M,FEW,SCT,M,M,10000.00,12000.00,M,M,M,M,M,M,M,M,M,102.31,KLSV 221927Z 29007KT 10SM FEW100CB SCT120 40/12 A2981 RMK A02A LTG DSNT W SLP060 $,M
05U,2024-07-22 19:30,-116.0051,39.6042,1811.23,89.60,41.00,18.33,0.00,0.00,0.00,30.22,M,10.00,10.00,CLR,M,M,M,M,M,M,M,M,M,M,M,M,M,M,85.82,K05U 221930Z AUTO 00000G10KT 10SM CLR 32/05 A3022 RMK A01,M
CXP,2024-07-22 19:35,-119.7326,39.1923,1431.00,93.20,44.60,18.80,120.00,4.00,0.00,30.11,M,10.00,M,CLR,M,M,M,M,M,M,M,M,M,M,M,M,M,M,89.34,KCXP 221935Z AUTO 12004KT 10SM CLR 34/07 A3011 RMK AO2,M
BVU,2024-07-22 19:35,-114.8611,35.9475,671.00,104.00,53.60,18.95,0.00,0.00,0.00,29.87,M,10.00,M,CLR,M,M,M,M,M,M,M,M,M,M,M,M,M,M,102.31,KBVU 221935Z AUTO 00000KT 10SM CLR 40/12 A2987 RMK AO2,M
RTS,2024-07-22 19:35,-119.8764,39.6682,1539.00,91.40,44.60,19.89,M,6.00,0.00,30.13,M,10.00,11.00,CLR,M,M,M,M,M,M,M,M,M,M,M,M,M,M,87.68,KRTS 221935Z AUTO VRB06G11KT 10SM CLR 33/07 A3013 RMK AO2,M
MEV,2024-07-22 19:35,-119.7500,38.9963,1441.42,93.20,48.20,21.54,310.00,6.00,0.00,30.09,M,10.00,M,CLR,M,M,M,M,M,M,M,M,M,M,M,M,M,M,89.80,KMEV 221935Z AUTO 31006KT 10SM CLR 34/09 A3009 RMK AO2,M
HTH,2024-07-22 19:35,-118.6315,38.5448,1282.89,95.00,44.60,17.78,350.00,6.00,0.00,30.05,M,10.00,M,CLR,M,M,M,M,M,M,M,M,M,M,M,M,M,M,91.06,KHTH 221935Z AUTO 35006KT 10SM CLR 35/07 A3005 RMK A01,M
10U,2024-07-22 19:35,-116.1876,41.9532,1637.00,87.80,42.80,20.79,210.00,7.00,0.00,30.17,M,10.00,M,FEW,M,M,M,12000.00,M,M,M,M,M,M,M,M,M,M,84.40,K10U 221935Z AUTO 21007KT 180V240 10SM FEW120 31/06 A3017 RMK AO2,M
BAM,2024-07-22 19:35,-116.8743,40.5990,1382.36,95.00,46.40,19.04,20.00,6.00,0.00,30.09,M,10.00,M,CLR,M,M,M,M,M,M,M,M,M,M,M,M,M,M,91.29,KBAM 221935Z AUTO 02006KT 10SM CLR 35/08 A3009 RMK AO1,M
TMT,2024-07-22 19:35,-117.1971,39.4643,1749.34,90.50,45.50,21.17,190.00,5.00,0.00,30.19,M,10.00,M,CLR,M,M,M,M,M,M,M,M,M,M,M,M,M,M,86.95,KTMT 221935Z AUTO 19005KT 10SM CLR 33/08 A3019 RMK AO2 T03250075,M
05U,2024-07-22 19:50,-116.0051,39.6042,1811.23,89.60,41.00,18.33,0.00,0.00,0.00,30.21,M,10.00,10.00,CLR,M,M,M,M,M,M,M,M,M,M,M,M,M,M,85.82,K05U 221950Z AUTO 00000G10KT 10SM CLR 32/05 A3021 RMK A01,M
P68,2024-07-22 19:53,-116.0056,39.6014,1993.00,90.00,43.00,19.55,M,M,0.00,30.17,1011.80,M,M,M,M,M,M,M,M,M,M,M,M,M,M,M,M,M,86.29,KP68 221953Z AUTO 32/06 A3017 RMK AO1 SLP118 T03220061,M
DRA,2024-07-22 19:53,-116.0278,36.6206,1009.00,103.00,47.00,15.28,0.00,0.00,0.00,29.95,1007.50,10.00,M,CLR,M,M,M,M,M,M,M,M,M,M,M,M,M,M,99.35,KDRA 221953Z AUTO 00000KT 10SM CLR 39/08 A2995 RMK AO2 SLP075 T03940083,M
ELY,2024-07-22 19:53,-114.8453,39.2950,1909.00,87.00,43.00,21.49,30.00,11.00,0.00,30.21,1011.50,10.00,M,BKN,M,M,M,10000.00,M,M,M,VCTS,M,M,M,M,M,M,83.76,KELY 221953Z AUTO 03011KT 10SM VCTS BKN100 31/06 A3021 RMK AO2 LTG DSNT N AND SW SLP115 T03060061,M
VGT,2024-07-22 19:53,-115.1933,36.2111,667.00,104.00,55.00,19.95,M,4.00,0.00,29.87,1009.60,10.00,M,CLR,M,M,M,M,M,M,M,M,M,M,M,M,M,M,102.85,KVGT 221953Z VRB04KT 10SM CLR 40/13 A2987 RMK AO2 LTG DSNT W SLP096 T04000128,M
LOL,2024-07-22 19:53,-118.5701,40.0684,1192.43,93.00,49.00,22.34,190.00,6.00,0.00,30.03,1011.70,10.00,M,CLR,M,M,M,M,M,M,M,M,M,M,M,M,M,M,89.73,KLOL 221953Z AUTO 19006KT 10SM CLR 34/09 A3003 RMK AO2 SLP117 T03390094,M
NFL,2024-07-22 19:54,-118.7010,39.4166,1199.00,98.00,48.00,18.45,M,3.00,0.00,30.02,1013.50,10.00,M,SCT,SCT,SCT,M,8000.00,12000.00,20000.00,M,M,M,M,M,M,M,M,94.53,KNFL 221954Z VRB03KT 10SM SCT080 SCT120 SCT200 37/09 A3002 RMK AO2 SLP135 CB DSNT E AND SW T03670089,M
BVU,2024-07-22 19:55,-114.8611,35.9475,671.00,104.00,55.40,20.24,130.00,7.00,0.00,29.86,M,10.00,M,CLR,M,M,M,M,M,M,M,M,M,M,M,M,M,M,103.01,KBVU 221955Z AUTO 13007KT 10SM CLR 40/13 A2986 RMK AO2,M
CXP,2024-07-22 19:55,-119.7326,39.1923,1431.00,95.00,44.60,17.78,350.00,3.00,0.00,30.10,M,10.00,M,CLR,M,M,M,M,M,M,M,M,M,M,M,M,M,M,91.06,KCXP 221955Z AUTO 35003KT 10SM CLR 35/07 A3010 RMK AO2,M
RNO,2024-07-22 19:55,-119.7711,39.4839,1341.00,97.00,48.00,19.02,100.00,4.00,0.00,30.06,1010.60,10.00,M,FEW,M,M,M,9000.00,M,M,M,M,M,M,M,M,M,M,93.52,KRNO 221955Z 10004KT 10SM FEW090 36/09 A3006 RMK AO2 SLP106 CB DSNT S AND W T03610089,M
RTS,2024-07-22 19:55,-119.8764,39.6682,1539.00,91.40,42.80,18.56,120.00,7.00,0.00,30.13,M,10.00,M,CLR,M,M,M,M,M,M,M,M,M,M,M,M,M,M,87.52,KRTS 221955Z AUTO 12007KT 070V160 10SM CLR 33/06 A3013 RMK AO2,M
MEV,2024-07-22 19:55,-119.7500,38.9963,1441.42,95.00,48.20,20.38,300.00,6.00,0.00,30.08,M,10.00,M,CLR,M,M,M,M,M,M,M,M,M,M,M,M,M,M,91.56,KMEV 221955Z AUTO 30006KT 10SM CLR 35/09 A3008 RMK AO2,M
BAM,2024-07-22 19:55,-116.8743,40.5990,1382.36,95.00,46.40,19.04,0.00,0.00,0.00,30.08,M,10.00,M,CLR,M,M,M,M,M,M,M,M,M,M,M,M,M,M,91.29,KBAM 221955Z AUTO 00000KT 10SM CLR 35/08 A3008 RMK AO1,M
HTH,2024-07-22 19:55,-118.6315,38.5448,1282.89,95.00,44.60,17.78,M,4.00,0.00,30.04,M,10.00,12.00,CLR,M,M,M,M,M,M,M,M,M,M,M,M,M,M,91.06,KHTH 221955Z AUTO VRB04G12KT 10SM CLR 35/07 A3004 RMK A01,M
10U,2024-07-22 19:55,-116.1876,41.9532,1637.00,89.60,42.80,19.64,170.00,9.00,0.00,30.16,M,10.00,15.00,CLR,M,M,M,M,M,M,M,M,M,M,M,M,M,M,85.93,K10U 221955Z AUTO 17009G15KT 10SM CLR 32/06 A3016 RMK AO2,M
TMT,2024-07-22 19:55,-117.1971,39.4643,1749.34,91.00,45.30,20.68,230.00,5.00,0.00,30.18,M,10.00,M,CLR,M,M,M,M,M,M,M,M,M,M,M,M,M,M,87.38,KTMT 221955Z AUTO 23005KT 10SM CLR 33/07 A3018 RMK AO2 T03270074,M
INS,2024-07-22 19:55,-115.6733,36.5872,955.00,104.00,45.00,13.75,110.00,8.00,0.00,29.93,1006.90,10.00,M,CLR,M,M,M,M,M,M,M,M,M,M,M,M,M,M,99.90,KINS 221955Z AUTO 11008KT 10SM CLR 40/07 A2993 RMK AO2 SLP069 T03990073 $,M
LSV,2024-07-22 19:55,-115.0343,36.2362,570.00,105.60,51.80,16.92,180.00,4.00,0.00,29.80,1005.60,10.00,M,FEW,M,M,M,20000.00,M,M,M,M,M,M,M,M,M,M,103.36,KLSV 221955Z AUTO 18004KT 10SM FEW200 41/11 A2980 RMK AO2 SLP056 T04090110 $,M
EKO,2024-07-22 19:56,-115.7860,40.8242,1367.00,97.00,45.00,16.98,200.00,10.00,0.00,30.09,1011.40,10.00,M,CLR,M,M,M,M,M,M,M,M,M,M,M,M,M,M,93.04,KEKO 221956Z AUTO 20010KT 10SM CLR 36/07 A3009 RMK AO2 LTG DSNT N AND S SLP114 T03610072,M
WMC,2024-07-22 19:56,-117.8072,40.9019,1315.00,100.00,45.00,15.50,M,M,0.00,30.05,1010.70,10.00,M,CLR,M,M,M,M,M,M,M,M,M,M,M,M,M,M,95.99,KWMC 221956Z AUTO 10SM CLR 38/07 A3005 RMK AO2 SLP107 T03780072,M
HND,2024-07-22 19:56,-115.1344,35.9729,742.79,105.00,55.00,19.36,20.00,6.00,0.00,29.91,1010.50,10.00,M,CLR,M,M,M,M,M,M,M,M,M,M,M,M,M,M,103.94,KHND 221956Z 02006KT 10SM CLR 41/13 A2991 RMK AO2 LTG DSNT S SLP105 T04060128,M
TPH,2024-07-22 19:56,-117.0904,38.0505,1654.00,94.00,46.00,19.34,M,5.00,0.00,30.14,1010.80,10.00,M,CLR,M,M,M,M,M,M,M,M,M,M,M,M,M,M,90.27,KTPH 221956Z AUTO VRB05KT 10SM CLR 34/08 A3014 RMK AO2 SLP108 T03440078,M
LAS,2024-07-22 19:56,-115.1634,36.0719,663.00,107.00,54.00,17.60,M,3.00,0.00,29.88,1004.60,10.00,M,FEW,SCT,M,M,11000.00,25000.00,M,M,M,M,M,M,M,M,M,105.66,KLAS 221956Z VRB03KT 10SM FEW110 SCT250 42/12 A2988 RMK AO2 LTG DSNT S SLP046 CB DSNT N AND S AND W-NW T04170122 $,M
05U,2024-07-22 20:10,-116.0051,39.6042,1811.23,91.40,42.80,18.56,50.00,7.00,0.00,30.20,M,10.00,M,FEW,M,M,M,10000.00,M,M,M,M,M,M,M,M,M,M,87.52,K05U 222010Z AUTO 05007KT 10SM FEW100 33/06 A3020 RMK A01,M
BVU,2024-07-22 20:15,-114.8611,35.9475,671.00,105.80,53.60,17.97,250.00,4.00,0.00,29.85,M,10.00,M,CLR,M,M,M,M,M,M,M,M,M,M,M,M,M,M,104.23,KBVU 222015Z AUTO 25004KT 10SM CLR 41/12 A2985 RMK AO2,M
CXP,2024-07-22 20:15,-119.7326,39.1923,1431.00,95.00,44.60,17.78,M,3.00,0.00,30.09,M,10.00,M,CLR,M,M,M,M,M,M,M,M,M,M,M,M,M,M,91.06,KCXP 222015Z AUTO VRB03KT 10SM CLR 35/07 A3009 RMK AO2,M
RTS,2024-07-22 20:15,-119.8764,39.6682,1539.00,93.20,42.80,17.55,40.00,7.00,0.00,30.12,M,10.00,13.00,CLR,M,M,M,M,M,M,M,M,M,M,M,M,M,M,89.17,KRTS 222015Z AUTO 04007G13KT 10SM CLR 34/06 A3012 RMK AO2,M
MEV,2024-07-22 20:15,-119.7500,38.9963,1441.42,91.40,46.40,21.29,240.00,9.00,0.00,30.09,M,10.00,M,CLR,M,M,M,M,M,M,M,M,M,M,M,M,M,M,87.86,KMEV 222015Z AUTO 24009KT 10SM CLR 33/08 A3009 RMK AO2,M
BAM,2024-07-22 20:15,-116.8743,40.5990,1382.36,96.80,46.40,18.02,40.00,5.00,0.00,30.08,M,10.00,M,CLR,M,M,M,M,M,M,M,M,M,M,M,M,M,M,93.05,KBAM 222015Z AUTO 04005KT 10SM CLR 36/08 A3008 RMK AO1,M
HTH,2024-07-22 20:15,-118.6315,38.5448,1282.89,96.80,44.60,16.83,M,6.00,0.00,30.02,M,10.00,M,CLR,M,M,M,M,M,M,M,M,M,M,M,M,M,M,92.79,KHTH 222015Z AUTO VRB06KT 10SM CLR 36/07 A3002 RMK A01,M
10U,2024-07-22 20:15,-116.1876,41.9532,1637.00,89.60,41.00,18.33,0.00,0.00,0.00,30.15,M,10.00,M,CLR,M,M,M,M,M,M,M,M,M,M,M,M,M,M,85.82,K10U 222015Z AUTO 00000KT 10SM CLR 32/05 A3015 RMK AO2,M
TMT,2024-07-22 20:15,-117.1971,39.4643,1749.34,92.00,46.00,20.58,0.00,0.00,0.00,30.17,M,10.00,M,SCT,M,M,M,11000.00,M,M,M,M,M,M,M,M,M,M,88.38,KTMT 222015Z AUTO 00000KT 10SM SCT110 33/08 A3017 RMK AO2 T03330077,M
ELY,2024-07-22 20:23,-114.8453,39.2950,1909.00,83.00,45.00,26.37,280.00,14.00,0.00,30.23,M,10.00,29.00,BKN,M,M,M,11000.00,M,M,M,M,M,M,M,29.00,270.00,2024-07-22 20:19,80.93,KELY 222023Z AUTO 28014G29KT 10SM BKN110 28/07 A3023 RMK AO2 PK WND 27029/2019 LTG DSNT SE PRESRR T02830072,M
RNO,2024-07-22 20:24,-119.7711,39.4839,1341.00,97.00,47.00,18.32,M,5.00,0.00,30.05,M,10.00,M,SCT,M,M,M,9000.00,M,M,M,TS,M,M,M,M,M,M,93.35,KRNO 222024Z VRB05KT 10SM TS SCT090CB 36/08 A3005 RMK AO2 TSB20 OCNL LTGIC SW TS SW STNRY T03610083 $,M
05U,2024-07-22 20:30,-116.0051,39.6042,1811.23,89.60,42.80,19.64,0.00,0.00,0.00,30.19,M,10.00,11.00,BKN,BKN,M,M,10000.00,12000.00,M,M,M,M,M,M,M,M,M,85.93,K05U 222030Z AUTO 00000G11KT 10SM BKN100 BKN120 32/06 A3019 RMK A01,M
BVU,2024-07-22 20:35,-114.8611,35.9475,671.00,105.80,53.60,17.97,M,4.00,0.00,29.84,M,10.00,M,CLR,M,M,M,M,M,M,M,M,M,M,M,M,M,M,104.23,KBVU 222035Z AUTO VRB04KT 10SM CLR 41/12 A2984 RMK AO2,M
CXP,2024-07-22 20:35,-119.7326,39.1923,1431.00,96.80,44.60,16.83,M,3.00,0.00,30.08,M,10.00,M,CLR,M,M,M,M,M,M,M,M,M,M,M,M,M,M,92.79,KCXP 222035Z AUTO VRB03KT 10SM CLR 36/07 A3008 RMK AO2,M
RTS,2024-07-22 20:35,-119.8764,39.6682,1539.00,95.00,42.80,16.60,90.00,9.00,0.00,30.12,M,10.00,M,CLR,M,M,M,M,M,M,M,M,M,M,M,M,M,M,90.86,KRTS 222035Z AUTO 09009KT 10SM CLR 35/06 A3012 RMK AO2,M
MEV,2024-07-22 20:35,-119.7500,38.9963,1441.42,93.20,48.20,21.54,280.00,5.00,0.00,30.08,M,10.00,13.00,CLR,M,M,M,M,M,M,M,M,M,M,M,M,M,M,89.80,KMEV 222035Z AUTO 28005G13KT 10SM CLR 34/09 A3008 RMK AO2,M
BAM,2024-07-22 20:35,-116.8743,40.5990,1382.36,96.80,48.20,19.28,30.00,5.00,0.00,30.07,M,10.00,M,CLR,M,M,M,M,M,M,M,M,M,M,M,M,M,M,93.36,KBAM 222035Z AUTO 03005KT 10SM CLR 36/09 A3007 RMK AO1,M
HTH,2024-07-22 20:35,-118.6315,38.5448,1282.89,96.80,42.80,15.71,310.00,7.00,0.00,30.02,M,10.00,M,CLR,M,M,M,M,M,M,M,M,M,M,M,M,M,M,92.57,KHTH 222035Z AUTO 31007KT 290V350 10SM CLR 36/06 A3002 RMK A01,M
10U,2024-07-22 20:35,-116.1876,41.9532,1637.00,91.40,41.00,17.32,M,3.00,0.00,30.14,M,10.00,11.00,CLR,M,M,M,M,M,M,M,M,M,M,M,M,M,M,87.40,K10U 222035Z AUTO VRB03G11KT 10SM CLR 33/05 A3014 RMK AO2,M
TMT,2024-07-22 20:35,-117.1971,39.4643,1749.34,89.00,43.00,20.17,320.00,13.00,0.00,30.17,M,10.00,M,BKN,M,M,M,10000.00,M,M,M,M,M,M,M,M,M,M,85.42,KTMT 222035Z AUTO 32013KT 10SM BKN100 32/06 A3017 RMK AO2 T03170061,M
ELY,2024-07-22 20:47,-114.8453,39.2950,1909.00,78.80,48.20,34.13,310.00,12.00,T,30.24,M,10.00,24.00,FEW,BKN,OVC,M,7500.00,10000.00,11000.00,M,-TSRA,M,M,M,29.00,270.00,2024-07-22 20:19,78.80,KELY 222047Z AUTO 31012G24KT 10SM -TSRA FEW075 BKN100 OVC110 26/09 A3024 RMK AO2 PK WND 27029/2019 LTG DSNT SE RAB24 TSB47 P0000,M
05U,2024-07-22 20:50,-116.0051,39.6042,1811.23,91.40,42.80,18.56,90.00,5.00,0.00,30.19,M,10.00,M,BKN,M,M,M,10000.00,M,M,M,M,M,M,M,M,M,M,87.52,K05U 222050Z AUTO 09005KT 10SM BKN100 33/06 A3019 RMK A01,M
10U,2024-07-22 20:50,-116.1876,41.9532,1637.00,91.40,41.00,17.32,0.00,0.00,0.00,30.14,M,10.00,M,CLR,M,M,M,M,M,M,M,M,M,M,M,M,M,M,87.40,K10U 222050Z AUTO 00000KT 10SM CLR 33/05 A3014 RMK AO2,M
CXP,2024-07-22 20:50,-119.7326,39.1923,1431.00,98.60,42.80,14.87,M,5.00,0.00,30.08,M,10.00,M,CLR,M,M,M,M,M,M,M,M,M,M,M,M,M,M,94.30,KCXP 222050Z AUTO VRB05KT 10SM CLR 37/06 A3008 RMK AO2,M
HTH,2024-07-22 20:50,-118.6315,38.5448,1282.89,98.60,42.80,14.87,360.00,4.00,0.00,30.01,M,10.00,11.00,CLR,M,M,M,M,M,M,M,M,M,M,M,M,M,M,94.30,KHTH 222050Z AUTO 36004G11KT 10SM CLR 37/06 A3001 RMK A01,M
MEV,2024-07-22 20:50,-119.7500,38.9963,1441.42,95.00,42.80,16.60,M,4.00,0.00,30.07,M,9.00,M,CLR,M,M,M,M,M,M,M,M,M,M,M,M,M,M,90.86,KMEV 222050Z AUTO VRB04KT 9SM CLR 35/06 A3007 RMK AO2,M
P68,2024-07-22 20:53,-116.0056,39.6014,1993.00,90.00,43.00,19.55,70.00,4.00,0.00,30.15,1011.60,M,M,M,M,M,M,M,M,M,M,M,M,M,M,M,M,M,86.29,KP68 222053Z AUTO 07004KT 32/06 A3015 RMK AO1 SLP116 T03220061 58016,M
DRA,2024-07-22 20:53,-116.0278,36.6206,1009.00,106.00,49.00,15.07,M,4.00,0.00,29.93,1006.70,10.00,M,CLR,M,M,M,M,M,M,M,M,M,M,M,M,M,M,102.88,KDRA 222053Z AUTO VRB04KT 10SM CLR 41/09 A2993 RMK AO2 SLP067 T04110094 58016,M
ELY,2024-07-22 20:53,-114.8453,39.2950,1909.00,78.00,49.00,36.11,330.00,7.00,T,30.24,1013.50,10.00,24.00,BKN,M,M,M,11000.00,M,M,M,-TSRA,M,M,M,29.00,270.00,2024-07-22 20:19,78.00,KELY 222053Z AUTO 33007G24KT 300V360 10SM -TSRA BKN110 26/09 A3024 RMK AO2 PK WND 27029/2019 LTG DSNT SE RAB24 TSB47 SLP135 P0000 60000 T02560094 53001,M
VGT,2024-07-22 20:53,-115.1933,36.2111,667.00,107.00,55.00,18.25,30.00,3.00,0.00,29.85,1008.90,10.00,M,CLR,M,M,M,M,M,M,M,M,M,M,M,M,M,M,106.09,KVGT 222053Z 03003KT 10SM CLR 42/13 A2985 RMK AO2 SLP089 T04170128 56016,M
LOL,2024-07-22 20:53,-118.5701,40.0684,1192.43,98.00,47.00,17.77,M,3.00,0.00,30.01,1010.90,10.00,M,CLR,M,M,M,M,M,M,M,M,M,M,M,M,M,M,94.34,KLOL 222053Z AUTO VRB03KT 10SM CLR 37/08 A3001 RMK AO2 SLP109 T03670083 58014,M
NFL,2024-07-22 20:54,-118.7010,39.4166,1199.00,99.00,45.00,15.98,M,3.00,0.00,29.99,1012.70,10.00,M,SCT,SCT,SCT,M,8000.00,12000.00,20000.00,M,M,M,M,M,M,M,M,95.00,KNFL 222054Z VRB03KT 10SM SCT080 SCT120 SCT200 37/07 A2999 RMK AO2 SLP127 CB DSNT ALQDS T03720072 58019,M
BVU,2024-07-22 20:55,-114.8611,35.9475,671.00,107.60,53.60,17.04,150.00,7.00,0.00,29.84,M,10.00,M,CLR,M,M,M,M,M,M,M,M,M,M,M,M,M,M,106.13,KBVU 222055Z AUTO 15007KT 120V180 10SM CLR 42/12 A2984 RMK AO2,M
RNO,2024-07-22 20:55,-119.7711,39.4839,1341.00,97.00,46.00,17.64,M,3.00,0.00,30.04,1010.20,10.00,M,SCT,SCT,M,M,9500.00,24000.00,M,M,TS,M,M,M,M,M,M,93.19,KRNO 222055Z VRB03KT 10SM TS SCT095CB SCT240 36/08 A3004 RMK AO2 TSB20 SLP102 OCNL LTGIC SW TS SW STNRY T03610078 56014 $,M
RTS,2024-07-22 20:55,-119.8764,39.6682,1539.00,93.20,42.80,17.55,100.00,5.00,0.00,30.11,M,10.00,M,CLR,M,M,M,M,M,M,M,M,M,M,M,M,M,M,89.17,KRTS 222055Z AUTO 10005KT 10SM CLR 34/06 A3011 RMK AO2,M
BAM,2024-07-22 20:55,-116.8743,40.5990,1382.36,98.60,46.40,17.05,350.00,7.00,0.00,30.06,M,10.00,M,CLR,M,M,M,M,M,M,M,M,M,M,M,M,M,M,94.84,KBAM 222055Z AUTO 35007KT 10SM CLR 37/08 A3006 RMK AO1,M
TMT,2024-07-22 20:55,-117.1971,39.4643,1749.34,81.70,51.30,34.84,270.00,13.00,0.00,30.20,M,10.00,29.00,SCT,BKN,M,M,8000.00,10000.00,M,M,-RA,M,M,M,M,M,M,80.69,KTMT 222055Z AUTO 27013G29KT 10SM -RA SCT080 BKN100 28/11 A3020 RMK AO2 T02760107,M
INS,2024-07-22 20:55,-115.6733,36.5872,955.00,104.50,45.70,13.91,170.00,6.00,0.00,29.91,1006.20,10.00,M,CLR,M,M,M,M,M,M,M,M,M,M,M,M,M,M,100.54,KINS 222055Z AUTO 17006KT 10SM CLR 40/08 A2991 RMK AO2 SLP062 T04030076 57018 $,M
LSV,2024-07-22 20:55,-115.0343,36.2362,570.00,107.40,51.60,15.93,270.00,6.00,0.00,29.78,1004.90,10.00,M,CLR,M,M,M,M,M,M,M,M,M,M,M,M,M,M,105.15,KLSV 222055Z AUTO 27006KT 10SM CLR 42/11 A2978 RMK AO2 SLP049 T04190109 57020 $,M
EKO,2024-07-22 20:56,-115.7860,40.8242,1367.00,97.00,44.00,16.35,210.00,4.00,0.00,30.09,1011.40,10.00,M,CLR,M,M,M,M,M,M,M,M,M,M,M,M,M,M,92.91,KEKO 222056Z AUTO 21004KT 10SM CLR 36/07 A3009 RMK AO2 SLP114 T03610067 56015,M
WMC,2024-07-22 20:56,-117.8072,40.9019,1315.00,104.00,44.00,13.24,280.00,10.00,0.00,30.03,1009.90,10.00,18.00,CLR,M,M,M,M,M,M,M,M,M,M,M,M,M,M,99.70,KWMC 222056Z AUTO 28010G18KT 10SM CLR 40/07 A3003 RMK AO2 SLP099 T04000067 58014,M
HND,2024-07-22 20:56,-115.1344,35.9729,742.79,107.00,54.00,17.60,M,4.00,0.00,29.89,1009.80,10.00,M,CLR,M,M,M,M,M,M,M,M,M,M,M,M,M,M,105.66,KHND 222056Z VRB04KT 10SM CLR 42/12 A2989 RMK AO2 LTG DSNT S SLP098 T04170122 58018,M
TPH,2024-07-22 20:56,-117.0904,38.0505,1654.00,94.00,45.00,18.62,190.00,9.00,0.00,30.11,1009.50,10.00,15.00,CLR,M,M,M,M,M,M,M,M,M,M,M,M,M,M,90.15,KTPH 222056Z AUTO 19009G15KT 10SM CLR 34/07 A3011 RMK AO2 LTG DSNT SW SLP095 T03440072 58019,M
LAS,2024-07-22 20:56,-115.1634,36.0719,663.00,108.00,52.00,15.88,M,4.00,0.00,29.85,1003.90,10.00,M,FEW,SCT,M,M,11000.00,25000.00,M,M,M,M,M,M,M,M,M,105.91,KLAS 222056Z VRB04KT 10SM FEW110 SCT250 42/11 A2985 RMK AO2 PRESFR SLP039 CB DSNT N AND S AND W T04220111 58019 $,M
ELY,2024-07-22 21:08,-114.8453,39.2950,1909.00,79.00,54.00,42.03,50.00,8.00,T,30.25,M,10.00,M,BKN,OVC,M,M,9000.00,11000.00,M,M,M,M,M,M,M,M,M,79.00,KELY 222108Z AUTO 05008KT 10SM BKN090 OVC110 26/12 A3025 RMK AO2 RAE2059 TSE02 P0000 T02610122,M
CXP,2024-07-22 21:10,-119.7326,39.1923,1431.00,98.60,42.80,14.87,170.00,11.00,0.00,30.07,M,10.00,M,CLR,M,M,M,M,M,M,M,M,M,M,M,M,M,M,94.30,KCXP 222110Z AUTO 17011KT 10SM CLR 37/06 A3007 RMK AO2,M
05U,2024-07-22 21:10,-116.0051,39.6042,1811.23,91.40,42.80,18.56,0.00,0.00,0.00,30.18,M,10.00,M,FEW,M,M,M,10000.00,M,M,M,M,M,M,M,M,M,M,87.52,K05U 222110Z AUTO 00000KT 10SM FEW100 33/06 A3018 RMK A01,M
BVU,2024-07-22 21:15,-114.8611,35.9475,671.00,105.80,53.60,17.97,150.00,4.00,0.00,29.83,M,10.00,14.00,CLR,M,M,M,M,M,M,M,M,M,M,M,M,M,M,104.23,KBVU 222115Z AUTO 15004G14KT 10SM CLR 41/12 A2983 RMK AO2,M
RTS,2024-07-22 21:15,-119.8764,39.6682,1539.00,91.40,42.80,18.56,120.00,5.00,0.00,30.11,M,10.00,M,SCT,M,M,M,11000.00,M,M,M,M,M,M,M,M,M,M,87.52,KRTS 222115Z AUTO 12005KT 10SM SCT110 33/06 A3011 RMK AO2,M
MEV,2024-07-22 21:15,-119.7500,38.9963,1441.42,96.80,44.60,16.83,250.00,6.00,0.00,30.06,M,8.00,11.00,CLR,M,M,M,M,M,M,M,M,M,M,M,M,M,M,92.79,KMEV 222115Z AUTO 25006G11KT 8SM CLR 36/07 A3006 RMK AO2,M
BAM,2024-07-22 21:15,-116.8743,40.5990,1382.36,98.60,46.40,17.05,30.00,7.00,0.00,30.05,M,10.00,M,CLR,M,M,M,M,M,M,M,M,M,M,M,M,M,M,94.84,KBAM 222115Z AUTO 03007KT 10SM CLR 37/08 A3005 RMK AO1,M
HTH,2024-07-22 21:15,-118.6315,38.5448,1282.89,96.80,41.00,14.66,M,5.00,0.00,30.01,M,10.00,13.00,CLR,M,M,M,M,M,M,M,M,M,M,M,M,M,M,92.39,KHTH 222115Z AUTO VRB05G13KT 10SM CLR 36/05 A3001 RMK A01,M
10U,2024-07-22 21:15,-116.1876,41.9532,1637.00,93.20,41.00,16.37,M,4.00,0.00,30.13,M,10.00,10.00,SCT,M,M,M,11000.00,M,M,M,M,M,M,M,M,M,M,89.03,K10U 222115Z AUTO VRB04G10KT 10SM SCT110 34/05 A3013 RMK AO2,M
TMT,2024-07-22 21:15,-117.1971,39.4643,1749.34,72.30,58.60,62.07,130.00,15.00,0.00,30.21,M,7.00,20.00,SCT,BKN,OVC,M,3300.00,7000.00,11000.00,M,RA,M,M,M,M,M,M,72.30,KTMT 222115Z AUTO 13015G20KT 7SM RA SCT033 BKN070 OVC110 22/15 A3021 RMK AO2 T02240148,M
RNO,2024-07-22 21:18,-119.7711,39.4839,1341.00,97.00,46.00,17.64,270.00,11.00,0.00,30.04,M,10.00,M,SCT,SCT,M,M,9500.00,24000.00,M,M,M,M,M,M,M,M,M,93.19,KRNO 222118Z 27011KT 10SM SCT095 SCT240 36/08 A3004 RMK AO2 TSE17 CB DSNT NW T03610078,M
ELY,2024-07-22 21:25,-114.8453,39.2950,1909.00,78.00,50.00,37.48,80.00,6.00,T,30.25,M,10.00,M,SCT,OVC,M,M,7000.00,10000.00,M,M,VCTS,M,M,M,M,M,M,78.00,KELY 222125Z AUTO 08006KT 10SM VCTS SCT070 OVC100 26/10 A3025 RMK AO2 RAE2059 TSE02 P0000 T02560100,M
05U,2024-07-22 21:30,-116.0051,39.6042,1811.23,86.00,46.40,25.26,310.00,22.00,0.00,30.20,M,10.00,31.00,FEW,M,M,M,11000.00,M,M,M,M,M,M,M,M,M,M,83.22,K05U 222130Z AUTO 31022G31KT 10SM FEW110 30/08 A3020 RMK A01,M
BVU,2024-07-22 21:35,-114.8611,35.9475,671.00,105.80,51.80,16.82,M,4.00,0.00,29.82,M,10.00,M,CLR,M,M,M,M,M,M,M,M,M,M,M,M,M,M,103.57,KBVU 222135Z AUTO VRB04KT 10SM CLR 41/11 A2982 RMK AO2,M
CXP,2024-07-22 21:35,-119.7326,39.1923,1431.00,98.60,44.60,15.93,M,4.00,0.00,30.06,M,10.00,11.00,CLR,M,M,M,M,M,M,M,VCTS,M,M,M,M,M,M,94.55,KCXP 222135Z AUTO VRB04G11KT 10SM VCTS CLR 37/07 A3006 RMK AO2 LTG DSNT SE AND W AND NW,M
RTS,2024-07-22 21:35,-119.8764,39.6682,1539.00,93.20,42.80,17.55,290.00,8.00,0.00,30.11,M,10.00,M,FEW,M,M,M,11000.00,M,M,M,M,M,M,M,M,M,M,89.17,KRTS 222135Z AUTO 29008KT 10SM FEW110 34/06 A3011 RMK AO2,M
MEV,2024-07-22 21:35,-119.7500,38.9963,1441.42,96.80,46.40,18.02,M,5.00,0.00,30.05,M,10.00,M,CLR,M,M,M,M,M,M,M,M,M,M,M,M,M,M,93.05,KMEV 222135Z AUTO VRB05KT 10SM CLR 36/08 A3005 RMK AO2 LTG DSNT E AND SE AND NW,M
HTH,2024-07-22 21:35,-118.6315,38.5448,1282.89,96.80,39.20,13.66,160.00,3.00,0.00,30.00,M,10.00,M,CLR,M,M,M,M,M,M,M,M,M,M,M,M,M,M,92.23,KHTH 222135Z AUTO 16003KT 10SM CLR 36/04 A3000 RMK A01,M
10U,2024-07-22 21:35,-116.1876,41.9532,1637.00,91.40,39.20,16.15,M,4.00,0.00,30.12,M,10.00,16.00,CLR,M,M,M,M,M,M,M,M,M,M,M,M,M,M,87.30,K10U 222135Z AUTO VRB04G16KT 10SM CLR 33/04 A3012 RMK AO2,M
BAM,2024-07-22 21:35,-116.8743,40.5990,1382.36,98.60,46.40,17.05,30.00,7.00,0.00,30.05,M,10.00,M,CLR,M,M,M,M,M,M,M,M,M,M,M,M,M,M,94.84,KBAM 222135Z AUTO 03007KT 10SM CLR 37/08 A3005 RMK AO1,M
TMT,2024-07-22 21:35,-117.1971,39.4643,1749.34,72.70,60.00,64.38,100.00,6.00,0.00,30.20,M,10.00,19.00,SCT,SCT,BKN,M,3200.00,5000.00,9000.00,M,M,M,M,M,M,M,M,72.70,KTMT 222135Z AUTO 10006G19KT 10SM SCT032 SCT050 BKN090 23/16 A3020 RMK AO2 T02260156,M
ELY,2024-07-22 21:40,-114.8453,39.2950,1909.00,78.00,49.00,36.11,70.00,12.00,T,30.26,M,10.00,18.00,FEW,BKN,OVC,M,6500.00,8000.00,11000.00,M,-RA,M,M,M,M,M,M,78.00,KELY 222140Z AUTO 07012G18KT 10SM -RA FEW065 BKN080 OVC110 26/09 A3026 RMK AO2 LTG DSNT W RAE2059B39 TSE02 P0000 T02560094,M
05U,2024-07-22 21:50,-116.0051,39.6042,1811.23,71.60,57.20,60.44,310.00,18.00,0.00,30.20,M,5.00,25.00,FEW,M,M,M,11000.00,M,M,M,HZ,M,M,M,M,M,M,71.60,K05U 222150Z AUTO 31018G25KT 5SM HZ FEW110 22/14 A3020 RMK A01,M
DRA,2024-07-22 21:53,-116.0278,36.6206,1009.00,108.00,48.00,13.69,230.00,11.00,0.00,29.90,1006.00,10.00,18.00,CLR,M,M,M,M,M,M,M,M,M,M,M,M,M,M,104.56,KDRA 222153Z AUTO 23011G18KT 10SM CLR 42/09 A2990 RMK AO2 SLP060 T04220089,M
ELY,2024-07-22 21:53,-114.8453,39.2950,1909.00,77.00,49.00,37.33,20.00,6.00,T,30.25,1014.00,10.00,M,FEW,SCT,OVC,M,4900.00,8500.00,11000.00,M,-RA,M,M,M,M,M,M,77.00,KELY 222153Z AUTO 02006KT 10SM -RA FEW049 SCT085 OVC110 25/09 A3025 RMK AO2 LTG DSNT W RAE2059B39 TSE02 SLP140 P0000 T02500094,M
VGT,2024-07-22 21:53,-115.1933,36.2111,667.00,108.00,53.00,16.48,220.00,3.00,0.00,29.82,1007.80,10.00,M,CLR,M,M,M,M,M,M,M,M,M,M,M,M,M,M,106.30,KVGT 222153Z 22003KT 10SM CLR 42/12 A2982 RMK AO2 SLP078 T04220117,M
LOL,2024-07-22 21:53,-118.5701,40.0684,1192.43,99.00,46.00,16.60,M,5.00,0.00,29.98,1009.90,10.00,M,CLR,M,M,M,M,M,M,M,M,M,M,M,M,M,M,95.17,KLOL 222153Z AUTO VRB05KT 10SM CLR 37/08 A2998 RMK AO2 SLP099 T03720078,M
NFL,2024-07-22 21:54,-118.7010,39.4166,1199.00,103.00,47.00,15.28,320.00,10.00,0.00,29.97,1011.90,10.00,15.00,SCT,SCT,SCT,M,8000.00,12000.00,25000.00,M,M,M,M,M,M,M,M,99.35,KNFL 222154Z 32010G15KT 10SM SCT080 SCT120 SCT250 39/08 A2997 RMK AO2 SLP119 CB DSNT ALQDS T03940083,M
BVU,2024-07-22 21:55,-114.8611,35.9475,671.00,107.60,51.80,15.95,0.00,0.00,0.00,29.81,M,10.00,13.00,CLR,M,M,M,M,M,M,M,M,M,M,M,M,M,M,105.43,KBVU 222155Z AUTO 00000G13KT 10SM CLR 42/11 A2981 RMK AO2,M
CXP,2024-07-22 21:55,-119.7326,39.1923,1431.00,100.40,44.60,15.08,270.00,11.00,0.00,30.06,M,10.00,M,CLR,M,M,M,M,M,M,M,M,M,M,M,M,M,M,96.31,KCXP 222155Z AUTO 27011KT 220V290 10SM CLR 38/07 A3006 RMK AO2 LTG DSNT SE,M
RNO,2024-07-22 21:55,-119.7711,39.4839,1341.00,98.00,45.00,16.47,270.00,11.00,0.00,30.03,1009.70,10.00,M,SCT,SCT,M,M,9500.00,24000.00,M,M,M,M,M,M,M,M,M,94.02,KRNO 222155Z 27011KT 10SM SCT095 SCT240 37/07 A3003 RMK AO2 TSE17 SLP097 CB DSNT ALQDS T03670072,M
RTS,2024-07-22 21:55,-119.8764,39.6682,1539.00,95.00,44.60,17.78,280.00,12.00,0.00,30.11,M,10.00,M,CLR,M,M,M,M,M,M,M,M,M,M,M,M,M,M,91.06,KRTS 222155Z AUTO 28012KT 10SM CLR 35/07 A3011 RMK AO2,M
MEV,2024-07-22 21:55,-119.7500,38.9963,1441.42,96.80,46.40,18.02,M,4.00,0.00,30.05,M,10.00,11.00,FEW,M,M,M,11000.00,M,M,M,M,M,M,M,M,M,M,93.05,KMEV 222155Z AUTO VRB04G11KT 10SM FEW110 36/08 A3005 RMK AO2 LTG DSNT E AND SE,M
BAM,2024-07-22 21:55,-116.8743,40.5990,1382.36,98.60,44.60,15.93,40.00,4.00,0.00,30.04,M,10.00,M,CLR,M,M,M,M,M,M,M,M,M,M,M,M,M,M,94.55,KBAM 222155Z AUTO 04004KT 10SM CLR 37/07 A3004 RMK AO1,M
HTH,2024-07-22 21:55,-118.6315,38.5448,1282.89,98.60,46.40,17.05,200.00,16.00,0.00,30.00,M,10.00,M,CLR,M,M,M,M,M,M,M,M,M,M,M,M,M,M,94.84,KHTH 222155Z AUTO 20016KT 10SM CLR 37/08 A3000 RMK A01,M
10U,2024-07-22 21:55,-116.1876,41.9532,1637.00,93.20,41.00,16.37,0.00,0.00,0.00,30.12,M,10.00,12.00,CLR,M,M,M,M,M,M,M,M,M,M,M,M,M,M,89.03,K10U 222155Z AUTO 00000G12KT 10SM CLR 34/05 A3012 RMK AO2,M
TMT,2024-07-22 21:55,-117.1971,39.4643,1749.34,82.40,57.00,41.94,100.00,9.00,0.00,30.19,M,10.00,M,SCT,M,M,M,9000.00,M,M,M,M,M,M,M,M,M,M,82.04,KTMT 222155Z AUTO 10009KT 10SM SCT090 28/14 A3019 RMK AO2 T02800138,M
INS,2024-07-22 21:55,-115.6733,36.5872,955.00,106.00,45.00,12.96,130.00,8.00,0.00,29.89,1005.50,10.00,M,CLR,M,M,M,M,M,M,M,VCTS,M,M,M,M,M,M,101.83,KINS 222155Z AUTO 13008KT 10SM VCTS CLR 41/07 A2989 RMK AO2 SLP055 T04110072 $,M
LSV,2024-07-22 21:55,-115.0343,36.2362,570.00,108.00,46.60,12.98,100.00,6.00,0.00,29.75,1003.90,10.00,M,CLR,M,M,M,M,M,M,M,M,M,M,M,M,M,M,104.15,KLSV 222155Z AUTO 10006KT 10SM CLR 42/08 A2975 RMK AO2 SLP039 T04230081 $,M
EKO,2024-07-22 21:56,-115.7860,40.8242,1367.00,89.00,49.00,25.32,120.00,7.00,0.00,30.09,1011.80,10.00,M,SCT,M,M,M,11000.00,M,M,M,M,M,M,M,M,M,M,86.01,KEKO 222156Z AUTO 12007KT 10SM SCT110 32/09 A3009 RMK AO2 SLP118 T03170094,M
WMC,2024-07-22 21:56,-117.8072,40.9019,1315.00,100.00,44.00,14.92,M,5.00,0.00,30.00,1009.10,10.00,M,FEW,M,M,M,12000.00,M,M,M,M,M,M,M,M,M,M,95.83,KWMC 222156Z AUTO VRB05KT 10SM FEW120 38/07 A3000 RMK AO2 SLP091 T03780067,M
HND,2024-07-22 21:56,-115.1344,35.9729,742.79,108.00,54.00,17.09,190.00,8.00,0.00,29.86,1008.70,10.00,M,CLR,M,M,M,M,M,M,M,M,M,M,M,M,M,M,106.72,KHND 222156Z 19008KT 170V240 10SM CLR 42/12 A2986 RMK AO2 LTG DSNT SE AND W SLP087 T04220122,M
TPH,2024-07-22 21:56,-117.0904,38.0505,1654.00,97.00,42.00,15.14,M,M,0.00,30.09,1008.80,10.00,M,FEW,M,M,M,12000.00,M,M,M,M,M,M,M,M,M,M,92.68,KTPH 222156Z AUTO 10SM FEW120 36/06 A3009 RMK AO2 LTG DSNT SW SLP088 T03610056,M
LAS,2024-07-22 21:56,-115.1634,36.0719,663.00,111.00,50.00,13.51,50.00,7.00,0.00,29.82,1002.70,10.00,M,FEW,FEW,BKN,M,11000.00,18000.00,25000.00,M,M,M,M,M,M,M,M,108.14,KLAS 222156Z 05007KT 10SM FEW110 FEW180 BKN250 44/10 A2982 RMK AO2 LTG DSNT SE AND W PRESFR SLP027 CB DSNT ALQDS T04390100 $,M
05U,2024-07-22 22:10,-116.0051,39.6042,1811.23,71.60,55.40,56.63,350.00,5.00,0.00,30.20,M,10.00,15.00,FEW,SCT,BKN,M,4900.00,6500.00,11000.00,M,M,M,M,M,M,M,M,71.60,K05U 222210Z AUTO 35005G15KT 10SM FEW049 SCT065 BKN110 22/13 A3020 RMK A01,M
BVU,2024-07-22 22:15,-114.8611,35.9475,671.00,107.60,50.00,14.92,M,6.00,0.00,29.80,M,10.00,M,CLR,M,M,M,M,M,M,M,M,M,M,M,M,M,M,104.80,KBVU 222215Z AUTO VRB06KT 10SM CLR 42/10 A2980 RMK AO2,M
CXP,2024-07-22 22:15,-119.7326,39.1923,1431.00,96.80,44.60,16.83,250.00,11.00,0.00,30.06,M,10.00,18.00,FEW,M,M,M,11000.00,M,M,M,M,M,M,M,M,M,M,92.79,KCXP 222215Z AUTO 25011G18KT 10SM FEW110 36/07 A3006 RMK AO2 LTG DSNT NE-SE,M
RTS,2024-07-22 22:15,-119.8764,39.6682,1539.00,96.80,44.60,16.83,280.00,12.00,0.00,30.10,M,10.00,18.00,CLR,M,M,M,M,M,M,M,M,M,M,M,M,M,M,92.79,KRTS 222215Z AUTO 28012G18KT 10SM CLR 36/07 A3010 RMK AO2,M
MEV,2024-07-22 22:15,-119.7500,38.9963,1441.42,95.00,48.20,20.38,280.00,11.00,0.00,30.05,M,10.00,19.00,FEW,M,M,M,11000.00,M,M,M,M,M,M,M,M,M,M,91.56,KMEV 222215Z AUTO 28011G19KT 10SM FEW110 35/09 A3005 RMK AO2,M
BAM,2024-07-22 22:15,-116.8743,40.5990,1382.36,96.80,44.60,16.83,30.00,4.00,0.00,30.04,M,10.00,M,CLR,M,M,M,M,M,M,M,M,M,M,M,M,M,M,92.79,KBAM 222215Z AUTO 03004KT 10SM CLR 36/07 A3004 RMK AO1,M
HTH,2024-07-22 22:15,-118.6315,38.5448,1282.89,87.80,53.60,31.17,180.00,19.00,0.00,30.02,M,10.00,27.00,FEW,M,M,M,12000.00,M,M,M,M,M,M,M,M,M,M,85.72,KHTH 222215Z AUTO 18019G27KT 10SM FEW120 31/12 A3002 RMK A01,M
10U,2024-07-22 22:15,-116.1876,41.9532,1637.00,91.40,41.00,17.32,180.00,4.00,0.00,30.11,M,10.00,M,CLR,M,M,M,M,M,M,M,M,M,M,M,M,M,M,87.40,K10U 222215Z AUTO 18004KT 10SM CLR 33/05 A3011 RMK AO2,M
TMT,2024-07-22 22:15,-117.1971,39.4643,1749.34,87.00,46.40,24.46,230.00,8.00,0.00,30.17,M,10.00,15.00,CLR,M,M,M,M,M,M,M,M,M,M,M,M,M,M,84.02,KTMT 222215Z AUTO 23008G15KT 10SM CLR 31/08 A3017 RMK AO2 T03060080,M
CXP,2024-07-22 22:30,-119.7326,39.1923,1431.00,98.60,44.60,15.93,280.00,9.00,0.00,30.06,M,10.00,20.00,CLR,M,M,M,M,M,M,M,M,M,M,M,M,M,M,94.55,KCXP 222230Z AUTO 28009G20KT 10SM CLR 37/07 A3006 RMK AO2 LTG DSNT E,M
RTS,2024-07-22 22:30,-119.8764,39.6682,1539.00,95.00,44.60,17.78,300.00,11.00,0.00,30.10,M,10.00,23.00,CLR,M,M,M,M,M,M,M,M,M,M,M,M,M,M,91.06,KRTS 222230Z AUTO 30011G23KT 10SM CLR 35/07 A3010 RMK AO2,M
05U,2024-07-22 22:30,-116.0051,39.6042,1811.23,73.40,53.60,49.90,100.00,6.00,0.00,30.22,M,2.50,14.00,FEW,SCT,OVC,M,3200.00,6500.00,10000.00,M,HZ,M,M,M,M,M,M,73.40,K05U 222230Z AUTO 10006G14KT 2 1/2SM HZ FEW032 SCT065 OVC100 23/12 A3022 RMK A01,M
MEV,2024-07-22 22:30,-119.7500,38.9963,1441.42,95.00,50.00,21.79,290.00,12.00,0.00,30.05,M,10.00,17.00,BKN,M,M,M,10000.00,M,M,M,M,M,M,M,M,M,M,91.89,KMEV 222230Z AUTO 29012G17KT 10SM BKN100 35/10 A3005 RMK AO2,M
INS,2024-07-22 22:31,-115.6733,36.5872,955.00,102.20,46.40,15.30,290.00,14.00,0.00,29.89,1005.60,10.00,M,BKN,M,M,M,11000.00,M,M,M,TS,M,M,M,M,M,M,98.43,KINS 222231Z AUTO 29014KT 10SM TS BKN110 39/08 A2989 RMK AO2 TSB31 SLP056 $,M
BVU,2024-07-22 22:35,-114.8611,35.9475,671.00,109.40,51.80,15.13,210.00,13.00,0.00,29.80,M,10.00,22.00,CLR,M,M,M,M,M,M,M,M,M,M,M,M,M,M,107.25,KBVU 222235Z AUTO 21013G22KT 10SM CLR 43/11 A2980 RMK AO2,M
BAM,2024-07-22 22:35,-116.8743,40.5990,1382.36,96.80,46.40,18.02,40.00,3.00,0.00,30.03,M,10.00,M,CLR,M,M,M,M,M,M,M,M,M,M,M,M,M,M,93.05,KBAM 222235Z AUTO 04003KT 10SM CLR 36/08 A3003 RMK AO1,M
TMT,2024-07-22 22:35,-117.1971,39.4643,1749.34,87.40,48.70,26.33,150.00,3.00,0.00,30.16,M,10.00,M,CLR,M,M,M,M,M,M,M,M,M,M,M,M,M,M,84.60,KTMT 222235Z AUTO 15003KT 10SM CLR 31/09 A3016 RMK AO2 T03080093,M
05U,2024-07-22 22:50,-116.0051,39.6042,1811.23,71.60,59.00,64.48,90.00,11.00,0.00,30.22,M,9.00,M,FEW,SCT,BKN,M,3200.00,5500.00,10000.00,M,M,M,M,M,M,M,M,71.60,K05U 222250Z AUTO 09011KT 9SM FEW032 SCT055 BKN100 22/15 A3022 RMK A01,M
INS,2024-07-22 22:53,-115.6733,36.5872,955.00,102.20,48.20,16.37,180.00,14.00,0.00,29.89,1005.60,10.00,19.00,SCT,BKN,OVC,M,12000.00,17000.00,20000.00,M,M,M,M,M,M,M,M,98.83,KINS 222253Z AUTO 18014G19KT 10SM SCT120 BKN170 OVC200 39/09 A2989 RMK AO2 LTG DSNT NE AND S-W TSB31E53 SLP056 $,M
P68,2024-07-22 22:53,-116.0056,39.6014,1993.00,71.00,58.00,63.49,100.00,13.00,0.05,30.19,1014.40,M,M,M,M,M,M,M,M,M,M,M,M,M,M,M,M,M,71.00,KP68 222253Z AUTO 10013KT 22/14 A3019 RMK AO1 SLP144 P0005 T02170144,M
DRA,2024-07-22 22:53,-116.0278,36.6206,1009.00,103.00,51.00,17.74,30.00,24.00,0.00,29.90,1006.50,10.00,36.00,CLR,M,M,M,M,M,M,M,M,M,M,M,36.00,30.00,2024-07-22 22:44,100.40,KDRA 222253Z AUTO 03024G36KT 10SM CLR 39/11 A2990 RMK AO2 PK WND 03036/2244 SLP065 T03940106,M
ELY,2024-07-22 22:53,-114.8453,39.2950,1909.00,82.00,46.00,28.30,100.00,14.00,T,30.21,1012.20,10.00,26.00,FEW,M,M,M,12000.00,M,M,M,M,M,M,M,31.00,80.00,2024-07-22 22:24,80.36,KELY 222253Z AUTO 10014G26KT 10SM FEW120 28/08 A3021 RMK AO2 PK WND 08031/2224 RAE17 SLP122 P0000 T02780078,M
VGT,2024-07-22 22:53,-115.1933,36.2111,667.00,108.00,53.00,16.48,M,3.00,0.00,29.80,1007.00,10.00,M,CLR,M,M,M,M,M,M,M,M,M,M,M,M,M,M,106.30,KVGT 222253Z VRB03KT 10SM CLR 42/12 A2980 RMK AO2 LTG DSNT SW AND W SLP070 T04220117,M
LOL,2024-07-22 22:53,-118.5701,40.0684,1192.43,100.00,46.00,16.10,0.00,0.00,0.00,29.95,1009.00,10.00,M,CLR,M,M,M,M,M,M,M,M,M,M,M,M,M,M,96.16,KLOL 222253Z AUTO 00000KT 10SM CLR 38/08 A2995 RMK AO2 SLP090 T03780078,M
NFL,2024-07-22 22:54,-118.7010,39.4166,1199.00,105.00,45.00,13.35,M,5.00,0.00,29.95,1011.40,10.00,M,SCT,SCT,SCT,M,8000.00,12000.00,25000.00,M,M,M,M,M,M,M,M,100.87,KNFL 222254Z VRB05KT 10SM SCT080 SCT120 SCT250 41/07 A2995 RMK AO2 SLP114 CB DSNT ALQDS T04060072,M
BVU,2024-07-22 22:55,-114.8611,35.9475,671.00,107.60,51.80,15.95,220.00,15.00,0.00,29.79,M,10.00,M,CLR,M,M,M,M,M,M,M,M,M,M,M,M,M,M,105.43,KBVU 222255Z AUTO 22015KT 10SM CLR 42/11 A2979 RMK AO2,M
CXP,2024-07-22 22:55,-119.7326,39.1923,1431.00,98.60,46.40,17.05,290.00,12.00,0.00,30.05,M,10.00,19.00,CLR,M,M,M,M,M,M,M,M,M,M,M,M,M,M,94.84,KCXP 222255Z AUTO 29012G19KT 10SM CLR 37/08 A3005 RMK AO2 LTG DSNT NE AND SE,M
RNO,2024-07-22 22:55,-119.7711,39.4839,1341.00,98.00,48.00,18.45,270.00,12.00,0.00,30.01,1009.20,10.00,M,SCT,BKN,M,M,11000.00,21000.00,M,M,M,M,M,M,M,M,M,94.53,KRNO 222255Z 27012KT 10SM SCT110 BKN210 37/09 A3001 RMK AO2 SLP092 CB DSNT ALQDS T03670089,M
RTS,2024-07-22 22:55,-119.8764,39.6682,1539.00,95.00,44.60,17.78,300.00,11.00,0.00,30.09,M,10.00,18.00,CLR,M,M,M,M,M,M,M,M,M,M,M,M,M,M,91.06,KRTS 222255Z AUTO 30011G18KT 10SM CLR 35/07 A3009 RMK AO2,M
MEV,2024-07-22 22:55,-119.7500,38.9963,1441.42,96.80,50.00,20.62,300.00,15.00,0.00,30.04,M,10.00,25.00,FEW,M,M,M,11000.00,M,M,M,M,M,M,M,M,M,M,93.71,KMEV 222255Z AUTO 30015G25KT 10SM FEW110 36/10 A3004 RMK AO2 LTG DSNT NE AND SE,M
BAM,2024-07-22 22:55,-116.8743,40.5990,1382.36,98.60,46.40,17.05,320.00,3.00,0.00,30.03,M,10.00,M,CLR,M,M,M,M,M,M,M,M,M,M,M,M,M,M,94.84,KBAM 222255Z AUTO 32003KT 10SM CLR 37/08 A3003 RMK AO1,M
HTH,2024-07-22 22:55,-118.6315,38.5448,1282.89,84.20,57.20,39.86,200.00,17.00,0.00,30.05,M,8.00,24.00,FEW,SCT,OVC,M,4800.00,5500.00,12000.00,M,M,M,M,M,M,M,M,83.47,KHTH 222255Z AUTO 20017G24KT 8SM FEW048 SCT055 OVC120 29/14 A3005 RMK A01,M
10U,2024-07-22 22:55,-116.1876,41.9532,1637.00,91.40,41.00,17.32,90.00,9.00,0.00,30.09,M,10.00,M,SCT,M,M,M,11000.00,M,M,M,M,M,M,M,M,M,M,87.40,K10U 222255Z AUTO 09009KT 10SM SCT110 33/05 A3009 RMK AO2,M
TMT,2024-07-22 22:55,-117.1971,39.4643,1749.34,88.00,48.00,25.17,200.00,6.00,0.00,30.16,M,10.00,M,CLR,M,M,M,M,M,M,M,M,M,M,M,M,M,M,85.02,KTMT 222255Z AUTO 20006KT 10SM CLR 31/09 A3016 RMK AO2 T03120089,M
INS,2024-07-22 22:55,-115.6733,36.5872,955.00,100.00,50.40,18.99,190.00,14.00,0.00,29.90,1006.10,10.00,19.00,BKN,BKN,OVC,M,12000.00,17000.00,20000.00,M,M,M,M,M,M,M,M,97.10,KINS 222255Z AUTO 19014G19KT 10SM BKN120 BKN170 OVC200 38/10 A2990 RMK AO2 LTG DSNT NE AND S-W TSB31E53 SLP061 T03780102 $,M
LSV,2024-07-22 22:55,-115.0343,36.2362,570.00,109.00,45.00,11.87,230.00,5.00,0.00,29.73,1003.30,10.00,M,CLR,M,M,M,M,M,M,M,M,M,M,M,M,M,M,104.54,KLSV 222255Z AUTO 23005KT 10SM CLR 43/07 A2973 RMK AO2 SLP033 T04270072 $,M
EKO,2024-07-22 22:56,-115.7860,40.8242,1367.00,90.00,50.00,25.46,110.00,7.00,T,30.10,1012.50,10.00,M,FEW,SCT,BKN,M,4200.00,9500.00,11000.00,M,-RA,M,M,M,M,M,M,87.06,KEKO 222256Z AUTO 11007KT 080V140 10SM -RA FEW042 SCT095 BKN110 32/10 A3010 RMK AO2 RAB54 SLP125 P0000 T03220100,M
WMC,2024-07-22 22:56,-117.8072,40.9019,1315.00,102.00,43.00,13.52,270.00,9.00,0.00,29.99,1008.80,10.00,15.00,CLR,M,M,M,M,M,M,M,M,M,M,M,M,M,M,97.60,KWMC 222256Z AUTO 27009G15KT 10SM CLR 39/06 A2999 RMK AO2 SLP088 T03890061,M
HND,2024-07-22 22:56,-115.1344,35.9729,742.79,108.00,56.00,18.38,180.00,6.00,0.00,29.85,1008.30,10.00,14.00,FEW,M,M,M,12000.00,M,M,M,M,M,M,M,M,M,M,107.62,KHND 222256Z 18006G14KT 10SM FEW120 42/13 A2985 RMK AO2 LTG DSNT W AND NW SLP083 T04220133,M
TPH,2024-07-22 22:56,-117.0904,38.0505,1654.00,97.00,44.00,16.35,200.00,13.00,T,30.07,1008.30,10.00,20.00,CLR,M,M,M,M,M,M,M,M,M,M,M,M,M,M,92.91,KTPH 222256Z AUTO 20013G20KT 150V280 10SM CLR 36/07 A3007 RMK AO2 LTG DSNT S RAB23E36 SLP083 P0000 T03610067,M
LAS,2024-07-22 22:56,-115.1634,36.0719,663.00,111.00,49.00,13.02,M,3.00,0.00,29.80,1002.10,10.00,M,FEW,FEW,SCT,M,11000.00,18000.00,25000.00,M,M,M,M,M,M,M,M,107.77,KLAS 222256Z VRB03KT 10SM FEW110 FEW180 SCT250 44/09 A2980 RMK AO2 LTG DSNT W SLP021 CB DSNT ALQDS T04390094 $,M
INS,2024-07-22 23:04,-115.6733,36.5872,955.00,100.40,48.20,17.28,260.00,12.00,0.00,29.90,1006.10,10.00,18.00,SCT,BKN,BKN,BKN,9000.00,12000.00,16000.00,18000.00,VCTS,M,M,M,M,M,M,97.00,KINS 222304Z AUTO 26012G18KT 10SM VCTS SCT090 BKN120 BKN160 BKN180 OVC200 38/09 A2990 RMK AO2 WSHFT 03 SLP061 $,M
INS,2024-07-22 23:05,-115.6733,36.5872,955.00,100.40,48.20,17.28,310.00,18.00,0.00,29.91,1006.40,10.00,M,SCT,BKN,BKN,BKN,9000.00,12000.00,16000.00,18000.00,VCTS,M,M,M,M,M,M,97.00,KINS 222305Z AUTO 31018KT 10SM VCTS SCT090 BKN120 BKN160 BKN180 OVC200 38/09 A2991 RMK AO2 WSHFT 04 SLP064 $,M
CXP,2024-07-22 23:10,-119.7326,39.1923,1431.00,96.80,46.40,18.02,260.00,10.00,0.00,30.05,M,10.00,20.00,CLR,M,M,M,M,M,M,M,M,M,M,M,M,M,M,93.05,KCXP 222310Z AUTO 26010G20KT 10SM CLR 36/08 A3005 RMK AO2 LTG DSNT NE AND SE,M
P68,2024-07-22 23:10,-116.0056,39.6014,1993.00,73.00,56.00,55.20,150.00,14.00,0.00,30.18,M,M,M,M,M,M,M,M,M,M,M,M,M,M,M,M,M,M,73.00,KP68 222310Z AUTO 15014KT 23/13 A3018 RMK AO1 WSHFT 2253 T02280133,M
05U,2024-07-22 23:10,-116.0051,39.6042,1811.23,71.60,55.40,56.63,150.00,11.00,0.00,30.21,M,10.00,M,FEW,FEW,SCT,M,3800.00,5500.00,12000.00,M,M,M,M,M,M,M,M,71.60,K05U 222310Z AUTO 15011KT 10SM FEW038 FEW055 SCT120 22/13 A3021 RMK A01,M
BVU,2024-07-22 23:15,-114.8611,35.9475,671.00,107.60,51.80,15.95,210.00,9.00,0.00,29.78,M,10.00,M,CLR,M,M,M,M,M,M,M,M,M,M,M,M,M,M,105.43,KBVU 222315Z AUTO 21009KT 10SM CLR 42/11 A2978 RMK AO2,M
RTS,2024-07-22 23:15,-119.8764,39.6682,1539.00,95.00,41.00,15.49,300.00,9.00,0.00,30.09,M,10.00,14.00,CLR,M,M,M,M,M,M,M,M,M,M,M,M,M,M,90.70,KRTS 222315Z AUTO 30009G14KT 260V330 10SM CLR 35/05 A3009 RMK AO2,M
MEV,2024-07-22 23:15,-119.7500,38.9963,1441.42,95.00,50.00,21.79,300.00,12.00,0.00,30.04,M,10.00,18.00,CLR,M,M,M,M,M,M,M,VCTS,M,M,M,M,M,M,91.89,KMEV 222315Z AUTO 30012G18KT 10SM VCTS CLR 35/10 A3004 RMK AO2 LTG DSNT NE-SE,M
BAM,2024-07-22 23:15,-116.8743,40.5990,1382.36,98.60,46.40,17.05,240.00,5.00,0.00,30.02,M,10.00,M,CLR,M,M,M,M,M,M,M,M,M,M,M,M,M,M,94.84,KBAM 222315Z AUTO 24005KT 10SM CLR 37/08 A3002 RMK AO1,M
HTH,2024-07-22 23:15,-118.6315,38.5448,1282.89,82.40,53.60,37.07,180.00,13.00,0.00,30.03,M,5.00,20.00,FEW,SCT,BKN,M,400.00,3200.00,5000.00,M,HZ,M,M,M,M,M,M,81.46,KHTH 222315Z AUTO 18013G20KT 5SM HZ FEW004 SCT032 BKN050 28/12 A3003 RMK A01,M
10U,2024-07-22 23:15,-116.1876,41.9532,1637.00,91.40,41.00,17.32,50.00,6.00,0.00,30.10,M,10.00,M,FEW,M,M,M,11000.00,M,M,M,M,M,M,M,M,M,M,87.40,K10U 222315Z AUTO 05006KT 10SM FEW110 33/05 A3010 RMK AO2,M
TMT,2024-07-22 23:15,-117.1971,39.4643,1749.34,88.50,46.80,23.68,240.00,4.00,0.00,30.15,M,10.00,M,CLR,M,M,M,M,M,M,M,M,M,M,M,M,M,M,85.32,KTMT 222315Z AUTO 24004KT 10SM CLR 31/08 A3015 RMK AO2 T03140082,M
TPH,2024-07-22 23:16,-117.0904,38.0505,1654.00,97.00,44.00,16.35,210.00,13.00,0.00,30.07,M,10.00,21.00,CLR,M,M,M,M,M,M,M,M,M,M,M,M,M,M,92.91,KTPH 222316Z AUTO 21013G21KT 10SM CLR 36/07 A3007 RMK AO2 WSHFT 2256 LTG DSNT ALQDS T03610067,M
05U,2024-07-22 23:30,-116.0051,39.6042,1811.23,73.40,59.00,60.67,170.00,7.00,0.00,30.22,M,10.00,M,FEW,M,M,M,12000.00,M,M,M,M,M,M,M,M,M,M,73.40,K05U 222330Z AUTO 17007KT 10SM FEW120 23/15 A3022 RMK A01,M
BVU,2024-07-22 23:35,-114.8611,35.9475,671.00,107.60,50.00,14.92,210.00,8.00,0.00,29.78,M,10.00,13.00,CLR,M,M,M,M,M,M,M,M,M,M,M,M,M,M,104.80,KBVU 222335Z AUTO 21008G13KT 10SM CLR 42/10 A2978 RMK AO2,M
CXP,2024-07-22 23:35,-119.7326,39.1923,1431.00,96.80,44.60,16.83,250.00,13.00,0.00,30.05,M,10.00,20.00,CLR,M,M,M,M,M,M,M,VCTS,M,M,M,M,M,M,92.79,KCXP 222335Z AUTO 25013G20KT 10SM VCTS CLR 36/07 A3005 RMK AO2 LTG DSNT E AND SE,M
RTS,2024-07-22 23:35,-119.8764,39.6682,1539.00,95.00,41.00,15.49,290.00,13.00,0.00,30.09,M,10.00,19.00,CLR,M,M,M,M,M,M,M,M,M,M,M,M,M,M,90.70,KRTS 222335Z AUTO 29013G19KT 10SM CLR 35/05 A3009 RMK AO2,M
MEV,2024-07-22 23:35,-119.7500,38.9963,1441.42,93.20,50.00,23.04,270.00,10.00,0.00,30.05,M,10.00,16.00,FEW,M,M,M,10000.00,M,M,M,VCTS,M,M,M,M,M,M,90.10,KMEV 222335Z AUTO 27010G16KT 10SM VCTS FEW100 34/10 A3005 RMK AO2 LTG DSNT NE-SE,M
HTH,2024-07-22 23:35,-118.6315,38.5448,1282.89,87.80,46.40,23.85,160.00,20.00,0.00,30.01,M,10.00,27.00,FEW,FEW,FEW,M,3900.00,6500.00,8500.00,M,M,M,M,M,M,M,M,84.68,KHTH 222335Z AUTO 16020G27KT 10SM FEW039 FEW065 FEW085 31/08 A3001 RMK A01,M
10U,2024-07-22 23:35,-116.1876,41.9532,1637.00,87.80,46.40,23.85,40.00,7.00,0.00,30.10,M,10.00,M,SCT,M,M,M,11000.00,M,M,M,-RA,M,M,M,M,M,M,84.68,K10U 222335Z AUTO 04007KT 10SM -RA SCT110 31/08 A3010 RMK AO2,M
BAM,2024-07-22 23:35,-116.8743,40.5990,1382.36,100.40,46.40,16.15,340.00,11.00,0.00,30.02,M,10.00,M,CLR,M,M,M,M,M,M,M,M,M,M,M,M,M,M,96.63,KBAM 222335Z AUTO 34011KT 10SM CLR 38/08 A3002 RMK AO1,M
TMT,2024-07-22 23:35,-117.1971,39.4643,1749.34,89.40,46.40,22.67,350.00,4.00,0.00,30.15,M,10.00,M,CLR,M,M,M,M,M,M,M,M,M,M,M,M,M,M,86.06,KTMT 222335Z AUTO 35004KT 10SM CLR 32/08 A3015 RMK AO2 T03190080,M
INS,2024-07-22 23:51,-115.6733,36.5872,955.00,96.80,50.00,20.62,210.00,16.00,0.00,29.91,1006.60,10.00,19.00,SCT,M,M,M,18000.00,M,M,M,M,M,M,M,M,M,M,93.71,KINS 222351Z AUTO 21016G19KT 10SM SCT180 36/10 A2991 RMK AO2 WSHFT 40 SLP066 $,M
P68,2024-07-22 23:53,-116.0056,39.6014,1993.00,76.00,56.00,49.92,170.00,8.00,0.00,30.19,1014.00,M,M,M,M,M,M,M,M,M,M,M,M,M,M,M,M,M,76.00,KP68 222353Z AUTO 17008KT 24/13 A3019 RMK AO1 WSHFT 2253 SLP140 60005 T02440133 10339 20206 51012,M
DRA,2024-07-22 23:53,-116.0278,36.6206,1009.00,100.00,53.00,20.90,120.00,20.00,0.00,29.91,1006.80,10.00,29.00,CLR,M,M,M,M,M,M,M,M,M,M,M,44.00,80.00,2024-07-22 23:10,97.82,KDRA 222353Z AUTO 12020G29KT 10SM CLR 38/12 A2991 RMK AO2 PK WND 08044/2310 SLP068 T03780117 10422 20378 55005,M
ELY,2024-07-22 23:53,-114.8453,39.2950,1909.00,83.00,47.00,28.45,360.00,20.00,0.00,30.21,1012.40,10.00,27.00,FEW,M,M,M,11000.00,M,M,M,M,M,M,M,27.00,360.00,2024-07-22 23:53,81.09,KELY 222353Z AUTO 36020G27KT 10SM FEW110 28/08 A3021 RMK AO2 PK WND 36027/2353 SLP124 60000 T02830083 10322 20244 58008,M
VGT,2024-07-22 23:53,-115.1933,36.2111,667.00,110.00,51.00,14.44,M,3.00,0.00,29.78,1006.40,10.00,M,CLR,M,M,M,M,M,M,M,M,M,M,M,M,M,M,107.54,KVGT 222353Z VRB03KT 10SM CLR 43/11 A2978 RMK AO2 LTG DSNT W AND NW SLP064 T04330106 10439 20383 56023,M
LOL,2024-07-22 23:53,-118.5701,40.0684,1192.43,100.00,46.00,16.10,80.00,7.00,0.00,29.93,1008.50,10.00,15.00,CLR,M,M,M,M,M,M,M,M,M,M,M,M,M,M,96.16,KLOL 222353Z AUTO 08007G15KT 10SM CLR 38/08 A2993 RMK AO2 SLP085 T03780078 10389 20322 56023,M
NFL,2024-07-22 23:54,-118.7010,39.4166,1199.00,101.00,42.00,13.41,350.00,5.00,0.00,29.93,1011.00,10.00,M,SCT,BKN,BKN,M,8000.00,12000.00,25000.00,M,M,M,M,M,M,M,M,96.50,KNFL 222354Z 35005KT 10SM SCT080 BKN120 BKN250 38/06 A2993 RMK AO2 SLP110 CB DSNT ALQDS T03830056 10406 20333 56017,M
BVU,2024-07-22 23:55,-114.8611,35.9475,671.00,107.60,48.20,13.95,210.00,8.00,0.00,29.78,M,10.00,14.00,CLR,M,M,M,M,M,M,M,M,M,M,M,M,M,M,104.23,KBVU 222355Z AUTO 21008G14KT 10SM CLR 42/09 A2978 RMK AO2,M
CXP,2024-07-22 23:55,-119.7326,39.1923,1431.00,96.80,46.40,18.02,280.00,11.00,0.00,30.05,M,10.00,21.00,CLR,M,M,M,M,M,M,M,M,M,M,M,M,M,M,93.05,KCXP 222355Z AUTO 28011G21KT 10SM CLR 36/08 A3005 RMK AO2,M
RNO,2024-07-22 23:55,-119.7711,39.4839,1341.00,100.00,46.00,16.10,250.00,14.00,0.00,30.00,1008.90,10.00,25.00,FEW,SCT,M,M,11000.00,22000.00,M,M,M,M,M,M,M,M,M,96.16,KRNO 222355Z 25014G25KT 10SM FEW110 SCT220 38/08 A3000 RMK AO2 SLP089 CB DSNT NE THRU S T03780078 10383 20322 56012,M
RTS,2024-07-22 23:55,-119.8764,39.6682,1539.00,95.00,41.00,15.49,270.00,13.00,0.00,30.08,M,10.00,M,CLR,M,M,M,M,M,M,M,M,M,M,M,M,M,M,90.70,KRTS 222355Z AUTO 27013KT 10SM CLR 35/05 A3008 RMK AO2,M
05U,2024-07-22 23:55,-116.0051,39.6042,1811.23,75.20,57.20,53.55,170.00,7.00,0.00,30.22,M,10.00,M,CLR,M,M,M,M,M,M,M,M,M,M,M,M,M,M,75.20,K05U 222355Z AUTO 17007KT 10SM CLR 24/14 A3022 RMK A01,M
MEV,2024-07-22 23:55,-119.7500,38.9963,1441.42,96.80,50.00,20.62,280.00,11.00,0.00,30.05,M,10.00,M,CLR,M,M,M,M,M,M,M,M,M,M,M,M,M,M,93.71,KMEV 222355Z AUTO 28011KT 10SM CLR 36/10 A3005 RMK AO2,M
BAM,2024-07-22 23:55,-116.8743,40.5990,1382.36,98.60,44.60,15.93,320.00,7.00,0.00,30.01,M,10.00,M,CLR,M,M,M,M,M,M,M,M,M,M,M,M,M,M,94.55,KBAM 222355Z AUTO 32007KT 10SM CLR 37/07 A3001 RMK AO1,M
HTH,2024-07-22 23:55,-118.6315,38.5448,1282.89,86.00,46.40,25.26,170.00,19.00,0.02,30.03,M,8.00,27.00,M,M,M,M,M,M,M,M,M,M,M,M,M,M,M,83.22,KHTH 222355Z AUTO 17019G27KT 8SM 30/08 A3003 RMK A01 P0002,M
10U,2024-07-22 23:55,-116.1876,41.9532,1637.00,93.20,42.80,17.55,M,3.00,0.00,30.09,M,10.00,M,CLR,M,M,M,M,M,M,M,M,M,M,M,M,M,M,89.17,K10U 222355Z AUTO VRB03KT 10SM CLR 34/06 A3009 RMK AO2 LTG DSNT SE AND SW,M
TMT,2024-07-22 23:55,-117.1971,39.4643,1749.34,90.50,45.00,20.77,40.00,9.00,0.00,30.15,M,10.00,M,CLR,M,M,M,M,M,M,M,M,M,M,M,M,M,M,86.90,KTMT 222355Z AUTO 04009KT 10SM CLR 33/07 A3015 RMK AO2 T03250073 10336 20203,M
INS,2024-07-22 23:55,-115.6733,36.5872,955.00,96.30,51.30,21.97,200.00,10.00,0.00,29.91,1006.60,10.00,19.00,SCT,M,M,M,18000.00,M,M,M,M,M,M,M,M,M,M,93.48,KINS 222355Z AUTO 20010G19KT 10SM SCT180 36/11 A2991 RMK AO2 SLP066 T03570107 10414 20357 53002 $,M
LSV,2024-07-22 23:55,-115.0343,36.2362,570.00,109.00,45.00,11.87,0.00,0.00,0.00,29.72,1002.80,10.00,M,CLR,M,M,M,M,M,M,M,M,M,M,M,M,M,M,104.54,KLSV 222355Z AUTO 00000KT 10SM CLR 43/07 A2972 RMK AO2 SLP028 T04270072 10434 20384 57021 $,M
EKO,2024-07-22 23:56,-115.7860,40.8242,1367.00,89.00,48.00,24.39,80.00,10.00,T,30.09,1012.40,10.00,M,FEW,M,M,M,12000.00,M,M,M,M,M,M,M,M,M,M,85.89,KEKO 222356Z AUTO 08010KT 10SM FEW120 32/09 A3009 RMK AO2 LTG DSNT SW RAE04 SLP124 P0000 60000 T03170089 10361 20306 50001,M
WMC,2024-07-22 23:56,-117.8072,40.9019,1315.00,99.00,45.00,15.98,M,4.00,0.00,29.98,1008.80,10.00,M,CLR,M,M,M,M,M,M,M,M,M,M,M,M,M,M,95.00,KWMC 222356Z AUTO VRB04KT 10SM CLR 37/07 A2998 RMK AO2 SLP088 T03720072 10400 20344 56014,M
HND,2024-07-22 23:56,-115.1344,35.9729,742.79,105.00,56.00,20.08,220.00,14.00,0.00,29.83,1007.70,10.00,19.00,FEW,M,M,M,12000.00,M,M,M,M,M,M,M,M,M,M,104.36,KHND 222356Z 22014G19KT 10SM FEW120 41/13 A2983 RMK AO2 SLP077 T04060133 10428 20378 56020,M
TPH,2024-07-22 23:56,-117.0904,38.0505,1654.00,95.00,40.00,14.90,200.00,14.00,0.00,30.08,1008.90,10.00,20.00,CLR,M,M,M,M,M,M,M,M,M,M,M,M,M,M,90.62,KTPH 222356Z AUTO 20014G20KT 10SM CLR 35/04 A3008 RMK AO2 WSHFT 2256 LTG DSNT SE SLP089 60000 T03500044 10372 20317 55009,M
LAS,2024-07-22 23:56,-115.1634,36.0719,663.00,109.00,49.00,13.80,290.00,3.00,0.00,29.78,1001.40,10.00,M,FEW,FEW,SCT,M,11000.00,18000.00,25000.00,M,M,M,M,M,M,M,M,105.85,KLAS 222356Z 29003KT 10SM FEW110 FEW180 SCT250 43/09 A2978 RMK AO2 LTG DSNT W AND NW SLP014 CB DSNT SW-NW-NE-SE T04280094 10444 20383 56022 $,M
