station,valid,lon,lat,elevation,tmpf,dwpf,relh,drct,sknt,p01i,alti,mslp,vsby,gust,skyc1,skyc2,skyc3,skyc4,skyl1,skyl2,skyl3,skyl4,wxcodes,ice_accretion_1hr,ice_accretion_3hr,ice_accretion_6hr,peak_wind_gust,peak_wind_drct,peak_wind_time,feel,metar,snowdepth
TMT,2025-07-19 00:10,-117.1971,39.4643,1749.34,88.70,24.00,9.53,300.00,6.00,0.00,30.11,M,10.00,21.00,CLR,M,M,M,M,M,M,M,M,M,M,M,M,M,M,84.16,KTMT 190010Z AUTO 30006G21KT 10SM CLR 32/M04 A3011 RMK AO2 T03151045,M
BVU,2025-07-19 00:15,-114.8611,35.9475,671.00,96.80,48.20,19.35,230.00,11.00,0.00,29.89,M,10.00,M,CLR,M,M,M,M,M,M,M,M,M,M,M,M,M,M,93.37,KBVU 190015Z AUTO 23011KT 10SM CLR 36/09 A2989 RMK AO2,M
BAM,2025-07-19 00:15,-116.8743,40.5990,1382.36,96.80,23.00,7.11,300.00,13.00,0.00,29.99,M,10.00,22.00,CLR,M,M,M,M,M,M,M,M,M,M,M,M,M,M,90.25,KBAM 190015Z AUTO 30013G22KT 10SM CLR 36/M05 A2999 RMK AO1,M
CXP,2025-07-19 00:15,-119.7326,39.1923,1431.00,89.60,28.40,11.12,270.00,9.00,0.00,30.09,M,10.00,18.00,CLR,M,M,M,M,M,M,M,M,M,M,M,M,M,M,85.18,KCXP 190015Z AUTO 27009G18KT 10SM CLR 32/M02 A3009 RMK AO2,M
RTS,2025-07-19 00:15,-119.8764,39.6682,1539.00,87.80,26.60,10.93,270.00,13.00,0.00,30.11,M,10.00,20.00,CLR,M,M,M,M,M,M,M,M,M,M,M,M,M,M,83.69,KRTS 190015Z AUTO 27013G20KT 10SM CLR 31/M03 A3011 RMK AO2,M
05U,2025-07-19 00:15,-116.0051,39.6042,1811.23,82.40,39.20,21.54,160.00,13.00,0.00,30.15,M,10.00,M,CLR,M,M,M,M,M,M,M,M,M,M,M,M,M,M,80.21,K05U 190015Z AUTO 16013KT 10SM CLR 28/04 A3015 RMK A01,M
MEV,2025-07-19 00:15,-119.7500,38.9963,1441.42,87.80,35.60,15.73,290.00,13.00,0.00,30.07,M,10.00,22.00,CLR,M,M,M,M,M,M,M,M,M,M,M,M,M,M,84.12,KMEV 190015Z AUTO 29013G22KT 10SM CLR 31/02 A3007 RMK AO2,M
HTH,2025-07-19 00:15,-118.6315,38.5448,1282.89,95.00,19.40,6.45,340.00,11.00,0.00,29.98,M,10.00,17.00,CLR,M,M,M,M,M,M,M,M,M,M,M,M,M,M,88.50,KHTH 190015Z AUTO 34011G17KT 10SM CLR 35/M07 A2998 RMK A01,M
TMT,2025-07-19 00:30,-117.1971,39.4643,1749.34,88.50,24.30,9.71,290.00,13.00,0.00,30.11,M,10.00,20.00,CLR,M,M,M,M,M,M,M,M,M,M,M,M,M,M,84.03,KTMT 190030Z AUTO 29013G20KT 10SM CLR 31/M04 A3011 RMK AO2 T03141043,M
BVU,2025-07-19 00:35,-114.8611,35.9475,671.00,96.80,48.20,19.35,190.00,9.00,0.00,29.88,M,10.00,M,CLR,M,M,M,M,M,M,M,M,M,M,M,M,M,M,93.37,KBVU 190035Z AUTO 19009KT 10SM CLR 36/09 A2988 RMK AO2,M
BAM,2025-07-19 00:35,-116.8743,40.5990,1382.36,95.00,24.80,8.10,300.00,12.00,0.00,30.00,M,10.00,21.00,CLR,M,M,M,M,M,M,M,M,M,M,M,M,M,M,88.92,KBAM 190035Z AUTO 30012G21KT 10SM CLR 35/M04 A3000 RMK AO1,M
CXP,2025-07-19 00:35,-119.7326,39.1923,1431.00,89.60,26.60,10.32,290.00,10.00,0.00,30.08,M,10.00,18.00,CLR,M,M,M,M,M,M,M,M,M,M,M,M,M,M,85.02,KCXP 190035Z AUTO 29010G18KT 10SM CLR 32/M03 A3008 RMK AO2,M
RTS,2025-07-19 00:35,-119.8764,39.6682,1539.00,87.80,26.60,10.93,300.00,16.00,0.00,30.11,M,10.00,M,CLR,M,M,M,M,M,M,M,M,M,M,M,M,M,M,83.69,KRTS 190035Z AUTO 30016KT 10SM CLR 31/M03 A3011 RMK AO2,M
05U,2025-07-19 00:35,-116.0051,39.6042,1811.23,82.40,41.00,23.10,140.00,11.00,0.00,30.14,M,10.00,M,CLR,M,M,M,M,M,M,M,M,M,M,M,M,M,M,80.29,K05U 190035Z AUTO 14011KT 10SM CLR 28/05 A3014 RMK A01,M
MEV,2025-07-19 00:35,-119.7500,38.9963,1441.42,87.80,35.60,15.73,280.00,13.00,0.00,30.07,M,10.00,21.00,CLR,M,M,M,M,M,M,M,M,M,M,M,M,M,M,84.12,KMEV 190035Z AUTO 28013G21KT 10SM CLR 31/02 A3007 RMK AO2,M
HTH,2025-07-19 00:35,-118.6315,38.5448,1282.89,95.00,17.60,5.97,330.00,14.00,0.00,29.98,M,10.00,M,CLR,M,M,M,M,M,M,M,M,M,M,M,M,M,M,88.39,KHTH 190035Z AUTO 33014KT 10SM CLR 35/M08 A2998 RMK A01,M
TMT,2025-07-19 00:50,-117.1971,39.4643,1749.34,87.80,23.00,9.40,320.00,10.00,0.00,30.11,M,10.00,16.00,CLR,M,M,M,M,M,M,M,M,M,M,M,M,M,M,83.44,KTMT 190050Z AUTO 32010G16KT 10SM CLR 31/M05 A3011 RMK AO2 T03101049,M
P68,2025-07-19 00:53,-116.0056,39.6014,1993.00,82.00,40.00,22.51,170.00,13.00,0.00,30.11,1010.80,M,M,M,M,M,M,M,M,M,M,M,M,M,M,M,M,M,79.99,KP68 190053Z AUTO 17013KT 28/04 A3011 RMK AO1 SLP108 T02780044,M
DRA,2025-07-19 00:53,-116.0278,36.6206,1009.00,94.00,48.00,20.93,240.00,14.00,0.00,29.97,1009.60,10.00,20.00,CLR,M,M,M,M,M,M,M,M,M,M,M,M,M,M,90.56,KDRA 190053Z AUTO 24014G20KT 10SM CLR 34/09 A2997 RMK AO2 SLP096 T03440089,M
ELY,2025-07-19 00:53,-114.8453,39.2950,1909.00,68.00,48.00,48.76,80.00,13.00,T,30.25,1015.50,10.00,M,FEW,OVC,M,M,6000.00,9000.00,M,M,-RA,M,M,M,M,M,M,68.00,KELY 190053Z AUTO 08013KT 10SM -RA FEW060 OVC090 20/09 A3025 RMK AO2 RAB33 SLP155 P0000 T02000089,M
VGT,2025-07-19 00:53,-115.1933,36.2111,667.00,94.00,52.00,24.28,350.00,7.00,0.00,29.90,1011.10,10.00,M,CLR,M,M,M,M,M,M,M,M,M,M,M,M,M,M,91.32,KVGT 190053Z 35007KT 10SM CLR 34/11 A2990 RMK AO2 SLP111 T03440111,M
LOL,2025-07-19 00:53,-118.5701,40.0684,1192.43,95.00,27.00,8.88,280.00,18.00,0.00,29.96,1010.50,10.00,24.00,CLR,M,M,M,M,M,M,M,M,M,M,M,M,M,M,89.13,KLOL 190053Z AUTO 28018G24KT 10SM CLR 35/M03 A2996 RMK AO2 SLP105 T03501028,M
CXP,2025-07-19 00:55,-119.7326,39.1923,1431.00,87.80,28.40,11.77,290.00,13.00,0.00,30.08,M,10.00,18.00,CLR,M,M,M,M,M,M,M,M,M,M,M,M,M,M,83.84,KCXP 190055Z AUTO 29013G18KT 10SM CLR 31/M02 A3008 RMK AO2,M
RTS,2025-07-19 00:55,-119.8764,39.6682,1539.00,87.80,26.60,10.93,290.00,14.00,0.00,30.12,M,10.00,M,CLR,M,M,M,M,M,M,M,M,M,M,M,M,M,M,83.69,KRTS 190055Z AUTO 29014KT 10SM CLR 31/M03 A3012 RMK AO2,M
05U,2025-07-19 00:55,-116.0051,39.6042,1811.23,82.40,39.20,21.54,0.00,0.00,0.00,30.14,M,10.00,15.00,CLR,M,M,M,M,M,M,M,M,M,M,M,M,M,M,80.21,K05U 190055Z AUTO 00000G15KT 10SM CLR 28/04 A3014 RMK A01,M
MEV,2025-07-19 00:55,-119.7500,38.9963,1441.42,87.80,33.80,14.64,290.00,11.00,0.00,30.07,M,10.00,18.00,CLR,M,M,M,M,M,M,M,M,M,M,M,M,M,M,84.10,KMEV 190055Z AUTO 29011G18KT 10SM CLR 31/01 A3007 RMK AO2,M
HTH,2025-07-19 00:55,-118.6315,38.5448,1282.89,95.00,15.80,5.52,340.00,13.00,0.00,29.98,M,10.00,M,CLR,M,M,M,M,M,M,M,M,M,M,M,M,M,M,88.29,KHTH 190055Z AUTO 34013KT 10SM CLR 35/M09 A2998 RMK A01,M
BVU,2025-07-19 00:55,-114.8611,35.9475,671.00,96.80,48.20,19.35,230.00,12.00,0.00,29.88,M,10.00,M,CLR,M,M,M,M,M,M,M,M,M,M,M,M,M,M,93.37,KBVU 190055Z AUTO 23012KT 10SM CLR 36/09 A2988 RMK AO2,M
RNO,2025-07-19 00:55,-119.7711,39.4839,1341.00,93.00,29.00,10.25,270.00,14.00,0.00,30.04,1011.20,10.00,M,FEW,M,M,M,9000.00,M,M,M,M,M,M,M,M,M,M,87.81,KRNO 190055Z 27014KT 10SM FEW090 34/M02 A3004 RMK AO2 SLP112 T03391017,M
BAM,2025-07-19 00:55,-116.8743,40.5990,1382.36,95.00,24.80,8.10,300.00,16.00,0.00,29.99,M,10.00,23.00,CLR,M,M,M,M,M,M,M,M,M,M,M,M,M,M,88.92,KBAM 190055Z AUTO 30016G23KT 10SM CLR 35/M04 A2999 RMK AO1,M
INS,2025-07-19 00:55,-115.6733,36.5872,955.00,92.00,46.40,20.96,110.00,8.00,0.00,29.96,1008.90,10.00,M,BKN,M,M,M,17000.00,M,M,M,M,M,M,M,M,M,M,88.43,KINS 190055Z AUTO 11008KT 10SM BKN170 33/08 A2996 RMK AO2 SLP089 T03330080 $,M
LSV,2025-07-19 00:55,-115.0343,36.2362,570.00,97.00,49.30,20.04,290.00,3.00,0.00,29.84,1007.40,10.00,M,FEW,FEW,M,M,10000.00,15000.00,M,M,M,M,M,M,M,M,M,93.79,KLSV 190055Z 29003KT 10SM FEW100 FEW150 36/10 A2984 RMK AO2A SLP074 T03610096 $,M
EKO,2025-07-19 00:56,-115.7860,40.8242,1367.00,92.00,12.00,5.13,300.00,14.00,0.00,30.00,1009.90,10.00,26.00,CLR,M,M,M,M,M,M,M,M,M,M,M,29.00,260.00,2025-07-19 00:21,85.96,KEKO 190056Z AUTO 30014G26KT 10SM CLR 33/M11 A3000 RMK AO2 PK WND 26029/0021 SLP099 T03331111,M
HND,2025-07-19 00:56,-115.1344,35.9729,742.79,95.00,51.00,22.69,230.00,10.00,0.00,29.94,1012.30,10.00,M,CLR,M,M,M,M,M,M,M,M,M,M,M,M,M,M,92.11,KHND 190056Z AUTO 23010KT 10SM CLR 35/11 A2994 RMK AO2 SLP123 T03500106 $,M
TPH,2025-07-19 00:56,-117.0904,38.0505,1654.00,87.00,40.00,19.18,200.00,13.00,0.00,30.09,1011.30,10.00,22.00,CLR,M,M,M,M,M,M,M,M,M,M,M,M,M,M,83.61,KTPH 190056Z AUTO 20013G22KT 10SM CLR 31/04 A3009 RMK AO2 SLP113 T03060044,M
LAS,2025-07-19 00:56,-115.1634,36.0719,663.00,97.00,48.00,19.09,260.00,9.00,0.00,29.90,1009.60,10.00,17.00,FEW,FEW,M,M,13000.00,20000.00,M,M,M,M,M,M,M,M,M,93.54,KLAS 190056Z 26009G17KT 10SM FEW130 FEW200 36/09 A2990 RMK AO2 SLP096 T03610089,M
NFL,2025-07-19 00:57,-118.7010,39.4166,1199.00,97.00,24.00,7.37,M,4.00,0.00,29.96,1011.70,9.00,18.00,FEW,M,M,M,8000.00,M,M,M,M,M,M,M,M,M,M,90.50,KNFL 190057Z VRB04G18KT 9SM FEW080 36/M04 A2996 RMK AO2 SLP117 T03611044,M
TMT,2025-07-19 01:10,-117.1971,39.4643,1749.34,87.00,24.40,10.23,300.00,12.00,0.00,30.11,M,10.00,18.00,CLR,M,M,M,M,M,M,M,M,M,M,M,M,M,M,82.95,KTMT 190110Z AUTO 30012G18KT 10SM CLR 31/M04 A3011 RMK AO2 T03061042,M
BVU,2025-07-19 01:15,-114.8611,35.9475,671.00,96.80,46.40,18.08,260.00,14.00,0.00,29.88,M,10.00,M,CLR,M,M,M,M,M,M,M,M,M,M,M,M,M,M,93.07,KBVU 190115Z AUTO 26014KT 10SM CLR 36/08 A2988 RMK AO2,M
CXP,2025-07-19 01:15,-119.7326,39.1923,1431.00,87.80,30.20,12.66,270.00,10.00,0.00,30.09,M,10.00,M,CLR,M,M,M,M,M,M,M,M,M,M,M,M,M,M,84.01,KCXP 190115Z AUTO 27010KT 10SM CLR 31/M01 A3009 RMK AO2,M
RTS,2025-07-19 01:15,-119.8764,39.6682,1539.00,86.00,26.60,11.57,290.00,15.00,0.00,30.11,M,10.00,M,CLR,M,M,M,M,M,M,M,M,M,M,M,M,M,M,82.40,KRTS 190115Z AUTO 29015KT 10SM CLR 30/M03 A3011 RMK AO2,M
05U,2025-07-19 01:15,-116.0051,39.6042,1811.23,82.40,37.40,20.08,180.00,7.00,0.00,30.14,M,10.00,M,CLR,M,M,M,M,M,M,M,M,M,M,M,M,M,M,80.14,K05U 190115Z AUTO 18007KT 10SM CLR 28/03 A3014 RMK A01,M
MEV,2025-07-19 01:15,-119.7500,38.9963,1441.42,86.00,33.80,15.50,280.00,13.00,0.00,30.07,M,10.00,18.00,CLR,M,M,M,M,M,M,M,M,M,M,M,M,M,M,82.66,KMEV 190115Z AUTO 28013G18KT 10SM CLR 30/01 A3007 RMK AO2,M
BAM,2025-07-19 01:15,-116.8743,40.5990,1382.36,95.00,26.60,8.73,320.00,12.00,0.00,30.00,M,10.00,20.00,CLR,M,M,M,M,M,M,M,M,M,M,M,M,M,M,89.09,KBAM 190115Z AUTO 32012G20KT 10SM CLR 35/M03 A3000 RMK AO1,M
HTH,2025-07-19 01:15,-118.6315,38.5448,1282.89,95.00,15.80,5.52,340.00,12.00,0.00,29.98,M,10.00,M,CLR,M,M,M,M,M,M,M,M,M,M,M,M,M,M,88.29,KHTH 190115Z AUTO 34012KT 10SM CLR 35/M09 A2998 RMK A01,M
MEV,2025-07-19 01:25,-119.7500,38.9963,1441.42,86.00,33.80,15.50,280.00,14.00,0.00,30.07,M,10.00,21.00,CLR,M,M,M,M,M,M,M,M,M,M,M,M,M,M,82.66,KMEV 190125Z AUTO 28014G21KT 250V320 10SM CLR 30/01 A3007 RMK AO2,M
RTS,2025-07-19 01:25,-119.8764,39.6682,1539.00,86.00,28.40,12.46,290.00,14.00,0.00,30.12,M,10.00,20.00,CLR,M,M,M,M,M,M,M,M,M,M,M,M,M,M,82.54,KRTS 190125Z AUTO 29014G20KT 10SM CLR 30/M02 A3012 RMK AO2,M
TMT,2025-07-19 01:30,-117.1971,39.4643,1749.34,86.00,23.50,10.17,310.00,12.00,0.00,30.12,M,10.00,18.00,CLR,M,M,M,M,M,M,M,M,M,M,M,M,M,M,82.18,KTMT 190130Z AUTO 31012G18KT 10SM CLR 30/M05 A3012 RMK AO2 T03011047,M
BVU,2025-07-19 01:35,-114.8611,35.9475,671.00,96.80,48.20,19.35,220.00,7.00,0.00,29.88,M,10.00,13.00,CLR,M,M,M,M,M,M,M,M,M,M,M,M,M,M,93.37,KBVU 190135Z AUTO 22007G13KT 10SM CLR 36/09 A2988 RMK AO2,M
BAM,2025-07-19 01:35,-116.8743,40.5990,1382.36,93.20,26.60,9.23,310.00,14.00,0.00,30.00,M,10.00,22.00,CLR,M,M,M,M,M,M,M,M,M,M,M,M,M,M,87.72,KBAM 190135Z AUTO 31014G22KT 10SM CLR 34/M03 A3000 RMK AO1,M
CXP,2025-07-19 01:35,-119.7326,39.1923,1431.00,87.80,32.00,13.62,260.00,8.00,0.00,30.09,M,10.00,13.00,CLR,M,M,M,M,M,M,M,M,M,M,M,M,M,M,84.08,KCXP 190135Z AUTO 26008G13KT 220V280 10SM CLR 31/M00 A3009 RMK AO2,M
05U,2025-07-19 01:35,-116.0051,39.6042,1811.23,84.20,37.40,18.94,0.00,0.00,0.00,30.14,M,10.00,10.00,CLR,M,M,M,M,M,M,M,M,M,M,M,M,M,M,81.38,K05U 190135Z AUTO 00000G10KT 10SM CLR 29/03 A3014 RMK A01,M
HTH,2025-07-19 01:35,-118.6315,38.5448,1282.89,95.00,15.80,5.52,340.00,10.00,0.00,29.98,M,10.00,M,CLR,M,M,M,M,M,M,M,M,M,M,M,M,M,M,88.29,KHTH 190135Z AUTO 34010KT 10SM CLR 35/M09 A2998 RMK A01,M
TMT,2025-07-19 01:50,-117.1971,39.4643,1749.34,85.00,21.70,9.73,310.00,12.00,0.00,30.12,M,10.00,21.00,CLR,M,M,M,M,M,M,M,M,M,M,M,M,M,M,81.36,KTMT 190150Z AUTO 31012G21KT 10SM CLR 30/M06 A3012 RMK AO2 T02951057,M
TPH,2025-07-19 01:52,-117.0904,38.0505,1654.00,78.80,44.60,29.83,110.00,23.00,0.00,30.12,M,10.00,31.00,BKN,M,M,M,11000.00,M,M,M,M,M,M,M,31.00,110.00,2025-07-19 01:49,78.80,KTPH 190152Z AUTO 11023G31KT 10SM BKN110 26/07 A3012 RMK AO2 PK WND 11031/0149 WSHFT 0132,M
P68,2025-07-19 01:53,-116.0056,39.6014,1993.00,83.00,36.00,18.63,180.00,9.00,0.00,30.11,1010.30,M,M,M,M,M,M,M,M,M,M,M,M,M,M,M,M,M,80.50,KP68 190153Z AUTO 18009KT 28/02 A3011 RMK AO1 SLP103 T02830022,M
DRA,2025-07-19 01:53,-116.0278,36.6206,1009.00,91.00,48.00,22.96,220.00,11.00,0.00,29.98,1009.80,10.00,17.00,CLR,M,M,M,M,M,M,M,M,M,M,M,M,M,M,87.70,KDRA 190153Z AUTO 22011G17KT 10SM CLR 33/09 A2998 RMK AO2 SLP098 T03280089,M
ELY,2025-07-19 01:53,-114.8453,39.2950,1909.00,67.00,49.00,52.39,180.00,6.00,T,30.25,1015.50,10.00,M,CLR,M,M,M,M,M,M,M,M,M,M,M,M,M,M,67.00,KELY 190153Z AUTO 18006KT 10SM CLR 19/09 A3025 RMK AO2 RAE05 SLP155 P0000 T01940094,M
VGT,2025-07-19 01:53,-115.1933,36.2111,667.00,93.00,51.00,24.14,330.00,8.00,0.00,29.90,1011.30,10.00,M,CLR,M,M,M,M,M,M,M,M,M,M,M,M,M,M,90.11,KVGT 190153Z 33008KT 10SM CLR 34/11 A2990 RMK AO2 SLP113 T03390106,M
LOL,2025-07-19 01:53,-118.5701,40.0684,1192.43,93.00,29.00,10.25,290.00,9.00,0.00,29.96,1010.20,10.00,M,CLR,M,M,M,M,M,M,M,M,M,M,M,33.00,290.00,2025-07-19 01:34,87.81,KLOL 190153Z AUTO 29009KT 10SM CLR 34/M02 A2996 RMK AO2 PK WND 29033/0134 SLP102 T03391017,M
BVU,2025-07-19 01:55,-114.8611,35.9475,671.00,96.80,46.40,18.08,230.00,11.00,0.00,29.88,M,10.00,M,CLR,M,M,M,M,M,M,M,M,M,M,M,M,M,M,93.07,KBVU 190155Z AUTO 23011KT 10SM CLR 36/08 A2988 RMK AO2,M
RNO,2025-07-19 01:55,-119.7711,39.4839,1341.00,89.00,33.00,13.66,250.00,13.00,0.00,30.05,1011.70,10.00,27.00,FEW,M,M,M,9000.00,M,M,M,M,M,M,M,30.00,270.00,2025-07-19 01:35,85.08,KRNO 190155Z 25013G27KT 10SM FEW090 32/01 A3005 RMK AO2 PK WND 27030/0135 SLP117 T03170006,M
BAM,2025-07-19 01:55,-116.8743,40.5990,1382.36,91.40,24.80,9.06,290.00,14.00,0.00,30.01,M,10.00,25.00,CLR,M,M,M,M,M,M,M,M,M,M,M,M,M,M,86.22,KBAM 190155Z AUTO 29014G25KT 10SM CLR 33/M04 A3001 RMK AO1,M
CXP,2025-07-19 01:55,-119.7326,39.1923,1431.00,86.00,32.00,14.42,280.00,9.00,0.00,30.09,M,10.00,17.00,CLR,M,M,M,M,M,M,M,M,M,M,M,M,M,M,82.64,KCXP 190155Z AUTO 28009G17KT 10SM CLR 30/M00 A3009 RMK AO2,M
05U,2025-07-19 01:55,-116.0051,39.6042,1811.23,82.40,37.40,20.08,170.00,8.00,0.00,30.14,M,10.00,M,CLR,M,M,M,M,M,M,M,M,M,M,M,M,M,M,80.14,K05U 190155Z AUTO 17008KT 10SM CLR 28/03 A3014 RMK A01,M
HTH,2025-07-19 01:55,-118.6315,38.5448,1282.89,93.20,14.00,5.40,340.00,10.00,0.00,29.99,M,10.00,17.00,CLR,M,M,M,M,M,M,M,M,M,M,M,M,M,M,86.91,KHTH 190155Z AUTO 34010G17KT 10SM CLR 34/M10 A2999 RMK A01,M
INS,2025-07-19 01:55,-115.6733,36.5872,955.00,90.30,43.70,19.94,120.00,8.00,0.00,29.96,1009.10,10.00,M,CLR,M,M,M,M,M,M,M,M,M,M,M,M,M,M,86.61,KINS 190155Z AUTO 12008KT 10SM CLR 32/07 A2996 RMK AO2 SLP091 T03240065 $,M
LSV,2025-07-19 01:55,-115.0343,36.2362,570.00,97.00,48.00,19.09,310.00,4.00,0.00,29.84,1007.40,10.00,M,FEW,FEW,M,M,15000.00,20000.00,M,M,M,M,M,M,M,M,M,93.54,KLSV 190155Z 31004KT 10SM FEW150 FEW200 36/09 A2984 RMK AO2A SLP074 T03610088 $,M
EKO,2025-07-19 01:56,-115.7860,40.8242,1367.00,90.00,17.00,6.79,260.00,16.00,0.00,30.02,1010.30,10.00,23.00,CLR,M,M,M,M,M,M,M,M,M,M,M,26.00,270.00,2025-07-19 01:11,84.71,KEKO 190156Z AUTO 26016G23KT 10SM CLR 32/M08 A3002 RMK AO2 PK WND 27026/0111 SLP103 T03221083,M
HND,2025-07-19 01:56,-115.1344,35.9729,742.79,94.00,48.00,20.93,230.00,11.00,0.00,29.94,1012.50,10.00,M,CLR,M,M,M,M,M,M,M,M,M,M,M,M,M,M,90.56,KHND 190156Z AUTO 23011KT 10SM CLR 34/09 A2994 RMK AO2 SLP125 T03440089 $,M
TPH,2025-07-19 01:56,-117.0904,38.0505,1654.00,79.00,45.00,30.09,100.00,19.00,0.00,30.12,1012.30,10.00,31.00,BKN,M,M,M,11000.00,M,M,M,M,M,M,M,31.00,110.00,2025-07-19 01:49,79.00,KTPH 190156Z AUTO 10019G31KT 10SM BKN110 26/07 A3012 RMK AO2 PK WND 11031/0149 WSHFT 0132 SLP123 T02610072,M
LAS,2025-07-19 01:56,-115.1634,36.0719,663.00,96.00,46.00,18.25,230.00,13.00,0.00,29.91,1009.90,10.00,17.00,FEW,FEW,M,M,13000.00,20000.00,M,M,M,M,M,M,M,M,M,92.22,KLAS 190156Z 23013G17KT 10SM FEW130 FEW200 36/08 A2991 RMK AO2 SLP099 T03560078,M
NFL,2025-07-19 01:57,-118.7010,39.4166,1199.00,95.00,26.00,8.52,340.00,11.00,0.00,29.96,1011.80,10.00,M,FEW,M,M,M,8000.00,M,M,M,M,M,M,M,27.00,340.00,2025-07-19 01:20,89.03,KNFL 190157Z 34011KT 10SM FEW080 35/M03 A2996 RMK AO2 PK WND 34027/0120 SLP118 T03501033,M
TPH,2025-07-19 02:03,-117.0904,38.0505,1654.00,79.00,45.00,30.09,110.00,21.00,0.00,30.12,M,10.00,28.00,SCT,M,M,M,11000.00,M,M,M,M,M,M,M,28.00,100.00,2025-07-19 02:00,79.00,KTPH 190203Z AUTO 11021G28KT 10SM SCT110 26/07 A3012 RMK AO2 PK WND 10028/0200 WSHFT 0143 T02610072,M
TMT,2025-07-19 02:10,-117.1971,39.4643,1749.34,84.20,20.30,9.41,310.00,11.00,0.00,30.13,M,10.00,18.00,CLR,M,M,M,M,M,M,M,M,M,M,M,M,M,M,80.73,KTMT 190210Z AUTO 31011G18KT 10SM CLR 29/M06 A3013 RMK AO2 T02901065,M
BVU,2025-07-19 02:15,-114.8611,35.9475,671.00,95.00,48.20,20.45,240.00,8.00,0.00,29.89,M,10.00,M,CLR,M,M,M,M,M,M,M,M,M,M,M,M,M,M,91.58,KBVU 190215Z AUTO 24008KT 10SM CLR 35/09 A2989 RMK AO2,M
BAM,2025-07-19 02:15,-116.8743,40.5990,1382.36,91.40,26.60,9.76,300.00,12.00,0.00,30.01,M,10.00,M,CLR,M,M,M,M,M,M,M,M,M,M,M,M,M,M,86.37,KBAM 190215Z AUTO 30012KT 10SM CLR 33/M03 A3001 RMK AO1,M
CXP,2025-07-19 02:15,-119.7326,39.1923,1431.00,84.20,32.00,15.28,270.00,7.00,0.00,30.10,M,10.00,M,CLR,M,M,M,M,M,M,M,M,M,M,M,M,M,M,81.28,KCXP 190215Z AUTO 27007KT 10SM CLR 29/00 A3010 RMK AO2,M
RTS,2025-07-19 02:15,-119.8764,39.6682,1539.00,84.20,32.00,15.28,300.00,12.00,0.00,30.13,M,10.00,19.00,CLR,M,M,M,M,M,M,M,M,M,M,M,M,M,M,81.28,KRTS 190215Z AUTO 30012G19KT 10SM CLR 29/M00 A3013 RMK AO2,M
05U,2025-07-19 02:15,-116.0051,39.6042,1811.23,82.40,37.40,20.08,0.00,0.00,0.00,30.15,M,10.00,11.00,CLR,M,M,M,M,M,M,M,M,M,M,M,M,M,M,80.14,K05U 190215Z AUTO 00000G11KT 10SM CLR 28/03 A3015 RMK A01,M
MEV,2025-07-19 02:15,-119.7500,38.9963,1441.42,82.40,35.60,18.70,280.00,12.00,0.00,30.08,M,10.00,20.00,CLR,M,M,M,M,M,M,M,M,M,M,M,M,M,M,80.08,KMEV 190215Z AUTO 28012G20KT 10SM CLR 28/02 A3008 RMK AO2,M
HTH,2025-07-19 02:15,-118.6315,38.5448,1282.89,93.20,12.20,4.98,350.00,11.00,0.00,29.99,M,10.00,M,CLR,M,M,M,M,M,M,M,M,M,M,M,M,M,M,86.83,KHTH 190215Z AUTO 35011KT 10SM CLR 34/M11 A2999 RMK A01,M
TMT,2025-07-19 02:30,-117.1971,39.4643,1749.34,82.60,20.30,9.90,320.00,10.00,0.00,30.13,M,10.00,16.00,CLR,M,M,M,M,M,M,M,M,M,M,M,M,M,M,79.64,KTMT 190230Z AUTO 32010G16KT 10SM CLR 28/M06 A3013 RMK AO2 T02811065,M
BVU,2025-07-19 02:35,-114.8611,35.9475,671.00,95.00,46.40,19.11,230.00,6.00,0.00,29.89,M,10.00,11.00,CLR,M,M,M,M,M,M,M,M,M,M,M,M,M,M,91.30,KBVU 190235Z AUTO 23006G11KT 10SM CLR 35/08 A2989 RMK AO2,M
BAM,2025-07-19 02:35,-116.8743,40.5990,1382.36,89.60,28.40,11.12,290.00,12.00,0.00,30.01,M,10.00,M,CLR,M,M,M,M,M,M,M,M,M,M,M,M,M,M,85.18,KBAM 190235Z AUTO 29012KT 10SM CLR 32/M02 A3001 RMK AO1,M
CXP,2025-07-19 02:35,-119.7326,39.1923,1431.00,84.20,33.80,16.42,290.00,11.00,0.00,30.10,M,10.00,17.00,CLR,M,M,M,M,M,M,M,M,M,M,M,M,M,M,81.30,KCXP 190235Z AUTO 29011G17KT 10SM CLR 29/01 A3010 RMK AO2,M
RTS,2025-07-19 02:35,-119.8764,39.6682,1539.00,82.40,32.00,16.19,280.00,14.00,0.00,30.13,M,10.00,20.00,CLR,M,M,M,M,M,M,M,M,M,M,M,M,M,M,80.00,KRTS 190235Z AUTO 28014G20KT 10SM CLR 28/00 A3013 RMK AO2,M
05U,2025-07-19 02:35,-116.0051,39.6042,1811.23,78.80,41.00,25.98,160.00,12.00,0.00,30.14,M,10.00,M,CLR,M,M,M,M,M,M,M,M,M,M,M,M,M,M,78.80,K05U 190235Z AUTO 16012KT 10SM CLR 26/05 A3014 RMK A01,M
MEV,2025-07-19 02:35,-119.7500,38.9963,1441.42,82.40,35.60,18.70,270.00,11.00,0.00,30.08,M,10.00,16.00,CLR,M,M,M,M,M,M,M,M,M,M,M,M,M,M,80.08,KMEV 190235Z AUTO 27011G16KT 10SM CLR 28/02 A3008 RMK AO2,M
HTH,2025-07-19 02:35,-118.6315,38.5448,1282.89,93.20,10.40,4.60,340.00,11.00,0.00,29.99,M,10.00,M,CLR,M,M,M,M,M,M,M,M,M,M,M,M,M,M,86.76,KHTH 190235Z AUTO 34011KT 10SM CLR 34/M12 A2999 RMK A01,M
TMT,2025-07-19 02:50,-117.1971,39.4643,1749.34,79.00,18.50,10.31,330.00,7.00,0.00,30.13,M,10.00,14.00,CLR,M,M,M,M,M,M,M,M,M,M,M,M,M,M,79.00,KTMT 190250Z AUTO 33007G14KT 10SM CLR 26/M07 A3013 RMK AO2 T02621075,M
P68,2025-07-19 02:53,-116.0056,39.6014,1993.00,76.00,41.00,28.49,170.00,11.00,0.00,30.12,1010.80,M,M,M,M,M,M,M,M,M,M,M,M,M,M,M,M,M,76.00,KP68 190253Z AUTO 17011KT 24/05 A3012 RMK AO1 SLP108 T02440050 55000,M
DRA,2025-07-19 02:53,-116.0278,36.6206,1009.00,88.00,49.00,26.19,210.00,11.00,0.00,29.98,1010.00,10.00,M,CLR,M,M,M,M,M,M,M,M,M,M,M,M,M,M,85.15,KDRA 190253Z AUTO 21011KT 10SM CLR 31/09 A2998 RMK AO2 SLP100 T03110094 53000,M
ELY,2025-07-19 02:53,-114.8453,39.2950,1909.00,63.00,50.00,62.51,190.00,16.00,0.00,30.25,1015.30,10.00,M,CLR,M,M,M,M,M,M,M,M,M,M,M,M,M,M,63.00,KELY 190253Z AUTO 19016KT 10SM CLR 17/10 A3025 RMK AO2 SLP153 60000 T01720100 50008,M
VGT,2025-07-19 02:53,-115.1933,36.2111,667.00,92.00,51.00,24.90,330.00,6.00,0.00,29.90,1011.20,10.00,M,CLR,M,M,M,M,M,M,M,M,M,M,M,M,M,M,89.13,KVGT 190253Z 33006KT 10SM CLR 33/11 A2990 RMK AO2 SLP112 T03330106 55005,M
LOL,2025-07-19 02:53,-118.5701,40.0684,1192.43,90.00,31.00,12.21,310.00,10.00,0.00,29.97,1010.00,10.00,M,CLR,M,M,M,M,M,M,M,M,M,M,M,M,M,M,85.74,KLOL 190253Z AUTO 31010KT 10SM CLR 32/M01 A2997 RMK AO2 SLP100 T03221006 55002,M
BVU,2025-07-19 02:55,-114.8611,35.9475,671.00,93.20,46.40,20.19,230.00,7.00,0.00,29.89,M,10.00,M,CLR,M,M,M,M,M,M,M,M,M,M,M,M,M,M,89.56,KBVU 190255Z AUTO 23007KT 10SM CLR 34/08 A2989 RMK AO2,M
RNO,2025-07-19 02:55,-119.7711,39.4839,1341.00,86.00,37.00,17.61,280.00,10.00,0.00,30.07,1012.40,10.00,21.00,CLR,M,M,M,M,M,M,M,M,M,M,M,29.00,260.00,2025-07-19 02:13,82.72,KRNO 190255Z 28010G21KT 10SM CLR 30/03 A3007 RMK AO2 PK WND 26029/0213 SLP124 T03000028 53009,M
BAM,2025-07-19 02:55,-116.8743,40.5990,1382.36,87.80,28.40,11.77,280.00,8.00,0.00,30.02,M,10.00,M,CLR,M,M,M,M,M,M,M,M,M,M,M,M,M,M,83.84,KBAM 190255Z AUTO 28008KT 10SM CLR 31/M02 A3002 RMK AO1,M
CXP,2025-07-19 02:55,-119.7326,39.1923,1431.00,82.40,33.80,17.40,300.00,11.00,0.00,30.10,M,10.00,M,CLR,M,M,M,M,M,M,M,M,M,M,M,M,M,M,80.04,KCXP 190255Z AUTO 30011KT 10SM CLR 28/01 A3010 RMK AO2,M
RTS,2025-07-19 02:55,-119.8764,39.6682,1539.00,80.60,32.00,17.16,290.00,16.00,0.00,30.13,M,10.00,M,CLR,M,M,M,M,M,M,M,M,M,M,M,M,M,M,78.82,KRTS 190255Z AUTO 29016KT 10SM CLR 27/M00 A3013 RMK AO2,M
05U,2025-07-19 02:55,-116.0051,39.6042,1811.23,75.20,41.00,29.26,170.00,11.00,0.00,30.15,M,10.00,M,CLR,M,M,M,M,M,M,M,M,M,M,M,M,M,M,75.20,K05U 190255Z AUTO 17011KT 10SM CLR 24/05 A3015 RMK A01,M
MEV,2025-07-19 02:55,-119.7500,38.9963,1441.42,78.80,35.60,21.02,270.00,10.00,0.00,30.09,M,10.00,15.00,CLR,M,M,M,M,M,M,M,M,M,M,M,M,M,M,78.80,KMEV 190255Z AUTO 27010G15KT 10SM CLR 26/02 A3009 RMK AO2,M
HTH,2025-07-19 02:55,-118.6315,38.5448,1282.89,91.40,14.00,5.71,340.00,11.00,0.00,30.00,M,10.00,M,CLR,M,M,M,M,M,M,M,M,M,M,M,M,M,M,85.60,KHTH 190255Z AUTO 34011KT 10SM CLR 33/M10 A3000 RMK A01,M
INS,2025-07-19 02:55,-115.6733,36.5872,955.00,89.20,42.80,19.94,130.00,6.00,0.00,29.97,1009.20,10.00,M,CLR,M,M,M,M,M,M,M,M,M,M,M,M,M,M,85.59,KINS 190255Z AUTO 13006KT 10SM CLR 32/06 A2997 RMK AO2 SLP092 T03180060 55004 $,M
LSV,2025-07-19 02:55,-115.0343,36.2362,570.00,96.00,48.40,19.98,320.00,3.00,0.00,29.84,1007.40,10.00,M,FEW,FEW,M,M,15000.00,20000.00,M,M,M,M,M,M,M,M,M,92.61,KLSV 190255Z 32003KT 10SM FEW150 FEW200 36/09 A2984 RMK AO2A SLP074 T03550091 55005 $,M
EKO,2025-07-19 02:56,-115.7860,40.8242,1367.00,85.00,22.00,9.85,280.00,10.00,0.00,30.03,1010.60,10.00,M,CLR,M,M,M,M,M,M,M,M,M,M,M,M,M,M,81.38,KEKO 190256Z AUTO 28010KT 10SM CLR 29/M06 A3003 RMK AO2 SLP106 T02941056 53008,M
HND,2025-07-19 02:56,-115.1344,35.9729,742.79,92.00,48.00,22.26,240.00,9.00,0.00,29.95,1012.70,10.00,M,CLR,M,M,M,M,M,M,M,M,M,M,M,M,M,M,88.64,KHND 190256Z AUTO 24009KT 10SM CLR 33/09 A2995 RMK AO2 SLP127 T03330089 55000 $,M
TPH,2025-07-19 02:56,-117.0904,38.0505,1654.00,78.00,44.00,29.93,130.00,14.00,0.00,30.13,1012.30,10.00,21.00,CLR,M,M,M,M,M,M,M,M,M,M,M,28.00,100.00,2025-07-19 02:00,78.00,KTPH 190256Z AUTO 13014G21KT 10SM CLR 26/07 A3013 RMK AO2 PK WND 10028/0200 WSHFT 0143 SLP123 T02560067 51010,M
LAS,2025-07-19 02:56,-115.1634,36.0719,663.00,94.00,47.00,20.15,240.00,9.00,0.00,29.91,1009.90,10.00,M,FEW,FEW,M,M,15000.00,20000.00,M,M,M,M,M,M,M,M,M,90.41,KLAS 190256Z 24009KT 10SM FEW150 FEW200 34/08 A2991 RMK AO2 SLP099 T03440083 55002,M
NFL,2025-07-19 02:57,-118.7010,39.4166,1199.00,90.00,31.00,12.21,330.00,8.00,0.00,29.98,1012.20,9.00,M,FEW,M,M,M,9000.00,M,M,M,M,M,M,M,M,M,M,85.74,KNFL 190257Z 33008KT 9SM FEW090 32/M01 A2998 RMK AO2 SLP122 T03221006 53001,M
MEV,2025-07-19 03:05,-119.7500,38.9963,1441.42,78.80,35.60,21.02,260.00,9.00,0.00,30.09,M,10.00,16.00,CLR,M,M,M,M,M,M,M,M,M,M,M,M,M,M,78.80,KMEV 190305Z AUTO 26009G16KT 10SM CLR 26/02 A3009 RMK AO2,M
RTS,2025-07-19 03:05,-119.8764,39.6682,1539.00,78.80,32.00,18.20,290.00,15.00,0.00,30.14,M,10.00,M,CLR,M,M,M,M,M,M,M,M,M,M,M,M,M,M,78.80,KRTS 190305Z AUTO 29015KT 10SM CLR 26/M00 A3014 RMK AO2,M
TMT,2025-07-19 03:10,-117.1971,39.4643,1749.34,74.70,17.20,11.24,320.00,5.00,0.00,30.14,M,10.00,M,CLR,M,M,M,M,M,M,M,M,M,M,M,M,M,M,74.70,KTMT 190310Z AUTO 32005KT 10SM CLR 24/M08 A3014 RMK AO2 T02371082,M
BVU,2025-07-19 03:15,-114.8611,35.9475,671.00,93.20,46.40,20.19,240.00,7.00,0.00,29.89,M,10.00,M,CLR,M,M,M,M,M,M,M,M,M,M,M,M,M,M,89.56,KBVU 190315Z AUTO 24007KT 10SM CLR 34/08 A2989 RMK AO2,M
BAM,2025-07-19 03:15,-116.8743,40.5990,1382.36,86.00,28.40,12.46,310.00,8.00,0.00,30.02,M,10.00,M,CLR,M,M,M,M,M,M,M,M,M,M,M,M,M,M,82.54,KBAM 190315Z AUTO 31008KT 10SM CLR 30/M02 A3002 RMK AO1,M
CXP,2025-07-19 03:15,-119.7326,39.1923,1431.00,80.60,33.80,18.45,310.00,10.00,0.00,30.10,M,10.00,M,CLR,M,M,M,M,M,M,M,M,M,M,M,M,M,M,78.88,KCXP 190315Z AUTO 31010KT 10SM CLR 27/01 A3010 RMK AO2,M
05U,2025-07-19 03:15,-116.0051,39.6042,1811.23,73.40,41.00,31.08,160.00,11.00,0.00,30.16,M,10.00,M,CLR,M,M,M,M,M,M,M,M,M,M,M,M,M,M,73.40,K05U 190315Z AUTO 16011KT 10SM CLR 23/05 A3016 RMK A01,M
HTH,2025-07-19 03:15,-118.6315,38.5448,1282.89,89.60,12.20,5.58,360.00,9.00,0.00,30.00,M,10.00,15.00,CLR,M,M,M,M,M,M,M,M,M,M,M,M,M,M,84.23,KHTH 190315Z AUTO 36009G15KT 10SM CLR 32/M11 A3000 RMK A01,M
TMT,2025-07-19 03:30,-117.1971,39.4643,1749.34,70.30,17.60,13.26,320.00,7.00,0.00,30.14,M,10.00,M,CLR,M,M,M,M,M,M,M,M,M,M,M,M,M,M,70.30,KTMT 190330Z AUTO 32007KT 10SM CLR 21/M08 A3014 RMK AO2 T02131080,M
BAM,2025-07-19 03:35,-116.8743,40.5990,1382.36,82.40,30.20,15.05,320.00,6.00,0.00,30.03,M,10.00,M,CLR,M,M,M,M,M,M,M,M,M,M,M,M,M,M,79.97,KBAM 190335Z AUTO 32006KT 10SM CLR 28/M01 A3003 RMK AO1,M
CXP,2025-07-19 03:35,-119.7326,39.1923,1431.00,80.60,35.60,19.82,310.00,10.00,0.00,30.11,M,10.00,M,CLR,M,M,M,M,M,M,M,M,M,M,M,M,M,M,78.95,KCXP 190335Z AUTO 31010KT 10SM CLR 27/02 A3011 RMK AO2,M
05U,2025-07-19 03:35,-116.0051,39.6042,1811.23,71.60,42.80,35.40,140.00,19.00,0.00,30.17,M,10.00,24.00,CLR,M,M,M,M,M,M,M,M,M,M,M,M,M,M,71.60,K05U 190335Z AUTO 14019G24KT 10SM CLR 22/06 A3017 RMK A01,M
HTH,2025-07-19 03:35,-118.6315,38.5448,1282.89,86.00,28.40,12.46,310.00,5.00,0.00,30.01,M,10.00,M,CLR,M,M,M,M,M,M,M,M,M,M,M,M,M,M,82.54,KHTH 190335Z AUTO 31005KT 10SM CLR 30/M02 A3001 RMK A01,M
BVU,2025-07-19 03:35,-114.8611,35.9475,671.00,93.20,44.60,18.86,260.00,8.00,0.00,29.90,M,10.00,M,CLR,M,M,M,M,M,M,M,M,M,M,M,M,M,M,89.35,KBVU 190335Z AUTO 26008KT 10SM CLR 34/07 A2990 RMK AO2,M
TMT,2025-07-19 03:50,-117.1971,39.4643,1749.34,65.00,16.00,14.85,0.00,0.00,0.00,30.15,M,7.00,M,CLR,M,M,M,M,M,M,M,M,M,M,M,M,M,M,65.00,KTMT 190350Z AUTO 00000KT 7SM CLR 18/M09 A3015 RMK AO2 T01841088,M
P68,2025-07-19 03:53,-116.0056,39.6014,1993.00,70.00,44.00,39.13,140.00,19.00,0.00,30.16,1012.20,M,33.00,M,M,M,M,M,M,M,M,M,M,M,M,34.00,150.00,2025-07-19 03:36,70.00,KP68 190353Z AUTO 14019G33KT 21/07 A3016 RMK AO1 PK WND 15034/0336 SLP122 T02110067,M
DRA,2025-07-19 03:53,-116.0278,36.6206,1009.00,86.00,49.00,27.91,200.00,3.00,0.00,30.00,1010.70,10.00,M,CLR,M,M,M,M,M,M,M,M,M,M,M,M,M,M,83.50,KDRA 190353Z AUTO 20003KT 10SM CLR 30/09 A3000 RMK AO2 SLP107 T03000094,M
ELY,2025-07-19 03:53,-114.8453,39.2950,1909.00,61.00,48.00,62.25,160.00,12.00,0.00,30.25,1015.10,10.00,M,CLR,M,M,M,M,M,M,M,M,M,M,M,M,M,M,61.00,KELY 190353Z AUTO 16012KT 10SM CLR 16/09 A3025 RMK AO2 SLP151 T01610089,M
VGT,2025-07-19 03:53,-115.1933,36.2111,667.00,91.00,51.00,25.68,260.00,4.00,0.00,29.91,1011.70,10.00,M,CLR,M,M,M,M,M,M,M,M,M,M,M,M,M,M,88.17,KVGT 190353Z 26004KT 10SM CLR 33/11 A2991 RMK AO2 SLP117 T03280106,M
LOL,2025-07-19 03:53,-118.5701,40.0684,1192.43,82.00,30.00,15.12,300.00,8.00,0.00,29.98,1010.60,10.00,M,CLR,M,M,M,M,M,M,M,M,M,M,M,M,M,M,79.69,KLOL 190353Z AUTO 30008KT 10SM CLR 28/M01 A2998 RMK AO2 SLP106 T02781011,M
BVU,2025-07-19 03:55,-114.8611,35.9475,671.00,91.40,44.60,19.94,270.00,7.00,0.00,29.90,M,10.00,M,CLR,M,M,M,M,M,M,M,M,M,M,M,M,M,M,87.68,KBVU 190355Z AUTO 27007KT 10SM CLR 33/07 A2990 RMK AO2,M
RNO,2025-07-19 03:55,-119.7711,39.4839,1341.00,82.00,37.00,20.02,290.00,17.00,0.00,30.08,1012.70,10.00,24.00,CLR,M,M,M,M,M,M,M,M,M,M,M,28.00,300.00,2025-07-19 03:12,79.87,KRNO 190355Z 29017G24KT 10SM CLR 28/03 A3008 RMK AO2 PK WND 30028/0312 SLP127 T02780028,M
BAM,2025-07-19 03:55,-116.8743,40.5990,1382.36,80.60,32.00,17.16,320.00,9.00,0.00,30.03,M,10.00,M,CLR,M,M,M,M,M,M,M,M,M,M,M,M,M,M,78.82,KBAM 190355Z AUTO 32009KT 10SM CLR 27/00 A3003 RMK AO1,M
CXP,2025-07-19 03:55,-119.7326,39.1923,1431.00,77.00,35.60,22.31,300.00,5.00,0.00,30.11,M,10.00,M,CLR,M,M,M,M,M,M,M,M,M,M,M,M,M,M,77.00,KCXP 190355Z AUTO 30005KT 10SM CLR 25/02 A3011 RMK AO2,M
05U,2025-07-19 03:55,-116.0051,39.6042,1811.23,69.80,44.60,40.31,120.00,20.00,0.00,30.18,M,10.00,26.00,CLR,M,M,M,M,M,M,M,M,M,M,M,M,M,M,69.80,K05U 190355Z AUTO 12020G26KT 10SM CLR 21/07 A3018 RMK A01,M
HTH,2025-07-19 03:55,-118.6315,38.5448,1282.89,84.20,37.40,18.94,330.00,7.00,0.00,30.02,M,10.00,M,CLR,M,M,M,M,M,M,M,M,M,M,M,M,M,M,81.38,KHTH 190355Z AUTO 33007KT 10SM CLR 29/03 A3002 RMK A01,M
INS,2025-07-19 03:55,-115.6733,36.5872,955.00,86.40,44.20,22.99,130.00,3.00,0.00,29.99,1009.90,10.00,M,CLR,M,M,M,M,M,M,M,M,M,M,M,M,M,M,83.36,KINS 190355Z AUTO 13003KT 10SM CLR 30/07 A2999 RMK AO2 SLP099 T03020068 $,M
LSV,2025-07-19 03:55,-115.0343,36.2362,570.00,95.00,47.70,20.07,0.00,0.00,0.00,29.86,1008.10,10.00,M,FEW,FEW,M,M,15000.00,20000.00,M,M,M,M,M,M,M,M,M,91.50,KLSV 190355Z 00000KT 10SM FEW150 FEW200 35/09 A2986 RMK AO2A SLP081 T03500087 $,M
EKO,2025-07-19 03:56,-115.7860,40.8242,1367.00,81.00,24.00,12.19,290.00,7.00,0.00,30.05,1011.20,10.00,M,CLR,M,M,M,M,M,M,M,M,M,M,M,M,M,M,78.82,KEKO 190356Z AUTO 29007KT 10SM CLR 27/M04 A3005 RMK AO2 SLP112 T02721044,M
HND,2025-07-19 03:56,-115.1344,35.9729,742.79,90.00,48.00,23.69,210.00,5.00,0.00,29.97,1013.30,10.00,M,CLR,M,M,M,M,M,M,M,M,M,M,M,M,M,M,86.79,KHND 190356Z AUTO 21005KT 10SM CLR 32/09 A2997 RMK AO2 SLP133 T03220089 $,M
TPH,2025-07-19 03:56,-117.0904,38.0505,1654.00,75.00,46.00,35.68,160.00,10.00,0.00,30.16,1013.00,10.00,M,M,M,M,M,M,M,M,M,M,M,M,M,M,M,M,75.00,KTPH 190356Z AUTO 16010KT 10SM 24/08 A3016 RMK AO2 SLP130 T02390078 $,M
LAS,2025-07-19 03:56,-115.1634,36.0719,663.00,93.00,48.00,21.58,250.00,8.00,0.00,29.93,1010.60,10.00,M,CLR,M,M,M,M,M,M,M,M,M,M,M,M,M,M,89.59,KLAS 190356Z 25008KT 10SM CLR 34/09 A2993 RMK AO2 SLP106 T03390089,M
NFL,2025-07-19 03:57,-118.7010,39.4166,1199.00,80.00,34.00,18.96,330.00,6.00,0.00,29.99,1012.70,10.00,M,FEW,M,M,M,10000.00,M,M,M,M,M,M,M,M,M,M,78.59,KNFL 190357Z 33006KT 10SM FEW100 27/01 A2999 RMK AO2 SLP127 T02670011,M
TMT,2025-07-19 04:10,-117.1971,39.4643,1749.34,60.30,18.70,19.68,100.00,4.00,0.00,30.16,M,10.00,M,CLR,M,M,M,M,M,M,M,M,M,M,M,M,M,M,60.30,KTMT 190410Z AUTO 10004KT 10SM CLR 16/M07 A3016 RMK AO2 T01571074,M
BVU,2025-07-19 04:15,-114.8611,35.9475,671.00,91.40,44.60,19.94,270.00,6.00,0.00,29.91,M,10.00,M,CLR,M,M,M,M,M,M,M,M,M,M,M,M,M,M,87.68,KBVU 190415Z AUTO 27006KT 10SM CLR 33/07 A2991 RMK AO2,M
BAM,2025-07-19 04:15,-116.8743,40.5990,1382.36,78.80,32.00,18.20,340.00,4.00,0.00,30.04,M,10.00,M,CLR,M,M,M,M,M,M,M,M,M,M,M,M,M,M,78.80,KBAM 190415Z AUTO 34004KT 10SM CLR 26/00 A3004 RMK AO1,M
CXP,2025-07-19 04:15,-119.7326,39.1923,1431.00,75.20,35.60,23.68,0.00,0.00,0.00,30.13,M,10.00,M,CLR,M,M,M,M,M,M,M,M,M,M,M,M,M,M,75.20,KCXP 190415Z AUTO 00000KT 10SM CLR 24/02 A3013 RMK AO2,M
05U,2025-07-19 04:15,-116.0051,39.6042,1811.23,68.00,44.60,42.87,150.00,18.00,0.00,30.19,M,10.00,M,CLR,M,M,M,M,M,M,M,M,M,M,M,M,M,M,68.00,K05U 190415Z AUTO 15018KT 10SM CLR 20/07 A3019 RMK A01,M
HTH,2025-07-19 04:15,-118.6315,38.5448,1282.89,82.40,42.80,24.77,350.00,8.00,0.00,30.03,M,10.00,M,CLR,M,M,M,M,M,M,M,M,M,M,M,M,M,M,80.39,KHTH 190415Z AUTO 35008KT 10SM CLR 28/06 A3003 RMK A01,M
TMT,2025-07-19 04:30,-117.1971,39.4643,1749.34,61.00,20.00,20.30,0.00,0.00,0.00,30.17,M,10.00,M,CLR,M,M,M,M,M,M,M,M,M,M,M,M,M,M,61.00,KTMT 190430Z AUTO 00000KT 10SM CLR 16/M07 A3017 RMK AO2 T01621067,M
BVU,2025-07-19 04:35,-114.8611,35.9475,671.00,89.60,44.60,21.10,270.00,5.00,0.00,29.92,M,10.00,M,CLR,M,M,M,M,M,M,M,M,M,M,M,M,M,M,86.07,KBVU 190435Z AUTO 27005KT 10SM CLR 32/07 A2992 RMK AO2,M
BAM,2025-07-19 04:35,-116.8743,40.5990,1382.36,77.00,33.80,20.76,330.00,7.00,0.00,30.04,M,10.00,M,CLR,M,M,M,M,M,M,M,M,M,M,M,M,M,M,77.00,KBAM 190435Z AUTO 33007KT 10SM CLR 25/01 A3004 RMK AO1,M
CXP,2025-07-19 04:35,-119.7326,39.1923,1431.00,75.20,33.80,22.04,0.00,0.00,0.00,30.14,M,10.00,M,CLR,M,M,M,M,M,M,M,M,M,M,M,M,M,M,75.20,KCXP 190435Z AUTO 00000KT 10SM CLR 24/01 A3014 RMK AO2,M
RTS,2025-07-19 04:35,-119.8764,39.6682,1539.00,71.60,28.40,19.98,270.00,7.00,0.00,30.16,M,10.00,M,CLR,M,M,M,M,M,M,M,M,M,M,M,M,M,M,71.60,KRTS 190435Z AUTO 27007KT 10SM CLR 22/M02 A3016 RMK AO2,M
05U,2025-07-19 04:35,-116.0051,39.6042,1811.23,68.00,46.40,45.91,150.00,13.00,0.00,30.20,M,10.00,M,CLR,M,M,M,M,M,M,M,M,M,M,M,M,M,M,68.00,K05U 190435Z AUTO 15013KT 10SM CLR 20/08 A3020 RMK A01,M
MEV,2025-07-19 04:35,-119.7500,38.9963,1441.42,73.40,35.60,25.15,250.00,11.00,0.00,30.12,M,10.00,M,CLR,M,M,M,M,M,M,M,M,M,M,M,M,M,M,73.40,KMEV 190435Z AUTO 25011KT 10SM CLR 23/02 A3012 RMK AO2,M
HTH,2025-07-19 04:35,-118.6315,38.5448,1282.89,84.20,35.60,17.64,350.00,10.00,0.00,30.04,M,10.00,M,CLR,M,M,M,M,M,M,M,M,M,M,M,M,M,M,81.34,KHTH 190435Z AUTO 35010KT 10SM CLR 29/02 A3004 RMK A01,M
TMT,2025-07-19 04:50,-117.1971,39.4643,1749.34,57.00,19.80,23.22,0.00,0.00,0.00,30.18,M,10.00,M,CLR,M,M,M,M,M,M,M,M,M,M,M,M,M,M,57.00,KTMT 190450Z AUTO 00000KT 10SM CLR 14/M07 A3018 RMK AO2 T01391068,M
P68,2025-07-19 04:53,-116.0056,39.6014,1993.00,66.00,45.00,46.64,130.00,12.00,0.00,30.18,1013.10,M,M,M,M,M,M,M,M,M,M,M,M,M,M,29.00,130.00,2025-07-19 03:56,66.00,KP68 190453Z AUTO 13012KT 19/07 A3018 RMK AO1 PK WND 13029/0356 SLP131 T01890072,M
DRA,2025-07-19 04:53,-116.0278,36.6206,1009.00,84.00,49.00,29.75,M,M,0.00,30.03,1011.50,10.00,M,CLR,M,M,M,M,M,M,M,M,M,M,M,M,M,M,81.98,KDRA 190453Z AUTO 10SM CLR 29/09 A3003 RMK AO2 SLP115 T02890094,M
ELY,2025-07-19 04:53,-114.8453,39.2950,1909.00,60.00,49.00,66.96,170.00,11.00,0.00,30.26,1015.20,10.00,M,CLR,M,M,M,M,M,M,M,M,M,M,M,M,M,M,60.00,KELY 190453Z AUTO 17011KT 10SM CLR 16/09 A3026 RMK AO2 SLP152 T01560094,M
VGT,2025-07-19 04:53,-115.1933,36.2111,667.00,89.00,53.00,29.43,310.00,4.00,0.00,29.93,1012.40,10.00,M,CLR,M,M,M,M,M,M,M,M,M,M,M,M,M,M,86.69,KVGT 190453Z AUTO 31004KT 10SM CLR 32/12 A2993 RMK AO2 SLP124 T03170117,M
LOL,2025-07-19 04:53,-118.5701,40.0684,1192.43,75.00,27.00,16.83,310.00,8.00,0.00,30.00,1011.50,10.00,M,CLR,M,M,M,M,M,M,M,M,M,M,M,M,M,M,75.00,KLOL 190453Z AUTO 31008KT 10SM CLR 24/M03 A3000 RMK AO2 SLP115 T02391028,M
BVU,2025-07-19 04:55,-114.8611,35.9475,671.00,89.60,44.60,21.10,0.00,0.00,0.00,29.93,M,10.00,M,CLR,M,M,M,M,M,M,M,M,M,M,M,M,M,M,86.07,KBVU 190455Z AUTO 00000KT 10SM CLR 32/07 A2993 RMK AO2,M
RNO,2025-07-19 04:55,-119.7711,39.4839,1341.00,79.00,36.00,21.22,290.00,14.00,0.00,30.10,1013.40,10.00,20.00,CLR,M,M,M,M,M,M,M,M,M,M,M,27.00,290.00,2025-07-19 04:34,79.00,KRNO 190455Z 29014G20KT 10SM CLR 26/02 A3010 RMK AO2 PK WND 29027/0434 SLP134 T02610022,M
BAM,2025-07-19 04:55,-116.8743,40.5990,1382.36,77.00,33.80,20.76,330.00,7.00,0.00,30.05,M,10.00,M,CLR,M,M,M,M,M,M,M,M,M,M,M,M,M,M,77.00,KBAM 190455Z AUTO 33007KT 10SM CLR 25/01 A3005 RMK AO1,M
CXP,2025-07-19 04:55,-119.7326,39.1923,1431.00,73.40,33.80,23.41,0.00,0.00,0.00,30.15,M,10.00,M,CLR,M,M,M,M,M,M,M,M,M,M,M,M,M,M,73.40,KCXP 190455Z AUTO 00000KT 10SM CLR 23/01 A3015 RMK AO2,M
RTS,2025-07-19 04:55,-119.8764,39.6682,1539.00,71.60,28.40,19.98,280.00,9.00,0.00,30.16,M,10.00,M,CLR,M,M,M,M,M,M,M,M,M,M,M,M,M,M,71.60,KRTS 190455Z AUTO 28009KT 10SM CLR 22/M02 A3016 RMK AO2,M
05U,2025-07-19 04:55,-116.0051,39.6042,1811.23,66.20,44.60,45.62,130.00,11.00,0.00,30.20,M,10.00,M,CLR,M,M,M,M,M,M,M,M,M,M,M,M,M,M,66.20,K05U 190455Z AUTO 13011KT 10SM CLR 19/07 A3020 RMK A01,M
MEV,2025-07-19 04:55,-119.7500,38.9963,1441.42,71.60,35.60,26.72,0.00,0.00,0.00,30.13,M,10.00,M,CLR,M,M,M,M,M,M,M,M,M,M,M,M,M,M,71.60,KMEV 190455Z AUTO 00000KT 10SM CLR 22/02 A3013 RMK AO2,M
HTH,2025-07-19 04:55,-118.6315,38.5448,1282.89,84.20,39.20,20.33,10.00,12.00,0.00,30.05,M,10.00,M,CLR,M,M,M,M,M,M,M,M,M,M,M,M,M,M,81.44,KHTH 190455Z AUTO 01012KT 10SM CLR 29/04 A3005 RMK A01,M
INS,2025-07-19 04:55,-115.6733,36.5872,955.00,86.00,46.00,24.93,50.00,9.00,0.00,30.02,1010.70,10.00,M,CLR,M,M,M,M,M,M,M,M,M,M,M,M,M,M,83.19,KINS 190455Z AUTO 05009KT 10SM CLR 30/08 A3002 RMK AO2 SLP107 T02990077 $,M
LSV,2025-07-19 04:55,-115.0343,36.2362,570.00,92.30,51.30,24.94,300.00,5.00,0.00,29.88,1008.70,10.00,M,CLR,M,M,M,M,M,M,M,M,M,M,M,M,M,M,89.48,KLSV 190455Z 30005KT 10SM CLR 34/11 A2988 RMK AO2A SLP087 T03350107 $,M
EKO,2025-07-19 04:56,-115.7860,40.8242,1367.00,72.00,28.00,19.40,210.00,5.00,0.00,30.07,1011.80,10.00,M,CLR,M,M,M,M,M,M,M,M,M,M,M,M,M,M,72.00,KEKO 190456Z AUTO 21005KT 10SM CLR 22/M02 A3007 RMK AO2 SLP118 T02221022,M
HND,2025-07-19 04:56,-115.1344,35.9729,742.79,88.00,49.00,26.19,250.00,4.00,0.00,29.98,1013.80,10.00,M,CLR,M,M,M,M,M,M,M,M,M,M,M,M,M,M,85.15,KHND 190456Z AUTO 25004KT 10SM CLR 31/09 A2998 RMK AO2 SLP138 T03110094 $,M
TPH,2025-07-19 04:56,-117.0904,38.0505,1654.00,74.00,47.00,38.31,120.00,9.00,0.00,30.17,1013.20,10.00,M,CLR,M,M,M,M,M,M,M,M,M,M,M,M,M,M,74.00,KTPH 190456Z AUTO 12009KT 10SM CLR 23/08 A3017 RMK AO2 SLP132 T02330083 $,M
LAS,2025-07-19 04:56,-115.1634,36.0719,663.00,91.00,48.00,22.96,300.00,6.00,0.00,29.95,1011.10,10.00,M,CLR,M,M,M,M,M,M,M,M,M,M,M,M,M,M,87.70,KLAS 190456Z 30006KT 10SM CLR 33/09 A2995 RMK AO2 SLP111 T03280089,M
NFL,2025-07-19 04:57,-118.7010,39.4166,1199.00,80.00,31.00,16.81,300.00,8.00,0.00,30.02,1013.50,10.00,M,CLR,M,M,M,M,M,M,M,M,M,M,M,M,M,M,78.49,KNFL 190457Z 30008KT 10SM CLR 27/M01 A3002 RMK AO2 SLP135 T02671006,M
MEV,2025-07-19 05:05,-119.7500,38.9963,1441.42,66.20,35.60,32.15,M,3.00,0.00,30.13,M,10.00,M,CLR,M,M,M,M,M,M,M,M,M,M,M,M,M,M,66.20,KMEV 190505Z AUTO VRB03KT 10SM CLR 19/02 A3013 RMK AO2,M
TMT,2025-07-19 05:10,-117.1971,39.4643,1749.34,54.00,16.50,22.46,0.00,0.00,0.00,30.18,M,10.00,M,CLR,M,M,M,M,M,M,M,M,M,M,M,M,M,M,54.00,KTMT 190510Z AUTO 00000KT 10SM CLR 12/M09 A3018 RMK AO2 T01221086,M
BVU,2025-07-19 05:15,-114.8611,35.9475,671.00,87.80,46.40,23.91,0.00,0.00,0.00,29.93,M,10.00,M,CLR,M,M,M,M,M,M,M,M,M,M,M,M,M,M,84.69,KBVU 190515Z AUTO 00000KT 10SM CLR 31/08 A2993 RMK AO2,M
BAM,2025-07-19 05:15,-116.8743,40.5990,1382.36,73.40,33.80,23.41,0.00,0.00,0.00,30.05,M,10.00,M,CLR,M,M,M,M,M,M,M,M,M,M,M,M,M,M,73.40,KBAM 190515Z AUTO 00000KT 10SM CLR 23/01 A3005 RMK AO1,M
CXP,2025-07-19 05:15,-119.7326,39.1923,1431.00,75.20,35.60,23.68,0.00,0.00,0.00,30.15,M,10.00,M,CLR,M,M,M,M,M,M,M,M,M,M,M,M,M,M,75.20,KCXP 190515Z AUTO 00000KT 10SM CLR 24/02 A3015 RMK AO2,M
RTS,2025-07-19 05:15,-119.8764,39.6682,1539.00,73.40,30.20,20.24,290.00,13.00,0.00,30.17,M,10.00,M,CLR,M,M,M,M,M,M,M,M,M,M,M,M,M,M,73.40,KRTS 190515Z AUTO 29013KT 10SM CLR 23/M01 A3017 RMK AO2,M
05U,2025-07-19 05:15,-116.0051,39.6042,1811.23,66.20,44.60,45.62,140.00,10.00,0.00,30.20,M,10.00,M,CLR,M,M,M,M,M,M,M,M,M,M,M,M,M,M,66.20,K05U 190515Z AUTO 14010KT 10SM CLR 19/07 A3020 RMK A01,M
HTH,2025-07-19 05:15,-118.6315,38.5448,1282.89,82.40,28.40,13.98,10.00,8.00,0.00,30.05,M,10.00,M,CLR,M,M,M,M,M,M,M,M,M,M,M,M,M,M,79.94,KHTH 190515Z AUTO 01008KT 10SM CLR 28/M02 A3005 RMK A01,M
TMT,2025-07-19 05:30,-117.1971,39.4643,1749.34,50.00,17.00,26.60,160.00,5.00,0.00,30.18,M,10.00,M,CLR,M,M,M,M,M,M,M,M,M,M,M,M,M,M,50.00,KTMT 190530Z AUTO 16005KT 10SM CLR 10/M08 A3018 RMK AO2 T01011084,M
BVU,2025-07-19 05:35,-114.8611,35.9475,671.00,87.80,46.40,23.91,0.00,0.00,0.00,29.93,M,10.00,M,CLR,M,M,M,M,M,M,M,M,M,M,M,M,M,M,84.69,KBVU 190535Z AUTO 00000KT 10SM CLR 31/08 A2993 RMK AO2,M
BAM,2025-07-19 05:35,-116.8743,40.5990,1382.36,77.00,35.60,22.31,340.00,3.00,0.00,30.05,M,10.00,M,CLR,M,M,M,M,M,M,M,M,M,M,M,M,M,M,77.00,KBAM 190535Z AUTO 34003KT 10SM CLR 25/02 A3005 RMK AO1,M
CXP,2025-07-19 05:35,-119.7326,39.1923,1431.00,71.60,33.80,24.87,330.00,4.00,0.00,30.15,M,10.00,M,CLR,M,M,M,M,M,M,M,M,M,M,M,M,M,M,71.60,KCXP 190535Z AUTO 33004KT 10SM CLR 22/01 A3015 RMK AO2,M
RTS,2025-07-19 05:35,-119.8764,39.6682,1539.00,73.40,32.00,21.77,300.00,14.00,0.00,30.17,M,10.00,M,CLR,M,M,M,M,M,M,M,M,M,M,M,M,M,M,73.40,KRTS 190535Z AUTO 30014KT 10SM CLR 23/M00 A3017 RMK AO2,M
05U,2025-07-19 05:35,-116.0051,39.6042,1811.23,66.20,44.60,45.62,140.00,8.00,0.00,30.20,M,10.00,M,CLR,M,M,M,M,M,M,M,M,M,M,M,M,M,M,66.20,K05U 190535Z AUTO 14008KT 10SM CLR 19/07 A3020 RMK A01,M
MEV,2025-07-19 05:35,-119.7500,38.9963,1441.42,71.60,37.40,28.69,210.00,3.00,0.00,30.14,M,10.00,M,FEW,M,M,M,5000.00,M,M,M,M,M,M,M,M,M,M,71.60,KMEV 190535Z AUTO 21003KT 10SM FEW050 22/03 A3014 RMK AO2,M
HTH,2025-07-19 05:35,-118.6315,38.5448,1282.89,82.40,28.40,13.98,360.00,8.00,0.00,30.06,M,10.00,M,CLR,M,M,M,M,M,M,M,M,M,M,M,M,M,M,79.94,KHTH 190535Z AUTO 36008KT 10SM CLR 28/M02 A3006 RMK A01,M
TMT,2025-07-19 05:50,-117.1971,39.4643,1749.34,50.50,16.70,25.78,210.00,4.00,0.00,30.18,M,10.00,M,CLR,M,M,M,M,M,M,M,M,M,M,M,M,M,M,50.50,KTMT 190550Z AUTO 21004KT 10SM CLR 10/M08 A3018 RMK AO2 T01031085,M
P68,2025-07-19 05:53,-116.0056,39.6014,1993.00,66.00,45.00,46.64,160.00,10.00,0.00,30.17,1012.40,M,M,M,M,M,M,M,M,M,M,M,M,M,M,M,M,M,66.00,KP68 190553Z AUTO 16010KT 19/07 A3017 RMK AO1 SLP124 T01890072 10283 20183 50015,M
DRA,2025-07-19 05:53,-116.0278,36.6206,1009.00,84.00,51.00,32.05,20.00,9.00,0.00,30.03,1011.40,10.00,M,CLR,M,M,M,M,M,M,M,M,M,M,M,M,M,M,82.22,KDRA 190553Z AUTO 02009KT 10SM CLR 29/11 A3003 RMK AO2 SLP114 T02890106 10344 20289 51014,M
ELY,2025-07-19 05:53,-114.8453,39.2950,1909.00,58.00,50.00,74.65,210.00,10.00,0.00,30.25,1015.20,10.00,M,CLR,M,M,M,M,M,M,M,M,M,M,M,M,M,M,58.00,KELY 190553Z AUTO 21010KT 10SM CLR 14/10 A3025 RMK AO2 SLP152 60000 T01440100 10217 20139 50002,M
VGT,2025-07-19 05:53,-115.1933,36.2111,667.00,85.00,58.00,40.06,350.00,10.00,0.00,29.94,1012.80,10.00,M,CLR,M,M,M,M,M,M,M,M,M,M,M,M,M,M,84.34,KVGT 190553Z AUTO 35010KT 10SM CLR 29/14 A2994 RMK AO2 SLP128 T02940144 10344 20294 51014,M
LOL,2025-07-19 05:53,-118.5701,40.0684,1192.43,76.00,24.00,14.37,330.00,10.00,0.00,30.01,1011.50,10.00,M,CLR,M,M,M,M,M,M,M,M,M,M,M,M,M,M,76.00,KLOL 190553Z AUTO 33010KT 10SM CLR 24/M04 A3001 RMK AO2 SLP115 T02441044 10356 20233 51013,M
BVU,2025-07-19 05:55,-114.8611,35.9475,671.00,86.00,46.40,25.31,320.00,4.00,0.00,29.93,M,10.00,M,CLR,M,M,M,M,M,M,M,M,M,M,M,M,M,M,83.23,KBVU 190555Z AUTO 32004KT 10SM CLR 30/08 A2993 RMK AO2,M
RNO,2025-07-19 05:55,-119.7711,39.4839,1341.00,77.00,35.00,21.78,M,3.00,0.00,30.12,1013.80,10.00,M,CLR,M,M,M,M,M,M,M,M,M,M,M,M,M,M,77.00,KRNO 190555Z VRB03KT 10SM CLR 25/02 A3012 RMK AO2 SLP138 T02500017 10344 20250 53015,M
BAM,2025-07-19 05:55,-116.8743,40.5990,1382.36,77.00,35.60,22.31,320.00,11.00,0.00,30.05,M,10.00,M,CLR,M,M,M,M,M,M,M,M,M,M,M,M,M,M,77.00,KBAM 190555Z AUTO 32011KT 10SM CLR 25/02 A3005 RMK AO1,M
CXP,2025-07-19 05:55,-119.7326,39.1923,1431.00,69.80,33.80,26.44,0.00,0.00,0.00,30.15,M,10.00,M,CLR,M,M,M,M,M,M,M,M,M,M,M,M,M,M,69.80,KCXP 190555Z AUTO 00000KT 10SM CLR 21/01 A3015 RMK AO2,M
RTS,2025-07-19 05:55,-119.8764,39.6682,1539.00,71.60,30.20,21.51,0.00,0.00,0.00,30.17,M,10.00,13.00,CLR,M,M,M,M,M,M,M,M,M,M,M,M,M,M,71.60,KRTS 190555Z AUTO 00000G13KT 10SM CLR 22/M01 A3017 RMK AO2,M
05U,2025-07-19 05:55,-116.0051,39.6042,1811.23,66.20,44.60,45.62,150.00,7.00,0.00,30.20,M,10.00,M,CLR,M,M,M,M,M,M,M,M,M,M,M,M,M,M,66.20,K05U 190555Z AUTO 15007KT 10SM CLR 19/07 A3020 RMK A01,M
MEV,2025-07-19 05:55,-119.7500,38.9963,1441.42,66.20,37.40,34.52,0.00,0.00,0.00,30.14,M,10.00,M,FEW,M,M,M,4800.00,M,M,M,M,M,M,M,M,M,M,66.20,KMEV 190555Z AUTO 00000KT 10SM FEW048 19/03 A3014 RMK AO2,M
HTH,2025-07-19 05:55,-118.6315,38.5448,1282.89,M,M,M,M,M,0.00,30.06,M,M,M,M,M,M,M,M,M,M,M,M,M,M,M,M,M,M,M,KHTH 190555Z AUTO A3006 RMK A01,M
INS,2025-07-19 05:55,-115.6733,36.5872,955.00,84.70,48.00,28.02,120.00,5.00,0.00,30.02,1010.70,10.00,M,OVC,M,M,M,17000.00,M,M,M,M,M,M,M,M,M,M,82.39,KINS 190555Z AUTO 12005KT 10SM OVC170 29/09 A3002 RMK AO2 SLP107 T02930089 10333 20284 51016 $,M
LSV,2025-07-19 05:55,-115.0343,36.2362,570.00,90.00,52.50,28.00,340.00,4.00,0.00,29.89,1009.10,10.00,M,CLR,M,M,M,M,M,M,M,M,M,M,M,M,M,M,87.52,KLSV 190555Z AUTO 34004KT 10SM CLR 32/11 A2989 RMK AO2 SLP091 T03230114 10366 20322 52017 $,M
EKO,2025-07-19 05:56,-115.7860,40.8242,1367.00,71.00,27.00,19.25,M,5.00,0.00,30.07,1011.70,10.00,M,CLR,M,M,M,M,M,M,M,M,M,M,M,M,M,M,71.00,KEKO 190556Z AUTO VRB05KT 10SM CLR 22/M03 A3007 RMK AO2 SLP117 T02171028 10344 20206 51013,M
HND,2025-07-19 05:56,-115.1344,35.9729,742.79,84.00,50.00,30.88,160.00,6.00,0.00,29.99,1014.10,10.00,M,CLR,M,M,M,M,M,M,M,M,M,M,M,M,M,M,82.10,KHND 190556Z AUTO 16006KT 10SM CLR 29/10 A2999 RMK AO2 SLP141 T02890100 10356 20289 51014 $,M
TPH,2025-07-19 05:56,-117.0904,38.0505,1654.00,72.00,47.00,40.97,100.00,10.00,0.00,30.17,1013.10,10.00,M,CLR,M,M,M,M,M,M,M,M,M,M,M,M,M,M,72.00,KTPH 190556Z AUTO 10010KT 10SM CLR 22/08 A3017 RMK AO2 SLP131 T02220083 10311 20222 51012 $,M
LAS,2025-07-19 05:56,-115.1634,36.0719,663.00,90.00,49.00,24.60,170.00,4.00,0.00,29.96,1011.40,10.00,M,CLR,M,M,M,M,M,M,M,M,M,M,M,M,M,M,86.92,KLAS 190556Z 17004KT 10SM CLR 32/09 A2996 RMK AO2 SLP114 T03220094 10367 20322 51014,M
NFL,2025-07-19 05:57,-118.7010,39.4166,1199.00,79.00,35.00,20.39,290.00,7.00,0.00,30.03,1013.70,10.00,M,CLR,M,M,M,M,M,M,M,M,M,M,M,M,M,M,79.00,KNFL 190557Z 29007KT 10SM CLR 26/02 A3003 RMK AO2 SLP137 T02610017 10372 20256 51015,M
MEV,2025-07-19 06:10,-119.7500,38.9963,1441.42,62.60,39.20,42.00,0.00,0.00,0.00,30.14,M,10.00,M,FEW,M,M,M,5000.00,M,M,M,M,M,M,M,M,M,M,62.60,KMEV 190610Z AUTO 00000KT 10SM FEW050 17/04 A3014 RMK AO2,M
TMT,2025-07-19 06:10,-117.1971,39.4643,1749.34,53.00,15.30,22.12,0.00,0.00,0.00,30.18,M,10.00,M,CLR,M,M,M,M,M,M,M,M,M,M,M,M,M,M,53.00,KTMT 190610Z AUTO 00000KT 10SM CLR 12/M09 A3018 RMK AO2 T01161093,M
BVU,2025-07-19 06:15,-114.8611,35.9475,671.00,86.00,50.00,28.97,0.00,0.00,0.00,29.94,M,10.00,M,CLR,M,M,M,M,M,M,M,M,M,M,M,M,M,M,83.62,KBVU 190615Z AUTO 00000KT 10SM CLR 30/10 A2994 RMK AO2,M
CXP,2025-07-19 06:15,-119.7326,39.1923,1431.00,68.00,32.00,26.16,0.00,0.00,0.00,30.16,M,10.00,M,CLR,M,M,M,M,M,M,M,M,M,M,M,M,M,M,68.00,KCXP 190615Z AUTO 00000KT 10SM CLR 20/00 A3016 RMK AO2,M
RTS,2025-07-19 06:15,-119.8764,39.6682,1539.00,71.60,30.20,21.51,300.00,11.00,0.00,30.17,M,10.00,M,CLR,M,M,M,M,M,M,M,M,M,M,M,M,M,M,71.60,KRTS 190615Z AUTO 30011KT 10SM CLR 22/M01 A3017 RMK AO2,M
05U,2025-07-19 06:15,-116.0051,39.6042,1811.23,62.60,42.80,48.29,0.00,0.00,0.00,30.20,M,10.00,M,CLR,M,M,M,M,M,M,M,M,M,M,M,M,M,M,62.60,K05U 190615Z AUTO 00000KT 10SM CLR 17/06 A3020 RMK A01,M
BAM,2025-07-19 06:15,-116.8743,40.5990,1382.36,77.00,35.60,22.31,330.00,8.00,0.00,30.05,M,10.00,M,CLR,M,M,M,M,M,M,M,M,M,M,M,M,M,M,77.00,KBAM 190615Z AUTO 33008KT 10SM CLR 25/02 A3005 RMK AO1,M
HTH,2025-07-19 06:15,-118.6315,38.5448,1282.89,80.60,24.80,12.77,350.00,9.00,0.00,30.07,M,10.00,M,M,M,M,M,M,M,M,M,M,M,M,M,M,M,M,78.94,KHTH 190615Z AUTO 35009KT 10SM 27/M04 A3007 RMK A01,M
TMT,2025-07-19 06:30,-117.1971,39.4643,1749.34,52.50,22.50,30.68,270.00,3.00,0.00,30.18,M,10.00,M,CLR,M,M,M,M,M,M,M,M,M,M,M,M,M,M,52.50,KTMT 190630Z AUTO 27003KT 10SM CLR 11/M05 A3018 RMK AO2 T01141053,M
BVU,2025-07-19 06:35,-114.8611,35.9475,671.00,84.20,48.20,28.69,0.00,0.00,0.00,29.93,M,10.00,M,CLR,M,M,M,M,M,M,M,M,M,M,M,M,M,M,82.04,KBVU 190635Z AUTO 00000KT 10SM CLR 29/09 A2993 RMK AO2,M
BAM,2025-07-19 06:35,-116.8743,40.5990,1382.36,77.00,35.60,22.31,0.00,0.00,0.00,30.05,M,10.00,M,CLR,M,M,M,M,M,M,M,M,M,M,M,M,M,M,77.00,KBAM 190635Z AUTO 00000KT 10SM CLR 25/02 A3005 RMK AO1,M
CXP,2025-07-19 06:35,-119.7326,39.1923,1431.00,66.20,33.80,29.92,0.00,0.00,0.00,30.16,M,10.00,M,CLR,M,M,M,M,M,M,M,M,M,M,M,M,M,M,66.20,KCXP 190635Z AUTO 00000KT 10SM CLR 19/01 A3016 RMK AO2,M
RTS,2025-07-19 06:35,-119.8764,39.6682,1539.00,69.80,30.20,22.87,300.00,7.00,0.00,30.18,M,10.00,M,CLR,M,M,M,M,M,M,M,M,M,M,M,M,M,M,69.80,KRTS 190635Z AUTO 30007KT 10SM CLR 21/M01 A3018 RMK AO2,M
05U,2025-07-19 06:35,-116.0051,39.6042,1811.23,60.80,44.60,55.13,0.00,0.00,0.00,30.21,M,10.00,M,CLR,M,M,M,M,M,M,M,M,M,M,M,M,M,M,60.80,K05U 190635Z AUTO 00000KT 10SM CLR 16/07 A3021 RMK A01,M
MEV,2025-07-19 06:35,-119.7500,38.9963,1441.42,59.00,37.40,44.47,130.00,8.00,0.00,30.15,M,10.00,M,FEW,FEW,M,M,4800.00,5500.00,M,M,M,M,M,M,M,M,M,59.00,KMEV 190635Z AUTO 13008KT 10SM FEW048 FEW055 15/03 A3015 RMK AO2,M
HTH,2025-07-19 06:35,-118.6315,38.5448,1282.89,80.60,26.60,13.76,360.00,8.00,0.00,30.08,M,10.00,M,CLR,M,M,M,M,M,M,M,M,M,M,M,M,M,M,78.68,KHTH 190635Z AUTO 36008KT 10SM CLR 27/M03 A3008 RMK A01,M
MEV,2025-07-19 06:50,-119.7500,38.9963,1441.42,59.00,35.60,41.42,130.00,7.00,0.00,30.15,M,10.00,M,FEW,M,M,M,4800.00,M,M,M,M,M,M,M,M,M,M,59.00,KMEV 190650Z AUTO 13007KT 10SM FEW048 15/02 A3015 RMK AO2,M
TMT,2025-07-19 06:50,-117.1971,39.4643,1749.34,53.00,25.30,33.87,250.00,3.00,0.00,30.19,M,10.00,M,CLR,M,M,M,M,M,M,M,M,M,M,M,M,M,M,53.00,KTMT 190650Z AUTO 25003KT 10SM CLR 12/M04 A3019 RMK AO2 T01161037,M
P68,2025-07-19 06:53,-116.0056,39.6014,1993.00,60.00,43.00,53.35,150.00,5.00,0.00,30.19,1013.40,M,M,M,M,M,M,M,M,M,M,M,M,M,M,M,M,M,60.00,KP68 190653Z AUTO 15005KT 16/06 A3019 RMK AO1 SLP134 T01560061,M
DRA,2025-07-19 06:53,-116.0278,36.6206,1009.00,82.00,50.00,32.94,0.00,0.00,0.00,30.03,1011.70,10.00,M,CLR,M,M,M,M,M,M,M,M,M,M,M,M,M,M,80.73,KDRA 190653Z AUTO 00000KT 10SM CLR 28/10 A3003 RMK AO2 SLP117 T02780100,M
ELY,2025-07-19 06:53,-114.8453,39.2950,1909.00,56.00,48.00,74.46,210.00,9.00,0.00,30.26,1014.70,10.00,M,CLR,M,M,M,M,M,M,M,M,M,M,M,M,M,M,56.00,KELY 190653Z AUTO 21009KT 10SM CLR 13/09 A3026 RMK AO2 SLP147 T01330089,M
VGT,2025-07-19 06:53,-115.1933,36.2111,667.00,85.00,53.00,33.41,300.00,5.00,0.00,29.94,1012.60,10.00,M,CLR,M,M,M,M,M,M,M,M,M,M,M,M,M,M,83.28,KVGT 190653Z AUTO 30005KT 10SM CLR 29/12 A2994 RMK AO2 SLP126 T02940117,M
LOL,2025-07-19 06:53,-118.5701,40.0684,1192.43,72.00,26.00,17.86,290.00,3.00,0.00,30.02,1011.90,10.00,M,CLR,M,M,M,M,M,M,M,M,M,M,M,M,M,M,72.00,KLOL 190653Z AUTO 29003KT 10SM CLR 22/M03 A3002 RMK AO2 SLP119 T02221033,M
BVU,2025-07-19 06:55,-114.8611,35.9475,671.00,84.20,50.00,30.68,0.00,0.00,0.00,29.93,M,10.00,M,CLR,M,M,M,M,M,M,M,M,M,M,M,M,M,M,82.24,KBVU 190655Z AUTO 00000KT 10SM CLR 29/10 A2993 RMK AO2,M
RNO,2025-07-19 06:55,-119.7711,39.4839,1341.00,75.00,36.00,24.22,210.00,5.00,0.00,30.13,1014.00,10.00,M,CLR,M,M,M,M,M,M,M,M,M,M,M,M,M,M,75.00,KRNO 190655Z 21005KT 10SM CLR 24/02 A3013 RMK AO2 SLP140 T02390022,M
BAM,2025-07-19 06:55,-116.8743,40.5990,1382.36,71.60,32.00,23.14,0.00,0.00,0.00,30.06,M,10.00,M,CLR,M,M,M,M,M,M,M,M,M,M,M,M,M,M,71.60,KBAM 190655Z AUTO 00000KT 10SM CLR 22/00 A3006 RMK AO1,M
CXP,2025-07-19 06:55,-119.7326,39.1923,1431.00,66.20,33.80,29.92,0.00,0.00,0.00,30.17,M,10.00,M,CLR,M,M,M,M,M,M,M,M,M,M,M,M,M,M,66.20,KCXP 190655Z AUTO 00000KT 10SM CLR 19/01 A3017 RMK AO2,M
RTS,2025-07-19 06:55,-119.8764,39.6682,1539.00,68.00,30.20,24.32,330.00,5.00,0.00,30.18,M,10.00,M,CLR,M,M,M,M,M,M,M,M,M,M,M,M,M,M,68.00,KRTS 190655Z AUTO 33005KT 10SM CLR 20/M01 A3018 RMK AO2,M
05U,2025-07-19 06:55,-116.0051,39.6042,1811.23,59.00,42.80,54.86,0.00,0.00,0.00,30.21,M,10.00,M,CLR,M,M,M,M,M,M,M,M,M,M,M,M,M,M,59.00,K05U 190655Z AUTO 00000KT 10SM CLR 15/06 A3021 RMK A01,M
HTH,2025-07-19 06:55,-118.6315,38.5448,1282.89,78.80,28.40,15.72,260.00,6.00,0.00,30.08,M,10.00,M,CLR,M,M,M,M,M,M,M,M,M,M,M,M,M,M,78.80,KHTH 190655Z AUTO 26006KT 10SM CLR 26/M02 A3008 RMK A01,M
INS,2025-07-19 06:55,-115.6733,36.5872,955.00,84.40,47.70,27.97,150.00,6.00,0.00,30.02,1010.70,10.00,M,OVC,M,M,M,18000.00,M,M,M,M,M,M,M,M,M,M,82.14,KINS 190655Z AUTO 15006KT 10SM OVC180 29/09 A3002 RMK AO2 SLP107 T02910087 $,M
LSV,2025-07-19 06:55,-115.0343,36.2362,570.00,90.00,51.40,26.89,0.00,0.00,0.00,29.89,1009.10,10.00,M,CLR,M,M,M,M,M,M,M,M,M,M,M,M,M,M,87.31,KLSV 190655Z 00000KT 10SM CLR 32/11 A2989 RMK AO2A SLP091 T03220108 $,M
EKO,2025-07-19 06:56,-115.7860,40.8242,1367.00,73.00,41.00,31.50,M,3.00,0.00,30.08,1011.60,10.00,M,CLR,M,M,M,M,M,M,M,M,M,M,M,M,M,M,73.00,KEKO 190656Z AUTO VRB03KT 10SM CLR 23/05 A3008 RMK AO2 SLP116 T02280050,M
HND,2025-07-19 06:56,-115.1344,35.9729,742.79,83.00,48.00,29.59,190.00,5.00,0.00,29.99,1013.90,10.00,M,CLR,M,M,M,M,M,M,M,M,M,M,M,M,M,M,81.18,KHND 190656Z AUTO 19005KT 10SM CLR 28/09 A2999 RMK AO2 SLP139 T02830089 403610239 $,M
TPH,2025-07-19 06:56,-117.0904,38.0505,1654.00,71.00,46.00,40.81,110.00,10.00,0.00,30.19,1013.60,10.00,21.00,CLR,M,M,M,M,M,M,M,M,M,M,M,M,M,M,71.00,KTPH 190656Z AUTO 11010G21KT 10SM CLR 22/08 A3019 RMK AO2 SLP136 T02170078 $,M
LAS,2025-07-19 06:56,-115.1634,36.0719,663.00,88.00,49.00,26.19,0.00,0.00,0.00,29.96,1011.50,10.00,M,CLR,M,M,M,M,M,M,M,M,M,M,M,M,M,M,85.15,KLAS 190656Z 00000KT 10SM CLR 31/09 A2996 RMK AO2 SLP115 T03110094,M
NFL,2025-07-19 06:57,-118.7010,39.4166,1199.00,72.00,37.00,27.86,250.00,7.00,0.00,30.04,1014.20,10.00,M,CLR,M,M,M,M,M,M,M,M,M,M,M,M,M,M,72.00,KNFL 190657Z AUTO 25007KT 10SM CLR 22/03 A3004 RMK AO2 SLP142 T02220028,M
MEV,2025-07-19 07:10,-119.7500,38.9963,1441.42,59.00,33.80,38.55,110.00,10.00,0.00,30.15,M,10.00,M,FEW,SCT,M,M,4600.00,5500.00,M,M,M,M,M,M,M,M,M,59.00,KMEV 190710Z AUTO 11010KT 10SM FEW046 SCT055 15/01 A3015 RMK AO2,M
TMT,2025-07-19 07:10,-117.1971,39.4643,1749.34,50.50,21.70,31.93,220.00,5.00,0.00,30.19,M,10.00,M,CLR,M,M,M,M,M,M,M,M,M,M,M,M,M,M,50.50,KTMT 190710Z AUTO 22005KT 10SM CLR 10/M06 A3019 RMK AO2 T01031057,M
BVU,2025-07-19 07:15,-114.8611,35.9475,671.00,82.40,51.80,34.75,0.00,0.00,0.00,29.93,M,10.00,M,CLR,M,M,M,M,M,M,M,M,M,M,M,M,M,M,81.21,KBVU 190715Z AUTO 00000KT 10SM CLR 28/11 A2993 RMK AO2,M
BAM,2025-07-19 07:15,-116.8743,40.5990,1382.36,69.80,32.00,24.60,0.00,0.00,0.00,30.06,M,10.00,M,CLR,M,M,M,M,M,M,M,M,M,M,M,M,M,M,69.80,KBAM 190715Z AUTO 00000KT 10SM CLR 21/00 A3006 RMK AO1,M
CXP,2025-07-19 07:15,-119.7326,39.1923,1431.00,64.40,32.00,29.63,330.00,4.00,0.00,30.17,M,10.00,M,CLR,M,M,M,M,M,M,M,M,M,M,M,M,M,M,64.40,KCXP 190715Z AUTO 33004KT 10SM CLR 18/00 A3017 RMK AO2,M
RTS,2025-07-19 07:15,-119.8764,39.6682,1539.00,66.20,30.20,25.88,290.00,6.00,0.00,30.18,M,10.00,M,CLR,M,M,M,M,M,M,M,M,M,M,M,M,M,M,66.20,KRTS 190715Z AUTO 29006KT 10SM CLR 19/M01 A3018 RMK AO2,M
05U,2025-07-19 07:15,-116.0051,39.6042,1811.23,59.00,41.00,51.18,0.00,0.00,0.00,30.21,M,10.00,M,CLR,M,M,M,M,M,M,M,M,M,M,M,M,M,M,59.00,K05U 190715Z AUTO 00000KT 10SM CLR 15/05 A3021 RMK A01,M
HTH,2025-07-19 07:15,-118.6315,38.5448,1282.89,78.80,37.40,22.57,230.00,5.00,0.00,30.09,M,10.00,M,CLR,M,M,M,M,M,M,M,M,M,M,M,M,M,M,78.80,KHTH 190715Z AUTO 23005KT 10SM CLR 26/03 A3009 RMK A01,M
TMT,2025-07-19 07:30,-117.1971,39.4643,1749.34,53.80,20.30,26.64,270.00,6.00,0.00,30.19,M,10.00,M,CLR,M,M,M,M,M,M,M,M,M,M,M,M,M,M,53.80,KTMT 190730Z AUTO 27006KT 10SM CLR 12/M06 A3019 RMK AO2 T01211065,M
BVU,2025-07-19 07:35,-114.8611,35.9475,671.00,82.40,48.20,30.40,0.00,0.00,0.00,29.93,M,10.00,M,CLR,M,M,M,M,M,M,M,M,M,M,M,M,M,M,80.81,KBVU 190735Z AUTO 00000KT 10SM CLR 28/09 A2993 RMK AO2,M
BAM,2025-07-19 07:35,-116.8743,40.5990,1382.36,66.20,30.20,25.88,140.00,5.00,0.00,30.07,M,10.00,M,CLR,M,M,M,M,M,M,M,M,M,M,M,M,M,M,66.20,KBAM 190735Z AUTO 14005KT 10SM CLR 19/M01 A3007 RMK AO1,M
CXP,2025-07-19 07:35,-119.7326,39.1923,1431.00,60.80,35.60,38.85,0.00,0.00,0.00,30.17,M,10.00,M,CLR,M,M,M,M,M,M,M,M,M,M,M,M,M,M,60.80,KCXP 190735Z AUTO 00000KT 10SM CLR 16/02 A3017 RMK AO2,M
RTS,2025-07-19 07:35,-119.8764,39.6682,1539.00,66.20,30.20,25.88,M,M,0.00,30.18,M,10.00,M,CLR,M,M,M,M,M,M,M,M,M,M,M,M,M,M,66.20,KRTS 190735Z AUTO 10SM CLR 19/M01 A3018 RMK AO2,M
05U,2025-07-19 07:35,-116.0051,39.6042,1811.23,55.40,41.00,58.27,0.00,0.00,0.00,30.21,M,10.00,M,CLR,M,M,M,M,M,M,M,M,M,M,M,M,M,M,55.40,K05U 190735Z AUTO 00000KT 10SM CLR 13/05 A3021 RMK A01,M
MEV,2025-07-19 07:35,-119.7500,38.9963,1441.42,59.00,33.80,38.55,110.00,5.00,0.00,30.16,M,10.00,M,FEW,M,M,M,4700.00,M,M,M,M,M,M,M,M,M,M,59.00,KMEV 190735Z AUTO 11005KT 10SM FEW047 15/01 A3016 RMK AO2,M
HTH,2025-07-19 07:35,-118.6315,38.5448,1282.89,75.20,35.60,23.68,160.00,8.00,0.00,30.09,M,10.00,M,CLR,M,M,M,M,M,M,M,M,M,M,M,M,M,M,75.20,KHTH 190735Z AUTO 16008KT 10SM CLR 24/02 A3009 RMK A01,M
TMT,2025-07-19 07:50,-117.1971,39.4643,1749.34,49.00,19.80,31.15,0.00,0.00,0.00,30.19,M,10.00,M,CLR,M,M,M,M,M,M,M,M,M,M,M,M,M,M,49.00,KTMT 190750Z AUTO 00000KT 10SM CLR 10/M07 A3019 RMK AO2 T00951068,M
P68,2025-07-19 07:53,-116.0056,39.6014,1993.00,55.00,40.00,56.87,200.00,3.00,0.00,30.19,1013.90,M,M,M,M,M,M,M,M,M,M,M,M,M,M,M,M,M,55.00,KP68 190753Z AUTO 20003KT 13/04 A3019 RMK AO1 SLP139 T01280044 403000128,M
DRA,2025-07-19 07:53,-116.0278,36.6206,1009.00,83.00,50.00,31.89,100.00,3.00,0.00,30.02,1011.20,10.00,M,CLR,M,M,M,M,M,M,M,M,M,M,M,M,M,M,81.39,KDRA 190753Z AUTO 10003KT 10SM CLR 28/10 A3002 RMK AO2 SLP112 T02830100 403500239,M
ELY,2025-07-19 07:53,-114.8453,39.2950,1909.00,52.00,47.00,82.99,180.00,7.00,0.00,30.25,1015.00,10.00,M,CLR,M,M,M,M,M,M,M,M,M,M,M,M,M,M,52.00,KELY 190753Z AUTO 18007KT 10SM CLR 11/08 A3025 RMK AO2 SLP150 T01110083 402890111,M
VGT,2025-07-19 07:53,-115.1933,36.2111,667.00,84.00,54.00,35.79,320.00,6.00,0.00,29.94,1012.40,10.00,M,CLR,M,M,M,M,M,M,M,M,M,M,M,M,M,M,82.68,KVGT 190753Z AUTO 32006KT 10SM CLR 29/12 A2994 RMK AO2 SLP124 T02890122 403560272,M
LOL,2025-07-19 07:53,-118.5701,40.0684,1192.43,74.00,29.00,18.89,60.00,5.00,0.00,30.03,1012.10,10.00,M,CLR,M,M,M,M,M,M,M,M,M,M,M,M,M,M,74.00,KLOL 190753Z AUTO 06005KT 10SM CLR 23/M02 A3003 RMK AO2 SLP121 T02331017 403670100,M
BVU,2025-07-19 07:55,-114.8611,35.9475,671.00,80.60,51.80,36.84,0.00,0.00,0.00,29.94,M,10.00,M,CLR,M,M,M,M,M,M,M,M,M,M,M,M,M,M,80.08,KBVU 190755Z AUTO 00000KT 10SM CLR 27/11 A2994 RMK AO2,M
RNO,2025-07-19 07:55,-119.7711,39.4839,1341.00,73.00,33.00,22.98,270.00,4.00,0.00,30.14,1014.10,10.00,M,CLR,M,M,M,M,M,M,M,M,M,M,M,M,M,M,73.00,KRNO 190755Z 27004KT 10SM CLR 23/01 A3014 RMK AO2 SLP141 T02280006 403560156,M
BAM,2025-07-19 07:55,-116.8743,40.5990,1382.36,66.20,30.20,25.88,160.00,4.00,0.00,30.07,M,10.00,M,CLR,M,M,M,M,M,M,M,M,M,M,M,M,M,M,66.20,KBAM 190755Z AUTO 16004KT 10SM CLR 19/M01 A3007 RMK AO1,M
CXP,2025-07-19 07:55,-119.7326,39.1923,1431.00,62.60,33.80,33.93,0.00,0.00,0.00,30.17,M,10.00,M,CLR,M,M,M,M,M,M,M,M,M,M,M,M,M,M,62.60,KCXP 190755Z AUTO 00000KT 10SM CLR 17/01 A3017 RMK AO2,M
RTS,2025-07-19 07:55,-119.8764,39.6682,1539.00,64.40,30.20,27.55,320.00,6.00,0.00,30.18,M,10.00,M,CLR,M,M,M,M,M,M,M,M,M,M,M,M,M,M,64.40,KRTS 190755Z AUTO 32006KT 10SM CLR 18/M01 A3018 RMK AO2,M
05U,2025-07-19 07:55,-116.0051,39.6042,1811.23,53.60,39.20,58.02,0.00,0.00,0.00,30.21,M,10.00,M,CLR,M,M,M,M,M,M,M,M,M,M,M,M,M,M,53.60,K05U 190755Z AUTO 00000KT 10SM CLR 12/04 A3021 RMK A01,M
MEV,2025-07-19 07:55,-119.7500,38.9963,1441.42,57.20,33.80,41.12,120.00,6.00,0.00,30.16,M,10.00,M,CLR,M,M,M,M,M,M,M,M,M,M,M,M,M,M,57.20,KMEV 190755Z AUTO 12006KT 10SM CLR 14/01 A3016 RMK AO2,M
HTH,2025-07-19 07:55,-118.6315,38.5448,1282.89,77.00,35.60,22.31,210.00,5.00,0.00,30.10,M,10.00,M,CLR,M,M,M,M,M,M,M,M,M,M,M,M,M,M,77.00,KHTH 190755Z AUTO 21005KT 10SM CLR 25/02 A3010 RMK A01,M
INS,2025-07-19 07:55,-115.6733,36.5872,955.00,83.70,48.00,28.93,230.00,5.00,0.00,30.00,1010.00,10.00,M,FEW,BKN,BKN,M,15000.00,17000.00,20000.00,M,M,M,M,M,M,M,M,81.66,KINS 190755Z AUTO 23005KT 10SM FEW150 BKN170 BKN200 29/09 A3000 RMK AO2 SLP100 T02870089 403340235 $,M
LSV,2025-07-19 07:55,-115.0343,36.2362,570.00,87.00,53.40,31.81,300.00,4.00,0.00,29.88,1008.70,10.00,M,CLR,M,M,M,M,M,M,M,M,M,M,M,M,M,M,85.00,KLSV 190755Z 30004KT 10SM CLR 31/12 A2988 RMK AO2A SLP087 T03050119 403790264 $,M
EKO,2025-07-19 07:56,-115.7860,40.8242,1367.00,68.00,39.00,34.54,40.00,3.00,0.00,30.09,1012.50,10.00,M,CLR,M,M,M,M,M,M,M,M,M,M,M,M,M,M,68.00,KEKO 190756Z AUTO 04003KT 10SM CLR 20/04 A3009 RMK AO2 SLP125 T02000039 403500117,M
HND,2025-07-19 07:56,-115.1344,35.9729,742.79,81.00,50.00,34.02,150.00,5.00,0.00,29.99,1014.00,10.00,M,CLR,M,M,M,M,M,M,M,M,M,M,M,M,M,M,80.12,KHND 190756Z AUTO 15005KT 10SM CLR 27/10 A2999 RMK AO2 SLP140 T02720100 $,M
TPH,2025-07-19 07:56,-117.0904,38.0505,1654.00,66.00,46.00,48.45,100.00,6.00,0.00,30.19,1013.90,10.00,M,CLR,M,M,M,M,M,M,M,M,M,M,M,M,M,M,66.00,KTPH 190756Z AUTO 10006KT 10SM CLR 19/08 A3019 RMK AO2 SLP139 T01890078 403220150 $,M
LAS,2025-07-19 07:56,-115.1634,36.0719,663.00,86.00,50.00,28.97,220.00,4.00,0.00,29.95,1011.20,10.00,M,FEW,M,M,M,20000.00,M,M,M,M,M,M,M,M,M,M,83.62,KLAS 190756Z 22004KT 10SM FEW200 30/10 A2995 RMK AO2 SLP112 T03000100 403720261,M
NFL,2025-07-19 07:57,-118.7010,39.4166,1199.00,75.00,36.00,24.22,140.00,4.00,0.00,30.06,1014.70,10.00,M,CLR,M,M,M,M,M,M,M,M,M,M,M,M,M,M,75.00,KNFL 190757Z AUTO 14004KT 10SM CLR 24/02 A3006 RMK AO2 SLP147 T02390022 403720144,M
TMT,2025-07-19 08:10,-117.1971,39.4643,1749.34,50.00,21.00,31.58,0.00,0.00,0.00,30.19,M,10.00,M,CLR,M,M,M,M,M,M,M,M,M,M,M,M,M,M,50.00,KTMT 190810Z AUTO 00000KT 10SM CLR 10/M06 A3019 RMK AO2 T00991061,M
BVU,2025-07-19 08:15,-114.8611,35.9475,671.00,80.60,51.80,36.84,0.00,0.00,0.00,29.93,M,10.00,M,CLR,M,M,M,M,M,M,M,M,M,M,M,M,M,M,80.08,KBVU 190815Z AUTO 00000KT 10SM CLR 27/11 A2993 RMK AO2,M
BAM,2025-07-19 08:15,-116.8743,40.5990,1382.36,64.40,30.20,27.55,220.00,3.00,0.00,30.07,M,10.00,M,CLR,M,M,M,M,M,M,M,M,M,M,M,M,M,M,64.40,KBAM 190815Z AUTO 22003KT 10SM CLR 18/M01 A3007 RMK AO1,M
CXP,2025-07-19 08:15,-119.7326,39.1923,1431.00,62.60,33.80,33.93,0.00,0.00,0.00,30.17,M,10.00,M,CLR,M,M,M,M,M,M,M,M,M,M,M,M,M,M,62.60,KCXP 190815Z AUTO 00000KT 10SM CLR 17/01 A3017 RMK AO2,M
RTS,2025-07-19 08:15,-119.8764,39.6682,1539.00,64.40,30.20,27.55,360.00,4.00,0.00,30.19,M,10.00,M,CLR,M,M,M,M,M,M,M,M,M,M,M,M,M,M,64.40,KRTS 190815Z AUTO 36004KT 10SM CLR 18/M01 A3019 RMK AO2,M
05U,2025-07-19 08:15,-116.0051,39.6042,1811.23,53.60,41.00,62.22,0.00,0.00,0.00,30.21,M,10.00,M,CLR,M,M,M,M,M,M,M,M,M,M,M,M,M,M,53.60,K05U 190815Z AUTO 00000KT 10SM CLR 12/05 A3021 RMK A01,M
MEV,2025-07-19 08:15,-119.7500,38.9963,1441.42,57.20,35.60,44.18,120.00,3.00,0.00,30.16,M,10.00,M,CLR,M,M,M,M,M,M,M,M,M,M,M,M,M,M,57.20,KMEV 190815Z AUTO 12003KT 10SM CLR 14/02 A3016 RMK AO2,M
HTH,2025-07-19 08:15,-118.6315,38.5448,1282.89,75.20,32.00,20.50,230.00,4.00,0.00,30.10,M,10.00,M,CLR,M,M,M,M,M,M,M,M,M,M,M,M,M,M,75.20,KHTH 190815Z AUTO 23004KT 10SM CLR 24/00 A3010 RMK A01,M
RTS,2025-07-19 08:25,-119.8764,39.6682,1539.00,64.40,30.20,27.55,330.00,5.00,0.00,30.19,M,10.00,M,CLR,M,M,M,M,M,M,M,M,M,M,M,M,M,M,64.40,KRTS 190825Z AUTO 33005KT 10SM CLR 18/M01 A3019 RMK AO2,M
MEV,2025-07-19 08:25,-119.7500,38.9963,1441.42,57.20,33.80,41.12,120.00,5.00,0.00,30.16,M,10.00,M,CLR,M,M,M,M,M,M,M,M,M,M,M,M,M,M,57.20,KMEV 190825Z AUTO 12005KT 10SM CLR 14/01 A3016 RMK AO2,M
TMT,2025-07-19 08:30,-117.1971,39.4643,1749.34,46.00,19.20,33.98,150.00,3.00,0.00,30.19,M,10.00,M,CLR,M,M,M,M,M,M,M,M,M,M,M,M,M,M,44.69,KTMT 190830Z AUTO 15003KT 10SM CLR 08/M07 A3019 RMK AO2 T00771071,M
BVU,2025-07-19 08:35,-114.8611,35.9475,671.00,82.40,48.20,30.40,0.00,0.00,0.00,29.93,M,10.00,M,CLR,M,M,M,M,M,M,M,M,M,M,M,M,M,M,80.81,KBVU 190835Z AUTO 00000KT 10SM CLR 28/09 A2993 RMK AO2,M
BAM,2025-07-19 08:35,-116.8743,40.5990,1382.36,64.40,30.20,27.55,200.00,3.00,0.00,30.07,M,10.00,M,CLR,M,M,M,M,M,M,M,M,M,M,M,M,M,M,64.40,KBAM 190835Z AUTO 20003KT 10SM CLR 18/M01 A3007 RMK AO1,M
CXP,2025-07-19 08:35,-119.7326,39.1923,1431.00,60.80,33.80,36.16,0.00,0.00,0.00,30.17,M,10.00,M,CLR,M,M,M,M,M,M,M,M,M,M,M,M,M,M,60.80,KCXP 190835Z AUTO 00000KT 10SM CLR 16/01 A3017 RMK AO2,M
05U,2025-07-19 08:35,-116.0051,39.6042,1811.23,59.00,42.80,54.86,0.00,0.00,0.00,30.21,M,10.00,M,CLR,M,M,M,M,M,M,M,M,M,M,M,M,M,M,59.00,K05U 190835Z AUTO 00000KT 10SM CLR 15/06 A3021 RMK A01,M
HTH,2025-07-19 08:35,-118.6315,38.5448,1282.89,75.20,33.80,22.04,270.00,8.00,0.00,30.10,M,10.00,M,CLR,M,M,M,M,M,M,M,M,M,M,M,M,M,M,75.20,KHTH 190835Z AUTO 27008KT 10SM CLR 24/01 A3010 RMK A01,M
TMT,2025-07-19 08:50,-117.1971,39.4643,1749.34,46.40,19.40,33.76,0.00,0.00,0.00,30.19,M,10.00,M,CLR,M,M,M,M,M,M,M,M,M,M,M,M,M,M,46.40,KTMT 190850Z AUTO 00000KT 10SM CLR 08/M07 A3019 RMK AO2 T00801070,M
P68,2025-07-19 08:53,-116.0056,39.6014,1993.00,59.00,40.00,49.24,210.00,7.00,0.00,30.18,1014.00,M,M,M,M,M,M,M,M,M,M,M,M,M,M,M,M,M,59.00,KP68 190853Z AUTO 21007KT 15/04 A3018 RMK AO1 SLP140 T01500044 50003,M
DRA,2025-07-19 08:53,-116.0278,36.6206,1009.00,78.00,48.00,34.83,60.00,4.00,0.00,30.01,1011.00,10.00,M,CLR,M,M,M,M,M,M,M,M,M,M,M,M,M,M,78.00,KDRA 190853Z AUTO 06004KT 10SM CLR 26/09 A3001 RMK AO2 SLP110 T02560089 58004,M
ELY,2025-07-19 08:53,-114.8453,39.2950,1909.00,48.00,45.00,89.28,160.00,8.00,0.00,30.24,1015.80,10.00,M,CLR,M,M,M,M,M,M,M,M,M,M,M,M,M,M,43.82,KELY 190853Z AUTO 16008KT 10SM CLR 09/07 A3024 RMK AO2 SLP158 T00890072 58004,M
VGT,2025-07-19 08:53,-115.1933,36.2111,667.00,85.00,54.00,34.66,240.00,3.00,0.00,29.93,1012.70,10.00,M,CLR,M,M,M,M,M,M,M,M,M,M,M,M,M,M,83.46,KVGT 190853Z AUTO 24003KT 10SM CLR 29/12 A2993 RMK AO2 SLP127 T02940122 58003,M
LOL,2025-07-19 08:53,-118.5701,40.0684,1192.43,78.00,33.00,19.45,70.00,5.00,0.00,30.04,1012.00,10.00,M,CLR,M,M,M,M,M,M,M,M,M,M,M,M,M,M,78.00,KLOL 190853Z AUTO 07005KT 10SM CLR 26/01 A3004 RMK AO2 SLP120 T02560006 51009,M
BVU,2025-07-19 08:55,-114.8611,35.9475,671.00,80.60,51.80,36.84,0.00,0.00,0.00,29.93,M,10.00,M,CLR,M,M,M,M,M,M,M,M,M,M,M,M,M,M,80.08,KBVU 190855Z AUTO 00000KT 10SM CLR 27/11 A2993 RMK AO2,M
RNO,2025-07-19 08:55,-119.7711,39.4839,1341.00,70.00,34.00,26.47,0.00,0.00,0.00,30.15,1014.50,10.00,M,CLR,M,M,M,M,M,M,M,M,M,M,M,M,M,M,70.00,KRNO 190855Z 00000KT 10SM CLR 21/01 A3015 RMK AO2 SLP145 T02110011 51008,M
BAM,2025-07-19 08:55,-116.8743,40.5990,1382.36,62.60,32.00,31.56,0.00,0.00,0.00,30.07,M,10.00,M,CLR,M,M,M,M,M,M,M,M,M,M,M,M,M,M,62.60,KBAM 190855Z AUTO 00000KT 10SM CLR 17/00 A3007 RMK AO1,M
CXP,2025-07-19 08:55,-119.7326,39.1923,1431.00,60.80,35.60,38.85,0.00,0.00,0.00,30.18,M,10.00,M,CLR,M,M,M,M,M,M,M,M,M,M,M,M,M,M,60.80,KCXP 190855Z AUTO 00000KT 10SM CLR 16/02 A3018 RMK AO2,M
RTS,2025-07-19 08:55,-119.8764,39.6682,1539.00,60.80,28.40,29.05,320.00,7.00,0.00,30.19,M,10.00,M,CLR,M,M,M,M,M,M,M,M,M,M,M,M,M,M,60.80,KRTS 190855Z AUTO 32007KT 10SM CLR 16/M02 A3019 RMK AO2,M
05U,2025-07-19 08:55,-116.0051,39.6042,1811.23,57.20,41.00,54.60,0.00,0.00,0.00,30.21,M,10.00,M,CLR,M,M,M,M,M,M,M,M,M,M,M,M,M,M,57.20,K05U 190855Z AUTO 00000KT 10SM CLR 14/05 A3021 RMK A01,M
MEV,2025-07-19 08:55,-119.7500,38.9963,1441.42,53.60,35.60,50.35,100.00,7.00,0.00,30.16,M,10.00,M,CLR,M,M,M,M,M,M,M,M,M,M,M,M,M,M,53.60,KMEV 190855Z AUTO 10007KT 10SM CLR 12/02 A3016 RMK AO2,M
HTH,2025-07-19 08:55,-118.6315,38.5448,1282.89,75.20,33.80,22.04,270.00,5.00,0.00,30.10,M,10.00,M,CLR,M,M,M,M,M,M,M,M,M,M,M,M,M,M,75.20,KHTH 190855Z AUTO 27005KT 10SM CLR 24/01 A3010 RMK A01,M
INS,2025-07-19 08:55,-115.6733,36.5872,955.00,80.60,46.20,29.89,300.00,4.00,0.00,30.00,1010.20,10.00,M,OVC,M,M,M,17000.00,M,M,M,M,M,M,M,M,M,M,79.55,KINS 190855Z AUTO 30004KT 10SM OVC170 27/08 A3000 RMK AO2 SLP102 T02700079 58005 $,M
LSV,2025-07-19 08:55,-115.0343,36.2362,570.00,85.30,53.80,34.08,280.00,3.00,0.00,29.88,1008.70,10.00,M,FEW,M,M,M,20000.00,M,M,M,M,M,M,M,M,M,M,83.66,KLSV 190855Z 28003KT 10SM FEW200 30/12 A2988 RMK AO2A SLP087 T02960121 57004 $,M
EKO,2025-07-19 08:56,-115.7860,40.8242,1367.00,66.00,39.00,37.01,0.00,0.00,0.00,30.09,1012.70,10.00,M,CLR,M,M,M,M,M,M,M,M,M,M,M,M,M,M,66.00,KEKO 190856Z AUTO 00000KT 10SM CLR 19/04 A3009 RMK AO2 SLP127 T01890039 51007,M
HND,2025-07-19 08:56,-115.1344,35.9729,742.79,81.00,49.00,32.78,200.00,6.00,0.00,29.98,1013.80,10.00,M,CLR,M,M,M,M,M,M,M,M,M,M,M,M,M,M,80.02,KHND 190856Z AUTO 20006KT 10SM CLR 27/09 A2998 RMK AO2 SLP138 T02720094 58004 $,M
TPH,2025-07-19 08:56,-117.0904,38.0505,1654.00,63.00,44.00,49.85,0.00,0.00,0.00,30.19,1014.10,10.00,M,CLR,M,M,M,M,M,M,M,M,M,M,M,M,M,M,63.00,KTPH 190856Z AUTO 00000KT 10SM CLR 17/07 A3019 RMK AO2 SLP141 T01720067 51007 $,M
LAS,2025-07-19 08:56,-115.1634,36.0719,663.00,85.00,49.00,28.81,200.00,4.00,0.00,29.95,1011.30,10.00,M,FEW,M,M,M,20000.00,M,M,M,M,M,M,M,M,M,M,82.72,KLAS 190856Z 20004KT 10SM FEW200 29/09 A2995 RMK AO2 SLP113 T02940094 58001,M
NFL,2025-07-19 08:57,-118.7010,39.4166,1199.00,72.00,35.00,25.74,190.00,5.00,0.00,30.07,1014.90,10.00,M,CLR,M,M,M,M,M,M,M,M,M,M,M,M,M,M,72.00,KNFL 190857Z AUTO 19005KT 10SM CLR 22/02 A3007 RMK AO2 SLP149 T02220017 51012,M
TMT,2025-07-19 09:10,-117.1971,39.4643,1749.34,47.00,21.20,35.64,0.00,0.00,0.00,30.20,M,10.00,M,CLR,M,M,M,M,M,M,M,M,M,M,M,M,M,M,47.00,KTMT 190910Z AUTO 00000KT 10SM CLR 08/M06 A3020 RMK AO2 T00831060,M
BVU,2025-07-19 09:15,-114.8611,35.9475,671.00,80.60,50.00,34.47,0.00,0.00,0.00,29.93,M,10.00,M,CLR,M,M,M,M,M,M,M,M,M,M,M,M,M,M,79.89,KBVU 190915Z AUTO 00000KT 10SM CLR 27/10 A2993 RMK AO2,M
BAM,2025-07-19 09:15,-116.8743,40.5990,1382.36,62.60,32.00,31.56,200.00,5.00,0.00,30.08,M,10.00,M,CLR,M,M,M,M,M,M,M,M,M,M,M,M,M,M,62.60,KBAM 190915Z AUTO 20005KT 10SM CLR 17/00 A3008 RMK AO1,M
CXP,2025-07-19 09:15,-119.7326,39.1923,1431.00,59.00,35.60,41.42,0.00,0.00,0.00,30.18,M,10.00,M,CLR,M,M,M,M,M,M,M,M,M,M,M,M,M,M,59.00,KCXP 190915Z AUTO 00000KT 10SM CLR 15/02 A3018 RMK AO2,M
RTS,2025-07-19 09:15,-119.8764,39.6682,1539.00,59.00,28.40,30.98,340.00,8.00,0.00,30.19,M,10.00,M,CLR,M,M,M,M,M,M,M,M,M,M,M,M,M,M,59.00,KRTS 190915Z AUTO 34008KT 10SM CLR 15/M02 A3019 RMK AO2,M
05U,2025-07-19 09:15,-116.0051,39.6042,1811.23,59.00,41.00,51.18,0.00,0.00,0.00,30.21,M,10.00,M,CLR,M,M,M,M,M,M,M,M,M,M,M,M,M,M,59.00,K05U 190915Z AUTO 00000KT 10SM CLR 15/05 A3021 RMK A01,M
MEV,2025-07-19 09:15,-119.7500,38.9963,1441.42,53.60,35.60,50.35,0.00,0.00,0.00,30.16,M,10.00,M,FEW,M,M,M,4800.00,M,M,M,M,M,M,M,M,M,M,53.60,KMEV 190915Z AUTO 00000KT 10SM FEW048 12/02 A3016 RMK AO2,M
HTH,2025-07-19 09:15,-118.6315,38.5448,1282.89,75.20,33.80,22.04,280.00,4.00,0.00,30.10,M,10.00,M,CLR,M,M,M,M,M,M,M,M,M,M,M,M,M,M,75.20,KHTH 190915Z AUTO 28004KT 10SM CLR 24/01 A3010 RMK A01,M
TMT,2025-07-19 09:30,-117.1971,39.4643,1749.34,46.20,19.80,34.60,0.00,0.00,0.00,30.20,M,10.00,M,CLR,M,M,M,M,M,M,M,M,M,M,M,M,M,M,46.20,KTMT 190930Z AUTO 00000KT 10SM CLR 08/M07 A3020 RMK AO2 T00791068,M
BVU,2025-07-19 09:35,-114.8611,35.9475,671.00,80.60,48.20,32.23,0.00,0.00,0.00,29.93,M,10.00,M,CLR,M,M,M,M,M,M,M,M,M,M,M,M,M,M,79.72,KBVU 190935Z AUTO 00000KT 10SM CLR 27/09 A2993 RMK AO2,M
BAM,2025-07-19 09:35,-116.8743,40.5990,1382.36,60.80,30.20,31.27,220.00,4.00,0.00,30.08,M,10.00,M,CLR,M,M,M,M,M,M,M,M,M,M,M,M,M,M,60.80,KBAM 190935Z AUTO 22004KT 10SM CLR 16/M01 A3008 RMK AO1,M
CXP,2025-07-19 09:35,-119.7326,39.1923,1431.00,59.00,37.40,44.47,0.00,0.00,0.00,30.18,M,10.00,M,CLR,M,M,M,M,M,M,M,M,M,M,M,M,M,M,59.00,KCXP 190935Z AUTO 00000KT 10SM CLR 15/03 A3018 RMK AO2,M
RTS,2025-07-19 09:35,-119.8764,39.6682,1539.00,59.00,30.20,33.34,360.00,7.00,0.00,30.20,M,10.00,M,CLR,M,M,M,M,M,M,M,M,M,M,M,M,M,M,59.00,KRTS 190935Z AUTO 36007KT 10SM CLR 15/M01 A3020 RMK AO2,M
05U,2025-07-19 09:35,-116.0051,39.6042,1811.23,57.20,41.00,54.60,0.00,0.00,0.00,30.21,M,10.00,M,CLR,M,M,M,M,M,M,M,M,M,M,M,M,M,M,57.20,K05U 190935Z AUTO 00000KT 10SM CLR 14/05 A3021 RMK A01,M
MEV,2025-07-19 09:35,-119.7500,38.9963,1441.42,55.40,35.60,47.15,0.00,0.00,0.00,30.17,M,10.00,M,CLR,M,M,M,M,M,M,M,M,M,M,M,M,M,M,55.40,KMEV 190935Z AUTO 00000KT 10SM CLR 13/02 A3017 RMK AO2,M
HTH,2025-07-19 09:35,-118.6315,38.5448,1282.89,75.20,32.00,20.50,250.00,4.00,0.00,30.10,M,10.00,M,CLR,M,M,M,M,M,M,M,M,M,M,M,M,M,M,75.20,KHTH 190935Z AUTO 25004KT 10SM CLR 24/M00 A3010 RMK A01,M
RTS,2025-07-19 09:45,-119.8764,39.6682,1539.00,59.00,30.20,33.34,350.00,7.00,0.00,30.20,M,10.00,M,CLR,M,M,M,M,M,M,M,M,M,M,M,M,M,M,59.00,KRTS 190945Z AUTO 35007KT 10SM CLR 15/M01 A3020 RMK AO2,M
MEV,2025-07-19 09:45,-119.7500,38.9963,1441.42,53.60,35.60,50.35,0.00,0.00,0.00,30.17,M,10.00,M,CLR,M,M,M,M,M,M,M,M,M,M,M,M,M,M,53.60,KMEV 190945Z AUTO 00000KT 10SM CLR 12/02 A3017 RMK AO2,M
TMT,2025-07-19 09:50,-117.1971,39.4643,1749.34,49.50,20.30,31.23,210.00,5.00,0.00,30.20,M,10.00,M,CLR,M,M,M,M,M,M,M,M,M,M,M,M,M,M,47.18,KTMT 190950Z AUTO 21005KT 10SM CLR 10/M06 A3020 RMK AO2 T00971065,M
P68,2025-07-19 09:53,-116.0056,39.6014,1993.00,56.00,40.00,54.85,200.00,8.00,0.00,30.19,1015.70,M,M,M,M,M,M,M,M,M,M,M,M,M,M,M,M,M,56.00,KP68 190953Z AUTO 20008KT 13/04 A3019 RMK AO1 SLP157 T01330044,M
DRA,2025-07-19 09:53,-116.0278,36.6206,1009.00,78.00,48.00,34.83,0.00,0.00,0.00,30.02,1011.40,10.00,M,CLR,M,M,M,M,M,M,M,M,M,M,M,M,M,M,78.00,KDRA 190953Z AUTO 00000KT 10SM CLR 26/09 A3002 RMK AO2 SLP114 T02560089,M
ELY,2025-07-19 09:53,-114.8453,39.2950,1909.00,49.00,45.00,86.00,170.00,6.00,0.00,30.24,1014.80,10.00,M,CLR,M,M,M,M,M,M,M,M,M,M,M,M,M,M,46.00,KELY 190953Z AUTO 17006KT 10SM CLR 09/07 A3024 RMK AO2 SLP148 T00940072,M
VGT,2025-07-19 09:53,-115.1933,36.2111,667.00,82.00,52.00,35.47,330.00,4.00,0.00,29.93,1012.60,10.00,M,CLR,M,M,M,M,M,M,M,M,M,M,M,M,M,M,80.97,KVGT 190953Z AUTO 33004KT 10SM CLR 28/11 A2993 RMK AO2 SLP126 T02780111,M
LOL,2025-07-19 09:53,-118.5701,40.0684,1192.43,66.00,32.00,28.03,M,3.00,0.00,30.05,1012.70,10.00,M,CLR,M,M,M,M,M,M,M,M,M,M,M,M,M,M,66.00,KLOL 190953Z AUTO VRB03KT 10SM CLR 19/00 A3005 RMK AO2 SLP127 T01890000,M
05U,2025-07-19 09:55,-116.0051,39.6042,1811.23,55.40,41.00,58.27,0.00,0.00,0.00,30.22,M,10.00,M,CLR,M,M,M,M,M,M,M,M,M,M,M,M,M,M,55.40,K05U 190955Z AUTO 00000KT 10SM CLR 13/05 A3022 RMK A01,M
HTH,2025-07-19 09:55,-118.6315,38.5448,1282.89,71.60,32.00,23.14,0.00,0.00,0.00,30.11,M,10.00,M,CLR,M,M,M,M,M,M,M,M,M,M,M,M,M,M,71.60,KHTH 190955Z AUTO 00000KT 10SM CLR 22/M00 A3011 RMK A01,M
BVU,2025-07-19 09:55,-114.8611,35.9475,671.00,80.60,48.20,32.23,320.00,4.00,0.00,29.93,M,10.00,M,CLR,M,M,M,M,M,M,M,M,M,M,M,M,M,M,79.72,KBVU 190955Z AUTO 32004KT 10SM CLR 27/09 A2993 RMK AO2,M
RNO,2025-07-19 09:55,-119.7711,39.4839,1341.00,69.00,34.00,27.39,260.00,4.00,0.00,30.15,1014.60,10.00,M,CLR,M,M,M,M,M,M,M,M,M,M,M,M,M,M,69.00,KRNO 190955Z 26004KT 10SM CLR 21/01 A3015 RMK AO2 SLP146 T02060011,M
BAM,2025-07-19 09:55,-116.8743,40.5990,1382.36,60.80,30.20,31.27,0.00,0.00,0.00,30.08,M,10.00,M,CLR,M,M,M,M,M,M,M,M,M,M,M,M,M,M,60.80,KBAM 190955Z AUTO 00000KT 10SM CLR 16/M01 A3008 RMK AO1,M
CXP,2025-07-19 09:55,-119.7326,39.1923,1431.00,59.00,33.80,38.55,330.00,5.00,0.00,30.18,M,10.00,M,CLR,M,M,M,M,M,M,M,M,M,M,M,M,M,M,59.00,KCXP 190955Z AUTO 33005KT 10SM CLR 15/01 A3018 RMK AO2,M
INS,2025-07-19 09:55,-115.6733,36.5872,955.00,82.00,47.30,29.77,220.00,3.00,0.00,30.01,1010.20,10.00,M,BKN,OVC,M,M,17000.00,19000.00,M,M,M,M,M,M,M,M,M,80.47,KINS 190955Z AUTO 22003KT 10SM BKN170 OVC190 28/09 A3001 RMK AO2 SLP102 T02770085 $,M
LSV,2025-07-19 09:55,-115.0343,36.2362,570.00,84.40,53.00,34.06,0.00,0.00,0.00,29.88,1008.80,10.00,M,CLR,M,M,M,M,M,M,M,M,M,M,M,M,M,M,82.82,KLSV 190955Z 00000KT 10SM CLR 29/12 A2988 RMK AO2A SLP088 T02910116 $,M
EKO,2025-07-19 09:56,-115.7860,40.8242,1367.00,60.00,41.00,49.39,0.00,0.00,0.00,30.10,1012.90,10.00,M,CLR,M,M,M,M,M,M,M,M,M,M,M,M,M,M,60.00,KEKO 190956Z AUTO 00000KT 10SM CLR 16/05 A3010 RMK AO2 SLP129 T01560050,M
HND,2025-07-19 09:56,-115.1344,35.9729,742.79,80.00,50.00,35.15,210.00,7.00,0.00,29.98,1013.80,10.00,M,CLR,M,M,M,M,M,M,M,M,M,M,M,M,M,M,79.55,KHND 190956Z AUTO 21007KT 10SM CLR 27/10 A2998 RMK AO2 SLP138 T02670100 $,M
TPH,2025-07-19 09:56,-117.0904,38.0505,1654.00,61.00,42.00,49.55,330.00,4.00,0.00,30.19,1014.30,10.00,M,CLR,M,M,M,M,M,M,M,M,M,M,M,M,M,M,61.00,KTPH 190956Z AUTO 33004KT 10SM CLR 16/06 A3019 RMK AO2 SLP143 T01610056 $,M
LAS,2025-07-19 09:56,-115.1634,36.0719,663.00,83.00,49.00,30.72,200.00,5.00,0.00,29.95,1011.30,10.00,M,FEW,M,M,M,20000.00,M,M,M,M,M,M,M,M,M,M,81.28,KLAS 190956Z 20005KT 10SM FEW200 28/09 A2995 RMK AO2 SLP113 T02830094,M
NFL,2025-07-19 09:57,-118.7010,39.4166,1199.00,68.00,36.00,30.70,230.00,7.00,0.00,30.07,1015.00,10.00,M,CLR,M,M,M,M,M,M,M,M,M,M,M,M,M,M,68.00,KNFL 190957Z AUTO 23007KT 10SM CLR 20/02 A3007 RMK AO2 SLP150 T02000022,M
TMT,2025-07-19 10:10,-117.1971,39.4643,1749.34,47.00,19.20,32.72,180.00,4.00,0.00,30.20,M,10.00,M,CLR,M,M,M,M,M,M,M,M,M,M,M,M,M,M,44.94,KTMT 191010Z AUTO 18004KT 10SM CLR 08/M07 A3020 RMK AO2 T00831071,M
BAM,2025-07-19 10:15,-116.8743,40.5990,1382.36,60.80,30.20,31.27,140.00,6.00,0.00,30.09,M,10.00,M,CLR,M,M,M,M,M,M,M,M,M,M,M,M,M,M,60.80,KBAM 191015Z AUTO 14006KT 10SM CLR 16/M01 A3009 RMK AO1,M
CXP,2025-07-19 10:15,-119.7326,39.1923,1431.00,60.80,33.80,36.16,0.00,0.00,0.00,30.18,M,10.00,M,CLR,M,M,M,M,M,M,M,M,M,M,M,M,M,M,60.80,KCXP 191015Z AUTO 00000KT 10SM CLR 16/01 A3018 RMK AO2,M
05U,2025-07-19 10:15,-116.0051,39.6042,1811.23,55.40,41.00,58.27,0.00,0.00,0.00,30.22,M,10.00,M,CLR,M,M,M,M,M,M,M,M,M,M,M,M,M,M,55.40,K05U 191015Z AUTO 00000KT 10SM CLR 13/05 A3022 RMK A01,M
HTH,2025-07-19 10:15,-118.6315,38.5448,1282.89,75.20,32.00,20.50,0.00,0.00,0.00,30.10,M,10.00,M,CLR,M,M,M,M,M,M,M,M,M,M,M,M,M,M,75.20,KHTH 191015Z AUTO 00000KT 10SM CLR 24/M00 A3010 RMK A01,M
BVU,2025-07-19 10:15,-114.8611,35.9475,671.00,78.80,48.20,34.18,310.00,4.00,0.00,29.93,M,10.00,M,CLR,M,M,M,M,M,M,M,M,M,M,M,M,M,M,78.80,KBVU 191015Z AUTO 31004KT 10SM CLR 26/09 A2993 RMK AO2,M
TMT,2025-07-19 10:30,-117.1971,39.4643,1749.34,46.40,19.80,34.34,0.00,0.00,0.00,30.21,M,10.00,M,CLR,M,M,M,M,M,M,M,M,M,M,M,M,M,M,46.40,KTMT 191030Z AUTO 00000KT 10SM CLR 08/M07 A3021 RMK AO2 T00801068,M
BVU,2025-07-19 10:35,-114.8611,35.9475,671.00,80.60,48.20,32.23,300.00,3.00,0.00,29.93,M,10.00,M,CLR,M,M,M,M,M,M,M,M,M,M,M,M,M,M,79.72,KBVU 191035Z AUTO 30003KT 10SM CLR 27/09 A2993 RMK AO2,M
BAM,2025-07-19 10:35,-116.8743,40.5990,1382.36,62.60,30.20,29.34,150.00,6.00,0.00,30.09,M,10.00,M,CLR,M,M,M,M,M,M,M,M,M,M,M,M,M,M,62.60,KBAM 191035Z AUTO 15006KT 10SM CLR 17/M01 A3009 RMK AO1,M
CXP,2025-07-19 10:35,-119.7326,39.1923,1431.00,62.60,32.00,31.56,280.00,4.00,0.00,30.18,M,10.00,M,CLR,M,M,M,M,M,M,M,M,M,M,M,M,M,M,62.60,KCXP 191035Z AUTO 28004KT 10SM CLR 17/00 A3018 RMK AO2,M
RTS,2025-07-19 10:35,-119.8764,39.6682,1539.00,59.00,32.00,35.86,340.00,7.00,0.00,30.20,M,10.00,M,CLR,M,M,M,M,M,M,M,M,M,M,M,M,M,M,59.00,KRTS 191035Z AUTO 34007KT 10SM CLR 15/M00 A3020 RMK AO2,M
05U,2025-07-19 10:35,-116.0051,39.6042,1811.23,53.60,41.00,62.22,0.00,0.00,0.00,30.22,M,10.00,M,CLR,M,M,M,M,M,M,M,M,M,M,M,M,M,M,53.60,K05U 191035Z AUTO 00000KT 10SM CLR 12/05 A3022 RMK A01,M
MEV,2025-07-19 10:35,-119.7500,38.9963,1441.42,50.00,33.80,53.52,80.00,4.00,0.00,30.17,M,10.00,M,SCT,SCT,M,M,4400.00,5000.00,M,M,M,M,M,M,M,M,M,50.00,KMEV 191035Z AUTO 08004KT 10SM SCT044 SCT050 10/01 A3017 RMK AO2,M
HTH,2025-07-19 10:35,-118.6315,38.5448,1282.89,69.80,32.00,24.60,170.00,5.00,0.00,30.11,M,10.00,M,CLR,M,M,M,M,M,M,M,M,M,M,M,M,M,M,69.80,KHTH 191035Z AUTO 17005KT 10SM CLR 21/M00 A3011 RMK A01,M
TMT,2025-07-19 10:50,-117.1971,39.4643,1749.34,44.80,19.40,35.87,0.00,0.00,0.00,30.21,M,10.00,M,CLR,M,M,M,M,M,M,M,M,M,M,M,M,M,M,44.80,KTMT 191050Z AUTO 00000KT 10SM CLR 07/M07 A3021 RMK AO2 T00711070,M
P68,2025-07-19 10:53,-116.0056,39.6014,1993.00,54.00,41.00,61.32,210.00,9.00,0.00,30.19,1015.00,M,M,M,M,M,M,M,M,M,M,M,M,M,M,M,M,M,54.00,KP68 191053Z AUTO 21009KT 12/05 A3019 RMK AO1 SLP150 T01220050,M
DRA,2025-07-19 10:53,-116.0278,36.6206,1009.00,76.00,48.00,37.21,190.00,3.00,0.00,30.03,1011.50,10.00,M,CLR,M,M,M,M,M,M,M,M,M,M,M,M,M,M,76.00,KDRA 191053Z AUTO 19003KT 10SM CLR 24/09 A3003 RMK AO2 SLP115 T02440089,M
ELY,2025-07-19 10:53,-114.8453,39.2950,1909.00,49.00,45.00,86.00,180.00,12.00,0.00,30.24,1015.10,10.00,M,CLR,M,M,M,M,M,M,M,M,M,M,M,M,M,M,43.64,KELY 191053Z AUTO 18012KT 10SM CLR 09/07 A3024 RMK AO2 SLP151 T00940072,M
VGT,2025-07-19 10:53,-115.1933,36.2111,667.00,80.00,56.00,43.81,310.00,3.00,0.00,29.94,1012.90,10.00,M,CLR,M,M,M,M,M,M,M,M,M,M,M,M,M,M,80.25,KVGT 191053Z AUTO 31003KT 10SM CLR 27/13 A2994 RMK AO2 SLP129 T02670133,M
LOL,2025-07-19 10:53,-118.5701,40.0684,1192.43,62.00,34.00,34.93,0.00,0.00,0.00,30.06,1013.50,10.00,M,CLR,M,M,M,M,M,M,M,M,M,M,M,M,M,M,62.00,KLOL 191053Z AUTO 00000KT 10SM CLR 17/01 A3006 RMK AO2 SLP135 T01670011,M
BVU,2025-07-19 10:55,-114.8611,35.9475,671.00,78.80,48.20,34.18,290.00,3.00,0.00,29.93,M,10.00,M,CLR,M,M,M,M,M,M,M,M,M,M,M,M,M,M,78.80,KBVU 191055Z AUTO 29003KT 10SM CLR 26/09 A2993 RMK AO2,M
RNO,2025-07-19 10:55,-119.7711,39.4839,1341.00,67.00,35.00,30.53,260.00,6.00,0.00,30.15,1014.70,10.00,M,CLR,M,M,M,M,M,M,M,M,M,M,M,M,M,M,67.00,KRNO 191055Z 26006KT 10SM CLR 19/02 A3015 RMK AO2 SLP147 T01940017,M
BAM,2025-07-19 10:55,-116.8743,40.5990,1382.36,62.60,30.20,29.34,190.00,4.00,0.00,30.09,M,10.00,M,CLR,M,M,M,M,M,M,M,M,M,M,M,M,M,M,62.60,KBAM 191055Z AUTO 19004KT 10SM CLR 17/M01 A3009 RMK AO1,M
CXP,2025-07-19 10:55,-119.7326,39.1923,1431.00,59.00,33.80,38.55,0.00,0.00,0.00,30.18,M,10.00,M,CLR,M,M,M,M,M,M,M,M,M,M,M,M,M,M,59.00,KCXP 191055Z AUTO 00000KT 10SM CLR 15/01 A3018 RMK AO2,M
RTS,2025-07-19 10:55,-119.8764,39.6682,1539.00,55.40,30.20,37.96,340.00,6.00,0.00,30.20,M,10.00,M,CLR,M,M,M,M,M,M,M,M,M,M,M,M,M,M,55.40,KRTS 191055Z AUTO 34006KT 10SM CLR 13/M01 A3020 RMK AO2,M
05U,2025-07-19 10:55,-116.0051,39.6042,1811.23,53.60,41.00,62.22,210.00,4.00,0.00,30.22,M,10.00,M,CLR,M,M,M,M,M,M,M,M,M,M,M,M,M,M,53.60,K05U 191055Z AUTO 21004KT 10SM CLR 12/05 A3022 RMK A01,M
MEV,2025-07-19 10:55,-119.7500,38.9963,1441.42,50.00,37.40,61.75,100.00,6.00,0.00,30.17,M,10.00,M,OVC,M,M,M,4200.00,M,M,M,M,M,M,M,M,M,M,50.00,KMEV 191055Z AUTO 10006KT 10SM OVC042 10/03 A3017 RMK AO2,M
HTH,2025-07-19 10:55,-118.6315,38.5448,1282.89,71.60,32.00,23.14,0.00,0.00,0.00,30.11,M,10.00,M,CLR,M,M,M,M,M,M,M,M,M,M,M,M,M,M,71.60,KHTH 191055Z AUTO 00000KT 10SM CLR 22/00 A3011 RMK A01,M
INS,2025-07-19 10:55,-115.6733,36.5872,955.00,78.60,46.20,31.91,280.00,4.00,0.00,30.02,1010.90,10.00,M,FEW,M,M,M,20000.00,M,M,M,M,M,M,M,M,M,M,78.60,KINS 191055Z AUTO 28004KT 10SM FEW200 26/08 A3002 RMK AO2 SLP109 T02590079 $,M
LSV,2025-07-19 10:55,-115.0343,36.2362,570.00,80.60,51.80,36.84,60.00,3.00,0.00,29.89,1009.20,10.00,M,CLR,M,M,M,M,M,M,M,M,M,M,M,M,M,M,80.08,KLSV 191055Z AUTO 06003KT 10SM CLR 27/11 A2989 RMK AO2 SLP092 T02700110 $,M
EKO,2025-07-19 10:56,-115.7860,40.8242,1367.00,60.00,39.00,45.69,0.00,0.00,0.00,30.11,1013.30,10.00,M,CLR,M,M,M,M,M,M,M,M,M,M,M,M,M,M,60.00,KEKO 191056Z AUTO 00000KT 10SM CLR 16/04 A3011 RMK AO2 SLP133 T01560039,M
HND,2025-07-19 10:56,-115.1344,35.9729,742.79,80.00,50.00,35.15,200.00,6.00,0.00,29.98,1013.80,10.00,M,CLR,M,M,M,M,M,M,M,M,M,M,M,M,M,M,79.55,KHND 191056Z AUTO 20006KT 10SM CLR 27/10 A2998 RMK AO2 SLP138 T02670100 $,M
TPH,2025-07-19 10:56,-117.0904,38.0505,1654.00,61.00,43.00,51.49,350.00,6.00,0.00,30.19,1014.40,10.00,M,CLR,M,M,M,M,M,M,M,M,M,M,M,M,M,M,61.00,KTPH 191056Z AUTO 35006KT 10SM CLR 16/06 A3019 RMK AO2 SLP144 T01610061 $,M
LAS,2025-07-19 10:56,-115.1634,36.0719,663.00,83.00,49.00,30.72,0.00,0.00,0.00,29.95,1011.50,10.00,M,FEW,M,M,M,20000.00,M,M,M,M,M,M,M,M,M,M,81.28,KLAS 191056Z 00000KT 10SM FEW200 28/09 A2995 RMK AO2 SLP115 T02830094,M
NFL,2025-07-19 10:57,-118.7010,39.4166,1199.00,67.00,39.00,35.75,260.00,7.00,0.00,30.07,1015.00,10.00,M,CLR,M,M,M,M,M,M,M,M,M,M,M,M,M,M,67.00,KNFL 191057Z AUTO 26007KT 10SM CLR 19/04 A3007 RMK AO2 SLP150 T01940039,M
TMT,2025-07-19 11:10,-117.1971,39.4643,1749.34,49.00,21.60,33.62,210.00,4.00,0.00,30.21,M,10.00,M,CLR,M,M,M,M,M,M,M,M,M,M,M,M,M,M,47.27,KTMT 191110Z AUTO 21004KT 10SM CLR 09/M06 A3021 RMK AO2 T00941058,M
BVU,2025-07-19 11:15,-114.8611,35.9475,671.00,80.60,48.20,32.23,0.00,0.00,0.00,29.94,M,10.00,M,CLR,M,M,M,M,M,M,M,M,M,M,M,M,M,M,79.72,KBVU 191115Z AUTO 00000KT 10SM CLR 27/09 A2994 RMK AO2,M
BAM,2025-07-19 11:15,-116.8743,40.5990,1382.36,60.80,30.20,31.27,220.00,6.00,0.00,30.09,M,10.00,M,CLR,M,M,M,M,M,M,M,M,M,M,M,M,M,M,60.80,KBAM 191115Z AUTO 22006KT 10SM CLR 16/M01 A3009 RMK AO1,M
CXP,2025-07-19 11:15,-119.7326,39.1923,1431.00,57.20,35.60,44.18,0.00,0.00,0.00,30.19,M,10.00,M,CLR,M,M,M,M,M,M,M,M,M,M,M,M,M,M,57.20,KCXP 191115Z AUTO 00000KT 10SM CLR 14/02 A3019 RMK AO2,M
RTS,2025-07-19 11:15,-119.8764,39.6682,1539.00,57.20,30.20,35.56,330.00,9.00,0.00,30.19,M,10.00,M,CLR,M,M,M,M,M,M,M,M,M,M,M,M,M,M,57.20,KRTS 191115Z AUTO 33009KT 10SM CLR 14/M01 A3019 RMK AO2,M
05U,2025-07-19 11:15,-116.0051,39.6042,1811.23,53.60,41.00,62.22,190.00,7.00,0.00,30.22,M,10.00,M,CLR,M,M,M,M,M,M,M,M,M,M,M,M,M,M,53.60,K05U 191115Z AUTO 19007KT 10SM CLR 12/05 A3022 RMK A01,M
MEV,2025-07-19 11:15,-119.7500,38.9963,1441.42,48.20,33.80,57.25,0.00,0.00,0.00,30.17,M,10.00,M,OVC,M,M,M,4000.00,M,M,M,M,M,M,M,M,M,M,48.20,KMEV 191115Z AUTO 00000KT 10SM OVC040 09/01 A3017 RMK AO2,M
HTH,2025-07-19 11:15,-118.6315,38.5448,1282.89,69.80,32.00,24.60,0.00,0.00,0.00,30.11,M,10.00,M,CLR,M,M,M,M,M,M,M,M,M,M,M,M,M,M,69.80,KHTH 191115Z AUTO 00000KT 10SM CLR 21/00 A3011 RMK A01,M
TMT,2025-07-19 11:30,-117.1971,39.4643,1749.34,46.20,18.50,32.73,0.00,0.00,0.00,30.22,M,10.00,M,CLR,M,M,M,M,M,M,M,M,M,M,M,M,M,M,46.20,KTMT 191130Z AUTO 00000KT 10SM CLR 08/M07 A3022 RMK AO2 T00791075,M
BVU,2025-07-19 11:35,-114.8611,35.9475,671.00,77.00,51.80,41.46,0.00,0.00,0.00,29.94,M,10.00,M,CLR,M,M,M,M,M,M,M,M,M,M,M,M,M,M,77.00,KBVU 191135Z AUTO 00000KT 10SM CLR 25/11 A2994 RMK AO2,M
BAM,2025-07-19 11:35,-116.8743,40.5990,1382.36,59.00,30.20,33.34,240.00,3.00,0.00,30.10,M,10.00,M,CLR,M,M,M,M,M,M,M,M,M,M,M,M,M,M,59.00,KBAM 191135Z AUTO 24003KT 10SM CLR 15/M01 A3010 RMK AO1,M
CXP,2025-07-19 11:35,-119.7326,39.1923,1431.00,55.40,35.60,47.15,0.00,0.00,0.00,30.19,M,10.00,M,CLR,M,M,M,M,M,M,M,M,M,M,M,M,M,M,55.40,KCXP 191135Z AUTO 00000KT 10SM CLR 13/02 A3019 RMK AO2,M
RTS,2025-07-19 11:35,-119.8764,39.6682,1539.00,57.20,30.20,35.56,350.00,5.00,0.00,30.19,M,10.00,M,CLR,M,M,M,M,M,M,M,M,M,M,M,M,M,M,57.20,KRTS 191135Z AUTO 35005KT 10SM CLR 14/M01 A3019 RMK AO2,M
05U,2025-07-19 11:35,-116.0051,39.6042,1811.23,53.60,41.00,62.22,0.00,0.00,0.00,30.22,M,10.00,M,CLR,M,M,M,M,M,M,M,M,M,M,M,M,M,M,53.60,K05U 191135Z AUTO 00000KT 10SM CLR 12/05 A3022 RMK A01,M
MEV,2025-07-19 11:35,-119.7500,38.9963,1441.42,48.20,35.60,61.50,190.00,4.00,0.00,30.18,M,10.00,M,OVC,M,M,M,4100.00,M,M,M,M,M,M,M,M,M,M,46.34,KMEV 191135Z AUTO 19004KT 10SM OVC041 09/02 A3018 RMK AO2,M
HTH,2025-07-19 11:35,-118.6315,38.5448,1282.89,69.80,32.00,24.60,220.00,3.00,0.00,30.11,M,10.00,M,CLR,M,M,M,M,M,M,M,M,M,M,M,M,M,M,69.80,KHTH 191135Z AUTO 22003KT 10SM CLR 21/00 A3011 RMK A01,M
TMT,2025-07-19 11:50,-117.1971,39.4643,1749.34,45.00,18.30,33.96,0.00,0.00,0.00,30.22,M,10.00,M,CLR,M,M,M,M,M,M,M,M,M,M,M,M,M,M,45.00,KTMT 191150Z AUTO 00000KT 10SM CLR 07/M08 A3022 RMK AO2 T00731076,M
P68,2025-07-19 11:53,-116.0056,39.6014,1993.00,54.00,41.00,61.32,190.00,9.00,0.00,30.20,1014.70,M,M,M,M,M,M,M,M,M,M,M,M,M,M,M,M,M,54.00,KP68 191153Z AUTO 19009KT 12/05 A3020 RMK AO1 SLP147 70001 T01220050 10189 20106 52005,M
DRA,2025-07-19 11:53,-116.0278,36.6206,1009.00,74.00,47.00,38.31,100.00,4.00,0.00,30.03,1011.80,10.00,M,CLR,M,M,M,M,M,M,M,M,M,M,M,M,M,M,74.00,KDRA 191153Z AUTO 10004KT 10SM CLR 23/08 A3003 RMK AO2 SLP118 T02330083 10289 20233 53006,M
ELY,2025-07-19 11:53,-114.8453,39.2950,1909.00,46.00,43.00,89.19,170.00,8.00,0.00,30.25,1016.80,10.00,M,CLR,M,M,M,M,M,M,M,M,M,M,M,M,M,M,41.36,KELY 191153Z AUTO 17008KT 10SM CLR 08/06 A3025 RMK AO2 SLP168 T00780061 10144 20072 53001,M
VGT,2025-07-19 11:53,-115.1933,36.2111,667.00,79.00,55.00,43.65,320.00,5.00,0.00,29.96,1013.50,10.00,M,CLR,M,M,M,M,M,M,M,M,M,M,M,M,M,M,79.00,KVGT 191153Z AUTO 32005KT 10SM CLR 26/13 A2996 RMK AO2 SLP135 T02610128 10300 20261 53008,M
LOL,2025-07-19 11:53,-118.5701,40.0684,1192.43,64.00,36.00,35.26,0.00,0.00,0.00,30.07,1013.70,10.00,M,CLR,M,M,M,M,M,M,M,M,M,M,M,M,M,M,64.00,KLOL 191153Z AUTO 00000KT 10SM CLR 18/02 A3007 RMK AO2 SLP137 T01780022 10272 20167 53009,M
BVU,2025-07-19 11:55,-114.8611,35.9475,671.00,77.00,51.80,41.46,20.00,3.00,0.00,29.94,M,10.00,M,CLR,M,M,M,M,M,M,M,M,M,M,M,M,M,M,77.00,KBVU 191155Z AUTO 02003KT 10SM CLR 25/11 A2994 RMK AO2,M
RNO,2025-07-19 11:55,-119.7711,39.4839,1341.00,65.00,34.00,31.45,200.00,5.00,0.00,30.16,1014.90,10.00,M,CLR,M,M,M,M,M,M,M,M,M,M,M,M,M,M,65.00,KRNO 191155Z 20005KT 10SM CLR 18/01 A3016 RMK AO2 SLP149 T01830011 10250 20183 51003,M
BAM,2025-07-19 11:55,-116.8743,40.5990,1382.36,60.80,32.00,33.64,240.00,5.00,0.00,30.11,M,10.00,M,CLR,M,M,M,M,M,M,M,M,M,M,M,M,M,M,60.80,KBAM 191155Z AUTO 24005KT 10SM CLR 16/00 A3011 RMK AO1,M
CXP,2025-07-19 11:55,-119.7326,39.1923,1431.00,55.40,37.40,50.63,0.00,0.00,0.00,30.19,M,10.00,M,CLR,M,M,M,M,M,M,M,M,M,M,M,M,M,M,55.40,KCXP 191155Z AUTO 00000KT 10SM CLR 13/03 A3019 RMK AO2,M
RTS,2025-07-19 11:55,-119.8764,39.6682,1539.00,57.20,30.20,35.56,340.00,7.00,0.00,30.20,M,10.00,M,CLR,M,M,M,M,M,M,M,M,M,M,M,M,M,M,57.20,KRTS 191155Z AUTO 34007KT 10SM CLR 14/M01 A3020 RMK AO2,M
05U,2025-07-19 11:55,-116.0051,39.6042,1811.23,53.60,41.00,62.22,190.00,4.00,0.00,30.23,M,10.00,M,CLR,M,M,M,M,M,M,M,M,M,M,M,M,M,M,53.60,K05U 191155Z AUTO 19004KT 10SM CLR 12/05 A3023 RMK A01,M
MEV,2025-07-19 11:55,-119.7500,38.9963,1441.42,46.40,39.20,75.84,0.00,0.00,0.00,30.18,M,10.00,M,OVC,M,M,M,4200.00,M,M,M,M,M,M,M,M,M,M,46.40,KMEV 191155Z AUTO 00000KT 10SM OVC042 08/04 A3018 RMK AO2,M
HTH,2025-07-19 11:55,-118.6315,38.5448,1282.89,68.00,33.80,28.12,210.00,3.00,0.00,30.12,M,10.00,M,CLR,M,M,M,M,M,M,M,M,M,M,M,M,M,M,68.00,KHTH 191155Z AUTO 21003KT 10SM CLR 20/01 A3012 RMK A01,M
INS,2025-07-19 11:55,-115.6733,36.5872,955.00,77.40,46.80,33.96,250.00,6.00,0.00,30.03,1011.30,10.00,M,FEW,M,M,M,20000.00,M,M,M,M,M,M,M,M,M,M,77.40,KINS 191155Z AUTO 25006KT 10SM FEW200 25/08 A3003 RMK AO2 SLP113 T02520082 10295 20250 52008 $,M
LSV,2025-07-19 11:55,-115.0343,36.2362,570.00,80.20,51.60,37.05,50.00,3.00,0.00,29.92,1010.20,10.00,M,BKN,M,M,M,23000.00,M,M,M,M,M,M,M,M,M,M,79.83,KLSV 191155Z 05003KT 10SM BKN230 27/11 A2992 RMK AO2A SLP102 T02680109 10323 20261 53011 $,M
EKO,2025-07-19 11:56,-115.7860,40.8242,1367.00,55.00,40.00,56.87,0.00,0.00,0.00,30.12,1014.10,10.00,M,CLR,M,M,M,M,M,M,M,M,M,M,M,M,M,M,55.00,KEKO 191156Z AUTO 00000KT 10SM CLR 13/04 A3012 RMK AO2 SLP141 T01280044 10239 20122 53008,M
HND,2025-07-19 11:56,-115.1344,35.9729,742.79,80.00,51.00,36.48,200.00,9.00,0.00,30.00,1014.30,10.00,M,CLR,M,M,M,M,M,M,M,M,M,M,M,M,M,M,79.65,KHND 191156Z AUTO 20009KT 10SM CLR 27/11 A3000 RMK AO2 SLP143 T02670106 10289 20256 53005 $,M
TPH,2025-07-19 11:56,-117.0904,38.0505,1654.00,60.00,43.00,53.35,350.00,9.00,0.00,30.20,1014.90,10.00,M,CLR,M,M,M,M,M,M,M,M,M,M,M,M,M,M,60.00,KTPH 191156Z AUTO 35009KT 10SM CLR 16/06 A3020 RMK AO2 SLP149 T01560061 10222 20150 53003 $,M
LAS,2025-07-19 11:56,-115.1634,36.0719,663.00,82.00,50.00,32.94,0.00,0.00,0.00,29.97,1012.00,10.00,M,SCT,M,M,M,20000.00,M,M,M,M,M,M,M,M,M,M,80.73,KLAS 191156Z 00000KT 10SM SCT200 28/10 A2997 RMK AO2 SLP120 T02780100 10322 20278 53006,M
NFL,2025-07-19 11:57,-118.7010,39.4166,1199.00,64.00,38.00,38.16,170.00,3.00,0.00,30.08,1015.40,10.00,M,CLR,M,M,M,M,M,M,M,M,M,M,M,M,M,M,64.00,KNFL 191157Z AUTO 17003KT 10SM CLR 18/03 A3008 RMK AO2 SLP154 T01780033 10261 20172 53005,M
MEV,2025-07-19 12:05,-119.7500,38.9963,1441.42,48.20,37.40,66.04,0.00,0.00,0.00,30.18,M,10.00,M,OVC,M,M,M,4300.00,M,M,M,M,M,M,M,M,M,M,48.20,KMEV 191205Z AUTO 00000KT 10SM OVC043 09/03 A3018 RMK AO2,M
RTS,2025-07-19 12:05,-119.8764,39.6682,1539.00,55.40,30.20,37.96,350.00,6.00,0.00,30.20,M,10.00,M,CLR,M,M,M,M,M,M,M,M,M,M,M,M,M,M,55.40,KRTS 191205Z AUTO 35006KT 10SM CLR 13/M01 A3020 RMK AO2,M
TMT,2025-07-19 12:10,-117.1971,39.4643,1749.34,42.30,17.00,35.60,0.00,0.00,0.00,30.22,M,10.00,M,CLR,M,M,M,M,M,M,M,M,M,M,M,M,M,M,42.30,KTMT 191210Z AUTO 00000KT 10SM CLR 06/M08 A3022 RMK AO2 T00571083,M
BVU,2025-07-19 12:15,-114.8611,35.9475,671.00,77.00,53.60,44.30,0.00,0.00,0.00,29.95,M,10.00,M,CLR,M,M,M,M,M,M,M,M,M,M,M,M,M,M,77.00,KBVU 191215Z AUTO 00000KT 10SM CLR 25/12 A2995 RMK AO2,M
BAM,2025-07-19 12:15,-116.8743,40.5990,1382.36,59.00,30.20,33.34,0.00,0.00,0.00,30.12,M,10.00,M,CLR,M,M,M,M,M,M,M,M,M,M,M,M,M,M,59.00,KBAM 191215Z AUTO 00000KT 10SM CLR 15/M01 A3012 RMK AO1,M
CXP,2025-07-19 12:15,-119.7326,39.1923,1431.00,55.40,35.60,47.15,0.00,0.00,0.00,30.20,M,10.00,M,CLR,M,M,M,M,M,M,M,M,M,M,M,M,M,M,55.40,KCXP 191215Z AUTO 00000KT 10SM CLR 13/02 A3020 RMK AO2,M
05U,2025-07-19 12:15,-116.0051,39.6042,1811.23,53.60,41.00,62.22,180.00,5.00,0.00,30.23,M,10.00,M,CLR,M,M,M,M,M,M,M,M,M,M,M,M,M,M,53.60,K05U 191215Z AUTO 18005KT 10SM CLR 12/05 A3023 RMK A01,M
HTH,2025-07-19 12:15,-118.6315,38.5448,1282.89,68.00,33.80,28.12,160.00,4.00,0.00,30.13,M,10.00,M,CLR,M,M,M,M,M,M,M,M,M,M,M,M,M,M,68.00,KHTH 191215Z AUTO 16004KT 10SM CLR 20/01 A3013 RMK A01,M
TMT,2025-07-19 12:30,-117.1971,39.4643,1749.34,45.30,19.00,34.60,0.00,0.00,0.00,30.23,M,10.00,M,CLR,M,M,M,M,M,M,M,M,M,M,M,M,M,M,45.30,KTMT 191230Z AUTO 00000KT 10SM CLR 07/M07 A3023 RMK AO2 T00741072,M
BVU,2025-07-19 12:35,-114.8611,35.9475,671.00,77.00,53.60,44.30,0.00,0.00,0.00,29.96,M,10.00,M,CLR,M,M,M,M,M,M,M,M,M,M,M,M,M,M,77.00,KBVU 191235Z AUTO 00000KT 10SM CLR 25/12 A2996 RMK AO2,M
BAM,2025-07-19 12:35,-116.8743,40.5990,1382.36,55.40,30.20,37.96,190.00,4.00,0.00,30.12,M,10.00,M,CLR,M,M,M,M,M,M,M,M,M,M,M,M,M,M,55.40,KBAM 191235Z AUTO 19004KT 10SM CLR 13/M01 A3012 RMK AO1,M
CXP,2025-07-19 12:35,-119.7326,39.1923,1431.00,55.40,35.60,47.15,0.00,0.00,0.00,30.20,M,10.00,M,CLR,M,M,M,M,M,M,M,M,M,M,M,M,M,M,55.40,KCXP 191235Z AUTO 00000KT 10SM CLR 13/02 A3020 RMK AO2,M
05U,2025-07-19 12:35,-116.0051,39.6042,1811.23,53.60,42.80,66.70,0.00,0.00,0.00,30.24,M,10.00,M,CLR,M,M,M,M,M,M,M,M,M,M,M,M,M,M,53.60,K05U 191235Z AUTO 00000KT 10SM CLR 12/06 A3024 RMK A01,M
HTH,2025-07-19 12:35,-118.6315,38.5448,1282.89,68.00,33.80,28.12,220.00,4.00,0.00,30.13,M,10.00,M,CLR,M,M,M,M,M,M,M,M,M,M,M,M,M,M,68.00,KHTH 191235Z AUTO 22004KT 10SM CLR 20/01 A3013 RMK A01,M
TMT,2025-07-19 12:50,-117.1971,39.4643,1749.34,44.60,19.00,35.53,330.00,5.00,0.00,30.24,M,10.00,M,CLR,M,M,M,M,M,M,M,M,M,M,M,M,M,M,41.36,KTMT 191250Z AUTO 33005KT 10SM CLR 07/M07 A3024 RMK AO2 T00701072,M
P68,2025-07-19 12:53,-116.0056,39.6014,1993.00,52.00,41.00,65.99,190.00,6.00,0.00,30.22,1015.50,M,M,M,M,M,M,M,M,M,M,M,M,M,M,M,M,M,52.00,KP68 191253Z AUTO 19006KT 11/05 A3022 RMK AO1 SLP155 T01110050,M
DRA,2025-07-19 12:53,-116.0278,36.6206,1009.00,73.00,47.00,39.62,110.00,3.00,0.00,30.04,1012.20,10.00,M,CLR,M,M,M,M,M,M,M,M,M,M,M,M,M,M,73.00,KDRA 191253Z AUTO 11003KT 10SM CLR 23/08 A3004 RMK AO2 SLP122 T02280083,M
ELY,2025-07-19 12:53,-114.8453,39.2950,1909.00,46.00,43.00,89.19,180.00,9.00,0.00,30.26,1017.50,10.00,M,CLR,M,M,M,M,M,M,M,M,M,M,M,M,M,M,40.92,KELY 191253Z AUTO 18009KT 10SM CLR 08/06 A3026 RMK AO2 SLP175 T00780061,M
VGT,2025-07-19 12:53,-115.1933,36.2111,667.00,80.00,55.00,42.25,320.00,6.00,0.00,29.97,1013.80,10.00,M,CLR,M,M,M,M,M,M,M,M,M,M,M,M,M,M,80.11,KVGT 191253Z 32006KT 10SM CLR 27/13 A2997 RMK AO2 SLP138 T02670128,M
LOL,2025-07-19 12:53,-118.5701,40.0684,1192.43,59.00,38.00,45.53,0.00,0.00,0.00,30.09,1014.60,10.00,M,CLR,M,M,M,M,M,M,M,M,M,M,M,M,M,M,59.00,KLOL 191253Z AUTO 00000KT 10SM CLR 15/03 A3009 RMK AO2 SLP146 T01500033,M
BVU,2025-07-19 12:55,-114.8611,35.9475,671.00,77.00,51.80,41.46,0.00,0.00,0.00,29.96,M,10.00,M,CLR,M,M,M,M,M,M,M,M,M,M,M,M,M,M,77.00,KBVU 191255Z AUTO 00000KT 10SM CLR 25/11 A2996 RMK AO2,M
RNO,2025-07-19 12:55,-119.7711,39.4839,1341.00,64.00,35.00,33.89,290.00,3.00,0.00,30.17,1015.70,10.00,M,CLR,M,M,M,M,M,M,M,M,M,M,M,M,M,M,64.00,KRNO 191255Z 29003KT 10SM CLR 18/02 A3017 RMK AO2 SLP157 T01780017,M
BAM,2025-07-19 12:55,-116.8743,40.5990,1382.36,55.40,30.20,37.96,0.00,0.00,0.00,30.13,M,10.00,M,CLR,M,M,M,M,M,M,M,M,M,M,M,M,M,M,55.40,KBAM 191255Z AUTO 00000KT 10SM CLR 13/M01 A3013 RMK AO1,M
CXP,2025-07-19 12:55,-119.7326,39.1923,1431.00,53.60,35.60,50.35,0.00,0.00,0.00,30.20,M,10.00,M,CLR,M,M,M,M,M,M,M,M,M,M,M,M,M,M,53.60,KCXP 191255Z AUTO 00000KT 10SM CLR 12/02 A3020 RMK AO2,M
05U,2025-07-19 12:55,-116.0051,39.6042,1811.23,51.80,41.00,66.48,0.00,0.00,0.00,30.24,M,10.00,M,CLR,M,M,M,M,M,M,M,M,M,M,M,M,M,M,51.80,K05U 191255Z AUTO 00000KT 10SM CLR 11/05 A3024 RMK A01,M
HTH,2025-07-19 12:55,-118.6315,38.5448,1282.89,66.20,33.80,29.92,210.00,3.00,0.00,30.14,M,10.00,M,CLR,M,M,M,M,M,M,M,M,M,M,M,M,M,M,66.20,KHTH 191255Z AUTO 21003KT 10SM CLR 19/01 A3014 RMK A01,M
INS,2025-07-19 12:55,-115.6733,36.5872,955.00,73.60,45.70,36.96,270.00,5.00,0.00,30.04,1011.80,10.00,M,CLR,M,M,M,M,M,M,M,M,M,M,M,M,M,M,73.60,KINS 191255Z AUTO 27005KT 10SM CLR 23/08 A3004 RMK AO2 SLP118 T02310076 $,M
LSV,2025-07-19 12:55,-115.0343,36.2362,570.00,78.60,51.00,38.19,0.00,0.00,0.00,29.92,1010.20,10.00,M,FEW,M,M,M,23000.00,M,M,M,M,M,M,M,M,M,M,78.60,KLSV 191255Z AUTO 00000KT 10SM FEW230 26/11 A2992 RMK AO2 SLP102 T02590105 $,M
EKO,2025-07-19 12:56,-115.7860,40.8242,1367.00,53.00,40.00,61.19,130.00,3.00,0.00,30.14,1014.90,10.00,M,CLR,M,M,M,M,M,M,M,M,M,M,M,M,M,M,53.00,KEKO 191256Z AUTO 13003KT 10SM CLR 12/04 A3014 RMK AO2 SLP149 T01170044,M
HND,2025-07-19 12:56,-115.1344,35.9729,742.79,80.00,55.00,42.25,230.00,10.00,0.00,30.02,1014.90,10.00,M,CLR,M,M,M,M,M,M,M,M,M,M,M,M,M,M,80.11,KHND 191256Z AUTO 23010KT 10SM CLR 27/13 A3002 RMK AO2 SLP149 T02670128 $,M
TPH,2025-07-19 12:56,-117.0904,38.0505,1654.00,58.00,43.00,57.30,340.00,8.00,0.00,30.21,1015.50,10.00,M,CLR,M,M,M,M,M,M,M,M,M,M,M,M,M,M,58.00,KTPH 191256Z AUTO 34008KT 10SM CLR 14/06 A3021 RMK AO2 SLP155 T01440061 $,M
LAS,2025-07-19 12:56,-115.1634,36.0719,663.00,81.00,54.00,39.43,0.00,0.00,0.00,29.99,1012.60,10.00,M,FEW,SCT,M,M,15000.00,20000.00,M,M,M,M,M,M,M,M,M,80.60,KLAS 191256Z 00000KT 10SM FEW150 SCT200 27/12 A2999 RMK AO2 SLP126 T02720122,M
NFL,2025-07-19 12:57,-118.7010,39.4166,1199.00,65.00,35.00,32.73,150.00,7.00,0.00,30.10,1015.90,10.00,M,CLR,M,M,M,M,M,M,M,M,M,M,M,M,M,M,65.00,KNFL 191257Z AUTO 15007KT 10SM CLR 18/02 A3010 RMK AO2 SLP159 T01830017,M
TMT,2025-07-19 13:10,-117.1971,39.4643,1749.34,45.00,20.00,36.53,350.00,3.00,0.00,30.24,M,10.00,M,CLR,M,M,M,M,M,M,M,M,M,M,M,M,M,M,43.55,KTMT 191310Z AUTO 35003KT 10SM CLR 07/M07 A3024 RMK AO2 T00731067,M
BVU,2025-07-19 13:15,-114.8611,35.9475,671.00,77.00,51.80,41.46,70.00,3.00,0.00,29.97,M,10.00,M,CLR,M,M,M,M,M,M,M,M,M,M,M,M,M,M,77.00,KBVU 191315Z AUTO 07003KT 10SM CLR 25/11 A2997 RMK AO2,M
BAM,2025-07-19 13:15,-116.8743,40.5990,1382.36,57.20,30.20,35.56,200.00,5.00,0.00,30.13,M,10.00,M,CLR,M,M,M,M,M,M,M,M,M,M,M,M,M,M,57.20,KBAM 191315Z AUTO 20005KT 10SM CLR 14/M01 A3013 RMK AO1,M
CXP,2025-07-19 13:15,-119.7326,39.1923,1431.00,55.40,37.40,50.63,0.00,0.00,0.00,30.20,M,10.00,M,CLR,M,M,M,M,M,M,M,M,M,M,M,M,M,M,55.40,KCXP 191315Z AUTO 00000KT 10SM CLR 13/03 A3020 RMK AO2,M
05U,2025-07-19 13:15,-116.0051,39.6042,1811.23,53.60,41.00,62.22,0.00,0.00,0.00,30.25,M,10.00,M,CLR,M,M,M,M,M,M,M,M,M,M,M,M,M,M,53.60,K05U 191315Z AUTO 00000KT 10SM CLR 12/05 A3025 RMK A01,M
HTH,2025-07-19 13:15,-118.6315,38.5448,1282.89,68.00,33.80,28.12,220.00,4.00,0.00,30.14,M,10.00,M,CLR,M,M,M,M,M,M,M,M,M,M,M,M,M,M,68.00,KHTH 191315Z AUTO 22004KT 10SM CLR 20/01 A3014 RMK A01,M
TMT,2025-07-19 13:30,-117.1971,39.4643,1749.34,47.50,22.00,36.18,0.00,0.00,0.00,30.24,M,10.00,M,CLR,M,M,M,M,M,M,M,M,M,M,M,M,M,M,47.50,KTMT 191330Z AUTO 00000KT 10SM CLR 09/M06 A3024 RMK AO2 T00861056,M
BVU,2025-07-19 13:35,-114.8611,35.9475,671.00,78.80,50.00,36.56,0.00,0.00,0.00,29.97,M,10.00,M,CLR,M,M,M,M,M,M,M,M,M,M,M,M,M,M,78.80,KBVU 191335Z AUTO 00000KT 10SM CLR 26/10 A2997 RMK AO2,M
BAM,2025-07-19 13:35,-116.8743,40.5990,1382.36,59.00,30.20,33.34,0.00,0.00,0.00,30.13,M,10.00,M,CLR,M,M,M,M,M,M,M,M,M,M,M,M,M,M,59.00,KBAM 191335Z AUTO 00000KT 10SM CLR 15/M01 A3013 RMK AO1,M
CXP,2025-07-19 13:35,-119.7326,39.1923,1431.00,55.40,37.40,50.63,0.00,0.00,0.00,30.21,M,10.00,M,CLR,M,M,M,M,M,M,M,M,M,M,M,M,M,M,55.40,KCXP 191335Z AUTO 00000KT 10SM CLR 13/03 A3021 RMK AO2,M
RTS,2025-07-19 13:35,-119.8764,39.6682,1539.00,59.00,32.00,35.86,350.00,4.00,0.00,30.21,M,10.00,M,CLR,M,M,M,M,M,M,M,M,M,M,M,M,M,M,59.00,KRTS 191335Z AUTO 35004KT 10SM CLR 15/M00 A3021 RMK AO2,M
05U,2025-07-19 13:35,-116.0051,39.6042,1811.23,57.20,42.80,58.52,0.00,0.00,0.00,30.25,M,10.00,M,CLR,M,M,M,M,M,M,M,M,M,M,M,M,M,M,57.20,K05U 191335Z AUTO 00000KT 10SM CLR 14/06 A3025 RMK A01,M
MEV,2025-07-19 13:35,-119.7500,38.9963,1441.42,50.00,35.60,57.51,0.00,0.00,0.00,30.19,M,10.00,M,CLR,M,M,M,M,M,M,M,M,M,M,M,M,M,M,50.00,KMEV 191335Z AUTO 00000KT 10SM CLR 10/02 A3019 RMK AO2,M
HTH,2025-07-19 13:35,-118.6315,38.5448,1282.89,69.80,33.80,26.44,230.00,4.00,0.00,30.14,M,10.00,M,CLR,M,M,M,M,M,M,M,M,M,M,M,M,M,M,69.80,KHTH 191335Z AUTO 23004KT 10SM CLR 21/01 A3014 RMK A01,M
NFL,2025-07-19 13:41,-118.7010,39.4166,1199.00,67.00,35.00,30.53,140.00,3.00,0.00,30.10,M,10.00,M,CLR,M,M,M,M,M,M,M,M,M,M,M,M,M,M,67.00,KNFL 191341Z 14003KT 10SM CLR 19/02 A3010 RMK AO2 T01940017,M
TMT,2025-07-19 13:50,-117.1971,39.4643,1749.34,50.70,24.00,34.92,0.00,0.00,0.00,30.24,M,10.00,M,CLR,M,M,M,M,M,M,M,M,M,M,M,M,M,M,50.70,KTMT 191350Z AUTO 00000KT 10SM CLR 10/M04 A3024 RMK AO2 T01041045,M
P68,2025-07-19 13:53,-116.0056,39.6014,1993.00,60.00,43.00,53.35,180.00,8.00,0.00,30.23,1014.90,M,M,M,M,M,M,M,M,M,M,M,M,M,M,M,M,M,60.00,KP68 191353Z AUTO 18008KT 16/06 A3023 RMK AO1 SLP149 T01560061,M
DRA,2025-07-19 13:53,-116.0278,36.6206,1009.00,79.00,49.00,34.99,0.00,0.00,0.00,30.06,1012.60,10.00,M,CLR,M,M,M,M,M,M,M,M,M,M,M,M,M,M,79.00,KDRA 191353Z AUTO 00000KT 10SM CLR 26/09 A3006 RMK AO2 SLP126 T02610094,M
ELY,2025-07-19 13:53,-114.8453,39.2950,1909.00,53.00,45.00,74.16,190.00,7.00,0.00,30.27,1016.90,10.00,M,CLR,M,M,M,M,M,M,M,M,M,M,M,M,M,M,53.00,KELY 191353Z AUTO 19007KT 10SM CLR 12/07 A3027 RMK AO2 SLP169 T01170072,M
VGT,2025-07-19 13:53,-115.1933,36.2111,667.00,83.00,55.00,38.33,340.00,5.00,0.00,29.98,1014.10,10.00,M,CLR,M,M,M,M,M,M,M,M,M,M,M,M,M,M,82.11,KVGT 191353Z 34005KT 10SM CLR 28/13 A2998 RMK AO2 SLP141 T02830128,M
LOL,2025-07-19 13:53,-118.5701,40.0684,1192.43,63.00,40.00,42.73,0.00,0.00,0.00,30.10,1014.80,10.00,M,CLR,M,M,M,M,M,M,M,M,M,M,M,M,M,M,63.00,KLOL 191353Z AUTO 00000KT 10SM CLR 17/04 A3010 RMK AO2 SLP148 T01720044,M
BVU,2025-07-19 13:55,-114.8611,35.9475,671.00,80.60,50.00,34.47,130.00,3.00,0.00,29.97,M,10.00,M,CLR,M,M,M,M,M,M,M,M,M,M,M,M,M,M,79.89,KBVU 191355Z AUTO 13003KT 10SM CLR 27/10 A2997 RMK AO2,M
RNO,2025-07-19 13:55,-119.7711,39.4839,1341.00,64.00,37.00,36.68,M,3.00,0.00,30.18,1016.20,10.00,M,CLR,M,M,M,M,M,M,M,M,M,M,M,M,M,M,64.00,KRNO 191355Z VRB03KT 10SM CLR 18/03 A3018 RMK AO2 SLP162 T01780028,M
BAM,2025-07-19 13:55,-116.8743,40.5990,1382.36,60.80,32.00,33.64,0.00,0.00,0.00,30.14,M,10.00,M,CLR,M,M,M,M,M,M,M,M,M,M,M,M,M,M,60.80,KBAM 191355Z AUTO 00000KT 10SM CLR 16/00 A3014 RMK AO1,M
CXP,2025-07-19 13:55,-119.7326,39.1923,1431.00,59.00,35.60,41.42,0.00,0.00,0.00,30.21,M,10.00,M,CLR,M,M,M,M,M,M,M,M,M,M,M,M,M,M,59.00,KCXP 191355Z AUTO 00000KT 10SM CLR 15/02 A3021 RMK AO2,M
LSV,2025-07-19 13:55,-115.0343,36.2362,570.00,81.70,50.00,33.26,60.00,3.00,0.00,29.93,1010.50,10.00,M,SCT,M,M,M,18000.00,M,M,M,M,M,M,M,M,M,M,80.54,KLSV 191355Z 06003KT 10SM SCT180 28/10 A2993 RMK AO2A SLP105 T02760099 CHINO RWY03R $,M
RTS,2025-07-19 13:55,-119.8764,39.6682,1539.00,59.00,32.00,35.86,10.00,5.00,0.00,30.22,M,10.00,M,CLR,M,M,M,M,M,M,M,M,M,M,M,M,M,M,59.00,KRTS 191355Z AUTO 01005KT 10SM CLR 15/M00 A3022 RMK AO2,M
05U,2025-07-19 13:55,-116.0051,39.6042,1811.23,60.80,42.80,51.46,0.00,0.00,0.00,30.26,M,10.00,M,CLR,M,M,M,M,M,M,M,M,M,M,M,M,M,M,60.80,K05U 191355Z AUTO 00000KT 10SM CLR 16/06 A3026 RMK A01,M
MEV,2025-07-19 13:55,-119.7500,38.9963,1441.42,53.60,37.40,54.07,0.00,0.00,0.00,30.20,M,10.00,M,CLR,M,M,M,M,M,M,M,M,M,M,M,M,M,M,53.60,KMEV 191355Z AUTO 00000KT 10SM CLR 12/03 A3020 RMK AO2,M
HTH,2025-07-19 13:55,-118.6315,38.5448,1282.89,71.60,33.80,24.87,230.00,5.00,0.00,30.14,M,10.00,M,CLR,M,M,M,M,M,M,M,M,M,M,M,M,M,M,71.60,KHTH 191355Z AUTO 23005KT 10SM CLR 22/01 A3014 RMK A01,M
INS,2025-07-19 13:55,-115.6733,36.5872,955.00,76.50,47.50,35.92,0.00,0.00,0.00,30.05,1011.90,10.00,M,CLR,M,M,M,M,M,M,M,M,M,M,M,M,M,M,76.50,KINS 191355Z AUTO 00000KT 10SM CLR 25/09 A3005 RMK AO2 SLP119 T02470086 $,M
EKO,2025-07-19 13:56,-115.7860,40.8242,1367.00,60.00,42.00,51.34,0.00,0.00,0.00,30.15,1014.90,10.00,M,CLR,M,M,M,M,M,M,M,M,M,M,M,M,M,M,60.00,KEKO 191356Z AUTO 00000KT 10SM CLR 16/06 A3015 RMK AO2 SLP149 T01560056,M
HND,2025-07-19 13:56,-115.1344,35.9729,742.79,82.00,53.00,36.80,250.00,4.00,0.00,30.03,1015.40,10.00,M,CLR,M,M,M,M,M,M,M,M,M,M,M,M,M,M,81.11,KHND 191356Z AUTO 25004KT 10SM CLR 28/12 A3003 RMK AO2 SLP154 T02780117 $,M
TPH,2025-07-19 13:56,-117.0904,38.0505,1654.00,63.00,43.00,47.98,360.00,10.00,0.00,30.22,1016.00,10.00,M,CLR,M,M,M,M,M,M,M,M,M,M,M,M,M,M,63.00,KTPH 191356Z AUTO 36010KT 10SM CLR 17/06 A3022 RMK AO2 SLP160 T01720061 $,M
LAS,2025-07-19 13:56,-115.1634,36.0719,663.00,84.00,53.00,34.50,0.00,0.00,0.00,30.00,1012.80,10.00,M,FEW,SCT,M,M,15000.00,20000.00,M,M,M,M,M,M,M,M,M,82.52,KLAS 191356Z 00000KT 10SM FEW150 SCT200 29/12 A3000 RMK AO2 SLP128 T02890117,M
NFL,2025-07-19 13:57,-118.7010,39.4166,1199.00,70.00,36.00,28.67,170.00,4.00,0.00,30.11,1016.20,7.00,M,CLR,M,M,M,M,M,M,M,M,M,M,M,M,M,M,70.00,KNFL 191357Z 17004KT 7SM CLR 21/02 A3011 RMK AO2 SLP162 T02110022,M
TMT,2025-07-19 14:10,-117.1971,39.4643,1749.34,55.00,27.30,34.20,0.00,0.00,0.00,30.25,M,10.00,M,CLR,M,M,M,M,M,M,M,M,M,M,M,M,M,M,55.00,KTMT 191410Z AUTO 00000KT 10SM CLR 13/M03 A3025 RMK AO2 T01271026,M
RTS,2025-07-19 14:10,-119.8764,39.6682,1539.00,60.80,32.00,33.64,330.00,3.00,0.00,30.22,M,10.00,M,CLR,M,M,M,M,M,M,M,M,M,M,M,M,M,M,60.80,KRTS 191410Z AUTO 33003KT 10SM CLR 16/M00 A3022 RMK AO2,M
BVU,2025-07-19 14:15,-114.8611,35.9475,671.00,82.40,50.00,32.51,0.00,0.00,0.00,29.98,M,10.00,M,CLR,M,M,M,M,M,M,M,M,M,M,M,M,M,M,80.99,KBVU 191415Z AUTO 00000KT 10SM CLR 28/10 A2998 RMK AO2,M
BAM,2025-07-19 14:15,-116.8743,40.5990,1382.36,64.40,32.00,29.63,0.00,0.00,0.00,30.15,M,10.00,M,CLR,M,M,M,M,M,M,M,M,M,M,M,M,M,M,64.40,KBAM 191415Z AUTO 00000KT 10SM CLR 18/00 A3015 RMK AO1,M
CXP,2025-07-19 14:15,-119.7326,39.1923,1431.00,62.60,35.60,36.45,0.00,0.00,0.00,30.21,M,10.00,M,CLR,M,M,M,M,M,M,M,M,M,M,M,M,M,M,62.60,KCXP 191415Z AUTO 00000KT 10SM CLR 17/02 A3021 RMK AO2,M
05U,2025-07-19 14:15,-116.0051,39.6042,1811.23,62.60,42.80,48.29,0.00,0.00,0.00,30.26,M,10.00,M,CLR,M,M,M,M,M,M,M,M,M,M,M,M,M,M,62.60,K05U 191415Z AUTO 00000KT 10SM CLR 17/06 A3026 RMK A01,M
MEV,2025-07-19 14:15,-119.7500,38.9963,1441.42,57.20,37.40,47.44,0.00,0.00,0.00,30.20,M,10.00,M,CLR,M,M,M,M,M,M,M,M,M,M,M,M,M,M,57.20,KMEV 191415Z AUTO 00000KT 10SM CLR 14/03 A3020 RMK AO2,M
HTH,2025-07-19 14:15,-118.6315,38.5448,1282.89,73.40,35.60,25.15,0.00,0.00,0.00,30.14,M,10.00,M,CLR,M,M,M,M,M,M,M,M,M,M,M,M,M,M,73.40,KHTH 191415Z AUTO 00000KT 10SM CLR 23/02 A3014 RMK A01,M
TMT,2025-07-19 14:30,-117.1971,39.4643,1749.34,59.00,30.20,33.34,0.00,0.00,0.00,30.25,M,10.00,M,CLR,M,M,M,M,M,M,M,M,M,M,M,M,M,M,59.00,KTMT 191430Z AUTO 00000KT 10SM CLR 15/M01 A3025 RMK AO2 T01491010,M
BVU,2025-07-19 14:35,-114.8611,35.9475,671.00,82.40,50.00,32.51,0.00,0.00,0.00,29.98,M,10.00,M,CLR,M,M,M,M,M,M,M,M,M,M,M,M,M,M,80.99,KBVU 191435Z AUTO 00000KT 10SM CLR 28/10 A2998 RMK AO2,M
BAM,2025-07-19 14:35,-116.8743,40.5990,1382.36,68.00,33.80,28.12,0.00,0.00,0.00,30.15,M,10.00,M,CLR,M,M,M,M,M,M,M,M,M,M,M,M,M,M,68.00,KBAM 191435Z AUTO 00000KT 10SM CLR 20/01 A3015 RMK AO1,M
CXP,2025-07-19 14:35,-119.7326,39.1923,1431.00,64.40,35.60,34.23,0.00,0.00,0.00,30.22,M,10.00,M,CLR,M,M,M,M,M,M,M,M,M,M,M,M,M,M,64.40,KCXP 191435Z AUTO 00000KT 10SM CLR 18/02 A3022 RMK AO2,M
05U,2025-07-19 14:35,-116.0051,39.6042,1811.23,66.20,42.80,42.59,0.00,0.00,0.00,30.26,M,10.00,M,CLR,M,M,M,M,M,M,M,M,M,M,M,M,M,M,66.20,K05U 191435Z AUTO 00000KT 10SM CLR 19/06 A3026 RMK A01,M
MEV,2025-07-19 14:35,-119.7500,38.9963,1441.42,59.00,39.20,47.72,0.00,0.00,0.00,30.20,M,10.00,M,CLR,M,M,M,M,M,M,M,M,M,M,M,M,M,M,59.00,KMEV 191435Z AUTO 00000KT 10SM CLR 15/04 A3020 RMK AO2,M
HTH,2025-07-19 14:35,-118.6315,38.5448,1282.89,75.20,37.40,25.43,0.00,0.00,0.00,30.15,M,10.00,M,CLR,M,M,M,M,M,M,M,M,M,M,M,M,M,M,75.20,KHTH 191435Z AUTO 00000KT 10SM CLR 24/03 A3015 RMK A01,M
TMT,2025-07-19 14:50,-117.1971,39.4643,1749.34,63.30,32.00,30.80,0.00,0.00,0.00,30.25,M,10.00,M,CLR,M,M,M,M,M,M,M,M,M,M,M,M,M,M,63.30,KTMT 191450Z AUTO 00000KT 10SM CLR 17/00 A3025 RMK AO2 T01740000,M
P68,2025-07-19 14:53,-116.0056,39.6014,1993.00,69.00,42.00,37.50,210.00,4.00,0.00,30.24,1015.00,M,M,M,M,M,M,M,M,M,M,M,M,M,M,M,M,M,69.00,KP68 191453Z AUTO 21004KT 21/06 A3024 RMK AO1 SLP150 T02060056 51010,M
DRA,2025-07-19 14:53,-116.0278,36.6206,1009.00,81.00,49.00,32.78,190.00,3.00,0.00,30.07,1013.00,10.00,M,CLR,M,M,M,M,M,M,M,M,M,M,M,M,M,M,80.02,KDRA 191453Z AUTO 19003KT 10SM CLR 27/09 A3007 RMK AO2 SLP130 T02720094 53012,M
ELY,2025-07-19 14:53,-114.8453,39.2950,1909.00,62.00,46.00,55.72,160.00,6.00,0.00,30.28,1016.60,10.00,M,CLR,M,M,M,M,M,M,M,M,M,M,M,M,M,M,62.00,KELY 191453Z AUTO 16006KT 10SM CLR 17/08 A3028 RMK AO2 SLP166 T01670078 53008,M
VGT,2025-07-19 14:53,-115.1933,36.2111,667.00,86.00,53.00,32.36,330.00,3.00,0.00,30.00,1014.50,10.00,M,CLR,M,M,M,M,M,M,M,M,M,M,M,M,M,M,84.08,KVGT 191453Z 33003KT 10SM CLR 30/12 A3000 RMK AO2 SLP145 T03000117 53012,M
LOL,2025-07-19 14:53,-118.5701,40.0684,1192.43,74.00,42.00,31.66,0.00,0.00,0.00,30.11,1014.90,10.00,M,CLR,M,M,M,M,M,M,M,M,M,M,M,M,M,M,74.00,KLOL 191453Z AUTO 00000KT 10SM CLR 23/06 A3011 RMK AO2 SLP149 T02330056 51012,M
BVU,2025-07-19 14:55,-114.8611,35.9475,671.00,84.20,48.20,28.69,0.00,0.00,0.00,29.99,M,10.00,M,CLR,M,M,M,M,M,M,M,M,M,M,M,M,M,M,82.04,KBVU 191455Z AUTO 00000KT 10SM CLR 29/09 A2999 RMK AO2,M
RNO,2025-07-19 14:55,-119.7711,39.4839,1341.00,68.00,37.00,31.93,320.00,4.00,0.00,30.19,1016.40,10.00,M,CLR,M,M,M,M,M,M,M,M,M,M,M,M,M,M,68.00,KRNO 191455Z 32004KT 10SM CLR 20/03 A3019 RMK AO2 SLP164 T02000028 51009,M
BAM,2025-07-19 14:55,-116.8743,40.5990,1382.36,71.60,35.60,26.72,0.00,0.00,0.00,30.16,M,10.00,M,CLR,M,M,M,M,M,M,M,M,M,M,M,M,M,M,71.60,KBAM 191455Z AUTO 00000KT 10SM CLR 22/02 A3016 RMK AO1,M
CXP,2025-07-19 14:55,-119.7326,39.1923,1431.00,64.40,35.60,34.23,0.00,0.00,0.00,30.22,M,10.00,M,CLR,M,M,M,M,M,M,M,M,M,M,M,M,M,M,64.40,KCXP 191455Z AUTO 00000KT 10SM CLR 18/02 A3022 RMK AO2,M
05U,2025-07-19 14:55,-116.0051,39.6042,1811.23,69.80,42.80,37.63,0.00,0.00,0.00,30.26,M,10.00,M,CLR,M,M,M,M,M,M,M,M,M,M,M,M,M,M,69.80,K05U 191455Z AUTO 00000KT 10SM CLR 21/06 A3026 RMK A01,M
MEV,2025-07-19 14:55,-119.7500,38.9963,1441.42,62.60,33.80,33.93,0.00,0.00,0.00,30.21,M,10.00,M,CLR,M,M,M,M,M,M,M,M,M,M,M,M,M,M,62.60,KMEV 191455Z AUTO 00000KT 10SM CLR 17/01 A3021 RMK AO2,M
HTH,2025-07-19 14:55,-118.6315,38.5448,1282.89,75.20,35.60,23.68,0.00,0.00,0.00,30.15,M,10.00,M,CLR,M,M,M,M,M,M,M,M,M,M,M,M,M,M,75.20,KHTH 191455Z AUTO 00000KT 10SM CLR 24/02 A3015 RMK A01,M
INS,2025-07-19 14:55,-115.6733,36.5872,955.00,80.80,49.00,32.99,0.00,0.00,0.00,30.07,1012.60,10.00,M,CLR,M,M,M,M,M,M,M,M,M,M,M,M,M,M,79.90,KINS 191455Z AUTO 00000KT 10SM CLR 27/09 A3007 RMK AO2 SLP126 T02710094 52012 $,M
LSV,2025-07-19 14:55,-115.0343,36.2362,570.00,87.00,50.00,28.06,0.00,0.00,0.00,29.95,1011.10,10.00,M,SCT,M,M,M,18000.00,M,M,M,M,M,M,M,M,M,M,84.44,KLSV 191455Z 00000KT 10SM SCT180 31/10 A2995 RMK AO2A SLP111 T03050099 52010 CHINO RWY03R $,M
EKO,2025-07-19 14:56,-115.7860,40.8242,1367.00,67.00,43.00,41.74,0.00,0.00,0.00,30.17,1015.40,10.00,M,CLR,M,M,M,M,M,M,M,M,M,M,M,M,M,M,67.00,KEKO 191456Z AUTO 00000KT 10SM CLR 19/06 A3017 RMK AO2 SLP154 T01940061 51013,M
HND,2025-07-19 14:56,-115.1344,35.9729,742.79,86.00,54.00,33.57,230.00,5.00,0.00,30.04,1015.70,10.00,M,CLR,M,M,M,M,M,M,M,M,M,M,M,M,M,M,84.27,KHND 191456Z AUTO 23005KT 10SM CLR 30/12 A3004 RMK AO2 SLP157 T03000122 51013 $,M
TPH,2025-07-19 14:56,-117.0904,38.0505,1654.00,71.00,45.00,39.29,10.00,6.00,0.00,30.23,1015.50,10.00,M,CLR,M,M,M,M,M,M,M,M,M,M,M,M,M,M,71.00,KTPH 191456Z AUTO 01006KT 10SM CLR 22/07 A3023 RMK AO2 SLP155 T02170072 52007 $,M
LAS,2025-07-19 14:56,-115.1634,36.0719,663.00,86.00,52.00,31.19,0.00,0.00,0.00,30.01,1013.30,10.00,M,FEW,M,M,M,20000.00,M,M,M,M,M,M,M,M,M,M,83.92,KLAS 191456Z 00000KT 10SM FEW200 30/11 A3001 RMK AO2 SLP133 T03000111 51013,M
NFL,2025-07-19 14:57,-118.7010,39.4166,1199.00,76.00,38.00,25.35,0.00,0.00,0.00,30.12,1016.50,9.00,M,CLR,M,M,M,M,M,M,M,M,M,M,M,M,M,M,76.00,KNFL 191457Z 00000KT 9SM CLR 24/03 A3012 RMK AO2 SLP165 T02440033 51011,M
MEV,2025-07-19 15:05,-119.7500,38.9963,1441.42,62.60,35.60,36.45,0.00,0.00,0.00,30.21,M,10.00,M,CLR,M,M,M,M,M,M,M,M,M,M,M,M,M,M,62.60,KMEV 191505Z AUTO 00000KT 10SM CLR 17/02 A3021 RMK AO2,M
05U,2025-07-19 15:10,-116.0051,39.6042,1811.23,69.80,42.80,37.63,0.00,0.00,0.00,30.27,M,10.00,M,CLR,M,M,M,M,M,M,M,M,M,M,M,M,M,M,69.80,K05U 191510Z AUTO 00000KT 10SM CLR 21/06 A3027 RMK A01,M
TMT,2025-07-19 15:10,-117.1971,39.4643,1749.34,66.20,33.30,29.33,0.00,0.00,0.00,30.25,M,10.00,M,CLR,M,M,M,M,M,M,M,M,M,M,M,M,M,M,66.20,KTMT 191510Z AUTO 00000KT 10SM CLR 19/01 A3025 RMK AO2 T01900007,M
BVU,2025-07-19 15:15,-114.8611,35.9475,671.00,84.20,48.20,28.69,0.00,0.00,0.00,29.99,M,10.00,M,CLR,M,M,M,M,M,M,M,M,M,M,M,M,M,M,82.04,KBVU 191515Z AUTO 00000KT 10SM CLR 29/09 A2999 RMK AO2,M
BAM,2025-07-19 15:15,-116.8743,40.5990,1382.36,77.00,35.60,22.31,0.00,0.00,0.00,30.16,M,10.00,M,CLR,M,M,M,M,M,M,M,M,M,M,M,M,M,M,77.00,KBAM 191515Z AUTO 00000KT 10SM CLR 25/02 A3016 RMK AO1,M
CXP,2025-07-19 15:15,-119.7326,39.1923,1431.00,68.00,32.00,26.16,M,4.00,0.00,30.22,M,10.00,M,CLR,M,M,M,M,M,M,M,M,M,M,M,M,M,M,68.00,KCXP 191515Z AUTO VRB04KT 10SM CLR 20/00 A3022 RMK AO2,M
HTH,2025-07-19 15:15,-118.6315,38.5448,1282.89,77.00,33.80,20.76,320.00,4.00,0.00,30.16,M,10.00,M,CLR,M,M,M,M,M,M,M,M,M,M,M,M,M,M,77.00,KHTH 191515Z AUTO 32004KT 10SM CLR 25/01 A3016 RMK A01,M
TMT,2025-07-19 15:30,-117.1971,39.4643,1749.34,70.30,36.00,28.37,0.00,0.00,0.00,30.25,M,10.00,M,CLR,M,M,M,M,M,M,M,M,M,M,M,M,M,M,70.30,KTMT 191530Z AUTO 00000KT 10SM CLR 21/02 A3025 RMK AO2 T02130022,M
BVU,2025-07-19 15:35,-114.8611,35.9475,671.00,87.80,48.20,25.58,0.00,0.00,0.00,29.99,M,10.00,M,CLR,M,M,M,M,M,M,M,M,M,M,M,M,M,M,84.88,KBVU 191535Z AUTO 00000KT 10SM CLR 31/09 A2999 RMK AO2,M
BAM,2025-07-19 15:35,-116.8743,40.5990,1382.36,78.80,35.60,21.02,0.00,0.00,0.00,30.16,M,10.00,M,CLR,M,M,M,M,M,M,M,M,M,M,M,M,M,M,78.80,KBAM 191535Z AUTO 00000KT 10SM CLR 26/02 A3016 RMK AO1,M
CXP,2025-07-19 15:35,-119.7326,39.1923,1431.00,69.80,32.00,24.60,210.00,5.00,0.00,30.22,M,10.00,M,CLR,M,M,M,M,M,M,M,M,M,M,M,M,M,M,69.80,KCXP 191535Z AUTO 21005KT 10SM CLR 21/M00 A3022 RMK AO2,M
05U,2025-07-19 15:35,-116.0051,39.6042,1811.23,73.40,41.00,31.08,0.00,0.00,0.00,30.27,M,10.00,M,CLR,M,M,M,M,M,M,M,M,M,M,M,M,M,M,73.40,K05U 191535Z AUTO 00000KT 10SM CLR 23/05 A3027 RMK A01,M
HTH,2025-07-19 15:35,-118.6315,38.5448,1282.89,77.00,33.80,20.76,330.00,4.00,0.00,30.16,M,10.00,M,CLR,M,M,M,M,M,M,M,M,M,M,M,M,M,M,77.00,KHTH 191535Z AUTO 33004KT 10SM CLR 25/01 A3016 RMK A01,M
TMT,2025-07-19 15:50,-117.1971,39.4643,1749.34,73.40,37.60,27.22,0.00,0.00,0.00,30.25,M,10.00,M,CLR,M,M,M,M,M,M,M,M,M,M,M,M,M,M,73.40,KTMT 191550Z AUTO 00000KT 10SM CLR 23/03 A3025 RMK AO2 T02300031,M
P68,2025-07-19 15:53,-116.0056,39.6014,1993.00,73.00,40.00,30.30,180.00,5.00,0.00,30.24,1015.30,M,M,M,M,M,M,M,M,M,M,M,M,M,M,M,M,M,73.00,KP68 191553Z AUTO 18005KT 23/04 A3024 RMK AO1 SLP153 T02280044,M
DRA,2025-07-19 15:53,-116.0278,36.6206,1009.00,86.00,49.00,27.91,280.00,3.00,0.00,30.08,1013.20,10.00,M,CLR,M,M,M,M,M,M,M,M,M,M,M,M,M,M,83.50,KDRA 191553Z AUTO 28003KT 10SM CLR 30/09 A3008 RMK AO2 SLP132 T03000094,M
ELY,2025-07-19 15:53,-114.8453,39.2950,1909.00,70.00,44.00,39.13,170.00,5.00,0.00,30.28,1016.00,10.00,M,CLR,M,M,M,M,M,M,M,M,M,M,M,M,M,M,70.00,KELY 191553Z AUTO 17005KT 10SM CLR 21/07 A3028 RMK AO2 SLP160 T02110067,M
VGT,2025-07-19 15:53,-115.1933,36.2111,667.00,89.00,52.00,28.37,0.00,0.00,0.00,30.00,1014.60,10.00,M,CLR,M,M,M,M,M,M,M,M,M,M,M,M,M,M,86.50,KVGT 191553Z 00000KT 10SM CLR 32/11 A3000 RMK AO2 SLP146 T03170111,M
LOL,2025-07-19 15:53,-118.5701,40.0684,1192.43,81.00,35.00,19.10,40.00,7.00,0.00,30.12,1015.10,10.00,M,CLR,M,M,M,M,M,M,M,M,M,M,M,M,M,M,79.17,KLOL 191553Z AUTO 04007KT 10SM CLR 27/02 A3012 RMK AO2 SLP151 T02720017,M
BVU,2025-07-19 15:55,-114.8611,35.9475,671.00,89.60,48.20,24.17,0.00,0.00,0.00,29.99,M,10.00,M,CLR,M,M,M,M,M,M,M,M,M,M,M,M,M,M,86.45,KBVU 191555Z AUTO 00000KT 10SM CLR 32/09 A2999 RMK AO2,M
RNO,2025-07-19 15:55,-119.7711,39.4839,1341.00,73.00,37.00,26.94,0.00,0.00,0.00,30.19,1016.40,10.00,M,CLR,M,M,M,M,M,M,M,M,M,M,M,M,M,M,73.00,KRNO 191555Z 00000KT 10SM CLR 23/03 A3019 RMK AO2 SLP164 T02280028,M
BAM,2025-07-19 15:55,-116.8743,40.5990,1382.36,78.80,33.80,19.57,0.00,0.00,0.00,30.17,M,10.00,M,CLR,M,M,M,M,M,M,M,M,M,M,M,M,M,M,78.80,KBAM 191555Z AUTO 00000KT 10SM CLR 26/01 A3017 RMK AO1,M
CXP,2025-07-19 15:55,-119.7326,39.1923,1431.00,69.80,32.00,24.60,0.00,0.00,0.00,30.22,M,10.00,M,CLR,M,M,M,M,M,M,M,M,M,M,M,M,M,M,69.80,KCXP 191555Z AUTO 00000KT 10SM CLR 21/00 A3022 RMK AO2,M
RTS,2025-07-19 15:55,-119.8764,39.6682,1539.00,73.40,32.00,21.77,150.00,4.00,0.00,30.23,M,10.00,M,CLR,M,M,M,M,M,M,M,M,M,M,M,M,M,M,73.40,KRTS 191555Z AUTO 15004KT 10SM CLR 23/00 A3023 RMK AO2,M
05U,2025-07-19 15:55,-116.0051,39.6042,1811.23,75.20,41.00,29.26,0.00,0.00,0.00,30.27,M,10.00,M,CLR,M,M,M,M,M,M,M,M,M,M,M,M,M,M,75.20,K05U 191555Z AUTO 00000KT 10SM CLR 24/05 A3027 RMK A01,M
MEV,2025-07-19 15:55,-119.7500,38.9963,1441.42,68.00,35.60,30.21,290.00,4.00,0.00,30.21,M,9.00,M,CLR,M,M,M,M,M,M,M,M,M,M,M,M,M,M,68.00,KMEV 191555Z AUTO 29004KT 9SM CLR 20/02 A3021 RMK AO2,M
HTH,2025-07-19 15:55,-118.6315,38.5448,1282.89,78.80,35.60,21.02,330.00,4.00,0.00,30.16,M,10.00,M,CLR,M,M,M,M,M,M,M,M,M,M,M,M,M,M,78.80,KHTH 191555Z AUTO 33004KT 10SM CLR 26/02 A3016 RMK A01,M
INS,2025-07-19 15:55,-115.6733,36.5872,955.00,85.30,48.40,27.90,0.00,0.00,0.00,30.07,1012.40,10.00,M,CLR,M,M,M,M,M,M,M,M,M,M,M,M,M,M,82.88,KINS 191555Z AUTO 00000KT 10SM CLR 30/09 A3007 RMK AO2 SLP124 T02960091 $,M
LSV,2025-07-19 15:55,-115.0343,36.2362,570.00,89.60,52.00,27.84,0.00,0.00,0.00,29.95,1011.10,10.00,M,SCT,M,M,M,18000.00,M,M,M,M,M,M,M,M,M,M,87.05,KLSV 191555Z 00000KT 10SM SCT180 32/11 A2995 RMK AO2A SLP111 T03200112 CHINO RWY03R $,M
EKO,2025-07-19 15:56,-115.7860,40.8242,1367.00,77.00,39.00,25.50,220.00,7.00,0.00,30.17,1015.10,10.00,M,CLR,M,M,M,M,M,M,M,M,M,M,M,M,M,M,77.00,KEKO 191556Z AUTO 22007KT 10SM CLR 25/04 A3017 RMK AO2 SLP151 T02500039,M
HND,2025-07-19 15:56,-115.1344,35.9729,742.79,89.00,53.00,29.43,M,4.00,0.00,30.05,1015.80,10.00,M,CLR,M,M,M,M,M,M,M,M,M,M,M,M,M,M,86.69,KHND 191556Z AUTO VRB04KT 10SM CLR 32/12 A3005 RMK AO2 SLP158 T03170117 $,M
TPH,2025-07-19 15:56,-117.0904,38.0505,1654.00,74.00,45.00,35.51,340.00,3.00,0.00,30.23,1015.70,10.00,M,CLR,M,M,M,M,M,M,M,M,M,M,M,M,M,M,74.00,KTPH 191556Z AUTO 34003KT 10SM CLR 23/07 A3023 RMK AO2 SLP157 T02330072 $,M
LAS,2025-07-19 15:56,-115.1634,36.0719,663.00,89.00,52.00,28.37,0.00,0.00,0.00,30.02,1013.40,10.00,M,FEW,FEW,M,M,15000.00,20000.00,M,M,M,M,M,M,M,M,M,86.50,KLAS 191556Z 00000KT 10SM FEW150 FEW200 32/11 A3002 RMK AO2 SLP134 T03170111,M
NFL,2025-07-19 15:57,-118.7010,39.4166,1199.00,81.00,44.00,27.13,280.00,7.00,0.00,30.13,1016.70,8.00,M,CLR,M,M,M,M,M,M,M,M,M,M,M,M,M,M,79.61,KNFL 191557Z 28007KT 8SM CLR 27/07 A3013 RMK AO2 SLP167 T02720067,M
TMT,2025-07-19 16:10,-117.1971,39.4643,1749.34,76.60,40.00,26.87,220.00,5.00,0.00,30.25,M,10.00,M,CLR,M,M,M,M,M,M,M,M,M,M,M,M,M,M,76.60,KTMT 191610Z AUTO 22005KT 10SM CLR 25/04 A3025 RMK AO2 T02480044,M
BVU,2025-07-19 16:15,-114.8611,35.9475,671.00,91.40,48.20,22.85,0.00,0.00,0.00,29.98,M,9.00,M,CLR,M,M,M,M,M,M,M,M,M,M,M,M,M,M,88.10,KBVU 191615Z AUTO 00000KT 9SM CLR 33/09 A2998 RMK AO2,M
CXP,2025-07-19 16:15,-119.7326,39.1923,1431.00,73.40,33.80,23.41,0.00,0.00,0.00,30.21,M,10.00,M,CLR,M,M,M,M,M,M,M,M,M,M,M,M,M,M,73.40,KCXP 191615Z AUTO 00000KT 10SM CLR 23/01 A3021 RMK AO2,M
RTS,2025-07-19 16:15,-119.8764,39.6682,1539.00,73.40,32.00,21.77,0.00,0.00,0.00,30.23,M,10.00,M,CLR,M,M,M,M,M,M,M,M,M,M,M,M,M,M,73.40,KRTS 191615Z AUTO 00000KT 10SM CLR 23/00 A3023 RMK AO2,M
05U,2025-07-19 16:15,-116.0051,39.6042,1811.23,77.00,37.40,23.95,230.00,6.00,0.00,30.27,M,10.00,M,CLR,M,M,M,M,M,M,M,M,M,M,M,M,M,M,77.00,K05U 191615Z AUTO 23006KT 10SM CLR 25/03 A3027 RMK A01,M
MEV,2025-07-19 16:15,-119.7500,38.9963,1441.42,71.60,35.60,26.72,290.00,4.00,0.00,30.20,M,10.00,M,CLR,M,M,M,M,M,M,M,M,M,M,M,M,M,M,71.60,KMEV 191615Z AUTO 29004KT 10SM CLR 22/02 A3020 RMK AO2,M
BAM,2025-07-19 16:15,-116.8743,40.5990,1382.36,80.60,33.80,18.45,360.00,3.00,0.00,30.17,M,10.00,M,CLR,M,M,M,M,M,M,M,M,M,M,M,M,M,M,78.88,KBAM 191615Z AUTO 36003KT 10SM CLR 27/01 A3017 RMK AO1,M
HTH,2025-07-19 16:15,-118.6315,38.5448,1282.89,80.60,33.80,18.45,M,3.00,0.00,30.16,M,10.00,M,CLR,M,M,M,M,M,M,M,M,M,M,M,M,M,M,78.88,KHTH 191615Z AUTO VRB03KT 10SM CLR 27/01 A3016 RMK A01,M
MEV,2025-07-19 16:25,-119.7500,38.9963,1441.42,71.60,35.60,26.72,290.00,4.00,0.00,30.19,M,10.00,M,CLR,M,M,M,M,M,M,M,M,M,M,M,M,M,M,71.60,KMEV 191625Z AUTO 29004KT 10SM CLR 22/02 A3019 RMK AO2,M
RTS,2025-07-19 16:25,-119.8764,39.6682,1539.00,73.40,33.80,23.41,0.00,0.00,0.00,30.22,M,10.00,M,CLR,M,M,M,M,M,M,M,M,M,M,M,M,M,M,73.40,KRTS 191625Z AUTO 00000KT 10SM CLR 23/01 A3022 RMK AO2,M
TMT,2025-07-19 16:30,-117.1971,39.4643,1749.34,77.40,39.00,25.17,0.00,0.00,0.00,30.24,M,10.00,M,CLR,M,M,M,M,M,M,M,M,M,M,M,M,M,M,77.40,KTMT 191630Z AUTO 00000KT 10SM CLR 25/04 A3024 RMK AO2 T02520039,M
BAM,2025-07-19 16:35,-116.8743,40.5990,1382.36,82.40,33.80,17.40,30.00,4.00,0.00,30.16,M,10.00,M,CLR,M,M,M,M,M,M,M,M,M,M,M,M,M,M,80.04,KBAM 191635Z AUTO 03004KT 10SM CLR 28/01 A3016 RMK AO1,M
CXP,2025-07-19 16:35,-119.7326,39.1923,1431.00,75.20,32.00,20.50,M,3.00,0.00,30.20,M,10.00,M,CLR,M,M,M,M,M,M,M,M,M,M,M,M,M,M,75.20,KCXP 191635Z AUTO VRB03KT 10SM CLR 24/00 A3020 RMK AO2,M
05U,2025-07-19 16:35,-116.0051,39.6042,1811.23,77.00,39.20,25.70,230.00,5.00,0.00,30.26,M,10.00,M,CLR,M,M,M,M,M,M,M,M,M,M,M,M,M,M,77.00,K05U 191635Z AUTO 23005KT 10SM CLR 25/04 A3026 RMK A01,M
HTH,2025-07-19 16:35,-118.6315,38.5448,1282.89,80.60,33.80,18.45,320.00,5.00,0.00,30.15,M,10.00,M,CLR,M,M,M,M,M,M,M,M,M,M,M,M,M,M,78.88,KHTH 191635Z AUTO 32005KT 10SM CLR 27/01 A3015 RMK A01,M
BVU,2025-07-19 16:35,-114.8611,35.9475,671.00,91.40,48.20,22.85,0.00,0.00,0.00,29.98,M,10.00,M,CLR,M,M,M,M,M,M,M,M,M,M,M,M,M,M,88.10,KBVU 191635Z AUTO 00000KT 10SM CLR 33/09 A2998 RMK AO2,M
TMT,2025-07-19 16:50,-117.1971,39.4643,1749.34,78.40,38.00,23.42,0.00,0.00,0.00,30.24,M,10.00,M,CLR,M,M,M,M,M,M,M,M,M,M,M,M,M,M,78.40,KTMT 191650Z AUTO 00000KT 10SM CLR 26/03 A3024 RMK AO2 T02580034,M
P68,2025-07-19 16:53,-116.0056,39.6014,1993.00,79.00,39.00,23.88,M,3.00,0.00,30.23,1014.70,M,M,M,M,M,M,M,M,M,M,M,M,M,M,M,M,M,79.00,KP68 191653Z AUTO VRB03KT 26/04 A3023 RMK AO1 SLP147 T02610039,M
DRA,2025-07-19 16:53,-116.0278,36.6206,1009.00,91.00,49.00,23.84,M,3.00,0.00,30.07,1012.70,10.00,M,CLR,M,M,M,M,M,M,M,M,M,M,M,M,M,M,87.84,KDRA 191653Z AUTO VRB03KT 10SM CLR 33/09 A3007 RMK AO2 SLP127 T03280094,M
ELY,2025-07-19 16:53,-114.8453,39.2950,1909.00,76.00,42.00,29.62,70.00,3.00,0.00,30.27,1015.10,10.00,M,CLR,M,M,M,M,M,M,M,M,M,M,M,M,M,M,76.00,KELY 191653Z AUTO 07003KT 10SM CLR 24/06 A3027 RMK AO2 SLP151 T02440056,M
VGT,2025-07-19 16:53,-115.1933,36.2111,667.00,91.00,52.00,26.65,M,3.00,0.00,29.99,1014.30,10.00,M,CLR,M,M,M,M,M,M,M,M,M,M,M,M,M,M,88.36,KVGT 191653Z VRB03KT 10SM CLR 33/11 A2999 RMK AO2 SLP143 T03280111,M
LOL,2025-07-19 16:53,-118.5701,40.0684,1192.43,85.00,37.00,18.18,60.00,6.00,0.00,30.11,1015.00,10.00,M,CLR,M,M,M,M,M,M,M,M,M,M,M,M,M,M,81.96,KLOL 191653Z AUTO 06006KT 10SM CLR 29/03 A3011 RMK AO2 SLP150 T02940028,M
RNO,2025-07-19 16:55,-119.7711,39.4839,1341.00,77.00,35.00,21.78,0.00,0.00,0.00,30.17,1015.80,10.00,M,CLR,M,M,M,M,M,M,M,M,M,M,M,M,M,M,77.00,KRNO 191655Z 00000KT 10SM CLR 25/02 A3017 RMK AO2 SLP158 T02500017,M
BAM,2025-07-19 16:55,-116.8743,40.5990,1382.36,82.40,35.60,18.70,340.00,5.00,0.00,30.16,M,10.00,M,CLR,M,M,M,M,M,M,M,M,M,M,M,M,M,M,80.08,KBAM 191655Z AUTO 34005KT 10SM CLR 28/02 A3016 RMK AO1,M
CXP,2025-07-19 16:55,-119.7326,39.1923,1431.00,77.00,33.80,20.76,0.00,0.00,0.00,30.20,M,10.00,M,CLR,M,M,M,M,M,M,M,M,M,M,M,M,M,M,77.00,KCXP 191655Z AUTO 00000KT 10SM CLR 25/01 A3020 RMK AO2,M
05U,2025-07-19 16:55,-116.0051,39.6042,1811.23,78.80,39.20,24.22,0.00,0.00,0.00,30.26,M,10.00,10.00,CLR,M,M,M,M,M,M,M,M,M,M,M,M,M,M,78.80,K05U 191655Z AUTO 00000G10KT 10SM CLR 26/04 A3026 RMK A01,M
HTH,2025-07-19 16:55,-118.6315,38.5448,1282.89,82.40,32.00,16.19,M,4.00,0.00,30.15,M,10.00,M,CLR,M,M,M,M,M,M,M,M,M,M,M,M,M,M,80.00,KHTH 191655Z AUTO VRB04KT 10SM CLR 28/00 A3015 RMK A01,M
INS,2025-07-19 16:55,-115.6733,36.5872,955.00,88.70,47.30,24.04,0.00,0.00,0.00,30.06,1011.90,10.00,M,CLR,M,M,M,M,M,M,M,M,M,M,M,M,M,M,85.55,KINS 191655Z AUTO 00000KT 10SM CLR 32/09 A3006 RMK AO2 SLP119 T03150085 $,M
LSV,2025-07-19 16:55,-115.0343,36.2362,570.00,93.60,49.00,21.99,0.00,0.00,0.00,29.94,1010.70,10.00,M,SCT,M,M,M,20000.00,M,M,M,M,M,M,M,M,M,M,90.33,KLSV 191655Z 00000KT 10SM SCT200 34/09 A2994 RMK AO2A SLP107 T03420094 $,M
EKO,2025-07-19 16:56,-115.7860,40.8242,1367.00,81.00,35.00,19.10,220.00,11.00,0.00,30.17,1015.10,10.00,M,CLR,M,M,M,M,M,M,M,M,M,M,M,M,M,M,79.17,KEKO 191656Z AUTO 22011KT 10SM CLR 27/02 A3017 RMK AO2 SLP151 T02720017,M
HND,2025-07-19 16:56,-115.1344,35.9729,742.79,92.00,53.00,26.80,310.00,4.00,0.00,30.04,1015.40,10.00,M,CLR,M,M,M,M,M,M,M,M,M,M,M,M,M,M,89.54,KHND 191656Z AUTO 31004KT 10SM CLR 33/12 A3004 RMK AO2 SLP154 T03330117 $,M
TPH,2025-07-19 16:56,-117.0904,38.0505,1654.00,78.00,44.00,29.93,M,3.00,0.00,30.22,1015.30,10.00,M,CLR,M,M,M,M,M,M,M,M,M,M,M,M,M,M,78.00,KTPH 191656Z AUTO VRB03KT 10SM CLR 26/07 A3022 RMK AO2 SLP153 T02560067 $,M
LAS,2025-07-19 16:56,-115.1634,36.0719,663.00,92.00,50.00,23.99,0.00,0.00,0.00,30.01,1013.00,10.00,M,FEW,FEW,M,M,15000.00,20000.00,M,M,M,M,M,M,M,M,M,88.95,KLAS 191656Z 00000KT 10SM FEW150 FEW200 33/10 A3001 RMK AO2 SLP130 T03330100,M
NFL,2025-07-19 16:57,-118.7010,39.4166,1199.00,84.00,42.00,22.81,0.00,0.00,0.00,30.11,1016.40,7.00,M,CLR,M,M,M,M,M,M,M,M,M,M,M,M,M,M,81.43,KNFL 191657Z 00000KT 7SM CLR 29/06 A3011 RMK AO2 SLP164 T02890056,M
TMT,2025-07-19 17:10,-117.1971,39.4643,1749.34,80.00,37.20,21.53,0.00,0.00,0.00,30.24,M,10.00,M,CLR,M,M,M,M,M,M,M,M,M,M,M,M,M,M,78.71,KTMT 191710Z AUTO 00000KT 10SM CLR 27/03 A3024 RMK AO2 T02670029,M
BAM,2025-07-19 17:15,-116.8743,40.5990,1382.36,84.20,35.60,17.64,330.00,6.00,0.00,30.16,M,10.00,M,CLR,M,M,M,M,M,M,M,M,M,M,M,M,M,M,81.34,KBAM 191715Z AUTO 33006KT 10SM CLR 29/02 A3016 RMK AO1,M
CXP,2025-07-19 17:15,-119.7326,39.1923,1431.00,78.80,35.60,21.02,0.00,0.00,0.00,30.19,M,10.00,M,CLR,M,M,M,M,M,M,M,M,M,M,M,M,M,M,78.80,KCXP 191715Z AUTO 00000KT 10SM CLR 26/02 A3019 RMK AO2,M
RTS,2025-07-19 17:15,-119.8764,39.6682,1539.00,77.00,35.60,22.31,M,4.00,0.00,30.22,M,10.00,M,CLR,M,M,M,M,M,M,M,M,M,M,M,M,M,M,77.00,KRTS 191715Z AUTO VRB04KT 10SM CLR 25/02 A3022 RMK AO2,M
05U,2025-07-19 17:15,-116.0051,39.6042,1811.23,80.60,39.20,22.84,60.00,4.00,0.00,30.26,M,10.00,10.00,CLR,M,M,M,M,M,M,M,M,M,M,M,M,M,M,79.11,K05U 191715Z AUTO 06004G10KT 10SM CLR 27/04 A3026 RMK A01,M
MEV,2025-07-19 17:15,-119.7500,38.9963,1441.42,77.00,32.00,19.31,0.00,0.00,0.00,30.18,M,10.00,M,CLR,M,M,M,M,M,M,M,M,M,M,M,M,M,M,77.00,KMEV 191715Z AUTO 00000KT 10SM CLR 25/00 A3018 RMK AO2,M
HTH,2025-07-19 17:15,-118.6315,38.5448,1282.89,82.40,33.80,17.40,330.00,5.00,0.00,30.15,M,10.00,M,CLR,M,M,M,M,M,M,M,M,M,M,M,M,M,M,80.04,KHTH 191715Z AUTO 33005KT 10SM CLR 28/01 A3015 RMK A01,M
RTS,2025-07-19 17:25,-119.8764,39.6682,1539.00,77.00,35.60,22.31,M,4.00,0.00,30.22,M,10.00,M,CLR,M,M,M,M,M,M,M,M,M,M,M,M,M,M,77.00,KRTS 191725Z AUTO VRB04KT 10SM CLR 25/02 A3022 RMK AO2,M
MEV,2025-07-19 17:25,-119.7500,38.9963,1441.42,78.80,32.00,18.20,M,3.00,0.00,30.18,M,10.00,M,CLR,M,M,M,M,M,M,M,M,M,M,M,M,M,M,78.80,KMEV 191725Z AUTO VRB03KT 10SM CLR 26/00 A3018 RMK AO2,M
TMT,2025-07-19 17:30,-117.1971,39.4643,1749.34,81.00,36.00,19.88,0.00,0.00,0.00,30.24,M,10.00,M,CLR,M,M,M,M,M,M,M,M,M,M,M,M,M,M,79.20,KTMT 191730Z AUTO 00000KT 10SM CLR 27/02 A3024 RMK AO2 T02730023,M
BAM,2025-07-19 17:35,-116.8743,40.5990,1382.36,86.00,33.80,15.50,330.00,7.00,0.00,30.15,M,10.00,M,CLR,M,M,M,M,M,M,M,M,M,M,M,M,M,M,82.66,KBAM 191735Z AUTO 33007KT 10SM CLR 30/01 A3015 RMK AO1,M
CXP,2025-07-19 17:35,-119.7326,39.1923,1431.00,80.60,35.60,19.82,0.00,0.00,0.00,30.19,M,10.00,M,CLR,M,M,M,M,M,M,M,M,M,M,M,M,M,M,78.95,KCXP 191735Z AUTO 00000KT 10SM CLR 27/02 A3019 RMK AO2,M
05U,2025-07-19 17:35,-116.0051,39.6042,1811.23,80.60,39.20,22.84,0.00,0.00,0.00,30.26,M,10.00,M,CLR,M,M,M,M,M,M,M,M,M,M,M,M,M,M,79.11,K05U 191735Z AUTO 00000KT 10SM CLR 27/04 A3026 RMK A01,M
HTH,2025-07-19 17:35,-118.6315,38.5448,1282.89,84.20,33.80,16.42,320.00,6.00,0.00,30.14,M,10.00,11.00,CLR,M,M,M,M,M,M,M,M,M,M,M,M,M,M,81.30,KHTH 191735Z AUTO 32006G11KT 10SM CLR 29/01 A3014 RMK A01,M
TMT,2025-07-19 17:50,-117.1971,39.4643,1749.34,83.00,36.70,19.15,200.00,7.00,0.00,30.24,M,10.00,M,CLR,M,M,M,M,M,M,M,M,M,M,M,M,M,M,80.52,KTMT 191750Z AUTO 20007KT 10SM CLR 28/03 A3024 RMK AO2 T02840026,M
P68,2025-07-19 17:53,-116.0056,39.6014,1993.00,81.00,37.00,20.68,350.00,4.00,0.00,30.22,1014.40,M,M,M,M,M,M,M,M,M,M,M,M,M,M,M,M,M,79.24,KP68 191753Z AUTO 35004KT 27/03 A3022 RMK AO1 SLP144 T02720028 10272 20100 58004,M
DRA,2025-07-19 17:53,-116.0278,36.6206,1009.00,93.00,49.00,22.41,240.00,7.00,0.00,30.07,1012.40,10.00,M,CLR,M,M,M,M,M,M,M,M,M,M,M,M,M,M,89.75,KDRA 191753Z AUTO 24007KT 220V290 10SM CLR 34/09 A3007 RMK AO2 SLP124 T03390094 10344 20228 58001,M
ELY,2025-07-19 17:53,-114.8453,39.2950,1909.00,80.00,39.00,23.11,M,M,0.00,30.26,1014.50,10.00,M,CLR,M,M,M,M,M,M,M,M,M,M,M,M,M,M,78.79,KELY 191753Z AUTO 10SM CLR 27/04 A3026 RMK AO2 SLP145 T02670039 10267 20072 58006,M
VGT,2025-07-19 17:53,-115.1933,36.2111,667.00,94.00,50.00,22.55,350.00,3.00,0.00,29.98,1014.00,10.00,M,CLR,M,M,M,M,M,M,M,M,M,M,M,M,M,M,90.90,KVGT 191753Z 35003KT 10SM CLR 34/10 A2998 RMK AO2 SLP140 T03440100 10344 20261 58004,M
LOL,2025-07-19 17:53,-118.5701,40.0684,1192.43,88.00,37.00,16.52,80.00,6.00,0.00,30.10,1014.60,10.00,M,CLR,M,M,M,M,M,M,M,M,M,M,M,M,M,M,84.32,KLOL 191753Z AUTO 08006KT 10SM CLR 31/03 A3010 RMK AO2 SLP146 T03110028 10311 20133 58002,M
RNO,2025-07-19 17:55,-119.7711,39.4839,1341.00,81.00,37.00,20.68,0.00,0.00,0.00,30.16,1015.40,10.00,M,CLR,M,M,M,M,M,M,M,M,M,M,M,M,M,M,79.24,KRNO 191755Z 00000KT 10SM CLR 27/03 A3016 RMK AO2 SLP154 T02720028 10272 20172 58007,M
LSV,2025-07-19 17:55,-115.0343,36.2362,570.00,96.80,47.70,18.99,330.00,3.00,0.00,29.93,1010.40,10.00,M,SCT,M,M,M,20000.00,M,M,M,M,M,M,M,M,M,M,93.28,KLSV 191755Z 33003KT 10SM SCT200 36/09 A2993 RMK AO2A SLP104 T03600087 10360 20255 58006 $,M
BAM,2025-07-19 17:55,-116.8743,40.5990,1382.36,86.00,33.80,15.50,320.00,5.00,0.00,30.15,M,10.00,M,CLR,M,M,M,M,M,M,M,M,M,M,M,M,M,M,82.66,KBAM 191755Z AUTO 32005KT 10SM CLR 30/01 A3015 RMK AO1,M
CXP,2025-07-19 17:55,-119.7326,39.1923,1431.00,84.20,35.60,17.64,0.00,0.00,0.00,30.18,M,10.00,M,CLR,M,M,M,M,M,M,M,M,M,M,M,M,M,M,81.34,KCXP 191755Z AUTO 00000KT 10SM CLR 29/02 A3018 RMK AO2,M
RTS,2025-07-19 17:55,-119.8764,39.6682,1539.00,78.80,35.60,21.02,0.00,0.00,0.00,30.21,M,10.00,M,CLR,M,M,M,M,M,M,M,M,M,M,M,M,M,M,78.80,KRTS 191755Z AUTO 00000KT 10SM CLR 26/02 A3021 RMK AO2,M
05U,2025-07-19 17:55,-116.0051,39.6042,1811.23,80.60,37.40,21.28,0.00,0.00,0.00,30.25,M,10.00,M,CLR,M,M,M,M,M,M,M,M,M,M,M,M,M,M,79.02,K05U 191755Z AUTO 00000KT 10SM CLR 27/03 A3025 RMK A01,M
MEV,2025-07-19 17:55,-119.7500,38.9963,1441.42,80.60,33.80,18.45,M,4.00,0.00,30.17,M,10.00,M,CLR,M,M,M,M,M,M,M,M,M,M,M,M,M,M,78.88,KMEV 191755Z AUTO VRB04KT 10SM CLR 27/01 A3017 RMK AO2,M
HTH,2025-07-19 17:55,-118.6315,38.5448,1282.89,86.00,32.00,14.42,340.00,9.00,0.00,30.14,M,10.00,M,CLR,M,M,M,M,M,M,M,M,M,M,M,M,M,M,82.64,KHTH 191755Z AUTO 34009KT 10SM CLR 30/00 A3014 RMK A01,M
INS,2025-07-19 17:55,-115.6733,36.5872,955.00,92.00,45.30,20.10,360.00,4.00,0.00,30.06,1011.90,10.00,M,CLR,M,M,M,M,M,M,M,M,M,M,M,M,M,M,88.31,KINS 191755Z AUTO 36004KT 10SM CLR 33/07 A3006 RMK AO2 SLP119 T03340074 10334 20230 58003 $,M
EKO,2025-07-19 17:56,-115.7860,40.8242,1367.00,86.00,32.00,14.42,210.00,10.00,0.00,30.16,1014.60,10.00,M,CLR,M,M,M,M,M,M,M,M,M,M,M,M,M,M,82.64,KEKO 191756Z AUTO 21010KT 10SM CLR 30/00 A3016 RMK AO2 SLP146 T03000000 10300 20106 58004,M
HND,2025-07-19 17:56,-115.1344,35.9729,742.79,96.00,51.00,22.01,350.00,4.00,0.00,30.03,1015.20,10.00,M,CLR,M,M,M,M,M,M,M,M,M,M,M,M,M,M,93.13,KHND 191756Z AUTO 35004KT 10SM CLR 36/11 A3003 RMK AO2 SLP152 T03560106 10356 20256 58005 $,M
TPH,2025-07-19 17:56,-117.0904,38.0505,1654.00,83.00,43.00,24.48,240.00,6.00,0.00,30.22,1014.60,10.00,M,CLR,M,M,M,M,M,M,M,M,M,M,M,M,M,M,80.80,KTPH 191756Z AUTO 24006KT 10SM CLR 28/06 A3022 RMK AO2 SLP146 T02830061 10283 20144 58003 $,M
LAS,2025-07-19 17:56,-115.1634,36.0719,663.00,96.00,50.00,21.21,80.00,4.00,0.00,30.00,1012.80,10.00,M,FEW,FEW,M,M,15000.00,20000.00,M,M,M,M,M,M,M,M,M,92.91,KLAS 191756Z 08004KT 10SM FEW150 FEW200 36/10 A3000 RMK AO2 SLP128 T03560100 10356 20272 58004,M
NFL,2025-07-19 17:57,-118.7010,39.4166,1199.00,88.00,42.00,20.08,M,5.00,0.00,30.11,1016.20,7.00,M,CLR,M,M,M,M,M,M,M,M,M,M,M,M,M,M,84.52,KNFL 191757Z VRB05KT 7SM CLR 31/06 A3011 RMK AO2 SLP162 T03110056 10311 20156 58003,M
RTS,2025-07-19 18:10,-119.8764,39.6682,1539.00,80.60,35.60,19.82,120.00,6.00,0.00,30.21,M,10.00,M,CLR,M,M,M,M,M,M,M,M,M,M,M,M,M,M,78.95,KRTS 191810Z AUTO 12006KT 10SM CLR 27/02 A3021 RMK AO2,M
TMT,2025-07-19 18:10,-117.1971,39.4643,1749.34,83.50,36.00,18.33,240.00,6.00,0.00,30.23,M,10.00,M,CLR,M,M,M,M,M,M,M,M,M,M,M,M,M,M,80.85,KTMT 191810Z AUTO 24006KT 10SM CLR 29/02 A3023 RMK AO2 T02860022,M
MEV,2025-07-19 18:10,-119.7500,38.9963,1441.42,82.40,33.80,17.40,0.00,0.00,0.00,30.17,M,10.00,M,CLR,M,M,M,M,M,M,M,M,M,M,M,M,M,M,80.04,KMEV 191810Z AUTO 00000KT 10SM CLR 28/01 A3017 RMK AO2,M
BVU,2025-07-19 18:15,-114.8611,35.9475,671.00,96.80,46.40,18.08,M,4.00,0.00,29.97,M,10.00,M,CLR,M,M,M,M,M,M,M,M,M,M,M,M,M,M,93.07,KBVU 191815Z AUTO VRB04KT 10SM CLR 36/08 A2997 RMK AO2,M
BAM,2025-07-19 18:15,-116.8743,40.5990,1382.36,87.80,33.80,14.64,340.00,4.00,0.00,30.14,M,10.00,M,CLR,M,M,M,M,M,M,M,M,M,M,M,M,M,M,84.10,KBAM 191815Z AUTO 34004KT 10SM CLR 31/01 A3014 RMK AO1,M
CXP,2025-07-19 18:15,-119.7326,39.1923,1431.00,84.20,33.80,16.42,M,4.00,0.00,30.18,M,10.00,M,CLR,M,M,M,M,M,M,M,M,M,M,M,M,M,M,81.30,KCXP 191815Z AUTO VRB04KT 10SM CLR 29/01 A3018 RMK AO2,M
05U,2025-07-19 18:15,-116.0051,39.6042,1811.23,84.20,28.40,13.20,260.00,9.00,0.00,30.25,M,10.00,M,CLR,M,M,M,M,M,M,M,M,M,M,M,M,M,M,81.25,K05U 191815Z AUTO 26009KT 210V280 10SM CLR 29/M02 A3025 RMK A01,M
HTH,2025-07-19 18:15,-118.6315,38.5448,1282.89,86.00,32.00,14.42,330.00,6.00,0.00,30.13,M,10.00,12.00,CLR,M,M,M,M,M,M,M,M,M,M,M,M,M,M,82.64,KHTH 191815Z AUTO 33006G12KT 10SM CLR 30/00 A3013 RMK A01,M
TMT,2025-07-19 18:30,-117.1971,39.4643,1749.34,85.00,34.00,16.14,200.00,5.00,0.00,30.22,M,10.00,M,CLR,M,M,M,M,M,M,M,M,M,M,M,M,M,M,81.90,KTMT 191830Z AUTO 20005KT 10SM CLR 30/01 A3022 RMK AO2 T02950012,M
BAM,2025-07-19 18:35,-116.8743,40.5990,1382.36,87.80,35.60,15.73,120.00,3.00,0.00,30.14,M,10.00,M,CLR,M,M,M,M,M,M,M,M,M,M,M,M,M,M,84.12,KBAM 191835Z AUTO 12003KT 10SM CLR 31/02 A3014 RMK AO1,M
CXP,2025-07-19 18:35,-119.7326,39.1923,1431.00,86.00,33.80,15.50,0.00,0.00,0.00,30.17,M,10.00,M,CLR,M,M,M,M,M,M,M,M,M,M,M,M,M,M,82.66,KCXP 191835Z AUTO 00000KT 10SM CLR 30/01 A3017 RMK AO2,M
RTS,2025-07-19 18:35,-119.8764,39.6682,1539.00,82.40,33.80,17.40,0.00,0.00,0.00,30.20,M,10.00,M,CLR,M,M,M,M,M,M,M,M,M,M,M,M,M,M,80.04,KRTS 191835Z AUTO 00000KT 10SM CLR 28/01 A3020 RMK AO2,M
05U,2025-07-19 18:35,-116.0051,39.6042,1811.23,84.20,30.20,14.20,290.00,7.00,0.00,30.24,M,10.00,M,CLR,M,M,M,M,M,M,M,M,M,M,M,M,M,M,81.26,K05U 191835Z AUTO 29007KT 10SM CLR 29/M01 A3024 RMK A01,M
HTH,2025-07-19 18:35,-118.6315,38.5448,1282.89,87.80,32.00,13.62,M,6.00,0.00,30.13,M,10.00,M,CLR,M,M,M,M,M,M,M,M,M,M,M,M,M,M,84.08,KHTH 191835Z AUTO VRB06KT 10SM CLR 31/00 A3013 RMK A01,M
BVU,2025-07-19 18:35,-114.8611,35.9475,671.00,96.80,44.60,16.89,M,5.00,0.00,29.97,M,10.00,M,CLR,M,M,M,M,M,M,M,M,M,M,M,M,M,M,92.81,KBVU 191835Z AUTO VRB05KT 10SM CLR 36/07 A2997 RMK AO2,M
RTS,2025-07-19 18:45,-119.8764,39.6682,1539.00,84.20,32.00,15.28,180.00,8.00,0.00,30.20,M,10.00,M,CLR,M,M,M,M,M,M,M,M,M,M,M,M,M,M,81.28,KRTS 191845Z AUTO 18008KT 130V190 10SM CLR 29/00 A3020 RMK AO2,M
TMT,2025-07-19 18:50,-117.1971,39.4643,1749.34,86.00,33.00,15.02,230.00,14.00,0.00,30.22,M,10.00,19.00,SCT,M,M,M,12000.00,M,M,M,M,M,M,M,M,M,M,82.65,KTMT 191850Z AUTO 23014G19KT 10SM SCT120 30/01 A3022 RMK AO2 T03010005,M
P68,2025-07-19 18:53,-116.0056,39.6014,1993.00,87.00,27.00,11.39,290.00,12.00,0.00,30.21,1013.90,M,22.00,M,M,M,M,M,M,M,M,M,M,M,M,M,M,M,83.14,KP68 191853Z AUTO 29012G22KT 260V320 31/M03 A3021 RMK AO1 SLP139 T03061028,M
DRA,2025-07-19 18:53,-116.0278,36.6206,1009.00,96.00,48.00,19.68,230.00,8.00,0.00,30.06,1012.00,10.00,M,CLR,M,M,M,M,M,M,M,M,M,M,M,M,M,M,92.54,KDRA 191853Z AUTO 23008KT 10SM CLR 36/09 A3006 RMK AO2 SLP120 T03560089,M
ELY,2025-07-19 18:53,-114.8453,39.2950,1909.00,84.00,24.00,11.07,280.00,9.00,0.00,30.24,1013.80,10.00,18.00,FEW,M,M,M,11000.00,M,M,M,M,M,M,M,M,M,M,80.81,KELY 191853Z AUTO 28009G18KT 10SM FEW110 29/M04 A3024 RMK AO2 SLP138 T02891044,M
VGT,2025-07-19 18:53,-115.1933,36.2111,667.00,98.00,48.00,18.52,180.00,3.00,0.00,29.97,1013.40,10.00,M,CLR,M,M,M,M,M,M,M,M,M,M,M,M,M,M,94.55,KVGT 191853Z 18003KT 10SM CLR 37/09 A2997 RMK AO2 SLP134 T03670089,M
LOL,2025-07-19 18:53,-118.5701,40.0684,1192.43,89.00,37.00,16.01,120.00,5.00,0.00,30.08,1014.00,10.00,M,CLR,M,M,M,M,M,M,M,M,M,M,M,M,M,M,85.15,KLOL 191853Z AUTO 12005KT 10SM CLR 32/03 A3008 RMK AO2 SLP140 T03170028,M
RNO,2025-07-19 18:55,-119.7711,39.4839,1341.00,86.00,37.00,17.61,M,4.00,0.00,30.14,1014.40,10.00,M,FEW,M,M,M,9000.00,M,M,M,M,M,M,M,M,M,M,82.72,KRNO 191855Z VRB04KT 10SM FEW090 30/03 A3014 RMK AO2 SLP144 T03000028,M
BAM,2025-07-19 18:55,-116.8743,40.5990,1382.36,89.60,35.60,14.87,40.00,5.00,0.00,30.13,M,10.00,M,CLR,M,M,M,M,M,M,M,M,M,M,M,M,M,M,85.62,KBAM 191855Z AUTO 04005KT 10SM CLR 32/02 A3013 RMK AO1,M
CXP,2025-07-19 18:55,-119.7326,39.1923,1431.00,86.00,35.60,16.66,0.00,0.00,0.00,30.16,M,10.00,M,CLR,M,M,M,M,M,M,M,M,M,M,M,M,M,M,82.69,KCXP 191855Z AUTO 00000KT 10SM CLR 30/02 A3016 RMK AO2,M
05U,2025-07-19 18:55,-116.0051,39.6042,1811.23,86.00,26.60,11.57,310.00,9.00,0.00,30.24,M,10.00,17.00,CLR,M,M,M,M,M,M,M,M,M,M,M,M,M,M,82.40,K05U 191855Z AUTO 31009G17KT 10SM CLR 30/M03 A3024 RMK A01,M
HTH,2025-07-19 18:55,-118.6315,38.5448,1282.89,87.80,32.00,13.62,M,5.00,0.00,30.11,M,10.00,11.00,CLR,M,M,M,M,M,M,M,M,M,M,M,M,M,M,84.08,KHTH 191855Z AUTO VRB05G11KT 10SM CLR 31/M00 A3011 RMK A01,M
INS,2025-07-19 18:55,-115.6733,36.5872,955.00,93.00,43.00,17.85,190.00,4.00,0.00,30.04,1011.10,10.00,M,CLR,M,M,M,M,M,M,M,M,M,M,M,M,M,M,89.01,KINS 191855Z AUTO 19004KT 10SM CLR 34/06 A3004 RMK AO2 SLP111 T03390062 $,M
LSV,2025-07-19 18:55,-115.0343,36.2362,570.00,100.00,42.00,13.88,260.00,6.00,0.00,29.92,1010.00,10.00,M,SCT,M,M,M,18000.00,M,M,M,M,M,M,M,M,M,M,95.56,KLSV 191855Z 26006KT 10SM SCT180 38/06 A2992 RMK AO2A SLP100 T03770056 $,M
EKO,2025-07-19 18:56,-115.7860,40.8242,1367.00,87.00,30.00,12.88,270.00,10.00,0.00,30.14,1013.80,10.00,18.00,CLR,M,M,M,M,M,M,M,M,M,M,M,M,M,M,83.41,KEKO 191856Z AUTO 27010G18KT 10SM CLR 31/M01 A3014 RMK AO2 SLP138 T03061011,M
HND,2025-07-19 18:56,-115.1344,35.9729,742.79,100.00,45.00,15.57,190.00,10.00,0.00,30.01,1014.40,10.00,15.00,CLR,M,M,M,M,M,M,M,M,M,M,M,M,M,M,96.01,KHND 191856Z AUTO 19010G15KT 10SM CLR 38/07 A3001 RMK AO2 SLP144 T03780072 $,M
TPH,2025-07-19 18:56,-117.0904,38.0505,1654.00,85.00,41.00,21.25,220.00,9.00,0.00,30.21,1014.10,10.00,M,CLR,M,M,M,M,M,M,M,M,M,M,M,M,M,M,82.10,KTPH 191856Z AUTO 22009KT 10SM CLR 29/05 A3021 RMK AO2 SLP141 T02940050 $,M
LAS,2025-07-19 18:56,-115.1634,36.0719,663.00,100.00,45.00,15.57,M,4.00,0.00,29.98,1012.10,10.00,M,FEW,FEW,M,M,12000.00,20000.00,M,M,M,M,M,M,M,M,M,96.01,KLAS 191856Z VRB04KT 10SM FEW120 FEW200 38/07 A2998 RMK AO2 SLP121 T03780072,M
NFL,2025-07-19 18:57,-118.7010,39.4166,1199.00,92.00,41.00,17.05,360.00,5.00,0.00,30.09,1015.60,7.00,M,FEW,M,M,M,8000.00,M,M,M,M,M,M,M,M,M,M,87.94,KNFL 191857Z 36005KT 7SM FEW080 33/05 A3009 RMK AO2 SLP156 T03330050,M
TMT,2025-07-19 19:10,-117.1971,39.4643,1749.34,87.40,33.00,14.36,250.00,8.00,0.00,30.22,M,10.00,16.00,SCT,M,M,M,12000.00,M,M,M,M,M,M,M,M,M,M,83.76,KTMT 191910Z AUTO 25008G16KT 10SM SCT120 31/01 A3022 RMK AO2 T03080006,M
BAM,2025-07-19 19:15,-116.8743,40.5990,1382.36,89.60,35.60,14.87,20.00,5.00,0.00,30.12,M,10.00,M,CLR,M,M,M,M,M,M,M,M,M,M,M,M,M,M,85.62,KBAM 191915Z AUTO 02005KT 10SM CLR 32/02 A3012 RMK AO1,M
CXP,2025-07-19 19:15,-119.7326,39.1923,1431.00,87.80,32.00,13.62,M,3.00,0.00,30.15,M,10.00,M,CLR,M,M,M,M,M,M,M,M,M,M,M,M,M,M,84.08,KCXP 191915Z AUTO VRB03KT 10SM CLR 31/M00 A3015 RMK AO2,M
05U,2025-07-19 19:15,-116.0051,39.6042,1811.23,86.00,28.40,12.46,260.00,12.00,0.00,30.24,M,10.00,M,CLR,M,M,M,M,M,M,M,M,M,M,M,M,M,M,82.54,K05U 191915Z AUTO 26012KT 10SM CLR 30/M02 A3024 RMK A01,M
HTH,2025-07-19 19:15,-118.6315,38.5448,1282.89,87.80,30.20,12.66,350.00,4.00,0.00,30.11,M,10.00,M,CLR,M,M,M,M,M,M,M,M,M,M,M,M,M,M,84.01,KHTH 191915Z AUTO 35004KT 10SM CLR 31/M01 A3011 RMK A01,M
TMT,2025-07-19 19:30,-117.1971,39.4643,1749.34,88.00,32.00,13.54,230.00,6.00,0.00,30.21,M,10.00,17.00,BKN,M,M,M,12000.00,M,M,M,M,M,M,M,M,M,M,84.24,KTMT 191930Z AUTO 23006G17KT 10SM BKN120 31/00 A3021 RMK AO2 T03111001,M
LSV,2025-07-19 19:32,-115.0343,36.2362,570.00,102.20,32.00,8.76,250.00,12.00,0.00,29.90,1009.30,10.00,17.00,CLR,M,M,M,M,M,M,M,M,M,M,M,M,M,M,95.76,KLSV 191932Z AUTO 25012G17KT 10SM CLR 39/00 A2990 RMK AO2 WSHFT 31 SLP093 $,M
BAM,2025-07-19 19:35,-116.8743,40.5990,1382.36,91.40,35.60,14.05,10.00,10.00,0.00,30.11,M,10.00,15.00,CLR,M,M,M,M,M,M,M,M,M,M,M,M,M,M,87.17,KBAM 191935Z AUTO 01010G15KT 10SM CLR 33/02 A3011 RMK AO1,M
CXP,2025-07-19 19:35,-119.7326,39.1923,1431.00,89.60,24.80,9.58,340.00,10.00,0.00,30.15,M,10.00,M,CLR,M,M,M,M,M,M,M,M,M,M,M,M,M,M,84.88,KCXP 191935Z AUTO 34010KT 10SM CLR 32/M04 A3015 RMK AO2,M
05U,2025-07-19 19:35,-116.0051,39.6042,1811.23,87.80,28.40,11.77,240.00,13.00,0.00,30.23,M,10.00,19.00,FEW,M,M,M,12000.00,M,M,M,M,M,M,M,M,M,M,83.84,K05U 191935Z AUTO 24013G19KT 220V280 10SM FEW120 31/M02 A3023 RMK A01,M
HTH,2025-07-19 19:35,-118.6315,38.5448,1282.89,89.60,30.20,11.97,340.00,8.00,0.00,30.10,M,10.00,M,CLR,M,M,M,M,M,M,M,M,M,M,M,M,M,M,85.35,KHTH 191935Z AUTO 34008KT 10SM CLR 32/M01 A3010 RMK A01,M
LSV,2025-07-19 19:39,-115.0343,36.2362,570.00,104.00,26.60,6.66,210.00,12.00,0.00,29.90,1009.30,10.00,19.00,CLR,M,M,M,M,M,M,M,M,M,M,M,M,M,M,96.61,KLSV 191939Z AUTO 21012G19KT 10SM CLR 40/M03 A2990 RMK AO2 WSHFT 33 SLP093 $,M
TMT,2025-07-19 19:50,-117.1971,39.4643,1749.34,85.60,31.30,14.20,340.00,9.00,0.00,30.21,M,10.00,18.00,SCT,M,M,M,12000.00,M,M,M,M,M,M,M,M,M,M,82.33,KTMT 191950Z AUTO 34009G18KT 10SM SCT120 30/00 A3021 RMK AO2 T02981004,M
P68,2025-07-19 19:53,-116.0056,39.6014,1993.00,86.00,30.00,13.30,210.00,8.00,0.00,30.19,1013.80,M,M,M,M,M,M,M,M,M,M,M,M,M,M,M,M,M,82.64,KP68 191953Z AUTO 21008KT 30/M01 A3019 RMK AO1 SLP138 T03001011,M
DRA,2025-07-19 19:53,-116.0278,36.6206,1009.00,97.00,48.00,19.09,260.00,10.00,0.00,30.04,1011.40,10.00,16.00,CLR,M,M,M,M,M,M,M,M,M,M,M,M,M,M,93.54,KDRA 191953Z AUTO 26010G16KT 10SM CLR 36/09 A3004 RMK AO2 SLP114 T03610089,M
ELY,2025-07-19 19:53,-114.8453,39.2950,1909.00,85.00,28.00,12.65,M,5.00,0.00,30.23,1013.60,10.00,16.00,CLR,M,M,M,M,M,M,M,M,M,M,M,M,M,M,81.80,KELY 191953Z AUTO VRB05G16KT 10SM CLR 29/M02 A3023 RMK AO2 SLP136 T02941022,M
VGT,2025-07-19 19:53,-115.1933,36.2111,667.00,101.00,36.00,10.65,80.00,5.00,0.00,29.94,1012.30,10.00,17.00,CLR,M,M,M,M,M,M,M,M,M,M,M,M,M,M,95.36,KVGT 191953Z 08005G17KT 10SM CLR 38/02 A2994 RMK AO2 SLP123 T03830022,M
LOL,2025-07-19 19:53,-118.5701,40.0684,1192.43,93.00,35.00,13.06,250.00,10.00,0.00,30.07,1013.10,10.00,14.00,CLR,M,M,M,M,M,M,M,M,M,M,M,M,M,M,88.56,KLOL 191953Z AUTO 25010G14KT 10SM CLR 34/02 A3007 RMK AO2 SLP131 T03390017,M
RNO,2025-07-19 19:55,-119.7711,39.4839,1341.00,90.00,28.00,10.80,M,3.00,0.00,30.12,1013.40,10.00,M,FEW,M,M,M,10000.00,M,M,M,M,M,M,M,M,M,M,85.44,KRNO 191955Z VRB03KT 10SM FEW100 32/M02 A3012 RMK AO2 SLP134 T03221022,M
BAM,2025-07-19 19:55,-116.8743,40.5990,1382.36,89.60,35.60,14.87,30.00,5.00,0.00,30.11,M,10.00,M,CLR,M,M,M,M,M,M,M,M,M,M,M,M,M,M,85.62,KBAM 191955Z AUTO 03005KT 10SM CLR 32/02 A3011 RMK AO1,M
CXP,2025-07-19 19:55,-119.7326,39.1923,1431.00,89.60,26.60,10.32,M,5.00,0.00,30.15,M,10.00,14.00,CLR,M,M,M,M,M,M,M,M,M,M,M,M,M,M,85.02,KCXP 191955Z AUTO VRB05G14KT 10SM CLR 32/M03 A3015 RMK AO2,M
INS,2025-07-19 19:55,-115.6733,36.5872,955.00,95.50,42.00,15.91,260.00,3.00,0.00,30.02,1010.50,10.00,M,CLR,M,M,M,M,M,M,M,M,M,M,M,M,M,M,91.26,KINS 191955Z AUTO 26003KT 10SM CLR 35/06 A3002 RMK AO2 SLP105 T03530056 $,M
05U,2025-07-19 19:55,-116.0051,39.6042,1811.23,86.00,28.40,12.46,250.00,8.00,0.00,30.23,M,10.00,13.00,CLR,M,M,M,M,M,M,M,M,M,M,M,M,M,M,82.54,K05U 191955Z AUTO 25008G13KT 140V290 10SM CLR 30/M02 A3023 RMK A01,M
HTH,2025-07-19 19:55,-118.6315,38.5448,1282.89,91.40,30.20,11.31,320.00,6.00,0.00,30.09,M,10.00,M,CLR,M,M,M,M,M,M,M,M,M,M,M,M,M,M,86.71,KHTH 191955Z AUTO 32006KT 10SM CLR 33/M01 A3009 RMK A01,M
LSV,2025-07-19 19:55,-115.0343,36.2362,570.00,102.70,26.80,6.98,230.00,12.00,0.00,29.89,1008.90,10.00,17.00,FEW,M,M,M,18000.00,M,M,M,M,M,M,M,M,M,M,95.54,KLSV 191955Z 23012G17KT 10SM FEW180 39/M03 A2989 RMK AO2A SLP089 T03931029 $,M
EKO,2025-07-19 19:56,-115.7860,40.8242,1367.00,88.00,26.00,10.59,250.00,16.00,0.00,30.13,1013.80,10.00,26.00,CLR,M,M,M,M,M,M,M,M,M,M,M,26.00,240.00,2025-07-19 19:56,83.79,KEKO 191956Z AUTO 25016G26KT 10SM CLR 31/M03 A3013 RMK AO2 PK WND 24026/1956 SLP138 T03111033,M
HND,2025-07-19 19:56,-115.1344,35.9729,742.79,101.00,44.00,14.54,240.00,10.00,0.00,29.99,1013.70,10.00,23.00,CLR,M,M,M,M,M,M,M,M,M,M,M,M,M,M,96.82,KHND 191956Z AUTO 24010G23KT 10SM CLR 38/07 A2999 RMK AO2 SLP137 T03830067 $,M
TPH,2025-07-19 19:56,-117.0904,38.0505,1654.00,88.00,28.00,11.50,250.00,6.00,0.00,30.18,1013.60,10.00,M,CLR,M,M,M,M,M,M,M,M,M,M,M,M,M,M,83.95,KTPH 191956Z AUTO 25006KT 10SM CLR 31/M02 A3018 RMK AO2 SLP136 T03111022 $,M
LAS,2025-07-19 19:56,-115.1634,36.0719,663.00,102.00,39.00,11.64,170.00,13.00,0.00,29.96,1011.30,10.00,23.00,FEW,FEW,M,M,12000.00,20000.00,M,M,M,M,M,M,M,M,M,96.80,KLAS 191956Z 17013G23KT 140V210 10SM FEW120 FEW200 39/04 A2996 RMK AO2 SLP113 T03890039,M
NFL,2025-07-19 19:57,-118.7010,39.4166,1199.00,94.00,39.00,14.83,M,3.00,0.00,30.07,1015.10,8.00,M,FEW,M,M,M,9000.00,M,M,M,M,M,M,M,M,M,M,89.64,KNFL 191957Z COR VRB03KT 8SM FEW090 34/04 A3007 RMK AO2 SLP151 T03440039,M
TMT,2025-07-19 20:10,-117.1971,39.4643,1749.34,87.40,29.30,12.36,0.00,0.00,0.00,30.19,M,10.00,M,CLR,M,M,M,M,M,M,M,M,M,M,M,M,M,M,83.63,KTMT 192010Z AUTO 00000KT 10SM CLR 31/M01 A3019 RMK AO2 T03081015,M
BAM,2025-07-19 20:15,-116.8743,40.5990,1382.36,91.40,33.80,13.08,360.00,5.00,0.00,30.10,M,10.00,M,CLR,M,M,M,M,M,M,M,M,M,M,M,M,M,M,87.13,KBAM 192015Z AUTO 36005KT 10SM CLR 33/01 A3010 RMK AO1,M
CXP,2025-07-19 20:15,-119.7326,39.1923,1431.00,89.60,26.60,10.32,340.00,5.00,0.00,30.14,M,10.00,11.00,CLR,M,M,M,M,M,M,M,M,M,M,M,M,M,M,85.02,KCXP 192015Z AUTO 34005G11KT 10SM CLR 32/M03 A3014 RMK AO2,M
RTS,2025-07-19 20:15,-119.8764,39.6682,1539.00,87.80,26.60,10.93,M,6.00,0.00,30.17,M,10.00,13.00,CLR,M,M,M,M,M,M,M,M,M,M,M,M,M,M,83.69,KRTS 192015Z AUTO VRB06G13KT 10SM CLR 31/M03 A3017 RMK AO2,M
05U,2025-07-19 20:15,-116.0051,39.6042,1811.23,87.80,26.60,10.93,M,6.00,0.00,30.22,M,10.00,19.00,CLR,M,M,M,M,M,M,M,M,M,M,M,M,M,M,83.69,K05U 192015Z AUTO VRB06G19KT 10SM CLR 31/M03 A3022 RMK A01,M
MEV,2025-07-19 20:15,-119.7500,38.9963,1441.42,91.40,32.00,12.17,M,5.00,0.00,30.12,M,10.00,11.00,CLR,M,M,M,M,M,M,M,M,M,M,M,M,M,M,86.92,KMEV 192015Z AUTO VRB05G11KT 10SM CLR 33/M00 A3012 RMK AO2,M
HTH,2025-07-19 20:15,-118.6315,38.5448,1282.89,91.40,30.20,11.31,M,3.00,0.00,30.08,M,10.00,M,CLR,M,M,M,M,M,M,M,M,M,M,M,M,M,M,86.71,KHTH 192015Z AUTO VRB03KT 10SM CLR 33/M01 A3008 RMK A01,M
HTH,2025-07-19 20:30,-118.6315,38.5448,1282.89,93.20,24.80,8.56,M,6.00,0.00,30.07,M,10.00,M,CLR,M,M,M,M,M,M,M,M,M,M,M,M,M,M,87.57,KHTH 192030Z AUTO VRB06KT 10SM CLR 34/M04 A3007 RMK A01,M
TMT,2025-07-19 20:30,-117.1971,39.4643,1749.34,86.40,31.00,13.68,330.00,7.00,0.00,30.19,M,10.00,M,CLR,M,M,M,M,M,M,M,M,M,M,M,M,M,M,82.95,KTMT 192030Z AUTO 33007KT 10SM CLR 30/00 A3019 RMK AO2 T03021005,M
BAM,2025-07-19 20:35,-116.8743,40.5990,1382.36,93.20,33.80,12.37,330.00,8.00,0.00,30.09,M,10.00,M,CLR,M,M,M,M,M,M,M,M,M,M,M,M,M,M,88.56,KBAM 192035Z AUTO 33008KT 10SM CLR 34/01 A3009 RMK AO1,M
CXP,2025-07-19 20:35,-119.7326,39.1923,1431.00,91.40,28.40,10.51,310.00,8.00,0.00,30.13,M,10.00,M,CLR,M,M,M,M,M,M,M,M,M,M,M,M,M,M,86.53,KCXP 192035Z AUTO 31008KT 10SM CLR 33/M02 A3013 RMK AO2,M
RTS,2025-07-19 20:35,-119.8764,39.6682,1539.00,87.80,26.60,10.93,340.00,7.00,0.00,30.16,M,10.00,13.00,CLR,M,M,M,M,M,M,M,M,M,M,M,M,M,M,83.69,KRTS 192035Z AUTO 34007G13KT 310V010 10SM CLR 31/M03 A3016 RMK AO2,M
05U,2025-07-19 20:35,-116.0051,39.6042,1811.23,87.80,26.60,10.93,0.00,0.00,0.00,30.21,M,10.00,M,FEW,M,M,M,12000.00,M,M,M,M,M,M,M,M,M,M,83.69,K05U 192035Z AUTO 00000KT 10SM FEW120 31/M03 A3021 RMK A01,M
MEV,2025-07-19 20:35,-119.7500,38.9963,1441.42,91.40,28.40,10.51,340.00,9.00,0.00,30.12,M,10.00,15.00,CLR,M,M,M,M,M,M,M,M,M,M,M,M,M,M,86.53,KMEV 192035Z AUTO 34009G15KT 10SM CLR 33/M02 A3012 RMK AO2,M
MEV,2025-07-19 20:50,-119.7500,38.9963,1441.42,91.40,30.20,11.31,260.00,6.00,0.00,30.11,M,10.00,16.00,CLR,M,M,M,M,M,M,M,M,M,M,M,M,M,M,86.71,KMEV 192050Z AUTO 26006G16KT 10SM CLR 33/M01 A3011 RMK AO2,M
TMT,2025-07-19 20:50,-117.1971,39.4643,1749.34,87.60,32.00,13.71,270.00,5.00,0.00,30.18,M,10.00,16.00,CLR,M,M,M,M,M,M,M,M,M,M,M,M,M,M,83.92,KTMT 192050Z AUTO 27005G16KT 10SM CLR 31/00 A3018 RMK AO2 T03090001,M
P68,2025-07-19 20:53,-116.0056,39.6014,1993.00,90.00,27.00,10.37,240.00,7.00,0.00,30.17,1012.20,M,19.00,M,M,M,M,M,M,M,M,M,M,M,M,M,M,M,85.35,KP68 192053Z AUTO 24007G19KT 200V270 32/M03 A3017 RMK AO1 SLP122 T03221028 58016,M
DRA,2025-07-19 20:53,-116.0278,36.6206,1009.00,99.00,49.00,18.66,210.00,10.00,0.00,30.01,1010.50,10.00,22.00,CLR,M,M,M,M,M,M,M,M,M,M,M,M,M,M,95.77,KDRA 192053Z AUTO 21010G22KT 10SM CLR 37/09 A3001 RMK AO2 SLP105 T03720094 58017,M
ELY,2025-07-19 20:53,-114.8453,39.2950,1909.00,84.00,25.00,11.54,340.00,7.00,0.00,30.21,1013.40,10.00,19.00,FEW,M,M,M,12000.00,M,M,M,M,M,M,M,M,M,M,80.88,KELY 192053Z AUTO 34007G19KT 290V010 10SM FEW120 29/M04 A3021 RMK AO2 SLP134 T02891039 58014,M
VGT,2025-07-19 20:53,-115.1933,36.2111,667.00,101.00,39.00,11.99,M,5.00,0.00,29.92,1011.60,10.00,18.00,CLR,M,M,M,M,M,M,M,M,M,M,M,M,M,M,95.93,KVGT 192053Z VRB05G18KT 10SM CLR 38/04 A2992 RMK AO2 SLP116 T03830039 58021,M
LOL,2025-07-19 20:53,-118.5701,40.0684,1192.43,96.00,33.00,10.99,210.00,7.00,0.00,30.04,1012.00,10.00,M,CLR,M,M,M,M,M,M,M,M,M,M,M,M,M,M,90.68,KLOL 192053Z AUTO 21007KT 10SM CLR 36/01 A3004 RMK AO2 SLP120 T03560006 58018,M
BVU,2025-07-19 20:55,-114.8611,35.9475,671.00,100.40,42.80,14.14,0.00,0.00,0.00,29.92,M,10.00,10.00,FEW,M,M,M,12000.00,M,M,M,M,M,M,M,M,M,M,96.05,KBVU 192055Z AUTO 00000G10KT 10SM FEW120 38/06 A2992 RMK AO2,M
RNO,2025-07-19 20:55,-119.7711,39.4839,1341.00,92.00,28.00,10.15,180.00,8.00,0.00,30.09,1012.60,10.00,17.00,FEW,M,M,M,10000.00,M,M,M,M,M,M,M,M,M,M,86.95,KRNO 192055Z 18008G17KT 10SM FEW100 33/M02 A3009 RMK AO2 SLP126 T03331022 58022,M
BAM,2025-07-19 20:55,-116.8743,40.5990,1382.36,95.00,32.00,10.89,360.00,7.00,0.00,30.08,M,10.00,M,CLR,M,M,M,M,M,M,M,M,M,M,M,M,M,M,89.72,KBAM 192055Z AUTO 36007KT 10SM CLR 35/00 A3008 RMK AO1,M
CXP,2025-07-19 20:55,-119.7326,39.1923,1431.00,91.40,28.40,10.51,M,6.00,0.00,30.12,M,10.00,13.00,CLR,M,M,M,M,M,M,M,M,M,M,M,M,M,M,86.53,KCXP 192055Z AUTO VRB06G13KT 10SM CLR 33/M02 A3012 RMK AO2,M
RTS,2025-07-19 20:55,-119.8764,39.6682,1539.00,89.60,28.40,11.12,290.00,10.00,0.00,30.15,M,10.00,15.00,CLR,M,M,M,M,M,M,M,M,M,M,M,M,M,M,85.18,KRTS 192055Z AUTO 29010G15KT 10SM CLR 32/M02 A3015 RMK AO2,M
05U,2025-07-19 20:55,-116.0051,39.6042,1811.23,89.60,26.60,10.32,210.00,10.00,0.00,30.20,M,10.00,16.00,CLR,M,M,M,M,M,M,M,M,M,M,M,M,M,M,85.02,K05U 192055Z AUTO 21010G16KT 10SM CLR 32/M03 A3020 RMK A01,M
HTH,2025-07-19 20:55,-118.6315,38.5448,1282.89,95.00,24.80,8.10,360.00,10.00,0.00,30.05,M,10.00,M,CLR,M,M,M,M,M,M,M,M,M,M,M,M,M,M,88.92,KHTH 192055Z AUTO 36010KT 10SM CLR 35/M04 A3005 RMK A01,M
INS,2025-07-19 20:55,-115.6733,36.5872,955.00,95.40,42.00,15.96,50.00,7.00,0.00,29.99,1009.50,10.00,M,CLR,M,M,M,M,M,M,M,M,M,M,M,M,M,M,91.17,KINS 192055Z AUTO 05007KT 10SM CLR 35/06 A2999 RMK AO2 SLP095 T03520056 57020 $,M
LSV,2025-07-19 20:55,-115.0343,36.2362,570.00,105.00,20.50,5.01,220.00,10.00,0.00,29.87,1008.30,10.00,M,FEW,M,M,M,20000.00,M,M,M,M,M,M,M,M,M,M,96.87,KLSV 192055Z 22010KT 10SM FEW200 41/M06 A2987 RMK AO2A SLP083 T04061064 57021 $,M
EKO,2025-07-19 20:56,-115.7860,40.8242,1367.00,91.00,27.00,10.05,270.00,14.00,0.00,30.12,1013.30,10.00,23.00,CLR,M,M,M,M,M,M,M,M,M,M,M,27.00,260.00,2025-07-19 20:15,86.10,KEKO 192056Z AUTO 27014G23KT 10SM CLR 33/M03 A3012 RMK AO2 PK WND 26027/2015 SLP133 T03281028 56010,M
HND,2025-07-19 20:56,-115.1344,35.9729,742.79,103.00,45.00,14.24,180.00,14.00,0.00,29.97,1012.90,10.00,19.00,CLR,M,M,M,M,M,M,M,M,M,M,M,M,M,M,98.96,KHND 192056Z AUTO 18014G19KT 10SM CLR 39/07 A2997 RMK AO2 SLP129 T03940072 58019 $,M
TPH,2025-07-19 20:56,-117.0904,38.0505,1654.00,90.00,30.00,11.72,M,4.00,0.00,30.16,1012.80,10.00,M,CLR,M,M,M,M,M,M,M,M,M,M,M,M,M,M,85.63,KTPH 192056Z AUTO VRB04KT 10SM CLR 32/M01 A3016 RMK AO2 SLP128 T03221011 58017 $,M
LAS,2025-07-19 20:56,-115.1634,36.0719,663.00,103.00,39.00,11.30,240.00,7.00,0.00,29.94,1010.50,10.00,18.00,FEW,FEW,M,M,12000.00,20000.00,M,M,M,M,M,M,M,M,M,97.67,KLAS 192056Z 24007G18KT 10SM FEW120 FEW200 39/04 A2994 RMK AO2 SLP105 CB DSNT N AND NW T03940039 58020,M
NFL,2025-07-19 20:57,-118.7010,39.4166,1199.00,95.00,39.00,14.38,M,3.00,0.00,30.05,1014.40,8.00,M,FEW,M,M,M,9000.00,M,M,M,M,M,M,M,M,M,M,90.56,KNFL 192057Z VRB03KT 8SM FEW090 35/04 A3005 RMK AO2 SLP144 T03500039 58018,M
TMT,2025-07-19 21:10,-117.1971,39.4643,1749.34,88.00,31.50,13.27,230.00,6.00,0.00,30.18,M,10.00,M,CLR,M,M,M,M,M,M,M,M,M,M,M,M,M,M,84.24,KTMT 192110Z AUTO 23006KT 180V280 10SM CLR 31/00 A3018 RMK AO2 T03121003,M
BVU,2025-07-19 21:15,-114.8611,35.9475,671.00,102.20,44.60,14.36,200.00,10.00,0.00,29.91,M,10.00,M,FEW,M,M,M,12000.00,M,M,M,M,M,M,M,M,M,M,98.10,KBVU 192115Z AUTO 20010KT 160V220 10SM FEW120 39/07 A2991 RMK AO2,M
BAM,2025-07-19 21:15,-116.8743,40.5990,1382.36,95.00,32.00,10.89,360.00,5.00,0.00,30.08,M,10.00,M,CLR,M,M,M,M,M,M,M,M,M,M,M,M,M,M,89.72,KBAM 192115Z AUTO 36005KT 10SM CLR 35/00 A3008 RMK AO1,M
CXP,2025-07-19 21:15,-119.7326,39.1923,1431.00,91.40,28.40,10.51,280.00,8.00,0.00,30.11,M,10.00,13.00,CLR,M,M,M,M,M,M,M,M,M,M,M,M,M,M,86.53,KCXP 192115Z AUTO 28008G13KT 240V300 10SM CLR 33/M02 A3011 RMK AO2,M
RTS,2025-07-19 21:15,-119.8764,39.6682,1539.00,89.60,28.40,11.12,290.00,9.00,0.00,30.15,M,10.00,M,CLR,M,M,M,M,M,M,M,M,M,M,M,M,M,M,85.18,KRTS 192115Z AUTO 29009KT 10SM CLR 32/M02 A3015 RMK AO2,M
05U,2025-07-19 21:15,-116.0051,39.6042,1811.23,89.60,26.60,10.32,240.00,10.00,0.00,30.19,M,10.00,17.00,CLR,M,M,M,M,M,M,M,M,M,M,M,M,M,M,85.02,K05U 192115Z AUTO 24010G17KT 200V260 10SM CLR 32/M03 A3019 RMK A01,M
MEV,2025-07-19 21:15,-119.7500,38.9963,1441.42,91.40,32.00,12.17,270.00,8.00,0.00,30.10,M,10.00,14.00,CLR,M,M,M,M,M,M,M,M,M,M,M,M,M,M,86.92,KMEV 192115Z AUTO 27008G14KT 240V310 10SM CLR 33/M00 A3010 RMK AO2,M
HTH,2025-07-19 21:15,-118.6315,38.5448,1282.89,96.80,23.00,7.11,360.00,13.00,0.00,30.04,M,10.00,M,CLR,M,M,M,M,M,M,M,M,M,M,M,M,M,M,90.25,KHTH 192115Z AUTO 36013KT 10SM CLR 36/M05 A3004 RMK A01,M
LSV,2025-07-19 21:23,-115.0343,36.2362,570.00,104.00,32.00,8.30,240.00,11.00,0.00,29.85,1007.60,10.00,22.00,CLR,M,M,M,M,M,M,M,M,M,M,M,M,M,M,97.30,KLSV 192123Z 24011G22KT 10SM CLR 40/M00 A2985 RMK SLP076 $,M
MEV,2025-07-19 21:25,-119.7500,38.9963,1441.42,93.20,33.80,12.37,270.00,12.00,0.00,30.10,M,10.00,M,CLR,M,M,M,M,M,M,M,M,M,M,M,M,M,M,88.56,KMEV 192125Z AUTO 27012KT 10SM CLR 34/01 A3010 RMK AO2,M
RTS,2025-07-19 21:25,-119.8764,39.6682,1539.00,89.60,26.60,10.32,270.00,7.00,0.00,30.15,M,10.00,15.00,CLR,M,M,M,M,M,M,M,M,M,M,M,M,M,M,85.02,KRTS 192125Z AUTO 27007G15KT 10SM CLR 32/M03 A3015 RMK AO2,M
TMT,2025-07-19 21:30,-117.1971,39.4643,1749.34,87.40,28.80,12.11,0.00,0.00,0.00,30.18,M,10.00,M,CLR,M,M,M,M,M,M,M,M,M,M,M,M,M,M,83.59,KTMT 192130Z AUTO 00000KT 10SM CLR 31/M02 A3018 RMK AO2 T03081018,M
BVU,2025-07-19 21:35,-114.8611,35.9475,671.00,102.20,44.60,14.36,250.00,6.00,0.00,29.90,M,10.00,16.00,FEW,M,M,M,12000.00,M,M,M,M,M,M,M,M,M,M,98.10,KBVU 192135Z AUTO 25006G16KT 10SM FEW120 39/07 A2990 RMK AO2,M
BAM,2025-07-19 21:35,-116.8743,40.5990,1382.36,96.80,30.20,9.58,280.00,7.00,0.00,30.08,M,10.00,18.00,CLR,M,M,M,M,M,M,M,M,M,M,M,M,M,M,90.97,KBAM 192135Z AUTO 28007G18KT 10SM CLR 36/M01 A3008 RMK AO1,M
CXP,2025-07-19 21:35,-119.7326,39.1923,1431.00,93.20,32.00,11.51,260.00,8.00,0.00,30.12,M,10.00,13.00,CLR,M,M,M,M,M,M,M,M,M,M,M,M,M,M,88.31,KCXP 192135Z AUTO 26008G13KT 230V290 10SM CLR 34/M00 A3012 RMK AO2,M
05U,2025-07-19 21:35,-116.0051,39.6042,1811.23,89.60,26.60,10.32,0.00,0.00,0.00,30.19,M,10.00,10.00,CLR,M,M,M,M,M,M,M,M,M,M,M,M,M,M,85.02,K05U 192135Z AUTO 00000G10KT 10SM CLR 32/M03 A3019 RMK A01,M
HTH,2025-07-19 21:35,-118.6315,38.5448,1282.89,96.80,24.80,7.67,350.00,14.00,0.00,30.04,M,10.00,M,CLR,M,M,M,M,M,M,M,M,M,M,M,M,M,M,90.41,KHTH 192135Z AUTO 35014KT 10SM CLR 36/M04 A3004 RMK A01,M
TMT,2025-07-19 21:50,-117.1971,39.4643,1749.34,90.00,28.40,10.98,280.00,9.00,0.00,30.17,M,10.00,18.00,CLR,M,M,M,M,M,M,M,M,M,M,M,M,M,M,85.48,KTMT 192150Z AUTO 28009G18KT 10SM CLR 32/M02 A3017 RMK AO2 T03221020,M
P68,2025-07-19 21:53,-116.0056,39.6014,1993.00,87.00,28.00,11.87,20.00,9.00,0.00,30.15,1012.20,M,M,M,M,M,M,M,M,M,M,M,M,M,M,M,M,M,83.23,KP68 192153Z AUTO 02009KT 31/M02 A3015 RMK AO1 SLP122 T03061022,M
DRA,2025-07-19 21:53,-116.0278,36.6206,1009.00,99.00,50.00,19.36,M,M,0.00,30.00,1010.00,10.00,M,FEW,M,M,M,11000.00,M,M,M,M,M,M,M,M,M,M,96.00,KDRA 192153Z AUTO 10SM FEW110 37/10 A3000 RMK AO2 SLP100 T03720100,M
ELY,2025-07-19 21:53,-114.8453,39.2950,1909.00,88.00,20.00,8.23,340.00,6.00,0.00,30.19,1012.30,10.00,21.00,CLR,M,M,M,M,M,M,M,M,M,M,M,M,M,M,83.41,KELY 192153Z AUTO 34006G21KT 10SM CLR 31/M07 A3019 RMK AO2 SLP123 T03111067,M
VGT,2025-07-19 21:53,-115.1933,36.2111,667.00,103.00,37.00,10.44,M,6.00,0.00,29.89,1010.80,10.00,M,CLR,M,M,M,M,M,M,M,M,M,M,M,M,M,M,97.27,KVGT 192153Z VRB06KT 10SM CLR 39/03 A2989 RMK AO2 SLP108 T03940028,M
LOL,2025-07-19 21:53,-118.5701,40.0684,1192.43,97.00,29.00,9.07,260.00,12.00,0.00,30.02,1011.80,10.00,18.00,CLR,M,M,M,M,M,M,M,M,M,M,M,M,M,M,90.99,KLOL 192153Z AUTO 26012G18KT 10SM CLR 36/M02 A3002 RMK AO2 SLP118 T03611017,M
BVU,2025-07-19 21:55,-114.8611,35.9475,671.00,100.40,44.60,15.15,140.00,7.00,0.00,29.90,M,10.00,15.00,FEW,M,M,M,12000.00,M,M,M,M,M,M,M,M,M,M,96.33,KBVU 192155Z AUTO 14007G15KT 10SM FEW120 38/07 A2990 RMK AO2,M
RNO,2025-07-19 21:55,-119.7711,39.4839,1341.00,96.00,29.00,9.35,290.00,9.00,0.00,30.07,1011.60,10.00,16.00,FEW,M,M,M,10000.00,M,M,M,M,M,M,M,M,M,M,90.16,KRNO 192155Z 29009G16KT 10SM FEW100 36/M02 A3007 RMK AO2 SLP116 T03561017,M
BAM,2025-07-19 21:55,-116.8743,40.5990,1382.36,96.80,30.20,9.58,250.00,17.00,0.00,30.07,M,10.00,24.00,CLR,M,M,M,M,M,M,M,M,M,M,M,M,M,M,90.97,KBAM 192155Z AUTO 25017G24KT 10SM CLR 36/M01 A3007 RMK AO1,M
CXP,2025-07-19 21:55,-119.7326,39.1923,1431.00,93.20,32.00,11.51,290.00,11.00,0.00,30.11,M,10.00,19.00,CLR,M,M,M,M,M,M,M,M,M,M,M,M,M,M,88.31,KCXP 192155Z AUTO 29011G19KT 10SM CLR 34/00 A3011 RMK AO2,M
05U,2025-07-19 21:55,-116.0051,39.6042,1811.23,87.80,28.40,11.77,30.00,4.00,0.00,30.18,M,10.00,12.00,CLR,M,M,M,M,M,M,M,M,M,M,M,M,M,M,83.84,K05U 192155Z AUTO 03004G12KT 10SM CLR 31/M02 A3018 RMK A01,M
HTH,2025-07-19 21:55,-118.6315,38.5448,1282.89,96.80,23.00,7.11,350.00,8.00,0.00,30.03,M,10.00,14.00,CLR,M,M,M,M,M,M,M,M,M,M,M,M,M,M,90.25,KHTH 192155Z AUTO 35008G14KT 320V020 10SM CLR 36/M05 A3003 RMK A01,M
INS,2025-07-19 21:55,-115.6733,36.5872,955.00,96.40,41.00,14.89,180.00,11.00,0.00,29.98,1009.10,10.00,M,CLR,M,M,M,M,M,M,M,VCTS,M,M,M,M,M,M,92.02,KINS 192155Z AUTO 18011KT 10SM VCTS CLR 36/05 A2998 RMK AO2 SLP091 T03580051 $,M
LSV,2025-07-19 21:55,-115.0343,36.2362,570.00,105.30,28.80,7.02,210.00,7.00,0.00,29.84,1007.20,10.00,16.00,FEW,FEW,M,M,12000.00,18000.00,M,M,M,M,M,M,M,M,M,97.97,KLSV 192155Z 21007G16KT 10SM FEW120 FEW180 41/M02 A2984 RMK AO2A SLP072 T04071018 $,M
EKO,2025-07-19 21:56,-115.7860,40.8242,1367.00,92.00,25.00,8.96,290.00,16.00,0.00,30.11,1013.20,10.00,24.00,CLR,M,M,M,M,M,M,M,M,M,M,M,30.00,290.00,2025-07-19 21:31,86.68,KEKO 192156Z AUTO 29016G24KT 10SM CLR 33/M04 A3011 RMK AO2 PK WND 29030/2131 SLP132 T03331039,M
HND,2025-07-19 21:56,-115.1344,35.9729,742.79,102.00,46.00,15.23,180.00,7.00,0.00,29.96,1012.60,10.00,M,CLR,M,M,M,M,M,M,M,M,M,M,M,M,M,M,98.17,KHND 192156Z AUTO 18007KT 150V220 10SM CLR 39/08 A2996 RMK AO2 SLP126 T03890078 $,M
TPH,2025-07-19 21:56,-117.0904,38.0505,1654.00,91.00,26.00,9.64,M,6.00,0.00,30.14,1012.40,10.00,M,CLR,M,M,M,M,M,M,M,M,M,M,M,M,M,M,86.02,KTPH 192156Z AUTO VRB06KT 10SM CLR 33/M03 A3014 RMK AO2 SLP124 T03281033 $,M
LAS,2025-07-19 21:56,-115.1634,36.0719,663.00,104.00,39.00,10.97,170.00,9.00,0.00,29.92,1009.80,10.00,19.00,FEW,FEW,M,M,10000.00,18000.00,M,M,M,M,M,M,M,M,M,98.54,KLAS 192156Z 17009G19KT 10SM FEW100 FEW180 40/04 A2992 RMK AO2 SLP098 T04000039,M
NFL,2025-07-19 21:57,-118.7010,39.4166,1199.00,96.00,37.00,12.89,280.00,8.00,0.00,30.03,1013.80,8.00,M,FEW,M,M,M,10000.00,M,M,M,M,M,M,M,M,M,M,91.32,KNFL 192157Z 28008KT 8SM FEW100 36/03 A3003 RMK AO2 SLP138 T03560028,M
TMT,2025-07-19 22:10,-117.1971,39.4643,1749.34,90.30,27.70,10.57,290.00,12.00,0.00,30.16,M,10.00,15.00,CLR,M,M,M,M,M,M,M,M,M,M,M,M,M,M,85.64,KTMT 192210Z AUTO 29012G15KT 10SM CLR 32/M02 A3016 RMK AO2 T03241024,M
LOL,2025-07-19 22:12,-118.5701,40.0684,1192.43,96.00,27.00,8.61,210.00,7.00,0.00,30.01,M,10.00,18.00,CLR,M,M,M,M,M,M,M,M,M,M,M,M,M,M,89.95,KLOL 192212Z AUTO 21007G18KT 080V290 10SM CLR 36/M03 A3001 RMK AO2 WSHFT 2152 T03561028,M
BVU,2025-07-19 22:15,-114.8611,35.9475,671.00,102.20,42.80,13.40,170.00,13.00,0.00,29.89,M,10.00,22.00,SCT,M,M,M,12000.00,M,M,M,M,M,M,M,M,M,M,97.78,KBVU 192215Z AUTO 17013G22KT 140V200 10SM SCT120 39/06 A2989 RMK AO2,M
BAM,2025-07-19 22:15,-116.8743,40.5990,1382.36,95.00,28.40,9.40,0.00,0.00,0.00,30.06,M,10.00,M,CLR,M,M,M,M,M,M,M,M,M,M,M,M,M,M,89.28,KBAM 192215Z AUTO 00000KT 10SM CLR 35/M02 A3006 RMK AO1,M
CXP,2025-07-19 22:15,-119.7326,39.1923,1431.00,93.20,32.00,11.51,270.00,13.00,0.00,30.11,M,10.00,M,CLR,M,M,M,M,M,M,M,M,M,M,M,M,M,M,88.31,KCXP 192215Z AUTO 27013KT 10SM CLR 34/00 A3011 RMK AO2,M
RTS,2025-07-19 22:15,-119.8764,39.6682,1539.00,91.40,21.20,7.78,290.00,11.00,0.00,30.13,M,10.00,17.00,CLR,M,M,M,M,M,M,M,M,M,M,M,M,M,M,85.97,KRTS 192215Z AUTO 29011G17KT 10SM CLR 33/M06 A3013 RMK AO2,M
05U,2025-07-19 22:15,-116.0051,39.6042,1811.23,87.80,28.40,11.77,210.00,12.00,0.00,30.17,M,10.00,18.00,CLR,M,M,M,M,M,M,M,M,M,M,M,M,M,M,83.84,K05U 192215Z AUTO 21012G18KT 180V240 10SM CLR 31/M02 A3017 RMK A01,M
MEV,2025-07-19 22:15,-119.7500,38.9963,1441.42,93.20,35.60,13.29,290.00,10.00,0.00,30.09,M,10.00,17.00,CLR,M,M,M,M,M,M,M,M,M,M,M,M,M,M,88.76,KMEV 192215Z AUTO 29010G17KT 10SM CLR 34/02 A3009 RMK AO2,M
HTH,2025-07-19 22:15,-118.6315,38.5448,1282.89,98.60,21.20,6.24,330.00,16.00,0.00,30.02,M,10.00,22.00,CLR,M,M,M,M,M,M,M,M,M,M,M,M,M,M,91.62,KHTH 192215Z AUTO 33016G22KT 10SM CLR 37/M06 A3002 RMK A01,M
INS,2025-07-19 22:16,-115.6733,36.5872,955.00,95.00,44.60,17.85,200.00,21.00,0.00,29.97,1008.90,10.00,M,CLR,M,M,M,M,M,M,M,TS,M,M,M,M,M,M,91.07,KINS 192216Z AUTO 20021KT 10SM TS CLR 35/07 A2997 RMK AO2 TSB16 SLP089 $,M
INS,2025-07-19 22:29,-115.6733,36.5872,955.00,95.00,35.60,12.58,210.00,19.00,0.00,29.97,1008.90,10.00,M,CLR,M,M,M,M,M,M,M,VCTS,M,M,M,M,M,M,90.27,KINS 192229Z AUTO 21019KT 10SM VCTS CLR 35/02 A2997 RMK AO2 TSB16E29 SLP089 $,M
TMT,2025-07-19 22:30,-117.1971,39.4643,1749.34,89.00,25.70,10.14,360.00,6.00,0.00,30.16,M,10.00,15.00,CLR,M,M,M,M,M,M,M,M,M,M,M,M,M,M,84.50,KTMT 192230Z AUTO 36006G15KT 10SM CLR 32/M03 A3016 RMK AO2 T03161035,M
BVU,2025-07-19 22:35,-114.8611,35.9475,671.00,102.20,42.80,13.40,220.00,15.00,0.00,29.88,M,10.00,M,SCT,M,M,M,12000.00,M,M,M,M,M,M,M,M,M,M,97.78,KBVU 192235Z AUTO 22015KT 10SM SCT120 39/06 A2988 RMK AO2,M
BAM,2025-07-19 22:35,-116.8743,40.5990,1382.36,96.80,28.40,8.90,250.00,6.00,0.00,30.06,M,10.00,22.00,CLR,M,M,M,M,M,M,M,M,M,M,M,M,M,M,90.76,KBAM 192235Z AUTO 25006G22KT 10SM CLR 36/M02 A3006 RMK AO1,M
CXP,2025-07-19 22:35,-119.7326,39.1923,1431.00,91.40,33.80,13.08,290.00,10.00,0.00,30.10,M,10.00,M,CLR,M,M,M,M,M,M,M,M,M,M,M,M,M,M,87.13,KCXP 192235Z AUTO 29010KT 10SM CLR 33/01 A3010 RMK AO2,M
RTS,2025-07-19 22:35,-119.8764,39.6682,1539.00,91.40,19.40,7.21,320.00,11.00,0.00,30.12,M,10.00,20.00,CLR,M,M,M,M,M,M,M,M,M,M,M,M,M,M,85.86,KRTS 192235Z AUTO 32011G20KT 10SM CLR 33/M07 A3012 RMK AO2,M
05U,2025-07-19 22:35,-116.0051,39.6042,1811.23,87.80,24.80,10.14,330.00,8.00,0.00,30.17,M,10.00,15.00,CLR,M,M,M,M,M,M,M,M,M,M,M,M,M,M,83.56,K05U 192235Z AUTO 33008G15KT 10SM CLR 31/M04 A3017 RMK A01,M
MEV,2025-07-19 22:35,-119.7500,38.9963,1441.42,91.40,37.40,15.09,300.00,12.00,0.00,30.08,M,10.00,18.00,CLR,M,M,M,M,M,M,M,M,M,M,M,M,M,M,87.23,KMEV 192235Z AUTO 30012G18KT 10SM CLR 33/03 A3008 RMK AO2,M
HTH,2025-07-19 22:35,-118.6315,38.5448,1282.89,98.60,23.00,6.74,330.00,12.00,0.00,30.01,M,10.00,M,CLR,M,M,M,M,M,M,M,M,M,M,M,M,M,M,91.75,KHTH 192235Z AUTO 33012KT 10SM CLR 37/M05 A3001 RMK A01,M
RTS,2025-07-19 22:50,-119.8764,39.6682,1539.00,91.40,19.40,7.21,330.00,13.00,0.00,30.12,M,10.00,21.00,CLR,M,M,M,M,M,M,M,M,M,M,M,M,M,M,85.86,KRTS 192250Z AUTO 33013G21KT 10SM CLR 33/M07 A3012 RMK AO2,M
05U,2025-07-19 22:50,-116.0051,39.6042,1811.23,91.40,24.80,9.06,330.00,14.00,0.00,30.17,M,10.00,M,CLR,M,M,M,M,M,M,M,M,M,M,M,M,M,M,86.22,K05U 192250Z AUTO 33014KT 10SM CLR 33/M04 A3017 RMK A01,M
MEV,2025-07-19 22:50,-119.7500,38.9963,1441.42,93.20,37.40,14.27,290.00,16.00,0.00,30.08,M,10.00,23.00,CLR,M,M,M,M,M,M,M,M,M,M,M,M,M,M,88.83,KMEV 192250Z AUTO 29016G23KT 10SM CLR 34/03 A3008 RMK AO2,M
TMT,2025-07-19 22:50,-117.1971,39.4643,1749.34,90.70,28.00,10.57,290.00,10.00,0.00,30.15,M,10.00,14.00,CLR,M,M,M,M,M,M,M,M,M,M,M,M,M,M,85.96,KTMT 192250Z AUTO 29010G14KT 250V330 10SM CLR 33/M02 A3015 RMK AO2 T03261022,M
DRA,2025-07-19 22:53,-116.0278,36.6206,1009.00,100.00,51.00,19.50,160.00,10.00,0.00,29.98,1009.60,10.00,20.00,CLR,M,M,M,M,M,M,M,M,M,M,M,M,M,M,97.29,KDRA 192253Z AUTO 16010G20KT 120V180 10SM CLR 38/11 A2998 RMK AO2 SLP096 T03780106,M
ELY,2025-07-19 22:53,-114.8453,39.2950,1909.00,88.00,23.00,9.34,360.00,12.00,0.00,30.17,1011.60,10.00,18.00,CLR,M,M,M,M,M,M,M,M,M,M,M,M,M,M,83.58,KELY 192253Z AUTO 36012G18KT 10SM CLR 31/M05 A3017 RMK AO2 SLP116 T03111050,M
VGT,2025-07-19 22:53,-115.1933,36.2111,667.00,103.00,39.00,11.30,140.00,12.00,0.00,29.87,1010.10,10.00,17.00,CLR,M,M,M,M,M,M,M,M,M,M,M,M,M,M,97.67,KVGT 192253Z 14012G17KT 10SM CLR 39/04 A2987 RMK AO2 SLP101 T03940039,M
LOL,2025-07-19 22:53,-118.5701,40.0684,1192.43,99.00,28.00,8.19,250.00,16.00,0.00,30.00,1011.00,10.00,23.00,CLR,M,M,M,M,M,M,M,M,M,M,M,31.00,250.00,2025-07-19 22:25,92.55,KLOL 192253Z AUTO 25016G23KT 10SM CLR 37/M02 A3000 RMK AO2 PK WND 25031/2225 WSHFT 2152 SLP110 T03721022,M
P68,2025-07-19 22:53,-116.0056,39.6014,1993.00,91.00,25.00,9.25,330.00,12.00,0.00,30.14,1011.40,M,23.00,M,M,M,M,M,M,M,M,M,M,M,M,M,M,M,85.94,KP68 192253Z AUTO 33012G23KT 33/M04 A3014 RMK AO1 SLP114 T03281039,M
RNO,2025-07-19 22:55,-119.7711,39.4839,1341.00,95.00,29.00,9.64,280.00,14.00,0.00,30.05,1011.10,10.00,20.00,FEW,M,M,M,13000.00,M,M,M,M,M,M,M,M,M,M,89.34,KRNO 192255Z 28014G20KT 10SM FEW130 35/M02 A3005 RMK AO2 SLP111 T03501017,M
BAM,2025-07-19 22:55,-116.8743,40.5990,1382.36,96.80,30.20,9.58,220.00,11.00,0.00,30.05,M,10.00,28.00,CLR,M,M,M,M,M,M,M,M,M,M,M,M,M,M,90.97,KBAM 192255Z AUTO 22011G28KT 10SM CLR 36/M01 A3005 RMK AO1,M
CXP,2025-07-19 22:55,-119.7326,39.1923,1431.00,93.20,33.80,12.37,280.00,13.00,0.00,30.09,M,10.00,21.00,CLR,M,M,M,M,M,M,M,M,M,M,M,M,M,M,88.56,KCXP 192255Z AUTO 28013G21KT 10SM CLR 34/01 A3009 RMK AO2,M
INS,2025-07-19 22:55,-115.6733,36.5872,955.00,93.00,41.50,16.85,190.00,16.00,0.00,29.96,1008.60,10.00,M,CLR,M,M,M,M,M,M,M,M,M,M,M,27.00,220.00,2025-07-19 21:58,88.89,KINS 192255Z AUTO 19016KT 10SM CLR 34/05 A2996 RMK AO2 PK WND 22027/2158 TSB16E29 SLP086 T03380053 $,M
HTH,2025-07-19 22:55,-118.6315,38.5448,1282.89,96.80,23.00,7.11,320.00,15.00,0.00,30.00,M,10.00,20.00,CLR,M,M,M,M,M,M,M,M,M,M,M,M,M,M,90.25,KHTH 192255Z AUTO 32015G20KT 10SM CLR 36/M05 A3000 RMK A01,M
BVU,2025-07-19 22:55,-114.8611,35.9475,671.00,102.20,42.80,13.40,240.00,17.00,0.00,29.88,M,10.00,M,FEW,M,M,M,12000.00,M,M,M,M,M,M,M,M,M,M,97.78,KBVU 192255Z AUTO 24017KT 10SM FEW120 39/06 A2988 RMK AO2,M
LSV,2025-07-19 22:55,-115.0343,36.2362,570.00,105.40,32.00,7.97,230.00,8.00,0.00,29.82,1006.60,10.00,15.00,FEW,SCT,M,M,10000.00,18000.00,M,M,M,M,M,M,M,M,M,98.50,KLSV 192255Z 23008G15KT 10SM FEW100 SCT180 41/00 A2982 RMK AO2A SLP066 T04080001 $,M
HND,2025-07-19 22:56,-115.1344,35.9729,742.79,101.00,44.00,14.54,M,3.00,0.00,29.93,1011.80,10.00,M,CLR,M,M,M,M,M,M,M,M,M,M,M,M,M,M,96.82,KHND 192256Z AUTO VRB03KT 10SM CLR 38/07 A2993 RMK AO2 SLP118 T03830067 $,M
TPH,2025-07-19 22:56,-117.0904,38.0505,1654.00,91.00,24.00,8.87,360.00,4.00,0.00,30.12,1011.70,10.00,M,CLR,M,M,M,M,M,M,M,M,M,M,M,M,M,M,85.86,KTPH 192256Z AUTO 36004KT 10SM CLR 33/M04 A3012 RMK AO2 SLP117 T03281044 $,M
LAS,2025-07-19 22:56,-115.1634,36.0719,663.00,103.00,41.00,12.21,M,4.00,0.00,29.89,1009.10,10.00,M,FEW,SCT,M,M,10000.00,18000.00,M,M,M,M,M,M,M,M,M,98.12,KLAS 192256Z VRB04KT 10SM FEW100 SCT180 39/05 A2989 RMK AO2 SLP091 T03940050,M
INS,2025-07-19 22:56,-115.6733,36.5872,955.00,93.20,41.00,16.43,190.00,15.00,0.00,29.97,1009.00,10.00,M,CLR,M,M,M,M,M,M,M,M,M,M,M,M,M,M,89.04,KINS 192256Z AUTO 19015KT 10SM CLR 34/05 A2997 RMK AO2 WSHFT 45 SLP090 $,M
EKO,2025-07-19 22:56,-115.7860,40.8242,1367.00,91.00,27.00,10.05,0.00,0.00,0.00,30.08,1012.40,10.00,M,CLR,M,M,M,M,M,M,M,M,M,M,M,M,M,M,86.10,KEKO 192256Z AUTO 00000KT 10SM CLR 33/M03 A3008 RMK AO2 SLP124 T03281028,M
NFL,2025-07-19 22:57,-118.7010,39.4166,1199.00,98.00,34.00,10.77,M,M,0.00,30.00,1013.00,9.00,M,CLR,M,M,M,M,M,M,M,M,M,M,M,M,M,M,92.48,KNFL 192257Z AUTO 9SM CLR 37/01 A3000 RMK AO2 SLP130 T03670011,M
INS,2025-07-19 22:58,-115.6733,36.5872,955.00,93.20,41.00,16.43,230.00,14.00,0.00,29.97,1009.00,10.00,M,CLR,M,M,M,M,M,M,M,M,M,M,M,M,M,M,89.04,KINS 192258Z AUTO 23014KT 10SM CLR 34/05 A2997 RMK AO2 WSHFT 56 SLP090 $,M
CXP,2025-07-19 23:10,-119.7326,39.1923,1431.00,93.20,33.80,12.37,280.00,11.00,0.00,30.08,M,10.00,20.00,CLR,M,M,M,M,M,M,M,M,M,M,M,M,M,M,88.56,KCXP 192310Z AUTO 28011G20KT 10SM CLR 34/01 A3008 RMK AO2,M
TMT,2025-07-19 23:10,-117.1971,39.4643,1749.34,89.60,26.40,10.24,220.00,5.00,0.00,30.14,M,10.00,19.00,CLR,M,M,M,M,M,M,M,M,M,M,M,M,M,M,85.00,KTMT 192310Z AUTO 22005G19KT 10SM CLR 32/M03 A3014 RMK AO2 T03201031,M
BVU,2025-07-19 23:15,-114.8611,35.9475,671.00,104.00,42.80,12.71,260.00,13.00,0.00,29.87,M,10.00,M,CLR,M,M,M,M,M,M,M,M,M,M,M,M,M,M,99.45,KBVU 192315Z AUTO 26013KT 10SM CLR 40/06 A2987 RMK AO2,M
BAM,2025-07-19 23:15,-116.8743,40.5990,1382.36,95.00,30.20,10.12,300.00,7.00,0.00,30.05,M,10.00,M,CLR,M,M,M,M,M,M,M,M,M,M,M,M,M,M,89.49,KBAM 192315Z AUTO 30007KT 10SM CLR 35/M01 A3005 RMK AO1,M
RTS,2025-07-19 23:15,-119.8764,39.6682,1539.00,91.40,19.40,7.21,300.00,14.00,0.00,30.11,M,10.00,M,CLR,M,M,M,M,M,M,M,M,M,M,M,M,M,M,85.86,KRTS 192315Z AUTO 30014KT 10SM CLR 33/M07 A3011 RMK AO2,M
05U,2025-07-19 23:15,-116.0051,39.6042,1811.23,89.60,24.80,9.58,70.00,7.00,0.00,30.15,M,10.00,M,CLR,M,M,M,M,M,M,M,M,M,M,M,M,M,M,84.88,K05U 192315Z AUTO 07007KT 10SM CLR 32/M04 A3015 RMK A01,M
MEV,2025-07-19 23:15,-119.7500,38.9963,1441.42,91.40,37.40,15.09,280.00,15.00,0.00,30.07,M,10.00,M,CLR,M,M,M,M,M,M,M,M,M,M,M,M,M,M,87.23,KMEV 192315Z AUTO 28015KT 10SM CLR 33/03 A3007 RMK AO2,M
HTH,2025-07-19 23:15,-118.6315,38.5448,1282.89,98.60,23.00,6.74,320.00,12.00,0.00,30.00,M,10.00,M,CLR,M,M,M,M,M,M,M,M,M,M,M,M,M,M,91.75,KHTH 192315Z AUTO 32012KT 10SM CLR 37/M05 A3000 RMK A01,M
MEV,2025-07-19 23:25,-119.7500,38.9963,1441.42,91.40,39.20,16.19,270.00,16.00,0.00,30.07,M,10.00,24.00,CLR,M,M,M,M,M,M,M,M,M,M,M,M,M,M,87.31,KMEV 192325Z AUTO 27016G24KT 10SM CLR 33/04 A3007 RMK AO2,M
RTS,2025-07-19 23:25,-119.8764,39.6682,1539.00,91.40,21.20,7.78,280.00,10.00,0.00,30.11,M,10.00,19.00,CLR,M,M,M,M,M,M,M,M,M,M,M,M,M,M,85.97,KRTS 192325Z AUTO 28010G19KT 10SM CLR 33/M06 A3011 RMK AO2,M
TMT,2025-07-19 23:30,-117.1971,39.4643,1749.34,89.60,25.70,9.95,300.00,6.00,0.00,30.14,M,10.00,M,CLR,M,M,M,M,M,M,M,M,M,M,M,M,M,M,84.95,KTMT 192330Z AUTO 30006KT 10SM CLR 32/M03 A3014 RMK AO2 T03201035,M
BVU,2025-07-19 23:35,-114.8611,35.9475,671.00,102.20,42.80,13.40,240.00,9.00,0.00,29.87,M,10.00,17.00,CLR,M,M,M,M,M,M,M,M,M,M,M,M,M,M,97.78,KBVU 192335Z AUTO 24009G17KT 10SM CLR 39/06 A2987 RMK AO2,M
BAM,2025-07-19 23:35,-116.8743,40.5990,1382.36,95.00,30.20,10.12,250.00,7.00,0.00,30.04,M,10.00,M,CLR,M,M,M,M,M,M,M,M,M,M,M,M,M,M,89.49,KBAM 192335Z AUTO 25007KT 10SM CLR 35/M01 A3004 RMK AO1,M
CXP,2025-07-19 23:35,-119.7326,39.1923,1431.00,91.40,33.80,13.08,260.00,11.00,0.00,30.08,M,10.00,21.00,CLR,M,M,M,M,M,M,M,M,M,M,M,M,M,M,87.13,KCXP 192335Z AUTO 26011G21KT 10SM CLR 33/01 A3008 RMK AO2,M
05U,2025-07-19 23:35,-116.0051,39.6042,1811.23,91.40,23.00,8.40,290.00,9.00,0.00,30.15,M,10.00,18.00,CLR,M,M,M,M,M,M,M,M,M,M,M,M,M,M,86.09,K05U 192335Z AUTO 29009G18KT 10SM CLR 33/M05 A3015 RMK A01,M
HTH,2025-07-19 23:35,-118.6315,38.5448,1282.89,96.80,23.00,7.11,320.00,13.00,0.00,29.99,M,10.00,M,CLR,M,M,M,M,M,M,M,M,M,M,M,M,M,M,90.25,KHTH 192335Z AUTO 32013KT 10SM CLR 36/M05 A2999 RMK A01,M
TMT,2025-07-19 23:50,-117.1971,39.4643,1749.34,89.40,26.20,10.22,310.00,8.00,0.00,30.13,M,10.00,M,CLR,M,M,M,M,M,M,M,M,M,M,M,M,M,M,84.84,KTMT 192350Z AUTO 31008KT 10SM CLR 32/M03 A3013 RMK AO2 T03191032,M
P68,2025-07-19 23:53,-116.0056,39.6014,1993.00,91.00,23.00,8.50,260.00,6.00,0.00,30.12,1010.80,M,17.00,M,M,M,M,M,M,M,M,M,M,M,M,M,M,M,85.79,KP68 192353Z AUTO 26006G17KT 33/M05 A3012 RMK AO1 SLP108 T03281050 10333 20272 58014,M
DRA,2025-07-19 23:53,-116.0278,36.6206,1009.00,98.00,50.00,19.96,140.00,10.00,0.00,29.96,1009.10,10.00,M,CLR,M,M,M,M,M,M,M,M,M,M,M,27.00,130.00,2025-07-19 23:05,94.96,KDRA 192353Z AUTO 14010KT 10SM CLR 37/10 A2996 RMK AO2 PK WND 13027/2305 SLP091 T03670100 10383 20339 58017,M
ELY,2025-07-19 23:53,-114.8453,39.2950,1909.00,84.00,22.00,10.17,0.00,0.00,0.00,30.16,1012.00,10.00,M,CLR,M,M,M,M,M,M,M,M,M,M,M,M,M,M,80.69,KELY 192353Z AUTO 00000KT 10SM CLR 29/M06 A3016 RMK AO2 SLP120 T02891056 10317 20261 58013,M
VGT,2025-07-19 23:53,-115.1933,36.2111,667.00,104.00,39.00,10.97,210.00,8.00,0.00,29.86,1009.60,10.00,M,CLR,M,M,M,M,M,M,M,M,M,M,M,M,M,M,98.54,KVGT 192353Z 21008KT 10SM CLR 40/04 A2986 RMK AO2 SLP096 T04000039 10406 20339 56019,M
LOL,2025-07-19 23:53,-118.5701,40.0684,1192.43,98.00,25.00,7.46,260.00,12.00,0.00,29.98,1010.60,10.00,20.00,CLR,M,M,M,M,M,M,M,M,M,M,M,M,M,M,91.42,KLOL 192353Z AUTO 26012G20KT 10SM CLR 37/M04 A2998 RMK AO2 SLP106 T03671039 10372 20306 56018,M
BVU,2025-07-19 23:55,-114.8611,35.9475,671.00,102.20,41.00,12.50,210.00,12.00,0.00,29.86,M,10.00,M,CLR,M,M,M,M,M,M,M,M,M,M,M,M,M,M,97.41,KBVU 192355Z AUTO 21012KT 10SM CLR 39/05 A2986 RMK AO2,M
CXP,2025-07-19 23:55,-119.7326,39.1923,1431.00,91.40,33.80,13.08,270.00,13.00,0.00,30.08,M,10.00,20.00,CLR,M,M,M,M,M,M,M,M,M,M,M,M,M,M,87.13,KCXP 192355Z AUTO 27013G20KT 10SM CLR 33/01 A3008 RMK AO2,M
RNO,2025-07-19 23:55,-119.7711,39.4839,1341.00,94.00,31.00,10.78,280.00,14.00,0.00,30.04,1010.80,10.00,20.00,FEW,M,M,M,13000.00,M,M,M,M,M,M,M,26.00,300.00,2025-07-19 23:41,88.81,KRNO 192355Z 28014G20KT 10SM FEW130 34/M01 A3004 RMK AO2 PK WND 30026/2341 SLP108 T03441006 10361 20278 56016,M
05U,2025-07-19 23:55,-116.0051,39.6042,1811.23,89.60,23.00,8.88,M,3.00,0.00,30.15,M,10.00,13.00,CLR,M,M,M,M,M,M,M,M,M,M,M,M,M,M,84.75,K05U 192355Z AUTO VRB03G13KT 10SM CLR 32/M05 A3015 RMK A01,M
BAM,2025-07-19 23:55,-116.8743,40.5990,1382.36,95.00,30.20,10.12,250.00,3.00,0.00,30.04,M,10.00,14.00,CLR,M,M,M,M,M,M,M,M,M,M,M,M,M,M,89.49,KBAM 192355Z AUTO 25003G14KT 10SM CLR 35/M01 A3004 RMK AO1,M
HTH,2025-07-19 23:55,-118.6315,38.5448,1282.89,98.60,23.00,6.74,330.00,12.00,0.00,29.99,M,10.00,17.00,CLR,M,M,M,M,M,M,M,M,M,M,M,M,M,M,91.75,KHTH 192355Z AUTO 33012G17KT 10SM CLR 37/M05 A2999 RMK A01,M
INS,2025-07-19 23:55,-115.6733,36.5872,955.00,98.00,34.50,10.99,230.00,6.00,0.00,29.95,1008.20,10.00,M,FEW,M,M,M,22000.00,M,M,M,M,M,M,M,M,M,M,92.56,KINS 192355Z AUTO 23006KT 10SM FEW220 37/01 A2995 RMK AO2 SLP082 T03670014 10374 20331 57013 $,M
LSV,2025-07-19 23:55,-115.0343,36.2362,570.00,105.00,39.70,10.94,130.00,5.00,0.00,29.80,1005.90,10.00,M,FEW,SCT,M,M,10000.00,18000.00,M,M,M,M,M,M,M,M,M,99.58,KLSV 192355Z 13005KT 10SM FEW100 SCT180 41/04 A2980 RMK AO2A SLP059 T04050043 10412 20361 57020 $,M
EKO,2025-07-19 23:56,-115.7860,40.8242,1367.00,91.00,25.00,9.25,270.00,13.00,0.00,30.06,1012.10,10.00,21.00,CLR,M,M,M,M,M,M,M,M,M,M,M,M,M,M,85.94,KEKO 192356Z AUTO 27013G21KT 10SM CLR 33/M04 A3006 RMK AO2 SLP121 T03281039 10333 20300 58017,M
HND,2025-07-19 23:56,-115.1344,35.9729,742.79,103.00,45.00,14.24,200.00,10.00,0.00,29.92,1011.10,10.00,19.00,CLR,M,M,M,M,M,M,M,M,M,M,M,M,M,M,98.96,KHND 192356Z AUTO 20010G19KT 10SM CLR 39/07 A2992 RMK AO2 SLP111 T03940072 10400 20350 58017 $,M
TPH,2025-07-19 23:56,-117.0904,38.0505,1654.00,91.00,38.00,15.64,110.00,20.00,0.00,30.11,1011.10,10.00,33.00,CLR,M,M,M,M,M,M,M,M,M,M,M,33.00,130.00,2025-07-19 23:51,86.90,KTPH 192356Z AUTO 11020G33KT 10SM CLR 33/03 A3011 RMK AO2 PK WND 13033/2351 SLP111 T03280033 10339 20278 58015 $,M
LAS,2025-07-19 23:56,-115.1634,36.0719,663.00,103.00,39.00,11.30,160.00,6.00,0.00,29.88,1008.60,10.00,M,FEW,SCT,M,M,10000.00,18000.00,M,M,M,M,M,M,M,M,M,97.67,KLAS 192356Z 16006KT 10SM FEW100 SCT180 39/04 A2988 RMK AO2 SLP086 T03940039 10406 20350 56019,M
NFL,2025-07-19 23:57,-118.7010,39.4166,1199.00,98.00,31.00,9.54,M,4.00,0.00,29.98,1012.40,9.00,M,CLR,M,M,M,M,M,M,M,M,M,M,M,M,M,M,92.07,KNFL 192357Z AUTO VRB04KT 9SM CLR 37/M01 A2998 RMK AO2 SLP124 T03671006 10372 20311 58020,M
