station,valid,lon,lat,elevation,tmpf,dwpf,relh,drct,sknt,p01i,alti,mslp,vsby,gust,skyc1,skyc2,skyc3,skyc4,skyl1,skyl2,skyl3,skyl4,wxcodes,ice_accretion_1hr,ice_accretion_3hr,ice_accretion_6hr,peak_wind_gust,peak_wind_drct,peak_wind_time,feel,metar,snowdepth
MEV,2022-12-07 00:15,-119.7500,38.9963,1441.42,35.60,21.20,55.41,270.00,4.00,0.00,30.02,M,10.00,M,CLR,M,M,M,M,M,M,M,M,M,M,M,M,M,M,31.62,KMEV 070015Z AUTO 27004KT 10SM CLR 02/M06 A3002 RMK AO2,M
CXP,2022-12-07 00:15,-119.7326,39.1923,1431.00,39.20,21.20,48.10,70.00,8.00,0.00,30.04,M,10.00,M,CLR,M,M,M,M,M,M,M,M,M,M,M,M,M,M,32.98,KCXP 070015Z AUTO 07008KT 10SM CLR 04/M06 A3004 RMK AO2,M
05U,2022-12-07 00:15,-116.0051,39.6042,1811.23,32.00,21.20,63.99,340.00,4.00,0.00,30.04,M,10.00,M,M,M,M,M,M,M,M,M,M,M,M,M,M,M,M,27.42,K05U 070015Z AUTO 34004KT 10SM 00/M06 A3004 RMK A01,M
BVU,2022-12-07 00:15,-114.8611,35.9475,671.00,55.40,32.00,40.84,0.00,0.00,0.00,29.98,M,10.00,M,CLR,M,M,M,M,M,M,M,M,M,M,M,M,M,M,55.40,KBVU 070015Z AUTO 00000KT 10SM CLR 13/M00 A2998 RMK AO2,M
BAM,2022-12-07 00:15,-116.8743,40.5990,1382.36,37.40,32.00,80.65,340.00,4.00,0.00,30.07,M,10.00,M,CLR,M,M,M,M,M,M,M,M,M,M,M,M,M,M,33.73,KBAM 070015Z AUTO 34004KT 10SM CLR 03/00 A3007 RMK AO1,M
RTS,2022-12-07 00:15,-119.8764,39.6682,1539.00,37.40,24.80,60.04,20.00,5.00,0.00,30.05,M,10.00,M,FEW,OVC,M,M,5000.00,5500.00,M,M,M,M,M,M,M,M,M,32.81,KRTS 070015Z AUTO 02005KT 10SM FEW050 OVC055 03/M04 A3005 RMK AO2,M
TMT,2022-12-07 00:15,-117.1971,39.4643,1749.34,33.80,24.60,68.68,340.00,8.00,0.00,30.02,M,10.00,M,CLR,M,M,M,M,M,M,M,M,M,M,M,M,M,M,26.33,KTMT 070015Z AUTO 34008KT 10SM CLR 01/M04 A3002 RMK AO2 T00101041,M
BAM,2022-12-07 00:35,-116.8743,40.5990,1382.36,35.60,32.00,86.59,330.00,3.00,0.00,30.07,M,10.00,M,CLR,M,M,M,M,M,M,M,M,M,M,M,M,M,M,32.80,KBAM 070035Z AUTO 33003KT 10SM CLR 02/00 A3007 RMK AO1,M
TMT,2022-12-07 00:35,-117.1971,39.4643,1749.34,32.20,24.40,72.63,350.00,6.00,0.00,30.03,M,10.00,M,CLR,M,M,M,M,M,M,M,M,M,M,M,M,M,M,25.77,KTMT 070035Z AUTO 35006KT 10SM CLR 00/M04 A3003 RMK AO2 T00011042,M
BVU,2022-12-07 00:35,-114.8611,35.9475,671.00,53.60,32.00,43.61,0.00,0.00,0.00,29.98,M,8.00,M,CLR,M,M,M,M,M,M,M,M,M,M,M,M,M,M,53.60,KBVU 070035Z AUTO 00000KT 8SM CLR 12/M00 A2998 RMK AO2,M
CXP,2022-12-07 00:35,-119.7326,39.1923,1431.00,39.20,21.20,48.10,50.00,9.00,0.00,30.05,M,10.00,M,CLR,M,M,M,M,M,M,M,M,M,M,M,M,M,M,32.47,KCXP 070035Z AUTO 05009KT 10SM CLR 04/M06 A3005 RMK AO2,M
RTS,2022-12-07 00:35,-119.8764,39.6682,1539.00,35.60,26.60,69.46,0.00,0.00,0.00,30.05,M,10.00,M,BKN,OVC,M,M,4600.00,5500.00,M,M,M,M,M,M,M,M,M,35.60,KRTS 070035Z AUTO 00000KT 10SM BKN046 OVC055 02/M03 A3005 RMK AO2,M
05U,2022-12-07 00:35,-116.0051,39.6042,1811.23,30.20,21.20,68.83,330.00,5.00,0.00,30.05,M,10.00,M,M,M,M,M,M,M,M,M,M,M,M,M,M,M,M,24.26,K05U 070035Z AUTO 33005KT 10SM M01/M06 A3005 RMK A01,M
MEV,2022-12-07 00:35,-119.7500,38.9963,1441.42,32.00,23.00,69.04,270.00,5.00,0.00,30.03,M,10.00,M,CLR,M,M,M,M,M,M,M,M,M,M,M,M,M,M,26.40,KMEV 070035Z AUTO 27005KT 10SM CLR 00/M05 A3003 RMK AO2,M
CXP,2022-12-07 00:50,-119.7326,39.1923,1431.00,39.20,21.20,48.10,40.00,5.00,0.00,30.05,M,10.00,11.00,CLR,M,M,M,M,M,M,M,M,M,M,M,M,M,M,34.95,KCXP 070050Z AUTO 04005G11KT 10SM CLR 04/M06 A3005 RMK AO2,M
DRA,2022-12-07 00:53,-116.0278,36.6206,1009.00,48.00,28.90,47.32,230.00,3.00,0.00,29.97,1014.00,10.00,M,CLR,M,M,M,M,M,M,M,M,M,M,M,M,M,M,46.98,KDRA 070053Z AUTO 23003KT 10SM CLR 09/M02 A2997 RMK AO2 SLP140 T00891017,M
VGT,2022-12-07 00:53,-115.1933,36.2111,667.00,56.00,32.00,40.10,0.00,0.00,0.00,29.97,1016.80,10.00,M,CLR,M,M,M,M,M,M,M,M,M,M,M,M,M,M,55.90,KVGT 070053Z 00000KT 10SM CLR 13/00 A2997 RMK AO2 SLP168 T01330000,M
LOL,2022-12-07 00:53,-118.5701,40.0684,1192.43,35.00,25.00,66.31,40.00,4.00,0.00,30.06,1020.50,10.00,M,CLR,M,M,M,M,M,M,M,M,M,M,M,M,M,M,31.04,KLOL 070053Z AUTO 04004KT 10SM CLR 02/M04 A3006 RMK AO2 SLP205 T00171039,M
P68,2022-12-07 00:53,-116.0056,39.6014,1993.00,28.90,21.00,71.96,340.00,5.00,0.00,30.03,1018.90,M,M,M,M,M,M,M,M,M,M,M,M,M,M,M,M,M,22.71,KP68 070053Z AUTO 34005KT M02/M06 A3003 RMK AO1 SLP189 T10171061,M
ELY,2022-12-07 00:53,-114.8453,39.2950,1909.00,18.00,16.00,91.72,170.00,4.00,0.00,30.03,1022.50,10.00,M,SCT,M,M,M,9000.00,M,M,M,M,M,M,M,M,M,M,11.07,KELY 070053Z AUTO 17004KT 10SM SCT090 M08/M09 A3003 RMK AO2 SLP225 T10781089,M
INS,2022-12-07 00:55,-115.6733,36.5872,955.00,47.50,31.30,53.16,110.00,7.00,0.00,29.97,1014.40,10.00,M,SCT,M,M,M,7000.00,M,M,M,M,M,M,M,M,M,M,43.67,KINS 070055Z AUTO 11007KT 10SM SCT070 09/M00 A2997 RMK AO2 SLP144 T00861004 $,M
LSV,2022-12-07 00:55,-115.0343,36.2362,570.00,54.00,33.30,45.12,0.00,0.00,0.00,29.95,1014.20,10.00,M,BKN,M,M,M,15000.00,M,M,M,M,M,M,M,M,M,M,54.10,KLSV 070055Z AUTO 00000KT 10SM BKN150 12/01 A2995 RMK AO2 SLP142 T01230007 $,M
BVU,2022-12-07 00:55,-114.8611,35.9475,671.00,53.60,32.00,43.61,60.00,3.00,0.00,29.98,M,10.00,M,CLR,M,M,M,M,M,M,M,M,M,M,M,M,M,M,53.60,KBVU 070055Z AUTO 06003KT 10SM CLR 12/00 A2998 RMK AO2,M
RNO,2022-12-07 00:55,-119.7711,39.4839,1341.00,41.00,24.10,50.67,40.00,5.00,0.00,30.04,1017.70,10.00,M,SCT,SCT,M,M,5500.00,21000.00,M,M,M,M,M,M,M,M,M,37.08,KRNO 070055Z 04005KT 10SM SCT055 SCT210 05/M04 A3004 RMK AO2 SLP177 T00501044,M
RTS,2022-12-07 00:55,-119.8764,39.6682,1539.00,33.80,26.60,74.63,0.00,0.00,0.00,30.06,M,10.00,M,BKN,OVC,M,M,4400.00,5000.00,M,M,M,M,M,M,M,M,M,33.80,KRTS 070055Z AUTO 00000KT 10SM BKN044 OVC050 01/M03 A3006 RMK AO2,M
05U,2022-12-07 00:55,-116.0051,39.6042,1811.23,28.40,21.20,74.08,340.00,4.00,0.00,30.05,M,10.00,M,M,M,M,M,M,M,M,M,M,M,M,M,M,M,M,23.22,K05U 070055Z AUTO 34004KT 10SM M02/M06 A3005 RMK A01,M
MEV,2022-12-07 00:55,-119.7500,38.9963,1441.42,32.00,23.00,69.04,280.00,4.00,0.00,30.04,M,10.00,M,CLR,M,M,M,M,M,M,M,M,M,M,M,M,M,M,27.42,KMEV 070055Z AUTO 28004KT 10SM CLR M00/M05 A3004 RMK AO2,M
BAM,2022-12-07 00:55,-116.8743,40.5990,1382.36,33.80,32.00,93.03,0.00,0.00,0.00,30.08,M,10.00,M,CLR,M,M,M,M,M,M,M,M,M,M,M,M,M,M,33.80,KBAM 070055Z AUTO 00000KT 10SM CLR 01/00 A3008 RMK AO1,M
TMT,2022-12-07 00:55,-117.1971,39.4643,1749.34,30.90,24.10,75.59,0.00,0.00,0.00,30.03,M,10.00,M,CLR,M,M,M,M,M,M,M,M,M,M,M,M,M,M,30.90,KTMT 070055Z AUTO 00000KT 10SM CLR M01/M04 A3003 RMK AO2 T10061044,M
LAS,2022-12-07 00:56,-115.1634,36.0719,663.00,55.00,30.90,39.63,0.00,0.00,0.00,29.97,1014.80,10.00,M,FEW,BKN,BKN,M,7500.00,17000.00,21000.00,M,M,M,M,M,M,M,M,55.00,KLAS 070056Z 00000KT 10SM FEW075 BKN170 BKN210 13/M01 A2997 RMK AO2 SLP148 T01281006,M
WMC,2022-12-07 00:56,-117.8072,40.9019,1315.00,33.00,28.90,84.36,40.00,5.00,0.00,30.07,1020.40,10.00,M,CLR,M,M,M,M,M,M,M,M,M,M,M,M,M,M,27.70,KWMC 070056Z AUTO 04005KT 10SM CLR 01/M02 A3007 RMK AO2 SLP204 T00061017,M
NFL,2022-12-07 00:56,-118.7010,39.4166,1199.00,38.00,21.90,52.13,30.00,3.00,0.00,30.04,1014.20,10.00,M,FEW,FEW,SCT,M,5000.00,15000.00,20000.00,M,M,M,M,M,M,M,M,35.43,KNFL 070056Z 03003KT 10SM FEW050 FEW150 SCT200 03/M06 A3004 RMK AO2 SLP142 T00331056,M
HND,2022-12-07 00:56,-115.1344,35.9729,742.79,54.00,32.00,42.98,0.00,0.00,0.00,29.99,1017.50,10.00,M,CLR,M,M,M,M,M,M,M,M,M,M,M,M,M,M,54.00,KHND 070056Z 00000KT 10SM CLR 12/00 A2999 RMK AO2 SLP175 T01220000,M
EKO,2022-12-07 00:56,-115.7860,40.8242,1367.00,25.00,23.00,91.97,0.00,0.00,0.00,30.08,1022.30,6.00,M,OVC,M,M,M,200.00,M,M,M,BR,M,M,M,M,M,M,25.00,KEKO 070056Z AUTO 00000KT 6SM BR OVC002 M04/M05 A3008 RMK AO2 SLP223 T10391050,M
TPH,2022-12-07 00:56,-117.0904,38.0505,1654.00,38.00,28.00,67.20,80.00,9.00,0.00,30.01,1017.60,10.00,M,BKN,OVC,M,M,4200.00,5000.00,M,M,M,M,M,M,M,M,M,30.85,KTPH 070056Z AUTO 08009KT 10SM BKN042 OVC050 03/M02 A3001 RMK AO2 SLP176 T00331022,M
05U,2022-12-07 01:15,-116.0051,39.6042,1811.23,28.40,21.20,74.08,M,M,0.00,30.06,M,10.00,M,M,M,M,M,M,M,M,M,M,M,M,M,M,M,M,M,K05U 070115Z AUTO 10SM M02/M06 A3006 RMK A01,M
BVU,2022-12-07 01:15,-114.8611,35.9475,671.00,53.60,32.00,43.61,70.00,3.00,0.00,29.98,M,10.00,M,CLR,M,M,M,M,M,M,M,M,M,M,M,M,M,M,53.60,KBVU 070115Z AUTO 07003KT 10SM CLR 12/00 A2998 RMK AO2,M
CXP,2022-12-07 01:15,-119.7326,39.1923,1431.00,39.20,21.20,48.10,40.00,7.00,0.00,30.06,M,10.00,12.00,CLR,M,M,M,M,M,M,M,M,M,M,M,M,M,M,33.56,KCXP 070115Z AUTO 04007G12KT 10SM CLR 04/M06 A3006 RMK AO2,M
RTS,2022-12-07 01:15,-119.8764,39.6682,1539.00,32.00,24.80,74.44,0.00,0.00,0.00,30.06,M,10.00,M,OVC,M,M,M,4300.00,M,M,M,M,M,M,M,M,M,M,32.00,KRTS 070115Z AUTO 00000KT 10SM OVC043 00/M04 A3006 RMK AO2,M
MEV,2022-12-07 01:15,-119.7500,38.9963,1441.42,32.00,23.00,69.04,300.00,7.00,0.00,30.04,M,10.00,M,FEW,M,M,M,4700.00,M,M,M,M,M,M,M,M,M,M,24.78,KMEV 070115Z AUTO 30007KT 10SM FEW047 00/M05 A3004 RMK AO2,M
BAM,2022-12-07 01:15,-116.8743,40.5990,1382.36,33.80,30.20,86.49,0.00,0.00,0.00,30.08,M,10.00,M,CLR,M,M,M,M,M,M,M,M,M,M,M,M,M,M,33.80,KBAM 070115Z AUTO 00000KT 10SM CLR 01/M01 A3008 RMK AO1,M
TMT,2022-12-07 01:15,-117.1971,39.4643,1749.34,30.00,23.90,77.75,10.00,5.00,0.00,30.04,M,10.00,M,CLR,M,M,M,M,M,M,M,M,M,M,M,M,M,M,24.02,KTMT 070115Z AUTO 01005KT 10SM CLR M01/M04 A3004 RMK AO2 T10111045,M
BVU,2022-12-07 01:35,-114.8611,35.9475,671.00,53.60,32.00,43.61,50.00,3.00,0.00,29.99,M,10.00,M,CLR,M,M,M,M,M,M,M,M,M,M,M,M,M,M,53.60,KBVU 070135Z AUTO 05003KT 10SM CLR 12/00 A2999 RMK AO2,M
MEV,2022-12-07 01:35,-119.7500,38.9963,1441.42,32.00,23.00,69.04,0.00,0.00,0.00,30.04,M,10.00,M,FEW,M,M,M,4500.00,M,M,M,M,M,M,M,M,M,M,32.00,KMEV 070135Z AUTO 00000KT 10SM FEW045 M00/M05 A3004 RMK AO2,M
BAM,2022-12-07 01:35,-116.8743,40.5990,1382.36,33.80,30.20,86.49,350.00,4.00,0.00,30.08,M,10.00,M,CLR,M,M,M,M,M,M,M,M,M,M,M,M,M,M,29.52,KBAM 070135Z AUTO 35004KT 10SM CLR 01/M01 A3008 RMK AO1,M
TMT,2022-12-07 01:35,-117.1971,39.4643,1749.34,30.90,23.70,74.33,10.00,5.00,0.00,30.04,M,10.00,M,CLR,M,M,M,M,M,M,M,M,M,M,M,M,M,M,25.09,KTMT 070135Z AUTO 01005KT 10SM CLR M01/M05 A3004 RMK AO2 T10061046,M
RTS,2022-12-07 01:35,-119.8764,39.6682,1539.00,32.00,24.80,74.44,0.00,0.00,0.00,30.06,M,10.00,M,OVC,M,M,M,4400.00,M,M,M,M,M,M,M,M,M,M,32.00,KRTS 070135Z AUTO 00000KT 10SM OVC044 M00/M04 A3006 RMK AO2,M
05U,2022-12-07 01:35,-116.0051,39.6042,1811.23,28.40,21.20,74.08,0.00,0.00,0.00,30.06,M,10.00,M,M,M,M,M,M,M,M,M,M,M,M,M,M,M,M,28.40,K05U 070135Z AUTO 00000KT 10SM M02/M06 A3006 RMK A01,M
CXP,2022-12-07 01:35,-119.7326,39.1923,1431.00,37.40,21.20,51.61,40.00,7.00,0.00,30.06,M,10.00,M,CLR,M,M,M,M,M,M,M,M,M,M,M,M,M,M,31.36,KCXP 070135Z AUTO 04007KT 10SM CLR 03/M06 A3006 RMK AO2,M
ELY,2022-12-07 01:53,-114.8453,39.2950,1909.00,18.00,17.10,96.19,180.00,6.00,0.00,30.05,1023.30,10.00,M,CLR,M,M,M,M,M,M,M,M,M,M,M,M,M,M,8.67,KELY 070153Z AUTO 18006KT 10SM CLR M08/M08 A3005 RMK AO2 SLP233 T10781083,M
LOL,2022-12-07 01:53,-118.5701,40.0684,1192.43,35.00,26.10,69.41,30.00,9.00,0.00,30.07,1020.90,10.00,M,CLR,M,M,M,M,M,M,M,M,M,M,M,M,M,M,27.37,KLOL 070153Z AUTO 03009KT 10SM CLR 02/M03 A3007 RMK AO2 SLP209 T00171033,M
TPH,2022-12-07 01:53,-117.0904,38.0505,1654.00,33.80,30.20,86.49,70.00,10.00,T,30.02,M,1.75,M,FEW,BKN,OVC,M,900.00,3600.00,5500.00,M,-SN BR,M,M,M,M,M,M,25.23,KTPH 070153Z AUTO 07010KT 1 3/4SM -SN BR FEW009 BKN036 OVC055 01/M01 A3002 RMK AO2 SNB43 P0000,M
VGT,2022-12-07 01:53,-115.1933,36.2111,667.00,54.00,32.00,42.98,0.00,0.00,0.00,29.98,1017.10,10.00,M,CLR,M,M,M,M,M,M,M,M,M,M,M,M,M,M,54.00,KVGT 070153Z 00000KT 10SM CLR 12/00 A2998 RMK AO2 SLP171 T01220000,M
P68,2022-12-07 01:53,-116.0056,39.6014,1993.00,26.10,21.00,80.75,190.00,4.00,0.00,30.04,1020.10,M,M,M,M,M,M,M,M,M,M,M,M,M,M,M,M,M,20.53,KP68 070153Z AUTO 19004KT M03/M06 A3004 RMK AO1 SLP201 T10331061,M
DRA,2022-12-07 01:53,-116.0278,36.6206,1009.00,44.00,27.00,50.73,0.00,0.00,0.00,29.99,1015.00,10.00,M,CLR,M,M,M,M,M,M,M,M,M,M,M,M,M,M,44.10,KDRA 070153Z AUTO 00000KT 10SM CLR 07/M03 A2999 RMK AO2 SLP150 T00671028,M
INS,2022-12-07 01:55,-115.6733,36.5872,955.00,44.60,29.80,55.83,0.00,0.00,0.00,29.99,1015.10,10.00,M,CLR,M,M,M,M,M,M,M,M,M,M,M,M,M,M,44.60,KINS 070155Z AUTO 00000KT 10SM CLR 07/M01 A2999 RMK AO2 SLP151 T00701012 $,M
BVU,2022-12-07 01:55,-114.8611,35.9475,671.00,53.60,32.00,43.61,60.00,4.00,0.00,29.99,M,10.00,M,FEW,M,M,M,12000.00,M,M,M,M,M,M,M,M,M,M,53.60,KBVU 070155Z AUTO 06004KT 10SM FEW120 12/M00 A2999 RMK AO2,M
CXP,2022-12-07 01:55,-119.7326,39.1923,1431.00,37.40,23.00,55.68,40.00,7.00,0.00,30.06,M,10.00,M,CLR,M,M,M,M,M,M,M,M,M,M,M,M,M,M,31.36,KCXP 070155Z AUTO 04007KT 10SM CLR 03/M05 A3006 RMK AO2,M
RNO,2022-12-07 01:55,-119.7711,39.4839,1341.00,37.00,25.00,61.50,360.00,3.00,0.00,30.06,1018.50,10.00,M,SCT,M,M,M,6000.00,M,M,M,M,M,M,M,M,M,M,34.40,KRNO 070155Z 36003KT 10SM SCT060 03/M04 A3006 RMK AO2 SLP185 T00281039,M
RTS,2022-12-07 01:55,-119.8764,39.6682,1539.00,30.20,24.80,80.07,320.00,3.00,0.00,30.07,M,10.00,M,OVC,M,M,M,4500.00,M,M,M,M,M,M,M,M,M,M,26.63,KRTS 070155Z AUTO 32003KT 10SM OVC045 M01/M04 A3007 RMK AO2,M
05U,2022-12-07 01:55,-116.0051,39.6042,1811.23,26.60,21.20,79.77,190.00,3.00,0.00,30.07,M,10.00,M,M,M,M,M,M,M,M,M,M,M,M,M,M,M,M,22.52,K05U 070155Z AUTO 19003KT 10SM M03/M06 A3007 RMK A01,M
MEV,2022-12-07 01:55,-119.7500,38.9963,1441.42,30.20,23.00,74.26,360.00,4.00,0.00,30.04,M,10.00,M,FEW,SCT,M,M,4200.00,4800.00,M,M,M,M,M,M,M,M,M,25.32,KMEV 070155Z AUTO 36004KT 10SM FEW042 SCT048 M01/M05 A3004 RMK AO2,M
BAM,2022-12-07 01:55,-116.8743,40.5990,1382.36,32.00,30.20,92.97,340.00,5.00,0.00,30.09,M,10.00,M,CLR,M,M,M,M,M,M,M,M,M,M,M,M,M,M,26.40,KBAM 070155Z AUTO 34005KT 10SM CLR 00/M01 A3009 RMK AO1,M
TMT,2022-12-07 01:55,-117.1971,39.4643,1749.34,28.90,23.40,79.63,50.00,4.00,0.00,30.05,M,10.00,M,CLR,M,M,M,M,M,M,M,M,M,M,M,M,M,M,23.80,KTMT 070155Z AUTO 05004KT 10SM CLR M02/M05 A3005 RMK AO2 T10171048,M
LSV,2022-12-07 01:55,-115.0343,36.2362,570.00,52.00,30.70,43.88,0.00,0.00,0.00,29.96,1014.70,10.00,M,FEW,M,M,M,18000.00,M,M,M,M,M,M,M,M,M,M,52.00,KLSV 070155Z AUTO 00000KT 10SM FEW180 11/M01 A2996 RMK AO2 SLP147 T01111007 $,M
WMC,2022-12-07 01:56,-117.8072,40.9019,1315.00,30.90,27.00,85.26,40.00,5.00,0.00,30.08,1021.30,10.00,M,CLR,M,M,M,M,M,M,M,M,M,M,M,M,M,M,25.09,KWMC 070156Z AUTO 04005KT 10SM CLR M01/M03 A3008 RMK AO2 SLP213 T10061028,M
TPH,2022-12-07 01:56,-117.0904,38.0505,1654.00,34.00,30.00,85.11,30.00,12.00,T,30.02,1018.40,1.00,M,SCT,BKN,OVC,M,900.00,3600.00,5000.00,M,-SN BR,M,M,M,M,M,M,24.55,KTPH 070156Z AUTO 03012KT 1SM -SN BR SCT009 BKN036 OVC050 01/M01 A3002 RMK AO2 SNB43 SLP184 P0000 T00111011,M
LAS,2022-12-07 01:56,-115.1634,36.0719,663.00,54.00,30.90,41.11,0.00,0.00,0.00,29.99,1015.30,10.00,M,FEW,SCT,BKN,M,7500.00,17000.00,21000.00,M,M,M,M,M,M,M,M,54.00,KLAS 070156Z 00000KT 10SM FEW075 SCT170 BKN210 12/M01 A2999 RMK AO2 SLP153 T01221006,M
EKO,2022-12-07 01:56,-115.7860,40.8242,1367.00,25.00,23.00,91.97,20.00,4.00,0.00,30.09,1022.70,4.00,M,OVC,M,M,M,200.00,M,M,M,BR,M,M,M,M,M,M,19.25,KEKO 070156Z AUTO 02004KT 4SM BR OVC002 M04/M05 A3009 RMK AO2 SLP227 T10391050,M
HND,2022-12-07 01:56,-115.1344,35.9729,742.79,51.00,33.00,49.98,0.00,0.00,0.00,30.00,1017.90,10.00,M,CLR,M,M,M,M,M,M,M,M,M,M,M,M,M,M,51.10,KHND 070156Z 00000KT 10SM CLR 11/01 A3000 RMK AO2 SLP179 T01060006,M
NFL,2022-12-07 01:56,-118.7010,39.4166,1199.00,30.90,19.90,63.31,350.00,5.00,0.00,30.05,1014.50,10.00,M,FEW,M,M,M,20000.00,M,M,M,M,M,M,M,M,M,M,25.09,KNFL 070156Z 35005KT 10SM FEW200 M01/M07 A3005 RMK AO2 SLP145 T10061067,M
TPH,2022-12-07 02:01,-117.0904,38.0505,1654.00,35.00,28.90,77.88,360.00,12.00,T,30.02,M,0.75,19.00,BKN,BKN,OVC,M,1000.00,3600.00,5000.00,M,-SN,M,M,M,M,M,M,25.95,KTPH 070201Z AUTO 36012G19KT 3/4SM -SN BKN010 BKN036 OVC050 02/M02 A3002 RMK AO2 P0000 T00171017,M
TPH,2022-12-07 02:04,-117.0904,38.0505,1654.00,35.00,28.90,77.88,60.00,6.00,T,30.02,M,1.00,19.00,BKN,BKN,OVC,M,1500.00,3600.00,5500.00,M,-SN,M,M,M,M,M,M,29.26,KTPH 070204Z AUTO 06006G19KT 1SM -SN BKN015 BKN036 OVC055 02/M02 A3002 RMK AO2 P0000 T00171017,M
EKO,2022-12-07 02:08,-115.7860,40.8242,1367.00,25.00,23.00,91.97,30.00,4.00,0.00,30.09,M,2.00,M,OVC,M,M,M,200.00,M,M,M,BR,M,M,M,M,M,M,19.25,KEKO 070208Z AUTO 03004KT 2SM BR OVC002 M04/M05 A3009 RMK AO2 T10391050,M
TPH,2022-12-07 02:09,-117.0904,38.0505,1654.00,34.00,30.00,85.11,70.00,8.00,T,30.02,M,3.00,19.00,BKN,BKN,OVC,M,1700.00,4100.00,4900.00,M,-SN BR,M,M,M,M,M,M,26.58,KTPH 070209Z AUTO 07008G19KT 3SM -SN BR BKN017 BKN041 OVC049 01/M01 A3002 RMK AO2 P0000 T00111011,M
05U,2022-12-07 02:15,-116.0051,39.6042,1811.23,24.80,21.20,85.96,0.00,0.00,0.00,30.07,M,10.00,M,M,M,M,M,M,M,M,M,M,M,M,M,M,M,M,24.80,K05U 070215Z AUTO 00000KT 10SM M04/M06 A3007 RMK A01,M
BVU,2022-12-07 02:15,-114.8611,35.9475,671.00,51.80,32.00,46.59,70.00,4.00,0.00,29.99,M,10.00,M,CLR,M,M,M,M,M,M,M,M,M,M,M,M,M,M,51.80,KBVU 070215Z AUTO 07004KT 10SM CLR 11/00 A2999 RMK AO2,M
CXP,2022-12-07 02:15,-119.7326,39.1923,1431.00,37.40,23.00,55.68,50.00,6.00,0.00,30.07,M,10.00,M,CLR,M,M,M,M,M,M,M,M,M,M,M,M,M,M,32.03,KCXP 070215Z AUTO 05006KT 10SM CLR 03/M05 A3007 RMK AO2,M
RTS,2022-12-07 02:15,-119.8764,39.6682,1539.00,28.40,24.80,86.18,330.00,4.00,0.00,30.08,M,10.00,M,BKN,M,M,M,4500.00,M,M,M,M,M,M,M,M,M,M,23.22,KRTS 070215Z AUTO 33004KT 10SM BKN045 M02/M04 A3008 RMK AO2,M
MEV,2022-12-07 02:15,-119.7500,38.9963,1441.42,26.60,23.00,86.07,50.00,5.00,0.00,30.05,M,10.00,M,FEW,FEW,M,M,4100.00,4800.00,M,M,M,M,M,M,M,M,M,19.98,KMEV 070215Z AUTO 05005KT 10SM FEW041 FEW048 M03/M05 A3005 RMK AO2,M
BAM,2022-12-07 02:15,-116.8743,40.5990,1382.36,32.00,30.20,92.97,10.00,5.00,0.00,30.09,M,10.00,M,CLR,M,M,M,M,M,M,M,M,M,M,M,M,M,M,26.40,KBAM 070215Z AUTO 01005KT 10SM CLR 00/M01 A3009 RMK AO1,M
TMT,2022-12-07 02:15,-117.1971,39.4643,1749.34,28.60,23.90,82.32,0.00,0.00,0.00,30.05,M,10.00,M,CLR,M,M,M,M,M,M,M,M,M,M,M,M,M,M,28.60,KTMT 070215Z AUTO 00000KT 10SM CLR M02/M04 A3005 RMK AO2 T10191045,M
TPH,2022-12-07 02:16,-117.0904,38.0505,1654.00,34.00,30.00,85.11,50.00,8.00,T,30.03,M,9.00,M,SCT,OVC,M,M,1800.00,4600.00,M,M,-SN,M,M,M,M,M,M,26.58,KTPH 070216Z AUTO 05008KT 9SM -SN SCT018 OVC046 01/M01 A3003 RMK AO2 P0000 T00111011,M
EKO,2022-12-07 02:17,-115.7860,40.8242,1367.00,25.00,23.00,91.97,110.00,3.00,0.00,30.09,M,1.75,M,OVC,M,M,M,100.00,M,M,M,BR,M,M,M,M,M,M,20.69,KEKO 070217Z AUTO 11003KT 1 3/4SM BR OVC001 M04/M05 A3009 RMK AO2 T10391050,M
MEV,2022-12-07 02:35,-119.7500,38.9963,1441.42,28.40,23.00,79.92,80.00,6.00,0.00,30.05,M,10.00,M,FEW,FEW,SCT,M,3700.00,4200.00,4800.00,M,M,M,M,M,M,M,M,21.19,KMEV 070235Z AUTO 08006KT 10SM FEW037 FEW042 SCT048 M02/M05 A3005 RMK AO2,M
BAM,2022-12-07 02:35,-116.8743,40.5990,1382.36,32.00,30.20,92.97,20.00,4.00,0.00,30.09,M,10.00,M,CLR,M,M,M,M,M,M,M,M,M,M,M,M,M,M,27.42,KBAM 070235Z AUTO 02004KT 10SM CLR 00/M01 A3009 RMK AO1,M
TMT,2022-12-07 02:35,-117.1971,39.4643,1749.34,26.40,23.50,88.62,360.00,3.00,0.00,30.05,M,10.00,M,CLR,M,M,M,M,M,M,M,M,M,M,M,M,M,M,22.29,KTMT 070235Z AUTO 36003KT 10SM CLR M03/M05 A3005 RMK AO2 T10311047,M
05U,2022-12-07 02:35,-116.0051,39.6042,1811.23,24.80,21.20,85.96,0.00,0.00,0.00,30.07,M,10.00,M,M,M,M,M,M,M,M,M,M,M,M,M,M,M,M,24.80,K05U 070235Z AUTO 00000KT 10SM M04/M06 A3007 RMK A01,M
RTS,2022-12-07 02:35,-119.8764,39.6682,1539.00,28.40,24.80,86.18,330.00,4.00,0.00,30.08,M,10.00,M,FEW,M,M,M,4400.00,M,M,M,M,M,M,M,M,M,M,23.22,KRTS 070235Z AUTO 33004KT 10SM FEW044 M02/M04 A3008 RMK AO2,M
BVU,2022-12-07 02:35,-114.8611,35.9475,671.00,51.80,32.00,46.59,70.00,4.00,0.00,29.99,M,10.00,M,CLR,M,M,M,M,M,M,M,M,M,M,M,M,M,M,51.80,KBVU 070235Z AUTO 07004KT 10SM CLR 11/M00 A2999 RMK AO2,M
CXP,2022-12-07 02:35,-119.7326,39.1923,1431.00,33.80,23.00,64.23,0.00,0.00,0.00,30.07,M,10.00,M,CLR,M,M,M,M,M,M,M,M,M,M,M,M,M,M,33.80,KCXP 070235Z AUTO 00000KT 10SM CLR 01/M05 A3007 RMK AO2,M
EKO,2022-12-07 02:41,-115.7860,40.8242,1367.00,25.00,23.00,91.97,60.00,5.00,0.00,30.10,M,0.75,M,VV ,M,M,M,100.00,M,M,M,BR,M,M,M,M,M,M,18.08,KEKO 070241Z AUTO 06005KT 3/4SM BR VV001 M04/M05 A3010 RMK AO2 T10391050,M
TPH,2022-12-07 02:47,-117.0904,38.0505,1654.00,35.00,28.90,77.88,30.00,9.00,T,30.04,M,1.75,M,FEW,BKN,OVC,M,1800.00,3800.00,4500.00,M,-SN,M,M,M,M,M,M,27.37,KTPH 070247Z AUTO 03009KT 1 3/4SM -SN FEW018 BKN038 OVC045 02/M02 A3004 RMK AO2 P0000 T00171017,M
DRA,2022-12-07 02:53,-116.0278,36.6206,1009.00,41.00,27.00,57.15,40.00,4.00,0.00,29.99,1015.20,10.00,M,CLR,M,M,M,M,M,M,M,M,M,M,M,M,M,M,37.93,KDRA 070253Z AUTO 04004KT 10SM CLR 05/M03 A2999 RMK AO2 SLP152 T00501028 51007,M
VGT,2022-12-07 02:53,-115.1933,36.2111,667.00,53.00,32.00,44.42,0.00,0.00,0.00,29.98,1017.30,10.00,M,CLR,M,M,M,M,M,M,M,M,M,M,M,M,M,M,53.10,KVGT 070253Z 00000KT 10SM CLR 12/00 A2998 RMK AO2 SLP173 T01170000 53005,M
LOL,2022-12-07 02:53,-118.5701,40.0684,1192.43,33.00,26.10,75.18,30.00,9.00,0.00,30.08,1021.70,10.00,M,CLR,M,M,M,M,M,M,M,M,M,M,M,M,M,M,24.88,KLOL 070253Z AUTO 03009KT 10SM CLR 01/M03 A3008 RMK AO2 SLP217 T00061033 52009,M
ELY,2022-12-07 02:53,-114.8453,39.2950,1909.00,14.00,10.90,87.20,180.00,9.00,0.00,30.06,1023.90,10.00,M,CLR,M,M,M,M,M,M,M,M,T,T,M,M,M,M,1.13,KELY 070253Z AUTO 18009KT 10SM CLR M10/M12 A3006 RMK AO2 SLP239 I1000 I3000 T11001117 53008,M
P68,2022-12-07 02:53,-116.0056,39.6014,1993.00,27.00,21.00,77.80,0.00,0.00,0.00,30.05,1020.50,M,M,M,M,M,M,M,M,M,M,M,M,M,M,M,M,M,27.00,KP68 070253Z AUTO 00000KT M03/M06 A3005 RMK AO1 SLP205 T10281061 51009,M
CXP,2022-12-07 02:55,-119.7326,39.1923,1431.00,33.80,23.00,64.23,240.00,3.00,0.00,30.08,M,10.00,M,CLR,M,M,M,M,M,M,M,M,M,M,M,M,M,M,30.75,KCXP 070255Z AUTO 24003KT 10SM CLR 01/M05 A3008 RMK AO2,M
BVU,2022-12-07 02:55,-114.8611,35.9475,671.00,51.80,32.00,46.59,50.00,4.00,0.00,29.99,M,10.00,M,CLR,M,M,M,M,M,M,M,M,M,M,M,M,M,M,51.80,KBVU 070255Z AUTO 05004KT 10SM CLR 11/M00 A2999 RMK AO2,M
RTS,2022-12-07 02:55,-119.8764,39.6682,1539.00,26.60,24.80,92.80,330.00,4.00,0.00,30.08,M,10.00,M,CLR,M,M,M,M,M,M,M,M,M,M,M,M,M,M,21.11,KRTS 070255Z AUTO 33004KT 10SM CLR M03/M04 A3008 RMK AO2,M
05U,2022-12-07 02:55,-116.0051,39.6042,1811.23,24.80,23.00,92.74,M,M,0.00,30.08,M,10.00,M,M,M,M,M,M,M,M,M,M,M,M,M,M,M,M,M,K05U 070255Z AUTO 10SM M04/M05 A3008 RMK A01,M
MEV,2022-12-07 02:55,-119.7500,38.9963,1441.42,28.40,23.00,79.92,0.00,0.00,0.00,30.06,M,10.00,M,SCT,SCT,M,M,4600.00,5500.00,M,M,M,M,M,M,M,M,M,28.40,KMEV 070255Z AUTO 00000KT 10SM SCT046 SCT055 M02/M05 A3006 RMK AO2,M
BAM,2022-12-07 02:55,-116.8743,40.5990,1382.36,32.00,28.40,86.39,50.00,4.00,0.00,30.10,M,10.00,M,CLR,M,M,M,M,M,M,M,M,M,M,M,M,M,M,27.42,KBAM 070255Z AUTO 05004KT 10SM CLR 00/M02 A3010 RMK AO1,M
TMT,2022-12-07 02:55,-117.1971,39.4643,1749.34,26.20,23.20,88.24,360.00,5.00,0.00,30.06,M,10.00,M,CLR,M,M,M,M,M,M,M,M,M,M,M,M,M,M,19.51,KTMT 070255Z AUTO 36005KT 10SM CLR M03/M05 A3006 RMK AO2 LTG DSNT SW T10321049,M
INS,2022-12-07 02:55,-115.6733,36.5872,955.00,41.20,27.10,56.95,0.00,0.00,0.00,29.99,1015.30,10.00,M,FEW,M,M,M,7000.00,M,M,M,M,M,M,M,M,M,M,41.20,KINS 070255Z AUTO 00000KT 10SM FEW070 05/M03 A2999 RMK AO2 SLP153 T00511027 53007 $,M
RNO,2022-12-07 02:55,-119.7711,39.4839,1341.00,35.00,26.10,69.41,20.00,6.00,0.00,30.07,1019.30,10.00,M,CLR,M,M,M,M,M,M,M,M,M,M,M,M,M,M,29.26,KRNO 070255Z 02006KT 10SM CLR 02/M03 A3007 RMK AO2 SLP193 T00171033 51013,M
LSV,2022-12-07 02:55,-115.0343,36.2362,570.00,50.40,29.80,44.89,50.00,4.00,0.00,29.97,1015.00,10.00,M,FEW,M,M,M,16000.00,M,M,M,M,M,M,M,M,M,M,50.40,KLSV 070255Z AUTO 05004KT 10SM FEW160 10/M01 A2997 RMK AO2 SLP150 T01021012 53005 $,M
NFL,2022-12-07 02:56,-118.7010,39.4166,1199.00,30.00,19.90,65.66,20.00,5.00,0.00,30.07,1015.00,10.00,M,FEW,M,M,M,20000.00,M,M,M,M,M,M,M,M,M,M,24.02,KNFL 070256Z 02005KT 10SM FEW200 M01/M07 A3007 RMK AO2 SLP150 T10111067 53010,M
EKO,2022-12-07 02:56,-115.7860,40.8242,1367.00,24.10,23.00,95.49,M,3.00,0.00,30.11,1023.10,0.75,M,VV ,M,M,M,100.00,M,M,M,BR,T,T,M,M,M,M,19.66,KEKO 070256Z AUTO VRB03KT 3/4SM BR VV001 M04/M05 A3011 RMK AO2 SLP231 I1000 I3000 T10441050 53010,M
WMC,2022-12-07 02:56,-117.8072,40.9019,1315.00,28.00,24.10,85.08,340.00,4.00,0.00,30.09,1022.00,10.00,M,CLR,M,M,M,M,M,M,M,M,M,M,M,M,M,M,22.75,KWMC 070256Z AUTO 34004KT 10SM CLR M02/M04 A3009 RMK AO2 SLP220 T10221044 52010,M
HND,2022-12-07 02:56,-115.1344,35.9729,742.79,50.00,32.00,49.81,170.00,4.00,0.00,30.01,1018.10,10.00,M,CLR,M,M,M,M,M,M,M,M,M,M,M,M,M,M,50.00,KHND 070256Z 17004KT 10SM CLR 10/00 A3001 RMK AO2 SLP181 T01000000 52004,M
LAS,2022-12-07 02:56,-115.1634,36.0719,663.00,54.00,32.00,42.98,0.00,0.00,0.00,29.99,1015.40,10.00,M,FEW,SCT,BKN,M,7500.00,17000.00,21000.00,M,M,M,M,M,M,M,M,54.00,KLAS 070256Z 00000KT 10SM FEW075 SCT170 BKN210 12/00 A2999 RMK AO2 SLP154 T01220000 53007,M
TPH,2022-12-07 02:56,-117.0904,38.0505,1654.00,34.00,30.00,85.11,50.00,8.00,T,30.04,1018.90,1.00,M,BKN,BKN,OVC,M,1000.00,3700.00,4700.00,M,-SN BR,M,M,M,M,M,M,26.58,KTPH 070256Z AUTO 05008KT 1SM -SN BR BKN010 BKN037 OVC047 01/M01 A3004 RMK AO2 SLP189 P0000 60000 T00111011 51011,M
EKO,2022-12-07 03:03,-115.7860,40.8242,1367.00,23.00,21.00,91.90,100.00,5.00,0.00,30.11,M,1.75,M,OVC,M,M,M,100.00,M,M,M,BR,M,M,M,M,M,M,15.71,KEKO 070303Z AUTO 10005KT 1 3/4SM BR OVC001 M05/M06 A3011 RMK AO2 T10501061,M
TPH,2022-12-07 03:04,-117.0904,38.0505,1654.00,33.00,30.00,88.23,70.00,8.00,T,30.04,M,0.75,M,BKN,OVC,M,M,1000.00,4600.00,M,M,-SN BR,M,M,M,M,M,M,25.47,KTPH 070304Z AUTO 07008KT 3/4SM -SN BR BKN010 OVC046 01/M01 A3004 RMK AO2 P0000 T00061011,M
EKO,2022-12-07 03:06,-115.7860,40.8242,1367.00,23.00,21.00,91.90,100.00,5.00,0.00,30.11,M,3.00,M,OVC,M,M,M,100.00,M,M,M,BR,M,M,M,M,M,M,15.71,KEKO 070306Z AUTO 10005KT 3SM BR OVC001 M05/M06 A3011 RMK AO2 T10501061,M
05U,2022-12-07 03:10,-116.0051,39.6042,1811.23,26.60,23.00,86.07,0.00,0.00,0.00,30.08,M,10.00,M,M,M,M,M,M,M,M,M,M,M,M,M,M,M,M,26.60,K05U 070310Z AUTO 00000KT 10SM M03/M05 A3008 RMK A01,M
TPH,2022-12-07 03:10,-117.0904,38.0505,1654.00,33.00,30.00,88.23,70.00,10.00,0.01,30.04,M,1.00,M,VV ,M,M,M,900.00,M,M,M,-SN BR,M,M,M,M,M,M,24.35,KTPH 070310Z AUTO 07010KT 1SM -SN BR VV009 01/M01 A3004 RMK AO2 P0001 T00061011,M
RTS,2022-12-07 03:15,-119.8764,39.6682,1539.00,26.60,24.80,92.80,320.00,5.00,0.00,30.09,M,10.00,M,CLR,M,M,M,M,M,M,M,M,M,M,M,M,M,M,19.98,KRTS 070315Z AUTO 32005KT 10SM CLR M03/M04 A3009 RMK AO2,M
TMT,2022-12-07 03:15,-117.1971,39.4643,1749.34,26.40,23.40,88.25,360.00,5.00,0.00,30.07,M,10.00,M,CLR,M,M,M,M,M,M,M,M,M,M,M,M,M,M,19.74,KTMT 070315Z AUTO 36005KT 10SM CLR M03/M05 A3007 RMK AO2 T10311048,M
CXP,2022-12-07 03:15,-119.7326,39.1923,1431.00,32.00,23.00,69.04,0.00,0.00,0.00,30.09,M,10.00,M,CLR,M,M,M,M,M,M,M,M,M,M,M,M,M,M,32.00,KCXP 070315Z AUTO 00000KT 10SM CLR M00/M05 A3009 RMK AO2,M
BVU,2022-12-07 03:15,-114.8611,35.9475,671.00,50.00,32.00,49.81,50.00,3.00,0.00,29.99,M,10.00,M,CLR,M,M,M,M,M,M,M,M,M,M,M,M,M,M,50.00,KBVU 070315Z AUTO 05003KT 10SM CLR 10/00 A2999 RMK AO2,M
MEV,2022-12-07 03:15,-119.7500,38.9963,1441.42,28.40,21.20,74.08,80.00,6.00,0.00,30.07,M,10.00,M,FEW,M,M,M,4700.00,M,M,M,M,M,M,M,M,M,M,21.19,KMEV 070315Z AUTO 08006KT 10SM FEW047 M02/M06 A3007 RMK AO2,M
BAM,2022-12-07 03:15,-116.8743,40.5990,1382.36,32.00,28.40,86.39,30.00,5.00,0.00,30.11,M,10.00,M,CLR,M,M,M,M,M,M,M,M,M,M,M,M,M,M,26.40,KBAM 070315Z AUTO 03005KT 10SM CLR 00/M02 A3011 RMK AO1,M
TPH,2022-12-07 03:22,-117.0904,38.0505,1654.00,33.00,30.90,91.51,60.00,10.00,0.01,30.04,M,2.00,M,OVC,M,M,M,1300.00,M,M,M,-SN BR,M,M,M,M,M,M,24.35,KTPH 070322Z AUTO 06010KT 2SM -SN BR OVC013 01/M01 A3004 RMK AO2 P0001 T00061006,M
EKO,2022-12-07 03:23,-115.7860,40.8242,1367.00,23.00,21.00,91.90,100.00,3.00,0.00,30.11,M,3.00,M,OVC,M,M,M,200.00,M,M,M,BR,M,M,M,M,M,M,18.40,KEKO 070323Z AUTO 10003KT 3SM BR OVC002 M05/M06 A3011 RMK AO2 T10501061,M
05U,2022-12-07 03:30,-116.0051,39.6042,1811.23,23.00,21.20,92.69,180.00,4.00,0.00,30.08,M,10.00,M,M,M,M,M,M,M,M,M,M,M,M,M,M,M,M,16.91,K05U 070330Z AUTO 18004KT 10SM M05/M06 A3008 RMK A01,M
TPH,2022-12-07 03:30,-117.0904,38.0505,1654.00,33.00,30.90,91.51,80.00,11.00,0.01,30.04,M,7.00,M,OVC,M,M,M,2800.00,M,M,M,-SN,M,M,M,M,M,M,23.86,KTPH 070330Z AUTO 08011KT 7SM -SN OVC028 01/M01 A3004 RMK AO2 P0001 T00061006,M
EKO,2022-12-07 03:34,-115.7860,40.8242,1367.00,23.00,21.00,91.90,130.00,4.00,0.00,30.11,M,1.75,M,OVC,M,M,M,200.00,M,M,M,BR,M,M,M,M,M,M,16.91,KEKO 070334Z AUTO 13004KT 1 3/4SM BR OVC002 M05/M06 A3011 RMK AO2 T10501061,M
TMT,2022-12-07 03:35,-117.1971,39.4643,1749.34,26.40,23.50,88.62,360.00,7.00,0.00,30.07,M,10.00,M,CLR,M,M,M,M,M,M,M,M,M,M,M,M,M,M,17.95,KTMT 070335Z AUTO 36007KT 10SM CLR M03/M05 A3007 RMK AO2 T10311047,M
BAM,2022-12-07 03:35,-116.8743,40.5990,1382.36,32.00,28.40,86.39,40.00,6.00,0.00,30.11,M,10.00,M,CLR,M,M,M,M,M,M,M,M,M,M,M,M,M,M,25.53,KBAM 070335Z AUTO 04006KT 10SM CLR 00/M02 A3011 RMK AO1,M
BVU,2022-12-07 03:35,-114.8611,35.9475,671.00,50.00,32.00,49.81,0.00,0.00,0.00,30.00,M,10.00,M,CLR,M,M,M,M,M,M,M,M,M,M,M,M,M,M,50.00,KBVU 070335Z AUTO 00000KT 10SM CLR 10/00 A3000 RMK AO2,M
MEV,2022-12-07 03:35,-119.7500,38.9963,1441.42,26.60,23.00,86.07,90.00,5.00,0.00,30.07,M,10.00,M,BKN,M,M,M,4800.00,M,M,M,M,M,M,M,M,M,M,19.98,KMEV 070335Z AUTO 09005KT 10SM BKN048 M03/M05 A3007 RMK AO2,M
RTS,2022-12-07 03:35,-119.8764,39.6682,1539.00,26.60,23.00,86.07,320.00,6.00,0.00,30.10,M,10.00,M,CLR,M,M,M,M,M,M,M,M,M,M,M,M,M,M,19.03,KRTS 070335Z AUTO 32006KT 10SM CLR M03/M05 A3010 RMK AO2,M
CXP,2022-12-07 03:35,-119.7326,39.1923,1431.00,32.00,23.00,69.04,0.00,0.00,0.00,30.09,M,10.00,M,CLR,M,M,M,M,M,M,M,M,M,M,M,M,M,M,32.00,KCXP 070335Z AUTO 00000KT 10SM CLR M00/M05 A3009 RMK AO2,M
TPH,2022-12-07 03:38,-117.0904,38.0505,1654.00,33.00,30.90,91.51,70.00,8.00,0.01,30.04,M,9.00,M,OVC,M,M,M,3200.00,M,M,M,M,M,M,M,M,M,M,25.47,KTPH 070338Z AUTO 07008KT 9SM OVC032 01/M01 A3004 RMK AO2 SNE33 P0001 T00061006,M
EKO,2022-12-07 03:48,-115.7860,40.8242,1367.00,23.00,21.90,95.47,0.00,0.00,0.00,30.11,M,1.25,M,OVC,M,M,M,100.00,M,M,M,BR,T,M,M,M,M,M,23.00,KEKO 070348Z AUTO 00000KT 1 1/4SM BR OVC001 M05/M06 A3011 RMK AO2 I1000 T10501056,M
05U,2022-12-07 03:50,-116.0051,39.6042,1811.23,21.20,19.40,92.63,210.00,4.00,0.00,30.08,M,10.00,M,M,M,M,M,M,M,M,M,M,M,M,M,M,M,M,14.81,K05U 070350Z AUTO 21004KT 10SM M06/M07 A3008 RMK A01,M
DRA,2022-12-07 03:53,-116.0278,36.6206,1009.00,40.00,27.00,59.65,0.00,0.00,0.00,30.00,1015.30,10.00,M,CLR,M,M,M,M,M,M,M,M,M,M,M,M,M,M,39.90,KDRA 070353Z AUTO 00000KT 10SM CLR 04/M03 A3000 RMK AO2 SLP153 T00441028,M
LOL,2022-12-07 03:53,-118.5701,40.0684,1192.43,30.00,23.00,74.87,M,3.00,0.00,30.09,1022.50,10.00,M,CLR,M,M,M,M,M,M,M,M,M,M,M,M,M,M,26.40,KLOL 070353Z AUTO VRB03KT 10SM CLR M01/M05 A3009 RMK AO2 SLP225 T10111050,M
ELY,2022-12-07 03:53,-114.8453,39.2950,1909.00,12.00,10.00,91.49,180.00,8.00,0.00,30.07,1024.40,10.00,M,CLR,M,M,M,M,M,M,M,M,M,M,M,M,M,M,-0.52,KELY 070353Z AUTO 18008KT 10SM CLR M11/M12 A3007 RMK AO2 SLP244 T11111122,M
VGT,2022-12-07 03:53,-115.1933,36.2111,667.00,51.00,33.00,49.98,310.00,3.00,0.00,29.99,1017.60,10.00,M,CLR,M,M,M,M,M,M,M,M,M,M,M,M,M,M,51.10,KVGT 070353Z 31003KT 10SM CLR 11/01 A2999 RMK AO2 SLP176 T01060006,M
P68,2022-12-07 03:53,-116.0056,39.6014,1993.00,21.90,18.00,84.68,190.00,4.00,0.00,30.06,1021.00,M,M,M,M,M,M,M,M,M,M,M,M,M,M,M,M,M,15.63,KP68 070353Z AUTO 19004KT M06/M08 A3006 RMK AO1 SLP210 T10561078,M
TMT,2022-12-07 03:55,-117.1971,39.4643,1749.34,27.70,24.40,87.22,10.00,5.00,0.00,30.07,M,10.00,M,CLR,M,M,M,M,M,M,M,M,M,M,M,M,M,M,21.29,KTMT 070355Z AUTO 01005KT 10SM CLR M02/M04 A3007 RMK AO2 T10241042,M
BAM,2022-12-07 03:55,-116.8743,40.5990,1382.36,30.20,28.40,92.92,30.00,4.00,0.00,30.11,M,7.00,M,CLR,M,M,M,M,M,M,M,M,M,M,M,M,M,M,25.32,KBAM 070355Z AUTO 03004KT 7SM CLR M01/M02 A3011 RMK AO1,M
RNO,2022-12-07 03:55,-119.7711,39.4839,1341.00,34.00,25.00,69.28,10.00,3.00,0.00,30.10,1020.10,10.00,M,CLR,M,M,M,M,M,M,M,M,M,M,M,M,M,M,30.97,KRNO 070355Z 01003KT 10SM CLR 01/M04 A3010 RMK AO2 SLP201 T00111039,M
LSV,2022-12-07 03:55,-115.0343,36.2362,570.00,49.30,30.90,48.90,40.00,6.00,0.00,29.98,1015.40,10.00,M,CLR,M,M,M,M,M,M,M,M,M,M,M,M,M,M,46.37,KLSV 070355Z AUTO 04006KT 10SM CLR 10/M01 A2998 RMK AO2 SLP154 T00961006 $,M
RTS,2022-12-07 03:55,-119.8764,39.6682,1539.00,26.60,23.00,86.07,320.00,7.00,0.00,30.10,M,10.00,M,CLR,M,M,M,M,M,M,M,M,M,M,M,M,M,M,18.20,KRTS 070355Z AUTO 32007KT 10SM CLR M03/M05 A3010 RMK AO2,M
CXP,2022-12-07 03:55,-119.7326,39.1923,1431.00,30.20,23.00,74.26,0.00,0.00,0.00,30.10,M,10.00,M,CLR,M,M,M,M,M,M,M,M,M,M,M,M,M,M,30.20,KCXP 070355Z AUTO 00000KT 10SM CLR M01/M05 A3010 RMK AO2,M
BVU,2022-12-07 03:55,-114.8611,35.9475,671.00,50.00,32.00,49.81,30.00,3.00,0.00,30.00,M,10.00,M,CLR,M,M,M,M,M,M,M,M,M,M,M,M,M,M,50.00,KBVU 070355Z AUTO 03003KT 10SM CLR 10/M00 A3000 RMK AO2,M
MEV,2022-12-07 03:55,-119.7500,38.9963,1441.42,28.40,23.00,79.92,60.00,4.00,0.00,30.08,M,10.00,M,OVC,M,M,M,4900.00,M,M,M,M,M,M,M,M,M,M,23.22,KMEV 070355Z AUTO 06004KT 10SM OVC049 M02/M05 A3008 RMK AO2,M
INS,2022-12-07 03:55,-115.6733,36.5872,955.00,39.40,27.10,61.07,0.00,0.00,0.00,30.01,1016.00,10.00,M,CLR,M,M,M,M,M,M,M,M,M,M,M,M,M,M,39.40,KINS 070355Z AUTO 00000KT 10SM CLR 04/M03 A3001 RMK AO2 SLP160 T00411027 $,M
NFL,2022-12-07 03:56,-118.7010,39.4166,1199.00,27.00,19.00,71.45,0.00,0.00,0.00,30.08,1015.40,10.00,M,FEW,M,M,M,20000.00,M,M,M,M,M,M,M,M,M,M,27.00,KNFL 070356Z 00000KT 10SM FEW200 M03/M07 A3008 RMK AO2 SLP154 T10281072,M
HND,2022-12-07 03:56,-115.1344,35.9729,742.79,49.00,32.00,51.89,180.00,4.00,0.00,30.02,1018.50,10.00,M,CLR,M,M,M,M,M,M,M,M,M,M,M,M,M,M,47.16,KHND 070356Z 18004KT 10SM CLR 09/00 A3002 RMK AO2 SLP185 T00940000,M
EKO,2022-12-07 03:56,-115.7860,40.8242,1367.00,23.00,21.90,95.47,0.00,0.00,0.00,30.11,1023.60,1.00,M,OVC,M,M,M,100.00,M,M,M,BR,T,M,M,M,M,M,23.00,KEKO 070356Z AUTO 00000KT 1SM BR OVC001 M05/M06 A3011 RMK AO2 SLP236 I1000 T10501056,M
WMC,2022-12-07 03:56,-117.8072,40.9019,1315.00,25.00,21.00,84.53,330.00,4.00,0.00,30.10,1022.20,10.00,M,CLR,M,M,M,M,M,M,M,M,M,M,M,M,M,M,19.25,KWMC 070356Z AUTO 33004KT 10SM CLR M04/M06 A3010 RMK AO2 SLP222 T10391061,M
TPH,2022-12-07 03:56,-117.0904,38.0505,1654.00,33.00,30.90,91.51,40.00,7.00,0.01,30.04,1018.90,10.00,M,OVC,M,M,M,4300.00,M,M,M,M,M,M,M,M,M,M,26.12,KTPH 070356Z AUTO 04007KT 10SM OVC043 01/M01 A3004 RMK AO2 SNE33 SLP189 P0001 T00061006,M
LAS,2022-12-07 03:56,-115.1634,36.0719,663.00,52.00,32.00,46.25,250.00,3.00,0.00,30.00,1015.60,10.00,M,FEW,SCT,BKN,M,7500.00,17000.00,21000.00,M,M,M,M,M,M,M,M,52.00,KLAS 070356Z 25003KT 10SM FEW075 SCT170 BKN210 11/00 A3000 RMK AO2 SLP156 T01110000,M
05U,2022-12-07 04:10,-116.0051,39.6042,1811.23,21.20,17.60,85.74,190.00,3.00,0.00,30.09,M,10.00,M,M,M,M,M,M,M,M,M,M,M,M,M,M,M,M,16.34,K05U 070410Z AUTO 19003KT 10SM M06/M08 A3009 RMK A01,M
RTS,2022-12-07 04:15,-119.8764,39.6682,1539.00,24.80,23.00,92.74,320.00,5.00,0.00,30.10,M,10.00,M,CLR,M,M,M,M,M,M,M,M,M,M,M,M,M,M,17.84,KRTS 070415Z AUTO 32005KT 10SM CLR M04/M05 A3010 RMK AO2,M
TMT,2022-12-07 04:15,-117.1971,39.4643,1749.34,26.10,23.50,89.73,0.00,0.00,0.00,30.08,M,10.00,M,CLR,M,M,M,M,M,M,M,M,M,M,M,M,M,M,26.10,KTMT 070415Z AUTO 00000KT 10SM CLR M03/M05 A3008 RMK AO2 T10331047,M
BAM,2022-12-07 04:15,-116.8743,40.5990,1382.36,28.40,26.60,92.86,50.00,4.00,0.00,30.11,M,7.00,M,CLR,M,M,M,M,M,M,M,M,M,M,M,M,M,M,23.22,KBAM 070415Z AUTO 05004KT 7SM CLR M02/M03 A3011 RMK AO1,M
CXP,2022-12-07 04:15,-119.7326,39.1923,1431.00,30.20,23.00,74.26,0.00,0.00,0.00,30.11,M,10.00,M,FEW,M,M,M,4900.00,M,M,M,M,M,M,M,M,M,M,30.20,KCXP 070415Z AUTO 00000KT 10SM FEW049 M01/M05 A3011 RMK AO2,M
MEV,2022-12-07 04:15,-119.7500,38.9963,1441.42,30.20,23.00,74.26,70.00,4.00,0.00,30.09,M,10.00,M,OVC,M,M,M,4800.00,M,M,M,M,M,M,M,M,M,M,25.32,KMEV 070415Z AUTO 07004KT 10SM OVC048 M01/M05 A3009 RMK AO2,M
BVU,2022-12-07 04:15,-114.8611,35.9475,671.00,50.00,32.00,49.81,0.00,0.00,0.00,30.00,M,10.00,M,FEW,FEW,M,M,5000.00,12000.00,M,M,M,M,M,M,M,M,M,50.00,KBVU 070415Z AUTO 00000KT 10SM FEW050 FEW120 10/00 A3000 RMK AO2,M
05U,2022-12-07 04:30,-116.0051,39.6042,1811.23,21.20,19.40,92.63,0.00,0.00,0.00,30.09,M,10.00,M,M,M,M,M,M,M,M,M,M,M,M,M,M,M,M,21.20,K05U 070430Z AUTO 00000KT 10SM M06/M07 A3009 RMK A01,M
BAM,2022-12-07 04:35,-116.8743,40.5990,1382.36,30.20,26.60,86.28,50.00,5.00,0.00,30.12,M,7.00,M,CLR,M,M,M,M,M,M,M,M,M,M,M,M,M,M,24.26,KBAM 070435Z AUTO 05005KT 7SM CLR M01/M03 A3012 RMK AO1,M
RTS,2022-12-07 04:35,-119.8764,39.6682,1539.00,24.80,21.20,85.96,330.00,4.00,0.00,30.10,M,10.00,M,CLR,M,M,M,M,M,M,M,M,M,M,M,M,M,M,19.01,KRTS 070435Z AUTO 33004KT 10SM CLR M04/M06 A3010 RMK AO2,M
TMT,2022-12-07 04:35,-117.1971,39.4643,1749.34,23.90,21.90,91.94,0.00,0.00,0.00,30.08,M,10.00,M,CLR,M,M,M,M,M,M,M,M,M,M,M,M,M,M,23.90,KTMT 070435Z AUTO 00000KT 10SM CLR M04/M06 A3008 RMK AO2 T10451056,M
MEV,2022-12-07 04:35,-119.7500,38.9963,1441.42,30.20,23.00,74.26,60.00,4.00,0.00,30.09,M,10.00,M,OVC,M,M,M,5000.00,M,M,M,M,M,M,M,M,M,M,25.32,KMEV 070435Z AUTO 06004KT 10SM OVC050 M01/M05 A3009 RMK AO2,M
CXP,2022-12-07 04:35,-119.7326,39.1923,1431.00,30.20,23.00,74.26,0.00,0.00,0.00,30.11,M,10.00,M,BKN,M,M,M,4900.00,M,M,M,M,M,M,M,M,M,M,30.20,KCXP 070435Z AUTO 00000KT 10SM BKN049 M01/M05 A3011 RMK AO2,M
BVU,2022-12-07 04:35,-114.8611,35.9475,671.00,50.00,32.00,49.81,0.00,0.00,0.00,30.01,M,10.00,M,BKN,BKN,M,M,5000.00,12000.00,M,M,M,M,M,M,M,M,M,50.00,KBVU 070435Z AUTO 00000KT 10SM BKN050 BKN120 10/M00 A3001 RMK AO2,M
05U,2022-12-07 04:50,-116.0051,39.6042,1811.23,21.20,19.40,92.63,0.00,0.00,0.00,30.09,M,10.00,M,M,M,M,M,M,M,M,M,M,M,M,M,M,M,M,21.20,K05U 070450Z AUTO 00000KT 10SM M06/M07 A3009 RMK A01,M
ELY,2022-12-07 04:53,-114.8453,39.2950,1909.00,10.00,7.00,87.37,180.00,9.00,0.00,30.08,1024.70,10.00,M,CLR,M,M,M,M,M,M,M,M,M,M,M,M,M,M,-3.84,KELY 070453Z AUTO 18009KT 10SM CLR M12/M14 A3008 RMK AO2 SLP247 T11221139,M
P68,2022-12-07 04:53,-116.0056,39.6014,1993.00,21.90,18.00,84.68,0.00,0.00,0.00,30.06,1020.60,M,M,M,M,M,M,M,M,M,M,M,M,M,M,M,M,M,21.90,KP68 070453Z AUTO 00000KT M06/M08 A3006 RMK AO1 SLP206 T10561078,M
LOL,2022-12-07 04:53,-118.5701,40.0684,1192.43,30.00,23.00,74.87,360.00,6.00,0.00,30.10,1021.80,10.00,M,CLR,M,M,M,M,M,M,M,M,M,M,M,M,M,M,23.12,KLOL 070453Z AUTO 36006KT 10SM CLR M01/M05 A3010 RMK AO2 SLP218 T10111050,M
VGT,2022-12-07 04:53,-115.1933,36.2111,667.00,48.00,33.00,56.10,330.00,5.00,0.00,30.01,1017.90,10.00,M,CLR,M,M,M,M,M,M,M,M,M,M,M,M,M,M,45.40,KVGT 070453Z AUTO 33005KT 10SM CLR 09/01 A3001 RMK AO2 SLP179 T00890006,M
DRA,2022-12-07 04:53,-116.0278,36.6206,1009.00,37.00,27.00,66.82,80.00,4.00,0.00,30.01,1015.60,10.00,M,FEW,M,M,M,5000.00,M,M,M,M,M,M,M,M,M,M,33.26,KDRA 070453Z AUTO 08004KT 10SM FEW050 03/M03 A3001 RMK AO2 SLP156 T00281028,M
INS,2022-12-07 04:55,-115.6733,36.5872,955.00,37.80,25.50,60.85,0.00,0.00,0.00,30.01,1016.00,10.00,M,CLR,M,M,M,M,M,M,M,M,M,M,M,M,M,M,37.80,KINS 070455Z AUTO 00000KT 10SM CLR 03/M04 A3001 RMK AO2 SLP160 T00321036 $,M
RNO,2022-12-07 04:55,-119.7711,39.4839,1341.00,30.00,24.10,78.40,170.00,4.00,0.00,30.11,1020.50,10.00,M,FEW,M,M,M,6000.00,M,M,M,M,M,M,M,M,M,M,25.08,KRNO 070455Z 17004KT 10SM FEW060 M01/M04 A3011 RMK AO2 SLP205 T10111044,M
RTS,2022-12-07 04:55,-119.8764,39.6682,1539.00,24.80,21.20,85.96,330.00,5.00,0.00,30.10,M,10.00,M,CLR,M,M,M,M,M,M,M,M,M,M,M,M,M,M,17.84,KRTS 070455Z AUTO 33005KT 10SM CLR M04/M06 A3010 RMK AO2,M
MEV,2022-12-07 04:55,-119.7500,38.9963,1441.42,30.20,23.00,74.26,70.00,4.00,0.00,30.09,M,10.00,M,OVC,M,M,M,5000.00,M,M,M,M,M,M,M,M,M,M,25.32,KMEV 070455Z AUTO 07004KT 10SM OVC050 M01/M05 A3009 RMK AO2,M
BAM,2022-12-07 04:55,-116.8743,40.5990,1382.36,30.20,26.60,86.28,50.00,4.00,0.00,30.12,M,10.00,M,CLR,M,M,M,M,M,M,M,M,M,M,M,M,M,M,25.32,KBAM 070455Z AUTO 05004KT 10SM CLR M01/M03 A3012 RMK AO1,M
TMT,2022-12-07 04:55,-117.1971,39.4643,1749.34,23.00,21.40,93.47,150.00,3.00,0.00,30.09,M,10.00,M,CLR,M,M,M,M,M,M,M,M,M,M,M,M,M,M,18.40,KTMT 070455Z AUTO 15003KT 10SM CLR M05/M06 A3009 RMK AO2 T10501059,M
BVU,2022-12-07 04:55,-114.8611,35.9475,671.00,48.20,32.00,53.27,40.00,3.00,0.00,30.01,M,10.00,M,BKN,BKN,M,M,4900.00,5500.00,M,M,M,M,M,M,M,M,M,47.21,KBVU 070455Z AUTO 04003KT 10SM BKN049 BKN055 09/00 A3001 RMK AO2,M
CXP,2022-12-07 04:55,-119.7326,39.1923,1431.00,30.20,23.00,74.26,0.00,0.00,0.00,30.11,M,10.00,M,BKN,M,M,M,4900.00,M,M,M,M,M,M,M,M,M,M,30.20,KCXP 070455Z AUTO 00000KT 10SM BKN049 M01/M05 A3011 RMK AO2,M
LSV,2022-12-07 04:55,-115.0343,36.2362,570.00,47.80,31.10,52.14,60.00,6.00,0.00,29.99,1015.50,10.00,M,CLR,M,M,M,M,M,M,M,M,M,M,M,M,M,M,44.56,KLSV 070455Z AUTO 06006KT 10SM CLR 09/M00 A2999 RMK AO2 SLP155 T00881005 $,M
EKO,2022-12-07 04:56,-115.7860,40.8242,1367.00,23.00,21.00,91.90,M,3.00,0.00,30.12,1023.70,1.25,M,OVC,M,M,M,100.00,M,M,M,BR,0.01,M,M,M,M,M,18.40,KEKO 070456Z AUTO VRB03KT 1 1/4SM BR OVC001 M05/M06 A3012 RMK AO2 SLP237 I1001 T10501061,M
HND,2022-12-07 04:56,-115.1344,35.9729,742.79,44.00,30.90,59.50,180.00,5.00,0.00,30.03,1018.80,10.00,M,CLR,M,M,M,M,M,M,M,M,M,M,M,M,M,M,40.77,KHND 070456Z AUTO 18005KT 10SM CLR 07/M01 A3003 RMK AO2 SLP188 T00671006,M
NFL,2022-12-07 04:56,-118.7010,39.4166,1199.00,25.00,18.00,74.36,270.00,4.00,0.00,30.09,1015.70,10.00,M,FEW,M,M,M,20000.00,M,M,M,M,M,M,M,M,M,M,19.25,KNFL 070456Z 27004KT 10SM FEW200 M04/M08 A3009 RMK AO2 SLP157 T10391078,M
LAS,2022-12-07 04:56,-115.1634,36.0719,663.00,50.00,34.00,53.97,290.00,4.00,0.00,30.01,1015.90,10.00,M,FEW,SCT,BKN,M,7500.00,17000.00,21000.00,M,M,M,M,M,M,M,M,50.00,KLAS 070456Z 29004KT 10SM FEW075 SCT170 BKN210 10/01 A3001 RMK AO2 SLP159 T01000011,M
TPH,2022-12-07 04:56,-117.0904,38.0505,1654.00,30.90,30.00,96.41,360.00,4.00,0.00,30.05,1018.60,10.00,M,BKN,OVC,M,M,5000.00,7000.00,M,M,M,M,M,M,M,M,M,26.14,KTPH 070456Z AUTO 36004KT 10SM BKN050 OVC070 M01/M01 A3005 RMK AO2 SLP186 T10061011,M
WMC,2022-12-07 04:56,-117.8072,40.9019,1315.00,23.00,19.00,84.39,130.00,3.00,0.00,30.11,1022.20,10.00,M,CLR,M,M,M,M,M,M,M,M,M,M,M,M,M,M,18.40,KWMC 070456Z AUTO 13003KT 10SM CLR M05/M07 A3011 RMK AO2 SLP222 T10501072,M
05U,2022-12-07 05:10,-116.0051,39.6042,1811.23,21.20,17.60,85.74,210.00,3.00,0.00,30.10,M,10.00,M,M,M,M,M,M,M,M,M,M,M,M,M,M,M,M,16.34,K05U 070510Z AUTO 21003KT 10SM M06/M08 A3010 RMK A01,M
MEV,2022-12-07 05:15,-119.7500,38.9963,1441.42,28.40,23.00,79.92,130.00,3.00,0.00,30.10,M,10.00,M,FEW,BKN,M,M,4300.00,5000.00,M,M,M,M,M,M,M,M,M,24.57,KMEV 070515Z AUTO 13003KT 10SM FEW043 BKN050 M02/M05 A3010 RMK AO2,M
BVU,2022-12-07 05:15,-114.8611,35.9475,671.00,46.40,30.20,53.00,20.00,4.00,0.00,30.01,M,10.00,M,FEW,M,M,M,4600.00,M,M,M,M,M,M,M,M,M,M,44.24,KBVU 070515Z AUTO 02004KT 10SM FEW046 08/M01 A3001 RMK AO2,M
CXP,2022-12-07 05:15,-119.7326,39.1923,1431.00,28.40,23.00,79.92,0.00,0.00,0.00,30.11,M,10.00,M,CLR,M,M,M,M,M,M,M,M,M,M,M,M,M,M,28.40,KCXP 070515Z AUTO 00000KT 10SM CLR M02/M05 A3011 RMK AO2,M
RTS,2022-12-07 05:15,-119.8764,39.6682,1539.00,24.80,21.20,85.96,340.00,4.00,0.00,30.11,M,10.00,M,CLR,M,M,M,M,M,M,M,M,M,M,M,M,M,M,19.01,KRTS 070515Z AUTO 34004KT 10SM CLR M04/M06 A3011 RMK AO2,M
TMT,2022-12-07 05:15,-117.1971,39.4643,1749.34,21.90,20.70,95.04,120.00,4.00,0.00,30.09,M,10.00,M,CLR,M,M,M,M,M,M,M,M,M,M,M,M,M,M,15.63,KTMT 070515Z AUTO 12004KT 10SM CLR M06/M06 A3009 RMK AO2 T10561063,M
BAM,2022-12-07 05:15,-116.8743,40.5990,1382.36,28.40,26.60,92.86,50.00,4.00,0.00,30.12,M,10.00,M,CLR,M,M,M,M,M,M,M,M,M,M,M,M,M,M,23.22,KBAM 070515Z AUTO 05004KT 10SM CLR M02/M03 A3012 RMK AO1,M
05U,2022-12-07 05:30,-116.0051,39.6042,1811.23,19.40,17.60,92.57,0.00,0.00,0.00,30.10,M,10.00,M,M,M,M,M,M,M,M,M,M,M,M,M,M,M,M,19.40,K05U 070530Z AUTO 00000KT 10SM M07/M08 A3010 RMK A01,M
MEV,2022-12-07 05:35,-119.7500,38.9963,1441.42,24.80,21.20,85.96,150.00,5.00,0.00,30.10,M,10.00,M,OVC,M,M,M,4800.00,M,M,M,M,M,M,M,M,M,M,17.84,KMEV 070535Z AUTO 15005KT 10SM OVC048 M04/M06 A3010 RMK AO2,M
BVU,2022-12-07 05:35,-114.8611,35.9475,671.00,46.40,30.20,53.00,0.00,0.00,0.00,30.01,M,10.00,M,CLR,M,M,M,M,M,M,M,M,M,M,M,M,M,M,46.40,KBVU 070535Z AUTO 00000KT 10SM CLR 08/M01 A3001 RMK AO2,M
TMT,2022-12-07 05:35,-117.1971,39.4643,1749.34,23.50,21.60,92.31,90.00,4.00,0.00,30.09,M,10.00,M,CLR,M,M,M,M,M,M,M,M,M,M,M,M,M,M,17.49,KTMT 070535Z AUTO 09004KT 10SM CLR M05/M06 A3009 RMK AO2 T10471058,M
BAM,2022-12-07 05:35,-116.8743,40.5990,1382.36,28.40,26.60,92.86,50.00,5.00,0.00,30.13,M,10.00,M,CLR,M,M,M,M,M,M,M,M,M,M,M,M,M,M,22.12,KBAM 070535Z AUTO 05005KT 10SM CLR M02/M03 A3013 RMK AO1,M
CXP,2022-12-07 05:35,-119.7326,39.1923,1431.00,28.40,21.20,74.08,0.00,0.00,0.00,30.12,M,10.00,M,CLR,M,M,M,M,M,M,M,M,M,M,M,M,M,M,28.40,KCXP 070535Z AUTO 00000KT 10SM CLR M02/M06 A3012 RMK AO2,M
RTS,2022-12-07 05:35,-119.8764,39.6682,1539.00,23.00,21.20,92.69,360.00,4.00,0.00,30.11,M,10.00,M,CLR,M,M,M,M,M,M,M,M,M,M,M,M,M,M,16.91,KRTS 070535Z AUTO 36004KT 10SM CLR M05/M06 A3011 RMK AO2,M
05U,2022-12-07 05:50,-116.0051,39.6042,1811.23,21.20,19.40,92.63,0.00,0.00,0.00,30.11,M,10.00,M,M,M,M,M,M,M,M,M,M,M,M,M,M,M,M,21.20,K05U 070550Z AUTO 00000KT 10SM M06/M07 A3011 RMK A01,M
LOL,2022-12-07 05:53,-118.5701,40.0684,1192.43,21.00,17.10,84.62,180.00,3.00,0.00,30.11,1022.30,10.00,M,CLR,M,M,M,M,M,M,M,M,M,M,M,M,M,M,16.11,KLOL 070553Z AUTO 18003KT 10SM CLR M06/M08 A3011 RMK AO2 SLP223 T10611083 10061 21061 51009,M
ELY,2022-12-07 05:53,-114.8453,39.2950,1909.00,10.90,8.10,88.21,180.00,8.00,0.00,30.08,1024.00,10.00,M,CLR,M,M,M,M,M,M,M,M,M,M,T,M,M,M,-1.88,KELY 070553Z AUTO 18008KT 10SM CLR M12/M13 A3008 RMK AO2 SLP240 I6000 T11171133 11017 21133 51008,M
P68,2022-12-07 05:53,-116.0056,39.6014,1993.00,21.90,18.00,84.68,0.00,0.00,0.00,30.08,1020.20,M,M,M,M,M,M,M,M,M,M,M,M,M,M,M,M,M,21.90,KP68 070553Z AUTO 00000KT M06/M08 A3008 RMK AO1 SLP202 T10561078 10028 21072 53009,M
DRA,2022-12-07 05:53,-116.0278,36.6206,1009.00,37.00,27.00,66.82,0.00,0.00,0.00,30.02,1015.60,10.00,M,CLR,M,M,M,M,M,M,M,M,M,M,M,M,M,M,37.00,KDRA 070553Z AUTO 00000KT 10SM CLR 03/M03 A3002 RMK AO2 SLP156 T00281028 10106 20022 51010,M
VGT,2022-12-07 05:53,-115.1933,36.2111,667.00,47.00,33.00,58.47,300.00,5.00,0.00,30.01,1018.10,10.00,M,CLR,M,M,M,M,M,M,M,M,M,M,M,M,M,M,44.09,KVGT 070553Z AUTO 30005KT 10SM CLR 08/01 A3001 RMK AO2 SLP181 T00830006 10139 20078 51009,M
EKO,2022-12-07 05:54,-115.7860,40.8242,1367.00,21.20,21.20,100.00,30.00,5.05,M,30.13,M,2.00,M,OVC,M,M,M,98.00,M,M,M,BR,M,M,M,M,M,M,13.51,SPECI KEKO 070554Z 03005KT 2SM BR OVC001 M06/M06 A3013 RMK AO2 VIS 1 1/2V5 I1001 FIBI,M
LSV,2022-12-07 05:55,-115.0343,36.2362,570.00,46.00,30.60,54.89,50.00,6.00,0.00,30.00,1015.50,10.00,M,CLR,M,M,M,M,M,M,M,M,M,M,M,M,M,M,42.27,KLSV 070555Z AUTO 05006KT 10SM CLR 08/M01 A3000 RMK AO2 SLP155 T00771008 10134 20077 52009 $,M
BVU,2022-12-07 05:55,-114.8611,35.9475,671.00,46.40,30.20,53.00,0.00,0.00,0.00,30.02,M,10.00,M,FEW,M,M,M,4800.00,M,M,M,M,M,M,M,M,M,M,46.40,KBVU 070555Z AUTO 00000KT 10SM FEW048 08/M01 A3002 RMK AO2,M
CXP,2022-12-07 05:55,-119.7326,39.1923,1431.00,28.40,21.20,74.08,0.00,0.00,0.00,30.12,M,10.00,M,CLR,M,M,M,M,M,M,M,M,M,M,M,M,M,M,28.40,KCXP 070555Z AUTO 00000KT 10SM CLR M02/M06 A3012 RMK AO2,M
RNO,2022-12-07 05:55,-119.7711,39.4839,1341.00,30.90,24.10,75.59,0.00,0.00,0.00,30.11,1020.40,10.00,M,FEW,M,M,M,6000.00,M,M,M,M,M,M,M,M,M,M,30.90,KRNO 070555Z 00000KT 10SM FEW060 M01/M04 A3011 RMK AO2 SLP204 T10061044 10061 21011 51012,M
RTS,2022-12-07 05:55,-119.8764,39.6682,1539.00,21.20,19.40,92.63,320.00,3.00,0.00,30.11,M,10.00,M,CLR,M,M,M,M,M,M,M,M,M,M,M,M,M,M,16.34,KRTS 070555Z AUTO 32003KT 10SM CLR M06/M07 A3011 RMK AO2,M
MEV,2022-12-07 05:55,-119.7500,38.9963,1441.42,24.80,21.20,85.96,150.00,6.00,0.00,30.11,M,10.00,M,BKN,M,M,M,4900.00,M,M,M,M,M,M,M,M,M,M,16.86,KMEV 070555Z AUTO 15006KT 10SM BKN049 M04/M06 A3011 RMK AO2,M
BAM,2022-12-07 05:55,-116.8743,40.5990,1382.36,26.60,24.80,92.80,40.00,4.00,0.00,30.13,M,10.00,M,CLR,M,M,M,M,M,M,M,M,M,M,M,M,M,M,21.11,KBAM 070555Z AUTO 04004KT 10SM CLR M03/M04 A3013 RMK AO1,M
TMT,2022-12-07 05:55,-117.1971,39.4643,1749.34,21.60,19.20,90.29,100.00,3.00,0.00,30.09,M,10.00,M,CLR,M,M,M,M,M,M,M,M,M,M,M,M,M,M,16.80,KTMT 070555Z AUTO 10003KT 10SM CLR M06/M07 A3009 RMK AO2 T10581071 10016 21058,M
INS,2022-12-07 05:55,-115.6733,36.5872,955.00,37.40,26.40,64.16,0.00,0.00,0.00,30.02,1015.90,10.00,M,CLR,M,M,M,M,M,M,M,M,M,M,M,M,M,M,37.40,KINS 070555Z AUTO 00000KT 10SM CLR 03/M03 A3002 RMK AO2 SLP159 T00301031 10110 20018 52009 $,M
NFL,2022-12-07 05:56,-118.7010,39.4166,1199.00,23.00,17.10,77.77,260.00,4.00,0.00,30.10,1016.00,10.00,M,FEW,M,M,M,20000.00,M,M,M,M,M,M,M,M,M,M,16.91,KNFL 070556Z 26004KT 10SM FEW200 M05/M08 A3010 RMK AO2 SLP160 T10501083 10067 21056 51010,M
EKO,2022-12-07 05:56,-115.7860,40.8242,1367.00,21.90,21.00,96.26,30.00,6.00,0.00,30.13,1024.30,2.00,M,OVC,M,M,M,100.00,M,M,M,BR,0.01,M,0.02,M,M,M,13.37,KEKO 070556Z AUTO 03006KT 2SM BR OVC001 M06/M06 A3013 RMK AO2 VIS 1 1/4V5 SLP243 I1001 I6002 T10561061 11033 21056 53007,M
LAS,2022-12-07 05:56,-115.1634,36.0719,663.00,47.00,33.00,58.47,280.00,6.00,0.00,30.02,1016.30,10.00,M,FEW,SCT,M,M,17000.00,21000.00,M,M,M,M,M,M,M,M,M,43.48,KLAS 070556Z 28006KT 10SM FEW170 SCT210 08/01 A3002 RMK AO2 SLP163 T00830006 10133 20083 53008,M
WMC,2022-12-07 05:56,-117.8072,40.9019,1315.00,21.90,18.00,84.68,150.00,5.00,0.00,30.11,1022.00,10.00,M,CLR,M,M,M,M,M,M,M,M,0.01,M,0.01,M,M,M,14.40,KWMC 070556Z AUTO 15005KT 10SM CLR M06/M08 A3011 RMK AO2 SLP220 I1001 I6001 T10561078 10033 21061 51005,M
HND,2022-12-07 05:56,-115.1344,35.9729,742.79,42.00,30.00,61.94,160.00,7.00,0.00,30.03,1019.10,10.00,M,CLR,M,M,M,M,M,M,M,M,M,M,M,M,M,M,37.09,KHND 070556Z AUTO 16007KT 10SM CLR 06/M01 A3003 RMK AO2 SLP191 T00561011 10128 20056 51010,M
TPH,2022-12-07 05:56,-117.0904,38.0505,1654.00,32.00,30.90,95.65,60.00,6.00,T,30.05,1018.30,3.00,M,BKN,BKN,OVC,M,3000.00,3600.00,6000.00,M,-SN BR,M,M,M,M,M,M,25.53,KTPH 070556Z AUTO 06006KT 3SM -SN BR BKN030 BKN036 OVC060 00/M01 A3005 RMK AO2 SNB24 SLP183 P0000 60001 T00001006 10044 21006 52005,M
TPH,2022-12-07 06:02,-117.0904,38.0505,1654.00,32.00,30.90,95.65,50.00,6.00,T,30.06,M,2.00,M,BKN,BKN,OVC,M,2800.00,3600.00,6000.00,M,-SN BR,M,M,M,M,M,M,25.53,KTPH 070602Z AUTO 05006KT 2SM -SN BR BKN028 BKN036 OVC060 00/M01 A3006 RMK AO2 P0000 T00001006,M
EKO,2022-12-07 06:04,-115.7860,40.8242,1367.00,21.90,21.00,96.26,30.00,6.00,0.00,30.13,M,1.00,M,OVC,M,M,M,100.00,M,M,M,BR,M,M,M,M,M,M,13.37,KEKO 070604Z AUTO 03006KT 1SM BR OVC001 M06/M06 A3013 RMK AO2 T10561061,M
05U,2022-12-07 06:10,-116.0051,39.6042,1811.23,21.20,19.40,92.63,360.00,3.00,0.00,30.10,M,10.00,M,M,M,M,M,M,M,M,M,M,M,M,M,M,M,M,16.34,K05U 070610Z AUTO 36003KT 10SM M06/M07 A3010 RMK A01,M
TPH,2022-12-07 06:11,-117.0904,38.0505,1654.00,32.00,30.90,95.65,30.00,4.00,T,30.06,M,1.25,M,OVC,M,M,M,2200.00,M,M,M,-SN BR,M,M,M,M,M,M,27.42,KTPH 070611Z AUTO 03004KT 1 1/4SM -SN BR OVC022 00/M01 A3006 RMK AO2 P0000 T00001006,M
TMT,2022-12-07 06:15,-117.1971,39.4643,1749.34,22.30,19.80,89.94,0.00,0.00,0.00,30.09,M,10.00,M,CLR,M,M,M,M,M,M,M,M,M,M,M,M,M,M,22.30,KTMT 070615Z AUTO 00000KT 10SM CLR M05/M07 A3009 RMK AO2 T10541068,M
BVU,2022-12-07 06:15,-114.8611,35.9475,671.00,44.60,30.20,56.74,0.00,0.00,0.00,30.02,M,10.00,M,BKN,M,M,M,4900.00,M,M,M,M,M,M,M,M,M,M,44.60,KBVU 070615Z AUTO 00000KT 10SM BKN049 07/M01 A3002 RMK AO2,M
CXP,2022-12-07 06:15,-119.7326,39.1923,1431.00,28.40,21.20,74.08,0.00,0.00,0.00,30.12,M,10.00,M,CLR,M,M,M,M,M,M,M,M,M,M,M,M,M,M,28.40,KCXP 070615Z AUTO 00000KT 10SM CLR M02/M06 A3012 RMK AO2,M
RTS,2022-12-07 06:15,-119.8764,39.6682,1539.00,21.20,19.40,92.63,0.00,0.00,0.00,30.11,M,10.00,M,CLR,M,M,M,M,M,M,M,M,M,M,M,M,M,M,21.20,KRTS 070615Z AUTO 00000KT 10SM CLR M06/M07 A3011 RMK AO2,M
MEV,2022-12-07 06:15,-119.7500,38.9963,1441.42,23.00,21.20,92.69,160.00,4.00,0.00,30.11,M,10.00,M,BKN,M,M,M,4800.00,M,M,M,M,M,M,M,M,M,M,16.91,KMEV 070615Z AUTO 16004KT 10SM BKN048 M05/M06 A3011 RMK AO2,M
BAM,2022-12-07 06:15,-116.8743,40.5990,1382.36,28.40,26.60,92.86,50.00,5.00,0.00,30.13,M,10.00,M,CLR,M,M,M,M,M,M,M,M,M,M,M,M,M,M,22.12,KBAM 070615Z AUTO 05005KT 10SM CLR M02/M03 A3013 RMK AO1,M
TPH,2022-12-07 06:34,-117.0904,38.0505,1654.00,32.00,30.90,95.65,360.00,6.00,0.01,30.06,M,2.50,M,OVC,M,M,M,1500.00,M,M,M,-SN BR,M,M,M,M,M,M,25.53,KTPH 070634Z AUTO 36006KT 2 1/2SM -SN BR OVC015 00/M01 A3006 RMK AO2 P0001 T00001006,M
BAM,2022-12-07 06:35,-116.8743,40.5990,1382.36,28.40,26.60,92.86,40.00,7.00,0.00,30.13,M,10.00,M,CLR,M,M,M,M,M,M,M,M,M,M,M,M,M,M,20.39,KBAM 070635Z AUTO 04007KT 10SM CLR M02/M03 A3013 RMK AO1,M
MEV,2022-12-07 06:35,-119.7500,38.9963,1441.42,23.00,21.20,92.69,0.00,0.00,0.00,30.11,M,10.00,M,BKN,M,M,M,4800.00,M,M,M,M,M,M,M,M,M,M,23.00,KMEV 070635Z AUTO 00000KT 10SM BKN048 M05/M06 A3011 RMK AO2,M
05U,2022-12-07 06:35,-116.0051,39.6042,1811.23,21.20,19.40,92.63,M,M,0.00,30.11,M,10.00,M,M,M,M,M,M,M,M,M,M,M,M,M,M,M,M,M,K05U 070635Z AUTO 10SM M06/M07 A3011 RMK A01,M
RTS,2022-12-07 06:35,-119.8764,39.6682,1539.00,21.20,19.40,92.63,330.00,6.00,0.00,30.11,M,10.00,M,CLR,M,M,M,M,M,M,M,M,M,M,M,M,M,M,12.52,KRTS 070635Z AUTO 33006KT 10SM CLR M06/M07 A3011 RMK AO2,M
CXP,2022-12-07 06:35,-119.7326,39.1923,1431.00,26.60,21.20,79.77,0.00,0.00,0.00,30.12,M,10.00,M,CLR,M,M,M,M,M,M,M,M,M,M,M,M,M,M,26.60,KCXP 070635Z AUTO 00000KT 10SM CLR M03/M06 A3012 RMK AO2,M
BVU,2022-12-07 06:35,-114.8611,35.9475,671.00,44.60,30.20,56.74,0.00,0.00,0.00,30.02,M,10.00,M,BKN,M,M,M,4900.00,M,M,M,M,M,M,M,M,M,M,44.60,KBVU 070635Z AUTO 00000KT 10SM BKN049 07/M01 A3002 RMK AO2,M
TMT,2022-12-07 06:35,-117.1971,39.4643,1749.34,20.70,18.50,91.03,120.00,4.00,0.00,30.09,M,10.00,M,CLR,M,M,M,M,M,M,M,M,M,M,M,M,M,M,14.22,KTMT 070635Z AUTO 12004KT 10SM CLR M06/M07 A3009 RMK AO2 T10631075,M
ELY,2022-12-07 06:53,-114.8453,39.2950,1909.00,10.00,8.10,91.82,180.00,9.00,0.00,30.09,1023.60,10.00,M,CLR,M,M,M,M,M,M,M,M,M,M,M,M,M,M,-3.84,KELY 070653Z AUTO 18009KT 10SM CLR M12/M13 A3009 RMK AO2 SLP236 T11221133,M
VGT,2022-12-07 06:53,-115.1933,36.2111,667.00,45.00,33.00,62.83,300.00,5.00,0.00,30.02,1018.30,10.00,M,CLR,M,M,M,M,M,M,M,M,M,M,M,M,M,M,41.83,KVGT 070653Z AUTO 30005KT 10SM CLR 07/01 A3002 RMK AO2 SLP183 T00720006,M
LOL,2022-12-07 06:53,-118.5701,40.0684,1192.43,21.00,19.00,91.83,210.00,4.00,0.00,30.11,1022.20,10.00,M,CLR,M,M,M,M,M,M,M,M,M,M,M,M,M,M,14.57,KLOL 070653Z AUTO 21004KT 10SM CLR M06/M07 A3011 RMK AO2 SLP222 T10611072,M
P68,2022-12-07 06:53,-116.0056,39.6014,1993.00,21.00,17.10,84.62,0.00,0.00,0.00,30.08,1020.20,M,M,M,M,M,M,M,M,M,M,M,M,M,M,M,M,M,21.00,KP68 070653Z AUTO 00000KT M06/M08 A3008 RMK AO1 SLP202 T10611083,M
DRA,2022-12-07 06:53,-116.0278,36.6206,1009.00,33.00,25.00,71.82,0.00,0.00,0.00,30.03,1016.00,10.00,M,SCT,M,M,M,5000.00,M,M,M,M,M,M,M,M,M,M,33.10,KDRA 070653Z AUTO 00000KT 10SM SCT050 01/M04 A3003 RMK AO2 SLP160 T00061039,M
MEV,2022-12-07 06:55,-119.7500,38.9963,1441.42,24.80,21.20,85.96,0.00,0.00,0.00,30.11,M,10.00,M,FEW,M,M,M,4600.00,M,M,M,M,M,M,M,M,M,M,24.80,KMEV 070655Z AUTO 00000KT 10SM FEW046 M04/M06 A3011 RMK AO2,M
05U,2022-12-07 06:55,-116.0051,39.6042,1811.23,21.20,17.60,85.74,M,M,0.00,30.11,M,10.00,M,M,M,M,M,M,M,M,M,M,M,M,M,M,M,M,M,K05U 070655Z AUTO 10SM M06/M08 A3011 RMK A01,M
TMT,2022-12-07 06:55,-117.1971,39.4643,1749.34,19.20,17.40,92.56,160.00,3.00,0.00,30.10,M,10.00,M,CLR,M,M,M,M,M,M,M,M,M,M,M,M,M,M,14.06,KTMT 070655Z AUTO 16003KT 10SM CLR M07/M08 A3010 RMK AO2 T10711081,M
CXP,2022-12-07 06:55,-119.7326,39.1923,1431.00,26.60,21.20,79.77,40.00,3.00,0.00,30.12,M,10.00,M,CLR,M,M,M,M,M,M,M,M,M,M,M,M,M,M,22.52,KCXP 070655Z AUTO 04003KT 10SM CLR M03/M06 A3012 RMK AO2,M
BVU,2022-12-07 06:55,-114.8611,35.9475,671.00,42.80,30.20,60.79,0.00,0.00,0.00,30.02,M,10.00,M,SCT,M,M,M,4900.00,M,M,M,M,M,M,M,M,M,M,42.80,KBVU 070655Z AUTO 00000KT 10SM SCT049 06/M01 A3002 RMK AO2,M
BAM,2022-12-07 06:55,-116.8743,40.5990,1382.36,28.40,26.60,92.86,50.00,5.00,0.00,30.13,M,10.00,M,CLR,M,M,M,M,M,M,M,M,M,M,M,M,M,M,22.12,KBAM 070655Z AUTO 05005KT 10SM CLR M02/M03 A3013 RMK AO1,M
INS,2022-12-07 06:55,-115.6733,36.5872,955.00,35.40,25.20,66.07,0.00,0.00,0.00,30.03,1016.20,10.00,M,OVC,M,M,M,5000.00,M,M,M,M,M,M,M,M,M,M,35.40,KINS 070655Z AUTO 00000KT 10SM OVC050 02/M04 A3003 RMK AO2 SLP162 T00191038 $,M
RTS,2022-12-07 06:55,-119.8764,39.6682,1539.00,23.00,19.40,85.85,360.00,5.00,0.00,30.12,M,10.00,M,CLR,M,M,M,M,M,M,M,M,M,M,M,M,M,M,15.71,KRTS 070655Z AUTO 36005KT 10SM CLR M05/M07 A3012 RMK AO2,M
LSV,2022-12-07 06:55,-115.0343,36.2362,570.00,44.60,32.00,61.03,360.00,4.00,0.00,30.01,1015.80,10.00,M,CLR,M,M,M,M,M,M,M,M,M,M,M,M,M,M,42.13,KLSV 070655Z AUTO 36004KT 10SM CLR 07/00 A3001 RMK AO2 SLP158 T00700000 $,M
RNO,2022-12-07 06:55,-119.7711,39.4839,1341.00,28.90,21.90,74.76,290.00,5.00,0.00,30.12,1020.50,10.00,M,CLR,M,M,M,M,M,M,M,M,M,M,M,M,M,M,22.71,KRNO 070655Z 29005KT 10SM CLR M02/M06 A3012 RMK AO2 SLP205 T10171056,M
HND,2022-12-07 06:56,-115.1344,35.9729,742.79,41.00,30.00,64.63,160.00,3.00,0.00,30.04,1019.30,10.00,M,CLR,M,M,M,M,M,M,M,M,M,M,M,M,M,M,38.98,KHND 070656Z AUTO 16003KT 10SM CLR 05/M01 A3004 RMK AO2 SLP193 T00501011 401390050,M
NFL,2022-12-07 06:56,-118.7010,39.4166,1199.00,21.00,17.10,84.62,240.00,3.00,0.00,30.11,1016.20,10.00,M,FEW,M,M,M,20000.00,M,M,M,M,M,M,M,M,M,M,16.11,KNFL 070656Z 24003KT 10SM FEW200 M06/M08 A3011 RMK AO2 SLP162 T10611083,M
WMC,2022-12-07 06:56,-117.8072,40.9019,1315.00,23.00,18.00,80.85,110.00,4.00,0.00,30.12,1022.30,10.00,M,CLR,M,M,M,M,M,M,M,M,T,M,M,M,M,M,16.91,KWMC 070656Z AUTO 11004KT 10SM CLR M05/M08 A3012 RMK AO2 SLP223 I1000 T10501078,M
EKO,2022-12-07 06:56,-115.7860,40.8242,1367.00,21.00,19.90,95.43,130.00,4.00,0.00,30.14,1024.40,1.00,M,OVC,M,M,M,100.00,M,M,M,BR,0.01,M,M,M,M,M,14.57,KEKO 070656Z AUTO 13004KT 1SM BR OVC001 M06/M07 A3014 RMK AO2 SLP244 I1001 T10611067,M
LAS,2022-12-07 06:56,-115.1634,36.0719,663.00,47.00,33.00,58.47,220.00,3.00,0.00,30.02,1016.30,10.00,M,FEW,M,M,M,22000.00,M,M,M,M,M,M,M,M,M,M,45.72,KLAS 070656Z 22003KT 10SM FEW220 08/01 A3002 RMK AO2 SLP163 T00830006,M
TPH,2022-12-07 06:56,-117.0904,38.0505,1654.00,30.90,30.90,100.00,340.00,5.00,0.02,30.06,1018.40,2.50,M,OVC,M,M,M,1600.00,M,M,M,-SN BR,M,M,M,M,M,M,25.09,KTPH 070656Z AUTO 34005KT 2 1/2SM -SN BR OVC016 M01/M01 A3006 RMK AO2 SLP184 P0002 T10061006,M
TPH,2022-12-07 07:04,-117.0904,38.0505,1654.00,30.90,30.90,100.00,340.00,5.00,T,30.06,M,6.00,M,OVC,M,M,M,1600.00,M,M,M,-SN BR,M,M,M,M,M,M,25.09,KTPH 070704Z AUTO 34005KT 6SM -SN BR OVC016 M01/M01 A3006 RMK AO2 P0000 T10061006,M
MEV,2022-12-07 07:15,-119.7500,38.9963,1441.42,21.20,19.40,92.63,0.00,0.00,0.00,30.11,M,10.00,M,FEW,M,M,M,4600.00,M,M,M,M,M,M,M,M,M,M,21.20,KMEV 070715Z AUTO 00000KT 10SM FEW046 M06/M07 A3011 RMK AO2,M
TMT,2022-12-07 07:15,-117.1971,39.4643,1749.34,19.40,17.60,92.57,0.00,0.00,0.00,30.09,M,10.00,M,CLR,M,M,M,M,M,M,M,M,M,M,M,M,M,M,19.40,KTMT 070715Z AUTO 00000KT 10SM CLR M07/M08 A3009 RMK AO2 T10701080,M
BAM,2022-12-07 07:15,-116.8743,40.5990,1382.36,26.60,24.80,92.80,50.00,4.00,0.00,30.13,M,10.00,M,CLR,M,M,M,M,M,M,M,M,M,M,M,M,M,M,21.11,KBAM 070715Z AUTO 05004KT 10SM CLR M03/M04 A3013 RMK AO1,M
BVU,2022-12-07 07:15,-114.8611,35.9475,671.00,44.60,30.20,56.74,0.00,0.00,0.00,30.02,M,10.00,M,FEW,M,M,M,4800.00,M,M,M,M,M,M,M,M,M,M,44.60,KBVU 070715Z AUTO 00000KT 10SM FEW048 07/M01 A3002 RMK AO2,M
CXP,2022-12-07 07:15,-119.7326,39.1923,1431.00,24.80,19.40,79.62,190.00,4.00,0.00,30.12,M,10.00,M,CLR,M,M,M,M,M,M,M,M,M,M,M,M,M,M,19.01,KCXP 070715Z AUTO 19004KT 10SM CLR M04/M07 A3012 RMK AO2,M
RTS,2022-12-07 07:15,-119.8764,39.6682,1539.00,21.20,19.40,92.63,10.00,5.00,0.00,30.12,M,10.00,M,CLR,M,M,M,M,M,M,M,M,M,M,M,M,M,M,13.57,KRTS 070715Z AUTO 01005KT 10SM CLR M06/M07 A3012 RMK AO2,M
05U,2022-12-07 07:15,-116.0051,39.6042,1811.23,17.60,15.80,92.50,0.00,0.00,0.00,30.11,M,10.00,M,M,M,M,M,M,M,M,M,M,M,M,M,M,M,M,17.60,K05U 070715Z AUTO 00000KT 10SM M08/M09 A3011 RMK A01,M
EKO,2022-12-07 07:27,-115.7860,40.8242,1367.00,19.90,18.00,92.19,120.00,5.00,0.00,30.14,M,2.50,M,OVC,M,M,M,100.00,M,M,M,BR,M,M,M,M,M,M,12.03,KEKO 070727Z AUTO 12005KT 2 1/2SM BR OVC001 M07/M08 A3014 RMK AO2 VIS 1 3/4V5 T10671078,M
CXP,2022-12-07 07:35,-119.7326,39.1923,1431.00,24.80,21.20,85.96,0.00,0.00,0.00,30.13,M,10.00,M,CLR,M,M,M,M,M,M,M,M,M,M,M,M,M,M,24.80,KCXP 070735Z AUTO 00000KT 10SM CLR M04/M06 A3013 RMK AO2,M
BVU,2022-12-07 07:35,-114.8611,35.9475,671.00,42.80,30.20,60.79,0.00,0.00,0.00,30.02,M,10.00,M,SCT,BKN,M,M,4700.00,5000.00,M,M,M,M,M,M,M,M,M,42.80,KBVU 070735Z AUTO 00000KT 10SM SCT047 BKN050 06/M01 A3002 RMK AO2,M
RTS,2022-12-07 07:35,-119.8764,39.6682,1539.00,23.00,19.40,85.85,0.00,0.00,0.00,30.12,M,10.00,M,CLR,M,M,M,M,M,M,M,M,M,M,M,M,M,M,23.00,KRTS 070735Z AUTO 00000KT 10SM CLR M05/M07 A3012 RMK AO2,M
05U,2022-12-07 07:35,-116.0051,39.6042,1811.23,17.60,15.80,92.50,0.00,0.00,0.00,30.11,M,10.00,M,M,M,M,M,M,M,M,M,M,M,M,M,M,M,M,17.60,K05U 070735Z AUTO 00000KT 10SM M08/M09 A3011 RMK A01,M
MEV,2022-12-07 07:35,-119.7500,38.9963,1441.42,21.20,17.60,85.74,110.00,3.00,0.00,30.11,M,10.00,M,FEW,M,M,M,4600.00,M,M,M,M,M,M,M,M,M,M,16.34,KMEV 070735Z AUTO 11003KT 10SM FEW046 M06/M08 A3011 RMK AO2,M
BAM,2022-12-07 07:35,-116.8743,40.5990,1382.36,26.60,23.00,86.07,20.00,6.00,0.00,30.13,M,10.00,M,CLR,M,M,M,M,M,M,M,M,M,M,M,M,M,M,19.03,KBAM 070735Z AUTO 02006KT 10SM CLR M03/M05 A3013 RMK AO1,M
TMT,2022-12-07 07:35,-117.1971,39.4643,1749.34,18.90,17.20,92.95,0.00,0.00,0.00,30.10,M,10.00,M,CLR,M,M,M,M,M,M,M,M,M,M,M,M,M,M,18.90,KTMT 070735Z AUTO 00000KT 10SM CLR M07/M08 A3010 RMK AO2 T10731082,M
DRA,2022-12-07 07:53,-116.0278,36.6206,1009.00,37.00,27.00,66.82,0.00,0.00,0.00,30.02,1015.50,10.00,M,BKN,OVC,M,M,5000.00,6500.00,M,M,M,M,M,M,M,M,M,37.00,KDRA 070753Z AUTO 00000KT 10SM BKN050 OVC065 03/M03 A3002 RMK AO2 SLP155 T00281028 401330006,M
P68,2022-12-07 07:53,-116.0056,39.6014,1993.00,18.00,14.00,84.05,200.00,3.00,0.00,30.08,1020.10,M,M,M,M,M,M,M,M,M,M,M,M,M,M,M,M,M,12.68,KP68 070753Z AUTO 20003KT M08/M10 A3008 RMK AO1 SLP201 T10781100 400441100,M
VGT,2022-12-07 07:53,-115.1933,36.2111,667.00,44.00,32.00,62.21,320.00,4.00,0.00,30.01,1018.20,10.00,M,CLR,M,M,M,M,M,M,M,M,M,M,M,M,M,M,41.55,KVGT 070753Z AUTO 32004KT 10SM CLR 07/00 A3001 RMK AO2 SLP182 T00670000 401500044,M
LOL,2022-12-07 07:53,-118.5701,40.0684,1192.43,21.00,19.90,95.43,0.00,0.00,0.00,30.12,1022.00,10.00,M,CLR,M,M,M,M,M,M,M,M,T,M,M,M,M,M,21.00,KLOL 070753Z AUTO 00000KT 10SM CLR M06/M07 A3012 RMK AO2 SLP220 I1000 T10611067 400721100,M
ELY,2022-12-07 07:53,-114.8453,39.2950,1909.00,7.00,5.00,91.29,180.00,10.00,0.00,30.10,1023.90,10.00,M,CLR,M,M,M,M,M,M,M,M,M,M,M,M,M,M,-8.38,KELY 070753Z AUTO 18010KT 10SM CLR M14/M15 A3010 RMK AO2 SLP239 T11391150 400111139,M
MEV,2022-12-07 07:55,-119.7500,38.9963,1441.42,21.20,19.40,92.63,90.00,6.00,0.00,30.11,M,10.00,M,SCT,M,M,M,4800.00,M,M,M,M,M,M,M,M,M,M,12.52,KMEV 070755Z AUTO 09006KT 10SM SCT048 M06/M07 A3011 RMK AO2,M
BVU,2022-12-07 07:55,-114.8611,35.9475,671.00,42.80,32.00,65.38,0.00,0.00,0.00,30.02,M,10.00,M,BKN,M,M,M,4500.00,M,M,M,M,M,M,M,M,M,M,42.80,KBVU 070755Z AUTO 00000KT 10SM BKN045 06/M00 A3002 RMK AO2,M
CXP,2022-12-07 07:55,-119.7326,39.1923,1431.00,24.80,21.20,85.96,0.00,0.00,0.00,30.13,M,10.00,M,CLR,M,M,M,M,M,M,M,M,M,M,M,M,M,M,24.80,KCXP 070755Z AUTO 00000KT 10SM CLR M04/M06 A3013 RMK AO2,M
LSV,2022-12-07 07:55,-115.0343,36.2362,570.00,43.70,31.50,61.90,310.00,5.00,0.00,30.00,1015.50,10.00,M,FEW,M,M,M,6000.00,M,M,M,M,M,M,M,M,M,M,40.29,KLSV 070755Z AUTO 31005KT 10SM FEW060 07/M00 A3000 RMK AO2 SLP155 T00651003 401680030 $,M
05U,2022-12-07 07:55,-116.0051,39.6042,1811.23,17.60,15.80,92.50,0.00,0.00,0.00,30.10,M,10.00,M,M,M,M,M,M,M,M,M,M,M,M,M,M,M,M,17.60,K05U 070755Z AUTO 00000KT 10SM M08/M09 A3010 RMK A01,M
INS,2022-12-07 07:55,-115.6733,36.5872,955.00,36.00,25.30,64.78,170.00,3.00,0.00,30.03,1016.20,10.00,M,BKN,M,M,M,5500.00,M,M,M,M,M,M,M,M,M,M,33.26,KINS 070755Z AUTO 17003KT 10SM BKN055 02/M04 A3003 RMK AO2 SLP162 T00221037 401210004 $,M
RNO,2022-12-07 07:55,-119.7711,39.4839,1341.00,28.00,21.00,74.67,0.00,0.00,0.00,30.12,1020.50,10.00,M,CLR,M,M,M,M,M,M,M,M,M,M,M,M,M,M,28.00,KRNO 070755Z 00000KT 10SM CLR M02/M06 A3012 RMK AO2 SLP205 T10221061 400781022,M
TMT,2022-12-07 07:55,-117.1971,39.4643,1749.34,19.90,18.70,95.00,260.00,3.00,0.00,30.09,M,10.00,M,CLR,M,M,M,M,M,M,M,M,M,M,M,M,M,M,14.86,KTMT 070755Z AUTO 26003KT 10SM CLR M07/M07 A3009 RMK AO2 T10671074 400441092,M
RTS,2022-12-07 07:55,-119.8764,39.6682,1539.00,23.00,21.20,92.69,0.00,0.00,0.00,30.11,M,10.00,M,CLR,M,M,M,M,M,M,M,M,M,M,M,M,M,M,23.00,KRTS 070755Z AUTO 00000KT 10SM CLR M05/M06 A3011 RMK AO2,M
BAM,2022-12-07 07:55,-116.8743,40.5990,1382.36,26.60,23.00,86.07,40.00,7.00,0.00,30.13,M,10.00,M,CLR,M,M,M,M,M,M,M,M,M,M,M,M,M,M,18.20,KBAM 070755Z AUTO 04007KT 10SM CLR M03/M05 A3013 RMK AO1,M
WMC,2022-12-07 07:56,-117.8072,40.9019,1315.00,21.90,19.00,88.40,340.00,5.00,0.00,30.12,1021.90,10.00,M,CLR,M,M,M,M,M,M,M,M,T,M,M,M,M,M,14.40,KWMC 070756Z AUTO 34005KT 10SM CLR M06/M07 A3012 RMK AO2 SLP219 I1000 T10561072 400501072,M
LAS,2022-12-07 07:56,-115.1634,36.0719,663.00,44.00,32.00,62.21,210.00,4.00,0.00,30.01,1016.20,10.00,M,FEW,M,M,M,22000.00,M,M,M,M,M,M,M,M,M,M,41.55,KLAS 070756Z 21004KT 10SM FEW220 07/00 A3001 RMK AO2 SLP162 T00670000 401440056,M
TPH,2022-12-07 07:56,-117.0904,38.0505,1654.00,32.00,30.90,95.65,350.00,6.00,T,30.06,1017.80,10.00,M,BKN,OVC,M,M,1600.00,2100.00,M,M,M,M,M,M,M,M,M,25.53,KTPH 070756Z AUTO 35006KT 10SM BKN016 OVC021 00/M01 A3006 RMK AO2 SNE07 SLP178 P0000 T00001006 400671056,M
HND,2022-12-07 07:56,-115.1344,35.9729,742.79,41.00,28.90,61.79,170.00,7.00,0.00,30.04,1019.00,10.00,M,CLR,M,M,M,M,M,M,M,M,M,M,M,M,M,M,35.75,KHND 070756Z AUTO 17007KT 10SM CLR 05/M02 A3004 RMK AO2 SLP190 T00501017,M
NFL,2022-12-07 07:56,-118.7010,39.4166,1199.00,18.00,14.00,84.05,0.00,0.00,0.00,30.11,1016.40,10.00,M,CLR,M,M,M,M,M,M,M,M,M,M,M,M,M,M,18.00,KNFL 070756Z AUTO 00000KT 10SM CLR M08/M10 A3011 RMK AO2 SLP164 T10781100 400781083,M
EKO,2022-12-07 07:56,-115.7860,40.8242,1367.00,19.90,18.00,92.19,130.00,5.00,0.00,30.13,1024.30,2.00,M,OVC,M,M,M,100.00,M,M,M,BR,T,M,M,M,M,M,12.03,KEKO 070756Z AUTO 13005KT 2SM BR OVC001 M07/M08 A3013 RMK AO2 SLP243 I1000 T10671078 410331067,M
WMC,2022-12-07 08:10,-117.8072,40.9019,1315.00,21.90,18.00,84.68,10.00,4.00,0.00,30.12,M,2.50,M,SCT,M,M,M,200.00,M,M,M,BR,M,M,M,M,M,M,15.63,KWMC 070810Z AUTO 01004KT 2 1/2SM BR SCT002 M06/M08 A3012 RMK AO2 T10561078,M
WMC,2022-12-07 08:13,-117.8072,40.9019,1315.00,21.90,18.00,84.68,10.00,4.00,0.00,30.12,M,1.25,M,BKN,M,M,M,200.00,M,M,M,BR,M,M,M,M,M,M,15.63,KWMC 070813Z AUTO 01004KT 1 1/4SM BR BKN002 M06/M08 A3012 RMK AO2 T10561078,M
BAM,2022-12-07 08:15,-116.8743,40.5990,1382.36,26.60,23.00,86.07,40.00,5.00,0.00,30.13,M,10.00,M,CLR,M,M,M,M,M,M,M,M,M,M,M,M,M,M,19.98,KBAM 070815Z AUTO 04005KT 10SM CLR M03/M05 A3013 RMK AO1,M
RTS,2022-12-07 08:15,-119.8764,39.6682,1539.00,21.20,19.40,92.63,0.00,0.00,0.00,30.11,M,10.00,M,CLR,M,M,M,M,M,M,M,M,M,M,M,M,M,M,21.20,KRTS 070815Z AUTO 00000KT 10SM CLR M06/M07 A3011 RMK AO2,M
05U,2022-12-07 08:15,-116.0051,39.6042,1811.23,17.60,15.80,92.50,0.00,0.00,0.00,30.11,M,10.00,M,M,M,M,M,M,M,M,M,M,M,M,M,M,M,M,17.60,K05U 070815Z AUTO 00000KT 10SM M08/M09 A3011 RMK A01,M
MEV,2022-12-07 08:15,-119.7500,38.9963,1441.42,21.20,19.40,92.63,0.00,0.00,0.00,30.11,M,10.00,M,FEW,SCT,M,M,4100.00,4900.00,M,M,M,M,M,M,M,M,M,21.20,KMEV 070815Z AUTO 00000KT 10SM FEW041 SCT049 M06/M07 A3011 RMK AO2,M
TMT,2022-12-07 08:15,-117.1971,39.4643,1749.34,18.00,15.10,88.20,0.00,0.00,0.00,30.10,M,10.00,M,CLR,M,M,M,M,M,M,M,M,M,M,M,M,M,M,18.00,KTMT 070815Z AUTO 00000KT 10SM CLR M08/M09 A3010 RMK AO2 T10781094,M
BVU,2022-12-07 08:15,-114.8611,35.9475,671.00,41.00,32.00,70.08,0.00,0.00,0.00,30.02,M,10.00,M,OVC,M,M,M,4800.00,M,M,M,M,M,M,M,M,M,M,41.00,KBVU 070815Z AUTO 00000KT 10SM OVC048 05/M00 A3002 RMK AO2,M
CXP,2022-12-07 08:15,-119.7326,39.1923,1431.00,24.80,21.20,85.96,320.00,4.00,0.00,30.13,M,10.00,M,CLR,M,M,M,M,M,M,M,M,M,M,M,M,M,M,19.01,KCXP 070815Z AUTO 32004KT 10SM CLR M04/M06 A3013 RMK AO2,M
EKO,2022-12-07 08:15,-115.7860,40.8242,1367.00,19.90,18.00,92.19,130.00,4.00,0.00,30.13,M,1.25,M,OVC,M,M,M,100.00,M,M,M,BR,M,M,M,M,M,M,13.29,KEKO 070815Z AUTO 13004KT 1 1/4SM BR OVC001 M07/M08 A3013 RMK AO2 T10671078,M
WMC,2022-12-07 08:21,-117.8072,40.9019,1315.00,21.90,18.00,84.68,0.00,0.00,0.00,30.12,M,0.50,M,VV ,M,M,M,100.00,M,M,M,FZFG,T,M,M,M,M,M,21.90,KWMC 070821Z AUTO 00000KT 1/2SM FZFG VV001 M06/M08 A3012 RMK AO2 I1000 T10561078,M
EKO,2022-12-07 08:25,-115.7860,40.8242,1367.00,19.90,18.00,92.19,M,3.00,0.00,30.13,M,3.00,M,OVC,M,M,M,100.00,M,M,M,BR,T,M,M,M,M,M,14.86,KEKO 070825Z AUTO VRB03KT 3SM BR OVC001 M07/M08 A3013 RMK AO2 I1000 T10671078,M
EKO,2022-12-07 08:30,-115.7860,40.8242,1367.00,19.90,18.00,92.19,120.00,3.00,0.00,30.13,M,1.75,M,OVC,M,M,M,100.00,M,M,M,BR,T,M,M,M,M,M,14.86,KEKO 070830Z AUTO 12003KT 1 3/4SM BR OVC001 M07/M08 A3013 RMK AO2 I1000 T10671078,M
CXP,2022-12-07 08:35,-119.7326,39.1923,1431.00,24.80,21.20,85.96,0.00,0.00,0.00,30.12,M,10.00,M,CLR,M,M,M,M,M,M,M,M,M,M,M,M,M,M,24.80,KCXP 070835Z AUTO 00000KT 10SM CLR M04/M06 A3012 RMK AO2,M
WMC,2022-12-07 08:35,-117.8072,40.9019,1315.00,19.90,17.10,88.68,0.00,0.00,0.00,30.12,M,0.25,M,VV ,M,M,M,100.00,M,M,M,FZFG,T,M,M,M,M,M,19.90,KWMC 070835Z AUTO 00000KT 1/4SM FZFG VV001 M07/M08 A3012 RMK AO2 I1000 T10671083,M
RTS,2022-12-07 08:35,-119.8764,39.6682,1539.00,21.20,17.60,85.74,0.00,0.00,0.00,30.11,M,10.00,M,CLR,M,M,M,M,M,M,M,M,M,M,M,M,M,M,21.20,KRTS 070835Z AUTO 00000KT 10SM CLR M06/M08 A3011 RMK AO2,M
TMT,2022-12-07 08:35,-117.1971,39.4643,1749.34,17.60,15.80,92.50,0.00,0.00,0.00,30.09,M,10.00,M,CLR,M,M,M,M,M,M,M,M,M,M,M,M,M,M,17.60,KTMT 070835Z AUTO 00000KT 10SM CLR M08/M09 A3009 RMK AO2 T10801090,M
BAM,2022-12-07 08:35,-116.8743,40.5990,1382.36,26.60,23.00,86.07,40.00,5.00,0.00,30.13,M,10.00,M,CLR,M,M,M,M,M,M,M,M,M,M,M,M,M,M,19.98,KBAM 070835Z AUTO 04005KT 10SM CLR M03/M05 A3013 RMK AO1,M
MEV,2022-12-07 08:35,-119.7500,38.9963,1441.42,21.20,17.60,85.74,0.00,0.00,0.00,30.11,M,10.00,M,FEW,SCT,M,M,4200.00,4900.00,M,M,M,M,M,M,M,M,M,21.20,KMEV 070835Z AUTO 00000KT 10SM FEW042 SCT049 M06/M08 A3011 RMK AO2,M
05U,2022-12-07 08:35,-116.0051,39.6042,1811.23,17.60,15.80,92.50,0.00,0.00,0.00,30.10,M,10.00,M,M,M,M,M,M,M,M,M,M,M,M,M,M,M,M,17.60,K05U 070835Z AUTO 00000KT 10SM M08/M09 A3010 RMK A01,M
BVU,2022-12-07 08:35,-114.8611,35.9475,671.00,42.80,32.00,65.38,0.00,0.00,0.00,30.02,M,10.00,M,OVC,M,M,M,5000.00,M,M,M,M,M,M,M,M,M,M,42.80,KBVU 070835Z AUTO 00000KT 10SM OVC050 06/M00 A3002 RMK AO2,M
EKO,2022-12-07 08:45,-115.7860,40.8242,1367.00,19.90,17.10,88.68,120.00,3.00,0.00,30.13,M,2.50,M,OVC,M,M,M,100.00,M,M,M,BR,T,M,M,M,M,M,14.86,KEKO 070845Z AUTO 12003KT 2 1/2SM BR OVC001 M07/M08 A3013 RMK AO2 I1000 T10671083,M
LOL,2022-12-07 08:48,-118.5701,40.0684,1192.43,15.80,14.00,92.44,0.00,0.00,0.00,30.11,M,1.75,M,CLR,M,M,M,M,M,M,M,BR,T,M,M,M,M,M,15.80,KLOL 070848Z AUTO 00000KT 1 3/4SM BR CLR M09/M10 A3011 RMK AO2 I1000,M
P68,2022-12-07 08:53,-116.0056,39.6014,1993.00,16.00,12.90,87.32,0.00,0.00,0.00,30.07,1020.00,M,M,M,M,M,M,M,M,M,M,M,M,M,M,M,M,M,16.00,KP68 070853Z AUTO 00000KT M09/M11 A3007 RMK AO1 SLP200 T10891106 58002,M
VGT,2022-12-07 08:53,-115.1933,36.2111,667.00,43.00,32.00,64.88,320.00,3.00,0.00,30.01,1018.00,10.00,M,CLR,M,M,M,M,M,M,M,M,M,M,M,M,M,M,41.26,KVGT 070853Z AUTO 32003KT 10SM CLR 06/00 A3001 RMK AO2 SLP180 T00610000 58000,M
ELY,2022-12-07 08:53,-114.8453,39.2950,1909.00,5.00,1.90,86.68,180.00,8.00,0.00,30.10,1023.50,10.00,M,CLR,M,M,M,M,M,M,M,M,M,M,M,M,M,M,-9.15,KELY 070853Z AUTO 18008KT 10SM CLR M15/M17 A3010 RMK AO2 SLP235 T11501167 50003,M
DRA,2022-12-07 08:53,-116.0278,36.6206,1009.00,37.00,27.00,66.82,150.00,3.00,0.00,30.02,1015.40,10.00,M,SCT,BKN,M,M,5000.00,8000.00,M,M,M,M,M,M,M,M,M,34.40,KDRA 070853Z AUTO 15003KT 10SM SCT050 BKN080 03/M03 A3002 RMK AO2 SLP154 T00281028 50001,M
LOL,2022-12-07 08:53,-118.5701,40.0684,1192.43,15.10,14.00,95.30,0.00,0.00,0.00,30.11,1022.10,1.00,M,CLR,M,M,M,M,M,M,M,BR,T,T,M,M,M,M,15.10,KLOL 070853Z AUTO 00000KT 1SM BR CLR M09/M10 A3011 RMK AO2 SLP221 I1000 I3000 T10941100 50002,M
EKO,2022-12-07 08:54,-115.7860,40.8242,1367.00,19.40,17.60,92.57,10.00,5.05,M,30.13,M,3.00,M,OVC,M,M,M,98.00,M,M,M,BR,M,M,M,M,M,M,11.37,SPECI KEKO 070854Z 01005KT 3SM BR OVC001 M07/M08 A3013 RMK AO2 I1000 FIBI,M
RTS,2022-12-07 08:55,-119.8764,39.6682,1539.00,19.40,17.60,92.57,360.00,4.00,0.00,30.11,M,10.00,M,CLR,M,M,M,M,M,M,M,M,M,M,M,M,M,M,12.71,KRTS 070855Z AUTO 36004KT 10SM CLR M07/M08 A3011 RMK AO2,M
BVU,2022-12-07 08:55,-114.8611,35.9475,671.00,42.80,32.00,65.38,0.00,0.00,0.00,30.02,M,10.00,M,OVC,M,M,M,5000.00,M,M,M,M,M,M,M,M,M,M,42.80,KBVU 070855Z AUTO 00000KT 10SM OVC050 06/M00 A3002 RMK AO2,M
CXP,2022-12-07 08:55,-119.7326,39.1923,1431.00,24.80,21.20,85.96,0.00,0.00,0.00,30.12,M,10.00,M,CLR,M,M,M,M,M,M,M,M,M,M,M,M,M,M,24.80,KCXP 070855Z AUTO 00000KT 10SM CLR M04/M06 A3012 RMK AO2,M
RNO,2022-12-07 08:55,-119.7711,39.4839,1341.00,27.00,19.90,74.25,290.00,5.00,0.00,30.11,1020.10,10.00,M,CLR,M,M,M,M,M,M,M,M,M,M,M,M,M,M,20.46,KRNO 070855Z 29005KT 10SM CLR M03/M07 A3011 RMK AO2 SLP201 T10281067 50001,M
05U,2022-12-07 08:55,-116.0051,39.6042,1811.23,15.80,14.00,92.44,0.00,0.00,0.00,30.10,M,10.00,M,M,M,M,M,M,M,M,M,M,M,M,M,M,M,M,15.80,K05U 070855Z AUTO 00000KT 10SM M09/M10 A3010 RMK A01,M
MEV,2022-12-07 08:55,-119.7500,38.9963,1441.42,19.40,17.60,92.57,0.00,0.00,0.00,30.11,M,10.00,M,SCT,SCT,SCT,M,4200.00,4800.00,5500.00,M,M,M,M,M,M,M,M,19.40,KMEV 070855Z AUTO 00000KT 10SM SCT042 SCT048 SCT055 M07/M08 A3011 RMK AO2,M
BAM,2022-12-07 08:55,-116.8743,40.5990,1382.36,26.60,23.00,86.07,30.00,6.00,0.00,30.12,M,10.00,M,CLR,M,M,M,M,M,M,M,M,M,M,M,M,M,M,19.03,KBAM 070855Z AUTO 03006KT 10SM CLR M03/M05 A3012 RMK AO1,M
TMT,2022-12-07 08:55,-117.1971,39.4643,1749.34,18.90,17.10,92.55,0.00,0.00,0.00,30.09,M,10.00,M,CLR,M,M,M,M,M,M,M,M,M,M,M,M,M,M,18.90,KTMT 070855Z AUTO 00000KT 10SM CLR M07/M08 A3009 RMK AO2 T10731083,M
LSV,2022-12-07 08:55,-115.0343,36.2362,570.00,40.00,27.70,60.91,0.00,0.00,0.00,30.00,1015.50,10.00,M,FEW,M,M,M,6000.00,M,M,M,M,M,M,M,M,M,M,40.10,KLSV 070855Z AUTO 00000KT 10SM FEW060 05/M02 A3000 RMK AO2 SLP155 T00451024 50002 $,M
INS,2022-12-07 08:55,-115.6733,36.5872,955.00,35.20,25.70,67.99,0.00,0.00,0.00,30.03,1016.00,10.00,M,FEW,SCT,M,M,4700.00,6000.00,M,M,M,M,M,M,M,M,M,35.20,KINS 070855Z AUTO 00000KT 10SM FEW047 SCT060 02/M03 A3003 RMK AO2 SLP160 T00181035 50001 $,M
LAS,2022-12-07 08:56,-115.1634,36.0719,663.00,44.00,32.00,62.21,210.00,4.00,0.00,30.02,1016.10,10.00,M,SCT,M,M,M,20000.00,M,M,M,M,M,M,M,M,M,M,41.55,KLAS 070856Z 21004KT 10SM SCT200 07/00 A3002 RMK AO2 SLP161 T00670000 57001,M
WMC,2022-12-07 08:56,-117.8072,40.9019,1315.00,21.00,17.10,84.62,350.00,3.00,0.00,30.11,1021.60,0.25,M,VV ,M,M,M,100.00,M,M,M,FZFG,0.01,0.01,M,M,M,M,16.11,KWMC 070856Z AUTO 35003KT 1/4SM FZFG VV001 M06/M08 A3011 RMK AO2 SLP216 I1001 I3001 T10611083 50001,M
NFL,2022-12-07 08:56,-118.7010,39.4166,1199.00,19.00,15.10,84.49,180.00,4.00,0.00,30.11,1016.20,10.00,M,CLR,M,M,M,M,M,M,M,M,M,M,M,M,M,M,12.24,KNFL 070856Z AUTO 18004KT 10SM CLR M07/M09 A3011 RMK AO2 SLP162 T10721094 50002,M
EKO,2022-12-07 08:56,-115.7860,40.8242,1367.00,19.90,17.10,88.68,10.00,4.00,0.00,30.13,1024.20,3.00,M,OVC,M,M,M,100.00,M,M,M,BR,T,0.01,M,M,M,M,13.29,KEKO 070856Z AUTO 01004KT 3SM BR OVC001 M07/M08 A3013 RMK AO2 SLP242 I1000 I3001 T10671083 56002,M
HND,2022-12-07 08:56,-115.1344,35.9729,742.79,40.00,28.90,64.49,180.00,7.00,0.00,30.04,1019.10,10.00,M,CLR,M,M,M,M,M,M,M,M,M,M,M,M,M,M,34.41,KHND 070856Z AUTO 18007KT 10SM CLR 04/M02 A3004 RMK AO2 SLP191 T00441017 51001,M
TPH,2022-12-07 08:56,-117.0904,38.0505,1654.00,30.90,30.00,96.41,10.00,8.00,0.00,30.06,1018.00,10.00,M,BKN,OVC,M,M,2100.00,2700.00,M,M,M,M,M,M,M,M,M,22.76,KTPH 070856Z AUTO 01008KT 10SM BKN021 OVC027 M01/M01 A3006 RMK AO2 SLP180 60002 T10061011 50001,M
LOL,2022-12-07 08:58,-118.5701,40.0684,1192.43,12.90,12.00,96.10,200.00,3.00,0.00,30.11,M,0.75,M,VV ,M,M,M,100.00,M,M,M,BR,M,M,M,M,M,M,6.85,KLOL 070858Z AUTO 20003KT 3/4SM BR VV001 M11/M11 A3011 RMK AO2 T11061111,M
EKO,2022-12-07 09:03,-115.7860,40.8242,1367.00,19.90,18.00,92.19,10.00,5.00,0.00,30.13,M,2.50,M,OVC,M,M,M,200.00,M,M,M,BR,M,M,M,M,M,M,12.03,KEKO 070903Z AUTO 01005KT 2 1/2SM BR OVC002 M07/M08 A3013 RMK AO2 T10671078,M
LOL,2022-12-07 09:09,-118.5701,40.0684,1192.43,17.10,15.10,91.68,0.00,0.00,0.00,30.11,M,0.50,M,VV ,M,M,M,200.00,M,M,M,FZFG,M,M,M,M,M,M,17.10,KLOL 070909Z AUTO 00000KT 1/2SM FZFG VV002 M08/M09 A3011 RMK AO2 T10831094,M
RTS,2022-12-07 09:15,-119.8764,39.6682,1539.00,21.20,19.40,92.63,0.00,0.00,0.00,30.11,M,10.00,M,CLR,M,M,M,M,M,M,M,M,M,M,M,M,M,M,21.20,KRTS 070915Z AUTO 00000KT 10SM CLR M06/M07 A3011 RMK AO2,M
05U,2022-12-07 09:15,-116.0051,39.6042,1811.23,17.60,14.00,85.51,M,M,0.00,30.10,M,10.00,M,M,M,M,M,M,M,M,M,M,M,M,M,M,M,M,M,K05U 070915Z AUTO 10SM M08/M10 A3010 RMK A01,M
MEV,2022-12-07 09:15,-119.7500,38.9963,1441.42,17.60,15.80,92.50,0.00,0.00,0.00,30.11,M,10.00,M,SCT,SCT,M,M,3900.00,4700.00,M,M,M,M,M,M,M,M,M,17.60,KMEV 070915Z AUTO 00000KT 10SM SCT039 SCT047 M08/M09 A3011 RMK AO2,M
BAM,2022-12-07 09:15,-116.8743,40.5990,1382.36,26.60,23.00,86.07,30.00,7.00,0.00,30.12,M,10.00,M,CLR,M,M,M,M,M,M,M,M,M,M,M,M,M,M,18.20,KBAM 070915Z AUTO 03007KT 10SM CLR M03/M05 A3012 RMK AO1,M
CXP,2022-12-07 09:15,-119.7326,39.1923,1431.00,23.00,19.40,85.85,0.00,0.00,0.00,30.12,M,10.00,M,CLR,M,M,M,M,M,M,M,M,M,M,M,M,M,M,23.00,KCXP 070915Z AUTO 00000KT 10SM CLR M05/M07 A3012 RMK AO2 LTG DSNT S,M
TMT,2022-12-07 09:15,-117.1971,39.4643,1749.34,17.40,15.80,93.31,0.00,0.00,0.00,30.09,M,10.00,M,CLR,M,M,M,M,M,M,M,M,M,M,M,M,M,M,17.40,KTMT 070915Z AUTO 00000KT 10SM CLR M08/M09 A3009 RMK AO2 LTG DSNT SW T10811090,M
BVU,2022-12-07 09:15,-114.8611,35.9475,671.00,42.80,32.00,65.38,0.00,0.00,0.00,30.02,M,10.00,M,OVC,M,M,M,4900.00,M,M,M,M,M,M,M,M,M,M,42.80,KBVU 070915Z AUTO 00000KT 10SM OVC049 06/M00 A3002 RMK AO2,M
LOL,2022-12-07 09:24,-118.5701,40.0684,1192.43,18.00,16.00,91.72,310.00,4.00,0.00,30.12,M,1.00,M,VV ,M,M,M,100.00,M,M,M,BR,T,M,M,M,M,M,11.07,KLOL 070924Z AUTO 31004KT 1SM BR VV001 M08/M09 A3012 RMK AO2 I1000 T10781089,M
WMC,2022-12-07 09:25,-117.8072,40.9019,1315.00,19.90,16.00,84.55,0.00,0.00,0.00,30.12,M,0.50,M,VV ,M,M,M,200.00,M,M,M,FZFG,M,M,M,M,M,M,19.90,KWMC 070925Z AUTO 00000KT 1/2SM FZFG VV002 M07/M09 A3012 RMK AO2 T10671089,M
LOL,2022-12-07 09:27,-118.5701,40.0684,1192.43,18.00,17.10,96.19,320.00,4.00,0.00,30.12,M,2.50,M,FEW,M,M,M,100.00,M,M,M,BR,T,M,M,M,M,M,11.07,KLOL 070927Z AUTO 32004KT 2 1/2SM BR FEW001 M08/M08 A3012 RMK AO2 I1000 T10781083,M
LOL,2022-12-07 09:34,-118.5701,40.0684,1192.43,21.00,18.00,87.97,360.00,3.00,0.00,30.12,M,10.00,M,CLR,M,M,M,M,M,M,M,M,T,M,M,M,M,M,16.11,KLOL 070934Z AUTO 36003KT 10SM CLR M06/M08 A3012 RMK AO2 I1000 T10611078,M
MEV,2022-12-07 09:35,-119.7500,38.9963,1441.42,17.60,15.80,92.50,110.00,4.00,0.00,30.11,M,10.00,M,SCT,SCT,M,M,4000.00,5000.00,M,M,M,M,M,M,M,M,M,10.60,KMEV 070935Z AUTO 11004KT 10SM SCT040 SCT050 M08/M09 A3011 RMK AO2,M
05U,2022-12-07 09:35,-116.0051,39.6042,1811.23,17.60,14.00,85.51,0.00,0.00,0.00,30.10,M,10.00,M,M,M,M,M,M,M,M,M,M,M,M,M,M,M,M,17.60,K05U 070935Z AUTO 00000KT 10SM M08/M10 A3010 RMK A01,M
RTS,2022-12-07 09:35,-119.8764,39.6682,1539.00,21.20,19.40,92.63,0.00,0.00,0.00,30.11,M,10.00,M,CLR,M,M,M,M,M,M,M,M,M,M,M,M,M,M,21.20,KRTS 070935Z AUTO 00000KT 10SM CLR M06/M07 A3011 RMK AO2,M
CXP,2022-12-07 09:35,-119.7326,39.1923,1431.00,23.00,19.40,85.85,0.00,0.00,0.00,30.12,M,10.00,M,CLR,M,M,M,M,M,M,M,M,M,M,M,M,M,M,23.00,KCXP 070935Z AUTO 00000KT 10SM CLR M05/M07 A3012 RMK AO2,M
TMT,2022-12-07 09:35,-117.1971,39.4643,1749.34,16.50,14.50,91.66,0.00,0.00,0.00,30.09,M,10.00,M,CLR,M,M,M,M,M,M,M,M,M,M,M,M,M,M,16.50,KTMT 070935Z AUTO 00000KT 10SM CLR M09/M10 A3009 RMK AO2 T10861097,M
BAM,2022-12-07 09:35,-116.8743,40.5990,1382.36,24.80,23.00,92.74,60.00,7.00,0.00,30.13,M,10.00,M,CLR,M,M,M,M,M,M,M,M,M,M,M,M,M,M,16.00,KBAM 070935Z AUTO 06007KT 10SM CLR M04/M05 A3013 RMK AO1,M
BVU,2022-12-07 09:35,-114.8611,35.9475,671.00,42.80,32.00,65.38,0.00,0.00,0.00,30.02,M,10.00,M,BKN,OVC,M,M,5000.00,5500.00,M,M,M,M,M,M,M,M,M,42.80,KBVU 070935Z AUTO 00000KT 10SM BKN050 OVC055 06/M00 A3002 RMK AO2,M
EKO,2022-12-07 09:37,-115.7860,40.8242,1367.00,19.00,17.10,92.15,110.00,3.00,0.00,30.14,M,3.00,M,OVC,M,M,M,200.00,M,M,M,BR,T,M,M,M,M,M,13.83,KEKO 070937Z AUTO 11003KT 3SM BR OVC002 M07/M08 A3014 RMK AO2 I1000 T10721083,M
EKO,2022-12-07 09:51,-115.7860,40.8242,1367.00,19.40,17.60,92.57,0.00,0.00,0.00,30.14,M,2.50,M,OVC,M,M,M,200.00,M,M,M,BR,0.01,M,M,M,M,M,19.40,KEKO 070951Z AUTO 00000KT 2 1/2SM BR OVC002 M07/M08 A3014 RMK AO2 VIS 1 3/4V3 I1001,M
LOL,2022-12-07 09:53,-118.5701,40.0684,1192.43,23.00,19.90,87.70,320.00,5.00,0.00,30.12,1021.80,10.00,M,CLR,M,M,M,M,M,M,M,M,0.01,M,M,M,M,M,15.71,KLOL 070953Z AUTO 32005KT 10SM CLR M05/M07 A3012 RMK AO2 SLP218 I1001 T10501067,M
DRA,2022-12-07 09:53,-116.0278,36.6206,1009.00,37.00,28.00,69.63,0.00,0.00,0.00,30.03,1015.50,10.00,M,SCT,M,M,M,6500.00,M,M,M,M,M,M,M,M,M,M,37.00,KDRA 070953Z AUTO 00000KT 10SM SCT065 03/M02 A3003 RMK AO2 SLP155 T00281022,M
ELY,2022-12-07 09:53,-114.8453,39.2950,1909.00,6.00,3.00,86.74,190.00,8.00,0.00,30.10,1023.30,10.00,M,CLR,M,M,M,M,M,M,M,M,M,M,M,M,M,M,-7.79,KELY 070953Z AUTO 19008KT 10SM CLR M14/M16 A3010 RMK AO2 SLP233 T11441161,M
P68,2022-12-07 09:53,-116.0056,39.6014,1993.00,17.10,12.90,83.25,200.00,4.00,0.00,30.08,1020.00,M,M,M,M,M,M,M,M,M,M,M,M,M,M,M,M,M,10.02,KP68 070953Z AUTO 20004KT M08/M11 A3008 RMK AO1 SLP200 T10831106,M
VGT,2022-12-07 09:53,-115.1933,36.2111,667.00,42.00,32.00,67.17,320.00,5.00,0.00,30.02,1018.30,10.00,M,BKN,M,M,M,6000.00,M,M,M,M,M,M,M,M,M,M,38.39,KVGT 070953Z AUTO 32005KT 10SM BKN060 06/00 A3002 RMK AO2 SLP183 T00560000,M
BVU,2022-12-07 09:55,-114.8611,35.9475,671.00,42.80,32.00,65.38,0.00,0.00,0.00,30.02,M,10.00,M,OVC,M,M,M,5000.00,M,M,M,M,M,M,M,M,M,M,42.80,KBVU 070955Z AUTO 00000KT 10SM OVC050 06/M00 A3002 RMK AO2,M
RNO,2022-12-07 09:55,-119.7711,39.4839,1341.00,26.10,18.00,71.04,290.00,3.00,0.00,30.12,1020.40,10.00,M,CLR,M,M,M,M,M,M,M,M,M,M,M,M,M,M,21.94,KRNO 070955Z 29003KT 10SM CLR M03/M08 A3012 RMK AO2 SLP204 T10331078,M
LSV,2022-12-07 09:55,-115.0343,36.2362,570.00,39.70,30.00,67.97,140.00,3.00,0.00,30.01,1016.00,10.00,M,SCT,M,M,M,6500.00,M,M,M,M,M,M,M,M,M,M,37.49,KLSV 070955Z AUTO 14003KT 10SM SCT065 04/M01 A3001 RMK AO2 SLP160 T00431011 $,M
CXP,2022-12-07 09:55,-119.7326,39.1923,1431.00,23.00,19.40,85.85,0.00,0.00,0.00,30.13,M,10.00,M,CLR,M,M,M,M,M,M,M,M,M,M,M,M,M,M,23.00,KCXP 070955Z AUTO 00000KT 10SM CLR M05/M07 A3013 RMK AO2,M
RTS,2022-12-07 09:55,-119.8764,39.6682,1539.00,21.20,17.60,85.74,0.00,0.00,0.00,30.11,M,10.00,M,CLR,M,M,M,M,M,M,M,M,M,M,M,M,M,M,21.20,KRTS 070955Z AUTO 00000KT 10SM CLR M06/M08 A3011 RMK AO2,M
05U,2022-12-07 09:55,-116.0051,39.6042,1811.23,15.80,12.20,85.40,190.00,4.00,0.00,30.11,M,10.00,M,M,M,M,M,M,M,M,M,M,M,M,M,M,M,M,8.50,K05U 070955Z AUTO 19004KT 10SM M09/M11 A3011 RMK A01,M
MEV,2022-12-07 09:55,-119.7500,38.9963,1441.42,17.60,15.80,92.50,0.00,0.00,0.00,30.12,M,10.00,M,SCT,BKN,BKN,M,3900.00,4500.00,5000.00,M,M,M,M,M,M,M,M,17.60,KMEV 070955Z AUTO 00000KT 10SM SCT039 BKN045 BKN050 M08/M09 A3012 RMK AO2,M
BAM,2022-12-07 09:55,-116.8743,40.5990,1382.36,23.00,21.20,92.69,60.00,5.00,0.00,30.13,M,10.00,M,CLR,M,M,M,M,M,M,M,M,M,M,M,M,M,M,15.71,KBAM 070955Z AUTO 06005KT 10SM CLR M05/M06 A3013 RMK AO1,M
INS,2022-12-07 09:55,-115.6733,36.5872,955.00,35.40,25.50,66.90,140.00,3.00,0.00,30.04,1016.30,10.00,M,BKN,OVC,M,M,4400.00,6000.00,M,M,M,M,M,M,M,M,M,32.58,KINS 070955Z AUTO 14003KT 10SM BKN044 OVC060 02/M04 A3004 RMK AO2 SLP163 T00191036 $,M
TMT,2022-12-07 09:55,-117.1971,39.4643,1749.34,16.70,15.10,93.28,0.00,0.00,0.00,30.10,M,10.00,M,CLR,M,M,M,M,M,M,M,M,M,M,M,M,M,M,16.70,KTMT 070955Z AUTO 00000KT 10SM CLR M08/M09 A3010 RMK AO2 T10851094,M
WMC,2022-12-07 09:56,-117.8072,40.9019,1315.00,17.10,12.90,83.25,0.00,0.00,0.00,30.12,1022.20,0.50,M,VV ,M,M,M,100.00,M,M,M,FZFG,T,M,M,M,M,M,17.10,KWMC 070956Z AUTO 00000KT 1/2SM FZFG VV001 M08/M11 A3012 RMK AO2 SLP222 I1000 T10831106,M
EKO,2022-12-07 09:56,-115.7860,40.8242,1367.00,19.00,16.00,87.87,0.00,0.00,0.00,30.14,1024.60,2.50,M,OVC,M,M,M,200.00,M,M,M,BR,0.01,M,M,M,M,M,19.00,KEKO 070956Z AUTO 00000KT 2 1/2SM BR OVC002 M07/M09 A3014 RMK AO2 SLP246 I1001 T10721089,M
TPH,2022-12-07 09:56,-117.0904,38.0505,1654.00,30.90,28.90,92.18,360.00,10.00,0.00,30.06,1017.90,10.00,M,BKN,OVC,M,M,1700.00,2600.00,M,M,M,M,M,M,M,M,M,21.59,KTPH 070956Z AUTO 36010KT 10SM BKN017 OVC026 M01/M02 A3006 RMK AO2 SLP179 T10061017,M
LAS,2022-12-07 09:56,-115.1634,36.0719,663.00,43.00,32.00,64.88,210.00,4.00,0.00,30.02,1016.40,10.00,M,FEW,SCT,M,M,5500.00,20000.00,M,M,M,M,M,M,M,M,M,40.27,KLAS 070956Z 21004KT 10SM FEW055 SCT200 06/00 A3002 RMK AO2 SLP164 T00610000,M
NFL,2022-12-07 09:56,-118.7010,39.4166,1199.00,19.00,15.10,84.49,150.00,5.00,0.00,30.12,1016.50,10.00,M,CLR,M,M,M,M,M,M,M,M,M,M,M,M,M,M,10.96,KNFL 070956Z AUTO 15005KT 10SM CLR M07/M09 A3012 RMK AO2 SLP165 T10721094,M
HND,2022-12-07 09:56,-115.1344,35.9729,742.79,38.00,28.00,67.20,180.00,6.00,0.00,30.04,1019.30,10.00,M,FEW,M,M,M,5500.00,M,M,M,M,M,M,M,M,M,M,32.64,KHND 070956Z AUTO 18006KT 10SM FEW055 03/M02 A3004 RMK AO2 SLP193 T00331022,M
WMC,2022-12-07 10:01,-117.8072,40.9019,1315.00,18.00,12.90,80.09,50.00,4.00,0.00,30.12,M,1.50,M,SCT,M,M,M,100.00,M,M,M,HZ,M,M,M,M,M,M,11.07,KWMC 071001Z AUTO 05004KT 1 1/2SM HZ SCT001 M08/M11 A3012 RMK AO2 T10781106,M
WMC,2022-12-07 10:04,-117.8072,40.9019,1315.00,19.00,12.90,76.72,40.00,4.00,0.00,30.12,M,3.00,M,SCT,M,M,M,100.00,M,M,M,HZ,M,M,M,M,M,M,12.24,KWMC 071004Z AUTO 04004KT 3SM HZ SCT001 M07/M11 A3012 RMK AO2 T10721106,M
EKO,2022-12-07 10:10,-115.7860,40.8242,1367.00,19.00,17.10,92.15,M,3.00,0.00,30.14,M,3.00,M,OVC,M,M,M,200.00,M,M,M,BR,M,M,M,M,M,M,13.83,KEKO 071010Z AUTO VRB03KT 3SM BR OVC002 M07/M08 A3014 RMK AO2 T10721083,M
05U,2022-12-07 10:10,-116.0051,39.6042,1811.23,15.80,12.20,85.40,0.00,0.00,0.00,30.10,M,10.00,M,M,M,M,M,M,M,M,M,M,M,M,M,M,M,M,15.80,K05U 071010Z AUTO 00000KT 10SM M09/M11 A3010 RMK A01,M
BVU,2022-12-07 10:15,-114.8611,35.9475,671.00,42.80,30.20,60.79,0.00,0.00,0.00,30.03,M,10.00,M,FEW,BKN,BKN,M,4400.00,5000.00,6000.00,M,M,M,M,M,M,M,M,42.80,KBVU 071015Z AUTO 00000KT 10SM FEW044 BKN050 BKN060 06/M01 A3003 RMK AO2,M
TMT,2022-12-07 10:15,-117.1971,39.4643,1749.34,17.10,15.10,91.68,0.00,0.00,0.00,30.10,M,10.00,M,CLR,M,M,M,M,M,M,M,M,M,M,M,M,M,M,17.10,KTMT 071015Z AUTO 00000KT 10SM CLR M08/M09 A3010 RMK AO2 T10831094,M
BAM,2022-12-07 10:15,-116.8743,40.5990,1382.36,24.80,23.00,92.74,50.00,5.00,0.00,30.13,M,10.00,M,CLR,M,M,M,M,M,M,M,M,M,M,M,M,M,M,17.84,KBAM 071015Z AUTO 05005KT 10SM CLR M04/M05 A3013 RMK AO1,M
MEV,2022-12-07 10:15,-119.7500,38.9963,1441.42,19.40,17.60,92.57,0.00,0.00,0.00,30.12,M,10.00,M,SCT,BKN,BKN,M,3600.00,4300.00,5000.00,M,M,M,M,M,M,M,M,19.40,KMEV 071015Z AUTO 00000KT 10SM SCT036 BKN043 BKN050 M07/M08 A3012 RMK AO2,M
RTS,2022-12-07 10:15,-119.8764,39.6682,1539.00,19.40,15.80,85.63,0.00,0.00,0.00,30.12,M,10.00,M,CLR,M,M,M,M,M,M,M,M,M,M,M,M,M,M,19.40,KRTS 071015Z AUTO 00000KT 10SM CLR M07/M09 A3012 RMK AO2,M
CXP,2022-12-07 10:15,-119.7326,39.1923,1431.00,21.20,17.60,85.74,0.00,0.00,0.00,30.13,M,10.00,M,CLR,M,M,M,M,M,M,M,M,M,M,M,M,M,M,21.20,KCXP 071015Z AUTO 00000KT 10SM CLR M06/M08 A3013 RMK AO2,M
EKO,2022-12-07 10:19,-115.7860,40.8242,1367.00,19.00,17.10,92.15,80.00,3.00,0.00,30.14,M,2.50,M,OVC,M,M,M,200.00,M,M,M,BR,M,M,M,M,M,M,13.83,KEKO 071019Z AUTO 08003KT 2 1/2SM BR OVC002 M07/M08 A3014 RMK AO2 T10721083,M
EKO,2022-12-07 10:29,-115.7860,40.8242,1367.00,19.00,17.10,92.15,70.00,3.00,0.00,30.14,M,3.00,M,OVC,M,M,M,200.00,M,M,M,BR,M,M,M,M,M,M,13.83,KEKO 071029Z AUTO 07003KT 3SM BR OVC002 M07/M08 A3014 RMK AO2 T10721083,M
CXP,2022-12-07 10:35,-119.7326,39.1923,1431.00,21.20,17.60,85.74,0.00,0.00,0.00,30.13,M,10.00,M,CLR,M,M,M,M,M,M,M,M,M,M,M,M,M,M,21.20,KCXP 071035Z AUTO 00000KT 10SM CLR M06/M08 A3013 RMK AO2,M
BVU,2022-12-07 10:35,-114.8611,35.9475,671.00,42.80,30.20,60.79,290.00,3.00,0.00,30.03,M,10.00,M,BKN,M,M,M,5000.00,M,M,M,M,M,M,M,M,M,M,41.03,KBVU 071035Z AUTO 29003KT 10SM BKN050 06/M01 A3003 RMK AO2,M
05U,2022-12-07 10:35,-116.0051,39.6042,1811.23,14.00,12.20,92.38,0.00,0.00,0.00,30.10,M,10.00,M,M,M,M,M,M,M,M,M,M,M,M,M,M,M,M,14.00,K05U 071035Z AUTO 00000KT 10SM M10/M11 A3010 RMK A01,M
RTS,2022-12-07 10:35,-119.8764,39.6682,1539.00,17.60,14.00,85.51,0.00,0.00,0.00,30.11,M,10.00,M,CLR,M,M,M,M,M,M,M,M,M,M,M,M,M,M,17.60,KRTS 071035Z AUTO 00000KT 10SM CLR M08/M10 A3011 RMK AO2,M
TMT,2022-12-07 10:35,-117.1971,39.4643,1749.34,16.20,14.20,91.65,0.00,0.00,0.00,30.11,M,10.00,M,CLR,M,M,M,M,M,M,M,M,M,M,M,M,M,M,16.20,KTMT 071035Z AUTO 00000KT 10SM CLR M09/M10 A3011 RMK AO2 T10881099,M
BAM,2022-12-07 10:35,-116.8743,40.5990,1382.36,23.00,21.20,92.69,40.00,6.00,0.00,30.13,M,7.00,M,CLR,M,M,M,M,M,M,M,M,M,M,M,M,M,M,14.69,KBAM 071035Z AUTO 04006KT 7SM CLR M05/M06 A3013 RMK AO1,M
MEV,2022-12-07 10:35,-119.7500,38.9963,1441.42,17.60,15.80,92.50,100.00,4.00,0.00,30.12,M,10.00,M,SCT,BKN,BKN,M,3600.00,4200.00,4900.00,M,M,M,M,M,M,M,M,10.60,KMEV 071035Z AUTO 10004KT 10SM SCT036 BKN042 BKN049 M08/M09 A3012 RMK AO2,M
05U,2022-12-07 10:50,-116.0051,39.6042,1811.23,14.00,12.20,92.38,0.00,0.00,0.00,30.10,M,10.00,M,M,M,M,M,M,M,M,M,M,M,M,M,M,M,M,14.00,K05U 071050Z AUTO 00000KT 10SM M10/M11 A3010 RMK A01,M
LOL,2022-12-07 10:51,-118.5701,40.0684,1192.43,14.00,12.20,92.38,150.00,3.00,0.00,30.13,M,1.75,M,CLR,M,M,M,M,M,M,M,BR,M,M,M,M,M,M,8.11,KLOL 071051Z AUTO 15003KT 1 3/4SM BR CLR M10/M11 A3013 RMK AO2 VIS 3/4V5,M
LOL,2022-12-07 10:52,-118.5701,40.0684,1192.43,14.00,12.00,91.57,150.00,3.00,0.00,30.13,1022.60,1.50,M,CLR,M,M,M,M,M,M,M,BR,M,M,M,M,M,M,8.11,KLOL 071052Z AUTO 15003KT 1 1/2SM BR CLR M10/M11 A3013 RMK AO2 VIS 3/4V5 SLP226 T11001111,M
DRA,2022-12-07 10:53,-116.0278,36.6206,1009.00,34.00,27.00,75.26,110.00,5.00,0.00,30.03,1015.90,10.00,M,CLR,M,M,M,M,M,M,M,M,M,M,M,M,M,M,28.77,KDRA 071053Z AUTO 11005KT 10SM CLR 01/M03 A3003 RMK AO2 SLP159 T00111028,M
P68,2022-12-07 10:53,-116.0056,39.6014,1993.00,16.00,10.90,79.92,0.00,0.00,0.00,30.08,1019.70,M,M,M,M,M,M,M,M,M,M,M,M,M,M,M,M,M,16.00,KP68 071053Z AUTO 00000KT M09/M12 A3008 RMK AO1 SLP197 T10891117,M
ELY,2022-12-07 10:53,-114.8453,39.2950,1909.00,6.00,3.00,86.74,180.00,8.00,0.00,30.09,1023.10,10.00,M,CLR,M,M,M,M,M,M,M,M,T,M,M,M,M,M,-7.79,KELY 071053Z AUTO 18008KT 10SM CLR M14/M16 A3009 RMK AO2 SLP231 I1000 T11441161,M
VGT,2022-12-07 10:53,-115.1933,36.2111,667.00,46.00,30.90,55.36,310.00,6.00,0.00,30.03,1018.30,10.00,M,BKN,M,M,M,6000.00,M,M,M,M,M,M,M,M,M,M,42.39,KVGT 071053Z AUTO 31006KT 10SM BKN060 08/M01 A3003 RMK AO2 SLP183 T00781006,M
EKO,2022-12-07 10:54,-115.7860,40.8242,1367.00,19.40,17.60,92.57,0.00,0.00,0.00,30.14,M,2.00,M,OVC,M,M,M,200.00,M,M,M,BR,M,M,M,M,M,M,19.40,KEKO 071054Z AUTO 00000KT 2SM BR OVC002 M07/M08 A3014 RMK AO2,M
CXP,2022-12-07 10:55,-119.7326,39.1923,1431.00,21.20,19.40,92.63,0.00,0.00,0.00,30.12,M,10.00,M,CLR,M,M,M,M,M,M,M,M,M,M,M,M,M,M,21.20,KCXP 071055Z AUTO 00000KT 10SM CLR M06/M07 A3012 RMK AO2,M
INS,2022-12-07 10:55,-115.6733,36.5872,955.00,35.60,26.10,68.04,0.00,0.00,0.00,30.04,1016.30,10.00,M,BKN,M,M,M,5000.00,M,M,M,M,M,M,M,M,M,M,35.60,KINS 071055Z AUTO 00000KT 10SM BKN050 02/M03 A3004 RMK AO2 SLP163 T00201033 $,M
RTS,2022-12-07 10:55,-119.8764,39.6682,1539.00,17.60,14.00,85.51,10.00,3.00,0.00,30.12,M,10.00,M,CLR,M,M,M,M,M,M,M,M,M,M,M,M,M,M,12.23,KRTS 071055Z AUTO 01003KT 10SM CLR M08/M10 A3012 RMK AO2,M
RNO,2022-12-07 10:55,-119.7711,39.4839,1341.00,25.00,18.00,74.36,280.00,4.00,0.00,30.12,1020.70,10.00,M,CLR,M,M,M,M,M,M,M,M,M,M,M,M,M,M,19.25,KRNO 071055Z 28004KT 10SM CLR M04/M08 A3012 RMK AO2 SLP207 T10391078,M
TMT,2022-12-07 10:55,-117.1971,39.4643,1749.34,15.60,13.60,91.63,0.00,0.00,0.00,30.10,M,10.00,M,CLR,M,M,M,M,M,M,M,M,M,M,M,M,M,M,15.60,KTMT 071055Z AUTO 00000KT 10SM CLR M09/M10 A3010 RMK AO2 T10911102,M
BAM,2022-12-07 10:55,-116.8743,40.5990,1382.36,23.00,21.20,92.69,60.00,8.00,0.00,30.13,M,10.00,M,CLR,M,M,M,M,M,M,M,M,M,M,M,M,M,M,13.03,KBAM 071055Z AUTO 06008KT 10SM CLR M05/M06 A3013 RMK AO1,M
MEV,2022-12-07 10:55,-119.7500,38.9963,1441.42,17.60,15.80,92.50,100.00,6.00,0.00,30.11,M,10.00,M,FEW,SCT,SCT,M,2800.00,3700.00,4700.00,M,M,M,M,M,M,M,M,8.19,KMEV 071055Z AUTO 10006KT 10SM FEW028 SCT037 SCT047 M08/M09 A3011 RMK AO2,M
LSV,2022-12-07 10:55,-115.0343,36.2362,570.00,39.20,29.80,68.75,0.00,0.00,0.00,30.02,1016.50,10.00,M,SCT,SCT,M,M,6000.00,7500.00,M,M,M,M,M,M,M,M,M,39.20,KLSV 071055Z AUTO 00000KT 10SM SCT060 SCT075 04/M01 A3002 RMK AO2 SLP165 T00401012 $,M
BVU,2022-12-07 10:55,-114.8611,35.9475,671.00,41.00,30.20,65.16,0.00,0.00,0.00,30.03,M,10.00,M,BKN,M,M,M,5000.00,M,M,M,M,M,M,M,M,M,M,41.00,KBVU 071055Z AUTO 00000KT 10SM BKN050 05/M01 A3003 RMK AO2,M
EKO,2022-12-07 10:56,-115.7860,40.8242,1367.00,19.00,17.10,92.15,M,3.00,0.00,30.14,1024.60,2.00,M,OVC,M,M,M,200.00,M,M,M,BR,M,M,M,M,M,M,13.83,KEKO 071056Z AUTO VRB03KT 2SM BR OVC002 M07/M08 A3014 RMK AO2 SLP246 T10721083,M
TPH,2022-12-07 10:56,-117.0904,38.0505,1654.00,30.00,28.00,92.15,10.00,10.00,0.00,30.05,1018.00,10.00,M,OVC,M,M,M,2800.00,M,M,M,M,M,M,M,M,M,M,20.46,KTPH 071056Z AUTO 01010KT 10SM OVC028 M01/M02 A3005 RMK AO2 SLP180 T10111022,M
NFL,2022-12-07 10:56,-118.7010,39.4166,1199.00,17.10,12.90,83.25,140.00,7.00,0.00,30.12,1016.60,10.00,M,CLR,M,M,M,M,M,M,M,M,M,M,M,M,M,M,6.62,KNFL 071056Z AUTO 14007KT 10SM CLR M08/M11 A3012 RMK AO2 SLP166 T10831106,M
WMC,2022-12-07 10:56,-117.8072,40.9019,1315.00,18.00,12.90,80.09,120.00,7.00,0.00,30.12,1021.70,10.00,M,CLR,M,M,M,M,M,M,M,M,M,M,M,M,M,M,7.71,KWMC 071056Z AUTO 12007KT 10SM CLR M08/M11 A3012 RMK AO2 SLP217 T10781106,M
LAS,2022-12-07 10:56,-115.1634,36.0719,663.00,43.00,32.00,64.88,0.00,0.00,0.00,30.04,1016.90,10.00,M,BKN,BKN,M,M,6000.00,20000.00,M,M,M,M,M,M,M,M,M,43.00,KLAS 071056Z 00000KT 10SM BKN060 BKN200 06/00 A3004 RMK AO2 SLP169 T00610000,M
HND,2022-12-07 10:56,-115.1344,35.9729,742.79,40.00,30.00,67.45,200.00,7.00,0.00,30.05,1019.30,10.00,M,SCT,M,M,M,5500.00,M,M,M,M,M,M,M,M,M,M,34.41,KHND 071056Z AUTO 20007KT 10SM SCT055 04/M01 A3005 RMK AO2 SLP193 T00441011,M
LOL,2022-12-07 11:02,-118.5701,40.0684,1192.43,12.90,12.00,96.10,M,3.00,0.00,30.13,M,0.50,M,VV ,M,M,M,100.00,M,M,M,FZFG,M,M,M,M,M,M,6.85,KLOL 071102Z AUTO VRB03KT 1/2SM FZFG VV001 M11/M11 A3013 RMK AO2 T11061111,M
EKO,2022-12-07 11:05,-115.7860,40.8242,1367.00,19.00,17.10,92.15,0.00,0.00,0.00,30.14,M,2.50,M,OVC,M,M,M,100.00,M,M,M,BR,M,M,M,M,M,M,19.00,KEKO 071105Z AUTO 00000KT 2 1/2SM BR OVC001 M07/M08 A3014 RMK AO2 T10721083,M
LOL,2022-12-07 11:11,-118.5701,40.0684,1192.43,12.90,12.00,96.10,210.00,4.00,0.00,30.13,M,0.25,M,VV ,M,M,M,200.00,M,M,M,FZFG,M,M,M,M,M,M,5.12,KLOL 071111Z AUTO 21004KT 1/4SM FZFG VV002 M11/M11 A3013 RMK AO2 T11061111,M
MEV,2022-12-07 11:15,-119.7500,38.9963,1441.42,17.60,15.80,92.50,0.00,0.00,0.00,30.12,M,10.00,M,FEW,SCT,M,M,4100.00,4800.00,M,M,M,M,M,M,M,M,M,17.60,KMEV 071115Z AUTO 00000KT 10SM FEW041 SCT048 M08/M09 A3012 RMK AO2,M
BAM,2022-12-07 11:15,-116.8743,40.5990,1382.36,23.00,21.20,92.69,60.00,5.00,0.00,30.13,M,7.00,M,CLR,M,M,M,M,M,M,M,M,M,M,M,M,M,M,15.71,KBAM 071115Z AUTO 06005KT 7SM CLR M05/M06 A3013 RMK AO1,M
CXP,2022-12-07 11:15,-119.7326,39.1923,1431.00,19.40,17.60,92.57,0.00,0.00,0.00,30.13,M,10.00,M,CLR,M,M,M,M,M,M,M,M,M,M,M,M,M,M,19.40,KCXP 071115Z AUTO 00000KT 10SM CLR M07/M08 A3013 RMK AO2,M
RTS,2022-12-07 11:15,-119.8764,39.6682,1539.00,17.60,15.80,92.50,360.00,3.00,0.00,30.11,M,10.00,M,CLR,M,M,M,M,M,M,M,M,M,M,M,M,M,M,12.23,KRTS 071115Z AUTO 36003KT 10SM CLR M08/M09 A3011 RMK AO2,M
05U,2022-12-07 11:15,-116.0051,39.6042,1811.23,14.00,12.20,92.38,170.00,4.00,0.00,30.10,M,10.00,M,M,M,M,M,M,M,M,M,M,M,M,M,M,M,M,6.40,K05U 071115Z AUTO 17004KT 10SM M10/M11 A3010 RMK A01,M
TMT,2022-12-07 11:15,-117.1971,39.4643,1749.34,15.80,14.00,92.44,0.00,0.00,0.00,30.09,M,10.00,M,CLR,M,M,M,M,M,M,M,M,M,M,M,M,M,M,15.80,KTMT 071115Z AUTO 00000KT 10SM CLR M09/M10 A3009 RMK AO2 T10901100,M
BVU,2022-12-07 11:15,-114.8611,35.9475,671.00,42.80,30.20,60.79,0.00,0.00,0.00,30.03,M,10.00,M,BKN,M,M,M,5000.00,M,M,M,M,M,M,M,M,M,M,42.80,KBVU 071115Z AUTO 00000KT 10SM BKN050 06/M01 A3003 RMK AO2,M
WMC,2022-12-07 11:16,-117.8072,40.9019,1315.00,18.00,14.00,84.05,130.00,6.00,0.00,30.12,M,9.00,M,FEW,M,M,M,100.00,M,M,M,M,M,M,M,M,M,M,8.67,KWMC 071116Z AUTO 13006KT 9SM FEW001 M08/M10 A3012 RMK AO2 T10781100,M
EKO,2022-12-07 11:21,-115.7860,40.8242,1367.00,19.00,17.10,92.15,320.00,4.00,0.00,30.14,M,1.00,M,OVC,M,M,M,100.00,M,M,M,BR,T,M,M,M,M,M,12.24,KEKO 071121Z AUTO 32004KT 1SM BR OVC001 M07/M08 A3014 RMK AO2 I1000 T10721083,M
LOL,2022-12-07 11:27,-118.5701,40.0684,1192.43,14.00,14.00,100.00,0.00,0.00,0.00,30.13,M,0.50,M,VV ,M,M,M,200.00,M,M,M,FZFG,T,M,M,M,M,M,14.00,KLOL 071127Z AUTO 00000KT 1/2SM FZFG VV002 M10/M10 A3013 RMK AO2 I1000 T11001100,M
BVU,2022-12-07 11:35,-114.8611,35.9475,671.00,42.80,30.20,60.79,0.00,0.00,0.00,30.04,M,10.00,M,BKN,BKN,M,M,5000.00,5500.00,M,M,M,M,M,M,M,M,M,42.80,KBVU 071135Z AUTO 00000KT 10SM BKN050 BKN055 06/M01 A3004 RMK AO2,M
CXP,2022-12-07 11:35,-119.7326,39.1923,1431.00,19.40,17.60,92.57,0.00,0.00,0.00,30.13,M,9.00,M,CLR,M,M,M,M,M,M,M,M,M,M,M,M,M,M,19.40,KCXP 071135Z AUTO 00000KT 9SM CLR M07/M08 A3013 RMK AO2,M
LOL,2022-12-07 11:35,-118.5701,40.0684,1192.43,14.00,14.00,100.00,250.00,3.00,0.00,30.13,M,0.25,M,VV ,M,M,M,200.00,M,M,M,FZFG,T,M,M,M,M,M,8.11,KLOL 071135Z AUTO 25003KT 1/4SM FZFG VV002 M10/M10 A3013 RMK AO2 I1000 T11001100,M
RTS,2022-12-07 11:35,-119.8764,39.6682,1539.00,17.60,15.80,92.50,330.00,4.00,0.00,30.11,M,10.00,M,CLR,M,M,M,M,M,M,M,M,M,M,M,M,M,M,10.60,KRTS 071135Z AUTO 33004KT 10SM CLR M08/M09 A3011 RMK AO2,M
05U,2022-12-07 11:35,-116.0051,39.6042,1811.23,15.80,12.20,85.40,0.00,0.00,0.00,30.10,M,10.00,M,M,M,M,M,M,M,M,M,M,M,M,M,M,M,M,15.80,K05U 071135Z AUTO 00000KT 10SM M09/M11 A3010 RMK A01,M
MEV,2022-12-07 11:35,-119.7500,38.9963,1441.42,19.40,15.80,85.63,0.00,0.00,0.00,30.12,M,10.00,M,FEW,FEW,M,M,4200.00,5000.00,M,M,M,M,M,M,M,M,M,19.40,KMEV 071135Z AUTO 00000KT 10SM FEW042 FEW050 M07/M09 A3012 RMK AO2,M
BAM,2022-12-07 11:35,-116.8743,40.5990,1382.36,23.00,21.20,92.69,60.00,6.00,0.00,30.12,M,10.00,M,CLR,M,M,M,M,M,M,M,M,M,M,M,M,M,M,14.69,KBAM 071135Z AUTO 06006KT 10SM CLR M05/M06 A3012 RMK AO1,M
TMT,2022-12-07 11:35,-117.1971,39.4643,1749.34,15.30,13.30,91.62,0.00,0.00,0.00,30.09,M,10.00,M,CLR,M,M,M,M,M,M,M,M,M,M,M,M,M,M,15.30,KTMT 071135Z AUTO 00000KT 10SM CLR M09/M10 A3009 RMK AO2 T10931104,M
LOL,2022-12-07 11:45,-118.5701,40.0684,1192.43,12.90,12.00,96.10,280.00,5.00,0.00,30.13,M,1.00,M,VV ,M,M,M,200.00,M,M,M,BR,T,M,M,M,M,M,3.71,KLOL 071145Z AUTO 28005KT 1SM BR VV002 M11/M11 A3013 RMK AO2 I1000 T11061111,M
LOL,2022-12-07 11:47,-118.5701,40.0684,1192.43,12.20,12.20,100.00,270.00,4.00,0.00,30.13,M,2.50,M,FEW,M,M,M,200.00,M,M,M,BR,0.01,M,M,M,M,M,4.30,KLOL 071147Z AUTO 27004KT 2 1/2SM BR FEW002 M11/M11 A3013 RMK AO2 I1001,M
P68,2022-12-07 11:53,-116.0056,39.6014,1993.00,15.10,10.90,83.11,200.00,6.00,0.00,30.08,1020.10,M,M,M,M,M,M,M,M,M,M,M,M,M,M,M,M,M,5.18,KP68 071153Z AUTO 20006KT M09/M12 A3008 RMK AO1 SLP201 T10941117 11050 21100 50001,M
ELY,2022-12-07 11:53,-114.8453,39.2950,1909.00,5.00,1.90,86.68,180.00,8.00,0.00,30.08,1023.70,10.00,M,SCT,M,M,M,5500.00,M,M,M,M,M,M,T,M,M,M,-9.15,KELY 071153Z AUTO 18008KT 10SM SCT055 M15/M17 A3008 RMK AO2 SLP237 I6000 T11501167 11122 21156 58003,M
VGT,2022-12-07 11:53,-115.1933,36.2111,667.00,44.00,30.90,59.50,270.00,3.00,0.00,30.02,1018.30,10.00,M,CLR,M,M,M,M,M,M,M,M,M,M,M,M,M,M,42.52,KVGT 071153Z AUTO 27003KT 10SM CLR 07/M01 A3002 RMK AO2 SLP183 7//// T00671006 10083 20056 50003,M
DRA,2022-12-07 11:53,-116.0278,36.6206,1009.00,32.00,26.10,78.58,110.00,5.00,0.00,30.03,1016.20,10.00,M,SCT,M,M,M,5000.00,M,M,M,M,M,M,M,M,M,M,26.40,KDRA 071153Z AUTO 11005KT 10SM SCT050 00/M03 A3003 RMK AO2 SLP162 T00001033 10033 20000 53004,M
LOL,2022-12-07 11:53,-118.5701,40.0684,1192.43,15.10,12.90,90.81,270.00,4.00,0.00,30.13,1022.60,10.00,M,FEW,M,M,M,200.00,M,M,M,M,0.01,M,0.02,M,M,M,7.69,KLOL 071153Z AUTO 27004KT 10SM FEW002 M09/M11 A3013 RMK AO2 SLP226 I1001 I6002 T10941106 11044 21111 50004,M
MEV,2022-12-07 11:55,-119.7500,38.9963,1441.42,17.60,15.80,92.50,0.00,0.00,0.00,30.12,M,10.00,M,FEW,FEW,M,M,3400.00,5000.00,M,M,M,M,M,M,M,M,M,17.60,KMEV 071155Z AUTO 00000KT 10SM FEW034 FEW050 M08/M09 A3012 RMK AO2,M
BAM,2022-12-07 11:55,-116.8743,40.5990,1382.36,23.00,21.20,92.69,80.00,4.00,0.00,30.12,M,10.00,M,CLR,M,M,M,M,M,M,M,M,M,M,M,M,M,M,16.91,KBAM 071155Z AUTO 08004KT 10SM CLR M05/M06 A3012 RMK AO1,M
TMT,2022-12-07 11:55,-117.1971,39.4643,1749.34,16.00,14.00,91.64,0.00,0.00,0.00,30.09,M,10.00,M,CLR,M,M,M,M,M,M,M,M,M,M,M,M,M,M,16.00,KTMT 071155Z AUTO 00000KT 10SM CLR M09/M10 A3009 RMK AO2 T10891100 11054 21094,M
LSV,2022-12-07 11:55,-115.0343,36.2362,570.00,38.70,29.30,68.69,0.00,0.00,0.00,30.01,1016.10,10.00,M,SCT,M,M,M,6500.00,M,M,M,M,M,M,M,M,M,M,38.70,KLSV 071155Z AUTO 00000KT 10SM SCT065 04/M01 A3001 RMK AO2 SLP161 T00371015 10076 20035 50003 $,M
BVU,2022-12-07 11:55,-114.8611,35.9475,671.00,41.00,30.20,65.16,0.00,0.00,0.00,30.03,M,10.00,M,OVC,M,M,M,5000.00,M,M,M,M,M,M,M,M,M,M,41.00,KBVU 071155Z AUTO 00000KT 10SM OVC050 05/M01 A3003 RMK AO2,M
CXP,2022-12-07 11:55,-119.7326,39.1923,1431.00,21.20,17.60,85.74,0.00,0.00,0.00,30.13,M,10.00,M,CLR,M,M,M,M,M,M,M,M,M,M,M,M,M,M,21.20,KCXP 071155Z AUTO 00000KT 10SM CLR M06/M08 A3013 RMK AO2,M
INS,2022-12-07 11:55,-115.6733,36.5872,955.00,34.30,26.60,73.15,230.00,3.00,0.00,30.03,1016.20,10.00,M,CLR,M,M,M,M,M,M,M,M,M,M,M,M,M,M,31.32,KINS 071155Z AUTO 23003KT 10SM CLR 01/M03 A3003 RMK AO2 SLP162 T00131030 10031 20004 50001 $,M
RNO,2022-12-07 11:55,-119.7711,39.4839,1341.00,25.00,17.10,71.53,270.00,3.00,0.00,30.12,1020.70,10.00,M,CLR,M,M,M,M,M,M,M,M,M,M,M,M,M,M,20.69,KRNO 071155Z 27003KT 10SM CLR M04/M08 A3012 RMK AO2 SLP207 T10391083 11006 21044 50002,M
RTS,2022-12-07 11:55,-119.8764,39.6682,1539.00,15.80,14.00,92.44,320.00,3.00,0.00,30.11,M,10.00,M,CLR,M,M,M,M,M,M,M,M,M,M,M,M,M,M,10.17,KRTS 071155Z AUTO 32003KT 10SM CLR M09/M10 A3011 RMK AO2,M
05U,2022-12-07 11:55,-116.0051,39.6042,1811.23,14.00,10.40,85.28,200.00,5.00,0.00,30.10,M,10.00,M,M,M,M,M,M,M,M,M,M,M,M,M,M,M,M,5.02,K05U 071155Z AUTO 20005KT 10SM M10/M12 A3010 RMK A01,M
LAS,2022-12-07 11:56,-115.1634,36.0719,663.00,42.00,32.00,67.17,210.00,4.00,0.00,30.03,1016.60,10.00,M,FEW,FEW,M,M,6000.00,20000.00,M,M,M,M,M,M,M,M,M,39.21,KLAS 071156Z 21004KT 10SM FEW060 FEW200 06/00 A3003 RMK AO2 SLP166 T00560000 10089 20056 50003,M
TPH,2022-12-07 11:56,-117.0904,38.0505,1654.00,30.00,27.00,88.44,10.00,10.00,0.00,30.05,1017.90,10.00,M,OVC,M,M,M,2700.00,M,M,M,M,M,M,M,M,M,M,20.46,KTPH 071156Z AUTO 01010KT 10SM OVC027 M01/M03 A3005 RMK AO2 SLP179 60002 70003 T10111028 10000 21017 58002,M
HND,2022-12-07 11:56,-115.1344,35.9729,742.79,40.00,30.00,67.45,220.00,7.00,0.00,30.04,1019.20,10.00,M,SCT,M,M,M,5500.00,M,M,M,M,M,M,M,M,M,M,34.41,KHND 071156Z AUTO 22007KT 10SM SCT055 04/M01 A3004 RMK AO2 SLP192 T00441011 10056 20033 50002,M
NFL,2022-12-07 11:56,-118.7010,39.4166,1199.00,19.00,16.00,87.87,130.00,6.00,0.00,30.12,1016.40,10.00,M,CLR,M,M,M,M,M,M,M,M,M,M,M,M,M,M,9.87,KNFL 071156Z AUTO 13006KT 10SM CLR M07/M09 A3012 RMK AO2 SLP164 T10721089 11050 21089 50002,M
WMC,2022-12-07 11:56,-117.8072,40.9019,1315.00,15.10,10.90,83.11,0.00,0.00,0.00,30.12,1022.40,10.00,M,CLR,M,M,M,M,M,M,M,M,M,M,0.01,M,M,M,15.10,KWMC 071156Z AUTO 00000KT 10SM CLR M09/M12 A3012 RMK AO2 SLP224 I6001 T10941117 11033 21094 51003,M
EKO,2022-12-07 11:56,-115.7860,40.8242,1367.00,19.00,17.10,92.15,60.00,3.00,0.00,30.13,1024.20,1.75,M,OVC,M,M,M,100.00,M,M,M,BR,0.01,M,0.03,M,M,M,13.83,KEKO 071156Z AUTO 06003KT 1 3/4SM BR OVC001 M07/M08 A3013 RMK AO2 SLP242 I1001 I6003 T10721083 11056 21072 58003,M
BAM,2022-12-07 12:15,-116.8743,40.5990,1382.36,21.20,19.40,92.63,0.00,0.00,0.00,30.13,M,10.00,M,CLR,M,M,M,M,M,M,M,M,M,M,M,M,M,M,21.20,KBAM 071215Z AUTO 00000KT 10SM CLR M06/M07 A3013 RMK AO1,M
TMT,2022-12-07 12:15,-117.1971,39.4643,1749.34,15.30,13.10,90.81,0.00,0.00,0.00,30.09,M,10.00,M,CLR,M,M,M,M,M,M,M,M,M,M,M,M,M,M,15.30,KTMT 071215Z AUTO 00000KT 10SM CLR M09/M10 A3009 RMK AO2 T10931105,M
MEV,2022-12-07 12:15,-119.7500,38.9963,1441.42,17.60,15.80,92.50,0.00,0.00,0.00,30.12,M,10.00,M,FEW,FEW,M,M,3800.00,4800.00,M,M,M,M,M,M,M,M,M,17.60,KMEV 071215Z AUTO 00000KT 10SM FEW038 FEW048 M08/M09 A3012 RMK AO2,M
05U,2022-12-07 12:15,-116.0051,39.6042,1811.23,14.00,10.40,85.28,200.00,5.00,0.00,30.10,M,10.00,M,M,M,M,M,M,M,M,M,M,M,M,M,M,M,M,5.02,K05U 071215Z AUTO 20005KT 10SM M10/M12 A3010 RMK A01,M
RTS,2022-12-07 12:15,-119.8764,39.6682,1539.00,15.80,12.20,85.40,0.00,0.00,0.00,30.11,M,10.00,M,CLR,M,M,M,M,M,M,M,M,M,M,M,M,M,M,15.80,KRTS 071215Z AUTO 00000KT 10SM CLR M09/M11 A3011 RMK AO2,M
CXP,2022-12-07 12:15,-119.7326,39.1923,1431.00,21.20,17.60,85.74,0.00,0.00,0.00,30.13,M,10.00,M,CLR,M,M,M,M,M,M,M,M,M,M,M,M,M,M,21.20,KCXP 071215Z AUTO 00000KT 10SM CLR M06/M08 A3013 RMK AO2,M
BVU,2022-12-07 12:15,-114.8611,35.9475,671.00,41.00,30.20,65.16,0.00,0.00,0.00,30.03,M,10.00,M,BKN,M,M,M,5500.00,M,M,M,M,M,M,M,M,M,M,41.00,KBVU 071215Z AUTO 00000KT 10SM BKN055 05/M01 A3003 RMK AO2,M
TPH,2022-12-07 12:27,-117.0904,38.0505,1654.00,28.90,26.10,89.12,10.00,7.00,0.00,30.06,M,10.00,M,SCT,BKN,BKN,M,2700.00,4200.00,7000.00,M,M,M,M,M,M,M,M,21.00,KTPH 071227Z AUTO 01007KT 10SM SCT027 BKN042 BKN070 M02/M03 A3006 RMK AO2 T10171033,M
LOL,2022-12-07 12:28,-118.5701,40.0684,1192.43,10.00,7.00,87.37,140.00,4.00,0.00,30.13,M,1.75,M,CLR,M,M,M,M,M,M,M,BR,T,M,M,M,M,M,1.73,KLOL 071228Z AUTO 14004KT 1 3/4SM BR CLR M12/M14 A3013 RMK AO2 VIS 3/4V5 I1000 T11221139,M
05U,2022-12-07 12:30,-116.0051,39.6042,1811.23,14.00,10.40,85.28,M,4.00,0.00,30.10,M,10.00,M,M,M,M,M,M,M,M,M,M,M,M,M,M,M,M,6.40,K05U 071230Z AUTO VRB04KT 10SM M10/M12 A3010 RMK A01,M
CXP,2022-12-07 12:35,-119.7326,39.1923,1431.00,21.20,17.60,85.74,0.00,0.00,0.00,30.13,M,10.00,M,CLR,M,M,M,M,M,M,M,M,M,M,M,M,M,M,21.20,KCXP 071235Z AUTO 00000KT 10SM CLR M06/M08 A3013 RMK AO2,M
RTS,2022-12-07 12:35,-119.8764,39.6682,1539.00,17.60,14.00,85.51,0.00,0.00,0.00,30.11,M,10.00,M,CLR,M,M,M,M,M,M,M,M,M,M,M,M,M,M,17.60,KRTS 071235Z AUTO 00000KT 10SM CLR M08/M10 A3011 RMK AO2,M
BAM,2022-12-07 12:35,-116.8743,40.5990,1382.36,19.40,17.60,92.57,0.00,0.00,0.00,30.13,M,10.00,M,CLR,M,M,M,M,M,M,M,M,M,M,M,M,M,M,19.40,KBAM 071235Z AUTO 00000KT 10SM CLR M07/M08 A3013 RMK AO1,M
BVU,2022-12-07 12:35,-114.8611,35.9475,671.00,39.20,30.20,69.88,60.00,3.00,0.00,30.03,M,10.00,M,BKN,M,M,M,5000.00,M,M,M,M,M,M,M,M,M,M,36.92,KBVU 071235Z AUTO 06003KT 10SM BKN050 04/M01 A3003 RMK AO2,M
MEV,2022-12-07 12:35,-119.7500,38.9963,1441.42,15.80,14.00,92.44,40.00,4.00,0.00,30.12,M,10.00,M,FEW,FEW,SCT,M,3100.00,3900.00,4800.00,M,M,M,M,M,M,M,M,8.50,KMEV 071235Z AUTO 04004KT 10SM FEW031 FEW039 SCT048 M09/M10 A3012 RMK AO2,M
TMT,2022-12-07 12:35,-117.1971,39.4643,1749.34,13.80,11.50,90.35,130.00,3.00,0.00,30.10,M,10.00,M,CLR,M,M,M,M,M,M,M,M,M,M,M,M,M,M,7.88,KTMT 071235Z AUTO 13003KT 10SM CLR M10/M11 A3010 RMK AO2 T11011114,M
LOL,2022-12-07 12:44,-118.5701,40.0684,1192.43,12.90,12.00,96.10,140.00,5.00,0.00,30.13,M,0.75,M,VV ,M,M,M,200.00,M,M,M,BR,T,M,M,M,M,M,3.71,KLOL 071244Z AUTO 14005KT 3/4SM BR VV002 M11/M11 A3013 RMK AO2 I1000 T11061111,M
EKO,2022-12-07 12:47,-115.7860,40.8242,1367.00,19.00,16.00,87.87,20.00,4.00,0.00,30.13,M,3.00,M,OVC,M,M,M,100.00,M,M,M,BR,0.01,M,M,M,M,M,12.24,KEKO 071247Z AUTO 02004KT 3SM BR OVC001 M07/M09 A3013 RMK AO2 I1001 T10721089,M
DRA,2022-12-07 12:53,-116.0278,36.6206,1009.00,30.90,26.10,82.15,160.00,3.00,0.00,30.04,1016.80,10.00,M,CLR,M,M,M,M,M,M,M,M,M,M,M,M,M,M,27.43,KDRA 071253Z AUTO 16003KT 10SM CLR M01/M03 A3004 RMK AO2 SLP168 T10061033,M
ELY,2022-12-07 12:53,-114.8453,39.2950,1909.00,5.00,1.90,86.68,170.00,7.00,0.00,30.10,1025.70,10.00,M,CLR,M,M,M,M,M,M,M,M,T,M,M,M,M,M,-8.13,KELY 071253Z AUTO 17007KT 10SM CLR M15/M17 A3010 RMK AO2 SLP257 I1000 T11501167,M
P68,2022-12-07 12:53,-116.0056,39.6014,1993.00,14.00,10.00,83.77,190.00,5.00,0.00,30.08,1021.40,M,M,M,M,M,M,M,M,M,M,M,M,M,M,M,M,M,5.02,KP68 071253Z AUTO 19005KT M10/M12 A3008 RMK AO1 SLP214 T11001122,M
VGT,2022-12-07 12:53,-115.1933,36.2111,667.00,41.00,30.00,64.63,0.00,0.00,0.00,30.03,1018.90,10.00,M,CLR,M,M,M,M,M,M,M,M,M,M,M,M,M,M,41.00,KVGT 071253Z AUTO 00000KT 10SM CLR 05/M01 A3003 RMK AO2 SLP189 T00501011,M
LOL,2022-12-07 12:53,-118.5701,40.0684,1192.43,12.90,12.00,96.10,120.00,3.00,0.00,30.13,1023.60,0.25,M,VV ,M,M,M,200.00,M,M,M,FZFG,T,M,M,M,M,M,6.85,KLOL 071253Z AUTO 12003KT 1/4SM FZFG VV002 M11/M11 A3013 RMK AO2 SLP236 I1000 T11061111,M
BAM,2022-12-07 12:55,-116.8743,40.5990,1382.36,19.40,17.60,92.57,0.00,0.00,0.00,30.13,M,10.00,M,CLR,M,M,M,M,M,M,M,M,M,M,M,M,M,M,19.40,KBAM 071255Z AUTO 00000KT 10SM CLR M07/M08 A3013 RMK AO1,M
BVU,2022-12-07 12:55,-114.8611,35.9475,671.00,39.20,30.20,69.88,0.00,0.00,0.00,30.04,M,10.00,M,FEW,M,M,M,5000.00,M,M,M,M,M,M,M,M,M,M,39.20,KBVU 071255Z AUTO 00000KT 10SM FEW050 04/M01 A3004 RMK AO2,M
CXP,2022-12-07 12:55,-119.7326,39.1923,1431.00,19.40,17.60,92.57,0.00,0.00,0.00,30.13,M,10.00,M,CLR,M,M,M,M,M,M,M,M,M,M,M,M,M,M,19.40,KCXP 071255Z AUTO 00000KT 10SM CLR M07/M08 A3013 RMK AO2,M
RNO,2022-12-07 12:55,-119.7711,39.4839,1341.00,23.00,16.00,74.15,270.00,3.00,0.00,30.13,1021.30,10.00,M,CLR,M,M,M,M,M,M,M,M,M,M,M,M,M,M,18.40,KRNO 071255Z 27003KT 10SM CLR M05/M09 A3013 RMK AO2 SLP213 T10501089,M
RTS,2022-12-07 12:55,-119.8764,39.6682,1539.00,14.00,10.40,85.28,0.00,0.00,0.00,30.11,M,10.00,M,CLR,M,M,M,M,M,M,M,M,M,M,M,M,M,M,14.00,KRTS 071255Z AUTO 00000KT 10SM CLR M10/M12 A3011 RMK AO2,M
05U,2022-12-07 12:55,-116.0051,39.6042,1811.23,14.00,10.40,85.28,200.00,4.00,0.00,30.10,M,10.00,M,M,M,M,M,M,M,M,M,M,M,M,M,M,M,M,6.40,K05U 071255Z AUTO 20004KT 10SM M10/M12 A3010 RMK A01,M
MEV,2022-12-07 12:55,-119.7500,38.9963,1441.42,15.80,14.00,92.44,0.00,0.00,0.00,30.12,M,10.00,M,FEW,FEW,SCT,M,3200.00,3900.00,4700.00,M,M,M,M,M,M,M,M,15.80,KMEV 071255Z AUTO 00000KT 10SM FEW032 FEW039 SCT047 M09/M10 A3012 RMK AO2,M
TMT,2022-12-07 12:55,-117.1971,39.4643,1749.34,13.80,12.00,92.37,120.00,3.00,0.00,30.10,M,10.00,M,SCT,M,M,M,1200.00,M,M,M,M,M,M,M,M,M,M,7.88,KTMT 071255Z AUTO 12003KT 10SM SCT012 M10/M11 A3010 RMK AO2 T11011111,M
INS,2022-12-07 12:55,-115.6733,36.5872,955.00,32.70,24.60,71.78,0.00,0.00,0.00,30.04,1017.00,10.00,M,CLR,M,M,M,M,M,M,M,M,M,M,M,M,M,M,32.70,KINS 071255Z AUTO 00000KT 10SM CLR 00/M04 A3004 RMK AO2 SLP170 T00041041 $,M
LSV,2022-12-07 12:55,-115.0343,36.2362,570.00,37.60,28.40,69.13,0.00,0.00,0.00,30.02,1016.60,10.00,M,CLR,M,M,M,M,M,M,M,M,M,M,M,M,M,M,37.60,KLSV 071255Z AUTO 00000KT 10SM CLR 03/M02 A3002 RMK AO2 SLP166 T00311020 $,M
EKO,2022-12-07 12:56,-115.7860,40.8242,1367.00,19.00,16.00,87.87,20.00,3.00,0.00,30.13,1024.60,3.00,M,OVC,M,M,M,200.00,M,M,M,BR,0.01,M,M,M,M,M,13.83,KEKO 071256Z AUTO 02003KT 3SM BR OVC002 M07/M09 A3013 RMK AO2 SLP246 I1001 T10721089,M
WMC,2022-12-07 12:56,-117.8072,40.9019,1315.00,14.00,9.00,80.10,0.00,0.00,0.00,30.12,1023.00,10.00,M,CLR,M,M,M,M,M,M,M,M,M,M,M,M,M,M,14.00,KWMC 071256Z AUTO 00000KT 10SM CLR M10/M13 A3012 RMK AO2 SLP230 T11001128,M
NFL,2022-12-07 12:56,-118.7010,39.4166,1199.00,18.00,15.10,88.20,160.00,3.00,0.00,30.13,1016.70,10.00,M,CLR,M,M,M,M,M,M,M,M,M,M,M,M,M,M,12.68,KNFL 071256Z AUTO 16003KT 10SM CLR M08/M09 A3013 RMK AO2 SLP167 T10781094,M
HND,2022-12-07 12:56,-115.1344,35.9729,742.79,38.00,28.90,69.73,200.00,9.00,0.00,30.05,1019.80,10.00,M,CLR,M,M,M,M,M,M,M,M,M,M,M,M,M,M,30.85,KHND 071256Z AUTO 20009KT 10SM CLR 03/M02 A3005 RMK AO2 SLP198 T00331017,M
TPH,2022-12-07 12:56,-117.0904,38.0505,1654.00,28.00,26.10,92.46,340.00,5.00,0.00,30.06,1018.80,10.00,M,BKN,BKN,OVC,M,2700.00,6500.00,9500.00,M,M,M,M,M,M,M,M,21.64,KTPH 071256Z AUTO 34005KT 10SM BKN027 BKN065 OVC095 M02/M03 A3006 RMK AO2 SLP188 T10221033,M
LAS,2022-12-07 12:56,-115.1634,36.0719,663.00,42.00,32.00,67.17,220.00,4.00,0.00,30.04,1017.00,10.00,M,SCT,SCT,M,M,6000.00,20000.00,M,M,M,M,M,M,M,M,M,39.21,KLAS 071256Z 22004KT 10SM SCT060 SCT200 06/00 A3004 RMK AO2 SLP170 T00560000,M
LOL,2022-12-07 13:06,-118.5701,40.0684,1192.43,12.90,12.00,96.10,0.00,0.00,0.00,30.13,M,0.50,M,VV ,M,M,M,200.00,M,M,M,FZFG,M,M,M,M,M,M,12.90,KLOL 071306Z AUTO 00000KT 1/2SM FZFG VV002 M11/M11 A3013 RMK AO2 T11061111,M
CXP,2022-12-07 13:10,-119.7326,39.1923,1431.00,19.40,17.60,92.57,0.00,0.00,0.00,30.13,M,10.00,M,CLR,M,M,M,M,M,M,M,M,M,M,M,M,M,M,19.40,KCXP 071310Z AUTO 00000KT 10SM CLR M07/M08 A3013 RMK AO2,M
EKO,2022-12-07 13:13,-115.7860,40.8242,1367.00,19.00,17.10,92.15,360.00,3.00,0.00,30.13,M,2.00,M,OVC,M,M,M,200.00,M,M,M,BR,M,M,M,M,M,M,13.83,KEKO 071313Z AUTO 36003KT 2SM BR OVC002 M07/M08 A3013 RMK AO2 T10721083,M
RTS,2022-12-07 13:15,-119.8764,39.6682,1539.00,15.80,12.20,85.40,0.00,0.00,0.00,30.12,M,10.00,M,CLR,M,M,M,M,M,M,M,M,M,M,M,M,M,M,15.80,KRTS 071315Z AUTO 00000KT 10SM CLR M09/M11 A3012 RMK AO2,M
05U,2022-12-07 13:15,-116.0051,39.6042,1811.23,12.20,8.60,85.17,0.00,0.00,0.00,30.10,M,10.00,M,M,M,M,M,M,M,M,M,M,M,M,M,M,M,M,12.20,K05U 071315Z AUTO 00000KT 10SM M11/M13 A3010 RMK A01,M
MEV,2022-12-07 13:15,-119.7500,38.9963,1441.42,15.80,14.00,92.44,0.00,0.00,0.00,30.12,M,10.00,M,FEW,SCT,SCT,M,2500.00,3300.00,4300.00,M,M,M,M,M,M,M,M,15.80,KMEV 071315Z AUTO 00000KT 10SM FEW025 SCT033 SCT043 M09/M10 A3012 RMK AO2,M
BAM,2022-12-07 13:15,-116.8743,40.5990,1382.36,23.00,21.20,92.69,40.00,6.00,0.00,30.13,M,10.00,M,CLR,M,M,M,M,M,M,M,M,M,M,M,M,M,M,14.69,KBAM 071315Z AUTO 04006KT 10SM CLR M05/M06 A3013 RMK AO1,M
TMT,2022-12-07 13:15,-117.1971,39.4643,1749.34,14.90,13.10,92.41,0.00,0.00,0.00,30.11,M,10.00,M,SCT,BKN,M,M,800.00,1200.00,M,M,M,M,M,M,M,M,M,14.90,KTMT 071315Z AUTO 00000KT 10SM SCT008 BKN012 M09/M10 A3011 RMK AO2 T10951105,M
BVU,2022-12-07 13:15,-114.8611,35.9475,671.00,39.20,30.20,69.88,0.00,0.00,0.00,30.05,M,10.00,M,CLR,M,M,M,M,M,M,M,M,M,M,M,M,M,M,39.20,KBVU 071315Z AUTO 00000KT 10SM CLR 04/M01 A3005 RMK AO2,M
LOL,2022-12-07 13:34,-118.5701,40.0684,1192.43,10.90,9.00,91.86,0.00,0.00,0.00,30.14,M,1.25,M,SCT,M,M,M,200.00,M,M,M,BR,T,M,M,M,M,M,10.90,KLOL 071334Z AUTO 00000KT 1 1/4SM BR SCT002 M12/M13 A3014 RMK AO2 I1000 T11171128,M
BVU,2022-12-07 13:35,-114.8611,35.9475,671.00,39.20,30.20,69.88,0.00,0.00,0.00,30.06,M,10.00,M,CLR,M,M,M,M,M,M,M,M,M,M,M,M,M,M,39.20,KBVU 071335Z AUTO 00000KT 10SM CLR 04/M01 A3006 RMK AO2,M
TMT,2022-12-07 13:35,-117.1971,39.4643,1749.34,18.00,16.70,94.54,0.00,0.00,0.00,30.11,M,10.00,M,OVC,M,M,M,600.00,M,M,M,M,M,M,M,M,M,M,18.00,KTMT 071335Z AUTO 00000KT 10SM OVC006 M08/M08 A3011 RMK AO2 T10781085,M
BAM,2022-12-07 13:35,-116.8743,40.5990,1382.36,21.20,19.40,92.63,60.00,3.00,0.00,30.13,M,10.00,M,CLR,M,M,M,M,M,M,M,M,M,M,M,M,M,M,16.34,KBAM 071335Z AUTO 06003KT 10SM CLR M06/M07 A3013 RMK AO1,M
MEV,2022-12-07 13:35,-119.7500,38.9963,1441.42,15.80,14.00,92.44,0.00,0.00,0.00,30.12,M,10.00,M,SCT,SCT,SCT,M,3100.00,3800.00,4800.00,M,M,M,M,M,M,M,M,15.80,KMEV 071335Z AUTO 00000KT 10SM SCT031 SCT038 SCT048 M09/M10 A3012 RMK AO2,M
05U,2022-12-07 13:35,-116.0051,39.6042,1811.23,12.20,8.60,85.17,200.00,3.00,0.00,30.10,M,10.00,M,M,M,M,M,M,M,M,M,M,M,M,M,M,M,M,6.05,K05U 071335Z AUTO 20003KT 10SM M11/M13 A3010 RMK A01,M
RTS,2022-12-07 13:35,-119.8764,39.6682,1539.00,17.60,15.80,92.50,0.00,0.00,0.00,30.12,M,10.00,M,CLR,M,M,M,M,M,M,M,M,M,M,M,M,M,M,17.60,KRTS 071335Z AUTO 00000KT 10SM CLR M08/M09 A3012 RMK AO2,M
CXP,2022-12-07 13:35,-119.7326,39.1923,1431.00,19.40,17.60,92.57,0.00,0.00,0.00,30.13,M,8.00,M,CLR,M,M,M,M,M,M,M,M,M,M,M,M,M,M,19.40,KCXP 071335Z AUTO 00000KT 8SM CLR M07/M08 A3013 RMK AO2,M
LOL,2022-12-07 13:36,-118.5701,40.0684,1192.43,10.00,9.00,95.62,240.00,3.00,0.00,30.14,M,2.00,M,BKN,M,M,M,200.00,M,M,M,BR,T,M,M,M,M,M,3.54,KLOL 071336Z AUTO 24003KT 2SM BR BKN002 M12/M13 A3014 RMK AO2 I1000 T11221128,M
LOL,2022-12-07 13:43,-118.5701,40.0684,1192.43,10.00,8.10,91.82,0.00,0.00,0.00,30.14,M,6.00,M,BKN,M,M,M,200.00,M,M,M,BR,T,M,M,M,M,M,10.00,KLOL 071343Z AUTO 00000KT 6SM BR BKN002 M12/M13 A3014 RMK AO2 I1000 T11221133,M
LOL,2022-12-07 13:53,-118.5701,40.0684,1192.43,10.00,9.00,95.62,0.00,0.00,0.00,30.14,1024.00,8.00,M,BKN,M,M,M,200.00,M,M,M,M,T,M,M,M,M,M,10.00,KLOL 071353Z AUTO 00000KT 8SM BKN002 M12/M13 A3014 RMK AO2 SLP240 I1000 T11221128 $,M
P68,2022-12-07 13:53,-116.0056,39.6014,1993.00,14.00,10.00,83.77,200.00,4.00,0.00,30.08,1022.00,M,M,M,M,M,M,M,M,M,M,M,M,M,M,M,M,M,6.40,KP68 071353Z AUTO 20004KT M10/M12 A3008 RMK AO1 SLP220 T11001122,M
VGT,2022-12-07 13:53,-115.1933,36.2111,667.00,43.00,32.00,64.88,0.00,0.00,0.00,30.06,1019.70,10.00,M,BKN,OVC,M,M,6000.00,7000.00,M,M,M,M,M,M,M,M,M,43.00,KVGT 071353Z 00000KT 10SM BKN060 OVC070 06/00 A3006 RMK AO2 SLP197 T00610000,M
ELY,2022-12-07 13:53,-114.8453,39.2950,1909.00,3.00,0.00,86.96,180.00,7.00,0.00,30.10,1026.10,10.00,M,FEW,M,M,M,4800.00,M,M,M,M,M,M,M,M,M,M,-10.57,KELY 071353Z AUTO 18007KT 10SM FEW048 M16/M18 A3010 RMK AO2 SLP261 T11611178,M
DRA,2022-12-07 13:53,-116.0278,36.6206,1009.00,32.00,26.10,78.58,0.00,0.00,0.00,30.05,1017.40,10.00,M,FEW,M,M,M,6500.00,M,M,M,M,M,M,M,M,M,M,32.00,KDRA 071353Z AUTO 00000KT 10SM FEW065 00/M03 A3005 RMK AO2 SLP174 T00001033,M
TMT,2022-12-07 13:55,-117.1971,39.4643,1749.34,18.50,16.70,92.54,0.00,0.00,0.00,30.10,M,10.00,M,OVC,M,M,M,600.00,M,M,M,M,M,M,M,M,M,M,18.50,KTMT 071355Z AUTO 00000KT 10SM OVC006 M07/M08 A3010 RMK AO2 T10751085,M
BAM,2022-12-07 13:55,-116.8743,40.5990,1382.36,17.60,15.80,92.50,90.00,4.00,0.00,30.13,M,10.00,M,CLR,M,M,M,M,M,M,M,M,M,M,M,M,M,M,10.60,KBAM 071355Z AUTO 09004KT 10SM CLR M08/M09 A3013 RMK AO1,M
MEV,2022-12-07 13:55,-119.7500,38.9963,1441.42,17.60,15.80,92.50,0.00,0.00,0.00,30.13,M,10.00,M,SCT,BKN,BKN,M,3400.00,4100.00,4800.00,M,M,M,M,M,M,M,M,17.60,KMEV 071355Z AUTO 00000KT 10SM SCT034 BKN041 BKN048 M08/M09 A3013 RMK AO2,M
05U,2022-12-07 13:55,-116.0051,39.6042,1811.23,12.20,8.60,85.17,210.00,3.00,0.00,30.11,M,10.00,M,M,M,M,M,M,M,M,M,M,M,M,M,M,M,M,6.05,K05U 071355Z AUTO 21003KT 10SM M11/M13 A3011 RMK A01,M
LSV,2022-12-07 13:55,-115.0343,36.2362,570.00,37.20,28.40,70.22,0.00,0.00,0.00,30.05,1017.80,10.00,M,SCT,M,M,M,6500.00,M,M,M,M,M,M,M,M,M,M,37.20,KLSV 071355Z AUTO 00000KT 10SM SCT065 03/M02 A3005 RMK AO2 SLP178 T00291020 $,M
RNO,2022-12-07 13:55,-119.7711,39.4839,1341.00,23.00,16.00,74.15,280.00,6.00,0.00,30.13,1021.90,10.00,M,CLR,M,M,M,M,M,M,M,M,M,M,M,M,M,M,14.69,KRNO 071355Z 28006KT 10SM CLR M05/M09 A3013 RMK AO2 SLP219 T10501089,M
RTS,2022-12-07 13:55,-119.8764,39.6682,1539.00,14.00,12.20,92.38,0.00,0.00,0.00,30.12,M,10.00,M,CLR,M,M,M,M,M,M,M,M,M,M,M,M,M,M,14.00,KRTS 071355Z AUTO 00000KT 10SM CLR M10/M11 A3012 RMK AO2,M
CXP,2022-12-07 13:55,-119.7326,39.1923,1431.00,19.40,17.60,92.57,100.00,3.00,0.00,30.14,M,10.00,M,CLR,M,M,M,M,M,M,M,M,M,M,M,M,M,M,14.28,KCXP 071355Z AUTO 10003KT 10SM CLR M07/M08 A3014 RMK AO2,M
BVU,2022-12-07 13:55,-114.8611,35.9475,671.00,41.00,30.20,65.16,310.00,4.00,0.00,30.06,M,10.00,M,CLR,M,M,M,M,M,M,M,M,M,M,M,M,M,M,37.93,KBVU 071355Z AUTO 31004KT 10SM CLR 05/M01 A3006 RMK AO2,M
INS,2022-12-07 13:55,-115.6733,36.5872,955.00,30.90,23.90,74.96,0.00,0.00,0.00,30.06,1018.00,10.00,M,CLR,M,M,M,M,M,M,M,M,M,M,M,M,M,M,30.90,KINS 071355Z AUTO 00000KT 10SM CLR M01/M04 A3006 RMK AO2 SLP180 T10061045 $,M
EKO,2022-12-07 13:56,-115.7860,40.8242,1367.00,18.00,16.00,91.72,110.00,3.00,0.00,30.14,1024.70,3.00,M,OVC,M,M,M,200.00,M,M,M,BR,M,M,M,M,M,M,12.68,KEKO 071356Z AUTO 11003KT 3SM BR OVC002 M08/M09 A3014 RMK AO2 SLP247 T10781089,M
TPH,2022-12-07 13:56,-117.0904,38.0505,1654.00,28.90,26.10,89.12,10.00,6.00,T,30.08,1019.70,8.00,M,OVC,M,M,M,2400.00,M,M,M,-SN,M,M,M,M,M,M,21.80,KTPH 071356Z AUTO 01006KT 8SM -SN OVC024 M02/M03 A3008 RMK AO2 SNB43 SLP197 P0000 T10171033,M
HND,2022-12-07 13:56,-115.1344,35.9729,742.79,40.00,28.90,64.49,200.00,8.00,0.00,30.08,1020.60,10.00,M,FEW,M,M,M,7000.00,M,M,M,M,M,M,M,M,M,M,33.84,KHND 071356Z 20008KT 10SM FEW070 04/M02 A3008 RMK AO2 SLP206 T00441017,M
WMC,2022-12-07 13:56,-117.8072,40.9019,1315.00,14.00,9.00,80.10,200.00,3.00,0.00,30.13,1023.30,10.00,M,CLR,M,M,M,M,M,M,M,M,T,M,M,M,M,M,8.11,KWMC 071356Z AUTO 20003KT 10SM CLR M10/M13 A3013 RMK AO2 SLP233 I1000 T11001128,M
LAS,2022-12-07 13:56,-115.1634,36.0719,663.00,43.00,32.00,64.88,0.00,0.00,0.00,30.07,1018.00,10.00,M,SCT,BKN,M,M,5500.00,20000.00,M,M,M,M,M,M,M,M,M,43.00,KLAS 071356Z 00000KT 10SM SCT055 BKN200 06/00 A3007 RMK AO2 SLP180 T00610000,M
NFL,2022-12-07 13:56,-118.7010,39.4166,1199.00,17.10,14.00,87.38,150.00,7.00,0.00,30.14,1017.00,10.00,M,CLR,M,M,M,M,M,M,M,M,M,M,M,M,M,M,6.62,KNFL 071356Z AUTO 15007KT 10SM CLR M08/M10 A3014 RMK AO2 SLP170 T10831100,M
LOL,2022-12-07 13:59,-118.5701,40.0684,1192.43,10.00,9.00,95.62,0.00,0.00,0.00,30.14,M,1.75,M,BKN,M,M,M,200.00,M,M,M,BR,M,M,M,M,M,M,10.00,KLOL 071359Z AUTO 00000KT 1 3/4SM BR BKN002 M12/M13 A3014 RMK AO2 VIS 1/2V5 T11221128 $,M
LSV,2022-12-07 14:13,-115.0343,36.2362,570.00,37.40,28.40,69.67,0.00,0.00,0.00,30.06,1018.10,10.00,M,BKN,BKN,M,M,4600.00,6500.00,M,M,M,M,M,M,M,M,M,37.40,KLSV 071413Z AUTO 00000KT 10SM BKN046 BKN065 03/M02 A3006 RMK AO2 SLP181 $,M
BAM,2022-12-07 14:15,-116.8743,40.5990,1382.36,19.40,15.80,85.63,80.00,4.00,0.00,30.13,M,10.00,M,CLR,M,M,M,M,M,M,M,M,M,M,M,M,M,M,12.71,KBAM 071415Z AUTO 08004KT 10SM CLR M07/M09 A3013 RMK AO1,M
RTS,2022-12-07 14:15,-119.8764,39.6682,1539.00,15.80,12.20,85.40,350.00,4.00,0.00,30.12,M,10.00,M,CLR,M,M,M,M,M,M,M,M,M,M,M,M,M,M,8.50,KRTS 071415Z AUTO 35004KT 10SM CLR M09/M11 A3012 RMK AO2,M
05U,2022-12-07 14:15,-116.0051,39.6042,1811.23,14.00,10.40,85.28,200.00,3.00,0.00,30.11,M,10.00,M,M,M,M,M,M,M,M,M,M,M,M,M,M,M,M,8.11,K05U 071415Z AUTO 20003KT 10SM M10/M12 A3011 RMK A01,M
MEV,2022-12-07 14:15,-119.7500,38.9963,1441.42,17.60,14.00,85.51,120.00,3.00,0.00,30.13,M,10.00,M,FEW,BKN,BKN,M,2900.00,3600.00,4600.00,M,M,M,M,M,M,M,M,12.23,KMEV 071415Z AUTO 12003KT 10SM FEW029 BKN036 BKN046 M08/M10 A3013 RMK AO2,M
TMT,2022-12-07 14:15,-117.1971,39.4643,1749.34,19.60,17.60,91.78,310.00,3.00,0.00,30.11,M,10.00,M,OVC,M,M,M,400.00,M,M,M,M,M,M,M,M,M,M,14.51,KTMT 071415Z AUTO 31003KT 10SM OVC004 M07/M08 A3011 RMK AO2 T10691080,M
BVU,2022-12-07 14:15,-114.8611,35.9475,671.00,41.00,30.20,65.16,0.00,0.00,0.00,30.07,M,10.00,M,CLR,M,M,M,M,M,M,M,M,M,M,M,M,M,M,41.00,KBVU 071415Z AUTO 00000KT 10SM CLR 05/M01 A3007 RMK AO2,M
CXP,2022-12-07 14:15,-119.7326,39.1923,1431.00,17.60,15.80,92.50,0.00,0.00,0.00,30.15,M,10.00,M,CLR,M,M,M,M,M,M,M,M,M,M,M,M,M,M,17.60,KCXP 071415Z AUTO 00000KT 10SM CLR M08/M09 A3015 RMK AO2,M
LOL,2022-12-07 14:18,-118.5701,40.0684,1192.43,12.00,10.00,91.49,0.00,0.00,0.00,30.14,M,2.00,M,FEW,M,M,M,200.00,M,M,M,BR,M,M,M,M,M,M,12.00,KLOL 071418Z AUTO 00000KT 2SM BR FEW002 M11/M12 A3014 RMK AO2 VIS 1 1/4V5 T11111122 $,M
LOL,2022-12-07 14:27,-118.5701,40.0684,1192.43,9.00,7.00,91.37,0.00,0.00,0.00,30.14,M,1.00,M,VV ,M,M,M,100.00,M,M,M,BR,M,M,M,M,M,M,9.00,KLOL 071427Z AUTO 00000KT 1SM BR VV001 M13/M14 A3014 RMK AO2 VIS 1/4V5 T11281139 $,M
NFL,2022-12-07 14:29,-118.7010,39.4166,1199.00,18.00,14.00,84.05,180.00,6.00,0.00,30.14,M,10.00,M,SCT,M,M,M,12000.00,M,M,M,M,M,M,M,M,M,M,8.67,KNFL 071429Z 18006KT 10SM SCT120 M08/M10 A3014 RMK AO2 T10781100,M
LSV,2022-12-07 14:29,-115.0343,36.2362,570.00,37.40,28.40,69.67,0.00,0.00,0.00,30.06,1018.10,10.00,M,SCT,BKN,M,M,4600.00,8000.00,M,M,M,M,M,M,M,M,M,37.40,KLSV 071429Z AUTO 00000KT 10SM SCT046 BKN080 03/M02 A3006 RMK AO2 SLP181 $,M
05U,2022-12-07 14:30,-116.0051,39.6042,1811.23,12.20,8.60,85.17,0.00,0.00,0.00,30.11,M,10.00,M,M,M,M,M,M,M,M,M,M,M,M,M,M,M,M,12.20,K05U 071430Z AUTO 00000KT 10SM M11/M13 A3011 RMK A01,M
TPH,2022-12-07 14:33,-117.0904,38.0505,1654.00,28.90,27.00,92.49,30.00,7.00,T,30.08,M,1.50,M,SCT,OVC,M,M,1700.00,2500.00,M,M,-SN BR,M,M,M,M,M,M,21.00,KTPH 071433Z AUTO 03007KT 1 1/2SM -SN BR SCT017 OVC025 M02/M03 A3008 RMK AO2 P0000 T10171028,M
LOL,2022-12-07 14:34,-118.5701,40.0684,1192.43,9.00,6.00,87.71,130.00,3.00,0.00,30.14,M,0.25,M,VV ,M,M,M,100.00,M,M,M,FZFG,M,M,M,M,M,M,2.40,KLOL 071434Z AUTO 13003KT 1/4SM FZFG VV001 M13/M14 A3014 RMK AO2 T11281144 $,M
RTS,2022-12-07 14:35,-119.8764,39.6682,1539.00,15.80,14.00,92.44,340.00,3.00,0.00,30.12,M,10.00,M,CLR,M,M,M,M,M,M,M,M,M,M,M,M,M,M,10.17,KRTS 071435Z AUTO 34003KT 10SM CLR M09/M10 A3012 RMK AO2,M
MEV,2022-12-07 14:35,-119.7500,38.9963,1441.42,14.00,10.40,85.28,110.00,4.00,0.00,30.14,M,10.00,M,FEW,SCT,SCT,M,3500.00,4400.00,5000.00,M,M,M,M,M,M,M,M,6.40,KMEV 071435Z AUTO 11004KT 10SM FEW035 SCT044 SCT050 M10/M12 A3014 RMK AO2,M
BVU,2022-12-07 14:35,-114.8611,35.9475,671.00,37.40,28.40,69.67,0.00,0.00,0.00,30.08,M,10.00,M,CLR,M,M,M,M,M,M,M,M,M,M,M,M,M,M,37.40,KBVU 071435Z AUTO 00000KT 10SM CLR 03/M02 A3008 RMK AO2,M
BAM,2022-12-07 14:35,-116.8743,40.5990,1382.36,21.20,17.60,85.74,80.00,5.00,0.00,30.14,M,10.00,M,CLR,M,M,M,M,M,M,M,M,M,M,M,M,M,M,13.57,KBAM 071435Z AUTO 08005KT 10SM CLR M06/M08 A3014 RMK AO1,M
CXP,2022-12-07 14:35,-119.7326,39.1923,1431.00,19.40,15.80,85.63,300.00,3.00,0.00,30.15,M,10.00,M,CLR,M,M,M,M,M,M,M,M,M,M,M,M,M,M,14.28,KCXP 071435Z AUTO 30003KT 10SM CLR M07/M09 A3015 RMK AO2,M
TMT,2022-12-07 14:35,-117.1971,39.4643,1749.34,18.30,16.50,92.53,320.00,3.00,0.00,30.11,M,10.00,M,OVC,M,M,M,400.00,M,M,M,M,M,M,M,M,M,M,13.03,KTMT 071435Z AUTO 32003KT 10SM OVC004 M08/M09 A3011 RMK AO2 T10761086,M
TPH,2022-12-07 14:37,-117.0904,38.0505,1654.00,28.90,27.00,92.49,30.00,6.00,0.01,30.09,M,0.75,M,BKN,OVC,M,M,1300.00,2500.00,M,M,-SN BR,M,M,M,M,M,M,21.80,KTPH 071437Z AUTO 03006KT 3/4SM -SN BR BKN013 OVC025 M02/M03 A3009 RMK AO2 P0001 T10171028,M
TPH,2022-12-07 14:48,-117.0904,38.0505,1654.00,28.00,27.00,95.97,10.00,7.00,0.03,30.09,M,0.50,M,BKN,OVC,M,M,900.00,2500.00,M,M,SN FZFG,M,M,M,M,M,M,19.90,KTPH 071448Z AUTO 01007KT 1/2SM SN FZFG BKN009 OVC025 M02/M03 A3009 RMK AO2 P0003 T10221028,M
EKO,2022-12-07 14:49,-115.7860,40.8242,1367.00,17.10,14.00,87.38,20.00,3.00,0.00,30.15,M,2.50,M,OVC,M,M,M,200.00,M,M,M,BR,0.01,M,M,M,M,M,11.66,KEKO 071449Z AUTO 02003KT 2 1/2SM BR OVC002 M08/M10 A3015 RMK AO2 I1001 T10831100,M
ELY,2022-12-07 14:50,-114.8453,39.2950,1909.00,3.20,1.40,91.99,170.00,8.00,0.00,30.12,M,10.00,M,BKN,M,M,M,1100.00,M,M,M,M,M,M,M,M,M,M,-11.36,KELY 071450Z AUTO 17008KT 10SM BKN011 M16/M17 A3012 RMK AO2,M
DRA,2022-12-07 14:53,-116.0278,36.6206,1009.00,30.90,26.10,82.15,100.00,4.00,0.00,30.07,1018.40,10.00,M,CLR,M,M,M,M,M,M,M,M,M,M,M,M,M,M,26.14,KDRA 071453Z AUTO 10004KT 10SM CLR M01/M03 A3007 RMK AO2 SLP184 T10061033 53012,M
LOL,2022-12-07 14:53,-118.5701,40.0684,1192.43,10.00,8.10,91.82,130.00,3.00,0.00,30.14,1024.40,0.50,M,VV ,M,M,M,100.00,M,M,M,FZFG,T,T,M,M,M,M,3.54,KLOL 071453Z AUTO 13003KT 1/2SM FZFG VV001 M12/M13 A3014 RMK AO2 SLP244 I1000 I3000 T11221133 53005 $,M
VGT,2022-12-07 14:53,-115.1933,36.2111,667.00,42.00,30.90,64.24,290.00,5.00,0.00,30.08,1020.40,10.00,M,CLR,M,M,M,M,M,M,M,M,M,M,M,M,M,M,38.39,KVGT 071453Z 29005KT 10SM CLR 06/M01 A3008 RMK AO2 SLP204 T00561006 53017,M
ELY,2022-12-07 14:53,-114.8453,39.2950,1909.00,3.00,1.00,91.13,180.00,9.00,0.00,30.12,1027.50,10.00,M,BKN,M,M,M,1100.00,M,M,M,M,M,T,M,M,M,M,-12.55,KELY 071453Z AUTO 18009KT 10SM BKN011 M16/M17 A3012 RMK AO2 SLP275 I3000 T11611172 51007,M
P68,2022-12-07 14:53,-116.0056,39.6014,1993.00,12.90,8.10,80.74,0.00,0.00,0.00,30.09,1022.20,M,M,M,M,M,M,M,M,M,M,M,M,M,M,M,M,M,12.90,KP68 071453Z AUTO 00000KT M11/M13 A3009 RMK AO1 SLP222 T11061133 53003,M
RTS,2022-12-07 14:55,-119.8764,39.6682,1539.00,17.60,14.00,85.51,0.00,0.00,0.00,30.12,M,10.00,M,CLR,M,M,M,M,M,M,M,M,M,M,M,M,M,M,17.60,KRTS 071455Z AUTO 00000KT 10SM CLR M08/M10 A3012 RMK AO2,M
LSV,2022-12-07 14:55,-115.0343,36.2362,570.00,38.00,28.80,69.44,0.00,0.00,0.00,30.07,1018.50,10.00,M,CLR,M,M,M,M,M,M,M,M,M,M,M,M,M,M,37.90,KLSV 071455Z AUTO 00000KT 10SM CLR 03/M02 A3007 RMK AO2 SLP185 T00331018 52018 $,M
TMT,2022-12-07 14:55,-117.1971,39.4643,1749.34,18.90,17.10,92.55,0.00,0.00,0.00,30.11,M,10.00,M,OVC,M,M,M,400.00,M,M,M,M,M,M,M,M,M,M,18.90,KTMT 071455Z AUTO 00000KT 10SM OVC004 M07/M08 A3011 RMK AO2 T10731083,M
05U,2022-12-07 14:55,-116.0051,39.6042,1811.23,12.20,8.60,85.17,0.00,0.00,0.00,30.11,M,10.00,M,M,M,M,M,M,M,M,M,M,M,M,M,M,M,M,12.20,K05U 071455Z AUTO 00000KT 10SM M11/M13 A3011 RMK A01,M
MEV,2022-12-07 14:55,-119.7500,38.9963,1441.42,14.00,10.40,85.28,110.00,4.00,0.00,30.14,M,10.00,M,CLR,M,M,M,M,M,M,M,M,M,M,M,M,M,M,6.40,KMEV 071455Z AUTO 11004KT 10SM CLR M10/M12 A3014 RMK AO2,M
BAM,2022-12-07 14:55,-116.8743,40.5990,1382.36,19.40,17.60,92.57,60.00,4.00,0.00,30.14,M,10.00,M,CLR,M,M,M,M,M,M,M,M,M,M,M,M,M,M,12.71,KBAM 071455Z AUTO 06004KT 10SM CLR M07/M08 A3014 RMK AO1,M
INS,2022-12-07 14:55,-115.6733,36.5872,955.00,32.70,25.30,73.90,250.00,4.00,0.00,30.08,1018.60,10.00,M,CLR,M,M,M,M,M,M,M,M,M,M,M,M,M,M,28.24,KINS 071455Z AUTO 25004KT 10SM CLR 00/M04 A3008 RMK AO2 SLP186 T00041037 52014 $,M
RNO,2022-12-07 14:55,-119.7711,39.4839,1341.00,21.90,15.10,74.69,280.00,3.00,0.00,30.14,1022.50,10.00,M,CLR,M,M,M,M,M,M,M,M,M,M,M,M,M,M,17.14,KRNO 071455Z 28003KT 10SM CLR M06/M09 A3014 RMK AO2 SLP225 T10561094 53007,M
CXP,2022-12-07 14:55,-119.7326,39.1923,1431.00,19.40,15.80,85.63,0.00,0.00,0.00,30.15,M,10.00,M,CLR,M,M,M,M,M,M,M,M,M,M,M,M,M,M,19.40,KCXP 071455Z AUTO 00000KT 10SM CLR M07/M09 A3015 RMK AO2,M
BVU,2022-12-07 14:55,-114.8611,35.9475,671.00,39.20,28.40,64.93,0.00,0.00,0.00,30.09,M,10.00,M,CLR,M,M,M,M,M,M,M,M,M,M,M,M,M,M,39.20,KBVU 071455Z AUTO 00000KT 10SM CLR 04/M02 A3009 RMK AO2,M
EKO,2022-12-07 14:56,-115.7860,40.8242,1367.00,17.10,15.10,91.68,40.00,4.00,0.00,30.15,1025.40,2.50,M,OVC,M,M,M,200.00,M,M,M,BR,0.01,0.02,M,M,M,M,10.02,KEKO 071456Z AUTO 04004KT 2 1/2SM BR OVC002 M08/M09 A3015 RMK AO2 VIS 2 1/2V3 SLP254 I1001 I3002 T10831094 53007,M
WMC,2022-12-07 14:56,-117.8072,40.9019,1315.00,10.90,7.00,83.93,0.00,0.00,0.00,30.14,1024.20,10.00,M,CLR,M,M,M,M,M,M,M,M,M,T,M,M,M,M,10.90,KWMC 071456Z AUTO 00000KT 10SM CLR M12/M14 A3014 RMK AO2 SLP242 I3000 T11171139 53004,M
NFL,2022-12-07 14:56,-118.7010,39.4166,1199.00,17.10,14.00,87.38,170.00,6.00,0.00,30.14,1017.20,10.00,M,SCT,M,M,M,12000.00,M,M,M,M,M,M,M,M,M,M,7.59,KNFL 071456Z 17006KT 10SM SCT120 M08/M10 A3014 RMK AO2 SLP172 T10831100 51008,M
HND,2022-12-07 14:56,-115.1344,35.9729,742.79,40.00,28.90,64.49,220.00,8.00,0.00,30.10,1021.50,10.00,M,CLR,M,M,M,M,M,M,M,M,M,M,M,M,M,M,33.84,KHND 071456Z 22008KT 10SM CLR 04/M02 A3010 RMK AO2 SLP215 T00441017 53017,M
TPH,2022-12-07 14:56,-117.0904,38.0505,1654.00,28.00,27.00,95.97,30.00,5.00,0.04,30.09,1020.20,0.50,M,VV ,M,M,M,700.00,M,M,M,SN FZFG,M,M,M,M,M,M,21.64,KTPH 071456Z AUTO 03005KT 1/2SM SN FZFG VV007 M02/M03 A3009 RMK AO2 SLP202 P0004 60004 T10221028 53011,M
LAS,2022-12-07 14:56,-115.1634,36.0719,663.00,42.00,30.90,64.24,200.00,4.00,0.00,30.09,1018.70,10.00,M,FEW,SCT,M,M,5500.00,20000.00,M,M,M,M,M,M,M,M,M,39.21,KLAS 071456Z 20004KT 10SM FEW055 SCT200 06/M01 A3009 RMK AO2 SLP187 T00561006 53019,M
TPH,2022-12-07 15:00,-117.0904,38.0505,1654.00,28.00,27.00,95.97,20.00,5.00,0.01,30.09,M,0.25,M,VV ,M,M,M,600.00,M,M,M,+SN FZFG,M,M,M,M,M,M,21.64,KTPH 071500Z AUTO 02005KT 1/4SM +SN FZFG VV006 M02/M03 A3009 RMK AO2 P0001 T10221028,M
LOL,2022-12-07 15:03,-118.5701,40.0684,1192.43,9.00,8.10,96.03,130.00,3.00,0.00,30.15,M,0.25,M,VV ,M,M,M,200.00,M,M,M,FZFG,M,M,M,M,M,M,2.40,KLOL 071503Z AUTO 13003KT 1/4SM FZFG VV002 M13/M13 A3015 RMK AO2 T11281133 $,M
TMT,2022-12-07 15:15,-117.1971,39.4643,1749.34,19.40,17.60,92.57,0.00,0.00,0.00,30.11,M,10.00,M,OVC,M,M,M,400.00,M,M,M,M,M,M,M,M,M,M,19.40,KTMT 071515Z AUTO 00000KT 10SM OVC004 M07/M08 A3011 RMK AO2 T10701080,M
BVU,2022-12-07 15:15,-114.8611,35.9475,671.00,37.40,30.20,74.98,0.00,0.00,0.00,30.09,M,10.00,M,CLR,M,M,M,M,M,M,M,M,M,M,M,M,M,M,37.40,KBVU 071515Z AUTO 00000KT 10SM CLR 03/M01 A3009 RMK AO2,M
CXP,2022-12-07 15:15,-119.7326,39.1923,1431.00,19.40,15.80,85.63,0.00,0.00,0.00,30.15,M,8.00,M,CLR,M,M,M,M,M,M,M,M,M,M,M,M,M,M,19.40,KCXP 071515Z AUTO 00000KT 8SM CLR M07/M09 A3015 RMK AO2,M
RTS,2022-12-07 15:15,-119.8764,39.6682,1539.00,15.80,12.20,85.40,0.00,0.00,0.00,30.13,M,10.00,M,CLR,M,M,M,M,M,M,M,M,M,M,M,M,M,M,15.80,KRTS 071515Z AUTO 00000KT 10SM CLR M09/M11 A3013 RMK AO2,M
05U,2022-12-07 15:15,-116.0051,39.6042,1811.23,14.00,10.40,85.28,180.00,3.00,0.00,30.11,M,10.00,M,M,M,M,M,M,M,M,M,M,M,M,M,M,M,M,8.11,K05U 071515Z AUTO 18003KT 10SM M10/M12 A3011 RMK A01,M
MEV,2022-12-07 15:15,-119.7500,38.9963,1441.42,14.00,12.20,92.38,90.00,5.00,0.00,30.14,M,10.00,M,CLR,M,M,M,M,M,M,M,M,M,M,M,M,M,M,5.02,KMEV 071515Z AUTO 09005KT 10SM CLR M10/M11 A3014 RMK AO2,M
BAM,2022-12-07 15:15,-116.8743,40.5990,1382.36,19.40,17.60,92.57,70.00,3.00,0.00,30.15,M,10.00,M,CLR,M,M,M,M,M,M,M,M,M,M,M,M,M,M,14.28,KBAM 071515Z AUTO 07003KT 10SM CLR M07/M08 A3015 RMK AO1,M
LOL,2022-12-07 15:26,-118.5701,40.0684,1192.43,6.00,6.00,100.00,0.00,0.00,0.00,30.15,M,0.25,M,VV ,M,M,M,100.00,M,M,M,FZFG,M,M,M,M,M,M,6.10,KLOL 071526Z AUTO 00000KT 1/4SM FZFG VV001 M14/M14 A3015 RMK AO2 T11441144 $,M
05U,2022-12-07 15:30,-116.0051,39.6042,1811.23,14.00,12.20,92.38,180.00,4.00,0.00,30.12,M,10.00,M,M,M,M,M,M,M,M,M,M,M,M,M,M,M,M,6.40,K05U 071530Z AUTO 18004KT 10SM M10/M11 A3012 RMK A01,M
TPH,2022-12-07 15:31,-117.0904,38.0505,1654.00,28.00,27.00,95.97,360.00,5.00,0.06,30.09,M,0.50,M,VV ,M,M,M,700.00,M,M,M,SN FZFG,M,M,M,M,M,M,21.64,KTPH 071531Z AUTO 36005KT 1/2SM SN FZFG VV007 M02/M03 A3009 RMK AO2 P0006 T10221028,M
EKO,2022-12-07 15:31,-115.7860,40.8242,1367.00,16.00,14.00,91.64,20.00,3.00,0.00,30.16,M,3.00,M,OVC,M,M,M,200.00,M,M,M,BR,0.01,M,M,M,M,M,10.40,KEKO 071531Z AUTO 02003KT 3SM BR OVC002 M09/M10 A3016 RMK AO2 I1001 T10891100,M
MEV,2022-12-07 15:35,-119.7500,38.9963,1441.42,15.80,12.20,85.40,300.00,3.00,0.00,30.14,M,10.00,M,CLR,M,M,M,M,M,M,M,M,M,M,M,M,M,M,10.17,KMEV 071535Z AUTO 30003KT 10SM CLR M09/M11 A3014 RMK AO2,M
CXP,2022-12-07 15:35,-119.7326,39.1923,1431.00,19.40,17.60,92.57,0.00,0.00,0.00,30.15,M,10.00,M,CLR,M,M,M,M,M,M,M,M,M,M,M,M,M,M,19.40,KCXP 071535Z AUTO 00000KT 10SM CLR M07/M08 A3015 RMK AO2,M
RTS,2022-12-07 15:35,-119.8764,39.6682,1539.00,15.80,12.20,85.40,0.00,0.00,0.00,30.13,M,10.00,M,SCT,M,M,M,900.00,M,M,M,M,M,M,M,M,M,M,15.80,KRTS 071535Z AUTO 00000KT 10SM SCT009 M09/M11 A3013 RMK AO2,M
BVU,2022-12-07 15:35,-114.8611,35.9475,671.00,42.80,30.20,60.79,0.00,0.00,0.00,30.10,M,10.00,M,CLR,M,M,M,M,M,M,M,M,M,M,M,M,M,M,42.80,KBVU 071535Z AUTO 00000KT 10SM CLR 06/M01 A3010 RMK AO2,M
BAM,2022-12-07 15:35,-116.8743,40.5990,1382.36,17.60,14.00,85.51,80.00,4.00,0.00,30.15,M,10.00,M,CLR,M,M,M,M,M,M,M,M,M,M,M,M,M,M,10.60,KBAM 071535Z AUTO 08004KT 10SM CLR M08/M10 A3015 RMK AO1,M
TMT,2022-12-07 15:35,-117.1971,39.4643,1749.34,20.10,18.30,92.59,0.00,0.00,0.00,30.12,M,10.00,M,OVC,M,M,M,400.00,M,M,M,M,M,M,M,M,M,M,20.10,KTMT 071535Z AUTO 00000KT 10SM OVC004 M07/M08 A3012 RMK AO2 T10661076,M
EKO,2022-12-07 15:38,-115.7860,40.8242,1367.00,16.00,14.00,91.64,320.00,3.00,0.00,30.16,M,2.50,M,OVC,M,M,M,200.00,M,M,M,BR,0.01,M,M,M,M,M,10.40,KEKO 071538Z AUTO 32003KT 2 1/2SM BR OVC002 M09/M10 A3016 RMK AO2 I1001 T10891100,M
WMC,2022-12-07 15:40,-117.8072,40.9019,1315.00,14.00,9.00,80.10,0.00,0.00,0.00,30.14,M,10.00,M,SCT,M,M,M,200.00,M,M,M,M,M,M,M,M,M,M,14.00,KWMC 071540Z AUTO 00000KT 10SM SCT002 M10/M13 A3014 RMK AO2 T11001128,M
ELY,2022-12-07 15:44,-114.8453,39.2950,1909.00,8.10,5.00,84.93,170.00,8.00,0.00,30.12,M,10.00,M,SCT,OVC,M,M,1000.00,6000.00,M,M,M,M,M,M,M,M,M,-4.71,KELY 071544Z AUTO 17008KT 10SM SCT010 OVC060 M13/M15 A3012 RMK AO2 T11331150,M
WMC,2022-12-07 15:49,-117.8072,40.9019,1315.00,15.10,10.90,83.11,0.00,0.00,0.00,30.15,M,8.00,M,BKN,M,M,M,200.00,M,M,M,M,M,M,M,M,M,M,15.10,KWMC 071549Z AUTO 00000KT 8SM BKN002 M09/M12 A3015 RMK AO2 T10941117,M
DRA,2022-12-07 15:53,-116.0278,36.6206,1009.00,35.00,28.00,75.06,0.00,0.00,0.00,30.09,1018.70,10.00,M,CLR,M,M,M,M,M,M,M,M,M,M,M,M,M,M,35.10,KDRA 071553Z AUTO 00000KT 10SM CLR 02/M02 A3009 RMK AO2 SLP187 T00171022,M
ELY,2022-12-07 15:53,-114.8453,39.2950,1909.00,9.00,6.00,87.71,200.00,6.00,0.00,30.11,1026.70,10.00,M,FEW,OVC,M,M,1000.00,6000.00,M,M,M,M,M,M,M,M,M,-2.17,KELY 071553Z AUTO 20006KT 10SM FEW010 OVC060 M13/M14 A3011 RMK AO2 SLP267 T11281144,M
LOL,2022-12-07 15:53,-118.5701,40.0684,1192.43,10.90,10.00,96.07,350.00,3.00,0.00,30.16,1025.20,0.25,M,VV ,M,M,M,100.00,M,M,M,FZFG,M,M,M,M,M,M,4.57,KLOL 071553Z AUTO 35003KT 1/4SM FZFG VV001 M12/M12 A3016 RMK AO2 SLP252 T11171122 $,M
P68,2022-12-07 15:53,-116.0056,39.6014,1993.00,19.00,15.10,84.49,0.00,0.00,0.00,30.09,1022.20,M,M,M,M,M,M,M,M,M,M,M,M,M,M,M,M,M,19.00,KP68 071553Z AUTO 00000KT M07/M09 A3009 RMK AO1 SLP222 T10721094,M
VGT,2022-12-07 15:53,-115.1933,36.2111,667.00,43.00,32.00,64.88,0.00,0.00,0.00,30.09,1021.20,10.00,M,CLR,M,M,M,M,M,M,M,M,M,M,M,M,M,M,43.00,KVGT 071553Z 00000KT 10SM CLR 06/00 A3009 RMK AO2 SLP212 T00610000,M
EKO,2022-12-07 15:54,-115.7860,40.8242,1367.00,15.80,14.00,92.44,0.00,0.00,0.00,30.16,M,4.00,M,OVC,M,M,M,200.00,M,M,M,BR,0.01,M,M,M,M,M,15.80,KEKO 071554Z AUTO 00000KT 4SM BR OVC002 M09/M10 A3016 RMK AO2 I1001,M
BAM,2022-12-07 15:55,-116.8743,40.5990,1382.36,19.40,17.60,92.57,40.00,3.00,0.00,30.15,M,10.00,M,CLR,M,M,M,M,M,M,M,M,M,M,M,M,M,M,14.28,KBAM 071555Z AUTO 04003KT 10SM CLR M07/M08 A3015 RMK AO1,M
TMT,2022-12-07 15:55,-117.1971,39.4643,1749.34,20.30,18.50,92.60,0.00,0.00,0.00,30.12,M,10.00,M,OVC,M,M,M,400.00,M,M,M,M,M,M,M,M,M,M,20.30,KTMT 071555Z AUTO 00000KT 10SM OVC004 M06/M07 A3012 RMK AO2 T10651075,M
05U,2022-12-07 15:55,-116.0051,39.6042,1811.23,19.40,15.80,85.63,M,M,0.00,30.12,M,10.00,M,M,M,M,M,M,M,M,M,M,M,M,M,M,M,M,M,K05U 071555Z AUTO 10SM M07/M09 A3012 RMK A01,M
MEV,2022-12-07 15:55,-119.7500,38.9963,1441.42,17.60,14.00,85.51,0.00,0.00,0.00,30.15,M,10.00,M,CLR,M,M,M,M,M,M,M,M,M,M,M,M,M,M,17.60,KMEV 071555Z AUTO 00000KT 10SM CLR M08/M10 A3015 RMK AO2,M
INS,2022-12-07 15:55,-115.6733,36.5872,955.00,34.50,25.70,69.91,0.00,0.00,0.00,30.09,1019.00,10.00,M,CLR,M,M,M,M,M,M,M,M,M,M,M,M,M,M,34.50,KINS 071555Z AUTO 00000KT 10SM CLR 01/M03 A3009 RMK AO2 SLP190 T00141035 $,M
RTS,2022-12-07 15:55,-119.8764,39.6682,1539.00,17.60,14.00,85.51,0.00,0.00,0.00,30.14,M,10.00,M,OVC,M,M,M,800.00,M,M,M,M,M,M,M,M,M,M,17.60,KRTS 071555Z AUTO 00000KT 10SM OVC008 M08/M10 A3014 RMK AO2,M
RNO,2022-12-07 15:55,-119.7711,39.4839,1341.00,24.10,17.10,74.27,280.00,3.00,0.00,30.15,1022.90,10.00,M,CLR,M,M,M,M,M,M,M,M,M,M,M,M,M,M,19.66,KRNO 071555Z 28003KT 10SM CLR M04/M08 A3015 RMK AO2 SLP229 T10441083,M
LSV,2022-12-07 15:55,-115.0343,36.2362,570.00,42.60,32.40,66.96,0.00,0.00,0.00,30.09,1019.00,10.00,M,CLR,M,M,M,M,M,M,M,M,M,M,M,M,M,M,42.60,KLSV 071555Z AUTO 00000KT 10SM CLR 06/00 A3009 RMK AO2 SLP190 T00590002 $,M
CXP,2022-12-07 15:55,-119.7326,39.1923,1431.00,21.20,19.40,92.63,0.00,0.00,0.00,30.16,M,10.00,M,CLR,M,M,M,M,M,M,M,M,M,M,M,M,M,M,21.20,KCXP 071555Z AUTO 00000KT 10SM CLR M06/M07 A3016 RMK AO2,M
BVU,2022-12-07 15:55,-114.8611,35.9475,671.00,41.00,30.20,65.16,0.00,0.00,0.00,30.11,M,10.00,M,SCT,M,M,M,5500.00,M,M,M,M,M,M,M,M,M,M,41.00,KBVU 071555Z AUTO 00000KT 10SM SCT055 05/M01 A3011 RMK AO2,M
HND,2022-12-07 15:56,-115.1344,35.9729,742.79,42.00,28.90,59.22,220.00,10.00,0.00,30.11,1021.70,10.00,M,CLR,M,M,M,M,M,M,M,M,M,M,M,M,M,M,35.63,KHND 071556Z 22010KT 10SM CLR 06/M02 A3011 RMK AO2 SLP217 T00561017,M
WMC,2022-12-07 15:56,-117.8072,40.9019,1315.00,17.10,12.00,80.01,0.00,0.00,0.00,30.15,1024.40,4.00,M,BKN,M,M,M,200.00,M,M,M,HZ,M,M,M,M,M,M,17.10,KWMC 071556Z AUTO 00000KT 4SM HZ BKN002 M08/M11 A3015 RMK AO2 SLP244 T10831111,M
EKO,2022-12-07 15:56,-115.7860,40.8242,1367.00,16.00,14.00,91.64,0.00,0.00,0.00,30.16,1026.00,4.00,M,OVC,M,M,M,200.00,M,M,M,BR,0.01,M,M,M,M,M,16.00,KEKO 071556Z AUTO 00000KT 4SM BR OVC002 M09/M10 A3016 RMK AO2 SLP260 I1001 T10891100,M
NFL,2022-12-07 15:56,-118.7010,39.4166,1199.00,18.00,16.00,91.72,0.00,0.00,0.00,30.15,1017.60,10.00,M,SCT,M,M,M,10000.00,M,M,M,M,M,M,M,M,M,M,18.00,KNFL 071556Z 00000KT 10SM SCT100 M08/M09 A3015 RMK AO2 SLP176 BCFG VC NE-SE T10781089,M
TPH,2022-12-07 15:56,-117.0904,38.0505,1654.00,28.00,28.00,100.00,360.00,5.00,0.07,30.10,1020.60,1.50,M,OVC,M,M,M,800.00,M,M,M,-SN BR,M,M,M,M,M,M,21.64,KTPH 071556Z AUTO 36005KT 1 1/2SM -SN BR OVC008 M02/M02 A3010 RMK AO2 SLP206 P0007 T10221022,M
LAS,2022-12-07 15:56,-115.1634,36.0719,663.00,44.00,32.00,62.21,190.00,3.00,0.00,30.10,1019.10,10.00,M,FEW,M,M,M,6000.00,M,M,M,M,M,M,M,M,M,M,42.52,KLAS 071556Z 19003KT 10SM FEW060 07/00 A3010 RMK AO2 SLP191 T00670000,M
NFL,2022-12-07 15:59,-118.7010,39.4166,1199.00,19.00,16.00,87.87,0.00,0.00,0.00,30.16,M,10.00,M,FEW,M,M,M,6000.00,M,M,M,M,M,M,M,M,M,M,19.00,KNFL 071559Z 00000KT 10SM FEW060 M07/M09 A3016 RMK AO2 BCFG VC NE-SE-S FOG BANK DSNT SW-NW-NE T10721089,M
TPH,2022-12-07 16:03,-117.0904,38.0505,1654.00,28.00,28.00,100.00,10.00,6.00,T,30.10,M,3.00,M,OVC,M,M,M,800.00,M,M,M,-SN BR,M,M,M,M,M,M,20.71,KTPH 071603Z AUTO 01006KT 3SM -SN BR OVC008 M02/M02 A3010 RMK AO2 P0000 T10221022,M
WMC,2022-12-07 16:14,-117.8072,40.9019,1315.00,19.00,15.10,84.49,0.00,0.00,0.00,30.15,M,10.00,M,SCT,M,M,M,200.00,M,M,M,M,M,M,M,M,M,M,19.00,KWMC 071614Z AUTO 00000KT 10SM SCT002 M07/M09 A3015 RMK AO2 T10721094,M
MEV,2022-12-07 16:15,-119.7500,38.9963,1441.42,19.40,17.60,92.57,0.00,0.00,0.00,30.15,M,10.00,M,CLR,M,M,M,M,M,M,M,M,M,M,M,M,M,M,19.40,KMEV 071615Z AUTO 00000KT 10SM CLR M07/M08 A3015 RMK AO2,M
RTS,2022-12-07 16:15,-119.8764,39.6682,1539.00,19.40,15.80,85.63,0.00,0.00,0.00,30.15,M,10.00,M,OVC,M,M,M,600.00,M,M,M,M,M,M,M,M,M,M,19.40,KRTS 071615Z AUTO 00000KT 10SM OVC006 M07/M09 A3015 RMK AO2,M
TMT,2022-12-07 16:15,-117.1971,39.4643,1749.34,21.20,19.40,92.63,0.00,0.00,0.00,30.12,M,10.00,M,OVC,M,M,M,400.00,M,M,M,M,M,M,M,M,M,M,21.20,KTMT 071615Z AUTO 00000KT 10SM OVC004 M06/M07 A3012 RMK AO2 T10601070,M
BVU,2022-12-07 16:15,-114.8611,35.9475,671.00,42.80,30.20,60.79,0.00,0.00,0.00,30.11,M,10.00,M,BKN,M,M,M,5500.00,M,M,M,M,M,M,M,M,M,M,42.80,KBVU 071615Z AUTO 00000KT 10SM BKN055 06/M01 A3011 RMK AO2,M
CXP,2022-12-07 16:15,-119.7326,39.1923,1431.00,23.00,19.40,85.85,0.00,0.00,0.00,30.16,M,10.00,M,CLR,M,M,M,M,M,M,M,M,M,M,M,M,M,M,23.00,KCXP 071615Z AUTO 00000KT 10SM CLR M05/M07 A3016 RMK AO2,M
05U,2022-12-07 16:15,-116.0051,39.6042,1811.23,19.40,17.60,92.57,0.00,0.00,0.00,30.12,M,10.00,M,M,M,M,M,M,M,M,M,M,M,M,M,M,M,M,19.40,K05U 071615Z AUTO 00000KT 10SM M07/M08 A3012 RMK A01,M
BAM,2022-12-07 16:15,-116.8743,40.5990,1382.36,21.20,19.40,92.63,80.00,3.00,0.00,30.16,M,10.00,M,CLR,M,M,M,M,M,M,M,M,M,M,M,M,M,M,16.34,KBAM 071615Z AUTO 08003KT 10SM CLR M06/M07 A3016 RMK AO1,M
LOL,2022-12-07 16:23,-118.5701,40.0684,1192.43,17.10,16.00,95.35,0.00,0.00,0.00,30.17,M,1.00,M,VV ,M,M,M,100.00,M,M,M,BR,M,M,M,M,M,M,17.10,KLOL 071623Z AUTO 00000KT 1SM BR VV001 M08/M09 A3017 RMK AO2 T10831089,M
05U,2022-12-07 16:30,-116.0051,39.6042,1811.23,21.20,17.60,85.74,0.00,0.00,0.00,30.12,M,10.00,M,M,M,M,M,M,M,M,M,M,M,M,M,M,M,M,21.20,K05U 071630Z AUTO 00000KT 10SM M06/M08 A3012 RMK A01,M
LOL,2022-12-07 16:31,-118.5701,40.0684,1192.43,17.10,17.10,100.00,0.00,0.00,0.00,30.17,M,0.75,M,VV ,M,M,M,200.00,M,M,M,BR,M,M,M,M,M,M,17.10,KLOL 071631Z AUTO 00000KT 3/4SM BR VV002 M08/M08 A3017 RMK AO2 T10831083,M
TMT,2022-12-07 16:35,-117.1971,39.4643,1749.34,22.10,21.00,95.45,0.00,0.00,0.00,30.12,M,10.00,M,OVC,M,M,M,400.00,M,M,M,M,M,M,M,M,M,M,22.10,KTMT 071635Z AUTO 00000KT 10SM OVC004 M05/M06 A3012 RMK AO2 T10551061,M
RTS,2022-12-07 16:35,-119.8764,39.6682,1539.00,21.20,19.40,92.63,0.00,0.00,0.00,30.15,M,10.00,M,OVC,M,M,M,500.00,M,M,M,M,M,M,M,M,M,M,21.20,KRTS 071635Z AUTO 00000KT 10SM OVC005 M06/M07 A3015 RMK AO2,M
BVU,2022-12-07 16:35,-114.8611,35.9475,671.00,44.60,30.20,56.74,0.00,0.00,0.00,30.11,M,10.00,M,SCT,M,M,M,5500.00,M,M,M,M,M,M,M,M,M,M,44.60,KBVU 071635Z AUTO 00000KT 10SM SCT055 07/M01 A3011 RMK AO2,M
BAM,2022-12-07 16:35,-116.8743,40.5990,1382.36,24.80,23.00,92.74,80.00,4.00,0.00,30.16,M,7.00,M,CLR,M,M,M,M,M,M,M,M,M,M,M,M,M,M,19.01,KBAM 071635Z AUTO 08004KT 7SM CLR M04/M05 A3016 RMK AO1,M
MEV,2022-12-07 16:35,-119.7500,38.9963,1441.42,23.00,19.40,85.85,0.00,0.00,0.00,30.16,M,10.00,M,CLR,M,M,M,M,M,M,M,M,M,M,M,M,M,M,23.00,KMEV 071635Z AUTO 00000KT 10SM CLR M05/M07 A3016 RMK AO2,M
CXP,2022-12-07 16:35,-119.7326,39.1923,1431.00,23.00,19.40,85.85,0.00,0.00,0.00,30.17,M,10.00,M,CLR,M,M,M,M,M,M,M,M,M,M,M,M,M,M,23.00,KCXP 071635Z AUTO 00000KT 10SM CLR M05/M07 A3017 RMK AO2,M
LOL,2022-12-07 16:37,-118.5701,40.0684,1192.43,17.10,17.10,100.00,0.00,0.00,0.00,30.17,M,2.00,M,BKN,M,M,M,200.00,M,M,M,BR,M,M,M,M,M,M,17.10,KLOL 071637Z AUTO 00000KT 2SM BR BKN002 M08/M08 A3017 RMK AO2 VIS 1V4 T10831083,M
LOL,2022-12-07 16:40,-118.5701,40.0684,1192.43,18.00,17.10,96.19,0.00,0.00,0.00,30.17,M,3.00,M,SCT,M,M,M,200.00,M,M,M,BR,M,M,M,M,M,M,18.00,KLOL 071640Z AUTO 00000KT 3SM BR SCT002 M08/M08 A3017 RMK AO2 T10781083,M
ELY,2022-12-07 16:53,-114.8453,39.2950,1909.00,14.00,10.90,87.20,190.00,5.00,0.00,30.12,1026.70,10.00,M,FEW,BKN,BKN,M,4800.00,5500.00,11000.00,M,M,M,M,M,M,M,M,5.02,KELY 071653Z AUTO 19005KT 10SM FEW048 BKN055 BKN110 M10/M12 A3012 RMK AO2 SLP267 T11001117,M
P68,2022-12-07 16:53,-116.0056,39.6014,1993.00,23.00,19.00,84.39,0.00,0.00,0.00,30.10,1021.70,M,M,M,M,M,M,M,M,M,M,M,M,M,M,M,M,M,23.00,KP68 071653Z AUTO 00000KT M05/M07 A3010 RMK AO1 SLP217 T10501072,M
DRA,2022-12-07 16:53,-116.0278,36.6206,1009.00,37.00,28.00,69.63,0.00,0.00,0.00,30.12,1019.80,10.00,M,BKN,BKN,M,M,4100.00,4900.00,M,M,M,M,M,M,M,M,M,37.00,KDRA 071653Z AUTO 00000KT 10SM BKN041 BKN049 03/M02 A3012 RMK AO2 SLP198 T00281022,M
LOL,2022-12-07 16:53,-118.5701,40.0684,1192.43,19.00,19.00,100.00,0.00,0.00,0.00,30.18,1025.10,10.00,M,FEW,M,M,M,200.00,M,M,M,M,M,M,M,M,M,M,19.00,KLOL 071653Z AUTO 00000KT 10SM FEW002 M07/M07 A3018 RMK AO2 SLP251 T10721072,M
VGT,2022-12-07 16:53,-115.1933,36.2111,667.00,49.00,33.00,54.24,280.00,4.00,0.00,30.11,1021.60,10.00,M,CLR,M,M,M,M,M,M,M,M,M,M,M,M,M,M,47.16,KVGT 071653Z 28004KT 10SM CLR 09/01 A3011 RMK AO2 SLP216 T00940006,M
BVU,2022-12-07 16:55,-114.8611,35.9475,671.00,46.40,30.20,53.00,0.00,0.00,0.00,30.12,M,10.00,M,CLR,M,M,M,M,M,M,M,M,M,M,M,M,M,M,46.40,KBVU 071655Z AUTO 00000KT 10SM CLR 08/M01 A3012 RMK AO2,M
LSV,2022-12-07 16:55,-115.0343,36.2362,570.00,50.00,32.50,50.82,0.00,0.00,0.00,30.11,1019.60,10.00,M,CLR,M,M,M,M,M,M,M,M,M,M,M,M,M,M,50.00,KLSV 071655Z AUTO 00000KT 10SM CLR 10/00 A3011 RMK AO2 SLP196 T01000003 $,M
TMT,2022-12-07 16:55,-117.1971,39.4643,1749.34,22.80,22.10,97.09,0.00,0.00,0.00,30.13,M,0.50,M,OVC,M,M,M,400.00,M,M,M,FZFG,M,M,M,M,M,M,22.80,KTMT 071655Z AUTO 00000KT 1/2SM FZFG OVC004 M05/M05 A3013 RMK AO2 T10511055,M
INS,2022-12-07 16:55,-115.6733,36.5872,955.00,38.80,27.30,63.03,0.00,0.00,0.00,30.12,1019.80,10.00,M,FEW,M,M,M,7000.00,M,M,M,M,M,M,M,M,M,M,38.80,KINS 071655Z AUTO 00000KT 10SM FEW070 04/M03 A3012 RMK AO2 SLP198 T00381026 $,M
BAM,2022-12-07 16:55,-116.8743,40.5990,1382.36,26.60,23.00,86.07,0.00,0.00,0.00,30.16,M,10.00,M,CLR,M,M,M,M,M,M,M,M,M,M,M,M,M,M,26.60,KBAM 071655Z AUTO 00000KT 10SM CLR M03/M05 A3016 RMK AO1,M
MEV,2022-12-07 16:55,-119.7500,38.9963,1441.42,24.80,21.20,85.96,0.00,0.00,0.00,30.16,M,10.00,M,CLR,M,M,M,M,M,M,M,M,M,M,M,M,M,M,24.80,KMEV 071655Z AUTO 00000KT 10SM CLR M04/M06 A3016 RMK AO2,M
05U,2022-12-07 16:55,-116.0051,39.6042,1811.23,23.00,19.40,85.85,0.00,0.00,0.00,30.13,M,10.00,M,M,M,M,M,M,M,M,M,M,M,M,M,M,M,M,23.00,K05U 071655Z AUTO 00000KT 10SM M05/M07 A3013 RMK A01,M
RTS,2022-12-07 16:55,-119.8764,39.6682,1539.00,23.00,19.40,85.85,0.00,0.00,0.00,30.16,M,10.00,M,OVC,M,M,M,400.00,M,M,M,M,M,M,M,M,M,M,23.00,KRTS 071655Z AUTO 00000KT 10SM OVC004 M05/M07 A3016 RMK AO2,M
RNO,2022-12-07 16:55,-119.7711,39.4839,1341.00,28.00,18.00,65.69,0.00,0.00,0.00,30.17,1023.40,10.00,M,FEW,M,M,M,3000.00,M,M,M,M,M,M,M,M,M,M,28.00,KRNO 071655Z 00000KT 10SM FEW030 M02/M08 A3017 RMK AO2 SLP234 T10221078,M
CXP,2022-12-07 16:55,-119.7326,39.1923,1431.00,24.80,19.40,79.62,0.00,0.00,0.00,30.17,M,10.00,M,CLR,M,M,M,M,M,M,M,M,M,M,M,M,M,M,24.80,KCXP 071655Z AUTO 00000KT 10SM CLR M04/M07 A3017 RMK AO2,M
WMC,2022-12-07 16:56,-117.8072,40.9019,1315.00,24.10,21.90,91.17,0.00,0.00,0.00,30.16,1024.20,10.00,M,CLR,M,M,M,M,M,M,M,M,T,M,M,M,M,M,24.10,KWMC 071656Z AUTO 00000KT 10SM CLR M04/M06 A3016 RMK AO2 SLP242 I1000 T10441056,M
HND,2022-12-07 16:56,-115.1344,35.9729,742.79,47.00,30.00,51.58,230.00,9.00,0.00,30.13,1022.40,10.00,M,FEW,M,M,M,6000.00,M,M,M,M,M,M,M,M,M,M,42.04,KHND 071656Z 23009KT 10SM FEW060 08/M01 A3013 RMK AO2 SLP224 T00831011,M
NFL,2022-12-07 16:56,-118.7010,39.4166,1199.00,27.00,23.00,84.66,0.00,0.00,0.00,30.17,1018.10,10.00,M,FEW,M,M,M,4500.00,M,M,M,M,M,M,M,M,M,M,27.00,KNFL 071656Z 00000KT 10SM FEW045 M03/M05 A3017 RMK AO2 SLP181 T10281050,M
LAS,2022-12-07 16:56,-115.1634,36.0719,663.00,49.00,32.00,51.89,0.00,0.00,0.00,30.12,1019.80,10.00,M,FEW,M,M,M,6500.00,M,M,M,M,M,M,M,M,M,M,48.90,KLAS 071656Z 00000KT 10SM FEW065 09/00 A3012 RMK AO2 SLP198 T00940000,M
EKO,2022-12-07 16:56,-115.7860,40.8242,1367.00,17.10,14.00,87.38,90.00,3.00,0.00,30.17,1026.30,10.00,M,OVC,M,M,M,200.00,M,M,M,M,0.01,M,M,M,M,M,11.66,KEKO 071656Z AUTO 09003KT 10SM OVC002 M08/M10 A3017 RMK AO2 SLP263 I1001 T10831100,M
TPH,2022-12-07 16:56,-117.0904,38.0505,1654.00,30.00,28.00,92.15,360.00,4.00,T,30.12,1021.20,9.00,M,OVC,M,M,M,800.00,M,M,M,-SN,M,M,M,M,M,M,25.08,KTPH 071656Z AUTO 36004KT 9SM -SN OVC008 M01/M02 A3012 RMK AO2 SNE31B55 SLP212 P0000 T10111022,M
BVU,2022-12-07 17:15,-114.8611,35.9475,671.00,48.20,30.20,49.53,0.00,0.00,0.00,30.13,M,10.00,M,CLR,M,M,M,M,M,M,M,M,M,M,M,M,M,M,48.20,KBVU 071715Z AUTO 00000KT 10SM CLR 09/M01 A3013 RMK AO2,M
BAM,2022-12-07 17:15,-116.8743,40.5990,1382.36,26.60,23.00,86.07,0.00,0.00,0.00,30.18,M,7.00,M,CLR,M,M,M,M,M,M,M,M,M,M,M,M,M,M,26.60,KBAM 071715Z AUTO 00000KT 7SM CLR M03/M05 A3018 RMK AO1,M
MEV,2022-12-07 17:15,-119.7500,38.9963,1441.42,26.60,21.20,79.77,0.00,0.00,0.00,30.16,M,10.00,M,CLR,M,M,M,M,M,M,M,M,M,M,M,M,M,M,26.60,KMEV 071715Z AUTO 00000KT 10SM CLR M03/M06 A3016 RMK AO2,M
05U,2022-12-07 17:15,-116.0051,39.6042,1811.23,24.80,19.40,79.62,0.00,0.00,0.00,30.13,M,10.00,M,M,M,M,M,M,M,M,M,M,M,M,M,M,M,M,24.80,K05U 071715Z AUTO 00000KT 10SM M04/M07 A3013 RMK A01,M
RTS,2022-12-07 17:15,-119.8764,39.6682,1539.00,23.00,21.20,92.69,110.00,3.00,0.00,30.16,M,4.00,M,OVC,M,M,M,300.00,M,M,M,BR,M,M,M,M,M,M,18.40,KRTS 071715Z AUTO 11003KT 4SM BR OVC003 M05/M06 A3016 RMK AO2,M
TMT,2022-12-07 17:15,-117.1971,39.4643,1749.34,23.00,22.50,97.92,0.00,0.00,0.00,30.14,M,0.50,M,OVC,M,M,M,400.00,M,M,M,FZFG,M,M,M,M,M,M,23.00,KTMT 071715Z AUTO 00000KT 1/2SM FZFG OVC004 M05/M05 A3014 RMK AO2 T10501053,M
CXP,2022-12-07 17:15,-119.7326,39.1923,1431.00,26.60,21.20,79.77,0.00,0.00,0.00,30.18,M,10.00,M,CLR,M,M,M,M,M,M,M,M,M,M,M,M,M,M,26.60,KCXP 071715Z AUTO 00000KT 10SM CLR M03/M06 A3018 RMK AO2,M
ELY,2022-12-07 17:31,-114.8453,39.2950,1909.00,17.10,15.10,91.68,330.00,3.00,T,30.13,M,1.75,M,FEW,BKN,OVC,M,3400.00,4100.00,7000.00,M,-SN BR,M,M,M,M,M,M,11.66,KELY 071731Z AUTO 33003KT 1 3/4SM -SN BR FEW034 BKN041 OVC070 M08/M09 A3013 RMK AO2 SNB23 P0000 T10831094,M
05U,2022-12-07 17:35,-116.0051,39.6042,1811.23,26.60,21.20,79.77,0.00,0.00,0.00,30.14,M,10.00,M,M,M,M,M,M,M,M,M,M,M,M,M,M,M,M,26.60,K05U 071735Z AUTO 00000KT 10SM M03/M06 A3014 RMK A01,M
CXP,2022-12-07 17:35,-119.7326,39.1923,1431.00,30.20,19.40,63.75,0.00,0.00,0.00,30.18,M,10.00,M,CLR,M,M,M,M,M,M,M,M,M,M,M,M,M,M,30.20,KCXP 071735Z AUTO 00000KT 10SM CLR M01/M07 A3018 RMK AO2,M
BVU,2022-12-07 17:35,-114.8611,35.9475,671.00,50.00,30.20,46.31,0.00,0.00,0.00,30.13,M,10.00,M,CLR,M,M,M,M,M,M,M,M,M,M,M,M,M,M,50.00,KBVU 071735Z AUTO 00000KT 10SM CLR 10/M01 A3013 RMK AO2,M
TMT,2022-12-07 17:35,-117.1971,39.4643,1749.34,23.20,22.50,97.10,0.00,0.00,0.00,30.14,M,0.50,M,OVC,M,M,M,200.00,M,M,M,FZFG,M,M,M,M,M,M,23.20,KTMT 071735Z AUTO 00000KT 1/2SM FZFG OVC002 M05/M05 A3014 RMK AO2 T10491053,M
BAM,2022-12-07 17:35,-116.8743,40.5990,1382.36,28.40,24.80,86.18,0.00,0.00,0.00,30.18,M,10.00,M,CLR,M,M,M,M,M,M,M,M,M,M,M,M,M,M,28.40,KBAM 071735Z AUTO 00000KT 10SM CLR M02/M04 A3018 RMK AO1,M
MEV,2022-12-07 17:35,-119.7500,38.9963,1441.42,28.40,21.20,74.08,0.00,0.00,0.00,30.16,M,10.00,M,CLR,M,M,M,M,M,M,M,M,M,M,M,M,M,M,28.40,KMEV 071735Z AUTO 00000KT 10SM CLR M02/M06 A3016 RMK AO2,M
RTS,2022-12-07 17:35,-119.8764,39.6682,1539.00,23.00,23.00,100.00,0.00,0.00,0.00,30.16,M,0.25,M,OVC,M,M,M,200.00,M,M,M,FZFG,M,M,M,M,M,M,23.00,KRTS 071735Z AUTO 00000KT M1/4SM FZFG OVC002 M05/M05 A3016 RMK AO2,M
ELY,2022-12-07 17:38,-114.8453,39.2950,1909.00,17.10,15.10,91.68,330.00,4.00,T,30.13,M,3.00,M,FEW,BKN,OVC,M,3400.00,4200.00,5500.00,M,-SN BR,M,M,M,M,M,M,10.02,KELY 071738Z AUTO 33004KT 3SM -SN BR FEW034 BKN042 OVC055 M08/M09 A3013 RMK AO2 SNB23 P0000 T10831094,M
P68,2022-12-07 17:53,-116.0056,39.6014,1993.00,26.10,21.00,80.75,0.00,0.00,0.00,30.10,1021.50,M,M,M,M,M,M,M,M,M,M,M,M,M,M,M,M,M,26.10,KP68 071753Z AUTO 00000KT M03/M06 A3010 RMK AO1 SLP215 T10331061 11033 21117 51004,M
VGT,2022-12-07 17:53,-115.1933,36.2111,667.00,52.00,33.00,48.34,0.00,0.00,0.00,30.13,1022.00,10.00,M,CLR,M,M,M,M,M,M,M,M,M,M,M,M,M,M,52.00,KVGT 071753Z 00000KT 10SM CLR 11/01 A3013 RMK AO2 SLP220 T01110006 10111 20044 51016,M
LOL,2022-12-07 17:53,-118.5701,40.0684,1192.43,27.00,25.00,92.05,0.00,0.00,0.00,30.19,1025.60,10.00,M,CLR,M,M,M,M,M,M,M,M,M,M,T,M,M,M,27.00,KLOL 071753Z AUTO 00000KT 10SM CLR M03/M04 A3019 RMK AO2 SLP256 I6000 T10281039 11028 21144 51013,M
ELY,2022-12-07 17:53,-114.8453,39.2950,1909.00,19.00,17.10,92.15,0.00,0.00,T,30.13,1025.80,9.00,M,OVC,M,M,M,4800.00,M,M,M,M,M,M,T,M,M,M,19.00,KELY 071753Z AUTO 00000KT 9SM OVC048 M07/M08 A3013 RMK AO2 SNB23E46 SLP258 P0000 60000 I6000 T10721083 11072 21172 53002,M
DRA,2022-12-07 17:53,-116.0278,36.6206,1009.00,44.00,30.00,57.37,230.00,4.00,0.00,30.14,1020.00,10.00,M,BKN,M,M,M,4300.00,M,M,M,M,M,M,M,M,M,M,41.55,KDRA 071753Z AUTO 23004KT 10SM BKN043 07/M01 A3014 RMK AO2 SLP200 T00671011 10072 21011 53019,M
CXP,2022-12-07 17:55,-119.7326,39.1923,1431.00,32.00,19.40,59.27,0.00,0.00,0.00,30.18,M,10.00,M,CLR,M,M,M,M,M,M,M,M,M,M,M,M,M,M,32.00,KCXP 071755Z AUTO 00000KT 10SM CLR M00/M07 A3018 RMK AO2,M
BVU,2022-12-07 17:55,-114.8611,35.9475,671.00,50.00,30.20,46.31,0.00,0.00,0.00,30.14,M,10.00,M,CLR,M,M,M,M,M,M,M,M,M,M,M,M,M,M,50.00,KBVU 071755Z AUTO 00000KT 10SM CLR 10/M01 A3014 RMK AO2,M
RNO,2022-12-07 17:55,-119.7711,39.4839,1341.00,32.00,19.90,60.55,0.00,0.00,0.00,30.18,1023.10,10.00,M,FEW,M,M,M,3000.00,M,M,M,M,M,M,M,M,M,M,32.00,KRNO 071755Z 00000KT 10SM FEW030 00/M07 A3018 RMK AO2 SLP231 T00001067 10000 21056 51010,M
RTS,2022-12-07 17:55,-119.8764,39.6682,1539.00,23.00,23.00,100.00,0.00,0.00,0.00,30.17,M,0.25,M,OVC,M,M,M,200.00,M,M,M,FZFG,M,M,M,M,M,M,23.00,KRTS 071755Z AUTO 00000KT M1/4SM FZFG OVC002 M05/M05 A3017 RMK AO2,M
05U,2022-12-07 17:55,-116.0051,39.6042,1811.23,26.60,21.20,79.77,0.00,0.00,0.00,30.13,M,10.00,M,M,M,M,M,M,M,M,M,M,M,M,M,M,M,M,26.60,K05U 071755Z AUTO 00000KT 10SM M03/M06 A3013 RMK A01,M
MEV,2022-12-07 17:55,-119.7500,38.9963,1441.42,30.20,21.20,68.83,0.00,0.00,0.00,30.16,M,10.00,M,CLR,M,M,M,M,M,M,M,M,M,M,M,M,M,M,30.20,KMEV 071755Z AUTO 00000KT 10SM CLR M01/M06 A3016 RMK AO2,M
BAM,2022-12-07 17:55,-116.8743,40.5990,1382.36,30.20,26.60,86.28,70.00,3.00,0.00,30.18,M,10.00,M,CLR,M,M,M,M,M,M,M,M,M,M,M,M,M,M,26.63,KBAM 071755Z AUTO 07003KT 10SM CLR M01/M03 A3018 RMK AO1,M
TMT,2022-12-07 17:55,-117.1971,39.4643,1749.34,23.70,23.00,97.11,230.00,3.00,0.00,30.15,M,1.25,M,OVC,M,M,M,200.00,M,M,M,BR,M,M,M,M,M,M,19.20,KTMT 071755Z AUTO 23003KT 1 1/4SM BR OVC002 M05/M05 A3015 RMK AO2 T10461050 11046 21102,M
INS,2022-12-07 17:55,-115.6733,36.5872,955.00,42.30,28.90,58.77,0.00,0.00,0.00,30.13,1019.90,10.00,M,FEW,M,M,M,4800.00,M,M,M,M,M,M,M,M,M,M,42.30,KINS 071755Z AUTO 00000KT 10SM FEW048 06/M02 A3013 RMK AO2 SLP199 T00571017 10059 21006 52016 $,M
LSV,2022-12-07 17:55,-115.0343,36.2362,570.00,56.80,40.80,54.96,0.00,0.00,0.00,30.12,1019.70,10.00,M,CLR,M,M,M,M,M,M,M,M,M,M,M,M,M,M,56.80,KLSV 071755Z AUTO 00000KT 10SM CLR 14/05 A3012 RMK AO2 SLP197 T01380049 10138 20029 52015 $,M
LAS,2022-12-07 17:56,-115.1634,36.0719,663.00,51.00,32.00,47.81,50.00,4.00,0.00,30.13,1020.30,10.00,M,FEW,M,M,M,6500.00,M,M,M,M,M,M,M,M,M,M,51.10,KLAS 071756Z 05004KT 10SM FEW065 11/00 A3013 RMK AO2 SLP203 T01060000 10106 20056 53015,M
WMC,2022-12-07 17:56,-117.8072,40.9019,1315.00,28.00,25.00,88.33,0.00,0.00,0.00,30.17,1024.40,10.00,M,CLR,M,M,M,M,M,M,M,M,M,M,T,M,M,M,28.00,KWMC 071756Z AUTO 00000KT 10SM CLR M02/M04 A3017 RMK AO2 SLP244 I6000 T10221039 11022 21117 51009,M
EKO,2022-12-07 17:56,-115.7860,40.8242,1367.00,17.10,14.00,87.38,M,4.00,0.00,30.18,1026.50,10.00,M,OVC,M,M,M,400.00,M,M,M,M,M,M,0.04,M,M,M,10.02,KEKO 071756Z AUTO VRB04KT 10SM OVC004 M08/M10 A3018 RMK AO2 SLP265 I6004 T10831100 11072 21089 53005,M
NFL,2022-12-07 17:56,-118.7010,39.4166,1199.00,33.00,25.00,71.82,0.00,0.00,0.00,30.18,1018.50,10.00,M,CLR,M,M,M,M,M,M,M,M,M,M,M,M,M,M,33.10,KNFL 071756Z 00000KT 10SM CLR 01/M04 A3018 RMK AO2 SLP185 T00061039 10006 21083 52013,M
HND,2022-12-07 17:56,-115.1344,35.9729,742.79,51.00,30.90,45.73,230.00,8.00,0.00,30.14,1022.80,10.00,M,CLR,M,M,M,M,M,M,M,M,M,M,M,M,M,M,51.10,KHND 071756Z 23008KT 10SM CLR 11/M01 A3014 RMK AO2 SLP228 T01061006 10106 20033 53014,M
TPH,2022-12-07 17:56,-117.0904,38.0505,1654.00,30.00,28.00,92.15,360.00,7.00,T,30.13,1021.80,10.00,M,BKN,OVC,M,M,800.00,5000.00,M,M,M,M,M,M,M,M,M,22.34,KTPH 071756Z AUTO 36007KT 10SM BKN008 OVC050 M01/M02 A3013 RMK AO2 SNE44 SLP218 P0000 60011 T10111022 11011 21028 53013,M
TPH,2022-12-07 18:05,-117.0904,38.0505,1654.00,30.90,28.90,92.18,20.00,6.00,0.00,30.13,M,10.00,M,SCT,OVC,M,M,800.00,5500.00,M,M,M,M,M,M,M,M,M,24.21,KTPH 071805Z AUTO 02006KT 10SM SCT008 OVC055 M01/M02 A3013 RMK AO2 T10061017,M
CXP,2022-12-07 18:15,-119.7326,39.1923,1431.00,32.00,19.40,59.27,0.00,0.00,0.00,30.18,M,10.00,M,CLR,M,M,M,M,M,M,M,M,M,M,M,M,M,M,32.00,KCXP 071815Z AUTO 00000KT 10SM CLR 00/M07 A3018 RMK AO2,M
RTS,2022-12-07 18:15,-119.8764,39.6682,1539.00,23.00,23.00,100.00,0.00,0.00,0.00,30.17,M,0.25,M,OVC,M,M,M,200.00,M,M,M,FZFG,M,M,M,M,M,M,23.00,KRTS 071815Z AUTO 00000KT M1/4SM FZFG OVC002 M05/M05 A3017 RMK AO2,M
05U,2022-12-07 18:15,-116.0051,39.6042,1811.23,28.40,21.20,74.08,M,M,0.00,30.13,M,10.00,M,M,M,M,M,M,M,M,M,M,M,M,M,M,M,M,M,K05U 071815Z AUTO 10SM M02/M06 A3013 RMK A01,M
MEV,2022-12-07 18:15,-119.7500,38.9963,1441.42,30.20,23.00,74.26,0.00,0.00,0.00,30.16,M,10.00,M,CLR,M,M,M,M,M,M,M,M,M,M,M,M,M,M,30.20,KMEV 071815Z AUTO 00000KT 10SM CLR M01/M05 A3016 RMK AO2,M
BAM,2022-12-07 18:15,-116.8743,40.5990,1382.36,32.00,26.60,80.22,70.00,4.00,0.00,30.18,M,10.00,M,CLR,M,M,M,M,M,M,M,M,M,M,M,M,M,M,27.42,KBAM 071815Z AUTO 07004KT 10SM CLR 00/M03 A3018 RMK AO1,M
TMT,2022-12-07 18:15,-117.1971,39.4643,1749.34,24.10,23.20,96.30,200.00,3.00,0.00,30.15,M,1.25,M,OVC,M,M,M,200.00,M,M,M,BR,M,M,M,M,M,M,19.66,KTMT 071815Z AUTO 20003KT 1 1/4SM BR OVC002 M04/M05 A3015 RMK AO2 T10441049,M
BVU,2022-12-07 18:15,-114.8611,35.9475,671.00,51.80,30.20,43.32,0.00,0.00,0.00,30.14,M,10.00,M,CLR,M,M,M,M,M,M,M,M,M,M,M,M,M,M,51.80,KBVU 071815Z AUTO 00000KT 10SM CLR 11/M01 A3014 RMK AO2,M
TPH,2022-12-07 18:29,-117.0904,38.0505,1654.00,32.00,30.00,92.22,360.00,3.00,T,30.13,M,7.00,M,BKN,BKN,OVC,M,1700.00,4900.00,5500.00,M,-SN,M,M,M,M,M,M,28.69,KTPH 071829Z AUTO 36003KT 7SM -SN BKN017 BKN049 OVC055 00/M01 A3013 RMK AO2 SNB08 P0000 T00001011,M
RTS,2022-12-07 18:35,-119.8764,39.6682,1539.00,24.80,23.00,92.74,0.00,0.00,0.00,30.17,M,0.25,M,OVC,M,M,M,300.00,M,M,M,FZFG,M,M,M,M,M,M,24.80,KRTS 071835Z AUTO 00000KT 1/4SM FZFG OVC003 M04/M05 A3017 RMK AO2,M
TMT,2022-12-07 18:35,-117.1971,39.4643,1749.34,24.60,24.10,97.93,0.00,0.00,0.00,30.15,M,1.50,M,OVC,M,M,M,200.00,M,M,M,BR,M,M,M,M,M,M,24.60,KTMT 071835Z AUTO 00000KT 1 1/2SM BR OVC002 M04/M04 A3015 RMK AO2 T10411044,M
BAM,2022-12-07 18:35,-116.8743,40.5990,1382.36,32.00,26.60,80.22,90.00,5.00,0.00,30.17,M,10.00,M,CLR,M,M,M,M,M,M,M,M,M,M,M,M,M,M,26.40,KBAM 071835Z AUTO 09005KT 10SM CLR 00/M03 A3017 RMK AO1,M
MEV,2022-12-07 18:35,-119.7500,38.9963,1441.42,32.00,21.20,63.99,0.00,0.00,0.00,30.15,M,10.00,M,CLR,M,M,M,M,M,M,M,M,M,M,M,M,M,M,32.00,KMEV 071835Z AUTO 00000KT 10SM CLR 00/M06 A3015 RMK AO2,M
05U,2022-12-07 18:35,-116.0051,39.6042,1811.23,28.40,21.20,74.08,0.00,0.00,0.00,30.13,M,10.00,M,M,M,M,M,M,M,M,M,M,M,M,M,M,M,M,28.40,K05U 071835Z AUTO 00000KT 10SM M02/M06 A3013 RMK A01,M
CXP,2022-12-07 18:35,-119.7326,39.1923,1431.00,32.00,21.20,63.99,0.00,0.00,0.00,30.17,M,10.00,M,CLR,M,M,M,M,M,M,M,M,M,M,M,M,M,M,32.00,KCXP 071835Z AUTO 00000KT 10SM CLR 00/M06 A3017 RMK AO2,M
BVU,2022-12-07 18:35,-114.8611,35.9475,671.00,51.80,30.20,43.32,0.00,0.00,0.00,30.13,M,10.00,M,CLR,M,M,M,M,M,M,M,M,M,M,M,M,M,M,51.80,KBVU 071835Z AUTO 00000KT 10SM CLR 11/M01 A3013 RMK AO2,M
EKO,2022-12-07 18:46,-115.7860,40.8242,1367.00,18.00,15.10,88.20,80.00,3.00,0.00,30.16,M,10.00,M,OVC,M,M,M,500.00,M,M,M,M,0.01,M,M,M,M,M,12.68,KEKO 071846Z AUTO 08003KT 10SM OVC005 M08/M09 A3016 RMK AO2 I1001 T10781094,M
VGT,2022-12-07 18:53,-115.1933,36.2111,667.00,56.00,33.00,41.92,60.00,4.00,0.00,30.12,1021.50,10.00,M,CLR,M,M,M,M,M,M,M,M,M,M,M,M,M,M,55.90,KVGT 071853Z 06004KT 10SM CLR 13/01 A3012 RMK AO2 SLP215 T01330006,M
ELY,2022-12-07 18:53,-114.8453,39.2950,1909.00,21.90,19.00,88.40,330.00,3.00,0.00,30.10,1024.60,10.00,M,OVC,M,M,M,5500.00,M,M,M,M,M,M,M,M,M,M,17.14,KELY 071853Z AUTO 33003KT 10SM OVC055 M06/M07 A3010 RMK AO2 SLP246 T10561072,M
P68,2022-12-07 18:53,-116.0056,39.6014,1993.00,28.90,21.00,71.96,0.00,0.00,0.00,30.10,1021.10,M,M,M,M,M,M,M,M,M,M,M,M,M,M,M,M,M,28.90,KP68 071853Z AUTO 00000KT M02/M06 A3010 RMK AO1 SLP211 T10171061,M
LOL,2022-12-07 18:53,-118.5701,40.0684,1192.43,34.00,27.00,75.26,M,3.00,0.00,30.18,1024.50,10.00,M,CLR,M,M,M,M,M,M,M,M,M,M,M,M,M,M,30.97,KLOL 071853Z AUTO VRB03KT 10SM CLR 01/M03 A3018 RMK AO2 SLP245 T00111028,M
DRA,2022-12-07 18:53,-116.0278,36.6206,1009.00,47.00,30.00,51.58,200.00,4.00,0.00,30.13,1020.00,10.00,M,BKN,BKN,M,M,4300.00,5000.00,M,M,M,M,M,M,M,M,M,44.82,KDRA 071853Z AUTO 20004KT 10SM BKN043 BKN050 08/M01 A3013 RMK AO2 SLP200 T00831011,M
TMT,2022-12-07 18:55,-117.1971,39.4643,1749.34,24.80,23.90,96.31,280.00,3.00,0.00,30.14,M,2.00,M,OVC,M,M,M,200.00,M,M,M,BR,M,M,M,M,M,M,20.46,KTMT 071855Z AUTO 28003KT 2SM BR OVC002 M04/M04 A3014 RMK AO2 T10401045,M
LSV,2022-12-07 18:55,-115.0343,36.2362,570.00,59.20,33.60,37.98,0.00,0.00,0.00,30.11,1019.30,10.00,M,CLR,M,M,M,M,M,M,M,M,M,M,M,M,M,M,59.20,KLSV 071855Z AUTO 00000KT 10SM CLR 15/01 A3011 RMK AO2 SLP193 T01510009 $,M
BAM,2022-12-07 18:55,-116.8743,40.5990,1382.36,32.00,28.40,86.39,80.00,3.00,0.00,30.16,M,10.00,M,CLR,M,M,M,M,M,M,M,M,M,M,M,M,M,M,28.69,KBAM 071855Z AUTO 08003KT 10SM CLR 00/M02 A3016 RMK AO1,M
BVU,2022-12-07 18:55,-114.8611,35.9475,671.00,53.60,32.00,43.61,0.00,0.00,0.00,30.12,M,10.00,M,CLR,M,M,M,M,M,M,M,M,M,M,M,M,M,M,53.60,KBVU 071855Z AUTO 00000KT 10SM CLR 12/M00 A3012 RMK AO2,M
MEV,2022-12-07 18:55,-119.7500,38.9963,1441.42,33.80,21.20,59.53,0.00,0.00,0.00,30.15,M,10.00,M,CLR,M,M,M,M,M,M,M,M,M,M,M,M,M,M,33.80,KMEV 071855Z AUTO 00000KT 10SM CLR 01/M06 A3015 RMK AO2,M
05U,2022-12-07 18:55,-116.0051,39.6042,1811.23,30.20,21.20,68.83,0.00,0.00,0.00,30.12,M,10.00,M,M,M,M,M,M,M,M,M,M,M,M,M,M,M,M,30.20,K05U 071855Z AUTO 00000KT 10SM M01/M06 A3012 RMK A01,M
RTS,2022-12-07 18:55,-119.8764,39.6682,1539.00,24.80,24.80,100.00,0.00,0.00,0.00,30.16,M,1.50,M,OVC,M,M,M,300.00,M,M,M,BR,M,M,M,M,M,M,24.80,KRTS 071855Z AUTO 00000KT 1 1/2SM BR OVC003 M04/M04 A3016 RMK AO2,M
CXP,2022-12-07 18:55,-119.7326,39.1923,1431.00,33.80,21.20,59.53,0.00,0.00,0.00,30.17,M,10.00,M,CLR,M,M,M,M,M,M,M,M,M,M,M,M,M,M,33.80,KCXP 071855Z AUTO 00000KT 10SM CLR 01/M06 A3017 RMK AO2,M
RNO,2022-12-07 18:55,-119.7711,39.4839,1341.00,33.00,21.00,60.71,0.00,0.00,0.00,30.17,1023.00,10.00,M,FEW,M,M,M,3000.00,M,M,M,M,M,M,M,M,M,M,33.10,KRNO 071855Z 00000KT 10SM FEW030 01/M06 A3017 RMK AO2 SLP230 T00061061,M
INS,2022-12-07 18:55,-115.6733,36.5872,955.00,49.50,30.60,47.95,20.00,4.00,0.00,30.13,1019.70,10.00,M,FEW,M,M,M,3900.00,M,M,M,M,M,M,M,M,M,M,47.86,KINS 071855Z AUTO 02004KT 10SM FEW039 10/M01 A3013 RMK AO2 SLP197 T00971008 $,M
TPH,2022-12-07 18:56,-117.0904,38.0505,1654.00,33.00,30.00,88.23,10.00,3.00,T,30.13,1021.40,8.00,M,SCT,OVC,M,M,1700.00,6500.00,M,M,-SN,M,M,M,M,M,M,29.95,KTPH 071856Z AUTO 01003KT 8SM -SN SCT017 OVC065 01/M01 A3013 RMK AO2 SNB08 SLP214 P0000 T00061011,M
EKO,2022-12-07 18:56,-115.7860,40.8242,1367.00,18.00,15.10,88.20,0.00,0.00,0.00,30.16,1025.80,10.00,M,OVC,M,M,M,500.00,M,M,M,M,0.01,M,M,M,M,M,18.00,KEKO 071856Z AUTO 00000KT 10SM OVC005 M08/M09 A3016 RMK AO2 SLP258 I1001 T10781094,M
WMC,2022-12-07 18:56,-117.8072,40.9019,1315.00,32.00,26.10,78.58,0.00,0.00,0.00,30.16,1023.40,10.00,M,CLR,M,M,M,M,M,M,M,M,M,M,M,M,M,M,32.00,KWMC 071856Z AUTO 00000KT 10SM CLR 00/M03 A3016 RMK AO2 SLP234 T00001033,M
NFL,2022-12-07 18:56,-118.7010,39.4166,1199.00,38.00,25.00,59.36,70.00,3.00,0.00,30.17,1018.00,10.00,M,CLR,M,M,M,M,M,M,M,M,M,M,M,M,M,M,35.43,KNFL 071856Z 07003KT 10SM CLR 03/M04 A3017 RMK AO2 SLP180 T00331039,M
HND,2022-12-07 18:56,-115.1344,35.9729,742.79,53.00,30.90,42.48,230.00,9.00,0.00,30.13,1022.40,10.00,M,CLR,M,M,M,M,M,M,M,M,M,M,M,M,M,M,53.10,KHND 071856Z 23009KT 10SM CLR 12/M01 A3013 RMK AO2 SLP224 T01171006,M
LAS,2022-12-07 18:56,-115.1634,36.0719,663.00,53.00,32.00,44.42,80.00,4.00,0.00,30.12,1019.90,10.00,M,FEW,SCT,M,M,7000.00,17000.00,M,M,M,M,M,M,M,M,M,53.10,KLAS 071856Z COR 08004KT 10SM FEW070 SCT170 12/00 A3012 RMK AO2 SLP199 CB DSNT NE T01170000,M
TPH,2022-12-07 19:07,-117.0904,38.0505,1654.00,34.00,30.90,88.27,20.00,3.00,T,30.12,M,9.00,M,BKN,OVC,M,M,1900.00,6500.00,M,M,M,M,M,M,M,M,M,30.97,KTPH 071907Z AUTO 02003KT 9SM BKN019 OVC065 01/M01 A3012 RMK AO2 SNE02 P0000 T00111006,M
RTS,2022-12-07 19:15,-119.8764,39.6682,1539.00,26.60,26.60,100.00,0.00,0.00,0.00,30.16,M,5.00,M,BKN,M,M,M,400.00,M,M,M,BR,M,M,M,M,M,M,26.60,KRTS 071915Z AUTO 00000KT 5SM BR BKN004 M03/M03 A3016 RMK AO2,M
TMT,2022-12-07 19:15,-117.1971,39.4643,1749.34,24.40,23.50,96.30,0.00,0.00,0.00,30.14,M,0.50,M,OVC,M,M,M,200.00,M,M,M,FZFG,M,M,M,M,M,M,24.40,KTMT 071915Z AUTO 00000KT 1/2SM FZFG OVC002 M04/M05 A3014 RMK AO2 T10421047,M
MEV,2022-12-07 19:15,-119.7500,38.9963,1441.42,33.80,21.20,59.53,0.00,0.00,0.00,30.14,M,10.00,M,CLR,M,M,M,M,M,M,M,M,M,M,M,M,M,M,33.80,KMEV 071915Z AUTO 00000KT 10SM CLR 01/M06 A3014 RMK AO2,M
CXP,2022-12-07 19:15,-119.7326,39.1923,1431.00,35.60,21.20,55.41,0.00,0.00,0.00,30.16,M,10.00,M,CLR,M,M,M,M,M,M,M,M,M,M,M,M,M,M,35.60,KCXP 071915Z AUTO 00000KT 10SM CLR 02/M06 A3016 RMK AO2,M
BVU,2022-12-07 19:15,-114.8611,35.9475,671.00,53.60,32.00,43.61,0.00,0.00,0.00,30.12,M,10.00,M,CLR,M,M,M,M,M,M,M,M,M,M,M,M,M,M,53.60,KBVU 071915Z AUTO 00000KT 10SM CLR 12/M00 A3012 RMK AO2,M
BAM,2022-12-07 19:15,-116.8743,40.5990,1382.36,33.80,26.60,74.63,60.00,4.00,0.00,30.16,M,10.00,M,CLR,M,M,M,M,M,M,M,M,M,M,M,M,M,M,29.52,KBAM 071915Z AUTO 06004KT 10SM CLR 01/M03 A3016 RMK AO1,M
05U,2022-12-07 19:15,-116.0051,39.6042,1811.23,30.20,21.20,68.83,0.00,0.00,0.00,30.11,M,10.00,M,M,M,M,M,M,M,M,M,M,M,M,M,M,M,M,30.20,K05U 071915Z AUTO 00000KT 10SM M01/M06 A3011 RMK A01,M
MEV,2022-12-07 19:35,-119.7500,38.9963,1441.42,33.80,21.20,59.53,0.00,0.00,0.00,30.13,M,10.00,M,CLR,M,M,M,M,M,M,M,M,M,M,M,M,M,M,33.80,KMEV 071935Z AUTO 00000KT 10SM CLR 01/M06 A3013 RMK AO2,M
05U,2022-12-07 19:35,-116.0051,39.6042,1811.23,32.00,23.00,69.04,0.00,0.00,0.00,30.11,M,10.00,M,M,M,M,M,M,M,M,M,M,M,M,M,M,M,M,32.00,K05U 071935Z AUTO 00000KT 10SM M00/M05 A3011 RMK A01,M
RTS,2022-12-07 19:35,-119.8764,39.6682,1539.00,28.40,28.40,100.00,0.00,0.00,0.00,30.15,M,8.00,M,SCT,M,M,M,500.00,M,M,M,M,M,M,M,M,M,M,28.40,KRTS 071935Z AUTO 00000KT 8SM SCT005 M02/M02 A3015 RMK AO2,M
CXP,2022-12-07 19:35,-119.7326,39.1923,1431.00,35.60,21.20,55.41,0.00,0.00,0.00,30.15,M,10.00,M,CLR,M,M,M,M,M,M,M,M,M,M,M,M,M,M,35.60,KCXP 071935Z AUTO 00000KT 10SM CLR 02/M06 A3015 RMK AO2,M
BVU,2022-12-07 19:35,-114.8611,35.9475,671.00,55.40,32.00,40.84,0.00,0.00,0.00,30.11,M,10.00,M,CLR,M,M,M,M,M,M,M,M,M,M,M,M,M,M,55.40,KBVU 071935Z AUTO 00000KT 10SM CLR 13/M00 A3011 RMK AO2,M
TMT,2022-12-07 19:35,-117.1971,39.4643,1749.34,25.00,24.30,97.12,300.00,4.00,0.00,30.12,M,0.75,M,OVC,M,M,M,200.00,M,M,M,BR,M,M,M,M,M,M,19.25,KTMT 071935Z AUTO 30004KT 3/4SM BR OVC002 M04/M04 A3012 RMK AO2 T10391043,M
BAM,2022-12-07 19:35,-116.8743,40.5990,1382.36,33.80,28.40,80.36,80.00,3.00,0.00,30.15,M,10.00,M,CLR,M,M,M,M,M,M,M,M,M,M,M,M,M,M,30.75,KBAM 071935Z AUTO 08003KT 10SM CLR 01/M02 A3015 RMK AO1,M
DRA,2022-12-07 19:53,-116.0278,36.6206,1009.00,49.00,30.90,49.63,M,M,0.00,30.12,1019.00,10.00,M,CLR,M,M,M,M,M,M,M,M,M,M,M,M,M,M,M,KDRA 071953Z AUTO 10SM CLR 09/M01 A3012 RMK AO2 SLP190 T00941006,M
P68,2022-12-07 19:53,-116.0056,39.6014,1993.00,32.00,21.90,65.92,M,3.00,0.00,30.08,1020.40,M,M,M,M,M,M,M,M,M,M,M,M,M,M,M,M,M,28.69,KP68 071953Z AUTO VRB03KT 00/M06 A3008 RMK AO1 SLP204 T00001056,M
LOL,2022-12-07 19:53,-118.5701,40.0684,1192.43,37.00,27.00,66.82,0.00,0.00,0.00,30.15,1023.30,10.00,M,CLR,M,M,M,M,M,M,M,M,M,M,M,M,M,M,37.00,KLOL 071953Z AUTO 00000KT 10SM CLR 03/M03 A3015 RMK AO2 SLP233 T00281028,M
ELY,2022-12-07 19:53,-114.8453,39.2950,1909.00,24.10,19.00,80.59,50.00,3.00,0.00,30.09,1024.10,10.00,M,OVC,M,M,M,4600.00,M,M,M,M,M,M,M,M,M,M,19.66,KELY 071953Z AUTO 05003KT 10SM OVC046 M04/M07 A3009 RMK AO2 SLP241 T10441072,M
VGT,2022-12-07 19:53,-115.1933,36.2111,667.00,57.00,33.00,40.28,0.00,0.00,0.00,30.10,1020.80,10.00,M,FEW,M,M,M,8000.00,M,M,M,M,M,M,M,M,M,M,57.00,KVGT 071953Z 00000KT 10SM FEW080 14/01 A3010 RMK AO2 SLP208 T01390006,M
RTS,2022-12-07 19:55,-119.8764,39.6682,1539.00,32.00,26.60,80.22,0.00,0.00,0.00,30.14,M,10.00,M,CLR,M,M,M,M,M,M,M,M,M,M,M,M,M,M,32.00,KRTS 071955Z AUTO 00000KT 10SM CLR M00/M03 A3014 RMK AO2,M
CXP,2022-12-07 19:55,-119.7326,39.1923,1431.00,37.40,21.20,51.61,0.00,0.00,0.00,30.14,M,10.00,M,CLR,M,M,M,M,M,M,M,M,M,M,M,M,M,M,37.40,KCXP 071955Z AUTO 00000KT 10SM CLR 03/M06 A3014 RMK AO2,M
MEV,2022-12-07 19:55,-119.7500,38.9963,1441.42,35.60,21.20,55.41,0.00,0.00,0.00,30.12,M,10.00,M,CLR,M,M,M,M,M,M,M,M,M,M,M,M,M,M,35.60,KMEV 071955Z AUTO 00000KT 10SM CLR 02/M06 A3012 RMK AO2,M
TMT,2022-12-07 19:55,-117.1971,39.4643,1749.34,25.70,24.80,96.33,300.00,4.00,0.00,30.12,M,4.00,M,OVC,M,M,M,200.00,M,M,M,BR,M,M,M,M,M,M,20.06,KTMT 071955Z AUTO 30004KT 4SM BR OVC002 M03/M04 A3012 RMK AO2 T10351040,M
LSV,2022-12-07 19:55,-115.0343,36.2362,570.00,61.50,35.00,37.15,340.00,3.00,0.00,30.08,1018.30,10.00,M,CLR,M,M,M,M,M,M,M,M,M,M,M,M,M,M,61.50,KLSV 071955Z AUTO 34003KT 10SM CLR 16/02 A3008 RMK AO2 SLP183 T01640017 $,M
RNO,2022-12-07 19:55,-119.7711,39.4839,1341.00,37.00,21.90,54.01,0.00,0.00,0.00,30.14,1021.60,10.00,M,FEW,M,M,M,5000.00,M,M,M,M,M,M,M,M,M,M,37.00,KRNO 071955Z 00000KT 10SM FEW050 03/M06 A3014 RMK AO2 SLP216 T00281056,M
05U,2022-12-07 19:55,-116.0051,39.6042,1811.23,33.80,23.00,64.23,10.00,3.00,0.00,30.10,M,10.00,M,M,M,M,M,M,M,M,M,M,M,M,M,M,M,M,30.75,K05U 071955Z AUTO 01003KT 10SM 01/M05 A3010 RMK A01,M
BVU,2022-12-07 19:55,-114.8611,35.9475,671.00,55.40,30.20,37.97,0.00,0.00,0.00,30.10,M,10.00,M,CLR,M,M,M,M,M,M,M,M,M,M,M,M,M,M,55.40,KBVU 071955Z AUTO 00000KT 10SM CLR 13/M01 A3010 RMK AO2,M
INS,2022-12-07 19:55,-115.6733,36.5872,955.00,51.30,28.90,41.85,270.00,8.00,0.00,30.10,1018.40,10.00,M,OVC,M,M,M,4600.00,M,M,M,M,M,M,M,M,M,M,51.30,KINS 071955Z AUTO 27008KT 10SM OVC046 11/M02 A3010 RMK AO2 SLP184 T01071017 $,M
BAM,2022-12-07 19:55,-116.8743,40.5990,1382.36,35.60,28.40,74.80,110.00,3.00,0.00,30.14,M,10.00,M,CLR,M,M,M,M,M,M,M,M,M,M,M,M,M,M,32.80,KBAM 071955Z AUTO 11003KT 10SM CLR 02/M02 A3014 RMK AO1,M
INS,2022-12-07 19:56,-115.6733,36.5872,955.00,51.80,28.40,40.25,20.00,10.00,0.00,30.10,1018.40,10.00,15.00,OVC,M,M,M,4600.00,M,M,M,M,M,M,M,M,M,M,51.80,KINS 071956Z AUTO 02010G15KT 10SM OVC046 11/M02 A3010 RMK AO2 WSHFT 55 SLP184 $,M
LAS,2022-12-07 19:56,-115.1634,36.0719,663.00,55.00,32.00,41.44,0.00,0.00,0.00,30.10,1019.20,10.00,M,FEW,SCT,SCT,M,10000.00,17000.00,23000.00,M,M,M,M,M,M,M,M,55.00,KLAS 071956Z 00000KT 10SM FEW100 SCT170 SCT230 13/00 A3010 RMK AO2 SLP192 CB DSNT NW-N T01280000,M
TPH,2022-12-07 19:56,-117.0904,38.0505,1654.00,34.00,30.00,85.11,240.00,5.00,T,30.11,1020.60,10.00,M,OVC,M,M,M,1700.00,M,M,M,M,M,M,M,M,M,M,28.77,KTPH 071956Z AUTO 24005KT 10SM OVC017 01/M01 A3011 RMK AO2 SNE02 SLP206 P0000 T00111011,M
HND,2022-12-07 19:56,-115.1344,35.9729,742.79,56.00,28.00,34.08,210.00,12.00,0.00,30.11,1021.20,10.00,M,CLR,M,M,M,M,M,M,M,M,M,M,M,M,M,M,55.90,KHND 071956Z 21012KT 10SM CLR 13/M02 A3011 RMK AO2 SLP212 T01331022,M
NFL,2022-12-07 19:56,-118.7010,39.4166,1199.00,40.00,25.00,54.90,M,3.00,0.00,30.15,1017.40,10.00,M,FEW,M,M,M,5000.00,M,M,M,M,M,M,M,M,M,M,37.72,KNFL 071956Z VRB03KT 10SM FEW050 04/M04 A3015 RMK AO2 SLP174 T00441039,M
EKO,2022-12-07 19:56,-115.7860,40.8242,1367.00,19.90,16.00,84.55,30.00,3.00,0.00,30.14,1025.20,10.00,M,OVC,M,M,M,600.00,M,M,M,M,M,M,M,M,M,M,14.86,KEKO 071956Z AUTO 03003KT 10SM OVC006 M07/M09 A3014 RMK AO2 SLP252 T10671089,M
WMC,2022-12-07 19:56,-117.8072,40.9019,1315.00,37.00,26.10,64.38,0.00,0.00,0.00,30.13,1022.20,10.00,M,CLR,M,M,M,M,M,M,M,M,M,M,M,M,M,M,37.00,KWMC 071956Z AUTO 00000KT 10SM CLR 03/M03 A3013 RMK AO2 SLP222 T00281033,M
BVU,2022-12-07 20:15,-114.8611,35.9475,671.00,57.20,30.20,35.57,0.00,0.00,0.00,30.10,M,10.00,M,SCT,M,M,M,7000.00,M,M,M,M,M,M,M,M,M,M,57.20,KBVU 072015Z AUTO 00000KT 10SM SCT070 14/M01 A3010 RMK AO2,M
CXP,2022-12-07 20:15,-119.7326,39.1923,1431.00,37.40,21.20,51.61,0.00,0.00,0.00,30.14,M,10.00,M,CLR,M,M,M,M,M,M,M,M,M,M,M,M,M,M,37.40,KCXP 072015Z AUTO 00000KT 10SM CLR 03/M06 A3014 RMK AO2,M
RTS,2022-12-07 20:15,-119.8764,39.6682,1539.00,32.00,24.80,74.44,0.00,0.00,0.00,30.13,M,10.00,M,CLR,M,M,M,M,M,M,M,M,M,M,M,M,M,M,32.00,KRTS 072015Z AUTO 00000KT 10SM CLR M00/M04 A3013 RMK AO2,M
05U,2022-12-07 20:15,-116.0051,39.6042,1811.23,32.00,21.20,63.99,30.00,4.00,0.00,30.09,M,10.00,M,M,M,M,M,M,M,M,M,M,M,M,M,M,M,M,27.42,K05U 072015Z AUTO 03004KT 10SM 00/M06 A3009 RMK A01,M
MEV,2022-12-07 20:15,-119.7500,38.9963,1441.42,37.40,23.00,55.68,0.00,0.00,0.00,30.12,M,10.00,M,CLR,M,M,M,M,M,M,M,M,M,M,M,M,M,M,37.40,KMEV 072015Z AUTO 00000KT 10SM CLR 03/M05 A3012 RMK AO2,M
BAM,2022-12-07 20:15,-116.8743,40.5990,1382.36,35.60,28.40,74.80,0.00,0.00,0.00,30.14,M,10.00,M,CLR,M,M,M,M,M,M,M,M,M,M,M,M,M,M,35.60,KBAM 072015Z AUTO 00000KT 10SM CLR 02/M02 A3014 RMK AO1,M
TMT,2022-12-07 20:15,-117.1971,39.4643,1749.34,26.20,25.20,95.94,320.00,3.00,0.00,30.11,M,10.00,M,OVC,M,M,M,200.00,M,M,M,M,M,M,M,M,M,M,22.06,KTMT 072015Z AUTO 32003KT 10SM OVC002 M03/M04 A3011 RMK AO2 T10321038,M
RTS,2022-12-07 20:35,-119.8764,39.6682,1539.00,33.80,24.80,69.25,0.00,0.00,0.00,30.13,M,10.00,M,CLR,M,M,M,M,M,M,M,M,M,M,M,M,M,M,33.80,KRTS 072035Z AUTO 00000KT 10SM CLR 01/M04 A3013 RMK AO2,M
BVU,2022-12-07 20:35,-114.8611,35.9475,671.00,55.40,30.20,37.97,230.00,4.00,0.00,30.10,M,10.00,M,FEW,M,M,M,6500.00,M,M,M,M,M,M,M,M,M,M,55.40,KBVU 072035Z AUTO 23004KT 10SM FEW065 13/M01 A3010 RMK AO2,M
CXP,2022-12-07 20:35,-119.7326,39.1923,1431.00,39.20,23.00,51.89,0.00,0.00,0.00,30.13,M,10.00,M,CLR,M,M,M,M,M,M,M,M,M,M,M,M,M,M,39.20,KCXP 072035Z AUTO 00000KT 10SM CLR 04/M05 A3013 RMK AO2,M
05U,2022-12-07 20:35,-116.0051,39.6042,1811.23,33.80,21.20,59.53,20.00,3.00,0.00,30.09,M,10.00,M,M,M,M,M,M,M,M,M,M,M,M,M,M,M,M,30.75,K05U 072035Z AUTO 02003KT 10SM 01/M06 A3009 RMK A01,M
MEV,2022-12-07 20:35,-119.7500,38.9963,1441.42,39.20,23.00,51.89,230.00,4.00,0.00,30.12,M,10.00,M,CLR,M,M,M,M,M,M,M,M,M,M,M,M,M,M,35.83,KMEV 072035Z AUTO 23004KT 10SM CLR 04/M05 A3012 RMK AO2,M
BAM,2022-12-07 20:35,-116.8743,40.5990,1382.36,35.60,28.40,74.80,60.00,3.00,0.00,30.13,M,10.00,M,CLR,M,M,M,M,M,M,M,M,M,M,M,M,M,M,32.80,KBAM 072035Z AUTO 06003KT 10SM CLR 02/M02 A3013 RMK AO1,M
TMT,2022-12-07 20:35,-117.1971,39.4643,1749.34,28.60,25.50,88.00,0.00,0.00,0.00,30.11,M,10.00,M,SCT,M,M,M,400.00,M,M,M,M,M,M,M,M,M,M,28.60,KTMT 072035Z AUTO 00000KT 10SM SCT004 M02/M04 A3011 RMK AO2 T10191036,M
TPH,2022-12-07 20:45,-117.0904,38.0505,1654.00,35.00,28.90,77.88,290.00,6.00,0.00,30.10,M,10.00,M,SCT,SCT,M,M,2100.00,4500.00,M,M,M,M,M,M,M,M,M,29.26,KTPH 072045Z AUTO 29006KT 10SM SCT021 SCT045 02/M02 A3010 RMK AO2 T00171017,M
LOL,2022-12-07 20:53,-118.5701,40.0684,1192.43,40.00,27.00,59.65,0.00,0.00,0.00,30.13,1022.90,10.00,M,CLR,M,M,M,M,M,M,M,M,M,M,M,M,M,M,39.90,KLOL 072053Z AUTO 00000KT 10SM CLR 04/M03 A3013 RMK AO2 SLP229 T00441028 58017,M
P68,2022-12-07 20:53,-116.0056,39.6014,1993.00,33.00,21.00,60.71,0.00,0.00,0.00,30.07,1020.10,M,M,M,M,M,M,M,M,M,M,M,M,M,M,M,M,M,33.10,KP68 072053Z AUTO 00000KT 01/M06 A3007 RMK AO1 SLP201 T00061061 58010,M
DRA,2022-12-07 20:53,-116.0278,36.6206,1009.00,50.00,30.90,47.64,250.00,9.00,0.00,30.10,1018.40,10.00,M,CLR,M,M,M,M,M,M,M,M,M,M,M,M,M,M,50.00,KDRA 072053Z AUTO 25009KT 10SM CLR 10/M01 A3010 RMK AO2 SLP184 T01001006 58010,M
ELY,2022-12-07 20:53,-114.8453,39.2950,1909.00,26.10,21.00,80.75,40.00,3.00,T,30.07,1023.60,7.00,M,BKN,OVC,M,M,4400.00,5500.00,M,M,-SN,M,M,M,M,M,M,21.94,KELY 072053Z AUTO 04003KT 7SM -SN BKN044 OVC055 M03/M06 A3007 RMK AO2 SNB19 SLP236 P0000 60000 T10331061 56015,M
VGT,2022-12-07 20:53,-115.1933,36.2111,667.00,55.00,32.00,41.44,330.00,11.00,0.00,30.10,1021.20,10.00,19.00,BKN,M,M,M,7000.00,M,M,M,M,M,M,M,M,M,M,55.00,KVGT 072053Z 33011G19KT 10SM BKN070 13/00 A3010 RMK AO2 SLP212 T01280000 55009,M
LSV,2022-12-07 20:55,-115.0343,36.2362,570.00,63.00,32.70,32.01,320.00,13.00,0.00,30.08,1018.30,10.00,M,CLR,M,M,M,M,M,M,M,M,M,M,M,M,M,M,63.00,KLSV 072055Z AUTO 32013KT 10SM CLR 17/00 A3008 RMK AO2 SLP183 T01720004 57013 $,M
BVU,2022-12-07 20:55,-114.8611,35.9475,671.00,57.20,26.60,30.69,180.00,6.00,0.00,30.10,M,10.00,M,SCT,SCT,M,M,6500.00,7500.00,M,M,M,M,M,M,M,M,M,57.20,KBVU 072055Z AUTO 18006KT 10SM SCT065 SCT075 14/M03 A3010 RMK AO2,M
CXP,2022-12-07 20:55,-119.7326,39.1923,1431.00,39.20,21.20,48.10,0.00,0.00,0.00,30.13,M,10.00,M,CLR,M,M,M,M,M,M,M,M,M,M,M,M,M,M,39.20,KCXP 072055Z AUTO 00000KT 10SM CLR 04/M06 A3013 RMK AO2,M
INS,2022-12-07 20:55,-115.6733,36.5872,955.00,51.00,29.30,42.85,10.00,7.00,0.00,30.10,1018.70,10.00,M,OVC,M,M,M,4200.00,M,M,M,M,M,M,M,M,M,M,51.10,KINS 072055Z AUTO 01007KT 10SM OVC042 11/M01 A3010 RMK AO2 SLP187 T01061015 56009 $,M
TMT,2022-12-07 20:55,-117.1971,39.4643,1749.34,30.20,25.70,83.13,0.00,0.00,0.00,30.11,M,10.00,M,CLR,M,M,M,M,M,M,M,M,M,M,M,M,M,M,30.20,KTMT 072055Z AUTO 00000KT 10SM CLR M01/M03 A3011 RMK AO2 T10101035,M
RNO,2022-12-07 20:55,-119.7711,39.4839,1341.00,41.00,23.00,48.39,180.00,3.00,0.00,30.12,1020.80,10.00,M,FEW,M,M,M,5500.00,M,M,M,M,M,M,M,M,M,M,38.98,KRNO 072055Z 18003KT 10SM FEW055 05/M05 A3012 RMK AO2 SLP208 T00501050 58017,M
RTS,2022-12-07 20:55,-119.8764,39.6682,1539.00,35.60,24.80,64.46,0.00,0.00,0.00,30.13,M,10.00,M,CLR,M,M,M,M,M,M,M,M,M,M,M,M,M,M,35.60,KRTS 072055Z AUTO 00000KT 10SM CLR 02/M04 A3013 RMK AO2,M
05U,2022-12-07 20:55,-116.0051,39.6042,1811.23,33.80,21.20,59.53,0.00,0.00,0.00,30.09,M,10.00,M,M,M,M,M,M,M,M,M,M,M,M,M,M,M,M,33.80,K05U 072055Z AUTO 00000KT 10SM 01/M06 A3009 RMK A01,M
MEV,2022-12-07 20:55,-119.7500,38.9963,1441.42,39.20,21.20,48.10,0.00,0.00,0.00,30.11,M,10.00,M,CLR,M,M,M,M,M,M,M,M,M,M,M,M,M,M,39.20,KMEV 072055Z AUTO 00000KT 10SM CLR 04/M06 A3011 RMK AO2,M
BAM,2022-12-07 20:55,-116.8743,40.5990,1382.36,35.60,28.40,74.80,140.00,3.00,0.00,30.13,M,10.00,M,CLR,M,M,M,M,M,M,M,M,M,M,M,M,M,M,32.80,KBAM 072055Z AUTO 14003KT 10SM CLR 02/M02 A3013 RMK AO1,M
LAS,2022-12-07 20:56,-115.1634,36.0719,663.00,56.00,30.90,38.36,M,4.00,0.00,30.10,1019.00,10.00,M,SCT,BKN,BKN,M,7000.00,17000.00,23000.00,M,M,M,M,M,M,M,M,55.90,KLAS 072056Z VRB04KT 10SM SCT070 BKN170 BKN230 13/M01 A3010 RMK AO2 SLP190 VIRGA DSNT W-N CB DSNT W-N T01331006 56012,M
WMC,2022-12-07 20:56,-117.8072,40.9019,1315.00,38.00,26.10,62.14,0.00,0.00,0.00,30.11,1021.50,10.00,M,CLR,M,M,M,M,M,M,M,M,M,M,M,M,M,M,37.90,KWMC 072056Z AUTO 00000KT 10SM CLR 03/M03 A3011 RMK AO2 SLP215 T00331033 58016,M
TPH,2022-12-07 20:56,-117.0904,38.0505,1654.00,35.00,28.90,77.88,M,3.00,0.00,30.10,1020.40,10.00,M,FEW,M,M,M,4500.00,M,M,M,M,M,M,M,M,M,M,32.23,KTPH 072056Z AUTO VRB03KT 10SM FEW045 02/M02 A3010 RMK AO2 SLP204 60000 T00171017 57008,M
EKO,2022-12-07 20:56,-115.7860,40.8242,1367.00,19.90,16.00,84.55,20.00,3.00,0.00,30.13,1024.80,7.00,M,OVC,M,M,M,700.00,M,M,M,M,0.01,0.02,M,M,M,M,14.86,KEKO 072056Z AUTO 02003KT 7SM OVC007 M07/M09 A3013 RMK AO2 SLP248 I1001 I3002 T10671089 56015,M
NFL,2022-12-07 20:56,-118.7010,39.4166,1199.00,41.00,25.00,52.61,0.00,0.00,0.00,30.13,1016.90,10.00,M,FEW,M,M,M,5000.00,M,M,M,M,M,M,M,M,M,M,41.00,KNFL 072056Z 00000KT 10SM FEW050 05/M04 A3013 RMK AO2 SLP169 T00501039 57016,M
HND,2022-12-07 20:56,-115.1344,35.9729,742.79,56.00,30.00,36.98,300.00,7.00,0.00,30.11,1021.50,10.00,17.00,SCT,BKN,M,M,6000.00,8500.00,M,M,M,M,M,M,M,M,M,55.90,KHND 072056Z 30007G17KT 10SM SCT060 BKN085 13/M01 A3011 RMK AO2 SLP215 T01331011 55010,M
BAM,2022-12-07 21:15,-116.8743,40.5990,1382.36,35.60,28.40,74.80,0.00,0.00,0.00,30.12,M,10.00,M,CLR,M,M,M,M,M,M,M,M,M,M,M,M,M,M,35.60,KBAM 072115Z AUTO 00000KT 10SM CLR 02/M02 A3012 RMK AO1,M
BVU,2022-12-07 21:15,-114.8611,35.9475,671.00,57.20,26.60,30.69,220.00,6.00,0.00,30.09,M,10.00,M,SCT,M,M,M,7500.00,M,M,M,M,M,M,M,M,M,M,57.20,KBVU 072115Z AUTO 22006KT 10SM SCT075 14/M03 A3009 RMK AO2,M
CXP,2022-12-07 21:15,-119.7326,39.1923,1431.00,39.20,21.20,48.10,0.00,0.00,0.00,30.13,M,10.00,M,CLR,M,M,M,M,M,M,M,M,M,M,M,M,M,M,39.20,KCXP 072115Z AUTO 00000KT 10SM CLR 04/M06 A3013 RMK AO2,M
RTS,2022-12-07 21:15,-119.8764,39.6682,1539.00,37.40,23.00,55.68,0.00,0.00,0.00,30.12,M,10.00,M,CLR,M,M,M,M,M,M,M,M,M,M,M,M,M,M,37.40,KRTS 072115Z AUTO 00000KT 10SM CLR 03/M05 A3012 RMK AO2,M
05U,2022-12-07 21:15,-116.0051,39.6042,1811.23,33.80,21.20,59.53,80.00,3.00,0.00,30.08,M,10.00,M,M,M,M,M,M,M,M,M,M,M,M,M,M,M,M,30.75,K05U 072115Z AUTO 08003KT 10SM 01/M06 A3008 RMK A01,M
MEV,2022-12-07 21:15,-119.7500,38.9963,1441.42,41.00,23.00,48.39,0.00,0.00,0.00,30.11,M,10.00,M,CLR,M,M,M,M,M,M,M,M,M,M,M,M,M,M,41.00,KMEV 072115Z AUTO 00000KT 10SM CLR 05/M05 A3011 RMK AO2,M
TMT,2022-12-07 21:15,-117.1971,39.4643,1749.34,32.00,25.20,75.69,0.00,0.00,0.00,30.10,M,10.00,M,CLR,M,M,M,M,M,M,M,M,M,M,M,M,M,M,32.00,KTMT 072115Z AUTO 00000KT 10SM CLR 00/M04 A3010 RMK AO2 T00001038,M
EKO,2022-12-07 21:22,-115.7860,40.8242,1367.00,21.00,18.00,87.97,M,3.00,0.00,30.12,M,10.00,M,SCT,M,M,M,800.00,M,M,M,M,M,M,M,M,M,M,16.11,KEKO 072122Z AUTO VRB03KT 10SM SCT008 M06/M08 A3012 RMK AO2 T10611078,M
BVU,2022-12-07 21:35,-114.8611,35.9475,671.00,57.20,26.60,30.69,M,3.00,0.00,30.10,M,10.00,11.00,FEW,M,M,M,7500.00,M,M,M,M,M,M,M,M,M,M,57.20,KBVU 072135Z AUTO VRB03G11KT 10SM FEW075 14/M03 A3010 RMK AO2,M
RTS,2022-12-07 21:35,-119.8764,39.6682,1539.00,35.60,23.00,59.79,0.00,0.00,0.00,30.12,M,10.00,M,CLR,M,M,M,M,M,M,M,M,M,M,M,M,M,M,35.60,KRTS 072135Z AUTO 00000KT 10SM CLR 02/M05 A3012 RMK AO2,M
CXP,2022-12-07 21:35,-119.7326,39.1923,1431.00,41.00,21.20,44.85,0.00,0.00,0.00,30.13,M,10.00,M,CLR,M,M,M,M,M,M,M,M,M,M,M,M,M,M,41.00,KCXP 072135Z AUTO 00000KT 10SM CLR 05/M06 A3013 RMK AO2,M
05U,2022-12-07 21:35,-116.0051,39.6042,1811.23,35.60,21.20,55.41,0.00,0.00,0.00,30.08,M,10.00,M,M,M,M,M,M,M,M,M,M,M,M,M,M,M,M,35.60,K05U 072135Z AUTO 00000KT 10SM 02/M06 A3008 RMK A01,M
MEV,2022-12-07 21:35,-119.7500,38.9963,1441.42,41.00,21.20,44.85,0.00,0.00,0.00,30.11,M,10.00,M,CLR,M,M,M,M,M,M,M,M,M,M,M,M,M,M,41.00,KMEV 072135Z AUTO 00000KT 10SM CLR 05/M06 A3011 RMK AO2,M
BAM,2022-12-07 21:35,-116.8743,40.5990,1382.36,35.60,28.40,74.80,0.00,0.00,0.00,30.12,M,10.00,M,CLR,M,M,M,M,M,M,M,M,M,M,M,M,M,M,35.60,KBAM 072135Z AUTO 00000KT 10SM CLR 02/M02 A3012 RMK AO1,M
TMT,2022-12-07 21:35,-117.1971,39.4643,1749.34,33.00,22.80,65.50,0.00,0.00,0.00,30.10,M,10.00,M,CLR,M,M,M,M,M,M,M,M,M,M,M,M,M,M,33.10,KTMT 072135Z AUTO 00000KT 10SM CLR 01/M05 A3010 RMK AO2 T00061051,M
P68,2022-12-07 21:53,-116.0056,39.6014,1993.00,35.00,21.90,58.22,0.00,0.00,0.00,30.06,1019.60,M,M,M,M,M,M,M,M,M,M,M,M,M,M,M,M,M,35.10,KP68 072153Z AUTO 00000KT 02/M06 A3006 RMK AO1 SLP196 T00171056,M
DRA,2022-12-07 21:53,-116.0278,36.6206,1009.00,52.00,30.00,42.65,220.00,9.00,0.00,30.10,1018.30,10.00,M,CLR,M,M,M,M,M,M,M,M,M,M,M,M,M,M,52.00,KDRA 072153Z AUTO 22009KT 10SM CLR 11/M01 A3010 RMK AO2 SLP183 T01111011,M
LOL,2022-12-07 21:53,-118.5701,40.0684,1192.43,41.00,26.10,55.07,M,3.00,0.00,30.12,1021.90,10.00,M,CLR,M,M,M,M,M,M,M,M,M,M,M,M,M,M,38.98,KLOL 072153Z AUTO VRB03KT 10SM CLR 05/M03 A3012 RMK AO2 SLP219 T00501033,M
ELY,2022-12-07 21:53,-114.8453,39.2950,1909.00,24.10,21.00,87.76,350.00,3.00,T,30.07,1023.80,3.00,M,BKN,OVC,M,M,4400.00,5500.00,M,M,-SN BR,M,M,M,M,M,M,19.66,KELY 072153Z AUTO 35003KT 3SM -SN BR BKN044 OVC055 M04/M06 A3007 RMK AO2 SNE07B44 SLP238 P0000 T10441061,M
VGT,2022-12-07 21:53,-115.1933,36.2111,667.00,56.00,30.00,36.98,320.00,12.00,0.00,30.10,1021.10,10.00,M,FEW,FEW,BKN,M,3600.00,6500.00,11000.00,M,M,M,M,M,M,M,M,55.90,KVGT 072153Z 32012KT 10SM FEW036 FEW065 BKN110 13/M01 A3010 RMK AO2 SLP211 T01331011,M
TMT,2022-12-07 21:55,-117.1971,39.4643,1749.34,34.00,20.70,57.82,0.00,0.00,0.00,30.10,M,10.00,M,CLR,M,M,M,M,M,M,M,M,M,M,M,M,M,M,34.00,KTMT 072155Z AUTO 00000KT 10SM CLR 01/M06 A3010 RMK AO2 T00111063,M
BVU,2022-12-07 21:55,-114.8611,35.9475,671.00,59.00,24.80,26.70,210.00,11.00,0.00,30.09,M,10.00,M,FEW,FEW,M,M,7500.00,8500.00,M,M,M,M,M,M,M,M,M,59.00,KBVU 072155Z AUTO 21011KT 10SM FEW075 FEW085 15/M04 A3009 RMK AO2,M
CXP,2022-12-07 21:55,-119.7326,39.1923,1431.00,41.00,21.20,44.85,0.00,0.00,0.00,30.12,M,10.00,M,CLR,M,M,M,M,M,M,M,M,M,M,M,M,M,M,41.00,KCXP 072155Z AUTO 00000KT 10SM CLR 05/M06 A3012 RMK AO2,M
INS,2022-12-07 21:55,-115.6733,36.5872,955.00,52.50,22.80,31.09,280.00,11.00,0.00,30.10,1018.40,10.00,M,FEW,FEW,M,M,5000.00,7000.00,M,M,M,M,M,M,M,M,M,52.50,KINS 072155Z AUTO 28011KT 10SM FEW050 FEW070 11/M05 A3010 RMK AO2 SLP184 T01141051 $,M
RNO,2022-12-07 21:55,-119.7711,39.4839,1341.00,42.00,23.00,46.37,M,3.00,0.00,30.12,1020.60,10.00,M,FEW,M,M,M,5500.00,M,M,M,M,M,M,M,M,M,M,40.23,KRNO 072155Z VRB03KT 10SM FEW055 06/M05 A3012 RMK AO2 SLP206 T00561050,M
RTS,2022-12-07 21:55,-119.8764,39.6682,1539.00,37.40,23.00,55.68,0.00,0.00,0.00,30.12,M,10.00,M,CLR,M,M,M,M,M,M,M,M,M,M,M,M,M,M,37.40,KRTS 072155Z AUTO 00000KT 10SM CLR 03/M05 A3012 RMK AO2,M
05U,2022-12-07 21:55,-116.0051,39.6042,1811.23,35.60,21.20,55.41,0.00,0.00,0.00,30.09,M,10.00,M,M,M,M,M,M,M,M,M,M,M,M,M,M,M,M,35.60,K05U 072155Z AUTO 00000KT 10SM 02/M06 A3009 RMK A01,M
LSV,2022-12-07 21:55,-115.0343,36.2362,570.00,56.70,31.30,37.87,300.00,13.00,0.00,30.09,1018.90,10.00,M,FEW,M,M,M,10000.00,M,M,M,M,M,M,M,M,M,M,56.70,KLSV 072155Z AUTO 30013KT 10SM FEW100 14/M00 A3009 RMK AO2 SLP189 T01371004 $,M
MEV,2022-12-07 21:55,-119.7500,38.9963,1441.42,41.00,21.20,44.85,0.00,0.00,0.00,30.11,M,10.00,M,CLR,M,M,M,M,M,M,M,M,M,M,M,M,M,M,41.00,KMEV 072155Z AUTO 00000KT 10SM CLR 05/M06 A3011 RMK AO2,M
BAM,2022-12-07 21:55,-116.8743,40.5990,1382.36,37.40,28.40,69.67,0.00,0.00,0.00,30.12,M,10.00,M,CLR,M,M,M,M,M,M,M,M,M,M,M,M,M,M,37.40,KBAM 072155Z AUTO 00000KT 10SM CLR 03/M02 A3012 RMK AO1,M
HND,2022-12-07 21:56,-115.1344,35.9729,742.79,54.00,32.00,42.98,350.00,11.00,0.00,30.12,1022.00,10.00,M,BKN,OVC,M,M,6500.00,8500.00,M,M,M,M,M,M,M,M,M,54.00,KHND 072156Z 35011KT 10SM BKN065 OVC085 12/00 A3012 RMK AO2 SLP220 T01220000,M
TPH,2022-12-07 21:56,-117.0904,38.0505,1654.00,34.00,30.90,88.27,130.00,7.00,0.00,30.10,1020.10,10.00,M,CLR,M,M,M,M,M,M,M,M,M,M,M,M,M,M,27.22,KTPH 072156Z AUTO 13007KT 10SM CLR 01/M01 A3010 RMK AO2 SLP201 T00111006,M
NFL,2022-12-07 21:56,-118.7010,39.4166,1199.00,42.00,24.10,48.56,M,5.00,0.00,30.12,1016.60,10.00,M,FEW,M,M,M,5000.00,M,M,M,M,M,M,M,M,M,M,38.39,KNFL 072156Z VRB05KT 10SM FEW050 06/M04 A3012 RMK AO2 SLP166 T00561044,M
LAS,2022-12-07 21:56,-115.1634,36.0719,663.00,54.00,32.00,42.98,330.00,10.00,0.00,30.11,1019.40,10.00,19.00,SCT,BKN,M,M,6000.00,22000.00,M,M,M,M,M,M,M,M,M,54.00,KLAS 072156Z 33010G19KT 10SM SCT060 BKN220 12/00 A3011 RMK AO2 SLP194 VIRGA DSNT W-N CB DSNT NE T01220000,M
EKO,2022-12-07 21:56,-115.7860,40.8242,1367.00,21.90,18.00,84.68,0.00,0.00,0.00,30.11,1023.90,10.00,M,FEW,M,M,M,800.00,M,M,M,M,T,M,M,M,M,M,21.90,KEKO 072156Z AUTO 00000KT 10SM FEW008 M06/M08 A3011 RMK AO2 SLP239 I1000 T10561078,M
WMC,2022-12-07 21:56,-117.8072,40.9019,1315.00,39.00,26.10,59.52,260.00,4.00,0.00,30.10,1021.60,10.00,M,CLR,M,M,M,M,M,M,M,M,M,M,M,M,M,M,35.59,KWMC 072156Z AUTO 26004KT 10SM CLR 04/M03 A3010 RMK AO2 SLP216 T00391033,M
05U,2022-12-07 22:10,-116.0051,39.6042,1811.23,35.60,21.20,55.41,0.00,0.00,0.00,30.09,M,10.00,M,M,M,M,M,M,M,M,M,M,M,M,M,M,M,M,35.60,K05U 072210Z AUTO 00000KT 10SM 02/M06 A3009 RMK A01,M
EKO,2022-12-07 22:10,-115.7860,40.8242,1367.00,21.90,19.00,88.40,180.00,4.00,0.00,30.11,M,10.00,M,BKN,M,M,M,800.00,M,M,M,M,M,M,M,M,M,M,15.63,KEKO 072210Z AUTO 18004KT 10SM BKN008 M06/M07 A3011 RMK AO2 T10561072,M
RTS,2022-12-07 22:15,-119.8764,39.6682,1539.00,37.40,23.00,55.68,0.00,0.00,0.00,30.12,M,10.00,M,CLR,M,M,M,M,M,M,M,M,M,M,M,M,M,M,37.40,KRTS 072215Z AUTO 00000KT 10SM CLR 03/M05 A3012 RMK AO2,M
TMT,2022-12-07 22:15,-117.1971,39.4643,1749.34,35.00,21.60,57.49,0.00,0.00,0.00,30.10,M,10.00,M,CLR,M,M,M,M,M,M,M,M,M,M,M,M,M,M,35.10,KTMT 072215Z AUTO 00000KT 10SM CLR 02/M06 A3010 RMK AO2 T00171058,M
BAM,2022-12-07 22:15,-116.8743,40.5990,1382.36,37.40,28.40,69.67,0.00,0.00,0.00,30.12,M,10.00,M,CLR,M,M,M,M,M,M,M,M,M,M,M,M,M,M,37.40,KBAM 072215Z AUTO 00000KT 10SM CLR 03/M02 A3012 RMK AO1,M
MEV,2022-12-07 22:15,-119.7500,38.9963,1441.42,42.80,21.20,41.84,0.00,0.00,0.00,30.11,M,10.00,M,CLR,M,M,M,M,M,M,M,M,M,M,M,M,M,M,42.80,KMEV 072215Z AUTO 00000KT 10SM CLR 06/M06 A3011 RMK AO2,M
CXP,2022-12-07 22:15,-119.7326,39.1923,1431.00,41.00,21.20,44.85,M,M,0.00,30.13,M,10.00,M,CLR,M,M,M,M,M,M,M,M,M,M,M,M,M,M,M,KCXP 072215Z AUTO 10SM CLR 05/M06 A3013 RMK AO2,M
BVU,2022-12-07 22:15,-114.8611,35.9475,671.00,59.00,21.20,22.95,260.00,10.00,0.00,30.10,M,10.00,16.00,CLR,M,M,M,M,M,M,M,M,M,M,M,M,M,M,59.00,KBVU 072215Z AUTO 26010G16KT 10SM CLR 15/M06 A3010 RMK AO2,M
05U,2022-12-07 22:35,-116.0051,39.6042,1811.23,35.60,21.20,55.41,0.00,0.00,0.00,30.09,M,10.00,M,M,M,M,M,M,M,M,M,M,M,M,M,M,M,M,35.60,K05U 072235Z AUTO 00000KT 10SM 02/M06 A3009 RMK A01,M
TMT,2022-12-07 22:35,-117.1971,39.4643,1749.34,35.20,21.60,57.26,0.00,0.00,0.00,30.11,M,10.00,M,SCT,M,M,M,6500.00,M,M,M,M,M,M,M,M,M,M,35.20,KTMT 072235Z AUTO 00000KT 10SM SCT065 02/M06 A3011 RMK AO2 T00181058,M
CXP,2022-12-07 22:35,-119.7326,39.1923,1431.00,42.80,19.40,38.75,0.00,0.00,0.00,30.13,M,10.00,M,CLR,M,M,M,M,M,M,M,M,M,M,M,M,M,M,42.80,KCXP 072235Z AUTO 00000KT 10SM CLR 06/M07 A3013 RMK AO2,M
MEV,2022-12-07 22:35,-119.7500,38.9963,1441.42,42.80,19.40,38.75,250.00,4.00,0.00,30.11,M,10.00,M,CLR,M,M,M,M,M,M,M,M,M,M,M,M,M,M,40.03,KMEV 072235Z AUTO 25004KT 10SM CLR 06/M07 A3011 RMK AO2,M
RTS,2022-12-07 22:35,-119.8764,39.6682,1539.00,39.20,23.00,51.89,0.00,0.00,0.00,30.12,M,10.00,M,CLR,M,M,M,M,M,M,M,M,M,M,M,M,M,M,39.20,KRTS 072235Z AUTO 00000KT 10SM CLR 04/M05 A3012 RMK AO2,M
BAM,2022-12-07 22:35,-116.8743,40.5990,1382.36,37.40,28.40,69.67,0.00,0.00,0.00,30.12,M,10.00,M,CLR,M,M,M,M,M,M,M,M,M,M,M,M,M,M,37.40,KBAM 072235Z AUTO 00000KT 10SM CLR 03/M02 A3012 RMK AO1,M
BVU,2022-12-07 22:35,-114.8611,35.9475,671.00,57.20,30.20,35.57,320.00,14.00,0.00,30.10,M,10.00,M,CLR,M,M,M,M,M,M,M,M,M,M,M,M,M,M,57.20,KBVU 072235Z AUTO 32014KT 10SM CLR 14/M01 A3010 RMK AO2,M
VGT,2022-12-07 22:53,-115.1933,36.2111,667.00,56.00,28.90,35.36,320.00,6.00,0.00,30.11,1021.30,10.00,M,CLR,M,M,M,M,M,M,M,M,M,M,M,M,M,M,55.90,KVGT 072253Z AUTO 32006KT 10SM CLR 13/M02 A3011 RMK AO2 SLP213 T01331017,M
DRA,2022-12-07 22:53,-116.0278,36.6206,1009.00,50.00,28.90,43.92,200.00,6.00,0.00,30.11,1019.00,10.00,M,CLR,M,M,M,M,M,M,M,M,M,M,M,M,M,M,50.00,KDRA 072253Z AUTO 20006KT 10SM CLR 10/M02 A3011 RMK AO2 SLP190 T01001017,M
ELY,2022-12-07 22:53,-114.8453,39.2950,1909.00,25.00,21.00,84.53,0.00,0.00,T,30.08,1024.00,2.00,M,BKN,OVC,M,M,3800.00,4500.00,M,M,-SN BR,M,M,M,M,M,M,25.00,KELY 072253Z AUTO 00000KT 2SM -SN BR BKN038 OVC045 M04/M06 A3008 RMK AO2 SNE02B40 SLP240 P0000 T10391061,M
LOL,2022-12-07 22:53,-118.5701,40.0684,1192.43,41.00,26.10,55.07,220.00,6.00,0.00,30.13,1022.90,10.00,M,CLR,M,M,M,M,M,M,M,M,M,M,M,M,M,M,36.37,KLOL 072253Z AUTO 22006KT 10SM CLR 05/M03 A3013 RMK AO2 SLP229 T00501033,M
P68,2022-12-07 22:53,-116.0056,39.6014,1993.00,36.00,21.00,54.08,10.00,6.00,0.00,30.07,1019.90,M,M,M,M,M,M,M,M,M,M,M,M,M,M,M,M,M,30.35,KP68 072253Z AUTO 01006KT 02/M06 A3007 RMK AO1 SLP199 T00221061,M
TMT,2022-12-07 22:55,-117.1971,39.4643,1749.34,35.60,22.10,57.56,0.00,0.00,0.00,30.11,M,10.00,M,SCT,M,M,M,6500.00,M,M,M,M,M,M,M,M,M,M,35.60,KTMT 072255Z AUTO 00000KT 10SM SCT065 02/M05 A3011 RMK AO2 T00201055,M
BVU,2022-12-07 22:55,-114.8611,35.9475,671.00,55.40,30.20,37.97,320.00,10.00,0.00,30.11,M,10.00,M,CLR,M,M,M,M,M,M,M,M,M,M,M,M,M,M,55.40,KBVU 072255Z AUTO 32010KT 10SM CLR 13/M01 A3011 RMK AO2,M
CXP,2022-12-07 22:55,-119.7326,39.1923,1431.00,42.80,19.40,38.75,0.00,0.00,0.00,30.13,M,10.00,M,CLR,M,M,M,M,M,M,M,M,M,M,M,M,M,M,42.80,KCXP 072255Z AUTO 00000KT 10SM CLR 06/M07 A3013 RMK AO2,M
RNO,2022-12-07 22:55,-119.7711,39.4839,1341.00,43.00,23.00,44.80,0.00,0.00,0.00,30.12,1020.80,10.00,M,FEW,M,M,M,6000.00,M,M,M,M,M,M,M,M,M,M,43.00,KRNO 072255Z 00000KT 10SM FEW060 06/M05 A3012 RMK AO2 SLP208 T00611050,M
RTS,2022-12-07 22:55,-119.8764,39.6682,1539.00,37.40,24.80,60.04,230.00,5.00,0.00,30.13,M,10.00,M,CLR,M,M,M,M,M,M,M,M,M,M,M,M,M,M,32.81,KRTS 072255Z AUTO 23005KT 10SM CLR 03/M04 A3013 RMK AO2,M
INS,2022-12-07 22:55,-115.6733,36.5872,955.00,51.30,23.90,34.03,290.00,14.00,0.00,30.11,1018.80,10.00,M,CLR,M,M,M,M,M,M,M,M,M,M,M,M,M,M,51.30,KINS 072255Z AUTO 29014KT 10SM CLR 11/M04 A3011 RMK AO2 SLP188 T01071045 $,M
05U,2022-12-07 22:55,-116.0051,39.6042,1811.23,35.60,21.20,55.41,10.00,6.00,0.00,30.10,M,10.00,M,M,M,M,M,M,M,M,M,M,M,M,M,M,M,M,29.87,K05U 072255Z AUTO 01006KT 10SM 02/M06 A3010 RMK A01,M
MEV,2022-12-07 22:55,-119.7500,38.9963,1441.42,42.80,19.40,38.75,0.00,0.00,0.00,30.12,M,10.00,M,CLR,M,M,M,M,M,M,M,M,M,M,M,M,M,M,42.80,KMEV 072255Z AUTO 00000KT 10SM CLR 06/M07 A3012 RMK AO2,M
BAM,2022-12-07 22:55,-116.8743,40.5990,1382.36,37.40,26.60,64.70,0.00,0.00,0.00,30.12,M,10.00,M,CLR,M,M,M,M,M,M,M,M,M,M,M,M,M,M,37.40,KBAM 072255Z AUTO 00000KT 10SM CLR 03/M03 A3012 RMK AO1,M
LSV,2022-12-07 22:55,-115.0343,36.2362,570.00,58.30,29.30,32.96,280.00,7.00,0.00,30.09,1018.70,10.00,M,CLR,M,M,M,M,M,M,M,M,M,M,M,M,M,M,58.30,KLSV 072255Z AUTO 28007KT 10SM CLR 15/M01 A3009 RMK AO2 SLP187 T01461015 $,M
TPH,2022-12-07 22:56,-117.0904,38.0505,1654.00,33.00,30.00,88.23,120.00,5.00,0.00,30.12,1021.10,10.00,M,BKN,M,M,M,3800.00,M,M,M,M,M,M,M,M,M,M,27.70,KTPH 072256Z AUTO 12005KT 10SM BKN038 01/M01 A3012 RMK AO2 SLP211 T00061011,M
EKO,2022-12-07 22:56,-115.7860,40.8242,1367.00,21.00,18.00,87.97,230.00,4.00,0.00,30.13,1024.80,10.00,M,BKN,M,M,M,700.00,M,M,M,M,M,M,M,M,M,M,14.57,KEKO 072256Z AUTO 23004KT 10SM BKN007 M06/M08 A3013 RMK AO2 SLP248 T10611078,M
LAS,2022-12-07 22:56,-115.1634,36.0719,663.00,55.00,30.00,38.21,340.00,3.00,0.00,30.11,1019.60,10.00,M,FEW,FEW,M,M,6000.00,22000.00,M,M,M,M,M,M,M,M,M,55.00,KLAS 072256Z 34003KT 10SM FEW060 FEW220 13/M01 A3011 RMK AO2 SLP196 T01281011,M
WMC,2022-12-07 22:56,-117.8072,40.9019,1315.00,40.00,25.00,54.90,270.00,5.00,0.00,30.11,1021.60,10.00,M,CLR,M,M,M,M,M,M,M,M,M,M,M,M,M,M,35.78,KWMC 072256Z AUTO 27005KT 10SM CLR 04/M04 A3011 RMK AO2 SLP216 T00441039,M
NFL,2022-12-07 22:56,-118.7010,39.4166,1199.00,43.00,23.00,44.80,M,5.00,0.00,30.13,1016.90,10.00,M,FEW,M,M,M,5000.00,M,M,M,M,M,M,M,M,M,M,39.46,KNFL 072256Z VRB05KT 10SM FEW050 06/M05 A3013 RMK AO2 SLP169 T00611050,M
HND,2022-12-07 22:56,-115.1344,35.9729,742.79,54.00,32.00,42.98,10.00,5.00,0.00,30.13,1022.40,10.00,M,FEW,M,M,M,7000.00,M,M,M,M,M,M,M,M,M,M,54.00,KHND 072256Z 01005KT 10SM FEW070 12/00 A3013 RMK AO2 SLP224 T01220000,M
ELY,2022-12-07 23:00,-114.8453,39.2950,1909.00,25.00,21.90,85.96,0.00,0.00,T,30.08,M,1.50,M,BKN,OVC,M,M,3600.00,4300.00,M,M,-SN BR,M,M,M,M,M,M,24.80,KELY 072300Z AUTO 00000KT 1 1/2SM -SN BR BKN036 OVC043 M04/M06 A3008 RMK AO2 P0000 T10391056,M
ELY,2022-12-07 23:11,-114.8453,39.2950,1909.00,25.00,21.90,87.81,320.00,3.00,0.01,30.08,M,1.25,M,BKN,OVC,M,M,2800.00,3600.00,M,M,-SN BR,M,M,M,M,M,M,20.69,KELY 072311Z AUTO 32003KT 1 1/4SM -SN BR BKN028 OVC036 M04/M06 A3008 RMK AO2 P0001 T10391056,M
CXP,2022-12-07 23:15,-119.7326,39.1923,1431.00,42.80,17.60,35.87,220.00,4.00,0.00,30.13,M,10.00,M,CLR,M,M,M,M,M,M,M,M,M,M,M,M,M,M,40.03,KCXP 072315Z AUTO 22004KT 10SM CLR 06/M08 A3013 RMK AO2,M
BAM,2022-12-07 23:15,-116.8743,40.5990,1382.36,37.40,28.40,69.67,0.00,0.00,0.00,30.13,M,10.00,M,CLR,M,M,M,M,M,M,M,M,M,M,M,M,M,M,37.40,KBAM 072315Z AUTO 00000KT 10SM CLR 03/M02 A3013 RMK AO1,M
MEV,2022-12-07 23:15,-119.7500,38.9963,1441.42,42.80,19.40,38.75,310.00,4.00,0.00,30.12,M,10.00,M,CLR,M,M,M,M,M,M,M,M,M,M,M,M,M,M,40.03,KMEV 072315Z AUTO 31004KT 10SM CLR 06/M07 A3012 RMK AO2,M
05U,2022-12-07 23:15,-116.0051,39.6042,1811.23,33.80,21.20,59.53,10.00,4.00,0.00,30.10,M,10.00,M,M,M,M,M,M,M,M,M,M,M,M,M,M,M,M,29.52,K05U 072315Z AUTO 01004KT 10SM 01/M06 A3010 RMK A01,M
RTS,2022-12-07 23:15,-119.8764,39.6682,1539.00,39.20,23.00,51.89,M,6.00,0.00,30.14,M,10.00,M,CLR,M,M,M,M,M,M,M,M,M,M,M,M,M,M,34.20,KRTS 072315Z AUTO VRB06KT 10SM CLR 04/M05 A3014 RMK AO2,M
BVU,2022-12-07 23:15,-114.8611,35.9475,671.00,55.40,30.20,37.97,320.00,9.00,0.00,30.12,M,10.00,M,CLR,M,M,M,M,M,M,M,M,M,M,M,M,M,M,55.40,KBVU 072315Z AUTO 32009KT 10SM CLR 13/M01 A3012 RMK AO2,M
TMT,2022-12-07 23:15,-117.1971,39.4643,1749.34,35.00,21.90,58.22,0.00,0.00,0.00,30.11,M,10.00,M,CLR,M,M,M,M,M,M,M,M,M,M,M,M,M,M,35.10,KTMT 072315Z AUTO 00000KT 10SM CLR 02/M06 A3011 RMK AO2 T00171056,M
ELY,2022-12-07 23:22,-114.8453,39.2950,1909.00,25.00,21.90,85.96,0.00,0.00,0.01,30.09,M,1.25,M,SCT,OVC,M,M,2800.00,3800.00,M,M,-SN BR,M,M,M,M,M,M,24.80,KELY 072322Z AUTO 00000KT 1 1/4SM -SN BR SCT028 OVC038 M04/M06 A3009 RMK AO2 P0001 T10391056,M
ELY,2022-12-07 23:26,-114.8453,39.2950,1909.00,25.00,21.90,87.81,0.00,0.00,0.01,30.09,M,2.00,M,SCT,OVC,M,M,2800.00,3800.00,M,M,-SN BR,M,M,M,M,M,M,25.00,KELY 072326Z AUTO 00000KT 2SM -SN BR SCT028 OVC038 M04/M06 A3009 RMK AO2 P0001 T10391056,M
CXP,2022-12-07 23:35,-119.7326,39.1923,1431.00,42.80,17.60,35.87,M,4.00,0.00,30.14,M,10.00,14.00,CLR,M,M,M,M,M,M,M,M,M,M,M,M,M,M,40.03,KCXP 072335Z AUTO VRB04G14KT 10SM CLR 06/M08 A3014 RMK AO2,M
BVU,2022-12-07 23:35,-114.8611,35.9475,671.00,55.40,30.20,37.97,320.00,6.00,0.00,30.12,M,10.00,M,CLR,M,M,M,M,M,M,M,M,M,M,M,M,M,M,55.40,KBVU 072335Z AUTO 32006KT 10SM CLR 13/M01 A3012 RMK AO2,M
BAM,2022-12-07 23:35,-116.8743,40.5990,1382.36,37.40,26.60,64.70,0.00,0.00,0.00,30.13,M,10.00,M,CLR,M,M,M,M,M,M,M,M,M,M,M,M,M,M,37.40,KBAM 072335Z AUTO 00000KT 10SM CLR 03/M03 A3013 RMK AO1,M
RTS,2022-12-07 23:35,-119.8764,39.6682,1539.00,37.40,21.20,51.61,0.00,0.00,0.00,30.14,M,10.00,M,CLR,M,M,M,M,M,M,M,M,M,M,M,M,M,M,37.40,KRTS 072335Z AUTO 00000KT 10SM CLR 03/M06 A3014 RMK AO2,M
TMT,2022-12-07 23:35,-117.1971,39.4643,1749.34,35.00,21.70,58.19,0.00,0.00,0.00,30.12,M,10.00,M,CLR,M,M,M,M,M,M,M,M,M,M,M,M,M,M,34.90,KTMT 072335Z AUTO 00000KT 10SM CLR 02/M06 A3012 RMK AO2 T00161057,M
ELY,2022-12-07 23:35,-114.8453,39.2950,1909.00,24.10,21.90,91.17,0.00,0.00,0.01,30.09,M,8.00,M,SCT,OVC,M,M,2700.00,4000.00,M,M,M,M,M,M,M,M,M,24.10,KELY 072335Z AUTO 00000KT 8SM SCT027 OVC040 M04/M06 A3009 RMK AO2 SNE32 P0001 T10441056,M
05U,2022-12-07 23:35,-116.0051,39.6042,1811.23,33.80,21.20,59.53,350.00,5.00,0.00,30.11,M,10.00,M,M,M,M,M,M,M,M,M,M,M,M,M,M,M,M,28.53,K05U 072335Z AUTO 35005KT 10SM 01/M06 A3011 RMK A01,M
MEV,2022-12-07 23:35,-119.7500,38.9963,1441.42,42.80,19.40,38.75,230.00,8.00,0.00,30.13,M,10.00,16.00,FEW,M,M,M,5500.00,M,M,M,M,M,M,M,M,M,M,37.42,KMEV 072335Z AUTO 23008G16KT 10SM FEW055 06/M07 A3013 RMK AO2,M
EKO,2022-12-07 23:45,-115.7860,40.8242,1367.00,21.00,19.00,91.83,M,3.00,0.00,30.14,M,10.00,M,OVC,M,M,M,400.00,M,M,M,M,M,M,M,M,M,M,16.11,KEKO 072345Z AUTO VRB03KT 10SM OVC004 M06/M07 A3014 RMK AO2 T10611072,M
VGT,2022-12-07 23:53,-115.1933,36.2111,667.00,56.00,30.90,38.36,320.00,5.00,0.00,30.12,1021.90,10.00,M,CLR,M,M,M,M,M,M,M,M,M,M,M,M,M,M,55.90,KVGT 072353Z AUTO 32005KT 10SM CLR 13/M01 A3012 RMK AO2 SLP219 T01331006 10144 20111 53008,M
ELY,2022-12-07 23:53,-114.8453,39.2950,1909.00,24.10,21.00,87.76,0.00,0.00,0.01,30.10,1024.80,10.00,M,SCT,OVC,M,M,2500.00,4000.00,M,M,M,M,M,M,M,M,M,24.10,KELY 072353Z AUTO 00000KT 10SM SCT025 OVC040 M04/M06 A3010 RMK AO2 SNE32 SLP248 P0001 60001 T10441061 11028 21072 53008,M
P68,2022-12-07 23:53,-116.0056,39.6014,1993.00,33.00,21.90,63.06,360.00,4.00,0.00,30.09,1021.30,M,M,M,M,M,M,M,M,M,M,M,M,M,M,M,M,M,28.70,KP68 072353Z AUTO 36004KT 01/M06 A3009 RMK AO1 SLP213 T00061056 10028 21028 53008,M
LOL,2022-12-07 23:53,-118.5701,40.0684,1192.43,40.00,27.00,59.65,190.00,5.00,0.00,30.14,1023.20,10.00,M,CLR,M,M,M,M,M,M,M,M,M,M,M,M,M,M,35.78,KLOL 072353Z AUTO 19005KT 10SM CLR 04/M03 A3014 RMK AO2 SLP232 T00441028 10050 21028 53002,M
DRA,2022-12-07 23:53,-116.0278,36.6206,1009.00,49.00,27.00,42.32,250.00,7.00,0.00,30.13,1019.60,10.00,M,FEW,M,M,M,6000.00,M,M,M,M,M,M,M,M,M,M,45.38,KDRA 072353Z AUTO 25007KT 10SM FEW060 09/M03 A3013 RMK AO2 SLP196 T00941028 10111 20067 53007,M
TMT,2022-12-07 23:55,-117.1971,39.4643,1749.34,33.40,21.60,61.53,0.00,0.00,0.00,30.12,M,10.00,M,SCT,M,M,M,4800.00,M,M,M,M,M,M,M,M,M,M,33.40,KTMT 072355Z AUTO 00000KT 10SM SCT048 01/M06 A3012 RMK AO2 T00081058 10021 21047,M
MEV,2022-12-07 23:55,-119.7500,38.9963,1441.42,41.00,19.40,41.54,250.00,7.00,0.00,30.13,M,10.00,M,CLR,M,M,M,M,M,M,M,M,M,M,M,M,M,M,35.75,KMEV 072355Z AUTO 25007KT 10SM CLR 05/M07 A3013 RMK AO2,M
LSV,2022-12-07 23:55,-115.0343,36.2362,570.00,57.60,30.70,35.78,280.00,3.00,0.00,30.11,1019.60,10.00,M,CLR,M,M,M,M,M,M,M,M,M,M,M,M,M,M,57.60,KLSV 072355Z AUTO 28003KT 10SM CLR 14/M01 A3011 RMK AO2 SLP196 T01421007 10183 20136 52009 $,M
BAM,2022-12-07 23:55,-116.8743,40.5990,1382.36,37.40,26.60,64.70,0.00,0.00,0.00,30.13,M,10.00,M,CLR,M,M,M,M,M,M,M,M,M,M,M,M,M,M,37.40,KBAM 072355Z AUTO 00000KT 10SM CLR 03/M03 A3013 RMK AO1,M
05U,2022-12-07 23:55,-116.0051,39.6042,1811.23,32.00,21.20,63.99,360.00,3.00,0.00,30.12,M,10.00,M,M,M,M,M,M,M,M,M,M,M,M,M,M,M,M,28.69,K05U 072355Z AUTO 36003KT 10SM 00/M06 A3012 RMK A01,M
INS,2022-12-07 23:55,-115.6733,36.5872,955.00,49.60,24.40,37.01,270.00,9.00,0.00,30.12,1019.30,10.00,M,CLR,M,M,M,M,M,M,M,M,M,M,M,M,M,M,45.40,KINS 072355Z AUTO 27009KT 10SM CLR 10/M04 A3012 RMK AO2 SLP193 T00981042 10115 20058 53006 $,M
BVU,2022-12-07 23:55,-114.8611,35.9475,671.00,55.40,30.20,37.97,330.00,5.00,0.00,30.13,M,10.00,M,CLR,M,M,M,M,M,M,M,M,M,M,M,M,M,M,55.40,KBVU 072355Z AUTO 33005KT 10SM CLR 13/M01 A3013 RMK AO2,M
CXP,2022-12-07 23:55,-119.7326,39.1923,1431.00,41.00,17.60,38.45,240.00,5.00,0.00,30.14,M,10.00,14.00,CLR,M,M,M,M,M,M,M,M,M,M,M,M,M,M,37.08,KCXP 072355Z AUTO 24005G14KT 10SM CLR 05/M08 A3014 RMK AO2,M
RNO,2022-12-07 23:55,-119.7711,39.4839,1341.00,44.00,21.00,39.47,M,3.00,0.00,30.13,1020.70,10.00,M,FEW,M,M,M,5500.00,M,M,M,M,M,M,M,M,M,M,42.52,KRNO 072355Z VRB03KT 10SM FEW055 07/M06 A3013 RMK AO2 SLP207 T00671061 10072 21006 53001,M
RTS,2022-12-07 23:55,-119.8764,39.6682,1539.00,37.40,23.00,55.68,0.00,0.00,0.00,30.14,M,10.00,M,CLR,M,M,M,M,M,M,M,M,M,M,M,M,M,M,37.40,KRTS 072355Z AUTO 00000KT 10SM CLR 03/M05 A3014 RMK AO2,M
HND,2022-12-07 23:56,-115.1344,35.9729,742.79,53.00,30.90,42.48,0.00,0.00,0.00,30.15,1023.00,10.00,M,CLR,M,M,M,M,M,M,M,M,M,M,M,M,M,M,53.10,KHND 072356Z 00000KT 10SM CLR 12/M01 A3015 RMK AO2 SLP230 T01171006 10139 20100 53012,M
NFL,2022-12-07 23:56,-118.7010,39.4166,1199.00,43.00,23.00,44.80,M,5.00,0.00,30.14,1017.10,10.00,M,FEW,M,M,M,5000.00,M,M,M,M,M,M,M,M,M,M,39.46,KNFL 072356Z VRB05KT 10SM FEW050 06/M05 A3014 RMK AO2 SLP171 T00611050 10067 20006 53002,M
WMC,2022-12-07 23:56,-117.8072,40.9019,1315.00,38.00,25.00,59.36,270.00,4.00,0.00,30.13,1022.60,10.00,M,CLR,M,M,M,M,M,M,M,M,M,M,M,M,M,M,34.31,KWMC 072356Z AUTO 27004KT 10SM CLR 03/M04 A3013 RMK AO2 SLP226 T00331039 10044 21028 53004,M
EKO,2022-12-07 23:56,-115.7860,40.8242,1367.00,21.00,19.00,91.83,0.00,0.00,0.00,30.14,1025.20,10.00,M,OVC,M,M,M,400.00,M,M,M,M,M,M,0.02,M,M,M,21.00,KEKO 072356Z AUTO 00000KT 10SM OVC004 M06/M07 A3014 RMK AO2 CIG 002V006 SLP252 I6002 T10611072 11056 21083 53003,M
TPH,2022-12-07 23:56,-117.0904,38.0505,1654.00,32.00,28.90,88.17,150.00,4.00,0.00,30.14,1022.00,10.00,M,CLR,M,M,M,M,M,M,M,M,M,M,M,M,M,M,27.42,KTPH 072356Z AUTO 15004KT 10SM CLR 00/M02 A3014 RMK AO2 SLP220 60000 T00001017 10033 21011 53010,M
LAS,2022-12-07 23:56,-115.1634,36.0719,663.00,55.00,30.00,38.21,0.00,0.00,0.00,30.13,1020.10,10.00,M,FEW,FEW,M,M,6000.00,22000.00,M,M,M,M,M,M,M,M,M,55.00,KLAS 072356Z 00000KT 10SM FEW060 FEW220 13/M01 A3013 RMK AO2 SLP201 T01281011 10139 20106 53010,M
