station,valid,lon,lat,elevation,tmpf,dwpf,relh,drct,sknt,p01i,alti,mslp,vsby,gust,skyc1,skyc2,skyc3,skyc4,skyl1,skyl2,skyl3,skyl4,wxcodes,ice_accretion_1hr,ice_accretion_3hr,ice_accretion_6hr,peak_wind_gust,peak_wind_drct,peak_wind_time,feel,metar,snowdepth
P68,2022-09-08 00:14,-116.0056,39.6014,1993.00,89.00,30.90,12.48,310.00,13.00,0.00,30.27,M,M,24.00,M,M,M,M,M,M,M,M,M,M,M,M,M,M,M,85.04,KP68 080014Z AUTO 31013G24KT 32/M01 A3027 RMK AO1 WSHFT 2357 T03171006,M
BVU,2022-09-08 00:15,-114.8611,35.9475,671.00,104.00,51.80,17.74,170.00,8.00,0.00,29.93,M,M,M,M,M,M,M,M,M,M,M,M,M,M,M,M,M,M,101.69,KBVU 080015Z AUTO 17008KT 40/11 A2993 RMK AO2 TSNO,M
HTH,2022-09-08 00:15,-118.6315,38.5448,1282.89,95.00,35.60,12.53,260.00,17.00,0.00,30.11,M,10.00,M,CLR,M,M,M,M,M,M,M,M,M,M,M,M,M,M,90.25,KHTH 080015Z AUTO 26017KT 10SM CLR 35/02 A3011 RMK A01,M
05U,2022-09-08 00:15,-116.0051,39.6042,1811.23,89.60,30.20,11.94,310.00,11.00,0.00,30.29,M,10.00,19.00,CLR,M,M,M,M,M,M,M,M,M,M,M,M,M,M,85.34,K05U 080015Z AUTO 31011G19KT 10SM CLR 32/M01 A3029 RMK A01,M
MEV,2022-09-08 00:15,-119.7500,38.9963,1441.42,95.00,39.20,14.44,280.00,12.00,0.00,30.16,M,10.00,M,CLR,M,M,M,M,M,M,M,M,M,M,M,M,M,M,90.57,KMEV 080015Z AUTO 28012KT 10SM CLR 35/04 A3016 RMK AO2,M
BAM,2022-09-08 00:15,-116.8743,40.5990,1382.36,96.80,33.80,11.04,160.00,9.00,0.00,30.12,M,10.00,M,CLR,M,M,M,M,M,M,M,M,M,M,M,M,M,M,91.44,KBAM 080015Z AUTO 16009KT 10SM CLR 36/01 A3012 RMK AO1,M
CXP,2022-09-08 00:15,-119.7326,39.1923,1431.00,96.80,37.40,12.73,260.00,12.00,0.00,30.16,M,10.00,18.00,CLR,M,M,M,M,M,M,M,M,M,M,M,M,M,M,92.04,KCXP 080015Z AUTO 26012G18KT 10SM CLR 36/03 A3016 RMK AO2,M
RTS,2022-09-08 00:15,-119.8764,39.6682,1539.00,89.60,41.00,18.33,290.00,18.00,0.00,30.21,M,10.00,M,CLR,M,M,M,M,M,M,M,M,M,M,M,M,M,M,85.82,KRTS 080015Z AUTO 29018KT 10SM CLR 32/05 A3021 RMK AO2,M
TMT,2022-09-08 00:15,-117.1971,39.4643,1749.34,M,M,M,120.00,11.00,0.00,30.26,M,10.00,15.00,CLR,M,M,M,M,M,M,M,M,M,M,M,M,M,M,M,KTMT 080015Z AUTO 12011G15KT 10SM CLR A3026 RMK AO2,M
TPH,2022-09-08 00:29,-117.0904,38.0505,1654.00,92.00,36.00,14.02,200.00,22.00,0.00,30.22,M,10.00,44.00,CLR,M,M,M,M,M,M,M,M,M,M,M,44.00,190.00,2022-09-08 00:25,87.62,KTPH 080029Z AUTO 20022G44KT 10SM CLR 33/02 A3022 RMK AO2 PK WND 19044/0025 WSHFT 0009 LTG DSNT SW T03330022,M
05U,2022-09-08 00:30,-116.0051,39.6042,1811.23,87.80,30.20,12.64,280.00,9.00,0.00,30.30,M,10.00,M,CLR,M,M,M,M,M,M,M,M,M,M,M,M,M,M,84.01,K05U 080030Z AUTO 28009KT 240V320 10SM CLR 31/M01 A3030 RMK A01,M
HTH,2022-09-08 00:35,-118.6315,38.5448,1282.89,93.20,33.80,12.34,250.00,13.00,0.00,30.13,M,10.00,21.00,CLR,M,M,M,M,M,M,M,M,M,M,M,M,M,M,88.55,KHTH 080035Z AUTO 25013G21KT 10SM CLR 34/01 A3013 RMK A01,M
BVU,2022-09-08 00:35,-114.8611,35.9475,671.00,104.00,51.80,17.74,150.00,9.00,0.00,29.93,M,M,M,M,M,M,M,M,M,M,M,M,M,M,M,M,M,M,101.69,KBVU 080035Z AUTO 15009KT 40/11 A2993 RMK AO2 TSNO,M
CXP,2022-09-08 00:35,-119.7326,39.1923,1431.00,95.00,35.60,12.53,260.00,11.00,0.00,30.16,M,10.00,20.00,CLR,M,M,M,M,M,M,M,M,M,M,M,M,M,M,90.25,KCXP 080035Z AUTO 26011G20KT 10SM CLR 35/02 A3016 RMK AO2,M
RTS,2022-09-08 00:35,-119.8764,39.6682,1539.00,87.80,41.00,19.40,290.00,13.00,0.00,30.21,M,10.00,19.00,CLR,M,M,M,M,M,M,M,M,M,M,M,M,M,M,84.30,KRTS 080035Z AUTO 29013G19KT 10SM CLR 31/05 A3021 RMK AO2,M
MEV,2022-09-08 00:35,-119.7500,38.9963,1441.42,93.20,39.20,15.27,280.00,12.00,0.00,30.16,M,10.00,M,CLR,M,M,M,M,M,M,M,M,M,M,M,M,M,M,88.92,KMEV 080035Z AUTO 28012KT 10SM CLR 34/04 A3016 RMK AO2,M
BAM,2022-09-08 00:35,-116.8743,40.5990,1382.36,95.00,42.80,16.60,320.00,20.00,0.00,30.13,M,7.00,27.00,SCT,SCT,SCT,M,4000.00,5500.00,9500.00,M,M,M,M,M,M,M,M,90.86,KBAM 080035Z AUTO 32020G27KT 7SM SCT040 SCT055 SCT095 35/06 A3013 RMK AO1,M
TMT,2022-09-08 00:35,-117.1971,39.4643,1749.34,M,M,M,150.00,5.00,0.00,30.26,M,10.00,M,CLR,M,M,M,M,M,M,M,M,M,M,M,M,M,M,M,KTMT 080035Z AUTO 15005KT 10SM CLR A3026 RMK AO2,M
INS,2022-09-08 00:48,-115.6733,36.5872,955.00,104.00,41.00,11.79,170.00,11.00,0.00,29.97,1009.30,10.00,M,CLR,M,M,M,M,M,M,M,M,M,M,M,M,M,M,98.97,KINS 080048Z AUTO 17011KT 10SM CLR 40/05 A2997 RMK AO2 WSHFT 41 SLP093 $,M
LOL,2022-09-08 00:53,-118.5701,40.0684,1192.43,100.00,32.00,9.32,210.00,9.00,0.00,30.04,1012.00,10.00,M,CLR,M,M,M,M,M,M,M,M,M,M,M,M,M,M,93.87,KLOL 080053Z AUTO 21009KT 10SM CLR 38/00 A3004 RMK AO2 SLP120 T03780000,M
VGT,2022-09-08 00:53,-115.1933,36.2111,667.00,107.00,51.00,15.77,140.00,7.00,0.00,29.90,1010.80,10.00,M,CLR,M,M,M,M,M,M,M,M,M,M,M,M,M,M,104.67,KVGT 080053Z 14007KT 10SM CLR 42/11 A2990 RMK AO2 SLP108 T04170106,M
P68,2022-09-08 00:53,-116.0056,39.6014,1993.00,87.00,32.00,13.90,310.00,7.00,0.00,30.27,1015.90,M,M,M,M,M,M,M,M,M,M,M,M,M,M,M,M,M,83.51,KP68 080053Z AUTO 31007KT 31/00 A3027 RMK AO1 WSHFT 2357 SLP159 T03060000,M
DRA,2022-09-08 00:53,-116.0278,36.6206,1009.00,103.00,40.00,11.68,230.00,11.00,0.00,29.99,1009.60,10.00,M,CLR,M,M,M,M,M,M,M,M,M,M,M,M,M,M,97.75,KDRA 080053Z AUTO 23011KT 10SM CLR 39/04 A2999 RMK AO2 SLP096 T03940044,M
BVU,2022-09-08 00:55,-114.8611,35.9475,671.00,104.00,51.80,17.74,170.00,8.00,0.00,29.92,M,M,M,M,M,M,M,M,M,M,M,M,M,M,M,M,M,M,101.69,KBVU 080055Z AUTO 17008KT 40/11 A2992 RMK AO2 TSNO,M
RNO,2022-09-08 00:55,-119.7711,39.4839,1341.00,96.00,43.00,16.17,310.00,10.00,0.00,30.13,1013.70,10.00,18.00,FEW,M,M,M,15000.00,M,M,M,M,M,M,M,M,M,M,91.93,KRNO 080055Z 31010G18KT 10SM FEW150 36/06 A3013 RMK AO2 SLP137 FU ALQDS T03560061,M
HTH,2022-09-08 00:55,-118.6315,38.5448,1282.89,93.20,35.60,13.25,270.00,7.00,0.00,30.13,M,10.00,13.00,CLR,M,M,M,M,M,M,M,M,M,M,M,M,M,M,88.76,KHTH 080055Z AUTO 27007G13KT 10SM CLR 34/02 A3013 RMK A01,M
RTS,2022-09-08 00:55,-119.8764,39.6682,1539.00,87.80,41.00,19.40,280.00,11.00,0.00,30.22,M,10.00,19.00,CLR,M,M,M,M,M,M,M,M,M,M,M,M,M,M,84.30,KRTS 080055Z AUTO 28011G19KT 10SM CLR 31/05 A3022 RMK AO2,M
TMT,2022-09-08 00:55,-117.1971,39.4643,1749.34,M,M,M,210.00,5.00,0.00,30.25,M,10.00,M,CLR,M,M,M,M,M,M,M,M,M,M,M,M,M,M,M,KTMT 080055Z AUTO 21005KT 10SM CLR A3025 RMK AO2,M
05U,2022-09-08 00:55,-116.0051,39.6042,1811.23,87.80,32.00,13.59,300.00,3.00,0.00,30.30,M,10.00,M,CLR,M,M,M,M,M,M,M,M,M,M,M,M,M,M,84.08,K05U 080055Z AUTO 30003KT 10SM CLR 31/M00 A3030 RMK A01,M
CXP,2022-09-08 00:55,-119.7326,39.1923,1431.00,95.00,35.60,12.53,260.00,9.00,0.00,30.16,M,10.00,17.00,CLR,M,M,M,M,M,M,M,M,M,M,M,M,M,M,90.25,KCXP 080055Z AUTO 26009G17KT 10SM CLR 35/02 A3016 RMK AO2,M
MEV,2022-09-08 00:55,-119.7500,38.9963,1441.42,93.20,41.00,16.37,280.00,10.00,0.00,30.16,M,10.00,15.00,CLR,M,M,M,M,M,M,M,M,M,M,M,M,M,M,89.03,KMEV 080055Z AUTO 28010G15KT 10SM CLR 34/05 A3016 RMK AO2,M
BAM,2022-09-08 00:55,-116.8743,40.5990,1382.36,89.60,46.40,22.53,30.00,7.00,0.00,30.12,M,10.00,M,SCT,SCT,SCT,M,3800.00,4900.00,9500.00,M,M,M,M,M,M,M,M,86.24,KBAM 080055Z AUTO 03007KT 10SM SCT038 SCT049 SCT095 32/08 A3012 RMK AO1,M
NFL,2022-09-08 00:56,-118.7010,39.4166,1199.00,100.00,26.10,7.32,280.00,14.00,0.00,30.07,1015.10,10.00,24.00,SCT,BKN,BKN,M,8000.00,12000.00,25000.00,M,M,M,M,M,M,M,M,93.19,KNFL 080056Z 28014G24KT 10SM SCT080 BKN120 BKN250 38/M03 A3007 RMK AO2 SLP151 CB DSNT SE AND W T03781033,M
INS,2022-09-08 00:56,-115.6733,36.5872,955.00,102.60,42.30,12.93,200.00,5.00,0.00,29.98,1009.70,10.00,M,CLR,M,M,M,M,M,M,M,M,M,M,M,M,M,M,98.05,KINS 080056Z AUTO 20005KT 10SM CLR 39/06 A2998 RMK AO2 SLP097 T03920057 $,M
LSV,2022-09-08 00:56,-115.0343,36.2362,570.00,107.00,52.70,16.83,180.00,9.00,0.00,29.87,M,10.00,M,CLR,M,M,M,M,M,M,M,M,M,M,M,M,M,M,105.04,KLSV 080056Z AUTO 18009KT 10SM CLR 42/12 A2987 RMK AO2 SLPNO T04160115 $,M
EKO,2022-09-08 00:56,-115.7860,40.8242,1367.00,92.00,34.00,12.95,350.00,15.00,0.00,30.19,1015.50,10.00,26.00,SCT,M,M,M,11000.00,M,M,M,M,M,M,M,26.00,340.00,2022-09-08 00:54,87.56,KEKO 080056Z AUTO 35015G26KT 10SM SCT110 33/01 A3019 RMK AO2 PK WND 34026/0054 SLP155 T03330011,M
WMC,2022-09-08 00:56,-117.8072,40.9019,1315.00,97.00,32.00,10.21,260.00,8.00,0.00,30.07,1012.50,10.00,M,CLR,M,M,M,M,M,M,M,M,M,M,M,M,M,M,91.35,KWMC 080056Z AUTO 26008KT 10SM CLR 36/00 A3007 RMK AO2 SLP125 T03610000,M
TPH,2022-09-08 00:56,-117.0904,38.0505,1654.00,92.00,28.90,10.54,150.00,19.00,0.00,30.20,1014.30,10.00,34.00,FEW,M,M,M,12000.00,M,M,M,M,M,M,M,44.00,190.00,2022-09-08 00:25,86.95,KTPH 080056Z AUTO 15019G34KT 10SM FEW120 33/M02 A3020 RMK AO2 PK WND 19044/0025 WSHFT 0009 LTG DSNT SE-SW SLP143 T03331017,M
LAS,2022-09-08 00:56,-115.1634,36.0719,663.00,105.00,53.00,18.01,190.00,6.00,0.00,29.91,1009.60,10.00,M,FEW,FEW,SCT,M,12000.00,15000.00,22000.00,M,M,M,M,M,M,M,M,103.30,KLAS 080056Z 19006KT 10SM FEW120 FEW150 SCT220 41/12 A2991 RMK AO2 SLP096 T04060117,M
NFL,2022-09-08 01:05,-118.7010,39.4166,1199.00,96.00,36.00,12.31,300.00,20.00,0.00,30.07,M,8.00,25.00,SCT,BKN,BKN,M,8000.00,12000.00,25000.00,M,M,M,M,M,M,M,M,91.21,KNFL 080105Z 30020G25KT 8SM SCT080 BKN120 BKN250 36/02 A3007 RMK AO2 WSHFT 0045 T03560022,M
TPH,2022-09-08 01:13,-117.0904,38.0505,1654.00,92.00,28.90,10.54,110.00,16.00,0.00,30.21,M,10.00,31.00,CLR,M,M,M,M,M,M,M,VCTS,M,M,M,37.00,140.00,2022-09-08 01:02,86.95,KTPH 080113Z AUTO 11016G31KT 10SM VCTS CLR 33/M02 A3021 RMK AO2 PK WND 14037/0102 LTG DSNT S AND SW T03331017,M
BAM,2022-09-08 01:15,-116.8743,40.5990,1382.36,91.40,46.40,21.29,140.00,3.00,0.00,30.13,M,10.00,M,CLR,M,M,M,M,M,M,M,M,M,M,M,M,M,M,87.86,KBAM 080115Z AUTO 14003KT 10SM CLR 33/08 A3013 RMK AO1,M
HTH,2022-09-08 01:15,-118.6315,38.5448,1282.89,93.20,35.60,13.25,M,3.00,0.00,30.14,M,10.00,12.00,CLR,M,M,M,M,M,M,M,M,M,M,M,M,M,M,88.76,KHTH 080115Z AUTO VRB03G12KT 10SM CLR 34/02 A3014 RMK A01,M
TMT,2022-09-08 01:15,-117.1971,39.4643,1749.34,M,M,M,230.00,5.00,0.00,30.25,M,10.00,M,CLR,M,M,M,M,M,M,M,M,M,M,M,M,M,M,M,KTMT 080115Z AUTO 23005KT 10SM CLR A3025 RMK AO2,M
MEV,2022-09-08 01:15,-119.7500,38.9963,1441.42,91.40,39.20,16.15,270.00,12.00,0.00,30.16,M,10.00,M,CLR,M,M,M,M,M,M,M,M,M,M,M,M,M,M,87.30,KMEV 080115Z AUTO 27012KT 10SM CLR 33/04 A3016 RMK AO2,M
05U,2022-09-08 01:15,-116.0051,39.6042,1811.23,86.00,32.00,14.40,0.00,0.00,0.00,30.30,M,10.00,M,CLR,M,M,M,M,M,M,M,M,M,M,M,M,M,M,82.64,K05U 080115Z AUTO 00000KT 10SM CLR 30/M00 A3030 RMK A01,M
RTS,2022-09-08 01:15,-119.8764,39.6682,1539.00,86.00,39.20,19.15,290.00,12.00,0.00,30.22,M,10.00,17.00,CLR,M,M,M,M,M,M,M,M,M,M,M,M,M,M,82.79,KRTS 080115Z AUTO 29012G17KT 10SM CLR 30/04 A3022 RMK AO2,M
CXP,2022-09-08 01:15,-119.7326,39.1923,1431.00,93.20,39.20,15.27,270.00,9.00,0.00,30.17,M,5.00,18.00,CLR,M,M,M,M,M,M,M,HZ,M,M,M,M,M,M,88.92,KCXP 080115Z AUTO 27009G18KT 5SM HZ CLR 34/04 A3017 RMK AO2,M
BVU,2022-09-08 01:15,-114.8611,35.9475,671.00,102.20,51.80,18.72,150.00,11.00,0.00,29.92,M,M,M,M,M,M,M,M,M,M,M,M,M,M,M,M,M,M,99.80,KBVU 080115Z AUTO 15011KT 39/11 A2992 RMK AO2 TSNO,M
TPH,2022-09-08 01:28,-117.0904,38.0505,1654.00,92.00,30.90,11.43,130.00,12.00,0.00,30.22,M,10.00,M,CLR,M,M,M,M,M,M,M,M,M,M,M,37.00,140.00,2022-09-08 01:02,87.17,KTPH 080128Z AUTO 13012KT 10SM CLR 33/M01 A3022 RMK AO2 PK WND 14037/0102 LTG DSNT S AND SW T03331006,M
HTH,2022-09-08 01:35,-118.6315,38.5448,1282.89,91.40,35.60,14.02,290.00,23.00,0.00,30.12,M,10.00,30.00,CLR,M,M,M,M,M,M,M,M,M,M,M,M,M,M,87.17,KHTH 080135Z AUTO 29023G30KT 10SM CLR 33/02 A3012 RMK A01,M
CXP,2022-09-08 01:35,-119.7326,39.1923,1431.00,91.40,39.20,16.15,250.00,9.00,0.00,30.17,M,6.00,16.00,CLR,M,M,M,M,M,M,M,HZ,M,M,M,M,M,M,87.30,KCXP 080135Z AUTO 25009G16KT 230V290 6SM HZ CLR 33/04 A3017 RMK AO2,M
TMT,2022-09-08 01:35,-117.1971,39.4643,1749.34,M,M,M,260.00,6.00,0.00,30.26,M,10.00,M,CLR,M,M,M,M,M,M,M,M,M,M,M,M,M,M,M,KTMT 080135Z AUTO 26006KT 10SM CLR A3026 RMK AO2,M
BAM,2022-09-08 01:35,-116.8743,40.5990,1382.36,91.40,42.80,18.56,140.00,5.00,0.00,30.13,M,10.00,M,SCT,M,M,M,11000.00,M,M,M,M,M,M,M,M,M,M,87.52,KBAM 080135Z AUTO 14005KT 10SM SCT110 33/06 A3013 RMK AO1,M
BVU,2022-09-08 01:35,-114.8611,35.9475,671.00,100.40,53.60,21.11,160.00,12.00,0.00,29.92,M,M,M,M,M,M,M,M,M,M,M,M,M,M,M,M,M,M,98.44,KBVU 080135Z AUTO 16012KT 38/12 A2992 RMK AO2 TSNO,M
RTS,2022-09-08 01:35,-119.8764,39.6682,1539.00,84.20,39.20,20.29,270.00,9.00,0.00,30.22,M,10.00,M,CLR,M,M,M,M,M,M,M,M,M,M,M,M,M,M,81.44,KRTS 080135Z AUTO 27009KT 10SM CLR 29/04 A3022 RMK AO2,M
05U,2022-09-08 01:35,-116.0051,39.6042,1811.23,82.40,33.80,17.38,M,M,0.00,30.29,M,10.00,M,CLR,M,M,M,M,M,M,M,M,M,M,M,M,M,M,80.03,K05U 080135Z AUTO 10SM CLR 28/01 A3029 RMK A01,M
MEV,2022-09-08 01:35,-119.7500,38.9963,1441.42,89.60,39.20,17.09,280.00,11.00,0.00,30.16,M,7.00,19.00,CLR,M,M,M,M,M,M,M,M,M,M,M,M,M,M,85.73,KMEV 080135Z AUTO 28011G19KT 7SM CLR 32/04 A3016 RMK AO2,M
TPH,2022-09-08 01:49,-117.0904,38.0505,1654.00,90.00,35.00,14.36,160.00,15.00,0.00,30.23,M,10.00,20.00,CLR,M,M,M,M,M,M,M,VCTS,M,M,M,37.00,140.00,2022-09-08 01:02,85.95,KTPH 080149Z AUTO 16015G20KT 10SM VCTS CLR 32/02 A3023 RMK AO2 PK WND 14037/0102 LTG DSNT S AND SW T03220017,M
ELY,2022-09-08 01:53,-114.8453,39.2950,1909.00,80.00,34.00,18.88,0.00,0.00,0.00,30.29,1015.30,10.00,M,CLR,M,M,M,M,M,M,M,M,M,M,M,M,M,M,78.70,KELY 080153Z AUTO 00000KT 10SM CLR 27/01 A3029 RMK AO2 SLP153 T02670011,M
LOL,2022-09-08 01:53,-118.5701,40.0684,1192.43,92.00,42.00,17.79,160.00,13.00,T,30.07,1013.60,10.00,M,FEW,SCT,M,M,10000.00,12000.00,M,M,-RA,M,M,M,41.00,200.00,2022-09-08 01:33,87.92,KLOL 080153Z AUTO 16013KT 10SM -RA FEW100 SCT120 33/06 A3007 RMK AO2 PK WND 20041/0133 RAB31 SLP136 P0000 T03330056,M
P68,2022-09-08 01:53,-116.0056,39.6014,1993.00,81.00,34.00,18.33,0.00,0.00,0.00,30.26,1016.30,M,M,M,M,M,M,M,M,M,M,M,M,M,M,M,M,M,79.13,KP68 080153Z AUTO 00000KT 27/01 A3026 RMK AO1 SLP163 T02720011,M
DRA,2022-09-08 01:53,-116.0278,36.6206,1009.00,99.00,43.00,14.80,220.00,12.00,0.00,30.00,1010.20,10.00,17.00,CLR,M,M,M,M,M,M,M,M,M,M,M,M,M,M,94.72,KDRA 080153Z AUTO 22012G17KT 10SM CLR 37/06 A3000 RMK AO2 SLP102 T03720061,M
VGT,2022-09-08 01:53,-115.1933,36.2111,667.00,105.00,53.00,18.01,140.00,8.00,0.00,29.90,1010.80,10.00,M,CLR,M,M,M,M,M,M,M,M,M,M,M,M,M,M,103.30,KVGT 080153Z 14008KT 10SM CLR 41/12 A2990 RMK AO2 SLP108 T04060117,M
05U,2022-09-08 01:55,-116.0051,39.6042,1811.23,80.60,33.80,18.42,M,M,0.00,30.29,M,10.00,M,CLR,M,M,M,M,M,M,M,M,M,M,M,M,M,M,78.88,K05U 080155Z AUTO 10SM CLR 27/01 A3029 RMK A01,M
BVU,2022-09-08 01:55,-114.8611,35.9475,671.00,100.40,53.60,21.11,160.00,11.00,0.00,29.93,M,M,M,M,M,M,M,M,M,M,M,M,M,M,M,M,M,M,98.44,KBVU 080155Z AUTO 16011KT 38/12 A2993 RMK AO2 TSNO,M
CXP,2022-09-08 01:55,-119.7326,39.1923,1431.00,89.60,39.20,17.09,280.00,5.00,0.00,30.17,M,7.00,13.00,CLR,M,M,M,M,M,M,M,M,M,M,M,M,M,M,85.73,KCXP 080155Z AUTO 28005G13KT 7SM CLR 32/04 A3017 RMK AO2,M
RTS,2022-09-08 01:55,-119.8764,39.6682,1539.00,82.40,39.20,21.51,270.00,6.00,0.00,30.22,M,10.00,M,CLR,M,M,M,M,M,M,M,M,M,M,M,M,M,M,80.21,KRTS 080155Z AUTO 27006KT 10SM CLR 28/04 A3022 RMK AO2,M
MEV,2022-09-08 01:55,-119.7500,38.9963,1441.42,87.80,41.00,19.40,270.00,8.00,0.00,30.16,M,4.00,17.00,CLR,M,M,M,M,M,M,M,HZ,M,M,M,M,M,M,84.30,KMEV 080155Z AUTO 27008G17KT 4SM HZ CLR 31/05 A3016 RMK AO2,M
BAM,2022-09-08 01:55,-116.8743,40.5990,1382.36,89.60,39.20,17.09,140.00,7.00,0.00,30.12,M,10.00,M,CLR,M,M,M,M,M,M,M,M,M,M,M,M,M,M,85.73,KBAM 080155Z AUTO 14007KT 10SM CLR 32/04 A3012 RMK AO1,M
HTH,2022-09-08 01:55,-118.6315,38.5448,1282.89,91.40,35.60,14.02,260.00,17.00,0.00,30.12,M,10.00,23.00,CLR,M,M,M,M,M,M,M,M,M,M,M,M,M,M,87.17,KHTH 080155Z AUTO 26017G23KT 10SM CLR 33/02 A3012 RMK A01,M
TMT,2022-09-08 01:55,-117.1971,39.4643,1749.34,M,M,M,260.00,3.00,0.00,30.26,M,10.00,M,CLR,M,M,M,M,M,M,M,M,M,M,M,M,M,M,M,KTMT 080155Z AUTO 26003KT 10SM CLR A3026 RMK AO2 LTG DSNT S,M
RNO,2022-09-08 01:55,-119.7711,39.4839,1341.00,92.00,42.00,17.79,310.00,12.00,0.00,30.15,1014.50,10.00,M,SCT,SCT,M,M,3500.00,15000.00,M,M,M,M,M,M,M,M,M,87.92,KRNO 080155Z 31012KT 10SM SCT035 SCT150 33/06 A3015 RMK AO2 SLP145 FU SCT035 CB DSNT SE T03330056,M
NFL,2022-09-08 01:56,-118.7010,39.4166,1199.00,94.00,34.00,12.17,290.00,11.00,0.00,30.07,1015.00,10.00,M,SCT,BKN,BKN,M,8000.00,12000.00,25000.00,M,M,M,M,M,M,M,M,89.13,KNFL 080156Z 29011KT 10SM SCT080 BKN120 BKN250 34/01 A3007 RMK AO2 WSHFT 0045 SLP150 T03440011,M
LAS,2022-09-08 01:56,-115.1634,36.0719,663.00,102.00,53.00,19.75,170.00,8.00,0.00,29.91,1009.70,10.00,M,FEW,SCT,SCT,M,12000.00,15000.00,22000.00,M,M,M,M,M,M,M,M,100.00,KLAS 080156Z 17008KT 10SM FEW120 SCT150 SCT220 39/12 A2991 RMK AO2 SLP097 T03890117,M
TPH,2022-09-08 01:56,-117.0904,38.0505,1654.00,88.00,38.00,17.08,160.00,11.00,0.00,30.23,1015.60,10.00,20.00,CLR,M,M,M,M,M,M,M,VCTS,M,M,M,37.00,140.00,2022-09-08 01:02,84.34,KTPH 080156Z AUTO 16011G20KT 10SM VCTS CLR 31/03 A3023 RMK AO2 PK WND 14037/0102 LTG DSNT S AND SW SLP156 T03110033,M
LSV,2022-09-08 01:56,-115.0343,36.2362,570.00,104.00,53.40,18.81,170.00,11.00,0.00,29.87,1008.60,10.00,M,CLR,M,M,M,M,M,M,M,M,M,M,M,M,M,M,102.24,KLSV 080156Z AUTO 17011KT 10SM CLR 40/12 A2987 RMK AO2 SLP086 T04000119 $,M
EKO,2022-09-08 01:56,-115.7860,40.8242,1367.00,86.00,36.00,16.89,270.00,5.00,0.00,30.17,1015.30,10.00,M,CLR,M,M,M,M,M,M,M,M,M,M,M,M,M,M,82.70,KEKO 080156Z AUTO 27005KT 10SM CLR 30/02 A3017 RMK AO2 SLP153 T03000022,M
WMC,2022-09-08 01:56,-117.8072,40.9019,1315.00,95.00,34.00,11.76,270.00,23.00,0.00,30.07,1012.70,2.00,37.00,FEW,M,M,M,1900.00,M,M,M,HZ,M,M,M,37.00,280.00,2022-09-08 01:54,90.00,KWMC 080156Z AUTO 27023G37KT 2SM HZ FEW019 35/01 A3007 RMK AO2 PK WND 28037/0154 SLP127 T03500011,M
INS,2022-09-08 01:56,-115.6733,36.5872,955.00,100.00,45.70,15.92,120.00,8.00,0.00,29.98,1009.70,10.00,M,CLR,M,M,M,M,M,M,M,M,M,M,M,M,M,M,96.11,KINS 080156Z AUTO 12008KT 10SM CLR 38/08 A2998 RMK AO2 SLP097 T03780076 $,M
TPH,2022-09-08 02:04,-117.0904,38.0505,1654.00,88.00,37.00,16.49,160.00,17.00,0.00,30.23,M,10.00,25.00,CLR,M,M,M,M,M,M,M,M,M,M,M,M,M,M,84.32,KTPH 080204Z AUTO 16017G25KT 10SM CLR 31/03 A3023 RMK AO2 LTG DSNT S AND SW T03110028,M
WMC,2022-09-08 02:10,-117.8072,40.9019,1315.00,93.00,35.00,13.07,310.00,23.00,0.00,30.09,M,6.00,36.00,FEW,M,M,M,1500.00,M,M,M,HZ,M,M,M,36.00,300.00,2022-09-08 02:07,88.56,KWMC 080210Z AUTO 31023G36KT 6SM HZ FEW015 34/02 A3009 RMK AO2 PK WND 30036/0207 T03390017,M
05U,2022-09-08 02:10,-116.0051,39.6042,1811.23,78.80,35.60,21.00,M,M,0.00,30.29,M,10.00,M,CLR,M,M,M,M,M,M,M,M,M,M,M,M,M,M,78.80,K05U 080210Z AUTO 10SM CLR 26/02 A3029 RMK A01,M
BAM,2022-09-08 02:15,-116.8743,40.5990,1382.36,87.80,37.40,16.86,130.00,8.00,0.00,30.12,M,10.00,M,CLR,M,M,M,M,M,M,M,M,M,M,M,M,M,M,84.16,KBAM 080215Z AUTO 13008KT 10SM CLR 31/03 A3012 RMK AO1,M
CXP,2022-09-08 02:15,-119.7326,39.1923,1431.00,89.60,39.20,17.09,0.00,0.00,0.00,30.18,M,7.00,14.00,CLR,M,M,M,M,M,M,M,M,M,M,M,M,M,M,85.73,KCXP 080215Z AUTO 00000G14KT 7SM CLR 32/04 A3018 RMK AO2,M
RTS,2022-09-08 02:15,-119.8764,39.6682,1539.00,80.60,39.20,22.81,0.00,0.00,0.00,30.22,M,10.00,M,CLR,M,M,M,M,M,M,M,M,M,M,M,M,M,M,79.10,KRTS 080215Z AUTO 00000KT 10SM CLR 27/04 A3022 RMK AO2,M
MEV,2022-09-08 02:15,-119.7500,38.9963,1441.42,86.00,39.20,19.15,250.00,10.00,0.00,30.17,M,3.00,M,CLR,M,M,M,M,M,M,M,HZ,M,M,M,M,M,M,82.79,KMEV 080215Z AUTO 25010KT 3SM HZ CLR 30/04 A3017 RMK AO2,M
TMT,2022-09-08 02:15,-117.1971,39.4643,1749.34,M,M,M,260.00,7.00,0.00,30.27,M,10.00,M,CLR,M,M,M,M,M,M,M,M,M,M,M,M,M,M,M,KTMT 080215Z AUTO 26007KT 10SM CLR A3027 RMK AO2,M
HTH,2022-09-08 02:15,-118.6315,38.5448,1282.89,89.60,37.40,15.92,260.00,18.00,0.00,30.13,M,10.00,28.00,CLR,M,M,M,M,M,M,M,M,M,M,M,M,M,M,85.67,KHTH 080215Z AUTO 26018G28KT 10SM CLR 32/03 A3013 RMK A01,M
BVU,2022-09-08 02:15,-114.8611,35.9475,671.00,98.60,53.60,22.29,160.00,8.00,0.00,29.93,M,M,M,M,M,M,M,M,M,M,M,M,M,M,M,M,M,M,96.51,KBVU 080215Z AUTO 16008KT 37/12 A2993 RMK AO2 TSNO,M
TPH,2022-09-08 02:31,-117.0904,38.0505,1654.00,89.00,34.00,14.14,130.00,12.00,0.00,30.25,M,10.00,22.00,CLR,M,M,M,M,M,M,M,VCTS,M,M,M,40.00,140.00,2022-09-08 02:19,85.17,KTPH 080231Z AUTO 13012G22KT 10SM VCTS CLR 32/01 A3025 RMK AO2 PK WND 14040/0219 LTG DSNT S T03170011,M
BAM,2022-09-08 02:35,-116.8743,40.5990,1382.36,86.00,37.40,17.85,130.00,7.00,0.00,30.12,M,10.00,M,CLR,M,M,M,M,M,M,M,M,M,M,M,M,M,M,82.73,KBAM 080235Z AUTO 13007KT 10SM CLR 30/03 A3012 RMK AO1,M
CXP,2022-09-08 02:35,-119.7326,39.1923,1431.00,87.80,39.20,18.09,360.00,10.00,0.00,30.19,M,8.00,17.00,CLR,M,M,M,M,M,M,M,M,M,M,M,M,M,M,84.22,KCXP 080235Z AUTO 36010G17KT 8SM CLR 31/04 A3019 RMK AO2,M
TMT,2022-09-08 02:35,-117.1971,39.4643,1749.34,M,M,M,260.00,9.00,0.00,30.28,M,10.00,M,CLR,M,M,M,M,M,M,M,M,M,M,M,M,M,M,M,KTMT 080235Z AUTO 26009KT 10SM CLR A3028 RMK AO2,M
HTH,2022-09-08 02:35,-118.6315,38.5448,1282.89,89.60,37.40,15.92,250.00,23.00,0.00,30.13,M,10.00,33.00,CLR,M,M,M,M,M,M,M,M,M,M,M,M,M,M,85.67,KHTH 080235Z AUTO 25023G33KT 10SM CLR 32/03 A3013 RMK A01,M
BVU,2022-09-08 02:35,-114.8611,35.9475,671.00,98.60,53.60,22.29,160.00,8.00,0.00,29.93,M,M,M,M,M,M,M,M,M,M,M,M,M,M,M,M,M,M,96.51,KBVU 080235Z AUTO 16008KT 37/12 A2993 RMK AO2 TSNO,M
RTS,2022-09-08 02:35,-119.8764,39.6682,1539.00,80.60,39.20,22.81,320.00,3.00,0.00,30.23,M,10.00,M,CLR,M,M,M,M,M,M,M,M,M,M,M,M,M,M,79.10,KRTS 080235Z AUTO 32003KT 10SM CLR 27/04 A3023 RMK AO2,M
05U,2022-09-08 02:35,-116.0051,39.6042,1811.23,77.00,35.60,22.28,210.00,4.00,0.00,30.29,M,10.00,M,CLR,M,M,M,M,M,M,M,M,M,M,M,M,M,M,77.00,K05U 080235Z AUTO 21004KT 10SM CLR 25/02 A3029 RMK A01,M
MEV,2022-09-08 02:35,-119.7500,38.9963,1441.42,84.20,39.20,20.29,140.00,5.00,0.00,30.19,M,2.50,M,FEW,SCT,M,M,300.00,12000.00,M,M,HZ,M,M,M,M,M,M,81.44,KMEV 080235Z AUTO 14005KT 2 1/2SM HZ FEW003 SCT120 29/04 A3019 RMK AO2,M
TPH,2022-09-08 02:46,-117.0904,38.0505,1654.00,89.00,35.00,14.77,100.00,22.00,T,30.26,M,10.00,30.00,FEW,BKN,M,M,7000.00,11000.00,M,M,-RA,M,M,M,40.00,140.00,2022-09-08 02:19,85.19,KTPH 080246Z AUTO 10022G30KT 10SM -RA FEW070 BKN110 32/02 A3026 RMK AO2 PK WND 14040/0219 LTG DSNT SE RAB45 P0000 T03170017,M
ELY,2022-09-08 02:53,-114.8453,39.2950,1909.00,77.00,34.00,20.91,180.00,5.00,0.00,30.32,1015.50,10.00,M,CLR,M,M,M,M,M,M,M,M,M,M,M,M,M,M,77.00,KELY 080253Z AUTO 18005KT 10SM CLR 25/01 A3032 RMK AO2 SLP155 T02500011 53010,M
VGT,2022-09-08 02:53,-115.1933,36.2111,667.00,102.00,54.00,20.42,170.00,7.00,0.00,29.92,1011.40,10.00,M,CLR,M,M,M,M,M,M,M,M,M,M,M,M,M,M,100.30,KVGT 080253Z 17007KT 10SM CLR 39/12 A2992 RMK AO2 SLP114 T03890122 53003,M
DRA,2022-09-08 02:53,-116.0278,36.6206,1009.00,96.00,45.00,17.46,210.00,7.00,0.00,30.02,1010.60,10.00,M,CLR,M,M,M,M,M,M,M,M,M,M,M,M,M,M,92.17,KDRA 080253Z AUTO 21007KT 10SM CLR 36/07 A3002 RMK AO2 SLP106 T03560072 53005,M
P68,2022-09-08 02:53,-116.0056,39.6014,1993.00,74.00,39.00,28.25,120.00,5.00,0.00,30.27,1016.40,M,M,M,M,M,M,M,M,M,M,M,M,M,M,M,M,M,73.90,KP68 080253Z AUTO 12005KT 23/04 A3027 RMK AO1 SLP164 T02330039 55002,M
LOL,2022-09-08 02:53,-118.5701,40.0684,1192.43,89.00,36.00,15.31,320.00,6.00,T,30.08,1014.00,10.00,M,CLR,M,M,M,M,M,M,M,M,M,M,M,M,M,M,85.21,KLOL 080253Z AUTO 32006KT 10SM CLR 32/02 A3008 RMK AO2 RAE0159 SLP140 P0000 60000 T03170022 53011,M
BVU,2022-09-08 02:55,-114.8611,35.9475,671.00,96.80,53.60,23.55,150.00,6.00,0.00,29.94,M,M,M,M,M,M,M,M,M,M,M,M,M,M,M,M,M,M,94.59,KBVU 080255Z AUTO 15006KT 36/12 A2994 RMK AO2 TSNO,M
RTS,2022-09-08 02:55,-119.8764,39.6682,1539.00,78.80,39.20,24.19,20.00,4.00,0.00,30.24,M,10.00,M,SCT,M,M,M,6000.00,M,M,M,M,M,M,M,M,M,M,78.80,KRTS 080255Z AUTO 02004KT 10SM SCT060 26/04 A3024 RMK AO2,M
05U,2022-09-08 02:55,-116.0051,39.6042,1811.23,75.20,37.40,25.40,120.00,4.00,0.00,30.30,M,10.00,M,CLR,M,M,M,M,M,M,M,M,M,M,M,M,M,M,75.20,K05U 080255Z AUTO 12004KT 10SM CLR 24/03 A3030 RMK A01,M
MEV,2022-09-08 02:55,-119.7500,38.9963,1441.42,84.20,39.20,20.29,230.00,3.00,0.00,30.20,M,5.00,M,M,M,M,M,M,M,M,M,HZ,M,M,M,M,M,M,81.44,KMEV 080255Z AUTO 23003KT 5SM HZ 29/04 A3020 RMK AO2,M
BAM,2022-09-08 02:55,-116.8743,40.5990,1382.36,82.40,37.40,20.04,150.00,5.00,0.00,30.13,M,10.00,M,CLR,M,M,M,M,M,M,M,M,M,M,M,M,M,M,80.14,KBAM 080255Z AUTO 15005KT 10SM CLR 28/03 A3013 RMK AO1,M
HTH,2022-09-08 02:55,-118.6315,38.5448,1282.89,87.80,37.40,16.86,260.00,20.00,0.00,30.14,M,10.00,26.00,CLR,M,M,M,M,M,M,M,M,M,M,M,M,M,M,84.16,KHTH 080255Z AUTO 26020G26KT 10SM CLR 31/03 A3014 RMK A01,M
TMT,2022-09-08 02:55,-117.1971,39.4643,1749.34,M,M,M,240.00,11.00,0.00,30.30,M,10.00,24.00,CLR,M,M,M,M,M,M,M,M,M,M,M,M,M,M,M,KTMT 080255Z AUTO 24011G24KT 10SM CLR A3030 RMK AO2,M
CXP,2022-09-08 02:55,-119.7326,39.1923,1431.00,87.80,39.20,18.09,330.00,11.00,0.00,30.20,M,9.00,17.00,CLR,M,M,M,M,M,M,M,M,M,M,M,M,M,M,84.22,KCXP 080255Z AUTO 33011G17KT 9SM CLR 31/04 A3020 RMK AO2,M
RNO,2022-09-08 02:55,-119.7711,39.4839,1341.00,90.00,42.00,18.88,280.00,12.00,0.00,30.16,1014.70,10.00,M,FEW,SCT,SCT,M,4500.00,7000.00,15000.00,M,M,M,M,M,M,M,M,86.23,KRNO 080255Z 28012KT 10SM FEW045 SCT070 SCT150 32/06 A3016 RMK AO2 SLP147 FU FEW045 T03220056 51010,M
LSV,2022-09-08 02:56,-115.0343,36.2362,570.00,101.50,54.00,20.80,140.00,8.00,0.00,29.89,1009.20,10.00,M,CLR,M,M,M,M,M,M,M,M,M,M,M,M,M,M,99.80,KLSV 080256Z AUTO 14008KT 10SM CLR 39/12 A2989 RMK AO2 SLP092 T03860123 53004 $,M
INS,2022-09-08 02:56,-115.6733,36.5872,955.00,97.00,45.00,16.98,290.00,7.00,0.00,30.00,1010.30,10.00,M,CLR,M,M,M,M,M,M,M,M,M,M,M,M,M,M,93.04,KINS 080256Z AUTO 29007KT 10SM CLR 36/07 A3000 RMK AO2 SLP103 T03610072 53004 $,M
LAS,2022-09-08 02:56,-115.1634,36.0719,663.00,100.00,53.00,20.98,170.00,7.00,0.00,29.93,1010.20,10.00,M,FEW,FEW,M,M,15000.00,22000.00,M,M,M,M,M,M,M,M,M,97.85,KLAS 080256Z 17007KT 10SM FEW150 FEW220 38/12 A2993 RMK AO2 SLP102 T03780117 53002,M
TPH,2022-09-08 02:56,-117.0904,38.0505,1654.00,85.00,38.00,18.86,80.00,24.00,T,30.25,1015.60,10.00,50.00,FEW,OVC,M,M,7000.00,10000.00,M,M,-RA,M,M,M,50.00,90.00,2022-09-08 02:50,81.91,KTPH 080256Z AUTO 08024G50KT 10SM -RA FEW070 OVC100 29/03 A3025 RMK AO2 PK WND 09050/0250 LTG DSNT S RAB45 SLP156 P0000 60000 T02940033 53016,M
WMC,2022-09-08 02:56,-117.8072,40.9019,1315.00,88.00,41.00,19.28,330.00,12.00,0.00,30.11,1013.90,7.00,M,BKN,BKN,OVC,M,3700.00,7000.00,10000.00,M,M,M,M,M,36.00,300.00,2022-09-08 02:07,84.46,KWMC 080256Z AUTO 33012KT 7SM BKN037 BKN070 OVC100 31/05 A3011 RMK AO2 PK WND 30036/0207 SLP139 T03110050 53012,M
EKO,2022-09-08 02:56,-115.7860,40.8242,1367.00,84.00,36.00,18.01,260.00,6.00,0.00,30.16,1015.00,10.00,M,CLR,M,M,M,M,M,M,M,M,M,M,M,M,M,M,81.20,KEKO 080256Z AUTO 26006KT 10SM CLR 29/02 A3016 RMK AO2 SLP150 T02890022 50001,M
NFL,2022-09-08 02:56,-118.7010,39.4166,1199.00,87.00,39.00,18.35,250.00,7.00,0.00,30.09,1015.70,10.00,M,SCT,BKN,BKN,M,8000.00,12000.00,25000.00,M,M,M,M,M,M,M,M,83.65,KNFL 080256Z 25007KT 10SM SCT080 BKN120 BKN250 31/04 A3009 RMK AO2 SLP157 T03060039 53008,M
RTS,2022-09-08 03:15,-119.8764,39.6682,1539.00,75.20,41.00,29.23,10.00,6.00,0.00,30.25,M,10.00,M,SCT,M,M,M,6000.00,M,M,M,M,M,M,M,M,M,M,75.20,KRTS 080315Z AUTO 01006KT 10SM SCT060 24/05 A3025 RMK AO2,M
BVU,2022-09-08 03:15,-114.8611,35.9475,671.00,96.80,53.60,23.55,140.00,5.00,0.00,29.95,M,M,M,M,M,M,M,M,M,M,M,M,M,M,M,M,M,M,94.59,KBVU 080315Z AUTO 14005KT 36/12 A2995 RMK AO2 TSNO,M
CXP,2022-09-08 03:15,-119.7326,39.1923,1431.00,87.80,37.40,16.86,M,6.00,0.00,30.22,M,8.00,18.00,CLR,M,M,M,M,M,M,M,M,M,M,M,M,M,M,84.16,KCXP 080315Z AUTO VRB06G18KT 8SM CLR 31/03 A3022 RMK AO2,M
05U,2022-09-08 03:15,-116.0051,39.6042,1811.23,73.40,39.20,28.96,110.00,7.00,0.00,30.30,M,10.00,M,FEW,M,M,M,11000.00,M,M,M,M,M,M,M,M,M,M,73.40,K05U 080315Z AUTO 11007KT 10SM FEW110 23/04 A3030 RMK A01,M
MEV,2022-09-08 03:15,-119.7500,38.9963,1441.42,86.00,39.20,19.15,250.00,12.00,0.00,30.20,M,8.00,M,SCT,SCT,BKN,M,1900.00,2800.00,3800.00,M,M,M,M,M,M,M,M,82.79,KMEV 080315Z AUTO 25012KT 8SM SCT019 SCT028 BKN038 30/04 A3020 RMK AO2,M
BAM,2022-09-08 03:15,-116.8743,40.5990,1382.36,82.40,37.40,20.04,30.00,4.00,0.00,30.14,M,10.00,M,CLR,M,M,M,M,M,M,M,M,M,M,M,M,M,M,80.14,KBAM 080315Z AUTO 03004KT 10SM CLR 28/03 A3014 RMK AO1,M
HTH,2022-09-08 03:15,-118.6315,38.5448,1282.89,89.60,37.40,15.92,250.00,21.00,0.00,30.15,M,10.00,33.00,CLR,M,M,M,M,M,M,M,M,M,M,M,M,M,M,85.67,KHTH 080315Z AUTO 25021G33KT 10SM CLR 32/03 A3015 RMK A01,M
TMT,2022-09-08 03:15,-117.1971,39.4643,1749.34,M,M,M,180.00,4.00,0.00,30.31,M,10.00,M,SCT,M,M,M,12000.00,M,M,M,M,M,M,M,M,M,M,M,KTMT 080315Z AUTO 18004KT 10SM SCT120 A3031 RMK AO2,M
RTS,2022-09-08 03:35,-119.8764,39.6682,1539.00,75.20,39.20,27.26,30.00,5.00,0.00,30.25,M,10.00,M,CLR,M,M,M,M,M,M,M,M,M,M,M,M,M,M,75.20,KRTS 080335Z AUTO 03005KT 10SM CLR 24/04 A3025 RMK AO2,M
CXP,2022-09-08 03:35,-119.7326,39.1923,1431.00,86.00,39.20,19.15,0.00,0.00,0.00,30.23,M,8.00,M,CLR,M,M,M,M,M,M,M,M,M,M,M,M,M,M,82.79,KCXP 080335Z AUTO 00000KT 8SM CLR 30/04 A3023 RMK AO2,M
BVU,2022-09-08 03:35,-114.8611,35.9475,671.00,96.80,51.80,22.04,140.00,9.00,0.00,29.96,M,M,M,M,M,M,M,M,M,M,M,M,M,M,M,M,M,M,94.12,KBVU 080335Z AUTO 14009KT 36/11 A2996 RMK AO2 TSNO,M
HTH,2022-09-08 03:35,-118.6315,38.5448,1282.89,89.60,37.40,15.92,270.00,14.00,0.00,30.16,M,10.00,31.00,CLR,M,M,M,M,M,M,M,M,M,M,M,M,M,M,85.67,KHTH 080335Z AUTO 27014G31KT 10SM CLR 32/03 A3016 RMK A01,M
BAM,2022-09-08 03:35,-116.8743,40.5990,1382.36,84.20,37.40,18.91,70.00,5.00,0.00,30.13,M,10.00,M,CLR,M,M,M,M,M,M,M,M,M,M,M,M,M,M,81.38,KBAM 080335Z AUTO 07005KT 10SM CLR 29/03 A3013 RMK AO1,M
TMT,2022-09-08 03:35,-117.1971,39.4643,1749.34,M,M,M,260.00,13.00,0.00,30.33,M,10.00,16.00,CLR,M,M,M,M,M,M,M,M,M,M,M,M,M,M,M,KTMT 080335Z AUTO 26013G16KT 10SM CLR A3033 RMK AO2,M
MEV,2022-09-08 03:35,-119.7500,38.9963,1441.42,84.20,39.20,20.29,220.00,10.00,0.00,30.22,M,9.00,M,FEW,FEW,FEW,M,1800.00,2900.00,4000.00,M,M,M,M,M,M,M,M,81.44,KMEV 080335Z AUTO 22010KT 9SM FEW018 FEW029 FEW040 29/04 A3022 RMK AO2,M
05U,2022-09-08 03:35,-116.0051,39.6042,1811.23,75.20,35.60,23.66,160.00,5.00,0.00,30.30,M,10.00,M,FEW,SCT,M,M,9000.00,11000.00,M,M,M,M,M,M,M,M,M,75.20,K05U 080335Z AUTO 16005KT 10SM FEW090 SCT110 24/02 A3030 RMK A01,M
DRA,2022-09-08 03:53,-116.0278,36.6206,1009.00,94.00,46.00,19.40,220.00,7.00,0.00,30.04,1011.00,10.00,M,CLR,M,M,M,M,M,M,M,M,M,M,M,M,M,M,90.17,KDRA 080353Z AUTO 22007KT 10SM CLR 34/08 A3004 RMK AO2 SLP110 T03440078,M
ELY,2022-09-08 03:53,-114.8453,39.2950,1909.00,74.00,35.00,24.23,220.00,7.00,0.00,30.33,1015.40,10.00,M,SCT,M,M,M,12000.00,M,M,M,M,M,M,M,M,M,M,73.90,KELY 080353Z AUTO 22007KT 10SM SCT120 23/02 A3033 RMK AO2 SLP154 T02330017,M
P68,2022-09-08 03:53,-116.0056,39.6014,1993.00,76.00,34.00,21.69,180.00,5.00,0.00,30.28,1015.50,M,M,M,M,M,M,M,M,M,M,M,M,M,M,M,M,M,75.90,KP68 080353Z AUTO 18005KT 24/01 A3028 RMK AO1 SLP155 T02440011,M
VGT,2022-09-08 03:53,-115.1933,36.2111,667.00,100.00,53.00,20.98,120.00,7.00,0.00,29.94,1012.00,10.00,M,CLR,M,M,M,M,M,M,M,M,M,M,M,M,M,M,97.85,KVGT 080353Z 12007KT 10SM CLR 38/12 A2994 RMK AO2 SLP120 T03780117,M
LOL,2022-09-08 03:53,-118.5701,40.0684,1192.43,90.00,35.00,14.36,40.00,3.00,0.00,30.10,1014.10,10.00,M,CLR,M,M,M,M,M,M,M,M,M,M,M,M,M,M,85.95,KLOL 080353Z AUTO 04003KT 10SM CLR 32/02 A3010 RMK AO2 SLP141 T03220017,M
05U,2022-09-08 03:55,-116.0051,39.6042,1811.23,75.20,33.80,22.02,180.00,5.00,0.00,30.31,M,10.00,M,CLR,M,M,M,M,M,M,M,M,M,M,M,M,M,M,75.20,K05U 080355Z AUTO 18005KT 10SM CLR 24/01 A3031 RMK A01,M
RNO,2022-09-08 03:55,-119.7711,39.4839,1341.00,87.00,43.00,21.42,330.00,7.00,0.00,30.19,1015.80,10.00,M,SCT,BKN,M,M,6000.00,15000.00,M,M,M,M,M,M,M,M,M,83.84,KRNO 080355Z 33007KT 290V360 10SM SCT060 BKN150 31/06 A3019 RMK AO2 SLP158 FU SCT060 T03060061,M
HTH,2022-09-08 03:55,-118.6315,38.5448,1282.89,89.60,37.40,15.92,270.00,18.00,0.00,30.17,M,10.00,29.00,CLR,M,M,M,M,M,M,M,M,M,M,M,M,M,M,85.67,KHTH 080355Z AUTO 27018G29KT 10SM CLR 32/03 A3017 RMK A01,M
TMT,2022-09-08 03:55,-117.1971,39.4643,1749.34,M,M,M,270.00,15.00,0.00,30.33,M,10.00,25.00,CLR,M,M,M,M,M,M,M,M,M,M,M,M,M,M,M,KTMT 080355Z AUTO 27015G25KT 10SM CLR A3033 RMK AO2,M
RTS,2022-09-08 03:55,-119.8764,39.6682,1539.00,77.00,39.20,25.67,40.00,5.00,0.00,30.26,M,10.00,M,CLR,M,M,M,M,M,M,M,M,M,M,M,M,M,M,77.00,KRTS 080355Z AUTO 04005KT 10SM CLR 25/04 A3026 RMK AO2,M
BVU,2022-09-08 03:55,-114.8611,35.9475,671.00,95.00,51.80,23.30,170.00,5.00,0.00,29.97,M,M,M,M,M,M,M,M,M,M,M,M,M,M,M,M,M,M,92.26,KBVU 080355Z AUTO 17005KT 35/11 A2997 RMK AO2 TSNO,M
CXP,2022-09-08 03:55,-119.7326,39.1923,1431.00,82.40,39.20,21.51,200.00,4.00,0.00,30.23,M,8.00,M,SCT,SCT,SCT,M,5500.00,6500.00,8500.00,M,M,M,M,M,M,M,M,80.21,KCXP 080355Z AUTO 20004KT 8SM SCT055 SCT065 SCT085 28/04 A3023 RMK AO2,M
BAM,2022-09-08 03:55,-116.8743,40.5990,1382.36,80.60,37.40,21.25,290.00,9.00,0.00,30.16,M,10.00,16.00,CLR,M,M,M,M,M,M,M,M,M,M,M,M,M,M,79.02,KBAM 080355Z AUTO 29009G16KT 10SM CLR 27/03 A3016 RMK AO1,M
MEV,2022-09-08 03:55,-119.7500,38.9963,1441.42,75.20,42.80,31.34,170.00,6.00,0.00,30.22,M,10.00,M,CLR,M,M,M,M,M,M,M,M,M,M,M,M,M,M,75.20,KMEV 080355Z AUTO 17006KT 10SM CLR 24/06 A3022 RMK AO2,M
TPH,2022-09-08 03:56,-117.0904,38.0505,1654.00,83.00,40.00,21.75,30.00,14.00,T,30.32,1017.50,10.00,34.00,FEW,FEW,OVC,M,7500.00,8500.00,11000.00,M,-RA,M,M,M,37.00,70.00,2022-09-08 03:39,80.57,KTPH 080356Z AUTO 03014G34KT 10SM -RA FEW075 FEW085 OVC110 28/04 A3032 RMK AO2 PK WND 07037/0339 RAE08B40 SLP175 P0000 T02830044,M
WMC,2022-09-08 03:56,-117.8072,40.9019,1315.00,85.00,43.00,22.98,360.00,4.00,0.00,30.16,1015.30,10.00,M,CLR,M,M,M,M,M,M,M,M,M,M,M,M,M,M,82.13,KWMC 080356Z AUTO 36004KT 10SM CLR 29/06 A3016 RMK AO2 SLP153 T02940061,M
INS,2022-09-08 03:56,-115.6733,36.5872,955.00,94.00,44.00,17.91,0.00,0.00,0.00,30.02,1010.80,10.00,M,CLR,M,M,M,M,M,M,M,M,M,M,M,M,M,M,89.93,KINS 080356Z AUTO 00000KT 10SM CLR 34/07 A3002 RMK AO2 SLP108 T03440066 $,M
EKO,2022-09-08 03:56,-115.7860,40.8242,1367.00,79.00,37.00,22.05,170.00,4.00,0.00,30.18,1015.30,10.00,M,CLR,M,M,M,M,M,M,M,M,M,M,M,M,M,M,79.00,KEKO 080356Z AUTO 17004KT 10SM CLR 26/03 A3018 RMK AO2 SLP153 T02610028,M
NFL,2022-09-08 03:56,-118.7010,39.4166,1199.00,87.00,38.00,17.58,200.00,4.00,0.00,30.13,1016.80,10.00,M,FEW,SCT,BKN,M,8000.00,12000.00,25000.00,M,M,M,M,M,M,M,M,83.61,KNFL 080356Z 20004KT 10SM FEW080 SCT120 BKN250 31/03 A3013 RMK AO2 SLP168 T03060033,M
LAS,2022-09-08 03:56,-115.1634,36.0719,663.00,100.00,51.00,19.49,200.00,10.00,0.00,29.95,1010.80,10.00,17.00,FEW,FEW,M,M,15000.00,22000.00,M,M,M,M,M,M,M,M,M,97.28,KLAS 080356Z 20010G17KT 10SM FEW150 FEW220 38/11 A2995 RMK AO2 SLP108 T03780106,M
LSV,2022-09-08 03:56,-115.0343,36.2362,570.00,99.30,53.80,21.98,150.00,7.00,0.00,29.91,1009.80,10.00,M,CLR,M,M,M,M,M,M,M,M,M,M,M,M,M,M,97.32,KLSV 080356Z AUTO 15007KT 10SM CLR 37/12 A2991 RMK AO2 SLP098 T03740121 $,M
TPH,2022-09-08 04:08,-117.0904,38.0505,1654.00,83.00,40.00,21.75,330.00,11.00,T,30.31,M,10.00,22.00,FEW,BKN,BKN,M,6500.00,9500.00,12000.00,M,VCTS,M,M,M,M,M,M,80.57,KTPH 080408Z AUTO 33011G22KT 10SM VCTS FEW065 BKN095 BKN120 28/04 A3031 RMK AO2 LTG DSNT SE RAE03 P0000 T02830044,M
CXP,2022-09-08 04:15,-119.7326,39.1923,1431.00,82.40,39.20,21.51,0.00,0.00,0.00,30.24,M,8.00,M,FEW,FEW,FEW,M,5000.00,6000.00,8500.00,M,M,M,M,M,M,M,M,80.21,KCXP 080415Z AUTO 00000KT 8SM FEW050 FEW060 FEW085 28/04 A3024 RMK AO2,M
BAM,2022-09-08 04:15,-116.8743,40.5990,1382.36,86.00,42.80,22.02,340.00,20.00,0.00,30.18,M,7.00,24.00,CLR,M,M,M,M,M,M,M,M,M,M,M,M,M,M,82.95,KBAM 080415Z AUTO 34020G24KT 7SM CLR 30/06 A3018 RMK AO1,M
RTS,2022-09-08 04:15,-119.8764,39.6682,1539.00,77.00,39.20,25.67,M,3.00,0.00,30.27,M,10.00,M,CLR,M,M,M,M,M,M,M,M,M,M,M,M,M,M,77.00,KRTS 080415Z AUTO VRB03KT 10SM CLR 25/04 A3027 RMK AO2,M
HTH,2022-09-08 04:15,-118.6315,38.5448,1282.89,86.00,37.40,17.85,50.00,8.00,0.00,30.18,M,10.00,18.00,CLR,M,M,M,M,M,M,M,M,M,M,M,M,M,M,82.73,KHTH 080415Z AUTO 05008G18KT 10SM CLR 30/03 A3018 RMK A01,M
TMT,2022-09-08 04:15,-117.1971,39.4643,1749.34,M,M,M,300.00,13.00,0.00,30.33,M,10.00,22.00,CLR,M,M,M,M,M,M,M,M,M,M,M,M,M,M,M,KTMT 080415Z AUTO 30013G22KT 10SM CLR A3033 RMK AO2,M
05U,2022-09-08 04:15,-116.0051,39.6042,1811.23,75.20,33.80,22.02,210.00,3.00,0.00,30.31,M,10.00,M,CLR,M,M,M,M,M,M,M,M,M,M,M,M,M,M,75.20,K05U 080415Z AUTO 21003KT 10SM CLR 24/01 A3031 RMK A01,M
MEV,2022-09-08 04:15,-119.7500,38.9963,1441.42,73.40,42.80,33.29,60.00,7.00,0.00,30.23,M,9.00,M,M,M,M,M,M,M,M,M,M,M,M,M,M,M,M,73.40,KMEV 080415Z AUTO 06007KT 9SM 23/06 A3023 RMK AO2,M
BVU,2022-09-08 04:15,-114.8611,35.9475,671.00,95.00,51.80,23.30,160.00,7.00,0.00,29.97,M,M,M,M,M,M,M,M,M,M,M,M,M,M,M,M,M,M,92.26,KBVU 080415Z AUTO 16007KT 35/11 A2997 RMK AO2 TSNO,M
05U,2022-09-08 04:35,-116.0051,39.6042,1811.23,71.60,33.80,24.86,220.00,6.00,0.00,30.31,M,10.00,M,CLR,M,M,M,M,M,M,M,M,M,M,M,M,M,M,71.60,K05U 080435Z AUTO 22006KT 10SM CLR 22/01 A3031 RMK A01,M
BVU,2022-09-08 04:35,-114.8611,35.9475,671.00,95.00,51.80,23.30,210.00,4.00,0.00,29.97,M,M,M,M,M,M,M,M,M,M,M,M,M,M,M,M,M,M,92.26,KBVU 080435Z AUTO 21004KT 35/11 A2997 RMK AO2 TSNO,M
CXP,2022-09-08 04:35,-119.7326,39.1923,1431.00,80.60,39.20,22.81,0.00,0.00,0.00,30.24,M,8.00,M,FEW,SCT,M,M,2700.00,6500.00,M,M,M,M,M,M,M,M,M,79.10,KCXP 080435Z AUTO 00000KT 8SM FEW027 SCT065 27/04 A3024 RMK AO2,M
RTS,2022-09-08 04:35,-119.8764,39.6682,1539.00,80.60,37.40,21.25,280.00,3.00,0.00,30.27,M,10.00,M,CLR,M,M,M,M,M,M,M,M,M,M,M,M,M,M,79.02,KRTS 080435Z AUTO 28003KT 10SM CLR 27/03 A3027 RMK AO2,M
MEV,2022-09-08 04:35,-119.7500,38.9963,1441.42,71.60,41.00,33.00,70.00,7.00,0.00,30.23,M,8.00,M,M,M,M,M,M,M,M,M,M,M,M,M,M,M,M,71.60,KMEV 080435Z AUTO 07007KT 8SM 22/05 A3023 RMK AO2,M
BAM,2022-09-08 04:35,-116.8743,40.5990,1382.36,86.00,42.80,22.02,360.00,15.00,0.00,30.19,M,10.00,19.00,CLR,M,M,M,M,M,M,M,M,M,M,M,M,M,M,82.95,KBAM 080435Z AUTO 36015G19KT 10SM CLR 30/06 A3019 RMK AO1,M
HTH,2022-09-08 04:35,-118.6315,38.5448,1282.89,86.00,37.40,17.85,100.00,13.00,0.00,30.19,M,10.00,M,CLR,M,M,M,M,M,M,M,M,M,M,M,M,M,M,82.73,KHTH 080435Z AUTO 10013KT 10SM CLR 30/03 A3019 RMK A01,M
TMT,2022-09-08 04:35,-117.1971,39.4643,1749.34,M,M,M,310.00,11.00,0.00,30.33,M,10.00,16.00,CLR,M,M,M,M,M,M,M,M,M,M,M,M,M,M,M,KTMT 080435Z AUTO 31011G16KT 10SM CLR A3033 RMK AO2,M
TPH,2022-09-08 04:41,-117.0904,38.0505,1654.00,82.00,42.00,24.38,50.00,18.00,T,30.31,M,10.00,23.00,FEW,SCT,BKN,M,5500.00,9000.00,11000.00,M,-RA,M,M,M,M,M,M,80.09,KTPH 080441Z AUTO 05018G23KT 10SM -RA FEW055 SCT090 BKN110 28/06 A3031 RMK AO2 LTG DSNT S RAE03B34 P0000 T02780056,M
NFL,2022-09-08 04:51,-118.7010,39.4166,1199.00,91.40,37.40,15.05,M,6.00,T,30.15,M,10.00,M,BKN,OVC,M,M,8000.00,12000.00,M,M,-TSRA,M,M,M,M,M,M,87.23,KNFL 080451Z VRB06KT 10SM -TSRA BKN080CB OVC120 33/03 A3015 RMK AO2 RAB46 TSB45 OCNL LTGIC OHD TS OHD MOV E P0000,M
P68,2022-09-08 04:53,-116.0056,39.6014,1993.00,74.00,34.00,23.19,230.00,6.00,0.00,30.29,1015.70,M,M,M,M,M,M,M,M,M,M,M,M,M,M,M,M,M,73.90,KP68 080453Z AUTO 23006KT 23/01 A3029 RMK AO1 SLP157 T02330011,M
ELY,2022-09-08 04:53,-114.8453,39.2950,1909.00,71.00,36.00,27.60,190.00,10.00,0.00,30.33,1014.70,10.00,M,CLR,M,M,M,M,M,M,M,M,M,M,M,M,M,M,71.10,KELY 080453Z AUTO 19010KT 10SM CLR 22/02 A3033 RMK AO2 SLP147 T02170022,M
VGT,2022-09-08 04:53,-115.1933,36.2111,667.00,100.00,54.00,21.68,200.00,8.00,0.00,29.93,1011.80,10.00,M,CLR,M,M,M,M,M,M,M,M,M,M,M,M,M,M,98.14,KVGT 080453Z AUTO 20008KT 10SM CLR 38/12 A2993 RMK AO2 SLP118 T03780122,M
DRA,2022-09-08 04:53,-116.0278,36.6206,1009.00,92.00,49.00,23.03,310.00,3.00,0.00,30.05,1011.30,10.00,M,CLR,M,M,M,M,M,M,M,M,M,M,M,M,M,M,88.66,KDRA 080453Z AUTO 31003KT 10SM CLR 33/09 A3005 RMK AO2 SLP113 T03330094,M
LOL,2022-09-08 04:53,-118.5701,40.0684,1192.43,87.00,40.00,19.01,10.00,9.00,0.00,30.13,1014.70,10.00,M,CLR,M,M,M,M,M,M,M,M,M,M,M,M,M,M,83.68,KLOL 080453Z AUTO 01009KT 10SM CLR 31/04 A3013 RMK AO2 SLP147 T03060044,M
HTH,2022-09-08 04:55,-118.6315,38.5448,1282.89,86.00,37.40,17.85,130.00,8.00,0.00,30.19,M,10.00,M,FEW,SCT,SCT,M,6500.00,7500.00,12000.00,M,M,M,M,M,M,M,M,82.73,KHTH 080455Z AUTO 13008KT 10SM FEW065 SCT075 SCT120 30/03 A3019 RMK A01,M
MEV,2022-09-08 04:55,-119.7500,38.9963,1441.42,71.60,41.00,33.00,30.00,5.00,0.00,30.23,M,8.00,M,SCT,OVC,M,M,2800.00,3200.00,M,M,M,M,M,M,M,M,M,71.60,KMEV 080455Z AUTO 03005KT 8SM SCT028 OVC032 22/05 A3023 RMK AO2,M
BAM,2022-09-08 04:55,-116.8743,40.5990,1382.36,84.20,42.80,23.33,0.00,0.00,0.00,30.23,M,10.00,M,CLR,M,M,M,M,M,M,M,M,M,M,M,M,M,M,81.61,KBAM 080455Z AUTO 00000KT 10SM CLR 29/06 A3023 RMK AO1,M
05U,2022-09-08 04:55,-116.0051,39.6042,1811.23,73.40,33.80,23.39,220.00,7.00,0.00,30.32,M,10.00,M,CLR,M,M,M,M,M,M,M,M,M,M,M,M,M,M,73.40,K05U 080455Z AUTO 22007KT 10SM CLR 23/01 A3032 RMK A01,M
CXP,2022-09-08 04:55,-119.7326,39.1923,1431.00,78.80,41.00,25.95,0.00,0.00,0.00,30.24,M,8.00,M,SCT,BKN,M,M,3000.00,6500.00,M,M,M,M,M,M,M,M,M,78.80,KCXP 080455Z AUTO 00000KT 8SM SCT030 BKN065 26/05 A3024 RMK AO2,M
BVU,2022-09-08 04:55,-114.8611,35.9475,671.00,95.00,51.80,23.30,160.00,6.00,0.00,29.97,M,M,M,M,M,M,M,M,M,M,M,M,M,M,M,M,M,M,92.26,KBVU 080455Z AUTO 16006KT 35/11 A2997 RMK AO2 TSNO,M
RNO,2022-09-08 04:55,-119.7711,39.4839,1341.00,85.00,43.00,22.98,250.00,7.00,0.00,30.21,1016.20,10.00,M,SCT,BKN,M,M,6000.00,14000.00,M,M,M,M,M,M,M,M,M,82.13,KRNO 080455Z 25007KT 10SM SCT060 BKN140 29/06 A3021 RMK AO2 SLP162 FU ALQDS T02940061,M
RTS,2022-09-08 04:55,-119.8764,39.6682,1539.00,71.60,41.00,33.00,320.00,4.00,0.00,30.27,M,10.00,M,CLR,M,M,M,M,M,M,M,M,M,M,M,M,M,M,71.60,KRTS 080455Z AUTO 32004KT 10SM CLR 22/05 A3027 RMK AO2,M
TMT,2022-09-08 04:55,-117.1971,39.4643,1749.34,M,M,M,310.00,6.00,0.00,30.33,M,10.00,M,BKN,M,M,M,11000.00,M,M,M,M,M,M,M,M,M,M,M,KTMT 080455Z AUTO 31006KT 10SM BKN110 A3033 RMK AO2,M
LSV,2022-09-08 04:56,-115.0343,36.2362,570.00,99.00,52.20,20.92,170.00,12.00,0.00,29.91,1009.70,10.00,M,SCT,M,M,M,19000.00,M,M,M,M,M,M,M,M,M,M,96.53,KLSV 080456Z AUTO 17012KT 10SM SCT190 37/11 A2991 RMK AO2 SLP097 T03720112 $,M
LAS,2022-09-08 04:56,-115.1634,36.0719,663.00,98.00,53.00,22.22,190.00,7.00,0.00,29.95,1010.70,10.00,M,FEW,SCT,M,M,15000.00,19000.00,M,M,M,M,M,M,M,M,M,95.83,KLAS 080456Z 19007KT 10SM FEW150 SCT190 37/12 A2995 RMK AO2 SLP107 T03670117,M
TPH,2022-09-08 04:56,-117.0904,38.0505,1654.00,82.00,40.00,22.39,80.00,16.00,T,30.30,1016.10,10.00,24.00,FEW,M,M,M,6000.00,M,M,M,M,M,M,M,M,M,M,79.98,KTPH 080456Z AUTO 08016G24KT 10SM FEW060 28/04 A3030 RMK AO2 WSHFT 0441 RAE03B34E49 SLP161 P0000 T02780044,M
NFL,2022-09-08 04:56,-118.7010,39.4166,1199.00,90.00,38.00,16.04,M,4.00,T,30.15,1017.50,10.00,M,BKN,OVC,M,M,8000.00,12000.00,M,M,-TSRA,M,M,M,M,M,M,86.03,KNFL 080456Z VRB04KT 10SM -TSRA BKN080CB OVC120 32/03 A3015 RMK AO2 RAB46 TSB45 SLP175 OCNL LTGIC OHD TS OHD MOV E P0000 T03220033,M
WMC,2022-09-08 04:56,-117.8072,40.9019,1315.00,79.00,43.00,27.84,310.00,4.00,T,30.18,1015.70,10.00,M,CLR,M,M,M,M,M,M,M,M,M,M,M,M,M,M,79.00,KWMC 080456Z AUTO 31004KT 10SM CLR 26/06 A3018 RMK AO2 RAB16E25 SLP157 P0000 T02610061,M
EKO,2022-09-08 04:56,-115.7860,40.8242,1367.00,81.00,37.00,20.65,M,M,0.00,30.21,1016.00,10.00,M,CLR,M,M,M,M,M,M,M,M,M,M,M,M,M,M,79.24,KEKO 080456Z AUTO 10SM CLR 27/03 A3021 RMK AO2 SLP160 T02720028,M
INS,2022-09-08 04:56,-115.6733,36.5872,955.00,91.20,44.40,19.86,230.00,3.00,0.00,30.03,1011.20,10.00,M,CLR,M,M,M,M,M,M,M,M,M,M,M,M,M,M,87.48,KINS 080456Z AUTO 23003KT 10SM CLR 33/07 A3003 RMK AO2 SLP112 T03290069 $,M
NFL,2022-09-08 05:09,-118.7010,39.4166,1199.00,90.00,38.00,16.04,M,4.00,T,30.15,M,10.00,M,BKN,BKN,BKN,M,8000.00,12000.00,25000.00,M,M,M,M,M,M,M,M,86.03,KNFL 080509Z VRB04KT 10SM BKN080 BKN120 BKN250 32/03 A3015 RMK AO2 RAE03 TSE03 TS OHD DISPTD P0000 T03220033,M
05U,2022-09-08 05:15,-116.0051,39.6042,1811.23,75.20,33.80,22.02,250.00,6.00,0.00,30.32,M,10.00,M,CLR,M,M,M,M,M,M,M,M,M,M,M,M,M,M,75.20,K05U 080515Z AUTO 25006KT 10SM CLR 24/01 A3032 RMK A01,M
HTH,2022-09-08 05:15,-118.6315,38.5448,1282.89,84.20,39.20,20.29,0.00,0.00,0.00,30.20,M,10.00,M,FEW,FEW,SCT,M,4900.00,6500.00,12000.00,M,M,M,M,M,M,M,M,81.44,KHTH 080515Z AUTO 00000KT 10SM FEW049 FEW065 SCT120 29/04 A3020 RMK A01,M
MEV,2022-09-08 05:15,-119.7500,38.9963,1441.42,68.00,41.00,37.32,80.00,5.00,0.00,30.23,M,8.00,M,SCT,OVC,M,M,3200.00,4400.00,M,M,M,M,M,M,M,M,M,68.00,KMEV 080515Z AUTO 08005KT 8SM SCT032 OVC044 20/05 A3023 RMK AO2,M
BVU,2022-09-08 05:15,-114.8611,35.9475,671.00,93.20,51.80,24.63,180.00,4.00,0.00,29.97,M,M,M,M,M,M,M,M,M,M,M,M,M,M,M,M,M,M,90.45,KBVU 080515Z AUTO 18004KT 34/11 A2997 RMK AO2 TSNO,M
CXP,2022-09-08 05:15,-119.7326,39.1923,1431.00,77.00,41.00,27.53,0.00,0.00,0.00,30.25,M,8.00,M,SCT,BKN,BKN,M,3200.00,4200.00,6000.00,M,M,M,M,M,M,M,M,77.00,KCXP 080515Z AUTO 00000KT 8SM SCT032 BKN042 BKN060 25/05 A3025 RMK AO2,M
RTS,2022-09-08 05:15,-119.8764,39.6682,1539.00,73.40,39.20,28.96,240.00,4.00,0.00,30.28,M,10.00,M,CLR,M,M,M,M,M,M,M,M,M,M,M,M,M,M,73.40,KRTS 080515Z AUTO 24004KT 10SM CLR 23/04 A3028 RMK AO2,M
TMT,2022-09-08 05:15,-117.1971,39.4643,1749.34,M,M,M,150.00,7.00,0.00,30.34,M,10.00,M,BKN,M,M,M,12000.00,M,M,M,M,M,M,M,M,M,M,M,KTMT 080515Z AUTO 15007KT 10SM BKN120 A3034 RMK AO2,M
BAM,2022-09-08 05:15,-116.8743,40.5990,1382.36,86.00,41.00,20.54,30.00,8.00,0.00,30.23,M,10.00,M,CLR,M,M,M,M,M,M,M,M,M,M,M,M,M,M,82.86,KBAM 080515Z AUTO 03008KT 10SM CLR 30/05 A3023 RMK AO1,M
05U,2022-09-08 05:35,-116.0051,39.6042,1811.23,75.20,33.80,22.02,260.00,8.00,0.00,30.32,M,10.00,M,CLR,M,M,M,M,M,M,M,M,M,M,M,M,M,M,75.20,K05U 080535Z AUTO 26008KT 10SM CLR 24/01 A3032 RMK A01,M
BVU,2022-09-08 05:35,-114.8611,35.9475,671.00,91.40,51.80,26.05,270.00,3.00,0.00,29.97,M,M,M,M,M,M,M,M,M,M,M,M,M,M,M,M,M,M,88.69,KBVU 080535Z AUTO 27003KT 33/11 A2997 RMK AO2 TSNO,M
CXP,2022-09-08 05:35,-119.7326,39.1923,1431.00,77.00,39.20,25.67,0.00,0.00,0.00,30.25,M,8.00,M,SCT,BKN,BKN,M,3400.00,4200.00,6500.00,M,M,M,M,M,M,M,M,77.00,KCXP 080535Z AUTO 00000KT 8SM SCT034 BKN042 BKN065 25/04 A3025 RMK AO2,M
RTS,2022-09-08 05:35,-119.8764,39.6682,1539.00,68.00,41.00,37.32,310.00,3.00,0.00,30.28,M,10.00,M,CLR,M,M,M,M,M,M,M,M,M,M,M,M,M,M,68.00,KRTS 080535Z AUTO 31003KT 10SM CLR 20/05 A3028 RMK AO2,M
MEV,2022-09-08 05:35,-119.7500,38.9963,1441.42,69.80,41.00,35.09,0.00,0.00,0.00,30.23,M,8.00,M,M,M,M,M,M,M,M,M,M,M,M,M,M,M,M,69.80,KMEV 080535Z AUTO 00000KT 8SM 21/05 A3023 RMK AO2,M
BAM,2022-09-08 05:35,-116.8743,40.5990,1382.36,86.00,41.00,20.54,60.00,9.00,0.00,30.21,M,10.00,14.00,CLR,M,M,M,M,M,M,M,M,M,M,M,M,M,M,82.86,KBAM 080535Z AUTO 06009G14KT 10SM CLR 30/05 A3021 RMK AO1,M
HTH,2022-09-08 05:35,-118.6315,38.5448,1282.89,84.20,37.40,18.91,150.00,7.00,0.00,30.20,M,10.00,M,FEW,SCT,BKN,M,6500.00,7500.00,11000.00,M,M,M,M,M,M,M,M,81.38,KHTH 080535Z AUTO 15007KT 10SM FEW065 SCT075 BKN110 29/03 A3020 RMK A01,M
TMT,2022-09-08 05:35,-117.1971,39.4643,1749.34,M,M,M,320.00,6.00,0.00,30.36,M,10.00,25.00,SCT,BKN,OVC,M,6000.00,9500.00,12000.00,M,M,M,M,M,M,M,M,M,KTMT 080535Z AUTO 32006G25KT 250V010 10SM SCT060 BKN095 OVC120 A3036 RMK AO2,M
LOL,2022-09-08 05:53,-118.5701,40.0684,1192.43,82.00,42.00,24.38,100.00,6.00,0.00,30.15,1015.60,10.00,M,CLR,M,M,M,M,M,M,M,M,M,M,M,M,M,M,80.09,KLOL 080553Z AUTO 10006KT 10SM CLR 28/06 A3015 RMK AO2 SLP156 60000 T02780056 10389 20278 53020,M
ELY,2022-09-08 05:53,-114.8453,39.2950,1909.00,66.00,36.00,32.88,280.00,6.00,0.00,30.33,1014.80,10.00,M,CLR,M,M,M,M,M,M,M,M,M,M,M,M,M,M,66.00,KELY 080553Z AUTO 28006KT 10SM CLR 19/02 A3033 RMK AO2 SLP148 T01890022 10311 20189 50003,M
P68,2022-09-08 05:53,-116.0056,39.6014,1993.00,79.00,34.00,19.57,240.00,12.00,0.00,30.29,1015.10,M,20.00,M,M,M,M,M,M,M,M,M,M,M,M,M,M,M,79.00,KP68 080553Z AUTO 24012G20KT 26/01 A3029 RMK AO1 SLP151 T02610011 10328 20217 51006,M
DRA,2022-09-08 05:53,-116.0278,36.6206,1009.00,91.00,50.00,24.68,250.00,5.00,0.00,30.05,1011.20,10.00,M,CLR,M,M,M,M,M,M,M,M,M,M,M,M,M,M,87.99,KDRA 080553Z AUTO 25005KT 10SM CLR 33/10 A3005 RMK AO2 SLP112 T03280100 10406 20328 50010,M
VGT,2022-09-08 05:53,-115.1933,36.2111,667.00,97.00,55.00,24.63,0.00,0.00,0.00,29.94,1012.00,10.00,M,CLR,M,M,M,M,M,M,M,M,M,M,M,M,M,M,95.23,KVGT 080553Z AUTO 00000KT 10SM CLR 36/13 A2994 RMK AO2 SLP120 T03610128 10417 20361 51006,M
BAM,2022-09-08 05:55,-116.8743,40.5990,1382.36,82.40,41.00,23.07,80.00,4.00,0.00,30.21,M,10.00,M,CLR,M,M,M,M,M,M,M,M,M,M,M,M,M,M,80.29,KBAM 080555Z AUTO 08004KT 10SM CLR 28/05 A3021 RMK AO1,M
HTH,2022-09-08 05:55,-118.6315,38.5448,1282.89,84.20,37.40,18.91,110.00,8.00,0.00,30.20,M,10.00,M,FEW,FEW,M,M,7500.00,9500.00,M,M,M,M,M,M,M,M,M,81.38,KHTH 080555Z AUTO 11008KT 10SM FEW075 FEW095 29/03 A3020 RMK A01,M
BVU,2022-09-08 05:55,-114.8611,35.9475,671.00,93.20,51.80,24.63,200.00,6.00,0.00,29.97,M,M,M,M,M,M,M,M,M,M,M,M,M,M,M,M,M,M,90.45,KBVU 080555Z AUTO 20006KT 34/11 A2997 RMK AO2 TSNO,M
CXP,2022-09-08 05:55,-119.7326,39.1923,1431.00,75.20,39.20,27.26,350.00,3.00,0.00,30.25,M,8.00,M,SCT,SCT,SCT,M,3700.00,4300.00,4800.00,M,M,M,M,M,M,M,M,75.20,KCXP 080555Z AUTO 35003KT 8SM SCT037 SCT043 SCT048 24/04 A3025 RMK AO2,M
RNO,2022-09-08 05:55,-119.7711,39.4839,1341.00,82.00,44.00,26.33,120.00,7.00,0.00,30.21,1016.20,10.00,M,FEW,FEW,M,M,6000.00,14000.00,M,M,M,M,M,M,M,M,M,80.22,KRNO 080555Z 12007KT 10SM FEW060 FEW140 28/07 A3021 RMK AO2 SLP162 HZ ALQDS T02780067 10372 20278 51016,M
RTS,2022-09-08 05:55,-119.8764,39.6682,1539.00,69.80,41.00,35.09,340.00,6.00,0.00,30.28,M,10.00,M,CLR,M,M,M,M,M,M,M,M,M,M,M,M,M,M,69.80,KRTS 080555Z AUTO 34006KT 10SM CLR 21/05 A3028 RMK AO2,M
TMT,2022-09-08 05:55,-117.1971,39.4643,1749.34,M,M,M,190.00,13.00,0.00,30.34,M,10.00,M,SCT,SCT,OVC,M,4900.00,7500.00,11000.00,M,M,M,M,M,M,M,M,M,KTMT 080555Z AUTO 19013KT 10SM SCT049 SCT075 OVC110 A3034 RMK AO2,M
05U,2022-09-08 05:55,-116.0051,39.6042,1811.23,78.80,33.80,19.55,240.00,8.00,0.00,30.32,M,10.00,14.00,CLR,M,M,M,M,M,M,M,M,M,M,M,M,M,M,78.80,K05U 080555Z AUTO 24008G14KT 10SM CLR 26/01 A3032 RMK A01,M
MEV,2022-09-08 05:55,-119.7500,38.9963,1441.42,66.20,39.20,37.03,130.00,4.00,0.00,30.23,M,8.00,M,M,M,M,M,M,M,M,M,M,M,M,M,M,M,M,66.20,KMEV 080555Z AUTO 13004KT 8SM 19/04 A3023 RMK AO2,M
LSV,2022-09-08 05:56,-115.0343,36.2362,570.00,98.60,53.00,21.89,160.00,11.00,0.00,29.91,1009.70,10.00,M,BKN,M,M,M,19000.00,M,M,M,M,M,M,M,M,M,M,96.36,KLSV 080556Z AUTO 16011KT 10SM BKN190 37/12 A2991 RMK AO2 SLP097 T03700117 10429 20370 50007 $,M
LAS,2022-09-08 05:56,-115.1634,36.0719,663.00,97.00,53.00,22.98,190.00,7.00,0.00,29.95,1010.70,10.00,M,FEW,BKN,M,M,15000.00,19000.00,M,M,M,M,M,M,M,M,M,94.67,KLAS 080556Z 19007KT 10SM FEW150 BKN190 36/12 A2995 RMK AO2 SLP107 T03610117 10417 20361 51006,M
INS,2022-09-08 05:56,-115.6733,36.5872,955.00,86.50,44.20,22.86,30.00,3.00,0.00,30.03,1011.20,10.00,M,CLR,M,M,M,M,M,M,M,M,M,M,M,M,M,M,83.44,KINS 080556Z AUTO 03003KT 10SM CLR 30/07 A3003 RMK AO2 SLP112 T03030068 10398 20302 51011 $,M
EKO,2022-09-08 05:56,-115.7860,40.8242,1367.00,83.00,37.00,19.41,330.00,17.00,0.00,30.22,1015.70,10.00,28.00,FEW,M,M,M,8500.00,M,M,M,M,M,M,M,31.00,310.00,2022-09-08 05:36,80.46,KEKO 080556Z AUTO 33017G28KT 10SM FEW085 28/03 A3022 RMK AO2 PK WND 31031/0536 SLP157 T02830028 10344 20261 51016,M
WMC,2022-09-08 05:56,-117.8072,40.9019,1315.00,74.00,47.00,38.26,280.00,6.00,T,30.16,1015.20,10.00,M,CLR,M,M,M,M,M,M,M,M,M,M,M,M,M,M,73.90,KWMC 080556Z AUTO 28006KT 10SM CLR 23/08 A3016 RMK AO2 LTG DSNT S RAB0459E09 SLP152 P0000 60000 T02330083 10394 20233 50015,M
NFL,2022-09-08 05:56,-118.7010,39.4166,1199.00,88.00,39.00,17.83,280.00,8.00,T,30.14,1017.30,10.00,M,BKN,BKN,BKN,M,8000.00,12000.00,25000.00,M,M,M,M,M,M,M,M,84.38,KNFL 080556Z 28008KT 10SM BKN080 BKN120 BKN250 31/04 A3014 RMK AO2 RAE03 TSE03 SLP173 OCNL LTGIC DSNT E CB DSNT E P0000 60000 T03110039 10378 20294 50004,M
TPH,2022-09-08 05:56,-117.0904,38.0505,1654.00,82.00,39.00,21.62,350.00,15.00,0.00,30.27,1014.90,10.00,22.00,CLR,M,M,M,M,M,M,M,M,M,M,M,27.00,60.00,2022-09-08 05:05,79.94,KTPH 080556Z AUTO 35015G22KT 10SM CLR 28/04 A3027 RMK AO2 PK WND 06027/0505 SLP149 60000 T02780039 10344 20278 50004,M
TMT,2022-09-08 06:15,-117.1971,39.4643,1749.34,M,M,M,210.00,9.00,0.00,30.34,M,10.00,14.00,OVC,M,M,M,11000.00,M,M,M,M,M,M,M,M,M,M,M,KTMT 080615Z AUTO 21009G14KT 10SM OVC110 A3034 RMK AO2,M
HTH,2022-09-08 06:15,-118.6315,38.5448,1282.89,82.40,37.40,20.04,160.00,8.00,0.00,30.19,M,10.00,M,CLR,M,M,M,M,M,M,M,M,M,M,M,M,M,M,80.14,KHTH 080615Z AUTO 16008KT 10SM CLR 28/03 A3019 RMK A01,M
BVU,2022-09-08 06:15,-114.8611,35.9475,671.00,91.40,51.80,26.05,210.00,6.00,0.00,29.97,M,M,M,M,M,M,M,M,M,M,M,M,M,M,M,M,M,M,88.69,KBVU 080615Z AUTO 21006KT 33/11 A2997 RMK AO2 TSNO,M
CXP,2022-09-08 06:15,-119.7326,39.1923,1431.00,78.80,39.20,24.19,320.00,5.00,0.00,30.24,M,10.00,M,BKN,BKN,BKN,M,3300.00,4200.00,4800.00,M,M,M,M,M,M,M,M,78.80,KCXP 080615Z AUTO 32005KT 10SM BKN033 BKN042 BKN048 26/04 A3024 RMK AO2,M
RTS,2022-09-08 06:15,-119.8764,39.6682,1539.00,66.20,41.00,39.72,320.00,5.00,0.00,30.27,M,10.00,M,CLR,M,M,M,M,M,M,M,M,M,M,M,M,M,M,66.20,KRTS 080615Z AUTO 32005KT 10SM CLR 19/05 A3027 RMK AO2,M
05U,2022-09-08 06:15,-116.0051,39.6042,1811.23,77.00,33.80,20.74,230.00,6.00,0.00,30.33,M,10.00,M,CLR,M,M,M,M,M,M,M,M,M,M,M,M,M,M,77.00,K05U 080615Z AUTO 23006KT 10SM CLR 25/01 A3033 RMK A01,M
MEV,2022-09-08 06:15,-119.7500,38.9963,1441.42,64.40,44.60,48.55,110.00,7.00,0.00,30.23,M,8.00,M,M,M,M,M,M,M,M,M,M,M,M,M,M,M,M,64.40,KMEV 080615Z AUTO 11007KT 8SM 18/07 A3023 RMK AO2,M
BAM,2022-09-08 06:15,-116.8743,40.5990,1382.36,84.20,41.00,21.76,90.00,3.00,0.00,30.22,M,10.00,M,CLR,M,M,M,M,M,M,M,M,M,M,M,M,M,M,81.52,KBAM 080615Z AUTO 09003KT 10SM CLR 29/05 A3022 RMK AO1,M
MEV,2022-09-08 06:35,-119.7500,38.9963,1441.42,64.40,42.80,45.32,130.00,9.00,0.00,30.23,M,9.00,M,OVC,M,M,M,3300.00,M,M,M,M,M,M,M,M,M,M,64.40,KMEV 080635Z AUTO 13009KT 9SM OVC033 18/06 A3023 RMK AO2,M
HTH,2022-09-08 06:35,-118.6315,38.5448,1282.89,80.60,37.40,21.25,M,3.00,0.00,30.19,M,10.00,M,CLR,M,M,M,M,M,M,M,M,M,M,M,M,M,M,79.02,KHTH 080635Z AUTO VRB03KT 10SM CLR 27/03 A3019 RMK A01,M
TMT,2022-09-08 06:35,-117.1971,39.4643,1749.34,M,M,M,110.00,5.00,0.00,30.34,M,10.00,M,SCT,SCT,OVC,M,4800.00,8000.00,10000.00,M,M,M,M,M,M,M,M,M,KTMT 080635Z AUTO 11005KT 10SM SCT048 SCT080 OVC100 A3034 RMK AO2,M
BVU,2022-09-08 06:35,-114.8611,35.9475,671.00,91.40,51.80,26.05,0.00,0.00,0.00,29.98,M,M,M,M,M,M,M,M,M,M,M,M,M,M,M,M,M,M,88.69,KBVU 080635Z AUTO 00000KT 33/11 A2998 RMK AO2 TSNO,M
CXP,2022-09-08 06:35,-119.7326,39.1923,1431.00,73.40,41.00,31.05,210.00,4.00,0.00,30.24,M,8.00,M,SCT,OVC,M,M,3300.00,5500.00,M,M,M,M,M,M,M,M,M,73.40,KCXP 080635Z AUTO 21004KT 8SM SCT033 OVC055 23/05 A3024 RMK AO2,M
RTS,2022-09-08 06:35,-119.8764,39.6682,1539.00,68.00,41.00,37.32,340.00,8.00,0.00,30.27,M,10.00,M,CLR,M,M,M,M,M,M,M,M,M,M,M,M,M,M,68.00,KRTS 080635Z AUTO 34008KT 10SM CLR 20/05 A3027 RMK AO2,M
05U,2022-09-08 06:35,-116.0051,39.6042,1811.23,77.00,33.80,20.74,250.00,9.00,0.00,30.34,M,10.00,M,CLR,M,M,M,M,M,M,M,M,M,M,M,M,M,M,77.00,K05U 080635Z AUTO 25009KT 10SM CLR 25/01 A3034 RMK A01,M
BAM,2022-09-08 06:35,-116.8743,40.5990,1382.36,82.40,41.00,23.07,200.00,4.00,0.00,30.23,M,10.00,M,CLR,M,M,M,M,M,M,M,M,M,M,M,M,M,M,80.29,KBAM 080635Z AUTO 20004KT 10SM CLR 28/05 A3023 RMK AO1,M
P68,2022-09-08 06:53,-116.0056,39.6014,1993.00,77.00,35.00,21.85,260.00,7.00,0.00,30.32,1016.20,M,M,M,M,M,M,M,M,M,M,M,M,M,M,M,M,M,77.00,KP68 080653Z AUTO 26007KT 25/02 A3032 RMK AO1 SLP162 T02500017,M
LOL,2022-09-08 06:53,-118.5701,40.0684,1192.43,77.00,42.00,28.73,290.00,7.00,0.00,30.15,1015.50,10.00,M,CLR,M,M,M,M,M,M,M,M,M,M,M,M,M,M,77.00,KLOL 080653Z AUTO 29007KT 10SM CLR 25/06 A3015 RMK AO2 SLP155 T02500056,M
ELY,2022-09-08 06:53,-114.8453,39.2950,1909.00,62.00,36.00,37.69,0.00,0.00,0.00,30.32,1014.60,10.00,M,CLR,M,M,M,M,M,M,M,M,M,M,M,M,M,M,62.10,KELY 080653Z AUTO 00000KT 10SM CLR 17/02 A3032 RMK AO2 SLP146 T01670022 403500100,M
VGT,2022-09-08 06:53,-115.1933,36.2111,667.00,96.00,55.00,25.32,190.00,3.00,0.00,29.94,1012.10,10.00,M,CLR,M,M,M,M,M,M,M,M,M,M,M,M,M,M,94.27,KVGT 080653Z AUTO 19003KT 10SM CLR 36/13 A2994 RMK AO2 SLP121 T03560128,M
DRA,2022-09-08 06:53,-116.0278,36.6206,1009.00,90.00,50.00,25.46,240.00,12.00,0.00,30.05,1011.30,10.00,18.00,CLR,M,M,M,M,M,M,M,M,M,M,M,M,M,M,87.06,KDRA 080653Z AUTO 24012G18KT 10SM CLR 32/10 A3005 RMK AO2 SLP113 T03220100,M
RTS,2022-09-08 06:55,-119.8764,39.6682,1539.00,68.00,41.00,37.32,320.00,6.00,0.00,30.27,M,10.00,M,CLR,M,M,M,M,M,M,M,M,M,M,M,M,M,M,68.00,KRTS 080655Z AUTO 32006KT 10SM CLR 20/05 A3027 RMK AO2,M
MEV,2022-09-08 06:55,-119.7500,38.9963,1441.42,68.00,41.00,37.32,120.00,4.00,0.00,30.23,M,10.00,M,OVC,M,M,M,3400.00,M,M,M,M,M,M,M,M,M,M,68.00,KMEV 080655Z AUTO 12004KT 10SM OVC034 20/05 A3023 RMK AO2,M
BAM,2022-09-08 06:55,-116.8743,40.5990,1382.36,78.80,42.80,27.81,200.00,5.00,0.00,30.23,M,10.00,M,CLR,M,M,M,M,M,M,M,M,M,M,M,M,M,M,78.80,KBAM 080655Z AUTO 20005KT 10SM CLR 26/06 A3023 RMK AO1,M
HTH,2022-09-08 06:55,-118.6315,38.5448,1282.89,78.80,37.40,22.54,190.00,4.00,0.00,30.19,M,10.00,M,CLR,M,M,M,M,M,M,M,M,M,M,M,M,M,M,78.80,KHTH 080655Z AUTO 19004KT 10SM CLR 26/03 A3019 RMK A01,M
TMT,2022-09-08 06:55,-117.1971,39.4643,1749.34,M,M,M,110.00,3.00,0.00,30.35,M,10.00,M,SCT,SCT,OVC,M,7000.00,8000.00,10000.00,M,M,M,M,M,M,M,M,M,KTMT 080655Z AUTO 11003KT 10SM SCT070 SCT080 OVC100 A3035 RMK AO2,M
05U,2022-09-08 06:55,-116.0051,39.6042,1811.23,77.00,33.80,20.74,250.00,7.00,0.00,30.35,M,10.00,M,CLR,M,M,M,M,M,M,M,M,M,M,M,M,M,M,77.00,K05U 080655Z AUTO 25007KT 10SM CLR 25/01 A3035 RMK A01,M
RNO,2022-09-08 06:55,-119.7711,39.4839,1341.00,81.00,43.00,26.08,230.00,7.00,0.00,30.21,1015.90,10.00,M,FEW,M,M,M,14000.00,M,M,M,M,M,M,M,M,M,M,79.54,KRNO 080655Z 23007KT 10SM FEW140 27/06 A3021 RMK AO2 SLP159 HZ ALQDS T02720061,M
CXP,2022-09-08 06:55,-119.7326,39.1923,1431.00,75.20,41.00,29.23,0.00,0.00,0.00,30.24,M,9.00,M,OVC,M,M,M,5500.00,M,M,M,M,M,M,M,M,M,M,75.20,KCXP 080655Z AUTO 00000KT 9SM OVC055 24/05 A3024 RMK AO2,M
BVU,2022-09-08 06:55,-114.8611,35.9475,671.00,91.40,51.80,26.05,0.00,0.00,0.00,29.98,M,M,M,M,M,M,M,M,M,M,M,M,M,M,M,M,M,M,88.69,KBVU 080655Z AUTO 00000KT 33/11 A2998 RMK AO2 TSNO,M
LSV,2022-09-08 06:56,-115.0343,36.2362,570.00,96.60,53.80,23.87,170.00,10.00,0.00,29.92,1010.00,10.00,M,OVC,M,M,M,19000.00,M,M,M,M,M,M,M,M,M,M,94.44,KLSV 080656Z AUTO 17010KT 10SM OVC190 36/12 A2992 RMK AO2 SLP100 T03590121 $,M
EKO,2022-09-08 06:56,-115.7860,40.8242,1367.00,81.00,38.00,21.39,130.00,4.00,0.00,30.24,1016.20,10.00,M,CLR,M,M,M,M,M,M,M,M,M,M,M,29.00,340.00,2022-09-08 06:05,79.28,KEKO 080656Z AUTO 13004KT 10SM CLR 27/03 A3024 RMK AO2 PK WND 34029/0605 SLP162 T02720033,M
TPH,2022-09-08 06:56,-117.0904,38.0505,1654.00,79.00,39.00,23.85,350.00,12.00,0.00,30.26,1014.50,10.00,M,CLR,M,M,M,M,M,M,M,M,M,M,M,M,M,M,79.00,KTPH 080656Z AUTO 35012KT 10SM CLR 26/04 A3026 RMK AO2 SLP145 T02610039,M
LAS,2022-09-08 06:56,-115.1634,36.0719,663.00,95.00,54.00,25.26,190.00,8.00,0.00,29.96,1011.00,10.00,16.00,FEW,BKN,M,M,15000.00,20000.00,M,M,M,M,M,M,M,M,M,92.82,KLAS 080656Z 19008G16KT 10SM FEW150 BKN200 35/12 A2996 RMK AO2 SLP110 T03500122,M
NFL,2022-09-08 06:56,-118.7010,39.4166,1199.00,84.00,39.00,20.27,M,5.00,0.00,30.15,1017.50,10.00,M,BKN,BKN,BKN,M,8000.00,12000.00,25000.00,M,M,M,M,M,M,M,M,81.29,KNFL 080656Z VRB05KT 10SM BKN080 BKN120 BKN250 29/04 A3015 RMK AO2 SLP175 OCNL LTGIC DSNT N AND E CB DSNT N AND E T02890039,M
INS,2022-09-08 06:56,-115.6733,36.5872,955.00,86.40,45.30,23.92,260.00,4.00,0.00,30.03,1011.00,10.00,M,BKN,M,M,M,18000.00,M,M,M,M,M,M,M,M,M,M,83.44,KINS 080656Z AUTO 26004KT 10SM BKN180 30/07 A3003 RMK AO2 SLP110 T03020074 $,M
WMC,2022-09-08 06:56,-117.8072,40.9019,1315.00,74.00,43.00,32.98,140.00,9.00,0.00,30.19,1016.00,10.00,M,CLR,M,M,M,M,M,M,M,M,M,M,M,M,M,M,73.90,KWMC 080656Z AUTO 14009KT 10SM CLR 23/06 A3019 RMK AO2 SLP160 T02330061,M
MEV,2022-09-08 07:15,-119.7500,38.9963,1441.42,68.00,41.00,37.32,0.00,0.00,0.00,30.23,M,10.00,M,OVC,M,M,M,3300.00,M,M,M,M,M,M,M,M,M,M,68.00,KMEV 080715Z AUTO 00000KT 10SM OVC033 20/05 A3023 RMK AO2,M
BAM,2022-09-08 07:15,-116.8743,40.5990,1382.36,77.00,41.00,27.53,280.00,12.00,0.00,30.23,M,10.00,16.00,CLR,M,M,M,M,M,M,M,M,M,M,M,M,M,M,77.00,KBAM 080715Z AUTO 28012G16KT 10SM CLR 25/05 A3023 RMK AO1,M
CXP,2022-09-08 07:15,-119.7326,39.1923,1431.00,71.60,41.00,33.00,0.00,0.00,0.00,30.24,M,9.00,M,OVC,M,M,M,6000.00,M,M,M,M,M,M,M,M,M,M,71.60,KCXP 080715Z AUTO 00000KT 9SM OVC060 22/05 A3024 RMK AO2,M
TMT,2022-09-08 07:15,-117.1971,39.4643,1749.34,M,M,M,300.00,5.00,0.00,30.34,M,10.00,M,SCT,M,M,M,10000.00,M,M,M,M,M,M,M,M,M,M,M,KTMT 080715Z AUTO 30005KT 10SM SCT100 A3034 RMK AO2,M
RTS,2022-09-08 07:15,-119.8764,39.6682,1539.00,69.80,39.20,32.72,330.00,5.00,0.00,30.27,M,10.00,M,CLR,M,M,M,M,M,M,M,M,M,M,M,M,M,M,69.80,KRTS 080715Z AUTO 33005KT 10SM CLR 21/04 A3027 RMK AO2,M
BVU,2022-09-08 07:15,-114.8611,35.9475,671.00,91.40,51.80,26.05,170.00,4.00,0.00,29.98,M,M,M,M,M,M,M,M,M,M,M,M,M,M,M,M,M,M,88.69,KBVU 080715Z AUTO 17004KT 33/11 A2998 RMK AO2 TSNO,M
HTH,2022-09-08 07:15,-118.6315,38.5448,1282.89,78.80,37.40,22.54,M,4.00,0.00,30.18,M,10.00,M,CLR,M,M,M,M,M,M,M,M,M,M,M,M,M,M,78.80,KHTH 080715Z AUTO VRB04KT 10SM CLR 26/03 A3018 RMK A01,M
05U,2022-09-08 07:15,-116.0051,39.6042,1811.23,75.20,33.80,22.02,360.00,10.00,0.00,30.35,M,10.00,M,SCT,M,M,M,11000.00,M,M,M,M,M,M,M,M,M,M,75.20,K05U 080715Z AUTO 36010KT 10SM SCT110 24/01 A3035 RMK A01,M
05U,2022-09-08 07:35,-116.0051,39.6042,1811.23,73.40,37.40,26.98,10.00,3.00,0.00,30.36,M,10.00,M,SCT,M,M,M,11000.00,M,M,M,M,M,M,M,M,M,M,73.40,K05U 080735Z AUTO 01003KT 10SM SCT110 23/03 A3036 RMK A01,M
BAM,2022-09-08 07:35,-116.8743,40.5990,1382.36,82.40,41.00,23.07,0.00,0.00,0.00,30.21,M,10.00,M,SCT,M,M,M,12000.00,M,M,M,M,M,M,M,M,M,M,80.29,KBAM 080735Z AUTO 00000KT 10SM SCT120 28/05 A3021 RMK AO1,M
HTH,2022-09-08 07:35,-118.6315,38.5448,1282.89,77.00,37.40,23.93,140.00,5.00,0.00,30.19,M,10.00,M,CLR,M,M,M,M,M,M,M,M,M,M,M,M,M,M,77.00,KHTH 080735Z AUTO 14005KT 10SM CLR 25/03 A3019 RMK A01,M
TMT,2022-09-08 07:35,-117.1971,39.4643,1749.34,M,M,M,350.00,6.00,0.00,30.33,M,10.00,M,BKN,M,M,M,12000.00,M,M,M,M,M,M,M,M,M,M,M,KTMT 080735Z AUTO 35006KT 10SM BKN120 A3033 RMK AO2,M
CXP,2022-09-08 07:35,-119.7326,39.1923,1431.00,71.60,41.00,33.00,0.00,0.00,0.00,30.24,M,8.00,M,SCT,M,M,M,6000.00,M,M,M,M,M,M,M,M,M,M,71.60,KCXP 080735Z AUTO 00000KT 8SM SCT060 22/05 A3024 RMK AO2,M
BVU,2022-09-08 07:35,-114.8611,35.9475,671.00,91.40,51.80,26.05,100.00,4.00,0.00,29.97,M,M,M,M,M,M,M,M,M,M,M,M,M,M,M,M,M,M,88.69,KBVU 080735Z AUTO 10004KT 33/11 A2997 RMK AO2 TSNO,M
RTS,2022-09-08 07:35,-119.8764,39.6682,1539.00,69.80,39.20,32.72,350.00,6.00,0.00,30.26,M,10.00,M,CLR,M,M,M,M,M,M,M,M,M,M,M,M,M,M,69.80,KRTS 080735Z AUTO 35006KT 10SM CLR 21/04 A3026 RMK AO2,M
MEV,2022-09-08 07:35,-119.7500,38.9963,1441.42,66.20,41.00,39.72,0.00,0.00,0.00,30.23,M,10.00,M,BKN,OVC,M,M,2800.00,3200.00,M,M,M,M,M,M,M,M,M,66.20,KMEV 080735Z AUTO 00000KT 10SM BKN028 OVC032 19/05 A3023 RMK AO2,M
ELY,2022-09-08 07:53,-114.8453,39.2950,1909.00,62.00,37.00,39.21,230.00,5.00,0.00,30.32,1015.20,10.00,M,CLR,M,M,M,M,M,M,M,M,M,M,M,M,M,M,62.10,KELY 080753Z AUTO 23005KT 10SM CLR 17/03 A3032 RMK AO2 SLP152 T01670028,M
VGT,2022-09-08 07:53,-115.1933,36.2111,667.00,94.00,55.00,27.10,200.00,4.00,0.00,29.95,1012.20,10.00,M,CLR,M,M,M,M,M,M,M,M,M,M,M,M,M,M,91.95,KVGT 080753Z AUTO 20004KT 10SM CLR 34/13 A2995 RMK AO2 SLP122 T03440128 404220294,M
LOL,2022-09-08 07:53,-118.5701,40.0684,1192.43,77.00,44.00,31.02,150.00,4.00,0.00,30.14,1015.10,10.00,M,CLR,M,M,M,M,M,M,M,M,M,M,M,M,M,M,77.00,KLOL 080753Z AUTO 15004KT 10SM CLR 25/07 A3014 RMK AO2 SLP151 T02500067 403940178,M
P68,2022-09-08 07:53,-116.0056,39.6014,1993.00,71.00,38.00,29.74,30.00,3.00,0.00,30.33,1017.00,M,M,M,M,M,M,M,M,M,M,M,M,M,M,M,M,M,71.10,KP68 080753Z AUTO 03003KT 22/03 A3033 RMK AO1 SLP170 T02170033 403500150,M
DRA,2022-09-08 07:53,-116.0278,36.6206,1009.00,90.00,50.00,25.46,220.00,9.00,0.00,30.05,1011.10,10.00,M,CLR,M,M,M,M,M,M,M,M,M,M,M,M,M,M,87.06,KDRA 080753Z AUTO 22009KT 10SM CLR 32/10 A3005 RMK AO2 SLP111 T03220100 404110256,M
TMT,2022-09-08 07:55,-117.1971,39.4643,1749.34,M,M,M,0.00,0.00,0.00,30.32,M,10.00,M,BKN,M,M,M,12000.00,M,M,M,M,M,M,M,M,M,M,M,KTMT 080755Z AUTO 00000KT 10SM BKN120 A3032 RMK AO2,M
HTH,2022-09-08 07:55,-118.6315,38.5448,1282.89,77.00,37.40,23.93,200.00,4.00,0.00,30.18,M,10.00,M,CLR,M,M,M,M,M,M,M,M,M,M,M,M,M,M,77.00,KHTH 080755Z AUTO 20004KT 10SM CLR 25/03 A3018 RMK A01,M
CXP,2022-09-08 07:55,-119.7326,39.1923,1431.00,69.80,42.80,37.61,0.00,0.00,0.00,30.24,M,8.00,M,FEW,M,M,M,4800.00,M,M,M,M,M,M,M,M,M,M,69.80,KCXP 080755Z AUTO 00000KT 8SM FEW048 21/06 A3024 RMK AO2,M
RNO,2022-09-08 07:55,-119.7711,39.4839,1341.00,79.00,43.00,27.84,300.00,5.00,0.00,30.20,1015.60,10.00,M,FEW,M,M,M,14000.00,M,M,M,M,M,M,M,M,M,M,79.00,KRNO 080755Z 30005KT 10SM FEW140 26/06 A3020 RMK AO2 SLP156 HZ ALQDS T02610061 404000206,M
RTS,2022-09-08 07:55,-119.8764,39.6682,1539.00,69.80,39.20,32.72,340.00,7.00,0.00,30.26,M,10.00,M,CLR,M,M,M,M,M,M,M,M,M,M,M,M,M,M,69.80,KRTS 080755Z AUTO 34007KT 10SM CLR 21/04 A3026 RMK AO2,M
05U,2022-09-08 07:55,-116.0051,39.6042,1811.23,69.80,37.40,30.49,50.00,4.00,0.00,30.35,M,10.00,M,CLR,M,M,M,M,M,M,M,M,M,M,M,M,M,M,69.80,K05U 080755Z AUTO 05004KT 10SM CLR 21/03 A3035 RMK A01,M
MEV,2022-09-08 07:55,-119.7500,38.9963,1441.42,62.60,39.20,42.00,180.00,4.00,0.00,30.24,M,10.00,M,BKN,BKN,OVC,M,2800.00,4200.00,4900.00,M,M,M,M,M,M,M,M,62.60,KMEV 080755Z AUTO 18004KT 10SM BKN028 BKN042 OVC049 17/04 A3024 RMK AO2,M
BAM,2022-09-08 07:55,-116.8743,40.5990,1382.36,80.60,41.00,24.46,190.00,3.00,0.00,30.20,M,10.00,M,SCT,M,M,M,11000.00,M,M,M,M,M,M,M,M,M,M,79.20,KBAM 080755Z AUTO 19003KT 10SM SCT110 27/05 A3020 RMK AO1,M
WMC,2022-09-08 07:56,-117.8072,40.9019,1315.00,79.00,42.00,26.89,170.00,10.00,0.00,30.16,1014.70,10.00,M,CLR,M,M,M,M,M,M,M,M,M,M,M,M,M,M,79.00,KWMC 080756Z AUTO 17010KT 10SM CLR 26/06 A3016 RMK AO2 SLP147 T02610056 404060167,M
INS,2022-09-08 07:56,-115.6733,36.5872,955.00,84.00,45.50,26.03,250.00,6.00,0.00,30.03,1011.00,10.00,M,BKN,M,M,M,17000.00,M,M,M,M,M,M,M,M,M,M,81.65,KINS 080756Z AUTO 25006KT 10SM BKN170 29/08 A3003 RMK AO2 SLP110 T02890075 404020225 $,M
LSV,2022-09-08 07:56,-115.0343,36.2362,570.00,95.20,53.80,24.92,170.00,8.00,0.00,29.93,1010.40,10.00,M,CLR,M,M,M,M,M,M,M,M,M,M,M,M,M,M,92.97,KLSV 080756Z AUTO 17008KT 10SM CLR 35/12 A2993 RMK AO2 SLP104 T03510121 404430288 $,M
TPH,2022-09-08 07:56,-117.0904,38.0505,1654.00,75.00,40.00,28.20,10.00,7.00,0.00,30.27,1014.90,10.00,M,CLR,M,M,M,M,M,M,M,M,M,M,M,M,M,M,75.00,KTPH 080756Z AUTO 01007KT 10SM CLR 24/04 A3027 RMK AO2 SLP149 T02390044 403670161,M
LAS,2022-09-08 07:56,-115.1634,36.0719,663.00,93.00,53.00,26.00,190.00,7.00,0.00,29.95,1010.80,10.00,M,BKN,M,M,M,21000.00,M,M,M,M,M,M,M,M,M,M,90.54,KLAS 080756Z 19007KT 10SM BKN210 34/12 A2995 RMK AO2 SLP108 T03390117 404170306,M
NFL,2022-09-08 07:56,-118.7010,39.4166,1199.00,83.00,41.00,22.70,260.00,9.00,0.00,30.15,1017.40,10.00,M,FEW,M,M,M,4300.00,M,M,M,M,M,M,M,M,M,M,80.62,KNFL 080756Z AUTO 26009KT 10SM FEW043 28/05 A3015 RMK AO2 SLP174 T02830050 403940194,M
EKO,2022-09-08 07:56,-115.7860,40.8242,1367.00,78.00,38.00,23.53,340.00,3.00,0.00,30.24,1016.10,10.00,M,CLR,M,M,M,M,M,M,M,M,M,M,M,M,M,M,78.10,KEKO 080756Z AUTO 34003KT 10SM CLR 26/03 A3024 RMK AO2 SLP161 T02560033 403830144,M
TMT,2022-09-08 08:15,-117.1971,39.4643,1749.34,M,M,M,0.00,0.00,0.00,30.32,M,10.00,M,SCT,M,M,M,12000.00,M,M,M,M,M,M,M,M,M,M,M,KTMT 080815Z AUTO 00000KT 10SM SCT120 A3032 RMK AO2,M
CXP,2022-09-08 08:15,-119.7326,39.1923,1431.00,69.80,41.00,35.09,310.00,3.00,0.00,30.24,M,9.00,M,FEW,SCT,M,M,4400.00,6000.00,M,M,M,M,M,M,M,M,M,69.80,KCXP 080815Z AUTO 31003KT 9SM FEW044 SCT060 21/05 A3024 RMK AO2,M
RTS,2022-09-08 08:15,-119.8764,39.6682,1539.00,66.20,39.20,37.03,340.00,5.00,0.00,30.26,M,10.00,M,CLR,M,M,M,M,M,M,M,M,M,M,M,M,M,M,66.20,KRTS 080815Z AUTO 34005KT 10SM CLR 19/04 A3026 RMK AO2,M
BVU,2022-09-08 08:15,-114.8611,35.9475,671.00,86.00,55.40,35.25,0.00,0.00,0.00,29.97,M,M,M,M,M,M,M,M,M,M,M,M,M,M,M,M,M,M,84.54,KBVU 080815Z AUTO 00000KT 30/13 A2997 RMK AO2 TSNO,M
05U,2022-09-08 08:15,-116.0051,39.6042,1811.23,68.00,39.20,34.80,0.00,0.00,0.00,30.35,M,10.00,M,CLR,M,M,M,M,M,M,M,M,M,M,M,M,M,M,68.00,K05U 080815Z AUTO 00000KT 10SM CLR 20/04 A3035 RMK A01,M
MEV,2022-09-08 08:15,-119.7500,38.9963,1441.42,62.60,42.80,48.28,140.00,3.00,0.00,30.23,M,10.00,M,FEW,BKN,OVC,M,2800.00,5000.00,6000.00,M,M,M,M,M,M,M,M,62.60,KMEV 080815Z AUTO 14003KT 10SM FEW028 BKN050 OVC060 17/06 A3023 RMK AO2,M
BAM,2022-09-08 08:15,-116.8743,40.5990,1382.36,77.00,41.00,27.53,150.00,6.00,0.00,30.21,M,10.00,M,CLR,M,M,M,M,M,M,M,M,M,M,M,M,M,M,77.00,KBAM 080815Z AUTO 15006KT 10SM CLR 25/05 A3021 RMK AO1,M
HTH,2022-09-08 08:15,-118.6315,38.5448,1282.89,75.20,37.40,25.40,0.00,0.00,0.00,30.18,M,10.00,M,M,M,M,M,M,M,M,M,M,M,M,M,M,M,M,75.20,KHTH 080815Z AUTO 00000KT 10SM 24/03 A3018 RMK A01,M
CXP,2022-09-08 08:30,-119.7326,39.1923,1431.00,68.00,41.00,37.32,0.00,0.00,0.00,30.24,M,8.00,M,SCT,SCT,SCT,M,4000.00,4600.00,6000.00,M,M,M,M,M,M,M,M,68.00,KCXP 080830Z AUTO 00000KT 8SM SCT040 SCT046 SCT060 20/05 A3024 RMK AO2,M
HTH,2022-09-08 08:35,-118.6315,38.5448,1282.89,75.20,35.60,23.66,150.00,6.00,0.00,30.18,M,10.00,M,M,M,M,M,M,M,M,M,M,M,M,M,M,M,M,75.20,KHTH 080835Z AUTO 15006KT 10SM 24/02 A3018 RMK A01,M
BVU,2022-09-08 08:35,-114.8611,35.9475,671.00,89.60,51.80,27.56,160.00,4.00,0.00,29.97,M,M,M,M,M,M,M,M,M,M,M,M,M,M,M,M,M,M,87.00,KBVU 080835Z AUTO 16004KT 32/11 A2997 RMK AO2 TSNO,M
RTS,2022-09-08 08:35,-119.8764,39.6682,1539.00,66.20,39.20,37.03,350.00,3.00,0.00,30.25,M,10.00,M,CLR,M,M,M,M,M,M,M,M,M,M,M,M,M,M,66.20,KRTS 080835Z AUTO 35003KT 10SM CLR 19/04 A3025 RMK AO2,M
05U,2022-09-08 08:35,-116.0051,39.6042,1811.23,66.20,39.20,37.03,120.00,4.00,0.00,30.34,M,10.00,M,CLR,M,M,M,M,M,M,M,M,M,M,M,M,M,M,66.20,K05U 080835Z AUTO 12004KT 10SM CLR 19/04 A3034 RMK A01,M
MEV,2022-09-08 08:35,-119.7500,38.9963,1441.42,60.80,46.40,59.01,140.00,4.00,0.00,30.23,M,10.00,M,BKN,BKN,OVC,M,2800.00,4900.00,6000.00,M,M,M,M,M,M,M,M,60.80,KMEV 080835Z AUTO 14004KT 10SM BKN028 BKN049 OVC060 16/08 A3023 RMK AO2,M
BAM,2022-09-08 08:35,-116.8743,40.5990,1382.36,75.20,41.00,29.23,220.00,4.00,0.00,30.21,M,10.00,M,CLR,M,M,M,M,M,M,M,M,M,M,M,M,M,M,75.20,KBAM 080835Z AUTO 22004KT 10SM CLR 24/05 A3021 RMK AO1,M
TMT,2022-09-08 08:35,-117.1971,39.4643,1749.34,M,M,M,270.00,5.00,0.00,30.31,M,10.00,M,CLR,M,M,M,M,M,M,M,M,M,M,M,M,M,M,M,KTMT 080835Z AUTO 27005KT 10SM CLR A3031 RMK AO2,M
LOL,2022-09-08 08:53,-118.5701,40.0684,1192.43,72.00,46.00,39.42,40.00,5.00,0.00,30.12,1014.90,10.00,M,CLR,M,M,M,M,M,M,M,M,M,M,M,M,M,M,72.00,KLOL 080853Z AUTO 04005KT 10SM CLR 22/08 A3012 RMK AO2 SLP149 T02220078 58008,M
DRA,2022-09-08 08:53,-116.0278,36.6206,1009.00,90.00,50.00,25.46,320.00,8.00,0.00,30.05,1011.30,10.00,M,CLR,M,M,M,M,M,M,M,M,M,M,M,M,M,M,87.06,KDRA 080853Z AUTO 32008KT 10SM CLR 32/10 A3005 RMK AO2 SLP113 T03220100 53001,M
P68,2022-09-08 08:53,-116.0056,39.6014,1993.00,65.00,38.00,36.82,190.00,5.00,0.00,30.31,1017.30,M,M,M,M,M,M,M,M,M,M,M,M,M,M,M,M,M,64.90,KP68 080853Z AUTO 19005KT 18/03 A3031 RMK AO1 SLP173 T01830033 50006,M
VGT,2022-09-08 08:53,-115.1933,36.2111,667.00,92.00,55.00,28.84,280.00,3.00,0.00,29.94,1012.00,10.00,M,CLR,M,M,M,M,M,M,M,M,M,M,M,M,M,M,89.92,KVGT 080853Z AUTO 28003KT 10SM CLR 33/13 A2994 RMK AO2 SLP120 T03330128 50001,M
ELY,2022-09-08 08:53,-114.8453,39.2950,1909.00,65.00,37.00,35.54,130.00,5.00,0.00,30.33,1015.00,10.00,M,FEW,M,M,M,12000.00,M,M,M,M,M,M,M,M,M,M,64.90,KELY 080853Z AUTO 13005KT 10SM FEW120 18/03 A3033 RMK AO2 SLP150 T01830028 53002,M
RTS,2022-09-08 08:55,-119.8764,39.6682,1539.00,62.60,39.20,42.00,30.00,4.00,0.00,30.25,M,10.00,M,CLR,M,M,M,M,M,M,M,M,M,M,M,M,M,M,62.60,KRTS 080855Z AUTO 03004KT 10SM CLR 17/04 A3025 RMK AO2,M
BVU,2022-09-08 08:55,-114.8611,35.9475,671.00,89.60,51.80,27.56,0.00,0.00,0.00,29.96,M,M,M,M,M,M,M,M,M,M,M,M,M,M,M,M,M,M,87.00,KBVU 080855Z AUTO 00000KT 32/11 A2996 RMK AO2 TSNO,M
RNO,2022-09-08 08:55,-119.7711,39.4839,1341.00,75.00,44.00,33.16,0.00,0.00,0.00,30.20,1015.50,9.00,M,CLR,M,M,M,M,M,M,M,M,M,M,M,M,M,M,75.00,KRNO 080855Z 00000KT 9SM CLR 24/07 A3020 RMK AO2 SLP155 HZ ALQDS T02390067 58003,M
TMT,2022-09-08 08:55,-117.1971,39.4643,1749.34,M,M,M,220.00,4.00,0.00,30.31,M,10.00,M,CLR,M,M,M,M,M,M,M,M,M,M,M,M,M,M,M,KTMT 080855Z AUTO 22004KT 10SM CLR A3031 RMK AO2,M
CXP,2022-09-08 08:55,-119.7326,39.1923,1431.00,69.80,41.00,35.09,320.00,5.00,0.00,30.24,M,9.00,M,FEW,FEW,M,M,3600.00,12000.00,M,M,M,M,M,M,M,M,M,69.80,KCXP 080855Z AUTO 32005KT 9SM FEW036 FEW120 21/05 A3024 RMK AO2,M
HTH,2022-09-08 08:55,-118.6315,38.5448,1282.89,77.00,37.40,23.93,220.00,6.00,0.00,30.18,M,10.00,M,CLR,M,M,M,M,M,M,M,M,M,M,M,M,M,M,77.00,KHTH 080855Z AUTO 22006KT 10SM CLR 25/03 A3018 RMK A01,M
BAM,2022-09-08 08:55,-116.8743,40.5990,1382.36,73.40,41.00,31.05,160.00,6.00,0.00,30.20,M,10.00,M,CLR,M,M,M,M,M,M,M,M,M,M,M,M,M,M,73.40,KBAM 080855Z AUTO 16006KT 10SM CLR 23/05 A3020 RMK AO1,M
MEV,2022-09-08 08:55,-119.7500,38.9963,1441.42,59.00,41.00,51.18,100.00,4.00,0.00,30.23,M,10.00,M,M,M,M,M,M,M,M,M,M,M,M,M,M,M,M,59.00,KMEV 080855Z AUTO 10004KT 10SM 15/05 A3023 RMK AO2,M
05U,2022-09-08 08:55,-116.0051,39.6042,1811.23,64.40,37.40,36.74,180.00,5.00,0.00,30.34,M,10.00,M,CLR,M,M,M,M,M,M,M,M,M,M,M,M,M,M,64.40,K05U 080855Z AUTO 18005KT 10SM CLR 18/03 A3034 RMK A01,M
INS,2022-09-08 08:56,-115.6733,36.5872,955.00,83.30,46.00,27.03,0.00,0.00,0.00,30.04,1011.40,10.00,M,FEW,M,M,M,19000.00,M,M,M,M,M,M,M,M,M,M,81.20,KINS 080856Z AUTO 00000KT 10SM FEW190 29/08 A3004 RMK AO2 SLP114 T02850077 53002 $,M
EKO,2022-09-08 08:56,-115.7860,40.8242,1367.00,75.00,37.00,25.17,350.00,3.00,0.00,30.22,1015.90,10.00,M,FEW,M,M,M,11000.00,M,M,M,M,M,M,M,M,M,M,75.00,KEKO 080856Z AUTO 35003KT 10SM FEW110 24/03 A3022 RMK AO2 SLP159 T02390028 50002,M
LAS,2022-09-08 08:56,-115.1634,36.0719,663.00,92.00,52.00,25.84,200.00,7.00,0.00,29.95,1010.70,10.00,M,SCT,M,M,M,21000.00,M,M,M,M,M,M,M,M,M,M,89.21,KLAS 080856Z 20007KT 10SM SCT210 33/11 A2995 RMK AO2 SLP107 T03330111 58000,M
TPH,2022-09-08 08:56,-117.0904,38.0505,1654.00,72.00,40.00,31.20,70.00,6.00,0.00,30.27,1015.00,10.00,M,CLR,M,M,M,M,M,M,M,M,M,M,M,M,M,M,72.00,KTPH 080856Z AUTO 07006KT 10SM CLR 22/04 A3027 RMK AO2 SLP150 T02220044 56001,M
NFL,2022-09-08 08:56,-118.7010,39.4166,1199.00,79.00,42.00,26.89,250.00,8.00,0.00,30.13,1016.90,10.00,M,CLR,M,M,M,M,M,M,M,M,M,M,M,M,M,M,79.00,KNFL 080856Z AUTO 25008KT 10SM CLR 26/06 A3013 RMK AO2 SLP169 T02610056 58004,M
WMC,2022-09-08 08:56,-117.8072,40.9019,1315.00,77.00,42.00,28.73,230.00,4.00,0.00,30.16,1014.50,10.00,M,CLR,M,M,M,M,M,M,M,M,M,M,M,M,M,M,77.00,KWMC 080856Z AUTO 23004KT 10SM CLR 25/06 A3016 RMK AO2 SLP145 T02500056 58002,M
LSV,2022-09-08 08:56,-115.0343,36.2362,570.00,93.20,53.60,26.31,40.00,5.00,0.00,29.92,M,10.00,M,CLR,M,M,M,M,M,M,M,M,M,M,M,M,M,M,90.86,KLSV 080856Z COR 04005KT 10SM CLR 34/12 A2992 RMK AO2A SLPNO WND DATA ESTMD $ COR 0915,M
05U,2022-09-08 09:10,-116.0051,39.6042,1811.23,62.60,35.60,36.45,170.00,6.00,0.00,30.33,M,10.00,M,FEW,M,M,M,4500.00,M,M,M,M,M,M,M,M,M,M,62.60,K05U 080910Z AUTO 17006KT 10SM FEW045 17/02 A3033 RMK A01,M
BVU,2022-09-08 09:15,-114.8611,35.9475,671.00,84.20,55.40,37.35,40.00,3.00,0.00,29.96,M,M,M,M,M,M,M,M,M,M,M,M,M,M,M,M,M,M,83.09,KBVU 080915Z AUTO 04003KT 29/13 A2996 RMK AO2 TSNO,M
CXP,2022-09-08 09:15,-119.7326,39.1923,1431.00,71.60,39.20,30.77,0.00,0.00,0.00,30.24,M,9.00,M,CLR,M,M,M,M,M,M,M,M,M,M,M,M,M,M,71.60,KCXP 080915Z AUTO 00000KT 9SM CLR 22/04 A3024 RMK AO2,M
RTS,2022-09-08 09:15,-119.8764,39.6682,1539.00,64.40,39.20,39.43,0.00,0.00,0.00,30.25,M,10.00,M,CLR,M,M,M,M,M,M,M,M,M,M,M,M,M,M,64.40,KRTS 080915Z AUTO 00000KT 10SM CLR 18/04 A3025 RMK AO2,M
HTH,2022-09-08 09:15,-118.6315,38.5448,1282.89,75.20,37.40,25.40,0.00,0.00,0.00,30.18,M,10.00,M,CLR,M,M,M,M,M,M,M,M,M,M,M,M,M,M,75.20,KHTH 080915Z AUTO 00000KT 10SM CLR 24/03 A3018 RMK A01,M
BAM,2022-09-08 09:15,-116.8743,40.5990,1382.36,73.40,41.00,31.05,150.00,8.00,0.00,30.19,M,10.00,M,CLR,M,M,M,M,M,M,M,M,M,M,M,M,M,M,73.40,KBAM 080915Z AUTO 15008KT 10SM CLR 23/05 A3019 RMK AO1,M
MEV,2022-09-08 09:15,-119.7500,38.9963,1441.42,59.00,41.00,51.18,110.00,4.00,0.00,30.23,M,10.00,M,M,M,M,M,M,M,M,M,M,M,M,M,M,M,M,59.00,KMEV 080915Z AUTO 11004KT 10SM 15/05 A3023 RMK AO2,M
TMT,2022-09-08 09:15,-117.1971,39.4643,1749.34,M,M,M,130.00,3.00,0.00,30.30,M,10.00,M,CLR,M,M,M,M,M,M,M,M,M,M,M,M,M,M,M,KTMT 080915Z AUTO 13003KT 10SM CLR A3030 RMK AO2,M
05U,2022-09-08 09:30,-116.0051,39.6042,1811.23,60.80,37.40,41.71,150.00,5.00,0.00,30.33,M,10.00,M,FEW,M,M,M,4800.00,M,M,M,M,M,M,M,M,M,M,60.80,K05U 080930Z AUTO 15005KT 10SM FEW048 16/03 A3033 RMK A01,M
CXP,2022-09-08 09:35,-119.7326,39.1923,1431.00,68.00,41.00,37.32,0.00,0.00,0.00,30.24,M,9.00,M,CLR,M,M,M,M,M,M,M,M,M,M,M,M,M,M,68.00,KCXP 080935Z AUTO 00000KT 9SM CLR 20/05 A3024 RMK AO2,M
MEV,2022-09-08 09:35,-119.7500,38.9963,1441.42,60.80,41.00,48.00,110.00,4.00,0.00,30.22,M,10.00,M,M,M,M,M,M,M,M,M,M,M,M,M,M,M,M,60.80,KMEV 080935Z AUTO 11004KT 10SM 16/05 A3022 RMK AO2,M
TMT,2022-09-08 09:35,-117.1971,39.4643,1749.34,M,M,M,150.00,6.00,0.00,30.30,M,10.00,M,CLR,M,M,M,M,M,M,M,M,M,M,M,M,M,M,M,KTMT 080935Z AUTO 15006KT 10SM CLR A3030 RMK AO2,M
HTH,2022-09-08 09:35,-118.6315,38.5448,1282.89,75.20,37.40,25.40,190.00,4.00,0.00,30.17,M,10.00,M,CLR,M,M,M,M,M,M,M,M,M,M,M,M,M,M,75.20,KHTH 080935Z AUTO 19004KT 10SM CLR 24/03 A3017 RMK A01,M
BAM,2022-09-08 09:35,-116.8743,40.5990,1382.36,71.60,39.20,30.77,130.00,4.00,0.00,30.18,M,10.00,M,CLR,M,M,M,M,M,M,M,M,M,M,M,M,M,M,71.60,KBAM 080935Z AUTO 13004KT 10SM CLR 22/04 A3018 RMK AO1,M
BVU,2022-09-08 09:35,-114.8611,35.9475,671.00,84.20,57.20,39.86,20.00,3.00,0.00,29.96,M,M,M,M,M,M,M,M,M,M,M,M,M,M,M,M,M,M,83.47,KBVU 080935Z AUTO 02003KT 29/14 A2996 RMK AO2 TSNO,M
RTS,2022-09-08 09:35,-119.8764,39.6682,1539.00,60.80,39.20,44.76,0.00,0.00,0.00,30.25,M,10.00,M,CLR,M,M,M,M,M,M,M,M,M,M,M,M,M,M,60.80,KRTS 080935Z AUTO 00000KT 10SM CLR 16/04 A3025 RMK AO2,M
05U,2022-09-08 09:50,-116.0051,39.6042,1811.23,60.80,35.60,38.85,160.00,3.00,0.00,30.32,M,10.00,M,CLR,M,M,M,M,M,M,M,M,M,M,M,M,M,M,60.80,K05U 080950Z AUTO 16003KT 10SM CLR 16/02 A3032 RMK A01,M
DRA,2022-09-08 09:53,-116.0278,36.6206,1009.00,87.00,50.00,27.91,300.00,5.00,0.00,30.05,1011.20,10.00,M,CLR,M,M,M,M,M,M,M,M,M,M,M,M,M,M,84.51,KDRA 080953Z AUTO 30005KT 10SM CLR 31/10 A3005 RMK AO2 SLP112 T03060100,M
LOL,2022-09-08 09:53,-118.5701,40.0684,1192.43,67.00,44.00,43.67,270.00,5.00,0.00,30.12,1014.70,10.00,M,CLR,M,M,M,M,M,M,M,M,M,M,M,M,M,M,66.90,KLOL 080953Z AUTO 27005KT 10SM CLR 19/07 A3012 RMK AO2 SLP147 T01940067,M
P68,2022-09-08 09:53,-116.0056,39.6014,1993.00,59.00,35.00,40.61,160.00,5.00,0.00,30.30,1017.10,M,M,M,M,M,M,M,M,M,M,M,M,M,M,M,M,M,59.00,KP68 080953Z AUTO 16005KT 15/02 A3030 RMK AO1 SLP171 T01500017,M
ELY,2022-09-08 09:53,-114.8453,39.2950,1909.00,58.00,36.00,43.78,190.00,3.00,0.00,30.32,1015.90,10.00,M,CLR,M,M,M,M,M,M,M,M,M,M,M,M,M,M,57.90,KELY 080953Z AUTO 19003KT 10SM CLR 14/02 A3032 RMK AO2 SLP159 T01440022,M
VGT,2022-09-08 09:53,-115.1933,36.2111,667.00,90.00,54.00,29.51,350.00,8.00,0.00,29.93,1011.80,10.00,M,CLR,M,M,M,M,M,M,M,M,M,M,M,M,M,M,87.82,KVGT 080953Z AUTO 35008KT 10SM CLR 32/12 A2993 RMK AO2 SLP118 T03220122,M
MEV,2022-09-08 09:55,-119.7500,38.9963,1441.42,59.00,39.20,47.72,0.00,0.00,0.00,30.22,M,10.00,M,M,M,M,M,M,M,M,M,M,M,M,M,M,M,M,59.00,KMEV 080955Z AUTO 00000KT 10SM 15/04 A3022 RMK AO2,M
TMT,2022-09-08 09:55,-117.1971,39.4643,1749.34,M,M,M,240.00,6.00,0.00,30.30,M,10.00,M,CLR,M,M,M,M,M,M,M,M,M,M,M,M,M,M,M,KTMT 080955Z AUTO 24006KT 10SM CLR A3030 RMK AO2,M
HTH,2022-09-08 09:55,-118.6315,38.5448,1282.89,75.20,37.40,25.40,0.00,0.00,0.00,30.17,M,10.00,M,CLR,M,M,M,M,M,M,M,M,M,M,M,M,M,M,75.20,KHTH 080955Z AUTO 00000KT 10SM CLR 24/03 A3017 RMK A01,M
BVU,2022-09-08 09:55,-114.8611,35.9475,671.00,84.20,55.40,37.35,0.00,0.00,0.00,29.95,M,M,M,M,M,M,M,M,M,M,M,M,M,M,M,M,M,M,83.09,KBVU 080955Z AUTO 00000KT 29/13 A2995 RMK AO2 TSNO,M
CXP,2022-09-08 09:55,-119.7326,39.1923,1431.00,64.40,42.80,45.32,0.00,0.00,0.00,30.24,M,9.00,M,CLR,M,M,M,M,M,M,M,M,M,M,M,M,M,M,64.40,KCXP 080955Z AUTO 00000KT 9SM CLR 18/06 A3024 RMK AO2,M
RNO,2022-09-08 09:55,-119.7711,39.4839,1341.00,72.00,45.00,37.96,0.00,0.00,0.00,30.19,1015.50,10.00,M,CLR,M,M,M,M,M,M,M,M,M,M,M,M,M,M,72.00,KRNO 080955Z 00000KT 10SM CLR 22/07 A3019 RMK AO2 SLP155 HZ ALQDS T02220072,M
RTS,2022-09-08 09:55,-119.8764,39.6682,1539.00,60.80,39.20,44.76,340.00,3.00,0.00,30.25,M,10.00,M,CLR,M,M,M,M,M,M,M,M,M,M,M,M,M,M,60.80,KRTS 080955Z AUTO 34003KT 10SM CLR 16/04 A3025 RMK AO2,M
BAM,2022-09-08 09:55,-116.8743,40.5990,1382.36,71.60,39.20,30.77,130.00,6.00,0.00,30.17,M,10.00,M,CLR,M,M,M,M,M,M,M,M,M,M,M,M,M,M,71.60,KBAM 080955Z AUTO 13006KT 10SM CLR 22/04 A3017 RMK AO1,M
NFL,2022-09-08 09:56,-118.7010,39.4166,1199.00,75.00,42.00,30.71,160.00,6.00,0.00,30.12,1016.50,9.00,M,CLR,M,M,M,M,M,M,M,M,M,M,M,M,M,M,75.00,KNFL 080956Z AUTO 16006KT 9SM CLR 24/06 A3012 RMK AO2 SLP165 T02390056,M
TPH,2022-09-08 09:56,-117.0904,38.0505,1654.00,69.00,40.00,34.43,20.00,7.00,0.00,30.26,1015.20,10.00,M,CLR,M,M,M,M,M,M,M,M,M,M,M,M,M,M,69.10,KTPH 080956Z AUTO 02007KT 10SM CLR 21/04 A3026 RMK AO2 SLP152 T02060044,M
LSV,2022-09-08 09:56,-115.0343,36.2362,570.00,93.20,51.80,24.63,0.00,0.00,0.00,29.98,M,10.00,M,CLR,M,M,M,M,M,M,M,M,M,M,M,M,M,M,90.45,KLSV 080956Z COR 00000KT 10SM CLR 34/11 A2998 RMK AO2A SLPNO WND DATA ESTMD $ COR 1002,M
INS,2022-09-08 09:56,-115.6733,36.5872,955.00,82.20,45.00,27.07,250.00,3.00,0.00,30.03,1011.00,10.00,M,SCT,OVC,M,M,16000.00,18000.00,M,M,M,M,M,M,M,M,M,80.41,KINS 080956Z AUTO 25003KT 10SM SCT160 OVC180 28/07 A3003 RMK AO2 SLP110 T02790072 $,M
EKO,2022-09-08 09:56,-115.7860,40.8242,1367.00,73.00,38.00,27.89,100.00,3.00,0.00,30.21,1015.80,10.00,M,CLR,M,M,M,M,M,M,M,M,M,M,M,M,M,M,73.00,KEKO 080956Z AUTO 10003KT 10SM CLR 23/03 A3021 RMK AO2 SLP158 T02280033,M
WMC,2022-09-08 09:56,-117.8072,40.9019,1315.00,74.00,43.00,32.98,200.00,5.00,0.00,30.14,1014.20,10.00,M,CLR,M,M,M,M,M,M,M,M,M,M,M,M,M,M,73.90,KWMC 080956Z AUTO 20005KT 10SM CLR 23/06 A3014 RMK AO2 SLP142 T02330061,M
LAS,2022-09-08 09:56,-115.1634,36.0719,663.00,91.00,52.00,26.57,0.00,0.00,0.00,29.95,1010.60,10.00,M,SCT,M,M,M,20000.00,M,M,M,M,M,M,M,M,M,M,88.35,KLAS 080956Z 00000KT 10SM SCT200 33/11 A2995 RMK AO2 SLP106 T03280111,M
05U,2022-09-08 10:10,-116.0051,39.6042,1811.23,60.80,35.60,38.85,170.00,4.00,0.00,30.32,M,10.00,M,FEW,M,M,M,4900.00,M,M,M,M,M,M,M,M,M,M,60.80,K05U 081010Z AUTO 17004KT 10SM FEW049 16/02 A3032 RMK A01,M
BVU,2022-09-08 10:15,-114.8611,35.9475,671.00,84.20,53.60,34.97,0.00,0.00,0.00,29.95,M,M,M,M,M,M,M,M,M,M,M,M,M,M,M,M,M,M,82.76,KBVU 081015Z AUTO 00000KT 29/12 A2995 RMK AO2 TSNO,M
CXP,2022-09-08 10:15,-119.7326,39.1923,1431.00,64.40,41.00,42.28,0.00,0.00,0.00,30.24,M,9.00,M,CLR,M,M,M,M,M,M,M,M,M,M,M,M,M,M,64.40,KCXP 081015Z AUTO 00000KT 9SM CLR 18/05 A3024 RMK AO2,M
RTS,2022-09-08 10:15,-119.8764,39.6682,1539.00,59.00,39.20,47.72,350.00,3.00,0.00,30.25,M,10.00,M,CLR,M,M,M,M,M,M,M,M,M,M,M,M,M,M,59.00,KRTS 081015Z AUTO 35003KT 10SM CLR 15/04 A3025 RMK AO2,M
MEV,2022-09-08 10:15,-119.7500,38.9963,1441.42,59.00,41.00,51.18,0.00,0.00,0.00,30.22,M,10.00,M,M,M,M,M,M,M,M,M,M,M,M,M,M,M,M,59.00,KMEV 081015Z AUTO 00000KT 10SM 15/05 A3022 RMK AO2,M
BAM,2022-09-08 10:15,-116.8743,40.5990,1382.36,69.80,41.00,35.09,310.00,5.00,0.00,30.18,M,10.00,M,CLR,M,M,M,M,M,M,M,M,M,M,M,M,M,M,69.80,KBAM 081015Z AUTO 31005KT 10SM CLR 21/05 A3018 RMK AO1,M
HTH,2022-09-08 10:15,-118.6315,38.5448,1282.89,73.40,37.40,26.98,150.00,4.00,0.00,30.17,M,10.00,M,CLR,M,M,M,M,M,M,M,M,M,M,M,M,M,M,73.40,KHTH 081015Z AUTO 15004KT 10SM CLR 23/03 A3017 RMK A01,M
TMT,2022-09-08 10:15,-117.1971,39.4643,1749.34,M,M,M,230.00,8.00,0.00,30.29,M,10.00,M,CLR,M,M,M,M,M,M,M,M,M,M,M,M,M,M,M,KTMT 081015Z AUTO 23008KT 10SM CLR A3029 RMK AO2,M
05U,2022-09-08 10:30,-116.0051,39.6042,1811.23,62.60,35.60,36.45,0.00,0.00,0.00,30.31,M,10.00,M,CLR,M,M,M,M,M,M,M,M,M,M,M,M,M,M,62.60,K05U 081030Z AUTO 00000KT 10SM CLR 17/02 A3031 RMK A01,M
MEV,2022-09-08 10:35,-119.7500,38.9963,1441.42,57.20,44.60,62.69,150.00,3.00,0.00,30.21,M,10.00,M,BKN,BKN,OVC,M,1700.00,5000.00,6000.00,M,M,M,M,M,M,M,M,57.20,KMEV 081035Z AUTO 15003KT 10SM BKN017 BKN050 OVC060 14/07 A3021 RMK AO2,M
HTH,2022-09-08 10:35,-118.6315,38.5448,1282.89,75.20,37.40,25.40,0.00,0.00,0.00,30.16,M,10.00,M,CLR,M,M,M,M,M,M,M,M,M,M,M,M,M,M,75.20,KHTH 081035Z AUTO 00000KT 10SM CLR 24/03 A3016 RMK A01,M
RTS,2022-09-08 10:35,-119.8764,39.6682,1539.00,59.00,39.20,47.72,340.00,6.00,0.00,30.25,M,10.00,M,CLR,M,M,M,M,M,M,M,M,M,M,M,M,M,M,59.00,KRTS 081035Z AUTO 34006KT 10SM CLR 15/04 A3025 RMK AO2,M
TMT,2022-09-08 10:35,-117.1971,39.4643,1749.34,M,M,M,240.00,9.00,0.00,30.28,M,10.00,M,CLR,M,M,M,M,M,M,M,M,M,M,M,M,M,M,M,KTMT 081035Z AUTO 24009KT 10SM CLR A3028 RMK AO2,M
BAM,2022-09-08 10:35,-116.8743,40.5990,1382.36,71.60,41.00,33.00,0.00,0.00,0.00,30.17,M,10.00,M,CLR,M,M,M,M,M,M,M,M,M,M,M,M,M,M,71.60,KBAM 081035Z AUTO 00000KT 10SM CLR 22/05 A3017 RMK AO1,M
BVU,2022-09-08 10:35,-114.8611,35.9475,671.00,82.40,57.20,42.25,350.00,3.00,0.00,29.95,M,M,M,M,M,M,M,M,M,M,M,M,M,M,M,M,M,M,82.08,KBVU 081035Z AUTO 35003KT 28/14 A2995 RMK AO2 TSNO,M
CXP,2022-09-08 10:35,-119.7326,39.1923,1431.00,64.40,41.00,42.28,0.00,0.00,0.00,30.23,M,9.00,M,CLR,M,M,M,M,M,M,M,M,M,M,M,M,M,M,64.40,KCXP 081035Z AUTO 00000KT 9SM CLR 18/05 A3023 RMK AO2,M
05U,2022-09-08 10:50,-116.0051,39.6042,1811.23,59.00,33.80,38.56,M,M,0.00,30.31,M,10.00,M,CLR,M,M,M,M,M,M,M,M,M,M,M,M,M,M,59.00,K05U 081050Z AUTO 10SM CLR 15/01 A3031 RMK A01,M
P68,2022-09-08 10:53,-116.0056,39.6014,1993.00,59.00,35.00,40.61,0.00,0.00,0.00,30.29,1016.40,M,M,M,M,M,M,M,M,M,M,M,M,M,M,M,M,M,59.00,KP68 081053Z AUTO 00000KT 15/02 A3029 RMK AO1 SLP164 T01500017,M
LOL,2022-09-08 10:53,-118.5701,40.0684,1192.43,71.00,41.00,33.57,320.00,5.00,0.00,30.11,1014.40,10.00,M,CLR,M,M,M,M,M,M,M,M,M,M,M,M,M,M,71.10,KLOL 081053Z AUTO 32005KT 10SM CLR 22/05 A3011 RMK AO2 SLP144 T02170050,M
DRA,2022-09-08 10:53,-116.0278,36.6206,1009.00,83.00,49.00,30.65,360.00,8.00,0.00,30.04,1010.90,10.00,M,CLR,M,M,M,M,M,M,M,M,M,M,M,M,M,M,81.20,KDRA 081053Z AUTO 36008KT 10SM CLR 28/09 A3004 RMK AO2 SLP109 T02830094,M
ELY,2022-09-08 10:53,-114.8453,39.2950,1909.00,53.00,35.00,50.28,190.00,5.00,0.00,30.31,1015.90,10.00,M,CLR,M,M,M,M,M,M,M,M,M,M,M,M,M,M,53.10,KELY 081053Z AUTO 19005KT 10SM CLR 12/02 A3031 RMK AO2 SLP159 T01170017,M
VGT,2022-09-08 10:53,-115.1933,36.2111,667.00,89.00,54.00,30.36,340.00,6.00,0.00,29.93,1011.80,10.00,M,CLR,M,M,M,M,M,M,M,M,M,M,M,M,M,M,86.98,KVGT 081053Z AUTO 34006KT 10SM CLR 32/12 A2993 RMK AO2 SLP118 T03170122,M
BAM,2022-09-08 10:55,-116.8743,40.5990,1382.36,71.60,41.00,33.00,40.00,3.00,0.00,30.16,M,10.00,M,CLR,M,M,M,M,M,M,M,M,M,M,M,M,M,M,71.60,KBAM 081055Z AUTO 04003KT 10SM CLR 22/05 A3016 RMK AO1,M
RTS,2022-09-08 10:55,-119.8764,39.6682,1539.00,57.20,39.20,50.91,310.00,3.00,0.00,30.24,M,10.00,M,CLR,M,M,M,M,M,M,M,M,M,M,M,M,M,M,57.20,KRTS 081055Z AUTO 31003KT 10SM CLR 14/04 A3024 RMK AO2,M
TMT,2022-09-08 10:55,-117.1971,39.4643,1749.34,M,M,M,210.00,7.00,0.00,30.28,M,10.00,M,CLR,M,M,M,M,M,M,M,M,M,M,M,M,M,M,M,KTMT 081055Z AUTO 21007KT 10SM CLR A3028 RMK AO2,M
BVU,2022-09-08 10:55,-114.8611,35.9475,671.00,84.20,55.40,37.35,0.00,0.00,0.00,29.95,M,M,M,M,M,M,M,M,M,M,M,M,M,M,M,M,M,M,83.09,KBVU 081055Z AUTO 00000KT 29/13 A2995 RMK AO2 TSNO,M
CXP,2022-09-08 10:55,-119.7326,39.1923,1431.00,62.60,42.80,48.28,0.00,0.00,0.00,30.23,M,9.00,M,CLR,M,M,M,M,M,M,M,M,M,M,M,M,M,M,62.60,KCXP 081055Z AUTO 00000KT 9SM CLR 17/06 A3023 RMK AO2,M
RNO,2022-09-08 10:55,-119.7711,39.4839,1341.00,73.00,43.00,34.00,300.00,3.00,0.00,30.19,1015.40,10.00,M,CLR,M,M,M,M,M,M,M,M,M,M,M,M,M,M,73.00,KRNO 081055Z 30003KT 10SM CLR 23/06 A3019 RMK AO2 SLP154 HZ ALQDS T02280061,M
HTH,2022-09-08 10:55,-118.6315,38.5448,1282.89,71.60,39.20,30.77,150.00,3.00,0.00,30.16,M,10.00,M,CLR,M,M,M,M,M,M,M,M,M,M,M,M,M,M,71.60,KHTH 081055Z AUTO 15003KT 10SM CLR 22/04 A3016 RMK A01,M
MEV,2022-09-08 10:55,-119.7500,38.9963,1441.42,53.60,41.00,62.23,0.00,0.00,0.00,30.22,M,10.00,M,SCT,BKN,OVC,M,1800.00,3000.00,5000.00,M,M,M,M,M,M,M,M,53.60,KMEV 081055Z AUTO 00000KT 10SM SCT018 BKN030 OVC050 12/05 A3022 RMK AO2,M
LSV,2022-09-08 10:56,-115.0343,36.2362,570.00,91.40,51.80,26.05,350.00,6.00,0.00,30.00,M,10.00,M,CLR,M,M,M,M,M,M,M,M,M,M,M,M,M,M,88.69,KLSV 081056Z COR 35006KT 10SM CLR 33/11 A3000 RMK AO2A SLPNO WND DATA ESTMD $ COR 1101,M
INS,2022-09-08 10:56,-115.6733,36.5872,955.00,80.00,45.70,29.96,220.00,3.00,0.00,30.02,1010.70,10.00,M,CLR,M,M,M,M,M,M,M,M,M,M,M,M,M,M,79.90,KINS 081056Z AUTO 22003KT 10SM CLR 27/08 A3002 RMK AO2 SLP107 T02660076 $,M
NFL,2022-09-08 10:56,-118.7010,39.4166,1199.00,73.00,42.00,32.84,180.00,5.00,0.00,30.12,1016.60,9.00,M,CLR,M,M,M,M,M,M,M,M,M,M,M,M,M,M,73.00,KNFL 081056Z AUTO 18005KT 9SM CLR 23/06 A3012 RMK AO2 SLP166 T02280056,M
EKO,2022-09-08 10:56,-115.7860,40.8242,1367.00,71.00,39.00,31.05,180.00,4.00,0.00,30.18,1015.10,10.00,M,CLR,M,M,M,M,M,M,M,M,M,M,M,M,M,M,71.10,KEKO 081056Z AUTO 18004KT 10SM CLR 22/04 A3018 RMK AO2 SLP151 T02170039,M
WMC,2022-09-08 10:56,-117.8072,40.9019,1315.00,68.00,41.00,37.32,0.00,0.00,0.00,30.13,1014.10,10.00,M,CLR,M,M,M,M,M,M,M,M,M,M,M,M,M,M,68.00,KWMC 081056Z AUTO 00000KT 10SM CLR 20/05 A3013 RMK AO2 SLP141 T02000050,M
TPH,2022-09-08 10:56,-117.0904,38.0505,1654.00,66.00,43.00,43.20,360.00,7.00,0.00,30.24,1014.80,10.00,M,CLR,M,M,M,M,M,M,M,M,M,M,M,M,M,M,66.00,KTPH 081056Z AUTO 36007KT 10SM CLR 19/06 A3024 RMK AO2 SLP148 T01890061,M
LAS,2022-09-08 10:56,-115.1634,36.0719,663.00,90.00,52.00,27.42,280.00,4.00,0.00,29.94,1010.30,10.00,M,SCT,BKN,M,M,15000.00,20000.00,M,M,M,M,M,M,M,M,M,87.40,KLAS 081056Z 28004KT 10SM SCT150 BKN200 32/11 A2994 RMK AO2 SLP103 T03220111,M
05U,2022-09-08 11:15,-116.0051,39.6042,1811.23,60.80,35.60,38.85,170.00,4.00,0.00,30.30,M,10.00,M,CLR,M,M,M,M,M,M,M,M,M,M,M,M,M,M,60.80,K05U 081115Z AUTO 17004KT 10SM CLR 16/02 A3030 RMK A01,M
MEV,2022-09-08 11:15,-119.7500,38.9963,1441.42,55.40,41.00,58.27,90.00,4.00,0.00,30.22,M,10.00,M,FEW,SCT,BKN,M,1300.00,1900.00,3100.00,M,M,M,M,M,M,M,M,55.40,KMEV 081115Z AUTO 09004KT 10SM FEW013 SCT019 BKN031 13/05 A3022 RMK AO2,M
HTH,2022-09-08 11:15,-118.6315,38.5448,1282.89,69.80,35.60,28.39,120.00,6.00,0.00,30.16,M,10.00,M,CLR,M,M,M,M,M,M,M,M,M,M,M,M,M,M,69.80,KHTH 081115Z AUTO 12006KT 10SM CLR 21/02 A3016 RMK A01,M
BVU,2022-09-08 11:15,-114.8611,35.9475,671.00,82.40,57.20,42.25,0.00,0.00,0.00,29.94,M,M,M,M,M,M,M,M,M,M,M,M,M,M,M,M,M,M,82.08,KBVU 081115Z AUTO 00000KT 28/14 A2994 RMK AO2 TSNO,M
BAM,2022-09-08 11:15,-116.8743,40.5990,1382.36,71.60,41.00,33.00,0.00,0.00,0.00,30.16,M,10.00,M,CLR,M,M,M,M,M,M,M,M,M,M,M,M,M,M,71.60,KBAM 081115Z AUTO 00000KT 10SM CLR 22/05 A3016 RMK AO1,M
CXP,2022-09-08 11:15,-119.7326,39.1923,1431.00,62.60,42.80,48.28,0.00,0.00,0.00,30.23,M,9.00,M,CLR,M,M,M,M,M,M,M,M,M,M,M,M,M,M,62.60,KCXP 081115Z AUTO 00000KT 9SM CLR 17/06 A3023 RMK AO2,M
TMT,2022-09-08 11:15,-117.1971,39.4643,1749.34,M,M,M,210.00,7.00,0.00,30.28,M,10.00,M,CLR,M,M,M,M,M,M,M,M,M,M,M,M,M,M,M,KTMT 081115Z AUTO 21007KT 10SM CLR A3028 RMK AO2,M
RTS,2022-09-08 11:15,-119.8764,39.6682,1539.00,62.60,39.20,42.00,0.00,0.00,0.00,30.24,M,10.00,M,CLR,M,M,M,M,M,M,M,M,M,M,M,M,M,M,62.60,KRTS 081115Z AUTO 00000KT 10SM CLR 17/04 A3024 RMK AO2,M
05U,2022-09-08 11:30,-116.0051,39.6042,1811.23,60.80,35.60,38.85,190.00,6.00,0.00,30.29,M,10.00,M,FEW,FEW,M,M,4300.00,4900.00,M,M,M,M,M,M,M,M,M,60.80,K05U 081130Z AUTO 19006KT 10SM FEW043 FEW049 16/02 A3029 RMK A01,M
CXP,2022-09-08 11:35,-119.7326,39.1923,1431.00,62.60,42.80,48.28,0.00,0.00,0.00,30.23,M,9.00,M,CLR,M,M,M,M,M,M,M,M,M,M,M,M,M,M,62.60,KCXP 081135Z AUTO 00000KT 9SM CLR 17/06 A3023 RMK AO2,M
MEV,2022-09-08 11:35,-119.7500,38.9963,1441.42,55.40,42.80,62.46,0.00,0.00,0.00,30.21,M,10.00,M,FEW,BKN,OVC,M,1300.00,3000.00,3800.00,M,M,M,M,M,M,M,M,55.40,KMEV 081135Z AUTO 00000KT 10SM FEW013 BKN030 OVC038 13/06 A3021 RMK AO2,M
BAM,2022-09-08 11:35,-116.8743,40.5990,1382.36,68.00,41.00,37.32,200.00,4.00,0.00,30.16,M,10.00,M,CLR,M,M,M,M,M,M,M,M,M,M,M,M,M,M,68.00,KBAM 081135Z AUTO 20004KT 10SM CLR 20/05 A3016 RMK AO1,M
HTH,2022-09-08 11:35,-118.6315,38.5448,1282.89,73.40,37.40,26.98,0.00,0.00,0.00,30.16,M,10.00,M,CLR,M,M,M,M,M,M,M,M,M,M,M,M,M,M,73.40,KHTH 081135Z AUTO 00000KT 10SM CLR 23/03 A3016 RMK A01,M
TMT,2022-09-08 11:35,-117.1971,39.4643,1749.34,M,M,M,150.00,5.00,0.00,30.28,M,10.00,M,CLR,M,M,M,M,M,M,M,M,M,M,M,M,M,M,M,KTMT 081135Z AUTO 15005KT 10SM CLR A3028 RMK AO2,M
BVU,2022-09-08 11:35,-114.8611,35.9475,671.00,86.00,53.60,33.01,0.00,0.00,0.00,29.94,M,M,M,M,M,M,M,M,M,M,M,M,M,M,M,M,M,M,84.18,KBVU 081135Z AUTO 00000KT 30/12 A2994 RMK AO2 TSNO,M
RTS,2022-09-08 11:35,-119.8764,39.6682,1539.00,62.60,39.20,42.00,0.00,0.00,0.00,30.24,M,10.00,M,CLR,M,M,M,M,M,M,M,M,M,M,M,M,M,M,62.60,KRTS 081135Z AUTO 00000KT 10SM CLR 17/04 A3024 RMK AO2,M
LOL,2022-09-08 11:53,-118.5701,40.0684,1192.43,64.00,45.00,49.99,60.00,3.00,0.00,30.11,1014.60,10.00,M,CLR,M,M,M,M,M,M,M,M,M,M,M,M,M,M,64.00,KLOL 081153Z AUTO 06003KT 10SM CLR 18/07 A3011 RMK AO2 SLP146 T01780072 10283 20167 58005,M
VGT,2022-09-08 11:53,-115.1933,36.2111,667.00,89.00,54.00,30.36,0.00,0.00,T,29.93,1011.70,10.00,M,CLR,M,M,M,M,M,M,M,M,M,M,M,M,M,M,86.98,KVGT 081153Z AUTO 00000KT 10SM CLR 32/12 A2993 RMK AO2 RAB19E30 SLP117 P0000 60000 T03170122 10361 20300 56004,M
P68,2022-09-08 11:53,-116.0056,39.6014,1993.00,59.00,36.00,42.08,180.00,6.00,0.00,30.26,1015.70,M,M,M,M,M,M,M,M,M,M,M,M,M,M,M,M,M,59.00,KP68 081153Z AUTO 18006KT 15/02 A3026 RMK AO1 SLP157 T01500022 10261 20144 58015,M
ELY,2022-09-08 11:53,-114.8453,39.2950,1909.00,54.00,36.00,50.42,170.00,8.00,0.00,30.30,1015.40,10.00,M,CLR,M,M,M,M,M,M,M,M,M,M,M,M,M,M,54.00,KELY 081153Z AUTO 17008KT 10SM CLR 12/02 A3030 RMK AO2 SLP154 T01220022 10211 20117 58009,M
DRA,2022-09-08 11:53,-116.0278,36.6206,1009.00,81.00,49.00,32.60,270.00,3.00,0.00,30.03,1010.70,10.00,M,CLR,M,M,M,M,M,M,M,M,M,M,M,M,M,M,80.01,KDRA 081153Z AUTO 27003KT 10SM CLR 27/09 A3003 RMK AO2 SLP107 T02720094 10328 20272 58008,M
RNO,2022-09-08 11:55,-119.7711,39.4839,1341.00,71.00,43.00,36.25,290.00,3.00,0.00,30.18,1015.20,10.00,M,CLR,M,M,M,M,M,M,M,M,M,M,M,M,M,M,71.10,KRNO 081155Z 29003KT 10SM CLR 22/06 A3018 RMK AO2 SLP152 HZ ALQDS T02170061 10289 20211 58006,M
05U,2022-09-08 11:55,-116.0051,39.6042,1811.23,60.80,35.60,38.85,180.00,5.00,0.00,30.28,M,10.00,M,FEW,FEW,M,M,4400.00,5000.00,M,M,M,M,M,M,M,M,M,60.80,K05U 081155Z AUTO 18005KT 10SM FEW044 FEW050 16/02 A3028 RMK A01,M
MEV,2022-09-08 11:55,-119.7500,38.9963,1441.42,53.60,42.80,66.70,0.00,0.00,0.00,30.21,M,10.00,M,FEW,BKN,OVC,M,1400.00,3000.00,6500.00,M,M,M,M,M,M,M,M,53.60,KMEV 081155Z AUTO 00000KT 10SM FEW014 BKN030 OVC065 12/06 A3021 RMK AO2,M
HTH,2022-09-08 11:55,-118.6315,38.5448,1282.89,71.60,37.40,28.68,0.00,0.00,0.00,30.15,M,10.00,M,CLR,M,M,M,M,M,M,M,M,M,M,M,M,M,M,71.60,KHTH 081155Z AUTO 00000KT 10SM CLR 22/03 A3015 RMK A01,M
BAM,2022-09-08 11:55,-116.8743,40.5990,1382.36,66.20,39.20,37.03,0.00,0.00,0.00,30.16,M,10.00,M,CLR,M,M,M,M,M,M,M,M,M,M,M,M,M,M,66.20,KBAM 081155Z AUTO 00000KT 10SM CLR 19/04 A3016 RMK AO1,M
TMT,2022-09-08 11:55,-117.1971,39.4643,1749.34,M,M,M,170.00,4.00,0.00,30.27,M,10.00,M,CLR,M,M,M,M,M,M,M,M,M,M,M,M,M,M,M,KTMT 081155Z AUTO 17004KT 10SM CLR A3027 RMK AO2 7////,M
CXP,2022-09-08 11:55,-119.7326,39.1923,1431.00,60.80,41.00,48.00,330.00,3.00,0.00,30.22,M,9.00,M,CLR,M,M,M,M,M,M,M,M,M,M,M,M,M,M,60.80,KCXP 081155Z AUTO 33003KT 9SM CLR 16/05 A3022 RMK AO2,M
BVU,2022-09-08 11:55,-114.8611,35.9475,671.00,87.80,51.80,29.18,140.00,4.00,0.00,29.94,M,M,M,M,M,M,M,M,M,M,M,M,M,M,M,M,M,M,85.39,KBVU 081155Z AUTO 14004KT 31/11 A2994 RMK AO2 TSNO,M
RTS,2022-09-08 11:55,-119.8764,39.6682,1539.00,59.00,39.20,47.72,0.00,0.00,0.00,30.23,M,10.00,M,CLR,M,M,M,M,M,M,M,M,M,M,M,M,M,M,59.00,KRTS 081155Z AUTO 00000KT 10SM CLR 15/04 A3023 RMK AO2,M
INS,2022-09-08 11:56,-115.6733,36.5872,955.00,80.80,47.30,30.90,260.00,7.00,0.00,30.01,1010.50,10.00,M,SCT,M,M,M,18000.00,M,M,M,M,M,M,M,M,M,M,79.75,KINS 081156Z AUTO 26007KT 10SM SCT180 27/09 A3001 RMK AO2 SLP105 T02710085 10307 20261 57009 $,M
WMC,2022-09-08 11:56,-117.8072,40.9019,1315.00,63.00,42.00,46.34,0.00,0.00,0.00,30.13,1014.50,10.00,M,CLR,M,M,M,M,M,M,M,M,M,M,M,M,M,M,63.00,KWMC 081156Z AUTO 00000KT 10SM CLR 17/06 A3013 RMK AO2 SLP145 T01720056 10267 20172 56007,M
EKO,2022-09-08 11:56,-115.7860,40.8242,1367.00,68.00,38.00,33.07,210.00,3.00,0.00,30.18,1015.30,10.00,M,CLR,M,M,M,M,M,M,M,M,M,M,M,M,M,M,68.00,KEKO 081156Z AUTO 21003KT 10SM CLR 20/03 A3018 RMK AO2 SLP153 T02000033 10283 20194 55011,M
NFL,2022-09-08 11:56,-118.7010,39.4166,1199.00,72.00,40.00,31.20,190.00,5.00,0.00,30.11,1016.40,10.00,M,CLR,M,M,M,M,M,M,M,M,M,M,M,M,M,M,72.00,KNFL 081156Z AUTO 19005KT 10SM CLR 22/04 A3011 RMK AO2 SLP164 7//// T02220044 10311 20222 56006,M
TPH,2022-09-08 11:56,-117.0904,38.0505,1654.00,68.00,39.00,34.53,360.00,10.00,0.00,30.23,1014.40,10.00,M,CLR,M,M,M,M,M,M,M,M,M,M,M,M,M,M,68.00,KTPH 081156Z AUTO 36010KT 10SM CLR 20/04 A3023 RMK AO2 SLP144 T02000039 10278 20183 58010,M
LAS,2022-09-08 11:56,-115.1634,36.0719,663.00,90.00,55.00,30.61,260.00,3.00,0.00,29.93,1010.20,10.00,M,BKN,M,M,M,15000.00,M,M,M,M,M,M,M,M,M,M,88.06,KLAS 081156Z 26003KT 10SM BKN150 32/13 A2993 RMK AO2 SLP102 VIRGA DSNT SW-NW T03220128 10361 20322 58005,M
LSV,2022-09-08 11:56,-115.0343,36.2362,570.00,89.60,53.60,29.45,30.00,3.00,0.00,30.02,M,10.00,M,CLR,M,M,M,M,M,M,M,M,M,M,M,M,M,M,87.36,KLSV 081156Z COR 03003KT 10SM CLR 32/12 A3002 RMK AO2A SLPNO WND DATA ESTMD 10369 20338 $ COR 1200,M
TMT,2022-09-08 12:15,-117.1971,39.4643,1749.34,55.20,36.00,48.46,0.00,0.00,0.00,30.27,M,10.00,M,CLR,M,M,M,M,M,M,M,M,M,M,M,M,M,M,55.20,KTMT 081215Z AUTO 00000KT 10SM CLR 13/02 A3027 RMK AO2 T01290023,M
BVU,2022-09-08 12:15,-114.8611,35.9475,671.00,87.80,50.00,27.29,160.00,5.00,0.00,29.94,M,M,M,M,M,M,M,M,M,M,M,M,M,M,M,M,M,M,85.11,KBVU 081215Z AUTO 16005KT 31/10 A2994 RMK AO2 TSNO,M
CXP,2022-09-08 12:15,-119.7326,39.1923,1431.00,60.80,39.20,44.76,0.00,0.00,0.00,30.21,M,10.00,M,CLR,M,M,M,M,M,M,M,M,M,M,M,M,M,M,60.80,KCXP 081215Z AUTO 00000KT 10SM CLR 16/04 A3021 RMK AO2,M
RTS,2022-09-08 12:15,-119.8764,39.6682,1539.00,55.40,39.20,54.34,350.00,5.00,0.00,30.23,M,10.00,M,CLR,M,M,M,M,M,M,M,M,M,M,M,M,M,M,55.40,KRTS 081215Z AUTO 35005KT 10SM CLR 13/04 A3023 RMK AO2,M
05U,2022-09-08 12:15,-116.0051,39.6042,1811.23,60.80,33.80,36.16,200.00,5.00,0.00,30.27,M,10.00,M,CLR,M,M,M,M,M,M,M,M,M,M,M,M,M,M,60.80,K05U 081215Z AUTO 20005KT 10SM CLR 16/01 A3027 RMK A01,M
MEV,2022-09-08 12:15,-119.7500,38.9963,1441.42,55.40,41.00,58.27,0.00,0.00,0.00,30.20,M,10.00,M,FEW,BKN,OVC,M,1600.00,2900.00,6500.00,M,M,M,M,M,M,M,M,55.40,KMEV 081215Z AUTO 00000KT 10SM FEW016 BKN029 OVC065 13/05 A3020 RMK AO2,M
BAM,2022-09-08 12:15,-116.8743,40.5990,1382.36,64.40,37.40,36.74,180.00,3.00,0.00,30.15,M,10.00,M,CLR,M,M,M,M,M,M,M,M,M,M,M,M,M,M,64.40,KBAM 081215Z AUTO 18003KT 10SM CLR 18/03 A3015 RMK AO1,M
HTH,2022-09-08 12:15,-118.6315,38.5448,1282.89,68.00,37.40,32.43,140.00,4.00,0.00,30.15,M,10.00,M,CLR,M,M,M,M,M,M,M,M,M,M,M,M,M,M,68.00,KHTH 081215Z AUTO 14004KT 10SM CLR 20/03 A3015 RMK A01,M
VGT,2022-09-08 12:25,-115.1933,36.2111,667.00,88.00,54.00,31.43,0.00,0.00,0.00,29.92,M,10.00,M,CLR,M,M,M,M,M,M,M,TS,M,M,M,M,M,M,85.98,KVGT 081225Z AUTO 00000KT 10SM TS CLR 31/12 A2992 RMK AO2 LTG DSNT SW TSB25 T03110122,M
LAS,2022-09-08 12:29,-115.1634,36.0719,663.00,88.00,58.00,36.21,230.00,4.00,0.00,29.93,M,6.00,M,SCT,BKN,M,M,10000.00,15000.00,M,M,TS HZ,M,M,M,M,M,M,86.96,KLAS 081229Z 23004KT 6SM TS HZ SCT100CB BKN150 31/14 A2993 RMK AO2 LTG DSNT W TSB23 OCNL LTGIC W TS W T03110144,M
LAS,2022-09-08 12:32,-115.1634,36.0719,663.00,87.00,61.00,41.62,240.00,5.00,T,29.93,M,6.00,M,SCT,BKN,M,M,10000.00,15000.00,M,M,+TSRA,M,M,M,M,M,M,87.15,KLAS 081232Z 24005KT 6SM +TSRA SCT100CB BKN150 31/16 A2993 RMK AO2 LTG DSNT W RAB30 TSB23 OCNL LTGIC W TS W P0000 T03060161,M
BVU,2022-09-08 12:35,-114.8611,35.9475,671.00,86.00,50.00,28.90,160.00,6.00,0.00,29.93,M,M,M,M,M,M,M,M,M,M,M,M,M,M,M,M,M,M,83.62,KBVU 081235Z AUTO 16006KT 30/10 A2993 RMK AO2 TSNO,M
CXP,2022-09-08 12:35,-119.7326,39.1923,1431.00,60.80,41.00,48.00,0.00,0.00,0.00,30.22,M,9.00,M,CLR,M,M,M,M,M,M,M,M,M,M,M,M,M,M,60.80,KCXP 081235Z AUTO 00000KT 9SM CLR 16/05 A3022 RMK AO2,M
RTS,2022-09-08 12:35,-119.8764,39.6682,1539.00,57.20,39.20,50.91,0.00,0.00,0.00,30.23,M,10.00,M,CLR,M,M,M,M,M,M,M,M,M,M,M,M,M,M,57.20,KRTS 081235Z AUTO 00000KT 10SM CLR 14/04 A3023 RMK AO2,M
05U,2022-09-08 12:35,-116.0051,39.6042,1811.23,59.00,35.60,41.42,220.00,4.00,0.00,30.28,M,10.00,M,CLR,M,M,M,M,M,M,M,M,M,M,M,M,M,M,59.00,K05U 081235Z AUTO 22004KT 10SM CLR 15/02 A3028 RMK A01,M
MEV,2022-09-08 12:35,-119.7500,38.9963,1441.42,53.60,39.20,58.02,0.00,0.00,0.00,30.20,M,10.00,M,BKN,BKN,OVC,M,2800.00,6000.00,8000.00,M,M,M,M,M,M,M,M,53.60,KMEV 081235Z AUTO 00000KT 10SM BKN028 BKN060 OVC080 12/04 A3020 RMK AO2,M
BAM,2022-09-08 12:35,-116.8743,40.5990,1382.36,64.40,37.40,36.74,0.00,0.00,0.00,30.15,M,10.00,M,CLR,M,M,M,M,M,M,M,M,M,M,M,M,M,M,64.40,KBAM 081235Z AUTO 00000KT 10SM CLR 18/03 A3015 RMK AO1,M
HTH,2022-09-08 12:35,-118.6315,38.5448,1282.89,69.80,37.40,30.49,0.00,0.00,0.00,30.15,M,10.00,M,CLR,M,M,M,M,M,M,M,M,M,M,M,M,M,M,69.80,KHTH 081235Z AUTO 00000KT 10SM CLR 21/03 A3015 RMK A01,M
TMT,2022-09-08 12:35,-117.1971,39.4643,1749.34,M,M,M,0.00,0.00,0.00,30.27,M,10.00,M,CLR,M,M,M,M,M,M,M,M,M,M,M,M,M,M,M,KTMT 081235Z AUTO 00000KT 10SM CLR A3027 RMK AO2,M
VGT,2022-09-08 12:43,-115.1933,36.2111,667.00,88.00,53.00,30.41,0.00,0.00,0.00,29.92,M,10.00,M,CLR,M,M,M,M,M,M,M,M,M,M,M,M,M,M,85.80,KVGT 081243Z AUTO 00000KT 10SM CLR 31/12 A2992 RMK AO2 TSB25E40 T03110117,M
LSV,2022-09-08 12:49,-115.0343,36.2362,570.00,84.20,55.40,37.35,0.00,0.00,0.00,29.90,M,10.00,M,SCT,BKN,M,M,11000.00,16000.00,M,M,M,M,M,M,M,M,M,83.09,KLSV 081249Z 00000KT 10SM SCT110 BKN160 29/13 A2990 RMK LGT DSNT SW,M
LAS,2022-09-08 12:49,-115.1634,36.0719,663.00,83.00,68.00,60.81,0.00,0.00,0.07,29.93,M,10.00,M,FEW,BKN,M,M,10000.00,15000.00,M,M,M,M,M,M,M,M,M,85.94,KLAS 081249Z 00000KT 10SM FEW100 BKN150 28/20 A2993 RMK AO2 RAB30E47 TSB23E43 OCNL LTGIC W TS MOV W P0007 T02830200,M
05U,2022-09-08 12:50,-116.0051,39.6042,1811.23,60.80,35.60,38.85,200.00,6.00,0.00,30.27,M,10.00,M,CLR,M,M,M,M,M,M,M,M,M,M,M,M,M,M,60.80,K05U 081250Z AUTO 20006KT 10SM CLR 16/02 A3027 RMK A01,M
P68,2022-09-08 12:53,-116.0056,39.6014,1993.00,60.00,36.00,40.46,200.00,6.00,0.00,30.25,1015.40,M,M,M,M,M,M,M,M,M,M,M,M,M,M,M,M,M,60.10,KP68 081253Z AUTO 20006KT 16/02 A3025 RMK AO1 SLP154 T01560022,M
LOL,2022-09-08 12:53,-118.5701,40.0684,1192.43,63.00,45.00,51.78,30.00,4.00,0.00,30.10,1014.60,10.00,M,CLR,M,M,M,M,M,M,M,M,M,M,M,M,M,M,63.00,KLOL 081253Z AUTO 03004KT 10SM CLR 17/07 A3010 RMK AO2 SLP146 T01720072,M
ELY,2022-09-08 12:53,-114.8453,39.2950,1909.00,52.00,37.00,56.45,190.00,10.00,0.00,30.28,1015.70,10.00,M,CLR,M,M,M,M,M,M,M,M,M,M,M,M,M,M,52.00,KELY 081253Z AUTO 19010KT 10SM CLR 11/03 A3028 RMK AO2 SLP157 T01110028,M
DRA,2022-09-08 12:53,-116.0278,36.6206,1009.00,79.00,49.00,34.81,20.00,4.00,0.00,30.02,1010.70,10.00,M,CLR,M,M,M,M,M,M,M,M,M,M,M,M,M,M,79.00,KDRA 081253Z AUTO 02004KT 10SM CLR 26/09 A3002 RMK AO2 SLP107 T02610094,M
VGT,2022-09-08 12:53,-115.1933,36.2111,667.00,88.00,53.00,30.41,310.00,3.00,0.00,29.92,1011.50,10.00,M,CLR,M,M,M,M,M,M,M,M,M,M,M,M,M,M,85.80,KVGT 081253Z 31003KT 10SM CLR 31/12 A2992 RMK AO2 LTG DSNT SW TSB25E40 SLP115 T03110117,M
RNO,2022-09-08 12:55,-119.7711,39.4839,1341.00,70.00,44.00,39.26,M,3.00,0.00,30.18,1015.30,10.00,M,CLR,M,M,M,M,M,M,M,M,M,M,M,M,M,M,70.00,KRNO 081255Z VRB03KT 10SM CLR 21/07 A3018 RMK AO2 SLP153 HZ ALQDS T02110067,M
RTS,2022-09-08 12:55,-119.8764,39.6682,1539.00,55.40,41.00,58.27,310.00,5.00,0.00,30.23,M,10.00,M,CLR,M,M,M,M,M,M,M,M,M,M,M,M,M,M,55.40,KRTS 081255Z AUTO 31005KT 10SM CLR 13/05 A3023 RMK AO2,M
MEV,2022-09-08 12:55,-119.7500,38.9963,1441.42,53.60,41.00,62.23,0.00,0.00,0.00,30.20,M,10.00,M,SCT,BKN,OVC,M,1400.00,2800.00,6000.00,M,M,M,M,M,M,M,M,53.60,KMEV 081255Z AUTO 00000KT 10SM SCT014 BKN028 OVC060 12/05 A3020 RMK AO2,M
HTH,2022-09-08 12:55,-118.6315,38.5448,1282.89,69.80,39.20,32.72,140.00,7.00,0.00,30.15,M,10.00,M,CLR,M,M,M,M,M,M,M,M,M,M,M,M,M,M,69.80,KHTH 081255Z AUTO 14007KT 10SM CLR 21/04 A3015 RMK A01,M
BAM,2022-09-08 12:55,-116.8743,40.5990,1382.36,64.40,37.40,36.74,0.00,0.00,0.00,30.16,M,10.00,M,CLR,M,M,M,M,M,M,M,M,M,M,M,M,M,M,64.40,KBAM 081255Z AUTO 00000KT 10SM CLR 18/03 A3016 RMK AO1,M
CXP,2022-09-08 12:55,-119.7326,39.1923,1431.00,60.80,39.20,44.76,0.00,0.00,0.00,30.21,M,9.00,M,CLR,M,M,M,M,M,M,M,M,M,M,M,M,M,M,60.80,KCXP 081255Z AUTO 00000KT 9SM CLR 16/04 A3021 RMK AO2,M
BVU,2022-09-08 12:55,-114.8611,35.9475,671.00,84.20,51.80,32.73,0.00,0.00,0.00,29.94,M,M,M,M,M,M,M,M,M,M,M,M,M,M,M,M,M,M,82.48,KBVU 081255Z AUTO 00000KT 29/11 A2994 RMK AO2 TSNO,M
TMT,2022-09-08 12:55,-117.1971,39.4643,1749.34,M,M,M,0.00,0.00,0.00,30.27,M,10.00,M,CLR,M,M,M,M,M,M,M,M,M,M,M,M,M,M,M,KTMT 081255Z AUTO 00000KT 10SM CLR A3027 RMK AO2,M
LSV,2022-09-08 12:56,-115.0343,36.2362,570.00,84.60,54.70,35.94,30.00,4.00,0.00,29.90,1009.60,10.00,M,SCT,BKN,M,M,12000.00,16000.00,M,M,M,M,M,M,M,M,M,83.26,KLSV 081256Z COR 03004KT 10SM SCT120 BKN160 29/13 A2990 RMK AO2A LTG DSNT SW SLP096 T02920126 $ COR 1305,M
TPH,2022-09-08 12:56,-117.0904,38.0505,1654.00,65.00,39.00,38.44,10.00,11.00,0.00,30.23,1014.70,10.00,M,CLR,M,M,M,M,M,M,M,M,M,M,M,M,M,M,64.90,KTPH 081256Z AUTO 01011KT 10SM CLR 18/04 A3023 RMK AO2 SLP147 T01830039,M
NFL,2022-09-08 12:56,-118.7010,39.4166,1199.00,68.00,40.00,35.76,0.00,0.00,0.00,30.11,1016.20,10.00,M,CLR,M,M,M,M,M,M,M,M,M,M,M,M,M,M,68.00,KNFL 081256Z AUTO 00000KT 10SM CLR 20/04 A3011 RMK AO2 SLP162 T02000044,M
EKO,2022-09-08 12:56,-115.7860,40.8242,1367.00,62.00,40.00,43.93,0.00,0.00,0.00,30.18,1015.70,10.00,M,CLR,M,M,M,M,M,M,M,M,M,M,M,M,M,M,62.10,KEKO 081256Z AUTO 00000KT 10SM CLR 17/04 A3018 RMK AO2 SLP157 T01670044,M
LAS,2022-09-08 12:56,-115.1634,36.0719,663.00,86.00,64.00,47.91,250.00,3.00,0.07,29.93,1010.10,10.00,M,FEW,BKN,M,M,10000.00,15000.00,M,M,M,M,M,M,M,M,M,87.31,KLAS 081256Z 25003KT 10SM FEW100 BKN150 30/18 A2993 RMK AO2 LTG DSNT W RAB30E47 TSB23E43 SLP101 OCNL LTGIC W TS MOV W P0007 T03000178,M
WMC,2022-09-08 12:56,-117.8072,40.9019,1315.00,59.00,40.00,49.04,0.00,0.00,0.00,30.14,1015.10,10.00,M,CLR,M,M,M,M,M,M,M,M,M,M,M,M,M,M,59.00,KWMC 081256Z AUTO 00000KT 10SM CLR 15/04 A3014 RMK AO2 SLP151 T01500044,M
INS,2022-09-08 12:56,-115.6733,36.5872,955.00,78.80,48.00,33.88,270.00,8.00,0.00,30.00,1010.10,10.00,M,CLR,M,M,M,M,M,M,M,M,M,M,M,M,M,M,78.80,KINS 081256Z AUTO 27008KT 10SM CLR 26/09 A3000 RMK AO2 SLP101 T02600089 $,M
05U,2022-09-08 13:10,-116.0051,39.6042,1811.23,60.80,35.60,38.85,200.00,4.00,0.00,30.27,M,10.00,M,CLR,M,M,M,M,M,M,M,M,M,M,M,M,M,M,60.80,K05U 081310Z AUTO 20004KT 10SM CLR 16/02 A3027 RMK A01,M
TMT,2022-09-08 13:15,-117.1971,39.4643,1749.34,51.00,35.40,54.78,0.00,0.00,0.00,30.27,M,10.00,M,CLR,M,M,M,M,M,M,M,M,M,M,M,M,M,M,51.10,KTMT 081315Z AUTO 00000KT 10SM CLR 11/02 A3027 RMK AO2 T01060019,M
BAM,2022-09-08 13:15,-116.8743,40.5990,1382.36,62.60,37.40,39.14,0.00,0.00,0.00,30.16,M,10.00,M,CLR,M,M,M,M,M,M,M,M,M,M,M,M,M,M,62.60,KBAM 081315Z AUTO 00000KT 10SM CLR 17/03 A3016 RMK AO1,M
MEV,2022-09-08 13:15,-119.7500,38.9963,1441.42,50.00,39.20,66.27,0.00,0.00,0.00,30.20,M,10.00,M,M,M,M,M,M,M,M,M,M,M,M,M,M,M,M,50.00,KMEV 081315Z AUTO 00000KT 10SM 10/04 A3020 RMK AO2,M
RTS,2022-09-08 13:15,-119.8764,39.6682,1539.00,53.60,39.20,58.02,360.00,6.00,0.00,30.23,M,10.00,M,CLR,M,M,M,M,M,M,M,M,M,M,M,M,M,M,53.60,KRTS 081315Z AUTO 36006KT 10SM CLR 12/04 A3023 RMK AO2,M
CXP,2022-09-08 13:15,-119.7326,39.1923,1431.00,59.00,41.00,51.18,0.00,0.00,0.00,30.21,M,9.00,M,CLR,M,M,M,M,M,M,M,M,M,M,M,M,M,M,59.00,KCXP 081315Z AUTO 00000KT 9SM CLR 15/05 A3021 RMK AO2,M
BVU,2022-09-08 13:15,-114.8611,35.9475,671.00,82.40,53.60,37.07,30.00,3.00,0.00,29.94,M,M,M,M,M,M,M,M,M,M,M,M,M,M,M,M,M,M,81.46,KBVU 081315Z AUTO 03003KT 28/12 A2994 RMK AO2 TSNO,M
HTH,2022-09-08 13:15,-118.6315,38.5448,1282.89,68.00,37.40,32.43,130.00,5.00,0.00,30.14,M,10.00,M,CLR,M,M,M,M,M,M,M,M,M,M,M,M,M,M,68.00,KHTH 081315Z AUTO 13005KT 10SM CLR 20/03 A3014 RMK A01,M
05U,2022-09-08 13:30,-116.0051,39.6042,1811.23,60.80,35.60,38.85,180.00,5.00,0.00,30.27,M,9.00,M,CLR,M,M,M,M,M,M,M,M,M,M,M,M,M,M,60.80,K05U 081330Z AUTO 18005KT 9SM CLR 16/02 A3027 RMK A01,M
TMT,2022-09-08 13:35,-117.1971,39.4643,1749.34,48.40,33.00,55.26,180.00,3.00,0.00,30.27,M,10.00,M,CLR,M,M,M,M,M,M,M,M,M,M,M,M,M,M,47.44,KTMT 081335Z AUTO 18003KT 10SM CLR 09/01 A3027 RMK AO2 T00910006,M
BVU,2022-09-08 13:35,-114.8611,35.9475,671.00,82.40,53.60,37.07,0.00,0.00,0.00,29.93,M,M,M,M,M,M,M,M,M,M,M,M,M,M,M,M,M,M,81.46,KBVU 081335Z AUTO 00000KT 28/12 A2993 RMK AO2 TSNO,M
CXP,2022-09-08 13:35,-119.7326,39.1923,1431.00,59.00,42.80,54.86,0.00,0.00,0.00,30.21,M,8.00,M,CLR,M,M,M,M,M,M,M,M,M,M,M,M,M,M,59.00,KCXP 081335Z AUTO 00000KT 8SM CLR 15/06 A3021 RMK AO2,M
RTS,2022-09-08 13:35,-119.8764,39.6682,1539.00,57.20,39.20,50.91,360.00,5.00,0.00,30.23,M,10.00,M,CLR,M,M,M,M,M,M,M,M,M,M,M,M,M,M,57.20,KRTS 081335Z AUTO 36005KT 10SM CLR 14/04 A3023 RMK AO2,M
MEV,2022-09-08 13:35,-119.7500,38.9963,1441.42,51.80,39.20,61.99,0.00,0.00,0.00,30.20,M,10.00,M,M,M,M,M,M,M,M,M,M,M,M,M,M,M,M,51.80,KMEV 081335Z AUTO 00000KT 10SM 11/04 A3020 RMK AO2,M
BAM,2022-09-08 13:35,-116.8743,40.5990,1382.36,60.80,35.60,38.85,90.00,4.00,0.00,30.16,M,10.00,M,CLR,M,M,M,M,M,M,M,M,M,M,M,M,M,M,60.80,KBAM 081335Z AUTO 09004KT 10SM CLR 16/02 A3016 RMK AO1,M
HTH,2022-09-08 13:35,-118.6315,38.5448,1282.89,68.00,37.40,32.43,220.00,4.00,0.00,30.14,M,10.00,M,CLR,M,M,M,M,M,M,M,M,M,M,M,M,M,M,68.00,KHTH 081335Z AUTO 22004KT 10SM CLR 20/03 A3014 RMK A01,M
05U,2022-09-08 13:50,-116.0051,39.6042,1811.23,60.80,35.60,38.85,220.00,8.00,0.00,30.28,M,9.00,M,CLR,M,M,M,M,M,M,M,M,M,M,M,M,M,M,60.80,K05U 081350Z AUTO 22008KT 9SM CLR 16/02 A3028 RMK A01,M
VGT,2022-09-08 13:53,-115.1933,36.2111,667.00,88.00,55.00,32.60,320.00,4.00,0.00,29.92,1011.30,10.00,M,CLR,M,M,M,M,M,M,M,M,M,M,M,M,M,M,86.20,KVGT 081353Z 32004KT 10SM CLR 31/13 A2992 RMK AO2 LTG DSNT W SLP113 T03110128,M
ELY,2022-09-08 13:53,-114.8453,39.2950,1909.00,57.00,37.00,47.04,200.00,9.00,0.00,30.29,1015.50,10.00,M,CLR,M,M,M,M,M,M,M,M,M,M,M,M,M,M,57.00,KELY 081353Z AUTO 20009KT 10SM CLR 14/03 A3029 RMK AO2 SLP155 T01390028,M
LOL,2022-09-08 13:53,-118.5701,40.0684,1192.43,63.00,40.00,42.56,0.00,0.00,0.00,30.10,1015.10,10.00,M,CLR,M,M,M,M,M,M,M,M,M,M,M,M,M,M,63.00,KLOL 081353Z AUTO 00000KT 10SM CLR 17/04 A3010 RMK AO2 SLP151 T01720044,M
DRA,2022-09-08 13:53,-116.0278,36.6206,1009.00,80.00,50.00,34.98,0.00,0.00,0.00,30.02,1010.60,10.00,M,CLR,M,M,M,M,M,M,M,M,M,M,M,M,M,M,79.60,KDRA 081353Z AUTO 00000KT 10SM CLR 27/10 A3002 RMK AO2 SLP106 T02670100,M
P68,2022-09-08 13:53,-116.0056,39.6014,1993.00,63.00,36.00,36.52,210.00,7.00,0.00,30.25,1015.80,M,M,M,M,M,M,M,M,M,M,M,M,M,M,M,M,M,63.00,KP68 081353Z AUTO 21007KT 17/02 A3025 RMK AO1 SLP158 T01720022,M
BVU,2022-09-08 13:55,-114.8611,35.9475,671.00,84.20,53.60,34.97,90.00,6.00,0.00,29.94,M,M,M,M,M,M,M,M,M,M,M,M,M,M,M,M,M,M,82.76,KBVU 081355Z AUTO 09006KT 29/12 A2994 RMK AO2 TSNO,M
CXP,2022-09-08 13:55,-119.7326,39.1923,1431.00,60.80,41.00,48.00,0.00,0.00,0.00,30.21,M,8.00,M,CLR,M,M,M,M,M,M,M,M,M,M,M,M,M,M,60.80,KCXP 081355Z AUTO 00000KT 8SM CLR 16/05 A3021 RMK AO2,M
RNO,2022-09-08 13:55,-119.7711,39.4839,1341.00,68.00,45.00,43.51,270.00,3.00,0.00,30.18,1015.60,10.00,M,FEW,FEW,M,M,9000.00,13000.00,M,M,M,M,M,M,M,M,M,68.00,KRNO 081355Z 27003KT 10SM FEW090 FEW130 20/07 A3018 RMK AO2 SLP156 FU FEW090 FU HZ ALQDS T02000072,M
HTH,2022-09-08 13:55,-118.6315,38.5448,1282.89,69.80,37.40,30.49,280.00,5.00,0.00,30.15,M,10.00,M,CLR,M,M,M,M,M,M,M,M,M,M,M,M,M,M,69.80,KHTH 081355Z AUTO 28005KT 10SM CLR 21/03 A3015 RMK A01,M
BAM,2022-09-08 13:55,-116.8743,40.5990,1382.36,59.00,35.60,41.42,70.00,4.00,0.00,30.16,M,10.00,M,CLR,M,M,M,M,M,M,M,M,M,M,M,M,M,M,59.00,KBAM 081355Z AUTO 07004KT 10SM CLR 15/02 A3016 RMK AO1,M
MEV,2022-09-08 13:55,-119.7500,38.9963,1441.42,50.00,37.40,61.76,0.00,0.00,0.00,30.20,M,9.00,M,M,M,M,M,M,M,M,M,M,M,M,M,M,M,M,50.00,KMEV 081355Z AUTO 00000KT 9SM 10/03 A3020 RMK AO2,M
TMT,2022-09-08 13:55,-117.1971,39.4643,1749.34,50.40,34.30,53.81,0.00,0.00,0.00,30.27,M,10.00,M,CLR,M,M,M,M,M,M,M,M,M,M,M,M,M,M,50.40,KTMT 081355Z AUTO 00000KT 10SM CLR 10/01 A3027 RMK AO2 T01020013,M
RTS,2022-09-08 13:55,-119.8764,39.6682,1539.00,55.40,39.20,54.34,330.00,6.00,0.00,30.22,M,10.00,M,CLR,M,M,M,M,M,M,M,M,M,M,M,M,M,M,55.40,KRTS 081355Z AUTO 33006KT 10SM CLR 13/04 A3022 RMK AO2,M
INS,2022-09-08 13:56,-115.6733,36.5872,955.00,78.30,47.50,33.80,0.00,0.00,0.00,30.01,1010.60,10.00,M,SCT,M,M,M,14000.00,M,M,M,M,M,M,M,M,M,M,78.30,KINS 081356Z AUTO 00000KT 10SM SCT140 26/09 A3001 RMK AO2 LTG DSNT S-SW SLP106 T02570086 $,M
TPH,2022-09-08 13:56,-117.0904,38.0505,1654.00,68.00,38.00,33.07,30.00,8.00,0.00,30.22,1014.80,10.00,M,CLR,M,M,M,M,M,M,M,M,M,M,M,M,M,M,68.00,KTPH 081356Z AUTO 03008KT 10SM CLR 20/03 A3022 RMK AO2 SLP148 T02000033,M
WMC,2022-09-08 13:56,-117.8072,40.9019,1315.00,57.00,39.00,50.88,340.00,3.00,0.00,30.14,1015.60,10.00,M,CLR,M,M,M,M,M,M,M,M,M,M,M,M,M,M,57.00,KWMC 081356Z AUTO 34003KT 10SM CLR 14/04 A3014 RMK AO2 SLP156 T01390039,M
NFL,2022-09-08 13:56,-118.7010,39.4166,1199.00,67.00,39.00,35.86,160.00,6.00,0.00,30.10,1016.10,8.00,M,CLR,M,M,M,M,M,M,M,M,M,M,M,M,M,M,66.90,KNFL 081356Z AUTO 16006KT 8SM CLR 19/04 A3010 RMK AO2 SLP161 T01940039,M
EKO,2022-09-08 13:56,-115.7860,40.8242,1367.00,65.00,38.00,36.82,0.00,0.00,0.00,30.18,1015.90,10.00,M,CLR,M,M,M,M,M,M,M,M,M,M,M,M,M,M,64.90,KEKO 081356Z AUTO 00000KT 10SM CLR 18/03 A3018 RMK AO2 SLP159 T01830033,M
LAS,2022-09-08 13:56,-115.1634,36.0719,663.00,86.00,66.00,51.37,200.00,3.00,0.00,29.93,1010.10,10.00,M,FEW,M,M,M,13000.00,M,M,M,M,M,M,M,M,M,M,88.28,KLAS 081356Z 20003KT 10SM FEW130 30/19 A2993 RMK AO2 LTG DSNT W SLP101 T03000189,M
LSV,2022-09-08 13:56,-115.0343,36.2362,570.00,83.80,54.00,35.95,50.00,4.00,0.00,29.90,1009.60,10.00,M,CLR,M,M,M,M,M,M,M,M,M,M,M,M,M,M,82.52,KLSV 081356Z AUTO 05004KT 10SM CLR 29/12 A2990 RMK AO2 SLP096 T02880122 $,M
05U,2022-09-08 14:10,-116.0051,39.6042,1811.23,60.80,35.60,38.85,M,M,0.00,30.28,M,9.00,M,CLR,M,M,M,M,M,M,M,M,M,M,M,M,M,M,60.80,K05U 081410Z AUTO 9SM CLR 16/02 A3028 RMK A01,M
HTH,2022-09-08 14:15,-118.6315,38.5448,1282.89,68.00,37.40,32.43,130.00,4.00,0.00,30.15,M,10.00,M,CLR,M,M,M,M,M,M,M,M,M,M,M,M,M,M,68.00,KHTH 081415Z AUTO 13004KT 10SM CLR 20/03 A3015 RMK A01,M
CXP,2022-09-08 14:15,-119.7326,39.1923,1431.00,60.80,42.80,51.45,0.00,0.00,0.00,30.22,M,8.00,M,CLR,M,M,M,M,M,M,M,M,M,M,M,M,M,M,60.80,KCXP 081415Z AUTO 00000KT 8SM CLR 16/06 A3022 RMK AO2,M
BVU,2022-09-08 14:15,-114.8611,35.9475,671.00,86.00,53.60,33.01,70.00,4.00,0.00,29.93,M,M,M,M,M,M,M,M,M,M,M,M,M,M,M,M,M,M,84.18,KBVU 081415Z AUTO 07004KT 30/12 A2993 RMK AO2 TSNO,M
TMT,2022-09-08 14:15,-117.1971,39.4643,1749.34,52.70,35.60,52.05,0.00,0.00,0.00,30.28,M,10.00,M,CLR,M,M,M,M,M,M,M,M,M,M,M,M,M,M,52.70,KTMT 081415Z AUTO 00000KT 10SM CLR 12/02 A3028 RMK AO2 T01150020,M
RTS,2022-09-08 14:15,-119.8764,39.6682,1539.00,55.40,41.00,58.27,0.00,0.00,0.00,30.23,M,10.00,M,CLR,M,M,M,M,M,M,M,M,M,M,M,M,M,M,55.40,KRTS 081415Z AUTO 00000KT 10SM CLR 13/05 A3023 RMK AO2,M
BAM,2022-09-08 14:15,-116.8743,40.5990,1382.36,62.60,37.40,39.14,0.00,0.00,0.00,30.16,M,10.00,M,CLR,M,M,M,M,M,M,M,M,M,M,M,M,M,M,62.60,KBAM 081415Z AUTO 00000KT 10SM CLR 17/03 A3016 RMK AO1,M
MEV,2022-09-08 14:15,-119.7500,38.9963,1441.42,51.80,41.00,66.48,0.00,0.00,0.00,30.21,M,8.00,M,CLR,M,M,M,M,M,M,M,M,M,M,M,M,M,M,51.80,KMEV 081415Z AUTO 00000KT 8SM CLR 11/05 A3021 RMK AO2,M
05U,2022-09-08 14:30,-116.0051,39.6042,1811.23,62.60,35.60,36.45,0.00,0.00,0.00,30.28,M,9.00,M,CLR,M,M,M,M,M,M,M,M,M,M,M,M,M,M,62.60,K05U 081430Z AUTO 00000KT 9SM CLR 17/02 A3028 RMK A01,M
TMT,2022-09-08 14:35,-117.1971,39.4643,1749.34,M,M,M,250.00,4.00,0.00,30.27,M,10.00,M,CLR,M,M,M,M,M,M,M,M,M,M,M,M,M,M,M,KTMT 081435Z AUTO 25004KT 10SM CLR A3027 RMK AO2,M
BAM,2022-09-08 14:35,-116.8743,40.5990,1382.36,68.00,41.00,37.32,0.00,0.00,0.00,30.16,M,10.00,M,CLR,M,M,M,M,M,M,M,M,M,M,M,M,M,M,68.00,KBAM 081435Z AUTO 00000KT 10SM CLR 20/05 A3016 RMK AO1,M
MEV,2022-09-08 14:35,-119.7500,38.9963,1441.42,55.40,42.80,62.46,0.00,0.00,0.00,30.21,M,4.00,M,CLR,M,M,M,M,M,M,M,HZ,M,M,M,M,M,M,55.40,KMEV 081435Z AUTO 00000KT 4SM HZ CLR 13/06 A3021 RMK AO2,M
RTS,2022-09-08 14:35,-119.8764,39.6682,1539.00,59.00,41.00,51.18,360.00,3.00,0.00,30.22,M,10.00,M,CLR,M,M,M,M,M,M,M,M,M,M,M,M,M,M,59.00,KRTS 081435Z AUTO 36003KT 10SM CLR 15/05 A3022 RMK AO2,M
BVU,2022-09-08 14:35,-114.8611,35.9475,671.00,86.00,55.40,35.25,50.00,5.00,0.00,29.93,M,M,M,M,M,M,M,M,M,M,M,M,M,M,M,M,M,M,84.54,KBVU 081435Z AUTO 05005KT 30/13 A2993 RMK AO2 TSNO,M
CXP,2022-09-08 14:35,-119.7326,39.1923,1431.00,62.60,42.80,48.28,0.00,0.00,0.00,30.22,M,8.00,M,CLR,M,M,M,M,M,M,M,M,M,M,M,M,M,M,62.60,KCXP 081435Z AUTO 00000KT 8SM CLR 17/06 A3022 RMK AO2,M
HTH,2022-09-08 14:35,-118.6315,38.5448,1282.89,71.60,39.20,30.77,0.00,0.00,0.00,30.15,M,10.00,M,CLR,M,M,M,M,M,M,M,M,M,M,M,M,M,M,71.60,KHTH 081435Z AUTO 00000KT 10SM CLR 22/04 A3015 RMK A01,M
05U,2022-09-08 14:50,-116.0051,39.6042,1811.23,62.60,35.60,36.45,0.00,0.00,0.00,30.28,M,8.00,M,CLR,M,M,M,M,M,M,M,M,M,M,M,M,M,M,62.60,K05U 081450Z AUTO 00000KT 8SM CLR 17/02 A3028 RMK A01,M
LOL,2022-09-08 14:53,-118.5701,40.0684,1192.43,67.00,44.00,43.67,110.00,4.00,0.00,30.11,1015.30,10.00,M,CLR,M,M,M,M,M,M,M,M,M,M,M,M,M,M,66.90,KLOL 081453Z AUTO 11004KT 10SM CLR 19/07 A3011 RMK AO2 SLP153 T01940067 53002,M
ELY,2022-09-08 14:53,-114.8453,39.2950,1909.00,64.00,39.00,39.67,200.00,7.00,0.00,30.28,1014.80,10.00,M,CLR,M,M,M,M,M,M,M,M,M,M,M,M,M,M,64.00,KELY 081453Z AUTO 20007KT 10SM CLR 18/04 A3028 RMK AO2 SLP148 T01780039 56005,M
VGT,2022-09-08 14:53,-115.1933,36.2111,667.00,91.00,54.00,28.60,350.00,4.00,0.00,29.92,1011.50,10.00,M,CLR,M,M,M,M,M,M,M,M,M,M,M,M,M,M,88.78,KVGT 081453Z 35004KT 10SM CLR 33/12 A2992 RMK AO2 LTG DSNT W AND NW SLP115 T03280122 55002,M
DRA,2022-09-08 14:53,-116.0278,36.6206,1009.00,88.00,50.00,27.12,360.00,4.00,0.00,30.03,1010.80,10.00,M,CLR,M,M,M,M,M,M,M,M,M,M,M,M,M,M,85.28,KDRA 081453Z AUTO 36004KT 10SM CLR 31/10 A3003 RMK AO2 SLP108 T03110100 53000,M
P68,2022-09-08 14:53,-116.0056,39.6014,1993.00,62.00,37.00,39.21,0.00,0.00,0.00,30.26,1016.60,M,M,M,M,M,M,M,M,M,M,M,M,M,M,M,M,M,62.10,KP68 081453Z AUTO 00000KT 17/03 A3026 RMK AO1 SLP166 T01670028 55001,M
HTH,2022-09-08 14:55,-118.6315,38.5448,1282.89,73.40,39.20,28.96,260.00,4.00,0.00,30.15,M,10.00,M,CLR,M,M,M,M,M,M,M,M,M,M,M,M,M,M,73.40,KHTH 081455Z AUTO 26004KT 10SM CLR 23/04 A3015 RMK A01,M
BAM,2022-09-08 14:55,-116.8743,40.5990,1382.36,69.80,41.00,35.09,0.00,0.00,0.00,30.16,M,10.00,M,CLR,M,M,M,M,M,M,M,M,M,M,M,M,M,M,69.80,KBAM 081455Z AUTO 00000KT 10SM CLR 21/05 A3016 RMK AO1,M
MEV,2022-09-08 14:55,-119.7500,38.9963,1441.42,60.80,41.00,48.00,0.00,0.00,0.00,30.20,M,6.00,M,CLR,M,M,M,M,M,M,M,HZ,M,M,M,M,M,M,60.80,KMEV 081455Z AUTO 00000KT 6SM HZ CLR 16/05 A3020 RMK AO2,M
CXP,2022-09-08 14:55,-119.7326,39.1923,1431.00,64.40,42.80,45.32,0.00,0.00,0.00,30.21,M,9.00,M,CLR,M,M,M,M,M,M,M,M,M,M,M,M,M,M,64.40,KCXP 081455Z AUTO 00000KT 9SM CLR 18/06 A3021 RMK AO2,M
RNO,2022-09-08 14:55,-119.7711,39.4839,1341.00,68.00,47.00,46.76,160.00,3.00,0.00,30.17,1015.70,10.00,M,CLR,M,M,M,M,M,M,M,M,M,M,M,M,M,M,68.00,KRNO 081455Z 16003KT 10SM CLR 20/08 A3017 RMK AO2 SLP157 HZ FU ALQDS T02000083 58002,M
RTS,2022-09-08 14:55,-119.8764,39.6682,1539.00,62.60,41.00,45.04,0.00,0.00,0.00,30.22,M,10.00,M,CLR,M,M,M,M,M,M,M,M,M,M,M,M,M,M,62.60,KRTS 081455Z AUTO 00000KT 10SM CLR 17/05 A3022 RMK AO2,M
BVU,2022-09-08 14:55,-114.8611,35.9475,671.00,87.80,57.20,35.53,40.00,4.00,0.00,29.93,M,M,M,M,M,M,M,M,M,M,M,M,M,M,M,M,M,M,86.58,KBVU 081455Z AUTO 04004KT 31/14 A2993 RMK AO2 TSNO,M
TMT,2022-09-08 14:55,-117.1971,39.4643,1749.34,M,M,M,220.00,4.00,0.00,30.27,M,10.00,M,CLR,M,M,M,M,M,M,M,M,M,M,M,M,M,M,M,KTMT 081455Z AUTO 22004KT 10SM CLR A3027 RMK AO2,M
TPH,2022-09-08 14:56,-117.0904,38.0505,1654.00,71.00,38.00,29.74,30.00,12.00,0.00,30.22,1014.80,10.00,M,CLR,M,M,M,M,M,M,M,M,M,M,M,M,M,M,71.10,KTPH 081456Z AUTO 03012KT 10SM CLR 22/03 A3022 RMK AO2 SLP148 T02170033 56002,M
EKO,2022-09-08 14:56,-115.7860,40.8242,1367.00,67.00,40.00,37.14,0.00,0.00,0.00,30.18,1016.00,10.00,M,CLR,M,M,M,M,M,M,M,M,M,M,M,M,M,M,66.90,KEKO 081456Z AUTO 00000KT 10SM CLR 19/04 A3018 RMK AO2 SLP160 T01940044 55000,M
LSV,2022-09-08 14:56,-115.0343,36.2362,570.00,88.50,55.00,31.97,40.00,6.00,0.00,29.90,1009.60,10.00,M,CLR,M,M,M,M,M,M,M,M,M,M,M,M,M,M,86.63,KLSV 081456Z AUTO 04006KT 10SM CLR 31/13 A2990 RMK AO2 SLP096 T03140127 $,M
LAS,2022-09-08 14:56,-115.1634,36.0719,663.00,88.00,64.00,44.95,290.00,3.00,0.00,29.93,1010.20,10.00,M,FEW,M,M,M,13000.00,M,M,M,M,M,M,M,M,M,M,89.34,KLAS 081456Z 29003KT 10SM FEW130 31/18 A2993 RMK AO2 LTG DSNT NW SLP102 60007 T03110178 55001,M
NFL,2022-09-08 14:56,-118.7010,39.4166,1199.00,73.00,42.00,32.84,0.00,0.00,0.00,30.11,1016.30,9.00,M,SCT,SCT,M,M,1500.00,20000.00,M,M,M,M,M,M,M,M,M,73.00,KNFL 081456Z 00000KT 9SM SCT015 SCT200 23/06 A3011 RMK AO2 SLP163 FU SCT015 T02280056 55001,M
WMC,2022-09-08 14:56,-117.8072,40.9019,1315.00,71.00,43.00,36.25,0.00,0.00,0.00,30.14,1015.20,10.00,M,CLR,M,M,M,M,M,M,M,M,M,M,M,M,M,M,71.10,KWMC 081456Z AUTO 00000KT 10SM CLR 22/06 A3014 RMK AO2 SLP152 T02170061 52004,M
INS,2022-09-08 14:56,-115.6733,36.5872,955.00,84.60,47.80,27.84,0.00,0.00,0.00,30.01,1010.50,10.00,M,CLR,M,M,M,M,M,M,M,M,M,M,M,M,M,M,82.29,KINS 081456Z AUTO 00000KT 10SM CLR 29/09 A3001 RMK AO2 LTG DSNT SW SLP105 T02920088 53001 $,M
BVU,2022-09-08 15:15,-114.8611,35.9475,671.00,87.80,57.20,35.53,90.00,6.00,0.00,29.93,M,M,M,M,M,M,M,M,M,M,M,M,M,M,M,M,M,M,86.58,KBVU 081515Z AUTO 09006KT 31/14 A2993 RMK AO2 TSNO,M
CXP,2022-09-08 15:15,-119.7326,39.1923,1431.00,68.00,42.80,40.00,0.00,0.00,0.00,30.21,M,10.00,M,CLR,M,M,M,M,M,M,M,M,M,M,M,M,M,M,68.00,KCXP 081515Z AUTO 00000KT 10SM CLR 20/06 A3021 RMK AO2,M
RTS,2022-09-08 15:15,-119.8764,39.6682,1539.00,66.20,42.80,42.57,0.00,0.00,0.00,30.22,M,M,M,M,M,M,M,M,M,M,M,M,M,M,M,M,M,M,66.20,KRTS 081515Z AUTO 00000KT 19/06 A3022 RMK AO2 PWINO,M
05U,2022-09-08 15:15,-116.0051,39.6042,1811.23,68.00,35.60,30.20,0.00,0.00,0.00,30.28,M,8.00,M,CLR,M,M,M,M,M,M,M,M,M,M,M,M,M,M,68.00,K05U 081515Z AUTO 00000KT 8SM CLR 20/02 A3028 RMK A01,M
MEV,2022-09-08 15:15,-119.7500,38.9963,1441.42,64.40,41.00,42.28,210.00,4.00,0.00,30.20,M,7.00,M,CLR,M,M,M,M,M,M,M,M,M,M,M,M,M,M,64.40,KMEV 081515Z AUTO 21004KT 7SM CLR 18/05 A3020 RMK AO2,M
BAM,2022-09-08 15:15,-116.8743,40.5990,1382.36,73.40,42.80,33.29,0.00,0.00,0.00,30.15,M,10.00,M,CLR,M,M,M,M,M,M,M,M,M,M,M,M,M,M,73.40,KBAM 081515Z AUTO 00000KT 10SM CLR 23/06 A3015 RMK AO1,M
HTH,2022-09-08 15:15,-118.6315,38.5448,1282.89,73.40,39.20,28.96,0.00,0.00,0.00,30.15,M,10.00,M,CLR,M,M,M,M,M,M,M,M,M,M,M,M,M,M,73.40,KHTH 081515Z AUTO 00000KT 10SM CLR 23/04 A3015 RMK A01,M
TMT,2022-09-08 15:15,-117.1971,39.4643,1749.34,M,M,M,140.00,3.00,0.00,30.27,M,10.00,M,CLR,M,M,M,M,M,M,M,M,M,M,M,M,M,M,M,KTMT 081515Z AUTO 14003KT 10SM CLR A3027 RMK AO2,M
TMT,2022-09-08 15:35,-117.1971,39.4643,1749.34,M,M,M,0.00,0.00,0.00,30.26,M,10.00,M,CLR,M,M,M,M,M,M,M,M,M,M,M,M,M,M,M,KTMT 081535Z AUTO 00000KT 10SM CLR A3026 RMK AO2,M
HTH,2022-09-08 15:35,-118.6315,38.5448,1282.89,75.20,42.80,31.34,260.00,3.00,0.00,30.15,M,10.00,M,CLR,M,M,M,M,M,M,M,M,M,M,M,M,M,M,75.20,KHTH 081535Z AUTO 26003KT 10SM CLR 24/06 A3015 RMK A01,M
CXP,2022-09-08 15:35,-119.7326,39.1923,1431.00,69.80,41.00,35.09,0.00,0.00,0.00,30.20,M,10.00,M,CLR,M,M,M,M,M,M,M,M,M,M,M,M,M,M,69.80,KCXP 081535Z AUTO 00000KT 10SM CLR 21/05 A3020 RMK AO2,M
RTS,2022-09-08 15:35,-119.8764,39.6682,1539.00,68.00,41.00,37.32,0.00,0.00,0.00,30.21,M,10.00,M,M,M,M,M,M,M,M,M,M,M,M,M,M,M,M,68.00,KRTS 081535Z AUTO 00000KT 10SM 20/05 A3021 RMK AO2,M
05U,2022-09-08 15:35,-116.0051,39.6042,1811.23,73.40,35.60,25.13,0.00,0.00,0.00,30.27,M,9.00,M,CLR,M,M,M,M,M,M,M,M,M,M,M,M,M,M,73.40,K05U 081535Z AUTO 00000KT 9SM CLR 23/02 A3027 RMK A01,M
MEV,2022-09-08 15:35,-119.7500,38.9963,1441.42,66.20,41.00,39.72,0.00,0.00,0.00,30.19,M,8.00,M,CLR,M,M,M,M,M,M,M,M,M,M,M,M,M,M,66.20,KMEV 081535Z AUTO 00000KT 8SM CLR 19/05 A3019 RMK AO2,M
BAM,2022-09-08 15:35,-116.8743,40.5990,1382.36,77.00,42.80,29.51,0.00,0.00,0.00,30.15,M,10.00,M,CLR,M,M,M,M,M,M,M,M,M,M,M,M,M,M,77.00,KBAM 081535Z AUTO 00000KT 10SM CLR 25/06 A3015 RMK AO1,M
BVU,2022-09-08 15:35,-114.8611,35.9475,671.00,89.60,57.20,33.56,100.00,6.00,0.00,29.93,M,M,M,M,M,M,M,M,M,M,M,M,M,M,M,M,M,M,88.28,KBVU 081535Z AUTO 10006KT 32/14 A2993 RMK AO2 TSNO,M
ELY,2022-09-08 15:53,-114.8453,39.2950,1909.00,75.00,39.00,27.23,200.00,5.00,0.00,30.26,1013.30,10.00,M,CLR,M,M,M,M,M,M,M,M,M,M,M,M,M,M,75.00,KELY 081553Z AUTO 20005KT 10SM CLR 24/04 A3026 RMK AO2 SLP133 T02390039,M
P68,2022-09-08 15:53,-116.0056,39.6014,1993.00,75.00,37.00,25.17,260.00,4.00,0.00,30.24,1014.60,M,M,M,M,M,M,M,M,M,M,M,M,M,M,M,M,M,75.00,KP68 081553Z AUTO 26004KT 24/03 A3024 RMK AO1 SLP146 T02390028,M
LOL,2022-09-08 15:53,-118.5701,40.0684,1192.43,77.00,44.00,31.02,360.00,3.00,0.00,30.10,1014.20,10.00,M,CLR,M,M,M,M,M,M,M,M,M,M,M,M,M,M,77.00,KLOL 081553Z AUTO 36003KT 10SM CLR 25/07 A3010 RMK AO2 SLP142 T02500067,M
VGT,2022-09-08 15:53,-115.1933,36.2111,667.00,93.00,54.00,26.87,30.00,5.00,0.00,29.91,1011.10,10.00,M,CLR,M,M,M,M,M,M,M,M,M,M,M,M,M,M,90.76,KVGT 081553Z 03005KT 10SM CLR 34/12 A2991 RMK AO2 SLP111 T03390122,M
DRA,2022-09-08 15:53,-116.0278,36.6206,1009.00,92.00,50.00,23.99,360.00,7.00,0.00,30.02,1010.50,10.00,M,CLR,M,M,M,M,M,M,M,M,M,M,M,M,M,M,88.84,KDRA 081553Z AUTO 36007KT 10SM CLR 33/10 A3002 RMK AO2 SLP105 T03330100,M
RTS,2022-09-08 15:55,-119.8764,39.6682,1539.00,71.60,42.80,35.37,0.00,0.00,0.00,30.21,M,10.00,M,CLR,M,M,M,M,M,M,M,M,M,M,M,M,M,M,71.60,KRTS 081555Z AUTO 00000KT 10SM CLR 22/06 A3021 RMK AO2,M
RNO,2022-09-08 15:55,-119.7711,39.4839,1341.00,74.00,45.00,35.60,0.00,0.00,0.00,30.16,1014.90,10.00,M,CLR,M,M,M,M,M,M,M,M,M,M,M,M,M,M,73.90,KRNO 081555Z 00000KT 10SM CLR 23/07 A3016 RMK AO2 SLP149 HZ FU ALQDS T02330072,M
BVU,2022-09-08 15:55,-114.8611,35.9475,671.00,91.40,57.20,31.72,100.00,8.00,0.00,29.93,M,M,M,M,M,M,M,M,M,M,M,M,M,M,M,M,M,M,90.06,KBVU 081555Z AUTO 10008KT 33/14 A2993 RMK AO2 TSNO,M
CXP,2022-09-08 15:55,-119.7326,39.1923,1431.00,71.60,41.00,33.00,0.00,0.00,0.00,30.20,M,10.00,M,CLR,M,M,M,M,M,M,M,M,M,M,M,M,M,M,71.60,KCXP 081555Z AUTO 00000KT 10SM CLR 22/05 A3020 RMK AO2,M
05U,2022-09-08 15:55,-116.0051,39.6042,1811.23,77.00,35.60,22.28,260.00,3.00,0.00,30.27,M,9.00,M,CLR,M,M,M,M,M,M,M,M,M,M,M,M,M,M,77.00,K05U 081555Z AUTO 26003KT 9SM CLR 25/02 A3027 RMK A01,M
MEV,2022-09-08 15:55,-119.7500,38.9963,1441.42,68.00,41.00,37.32,0.00,0.00,0.00,30.19,M,9.00,M,CLR,M,M,M,M,M,M,M,M,M,M,M,M,M,M,68.00,KMEV 081555Z AUTO 00000KT 9SM CLR 20/05 A3019 RMK AO2,M
BAM,2022-09-08 15:55,-116.8743,40.5990,1382.36,78.80,41.00,25.95,0.00,0.00,0.00,30.14,M,10.00,M,CLR,M,M,M,M,M,M,M,M,M,M,M,M,M,M,78.80,KBAM 081555Z AUTO 00000KT 10SM CLR 26/05 A3014 RMK AO1,M
HTH,2022-09-08 15:55,-118.6315,38.5448,1282.89,75.20,41.00,29.23,M,4.00,0.00,30.14,M,10.00,M,CLR,M,M,M,M,M,M,M,M,M,M,M,M,M,M,75.20,KHTH 081555Z AUTO VRB04KT 10SM CLR 24/05 A3014 RMK A01,M
TMT,2022-09-08 15:55,-117.1971,39.4643,1749.34,M,M,M,200.00,3.00,0.00,30.26,M,10.00,M,CLR,M,M,M,M,M,M,M,M,M,M,M,M,M,M,M,KTMT 081555Z AUTO 20003KT 10SM CLR A3026 RMK AO2,M
WMC,2022-09-08 15:56,-117.8072,40.9019,1315.00,80.00,41.00,24.86,M,3.00,0.00,30.13,1014.30,10.00,M,CLR,M,M,M,M,M,M,M,M,M,M,M,M,M,M,78.98,KWMC 081556Z AUTO VRB03KT 10SM CLR 27/05 A3013 RMK AO2 SLP143 T02670050,M
LAS,2022-09-08 15:56,-115.1634,36.0719,663.00,91.00,59.00,34.27,50.00,4.00,0.00,29.92,1009.90,10.00,M,FEW,M,M,M,13000.00,M,M,M,M,M,M,M,M,M,M,90.27,KLAS 081556Z 05004KT 10SM FEW130 33/15 A2992 RMK AO2 SLP099 T03280150,M
INS,2022-09-08 15:56,-115.6733,36.5872,955.00,89.60,48.00,23.93,0.00,0.00,0.00,30.00,1010.10,10.00,M,CLR,M,M,M,M,M,M,M,M,M,M,M,M,M,M,86.42,KINS 081556Z AUTO 00000KT 10SM CLR 32/09 A3000 RMK AO2 SLP101 T03200089 $,M
LSV,2022-09-08 15:56,-115.0343,36.2362,570.00,94.00,53.80,25.94,80.00,7.00,0.00,29.89,1009.20,10.00,M,CLR,M,M,M,M,M,M,M,M,M,M,M,M,M,M,91.63,KLSV 081556Z AUTO 08007KT 10SM CLR 34/12 A2989 RMK AO2 SLP092 T03440121 $,M
EKO,2022-09-08 15:56,-115.7860,40.8242,1367.00,75.00,41.00,29.43,200.00,3.00,0.00,30.16,1015.00,10.00,M,CLR,M,M,M,M,M,M,M,M,M,M,M,M,M,M,75.00,KEKO 081556Z AUTO 20003KT 10SM CLR 24/05 A3016 RMK AO2 SLP150 T02390050,M
NFL,2022-09-08 15:56,-118.7010,39.4166,1199.00,80.00,40.00,23.82,160.00,3.00,0.00,30.10,1015.90,9.00,M,SCT,SCT,M,M,1500.00,20000.00,M,M,M,M,M,M,M,M,M,78.93,KNFL 081556Z 16003KT 9SM SCT015 SCT200 27/04 A3010 RMK AO2 SLP159 FU SCT015 T02670044,M
TPH,2022-09-08 15:56,-117.0904,38.0505,1654.00,80.00,39.00,23.00,30.00,7.00,0.00,30.21,1013.40,10.00,M,CLR,M,M,M,M,M,M,M,M,M,M,M,M,M,M,78.89,KTPH 081556Z AUTO 03007KT 10SM CLR 27/04 A3021 RMK AO2 SLP134 T02670039,M
HTH,2022-09-08 16:15,-118.6315,38.5448,1282.89,77.00,37.40,23.93,290.00,4.00,0.00,30.14,M,10.00,M,CLR,M,M,M,M,M,M,M,M,M,M,M,M,M,M,77.00,KHTH 081615Z AUTO 29004KT 10SM CLR 25/03 A3014 RMK A01,M
BAM,2022-09-08 16:15,-116.8743,40.5990,1382.36,80.60,41.00,24.46,350.00,3.00,0.00,30.14,M,10.00,M,CLR,M,M,M,M,M,M,M,M,M,M,M,M,M,M,79.20,KBAM 081615Z AUTO 35003KT 10SM CLR 27/05 A3014 RMK AO1,M
TMT,2022-09-08 16:15,-117.1971,39.4643,1749.34,M,M,M,0.00,0.00,0.00,30.25,M,10.00,M,CLR,M,M,M,M,M,M,M,M,M,M,M,M,M,M,M,KTMT 081615Z AUTO 00000KT 10SM CLR A3025 RMK AO2,M
BVU,2022-09-08 16:15,-114.8611,35.9475,671.00,91.40,55.40,29.72,100.00,7.00,0.00,29.93,M,M,M,M,M,M,M,M,M,M,M,M,M,M,M,M,M,M,89.53,KBVU 081615Z AUTO 10007KT 33/13 A2993 RMK AO2 TSNO,M
CXP,2022-09-08 16:15,-119.7326,39.1923,1431.00,73.40,41.00,31.05,0.00,0.00,0.00,30.19,M,9.00,M,CLR,M,M,M,M,M,M,M,M,M,M,M,M,M,M,73.40,KCXP 081615Z AUTO 00000KT 9SM CLR 23/05 A3019 RMK AO2,M
RTS,2022-09-08 16:15,-119.8764,39.6682,1539.00,73.40,41.00,31.05,0.00,0.00,0.00,30.20,M,10.00,M,CLR,M,M,M,M,M,M,M,M,M,M,M,M,M,M,73.40,KRTS 081615Z AUTO 00000KT 10SM CLR 23/05 A3020 RMK AO2,M
05U,2022-09-08 16:15,-116.0051,39.6042,1811.23,78.80,35.60,21.00,0.00,0.00,0.00,30.27,M,9.00,M,CLR,M,M,M,M,M,M,M,M,M,M,M,M,M,M,78.80,K05U 081615Z AUTO 00000KT 9SM CLR 26/02 A3027 RMK A01,M
MEV,2022-09-08 16:15,-119.7500,38.9963,1441.42,71.60,41.00,33.00,0.00,0.00,0.00,30.18,M,9.00,M,CLR,M,M,M,M,M,M,M,M,M,M,M,M,M,M,71.60,KMEV 081615Z AUTO 00000KT 9SM CLR 22/05 A3018 RMK AO2,M
CXP,2022-09-08 16:35,-119.7326,39.1923,1431.00,75.20,41.00,29.23,0.00,0.00,0.00,30.19,M,9.00,M,CLR,M,M,M,M,M,M,M,M,M,M,M,M,M,M,75.20,KCXP 081635Z AUTO 00000KT 9SM CLR 24/05 A3019 RMK AO2,M
BVU,2022-09-08 16:35,-114.8611,35.9475,671.00,93.20,57.20,29.99,110.00,7.00,0.00,29.93,M,M,M,M,M,M,M,M,M,M,M,M,M,M,M,M,M,M,91.91,KBVU 081635Z AUTO 11007KT 34/14 A2993 RMK AO2 TSNO,M
RTS,2022-09-08 16:35,-119.8764,39.6682,1539.00,77.00,42.80,29.51,0.00,0.00,0.00,30.20,M,10.00,M,CLR,M,M,M,M,M,M,M,M,M,M,M,M,M,M,77.00,KRTS 081635Z AUTO 00000KT 10SM CLR 25/06 A3020 RMK AO2,M
05U,2022-09-08 16:35,-116.0051,39.6042,1811.23,80.60,35.60,19.79,0.00,0.00,0.00,30.26,M,9.00,M,M,M,M,M,M,M,M,M,M,M,M,M,M,M,M,78.94,K05U 081635Z AUTO 00000KT 9SM 27/02 A3026 RMK A01,M
MEV,2022-09-08 16:35,-119.7500,38.9963,1441.42,73.40,41.00,31.05,0.00,0.00,0.00,30.18,M,8.00,M,CLR,M,M,M,M,M,M,M,M,M,M,M,M,M,M,73.40,KMEV 081635Z AUTO 00000KT 8SM CLR 23/05 A3018 RMK AO2,M
BAM,2022-09-08 16:35,-116.8743,40.5990,1382.36,82.40,42.80,24.72,10.00,3.00,0.00,30.13,M,10.00,M,CLR,M,M,M,M,M,M,M,M,M,M,M,M,M,M,80.39,KBAM 081635Z AUTO 01003KT 10SM CLR 28/06 A3013 RMK AO1,M
HTH,2022-09-08 16:35,-118.6315,38.5448,1282.89,77.00,37.40,23.93,330.00,4.00,0.00,30.14,M,10.00,M,CLR,M,M,M,M,M,M,M,M,M,M,M,M,M,M,77.00,KHTH 081635Z AUTO 33004KT 10SM CLR 25/03 A3014 RMK A01,M
TMT,2022-09-08 16:35,-117.1971,39.4643,1749.34,M,M,M,230.00,4.00,0.00,30.25,M,10.00,M,CLR,M,M,M,M,M,M,M,M,M,M,M,M,M,M,M,KTMT 081635Z AUTO 23004KT 10SM CLR A3025 RMK AO2,M
ELY,2022-09-08 16:53,-114.8453,39.2950,1909.00,81.00,36.00,19.85,0.00,0.00,0.00,30.25,1012.80,10.00,M,CLR,M,M,M,M,M,M,M,M,M,M,M,M,M,M,79.20,KELY 081653Z AUTO 00000KT 10SM CLR 27/02 A3025 RMK AO2 SLP128 T02720022,M
LOL,2022-09-08 16:53,-118.5701,40.0684,1192.43,86.00,41.00,20.54,40.00,6.00,0.00,30.09,1013.40,10.00,M,CLR,M,M,M,M,M,M,M,M,M,M,M,M,M,M,82.86,KLOL 081653Z AUTO 04006KT 10SM CLR 30/05 A3009 RMK AO2 SLP134 T03000050,M
DRA,2022-09-08 16:53,-116.0278,36.6206,1009.00,93.00,49.00,22.25,M,5.00,0.00,30.01,1010.00,10.00,M,CLR,M,M,M,M,M,M,M,M,M,M,M,M,M,M,89.72,KDRA 081653Z AUTO VRB05KT 10SM CLR 34/09 A3001 RMK AO2 SLP100 T03390094,M
P68,2022-09-08 16:53,-116.0056,39.6014,1993.00,80.00,37.00,21.27,150.00,4.00,0.00,30.23,1014.00,M,M,M,M,M,M,M,M,M,M,M,M,M,M,M,M,M,78.81,KP68 081653Z AUTO 15004KT 27/03 A3023 RMK AO1 SLP140 T02670028 $,M
VGT,2022-09-08 16:53,-115.1933,36.2111,667.00,95.00,54.00,25.26,80.00,6.00,0.00,29.91,1010.90,10.00,M,CLR,M,M,M,M,M,M,M,M,M,M,M,M,M,M,92.82,KVGT 081653Z 08006KT 10SM CLR 35/12 A2991 RMK AO2 SLP109 T03500122,M
RTS,2022-09-08 16:55,-119.8764,39.6682,1539.00,78.80,41.00,25.95,0.00,0.00,0.00,30.20,M,10.00,M,CLR,M,M,M,M,M,M,M,M,M,M,M,M,M,M,78.80,KRTS 081655Z AUTO 00000KT 10SM CLR 26/05 A3020 RMK AO2,M
RNO,2022-09-08 16:55,-119.7711,39.4839,1341.00,78.00,46.00,32.15,0.00,0.00,0.00,30.14,1014.30,10.00,M,CLR,M,M,M,M,M,M,M,M,M,M,M,M,M,M,78.10,KRNO 081655Z 00000KT 10SM CLR 26/08 A3014 RMK AO2 SLP143 FU ALF ALQDS T02560078,M
BVU,2022-09-08 16:55,-114.8611,35.9475,671.00,93.20,57.20,29.99,100.00,8.00,0.00,29.92,M,M,M,M,M,M,M,M,M,M,M,M,M,M,M,M,M,M,91.91,KBVU 081655Z AUTO 10008KT 34/14 A2992 RMK AO2 TSNO,M
CXP,2022-09-08 16:55,-119.7326,39.1923,1431.00,77.00,41.00,27.53,260.00,4.00,0.00,30.18,M,9.00,M,CLR,M,M,M,M,M,M,M,M,M,M,M,M,M,M,77.00,KCXP 081655Z AUTO 26004KT 9SM CLR 25/05 A3018 RMK AO2,M
TMT,2022-09-08 16:55,-117.1971,39.4643,1749.34,M,M,M,260.00,3.00,0.00,30.24,M,10.00,M,CLR,M,M,M,M,M,M,M,M,M,M,M,M,M,M,M,KTMT 081655Z AUTO 26003KT 10SM CLR A3024 RMK AO2,M
HTH,2022-09-08 16:55,-118.6315,38.5448,1282.89,80.60,37.40,21.25,M,4.00,0.00,30.13,M,10.00,M,CLR,M,M,M,M,M,M,M,M,M,M,M,M,M,M,79.02,KHTH 081655Z AUTO VRB04KT 10SM CLR 27/03 A3013 RMK A01,M
BAM,2022-09-08 16:55,-116.8743,40.5990,1382.36,84.20,41.00,21.76,0.00,0.00,0.00,30.13,M,10.00,M,CLR,M,M,M,M,M,M,M,M,M,M,M,M,M,M,81.52,KBAM 081655Z AUTO 00000KT 10SM CLR 29/05 A3013 RMK AO1,M
MEV,2022-09-08 16:55,-119.7500,38.9963,1441.42,77.00,41.00,27.53,0.00,0.00,0.00,30.17,M,7.00,M,CLR,M,M,M,M,M,M,M,M,M,M,M,M,M,M,77.00,KMEV 081655Z AUTO 00000KT 7SM CLR 25/05 A3017 RMK AO2,M
05U,2022-09-08 16:55,-116.0051,39.6042,1811.23,82.40,35.60,18.67,M,4.00,0.00,30.26,M,9.00,M,M,M,M,M,M,M,M,M,M,M,M,M,M,M,M,80.08,K05U 081655Z AUTO VRB04KT 9SM 28/02 A3026 RMK A01,M
EKO,2022-09-08 16:56,-115.7860,40.8242,1367.00,84.00,40.00,20.99,220.00,7.00,0.00,30.15,1013.70,10.00,M,CLR,M,M,M,M,M,M,M,M,M,M,M,M,M,M,81.33,KEKO 081656Z AUTO 22007KT 10SM CLR 29/04 A3015 RMK AO2 SLP137 T02890044,M
NFL,2022-09-08 16:56,-118.7010,39.4166,1199.00,85.00,40.00,20.39,0.00,0.00,0.00,30.09,1015.60,9.00,M,SCT,SCT,M,M,1500.00,20000.00,M,M,M,M,M,M,M,M,M,81.98,KNFL 081656Z 00000KT 9SM SCT015 SCT200 29/04 A3009 RMK AO2 SLP156 FU SCT015 T02940044,M
WMC,2022-09-08 16:56,-117.8072,40.9019,1315.00,85.00,41.00,21.28,310.00,4.00,0.00,30.12,1014.00,10.00,M,CLR,M,M,M,M,M,M,M,M,M,M,M,M,M,M,82.03,KWMC 081656Z AUTO 31004KT 10SM CLR 29/05 A3012 RMK AO2 SLP140 T02940050,M
TPH,2022-09-08 16:56,-117.0904,38.0505,1654.00,84.00,39.00,20.27,0.00,0.00,0.00,30.20,1013.00,10.00,M,CLR,M,M,M,M,M,M,M,M,M,M,M,M,M,M,81.29,KTPH 081656Z AUTO 00000KT 10SM CLR 29/04 A3020 RMK AO2 SLP130 T02890039,M
LAS,2022-09-08 16:56,-115.1634,36.0719,663.00,94.00,57.00,29.14,M,3.00,0.00,29.92,1009.80,10.00,M,FEW,FEW,M,M,13000.00,16000.00,M,M,M,M,M,M,M,M,M,92.58,KLAS 081656Z VRB03KT 10SM FEW130 FEW160 34/14 A2992 RMK AO2 SLP098 T03440139,M
LSV,2022-09-08 16:56,-115.0343,36.2362,570.00,97.50,54.50,23.82,70.00,5.00,0.00,29.88,1008.70,10.00,M,FEW,FEW,M,M,18000.00,21000.00,M,M,M,M,M,M,M,M,M,95.61,KLSV 081656Z AUTO 07005KT 10SM FEW180 FEW210 36/13 A2988 RMK AO2 SLP087 T03640125 $,M
INS,2022-09-08 16:56,-115.6733,36.5872,955.00,92.80,48.40,21.98,320.00,3.00,0.00,29.99,1009.80,10.00,M,CLR,M,M,M,M,M,M,M,M,M,M,M,M,M,M,89.45,KINS 081656Z AUTO 32003KT 10SM CLR 34/09 A2999 RMK AO2 SLP098 T03380091 $,M
BAM,2022-09-08 17:15,-116.8743,40.5990,1382.36,87.80,41.00,19.40,280.00,4.00,0.00,30.13,M,10.00,M,CLR,M,M,M,M,M,M,M,M,M,M,M,M,M,M,84.30,KBAM 081715Z AUTO 28004KT 10SM CLR 31/05 A3013 RMK AO1,M
BVU,2022-09-08 17:15,-114.8611,35.9475,671.00,93.20,59.00,31.99,90.00,10.00,0.00,29.91,M,M,M,M,M,M,M,M,M,M,M,M,M,M,M,M,M,M,92.57,KBVU 081715Z AUTO 09010KT 34/15 A2991 RMK AO2 TSNO,M
TMT,2022-09-08 17:15,-117.1971,39.4643,1749.34,M,M,M,0.00,0.00,0.00,30.24,M,10.00,M,CLR,M,M,M,M,M,M,M,M,M,M,M,M,M,M,M,KTMT 081715Z AUTO 00000KT 10SM CLR A3024 RMK AO2,M
HTH,2022-09-08 17:15,-118.6315,38.5448,1282.89,82.40,41.00,23.07,0.00,0.00,0.00,30.13,M,10.00,M,CLR,M,M,M,M,M,M,M,M,M,M,M,M,M,M,80.29,KHTH 081715Z AUTO 00000KT 10SM CLR 28/05 A3013 RMK A01,M
CXP,2022-09-08 17:15,-119.7326,39.1923,1431.00,78.80,41.00,25.95,0.00,0.00,0.00,30.18,M,8.00,M,CLR,M,M,M,M,M,M,M,M,M,M,M,M,M,M,78.80,KCXP 081715Z AUTO 00000KT 8SM CLR 26/05 A3018 RMK AO2,M
RTS,2022-09-08 17:15,-119.8764,39.6682,1539.00,82.40,41.00,23.07,0.00,0.00,0.00,30.19,M,10.00,M,CLR,M,M,M,M,M,M,M,M,M,M,M,M,M,M,80.29,KRTS 081715Z AUTO 00000KT 10SM CLR 28/05 A3019 RMK AO2,M
05U,2022-09-08 17:15,-116.0051,39.6042,1811.23,84.20,37.40,18.91,0.00,0.00,0.00,30.25,M,9.00,M,M,M,M,M,M,M,M,M,M,M,M,M,M,M,M,81.38,K05U 081715Z AUTO 00000KT 9SM 29/03 A3025 RMK A01,M
MEV,2022-09-08 17:15,-119.7500,38.9963,1441.42,78.80,42.80,27.81,0.00,0.00,0.00,30.17,M,8.00,M,CLR,M,M,M,M,M,M,M,M,M,M,M,M,M,M,78.80,KMEV 081715Z AUTO 00000KT 8SM CLR 26/06 A3017 RMK AO2,M
05U,2022-09-08 17:35,-116.0051,39.6042,1811.23,86.00,37.40,17.85,150.00,5.00,0.00,30.24,M,10.00,M,M,M,M,M,M,M,M,M,M,M,M,M,M,M,M,82.73,K05U 081735Z AUTO 15005KT 10SM 30/03 A3024 RMK A01,M
BVU,2022-09-08 17:35,-114.8611,35.9475,671.00,95.00,59.00,30.26,90.00,10.00,0.00,29.91,M,M,M,M,M,M,M,M,M,M,M,M,M,M,M,M,M,M,94.51,KBVU 081735Z AUTO 09010KT 35/15 A2991 RMK AO2 TSNO,M
CXP,2022-09-08 17:35,-119.7326,39.1923,1431.00,80.60,39.20,22.81,0.00,0.00,0.00,30.17,M,8.00,M,CLR,M,M,M,M,M,M,M,M,M,M,M,M,M,M,79.10,KCXP 081735Z AUTO 00000KT 8SM CLR 27/04 A3017 RMK AO2,M
RTS,2022-09-08 17:35,-119.8764,39.6682,1539.00,84.20,41.00,21.76,0.00,0.00,0.00,30.19,M,10.00,M,CLR,M,M,M,M,M,M,M,M,M,M,M,M,M,M,81.52,KRTS 081735Z AUTO 00000KT 10SM CLR 29/05 A3019 RMK AO2,M
MEV,2022-09-08 17:35,-119.7500,38.9963,1441.42,80.60,41.00,24.46,M,4.00,0.00,30.16,M,8.00,M,CLR,M,M,M,M,M,M,M,M,M,M,M,M,M,M,79.20,KMEV 081735Z AUTO VRB04KT 8SM CLR 27/05 A3016 RMK AO2,M
BAM,2022-09-08 17:35,-116.8743,40.5990,1382.36,87.80,41.00,19.40,330.00,5.00,0.00,30.12,M,10.00,M,CLR,M,M,M,M,M,M,M,M,M,M,M,M,M,M,84.30,KBAM 081735Z AUTO 33005KT 10SM CLR 31/05 A3012 RMK AO1,M
HTH,2022-09-08 17:35,-118.6315,38.5448,1282.89,82.40,42.80,24.72,20.00,4.00,0.00,30.12,M,10.00,M,CLR,M,M,M,M,M,M,M,M,M,M,M,M,M,M,80.39,KHTH 081735Z AUTO 02004KT 10SM CLR 28/06 A3012 RMK A01,M
TMT,2022-09-08 17:35,-117.1971,39.4643,1749.34,M,M,M,0.00,0.00,0.00,30.23,M,10.00,M,CLR,M,M,M,M,M,M,M,M,M,M,M,M,M,M,M,KTMT 081735Z AUTO 00000KT 10SM CLR A3023 RMK AO2,M
ELY,2022-09-08 17:53,-114.8453,39.2950,1909.00,86.00,35.00,16.30,60.00,5.00,0.00,30.23,1012.00,10.00,M,CLR,M,M,M,M,M,M,M,M,M,M,M,M,M,M,82.68,KELY 081753Z AUTO 06005KT 10SM CLR 30/02 A3023 RMK AO2 SLP120 T03000017 10300 20111 58015,M
P68,2022-09-08 17:53,-116.0056,39.6014,1993.00,84.00,36.00,18.01,120.00,6.00,0.00,30.21,1012.50,M,M,M,M,M,M,M,M,M,M,M,M,M,M,M,M,M,81.20,KP68 081753Z AUTO 12006KT 29/02 A3021 RMK AO1 SLP125 T02890022 10289 20144 $,M
DRA,2022-09-08 17:53,-116.0278,36.6206,1009.00,97.00,45.00,16.98,310.00,12.00,0.00,29.99,1009.20,10.00,16.00,CLR,M,M,M,M,M,M,M,M,M,M,M,M,M,M,93.04,KDRA 081753Z AUTO 31012G16KT 10SM CLR 36/07 A2999 RMK AO2 SLP092 T03610072 10361 20256 58013,M
VGT,2022-09-08 17:53,-115.1933,36.2111,667.00,97.00,54.00,23.75,M,5.00,0.00,29.89,1010.50,10.00,M,CLR,M,M,M,M,M,M,M,M,M,M,M,M,M,M,94.92,KVGT 081753Z VRB05KT 10SM CLR 36/12 A2989 RMK AO2 SLP105 T03610122 10367 20300 58010,M
LOL,2022-09-08 17:53,-118.5701,40.0684,1192.43,89.00,42.00,19.42,30.00,3.00,0.00,30.07,1012.90,10.00,M,CLR,M,M,M,M,M,M,M,M,M,M,M,M,M,M,85.45,KLOL 081753Z AUTO 03003KT 10SM CLR 32/06 A3007 RMK AO2 SLP129 T03170056 10317 20150 58013,M
CXP,2022-09-08 17:55,-119.7326,39.1923,1431.00,84.20,41.00,21.76,0.00,0.00,0.00,30.16,M,8.00,M,CLR,M,M,M,M,M,M,M,M,M,M,M,M,M,M,81.52,KCXP 081755Z AUTO 00000KT 8SM CLR 29/05 A3016 RMK AO2,M
HTH,2022-09-08 17:55,-118.6315,38.5448,1282.89,86.00,41.00,20.54,300.00,5.00,0.00,30.12,M,10.00,M,CLR,M,M,M,M,M,M,M,M,M,M,M,M,M,M,82.86,KHTH 081755Z AUTO 30005KT 10SM CLR 30/05 A3012 RMK A01,M
BAM,2022-09-08 17:55,-116.8743,40.5990,1382.36,87.80,41.00,19.40,10.00,3.00,0.00,30.11,M,10.00,M,CLR,M,M,M,M,M,M,M,M,M,M,M,M,M,M,84.30,KBAM 081755Z AUTO 01003KT 10SM CLR 31/05 A3011 RMK AO1,M
TMT,2022-09-08 17:55,-117.1971,39.4643,1749.34,M,M,M,190.00,5.00,0.00,30.22,M,10.00,M,CLR,M,M,M,M,M,M,M,M,M,M,M,M,M,M,M,KTMT 081755Z AUTO 19005KT 10SM CLR A3022 RMK AO2,M
05U,2022-09-08 17:55,-116.0051,39.6042,1811.23,87.80,35.60,15.70,120.00,6.00,0.00,30.24,M,10.00,M,M,M,M,M,M,M,M,M,M,M,M,M,M,M,M,84.12,K05U 081755Z AUTO 12006KT 10SM 31/02 A3024 RMK A01,M
RNO,2022-09-08 17:55,-119.7711,39.4839,1341.00,84.00,46.00,26.52,M,3.00,0.00,30.13,1013.50,10.00,M,CLR,M,M,M,M,M,M,M,M,M,M,M,M,M,M,81.69,KRNO 081755Z VRB03KT 10SM CLR 29/08 A3013 RMK AO2 SLP135 FU ALF ALQDS T02890078 10294 20189 58014,M
RTS,2022-09-08 17:55,-119.8764,39.6682,1539.00,84.20,35.60,17.61,0.00,0.00,0.00,30.18,M,10.00,M,CLR,M,M,M,M,M,M,M,M,M,M,M,M,M,M,81.34,KRTS 081755Z AUTO 00000KT 10SM CLR 29/02 A3018 RMK AO2,M
MEV,2022-09-08 17:55,-119.7500,38.9963,1441.42,84.20,41.00,21.76,290.00,3.00,0.00,30.15,M,6.00,M,CLR,M,M,M,M,M,M,M,HZ,M,M,M,M,M,M,81.52,KMEV 081755Z AUTO 29003KT 6SM HZ CLR 29/05 A3015 RMK AO2,M
BVU,2022-09-08 17:55,-114.8611,35.9475,671.00,95.00,57.20,28.37,100.00,7.00,0.00,29.90,M,M,13.00,M,M,M,M,M,M,M,M,M,M,M,M,M,M,M,93.82,KBVU 081755Z AUTO 10007G13KT 35/14 A2990 RMK AO2 TSNO,M
INS,2022-09-08 17:56,-115.6733,36.5872,955.00,96.80,47.70,18.92,330.00,6.00,0.00,29.96,1008.80,10.00,M,CLR,M,M,M,M,M,M,M,M,M,M,M,M,M,M,93.27,KINS 081756Z AUTO 33006KT 10SM CLR 36/09 A2996 RMK AO2 SLP088 T03600087 10360 20255 57016 $,M
EKO,2022-09-08 17:56,-115.7860,40.8242,1367.00,89.00,39.00,17.22,240.00,15.00,0.00,30.12,1012.40,10.00,19.00,CLR,M,M,M,M,M,M,M,M,M,M,M,27.00,220.00,2022-09-08 17:34,85.30,KEKO 081756Z AUTO 24015G19KT 10SM CLR 32/04 A3012 RMK AO2 PK WND 22027/1734 SLP124 T03170039 10317 20161 58018,M
WMC,2022-09-08 17:56,-117.8072,40.9019,1315.00,90.00,41.00,18.10,M,6.00,0.00,30.10,1013.40,10.00,M,CLR,M,M,M,M,M,M,M,M,M,M,M,M,M,M,86.16,KWMC 081756Z AUTO VRB06KT 10SM CLR 32/05 A3010 RMK AO2 SLP134 T03220050 10322 20133 56014,M
TPH,2022-09-08 17:56,-117.0904,38.0505,1654.00,88.00,37.00,16.49,160.00,5.00,0.00,30.19,1012.10,10.00,M,CLR,M,M,M,M,M,M,M,M,M,M,M,M,M,M,84.32,KTPH 081756Z AUTO 16005KT 10SM CLR 31/03 A3019 RMK AO2 SLP121 T03110028 10311 20183 56010,M
LSV,2022-09-08 17:56,-115.0343,36.2362,570.00,103.80,54.70,19.85,50.00,3.00,0.00,29.87,1008.20,10.00,M,CLR,M,M,M,M,M,M,M,M,M,M,M,M,M,M,102.51,KLSV 081756Z AUTO 05003KT 10SM CLR 40/13 A2987 RMK AO2 SLP082 T03990126 10399 20287 57012 $,M
NFL,2022-09-08 17:56,-118.7010,39.4166,1199.00,89.00,40.00,17.84,0.00,0.00,0.00,30.08,1015.20,9.00,M,CLR,M,M,M,M,M,M,M,M,M,M,M,M,M,M,85.34,KNFL 081756Z 00000KT 9SM CLR 32/04 A3008 RMK AO2 SLP152 FU ALOFT ALQDS T03170044 10317 20189 57010,M
LAS,2022-09-08 17:56,-115.1634,36.0719,663.00,96.00,56.00,26.16,0.00,0.00,0.00,29.90,1009.30,10.00,M,FEW,FEW,M,M,13000.00,16000.00,M,M,M,M,M,M,M,M,M,94.55,KLAS 081756Z 00000KT 10SM FEW130 FEW160 36/13 A2990 RMK AO2 SLP093 60007 T03560133 10356 20283 58007,M
05U,2022-09-08 18:15,-116.0051,39.6042,1811.23,87.80,35.60,15.70,M,4.00,0.00,30.23,M,10.00,M,M,M,M,M,M,M,M,M,M,M,M,M,M,M,M,84.12,K05U 081815Z AUTO VRB04KT 10SM 31/02 A3023 RMK A01,M
MEV,2022-09-08 18:15,-119.7500,38.9963,1441.42,84.20,39.20,20.29,0.00,0.00,0.00,30.14,M,5.00,M,CLR,M,M,M,M,M,M,M,HZ,M,M,M,M,M,M,81.44,KMEV 081815Z AUTO 00000KT 5SM HZ CLR 29/04 A3014 RMK AO2,M
BAM,2022-09-08 18:15,-116.8743,40.5990,1382.36,89.60,41.00,18.33,10.00,3.00,0.00,30.10,M,10.00,M,CLR,M,M,M,M,M,M,M,M,M,M,M,M,M,M,85.82,KBAM 081815Z AUTO 01003KT 10SM CLR 32/05 A3010 RMK AO1,M
HTH,2022-09-08 18:15,-118.6315,38.5448,1282.89,86.00,39.20,19.15,350.00,3.00,0.00,30.11,M,10.00,M,CLR,M,M,M,M,M,M,M,M,M,M,M,M,M,M,82.79,KHTH 081815Z AUTO 35003KT 10SM CLR 30/04 A3011 RMK A01,M
BVU,2022-09-08 18:15,-114.8611,35.9475,671.00,96.80,57.20,26.84,100.00,10.00,0.00,29.89,M,M,M,M,M,M,M,M,M,M,M,M,M,M,M,M,M,M,95.77,KBVU 081815Z AUTO 10010KT 36/14 A2989 RMK AO2 TSNO,M
TMT,2022-09-08 18:15,-117.1971,39.4643,1749.34,M,M,M,140.00,6.00,0.00,30.22,M,10.00,M,CLR,M,M,M,M,M,M,M,M,M,M,M,M,M,M,M,KTMT 081815Z AUTO 14006KT 10SM CLR A3022 RMK AO2,M
CXP,2022-09-08 18:15,-119.7326,39.1923,1431.00,86.00,41.00,20.54,0.00,0.00,0.00,30.15,M,8.00,M,CLR,M,M,M,M,M,M,M,M,M,M,M,M,M,M,82.86,KCXP 081815Z AUTO 00000KT 8SM CLR 30/05 A3015 RMK AO2,M
RTS,2022-09-08 18:15,-119.8764,39.6682,1539.00,87.80,32.00,13.59,360.00,7.00,0.00,30.17,M,10.00,M,CLR,M,M,M,M,M,M,M,M,M,M,M,M,M,M,84.08,KRTS 081815Z AUTO 36007KT 10SM CLR 31/00 A3017 RMK AO2,M
TMT,2022-09-08 18:35,-117.1971,39.4643,1749.34,M,M,M,0.00,0.00,0.00,30.21,M,10.00,M,CLR,M,M,M,M,M,M,M,M,M,M,M,M,M,M,M,KTMT 081835Z AUTO 00000KT 10SM CLR A3021 RMK AO2,M
BVU,2022-09-08 18:35,-114.8611,35.9475,671.00,96.80,57.20,26.84,100.00,11.00,0.00,29.88,M,M,M,M,M,M,M,M,M,M,M,M,M,M,M,M,M,M,95.77,KBVU 081835Z AUTO 10011KT 36/14 A2988 RMK AO2 TSNO,M
CXP,2022-09-08 18:35,-119.7326,39.1923,1431.00,87.80,39.20,18.09,0.00,0.00,0.00,30.14,M,9.00,M,CLR,M,M,M,M,M,M,M,M,M,M,M,M,M,M,84.22,KCXP 081835Z AUTO 00000KT 9SM CLR 31/04 A3014 RMK AO2,M
RTS,2022-09-08 18:35,-119.8764,39.6682,1539.00,87.80,33.80,14.61,310.00,5.00,0.00,30.16,M,10.00,12.00,CLR,M,M,M,M,M,M,M,M,M,M,M,M,M,M,84.10,KRTS 081835Z AUTO 31005G12KT 10SM CLR 31/01 A3016 RMK AO2,M
05U,2022-09-08 18:35,-116.0051,39.6042,1811.23,87.80,35.60,15.70,110.00,6.00,0.00,30.22,M,10.00,M,M,M,M,M,M,M,M,M,M,M,M,M,M,M,M,84.12,K05U 081835Z AUTO 11006KT 10SM 31/02 A3022 RMK A01,M
MEV,2022-09-08 18:35,-119.7500,38.9963,1441.42,86.00,41.00,20.54,0.00,0.00,0.00,30.13,M,7.00,M,CLR,M,M,M,M,M,M,M,M,M,M,M,M,M,M,82.86,KMEV 081835Z AUTO 00000KT 7SM CLR 30/05 A3013 RMK AO2,M
HTH,2022-09-08 18:35,-118.6315,38.5448,1282.89,87.80,37.40,16.86,M,3.00,0.00,30.10,M,10.00,M,CLR,M,M,M,M,M,M,M,M,M,M,M,M,M,M,84.16,KHTH 081835Z AUTO VRB03KT 10SM CLR 31/03 A3010 RMK A01,M
BAM,2022-09-08 18:35,-116.8743,40.5990,1382.36,89.60,41.00,18.33,340.00,3.00,0.00,30.09,M,10.00,M,CLR,M,M,M,M,M,M,M,M,M,M,M,M,M,M,85.82,KBAM 081835Z AUTO 34003KT 10SM CLR 32/05 A3009 RMK AO1,M
INS,2022-09-08 18:48,-115.6733,36.5872,955.00,98.60,42.80,14.87,10.00,7.00,0.00,29.92,1007.20,10.00,M,CLR,M,M,M,M,M,M,M,M,M,M,M,M,M,M,94.30,KINS 081848Z AUTO 01007KT 10SM CLR 37/06 A2992 RMK AO2 SLP072 $,M
LOL,2022-09-08 18:53,-118.5701,40.0684,1192.43,93.00,41.00,16.48,170.00,6.00,0.00,30.04,1012.00,10.00,M,CLR,M,M,M,M,M,M,M,M,M,M,M,M,M,M,88.85,KLOL 081853Z AUTO 17006KT 10SM CLR 34/05 A3004 RMK AO2 SLP120 T03390050,M
DRA,2022-09-08 18:53,-116.0278,36.6206,1009.00,100.00,40.00,12.74,330.00,6.00,0.00,29.95,1007.80,10.00,M,CLR,M,M,M,M,M,M,M,M,M,M,M,M,M,M,95.23,KDRA 081853Z AUTO 33006KT 10SM CLR 38/04 A2995 RMK AO2 SLP078 T03780044,M
VGT,2022-09-08 18:53,-115.1933,36.2111,667.00,99.00,54.00,22.35,0.00,0.00,0.00,29.86,1009.20,10.00,M,CLR,M,M,M,M,M,M,M,M,M,M,M,M,M,M,97.06,KVGT 081853Z 00000KT 10SM CLR 37/12 A2986 RMK AO2 SLP092 T03720122,M
ELY,2022-09-08 18:53,-114.8453,39.2950,1909.00,88.00,35.00,15.29,M,M,0.00,30.19,1010.90,10.00,M,CLR,M,M,M,M,M,M,M,M,M,M,M,M,M,M,84.28,KELY 081853Z AUTO 10SM CLR 31/02 A3019 RMK AO2 SLP109 T03110017,M
P68,2022-09-08 18:53,-116.0056,39.6014,1993.00,86.00,35.00,16.30,100.00,7.00,0.00,30.17,1011.40,M,M,M,M,M,M,M,M,M,M,M,M,M,M,M,M,M,82.68,KP68 081853Z AUTO 10007KT 30/02 A3017 RMK AO1 SLP114 T03000017 $,M
MEV,2022-09-08 18:55,-119.7500,38.9963,1441.42,87.80,41.00,19.40,M,4.00,0.00,30.12,M,8.00,M,CLR,M,M,M,M,M,M,M,M,M,M,M,M,M,M,84.30,KMEV 081855Z AUTO VRB04KT 8SM CLR 31/05 A3012 RMK AO2,M
TMT,2022-09-08 18:55,-117.1971,39.4643,1749.34,M,M,M,320.00,6.00,0.00,30.19,M,10.00,M,CLR,M,M,M,M,M,M,M,M,M,M,M,M,M,M,M,KTMT 081855Z AUTO 32006KT 10SM CLR A3019 RMK AO2,M
HTH,2022-09-08 18:55,-118.6315,38.5448,1282.89,89.60,37.40,15.92,350.00,7.00,0.00,30.08,M,10.00,M,CLR,M,M,M,M,M,M,M,M,M,M,M,M,M,M,85.67,KHTH 081855Z AUTO 35007KT 10SM CLR 32/03 A3008 RMK A01,M
BVU,2022-09-08 18:55,-114.8611,35.9475,671.00,98.60,57.20,25.41,M,5.00,0.00,29.87,M,M,14.00,M,M,M,M,M,M,M,M,M,M,M,M,M,M,M,97.76,KBVU 081855Z AUTO VRB05G14KT 37/14 A2987 RMK AO2 TSNO,M
CXP,2022-09-08 18:55,-119.7326,39.1923,1431.00,89.60,37.40,15.92,0.00,0.00,0.00,30.13,M,10.00,M,CLR,M,M,M,M,M,M,M,M,M,M,M,M,M,M,85.67,KCXP 081855Z AUTO 00000KT 10SM CLR 32/03 A3013 RMK AO2,M
RNO,2022-09-08 18:55,-119.7711,39.4839,1341.00,89.00,45.00,21.70,M,3.00,0.00,30.09,1012.10,10.00,M,FEW,M,M,M,9000.00,M,M,M,M,M,M,M,M,M,M,85.66,KRNO 081855Z VRB03KT 10SM FEW090 32/07 A3009 RMK AO2 SLP121 FU ALF ALQDS T03170072,M
RTS,2022-09-08 18:55,-119.8764,39.6682,1539.00,89.60,33.80,13.80,300.00,11.00,0.00,30.15,M,10.00,M,CLR,M,M,M,M,M,M,M,M,M,M,M,M,M,M,85.59,KRTS 081855Z AUTO 30011KT 260V320 10SM CLR 32/01 A3015 RMK AO2,M
05U,2022-09-08 18:55,-116.0051,39.6042,1811.23,87.80,35.60,15.70,M,6.00,0.00,30.20,M,10.00,M,M,M,M,M,M,M,M,M,M,M,M,M,M,M,M,84.12,K05U 081855Z AUTO VRB06KT 10SM 31/02 A3020 RMK A01,M
BAM,2022-09-08 18:55,-116.8743,40.5990,1382.36,91.40,41.00,17.32,0.00,0.00,0.00,30.08,M,10.00,M,CLR,M,M,M,M,M,M,M,M,M,M,M,M,M,M,87.40,KBAM 081855Z AUTO 00000KT 10SM CLR 33/05 A3008 RMK AO1,M
TPH,2022-09-08 18:56,-117.0904,38.0505,1654.00,90.00,36.00,14.88,M,4.00,0.00,30.15,1011.00,10.00,M,CLR,M,M,M,M,M,M,M,M,M,M,M,M,M,M,85.97,KTPH 081856Z AUTO VRB04KT 10SM CLR 32/02 A3015 RMK AO2 SLP110 T03220022,M
NFL,2022-09-08 18:56,-118.7010,39.4166,1199.00,93.00,39.00,15.24,300.00,4.00,0.00,30.05,1014.40,9.00,M,CLR,M,M,M,M,M,M,M,M,M,M,M,M,M,M,88.73,KNFL 081856Z 30004KT 9SM CLR 34/04 A3005 RMK AO2 SLP144 FU DSNT ALQDS T03390039,M
INS,2022-09-08 18:56,-115.6733,36.5872,955.00,99.30,41.70,13.95,330.00,7.00,0.00,29.92,1007.20,10.00,M,CLR,M,M,M,M,M,M,M,M,M,M,M,M,M,M,94.84,KINS 081856Z AUTO 33007KT 10SM CLR 37/05 A2992 RMK AO2 SLP072 T03740054 $,M
LSV,2022-09-08 18:56,-115.0343,36.2362,570.00,105.30,54.50,18.85,190.00,5.00,0.00,29.83,1006.90,10.00,M,FEW,M,M,M,18000.00,M,M,M,M,M,M,M,M,M,M,104.06,KLSV 081856Z AUTO 19005KT 10SM FEW180 41/13 A2983 RMK AO2 SLP069 T04070125 $,M
EKO,2022-09-08 18:56,-115.7860,40.8242,1367.00,91.00,38.00,15.54,260.00,13.00,0.00,30.09,1011.40,10.00,22.00,CLR,M,M,M,M,M,M,M,M,M,M,M,M,M,M,86.90,KEKO 081856Z AUTO 26013G22KT 10SM CLR 33/03 A3009 RMK AO2 SLP114 T03280033,M
WMC,2022-09-08 18:56,-117.8072,40.9019,1315.00,91.00,42.00,18.30,340.00,10.00,0.00,30.08,1012.60,10.00,17.00,CLR,M,M,M,M,M,M,M,M,M,M,M,M,M,M,87.11,KWMC 081856Z AUTO 34010G17KT 10SM CLR 33/06 A3008 RMK AO2 SLP126 T03280056,M
LAS,2022-09-08 18:56,-115.1634,36.0719,663.00,98.00,56.00,24.61,0.00,0.00,0.00,29.87,1008.20,10.00,M,FEW,SCT,M,M,13000.00,16000.00,M,M,M,M,M,M,M,M,M,96.72,KLAS 081856Z 00000KT 10SM FEW130 SCT160 37/13 A2987 RMK AO2 SLP082 T03670133,M
RTS,2022-09-08 19:15,-119.8764,39.6682,1539.00,89.60,33.80,13.80,0.00,0.00,0.00,30.14,M,10.00,11.00,CLR,M,M,M,M,M,M,M,M,M,M,M,M,M,M,85.59,KRTS 081915Z AUTO 00000G11KT 10SM CLR 32/01 A3014 RMK AO2,M
HTH,2022-09-08 19:15,-118.6315,38.5448,1282.89,91.40,37.40,15.05,320.00,8.00,0.00,30.07,M,9.00,M,CLR,M,M,M,M,M,M,M,M,M,M,M,M,M,M,87.23,KHTH 081915Z AUTO 32008KT 9SM CLR 33/03 A3007 RMK A01,M
MEV,2022-09-08 19:15,-119.7500,38.9963,1441.42,89.60,37.40,15.92,0.00,0.00,0.00,30.10,M,9.00,M,CLR,M,M,M,M,M,M,M,M,M,M,M,M,M,M,85.67,KMEV 081915Z AUTO 00000KT 9SM CLR 32/03 A3010 RMK AO2,M
05U,2022-09-08 19:15,-116.0051,39.6042,1811.23,87.80,35.60,15.70,M,5.00,0.00,30.19,M,10.00,M,M,M,M,M,M,M,M,M,M,M,M,M,M,M,M,84.12,K05U 081915Z AUTO VRB05KT 10SM 31/02 A3019 RMK A01,M
BVU,2022-09-08 19:15,-114.8611,35.9475,671.00,98.60,57.20,25.41,120.00,10.00,0.00,29.86,M,M,M,M,M,M,M,M,M,M,M,M,M,M,M,M,M,M,97.76,KBVU 081915Z AUTO 12010KT 080V140 37/14 A2986 RMK AO2 TSNO,M
CXP,2022-09-08 19:15,-119.7326,39.1923,1431.00,91.40,35.60,14.02,0.00,0.00,0.00,30.11,M,10.00,M,CLR,M,M,M,M,M,M,M,M,M,M,M,M,M,M,87.17,KCXP 081915Z AUTO 00000KT 10SM CLR 33/02 A3011 RMK AO2,M
TMT,2022-09-08 19:15,-117.1971,39.4643,1749.34,M,M,M,0.00,0.00,0.00,30.18,M,10.00,M,CLR,M,M,M,M,M,M,M,M,M,M,M,M,M,M,M,KTMT 081915Z AUTO 00000KT 10SM CLR A3018 RMK AO2,M
BAM,2022-09-08 19:15,-116.8743,40.5990,1382.36,91.40,41.00,17.32,310.00,5.00,0.00,30.07,M,10.00,M,CLR,M,M,M,M,M,M,M,M,M,M,M,M,M,M,87.40,KBAM 081915Z AUTO 31005KT 10SM CLR 33/05 A3007 RMK AO1,M
CXP,2022-09-08 19:30,-119.7326,39.1923,1431.00,91.40,37.40,15.05,M,4.00,0.00,30.10,M,10.00,M,CLR,M,M,M,M,M,M,M,M,M,M,M,M,M,M,87.23,KCXP 081930Z AUTO VRB04KT 10SM CLR 33/03 A3010 RMK AO2,M
MEV,2022-09-08 19:35,-119.7500,38.9963,1441.42,91.40,37.40,15.05,0.00,0.00,0.00,30.09,M,9.00,M,CLR,M,M,M,M,M,M,M,M,M,M,M,M,M,M,87.23,KMEV 081935Z AUTO 00000KT 9SM CLR 33/03 A3009 RMK AO2,M
BVU,2022-09-08 19:35,-114.8611,35.9475,671.00,98.60,57.20,25.41,130.00,10.00,0.00,29.85,M,M,M,M,M,M,M,M,M,M,M,M,M,M,M,M,M,M,97.76,KBVU 081935Z AUTO 13010KT 37/14 A2985 RMK AO2 TSNO,M
HTH,2022-09-08 19:35,-118.6315,38.5448,1282.89,93.20,35.60,13.25,340.00,7.00,0.00,30.05,M,10.00,M,CLR,M,M,M,M,M,M,M,M,M,M,M,M,M,M,88.76,KHTH 081935Z AUTO 34007KT 10SM CLR 34/02 A3005 RMK A01,M
TMT,2022-09-08 19:35,-117.1971,39.4643,1749.34,M,M,M,230.00,6.00,0.00,30.17,M,10.00,M,CLR,M,M,M,M,M,M,M,M,M,M,M,M,M,M,M,KTMT 081935Z AUTO 23006KT 10SM CLR A3017 RMK AO2,M
BAM,2022-09-08 19:35,-116.8743,40.5990,1382.36,93.20,41.00,16.37,340.00,3.00,0.00,30.05,M,10.00,M,CLR,M,M,M,M,M,M,M,M,M,M,M,M,M,M,89.03,KBAM 081935Z AUTO 34003KT 10SM CLR 34/05 A3005 RMK AO1,M
05U,2022-09-08 19:35,-116.0051,39.6042,1811.23,91.40,32.00,12.14,230.00,9.00,0.00,30.17,M,10.00,M,M,M,M,M,M,M,M,M,M,M,M,M,M,M,M,86.91,K05U 081935Z AUTO 23009KT 10SM 33/M00 A3017 RMK A01,M
RTS,2022-09-08 19:35,-119.8764,39.6682,1539.00,89.60,33.80,13.80,M,4.00,0.00,30.12,M,10.00,14.00,CLR,M,M,M,M,M,M,M,M,M,M,M,M,M,M,85.59,KRTS 081935Z AUTO VRB04G14KT 10SM CLR 32/01 A3012 RMK AO2,M
LOL,2022-09-08 19:53,-118.5701,40.0684,1192.43,96.00,39.00,13.85,170.00,7.00,0.00,30.00,1010.60,10.00,M,CLR,M,M,M,M,M,M,M,M,M,M,M,M,M,M,91.57,KLOL 081953Z AUTO 17007KT 120V210 10SM CLR 36/04 A3000 RMK AO2 SLP106 T03560039,M
ELY,2022-09-08 19:53,-114.8453,39.2950,1909.00,90.00,34.00,13.74,360.00,10.00,0.00,30.16,1009.70,10.00,17.00,CLR,M,M,M,M,M,M,M,M,M,M,M,M,M,M,85.93,KELY 081953Z AUTO 36010G17KT 10SM CLR 32/01 A3016 RMK AO2 SLP097 T03220011,M
VGT,2022-09-08 19:53,-115.1933,36.2111,667.00,101.00,53.00,20.42,130.00,6.00,0.00,29.82,1008.00,10.00,M,CLR,M,M,M,M,M,M,M,M,M,M,M,M,M,M,98.82,KVGT 081953Z 13006KT 10SM CLR 38/12 A2982 RMK AO2 SLP080 T03830117,M
P68,2022-09-08 19:53,-116.0056,39.6014,1993.00,91.00,32.00,12.29,310.00,10.00,0.00,30.14,1010.10,M,15.00,M,M,M,M,M,M,M,M,M,M,M,M,M,M,M,86.61,KP68 081953Z AUTO 31010G15KT 33/00 A3014 RMK AO1 SLP101 T03280000 $,M
DRA,2022-09-08 19:53,-116.0278,36.6206,1009.00,103.00,39.00,11.28,M,M,0.00,29.91,1006.40,10.00,M,CLR,M,M,M,M,M,M,M,M,M,M,M,M,M,M,97.55,KDRA 081953Z AUTO 10SM CLR 39/04 A2991 RMK AO2 SLP064 T03940039,M
05U,2022-09-08 19:55,-116.0051,39.6042,1811.23,91.40,30.20,11.28,290.00,10.00,0.00,30.17,M,10.00,16.00,M,M,M,M,M,M,M,M,M,M,M,M,M,M,M,86.71,K05U 081955Z AUTO 29010G16KT 10SM 33/M01 A3017 RMK A01,M
BVU,2022-09-08 19:55,-114.8611,35.9475,671.00,98.60,57.20,25.41,90.00,10.00,0.00,29.83,M,M,M,M,M,M,M,M,M,M,M,M,M,M,M,M,M,M,97.76,KBVU 081955Z AUTO 09010KT 37/14 A2983 RMK AO2 TSNO,M
CXP,2022-09-08 19:55,-119.7326,39.1923,1431.00,95.00,37.40,13.46,M,4.00,0.00,30.09,M,9.00,M,CLR,M,M,M,M,M,M,M,M,M,M,M,M,M,M,90.46,KCXP 081955Z AUTO VRB04KT 9SM CLR 35/03 A3009 RMK AO2,M
RNO,2022-09-08 19:55,-119.7711,39.4839,1341.00,95.00,43.00,16.73,M,3.00,0.00,30.05,1010.50,10.00,M,FEW,M,M,M,9000.00,M,M,M,M,M,M,M,M,M,M,90.88,KRNO 081955Z VRB03KT 10SM FEW090 35/06 A3005 RMK AO2 SLP105 FU ALF ALQDS T03500061,M
RTS,2022-09-08 19:55,-119.8764,39.6682,1539.00,89.60,33.80,13.80,170.00,7.00,0.00,30.11,M,10.00,M,CLR,M,M,M,M,M,M,M,M,M,M,M,M,M,M,85.59,KRTS 081955Z AUTO 17007KT 10SM CLR 32/01 A3011 RMK AO2,M
MEV,2022-09-08 19:55,-119.7500,38.9963,1441.42,91.40,37.40,15.05,0.00,0.00,0.00,30.07,M,10.00,M,CLR,M,M,M,M,M,M,M,M,M,M,M,M,M,M,87.23,KMEV 081955Z AUTO 00000KT 10SM CLR 33/03 A3007 RMK AO2,M
BAM,2022-09-08 19:55,-116.8743,40.5990,1382.36,95.00,41.00,15.49,350.00,11.00,0.00,30.05,M,10.00,15.00,CLR,M,M,M,M,M,M,M,M,M,M,M,M,M,M,90.70,KBAM 081955Z AUTO 35011G15KT 10SM CLR 35/05 A3005 RMK AO1,M
HTH,2022-09-08 19:55,-118.6315,38.5448,1282.89,93.20,35.60,13.25,320.00,11.00,0.00,30.04,M,10.00,M,CLR,M,M,M,M,M,M,M,M,M,M,M,M,M,M,88.76,KHTH 081955Z AUTO 32011KT 10SM CLR 34/02 A3004 RMK A01,M
TMT,2022-09-08 19:55,-117.1971,39.4643,1749.34,M,M,M,240.00,5.00,0.00,30.16,M,10.00,M,CLR,M,M,M,M,M,M,M,M,M,M,M,M,M,M,M,KTMT 081955Z AUTO 24005KT 10SM CLR A3016 RMK AO2,M
WMC,2022-09-08 19:56,-117.8072,40.9019,1315.00,92.00,40.00,16.34,M,6.00,0.00,30.05,1011.20,10.00,M,CLR,M,M,M,M,M,M,M,M,M,M,M,M,M,M,87.78,KWMC 081956Z AUTO VRB06KT 10SM CLR 33/04 A3005 RMK AO2 SLP112 T03330044,M
LAS,2022-09-08 19:56,-115.1634,36.0719,663.00,100.00,53.00,20.98,310.00,3.00,0.00,29.83,1006.80,10.00,M,FEW,SCT,M,M,13000.00,16000.00,M,M,M,M,M,M,M,M,M,97.85,KLAS 081956Z 31003KT 10SM FEW130 SCT160 38/12 A2983 RMK AO2 SLP068 T03780117,M
NFL,2022-09-08 19:56,-118.7010,39.4166,1199.00,94.00,39.00,14.82,M,3.00,0.00,30.01,1013.40,10.00,M,FEW,M,M,M,20000.00,M,M,M,M,M,M,M,M,M,M,89.54,KNFL 081956Z VRB03KT 10SM FEW200 34/04 A3001 RMK AO2 SLP134 FU DSNT ALQDS T03440039,M
TPH,2022-09-08 19:56,-117.0904,38.0505,1654.00,91.00,36.00,14.42,270.00,3.00,0.00,30.12,1010.30,10.00,M,CLR,M,M,M,M,M,M,M,M,M,M,M,M,M,M,86.83,KTPH 081956Z AUTO 27003KT 10SM CLR 33/02 A3012 RMK AO2 SLP103 T03280022,M
INS,2022-09-08 19:56,-115.6733,36.5872,955.00,100.20,40.50,12.96,0.00,0.00,0.00,29.89,1006.40,10.00,M,CLR,M,M,M,M,M,M,M,M,M,M,M,M,M,M,95.54,KINS 081956Z AUTO 00000KT 10SM CLR 38/05 A2989 RMK AO2 SLP064 T03790047 $,M
LSV,2022-09-08 19:56,-115.0343,36.2362,570.00,107.00,54.30,17.85,210.00,4.00,0.00,29.79,1005.50,10.00,M,FEW,M,M,M,17000.00,M,M,M,M,M,M,M,M,M,M,105.68,KLSV 081956Z AUTO 21004KT 10SM FEW170 42/12 A2979 RMK AO2 SLP055 T04160124 $,M
EKO,2022-09-08 19:56,-115.7860,40.8242,1367.00,93.00,36.00,13.55,260.00,20.00,0.00,30.07,1010.40,10.00,29.00,CLR,M,M,M,M,M,M,M,M,M,M,M,29.00,250.00,2022-09-08 19:55,88.59,KEKO 081956Z AUTO 26020G29KT 10SM CLR 34/02 A3007 RMK AO2 PK WND 25029/1955 SLP104 T03390022,M
LSV,2022-09-08 20:08,-115.0343,36.2362,570.00,107.60,53.60,17.04,0.00,0.00,0.00,29.79,1005.60,10.00,M,CLR,M,M,M,M,M,M,M,M,M,M,M,M,M,M,106.13,KLSV 082008Z 00000KT 10SM CLR 42/12 A2979 RMK SLP056 57030,M
P68,2022-09-08 20:10,-116.0056,39.6014,1993.00,90.00,33.00,13.26,350.00,8.00,0.00,30.13,M,M,26.00,M,M,M,M,M,M,M,M,M,M,M,M,26.00,340.00,2022-09-08 20:04,85.92,KP68 082010Z AUTO 35008G26KT 32/01 A3013 RMK AO1 PK WND 34026/2004 WSHFT 1953 T03220006 $,M
BAM,2022-09-08 20:15,-116.8743,40.5990,1382.36,96.80,37.40,12.73,320.00,16.00,0.00,30.04,M,10.00,24.00,CLR,M,M,M,M,M,M,M,M,M,M,M,M,M,M,92.04,KBAM 082015Z AUTO 32016G24KT 10SM CLR 36/03 A3004 RMK AO1,M
BVU,2022-09-08 20:15,-114.8611,35.9475,671.00,98.60,57.20,25.41,120.00,12.00,0.00,29.83,M,M,M,M,M,M,M,M,M,M,M,M,M,M,M,M,M,M,97.76,KBVU 082015Z AUTO 12012KT 37/14 A2983 RMK AO2 TSNO,M
CXP,2022-09-08 20:15,-119.7326,39.1923,1431.00,93.20,35.60,13.25,0.00,0.00,0.00,30.08,M,10.00,M,CLR,M,M,M,M,M,M,M,M,M,M,M,M,M,M,88.76,KCXP 082015Z AUTO 00000KT 10SM CLR 34/02 A3008 RMK AO2,M
RTS,2022-09-08 20:15,-119.8764,39.6682,1539.00,93.20,33.80,12.34,M,5.00,0.00,30.10,M,10.00,17.00,CLR,M,M,M,M,M,M,M,M,M,M,M,M,M,M,88.55,KRTS 082015Z AUTO VRB05G17KT 10SM CLR 34/01 A3010 RMK AO2,M
05U,2022-09-08 20:15,-116.0051,39.6042,1811.23,91.40,30.20,11.28,310.00,7.00,0.00,30.16,M,10.00,18.00,M,M,M,M,M,M,M,M,M,M,M,M,M,M,M,86.71,K05U 082015Z AUTO 31007G18KT 10SM 33/M01 A3016 RMK A01,M
MEV,2022-09-08 20:15,-119.7500,38.9963,1441.42,93.20,39.20,15.27,M,5.00,0.00,30.07,M,10.00,M,CLR,M,M,M,M,M,M,M,M,M,M,M,M,M,M,88.92,KMEV 082015Z AUTO VRB05KT 10SM CLR 34/04 A3007 RMK AO2,M
HTH,2022-09-08 20:15,-118.6315,38.5448,1282.89,95.00,35.60,12.53,350.00,11.00,0.00,30.03,M,9.00,M,CLR,M,M,M,M,M,M,M,M,M,M,M,M,M,M,90.25,KHTH 082015Z AUTO 35011KT 9SM CLR 35/02 A3003 RMK A01,M
TMT,2022-09-08 20:15,-117.1971,39.4643,1749.34,M,M,M,250.00,6.00,0.00,30.15,M,10.00,M,SCT,M,M,M,12000.00,M,M,M,M,M,M,M,M,M,M,M,KTMT 082015Z AUTO 25006KT 10SM SCT120 A3015 RMK AO2,M
TMT,2022-09-08 20:35,-117.1971,39.4643,1749.34,M,M,M,250.00,7.00,0.00,30.14,M,10.00,M,SCT,M,M,M,12000.00,M,M,M,M,M,M,M,M,M,M,M,KTMT 082035Z AUTO 25007KT 10SM SCT120 A3014 RMK AO2,M
MEV,2022-09-08 20:35,-119.7500,38.9963,1441.42,93.20,37.40,14.23,M,5.00,0.00,30.06,M,10.00,M,CLR,M,M,M,M,M,M,M,M,M,M,M,M,M,M,88.83,KMEV 082035Z AUTO VRB05KT 10SM CLR 34/03 A3006 RMK AO2,M
05U,2022-09-08 20:35,-116.0051,39.6042,1811.23,93.20,28.40,9.91,310.00,6.00,0.00,30.15,M,10.00,16.00,M,M,M,M,M,M,M,M,M,M,M,M,M,M,M,87.89,K05U 082035Z AUTO 31006G16KT 10SM 34/M02 A3015 RMK A01,M
BAM,2022-09-08 20:35,-116.8743,40.5990,1382.36,95.00,41.00,15.49,330.00,10.00,0.00,30.03,M,10.00,21.00,CLR,M,M,M,M,M,M,M,M,M,M,M,M,M,M,90.70,KBAM 082035Z AUTO 33010G21KT 10SM CLR 35/05 A3003 RMK AO1,M
RTS,2022-09-08 20:35,-119.8764,39.6682,1539.00,91.40,33.80,13.05,M,3.00,0.00,30.09,M,10.00,10.00,CLR,M,M,M,M,M,M,M,M,M,M,M,M,M,M,87.13,KRTS 082035Z AUTO VRB03G10KT 10SM CLR 33/01 A3009 RMK AO2,M
CXP,2022-09-08 20:35,-119.7326,39.1923,1431.00,95.00,35.60,12.53,M,6.00,0.00,30.07,M,10.00,12.00,CLR,M,M,M,M,M,M,M,M,M,M,M,M,M,M,90.25,KCXP 082035Z AUTO VRB06G12KT 10SM CLR 35/02 A3007 RMK AO2,M
HTH,2022-09-08 20:35,-118.6315,38.5448,1282.89,95.00,35.60,12.53,M,4.00,0.00,30.02,M,10.00,12.00,CLR,M,M,M,M,M,M,M,M,M,M,M,M,M,M,90.25,KHTH 082035Z AUTO VRB04G12KT 10SM CLR 35/02 A3002 RMK A01,M
BVU,2022-09-08 20:35,-114.8611,35.9475,671.00,98.60,59.00,27.10,100.00,13.00,0.00,29.82,M,M,M,M,M,M,M,M,M,M,M,M,M,M,M,M,M,M,98.52,KBVU 082035Z AUTO 10013KT 37/15 A2982 RMK AO2 TSNO,M
ELY,2022-09-08 20:53,-114.8453,39.2950,1909.00,90.00,34.00,13.74,60.00,9.00,0.00,30.13,1008.30,10.00,M,BKN,M,M,M,12000.00,M,M,M,M,M,M,M,M,M,M,85.93,KELY 082053Z AUTO 06009KT 10SM BKN120 32/01 A3013 RMK AO2 SLP083 T03220011 56026,M
DRA,2022-09-08 20:53,-116.0278,36.6206,1009.00,102.00,43.00,13.52,200.00,16.00,0.00,29.88,1005.50,10.00,25.00,CLR,M,M,M,M,M,M,M,M,M,M,M,M,M,M,97.60,KDRA 082053Z AUTO 20016G25KT 10SM CLR 39/06 A2988 RMK AO2 SLP055 T03890061 56033,M
P68,2022-09-08 20:53,-116.0056,39.6014,1993.00,92.00,28.90,10.54,300.00,14.00,0.00,30.11,1009.80,M,25.00,M,M,M,M,M,M,M,M,M,M,M,M,26.00,340.00,2022-09-08 20:04,86.95,KP68 082053Z AUTO 30014G25KT 33/M02 A3011 RMK AO1 PK WND 34026/2004 WSHFT 1953 SLP098 T03331017 56026 $,M
VGT,2022-09-08 20:53,-115.1933,36.2111,667.00,104.00,53.00,18.61,130.00,4.00,0.00,29.79,1006.80,10.00,M,CLR,M,M,M,M,M,M,M,M,M,M,M,M,M,M,102.13,KVGT 082053Z 13004KT 10SM CLR 40/12 A2979 RMK AO2 SLP068 T04000117 56034,M
LOL,2022-09-08 20:53,-118.5701,40.0684,1192.43,98.00,38.00,12.48,M,4.00,0.00,29.97,1009.70,10.00,M,CLR,M,M,M,M,M,M,M,M,M,M,M,M,M,M,93.22,KLOL 082053Z AUTO VRB04KT 10SM CLR 37/03 A2997 RMK AO2 SLP097 T03670033 58029,M
TMT,2022-09-08 20:55,-117.1971,39.4643,1749.34,M,M,M,210.00,4.00,0.00,30.13,M,10.00,14.00,SCT,M,M,M,12000.00,M,M,M,M,M,M,M,M,M,M,M,KTMT 082055Z AUTO 21004G14KT 10SM SCT120 A3013 RMK AO2,M
BVU,2022-09-08 20:55,-114.8611,35.9475,671.00,98.60,59.00,27.10,110.00,12.00,0.00,29.81,M,M,M,M,M,M,M,M,M,M,M,M,M,M,M,M,M,M,98.52,KBVU 082055Z AUTO 11012KT 37/15 A2981 RMK AO2 TSNO,M
CXP,2022-09-08 20:55,-119.7326,39.1923,1431.00,96.80,33.80,11.04,270.00,7.00,0.00,30.05,M,10.00,13.00,CLR,M,M,M,M,M,M,M,M,M,M,M,M,M,M,91.44,KCXP 082055Z AUTO 27007G13KT 10SM CLR 36/01 A3005 RMK AO2,M
RNO,2022-09-08 20:55,-119.7711,39.4839,1341.00,97.00,41.00,14.57,M,6.00,0.00,30.01,1009.30,10.00,M,FEW,M,M,M,10000.00,M,M,M,M,M,M,M,M,M,M,92.58,KRNO 082055Z VRB06KT 10SM FEW100 36/05 A3001 RMK AO2 SLP093 HZ FU ALQDS T03610050 58034,M
RTS,2022-09-08 20:55,-119.8764,39.6682,1539.00,93.20,33.80,12.34,220.00,7.00,0.00,30.08,M,10.00,13.00,CLR,M,M,M,M,M,M,M,M,M,M,M,M,M,M,88.55,KRTS 082055Z AUTO 22007G13KT 200V260 10SM CLR 34/01 A3008 RMK AO2,M
05U,2022-09-08 20:55,-116.0051,39.6042,1811.23,93.20,28.40,9.91,270.00,9.00,0.00,30.14,M,10.00,20.00,M,M,M,M,M,M,M,M,M,M,M,M,M,M,M,87.89,K05U 082055Z AUTO 27009G20KT 10SM 34/M02 A3014 RMK A01,M
MEV,2022-09-08 20:55,-119.7500,38.9963,1441.42,95.00,35.60,12.53,260.00,6.00,0.00,30.04,M,9.00,M,CLR,M,M,M,M,M,M,M,M,M,M,M,M,M,M,90.25,KMEV 082055Z AUTO 26006KT 9SM CLR 35/02 A3004 RMK AO2,M
BAM,2022-09-08 20:55,-116.8743,40.5990,1382.36,95.00,39.20,14.44,340.00,19.00,0.00,30.02,M,10.00,23.00,CLR,M,M,M,M,M,M,M,M,M,M,M,M,M,M,90.57,KBAM 082055Z AUTO 34019G23KT 10SM CLR 35/04 A3002 RMK AO1,M
HTH,2022-09-08 20:55,-118.6315,38.5448,1282.89,95.00,35.60,12.53,340.00,7.00,0.00,30.01,M,10.00,M,CLR,M,M,M,M,M,M,M,M,M,M,M,M,M,M,90.25,KHTH 082055Z AUTO 34007KT 10SM CLR 35/02 A3001 RMK A01,M
INS,2022-09-08 20:56,-115.6733,36.5872,955.00,101.80,37.40,10.94,0.00,0.00,0.00,29.86,1005.20,10.00,M,CLR,M,M,M,M,M,M,M,M,M,M,M,M,M,M,96.28,KINS 082056Z AUTO 00000KT 10SM CLR 39/03 A2986 RMK AO2 SLP052 T03880030 57031 $,M
LAS,2022-09-08 20:56,-115.1634,36.0719,663.00,103.00,52.00,18.47,M,3.00,0.00,29.80,1005.60,10.00,M,FEW,FEW,SCT,M,13000.00,16000.00,22000.00,M,M,M,M,M,M,M,M,100.60,KLAS 082056Z VRB03KT 10SM FEW130 FEW160 SCT220 39/11 A2980 RMK AO2 SLP056 T03940111 56033,M
EKO,2022-09-08 20:56,-115.7860,40.8242,1367.00,93.00,36.00,13.55,240.00,23.00,0.00,30.04,1009.90,10.00,47.00,FEW,M,M,M,12000.00,M,M,M,M,M,M,M,47.00,270.00,2022-09-08 20:56,88.59,KEKO 082056Z AUTO 24023G47KT 220V290 10SM FEW120 34/02 A3004 RMK AO2 PK WND 27047/2056 SLP099 T03390022 56023,M
LSV,2022-09-08 20:56,-115.0343,36.2362,570.00,108.50,55.60,17.85,120.00,6.00,0.00,29.75,M,10.00,M,CLR,M,M,M,M,M,M,M,M,M,M,M,M,M,M,107.97,KLSV 082056Z AUTO 12006KT 10SM CLR 43/13 A2975 RMK AO2 SLPNO T04250131 57036 $,M
WMC,2022-09-08 20:56,-117.8072,40.9019,1315.00,95.00,39.00,14.33,290.00,14.00,0.00,30.02,1010.40,10.00,21.00,CLR,M,M,M,M,M,M,M,M,M,M,M,M,M,M,90.55,KWMC 082056Z AUTO 29014G21KT 10SM CLR 35/04 A3002 RMK AO2 SLP104 T03500039 58022,M
TPH,2022-09-08 20:56,-117.0904,38.0505,1654.00,93.00,36.00,13.55,180.00,6.00,0.00,30.09,1009.00,10.00,M,CLR,M,M,M,M,M,M,M,M,M,M,M,M,M,M,88.59,KTPH 082056Z AUTO 18006KT 10SM CLR 34/02 A3009 RMK AO2 SLP090 T03390022 58029,M
NFL,2022-09-08 20:56,-118.7010,39.4166,1199.00,96.00,37.00,12.81,M,3.00,0.00,29.98,1012.50,10.00,M,SCT,M,M,M,8000.00,M,M,M,M,M,M,M,M,M,M,91.39,KNFL 082056Z VRB03KT 10SM SCT080 36/03 A2998 RMK AO2 SLP125 T03560028 58028,M
05U,2022-09-08 21:10,-116.0051,39.6042,1811.23,93.20,28.40,9.91,310.00,16.00,0.00,30.13,M,10.00,24.00,M,M,M,M,M,M,M,M,M,M,M,M,M,M,M,87.89,K05U 082110Z AUTO 31016G24KT 290V350 10SM 34/M02 A3013 RMK A01,M
HTH,2022-09-08 21:15,-118.6315,38.5448,1282.89,95.00,35.60,12.53,330.00,8.00,0.00,30.00,M,10.00,13.00,CLR,M,M,M,M,M,M,M,M,M,M,M,M,M,M,90.25,KHTH 082115Z AUTO 33008G13KT 10SM CLR 35/02 A3000 RMK A01,M
TMT,2022-09-08 21:15,-117.1971,39.4643,1749.34,M,M,M,270.00,7.00,0.00,30.12,M,10.00,M,SCT,M,M,M,12000.00,M,M,M,M,M,M,M,M,M,M,M,KTMT 082115Z AUTO 27007KT 230V310 10SM SCT120 A3012 RMK AO2,M
BAM,2022-09-08 21:15,-116.8743,40.5990,1382.36,96.80,37.40,12.73,320.00,12.00,0.00,30.01,M,10.00,28.00,CLR,M,M,M,M,M,M,M,M,M,M,M,M,M,M,92.04,KBAM 082115Z AUTO 32012G28KT 10SM CLR 36/03 A3001 RMK AO1,M
MEV,2022-09-08 21:15,-119.7500,38.9963,1441.42,95.00,35.60,12.53,M,6.00,0.00,30.03,M,10.00,15.00,CLR,M,M,M,M,M,M,M,M,M,M,M,M,M,M,90.25,KMEV 082115Z AUTO VRB06G15KT 10SM CLR 35/02 A3003 RMK AO2,M
RTS,2022-09-08 21:15,-119.8764,39.6682,1539.00,95.00,30.20,10.09,280.00,11.00,0.00,30.07,M,10.00,M,CLR,M,M,M,M,M,M,M,M,M,M,M,M,M,M,89.48,KRTS 082115Z AUTO 28011KT 10SM CLR 35/M01 A3007 RMK AO2,M
CXP,2022-09-08 21:15,-119.7326,39.1923,1431.00,96.80,33.80,11.04,290.00,7.00,0.00,30.05,M,10.00,17.00,CLR,M,M,M,M,M,M,M,M,M,M,M,M,M,M,91.44,KCXP 082115Z AUTO 29007G17KT 260V320 10SM CLR 36/01 A3005 RMK AO2,M
BVU,2022-09-08 21:15,-114.8611,35.9475,671.00,96.80,57.20,26.84,130.00,7.00,0.00,29.80,M,M,M,M,M,M,M,M,M,M,M,M,M,M,M,M,M,M,95.77,KBVU 082115Z AUTO 13007KT 090V160 36/14 A2980 RMK AO2 TSNO,M
RTS,2022-09-08 21:35,-119.8764,39.6682,1539.00,95.00,30.20,10.09,300.00,12.00,0.00,30.06,M,10.00,20.00,CLR,M,M,M,M,M,M,M,M,M,M,M,M,M,M,89.48,KRTS 082135Z AUTO 30012G20KT 10SM CLR 35/M01 A3006 RMK AO2,M
MEV,2022-09-08 21:35,-119.7500,38.9963,1441.42,95.00,35.60,12.53,280.00,8.00,0.00,30.02,M,10.00,M,CLR,M,M,M,M,M,M,M,M,M,M,M,M,M,M,90.25,KMEV 082135Z AUTO 28008KT 10SM CLR 35/02 A3002 RMK AO2,M
BAM,2022-09-08 21:35,-116.8743,40.5990,1382.36,96.80,35.60,11.86,320.00,16.00,0.00,30.00,M,10.00,21.00,CLR,M,M,M,M,M,M,M,M,M,M,M,M,M,M,91.72,KBAM 082135Z AUTO 32016G21KT 10SM CLR 36/02 A3000 RMK AO1,M
HTH,2022-09-08 21:35,-118.6315,38.5448,1282.89,96.80,33.80,11.04,330.00,10.00,0.00,29.98,M,10.00,M,CLR,M,M,M,M,M,M,M,M,M,M,M,M,M,M,91.44,KHTH 082135Z AUTO 33010KT 10SM CLR 36/01 A2998 RMK A01,M
CXP,2022-09-08 21:35,-119.7326,39.1923,1431.00,96.80,32.00,10.27,M,6.00,0.00,30.04,M,10.00,15.00,CLR,M,M,M,M,M,M,M,M,M,M,M,M,M,M,91.19,KCXP 082135Z AUTO VRB06G15KT 10SM CLR 36/M00 A3004 RMK AO2,M
BVU,2022-09-08 21:35,-114.8611,35.9475,671.00,98.60,57.20,25.41,120.00,4.00,0.00,29.78,M,M,M,M,M,M,M,M,M,M,M,M,M,M,M,M,M,M,97.76,KBVU 082135Z AUTO 12004KT 37/14 A2978 RMK AO2 TSNO,M
05U,2022-09-08 21:35,-116.0051,39.6042,1811.23,93.20,28.40,9.91,290.00,7.00,0.00,30.12,M,10.00,16.00,M,M,M,M,M,M,M,M,M,M,M,M,M,M,M,87.89,K05U 082135Z AUTO 29007G16KT 10SM 34/M02 A3012 RMK A01,M
TMT,2022-09-08 21:35,-117.1971,39.4643,1749.34,M,M,M,260.00,3.00,0.00,30.11,M,10.00,10.00,CLR,M,M,M,M,M,M,M,M,M,M,M,M,M,M,M,KTMT 082135Z AUTO 26003G10KT 10SM CLR A3011 RMK AO2,M
INS,2022-09-08 21:46,-115.6733,36.5872,955.00,104.00,35.60,9.54,330.00,6.00,0.00,29.82,1003.80,10.00,M,CLR,M,M,M,M,M,M,M,M,M,M,M,M,M,M,97.85,KINS 082146Z AUTO 33006KT 10SM CLR 40/02 A2982 RMK AO2 SLP038 $,M
LOL,2022-09-08 21:53,-118.5701,40.0684,1192.43,98.00,36.00,11.58,310.00,7.00,0.00,29.94,1008.80,10.00,M,CLR,M,M,M,M,M,M,M,M,M,M,M,M,M,M,92.87,KLOL 082153Z AUTO 31007KT 10SM CLR 37/02 A2994 RMK AO2 SLP088 T03670022,M
ELY,2022-09-08 21:53,-114.8453,39.2950,1909.00,91.00,27.00,10.02,290.00,17.00,0.00,30.10,1007.70,10.00,23.00,CLR,M,M,M,M,M,M,M,M,M,M,M,M,M,M,86.10,KELY 082153Z AUTO 29017G23KT 10SM CLR 33/M03 A3010 RMK AO2 SLP077 T03281028,M
VGT,2022-09-08 21:53,-115.1933,36.2111,667.00,105.00,51.00,16.73,100.00,3.00,0.00,29.74,1005.40,10.00,M,CLR,M,M,M,M,M,M,M,M,M,M,M,M,M,M,102.61,KVGT 082153Z 10003KT 10SM CLR 41/11 A2974 RMK AO2 SLP054 T04060106,M
P68,2022-09-08 21:53,-116.0056,39.6014,1993.00,91.00,28.90,10.84,300.00,6.00,0.00,30.08,1009.20,M,M,M,M,M,M,M,M,M,M,M,M,M,M,26.00,330.00,2022-09-08 21:09,86.27,KP68 082153Z AUTO 30006KT 33/M02 A3008 RMK AO1 PK WND 33026/2109 SLP092 T03281017,M
DRA,2022-09-08 21:53,-116.0278,36.6206,1009.00,103.00,41.00,12.19,230.00,15.00,0.00,29.85,1004.40,10.00,24.00,CLR,M,M,M,M,M,M,M,M,M,M,M,28.00,190.00,2022-09-08 21:07,98.00,KDRA 082153Z AUTO 23015G24KT 10SM CLR 39/05 A2985 RMK AO2 PK WND 19028/2107 SLP044 T03940050,M
RTS,2022-09-08 21:55,-119.8764,39.6682,1539.00,93.20,26.60,9.21,310.00,11.00,0.00,30.05,M,10.00,17.00,CLR,M,M,M,M,M,M,M,M,M,M,M,M,M,M,87.72,KRTS 082155Z AUTO 31011G17KT 10SM CLR 34/M03 A3005 RMK AO2,M
RNO,2022-09-08 21:55,-119.7711,39.4839,1341.00,98.00,40.00,13.50,0.00,0.00,0.00,29.98,1008.20,10.00,M,FEW,M,M,M,10000.00,M,M,M,M,M,M,M,M,M,M,93.51,KRNO 082155Z 00000KT 10SM FEW100 37/04 A2998 RMK AO2 SLP082 FU HZ ALQDS T03670044,M
CXP,2022-09-08 21:55,-119.7326,39.1923,1431.00,96.80,30.20,9.55,240.00,10.00,0.00,30.03,M,10.00,21.00,CLR,M,M,M,M,M,M,M,M,M,M,M,M,M,M,90.96,KCXP 082155Z AUTO 24010G21KT 200V260 10SM CLR 36/M01 A3003 RMK AO2,M
05U,2022-09-08 21:55,-116.0051,39.6042,1811.23,93.20,28.40,9.91,0.00,0.00,0.00,30.10,M,10.00,12.00,M,M,M,M,M,M,M,M,M,M,M,M,M,M,M,87.89,K05U 082155Z AUTO 00000G12KT 10SM 34/M02 A3010 RMK A01,M
MEV,2022-09-08 21:55,-119.7500,38.9963,1441.42,96.80,33.80,11.04,300.00,12.00,0.00,30.01,M,10.00,18.00,CLR,M,M,M,M,M,M,M,M,M,M,M,M,M,M,91.44,KMEV 082155Z AUTO 30012G18KT 10SM CLR 36/01 A3001 RMK AO2,M
BAM,2022-09-08 21:55,-116.8743,40.5990,1382.36,96.80,37.40,12.73,310.00,14.00,0.00,29.99,M,10.00,22.00,CLR,M,M,M,M,M,M,M,M,M,M,M,M,M,M,92.04,KBAM 082155Z AUTO 31014G22KT 10SM CLR 36/03 A2999 RMK AO1,M
HTH,2022-09-08 21:55,-118.6315,38.5448,1282.89,96.80,33.80,11.04,340.00,10.00,0.00,29.97,M,10.00,M,CLR,M,M,M,M,M,M,M,M,M,M,M,M,M,M,91.44,KHTH 082155Z AUTO 34010KT 10SM CLR 36/01 A2997 RMK A01,M
TMT,2022-09-08 21:55,-117.1971,39.4643,1749.34,M,M,M,300.00,3.00,0.00,30.10,M,10.00,M,CLR,M,M,M,M,M,M,M,M,M,M,M,M,M,M,M,KTMT 082155Z AUTO 30003KT 10SM CLR A3010 RMK AO2,M
BVU,2022-09-08 21:55,-114.8611,35.9475,671.00,98.60,57.20,25.41,120.00,5.00,0.00,29.77,M,M,M,M,M,M,M,M,M,M,M,M,M,M,M,M,M,M,97.76,KBVU 082155Z AUTO 12005KT 37/14 A2977 RMK AO2 TSNO,M
TPH,2022-09-08 21:56,-117.0904,38.0505,1654.00,95.00,28.90,9.57,M,5.00,0.00,30.06,1008.20,10.00,14.00,CLR,M,M,M,M,M,M,M,M,M,M,M,M,M,M,89.32,KTPH 082156Z AUTO VRB05G14KT 10SM CLR 35/M02 A3006 RMK AO2 SLP082 T03501017,M
NFL,2022-09-08 21:56,-118.7010,39.4166,1199.00,98.00,35.00,11.17,70.00,3.00,0.00,29.95,1011.40,10.00,M,SCT,M,M,M,8000.00,M,M,M,M,M,M,M,M,M,M,92.73,KNFL 082156Z 07003KT 10SM SCT080 37/02 A2995 RMK AO2 SLP114 T03670017,M
WMC,2022-09-08 21:56,-117.8072,40.9019,1315.00,95.00,38.00,13.73,260.00,6.00,0.00,30.00,1009.50,10.00,16.00,CLR,M,M,M,M,M,M,M,M,M,M,M,M,M,M,90.48,KWMC 082156Z AUTO 26006G16KT 10SM CLR 35/03 A3000 RMK AO2 SLP095 T03500033,M
LSV,2022-09-08 21:56,-115.0343,36.2362,570.00,107.40,51.60,15.93,150.00,3.00,0.00,29.71,M,10.00,M,CLR,M,M,M,M,M,M,M,M,M,M,M,M,M,M,105.15,KLSV 082156Z AUTO 15003KT 10SM CLR 42/11 A2971 RMK AO2 SLPNO T04190109 $,M
INS,2022-09-08 21:56,-115.6733,36.5872,955.00,103.50,36.00,9.88,350.00,4.00,0.00,29.82,1003.80,10.00,M,CLR,M,M,M,M,M,M,M,M,M,M,M,M,M,M,97.51,KINS 082156Z AUTO 35004KT 10SM CLR 40/02 A2982 RMK AO2 SLP038 T03970023 $,M
LAS,2022-09-08 21:56,-115.1634,36.0719,663.00,105.00,49.00,15.42,40.00,4.00,0.00,29.76,1004.30,10.00,M,FEW,FEW,SCT,M,13000.00,16000.00,22000.00,M,M,M,M,M,M,M,M,101.94,KLAS 082156Z 04004KT 10SM FEW130 FEW160 SCT220 41/09 A2976 RMK AO2 SLP043 CB DSNT S AND NW-N T04060094,M
EKO,2022-09-08 21:56,-115.7860,40.8242,1367.00,94.00,35.00,12.71,260.00,18.00,0.00,30.01,1008.90,10.00,28.00,FEW,M,M,M,12000.00,M,M,M,M,M,M,M,36.00,260.00,2022-09-08 20:59,89.29,KEKO 082156Z AUTO 26018G28KT 10SM FEW120 34/02 A3001 RMK AO2 PK WND 26036/2059 SLP089 T03440017,M
05U,2022-09-08 22:15,-116.0051,39.6042,1811.23,93.20,28.40,9.91,330.00,9.00,0.00,30.10,M,10.00,19.00,M,M,M,M,M,M,M,M,M,M,M,M,M,M,M,87.89,K05U 082215Z AUTO 33009G19KT 10SM 34/M02 A3010 RMK A01,M
BVU,2022-09-08 22:15,-114.8611,35.9475,671.00,98.60,55.40,23.81,0.00,0.00,0.00,29.75,M,M,M,M,M,M,M,M,M,M,M,M,M,M,M,M,M,M,97.09,KBVU 082215Z AUTO 00000KT 37/13 A2975 RMK AO2 TSNO,M
CXP,2022-09-08 22:15,-119.7326,39.1923,1431.00,96.80,28.40,8.87,250.00,9.00,0.00,30.01,M,10.00,16.00,CLR,M,M,M,M,M,M,M,M,M,M,M,M,M,M,90.75,KCXP 082215Z AUTO 25009G16KT 210V280 10SM CLR 36/M02 A3001 RMK AO2,M
RTS,2022-09-08 22:15,-119.8764,39.6682,1539.00,95.00,26.60,8.71,270.00,13.00,0.00,30.04,M,10.00,18.00,CLR,M,M,M,M,M,M,M,M,M,M,M,M,M,M,89.08,KRTS 082215Z AUTO 27013G18KT 10SM CLR 35/M03 A3004 RMK AO2,M
MEV,2022-09-08 22:15,-119.7500,38.9963,1441.42,96.80,33.80,11.04,300.00,13.00,0.00,30.00,M,10.00,M,CLR,M,M,M,M,M,M,M,M,M,M,M,M,M,M,91.44,KMEV 082215Z AUTO 30013KT 10SM CLR 36/01 A3000 RMK AO2,M
BAM,2022-09-08 22:15,-116.8743,40.5990,1382.36,96.80,35.60,11.86,330.00,12.00,0.00,29.99,M,10.00,25.00,CLR,M,M,M,M,M,M,M,M,M,M,M,M,M,M,91.72,KBAM 082215Z AUTO 33012G25KT 10SM CLR 36/02 A2999 RMK AO1,M
HTH,2022-09-08 22:15,-118.6315,38.5448,1282.89,96.80,33.80,11.04,310.00,10.00,0.00,29.96,M,10.00,M,CLR,M,M,M,M,M,M,M,M,M,M,M,M,M,M,91.44,KHTH 082215Z AUTO 31010KT 10SM CLR 36/01 A2996 RMK A01,M
TMT,2022-09-08 22:15,-117.1971,39.4643,1749.34,M,M,M,270.00,4.00,0.00,30.09,M,10.00,M,CLR,M,M,M,M,M,M,M,M,M,M,M,M,M,M,M,KTMT 082215Z AUTO 27004KT 10SM CLR A3009 RMK AO2,M
MEV,2022-09-08 22:35,-119.7500,38.9963,1441.42,96.80,32.00,10.27,290.00,9.00,0.00,29.99,M,10.00,19.00,CLR,M,M,M,M,M,M,M,M,M,M,M,M,M,M,91.19,KMEV 082235Z AUTO 29009G19KT 10SM CLR 36/00 A2999 RMK AO2,M
RTS,2022-09-08 22:35,-119.8764,39.6682,1539.00,95.00,26.60,8.71,290.00,13.00,0.00,30.03,M,10.00,21.00,CLR,M,M,M,M,M,M,M,M,M,M,M,M,M,M,89.08,KRTS 082235Z AUTO 29013G21KT 10SM CLR 35/M03 A3003 RMK AO2,M
TMT,2022-09-08 22:35,-117.1971,39.4643,1749.34,M,M,M,280.00,12.00,0.00,30.07,M,10.00,17.00,SCT,M,M,M,12000.00,M,M,M,M,M,M,M,M,M,M,M,KTMT 082235Z AUTO 28012G17KT 10SM SCT120 A3007 RMK AO2,M
05U,2022-09-08 22:35,-116.0051,39.6042,1811.23,93.20,26.60,9.21,340.00,8.00,0.00,30.08,M,10.00,17.00,M,M,M,M,M,M,M,M,M,M,M,M,M,M,M,87.72,K05U 082235Z AUTO 34008G17KT 10SM 34/M03 A3008 RMK A01,M
HTH,2022-09-08 22:35,-118.6315,38.5448,1282.89,96.80,33.80,11.04,M,6.00,0.00,29.95,M,10.00,14.00,CLR,M,M,M,M,M,M,M,M,M,M,M,M,M,M,91.44,KHTH 082235Z AUTO VRB06G14KT 10SM CLR 36/01 A2995 RMK A01,M
BAM,2022-09-08 22:35,-116.8743,40.5990,1382.36,95.00,35.60,12.53,310.00,15.00,0.00,29.98,M,10.00,22.00,CLR,M,M,M,M,M,M,M,M,M,M,M,M,M,M,90.25,KBAM 082235Z AUTO 31015G22KT 10SM CLR 35/02 A2998 RMK AO1,M
BVU,2022-09-08 22:35,-114.8611,35.9475,671.00,96.80,57.20,26.84,110.00,8.00,0.00,29.74,M,M,M,M,M,M,M,M,M,M,M,M,M,M,M,M,M,M,95.77,KBVU 082235Z AUTO 11008KT 36/14 A2974 RMK AO2 TSNO,M
CXP,2022-09-08 22:35,-119.7326,39.1923,1431.00,96.80,28.40,8.87,240.00,10.00,0.00,30.01,M,10.00,17.00,CLR,M,M,M,M,M,M,M,M,M,M,M,M,M,M,90.75,KCXP 082235Z AUTO 24010G17KT 10SM CLR 36/M02 A3001 RMK AO2,M
CXP,2022-09-08 22:50,-119.7326,39.1923,1431.00,95.00,30.20,10.09,250.00,8.00,0.00,30.00,M,8.00,15.00,CLR,M,M,M,M,M,M,M,M,M,M,M,M,M,M,89.48,KCXP 082250Z AUTO 25008G15KT 220V290 8SM CLR 35/M01 A3000 RMK AO2,M
05U,2022-09-08 22:50,-116.0051,39.6042,1811.23,93.20,26.60,9.21,330.00,15.00,0.00,30.08,M,10.00,20.00,M,M,M,M,M,M,M,M,M,M,M,M,M,M,M,87.72,K05U 082250Z AUTO 33015G20KT 10SM 34/M03 A3008 RMK A01,M
LOL,2022-09-08 22:53,-118.5701,40.0684,1192.43,99.00,35.00,10.87,270.00,6.00,0.00,29.91,1007.50,10.00,17.00,CLR,M,M,M,M,M,M,M,M,M,M,M,M,M,M,93.48,KLOL 082253Z AUTO 27006G17KT 10SM CLR 37/02 A2991 RMK AO2 SLP075 T03720017,M
ELY,2022-09-08 22:53,-114.8453,39.2950,1909.00,91.00,19.90,7.44,330.00,14.00,0.00,30.07,1007.40,10.00,21.00,CLR,M,M,M,M,M,M,M,M,M,M,M,M,M,M,85.59,KELY 082253Z AUTO 33014G21KT 10SM CLR 33/M07 A3007 RMK AO2 SLP074 T03281067,M
VGT,2022-09-08 22:53,-115.1933,36.2111,667.00,105.00,49.00,15.42,110.00,5.00,0.00,29.71,1004.20,10.00,M,CLR,M,M,M,M,M,M,M,M,M,M,M,M,M,M,101.94,KVGT 082253Z 11005KT 10SM CLR 41/09 A2971 RMK AO2 LTG DSNT SW SLP042 T04060094,M
DRA,2022-09-08 22:53,-116.0278,36.6206,1009.00,103.00,39.00,11.28,210.00,10.00,0.00,29.82,1003.40,10.00,M,CLR,M,M,M,M,M,M,M,M,M,M,M,M,M,M,97.55,KDRA 082253Z AUTO 21010KT 10SM CLR 39/04 A2982 RMK AO2 SLP034 T03940039,M
P68,2022-09-08 22:53,-116.0056,39.6014,1993.00,92.00,27.00,9.75,310.00,15.00,0.00,30.05,1007.90,M,26.00,M,M,M,M,M,M,M,M,M,M,M,M,26.00,300.00,2022-09-08 22:52,86.77,KP68 082253Z AUTO 31015G26KT 33/M03 A3005 RMK AO1 PK WND 30026/2252 SLP079 T03331028,M
INS,2022-09-08 22:54,-115.6733,36.5872,955.00,102.20,37.40,10.81,250.00,6.00,0.00,29.78,1002.60,10.00,M,CLR,M,M,M,M,M,M,M,M,M,M,M,M,M,M,96.63,KINS 082254Z AUTO 25006KT 10SM CLR 39/03 A2978 RMK AO2 SLP026 $,M
BAM,2022-09-08 22:55,-116.8743,40.5990,1382.36,95.00,37.40,13.46,310.00,20.00,0.00,29.97,M,10.00,24.00,CLR,M,M,M,M,M,M,M,M,M,M,M,M,M,M,90.46,KBAM 082255Z AUTO 31020G24KT 10SM CLR 35/03 A2997 RMK AO1,M
RNO,2022-09-08 22:55,-119.7711,39.4839,1341.00,99.00,34.00,10.41,260.00,8.00,0.00,29.95,1007.00,10.00,15.00,FEW,M,M,M,8000.00,M,M,M,M,M,M,M,M,M,M,93.31,KRNO 082255Z 26008G15KT 10SM FEW080 37/01 A2995 RMK AO2 SLP070 FU HZ OBSCG MTNS DSNT S-SW T03720011,M
RTS,2022-09-08 22:55,-119.8764,39.6682,1539.00,95.00,26.60,8.71,300.00,11.00,0.00,30.02,M,10.00,18.00,CLR,M,M,M,M,M,M,M,M,M,M,M,M,M,M,89.08,KRTS 082255Z AUTO 30011G18KT 10SM CLR 35/M03 A3002 RMK AO2,M
MEV,2022-09-08 22:55,-119.7500,38.9963,1441.42,95.00,32.00,10.85,300.00,15.00,0.00,29.98,M,6.00,M,CLR,M,M,M,M,M,M,M,HZ,M,M,M,M,M,M,89.71,KMEV 082255Z AUTO 30015KT 6SM HZ CLR 35/M00 A2998 RMK AO2,M
HTH,2022-09-08 22:55,-118.6315,38.5448,1282.89,96.80,33.80,11.04,0.00,0.00,0.00,29.94,M,10.00,11.00,CLR,M,M,M,M,M,M,M,M,M,M,M,M,M,M,91.44,KHTH 082255Z AUTO 00000G11KT 10SM CLR 36/01 A2994 RMK A01,M
TMT,2022-09-08 22:55,-117.1971,39.4643,1749.34,M,M,M,300.00,17.00,0.00,30.06,M,10.00,M,CLR,M,M,M,M,M,M,M,M,M,M,M,M,M,M,M,KTMT 082255Z AUTO 30017KT 10SM CLR A3006 RMK AO2,M
BVU,2022-09-08 22:55,-114.8611,35.9475,671.00,100.40,55.40,22.54,140.00,5.00,0.00,29.73,M,M,10.00,M,M,M,M,M,M,M,M,M,M,M,M,M,M,M,99.06,KBVU 082255Z AUTO 14005G10KT 38/13 A2973 RMK AO2 TSNO,M
TPH,2022-09-08 22:56,-117.0904,38.0505,1654.00,96.00,30.00,9.68,320.00,6.00,0.00,30.02,1007.20,10.00,M,CLR,M,M,M,M,M,M,M,M,M,M,M,41.00,30.00,2022-09-08 22:04,90.35,KTPH 082256Z AUTO 32006KT 10SM CLR 36/M01 A3002 RMK AO2 PK WND 03041/2204 SLP072 T03561011,M
NFL,2022-09-08 22:56,-118.7010,39.4166,1199.00,99.00,34.00,10.41,40.00,5.00,0.00,29.91,1010.20,10.00,M,SCT,SCT,M,M,8000.00,20000.00,M,M,M,M,M,M,M,M,M,93.31,KNFL 082256Z 04005KT 10SM SCT080 SCT200 37/01 A2991 RMK AO2 SLP102 T03720011,M
LSV,2022-09-08 22:56,-115.0343,36.2362,570.00,109.40,47.50,12.89,180.00,4.00,0.00,29.68,M,10.00,M,CLR,M,M,M,M,M,M,M,M,M,M,M,M,M,M,105.74,KLSV 082256Z AUTO 18004KT 10SM CLR 43/09 A2968 RMK AO2 SLPNO T04300086 $,M
EKO,2022-09-08 22:56,-115.7860,40.8242,1367.00,93.00,33.00,12.07,290.00,21.00,0.00,29.99,1008.40,10.00,30.00,CLR,M,M,M,M,M,M,M,M,M,M,M,33.00,260.00,2022-09-08 22:20,88.29,KEKO 082256Z AUTO 29021G30KT 10SM CLR 34/01 A2999 RMK AO2 PK WND 26033/2220 SLP084 T03390006,M
WMC,2022-09-08 22:56,-117.8072,40.9019,1315.00,96.00,40.00,14.35,M,M,0.00,29.96,1008.80,10.00,M,CLR,M,M,M,M,M,M,M,M,M,M,M,M,M,M,91.64,KWMC 082256Z AUTO 10SM CLR 36/04 A2996 RMK AO2 SLP088 T03560044,M
LAS,2022-09-08 22:56,-115.1634,36.0719,663.00,102.00,50.00,17.62,200.00,13.00,0.00,29.72,1003.10,9.00,26.00,FEW,FEW,SCT,M,13000.00,16000.00,22000.00,M,M,M,M,M,26.00,220.00,2022-09-08 22:53,99.07,KLAS 082256Z 20013G26KT 9SM FEW130 FEW160 SCT220 39/10 A2972 RMK AO2 PK WND 22026/2253 LTG DSNT SW SLP031 CB DSNT SW-NW TCU DSNT N T03890100,M
INS,2022-09-08 22:56,-115.6733,36.5872,955.00,101.80,37.40,10.94,250.00,6.00,0.00,29.78,1002.60,10.00,M,CLR,M,M,M,M,M,M,M,M,M,M,M,M,M,M,96.28,KINS 082256Z AUTO 25006KT 10SM CLR 39/03 A2978 RMK AO2 SLP026 T03880030 $,M
LAS,2022-09-08 23:06,-115.1634,36.0719,663.00,102.00,50.00,17.62,220.00,14.00,0.00,29.72,M,10.00,21.00,FEW,FEW,SCT,M,13000.00,16000.00,22000.00,M,M,M,M,M,M,M,M,99.07,KLAS 082306Z 22014G21KT 10SM FEW130 FEW160 SCT220 39/10 A2972 RMK AO2 WSHFT 2246 LTG DSNT SW-NW CB DSNT SW-NW TCU DSNT N T03890100,M
BVU,2022-09-08 23:15,-114.8611,35.9475,671.00,100.40,55.40,22.54,150.00,7.00,0.00,29.72,M,M,14.00,M,M,M,M,M,M,M,M,M,M,M,M,M,M,M,99.06,KBVU 082315Z AUTO 15007G14KT 38/13 A2972 RMK AO2 TSNO,M
CXP,2022-09-08 23:15,-119.7326,39.1923,1431.00,95.00,33.80,11.67,250.00,11.00,0.00,30.00,M,6.00,17.00,CLR,M,M,M,M,M,M,M,HZ,M,M,M,M,M,M,89.97,KCXP 082315Z AUTO 25011G17KT 6SM HZ CLR 35/01 A3000 RMK AO2,M
RTS,2022-09-08 23:15,-119.8764,39.6682,1539.00,95.00,26.60,8.71,310.00,19.00,0.00,30.01,M,10.00,M,CLR,M,M,M,M,M,M,M,M,M,M,M,M,M,M,89.08,KRTS 082315Z AUTO 31019KT 10SM CLR 35/M03 A3001 RMK AO2,M
05U,2022-09-08 23:15,-116.0051,39.6042,1811.23,93.20,23.00,7.92,310.00,19.00,0.00,30.07,M,10.00,M,M,M,M,M,M,M,M,M,M,M,M,M,M,M,M,87.42,K05U 082315Z AUTO 31019KT 10SM 34/M05 A3007 RMK A01,M
MEV,2022-09-08 23:15,-119.7500,38.9963,1441.42,93.20,32.00,11.48,300.00,17.00,0.00,29.98,M,4.00,M,CLR,M,M,M,M,M,M,M,HZ,M,M,M,M,M,M,88.31,KMEV 082315Z AUTO 30017KT 4SM HZ CLR 34/00 A2998 RMK AO2,M
BAM,2022-09-08 23:15,-116.8743,40.5990,1382.36,95.00,35.60,12.53,310.00,11.00,0.00,29.96,M,10.00,24.00,CLR,M,M,M,M,M,M,M,M,M,M,M,M,M,M,90.25,KBAM 082315Z AUTO 31011G24KT 10SM CLR 35/02 A2996 RMK AO1,M
HTH,2022-09-08 23:15,-118.6315,38.5448,1282.89,96.80,33.80,11.04,330.00,9.00,0.00,29.93,M,10.00,15.00,CLR,M,M,M,M,M,M,M,M,M,M,M,M,M,M,91.44,KHTH 082315Z AUTO 33009G15KT 10SM CLR 36/01 A2993 RMK A01,M
TMT,2022-09-08 23:15,-117.1971,39.4643,1749.34,M,M,M,290.00,6.00,0.00,30.06,M,10.00,16.00,CLR,M,M,M,M,M,M,M,M,M,M,M,M,M,M,M,KTMT 082315Z AUTO 29006G16KT 10SM CLR A3006 RMK AO2,M
05U,2022-09-08 23:30,-116.0051,39.6042,1811.23,93.20,24.80,8.54,300.00,8.00,0.00,30.07,M,10.00,22.00,M,M,M,M,M,M,M,M,M,M,M,M,M,M,M,87.56,K05U 082330Z AUTO 30008G22KT 10SM 34/M04 A3007 RMK A01,M
HTH,2022-09-08 23:35,-118.6315,38.5448,1282.89,96.80,32.00,10.27,330.00,9.00,0.00,29.91,M,10.00,M,CLR,M,M,M,M,M,M,M,M,M,M,M,M,M,M,91.19,KHTH 082335Z AUTO 33009KT 10SM CLR 36/00 A2991 RMK A01,M
BAM,2022-09-08 23:35,-116.8743,40.5990,1382.36,95.00,35.60,12.53,310.00,18.00,0.00,29.96,M,10.00,25.00,CLR,M,M,M,M,M,M,M,M,M,M,M,M,M,M,90.25,KBAM 082335Z AUTO 31018G25KT 10SM CLR 35/02 A2996 RMK AO1,M
RTS,2022-09-08 23:35,-119.8764,39.6682,1539.00,93.20,26.60,9.21,320.00,15.00,0.00,30.01,M,10.00,M,CLR,M,M,M,M,M,M,M,M,M,M,M,M,M,M,87.72,KRTS 082335Z AUTO 32015KT 10SM CLR 34/M03 A3001 RMK AO2,M
BVU,2022-09-08 23:35,-114.8611,35.9475,671.00,100.40,55.40,22.54,160.00,10.00,0.00,29.72,M,M,M,M,M,M,M,M,M,M,M,M,M,M,M,M,M,M,99.06,KBVU 082335Z AUTO 16010KT 38/13 A2972 RMK AO2 TSNO,M
MEV,2022-09-08 23:35,-119.7500,38.9963,1441.42,89.60,35.60,14.83,300.00,14.00,0.00,29.98,M,4.00,M,CLR,M,M,M,M,M,M,M,HZ,M,M,M,M,M,M,85.62,KMEV 082335Z AUTO 30014KT 4SM HZ CLR 32/02 A2998 RMK AO2,M
CXP,2022-09-08 23:35,-119.7326,39.1923,1431.00,93.20,30.20,10.67,250.00,10.00,0.00,29.99,M,3.00,M,CLR,M,M,M,M,M,M,M,HZ,M,M,M,M,M,M,88.09,KCXP 082335Z AUTO 25010KT 3SM HZ CLR 34/M01 A2999 RMK AO2,M
TMT,2022-09-08 23:35,-117.1971,39.4643,1749.34,M,M,M,310.00,13.00,0.00,30.05,M,10.00,M,CLR,M,M,M,M,M,M,M,M,M,M,M,M,M,M,M,KTMT 082335Z AUTO 31013KT 10SM CLR A3005 RMK AO2,M
05U,2022-09-08 23:50,-116.0051,39.6042,1811.23,91.40,24.80,9.04,290.00,9.00,0.00,30.06,M,10.00,15.00,M,M,M,M,M,M,M,M,M,M,M,M,M,M,M,86.21,K05U 082350Z AUTO 29009G15KT 10SM 33/M04 A3006 RMK A01,M
ELY,2022-09-08 23:53,-114.8453,39.2950,1909.00,90.00,25.00,9.52,290.00,11.00,0.00,30.05,1006.70,10.00,M,CLR,M,M,M,M,M,M,M,M,M,M,M,M,M,M,85.19,KELY 082353Z AUTO 29011KT 10SM CLR 32/M04 A3005 RMK AO2 SLP067 T03221039 10333 20294 56022,M
LOL,2022-09-08 23:53,-118.5701,40.0684,1192.43,98.00,34.00,10.70,340.00,7.00,0.00,29.89,1007.20,10.00,M,CLR,M,M,M,M,M,M,M,M,M,M,M,M,M,M,92.55,KLOL 082353Z AUTO 34007KT 10SM CLR 37/01 A2989 RMK AO2 SLP072 T03670011 10378 20322 56026,M
LSV,2022-09-08 23:53,-115.0343,36.2362,570.00,107.60,48.20,13.95,180.00,11.00,0.00,29.66,M,10.00,M,CLR,M,M,M,M,M,M,M,M,M,M,M,M,M,M,104.23,KLSV 082353Z AUTO 18011KT 10SM CLR 42/09 A2966 RMK AO2 WSHFT 44 SLPNO $,M
DRA,2022-09-08 23:53,-116.0278,36.6206,1009.00,102.00,39.00,11.58,230.00,10.00,0.00,29.80,1003.10,10.00,M,CLR,M,M,M,M,M,M,M,M,M,M,M,M,M,M,96.77,KDRA 082353Z AUTO 23010KT 10SM CLR 39/04 A2980 RMK AO2 SLP031 T03890039 10400 20361 56024,M
P68,2022-09-08 23:53,-116.0056,39.6014,1993.00,91.00,25.00,9.23,300.00,13.00,0.00,30.03,1007.50,M,19.00,M,M,M,M,M,M,M,M,M,M,M,M,27.00,290.00,2022-09-08 23:26,85.93,KP68 082353Z AUTO 30013G19KT 33/M04 A3003 RMK AO1 PK WND 29027/2326 SLP075 T03281039 10339 20283 56024,M
VGT,2022-09-08 23:53,-115.1933,36.2111,667.00,105.00,51.00,16.73,200.00,12.00,0.00,29.69,1003.50,10.00,17.00,CLR,M,M,M,M,M,M,M,M,M,M,M,M,M,M,102.61,KVGT 082353Z 20012G17KT 10SM CLR 41/11 A2969 RMK AO2 SLP035 T04060106 10417 20361 56030,M
TMT,2022-09-08 23:55,-117.1971,39.4643,1749.34,M,M,M,300.00,15.00,0.00,30.05,M,10.00,18.00,CLR,M,M,M,M,M,M,M,M,M,M,M,M,M,M,M,KTMT 082355Z AUTO 30015G18KT 10SM CLR A3005 RMK AO2,M
HTH,2022-09-08 23:55,-118.6315,38.5448,1282.89,96.80,32.00,10.27,320.00,8.00,0.00,29.91,M,10.00,M,CLR,M,M,M,M,M,M,M,M,M,M,M,M,M,M,91.19,KHTH 082355Z AUTO 32008KT 10SM CLR 36/00 A2991 RMK A01,M
CXP,2022-09-08 23:55,-119.7326,39.1923,1431.00,93.20,33.80,12.34,230.00,6.00,0.00,29.99,M,5.00,14.00,CLR,M,M,M,M,M,M,M,HZ,M,M,M,M,M,M,88.55,KCXP 082355Z AUTO 23006G14KT 5SM HZ CLR 34/01 A2999 RMK AO2,M
BVU,2022-09-08 23:55,-114.8611,35.9475,671.00,100.40,53.60,21.11,M,6.00,0.00,29.71,M,M,M,M,M,M,M,M,M,M,M,M,M,M,M,M,M,M,98.44,KBVU 082355Z AUTO VRB06KT 38/12 A2971 RMK AO2 TSNO,M
RNO,2022-09-08 23:55,-119.7711,39.4839,1341.00,99.00,30.90,9.19,290.00,13.00,0.00,29.93,1006.40,10.00,21.00,FEW,M,M,M,8000.00,M,M,M,M,M,M,M,M,M,M,92.88,KRNO 082355Z 29013G21KT 250V310 10SM FEW080 37/M01 A2993 RMK AO2 SLP064 FU HZ SE-SW T03721006 10383 20289 56026,M
RTS,2022-09-08 23:55,-119.8764,39.6682,1539.00,93.20,28.40,9.91,320.00,17.00,0.00,30.00,M,10.00,23.00,CLR,M,M,M,M,M,M,M,M,M,M,M,M,M,M,87.89,KRTS 082355Z AUTO 32017G23KT 10SM CLR 34/M02 A3000 RMK AO2,M
MEV,2022-09-08 23:55,-119.7500,38.9963,1441.42,89.60,37.40,15.92,340.00,6.00,0.00,29.98,M,2.00,15.00,CLR,M,M,M,M,M,M,M,HZ,M,M,M,M,M,M,85.67,KMEV 082355Z AUTO 34006G15KT 2SM HZ CLR 32/03 A2998 RMK AO2,M
BAM,2022-09-08 23:55,-116.8743,40.5990,1382.36,93.20,37.40,14.23,340.00,15.00,0.00,29.95,M,10.00,25.00,CLR,M,M,M,M,M,M,M,M,M,M,M,M,M,M,88.83,KBAM 082355Z AUTO 34015G25KT 10SM CLR 34/03 A2995 RMK AO1,M
EKO,2022-09-08 23:56,-115.7860,40.8242,1367.00,92.00,32.00,11.95,260.00,16.00,0.00,29.97,1007.80,10.00,26.00,CLR,M,M,M,M,M,M,M,M,M,M,M,32.00,280.00,2022-09-08 23:19,87.30,KEKO 082356Z AUTO 26016G26KT 10SM CLR 33/00 A2997 RMK AO2 PK WND 28032/2319 SLP078 T03330000 10344 20311 56022,M
INS,2022-09-08 23:56,-115.6733,36.5872,955.00,102.70,38.00,10.95,360.00,5.00,0.00,29.77,1002.20,10.00,M,SCT,BKN,M,M,14000.00,17000.00,M,M,M,M,M,M,M,M,M,97.20,KINS 082356Z AUTO 36005KT 10SM SCT140 BKN170 39/03 A2977 RMK AO2 SLP022 T03930034 10399 20357 57027 $,M
TPH,2022-09-08 23:56,-117.0904,38.0505,1654.00,95.00,33.00,11.34,320.00,15.00,0.00,30.00,1006.00,10.00,20.00,CLR,M,M,M,M,M,M,M,M,M,M,M,M,M,M,89.86,KTPH 082356Z AUTO 32015G20KT 10SM CLR 35/01 A3000 RMK AO2 WSHFT 2335 SLP060 T03500006 10356 20306 56018,M
NFL,2022-09-08 23:56,-118.7010,39.4166,1199.00,99.00,32.00,9.60,10.00,4.00,0.00,29.88,1009.30,10.00,M,FEW,FEW,M,M,8000.00,20000.00,M,M,M,M,M,M,M,M,M,93.03,KNFL 082356Z 01004KT 10SM FEW080 FEW200 37/00 A2988 RMK AO2 SLP093 FU ALFT DSNT SW-W T03720000 10378 20317 56031,M
WMC,2022-09-08 23:56,-117.8072,40.9019,1315.00,94.00,40.00,15.35,360.00,15.00,0.00,29.94,1008.40,10.00,20.00,CLR,M,M,M,M,M,M,M,M,M,M,M,M,M,M,89.60,KWMC 082356Z AUTO 36015G20KT 10SM CLR 34/04 A2994 RMK AO2 SLP084 T03440044 10356 20317 56023,M
LAS,2022-09-08 23:56,-115.1634,36.0719,663.00,103.00,51.00,17.86,240.00,10.00,0.00,29.70,1002.50,10.00,M,FEW,SCT,SCT,M,13000.00,16000.00,22000.00,M,M,M,M,M,M,M,M,100.32,KLAS 082356Z 24010KT 10SM FEW130 SCT160 SCT220 39/11 A2970 RMK AO2 WSHFT 2246 SLP025 CB DSNT SW-NW T03940106 10406 20356 56030,M
LSV,2022-09-08 23:56,-115.0343,36.2362,570.00,107.60,48.20,13.95,190.00,9.00,0.00,29.65,M,10.00,M,CLR,M,M,M,M,M,M,M,M,M,M,M,M,M,M,104.23,KLSV 082356Z AUTO 19009KT 10SM CLR 42/09 A2965 RMK AO2 SLPNO T04200090 10431 20393 57032 $,M
