station,valid,lon,lat,elevation,tmpf,dwpf,relh,drct,sknt,p01i,alti,mslp,vsby,gust,skyc1,skyc2,skyc3,skyc4,skyl1,skyl2,skyl3,skyl4,wxcodes,ice_accretion_1hr,ice_accretion_3hr,ice_accretion_6hr,peak_wind_gust,peak_wind_drct,peak_wind_time,feel,metar,snowdepth
ELY,2022-08-21 00:00,-114.8453,39.2950,1909.00,83.00,43.00,24.51,20.00,12.00,0.00,30.10,M,10.00,17.00,BKN,M,M,M,10000.00,M,M,M,M,M,M,M,M,M,M,80.73,KELY 210000Z AUTO 02012G17KT 10SM BKN100 28/06 A3010 RMK AO2 WSHFT 2340 T02830061,M
TMT,2022-08-21 00:15,-117.1971,39.4643,1749.34,M,M,M,20.00,8.00,0.00,30.09,M,10.00,M,SCT,M,M,M,11000.00,M,M,M,M,M,M,M,M,M,M,M,KTMT 210015Z AUTO 02008KT 10SM SCT110 A3009 RMK AO2,M
BAM,2022-08-21 00:15,-116.8743,40.5990,1382.36,93.20,42.80,17.55,330.00,8.00,0.00,29.98,M,10.00,M,CLR,M,M,M,M,M,M,M,M,M,M,M,M,M,M,89.17,KBAM 210015Z AUTO 33008KT 10SM CLR 34/06 A2998 RMK AO1,M
HTH,2022-08-21 00:15,-118.6315,38.5448,1282.89,95.00,30.20,10.09,320.00,11.00,0.00,29.93,M,10.00,16.00,CLR,M,M,M,M,M,M,M,M,M,M,M,M,M,M,89.48,KHTH 210015Z AUTO 32011G16KT 10SM CLR 35/M01 A2993 RMK A01,M
BVU,2022-08-21 00:15,-114.8611,35.9475,671.00,93.20,57.20,29.99,230.00,16.00,0.00,29.83,M,M,26.00,M,M,M,M,M,M,M,M,M,M,M,M,M,M,M,91.91,KBVU 210015Z AUTO 23016G26KT 34/14 A2983 RMK AO2 PWINO TSNO,M
CXP,2022-08-21 00:15,-119.7326,39.1923,1431.00,93.20,30.20,10.67,290.00,9.00,0.00,30.01,M,10.00,M,CLR,M,M,M,M,M,M,M,M,M,M,M,M,M,M,88.09,KCXP 210015Z AUTO 29009KT 260V320 10SM CLR 34/M01 A3001 RMK AO2,M
RTS,2022-08-21 00:15,-119.8764,39.6682,1539.00,91.40,28.40,10.48,300.00,10.00,0.00,30.04,M,10.00,M,CLR,M,M,M,M,M,M,M,M,M,M,M,M,M,M,86.53,KRTS 210015Z AUTO 30010KT 10SM CLR 33/M02 A3004 RMK AO2,M
MEV,2022-08-21 00:15,-119.7500,38.9963,1441.42,93.20,35.60,13.25,270.00,13.00,0.00,30.00,M,10.00,M,CLR,M,M,M,M,M,M,M,M,M,M,M,M,M,M,88.76,KMEV 210015Z AUTO 27013KT 10SM CLR 34/02 A3000 RMK AO2,M
HND,2022-08-21 00:18,-115.1344,35.9729,742.79,86.00,60.80,42.80,140.00,11.00,0.00,29.86,M,10.00,20.00,SCT,M,M,M,10000.00,M,M,M,TS,M,M,M,30.00,150.00,2022-08-20 23:59,86.05,KHND 210018Z 14011G20KT 10SM TS SCT100 30/16 A2986 RMK AO2 PK WND 15030/2359 WSHFT 2358 LTG DSNT S,M
LAS,2022-08-21 00:27,-115.1634,36.0719,663.00,93.00,56.00,28.79,170.00,10.00,0.00,29.81,M,10.00,23.00,SCT,SCT,BKN,M,13000.00,16000.00,22000.00,M,M,M,M,M,M,M,M,91.29,KLAS 210027Z 17010G23KT 10SM SCT130 SCT160 BKN220 34/13 A2981 RMK AO2 LTG DSNT SE AND S CB DSNT SE SH DSNT SE-S T03390133,M
TMT,2022-08-21 00:35,-117.1971,39.4643,1749.34,M,M,M,40.00,11.00,0.00,30.08,M,10.00,14.00,CLR,M,M,M,M,M,M,M,M,M,M,M,M,M,M,M,KTMT 210035Z AUTO 04011G14KT 10SM CLR A3008 RMK AO2,M
BVU,2022-08-21 00:35,-114.8611,35.9475,671.00,89.60,57.20,33.56,250.00,8.00,0.00,29.83,M,M,15.00,M,M,M,M,M,M,M,M,M,M,M,M,M,M,M,88.28,KBVU 210035Z AUTO 25008G15KT 32/14 A2983 RMK AO2 PWINO TSNO,M
CXP,2022-08-21 00:35,-119.7326,39.1923,1431.00,93.20,32.00,11.48,270.00,7.00,0.00,30.01,M,10.00,14.00,CLR,M,M,M,M,M,M,M,M,M,M,M,M,M,M,88.31,KCXP 210035Z AUTO 27007G14KT 10SM CLR 34/00 A3001 RMK AO2,M
RTS,2022-08-21 00:35,-119.8764,39.6682,1539.00,91.40,28.40,10.48,280.00,9.00,0.00,30.04,M,10.00,16.00,CLR,M,M,M,M,M,M,M,M,M,M,M,M,M,M,86.53,KRTS 210035Z AUTO 28009G16KT 10SM CLR 33/M02 A3004 RMK AO2,M
MEV,2022-08-21 00:35,-119.7500,38.9963,1441.42,91.40,35.60,14.02,270.00,10.00,0.00,30.00,M,10.00,M,CLR,M,M,M,M,M,M,M,M,M,M,M,M,M,M,87.17,KMEV 210035Z AUTO 27010KT 10SM CLR 33/02 A3000 RMK AO2,M
BAM,2022-08-21 00:35,-116.8743,40.5990,1382.36,93.20,41.00,16.37,330.00,9.00,0.00,29.98,M,10.00,M,CLR,M,M,M,M,M,M,M,M,M,M,M,M,M,M,89.03,KBAM 210035Z AUTO 33009KT 10SM CLR 34/05 A2998 RMK AO1,M
HTH,2022-08-21 00:35,-118.6315,38.5448,1282.89,95.00,30.20,10.09,320.00,14.00,0.00,29.93,M,10.00,M,CLR,M,M,M,M,M,M,M,M,M,M,M,M,M,M,89.48,KHTH 210035Z AUTO 32014KT 10SM CLR 35/M01 A2993 RMK A01,M
HND,2022-08-21 00:43,-115.1344,35.9729,742.79,87.80,60.80,40.41,150.00,9.00,T,29.85,M,10.00,M,SCT,M,M,M,11000.00,M,M,M,M,M,M,M,30.00,150.00,2022-08-20 23:59,87.75,KHND 210043Z 15009KT 10SM SCT110 31/16 A2985 RMK AO2 PK WND 15030/2359 WSHFT 2358 TSE37RAB20E32 P0000,M
INS,2022-08-21 00:48,-115.6733,36.5872,955.00,95.00,46.40,19.04,70.00,14.00,0.00,29.86,1005.90,10.00,18.00,BKN,BKN,M,M,13000.00,16000.00,M,M,M,M,M,M,M,M,M,91.29,KINS 210048Z AUTO 07014G18KT 10SM BKN130 BKN160 35/08 A2986 RMK AO2 WSHFT 44 SLP059 $,M
VGT,2022-08-21 00:53,-115.1933,36.2111,667.00,99.00,52.00,20.77,180.00,11.00,0.00,29.80,1007.50,10.00,16.00,CLR,M,M,M,M,M,M,M,M,M,M,M,M,M,M,96.47,KVGT 210053Z 18011G16KT 10SM CLR 37/11 A2980 RMK AO2 SLP075 T03720111,M
ELY,2022-08-21 00:53,-114.8453,39.2950,1909.00,80.00,43.00,26.85,30.00,12.00,0.00,30.10,1010.30,10.00,M,BKN,M,M,M,11000.00,M,M,M,M,M,M,M,M,M,M,79.04,KELY 210053Z AUTO 03012KT 10SM BKN110 27/06 A3010 RMK AO2 WSHFT 2340 SLP103 T02670061,M
LOL,2022-08-21 00:53,-118.5701,40.0684,1192.43,95.00,38.00,13.73,110.00,6.00,0.00,29.91,1008.90,10.00,M,CLR,M,M,M,M,M,M,M,M,M,M,M,M,M,M,90.48,KLOL 210053Z AUTO 11006KT 10SM CLR 35/03 A2991 RMK AO2 SLP089 T03500033,M
P68,2022-08-21 00:53,-116.0056,39.6014,1993.00,85.00,39.00,19.69,360.00,11.00,0.00,30.07,1009.90,M,M,M,M,M,M,M,M,M,M,M,M,M,M,M,M,M,81.95,KP68 210053Z AUTO 36011KT 29/04 A3007 RMK AO1 SLP099 T02940039,M
DRA,2022-08-21 00:53,-116.0278,36.6206,1009.00,99.00,40.00,13.13,M,4.00,0.00,29.86,1005.50,10.00,M,CLR,M,M,M,M,M,M,M,M,M,M,M,M,M,M,94.35,KDRA 210053Z AUTO VRB04KT 10SM CLR 37/04 A2986 RMK AO2 SLP055 T03720044,M
HTH,2022-08-21 00:55,-118.6315,38.5448,1282.89,95.00,30.20,10.09,320.00,12.00,0.00,29.93,M,10.00,M,CLR,M,M,M,M,M,M,M,M,M,M,M,M,M,M,89.48,KHTH 210055Z AUTO 32012KT 10SM CLR 35/M01 A2993 RMK A01,M
CXP,2022-08-21 00:55,-119.7326,39.1923,1431.00,93.20,33.80,12.34,260.00,6.00,0.00,30.01,M,10.00,14.00,CLR,M,M,M,M,M,M,M,M,M,M,M,M,M,M,88.55,KCXP 210055Z AUTO 26006G14KT 10SM CLR 34/01 A3001 RMK AO2,M
BVU,2022-08-21 00:55,-114.8611,35.9475,671.00,87.80,57.20,35.53,210.00,4.00,0.00,29.83,M,M,M,M,M,M,M,M,M,M,M,M,M,M,M,M,M,M,86.58,KBVU 210055Z AUTO 21004KT 31/14 A2983 RMK AO2 PWINO TSNO,M
RTS,2022-08-21 00:55,-119.8764,39.6682,1539.00,91.40,28.40,10.48,330.00,10.00,0.00,30.04,M,10.00,M,CLR,M,M,M,M,M,M,M,M,M,M,M,M,M,M,86.53,KRTS 210055Z AUTO 33010KT 10SM CLR 33/M02 A3004 RMK AO2,M
MEV,2022-08-21 00:55,-119.7500,38.9963,1441.42,91.40,37.40,15.05,280.00,10.00,0.00,30.00,M,10.00,18.00,CLR,M,M,M,M,M,M,M,M,M,M,M,M,M,M,87.23,KMEV 210055Z AUTO 28010G18KT 10SM CLR 33/03 A3000 RMK AO2,M
BAM,2022-08-21 00:55,-116.8743,40.5990,1382.36,91.40,41.00,17.32,360.00,5.00,0.00,29.98,M,10.00,8.00,CLR,M,M,M,M,M,M,M,M,M,M,M,M,M,M,87.40,KBAM 210055Z AUTO 36005G08KT 10SM CLR 33/05 A2998 RMK AO1,M
RNO,2022-08-21 00:55,-119.7711,39.4839,1341.00,97.00,37.00,12.46,360.00,7.00,0.00,29.96,1008.00,10.00,M,FEW,M,M,M,10000.00,M,M,M,M,M,M,M,M,M,M,92.13,KRNO 210055Z 36007KT 10SM FEW100 36/03 A2996 RMK AO2 SLP080 T03610028,M
TMT,2022-08-21 00:55,-117.1971,39.4643,1749.34,M,M,M,360.00,6.00,0.00,30.08,M,10.00,M,SCT,M,M,M,12000.00,M,M,M,M,M,M,M,M,M,M,M,KTMT 210055Z AUTO 36006KT 10SM SCT120 A3008 RMK AO2,M
NFL,2022-08-21 00:56,-118.7010,39.4166,1199.00,95.00,33.00,11.34,300.00,4.00,0.00,29.92,1010.60,10.00,M,FEW,M,M,M,9000.00,M,M,M,M,M,M,M,M,M,M,89.86,KNFL 210056Z 30004KT 10SM FEW090 35/01 A2992 RMK AO2 SLP106 T03500006,M
WMC,2022-08-21 00:56,-117.8072,40.9019,1315.00,95.00,38.00,13.73,260.00,9.00,0.00,29.95,1009.00,10.00,M,CLR,M,M,M,M,M,M,M,M,M,M,M,M,M,M,90.48,KWMC 210056Z AUTO 26009KT 10SM CLR 35/03 A2995 RMK AO2 SLP090 T03500033 $,M
EKO,2022-08-21 00:56,-115.7860,40.8242,1367.00,79.00,44.00,29.04,100.00,3.00,0.00,30.00,1011.60,10.00,M,SCT,M,M,M,11000.00,M,M,M,M,M,M,M,M,M,M,79.00,KEKO 210056Z AUTO 10003KT 10SM SCT110 26/07 A3000 RMK AO2 SLP116 T02610067 $,M
LAS,2022-08-21 00:56,-115.1634,36.0719,663.00,92.00,58.00,32.03,150.00,10.00,0.00,29.80,1006.40,10.00,16.00,FEW,SCT,BKN,M,13000.00,16000.00,22000.00,M,M,M,M,M,M,M,M,90.80,KLAS 210056Z 15010G16KT 10SM FEW130 SCT160 BKN220 33/14 A2980 RMK AO2 SLP064 CB DSNT E AND SE SH DSNT SE-S T03330144,M
TPH,2022-08-21 00:56,-117.0904,38.0505,1654.00,90.00,32.00,12.68,330.00,6.00,0.00,30.04,1008.30,10.00,M,CLR,M,M,M,M,M,M,M,M,M,M,M,M,M,M,85.84,KTPH 210056Z AUTO 33006KT 10SM CLR 32/00 A3004 RMK AO2 SLP083 T03220000,M
HND,2022-08-21 00:56,-115.1344,35.9729,742.79,91.00,59.00,34.27,130.00,11.00,T,29.85,1009.30,10.00,17.00,CLR,M,M,M,M,M,M,M,M,M,M,M,30.00,150.00,2022-08-20 23:59,90.27,KHND 210056Z 13011G17KT 10SM CLR 33/15 A2985 RMK AO2 PK WND 15030/2359 WSHFT 2358 TSE37RAB20E32 SLP093 P0000 T03280150,M
INS,2022-08-21 00:58,-115.6733,36.5872,955.00,96.80,49.00,19.94,100.00,16.00,0.00,29.86,1005.80,10.00,M,SCT,OVC,M,M,13000.00,17000.00,M,M,M,M,M,M,32.00,40.00,2022-08-21 00:15,93.53,KINS 210058Z AUTO 10016KT 10SM SCT130 OVC170 36/10 A2986 RMK AO2 PK WND 04032/15 SLP058 T03600095 $,M
LSV,2022-08-21 00:58,-115.0343,36.2362,570.00,100.00,57.70,24.80,180.00,12.00,0.00,29.77,1005.30,10.00,M,FEW,M,M,M,16000.00,M,M,M,M,M,M,M,M,M,M,99.53,KLSV 210058Z AUTO 18012KT 10SM FEW160 38/14 A2977 RMK AO2 SLP053 T03780143 $,M
HTH,2022-08-21 01:15,-118.6315,38.5448,1282.89,95.00,28.40,9.38,320.00,10.00,0.00,29.94,M,10.00,M,CLR,M,M,M,M,M,M,M,M,M,M,M,M,M,M,89.27,KHTH 210115Z AUTO 32010KT 10SM CLR 35/M02 A2994 RMK A01,M
MEV,2022-08-21 01:15,-119.7500,38.9963,1441.42,89.60,37.40,15.92,280.00,11.00,0.00,30.00,M,10.00,17.00,CLR,M,M,M,M,M,M,M,M,M,M,M,M,M,M,85.67,KMEV 210115Z AUTO 28011G17KT 10SM CLR 32/03 A3000 RMK AO2,M
RTS,2022-08-21 01:15,-119.8764,39.6682,1539.00,89.60,28.40,11.09,300.00,9.00,0.00,30.04,M,10.00,14.00,CLR,M,M,M,M,M,M,M,M,M,M,M,M,M,M,85.17,KRTS 210115Z AUTO 30009G14KT 10SM CLR 32/M02 A3004 RMK AO2,M
TMT,2022-08-21 01:15,-117.1971,39.4643,1749.34,M,M,M,360.00,8.00,0.00,30.09,M,10.00,17.00,SCT,M,M,M,12000.00,M,M,M,M,M,M,M,M,M,M,M,KTMT 210115Z AUTO 36008G17KT 10SM SCT120 A3009 RMK AO2,M
CXP,2022-08-21 01:15,-119.7326,39.1923,1431.00,91.40,35.60,14.02,280.00,9.00,0.00,30.01,M,10.00,14.00,CLR,M,M,M,M,M,M,M,M,M,M,M,M,M,M,87.17,KCXP 210115Z AUTO 28009G14KT 10SM CLR 33/02 A3001 RMK AO2,M
BVU,2022-08-21 01:15,-114.8611,35.9475,671.00,89.60,57.20,33.56,120.00,9.00,0.00,29.82,M,M,M,M,M,M,M,M,M,M,M,M,M,M,M,M,M,M,88.28,KBVU 210115Z AUTO 12009KT 32/14 A2982 RMK AO2 PWINO TSNO,M
BAM,2022-08-21 01:15,-116.8743,40.5990,1382.36,91.40,41.00,17.32,340.00,10.00,0.00,29.97,M,10.00,M,CLR,M,M,M,M,M,M,M,M,M,M,M,M,M,M,87.40,KBAM 210115Z AUTO 34010KT 10SM CLR 33/05 A2997 RMK AO1,M
BAM,2022-08-21 01:35,-116.8743,40.5990,1382.36,91.40,41.00,17.32,330.00,6.00,0.00,29.98,M,10.00,M,CLR,M,M,M,M,M,M,M,M,M,M,M,M,M,M,87.40,KBAM 210135Z AUTO 33006KT 10SM CLR 33/05 A2998 RMK AO1,M
MEV,2022-08-21 01:35,-119.7500,38.9963,1441.42,87.80,39.20,18.09,280.00,11.00,0.00,30.01,M,10.00,M,CLR,M,M,M,M,M,M,M,M,M,M,M,M,M,M,84.22,KMEV 210135Z AUTO 28011KT 10SM CLR 31/04 A3001 RMK AO2,M
BVU,2022-08-21 01:35,-114.8611,35.9475,671.00,91.40,55.40,29.72,120.00,5.00,0.00,29.81,M,M,M,M,M,M,M,M,M,M,M,M,M,M,M,M,M,M,89.53,KBVU 210135Z AUTO 12005KT 33/13 A2981 RMK AO2 PWINO TSNO,M
HTH,2022-08-21 01:35,-118.6315,38.5448,1282.89,93.20,28.40,9.91,320.00,10.00,0.00,29.94,M,10.00,M,CLR,M,M,M,M,M,M,M,M,M,M,M,M,M,M,87.89,KHTH 210135Z AUTO 32010KT 10SM CLR 34/M02 A2994 RMK A01,M
TMT,2022-08-21 01:35,-117.1971,39.4643,1749.34,M,M,M,360.00,7.00,0.00,30.09,M,10.00,M,CLR,M,M,M,M,M,M,M,M,M,M,M,M,M,M,M,KTMT 210135Z AUTO 36007KT 10SM CLR A3009 RMK AO2,M
CXP,2022-08-21 01:35,-119.7326,39.1923,1431.00,91.40,33.80,13.05,270.00,10.00,0.00,30.01,M,10.00,15.00,CLR,M,M,M,M,M,M,M,M,M,M,M,M,M,M,87.13,KCXP 210135Z AUTO 27010G15KT 10SM CLR 33/01 A3001 RMK AO2,M
RTS,2022-08-21 01:35,-119.8764,39.6682,1539.00,89.60,28.40,11.09,280.00,7.00,0.00,30.04,M,10.00,12.00,CLR,M,M,M,M,M,M,M,M,M,M,M,M,M,M,85.17,KRTS 210135Z AUTO 28007G12KT 10SM CLR 32/M02 A3004 RMK AO2,M
DRA,2022-08-21 01:53,-116.0278,36.6206,1009.00,97.00,38.00,12.91,230.00,5.00,0.00,29.85,1005.20,10.00,M,CLR,M,M,M,M,M,M,M,M,M,M,M,M,M,M,92.30,KDRA 210153Z AUTO 23005KT 10SM CLR 36/03 A2985 RMK AO2 SLP052 T03610033,M
ELY,2022-08-21 01:53,-114.8453,39.2950,1909.00,79.00,43.00,27.84,350.00,6.00,0.00,30.12,1010.60,10.00,M,BKN,M,M,M,10000.00,M,M,M,M,M,M,M,M,M,M,79.00,KELY 210153Z AUTO 35006KT 10SM BKN100 26/06 A3012 RMK AO2 SLP106 T02610061,M
P68,2022-08-21 01:53,-116.0056,39.6014,1993.00,82.00,39.00,21.62,360.00,8.00,0.00,30.08,1010.40,M,M,M,M,M,M,M,M,M,M,M,M,M,M,M,M,M,79.94,KP68 210153Z AUTO 36008KT 28/04 A3008 RMK AO1 SLP104 T02780039,M
VGT,2022-08-21 01:53,-115.1933,36.2111,667.00,96.00,57.00,27.23,250.00,5.00,0.00,29.79,1007.20,10.00,M,CLR,M,M,M,M,M,M,M,M,M,M,M,M,M,M,94.94,KVGT 210153Z 25005KT 10SM CLR 36/14 A2979 RMK AO2 SLP072 T03560139,M
LOL,2022-08-21 01:53,-118.5701,40.0684,1192.43,93.00,40.00,15.79,140.00,5.00,0.00,29.91,1008.60,10.00,M,CLR,M,M,M,M,M,M,M,M,M,M,M,M,M,M,88.78,KLOL 210153Z AUTO 14005KT 10SM CLR 34/04 A2991 RMK AO2 SLP086 T03390044,M
CXP,2022-08-21 01:55,-119.7326,39.1923,1431.00,89.60,35.60,14.83,280.00,8.00,0.00,30.01,M,10.00,M,CLR,M,M,M,M,M,M,M,M,M,M,M,M,M,M,85.62,KCXP 210155Z AUTO 28008KT 10SM CLR 32/02 A3001 RMK AO2,M
MEV,2022-08-21 01:55,-119.7500,38.9963,1441.42,87.80,39.20,18.09,280.00,10.00,0.00,30.01,M,10.00,16.00,CLR,M,M,M,M,M,M,M,M,M,M,M,M,M,M,84.22,KMEV 210155Z AUTO 28010G16KT 10SM CLR 31/04 A3001 RMK AO2,M
BAM,2022-08-21 01:55,-116.8743,40.5990,1382.36,89.60,41.00,18.33,330.00,8.00,0.00,29.98,M,10.00,M,CLR,M,M,M,M,M,M,M,M,M,M,M,M,M,M,85.82,KBAM 210155Z AUTO 33008KT 10SM CLR 32/05 A2998 RMK AO1,M
HTH,2022-08-21 01:55,-118.6315,38.5448,1282.89,93.20,28.40,9.91,310.00,8.00,0.00,29.94,M,10.00,M,CLR,M,M,M,M,M,M,M,M,M,M,M,M,M,M,87.89,KHTH 210155Z AUTO 31008KT 10SM CLR 34/M02 A2994 RMK A01,M
BVU,2022-08-21 01:55,-114.8611,35.9475,671.00,91.40,57.20,31.72,0.00,0.00,0.00,29.81,M,M,M,M,M,M,M,M,M,M,M,M,M,M,M,M,M,M,90.06,KBVU 210155Z AUTO 00000KT 33/14 A2981 RMK AO2 PWINO TSNO,M
RNO,2022-08-21 01:55,-119.7711,39.4839,1341.00,93.00,39.00,15.24,310.00,8.00,0.00,29.97,1008.40,10.00,M,FEW,M,M,M,10000.00,M,M,M,M,M,M,M,M,M,M,88.73,KRNO 210155Z 31008KT 10SM FEW100 34/04 A2997 RMK AO2 SLP084 T03390039,M
TMT,2022-08-21 01:55,-117.1971,39.4643,1749.34,M,M,M,350.00,8.00,0.00,30.09,M,10.00,M,CLR,M,M,M,M,M,M,M,M,M,M,M,M,M,M,M,KTMT 210155Z AUTO 35008KT 10SM CLR A3009 RMK AO2,M
RTS,2022-08-21 01:55,-119.8764,39.6682,1539.00,87.80,32.00,13.59,290.00,12.00,0.00,30.04,M,10.00,M,CLR,M,M,M,M,M,M,M,M,M,M,M,M,M,M,84.08,KRTS 210155Z AUTO 29012KT 10SM CLR 31/M00 A3004 RMK AO2,M
WMC,2022-08-21 01:56,-117.8072,40.9019,1315.00,93.00,37.00,14.09,320.00,4.00,0.00,29.95,1009.00,10.00,M,CLR,M,M,M,M,M,M,M,M,M,M,M,M,M,M,88.63,KWMC 210156Z AUTO 32004KT 10SM CLR 34/03 A2995 RMK AO2 SLP090 T03390028 $,M
HND,2022-08-21 01:56,-115.1344,35.9729,742.79,94.00,55.00,27.10,210.00,11.00,0.00,29.83,1008.60,10.00,M,CLR,M,M,M,M,M,M,M,M,M,M,M,M,M,M,91.95,KHND 210156Z 21011KT 10SM CLR 34/13 A2983 RMK AO2 SLP086 T03440128,M
TPH,2022-08-21 01:56,-117.0904,38.0505,1654.00,89.00,34.00,14.14,310.00,7.00,0.00,30.04,1008.60,10.00,M,CLR,M,M,M,M,M,M,M,M,M,M,M,M,M,M,85.17,KTPH 210156Z AUTO 31007KT 10SM CLR 32/01 A3004 RMK AO2 SLP086 T03170011,M
LAS,2022-08-21 01:56,-115.1634,36.0719,663.00,95.00,55.00,26.19,220.00,7.00,0.00,29.79,1005.90,10.00,M,FEW,SCT,BKN,M,13000.00,16000.00,22000.00,M,M,M,M,M,M,M,M,93.10,KLAS 210156Z 22007KT 10SM FEW130 SCT160 BKN220 35/13 A2979 RMK AO2 SLP059 T03500128,M
NFL,2022-08-21 01:56,-118.7010,39.4166,1199.00,94.00,34.00,12.17,80.00,5.00,0.00,29.92,1010.50,10.00,M,FEW,M,M,M,9000.00,M,M,M,M,M,M,M,M,M,M,89.13,KNFL 210156Z 08005KT 10SM FEW090 34/01 A2992 RMK AO2 SLP105 T03440011,M
EKO,2022-08-21 01:56,-115.7860,40.8242,1367.00,78.00,46.00,32.15,M,M,0.00,30.02,1012.00,10.00,M,FEW,M,M,M,11000.00,M,M,M,M,M,M,M,M,M,M,78.10,KEKO 210156Z AUTO 10SM FEW110 26/08 A3002 RMK AO2 SLP120 T02560078 $,M
INS,2022-08-21 01:58,-115.6733,36.5872,955.00,94.60,46.00,18.92,110.00,13.00,0.00,29.85,1005.40,10.00,M,BKN,M,M,M,17000.00,M,M,M,M,M,M,M,M,M,M,90.83,KINS 210158Z AUTO 11013KT 10SM BKN170 35/08 A2985 RMK AO2 SLP054 T03480077 $,M
LSV,2022-08-21 01:58,-115.0343,36.2362,570.00,97.30,56.70,25.96,0.00,0.00,0.00,29.76,1005.10,10.00,M,CLR,M,M,M,M,M,M,M,M,M,M,M,M,M,M,96.14,KLSV 210158Z AUTO 00000KT 10SM CLR 36/14 A2976 RMK AO2 SLP051 T03630137 $,M
TMT,2022-08-21 02:15,-117.1971,39.4643,1749.34,M,M,M,340.00,8.00,0.00,30.10,M,10.00,M,CLR,M,M,M,M,M,M,M,M,M,M,M,M,M,M,M,KTMT 210215Z AUTO 34008KT 10SM CLR A3010 RMK AO2,M
BVU,2022-08-21 02:15,-114.8611,35.9475,671.00,95.00,51.80,23.30,150.00,6.00,0.00,29.81,M,M,M,M,M,M,M,M,M,M,M,M,M,M,M,M,M,M,92.26,KBVU 210215Z AUTO 15006KT 35/11 A2981 RMK AO2 PWINO TSNO,M
CXP,2022-08-21 02:15,-119.7326,39.1923,1431.00,87.80,37.40,16.86,280.00,6.00,0.00,30.02,M,10.00,12.00,CLR,M,M,M,M,M,M,M,M,M,M,M,M,M,M,84.16,KCXP 210215Z AUTO 28006G12KT 10SM CLR 31/03 A3002 RMK AO2,M
RTS,2022-08-21 02:15,-119.8764,39.6682,1539.00,86.00,33.80,15.48,280.00,12.00,0.00,30.05,M,10.00,M,CLR,M,M,M,M,M,M,M,M,M,M,M,M,M,M,82.66,KRTS 210215Z AUTO 28012KT 10SM CLR 30/01 A3005 RMK AO2,M
MEV,2022-08-21 02:15,-119.7500,38.9963,1441.42,86.00,39.20,19.15,270.00,11.00,0.00,30.01,M,10.00,17.00,CLR,M,M,M,M,M,M,M,M,M,M,M,M,M,M,82.79,KMEV 210215Z AUTO 27011G17KT 10SM CLR 30/04 A3001 RMK AO2,M
BAM,2022-08-21 02:15,-116.8743,40.5990,1382.36,89.60,41.00,18.33,340.00,7.00,0.00,29.99,M,10.00,M,CLR,M,M,M,M,M,M,M,M,M,M,M,M,M,M,85.82,KBAM 210215Z AUTO 34007KT 10SM CLR 32/05 A2999 RMK AO1,M
HTH,2022-08-21 02:15,-118.6315,38.5448,1282.89,91.40,30.20,11.28,300.00,6.00,0.00,29.94,M,10.00,M,CLR,M,M,M,M,M,M,M,M,M,M,M,M,M,M,86.71,KHTH 210215Z AUTO 30006KT 10SM CLR 33/M01 A2994 RMK A01,M
HTH,2022-08-21 02:35,-118.6315,38.5448,1282.89,89.60,30.20,11.94,300.00,6.00,0.00,29.95,M,10.00,M,CLR,M,M,M,M,M,M,M,M,M,M,M,M,M,M,85.34,KHTH 210235Z AUTO 30006KT 10SM CLR 32/M01 A2995 RMK A01,M
BVU,2022-08-21 02:35,-114.8611,35.9475,671.00,93.20,53.60,26.31,M,6.00,0.00,29.82,M,M,M,M,M,M,M,M,M,M,M,M,M,M,M,M,M,M,90.86,KBVU 210235Z AUTO VRB06KT 34/12 A2982 RMK AO2 PWINO TSNO,M
CXP,2022-08-21 02:35,-119.7326,39.1923,1431.00,86.00,37.40,17.85,M,6.00,0.00,30.02,M,10.00,M,CLR,M,M,M,M,M,M,M,M,M,M,M,M,M,M,82.73,KCXP 210235Z AUTO VRB06KT 10SM CLR 30/03 A3002 RMK AO2,M
RTS,2022-08-21 02:35,-119.8764,39.6682,1539.00,84.20,33.80,16.39,290.00,10.00,0.00,30.06,M,10.00,M,CLR,M,M,M,M,M,M,M,M,M,M,M,M,M,M,81.30,KRTS 210235Z AUTO 29010KT 10SM CLR 29/01 A3006 RMK AO2,M
MEV,2022-08-21 02:35,-119.7500,38.9963,1441.42,84.20,39.20,20.29,270.00,12.00,0.00,30.01,M,10.00,20.00,CLR,M,M,M,M,M,M,M,M,M,M,M,M,M,M,81.44,KMEV 210235Z AUTO 27012G20KT 10SM CLR 29/04 A3001 RMK AO2,M
BAM,2022-08-21 02:35,-116.8743,40.5990,1382.36,86.00,41.00,20.54,340.00,6.00,0.00,29.99,M,10.00,M,CLR,M,M,M,M,M,M,M,M,M,M,M,M,M,M,82.86,KBAM 210235Z AUTO 34006KT 10SM CLR 30/05 A2999 RMK AO1,M
TMT,2022-08-21 02:35,-117.1971,39.4643,1749.34,M,M,M,340.00,6.00,0.00,30.10,M,10.00,M,CLR,M,M,M,M,M,M,M,M,M,M,M,M,M,M,M,KTMT 210235Z AUTO 34006KT 10SM CLR A3010 RMK AO2,M
DRA,2022-08-21 02:53,-116.0278,36.6206,1009.00,93.00,47.00,20.64,100.00,11.00,0.00,29.86,1005.50,10.00,M,CLR,M,M,M,M,M,M,M,M,M,M,M,M,M,M,89.43,KDRA 210253Z AUTO 10011KT 10SM CLR 34/08 A2986 RMK AO2 SLP055 T03390083 53004,M
LOL,2022-08-21 02:53,-118.5701,40.0684,1192.43,88.00,41.00,19.28,280.00,4.00,0.00,29.92,1009.10,10.00,M,CLR,M,M,M,M,M,M,M,M,M,M,M,M,M,M,84.46,KLOL 210253Z AUTO 28004KT 10SM CLR 31/05 A2992 RMK AO2 SLP091 T03110050 53002,M
VGT,2022-08-21 02:53,-115.1933,36.2111,667.00,96.00,54.00,24.42,0.00,0.00,0.00,29.81,1007.90,10.00,M,CLR,M,M,M,M,M,M,M,M,M,M,M,M,M,M,93.97,KVGT 210253Z 00000KT 10SM CLR 36/12 A2981 RMK AO2 SLP079 T03560122 53009,M
ELY,2022-08-21 02:53,-114.8453,39.2950,1909.00,73.00,45.00,36.70,10.00,8.00,0.00,30.14,1011.30,10.00,M,SCT,M,M,M,10000.00,M,M,M,M,M,M,M,M,M,M,73.00,KELY 210253Z AUTO 01008KT 10SM SCT100 23/07 A3014 RMK AO2 SLP113 T02280072 53013,M
P68,2022-08-21 02:53,-116.0056,39.6014,1993.00,70.00,43.00,37.64,300.00,3.00,0.00,30.11,1011.80,M,M,M,M,M,M,M,M,M,M,M,M,M,M,M,M,M,70.00,KP68 210253Z AUTO 30003KT 21/06 A3011 RMK AO1 SLP118 T02110061 53010,M
CXP,2022-08-21 02:55,-119.7326,39.1923,1431.00,84.20,37.40,18.91,0.00,0.00,0.00,30.03,M,10.00,M,CLR,M,M,M,M,M,M,M,M,M,M,M,M,M,M,81.38,KCXP 210255Z AUTO 00000KT 10SM CLR 29/03 A3003 RMK AO2,M
RNO,2022-08-21 02:55,-119.7711,39.4839,1341.00,89.00,40.00,17.84,280.00,11.00,0.00,29.98,1009.10,10.00,M,CLR,M,M,M,M,M,M,M,M,M,M,M,M,M,M,85.34,KRNO 210255Z 28011KT 10SM CLR 32/04 A2998 RMK AO2 SLP091 T03170044 53006,M
MEV,2022-08-21 02:55,-119.7500,38.9963,1441.42,82.40,39.20,21.51,280.00,12.00,0.00,30.02,M,10.00,M,CLR,M,M,M,M,M,M,M,M,M,M,M,M,M,M,80.21,KMEV 210255Z AUTO 28012KT 10SM CLR 28/04 A3002 RMK AO2,M
BAM,2022-08-21 02:55,-116.8743,40.5990,1382.36,82.40,41.00,23.07,340.00,6.00,0.00,30.00,M,10.00,M,CLR,M,M,M,M,M,M,M,M,M,M,M,M,M,M,80.29,KBAM 210255Z AUTO 34006KT 10SM CLR 28/05 A3000 RMK AO1,M
TMT,2022-08-21 02:55,-117.1971,39.4643,1749.34,M,M,M,350.00,5.00,0.00,30.10,M,10.00,M,CLR,M,M,M,M,M,M,M,M,M,M,M,M,M,M,M,KTMT 210255Z AUTO 35005KT 10SM CLR A3010 RMK AO2,M
HTH,2022-08-21 02:55,-118.6315,38.5448,1282.89,87.80,30.20,12.64,310.00,7.00,0.00,29.95,M,10.00,M,CLR,M,M,M,M,M,M,M,M,M,M,M,M,M,M,84.01,KHTH 210255Z AUTO 31007KT 10SM CLR 31/M01 A2995 RMK A01,M
BVU,2022-08-21 02:55,-114.8611,35.9475,671.00,93.20,55.40,28.10,0.00,0.00,0.00,29.82,M,M,M,M,M,M,M,M,M,M,M,M,M,M,M,M,M,M,91.35,KBVU 210255Z AUTO 00000KT 34/13 A2982 RMK AO2 PWINO TSNO,M
RTS,2022-08-21 02:55,-119.8764,39.6682,1539.00,80.60,35.60,19.79,270.00,9.00,0.00,30.06,M,10.00,M,CLR,M,M,M,M,M,M,M,M,M,M,M,M,M,M,78.94,KRTS 210255Z AUTO 27009KT 10SM CLR 27/02 A3006 RMK AO2,M
WMC,2022-08-21 02:56,-117.8072,40.9019,1315.00,84.00,39.00,20.27,310.00,3.00,0.00,29.96,1009.30,10.00,M,CLR,M,M,M,M,M,M,M,M,M,M,M,M,M,M,81.29,KWMC 210256Z AUTO 31003KT 10SM CLR 29/04 A2996 RMK AO2 SLP093 T02890039 53002 $,M
HND,2022-08-21 02:56,-115.1344,35.9729,742.79,92.00,54.00,27.80,180.00,5.00,0.00,29.85,1009.40,10.00,M,CLR,M,M,M,M,M,M,M,M,M,M,M,M,M,M,89.66,KHND 210256Z 18005KT 10SM CLR 33/12 A2985 RMK AO2 SLP094 60000 T03330122 55003,M
TPH,2022-08-21 02:56,-117.0904,38.0505,1654.00,83.00,37.00,19.41,330.00,4.00,0.00,30.05,1008.80,10.00,M,CLR,M,M,M,M,M,M,M,M,M,M,M,M,M,M,80.46,KTPH 210256Z AUTO 33004KT 10SM CLR 28/03 A3005 RMK AO2 SLP088 T02830028 53004,M
LAS,2022-08-21 02:56,-115.1634,36.0719,663.00,94.00,55.00,27.10,230.00,4.00,0.00,29.81,1006.60,10.00,M,SCT,BKN,M,M,16000.00,22000.00,M,M,M,M,M,M,M,M,M,91.95,KLAS 210256Z 23004KT 10SM SCT160 BKN220 34/13 A2981 RMK AO2 SLP066 T03440128 53003,M
NFL,2022-08-21 02:56,-118.7010,39.4166,1199.00,87.00,36.00,16.31,90.00,4.00,0.00,29.93,1010.70,10.00,M,FEW,M,M,M,10000.00,M,M,M,M,M,M,M,M,M,M,83.56,KNFL 210256Z 09004KT 10SM FEW100 31/02 A2993 RMK AO2 SLP107 T03060022 53000,M
EKO,2022-08-21 02:56,-115.7860,40.8242,1367.00,75.00,46.00,35.64,60.00,4.00,0.00,30.03,1012.20,10.00,M,FEW,M,M,M,12000.00,M,M,M,M,M,M,M,M,M,M,75.00,KEKO 210256Z AUTO 06004KT 10SM FEW120 24/08 A3003 RMK AO2 SLP122 T02390078 53008 $,M
LSV,2022-08-21 02:58,-115.0343,36.2362,570.00,94.50,55.20,26.80,100.00,5.00,0.00,29.78,1005.80,10.00,M,CLR,M,M,M,M,M,M,M,M,M,M,M,M,M,M,92.64,KLSV 210258Z AUTO 10005KT 10SM CLR 35/13 A2978 RMK AO2 SLP058 T03470129 50008 $,M
INS,2022-08-21 02:58,-115.6733,36.5872,955.00,91.40,48.40,22.96,110.00,15.00,0.00,29.87,1006.10,10.00,M,FEW,M,M,M,17000.00,M,M,M,M,M,M,M,M,M,M,88.12,KINS 210258Z AUTO 11015KT 10SM FEW170 33/09 A2987 RMK AO2 SLP061 T03300091 50009 $,M
CXP,2022-08-21 03:15,-119.7326,39.1923,1431.00,82.40,37.40,20.04,0.00,0.00,0.00,30.04,M,10.00,M,CLR,M,M,M,M,M,M,M,M,M,M,M,M,M,M,80.14,KCXP 210315Z AUTO 00000KT 10SM CLR 28/03 A3004 RMK AO2,M
HTH,2022-08-21 03:15,-118.6315,38.5448,1282.89,86.00,30.20,13.38,310.00,8.00,0.00,29.96,M,10.00,M,CLR,M,M,M,M,M,M,M,M,M,M,M,M,M,M,82.64,KHTH 210315Z AUTO 31008KT 10SM CLR 30/M01 A2996 RMK A01,M
BAM,2022-08-21 03:15,-116.8743,40.5990,1382.36,82.40,41.00,23.07,340.00,7.00,0.00,30.00,M,10.00,M,CLR,M,M,M,M,M,M,M,M,M,M,M,M,M,M,80.29,KBAM 210315Z AUTO 34007KT 10SM CLR 28/05 A3000 RMK AO1,M
MEV,2022-08-21 03:15,-119.7500,38.9963,1441.42,82.40,39.20,21.51,280.00,13.00,0.00,30.03,M,10.00,M,CLR,M,M,M,M,M,M,M,M,M,M,M,M,M,M,80.21,KMEV 210315Z AUTO 28013KT 10SM CLR 28/04 A3003 RMK AO2,M
TMT,2022-08-21 03:15,-117.1971,39.4643,1749.34,M,M,M,350.00,4.00,0.00,30.11,M,10.00,M,CLR,M,M,M,M,M,M,M,M,M,M,M,M,M,M,M,KTMT 210315Z AUTO 35004KT 10SM CLR A3011 RMK AO2 LTG DSNT NE,M
RTS,2022-08-21 03:15,-119.8764,39.6682,1539.00,78.80,35.60,21.00,290.00,8.00,0.00,30.07,M,10.00,M,CLR,M,M,M,M,M,M,M,M,M,M,M,M,M,M,78.80,KRTS 210315Z AUTO 29008KT 10SM CLR 26/02 A3007 RMK AO2,M
BVU,2022-08-21 03:15,-114.8611,35.9475,671.00,93.20,57.20,29.99,190.00,4.00,0.00,29.82,M,M,M,M,M,M,M,M,M,M,M,M,M,M,M,M,M,M,91.91,KBVU 210315Z AUTO 19004KT 34/14 A2982 RMK AO2 PWINO TSNO,M
CXP,2022-08-21 03:35,-119.7326,39.1923,1431.00,80.60,39.20,22.81,0.00,0.00,0.00,30.05,M,10.00,M,CLR,M,M,M,M,M,M,M,M,M,M,M,M,M,M,79.10,KCXP 210335Z AUTO 00000KT 10SM CLR 27/04 A3005 RMK AO2,M
TMT,2022-08-21 03:35,-117.1971,39.4643,1749.34,66.70,34.70,30.48,110.00,3.00,0.00,30.12,M,10.00,M,CLR,M,M,M,M,M,M,M,M,M,M,M,M,M,M,66.70,KTMT 210335Z AUTO 11003KT 10SM CLR 19/02 A3012 RMK AO2 T01930015,M
HTH,2022-08-21 03:35,-118.6315,38.5448,1282.89,86.00,33.80,15.48,320.00,7.00,0.00,29.97,M,10.00,M,CLR,M,M,M,M,M,M,M,M,M,M,M,M,M,M,82.66,KHTH 210335Z AUTO 32007KT 10SM CLR 30/01 A2997 RMK A01,M
BAM,2022-08-21 03:35,-116.8743,40.5990,1382.36,80.60,41.00,24.46,290.00,3.00,0.00,30.01,M,10.00,M,CLR,M,M,M,M,M,M,M,M,M,M,M,M,M,M,79.20,KBAM 210335Z AUTO 29003KT 10SM CLR 27/05 A3001 RMK AO1,M
MEV,2022-08-21 03:35,-119.7500,38.9963,1441.42,80.60,39.20,22.81,280.00,10.00,0.00,30.04,M,10.00,15.00,CLR,M,M,M,M,M,M,M,M,M,M,M,M,M,M,79.10,KMEV 210335Z AUTO 28010G15KT 10SM CLR 27/04 A3004 RMK AO2,M
BVU,2022-08-21 03:35,-114.8611,35.9475,671.00,91.40,59.00,33.84,190.00,5.00,0.00,29.83,M,M,M,M,M,M,M,M,M,M,M,M,M,M,M,M,M,M,90.68,KBVU 210335Z AUTO 19005KT 33/15 A2983 RMK AO2 PWINO TSNO,M
RTS,2022-08-21 03:35,-119.8764,39.6682,1539.00,78.80,37.40,22.54,250.00,6.00,0.00,30.08,M,10.00,M,CLR,M,M,M,M,M,M,M,M,M,M,M,M,M,M,78.80,KRTS 210335Z AUTO 25006KT 10SM CLR 26/03 A3008 RMK AO2,M
VGT,2022-08-21 03:53,-115.1933,36.2111,667.00,94.00,54.00,26.13,120.00,3.00,0.00,29.82,1008.40,10.00,M,CLR,M,M,M,M,M,M,M,M,M,M,M,M,M,M,91.68,KVGT 210353Z 12003KT 10SM CLR 34/12 A2982 RMK AO2 SLP084 T03440122,M
DRA,2022-08-21 03:53,-116.0278,36.6206,1009.00,93.00,45.00,19.21,130.00,8.00,0.00,29.88,1005.90,10.00,M,CLR,M,M,M,M,M,M,M,M,M,M,M,M,M,M,89.20,KDRA 210353Z AUTO 13008KT 10SM CLR 34/07 A2988 RMK AO2 SLP059 T03390072,M
ELY,2022-08-21 03:53,-114.8453,39.2950,1909.00,66.00,46.00,48.43,300.00,5.00,0.00,30.16,1012.00,10.00,M,CLR,M,M,M,M,M,M,M,M,M,M,M,M,M,M,66.00,KELY 210353Z AUTO 30005KT 10SM CLR 19/08 A3016 RMK AO2 SLP120 T01890078,M
P68,2022-08-21 03:53,-116.0056,39.6014,1993.00,65.00,42.00,43.36,150.00,6.00,0.00,30.13,1012.40,M,M,M,M,M,M,M,M,M,M,M,M,M,M,M,M,M,64.90,KP68 210353Z AUTO 15006KT 18/06 A3013 RMK AO1 SLP124 T01830056,M
LOL,2022-08-21 03:53,-118.5701,40.0684,1192.43,87.00,35.00,15.74,280.00,3.00,0.00,29.94,1009.10,10.00,M,CLR,M,M,M,M,M,M,M,M,M,M,M,M,M,M,83.55,KLOL 210353Z AUTO 28003KT 10SM CLR 31/02 A2994 RMK AO2 SLP091 T03060017,M
HTH,2022-08-21 03:55,-118.6315,38.5448,1282.89,86.00,39.20,19.15,320.00,8.00,0.00,29.98,M,10.00,M,CLR,M,M,M,M,M,M,M,M,M,M,M,M,M,M,82.79,KHTH 210355Z AUTO 32008KT 10SM CLR 30/04 A2998 RMK A01,M
RTS,2022-08-21 03:55,-119.8764,39.6682,1539.00,77.00,37.40,23.93,270.00,7.00,0.00,30.09,M,10.00,M,CLR,M,M,M,M,M,M,M,M,M,M,M,M,M,M,77.00,KRTS 210355Z AUTO 27007KT 10SM CLR 25/03 A3009 RMK AO2,M
CXP,2022-08-21 03:55,-119.7326,39.1923,1431.00,80.60,37.40,21.25,0.00,0.00,0.00,30.05,M,10.00,M,CLR,M,M,M,M,M,M,M,M,M,M,M,M,M,M,79.02,KCXP 210355Z AUTO 00000KT 10SM CLR 27/03 A3005 RMK AO2,M
BVU,2022-08-21 03:55,-114.8611,35.9475,671.00,91.40,57.20,31.72,140.00,4.00,0.00,29.84,M,M,M,M,M,M,M,M,M,M,M,M,M,M,M,M,M,M,90.06,KBVU 210355Z AUTO 14004KT 33/14 A2984 RMK AO2 PWINO TSNO,M
MEV,2022-08-21 03:55,-119.7500,38.9963,1441.42,80.60,39.20,22.81,270.00,8.00,0.00,30.05,M,10.00,13.00,CLR,M,M,M,M,M,M,M,M,M,M,M,M,M,M,79.10,KMEV 210355Z AUTO 27008G13KT 10SM CLR 27/04 A3005 RMK AO2,M
BAM,2022-08-21 03:55,-116.8743,40.5990,1382.36,77.00,41.00,27.53,300.00,4.00,0.00,30.01,M,10.00,M,CLR,M,M,M,M,M,M,M,M,M,M,M,M,M,M,77.00,KBAM 210355Z AUTO 30004KT 10SM CLR 25/05 A3001 RMK AO1,M
RNO,2022-08-21 03:55,-119.7711,39.4839,1341.00,86.00,41.00,20.54,290.00,13.00,0.00,30.01,1010.10,10.00,M,CLR,M,M,M,M,M,M,M,M,M,M,M,M,M,M,82.86,KRNO 210355Z 29013KT 10SM CLR 30/05 A3001 RMK AO2 SLP101 T03000050,M
TMT,2022-08-21 03:55,-117.1971,39.4643,1749.34,64.00,34.70,33.48,0.00,0.00,0.00,30.13,M,10.00,M,CLR,M,M,M,M,M,M,M,M,M,M,M,M,M,M,64.00,KTMT 210355Z AUTO 00000KT 10SM CLR 18/02 A3013 RMK AO2 T01780015,M
HND,2022-08-21 03:56,-115.1344,35.9729,742.79,90.00,54.00,29.51,210.00,3.00,0.00,29.87,1009.90,10.00,M,CLR,M,M,M,M,M,M,M,M,M,M,M,M,M,M,87.82,KHND 210356Z AUTO 21003KT 10SM CLR 32/12 A2987 RMK AO2 SLP099 T03220122,M
NFL,2022-08-21 03:56,-118.7010,39.4166,1199.00,81.00,40.00,23.13,60.00,5.00,0.00,29.94,1011.20,10.00,M,CLR,M,M,M,M,M,M,M,M,M,M,M,M,M,M,79.37,KNFL 210356Z 06005KT 10SM CLR 27/04 A2994 RMK AO2 SLP112 T02720044,M
EKO,2022-08-21 03:56,-115.7860,40.8242,1367.00,70.00,49.00,47.06,300.00,3.00,0.00,30.06,1013.10,10.00,M,CLR,M,M,M,M,M,M,M,M,M,M,M,M,M,M,70.00,KEKO 210356Z AUTO 30003KT 10SM CLR 21/09 A3006 RMK AO2 SLP131 T02110094 $,M
WMC,2022-08-21 03:56,-117.8072,40.9019,1315.00,76.00,39.00,26.42,120.00,3.00,0.00,29.98,1010.10,10.00,M,CLR,M,M,M,M,M,M,M,M,M,M,M,M,M,M,75.90,KWMC 210356Z AUTO 12003KT 10SM CLR 24/04 A2998 RMK AO2 SLP101 T02440039 $,M
TPH,2022-08-21 03:56,-117.0904,38.0505,1654.00,77.00,39.00,25.47,350.00,4.00,0.00,30.07,1009.60,10.00,M,CLR,M,M,M,M,M,M,M,M,M,M,M,M,M,M,77.00,KTPH 210356Z AUTO 35004KT 10SM CLR 25/04 A3007 RMK AO2 SLP096 T02500039,M
LAS,2022-08-21 03:56,-115.1634,36.0719,663.00,93.00,55.00,27.87,150.00,3.00,0.00,29.83,1007.20,10.00,M,SCT,BKN,M,M,16000.00,22000.00,M,M,M,M,M,M,M,M,M,91.03,KLAS 210356Z 15003KT 10SM SCT160 BKN220 34/13 A2983 RMK AO2 SLP072 T03390128,M
INS,2022-08-21 03:58,-115.6733,36.5872,955.00,88.20,49.00,25.87,100.00,13.00,0.00,29.88,1006.50,10.00,M,CLR,M,M,M,M,M,M,M,M,M,M,M,M,M,M,85.30,KINS 210358Z AUTO 10013KT 10SM CLR 31/09 A2988 RMK AO2 SLP065 T03120094 $,M
LSV,2022-08-21 03:58,-115.0343,36.2362,570.00,92.50,58.30,31.89,0.00,0.00,0.00,29.80,1006.40,10.00,M,SCT,M,M,M,17000.00,M,M,M,M,M,M,M,M,M,M,91.56,KLSV 210358Z AUTO 00000KT 10SM SCT170 34/15 A2980 RMK AO2 SLP064 T03360146 $,M
HTH,2022-08-21 04:15,-118.6315,38.5448,1282.89,86.00,33.80,15.48,0.00,0.00,0.00,29.99,M,10.00,M,CLR,M,M,M,M,M,M,M,M,M,M,M,M,M,M,82.66,KHTH 210415Z AUTO 00000KT 10SM CLR 30/01 A2999 RMK A01,M
BVU,2022-08-21 04:15,-114.8611,35.9475,671.00,91.40,57.20,31.72,0.00,0.00,0.00,29.85,M,M,M,M,M,M,M,M,M,M,M,M,M,M,M,M,M,M,90.06,KBVU 210415Z AUTO 00000KT 33/14 A2985 RMK AO2 PWINO TSNO,M
CXP,2022-08-21 04:15,-119.7326,39.1923,1431.00,80.60,37.40,21.25,130.00,4.00,0.00,30.06,M,10.00,M,CLR,M,M,M,M,M,M,M,M,M,M,M,M,M,M,79.02,KCXP 210415Z AUTO 13004KT 10SM CLR 27/03 A3006 RMK AO2,M
RTS,2022-08-21 04:15,-119.8764,39.6682,1539.00,75.20,37.40,25.40,290.00,5.00,0.00,30.10,M,10.00,M,CLR,M,M,M,M,M,M,M,M,M,M,M,M,M,M,75.20,KRTS 210415Z AUTO 29005KT 10SM CLR 24/03 A3010 RMK AO2,M
BAM,2022-08-21 04:15,-116.8743,40.5990,1382.36,75.20,41.00,29.23,0.00,0.00,0.00,30.02,M,10.00,M,CLR,M,M,M,M,M,M,M,M,M,M,M,M,M,M,75.20,KBAM 210415Z AUTO 00000KT 10SM CLR 24/05 A3002 RMK AO1,M
MEV,2022-08-21 04:15,-119.7500,38.9963,1441.42,77.00,39.20,25.67,0.00,0.00,0.00,30.06,M,10.00,M,CLR,M,M,M,M,M,M,M,M,M,M,M,M,M,M,77.00,KMEV 210415Z AUTO 00000KT 10SM CLR 25/04 A3006 RMK AO2,M
TMT,2022-08-21 04:15,-117.1971,39.4643,1749.34,63.30,33.00,32.19,160.00,3.00,0.00,30.14,M,10.00,M,CLR,M,M,M,M,M,M,M,M,M,M,M,M,M,M,63.30,KTMT 210415Z AUTO 16003KT 10SM CLR 17/01 A3014 RMK AO2 T01740006,M
MEV,2022-08-21 04:35,-119.7500,38.9963,1441.42,71.60,41.00,33.00,150.00,5.00,0.00,30.07,M,10.00,M,CLR,M,M,M,M,M,M,M,M,M,M,M,M,M,M,71.60,KMEV 210435Z AUTO 15005KT 10SM CLR 22/05 A3007 RMK AO2,M
BAM,2022-08-21 04:35,-116.8743,40.5990,1382.36,71.60,39.20,30.77,180.00,3.00,0.00,30.03,M,10.00,M,CLR,M,M,M,M,M,M,M,M,M,M,M,M,M,M,71.60,KBAM 210435Z AUTO 18003KT 10SM CLR 22/04 A3003 RMK AO1,M
TMT,2022-08-21 04:35,-117.1971,39.4643,1749.34,60.00,32.00,34.49,200.00,3.00,0.00,30.14,M,10.00,M,CLR,M,M,M,M,M,M,M,M,M,M,M,M,M,M,60.10,KTMT 210435Z AUTO 20003KT 10SM CLR 16/00 A3014 RMK AO2 T01560000,M
HTH,2022-08-21 04:35,-118.6315,38.5448,1282.89,86.00,32.00,14.40,0.00,0.00,0.00,30.00,M,10.00,M,CLR,M,M,M,M,M,M,M,M,M,M,M,M,M,M,82.64,KHTH 210435Z AUTO 00000KT 10SM CLR 30/00 A3000 RMK A01,M
BVU,2022-08-21 04:35,-114.8611,35.9475,671.00,91.40,55.40,29.72,0.00,0.00,0.00,29.86,M,M,M,M,M,M,M,M,M,M,M,M,M,M,M,M,M,M,89.53,KBVU 210435Z AUTO 00000KT 33/13 A2986 RMK AO2 PWINO TSNO,M
CXP,2022-08-21 04:35,-119.7326,39.1923,1431.00,78.80,39.20,24.19,0.00,0.00,0.00,30.08,M,10.00,M,CLR,M,M,M,M,M,M,M,M,M,M,M,M,M,M,78.80,KCXP 210435Z AUTO 00000KT 10SM CLR 26/04 A3008 RMK AO2,M
RTS,2022-08-21 04:35,-119.8764,39.6682,1539.00,77.00,37.40,23.93,290.00,8.00,0.00,30.10,M,10.00,M,CLR,M,M,M,M,M,M,M,M,M,M,M,M,M,M,77.00,KRTS 210435Z AUTO 29008KT 10SM CLR 25/03 A3010 RMK AO2,M
DRA,2022-08-21 04:53,-116.0278,36.6206,1009.00,86.00,47.00,25.74,210.00,5.00,0.00,29.90,1006.80,10.00,M,CLR,M,M,M,M,M,M,M,M,M,M,M,M,M,M,83.27,KDRA 210453Z AUTO 21005KT 10SM CLR 30/08 A2990 RMK AO2 SLP068 T03000083,M
LOL,2022-08-21 04:53,-118.5701,40.0684,1192.43,74.00,43.00,32.98,80.00,4.00,0.00,29.96,1010.00,10.00,M,CLR,M,M,M,M,M,M,M,M,M,M,M,M,M,M,73.90,KLOL 210453Z AUTO 08004KT 10SM CLR 23/06 A2996 RMK AO2 SLP100 T02330061,M
P68,2022-08-21 04:53,-116.0056,39.6014,1993.00,62.00,41.00,45.84,190.00,4.00,0.00,30.14,1012.30,M,M,M,M,M,M,M,M,M,M,M,M,M,M,M,M,M,62.10,KP68 210453Z AUTO 19004KT 17/05 A3014 RMK AO1 SLP123 T01670050,M
ELY,2022-08-21 04:53,-114.8453,39.2950,1909.00,60.00,44.00,55.44,170.00,4.00,0.00,30.18,1012.60,10.00,M,CLR,M,M,M,M,M,M,M,M,M,M,M,M,M,M,60.10,KELY 210453Z AUTO 17004KT 10SM CLR 16/07 A3018 RMK AO2 SLP126 T01560067,M
VGT,2022-08-21 04:53,-115.1933,36.2111,667.00,93.00,54.00,26.87,140.00,4.00,0.00,29.84,1009.00,10.00,M,CLR,M,M,M,M,M,M,M,M,M,M,M,M,M,M,90.76,KVGT 210453Z AUTO 14004KT 10SM CLR 34/12 A2984 RMK AO2 SLP090 T03390122,M
CXP,2022-08-21 04:55,-119.7326,39.1923,1431.00,78.80,37.40,22.54,M,3.00,0.00,30.08,M,10.00,M,CLR,M,M,M,M,M,M,M,M,M,M,M,M,M,M,78.80,KCXP 210455Z AUTO VRB03KT 10SM CLR 26/03 A3008 RMK AO2,M
TMT,2022-08-21 04:55,-117.1971,39.4643,1749.34,59.70,32.20,35.26,200.00,5.00,0.00,30.15,M,10.00,M,CLR,M,M,M,M,M,M,M,M,M,M,M,M,M,M,59.70,KTMT 210455Z AUTO 20005KT 10SM CLR 15/00 A3015 RMK AO2 T01540001,M
MEV,2022-08-21 04:55,-119.7500,38.9963,1441.42,71.60,41.00,33.00,120.00,4.00,0.00,30.08,M,10.00,M,CLR,M,M,M,M,M,M,M,M,M,M,M,M,M,M,71.60,KMEV 210455Z AUTO 12004KT 10SM CLR 22/05 A3008 RMK AO2,M
BAM,2022-08-21 04:55,-116.8743,40.5990,1382.36,71.60,39.20,30.77,170.00,5.00,0.00,30.03,M,10.00,M,CLR,M,M,M,M,M,M,M,M,M,M,M,M,M,M,71.60,KBAM 210455Z AUTO 17005KT 10SM CLR 22/04 A3003 RMK AO1,M
RNO,2022-08-21 04:55,-119.7711,39.4839,1341.00,84.00,41.00,21.90,290.00,7.00,0.00,30.04,1010.80,10.00,M,CLR,M,M,M,M,M,M,M,M,M,M,M,M,M,M,81.37,KRNO 210455Z 29007KT 10SM CLR 29/05 A3004 RMK AO2 SLP108 T02890050,M
RTS,2022-08-21 04:55,-119.8764,39.6682,1539.00,75.20,37.40,25.40,300.00,8.00,0.00,30.11,M,10.00,M,CLR,M,M,M,M,M,M,M,M,M,M,M,M,M,M,75.20,KRTS 210455Z AUTO 30008KT 10SM CLR 24/03 A3011 RMK AO2,M
HTH,2022-08-21 04:55,-118.6315,38.5448,1282.89,84.20,35.60,17.61,0.00,0.00,0.00,30.01,M,10.00,M,CLR,M,M,M,M,M,M,M,M,M,M,M,M,M,M,81.34,KHTH 210455Z AUTO 00000KT 10SM CLR 29/02 A3001 RMK A01,M
BVU,2022-08-21 04:55,-114.8611,35.9475,671.00,87.80,60.80,40.41,0.00,0.00,0.00,29.86,M,M,M,M,M,M,M,M,M,M,M,M,M,M,M,M,M,M,87.75,KBVU 210455Z AUTO 00000KT 31/16 A2986 RMK AO2 PWINO TSNO,M
HND,2022-08-21 04:56,-115.1344,35.9729,742.79,88.00,59.00,37.66,160.00,8.00,0.00,29.89,1010.50,10.00,M,CLR,M,M,M,M,M,M,M,M,M,M,M,M,M,M,87.31,KHND 210456Z AUTO 16008KT 10SM CLR 31/15 A2989 RMK AO2 SLP105 T03110150,M
WMC,2022-08-21 04:56,-117.8072,40.9019,1315.00,69.00,38.00,31.85,150.00,5.00,0.00,29.99,1010.40,10.00,M,CLR,M,M,M,M,M,M,M,M,M,M,M,M,M,M,69.10,KWMC 210456Z AUTO 15005KT 10SM CLR 21/03 A2999 RMK AO2 SLP104 T02060033 $,M
EKO,2022-08-21 04:56,-115.7860,40.8242,1367.00,66.00,49.00,54.01,80.00,5.00,0.00,30.08,1013.60,10.00,M,CLR,M,M,M,M,M,M,M,M,M,M,M,M,M,M,66.00,KEKO 210456Z AUTO 08005KT 10SM CLR 19/09 A3008 RMK AO2 SLP136 T01890094 $,M
TPH,2022-08-21 04:56,-117.0904,38.0505,1654.00,76.00,32.00,20.01,350.00,6.00,0.00,30.09,1010.00,10.00,M,CLR,M,M,M,M,M,M,M,M,M,M,M,M,M,M,75.90,KTPH 210456Z AUTO 35006KT 10SM CLR 24/00 A3009 RMK AO2 SLP100 T02440000,M
LAS,2022-08-21 04:56,-115.1634,36.0719,663.00,92.00,54.00,27.80,0.00,0.00,0.00,29.85,1007.70,10.00,M,SCT,BKN,M,M,16000.00,22000.00,M,M,M,M,M,M,M,M,M,89.66,KLAS 210456Z 00000KT 10SM SCT160 BKN220 33/12 A2985 RMK AO2 SLP077 T03330122,M
NFL,2022-08-21 04:56,-118.7010,39.4166,1199.00,77.00,43.00,29.74,350.00,6.00,0.00,29.97,1011.90,10.00,M,CLR,M,M,M,M,M,M,M,M,M,M,M,M,M,M,77.00,KNFL 210456Z AUTO 35006KT 10SM CLR 25/06 A2997 RMK AO2 SLP119 T02500061,M
INS,2022-08-21 04:58,-115.6733,36.5872,955.00,86.70,46.60,24.88,100.00,12.00,0.00,29.89,1006.80,10.00,M,CLR,M,M,M,M,M,M,M,M,M,M,M,M,M,M,83.80,KINS 210458Z AUTO 10012KT 10SM CLR 30/08 A2989 RMK AO2 SLP068 T03040081 $,M
LSV,2022-08-21 04:58,-115.0343,36.2362,570.00,90.00,56.00,31.85,0.00,0.00,0.00,29.82,1007.00,10.00,M,CLR,M,M,M,M,M,M,M,M,M,M,M,M,M,M,88.35,KLSV 210458Z AUTO 00000KT 10SM CLR 32/13 A2982 RMK AO2 SLP070 T03220134 $,M
MEV,2022-08-21 05:15,-119.7500,38.9963,1441.42,66.20,39.20,37.03,170.00,8.00,0.00,30.08,M,10.00,M,CLR,M,M,M,M,M,M,M,M,M,M,M,M,M,M,66.20,KMEV 210515Z AUTO 17008KT 10SM CLR 19/04 A3008 RMK AO2,M
BVU,2022-08-21 05:15,-114.8611,35.9475,671.00,87.80,60.80,40.41,80.00,3.00,0.00,29.87,M,M,M,M,M,M,M,M,M,M,M,M,M,M,M,M,M,M,87.75,KBVU 210515Z AUTO 08003KT 31/16 A2987 RMK AO2 PWINO TSNO,M
CXP,2022-08-21 05:15,-119.7326,39.1923,1431.00,78.80,39.20,24.19,0.00,0.00,0.00,30.09,M,10.00,M,CLR,M,M,M,M,M,M,M,M,M,M,M,M,M,M,78.80,KCXP 210515Z AUTO 00000KT 10SM CLR 26/04 A3009 RMK AO2,M
RTS,2022-08-21 05:15,-119.8764,39.6682,1539.00,73.40,37.40,26.98,290.00,4.00,0.00,30.11,M,10.00,M,CLR,M,M,M,M,M,M,M,M,M,M,M,M,M,M,73.40,KRTS 210515Z AUTO 29004KT 10SM CLR 23/03 A3011 RMK AO2,M
BAM,2022-08-21 05:15,-116.8743,40.5990,1382.36,69.80,39.20,32.72,180.00,4.00,0.00,30.04,M,10.00,M,CLR,M,M,M,M,M,M,M,M,M,M,M,M,M,M,69.80,KBAM 210515Z AUTO 18004KT 10SM CLR 21/04 A3004 RMK AO1,M
HTH,2022-08-21 05:15,-118.6315,38.5448,1282.89,80.60,37.40,21.25,230.00,4.00,0.00,30.01,M,10.00,M,CLR,M,M,M,M,M,M,M,M,M,M,M,M,M,M,79.02,KHTH 210515Z AUTO 23004KT 10SM CLR 27/03 A3001 RMK A01,M
TMT,2022-08-21 05:15,-117.1971,39.4643,1749.34,57.70,32.00,37.58,180.00,4.00,0.00,30.15,M,10.00,M,CLR,M,M,M,M,M,M,M,M,M,M,M,M,M,M,57.70,KTMT 210515Z AUTO 18004KT 10SM CLR 14/00 A3015 RMK AO2 T01430000,M
MEV,2022-08-21 05:35,-119.7500,38.9963,1441.42,66.20,41.00,39.72,110.00,8.00,0.00,30.09,M,10.00,M,CLR,M,M,M,M,M,M,M,M,M,M,M,M,M,M,66.20,KMEV 210535Z AUTO 11008KT 10SM CLR 19/05 A3009 RMK AO2,M
HTH,2022-08-21 05:35,-118.6315,38.5448,1282.89,78.80,35.60,21.00,180.00,6.00,0.00,30.02,M,10.00,M,CLR,M,M,M,M,M,M,M,M,M,M,M,M,M,M,78.80,KHTH 210535Z AUTO 18006KT 10SM CLR 26/02 A3002 RMK A01,M
BAM,2022-08-21 05:35,-116.8743,40.5990,1382.36,68.00,37.40,32.43,180.00,4.00,0.00,30.04,M,10.00,M,CLR,M,M,M,M,M,M,M,M,M,M,M,M,M,M,68.00,KBAM 210535Z AUTO 18004KT 10SM CLR 20/03 A3004 RMK AO1,M
BVU,2022-08-21 05:35,-114.8611,35.9475,671.00,89.60,57.20,33.56,140.00,5.00,0.00,29.87,M,M,M,M,M,M,M,M,M,M,M,M,M,M,M,M,M,M,88.28,KBVU 210535Z AUTO 14005KT 32/14 A2987 RMK AO2 PWINO TSNO,M
TMT,2022-08-21 05:35,-117.1971,39.4643,1749.34,58.00,34.70,41.28,260.00,3.00,0.00,30.15,M,10.00,M,CLR,M,M,M,M,M,M,M,M,M,M,M,M,M,M,58.10,KTMT 210535Z AUTO 26003KT 10SM CLR 15/02 A3015 RMK AO2 T01450015,M
CXP,2022-08-21 05:35,-119.7326,39.1923,1431.00,77.00,41.00,27.53,0.00,0.00,0.00,30.10,M,10.00,M,CLR,M,M,M,M,M,M,M,M,M,M,M,M,M,M,77.00,KCXP 210535Z AUTO 00000KT 10SM CLR 25/05 A3010 RMK AO2,M
RTS,2022-08-21 05:35,-119.8764,39.6682,1539.00,73.40,35.60,25.13,300.00,5.00,0.00,30.12,M,10.00,M,CLR,M,M,M,M,M,M,M,M,M,M,M,M,M,M,73.40,KRTS 210535Z AUTO 30005KT 10SM CLR 23/02 A3012 RMK AO2,M
ELY,2022-08-21 05:53,-114.8453,39.2950,1909.00,59.00,45.00,59.67,170.00,7.00,0.00,30.20,1012.60,10.00,M,CLR,M,M,M,M,M,M,M,M,M,M,M,M,M,M,59.00,KELY 210553Z AUTO 17007KT 10SM CLR 15/07 A3020 RMK AO2 SLP126 T01500072 10289 20150 51014,M
DRA,2022-08-21 05:53,-116.0278,36.6206,1009.00,91.00,51.00,25.70,190.00,15.00,0.00,29.92,1007.00,10.00,25.00,CLR,M,M,M,M,M,M,M,M,M,M,M,M,M,M,88.18,KDRA 210553Z AUTO 19015G25KT 10SM CLR 33/11 A2992 RMK AO2 SLP070 T03280106 10383 20300 51016,M
LOL,2022-08-21 05:53,-118.5701,40.0684,1192.43,72.00,42.00,33.97,M,5.00,0.00,29.97,1010.40,10.00,M,CLR,M,M,M,M,M,M,M,M,M,M,M,M,M,M,72.00,KLOL 210553Z AUTO VRB05KT 10SM CLR 22/06 A2997 RMK AO2 SLP104 T02220056 10356 20211 51014,M
VGT,2022-08-21 05:53,-115.1933,36.2111,667.00,91.00,54.00,28.60,60.00,4.00,0.00,29.85,1009.50,10.00,M,CLR,M,M,M,M,M,M,M,M,M,M,M,M,M,M,88.78,KVGT 210553Z AUTO 06004KT 10SM CLR 33/12 A2985 RMK AO2 SLP095 T03280122 10372 20322 53015,M
P68,2022-08-21 05:53,-116.0056,39.6014,1993.00,66.00,41.00,39.99,170.00,7.00,0.00,30.15,1012.00,M,M,M,M,M,M,M,M,M,M,M,M,M,M,M,M,M,66.00,KP68 210553Z AUTO 17007KT 19/05 A3015 RMK AO1 SLP120 T01890050 10306 20161 51012,M
RNO,2022-08-21 05:55,-119.7711,39.4839,1341.00,81.00,42.00,25.19,270.00,4.00,0.00,30.06,1011.50,10.00,M,CLR,M,M,M,M,M,M,M,M,M,M,M,M,M,M,79.49,KRNO 210555Z 27004KT 10SM CLR 27/06 A3006 RMK AO2 SLP115 T02720056 10361 20272 51023,M
TMT,2022-08-21 05:55,-117.1971,39.4643,1749.34,58.00,37.00,45.04,240.00,6.00,0.00,30.16,M,10.00,M,CLR,M,M,M,M,M,M,M,M,M,M,M,M,M,M,58.10,KTMT 210555Z AUTO 24006KT 10SM CLR 15/03 A3016 RMK AO2 T01450027,M
HTH,2022-08-21 05:55,-118.6315,38.5448,1282.89,78.80,35.60,21.00,160.00,3.00,0.00,30.03,M,10.00,M,CLR,M,M,M,M,M,M,M,M,M,M,M,M,M,M,78.80,KHTH 210555Z AUTO 16003KT 10SM CLR 26/02 A3003 RMK A01,M
BAM,2022-08-21 05:55,-116.8743,40.5990,1382.36,68.00,37.40,32.43,170.00,5.00,0.00,30.04,M,10.00,M,CLR,M,M,M,M,M,M,M,M,M,M,M,M,M,M,68.00,KBAM 210555Z AUTO 17005KT 10SM CLR 20/03 A3004 RMK AO1,M
MEV,2022-08-21 05:55,-119.7500,38.9963,1441.42,68.00,39.20,34.80,110.00,5.00,0.00,30.10,M,10.00,M,CLR,M,M,M,M,M,M,M,M,M,M,M,M,M,M,68.00,KMEV 210555Z AUTO 11005KT 10SM CLR 20/04 A3010 RMK AO2,M
RTS,2022-08-21 05:55,-119.8764,39.6682,1539.00,73.40,35.60,25.13,0.00,0.00,0.00,30.12,M,10.00,M,CLR,M,M,M,M,M,M,M,M,M,M,M,M,M,M,73.40,KRTS 210555Z AUTO 00000KT 10SM CLR 23/02 A3012 RMK AO2,M
CXP,2022-08-21 05:55,-119.7326,39.1923,1431.00,75.20,39.20,27.26,0.00,0.00,0.00,30.10,M,10.00,M,CLR,M,M,M,M,M,M,M,M,M,M,M,M,M,M,75.20,KCXP 210555Z AUTO 00000KT 10SM CLR 24/04 A3010 RMK AO2,M
BVU,2022-08-21 05:55,-114.8611,35.9475,671.00,91.40,60.80,36.08,150.00,7.00,0.00,29.88,M,M,M,M,M,M,M,M,M,M,M,M,M,M,M,M,M,M,91.40,KBVU 210555Z AUTO 15007KT 33/16 A2988 RMK AO2 PWINO TSNO,M
EKO,2022-08-21 05:56,-115.7860,40.8242,1367.00,64.00,48.00,55.99,80.00,4.00,0.00,30.09,1013.90,10.00,M,CLR,M,M,M,M,M,M,M,M,M,M,M,M,M,M,64.00,KEKO 210556Z AUTO 08004KT 10SM CLR 18/09 A3009 RMK AO2 SLP139 T01780089 10294 20178 51015 $,M
LAS,2022-08-21 05:56,-115.1634,36.0719,663.00,90.00,57.00,32.91,170.00,4.00,0.00,29.86,1008.20,10.00,M,FEW,SCT,M,M,16000.00,22000.00,M,M,M,M,M,M,M,M,M,88.61,KLAS 210556Z 17004KT 10SM FEW160 SCT220 32/14 A2986 RMK AO2 SLP082 T03220139 10367 20322 51015,M
WMC,2022-08-21 05:56,-117.8072,40.9019,1315.00,69.00,40.00,34.43,130.00,6.00,0.00,30.00,1010.50,10.00,M,CLR,M,M,M,M,M,M,M,M,M,M,M,M,M,M,69.10,KWMC 210556Z AUTO 13006KT 10SM CLR 21/04 A3000 RMK AO2 SLP105 T02060044 10350 20200 51012 $,M
HND,2022-08-21 05:56,-115.1344,35.9729,742.79,89.00,60.00,37.83,180.00,8.00,0.00,29.91,1010.90,10.00,M,CLR,M,M,M,M,M,M,M,M,M,M,M,M,M,M,88.76,KHND 210556Z AUTO 18008KT 10SM CLR 32/16 A2991 RMK AO2 SLP109 60000 T03170156 10350 20300 51016,M
NFL,2022-08-21 05:56,-118.7010,39.4166,1199.00,78.00,42.00,27.70,310.00,5.00,0.00,29.98,1012.40,10.00,M,CLR,M,M,M,M,M,M,M,M,M,M,M,M,M,M,78.10,KNFL 210556Z AUTO 31005KT 10SM CLR 26/06 A2998 RMK AO2 SLP124 T02560056 10361 20233 52017,M
TPH,2022-08-21 05:56,-117.0904,38.0505,1654.00,76.00,30.00,18.46,360.00,11.00,0.00,30.10,1010.10,10.00,M,CLR,M,M,M,M,M,M,M,M,M,M,M,M,M,M,75.90,KTPH 210556Z AUTO 36011KT 10SM CLR 24/M01 A3010 RMK AO2 SLP101 T02441011 10333 20228 51014,M
LSV,2022-08-21 05:58,-115.0343,36.2362,570.00,90.70,56.70,31.84,140.00,6.00,0.00,29.83,1007.30,10.00,M,BKN,M,M,M,15000.00,M,M,M,M,M,M,M,M,M,M,89.21,KLSV 210558Z AUTO 14006KT 10SM BKN150 33/14 A2983 RMK AO2 SLP073 T03260137 10379 20317 52017 $,M
INS,2022-08-21 05:58,-115.6733,36.5872,955.00,85.00,47.00,26.86,140.00,5.00,0.00,29.91,1007.30,10.00,M,CLR,M,M,M,M,M,M,M,M,M,M,M,M,M,M,82.44,KINS 210558Z AUTO 14005KT 10SM CLR 29/08 A2991 RMK AO2 SLP073 T02940084 10381 20294 52012 $,M
CXP,2022-08-21 06:10,-119.7326,39.1923,1431.00,73.40,39.20,28.96,0.00,0.00,0.00,30.11,M,10.00,M,CLR,M,M,M,M,M,M,M,M,M,M,M,M,M,M,73.40,KCXP 210610Z AUTO 00000KT 10SM CLR 23/04 A3011 RMK AO2,M
BAM,2022-08-21 06:15,-116.8743,40.5990,1382.36,64.40,37.40,36.74,50.00,8.00,0.00,30.05,M,10.00,M,CLR,M,M,M,M,M,M,M,M,M,M,M,M,M,M,64.40,KBAM 210615Z AUTO 05008KT 10SM CLR 18/03 A3005 RMK AO1,M
RTS,2022-08-21 06:15,-119.8764,39.6682,1539.00,73.40,35.60,25.13,290.00,5.00,0.00,30.13,M,10.00,M,CLR,M,M,M,M,M,M,M,M,M,M,M,M,M,M,73.40,KRTS 210615Z AUTO 29005KT 10SM CLR 23/02 A3013 RMK AO2,M
BVU,2022-08-21 06:15,-114.8611,35.9475,671.00,89.60,60.80,38.18,140.00,6.00,0.00,29.89,M,M,11.00,M,M,M,M,M,M,M,M,M,M,M,M,M,M,M,89.54,KBVU 210615Z AUTO 14006G11KT 32/16 A2989 RMK AO2 PWINO TSNO,M
TMT,2022-08-21 06:15,-117.1971,39.4643,1749.34,56.70,36.00,45.71,230.00,4.00,0.00,30.16,M,10.00,M,CLR,M,M,M,M,M,M,M,M,M,M,M,M,M,M,56.70,KTMT 210615Z AUTO 23004KT 10SM CLR 14/02 A3016 RMK AO2 LTG DSNT SE T01370022,M
HTH,2022-08-21 06:15,-118.6315,38.5448,1282.89,77.00,35.60,22.28,0.00,0.00,0.00,30.03,M,10.00,M,CLR,M,M,M,M,M,M,M,M,M,M,M,M,M,M,77.00,KHTH 210615Z AUTO 00000KT 10SM CLR 25/02 A3003 RMK A01,M
MEV,2022-08-21 06:15,-119.7500,38.9963,1441.42,64.40,39.20,39.43,120.00,9.00,0.00,30.10,M,10.00,M,CLR,M,M,M,M,M,M,M,M,M,M,M,M,M,M,64.40,KMEV 210615Z AUTO 12009KT 10SM CLR 18/04 A3010 RMK AO2,M
MEV,2022-08-21 06:35,-119.7500,38.9963,1441.42,66.20,37.40,34.51,M,6.00,0.00,30.10,M,10.00,M,CLR,M,M,M,M,M,M,M,M,M,M,M,M,M,M,66.20,KMEV 210635Z AUTO VRB06KT 110V230 10SM CLR 19/03 A3010 RMK AO2,M
BAM,2022-08-21 06:35,-116.8743,40.5990,1382.36,64.40,39.20,39.43,90.00,4.00,0.00,30.05,M,10.00,M,CLR,M,M,M,M,M,M,M,M,M,M,M,M,M,M,64.40,KBAM 210635Z AUTO 09004KT 10SM CLR 18/04 A3005 RMK AO1,M
TMT,2022-08-21 06:35,-117.1971,39.4643,1749.34,58.00,36.30,43.98,220.00,7.00,0.00,30.16,M,10.00,M,CLR,M,M,M,M,M,M,M,M,M,M,M,M,M,M,58.10,KTMT 210635Z AUTO 22007KT 10SM CLR 15/02 A3016 RMK AO2 T01450024,M
BVU,2022-08-21 06:35,-114.8611,35.9475,671.00,89.60,60.80,38.18,160.00,12.00,0.00,29.89,M,M,M,M,M,M,M,M,M,M,M,M,M,M,M,M,M,M,89.54,KBVU 210635Z AUTO 16012KT 32/16 A2989 RMK AO2 PWINO TSNO,M
CXP,2022-08-21 06:35,-119.7326,39.1923,1431.00,69.80,41.00,35.09,0.00,0.00,0.00,30.11,M,10.00,M,CLR,M,M,M,M,M,M,M,M,M,M,M,M,M,M,69.80,KCXP 210635Z AUTO 00000KT 10SM CLR 21/05 A3011 RMK AO2,M
RTS,2022-08-21 06:35,-119.8764,39.6682,1539.00,73.40,35.60,25.13,280.00,5.00,0.00,30.13,M,10.00,M,CLR,M,M,M,M,M,M,M,M,M,M,M,M,M,M,73.40,KRTS 210635Z AUTO 28005KT 10SM CLR 23/02 A3013 RMK AO2,M
HTH,2022-08-21 06:35,-118.6315,38.5448,1282.89,77.00,37.40,23.93,160.00,4.00,0.00,30.03,M,10.00,M,CLR,M,M,M,M,M,M,M,M,M,M,M,M,M,M,77.00,KHTH 210635Z AUTO 16004KT 10SM CLR 25/03 A3003 RMK A01,M
LOL,2022-08-21 06:53,-118.5701,40.0684,1192.43,69.00,44.00,40.48,350.00,5.00,0.00,29.98,1010.80,10.00,M,CLR,M,M,M,M,M,M,M,M,M,M,M,M,M,M,69.10,KLOL 210653Z AUTO 35005KT 10SM CLR 21/07 A2998 RMK AO2 SLP108 T02060067,M
ELY,2022-08-21 06:53,-114.8453,39.2950,1909.00,57.00,44.00,61.95,200.00,9.00,0.00,30.21,1012.80,10.00,M,CLR,M,M,M,M,M,M,M,M,M,M,M,M,M,M,57.00,KELY 210653Z AUTO 20009KT 10SM CLR 14/07 A3021 RMK AO2 SLP128 T01390067 402940089,M
DRA,2022-08-21 06:53,-116.0278,36.6206,1009.00,89.00,53.00,29.37,190.00,15.00,0.00,29.92,1007.10,10.00,25.00,CLR,M,M,M,M,M,M,M,M,M,M,M,29.00,200.00,2022-08-21 06:00,86.79,KDRA 210653Z AUTO 19015G25KT 10SM CLR 32/12 A2992 RMK AO2 PK WND 20029/0600 SLP071 T03170117,M
P68,2022-08-21 06:53,-116.0056,39.6014,1993.00,59.00,41.00,51.18,190.00,4.00,0.00,30.16,1012.80,M,M,M,M,M,M,M,M,M,M,M,M,M,M,M,M,M,59.00,KP68 210653Z AUTO 19004KT 15/05 A3016 RMK AO1 SLP128 T01500050,M
VGT,2022-08-21 06:53,-115.1933,36.2111,667.00,89.00,55.00,31.49,90.00,7.00,0.00,29.86,1009.90,10.00,M,CLR,M,M,M,M,M,M,M,M,M,M,M,M,M,M,87.21,KVGT 210653Z AUTO 09007KT 10SM CLR 32/13 A2986 RMK AO2 SLP099 T03170128,M
BAM,2022-08-21 06:55,-116.8743,40.5990,1382.36,66.20,37.40,34.51,90.00,3.00,0.00,30.05,M,10.00,M,CLR,M,M,M,M,M,M,M,M,M,M,M,M,M,M,66.20,KBAM 210655Z AUTO 09003KT 10SM CLR 19/03 A3005 RMK AO1,M
BVU,2022-08-21 06:55,-114.8611,35.9475,671.00,89.60,60.80,38.18,150.00,9.00,0.00,29.90,M,M,M,M,M,M,M,M,M,M,M,M,M,M,M,M,M,M,89.54,KBVU 210655Z AUTO 15009KT 32/16 A2990 RMK AO2 PWINO TSNO,M
CXP,2022-08-21 06:55,-119.7326,39.1923,1431.00,69.80,39.20,32.72,320.00,4.00,0.00,30.11,M,10.00,M,CLR,M,M,M,M,M,M,M,M,M,M,M,M,M,M,69.80,KCXP 210655Z AUTO 32004KT 10SM CLR 21/04 A3011 RMK AO2,M
RNO,2022-08-21 06:55,-119.7711,39.4839,1341.00,79.00,41.00,25.78,290.00,5.00,0.00,30.08,1011.80,10.00,M,CLR,M,M,M,M,M,M,M,M,M,M,M,M,M,M,79.00,KRNO 210655Z 29005KT 10SM CLR 26/05 A3008 RMK AO2 SLP118 T02610050,M
RTS,2022-08-21 06:55,-119.8764,39.6682,1539.00,73.40,35.60,25.13,310.00,3.00,0.00,30.14,M,10.00,M,CLR,M,M,M,M,M,M,M,M,M,M,M,M,M,M,73.40,KRTS 210655Z AUTO 31003KT 10SM CLR 23/02 A3014 RMK AO2,M
MEV,2022-08-21 06:55,-119.7500,38.9963,1441.42,66.20,42.80,42.57,0.00,0.00,0.00,30.11,M,10.00,M,CLR,M,M,M,M,M,M,M,M,M,M,M,M,M,M,66.20,KMEV 210655Z AUTO 00000KT 10SM CLR 19/06 A3011 RMK AO2,M
HTH,2022-08-21 06:55,-118.6315,38.5448,1282.89,77.00,37.40,23.93,140.00,4.00,0.00,30.03,M,10.00,M,CLR,M,M,M,M,M,M,M,M,M,M,M,M,M,M,77.00,KHTH 210655Z AUTO 14004KT 10SM CLR 25/03 A3003 RMK A01,M
TMT,2022-08-21 06:55,-117.1971,39.4643,1749.34,51.80,33.00,48.70,190.00,3.00,0.00,30.17,M,10.00,M,CLR,M,M,M,M,M,M,M,M,M,M,M,M,M,M,51.80,KTMT 210655Z AUTO 19003KT 10SM CLR 11/01 A3017 RMK AO2 T01100006,M
NFL,2022-08-21 06:56,-118.7010,39.4166,1199.00,70.00,46.00,42.20,160.00,3.00,0.00,29.99,1012.70,10.00,M,CLR,M,M,M,M,M,M,M,M,M,M,M,M,M,M,70.00,KNFL 210656Z AUTO 16003KT 10SM CLR 21/08 A2999 RMK AO2 SLP127 T02110078,M
HND,2022-08-21 06:56,-115.1344,35.9729,742.79,85.00,62.00,46.42,150.00,7.00,0.00,29.92,1011.40,10.00,M,CLR,M,M,M,M,M,M,M,M,M,M,M,M,M,M,85.49,KHND 210656Z AUTO 15007KT 10SM CLR 29/17 A2992 RMK AO2 SLP114 T02940167 403780256,M
WMC,2022-08-21 06:56,-117.8072,40.9019,1315.00,68.00,37.00,31.92,110.00,6.00,0.00,30.02,1010.90,10.00,M,BKN,M,M,M,12000.00,M,M,M,M,M,M,M,M,M,M,68.00,KWMC 210656Z AUTO 11006KT 10SM BKN120 20/03 A3002 RMK AO2 SLP109 T02000028 $,M
LAS,2022-08-21 06:56,-115.1634,36.0719,663.00,90.00,59.00,35.36,150.00,8.00,0.00,29.87,1008.40,10.00,M,FEW,SCT,M,M,16000.00,22000.00,M,M,M,M,M,M,M,M,M,89.26,KLAS 210656Z 15008KT 10SM FEW160 SCT220 32/15 A2987 RMK AO2 SLP084 T03220150,M
EKO,2022-08-21 06:56,-115.7860,40.8242,1367.00,62.00,46.00,55.51,80.00,3.00,0.00,30.10,1014.00,10.00,M,CLR,M,M,M,M,M,M,M,M,M,M,M,M,M,M,62.10,KEKO 210656Z AUTO 08003KT 10SM CLR 17/08 A3010 RMK AO2 SLP140 T01670078 $,M
TPH,2022-08-21 06:56,-117.0904,38.0505,1654.00,74.00,32.00,21.40,20.00,12.00,0.00,30.11,1010.50,10.00,M,CLR,M,M,M,M,M,M,M,M,M,M,M,M,M,M,73.90,KTPH 210656Z AUTO 02012KT 10SM CLR 23/00 A3011 RMK AO2 SLP105 T02330000,M
LSV,2022-08-21 06:58,-115.0343,36.2362,570.00,90.30,57.20,32.83,0.00,0.00,0.00,29.85,1008.00,10.00,M,CLR,M,M,M,M,M,M,M,M,M,M,M,M,M,M,88.96,KLSV 210658Z AUTO 00000KT 10SM CLR 32/14 A2985 RMK AO2 SLP080 T03240140 $,M
INS,2022-08-21 06:58,-115.6733,36.5872,955.00,84.60,50.50,30.80,110.00,9.00,0.00,29.92,1007.70,10.00,M,CLR,M,M,M,M,M,M,M,M,M,M,M,M,M,M,82.60,KINS 210658Z AUTO 11009KT 10SM CLR 29/10 A2992 RMK AO2 SLP077 T02920103 $,M
TMT,2022-08-21 07:15,-117.1971,39.4643,1749.34,56.30,36.00,46.56,220.00,5.00,0.00,30.18,M,10.00,M,CLR,M,M,M,M,M,M,M,M,M,M,M,M,M,M,56.30,KTMT 210715Z AUTO 22005KT 10SM CLR 14/02 A3018 RMK AO2 T01350023,M
BVU,2022-08-21 07:15,-114.8611,35.9475,671.00,89.60,62.60,40.69,170.00,7.00,0.00,29.90,M,M,M,M,M,M,M,M,M,M,M,M,M,M,M,M,M,M,90.32,KBVU 210715Z AUTO 17007KT 32/17 A2990 RMK AO2 PWINO TSNO,M
CXP,2022-08-21 07:15,-119.7326,39.1923,1431.00,68.00,39.20,34.80,0.00,0.00,0.00,30.12,M,10.00,M,CLR,M,M,M,M,M,M,M,M,M,M,M,M,M,M,68.00,KCXP 210715Z AUTO 00000KT 10SM CLR 20/04 A3012 RMK AO2,M
RTS,2022-08-21 07:15,-119.8764,39.6682,1539.00,71.60,35.60,26.71,280.00,7.00,0.00,30.14,M,10.00,M,CLR,M,M,M,M,M,M,M,M,M,M,M,M,M,M,71.60,KRTS 210715Z AUTO 28007KT 10SM CLR 22/02 A3014 RMK AO2,M
MEV,2022-08-21 07:15,-119.7500,38.9963,1441.42,64.40,39.20,39.43,100.00,6.00,0.00,30.11,M,10.00,M,CLR,M,M,M,M,M,M,M,M,M,M,M,M,M,M,64.40,KMEV 210715Z AUTO 10006KT 10SM CLR 18/04 A3011 RMK AO2,M
BAM,2022-08-21 07:15,-116.8743,40.5990,1382.36,66.20,39.20,37.03,50.00,4.00,0.00,30.05,M,10.00,M,CLR,M,M,M,M,M,M,M,M,M,M,M,M,M,M,66.20,KBAM 210715Z AUTO 05004KT 10SM CLR 19/04 A3005 RMK AO1,M
HTH,2022-08-21 07:15,-118.6315,38.5448,1282.89,75.20,37.40,25.40,180.00,3.00,0.00,30.04,M,10.00,M,CLR,M,M,M,M,M,M,M,M,M,M,M,M,M,M,75.20,KHTH 210715Z AUTO 18003KT 10SM CLR 24/03 A3004 RMK A01,M
CXP,2022-08-21 07:35,-119.7326,39.1923,1431.00,69.80,41.00,35.09,0.00,0.00,0.00,30.12,M,10.00,M,CLR,M,M,M,M,M,M,M,M,M,M,M,M,M,M,69.80,KCXP 210735Z AUTO 00000KT 10SM CLR 21/05 A3012 RMK AO2,M
RTS,2022-08-21 07:35,-119.8764,39.6682,1539.00,71.60,35.60,26.71,300.00,6.00,0.00,30.14,M,10.00,M,CLR,M,M,M,M,M,M,M,M,M,M,M,M,M,M,71.60,KRTS 210735Z AUTO 30006KT 10SM CLR 22/02 A3014 RMK AO2,M
MEV,2022-08-21 07:35,-119.7500,38.9963,1441.42,60.80,39.20,44.76,110.00,7.00,0.00,30.11,M,10.00,M,CLR,M,M,M,M,M,M,M,M,M,M,M,M,M,M,60.80,KMEV 210735Z AUTO 11007KT 10SM CLR 16/04 A3011 RMK AO2,M
BAM,2022-08-21 07:35,-116.8743,40.5990,1382.36,64.40,39.20,39.43,0.00,0.00,0.00,30.05,M,10.00,M,CLR,M,M,M,M,M,M,M,M,M,M,M,M,M,M,64.40,KBAM 210735Z AUTO 00000KT 10SM CLR 18/04 A3005 RMK AO1,M
HTH,2022-08-21 07:35,-118.6315,38.5448,1282.89,75.20,39.20,27.26,0.00,0.00,0.00,30.04,M,10.00,M,CLR,M,M,M,M,M,M,M,M,M,M,M,M,M,M,75.20,KHTH 210735Z AUTO 00000KT 10SM CLR 24/04 A3004 RMK A01,M
BVU,2022-08-21 07:35,-114.8611,35.9475,671.00,87.80,62.60,43.07,160.00,6.00,0.00,29.91,M,M,M,M,M,M,M,M,M,M,M,M,M,M,M,M,M,M,88.48,KBVU 210735Z AUTO 16006KT 31/17 A2991 RMK AO2 PWINO TSNO,M
TMT,2022-08-21 07:35,-117.1971,39.4643,1749.34,53.40,36.50,52.57,240.00,8.00,0.00,30.18,M,10.00,M,CLR,M,M,M,M,M,M,M,M,M,M,M,M,M,M,53.40,KTMT 210735Z AUTO 24008KT 10SM CLR 12/03 A3018 RMK AO2 T01190025,M
LOL,2022-08-21 07:53,-118.5701,40.0684,1192.43,71.00,40.00,32.16,0.00,0.00,0.00,29.99,1010.80,10.00,M,CLR,M,M,M,M,M,M,M,M,M,M,M,M,M,M,71.10,KLOL 210753Z AUTO 00000KT 10SM CLR 22/04 A2999 RMK AO2 SLP108 T02170044 403610117,M
VGT,2022-08-21 07:53,-115.1933,36.2111,667.00,88.00,58.00,36.21,100.00,4.00,0.00,29.87,1010.10,10.00,M,CLR,M,M,M,M,M,M,M,M,M,M,M,M,M,M,86.96,KVGT 210753Z AUTO 10004KT 10SM CLR 31/14 A2987 RMK AO2 SLP101 T03110144 403780278,M
P68,2022-08-21 07:53,-116.0056,39.6014,1993.00,59.00,41.00,51.18,160.00,5.00,0.00,30.17,1013.00,M,M,M,M,M,M,M,M,M,M,M,M,M,M,M,M,M,59.00,KP68 210753Z AUTO 16005KT 15/05 A3017 RMK AO1 SLP130 T01500050 403060100,M
DRA,2022-08-21 07:53,-116.0278,36.6206,1009.00,88.00,52.00,29.21,200.00,7.00,0.00,29.93,1007.30,10.00,M,CLR,M,M,M,M,M,M,M,M,M,M,M,M,M,M,85.60,KDRA 210753Z AUTO 20007KT 10SM CLR 31/11 A2993 RMK AO2 SLP073 T03110111 403940228,M
ELY,2022-08-21 07:53,-114.8453,39.2950,1909.00,61.00,46.00,57.72,200.00,10.00,0.00,30.21,1012.30,10.00,M,CLR,M,M,M,M,M,M,M,M,M,M,M,M,M,M,61.00,KELY 210753Z AUTO 20010KT 10SM CLR 16/08 A3021 RMK AO2 SLP123 T01610078,M
RTS,2022-08-21 07:55,-119.8764,39.6682,1539.00,69.80,37.40,30.49,290.00,6.00,0.00,30.14,M,10.00,M,CLR,M,M,M,M,M,M,M,M,M,M,M,M,M,M,69.80,KRTS 210755Z AUTO 29006KT 10SM CLR 21/03 A3014 RMK AO2,M
TMT,2022-08-21 07:55,-117.1971,39.4643,1749.34,52.20,35.80,53.44,0.00,0.00,0.00,30.18,M,10.00,M,CLR,M,M,M,M,M,M,M,M,M,M,M,M,M,M,52.20,KTMT 210755Z AUTO 00000KT 10SM CLR 11/02 A3018 RMK AO2 T01120021,M
HTH,2022-08-21 07:55,-118.6315,38.5448,1282.89,75.20,37.40,25.40,170.00,4.00,0.00,30.04,M,10.00,M,CLR,M,M,M,M,M,M,M,M,M,M,M,M,M,M,75.20,KHTH 210755Z AUTO 17004KT 10SM CLR 24/03 A3004 RMK A01,M
BAM,2022-08-21 07:55,-116.8743,40.5990,1382.36,62.60,39.20,42.00,210.00,3.00,0.00,30.06,M,10.00,M,CLR,M,M,M,M,M,M,M,M,M,M,M,M,M,M,62.60,KBAM 210755Z AUTO 21003KT 10SM CLR 17/04 A3006 RMK AO1,M
MEV,2022-08-21 07:55,-119.7500,38.9963,1441.42,59.00,37.40,44.47,130.00,7.00,0.00,30.11,M,10.00,M,CLR,M,M,M,M,M,M,M,M,M,M,M,M,M,M,59.00,KMEV 210755Z AUTO 13007KT 10SM CLR 15/03 A3011 RMK AO2,M
RNO,2022-08-21 07:55,-119.7711,39.4839,1341.00,73.00,45.00,36.70,190.00,4.00,0.00,30.09,1012.20,10.00,M,CLR,M,M,M,M,M,M,M,M,M,M,M,M,M,M,73.00,KRNO 210755Z 19004KT 10SM CLR 23/07 A3009 RMK AO2 SLP122 T02280072 403610172,M
CXP,2022-08-21 07:55,-119.7326,39.1923,1431.00,66.20,41.00,39.72,0.00,0.00,0.00,30.13,M,10.00,M,CLR,M,M,M,M,M,M,M,M,M,M,M,M,M,M,66.20,KCXP 210755Z AUTO 00000KT 10SM CLR 19/05 A3013 RMK AO2,M
BVU,2022-08-21 07:55,-114.8611,35.9475,671.00,89.60,62.60,40.69,140.00,6.00,0.00,29.90,M,M,M,M,M,M,M,M,M,M,M,M,M,M,M,M,M,M,90.32,KBVU 210755Z AUTO 14006KT 32/17 A2990 RMK AO2 PWINO TSNO,M
HND,2022-08-21 07:56,-115.1344,35.9729,742.79,85.00,62.00,46.42,160.00,8.00,0.00,29.92,1011.50,10.00,M,CLR,M,M,M,M,M,M,M,M,M,M,M,M,M,M,85.49,KHND 210756Z AUTO 16008KT 10SM CLR 29/17 A2992 RMK AO2 SLP115 T02940167,M
WMC,2022-08-21 07:56,-117.8072,40.9019,1315.00,65.00,36.00,34.17,260.00,4.00,0.00,30.03,1011.40,10.00,M,CLR,M,M,M,M,M,M,M,M,M,M,M,M,M,M,64.90,KWMC 210756Z AUTO 26004KT 10SM CLR 18/02 A3003 RMK AO2 SLP114 T01830022 403560122 $,M
LAS,2022-08-21 07:56,-115.1634,36.0719,663.00,88.00,60.00,39.17,180.00,7.00,0.00,29.88,1008.70,10.00,M,FEW,M,M,M,16000.00,M,M,M,M,M,M,M,M,M,M,87.69,KLAS 210756Z 18007KT 10SM FEW160 31/16 A2988 RMK AO2 SLP087 T03110156 403780272,M
EKO,2022-08-21 07:56,-115.7860,40.8242,1367.00,55.00,50.00,83.20,0.00,0.00,0.00,30.11,1014.80,10.00,M,CLR,M,M,M,M,M,M,M,M,M,M,M,M,M,M,55.00,KEKO 210756Z AUTO 00000KT 10SM CLR 13/10 A3011 RMK AO2 SLP148 T01280100 402940083 $,M
TPH,2022-08-21 07:56,-117.0904,38.0505,1654.00,73.00,36.00,25.88,10.00,12.00,0.00,30.12,1010.70,10.00,M,CLR,M,M,M,M,M,M,M,M,M,M,M,M,M,M,73.00,KTPH 210756Z AUTO 01012KT 10SM CLR 23/02 A3012 RMK AO2 SLP107 T02280022 403330178,M
NFL,2022-08-21 07:56,-118.7010,39.4166,1199.00,70.00,43.00,37.64,210.00,3.00,0.00,30.01,1013.10,10.00,M,CLR,M,M,M,M,M,M,M,M,M,M,M,M,M,M,70.00,KNFL 210756Z AUTO 21003KT 10SM CLR 21/06 A3001 RMK AO2 SLP131 T02110061 403670172,M
LSV,2022-08-21 07:58,-115.0343,36.2362,570.00,90.30,61.20,37.88,50.00,3.00,0.00,29.85,1007.90,10.00,M,CLR,M,M,M,M,M,M,M,M,M,M,M,M,M,M,90.42,KLSV 210758Z AUTO 05003KT 10SM CLR 32/16 A2985 RMK AO2 SLP079 T03240162 404100274 $,M
INS,2022-08-21 07:58,-115.6733,36.5872,955.00,85.00,51.00,30.96,140.00,11.00,0.00,29.93,1007.90,10.00,M,CLR,M,M,M,M,M,M,M,M,M,M,M,M,M,M,82.88,KINS 210758Z AUTO 14011KT 10SM CLR 29/11 A2993 RMK AO2 SLP079 T02940105 403810228 $,M
BVU,2022-08-21 08:15,-114.8611,35.9475,671.00,89.60,60.80,38.18,160.00,7.00,0.00,29.90,M,M,14.00,M,M,M,M,M,M,M,M,M,M,M,M,M,M,M,89.54,KBVU 210815Z AUTO 16007G14KT 32/16 A2990 RMK AO2 PWINO TSNO,M
RTS,2022-08-21 08:15,-119.8764,39.6682,1539.00,68.00,35.60,30.20,300.00,5.00,0.00,30.15,M,10.00,M,CLR,M,M,M,M,M,M,M,M,M,M,M,M,M,M,68.00,KRTS 210815Z AUTO 30005KT 10SM CLR 20/02 A3015 RMK AO2,M
BAM,2022-08-21 08:15,-116.8743,40.5990,1382.36,62.60,41.00,45.04,210.00,3.00,0.00,30.06,M,10.00,M,CLR,M,M,M,M,M,M,M,M,M,M,M,M,M,M,62.60,KBAM 210815Z AUTO 21003KT 10SM CLR 17/05 A3006 RMK AO1,M
CXP,2022-08-21 08:15,-119.7326,39.1923,1431.00,64.40,41.00,42.28,0.00,0.00,0.00,30.13,M,10.00,M,CLR,M,M,M,M,M,M,M,M,M,M,M,M,M,M,64.40,KCXP 210815Z AUTO 00000KT 10SM CLR 18/05 A3013 RMK AO2,M
TMT,2022-08-21 08:15,-117.1971,39.4643,1749.34,54.50,35.80,49.12,0.00,0.00,0.00,30.18,M,10.00,M,CLR,M,M,M,M,M,M,M,M,M,M,M,M,M,M,54.50,KTMT 210815Z AUTO 00000KT 10SM CLR 13/02 A3018 RMK AO2 T01250021,M
HTH,2022-08-21 08:15,-118.6315,38.5448,1282.89,75.20,37.40,25.40,220.00,4.00,0.00,30.05,M,10.00,M,CLR,M,M,M,M,M,M,M,M,M,M,M,M,M,M,75.20,KHTH 210815Z AUTO 22004KT 10SM CLR 24/03 A3005 RMK A01,M
MEV,2022-08-21 08:15,-119.7500,38.9963,1441.42,59.00,37.40,44.47,110.00,5.00,0.00,30.12,M,10.00,M,CLR,M,M,M,M,M,M,M,M,M,M,M,M,M,M,59.00,KMEV 210815Z AUTO 11005KT 10SM CLR 15/03 A3012 RMK AO2,M
CXP,2022-08-21 08:35,-119.7326,39.1923,1431.00,64.40,39.20,39.43,0.00,0.00,0.00,30.13,M,10.00,M,CLR,M,M,M,M,M,M,M,M,M,M,M,M,M,M,64.40,KCXP 210835Z AUTO 00000KT 10SM CLR 18/04 A3013 RMK AO2,M
MEV,2022-08-21 08:35,-119.7500,38.9963,1441.42,59.00,39.20,47.72,0.00,0.00,0.00,30.12,M,10.00,M,CLR,M,M,M,M,M,M,M,M,M,M,M,M,M,M,59.00,KMEV 210835Z AUTO 00000KT 10SM CLR 15/04 A3012 RMK AO2,M
BVU,2022-08-21 08:35,-114.8611,35.9475,671.00,87.80,62.60,43.07,160.00,5.00,0.00,29.91,M,M,M,M,M,M,M,M,M,M,M,M,M,M,M,M,M,M,88.48,KBVU 210835Z AUTO 16005KT 31/17 A2991 RMK AO2 PWINO TSNO,M
TMT,2022-08-21 08:35,-117.1971,39.4643,1749.34,51.00,35.60,55.22,240.00,4.00,0.00,30.18,M,10.00,M,CLR,M,M,M,M,M,M,M,M,M,M,M,M,M,M,51.10,KTMT 210835Z AUTO 24004KT 10SM CLR 11/02 A3018 RMK AO2 T01060020,M
HTH,2022-08-21 08:35,-118.6315,38.5448,1282.89,75.20,35.60,23.66,220.00,5.00,0.00,30.05,M,10.00,M,CLR,M,M,M,M,M,M,M,M,M,M,M,M,M,M,75.20,KHTH 210835Z AUTO 22005KT 10SM CLR 24/02 A3005 RMK A01,M
BAM,2022-08-21 08:35,-116.8743,40.5990,1382.36,60.80,37.40,41.71,190.00,3.00,0.00,30.07,M,10.00,M,CLR,M,M,M,M,M,M,M,M,M,M,M,M,M,M,60.80,KBAM 210835Z AUTO 19003KT 10SM CLR 16/03 A3007 RMK AO1,M
RTS,2022-08-21 08:35,-119.8764,39.6682,1539.00,66.20,35.60,32.14,290.00,4.00,0.00,30.15,M,10.00,M,CLR,M,M,M,M,M,M,M,M,M,M,M,M,M,M,66.20,KRTS 210835Z AUTO 29004KT 10SM CLR 19/02 A3015 RMK AO2,M
DRA,2022-08-21 08:53,-116.0278,36.6206,1009.00,86.00,51.00,30.11,0.00,0.00,0.00,29.94,1007.60,10.00,M,CLR,M,M,M,M,M,M,M,M,M,M,M,M,M,M,83.77,KDRA 210853Z AUTO 00000KT 10SM CLR 30/11 A2994 RMK AO2 SLP076 T03000106 53007,M
P68,2022-08-21 08:53,-116.0056,39.6014,1993.00,57.00,40.00,52.70,160.00,6.00,0.00,30.17,1012.90,M,M,M,M,M,M,M,M,M,M,M,M,M,M,M,M,M,57.00,KP68 210853Z AUTO 16006KT 14/04 A3017 RMK AO1 SLP129 T01390044 50005,M
LOL,2022-08-21 08:53,-118.5701,40.0684,1192.43,67.00,43.00,41.87,50.00,7.00,0.00,30.00,1011.30,10.00,M,CLR,M,M,M,M,M,M,M,M,M,M,M,M,M,M,66.90,KLOL 210853Z AUTO 05007KT 10SM CLR 19/06 A3000 RMK AO2 SLP113 T01940061 51009,M
ELY,2022-08-21 08:53,-114.8453,39.2950,1909.00,60.00,47.00,61.65,170.00,3.00,0.00,30.20,1012.20,10.00,M,CLR,M,M,M,M,M,M,M,M,M,M,M,M,M,M,60.10,KELY 210853Z AUTO 17003KT 10SM CLR 16/08 A3020 RMK AO2 SLP122 T01560083 50002,M
VGT,2022-08-21 08:53,-115.1933,36.2111,667.00,88.00,60.00,39.17,70.00,8.00,0.00,29.88,1010.40,10.00,M,CLR,M,M,M,M,M,M,M,M,M,M,M,M,M,M,87.69,KVGT 210853Z AUTO 07008KT 10SM CLR 31/16 A2988 RMK AO2 SLP104 T03110156 51009,M
TMT,2022-08-21 08:55,-117.1971,39.4643,1749.34,48.00,32.40,54.54,0.00,0.00,0.00,30.18,M,10.00,M,CLR,M,M,M,M,M,M,M,M,M,M,M,M,M,M,48.00,KTMT 210855Z AUTO 00000KT 10SM CLR 09/00 A3018 RMK AO2 T00890002,M
MEV,2022-08-21 08:55,-119.7500,38.9963,1441.42,57.20,41.00,54.60,0.00,0.00,0.00,30.12,M,10.00,M,CLR,M,M,M,M,M,M,M,M,M,M,M,M,M,M,57.20,KMEV 210855Z AUTO 00000KT 10SM CLR 14/05 A3012 RMK AO2,M
BAM,2022-08-21 08:55,-116.8743,40.5990,1382.36,60.80,37.40,41.71,140.00,3.00,0.00,30.07,M,10.00,M,CLR,M,M,M,M,M,M,M,M,M,M,M,M,M,M,60.80,KBAM 210855Z AUTO 14003KT 10SM CLR 16/03 A3007 RMK AO1,M
HTH,2022-08-21 08:55,-118.6315,38.5448,1282.89,73.40,37.40,26.98,220.00,4.00,0.00,30.05,M,10.00,M,CLR,M,M,M,M,M,M,M,M,M,M,M,M,M,M,73.40,KHTH 210855Z AUTO 22004KT 10SM CLR 23/03 A3005 RMK A01,M
RNO,2022-08-21 08:55,-119.7711,39.4839,1341.00,72.00,45.00,37.96,0.00,0.00,0.00,30.09,1012.30,10.00,M,CLR,M,M,M,M,M,M,M,M,M,M,M,M,M,M,72.00,KRNO 210855Z 00000KT 10SM CLR 22/07 A3009 RMK AO2 SLP123 T02220072 51009,M
CXP,2022-08-21 08:55,-119.7326,39.1923,1431.00,64.40,39.20,39.43,0.00,0.00,0.00,30.13,M,10.00,M,CLR,M,M,M,M,M,M,M,M,M,M,M,M,M,M,64.40,KCXP 210855Z AUTO 00000KT 10SM CLR 18/04 A3013 RMK AO2,M
BVU,2022-08-21 08:55,-114.8611,35.9475,671.00,87.80,62.60,43.07,180.00,8.00,0.00,29.91,M,M,M,M,M,M,M,M,M,M,M,M,M,M,M,M,M,M,88.48,KBVU 210855Z AUTO 18008KT 150V210 31/17 A2991 RMK AO2 PWINO TSNO,M
RTS,2022-08-21 08:55,-119.8764,39.6682,1539.00,64.40,35.60,34.22,340.00,5.00,0.00,30.15,M,10.00,M,CLR,M,M,M,M,M,M,M,M,M,M,M,M,M,M,64.40,KRTS 210855Z AUTO 34005KT 10SM CLR 18/02 A3015 RMK AO2,M
WMC,2022-08-21 08:56,-117.8072,40.9019,1315.00,62.00,37.00,39.21,350.00,4.00,0.00,30.04,1011.80,10.00,M,CLR,M,M,M,M,M,M,M,M,M,M,M,M,M,M,62.10,KWMC 210856Z AUTO 35004KT 10SM CLR 17/03 A3004 RMK AO2 SLP118 T01670028 51010 $,M
TPH,2022-08-21 08:56,-117.0904,38.0505,1654.00,72.00,37.00,27.85,20.00,11.00,0.00,30.13,1011.00,10.00,M,CLR,M,M,M,M,M,M,M,M,M,M,M,M,M,M,72.00,KTPH 210856Z AUTO 02011KT 10SM CLR 22/03 A3013 RMK AO2 SLP110 T02220028 51008,M
EKO,2022-08-21 08:56,-115.7860,40.8242,1367.00,54.00,47.00,76.83,0.00,0.00,0.00,30.12,1015.40,10.00,M,CLR,M,M,M,M,M,M,M,M,M,M,M,M,M,M,54.00,KEKO 210856Z AUTO 00000KT 10SM CLR 12/08 A3012 RMK AO2 SLP154 T01220083 51009 $,M
LAS,2022-08-21 08:56,-115.1634,36.0719,663.00,87.00,61.00,41.62,150.00,4.00,0.00,29.89,1009.00,10.00,M,CLR,M,M,M,M,M,M,M,M,M,M,M,M,M,M,87.15,KLAS 210856Z 15004KT 10SM CLR 31/16 A2989 RMK AO2 SLP090 T03060161 53008,M
HND,2022-08-21 08:56,-115.1344,35.9729,742.79,84.00,63.00,49.32,0.00,0.00,0.00,29.93,1011.80,10.00,M,CLR,M,M,M,M,M,M,M,M,M,M,M,M,M,M,84.99,KHND 210856Z AUTO 00000KT 10SM CLR 29/17 A2993 RMK AO2 SLP118 T02890172 51008,M
NFL,2022-08-21 08:56,-118.7010,39.4166,1199.00,69.00,41.00,35.94,160.00,8.00,0.00,30.01,1013.30,10.00,M,CLR,M,M,M,M,M,M,M,M,M,M,M,M,M,M,69.10,KNFL 210856Z AUTO 16008KT 10SM CLR 21/05 A3001 RMK AO2 SLP133 T02060050 51009,M
INS,2022-08-21 08:58,-115.6733,36.5872,955.00,84.40,53.00,33.87,130.00,13.00,0.00,29.94,1008.20,10.00,M,CLR,M,M,M,M,M,M,M,M,M,M,M,M,M,M,82.79,KINS 210858Z AUTO 13013KT 10SM CLR 29/12 A2994 RMK AO2 SLP082 T02910116 52010 $,M
LSV,2022-08-21 08:58,-115.0343,36.2362,570.00,88.30,61.00,40.06,40.00,4.00,0.00,29.86,1008.10,10.00,M,CLR,M,M,M,M,M,M,M,M,M,M,M,M,M,M,88.32,KLSV 210858Z AUTO 04004KT 10SM CLR 31/16 A2986 RMK AO2 SLP081 T03130161 52010 $,M
BVU,2022-08-21 09:15,-114.8611,35.9475,671.00,87.80,62.60,43.07,210.00,10.00,0.00,29.90,M,M,M,M,M,M,M,M,M,M,M,M,M,M,M,M,M,M,88.48,KBVU 210915Z AUTO 21010KT 31/17 A2990 RMK AO2 PWINO TSNO,M
CXP,2022-08-21 09:15,-119.7326,39.1923,1431.00,64.40,39.20,39.43,0.00,0.00,0.00,30.13,M,10.00,M,CLR,M,M,M,M,M,M,M,M,M,M,M,M,M,M,64.40,KCXP 210915Z AUTO 00000KT 10SM CLR 18/04 A3013 RMK AO2,M
RTS,2022-08-21 09:15,-119.8764,39.6682,1539.00,64.40,37.40,36.74,350.00,5.00,0.00,30.15,M,10.00,M,CLR,M,M,M,M,M,M,M,M,M,M,M,M,M,M,64.40,KRTS 210915Z AUTO 35005KT 10SM CLR 18/03 A3015 RMK AO2,M
MEV,2022-08-21 09:15,-119.7500,38.9963,1441.42,57.20,42.80,58.52,30.00,3.00,0.00,30.12,M,10.00,M,CLR,M,M,M,M,M,M,M,M,M,M,M,M,M,M,57.20,KMEV 210915Z AUTO 03003KT 10SM CLR 14/06 A3012 RMK AO2,M
BAM,2022-08-21 09:15,-116.8743,40.5990,1382.36,59.00,37.40,44.47,200.00,6.00,0.00,30.07,M,10.00,M,CLR,M,M,M,M,M,M,M,M,M,M,M,M,M,M,59.00,KBAM 210915Z AUTO 20006KT 10SM CLR 15/03 A3007 RMK AO1,M
HTH,2022-08-21 09:15,-118.6315,38.5448,1282.89,73.40,37.40,26.98,220.00,6.00,0.00,30.05,M,10.00,M,CLR,M,M,M,M,M,M,M,M,M,M,M,M,M,M,73.40,KHTH 210915Z AUTO 22006KT 10SM CLR 23/03 A3005 RMK A01,M
TMT,2022-08-21 09:15,-117.1971,39.4643,1749.34,51.00,33.80,51.40,0.00,0.00,0.00,30.18,M,10.00,M,CLR,M,M,M,M,M,M,M,M,M,M,M,M,M,M,51.10,KTMT 210915Z AUTO 00000KT 10SM CLR 11/01 A3018 RMK AO2 T01060010,M
BAM,2022-08-21 09:35,-116.8743,40.5990,1382.36,59.00,35.60,41.42,200.00,6.00,0.00,30.08,M,10.00,M,CLR,M,M,M,M,M,M,M,M,M,M,M,M,M,M,59.00,KBAM 210935Z AUTO 20006KT 10SM CLR 15/02 A3008 RMK AO1,M
BVU,2022-08-21 09:35,-114.8611,35.9475,671.00,87.80,62.60,43.07,0.00,0.00,0.00,29.91,M,M,M,M,M,M,M,M,M,M,M,M,M,M,M,M,M,M,88.48,KBVU 210935Z AUTO 00000KT 31/17 A2991 RMK AO2 PWINO TSNO,M
HTH,2022-08-21 09:35,-118.6315,38.5448,1282.89,73.40,37.40,26.98,220.00,5.00,0.00,30.05,M,10.00,M,CLR,M,M,M,M,M,M,M,M,M,M,M,M,M,M,73.40,KHTH 210935Z AUTO 22005KT 10SM CLR 23/03 A3005 RMK A01,M
TMT,2022-08-21 09:35,-117.1971,39.4643,1749.34,52.20,34.20,50.15,0.00,0.00,0.00,30.18,M,10.00,M,CLR,M,M,M,M,M,M,M,M,M,M,M,M,M,M,52.20,KTMT 210935Z AUTO 00000KT 10SM CLR 11/01 A3018 RMK AO2 T01120012,M
CXP,2022-08-21 09:35,-119.7326,39.1923,1431.00,62.60,39.20,42.00,320.00,3.00,0.00,30.13,M,10.00,M,CLR,M,M,M,M,M,M,M,M,M,M,M,M,M,M,62.60,KCXP 210935Z AUTO 32003KT 10SM CLR 17/04 A3013 RMK AO2,M
RTS,2022-08-21 09:35,-119.8764,39.6682,1539.00,64.40,37.40,36.74,310.00,8.00,0.00,30.15,M,10.00,M,CLR,M,M,M,M,M,M,M,M,M,M,M,M,M,M,64.40,KRTS 210935Z AUTO 31008KT 10SM CLR 18/03 A3015 RMK AO2,M
MEV,2022-08-21 09:35,-119.7500,38.9963,1441.42,57.20,41.00,54.60,0.00,0.00,0.00,30.12,M,10.00,M,FEW,FEW,M,M,4100.00,4800.00,M,M,M,M,M,M,M,M,M,57.20,KMEV 210935Z AUTO 00000KT 10SM FEW041 FEW048 14/05 A3012 RMK AO2,M
CXP,2022-08-21 09:50,-119.7326,39.1923,1431.00,62.60,39.20,42.00,0.00,0.00,0.00,30.13,M,10.00,M,CLR,M,M,M,M,M,M,M,M,M,M,M,M,M,M,62.60,KCXP 210950Z AUTO 00000KT 10SM CLR 17/04 A3013 RMK AO2,M
DRA,2022-08-21 09:53,-116.0278,36.6206,1009.00,80.00,50.00,34.98,310.00,6.00,0.00,29.95,1008.10,10.00,M,CLR,M,M,M,M,M,M,M,M,M,M,M,M,M,M,79.60,KDRA 210953Z AUTO 31006KT 10SM CLR 27/10 A2995 RMK AO2 SLP081 T02670100,M
P68,2022-08-21 09:53,-116.0056,39.6014,1993.00,59.00,40.00,49.04,190.00,7.00,0.00,30.17,1013.00,M,M,M,M,M,M,M,M,M,M,M,M,M,M,M,M,M,59.00,KP68 210953Z AUTO 19007KT 15/04 A3017 RMK AO1 SLP130 T01500044,M
LOL,2022-08-21 09:53,-118.5701,40.0684,1192.43,66.00,42.00,41.73,0.00,0.00,0.00,30.01,1011.30,10.00,M,CLR,M,M,M,M,M,M,M,M,M,M,M,M,M,M,66.00,KLOL 210953Z AUTO 00000KT 10SM CLR 19/06 A3001 RMK AO2 SLP113 T01890056,M
VGT,2022-08-21 09:53,-115.1933,36.2111,667.00,88.00,61.00,40.44,90.00,8.00,0.00,29.89,1010.50,10.00,M,CLR,M,M,M,M,M,M,M,M,M,M,M,M,M,M,88.02,KVGT 210953Z AUTO 09008KT 10SM CLR 31/16 A2989 RMK AO2 SLP105 T03110161,M
ELY,2022-08-21 09:53,-114.8453,39.2950,1909.00,56.00,45.00,66.72,250.00,3.00,0.00,30.21,1012.50,10.00,M,CLR,M,M,M,M,M,M,M,M,M,M,M,M,M,M,55.90,KELY 210953Z AUTO 25003KT 10SM CLR 13/07 A3021 RMK AO2 SLP125 T01330072,M
RTS,2022-08-21 09:55,-119.8764,39.6682,1539.00,60.80,37.40,41.71,330.00,6.00,0.00,30.15,M,10.00,M,CLR,M,M,M,M,M,M,M,M,M,M,M,M,M,M,60.80,KRTS 210955Z AUTO 33006KT 10SM CLR 16/03 A3015 RMK AO2,M
BVU,2022-08-21 09:55,-114.8611,35.9475,671.00,87.80,64.40,45.88,180.00,10.00,0.00,29.91,M,M,M,M,M,M,M,M,M,M,M,M,M,M,M,M,M,M,89.33,KBVU 210955Z AUTO 18010KT 31/18 A2991 RMK AO2 PWINO TSNO,M
TMT,2022-08-21 09:55,-117.1971,39.4643,1749.34,54.70,36.50,50.13,220.00,4.00,0.00,30.19,M,10.00,M,CLR,M,M,M,M,M,M,M,M,M,M,M,M,M,M,54.70,KTMT 210955Z AUTO 22004KT 10SM CLR 13/03 A3019 RMK AO2 T01260025,M
HTH,2022-08-21 09:55,-118.6315,38.5448,1282.89,71.60,37.40,28.68,230.00,5.00,0.00,30.05,M,10.00,M,CLR,M,M,M,M,M,M,M,M,M,M,M,M,M,M,71.60,KHTH 210955Z AUTO 23005KT 10SM CLR 22/03 A3005 RMK A01,M
BAM,2022-08-21 09:55,-116.8743,40.5990,1382.36,60.80,37.40,41.71,220.00,4.00,0.00,30.08,M,10.00,M,CLR,M,M,M,M,M,M,M,M,M,M,M,M,M,M,60.80,KBAM 210955Z AUTO 22004KT 10SM CLR 16/03 A3008 RMK AO1,M
MEV,2022-08-21 09:55,-119.7500,38.9963,1441.42,51.80,37.40,57.77,140.00,4.00,0.00,30.12,M,10.00,M,FEW,FEW,M,M,4100.00,4900.00,M,M,M,M,M,M,M,M,M,51.80,KMEV 210955Z AUTO 14004KT 10SM FEW041 FEW049 11/03 A3012 RMK AO2,M
RNO,2022-08-21 09:55,-119.7711,39.4839,1341.00,69.00,45.00,41.90,0.00,0.00,0.00,30.09,1012.40,10.00,M,CLR,M,M,M,M,M,M,M,M,M,M,M,M,M,M,69.10,KRNO 210955Z 00000KT 10SM CLR 21/07 A3009 RMK AO2 SLP124 T02060072,M
WMC,2022-08-21 09:56,-117.8072,40.9019,1315.00,58.00,36.00,43.78,200.00,3.00,0.00,30.05,1012.20,10.00,M,CLR,M,M,M,M,M,M,M,M,M,M,M,M,M,M,57.90,KWMC 210956Z AUTO 20003KT 10SM CLR 14/02 A3005 RMK AO2 SLP122 T01440022 $,M
LAS,2022-08-21 09:56,-115.1634,36.0719,663.00,87.00,61.00,41.62,160.00,8.00,0.00,29.90,1009.20,10.00,M,CLR,M,M,M,M,M,M,M,M,M,M,M,M,M,M,87.15,KLAS 210956Z 16008KT 10SM CLR 31/16 A2990 RMK AO2 SLP092 T03060161,M
HND,2022-08-21 09:56,-115.1344,35.9729,742.79,84.00,64.00,51.08,160.00,10.00,0.00,29.93,1011.70,10.00,M,CLR,M,M,M,M,M,M,M,M,M,M,M,M,M,M,85.36,KHND 210956Z AUTO 16010KT 10SM CLR 29/18 A2993 RMK AO2 SLP117 T02890178,M
EKO,2022-08-21 09:56,-115.7860,40.8242,1367.00,51.00,48.00,89.09,0.00,0.00,0.00,30.13,1015.70,10.00,M,CLR,M,M,M,M,M,M,M,M,M,M,M,M,M,M,51.10,KEKO 210956Z AUTO 00000KT 10SM CLR 11/09 A3013 RMK AO2 SLP157 T01060089 $,M
NFL,2022-08-21 09:56,-118.7010,39.4166,1199.00,69.00,40.00,34.43,140.00,6.00,0.00,30.03,1013.80,10.00,M,CLR,M,M,M,M,M,M,M,M,M,M,M,M,M,M,69.10,KNFL 210956Z AUTO 14006KT 10SM CLR 21/04 A3003 RMK AO2 SLP138 T02060044,M
TPH,2022-08-21 09:56,-117.0904,38.0505,1654.00,69.00,38.00,31.85,350.00,6.00,0.00,30.14,1011.30,10.00,M,CLR,M,M,M,M,M,M,M,M,M,M,M,M,M,M,69.10,KTPH 210956Z AUTO 35006KT 10SM CLR 21/03 A3014 RMK AO2 SLP113 T02060033,M
LSV,2022-08-21 09:58,-115.0343,36.2362,570.00,88.30,63.00,42.99,70.00,4.00,0.00,29.87,1008.50,10.00,M,CLR,M,M,M,M,M,M,M,M,M,M,M,M,M,M,89.17,KLSV 210958Z AUTO 07004KT 10SM CLR 31/17 A2987 RMK AO2 SLP085 T03130172 $,M
INS,2022-08-21 09:58,-115.6733,36.5872,955.00,82.40,55.00,38.87,100.00,9.00,0.00,29.95,1008.40,10.00,M,CLR,M,M,M,M,M,M,M,M,M,M,M,M,M,M,81.66,KINS 210958Z AUTO 10009KT 10SM CLR 28/13 A2995 RMK AO2 SLP084 T02800127 $,M
MEV,2022-08-21 10:15,-119.7500,38.9963,1441.42,53.60,37.40,54.07,120.00,5.00,0.00,30.13,M,10.00,M,FEW,M,M,M,4400.00,M,M,M,M,M,M,M,M,M,M,53.60,KMEV 211015Z AUTO 12005KT 10SM FEW044 12/03 A3013 RMK AO2,M
BAM,2022-08-21 10:15,-116.8743,40.5990,1382.36,59.00,35.60,41.42,0.00,0.00,0.00,30.09,M,10.00,M,CLR,M,M,M,M,M,M,M,M,M,M,M,M,M,M,59.00,KBAM 211015Z AUTO 00000KT 10SM CLR 15/02 A3009 RMK AO1,M
TMT,2022-08-21 10:15,-117.1971,39.4643,1749.34,49.50,35.20,57.67,170.00,3.00,0.00,30.19,M,10.00,M,CLR,M,M,M,M,M,M,M,M,M,M,M,M,M,M,48.69,KTMT 211015Z AUTO 17003KT 10SM CLR 10/02 A3019 RMK AO2 T00970018,M
HTH,2022-08-21 10:15,-118.6315,38.5448,1282.89,73.40,37.40,26.98,0.00,0.00,0.00,30.06,M,10.00,M,CLR,M,M,M,M,M,M,M,M,M,M,M,M,M,M,73.40,KHTH 211015Z AUTO 00000KT 10SM CLR 23/03 A3006 RMK A01,M
CXP,2022-08-21 10:15,-119.7326,39.1923,1431.00,64.40,39.20,39.43,0.00,0.00,0.00,30.14,M,10.00,M,CLR,M,M,M,M,M,M,M,M,M,M,M,M,M,M,64.40,KCXP 211015Z AUTO 00000KT 10SM CLR 18/04 A3014 RMK AO2,M
BVU,2022-08-21 10:15,-114.8611,35.9475,671.00,86.00,64.40,48.58,170.00,8.00,0.00,29.92,M,M,M,M,M,M,M,M,M,M,M,M,M,M,M,M,M,M,87.49,KBVU 211015Z AUTO 17008KT 30/18 A2992 RMK AO2 PWINO TSNO,M
RTS,2022-08-21 10:15,-119.8764,39.6682,1539.00,60.80,37.40,41.71,350.00,7.00,0.00,30.15,M,10.00,M,CLR,M,M,M,M,M,M,M,M,M,M,M,M,M,M,60.80,KRTS 211015Z AUTO 35007KT 10SM CLR 16/03 A3015 RMK AO2,M
HTH,2022-08-21 10:35,-118.6315,38.5448,1282.89,69.80,39.20,32.72,240.00,4.00,0.00,30.07,M,10.00,M,CLR,M,M,M,M,M,M,M,M,M,M,M,M,M,M,69.80,KHTH 211035Z AUTO 24004KT 10SM CLR 21/04 A3007 RMK A01,M
TMT,2022-08-21 10:35,-117.1971,39.4643,1749.34,49.00,33.80,55.36,0.00,0.00,0.00,30.19,M,10.00,M,CLR,M,M,M,M,M,M,M,M,M,M,M,M,M,M,49.10,KTMT 211035Z AUTO 00000KT 10SM CLR 10/01 A3019 RMK AO2 T00950010,M
BVU,2022-08-21 10:35,-114.8611,35.9475,671.00,86.00,64.40,48.58,170.00,11.00,0.00,29.92,M,M,M,M,M,M,M,M,M,M,M,M,M,M,M,M,M,M,87.49,KBVU 211035Z AUTO 17011KT 30/18 A2992 RMK AO2 PWINO TSNO,M
CXP,2022-08-21 10:35,-119.7326,39.1923,1431.00,60.80,41.00,48.00,0.00,0.00,0.00,30.14,M,10.00,M,CLR,M,M,M,M,M,M,M,M,M,M,M,M,M,M,60.80,KCXP 211035Z AUTO 00000KT 10SM CLR 16/05 A3014 RMK AO2,M
RTS,2022-08-21 10:35,-119.8764,39.6682,1539.00,60.80,37.40,41.71,350.00,6.00,0.00,30.15,M,10.00,M,CLR,M,M,M,M,M,M,M,M,M,M,M,M,M,M,60.80,KRTS 211035Z AUTO 35006KT 10SM CLR 16/03 A3015 RMK AO2,M
MEV,2022-08-21 10:35,-119.7500,38.9963,1441.42,55.40,37.40,50.64,120.00,4.00,0.00,30.13,M,10.00,M,FEW,FEW,M,M,4400.00,5000.00,M,M,M,M,M,M,M,M,M,55.40,KMEV 211035Z AUTO 12004KT 10SM FEW044 FEW050 13/03 A3013 RMK AO2,M
BAM,2022-08-21 10:35,-116.8743,40.5990,1382.36,59.00,37.40,44.47,0.00,0.00,0.00,30.09,M,10.00,M,CLR,M,M,M,M,M,M,M,M,M,M,M,M,M,M,59.00,KBAM 211035Z AUTO 00000KT 10SM CLR 15/03 A3009 RMK AO1,M
ELY,2022-08-21 10:53,-114.8453,39.2950,1909.00,53.00,46.00,76.75,160.00,7.00,0.00,30.22,1013.60,10.00,M,CLR,M,M,M,M,M,M,M,M,M,M,M,M,M,M,53.10,KELY 211053Z AUTO 16007KT 10SM CLR 12/08 A3022 RMK AO2 SLP136 T01170078,M
P68,2022-08-21 10:53,-116.0056,39.6014,1993.00,56.00,41.00,57.23,200.00,7.00,0.00,30.18,1013.50,M,M,M,M,M,M,M,M,M,M,M,M,M,M,M,M,M,55.90,KP68 211053Z AUTO 20007KT 13/05 A3018 RMK AO1 SLP135 T01330050,M
LOL,2022-08-21 10:53,-118.5701,40.0684,1192.43,64.00,43.00,46.32,50.00,5.00,0.00,30.02,1012.00,10.00,M,CLR,M,M,M,M,M,M,M,M,M,M,M,M,M,M,64.00,KLOL 211053Z AUTO 05005KT 10SM CLR 18/06 A3002 RMK AO2 SLP120 T01780061,M
VGT,2022-08-21 10:53,-115.1933,36.2111,667.00,87.00,62.00,43.27,90.00,8.00,0.00,29.90,1011.10,10.00,M,CLR,M,M,M,M,M,M,M,M,M,M,M,M,M,M,87.58,KVGT 211053Z AUTO 09008KT 10SM CLR 31/17 A2990 RMK AO2 SLP111 T03060167,M
DRA,2022-08-21 10:53,-116.0278,36.6206,1009.00,75.00,51.00,43.14,180.00,5.00,0.00,29.96,1008.90,10.00,M,CLR,M,M,M,M,M,M,M,M,M,M,M,M,M,M,75.00,KDRA 211053Z AUTO 18005KT 10SM CLR 24/11 A2996 RMK AO2 SLP089 T02390106,M
RTS,2022-08-21 10:55,-119.8764,39.6682,1539.00,60.80,37.40,41.71,350.00,6.00,0.00,30.15,M,10.00,M,CLR,M,M,M,M,M,M,M,M,M,M,M,M,M,M,60.80,KRTS 211055Z AUTO 35006KT 10SM CLR 16/03 A3015 RMK AO2,M
RNO,2022-08-21 10:55,-119.7711,39.4839,1341.00,67.00,45.00,45.19,180.00,6.00,0.00,30.10,1013.00,10.00,M,CLR,M,M,M,M,M,M,M,M,M,M,M,M,M,M,66.90,KRNO 211055Z 18006KT 10SM CLR 19/07 A3010 RMK AO2 SLP130 T01940072,M
CXP,2022-08-21 10:55,-119.7326,39.1923,1431.00,60.80,41.00,48.00,0.00,0.00,0.00,30.14,M,10.00,M,CLR,M,M,M,M,M,M,M,M,M,M,M,M,M,M,60.80,KCXP 211055Z AUTO 00000KT 10SM CLR 16/05 A3014 RMK AO2,M
BVU,2022-08-21 10:55,-114.8611,35.9475,671.00,86.00,66.20,51.72,170.00,11.00,0.00,29.93,M,M,16.00,M,M,M,M,M,M,M,M,M,M,M,M,M,M,M,88.39,KBVU 211055Z AUTO 17011G16KT 30/19 A2993 RMK AO2 PWINO TSNO,M
TMT,2022-08-21 10:55,-117.1971,39.4643,1749.34,47.00,34.00,60.61,140.00,3.00,0.00,30.19,M,10.00,M,CLR,M,M,M,M,M,M,M,M,M,M,M,M,M,M,45.72,KTMT 211055Z AUTO 14003KT 10SM CLR 08/01 A3019 RMK AO2 T00830011,M
HTH,2022-08-21 10:55,-118.6315,38.5448,1282.89,69.80,37.40,30.49,240.00,6.00,0.00,30.07,M,10.00,M,CLR,M,M,M,M,M,M,M,M,M,M,M,M,M,M,69.80,KHTH 211055Z AUTO 24006KT 10SM CLR 21/03 A3007 RMK A01,M
BAM,2022-08-21 10:55,-116.8743,40.5990,1382.36,59.00,37.40,44.47,0.00,0.00,0.00,30.09,M,10.00,M,SCT,M,M,M,12000.00,M,M,M,M,M,M,M,M,M,M,59.00,KBAM 211055Z AUTO 00000KT 10SM SCT120 15/03 A3009 RMK AO1,M
MEV,2022-08-21 10:55,-119.7500,38.9963,1441.42,55.40,37.40,50.64,110.00,4.00,0.00,30.13,M,10.00,M,FEW,FEW,M,M,4300.00,5000.00,M,M,M,M,M,M,M,M,M,55.40,KMEV 211055Z AUTO 11004KT 10SM FEW043 FEW050 13/03 A3013 RMK AO2,M
WMC,2022-08-21 10:56,-117.8072,40.9019,1315.00,57.00,38.00,48.73,160.00,5.00,0.00,30.06,1012.80,10.00,M,CLR,M,M,M,M,M,M,M,M,M,M,M,M,M,M,57.00,KWMC 211056Z AUTO 16005KT 10SM CLR 14/03 A3006 RMK AO2 SLP128 T01390033 $,M
TPH,2022-08-21 10:56,-117.0904,38.0505,1654.00,66.00,39.00,37.00,360.00,6.00,0.00,30.15,1012.00,10.00,M,CLR,M,M,M,M,M,M,M,M,M,M,M,M,M,M,66.00,KTPH 211056Z AUTO 36006KT 10SM CLR 19/04 A3015 RMK AO2 SLP120 T01890039,M
EKO,2022-08-21 10:56,-115.7860,40.8242,1367.00,50.00,50.00,100.00,0.00,0.00,0.00,30.14,1016.10,10.00,M,CLR,M,M,M,M,M,M,M,M,M,M,M,M,M,M,50.00,KEKO 211056Z AUTO 00000KT 10SM CLR 10/10 A3014 RMK AO2 SLP161 T01000100 $,M
HND,2022-08-21 10:56,-115.1344,35.9729,742.79,83.00,64.00,52.93,170.00,11.00,0.00,29.94,1012.00,10.00,M,CLR,M,M,M,M,M,M,M,M,M,M,M,M,M,M,84.32,KHND 211056Z AUTO 17011KT 10SM CLR 28/18 A2994 RMK AO2 SLP120 T02830178,M
LAS,2022-08-21 10:56,-115.1634,36.0719,663.00,86.00,63.00,46.25,180.00,6.00,0.00,29.91,1009.60,10.00,M,CLR,M,M,M,M,M,M,M,M,M,M,M,M,M,M,86.88,KLAS 211056Z 18006KT 10SM CLR 30/17 A2991 RMK AO2 SLP096 T03000172,M
NFL,2022-08-21 10:56,-118.7010,39.4166,1199.00,67.00,41.00,38.76,170.00,5.00,0.00,30.03,1013.90,10.00,M,CLR,M,M,M,M,M,M,M,M,M,M,M,M,M,M,66.90,KNFL 211056Z AUTO 17005KT 10SM CLR 19/05 A3003 RMK AO2 SLP139 T01940050,M
INS,2022-08-21 10:58,-115.6733,36.5872,955.00,81.50,56.80,42.88,100.00,13.00,0.00,29.96,1008.90,10.00,M,FEW,M,M,M,15000.00,M,M,M,M,M,M,M,M,M,M,81.36,KINS 211058Z AUTO 10013KT 10SM FEW150 28/14 A2996 RMK AO2 SLP089 T02750138 $,M
LSV,2022-08-21 10:58,-115.0343,36.2362,570.00,87.00,65.00,47.73,40.00,9.00,0.00,29.88,1008.80,10.00,M,CLR,M,M,M,M,M,M,M,M,M,M,M,M,M,M,88.86,KLSV 211058Z AUTO 04009KT 10SM CLR 31/18 A2988 RMK AO2 SLP088 T03060183 $,M
BAM,2022-08-21 11:15,-116.8743,40.5990,1382.36,59.00,37.40,44.47,260.00,4.00,0.00,30.09,M,10.00,M,SCT,M,M,M,12000.00,M,M,M,M,M,M,M,M,M,M,59.00,KBAM 211115Z AUTO 26004KT 10SM SCT120 15/03 A3009 RMK AO1,M
HTH,2022-08-21 11:15,-118.6315,38.5448,1282.89,69.80,37.40,30.49,220.00,5.00,0.00,30.07,M,10.00,M,CLR,M,M,M,M,M,M,M,M,M,M,M,M,M,M,69.80,KHTH 211115Z AUTO 22005KT 10SM CLR 21/03 A3007 RMK A01,M
MEV,2022-08-21 11:15,-119.7500,38.9963,1441.42,55.40,37.40,50.64,0.00,0.00,0.00,30.13,M,10.00,M,FEW,M,M,M,5000.00,M,M,M,M,M,M,M,M,M,M,55.40,KMEV 211115Z AUTO 00000KT 10SM FEW050 13/03 A3013 RMK AO2,M
RTS,2022-08-21 11:15,-119.8764,39.6682,1539.00,60.80,37.40,41.71,330.00,6.00,0.00,30.15,M,10.00,M,CLR,M,M,M,M,M,M,M,M,M,M,M,M,M,M,60.80,KRTS 211115Z AUTO 33006KT 10SM CLR 16/03 A3015 RMK AO2,M
CXP,2022-08-21 11:15,-119.7326,39.1923,1431.00,59.00,41.00,51.18,0.00,0.00,0.00,30.15,M,10.00,M,CLR,M,M,M,M,M,M,M,M,M,M,M,M,M,M,59.00,KCXP 211115Z AUTO 00000KT 10SM CLR 15/05 A3015 RMK AO2,M
TMT,2022-08-21 11:15,-117.1971,39.4643,1749.34,47.00,34.30,60.88,0.00,0.00,0.00,30.20,M,10.00,M,CLR,M,M,M,M,M,M,M,M,M,M,M,M,M,M,47.10,KTMT 211115Z AUTO 00000KT 10SM CLR 08/01 A3020 RMK AO2 T00840013,M
BVU,2022-08-21 11:15,-114.8611,35.9475,671.00,86.00,66.20,51.72,170.00,9.00,0.00,29.93,M,M,M,M,M,M,M,M,M,M,M,M,M,M,M,M,M,M,88.39,KBVU 211115Z AUTO 17009KT 30/19 A2993 RMK AO2 PWINO TSNO,M
CXP,2022-08-21 11:30,-119.7326,39.1923,1431.00,60.80,42.80,51.45,0.00,0.00,0.00,30.15,M,10.00,M,CLR,M,M,M,M,M,M,M,M,M,M,M,M,M,M,60.80,KCXP 211130Z AUTO 00000KT 10SM CLR 16/06 A3015 RMK AO2,M
BAM,2022-08-21 11:35,-116.8743,40.5990,1382.36,60.80,37.40,41.71,270.00,4.00,0.00,30.10,M,10.00,M,CLR,M,M,M,M,M,M,M,M,M,M,M,M,M,M,60.80,KBAM 211135Z AUTO 27004KT 10SM CLR 16/03 A3010 RMK AO1,M
BVU,2022-08-21 11:35,-114.8611,35.9475,671.00,86.00,66.20,51.72,170.00,5.00,0.00,29.93,M,M,M,M,M,M,M,M,M,M,M,M,M,M,M,M,M,M,88.39,KBVU 211135Z AUTO 17005KT 30/19 A2993 RMK AO2 PWINO TSNO,M
RTS,2022-08-21 11:35,-119.8764,39.6682,1539.00,59.00,37.40,44.47,350.00,8.00,0.00,30.16,M,10.00,M,CLR,M,M,M,M,M,M,M,M,M,M,M,M,M,M,59.00,KRTS 211135Z AUTO 35008KT 10SM CLR 15/03 A3016 RMK AO2,M
HTH,2022-08-21 11:35,-118.6315,38.5448,1282.89,69.80,37.40,30.49,0.00,0.00,0.00,30.08,M,10.00,M,CLR,M,M,M,M,M,M,M,M,M,M,M,M,M,M,69.80,KHTH 211135Z AUTO 00000KT 10SM CLR 21/03 A3008 RMK A01,M
TMT,2022-08-21 11:35,-117.1971,39.4643,1749.34,48.60,36.30,62.30,0.00,0.00,0.00,30.20,M,10.00,M,CLR,M,M,M,M,M,M,M,M,M,M,M,M,M,M,48.60,KTMT 211135Z AUTO 00000KT 10SM CLR 09/02 A3020 RMK AO2 T00920024,M
MEV,2022-08-21 11:35,-119.7500,38.9963,1441.42,55.40,39.20,54.34,0.00,0.00,0.00,30.14,M,10.00,M,FEW,FEW,M,M,4600.00,5000.00,M,M,M,M,M,M,M,M,M,55.40,KMEV 211135Z AUTO 00000KT 10SM FEW046 FEW050 13/04 A3014 RMK AO2,M
VGT,2022-08-21 11:53,-115.1933,36.2111,667.00,87.00,63.00,44.66,80.00,8.00,0.00,29.91,1011.50,10.00,M,CLR,M,M,M,M,M,M,M,M,M,M,M,M,M,M,87.96,KVGT 211153Z AUTO 08008KT 10SM CLR 31/17 A2991 RMK AO2 SLP115 T03060172 10333 20300 53010,M
ELY,2022-08-21 11:53,-114.8453,39.2950,1909.00,52.00,46.00,79.92,180.00,7.00,0.00,30.22,1013.60,10.00,M,CLR,M,M,M,M,M,M,M,M,M,M,M,M,M,M,52.00,KELY 211153Z AUTO 18007KT 10SM CLR 11/08 A3022 RMK AO2 SLP136 T01110078 10167 20106 53006,M
LOL,2022-08-21 11:53,-118.5701,40.0684,1192.43,58.00,43.00,57.51,0.00,0.00,0.00,30.04,1012.90,10.00,M,CLR,M,M,M,M,M,M,M,M,M,M,M,M,M,M,57.90,KLOL 211153Z AUTO 00000KT 10SM CLR 14/06 A3004 RMK AO2 SLP129 T01440061 10239 20144 53010,M
P68,2022-08-21 11:53,-116.0056,39.6014,1993.00,55.00,40.00,56.66,190.00,6.00,0.00,30.20,1014.10,M,M,M,M,M,M,M,M,M,M,M,M,M,M,M,M,M,55.00,KP68 211153Z AUTO 19006KT 13/04 A3020 RMK AO1 SLP141 T01280044 10189 20117 53008,M
DRA,2022-08-21 11:53,-116.0278,36.6206,1009.00,76.00,52.00,43.28,0.00,0.00,0.00,29.98,1009.40,10.00,M,CLR,M,M,M,M,M,M,M,M,M,M,M,M,M,M,75.90,KDRA 211153Z AUTO 00000KT 10SM CLR 24/11 A2998 RMK AO2 SLP094 T02440111 10328 20239 53013,M
TMT,2022-08-21 11:55,-117.1971,39.4643,1749.34,46.00,35.00,65.52,210.00,5.00,0.00,30.20,M,10.00,M,CLR,M,M,M,M,M,M,M,M,M,M,M,M,M,M,43.02,KTMT 211155Z AUTO 21005KT 10SM CLR 08/02 A3020 RMK AO2 T00780017 10150 20077,M
RNO,2022-08-21 11:55,-119.7711,39.4839,1341.00,68.00,42.00,38.94,280.00,3.00,0.00,30.11,1013.20,10.00,M,CLR,M,M,M,M,M,M,M,M,M,M,M,M,M,M,68.00,KRNO 211155Z 28003KT 10SM CLR 20/06 A3011 RMK AO2 SLP132 T02000056 10272 20189 53006,M
RTS,2022-08-21 11:55,-119.8764,39.6682,1539.00,59.00,37.40,44.47,350.00,6.00,0.00,30.16,M,10.00,M,CLR,M,M,M,M,M,M,M,M,M,M,M,M,M,M,59.00,KRTS 211155Z AUTO 35006KT 10SM CLR 15/03 A3016 RMK AO2,M
BVU,2022-08-21 11:55,-114.8611,35.9475,671.00,84.20,66.20,54.80,150.00,6.00,0.00,29.94,M,M,M,M,M,M,M,M,M,M,M,M,M,M,M,M,M,M,86.50,KBVU 211155Z AUTO 15006KT 29/19 A2994 RMK AO2 PWINO TSNO,M
CXP,2022-08-21 11:55,-119.7326,39.1923,1431.00,59.00,42.80,54.86,0.00,0.00,0.00,30.16,M,10.00,M,CLR,M,M,M,M,M,M,M,M,M,M,M,M,M,M,59.00,KCXP 211155Z AUTO 00000KT 10SM CLR 15/06 A3016 RMK AO2,M
HTH,2022-08-21 11:55,-118.6315,38.5448,1282.89,69.80,39.20,32.72,210.00,3.00,0.00,30.08,M,10.00,M,CLR,M,M,M,M,M,M,M,M,M,M,M,M,M,M,69.80,KHTH 211155Z AUTO 21003KT 10SM CLR 21/04 A3008 RMK A01,M
BAM,2022-08-21 11:55,-116.8743,40.5990,1382.36,60.80,37.40,41.71,0.00,0.00,0.00,30.10,M,10.00,M,CLR,M,M,M,M,M,M,M,M,M,M,M,M,M,M,60.80,KBAM 211155Z AUTO 00000KT 10SM CLR 16/03 A3010 RMK AO1,M
MEV,2022-08-21 11:55,-119.7500,38.9963,1441.42,51.80,37.40,57.77,140.00,3.00,0.00,30.14,M,10.00,M,CLR,M,M,M,M,M,M,M,M,M,M,M,M,M,M,51.80,KMEV 211155Z AUTO 14003KT 10SM CLR 11/03 A3014 RMK AO2,M
NFL,2022-08-21 11:56,-118.7010,39.4166,1199.00,64.00,40.00,41.09,190.00,6.00,0.00,30.04,1014.10,10.00,M,CLR,M,M,M,M,M,M,M,M,M,M,M,M,M,M,64.00,KNFL 211156Z AUTO 19006KT 10SM CLR 18/04 A3004 RMK AO2 SLP141 T01780044 10256 20178 51008,M
LAS,2022-08-21 11:56,-115.1634,36.0719,663.00,84.00,59.00,42.80,200.00,4.00,0.00,29.92,1010.10,10.00,M,CLR,M,M,M,M,M,M,M,M,M,M,M,M,M,M,83.75,KLAS 211156Z 20004KT 10SM CLR 29/15 A2992 RMK AO2 SLP101 T02890150 10322 20289 53009,M
TPH,2022-08-21 11:56,-117.0904,38.0505,1654.00,66.00,39.00,37.00,360.00,9.00,0.00,30.16,1012.40,10.00,M,CLR,M,M,M,M,M,M,M,M,M,M,M,M,M,M,66.00,KTPH 211156Z AUTO 36009KT 10SM CLR 19/04 A3016 RMK AO2 SLP124 T01890039 10244 20183 53008,M
EKO,2022-08-21 11:56,-115.7860,40.8242,1367.00,54.00,50.00,86.29,40.00,3.00,0.00,30.15,1016.30,10.00,M,CLR,M,M,M,M,M,M,M,M,M,M,M,M,M,M,54.00,KEKO 211156Z AUTO 04003KT 10SM CLR 12/10 A3015 RMK AO2 SLP163 T01220100 10211 20100 53010 $,M
WMC,2022-08-21 11:56,-117.8072,40.9019,1315.00,58.00,38.00,47.18,170.00,7.00,0.00,30.07,1013.00,10.00,M,CLR,M,M,M,M,M,M,M,M,M,M,M,M,M,M,57.90,KWMC 211156Z AUTO 17007KT 10SM CLR 14/03 A3007 RMK AO2 SLP130 T01440033 10211 20133 52009 $,M
HND,2022-08-21 11:56,-115.1344,35.9729,742.79,82.00,65.00,56.24,200.00,10.00,0.00,29.96,1012.80,10.00,M,CLR,M,M,M,M,M,M,M,M,M,M,M,M,M,M,83.76,KHND 211156Z AUTO 20010KT 10SM CLR 28/18 A2996 RMK AO2 SLP128 T02780183 10317 20278 53008,M
LSV,2022-08-21 11:58,-115.0343,36.2362,570.00,86.20,65.80,50.69,50.00,6.00,0.00,29.90,1009.70,10.00,M,CLR,M,M,M,M,M,M,M,M,M,M,M,M,M,M,88.39,KLSV 211158Z AUTO 05006KT 10SM CLR 30/19 A2990 RMK AO2 SLP097 T03010188 10332 20301 52011 $,M
INS,2022-08-21 11:58,-115.6733,36.5872,955.00,80.00,58.60,47.89,120.00,7.00,0.00,29.97,1009.30,10.00,M,CLR,M,M,M,M,M,M,M,M,M,M,M,M,M,M,80.69,KINS 211158Z AUTO 12007KT 10SM CLR 27/15 A2997 RMK AO2 SLP093 T02670148 10301 20267 52010 $,M
TMT,2022-08-21 12:15,-117.1971,39.4643,1749.34,46.40,35.20,64.79,220.00,5.00,0.00,30.21,M,10.00,M,CLR,M,M,M,M,M,M,M,M,M,M,M,M,M,M,43.50,KTMT 211215Z AUTO 22005KT 10SM CLR 08/02 A3021 RMK AO2 T00800018,M
CXP,2022-08-21 12:15,-119.7326,39.1923,1431.00,59.00,39.20,47.72,330.00,4.00,0.00,30.16,M,10.00,M,CLR,M,M,M,M,M,M,M,M,M,M,M,M,M,M,59.00,KCXP 211215Z AUTO 33004KT 10SM CLR 15/04 A3016 RMK AO2,M
RTS,2022-08-21 12:15,-119.8764,39.6682,1539.00,59.00,37.40,44.47,360.00,5.00,0.00,30.17,M,10.00,M,CLR,M,M,M,M,M,M,M,M,M,M,M,M,M,M,59.00,KRTS 211215Z AUTO 36005KT 10SM CLR 15/03 A3017 RMK AO2,M
MEV,2022-08-21 12:15,-119.7500,38.9963,1441.42,51.80,37.40,57.77,130.00,3.00,0.00,30.15,M,10.00,M,FEW,FEW,M,M,4000.00,5000.00,M,M,M,M,M,M,M,M,M,51.80,KMEV 211215Z AUTO 13003KT 10SM FEW040 FEW050 11/03 A3015 RMK AO2,M
BAM,2022-08-21 12:15,-116.8743,40.5990,1382.36,60.80,37.40,41.71,0.00,0.00,0.00,30.10,M,10.00,M,CLR,M,M,M,M,M,M,M,M,M,M,M,M,M,M,60.80,KBAM 211215Z AUTO 00000KT 10SM CLR 16/03 A3010 RMK AO1,M
BVU,2022-08-21 12:15,-114.8611,35.9475,671.00,84.20,66.20,54.80,160.00,10.00,0.00,29.95,M,M,M,M,M,M,M,M,M,M,M,M,M,M,M,M,M,M,86.50,KBVU 211215Z AUTO 16010KT 29/19 A2995 RMK AO2 PWINO TSNO,M
HTH,2022-08-21 12:15,-118.6315,38.5448,1282.89,68.00,41.00,37.32,190.00,3.00,0.00,30.09,M,10.00,M,CLR,M,M,M,M,M,M,M,M,M,M,M,M,M,M,68.00,KHTH 211215Z AUTO 19003KT 10SM CLR 20/05 A3009 RMK A01,M
CXP,2022-08-21 12:30,-119.7326,39.1923,1431.00,59.00,37.40,44.47,320.00,5.00,0.00,30.17,M,10.00,M,CLR,M,M,M,M,M,M,M,M,M,M,M,M,M,M,59.00,KCXP 211230Z AUTO 32005KT 10SM CLR 15/03 A3017 RMK AO2,M
HTH,2022-08-21 12:35,-118.6315,38.5448,1282.89,68.00,39.20,34.80,210.00,3.00,0.00,30.10,M,10.00,M,CLR,M,M,M,M,M,M,M,M,M,M,M,M,M,M,68.00,KHTH 211235Z AUTO 21003KT 10SM CLR 20/04 A3010 RMK A01,M
BVU,2022-08-21 12:35,-114.8611,35.9475,671.00,84.20,68.00,58.32,160.00,7.00,0.00,29.95,M,M,M,M,M,M,M,M,M,M,M,M,M,M,M,M,M,M,87.40,KBVU 211235Z AUTO 16007KT 29/20 A2995 RMK AO2 PWINO TSNO,M
RTS,2022-08-21 12:35,-119.8764,39.6682,1539.00,60.80,37.40,41.71,0.00,0.00,0.00,30.17,M,10.00,M,CLR,M,M,M,M,M,M,M,M,M,M,M,M,M,M,60.80,KRTS 211235Z AUTO 00000KT 10SM CLR 16/03 A3017 RMK AO2,M
MEV,2022-08-21 12:35,-119.7500,38.9963,1441.42,50.00,35.60,57.52,0.00,0.00,0.00,30.16,M,10.00,M,FEW,SCT,M,M,4000.00,5000.00,M,M,M,M,M,M,M,M,M,50.00,KMEV 211235Z AUTO 00000KT 10SM FEW040 SCT050 10/02 A3016 RMK AO2,M
TMT,2022-08-21 12:35,-117.1971,39.4643,1749.34,47.70,37.20,66.77,240.00,9.00,0.00,30.21,M,10.00,M,CLR,M,M,M,M,M,M,M,M,M,M,M,M,M,M,43.04,KTMT 211235Z AUTO 24009KT 10SM CLR 09/03 A3021 RMK AO2 T00870029,M
BAM,2022-08-21 12:35,-116.8743,40.5990,1382.36,55.40,37.40,50.64,140.00,3.00,0.00,30.11,M,10.00,M,CLR,M,M,M,M,M,M,M,M,M,M,M,M,M,M,55.40,KBAM 211235Z AUTO 14003KT 10SM CLR 13/03 A3011 RMK AO1,M
LOL,2022-08-21 12:53,-118.5701,40.0684,1192.43,55.00,42.00,61.69,0.00,0.00,0.00,30.05,1013.50,10.00,M,CLR,M,M,M,M,M,M,M,M,M,M,M,M,M,M,55.00,KLOL 211253Z AUTO 00000KT 10SM CLR 13/06 A3005 RMK AO2 SLP135 T01280056,M
VGT,2022-08-21 12:53,-115.1933,36.2111,667.00,85.00,64.00,49.62,70.00,7.00,0.00,29.93,1012.10,10.00,M,CLR,M,M,M,M,M,M,M,M,M,M,M,M,M,M,86.23,KVGT 211253Z 07007KT 10SM CLR 29/18 A2993 RMK AO2 SLP121 T02940178,M
ELY,2022-08-21 12:53,-114.8453,39.2950,1909.00,51.00,46.00,82.62,170.00,8.00,0.00,30.24,1014.70,10.00,M,CLR,M,M,M,M,M,M,M,M,M,M,M,M,M,M,51.10,KELY 211253Z AUTO 17008KT 10SM CLR 11/08 A3024 RMK AO2 SLP147 T01060078,M
P68,2022-08-21 12:53,-116.0056,39.6014,1993.00,53.00,40.00,60.73,200.00,5.00,0.00,30.21,1014.80,M,M,M,M,M,M,M,M,M,M,M,M,M,M,M,M,M,53.10,KP68 211253Z AUTO 20005KT 12/04 A3021 RMK AO1 SLP148 T01170044,M
DRA,2022-08-21 12:53,-116.0278,36.6206,1009.00,75.00,52.00,44.59,340.00,4.00,0.00,30.00,1010.40,10.00,M,CLR,M,M,M,M,M,M,M,M,M,M,M,M,M,M,75.00,KDRA 211253Z AUTO 34004KT 10SM CLR 24/11 A3000 RMK AO2 SLP104 T02390111,M
RNO,2022-08-21 12:55,-119.7711,39.4839,1341.00,64.00,46.00,51.93,0.00,0.00,0.00,30.13,1013.90,10.00,M,CLR,M,M,M,M,M,M,M,M,M,M,M,M,M,M,64.00,KRNO 211255Z 00000KT 10SM CLR 18/08 A3013 RMK AO2 SLP139 T01780078,M
BVU,2022-08-21 12:55,-114.8611,35.9475,671.00,84.20,68.00,58.32,160.00,10.00,0.00,29.96,M,M,M,M,M,M,M,M,M,M,M,M,M,M,M,M,M,M,87.40,KBVU 211255Z AUTO 16010KT 29/20 A2996 RMK AO2 PWINO TSNO,M
TMT,2022-08-21 12:55,-117.1971,39.4643,1749.34,49.30,36.70,61.66,250.00,4.00,0.00,30.22,M,10.00,M,CLR,M,M,M,M,M,M,M,M,M,M,M,M,M,M,47.62,KTMT 211255Z AUTO 25004KT 10SM CLR 10/03 A3022 RMK AO2 T00960026,M
HTH,2022-08-21 12:55,-118.6315,38.5448,1282.89,68.00,41.00,37.32,200.00,4.00,0.00,30.10,M,10.00,M,CLR,M,M,M,M,M,M,M,M,M,M,M,M,M,M,68.00,KHTH 211255Z AUTO 20004KT 10SM CLR 20/05 A3010 RMK A01,M
BAM,2022-08-21 12:55,-116.8743,40.5990,1382.36,53.60,37.40,54.07,190.00,3.00,0.00,30.12,M,10.00,M,CLR,M,M,M,M,M,M,M,M,M,M,M,M,M,M,53.60,KBAM 211255Z AUTO 19003KT 10SM CLR 12/03 A3012 RMK AO1,M
MEV,2022-08-21 12:55,-119.7500,38.9963,1441.42,51.80,39.20,61.99,0.00,0.00,0.00,30.16,M,10.00,M,CLR,M,M,M,M,M,M,M,M,M,M,M,M,M,M,51.80,KMEV 211255Z AUTO 00000KT 10SM CLR 11/04 A3016 RMK AO2,M
RTS,2022-08-21 12:55,-119.8764,39.6682,1539.00,59.00,37.40,44.47,340.00,3.00,0.00,30.18,M,10.00,M,CLR,M,M,M,M,M,M,M,M,M,M,M,M,M,M,59.00,KRTS 211255Z AUTO 34003KT 10SM CLR 15/03 A3018 RMK AO2,M
CXP,2022-08-21 12:55,-119.7326,39.1923,1431.00,59.00,39.20,47.72,0.00,0.00,0.00,30.17,M,10.00,M,CLR,M,M,M,M,M,M,M,M,M,M,M,M,M,M,59.00,KCXP 211255Z AUTO 00000KT 10SM CLR 15/04 A3017 RMK AO2,M
LAS,2022-08-21 12:56,-115.1634,36.0719,663.00,83.00,60.00,46.12,190.00,4.00,0.00,29.94,1011.00,10.00,M,FEW,SCT,M,M,18000.00,25000.00,M,M,M,M,M,M,M,M,M,83.13,KLAS 211256Z 19004KT 10SM FEW180 SCT250 28/16 A2994 RMK AO2 SLP110 T02830156,M
EKO,2022-08-21 12:56,-115.7860,40.8242,1367.00,52.00,49.00,89.13,50.00,6.00,0.00,30.17,1017.00,10.00,M,CLR,M,M,M,M,M,M,M,M,M,M,M,M,M,M,52.00,KEKO 211256Z AUTO 05006KT 10SM CLR 11/09 A3017 RMK AO2 SLP170 T01110094 $,M
HND,2022-08-21 12:56,-115.1344,35.9729,742.79,81.00,65.00,58.10,200.00,9.00,0.00,29.98,1013.80,10.00,M,CLR,M,M,M,M,M,M,M,M,M,M,M,M,M,M,82.79,KHND 211256Z AUTO 20009KT 10SM CLR 27/18 A2998 RMK AO2 SLP138 T02720183,M
TPH,2022-08-21 12:56,-117.0904,38.0505,1654.00,65.00,39.00,38.44,20.00,12.00,0.00,30.18,1013.20,10.00,M,CLR,M,M,M,M,M,M,M,M,M,M,M,M,M,M,64.90,KTPH 211256Z AUTO 02012KT 10SM CLR 18/04 A3018 RMK AO2 SLP132 T01830039,M
NFL,2022-08-21 12:56,-118.7010,39.4166,1199.00,62.00,40.00,43.93,160.00,6.00,0.00,30.06,1014.60,10.00,M,CLR,M,M,M,M,M,M,M,M,M,M,M,M,M,M,62.10,KNFL 211256Z AUTO 16006KT 10SM CLR 17/04 A3006 RMK AO2 SLP146 T01670044,M
WMC,2022-08-21 12:56,-117.8072,40.9019,1315.00,55.00,37.00,50.58,190.00,5.00,0.00,30.09,1013.80,10.00,M,CLR,M,M,M,M,M,M,M,M,M,M,M,M,M,M,55.00,KWMC 211256Z AUTO 19005KT 10SM CLR 13/03 A3009 RMK AO2 SLP138 T01280028 $,M
LSV,2022-08-21 12:58,-115.0343,36.2362,570.00,84.60,67.00,55.81,50.00,9.00,0.00,29.92,1010.50,10.00,M,CLR,M,M,M,M,M,M,M,M,M,M,M,M,M,M,87.37,KLSV 211258Z AUTO 05009KT 10SM CLR 29/20 A2992 RMK AO2 SLP105 T02920195 $,M
INS,2022-08-21 12:58,-115.6733,36.5872,955.00,79.20,58.30,48.79,140.00,5.00,0.00,30.00,1010.40,10.00,M,CLR,M,M,M,M,M,M,M,M,M,M,M,M,M,M,79.20,KINS 211258Z AUTO 14005KT 10SM CLR 26/15 A3000 RMK AO2 SLP104 T02620146 $,M
TMT,2022-08-21 13:15,-117.1971,39.4643,1749.34,45.00,34.50,66.19,160.00,5.00,0.00,30.23,M,10.00,M,CLR,M,M,M,M,M,M,M,M,M,M,M,M,M,M,41.95,KTMT 211315Z AUTO 16005KT 10SM CLR 07/01 A3023 RMK AO2 T00730014,M
BVU,2022-08-21 13:15,-114.8611,35.9475,671.00,84.20,68.00,58.32,170.00,9.00,0.00,29.96,M,M,M,M,M,M,M,M,M,M,M,M,M,M,M,M,M,M,87.40,KBVU 211315Z AUTO 17009KT 29/20 A2996 RMK AO2 PWINO TSNO,M
CXP,2022-08-21 13:15,-119.7326,39.1923,1431.00,57.20,41.00,54.60,0.00,0.00,0.00,30.18,M,10.00,M,CLR,M,M,M,M,M,M,M,M,M,M,M,M,M,M,57.20,KCXP 211315Z AUTO 00000KT 10SM CLR 14/05 A3018 RMK AO2,M
RTS,2022-08-21 13:15,-119.8764,39.6682,1539.00,57.20,37.40,47.44,360.00,4.00,0.00,30.18,M,10.00,M,CLR,M,M,M,M,M,M,M,M,M,M,M,M,M,M,57.20,KRTS 211315Z AUTO 36004KT 10SM CLR 14/03 A3018 RMK AO2,M
MEV,2022-08-21 13:15,-119.7500,38.9963,1441.42,48.20,35.60,61.52,120.00,3.00,0.00,30.16,M,10.00,M,CLR,M,M,M,M,M,M,M,M,M,M,M,M,M,M,47.21,KMEV 211315Z AUTO 12003KT 10SM CLR 09/02 A3016 RMK AO2,M
BAM,2022-08-21 13:15,-116.8743,40.5990,1382.36,55.40,37.40,50.64,240.00,5.00,0.00,30.13,M,10.00,M,CLR,M,M,M,M,M,M,M,M,M,M,M,M,M,M,55.40,KBAM 211315Z AUTO 24005KT 10SM CLR 13/03 A3013 RMK AO1,M
HTH,2022-08-21 13:15,-118.6315,38.5448,1282.89,68.00,39.20,34.80,0.00,0.00,0.00,30.11,M,10.00,M,CLR,M,M,M,M,M,M,M,M,M,M,M,M,M,M,68.00,KHTH 211315Z AUTO 00000KT 10SM CLR 20/04 A3011 RMK A01,M
BAM,2022-08-21 13:35,-116.8743,40.5990,1382.36,57.20,37.40,47.44,230.00,4.00,0.00,30.14,M,10.00,M,CLR,M,M,M,M,M,M,M,M,M,M,M,M,M,M,57.20,KBAM 211335Z AUTO 23004KT 10SM CLR 14/03 A3014 RMK AO1,M
MEV,2022-08-21 13:35,-119.7500,38.9963,1441.42,51.80,35.60,53.81,0.00,0.00,0.00,30.17,M,10.00,M,CLR,M,M,M,M,M,M,M,M,M,M,M,M,M,M,51.80,KMEV 211335Z AUTO 00000KT 10SM CLR 11/02 A3017 RMK AO2,M
RTS,2022-08-21 13:35,-119.8764,39.6682,1539.00,59.00,37.40,44.47,360.00,5.00,0.00,30.19,M,10.00,M,CLR,M,M,M,M,M,M,M,M,M,M,M,M,M,M,59.00,KRTS 211335Z AUTO 36005KT 10SM CLR 15/03 A3019 RMK AO2,M
CXP,2022-08-21 13:35,-119.7326,39.1923,1431.00,57.20,41.00,54.60,0.00,0.00,0.00,30.18,M,10.00,M,CLR,M,M,M,M,M,M,M,M,M,M,M,M,M,M,57.20,KCXP 211335Z AUTO 00000KT 10SM CLR 14/05 A3018 RMK AO2,M
HTH,2022-08-21 13:35,-118.6315,38.5448,1282.89,66.20,39.20,37.03,180.00,3.00,0.00,30.12,M,10.00,M,CLR,M,M,M,M,M,M,M,M,M,M,M,M,M,M,66.20,KHTH 211335Z AUTO 18003KT 10SM CLR 19/04 A3012 RMK A01,M
BVU,2022-08-21 13:35,-114.8611,35.9475,671.00,84.20,68.00,58.32,160.00,9.00,0.00,29.97,M,M,M,M,M,M,M,M,M,M,M,M,M,M,M,M,M,M,87.40,KBVU 211335Z AUTO 16009KT 29/20 A2997 RMK AO2 PWINO TSNO,M
TMT,2022-08-21 13:35,-117.1971,39.4643,1749.34,45.50,34.30,64.68,150.00,5.00,0.00,30.24,M,10.00,M,CLR,M,M,M,M,M,M,M,M,M,M,M,M,M,M,42.43,KTMT 211335Z AUTO 15005KT 10SM CLR 08/01 A3024 RMK AO2 T00750013,M
CXP,2022-08-21 13:50,-119.7326,39.1923,1431.00,60.80,41.00,48.00,0.00,0.00,0.00,30.18,M,10.00,M,CLR,M,M,M,M,M,M,M,M,M,M,M,M,M,M,60.80,KCXP 211350Z AUTO 00000KT 10SM CLR 16/05 A3018 RMK AO2,M
P68,2022-08-21 13:53,-116.0056,39.6014,1993.00,54.00,41.00,61.32,0.00,0.00,0.00,30.23,1015.90,M,M,M,M,M,M,M,M,M,M,M,M,M,M,M,M,M,54.00,KP68 211353Z AUTO 00000KT 12/05 A3023 RMK AO1 SLP159 T01220050,M
VGT,2022-08-21 13:53,-115.1933,36.2111,667.00,85.00,65.00,51.21,80.00,7.00,0.00,29.96,1013.10,10.00,M,CLR,M,M,M,M,M,M,M,M,M,M,M,M,M,M,86.62,KVGT 211353Z 08007KT 10SM CLR 29/18 A2996 RMK AO2 SLP131 T02940183,M
ELY,2022-08-21 13:53,-114.8453,39.2950,1909.00,55.00,47.00,74.08,180.00,7.00,0.00,30.26,1015.30,10.00,M,CLR,M,M,M,M,M,M,M,M,M,M,M,M,M,M,55.00,KELY 211353Z AUTO 18007KT 10SM CLR 13/08 A3026 RMK AO2 SLP153 T01280083,M
LOL,2022-08-21 13:53,-118.5701,40.0684,1192.43,58.00,43.00,57.51,120.00,3.00,0.00,30.08,1014.40,10.00,M,CLR,M,M,M,M,M,M,M,M,M,M,M,M,M,M,57.90,KLOL 211353Z AUTO 12003KT 10SM CLR 14/06 A3008 RMK AO2 SLP144 T01440061,M
DRA,2022-08-21 13:53,-116.0278,36.6206,1009.00,79.00,55.00,43.59,0.00,0.00,0.00,30.03,1011.10,10.00,M,CLR,M,M,M,M,M,M,M,M,M,M,M,M,M,M,79.00,KDRA 211353Z AUTO 00000KT 10SM CLR 26/13 A3003 RMK AO2 SLP111 T02610128,M
MEV,2022-08-21 13:55,-119.7500,38.9963,1441.42,53.60,39.20,58.02,140.00,4.00,0.00,30.18,M,10.00,M,CLR,M,M,M,M,M,M,M,M,M,M,M,M,M,M,53.60,KMEV 211355Z AUTO 14004KT 10SM CLR 12/04 A3018 RMK AO2,M
HTH,2022-08-21 13:55,-118.6315,38.5448,1282.89,69.80,41.00,35.09,210.00,3.00,0.00,30.12,M,10.00,M,CLR,M,M,M,M,M,M,M,M,M,M,M,M,M,M,69.80,KHTH 211355Z AUTO 21003KT 10SM CLR 21/05 A3012 RMK A01,M
TMT,2022-08-21 13:55,-117.1971,39.4643,1749.34,53.00,37.40,55.48,230.00,6.00,0.00,30.24,M,10.00,M,CLR,M,M,M,M,M,M,M,M,M,M,M,M,M,M,52.90,KTMT 211355Z AUTO 23006KT 10SM CLR 12/03 A3024 RMK AO2 T01160030,M
BVU,2022-08-21 13:55,-114.8611,35.9475,671.00,84.20,68.00,58.32,170.00,6.00,0.00,29.98,M,M,M,M,M,M,M,M,M,M,M,M,M,M,M,M,M,M,87.40,KBVU 211355Z AUTO 17006KT 29/20 A2998 RMK AO2 PWINO TSNO,M
RNO,2022-08-21 13:55,-119.7711,39.4839,1341.00,68.00,41.00,37.32,280.00,3.00,0.00,30.15,1014.60,10.00,M,CLR,M,M,M,M,M,M,M,M,M,M,M,M,M,M,68.00,KRNO 211355Z 28003KT 10SM CLR 20/05 A3015 RMK AO2 SLP146 T02000050,M
RTS,2022-08-21 13:55,-119.8764,39.6682,1539.00,59.00,37.40,44.47,350.00,5.00,0.00,30.19,M,10.00,M,CLR,M,M,M,M,M,M,M,M,M,M,M,M,M,M,59.00,KRTS 211355Z AUTO 35005KT 10SM CLR 15/03 A3019 RMK AO2,M
BAM,2022-08-21 13:55,-116.8743,40.5990,1382.36,57.20,37.40,47.44,300.00,3.00,0.00,30.15,M,10.00,M,CLR,M,M,M,M,M,M,M,M,M,M,M,M,M,M,57.20,KBAM 211355Z AUTO 30003KT 10SM CLR 14/03 A3015 RMK AO1,M
EKO,2022-08-21 13:56,-115.7860,40.8242,1367.00,54.00,48.00,80.07,60.00,4.00,0.00,30.19,1017.90,10.00,M,CLR,M,M,M,M,M,M,M,M,M,M,M,M,M,M,54.00,KEKO 211356Z AUTO 06004KT 10SM CLR 12/09 A3019 RMK AO2 SLP179 T01220089 $,M
NFL,2022-08-21 13:56,-118.7010,39.4166,1199.00,67.00,40.00,37.14,160.00,5.00,0.00,30.08,1015.30,10.00,M,CLR,M,M,M,M,M,M,M,M,M,M,M,M,M,M,66.90,KNFL 211356Z AUTO 16005KT 10SM CLR 19/04 A3008 RMK AO2 SLP153 T01940044,M
LAS,2022-08-21 13:56,-115.1634,36.0719,663.00,83.00,62.00,49.51,190.00,3.00,0.00,29.97,1011.90,10.00,M,FEW,M,M,M,18000.00,M,M,M,M,M,M,M,M,M,M,83.70,KLAS 211356Z 19003KT 10SM FEW180 28/17 A2997 RMK AO2 SLP119 T02830167,M
WMC,2022-08-21 13:56,-117.8072,40.9019,1315.00,58.00,38.00,47.18,0.00,0.00,0.00,30.11,1014.40,10.00,M,CLR,M,M,M,M,M,M,M,M,M,M,M,M,M,M,57.90,KWMC 211356Z AUTO 00000KT 10SM CLR 14/03 A3011 RMK AO2 SLP144 T01440033 $,M
HND,2022-08-21 13:56,-115.1344,35.9729,742.79,82.00,67.00,60.28,170.00,7.00,0.00,30.01,1014.50,10.00,M,CLR,M,M,M,M,M,M,M,M,M,M,M,M,M,M,84.48,KHND 211356Z 17007KT 10SM CLR 28/19 A3001 RMK AO2 SLP145 T02780194,M
TPH,2022-08-21 13:56,-117.0904,38.0505,1654.00,66.00,40.00,38.32,20.00,7.00,0.00,30.20,1014.00,10.00,M,CLR,M,M,M,M,M,M,M,M,M,M,M,M,M,M,66.00,KTPH 211356Z AUTO 02007KT 10SM CLR 19/04 A3020 RMK AO2 SLP140 T01890044,M
LSV,2022-08-21 13:58,-115.0343,36.2362,570.00,84.70,66.20,53.92,50.00,8.00,0.00,29.94,1011.10,10.00,M,CLR,M,M,M,M,M,M,M,M,M,M,M,M,M,M,87.02,KLSV 211358Z AUTO 05008KT 10SM CLR 29/19 A2994 RMK AO2 SLP111 T02930190 $,M
INS,2022-08-21 13:58,-115.6733,36.5872,955.00,80.00,56.00,43.73,150.00,3.00,0.00,30.02,1011.10,10.00,M,CLR,M,M,M,M,M,M,M,M,M,M,M,M,M,M,79.90,KINS 211358Z AUTO 15003KT 10SM CLR 27/13 A3002 RMK AO2 SLP111 T02660133 $,M
BVU,2022-08-21 14:15,-114.8611,35.9475,671.00,84.20,69.80,62.03,160.00,9.00,0.00,29.98,M,M,M,M,M,M,M,M,M,M,M,M,M,M,M,M,M,M,88.43,KBVU 211415Z AUTO 16009KT 29/21 A2998 RMK AO2 PWINO TSNO,M
RTS,2022-08-21 14:15,-119.8764,39.6682,1539.00,60.80,39.20,44.76,0.00,0.00,0.00,30.20,M,10.00,M,CLR,M,M,M,M,M,M,M,M,M,M,M,M,M,M,60.80,KRTS 211415Z AUTO 00000KT 10SM CLR 16/04 A3020 RMK AO2,M
CXP,2022-08-21 14:15,-119.7326,39.1923,1431.00,62.60,41.00,45.04,0.00,0.00,0.00,30.19,M,10.00,M,CLR,M,M,M,M,M,M,M,M,M,M,M,M,M,M,62.60,KCXP 211415Z AUTO 00000KT 10SM CLR 17/05 A3019 RMK AO2,M
TMT,2022-08-21 14:15,-117.1971,39.4643,1749.34,56.50,38.70,51.20,260.00,3.00,0.00,30.25,M,10.00,M,CLR,M,M,M,M,M,M,M,M,M,M,M,M,M,M,56.50,KTMT 211415Z AUTO 26003KT 10SM CLR 14/04 A3025 RMK AO2 T01360037,M
HTH,2022-08-21 14:15,-118.6315,38.5448,1282.89,71.60,41.00,33.00,0.00,0.00,0.00,30.13,M,5.00,M,CLR,M,M,M,M,M,M,M,HZ,M,M,M,M,M,M,71.60,KHTH 211415Z AUTO 00000KT 5SM HZ CLR 22/05 A3013 RMK A01,M
BAM,2022-08-21 14:15,-116.8743,40.5990,1382.36,60.80,39.20,44.76,0.00,0.00,0.00,30.15,M,10.00,M,CLR,M,M,M,M,M,M,M,M,M,M,M,M,M,M,60.80,KBAM 211415Z AUTO 00000KT 10SM CLR 16/04 A3015 RMK AO1,M
MEV,2022-08-21 14:15,-119.7500,38.9963,1441.42,59.00,41.00,51.18,0.00,0.00,0.00,30.18,M,10.00,M,CLR,M,M,M,M,M,M,M,M,M,M,M,M,M,M,59.00,KMEV 211415Z AUTO 00000KT 10SM CLR 15/05 A3018 RMK AO2,M
RTS,2022-08-21 14:35,-119.8764,39.6682,1539.00,64.40,39.20,39.43,330.00,4.00,0.00,30.21,M,10.00,M,CLR,M,M,M,M,M,M,M,M,M,M,M,M,M,M,64.40,KRTS 211435Z AUTO 33004KT 10SM CLR 18/04 A3021 RMK AO2,M
CXP,2022-08-21 14:35,-119.7326,39.1923,1431.00,64.40,39.20,39.43,0.00,0.00,0.00,30.19,M,10.00,M,CLR,M,M,M,M,M,M,M,M,M,M,M,M,M,M,64.40,KCXP 211435Z AUTO 00000KT 10SM CLR 18/04 A3019 RMK AO2,M
BVU,2022-08-21 14:35,-114.8611,35.9475,671.00,86.00,69.80,58.55,170.00,11.00,0.00,29.99,M,M,M,M,M,M,M,M,M,M,M,M,M,M,M,M,M,M,90.58,KBVU 211435Z AUTO 17011KT 30/21 A2999 RMK AO2 PWINO TSNO,M
TMT,2022-08-21 14:35,-117.1971,39.4643,1749.34,56.50,40.00,54.07,230.00,3.00,0.00,30.25,M,10.00,M,CLR,M,M,M,M,M,M,M,M,M,M,M,M,M,M,56.50,KTMT 211435Z AUTO 23003KT 10SM CLR 14/05 A3025 RMK AO2 T01360045,M
HTH,2022-08-21 14:35,-118.6315,38.5448,1282.89,73.40,42.80,33.29,0.00,0.00,0.00,30.13,M,10.00,M,CLR,M,M,M,M,M,M,M,M,M,M,M,M,M,M,73.40,KHTH 211435Z AUTO 00000KT 10SM CLR 23/06 A3013 RMK A01,M
BAM,2022-08-21 14:35,-116.8743,40.5990,1382.36,64.40,39.20,39.43,140.00,4.00,0.00,30.15,M,10.00,M,CLR,M,M,M,M,M,M,M,M,M,M,M,M,M,M,64.40,KBAM 211435Z AUTO 14004KT 10SM CLR 18/04 A3015 RMK AO1,M
MEV,2022-08-21 14:35,-119.7500,38.9963,1441.42,60.80,39.20,44.76,0.00,0.00,0.00,30.18,M,10.00,M,CLR,M,M,M,M,M,M,M,M,M,M,M,M,M,M,60.80,KMEV 211435Z AUTO 00000KT 10SM CLR 16/04 A3018 RMK AO2,M
VGT,2022-08-21 14:53,-115.1933,36.2111,667.00,87.00,66.00,49.60,90.00,7.00,0.00,29.97,1013.50,10.00,M,CLR,M,M,M,M,M,M,M,M,M,M,M,M,M,M,89.44,KVGT 211453Z 09007KT 10SM CLR 31/19 A2997 RMK AO2 SLP135 T03060189 51018,M
P68,2022-08-21 14:53,-116.0056,39.6014,1993.00,63.00,41.00,44.41,220.00,3.00,0.00,30.25,1016.50,M,M,M,M,M,M,M,M,M,M,M,M,M,M,M,M,M,63.00,KP68 211453Z AUTO 22003KT 17/05 A3025 RMK AO1 SLP165 T01720050 51014,M
LOL,2022-08-21 14:53,-118.5701,40.0684,1192.43,67.00,43.00,41.87,0.00,0.00,0.00,30.09,1014.60,10.00,M,CLR,M,M,M,M,M,M,M,M,M,M,M,M,M,M,66.90,KLOL 211453Z AUTO 00000KT 10SM CLR 19/06 A3009 RMK AO2 SLP146 T01940061 53017,M
ELY,2022-08-21 14:53,-114.8453,39.2950,1909.00,64.00,49.00,57.91,160.00,7.00,0.00,30.27,1015.10,10.00,M,CLR,M,M,M,M,M,M,M,M,M,M,M,M,M,M,64.00,KELY 211453Z AUTO 16007KT 10SM CLR 18/09 A3027 RMK AO2 SLP151 T01780094 51014,M
DRA,2022-08-21 14:53,-116.0278,36.6206,1009.00,82.00,58.00,43.89,0.00,0.00,0.00,30.04,1011.70,10.00,M,CLR,M,M,M,M,M,M,M,M,M,M,M,M,M,M,81.92,KDRA 211453Z AUTO 00000KT 10SM CLR 28/14 A3004 RMK AO2 SLP117 T02780144 51020,M
RTS,2022-08-21 14:55,-119.8764,39.6682,1539.00,69.80,37.40,30.49,330.00,5.00,0.00,30.21,M,10.00,M,CLR,M,M,M,M,M,M,M,M,M,M,M,M,M,M,69.80,KRTS 211455Z AUTO 33005KT 10SM CLR 21/03 A3021 RMK AO2,M
TMT,2022-08-21 14:55,-117.1971,39.4643,1749.34,60.80,40.60,47.26,210.00,4.00,0.00,30.25,M,10.00,M,CLR,M,M,M,M,M,M,M,M,M,M,M,M,M,M,60.80,KTMT 211455Z AUTO 21004KT 10SM CLR 16/05 A3025 RMK AO2 LTG DSNT SE T01600048,M
CXP,2022-08-21 14:55,-119.7326,39.1923,1431.00,68.00,37.40,32.43,0.00,0.00,0.00,30.20,M,10.00,M,CLR,M,M,M,M,M,M,M,M,M,M,M,M,M,M,68.00,KCXP 211455Z AUTO 00000KT 10SM CLR 20/03 A3020 RMK AO2,M
RNO,2022-08-21 14:55,-119.7711,39.4839,1341.00,71.00,43.00,36.25,280.00,3.00,0.00,30.16,1015.00,10.00,M,CLR,M,M,M,M,M,M,M,M,M,M,M,M,M,M,71.10,KRNO 211455Z 28003KT 10SM CLR 22/06 A3016 RMK AO2 SLP150 FU ALF DSNT W T02170061 51014,M
MEV,2022-08-21 14:55,-119.7500,38.9963,1441.42,64.40,39.20,39.43,0.00,0.00,0.00,30.19,M,10.00,M,CLR,M,M,M,M,M,M,M,M,M,M,M,M,M,M,64.40,KMEV 211455Z AUTO 00000KT 10SM CLR 18/04 A3019 RMK AO2,M
BAM,2022-08-21 14:55,-116.8743,40.5990,1382.36,66.20,41.00,39.72,150.00,3.00,0.00,30.16,M,10.00,M,CLR,M,M,M,M,M,M,M,M,M,M,M,M,M,M,66.20,KBAM 211455Z AUTO 15003KT 10SM CLR 19/05 A3016 RMK AO1,M
BVU,2022-08-21 14:55,-114.8611,35.9475,671.00,86.00,69.80,58.55,170.00,11.00,0.00,29.99,M,M,17.00,M,M,M,M,M,M,M,M,M,M,M,M,M,M,M,90.58,KBVU 211455Z AUTO 17011G17KT 30/21 A2999 RMK AO2 PWINO TSNO,M
HTH,2022-08-21 14:55,-118.6315,38.5448,1282.89,75.20,39.20,27.26,0.00,0.00,0.00,30.14,M,10.00,M,CLR,M,M,M,M,M,M,M,M,M,M,M,M,M,M,75.20,KHTH 211455Z AUTO 00000KT 10SM CLR 24/04 A3014 RMK A01,M
HND,2022-08-21 14:56,-115.1344,35.9729,742.79,85.00,66.00,53.21,170.00,6.00,0.00,30.02,1014.90,10.00,M,CLR,M,M,M,M,M,M,M,M,M,M,M,M,M,M,87.13,KHND 211456Z 17006KT 10SM CLR 29/19 A3002 RMK AO2 SLP149 T02940189 51020,M
TPH,2022-08-21 14:56,-117.0904,38.0505,1654.00,73.00,41.00,31.47,20.00,6.00,0.00,30.22,1014.70,10.00,M,CLR,M,M,M,M,M,M,M,M,M,M,M,M,M,M,73.00,KTPH 211456Z AUTO 02006KT 10SM CLR 23/05 A3022 RMK AO2 SLP147 T02280050 53018,M
LAS,2022-08-21 14:56,-115.1634,36.0719,663.00,85.00,63.00,47.91,190.00,3.00,0.00,29.98,1012.20,10.00,M,FEW,M,M,M,18000.00,M,M,M,M,M,M,M,M,M,M,85.83,KLAS 211456Z 19003KT 10SM FEW180 29/17 A2998 RMK AO2 SLP122 T02940172 51020,M
WMC,2022-08-21 14:56,-117.8072,40.9019,1315.00,70.00,41.00,34.85,0.00,0.00,0.00,30.12,1014.70,10.00,M,CLR,M,M,M,M,M,M,M,M,M,M,M,M,M,M,70.00,KWMC 211456Z AUTO 00000KT 10SM CLR 21/05 A3012 RMK AO2 SLP147 T02110050 51016 $,M
NFL,2022-08-21 14:56,-118.7010,39.4166,1199.00,76.00,40.00,27.37,150.00,5.00,0.00,30.10,1015.80,10.00,M,CLR,M,M,M,M,M,M,M,M,M,M,M,M,M,M,75.90,KNFL 211456Z AUTO 15005KT 10SM CLR 24/04 A3010 RMK AO2 SLP158 T02440044 53017,M
EKO,2022-08-21 14:56,-115.7860,40.8242,1367.00,60.00,48.00,64.26,0.00,0.00,0.00,30.20,1017.70,10.00,M,CLR,M,M,M,M,M,M,M,M,M,M,M,M,M,M,60.10,KEKO 211456Z AUTO 00000KT 10SM CLR 16/09 A3020 RMK AO2 SLP177 T01560089 51013 $,M
LSV,2022-08-21 14:58,-115.0343,36.2362,570.00,89.00,69.00,51.80,130.00,8.00,0.00,29.95,1011.50,10.00,M,CLR,M,M,M,M,M,M,M,M,M,M,M,M,M,M,93.71,KLSV 211458Z AUTO 13008KT 10SM CLR 32/21 A2995 RMK AO2 SLP115 T03170206 52017 $,M
INS,2022-08-21 14:58,-115.6733,36.5872,955.00,83.50,61.20,47.04,120.00,9.00,0.00,30.03,1011.50,10.00,M,CLR,M,M,M,M,M,M,M,M,M,M,M,M,M,M,83.95,KINS 211458Z AUTO 12009KT 10SM CLR 29/16 A3003 RMK AO2 SLP115 T02860162 52020 $,M
BAM,2022-08-21 15:15,-116.8743,40.5990,1382.36,69.80,41.00,35.09,0.00,0.00,0.00,30.16,M,10.00,M,CLR,M,M,M,M,M,M,M,M,M,M,M,M,M,M,69.80,KBAM 211515Z AUTO 00000KT 10SM CLR 21/05 A3016 RMK AO1,M
TMT,2022-08-21 15:15,-117.1971,39.4643,1749.34,65.50,41.50,41.49,200.00,4.00,0.00,30.26,M,10.00,M,CLR,M,M,M,M,M,M,M,M,M,M,M,M,M,M,65.50,KTMT 211515Z AUTO 20004KT 10SM CLR 19/05 A3026 RMK AO2 T01860053,M
HTH,2022-08-21 15:15,-118.6315,38.5448,1282.89,75.20,39.20,27.26,0.00,0.00,0.00,30.14,M,10.00,M,CLR,M,M,M,M,M,M,M,M,M,M,M,M,M,M,75.20,KHTH 211515Z AUTO 00000KT 10SM CLR 24/04 A3014 RMK A01,M
BVU,2022-08-21 15:15,-114.8611,35.9475,671.00,86.00,69.80,58.55,140.00,14.00,0.00,30.00,M,M,M,M,M,M,M,M,M,M,M,M,M,M,M,M,M,M,90.58,KBVU 211515Z AUTO 14014KT 30/21 A3000 RMK AO2 PWINO TSNO,M
MEV,2022-08-21 15:15,-119.7500,38.9963,1441.42,66.20,39.20,37.03,0.00,0.00,0.00,30.19,M,10.00,M,CLR,M,M,M,M,M,M,M,M,M,M,M,M,M,M,66.20,KMEV 211515Z AUTO 00000KT 10SM CLR 19/04 A3019 RMK AO2,M
RTS,2022-08-21 15:15,-119.8764,39.6682,1539.00,71.60,37.40,28.68,M,3.00,0.00,30.21,M,10.00,M,CLR,M,M,M,M,M,M,M,M,M,M,M,M,M,M,71.60,KRTS 211515Z AUTO VRB03KT 10SM CLR 22/03 A3021 RMK AO2,M
CXP,2022-08-21 15:15,-119.7326,39.1923,1431.00,69.80,37.40,30.49,0.00,0.00,0.00,30.20,M,10.00,M,CLR,M,M,M,M,M,M,M,M,M,M,M,M,M,M,69.80,KCXP 211515Z AUTO 00000KT 10SM CLR 21/03 A3020 RMK AO2,M
CXP,2022-08-21 15:35,-119.7326,39.1923,1431.00,69.80,37.40,30.49,300.00,3.00,0.00,30.20,M,10.00,M,CLR,M,M,M,M,M,M,M,M,M,M,M,M,M,M,69.80,KCXP 211535Z AUTO 30003KT 10SM CLR 21/03 A3020 RMK AO2,M
RTS,2022-08-21 15:35,-119.8764,39.6682,1539.00,73.40,37.40,26.98,0.00,0.00,0.00,30.21,M,10.00,M,CLR,M,M,M,M,M,M,M,M,M,M,M,M,M,M,73.40,KRTS 211535Z AUTO 00000KT 10SM CLR 23/03 A3021 RMK AO2,M
MEV,2022-08-21 15:35,-119.7500,38.9963,1441.42,69.80,39.20,32.72,0.00,0.00,0.00,30.19,M,10.00,M,CLR,M,M,M,M,M,M,M,M,M,M,M,M,M,M,69.80,KMEV 211535Z AUTO 00000KT 10SM CLR 21/04 A3019 RMK AO2,M
BAM,2022-08-21 15:35,-116.8743,40.5990,1382.36,71.60,42.80,35.37,0.00,0.00,0.00,30.16,M,10.00,M,CLR,M,M,M,M,M,M,M,M,M,M,M,M,M,M,71.60,KBAM 211535Z AUTO 00000KT 10SM CLR 22/06 A3016 RMK AO1,M
HTH,2022-08-21 15:35,-118.6315,38.5448,1282.89,77.00,39.20,25.67,360.00,4.00,0.00,30.14,M,10.00,M,CLR,M,M,M,M,M,M,M,M,M,M,M,M,M,M,77.00,KHTH 211535Z AUTO 36004KT 10SM CLR 25/04 A3014 RMK A01,M
TMT,2022-08-21 15:35,-117.1971,39.4643,1749.34,M,M,M,240.00,3.00,0.00,30.26,M,10.00,M,CLR,M,M,M,M,M,M,M,M,M,M,M,M,M,M,M,KTMT 211535Z AUTO 24003KT 10SM CLR A3026 RMK AO2,M
BVU,2022-08-21 15:35,-114.8611,35.9475,671.00,87.80,69.80,55.29,140.00,14.00,0.00,30.00,M,M,M,M,M,M,M,M,M,M,M,M,M,M,M,M,M,M,92.71,KBVU 211535Z AUTO 14014KT 31/21 A3000 RMK AO2 PWINO TSNO,M
LOL,2022-08-21 15:53,-118.5701,40.0684,1192.43,75.00,45.00,34.31,0.00,0.00,0.00,30.10,1014.70,10.00,M,CLR,M,M,M,M,M,M,M,M,M,M,M,M,M,M,75.00,KLOL 211553Z AUTO 00000KT 10SM CLR 24/07 A3010 RMK AO2 SLP147 T02390072,M
DRA,2022-08-21 15:53,-116.0278,36.6206,1009.00,86.00,58.00,38.58,230.00,4.00,0.00,30.06,1012.10,10.00,M,CLR,M,M,M,M,M,M,M,M,M,M,M,M,M,M,85.16,KDRA 211553Z AUTO 23004KT 10SM CLR 30/14 A3006 RMK AO2 SLP121 T03000144,M
ELY,2022-08-21 15:53,-114.8453,39.2950,1909.00,72.00,49.00,43.97,130.00,4.00,0.00,30.28,1015.20,10.00,M,CLR,M,M,M,M,M,M,M,M,M,M,M,M,M,M,72.00,KELY 211553Z AUTO 13004KT 10SM CLR 22/09 A3028 RMK AO2 SLP152 T02220094,M
P68,2022-08-21 15:53,-116.0056,39.6014,1993.00,72.00,41.00,32.56,0.00,0.00,0.00,30.25,1016.20,M,M,M,M,M,M,M,M,M,M,M,M,M,M,M,M,M,72.00,KP68 211553Z AUTO 00000KT 22/05 A3025 RMK AO1 SLP162 T02220050,M
VGT,2022-08-21 15:53,-115.1933,36.2111,667.00,89.00,66.00,46.55,110.00,4.00,0.00,29.98,1013.90,10.00,M,CLR,M,M,M,M,M,M,M,M,M,M,M,M,M,M,91.60,KVGT 211553Z 11004KT 10SM CLR 32/19 A2998 RMK AO2 SLP139 T03170189,M
BVU,2022-08-21 15:55,-114.8611,35.9475,671.00,87.80,69.80,55.29,160.00,15.00,0.00,30.00,M,M,M,M,M,M,M,M,M,M,M,M,M,M,M,M,M,M,92.71,KBVU 211555Z AUTO 16015KT 31/21 A3000 RMK AO2 PWINO TSNO,M
RNO,2022-08-21 15:55,-119.7711,39.4839,1341.00,73.00,45.00,36.70,0.00,0.00,0.00,30.17,1015.40,10.00,M,CLR,M,M,M,M,M,M,M,M,M,M,M,M,M,M,73.00,KRNO 211555Z 00000KT 10SM CLR 23/07 A3017 RMK AO2 SLP154 FU ALF DSNT W THRU NW T02280072,M
RTS,2022-08-21 15:55,-119.8764,39.6682,1539.00,75.20,37.40,25.40,0.00,0.00,0.00,30.21,M,10.00,M,CLR,M,M,M,M,M,M,M,M,M,M,M,M,M,M,75.20,KRTS 211555Z AUTO 00000KT 10SM CLR 24/03 A3021 RMK AO2,M
MEV,2022-08-21 15:55,-119.7500,38.9963,1441.42,71.60,39.20,30.77,230.00,4.00,0.00,30.19,M,9.00,M,CLR,M,M,M,M,M,M,M,M,M,M,M,M,M,M,71.60,KMEV 211555Z AUTO 23004KT 9SM CLR 22/04 A3019 RMK AO2,M
HTH,2022-08-21 15:55,-118.6315,38.5448,1282.89,78.80,39.20,24.19,340.00,4.00,0.00,30.15,M,10.00,M,CLR,M,M,M,M,M,M,M,M,M,M,M,M,M,M,78.80,KHTH 211555Z AUTO 34004KT 10SM CLR 26/04 A3015 RMK A01,M
BAM,2022-08-21 15:55,-116.8743,40.5990,1382.36,77.00,42.80,29.51,0.00,0.00,0.00,30.16,M,10.00,M,CLR,M,M,M,M,M,M,M,M,M,M,M,M,M,M,77.00,KBAM 211555Z AUTO 00000KT 10SM CLR 25/06 A3016 RMK AO1,M
TMT,2022-08-21 15:55,-117.1971,39.4643,1749.34,69.00,40.50,35.25,230.00,4.00,0.00,30.26,M,10.00,M,CLR,M,M,M,M,M,M,M,M,M,M,M,M,M,M,69.10,KTMT 211555Z AUTO 23004KT 10SM CLR 21/05 A3026 RMK AO2 T02060047,M
CXP,2022-08-21 15:55,-119.7326,39.1923,1431.00,71.60,37.40,28.68,240.00,4.00,0.00,30.20,M,10.00,M,CLR,M,M,M,M,M,M,M,M,M,M,M,M,M,M,71.60,KCXP 211555Z AUTO 24004KT 10SM CLR 22/03 A3020 RMK AO2,M
HND,2022-08-21 15:56,-115.1344,35.9729,742.79,88.00,65.00,46.39,190.00,5.00,0.00,30.03,1015.30,10.00,M,CLR,M,M,M,M,M,M,M,M,M,M,M,M,M,M,89.80,KHND 211556Z 19005KT 10SM CLR 31/18 A3003 RMK AO2 SLP153 T03110183,M
TPH,2022-08-21 15:56,-117.0904,38.0505,1654.00,78.00,44.00,29.91,0.00,0.00,0.00,30.23,1015.00,10.00,M,CLR,M,M,M,M,M,M,M,M,M,M,M,M,M,M,78.10,KTPH 211556Z AUTO 00000KT 10SM CLR 26/07 A3023 RMK AO2 SLP150 T02560067,M
NFL,2022-08-21 15:56,-118.7010,39.4166,1199.00,82.00,39.00,21.62,M,3.00,0.00,30.11,1016.10,10.00,M,CLR,M,M,M,M,M,M,M,M,M,M,M,M,M,M,79.94,KNFL 211556Z AUTO VRB03KT 10SM CLR 28/04 A3011 RMK AO2 SLP161 T02780039,M
LAS,2022-08-21 15:56,-115.1634,36.0719,663.00,87.00,64.00,46.26,M,3.00,0.00,29.99,1012.70,10.00,M,FEW,M,M,M,15000.00,M,M,M,M,M,M,M,M,M,M,88.42,KLAS 211556Z VRB03KT 10SM FEW150 31/18 A2999 RMK AO2 SLP127 T03060178,M
EKO,2022-08-21 15:56,-115.7860,40.8242,1367.00,68.00,48.00,48.73,0.00,0.00,0.00,30.21,1017.80,10.00,M,CLR,M,M,M,M,M,M,M,M,M,M,M,M,M,M,68.00,KEKO 211556Z AUTO 00000KT 10SM CLR 20/09 A3021 RMK AO2 SLP178 T02000089 $,M
WMC,2022-08-21 15:56,-117.8072,40.9019,1315.00,77.00,43.00,29.74,340.00,3.00,0.00,30.13,1015.20,10.00,M,CLR,M,M,M,M,M,M,M,M,M,M,M,M,M,M,77.00,KWMC 211556Z AUTO 34003KT 10SM CLR 25/06 A3013 RMK AO2 SLP152 T02500061 $,M
INS,2022-08-21 15:58,-115.6733,36.5872,955.00,84.70,61.00,44.93,120.00,10.00,0.00,30.05,1012.30,10.00,M,OVC,M,M,M,15000.00,M,M,M,M,M,M,M,M,M,M,84.94,KINS 211558Z AUTO 12010KT 10SM OVC150 29/16 A3005 RMK AO2 SLP123 T02930161 $,M
LSV,2022-08-21 15:58,-115.0343,36.2362,570.00,90.00,69.30,50.70,130.00,9.00,0.00,29.97,1012.20,10.00,M,CLR,M,M,M,M,M,M,M,M,M,M,M,M,M,M,94.92,KLSV 211558Z AUTO 13009KT 10SM CLR 32/21 A2997 RMK AO2 SLP122 T03220207 $,M
RTS,2022-08-21 16:15,-119.8764,39.6682,1539.00,75.20,39.20,27.26,140.00,3.00,0.00,30.21,M,10.00,M,CLR,M,M,M,M,M,M,M,M,M,M,M,M,M,M,75.20,KRTS 211615Z AUTO 14003KT 10SM CLR 24/04 A3021 RMK AO2,M
BAM,2022-08-21 16:15,-116.8743,40.5990,1382.36,78.80,44.60,29.79,0.00,0.00,0.00,30.16,M,10.00,M,CLR,M,M,M,M,M,M,M,M,M,M,M,M,M,M,78.80,KBAM 211615Z AUTO 00000KT 10SM CLR 26/07 A3016 RMK AO1,M
CXP,2022-08-21 16:15,-119.7326,39.1923,1431.00,73.40,37.40,26.98,M,3.00,0.00,30.20,M,10.00,M,CLR,M,M,M,M,M,M,M,M,M,M,M,M,M,M,73.40,KCXP 211615Z AUTO VRB03KT 10SM CLR 23/03 A3020 RMK AO2,M
BVU,2022-08-21 16:15,-114.8611,35.9475,671.00,87.80,68.00,51.98,150.00,12.00,0.00,30.01,M,M,M,M,M,M,M,M,M,M,M,M,M,M,M,M,M,M,91.43,KBVU 211615Z AUTO 15012KT 31/20 A3001 RMK AO2 PWINO TSNO,M
TMT,2022-08-21 16:15,-117.1971,39.4643,1749.34,M,M,M,240.00,4.00,0.00,30.26,M,10.00,M,CLR,M,M,M,M,M,M,M,M,M,M,M,M,M,M,M,KTMT 211615Z AUTO 24004KT 10SM CLR A3026 RMK AO2,M
HTH,2022-08-21 16:15,-118.6315,38.5448,1282.89,80.60,37.40,21.25,320.00,5.00,0.00,30.15,M,10.00,M,CLR,M,M,M,M,M,M,M,M,M,M,M,M,M,M,79.02,KHTH 211615Z AUTO 32005KT 10SM CLR 27/03 A3015 RMK A01,M
MEV,2022-08-21 16:15,-119.7500,38.9963,1441.42,73.40,39.20,28.96,220.00,3.00,0.00,30.19,M,10.00,M,CLR,M,M,M,M,M,M,M,M,M,M,M,M,M,M,73.40,KMEV 211615Z AUTO 22003KT 10SM CLR 23/04 A3019 RMK AO2,M
BAM,2022-08-21 16:35,-116.8743,40.5990,1382.36,82.40,46.40,28.36,40.00,4.00,0.00,30.16,M,10.00,M,CLR,M,M,M,M,M,M,M,M,M,M,M,M,M,M,80.64,KBAM 211635Z AUTO 04004KT 10SM CLR 28/08 A3016 RMK AO1,M
BVU,2022-08-21 16:35,-114.8611,35.9475,671.00,89.60,69.80,52.23,140.00,10.00,0.00,30.01,M,M,15.00,M,M,M,M,M,M,M,M,M,M,M,M,M,M,M,94.85,KBVU 211635Z AUTO 14010G15KT 32/21 A3001 RMK AO2 PWINO TSNO,M
CXP,2022-08-21 16:35,-119.7326,39.1923,1431.00,75.20,37.40,25.40,260.00,3.00,0.00,30.20,M,10.00,M,CLR,M,M,M,M,M,M,M,M,M,M,M,M,M,M,75.20,KCXP 211635Z AUTO 26003KT 10SM CLR 24/03 A3020 RMK AO2,M
RTS,2022-08-21 16:35,-119.8764,39.6682,1539.00,77.00,39.20,25.67,M,3.00,0.00,30.22,M,10.00,M,CLR,M,M,M,M,M,M,M,M,M,M,M,M,M,M,77.00,KRTS 211635Z AUTO VRB03KT 10SM CLR 25/04 A3022 RMK AO2,M
MEV,2022-08-21 16:35,-119.7500,38.9963,1441.42,75.20,41.00,29.23,M,3.00,0.00,30.19,M,10.00,M,CLR,M,M,M,M,M,M,M,M,M,M,M,M,M,M,75.20,KMEV 211635Z AUTO VRB03KT 10SM CLR 24/05 A3019 RMK AO2,M
HTH,2022-08-21 16:35,-118.6315,38.5448,1282.89,80.60,37.40,21.25,330.00,5.00,0.00,30.15,M,10.00,M,CLR,M,M,M,M,M,M,M,M,M,M,M,M,M,M,79.02,KHTH 211635Z AUTO 33005KT 10SM CLR 27/03 A3015 RMK A01,M
TMT,2022-08-21 16:35,-117.1971,39.4643,1749.34,M,M,M,0.00,0.00,0.00,30.26,M,10.00,M,CLR,M,M,M,M,M,M,M,M,M,M,M,M,M,M,M,KTMT 211635Z AUTO 00000KT 10SM CLR A3026 RMK AO2,M
LOL,2022-08-21 16:53,-118.5701,40.0684,1192.43,83.00,40.00,21.75,140.00,5.00,0.00,30.10,1015.00,10.00,M,CLR,M,M,M,M,M,M,M,M,M,M,M,M,M,M,80.57,KLOL 211653Z AUTO 14005KT 10SM CLR 28/04 A3010 RMK AO2 SLP150 T02830044,M
VGT,2022-08-21 16:53,-115.1933,36.2111,667.00,92.00,63.00,38.39,M,M,0.00,29.99,1014.20,10.00,M,CLR,M,M,M,M,M,M,M,M,M,M,M,M,M,M,92.97,KVGT 211653Z 10SM CLR 33/17 A2999 RMK AO2 SLP142 T03330172,M
ELY,2022-08-21 16:53,-114.8453,39.2950,1909.00,77.00,48.00,35.95,0.00,0.00,0.00,30.28,1015.30,10.00,M,CLR,M,M,M,M,M,M,M,M,M,M,M,M,M,M,77.00,KELY 211653Z AUTO 00000KT 10SM CLR 25/09 A3028 RMK AO2 SLP153 T02500089,M
DRA,2022-08-21 16:53,-116.0278,36.6206,1009.00,90.00,57.00,32.91,0.00,0.00,0.00,30.07,1012.50,10.00,M,CLR,M,M,M,M,M,M,M,M,M,M,M,M,M,M,88.61,KDRA 211653Z AUTO 00000KT 10SM CLR 32/14 A3007 RMK AO2 SLP125 T03220139,M
P68,2022-08-21 16:53,-116.0056,39.6014,1993.00,78.00,43.00,28.68,M,5.00,0.00,30.26,1016.50,M,M,M,M,M,M,M,M,M,M,M,M,M,M,M,M,M,78.10,KP68 211653Z AUTO VRB05KT 26/06 A3026 RMK AO1 SLP165 T02560061,M
BAM,2022-08-21 16:55,-116.8743,40.5990,1382.36,86.00,48.20,27.03,0.00,0.00,0.00,30.16,M,10.00,M,CLR,M,M,M,M,M,M,M,M,M,M,M,M,M,M,83.40,KBAM 211655Z AUTO 00000KT 10SM CLR 30/09 A3016 RMK AO1,M
MEV,2022-08-21 16:55,-119.7500,38.9963,1441.42,78.80,39.20,24.19,0.00,0.00,0.00,30.19,M,10.00,M,CLR,M,M,M,M,M,M,M,M,M,M,M,M,M,M,78.80,KMEV 211655Z AUTO 00000KT 10SM CLR 26/04 A3019 RMK AO2,M
CXP,2022-08-21 16:55,-119.7326,39.1923,1431.00,78.80,37.40,22.54,300.00,4.00,0.00,30.20,M,10.00,M,CLR,M,M,M,M,M,M,M,M,M,M,M,M,M,M,78.80,KCXP 211655Z AUTO 30004KT 10SM CLR 26/03 A3020 RMK AO2,M
BVU,2022-08-21 16:55,-114.8611,35.9475,671.00,89.60,69.80,52.23,150.00,12.00,0.00,30.01,M,M,M,M,M,M,M,M,M,M,M,M,M,M,M,M,M,M,94.85,KBVU 211655Z AUTO 15012KT 32/21 A3001 RMK AO2 PWINO TSNO,M
RTS,2022-08-21 16:55,-119.8764,39.6682,1539.00,80.60,37.40,21.25,150.00,4.00,0.00,30.22,M,10.00,M,CLR,M,M,M,M,M,M,M,M,M,M,M,M,M,M,79.02,KRTS 211655Z AUTO 15004KT 10SM CLR 27/03 A3022 RMK AO2,M
RNO,2022-08-21 16:55,-119.7711,39.4839,1341.00,80.00,43.00,26.85,0.00,0.00,0.00,30.17,1015.20,10.00,M,CLR,M,M,M,M,M,M,M,M,M,M,M,M,M,M,79.04,KRNO 211655Z 00000KT 10SM CLR 27/06 A3017 RMK AO2 SLP152 T02670061,M
TMT,2022-08-21 16:55,-117.1971,39.4643,1749.34,M,M,M,0.00,0.00,0.00,30.26,M,10.00,M,CLR,M,M,M,M,M,M,M,M,M,M,M,M,M,M,M,KTMT 211655Z AUTO 00000KT 10SM CLR A3026 RMK AO2,M
HTH,2022-08-21 16:55,-118.6315,38.5448,1282.89,82.40,37.40,20.04,M,5.00,0.00,30.15,M,10.00,M,CLR,M,M,M,M,M,M,M,M,M,M,M,M,M,M,80.14,KHTH 211655Z AUTO VRB05KT 10SM CLR 28/03 A3015 RMK A01,M
TPH,2022-08-21 16:56,-117.0904,38.0505,1654.00,81.00,48.00,31.52,170.00,4.00,0.00,30.24,1015.10,10.00,M,CLR,M,M,M,M,M,M,M,M,M,M,M,M,M,M,79.92,KTPH 211656Z AUTO 17004KT 10SM CLR 27/09 A3024 RMK AO2 SLP151 T02720089,M
NFL,2022-08-21 16:56,-118.7010,39.4166,1199.00,86.00,39.00,19.01,M,3.00,0.00,30.11,1016.40,10.00,M,FEW,M,M,M,9000.00,M,M,M,M,M,M,M,M,M,M,82.78,KNFL 211656Z VRB03KT 10SM FEW090 30/04 A3011 RMK SLP164 T03000039,M
HND,2022-08-21 16:56,-115.1344,35.9729,742.79,91.00,65.00,42.21,160.00,5.00,0.00,30.04,1015.40,10.00,M,CLR,M,M,M,M,M,M,M,M,M,M,M,M,M,M,93.03,KHND 211656Z 16005KT 10SM CLR 33/18 A3004 RMK AO2 SLP154 T03280183,M
EKO,2022-08-21 16:56,-115.7860,40.8242,1367.00,73.00,49.00,42.51,30.00,3.00,0.00,30.21,1017.80,10.00,M,CLR,M,M,M,M,M,M,M,M,M,M,M,M,M,M,73.00,KEKO 211656Z AUTO 03003KT 10SM CLR 23/09 A3021 RMK AO2 SLP178 T02280094 $,M
WMC,2022-08-21 16:56,-117.8072,40.9019,1315.00,83.00,46.00,27.48,M,3.00,0.00,30.13,1015.20,10.00,M,CLR,M,M,M,M,M,M,M,M,M,M,M,M,M,M,80.94,KWMC 211656Z AUTO VRB03KT 10SM CLR 28/08 A3013 RMK AO2 SLP152 T02830078 $,M
LAS,2022-08-21 16:56,-115.1634,36.0719,663.00,92.00,63.00,38.39,M,4.00,0.00,30.01,1013.00,10.00,M,FEW,M,M,M,15000.00,M,M,M,M,M,M,M,M,M,M,92.97,KLAS 211656Z VRB04KT 10SM FEW150 33/17 A3001 RMK AO2 SLP130 T03330172,M
INS,2022-08-21 16:58,-115.6733,36.5872,955.00,88.50,59.50,37.74,120.00,9.00,0.00,30.05,1012.20,10.00,M,SCT,M,M,M,15000.00,M,M,M,M,M,M,M,M,M,M,87.96,KINS 211658Z AUTO 12009KT 10SM SCT150 31/15 A3005 RMK AO2 SLP122 T03140153 $,M
LSV,2022-08-21 16:58,-115.0343,36.2362,570.00,93.00,68.50,44.92,100.00,4.00,0.00,29.98,1012.50,10.00,M,CLR,M,M,M,M,M,M,M,M,M,M,M,M,M,M,97.82,KLSV 211658Z AUTO 10004KT 10SM CLR 34/20 A2998 RMK AO2 SLP125 T03390203 $,M
NFL,2022-08-21 17:03,-118.7010,39.4166,1199.00,86.00,38.00,18.20,320.00,4.00,0.00,30.11,M,10.00,M,FEW,M,M,M,9000.00,M,M,M,M,M,M,M,M,M,M,82.74,KNFL 211703Z 32004KT 10SM FEW090 30/03 A3011 RMK AO2 T03000033,M
BAM,2022-08-21 17:15,-116.8743,40.5990,1382.36,87.80,48.20,25.52,60.00,4.00,0.00,30.16,M,10.00,M,CLR,M,M,M,M,M,M,M,M,M,M,M,M,M,M,84.87,KBAM 211715Z AUTO 06004KT 10SM CLR 31/09 A3016 RMK AO1,M
BVU,2022-08-21 17:15,-114.8611,35.9475,671.00,89.60,68.00,49.10,160.00,12.00,0.00,30.01,M,M,18.00,M,M,M,M,M,M,M,M,M,M,M,M,M,M,M,93.47,KBVU 211715Z AUTO 16012G18KT 32/20 A3001 RMK AO2 PWINO TSNO,M
CXP,2022-08-21 17:15,-119.7326,39.1923,1431.00,80.60,37.40,21.25,M,3.00,0.00,30.20,M,10.00,M,CLR,M,M,M,M,M,M,M,M,M,M,M,M,M,M,79.02,KCXP 211715Z AUTO VRB03KT 10SM CLR 27/03 A3020 RMK AO2,M
RTS,2022-08-21 17:15,-119.8764,39.6682,1539.00,82.40,37.40,20.04,0.00,0.00,0.00,30.22,M,10.00,M,CLR,M,M,M,M,M,M,M,M,M,M,M,M,M,M,80.14,KRTS 211715Z AUTO 00000KT 10SM CLR 28/03 A3022 RMK AO2,M
HTH,2022-08-21 17:15,-118.6315,38.5448,1282.89,84.20,39.20,20.29,320.00,5.00,0.00,30.15,M,10.00,M,CLR,M,M,M,M,M,M,M,M,M,M,M,M,M,M,81.44,KHTH 211715Z AUTO 32005KT 10SM CLR 29/04 A3015 RMK A01,M
TMT,2022-08-21 17:15,-117.1971,39.4643,1749.34,M,M,M,0.00,0.00,0.00,30.27,M,10.00,M,CLR,M,M,M,M,M,M,M,M,M,M,M,M,M,M,M,KTMT 211715Z AUTO 00000KT 10SM CLR A3027 RMK AO2,M
MEV,2022-08-21 17:15,-119.7500,38.9963,1441.42,80.60,41.00,24.46,0.00,0.00,0.00,30.19,M,10.00,M,CLR,M,M,M,M,M,M,M,M,M,M,M,M,M,M,79.20,KMEV 211715Z AUTO 00000KT 10SM CLR 27/05 A3019 RMK AO2,M
CXP,2022-08-21 17:35,-119.7326,39.1923,1431.00,82.40,35.60,18.67,0.00,0.00,0.00,30.20,M,10.00,M,CLR,M,M,M,M,M,M,M,M,M,M,M,M,M,M,80.08,KCXP 211735Z AUTO 00000KT 10SM CLR 28/02 A3020 RMK AO2,M
TMT,2022-08-21 17:35,-117.1971,39.4643,1749.34,M,M,M,0.00,0.00,0.00,30.26,M,10.00,M,CLR,M,M,M,M,M,M,M,M,M,M,M,M,M,M,M,KTMT 211735Z AUTO 00000KT 10SM CLR A3026 RMK AO2,M
HTH,2022-08-21 17:35,-118.6315,38.5448,1282.89,86.00,39.20,19.15,350.00,5.00,0.00,30.15,M,10.00,M,CLR,M,M,M,M,M,M,M,M,M,M,M,M,M,M,82.79,KHTH 211735Z AUTO 35005KT 10SM CLR 30/04 A3015 RMK A01,M
BVU,2022-08-21 17:35,-114.8611,35.9475,671.00,91.40,68.00,46.41,150.00,9.00,0.00,30.01,M,M,15.00,M,M,M,M,M,M,M,M,M,M,M,M,M,M,M,95.55,KBVU 211735Z AUTO 15009G15KT 33/20 A3001 RMK AO2 PWINO TSNO,M
BAM,2022-08-21 17:35,-116.8743,40.5990,1382.36,87.80,46.40,23.85,0.00,0.00,0.00,30.16,M,10.00,M,CLR,M,M,M,M,M,M,M,M,M,M,M,M,M,M,84.68,KBAM 211735Z AUTO 00000KT 10SM CLR 31/08 A3016 RMK AO1,M
RTS,2022-08-21 17:35,-119.8764,39.6682,1539.00,84.20,30.20,14.18,250.00,12.00,0.00,30.22,M,10.00,M,CLR,M,M,M,M,M,M,M,M,M,M,M,M,M,M,81.26,KRTS 211735Z AUTO 25012KT 10SM CLR 29/M01 A3022 RMK AO2,M
MEV,2022-08-21 17:35,-119.7500,38.9963,1441.42,82.40,41.00,23.07,0.00,0.00,0.00,30.18,M,10.00,M,CLR,M,M,M,M,M,M,M,M,M,M,M,M,M,M,80.29,KMEV 211735Z AUTO 00000KT 10SM CLR 28/05 A3018 RMK AO2,M
VGT,2022-08-21 17:53,-115.1933,36.2111,667.00,95.00,62.00,33.79,0.00,0.00,0.00,29.99,1014.20,10.00,M,CLR,M,M,M,M,M,M,M,M,M,M,M,M,M,M,95.95,KVGT 211753Z 00000KT 10SM CLR 35/17 A2999 RMK AO2 SLP142 T03500167 10350 20294 51006,M
DRA,2022-08-21 17:53,-116.0278,36.6206,1009.00,93.00,58.00,30.95,M,5.00,0.00,30.07,1012.20,10.00,M,CLR,M,M,M,M,M,M,M,M,M,M,M,M,M,M,91.94,KDRA 211753Z AUTO VRB05KT 10SM CLR 34/14 A3007 RMK AO2 SLP122 T03390144 10339 20233 51008,M
ELY,2022-08-21 17:53,-114.8453,39.2950,1909.00,83.00,48.00,29.64,M,3.00,0.00,30.27,1014.50,10.00,M,CLR,M,M,M,M,M,M,M,M,M,M,M,M,M,M,81.11,KELY 211753Z AUTO VRB03KT 10SM CLR 28/09 A3027 RMK AO2 SLP145 T02830089 10289 20106 58001,M
LOL,2022-08-21 17:53,-118.5701,40.0684,1192.43,89.00,40.00,17.84,210.00,5.00,0.00,30.11,1014.80,10.00,M,CLR,M,M,M,M,M,M,M,M,M,M,M,M,M,M,85.34,KLOL 211753Z AUTO 21005KT 10SM CLR 32/04 A3011 RMK AO2 SLP148 T03170044 10317 20128 51004,M
P68,2022-08-21 17:53,-116.0056,39.6014,1993.00,82.00,40.00,22.39,M,4.00,0.00,30.26,1015.70,M,M,M,M,M,M,M,M,M,M,M,M,M,M,M,M,M,79.98,KP68 211753Z AUTO VRB04KT 28/04 A3026 RMK AO1 SLP157 T02780044 10278 20117 50004,M
BAM,2022-08-21 17:55,-116.8743,40.5990,1382.36,89.60,46.40,22.53,30.00,4.00,0.00,30.16,M,10.00,M,CLR,M,M,M,M,M,M,M,M,M,M,M,M,M,M,86.24,KBAM 211755Z AUTO 03004KT 10SM CLR 32/08 A3016 RMK AO1,M
TMT,2022-08-21 17:55,-117.1971,39.4643,1749.34,M,M,M,0.00,0.00,0.00,30.26,M,10.00,M,CLR,M,M,M,M,M,M,M,M,M,M,M,M,M,M,M,KTMT 211755Z AUTO 00000KT 10SM CLR A3026 RMK AO2,M
RTS,2022-08-21 17:55,-119.8764,39.6682,1539.00,86.00,28.40,12.44,240.00,10.00,0.00,30.22,M,10.00,18.00,CLR,M,M,M,M,M,M,M,M,M,M,M,M,M,M,82.54,KRTS 211755Z AUTO 24010G18KT 10SM CLR 30/M02 A3022 RMK AO2,M
RNO,2022-08-21 17:55,-119.7711,39.4839,1341.00,86.00,43.00,22.19,220.00,3.00,0.00,30.17,1014.80,10.00,M,CLR,M,M,M,M,M,M,M,M,M,M,M,M,M,M,82.97,KRNO 211755Z 22003KT 10SM CLR 30/06 A3017 RMK AO2 SLP148 T03000061 10300 20178 50002,M
CXP,2022-08-21 17:55,-119.7326,39.1923,1431.00,86.00,37.40,17.85,0.00,0.00,0.00,30.19,M,10.00,M,CLR,M,M,M,M,M,M,M,M,M,M,M,M,M,M,82.73,KCXP 211755Z AUTO 00000KT 10SM CLR 30/03 A3019 RMK AO2,M
BVU,2022-08-21 17:55,-114.8611,35.9475,671.00,91.40,68.00,46.41,150.00,9.00,0.00,30.01,M,M,14.00,M,M,M,M,M,M,M,M,M,M,M,M,M,M,M,95.55,KBVU 211755Z AUTO 15009G14KT 110V190 33/20 A3001 RMK AO2 PWINO TSNO,M
MEV,2022-08-21 17:55,-119.7500,38.9963,1441.42,84.20,39.20,20.29,0.00,0.00,0.00,30.18,M,10.00,M,CLR,M,M,M,M,M,M,M,M,M,M,M,M,M,M,81.44,KMEV 211755Z AUTO 00000KT 10SM CLR 29/04 A3018 RMK AO2,M
HTH,2022-08-21 17:55,-118.6315,38.5448,1282.89,86.00,39.20,19.15,M,4.00,0.00,30.15,M,10.00,M,CLR,M,M,M,M,M,M,M,M,M,M,M,M,M,M,82.79,KHTH 211755Z AUTO VRB04KT 10SM CLR 30/04 A3015 RMK A01,M
HND,2022-08-21 17:56,-115.1344,35.9729,742.79,94.00,66.00,40.07,M,5.00,0.00,30.04,1015.40,10.00,M,CLR,M,M,M,M,M,M,M,M,M,M,M,M,M,M,97.03,KHND 211756Z VRB05KT 10SM CLR 34/19 A3004 RMK AO2 SLP154 T03440189 10344 20267 51006,M
NFL,2022-08-21 17:56,-118.7010,39.4166,1199.00,89.00,40.00,17.84,M,3.00,0.00,30.11,1016.40,10.00,M,FEW,M,M,M,9000.00,M,M,M,M,M,M,M,M,M,M,85.34,KNFL 211756Z VRB03KT 10SM FEW090 32/04 A3011 RMK AO2 SLP164 T03170044 10322 20167 51006,M
TPH,2022-08-21 17:56,-117.0904,38.0505,1654.00,85.00,46.00,25.77,M,4.00,0.00,30.24,1014.60,10.00,M,CLR,M,M,M,M,M,M,M,M,M,M,M,M,M,M,82.35,KTPH 211756Z AUTO VRB04KT 10SM CLR 29/08 A3024 RMK AO2 SLP146 T02940078 10294 20178 50004,M
LAS,2022-08-21 17:56,-115.1634,36.0719,663.00,93.00,63.00,37.10,M,4.00,0.00,30.01,1013.10,10.00,M,FEW,M,M,M,15000.00,M,M,M,M,M,M,M,M,M,M,94.18,KLAS 211756Z VRB04KT 10SM FEW150 34/17 A3001 RMK AO2 SLP131 T03390172 10350 20278 51009,M
EKO,2022-08-21 17:56,-115.7860,40.8242,1367.00,76.00,48.00,37.29,M,4.00,0.00,30.21,1017.70,10.00,M,CLR,M,M,M,M,M,M,M,M,M,M,M,M,M,M,75.90,KEKO 211756Z AUTO VRB04KT 10SM CLR 24/09 A3021 RMK AO2 SLP177 T02440089 10244 20106 50003 $,M
WMC,2022-08-21 17:56,-117.8072,40.9019,1315.00,87.00,43.00,21.42,0.00,0.00,0.00,30.13,1014.80,10.00,M,CLR,M,M,M,M,M,M,M,M,M,M,M,M,M,M,83.84,KWMC 211756Z AUTO 00000KT 10SM CLR 31/06 A3013 RMK AO2 SLP148 T03060061 10317 20122 50002 $,M
INS,2022-08-21 17:58,-115.6733,36.5872,955.00,90.00,57.00,32.91,110.00,10.00,0.00,30.06,1012.50,10.00,M,CLR,M,M,M,M,M,M,M,M,M,M,M,M,M,M,88.61,KINS 211758Z AUTO 11010KT 10SM CLR 32/14 A3006 RMK AO2 SLP125 T03220139 10324 20257 52007 $,M
LSV,2022-08-21 17:58,-115.0343,36.2362,570.00,97.00,70.70,42.81,100.00,8.00,0.00,29.97,1012.10,10.00,M,CLR,M,M,M,M,M,M,M,M,M,M,M,M,M,M,104.72,KLSV 211758Z AUTO 10008KT 10SM CLR 36/22 A2997 RMK AO2 SLP121 T03610215 10363 20290 50006 $,M
BVU,2022-08-21 18:15,-114.8611,35.9475,671.00,93.20,68.00,43.88,180.00,7.00,0.00,30.01,M,M,13.00,M,M,M,M,M,M,M,M,M,M,M,M,M,M,M,97.67,KBVU 211815Z AUTO 18007G13KT 34/20 A3001 RMK AO2 PWINO TSNO,M
CXP,2022-08-21 18:15,-119.7326,39.1923,1431.00,86.00,35.60,16.63,0.00,0.00,0.00,30.19,M,10.00,M,CLR,M,M,M,M,M,M,M,M,M,M,M,M,M,M,82.69,KCXP 211815Z AUTO 00000KT 10SM CLR 30/02 A3019 RMK AO2,M
RTS,2022-08-21 18:15,-119.8764,39.6682,1539.00,86.00,30.20,13.38,270.00,9.00,0.00,30.22,M,10.00,17.00,CLR,M,M,M,M,M,M,M,M,M,M,M,M,M,M,82.64,KRTS 211815Z AUTO 27009G17KT 10SM CLR 30/M01 A3022 RMK AO2,M
MEV,2022-08-21 18:15,-119.7500,38.9963,1441.42,86.00,35.60,16.63,0.00,0.00,0.00,30.18,M,10.00,M,CLR,M,M,M,M,M,M,M,M,M,M,M,M,M,M,82.69,KMEV 211815Z AUTO 00000KT 10SM CLR 30/02 A3018 RMK AO2,M
BAM,2022-08-21 18:15,-116.8743,40.5990,1382.36,89.60,46.40,22.53,0.00,0.00,0.00,30.16,M,10.00,M,CLR,M,M,M,M,M,M,M,M,M,M,M,M,M,M,86.24,KBAM 211815Z AUTO 00000KT 10SM CLR 32/08 A3016 RMK AO1,M
HTH,2022-08-21 18:15,-118.6315,38.5448,1282.89,87.80,37.40,16.86,M,4.00,0.00,30.14,M,10.00,M,CLR,M,M,M,M,M,M,M,M,M,M,M,M,M,M,84.16,KHTH 211815Z AUTO VRB04KT 10SM CLR 31/03 A3014 RMK A01,M
TMT,2022-08-21 18:15,-117.1971,39.4643,1749.34,M,M,M,0.00,0.00,0.00,30.26,M,10.00,M,CLR,M,M,M,M,M,M,M,M,M,M,M,M,M,M,M,KTMT 211815Z AUTO 00000KT 10SM CLR A3026 RMK AO2,M
BVU,2022-08-21 18:35,-114.8611,35.9475,671.00,95.00,66.20,39.00,160.00,9.00,0.00,30.00,M,M,14.00,M,M,M,M,M,M,M,M,M,M,M,M,M,M,M,98.46,KBVU 211835Z AUTO 16009G14KT 120V180 35/19 A3000 RMK AO2 PWINO TSNO,M
TMT,2022-08-21 18:35,-117.1971,39.4643,1749.34,M,M,M,80.00,3.00,0.00,30.25,M,10.00,M,CLR,M,M,M,M,M,M,M,M,M,M,M,M,M,M,M,KTMT 211835Z AUTO 08003KT 10SM CLR A3025 RMK AO2,M
HTH,2022-08-21 18:35,-118.6315,38.5448,1282.89,89.60,37.40,15.92,320.00,6.00,0.00,30.14,M,10.00,M,CLR,M,M,M,M,M,M,M,M,M,M,M,M,M,M,85.67,KHTH 211835Z AUTO 32006KT 10SM CLR 32/03 A3014 RMK A01,M
BAM,2022-08-21 18:35,-116.8743,40.5990,1382.36,91.40,44.60,19.89,0.00,0.00,0.00,30.16,M,10.00,M,CLR,M,M,M,M,M,M,M,M,M,M,M,M,M,M,87.68,KBAM 211835Z AUTO 00000KT 10SM CLR 33/07 A3016 RMK AO1,M
MEV,2022-08-21 18:35,-119.7500,38.9963,1441.42,87.80,33.80,14.61,0.00,0.00,0.00,30.17,M,10.00,M,CLR,M,M,M,M,M,M,M,M,M,M,M,M,M,M,84.10,KMEV 211835Z AUTO 00000KT 10SM CLR 31/01 A3017 RMK AO2,M
RTS,2022-08-21 18:35,-119.8764,39.6682,1539.00,87.80,30.20,12.64,260.00,7.00,0.00,30.22,M,10.00,12.00,CLR,M,M,M,M,M,M,M,M,M,M,M,M,M,M,84.01,KRTS 211835Z AUTO 26007G12KT 220V300 10SM CLR 31/M01 A3022 RMK AO2,M
CXP,2022-08-21 18:35,-119.7326,39.1923,1431.00,87.80,33.80,14.61,320.00,5.00,0.00,30.18,M,10.00,M,CLR,M,M,M,M,M,M,M,M,M,M,M,M,M,M,84.10,KCXP 211835Z AUTO 32005KT 10SM CLR 31/01 A3018 RMK AO2,M
ELY,2022-08-21 18:53,-114.8453,39.2950,1909.00,83.00,43.00,24.51,340.00,12.00,0.00,30.27,1014.70,10.00,20.00,CLR,M,M,M,M,M,M,M,M,M,M,M,M,M,M,80.73,KELY 211853Z AUTO 34012G20KT 10SM CLR 28/06 A3027 RMK AO2 LTG DSNT S AND SW SLP147 T02830061,M
VGT,2022-08-21 18:53,-115.1933,36.2111,667.00,96.00,62.00,32.66,M,6.00,0.00,29.98,1013.90,10.00,M,CLR,M,M,M,M,M,M,M,M,M,M,M,M,M,M,97.20,KVGT 211853Z VRB06KT 10SM CLR 36/17 A2998 RMK AO2 SLP139 T03560167,M
LOL,2022-08-21 18:53,-118.5701,40.0684,1192.43,92.00,38.00,15.11,160.00,6.00,0.00,30.10,1014.40,10.00,M,CLR,M,M,M,M,M,M,M,M,M,M,M,M,M,M,87.69,KLOL 211853Z AUTO 16006KT 10SM CLR 33/03 A3010 RMK AO2 SLP144 T03330033,M
P68,2022-08-21 18:53,-116.0056,39.6014,1993.00,87.00,39.00,18.35,350.00,7.00,0.00,30.25,1015.40,M,M,M,M,M,M,M,M,M,M,M,M,M,M,M,M,M,83.65,KP68 211853Z AUTO 35007KT 31/04 A3025 RMK AO1 SLP154 T03060039,M
DRA,2022-08-21 18:53,-116.0278,36.6206,1009.00,94.00,46.00,19.40,M,M,0.00,30.06,1011.90,10.00,M,CLR,M,M,M,M,M,M,M,M,M,M,M,M,M,M,90.17,KDRA 211853Z AUTO 10SM CLR 34/08 A3006 RMK AO2 SLP119 T03440078,M
RTS,2022-08-21 18:55,-119.8764,39.6682,1539.00,87.80,30.20,12.64,M,6.00,0.00,30.21,M,10.00,M,CLR,M,M,M,M,M,M,M,M,M,M,M,M,M,M,84.01,KRTS 211855Z AUTO VRB06KT 10SM CLR 31/M01 A3021 RMK AO2,M
TMT,2022-08-21 18:55,-117.1971,39.4643,1749.34,M,M,M,130.00,6.00,0.00,30.25,M,10.00,M,CLR,M,M,M,M,M,M,M,M,M,M,M,M,M,M,M,KTMT 211855Z AUTO 13006KT 10SM CLR A3025 RMK AO2,M
BVU,2022-08-21 18:55,-114.8611,35.9475,671.00,93.20,66.20,41.23,120.00,7.00,0.00,30.00,M,M,M,M,M,M,M,M,M,M,M,M,M,M,M,M,M,M,96.35,KBVU 211855Z AUTO 12007KT 34/19 A3000 RMK AO2 PWINO TSNO,M
CXP,2022-08-21 18:55,-119.7326,39.1923,1431.00,91.40,32.00,12.14,290.00,5.00,0.00,30.18,M,10.00,10.00,CLR,M,M,M,M,M,M,M,M,M,M,M,M,M,M,86.91,KCXP 211855Z AUTO 29005G10KT 10SM CLR 33/00 A3018 RMK AO2,M
MEV,2022-08-21 18:55,-119.7500,38.9963,1441.42,89.60,33.80,13.80,300.00,4.00,0.00,30.17,M,10.00,M,CLR,M,M,M,M,M,M,M,M,M,M,M,M,M,M,85.59,KMEV 211855Z AUTO 30004KT 10SM CLR 32/01 A3017 RMK AO2,M
BAM,2022-08-21 18:55,-116.8743,40.5990,1382.36,91.40,44.60,19.89,0.00,0.00,0.00,30.15,M,10.00,M,CLR,M,M,M,M,M,M,M,M,M,M,M,M,M,M,87.68,KBAM 211855Z AUTO 00000KT 10SM CLR 33/07 A3015 RMK AO1,M
RNO,2022-08-21 18:55,-119.7711,39.4839,1341.00,90.00,40.00,17.34,250.00,3.00,0.00,30.15,1014.30,10.00,M,CLR,M,M,M,M,M,M,M,M,M,M,M,M,M,M,86.11,KRNO 211855Z 25003KT 10SM CLR 32/04 A3015 RMK AO2 SLP143 T03220044,M
HTH,2022-08-21 18:55,-118.6315,38.5448,1282.89,91.40,35.60,14.02,320.00,7.00,0.00,30.13,M,10.00,M,CLR,M,M,M,M,M,M,M,M,M,M,M,M,M,M,87.17,KHTH 211855Z AUTO 32007KT 310V020 10SM CLR 33/02 A3013 RMK A01,M
LAS,2022-08-21 18:56,-115.1634,36.0719,663.00,95.00,62.00,33.79,0.00,0.00,0.00,29.99,1012.50,10.00,M,FEW,M,M,M,15000.00,M,M,M,M,M,M,M,M,M,M,95.95,KLAS 211856Z 00000KT 10SM FEW150 35/17 A2999 RMK AO2 SLP125 T03500167,M
TPH,2022-08-21 18:56,-117.0904,38.0505,1654.00,87.00,45.00,23.12,M,3.00,0.00,30.23,1014.30,10.00,M,CLR,M,M,M,M,M,M,M,M,M,M,M,M,M,M,83.98,KTPH 211856Z AUTO VRB03KT 10SM CLR 31/07 A3023 RMK AO2 SLP143 T03060072,M
HND,2022-08-21 18:56,-115.1344,35.9729,742.79,95.00,64.00,36.12,0.00,0.00,0.00,30.03,1015.00,10.00,M,CLR,M,M,M,M,M,M,M,M,M,M,M,M,M,M,97.02,KHND 211856Z 00000KT 10SM CLR 35/18 A3003 RMK AO2 SLP150 T03500178,M
EKO,2022-08-21 18:56,-115.7860,40.8242,1367.00,81.00,44.00,27.20,70.00,6.00,0.00,30.20,1017.00,10.00,M,CLR,M,M,M,M,M,M,M,M,M,M,M,M,M,M,79.62,KEKO 211856Z AUTO 07006KT 10SM CLR 27/07 A3020 RMK AO2 SLP170 T02720067 $,M
NFL,2022-08-21 18:56,-118.7010,39.4166,1199.00,93.00,37.00,14.09,250.00,6.00,0.00,30.10,1016.00,10.00,M,FEW,M,M,M,9000.00,M,M,M,M,M,M,M,M,M,M,88.63,KNFL 211856Z 25006KT 10SM FEW090 34/03 A3010 RMK AO2 SLP160 T03390028,M
WMC,2022-08-21 18:56,-117.8072,40.9019,1315.00,93.00,41.00,16.48,160.00,4.00,0.00,30.12,1014.10,10.00,M,CLR,M,M,M,M,M,M,M,M,M,M,M,M,M,M,88.85,KWMC 211856Z AUTO 16004KT 10SM CLR 34/05 A3012 RMK AO2 SLP141 T03390050 $,M
INS,2022-08-21 18:58,-115.6733,36.5872,955.00,92.00,55.00,28.84,70.00,8.00,0.00,30.05,1012.20,10.00,M,CLR,M,M,M,M,M,M,M,M,M,M,M,M,M,M,89.92,KINS 211858Z AUTO 07008KT 10SM CLR 33/13 A3005 RMK AO2 SLP122 T03330128 $,M
LSV,2022-08-21 18:58,-115.0343,36.2362,570.00,97.00,69.30,40.81,90.00,10.00,0.00,29.96,1011.70,10.00,M,CLR,M,M,M,M,M,M,M,M,M,M,M,M,M,M,103.38,KLSV 211858Z AUTO 09010KT 10SM CLR 36/21 A2996 RMK AO2 SLP117 T03610207 $,M
ELY,2022-08-21 19:12,-114.8453,39.2950,1909.00,79.00,42.00,26.89,260.00,13.00,0.00,30.27,M,10.00,26.00,SCT,M,M,M,9000.00,M,M,M,M,M,M,M,28.00,280.00,2022-08-21 18:56,79.00,KELY 211912Z AUTO 26013G26KT 10SM SCT090 26/06 A3027 RMK AO2 PK WND 28028/1856 WSHFT 1852 T02610056,M
BAM,2022-08-21 19:15,-116.8743,40.5990,1382.36,91.40,44.60,19.89,330.00,3.00,0.00,30.14,M,10.00,M,CLR,M,M,M,M,M,M,M,M,M,M,M,M,M,M,87.68,KBAM 211915Z AUTO 33003KT 10SM CLR 33/07 A3014 RMK AO1,M
TMT,2022-08-21 19:15,-117.1971,39.4643,1749.34,M,M,M,80.00,5.00,0.00,30.24,M,10.00,M,CLR,M,M,M,M,M,M,M,M,M,M,M,M,M,M,M,KTMT 211915Z AUTO 08005KT 10SM CLR A3024 RMK AO2,M
RTS,2022-08-21 19:15,-119.8764,39.6682,1539.00,87.80,30.20,12.64,230.00,9.00,0.00,30.21,M,10.00,M,CLR,M,M,M,M,M,M,M,M,M,M,M,M,M,M,84.01,KRTS 211915Z AUTO 23009KT 10SM CLR 31/M01 A3021 RMK AO2,M
MEV,2022-08-21 19:15,-119.7500,38.9963,1441.42,91.40,33.80,13.05,320.00,6.00,0.00,30.16,M,10.00,M,CLR,M,M,M,M,M,M,M,M,M,M,M,M,M,M,87.13,KMEV 211915Z AUTO 32006KT 10SM CLR 33/01 A3016 RMK AO2,M
CXP,2022-08-21 19:15,-119.7326,39.1923,1431.00,91.40,32.00,12.14,0.00,0.00,0.00,30.18,M,10.00,M,CLR,M,M,M,M,M,M,M,M,M,M,M,M,M,M,86.91,KCXP 211915Z AUTO 00000KT 10SM CLR 33/00 A3018 RMK AO2,M
HTH,2022-08-21 19:15,-118.6315,38.5448,1282.89,91.40,35.60,14.02,10.00,5.00,0.00,30.12,M,10.00,M,CLR,M,M,M,M,M,M,M,M,M,M,M,M,M,M,87.17,KHTH 211915Z AUTO 01005KT 10SM CLR 33/02 A3012 RMK A01,M
BVU,2022-08-21 19:15,-114.8611,35.9475,671.00,95.00,68.00,41.50,140.00,10.00,0.00,29.99,M,M,18.00,M,M,M,M,M,M,M,M,M,M,M,M,M,M,M,99.82,KBVU 211915Z AUTO 14010G18KT 35/20 A2999 RMK AO2 PWINO TSNO,M
HTH,2022-08-21 19:35,-118.6315,38.5448,1282.89,93.20,35.60,13.25,320.00,8.00,0.00,30.11,M,10.00,M,CLR,M,M,M,M,M,M,M,M,M,M,M,M,M,M,88.76,KHTH 211935Z AUTO 32008KT 10SM CLR 34/02 A3011 RMK A01,M
MEV,2022-08-21 19:35,-119.7500,38.9963,1441.42,91.40,33.80,13.05,300.00,5.00,0.00,30.16,M,10.00,M,CLR,M,M,M,M,M,M,M,M,M,M,M,M,M,M,87.13,KMEV 211935Z AUTO 30005KT 10SM CLR 33/01 A3016 RMK AO2,M
RTS,2022-08-21 19:35,-119.8764,39.6682,1539.00,89.60,30.20,11.94,250.00,11.00,0.00,30.21,M,10.00,17.00,CLR,M,M,M,M,M,M,M,M,M,M,M,M,M,M,85.34,KRTS 211935Z AUTO 25011G17KT 10SM CLR 32/M01 A3021 RMK AO2,M
CXP,2022-08-21 19:35,-119.7326,39.1923,1431.00,91.40,32.00,12.14,0.00,0.00,0.00,30.17,M,10.00,M,CLR,M,M,M,M,M,M,M,M,M,M,M,M,M,M,86.91,KCXP 211935Z AUTO 00000KT 10SM CLR 33/00 A3017 RMK AO2,M
BVU,2022-08-21 19:35,-114.8611,35.9475,671.00,95.00,66.20,39.00,M,6.00,0.00,29.99,M,M,M,M,M,M,M,M,M,M,M,M,M,M,M,M,M,M,98.46,KBVU 211935Z AUTO VRB06KT 35/19 A2999 RMK AO2 PWINO TSNO,M
TMT,2022-08-21 19:35,-117.1971,39.4643,1749.34,M,M,M,70.00,5.00,0.00,30.24,M,10.00,M,CLR,M,M,M,M,M,M,M,M,M,M,M,M,M,M,M,KTMT 211935Z AUTO 07005KT 10SM CLR A3024 RMK AO2,M
BAM,2022-08-21 19:35,-116.8743,40.5990,1382.36,95.00,42.80,16.60,360.00,7.00,0.00,30.14,M,10.00,M,CLR,M,M,M,M,M,M,M,M,M,M,M,M,M,M,90.86,KBAM 211935Z AUTO 36007KT 10SM CLR 35/06 A3014 RMK AO1,M
ELY,2022-08-21 19:53,-114.8453,39.2950,1909.00,83.00,44.00,25.57,270.00,10.00,0.00,30.26,1013.80,10.00,M,BKN,BKN,M,M,10000.00,11000.00,M,M,VCTS,M,M,M,28.00,280.00,2022-08-21 18:56,80.80,KELY 211953Z AUTO 27010KT 10SM VCTS BKN100 BKN110 28/07 A3026 RMK AO2 PK WND 28028/1856 WSHFT 1852 LTG DSNT SE AND S SLP138 T02830067,M
LOL,2022-08-21 19:53,-118.5701,40.0684,1192.43,97.00,38.00,12.91,210.00,6.00,0.00,30.08,1013.60,10.00,M,CLR,M,M,M,M,M,M,M,M,M,M,M,M,M,M,92.30,KLOL 211953Z AUTO 21006KT 10SM CLR 36/03 A3008 RMK AO2 SLP136 T03610033,M
P68,2022-08-21 19:53,-116.0056,39.6014,1993.00,84.00,40.00,20.99,360.00,12.00,0.00,30.24,1015.30,M,18.00,M,M,M,M,M,M,M,M,M,M,M,M,M,M,M,81.33,KP68 211953Z AUTO 36012G18KT 310V030 29/04 A3024 RMK AO1 SLP153 T02890044,M
VGT,2022-08-21 19:53,-115.1933,36.2111,667.00,98.00,61.00,29.55,160.00,7.00,0.00,29.97,1013.30,10.00,M,CLR,M,M,M,M,M,M,M,M,M,M,M,M,M,M,98.92,KVGT 211953Z 16007KT 10SM CLR 37/16 A2997 RMK AO2 SLP133 T03670161 $,M
DRA,2022-08-21 19:53,-116.0278,36.6206,1009.00,98.00,41.00,14.08,230.00,7.00,0.00,30.04,1011.20,10.00,M,CLR,M,M,M,M,M,M,M,M,M,M,M,M,M,M,93.62,KDRA 211953Z AUTO 23007KT 10SM CLR 37/05 A3004 RMK AO2 SLP112 T03670050,M
MEV,2022-08-21 19:55,-119.7500,38.9963,1441.42,93.20,32.00,11.48,290.00,8.00,0.00,30.15,M,10.00,15.00,CLR,M,M,M,M,M,M,M,M,M,M,M,M,M,M,88.31,KMEV 211955Z AUTO 29008G15KT 260V320 10SM CLR 34/00 A3015 RMK AO2,M
RNO,2022-08-21 19:55,-119.7711,39.4839,1341.00,93.00,38.00,14.60,M,3.00,0.00,30.14,1013.90,10.00,M,FEW,M,M,M,9000.00,M,M,M,M,M,M,M,M,M,M,88.67,KRNO 211955Z VRB03KT 10SM FEW090 34/03 A3014 RMK AO2 SLP139 T03390033,M
TMT,2022-08-21 19:55,-117.1971,39.4643,1749.34,M,M,M,260.00,5.00,0.00,30.24,M,10.00,8.00,CLR,M,M,M,M,M,M,M,M,M,M,M,M,M,M,M,KTMT 211955Z AUTO 26005G08KT 10SM CLR A3024 RMK AO2,M
HTH,2022-08-21 19:55,-118.6315,38.5448,1282.89,93.20,35.60,13.25,330.00,6.00,0.00,30.11,M,10.00,12.00,CLR,M,M,M,M,M,M,M,M,M,M,M,M,M,M,88.76,KHTH 211955Z AUTO 33006G12KT 10SM CLR 34/02 A3011 RMK A01,M
BAM,2022-08-21 19:55,-116.8743,40.5990,1382.36,91.40,42.80,18.56,330.00,7.00,0.00,30.13,M,10.00,M,CLR,M,M,M,M,M,M,M,M,M,M,M,M,M,M,87.52,KBAM 211955Z AUTO 33007KT 10SM CLR 33/06 A3013 RMK AO1,M
RTS,2022-08-21 19:55,-119.8764,39.6682,1539.00,89.60,30.20,11.94,250.00,11.00,0.00,30.20,M,10.00,M,CLR,M,M,M,M,M,M,M,M,M,M,M,M,M,M,85.34,KRTS 211955Z AUTO 25011KT 10SM CLR 32/M01 A3020 RMK AO2,M
BVU,2022-08-21 19:55,-114.8611,35.9475,671.00,96.80,66.20,36.90,140.00,12.00,0.00,29.98,M,M,M,M,M,M,M,M,M,M,M,M,M,M,M,M,M,M,100.60,KBVU 211955Z AUTO 14012KT 36/19 A2998 RMK AO2 PWINO TSNO,M
CXP,2022-08-21 19:55,-119.7326,39.1923,1431.00,93.20,32.00,11.48,M,4.00,0.00,30.17,M,10.00,M,CLR,M,M,M,M,M,M,M,M,M,M,M,M,M,M,88.31,KCXP 211955Z AUTO VRB04KT 10SM CLR 34/M00 A3017 RMK AO2,M
WMC,2022-08-21 19:56,-117.8072,40.9019,1315.00,97.00,37.00,12.46,M,M,0.00,30.10,1013.50,10.00,M,CLR,M,M,M,M,M,M,M,M,M,M,M,M,M,M,92.13,KWMC 211956Z AUTO 10SM CLR 36/03 A3010 RMK AO2 SLP135 T03610028 $,M
EKO,2022-08-21 19:56,-115.7860,40.8242,1367.00,83.00,42.00,23.68,90.00,8.00,0.00,30.17,1016.60,10.00,M,CLR,M,M,M,M,M,M,M,M,M,M,M,M,M,M,80.68,KEKO 211956Z AUTO 09008KT 10SM CLR 28/06 A3017 RMK AO2 SLP166 T02830056 $,M
LAS,2022-08-21 19:56,-115.1634,36.0719,663.00,98.00,62.00,30.72,120.00,7.00,0.00,29.97,1011.80,10.00,M,FEW,M,M,M,15000.00,M,M,M,M,M,M,M,M,M,M,99.51,KLAS 211956Z 12007KT 10SM FEW150 37/17 A2997 RMK AO2 SLP118 TCU DSNT W-N T03670167,M
HND,2022-08-21 19:56,-115.1344,35.9729,742.79,98.00,64.00,32.85,0.00,0.00,0.00,30.01,1014.20,10.00,M,CLR,M,M,M,M,M,M,M,M,M,M,M,M,M,M,100.65,KHND 211956Z 00000KT 10SM CLR 37/18 A3001 RMK AO2 SLP142 T03670178,M
NFL,2022-08-21 19:56,-118.7010,39.4166,1199.00,94.00,36.00,13.17,0.00,0.00,0.00,30.09,1015.60,10.00,M,FEW,M,M,M,9000.00,M,M,M,M,M,M,M,M,M,M,89.40,KNFL 211956Z 00000KT 10SM FEW090 34/02 A3009 RMK AO2 SLP156 T03440022,M
TPH,2022-08-21 19:56,-117.0904,38.0505,1654.00,91.00,39.00,16.23,M,5.00,0.00,30.21,1013.40,10.00,M,CLR,M,M,M,M,M,M,M,M,M,M,M,M,M,M,86.94,KTPH 211956Z AUTO VRB05KT 10SM CLR 33/04 A3021 RMK AO2 SLP134 T03280039,M
LSV,2022-08-21 19:58,-115.0343,36.2362,570.00,100.00,66.40,33.81,60.00,4.00,0.00,29.94,1011.00,10.00,M,CLR,M,M,M,M,M,M,M,M,M,M,M,M,M,M,104.52,KLSV 211958Z AUTO 06004KT 10SM CLR 38/19 A2994 RMK AO2 SLP110 T03770191 $,M
INS,2022-08-21 19:58,-115.6733,36.5872,955.00,94.00,55.00,27.00,0.00,0.00,0.00,30.03,1011.30,10.00,M,CLR,M,M,M,M,M,M,M,M,M,M,M,M,M,M,91.93,KINS 211958Z AUTO 00000KT 10SM CLR 34/13 A3003 RMK AO2 SLP113 T03440127 $,M
CXP,2022-08-21 20:10,-119.7326,39.1923,1431.00,93.20,30.20,10.67,250.00,8.00,0.00,30.17,M,10.00,M,CLR,M,M,M,M,M,M,M,M,M,M,M,M,M,M,88.09,KCXP 212010Z AUTO 25008KT 210V280 10SM CLR 34/M01 A3017 RMK AO2,M
ELY,2022-08-21 20:13,-114.8453,39.2950,1909.00,81.00,43.00,26.08,10.00,8.00,0.00,30.26,M,10.00,M,BKN,BKN,M,M,9000.00,11000.00,M,M,M,M,M,M,M,M,M,79.54,KELY 212013Z AUTO 01008KT 10SM BKN090 BKN110 27/06 A3026 RMK AO2 WSHFT 1953 T02720061,M
BAM,2022-08-21 20:15,-116.8743,40.5990,1382.36,95.00,41.00,15.49,250.00,5.00,0.00,30.13,M,10.00,M,CLR,M,M,M,M,M,M,M,M,M,M,M,M,M,M,90.70,KBAM 212015Z AUTO 25005KT 10SM CLR 35/05 A3013 RMK AO1,M
HTH,2022-08-21 20:15,-118.6315,38.5448,1282.89,93.20,33.80,12.34,360.00,10.00,0.00,30.10,M,10.00,M,CLR,M,M,M,M,M,M,M,M,M,M,M,M,M,M,88.55,KHTH 212015Z AUTO 36010KT 10SM CLR 34/01 A3010 RMK A01,M
TMT,2022-08-21 20:15,-117.1971,39.4643,1749.34,M,M,M,270.00,5.00,0.00,30.23,M,10.00,M,SCT,M,M,M,12000.00,M,M,M,M,M,M,M,M,M,M,M,KTMT 212015Z AUTO 27005KT 10SM SCT120 A3023 RMK AO2,M
BVU,2022-08-21 20:15,-114.8611,35.9475,671.00,96.80,66.20,36.90,240.00,5.00,0.00,29.97,M,M,16.00,M,M,M,M,M,M,M,M,M,M,M,M,M,M,M,100.60,KBVU 212015Z AUTO 24005G16KT 36/19 A2997 RMK AO2 PWINO TSNO,M
RTS,2022-08-21 20:15,-119.8764,39.6682,1539.00,89.60,24.80,9.56,230.00,9.00,0.00,30.20,M,10.00,19.00,CLR,M,M,M,M,M,M,M,M,M,M,M,M,M,M,84.88,KRTS 212015Z AUTO 23009G19KT 10SM CLR 32/M04 A3020 RMK AO2,M
MEV,2022-08-21 20:15,-119.7500,38.9963,1441.42,93.20,30.20,10.67,M,6.00,0.00,30.15,M,10.00,11.00,CLR,M,M,M,M,M,M,M,M,M,M,M,M,M,M,88.09,KMEV 212015Z AUTO VRB06G11KT 10SM CLR 34/M01 A3015 RMK AO2,M
RTS,2022-08-21 20:35,-119.8764,39.6682,1539.00,91.40,23.00,8.38,200.00,14.00,0.00,30.19,M,10.00,19.00,CLR,M,M,M,M,M,M,M,M,M,M,M,M,M,M,86.08,KRTS 212035Z AUTO 20014G19KT 10SM CLR 33/M05 A3019 RMK AO2,M
CXP,2022-08-21 20:35,-119.7326,39.1923,1431.00,93.20,30.20,10.67,270.00,9.00,0.00,30.17,M,10.00,15.00,CLR,M,M,M,M,M,M,M,M,M,M,M,M,M,M,88.09,KCXP 212035Z AUTO 27009G15KT 210V300 10SM CLR 34/M01 A3017 RMK AO2,M
BVU,2022-08-21 20:35,-114.8611,35.9475,671.00,96.80,66.20,36.90,M,4.00,0.00,29.96,M,M,10.00,M,M,M,M,M,M,M,M,M,M,M,M,M,M,M,100.60,KBVU 212035Z AUTO VRB04G10KT 36/19 A2996 RMK AO2 PWINO TSNO,M
TMT,2022-08-21 20:35,-117.1971,39.4643,1749.34,M,M,M,90.00,7.00,0.00,30.22,M,10.00,M,CLR,M,M,M,M,M,M,M,M,M,M,M,M,M,M,M,KTMT 212035Z AUTO 09007KT 040V110 10SM CLR A3022 RMK AO2,M
HTH,2022-08-21 20:35,-118.6315,38.5448,1282.89,95.00,33.80,11.67,340.00,8.00,0.00,30.09,M,10.00,M,CLR,M,M,M,M,M,M,M,M,M,M,M,M,M,M,89.97,KHTH 212035Z AUTO 34008KT 10SM CLR 35/01 A3009 RMK A01,M
BAM,2022-08-21 20:35,-116.8743,40.5990,1382.36,96.80,33.80,11.04,290.00,4.00,0.00,30.13,M,10.00,M,CLR,M,M,M,M,M,M,M,M,M,M,M,M,M,M,91.44,KBAM 212035Z AUTO 29004KT 10SM CLR 36/01 A3013 RMK AO1,M
MEV,2022-08-21 20:35,-119.7500,38.9963,1441.42,93.20,32.00,11.48,290.00,9.00,0.00,30.15,M,10.00,15.00,CLR,M,M,M,M,M,M,M,M,M,M,M,M,M,M,88.31,KMEV 212035Z AUTO 29009G15KT 10SM CLR 34/M00 A3015 RMK AO2,M
ELY,2022-08-21 20:38,-114.8453,39.2950,1909.00,75.00,50.00,41.41,210.00,12.00,T,30.26,M,10.00,16.00,SCT,M,M,M,9000.00,M,M,M,TS,M,M,M,34.00,250.00,2022-08-21 20:27,75.00,KELY 212038Z AUTO 21012G16KT 10SM TS SCT090 24/10 A3026 RMK AO2 PK WND 25034/2027 WSHFT 1953 LTG DSNT N AND SE RAB20E35 TSB32 P0000 T02390100,M
VGT,2022-08-21 20:53,-115.1933,36.2111,667.00,100.00,58.00,24.97,0.00,0.00,0.00,29.94,1012.20,10.00,M,CLR,M,M,M,M,M,M,M,M,M,M,M,M,M,M,99.61,KVGT 212053Z 00000KT 10SM CLR 38/14 A2994 RMK AO2 SLP122 T03780144 58018 $,M
P68,2022-08-21 20:53,-116.0056,39.6014,1993.00,87.00,38.00,17.58,M,5.00,0.00,30.22,1014.60,M,M,M,M,M,M,M,M,M,M,M,M,M,M,28.00,330.00,2022-08-21 19:54,83.61,KP68 212053Z AUTO VRB05KT 31/03 A3022 RMK AO1 PK WND 33028/1954 SLP146 T03060033 58012,M
ELY,2022-08-21 20:53,-114.8453,39.2950,1909.00,80.00,45.00,28.99,M,3.00,T,30.26,1014.30,10.00,M,BKN,BKN,M,M,9500.00,11000.00,M,M,TS,M,M,M,34.00,250.00,2022-08-21 20:27,79.18,KELY 212053Z AUTO VRB03KT 10SM TS BKN095 BKN110 27/07 A3026 RMK AO2 PK WND 25034/2027 WSHFT 1953 LTG DSNT SE RAB20E35 TSB32E46B52 SLP143 P0000 60000 T02670072 55003,M
LOL,2022-08-21 20:53,-118.5701,40.0684,1192.43,96.00,36.00,12.31,0.00,0.00,0.00,30.06,1013.00,10.00,M,CLR,M,M,M,M,M,M,M,M,M,M,M,M,M,M,91.21,KLOL 212053Z AUTO 00000KT 10SM CLR 36/02 A3006 RMK AO2 SLP130 T03560022 58015,M
DRA,2022-08-21 20:53,-116.0278,36.6206,1009.00,100.00,40.00,12.74,210.00,10.00,0.00,30.02,1010.30,10.00,17.00,CLR,M,M,M,M,M,M,M,M,M,M,M,M,M,M,95.23,KDRA 212053Z AUTO 21010G17KT 10SM CLR 38/04 A3002 RMK AO2 SLP103 T03780044 58016,M
EKO,2022-08-21 20:54,-115.7860,40.8242,1367.00,80.60,42.80,26.22,310.00,14.97,M,30.17,M,10.00,20.99,FEW,BKN,M,M,7998.00,11000.00,M,M,VCTS,M,M,M,M,M,M,79.30,SPECI KEKO 212054Z 31015G21KT 10SM VCTS FEW080 BKN110 27/06 A3017 RMK AO2 LTG DSNT W $ FIBI,M
MEV,2022-08-21 20:55,-119.7500,38.9963,1441.42,95.00,32.00,10.85,280.00,11.00,0.00,30.15,M,10.00,17.00,CLR,M,M,M,M,M,M,M,M,M,M,M,M,M,M,89.71,KMEV 212055Z AUTO 28011G17KT 10SM CLR 35/M00 A3015 RMK AO2,M
TMT,2022-08-21 20:55,-117.1971,39.4643,1749.34,M,M,M,210.00,6.00,0.00,30.22,M,10.00,M,CLR,M,M,M,M,M,M,M,M,M,M,M,M,M,M,M,KTMT 212055Z AUTO 21006KT 10SM CLR A3022 RMK AO2,M
HTH,2022-08-21 20:55,-118.6315,38.5448,1282.89,95.00,32.00,10.85,10.00,7.00,0.00,30.09,M,10.00,14.00,CLR,M,M,M,M,M,M,M,M,M,M,M,M,M,M,89.71,KHTH 212055Z AUTO 01007G14KT 10SM CLR 35/00 A3009 RMK A01,M
BAM,2022-08-21 20:55,-116.8743,40.5990,1382.36,95.00,35.60,12.53,10.00,5.00,0.00,30.12,M,10.00,M,CLR,M,M,M,M,M,M,M,M,M,M,M,M,M,M,90.25,KBAM 212055Z AUTO 01005KT 10SM CLR 35/02 A3012 RMK AO1,M
RTS,2022-08-21 20:55,-119.8764,39.6682,1539.00,91.40,26.60,9.74,280.00,9.00,0.00,30.19,M,10.00,14.00,CLR,M,M,M,M,M,M,M,M,M,M,M,M,M,M,86.36,KRTS 212055Z AUTO 28009G14KT 250V310 10SM CLR 33/M03 A3019 RMK AO2,M
RNO,2022-08-21 20:55,-119.7711,39.4839,1341.00,96.00,39.00,13.85,260.00,4.00,0.00,30.12,1013.30,10.00,M,FEW,FEW,M,M,9000.00,21000.00,M,M,M,M,M,M,M,M,M,91.57,KRNO 212055Z 26004KT 10SM FEW090 FEW210 36/04 A3012 RMK AO2 SLP133 T03560039 58014,M
CXP,2022-08-21 20:55,-119.7326,39.1923,1431.00,93.20,30.20,10.67,270.00,8.00,0.00,30.16,M,10.00,M,CLR,M,M,M,M,M,M,M,M,M,M,M,M,M,M,88.09,KCXP 212055Z AUTO 27008KT 10SM CLR 34/M01 A3016 RMK AO2,M
BVU,2022-08-21 20:55,-114.8611,35.9475,671.00,96.80,66.20,36.90,0.00,0.00,0.00,29.95,M,M,13.00,M,M,M,M,M,M,M,M,M,M,M,M,M,M,M,100.60,KBVU 212055Z AUTO 00000G13KT 36/19 A2995 RMK AO2 PWINO TSNO,M
EKO,2022-08-21 20:56,-115.7860,40.8242,1367.00,80.00,42.00,25.94,300.00,19.00,0.00,30.17,1016.80,10.00,27.00,FEW,BKN,M,M,8000.00,11000.00,M,M,VCTS,M,M,M,27.00,310.00,2022-08-21 20:56,78.99,KEKO 212056Z AUTO 30019G27KT 10SM VCTS FEW080 BKN110 27/06 A3017 RMK AO2 PK WND 31027/2056 LTG DSNT W SLP168 T02670056 56012 $,M
HND,2022-08-21 20:56,-115.1344,35.9729,742.79,100.00,63.00,29.94,160.00,7.00,0.00,29.98,1013.30,10.00,M,CLR,M,M,M,M,M,M,M,M,M,M,M,M,M,M,102.27,KHND 212056Z 16007KT 120V230 10SM CLR 38/17 A2998 RMK AO2 SLP133 T03780172 58019,M
NFL,2022-08-21 20:56,-118.7010,39.4166,1199.00,96.00,35.00,11.88,140.00,5.00,0.00,30.07,1015.10,10.00,M,FEW,M,M,M,9000.00,M,M,M,M,M,M,M,M,M,M,91.07,KNFL 212056Z 14005KT 10SM FEW090 36/02 A3007 RMK SLP151 T03560017 58013,M
TPH,2022-08-21 20:56,-117.0904,38.0505,1654.00,91.00,36.00,14.42,M,4.00,0.00,30.19,1012.70,10.00,M,FEW,M,M,M,11000.00,M,M,M,M,M,M,M,M,M,M,86.83,KTPH 212056Z AUTO VRB04KT 10SM FEW110 33/02 A3019 RMK AO2 SLP127 T03280022 58014,M
LAS,2022-08-21 20:56,-115.1634,36.0719,663.00,100.00,62.00,29.00,M,3.00,0.00,29.95,1010.80,10.00,M,FEW,M,M,M,15000.00,M,M,M,M,M,M,M,M,M,M,101.73,KLAS 212056Z VRB03KT 10SM FEW150 38/17 A2995 RMK AO2 SLP108 TCU DSNT W-N T03780167 58021,M
WMC,2022-08-21 20:56,-117.8072,40.9019,1315.00,99.00,35.00,10.87,260.00,8.00,0.00,30.09,1013.10,10.00,15.00,CLR,M,M,M,M,M,M,M,M,M,M,M,M,M,M,93.48,KWMC 212056Z AUTO 26008G15KT 10SM CLR 37/02 A3009 RMK AO2 SLP131 T03720017 58012 $,M
LSV,2022-08-21 20:58,-115.0343,36.2362,570.00,102.20,65.70,30.80,110.00,5.00,0.00,29.91,1009.90,10.00,M,CLR,M,M,M,M,M,M,M,M,M,M,M,M,M,M,106.80,KLSV 212058Z AUTO 11005KT 10SM CLR 39/19 A2991 RMK AO2 SLP099 T03900187 57019 $,M
INS,2022-08-21 20:58,-115.6733,36.5872,955.00,95.70,52.00,22.97,320.00,4.00,0.00,30.01,1010.60,10.00,M,CLR,M,M,M,M,M,M,M,M,M,M,M,M,M,M,93.03,KINS 212058Z AUTO 32004KT 10SM CLR 35/11 A3001 RMK AO2 SLP106 T03540111 57016 $,M
ELY,2022-08-21 21:04,-114.8453,39.2950,1909.00,70.00,50.00,49.03,M,4.00,0.10,30.27,M,2.00,27.00,FEW,BKN,BKN,M,3800.00,9000.00,11000.00,M,-TSRA,M,M,M,27.00,20.00,2022-08-21 20:58,70.00,KELY 212104Z AUTO VRB04G27KT 2SM -TSRA FEW038 BKN090 BKN110 21/10 A3027 RMK AO2 PK WND 02027/2058 LTG DSNT SE RAB2057 P0010 T02110100,M
EKO,2022-08-21 21:08,-115.7860,40.8242,1367.00,79.00,39.00,23.85,290.00,17.00,0.00,30.17,M,10.00,25.00,FEW,BKN,M,M,8000.00,11000.00,M,M,TS,M,M,M,M,M,M,79.00,KEKO 212108Z AUTO 29017G25KT 10SM TS FEW080 BKN110 26/04 A3017 RMK AO2 TSB02 T02610039 $,M
ELY,2022-08-21 21:13,-114.8453,39.2950,1909.00,71.00,54.00,54.73,160.00,5.00,0.10,30.26,M,10.00,M,FEW,BKN,BKN,M,3800.00,9000.00,11000.00,M,-TSRA,M,M,M,27.00,20.00,2022-08-21 20:58,71.10,KELY 212113Z AUTO 16005KT 10SM -TSRA FEW038 BKN090 BKN110 22/12 A3026 RMK AO2 PK WND 02027/2058 LTG DSNT SE RAB2057 P0010 T02170122,M
BAM,2022-08-21 21:15,-116.8743,40.5990,1382.36,95.00,37.40,13.46,0.00,0.00,0.00,30.12,M,10.00,M,CLR,M,M,M,M,M,M,M,M,M,M,M,M,M,M,90.46,KBAM 212115Z AUTO 00000KT 10SM CLR 35/03 A3012 RMK AO1,M
MEV,2022-08-21 21:15,-119.7500,38.9963,1441.42,93.20,32.00,11.48,270.00,13.00,0.00,30.15,M,10.00,18.00,CLR,M,M,M,M,M,M,M,M,M,M,M,M,M,M,88.31,KMEV 212115Z AUTO 27013G18KT 10SM CLR 34/M00 A3015 RMK AO2,M
CXP,2022-08-21 21:15,-119.7326,39.1923,1431.00,93.20,30.20,10.67,250.00,12.00,0.00,30.16,M,10.00,17.00,CLR,M,M,M,M,M,M,M,M,M,M,M,M,M,M,88.09,KCXP 212115Z AUTO 25012G17KT 220V280 10SM CLR 34/M01 A3016 RMK AO2,M
BVU,2022-08-21 21:15,-114.8611,35.9475,671.00,98.60,64.40,32.81,M,5.00,0.00,29.94,M,M,11.00,M,M,M,M,M,M,M,M,M,M,M,M,M,M,M,101.50,KBVU 212115Z AUTO VRB05G11KT 37/18 A2994 RMK AO2 PWINO TSNO,M
RTS,2022-08-21 21:15,-119.8764,39.6682,1539.00,89.60,28.40,11.09,M,6.00,0.00,30.19,M,10.00,18.00,CLR,M,M,M,M,M,M,M,M,M,M,M,M,M,M,85.17,KRTS 212115Z AUTO VRB06G18KT 10SM CLR 32/M02 A3019 RMK AO2,M
TMT,2022-08-21 21:15,-117.1971,39.4643,1749.34,M,M,M,320.00,6.00,0.00,30.22,M,10.00,M,CLR,M,M,M,M,M,M,M,M,M,M,M,M,M,M,M,KTMT 212115Z AUTO 32006KT 10SM CLR A3022 RMK AO2,M
HTH,2022-08-21 21:15,-118.6315,38.5448,1282.89,96.80,32.00,10.27,0.00,0.00,0.00,30.08,M,10.00,12.00,CLR,M,M,M,M,M,M,M,M,M,M,M,M,M,M,91.19,KHTH 212115Z AUTO 00000G12KT 10SM CLR 36/00 A3008 RMK A01,M
ELY,2022-08-21 21:28,-114.8453,39.2950,1909.00,76.00,56.00,49.91,M,3.00,0.10,30.26,M,10.00,M,FEW,FEW,SCT,M,8000.00,10000.00,12000.00,M,M,M,M,M,27.00,20.00,2022-08-21 20:58,75.90,KELY 212128Z AUTO VRB03KT 10SM FEW080 FEW100 SCT120 24/13 A3026 RMK AO2 PK WND 02027/2058 LTG DSNT SE RAB2057E18 TSE22 P0010 T02440133,M
CXP,2022-08-21 21:30,-119.7326,39.1923,1431.00,93.20,28.40,9.91,280.00,12.00,0.00,30.16,M,10.00,19.00,CLR,M,M,M,M,M,M,M,M,M,M,M,M,M,M,87.89,KCXP 212130Z AUTO 28012G19KT 250V310 10SM CLR 34/M02 A3016 RMK AO2,M
TMT,2022-08-21 21:35,-117.1971,39.4643,1749.34,M,M,M,300.00,11.00,0.00,30.22,M,10.00,17.00,CLR,M,M,M,M,M,M,M,M,M,M,M,M,M,M,M,KTMT 212135Z AUTO 30011G17KT 10SM CLR A3022 RMK AO2,M
RTS,2022-08-21 21:35,-119.8764,39.6682,1539.00,93.20,23.00,7.92,230.00,15.00,0.00,30.18,M,10.00,M,CLR,M,M,M,M,M,M,M,M,M,M,M,M,M,M,87.42,KRTS 212135Z AUTO 23015KT 10SM CLR 34/M05 A3018 RMK AO2,M
BAM,2022-08-21 21:35,-116.8743,40.5990,1382.36,96.80,37.40,12.73,0.00,0.00,0.00,30.11,M,10.00,M,CLR,M,M,M,M,M,M,M,M,M,M,M,M,M,M,92.04,KBAM 212135Z AUTO 00000KT 10SM CLR 36/03 A3011 RMK AO1,M
HTH,2022-08-21 21:35,-118.6315,38.5448,1282.89,96.80,32.00,10.27,M,6.00,0.00,30.07,M,10.00,11.00,CLR,M,M,M,M,M,M,M,M,M,M,M,M,M,M,91.19,KHTH 212135Z AUTO VRB06G11KT 10SM CLR 36/00 A3007 RMK A01,M
MEV,2022-08-21 21:35,-119.7500,38.9963,1441.42,95.00,32.00,10.85,290.00,13.00,0.00,30.14,M,10.00,19.00,CLR,M,M,M,M,M,M,M,M,M,M,M,M,M,M,89.71,KMEV 212135Z AUTO 29013G19KT 10SM CLR 35/M00 A3014 RMK AO2,M
BVU,2022-08-21 21:35,-114.8611,35.9475,671.00,98.60,66.20,34.93,180.00,7.00,0.00,29.93,M,M,12.00,M,M,M,M,M,M,M,M,M,M,M,M,M,M,M,102.78,KBVU 212135Z AUTO 18007G12KT 140V220 37/19 A2993 RMK AO2 PWINO TSNO,M
EKO,2022-08-21 21:45,-115.7860,40.8242,1367.00,77.00,42.00,28.73,220.00,12.00,0.00,30.17,M,10.00,23.00,FEW,SCT,BKN,M,5500.00,8500.00,11000.00,M,M,M,M,M,26.00,280.00,2022-08-21 21:15,77.00,KEKO 212145Z AUTO 22012G23KT 10SM FEW055 SCT085 BKN110 25/06 A3017 RMK AO2 PK WND 28026/2115 TSB02E39 T02500056 $,M
TMT,2022-08-21 21:50,-117.1971,39.4643,1749.34,M,M,M,300.00,9.00,0.00,30.21,M,10.00,16.00,CLR,M,M,M,M,M,M,M,M,M,M,M,M,M,M,M,KTMT 212150Z AUTO 30009G16KT 10SM CLR A3021 RMK AO2,M
P68,2022-08-21 21:53,-116.0056,39.6014,1993.00,89.00,39.00,17.22,10.00,9.00,0.00,30.21,1013.80,M,M,M,M,M,M,M,M,M,M,M,M,M,M,M,M,M,85.30,KP68 212153Z AUTO 01009KT 330V040 32/04 A3021 RMK AO1 SLP138 T03170039,M
VGT,2022-08-21 21:53,-115.1933,36.2111,667.00,101.00,58.00,24.31,M,4.00,0.00,29.91,1011.30,10.00,14.00,CLR,M,M,M,M,M,M,M,M,M,M,M,M,M,M,100.63,KVGT 212153Z VRB04G14KT 10SM CLR 38/14 A2991 RMK AO2 LTG DSNT W SLP113 T03830144 $,M
DRA,2022-08-21 21:53,-116.0278,36.6206,1009.00,101.00,39.00,11.97,210.00,7.00,0.00,30.00,1009.80,10.00,M,CLR,M,M,M,M,M,M,M,M,M,M,M,M,M,M,95.82,KDRA 212153Z AUTO 21007KT 10SM CLR 38/04 A3000 RMK AO2 SLP098 T03830039,M
ELY,2022-08-21 21:53,-114.8453,39.2950,1909.00,80.00,50.00,34.98,40.00,20.00,0.10,30.25,1014.50,10.00,27.00,FEW,M,M,M,12000.00,M,M,M,M,M,M,M,32.00,20.00,2022-08-21 21:41,79.60,KELY 212153Z AUTO 04020G27KT 10SM FEW120 27/10 A3025 RMK AO2 PK WND 02032/2141 RAB2057E18 TSE22 SLP145 P0010 T02670100,M
LOL,2022-08-21 21:53,-118.5701,40.0684,1192.43,99.00,36.00,11.27,M,M,0.00,30.04,1012.40,10.00,M,CLR,M,M,M,M,M,M,M,M,M,M,M,M,M,M,93.63,KLOL 212153Z AUTO 10SM CLR 37/02 A3004 RMK AO2 SLP124 T03720022,M
RNO,2022-08-21 21:55,-119.7711,39.4839,1341.00,96.00,36.00,12.31,290.00,4.00,0.00,30.11,1012.80,10.00,19.00,FEW,FEW,M,M,9000.00,21000.00,M,M,M,M,M,M,M,M,M,91.21,KRNO 212155Z COR 29004G19KT 10SM FEW090 FEW210 36/02 A3011 RMK AO2 SLP128 T03560022,M
RTS,2022-08-21 21:55,-119.8764,39.6682,1539.00,93.20,21.20,7.34,200.00,12.00,0.00,30.18,M,10.00,18.00,CLR,M,M,M,M,M,M,M,M,M,M,M,M,M,M,87.29,KRTS 212155Z AUTO 20012G18KT 10SM CLR 34/M06 A3018 RMK AO2,M
MEV,2022-08-21 21:55,-119.7500,38.9963,1441.42,95.00,30.20,10.09,300.00,15.00,0.00,30.13,M,10.00,M,CLR,M,M,M,M,M,M,M,M,M,M,M,M,M,M,89.48,KMEV 212155Z AUTO 30015KT 10SM CLR 35/M01 A3013 RMK AO2,M
HTH,2022-08-21 21:55,-118.6315,38.5448,1282.89,96.80,32.00,10.27,320.00,7.00,0.00,30.06,M,10.00,M,CLR,M,M,M,M,M,M,M,M,M,M,M,M,M,M,91.19,KHTH 212155Z AUTO 32007KT 10SM CLR 36/M00 A3006 RMK A01,M
BAM,2022-08-21 21:55,-116.8743,40.5990,1382.36,96.80,37.40,12.73,300.00,4.00,0.00,30.11,M,10.00,M,CLR,M,M,M,M,M,M,M,M,M,M,M,M,M,M,92.04,KBAM 212155Z AUTO 30004KT 10SM CLR 36/03 A3011 RMK AO1,M
BVU,2022-08-21 21:55,-114.8611,35.9475,671.00,100.40,64.40,31.07,190.00,8.00,0.00,29.92,M,M,17.00,M,M,M,M,M,M,M,M,M,M,M,M,M,M,M,103.66,KBVU 212155Z AUTO 19008G17KT 38/18 A2992 RMK AO2 PWINO TSNO,M
CXP,2022-08-21 21:55,-119.7326,39.1923,1431.00,93.20,28.40,9.91,290.00,12.00,0.00,30.15,M,10.00,21.00,CLR,M,M,M,M,M,M,M,M,M,M,M,M,M,M,87.89,KCXP 212155Z AUTO 29012G21KT 10SM CLR 34/M02 A3015 RMK AO2,M
LAS,2022-08-21 21:56,-115.1634,36.0719,663.00,101.00,60.00,26.30,M,M,0.00,29.91,1009.70,10.00,M,FEW,FEW,M,M,14000.00,25000.00,M,M,M,M,M,M,M,M,M,101.68,KLAS 212156Z 10SM FEW140 FEW250 38/16 A2991 RMK AO2 LTG DSNT NW SLP097 CB DSNT NW AND N TCU DSNT E-SE T03830156,M
NFL,2022-08-21 21:56,-118.7010,39.4166,1199.00,97.00,33.00,10.67,M,3.00,0.00,30.05,1014.60,10.00,M,FEW,M,M,M,9000.00,M,M,M,M,M,M,M,M,M,M,91.50,KNFL 212156Z VRB03KT 10SM FEW090 36/01 A3005 RMK AO2 SLP146 T03610006,M
WMC,2022-08-21 21:56,-117.8072,40.9019,1315.00,99.00,34.00,10.41,240.00,13.00,0.00,30.07,1012.80,10.00,21.00,CLR,M,M,M,M,M,M,M,M,M,M,M,M,M,M,93.31,KWMC 212156Z AUTO 24013G21KT 10SM CLR 37/01 A3007 RMK AO2 SLP128 T03720011 $,M
TPH,2022-08-21 21:56,-117.0904,38.0505,1654.00,94.00,34.00,12.17,310.00,10.00,0.00,30.17,1012.10,10.00,20.00,FEW,M,M,M,12000.00,M,M,M,M,M,M,M,M,M,M,89.13,KTPH 212156Z AUTO 31010G20KT 290V360 10SM FEW120 34/01 A3017 RMK AO2 SLP121 T03440011,M
EKO,2022-08-21 21:56,-115.7860,40.8242,1367.00,78.00,43.00,28.68,210.00,10.00,0.00,30.16,1016.80,10.00,M,FEW,FEW,SCT,M,5500.00,9500.00,11000.00,M,M,M,M,M,26.00,280.00,2022-08-21 21:15,78.10,KEKO 212156Z AUTO 21010KT 10SM FEW055 FEW095 SCT110 26/06 A3016 RMK AO2 PK WND 28026/2115 TSB02E39 SLP168 T02560061 $,M
HND,2022-08-21 21:56,-115.1344,35.9729,742.79,101.00,59.00,25.28,360.00,3.00,0.00,29.95,1012.20,10.00,M,CLR,M,M,M,M,M,M,M,M,M,M,M,M,M,M,101.14,KHND 212156Z 36003KT 10SM CLR 38/15 A2995 RMK AO2 LTG DSNT NW SLP122 T03830150,M
INS,2022-08-21 21:58,-115.6733,36.5872,955.00,98.00,52.70,21.90,220.00,4.00,0.00,29.98,1009.40,10.00,M,CLR,M,M,M,M,M,M,M,M,M,M,M,M,M,M,95.72,KINS 212158Z AUTO 22004KT 10SM CLR 37/12 A2998 RMK AO2 LTG DSNT N AND S SLP094 T03670115 $,M
LSV,2022-08-21 21:58,-115.0343,36.2362,570.00,105.00,65.00,27.83,60.00,5.00,0.00,29.89,1009.20,10.00,M,CLR,M,M,M,M,M,M,M,M,M,M,M,M,M,M,109.63,KLSV 212158Z AUTO 06005KT 10SM CLR 41/18 A2989 RMK AO2 SLP092 T04050184 $,M
LAS,2022-08-21 21:59,-115.1634,36.0719,663.00,101.00,60.00,26.30,M,3.00,0.00,29.92,M,10.00,M,FEW,FEW,M,M,14000.00,25000.00,M,M,M,M,M,M,M,M,M,101.68,KLAS 212159Z VRB03KT 10SM FEW140 FEW250 38/16 A2992 RMK AO2 LTG DSNT NW CB DSNT NW AND N TCU DSNT E-SE T03830156,M
TMT,2022-08-21 22:15,-117.1971,39.4643,1749.34,M,M,M,300.00,11.00,0.00,30.21,M,10.00,16.00,CLR,M,M,M,M,M,M,M,M,M,M,M,M,M,M,M,KTMT 212215Z AUTO 30011G16KT 10SM CLR A3021 RMK AO2,M
BAM,2022-08-21 22:15,-116.8743,40.5990,1382.36,96.80,37.40,12.73,300.00,8.00,0.00,30.10,M,10.00,M,CLR,M,M,M,M,M,M,M,M,M,M,M,M,M,M,92.04,KBAM 212215Z AUTO 30008KT 10SM CLR 36/03 A3010 RMK AO1,M
BVU,2022-08-21 22:15,-114.8611,35.9475,671.00,100.40,64.40,31.07,150.00,5.00,0.00,29.91,M,M,M,M,M,M,M,M,M,M,M,M,M,M,M,M,M,M,103.66,KBVU 212215Z AUTO 15005KT 38/18 A2991 RMK AO2 PWINO TSNO,M
CXP,2022-08-21 22:15,-119.7326,39.1923,1431.00,93.20,28.40,9.91,290.00,14.00,0.00,30.15,M,10.00,20.00,CLR,M,M,M,M,M,M,M,M,M,M,M,M,M,M,87.89,KCXP 212215Z AUTO 29014G20KT 240V310 10SM CLR 34/M02 A3015 RMK AO2,M
MEV,2022-08-21 22:15,-119.7500,38.9963,1441.42,95.00,32.00,10.85,280.00,15.00,0.00,30.13,M,10.00,M,CLR,M,M,M,M,M,M,M,M,M,M,M,M,M,M,89.71,KMEV 212215Z AUTO 28015KT 10SM CLR 35/00 A3013 RMK AO2,M
HTH,2022-08-21 22:15,-118.6315,38.5448,1282.89,96.80,32.00,10.27,320.00,11.00,0.00,30.05,M,10.00,16.00,CLR,M,M,M,M,M,M,M,M,M,M,M,M,M,M,91.19,KHTH 212215Z AUTO 32011G16KT 10SM CLR 36/M00 A3005 RMK A01,M
RTS,2022-08-21 22:15,-119.8764,39.6682,1539.00,93.20,21.20,7.34,210.00,11.00,0.00,30.17,M,10.00,17.00,CLR,M,M,M,M,M,M,M,M,M,M,M,M,M,M,87.29,KRTS 212215Z AUTO 21011G17KT 10SM CLR 34/M06 A3017 RMK AO2,M
CXP,2022-08-21 22:30,-119.7326,39.1923,1431.00,93.20,30.20,10.67,260.00,10.00,0.00,30.15,M,10.00,21.00,CLR,M,M,M,M,M,M,M,M,M,M,M,M,M,M,88.09,KCXP 212230Z AUTO 26010G21KT 230V290 10SM CLR 34/M01 A3015 RMK AO2,M
BAM,2022-08-21 22:35,-116.8743,40.5990,1382.36,95.00,37.40,13.46,0.00,0.00,0.00,30.10,M,10.00,M,CLR,M,M,M,M,M,M,M,M,M,M,M,M,M,M,90.46,KBAM 212235Z AUTO 00000KT 10SM CLR 35/03 A3010 RMK AO1,M
MEV,2022-08-21 22:35,-119.7500,38.9963,1441.42,95.00,32.00,10.85,280.00,15.00,0.00,30.13,M,10.00,M,CLR,M,M,M,M,M,M,M,M,M,M,M,M,M,M,89.71,KMEV 212235Z AUTO 28015KT 10SM CLR 35/00 A3013 RMK AO2,M
RTS,2022-08-21 22:35,-119.8764,39.6682,1539.00,93.20,19.40,6.80,230.00,15.00,0.00,30.17,M,10.00,M,CLR,M,M,M,M,M,M,M,M,M,M,M,M,M,M,87.18,KRTS 212235Z AUTO 23015KT 10SM CLR 34/M07 A3017 RMK AO2,M
TMT,2022-08-21 22:35,-117.1971,39.4643,1749.34,M,M,M,300.00,4.00,0.00,30.20,M,10.00,M,CLR,M,M,M,M,M,M,M,M,M,M,M,M,M,M,M,KTMT 212235Z AUTO 30004KT 10SM CLR A3020 RMK AO2,M
BVU,2022-08-21 22:35,-114.8611,35.9475,671.00,100.40,64.40,31.07,160.00,11.00,0.00,29.90,M,M,M,M,M,M,M,M,M,M,M,M,M,M,M,M,M,M,103.66,KBVU 212235Z AUTO 16011KT 38/18 A2990 RMK AO2 PWINO TSNO,M
HTH,2022-08-21 22:35,-118.6315,38.5448,1282.89,96.80,32.00,10.27,330.00,14.00,0.00,30.05,M,10.00,M,CLR,M,M,M,M,M,M,M,M,M,M,M,M,M,M,91.19,KHTH 212235Z AUTO 33014KT 10SM CLR 36/M00 A3005 RMK A01,M
VGT,2022-08-21 22:53,-115.1933,36.2111,667.00,104.00,58.00,22.15,310.00,6.00,0.00,29.88,1010.20,10.00,M,CLR,M,M,M,M,M,M,M,M,M,M,M,M,M,M,104.13,KVGT 212253Z 31006KT 10SM CLR 40/14 A2988 RMK AO2 SLP102 T04000144 $,M
DRA,2022-08-21 22:53,-116.0278,36.6206,1009.00,103.00,39.00,11.28,230.00,10.00,0.00,29.98,1009.30,10.00,18.00,CLR,M,M,M,M,M,M,M,M,M,M,M,M,M,M,97.55,KDRA 212253Z AUTO 23010G18KT 10SM CLR 39/04 A2998 RMK AO2 SLP093 T03940039,M
LOL,2022-08-21 22:53,-118.5701,40.0684,1192.43,98.00,34.00,10.70,280.00,10.00,0.00,30.02,1011.90,10.00,M,CLR,M,M,M,M,M,M,M,M,M,M,M,M,M,M,92.55,KLOL 212253Z AUTO 28010KT 10SM CLR 37/01 A3002 RMK AO2 SLP119 T03670011,M
ELY,2022-08-21 22:53,-114.8453,39.2950,1909.00,84.00,45.00,25.54,20.00,8.00,0.00,30.23,1013.60,10.00,M,CLR,M,M,M,M,M,M,M,M,M,M,M,28.00,20.00,2022-08-21 21:54,81.61,KELY 212253Z AUTO 02008KT 10SM CLR 29/07 A3023 RMK AO2 PK WND 02028/2154 LTG DSNT SE SLP136 T02890072,M
P68,2022-08-21 22:53,-116.0056,39.6014,1993.00,88.00,38.00,17.08,350.00,4.00,0.00,30.20,1013.90,M,M,M,M,M,M,M,M,M,M,M,M,M,M,M,M,M,84.34,KP68 212253Z AUTO 35004KT 31/03 A3020 RMK AO1 SLP139 T03110033,M
RTS,2022-08-21 22:55,-119.8764,39.6682,1539.00,93.20,24.80,8.54,250.00,12.00,0.00,30.17,M,10.00,17.00,CLR,M,M,M,M,M,M,M,M,M,M,M,M,M,M,87.56,KRTS 212255Z AUTO 25012G17KT 10SM CLR 34/M04 A3017 RMK AO2,M
BVU,2022-08-21 22:55,-114.8611,35.9475,671.00,100.40,62.60,29.17,M,5.00,0.00,29.90,M,M,14.00,M,M,M,M,M,M,M,M,M,M,M,M,M,M,M,102.50,KBVU 212255Z AUTO VRB05G14KT 38/17 A2990 RMK AO2 PWINO TSNO,M
CXP,2022-08-21 22:55,-119.7326,39.1923,1431.00,91.40,30.20,11.28,280.00,16.00,0.00,30.14,M,10.00,M,CLR,M,M,M,M,M,M,M,M,M,M,M,M,M,M,86.71,KCXP 212255Z AUTO 28016KT 10SM CLR 33/M01 A3014 RMK AO2,M
RNO,2022-08-21 22:55,-119.7711,39.4839,1341.00,98.00,34.00,10.70,300.00,16.00,0.00,30.09,1012.20,10.00,M,FEW,FEW,M,M,9000.00,21000.00,M,M,M,M,M,M,M,M,M,92.55,KRNO 212255Z 30016KT 10SM FEW090 FEW210 37/01 A3009 RMK AO2 SLP122 T03670011,M
MEV,2022-08-21 22:55,-119.7500,38.9963,1441.42,95.00,33.80,11.67,270.00,15.00,0.00,30.12,M,10.00,M,CLR,M,M,M,M,M,M,M,M,M,M,M,M,M,M,89.97,KMEV 212255Z AUTO 27015KT 10SM CLR 35/01 A3012 RMK AO2,M
BAM,2022-08-21 22:55,-116.8743,40.5990,1382.36,95.00,37.40,13.46,290.00,3.00,0.00,30.09,M,10.00,M,CLR,M,M,M,M,M,M,M,M,M,M,M,M,M,M,90.46,KBAM 212255Z AUTO 29003KT 10SM CLR 35/03 A3009 RMK AO1,M
HTH,2022-08-21 22:55,-118.6315,38.5448,1282.89,95.00,32.00,10.85,320.00,11.00,0.00,30.05,M,10.00,M,CLR,M,M,M,M,M,M,M,M,M,M,M,M,M,M,89.71,KHTH 212255Z AUTO 32011KT 10SM CLR 35/M00 A3005 RMK A01,M
TMT,2022-08-21 22:55,-117.1971,39.4643,1749.34,M,M,M,340.00,12.00,0.00,30.20,M,10.00,16.00,CLR,M,M,M,M,M,M,M,M,M,M,M,M,M,M,M,KTMT 212255Z AUTO 34012G16KT 10SM CLR A3020 RMK AO2,M
TPH,2022-08-21 22:56,-117.0904,38.0505,1654.00,94.00,32.00,11.23,280.00,8.00,0.00,30.15,1011.90,10.00,18.00,CLR,M,M,M,M,M,M,M,M,M,M,M,M,M,M,88.85,KTPH 212256Z AUTO 28008G18KT 10SM CLR 34/00 A3015 RMK AO2 SLP119 T03440000,M
HND,2022-08-21 22:56,-115.1344,35.9729,742.79,103.00,56.00,21.30,360.00,9.00,0.00,29.93,1011.40,10.00,M,CLR,M,M,M,M,M,M,M,M,M,M,M,M,M,M,102.01,KHND 212256Z 36009KT 10SM CLR 39/13 A2993 RMK AO2 SLP114 T03940133,M
NFL,2022-08-21 22:56,-118.7010,39.4166,1199.00,99.00,33.00,10.04,290.00,9.00,0.00,30.03,1014.00,10.00,14.00,FEW,M,M,M,10000.00,M,M,M,M,M,M,M,M,M,M,93.18,KNFL 212256Z 29009G14KT 230V330 10SM FEW100 37/01 A3003 RMK AO2 SLP140 T03720006,M
LAS,2022-08-21 22:56,-115.1634,36.0719,663.00,102.00,57.00,22.77,0.00,0.00,0.00,29.89,1008.90,10.00,M,FEW,FEW,M,M,14000.00,25000.00,M,M,M,M,M,M,M,M,M,101.47,KLAS 212256Z 00000KT 10SM FEW140 FEW250 39/14 A2989 RMK AO2 SLP089 CB DSNT N AND DSNT NE-SE TCU DSNT NW T03890139,M
EKO,2022-08-21 22:56,-115.7860,40.8242,1367.00,86.00,41.00,20.54,30.00,6.00,0.00,30.14,1015.60,10.00,M,CLR,M,M,M,M,M,M,M,M,M,M,M,M,M,M,82.86,KEKO 212256Z AUTO 03006KT 10SM CLR 30/05 A3014 RMK AO2 SLP156 T03000050 $,M
WMC,2022-08-21 22:56,-117.8072,40.9019,1315.00,100.00,35.00,10.55,340.00,7.00,0.00,30.06,1012.40,10.00,15.00,CLR,M,M,M,M,M,M,M,M,M,M,M,M,M,M,94.33,KWMC 212256Z AUTO 34007G15KT 10SM CLR 38/02 A3006 RMK AO2 SLP124 T03780017 $,M
INS,2022-08-21 22:58,-115.6733,36.5872,955.00,99.00,52.20,20.92,100.00,10.00,0.00,29.95,1008.60,10.00,16.00,CLR,M,M,M,M,M,M,M,M,M,M,M,M,M,M,96.53,KINS 212258Z AUTO 10010G16KT 10SM CLR 37/11 A2995 RMK AO2 SLP086 T03720112 $,M
LSV,2022-08-21 22:58,-115.0343,36.2362,570.00,106.30,60.80,22.95,140.00,9.00,0.00,29.86,1008.10,10.00,M,CLR,M,M,M,M,M,M,M,M,M,M,M,M,M,M,108.33,KLSV 212258Z AUTO 14009KT 10SM CLR 41/16 A2986 RMK AO2 SLP081 T04130160 $,M
CXP,2022-08-21 23:10,-119.7326,39.1923,1431.00,91.40,32.00,12.14,280.00,15.00,0.00,30.14,M,10.00,21.00,CLR,M,M,M,M,M,M,M,M,M,M,M,M,M,M,86.91,KCXP 212310Z AUTO 28015G21KT 10SM CLR 33/M00 A3014 RMK AO2,M
HTH,2022-08-21 23:15,-118.6315,38.5448,1282.89,95.00,32.00,10.85,330.00,13.00,0.00,30.05,M,10.00,M,CLR,M,M,M,M,M,M,M,M,M,M,M,M,M,M,89.71,KHTH 212315Z AUTO 33013KT 10SM CLR 35/M00 A3005 RMK A01,M
BVU,2022-08-21 23:15,-114.8611,35.9475,671.00,100.40,62.60,29.17,150.00,5.00,0.00,29.89,M,M,11.00,M,M,M,M,M,M,M,M,M,M,M,M,M,M,M,102.50,KBVU 212315Z AUTO 15005G11KT 38/17 A2989 RMK AO2 PWINO TSNO,M
RTS,2022-08-21 23:15,-119.8764,39.6682,1539.00,91.40,24.80,9.04,220.00,12.00,0.00,30.17,M,10.00,M,CLR,M,M,M,M,M,M,M,M,M,M,M,M,M,M,86.21,KRTS 212315Z AUTO 22012KT 10SM CLR 33/M04 A3017 RMK AO2,M
MEV,2022-08-21 23:15,-119.7500,38.9963,1441.42,93.20,33.80,12.34,280.00,13.00,0.00,30.12,M,10.00,M,CLR,M,M,M,M,M,M,M,M,M,M,M,M,M,M,88.55,KMEV 212315Z AUTO 28013KT 10SM CLR 34/01 A3012 RMK AO2,M
BAM,2022-08-21 23:15,-116.8743,40.5990,1382.36,96.80,35.60,11.86,260.00,5.00,0.00,30.09,M,10.00,M,CLR,M,M,M,M,M,M,M,M,M,M,M,M,M,M,91.72,KBAM 212315Z AUTO 26005KT 10SM CLR 36/02 A3009 RMK AO1,M
TMT,2022-08-21 23:15,-117.1971,39.4643,1749.34,M,M,M,30.00,9.00,0.00,30.19,M,10.00,M,CLR,M,M,M,M,M,M,M,M,M,M,M,M,M,M,M,KTMT 212315Z AUTO 03009KT 10SM CLR A3019 RMK AO2,M
DRA,2022-08-21 23:24,-116.0278,36.6206,1009.00,103.00,36.00,10.02,280.00,9.00,0.00,29.97,M,10.00,19.00,CLR,M,M,M,M,M,M,M,M,M,M,M,M,M,M,96.97,KDRA 212324Z AUTO 28009G19KT 240V310 10SM CLR 39/02 A2997 RMK AO2 WSHFT 2307 T03940022,M
CXP,2022-08-21 23:30,-119.7326,39.1923,1431.00,93.20,32.00,11.48,280.00,15.00,0.00,30.14,M,10.00,M,CLR,M,M,M,M,M,M,M,M,M,M,M,M,M,M,88.31,KCXP 212330Z AUTO 28015KT 10SM CLR 34/00 A3014 RMK AO2,M
MEV,2022-08-21 23:35,-119.7500,38.9963,1441.42,93.20,35.60,13.25,300.00,14.00,0.00,30.12,M,10.00,21.00,CLR,M,M,M,M,M,M,M,M,M,M,M,M,M,M,88.76,KMEV 212335Z AUTO 30014G21KT 10SM CLR 34/02 A3012 RMK AO2,M
BAM,2022-08-21 23:35,-116.8743,40.5990,1382.36,95.00,37.40,13.46,230.00,3.00,0.00,30.09,M,10.00,M,CLR,M,M,M,M,M,M,M,M,M,M,M,M,M,M,90.46,KBAM 212335Z AUTO 23003KT 10SM CLR 35/03 A3009 RMK AO1,M
HTH,2022-08-21 23:35,-118.6315,38.5448,1282.89,95.00,30.20,10.09,320.00,10.00,0.00,30.05,M,10.00,M,CLR,M,M,M,M,M,M,M,M,M,M,M,M,M,M,89.48,KHTH 212335Z AUTO 32010KT 10SM CLR 35/M01 A3005 RMK A01,M
TMT,2022-08-21 23:35,-117.1971,39.4643,1749.34,M,M,M,320.00,9.00,0.00,30.20,M,10.00,M,CLR,M,M,M,M,M,M,M,M,M,M,M,M,M,M,M,KTMT 212335Z AUTO 32009KT 10SM CLR A3020 RMK AO2,M
BVU,2022-08-21 23:35,-114.8611,35.9475,671.00,100.40,62.60,29.17,0.00,0.00,0.00,29.88,M,M,11.00,M,M,M,M,M,M,M,M,M,M,M,M,M,M,M,102.50,KBVU 212335Z AUTO 00000G11KT 38/17 A2988 RMK AO2 PWINO TSNO,M
RTS,2022-08-21 23:35,-119.8764,39.6682,1539.00,91.40,21.20,7.77,230.00,15.00,0.00,30.17,M,10.00,M,CLR,M,M,M,M,M,M,M,M,M,M,M,M,M,M,85.96,KRTS 212335Z AUTO 23015KT 10SM CLR 33/M06 A3017 RMK AO2,M
CXP,2022-08-21 23:50,-119.7326,39.1923,1431.00,93.20,33.80,12.34,280.00,19.00,0.00,30.14,M,10.00,25.00,CLR,M,M,M,M,M,M,M,M,M,M,M,M,M,M,88.55,KCXP 212350Z AUTO 28019G25KT 10SM CLR 34/01 A3014 RMK AO2,M
ELY,2022-08-21 23:53,-114.8453,39.2950,1909.00,85.00,44.00,23.97,20.00,12.00,0.00,30.22,1013.20,10.00,16.00,CLR,M,M,M,M,M,M,M,M,M,M,M,M,M,M,82.20,KELY 212353Z AUTO 02012G16KT 10SM CLR 29/07 A3022 RMK AO2 SLP132 60010 T02940067 10300 20200 58011,M
VGT,2022-08-21 23:53,-115.1933,36.2111,667.00,103.00,55.00,20.61,0.00,0.00,0.00,29.87,1009.90,10.00,M,CLR,M,M,M,M,M,M,M,M,M,M,M,M,M,M,101.65,KVGT 212353Z 00000KT 10SM CLR 39/13 A2987 RMK AO2 SLP099 T03940128 10406 20344 56022 $,M
P68,2022-08-21 23:53,-116.0056,39.6014,1993.00,86.00,36.00,16.89,70.00,3.00,0.00,30.18,1013.40,M,M,M,M,M,M,M,M,M,M,M,M,M,M,M,M,M,82.70,KP68 212353Z AUTO 07003KT 30/02 A3018 RMK AO1 SLP134 T03000022 10322 20278 58011,M
DRA,2022-08-21 23:53,-116.0278,36.6206,1009.00,101.00,36.00,10.64,260.00,10.00,0.00,29.97,1009.00,10.00,M,CLR,M,M,M,M,M,M,M,M,M,M,M,M,M,M,95.25,KDRA 212353Z AUTO 26010KT 10SM CLR 38/02 A2997 RMK AO2 WSHFT 2307 SLP090 T03830022 10400 20333 56015,M
LOL,2022-08-21 23:53,-118.5701,40.0684,1192.43,99.00,32.00,9.60,M,3.00,0.00,30.02,1012.00,10.00,M,CLR,M,M,M,M,M,M,M,M,M,M,M,M,M,M,93.03,KLOL 212353Z AUTO VRB03KT 10SM CLR 37/00 A3002 RMK AO2 SLP120 T03720000 10378 20317 56012,M
RTS,2022-08-21 23:55,-119.8764,39.6682,1539.00,91.40,24.80,9.04,220.00,10.00,0.00,30.17,M,10.00,18.00,CLR,M,M,M,M,M,M,M,M,M,M,M,M,M,M,86.21,KRTS 212355Z AUTO 22010G18KT 10SM CLR 33/M04 A3017 RMK AO2,M
BVU,2022-08-21 23:55,-114.8611,35.9475,671.00,100.40,62.60,29.17,160.00,10.00,0.00,29.88,M,M,M,M,M,M,M,M,M,M,M,M,M,M,M,M,M,M,102.50,KBVU 212355Z AUTO 16010KT 38/17 A2988 RMK AO2 PWINO TSNO,M
TMT,2022-08-21 23:55,-117.1971,39.4643,1749.34,M,M,M,10.00,8.00,0.00,30.19,M,10.00,M,CLR,M,M,M,M,M,M,M,M,M,M,M,M,M,M,M,KTMT 212355Z AUTO 01008KT 10SM CLR A3019 RMK AO2,M
MEV,2022-08-21 23:55,-119.7500,38.9963,1441.42,93.20,37.40,14.23,300.00,14.00,0.00,30.12,M,10.00,22.00,CLR,M,M,M,M,M,M,M,M,M,M,M,M,M,M,88.83,KMEV 212355Z AUTO 30014G22KT 10SM CLR 34/03 A3012 RMK AO2,M
BAM,2022-08-21 23:55,-116.8743,40.5990,1382.36,96.80,37.40,12.73,350.00,3.00,0.00,30.08,M,10.00,M,CLR,M,M,M,M,M,M,M,M,M,M,M,M,M,M,92.04,KBAM 212355Z AUTO 35003KT 10SM CLR 36/03 A3008 RMK AO1,M
HTH,2022-08-21 23:55,-118.6315,38.5448,1282.89,95.00,32.00,10.85,310.00,11.00,0.00,30.05,M,10.00,M,CLR,M,M,M,M,M,M,M,M,M,M,M,M,M,M,89.71,KHTH 212355Z AUTO 31011KT 10SM CLR 35/M00 A3005 RMK A01,M
RNO,2022-08-21 23:55,-119.7711,39.4839,1341.00,96.00,35.00,11.88,290.00,16.00,0.00,30.09,1012.40,10.00,M,FEW,FEW,M,M,9000.00,21000.00,M,M,M,M,M,M,M,M,M,91.07,KRNO 212355Z 29016KT 10SM FEW090 FEW210 36/02 A3009 RMK AO2 SLP124 T03560017 10372 20294 56010,M
NFL,2022-08-21 23:56,-118.7010,39.4166,1199.00,99.00,30.90,9.19,310.00,4.00,0.00,30.02,1013.50,10.00,M,SCT,SCT,M,M,10000.00,14000.00,M,M,M,M,M,M,M,M,M,92.88,KNFL 212356Z 31004KT 10SM SCT100 SCT140 37/M01 A3002 RMK AO2 SLP135 T03721006 10378 20311 58016,M
LAS,2022-08-21 23:56,-115.1634,36.0719,663.00,102.00,55.00,21.17,160.00,4.00,0.00,29.87,1008.50,10.00,M,FEW,FEW,SCT,M,13000.00,16000.00,25000.00,M,M,M,M,M,M,M,M,100.66,KLAS 212356Z 16004KT 10SM FEW130 FEW160 SCT250 39/13 A2987 RMK AO2 SLP085 CB DSNT N-NE TCU DSNT NW AND DSNT E-SE T03890128 10400 20333 56023,M
HND,2022-08-21 23:56,-115.1344,35.9729,742.79,101.00,61.00,27.15,0.00,0.00,0.00,29.92,1011.20,10.00,M,CLR,M,M,M,M,M,M,M,M,M,M,M,M,M,M,102.16,KHND 212356Z 00000KT 10SM CLR 38/16 A2992 RMK AO2 SLP112 T03830161 10400 20333 56019,M
WMC,2022-08-21 23:56,-117.8072,40.9019,1315.00,99.00,36.00,11.27,340.00,6.00,0.00,30.05,1012.00,10.00,M,CLR,M,M,M,M,M,M,M,M,M,M,M,M,M,M,93.63,KWMC 212356Z AUTO 34006KT 10SM CLR 37/02 A3005 RMK AO2 SLP120 T03720022 10383 20306 56012 $,M
TPH,2022-08-21 23:56,-117.0904,38.0505,1654.00,92.00,30.00,11.02,260.00,7.00,0.00,30.14,1011.70,10.00,M,CLR,M,M,M,M,M,M,M,M,M,M,M,M,M,M,87.07,KTPH 212356Z AUTO 26007KT 10SM CLR 33/M01 A3014 RMK AO2 SLP117 T03331011 10344 20289 56014,M
EKO,2022-08-21 23:56,-115.7860,40.8242,1367.00,82.00,41.00,23.37,270.00,6.00,0.00,30.14,1015.40,10.00,M,CLR,M,M,M,M,M,M,M,M,M,M,M,M,M,M,80.04,KEKO 212356Z AUTO 27006KT 10SM CLR 28/05 A3014 RMK AO2 SLP154 T02780050 10300 20239 56010 $,M
INS,2022-08-21 23:58,-115.6733,36.5872,955.00,98.80,49.30,18.90,30.00,6.00,0.00,29.94,1008.20,10.00,M,FEW,M,M,M,12000.00,M,M,M,M,M,M,M,M,M,M,95.61,KINS 212358Z AUTO 03006KT 10SM FEW120 37/10 A2994 RMK AO2 SLP082 T03710096 10374 20323 57020 $,M
LSV,2022-08-21 23:58,-115.0343,36.2362,570.00,106.00,59.20,21.87,130.00,4.00,0.00,29.84,1007.50,10.00,M,CLR,M,M,M,M,M,M,M,M,M,M,M,M,M,M,107.06,KLSV 212358Z AUTO 13004KT 10SM CLR 41/15 A2984 RMK AO2 SLP075 T04110151 10420 20354 57022 $,M
