station,valid,lon,lat,elevation,tmpf,dwpf,relh,drct,sknt,p01i,alti,mslp,vsby,gust,skyc1,skyc2,skyc3,skyc4,skyl1,skyl2,skyl3,skyl4,wxcodes,ice_accretion_1hr,ice_accretion_3hr,ice_accretion_6hr,peak_wind_gust,peak_wind_drct,peak_wind_time,feel,metar,snowdepth
LOL,2023-03-15 00:05,-118.5701,40.0684,1192.43,63.00,35.00,35.24,220.00,33.00,0.00,29.52,M,1.75,44.00,BKN,BKN,OVC,M,800.00,8000.00,10000.00,M,HZ,M,M,M,44.00,210.00,2023-03-15 00:03,63.00,KLOL 150005Z AUTO 22033G44KT 1 3/4SM HZ BKN008 BKN080 OVC100 17/02 A2952 RMK AO2 PK WND 21044/0003 VIS 1 1/4V3 T01720017,M
BVU,2023-03-15 00:15,-114.8611,35.9475,671.00,60.80,44.60,55.12,180.00,15.00,0.00,29.94,M,10.00,22.00,BKN,M,M,M,7000.00,M,M,M,M,M,M,M,M,M,M,60.80,KBVU 150015Z AUTO 18015G22KT 10SM BKN070 16/07 A2994 RMK AO2,M
RTS,2023-03-15 00:15,-119.8764,39.6682,1539.00,50.00,35.60,57.52,210.00,19.00,0.00,29.55,M,10.00,31.00,FEW,SCT,SCT,M,4700.00,5500.00,6000.00,M,M,M,M,M,M,M,M,50.00,KRTS 150015Z AUTO 21019G31KT 10SM FEW047 SCT055 SCT060 10/02 A2955 RMK AO2,M
MEV,2023-03-15 00:15,-119.7500,38.9963,1441.42,50.00,39.20,66.27,180.00,19.00,0.00,29.58,M,10.00,31.00,FEW,FEW,SCT,M,4200.00,4900.00,6000.00,M,M,M,M,M,M,M,M,50.00,KMEV 150015Z AUTO 18019G31KT 10SM FEW042 FEW049 SCT060 10/04 A2958 RMK AO2,M
BAM,2023-03-15 00:15,-116.8743,40.5990,1382.36,57.20,41.00,54.60,220.00,10.00,0.00,29.58,M,10.00,15.00,SCT,OVC,M,M,7000.00,8000.00,M,M,M,M,M,M,M,M,M,57.20,KBAM 150015Z AUTO 22010G15KT 10SM SCT070 OVC080 14/05 A2958 RMK AO1,M
HTH,2023-03-15 00:15,-118.6315,38.5448,1282.89,59.00,35.60,41.42,220.00,25.00,0.00,29.61,M,10.00,35.00,CLR,M,M,M,M,M,M,M,M,M,M,M,M,M,M,59.00,KHTH 150015Z AUTO 22025G35KT 10SM CLR 15/02 A2961 RMK A01,M
TMT,2023-03-15 00:15,-117.1971,39.4643,1749.34,51.30,36.30,56.35,200.00,20.00,0.00,29.66,M,10.00,26.00,SCT,SCT,M,M,6000.00,7000.00,M,M,M,M,M,M,M,M,M,51.30,KTMT 150015Z AUTO 20020G26KT 10SM SCT060 SCT070 11/02 A2966 RMK AO2 T01070024,M
LOL,2023-03-15 00:16,-118.5701,40.0684,1192.43,61.00,35.00,37.81,210.00,28.00,0.00,29.52,M,2.50,41.00,BKN,BKN,OVC,M,600.00,7000.00,9000.00,M,HZ,M,M,M,44.00,210.00,2023-03-15 00:03,61.00,KLOL 150016Z AUTO 21028G41KT 2 1/2SM HZ BKN006 BKN070 OVC090 16/02 A2952 RMK AO2 PK WND 21044/0003 T01610017,M
LOL,2023-03-15 00:34,-118.5701,40.0684,1192.43,59.00,34.00,38.87,210.00,36.00,0.00,29.52,M,0.75,45.00,BKN,OVC,M,M,800.00,7000.00,M,M,HZ,M,M,M,45.00,210.00,2023-03-15 00:33,59.00,KLOL 150034Z AUTO 21036G45KT 3/4SM HZ BKN008 OVC070 15/01 A2952 RMK AO2 PK WND 21045/0033 T01500011,M
BVU,2023-03-15 00:35,-114.8611,35.9475,671.00,60.80,46.40,59.01,160.00,10.00,0.00,29.93,M,10.00,M,OVC,M,M,M,6500.00,M,M,M,M,M,M,M,M,M,M,60.80,KBVU 150035Z AUTO 16010KT 10SM OVC065 16/08 A2993 RMK AO2,M
RTS,2023-03-15 00:35,-119.8764,39.6682,1539.00,46.40,37.40,70.68,220.00,21.00,0.00,29.57,M,4.00,39.00,SCT,BKN,BKN,M,2700.00,3400.00,4400.00,M,-RA,M,M,M,M,M,M,38.06,KRTS 150035Z AUTO 22021G39KT 4SM -RA SCT027 BKN034 BKN044 08/03 A2957 RMK AO2,M
MEV,2023-03-15 00:35,-119.7500,38.9963,1441.42,51.80,35.60,53.81,220.00,26.00,0.00,29.57,M,10.00,37.00,SCT,SCT,M,M,6000.00,7000.00,M,M,M,M,M,M,M,M,M,51.80,KMEV 150035Z AUTO 22026G37KT 10SM SCT060 SCT070 11/02 A2957 RMK AO2,M
BAM,2023-03-15 00:35,-116.8743,40.5990,1382.36,55.40,37.40,50.64,220.00,14.00,0.00,29.57,M,10.00,20.00,BKN,M,M,M,8000.00,M,M,M,M,M,M,M,M,M,M,55.40,KBAM 150035Z AUTO 22014G20KT 10SM BKN080 13/03 A2957 RMK AO1,M
HTH,2023-03-15 00:35,-118.6315,38.5448,1282.89,57.20,33.80,41.13,210.00,18.00,0.00,29.63,M,10.00,29.00,CLR,M,M,M,M,M,M,M,M,M,M,M,M,M,M,57.20,KHTH 150035Z AUTO 21018G29KT 10SM CLR 14/01 A2963 RMK A01,M
TMT,2023-03-15 00:35,-117.1971,39.4643,1749.34,50.50,36.30,58.05,210.00,20.00,0.00,29.66,M,10.00,28.00,SCT,M,M,M,6500.00,M,M,M,M,M,M,M,M,M,M,50.50,KTMT 150035Z AUTO 21020G28KT 10SM SCT065 10/02 A2966 RMK AO2 T01030024,M
LOL,2023-03-15 00:44,-118.5701,40.0684,1192.43,58.00,35.00,42.24,220.00,28.00,0.00,29.53,M,2.00,42.00,BKN,M,M,M,900.00,M,M,M,HZ,M,M,M,45.00,210.00,2023-03-15 00:33,57.90,KLOL 150044Z AUTO 22028G42KT 2SM HZ BKN009 14/02 A2953 RMK AO2 PK WND 21045/0033 T01440017,M
LOL,2023-03-15 00:49,-118.5701,40.0684,1192.43,57.20,35.60,44.19,220.00,29.00,0.00,29.53,M,6.00,40.00,BKN,M,M,M,1100.00,M,M,M,HZ,M,M,M,45.00,210.00,2023-03-15 00:33,57.20,KLOL 150049Z AUTO 22029G40KT 6SM HZ BKN011 14/02 A2953 RMK AO2 PK WND 21045/0033,M
VGT,2023-03-15 00:53,-115.1933,36.2111,667.00,61.00,47.00,59.71,140.00,10.00,0.00,29.90,1013.30,10.00,M,OVC,M,M,M,5500.00,M,M,M,M,M,M,M,M,M,M,61.00,KVGT 150053Z 14010KT 10SM OVC055 16/08 A2990 RMK AO2 SLP133 T01610083,M
P68,2023-03-15 00:53,-116.0056,39.6014,1993.00,42.00,36.00,78.80,150.00,19.00,0.00,29.72,1004.10,M,25.00,M,M,M,M,M,M,M,M,M,M,M,M,27.00,130.00,2023-03-15 00:06,32.79,KP68 150053Z AUTO 15019G25KT 06/02 A2972 RMK AO1 PK WND 13027/0006 SLP041 T00560022,M
DRA,2023-03-15 00:53,-116.0278,36.6206,1009.00,56.00,42.00,59.71,210.00,11.00,0.00,29.87,1009.50,10.00,25.00,OVC,M,M,M,3800.00,M,M,M,M,M,M,M,31.00,180.00,2023-03-15 00:08,55.90,KDRA 150053Z AUTO 21011G25KT 10SM OVC038 13/06 A2987 RMK AO2 PK WND 18031/0008 SLP095 T01330056,M
ELY,2023-03-15 00:53,-114.8453,39.2950,1909.00,38.00,33.00,82.66,160.00,25.00,T,29.81,1007.80,7.00,39.00,OVC,M,M,M,3400.00,M,M,M,-RA,M,M,M,39.00,140.00,2023-03-15 00:52,25.80,KELY 150053Z AUTO 16025G39KT 7SM -RA OVC034 03/01 A2981 RMK AO2 PK WND 14039/0052 SLP078 P0000 T00330006,M
LOL,2023-03-15 00:53,-118.5701,40.0684,1192.43,58.00,35.00,42.24,220.00,33.00,0.00,29.53,998.60,6.00,41.00,BKN,M,M,M,900.00,M,M,M,HZ,M,M,M,45.00,210.00,2023-03-15 00:33,57.90,KLOL 150053Z AUTO 22033G41KT 6SM HZ BKN009 14/02 A2953 RMK AO2 PK WND 21045/0033 SLP986 T01440017,M
BVU,2023-03-15 00:55,-114.8611,35.9475,671.00,59.00,48.20,67.33,130.00,9.00,0.00,29.93,M,10.00,M,OVC,M,M,M,6000.00,M,M,M,M,M,M,M,M,M,M,59.00,KBVU 150055Z AUTO 13009KT 10SM OVC060 15/09 A2993 RMK AO2,M
RTS,2023-03-15 00:55,-119.8764,39.6682,1539.00,48.20,35.60,61.52,220.00,20.00,0.00,29.57,M,10.00,39.00,FEW,FEW,BKN,M,2700.00,3200.00,4200.00,M,M,M,M,M,M,M,M,40.66,KRTS 150055Z AUTO 22020G39KT 10SM FEW027 FEW032 BKN042 09/02 A2957 RMK AO2,M
MEV,2023-03-15 00:55,-119.7500,38.9963,1441.42,53.60,30.20,40.54,220.00,38.00,0.00,29.56,M,10.00,46.00,FEW,SCT,M,M,6000.00,7000.00,M,M,M,M,M,M,M,M,M,53.60,KMEV 150055Z AUTO 22038G46KT 10SM FEW060 SCT070 12/M01 A2956 RMK AO2 LTG DSNT NW,M
BAM,2023-03-15 00:55,-116.8743,40.5990,1382.36,55.40,37.40,50.64,210.00,16.00,0.00,29.57,M,10.00,22.00,SCT,OVC,M,M,7000.00,8000.00,M,M,M,M,M,M,M,M,M,55.40,KBAM 150055Z AUTO 21016G22KT 10SM SCT070 OVC080 13/03 A2957 RMK AO1,M
HTH,2023-03-15 00:55,-118.6315,38.5448,1282.89,57.20,33.80,41.13,210.00,21.00,0.00,29.63,M,10.00,29.00,CLR,M,M,M,M,M,M,M,M,M,M,M,M,M,M,57.20,KHTH 150055Z AUTO 21021G29KT 10SM CLR 14/01 A2963 RMK A01,M
TMT,2023-03-15 00:55,-117.1971,39.4643,1749.34,50.00,35.80,57.97,210.00,23.00,0.00,29.66,M,10.00,29.00,SCT,M,M,M,6500.00,M,M,M,M,M,M,M,M,M,M,50.00,KTMT 150055Z AUTO 21023G29KT 10SM SCT065 10/02 A2966 RMK AO2 T01000021,M
LSV,2023-03-15 00:55,-115.0343,36.2362,570.00,58.00,57.70,98.57,50.00,6.00,0.00,29.88,1011.10,10.00,M,OVC,M,M,M,6000.00,M,M,M,M,M,M,M,M,M,M,58.10,KLSV 150055Z AUTO 05006KT 10SM OVC060 15/14 A2988 RMK AO2 SLP111 T01450143 $,M
RNO,2023-03-15 00:55,-119.7711,39.4839,1341.00,54.00,35.00,48.65,220.00,22.00,T,29.55,998.40,10.00,35.00,SCT,BKN,BKN,M,5000.00,7500.00,11000.00,M,-RA,M,M,M,35.00,190.00,2023-03-15 00:50,54.00,KRNO 150055Z 22022G35KT 10SM -RA SCT050 BKN075 BKN110 12/02 A2955 RMK AO2 PK WND 19035/0050 RAB39 SLP984 MTN TOPS OBSCD DSNT S THRU NW P0000 T01220017,M
INS,2023-03-15 00:55,-115.6733,36.5872,955.00,55.00,43.70,65.84,110.00,15.00,0.00,29.88,1010.10,10.00,21.00,OVC,M,M,M,4900.00,M,M,M,M,M,M,M,30.00,130.00,2023-03-15 00:07,54.90,KINS 150055Z AUTO 11015G21KT 10SM OVC049 13/07 A2988 RMK AO2 PK WND 13030/07 SLP101 T01270065 $,M
TPH,2023-03-15 00:56,-117.0904,38.0505,1654.00,45.00,41.00,85.77,170.00,20.00,0.00,29.81,1008.00,10.00,27.00,BKN,OVC,M,M,900.00,1600.00,M,M,M,M,M,M,30.00,170.00,2023-03-15 00:15,36.41,KTPH 150056Z AUTO 17020G27KT 10SM BKN009 OVC016 07/05 A2981 RMK AO2 PK WND 17030/0015 CIG 008V014 SLP080 T00720050,M
LAS,2023-03-15 00:56,-115.1634,36.0719,663.00,62.00,46.00,55.51,M,4.00,0.00,29.91,1011.70,10.00,M,FEW,BKN,OVC,M,3000.00,5500.00,16000.00,M,M,M,M,M,M,M,M,62.10,KLAS 150056Z VRB04KT 10SM FEW030 BKN055 OVC160 17/08 A2991 RMK AO2 SLP117 T01670078,M
WMC,2023-03-15 00:56,-117.8072,40.9019,1315.00,54.00,38.00,54.34,200.00,13.00,0.00,29.50,996.90,10.00,29.00,BKN,OVC,M,M,4800.00,7000.00,M,M,M,M,M,M,33.00,160.00,2023-03-14 23:58,54.00,KWMC 150056Z AUTO 20013G29KT 10SM BKN048 OVC070 12/03 A2950 RMK AO2 PK WND 16033/2358 SLP969 T01220033,M
NFL,2023-03-15 00:56,-118.7010,39.4166,1199.00,54.00,40.00,58.76,250.00,30.00,0.00,29.61,1001.10,9.00,42.00,SCT,BKN,BKN,BKN,3000.00,7000.00,10000.00,25000.00,M,M,M,M,43.00,240.00,2023-03-15 00:40,54.00,KNFL 150056Z 25030G42KT 9SM SCT030 BKN070 BKN100 BKN250 12/04 A2961 RMK AO2 PK WND 24043/0040 PRESRR SLP011 SH VC NE AND S-SW T01220044,M
EKO,2023-03-15 00:56,-115.7860,40.8242,1367.00,44.00,36.00,73.27,180.00,17.11,M,29.64,1003.70,10.00,28.96,FEW,OVC,M,M,4501.00,5000.00,M,M,M,M,M,M,32.00,160.00,2023-03-15 00:41,35.77,METAR KEKO 150056Z 18017G29KT 10SM FEW045 OVC050 07/02 A2964 RMK AO2 PK WND 16032/0041 SLP037 T00670022 TSNO FIBI,M
LOL,2023-03-15 01:06,-118.5701,40.0684,1192.43,58.00,37.00,45.54,210.00,30.00,0.00,29.53,M,5.00,40.00,SCT,M,M,M,900.00,M,M,M,HZ,M,M,M,40.00,210.00,2023-03-15 01:06,57.90,KLOL 150106Z AUTO 21030G40KT 5SM HZ SCT009 14/03 A2953 RMK AO2 PK WND 21040/0106 T01440028,M
TPH,2023-03-15 01:14,-117.0904,38.0505,1654.00,45.00,41.00,85.77,170.00,17.00,0.00,29.80,M,10.00,27.00,BKN,OVC,M,M,1000.00,1600.00,M,M,M,M,M,M,28.00,170.00,2023-03-15 00:57,37.11,KTPH 150114Z AUTO 17017G27KT 10SM BKN010 OVC016 07/05 A2980 RMK AO2 PK WND 17028/0057 CIG 008V014 T00720050,M
LOL,2023-03-15 01:14,-118.5701,40.0684,1192.43,57.00,35.00,43.63,210.00,31.00,0.00,29.54,M,3.00,42.00,BKN,M,M,M,500.00,M,M,M,HZ,M,M,M,42.00,210.00,2023-03-15 01:12,57.00,KLOL 150114Z AUTO 21031G42KT 3SM HZ BKN005 14/02 A2954 RMK AO2 PK WND 21042/0112 T01390017,M
BVU,2023-03-15 01:15,-114.8611,35.9475,671.00,57.20,48.20,71.83,160.00,18.00,0.00,29.93,M,10.00,24.00,OVC,M,M,M,6000.00,M,M,M,M,M,M,M,M,M,M,57.20,KBVU 150115Z AUTO 16018G24KT 10SM OVC060 14/09 A2993 RMK AO2,M
RTS,2023-03-15 01:15,-119.8764,39.6682,1539.00,48.20,33.80,57.26,230.00,25.00,0.00,29.57,M,10.00,32.00,FEW,FEW,SCT,M,4000.00,5000.00,6500.00,M,M,M,M,M,M,M,M,39.75,KRTS 150115Z AUTO 23025G32KT 10SM FEW040 FEW050 SCT065 09/01 A2957 RMK AO2,M
MEV,2023-03-15 01:15,-119.7500,38.9963,1441.42,51.80,33.80,50.08,230.00,32.00,0.00,29.58,M,8.00,43.00,FEW,FEW,SCT,M,3900.00,7000.00,9000.00,M,M,M,M,M,M,M,M,51.80,KMEV 150115Z AUTO 23032G43KT 8SM FEW039 FEW070 SCT090 11/01 A2958 RMK AO2 LTG DSNT NW,M
BAM,2023-03-15 01:15,-116.8743,40.5990,1382.36,55.40,37.40,50.64,210.00,16.00,0.00,29.56,M,10.00,20.00,BKN,OVC,M,M,7000.00,9000.00,M,M,M,M,M,M,M,M,M,55.40,KBAM 150115Z AUTO 21016G20KT 10SM BKN070 OVC090 13/03 A2956 RMK AO1,M
HTH,2023-03-15 01:15,-118.6315,38.5448,1282.89,55.40,33.80,43.90,210.00,18.00,0.00,29.64,M,10.00,M,CLR,M,M,M,M,M,M,M,M,M,M,M,M,M,M,55.40,KHTH 150115Z AUTO 21018KT 10SM CLR 13/01 A2964 RMK A01,M
TMT,2023-03-15 01:15,-117.1971,39.4643,1749.34,48.20,35.60,61.52,210.00,19.00,0.00,29.66,M,10.00,25.00,SCT,M,M,M,6500.00,M,M,M,M,M,M,M,M,M,M,40.86,KTMT 150115Z AUTO 21019G25KT 10SM SCT065 09/02 A2966 RMK AO2 LTG DSNT N T00900020,M
BVU,2023-03-15 01:35,-114.8611,35.9475,671.00,57.20,48.20,71.83,160.00,13.00,0.00,29.93,M,10.00,20.00,OVC,M,M,M,5500.00,M,M,M,M,M,M,M,M,M,M,57.20,KBVU 150135Z AUTO 16013G20KT 10SM OVC055 14/09 A2993 RMK AO2,M
RTS,2023-03-15 01:35,-119.8764,39.6682,1539.00,48.20,33.80,57.26,220.00,23.00,0.00,29.58,M,10.00,33.00,FEW,SCT,SCT,M,4400.00,5000.00,5500.00,M,M,M,M,M,M,M,M,40.09,KRTS 150135Z AUTO 22023G33KT 10SM FEW044 SCT050 SCT055 09/01 A2958 RMK AO2,M
MEV,2023-03-15 01:35,-119.7500,38.9963,1441.42,51.80,32.00,46.59,220.00,18.00,0.00,29.58,M,10.00,35.00,FEW,SCT,BKN,M,3900.00,5500.00,8000.00,M,M,M,M,M,M,M,M,51.80,KMEV 150135Z AUTO 22018G35KT 10SM FEW039 SCT055 BKN080 11/00 A2958 RMK AO2,M
BAM,2023-03-15 01:35,-116.8743,40.5990,1382.36,55.40,37.40,50.64,220.00,12.00,0.00,29.57,M,10.00,17.00,BKN,OVC,M,M,7000.00,9000.00,M,M,M,M,M,M,M,M,M,55.40,KBAM 150135Z AUTO 22012G17KT 10SM BKN070 OVC090 13/03 A2957 RMK AO1,M
HTH,2023-03-15 01:35,-118.6315,38.5448,1282.89,55.40,35.60,47.16,210.00,16.00,0.00,29.65,M,10.00,23.00,CLR,M,M,M,M,M,M,M,M,M,M,M,M,M,M,55.40,KHTH 150135Z AUTO 21016G23KT 10SM CLR 13/02 A2965 RMK A01,M
TMT,2023-03-15 01:35,-117.1971,39.4643,1749.34,46.80,35.40,64.33,210.00,20.00,0.00,29.67,M,10.00,M,SCT,M,M,M,6000.00,M,M,M,M,M,M,M,M,M,M,38.80,KTMT 150135Z AUTO 21020KT 10SM SCT060 08/02 A2967 RMK AO2 T00820019,M
TPH,2023-03-15 01:43,-117.0904,38.0505,1654.00,44.00,41.00,88.77,170.00,19.00,0.00,29.79,M,10.00,28.00,BKN,OVC,M,M,800.00,1300.00,M,M,M,M,M,M,30.00,180.00,2023-03-15 01:30,35.44,KTPH 150143Z AUTO 17019G28KT 10SM BKN008 OVC013 07/05 A2979 RMK AO2 PK WND 18030/0130 CIG 007V011 T00670050,M
MEV,2023-03-15 01:50,-119.7500,38.9963,1441.42,51.80,32.00,46.59,220.00,28.00,0.00,29.57,M,10.00,37.00,FEW,FEW,SCT,M,2200.00,3900.00,5500.00,M,M,M,M,M,M,M,M,51.80,KMEV 150150Z AUTO 22028G37KT 10SM FEW022 FEW039 SCT055 11/M00 A2957 RMK AO2,M
P68,2023-03-15 01:53,-116.0056,39.6014,1993.00,41.00,36.00,82.22,150.00,19.00,0.00,29.71,1003.60,M,28.00,M,M,M,M,M,M,M,M,M,M,M,M,29.00,150.00,2023-03-15 01:31,31.34,KP68 150153Z AUTO 15019G28KT 05/02 A2971 RMK AO1 PK WND 15029/0131 SLP036 T00500022,M
LOL,2023-03-15 01:53,-118.5701,40.0684,1192.43,53.00,37.00,54.21,210.00,29.00,0.00,29.56,1000.30,3.00,37.00,OVC,M,M,M,600.00,M,M,M,HZ,M,M,M,42.00,210.00,2023-03-15 01:12,53.10,KLOL 150153Z AUTO 21029G37KT 3SM HZ OVC006 12/03 A2956 RMK AO2 PK WND 21042/0112 SLP003 T01170028,M
DRA,2023-03-15 01:53,-116.0278,36.6206,1009.00,56.00,43.00,61.81,190.00,10.00,0.00,29.85,1008.80,10.00,29.00,OVC,M,M,M,3700.00,M,M,M,M,M,M,M,37.00,190.00,2023-03-15 01:43,55.90,KDRA 150153Z AUTO 19010G29KT 10SM OVC037 13/06 A2985 RMK AO2 PK WND 19037/0143 SLP088 T01330061,M
ELY,2023-03-15 01:53,-114.8453,39.2950,1909.00,38.00,33.00,82.66,160.00,21.00,T,29.79,1007.30,10.00,33.00,FEW,BKN,OVC,M,2900.00,3800.00,4800.00,M,M,M,M,M,37.00,140.00,2023-03-15 00:54,26.72,KELY 150153Z AUTO 16021G33KT 10SM FEW029 BKN038 OVC048 03/01 A2979 RMK AO2 PK WND 14037/0054 RAE52 SLP073 P0000 T00330006,M
VGT,2023-03-15 01:53,-115.1933,36.2111,667.00,60.00,49.00,66.46,90.00,8.00,T,29.90,1013.20,10.00,M,OVC,M,M,M,5500.00,M,M,M,M,M,M,M,M,M,M,60.10,KVGT 150153Z 09008KT 10SM OVC055 16/09 A2990 RMK AO2 RAB21E46 SLP132 P0000 T01560094,M
BVU,2023-03-15 01:55,-114.8611,35.9475,671.00,59.00,48.20,67.33,150.00,17.00,0.00,29.93,M,10.00,M,OVC,M,M,M,5500.00,M,M,M,M,M,M,M,M,M,M,59.00,KBVU 150155Z AUTO 15017KT 10SM OVC055 15/09 A2993 RMK AO2,M
RTS,2023-03-15 01:55,-119.8764,39.6682,1539.00,46.40,33.80,61.28,220.00,31.00,0.00,29.58,M,8.00,44.00,SCT,SCT,BKN,M,3300.00,4300.00,5000.00,M,-RA,M,M,M,M,M,M,36.35,KRTS 150155Z AUTO 22031G44KT 8SM -RA SCT033 SCT043 BKN050 08/01 A2958 RMK AO2,M
BAM,2023-03-15 01:55,-116.8743,40.5990,1382.36,55.40,37.40,50.64,220.00,11.00,0.00,29.56,M,10.00,21.00,BKN,OVC,M,M,7000.00,8000.00,M,M,M,M,M,M,M,M,M,55.40,KBAM 150155Z AUTO 22011G21KT 10SM BKN070 OVC080 13/03 A2956 RMK AO1,M
HTH,2023-03-15 01:55,-118.6315,38.5448,1282.89,55.40,35.60,47.16,210.00,8.00,0.00,29.65,M,10.00,19.00,SCT,BKN,BKN,M,6000.00,7500.00,8000.00,M,M,M,M,M,M,M,M,55.40,KHTH 150155Z AUTO 21008G19KT 10SM SCT060 BKN075 BKN080 13/02 A2965 RMK A01,M
TMT,2023-03-15 01:55,-117.1971,39.4643,1749.34,45.70,35.60,67.60,210.00,19.00,0.00,29.67,M,10.00,25.00,SCT,M,M,M,6000.00,M,M,M,M,M,M,M,M,M,M,37.55,KTMT 150155Z AUTO 21019G25KT 10SM SCT060 08/02 A2967 RMK AO2 T00760020,M
RNO,2023-03-15 01:55,-119.7711,39.4839,1341.00,50.00,38.00,62.98,190.00,11.00,T,29.58,999.60,10.00,28.00,SCT,BKN,BKN,M,5000.00,7000.00,10000.00,M,-RA,M,M,M,37.00,200.00,2023-03-15 01:32,50.00,KRNO 150155Z 19011G28KT 10SM -RA SCT050 BKN070 BKN100 10/03 A2958 RMK AO2 PK WND 20037/0132 SLP996 MTN TOPS OBSCD DSNT SE THRU W P0000 T01000033,M
LSV,2023-03-15 01:55,-115.0343,36.2362,570.00,58.30,53.00,82.20,120.00,5.00,0.00,29.88,1011.10,10.00,M,FEW,OVC,M,M,4000.00,5000.00,M,M,M,M,M,M,M,M,M,58.30,KLSV 150155Z AUTO 12005KT 10SM FEW040 OVC050 15/12 A2988 RMK AO2 SLP111 T01460116 $,M
INS,2023-03-15 01:55,-115.6733,36.5872,955.00,55.00,44.00,66.85,100.00,12.00,0.00,29.88,1010.10,10.00,M,OVC,M,M,M,4400.00,M,M,M,M,M,M,M,27.00,130.00,2023-03-15 00:58,54.90,KINS 150155Z AUTO 10012KT 10SM OVC044 13/07 A2988 RMK AO2 PK WND 13027/0058 SLP101 T01270067 $,M
LAS,2023-03-15 01:56,-115.1634,36.0719,663.00,62.00,46.00,55.51,M,4.00,0.00,29.90,1011.50,10.00,M,FEW,BKN,OVC,M,3000.00,5500.00,16000.00,M,M,M,M,M,M,M,M,62.10,KLAS 150156Z VRB04KT 10SM FEW030 BKN055 OVC160 17/08 A2990 RMK AO2 SLP115 VCSH T01670078 $,M
WMC,2023-03-15 01:56,-117.8072,40.9019,1315.00,56.00,34.00,43.46,190.00,24.00,T,29.49,996.50,10.00,41.00,FEW,FEW,M,M,2700.00,8500.00,M,M,M,M,M,M,43.00,220.00,2023-03-15 01:05,55.90,KWMC 150156Z AUTO 19024G41KT 10SM FEW027 FEW085 13/01 A2949 RMK AO2 PK WND 22043/0105 RAB01E18 SLP965 P0000 T01330011,M
NFL,2023-03-15 01:56,-118.7010,39.4166,1199.00,49.00,41.00,74.05,200.00,22.00,0.03,29.61,1001.20,10.00,33.00,SCT,BKN,BKN,BKN,3000.00,7000.00,10000.00,25000.00,M,M,M,M,51.00,210.00,2023-03-15 01:35,41.21,KNFL 150156Z 20022G33KT 10SM SCT030 BKN070 BKN100 BKN250 09/05 A2961 RMK AO2 PK WND 21051/0135 RAB0057E50 SLP012 WR// P0003 T00940050,M
TPH,2023-03-15 01:56,-117.0904,38.0505,1654.00,44.00,41.00,88.77,170.00,17.00,0.00,29.79,1007.60,10.00,M,OVC,M,M,M,800.00,M,M,M,M,M,M,M,30.00,180.00,2023-03-15 01:30,35.93,KTPH 150156Z AUTO 17017KT 10SM OVC008 07/05 A2979 RMK AO2 PK WND 18030/0130 CIG 007V012 SLP076 T00670050,M
EKO,2023-03-15 01:56,-115.7860,40.8242,1367.00,45.00,36.00,70.53,170.00,27.02,M,29.62,1002.70,10.00,41.02,SCT,OVC,M,M,6000.00,8999.00,M,M,M,M,M,M,41.00,170.00,2023-03-15 01:25,35.06,METAR KEKO 150156Z 17027G41KT 10SM SCT060 OVC090 07/02 A2962 RMK AO2 PK WND 17041/0125 SLP027 T00720022 TSNO FIBI,M
LOL,2023-03-15 02:11,-118.5701,40.0684,1192.43,51.00,37.00,58.36,200.00,26.00,0.00,29.55,M,9.00,34.00,SCT,SCT,M,M,600.00,8500.00,M,M,M,M,M,M,34.00,200.00,2023-03-15 02:04,51.10,KLOL 150211Z AUTO 20026G34KT 9SM SCT006 SCT085 11/03 A2955 RMK AO2 PK WND 20034/0204 T01060028,M
BVU,2023-03-15 02:15,-114.8611,35.9475,671.00,59.00,46.40,62.92,150.00,16.00,0.00,29.93,M,10.00,21.00,OVC,M,M,M,5000.00,M,M,M,M,M,M,M,M,M,M,59.00,KBVU 150215Z AUTO 15016G21KT 10SM OVC050 15/08 A2993 RMK AO2,M
RTS,2023-03-15 02:15,-119.8764,39.6682,1539.00,46.40,35.60,65.83,230.00,25.00,0.00,29.60,M,7.00,35.00,FEW,SCT,BKN,M,2400.00,3200.00,3700.00,M,-RA,M,M,M,M,M,M,37.31,KRTS 150215Z AUTO 23025G35KT 7SM -RA FEW024 SCT032 BKN037 08/02 A2960 RMK AO2,M
MEV,2023-03-15 02:15,-119.7500,38.9963,1441.42,50.00,35.60,57.52,190.00,18.00,0.00,29.59,M,10.00,30.00,M,M,M,M,M,M,M,M,M,M,M,M,M,M,M,50.00,KMEV 150215Z AUTO 19018G30KT 10SM 10/02 A2959 RMK AO2 TSNO,M
BAM,2023-03-15 02:15,-116.8743,40.5990,1382.36,50.00,42.80,76.18,280.00,30.00,0.00,29.60,M,7.00,37.00,SCT,OVC,M,M,4200.00,6500.00,M,M,M,M,M,M,M,M,M,50.00,KBAM 150215Z AUTO 28030G37KT 7SM SCT042 OVC065 10/06 A2960 RMK AO1,M
HTH,2023-03-15 02:15,-118.6315,38.5448,1282.89,55.40,35.60,47.16,0.00,0.00,0.00,29.67,M,10.00,M,FEW,BKN,OVC,M,4900.00,6000.00,7000.00,M,M,M,M,M,M,M,M,55.40,KHTH 150215Z AUTO 00000KT 10SM FEW049 BKN060 OVC070 13/02 A2967 RMK A01,M
TMT,2023-03-15 02:15,-117.1971,39.4643,1749.34,45.30,35.60,68.63,210.00,20.00,0.00,29.67,M,10.00,24.00,SCT,M,M,M,6000.00,M,M,M,M,M,M,M,M,M,M,36.80,KTMT 150215Z AUTO 21020G24KT 10SM SCT060 07/02 A2967 RMK AO2 T00740020,M
ELY,2023-03-15 02:19,-114.8453,39.2950,1909.00,39.00,33.00,79.17,150.00,22.00,0.00,29.80,M,10.00,35.00,OVC,M,M,M,2800.00,M,M,M,M,M,M,M,35.00,140.00,2023-03-15 02:11,27.95,KELY 150219Z AUTO 15022G35KT 10SM OVC028 04/01 A2980 RMK AO2 PK WND 14035/0211 T00390006,M
BVU,2023-03-15 02:35,-114.8611,35.9475,671.00,59.00,46.40,62.92,160.00,15.00,0.00,29.93,M,10.00,20.00,OVC,M,M,M,5000.00,M,M,M,M,M,M,M,M,M,M,59.00,KBVU 150235Z AUTO 16015G20KT 10SM OVC050 15/08 A2993 RMK AO2,M
RTS,2023-03-15 02:35,-119.8764,39.6682,1539.00,46.40,35.60,65.83,230.00,23.00,0.00,29.60,M,8.00,32.00,FEW,BKN,BKN,M,2100.00,3300.00,4600.00,M,-RA,M,M,M,M,M,M,37.67,KRTS 150235Z AUTO 23023G32KT 8SM -RA FEW021 BKN033 BKN046 08/02 A2960 RMK AO2,M
MEV,2023-03-15 02:35,-119.7500,38.9963,1441.42,48.20,35.60,61.52,240.00,19.00,0.00,29.62,M,8.00,M,M,M,M,M,M,M,M,M,-RA,M,M,M,M,M,M,40.86,KMEV 150235Z AUTO 24019KT 8SM -RA 09/02 A2962 RMK AO2 TSNO,M
BAM,2023-03-15 02:35,-116.8743,40.5990,1382.36,46.40,42.80,87.19,230.00,23.00,0.00,29.63,M,2.50,37.00,SCT,BKN,OVC,M,3000.00,3600.00,4400.00,M,M,M,M,M,M,M,M,37.67,KBAM 150235Z AUTO 23023G37KT 2 1/2SM SCT030 BKN036 OVC044 08/06 A2963 RMK AO1 VIS 1V4,M
HTH,2023-03-15 02:35,-118.6315,38.5448,1282.89,51.80,39.20,61.99,240.00,11.00,0.00,29.68,M,5.00,19.00,FEW,BKN,OVC,M,3300.00,4200.00,6000.00,M,HZ,M,M,M,M,M,M,51.80,KHTH 150235Z AUTO 24011G19KT 5SM HZ FEW033 BKN042 OVC060 11/04 A2968 RMK A01,M
TMT,2023-03-15 02:35,-117.1971,39.4643,1749.34,45.50,35.00,66.77,210.00,21.00,0.00,29.67,M,10.00,27.00,BKN,M,M,M,7500.00,M,M,M,M,M,M,M,M,M,M,36.86,KTMT 150235Z AUTO 21021G27KT 10SM BKN075 08/02 A2967 RMK AO2 T00750017,M
MEV,2023-03-15 02:50,-119.7500,38.9963,1441.42,48.20,32.00,53.27,240.00,36.00,0.00,29.62,M,8.00,49.00,M,M,M,M,M,M,M,M,M,M,M,M,M,M,M,38.19,KMEV 150250Z AUTO 24036G49KT 8SM 09/00 A2962 RMK AO2 TSNO,M
P68,2023-03-15 02:53,-116.0056,39.6014,1993.00,40.00,36.00,85.81,170.00,20.00,0.00,29.70,1003.40,M,28.00,M,M,M,M,M,M,M,M,M,M,M,M,28.00,180.00,2023-03-15 02:52,29.63,KP68 150253Z AUTO 17020G28KT 04/02 A2970 RMK AO1 PK WND 18028/0252 SLP034 T00440022 56010,M
DRA,2023-03-15 02:53,-116.0278,36.6206,1009.00,55.00,44.00,66.61,200.00,17.00,0.00,29.85,1008.60,10.00,28.00,OVC,M,M,M,3600.00,M,M,M,M,M,M,M,29.00,190.00,2023-03-15 01:57,55.00,KDRA 150253Z AUTO 20017G28KT 10SM OVC036 13/07 A2985 RMK AO2 PK WND 19029/0157 SLP086 T01280067 58005,M
ELY,2023-03-15 02:53,-114.8453,39.2950,1909.00,39.00,33.00,79.17,150.00,24.00,0.00,29.80,1006.90,10.00,34.00,FEW,OVC,M,M,1800.00,2500.00,M,M,M,M,M,M,41.00,150.00,2023-03-15 02:42,27.50,KELY 150253Z AUTO 15024G34KT 10SM FEW018 OVC025 04/01 A2980 RMK AO2 PK WND 15041/0242 SLP069 60000 T00390006 58000,M
LOL,2023-03-15 02:53,-118.5701,40.0684,1192.43,52.00,33.00,48.34,220.00,28.00,0.00,29.58,1001.10,10.00,39.00,CLR,M,M,M,M,M,M,M,M,M,M,M,42.00,220.00,2023-03-15 02:38,52.00,KLOL 150253Z AUTO 22028G39KT 10SM CLR 11/01 A2958 RMK AO2 PK WND 22042/0238 SLP011 T01110006 53020,M
VGT,2023-03-15 02:53,-115.1933,36.2111,667.00,60.00,48.00,64.26,160.00,12.00,T,29.89,1012.80,10.00,M,OVC,M,M,M,5500.00,M,M,M,M,M,M,M,M,M,M,60.10,KVGT 150253Z 16012KT 10SM OVC055 16/09 A2989 RMK AO2 RAB0157E17 SLP128 P0000 60000 T01560089 56010,M
BVU,2023-03-15 02:55,-114.8611,35.9475,671.00,59.00,46.40,62.92,160.00,14.00,0.00,29.93,M,10.00,19.00,OVC,M,M,M,4900.00,M,M,M,M,M,M,M,M,M,M,59.00,KBVU 150255Z AUTO 16014G19KT 10SM OVC049 15/08 A2993 RMK AO2,M
INS,2023-03-15 02:55,-115.6733,36.5872,955.00,54.00,44.20,69.10,110.00,16.00,0.00,29.85,1008.70,10.00,21.00,BKN,OVC,M,M,6500.00,9000.00,M,M,M,M,M,M,M,M,M,54.10,KINS 150255Z AUTO 11016G21KT 10SM BKN065 OVC090 12/07 A2985 RMK AO2 SLP087 T01230068 58008 $,M
RTS,2023-03-15 02:55,-119.8764,39.6682,1539.00,46.40,33.80,61.28,220.00,24.00,0.00,29.61,M,10.00,38.00,FEW,SCT,BKN,M,2600.00,4200.00,5500.00,M,M,M,M,M,M,M,M,37.49,KRTS 150255Z AUTO 22024G38KT 10SM FEW026 SCT042 BKN055 08/01 A2961 RMK AO2,M
BAM,2023-03-15 02:55,-116.8743,40.5990,1382.36,46.40,41.00,81.34,220.00,26.00,0.00,29.62,M,5.00,37.00,SCT,OVC,M,M,3000.00,3700.00,M,M,M,M,M,M,M,M,M,37.14,KBAM 150255Z AUTO 22026G37KT 5SM SCT030 OVC037 08/05 A2962 RMK AO1,M
HTH,2023-03-15 02:55,-118.6315,38.5448,1282.89,50.00,41.00,71.07,270.00,13.00,0.01,29.69,M,7.00,M,OVC,M,M,M,4000.00,M,M,M,M,M,M,M,M,M,M,50.00,KHTH 150255Z AUTO 27013KT 7SM OVC040 10/05 A2969 RMK A01 P0001,M
LSV,2023-03-15 02:55,-115.0343,36.2362,570.00,60.00,49.30,67.94,160.00,18.00,0.00,29.87,1010.60,10.00,M,BKN,M,M,M,6000.00,M,M,M,M,M,M,M,M,M,M,59.90,KLSV 150255Z AUTO 16018KT 10SM BKN060 16/10 A2987 RMK AO2 SLP106 T01550096 56013 $,M
TMT,2023-03-15 02:55,-117.1971,39.4643,1749.34,45.50,35.00,66.24,210.00,19.00,0.00,29.66,M,10.00,26.00,SCT,M,M,M,6500.00,M,M,M,M,M,M,M,M,M,M,37.29,KTMT 150255Z AUTO 21019G26KT 10SM SCT065 08/02 A2966 RMK AO2 T00750016,M
RNO,2023-03-15 02:55,-119.7711,39.4839,1341.00,51.00,35.00,54.13,240.00,22.00,T,29.60,1000.30,10.00,38.00,BKN,BKN,M,M,5500.00,9000.00,M,M,-RA,M,M,M,38.00,240.00,2023-03-15 02:53,51.10,KRNO 150255Z 24022G38KT 10SM -RA BKN055 BKN090 11/02 A2960 RMK AO2 PK WND 24038/0253 RAE10B46 SLP003 P0000 60000 T01060017 51020,M
LAS,2023-03-15 02:56,-115.1634,36.0719,663.00,60.00,46.00,59.59,180.00,9.00,0.00,29.89,1011.30,10.00,16.00,BKN,OVC,M,M,5500.00,16000.00,M,M,M,M,M,M,M,M,M,60.10,KLAS 150256Z 18009G16KT 10SM BKN055 OVC160 16/08 A2989 RMK AO2 SLP113 VCSH T01560078 56009 $,M
WMC,2023-03-15 02:56,-117.8072,40.9019,1315.00,54.00,33.00,44.92,200.00,25.00,0.00,29.52,997.90,10.00,37.00,CLR,M,M,M,M,M,M,M,M,M,M,M,42.00,190.00,2023-03-15 02:22,54.00,KWMC 150256Z AUTO 20025G37KT 10SM CLR 12/01 A2952 RMK AO2 PK WND 19042/0222 SLP979 60000 T01220006 53004,M
NFL,2023-03-15 02:56,-118.7010,39.4166,1199.00,48.00,42.00,79.91,180.00,10.00,0.01,29.63,1001.70,10.00,M,SCT,BKN,BKN,BKN,3000.00,7000.00,10000.00,25000.00,M,M,M,M,40.00,200.00,2023-03-15 02:18,43.03,KNFL 150256Z 18010KT 10SM SCT030 BKN070 BKN100 BKN250 09/06 A2963 RMK AO2 PK WND 20040/0218 SLP017 WR// P0001 60004 T00890056 51021,M
TPH,2023-03-15 02:56,-117.0904,38.0505,1654.00,44.00,42.00,92.62,170.00,17.00,0.00,29.78,1006.90,10.00,24.00,BKN,OVC,M,M,700.00,1200.00,M,M,M,M,M,M,28.00,180.00,2023-03-15 02:43,35.93,KTPH 150256Z AUTO 17017G24KT 10SM BKN007 OVC012 07/06 A2978 RMK AO2 PK WND 18028/0243 SLP069 T00670056 58008,M
EKO,2023-03-15 02:56,-115.7860,40.8242,1367.00,45.00,36.00,70.53,180.00,22.94,M,29.61,1002.30,10.00,38.10,BKN,OVC,M,M,6499.00,7998.00,M,M,M,M,M,M,41.00,170.00,2023-03-15 02:00,35.80,METAR KEKO 150256Z 18023G38KT 10SM BKN065 OVC080 07/02 A2961 RMK AO2 PK WND 17041/0200 SLP023 T00720022 56023 TSNO FIBI,M
LOL,2023-03-15 03:09,-118.5701,40.0684,1192.43,51.00,33.00,49.98,220.00,41.00,0.00,29.58,M,3.00,56.00,SCT,M,M,M,900.00,M,M,M,HZ,M,M,M,56.00,220.00,2023-03-15 03:06,51.10,KLOL 150309Z AUTO 22041G56KT 3SM HZ SCT009 11/01 A2958 RMK AO2 PK WND 22056/0306 T01060006,M
BVU,2023-03-15 03:15,-114.8611,35.9475,671.00,59.00,46.40,62.92,160.00,15.00,0.00,29.92,M,10.00,21.00,BKN,OVC,M,M,5000.00,6000.00,M,M,M,M,M,M,M,M,M,59.00,KBVU 150315Z AUTO 16015G21KT 10SM BKN050 OVC060 15/08 A2992 RMK AO2,M
RTS,2023-03-15 03:15,-119.8764,39.6682,1539.00,46.40,33.80,61.28,230.00,19.00,0.00,29.63,M,9.00,32.00,FEW,SCT,BKN,M,2800.00,4800.00,7500.00,M,M,M,M,M,M,M,M,38.48,KRTS 150315Z AUTO 23019G32KT 9SM FEW028 SCT048 BKN075 08/01 A2963 RMK AO2,M
BAM,2023-03-15 03:15,-116.8743,40.5990,1382.36,46.40,41.00,81.34,220.00,24.00,0.00,29.63,M,10.00,40.00,SCT,SCT,OVC,M,3200.00,4700.00,6500.00,M,M,M,M,M,M,M,M,37.49,KBAM 150315Z AUTO 22024G40KT 10SM SCT032 SCT047 OVC065 08/05 A2963 RMK AO1,M
HTH,2023-03-15 03:15,-118.6315,38.5448,1282.89,48.20,41.00,76.01,230.00,11.00,0.00,29.70,M,2.50,M,FEW,BKN,OVC,M,400.00,3000.00,4000.00,M,HZ,M,M,M,M,M,M,42.94,KHTH 150315Z AUTO 23011KT 2 1/2SM HZ FEW004 BKN030 OVC040 09/05 A2970 RMK A01,M
TMT,2023-03-15 03:15,-117.1971,39.4643,1749.34,44.20,35.40,71.00,200.00,16.00,0.00,29.68,M,10.00,21.00,SCT,M,M,M,6000.00,M,M,M,M,M,M,M,M,M,M,36.32,KTMT 150315Z AUTO 20016G21KT 10SM SCT060 07/02 A2968 RMK AO2 T00680019,M
MEV,2023-03-15 03:15,-119.7500,38.9963,1441.42,46.40,35.60,65.83,230.00,19.00,0.00,29.64,M,6.00,31.00,M,M,M,M,M,M,M,M,-RA HZ,M,M,M,M,M,M,38.48,KMEV 150315Z AUTO 23019G31KT 6SM -RA HZ 08/02 A2964 RMK AO2 TSNO,M
LOL,2023-03-15 03:18,-118.5701,40.0684,1192.43,50.00,35.00,56.39,220.00,35.00,0.00,29.58,M,2.50,49.00,BKN,M,M,M,900.00,M,M,M,HZ,M,M,M,56.00,220.00,2023-03-15 03:06,50.00,KLOL 150318Z AUTO 22035G49KT 2 1/2SM HZ BKN009 10/02 A2958 RMK AO2 PK WND 22056/0306 T01000017,M
LOL,2023-03-15 03:31,-118.5701,40.0684,1192.43,51.00,34.00,51.81,220.00,35.00,0.00,29.59,M,6.00,50.00,SCT,M,M,M,700.00,M,M,M,HZ,M,M,M,56.00,220.00,2023-03-15 03:06,51.10,KLOL 150331Z AUTO 22035G50KT 6SM HZ SCT007 11/01 A2959 RMK AO2 PK WND 22056/0306 T01060011,M
BVU,2023-03-15 03:35,-114.8611,35.9475,671.00,59.00,46.40,62.92,160.00,8.00,0.00,29.93,M,10.00,16.00,BKN,M,M,M,6000.00,M,M,M,M,M,M,M,M,M,M,59.00,KBVU 150335Z AUTO 16008G16KT 10SM BKN060 15/08 A2993 RMK AO2,M
RTS,2023-03-15 03:35,-119.8764,39.6682,1539.00,44.60,35.60,70.48,230.00,17.00,0.00,29.64,M,9.00,26.00,FEW,SCT,BKN,M,2900.00,4000.00,5500.00,M,M,M,M,M,M,M,M,36.58,KRTS 150335Z AUTO 23017G26KT 9SM FEW029 SCT040 BKN055 07/02 A2964 RMK AO2,M
BAM,2023-03-15 03:35,-116.8743,40.5990,1382.36,48.20,37.40,66.05,210.00,32.00,0.00,29.62,M,10.00,41.00,BKN,BKN,OVC,M,5500.00,7000.00,8000.00,M,M,M,M,M,M,M,M,38.70,KBAM 150335Z AUTO 21032G41KT 10SM BKN055 BKN070 OVC080 09/03 A2962 RMK AO1,M
HTH,2023-03-15 03:35,-118.6315,38.5448,1282.89,46.40,39.20,75.84,200.00,19.00,0.00,29.72,M,4.00,24.00,FEW,SCT,OVC,M,400.00,3100.00,4000.00,M,HZ,M,M,M,M,M,M,38.48,KHTH 150335Z AUTO 20019G24KT 4SM HZ FEW004 SCT031 OVC040 08/04 A2972 RMK A01,M
TMT,2023-03-15 03:35,-117.1971,39.4643,1749.34,43.50,35.60,73.51,190.00,14.00,0.00,29.68,M,10.00,M,SCT,M,M,M,6000.00,M,M,M,M,M,M,M,M,M,M,35.99,KTMT 150335Z AUTO 19014KT 10SM SCT060 06/02 A2968 RMK AO2 T00640020,M
EKO,2023-03-15 03:42,-115.7860,40.8242,1367.00,39.00,33.00,78.86,290.00,24.10,M,29.68,M,5.00,32.07,SCT,BKN,OVC,M,2998.00,6000.00,8999.00,M,-RA,M,M,M,42.00,170.00,2023-03-15 03:25,27.48,SPECI KEKO 150342Z 29024G32KT 5SM -RA SCT030 BKN060 OVC090 04/01 A2968 RMK AO2 PK WND 17042/0325 WSHFT 0328 RAB41 PRESRR P0000 T00390006 TSNO FIBI,M
TPH,2023-03-15 03:51,-117.0904,38.0505,1654.00,44.60,42.80,93.35,180.00,14.00,T,29.80,M,9.00,22.00,OVC,M,M,M,600.00,M,M,M,-RA,M,M,M,26.00,180.00,2023-03-15 03:15,37.40,KTPH 150351Z AUTO 18014G22KT 9SM -RA OVC006 07/06 A2980 RMK AO2 PK WND 18026/0315 RAB29 CIG 003V010 P0000,M
DRA,2023-03-15 03:53,-116.0278,36.6206,1009.00,56.00,43.00,61.81,210.00,18.00,0.00,29.85,1008.50,10.00,31.00,BKN,BKN,M,M,3700.00,10000.00,M,M,M,M,M,M,36.00,210.00,2023-03-15 03:43,55.90,KDRA 150353Z AUTO 21018G31KT 10SM BKN037 BKN100 13/06 A2985 RMK AO2 PK WND 21036/0343 SLP085 T01330061,M
LOL,2023-03-15 03:53,-118.5701,40.0684,1192.43,50.00,36.00,58.44,220.00,22.00,0.00,29.61,1001.90,10.00,39.00,BKN,M,M,M,10000.00,M,M,M,M,M,M,M,56.00,220.00,2023-03-15 03:06,50.00,KLOL 150353Z AUTO 22022G39KT 10SM BKN100 10/02 A2961 RMK AO2 PK WND 22056/0306 SLP019 T01000022,M
P68,2023-03-15 03:53,-116.0056,39.6014,1993.00,39.00,35.00,85.76,160.00,17.00,0.00,29.71,1003.70,M,23.00,M,M,M,M,M,M,M,M,M,M,M,M,27.00,170.00,2023-03-15 03:19,29.25,KP68 150353Z AUTO 16017G23KT 04/02 A2971 RMK AO1 PK WND 17027/0319 SLP037 T00390017,M
ELY,2023-03-15 03:53,-114.8453,39.2950,1909.00,38.00,33.00,82.66,170.00,19.00,0.00,29.78,1006.40,10.00,30.00,SCT,BKN,OVC,M,2500.00,3600.00,4500.00,M,M,M,M,M,36.00,140.00,2023-03-15 03:13,27.24,KELY 150353Z AUTO 17019G30KT 10SM SCT025 BKN036 OVC045 03/01 A2978 RMK AO2 PK WND 14036/0313 SLP064 T00330006,M
VGT,2023-03-15 03:53,-115.1933,36.2111,667.00,60.00,47.00,61.65,150.00,13.00,T,29.89,1012.80,10.00,M,OVC,M,M,M,5500.00,M,M,M,M,M,M,M,M,M,M,60.10,KVGT 150353Z AUTO 15013KT 10SM OVC055 16/08 A2989 RMK AO2 RAB03E13 SLP128 P0000 T01560083,M
BVU,2023-03-15 03:55,-114.8611,35.9475,671.00,59.00,46.40,62.92,170.00,11.00,0.00,29.93,M,10.00,M,BKN,BKN,M,M,6000.00,8000.00,M,M,M,M,M,M,M,M,M,59.00,KBVU 150355Z AUTO 17011KT 10SM BKN060 BKN080 15/08 A2993 RMK AO2,M
INS,2023-03-15 03:55,-115.6733,36.5872,955.00,53.60,44.40,70.91,120.00,11.00,0.00,29.87,1009.20,10.00,M,BKN,BKN,BKN,OVC,3800.00,4900.00,6000.00,8000.00,M,M,M,M,26.00,100.00,2023-03-15 03:38,53.60,KINS 150355Z AUTO 12011KT 10SM BKN038 BKN049 BKN060 OVC080 12/07 A2987 RMK AO2 PK WND 10026/38 SLP092 T01200069 $,M
RTS,2023-03-15 03:55,-119.8764,39.6682,1539.00,44.60,33.80,65.61,230.00,20.00,0.00,29.66,M,8.00,25.00,FEW,SCT,BKN,M,2800.00,3200.00,3900.00,M,-RA,M,M,M,M,M,M,35.87,KRTS 150355Z AUTO 23020G25KT 8SM -RA FEW028 SCT032 BKN039 07/01 A2966 RMK AO2,M
BAM,2023-03-15 03:55,-116.8743,40.5990,1382.36,46.40,39.20,75.84,210.00,13.00,0.00,29.63,M,10.00,M,SCT,SCT,SCT,M,6000.00,7500.00,9000.00,M,M,M,M,M,M,M,M,40.02,KBAM 150355Z AUTO 21013KT 10SM SCT060 SCT075 SCT090 08/04 A2963 RMK AO1,M
HTH,2023-03-15 03:55,-118.6315,38.5448,1282.89,46.40,41.00,81.34,180.00,11.00,0.19,29.73,M,7.00,17.00,FEW,SCT,BKN,M,600.00,3100.00,4000.00,M,M,M,M,M,M,M,M,40.66,KHTH 150355Z AUTO 18011G17KT 7SM FEW006 SCT031 BKN040 08/05 A2973 RMK A01 P0019,M
TMT,2023-03-15 03:55,-117.1971,39.4643,1749.34,44.20,36.00,72.71,200.00,13.00,0.00,29.70,M,10.00,22.00,BKN,BKN,BKN,M,5000.00,6500.00,9000.00,M,M,M,M,M,M,M,M,37.20,KTMT 150355Z AUTO 20013G22KT 10SM BKN050 BKN065 BKN090 07/02 A2970 RMK AO2 LTG DSNT NE T00680022,M
RNO,2023-03-15 03:55,-119.7711,39.4839,1341.00,49.00,37.00,63.34,250.00,12.00,T,29.64,1001.80,10.00,21.00,BKN,BKN,BKN,M,4500.00,6500.00,11000.00,M,M,M,M,M,34.00,210.00,2023-03-15 03:05,43.51,KRNO 150355Z 25012G21KT 10SM BKN045 BKN065 BKN110 09/03 A2964 RMK AO2 PK WND 21034/0305 RAE49 SLP018 P0000 T00940028,M
LSV,2023-03-15 03:55,-115.0343,36.2362,570.00,60.00,47.50,63.06,170.00,14.00,0.00,29.87,1010.50,10.00,M,OVC,M,M,M,6000.00,M,M,M,M,M,M,M,M,M,M,60.10,KLSV 150355Z AUTO 17014KT 10SM OVC060 16/09 A2987 RMK AO2 SLP105 T01560086 $,M
WMC,2023-03-15 03:56,-117.8072,40.9019,1315.00,52.00,34.00,50.12,200.00,22.00,0.00,29.54,998.60,10.00,36.00,CLR,M,M,M,M,M,M,M,M,M,M,M,38.00,200.00,2023-03-15 03:03,52.00,KWMC 150356Z AUTO 20022G36KT 10SM CLR 11/01 A2954 RMK AO2 PK WND 20038/0303 SLP986 T01110011,M
TPH,2023-03-15 03:56,-117.0904,38.0505,1654.00,44.00,43.00,95.88,180.00,14.00,T,29.80,1007.10,8.00,M,OVC,M,M,M,600.00,M,M,M,-RA,M,M,M,26.00,180.00,2023-03-15 03:15,36.76,KTPH 150356Z AUTO 18014KT 8SM -RA OVC006 07/06 A2980 RMK AO2 PK WND 18026/0315 RAB29 CIG 003V008 SLP071 P0000 T00670061,M
LAS,2023-03-15 03:56,-115.1634,36.0719,663.00,59.00,46.00,61.98,170.00,7.00,0.00,29.91,1011.60,10.00,M,BKN,OVC,M,M,5500.00,16000.00,M,M,M,M,M,M,M,M,M,59.00,KLAS 150356Z 17007KT 10SM BKN055 OVC160 15/08 A2991 RMK AO2 SLP116 VCSH T01500078 $,M
NFL,2023-03-15 03:56,-118.7010,39.4166,1199.00,49.00,39.00,68.51,210.00,17.00,0.00,29.65,1002.30,10.00,29.00,SCT,SCT,BKN,BKN,3000.00,7000.00,10000.00,25000.00,M,M,M,M,29.00,200.00,2023-03-15 03:34,42.22,KNFL 150356Z 21017G29KT 10SM SCT030 SCT070 BKN100 BKN250 09/04 A2965 RMK AO2 PK WND 20029/0334 SLP023 WR// T00940039,M
EKO,2023-03-15 03:56,-115.7860,40.8242,1367.00,38.00,34.00,85.35,210.00,13.02,M,29.69,1005.60,4.00,M,BKN,BKN,OVC,M,2998.00,3799.00,5498.00,M,+RA RA BR,M,M,M,42.00,170.00,2023-03-15 03:25,29.25,METAR KEKO 150356Z 21013KT 4SM RA BR BKN030 BKN038 OVC055 03/01 A2969 RMK AO2 PK WND 17042/0325 WSHFT 0328 RAB41 SLP056 P0011 T00330011 TSNO FIBI,M
EKO,2023-03-15 04:04,-115.7860,40.8242,1367.00,39.00,35.00,85.42,200.00,14.97,M,29.69,M,3.00,27.02,FEW,BKN,OVC,M,1499.00,2500.00,3500.00,M,+RA RA BR,M,M,M,27.00,180.00,2023-03-15 04:02,29.87,SPECI KEKO 150404Z 20015G27KT 3SM RA BR FEW015 BKN025 OVC035 04/02 A2969 RMK AO2 PK WND 18027/0402 WSHFT 0344 P0004 T00390017 TSNO FIBI,M
BVU,2023-03-15 04:15,-114.8611,35.9475,671.00,59.00,46.40,62.92,160.00,11.00,0.00,29.93,M,10.00,M,BKN,OVC,M,M,6500.00,8000.00,M,M,M,M,M,M,M,M,M,59.00,KBVU 150415Z AUTO 16011KT 10SM BKN065 OVC080 15/08 A2993 RMK AO2,M
RTS,2023-03-15 04:15,-119.8764,39.6682,1539.00,42.80,33.80,70.28,220.00,23.00,0.00,29.66,M,9.00,29.00,FEW,BKN,BKN,M,2300.00,3000.00,4100.00,M,-RA,M,M,M,M,M,M,32.83,KRTS 150415Z AUTO 22023G29KT 9SM -RA FEW023 BKN030 BKN041 06/01 A2966 RMK AO2,M
BAM,2023-03-15 04:15,-116.8743,40.5990,1382.36,46.40,41.00,81.34,240.00,12.00,0.00,29.63,M,10.00,M,CLR,M,M,M,M,M,M,M,M,M,M,M,M,M,M,40.33,KBAM 150415Z AUTO 24012KT 10SM CLR 08/05 A2963 RMK AO1,M
HTH,2023-03-15 04:15,-118.6315,38.5448,1282.89,48.20,39.20,70.88,180.00,10.00,0.00,29.71,M,10.00,17.00,FEW,SCT,BKN,M,2800.00,4400.00,5500.00,M,M,M,M,M,M,M,M,43.28,KHTH 150415Z AUTO 18010G17KT 150V210 10SM FEW028 SCT044 BKN055 09/04 A2971 RMK A01,M
TMT,2023-03-15 04:15,-117.1971,39.4643,1749.34,43.70,36.50,75.59,210.00,13.00,0.00,29.70,M,10.00,M,BKN,BKN,OVC,M,5000.00,6000.00,7500.00,M,M,M,M,M,M,M,M,36.56,KTMT 150415Z AUTO 21013KT 10SM BKN050 BKN060 OVC075 07/03 A2970 RMK AO2 LTG DSNT NE T00650025,M
ELY,2023-03-15 04:16,-114.8453,39.2950,1909.00,37.00,33.00,85.64,180.00,17.00,0.00,29.79,M,10.00,25.00,SCT,BKN,OVC,M,2300.00,2800.00,3400.00,M,M,M,M,M,28.00,180.00,2023-03-15 03:55,26.63,KELY 150416Z AUTO 18017G25KT 10SM SCT023 BKN028 OVC034 03/01 A2979 RMK AO2 PK WND 18028/0355 T00280006,M
TPH,2023-03-15 04:29,-117.0904,38.0505,1654.00,44.00,42.00,92.62,160.00,11.00,T,29.80,M,10.00,22.00,OVC,M,M,M,800.00,M,M,M,M,M,M,M,M,M,M,37.76,KTPH 150429Z AUTO 16011G22KT 10SM OVC008 07/06 A2980 RMK AO2 RAE06 CIG 004V011 P0000 T00670056,M
EKO,2023-03-15 04:31,-115.7860,40.8242,1367.00,38.00,36.00,92.42,210.00,8.94,M,29.70,M,5.00,M,FEW,OVC,M,M,898.00,1400.00,M,M,+RA RA BR,M,M,M,27.00,180.00,2023-03-15 04:02,31.00,SPECI KEKO 150431Z 21009KT 5SM RA BR FEW009 OVC014 03/02 A2970 RMK AO2 PK WND 18027/0402 WSHFT 0344 P0012 T00330022 TSNO FIBI,M
BVU,2023-03-15 04:35,-114.8611,35.9475,671.00,59.00,46.40,62.92,140.00,7.00,0.00,29.92,M,10.00,M,OVC,M,M,M,6000.00,M,M,M,M,M,M,M,M,M,M,59.00,KBVU 150435Z AUTO 14007KT 10SM OVC060 15/08 A2992 RMK AO2,M
RTS,2023-03-15 04:35,-119.8764,39.6682,1539.00,42.80,33.80,70.28,240.00,18.00,0.00,29.67,M,10.00,25.00,CLR,M,M,M,M,M,M,M,M,M,M,M,M,M,M,33.97,KRTS 150435Z AUTO 24018G25KT 10SM CLR 06/01 A2967 RMK AO2,M
MEV,2023-03-15 04:35,-119.7500,38.9963,1441.42,48.20,33.80,57.26,230.00,26.00,0.00,29.69,M,M,32.00,M,M,M,M,M,M,M,M,M,M,M,M,M,M,M,39.58,KMEV 150435Z AUTO 23026G32KT 09/01 A2969 RMK AO2,M
BAM,2023-03-15 04:35,-116.8743,40.5990,1382.36,46.40,39.20,75.84,240.00,14.00,0.00,29.65,M,10.00,M,SCT,M,M,M,6500.00,M,M,M,M,M,M,M,M,M,M,39.72,KBAM 150435Z AUTO 24014KT 10SM SCT065 08/04 A2965 RMK AO1,M
HTH,2023-03-15 04:35,-118.6315,38.5448,1282.89,50.00,39.20,66.27,0.00,0.00,0.00,29.74,M,10.00,M,FEW,SCT,BKN,M,2500.00,4400.00,6000.00,M,M,M,M,M,M,M,M,50.00,KHTH 150435Z AUTO 00000KT 10SM FEW025 SCT044 BKN060 10/04 A2974 RMK A01,M
TMT,2023-03-15 04:35,-117.1971,39.4643,1749.34,43.00,36.50,77.64,240.00,8.00,0.00,29.72,M,10.00,M,BKN,BKN,OVC,M,4600.00,5000.00,6000.00,M,-DZ,M,M,M,M,M,M,37.66,KTMT 150435Z AUTO 24008KT 10SM -DZ BKN046 BKN050 OVC060 06/03 A2972 RMK AO2 T00610025,M
EKO,2023-03-15 04:48,-115.7860,40.8242,1367.00,37.00,35.00,92.39,210.00,8.94,M,29.70,M,7.00,M,FEW,SCT,OVC,M,898.00,1400.00,2998.00,M,-RA,M,M,M,27.00,180.00,2023-03-15 04:02,29.76,SPECI KEKO 150448Z 21009KT 7SM -RA FEW009 SCT014 OVC030 03/02 A2970 RMK AO2 PK WND 18027/0402 WSHFT 0344 P0015 T00280017 TSNO FIBI,M
ELY,2023-03-15 04:50,-114.8453,39.2950,1909.00,37.40,33.80,86.69,160.00,18.00,T,29.80,M,10.00,26.00,SCT,OVC,M,M,2500.00,3300.00,M,M,-RA,M,M,M,28.00,180.00,2023-03-15 03:55,26.86,KELY 150450Z AUTO 16018G26KT 10SM -RA SCT025 OVC033 03/01 A2980 RMK AO2 PK WND 18028/0355 RAB32 P0000,M
DRA,2023-03-15 04:53,-116.0278,36.6206,1009.00,56.00,43.00,61.81,200.00,15.00,0.00,29.83,1007.30,10.00,28.00,CLR,M,M,M,M,M,M,M,M,M,M,M,34.00,180.00,2023-03-15 04:02,55.90,KDRA 150453Z AUTO 20015G28KT 10SM CLR 13/06 A2983 RMK AO2 PK WND 18034/0402 SLP073 T01330061,M
LOL,2023-03-15 04:53,-118.5701,40.0684,1192.43,48.00,37.00,65.51,220.00,24.00,0.00,29.64,1003.00,10.00,29.00,CLR,M,M,M,M,M,M,M,M,M,M,M,30.00,210.00,2023-03-15 04:26,39.64,KLOL 150453Z AUTO 22024G29KT 10SM CLR 09/03 A2964 RMK AO2 PK WND 21030/0426 SLP030 T00890028,M
P68,2023-03-15 04:53,-116.0056,39.6014,1993.00,41.00,35.00,79.34,180.00,22.00,0.00,29.71,1003.20,M,30.00,M,M,M,M,M,M,M,M,M,M,M,M,32.00,170.00,2023-03-15 04:30,30.63,KP68 150453Z AUTO 18022G30KT 05/02 A2971 RMK AO1 PK WND 17032/0430 SLP032 T00500017,M
ELY,2023-03-15 04:53,-114.8453,39.2950,1909.00,37.00,33.00,85.64,170.00,17.00,T,29.80,1006.80,10.00,26.00,FEW,OVC,M,M,2500.00,3300.00,M,M,-RA,M,M,M,28.00,180.00,2023-03-15 03:55,26.63,KELY 150453Z AUTO 17017G26KT 10SM -RA FEW025 OVC033 03/01 A2980 RMK AO2 PK WND 18028/0355 RAB32 SLP068 P0000 T00280006,M
VGT,2023-03-15 04:53,-115.1933,36.2111,667.00,60.00,47.00,61.65,160.00,12.00,0.00,29.89,1012.80,10.00,M,OVC,M,M,M,5500.00,M,M,M,M,M,M,M,M,M,M,60.10,KVGT 150453Z AUTO 16012KT 10SM OVC055 16/08 A2989 RMK AO2 SLP128 T01560083,M
BVU,2023-03-15 04:55,-114.8611,35.9475,671.00,59.00,46.40,62.92,180.00,5.00,0.00,29.93,M,10.00,M,BKN,BKN,M,M,6000.00,7500.00,M,M,M,M,M,M,M,M,M,59.00,KBVU 150455Z AUTO 18005KT 10SM BKN060 BKN075 15/08 A2993 RMK AO2,M
RTS,2023-03-15 04:55,-119.8764,39.6682,1539.00,42.80,32.00,65.38,260.00,24.00,0.00,29.68,M,10.00,33.00,FEW,M,M,M,2400.00,M,M,M,M,M,M,M,M,M,M,32.63,KRTS 150455Z AUTO 26024G33KT 10SM FEW024 06/00 A2968 RMK AO2,M
MEV,2023-03-15 04:55,-119.7500,38.9963,1441.42,48.20,32.00,53.27,250.00,19.00,0.00,29.70,M,10.00,36.00,M,M,M,M,M,M,M,M,M,M,M,M,M,M,M,40.86,KMEV 150455Z AUTO 25019G36KT 10SM 09/00 A2970 RMK AO2,M
BAM,2023-03-15 04:55,-116.8743,40.5990,1382.36,46.40,41.00,81.34,240.00,14.00,0.00,29.64,M,10.00,19.00,CLR,M,M,M,M,M,M,M,M,M,M,M,M,M,M,39.72,KBAM 150455Z AUTO 24014G19KT 10SM CLR 08/05 A2964 RMK AO1,M
HTH,2023-03-15 04:55,-118.6315,38.5448,1282.89,48.20,41.00,76.01,120.00,8.00,0.00,29.73,M,10.00,18.00,SCT,BKN,OVC,M,4200.00,5000.00,7000.00,M,M,M,M,M,M,M,M,44.07,KHTH 150455Z AUTO 12008G18KT 100V180 10SM SCT042 BKN050 OVC070 09/05 A2973 RMK A01,M
TMT,2023-03-15 04:55,-117.1971,39.4643,1749.34,42.00,36.70,81.64,240.00,13.00,0.00,29.74,M,10.00,18.00,BKN,OVC,M,M,3600.00,4400.00,M,M,-RA,M,M,M,M,M,M,34.25,KTMT 150455Z AUTO 24013G18KT 10SM -RA BKN036 OVC044 06/03 A2974 RMK AO2 T00550026,M
LSV,2023-03-15 04:55,-115.0343,36.2362,570.00,60.00,47.50,63.06,170.00,14.00,0.00,29.87,1010.40,10.00,M,OVC,M,M,M,6000.00,M,M,M,M,M,M,M,26.00,180.00,2023-03-15 04:12,60.10,KLSV 150455Z AUTO 17014KT 10SM OVC060 16/09 A2987 RMK AO2 PK WND 18026/12 SLP104 T01560086 $,M
RNO,2023-03-15 04:55,-119.7711,39.4839,1341.00,46.00,35.00,65.52,210.00,7.00,0.01,29.67,1003.00,10.00,M,BKN,OVC,M,M,3800.00,5500.00,M,M,M,M,M,M,31.00,240.00,2023-03-15 04:42,41.84,KRNO 150455Z 21007KT 10SM BKN038 OVC055 08/02 A2967 RMK AO2 PK WND 24031/0442 WSHFT 0418 RAB22E55 SLP030 P0001 T00780017,M
INS,2023-03-15 04:55,-115.6733,36.5872,955.00,53.60,44.00,70.10,100.00,13.00,0.00,29.86,1008.80,10.00,21.00,FEW,SCT,BKN,OVC,3100.00,5500.00,7500.00,9500.00,M,M,M,M,29.00,100.00,2023-03-15 04:32,53.60,KINS 150455Z AUTO 10013G21KT 10SM FEW031 SCT055 BKN075 OVC095 12/07 A2986 RMK AO2 PK WND 10029/32 SLP088 T01200067 $,M
LAS,2023-03-15 04:56,-115.1634,36.0719,663.00,58.00,46.00,64.47,170.00,9.00,0.00,29.90,1011.30,10.00,17.00,BKN,OVC,M,M,6000.00,16000.00,M,M,M,M,M,M,M,M,M,57.90,KLAS 150456Z 17009G17KT 10SM BKN060 OVC160 14/08 A2990 RMK AO2 SLP113 T01440078 $,M
NFL,2023-03-15 04:56,-118.7010,39.4166,1199.00,46.00,40.00,79.13,240.00,16.00,0.02,29.70,1003.90,9.00,30.00,SCT,BKN,OVC,M,3000.00,5000.00,7000.00,M,-RA,M,M,M,32.00,260.00,2023-03-15 04:45,38.67,KNFL 150456Z 24016G30KT 9SM -RA SCT030 BKN050 OVC070 08/04 A2970 RMK AO2 PK WND 26032/0445 RAB38 SLP039 WR// P0002 T00780044,M
WMC,2023-03-15 04:56,-117.8072,40.9019,1315.00,49.00,33.00,54.24,200.00,17.00,0.00,29.57,999.80,10.00,26.00,FEW,M,M,M,6500.00,M,M,M,M,M,M,M,40.00,210.00,2023-03-15 04:06,42.22,KWMC 150456Z AUTO 20017G26KT 10SM FEW065 09/01 A2957 RMK AO2 PK WND 21040/0406 SLP998 T00940006,M
TPH,2023-03-15 04:56,-117.0904,38.0505,1654.00,44.00,42.00,92.62,180.00,11.00,T,29.81,1007.40,10.00,24.00,OVC,M,M,M,600.00,M,M,M,M,M,M,M,M,M,M,37.76,KTPH 150456Z AUTO 18011G24KT 10SM OVC006 07/06 A2981 RMK AO2 RAE06 CIG 004V009 SLP074 P0000 T00670056,M
EKO,2023-03-15 04:56,-115.7860,40.8242,1367.00,38.00,36.00,92.42,220.00,6.03,M,29.69,1005.00,10.00,14.00,FEW,BKN,OVC,M,1299.00,3398.00,7001.00,M,-RA,M,M,M,27.00,180.00,2023-03-15 04:02,32.74,METAR KEKO 150456Z 22006G14KT 10SM -RA FEW013 BKN034 OVC070 03/02 A2969 RMK AO2 PK WND 18027/0402 WSHFT 0344 SLP050 P0016 T00330022 TSNO FIBI,M
TPH,2023-03-15 05:06,-117.0904,38.0505,1654.00,45.00,42.00,89.49,200.00,14.00,0.00,29.81,M,10.00,27.00,BKN,OVC,M,M,800.00,1300.00,M,M,M,M,M,M,27.00,190.00,2023-03-15 05:01,37.92,KTPH 150506Z AUTO 20014G27KT 10SM BKN008 OVC013 07/06 A2981 RMK AO2 PK WND 19027/0501 CIG 004V010 T00720056,M
TPH,2023-03-15 05:14,-117.0904,38.0505,1654.00,45.00,42.00,89.49,180.00,13.00,0.00,29.81,M,10.00,21.00,OVC,M,M,M,1000.00,M,M,M,M,M,M,M,27.00,190.00,2023-03-15 05:01,38.22,KTPH 150514Z AUTO 18013G21KT 10SM OVC010 07/06 A2981 RMK AO2 PK WND 19027/0501 CIG 006V012 T00720056,M
BVU,2023-03-15 05:15,-114.8611,35.9475,671.00,57.20,46.40,67.12,200.00,3.00,0.00,29.93,M,10.00,M,FEW,SCT,BKN,M,6500.00,7500.00,12000.00,M,M,M,M,M,M,M,M,57.20,KBVU 150515Z AUTO 20003KT 10SM FEW065 SCT075 BKN120 14/08 A2993 RMK AO2,M
RTS,2023-03-15 05:15,-119.8764,39.6682,1539.00,42.80,32.00,65.38,270.00,18.00,0.00,29.69,M,10.00,26.00,CLR,M,M,M,M,M,M,M,M,M,M,M,M,M,M,33.97,KRTS 150515Z AUTO 27018G26KT 10SM CLR 06/00 A2969 RMK AO2,M
MEV,2023-03-15 05:15,-119.7500,38.9963,1441.42,46.40,33.80,61.28,240.00,12.00,0.00,29.72,M,8.00,24.00,FEW,SCT,BKN,M,2800.00,3600.00,4400.00,M,-RA,M,M,M,M,M,M,40.33,KMEV 150515Z AUTO 24012G24KT 8SM -RA FEW028 SCT036 BKN044 08/01 A2972 RMK AO2,M
BAM,2023-03-15 05:15,-116.8743,40.5990,1382.36,46.40,41.00,81.34,240.00,10.00,0.00,29.65,M,10.00,M,CLR,M,M,M,M,M,M,M,M,M,M,M,M,M,M,41.03,KBAM 150515Z AUTO 24010KT 10SM CLR 08/05 A2965 RMK AO1,M
HTH,2023-03-15 05:15,-118.6315,38.5448,1282.89,48.20,39.20,70.88,200.00,8.00,0.00,29.72,M,10.00,M,FEW,SCT,BKN,M,2600.00,4200.00,5500.00,M,M,M,M,M,M,M,M,44.07,KHTH 150515Z AUTO 20008KT 10SM FEW026 SCT042 BKN055 09/04 A2972 RMK A01,M
TMT,2023-03-15 05:15,-117.1971,39.4643,1749.34,41.40,37.40,85.56,220.00,16.00,0.01,29.76,M,7.00,28.00,SCT,BKN,OVC,M,2600.00,3200.00,3800.00,M,-RA,M,M,M,M,M,M,32.67,KTMT 150515Z AUTO 22016G28KT 7SM -RA SCT026 BKN032 OVC038 05/03 A2976 RMK AO2 P0001 T00520030,M
ELY,2023-03-15 05:23,-114.8453,39.2950,1909.00,38.00,34.00,85.69,160.00,17.00,T,29.80,M,10.00,26.00,FEW,BKN,OVC,M,1600.00,2600.00,4000.00,M,-RA,M,M,M,27.00,150.00,2023-03-15 05:05,27.80,KELY 150523Z AUTO 16017G26KT 10SM -RA FEW016 BKN026 OVC040 03/01 A2980 RMK AO2 PK WND 15027/0505 P0000 T00330011,M
INS,2023-03-15 05:24,-115.6733,36.5872,955.00,53.60,44.60,71.45,80.00,13.00,0.00,29.85,1008.30,10.00,18.00,FEW,FEW,BKN,M,3100.00,5500.00,18000.00,M,M,M,M,M,M,M,M,53.60,KINS 150524Z AUTO 08013G18KT 10SM FEW031 FEW055 BKN180 12/07 A2985 RMK AO2 WSHFT 23 SLP083 $,M
INS,2023-03-15 05:28,-115.6733,36.5872,955.00,53.60,44.60,71.45,130.00,10.00,0.00,29.85,1008.30,10.00,18.00,FEW,SCT,BKN,M,3100.00,6500.00,18000.00,M,M,M,M,M,M,M,M,53.60,KINS 150528Z AUTO 13010G18KT 10SM FEW031 SCT065 BKN180 12/07 A2985 RMK AO2 WSHFT 24 SLP083 $,M
BVU,2023-03-15 05:35,-114.8611,35.9475,671.00,57.20,46.40,67.12,M,4.00,0.00,29.92,M,10.00,M,CLR,M,M,M,M,M,M,M,M,M,M,M,M,M,M,57.20,KBVU 150535Z AUTO VRB04KT 10SM CLR 14/08 A2992 RMK AO2,M
RTS,2023-03-15 05:35,-119.8764,39.6682,1539.00,42.80,32.00,65.38,250.00,23.00,0.00,29.69,M,10.00,32.00,CLR,M,M,M,M,M,M,M,M,M,M,M,M,M,M,32.83,KRTS 150535Z AUTO 25023G32KT 10SM CLR 06/M00 A2969 RMK AO2,M
MEV,2023-03-15 05:35,-119.7500,38.9963,1441.42,46.40,33.80,61.28,240.00,12.00,0.00,29.72,M,10.00,20.00,FEW,BKN,OVC,M,2900.00,4100.00,6000.00,M,M,M,M,M,M,M,M,40.33,KMEV 150535Z AUTO 24012G20KT 10SM FEW029 BKN041 OVC060 08/01 A2972 RMK AO2,M
BAM,2023-03-15 05:35,-116.8743,40.5990,1382.36,46.40,39.20,75.84,240.00,11.00,0.00,29.66,M,10.00,M,CLR,M,M,M,M,M,M,M,M,M,M,M,M,M,M,40.66,KBAM 150535Z AUTO 24011KT 10SM CLR 08/04 A2966 RMK AO1,M
HTH,2023-03-15 05:35,-118.6315,38.5448,1282.89,50.00,37.40,61.76,130.00,9.00,0.00,29.72,M,10.00,16.00,FEW,FEW,SCT,M,2700.00,4500.00,12000.00,M,M,M,M,M,M,M,M,50.00,KHTH 150535Z AUTO 13009G16KT 10SM FEW027 FEW045 SCT120 10/03 A2972 RMK A01,M
TMT,2023-03-15 05:35,-117.1971,39.4643,1749.34,40.30,37.00,87.89,230.00,13.00,0.01,29.76,M,10.00,17.00,SCT,OVC,M,M,2600.00,3300.00,M,M,M,M,M,M,M,M,M,32.20,KTMT 150535Z AUTO 23013G17KT 10SM SCT026 OVC033 05/03 A2976 RMK AO2 P0001 T00460028,M
DRA,2023-03-15 05:53,-116.0278,36.6206,1009.00,57.00,43.00,59.40,190.00,15.00,0.00,29.83,1007.60,10.00,32.00,CLR,M,M,M,M,M,M,M,M,M,M,M,40.00,190.00,2023-03-15 05:22,57.00,KDRA 150553Z AUTO 19015G32KT 10SM CLR 14/06 A2983 RMK AO2 PK WND 19040/0522 SLP076 T01390061 10139 20128 55005,M
P68,2023-03-15 05:53,-116.0056,39.6014,1993.00,41.00,35.00,79.34,170.00,12.00,0.00,29.72,1003.60,M,M,M,M,M,M,M,M,M,M,M,M,M,M,26.00,170.00,2023-03-15 05:09,33.46,KP68 150553Z AUTO 17012KT 05/02 A2972 RMK AO1 PK WND 17026/0509 SLP036 T00500017 10067 20039 53005,M
VGT,2023-03-15 05:53,-115.1933,36.2111,667.00,59.00,47.00,64.12,140.00,11.00,0.00,29.87,1012.20,10.00,M,OVC,M,M,M,5500.00,M,M,M,M,M,M,M,M,M,M,59.00,KVGT 150553Z AUTO 14011KT 10SM OVC055 15/08 A2987 RMK AO2 SLP122 60000 T01500083 10167 20150 58004,M
ELY,2023-03-15 05:53,-114.8453,39.2950,1909.00,38.00,34.00,85.69,160.00,16.00,T,29.80,1006.80,10.00,24.00,SCT,BKN,OVC,M,1900.00,2400.00,3000.00,M,M,M,M,M,27.00,150.00,2023-03-15 05:05,28.11,KELY 150553Z AUTO 16016G24KT 10SM SCT019 BKN024 OVC030 03/01 A2980 RMK AO2 PK WND 15027/0505 RAE45 SLP068 P0000 60000 T00330011 10039 20028 51006,M
LOL,2023-03-15 05:53,-118.5701,40.0684,1192.43,47.00,37.00,68.27,210.00,21.00,0.00,29.66,1003.50,10.00,27.00,CLR,M,M,M,M,M,M,M,M,M,M,M,28.00,220.00,2023-03-15 04:58,38.73,KLOL 150553Z AUTO 21021G27KT 10SM CLR 08/03 A2966 RMK AO2 PK WND 22028/0458 SLP035 T00830028 10172 20078 51022,M
BVU,2023-03-15 05:55,-114.8611,35.9475,671.00,57.20,46.40,67.12,220.00,6.00,0.00,29.91,M,10.00,M,CLR,M,M,M,M,M,M,M,M,M,M,M,M,M,M,57.20,KBVU 150555Z AUTO 22006KT 10SM CLR 14/08 A2991 RMK AO2,M
INS,2023-03-15 05:55,-115.6733,36.5872,955.00,54.00,43.70,68.04,120.00,11.00,0.00,29.85,1008.50,10.00,27.00,FEW,SCT,SCT,M,3300.00,6000.00,17000.00,M,M,M,M,M,27.00,100.00,2023-03-15 05:43,54.00,KINS 150555Z AUTO 12011G27KT 10SM FEW033 SCT060 SCT170 12/07 A2985 RMK AO2 PK WND 10027/43 SLP085 T01220065 10129 20118 50001 $,M
RTS,2023-03-15 05:55,-119.8764,39.6682,1539.00,42.80,30.20,60.79,240.00,27.00,0.00,29.69,M,10.00,34.00,CLR,M,M,M,M,M,M,M,M,M,M,M,M,M,M,32.06,KRTS 150555Z AUTO 24027G34KT 10SM CLR 06/M01 A2969 RMK AO2,M
MEV,2023-03-15 05:55,-119.7500,38.9963,1441.42,44.60,33.80,65.61,250.00,12.00,0.00,29.74,M,10.00,M,SCT,BKN,OVC,M,3000.00,3900.00,4800.00,M,M,M,M,M,M,M,M,38.04,KMEV 150555Z AUTO 25012KT 10SM SCT030 BKN039 OVC048 07/01 A2974 RMK AO2,M
BAM,2023-03-15 05:55,-116.8743,40.5990,1382.36,46.40,39.20,75.84,240.00,16.00,0.00,29.68,M,10.00,21.00,SCT,SCT,SCT,M,6500.00,7500.00,9500.00,M,M,M,M,M,M,M,M,39.19,KBAM 150555Z AUTO 24016G21KT 10SM SCT065 SCT075 SCT095 08/04 A2968 RMK AO1,M
HTH,2023-03-15 05:55,-118.6315,38.5448,1282.89,48.20,37.40,66.05,0.00,0.00,0.00,29.72,M,10.00,M,CLR,M,M,M,M,M,M,M,M,M,M,M,M,M,M,48.20,KHTH 150555Z AUTO 00000KT 10SM CLR 09/03 A2972 RMK A01,M
TMT,2023-03-15 05:55,-117.1971,39.4643,1749.34,39.70,36.50,88.21,0.00,0.00,0.01,29.76,M,10.00,M,SCT,BKN,OVC,M,3000.00,4000.00,10000.00,M,M,M,M,M,M,M,M,39.70,KTMT 150555Z AUTO 00000KT 10SM SCT030 BKN040 OVC100 04/03 A2976 RMK AO2 P0001 60001 T00430025 10109 20043,M
LSV,2023-03-15 05:55,-115.0343,36.2362,570.00,60.00,47.30,63.04,170.00,19.00,0.00,29.85,1009.70,10.00,M,OVC,M,M,M,6000.00,M,M,M,M,M,M,M,M,M,M,59.90,KLSV 150555Z AUTO 17019KT 10SM OVC060 16/09 A2985 RMK AO2 SLP097 T01550085 10157 20144 58005 $,M
RNO,2023-03-15 05:55,-119.7711,39.4839,1341.00,46.00,33.00,60.49,110.00,7.00,0.00,29.70,1004.10,10.00,M,SCT,BKN,M,M,5000.00,11000.00,M,M,M,M,M,M,33.00,190.00,2023-03-15 05:41,41.84,KRNO 150555Z 11007KT 10SM SCT050 BKN110 08/01 A2970 RMK AO2 PK WND 19033/0541 SLP041 60001 T00780006 10128 20078 51030,M
LAS,2023-03-15 05:56,-115.1634,36.0719,663.00,59.00,46.00,61.98,180.00,12.00,0.00,29.87,1010.40,10.00,20.00,SCT,SCT,OVC,M,6000.00,16000.00,23000.00,M,M,M,M,M,M,M,M,59.00,KLAS 150556Z 18012G20KT 10SM SCT060 SCT160 OVC230 15/08 A2987 RMK AO2 SLP104 T01500078 10167 20144 58006 $,M
EKO,2023-03-15 05:56,-115.7860,40.8242,1367.00,41.00,34.00,75.94,240.00,11.08,M,29.67,1003.70,10.00,18.08,FEW,SCT,OVC,M,7001.00,8999.00,11000.00,M,M,M,M,M,M,M,M,33.81,METAR KEKO 150556Z 24011G18KT 10SM FEW070 SCT090 OVC110 05/01 A2967 RMK AO2 RAE01 SLP037 P0000 60027 T00500011 10072 20028 50018 TSNO FIBI,M
WMC,2023-03-15 05:56,-117.8072,40.9019,1315.00,51.00,32.00,47.81,220.00,28.00,0.00,29.62,1001.10,10.00,41.00,FEW,M,M,M,7500.00,M,M,M,M,M,M,M,47.00,220.00,2023-03-15 05:00,51.10,KWMC 150556Z AUTO 22028G41KT 10SM FEW075 11/00 A2962 RMK AO2 PK WND 22047/0500 SLP011 60000 T01060000 10139 20094 53029,M
NFL,2023-03-15 05:56,-118.7010,39.4166,1199.00,49.00,37.00,63.34,210.00,18.00,T,29.70,1004.00,10.00,29.00,FEW,SCT,BKN,OVC,5000.00,7000.00,10000.00,15000.00,M,M,M,M,29.00,210.00,2023-03-15 05:53,42.00,KNFL 150556Z 21018G29KT 10SM FEW050 SCT070 BKN100 OVC150 09/03 A2970 RMK AO2 PK WND 21029/0553 RAE07 SLP040 P0000 60006 T00940028 10183 20078 51023,M
TPH,2023-03-15 05:56,-117.0904,38.0505,1654.00,44.00,42.00,92.62,190.00,17.00,0.00,29.80,1007.00,10.00,25.00,BKN,BKN,M,M,1000.00,1300.00,M,M,M,M,M,M,27.00,190.00,2023-03-15 05:01,35.93,KTPH 150556Z AUTO 19017G25KT 10SM BKN010 BKN013 07/06 A2980 RMK AO2 PK WND 19027/0501 SLP070 60000 T00670056 10072 20067 58000,M
BVU,2023-03-15 06:15,-114.8611,35.9475,671.00,57.20,46.40,67.12,230.00,8.00,0.00,29.92,M,10.00,M,BKN,M,M,M,6500.00,M,M,M,M,M,M,M,M,M,M,57.20,KBVU 150615Z AUTO 23008KT 10SM BKN065 14/08 A2992 RMK AO2,M
RTS,2023-03-15 06:15,-119.8764,39.6682,1539.00,41.00,30.20,65.16,240.00,17.00,0.00,29.70,M,10.00,28.00,CLR,M,M,M,M,M,M,M,M,M,M,M,M,M,M,31.87,KRTS 150615Z AUTO 24017G28KT 10SM CLR 05/M01 A2970 RMK AO2,M
MEV,2023-03-15 06:15,-119.7500,38.9963,1441.42,44.60,33.80,65.61,270.00,17.00,0.00,29.74,M,10.00,M,FEW,SCT,BKN,M,1800.00,2900.00,3800.00,M,M,M,M,M,M,M,M,36.58,KMEV 150615Z AUTO 27017KT 10SM FEW018 SCT029 BKN038 07/01 A2974 RMK AO2,M
BAM,2023-03-15 06:15,-116.8743,40.5990,1382.36,46.40,41.00,81.34,230.00,14.00,0.00,29.68,M,7.00,M,SCT,SCT,BKN,M,1900.00,3200.00,4300.00,M,M,M,M,M,M,M,M,39.72,KBAM 150615Z AUTO 23014KT 7SM SCT019 SCT032 BKN043 08/05 A2968 RMK AO1,M
HTH,2023-03-15 06:15,-118.6315,38.5448,1282.89,50.00,35.60,57.52,0.00,0.00,0.00,29.74,M,10.00,M,FEW,FEW,SCT,M,3400.00,3900.00,8500.00,M,M,M,M,M,M,M,M,50.00,KHTH 150615Z AUTO 00000KT 10SM FEW034 FEW039 SCT085 10/02 A2974 RMK A01,M
TMT,2023-03-15 06:15,-117.1971,39.4643,1749.34,40.00,35.60,83.81,190.00,7.00,0.00,29.77,M,10.00,14.00,BKN,OVC,M,M,3400.00,4000.00,M,M,M,M,M,M,M,M,M,34.65,KTMT 150615Z AUTO 19007G14KT 10SM BKN034 OVC040 05/02 A2977 RMK AO2 T00450020,M
TPH,2023-03-15 06:24,-117.0904,38.0505,1654.00,44.00,42.00,92.62,200.00,18.00,0.00,29.80,M,10.00,29.00,BKN,BKN,OVC,M,900.00,1400.00,4100.00,M,M,M,M,M,29.00,200.00,2023-03-15 06:18,35.68,KTPH 150624Z AUTO 20018G29KT 10SM BKN009 BKN014 OVC041 07/06 A2980 RMK AO2 PK WND 20029/0618 CIG 007V012 T00670056,M
BVU,2023-03-15 06:35,-114.8611,35.9475,671.00,57.20,46.40,67.12,220.00,8.00,0.00,29.92,M,10.00,14.00,SCT,BKN,M,M,6500.00,10000.00,M,M,M,M,M,M,M,M,M,57.20,KBVU 150635Z AUTO 22008G14KT 10SM SCT065 BKN100 14/08 A2992 RMK AO2,M
RTS,2023-03-15 06:35,-119.8764,39.6682,1539.00,41.00,30.20,65.16,260.00,15.00,0.00,29.72,M,10.00,33.00,CLR,M,M,M,M,M,M,M,M,M,M,M,M,M,M,32.45,KRTS 150635Z AUTO 26015G33KT 10SM CLR 05/M01 A2972 RMK AO2,M
MEV,2023-03-15 06:35,-119.7500,38.9963,1441.42,42.80,35.60,75.50,250.00,17.00,0.00,29.77,M,7.00,28.00,FEW,SCT,OVC,M,2200.00,2900.00,3700.00,M,-RA,M,M,M,M,M,M,34.22,KMEV 150635Z AUTO 25017G28KT 7SM -RA FEW022 SCT029 OVC037 06/02 A2977 RMK AO2,M
BAM,2023-03-15 06:35,-116.8743,40.5990,1382.36,44.60,41.00,87.09,240.00,11.00,0.00,29.69,M,10.00,M,SCT,SCT,SCT,M,1800.00,3000.00,5000.00,M,M,M,M,M,M,M,M,38.39,KBAM 150635Z AUTO 24011KT 10SM SCT018 SCT030 SCT050 07/05 A2969 RMK AO1,M
HTH,2023-03-15 06:35,-118.6315,38.5448,1282.89,50.00,35.60,57.52,300.00,8.00,0.00,29.76,M,10.00,M,FEW,SCT,BKN,M,3200.00,5500.00,7000.00,M,M,M,M,M,M,M,M,50.00,KHTH 150635Z AUTO 30008KT 10SM FEW032 SCT055 BKN070 10/02 A2976 RMK A01,M
TMT,2023-03-15 06:35,-117.1971,39.4643,1749.34,40.60,35.60,82.19,200.00,11.00,0.00,29.77,M,10.00,19.00,SCT,BKN,OVC,M,2300.00,3700.00,6500.00,M,M,M,M,M,M,M,M,33.33,KTMT 150635Z AUTO 20011G19KT 10SM SCT023 BKN037 OVC065 05/02 A2977 RMK AO2 T00480020,M
TPH,2023-03-15 06:41,-117.0904,38.0505,1654.00,44.00,42.00,92.62,190.00,22.00,0.00,29.80,M,10.00,30.00,BKN,OVC,M,M,1000.00,1400.00,M,M,M,M,M,M,30.00,190.00,2023-03-15 06:41,34.78,KTPH 150641Z AUTO 19022G30KT 10SM BKN010 OVC014 07/06 A2980 RMK AO2 PK WND 19030/0641 CIG 007V012 T00670056,M
DRA,2023-03-15 06:53,-116.0278,36.6206,1009.00,57.00,43.00,59.40,190.00,23.00,0.00,29.81,1006.80,10.00,39.00,FEW,M,M,M,5000.00,M,M,M,M,M,M,M,42.00,190.00,2023-03-15 06:43,57.00,KDRA 150653Z AUTO 19023G39KT 10SM FEW050 14/06 A2981 RMK AO2 PK WND 19042/0643 SLP068 T01390061,M
ELY,2023-03-15 06:53,-114.8453,39.2950,1909.00,38.00,34.00,85.69,160.00,15.00,0.00,29.77,1005.70,10.00,24.00,BKN,OVC,M,M,2000.00,3600.00,M,M,M,M,M,M,29.00,150.00,2023-03-15 06:32,28.43,KELY 150653Z AUTO 16015G24KT 10SM BKN020 OVC036 03/01 A2977 RMK AO2 PK WND 15029/0632 SLP057 T00330011,M
LOL,2023-03-15 06:53,-118.5701,40.0684,1192.43,45.00,36.00,70.53,210.00,13.00,0.00,29.69,1005.00,10.00,M,CLR,M,M,M,M,M,M,M,M,M,M,M,26.00,220.00,2023-03-15 06:00,38.22,KLOL 150653Z AUTO 21013KT 10SM CLR 07/02 A2969 RMK AO2 PK WND 22026/0600 SLP050 T00720022,M
VGT,2023-03-15 06:53,-115.1933,36.2111,667.00,60.00,46.00,59.59,140.00,11.00,0.00,29.86,1011.80,10.00,M,BKN,OVC,M,M,6000.00,7500.00,M,M,M,M,M,M,M,M,M,60.10,KVGT 150653Z AUTO 14011KT 10SM BKN060 OVC075 16/08 A2986 RMK AO2 SLP118 T01560078,M
P68,2023-03-15 06:53,-116.0056,39.6014,1993.00,38.00,33.00,82.66,250.00,15.00,0.00,29.78,1005.90,M,31.00,M,M,M,M,M,M,M,M,M,M,M,M,31.00,270.00,2023-03-15 06:53,28.43,KP68 150653Z AUTO 25015G31KT 220V290 03/01 A2978 RMK AO1 PK WND 27031/0653 SLP059 T00330006,M
BVU,2023-03-15 06:55,-114.8611,35.9475,671.00,59.00,44.60,58.77,220.00,10.00,0.00,29.91,M,10.00,M,CLR,M,M,M,M,M,M,M,M,M,M,M,M,M,M,59.00,KBVU 150655Z AUTO 22010KT 10SM CLR 15/07 A2991 RMK AO2,M
INS,2023-03-15 06:55,-115.6733,36.5872,955.00,55.80,41.20,57.88,210.00,15.00,0.00,29.83,1007.60,10.00,24.00,FEW,M,M,M,15000.00,M,M,M,M,M,M,M,29.00,190.00,2023-03-15 06:34,55.80,KINS 150655Z AUTO 21015G24KT 10SM FEW150 13/05 A2983 RMK AO2 PK WND 19029/34 SLP076 T01320051 $,M
RTS,2023-03-15 06:55,-119.8764,39.6682,1539.00,41.00,30.20,65.16,300.00,16.00,0.00,29.74,M,10.00,25.00,FEW,M,M,M,3300.00,M,M,M,M,M,M,M,M,M,M,32.15,KRTS 150655Z AUTO 30016G25KT 10SM FEW033 05/M01 A2974 RMK AO2,M
MEV,2023-03-15 06:55,-119.7500,38.9963,1441.42,41.00,35.60,80.93,270.00,7.00,0.00,29.78,M,10.00,13.00,FEW,SCT,BKN,M,1500.00,2700.00,3600.00,M,M,M,M,M,M,M,M,35.75,KMEV 150655Z AUTO 27007G13KT 10SM FEW015 SCT027 BKN036 05/02 A2978 RMK AO2,M
BAM,2023-03-15 06:55,-116.8743,40.5990,1382.36,44.60,39.20,81.20,230.00,13.00,0.00,29.69,M,10.00,M,SCT,M,M,M,6000.00,M,M,M,M,M,M,M,M,M,M,37.71,KBAM 150655Z AUTO 23013KT 10SM SCT060 07/04 A2969 RMK AO1,M
HTH,2023-03-15 06:55,-118.6315,38.5448,1282.89,48.20,35.60,61.52,0.00,0.00,0.00,29.77,M,10.00,10.00,FEW,SCT,BKN,M,4600.00,6000.00,7000.00,M,M,M,M,M,M,M,M,48.20,KHTH 150655Z AUTO 00000G10KT 10SM FEW046 SCT060 BKN070 09/02 A2977 RMK A01,M
LSV,2023-03-15 06:55,-115.0343,36.2362,570.00,59.70,46.80,62.30,170.00,15.00,0.00,29.84,1009.30,10.00,M,OVC,M,M,M,6000.00,M,M,M,M,M,M,M,M,M,M,59.70,KLSV 150655Z AUTO 17015KT 10SM OVC060 15/08 A2984 RMK AO2 SLP093 T01540082 $,M
RNO,2023-03-15 06:55,-119.7711,39.4839,1341.00,46.00,33.00,60.49,140.00,3.00,0.00,29.69,1003.90,10.00,M,BKN,M,M,M,4700.00,M,M,M,M,M,M,M,M,M,M,44.69,KRNO 150655Z 14003KT 10SM BKN047 08/01 A2969 RMK AO2 SLP039 T00780006,M
TMT,2023-03-15 06:55,-117.1971,39.4643,1749.34,39.00,35.00,85.76,240.00,7.00,0.00,29.78,M,10.00,M,BKN,BKN,OVC,M,2300.00,3600.00,6500.00,M,M,M,M,M,M,M,M,33.31,KTMT 150655Z AUTO 24007KT 10SM BKN023 BKN036 OVC065 04/02 A2978 RMK AO2 T00390017,M
NFL,2023-03-15 06:56,-118.7010,39.4166,1199.00,47.00,37.00,68.27,210.00,18.00,0.00,29.70,1003.90,10.00,27.00,CLR,M,M,M,M,M,M,M,M,M,M,M,32.00,220.00,2023-03-15 06:42,39.36,KNFL 150656Z AUTO 21018G27KT 10SM CLR 08/03 A2970 RMK AO2 PK WND 22032/0642 SLP039 T00830028,M
EKO,2023-03-15 06:56,-115.7860,40.8242,1367.00,41.00,34.00,75.94,30.00,6.03,M,29.68,1004.00,10.00,M,FEW,M,M,M,7001.00,M,M,M,M,M,M,M,M,M,M,36.35,METAR KEKO 150656Z 03006KT 10SM FEW070 05/01 A2968 RMK AO2 SLP040 T00500011 TSNO FIBI,M
WMC,2023-03-15 06:56,-117.8072,40.9019,1315.00,49.00,30.90,49.63,220.00,18.00,0.00,29.65,1002.20,10.00,27.00,CLR,M,M,M,M,M,M,M,M,M,M,M,36.00,210.00,2023-03-15 06:19,42.00,KWMC 150656Z AUTO 22018G27KT 10SM CLR 09/M01 A2965 RMK AO2 PK WND 21036/0619 SLP022 T00941006,M
LAS,2023-03-15 06:56,-115.1634,36.0719,663.00,58.00,45.00,62.07,180.00,13.00,0.00,29.87,1010.40,10.00,22.00,BKN,OVC,M,M,7500.00,22000.00,M,M,M,M,M,M,M,M,M,57.90,KLAS 150656Z 18013G22KT 10SM BKN075 OVC220 14/07 A2987 RMK AO2 SLP104 T01440072 $,M
TPH,2023-03-15 06:56,-117.0904,38.0505,1654.00,44.00,42.00,92.62,200.00,15.00,0.00,29.80,1006.90,10.00,25.00,BKN,BKN,OVC,M,1000.00,4000.00,9000.00,M,M,M,M,M,30.00,190.00,2023-03-15 06:41,36.47,KTPH 150656Z AUTO 20015G25KT 10SM BKN010 BKN040 OVC090 07/06 A2980 RMK AO2 PK WND 19030/0641 CIG 007V015 SLP069 T00670056,M
P68,2023-03-15 07:01,-116.0056,39.6014,1993.00,36.00,32.00,85.23,270.00,21.00,0.00,29.77,M,M,33.00,M,M,M,M,M,M,M,M,M,M,M,M,33.00,270.00,2023-03-15 07:01,24.19,KP68 150701Z AUTO 27021G33KT 02/00 A2977 RMK AO1 PK WND 27033/0701 WSHFT 0644 T00220000,M
TPH,2023-03-15 07:04,-117.0904,38.0505,1654.00,44.00,42.00,92.62,200.00,13.00,0.00,29.81,M,10.00,M,SCT,BKN,OVC,M,1000.00,3800.00,7500.00,M,M,M,M,M,M,M,M,37.07,KTPH 150704Z AUTO 20013KT 10SM SCT010 BKN038 OVC075 07/06 A2981 RMK AO2 T00670056,M
BVU,2023-03-15 07:15,-114.8611,35.9475,671.00,59.00,44.60,58.77,230.00,13.00,0.00,29.90,M,10.00,19.00,BKN,BKN,M,M,7000.00,8000.00,M,M,M,M,M,M,M,M,M,59.00,KBVU 150715Z AUTO 23013G19KT 10SM BKN070 BKN080 15/07 A2990 RMK AO2,M
RTS,2023-03-15 07:15,-119.8764,39.6682,1539.00,41.00,32.00,70.08,290.00,17.00,0.00,29.76,M,10.00,22.00,BKN,BKN,BKN,M,3200.00,4800.00,6000.00,M,M,M,M,M,M,M,M,31.87,KRTS 150715Z AUTO 29017G22KT 10SM BKN032 BKN048 BKN060 05/M00 A2976 RMK AO2,M
MEV,2023-03-15 07:15,-119.7500,38.9963,1441.42,39.20,35.60,86.79,0.00,0.00,0.00,29.78,M,10.00,M,FEW,BKN,OVC,M,3700.00,4300.00,4900.00,M,M,M,M,M,M,M,M,39.20,KMEV 150715Z AUTO 00000KT 10SM FEW037 BKN043 OVC049 04/02 A2978 RMK AO2,M
BAM,2023-03-15 07:15,-116.8743,40.5990,1382.36,46.40,39.20,75.84,240.00,14.00,0.00,29.69,M,10.00,18.00,BKN,M,M,M,6000.00,M,M,M,M,M,M,M,M,M,M,39.72,KBAM 150715Z AUTO 24014G18KT 10SM BKN060 08/04 A2969 RMK AO1,M
HTH,2023-03-15 07:15,-118.6315,38.5448,1282.89,46.40,37.40,70.68,130.00,4.00,0.00,29.78,M,10.00,M,FEW,SCT,BKN,M,3900.00,6000.00,7500.00,M,M,M,M,M,M,M,M,44.24,KHTH 150715Z AUTO 13004KT 10SM FEW039 SCT060 BKN075 08/03 A2978 RMK A01,M
TMT,2023-03-15 07:15,-117.1971,39.4643,1749.34,38.00,34.70,87.43,250.00,9.00,0.00,29.79,M,10.00,M,SCT,BKN,OVC,M,2300.00,4600.00,6500.00,M,M,M,M,M,M,M,M,31.10,KTMT 150715Z AUTO 25009KT 10SM SCT023 BKN046 OVC065 03/02 A2979 RMK AO2 T00340015,M
BVU,2023-03-15 07:35,-114.8611,35.9475,671.00,59.00,44.60,58.77,220.00,12.00,0.00,29.90,M,10.00,17.00,SCT,BKN,M,M,6500.00,7500.00,M,M,M,M,M,M,M,M,M,59.00,KBVU 150735Z AUTO 22012G17KT 10SM SCT065 BKN075 15/07 A2990 RMK AO2,M
RTS,2023-03-15 07:35,-119.8764,39.6682,1539.00,41.00,30.20,65.16,270.00,11.00,0.00,29.77,M,10.00,20.00,SCT,BKN,BKN,M,2800.00,3300.00,4400.00,M,M,M,M,M,M,M,M,33.84,KRTS 150735Z AUTO 27011G20KT 10SM SCT028 BKN033 BKN044 05/M01 A2977 RMK AO2,M
MEV,2023-03-15 07:35,-119.7500,38.9963,1441.42,41.00,33.80,75.33,130.00,9.00,0.00,29.78,M,10.00,M,SCT,BKN,OVC,M,3400.00,4500.00,5000.00,M,M,M,M,M,M,M,M,34.70,KMEV 150735Z AUTO 13009KT 10SM SCT034 BKN045 OVC050 05/01 A2978 RMK AO2,M
BAM,2023-03-15 07:35,-116.8743,40.5990,1382.36,44.60,37.40,75.68,230.00,12.00,0.00,29.71,M,10.00,M,BKN,M,M,M,6000.00,M,M,M,M,M,M,M,M,M,M,38.04,KBAM 150735Z AUTO 23012KT 10SM BKN060 07/03 A2971 RMK AO1,M
HTH,2023-03-15 07:35,-118.6315,38.5448,1282.89,46.40,37.40,70.68,150.00,7.00,0.00,29.77,M,10.00,M,CLR,M,M,M,M,M,M,M,M,M,M,M,M,M,M,42.33,KHTH 150735Z AUTO 15007KT 110V170 10SM CLR 08/03 A2977 RMK A01,M
TMT,2023-03-15 07:35,-117.1971,39.4643,1749.34,38.30,34.70,86.74,230.00,9.00,0.00,29.79,M,10.00,M,SCT,BKN,OVC,M,3100.00,4600.00,5500.00,M,M,M,M,M,M,M,M,31.35,KTMT 150735Z AUTO 23009KT 10SM SCT031 BKN046 OVC055 04/02 A2979 RMK AO2 T00350015,M
TPH,2023-03-15 07:42,-117.0904,38.0505,1654.00,44.00,42.00,92.62,200.00,15.00,0.00,29.82,M,10.00,M,SCT,BKN,OVC,M,1500.00,2900.00,4300.00,M,M,M,M,M,M,M,M,36.47,KTPH 150742Z AUTO 20015KT 10SM SCT015 BKN029 OVC043 07/06 A2982 RMK AO2 T00670056,M
INS,2023-03-15 07:50,-115.6733,36.5872,955.00,53.60,42.80,66.70,60.00,17.00,0.00,29.83,1007.80,10.00,32.00,BKN,OVC,M,M,13000.00,15000.00,M,M,M,M,M,M,M,M,M,53.60,KINS 150750Z AUTO 06017G32KT 10SM BKN130 OVC150 12/06 A2983 RMK AO2 WSHFT 39 SLP078 $,M
VGT,2023-03-15 07:53,-115.1933,36.2111,667.00,60.00,45.00,57.37,150.00,14.00,0.00,29.84,1011.20,10.00,M,BKN,BKN,M,M,7000.00,8500.00,M,M,M,M,M,M,M,M,M,60.10,KVGT 150753Z AUTO 15014KT 10SM BKN070 BKN085 16/07 A2984 RMK AO2 SLP112 T01560072 401940128,M
P68,2023-03-15 07:53,-116.0056,39.6014,1993.00,36.00,33.00,89.09,270.00,14.00,0.05,29.78,1006.10,M,21.00,M,M,M,M,M,M,M,M,M,M,M,M,33.00,270.00,2023-03-15 07:01,26.32,KP68 150753Z AUTO 27014G21KT 02/01 A2978 RMK AO1 PK WND 27033/0701 WSHFT 0644 SLP061 P0005 T00220006 400671022 $,M
DRA,2023-03-15 07:53,-116.0278,36.6206,1009.00,57.00,42.00,57.38,210.00,23.00,0.00,29.80,1006.90,10.00,38.00,CLR,M,M,M,M,M,M,M,M,M,M,M,41.00,190.00,2023-03-15 07:40,57.00,KDRA 150753Z AUTO 21023G38KT 10SM CLR 14/06 A2980 RMK AO2 PK WND 19041/0740 SLP069 T01390056 401500072,M
ELY,2023-03-15 07:53,-114.8453,39.2950,1909.00,38.00,34.00,85.69,150.00,20.00,0.00,29.77,1006.10,10.00,30.00,BKN,BKN,OVC,M,2100.00,2600.00,3900.00,M,M,M,M,M,32.00,140.00,2023-03-15 07:41,26.98,KELY 150753Z AUTO 15020G30KT 10SM BKN021 BKN026 OVC039 03/01 A2977 RMK AO2 PK WND 14032/0741 SLP061 T00330011 400441006,M
LOL,2023-03-15 07:53,-118.5701,40.0684,1192.43,42.00,35.00,76.04,210.00,11.00,0.00,29.73,1006.30,10.00,M,SCT,SCT,M,M,6000.00,7000.00,M,M,M,M,M,M,M,M,M,35.23,KLOL 150753Z AUTO 21011KT 10SM SCT060 SCT070 06/02 A2973 RMK AO2 SLP063 T00560017 401780039,M
INS,2023-03-15 07:55,-115.6733,36.5872,955.00,53.60,43.00,67.21,100.00,10.00,0.00,29.83,1007.80,10.00,16.00,OVC,M,M,M,13000.00,M,M,M,M,M,M,M,32.00,90.00,2023-03-15 07:40,53.60,KINS 150755Z AUTO 10010G16KT 10SM OVC130 12/06 A2983 RMK AO2 PK WND 09032/40 SLP078 T01200061 401530063 $,M
RNO,2023-03-15 07:55,-119.7711,39.4839,1341.00,46.00,32.00,57.87,280.00,13.00,0.00,29.74,1005.20,10.00,19.00,SCT,BKN,M,M,5000.00,7000.00,M,M,M,M,M,M,M,M,M,39.50,KRNO 150755Z 28013G19KT 10SM SCT050 BKN070 08/00 A2974 RMK AO2 SLP052 T00780000 401610056,M
RTS,2023-03-15 07:55,-119.8764,39.6682,1539.00,41.00,30.20,65.16,240.00,15.00,0.00,29.76,M,10.00,20.00,BKN,BKN,BKN,M,3000.00,3500.00,4300.00,M,M,M,M,M,M,M,M,32.45,KRTS 150755Z AUTO 24015G20KT 10SM BKN030 BKN035 BKN043 05/M01 A2976 RMK AO2,M
MEV,2023-03-15 07:55,-119.7500,38.9963,1441.42,39.20,35.60,86.79,230.00,5.00,0.00,29.80,M,10.00,12.00,SCT,OVC,M,M,3500.00,4600.00,M,M,M,M,M,M,M,M,M,34.95,KMEV 150755Z AUTO 23005G12KT 10SM SCT035 OVC046 04/02 A2980 RMK AO2,M
BAM,2023-03-15 07:55,-116.8743,40.5990,1382.36,44.60,37.40,75.68,230.00,13.00,0.00,29.71,M,10.00,M,SCT,SCT,M,M,7000.00,8000.00,M,M,M,M,M,M,M,M,M,37.71,KBAM 150755Z AUTO 23013KT 10SM SCT070 SCT080 07/03 A2971 RMK AO1,M
HTH,2023-03-15 07:55,-118.6315,38.5448,1282.89,46.40,37.40,70.68,100.00,7.00,0.00,29.77,M,10.00,M,CLR,M,M,M,M,M,M,M,M,M,M,M,M,M,M,42.33,KHTH 150755Z AUTO 10007KT 10SM CLR 08/03 A2977 RMK A01,M
TMT,2023-03-15 07:55,-117.1971,39.4643,1749.34,37.60,34.20,87.40,220.00,9.00,0.00,29.78,M,10.00,M,SCT,SCT,BKN,M,3300.00,4600.00,12000.00,M,M,M,M,M,M,M,M,30.48,KTMT 150755Z AUTO 22009KT 10SM SCT033 SCT046 BKN120 03/01 A2978 RMK AO2 T00310012 401111015,M
BVU,2023-03-15 07:55,-114.8611,35.9475,671.00,59.00,44.60,58.77,220.00,11.00,0.00,29.90,M,10.00,M,CLR,M,M,M,M,M,M,M,M,M,M,M,M,M,M,59.00,KBVU 150755Z AUTO 22011KT 10SM CLR 15/07 A2990 RMK AO2,M
LSV,2023-03-15 07:55,-115.0343,36.2362,570.00,60.00,46.20,60.04,180.00,18.00,0.00,29.83,1009.10,10.00,25.00,SCT,M,M,M,8000.00,M,M,M,M,M,M,M,M,M,M,60.10,KLSV 150755Z AUTO 18018G25KT 10SM SCT080 16/08 A2983 RMK AO2 SLP091 T01560079 401900120 $,M
WMC,2023-03-15 07:56,-117.8072,40.9019,1315.00,48.00,32.00,53.67,270.00,19.00,0.00,29.70,1004.30,10.00,32.00,SCT,BKN,M,M,5000.00,6000.00,M,M,M,M,M,M,40.00,240.00,2023-03-15 07:27,40.60,KWMC 150756Z AUTO 27019G32KT 10SM SCT050 BKN060 09/00 A2970 RMK AO2 PK WND 24040/0727 PRESRR SLP043 T00890000 401390056,M
LAS,2023-03-15 07:56,-115.1634,36.0719,663.00,59.00,45.00,59.67,170.00,12.00,0.00,29.86,1010.10,10.00,21.00,FEW,SCT,OVC,M,7000.00,8000.00,25000.00,M,M,M,M,M,M,M,M,59.00,KLAS 150756Z 17012G21KT 10SM FEW070 SCT080 OVC250 15/07 A2986 RMK AO2 SLP101 T01500072 401940139 $,M
EKO,2023-03-15 07:56,-115.7860,40.8242,1367.00,42.00,35.00,76.03,180.00,7.97,M,29.71,1005.00,10.00,M,OVC,M,M,M,3100.00,M,M,M,M,M,M,M,M,M,M,36.45,METAR KEKO 150756Z 18008KT 10SM OVC031 06/02 A2971 RMK AO2 SLP050 T00560017 400831011 TSNO FIBI,M
NFL,2023-03-15 07:56,-118.7010,39.4166,1199.00,47.00,35.00,63.33,M,M,0.00,29.76,1005.60,10.00,M,FEW,SCT,M,M,7000.00,9500.00,M,M,M,M,M,M,M,M,M,M,KNFL 150756Z AUTO 10SM FEW070 SCT095 08/02 A2976 RMK AO2 SLP056 T00830017 401890044,M
TPH,2023-03-15 07:56,-117.0904,38.0505,1654.00,44.00,42.00,92.62,210.00,14.00,T,29.82,1007.50,10.00,M,FEW,BKN,OVC,M,1500.00,3000.00,3700.00,M,-RA,M,M,M,M,M,M,36.76,KTPH 150756Z AUTO 21014KT 10SM -RA FEW015 BKN030 OVC037 07/06 A2982 RMK AO2 RAB46 SLP075 P0000 T00670056 400890006,M
INS,2023-03-15 08:05,-115.6733,36.5872,955.00,53.60,42.80,66.70,110.00,11.00,0.00,29.83,1008.00,10.00,22.00,OVC,M,M,M,13000.00,M,M,M,M,M,M,M,M,M,M,53.60,KINS 150805Z AUTO 11011G22KT 10SM OVC130 12/06 A2983 RMK AO2 WSHFT 0758 SLP080 $,M
WMC,2023-03-15 08:08,-117.8072,40.9019,1315.00,43.00,34.00,70.30,270.00,22.00,0.00,29.71,M,10.00,33.00,FEW,BKN,OVC,M,2700.00,5000.00,6000.00,M,M,M,M,M,33.00,260.00,2023-03-15 08:06,33.31,KWMC 150808Z AUTO 27022G33KT 10SM FEW027 BKN050 OVC060 06/01 A2971 RMK AO2 PK WND 26033/0806 WSHFT 0748 T00610011,M
BVU,2023-03-15 08:15,-114.8611,35.9475,671.00,59.00,44.60,58.77,220.00,6.00,0.00,29.89,M,10.00,M,CLR,M,M,M,M,M,M,M,M,M,M,M,M,M,M,59.00,KBVU 150815Z AUTO 22006KT 10SM CLR 15/07 A2989 RMK AO2,M
RTS,2023-03-15 08:15,-119.8764,39.6682,1539.00,41.00,28.40,60.54,240.00,21.00,0.00,29.76,M,10.00,28.00,FEW,FEW,M,M,3000.00,3700.00,M,M,M,M,M,M,M,M,M,30.86,KRTS 150815Z AUTO 24021G28KT 10SM FEW030 FEW037 05/M02 A2976 RMK AO2,M
MEV,2023-03-15 08:15,-119.7500,38.9963,1441.42,41.00,33.80,75.33,140.00,10.00,0.00,29.80,M,10.00,M,SCT,OVC,M,M,3600.00,4500.00,M,M,M,M,M,M,M,M,M,34.25,KMEV 150815Z AUTO 14010KT 10SM SCT036 OVC045 05/01 A2980 RMK AO2,M
BAM,2023-03-15 08:15,-116.8743,40.5990,1382.36,46.40,37.40,70.68,220.00,15.00,0.00,29.72,M,10.00,19.00,BKN,BKN,M,M,8000.00,9000.00,M,M,M,M,M,M,M,M,M,39.45,KBAM 150815Z AUTO 22015G19KT 10SM BKN080 BKN090 08/03 A2972 RMK AO1,M
HTH,2023-03-15 08:15,-118.6315,38.5448,1282.89,48.20,35.60,61.52,100.00,5.00,0.00,29.78,M,10.00,M,CLR,M,M,M,M,M,M,M,M,M,M,M,M,M,M,45.63,KHTH 150815Z AUTO 10005KT 10SM CLR 09/02 A2978 RMK A01,M
TMT,2023-03-15 08:15,-117.1971,39.4643,1749.34,38.00,34.70,88.12,220.00,10.00,0.00,29.78,M,10.00,M,BKN,M,M,M,12000.00,M,M,M,M,M,M,M,M,M,M,30.37,KTMT 150815Z AUTO 22010KT 10SM BKN120 03/02 A2978 RMK AO2 T00330015,M
EKO,2023-03-15 08:20,-115.7860,40.8242,1367.00,41.00,35.00,79.02,0.00,0.00,M,29.72,M,10.00,M,OVC,M,M,M,2798.00,M,M,M,-RA,M,M,M,M,M,M,41.00,SPECI KEKO 150820Z 00000KT 10SM -RA OVC028 05/02 A2972 RMK AO2 RAB20 P0000 T00500017 TSNO FIBI,M
TPH,2023-03-15 08:23,-117.0904,38.0505,1654.00,44.00,42.00,92.62,200.00,13.00,T,29.82,M,10.00,M,FEW,BKN,OVC,M,900.00,2800.00,7500.00,M,-RA,M,M,M,M,M,M,37.07,KTPH 150823Z AUTO 20013KT 10SM -RA FEW009 BKN028 OVC075 07/06 A2982 RMK AO2 P0000 T00670056,M
ELY,2023-03-15 08:33,-114.8453,39.2950,1909.00,38.00,34.00,85.69,150.00,17.00,T,29.78,M,9.00,27.00,FEW,SCT,OVC,M,1700.00,2800.00,3600.00,M,-RA,M,M,M,32.00,150.00,2023-03-15 08:07,27.80,KELY 150833Z AUTO 15017G27KT 9SM -RA FEW017 SCT028 OVC036 03/01 A2978 RMK AO2 PK WND 15032/0807 RAB19 P0000 T00330011,M
BVU,2023-03-15 08:35,-114.8611,35.9475,671.00,59.00,44.60,58.77,130.00,5.00,0.00,29.89,M,10.00,M,CLR,M,M,M,M,M,M,M,M,M,M,M,M,M,M,59.00,KBVU 150835Z AUTO 13005KT 10SM CLR 15/07 A2989 RMK AO2,M
RTS,2023-03-15 08:35,-119.8764,39.6682,1539.00,41.00,28.40,60.54,270.00,11.00,0.00,29.79,M,10.00,20.00,CLR,M,M,M,M,M,M,M,M,M,M,M,M,M,M,33.84,KRTS 150835Z AUTO 27011G20KT 10SM CLR 05/M02 A2979 RMK AO2,M
MEV,2023-03-15 08:35,-119.7500,38.9963,1441.42,41.00,33.80,75.33,M,6.00,0.00,29.81,M,10.00,12.00,SCT,OVC,M,M,3600.00,4400.00,M,M,M,M,M,M,M,M,M,36.37,KMEV 150835Z AUTO VRB06G12KT 10SM SCT036 OVC044 05/01 A2981 RMK AO2,M
BAM,2023-03-15 08:35,-116.8743,40.5990,1382.36,46.40,39.20,75.84,230.00,12.00,0.00,29.72,M,10.00,M,SCT,OVC,M,M,8000.00,9000.00,M,M,M,M,M,M,M,M,M,40.33,KBAM 150835Z AUTO 23012KT 10SM SCT080 OVC090 08/04 A2972 RMK AO1,M
HTH,2023-03-15 08:35,-118.6315,38.5448,1282.89,46.40,37.40,70.68,110.00,10.00,0.00,29.78,M,10.00,M,CLR,M,M,M,M,M,M,M,M,M,M,M,M,M,M,41.03,KHTH 150835Z AUTO 11010KT 10SM CLR 08/03 A2978 RMK A01,M
TMT,2023-03-15 08:35,-117.1971,39.4643,1749.34,38.50,34.70,86.07,220.00,10.00,0.00,29.79,M,10.00,M,SCT,SCT,BKN,M,3800.00,8000.00,12000.00,M,M,M,M,M,M,M,M,31.12,KTMT 150835Z AUTO 22010KT 10SM SCT038 SCT080 BKN120 04/02 A2979 RMK AO2 T00360015,M
TPH,2023-03-15 08:43,-117.0904,38.0505,1654.00,44.00,42.00,92.62,200.00,20.00,T,29.82,M,9.00,29.00,FEW,BKN,OVC,M,800.00,5500.00,9000.00,M,-RA,M,M,M,29.00,200.00,2023-03-15 08:41,35.21,KTPH 150843Z AUTO 20020G29KT 9SM -RA FEW008 BKN055 OVC090 07/06 A2982 RMK AO2 PK WND 20029/0841 P0000 T00670056,M
ELY,2023-03-15 08:53,-114.8453,39.2950,1909.00,39.00,34.00,82.08,150.00,17.00,T,29.77,1006.10,10.00,26.00,FEW,BKN,OVC,M,2100.00,3400.00,11000.00,M,M,M,M,M,32.00,150.00,2023-03-15 08:07,29.25,KELY 150853Z AUTO 15017G26KT 10SM FEW021 BKN034 OVC110 04/01 A2977 RMK AO2 PK WND 15032/0807 RAB19E52 SLP061 P0000 60000 T00390011 56008,M
VGT,2023-03-15 08:53,-115.1933,36.2111,667.00,60.00,45.00,57.37,150.00,14.00,0.00,29.84,1011.20,10.00,M,FEW,M,M,M,7000.00,M,M,M,M,M,M,M,M,M,M,60.10,KVGT 150853Z AUTO 15014KT 10SM FEW070 16/07 A2984 RMK AO2 SLP112 T01560072 56009,M
DRA,2023-03-15 08:53,-116.0278,36.6206,1009.00,57.00,42.00,57.38,200.00,29.00,0.00,29.81,1007.10,10.00,40.00,SCT,BKN,BKN,M,6000.00,8000.00,10000.00,M,M,M,M,M,43.00,210.00,2023-03-15 08:24,57.00,KDRA 150853Z AUTO 20029G40KT 10SM SCT060 BKN080 BKN100 14/06 A2981 RMK AO2 PK WND 21043/0824 SLP071 T01390056 55007,M
LOL,2023-03-15 08:53,-118.5701,40.0684,1192.43,43.00,33.00,67.82,190.00,7.00,0.00,29.76,1007.00,10.00,M,BKN,OVC,M,M,6500.00,8500.00,M,M,M,M,M,M,M,M,M,38.19,KLOL 150853Z AUTO 19007KT 10SM BKN065 OVC085 06/01 A2976 RMK AO2 SLP070 T00610006 51031,M
P68,2023-03-15 08:53,-116.0056,39.6014,1993.00,35.00,33.00,92.32,80.00,4.00,0.03,29.77,1005.80,M,M,M,M,M,M,M,M,M,M,M,M,M,M,M,M,M,31.04,KP68 150853Z AUTO 08004KT 02/01 A2977 RMK AO1 SLP058 P0003 60008 T00170006 50013 $,M
BVU,2023-03-15 08:55,-114.8611,35.9475,671.00,59.00,44.60,58.77,140.00,4.00,0.00,29.89,M,10.00,M,FEW,M,M,M,11000.00,M,M,M,M,M,M,M,M,M,M,59.00,KBVU 150855Z AUTO 14004KT 10SM FEW110 15/07 A2989 RMK AO2,M
INS,2023-03-15 08:55,-115.6733,36.5872,955.00,53.80,42.60,65.71,100.00,13.00,0.00,29.83,1008.00,10.00,21.00,BKN,BKN,M,M,14000.00,16000.00,M,M,M,M,M,M,32.00,100.00,2023-03-15 08:40,53.80,KINS 150855Z AUTO 10013G21KT 10SM BKN140 BKN160 12/06 A2983 RMK AO2 PK WND 10032/40 SLP080 T01210059 55007 $,M
RTS,2023-03-15 08:55,-119.8764,39.6682,1539.00,39.20,28.40,64.93,10.00,13.00,0.00,29.81,M,10.00,M,SCT,M,M,M,3400.00,M,M,M,M,M,M,M,M,M,M,30.79,KRTS 150855Z AUTO 01013KT 10SM SCT034 04/M02 A2981 RMK AO2,M
MEV,2023-03-15 08:55,-119.7500,38.9963,1441.42,42.80,32.00,65.38,360.00,5.00,0.00,29.82,M,10.00,M,OVC,M,M,M,4100.00,M,M,M,M,M,M,M,M,M,M,39.22,KMEV 150855Z AUTO 36005KT 10SM OVC041 06/00 A2982 RMK AO2,M
BAM,2023-03-15 08:55,-116.8743,40.5990,1382.36,44.60,37.40,75.68,240.00,11.00,0.00,29.74,M,10.00,M,SCT,M,M,M,9000.00,M,M,M,M,M,M,M,M,M,M,38.39,KBAM 150855Z AUTO 24011KT 10SM SCT090 07/03 A2974 RMK AO1,M
HTH,2023-03-15 08:55,-118.6315,38.5448,1282.89,44.60,37.40,75.68,100.00,9.00,0.00,29.78,M,10.00,M,CLR,M,M,M,M,M,M,M,M,M,M,M,M,M,M,39.18,KHTH 150855Z AUTO 10009KT 10SM CLR 07/03 A2978 RMK A01,M
TMT,2023-03-15 08:55,-117.1971,39.4643,1749.34,38.80,35.00,86.43,210.00,10.00,0.00,29.79,M,10.00,M,SCT,BKN,M,M,3800.00,8000.00,M,M,M,M,M,M,M,M,M,31.50,KTMT 150855Z AUTO 21010KT 10SM SCT038 BKN080 04/02 A2979 RMK AO2 T00380017,M
LSV,2023-03-15 08:55,-115.0343,36.2362,570.00,59.70,46.00,60.22,190.00,16.00,0.00,29.83,1009.20,10.00,M,FEW,BKN,M,M,8000.00,16000.00,M,M,M,M,M,M,26.00,190.00,2023-03-15 08:33,59.70,KLSV 150855Z AUTO 19016KT 10SM FEW080 BKN160 15/08 A2983 RMK AO2 PK WND 19026/33 SLP092 T01540077 57008 $,M
RNO,2023-03-15 08:55,-119.7711,39.4839,1341.00,44.00,30.00,57.37,260.00,7.00,0.00,29.77,1005.80,10.00,16.00,BKN,M,M,M,6500.00,M,M,M,M,M,M,M,M,M,M,39.53,KRNO 150855Z 26007G16KT 10SM BKN065 07/M01 A2977 RMK AO2 SLP058 T00671011 53023,M
LAS,2023-03-15 08:56,-115.1634,36.0719,663.00,58.00,45.00,62.07,170.00,11.00,0.00,29.85,1009.90,10.00,18.00,SCT,BKN,OVC,M,7000.00,16000.00,25000.00,M,M,M,M,M,M,M,M,57.90,KLAS 150856Z 17011G18KT 10SM SCT070 BKN160 OVC250 14/07 A2985 RMK AO2 SLP099 SCT V FEW T01440072 58007 $,M
EKO,2023-03-15 08:56,-115.7860,40.8242,1367.00,41.00,35.00,79.02,M,2.92,M,29.72,1005.70,10.00,M,BKN,OVC,M,M,2401.00,3900.00,M,M,-RA,M,M,M,M,M,M,39.08,METAR KEKO 150856Z VRB03KT 10SM -RA BKN024 OVC039 05/02 A2972 RMK AO2 RAB20 SLP057 P0001 60001 T00500017 53015 TSNO FIBI,M
TPH,2023-03-15 08:56,-117.0904,38.0505,1654.00,43.00,42.00,96.60,200.00,11.00,T,29.82,1007.50,10.00,M,FEW,SCT,BKN,M,700.00,5500.00,9500.00,M,M,M,M,M,29.00,200.00,2023-03-15 08:41,36.37,KTPH 150856Z AUTO 20011KT 10SM FEW007 SCT055 BKN095 06/06 A2982 RMK AO2 PK WND 20029/0841 RAE55 SLP075 P0000 60000 T00610056 51006,M
NFL,2023-03-15 08:56,-118.7010,39.4166,1199.00,47.00,34.00,60.61,200.00,10.00,0.00,29.77,1006.10,10.00,17.00,CLR,M,M,M,M,M,M,M,M,M,M,M,M,M,M,41.65,KNFL 150856Z AUTO 20010G17KT 10SM CLR 08/01 A2977 RMK AO2 SLP061 T00830011 53021,M
WMC,2023-03-15 08:56,-117.8072,40.9019,1315.00,40.00,35.00,82.80,260.00,18.00,0.01,29.73,1006.20,10.00,28.00,BKN,BKN,OVC,M,3900.00,4900.00,6000.00,M,-RA,M,M,M,33.00,290.00,2023-03-15 08:17,30.15,KWMC 150856Z AUTO 26018G28KT 10SM -RA BKN039 BKN049 OVC060 04/02 A2973 RMK AO2 PK WND 29033/0817 WSHFT 0748 RAB10 SLP062 P0001 60001 T00440017 51035,M
EKO,2023-03-15 09:12,-115.7860,40.8242,1367.00,40.00,36.00,85.48,190.00,5.05,M,29.72,M,10.00,M,SCT,OVC,M,M,2401.00,3700.00,M,M,M,M,M,M,M,M,M,35.85,SPECI KEKO 150912Z 19005KT 10SM SCT024 OVC037 04/02 A2972 RMK AO2 RAE0857 P0000 T00440022 TSNO FIBI,M
BVU,2023-03-15 09:15,-114.8611,35.9475,671.00,59.00,44.60,58.77,160.00,7.00,0.00,29.89,M,10.00,M,BKN,M,M,M,12000.00,M,M,M,M,M,M,M,M,M,M,59.00,KBVU 150915Z AUTO 16007KT 10SM BKN120 15/07 A2989 RMK AO2,M
RTS,2023-03-15 09:15,-119.8764,39.6682,1539.00,39.20,30.20,69.88,340.00,8.00,0.00,29.82,M,10.00,M,OVC,M,M,M,3400.00,M,M,M,M,M,M,M,M,M,M,32.98,KRTS 150915Z AUTO 34008KT 10SM OVC034 04/M01 A2982 RMK AO2,M
MEV,2023-03-15 09:15,-119.7500,38.9963,1441.42,42.80,32.00,65.38,310.00,8.00,0.00,29.81,M,10.00,M,BKN,OVC,M,M,4300.00,4900.00,M,M,M,M,M,M,M,M,M,37.42,KMEV 150915Z AUTO 31008KT 10SM BKN043 OVC049 06/M00 A2981 RMK AO2,M
BAM,2023-03-15 09:15,-116.8743,40.5990,1382.36,44.60,35.60,70.48,230.00,11.00,0.00,29.75,M,10.00,M,SCT,M,M,M,6000.00,M,M,M,M,M,M,M,M,M,M,38.39,KBAM 150915Z AUTO 23011KT 10SM SCT060 07/02 A2975 RMK AO1,M
HTH,2023-03-15 09:15,-118.6315,38.5448,1282.89,44.60,37.40,75.68,140.00,12.00,0.00,29.79,M,10.00,M,CLR,M,M,M,M,M,M,M,M,M,M,M,M,M,M,38.04,KHTH 150915Z AUTO 14012KT 10SM CLR 07/03 A2979 RMK A01,M
TMT,2023-03-15 09:15,-117.1971,39.4643,1749.34,39.40,34.70,83.09,230.00,8.00,0.00,29.81,M,10.00,M,BKN,BKN,M,M,3800.00,8000.00,M,M,M,M,M,M,M,M,M,33.23,KTMT 150915Z AUTO 23008KT 10SM BKN038 BKN080 04/02 A2981 RMK AO2 T00410015,M
BVU,2023-03-15 09:35,-114.8611,35.9475,671.00,59.00,44.60,58.77,170.00,6.00,0.00,29.88,M,10.00,M,FEW,SCT,OVC,M,4800.00,8000.00,11000.00,M,M,M,M,M,M,M,M,59.00,KBVU 150935Z AUTO 17006KT 10SM FEW048 SCT080 OVC110 15/07 A2988 RMK AO2,M
RTS,2023-03-15 09:35,-119.8764,39.6682,1539.00,37.40,30.20,74.98,320.00,8.00,0.00,29.83,M,10.00,M,SCT,OVC,M,M,2900.00,3600.00,M,M,M,M,M,M,M,M,M,30.76,KRTS 150935Z AUTO 32008KT 10SM SCT029 OVC036 03/M01 A2983 RMK AO2,M
MEV,2023-03-15 09:35,-119.7500,38.9963,1441.42,44.60,28.40,52.72,280.00,11.00,0.00,29.81,M,10.00,16.00,FEW,SCT,SCT,M,3500.00,4300.00,5000.00,M,M,M,M,M,M,M,M,38.39,KMEV 150935Z AUTO 28011G16KT 10SM FEW035 SCT043 SCT050 07/M02 A2981 RMK AO2,M
BAM,2023-03-15 09:35,-116.8743,40.5990,1382.36,44.60,35.60,70.48,240.00,11.00,0.00,29.75,M,10.00,M,CLR,M,M,M,M,M,M,M,M,M,M,M,M,M,M,38.39,KBAM 150935Z AUTO 24011KT 10SM CLR 07/02 A2975 RMK AO1,M
HTH,2023-03-15 09:35,-118.6315,38.5448,1282.89,46.40,35.60,65.83,0.00,0.00,0.00,29.79,M,10.00,11.00,CLR,M,M,M,M,M,M,M,M,M,M,M,M,M,M,46.40,KHTH 150935Z AUTO 00000G11KT 10SM CLR 08/02 A2979 RMK A01,M
TMT,2023-03-15 09:35,-117.1971,39.4643,1749.34,38.30,34.50,86.06,240.00,7.00,0.00,29.81,M,10.00,M,SCT,BKN,OVC,M,3600.00,4900.00,6000.00,M,M,M,M,M,M,M,M,32.46,KTMT 150935Z AUTO 24007KT 10SM SCT036 BKN049 OVC060 04/01 A2981 RMK AO2 T00350014,M
TPH,2023-03-15 09:51,-117.0904,38.0505,1654.00,42.80,42.80,100.00,210.00,11.00,0.00,29.82,M,10.00,M,SCT,BKN,OVC,M,1100.00,2800.00,10000.00,M,M,M,M,M,M,M,M,36.11,KTPH 150951Z AUTO 21011KT 10SM SCT011 BKN028 OVC100 06/06 A2982 RMK AO2,M
DRA,2023-03-15 09:53,-116.0278,36.6206,1009.00,54.00,45.00,71.50,200.00,16.00,0.01,29.81,1007.20,10.00,28.00,FEW,OVC,M,M,4500.00,5500.00,M,M,-RA,M,M,M,37.00,200.00,2023-03-15 08:54,54.00,KDRA 150953Z AUTO 20016G28KT 10SM -RA FEW045 OVC055 12/07 A2981 RMK AO2 PK WND 20037/0854 RAB30 SLP072 P0001 T01220072,M
ELY,2023-03-15 09:53,-114.8453,39.2950,1909.00,38.00,34.00,85.69,160.00,13.00,0.01,29.78,1006.40,8.00,M,BKN,BKN,OVC,M,3300.00,6500.00,11000.00,M,-RA,M,M,M,26.00,150.00,2023-03-15 08:58,29.13,KELY 150953Z AUTO 16013KT 8SM -RA BKN033 BKN065 OVC110 03/01 A2978 RMK AO2 PK WND 15026/0858 RAB07 SLP064 P0001 T00330011,M
VGT,2023-03-15 09:53,-115.1933,36.2111,667.00,60.00,45.00,57.37,140.00,11.00,0.00,29.83,1011.00,10.00,M,FEW,SCT,M,M,6500.00,7500.00,M,M,M,M,M,M,M,M,M,60.10,KVGT 150953Z AUTO 14011KT 10SM FEW065 SCT075 16/07 A2983 RMK AO2 SLP110 T01560072,M
LOL,2023-03-15 09:53,-118.5701,40.0684,1192.43,43.00,34.00,70.30,330.00,13.00,0.00,29.79,1007.80,10.00,M,FEW,OVC,M,M,6000.00,9000.00,M,M,M,M,M,M,M,M,M,35.66,KLOL 150953Z AUTO 33013KT 10SM FEW060 OVC090 06/01 A2979 RMK AO2 SLP078 T00610011,M
P68,2023-03-15 09:53,-116.0056,39.6014,1993.00,36.00,33.00,89.09,0.00,0.00,0.01,29.78,1006.10,M,M,M,M,M,M,M,M,M,M,M,M,M,M,M,M,M,36.00,KP68 150953Z AUTO 00000KT 02/01 A2978 RMK AO1 SLP061 P0001 T00220006 $,M
BVU,2023-03-15 09:55,-114.8611,35.9475,671.00,59.00,46.40,62.92,0.00,0.00,0.00,29.87,M,10.00,M,FEW,SCT,BKN,M,4000.00,5000.00,8000.00,M,M,M,M,M,M,M,M,59.00,KBVU 150955Z AUTO 00000KT 10SM FEW040 SCT050 BKN080 15/08 A2987 RMK AO2,M
INS,2023-03-15 09:55,-115.6733,36.5872,955.00,57.60,39.00,49.79,280.00,3.00,0.00,29.82,1007.50,10.00,M,FEW,OVC,M,M,5500.00,7000.00,M,M,M,M,M,M,M,M,M,57.60,KINS 150955Z AUTO 28003KT 10SM FEW055 OVC070 14/04 A2982 RMK AO2 SLP075 T01420039 $,M
RNO,2023-03-15 09:55,-119.7711,39.4839,1341.00,43.00,30.00,59.83,300.00,14.00,0.00,29.80,1006.50,10.00,M,SCT,M,M,M,6000.00,M,M,M,M,M,M,M,M,M,M,35.34,KRNO 150955Z 30014KT 10SM SCT060 06/M01 A2980 RMK AO2 SLP065 T00611011,M
RTS,2023-03-15 09:55,-119.8764,39.6682,1539.00,35.60,30.20,80.51,330.00,5.00,0.00,29.84,M,10.00,M,BKN,BKN,M,M,3600.00,4300.00,M,M,M,M,M,M,M,M,M,30.67,KRTS 150955Z AUTO 33005KT 10SM BKN036 BKN043 02/M01 A2984 RMK AO2,M
MEV,2023-03-15 09:55,-119.7500,38.9963,1441.42,42.80,28.40,56.48,260.00,10.00,0.00,29.81,M,10.00,M,FEW,M,M,M,4500.00,M,M,M,M,M,M,M,M,M,M,36.51,KMEV 150955Z AUTO 26010KT 10SM FEW045 06/M02 A2981 RMK AO2,M
BAM,2023-03-15 09:55,-116.8743,40.5990,1382.36,44.60,35.60,70.48,230.00,11.00,0.00,29.75,M,10.00,19.00,CLR,M,M,M,M,M,M,M,M,M,M,M,M,M,M,38.39,KBAM 150955Z AUTO 23011G19KT 10SM CLR 07/02 A2975 RMK AO1,M
HTH,2023-03-15 09:55,-118.6315,38.5448,1282.89,44.60,35.60,70.48,100.00,6.00,0.00,29.79,M,10.00,M,CLR,M,M,M,M,M,M,M,M,M,M,M,M,M,M,40.71,KHTH 150955Z AUTO 10006KT 10SM CLR 07/02 A2979 RMK A01,M
TMT,2023-03-15 09:55,-117.1971,39.4643,1749.34,38.30,34.00,84.36,220.00,8.00,0.00,29.80,M,10.00,M,SCT,BKN,OVC,M,3600.00,6000.00,7000.00,M,M,M,M,M,M,M,M,31.87,KTMT 150955Z AUTO 22008KT 10SM SCT036 BKN060 OVC070 04/01 A2980 RMK AO2 T00350011,M
LSV,2023-03-15 09:55,-115.0343,36.2362,570.00,60.60,45.70,57.88,170.00,14.00,0.00,29.81,1008.50,10.00,M,BKN,M,M,M,8500.00,M,M,M,M,M,M,M,M,M,M,60.60,KLSV 150955Z AUTO 17014KT 10SM BKN085 16/08 A2981 RMK AO2 SLP085 T01590076 $,M
NFL,2023-03-15 09:56,-118.7010,39.4166,1199.00,42.00,34.00,72.78,320.00,8.00,0.00,29.80,1007.10,10.00,M,BKN,M,M,M,5500.00,M,M,M,M,M,M,M,M,M,M,36.55,KNFL 150956Z AUTO 32008KT 10SM BKN055 06/01 A2980 RMK AO2 SLP071 T00560011,M
EKO,2023-03-15 09:56,-115.7860,40.8242,1367.00,40.00,35.00,82.15,190.00,6.03,M,29.72,1006.20,10.00,M,SCT,BKN,OVC,M,3900.00,4799.00,7998.00,M,M,M,M,M,M,M,M,35.15,METAR KEKO 150956Z 19006KT 10SM SCT039 BKN048 OVC080 04/02 A2972 RMK AO2 RAE0857 SLP062 P0000 T00440017 TSNO FIBI,M
WMC,2023-03-15 09:56,-117.8072,40.9019,1315.00,41.00,33.00,73.25,250.00,8.00,T,29.78,1007.60,10.00,M,SCT,OVC,M,M,4800.00,6000.00,M,M,M,M,M,M,M,M,M,35.20,KWMC 150956Z AUTO 25008KT 10SM SCT048 OVC060 05/01 A2978 RMK AO2 RAE08 SLP076 P0000 T00500006,M
TPH,2023-03-15 09:56,-117.0904,38.0505,1654.00,43.00,42.00,96.60,210.00,13.00,0.00,29.82,1007.70,10.00,M,SCT,BKN,OVC,M,1100.00,2800.00,11000.00,M,M,M,M,M,M,M,M,35.66,KTPH 150956Z AUTO 21013KT 10SM SCT011 BKN028 OVC110 06/06 A2982 RMK AO2 SLP077 T00610056,M
LAS,2023-03-15 09:56,-115.1634,36.0719,663.00,58.00,45.00,62.07,150.00,6.00,0.00,29.85,1009.80,10.00,M,OVC,M,M,M,7000.00,M,M,M,M,M,M,M,M,M,M,57.90,KLAS 150956Z 15006KT 10SM OVC070 14/07 A2985 RMK AO2 SLP098 OVC V BKN T01440072 $,M
HTH,2023-03-15 10:10,-118.6315,38.5448,1282.89,46.40,33.80,61.28,130.00,8.00,0.00,29.78,M,10.00,M,CLR,M,M,M,M,M,M,M,M,M,M,M,M,M,M,41.85,KHTH 151010Z AUTO 13008KT 10SM CLR 08/01 A2978 RMK A01,M
TPH,2023-03-15 10:12,-117.0904,38.0505,1654.00,43.00,42.00,96.60,210.00,9.00,0.00,29.82,M,10.00,M,BKN,BKN,OVC,M,1200.00,2800.00,11000.00,M,M,M,M,M,M,M,M,37.19,KTPH 151012Z AUTO 21009KT 10SM BKN012 BKN028 OVC110 06/06 A2982 RMK AO2 T00610056,M
BVU,2023-03-15 10:15,-114.8611,35.9475,671.00,59.00,46.40,62.92,0.00,0.00,0.00,29.86,M,10.00,M,FEW,SCT,OVC,M,4100.00,6500.00,7500.00,M,M,M,M,M,M,M,M,59.00,KBVU 151015Z AUTO 00000KT 10SM FEW041 SCT065 OVC075 15/08 A2986 RMK AO2,M
RTS,2023-03-15 10:15,-119.8764,39.6682,1539.00,37.40,30.20,74.98,320.00,9.00,0.00,29.84,M,10.00,M,SCT,OVC,M,M,3500.00,4200.00,M,M,M,M,M,M,M,M,M,30.23,KRTS 151015Z AUTO 32009KT 10SM SCT035 OVC042 03/M01 A2984 RMK AO2,M
MEV,2023-03-15 10:15,-119.7500,38.9963,1441.42,41.00,28.40,60.54,240.00,13.00,0.00,29.81,M,10.00,19.00,CLR,M,M,M,M,M,M,M,M,M,M,M,M,M,M,33.10,KMEV 151015Z AUTO 24013G19KT 10SM CLR 05/M02 A2981 RMK AO2,M
BAM,2023-03-15 10:15,-116.8743,40.5990,1382.36,42.80,35.60,75.50,230.00,9.00,0.00,29.75,M,10.00,M,SCT,M,M,M,8500.00,M,M,M,M,M,M,M,M,M,M,36.94,KBAM 151015Z AUTO 23009KT 10SM SCT085 06/02 A2975 RMK AO1,M
TMT,2023-03-15 10:15,-117.1971,39.4643,1749.34,38.00,34.00,85.69,230.00,8.00,0.00,29.80,M,10.00,M,BKN,M,M,M,6000.00,M,M,M,M,M,M,M,M,M,M,31.38,KTMT 151015Z AUTO 23008KT 10SM BKN060 03/01 A2980 RMK AO2 T00330011,M
BVU,2023-03-15 10:35,-114.8611,35.9475,671.00,59.00,46.40,62.92,220.00,6.00,0.00,29.85,M,10.00,12.00,OVC,M,M,M,7500.00,M,M,M,M,M,M,M,M,M,M,59.00,KBVU 151035Z AUTO 22006G12KT 10SM OVC075 15/08 A2985 RMK AO2,M
RTS,2023-03-15 10:35,-119.8764,39.6682,1539.00,37.40,30.20,74.98,320.00,10.00,0.00,29.85,M,10.00,M,BKN,OVC,M,M,3900.00,4500.00,M,M,M,M,M,M,M,M,M,29.74,KRTS 151035Z AUTO 32010KT 10SM BKN039 OVC045 03/M01 A2985 RMK AO2,M
MEV,2023-03-15 10:35,-119.7500,38.9963,1441.42,41.00,28.40,60.54,M,4.00,0.00,29.82,M,10.00,11.00,FEW,M,M,M,4100.00,M,M,M,M,M,M,M,M,M,M,37.93,KMEV 151035Z AUTO VRB04G11KT 10SM FEW041 05/M02 A2982 RMK AO2,M
BAM,2023-03-15 10:35,-116.8743,40.5990,1382.36,41.00,35.60,80.93,230.00,7.00,0.00,29.76,M,10.00,M,SCT,M,M,M,8500.00,M,M,M,M,M,M,M,M,M,M,35.75,KBAM 151035Z AUTO 23007KT 10SM SCT085 05/02 A2976 RMK AO1,M
HTH,2023-03-15 10:35,-118.6315,38.5448,1282.89,48.20,32.00,53.27,140.00,7.00,0.00,29.78,M,10.00,M,CLR,M,M,M,M,M,M,M,M,M,M,M,M,M,M,44.53,KHTH 151035Z AUTO 14007KT 10SM CLR 09/00 A2978 RMK A01,M
TPH,2023-03-15 10:52,-117.0904,38.0505,1654.00,42.80,41.00,93.30,170.00,5.00,0.00,29.82,M,10.00,M,BKN,OVC,M,M,900.00,2100.00,M,M,M,M,M,M,M,M,M,39.22,KTPH 151052Z AUTO 17005KT 10SM BKN009 OVC021 06/05 A2982 RMK AO2 CIG 007V014,M
P68,2023-03-15 10:53,-116.0056,39.6014,1993.00,34.00,32.00,92.29,150.00,4.00,0.00,29.78,1006.20,M,M,M,M,M,M,M,M,M,M,M,M,M,M,M,M,M,29.76,KP68 151053Z AUTO 15004KT 01/00 A2978 RMK AO1 SLP062 T00110000 $,M
VGT,2023-03-15 10:53,-115.1933,36.2111,667.00,61.00,45.00,55.57,160.00,10.00,0.00,29.81,1010.10,10.00,M,OVC,M,M,M,6000.00,M,M,M,M,M,M,M,M,M,M,61.00,KVGT 151053Z AUTO 16010KT 10SM OVC060 16/07 A2981 RMK AO2 SLP101 T01610072,M
LOL,2023-03-15 10:53,-118.5701,40.0684,1192.43,40.00,30.90,69.96,300.00,7.00,0.00,29.81,1008.00,10.00,M,SCT,M,M,M,8000.00,M,M,M,M,M,M,M,M,M,M,34.41,KLOL 151053Z AUTO 30007KT 10SM SCT080 04/M01 A2981 RMK AO2 SLP080 T00441006,M
DRA,2023-03-15 10:53,-116.0278,36.6206,1009.00,53.00,46.00,76.75,200.00,23.00,0.03,29.79,1006.40,10.00,39.00,OVC,M,M,M,6500.00,M,M,M,-RA,M,M,M,39.00,190.00,2023-03-15 10:44,53.10,KDRA 151053Z AUTO 20023G39KT 10SM -RA OVC065 12/08 A2979 RMK AO2 PK WND 19039/1044 SLP064 P0003 T01170078,M
ELY,2023-03-15 10:53,-114.8453,39.2950,1909.00,38.00,35.00,89.53,190.00,9.00,0.02,29.79,1006.50,10.00,21.00,FEW,OVC,M,M,2100.00,3200.00,M,M,-RA,M,M,M,M,M,M,30.85,KELY 151053Z AUTO 19009G21KT 10SM -RA FEW021 OVC032 03/02 A2979 RMK AO2 SLP065 P0002 T00330017,M
BVU,2023-03-15 10:55,-114.8611,35.9475,671.00,57.20,46.40,67.12,210.00,9.00,0.00,29.85,M,10.00,M,SCT,OVC,M,M,7500.00,9500.00,M,M,M,M,M,M,M,M,M,57.20,KBVU 151055Z AUTO 21009KT 10SM SCT075 OVC095 14/08 A2985 RMK AO2,M
RNO,2023-03-15 10:55,-119.7711,39.4839,1341.00,41.00,28.90,61.79,310.00,9.00,0.00,29.83,1007.90,10.00,M,FEW,M,M,M,6000.00,M,M,M,M,M,M,M,M,M,M,34.70,KRNO 151055Z 31009KT 10SM FEW060 05/M02 A2983 RMK AO2 SLP079 T00501017,M
RTS,2023-03-15 10:55,-119.8764,39.6682,1539.00,35.60,30.20,80.51,310.00,9.00,0.00,29.86,M,10.00,M,BKN,M,M,M,4100.00,M,M,M,M,M,M,M,M,M,M,27.99,KRTS 151055Z AUTO 31009KT 10SM BKN041 02/M01 A2986 RMK AO2,M
MEV,2023-03-15 10:55,-119.7500,38.9963,1441.42,39.20,30.20,69.88,0.00,0.00,0.00,29.83,M,10.00,M,FEW,M,M,M,4800.00,M,M,M,M,M,M,M,M,M,M,39.20,KMEV 151055Z AUTO 00000KT 10SM FEW048 04/M01 A2983 RMK AO2,M
BAM,2023-03-15 10:55,-116.8743,40.5990,1382.36,42.80,35.60,75.50,260.00,8.00,0.00,29.76,M,10.00,M,SCT,SCT,BKN,M,5500.00,8000.00,9500.00,M,M,M,M,M,M,M,M,37.42,KBAM 151055Z AUTO 26008KT 10SM SCT055 SCT080 BKN095 06/02 A2976 RMK AO1,M
HTH,2023-03-15 10:55,-118.6315,38.5448,1282.89,44.60,33.80,65.61,190.00,9.00,0.00,29.79,M,10.00,M,CLR,M,M,M,M,M,M,M,M,M,M,M,M,M,M,39.18,KHTH 151055Z AUTO 19009KT 10SM CLR 07/01 A2979 RMK A01,M
INS,2023-03-15 10:55,-115.6733,36.5872,955.00,54.00,43.00,66.00,90.00,9.00,0.00,29.81,1007.30,10.00,M,BKN,OVC,M,M,6000.00,8000.00,M,M,M,M,M,M,M,M,M,54.10,KINS 151055Z AUTO 09009KT 10SM BKN060 OVC080 12/06 A2981 RMK AO2 SLP073 T01230061 $,M
LSV,2023-03-15 10:55,-115.0343,36.2362,570.00,60.00,46.40,60.93,170.00,9.00,0.00,29.80,1008.20,10.00,M,OVC,M,M,M,6500.00,M,M,M,M,M,M,M,M,M,M,59.90,KLSV 151055Z AUTO 17009KT 10SM OVC065 16/08 A2980 RMK AO2 SLP082 T01550080 $,M
TPH,2023-03-15 10:56,-117.0904,38.0505,1654.00,43.00,41.00,92.58,170.00,4.00,0.00,29.82,1007.70,10.00,M,BKN,OVC,M,M,900.00,1900.00,M,M,M,M,M,M,M,M,M,40.27,KTPH 151056Z AUTO 17004KT 10SM BKN009 OVC019 06/05 A2982 RMK AO2 CIG 007V014 SLP077 T00610050,M
LAS,2023-03-15 10:56,-115.1634,36.0719,663.00,60.00,45.00,57.37,200.00,11.00,0.00,29.81,1008.50,10.00,21.00,BKN,BKN,OVC,M,8000.00,11000.00,15000.00,M,M,M,M,M,M,M,M,60.10,KLAS 151056Z 20011G21KT 10SM BKN080 BKN110 OVC150 16/07 A2981 RMK AO2 SLP085 T01560072 $,M
EKO,2023-03-15 10:56,-115.7860,40.8242,1367.00,38.00,34.00,85.35,0.00,0.00,M,29.73,1006.50,10.00,M,BKN,M,M,M,7998.00,M,M,M,M,M,M,M,M,M,M,38.00,METAR KEKO 151056Z 00000KT 10SM BKN080 03/01 A2973 RMK AO2 SLP065 T00330011 TSNO FIBI,M
WMC,2023-03-15 10:56,-117.8072,40.9019,1315.00,40.00,33.00,76.44,270.00,10.00,0.00,29.81,1008.30,10.00,M,BKN,OVC,M,M,3600.00,4500.00,M,M,M,M,M,M,M,M,M,32.87,KWMC 151056Z AUTO 27010KT 10SM BKN036 OVC045 04/01 A2981 RMK AO2 SLP083 T00440006,M
NFL,2023-03-15 10:56,-118.7010,39.4166,1199.00,42.00,33.00,70.20,300.00,9.00,0.00,29.81,1007.30,10.00,M,CLR,M,M,M,M,M,M,M,M,M,M,M,M,M,M,36.07,KNFL 151056Z AUTO 30009KT 10SM CLR 06/01 A2981 RMK AO2 SLP073 T00560006,M
INS,2023-03-15 10:57,-115.6733,36.5872,955.00,53.60,42.80,66.70,90.00,8.00,0.00,29.81,1007.30,10.00,M,BKN,OVC,M,M,6000.00,7500.00,M,M,-DZ,M,M,M,M,M,M,53.60,KINS 151057Z AUTO 09008KT 10SM -DZ BKN060 OVC075 12/06 A2981 RMK AO2 DZB57 SLP073 $,M
TMT,2023-03-15 11:00,-117.1971,39.4643,1749.34,37.00,33.30,86.67,240.00,10.00,0.00,29.81,M,10.00,M,BKN,BKN,M,M,6000.00,7500.00,M,M,M,M,M,M,M,M,M,29.11,KTMT 151100Z AUTO 24010KT 10SM BKN060 BKN075 03/01 A2981 RMK AO2 T00270007,M
TPH,2023-03-15 11:03,-117.0904,38.0505,1654.00,43.00,42.00,96.60,0.00,0.00,0.00,29.82,M,10.00,M,SCT,BKN,OVC,M,900.00,1600.00,2100.00,M,M,M,M,M,M,M,M,43.00,KTPH 151103Z AUTO 00000KT 10SM SCT009 BKN016 OVC021 06/06 A2982 RMK AO2 T00610056,M
BVU,2023-03-15 11:15,-114.8611,35.9475,671.00,57.20,46.40,67.12,200.00,6.00,0.00,29.85,M,10.00,14.00,FEW,SCT,OVC,M,5500.00,6500.00,9500.00,M,M,M,M,M,M,M,M,57.20,KBVU 151115Z AUTO 20006G14KT 10SM FEW055 SCT065 OVC095 14/08 A2985 RMK AO2,M
RTS,2023-03-15 11:15,-119.8764,39.6682,1539.00,35.60,30.20,80.51,310.00,9.00,0.00,29.86,M,10.00,14.00,BKN,M,M,M,3900.00,M,M,M,M,M,M,M,M,M,M,27.99,KRTS 151115Z AUTO 31009G14KT 10SM BKN039 02/M01 A2986 RMK AO2,M
MEV,2023-03-15 11:15,-119.7500,38.9963,1441.42,37.40,28.40,69.67,0.00,0.00,0.00,29.83,M,10.00,M,FEW,M,M,M,4700.00,M,M,M,M,M,M,M,M,M,M,37.40,KMEV 151115Z AUTO 00000KT 10SM FEW047 03/M02 A2983 RMK AO2,M
BAM,2023-03-15 11:15,-116.8743,40.5990,1382.36,42.80,35.60,75.50,320.00,6.00,0.00,29.78,M,10.00,M,SCT,BKN,OVC,M,4400.00,5000.00,9500.00,M,M,M,M,M,M,M,M,38.54,KBAM 151115Z AUTO 32006KT 10SM SCT044 BKN050 OVC095 06/02 A2978 RMK AO1,M
HTH,2023-03-15 11:15,-118.6315,38.5448,1282.89,42.80,33.80,70.28,130.00,8.00,0.00,29.79,M,10.00,M,FEW,FEW,M,M,6500.00,7500.00,M,M,M,M,M,M,M,M,M,37.42,KHTH 151115Z AUTO 13008KT 10SM FEW065 FEW075 06/01 A2979 RMK A01,M
WMC,2023-03-15 11:19,-117.8072,40.9019,1315.00,37.00,30.90,78.37,320.00,14.00,0.00,29.82,M,10.00,18.00,FEW,BKN,OVC,M,1800.00,2500.00,7000.00,M,M,M,M,M,M,M,M,27.61,KWMC 151119Z AUTO 32014G18KT 10SM FEW018 BKN025 OVC070 03/M01 A2982 RMK AO2 T00281006,M
TPH,2023-03-15 11:19,-117.0904,38.0505,1654.00,43.00,42.00,96.60,110.00,3.00,0.00,29.82,M,10.00,M,BKN,OVC,M,M,1200.00,1900.00,M,M,M,M,M,M,M,M,M,41.26,KTPH 151119Z AUTO 11003KT 10SM BKN012 OVC019 06/06 A2982 RMK AO2 T00610056,M
TMT,2023-03-15 11:20,-117.1971,39.4643,1749.34,37.20,33.30,85.65,240.00,10.00,0.00,29.81,M,10.00,M,BKN,M,M,M,6000.00,M,M,M,M,M,M,M,M,M,M,29.49,KTMT 151120Z AUTO 24010KT 10SM BKN060 03/01 A2981 RMK AO2 T00290007,M
WMC,2023-03-15 11:27,-117.8072,40.9019,1315.00,36.00,30.00,78.60,310.00,13.00,0.00,29.82,M,10.00,23.00,FEW,SCT,OVC,M,2100.00,2600.00,7500.00,M,M,M,M,M,M,M,M,26.69,KWMC 151127Z AUTO 31013G23KT 10SM FEW021 SCT026 OVC075 02/M01 A2982 RMK AO2 T00221011,M
BVU,2023-03-15 11:35,-114.8611,35.9475,671.00,57.20,46.40,67.12,M,4.00,0.00,29.85,M,10.00,10.00,SCT,BKN,OVC,M,5500.00,6500.00,9000.00,M,M,M,M,M,M,M,M,57.20,KBVU 151135Z AUTO VRB04G10KT 10SM SCT055 BKN065 OVC090 14/08 A2985 RMK AO2,M
RTS,2023-03-15 11:35,-119.8764,39.6682,1539.00,35.60,30.20,80.51,320.00,7.00,0.00,29.87,M,10.00,M,OVC,M,M,M,3800.00,M,M,M,M,M,M,M,M,M,M,29.17,KRTS 151135Z AUTO 32007KT 10SM OVC038 02/M01 A2987 RMK AO2,M
MEV,2023-03-15 11:35,-119.7500,38.9963,1441.42,41.00,26.60,56.22,0.00,0.00,0.00,29.83,M,10.00,M,CLR,M,M,M,M,M,M,M,M,M,M,M,M,M,M,41.00,KMEV 151135Z AUTO 00000KT 10SM CLR 05/M03 A2983 RMK AO2,M
BAM,2023-03-15 11:35,-116.8743,40.5990,1382.36,42.80,35.60,75.50,310.00,8.00,0.00,29.79,M,10.00,M,BKN,OVC,M,M,3700.00,4700.00,M,M,M,M,M,M,M,M,M,37.42,KBAM 151135Z AUTO 31008KT 10SM BKN037 OVC047 06/02 A2979 RMK AO1,M
HTH,2023-03-15 11:35,-118.6315,38.5448,1282.89,44.60,32.00,61.03,180.00,13.00,0.00,29.79,M,10.00,M,FEW,SCT,M,M,6000.00,7500.00,M,M,M,M,M,M,M,M,M,37.71,KHTH 151135Z AUTO 18013KT 10SM FEW060 SCT075 07/M00 A2979 RMK A01,M
INS,2023-03-15 11:52,-115.6733,36.5872,955.00,51.80,46.40,81.74,100.00,3.00,0.00,29.81,1007.30,10.00,M,FEW,SCT,SCT,BKN,400.00,1100.00,1700.00,4000.00,-RA,M,M,M,M,M,M,51.80,KINS 151152Z AUTO 10003KT 10SM -RA FEW004 SCT011 SCT017 BKN040 OVC055 11/08 A2981 RMK AO2 DZB1057E1059RAB1059 SLP073 $,M
DRA,2023-03-15 11:53,-116.0278,36.6206,1009.00,52.00,46.00,79.92,210.00,15.00,0.02,29.81,1007.10,10.00,27.00,FEW,SCT,OVC,M,3600.00,5500.00,7000.00,M,-RA,M,M,M,34.00,200.00,2023-03-15 11:18,52.00,KDRA 151153Z AUTO 21015G27KT 10SM -RA FEW036 SCT055 OVC070 11/08 A2981 RMK AO2 PK WND 20034/1118 SLP071 P0002 60006 70018 T01110078 10144 20111 53001,M
VGT,2023-03-15 11:53,-115.1933,36.2111,667.00,61.00,46.00,57.72,190.00,16.00,0.00,29.80,1009.80,10.00,24.00,OVC,M,M,M,6000.00,M,M,M,M,M,M,M,M,M,M,61.00,KVGT 151153Z AUTO 19016G24KT 10SM OVC060 16/08 A2980 RMK AO2 SLP098 70002 T01610078 10161 20150 57014,M
LOL,2023-03-15 11:53,-118.5701,40.0684,1192.43,40.00,32.00,73.14,310.00,12.00,0.00,29.85,1009.50,10.00,M,OVC,M,M,M,6500.00,M,M,M,M,M,M,M,M,M,M,32.06,KLOL 151153Z AUTO 31012KT 10SM OVC065 04/00 A2985 RMK AO2 SLP095 70001 T00440000 10083 20039 53027,M
P68,2023-03-15 11:53,-116.0056,39.6014,1993.00,37.00,33.00,85.64,M,3.00,0.00,29.78,1005.90,M,M,M,M,M,M,M,M,M,M,M,M,M,M,M,M,M,34.40,KP68 151153Z AUTO VRB03KT 03/01 A2978 RMK AO1 SLP059 60009 70009 T00280006 10050 20011 50002 $,M
ELY,2023-03-15 11:53,-114.8453,39.2950,1909.00,38.00,33.00,82.66,170.00,13.00,0.01,29.78,1006.20,10.00,M,FEW,BKN,OVC,M,3400.00,4500.00,11000.00,M,M,M,M,M,M,M,M,29.13,KELY 151153Z AUTO 17013KT 10SM FEW034 BKN045 OVC110 03/01 A2978 RMK AO2 RAE12 SLP062 P0001 60004 70004 T00330006 10044 20028 50001,M
BVU,2023-03-15 11:55,-114.8611,35.9475,671.00,57.20,48.20,71.83,210.00,12.00,0.00,29.85,M,10.00,M,BKN,OVC,M,M,5000.00,6500.00,M,M,M,M,M,M,M,M,M,57.20,KBVU 151155Z AUTO 21012KT 10SM BKN050 OVC065 14/09 A2985 RMK AO2,M
INS,2023-03-15 11:55,-115.6733,36.5872,955.00,51.60,46.00,81.11,110.00,4.00,0.03,29.82,1007.70,10.00,M,FEW,SCT,BKN,OVC,400.00,1700.00,4000.00,5500.00,-RA,M,M,M,M,M,M,51.60,KINS 151155Z AUTO 11004KT 10SM -RA FEW004 SCT017 BKN040 OVC055 11/08 A2982 RMK AO2 DZB1057E1059RAB1059 SLP077 P0003 60003 70003 T01090078 10142 20109 55005 $,M
RTS,2023-03-15 11:55,-119.8764,39.6682,1539.00,35.60,30.20,80.51,330.00,7.00,0.00,29.88,M,10.00,M,OVC,M,M,M,3600.00,M,M,M,M,M,M,M,M,M,M,29.17,KRTS 151155Z AUTO 33007KT 10SM OVC036 02/M01 A2988 RMK AO2,M
MEV,2023-03-15 11:55,-119.7500,38.9963,1441.42,37.40,26.60,64.70,0.00,0.00,0.00,29.85,M,10.00,M,FEW,M,M,M,3800.00,M,M,M,M,M,M,M,M,M,M,37.40,KMEV 151155Z AUTO 00000KT 10SM FEW038 03/M03 A2985 RMK AO2,M
BAM,2023-03-15 11:55,-116.8743,40.5990,1382.36,42.80,35.60,75.50,320.00,11.00,0.00,29.80,M,10.00,M,OVC,M,M,M,3500.00,M,M,M,M,M,M,M,M,M,M,36.11,KBAM 151155Z AUTO 32011KT 10SM OVC035 06/02 A2980 RMK AO1,M
HTH,2023-03-15 11:55,-118.6315,38.5448,1282.89,46.40,32.00,57.00,20.00,6.00,0.00,29.81,M,10.00,16.00,FEW,SCT,M,M,7000.00,8500.00,M,M,M,M,M,M,M,M,M,42.87,KHTH 151155Z AUTO 02006G16KT 10SM FEW070 SCT085 08/00 A2981 RMK A01,M
LSV,2023-03-15 11:55,-115.0343,36.2362,570.00,60.30,46.40,60.07,170.00,14.00,0.00,29.79,1007.70,10.00,M,SCT,BKN,M,M,7500.00,10000.00,M,M,M,M,M,M,M,M,M,60.30,KLSV 151155Z AUTO 17014KT 10SM SCT075 BKN100 16/08 A2979 RMK AO2 SLP077 T01570080 10160 20153 57013 $,M
RNO,2023-03-15 11:55,-119.7711,39.4839,1341.00,40.00,28.90,64.49,350.00,7.00,0.00,29.87,1009.80,10.00,M,SCT,M,M,M,6000.00,M,M,M,M,M,M,M,M,M,M,34.41,KRNO 151155Z 35007KT 10SM SCT060 04/M02 A2987 RMK AO2 SLP098 70021 T00441017 10083 20044 53028,M
TMT,2023-03-15 11:55,-117.1971,39.4643,1749.34,35.00,32.20,89.76,230.00,8.00,0.00,29.83,M,10.00,M,SCT,SCT,M,M,6000.00,7000.00,M,M,M,M,M,M,M,M,M,27.69,KTMT 151155Z AUTO 23008KT 10SM SCT060 SCT070 02/00 A2983 RMK AO2 70001 T00160001 10050 20015,M
WMC,2023-03-15 11:56,-117.8072,40.9019,1315.00,37.00,28.90,72.24,310.00,8.00,0.00,29.84,1009.20,10.00,M,FEW,BKN,OVC,M,2600.00,3500.00,9000.00,M,M,M,M,M,M,M,M,30.27,KWMC 151156Z AUTO 31008KT 10SM FEW026 BKN035 OVC090 03/M02 A2984 RMK AO2 SLP092 60001 70005 T00281017 10106 20022 51031,M
NFL,2023-03-15 11:56,-118.7010,39.4166,1199.00,41.00,34.00,75.94,350.00,8.00,0.00,29.85,1008.30,10.00,M,SCT,M,M,M,5500.00,M,M,M,M,M,M,M,M,M,M,35.20,KNFL 151156Z AUTO 35008KT 10SM SCT055 05/01 A2985 RMK AO2 SLP083 70006 T00500011 10094 20050 53022,M
TPH,2023-03-15 11:56,-117.0904,38.0505,1654.00,43.00,41.00,92.58,170.00,8.00,0.00,29.82,1007.70,10.00,M,BKN,BKN,M,M,1200.00,1700.00,M,M,M,M,M,M,M,M,M,37.66,KTPH 151156Z AUTO 17008KT 10SM BKN012 BKN017 06/05 A2982 RMK AO2 SLP077 60000 T00610050 10067 20061 58001,M
LAS,2023-03-15 11:56,-115.1634,36.0719,663.00,59.00,46.00,61.98,190.00,10.00,0.00,29.82,1008.60,10.00,M,FEW,SCT,OVC,M,4700.00,8000.00,10000.00,M,M,M,M,M,M,M,M,59.00,KLAS 151156Z 19010KT 10SM FEW047 SCT080 OVC100 15/08 A2982 RMK AO2 SLP086 TOPS OF MTNS OBSCURED DSNT W 70012 T01500078 10156 20144 55011 $,M
EKO,2023-03-15 11:56,-115.7860,40.8242,1367.00,39.00,33.00,78.86,0.00,0.00,M,29.76,1007.20,10.00,M,FEW,SCT,OVC,M,3799.00,5498.00,7500.00,M,M,M,M,M,M,M,M,39.00,METAR KEKO 151156Z 00000KT 10SM FEW038 SCT055 OVC075 04/01 A2976 RMK AO2 SLP072 60001 70031 T00390006 10056 20028 53011 TSNO FIBI,M
TPH,2023-03-15 12:11,-117.0904,38.0505,1654.00,43.00,41.00,92.58,190.00,8.00,0.00,29.81,M,10.00,M,SCT,M,M,M,1200.00,M,M,M,M,M,M,M,M,M,M,37.66,KTPH 151211Z AUTO 19008KT 10SM SCT012 06/05 A2981 RMK AO2 T00610050,M
BVU,2023-03-15 12:15,-114.8611,35.9475,671.00,57.20,48.20,71.83,170.00,10.00,0.00,29.86,M,10.00,18.00,SCT,OVC,M,M,4200.00,5000.00,M,M,M,M,M,M,M,M,M,57.20,KBVU 151215Z AUTO 17010G18KT 150V220 10SM SCT042 OVC050 14/09 A2986 RMK AO2,M
RTS,2023-03-15 12:15,-119.8764,39.6682,1539.00,35.60,30.20,80.51,360.00,6.00,0.00,29.89,M,10.00,M,FEW,OVC,M,M,2600.00,3600.00,M,M,M,M,M,M,M,M,M,29.87,KRTS 151215Z AUTO 36006KT 10SM FEW026 OVC036 02/M01 A2989 RMK AO2,M
MEV,2023-03-15 12:15,-119.7500,38.9963,1441.42,37.40,24.80,60.04,320.00,3.00,0.00,29.86,M,10.00,M,FEW,M,M,M,4100.00,M,M,M,M,M,M,M,M,M,M,34.86,KMEV 151215Z AUTO 32003KT 10SM FEW041 03/M04 A2986 RMK AO2,M
BAM,2023-03-15 12:15,-116.8743,40.5990,1382.36,37.40,35.60,93.14,340.00,14.00,0.00,29.83,M,7.00,19.00,SCT,SCT,OVC,M,2100.00,2700.00,3300.00,M,M,M,M,M,M,M,M,28.12,KBAM 151215Z AUTO 34014G19KT 7SM SCT021 SCT027 OVC033 03/02 A2983 RMK AO1,M
HTH,2023-03-15 12:15,-118.6315,38.5448,1282.89,44.60,33.80,65.61,300.00,4.00,0.00,29.82,M,10.00,M,FEW,SCT,M,M,7500.00,8500.00,M,M,M,M,M,M,M,M,M,42.13,KHTH 151215Z AUTO 30004KT 10SM FEW075 SCT085 07/01 A2982 RMK A01,M
TMT,2023-03-15 12:15,-117.1971,39.4643,1749.34,34.20,32.00,91.55,230.00,7.00,0.00,29.83,M,10.00,M,SCT,M,M,M,5000.00,M,M,M,M,M,M,M,M,M,M,27.46,KTMT 151215Z AUTO 23007KT 10SM SCT050 01/00 A2983 RMK AO2 T00120000,M
LSV,2023-03-15 12:16,-115.0343,36.2362,570.00,60.80,48.20,63.15,170.00,16.00,0.00,29.78,1007.40,10.00,M,FEW,BKN,M,M,5000.00,6500.00,M,M,-RA,M,M,M,M,M,M,60.80,KLSV 151216Z AUTO 17016KT 10SM -RA FEW050 BKN065 16/09 A2978 RMK AO2 RAB16 SLP074 $,M
INS,2023-03-15 12:25,-115.6733,36.5872,955.00,51.80,46.40,81.74,150.00,5.00,0.00,29.82,1007.70,10.00,M,FEW,SCT,SCT,BKN,400.00,900.00,1300.00,2400.00,-RA,M,M,M,M,M,M,51.80,KINS 151225Z AUTO 15005KT 10SM -RA FEW004 SCT009 SCT013 BKN024 BKN033 OVC043 11/08 A2982 RMK AO2 RAE1157DZB1157E03RAB03E13DZB13E19RAB19 BKN024 V SCT SLP077 $,M
BVU,2023-03-15 12:35,-114.8611,35.9475,671.00,55.40,48.20,76.66,180.00,13.00,0.00,29.86,M,10.00,18.00,FEW,SCT,BKN,M,2600.00,3800.00,4400.00,M,M,M,M,M,M,M,M,55.40,KBVU 151235Z AUTO 18013G18KT 10SM FEW026 SCT038 BKN044 13/09 A2986 RMK AO2,M
RTS,2023-03-15 12:35,-119.8764,39.6682,1539.00,35.60,32.00,86.59,350.00,12.00,0.00,29.90,M,10.00,M,BKN,OVC,M,M,2700.00,3500.00,M,M,M,M,M,M,M,M,M,26.58,KRTS 151235Z AUTO 35012KT 10SM BKN027 OVC035 02/M00 A2990 RMK AO2,M
MEV,2023-03-15 12:35,-119.7500,38.9963,1441.42,39.20,26.60,60.29,350.00,6.00,0.00,29.86,M,10.00,M,FEW,FEW,M,M,3100.00,4300.00,M,M,M,M,M,M,M,M,M,34.20,KMEV 151235Z AUTO 35006KT 10SM FEW031 FEW043 04/M03 A2986 RMK AO2,M
BAM,2023-03-15 12:35,-116.8743,40.5990,1382.36,37.40,35.60,93.14,340.00,12.00,0.00,29.84,M,10.00,15.00,SCT,BKN,OVC,M,1500.00,3000.00,5000.00,M,M,M,M,M,M,M,M,28.87,KBAM 151235Z AUTO 34012G15KT 10SM SCT015 BKN030 OVC050 03/02 A2984 RMK AO1,M
HTH,2023-03-15 12:35,-118.6315,38.5448,1282.89,42.80,35.60,75.50,220.00,3.00,0.00,29.85,M,10.00,M,FEW,BKN,M,M,7500.00,8500.00,M,M,M,M,M,M,M,M,M,41.03,KHTH 151235Z AUTO 22003KT 10SM FEW075 BKN085 06/02 A2985 RMK A01,M
TMT,2023-03-15 12:35,-117.1971,39.4643,1749.34,33.40,31.10,91.15,300.00,4.00,0.00,29.85,M,10.00,M,SCT,M,M,M,5000.00,M,M,M,M,M,M,M,M,M,M,29.06,KTMT 151235Z AUTO 30004KT 10SM SCT050 01/00 A2985 RMK AO2 T00081005,M
LSV,2023-03-15 12:41,-115.0343,36.2362,570.00,59.00,48.20,67.33,170.00,18.00,0.00,29.79,1007.90,10.00,M,FEW,M,M,M,5000.00,M,M,M,M,M,M,M,M,M,M,59.00,KLSV 151241Z AUTO 17018KT 10SM FEW050 15/09 A2979 RMK AO2 RAB16E41 SLP079 $,M
LSV,2023-03-15 12:48,-115.0343,36.2362,570.00,57.20,50.00,76.82,180.00,18.00,0.00,29.79,1008.00,10.00,M,CLR,M,M,M,M,M,M,M,-RA,M,M,M,M,M,M,57.20,KLSV 151248Z AUTO 18018KT 10SM -RA CLR 14/10 A2979 RMK AO2 RAB16E41RAB48 SLP080 $,M
P68,2023-03-15 12:53,-116.0056,39.6014,1993.00,38.00,32.00,79.08,260.00,11.00,0.00,29.80,1006.90,M,18.00,M,M,M,M,M,M,M,M,M,M,M,M,M,M,M,29.92,KP68 151253Z AUTO 26011G18KT 03/00 A2980 RMK AO1 SLP069 T00330000 $,M
DRA,2023-03-15 12:53,-116.0278,36.6206,1009.00,50.00,46.00,86.06,200.00,13.00,0.02,29.82,1007.70,10.00,23.00,FEW,OVC,M,M,4100.00,6000.00,M,M,-RA,M,M,M,33.00,210.00,2023-03-15 12:20,50.00,KDRA 151253Z AUTO 20013G23KT 10SM -RA FEW041 OVC060 10/08 A2982 RMK AO2 PK WND 21033/1220 SLP077 P0002 T01000078,M
ELY,2023-03-15 12:53,-114.8453,39.2950,1909.00,37.00,32.00,81.93,290.00,6.00,0.00,29.79,1006.70,10.00,M,SCT,BKN,OVC,M,3300.00,4400.00,11000.00,M,M,M,M,M,M,M,M,31.55,KELY 151253Z AUTO 29006KT 10SM SCT033 BKN044 OVC110 03/00 A2979 RMK AO2 SLP067 T00280000,M
VGT,2023-03-15 12:53,-115.1933,36.2111,667.00,60.00,45.00,57.37,190.00,12.00,T,29.80,1009.90,10.00,M,BKN,OVC,M,M,7500.00,9000.00,M,M,M,M,M,M,M,M,M,60.10,KVGT 151253Z 19012KT 10SM BKN075 OVC090 16/07 A2980 RMK AO2 RAB03E18 SLP099 P0000 T01560072,M
LOL,2023-03-15 12:53,-118.5701,40.0684,1192.43,39.00,30.00,69.85,M,3.00,0.00,29.88,1011.00,10.00,M,FEW,M,M,M,6000.00,M,M,M,M,M,M,M,M,M,M,36.69,KLOL 151253Z AUTO VRB03KT 10SM FEW060 04/M01 A2988 RMK AO2 SLP110 T00391011,M
BVU,2023-03-15 12:55,-114.8611,35.9475,671.00,55.40,50.00,81.99,230.00,8.00,0.00,29.86,M,9.00,15.00,BKN,BKN,OVC,M,3600.00,4200.00,5500.00,M,-RA,M,M,M,M,M,M,55.40,KBVU 151255Z AUTO 23008G15KT 9SM -RA BKN036 BKN042 OVC055 13/10 A2986 RMK AO2,M
RNO,2023-03-15 12:55,-119.7711,39.4839,1341.00,39.00,32.00,75.75,350.00,12.00,0.00,29.88,1010.30,10.00,M,SCT,M,M,M,4900.00,M,M,M,M,M,M,M,M,M,M,30.91,KRNO 151255Z 35012KT 10SM SCT049 04/00 A2988 RMK AO2 SLP103 T00390000,M
RTS,2023-03-15 12:55,-119.8764,39.6682,1539.00,33.80,28.40,80.36,340.00,14.00,0.00,29.91,M,10.00,M,FEW,SCT,OVC,M,2700.00,3600.00,4700.00,M,M,M,M,M,M,M,M,23.48,KRTS 151255Z AUTO 34014KT 10SM FEW027 SCT036 OVC047 01/M02 A2991 RMK AO2,M
MEV,2023-03-15 12:55,-119.7500,38.9963,1441.42,37.40,26.60,64.70,0.00,0.00,0.00,29.87,M,10.00,M,FEW,M,M,M,4200.00,M,M,M,M,M,M,M,M,M,M,37.40,KMEV 151255Z AUTO 00000KT 10SM FEW042 03/M03 A2987 RMK AO2,M
BAM,2023-03-15 12:55,-116.8743,40.5990,1382.36,37.40,33.80,86.69,340.00,11.00,0.00,29.85,M,10.00,M,SCT,BKN,OVC,M,2900.00,5500.00,7000.00,M,M,M,M,M,M,M,M,29.29,KBAM 151255Z AUTO 34011KT 10SM SCT029 BKN055 OVC070 03/01 A2985 RMK AO1,M
HTH,2023-03-15 12:55,-118.6315,38.5448,1282.89,44.60,33.80,65.61,340.00,8.00,0.00,29.85,M,10.00,15.00,SCT,BKN,BKN,M,7000.00,8000.00,8500.00,M,M,M,M,M,M,M,M,39.63,KHTH 151255Z AUTO 34008G15KT 10SM SCT070 BKN080 BKN085 07/01 A2985 RMK A01,M
TMT,2023-03-15 12:55,-117.1971,39.4643,1749.34,32.50,30.90,93.74,280.00,4.00,0.00,29.86,M,10.00,M,BKN,M,M,M,6000.00,M,M,M,M,M,M,M,M,M,M,28.00,KTMT 151255Z AUTO 28004KT 10SM BKN060 00/M01 A2986 RMK AO2 T00031006,M
LSV,2023-03-15 12:55,-115.0343,36.2362,570.00,57.60,49.60,74.61,180.00,17.00,T,29.79,1008.00,10.00,M,FEW,SCT,M,M,3900.00,4900.00,M,M,-RA,M,M,M,M,M,M,57.60,KLSV 151255Z AUTO 18017KT 10SM -RA FEW039 SCT049 14/10 A2979 RMK AO2 RAB16E41RAB48 SLP080 P0000 T01420098 $,M
INS,2023-03-15 12:55,-115.6733,36.5872,955.00,51.00,47.70,88.09,0.00,0.00,0.02,29.82,1007.70,10.00,M,FEW,SCT,SCT,BKN,400.00,1000.00,1600.00,2200.00,-RA,M,M,M,M,M,M,51.10,KINS 151255Z AUTO 00000KT 10SM -RA FEW004 SCT010 SCT016 BKN022 BKN028 OVC043 11/09 A2982 RMK AO2 RAE1157DZB1157E03RAB03E13DZB13E19RAB19 SLP077 P0002 T01060087 $,M
WMC,2023-03-15 12:56,-117.8072,40.9019,1315.00,37.00,27.00,66.82,360.00,6.00,0.00,29.88,1010.60,10.00,M,OVC,M,M,M,3800.00,M,M,M,M,M,M,M,M,M,M,31.55,KWMC 151256Z AUTO 36006KT 10SM OVC038 03/M03 A2988 RMK AO2 SLP106 T00281028,M
EKO,2023-03-15 12:56,-115.7860,40.8242,1367.00,38.00,32.00,78.77,270.00,8.94,M,29.79,1008.40,10.00,15.94,FEW,OVC,M,M,2598.00,3398.00,M,M,M,M,M,M,M,M,M,31.00,METAR KEKO 151256Z 27009G16KT 10SM FEW026 OVC034 03/00 A2979 RMK AO2 SLP084 T00330000 TSNO FIBI,M
NFL,2023-03-15 12:56,-118.7010,39.4166,1199.00,39.00,33.00,79.17,20.00,5.00,0.00,29.89,1009.50,10.00,M,BKN,M,M,M,5500.00,M,M,M,M,M,M,M,M,M,M,34.71,KNFL 151256Z AUTO 02005KT 10SM BKN055 04/01 A2989 RMK AO2 SLP095 T00390006,M
LAS,2023-03-15 12:56,-115.1634,36.0719,663.00,58.00,45.00,62.07,210.00,11.00,0.00,29.82,1008.90,10.00,22.00,FEW,OVC,M,M,4700.00,8000.00,M,M,M,M,M,M,M,M,M,57.90,KLAS 151256Z 21011G22KT 10SM FEW047 OVC080 14/07 A2982 RMK AO2 SLP089 T01440072 $,M
TPH,2023-03-15 12:56,-117.0904,38.0505,1654.00,42.00,40.00,91.84,180.00,4.00,0.00,29.83,1008.20,10.00,M,CLR,M,M,M,M,M,M,M,M,M,M,M,M,M,M,39.21,KTPH 151256Z AUTO 18004KT 10SM CLR 06/04 A2983 RMK AO2 SLP082 T00560044,M
LSV,2023-03-15 12:59,-115.0343,36.2362,570.00,57.20,50.00,76.82,180.00,18.00,0.00,29.79,1008.00,10.00,M,FEW,SCT,M,M,3900.00,4900.00,M,M,M,M,M,M,M,M,M,57.20,KLSV 151259Z AUTO 18018KT 10SM FEW039 SCT049 14/10 A2979 RMK AO2 RAE59 SLP080 $,M
LSV,2023-03-15 13:00,-115.0343,36.2362,570.00,57.20,50.00,76.82,180.00,17.00,0.00,29.79,1008.00,10.00,M,FEW,SCT,M,M,3900.00,4900.00,M,M,-RA,M,M,M,M,M,M,57.20,KLSV 151300Z AUTO 18017KT 10SM -RA FEW039 SCT049 14/10 A2979 RMK AO2 RAE1259RAB00 SLP080 $,M
INS,2023-03-15 13:05,-115.6733,36.5872,955.00,51.80,48.20,87.47,10.00,4.00,0.00,29.82,1007.70,10.00,M,BKN,BKN,BKN,BKN,400.00,1600.00,2100.00,2700.00,-RA,M,M,M,M,M,M,51.80,KINS 151305Z AUTO 01004KT 10SM -RA BKN004 BKN016 BKN021 BKN027 BKN033 11/09 A2982 RMK AO2 SLP077 $,M
LSV,2023-03-15 13:11,-115.0343,36.2362,570.00,57.20,50.00,76.82,180.00,18.00,0.00,29.79,1008.00,10.00,M,FEW,FEW,M,M,3700.00,4900.00,M,M,M,M,M,M,M,M,M,57.20,KLSV 151311Z AUTO 18018KT 10SM FEW037 FEW049 14/10 A2979 RMK AO2 RAE1259RAB00E11 SLP080 $,M
BVU,2023-03-15 13:15,-114.8611,35.9475,671.00,53.60,50.00,87.56,0.00,0.00,0.00,29.86,M,10.00,M,BKN,OVC,M,M,3500.00,4100.00,M,M,-RA,M,M,M,M,M,M,53.60,KBVU 151315Z AUTO 00000KT 10SM -RA BKN035 OVC041 12/10 A2986 RMK AO2,M
RTS,2023-03-15 13:15,-119.8764,39.6682,1539.00,33.80,28.40,80.36,350.00,11.00,0.00,29.91,M,10.00,16.00,SCT,M,M,M,4700.00,M,M,M,M,M,M,M,M,M,M,24.74,KRTS 151315Z AUTO 35011G16KT 10SM SCT047 01/M02 A2991 RMK AO2,M
MEV,2023-03-15 13:15,-119.7500,38.9963,1441.42,35.60,26.60,69.46,70.00,6.00,0.00,29.88,M,10.00,M,FEW,M,M,M,4200.00,M,M,M,M,M,M,M,M,M,M,29.87,KMEV 151315Z AUTO 07006KT 10SM FEW042 02/M03 A2988 RMK AO2,M
BAM,2023-03-15 13:15,-116.8743,40.5990,1382.36,37.40,32.00,80.65,330.00,18.00,0.00,29.86,M,10.00,24.00,BKN,BKN,OVC,M,4600.00,6000.00,7000.00,M,M,M,M,M,M,M,M,26.86,KBAM 151315Z AUTO 33018G24KT 10SM BKN046 BKN060 OVC070 03/00 A2986 RMK AO1,M
HTH,2023-03-15 13:15,-118.6315,38.5448,1282.89,44.60,32.00,61.03,320.00,16.00,0.00,29.86,M,10.00,M,SCT,OVC,M,M,5500.00,7000.00,M,M,M,M,M,M,M,M,M,36.84,KHTH 151315Z AUTO 32016KT 10SM SCT055 OVC070 07/00 A2986 RMK A01,M
TMT,2023-03-15 13:15,-117.1971,39.4643,1749.34,32.70,29.30,87.14,280.00,7.00,0.00,29.86,M,10.00,M,SCT,M,M,M,6000.00,M,M,M,M,M,M,M,M,M,M,25.63,KTMT 151315Z AUTO 28007KT 10SM SCT060 00/M01 A2986 RMK AO2 T00041015,M
LSV,2023-03-15 13:15,-115.0343,36.2362,570.00,57.20,50.00,76.82,180.00,19.00,0.00,29.79,1008.00,10.00,M,FEW,FEW,M,M,3800.00,4900.00,M,M,-RA,M,M,M,M,M,M,57.20,KLSV 151315Z AUTO 18019KT 10SM -RA FEW038 FEW049 14/10 A2979 RMK AO2 RAE1259RAB00E11RAB15 SLP080 $,M
LSV,2023-03-15 13:23,-115.0343,36.2362,570.00,55.40,50.00,81.99,170.00,15.00,0.00,29.80,1008.30,10.00,M,FEW,M,M,M,3800.00,M,M,M,M,M,M,M,M,M,M,55.40,KLSV 151323Z AUTO 17015KT 10SM FEW038 13/10 A2980 RMK AO2 RAE1259RAB00E11RAB15E23 SLP083 $,M
INS,2023-03-15 13:30,-115.6733,36.5872,955.00,50.00,50.00,100.00,340.00,4.00,0.00,29.82,1007.90,10.00,M,SCT,SCT,BKN,BKN,400.00,1400.00,2300.00,3300.00,-RA,M,M,M,M,M,M,50.00,KINS 151330Z AUTO 34004KT 10SM -RA SCT004 SCT014 BKN023 BKN033 OVC045 10/10 A2982 RMK AO2 BKN023 V OVC SLP079 $,M
BVU,2023-03-15 13:35,-114.8611,35.9475,671.00,53.60,50.00,87.56,180.00,8.00,0.00,29.86,M,8.00,M,SCT,BKN,OVC,M,3100.00,3700.00,5500.00,M,-RA,M,M,M,M,M,M,53.60,KBVU 151335Z AUTO 18008KT 8SM -RA SCT031 BKN037 OVC055 12/10 A2986 RMK AO2,M
INS,2023-03-15 13:35,-115.6733,36.5872,955.00,51.80,48.20,87.47,360.00,5.00,0.00,29.82,1007.70,10.00,M,SCT,SCT,BKN,BKN,400.00,1300.00,2500.00,3600.00,M,M,M,M,M,M,M,51.80,KINS 151335Z AUTO 36005KT 10SM SCT004 SCT013 BKN025 BKN036 OVC046 11/09 A2982 RMK AO2 SLP077 $,M
RTS,2023-03-15 13:35,-119.8764,39.6682,1539.00,32.00,28.40,86.39,350.00,10.00,0.00,29.92,M,10.00,15.00,CLR,M,M,M,M,M,M,M,M,M,M,M,M,M,M,22.97,KRTS 151335Z AUTO 35010G15KT 10SM CLR 00/M02 A2992 RMK AO2,M
MEV,2023-03-15 13:35,-119.7500,38.9963,1441.42,32.00,26.60,80.22,70.00,5.00,0.00,29.88,M,10.00,M,FEW,M,M,M,4400.00,M,M,M,M,M,M,M,M,M,M,26.40,KMEV 151335Z AUTO 07005KT 10SM FEW044 00/M03 A2988 RMK AO2,M
BAM,2023-03-15 13:35,-116.8743,40.5990,1382.36,37.40,32.00,80.65,310.00,17.00,0.00,29.88,M,10.00,23.00,BKN,OVC,M,M,4600.00,8500.00,M,M,M,M,M,M,M,M,M,27.15,KBAM 151335Z AUTO 31017G23KT 10SM BKN046 OVC085 03/00 A2988 RMK AO1,M
HTH,2023-03-15 13:35,-118.6315,38.5448,1282.89,42.80,32.00,65.38,320.00,15.00,0.00,29.87,M,10.00,20.00,SCT,BKN,M,M,5500.00,7000.00,M,M,M,M,M,M,M,M,M,34.78,KHTH 151335Z AUTO 32015G20KT 10SM SCT055 BKN070 06/00 A2987 RMK A01,M
TMT,2023-03-15 13:35,-117.1971,39.4643,1749.34,35.00,30.20,82.78,310.00,10.00,0.00,29.87,M,10.00,M,SCT,M,M,M,6000.00,M,M,M,M,M,M,M,M,M,M,26.60,KTMT 151335Z AUTO 31010KT 10SM SCT060 02/M01 A2987 RMK AO2 T00161010,M
INS,2023-03-15 13:36,-115.6733,36.5872,955.00,51.80,48.20,87.47,10.00,5.00,0.00,29.82,1007.70,10.00,M,FEW,SCT,SCT,BKN,400.00,1300.00,2400.00,3300.00,-RA,M,M,M,M,M,M,51.80,KINS 151336Z AUTO 01005KT 10SM -RA FEW004 SCT013 SCT024 BKN033 OVC046 11/09 A2982 RMK AO2 SLP077 $,M
NFL,2023-03-15 13:38,-118.7010,39.4166,1199.00,38.00,32.00,79.08,0.00,0.00,0.00,29.90,M,10.00,M,SCT,SCT,M,M,6000.00,9000.00,M,M,M,M,M,M,M,M,M,37.90,KNFL 151338Z 00000KT 10SM SCT060 SCT090 03/00 A2990 RMK AO2 T00330000,M
HTH,2023-03-15 13:50,-118.6315,38.5448,1282.89,42.80,32.00,65.38,320.00,16.00,0.00,29.88,M,10.00,22.00,FEW,M,M,M,5000.00,M,M,M,M,M,M,M,M,M,M,34.50,KHTH 151350Z AUTO 32016G22KT 10SM FEW050 06/00 A2988 RMK A01,M
ELY,2023-03-15 13:53,-114.8453,39.2950,1909.00,36.00,32.00,85.23,190.00,9.00,0.00,29.80,1007.30,10.00,M,BKN,OVC,M,M,4300.00,11000.00,M,M,M,M,M,M,M,M,M,28.49,KELY 151353Z AUTO 19009KT 10SM BKN043 OVC110 02/00 A2980 RMK AO2 SLP073 T00220000,M
VGT,2023-03-15 13:53,-115.1933,36.2111,667.00,59.00,43.00,55.28,180.00,13.00,T,29.80,1009.80,10.00,M,BKN,OVC,M,M,9000.00,11000.00,M,M,M,M,M,M,M,M,M,59.00,KVGT 151353Z 18013KT 10SM BKN090 OVC110 15/06 A2980 RMK AO2 RAB00E12 SLP098 P0000 T01500061,M
LOL,2023-03-15 13:53,-118.5701,40.0684,1192.43,41.00,28.00,59.55,20.00,9.00,0.00,29.91,1012.30,10.00,15.00,CLR,M,M,M,M,M,M,M,M,M,M,M,M,M,M,34.70,KLOL 151353Z AUTO 02009G15KT 10SM CLR 05/M02 A2991 RMK AO2 SLP123 T00501022,M
P68,2023-03-15 13:53,-116.0056,39.6014,1993.00,36.00,33.00,89.09,250.00,5.00,0.01,29.83,1007.90,M,M,M,M,M,M,M,M,M,M,M,M,M,M,M,M,M,31.15,KP68 151353Z AUTO 25005KT 02/01 A2983 RMK AO1 SLP079 P0001 T00220006 $,M
DRA,2023-03-15 13:53,-116.0278,36.6206,1009.00,51.00,44.00,76.86,210.00,11.00,0.01,29.82,1007.50,10.00,23.00,BKN,OVC,M,M,3200.00,4000.00,M,M,M,M,M,M,28.00,190.00,2023-03-15 13:02,51.10,KDRA 151353Z AUTO 21011G23KT 10SM BKN032 OVC040 11/07 A2982 RMK AO2 PK WND 19028/1302 RAE21 SLP075 P0001 T01060067,M
BVU,2023-03-15 13:55,-114.8611,35.9475,671.00,53.60,50.00,87.56,170.00,9.00,0.00,29.86,M,9.00,M,FEW,SCT,OVC,M,3300.00,5000.00,6500.00,M,-RA,M,M,M,M,M,M,53.60,KBVU 151355Z AUTO 17009KT 9SM -RA FEW033 SCT050 OVC065 12/10 A2986 RMK AO2,M
INS,2023-03-15 13:55,-115.6733,36.5872,955.00,51.00,48.70,92.14,30.00,6.00,0.02,29.82,1007.70,10.00,M,FEW,SCT,M,M,3300.00,4600.00,M,M,-RA,M,M,M,M,M,M,50.90,KINS 151355Z AUTO 03006KT 10SM -RA FEW033 SCT046 11/09 A2982 RMK AO2 RAE39DZB39E42RAB42 SLP077 P0002 T01050093 $,M
RNO,2023-03-15 13:55,-119.7711,39.4839,1341.00,37.00,30.00,75.56,20.00,10.00,0.00,29.92,1011.90,10.00,M,FEW,SCT,M,M,2000.00,6000.00,M,M,M,M,M,M,M,M,M,29.24,KRNO 151355Z 02010KT 10SM FEW020 SCT060 03/M01 A2992 RMK AO2 SLP119 T00281011,M
RTS,2023-03-15 13:55,-119.8764,39.6682,1539.00,32.00,28.40,86.39,10.00,11.00,0.00,29.93,M,10.00,M,BKN,M,M,M,2200.00,M,M,M,M,M,M,M,M,M,M,22.47,KRTS 151355Z AUTO 01011KT 10SM BKN022 00/M02 A2993 RMK AO2,M
MEV,2023-03-15 13:55,-119.7500,38.9963,1441.42,32.00,28.40,86.39,70.00,3.00,0.00,29.89,M,10.00,M,CLR,M,M,M,M,M,M,M,M,M,M,M,M,M,M,28.69,KMEV 151355Z AUTO 07003KT 10SM CLR 00/M02 A2989 RMK AO2,M
BAM,2023-03-15 13:55,-116.8743,40.5990,1382.36,39.20,32.00,75.16,310.00,12.00,0.00,29.89,M,10.00,24.00,SCT,OVC,M,M,3700.00,4400.00,M,M,M,M,M,M,M,M,M,31.17,KBAM 151355Z AUTO 31012G24KT 10SM SCT037 OVC044 04/00 A2989 RMK AO1,M
TMT,2023-03-15 13:55,-117.1971,39.4643,1749.34,34.20,31.60,90.09,300.00,10.00,0.00,29.89,M,10.00,M,SCT,M,M,M,6000.00,M,M,M,M,M,M,M,M,M,M,25.73,KTMT 151355Z AUTO 30010KT 10SM SCT060 01/00 A2989 RMK AO2 T00121002,M
LSV,2023-03-15 13:55,-115.0343,36.2362,570.00,55.80,53.40,91.62,170.00,14.00,T,29.79,1008.00,10.00,M,FEW,BKN,M,M,7500.00,20000.00,M,M,M,M,M,M,M,M,M,55.80,KLSV 151355Z COR AUTO 17014KT 10SM FEW075 BKN200 13/12 A2979 RMK AO2 RAE1259RAB00E11RAB15E23 SLP080 P0000 T01320119 $ COR 1411,M
WMC,2023-03-15 13:56,-117.8072,40.9019,1315.00,36.00,27.00,69.51,310.00,4.00,0.00,29.91,1011.80,10.00,M,OVC,M,M,M,4100.00,M,M,M,M,M,M,M,M,M,M,32.09,KWMC 151356Z AUTO 31004KT 10SM OVC041 02/M03 A2991 RMK AO2 SLP118 T00221028,M
NFL,2023-03-15 13:56,-118.7010,39.4166,1199.00,37.00,32.00,81.93,350.00,3.00,0.00,29.92,1010.40,10.00,M,FEW,SCT,SCT,M,4000.00,6000.00,9000.00,M,M,M,M,M,M,M,M,34.40,KNFL 151356Z 35003KT 10SM FEW040 SCT060 SCT090 03/00 A2992 RMK AO2 SLP104 T00280000,M
LAS,2023-03-15 13:56,-115.1634,36.0719,663.00,57.00,45.00,64.12,200.00,8.00,T,29.83,1008.90,10.00,17.00,SCT,BKN,OVC,M,5000.00,8000.00,11000.00,M,M,M,M,M,M,M,M,57.00,KLAS 151356Z 20008G17KT 10SM SCT050 BKN080 OVC110 14/07 A2983 RMK AO2 RAB12E22 SLP089 P0000 T01390072 $,M
EKO,2023-03-15 13:56,-115.7860,40.8242,1367.00,35.00,33.00,92.32,200.00,8.94,M,29.84,1010.20,10.00,M,FEW,OVC,M,M,1601.00,4399.00,M,M,M,M,M,M,M,M,M,27.28,METAR KEKO 151356Z 20009KT 10SM FEW016 OVC044 02/01 A2984 RMK AO2 RAB13E14UPB14E54 SLP102 P0000 T00170006 TSNO FIBI,M
TPH,2023-03-15 13:56,-117.0904,38.0505,1654.00,40.00,38.00,92.48,0.00,0.00,0.00,29.84,1008.90,10.00,M,CLR,M,M,M,M,M,M,M,M,M,M,M,M,M,M,39.90,KTPH 151356Z AUTO 00000KT 10SM CLR 04/03 A2984 RMK AO2 SLP089 T00440033,M
BVU,2023-03-15 14:15,-114.8611,35.9475,671.00,53.60,50.00,87.56,170.00,8.00,0.00,29.86,M,10.00,M,FEW,SCT,OVC,M,3800.00,5000.00,7500.00,M,M,M,M,M,M,M,M,53.60,KBVU 151415Z AUTO 17008KT 10SM FEW038 SCT050 OVC075 12/10 A2986 RMK AO2,M
RTS,2023-03-15 14:15,-119.8764,39.6682,1539.00,33.80,28.40,80.36,340.00,9.00,0.00,29.94,M,10.00,M,OVC,M,M,M,2000.00,M,M,M,M,M,M,M,M,M,M,25.75,KRTS 151415Z AUTO 34009KT 10SM OVC020 01/M02 A2994 RMK AO2,M
MEV,2023-03-15 14:15,-119.7500,38.9963,1441.42,32.00,28.40,86.39,30.00,6.00,0.00,29.90,M,10.00,M,CLR,M,M,M,M,M,M,M,M,M,M,M,M,M,M,25.53,KMEV 151415Z AUTO 03006KT 10SM CLR 00/M02 A2990 RMK AO2,M
BAM,2023-03-15 14:15,-116.8743,40.5990,1382.36,37.40,32.00,80.65,340.00,12.00,0.00,29.91,M,10.00,28.00,OVC,M,M,M,4000.00,M,M,M,M,M,M,M,M,M,M,28.87,KBAM 151415Z AUTO 34012G28KT 10SM OVC040 03/00 A2991 RMK AO1,M
HTH,2023-03-15 14:15,-118.6315,38.5448,1282.89,41.00,32.00,70.08,330.00,14.00,0.00,29.89,M,10.00,22.00,CLR,M,M,M,M,M,M,M,M,M,M,M,M,M,M,32.76,KHTH 151415Z AUTO 33014G22KT 10SM CLR 05/00 A2989 RMK A01,M
TMT,2023-03-15 14:15,-117.1971,39.4643,1749.34,34.50,31.10,87.23,300.00,7.00,0.00,29.90,M,10.00,M,SCT,BKN,BKN,M,2000.00,6000.00,7000.00,M,M,M,M,M,M,M,M,27.83,KTMT 151415Z AUTO 30007KT 10SM SCT020 BKN060 BKN070 01/00 A2990 RMK AO2 T00141005,M
TPH,2023-03-15 14:26,-117.0904,38.0505,1654.00,41.00,39.00,92.52,20.00,5.00,0.00,29.83,M,10.00,M,SCT,BKN,OVC,M,1500.00,2700.00,3400.00,M,M,M,M,M,M,M,M,37.08,KTPH 151426Z AUTO 02005KT 10SM SCT015 BKN027 OVC034 05/04 A2983 RMK AO2 T00500039,M
BVU,2023-03-15 14:35,-114.8611,35.9475,671.00,53.60,50.00,87.56,140.00,11.00,0.00,29.85,M,10.00,M,SCT,BKN,OVC,M,3500.00,4900.00,8500.00,M,M,M,M,M,M,M,M,53.60,KBVU 151435Z AUTO 14011KT 10SM SCT035 BKN049 OVC085 12/10 A2985 RMK AO2,M
RTS,2023-03-15 14:35,-119.8764,39.6682,1539.00,33.80,26.60,74.63,350.00,10.00,0.00,29.94,M,10.00,M,OVC,M,M,M,2100.00,M,M,M,M,M,M,M,M,M,M,25.23,KRTS 151435Z AUTO 35010KT 10SM OVC021 01/M03 A2994 RMK AO2,M
MEV,2023-03-15 14:35,-119.7500,38.9963,1441.42,33.80,28.40,80.36,350.00,10.00,0.00,29.91,M,10.00,M,CLR,M,M,M,M,M,M,M,M,M,M,M,M,M,M,25.23,KMEV 151435Z AUTO 35010KT 10SM CLR 01/M02 A2991 RMK AO2,M
BAM,2023-03-15 14:35,-116.8743,40.5990,1382.36,37.40,32.00,80.65,360.00,7.00,0.00,29.91,M,10.00,17.00,BKN,OVC,M,M,4500.00,5500.00,M,M,M,M,M,M,M,M,M,31.36,KBAM 151435Z AUTO 36007G17KT 10SM BKN045 OVC055 03/00 A2991 RMK AO1,M
HTH,2023-03-15 14:35,-118.6315,38.5448,1282.89,41.00,32.00,70.08,320.00,16.00,0.00,29.90,M,10.00,22.00,CLR,M,M,M,M,M,M,M,M,M,M,M,M,M,M,32.15,KHTH 151435Z AUTO 32016G22KT 10SM CLR 05/00 A2990 RMK A01,M
TMT,2023-03-15 14:35,-117.1971,39.4643,1749.34,32.50,30.00,90.38,140.00,4.00,0.00,29.90,M,10.00,M,SCT,M,M,M,6000.00,M,M,M,M,M,M,M,M,M,M,28.00,KTMT 151435Z AUTO 14004KT 10SM SCT060 00/M01 A2990 RMK AO2 T00031011,M
EKO,2023-03-15 14:41,-115.7860,40.8242,1367.00,35.00,32.00,88.68,270.00,7.00,M,29.86,M,9.00,M,SCT,BKN,OVC,M,1200.00,2099.00,7500.00,M,UP 41,M,M,M,M,M,M,28.44,SPECI KEKO 151441Z 27007KT 9SM UP SCT012 BKN021 OVC075 02/00 A2986 RMK AO2 UPB36 P0000 T00170000 TSNO FIBI,M
P68,2023-03-15 14:53,-116.0056,39.6014,1993.00,36.00,30.90,81.53,310.00,7.00,0.00,29.86,1009.40,M,M,M,M,M,M,M,M,M,M,M,M,M,M,M,M,M,29.65,KP68 151453Z AUTO 31007KT 02/M01 A2986 RMK AO1 SLP094 60001 T00221006 53024 $,M
ELY,2023-03-15 14:53,-114.8453,39.2950,1909.00,37.00,32.00,81.93,190.00,4.00,0.00,29.81,1007.40,10.00,M,FEW,M,M,M,4100.00,M,M,M,M,M,M,M,M,M,M,33.26,KELY 151453Z AUTO 19004KT 10SM FEW041 03/00 A2981 RMK AO2 SLP074 T00280000 51009,M
LOL,2023-03-15 14:53,-118.5701,40.0684,1192.43,37.00,30.00,75.56,100.00,3.00,0.00,29.93,1013.40,10.00,M,CLR,M,M,M,M,M,M,M,M,M,M,M,M,M,M,34.40,KLOL 151453Z AUTO 10003KT 10SM CLR 03/M01 A2993 RMK AO2 SLP134 T00281011 51025,M
DRA,2023-03-15 14:53,-116.0278,36.6206,1009.00,52.00,44.00,74.35,210.00,12.00,0.00,29.83,1007.70,10.00,18.00,OVC,M,M,M,2900.00,M,M,M,M,M,M,M,M,M,M,52.00,KDRA 151453Z AUTO 21012G18KT 10SM OVC029 11/07 A2983 RMK AO2 SLP077 60003 T01110067 51005,M
VGT,2023-03-15 14:53,-115.1933,36.2111,667.00,60.00,42.00,51.35,200.00,18.00,0.00,29.78,1009.30,10.00,29.00,SCT,M,M,M,11000.00,M,M,M,M,M,M,M,29.00,200.00,2023-03-15 14:44,60.10,KVGT 151453Z 20018G29KT 10SM SCT110 16/06 A2978 RMK AO2 PK WND 20029/1444 SLP093 60000 T01560056 58005,M
EKO,2023-03-15 14:54,-115.7860,40.8242,1367.00,35.60,32.00,86.59,250.00,6.03,M,29.87,M,10.00,M,FEW,SCT,OVC,M,1000.00,1801.00,3300.00,M,M,M,M,M,M,M,M,29.85,SPECI KEKO 151454Z 25006KT 10SM FEW010 SCT018 OVC033 02/00 A2987 RMK AO2 UPB36E51 P0000 I1000 TSNO FIBI,M
BVU,2023-03-15 14:55,-114.8611,35.9475,671.00,53.60,51.80,93.60,150.00,9.00,0.00,29.86,M,10.00,M,BKN,BKN,OVC,M,3400.00,4500.00,8500.00,M,M,M,M,M,M,M,M,53.60,KBVU 151455Z AUTO 15009KT 10SM BKN034 BKN045 OVC085 12/11 A2986 RMK AO2,M
RNO,2023-03-15 14:55,-119.7711,39.4839,1341.00,37.00,30.00,75.56,270.00,3.00,0.00,29.94,1012.60,10.00,M,SCT,M,M,M,3200.00,M,M,M,M,M,M,M,M,M,M,34.40,KRNO 151455Z 27003KT 10SM SCT032 03/M01 A2994 RMK AO2 SLP126 T00281011 53021,M
RTS,2023-03-15 14:55,-119.8764,39.6682,1539.00,33.80,26.60,74.63,30.00,5.00,0.00,29.95,M,10.00,11.00,OVC,M,M,M,2100.00,M,M,M,M,M,M,M,M,M,M,28.53,KRTS 151455Z AUTO 03005G11KT 10SM OVC021 01/M03 A2995 RMK AO2,M
MEV,2023-03-15 14:55,-119.7500,38.9963,1441.42,35.60,30.20,80.51,360.00,8.00,0.00,29.92,M,10.00,M,CLR,M,M,M,M,M,M,M,M,M,M,M,M,M,M,28.55,KMEV 151455Z AUTO 36008KT 10SM CLR 02/M01 A2992 RMK AO2,M
BAM,2023-03-15 14:55,-116.8743,40.5990,1382.36,37.40,32.00,80.65,350.00,11.00,0.00,29.92,M,10.00,16.00,OVC,M,M,M,4800.00,M,M,M,M,M,M,M,M,M,M,29.29,KBAM 151455Z AUTO 35011G16KT 10SM OVC048 03/00 A2992 RMK AO1,M
HTH,2023-03-15 14:55,-118.6315,38.5448,1282.89,41.00,33.80,75.33,330.00,15.00,0.00,29.91,M,10.00,21.00,CLR,M,M,M,M,M,M,M,M,M,M,M,M,M,M,32.45,KHTH 151455Z AUTO 33015G21KT 10SM CLR 05/01 A2991 RMK A01,M
TMT,2023-03-15 14:55,-117.1971,39.4643,1749.34,35.20,30.00,81.13,300.00,3.00,0.00,29.91,M,10.00,M,CLR,M,M,M,M,M,M,M,M,M,M,M,M,M,M,32.35,KTMT 151455Z AUTO 30003KT 10SM CLR 02/M01 A2991 RMK AO2 T00181011,M
INS,2023-03-15 14:55,-115.6733,36.5872,955.00,49.80,49.50,98.89,0.00,0.00,0.01,29.83,1008.20,10.00,M,FEW,SCT,OVC,M,4300.00,5000.00,6500.00,M,-RA,M,M,M,M,M,M,49.80,KINS 151455Z AUTO 00000KT 10SM -RA FEW043 SCT050 OVC065 10/10 A2983 RMK AO2 RAE35DZB35E43RAB43 SLP082 P0001 60005 T00990097 51006 $,M
LSV,2023-03-15 14:55,-115.0343,36.2362,570.00,56.80,51.00,81.19,180.00,15.00,0.00,29.78,1007.50,10.00,M,SCT,M,M,M,9500.00,M,M,M,M,M,M,M,M,M,M,56.80,KLSV 151455Z 18015KT 10SM SCT095 14/11 A2978 RMK AO2A SLP075 60000 T01380106 58002 $,M
TPH,2023-03-15 14:56,-117.0904,38.0505,1654.00,42.00,39.00,88.67,M,4.00,0.00,29.84,1008.90,10.00,M,SCT,BKN,OVC,M,2400.00,4600.00,6000.00,M,M,M,M,M,M,M,M,39.21,KTPH 151456Z AUTO VRB04KT 10SM SCT024 BKN046 OVC060 06/04 A2984 RMK AO2 SLP089 T00560039 51007,M
LAS,2023-03-15 14:56,-115.1634,36.0719,663.00,57.00,46.00,66.59,200.00,16.00,0.00,29.83,1009.00,10.00,26.00,FEW,BKN,BKN,BKN,800.00,5000.00,11000.00,25000.00,M,M,M,M,26.00,190.00,2023-03-15 14:48,57.00,KLAS 151456Z 20016G26KT 10SM FEW008 BKN050 BKN110 BKN250 14/08 A2983 RMK AO2 PK WND 19026/1448 SLP090 60000 T01390078 51003 $,M
EKO,2023-03-15 14:56,-115.7860,40.8242,1367.00,35.00,32.00,88.68,230.00,7.97,M,29.87,1011.40,10.00,M,FEW,SCT,OVC,M,1000.00,1801.00,3300.00,M,M,M,M,M,M,M,M,27.83,METAR KEKO 151456Z 23008KT 10SM FEW010 SCT018 OVC033 02/00 A2987 RMK AO2 UPB36E51 SLP114 P0000 60000 I1000 I3000 T00170000 52033 TSNO FIBI,M
NFL,2023-03-15 14:56,-118.7010,39.4166,1199.00,39.00,33.00,79.17,360.00,3.00,0.00,29.93,1010.70,10.00,M,FEW,SCT,M,M,4000.00,5500.00,M,M,M,M,M,M,M,M,M,36.69,KNFL 151456Z 36003KT 10SM FEW040 SCT055 04/01 A2993 RMK AO2 SLP107 T00390006 51024,M
WMC,2023-03-15 14:56,-117.8072,40.9019,1315.00,35.00,24.10,63.86,340.00,11.00,0.00,29.94,1013.00,10.00,15.00,OVC,M,M,M,4400.00,M,M,M,M,M,M,M,M,M,M,26.38,KWMC 151456Z AUTO 34011G15KT 10SM OVC044 02/M04 A2994 RMK AO2 SLP130 T00171044 51030,M
BVU,2023-03-15 15:15,-114.8611,35.9475,671.00,55.40,50.00,81.99,170.00,9.00,0.00,29.86,M,10.00,14.00,BKN,BKN,BKN,M,3500.00,8000.00,10000.00,M,M,M,M,M,M,M,M,55.40,KBVU 151515Z AUTO 17009G14KT 10SM BKN035 BKN080 BKN100 13/10 A2986 RMK AO2,M
RTS,2023-03-15 15:15,-119.8764,39.6682,1539.00,33.80,26.60,74.63,350.00,3.00,0.00,29.96,M,10.00,M,OVC,M,M,M,2100.00,M,M,M,M,M,M,M,M,M,M,30.75,KRTS 151515Z AUTO 35003KT 10SM OVC021 01/M03 A2996 RMK AO2,M
MEV,2023-03-15 15:15,-119.7500,38.9963,1441.42,35.60,30.20,80.51,340.00,8.00,0.00,29.92,M,10.00,M,CLR,M,M,M,M,M,M,M,M,M,M,M,M,M,M,28.55,KMEV 151515Z AUTO 34008KT 10SM CLR 02/M01 A2992 RMK AO2,M
BAM,2023-03-15 15:15,-116.8743,40.5990,1382.36,37.40,32.00,80.65,350.00,8.00,0.00,29.93,M,10.00,15.00,BKN,BKN,M,M,4800.00,5500.00,M,M,M,M,M,M,M,M,M,30.76,KBAM 151515Z AUTO 35008G15KT 10SM BKN048 BKN055 03/00 A2993 RMK AO1,M
HTH,2023-03-15 15:15,-118.6315,38.5448,1282.89,41.00,33.80,75.33,330.00,13.00,0.00,29.92,M,10.00,M,CLR,M,M,M,M,M,M,M,M,M,M,M,M,M,M,33.10,KHTH 151515Z AUTO 33013KT 10SM CLR 05/01 A2992 RMK A01,M
TMT,2023-03-15 15:15,-117.1971,39.4643,1749.34,34.00,30.70,87.56,110.00,3.00,0.00,29.91,M,10.00,M,BKN,M,M,M,6000.00,M,M,M,M,M,M,M,M,M,M,30.97,KTMT 151515Z AUTO 11003KT 10SM BKN060 01/M01 A2991 RMK AO2 T00111007,M
DRA,2023-03-15 15:26,-116.0278,36.6206,1009.00,52.00,44.00,74.35,190.00,9.00,0.00,29.82,M,10.00,M,SCT,OVC,M,M,2900.00,9000.00,M,M,M,M,M,M,M,M,M,52.00,KDRA 151526Z AUTO 19009KT 10SM SCT029 OVC090 11/07 A2982 RMK AO2 T01110067,M
BVU,2023-03-15 15:35,-114.8611,35.9475,671.00,55.40,50.00,81.99,180.00,6.00,0.00,29.86,M,10.00,M,FEW,SCT,BKN,M,3200.00,4000.00,11000.00,M,M,M,M,M,M,M,M,55.40,KBVU 151535Z AUTO 18006KT 10SM FEW032 SCT040 BKN110 13/10 A2986 RMK AO2,M
RTS,2023-03-15 15:35,-119.8764,39.6682,1539.00,33.80,26.60,74.63,330.00,5.00,0.00,29.97,M,10.00,M,OVC,M,M,M,2200.00,M,M,M,M,M,M,M,M,M,M,28.53,KRTS 151535Z AUTO 33005KT 10SM OVC022 01/M03 A2997 RMK AO2,M
MEV,2023-03-15 15:35,-119.7500,38.9963,1441.42,37.40,32.00,80.65,350.00,12.00,0.00,29.93,M,10.00,17.00,CLR,M,M,M,M,M,M,M,M,M,M,M,M,M,M,28.87,KMEV 151535Z AUTO 35012G17KT 10SM CLR 03/M00 A2993 RMK AO2,M
BAM,2023-03-15 15:35,-116.8743,40.5990,1382.36,37.40,32.00,80.65,340.00,9.00,0.00,29.94,M,10.00,M,BKN,M,M,M,5000.00,M,M,M,M,M,M,M,M,M,M,30.23,KBAM 151535Z AUTO 34009KT 10SM BKN050 03/00 A2994 RMK AO1,M
HTH,2023-03-15 15:35,-118.6315,38.5448,1282.89,41.00,33.80,75.33,320.00,14.00,0.00,29.93,M,10.00,M,CLR,M,M,M,M,M,M,M,M,M,M,M,M,M,M,32.76,KHTH 151535Z AUTO 32014KT 10SM CLR 05/01 A2993 RMK A01,M
TMT,2023-03-15 15:35,-117.1971,39.4643,1749.34,35.20,29.80,80.48,360.00,3.00,0.00,29.92,M,10.00,M,SCT,M,M,M,6000.00,M,M,M,M,M,M,M,M,M,M,32.35,KTMT 151535Z AUTO 36003KT 10SM SCT060 02/M01 A2992 RMK AO2 T00181012,M
ELY,2023-03-15 15:37,-114.8453,39.2950,1909.00,35.00,30.90,84.49,310.00,8.00,T,29.84,M,6.00,M,BKN,BKN,OVC,M,2200.00,3000.00,4200.00,M,-RA BR,M,M,M,M,M,M,27.93,KELY 151537Z AUTO 31008KT 6SM -RA BR BKN022 BKN030 OVC042 02/M01 A2984 RMK AO2 RAB23 P0000 T00171006,M
P68,2023-03-15 15:53,-116.0056,39.6014,1993.00,38.00,30.90,75.64,290.00,6.00,0.00,29.87,1009.40,M,M,M,M,M,M,M,M,M,M,M,M,M,M,M,M,M,32.64,KP68 151553Z AUTO 29006KT 03/M01 A2987 RMK AO1 SLP094 T00331006,M
LOL,2023-03-15 15:53,-118.5701,40.0684,1192.43,41.00,28.00,59.55,340.00,11.00,0.00,29.96,1014.20,10.00,M,CLR,M,M,M,M,M,M,M,M,M,M,M,M,M,M,33.84,KLOL 151553Z AUTO 34011KT 10SM CLR 05/M02 A2996 RMK AO2 SLP142 T00501022,M
ELY,2023-03-15 15:53,-114.8453,39.2950,1909.00,36.00,33.00,89.09,310.00,6.00,T,29.84,1008.80,10.00,M,FEW,BKN,OVC,M,2200.00,2900.00,3800.00,M,-RA,M,M,M,M,M,M,30.35,KELY 151553Z AUTO 31006KT 10SM -RA FEW022 BKN029 OVC038 02/01 A2984 RMK AO2 RAB23 SLP088 P0000 T00220006,M
DRA,2023-03-15 15:53,-116.0278,36.6206,1009.00,53.00,44.00,71.40,120.00,6.00,0.00,29.81,1007.00,10.00,M,OVC,M,M,M,8000.00,M,M,M,M,M,M,M,M,M,M,53.10,KDRA 151553Z AUTO 12006KT 10SM OVC080 12/07 A2981 RMK AO2 SLP070 T01170067,M
VGT,2023-03-15 15:53,-115.1933,36.2111,667.00,60.00,44.00,55.44,210.00,11.00,0.00,29.81,1010.30,10.00,18.00,FEW,M,M,M,8000.00,M,M,M,M,M,M,M,27.00,200.00,2023-03-15 15:22,60.10,KVGT 151553Z 21011G18KT 10SM FEW080 16/07 A2981 RMK AO2 PK WND 20027/1522 SLP103 T01560067,M
BVU,2023-03-15 15:55,-114.8611,35.9475,671.00,57.20,50.00,76.82,190.00,9.00,0.00,29.86,M,10.00,M,CLR,M,M,M,M,M,M,M,M,M,M,M,M,M,M,57.20,KBVU 151555Z AUTO 19009KT 10SM CLR 14/10 A2986 RMK AO2,M
INS,2023-03-15 15:55,-115.6733,36.5872,955.00,50.70,50.40,98.89,0.00,0.00,0.02,29.84,1008.50,10.00,M,OVC,M,M,M,6500.00,M,M,M,-DZ,M,M,M,M,M,M,50.70,KINS 151555Z AUTO 00000KT 10SM -DZ OVC065 10/10 A2984 RMK AO2 RAE45DZB45 SLP085 P0002 T01040102 $,M
RNO,2023-03-15 15:55,-119.7711,39.4839,1341.00,39.00,30.00,69.85,20.00,7.00,0.00,29.96,1013.60,10.00,M,BKN,M,M,M,3200.00,M,M,M,M,M,M,M,M,M,M,33.31,KRNO 151555Z 02007KT 10SM BKN032 04/M01 A2996 RMK AO2 SLP136 T00391011,M
RTS,2023-03-15 15:55,-119.8764,39.6682,1539.00,33.80,28.40,80.36,360.00,12.00,0.00,29.97,M,10.00,M,BKN,OVC,M,M,2200.00,2800.00,M,M,M,M,M,M,M,M,M,24.29,KRTS 151555Z AUTO 36012KT 10SM BKN022 OVC028 01/M02 A2997 RMK AO2,M
MEV,2023-03-15 15:55,-119.7500,38.9963,1441.42,37.40,32.00,80.65,360.00,13.00,0.00,29.93,M,10.00,M,CLR,M,M,M,M,M,M,M,M,M,M,M,M,M,M,28.49,KMEV 151555Z AUTO 36013KT 10SM CLR 03/M00 A2993 RMK AO2,M
BAM,2023-03-15 15:55,-116.8743,40.5990,1382.36,39.20,32.00,75.16,320.00,14.00,0.00,29.95,M,10.00,22.00,OVC,M,M,M,5000.00,M,M,M,M,M,M,M,M,M,M,30.44,KBAM 151555Z AUTO 32014G22KT 10SM OVC050 04/00 A2995 RMK AO1,M
HTH,2023-03-15 15:55,-118.6315,38.5448,1282.89,41.00,33.80,75.33,320.00,16.00,0.00,29.94,M,10.00,M,FEW,M,M,M,3000.00,M,M,M,M,M,M,M,M,M,M,32.15,KHTH 151555Z AUTO 32016KT 10SM FEW030 05/01 A2994 RMK A01,M
TMT,2023-03-15 15:55,-117.1971,39.4643,1749.34,37.60,29.80,73.19,0.00,0.00,0.00,29.91,M,10.00,M,CLR,M,M,M,M,M,M,M,M,M,M,M,M,M,M,37.60,KTMT 151555Z AUTO 00000KT 10SM CLR 03/M01 A2991 RMK AO2 T00311012,M
LSV,2023-03-15 15:55,-115.0343,36.2362,570.00,58.00,49.00,71.92,180.00,19.00,0.00,29.79,1007.90,10.00,M,FEW,FEW,M,M,6500.00,14000.00,M,M,M,M,M,M,M,M,M,58.10,KLSV 151555Z AUTO 18019KT 10SM FEW065 FEW140 15/10 A2979 RMK AO2 SLP079 T01450095 $,M
INS,2023-03-15 15:56,-115.6733,36.5872,955.00,50.00,50.00,100.00,0.00,0.00,0.00,29.84,1008.50,10.00,M,OVC,M,M,M,6500.00,M,M,M,M,M,M,M,M,M,M,50.00,KINS 151556Z AUTO 00000KT 10SM OVC065 10/10 A2984 RMK AO2 DZE56 SLP085 $,M
TPH,2023-03-15 15:56,-117.0904,38.0505,1654.00,45.00,39.00,79.36,350.00,9.00,T,29.84,1008.60,10.00,M,FEW,FEW,OVC,M,2200.00,4900.00,8000.00,M,M,M,M,M,M,M,M,39.68,KTPH 151556Z AUTO 35009KT 10SM FEW022 FEW049 OVC080 07/04 A2984 RMK AO2 RAB01E20 SLP086 P0000 T00720039,M
LAS,2023-03-15 15:56,-115.1634,36.0719,663.00,59.00,45.00,59.67,210.00,9.00,0.00,29.83,1009.20,10.00,22.00,FEW,BKN,BKN,OVC,1000.00,6000.00,11000.00,25000.00,M,M,M,M,M,M,M,59.00,KLAS 151556Z 21009G22KT 10SM FEW010 BKN060 BKN110 OVC250 15/07 A2983 RMK AO2 SLP092 T01500072,M
EKO,2023-03-15 15:56,-115.7860,40.8242,1367.00,37.00,29.00,72.54,330.00,2.92,M,29.89,1012.40,10.00,M,SCT,OVC,M,M,3900.00,4901.00,M,M,M,M,M,M,M,M,M,34.52,METAR KEKO 151556Z 33003KT 10SM SCT039 OVC049 03/M02 A2989 RMK AO2 SLP124 T00281017 TSNO FIBI,M
WMC,2023-03-15 15:56,-117.8072,40.9019,1315.00,35.00,24.10,63.86,340.00,15.00,0.00,29.96,1013.90,10.00,24.00,FEW,M,M,M,5000.00,M,M,M,M,M,M,M,M,M,M,24.80,KWMC 151556Z AUTO 34015G24KT 10SM FEW050 02/M04 A2996 RMK AO2 SLP139 T00171044,M
NFL,2023-03-15 15:56,-118.7010,39.4166,1199.00,42.00,30.90,64.24,360.00,7.00,0.00,29.95,1011.60,10.00,M,FEW,SCT,M,M,4000.00,6000.00,M,M,M,M,M,M,M,M,M,37.09,KNFL 151556Z 36007KT 10SM FEW040 SCT060 06/M01 A2995 RMK AO2 SLP116 T00561006,M
INS,2023-03-15 15:57,-115.6733,36.5872,955.00,50.00,50.00,100.00,0.00,0.00,0.00,29.83,1008.20,10.00,M,OVC,M,M,M,6500.00,M,M,M,-DZ,M,M,M,M,M,M,50.00,KINS 151557Z AUTO 00000KT 10SM -DZ OVC065 10/10 A2983 RMK AO2 DZE56DZB57 SLP082 $,M
LOL,2023-03-15 16:07,-118.5701,40.0684,1192.43,42.00,28.00,57.08,340.00,12.00,0.00,29.96,M,10.00,M,CLR,M,M,M,M,M,M,M,M,M,M,M,M,M,M,34.86,KLOL 151607Z AUTO 34012KT 10SM CLR 06/M02 A2996 RMK AO2 WSHFT 1547 T00561022,M
INS,2023-03-15 16:10,-115.6733,36.5872,955.00,51.80,51.80,100.00,170.00,8.00,0.00,29.83,1008.00,10.00,M,BKN,OVC,M,M,6500.00,10000.00,M,M,M,M,M,M,M,M,M,51.80,KINS 151610Z AUTO 17008KT 10SM BKN065 OVC100 11/11 A2983 RMK AO2 DZE1556DZB1557E10 SLP080 $,M
ELY,2023-03-15 16:11,-114.8453,39.2950,1909.00,36.00,33.00,89.09,40.00,7.00,T,29.85,M,10.00,M,FEW,SCT,OVC,M,2800.00,3200.00,4100.00,M,M,M,M,M,M,M,M,29.65,KELY 151611Z AUTO 04007KT 10SM FEW028 SCT032 OVC041 02/01 A2985 RMK AO2 RAE1555 P0000 T00220006,M
BVU,2023-03-15 16:15,-114.8611,35.9475,671.00,55.40,50.00,81.99,170.00,15.00,0.00,29.85,M,10.00,M,CLR,M,M,M,M,M,M,M,M,M,M,M,M,M,M,55.40,KBVU 151615Z AUTO 17015KT 10SM CLR 13/10 A2985 RMK AO2,M
RTS,2023-03-15 16:15,-119.8764,39.6682,1539.00,33.80,28.40,80.36,360.00,12.00,0.00,29.98,M,9.00,M,SCT,OVC,M,M,2000.00,2600.00,M,M,M,M,M,M,M,M,M,24.29,KRTS 151615Z AUTO 36012KT 9SM SCT020 OVC026 01/M02 A2998 RMK AO2,M
MEV,2023-03-15 16:15,-119.7500,38.9963,1441.42,39.20,32.00,75.16,360.00,15.00,0.00,29.94,M,10.00,M,CLR,M,M,M,M,M,M,M,M,M,M,M,M,M,M,30.11,KMEV 151615Z AUTO 36015KT 10SM CLR 04/M00 A2994 RMK AO2,M
BAM,2023-03-15 16:15,-116.8743,40.5990,1382.36,39.20,32.00,75.16,320.00,13.00,0.00,29.95,M,10.00,20.00,OVC,M,M,M,6000.00,M,M,M,M,M,M,M,M,M,M,30.79,KBAM 151615Z AUTO 32013G20KT 10SM OVC060 04/00 A2995 RMK AO1,M
HTH,2023-03-15 16:15,-118.6315,38.5448,1282.89,42.80,35.60,75.50,320.00,15.00,0.00,29.95,M,10.00,M,BKN,M,M,M,3100.00,M,M,M,M,M,M,M,M,M,M,34.78,KHTH 151615Z AUTO 32015KT 10SM BKN031 06/02 A2995 RMK A01,M
TMT,2023-03-15 16:15,-117.1971,39.4643,1749.34,38.00,29.50,70.90,240.00,3.00,0.00,29.92,M,10.00,M,SCT,M,M,M,3200.00,M,M,M,M,M,M,M,M,M,M,35.66,KTMT 151615Z AUTO 24003KT 10SM SCT032 03/M01 A2992 RMK AO2 T00341014,M
RNO,2023-03-15 16:15,-119.7711,39.4839,1341.00,40.00,30.00,67.45,10.00,10.00,0.00,29.97,M,10.00,M,BKN,M,M,M,2600.00,M,M,M,M,M,M,M,M,M,M,32.87,KRNO 151615Z 01010KT 10SM BKN026 04/M01 A2997 RMK AO2 T00441011,M
INS,2023-03-15 16:32,-115.6733,36.5872,955.00,51.80,51.80,100.00,90.00,8.00,0.00,29.80,1007.00,10.00,M,FEW,BKN,OVC,M,4100.00,6000.00,7500.00,M,-DZ,M,M,M,M,M,M,51.80,KINS 151632Z AUTO 09008KT 10SM -DZ FEW041 BKN060 OVC075 11/11 A2980 RMK AO2 DZE1556DZB1557E10DZB32 PRESFR SLP070 $,M
EKO,2023-03-15 16:34,-115.7860,40.8242,1367.00,38.00,28.00,66.94,360.00,6.03,M,29.91,M,10.00,M,BKN,OVC,M,M,2798.00,5498.00,M,M,M,M,M,M,M,M,M,32.74,SPECI KEKO 151634Z 36006KT 10SM BKN028 OVC055 03/M02 A2991 RMK AO2 T00331022 TSNO FIBI,M
BVU,2023-03-15 16:35,-114.8611,35.9475,671.00,55.40,50.00,81.99,160.00,6.00,0.00,29.85,M,10.00,13.00,FEW,M,M,M,9000.00,M,M,M,M,M,M,M,M,M,M,55.40,KBVU 151635Z AUTO 16006G13KT 10SM FEW090 13/10 A2985 RMK AO2,M
RTS,2023-03-15 16:35,-119.8764,39.6682,1539.00,33.80,28.40,80.36,10.00,12.00,0.00,29.99,M,10.00,M,BKN,OVC,M,M,2300.00,2700.00,M,M,M,M,M,M,M,M,M,24.29,KRTS 151635Z AUTO 01012KT 10SM BKN023 OVC027 01/M02 A2999 RMK AO2,M
MEV,2023-03-15 16:35,-119.7500,38.9963,1441.42,39.20,32.00,75.16,360.00,15.00,0.00,29.95,M,10.00,M,CLR,M,M,M,M,M,M,M,M,M,M,M,M,M,M,30.11,KMEV 151635Z AUTO 36015KT 10SM CLR 04/M00 A2995 RMK AO2,M
BAM,2023-03-15 16:35,-116.8743,40.5990,1382.36,39.20,32.00,75.16,340.00,13.00,0.00,29.96,M,10.00,16.00,OVC,M,M,M,6000.00,M,M,M,M,M,M,M,M,M,M,30.79,KBAM 151635Z AUTO 34013G16KT 10SM OVC060 04/00 A2996 RMK AO1,M
HTH,2023-03-15 16:35,-118.6315,38.5448,1282.89,42.80,33.80,70.28,320.00,12.00,0.00,29.97,M,10.00,M,OVC,M,M,M,3200.00,M,M,M,M,M,M,M,M,M,M,35.75,KHTH 151635Z AUTO 32012KT 10SM OVC032 06/01 A2997 RMK A01,M
TMT,2023-03-15 16:35,-117.1971,39.4643,1749.34,38.80,29.80,69.83,360.00,6.00,0.00,29.93,M,10.00,M,BKN,M,M,M,3400.00,M,M,M,M,M,M,M,M,M,M,33.72,KTMT 151635Z AUTO 36006KT 10SM BKN034 04/M01 A2993 RMK AO2 T00381012,M
INS,2023-03-15 16:44,-115.6733,36.5872,955.00,53.60,51.80,93.60,110.00,6.00,0.00,29.81,1007.30,10.00,M,SCT,BKN,BKN,OVC,3800.00,6000.00,7500.00,10000.00,M,M,M,M,M,M,M,53.60,KINS 151644Z AUTO 11006KT 10SM SCT038 BKN060 BKN075 OVC100 12/11 A2981 RMK AO2 DZE1556DZB1557E10DZB32E44 SLP073 $,M
P68,2023-03-15 16:53,-116.0056,39.6014,1993.00,39.00,30.90,72.45,250.00,9.00,0.00,29.88,1009.70,M,M,M,M,M,M,M,M,M,M,M,M,M,M,M,M,M,32.22,KP68 151653Z AUTO 25009KT 04/M01 A2988 RMK AO1 SLP097 T00391006,M
DRA,2023-03-15 16:53,-116.0278,36.6206,1009.00,54.00,46.00,74.26,240.00,13.00,0.00,29.83,1007.70,10.00,19.00,FEW,OVC,M,M,2300.00,7000.00,M,M,M,M,M,M,M,M,M,54.00,KDRA 151653Z AUTO 24013G19KT 10SM FEW023 OVC070 12/08 A2983 RMK AO2 SLP077 T01220078,M
VGT,2023-03-15 16:53,-115.1933,36.2111,667.00,60.00,46.00,59.59,310.00,3.00,0.00,29.81,1010.30,10.00,M,SCT,M,M,M,11000.00,M,M,M,M,M,M,M,M,M,M,60.10,KVGT 151653Z 31003KT 10SM SCT110 16/08 A2981 RMK AO2 SLP103 T01560078,M
LOL,2023-03-15 16:53,-118.5701,40.0684,1192.43,42.00,30.00,61.94,30.00,9.00,0.00,29.98,1015.10,10.00,M,CLR,M,M,M,M,M,M,M,M,M,M,M,M,M,M,36.07,KLOL 151653Z AUTO 03009KT 10SM CLR 06/M01 A2998 RMK AO2 WSHFT 1547 SLP151 T00561011,M
ELY,2023-03-15 16:53,-114.8453,39.2950,1909.00,37.00,33.00,85.64,360.00,3.00,T,29.86,1009.40,10.00,M,OVC,M,M,M,4900.00,M,M,M,M,M,M,M,M,M,M,34.40,KELY 151653Z AUTO 36003KT 10SM OVC049 03/01 A2986 RMK AO2 RAE1555 SLP094 P0000 T00280006,M
EKO,2023-03-15 16:54,-115.7860,40.8242,1367.00,35.60,24.80,64.46,350.00,11.08,M,29.93,M,10.00,M,SCT,BKN,OVC,M,2798.00,4399.00,6000.00,M,M,M,M,M,M,M,M,26.98,SPECI KEKO 151654Z 35011KT 10SM SCT028 BKN044 OVC060 02/M04 A2993 RMK AO2 TSNO FIBI,M
BVU,2023-03-15 16:55,-114.8611,35.9475,671.00,57.20,50.00,76.82,160.00,10.00,0.00,29.85,M,10.00,M,SCT,M,M,M,9000.00,M,M,M,M,M,M,M,M,M,M,57.20,KBVU 151655Z AUTO 16010KT 10SM SCT090 14/10 A2985 RMK AO2,M
RNO,2023-03-15 16:55,-119.7711,39.4839,1341.00,41.00,28.90,61.79,20.00,9.00,0.00,29.99,1014.60,10.00,M,BKN,M,M,M,2800.00,M,M,M,M,M,M,M,M,M,M,34.70,KRNO 151655Z 02009KT 10SM BKN028 05/M02 A2999 RMK AO2 SLP146 T00501017,M
RTS,2023-03-15 16:55,-119.8764,39.6682,1539.00,33.80,26.60,74.63,360.00,9.00,0.00,30.00,M,10.00,15.00,OVC,M,M,M,2500.00,M,M,M,M,M,M,M,M,M,M,25.75,KRTS 151655Z AUTO 36009G15KT 10SM OVC025 01/M03 A3000 RMK AO2,M
MEV,2023-03-15 16:55,-119.7500,38.9963,1441.42,41.00,30.20,65.16,10.00,16.00,0.00,29.95,M,10.00,23.00,CLR,M,M,M,M,M,M,M,M,M,M,M,M,M,M,32.15,KMEV 151655Z AUTO 01016G23KT 10SM CLR 05/M01 A2995 RMK AO2,M
BAM,2023-03-15 16:55,-116.8743,40.5990,1382.36,41.00,32.00,70.08,360.00,5.00,0.00,29.97,M,10.00,16.00,SCT,SCT,OVC,M,2900.00,4000.00,6000.00,M,M,M,M,M,M,M,M,37.08,KBAM 151655Z AUTO 36005G16KT 10SM SCT029 SCT040 OVC060 05/00 A2997 RMK AO1,M
HTH,2023-03-15 16:55,-118.6315,38.5448,1282.89,42.80,33.80,70.28,330.00,13.00,0.00,29.97,M,10.00,M,OVC,M,M,M,3700.00,M,M,M,M,M,M,M,M,M,M,35.40,KHTH 151655Z AUTO 33013KT 10SM OVC037 06/01 A2997 RMK A01,M
TMT,2023-03-15 16:55,-117.1971,39.4643,1749.34,37.40,30.60,76.21,360.00,9.00,0.00,29.93,M,10.00,M,SCT,SCT,BKN,M,3400.00,4400.00,5000.00,M,M,M,M,M,M,M,M,30.23,KTMT 151655Z AUTO 36009KT 10SM SCT034 SCT044 BKN050 03/M01 A2993 RMK AO2 T00301008,M
LSV,2023-03-15 16:55,-115.0343,36.2362,570.00,58.50,49.00,70.90,170.00,11.00,0.00,29.80,1008.20,10.00,M,FEW,M,M,M,21000.00,M,M,M,M,M,M,M,M,M,M,58.50,KLSV 151655Z AUTO 17011KT 10SM FEW210 15/10 A2980 RMK AO2 SLP082 T01470095 $,M
INS,2023-03-15 16:55,-115.6733,36.5872,955.00,53.00,50.00,89.84,130.00,6.00,T,29.82,1007.70,10.00,M,FEW,SCT,BKN,OVC,3800.00,6000.00,10000.00,13000.00,M,M,M,M,M,M,M,52.90,KINS 151655Z AUTO 13006KT 10SM FEW038 SCT060 BKN100 OVC130 12/10 A2982 RMK AO2 DZE1556DZB1557E10DZB32E44 SLP077 P0000 T01160100 $,M
NFL,2023-03-15 16:56,-118.7010,39.4166,1199.00,45.00,30.90,57.50,350.00,12.00,0.00,29.97,1012.00,10.00,M,SCT,SCT,M,M,6000.00,8000.00,M,M,M,M,M,M,M,M,M,38.55,KNFL 151656Z 35012KT 10SM SCT060 SCT080 07/M01 A2997 RMK AO2 SLP120 T00721006,M
HND,2023-03-15 16:56,-115.1344,35.9729,742.79,58.00,46.00,64.47,140.00,9.00,0.00,29.85,1011.60,10.00,17.00,BKN,OVC,M,M,9500.00,12000.00,M,M,M,M,M,M,27.00,210.00,2023-03-15 16:11,57.90,KHND 151656Z 14009G17KT 10SM BKN095 OVC120 14/08 A2985 RMK AO2 PK WND 21027/1611 SLP116 T01440078,M
TPH,2023-03-15 16:56,-117.0904,38.0505,1654.00,48.00,32.00,53.67,340.00,10.00,0.00,29.87,1009.10,10.00,M,FEW,SCT,M,M,3300.00,4300.00,M,M,M,M,M,M,M,M,M,43.03,KTPH 151656Z AUTO 34010KT 10SM FEW033 SCT043 09/00 A2987 RMK AO2 SLP091 T00890000,M
LAS,2023-03-15 16:56,-115.1634,36.0719,663.00,59.00,45.00,59.67,170.00,8.00,0.00,29.81,1008.40,10.00,M,FEW,BKN,BKN,BKN,1000.00,6000.00,11000.00,25000.00,M,M,M,M,M,M,M,59.00,KLAS 151656Z 17008KT 10SM FEW010 BKN060 BKN110 BKN250 15/07 A2981 RMK AO2 SLP084 T01500072,M
EKO,2023-03-15 16:56,-115.7860,40.8242,1367.00,35.00,25.00,66.57,350.00,13.02,M,29.93,1014.00,10.00,M,SCT,BKN,OVC,M,2798.00,4399.00,6000.00,M,M,M,M,M,M,M,M,25.40,METAR KEKO 151656Z 35013KT 10SM SCT028 BKN044 OVC060 02/M04 A2993 RMK AO2 SLP140 T00171039 TSNO FIBI,M
WMC,2023-03-15 16:56,-117.8072,40.9019,1315.00,38.00,23.00,54.60,350.00,18.00,0.00,30.00,1015.10,10.00,25.00,CLR,M,M,M,M,M,M,M,M,M,M,M,26.00,340.00,2023-03-15 16:32,27.52,KWMC 151656Z AUTO 35018G25KT 10SM CLR 03/M05 A3000 RMK AO2 PK WND 34026/1632 SLP151 T00331050 $,M
DRA,2023-03-15 17:02,-116.0278,36.6206,1009.00,53.00,46.00,76.75,240.00,18.00,0.00,29.83,M,10.00,24.00,BKN,OVC,M,M,2300.00,7000.00,M,M,M,M,M,M,M,M,M,53.10,KDRA 151702Z AUTO 24018G24KT 10SM BKN023 OVC070 12/08 A2983 RMK AO2 T01170078,M
LSV,2023-03-15 17:07,-115.0343,36.2362,570.00,59.00,48.20,67.33,160.00,13.00,0.00,29.79,1007.90,10.00,M,FEW,BKN,M,M,5000.00,10000.00,M,M,M,M,M,M,M,M,M,59.00,KLSV 151707Z 16013KT 10SM FEW050 BKN100 15/09 A2979 RMK SLP079 $,M
DRA,2023-03-15 17:09,-116.0278,36.6206,1009.00,54.00,46.00,74.26,250.00,14.00,0.00,29.83,M,10.00,24.00,BKN,OVC,M,M,2300.00,7000.00,M,M,M,M,M,M,M,M,M,54.00,KDRA 151709Z AUTO 25014G24KT 10SM BKN023 OVC070 12/08 A2983 RMK AO2 WSHFT 1652 T01220078,M
BVU,2023-03-15 17:15,-114.8611,35.9475,671.00,55.40,51.80,87.65,130.00,14.00,0.00,29.84,M,10.00,M,FEW,M,M,M,9000.00,M,M,M,M,M,M,M,M,M,M,55.40,KBVU 151715Z AUTO 13014KT 10SM FEW090 13/11 A2984 RMK AO2,M
RTS,2023-03-15 17:15,-119.8764,39.6682,1539.00,35.60,26.60,69.46,M,6.00,0.00,30.00,M,10.00,M,OVC,M,M,M,2400.00,M,M,M,M,M,M,M,M,M,M,29.87,KRTS 151715Z AUTO VRB06KT 10SM OVC024 02/M03 A3000 RMK AO2,M
MEV,2023-03-15 17:15,-119.7500,38.9963,1441.42,41.00,32.00,70.08,350.00,15.00,0.00,29.96,M,10.00,M,CLR,M,M,M,M,M,M,M,M,M,M,M,M,M,M,32.45,KMEV 151715Z AUTO 35015KT 10SM CLR 05/M00 A2996 RMK AO2,M
BAM,2023-03-15 17:15,-116.8743,40.5990,1382.36,41.00,30.20,65.16,360.00,8.00,0.00,29.98,M,10.00,17.00,BKN,OVC,M,M,3300.00,5000.00,M,M,M,M,M,M,M,M,M,35.20,KBAM 151715Z AUTO 36008G17KT 10SM BKN033 OVC050 05/M01 A2998 RMK AO1,M
HTH,2023-03-15 17:15,-118.6315,38.5448,1282.89,42.80,33.80,70.28,320.00,12.00,0.00,29.97,M,10.00,17.00,OVC,M,M,M,3900.00,M,M,M,M,M,M,M,M,M,M,35.75,KHTH 151715Z AUTO 32012G17KT 10SM OVC039 06/01 A2997 RMK A01,M
TMT,2023-03-15 17:15,-117.1971,39.4643,1749.34,40.00,28.20,62.66,310.00,10.00,0.00,29.94,M,10.00,M,SCT,M,M,M,5000.00,M,M,M,M,M,M,M,M,M,M,32.87,KTMT 151715Z AUTO 31010KT 10SM SCT050 04/M02 A2994 RMK AO2 T00441021,M
P68,2023-03-15 17:19,-116.0056,39.6014,1993.00,36.00,32.00,85.23,360.00,12.00,0.00,29.90,M,M,M,M,M,M,M,M,M,M,M,M,M,M,M,29.00,320.00,2023-03-15 17:03,27.09,KP68 151719Z AUTO 36012KT 02/00 A2990 RMK AO1 PK WND 32029/1703 WSHFT 1702 T00220000,M
HND,2023-03-15 17:25,-115.1344,35.9729,742.79,59.00,46.40,62.92,210.00,17.00,0.00,29.85,M,10.00,M,FEW,M,M,M,9000.00,M,M,M,M,M,M,M,M,M,M,59.00,KHND 151725Z 21017KT 10SM FEW090 15/08 A2985 RMK AO2 WSHFT 1705,M
DRA,2023-03-15 17:28,-116.0278,36.6206,1009.00,55.00,45.00,68.93,210.00,12.00,0.00,29.83,M,10.00,23.00,SCT,BKN,OVC,M,2600.00,3400.00,6500.00,M,M,M,M,M,M,M,M,55.00,KDRA 151728Z AUTO 21012G23KT 10SM SCT026 BKN034 OVC065 13/07 A2983 RMK AO2 WSHFT 1652 T01280072,M
BVU,2023-03-15 17:35,-114.8611,35.9475,671.00,57.20,53.60,87.74,150.00,17.00,0.00,29.85,M,10.00,M,CLR,M,M,M,M,M,M,M,M,M,M,M,M,M,M,57.20,KBVU 151735Z AUTO 15017KT 10SM CLR 14/12 A2985 RMK AO2,M
RTS,2023-03-15 17:35,-119.8764,39.6682,1539.00,37.40,26.60,64.70,330.00,6.00,0.00,30.01,M,10.00,M,SCT,BKN,M,M,2300.00,2800.00,M,M,M,M,M,M,M,M,M,32.03,KRTS 151735Z AUTO 33006KT 10SM SCT023 BKN028 03/M03 A3001 RMK AO2,M
MEV,2023-03-15 17:35,-119.7500,38.9963,1441.42,42.80,32.00,65.38,360.00,16.00,0.00,29.97,M,10.00,21.00,CLR,M,M,M,M,M,M,M,M,M,M,M,M,M,M,34.50,KMEV 151735Z AUTO 36016G21KT 10SM CLR 06/M00 A2997 RMK AO2,M
BAM,2023-03-15 17:35,-116.8743,40.5990,1382.36,39.20,32.00,75.16,70.00,12.00,0.00,29.99,M,10.00,15.00,SCT,BKN,OVC,M,2500.00,3500.00,4400.00,M,M,M,M,M,M,M,M,31.17,KBAM 151735Z AUTO 07012G15KT 10SM SCT025 BKN035 OVC044 04/00 A2999 RMK AO1,M
HTH,2023-03-15 17:35,-118.6315,38.5448,1282.89,42.80,33.80,70.28,320.00,14.00,0.00,29.98,M,10.00,M,OVC,M,M,M,4100.00,M,M,M,M,M,M,M,M,M,M,35.08,KHTH 151735Z AUTO 32014KT 10SM OVC041 06/01 A2998 RMK A01,M
TMT,2023-03-15 17:35,-117.1971,39.4643,1749.34,40.60,26.60,57.10,320.00,10.00,0.00,29.94,M,10.00,M,CLR,M,M,M,M,M,M,M,M,M,M,M,M,M,M,33.75,KTMT 151735Z AUTO 32010KT 10SM CLR 05/M03 A2994 RMK AO2 T00481030,M
RNO,2023-03-15 17:41,-119.7711,39.4839,1341.00,41.00,28.00,59.55,350.00,3.00,0.00,30.01,M,10.00,M,SCT,M,M,M,2800.00,M,M,M,M,M,M,M,M,M,M,38.98,KRNO 151741Z 35003KT 10SM SCT028 05/M02 A3001 RMK AO2 T00501022,M
DRA,2023-03-15 17:53,-116.0278,36.6206,1009.00,57.00,43.00,59.40,220.00,18.00,0.00,29.83,1007.60,10.00,28.00,BKN,M,M,M,5500.00,M,M,M,M,M,M,M,28.00,220.00,2023-03-15 17:53,57.00,KDRA 151753Z AUTO 22018G28KT 10SM BKN055 14/06 A2983 RMK AO2 PK WND 22028/1753 WSHFT 1652 SLP076 60003 T01390061 10139 20100 53002,M
VGT,2023-03-15 17:53,-115.1933,36.2111,667.00,63.00,45.00,51.78,270.00,6.00,0.00,29.82,1010.60,10.00,M,SCT,M,M,M,8000.00,M,M,M,M,M,M,M,M,M,M,63.00,KVGT 151753Z 27006KT 10SM SCT080 17/07 A2982 RMK AO2 SLP106 60000 T01720072 10172 20150 51013,M
LOL,2023-03-15 17:53,-118.5701,40.0684,1192.43,45.00,27.00,49.02,340.00,10.00,0.00,30.00,1015.60,10.00,M,BKN,M,M,M,4100.00,M,M,M,M,M,M,M,M,M,M,39.27,KLOL 151753Z AUTO 34010KT 10SM BKN041 07/M03 A3000 RMK AO2 SLP156 T00721028 10083 20022 51020,M
P68,2023-03-15 17:53,-116.0056,39.6014,1993.00,40.00,32.00,73.14,360.00,11.00,0.00,29.91,1010.30,M,M,M,M,M,M,M,M,M,M,M,M,M,M,29.00,320.00,2023-03-15 17:03,32.45,KP68 151753Z AUTO 36011KT 04/00 A2991 RMK AO1 PK WND 32029/1703 WSHFT 1702 SLP103 60001 T00440000 10050 20011 53013,M
ELY,2023-03-15 17:53,-114.8453,39.2950,1909.00,38.00,32.00,79.08,350.00,5.00,T,29.88,1009.80,10.00,M,FEW,BKN,OVC,M,4200.00,6000.00,7500.00,M,M,M,M,M,M,M,M,33.40,KELY 151753Z AUTO 35005KT 10SM FEW042 BKN060 OVC075 03/00 A2988 RMK AO2 UPB26E44 SLP098 P0000 60000 T00330000 10044 20017 51019,M
BVU,2023-03-15 17:55,-114.8611,35.9475,671.00,57.20,51.80,82.12,140.00,13.00,0.00,29.85,M,10.00,M,BKN,BKN,BKN,M,3600.00,4200.00,4900.00,M,M,M,M,M,M,M,M,57.20,KBVU 151755Z AUTO 14013KT 10SM BKN036 BKN042 BKN049 14/11 A2985 RMK AO2,M
INS,2023-03-15 17:55,-115.6733,36.5872,955.00,55.20,47.50,75.22,300.00,4.00,0.00,29.84,1008.10,10.00,M,OVC,M,M,M,7000.00,M,M,M,M,M,M,M,M,M,M,55.20,KINS 151755Z AUTO 30004KT 10SM OVC070 13/09 A2984 RMK AO2 SLP081 60007 T01290086 10129 20097 50002 $,M
RNO,2023-03-15 17:55,-119.7711,39.4839,1341.00,43.00,28.00,55.14,350.00,3.00,0.00,30.01,1015.00,10.00,M,SCT,M,M,M,3000.00,M,M,M,M,M,M,M,M,M,M,41.26,KRNO 151755Z 35003KT 10SM SCT030 06/M02 A3001 RMK AO2 SLP150 T00611022 10061 20022 51021,M
LSV,2023-03-15 17:55,-115.0343,36.2362,570.00,60.30,52.00,74.04,160.00,8.00,0.00,29.81,1008.40,10.00,M,FEW,BKN,M,M,4000.00,10000.00,M,M,M,M,M,M,M,M,M,60.30,KLSV 151755Z 16008KT 10SM FEW040 BKN100 16/11 A2981 RMK SLP084 60000 T01570111 10159 20131 52012 $,M
RTS,2023-03-15 17:55,-119.8764,39.6682,1539.00,35.60,26.60,69.46,350.00,6.00,0.00,30.02,M,10.00,M,BKN,BKN,M,M,2700.00,3100.00,M,M,M,M,M,M,M,M,M,29.87,KRTS 151755Z AUTO 35006KT 10SM BKN027 BKN031 02/M03 A3002 RMK AO2,M
MEV,2023-03-15 17:55,-119.7500,38.9963,1441.42,42.80,32.00,65.38,350.00,17.00,0.00,29.98,M,10.00,M,CLR,M,M,M,M,M,M,M,M,M,M,M,M,M,M,34.22,KMEV 151755Z AUTO 35017KT 10SM CLR 06/00 A2998 RMK AO2,M
BAM,2023-03-15 17:55,-116.8743,40.5990,1382.36,39.20,32.00,75.16,50.00,11.00,0.00,29.99,M,10.00,15.00,SCT,BKN,OVC,M,2500.00,3000.00,3700.00,M,M,M,M,M,M,M,M,31.57,KBAM 151755Z AUTO 05011G15KT 10SM SCT025 BKN030 OVC037 04/00 A2999 RMK AO1,M
HTH,2023-03-15 17:55,-118.6315,38.5448,1282.89,42.80,32.00,65.38,330.00,16.00,0.00,29.98,M,10.00,M,OVC,M,M,M,4100.00,M,M,M,M,M,M,M,M,M,M,34.50,KHTH 151755Z AUTO 33016KT 10SM OVC041 06/00 A2998 RMK A01,M
TMT,2023-03-15 17:55,-117.1971,39.4643,1749.34,41.40,28.00,58.64,330.00,14.00,0.00,29.94,M,10.00,18.00,SCT,M,M,M,5000.00,M,M,M,M,M,M,M,M,M,M,33.28,KTMT 151755Z AUTO 33014G18KT 10SM SCT050 05/M02 A2994 RMK AO2 T00521022 10053 20000,M
WMC,2023-03-15 17:56,-117.8072,40.9019,1315.00,41.00,23.00,48.39,350.00,14.00,0.00,30.02,1015.40,10.00,21.00,CLR,M,M,M,M,M,M,M,M,M,M,M,M,M,M,32.76,KWMC 151756Z AUTO 35014G21KT 10SM CLR 05/M05 A3002 RMK AO2 SLP154 T00501050 10050 20017 53022,M
NFL,2023-03-15 17:56,-118.7010,39.4166,1199.00,46.00,32.00,57.87,10.00,10.00,0.00,29.99,1012.60,10.00,17.00,BKN,M,M,M,4000.00,M,M,M,M,M,M,M,M,M,M,40.52,KNFL 151756Z 01010G17KT 340V040 10SM BKN040 08/00 A2999 RMK AO2 SLP126 T00780000 10078 20017 51019,M
LAS,2023-03-15 17:56,-115.1634,36.0719,663.00,60.00,45.00,57.37,180.00,10.00,0.00,29.83,1009.00,10.00,18.00,FEW,SCT,BKN,BKN,2000.00,6000.00,11000.00,25000.00,M,M,M,M,M,M,M,60.10,KLAS 151756Z 18010G18KT 10SM FEW020 SCT060 BKN110 BKN250 16/07 A2983 RMK AO2 SLP090 60000 T01560072 10156 20139 53001,M
EKO,2023-03-15 17:56,-115.7860,40.8242,1367.00,36.00,26.00,66.69,40.00,7.97,M,29.96,1014.60,10.00,M,FEW,BKN,M,M,2598.00,3599.00,M,M,M,M,M,M,M,M,M,29.06,METAR KEKO 151756Z 04008KT 10SM FEW026 BKN036 02/M03 A2996 RMK AO2 SLP146 60000 I6000 T00221033 10039 20011 53025 TSNO FIBI,M
HND,2023-03-15 17:56,-115.1344,35.9729,742.79,60.00,46.00,59.59,200.00,11.00,0.00,29.86,1011.90,10.00,M,SCT,M,M,M,6500.00,M,M,M,M,M,M,M,M,M,M,60.10,KHND 151756Z 20011KT 10SM SCT065 16/08 A2986 RMK AO2 WSHFT 1705 SLP119 60000 T01560078 10156 20117 53004,M
TPH,2023-03-15 17:56,-117.0904,38.0505,1654.00,51.00,28.00,40.63,330.00,18.00,0.00,29.88,1009.20,10.00,23.00,OVC,M,M,M,9500.00,M,M,M,M,M,M,M,M,M,M,51.10,KTPH 151756Z AUTO 33018G23KT 10SM OVC095 11/M02 A2988 RMK AO2 SLP092 60000 T01061022 10106 20039 53012,M
INS,2023-03-15 18:09,-115.6733,36.5872,955.00,57.20,48.20,71.83,10.00,5.00,0.00,29.84,1008.10,10.00,M,SCT,SCT,OVC,M,3000.00,4400.00,7000.00,M,-DZ,M,M,M,M,M,M,57.20,KINS 151809Z AUTO 01005KT 10SM -DZ SCT030 SCT044 OVC070 14/09 A2984 RMK AO2 DZB09 SLP081 $,M
BVU,2023-03-15 18:15,-114.8611,35.9475,671.00,59.00,53.60,82.25,160.00,13.00,0.00,29.85,M,10.00,20.00,SCT,BKN,OVC,M,3600.00,4300.00,6500.00,M,M,M,M,M,M,M,M,59.00,KBVU 151815Z AUTO 16013G20KT 10SM SCT036 BKN043 OVC065 15/12 A2985 RMK AO2,M
RTS,2023-03-15 18:15,-119.8764,39.6682,1539.00,37.40,26.60,64.70,M,3.00,0.00,30.02,M,10.00,M,SCT,BKN,M,M,2500.00,3000.00,M,M,M,M,M,M,M,M,M,34.86,KRTS 151815Z AUTO VRB03KT 10SM SCT025 BKN030 03/M03 A3002 RMK AO2,M
MEV,2023-03-15 18:15,-119.7500,38.9963,1441.42,42.80,32.00,65.38,350.00,16.00,0.00,29.98,M,10.00,M,CLR,M,M,M,M,M,M,M,M,M,M,M,M,M,M,34.50,KMEV 151815Z AUTO 35016KT 10SM CLR 06/00 A2998 RMK AO2,M
BAM,2023-03-15 18:15,-116.8743,40.5990,1382.36,41.00,32.00,70.08,70.00,9.00,0.00,29.99,M,10.00,M,SCT,BKN,BKN,M,2900.00,3700.00,4300.00,M,M,M,M,M,M,M,M,34.70,KBAM 151815Z AUTO 07009KT 10SM SCT029 BKN037 BKN043 05/00 A2999 RMK AO1,M
HTH,2023-03-15 18:15,-118.6315,38.5448,1282.89,44.60,32.00,61.03,330.00,16.00,0.00,29.98,M,10.00,M,BKN,BKN,M,M,4300.00,5500.00,M,M,M,M,M,M,M,M,M,36.84,KHTH 151815Z AUTO 33016KT 10SM BKN043 BKN055 07/00 A2998 RMK A01,M
TMT,2023-03-15 18:15,-117.1971,39.4643,1749.34,40.00,28.80,64.22,350.00,7.00,0.00,29.95,M,10.00,11.00,SCT,SCT,BKN,M,3000.00,3500.00,4700.00,M,M,M,M,M,M,M,M,34.41,KTMT 151815Z AUTO 35007G11KT 10SM SCT030 SCT035 BKN047 04/M02 A2995 RMK AO2 T00441018,M
INS,2023-03-15 18:20,-115.6733,36.5872,955.00,57.20,48.20,71.83,70.00,4.00,0.00,29.84,1008.10,10.00,M,SCT,BKN,M,M,3500.00,6000.00,M,M,M,M,M,M,M,M,M,57.20,KINS 151820Z AUTO 07004KT 10SM SCT035 BKN060 14/09 A2984 RMK AO2 DZB09E20 SLP081 $,M
BVU,2023-03-15 18:35,-114.8611,35.9475,671.00,60.80,51.80,72.20,160.00,17.00,0.00,29.85,M,10.00,M,FEW,SCT,BKN,M,3700.00,4300.00,4900.00,M,M,M,M,M,M,M,M,60.80,KBVU 151835Z AUTO 16017KT 10SM FEW037 SCT043 BKN049 16/11 A2985 RMK AO2,M
RTS,2023-03-15 18:35,-119.8764,39.6682,1539.00,37.40,24.80,60.04,M,5.00,0.00,30.02,M,10.00,M,BKN,M,M,M,3000.00,M,M,M,M,M,M,M,M,M,M,32.81,KRTS 151835Z AUTO VRB05KT 10SM BKN030 03/M04 A3002 RMK AO2,M
MEV,2023-03-15 18:35,-119.7500,38.9963,1441.42,42.80,32.00,65.38,350.00,16.00,0.00,29.99,M,10.00,M,BKN,BKN,M,M,4200.00,5000.00,M,M,M,M,M,M,M,M,M,34.50,KMEV 151835Z AUTO 35016KT 10SM BKN042 BKN050 06/00 A2999 RMK AO2,M
BAM,2023-03-15 18:35,-116.8743,40.5990,1382.36,42.80,32.00,65.38,350.00,7.00,0.00,30.00,M,10.00,M,SCT,SCT,M,M,3600.00,4200.00,M,M,M,M,M,M,M,M,M,37.94,KBAM 151835Z AUTO 35007KT 10SM SCT036 SCT042 06/00 A3000 RMK AO1,M
HTH,2023-03-15 18:35,-118.6315,38.5448,1282.89,44.60,32.00,61.03,320.00,16.00,0.00,29.98,M,10.00,M,FEW,M,M,M,5500.00,M,M,M,M,M,M,M,M,M,M,36.84,KHTH 151835Z AUTO 32016KT 10SM FEW055 07/00 A2998 RMK A01,M
TMT,2023-03-15 18:35,-117.1971,39.4643,1749.34,41.50,30.00,63.39,330.00,10.00,0.00,29.95,M,10.00,16.00,SCT,BKN,BKN,M,3200.00,4700.00,5500.00,M,M,M,M,M,M,M,M,34.88,KTMT 151835Z AUTO 33010G16KT 10SM SCT032 BKN047 BKN055 05/M01 A2995 RMK AO2 T00531011,M
LSV,2023-03-15 18:40,-115.0343,36.2362,570.00,64.40,50.00,59.50,160.00,10.00,0.00,29.80,1008.00,10.00,M,SCT,BKN,M,M,6000.00,18000.00,M,M,M,M,M,M,M,M,M,64.40,KLSV 151840Z AUTO 16010KT 10SM SCT060 BKN180 18/10 A2980 RMK AO2 WSHFT 33 SLP080 $,M
P68,2023-03-15 18:53,-116.0056,39.6014,1993.00,39.00,28.90,66.79,350.00,13.00,0.00,29.91,1011.00,M,23.00,M,M,M,M,M,M,M,M,M,M,M,M,M,M,M,30.54,KP68 151853Z AUTO 35013G23KT 04/M02 A2991 RMK AO1 SLP110 T00391017,M
ELY,2023-03-15 18:53,-114.8453,39.2950,1909.00,41.00,30.00,64.63,30.00,9.00,0.00,29.88,1009.00,10.00,M,BKN,OVC,M,M,7000.00,11000.00,M,M,M,M,M,M,M,M,M,34.70,KELY 151853Z AUTO 03009KT 10SM BKN070 OVC110 05/M01 A2988 RMK AO2 SLP090 T00501011,M
LOL,2023-03-15 18:53,-118.5701,40.0684,1192.43,48.00,25.00,40.29,350.00,8.00,0.00,30.01,1015.70,10.00,16.00,BKN,M,M,M,4900.00,M,M,M,M,M,M,M,M,M,M,43.82,KLOL 151853Z AUTO 35008G16KT 10SM BKN049 09/M04 A3001 RMK AO2 SLP157 T00891039,M
VGT,2023-03-15 18:53,-115.1933,36.2111,667.00,66.00,42.00,41.73,190.00,10.00,0.00,29.81,1010.20,10.00,18.00,FEW,BKN,OVC,M,4800.00,7000.00,9000.00,M,M,M,M,M,M,M,M,66.00,KVGT 151853Z 19010G18KT 10SM FEW048 BKN070 OVC090 19/06 A2981 RMK AO2 SLP102 T01890056,M
DRA,2023-03-15 18:53,-116.0278,36.6206,1009.00,58.00,45.00,62.07,210.00,18.00,0.00,29.83,1007.40,10.00,26.00,FEW,M,M,M,7000.00,M,M,M,M,M,M,M,28.00,210.00,2023-03-15 18:06,57.90,KDRA 151853Z AUTO 21018G26KT 10SM FEW070 14/07 A2983 RMK AO2 PK WND 21028/1806 SLP074 T01440072,M
BVU,2023-03-15 18:55,-114.8611,35.9475,671.00,60.80,51.80,72.20,160.00,15.00,0.00,29.84,M,10.00,21.00,SCT,BKN,BKN,M,4800.00,5500.00,6500.00,M,M,M,M,M,M,M,M,60.80,KBVU 151855Z AUTO 16015G21KT 10SM SCT048 BKN055 BKN065 16/11 A2984 RMK AO2,M
RTS,2023-03-15 18:55,-119.8764,39.6682,1539.00,39.20,24.80,55.95,M,3.00,0.00,30.02,M,10.00,10.00,SCT,M,M,M,3100.00,M,M,M,M,M,M,M,M,M,M,36.92,KRTS 151855Z AUTO VRB03G10KT 10SM SCT031 04/M04 A3002 RMK AO2,M
MEV,2023-03-15 18:55,-119.7500,38.9963,1441.42,42.80,32.00,65.38,350.00,13.00,0.00,29.99,M,10.00,M,BKN,OVC,M,M,4300.00,5000.00,M,M,M,M,M,M,M,M,M,35.40,KMEV 151855Z AUTO 35013KT 10SM BKN043 OVC050 06/M00 A2999 RMK AO2,M
BAM,2023-03-15 18:55,-116.8743,40.5990,1382.36,42.80,32.00,65.38,10.00,10.00,0.00,30.00,M,10.00,14.00,BKN,BKN,M,M,3400.00,4200.00,M,M,M,M,M,M,M,M,M,36.51,KBAM 151855Z AUTO 01010G14KT 340V040 10SM BKN034 BKN042 06/00 A3000 RMK AO1,M
HTH,2023-03-15 18:55,-118.6315,38.5448,1282.89,46.40,33.80,61.28,320.00,16.00,0.00,29.98,M,10.00,M,FEW,M,M,M,6000.00,M,M,M,M,M,M,M,M,M,M,39.19,KHTH 151855Z AUTO 32016KT 10SM FEW060 08/01 A2998 RMK A01,M
INS,2023-03-15 18:55,-115.6733,36.5872,955.00,57.70,45.00,62.76,0.00,0.00,T,29.83,1007.60,10.00,M,SCT,M,M,M,4800.00,M,M,M,M,M,M,M,M,M,M,57.70,KINS 151855Z AUTO 00000KT 10SM SCT048 14/07 A2983 RMK AO2 DZB09E20 SLP076 P0000 T01430073 $,M
RNO,2023-03-15 18:55,-119.7711,39.4839,1341.00,44.00,21.90,41.00,M,5.00,0.00,30.01,1015.10,10.00,M,SCT,M,M,M,4000.00,M,M,M,M,M,M,M,M,M,M,40.77,KRNO 151855Z VRB05KT 10SM SCT040 07/M06 A3001 RMK AO2 SLP151 T00671056,M
TMT,2023-03-15 18:55,-117.1971,39.4643,1749.34,42.00,28.60,58.95,330.00,10.00,0.00,29.95,M,10.00,M,SCT,SCT,SCT,M,3200.00,4000.00,4900.00,M,M,M,M,M,M,M,M,35.38,KTMT 151855Z AUTO 33010KT 10SM SCT032 SCT040 SCT049 06/M02 A2995 RMK AO2 T00551019,M
LSV,2023-03-15 18:55,-115.0343,36.2362,570.00,64.00,50.20,61.00,140.00,9.00,0.00,29.80,1008.00,10.00,M,FEW,SCT,BKN,M,5000.00,6000.00,18000.00,M,M,M,M,M,M,M,M,63.90,KLSV 151855Z AUTO 14009KT 10SM FEW050 SCT060 BKN180 18/10 A2980 RMK AO2 SLP080 T01770101 $,M
TPH,2023-03-15 18:56,-117.0904,38.0505,1654.00,49.00,19.90,31.42,320.00,17.00,0.00,29.88,1009.50,10.00,24.00,FEW,SCT,M,M,6500.00,9000.00,M,M,M,M,M,M,M,M,M,42.22,KTPH 151856Z AUTO 32017G24KT 10SM FEW065 SCT090 09/M07 A2988 RMK AO2 SLP095 T00941067,M
EKO,2023-03-15 18:56,-115.7860,40.8242,1367.00,35.00,22.00,58.70,30.00,7.00,M,29.97,1015.30,10.00,14.00,SCT,M,M,M,4301.00,M,M,M,M,M,M,M,M,M,M,28.44,METAR KEKO 151856Z 03007G14KT 10SM SCT043 02/M06 A2997 RMK AO2 SLP153 T00171056 TSNO FIBI,M
LAS,2023-03-15 18:56,-115.1634,36.0719,663.00,64.00,42.00,44.74,220.00,14.00,0.00,29.83,1008.90,10.00,20.00,SCT,BKN,BKN,M,5000.00,11000.00,25000.00,M,M,M,M,M,M,M,M,64.00,KLAS 151856Z 22014G20KT 10SM SCT050 BKN110 BKN250 18/06 A2983 RMK AO2 SLP089 T01780056,M
WMC,2023-03-15 18:56,-117.8072,40.9019,1315.00,42.00,23.00,46.37,350.00,9.00,0.00,30.03,1015.80,10.00,18.00,CLR,M,M,M,M,M,M,M,M,M,M,M,M,M,M,36.07,KWMC 151856Z AUTO 35009G18KT 10SM CLR 06/M05 A3003 RMK AO2 SLP158 T00561050,M
NFL,2023-03-15 18:56,-118.7010,39.4166,1199.00,47.00,30.00,51.58,330.00,10.00,0.00,29.99,1012.60,10.00,18.00,SCT,SCT,M,M,4000.00,6000.00,M,M,M,M,M,M,M,M,M,41.65,KNFL 151856Z 33010G18KT 10SM SCT040 SCT060 08/M01 A2999 RMK AO2 SLP126 T00831011,M
HND,2023-03-15 18:56,-115.1344,35.9729,742.79,62.00,45.00,53.45,220.00,12.00,0.00,29.86,1011.60,10.00,20.00,BKN,M,M,M,7000.00,M,M,M,M,M,M,M,M,M,M,62.10,KHND 151856Z 22012G20KT 10SM BKN070 17/07 A2986 RMK AO2 SLP116 T01670072,M
BVU,2023-03-15 19:15,-114.8611,35.9475,671.00,60.80,51.80,72.20,160.00,13.00,0.00,29.84,M,10.00,19.00,FEW,BKN,BKN,M,4900.00,6000.00,7000.00,M,M,M,M,M,M,M,M,60.80,KBVU 151915Z AUTO 16013G19KT 10SM FEW049 BKN060 BKN070 16/11 A2984 RMK AO2,M
RTS,2023-03-15 19:15,-119.8764,39.6682,1539.00,41.00,23.00,48.39,M,3.00,0.00,30.02,M,10.00,M,FEW,M,M,M,3400.00,M,M,M,M,M,M,M,M,M,M,38.98,KRTS 151915Z AUTO VRB03KT 10SM FEW034 05/M05 A3002 RMK AO2,M
MEV,2023-03-15 19:15,-119.7500,38.9963,1441.42,44.60,32.00,61.03,340.00,13.00,0.00,29.99,M,10.00,18.00,BKN,BKN,M,M,4400.00,5000.00,M,M,M,M,M,M,M,M,M,37.71,KMEV 151915Z AUTO 34013G18KT 10SM BKN044 BKN050 07/00 A2999 RMK AO2,M
BAM,2023-03-15 19:15,-116.8743,40.5990,1382.36,42.80,30.20,60.79,10.00,12.00,0.00,30.00,M,10.00,15.00,SCT,OVC,M,M,3400.00,4600.00,M,M,M,M,M,M,M,M,M,35.75,KBAM 151915Z AUTO 01012G15KT 10SM SCT034 OVC046 06/M01 A3000 RMK AO1,M
HTH,2023-03-15 19:15,-118.6315,38.5448,1282.89,46.40,32.00,57.00,330.00,14.00,0.00,29.98,M,10.00,21.00,BKN,M,M,M,5500.00,M,M,M,M,M,M,M,M,M,M,39.72,KHTH 151915Z AUTO 33014G21KT 10SM BKN055 08/M00 A2998 RMK A01,M
TMT,2023-03-15 19:15,-117.1971,39.4643,1749.34,42.00,28.00,57.08,310.00,11.00,0.00,29.96,M,10.00,14.00,SCT,M,M,M,4000.00,M,M,M,M,M,M,M,M,M,M,35.23,KTMT 151915Z AUTO 31011G14KT 10SM SCT040 06/M02 A2996 RMK AO2 T00561022,M
BVU,2023-03-15 19:35,-114.8611,35.9475,671.00,60.80,51.80,72.20,160.00,16.00,0.00,29.83,M,10.00,22.00,FEW,BKN,BKN,M,4800.00,6000.00,8000.00,M,M,M,M,M,M,M,M,60.80,KBVU 151935Z AUTO 16016G22KT 10SM FEW048 BKN060 BKN080 16/11 A2983 RMK AO2,M
RTS,2023-03-15 19:35,-119.8764,39.6682,1539.00,41.00,23.00,48.39,0.00,0.00,0.00,30.02,M,10.00,M,SCT,M,M,M,3500.00,M,M,M,M,M,M,M,M,M,M,41.00,KRTS 151935Z AUTO 00000KT 10SM SCT035 05/M05 A3002 RMK AO2,M
MEV,2023-03-15 19:35,-119.7500,38.9963,1441.42,44.60,32.00,61.03,350.00,13.00,0.00,29.99,M,10.00,M,SCT,M,M,M,4400.00,M,M,M,M,M,M,M,M,M,M,37.71,KMEV 151935Z AUTO 35013KT 10SM SCT044 07/M00 A2999 RMK AO2,M
BAM,2023-03-15 19:35,-116.8743,40.5990,1382.36,42.80,30.20,60.79,350.00,7.00,0.00,30.00,M,10.00,16.00,BKN,BKN,M,M,4200.00,4900.00,M,M,M,M,M,M,M,M,M,37.94,KBAM 151935Z AUTO 35007G16KT 10SM BKN042 BKN049 06/M01 A3000 RMK AO1,M
HTH,2023-03-15 19:35,-118.6315,38.5448,1282.89,46.40,32.00,57.00,330.00,13.00,0.00,29.98,M,10.00,18.00,FEW,BKN,BKN,M,3900.00,5000.00,6000.00,M,M,M,M,M,M,M,M,40.02,KHTH 151935Z AUTO 33013G18KT 10SM FEW039 BKN050 BKN060 08/00 A2998 RMK A01,M
TMT,2023-03-15 19:35,-117.1971,39.4643,1749.34,42.00,26.20,53.00,330.00,9.00,0.00,29.96,M,10.00,M,SCT,M,M,M,3900.00,M,M,M,M,M,M,M,M,M,M,36.07,KTMT 151935Z AUTO 33009KT 10SM SCT039 06/M03 A2996 RMK AO2 T00561032,M
ELY,2023-03-15 19:53,-114.8453,39.2950,1909.00,39.00,30.00,69.85,330.00,11.00,0.00,29.88,1009.40,10.00,18.00,BKN,OVC,M,M,3700.00,4400.00,M,M,M,M,M,M,M,M,M,31.31,KELY 151953Z AUTO 33011G18KT 10SM BKN037 OVC044 04/M01 A2988 RMK AO2 SLP094 T00391011,M
LOL,2023-03-15 19:53,-118.5701,40.0684,1192.43,47.00,24.10,40.44,30.00,8.00,0.00,30.01,1016.00,10.00,M,BKN,M,M,M,5000.00,M,M,M,M,M,M,M,M,M,M,42.47,KLOL 151953Z AUTO 03008KT 10SM BKN050 08/M04 A3001 RMK AO2 SLP160 T00831044,M
P68,2023-03-15 19:53,-116.0056,39.6014,1993.00,38.00,30.90,75.64,10.00,12.00,0.00,29.93,1012.00,M,M,M,M,M,M,M,M,M,M,M,M,M,M,M,M,M,29.51,KP68 151953Z AUTO 01012KT 03/M01 A2993 RMK AO1 SLP120 T00331006,M
VGT,2023-03-15 19:53,-115.1933,36.2111,667.00,67.00,40.00,37.14,210.00,15.00,0.00,29.79,1009.20,10.00,22.00,BKN,OVC,M,M,7500.00,8500.00,M,M,M,M,M,M,M,M,M,66.90,KVGT 151953Z 21015G22KT 10SM BKN075 OVC085 19/04 A2979 RMK AO2 SLP092 T01940044,M
BVU,2023-03-15 19:55,-114.8611,35.9475,671.00,60.80,51.80,72.20,160.00,17.00,0.00,29.82,M,10.00,M,FEW,OVC,M,M,4800.00,6000.00,M,M,M,M,M,M,M,M,M,60.80,KBVU 151955Z AUTO 16017KT 10SM FEW048 OVC060 16/11 A2982 RMK AO2,M
RNO,2023-03-15 19:55,-119.7711,39.4839,1341.00,46.00,21.90,38.15,0.00,0.00,0.00,30.01,1014.70,10.00,M,FEW,M,M,M,4400.00,M,M,M,M,M,M,M,M,M,M,46.00,KRNO 151955Z 00000KT 10SM FEW044 08/M06 A3001 RMK AO2 SLP147 T00781056,M
RTS,2023-03-15 19:55,-119.8764,39.6682,1539.00,41.00,24.80,52.17,M,3.00,0.00,30.02,M,10.00,11.00,BKN,M,M,M,3700.00,M,M,M,M,M,M,M,M,M,M,38.98,KRTS 151955Z AUTO VRB03G11KT 10SM BKN037 05/M04 A3002 RMK AO2,M
MEV,2023-03-15 19:55,-119.7500,38.9963,1441.42,44.60,32.00,61.03,360.00,11.00,0.00,29.98,M,10.00,16.00,CLR,M,M,M,M,M,M,M,M,M,M,M,M,M,M,38.39,KMEV 151955Z AUTO 36011G16KT 10SM CLR 07/M00 A2998 RMK AO2,M
BAM,2023-03-15 19:55,-116.8743,40.5990,1382.36,42.80,30.20,60.79,340.00,10.00,0.00,30.00,M,10.00,15.00,SCT,M,M,M,4200.00,M,M,M,M,M,M,M,M,M,M,36.51,KBAM 151955Z AUTO 34010G15KT 10SM SCT042 06/M01 A3000 RMK AO1,M
HTH,2023-03-15 19:55,-118.6315,38.5448,1282.89,48.20,32.00,53.27,330.00,15.00,0.00,29.98,M,10.00,M,FEW,OVC,M,M,3500.00,5500.00,M,M,M,M,M,M,M,M,M,41.78,KHTH 151955Z AUTO 33015KT 10SM FEW035 OVC055 09/00 A2998 RMK A01,M
TMT,2023-03-15 19:55,-117.1971,39.4643,1749.34,43.50,28.20,54.54,330.00,8.00,0.00,29.96,M,10.00,M,CLR,M,M,M,M,M,M,M,M,M,M,M,M,M,M,38.28,KTMT 151955Z AUTO 33008KT 10SM CLR 06/M02 A2996 RMK AO2 T00641021,M
LSV,2023-03-15 19:55,-115.0343,36.2362,570.00,64.00,51.60,64.02,110.00,12.00,0.00,29.77,1006.90,10.00,M,BKN,M,M,M,5500.00,M,M,M,M,M,M,M,M,M,M,64.00,KLSV 151955Z AUTO 11012KT 10SM BKN055 18/11 A2977 RMK AO2 SLP069 T01780109 $,M
INS,2023-03-15 19:55,-115.6733,36.5872,955.00,59.50,44.00,56.21,120.00,5.00,0.00,29.81,1006.90,10.00,M,SCT,OVC,M,M,5500.00,7000.00,M,M,M,M,M,M,M,M,M,59.50,KINS 151955Z AUTO 12005KT 10SM SCT055 OVC070 15/07 A2981 RMK AO2 SLP069 T01530066 $,M
NFL,2023-03-15 19:56,-118.7010,39.4166,1199.00,50.00,27.00,40.62,360.00,9.00,0.00,29.99,1012.60,10.00,17.00,FEW,SCT,M,M,4000.00,6000.00,M,M,M,M,M,M,M,M,M,50.00,KNFL 151956Z 36009G17KT 10SM FEW040 SCT060 10/M03 A2999 RMK AO2 SLP126 T01001028,M
TPH,2023-03-15 19:56,-117.0904,38.0505,1654.00,53.00,24.10,32.11,330.00,17.00,0.00,29.88,1009.00,10.00,25.00,FEW,M,M,M,11000.00,M,M,M,M,M,M,M,M,M,M,53.10,KTPH 151956Z AUTO 33017G25KT 10SM FEW110 12/M04 A2988 RMK AO2 SLP090 T01171044,M
EKO,2023-03-15 19:56,-115.7860,40.8242,1367.00,36.00,21.00,54.08,M,4.08,M,29.98,1015.40,10.00,M,BKN,BKN,M,M,4101.00,5000.00,M,M,M,M,M,M,M,M,M,32.01,METAR KEKO 151956Z VRB04KT 10SM BKN041 BKN050 02/M06 A2998 RMK AO2 SLP154 T00221061 TSNO FIBI,M
HND,2023-03-15 19:56,-115.1344,35.9729,742.79,64.00,44.00,48.31,210.00,17.00,0.00,29.83,1010.60,10.00,M,BKN,M,M,M,7500.00,M,M,M,M,M,M,M,M,M,M,64.00,KHND 151956Z 21017KT 10SM BKN075 18/07 A2983 RMK AO2 SLP106 T01780067,M
LAS,2023-03-15 19:56,-115.1634,36.0719,663.00,66.00,42.00,41.73,220.00,14.00,0.00,29.81,1008.10,10.00,24.00,SCT,BKN,BKN,M,5000.00,11000.00,25000.00,M,M,M,M,M,M,M,M,66.00,KLAS 151956Z 22014G24KT 10SM SCT050 BKN110 BKN250 19/06 A2981 RMK AO2 SLP081 T01890056,M
WMC,2023-03-15 19:56,-117.8072,40.9019,1315.00,44.00,23.00,42.95,340.00,8.00,0.00,30.03,1015.80,10.00,M,CLR,M,M,M,M,M,M,M,M,M,M,M,M,M,M,39.02,KWMC 151956Z AUTO 34008KT 10SM CLR 07/M05 A3003 RMK AO2 SLP158 T00671050,M
BVU,2023-03-15 20:15,-114.8611,35.9475,671.00,60.80,51.80,72.20,160.00,15.00,0.00,29.82,M,10.00,M,BKN,BKN,OVC,M,5000.00,6000.00,8000.00,M,M,M,M,M,M,M,M,60.80,KBVU 152015Z AUTO 16015KT 10SM BKN050 BKN060 OVC080 16/11 A2982 RMK AO2,M
RTS,2023-03-15 20:15,-119.8764,39.6682,1539.00,41.00,23.00,48.39,20.00,6.00,0.00,30.02,M,10.00,M,FEW,M,M,M,3800.00,M,M,M,M,M,M,M,M,M,M,36.37,KRTS 152015Z AUTO 02006KT 10SM FEW038 05/M05 A3002 RMK AO2,M
MEV,2023-03-15 20:15,-119.7500,38.9963,1441.42,44.60,30.20,56.74,330.00,10.00,0.00,29.99,M,10.00,M,CLR,M,M,M,M,M,M,M,M,M,M,M,M,M,M,38.77,KMEV 152015Z AUTO 33010KT 10SM CLR 07/M01 A2999 RMK AO2,M
BAM,2023-03-15 20:15,-116.8743,40.5990,1382.36,44.60,32.00,61.03,350.00,9.00,0.00,30.00,M,10.00,18.00,CLR,M,M,M,M,M,M,M,M,M,M,M,M,M,M,39.18,KBAM 152015Z AUTO 35009G18KT 10SM CLR 07/00 A3000 RMK AO1,M
HTH,2023-03-15 20:15,-118.6315,38.5448,1282.89,48.20,32.00,53.27,320.00,12.00,0.00,29.98,M,10.00,20.00,OVC,M,M,M,6000.00,M,M,M,M,M,M,M,M,M,M,42.62,KHTH 152015Z AUTO 32012G20KT 10SM OVC060 09/00 A2998 RMK A01,M
TMT,2023-03-15 20:15,-117.1971,39.4643,1749.34,41.00,28.40,60.54,330.00,8.00,0.00,29.96,M,10.00,14.00,SCT,BKN,M,M,5000.00,6000.00,M,M,M,M,M,M,M,M,M,35.20,KTMT 152015Z AUTO 33008G14KT 10SM SCT050 BKN060 05/M02 A2996 RMK AO2 T00501020,M
BVU,2023-03-15 20:35,-114.8611,35.9475,671.00,60.80,51.80,72.20,150.00,16.00,0.00,29.81,M,10.00,M,BKN,BKN,BKN,M,5000.00,6000.00,7000.00,M,M,M,M,M,M,M,M,60.80,KBVU 152035Z AUTO 15016KT 10SM BKN050 BKN060 BKN070 16/11 A2981 RMK AO2,M
RTS,2023-03-15 20:35,-119.8764,39.6682,1539.00,41.00,21.20,44.85,M,4.00,0.00,30.02,M,10.00,M,SCT,M,M,M,4100.00,M,M,M,M,M,M,M,M,M,M,37.93,KRTS 152035Z AUTO VRB04KT 10SM SCT041 05/M06 A3002 RMK AO2,M
MEV,2023-03-15 20:35,-119.7500,38.9963,1441.42,46.40,30.20,53.00,360.00,9.00,0.00,29.99,M,10.00,14.00,FEW,FEW,SCT,M,4300.00,4900.00,5500.00,M,M,M,M,M,M,M,M,41.42,KMEV 152035Z AUTO 36009G14KT 10SM FEW043 FEW049 SCT055 08/M01 A2999 RMK AO2,M
BAM,2023-03-15 20:35,-116.8743,40.5990,1382.36,44.60,30.20,56.74,330.00,11.00,0.00,30.00,M,10.00,15.00,SCT,M,M,M,4800.00,M,M,M,M,M,M,M,M,M,M,38.39,KBAM 152035Z AUTO 33011G15KT 10SM SCT048 07/M01 A3000 RMK AO1,M
HTH,2023-03-15 20:35,-118.6315,38.5448,1282.89,48.20,32.00,53.27,330.00,16.00,0.00,29.98,M,10.00,M,OVC,M,M,M,6000.00,M,M,M,M,M,M,M,M,M,M,41.53,KHTH 152035Z AUTO 33016KT 10SM OVC060 09/M00 A2998 RMK A01,M
TMT,2023-03-15 20:35,-117.1971,39.4643,1749.34,42.60,26.40,52.42,290.00,10.00,0.00,29.96,M,10.00,M,SCT,BKN,BKN,M,4000.00,5000.00,6000.00,M,M,M,M,M,M,M,M,36.26,KTMT 152035Z AUTO 29010KT 10SM SCT040 BKN050 BKN060 06/M03 A2996 RMK AO2 T00591031,M
LOL,2023-03-15 20:53,-118.5701,40.0684,1192.43,48.00,24.10,38.80,10.00,8.00,0.00,30.00,1015.50,10.00,M,SCT,M,M,M,5000.00,M,M,M,M,M,M,M,M,M,M,43.82,KLOL 152053Z AUTO 01008KT 340V050 10SM SCT050 09/M04 A3000 RMK AO2 SLP155 T00891044 58001,M
P68,2023-03-15 20:53,-116.0056,39.6014,1993.00,40.00,30.00,67.45,360.00,14.00,0.00,29.93,1011.80,M,M,M,M,M,M,M,M,M,M,M,M,M,M,M,M,M,31.35,KP68 152053Z AUTO 36014KT 04/M01 A2993 RMK AO1 SLP118 T00441011 51006,M
ELY,2023-03-15 20:53,-114.8453,39.2950,1909.00,38.00,26.10,62.14,320.00,13.00,0.00,29.88,1009.50,10.00,M,BKN,BKN,OVC,M,3800.00,4600.00,11000.00,M,M,M,M,M,M,M,M,29.13,KELY 152053Z AUTO 32013KT 10SM BKN038 BKN046 OVC110 03/M03 A2988 RMK AO2 SLP095 T00331033 53001,M
VGT,2023-03-15 20:53,-115.1933,36.2111,667.00,69.00,41.00,35.94,210.00,13.00,0.00,29.75,1007.70,10.00,24.00,CLR,M,M,M,M,M,M,M,M,M,M,M,27.00,210.00,2023-03-15 20:37,69.10,KVGT 152053Z 21013G24KT 10SM CLR 21/05 A2975 RMK AO2 PK WND 21027/2037 SLP077 T02060050 58024,M
BVU,2023-03-15 20:55,-114.8611,35.9475,671.00,62.60,51.80,67.75,150.00,18.00,0.00,29.79,M,10.00,24.00,BKN,BKN,BKN,M,5000.00,6500.00,8000.00,M,VCTS,M,M,M,M,M,M,62.60,KBVU 152055Z AUTO 15018G24KT 10SM VCTS BKN050 BKN065 BKN080 17/11 A2979 RMK AO2 LTG DSNT W-N,M
RNO,2023-03-15 20:55,-119.7711,39.4839,1341.00,48.00,23.00,37.06,90.00,6.00,0.00,30.00,1014.40,10.00,M,FEW,M,M,M,4900.00,M,M,M,M,M,M,M,M,M,M,44.80,KRNO 152055Z 09006KT 10SM FEW049 09/M05 A3000 RMK AO2 SLP144 T00891050 58004,M
RTS,2023-03-15 20:55,-119.8764,39.6682,1539.00,41.00,23.00,48.39,70.00,6.00,0.00,30.01,M,10.00,M,BKN,M,M,M,4100.00,M,M,M,M,M,M,M,M,M,M,36.37,KRTS 152055Z AUTO 07006KT 10SM BKN041 05/M05 A3001 RMK AO2,M
MEV,2023-03-15 20:55,-119.7500,38.9963,1441.42,46.40,30.20,53.00,M,5.00,0.00,29.98,M,10.00,12.00,SCT,SCT,M,M,4800.00,5500.00,M,M,M,M,M,M,M,M,M,43.50,KMEV 152055Z AUTO VRB05G12KT 10SM SCT048 SCT055 08/M01 A2998 RMK AO2,M
BAM,2023-03-15 20:55,-116.8743,40.5990,1382.36,44.60,30.20,56.74,340.00,12.00,0.00,30.00,M,10.00,15.00,SCT,M,M,M,4600.00,M,M,M,M,M,M,M,M,M,M,38.04,KBAM 152055Z AUTO 34012G15KT 10SM SCT046 07/M01 A3000 RMK AO1,M
HTH,2023-03-15 20:55,-118.6315,38.5448,1282.89,48.20,30.20,49.53,320.00,17.00,0.00,29.97,M,10.00,M,OVC,M,M,M,6000.00,M,M,M,M,M,M,M,M,M,M,41.30,KHTH 152055Z AUTO 32017KT 10SM OVC060 09/M01 A2997 RMK A01,M
TMT,2023-03-15 20:55,-117.1971,39.4643,1749.34,43.30,26.10,50.40,320.00,8.00,0.00,29.96,M,10.00,14.00,BKN,M,M,M,4300.00,M,M,M,M,M,M,M,M,M,M,38.03,KTMT 152055Z AUTO 32008G14KT 10SM BKN043 06/M03 A2996 RMK AO2 LTG DSNT S T00631033,M
LSV,2023-03-15 20:55,-115.0343,36.2362,570.00,67.50,43.50,41.80,190.00,14.00,0.00,29.74,1005.80,10.00,M,FEW,SCT,SCT,M,6000.00,8000.00,20000.00,M,M,M,M,M,M,M,M,67.50,KLSV 152055Z AUTO 19014KT 10SM FEW060 SCT080 SCT200 20/06 A2974 RMK AO2 SLP058 T01970064 57023 $,M
INS,2023-03-15 20:55,-115.6733,36.5872,955.00,60.30,42.00,50.98,0.00,0.00,0.00,29.79,1006.20,10.00,M,SCT,BKN,BKN,OVC,4500.00,5500.00,7000.00,8500.00,M,M,M,M,M,M,M,60.30,KINS 152055Z AUTO 00000KT 10SM SCT045 BKN055 BKN070 OVC085 16/06 A2979 RMK AO2 SLP062 60000 T01570056 57016 $,M
NFL,2023-03-15 20:56,-118.7010,39.4166,1199.00,51.00,25.00,35.89,350.00,13.00,0.00,29.98,1012.30,10.00,21.00,SCT,M,M,M,5000.00,M,M,M,M,M,M,M,M,M,M,51.10,KNFL 152056Z 35013G21KT 10SM SCT050 11/M04 A2998 RMK AO2 SLP123 T01061039 58003,M
TPH,2023-03-15 20:56,-117.0904,38.0505,1654.00,53.00,21.00,28.18,330.00,18.00,0.00,29.86,1008.40,10.00,27.00,CLR,M,M,M,M,M,M,M,M,M,M,M,28.00,340.00,2023-03-15 20:43,53.10,KTPH 152056Z AUTO 33018G27KT 10SM CLR 12/M06 A2986 RMK AO2 PK WND 34028/2043 SLP084 T01171061 58007,M
EKO,2023-03-15 20:56,-115.7860,40.8242,1367.00,37.00,21.00,51.99,350.00,11.08,M,29.99,1015.60,10.00,M,FEW,M,M,M,3900.00,M,M,M,M,M,M,M,M,M,M,28.75,METAR KEKO 152056Z 35011KT 10SM FEW039 03/M06 A2999 RMK AO2 SLP156 T00281061 51008 TSNO FIBI,M
HND,2023-03-15 20:56,-115.1344,35.9729,742.79,66.00,44.00,45.05,220.00,15.00,0.00,29.80,1009.70,10.00,19.00,SCT,SCT,M,M,7500.00,9500.00,M,M,M,M,M,M,M,M,M,66.00,KHND 152056Z 22015G19KT 10SM SCT075 SCT095 19/07 A2980 RMK AO2 SLP097 T01890067 58018,M
WMC,2023-03-15 20:56,-117.8072,40.9019,1315.00,44.00,21.00,39.47,M,M,0.00,30.02,1016.10,10.00,M,CLR,M,M,M,M,M,M,M,M,M,M,M,M,M,M,M,KWMC 152056Z AUTO 10SM CLR 07/M06 A3002 RMK AO2 SLP161 T00671061 50000,M
LAS,2023-03-15 20:56,-115.1634,36.0719,663.00,67.00,42.00,40.45,210.00,7.00,0.00,29.78,1007.30,10.00,M,SCT,BKN,BKN,M,5000.00,11000.00,25000.00,M,M,M,M,M,27.00,230.00,2023-03-15 20:00,66.90,KLAS 152056Z 21007KT 10SM SCT050 BKN110 BKN250 19/06 A2978 RMK AO2 PK WND 23027/2000 SLP073 T01940056 58015,M
LSV,2023-03-15 21:06,-115.0343,36.2362,570.00,68.00,44.60,42.85,220.00,13.00,0.00,29.73,1005.40,10.00,M,SCT,SCT,M,M,6000.00,8000.00,M,M,M,M,M,M,M,M,M,68.00,KLSV 152106Z AUTO 22013KT 10SM SCT060 SCT080 20/07 A2973 RMK AO2 WSHFT 00 SLP054 $,M
LAS,2023-03-15 21:11,-115.1634,36.0719,663.00,66.00,41.00,39.99,240.00,11.00,0.00,29.77,M,10.00,20.00,SCT,BKN,BKN,M,5000.00,11000.00,25000.00,M,TS,M,M,M,M,M,M,66.00,KLAS 152111Z 24011G20KT 10SM TS SCT050 BKN110CB BKN250 19/05 A2977 RMK AO2 TSE06B11 OCNL LTGICCG SW TS SW MOV NE T01890050,M
HND,2023-03-15 21:12,-115.1344,35.9729,742.79,64.40,44.60,48.55,200.00,15.00,0.00,29.80,M,10.00,20.00,SCT,BKN,M,M,7500.00,10000.00,M,M,VCTS,M,M,M,M,M,M,64.40,KHND 152112Z 20015G20KT 10SM VCTS SCT075 BKN100 18/07 A2980 RMK AO2 TSB06,M
BVU,2023-03-15 21:15,-114.8611,35.9475,671.00,62.60,50.00,63.38,150.00,18.00,0.00,29.79,M,10.00,M,FEW,BKN,M,M,5500.00,8000.00,M,M,M,M,M,M,M,M,M,62.60,KBVU 152115Z AUTO 15018KT 10SM FEW055 BKN080 17/10 A2979 RMK AO2 LTG DSNT N AND W,M
RTS,2023-03-15 21:15,-119.8764,39.6682,1539.00,42.80,23.00,45.14,60.00,7.00,0.00,30.01,M,10.00,13.00,FEW,M,M,M,4100.00,M,M,M,M,M,M,M,M,M,M,37.94,KRTS 152115Z AUTO 06007G13KT 10SM FEW041 06/M05 A3001 RMK AO2,M
MEV,2023-03-15 21:15,-119.7500,38.9963,1441.42,48.20,32.00,53.27,350.00,11.00,0.00,29.98,M,10.00,M,SCT,BKN,M,M,4400.00,5000.00,M,M,M,M,M,M,M,M,M,42.94,KMEV 152115Z AUTO 35011KT 310V010 10SM SCT044 BKN050 09/M00 A2998 RMK AO2,M
BAM,2023-03-15 21:15,-116.8743,40.5990,1382.36,44.60,30.20,56.74,330.00,12.00,0.00,30.00,M,10.00,16.00,SCT,M,M,M,4400.00,M,M,M,M,M,M,M,M,M,M,38.04,KBAM 152115Z AUTO 33012G16KT 10SM SCT044 07/M01 A3000 RMK AO1,M
HTH,2023-03-15 21:15,-118.6315,38.5448,1282.89,48.20,30.20,49.53,330.00,16.00,0.00,29.97,M,10.00,M,OVC,M,M,M,6500.00,M,M,M,M,M,M,M,M,M,M,41.53,KHTH 152115Z AUTO 33016KT 10SM OVC065 09/M01 A2997 RMK A01,M
TMT,2023-03-15 21:15,-117.1971,39.4643,1749.34,43.20,26.40,51.22,350.00,8.00,0.00,29.96,M,10.00,M,SCT,BKN,BKN,M,4100.00,4700.00,5500.00,M,M,M,M,M,M,M,M,37.91,KTMT 152115Z AUTO 35008KT 10SM SCT041 BKN047 BKN055 06/M03 A2996 RMK AO2 T00621031,M
HND,2023-03-15 21:27,-115.1344,35.9729,742.79,64.40,44.60,48.55,210.00,12.00,0.00,29.80,M,10.00,21.00,BKN,BKN,M,M,8000.00,10000.00,M,M,M,M,M,M,M,M,M,64.40,KHND 152127Z 21012G21KT 10SM BKN080 BKN100 18/07 A2980 RMK AO2 LTG DSNT SW AND W TSB06E21,M
DRA,2023-03-15 21:33,-116.0278,36.6206,1009.00,52.00,41.00,66.00,350.00,12.00,0.00,29.79,M,10.00,27.00,OVC,M,M,M,3800.00,M,M,M,M,M,M,M,27.00,330.00,2023-03-15 21:25,52.00,KDRA 152133Z AUTO 35012G27KT 10SM OVC038 11/05 A2979 RMK AO2 PK WND 33027/2125 WSHFT 2116 T01110050,M
BVU,2023-03-15 21:35,-114.8611,35.9475,671.00,62.60,50.00,63.38,150.00,16.00,0.00,29.78,M,10.00,M,BKN,OVC,M,M,5000.00,8000.00,M,M,M,M,M,M,M,M,M,62.60,KBVU 152135Z AUTO 15016KT 10SM BKN050 OVC080 17/10 A2978 RMK AO2,M
RTS,2023-03-15 21:35,-119.8764,39.6682,1539.00,42.80,23.00,45.14,30.00,7.00,0.00,30.00,M,10.00,M,CLR,M,M,M,M,M,M,M,M,M,M,M,M,M,M,37.94,KRTS 152135Z AUTO 03007KT 010V100 10SM CLR 06/M05 A3000 RMK AO2,M
MEV,2023-03-15 21:35,-119.7500,38.9963,1441.42,46.40,28.40,49.24,360.00,8.00,0.00,29.97,M,10.00,M,SCT,SCT,M,M,4500.00,5000.00,M,M,M,M,M,M,M,M,M,41.85,KMEV 152135Z AUTO 36008KT 320V020 10SM SCT045 SCT050 08/M02 A2997 RMK AO2,M
BAM,2023-03-15 21:35,-116.8743,40.5990,1382.36,46.40,30.20,53.00,360.00,12.00,0.00,30.00,M,10.00,15.00,SCT,M,M,M,4200.00,M,M,M,M,M,M,M,M,M,M,40.33,KBAM 152135Z AUTO 36012G15KT 10SM SCT042 08/M01 A3000 RMK AO1,M
HTH,2023-03-15 21:35,-118.6315,38.5448,1282.89,48.20,30.20,49.53,340.00,17.00,0.00,29.97,M,10.00,M,BKN,M,M,M,6500.00,M,M,M,M,M,M,M,M,M,M,41.30,KHTH 152135Z AUTO 34017KT 10SM BKN065 09/M01 A2997 RMK A01,M
TMT,2023-03-15 21:35,-117.1971,39.4643,1749.34,42.40,24.80,49.43,360.00,8.00,0.00,29.95,M,10.00,14.00,SCT,M,M,M,4700.00,M,M,M,M,M,M,M,M,M,M,36.92,KTMT 152135Z AUTO 36008G14KT 10SM SCT047 06/M04 A2995 RMK AO2 T00581040,M
VGT,2023-03-15 21:38,-115.1933,36.2111,667.00,68.00,41.00,37.32,200.00,19.00,0.00,29.73,M,10.00,26.00,FEW,M,M,M,11000.00,M,M,M,TS,M,M,M,29.00,220.00,2023-03-15 21:17,68.00,KVGT 152138Z 20019G26KT 10SM TS FEW110 20/05 A2973 RMK AO2 PK WND 22029/2117 LTG DSNT SW TSB38 T02000050,M
DRA,2023-03-15 21:49,-116.0278,36.6206,1009.00,46.00,41.00,82.58,M,4.00,0.10,29.81,M,1.75,M,FEW,OVC,M,M,2800.00,4000.00,M,M,+RA,M,M,M,27.00,330.00,2023-03-15 21:25,43.77,KDRA 152149Z AUTO VRB04KT 1 3/4SM +RA FEW028 OVC040 08/05 A2981 RMK AO2 PK WND 33027/2125 WSHFT 2116 RAB35 P0010 T00780050,M
ELY,2023-03-15 21:53,-114.8453,39.2950,1909.00,38.00,26.10,62.14,320.00,14.00,0.00,29.89,1010.00,10.00,M,OVC,M,M,M,4400.00,M,M,M,M,M,M,M,M,M,M,28.77,KELY 152153Z AUTO 32014KT 10SM OVC044 03/M03 A2989 RMK AO2 SLP100 T00331033,M
VGT,2023-03-15 21:53,-115.1933,36.2111,667.00,68.00,43.00,40.31,190.00,18.00,0.00,29.73,1007.20,10.00,26.00,CLR,M,M,M,M,M,M,M,M,M,M,M,29.00,220.00,2023-03-15 21:17,68.00,KVGT 152153Z 19018G26KT 10SM CLR 20/06 A2973 RMK AO2 PK WND 22029/2117 LTG DSNT SE-W TSB38E48 SLP072 T02000061,M
LOL,2023-03-15 21:53,-118.5701,40.0684,1192.43,49.00,23.00,35.83,40.00,7.00,0.00,29.99,1015.10,10.00,M,CLR,M,M,M,M,M,M,M,M,M,M,M,M,M,M,45.38,KLOL 152153Z AUTO 04007KT 10SM CLR 09/M05 A2999 RMK AO2 SLP151 T00941050,M
P68,2023-03-15 21:53,-116.0056,39.6014,1993.00,38.00,28.90,69.73,10.00,13.00,0.00,29.93,1012.10,M,M,M,M,M,M,M,M,M,M,M,M,M,M,M,M,M,29.13,KP68 152153Z AUTO 01013KT 03/M02 A2993 RMK AO1 SLP121 T00331017,M
DRA,2023-03-15 21:53,-116.0278,36.6206,1009.00,47.00,42.00,83.28,140.00,8.00,0.17,29.80,1007.30,1.00,M,SCT,OVC,M,M,2600.00,4000.00,M,M,+RA,M,M,M,27.00,330.00,2023-03-15 21:25,42.47,KDRA 152153Z AUTO 14008KT 1SM +RA SCT026 OVC040 08/06 A2980 RMK AO2 PK WND 33027/2125 WSHFT 2116 RAB35 SLP073 P0017 T00830056,M
BVU,2023-03-15 21:55,-114.8611,35.9475,671.00,62.60,50.00,63.38,170.00,12.00,0.00,29.77,M,10.00,M,FEW,OVC,M,M,4100.00,5000.00,M,M,M,M,M,M,M,M,M,62.60,KBVU 152155Z AUTO 17012KT 140V200 10SM FEW041 OVC050 17/10 A2977 RMK AO2 LTG DSNT ALQDS,M
RNO,2023-03-15 21:55,-119.7711,39.4839,1341.00,50.00,21.90,32.83,M,4.00,0.00,29.98,1013.70,10.00,M,FEW,M,M,M,5000.00,M,M,M,M,M,M,M,M,M,M,50.00,KRNO 152155Z VRB04KT 10SM FEW050 10/M06 A2998 RMK AO2 SLP137 T01001056,M
RTS,2023-03-15 21:55,-119.8764,39.6682,1539.00,44.60,23.00,42.14,M,5.00,0.00,30.00,M,10.00,M,CLR,M,M,M,M,M,M,M,M,M,M,M,M,M,M,41.36,KRTS 152155Z AUTO VRB05KT 10SM CLR 07/M05 A3000 RMK AO2,M
MEV,2023-03-15 21:55,-119.7500,38.9963,1441.42,46.40,28.40,49.24,310.00,7.00,0.00,29.97,M,10.00,13.00,CLR,M,M,M,M,M,M,M,M,M,M,M,M,M,M,42.33,KMEV 152155Z AUTO 31007G13KT 10SM CLR 08/M02 A2997 RMK AO2,M
BAM,2023-03-15 21:55,-116.8743,40.5990,1382.36,44.60,30.20,56.74,350.00,12.00,0.00,30.00,M,10.00,M,SCT,M,M,M,4400.00,M,M,M,M,M,M,M,M,M,M,38.04,KBAM 152155Z AUTO 35012KT 10SM SCT044 07/M01 A3000 RMK AO1,M
HTH,2023-03-15 21:55,-118.6315,38.5448,1282.89,48.20,30.20,49.53,330.00,17.00,0.00,29.96,M,10.00,22.00,BKN,M,M,M,6500.00,M,M,M,M,M,M,M,M,M,M,41.30,KHTH 152155Z AUTO 33017G22KT 10SM BKN065 09/M01 A2996 RMK A01,M
TMT,2023-03-15 21:55,-117.1971,39.4643,1749.34,43.50,23.40,44.69,340.00,10.00,0.00,29.95,M,10.00,14.00,CLR,M,M,M,M,M,M,M,M,M,M,M,M,M,M,37.39,KTMT 152155Z AUTO 34010G14KT 10SM CLR 06/M05 A2995 RMK AO2 T00641048,M
INS,2023-03-15 21:55,-115.6733,36.5872,955.00,62.20,36.30,38.01,290.00,16.00,0.00,29.76,1004.80,10.00,M,FEW,FEW,SCT,M,6000.00,7500.00,10000.00,M,M,M,M,M,M,M,M,62.20,KINS 152155Z AUTO 29016KT 10SM FEW060 FEW075 SCT100 17/02 A2976 RMK AO2 SLP048 T01680024 $,M
LSV,2023-03-15 21:55,-115.0343,36.2362,570.00,70.70,43.20,37.03,220.00,14.00,0.00,29.72,1005.00,10.00,M,FEW,M,M,M,20000.00,M,M,M,M,M,M,M,M,M,M,70.70,KLSV 152155Z AUTO 22014KT 10SM FEW200 22/06 A2972 RMK AO2 SLP050 T02150062 $,M
WMC,2023-03-15 21:56,-117.8072,40.9019,1315.00,46.00,21.00,36.72,320.00,11.00,0.00,30.02,1015.80,10.00,20.00,CLR,M,M,M,M,M,M,M,M,M,M,M,M,M,M,40.16,KWMC 152156Z AUTO 32011G20KT 10SM CLR 08/M06 A3002 RMK AO2 SLP158 T00781061,M
HND,2023-03-15 21:56,-115.1344,35.9729,742.79,62.00,48.00,59.86,260.00,8.00,0.01,29.81,1010.00,10.00,M,BKN,OVC,M,M,4600.00,6500.00,M,M,TSRA,M,M,M,M,M,M,62.10,KHND 152156Z 26008KT 230V310 10SM TSRA BKN046 OVC065 17/09 A2981 RMK AO2 LTG DSNT W AND NW TSB06E21B49RAB38 SLP100 P0001 T01670089,M
TPH,2023-03-15 21:56,-117.0904,38.0505,1654.00,54.00,23.00,29.67,330.00,15.00,0.00,29.86,1008.10,10.00,28.00,CLR,M,M,M,M,M,M,M,M,M,M,M,31.00,320.00,2023-03-15 21:34,54.00,KTPH 152156Z AUTO 33015G28KT 10SM CLR 12/M05 A2986 RMK AO2 PK WND 32031/2134 SLP081 T01221050,M
LAS,2023-03-15 21:56,-115.1634,36.0719,663.00,63.00,43.00,47.97,200.00,10.00,T,29.77,1006.90,10.00,19.00,SCT,BKN,BKN,M,5000.00,8000.00,25000.00,M,TS,M,M,M,M,M,M,63.00,KLAS 152156Z 20010G19KT 10SM TS SCT050 BKN080CB BKN250 17/06 A2977 RMK AO2 LTG DSNT SW AND W RAB42E53 TSE06B11 SLP069 OCNL LTGICCG SE-SW-W TS SE-SW-W MOV NE CB DSNT NW-NE P0000 T01720061,M
EKO,2023-03-15 21:56,-115.7860,40.8242,1367.00,37.00,18.00,45.73,340.00,7.00,M,29.98,1015.60,10.00,M,CLR,M,M,M,M,M,M,M,M,M,M,M,M,M,M,30.88,METAR KEKO 152156Z 34007KT 10SM CLR 03/M08 A2998 RMK AO2 SLP156 T00281078 TSNO FIBI,M
NFL,2023-03-15 21:56,-118.7010,39.4166,1199.00,51.00,25.00,35.89,360.00,6.00,0.00,29.97,1012.00,10.00,17.00,SCT,M,M,M,5000.00,M,M,M,M,M,M,M,M,M,M,51.10,KNFL 152156Z 36006G17KT 10SM SCT050 11/M04 A2997 RMK AO2 SLP120 T01061039,M
DRA,2023-03-15 22:01,-116.0278,36.6206,1009.00,45.00,41.00,85.77,140.00,7.00,0.19,29.80,M,2.00,M,FEW,BKN,OVC,M,2400.00,3300.00,4200.00,M,+RA BR,M,M,M,M,M,M,40.63,KDRA 152201Z AUTO 14007KT 2SM +RA BR FEW024 BKN033 OVC042 07/05 A2980 RMK AO2 P0019 T00720050 $,M
DRA,2023-03-15 22:07,-116.0278,36.6206,1009.00,46.00,42.00,86.16,M,3.00,0.25,29.81,M,4.00,M,FEW,BKN,OVC,M,2400.00,3500.00,4400.00,M,RA BR,M,M,M,M,M,M,44.69,KDRA 152207Z AUTO VRB03KT 4SM RA BR FEW024 BKN035 OVC044 08/06 A2981 RMK AO2 P0025 T00780056 $,M
BVU,2023-03-15 22:15,-114.8611,35.9475,671.00,62.60,50.00,63.38,220.00,11.00,0.00,29.78,M,10.00,M,FEW,OVC,M,M,4200.00,5000.00,M,M,M,M,M,M,M,M,M,62.60,KBVU 152215Z AUTO 22011KT 10SM FEW042 OVC050 17/10 A2978 RMK AO2,M
RTS,2023-03-15 22:15,-119.8764,39.6682,1539.00,44.60,21.20,39.06,20.00,5.00,0.00,30.00,M,10.00,12.00,CLR,M,M,M,M,M,M,M,M,M,M,M,M,M,M,41.36,KRTS 152215Z AUTO 02005G12KT 10SM CLR 07/M06 A3000 RMK AO2,M
MEV,2023-03-15 22:15,-119.7500,38.9963,1441.42,48.20,28.40,46.02,300.00,7.00,0.00,29.96,M,10.00,13.00,CLR,M,M,M,M,M,M,M,M,M,M,M,M,M,M,44.53,KMEV 152215Z AUTO 30007G13KT 10SM CLR 09/M02 A2996 RMK AO2,M
BAM,2023-03-15 22:15,-116.8743,40.5990,1382.36,44.60,28.40,52.72,320.00,10.00,0.00,30.01,M,10.00,M,SCT,M,M,M,4600.00,M,M,M,M,M,M,M,M,M,M,38.77,KBAM 152215Z AUTO 32010KT 10SM SCT046 07/M02 A3001 RMK AO1,M
HTH,2023-03-15 22:15,-118.6315,38.5448,1282.89,48.20,28.40,46.02,340.00,17.00,0.00,29.96,M,10.00,22.00,SCT,M,M,M,7000.00,M,M,M,M,M,M,M,M,M,M,41.30,KHTH 152215Z AUTO 34017G22KT 10SM SCT070 09/M02 A2996 RMK A01,M
TMT,2023-03-15 22:15,-117.1971,39.4643,1749.34,43.70,25.20,47.81,320.00,8.00,0.00,29.95,M,10.00,M,SCT,M,M,M,4800.00,M,M,M,M,M,M,M,M,M,M,38.53,KTMT 152215Z AUTO 32008KT 10SM SCT048 07/M04 A2995 RMK AO2 T00651038,M
HND,2023-03-15 22:16,-115.1344,35.9729,742.79,57.20,46.40,67.12,250.00,11.00,0.10,29.82,M,10.00,M,FEW,SCT,OVC,M,1900.00,4600.00,6500.00,M,-RA,M,M,M,M,M,M,57.20,KHND 152216Z 25011KT 10SM -RA FEW019 SCT046 OVC065 14/08 A2982 RMK AO2 LTG DSNT S AND SW TSE10 P0010,M
INS,2023-03-15 22:24,-115.6733,36.5872,955.00,59.00,37.40,44.47,320.00,24.00,0.00,29.77,1005.50,10.00,31.00,SCT,BKN,M,M,7000.00,11000.00,M,M,M,M,M,M,M,M,M,59.00,KINS 152224Z AUTO 32024G31KT 10SM SCT070 BKN110 15/03 A2977 RMK AO2 WSHFT 12 LTG DSNT W SLP055 $,M
BVU,2023-03-15 22:35,-114.8611,35.9475,671.00,62.60,42.80,48.28,260.00,22.00,0.00,29.78,M,10.00,27.00,SCT,BKN,BKN,M,5500.00,7000.00,9500.00,M,VCTS,M,M,M,M,M,M,62.60,KBVU 152235Z AUTO 26022G27KT 10SM VCTS SCT055 BKN070 BKN095 17/06 A2978 RMK AO2 LTG DSNT ALQDS,M
RTS,2023-03-15 22:35,-119.8764,39.6682,1539.00,44.60,21.20,39.06,40.00,8.00,0.00,30.00,M,10.00,M,CLR,M,M,M,M,M,M,M,M,M,M,M,M,M,M,39.63,KRTS 152235Z AUTO 04008KT 10SM CLR 07/M06 A3000 RMK AO2,M
MEV,2023-03-15 22:35,-119.7500,38.9963,1441.42,48.20,26.60,42.73,310.00,6.00,0.00,29.97,M,10.00,M,CLR,M,M,M,M,M,M,M,M,M,M,M,M,M,M,45.04,KMEV 152235Z AUTO 31006KT 10SM CLR 09/M03 A2997 RMK AO2,M
BAM,2023-03-15 22:35,-116.8743,40.5990,1382.36,46.40,28.40,49.24,320.00,9.00,0.00,30.01,M,10.00,14.00,SCT,M,M,M,5000.00,M,M,M,M,M,M,M,M,M,M,41.42,KBAM 152235Z AUTO 32009G14KT 10SM SCT050 08/M02 A3001 RMK AO1,M
HTH,2023-03-15 22:35,-118.6315,38.5448,1282.89,50.00,26.60,39.95,350.00,15.00,0.00,29.96,M,10.00,M,SCT,M,M,M,6500.00,M,M,M,M,M,M,M,M,M,M,50.00,KHTH 152235Z AUTO 35015KT 10SM SCT065 10/M03 A2996 RMK A01,M
TMT,2023-03-15 22:35,-117.1971,39.4643,1749.34,43.20,25.20,48.74,320.00,7.00,0.00,29.95,M,10.00,M,SCT,M,M,M,4800.00,M,M,M,M,M,M,M,M,M,M,38.43,KTMT 152235Z AUTO 32007KT 300V360 10SM SCT048 06/M04 A2995 RMK AO2 T00621038,M
P68,2023-03-15 22:53,-116.0056,39.6014,1993.00,39.00,28.00,64.37,10.00,9.00,0.00,29.94,1012.40,M,M,M,M,M,M,M,M,M,M,M,M,M,M,M,M,M,32.22,KP68 152253Z AUTO 01009KT 04/M02 A2994 RMK AO1 SLP124 T00391022,M
ELY,2023-03-15 22:53,-114.8453,39.2950,1909.00,37.00,26.10,64.38,310.00,16.00,0.00,29.88,1009.80,10.00,23.00,BKN,M,M,M,4700.00,M,M,M,M,M,M,M,M,M,M,26.94,KELY 152253Z AUTO 31016G23KT 10SM BKN047 03/M03 A2988 RMK AO2 SLP098 T00281033,M
VGT,2023-03-15 22:53,-115.1933,36.2111,667.00,61.00,43.00,51.48,210.00,12.00,0.00,29.72,1007.20,10.00,29.00,BKN,BKN,M,M,10000.00,12000.00,M,M,M,M,M,M,37.00,190.00,2023-03-15 22:25,61.00,KVGT 152253Z 21012G29KT 10SM BKN100 BKN120 16/06 A2972 RMK AO2 PK WND 19037/2225 LTG DSNT E AND SE SLP072 T01610061,M
LOL,2023-03-15 22:53,-118.5701,40.0684,1192.43,51.00,23.00,33.01,40.00,12.00,0.00,29.98,1015.10,10.00,16.00,CLR,M,M,M,M,M,M,M,M,M,M,M,M,M,M,51.10,KLOL 152253Z AUTO 04012G16KT 10SM CLR 11/M05 A2998 RMK AO2 SLP151 T01061050,M
DRA,2023-03-15 22:53,-116.0278,36.6206,1009.00,49.00,43.00,79.98,30.00,20.00,0.27,29.81,1007.40,10.00,29.00,OVC,M,M,M,5500.00,M,M,M,M,M,M,M,30.00,20.00,2023-03-15 22:32,41.59,KDRA 152253Z AUTO 03020G29KT 10SM OVC055 09/06 A2981 RMK AO2 PK WND 02030/2232 RAE20 SLP074 P0027 T00940061 $,M
BVU,2023-03-15 22:55,-114.8611,35.9475,671.00,60.80,41.00,48.00,260.00,18.00,0.00,29.79,M,10.00,26.00,BKN,BKN,BKN,M,6500.00,9500.00,12000.00,M,VCTS,M,M,M,M,M,M,60.80,KBVU 152255Z AUTO 26018G26KT 10SM VCTS BKN065 BKN095 BKN120 16/05 A2979 RMK AO2 LTG DSNT ALQDS,M
RNO,2023-03-15 22:55,-119.7711,39.4839,1341.00,50.00,21.00,31.60,40.00,7.00,0.00,29.98,1013.60,10.00,M,FEW,M,M,M,6000.00,M,M,M,M,M,M,M,M,M,M,50.00,KRNO 152255Z 04007KT 020V090 10SM FEW060 10/M06 A2998 RMK AO2 SLP136 T01001061,M
RTS,2023-03-15 22:55,-119.8764,39.6682,1539.00,44.60,19.40,36.18,70.00,7.00,0.00,29.99,M,10.00,M,CLR,M,M,M,M,M,M,M,M,M,M,M,M,M,M,40.14,KRTS 152255Z AUTO 07007KT 030V120 10SM CLR 07/M07 A2999 RMK AO2,M
MEV,2023-03-15 22:55,-119.7500,38.9963,1441.42,48.20,26.60,42.73,350.00,7.00,0.00,29.96,M,10.00,13.00,CLR,M,M,M,M,M,M,M,M,M,M,M,M,M,M,44.53,KMEV 152255Z AUTO 35007G13KT 10SM CLR 09/M03 A2996 RMK AO2,M
BAM,2023-03-15 22:55,-116.8743,40.5990,1382.36,44.60,28.40,52.72,330.00,10.00,0.00,30.01,M,10.00,17.00,SCT,M,M,M,4800.00,M,M,M,M,M,M,M,M,M,M,38.77,KBAM 152255Z AUTO 33010G17KT 10SM SCT048 07/M02 A3001 RMK AO1,M
HTH,2023-03-15 22:55,-118.6315,38.5448,1282.89,50.00,26.60,39.95,320.00,14.00,0.00,29.97,M,10.00,M,SCT,M,M,M,6500.00,M,M,M,M,M,M,M,M,M,M,50.00,KHTH 152255Z AUTO 32014KT 10SM SCT065 10/M03 A2997 RMK A01,M
INS,2023-03-15 22:55,-115.6733,36.5872,955.00,53.60,40.80,61.75,350.00,13.00,0.00,29.82,1007.70,10.00,24.00,BKN,BKN,BKN,M,6000.00,12000.00,16000.00,M,M,M,M,M,32.00,330.00,2023-03-15 22:28,53.60,KINS 152255Z AUTO 35013G24KT 10SM BKN060 BKN120 BKN160 12/05 A2982 RMK AO2 PK WND 33032/28 PRESRR SLP077 T01200049 $,M
TMT,2023-03-15 22:55,-117.1971,39.4643,1749.34,43.70,25.00,47.42,20.00,10.00,0.00,29.95,M,10.00,M,SCT,M,M,M,4700.00,M,M,M,M,M,M,M,M,M,M,37.64,KTMT 152255Z AUTO 02010KT 10SM SCT047 07/M04 A2995 RMK AO2 T00651039,M
LSV,2023-03-15 22:55,-115.0343,36.2362,570.00,64.00,44.00,47.94,200.00,20.00,0.00,29.72,1005.20,10.00,M,CLR,M,M,M,M,M,M,M,M,M,M,M,32.00,210.00,2023-03-15 22:24,64.00,KLSV 152255Z AUTO 20020KT 10SM CLR 18/07 A2972 RMK AO2 PK WND 21032/24 LTG DSNT NE-E SLP052 T01780066 $,M
WMC,2023-03-15 22:56,-117.8072,40.9019,1315.00,46.00,19.90,35.04,340.00,11.00,0.00,30.02,1016.00,10.00,17.00,CLR,M,M,M,M,M,M,M,M,M,M,M,M,M,M,40.16,KWMC 152256Z AUTO 34011G17KT 10SM CLR 08/M07 A3002 RMK AO2 SLP160 T00781067,M
NFL,2023-03-15 22:56,-118.7010,39.4166,1199.00,52.00,21.90,30.49,10.00,13.00,0.00,29.96,1011.90,10.00,20.00,FEW,M,M,M,5000.00,M,M,M,M,M,M,M,M,M,M,52.00,KNFL 152256Z 01013G20KT 10SM FEW050 11/M06 A2996 RMK AO2 SLP119 T01111056,M
HND,2023-03-15 22:56,-115.1344,35.9729,742.79,55.00,46.00,71.60,210.00,13.00,0.13,29.81,1010.20,10.00,M,FEW,OVC,M,M,5000.00,6000.00,M,M,-RA,M,M,M,28.00,230.00,2023-03-15 22:18,55.00,KHND 152256Z 21013KT 10SM -RA FEW050 OVC060 13/08 A2981 RMK AO2 PK WND 23028/2218 LTG DSNT E-S TSE10 SLP102 P0013 T01280078,M
INS,2023-03-15 22:56,-115.6733,36.5872,955.00,53.60,41.00,62.23,360.00,14.00,0.00,29.82,1007.70,10.00,24.00,BKN,BKN,BKN,M,6000.00,12000.00,16000.00,M,-RA,M,M,M,M,M,M,53.60,KINS 152256Z AUTO 36014G24KT 10SM -RA BKN060 BKN120 BKN160 12/05 A2982 RMK AO2 RAB56 SLP077 $,M
EKO,2023-03-15 22:56,-115.7860,40.8242,1367.00,38.00,18.00,43.97,30.00,7.97,M,29.99,1016.10,10.00,M,CLR,M,M,M,M,M,M,M,M,M,M,M,M,M,M,31.52,METAR KEKO 152256Z 03008KT 10SM CLR 03/M08 A2999 RMK AO2 SLP161 T00331078 TSNO FIBI,M
TPH,2023-03-15 22:56,-117.0904,38.0505,1654.00,53.00,21.00,28.18,330.00,17.00,0.00,29.87,1008.70,10.00,28.00,CLR,M,M,M,M,M,M,M,M,M,M,M,30.00,330.00,2023-03-15 21:57,53.10,KTPH 152256Z AUTO 33017G28KT 10SM CLR 12/M06 A2987 RMK AO2 PK WND 33030/2157 SLP087 T01171061,M
LAS,2023-03-15 22:56,-115.1634,36.0719,663.00,58.00,44.00,59.98,220.00,11.00,0.04,29.79,1007.60,10.00,19.00,FEW,SCT,BKN,BKN,1800.00,6000.00,9000.00,22000.00,TS,M,M,M,29.00,200.00,2023-03-15 22:02,57.90,KLAS 152256Z 22011G19KT 10SM TS FEW018 SCT060 BKN090CB BKN220 14/07 A2979 RMK AO2 PK WND 20029/2202 LTG DSNT E RAB02E52 SLP076 OCNL LTGICCG E-SE TS E-SE MOV NE CB DSNT NW-NE P0004 T01440067,M
LAS,2023-03-15 23:07,-115.1634,36.0719,663.00,58.00,43.00,57.51,220.00,9.00,0.00,29.76,M,10.00,M,SCT,BKN,BKN,M,6000.00,9000.00,22000.00,M,M,M,M,M,M,M,M,57.90,KLAS 152307Z 22009KT 10SM SCT060 BKN090 BKN220 14/06 A2976 RMK AO2 TSE07 PRESFR CB DSNT NW-NE-SE MOV NE TS DSIPTD T01440061,M
BVU,2023-03-15 23:15,-114.8611,35.9475,671.00,59.00,42.80,54.86,260.00,14.00,0.00,29.78,M,10.00,M,BKN,OVC,M,M,7000.00,9500.00,M,M,M,M,M,M,M,M,M,59.00,KBVU 152315Z AUTO 26014KT 10SM BKN070 OVC095 15/06 A2978 RMK AO2 LTG DSNT SE-W,M
RTS,2023-03-15 23:15,-119.8764,39.6682,1539.00,44.60,19.40,36.18,60.00,9.00,0.00,29.99,M,10.00,M,CLR,M,M,M,M,M,M,M,M,M,M,M,M,M,M,39.18,KRTS 152315Z AUTO 06009KT 10SM CLR 07/M07 A2999 RMK AO2,M
MEV,2023-03-15 23:15,-119.7500,38.9963,1441.42,48.20,26.60,42.73,330.00,10.00,0.00,29.96,M,10.00,15.00,CLR,M,M,M,M,M,M,M,M,M,M,M,M,M,M,43.28,KMEV 152315Z AUTO 33010G15KT 10SM CLR 09/M03 A2996 RMK AO2,M
BAM,2023-03-15 23:15,-116.8743,40.5990,1382.36,44.60,26.60,48.96,350.00,11.00,0.00,30.01,M,10.00,14.00,SCT,M,M,M,5000.00,M,M,M,M,M,M,M,M,M,M,38.39,KBAM 152315Z AUTO 35011G14KT 10SM SCT050 07/M03 A3001 RMK AO1,M
HTH,2023-03-15 23:15,-118.6315,38.5448,1282.89,50.00,24.80,37.08,330.00,13.00,0.00,29.97,M,10.00,M,BKN,M,M,M,7000.00,M,M,M,M,M,M,M,M,M,M,50.00,KHTH 152315Z AUTO 33013KT 10SM BKN070 10/M04 A2997 RMK A01,M
TMT,2023-03-15 23:15,-117.1971,39.4643,1749.34,43.30,25.30,48.75,340.00,10.00,0.00,29.96,M,10.00,M,SCT,M,M,M,4700.00,M,M,M,M,M,M,M,M,M,M,37.14,KTMT 152315Z AUTO 34010KT 10SM SCT047 06/M04 A2996 RMK AO2 T00631037,M
BVU,2023-03-15 23:35,-114.8611,35.9475,671.00,60.80,41.00,48.00,240.00,10.00,0.00,29.77,M,10.00,15.00,FEW,BKN,M,M,7000.00,9500.00,M,M,VCTS,M,M,M,M,M,M,60.80,KBVU 152335Z AUTO 24010G15KT 10SM VCTS FEW070 BKN095 16/05 A2977 RMK AO2 LTG DSNT ALQDS,M
RTS,2023-03-15 23:35,-119.8764,39.6682,1539.00,44.60,19.40,36.18,M,6.00,0.00,30.00,M,10.00,M,CLR,M,M,M,M,M,M,M,M,M,M,M,M,M,M,40.71,KRTS 152335Z AUTO VRB06KT 10SM CLR 07/M07 A3000 RMK AO2,M
MEV,2023-03-15 23:35,-119.7500,38.9963,1441.42,48.20,24.80,39.66,330.00,8.00,0.00,29.96,M,10.00,M,CLR,M,M,M,M,M,M,M,M,M,M,M,M,M,M,44.07,KMEV 152335Z AUTO 33008KT 10SM CLR 09/M04 A2996 RMK AO2,M
BAM,2023-03-15 23:35,-116.8743,40.5990,1382.36,44.60,23.00,42.14,360.00,10.00,0.00,30.02,M,10.00,M,CLR,M,M,M,M,M,M,M,M,M,M,M,M,M,M,38.77,KBAM 152335Z AUTO 36010KT 10SM CLR 07/M05 A3002 RMK AO1,M
HTH,2023-03-15 23:35,-118.6315,38.5448,1282.89,50.00,24.80,37.08,340.00,9.00,0.00,29.97,M,10.00,14.00,SCT,M,M,M,6500.00,M,M,M,M,M,M,M,M,M,M,50.00,KHTH 152335Z AUTO 34009G14KT 10SM SCT065 10/M04 A2997 RMK A01,M
TMT,2023-03-15 23:35,-117.1971,39.4643,1749.34,43.00,26.40,51.62,350.00,10.00,0.00,29.96,M,10.00,M,BKN,BKN,M,M,4500.00,5000.00,M,M,M,M,M,M,M,M,M,36.76,KTMT 152335Z AUTO 35010KT 10SM BKN045 BKN050 06/M03 A2996 RMK AO2 T00611031,M
VGT,2023-03-15 23:41,-115.1933,36.2111,667.00,61.00,43.00,51.48,320.00,33.00,0.02,29.74,M,6.00,42.00,BKN,BKN,M,M,6500.00,8000.00,M,M,RA,M,M,M,42.00,320.00,2023-03-15 23:41,61.00,KVGT 152341Z 32033G42KT 6SM RA BKN065 BKN080 16/06 A2974 RMK AO2 PK WND 32042/2341 WSHFT 2327 LTG DSNT W RAB34 P0002 T01610061,M
P68,2023-03-15 23:53,-116.0056,39.6014,1993.00,36.00,27.00,69.51,20.00,15.00,0.00,29.95,1012.60,M,M,M,M,M,M,M,M,M,M,M,M,M,M,M,M,M,25.97,KP68 152353Z AUTO 02015KT 02/M03 A2995 RMK AO1 SLP126 T00221028 10056 20022 53005,M
ELY,2023-03-15 23:53,-114.8453,39.2950,1909.00,36.00,25.00,63.98,310.00,14.00,0.00,29.90,1010.70,10.00,21.00,OVC,M,M,M,4800.00,M,M,M,M,M,M,M,M,M,M,26.32,KELY 152353Z AUTO 31014G21KT 10SM OVC048 02/M04 A2990 RMK AO2 SLP107 T00221039 10056 20022 53005,M
VGT,2023-03-15 23:53,-115.1933,36.2111,667.00,61.00,41.00,47.66,320.00,26.00,0.02,29.74,1007.70,10.00,44.00,BKN,M,M,M,6500.00,M,M,M,-RA,M,M,M,44.00,310.00,2023-03-15 23:47,61.00,KVGT 152353Z 32026G44KT 10SM -RA BKN065 16/05 A2974 RMK AO2 PK WND 31044/2347 WSHFT 2327 RAB34 SLP077 P0002 60002 T01610050 10211 20161 55003,M
LOL,2023-03-15 23:53,-118.5701,40.0684,1192.43,50.00,21.90,32.83,50.00,13.00,0.00,29.99,1015.30,10.00,M,CLR,M,M,M,M,M,M,M,M,M,M,M,M,M,M,50.00,KLOL 152353Z AUTO 05013KT 10SM CLR 10/M06 A2999 RMK AO2 SLP153 T01001056 10106 20072 55002,M
DRA,2023-03-15 23:53,-116.0278,36.6206,1009.00,51.00,41.00,68.23,130.00,14.00,0.00,29.83,1007.90,10.00,20.00,SCT,BKN,OVC,M,6000.00,8000.00,9000.00,M,M,M,M,M,28.00,20.00,2023-03-15 23:03,51.10,KDRA 152353Z AUTO 13014G20KT 10SM SCT060 BKN080 OVC090 11/05 A2983 RMK AO2 PK WND 02028/2303 SLP079 60044 T01060050 10161 20072 53009 $,M
BVU,2023-03-15 23:55,-114.8611,35.9475,671.00,59.00,44.60,58.77,200.00,11.00,0.00,29.77,M,10.00,M,BKN,M,M,M,10000.00,M,M,M,M,M,M,M,M,M,M,59.00,KBVU 152355Z AUTO 20011KT 10SM BKN100 15/07 A2977 RMK AO2 LTG DSNT E-S,M
INS,2023-03-15 23:55,-115.6733,36.5872,955.00,50.50,42.30,73.35,190.00,11.00,0.01,29.86,1009.40,10.00,M,FEW,FEW,OVC,M,2600.00,3200.00,4000.00,M,-RA,M,M,M,26.00,340.00,2023-03-15 22:56,50.50,KINS 152355Z AUTO 19011KT 10SM -RA FEW026 FEW032 OVC040 10/06 A2986 RMK AO2 PK WND 34026/2256 RAB2256E10DZB10E14RAB14 SLP094 P0001 60001 T01030057 10170 20103 53022 $,M
RTS,2023-03-15 23:55,-119.8764,39.6682,1539.00,44.60,19.40,36.18,60.00,8.00,0.00,30.00,M,10.00,M,CLR,M,M,M,M,M,M,M,M,M,M,M,M,M,M,39.63,KRTS 152355Z AUTO 06008KT 10SM CLR 07/M07 A3000 RMK AO2,M
05U,2023-03-15 23:55,-116.0051,39.6042,1811.23,37.40,26.60,64.70,20.00,12.00,0.00,29.98,M,10.00,M,BKN,M,M,M,3900.00,M,M,M,M,M,M,M,M,M,M,28.87,K05U 152355Z AUTO 02012KT 10SM BKN039 03/M03 A2998 RMK A01,M
MEV,2023-03-15 23:55,-119.7500,38.9963,1441.42,48.20,24.80,39.66,320.00,10.00,0.00,29.96,M,10.00,M,CLR,M,M,M,M,M,M,M,M,M,M,M,M,M,M,43.28,KMEV 152355Z AUTO 32010KT 10SM CLR 09/M04 A2996 RMK AO2,M
BAM,2023-03-15 23:55,-116.8743,40.5990,1382.36,44.60,24.80,45.44,340.00,11.00,0.00,30.02,M,10.00,M,CLR,M,M,M,M,M,M,M,M,M,M,M,M,M,M,38.39,KBAM 152355Z AUTO 34011KT 320V020 10SM CLR 07/M04 A3002 RMK AO1,M
HTH,2023-03-15 23:55,-118.6315,38.5448,1282.89,50.00,24.80,37.08,330.00,13.00,0.00,29.97,M,10.00,M,CLR,M,M,M,M,M,M,M,M,M,M,M,M,M,M,50.00,KHTH 152355Z AUTO 33013KT 10SM CLR 10/M04 A2997 RMK A01,M
TMT,2023-03-15 23:55,-117.1971,39.4643,1749.34,42.80,25.50,50.11,10.00,10.00,0.00,29.96,M,10.00,M,OVC,M,M,M,4500.00,M,M,M,M,M,M,M,M,M,M,36.51,KTMT 152355Z AUTO 01010KT 10SM OVC045 06/M04 A2996 RMK AO2 T00601036 10066 20042,M
LSV,2023-03-15 23:55,-115.0343,36.2362,570.00,63.00,43.50,48.90,240.00,18.00,0.00,29.71,1005.00,10.00,30.00,CLR,M,M,M,M,M,M,M,M,M,M,M,30.00,230.00,2023-03-15 23:50,63.00,KLSV 152355Z AUTO 24018G30KT 10SM CLR 17/06 A2971 RMK AO2 PK WND 23030/50 SLP050 T01720064 10227 20156 55008 $,M
RNO,2023-03-15 23:55,-119.7711,39.4839,1341.00,51.00,19.00,27.86,30.00,6.00,0.00,29.98,1013.80,10.00,M,FEW,M,M,M,6000.00,M,M,M,M,M,M,M,M,M,M,51.10,KRNO 152355Z 03006KT 10SM FEW060 11/M07 A2998 RMK AO2 SLP138 T01061072 10111 20061 55005,M
WMC,2023-03-15 23:56,-117.8072,40.9019,1315.00,45.00,19.90,36.40,340.00,10.00,0.00,30.02,1016.50,10.00,18.00,CLR,M,M,M,M,M,M,M,M,M,M,M,M,M,M,39.27,KWMC 152356Z AUTO 34010G18KT 10SM CLR 07/M07 A3002 RMK AO2 SLP165 T00721067 10083 20050 53002,M
NFL,2023-03-15 23:56,-118.7010,39.4166,1199.00,52.00,21.90,30.49,360.00,12.00,0.00,29.97,1012.00,10.00,M,FEW,M,M,M,5000.00,M,M,M,M,M,M,M,M,M,M,52.00,KNFL 152356Z 36012KT 10SM FEW050 11/M06 A2997 RMK AO2 SLP120 T01111056 10111 20078 55002,M
HND,2023-03-15 23:56,-115.1344,35.9729,742.79,59.00,45.00,59.67,230.00,12.00,T,29.80,1009.70,10.00,M,FEW,M,M,M,10000.00,M,M,M,M,M,M,M,M,M,M,59.00,KHND 152356Z 23012KT 10SM FEW100 15/07 A2980 RMK AO2 RAE01 SLP097 P0000 60014 T01500072 10194 20122 58002,M
LAS,2023-03-15 23:56,-115.1634,36.0719,663.00,61.00,41.00,47.66,260.00,13.00,0.00,29.78,1007.40,10.00,20.00,SCT,BKN,BKN,M,6000.00,11000.00,22000.00,M,M,M,M,M,M,M,M,61.00,KLAS 152356Z 26013G20KT 230V300 10SM SCT060 BKN110 BKN220 16/05 A2978 RMK AO2 TSE07 PRESRR SLP074 VCSH CB DSNT ALQDS TS DSIPTD 60004 T01610050 10200 20139 56000,M
LSV,2023-03-15 23:56,-115.0343,36.2362,570.00,62.60,44.60,51.72,260.00,19.00,0.00,29.71,1005.00,10.00,30.00,CLR,M,M,M,M,M,M,M,M,M,M,M,M,M,M,62.60,KLSV 152356Z AUTO 26019G30KT 10SM CLR 17/07 A2971 RMK AO2 WSHFT 41 SLP050 $,M
EKO,2023-03-15 23:56,-115.7860,40.8242,1367.00,38.00,19.00,45.90,340.00,9.91,M,30.00,1016.20,10.00,M,CLR,M,M,M,M,M,M,M,M,M,M,M,M,M,M,30.53,METAR KEKO 152356Z 34010KT 10SM CLR 03/M07 A3000 RMK AO2 SLP162 T00331072 10039 20011 53005 TSNO FIBI,M
TPH,2023-03-15 23:56,-117.0904,38.0505,1654.00,51.00,24.10,34.57,310.00,20.00,0.00,29.87,1009.10,10.00,30.00,CLR,M,M,M,M,M,M,M,M,M,M,M,32.00,320.00,2023-03-15 23:16,51.10,KTPH 152356Z AUTO 31020G30KT 10SM CLR 11/M04 A2987 RMK AO2 PK WND 32032/2316 SLP091 T01061044 10122 20094 53005,M
