station,valid,lon,lat,elevation,tmpf,dwpf,relh,drct,sknt,p01i,alti,mslp,vsby,gust,skyc1,skyc2,skyc3,skyc4,skyl1,skyl2,skyl3,skyl4,wxcodes,ice_accretion_1hr,ice_accretion_3hr,ice_accretion_6hr,peak_wind_gust,peak_wind_drct,peak_wind_time,feel,metar,snowdepth
MEV,2021-08-16 00:15,-119.7500,38.9963,1441.42,98.60,33.80,10.45,340.00,7.00,0.00,30.11,M,4.00,13.00,CLR,M,M,M,M,M,M,M,HZ,M,M,M,M,M,M,92.94,KMEV 160015Z AUTO 34007G13KT 4SM HZ CLR 37/01 A3011 RMK AO2,M
CXP,2021-08-16 00:15,-119.7326,39.1923,1431.00,98.60,32.00,9.72,0.00,0.00,0.00,30.13,M,7.00,M,CLR,M,M,M,M,M,M,M,M,M,M,M,M,M,M,92.69,KCXP 160015Z AUTO 00000KT 7SM CLR 37/00 A3013 RMK AO2,M
RTS,2021-08-16 00:15,-119.8764,39.6682,1539.00,95.00,32.00,10.85,130.00,5.00,0.00,30.16,M,9.00,M,CLR,M,M,M,M,M,M,M,M,M,M,M,M,M,M,89.71,KRTS 160015Z AUTO 13005KT 9SM CLR 35/00 A3016 RMK AO2,M
HTH,2021-08-16 00:15,-118.6315,38.5448,1282.89,98.60,32.00,9.72,320.00,14.00,0.00,30.06,M,7.00,M,CLR,M,M,M,M,M,M,M,M,M,M,M,M,M,M,92.69,KHTH 160015Z AUTO 32014KT 7SM CLR 37/M00 A3006 RMK A01,M
BVU,2021-08-16 00:15,-114.8611,35.9475,671.00,104.00,55.40,20.24,190.00,7.00,0.00,29.83,M,10.00,M,CLR,M,M,M,M,M,M,M,M,M,M,M,M,M,M,103.01,KBVU 160015Z AUTO 19007KT 160V240 10SM CLR 40/13 A2983 RMK AO2,M
BAM,2021-08-16 00:15,-116.8743,40.5990,1382.36,100.40,32.00,9.21,350.00,6.00,0.00,30.11,M,7.00,M,CLR,M,M,M,M,M,M,M,M,M,M,M,M,M,M,94.21,KBAM 160015Z AUTO 35006KT 7SM CLR 38/00 A3011 RMK AO1,M
TMT,2021-08-16 00:15,-117.1971,39.4643,1749.34,92.00,36.50,14.21,20.00,11.00,0.00,30.22,M,10.00,15.00,CLR,M,M,M,M,M,M,M,M,M,M,M,M,M,M,87.81,KTMT 160015Z AUTO 02011G15KT 10SM CLR 33/03 A3022 RMK AO2 T03340025,M
TMT,2021-08-16 00:35,-117.1971,39.4643,1749.34,92.30,37.00,14.35,10.00,9.00,0.00,30.21,M,10.00,14.00,CLR,M,M,M,M,M,M,M,M,M,M,M,M,M,M,88.00,KTMT 160035Z AUTO 01009G14KT 10SM CLR 34/03 A3021 RMK AO2 T03350027,M
BVU,2021-08-16 00:35,-114.8611,35.9475,671.00,105.80,53.60,17.97,130.00,8.00,0.00,29.82,M,10.00,M,CLR,M,M,M,M,M,M,M,M,M,M,M,M,M,M,104.23,KBVU 160035Z AUTO 13008KT 10SM CLR 41/12 A2982 RMK AO2,M
CXP,2021-08-16 00:35,-119.7326,39.1923,1431.00,98.60,32.00,9.72,0.00,0.00,0.00,30.12,M,7.00,M,CLR,M,M,M,M,M,M,M,M,M,M,M,M,M,M,92.69,KCXP 160035Z AUTO 00000KT 7SM CLR 37/M00 A3012 RMK AO2,M
RTS,2021-08-16 00:35,-119.8764,39.6682,1539.00,95.00,32.00,10.85,160.00,4.00,0.00,30.16,M,9.00,M,CLR,M,M,M,M,M,M,M,M,M,M,M,M,M,M,89.71,KRTS 160035Z AUTO 16004KT 9SM CLR 35/00 A3016 RMK AO2,M
MEV,2021-08-16 00:35,-119.7500,38.9963,1441.42,96.80,33.80,11.04,330.00,9.00,0.00,30.10,M,4.00,M,CLR,M,M,M,M,M,M,M,HZ,M,M,M,M,M,M,91.44,KMEV 160035Z AUTO 33009KT 4SM HZ CLR 36/01 A3010 RMK AO2,M
BAM,2021-08-16 00:35,-116.8743,40.5990,1382.36,98.60,32.00,9.72,340.00,6.00,0.00,30.10,M,7.00,M,CLR,M,M,M,M,M,M,M,M,M,M,M,M,M,M,92.69,KBAM 160035Z AUTO 34006KT 7SM CLR 37/00 A3010 RMK AO1,M
HTH,2021-08-16 00:35,-118.6315,38.5448,1282.89,98.60,32.00,9.72,320.00,13.00,0.00,30.05,M,6.00,M,CLR,M,M,M,M,M,M,M,HZ,M,M,M,M,M,M,92.69,KHTH 160035Z AUTO 32013KT 6SM HZ CLR 37/M00 A3005 RMK A01,M
CXP,2021-08-16 00:50,-119.7326,39.1923,1431.00,96.80,32.00,10.27,M,3.00,0.00,30.12,M,7.00,M,CLR,M,M,M,M,M,M,M,M,M,M,M,M,M,M,91.19,KCXP 160050Z AUTO VRB03KT 7SM CLR 36/M00 A3012 RMK AO2,M
ELY,2021-08-16 00:53,-114.8453,39.2950,1909.00,89.00,28.00,11.09,360.00,14.00,0.00,30.21,1012.30,6.00,M,CLR,M,M,M,M,M,M,M,HZ,M,M,M,M,M,M,84.76,KELY 160053Z AUTO 36014KT 6SM HZ CLR 32/M02 A3021 RMK AO2 SLP123 T03171022,M
VGT,2021-08-16 00:53,-115.1933,36.2111,667.00,107.00,49.00,14.53,0.00,0.00,0.00,29.80,1007.30,10.00,M,CLR,M,M,M,M,M,M,M,M,M,M,M,M,M,M,103.95,KVGT 160053Z 00000KT 10SM CLR 42/09 A2980 RMK AO2 SLP073 T04170094,M
P68,2021-08-16 00:53,-116.0056,39.6014,1993.00,90.00,33.00,13.26,360.00,7.00,0.00,30.20,1013.90,M,M,M,M,M,M,M,M,M,M,M,M,M,M,M,M,M,85.92,KP68 160053Z AUTO 36007KT 32/01 A3020 RMK AO1 SLP139 T03220006,M
RTS,2021-08-16 00:55,-119.8764,39.6682,1539.00,95.00,32.00,10.85,130.00,4.00,0.00,30.15,M,8.00,M,CLR,M,M,M,M,M,M,M,M,M,M,M,M,M,M,89.71,KRTS 160055Z AUTO 13004KT 8SM CLR 35/00 A3015 RMK AO2,M
MEV,2021-08-16 00:55,-119.7500,38.9963,1441.42,96.80,32.00,10.27,350.00,9.00,0.00,30.10,M,4.00,M,CLR,M,M,M,M,M,M,M,HZ,M,M,M,M,M,M,91.19,KMEV 160055Z AUTO 35009KT 4SM HZ CLR 36/00 A3010 RMK AO2,M
BAM,2021-08-16 00:55,-116.8743,40.5990,1382.36,98.60,30.20,9.04,70.00,5.00,0.00,30.09,M,7.00,M,CLR,M,M,M,M,M,M,M,M,M,M,M,M,M,M,92.46,KBAM 160055Z AUTO 07005KT 7SM CLR 37/M01 A3009 RMK AO1,M
HTH,2021-08-16 00:55,-118.6315,38.5448,1282.89,98.60,32.00,9.72,320.00,11.00,0.00,30.05,M,7.00,M,CLR,M,M,M,M,M,M,M,M,M,M,M,M,M,M,92.69,KHTH 160055Z AUTO 32011KT 7SM CLR 37/00 A3005 RMK A01,M
TMT,2021-08-16 00:55,-117.1971,39.4643,1749.34,91.40,36.00,14.30,20.00,8.00,0.00,30.21,M,10.00,M,CLR,M,M,M,M,M,M,M,M,M,M,M,M,M,M,87.19,KTMT 160055Z AUTO 02008KT 10SM CLR 33/02 A3021 RMK AO2 T03300023,M
BVU,2021-08-16 00:55,-114.8611,35.9475,671.00,104.00,53.60,18.95,160.00,6.00,0.00,29.82,M,10.00,M,CLR,M,M,M,M,M,M,M,M,M,M,M,M,M,M,102.31,KBVU 160055Z AUTO 16006KT 10SM CLR 40/12 A2982 RMK AO2,M
RNO,2021-08-16 00:55,-119.7711,39.4839,1341.00,98.00,37.00,12.05,50.00,4.00,0.00,30.08,1011.90,5.00,M,SCT,SCT,BKN,BKN,0.00,3000.00,5000.00,12000.00,FU,M,M,M,M,M,M,93.05,KRNO 160055Z 05004KT 5SM FU SCT000 SCT030 BKN050 BKN120 37/03 A3008 RMK AO2 SLP119 FU SCT000 FU SCT030 FU BKN050 T03670028,M
NFL,2021-08-16 00:56,-118.7010,39.4166,1199.00,101.00,34.00,9.83,40.00,7.00,0.00,30.03,1013.80,4.00,M,BKN,M,M,M,4500.00,M,M,M,FU,M,M,M,M,M,M,94.93,KNFL 160056Z 04007KT 4SM FU BKN045 38/01 A3003 RMK AO2 SLP138 FU BKN045 T03830011,M
TPH,2021-08-16 00:56,-117.0904,38.0505,1654.00,98.00,30.00,9.10,350.00,10.00,0.00,30.11,1009.30,9.00,M,CLR,M,M,M,M,M,M,M,M,M,M,M,M,M,M,92.02,KTPH 160056Z AUTO 35010KT 9SM CLR 37/M01 A3011 RMK AO2 SLP093 T03671011,M
EKO,2021-08-16 00:56,-115.7860,40.8242,1367.00,95.00,28.00,9.22,30.00,12.00,0.00,30.14,1013.80,6.00,19.00,CLR,M,M,M,M,M,M,M,HZ,M,M,M,M,M,M,89.22,KEKO 160056Z AUTO 03012G19KT 6SM HZ CLR 35/M02 A3014 RMK AO2 SLP138 T03501022 $,M
HND,2021-08-16 00:56,-115.1344,35.9729,742.79,106.00,48.00,14.51,M,3.00,0.00,29.86,1008.90,10.00,M,CLR,M,M,M,M,M,M,M,M,M,M,M,M,M,M,102.59,KHND 160056Z VRB03KT 10SM CLR 41/09 A2986 RMK AO2 SLP089 T04110089,M
LAS,2021-08-16 00:56,-115.1634,36.0719,663.00,106.00,46.00,13.46,130.00,3.00,0.00,29.82,1006.30,10.00,M,FEW,FEW,SCT,M,12000.00,15000.00,20000.00,M,M,M,M,M,M,M,M,102.07,KLAS 160056Z 13003KT 10SM FEW120 FEW150 SCT200 41/08 A2982 RMK AO2 SLP063 T04110078,M
WMC,2021-08-16 00:56,-117.8072,40.9019,1315.00,101.00,35.00,10.27,20.00,4.00,0.00,30.06,1012.40,5.00,M,CLR,M,M,M,M,M,M,M,HZ,M,M,M,M,M,M,95.10,KWMC 160056Z AUTO 02004KT 5SM HZ CLR 38/02 A3006 RMK AO2 SLP124 T03830017 $,M
LSV,2021-08-16 00:58,-115.0343,36.2362,570.00,106.50,49.00,14.90,210.00,4.00,0.00,29.78,1005.50,10.00,M,CLR,M,M,M,M,M,M,M,M,M,M,M,M,M,M,103.41,KLSV 160058Z AUTO 21004KT 10SM CLR 41/10 A2978 RMK AO2 SLP055 T04140095 $,M
INS,2021-08-16 00:58,-115.6733,36.5872,955.00,102.40,40.00,11.95,310.00,10.00,0.00,29.89,1006.50,10.00,M,CLR,M,M,M,M,M,M,M,M,M,M,M,M,M,M,97.36,KINS 160058Z AUTO 31010KT 10SM CLR 39/05 A2989 RMK AO2 SLP065 T03910045 $,M
HTH,2021-08-16 01:15,-118.6315,38.5448,1282.89,98.60,35.60,11.23,330.00,13.00,0.00,30.04,M,7.00,M,CLR,M,M,M,M,M,M,M,M,M,M,M,M,M,M,93.23,KHTH 160115Z AUTO 33013KT 7SM CLR 37/02 A3004 RMK A01,M
BAM,2021-08-16 01:15,-116.8743,40.5990,1382.36,98.60,30.20,9.04,60.00,7.00,0.00,30.09,M,7.00,M,CLR,M,M,M,M,M,M,M,M,M,M,M,M,M,M,92.46,KBAM 160115Z AUTO 06007KT 7SM CLR 37/M01 A3009 RMK AO1,M
MEV,2021-08-16 01:15,-119.7500,38.9963,1441.42,96.80,33.80,11.04,350.00,9.00,0.00,30.10,M,4.00,M,CLR,M,M,M,M,M,M,M,HZ,M,M,M,M,M,M,91.44,KMEV 160115Z AUTO 35009KT 4SM HZ CLR 36/01 A3010 RMK AO2,M
RTS,2021-08-16 01:15,-119.8764,39.6682,1539.00,95.00,32.00,10.85,0.00,0.00,0.00,30.15,M,7.00,M,CLR,M,M,M,M,M,M,M,M,M,M,M,M,M,M,89.71,KRTS 160115Z AUTO 00000KT 7SM CLR 35/00 A3015 RMK AO2,M
CXP,2021-08-16 01:15,-119.7326,39.1923,1431.00,96.80,32.00,10.27,100.00,7.00,0.00,30.11,M,7.00,M,CLR,M,M,M,M,M,M,M,M,M,M,M,M,M,M,91.19,KCXP 160115Z AUTO 10007KT 7SM CLR 36/00 A3011 RMK AO2,M
BVU,2021-08-16 01:15,-114.8611,35.9475,671.00,104.00,55.40,20.24,160.00,12.00,0.00,29.81,M,10.00,M,CLR,M,M,M,M,M,M,M,M,M,M,M,M,M,M,103.01,KBVU 160115Z AUTO 16012KT 10SM CLR 40/13 A2981 RMK AO2,M
TMT,2021-08-16 01:15,-117.1971,39.4643,1749.34,90.50,36.50,14.94,10.00,9.00,0.00,30.21,M,10.00,15.00,CLR,M,M,M,M,M,M,M,M,M,M,M,M,M,M,86.41,KTMT 160115Z AUTO 01009G15KT 10SM CLR 33/03 A3021 RMK AO2 T03250025,M
CXP,2021-08-16 01:35,-119.7326,39.1923,1431.00,95.00,33.80,11.67,70.00,4.00,0.00,30.11,M,8.00,M,CLR,M,M,M,M,M,M,M,M,M,M,M,M,M,M,89.97,KCXP 160135Z AUTO 07004KT 8SM CLR 35/01 A3011 RMK AO2,M
BVU,2021-08-16 01:35,-114.8611,35.9475,671.00,104.00,55.40,20.24,160.00,13.00,0.00,29.81,M,10.00,M,CLR,M,M,M,M,M,M,M,M,M,M,M,M,M,M,103.01,KBVU 160135Z AUTO 16013KT 10SM CLR 40/13 A2981 RMK AO2,M
RTS,2021-08-16 01:35,-119.8764,39.6682,1539.00,95.00,32.00,10.85,0.00,0.00,0.00,30.15,M,8.00,M,CLR,M,M,M,M,M,M,M,M,M,M,M,M,M,M,89.71,KRTS 160135Z AUTO 00000KT 8SM CLR 35/00 A3015 RMK AO2,M
MEV,2021-08-16 01:35,-119.7500,38.9963,1441.42,95.00,35.60,12.53,350.00,8.00,0.00,30.10,M,4.00,M,CLR,M,M,M,M,M,M,M,HZ,M,M,M,M,M,M,90.25,KMEV 160135Z AUTO 35008KT 4SM HZ CLR 35/02 A3010 RMK AO2,M
BAM,2021-08-16 01:35,-116.8743,40.5990,1382.36,96.80,30.20,9.55,0.00,0.00,0.00,30.09,M,7.00,M,CLR,M,M,M,M,M,M,M,M,M,M,M,M,M,M,90.96,KBAM 160135Z AUTO 00000KT 7SM CLR 36/M01 A3009 RMK AO1,M
HTH,2021-08-16 01:35,-118.6315,38.5448,1282.89,96.80,37.40,12.73,320.00,12.00,0.00,30.04,M,8.00,M,CLR,M,M,M,M,M,M,M,M,M,M,M,M,M,M,92.04,KHTH 160135Z AUTO 32012KT 8SM CLR 36/03 A3004 RMK A01,M
TMT,2021-08-16 01:35,-117.1971,39.4643,1749.34,89.40,37.00,15.71,30.00,8.00,0.00,30.20,M,7.00,M,CLR,M,M,M,M,M,M,M,M,M,M,M,M,M,M,85.48,KTMT 160135Z AUTO 03008KT 7SM CLR 32/03 A3020 RMK AO2 T03190027,M
P68,2021-08-16 01:53,-116.0056,39.6014,1993.00,86.00,33.00,15.05,350.00,5.00,0.00,30.20,1013.70,M,M,M,M,M,M,M,M,M,M,M,M,M,M,M,M,M,82.65,KP68 160153Z AUTO 35005KT 30/01 A3020 RMK AO1 SLP137 T03000006,M
ELY,2021-08-16 01:53,-114.8453,39.2950,1909.00,84.00,26.10,12.06,10.00,11.00,0.00,30.21,1012.70,6.00,M,CLR,M,M,M,M,M,M,M,HZ,M,M,M,M,M,M,80.96,KELY 160153Z AUTO 01011KT 6SM HZ CLR 29/M03 A3021 RMK AO2 SLP127 T02891033,M
VGT,2021-08-16 01:53,-115.1933,36.2111,667.00,107.00,47.00,13.48,150.00,3.00,0.00,29.79,1007.10,10.00,M,CLR,M,M,M,M,M,M,M,M,M,M,M,M,M,M,103.37,KVGT 160153Z 15003KT 10SM CLR 42/08 A2979 RMK AO2 SLP071 T04170083,M
RNO,2021-08-16 01:55,-119.7711,39.4839,1341.00,96.00,38.00,13.27,0.00,0.00,0.00,30.07,1011.50,5.00,M,SCT,SCT,BKN,BKN,0.00,3000.00,5000.00,12000.00,FU,M,M,M,M,M,M,91.49,KRNO 160155Z 00000KT 5SM FU SCT000 SCT030 BKN050 BKN120 36/03 A3007 RMK AO2 SLP115 FU SCT000 FU SCT030 FU BKN050 T03560033,M
RTS,2021-08-16 01:55,-119.8764,39.6682,1539.00,93.20,32.00,11.48,40.00,7.00,0.00,30.15,M,7.00,M,CLR,M,M,M,M,M,M,M,M,M,M,M,M,M,M,88.31,KRTS 160155Z AUTO 04007KT 7SM CLR 34/00 A3015 RMK AO2,M
MEV,2021-08-16 01:55,-119.7500,38.9963,1441.42,95.00,35.60,12.53,360.00,7.00,0.00,30.10,M,4.00,M,CLR,M,M,M,M,M,M,M,HZ,M,M,M,M,M,M,90.25,KMEV 160155Z AUTO 36007KT 4SM HZ CLR 35/02 A3010 RMK AO2,M
HTH,2021-08-16 01:55,-118.6315,38.5448,1282.89,95.00,39.20,14.44,320.00,10.00,0.00,30.04,M,7.00,M,CLR,M,M,M,M,M,M,M,M,M,M,M,M,M,M,90.57,KHTH 160155Z AUTO 32010KT 7SM CLR 35/04 A3004 RMK A01,M
BAM,2021-08-16 01:55,-116.8743,40.5990,1382.36,95.00,32.00,10.85,0.00,0.00,0.00,30.09,M,7.00,M,CLR,M,M,M,M,M,M,M,M,M,M,M,M,M,M,89.71,KBAM 160155Z AUTO 00000KT 7SM CLR 35/00 A3009 RMK AO1,M
TMT,2021-08-16 01:55,-117.1971,39.4643,1749.34,87.80,36.70,16.40,20.00,7.00,0.00,30.20,M,10.00,M,CLR,M,M,M,M,M,M,M,M,M,M,M,M,M,M,84.15,KTMT 160155Z AUTO 02007KT 10SM CLR 31/03 A3020 RMK AO2 T03100026,M
CXP,2021-08-16 01:55,-119.7326,39.1923,1431.00,95.00,33.80,11.67,0.00,0.00,0.00,30.11,M,8.00,M,CLR,M,M,M,M,M,M,M,M,M,M,M,M,M,M,89.97,KCXP 160155Z AUTO 00000KT 8SM CLR 35/01 A3011 RMK AO2,M
BVU,2021-08-16 01:55,-114.8611,35.9475,671.00,102.20,55.40,21.36,150.00,12.00,0.00,29.81,M,10.00,M,CLR,M,M,M,M,M,M,M,M,M,M,M,M,M,M,101.04,KBVU 160155Z AUTO 15012KT 10SM CLR 39/13 A2981 RMK AO2,M
TPH,2021-08-16 01:56,-117.0904,38.0505,1654.00,96.00,30.90,10.04,100.00,8.00,0.00,30.10,1009.60,9.00,M,CLR,M,M,M,M,M,M,M,M,M,M,M,M,M,M,90.46,KTPH 160156Z AUTO 10008KT 9SM CLR 36/M01 A3010 RMK AO2 SLP096 T03561006,M
LAS,2021-08-16 01:56,-115.1634,36.0719,663.00,106.00,45.00,12.96,0.00,0.00,0.00,29.81,1006.00,10.00,M,FEW,FEW,SCT,M,12000.00,15000.00,20000.00,M,M,M,M,M,M,M,M,101.83,KLAS 160156Z 00000KT 10SM FEW120 FEW150 SCT200 41/07 A2981 RMK AO2 SLP060 T04110072,M
HND,2021-08-16 01:56,-115.1344,35.9729,742.79,104.00,48.00,15.40,0.00,0.00,0.00,29.85,1008.70,10.00,M,CLR,M,M,M,M,M,M,M,M,M,M,M,M,M,M,100.60,KHND 160156Z 00000KT 10SM CLR 40/09 A2985 RMK AO2 SLP087 T04000089,M
EKO,2021-08-16 01:56,-115.7860,40.8242,1367.00,91.00,28.00,10.44,40.00,9.00,0.00,30.13,1014.10,5.00,M,CLR,M,M,M,M,M,M,M,HZ,M,M,M,M,M,M,86.19,KEKO 160156Z AUTO 04009KT 5SM HZ CLR 33/M02 A3013 RMK AO2 SLP141 T03281022 $,M
NFL,2021-08-16 01:56,-118.7010,39.4166,1199.00,98.00,37.00,12.05,30.00,3.00,0.00,30.02,1013.50,4.00,M,SCT,M,M,M,4800.00,M,M,M,HZ,M,M,M,M,M,M,93.05,KNFL 160156Z AUTO 03003KT 4SM HZ SCT048 37/03 A3002 RMK AO2 SLP135 T03670028,M
WMC,2021-08-16 01:56,-117.8072,40.9019,1315.00,98.00,36.00,11.58,0.00,0.00,0.00,30.05,1011.90,5.00,M,CLR,M,M,M,M,M,M,M,HZ,M,M,M,M,M,M,92.87,KWMC 160156Z AUTO 00000KT 5SM HZ CLR 37/02 A3005 RMK AO2 SLP119 T03670022 $,M
LSV,2021-08-16 01:58,-115.0343,36.2362,570.00,105.00,46.20,13.93,230.00,3.00,0.00,29.77,1005.20,10.00,M,CLR,M,M,M,M,M,M,M,M,M,M,M,M,M,M,101.24,KLSV 160158Z AUTO 23003KT 10SM CLR 41/08 A2977 RMK AO2 SLP052 T04060079 $,M
INS,2021-08-16 01:58,-115.6733,36.5872,955.00,101.30,43.20,13.92,260.00,6.00,0.00,29.88,1006.00,10.00,M,CLR,M,M,M,M,M,M,M,M,M,M,M,M,M,M,96.96,KINS 160158Z AUTO 26006KT 10SM CLR 39/06 A2988 RMK AO2 SLP060 T03850062 $,M
MEV,2021-08-16 02:15,-119.7500,38.9963,1441.42,93.20,35.60,13.25,360.00,8.00,0.00,30.09,M,4.00,M,CLR,M,M,M,M,M,M,M,HZ,M,M,M,M,M,M,88.76,KMEV 160215Z AUTO 36008KT 4SM HZ CLR 34/02 A3009 RMK AO2,M
TMT,2021-08-16 02:15,-117.1971,39.4643,1749.34,85.60,36.50,17.45,30.00,7.00,0.00,30.20,M,7.00,M,CLR,M,M,M,M,M,M,M,M,M,M,M,M,M,M,82.40,KTMT 160215Z AUTO 03007KT 7SM CLR 30/03 A3020 RMK AO2 T02980025,M
BVU,2021-08-16 02:15,-114.8611,35.9475,671.00,100.40,55.40,22.54,160.00,11.00,0.00,29.81,M,10.00,M,CLR,M,M,M,M,M,M,M,M,M,M,M,M,M,M,99.06,KBVU 160215Z AUTO 16011KT 10SM CLR 38/13 A2981 RMK AO2,M
RTS,2021-08-16 02:15,-119.8764,39.6682,1539.00,91.40,32.00,12.14,50.00,7.00,0.00,30.15,M,7.00,M,CLR,M,M,M,M,M,M,M,M,M,M,M,M,M,M,86.91,KRTS 160215Z AUTO 05007KT 7SM CLR 33/00 A3015 RMK AO2,M
HTH,2021-08-16 02:15,-118.6315,38.5448,1282.89,93.20,42.80,17.55,330.00,9.00,0.00,30.04,M,8.00,M,CLR,M,M,M,M,M,M,M,M,M,M,M,M,M,M,89.17,KHTH 160215Z AUTO 33009KT 8SM CLR 34/06 A3004 RMK A01,M
BAM,2021-08-16 02:15,-116.8743,40.5990,1382.36,91.40,32.00,12.14,60.00,5.00,0.00,30.09,M,7.00,M,CLR,M,M,M,M,M,M,M,M,M,M,M,M,M,M,86.91,KBAM 160215Z AUTO 06005KT 7SM CLR 33/00 A3009 RMK AO1,M
CXP,2021-08-16 02:15,-119.7326,39.1923,1431.00,93.20,32.00,11.48,300.00,4.00,0.00,30.11,M,7.00,M,CLR,M,M,M,M,M,M,M,M,M,M,M,M,M,M,88.31,KCXP 160215Z AUTO 30004KT 7SM CLR 34/00 A3011 RMK AO2,M
MEV,2021-08-16 02:35,-119.7500,38.9963,1441.42,89.60,35.60,14.83,360.00,6.00,0.00,30.10,M,4.00,M,CLR,M,M,M,M,M,M,M,HZ,M,M,M,M,M,M,85.62,KMEV 160235Z AUTO 36006KT 4SM HZ CLR 32/02 A3010 RMK AO2,M
CXP,2021-08-16 02:35,-119.7326,39.1923,1431.00,91.40,35.60,14.02,0.00,0.00,0.00,30.11,M,7.00,M,CLR,M,M,M,M,M,M,M,M,M,M,M,M,M,M,87.17,KCXP 160235Z AUTO 00000KT 7SM CLR 33/02 A3011 RMK AO2,M
BVU,2021-08-16 02:35,-114.8611,35.9475,671.00,100.40,57.20,24.06,160.00,10.00,0.00,29.81,M,10.00,16.00,CLR,M,M,M,M,M,M,M,M,M,M,M,M,M,M,99.77,KBVU 160235Z AUTO 16010G16KT 10SM CLR 38/14 A2981 RMK AO2,M
RTS,2021-08-16 02:35,-119.8764,39.6682,1539.00,89.60,32.00,12.84,40.00,7.00,0.00,30.15,M,8.00,M,CLR,M,M,M,M,M,M,M,M,M,M,M,M,M,M,85.54,KRTS 160235Z AUTO 04007KT 8SM CLR 32/00 A3015 RMK AO2,M
HTH,2021-08-16 02:35,-118.6315,38.5448,1282.89,91.40,46.40,21.29,310.00,9.00,0.00,30.04,M,8.00,M,CLR,M,M,M,M,M,M,M,M,M,M,M,M,M,M,87.86,KHTH 160235Z AUTO 31009KT 8SM CLR 33/08 A3004 RMK A01,M
BAM,2021-08-16 02:35,-116.8743,40.5990,1382.36,87.80,32.00,13.59,70.00,5.00,0.00,30.09,M,7.00,M,CLR,M,M,M,M,M,M,M,M,M,M,M,M,M,M,84.08,KBAM 160235Z AUTO 07005KT 7SM CLR 31/00 A3009 RMK AO1,M
TMT,2021-08-16 02:35,-117.1971,39.4643,1749.34,82.80,35.60,18.43,30.00,8.00,0.00,30.20,M,10.00,M,CLR,M,M,M,M,M,M,M,M,M,M,M,M,M,M,80.35,KTMT 160235Z AUTO 03008KT 10SM CLR 28/02 A3020 RMK AO2 T02820020,M
CXP,2021-08-16 02:50,-119.7326,39.1923,1431.00,91.40,33.80,13.05,330.00,5.00,0.00,30.11,M,6.00,M,CLR,M,M,M,M,M,M,M,HZ,M,M,M,M,M,M,87.13,KCXP 160250Z AUTO 33005KT 6SM HZ CLR 33/01 A3011 RMK AO2,M
P68,2021-08-16 02:53,-116.0056,39.6014,1993.00,75.00,28.90,18.19,300.00,7.00,0.00,30.20,1014.00,M,M,M,M,M,M,M,M,M,M,M,M,M,M,M,M,M,75.00,KP68 160253Z AUTO 30007KT 24/M02 A3020 RMK AO1 SLP140 T02391017 55005,M
VGT,2021-08-16 02:53,-115.1933,36.2111,667.00,105.00,46.00,13.82,140.00,5.00,0.00,29.79,1007.00,10.00,M,CLR,M,M,M,M,M,M,M,M,M,M,M,M,M,M,101.20,KVGT 160253Z 14005KT 10SM CLR 41/08 A2979 RMK AO2 SLP070 T04060078 56012,M
ELY,2021-08-16 02:53,-114.8453,39.2950,1909.00,76.00,25.00,15.02,30.00,5.00,0.00,30.22,1012.70,6.00,M,CLR,M,M,M,M,M,M,M,HZ,M,M,M,M,M,M,75.90,KELY 160253Z AUTO 03005KT 6SM HZ CLR 24/M04 A3022 RMK AO2 SLP127 T02441039 55000,M
BAM,2021-08-16 02:55,-116.8743,40.5990,1382.36,84.20,32.00,15.25,70.00,6.00,0.00,30.09,M,7.00,M,CLR,M,M,M,M,M,M,M,M,M,M,M,M,M,M,81.28,KBAM 160255Z AUTO 07006KT 7SM CLR 29/00 A3009 RMK AO1,M
TMT,2021-08-16 02:55,-117.1971,39.4643,1749.34,79.00,35.60,20.86,30.00,6.00,0.00,30.21,M,10.00,M,CLR,M,M,M,M,M,M,M,M,M,M,M,M,M,M,79.00,KTMT 160255Z AUTO 03006KT 10SM CLR 26/02 A3021 RMK AO2 T02610020,M
MEV,2021-08-16 02:55,-119.7500,38.9963,1441.42,87.80,39.20,18.09,310.00,5.00,0.00,30.10,M,4.00,M,CLR,M,M,M,M,M,M,M,HZ,M,M,M,M,M,M,84.22,KMEV 160255Z AUTO 31005KT 4SM HZ CLR 31/04 A3010 RMK AO2,M
RTS,2021-08-16 02:55,-119.8764,39.6682,1539.00,86.00,32.00,14.40,30.00,6.00,0.00,30.15,M,7.00,M,CLR,M,M,M,M,M,M,M,M,M,M,M,M,M,M,82.64,KRTS 160255Z AUTO 03006KT 7SM CLR 30/00 A3015 RMK AO2,M
BVU,2021-08-16 02:55,-114.8611,35.9475,671.00,98.60,57.20,25.41,160.00,11.00,0.00,29.82,M,10.00,M,CLR,M,M,M,M,M,M,M,M,M,M,M,M,M,M,97.76,KBVU 160255Z AUTO 16011KT 10SM CLR 37/14 A2982 RMK AO2,M
RNO,2021-08-16 02:55,-119.7711,39.4839,1341.00,93.00,42.00,17.19,280.00,3.00,0.00,30.07,1011.70,5.00,M,SCT,BKN,BKN,BKN,0.00,3000.00,6000.00,13000.00,FU,M,M,M,M,M,M,88.93,KRNO 160255Z 28003KT 5SM FU SCT000 BKN030 BKN060 BKN130 34/06 A3007 RMK AO2 SLP117 FU SCT000 FU BKN030 FU BKN060 T03390056 56008,M
HTH,2021-08-16 02:55,-118.6315,38.5448,1282.89,89.60,44.60,21.04,320.00,9.00,0.00,30.05,M,7.00,M,CLR,M,M,M,M,M,M,M,M,M,M,M,M,M,M,86.07,KHTH 160255Z AUTO 32009KT 7SM CLR 32/07 A3005 RMK A01,M
NFL,2021-08-16 02:56,-118.7010,39.4166,1199.00,89.00,41.00,18.62,270.00,4.00,0.00,30.02,1013.40,4.00,M,OVC,M,M,M,5000.00,M,M,M,HZ,M,M,M,M,M,M,85.39,KNFL 160256Z AUTO 27004KT 4SM HZ OVC050 32/05 A3002 RMK AO2 SLP134 T03170050 56009,M
EKO,2021-08-16 02:56,-115.7860,40.8242,1367.00,84.00,28.00,13.04,40.00,4.00,0.00,30.14,1014.40,6.00,M,CLR,M,M,M,M,M,M,M,HZ,M,M,M,M,M,M,81.10,KEKO 160256Z AUTO 04004KT 6SM HZ CLR 29/M02 A3014 RMK AO2 SLP144 T02891022 55003 $,M
TPH,2021-08-16 02:56,-117.0904,38.0505,1654.00,93.00,32.00,11.55,0.00,0.00,0.00,30.11,1009.40,9.00,M,CLR,M,M,M,M,M,M,M,M,M,M,M,M,M,M,88.15,KTPH 160256Z AUTO 00000KT 9SM CLR 34/00 A3011 RMK AO2 SLP094 T03390000 55003,M
WMC,2021-08-16 02:56,-117.8072,40.9019,1315.00,90.00,35.00,14.36,0.00,0.00,0.00,30.05,1012.10,5.00,M,BKN,BKN,M,M,5500.00,7000.00,M,M,HZ,M,M,M,M,M,M,85.95,KWMC 160256Z AUTO 00000KT 5SM HZ BKN055 BKN070 32/02 A3005 RMK AO2 SLP121 T03220017 56008 $,M
HND,2021-08-16 02:56,-115.1344,35.9729,742.79,101.00,59.00,25.28,160.00,10.00,0.00,29.85,1008.60,10.00,M,CLR,M,M,M,M,M,M,M,M,M,M,M,M,M,M,101.14,KHND 160256Z 16010KT 10SM CLR 38/15 A2985 RMK AO2 SLP086 T03830150 56010,M
LAS,2021-08-16 02:56,-115.1634,36.0719,663.00,103.00,47.00,15.27,110.00,4.00,0.00,29.81,1006.00,10.00,M,FEW,FEW,SCT,M,12000.00,15000.00,20000.00,M,M,M,M,M,M,M,M,99.23,KLAS 160256Z 11004KT 10SM FEW120 FEW150 SCT200 39/08 A2981 RMK AO2 SLP060 T03940083 56011,M
INS,2021-08-16 02:58,-115.6733,36.5872,955.00,97.50,42.00,14.97,250.00,5.00,0.00,29.89,1006.50,10.00,M,CLR,M,M,M,M,M,M,M,M,M,M,M,M,M,M,93.17,KINS 160258Z AUTO 25005KT 10SM CLR 36/06 A2989 RMK AO2 SLP065 T03640056 55006 $,M
LSV,2021-08-16 02:58,-115.0343,36.2362,570.00,102.20,56.00,21.91,120.00,7.00,0.00,29.77,1005.20,10.00,M,CLR,M,M,M,M,M,M,M,M,M,M,M,M,M,M,101.32,KLSV 160258Z AUTO 12007KT 10SM CLR 39/13 A2977 RMK AO2 SLP052 T03900134 56011 $,M
TMT,2021-08-16 03:15,-117.1971,39.4643,1749.34,75.40,35.80,23.69,60.00,6.00,0.00,30.21,M,7.00,M,CLR,M,M,M,M,M,M,M,M,M,M,M,M,M,M,75.40,KTMT 160315Z AUTO 06006KT 7SM CLR 24/02 A3021 RMK AO2 T02410021,M
MEV,2021-08-16 03:15,-119.7500,38.9963,1441.42,80.60,37.40,21.25,0.00,0.00,0.00,30.11,M,4.00,M,FEW,M,M,M,4200.00,M,M,M,HZ,M,M,M,M,M,M,79.02,KMEV 160315Z AUTO 00000KT 4SM HZ FEW042 27/03 A3011 RMK AO2,M
CXP,2021-08-16 03:15,-119.7326,39.1923,1431.00,89.60,33.80,13.80,340.00,5.00,0.00,30.11,M,8.00,M,CLR,M,M,M,M,M,M,M,M,M,M,M,M,M,M,85.59,KCXP 160315Z AUTO 34005KT 8SM CLR 32/01 A3011 RMK AO2,M
BAM,2021-08-16 03:15,-116.8743,40.5990,1382.36,82.40,32.00,16.17,60.00,6.00,0.00,30.09,M,7.00,M,CLR,M,M,M,M,M,M,M,M,M,M,M,M,M,M,80.00,KBAM 160315Z AUTO 06006KT 7SM CLR 28/00 A3009 RMK AO1,M
RTS,2021-08-16 03:15,-119.8764,39.6682,1539.00,82.40,32.00,16.17,350.00,5.00,0.00,30.16,M,9.00,M,CLR,M,M,M,M,M,M,M,M,M,M,M,M,M,M,80.00,KRTS 160315Z AUTO 35005KT 9SM CLR 28/00 A3016 RMK AO2,M
BVU,2021-08-16 03:15,-114.8611,35.9475,671.00,98.60,57.20,25.41,170.00,8.00,0.00,29.82,M,10.00,14.00,CLR,M,M,M,M,M,M,M,M,M,M,M,M,M,M,97.76,KBVU 160315Z AUTO 17008G14KT 10SM CLR 37/14 A2982 RMK AO2,M
HTH,2021-08-16 03:15,-118.6315,38.5448,1282.89,91.40,41.00,17.32,310.00,10.00,0.00,30.05,M,8.00,M,CLR,M,M,M,M,M,M,M,M,M,M,M,M,M,M,87.40,KHTH 160315Z AUTO 31010KT 8SM CLR 33/05 A3005 RMK A01,M
TMT,2021-08-16 03:35,-117.1971,39.4643,1749.34,74.50,33.80,22.54,0.00,0.00,0.00,30.21,M,10.00,M,CLR,M,M,M,M,M,M,M,M,M,M,M,M,M,M,74.50,KTMT 160335Z AUTO 00000KT 10SM CLR 24/01 A3021 RMK AO2 T02360010,M
BAM,2021-08-16 03:35,-116.8743,40.5990,1382.36,78.80,32.00,18.18,70.00,6.00,0.00,30.09,M,7.00,M,CLR,M,M,M,M,M,M,M,M,M,M,M,M,M,M,78.80,KBAM 160335Z AUTO 07006KT 7SM CLR 26/00 A3009 RMK AO1,M
MEV,2021-08-16 03:35,-119.7500,38.9963,1441.42,75.20,44.60,33.57,210.00,5.00,0.00,30.11,M,5.00,M,SCT,SCT,SCT,M,3300.00,4200.00,6000.00,M,HZ,M,M,M,M,M,M,75.20,KMEV 160335Z AUTO 21005KT 5SM HZ SCT033 SCT042 SCT060 24/07 A3011 RMK AO2,M
HTH,2021-08-16 03:35,-118.6315,38.5448,1282.89,91.40,33.80,13.05,320.00,9.00,0.00,30.06,M,8.00,M,CLR,M,M,M,M,M,M,M,M,M,M,M,M,M,M,87.13,KHTH 160335Z AUTO 32009KT 8SM CLR 33/01 A3006 RMK A01,M
RTS,2021-08-16 03:35,-119.8764,39.6682,1539.00,80.60,33.80,18.42,340.00,4.00,0.00,30.16,M,8.00,M,CLR,M,M,M,M,M,M,M,M,M,M,M,M,M,M,78.88,KRTS 160335Z AUTO 34004KT 8SM CLR 27/01 A3016 RMK AO2,M
CXP,2021-08-16 03:35,-119.7326,39.1923,1431.00,86.00,33.80,15.48,30.00,4.00,0.00,30.12,M,8.00,M,CLR,M,M,M,M,M,M,M,M,M,M,M,M,M,M,82.66,KCXP 160335Z AUTO 03004KT 8SM CLR 30/01 A3012 RMK AO2,M
BVU,2021-08-16 03:35,-114.8611,35.9475,671.00,96.80,57.20,26.84,160.00,5.00,0.00,29.82,M,10.00,M,CLR,M,M,M,M,M,M,M,M,M,M,M,M,M,M,95.77,KBVU 160335Z AUTO 16005KT 10SM CLR 36/14 A2982 RMK AO2,M
P68,2021-08-16 03:53,-116.0056,39.6014,1993.00,71.00,34.00,25.49,10.00,3.00,0.00,30.21,1014.10,M,M,M,M,M,M,M,M,M,M,M,M,M,M,M,M,M,71.10,KP68 160353Z AUTO 01003KT 22/01 A3021 RMK AO1 SLP141 T02170011,M
VGT,2021-08-16 03:53,-115.1933,36.2111,667.00,102.00,58.00,23.52,120.00,5.00,0.00,29.80,1007.30,10.00,M,CLR,M,M,M,M,M,M,M,M,M,M,M,M,M,M,101.87,KVGT 160353Z 12005KT 10SM CLR 39/14 A2980 RMK AO2 SLP073 T03890144,M
ELY,2021-08-16 03:53,-114.8453,39.2950,1909.00,74.00,26.10,16.81,20.00,8.00,0.00,30.23,1012.60,7.00,M,CLR,M,M,M,M,M,M,M,M,M,M,M,M,M,M,73.90,KELY 160353Z AUTO 02008KT 7SM CLR 23/M03 A3023 RMK AO2 SLP126 T02331033,M
HTH,2021-08-16 03:55,-118.6315,38.5448,1282.89,91.40,33.80,13.05,310.00,9.00,0.00,30.06,M,8.00,M,FEW,FEW,M,M,4700.00,5500.00,M,M,M,M,M,M,M,M,M,87.13,KHTH 160355Z AUTO 31009KT 8SM FEW047 FEW055 33/01 A3006 RMK A01,M
BAM,2021-08-16 03:55,-116.8743,40.5990,1382.36,78.80,28.40,15.71,190.00,3.00,0.00,30.10,M,7.00,M,CLR,M,M,M,M,M,M,M,M,M,M,M,M,M,M,78.80,KBAM 160355Z AUTO 19003KT 7SM CLR 26/M02 A3010 RMK AO1,M
BVU,2021-08-16 03:55,-114.8611,35.9475,671.00,96.80,57.20,26.84,170.00,7.00,0.00,29.82,M,10.00,M,CLR,M,M,M,M,M,M,M,M,M,M,M,M,M,M,95.77,KBVU 160355Z AUTO 17007KT 10SM CLR 36/14 A2982 RMK AO2,M
RTS,2021-08-16 03:55,-119.8764,39.6682,1539.00,80.60,33.80,18.42,280.00,5.00,0.00,30.16,M,8.00,M,CLR,M,M,M,M,M,M,M,M,M,M,M,M,M,M,78.88,KRTS 160355Z AUTO 28005KT 8SM CLR 27/01 A3016 RMK AO2,M
MEV,2021-08-16 03:55,-119.7500,38.9963,1441.42,73.40,44.60,35.66,140.00,5.00,0.00,30.11,M,5.00,M,SCT,BKN,BKN,M,3500.00,6000.00,7500.00,M,HZ,M,M,M,M,M,M,73.40,KMEV 160355Z AUTO 14005KT 5SM HZ SCT035 BKN060 BKN075 23/07 A3011 RMK AO2,M
TMT,2021-08-16 03:55,-117.1971,39.4643,1749.34,72.00,33.30,24.04,0.00,0.00,0.00,30.22,M,10.00,M,CLR,M,M,M,M,M,M,M,M,M,M,M,M,M,M,72.00,KTMT 160355Z AUTO 00000KT 10SM CLR 22/01 A3022 RMK AO2 T02220007,M
CXP,2021-08-16 03:55,-119.7326,39.1923,1431.00,82.40,39.20,21.51,0.00,0.00,0.00,30.12,M,8.00,M,CLR,M,M,M,M,M,M,M,M,M,M,M,M,M,M,80.21,KCXP 160355Z AUTO 00000KT 8SM CLR 28/04 A3012 RMK AO2,M
RNO,2021-08-16 03:55,-119.7711,39.4839,1341.00,88.00,42.00,20.11,290.00,5.00,0.00,30.08,1012.20,5.00,M,SCT,BKN,BKN,M,0.00,3000.00,6000.00,M,FU,M,M,M,M,M,M,84.52,KRNO 160355Z 29005KT 5SM FU SCT000 BKN030 BKN060 31/06 A3008 RMK AO2 SLP122 FU SCT000 FU BKN030 FU BKN060 T03110056,M
LAS,2021-08-16 03:56,-115.1634,36.0719,663.00,101.00,56.00,22.61,190.00,5.00,0.00,29.81,1006.00,10.00,M,FEW,FEW,SCT,M,12000.00,15000.00,20000.00,M,M,M,M,M,M,M,M,99.80,KLAS 160356Z 19005KT 10SM FEW120 FEW150 SCT200 38/13 A2981 RMK AO2 SLP060 T03830133,M
EKO,2021-08-16 03:56,-115.7860,40.8242,1367.00,79.00,27.00,14.73,0.00,0.00,0.00,30.15,1015.00,6.00,M,CLR,M,M,M,M,M,M,M,HZ,M,M,M,M,M,M,79.00,KEKO 160356Z AUTO 00000KT 6SM HZ CLR 26/M03 A3015 RMK AO2 SLP150 T02611028 $,M
WMC,2021-08-16 03:56,-117.8072,40.9019,1315.00,79.00,37.00,22.05,0.00,0.00,0.00,30.06,1012.30,6.00,M,SCT,M,M,M,6000.00,M,M,M,HZ,M,M,M,M,M,M,79.00,KWMC 160356Z AUTO 00000KT 6SM HZ SCT060 26/03 A3006 RMK AO2 SLP123 T02610028 $,M
TPH,2021-08-16 03:56,-117.0904,38.0505,1654.00,88.00,32.00,13.51,30.00,3.00,0.00,30.13,1009.80,7.00,M,CLR,M,M,M,M,M,M,M,M,M,M,M,M,M,M,84.24,KTPH 160356Z AUTO 03003KT 7SM CLR 31/00 A3013 RMK AO2 SLP098 T03110000,M
NFL,2021-08-16 03:56,-118.7010,39.4166,1199.00,83.00,45.00,26.46,290.00,5.00,0.00,30.02,1013.50,6.00,M,OVC,M,M,M,5000.00,M,M,M,HZ,M,M,M,M,M,M,80.86,KNFL 160356Z AUTO 29005KT 6SM HZ OVC050 28/07 A3002 RMK AO2 SLP135 T02830072,M
HND,2021-08-16 03:56,-115.1344,35.9729,742.79,99.00,58.00,25.74,200.00,10.00,0.00,29.85,1008.80,10.00,M,CLR,M,M,M,M,M,M,M,M,M,M,M,M,M,M,98.49,KHND 160356Z AUTO 20010KT 10SM CLR 37/14 A2985 RMK AO2 SLP088 T03720144,M
INS,2021-08-16 03:58,-115.6733,36.5872,955.00,96.40,46.00,17.97,130.00,4.00,0.00,29.89,1006.40,10.00,M,CLR,M,M,M,M,M,M,M,M,M,M,M,M,M,M,92.60,KINS 160358Z AUTO 13004KT 10SM CLR 36/08 A2989 RMK AO2 SLP064 T03580078 $,M
LSV,2021-08-16 03:58,-115.0343,36.2362,570.00,101.50,56.70,22.86,160.00,5.00,0.00,29.77,1005.10,10.00,M,BKN,BKN,M,M,17000.00,20000.00,M,M,M,M,M,M,M,M,M,100.79,KLSV 160358Z AUTO 16005KT 10SM BKN170 BKN200 39/14 A2977 RMK AO2 SLP051 T03860137 $,M
HTH,2021-08-16 04:15,-118.6315,38.5448,1282.89,89.60,33.80,13.80,320.00,8.00,0.00,30.06,M,8.00,M,FEW,FEW,M,M,4600.00,5500.00,M,M,M,M,M,M,M,M,M,85.59,KHTH 160415Z AUTO 32008KT 8SM FEW046 FEW055 32/01 A3006 RMK A01,M
TMT,2021-08-16 04:15,-117.1971,39.4643,1749.34,72.30,33.80,24.28,0.00,0.00,0.00,30.22,M,10.00,M,CLR,M,M,M,M,M,M,M,M,M,M,M,M,M,M,72.30,KTMT 160415Z AUTO 00000KT 10SM CLR 22/01 A3022 RMK AO2 T02240010,M
BVU,2021-08-16 04:15,-114.8611,35.9475,671.00,96.80,57.20,26.84,170.00,9.00,0.00,29.82,M,10.00,M,CLR,M,M,M,M,M,M,M,M,M,M,M,M,M,M,95.77,KBVU 160415Z AUTO 17009KT 10SM CLR 36/14 A2982 RMK AO2,M
CXP,2021-08-16 04:15,-119.7326,39.1923,1431.00,82.40,39.20,21.51,70.00,4.00,0.00,30.12,M,8.00,M,CLR,M,M,M,M,M,M,M,M,M,M,M,M,M,M,80.21,KCXP 160415Z AUTO 07004KT 8SM CLR 28/04 A3012 RMK AO2,M
MEV,2021-08-16 04:15,-119.7500,38.9963,1441.42,73.40,44.60,35.66,130.00,4.00,0.00,30.12,M,5.00,M,FEW,SCT,BKN,M,2500.00,3100.00,6000.00,M,HZ,M,M,M,M,M,M,73.40,KMEV 160415Z AUTO 13004KT 5SM HZ FEW025 SCT031 BKN060 23/07 A3012 RMK AO2,M
RTS,2021-08-16 04:15,-119.8764,39.6682,1539.00,80.60,35.60,19.79,310.00,8.00,0.00,30.17,M,7.00,M,CLR,M,M,M,M,M,M,M,M,M,M,M,M,M,M,78.94,KRTS 160415Z AUTO 31008KT 7SM CLR 27/02 A3017 RMK AO2,M
BAM,2021-08-16 04:15,-116.8743,40.5990,1382.36,78.80,26.60,14.59,160.00,4.00,0.00,30.10,M,10.00,M,CLR,M,M,M,M,M,M,M,M,M,M,M,M,M,M,78.80,KBAM 160415Z AUTO 16004KT 10SM CLR 26/M03 A3010 RMK AO1,M
MEV,2021-08-16 04:35,-119.7500,38.9963,1441.42,71.60,42.80,35.37,110.00,6.00,0.00,30.12,M,6.00,M,FEW,SCT,BKN,M,2700.00,3300.00,5500.00,M,HZ,M,M,M,M,M,M,71.60,KMEV 160435Z AUTO 11006KT 6SM HZ FEW027 SCT033 BKN055 22/06 A3012 RMK AO2,M
BVU,2021-08-16 04:35,-114.8611,35.9475,671.00,96.80,57.20,26.84,140.00,4.00,0.00,29.83,M,10.00,10.00,CLR,M,M,M,M,M,M,M,M,M,M,M,M,M,M,95.77,KBVU 160435Z AUTO 14004G10KT 10SM CLR 36/14 A2983 RMK AO2 LTG DSNT N AND NE,M
CXP,2021-08-16 04:35,-119.7326,39.1923,1431.00,80.60,37.40,21.25,0.00,0.00,0.00,30.13,M,8.00,M,CLR,M,M,M,M,M,M,M,M,M,M,M,M,M,M,79.02,KCXP 160435Z AUTO 00000KT 8SM CLR 27/03 A3013 RMK AO2,M
RTS,2021-08-16 04:35,-119.8764,39.6682,1539.00,80.60,33.80,18.42,300.00,5.00,0.00,30.17,M,6.00,M,CLR,M,M,M,M,M,M,M,HZ,M,M,M,M,M,M,78.88,KRTS 160435Z AUTO 30005KT 6SM HZ CLR 27/01 A3017 RMK AO2,M
HTH,2021-08-16 04:35,-118.6315,38.5448,1282.89,87.80,33.80,14.61,330.00,4.00,0.00,30.06,M,8.00,M,FEW,FEW,M,M,4800.00,5500.00,M,M,M,M,M,M,M,M,M,84.10,KHTH 160435Z AUTO 33004KT 8SM FEW048 FEW055 31/01 A3006 RMK A01,M
BAM,2021-08-16 04:35,-116.8743,40.5990,1382.36,73.40,28.40,18.80,0.00,0.00,0.00,30.10,M,10.00,M,CLR,M,M,M,M,M,M,M,M,M,M,M,M,M,M,73.40,KBAM 160435Z AUTO 00000KT 10SM CLR 23/M02 A3010 RMK AO1,M
TMT,2021-08-16 04:35,-117.1971,39.4643,1749.34,69.00,33.00,26.50,0.00,0.00,0.00,30.22,M,10.00,M,CLR,M,M,M,M,M,M,M,M,M,M,M,M,M,M,68.90,KTMT 160435Z AUTO 00000KT 10SM CLR 21/01 A3022 RMK AO2 T02050006,M
P68,2021-08-16 04:53,-116.0056,39.6014,1993.00,64.00,30.00,27.71,140.00,4.00,0.00,30.22,1014.70,M,M,M,M,M,M,M,M,M,M,M,M,M,M,M,M,M,64.00,KP68 160453Z AUTO 14004KT 18/M01 A3022 RMK AO1 SLP147 T01781011,M
ELY,2021-08-16 04:53,-114.8453,39.2950,1909.00,68.00,25.00,19.63,20.00,5.00,0.00,30.24,1012.70,7.00,M,CLR,M,M,M,M,M,M,M,M,M,M,M,M,M,M,68.00,KELY 160453Z AUTO 02005KT 7SM CLR 20/M04 A3024 RMK AO2 SLP127 T02001039,M
VGT,2021-08-16 04:53,-115.1933,36.2111,667.00,100.00,58.00,24.97,60.00,9.00,0.00,29.80,1007.50,10.00,M,CLR,M,M,M,M,M,M,M,M,M,M,M,M,M,M,99.61,KVGT 160453Z AUTO 06009KT 10SM CLR 38/14 A2980 RMK AO2 LTG DSNT NE SLP075 T03780144,M
RTS,2021-08-16 04:55,-119.8764,39.6682,1539.00,80.60,33.80,18.42,310.00,5.00,0.00,30.17,M,5.00,M,CLR,M,M,M,M,M,M,M,HZ,M,M,M,M,M,M,78.88,KRTS 160455Z AUTO 31005KT 5SM HZ CLR 27/01 A3017 RMK AO2,M
BVU,2021-08-16 04:55,-114.8611,35.9475,671.00,96.80,57.20,26.84,100.00,4.00,0.00,29.83,M,10.00,M,CLR,M,M,M,M,M,M,M,VCTS,M,M,M,M,M,M,95.77,KBVU 160455Z AUTO 10004KT 10SM VCTS CLR 36/14 A2983 RMK AO2 LTG DSNT N,M
MEV,2021-08-16 04:55,-119.7500,38.9963,1441.42,71.60,42.80,35.37,100.00,7.00,0.00,30.12,M,6.00,M,SCT,SCT,BKN,M,2600.00,3200.00,4300.00,M,HZ,M,M,M,M,M,M,71.60,KMEV 160455Z AUTO 10007KT 6SM HZ SCT026 SCT032 BKN043 22/06 A3012 RMK AO2,M
TMT,2021-08-16 04:55,-117.1971,39.4643,1749.34,67.50,33.00,27.59,0.00,0.00,0.00,30.22,M,10.00,M,CLR,M,M,M,M,M,M,M,M,M,M,M,M,M,M,67.50,KTMT 160455Z AUTO 00000KT 10SM CLR 20/01 A3022 RMK AO2 T01970005,M
CXP,2021-08-16 04:55,-119.7326,39.1923,1431.00,78.80,39.20,24.19,0.00,0.00,0.00,30.13,M,8.00,M,CLR,M,M,M,M,M,M,M,M,M,M,M,M,M,M,78.80,KCXP 160455Z AUTO 00000KT 8SM CLR 26/04 A3013 RMK AO2,M
BAM,2021-08-16 04:55,-116.8743,40.5990,1382.36,77.00,28.40,16.67,0.00,0.00,0.00,30.11,M,7.00,M,CLR,M,M,M,M,M,M,M,M,M,M,M,M,M,M,77.00,KBAM 160455Z AUTO 00000KT 7SM CLR 25/M02 A3011 RMK AO1,M
HTH,2021-08-16 04:55,-118.6315,38.5448,1282.89,87.80,35.60,15.70,320.00,5.00,0.00,30.06,M,7.00,M,FEW,FEW,M,M,4700.00,5500.00,M,M,M,M,M,M,M,M,M,84.12,KHTH 160455Z AUTO 32005KT 7SM FEW047 FEW055 31/02 A3006 RMK A01,M
RNO,2021-08-16 04:55,-119.7711,39.4839,1341.00,86.00,39.00,19.01,0.00,0.00,0.00,30.10,1012.60,5.00,M,SCT,BKN,OVC,M,0.00,3500.00,6000.00,M,FU,M,M,M,M,M,M,82.78,KRNO 160455Z 00000KT 5SM FU SCT000 BKN035 OVC060 30/04 A3010 RMK AO2 SLP126 FU SCT000 FU BKN035 FU OVC060 T03000039,M
EKO,2021-08-16 04:56,-115.7860,40.8242,1367.00,76.00,28.00,17.01,0.00,0.00,0.00,30.15,1014.80,6.00,M,CLR,M,M,M,M,M,M,M,HZ,M,M,M,M,M,M,75.90,KEKO 160456Z AUTO 00000KT 6SM HZ CLR 24/M02 A3015 RMK AO2 SLP148 T02441022 $,M
HND,2021-08-16 04:56,-115.1344,35.9729,742.79,96.00,57.00,27.23,150.00,4.00,0.00,29.86,1009.00,10.00,M,CLR,M,M,M,M,M,M,M,M,M,M,M,M,M,M,94.94,KHND 160456Z AUTO 15004KT 10SM CLR 36/14 A2986 RMK AO2 LTG DSNT NE SLP090 T03560139,M
WMC,2021-08-16 04:56,-117.8072,40.9019,1315.00,76.00,36.00,23.48,150.00,4.00,0.00,30.05,1012.00,7.00,M,CLR,M,M,M,M,M,M,M,M,M,M,M,M,M,M,75.90,KWMC 160456Z AUTO 15004KT 7SM CLR 24/02 A3005 RMK AO2 SLP120 T02440022 $,M
LAS,2021-08-16 04:56,-115.1634,36.0719,663.00,101.00,51.00,18.97,210.00,3.00,0.00,29.81,1006.30,10.00,M,FEW,SCT,BKN,M,15000.00,18000.00,20000.00,M,M,M,M,M,M,M,M,98.23,KLAS 160456Z 21003KT 10SM FEW150 SCT180 BKN200 38/11 A2981 RMK AO2 LTG DSNT NE SLP063 T03830106,M
TPH,2021-08-16 04:56,-117.0904,38.0505,1654.00,83.00,32.00,15.91,350.00,7.00,0.00,30.15,1010.50,7.00,M,CLR,M,M,M,M,M,M,M,M,M,M,M,M,M,M,80.34,KTPH 160456Z AUTO 35007KT 7SM CLR 28/00 A3015 RMK AO2 SLP105 T02830000,M
NFL,2021-08-16 04:56,-118.7010,39.4166,1199.00,85.00,41.00,21.28,230.00,4.00,0.00,30.02,1013.60,6.00,M,OVC,M,M,M,5500.00,M,M,M,HZ,M,M,M,M,M,M,82.03,KNFL 160456Z AUTO 23004KT 6SM HZ OVC055 29/05 A3002 RMK AO2 SLP136 T02940050,M
LSV,2021-08-16 04:58,-115.0343,36.2362,570.00,98.60,58.80,26.91,60.00,18.00,0.00,29.81,1006.50,10.00,M,BKN,M,M,M,15000.00,M,M,M,M,M,M,M,M,M,M,98.43,KLSV 160458Z AUTO 06018KT 10SM BKN150 37/15 A2981 RMK AO2 LTG DSNT NE SLP065 T03700149 $,M
INS,2021-08-16 04:58,-115.6733,36.5872,955.00,92.30,45.30,19.86,10.00,3.00,0.00,29.89,1006.40,10.00,M,CLR,M,M,M,M,M,M,M,M,M,M,M,M,M,M,88.58,KINS 160458Z AUTO 01003KT 10SM CLR 34/07 A2989 RMK AO2 SLP064 T03350074 $,M
LSV,2021-08-16 05:04,-115.0343,36.2362,570.00,98.60,59.00,27.10,60.00,20.00,0.00,29.82,1006.90,10.00,M,OVC,M,M,M,15000.00,M,M,M,TS,M,M,M,M,M,M,98.52,KLSV 160504Z 06020KT 10SM TS OVC150CB 37/15 A2982 RMK TSB06 SLP069 53016 $,M
TMT,2021-08-16 05:15,-117.1971,39.4643,1749.34,62.80,32.00,31.34,290.00,5.00,0.00,30.22,M,10.00,M,CLR,M,M,M,M,M,M,M,M,M,M,M,M,M,M,62.80,KTMT 160515Z AUTO 29005KT 10SM CLR 17/00 A3022 RMK AO2 T01710000,M
BVU,2021-08-16 05:15,-114.8611,35.9475,671.00,95.00,59.00,30.26,60.00,6.00,0.00,29.84,M,10.00,M,CLR,M,M,M,M,M,M,M,M,M,M,M,M,M,M,94.51,KBVU 160515Z AUTO 06006KT 10SM CLR 35/15 A2984 RMK AO2,M
CXP,2021-08-16 05:15,-119.7326,39.1923,1431.00,78.80,37.40,22.54,0.00,0.00,0.00,30.13,M,8.00,M,CLR,M,M,M,M,M,M,M,M,M,M,M,M,M,M,78.80,KCXP 160515Z AUTO 00000KT 8SM CLR 26/03 A3013 RMK AO2,M
HTH,2021-08-16 05:15,-118.6315,38.5448,1282.89,87.80,35.60,15.70,0.00,0.00,0.00,30.06,M,8.00,M,FEW,M,M,M,5500.00,M,M,M,M,M,M,M,M,M,M,84.12,KHTH 160515Z AUTO 00000KT 8SM FEW055 31/02 A3006 RMK A01,M
RTS,2021-08-16 05:15,-119.8764,39.6682,1539.00,78.80,33.80,19.55,280.00,3.00,0.00,30.17,M,5.00,M,CLR,M,M,M,M,M,M,M,HZ,M,M,M,M,M,M,78.80,KRTS 160515Z AUTO 28003KT 5SM HZ CLR 26/01 A3017 RMK AO2,M
MEV,2021-08-16 05:15,-119.7500,38.9963,1441.42,68.00,42.80,40.00,120.00,4.00,0.00,30.12,M,6.00,M,FEW,SCT,BKN,M,2100.00,2700.00,3100.00,M,HZ,M,M,M,M,M,M,68.00,KMEV 160515Z AUTO 12004KT 6SM HZ FEW021 SCT027 BKN031 20/06 A3012 RMK AO2,M
BAM,2021-08-16 05:15,-116.8743,40.5990,1382.36,77.00,28.40,16.67,0.00,0.00,0.00,30.10,M,7.00,M,CLR,M,M,M,M,M,M,M,M,M,M,M,M,M,M,77.00,KBAM 160515Z AUTO 00000KT 7SM CLR 25/M02 A3010 RMK AO1,M
LSV,2021-08-16 05:16,-115.0343,36.2362,570.00,98.60,59.00,27.10,90.00,22.00,0.00,29.80,1006.10,10.00,27.00,FEW,OVC,M,M,9000.00,15000.00,M,M,-TSRA,M,M,M,M,M,M,98.52,KLSV 160516Z 09022G27KT 10SM -TSRA FEW090 OVC150 37/15 A2980 RMK RAB18 TSB04 PRESFR SLP061 53010 $,M
LSV,2021-08-16 05:25,-115.0343,36.2362,570.00,93.20,69.80,46.67,90.00,20.00,0.00,29.80,1006.30,9.00,M,FEW,FEW,BKN,M,7000.00,9000.00,15000.00,M,-RA,M,M,M,M,M,M,99.17,KLSV 160525Z 09020KT 9SM -RA FEW070 FEW090 BKN150 34/21 A2980 RMK RAB20E27 TSB04 SLP063 53010 $,M
RTS,2021-08-16 05:35,-119.8764,39.6682,1539.00,78.80,33.80,19.55,310.00,4.00,0.00,30.17,M,4.00,M,CLR,M,M,M,M,M,M,M,HZ,M,M,M,M,M,M,78.80,KRTS 160535Z AUTO 31004KT 4SM HZ CLR 26/01 A3017 RMK AO2,M
BVU,2021-08-16 05:35,-114.8611,35.9475,671.00,96.80,59.00,28.63,90.00,9.00,0.00,29.85,M,10.00,M,CLR,M,M,M,M,M,M,M,M,M,M,M,M,M,M,96.50,KBVU 160535Z AUTO 09009KT 10SM CLR 36/15 A2985 RMK AO2,M
TMT,2021-08-16 05:35,-117.1971,39.4643,1749.34,62.80,32.40,31.85,320.00,5.00,0.00,30.21,M,10.00,M,CLR,M,M,M,M,M,M,M,M,M,M,M,M,M,M,62.80,KTMT 160535Z AUTO 32005KT 10SM CLR 17/00 A3021 RMK AO2 T01710002,M
BAM,2021-08-16 05:35,-116.8743,40.5990,1382.36,78.80,26.60,14.59,90.00,5.00,0.00,30.10,M,10.00,M,CLR,M,M,M,M,M,M,M,M,M,M,M,M,M,M,78.80,KBAM 160535Z AUTO 09005KT 10SM CLR 26/M03 A3010 RMK AO1,M
HTH,2021-08-16 05:35,-118.6315,38.5448,1282.89,86.00,37.40,17.85,0.00,0.00,0.00,30.06,M,8.00,M,FEW,M,M,M,5500.00,M,M,M,M,M,M,M,M,M,M,82.73,KHTH 160535Z AUTO 00000KT 8SM FEW055 30/03 A3006 RMK A01,M
CXP,2021-08-16 05:35,-119.7326,39.1923,1431.00,77.00,35.60,22.28,0.00,0.00,0.00,30.13,M,8.00,M,CLR,M,M,M,M,M,M,M,M,M,M,M,M,M,M,77.00,KCXP 160535Z AUTO 00000KT 8SM CLR 25/02 A3013 RMK AO2,M
MEV,2021-08-16 05:35,-119.7500,38.9963,1441.42,71.60,39.20,30.77,140.00,7.00,0.00,30.12,M,6.00,M,FEW,SCT,BKN,M,2200.00,2700.00,3100.00,M,HZ,M,M,M,M,M,M,71.60,KMEV 160535Z AUTO 14007KT 6SM HZ FEW022 SCT027 BKN031 22/04 A3012 RMK AO2,M
LAS,2021-08-16 05:44,-115.1634,36.0719,663.00,97.00,59.00,28.46,110.00,18.00,0.00,29.82,M,10.00,29.00,FEW,SCT,BKN,M,12000.00,15000.00,20000.00,M,VCTS,M,M,M,34.00,70.00,2021-08-16 05:32,96.72,KLAS 160544Z 11018G29KT 10SM VCTS FEW120CB SCT150 BKN200 36/15 A2982 RMK AO2 PK WND 07034/0532 OCNL LTGICCG VC NE TSB40 TS VC NE MOV S T03610150,M
LSV,2021-08-16 05:46,-115.0343,36.2362,570.00,93.20,62.60,36.35,130.00,19.00,0.00,29.77,1005.20,10.00,M,CLR,M,M,M,M,M,M,M,M,M,M,M,M,M,M,94.20,KLSV 160546Z 13019KT 10SM CLR 34/17 A2977 RMK RAB20E33 TSB04E46 PRESFR SLP052 50001 $,M
VGT,2021-08-16 05:53,-115.1933,36.2111,667.00,98.00,59.00,27.52,80.00,4.00,0.00,29.82,1008.00,10.00,M,CLR,M,M,M,M,M,M,M,M,M,M,M,29.00,60.00,2021-08-16 05:09,97.96,KVGT 160553Z AUTO 08004KT 10SM CLR 37/15 A2982 RMK AO2 PK WND 06029/0509 SLP080 T03670150 10422 20367 53009,M
ELY,2021-08-16 05:53,-114.8453,39.2950,1909.00,60.00,26.10,27.10,170.00,5.00,0.00,30.24,1012.90,7.00,M,CLR,M,M,M,M,M,M,M,M,M,M,M,M,M,M,60.10,KELY 160553Z AUTO 17005KT 7SM CLR 16/M03 A3024 RMK AO2 SLP129 T01561033 10328 20156 51006,M
P68,2021-08-16 05:53,-116.0056,39.6014,1993.00,61.00,30.90,31.95,190.00,4.00,0.00,30.23,1014.60,M,M,M,M,M,M,M,M,M,M,M,M,M,M,M,M,M,61.00,KP68 160553Z AUTO 19004KT 16/M01 A3023 RMK AO1 SLP146 T01611006 10339 20150 51008,M
BAM,2021-08-16 05:55,-116.8743,40.5990,1382.36,77.00,26.60,15.48,90.00,5.00,0.00,30.10,M,7.00,M,CLR,M,M,M,M,M,M,M,M,M,M,M,M,M,M,77.00,KBAM 160555Z AUTO 09005KT 7SM CLR 25/M03 A3010 RMK AO1,M
RNO,2021-08-16 05:55,-119.7711,39.4839,1341.00,80.00,43.00,26.85,220.00,6.00,0.00,30.10,1012.70,6.00,M,SCT,BKN,OVC,M,0.00,3000.00,5000.00,M,FU,M,M,M,M,M,M,79.04,KRNO 160555Z 22006KT 6SM FU SCT000 BKN030 OVC050 27/06 A3010 RMK AO2 SLP127 FU SCT000 FU BKN030 FU OVC050 T02670061 10378 20261 50008,M
TMT,2021-08-16 05:55,-117.1971,39.4643,1749.34,63.50,32.00,30.58,330.00,6.00,0.00,30.21,M,10.00,M,CLR,M,M,M,M,M,M,M,M,M,M,M,M,M,M,63.50,KTMT 160555Z AUTO 33006KT 10SM CLR 18/00 A3021 RMK AO2 T01750000 10339 20170,M
HTH,2021-08-16 05:55,-118.6315,38.5448,1282.89,82.40,37.40,20.04,M,3.00,0.00,30.06,M,8.00,M,FEW,M,M,M,6000.00,M,M,M,M,M,M,M,M,M,M,80.14,KHTH 160555Z AUTO VRB03KT 8SM FEW060 28/03 A3006 RMK A01,M
RTS,2021-08-16 05:55,-119.8764,39.6682,1539.00,77.00,35.60,22.28,320.00,4.00,0.00,30.16,M,4.00,M,CLR,M,M,M,M,M,M,M,HZ,M,M,M,M,M,M,77.00,KRTS 160555Z AUTO 32004KT 4SM HZ CLR 25/02 A3016 RMK AO2,M
CXP,2021-08-16 05:55,-119.7326,39.1923,1431.00,77.00,37.40,23.93,170.00,4.00,0.00,30.13,M,8.00,M,CLR,M,M,M,M,M,M,M,M,M,M,M,M,M,M,77.00,KCXP 160555Z AUTO 17004KT 8SM CLR 25/03 A3013 RMK AO2,M
BVU,2021-08-16 05:55,-114.8611,35.9475,671.00,95.00,59.00,30.26,110.00,7.00,0.00,29.85,M,10.00,M,FEW,M,M,M,9000.00,M,M,M,M,M,M,M,M,M,M,94.51,KBVU 160555Z AUTO 11007KT 10SM FEW090 35/15 A2985 RMK AO2,M
MEV,2021-08-16 05:55,-119.7500,38.9963,1441.42,71.60,35.60,26.71,110.00,8.00,0.00,30.12,M,6.00,M,FEW,SCT,BKN,M,2000.00,2600.00,3200.00,M,HZ,M,M,M,M,M,M,71.60,KMEV 160555Z AUTO 11008KT 6SM HZ FEW020 SCT026 BKN032 22/02 A3012 RMK AO2,M
TPH,2021-08-16 05:56,-117.0904,38.0505,1654.00,79.00,30.90,17.28,340.00,5.00,0.00,30.16,1010.80,7.00,M,CLR,M,M,M,M,M,M,M,M,M,M,M,M,M,M,79.00,KTPH 160556Z AUTO 34005KT 7SM CLR 26/M01 A3016 RMK AO2 SLP108 T02611006 10372 20261 51012,M
LAS,2021-08-16 05:56,-115.1634,36.0719,663.00,97.00,59.00,28.46,110.00,12.00,0.00,29.82,1006.50,10.00,23.00,FEW,SCT,BKN,M,12000.00,15000.00,20000.00,M,M,M,M,M,34.00,70.00,2021-08-16 05:32,96.72,KLAS 160556Z 11012G23KT 10SM FEW120 SCT150 BKN200 36/15 A2982 RMK AO2 PK WND 07034/0532 SLP065 OCNL LTGICCG DSNT NE TSB40 TSB40E55 TS DSIPTD CB DSNT NW T03610150 10422 20361 53005,M
EKO,2021-08-16 05:56,-115.7860,40.8242,1367.00,72.00,28.90,20.12,0.00,0.00,0.00,30.15,1014.30,7.00,M,CLR,M,M,M,M,M,M,M,M,M,M,M,M,M,M,72.00,KEKO 160556Z AUTO 00000KT 7SM CLR 22/M02 A3015 RMK AO2 SLP143 T02221017 10356 20222 50004 $,M
WMC,2021-08-16 05:56,-117.8072,40.9019,1315.00,72.00,38.00,28.85,150.00,7.00,0.00,30.05,1011.60,7.00,M,CLR,M,M,M,M,M,M,M,M,M,M,M,M,M,M,72.00,KWMC 160556Z AUTO 15007KT 7SM CLR 22/03 A3005 RMK AO2 SLP116 T02220033 10389 20222 58001 $,M
HND,2021-08-16 05:56,-115.1344,35.9729,742.79,97.00,57.00,26.49,70.00,9.00,0.00,29.89,1009.80,10.00,M,CLR,M,M,M,M,M,M,M,M,M,M,M,M,M,M,95.92,KHND 160556Z AUTO 07009KT 10SM CLR 36/14 A2989 RMK AO2 SLP098 T03610139 10422 20356 53012,M
NFL,2021-08-16 05:56,-118.7010,39.4166,1199.00,76.00,39.00,26.42,190.00,3.00,0.00,30.02,1013.50,6.00,M,BKN,M,M,M,5500.00,M,M,M,HZ,M,M,M,M,M,M,75.90,KNFL 160556Z AUTO 19003KT 6SM HZ BKN055 24/04 A3002 RMK AO2 SLP135 T02440039 10389 20244 50000,M
INS,2021-08-16 05:58,-115.6733,36.5872,955.00,91.80,46.20,20.87,0.00,0.00,0.00,29.90,1006.50,10.00,M,BKN,M,M,M,18000.00,M,M,M,M,M,M,M,M,M,M,88.21,KINS 160558Z AUTO 00000KT 10SM BKN180 33/08 A2990 RMK AO2 SLP065 T03320079 10405 20328 50002 $,M
LSV,2021-08-16 05:59,-115.0343,36.2362,570.00,94.60,61.00,32.90,130.00,18.00,0.07,29.77,1005.20,10.00,M,CLR,M,M,M,M,M,M,M,M,M,M,M,27.00,90.00,2021-08-16 05:14,94.95,KLSV 160559Z 13018KT 10SM CLR 35/16 A2977 RMK PK WND 09027/14 RAB20E33 TSB04E46 SLP052 P0007 60007 T03480161 10416 20325 50001 $,M
HTH,2021-08-16 06:15,-118.6315,38.5448,1282.89,84.20,35.60,17.61,170.00,4.00,0.00,30.06,M,7.00,M,FEW,FEW,M,M,4600.00,6000.00,M,M,M,M,M,M,M,M,M,81.34,KHTH 160615Z AUTO 17004KT 7SM FEW046 FEW060 29/02 A3006 RMK A01,M
TMT,2021-08-16 06:15,-117.1971,39.4643,1749.34,59.70,30.40,32.79,0.00,0.00,0.00,30.21,M,10.00,M,CLR,M,M,M,M,M,M,M,M,M,M,M,M,M,M,59.70,KTMT 160615Z AUTO 00000KT 10SM CLR 15/M01 A3021 RMK AO2 T01541009,M
BAM,2021-08-16 06:15,-116.8743,40.5990,1382.36,77.00,26.60,15.48,70.00,8.00,0.00,30.10,M,7.00,M,CLR,M,M,M,M,M,M,M,M,M,M,M,M,M,M,77.00,KBAM 160615Z AUTO 07008KT 7SM CLR 25/M03 A3010 RMK AO1,M
MEV,2021-08-16 06:15,-119.7500,38.9963,1441.42,69.80,39.20,32.72,100.00,7.00,0.00,30.13,M,6.00,M,SCT,BKN,BKN,M,2700.00,3300.00,4200.00,M,HZ,M,M,M,M,M,M,69.80,KMEV 160615Z AUTO 10007KT 6SM HZ SCT027 BKN033 BKN042 21/04 A3013 RMK AO2,M
RTS,2021-08-16 06:15,-119.8764,39.6682,1539.00,78.80,35.60,21.00,310.00,5.00,0.00,30.17,M,3.00,M,CLR,M,M,M,M,M,M,M,HZ,M,M,M,M,M,M,78.80,KRTS 160615Z AUTO 31005KT 3SM HZ CLR 26/02 A3017 RMK AO2,M
BVU,2021-08-16 06:15,-114.8611,35.9475,671.00,95.00,59.00,30.26,150.00,8.00,0.00,29.84,M,10.00,M,FEW,SCT,BKN,M,3300.00,5000.00,11000.00,M,M,M,M,M,M,M,M,94.51,KBVU 160615Z AUTO 15008KT 10SM FEW033 SCT050 BKN110 35/15 A2984 RMK AO2,M
CXP,2021-08-16 06:15,-119.7326,39.1923,1431.00,75.20,39.20,27.26,M,5.00,0.00,30.13,M,8.00,M,CLR,M,M,M,M,M,M,M,M,M,M,M,M,M,M,75.20,KCXP 160615Z AUTO VRB05KT 8SM CLR 24/04 A3013 RMK AO2,M
HND,2021-08-16 06:32,-115.1344,35.9729,742.79,96.80,55.40,25.15,180.00,11.00,T,29.86,M,10.00,M,FEW,M,M,M,7000.00,M,M,M,M,M,M,M,M,M,M,95.14,KHND 160632Z AUTO 18011KT 10SM FEW070 36/13 A2986 RMK AO2 WSHFT 0612 RAB11E21 P0000,M
BVU,2021-08-16 06:35,-114.8611,35.9475,671.00,95.00,60.80,32.27,M,6.00,0.00,29.83,M,10.00,11.00,FEW,FEW,SCT,M,3200.00,5000.00,11000.00,M,M,M,M,M,M,M,M,95.30,KBVU 160635Z AUTO VRB06G11KT 10SM FEW032 FEW050 SCT110 35/16 A2983 RMK AO2,M
TMT,2021-08-16 06:35,-117.1971,39.4643,1749.34,57.20,29.80,35.00,220.00,4.00,0.00,30.21,M,10.00,M,CLR,M,M,M,M,M,M,M,M,M,M,M,M,M,M,57.20,KTMT 160635Z AUTO 22004KT 10SM CLR 14/M01 A3021 RMK AO2 T01401012,M
HTH,2021-08-16 06:35,-118.6315,38.5448,1282.89,82.40,37.40,20.04,200.00,7.00,0.00,30.06,M,7.00,M,FEW,M,M,M,5500.00,M,M,M,M,M,M,M,M,M,M,80.14,KHTH 160635Z AUTO 20007KT 7SM FEW055 28/03 A3006 RMK A01,M
CXP,2021-08-16 06:35,-119.7326,39.1923,1431.00,75.20,39.20,27.26,0.00,0.00,0.00,30.13,M,7.00,M,FEW,M,M,M,2600.00,M,M,M,M,M,M,M,M,M,M,75.20,KCXP 160635Z AUTO 00000KT 7SM FEW026 24/04 A3013 RMK AO2,M
RTS,2021-08-16 06:35,-119.8764,39.6682,1539.00,77.00,35.60,22.28,340.00,3.00,0.00,30.16,M,3.00,M,FEW,M,M,M,300.00,M,M,M,HZ,M,M,M,M,M,M,77.00,KRTS 160635Z AUTO 34003KT 3SM HZ FEW003 25/02 A3016 RMK AO2,M
MEV,2021-08-16 06:35,-119.7500,38.9963,1441.42,69.80,41.00,35.09,0.00,0.00,0.00,30.13,M,6.00,M,BKN,BKN,BKN,M,3100.00,4100.00,5500.00,M,HZ,M,M,M,M,M,M,69.80,KMEV 160635Z AUTO 00000KT 6SM HZ BKN031 BKN041 BKN055 21/05 A3013 RMK AO2,M
BAM,2021-08-16 06:35,-116.8743,40.5990,1382.36,71.60,26.60,18.55,130.00,5.00,0.00,30.09,M,7.00,M,CLR,M,M,M,M,M,M,M,M,M,M,M,M,M,M,71.60,KBAM 160635Z AUTO 13005KT 7SM CLR 22/M03 A3009 RMK AO1,M
P68,2021-08-16 06:53,-116.0056,39.6014,1993.00,60.00,30.00,31.80,180.00,5.00,0.00,30.22,1014.10,M,M,M,M,M,M,M,M,M,M,M,M,M,M,M,M,M,60.10,KP68 160653Z AUTO 18005KT 16/M01 A3022 RMK AO1 SLP141 T01561011,M
VGT,2021-08-16 06:53,-115.1933,36.2111,667.00,96.00,60.00,30.43,310.00,7.00,0.00,29.82,1008.00,10.00,M,CLR,M,M,M,M,M,M,M,M,M,M,M,M,M,M,96.21,KVGT 160653Z AUTO 31007KT 10SM CLR 36/16 A2982 RMK AO2 SLP080 T03560156,M
ELY,2021-08-16 06:53,-114.8453,39.2950,1909.00,55.00,26.10,32.56,170.00,8.00,0.00,30.24,1013.30,7.00,M,CLR,M,M,M,M,M,M,M,M,M,M,M,M,M,M,55.00,KELY 160653Z AUTO 17008KT 7SM CLR 13/M03 A3024 RMK AO2 SLP133 T01281033,M
MEV,2021-08-16 06:55,-119.7500,38.9963,1441.42,68.00,39.20,34.80,140.00,3.00,0.00,30.13,M,6.00,M,OVC,M,M,M,3300.00,M,M,M,HZ,M,M,M,M,M,M,68.00,KMEV 160655Z AUTO 14003KT 6SM HZ OVC033 20/04 A3013 RMK AO2,M
BAM,2021-08-16 06:55,-116.8743,40.5990,1382.36,73.40,24.80,16.20,90.00,6.00,0.00,30.09,M,7.00,M,CLR,M,M,M,M,M,M,M,M,M,M,M,M,M,M,73.40,KBAM 160655Z AUTO 09006KT 7SM CLR 23/M04 A3009 RMK AO1,M
BVU,2021-08-16 06:55,-114.8611,35.9475,671.00,95.00,59.00,30.26,M,4.00,0.00,29.83,M,10.00,11.00,FEW,BKN,M,M,9000.00,11000.00,M,M,M,M,M,M,M,M,M,94.51,KBVU 160655Z AUTO VRB04G11KT 10SM FEW090 BKN110 35/15 A2983 RMK AO2,M
RNO,2021-08-16 06:55,-119.7711,39.4839,1341.00,79.00,42.00,26.89,0.00,0.00,0.00,30.09,1012.30,6.00,M,BKN,M,M,M,3000.00,M,M,M,FU,M,M,M,M,M,M,79.00,KRNO 160655Z 00000KT 6SM FU BKN030 26/06 A3009 RMK AO2 SLP123 FU BKN030 T02610056,M
HTH,2021-08-16 06:55,-118.6315,38.5448,1282.89,80.60,33.80,18.42,200.00,6.00,0.00,30.05,M,7.00,M,FEW,FEW,SCT,M,4100.00,4600.00,5500.00,M,M,M,M,M,M,M,M,78.88,KHTH 160655Z AUTO 20006KT 7SM FEW041 FEW046 SCT055 27/01 A3005 RMK A01,M
CXP,2021-08-16 06:55,-119.7326,39.1923,1431.00,75.20,39.20,27.26,M,4.00,0.00,30.13,M,7.00,M,FEW,M,M,M,2600.00,M,M,M,M,M,M,M,M,M,M,75.20,KCXP 160655Z AUTO VRB04KT 7SM FEW026 24/04 A3013 RMK AO2,M
RTS,2021-08-16 06:55,-119.8764,39.6682,1539.00,78.80,35.60,21.00,0.00,0.00,0.00,30.16,M,4.00,M,FEW,M,M,M,300.00,M,M,M,HZ,M,M,M,M,M,M,78.80,KRTS 160655Z AUTO 00000KT 4SM HZ FEW003 26/02 A3016 RMK AO2,M
TMT,2021-08-16 06:55,-117.1971,39.4643,1749.34,56.80,32.20,39.13,220.00,6.00,0.00,30.21,M,10.00,M,CLR,M,M,M,M,M,M,M,M,M,M,M,M,M,M,56.80,KTMT 160655Z AUTO 22006KT 10SM CLR 14/00 A3021 RMK AO2 T01380001,M
LAS,2021-08-16 06:56,-115.1634,36.0719,663.00,98.00,56.00,24.61,0.00,0.00,0.00,29.83,1006.60,10.00,M,FEW,BKN,BKN,M,12000.00,17000.00,20000.00,M,M,M,M,M,M,M,M,96.72,KLAS 160656Z 00000KT 10SM FEW120 BKN170 BKN200 37/13 A2983 RMK AO2 SLP066 T03670133,M
NFL,2021-08-16 06:56,-118.7010,39.4166,1199.00,75.00,42.00,30.71,0.00,0.00,0.00,30.02,1013.50,6.00,M,SCT,M,M,M,5500.00,M,M,M,HZ,M,M,M,M,M,M,75.00,KNFL 160656Z AUTO 00000KT 6SM HZ SCT055 24/06 A3002 RMK AO2 SLP135 T02390056,M
EKO,2021-08-16 06:56,-115.7860,40.8242,1367.00,63.00,30.90,29.77,0.00,0.00,0.00,30.15,1014.60,6.00,M,CLR,M,M,M,M,M,M,M,HZ,M,M,M,M,M,M,63.00,KEKO 160656Z AUTO 00000KT 6SM HZ CLR 17/M01 A3015 RMK AO2 SLP146 T01721006 $,M
WMC,2021-08-16 06:56,-117.8072,40.9019,1315.00,73.00,34.00,23.90,190.00,7.00,0.00,30.05,1011.30,7.00,M,CLR,M,M,M,M,M,M,M,M,M,M,M,M,M,M,73.00,KWMC 160656Z AUTO 19007KT 7SM CLR 23/01 A3005 RMK AO2 SLP113 T02280011 $,M
TPH,2021-08-16 06:56,-117.0904,38.0505,1654.00,77.00,30.90,18.46,350.00,5.00,0.00,30.15,1010.70,7.00,M,CLR,M,M,M,M,M,M,M,M,M,M,M,M,M,M,77.00,KTPH 160656Z AUTO 35005KT 7SM CLR 25/M01 A3015 RMK AO2 SLP107 T02501006,M
HND,2021-08-16 06:56,-115.1344,35.9729,742.79,96.00,56.00,26.16,190.00,11.00,T,29.86,1008.80,10.00,M,CLR,M,M,M,M,M,M,M,M,M,M,M,M,M,M,94.55,KHND 160656Z AUTO 19011KT 10SM CLR 36/13 A2986 RMK AO2 WSHFT 0612 RAB11E21 SLP088 P0000 T03560133 404220283,M
LSV,2021-08-16 06:58,-115.0343,36.2362,570.00,93.60,63.30,36.80,310.00,5.00,0.00,29.79,1005.80,10.00,M,BKN,M,M,M,16000.00,M,M,M,M,M,M,M,M,M,M,95.02,KLSV 160658Z AUTO 31005KT 10SM BKN160 34/17 A2979 RMK AO2 SLP058 T03420174 $,M
INS,2021-08-16 06:58,-115.6733,36.5872,955.00,88.30,46.00,23.03,330.00,3.00,0.00,29.90,1006.50,10.00,M,CLR,M,M,M,M,M,M,M,M,M,M,M,M,M,M,85.06,KINS 160658Z AUTO 33003KT 10SM CLR 31/08 A2990 RMK AO2 SLP065 T03130077 $,M
MEV,2021-08-16 07:15,-119.7500,38.9963,1441.42,68.00,37.40,32.43,130.00,4.00,0.00,30.13,M,6.00,M,OVC,M,M,M,3300.00,M,M,M,HZ,M,M,M,M,M,M,68.00,KMEV 160715Z AUTO 13004KT 6SM HZ OVC033 20/03 A3013 RMK AO2,M
BAM,2021-08-16 07:15,-116.8743,40.5990,1382.36,68.00,23.00,18.06,130.00,3.00,0.00,30.09,M,7.00,M,CLR,M,M,M,M,M,M,M,M,M,M,M,M,M,M,68.00,KBAM 160715Z AUTO 13003KT 7SM CLR 20/M05 A3009 RMK AO1,M
BVU,2021-08-16 07:15,-114.8611,35.9475,671.00,93.20,60.80,34.11,100.00,4.00,0.00,29.82,M,10.00,10.00,FEW,FEW,BKN,M,4600.00,7500.00,11000.00,M,M,M,M,M,M,M,M,93.32,KBVU 160715Z AUTO 10004G10KT 10SM FEW046 FEW075 BKN110 34/16 A2982 RMK AO2,M
HTH,2021-08-16 07:15,-118.6315,38.5448,1282.89,80.60,35.60,19.79,220.00,5.00,0.00,30.05,M,8.00,M,FEW,FEW,FEW,M,4400.00,5500.00,7000.00,M,M,M,M,M,M,M,M,78.94,KHTH 160715Z AUTO 22005KT 8SM FEW044 FEW055 FEW070 27/02 A3005 RMK A01,M
RTS,2021-08-16 07:15,-119.8764,39.6682,1539.00,78.80,35.60,21.00,0.00,0.00,0.00,30.16,M,4.00,M,CLR,M,M,M,M,M,M,M,HZ,M,M,M,M,M,M,78.80,KRTS 160715Z AUTO 00000KT 4SM HZ CLR 26/02 A3016 RMK AO2,M
CXP,2021-08-16 07:15,-119.7326,39.1923,1431.00,75.20,39.20,27.26,0.00,0.00,0.00,30.13,M,7.00,M,CLR,M,M,M,M,M,M,M,M,M,M,M,M,M,M,75.20,KCXP 160715Z AUTO 00000KT 7SM CLR 24/04 A3013 RMK AO2,M
TMT,2021-08-16 07:15,-117.1971,39.4643,1749.34,56.50,32.20,39.56,220.00,6.00,0.00,30.21,M,10.00,M,CLR,M,M,M,M,M,M,M,M,M,M,M,M,M,M,56.50,KTMT 160715Z AUTO 22006KT 10SM CLR 14/00 A3021 RMK AO2 T01360001,M
BVU,2021-08-16 07:35,-114.8611,35.9475,671.00,93.20,59.00,31.99,140.00,8.00,0.00,29.82,M,10.00,14.00,CLR,M,M,M,M,M,M,M,M,M,M,M,M,M,M,92.57,KBVU 160735Z AUTO 14008G14KT 10SM CLR 34/15 A2982 RMK AO2,M
BAM,2021-08-16 07:35,-116.8743,40.5990,1382.36,66.20,24.80,20.72,80.00,6.00,0.00,30.09,M,10.00,M,CLR,M,M,M,M,M,M,M,M,M,M,M,M,M,M,66.20,KBAM 160735Z AUTO 08006KT 10SM CLR 19/M04 A3009 RMK AO1,M
TMT,2021-08-16 07:35,-117.1971,39.4643,1749.34,55.20,32.40,41.80,230.00,6.00,0.00,30.21,M,7.00,M,CLR,M,M,M,M,M,M,M,M,M,M,M,M,M,M,55.20,KTMT 160735Z AUTO 23006KT 7SM CLR 13/00 A3021 RMK AO2 T01290002,M
MEV,2021-08-16 07:35,-119.7500,38.9963,1441.42,66.20,39.20,37.03,0.00,0.00,0.00,30.13,M,6.00,M,OVC,M,M,M,3200.00,M,M,M,HZ,M,M,M,M,M,M,66.20,KMEV 160735Z AUTO 00000KT 6SM HZ OVC032 19/04 A3013 RMK AO2,M
RTS,2021-08-16 07:35,-119.8764,39.6682,1539.00,77.00,35.60,22.28,0.00,0.00,0.00,30.16,M,4.00,M,CLR,M,M,M,M,M,M,M,HZ,M,M,M,M,M,M,77.00,KRTS 160735Z AUTO 00000KT 4SM HZ CLR 25/02 A3016 RMK AO2,M
CXP,2021-08-16 07:35,-119.7326,39.1923,1431.00,75.20,37.40,25.40,0.00,0.00,0.00,30.13,M,7.00,M,CLR,M,M,M,M,M,M,M,M,M,M,M,M,M,M,75.20,KCXP 160735Z AUTO 00000KT 7SM CLR 24/03 A3013 RMK AO2,M
HTH,2021-08-16 07:35,-118.6315,38.5448,1282.89,80.60,33.80,18.42,220.00,4.00,0.00,30.05,M,7.00,M,FEW,FEW,FEW,M,4400.00,5000.00,5500.00,M,M,M,M,M,M,M,M,78.88,KHTH 160735Z AUTO 22004KT 7SM FEW044 FEW050 FEW055 27/01 A3005 RMK A01,M
P68,2021-08-16 07:53,-116.0056,39.6014,1993.00,60.00,28.90,30.41,170.00,4.00,0.00,30.21,1013.60,M,M,M,M,M,M,M,M,M,M,M,M,M,M,M,M,M,60.10,KP68 160753Z AUTO 17004KT 16/M02 A3021 RMK AO1 SLP136 T01561017 403440133,M
LOL,2021-08-16 07:53,-118.5701,40.0684,1192.43,69.00,40.00,34.43,130.00,5.00,0.00,30.01,1011.30,5.00,M,CLR,M,M,M,M,M,M,M,HZ,M,M,M,M,M,M,69.10,KLOL 160753Z AUTO 13005KT 5SM HZ CLR 21/04 A3001 RMK AO2 SLP113 T02060044 403940167 $,M
ELY,2021-08-16 07:53,-114.8453,39.2950,1909.00,54.00,28.90,37.89,180.00,11.00,0.00,30.24,1013.10,7.00,M,CLR,M,M,M,M,M,M,M,M,M,M,M,M,M,M,54.00,KELY 160753Z AUTO 18011KT 7SM CLR 12/M02 A3024 RMK AO2 SLP131 T01221017 403330117,M
VGT,2021-08-16 07:53,-115.1933,36.2111,667.00,96.00,60.00,30.43,30.00,5.00,0.00,29.80,1007.30,10.00,M,CLR,M,M,M,M,M,M,M,M,M,M,M,M,M,M,96.21,KVGT 160753Z AUTO 03005KT 10SM CLR 36/16 A2980 RMK AO2 SLP073 T03560156 404220300,M
RNO,2021-08-16 07:53,-119.7711,39.4839,1341.00,75.20,42.80,31.34,0.00,0.00,0.00,30.09,M,3.00,M,BKN,M,M,M,2500.00,M,M,M,FU,M,M,M,M,M,M,75.20,KRNO 160753Z 00000KT 3SM FU BKN025 24/06 A3009 RMK AO2 SFC VIS 6 FU BKN025,M
MEV,2021-08-16 07:55,-119.7500,38.9963,1441.42,64.40,39.20,39.43,110.00,4.00,0.00,30.12,M,6.00,M,OVC,M,M,M,3100.00,M,M,M,HZ,M,M,M,M,M,M,64.40,KMEV 160755Z AUTO 11004KT 6SM HZ OVC031 18/04 A3012 RMK AO2,M
RTS,2021-08-16 07:55,-119.8764,39.6682,1539.00,73.40,35.60,25.13,0.00,0.00,0.00,30.15,M,4.00,M,CLR,M,M,M,M,M,M,M,HZ,M,M,M,M,M,M,73.40,KRTS 160755Z AUTO 00000KT 4SM HZ CLR 23/02 A3015 RMK AO2,M
RNO,2021-08-16 07:55,-119.7711,39.4839,1341.00,75.00,43.00,31.79,0.00,0.00,0.00,30.09,1012.10,3.00,M,BKN,M,M,M,2500.00,M,M,M,FU,M,M,M,M,M,M,75.00,KRNO 160755Z 00000KT 3SM FU BKN025 24/06 A3009 RMK AO2 SLP121 FU BKN025 T02390061 403780194,M
CXP,2021-08-16 07:55,-119.7326,39.1923,1431.00,75.20,37.40,25.40,0.00,0.00,0.00,30.13,M,7.00,M,FEW,M,M,M,2500.00,M,M,M,M,M,M,M,M,M,M,75.20,KCXP 160755Z AUTO 00000KT 7SM FEW025 24/03 A3013 RMK AO2,M
HTH,2021-08-16 07:55,-118.6315,38.5448,1282.89,80.60,35.60,19.79,200.00,5.00,0.00,30.05,M,7.00,M,FEW,M,M,M,5500.00,M,M,M,M,M,M,M,M,M,M,78.94,KHTH 160755Z AUTO 20005KT 7SM FEW055 27/02 A3005 RMK A01,M
BVU,2021-08-16 07:55,-114.8611,35.9475,671.00,93.20,59.00,31.99,170.00,7.00,0.00,29.83,M,10.00,13.00,CLR,M,M,M,M,M,M,M,M,M,M,M,M,M,M,92.57,KBVU 160755Z AUTO 17007G13KT 10SM CLR 34/15 A2983 RMK AO2,M
TMT,2021-08-16 07:55,-117.1971,39.4643,1749.34,54.50,32.00,42.20,230.00,4.00,0.00,30.21,M,10.00,M,CLR,M,M,M,M,M,M,M,M,M,M,M,M,M,M,54.50,KTMT 160755Z AUTO 23004KT 10SM CLR 13/00 A3021 RMK AO2 T01250000 403510064,M
BAM,2021-08-16 07:55,-116.8743,40.5990,1382.36,66.20,24.80,20.72,80.00,6.00,0.00,30.08,M,10.00,M,CLR,M,M,M,M,M,M,M,M,M,M,M,M,M,M,66.20,KBAM 160755Z AUTO 08006KT 10SM CLR 19/M04 A3008 RMK AO1,M
WMC,2021-08-16 07:56,-117.8072,40.9019,1315.00,71.00,36.00,27.60,120.00,7.00,0.00,30.04,1011.10,7.00,M,CLR,M,M,M,M,M,M,M,M,M,M,M,M,M,M,71.10,KWMC 160756Z AUTO 12007KT 7SM CLR 22/02 A3004 RMK AO2 SLP111 T02170022 403940150 $,M
TPH,2021-08-16 07:56,-117.0904,38.0505,1654.00,75.00,30.90,19.73,360.00,9.00,0.00,30.15,1010.20,7.00,M,CLR,M,M,M,M,M,M,M,M,M,M,M,M,M,M,75.00,KTPH 160756Z AUTO 36009KT 7SM CLR 24/M01 A3015 RMK AO2 SLP102 T02391006 403830206,M
HND,2021-08-16 07:56,-115.1344,35.9729,742.79,94.00,56.00,28.00,190.00,6.00,0.00,29.86,1008.80,10.00,M,CLR,M,M,M,M,M,M,M,M,M,M,M,M,M,M,92.22,KHND 160756Z AUTO 19006KT 10SM CLR 34/13 A2986 RMK AO2 SLP088 T03440133,M
LAS,2021-08-16 07:56,-115.1634,36.0719,663.00,96.00,59.00,29.25,340.00,3.00,0.00,29.82,1006.30,10.00,M,FEW,BKN,BKN,M,12000.00,17000.00,20000.00,M,M,M,M,M,M,M,M,95.72,KLAS 160756Z 34003KT 10SM FEW120 BKN170 BKN200 36/15 A2982 RMK AO2 SLP063 T03560150 404220300,M
EKO,2021-08-16 07:56,-115.7860,40.8242,1367.00,65.00,30.00,26.85,60.00,3.00,0.00,30.14,1013.70,7.00,M,CLR,M,M,M,M,M,M,M,M,M,M,M,M,M,M,64.90,KEKO 160756Z AUTO 06003KT 7SM CLR 18/M01 A3014 RMK AO2 SLP137 T01831011 403670144 $,M
NFL,2021-08-16 07:56,-118.7010,39.4166,1199.00,72.00,42.00,33.97,180.00,6.00,0.00,30.01,1013.20,6.00,M,SCT,M,M,M,5500.00,M,M,M,HZ,M,M,M,M,M,M,72.00,KNFL 160756Z AUTO 18006KT 6SM HZ SCT055 22/06 A3001 RMK AO2 SLP132 T02220056 403940189,M
INS,2021-08-16 07:58,-115.6733,36.5872,955.00,86.70,45.50,23.87,250.00,4.00,0.00,29.89,1006.20,10.00,M,CLR,M,M,M,M,M,M,M,M,M,M,M,M,M,M,83.70,KINS 160758Z AUTO 25004KT 10SM CLR 30/08 A2989 RMK AO2 SLP062 T03040075 404070251 $,M
LSV,2021-08-16 07:58,-115.0343,36.2362,570.00,90.70,64.40,41.87,70.00,7.00,0.00,29.79,1005.80,10.00,M,FEW,M,M,M,15000.00,M,M,M,M,M,M,M,M,M,M,92.42,KLSV 160758Z AUTO 07007KT 10SM FEW150 33/18 A2979 RMK AO2 SLP058 T03260180 404160288 $,M
RNO,2021-08-16 08:04,-119.7711,39.4839,1341.00,74.00,44.00,34.40,0.00,0.00,0.00,30.09,M,2.50,M,BKN,M,M,M,2500.00,M,M,M,FU,M,M,M,M,M,M,73.90,KRNO 160804Z 00000KT 2 1/2SM FU BKN025 23/07 A3009 RMK AO2 FU BKN025 T02330067 $,M
CXP,2021-08-16 08:10,-119.7326,39.1923,1431.00,73.40,37.40,26.98,360.00,4.00,0.00,30.13,M,7.00,M,FEW,M,M,M,2400.00,M,M,M,M,M,M,M,M,M,M,73.40,KCXP 160810Z AUTO 36004KT 7SM FEW024 23/03 A3013 RMK AO2,M
BAM,2021-08-16 08:15,-116.8743,40.5990,1382.36,73.40,26.60,17.46,80.00,8.00,0.00,30.08,M,7.00,M,CLR,M,M,M,M,M,M,M,M,M,M,M,M,M,M,73.40,KBAM 160815Z AUTO 08008KT 7SM CLR 23/M03 A3008 RMK AO1,M
HTH,2021-08-16 08:15,-118.6315,38.5448,1282.89,78.80,33.80,19.55,230.00,4.00,0.00,30.05,M,7.00,M,FEW,FEW,M,M,4800.00,6000.00,M,M,M,M,M,M,M,M,M,78.80,KHTH 160815Z AUTO 23004KT 7SM FEW048 FEW060 26/01 A3005 RMK A01,M
TMT,2021-08-16 08:15,-117.1971,39.4643,1749.34,52.20,31.50,44.99,0.00,0.00,0.00,30.20,M,10.00,M,CLR,M,M,M,M,M,M,M,M,M,M,M,M,M,M,52.20,KTMT 160815Z AUTO 00000KT 10SM CLR 11/00 A3020 RMK AO2 T01121003,M
MEV,2021-08-16 08:15,-119.7500,38.9963,1441.42,64.40,37.40,36.74,110.00,5.00,0.00,30.12,M,6.00,M,OVC,M,M,M,3000.00,M,M,M,HZ,M,M,M,M,M,M,64.40,KMEV 160815Z AUTO 11005KT 6SM HZ OVC030 18/03 A3012 RMK AO2,M
BVU,2021-08-16 08:15,-114.8611,35.9475,671.00,93.20,59.00,31.99,150.00,6.00,0.00,29.84,M,10.00,M,CLR,M,M,M,M,M,M,M,M,M,M,M,M,M,M,92.57,KBVU 160815Z AUTO 15006KT 10SM CLR 34/15 A2984 RMK AO2,M
RTS,2021-08-16 08:15,-119.8764,39.6682,1539.00,73.40,35.60,25.13,310.00,4.00,0.00,30.15,M,4.00,M,CLR,M,M,M,M,M,M,M,HZ,M,M,M,M,M,M,73.40,KRTS 160815Z AUTO 31004KT 4SM HZ CLR 23/02 A3015 RMK AO2,M
HTH,2021-08-16 08:35,-118.6315,38.5448,1282.89,78.80,33.80,19.55,230.00,4.00,0.00,30.04,M,8.00,M,CLR,M,M,M,M,M,M,M,M,M,M,M,M,M,M,78.80,KHTH 160835Z AUTO 23004KT 8SM CLR 26/01 A3004 RMK A01,M
TMT,2021-08-16 08:35,-117.1971,39.4643,1749.34,51.40,30.70,44.86,0.00,0.00,0.00,30.20,M,10.00,M,CLR,M,M,M,M,M,M,M,M,M,M,M,M,M,M,51.40,KTMT 160835Z AUTO 00000KT 10SM CLR 11/M01 A3020 RMK AO2 T01081007,M
BVU,2021-08-16 08:35,-114.8611,35.9475,671.00,91.40,59.00,33.84,120.00,9.00,0.00,29.84,M,10.00,14.00,CLR,M,M,M,M,M,M,M,M,M,M,M,M,M,M,90.68,KBVU 160835Z AUTO 12009G14KT 10SM CLR 33/15 A2984 RMK AO2,M
CXP,2021-08-16 08:35,-119.7326,39.1923,1431.00,71.60,37.40,28.68,0.00,0.00,0.00,30.13,M,7.00,M,FEW,FEW,M,M,2300.00,5000.00,M,M,M,M,M,M,M,M,M,71.60,KCXP 160835Z AUTO 00000KT 7SM FEW023 FEW050 22/03 A3013 RMK AO2,M
RTS,2021-08-16 08:35,-119.8764,39.6682,1539.00,71.60,35.60,26.71,320.00,4.00,0.00,30.14,M,4.00,M,FEW,M,M,M,300.00,M,M,M,HZ,M,M,M,M,M,M,71.60,KRTS 160835Z AUTO 32004KT 4SM HZ FEW003 22/02 A3014 RMK AO2,M
MEV,2021-08-16 08:35,-119.7500,38.9963,1441.42,64.40,39.20,39.43,90.00,5.00,0.00,30.12,M,6.00,M,OVC,M,M,M,3000.00,M,M,M,HZ,M,M,M,M,M,M,64.40,KMEV 160835Z AUTO 09005KT 6SM HZ OVC030 18/04 A3012 RMK AO2,M
BAM,2021-08-16 08:35,-116.8743,40.5990,1382.36,71.60,28.40,19.98,110.00,6.00,0.00,30.08,M,7.00,M,CLR,M,M,M,M,M,M,M,M,M,M,M,M,M,M,71.60,KBAM 160835Z AUTO 11006KT 7SM CLR 22/M02 A3008 RMK AO1,M
P68,2021-08-16 08:53,-116.0056,39.6014,1993.00,58.00,30.00,34.41,190.00,6.00,0.00,30.20,1013.40,M,M,M,M,M,M,M,M,M,M,M,M,M,M,M,M,M,57.90,KP68 160853Z AUTO 19006KT 14/M01 A3020 RMK AO1 SLP134 T01441011 58008,M
ELY,2021-08-16 08:53,-114.8453,39.2950,1909.00,52.00,27.00,37.72,180.00,11.00,0.00,30.23,1012.90,7.00,M,CLR,M,M,M,M,M,M,M,M,M,M,M,M,M,M,52.00,KELY 160853Z AUTO 18011KT 7SM CLR 11/M03 A3023 RMK AO2 SLP129 T01111028 58003,M
VGT,2021-08-16 08:53,-115.1933,36.2111,667.00,94.00,62.00,34.95,90.00,9.00,0.00,29.81,1007.70,10.00,M,CLR,M,M,M,M,M,M,M,M,M,M,M,M,M,M,94.72,KVGT 160853Z AUTO 09009KT 10SM CLR 34/17 A2981 RMK AO2 SLP077 T03440167 55002,M
LOL,2021-08-16 08:53,-118.5701,40.0684,1192.43,67.00,41.00,38.76,360.00,4.00,0.00,30.00,1010.80,5.00,M,CLR,M,M,M,M,M,M,M,HZ,M,M,M,M,M,M,66.90,KLOL 160853Z AUTO 36004KT 5SM HZ CLR 19/05 A3000 RMK AO2 SLP108 T01940050 58004 $,M
HTH,2021-08-16 08:55,-118.6315,38.5448,1282.89,77.00,33.80,20.74,0.00,0.00,0.00,30.04,M,7.00,M,CLR,M,M,M,M,M,M,M,M,M,M,M,M,M,M,77.00,KHTH 160855Z AUTO 00000KT 7SM CLR 25/01 A3004 RMK A01,M
CXP,2021-08-16 08:55,-119.7326,39.1923,1431.00,73.40,37.40,26.98,0.00,0.00,0.00,30.12,M,6.00,M,CLR,M,M,M,M,M,M,M,HZ,M,M,M,M,M,M,73.40,KCXP 160855Z AUTO 00000KT 6SM HZ CLR 23/03 A3012 RMK AO2,M
BVU,2021-08-16 08:55,-114.8611,35.9475,671.00,91.40,60.80,36.08,120.00,7.00,0.00,29.84,M,10.00,M,CLR,M,M,M,M,M,M,M,M,M,M,M,M,M,M,91.40,KBVU 160855Z AUTO 12007KT 10SM CLR 33/16 A2984 RMK AO2,M
TMT,2021-08-16 08:55,-117.1971,39.4643,1749.34,54.50,32.00,42.20,240.00,4.00,0.00,30.19,M,10.00,M,CLR,M,M,M,M,M,M,M,M,M,M,M,M,M,M,54.50,KTMT 160855Z AUTO 24004KT 10SM CLR 13/00 A3019 RMK AO2 T01250000,M
RNO,2021-08-16 08:55,-119.7711,39.4839,1341.00,73.00,45.00,36.70,180.00,3.00,0.00,30.08,1011.80,2.50,M,BKN,M,M,M,2700.00,M,M,M,FU,M,M,M,M,M,M,73.00,KRNO 160855Z 18003KT 2 1/2SM FU BKN027 23/07 A3008 RMK AO2 SLP118 FU BKN025 T02280072 58004 $,M
RTS,2021-08-16 08:55,-119.8764,39.6682,1539.00,71.60,35.60,26.71,350.00,6.00,0.00,30.14,M,4.00,M,FEW,M,M,M,300.00,M,M,M,HZ,M,M,M,M,M,M,71.60,KRTS 160855Z AUTO 35006KT 4SM HZ FEW003 22/02 A3014 RMK AO2,M
MEV,2021-08-16 08:55,-119.7500,38.9963,1441.42,62.60,41.00,45.04,110.00,3.00,0.00,30.12,M,6.00,M,OVC,M,M,M,2600.00,M,M,M,HZ,M,M,M,M,M,M,62.60,KMEV 160855Z AUTO 11003KT 6SM HZ OVC026 17/05 A3012 RMK AO2,M
BAM,2021-08-16 08:55,-116.8743,40.5990,1382.36,69.80,28.40,21.24,90.00,6.00,0.00,30.08,M,7.00,M,CLR,M,M,M,M,M,M,M,M,M,M,M,M,M,M,69.80,KBAM 160855Z AUTO 09006KT 7SM CLR 21/M02 A3008 RMK AO1,M
HND,2021-08-16 08:56,-115.1344,35.9729,742.79,91.00,57.00,31.89,170.00,4.00,0.00,29.86,1008.90,10.00,M,CLR,M,M,M,M,M,M,M,M,M,M,M,M,M,M,89.59,KHND 160856Z AUTO 17004KT 10SM CLR 33/14 A2986 RMK AO2 SLP089 60000 T03280139 56007,M
TPH,2021-08-16 08:56,-117.0904,38.0505,1654.00,75.00,32.00,20.63,360.00,12.00,0.00,30.14,1010.30,7.00,M,CLR,M,M,M,M,M,M,M,M,M,M,M,M,M,M,75.00,KTPH 160856Z AUTO 36012KT 7SM CLR 24/00 A3014 RMK AO2 SLP103 T02390000 58004,M
EKO,2021-08-16 08:56,-115.7860,40.8242,1367.00,62.00,30.00,29.63,0.00,0.00,0.00,30.13,1013.80,7.00,M,CLR,M,M,M,M,M,M,M,M,M,M,M,M,M,M,62.10,KEKO 160856Z AUTO 00000KT 7SM CLR 17/M01 A3013 RMK AO2 SLP138 T01671011 58006 $,M
WMC,2021-08-16 08:56,-117.8072,40.9019,1315.00,64.00,35.00,34.02,180.00,6.00,0.00,30.03,1011.20,7.00,M,CLR,M,M,M,M,M,M,M,M,M,M,M,M,M,M,64.00,KWMC 160856Z AUTO 18006KT 7SM CLR 18/02 A3003 RMK AO2 SLP112 T01780017 58005 $,M
LAS,2021-08-16 08:56,-115.1634,36.0719,663.00,94.00,60.00,32.56,100.00,7.00,0.00,29.83,1006.50,10.00,M,FEW,OVC,M,M,12000.00,16000.00,M,M,M,M,M,M,M,M,M,93.77,KLAS 160856Z 10007KT 10SM FEW120 OVC160 34/16 A2983 RMK AO2 SLP065 T03440156 52001,M
NFL,2021-08-16 08:56,-118.7010,39.4166,1199.00,70.00,44.00,39.26,170.00,6.00,0.00,30.00,1013.10,5.00,M,SCT,M,M,M,5000.00,M,M,M,HZ,M,M,M,M,M,M,70.00,KNFL 160856Z AUTO 17006KT 5SM HZ SCT050 21/07 A3000 RMK AO2 SLP131 T02110067 58004,M
LSV,2021-08-16 08:58,-115.0343,36.2362,570.00,90.00,65.00,43.86,70.00,6.00,0.00,29.80,1006.20,10.00,M,FEW,M,M,M,15000.00,M,M,M,M,M,M,M,M,M,M,92.05,KLSV 160858Z AUTO 07006KT 10SM FEW150 32/18 A2980 RMK AO2 SLP062 T03220184 52008 $,M
INS,2021-08-16 08:58,-115.6733,36.5872,955.00,86.70,52.30,30.78,140.00,4.00,0.00,29.90,1006.50,10.00,M,CLR,M,M,M,M,M,M,M,M,M,M,M,M,M,M,84.53,KINS 160858Z AUTO 14004KT 10SM CLR 30/11 A2990 RMK AO2 SLP065 T03040113 55000 $,M
RTS,2021-08-16 09:15,-119.8764,39.6682,1539.00,71.60,35.60,26.71,350.00,6.00,0.00,30.14,M,3.00,M,FEW,M,M,M,300.00,M,M,M,HZ,M,M,M,M,M,M,71.60,KRTS 160915Z AUTO 35006KT 3SM HZ FEW003 22/02 A3014 RMK AO2,M
BVU,2021-08-16 09:15,-114.8611,35.9475,671.00,91.40,60.80,36.08,130.00,6.00,0.00,29.84,M,10.00,M,CLR,M,M,M,M,M,M,M,M,M,M,M,M,M,M,91.40,KBVU 160915Z AUTO 13006KT 10SM CLR 33/16 A2984 RMK AO2,M
CXP,2021-08-16 09:15,-119.7326,39.1923,1431.00,73.40,37.40,26.98,310.00,4.00,0.00,30.12,M,6.00,M,CLR,M,M,M,M,M,M,M,HZ,M,M,M,M,M,M,73.40,KCXP 160915Z AUTO 31004KT 6SM HZ CLR 23/03 A3012 RMK AO2,M
MEV,2021-08-16 09:15,-119.7500,38.9963,1441.42,62.60,41.00,45.04,0.00,0.00,0.00,30.11,M,6.00,M,BKN,OVC,M,M,2300.00,2800.00,M,M,HZ,M,M,M,M,M,M,62.60,KMEV 160915Z AUTO 00000KT 6SM HZ BKN023 OVC028 17/05 A3011 RMK AO2,M
BAM,2021-08-16 09:15,-116.8743,40.5990,1382.36,69.80,28.40,21.24,170.00,4.00,0.00,30.08,M,7.00,M,CLR,M,M,M,M,M,M,M,M,M,M,M,M,M,M,69.80,KBAM 160915Z AUTO 17004KT 7SM CLR 21/M02 A3008 RMK AO1,M
HTH,2021-08-16 09:15,-118.6315,38.5448,1282.89,77.00,33.80,20.74,0.00,0.00,0.00,30.05,M,7.00,M,FEW,M,M,M,5500.00,M,M,M,M,M,M,M,M,M,M,77.00,KHTH 160915Z AUTO 00000KT 7SM FEW055 25/01 A3005 RMK A01,M
TMT,2021-08-16 09:15,-117.1971,39.4643,1749.34,51.40,30.60,44.68,0.00,0.00,0.00,30.19,M,10.00,M,CLR,M,M,M,M,M,M,M,M,M,M,M,M,M,M,51.40,KTMT 160915Z AUTO 00000KT 10SM CLR 11/M01 A3019 RMK AO2 T01081008,M
CXP,2021-08-16 09:35,-119.7326,39.1923,1431.00,73.40,37.40,26.98,0.00,0.00,0.00,30.12,M,6.00,M,CLR,M,M,M,M,M,M,M,HZ,M,M,M,M,M,M,73.40,KCXP 160935Z AUTO 00000KT 6SM HZ CLR 23/03 A3012 RMK AO2,M
RTS,2021-08-16 09:35,-119.8764,39.6682,1539.00,73.40,35.60,25.13,330.00,6.00,0.00,30.14,M,3.00,M,CLR,M,M,M,M,M,M,M,HZ,M,M,M,M,M,M,73.40,KRTS 160935Z AUTO 33006KT 3SM HZ CLR 23/02 A3014 RMK AO2,M
BAM,2021-08-16 09:35,-116.8743,40.5990,1382.36,62.60,28.40,27.27,0.00,0.00,0.00,30.08,M,7.00,M,CLR,M,M,M,M,M,M,M,M,M,M,M,M,M,M,62.60,KBAM 160935Z AUTO 00000KT 7SM CLR 17/M02 A3008 RMK AO1,M
MEV,2021-08-16 09:35,-119.7500,38.9963,1441.42,62.60,42.80,48.28,0.00,0.00,0.00,30.11,M,6.00,M,OVC,M,M,M,2600.00,M,M,M,HZ,M,M,M,M,M,M,62.60,KMEV 160935Z AUTO 00000KT 6SM HZ OVC026 17/06 A3011 RMK AO2,M
BVU,2021-08-16 09:35,-114.8611,35.9475,671.00,89.60,60.80,38.18,260.00,3.00,0.00,29.84,M,10.00,M,CLR,M,M,M,M,M,M,M,M,M,M,M,M,M,M,89.54,KBVU 160935Z AUTO 26003KT 10SM CLR 32/16 A2984 RMK AO2,M
TMT,2021-08-16 09:35,-117.1971,39.4643,1749.34,47.70,27.90,45.94,0.00,0.00,0.00,30.19,M,10.00,M,CLR,M,M,M,M,M,M,M,M,M,M,M,M,M,M,47.70,KTMT 160935Z AUTO 00000KT 10SM CLR 09/M02 A3019 RMK AO2 T00871023,M
HTH,2021-08-16 09:35,-118.6315,38.5448,1282.89,75.20,35.60,23.66,310.00,6.00,0.00,30.05,M,7.00,M,FEW,FEW,M,M,5500.00,6500.00,M,M,M,M,M,M,M,M,M,75.20,KHTH 160935Z AUTO 31006KT 7SM FEW055 FEW065 24/02 A3005 RMK A01,M
ELY,2021-08-16 09:53,-114.8453,39.2950,1909.00,51.00,27.00,38.99,170.00,12.00,0.00,30.22,1012.80,7.00,M,CLR,M,M,M,M,M,M,M,M,M,M,M,M,M,M,51.10,KELY 160953Z AUTO 17012KT 7SM CLR 11/M03 A3022 RMK AO2 SLP128 T01061028,M
LOL,2021-08-16 09:53,-118.5701,40.0684,1192.43,68.00,39.00,34.53,310.00,6.00,0.00,29.99,1010.20,5.00,M,CLR,M,M,M,M,M,M,M,HZ,M,M,M,M,M,M,68.00,KLOL 160953Z AUTO 31006KT 5SM HZ CLR 20/04 A2999 RMK AO2 SLP102 T02000039 $,M
VGT,2021-08-16 09:53,-115.1933,36.2111,667.00,93.00,61.00,34.57,90.00,4.00,0.00,29.82,1007.90,10.00,M,CLR,M,M,M,M,M,M,M,M,M,M,M,M,M,M,93.20,KVGT 160953Z AUTO 09004KT 10SM CLR 34/16 A2982 RMK AO2 SLP079 T03390161,M
P68,2021-08-16 09:53,-116.0056,39.6014,1993.00,56.00,27.00,32.71,180.00,7.00,0.00,30.19,1013.00,M,M,M,M,M,M,M,M,M,M,M,M,M,M,M,M,M,55.90,KP68 160953Z AUTO 18007KT 13/M03 A3019 RMK AO1 SLP130 T01331028,M
BVU,2021-08-16 09:55,-114.8611,35.9475,671.00,89.60,60.80,38.18,0.00,0.00,0.00,29.84,M,10.00,M,CLR,M,M,M,M,M,M,M,M,M,M,M,M,M,M,89.54,KBVU 160955Z AUTO 00000KT 10SM CLR 32/16 A2984 RMK AO2,M
BAM,2021-08-16 09:55,-116.8743,40.5990,1382.36,62.60,28.40,27.27,0.00,0.00,0.00,30.07,M,7.00,M,CLR,M,M,M,M,M,M,M,M,M,M,M,M,M,M,62.60,KBAM 160955Z AUTO 00000KT 7SM CLR 17/M02 A3007 RMK AO1,M
RTS,2021-08-16 09:55,-119.8764,39.6682,1539.00,66.20,33.80,29.92,350.00,7.00,0.00,30.13,M,4.00,M,CLR,M,M,M,M,M,M,M,HZ,M,M,M,M,M,M,66.20,KRTS 160955Z AUTO 35007KT 4SM HZ CLR 19/01 A3013 RMK AO2,M
TMT,2021-08-16 09:55,-117.1971,39.4643,1749.34,48.00,28.20,45.98,0.00,0.00,0.00,30.19,M,10.00,M,CLR,M,M,M,M,M,M,M,M,M,M,M,M,M,M,48.00,KTMT 160955Z AUTO 00000KT 10SM CLR 09/M02 A3019 RMK AO2 T00891021,M
HTH,2021-08-16 09:55,-118.6315,38.5448,1282.89,73.40,33.80,23.39,230.00,7.00,0.00,30.05,M,7.00,M,M,M,M,M,M,M,M,M,M,M,M,M,M,M,M,73.40,KHTH 160955Z AUTO 23007KT 7SM 23/01 A3005 RMK A01,M
MEV,2021-08-16 09:55,-119.7500,38.9963,1441.42,60.80,41.00,48.00,0.00,0.00,0.00,30.11,M,5.00,M,BKN,OVC,M,M,2300.00,2700.00,M,M,HZ,M,M,M,M,M,M,60.80,KMEV 160955Z AUTO 00000KT 5SM HZ BKN023 OVC027 16/05 A3011 RMK AO2,M
CXP,2021-08-16 09:55,-119.7326,39.1923,1431.00,71.60,37.40,28.68,0.00,0.00,0.00,30.11,M,6.00,M,CLR,M,M,M,M,M,M,M,HZ,M,M,M,M,M,M,71.60,KCXP 160955Z AUTO 00000KT 6SM HZ CLR 22/03 A3011 RMK AO2,M
RNO,2021-08-16 09:55,-119.7711,39.4839,1341.00,74.00,45.00,35.60,0.00,0.00,0.00,30.07,1011.30,2.50,M,BKN,M,M,M,3000.00,M,M,M,FU,M,M,M,M,M,M,73.90,KRNO 160955Z 00000KT 2 1/2SM FU BKN030 23/07 A3007 RMK AO2 SLP113 FU BKN030 T02330072 $,M
TPH,2021-08-16 09:56,-117.0904,38.0505,1654.00,73.00,30.90,21.10,20.00,11.00,0.00,30.14,1010.00,7.00,M,CLR,M,M,M,M,M,M,M,M,M,M,M,M,M,M,73.00,KTPH 160956Z AUTO 02011KT 7SM CLR 23/M01 A3014 RMK AO2 SLP100 T02281006,M
EKO,2021-08-16 09:56,-115.7860,40.8242,1367.00,60.00,30.90,32.99,90.00,3.00,0.00,30.13,1013.70,7.00,M,CLR,M,M,M,M,M,M,M,M,M,M,M,M,M,M,60.10,KEKO 160956Z AUTO 09003KT 7SM CLR 16/M01 A3013 RMK AO2 SLP137 T01561006 $,M
LAS,2021-08-16 09:56,-115.1634,36.0719,663.00,93.00,58.00,30.95,0.00,0.00,0.00,29.83,1006.50,10.00,M,FEW,BKN,OVC,M,12000.00,15000.00,20000.00,M,M,M,M,M,M,M,M,91.94,KLAS 160956Z 00000KT 10SM FEW120 BKN150 OVC200 34/14 A2983 RMK AO2 SLP065 T03390144,M
NFL,2021-08-16 09:56,-118.7010,39.4166,1199.00,70.00,38.00,30.88,130.00,3.00,0.00,30.00,1012.90,6.00,M,FEW,M,M,M,5000.00,M,M,M,HZ,M,M,M,M,M,M,70.00,KNFL 160956Z AUTO 13003KT 6SM HZ FEW050 21/03 A3000 RMK AO2 SLP129 T02110033,M
WMC,2021-08-16 09:56,-117.8072,40.9019,1315.00,63.00,35.00,35.24,160.00,7.00,0.00,30.03,1010.90,7.00,M,CLR,M,M,M,M,M,M,M,M,M,M,M,M,M,M,63.00,KWMC 160956Z AUTO 16007KT 7SM CLR 17/02 A3003 RMK AO2 SLP109 T01720017 $,M
HND,2021-08-16 09:56,-115.1344,35.9729,742.79,91.00,59.00,34.27,140.00,6.00,0.00,29.86,1008.70,10.00,M,CLR,M,M,M,M,M,M,M,M,M,M,M,M,M,M,90.27,KHND 160956Z AUTO 14006KT 10SM CLR 33/15 A2986 RMK AO2 SLP087 T03280150,M
LSV,2021-08-16 09:58,-115.0343,36.2362,570.00,93.40,61.50,34.75,150.00,4.00,0.00,29.79,1005.70,10.00,M,CLR,M,M,M,M,M,M,M,M,M,M,M,M,M,M,93.87,KLSV 160958Z AUTO 15004KT 10SM CLR 34/16 A2979 RMK AO2 SLP057 T03410164 $,M
INS,2021-08-16 09:58,-115.6733,36.5872,955.00,83.50,53.00,34.87,0.00,0.00,0.00,29.90,1006.50,10.00,M,CLR,M,M,M,M,M,M,M,M,M,M,M,M,M,M,82.12,KINS 160958Z AUTO 00000KT 10SM CLR 29/12 A2990 RMK AO2 SLP065 T02860116 $,M
RTS,2021-08-16 10:15,-119.8764,39.6682,1539.00,68.00,35.60,30.20,350.00,7.00,0.00,30.13,M,4.00,M,CLR,M,M,M,M,M,M,M,HZ,M,M,M,M,M,M,68.00,KRTS 161015Z AUTO 35007KT 4SM HZ CLR 20/02 A3013 RMK AO2,M
BVU,2021-08-16 10:15,-114.8611,35.9475,671.00,89.60,60.80,38.18,M,4.00,0.00,29.84,M,10.00,M,CLR,M,M,M,M,M,M,M,M,M,M,M,M,M,M,89.54,KBVU 161015Z AUTO VRB04KT 10SM CLR 32/16 A2984 RMK AO2,M
TMT,2021-08-16 10:15,-117.1971,39.4643,1749.34,47.00,29.70,50.96,0.00,0.00,0.00,30.19,M,7.00,M,CLR,M,M,M,M,M,M,M,M,M,M,M,M,M,M,46.90,KTMT 161015Z AUTO 00000KT 7SM CLR 08/M01 A3019 RMK AO2 T00831013,M
HTH,2021-08-16 10:15,-118.6315,38.5448,1282.89,75.20,35.60,23.66,220.00,4.00,0.00,30.05,M,8.00,M,FEW,SCT,M,M,4900.00,6000.00,M,M,M,M,M,M,M,M,M,75.20,KHTH 161015Z AUTO 22004KT 8SM FEW049 SCT060 24/02 A3005 RMK A01,M
BAM,2021-08-16 10:15,-116.8743,40.5990,1382.36,60.80,26.60,26.98,220.00,3.00,0.00,30.07,M,7.00,M,CLR,M,M,M,M,M,M,M,M,M,M,M,M,M,M,60.80,KBAM 161015Z AUTO 22003KT 7SM CLR 16/M03 A3007 RMK AO1,M
MEV,2021-08-16 10:15,-119.7500,38.9963,1441.42,59.00,41.00,51.18,0.00,0.00,0.00,30.10,M,4.00,M,OVC,M,M,M,2400.00,M,M,M,HZ,M,M,M,M,M,M,59.00,KMEV 161015Z AUTO 00000KT 4SM HZ OVC024 15/05 A3010 RMK AO2,M
CXP,2021-08-16 10:15,-119.7326,39.1923,1431.00,71.60,39.20,30.77,0.00,0.00,0.00,30.11,M,6.00,M,CLR,M,M,M,M,M,M,M,HZ,M,M,M,M,M,M,71.60,KCXP 161015Z AUTO 00000KT 6SM HZ CLR 22/04 A3011 RMK AO2,M
MEV,2021-08-16 10:35,-119.7500,38.9963,1441.42,59.00,42.80,54.86,0.00,0.00,0.00,30.10,M,4.00,M,OVC,M,M,M,2600.00,M,M,M,HZ,M,M,M,M,M,M,59.00,KMEV 161035Z AUTO 00000KT 4SM HZ OVC026 15/06 A3010 RMK AO2,M
BAM,2021-08-16 10:35,-116.8743,40.5990,1382.36,57.20,24.80,28.48,130.00,4.00,0.00,30.08,M,7.00,M,CLR,M,M,M,M,M,M,M,M,M,M,M,M,M,M,57.20,KBAM 161035Z AUTO 13004KT 7SM CLR 14/M04 A3008 RMK AO1,M
HTH,2021-08-16 10:35,-118.6315,38.5448,1282.89,75.20,37.40,25.40,170.00,4.00,0.00,30.04,M,7.00,M,FEW,SCT,M,M,5000.00,6000.00,M,M,M,M,M,M,M,M,M,75.20,KHTH 161035Z AUTO 17004KT 7SM FEW050 SCT060 24/03 A3004 RMK A01,M
TMT,2021-08-16 10:35,-117.1971,39.4643,1749.34,47.00,28.20,47.57,0.00,0.00,0.00,30.19,M,10.00,M,CLR,M,M,M,M,M,M,M,M,M,M,M,M,M,M,47.10,KTMT 161035Z AUTO 00000KT 10SM CLR 08/M02 A3019 RMK AO2 T00841021,M
BVU,2021-08-16 10:35,-114.8611,35.9475,671.00,89.60,60.80,38.18,140.00,7.00,0.00,29.85,M,10.00,M,CLR,M,M,M,M,M,M,M,M,M,M,M,M,M,M,89.54,KBVU 161035Z AUTO 14007KT 10SM CLR 32/16 A2985 RMK AO2,M
CXP,2021-08-16 10:35,-119.7326,39.1923,1431.00,68.00,39.20,34.80,0.00,0.00,0.00,30.11,M,6.00,M,CLR,M,M,M,M,M,M,M,HZ,M,M,M,M,M,M,68.00,KCXP 161035Z AUTO 00000KT 6SM HZ CLR 20/04 A3011 RMK AO2,M
RTS,2021-08-16 10:35,-119.8764,39.6682,1539.00,68.00,35.60,30.20,340.00,7.00,0.00,30.12,M,4.00,M,CLR,M,M,M,M,M,M,M,HZ,M,M,M,M,M,M,68.00,KRTS 161035Z AUTO 34007KT 4SM HZ CLR 20/02 A3012 RMK AO2,M
ELY,2021-08-16 10:53,-114.8453,39.2950,1909.00,50.00,27.00,40.62,190.00,10.00,0.00,30.22,1012.70,7.00,M,CLR,M,M,M,M,M,M,M,M,M,M,M,M,M,M,50.00,KELY 161053Z AUTO 19010KT 7SM CLR 10/M03 A3022 RMK AO2 SLP127 T01001028,M
VGT,2021-08-16 10:53,-115.1933,36.2111,667.00,91.00,62.00,38.26,30.00,6.00,0.00,29.82,1008.00,10.00,M,CLR,M,M,M,M,M,M,M,M,M,M,M,M,M,M,91.56,KVGT 161053Z AUTO 03006KT 10SM CLR 33/17 A2982 RMK AO2 SLP080 T03280167,M
LOL,2021-08-16 10:53,-118.5701,40.0684,1192.43,61.00,42.00,49.73,0.00,0.00,0.00,29.99,1010.70,5.00,M,CLR,M,M,M,M,M,M,M,HZ,M,M,M,M,M,M,61.00,KLOL 161053Z AUTO 00000KT 5SM HZ CLR 16/06 A2999 RMK AO2 SLP107 T01610056 $,M
P68,2021-08-16 10:53,-116.0056,39.6014,1993.00,57.00,28.00,32.75,190.00,8.00,0.00,30.18,1012.80,M,M,M,M,M,M,M,M,M,M,M,M,M,M,M,M,M,57.00,KP68 161053Z AUTO 19008KT 14/M02 A3018 RMK AO1 SLP128 T01391022,M
RNO,2021-08-16 10:55,-119.7711,39.4839,1341.00,70.00,45.00,40.63,0.00,0.00,0.00,30.07,1011.20,2.50,M,OVC,M,M,M,3500.00,M,M,M,FU,M,M,M,M,M,M,70.00,KRNO 161055Z 00000KT 2 1/2SM FU OVC035 21/07 A3007 RMK AO2 SLP112 FU OVC035 T02110072 $,M
HTH,2021-08-16 10:55,-118.6315,38.5448,1282.89,73.40,37.40,26.98,150.00,7.00,0.00,30.04,M,8.00,M,FEW,SCT,M,M,4800.00,6000.00,M,M,M,M,M,M,M,M,M,73.40,KHTH 161055Z AUTO 15007KT 8SM FEW048 SCT060 23/03 A3004 RMK A01,M
BAM,2021-08-16 10:55,-116.8743,40.5990,1382.36,57.20,26.60,30.69,140.00,3.00,0.00,30.07,M,7.00,M,CLR,M,M,M,M,M,M,M,M,M,M,M,M,M,M,57.20,KBAM 161055Z AUTO 14003KT 7SM CLR 14/M03 A3007 RMK AO1,M
TMT,2021-08-16 10:55,-117.1971,39.4643,1749.34,46.00,27.90,48.98,0.00,0.00,0.00,30.19,M,10.00,M,CLR,M,M,M,M,M,M,M,M,M,M,M,M,M,M,46.00,KTMT 161055Z AUTO 00000KT 10SM CLR 08/M02 A3019 RMK AO2 T00781023,M
MEV,2021-08-16 10:55,-119.7500,38.9963,1441.42,57.20,42.80,58.52,0.00,0.00,0.00,30.10,M,4.00,M,SCT,BKN,OVC,M,2100.00,2700.00,3300.00,M,HZ,M,M,M,M,M,M,57.20,KMEV 161055Z AUTO 00000KT 4SM HZ SCT021 BKN027 OVC033 14/06 A3010 RMK AO2,M
CXP,2021-08-16 10:55,-119.7326,39.1923,1431.00,68.00,39.20,34.80,0.00,0.00,0.00,30.11,M,6.00,M,CLR,M,M,M,M,M,M,M,HZ,M,M,M,M,M,M,68.00,KCXP 161055Z AUTO 00000KT 6SM HZ CLR 20/04 A3011 RMK AO2,M
RTS,2021-08-16 10:55,-119.8764,39.6682,1539.00,66.20,35.60,32.14,340.00,6.00,0.00,30.12,M,4.00,M,CLR,M,M,M,M,M,M,M,HZ,M,M,M,M,M,M,66.20,KRTS 161055Z AUTO 34006KT 4SM HZ CLR 19/02 A3012 RMK AO2,M
BVU,2021-08-16 10:55,-114.8611,35.9475,671.00,89.60,60.80,38.18,150.00,7.00,0.00,29.85,M,10.00,M,CLR,M,M,M,M,M,M,M,M,M,M,M,M,M,M,89.54,KBVU 161055Z AUTO 15007KT 10SM CLR 32/16 A2985 RMK AO2,M
EKO,2021-08-16 10:56,-115.7860,40.8242,1367.00,55.00,32.00,41.44,0.00,0.00,0.00,30.12,1014.00,6.00,M,CLR,M,M,M,M,M,M,M,HZ,M,M,M,M,M,M,55.00,KEKO 161056Z AUTO 00000KT 6SM HZ CLR 13/00 A3012 RMK AO2 SLP140 T01280000 $,M
WMC,2021-08-16 10:56,-117.8072,40.9019,1315.00,60.00,37.00,42.09,120.00,5.00,0.00,30.02,1010.80,7.00,M,CLR,M,M,M,M,M,M,M,M,M,M,M,M,M,M,60.10,KWMC 161056Z AUTO 12005KT 7SM CLR 16/03 A3002 RMK AO2 SLP108 T01560028 $,M
TPH,2021-08-16 10:56,-117.0904,38.0505,1654.00,72.00,30.90,21.82,360.00,12.00,0.00,30.14,1010.10,7.00,M,CLR,M,M,M,M,M,M,M,M,M,M,M,M,M,M,72.00,KTPH 161056Z AUTO 36012KT 7SM CLR 22/M01 A3014 RMK AO2 SLP101 T02221006,M
NFL,2021-08-16 10:56,-118.7010,39.4166,1199.00,70.00,36.00,28.65,160.00,7.00,0.00,29.99,1012.70,5.00,M,FEW,M,M,M,5000.00,M,M,M,HZ,M,M,M,M,M,M,70.00,KNFL 161056Z AUTO 16007KT 5SM HZ FEW050 21/02 A2999 RMK AO2 SLP127 T02110022,M
HND,2021-08-16 10:56,-115.1344,35.9729,742.79,90.00,59.00,35.36,210.00,10.00,0.00,29.87,1009.00,10.00,M,CLR,M,M,M,M,M,M,M,M,M,M,M,M,M,M,89.26,KHND 161056Z AUTO 21010KT 10SM CLR 32/15 A2987 RMK AO2 SLP090 T03220150,M
LAS,2021-08-16 10:56,-115.1634,36.0719,663.00,91.00,60.00,35.64,50.00,3.00,0.00,29.83,1006.80,10.00,M,FEW,FEW,SCT,M,12000.00,15000.00,20000.00,M,M,M,M,M,M,M,M,90.69,KLAS 161056Z 05003KT 10SM FEW120 FEW150 SCT200 33/16 A2983 RMK AO2 SLP068 T03280156,M
LSV,2021-08-16 10:58,-115.0343,36.2362,570.00,87.40,64.00,45.82,0.00,0.00,0.00,29.80,1006.10,10.00,M,CLR,M,M,M,M,M,M,M,M,M,M,M,M,M,M,88.72,KLSV 161058Z AUTO 00000KT 10SM CLR 31/18 A2980 RMK AO2 SLP061 T03080178 $,M
INS,2021-08-16 10:58,-115.6733,36.5872,955.00,81.30,47.80,30.98,0.00,0.00,0.00,29.90,1006.50,10.00,M,CLR,M,M,M,M,M,M,M,M,M,M,M,M,M,M,80.08,KINS 161058Z AUTO 00000KT 10SM CLR 27/09 A2990 RMK AO2 SLP065 T02740088 $,M
MEV,2021-08-16 11:15,-119.7500,38.9963,1441.42,57.20,41.00,54.60,0.00,0.00,0.00,30.10,M,4.00,M,BKN,BKN,OVC,M,2200.00,2900.00,4700.00,M,HZ,M,M,M,M,M,M,57.20,KMEV 161115Z AUTO 00000KT 4SM HZ BKN022 BKN029 OVC047 14/05 A3010 RMK AO2,M
RTS,2021-08-16 11:15,-119.8764,39.6682,1539.00,64.40,35.60,34.22,340.00,7.00,0.00,30.12,M,5.00,M,CLR,M,M,M,M,M,M,M,HZ,M,M,M,M,M,M,64.40,KRTS 161115Z AUTO 34007KT 5SM HZ CLR 18/02 A3012 RMK AO2,M
CXP,2021-08-16 11:15,-119.7326,39.1923,1431.00,66.20,41.00,39.72,0.00,0.00,0.00,30.11,M,6.00,M,CLR,M,M,M,M,M,M,M,HZ,M,M,M,M,M,M,66.20,KCXP 161115Z AUTO 00000KT 6SM HZ CLR 19/05 A3011 RMK AO2,M
BAM,2021-08-16 11:15,-116.8743,40.5990,1382.36,59.00,26.60,28.77,150.00,4.00,0.00,30.07,M,7.00,M,CLR,M,M,M,M,M,M,M,M,M,M,M,M,M,M,59.00,KBAM 161115Z AUTO 15004KT 7SM CLR 15/M03 A3007 RMK AO1,M
TMT,2021-08-16 11:15,-117.1971,39.4643,1749.34,50.20,30.20,45.96,0.00,0.00,0.00,30.19,M,10.00,M,CLR,M,M,M,M,M,M,M,M,M,M,M,M,M,M,50.20,KTMT 161115Z AUTO 00000KT 10SM CLR 10/M01 A3019 RMK AO2 T01011010,M
HTH,2021-08-16 11:15,-118.6315,38.5448,1282.89,75.20,35.60,23.66,180.00,6.00,0.00,30.04,M,7.00,M,FEW,FEW,SCT,M,5500.00,6500.00,10000.00,M,M,M,M,M,M,M,M,75.20,KHTH 161115Z AUTO 18006KT 7SM FEW055 FEW065 SCT100 24/02 A3004 RMK A01,M
BVU,2021-08-16 11:15,-114.8611,35.9475,671.00,87.80,62.60,43.07,160.00,12.00,0.00,29.85,M,10.00,M,CLR,M,M,M,M,M,M,M,M,M,M,M,M,M,M,88.48,KBVU 161115Z AUTO 16012KT 10SM CLR 31/17 A2985 RMK AO2,M
HTH,2021-08-16 11:35,-118.6315,38.5448,1282.89,71.60,33.80,24.86,130.00,5.00,0.00,30.04,M,7.00,M,FEW,SCT,SCT,M,4900.00,5500.00,6500.00,M,M,M,M,M,M,M,M,71.60,KHTH 161135Z AUTO 13005KT 7SM FEW049 SCT055 SCT065 22/01 A3004 RMK A01,M
TMT,2021-08-16 11:35,-117.1971,39.4643,1749.34,47.30,29.10,48.98,0.00,0.00,0.00,30.18,M,10.00,M,CLR,M,M,M,M,M,M,M,M,M,M,M,M,M,M,47.30,KTMT 161135Z AUTO 00000KT 10SM CLR 09/M02 A3018 RMK AO2 T00851016,M
RTS,2021-08-16 11:35,-119.8764,39.6682,1539.00,64.40,35.60,34.22,350.00,7.00,0.00,30.12,M,5.00,M,CLR,M,M,M,M,M,M,M,HZ,M,M,M,M,M,M,64.40,KRTS 161135Z AUTO 35007KT 5SM HZ CLR 18/02 A3012 RMK AO2,M
CXP,2021-08-16 11:35,-119.7326,39.1923,1431.00,64.40,39.20,39.43,0.00,0.00,0.00,30.11,M,6.00,M,CLR,M,M,M,M,M,M,M,HZ,M,M,M,M,M,M,64.40,KCXP 161135Z AUTO 00000KT 6SM HZ CLR 18/04 A3011 RMK AO2,M
MEV,2021-08-16 11:35,-119.7500,38.9963,1441.42,57.20,39.20,50.91,0.00,0.00,0.00,30.10,M,4.00,M,BKN,BKN,OVC,M,2100.00,2900.00,4700.00,M,HZ,M,M,M,M,M,M,57.20,KMEV 161135Z AUTO 00000KT 4SM HZ BKN021 BKN029 OVC047 14/04 A3010 RMK AO2,M
BAM,2021-08-16 11:35,-116.8743,40.5990,1382.36,59.00,26.60,28.77,150.00,5.00,0.00,30.07,M,10.00,M,CLR,M,M,M,M,M,M,M,M,M,M,M,M,M,M,59.00,KBAM 161135Z AUTO 15005KT 10SM CLR 15/M03 A3007 RMK AO1,M
BVU,2021-08-16 11:35,-114.8611,35.9475,671.00,87.80,62.60,43.07,160.00,10.00,0.00,29.85,M,10.00,M,CLR,M,M,M,M,M,M,M,M,M,M,M,M,M,M,88.48,KBVU 161135Z AUTO 16010KT 10SM CLR 31/17 A2985 RMK AO2,M
LOL,2021-08-16 11:53,-118.5701,40.0684,1192.43,65.00,40.00,39.82,0.00,0.00,0.00,29.99,1010.50,5.00,M,CLR,M,M,M,M,M,M,M,HZ,M,M,M,M,M,M,64.90,KLOL 161153Z AUTO 00000KT 5SM HZ CLR 18/04 A2999 RMK AO2 SLP105 T01830044 10261 20161 56004 $,M
VGT,2021-08-16 11:53,-115.1933,36.2111,667.00,90.00,63.00,40.75,10.00,3.00,0.00,29.83,1008.20,10.00,M,CLR,M,M,M,M,M,M,M,M,M,M,M,M,M,M,90.93,KVGT 161153Z AUTO 01003KT 10SM CLR 32/17 A2983 RMK AO2 SLP082 T03220172 10372 20322 51004,M
ELY,2021-08-16 11:53,-114.8453,39.2950,1909.00,48.00,27.00,43.77,170.00,9.00,0.00,30.22,1012.90,7.00,M,CLR,M,M,M,M,M,M,M,M,M,M,M,M,M,M,43.41,KELY 161153Z AUTO 17009KT 7SM CLR 09/M03 A3022 RMK AO2 SLP129 T00891028 10156 20089 56003,M
P68,2021-08-16 11:53,-116.0056,39.6014,1993.00,57.00,27.00,31.43,170.00,8.00,0.00,30.18,1012.60,M,M,M,M,M,M,M,M,M,M,M,M,M,M,M,M,M,57.00,KP68 161153Z AUTO 17008KT 14/M03 A3018 RMK AO1 SLP126 T01391028 10167 20128 56006,M
MEV,2021-08-16 11:55,-119.7500,38.9963,1441.42,57.20,42.80,58.52,150.00,4.00,0.00,30.10,M,4.00,M,BKN,BKN,OVC,M,2100.00,3000.00,3600.00,M,HZ,M,M,M,M,M,M,57.20,KMEV 161155Z AUTO 15004KT 4SM HZ BKN021 BKN030 OVC036 14/06 A3010 RMK AO2,M
BVU,2021-08-16 11:55,-114.8611,35.9475,671.00,87.80,62.60,43.07,150.00,11.00,0.00,29.85,M,10.00,M,CLR,M,M,M,M,M,M,M,M,M,M,M,M,M,M,88.48,KBVU 161155Z AUTO 15011KT 10SM CLR 31/17 A2985 RMK AO2,M
RNO,2021-08-16 11:55,-119.7711,39.4839,1341.00,69.00,45.00,41.90,0.00,0.00,0.00,30.06,1011.20,2.50,M,OVC,M,M,M,3500.00,M,M,M,FU,M,M,M,M,M,M,69.10,KRNO 161155Z 00000KT 2 1/2SM FU OVC035 21/07 A3006 RMK AO2 SLP112 FU OVC035 T02060072 10272 20200 56006 $,M
CXP,2021-08-16 11:55,-119.7326,39.1923,1431.00,64.40,41.00,42.28,0.00,0.00,0.00,30.11,M,6.00,M,CLR,M,M,M,M,M,M,M,HZ,M,M,M,M,M,M,64.40,KCXP 161155Z AUTO 00000KT 6SM HZ CLR 18/05 A3011 RMK AO2,M
RTS,2021-08-16 11:55,-119.8764,39.6682,1539.00,64.40,35.60,34.22,350.00,5.00,0.00,30.12,M,5.00,M,CLR,M,M,M,M,M,M,M,HZ,M,M,M,M,M,M,64.40,KRTS 161155Z AUTO 35005KT 5SM HZ CLR 18/02 A3012 RMK AO2,M
BAM,2021-08-16 11:55,-116.8743,40.5990,1382.36,59.00,26.60,28.77,150.00,3.00,0.00,30.06,M,7.00,M,CLR,M,M,M,M,M,M,M,M,M,M,M,M,M,M,59.00,KBAM 161155Z AUTO 15003KT 7SM CLR 15/M03 A3006 RMK AO1,M
TMT,2021-08-16 11:55,-117.1971,39.4643,1749.34,46.80,28.20,48.11,0.00,0.00,0.00,30.18,M,10.00,M,CLR,M,M,M,M,M,M,M,M,M,M,M,M,M,M,46.80,KTMT 161155Z AUTO 00000KT 10SM CLR 08/M02 A3018 RMK AO2 T00821021 10179 20069,M
HTH,2021-08-16 11:55,-118.6315,38.5448,1282.89,71.60,33.80,24.86,0.00,0.00,0.00,30.04,M,7.00,M,FEW,BKN,BKN,M,4500.00,5500.00,6500.00,M,M,M,M,M,M,M,M,71.60,KHTH 161155Z AUTO 00000KT 7SM FEW045 BKN055 BKN065 22/01 A3004 RMK A01,M
EKO,2021-08-16 11:56,-115.7860,40.8242,1367.00,59.00,30.00,33.08,70.00,4.00,0.00,30.12,1013.60,6.00,M,CLR,M,M,M,M,M,M,M,HZ,M,M,M,M,M,M,59.00,KEKO 161156Z AUTO 07004KT 6SM HZ CLR 15/M01 A3012 RMK AO2 SLP136 T01501011 10228 20117 57002 $,M
HND,2021-08-16 11:56,-115.1344,35.9729,742.79,88.00,60.00,39.17,190.00,8.00,0.00,29.87,1009.30,10.00,M,CLR,M,M,M,M,M,M,M,M,M,M,M,M,M,M,87.69,KHND 161156Z AUTO 19008KT 10SM CLR 31/16 A2987 RMK AO2 SLP093 60000 T03110156 10361 20311 53004,M
LAS,2021-08-16 11:56,-115.1634,36.0719,663.00,89.00,61.00,39.06,0.00,0.00,0.00,29.83,1006.80,10.00,M,FEW,FEW,M,M,15000.00,20000.00,M,M,M,M,M,M,M,M,M,89.11,KLAS 161156Z 00000KT 10SM FEW150 FEW200 32/16 A2983 RMK AO2 SLP068 T03170161 10367 20317 53003,M
TPH,2021-08-16 11:56,-117.0904,38.0505,1654.00,71.00,30.00,21.69,10.00,13.00,0.00,30.13,1010.10,7.00,M,CLR,M,M,M,M,M,M,M,M,M,M,M,M,M,M,71.10,KTPH 161156Z AUTO 01013KT 7SM CLR 22/M01 A3013 RMK AO2 SLP101 T02171011 10261 20211 58003,M
WMC,2021-08-16 11:56,-117.8072,40.9019,1315.00,65.00,34.00,31.55,100.00,5.00,0.00,30.02,1010.60,7.00,M,CLR,M,M,M,M,M,M,M,M,M,M,M,M,M,M,64.90,KWMC 161156Z AUTO 10005KT 7SM CLR 18/01 A3002 RMK AO2 SLP106 T01830011 10261 20156 56004 $,M
NFL,2021-08-16 11:56,-118.7010,39.4166,1199.00,69.00,36.00,29.55,160.00,8.00,0.00,29.99,1012.70,5.00,M,FEW,M,M,M,4800.00,M,M,M,HZ,M,M,M,M,M,M,69.10,KNFL 161156Z AUTO 16008KT 5SM HZ FEW048 21/02 A2999 RMK AO2 SLP127 T02060022 10261 20200 56004,M
INS,2021-08-16 11:58,-115.6733,36.5872,955.00,80.80,52.70,37.78,140.00,4.00,0.00,29.91,1006.90,10.00,M,CLR,M,M,M,M,M,M,M,M,M,M,M,M,M,M,80.30,KINS 161158Z AUTO 14004KT 10SM CLR 27/12 A2991 RMK AO2 SLP069 T02710115 10331 20262 51004 $,M
LSV,2021-08-16 11:58,-115.0343,36.2362,570.00,89.40,62.60,40.94,80.00,4.00,0.00,29.81,1006.40,10.00,M,CLR,M,M,M,M,M,M,M,M,M,M,M,M,M,M,90.11,KLSV 161158Z AUTO 08004KT 10SM CLR 32/17 A2981 RMK AO2 SLP064 T03190170 10356 20308 53004 $,M
TMT,2021-08-16 12:15,-117.1971,39.4643,1749.34,43.30,26.80,51.88,180.00,6.00,0.00,30.19,M,10.00,M,CLR,M,M,M,M,M,M,M,M,M,M,M,M,M,M,39.14,KTMT 161215Z AUTO 18006KT 10SM CLR 06/M03 A3019 RMK AO2 T00631029,M
BVU,2021-08-16 12:15,-114.8611,35.9475,671.00,87.80,62.60,43.07,160.00,9.00,0.00,29.85,M,10.00,M,CLR,M,M,M,M,M,M,M,M,M,M,M,M,M,M,88.48,KBVU 161215Z AUTO 16009KT 10SM CLR 31/17 A2985 RMK AO2,M
HTH,2021-08-16 12:15,-118.6315,38.5448,1282.89,71.60,33.80,24.86,0.00,0.00,0.00,30.04,M,7.00,M,SCT,SCT,BKN,M,4100.00,4700.00,5500.00,M,M,M,M,M,M,M,M,71.60,KHTH 161215Z AUTO 00000KT 7SM SCT041 SCT047 BKN055 22/01 A3004 RMK A01,M
BAM,2021-08-16 12:15,-116.8743,40.5990,1382.36,59.00,26.60,28.77,70.00,3.00,0.00,30.07,M,7.00,M,CLR,M,M,M,M,M,M,M,M,M,M,M,M,M,M,59.00,KBAM 161215Z AUTO 07003KT 7SM CLR 15/M03 A3007 RMK AO1,M
MEV,2021-08-16 12:15,-119.7500,38.9963,1441.42,57.20,41.00,54.60,130.00,4.00,0.00,30.10,M,4.00,M,BKN,BKN,OVC,M,2300.00,3000.00,3700.00,M,HZ,M,M,M,M,M,M,57.20,KMEV 161215Z AUTO 13004KT 4SM HZ BKN023 BKN030 OVC037 14/05 A3010 RMK AO2,M
RTS,2021-08-16 12:15,-119.8764,39.6682,1539.00,66.20,37.40,34.51,M,4.00,0.00,30.12,M,5.00,M,CLR,M,M,M,M,M,M,M,HZ,M,M,M,M,M,M,66.20,KRTS 161215Z AUTO VRB04KT 5SM HZ CLR 19/03 A3012 RMK AO2,M
CXP,2021-08-16 12:15,-119.7326,39.1923,1431.00,64.40,41.00,42.28,0.00,0.00,0.00,30.10,M,6.00,M,CLR,M,M,M,M,M,M,M,HZ,M,M,M,M,M,M,64.40,KCXP 161215Z AUTO 00000KT 6SM HZ CLR 18/05 A3010 RMK AO2,M
BVU,2021-08-16 12:35,-114.8611,35.9475,671.00,87.80,62.60,43.07,160.00,9.00,0.00,29.86,M,10.00,M,CLR,M,M,M,M,M,M,M,M,M,M,M,M,M,M,88.48,KBVU 161235Z AUTO 16009KT 10SM CLR 31/17 A2986 RMK AO2,M
CXP,2021-08-16 12:35,-119.7326,39.1923,1431.00,64.40,37.40,36.74,320.00,4.00,0.00,30.10,M,5.00,M,CLR,M,M,M,M,M,M,M,HZ,M,M,M,M,M,M,64.40,KCXP 161235Z AUTO 32004KT 5SM HZ CLR 18/03 A3010 RMK AO2,M
RTS,2021-08-16 12:35,-119.8764,39.6682,1539.00,66.20,33.80,29.92,330.00,5.00,0.00,30.12,M,5.00,M,CLR,M,M,M,M,M,M,M,HZ,M,M,M,M,M,M,66.20,KRTS 161235Z AUTO 33005KT 5SM HZ CLR 19/01 A3012 RMK AO2,M
TMT,2021-08-16 12:35,-117.1971,39.4643,1749.34,44.80,29.80,55.40,0.00,0.00,0.00,30.19,M,10.00,M,CLR,M,M,M,M,M,M,M,M,M,M,M,M,M,M,44.80,KTMT 161235Z AUTO 00000KT 10SM CLR 07/M01 A3019 RMK AO2 T00711012,M
MEV,2021-08-16 12:35,-119.7500,38.9963,1441.42,57.20,42.80,58.52,0.00,0.00,0.00,30.10,M,4.00,M,BKN,BKN,OVC,M,2100.00,2500.00,3800.00,M,HZ,M,M,M,M,M,M,57.20,KMEV 161235Z AUTO 00000KT 4SM HZ BKN021 BKN025 OVC038 14/06 A3010 RMK AO2,M
BAM,2021-08-16 12:35,-116.8743,40.5990,1382.36,59.00,26.60,28.77,210.00,3.00,0.00,30.06,M,7.00,M,CLR,M,M,M,M,M,M,M,M,M,M,M,M,M,M,59.00,KBAM 161235Z AUTO 21003KT 7SM CLR 15/M03 A3006 RMK AO1,M
HTH,2021-08-16 12:35,-118.6315,38.5448,1282.89,69.80,33.80,26.43,270.00,4.00,0.00,30.04,M,7.00,M,FEW,SCT,BKN,M,4000.00,4500.00,6000.00,M,M,M,M,M,M,M,M,69.80,KHTH 161235Z AUTO 27004KT 7SM FEW040 SCT045 BKN060 21/01 A3004 RMK A01,M
P68,2021-08-16 12:53,-116.0056,39.6014,1993.00,55.00,27.00,33.79,190.00,6.00,0.00,30.18,1013.00,M,M,M,M,M,M,M,M,M,M,M,M,M,M,M,M,M,55.00,KP68 161253Z AUTO 19006KT 13/M03 A3018 RMK AO1 SLP130 T01281028,M
ELY,2021-08-16 12:53,-114.8453,39.2950,1909.00,49.00,27.00,42.32,180.00,11.00,0.00,30.22,1013.20,7.00,M,CLR,M,M,M,M,M,M,M,M,M,M,M,M,M,M,43.82,KELY 161253Z AUTO 18011KT 7SM CLR 09/M03 A3022 RMK AO2 SLP132 T00941028,M
VGT,2021-08-16 12:53,-115.1933,36.2111,667.00,89.00,64.00,43.42,20.00,6.00,0.00,29.84,1008.70,10.00,M,CLR,M,M,M,M,M,M,M,M,M,M,M,M,M,M,90.49,KVGT 161253Z 02006KT 10SM CLR 32/18 A2984 RMK AO2 SLP087 T03170178,M
LOL,2021-08-16 12:53,-118.5701,40.0684,1192.43,62.00,42.00,47.83,50.00,8.00,0.00,29.99,1010.60,5.00,M,CLR,M,M,M,M,M,M,M,HZ,M,M,M,M,M,M,62.10,KLOL 161253Z AUTO 05008KT 5SM HZ CLR 17/06 A2999 RMK AO2 SLP106 T01670056 $,M
TMT,2021-08-16 12:55,-117.1971,39.4643,1749.34,47.70,30.20,50.46,0.00,0.00,0.00,30.18,M,10.00,M,CLR,M,M,M,M,M,M,M,M,M,M,M,M,M,M,47.70,KTMT 161255Z AUTO 00000KT 10SM CLR 09/M01 A3018 RMK AO2 T00871010,M
RNO,2021-08-16 12:55,-119.7711,39.4839,1341.00,67.00,45.00,45.19,10.00,3.00,0.00,30.06,1011.30,2.50,M,OVC,M,M,M,3500.00,M,M,M,FU,M,M,M,M,M,M,66.90,KRNO 161255Z 01003KT 2 1/2SM FU OVC035 19/07 A3006 RMK AO2 SLP113 FU OVC035 T01940072 $,M
BVU,2021-08-16 12:55,-114.8611,35.9475,671.00,87.80,62.60,43.07,M,6.00,0.00,29.86,M,10.00,M,CLR,M,M,M,M,M,M,M,M,M,M,M,M,M,M,88.48,KBVU 161255Z AUTO VRB06KT 10SM CLR 31/17 A2986 RMK AO2,M
HTH,2021-08-16 12:55,-118.6315,38.5448,1282.89,69.80,35.60,28.39,210.00,4.00,0.00,30.04,M,7.00,M,FEW,SCT,M,M,4400.00,5500.00,M,M,M,M,M,M,M,M,M,69.80,KHTH 161255Z AUTO 21004KT 7SM FEW044 SCT055 21/02 A3004 RMK A01,M
BAM,2021-08-16 12:55,-116.8743,40.5990,1382.36,59.00,26.60,28.77,180.00,5.00,0.00,30.07,M,7.00,M,CLR,M,M,M,M,M,M,M,M,M,M,M,M,M,M,59.00,KBAM 161255Z AUTO 18005KT 7SM CLR 15/M03 A3007 RMK AO1,M
MEV,2021-08-16 12:55,-119.7500,38.9963,1441.42,57.20,42.80,58.52,120.00,4.00,0.00,30.09,M,4.00,M,OVC,M,M,M,2100.00,M,M,M,HZ,M,M,M,M,M,M,57.20,KMEV 161255Z AUTO 12004KT 4SM HZ OVC021 14/06 A3009 RMK AO2,M
RTS,2021-08-16 12:55,-119.8764,39.6682,1539.00,60.80,35.60,38.85,350.00,5.00,0.00,30.12,M,6.00,M,CLR,M,M,M,M,M,M,M,HZ,M,M,M,M,M,M,60.80,KRTS 161255Z AUTO 35005KT 6SM HZ CLR 16/02 A3012 RMK AO2,M
CXP,2021-08-16 12:55,-119.7326,39.1923,1431.00,62.60,41.00,45.04,0.00,0.00,0.00,30.11,M,6.00,M,CLR,M,M,M,M,M,M,M,HZ,M,M,M,M,M,M,62.60,KCXP 161255Z AUTO 00000KT 6SM HZ CLR 17/05 A3011 RMK AO2,M
TPH,2021-08-16 12:56,-117.0904,38.0505,1654.00,68.00,28.90,23.06,360.00,10.00,0.00,30.14,1010.90,7.00,M,CLR,M,M,M,M,M,M,M,M,M,M,M,M,M,M,68.00,KTPH 161256Z AUTO 36010KT 7SM CLR 20/M02 A3014 RMK AO2 SLP109 T02001017,M
EKO,2021-08-16 12:56,-115.7860,40.8242,1367.00,56.00,32.00,40.10,70.00,5.00,0.00,30.13,1014.00,5.00,M,CLR,M,M,M,M,M,M,M,HZ,M,M,M,M,M,M,55.90,KEKO 161256Z AUTO 07005KT 5SM HZ CLR 13/00 A3013 RMK AO2 SLP140 T01330000 $,M
LAS,2021-08-16 12:56,-115.1634,36.0719,663.00,89.00,61.00,39.06,270.00,4.00,0.00,29.85,1007.20,10.00,M,FEW,M,M,M,20000.00,M,M,M,M,M,M,M,M,M,M,89.11,KLAS 161256Z 27004KT 10SM FEW200 32/16 A2985 RMK AO2 SLP072 T03170161,M
HND,2021-08-16 12:56,-115.1344,35.9729,742.79,86.00,59.00,40.14,200.00,6.00,0.00,29.88,1009.80,10.00,M,CLR,M,M,M,M,M,M,M,M,M,M,M,M,M,M,85.47,KHND 161256Z AUTO 20006KT 10SM CLR 30/15 A2988 RMK AO2 SLP098 T03000150,M
NFL,2021-08-16 12:56,-118.7010,39.4166,1199.00,68.00,36.00,30.69,160.00,8.00,0.00,29.99,1012.70,5.00,M,SCT,M,M,M,4700.00,M,M,M,HZ,M,M,M,M,M,M,68.00,KNFL 161256Z AUTO 16008KT 5SM HZ SCT047 20/02 A2999 RMK AO2 SLP127 T02000022,M
WMC,2021-08-16 12:56,-117.8072,40.9019,1315.00,59.00,34.00,38.87,0.00,0.00,0.00,30.02,1011.00,7.00,M,CLR,M,M,M,M,M,M,M,M,M,M,M,M,M,M,59.00,KWMC 161256Z AUTO 00000KT 7SM CLR 15/01 A3002 RMK AO2 SLP110 T01500011 $,M
LSV,2021-08-16 12:58,-115.0343,36.2362,570.00,88.70,63.30,42.90,40.00,5.00,0.00,29.82,1006.70,10.00,M,CLR,M,M,M,M,M,M,M,M,M,M,M,M,M,M,89.72,KLSV 161258Z AUTO 04005KT 10SM CLR 32/17 A2982 RMK AO2 SLP067 T03150174 $,M
INS,2021-08-16 12:58,-115.6733,36.5872,955.00,80.00,54.70,41.86,140.00,3.00,0.00,29.92,1007.40,10.00,M,CLR,M,M,M,M,M,M,M,M,M,M,M,M,M,M,79.90,KINS 161258Z AUTO 14003KT 10SM CLR 27/13 A2992 RMK AO2 SLP074 T02660126 $,M
TMT,2021-08-16 13:15,-117.1971,39.4643,1749.34,44.80,30.20,56.31,290.00,4.00,0.00,30.19,M,10.00,M,CLR,M,M,M,M,M,M,M,M,M,M,M,M,M,M,42.37,KTMT 161315Z AUTO 29004KT 10SM CLR 07/M01 A3019 RMK AO2 T00711010,M
CXP,2021-08-16 13:15,-119.7326,39.1923,1431.00,64.40,39.20,39.43,0.00,0.00,0.00,30.11,M,5.00,M,CLR,M,M,M,M,M,M,M,HZ,M,M,M,M,M,M,64.40,KCXP 161315Z AUTO 00000KT 5SM HZ CLR 18/04 A3011 RMK AO2,M
RTS,2021-08-16 13:15,-119.8764,39.6682,1539.00,62.60,35.60,36.45,320.00,3.00,0.00,30.12,M,5.00,M,CLR,M,M,M,M,M,M,M,HZ,M,M,M,M,M,M,62.60,KRTS 161315Z AUTO 32003KT 5SM HZ CLR 17/02 A3012 RMK AO2,M
MEV,2021-08-16 13:15,-119.7500,38.9963,1441.42,55.40,41.00,58.27,0.00,0.00,0.00,30.10,M,2.50,M,BKN,BKN,BKN,M,2200.00,2700.00,3200.00,M,HZ,M,M,M,M,M,M,55.40,KMEV 161315Z AUTO 00000KT 2 1/2SM HZ BKN022 BKN027 BKN032 13/05 A3010 RMK AO2,M
BAM,2021-08-16 13:15,-116.8743,40.5990,1382.36,55.40,24.80,30.40,0.00,0.00,0.00,30.07,M,7.00,M,CLR,M,M,M,M,M,M,M,M,M,M,M,M,M,M,55.40,KBAM 161315Z AUTO 00000KT 7SM CLR 13/M04 A3007 RMK AO1,M
BVU,2021-08-16 13:15,-114.8611,35.9475,671.00,86.00,64.40,48.58,120.00,5.00,0.00,29.86,M,10.00,M,CLR,M,M,M,M,M,M,M,M,M,M,M,M,M,M,87.49,KBVU 161315Z AUTO 12005KT 10SM CLR 30/18 A2986 RMK AO2,M
HTH,2021-08-16 13:15,-118.6315,38.5448,1282.89,71.60,37.40,28.68,200.00,4.00,0.00,30.05,M,6.00,M,CLR,M,M,M,M,M,M,M,HZ,M,M,M,M,M,M,71.60,KHTH 161315Z AUTO 20004KT 6SM HZ CLR 22/03 A3005 RMK A01,M
TMT,2021-08-16 13:35,-117.1971,39.4643,1749.34,46.40,29.10,50.67,320.00,5.00,0.00,30.19,M,10.00,M,CLR,M,M,M,M,M,M,M,M,M,M,M,M,M,M,43.50,KTMT 161335Z AUTO 32005KT 10SM CLR 08/M02 A3019 RMK AO2 T00801016,M
CXP,2021-08-16 13:35,-119.7326,39.1923,1431.00,68.00,37.40,32.43,300.00,4.00,0.00,30.11,M,4.00,M,CLR,M,M,M,M,M,M,M,HZ,M,M,M,M,M,M,68.00,KCXP 161335Z AUTO 30004KT 4SM HZ CLR 20/03 A3011 RMK AO2,M
RTS,2021-08-16 13:35,-119.8764,39.6682,1539.00,62.60,35.60,36.45,0.00,0.00,0.00,30.12,M,4.00,M,CLR,M,M,M,M,M,M,M,HZ,M,M,M,M,M,M,62.60,KRTS 161335Z AUTO 00000KT 4SM HZ CLR 17/02 A3012 RMK AO2,M
MEV,2021-08-16 13:35,-119.7500,38.9963,1441.42,57.20,42.80,58.52,0.00,0.00,0.00,30.10,M,2.50,M,FEW,FEW,M,M,3000.00,3600.00,M,M,HZ,M,M,M,M,M,M,57.20,KMEV 161335Z AUTO 00000KT 2 1/2SM HZ FEW030 FEW036 14/06 A3010 RMK AO2,M
BAM,2021-08-16 13:35,-116.8743,40.5990,1382.36,55.40,24.80,30.40,150.00,3.00,0.00,30.07,M,7.00,M,CLR,M,M,M,M,M,M,M,M,M,M,M,M,M,M,55.40,KBAM 161335Z AUTO 15003KT 7SM CLR 13/M04 A3007 RMK AO1,M
HTH,2021-08-16 13:35,-118.6315,38.5448,1282.89,71.60,37.40,28.68,220.00,4.00,0.00,30.05,M,6.00,M,CLR,M,M,M,M,M,M,M,HZ,M,M,M,M,M,M,71.60,KHTH 161335Z AUTO 22004KT 6SM HZ CLR 22/03 A3005 RMK A01,M
BVU,2021-08-16 13:35,-114.8611,35.9475,671.00,86.00,64.40,48.58,120.00,5.00,0.00,29.87,M,10.00,M,CLR,M,M,M,M,M,M,M,M,M,M,M,M,M,M,87.49,KBVU 161335Z AUTO 12005KT 10SM CLR 30/18 A2987 RMK AO2,M
ELY,2021-08-16 13:53,-114.8453,39.2950,1909.00,50.00,28.00,42.33,170.00,8.00,0.00,30.24,1014.20,6.00,M,CLR,M,M,M,M,M,M,M,HZ,M,M,M,M,M,M,50.00,KELY 161353Z AUTO 17008KT 6SM HZ CLR 10/M02 A3024 RMK AO2 SLP142 T01001022,M
LOL,2021-08-16 13:53,-118.5701,40.0684,1192.43,59.00,40.00,49.04,200.00,4.00,0.00,30.00,1011.30,4.00,M,CLR,M,M,M,M,M,M,M,HZ,M,M,M,M,M,M,59.00,KLOL 161353Z AUTO 20004KT 4SM HZ CLR 15/04 A3000 RMK AO2 SLP113 T01500044 $,M
VGT,2021-08-16 13:53,-115.1933,36.2111,667.00,89.00,63.00,41.92,20.00,4.00,0.00,29.85,1009.10,10.00,M,CLR,M,M,M,M,M,M,M,M,M,M,M,M,M,M,89.99,KVGT 161353Z 02004KT 10SM CLR 32/17 A2985 RMK AO2 SLP091 T03170172,M
P68,2021-08-16 13:53,-116.0056,39.6014,1993.00,56.00,30.00,36.98,200.00,5.00,0.00,30.19,1013.60,M,M,M,M,M,M,M,M,M,M,M,M,M,M,M,M,M,55.90,KP68 161353Z AUTO 20005KT 13/M01 A3019 RMK AO1 SLP136 T01331011,M
RTS,2021-08-16 13:55,-119.8764,39.6682,1539.00,64.40,35.60,34.22,360.00,3.00,0.00,30.12,M,4.00,M,CLR,M,M,M,M,M,M,M,HZ,M,M,M,M,M,M,64.40,KRTS 161355Z AUTO 36003KT 4SM HZ CLR 18/02 A3012 RMK AO2,M
CXP,2021-08-16 13:55,-119.7326,39.1923,1431.00,68.00,37.40,32.43,290.00,3.00,0.00,30.11,M,4.00,M,CLR,M,M,M,M,M,M,M,HZ,M,M,M,M,M,M,68.00,KCXP 161355Z AUTO 29003KT 4SM HZ CLR 20/03 A3011 RMK AO2,M
RNO,2021-08-16 13:55,-119.7711,39.4839,1341.00,66.00,45.00,46.62,180.00,3.00,0.00,30.07,1011.90,2.50,M,OVC,M,M,M,3000.00,M,M,M,FU,M,M,M,M,M,M,66.00,KRNO 161355Z 18003KT 2 1/2SM FU OVC030 19/07 A3007 RMK AO2 SLP119 FU OVC030 T01890072 $,M
MEV,2021-08-16 13:55,-119.7500,38.9963,1441.42,57.20,41.00,54.60,190.00,4.00,0.00,30.10,M,2.50,M,CLR,M,M,M,M,M,M,M,HZ,M,M,M,M,M,M,57.20,KMEV 161355Z AUTO 19004KT 2 1/2SM HZ CLR 14/05 A3010 RMK AO2,M
BAM,2021-08-16 13:55,-116.8743,40.5990,1382.36,57.20,26.60,30.69,120.00,4.00,0.00,30.07,M,7.00,M,CLR,M,M,M,M,M,M,M,M,M,M,M,M,M,M,57.20,KBAM 161355Z AUTO 12004KT 7SM CLR 14/M03 A3007 RMK AO1,M
HTH,2021-08-16 13:55,-118.6315,38.5448,1282.89,73.40,37.40,26.98,180.00,3.00,0.00,30.05,M,6.00,M,CLR,M,M,M,M,M,M,M,HZ,M,M,M,M,M,M,73.40,KHTH 161355Z AUTO 18003KT 6SM HZ CLR 23/03 A3005 RMK A01,M
TMT,2021-08-16 13:55,-117.1971,39.4643,1749.34,46.60,30.20,52.60,120.00,4.00,0.00,30.20,M,10.00,M,CLR,M,M,M,M,M,M,M,M,M,M,M,M,M,M,44.47,KTMT 161355Z AUTO 12004KT 10SM CLR 08/M01 A3020 RMK AO2 T00811010,M
BVU,2021-08-16 13:55,-114.8611,35.9475,671.00,86.00,64.40,48.58,120.00,6.00,0.00,29.88,M,10.00,M,CLR,M,M,M,M,M,M,M,M,M,M,M,M,M,M,87.49,KBVU 161355Z AUTO 12006KT 10SM CLR 30/18 A2988 RMK AO2,M
WMC,2021-08-16 13:56,-117.8072,40.9019,1315.00,57.00,34.00,41.76,160.00,4.00,0.00,30.03,1011.50,5.00,M,CLR,M,M,M,M,M,M,M,HZ,M,M,M,M,M,M,57.00,KWMC 161356Z AUTO 16004KT 5SM HZ CLR 14/01 A3003 RMK AO2 SLP115 T01390011 $,M
NFL,2021-08-16 13:56,-118.7010,39.4166,1199.00,70.00,36.00,28.65,150.00,5.00,0.00,30.00,1013.00,4.00,M,SCT,M,M,M,4200.00,M,M,M,HZ,M,M,M,M,M,M,70.00,KNFL 161356Z AUTO 15005KT 4SM HZ SCT042 21/02 A3000 RMK AO2 SLP130 T02110022,M
TPH,2021-08-16 13:56,-117.0904,38.0505,1654.00,70.00,28.90,21.53,20.00,14.00,0.00,30.14,1010.90,6.00,M,CLR,M,M,M,M,M,M,M,HZ,M,M,M,M,M,M,70.00,KTPH 161356Z AUTO 02014KT 6SM HZ CLR 21/M02 A3014 RMK AO2 SLP109 T02111017,M
LAS,2021-08-16 13:56,-115.1634,36.0719,663.00,88.00,62.00,42.05,300.00,5.00,0.00,29.87,1008.00,10.00,M,FEW,M,M,M,20000.00,M,M,M,M,M,M,M,M,M,M,88.47,KLAS 161356Z 30005KT 10SM FEW200 31/17 A2987 RMK AO2 SLP080 T03110167,M
EKO,2021-08-16 13:56,-115.7860,40.8242,1367.00,54.00,32.00,42.98,0.00,0.00,0.00,30.14,1015.00,5.00,M,CLR,M,M,M,M,M,M,M,HZ,M,M,M,M,M,M,54.00,KEKO 161356Z AUTO 00000KT 5SM HZ CLR 12/00 A3014 RMK AO2 SLP150 T01220000 $,M
HND,2021-08-16 13:56,-115.1344,35.9729,742.79,85.00,61.00,44.65,170.00,3.00,0.00,29.90,1010.50,10.00,M,CLR,M,M,M,M,M,M,M,M,M,M,M,M,M,M,85.12,KHND 161356Z 17003KT 10SM CLR 29/16 A2990 RMK AO2 SLP105 T02940161,M
INS,2021-08-16 13:58,-115.6733,36.5872,955.00,79.50,51.00,36.89,200.00,3.00,0.00,29.94,1008.20,10.00,M,CLR,M,M,M,M,M,M,M,M,M,M,M,M,M,M,79.50,KINS 161358Z AUTO 20003KT 10SM CLR 26/11 A2994 RMK AO2 SLP082 T02640105 $,M
LSV,2021-08-16 13:58,-115.0343,36.2362,570.00,88.20,65.30,46.74,80.00,7.00,0.00,29.83,1007.10,10.00,M,CLR,M,M,M,M,M,M,M,M,M,M,M,M,M,M,90.23,KLSV 161358Z AUTO 08007KT 10SM CLR 31/19 A2983 RMK AO2 SLP071 T03120185 $,M
BAM,2021-08-16 14:15,-116.8743,40.5990,1382.36,59.00,26.60,28.77,180.00,3.00,0.00,30.08,M,7.00,M,CLR,M,M,M,M,M,M,M,M,M,M,M,M,M,M,59.00,KBAM 161415Z AUTO 18003KT 7SM CLR 15/M03 A3008 RMK AO1,M
CXP,2021-08-16 14:15,-119.7326,39.1923,1431.00,68.00,39.20,34.80,0.00,0.00,0.00,30.11,M,5.00,M,CLR,M,M,M,M,M,M,M,HZ,M,M,M,M,M,M,68.00,KCXP 161415Z AUTO 00000KT 5SM HZ CLR 20/04 A3011 RMK AO2,M
BVU,2021-08-16 14:15,-114.8611,35.9475,671.00,87.80,64.40,45.88,130.00,6.00,0.00,29.88,M,10.00,M,CLR,M,M,M,M,M,M,M,M,M,M,M,M,M,M,89.33,KBVU 161415Z AUTO 13006KT 10SM CLR 31/18 A2988 RMK AO2,M
RTS,2021-08-16 14:15,-119.8764,39.6682,1539.00,64.40,44.60,48.55,0.00,0.00,0.00,30.12,M,3.00,M,CLR,M,M,M,M,M,M,M,HZ,M,M,M,M,M,M,64.40,KRTS 161415Z AUTO 00000KT 3SM HZ CLR 18/07 A3012 RMK AO2,M
MEV,2021-08-16 14:15,-119.7500,38.9963,1441.42,57.20,42.80,58.52,240.00,3.00,0.00,30.10,M,2.00,M,CLR,M,M,M,M,M,M,M,HZ,M,M,M,M,M,M,57.20,KMEV 161415Z AUTO 24003KT 2SM HZ CLR 14/06 A3010 RMK AO2,M
TMT,2021-08-16 14:15,-117.1971,39.4643,1749.34,49.60,31.80,50.15,0.00,0.00,0.00,30.20,M,10.00,M,CLR,M,M,M,M,M,M,M,M,M,M,M,M,M,M,49.60,KTMT 161415Z AUTO 00000KT 10SM CLR 10/00 A3020 RMK AO2 T00981001,M
HTH,2021-08-16 14:15,-118.6315,38.5448,1282.89,71.60,33.80,24.86,120.00,5.00,0.00,30.05,M,6.00,M,CLR,M,M,M,M,M,M,M,HZ,M,M,M,M,M,M,71.60,KHTH 161415Z AUTO 12005KT 6SM HZ CLR 22/01 A3005 RMK A01,M
HTH,2021-08-16 14:35,-118.6315,38.5448,1282.89,73.40,33.80,23.39,140.00,6.00,0.00,30.05,M,6.00,M,CLR,M,M,M,M,M,M,M,HZ,M,M,M,M,M,M,73.40,KHTH 161435Z AUTO 14006KT 6SM HZ CLR 23/01 A3005 RMK A01,M
MEV,2021-08-16 14:35,-119.7500,38.9963,1441.42,60.80,44.60,55.12,0.00,0.00,0.00,30.10,M,3.00,M,CLR,M,M,M,M,M,M,M,HZ,M,M,M,M,M,M,60.80,KMEV 161435Z AUTO 00000KT 3SM HZ CLR 16/07 A3010 RMK AO2,M
RTS,2021-08-16 14:35,-119.8764,39.6682,1539.00,64.40,39.20,39.43,0.00,0.00,0.00,30.13,M,3.00,M,CLR,M,M,M,M,M,M,M,HZ,M,M,M,M,M,M,64.40,KRTS 161435Z AUTO 00000KT 3SM HZ CLR 18/04 A3013 RMK AO2,M
CXP,2021-08-16 14:35,-119.7326,39.1923,1431.00,68.00,41.00,37.32,0.00,0.00,0.00,30.11,M,5.00,M,CLR,M,M,M,M,M,M,M,HZ,M,M,M,M,M,M,68.00,KCXP 161435Z AUTO 00000KT 5SM HZ CLR 20/05 A3011 RMK AO2,M
BVU,2021-08-16 14:35,-114.8611,35.9475,671.00,87.80,64.40,45.88,140.00,7.00,0.00,29.87,M,10.00,M,CLR,M,M,M,M,M,M,M,M,M,M,M,M,M,M,89.33,KBVU 161435Z AUTO 14007KT 10SM CLR 31/18 A2987 RMK AO2,M
BAM,2021-08-16 14:35,-116.8743,40.5990,1382.36,62.60,28.40,27.27,0.00,0.00,0.00,30.08,M,7.00,M,CLR,M,M,M,M,M,M,M,M,M,M,M,M,M,M,62.60,KBAM 161435Z AUTO 00000KT 7SM CLR 17/M02 A3008 RMK AO1,M
TMT,2021-08-16 14:35,-117.1971,39.4643,1749.34,54.00,32.70,44.20,0.00,0.00,0.00,30.20,M,10.00,M,CLR,M,M,M,M,M,M,M,M,M,M,M,M,M,M,54.00,KTMT 161435Z AUTO 00000KT 10SM CLR 12/00 A3020 RMK AO2 T01220004,M
LOL,2021-08-16 14:53,-118.5701,40.0684,1192.43,65.00,43.00,44.88,330.00,3.00,0.00,30.00,1011.60,4.00,M,CLR,M,M,M,M,M,M,M,HZ,M,M,M,M,M,M,64.90,KLOL 161453Z AUTO 33003KT 4SM HZ CLR 18/06 A3000 RMK AO2 SLP116 T01830061 53005,M
ELY,2021-08-16 14:53,-114.8453,39.2950,1909.00,61.00,28.90,29.45,170.00,6.00,0.00,30.23,1013.70,5.00,M,CLR,M,M,M,M,M,M,M,HZ,M,M,M,M,M,M,61.00,KELY 161453Z AUTO 17006KT 5SM HZ CLR 16/M02 A3023 RMK AO2 SLP137 T01611017 50004,M
P68,2021-08-16 14:53,-116.0056,39.6014,1993.00,67.00,27.00,22.15,230.00,4.00,0.00,30.19,1013.70,M,M,M,M,M,M,M,M,M,M,M,M,M,M,M,M,M,66.90,KP68 161453Z AUTO 23004KT 19/M03 A3019 RMK AO1 SLP137 T01941028 52003,M
VGT,2021-08-16 14:53,-115.1933,36.2111,667.00,91.00,64.00,40.90,80.00,9.00,0.00,29.86,1009.40,10.00,M,CLR,M,M,M,M,M,M,M,M,M,M,M,M,M,M,92.52,KVGT 161453Z 08009KT 10SM CLR 33/18 A2986 RMK AO2 SLP094 T03280178 51010,M
HTH,2021-08-16 14:55,-118.6315,38.5448,1282.89,77.00,35.60,22.28,230.00,4.00,0.00,30.05,M,5.00,M,CLR,M,M,M,M,M,M,M,HZ,M,M,M,M,M,M,77.00,KHTH 161455Z AUTO 23004KT 5SM HZ CLR 25/02 A3005 RMK A01,M
MEV,2021-08-16 14:55,-119.7500,38.9963,1441.42,62.60,42.80,48.28,0.00,0.00,0.00,30.10,M,3.00,M,CLR,M,M,M,M,M,M,M,HZ,M,M,M,M,M,M,62.60,KMEV 161455Z AUTO 00000KT 3SM HZ CLR 17/06 A3010 RMK AO2,M
RTS,2021-08-16 14:55,-119.8764,39.6682,1539.00,66.20,37.40,34.51,0.00,0.00,0.00,30.13,M,4.00,M,CLR,M,M,M,M,M,M,M,HZ,M,M,M,M,M,M,66.20,KRTS 161455Z AUTO 00000KT 4SM HZ CLR 19/03 A3013 RMK AO2,M
CXP,2021-08-16 14:55,-119.7326,39.1923,1431.00,68.00,44.60,42.85,0.00,0.00,0.00,30.11,M,5.00,M,CLR,M,M,M,M,M,M,M,HZ,M,M,M,M,M,M,68.00,KCXP 161455Z AUTO 00000KT 5SM HZ CLR 20/07 A3011 RMK AO2,M
BVU,2021-08-16 14:55,-114.8611,35.9475,671.00,87.80,64.40,45.88,150.00,8.00,0.00,29.88,M,10.00,M,CLR,M,M,M,M,M,M,M,M,M,M,M,M,M,M,89.33,KBVU 161455Z AUTO 15008KT 10SM CLR 31/18 A2988 RMK AO2,M
BAM,2021-08-16 14:55,-116.8743,40.5990,1382.36,66.20,30.20,25.88,0.00,0.00,0.00,30.08,M,7.00,M,CLR,M,M,M,M,M,M,M,M,M,M,M,M,M,M,66.20,KBAM 161455Z AUTO 00000KT 7SM CLR 19/M01 A3008 RMK AO1,M
TMT,2021-08-16 14:55,-117.1971,39.4643,1749.34,56.80,33.80,41.73,0.00,0.00,0.00,30.20,M,7.00,M,CLR,M,M,M,M,M,M,M,M,M,M,M,M,M,M,56.80,KTMT 161455Z AUTO 00000KT 7SM CLR 14/01 A3020 RMK AO2 T01380010,M
RNO,2021-08-16 14:55,-119.7711,39.4839,1341.00,70.00,44.00,39.26,0.00,0.00,0.00,30.07,1011.90,2.50,M,OVC,M,M,M,3000.00,M,M,M,FU,M,M,M,M,M,M,70.00,KRNO 161455Z 00000KT 2 1/2SM FU OVC030 21/07 A3007 RMK AO2 SLP119 FU OVC030 T02110067 53004,M
NFL,2021-08-16 14:56,-118.7010,39.4166,1199.00,75.00,37.00,25.17,160.00,3.00,0.00,30.01,1013.20,4.00,M,OVC,M,M,M,4000.00,M,M,M,FU,M,M,M,M,M,M,75.00,KNFL 161456Z 16003KT 4SM FU OVC040 24/03 A3001 RMK AO2 SLP132 FU OVC040 T02390028 53005,M
LAS,2021-08-16 14:56,-115.1634,36.0719,663.00,90.00,62.00,39.47,290.00,3.00,0.00,29.87,1008.20,10.00,M,CLR,M,M,M,M,M,M,M,M,M,M,M,M,M,M,90.51,KLAS 161456Z 29003KT 10SM CLR 32/17 A2987 RMK AO2 SLP082 T03220167 51012,M
WMC,2021-08-16 14:56,-117.8072,40.9019,1315.00,66.00,36.00,32.88,0.00,0.00,0.00,30.03,1011.60,5.00,M,CLR,M,M,M,M,M,M,M,HZ,M,M,M,M,M,M,66.00,KWMC 161456Z AUTO 00000KT 5SM HZ CLR 19/02 A3003 RMK AO2 SLP116 T01890022 51004 $,M
EKO,2021-08-16 14:56,-115.7860,40.8242,1367.00,62.00,30.90,30.73,60.00,4.00,0.00,30.14,1015.00,5.00,M,CLR,M,M,M,M,M,M,M,HZ,M,M,M,M,M,M,62.10,KEKO 161456Z AUTO 06004KT 5SM HZ CLR 17/M01 A3014 RMK AO2 SLP150 T01671006 51006 $,M
TPH,2021-08-16 14:56,-117.0904,38.0505,1654.00,74.00,28.00,18.19,10.00,11.00,0.00,30.15,1011.00,6.00,M,CLR,M,M,M,M,M,M,M,HZ,M,M,M,M,M,M,73.90,KTPH 161456Z AUTO 01011KT 6SM HZ CLR 23/M02 A3015 RMK AO2 SLP110 T02331022 51006,M
HND,2021-08-16 14:56,-115.1344,35.9729,742.79,89.00,62.00,40.61,0.00,0.00,0.00,29.91,1010.60,10.00,M,CLR,M,M,M,M,M,M,M,M,M,M,M,M,M,M,89.58,KHND 161456Z 00000KT 10SM CLR 32/17 A2991 RMK AO2 SLP106 T03170167 51010,M
LSV,2021-08-16 14:58,-115.0343,36.2362,570.00,90.50,65.00,42.87,100.00,3.00,0.00,29.84,1007.50,10.00,M,CLR,M,M,M,M,M,M,M,M,M,M,M,M,M,M,92.48,KLSV 161458Z AUTO 10003KT 10SM CLR 33/18 A2984 RMK AO2 SLP075 T03250183 52011 $,M
INS,2021-08-16 14:58,-115.6733,36.5872,955.00,82.00,55.20,39.81,0.00,0.00,0.00,29.94,1008.20,10.00,M,CLR,M,M,M,M,M,M,M,M,M,M,M,M,M,M,81.43,KINS 161458Z AUTO 00000KT 10SM CLR 28/13 A2994 RMK AO2 SLP082 T02780129 52010 $,M
MEV,2021-08-16 15:15,-119.7500,38.9963,1441.42,66.20,41.00,39.72,0.00,0.00,0.00,30.10,M,2.50,M,CLR,M,M,M,M,M,M,M,HZ,M,M,M,M,M,M,66.20,KMEV 161515Z AUTO 00000KT 2 1/2SM HZ CLR 19/05 A3010 RMK AO2,M
CXP,2021-08-16 15:15,-119.7326,39.1923,1431.00,69.80,44.60,40.29,0.00,0.00,0.00,30.11,M,5.00,M,CLR,M,M,M,M,M,M,M,HZ,M,M,M,M,M,M,69.80,KCXP 161515Z AUTO 00000KT 5SM HZ CLR 21/07 A3011 RMK AO2,M
RTS,2021-08-16 15:15,-119.8764,39.6682,1539.00,69.80,37.40,30.49,0.00,0.00,0.00,30.12,M,3.00,M,CLR,M,M,M,M,M,M,M,HZ,M,M,M,M,M,M,69.80,KRTS 161515Z AUTO 00000KT 3SM HZ CLR 21/03 A3012 RMK AO2,M
BAM,2021-08-16 15:15,-116.8743,40.5990,1382.36,71.60,32.00,23.13,350.00,3.00,0.00,30.08,M,7.00,M,CLR,M,M,M,M,M,M,M,M,M,M,M,M,M,M,71.60,KBAM 161515Z AUTO 35003KT 7SM CLR 22/00 A3008 RMK AO1,M
TMT,2021-08-16 15:15,-117.1971,39.4643,1749.34,60.40,35.00,38.32,0.00,0.00,0.00,30.19,M,10.00,M,CLR,M,M,M,M,M,M,M,M,M,M,M,M,M,M,60.40,KTMT 161515Z AUTO 00000KT 10SM CLR 16/02 A3019 RMK AO2 T01580016,M
HTH,2021-08-16 15:15,-118.6315,38.5448,1282.89,78.80,35.60,21.00,250.00,3.00,0.00,30.05,M,6.00,M,CLR,M,M,M,M,M,M,M,HZ,M,M,M,M,M,M,78.80,KHTH 161515Z AUTO 25003KT 6SM HZ CLR 26/02 A3005 RMK A01,M
BVU,2021-08-16 15:15,-114.8611,35.9475,671.00,89.60,64.40,43.34,140.00,6.00,0.00,29.88,M,10.00,M,CLR,M,M,M,M,M,M,M,M,M,M,M,M,M,M,91.23,KBVU 161515Z AUTO 14006KT 10SM CLR 32/18 A2988 RMK AO2,M
TMT,2021-08-16 15:35,-117.1971,39.4643,1749.34,64.20,36.70,35.99,0.00,0.00,0.00,30.19,M,10.00,M,CLR,M,M,M,M,M,M,M,M,M,M,M,M,M,M,64.20,KTMT 161535Z AUTO 00000KT 10SM CLR 18/03 A3019 RMK AO2 T01790026,M
BVU,2021-08-16 15:35,-114.8611,35.9475,671.00,89.60,64.40,43.34,150.00,6.00,0.00,29.88,M,10.00,M,CLR,M,M,M,M,M,M,M,M,M,M,M,M,M,M,91.23,KBVU 161535Z AUTO 15006KT 10SM CLR 32/18 A2988 RMK AO2,M
CXP,2021-08-16 15:35,-119.7326,39.1923,1431.00,71.60,44.60,37.89,0.00,0.00,0.00,30.11,M,4.00,M,CLR,M,M,M,M,M,M,M,HZ,M,M,M,M,M,M,71.60,KCXP 161535Z AUTO 00000KT 4SM HZ CLR 22/07 A3011 RMK AO2,M
RTS,2021-08-16 15:35,-119.8764,39.6682,1539.00,71.60,37.40,28.68,0.00,0.00,0.00,30.12,M,3.00,M,CLR,M,M,M,M,M,M,M,HZ,M,M,M,M,M,M,71.60,KRTS 161535Z AUTO 00000KT 3SM HZ CLR 22/03 A3012 RMK AO2,M
MEV,2021-08-16 15:35,-119.7500,38.9963,1441.42,68.00,41.00,37.32,0.00,0.00,0.00,30.10,M,2.50,M,CLR,M,M,M,M,M,M,M,HZ,M,M,M,M,M,M,68.00,KMEV 161535Z AUTO 00000KT 2 1/2SM HZ CLR 20/05 A3010 RMK AO2,M
HTH,2021-08-16 15:35,-118.6315,38.5448,1282.89,78.80,35.60,21.00,0.00,0.00,0.00,30.05,M,6.00,M,CLR,M,M,M,M,M,M,M,HZ,M,M,M,M,M,M,78.80,KHTH 161535Z AUTO 00000KT 6SM HZ CLR 26/02 A3005 RMK A01,M
BAM,2021-08-16 15:35,-116.8743,40.5990,1382.36,75.20,32.00,20.49,40.00,3.00,0.00,30.08,M,7.00,M,CLR,M,M,M,M,M,M,M,M,M,M,M,M,M,M,75.20,KBAM 161535Z AUTO 04003KT 7SM CLR 24/00 A3008 RMK AO1,M
ELY,2021-08-16 15:53,-114.8453,39.2950,1909.00,69.00,30.90,24.09,170.00,7.00,0.00,30.22,1012.60,5.00,M,CLR,M,M,M,M,M,M,M,HZ,M,M,M,M,M,M,69.10,KELY 161553Z AUTO 17007KT 5SM HZ CLR 21/M01 A3022 RMK AO2 SLP126 T02061006,M
VGT,2021-08-16 15:53,-115.1933,36.2111,667.00,92.00,64.00,39.76,100.00,6.00,0.00,29.87,1009.60,10.00,M,CLR,M,M,M,M,M,M,M,M,M,M,M,M,M,M,93.51,KVGT 161553Z 10006KT 10SM CLR 33/18 A2987 RMK AO2 SLP096 T03330178,M
P68,2021-08-16 15:53,-116.0056,39.6014,1993.00,72.00,33.00,23.85,40.00,4.00,0.00,30.19,1013.50,M,M,M,M,M,M,M,M,M,M,M,M,M,M,M,M,M,72.00,KP68 161553Z AUTO 04004KT 22/01 A3019 RMK AO1 SLP135 T02220006,M
LOL,2021-08-16 15:53,-118.5701,40.0684,1192.43,76.00,39.00,26.42,0.00,0.00,0.00,30.00,1011.20,4.00,M,CLR,M,M,M,M,M,M,M,HZ,M,M,M,M,M,M,75.90,KLOL 161553Z AUTO 00000KT 4SM HZ CLR 24/04 A3000 RMK AO2 SLP112 T02440039,M
BAM,2021-08-16 15:55,-116.8743,40.5990,1382.36,77.00,32.00,19.30,0.00,0.00,0.00,30.07,M,7.00,M,CLR,M,M,M,M,M,M,M,M,M,M,M,M,M,M,77.00,KBAM 161555Z AUTO 00000KT 7SM CLR 25/00 A3007 RMK AO1,M
CXP,2021-08-16 15:55,-119.7326,39.1923,1431.00,73.40,42.80,33.29,0.00,0.00,0.00,30.10,M,4.00,M,CLR,M,M,M,M,M,M,M,HZ,M,M,M,M,M,M,73.40,KCXP 161555Z AUTO 00000KT 4SM HZ CLR 23/06 A3010 RMK AO2,M
RNO,2021-08-16 15:55,-119.7711,39.4839,1341.00,75.00,44.00,33.16,0.00,0.00,0.00,30.06,1011.50,2.50,M,OVC,M,M,M,3100.00,M,M,M,FU,M,M,M,M,M,M,75.00,KRNO 161555Z 00000KT 2 1/2SM FU OVC031 24/07 A3006 RMK AO2 SLP115 FU OVC031 T02390067,M
BVU,2021-08-16 15:55,-114.8611,35.9475,671.00,91.40,62.60,38.45,140.00,3.00,0.00,29.88,M,10.00,M,CLR,M,M,M,M,M,M,M,M,M,M,M,M,M,M,92.23,KBVU 161555Z AUTO 14003KT 10SM CLR 33/17 A2988 RMK AO2,M
MEV,2021-08-16 15:55,-119.7500,38.9963,1441.42,71.60,41.00,33.00,0.00,0.00,0.00,30.09,M,3.00,M,CLR,M,M,M,M,M,M,M,HZ,M,M,M,M,M,M,71.60,KMEV 161555Z AUTO 00000KT 3SM HZ CLR 22/05 A3009 RMK AO2,M
HTH,2021-08-16 15:55,-118.6315,38.5448,1282.89,80.60,35.60,19.79,320.00,4.00,0.00,30.05,M,6.00,M,CLR,M,M,M,M,M,M,M,HZ,M,M,M,M,M,M,78.94,KHTH 161555Z AUTO 32004KT 6SM HZ CLR 27/02 A3005 RMK A01,M
TMT,2021-08-16 15:55,-117.1971,39.4643,1749.34,67.60,36.50,31.73,0.00,0.00,0.00,30.19,M,10.00,M,CLR,M,M,M,M,M,M,M,M,M,M,M,M,M,M,67.60,KTMT 161555Z AUTO 00000KT 10SM CLR 20/03 A3019 RMK AO2 T01980025,M
RTS,2021-08-16 15:55,-119.8764,39.6682,1539.00,75.20,37.40,25.40,0.00,0.00,0.00,30.12,M,3.00,M,CLR,M,M,M,M,M,M,M,HZ,M,M,M,M,M,M,75.20,KRTS 161555Z AUTO 00000KT 3SM HZ CLR 24/03 A3012 RMK AO2,M
NFL,2021-08-16 15:56,-118.7010,39.4166,1199.00,83.00,37.00,19.41,180.00,4.00,0.00,30.00,1013.00,4.00,M,OVC,M,M,M,4000.00,M,M,M,FU,M,M,M,M,M,M,80.46,KNFL 161556Z 18004KT 4SM FU OVC040 28/03 A3000 RMK AO2 SLP130 FU OVC040 T02830028,M
LAS,2021-08-16 15:56,-115.1634,36.0719,663.00,93.00,62.00,35.94,0.00,0.00,0.00,29.87,1008.30,10.00,M,CLR,M,M,M,M,M,M,M,M,M,M,M,M,M,M,93.72,KLAS 161556Z 00000KT 10SM CLR 34/17 A2987 RMK AO2 SLP083 T03390167,M
WMC,2021-08-16 15:56,-117.8072,40.9019,1315.00,72.00,37.00,27.85,130.00,3.00,0.00,30.03,1011.60,5.00,M,CLR,M,M,M,M,M,M,M,HZ,M,M,M,M,M,M,72.00,KWMC 161556Z AUTO 13003KT 5SM HZ CLR 22/03 A3003 RMK AO2 SLP116 T02220028,M
TPH,2021-08-16 15:56,-117.0904,38.0505,1654.00,81.00,28.00,14.38,40.00,5.00,0.00,30.15,1010.80,6.00,M,CLR,M,M,M,M,M,M,M,HZ,M,M,M,M,M,M,78.98,KTPH 161556Z AUTO 04005KT 6SM HZ CLR 27/M02 A3015 RMK AO2 SLP108 T02721022,M
EKO,2021-08-16 15:56,-115.7860,40.8242,1367.00,69.00,32.00,25.18,80.00,4.00,0.00,30.13,1014.40,5.00,M,CLR,M,M,M,M,M,M,M,HZ,M,M,M,M,M,M,69.10,KEKO 161556Z AUTO 08004KT 5SM HZ CLR 21/00 A3013 RMK AO2 SLP144 T02060000,M
HND,2021-08-16 15:56,-115.1344,35.9729,742.79,92.00,61.00,35.77,0.00,0.00,0.00,29.91,1010.60,10.00,M,CLR,M,M,M,M,M,M,M,M,M,M,M,M,M,M,92.01,KHND 161556Z 00000KT 10SM CLR 33/16 A2991 RMK AO2 SLP106 T03330161,M
INS,2021-08-16 15:58,-115.6733,36.5872,955.00,87.00,54.50,32.94,0.00,0.00,0.00,29.94,1008.10,10.00,M,CLR,M,M,M,M,M,M,M,M,M,M,M,M,M,M,85.29,KINS 161558Z AUTO 00000KT 10SM CLR 31/13 A2994 RMK AO2 SLP081 T03060125 $,M
LSV,2021-08-16 15:58,-115.0343,36.2362,570.00,92.80,64.20,38.94,110.00,5.00,0.00,29.84,1007.50,10.00,M,CLR,M,M,M,M,M,M,M,M,M,M,M,M,M,M,94.63,KLSV 161558Z AUTO 11005KT 10SM CLR 34/18 A2984 RMK AO2 SLP075 T03380179 $,M
CXP,2021-08-16 16:15,-119.7326,39.1923,1431.00,75.20,41.00,29.23,0.00,0.00,0.00,30.10,M,4.00,M,CLR,M,M,M,M,M,M,M,HZ,M,M,M,M,M,M,75.20,KCXP 161615Z AUTO 00000KT 4SM HZ CLR 24/05 A3010 RMK AO2,M
BVU,2021-08-16 16:15,-114.8611,35.9475,671.00,91.40,62.60,38.45,0.00,0.00,0.00,29.88,M,10.00,M,CLR,M,M,M,M,M,M,M,M,M,M,M,M,M,M,92.23,KBVU 161615Z AUTO 00000KT 10SM CLR 33/17 A2988 RMK AO2,M
BAM,2021-08-16 16:15,-116.8743,40.5990,1382.36,80.60,30.20,15.94,80.00,4.00,0.00,30.07,M,7.00,M,CLR,M,M,M,M,M,M,M,M,M,M,M,M,M,M,78.77,KBAM 161615Z AUTO 08004KT 7SM CLR 27/M01 A3007 RMK AO1,M
HTH,2021-08-16 16:15,-118.6315,38.5448,1282.89,82.40,35.60,18.67,280.00,5.00,0.00,30.04,M,6.00,M,CLR,M,M,M,M,M,M,M,HZ,M,M,M,M,M,M,80.08,KHTH 161615Z AUTO 28005KT 6SM HZ CLR 28/02 A3004 RMK A01,M
TMT,2021-08-16 16:15,-117.1971,39.4643,1749.34,70.70,36.50,28.54,0.00,0.00,0.00,30.18,M,10.00,M,CLR,M,M,M,M,M,M,M,M,M,M,M,M,M,M,70.70,KTMT 161615Z AUTO 00000KT 10SM CLR 22/03 A3018 RMK AO2 T02150025,M
MEV,2021-08-16 16:15,-119.7500,38.9963,1441.42,75.20,42.80,31.34,170.00,3.00,0.00,30.09,M,2.50,M,CLR,M,M,M,M,M,M,M,HZ,M,M,M,M,M,M,75.20,KMEV 161615Z AUTO 17003KT 2 1/2SM HZ CLR 24/06 A3009 RMK AO2,M
RTS,2021-08-16 16:15,-119.8764,39.6682,1539.00,77.00,39.20,25.67,0.00,0.00,0.00,30.11,M,3.00,M,CLR,M,M,M,M,M,M,M,HZ,M,M,M,M,M,M,77.00,KRTS 161615Z AUTO 00000KT 3SM HZ CLR 25/04 A3011 RMK AO2,M
CXP,2021-08-16 16:35,-119.7326,39.1923,1431.00,78.80,41.00,25.95,0.00,0.00,0.00,30.09,M,5.00,M,CLR,M,M,M,M,M,M,M,HZ,M,M,M,M,M,M,78.80,KCXP 161635Z AUTO 00000KT 5SM HZ CLR 26/05 A3009 RMK AO2,M
RTS,2021-08-16 16:35,-119.8764,39.6682,1539.00,78.80,37.40,22.54,0.00,0.00,0.00,30.11,M,3.00,M,CLR,M,M,M,M,M,M,M,HZ,M,M,M,M,M,M,78.80,KRTS 161635Z AUTO 00000KT 3SM HZ CLR 26/03 A3011 RMK AO2,M
MEV,2021-08-16 16:35,-119.7500,38.9963,1441.42,77.00,42.80,29.51,0.00,0.00,0.00,30.08,M,2.50,M,CLR,M,M,M,M,M,M,M,HZ,M,M,M,M,M,M,77.00,KMEV 161635Z AUTO 00000KT 2 1/2SM HZ CLR 25/06 A3008 RMK AO2,M
BAM,2021-08-16 16:35,-116.8743,40.5990,1382.36,82.40,30.20,15.03,80.00,5.00,0.00,30.06,M,7.00,M,CLR,M,M,M,M,M,M,M,M,M,M,M,M,M,M,79.97,KBAM 161635Z AUTO 08005KT 7SM CLR 28/M01 A3006 RMK AO1,M
BVU,2021-08-16 16:35,-114.8611,35.9475,671.00,91.40,62.60,38.45,0.00,0.00,0.00,29.88,M,10.00,M,CLR,M,M,M,M,M,M,M,M,M,M,M,M,M,M,92.23,KBVU 161635Z AUTO 00000KT 10SM CLR 33/17 A2988 RMK AO2,M
TMT,2021-08-16 16:35,-117.1971,39.4643,1749.34,75.40,37.00,24.74,260.00,3.00,0.00,30.18,M,10.00,M,CLR,M,M,M,M,M,M,M,M,M,M,M,M,M,M,75.40,KTMT 161635Z AUTO 26003KT 10SM CLR 24/03 A3018 RMK AO2 T02410027,M
HTH,2021-08-16 16:35,-118.6315,38.5448,1282.89,82.40,35.60,18.67,290.00,4.00,0.00,30.04,M,6.00,M,CLR,M,M,M,M,M,M,M,HZ,M,M,M,M,M,M,80.08,KHTH 161635Z AUTO 29004KT 6SM HZ CLR 28/02 A3004 RMK A01,M
LOL,2021-08-16 16:53,-118.5701,40.0684,1192.43,84.00,39.00,20.27,240.00,3.00,0.00,29.99,1011.00,4.00,M,CLR,M,M,M,M,M,M,M,HZ,M,M,M,M,M,M,81.29,KLOL 161653Z AUTO 24003KT 4SM HZ CLR 29/04 A2999 RMK AO2 SLP110 T02890039,M
VGT,2021-08-16 16:53,-115.1933,36.2111,667.00,95.00,63.00,34.87,110.00,4.00,0.00,29.87,1009.60,10.00,M,CLR,M,M,M,M,M,M,M,M,M,M,M,M,M,M,96.44,KVGT 161653Z 11004KT 10SM CLR 35/17 A2987 RMK AO2 SLP096 T03500172,M
ELY,2021-08-16 16:53,-114.8453,39.2950,1909.00,78.00,28.00,15.81,0.00,0.00,0.00,30.21,1012.00,6.00,M,CLR,M,M,M,M,M,M,M,HZ,M,M,M,M,M,M,78.10,KELY 161653Z AUTO 00000KT 6SM HZ CLR 26/M02 A3021 RMK AO2 SLP120 T02561022,M
P68,2021-08-16 16:53,-116.0056,39.6014,1993.00,79.00,32.00,18.06,0.00,0.00,0.00,30.18,1013.10,M,M,M,M,M,M,M,M,M,M,M,M,M,M,M,M,M,79.00,KP68 161653Z AUTO 00000KT 26/00 A3018 RMK AO1 SLP131 T02610000,M
RNO,2021-08-16 16:55,-119.7711,39.4839,1341.00,81.00,42.00,25.19,0.00,0.00,0.00,30.05,1010.80,2.50,M,BKN,M,M,M,3300.00,M,M,M,FU,M,M,M,M,M,M,79.49,KRNO 161655Z 00000KT 2 1/2SM FU BKN033 27/06 A3005 RMK AO2 TWR VIS 3 SLP108 FU BKN033 T02720056,M
TMT,2021-08-16 16:55,-117.1971,39.4643,1749.34,78.00,36.70,22.44,0.00,0.00,0.00,30.17,M,10.00,M,CLR,M,M,M,M,M,M,M,M,M,M,M,M,M,M,78.10,KTMT 161655Z AUTO 00000KT 10SM CLR 26/03 A3017 RMK AO2 T02560026,M
BAM,2021-08-16 16:55,-116.8743,40.5990,1382.36,86.00,30.20,13.38,80.00,4.00,0.00,30.05,M,7.00,M,CLR,M,M,M,M,M,M,M,M,M,M,M,M,M,M,82.64,KBAM 161655Z AUTO 08004KT 7SM CLR 30/M01 A3005 RMK AO1,M
HTH,2021-08-16 16:55,-118.6315,38.5448,1282.89,84.20,35.60,17.61,290.00,3.00,0.00,30.04,M,6.00,M,CLR,M,M,M,M,M,M,M,HZ,M,M,M,M,M,M,81.34,KHTH 161655Z AUTO 29003KT 6SM HZ CLR 29/02 A3004 RMK A01,M
RTS,2021-08-16 16:55,-119.8764,39.6682,1539.00,80.60,41.00,24.46,130.00,3.00,0.00,30.11,M,3.00,M,CLR,M,M,M,M,M,M,M,HZ,M,M,M,M,M,M,79.20,KRTS 161655Z AUTO 13003KT 3SM HZ CLR 27/05 A3011 RMK AO2,M
BVU,2021-08-16 16:55,-114.8611,35.9475,671.00,93.20,62.60,36.35,160.00,4.00,0.00,29.88,M,10.00,M,CLR,M,M,M,M,M,M,M,M,M,M,M,M,M,M,94.20,KBVU 161655Z AUTO 16004KT 10SM CLR 34/17 A2988 RMK AO2,M
CXP,2021-08-16 16:55,-119.7326,39.1923,1431.00,80.60,39.20,22.81,0.00,0.00,0.00,30.08,M,4.00,M,CLR,M,M,M,M,M,M,M,HZ,M,M,M,M,M,M,79.10,KCXP 161655Z AUTO 00000KT 4SM HZ CLR 27/04 A3008 RMK AO2,M
MEV,2021-08-16 16:55,-119.7500,38.9963,1441.42,78.80,46.40,31.90,M,3.00,0.00,30.08,M,2.50,M,CLR,M,M,M,M,M,M,M,HZ,M,M,M,M,M,M,78.80,KMEV 161655Z AUTO VRB03KT 2 1/2SM HZ CLR 26/08 A3008 RMK AO2,M
HND,2021-08-16 16:56,-115.1344,35.9729,742.79,95.00,62.00,33.79,M,5.00,0.00,29.91,1010.60,10.00,M,CLR,M,M,M,M,M,M,M,M,M,M,M,M,M,M,95.95,KHND 161656Z VRB05KT 10SM CLR 35/17 A2991 RMK AO2 SLP106 T03500167,M
EKO,2021-08-16 16:56,-115.7860,40.8242,1367.00,78.00,33.00,19.45,0.00,0.00,0.00,30.11,1013.30,5.00,M,CLR,M,M,M,M,M,M,M,HZ,M,M,M,M,M,M,78.10,KEKO 161656Z AUTO 00000KT 5SM HZ CLR 26/01 A3011 RMK AO2 SLP133 T02560006,M
NFL,2021-08-16 16:56,-118.7010,39.4166,1199.00,87.00,40.00,19.01,200.00,4.00,0.00,30.00,1012.90,4.00,M,OVC,M,M,M,4200.00,M,M,M,FU,M,M,M,M,M,M,83.68,KNFL 161656Z 20004KT 4SM FU OVC042 31/04 A3000 RMK AO2 SLP129 FU OVC042 T03060044,M
LAS,2021-08-16 16:56,-115.1634,36.0719,663.00,96.00,60.00,30.43,350.00,3.00,0.00,29.88,1008.30,10.00,M,CLR,M,M,M,M,M,M,M,M,M,M,M,M,M,M,96.21,KLAS 161656Z 35003KT 10SM CLR 36/16 A2988 RMK AO2 SLP083 T03560156,M
TPH,2021-08-16 16:56,-117.0904,38.0505,1654.00,86.00,27.00,11.74,160.00,3.00,0.00,30.14,1010.50,6.00,M,CLR,M,M,M,M,M,M,M,HZ,M,M,M,M,M,M,82.42,KTPH 161656Z AUTO 16003KT 6SM HZ CLR 30/M03 A3014 RMK AO2 SLP105 T03001028,M
WMC,2021-08-16 16:56,-117.8072,40.9019,1315.00,80.00,37.00,21.27,50.00,3.00,0.00,30.02,1011.20,5.00,M,CLR,M,M,M,M,M,M,M,HZ,M,M,M,M,M,M,78.81,KWMC 161656Z AUTO 05003KT 5SM HZ CLR 27/03 A3002 RMK AO2 SLP112 T02670028,M
INS,2021-08-16 16:58,-115.6733,36.5872,955.00,90.50,53.80,28.84,0.00,0.00,0.00,29.94,1008.10,10.00,M,CLR,M,M,M,M,M,M,M,M,M,M,M,M,M,M,88.25,KINS 161658Z AUTO 00000KT 10SM CLR 33/12 A2994 RMK AO2 SLP081 T03250121 $,M
LSV,2021-08-16 16:58,-115.0343,36.2362,570.00,94.30,63.00,35.76,130.00,5.00,0.00,29.84,1007.50,10.00,M,CLR,M,M,M,M,M,M,M,M,M,M,M,M,M,M,95.70,KLSV 161658Z AUTO 13005KT 10SM CLR 35/17 A2984 RMK AO2 SLP075 T03460173 $,M
HTH,2021-08-16 17:15,-118.6315,38.5448,1282.89,86.00,33.80,15.48,300.00,5.00,0.00,30.03,M,6.00,M,CLR,M,M,M,M,M,M,M,HZ,M,M,M,M,M,M,82.66,KHTH 161715Z AUTO 30005KT 6SM HZ CLR 30/01 A3003 RMK A01,M
RTS,2021-08-16 17:15,-119.8764,39.6682,1539.00,80.60,39.20,22.81,0.00,0.00,0.00,30.11,M,2.50,M,CLR,M,M,M,M,M,M,M,HZ,M,M,M,M,M,M,79.10,KRTS 161715Z AUTO 00000KT 2 1/2SM HZ CLR 27/04 A3011 RMK AO2,M
CXP,2021-08-16 17:15,-119.7326,39.1923,1431.00,82.40,39.20,21.51,0.00,0.00,0.00,30.08,M,4.00,M,CLR,M,M,M,M,M,M,M,HZ,M,M,M,M,M,M,80.21,KCXP 161715Z AUTO 00000KT 4SM HZ CLR 28/04 A3008 RMK AO2,M
BVU,2021-08-16 17:15,-114.8611,35.9475,671.00,95.00,62.60,34.39,0.00,0.00,0.00,29.88,M,10.00,M,CLR,M,M,M,M,M,M,M,M,M,M,M,M,M,M,96.22,KBVU 161715Z AUTO 00000KT 10SM CLR 35/17 A2988 RMK AO2,M
MEV,2021-08-16 17:15,-119.7500,38.9963,1441.42,78.80,48.20,34.13,0.00,0.00,0.00,30.07,M,3.00,M,CLR,M,M,M,M,M,M,M,HZ,M,M,M,M,M,M,78.80,KMEV 161715Z AUTO 00000KT 3SM HZ CLR 26/09 A3007 RMK AO2,M
TMT,2021-08-16 17:15,-117.1971,39.4643,1749.34,80.40,36.70,20.81,0.00,0.00,0.00,30.16,M,10.00,M,CLR,M,M,M,M,M,M,M,M,M,M,M,M,M,M,78.87,KTMT 161715Z AUTO 00000KT 10SM CLR 27/03 A3016 RMK AO2 T02690026,M
BAM,2021-08-16 17:15,-116.8743,40.5990,1382.36,87.80,30.20,12.64,70.00,6.00,0.00,30.05,M,7.00,M,CLR,M,M,M,M,M,M,M,M,M,M,M,M,M,M,84.01,KBAM 161715Z AUTO 07006KT 7SM CLR 31/M01 A3005 RMK AO1,M
CXP,2021-08-16 17:30,-119.7326,39.1923,1431.00,82.40,39.20,21.51,230.00,4.00,0.00,30.08,M,4.00,M,CLR,M,M,M,M,M,M,M,HZ,M,M,M,M,M,M,80.21,KCXP 161730Z AUTO 23004KT 4SM HZ CLR 28/04 A3008 RMK AO2,M
MEV,2021-08-16 17:35,-119.7500,38.9963,1441.42,82.40,44.60,26.49,0.00,0.00,0.00,30.07,M,3.00,M,CLR,M,M,M,M,M,M,M,HZ,M,M,M,M,M,M,80.50,KMEV 161735Z AUTO 00000KT 3SM HZ CLR 28/07 A3007 RMK AO2,M
TMT,2021-08-16 17:35,-117.1971,39.4643,1749.34,84.70,38.50,19.43,0.00,0.00,0.00,30.16,M,10.00,M,CLR,M,M,M,M,M,M,M,M,M,M,M,M,M,M,81.78,KTMT 161735Z AUTO 00000KT 10SM CLR 29/04 A3016 RMK AO2 T02930036,M
HTH,2021-08-16 17:35,-118.6315,38.5448,1282.89,87.80,33.80,14.61,310.00,6.00,0.00,30.03,M,6.00,M,CLR,M,M,M,M,M,M,M,HZ,M,M,M,M,M,M,84.10,KHTH 161735Z AUTO 31006KT 6SM HZ CLR 31/01 A3003 RMK A01,M
BAM,2021-08-16 17:35,-116.8743,40.5990,1382.36,89.60,30.20,11.94,60.00,5.00,0.00,30.04,M,7.00,M,CLR,M,M,M,M,M,M,M,M,M,M,M,M,M,M,85.34,KBAM 161735Z AUTO 06005KT 7SM CLR 32/M01 A3004 RMK AO1,M
RTS,2021-08-16 17:35,-119.8764,39.6682,1539.00,82.40,39.20,21.51,0.00,0.00,0.00,30.10,M,2.50,M,CLR,M,M,M,M,M,M,M,HZ,M,M,M,M,M,M,80.21,KRTS 161735Z AUTO 00000KT 2 1/2SM HZ CLR 28/04 A3010 RMK AO2,M
BVU,2021-08-16 17:35,-114.8611,35.9475,671.00,95.00,62.60,34.39,110.00,5.00,0.00,29.88,M,10.00,M,CLR,M,M,M,M,M,M,M,M,M,M,M,M,M,M,96.22,KBVU 161735Z AUTO 11005KT 10SM CLR 35/17 A2988 RMK AO2,M
RNO,2021-08-16 17:45,-119.7711,39.4839,1341.00,84.00,42.00,22.85,0.00,0.00,0.00,30.04,M,3.00,M,BKN,M,M,M,3300.00,M,M,M,FU,M,M,M,M,M,M,81.43,KRNO 161745Z 00000KT 3SM FU BKN033 29/06 A3004 RMK AO2 FU BKN033 T02890056,M
LOL,2021-08-16 17:53,-118.5701,40.0684,1192.43,90.00,39.00,16.74,M,4.00,0.00,29.98,1010.00,4.00,M,CLR,M,M,M,M,M,M,M,HZ,M,M,M,M,M,M,86.07,KLOL 161753Z AUTO VRB04KT 4SM HZ CLR 32/04 A2998 RMK AO2 SLP100 T03220039 10322 20133 58007,M
DRA,2021-08-16 17:53,-116.0278,36.6206,1009.00,96.00,50.00,21.07,250.00,8.00,0.00,29.94,1007.70,10.00,M,CLR,M,M,M,M,M,M,M,M,M,M,M,M,M,M,93.00,KDRA 161753Z AUTO 25008KT 190V320 10SM CLR 36/10 A2994 RMK AO2 SLP077 T03560100 10361 20250 58002,M
ELY,2021-08-16 17:53,-114.8453,39.2950,1909.00,85.00,27.00,12.16,M,4.00,0.00,30.19,1011.40,6.00,M,CLR,M,M,M,M,M,M,M,HZ,M,M,M,M,M,M,81.65,KELY 161753Z AUTO VRB04KT 6SM HZ CLR 29/M03 A3019 RMK AO2 SLP114 T02941028 10294 20078 58011,M
P68,2021-08-16 17:53,-116.0056,39.6014,1993.00,85.00,28.90,13.15,0.00,0.00,0.00,30.16,1012.20,M,M,M,M,M,M,M,M,M,M,M,M,M,M,M,M,M,81.78,KP68 161753Z AUTO 00000KT 29/M02 A3016 RMK AO1 SLP122 T02941017 10294 20117 58009,M
VGT,2021-08-16 17:53,-115.1933,36.2111,667.00,97.00,63.00,32.80,140.00,7.00,0.00,29.86,1009.40,10.00,M,CLR,M,M,M,M,M,M,M,M,M,M,M,M,M,M,98.74,KVGT 161753Z 14007KT 10SM CLR 36/17 A2986 RMK AO2 SLP094 T03610172 10361 20311 58000,M
BVU,2021-08-16 17:55,-114.8611,35.9475,671.00,95.00,62.60,34.39,0.00,0.00,0.00,29.87,M,10.00,M,CLR,M,M,M,M,M,M,M,M,M,M,M,M,M,M,96.22,KBVU 161755Z AUTO 00000KT 10SM CLR 35/17 A2987 RMK AO2,M
RNO,2021-08-16 17:55,-119.7711,39.4839,1341.00,85.00,42.00,22.20,40.00,3.00,0.00,30.04,1010.40,3.00,M,BKN,M,M,M,3300.00,M,M,M,FU,M,M,M,M,M,M,82.08,KRNO 161755Z 04003KT 3SM FU BKN033 29/06 A3004 RMK AO2 SLP104 FU BKN033 T02940056 10294 20189 58011,M
BAM,2021-08-16 17:55,-116.8743,40.5990,1382.36,91.40,30.20,11.28,80.00,4.00,0.00,30.04,M,7.00,M,CLR,M,M,M,M,M,M,M,M,M,M,M,M,M,M,86.71,KBAM 161755Z AUTO 08004KT 7SM CLR 33/M01 A3004 RMK AO1,M
CXP,2021-08-16 17:55,-119.7326,39.1923,1431.00,86.00,39.20,19.15,0.00,0.00,0.00,30.07,M,4.00,M,CLR,M,M,M,M,M,M,M,HZ,M,M,M,M,M,M,82.79,KCXP 161755Z AUTO 00000KT 4SM HZ CLR 30/04 A3007 RMK AO2,M
MEV,2021-08-16 17:55,-119.7500,38.9963,1441.42,84.20,41.00,21.76,0.00,0.00,0.00,30.06,M,2.50,M,CLR,M,M,M,M,M,M,M,HZ,M,M,M,M,M,M,81.52,KMEV 161755Z AUTO 00000KT 2 1/2SM HZ CLR 29/05 A3006 RMK AO2,M
TMT,2021-08-16 17:55,-117.1971,39.4643,1749.34,86.70,37.00,17.18,0.00,0.00,0.00,30.15,M,10.00,M,CLR,M,M,M,M,M,M,M,M,M,M,M,M,M,M,83.27,KTMT 161755Z AUTO 00000KT 10SM CLR 30/03 A3015 RMK AO2 T03040028 10304 20058,M
HTH,2021-08-16 17:55,-118.6315,38.5448,1282.89,89.60,35.60,14.83,330.00,4.00,0.00,30.02,M,6.00,M,CLR,M,M,M,M,M,M,M,HZ,M,M,M,M,M,M,85.62,KHTH 161755Z AUTO 33004KT 6SM HZ CLR 32/02 A3002 RMK A01,M
RTS,2021-08-16 17:55,-119.8764,39.6682,1539.00,84.20,39.20,20.29,M,4.00,0.00,30.10,M,2.50,M,CLR,M,M,M,M,M,M,M,HZ,M,M,M,M,M,M,81.44,KRTS 161755Z AUTO VRB04KT 2 1/2SM HZ CLR 29/04 A3010 RMK AO2,M
EKO,2021-08-16 17:56,-115.7860,40.8242,1367.00,86.00,30.90,13.77,0.00,0.00,0.00,30.09,1012.30,6.00,M,CLR,M,M,M,M,M,M,M,HZ,M,M,M,M,M,M,82.64,KEKO 161756Z AUTO 00000KT 6SM HZ CLR 30/M01 A3009 RMK AO2 SLP123 T03001006 10300 20111 58016,M
LAS,2021-08-16 17:56,-115.1634,36.0719,663.00,98.00,61.00,29.55,70.00,7.00,0.00,29.87,1008.20,10.00,M,CLR,M,M,M,M,M,M,M,M,M,M,M,M,M,M,98.92,KLAS 161756Z 07007KT 10SM CLR 37/16 A2987 RMK AO2 SLP082 T03670161 10367 20306 50001,M
WMC,2021-08-16 17:56,-117.8072,40.9019,1315.00,89.00,36.00,15.31,40.00,3.00,0.00,30.01,1010.30,5.00,M,CLR,M,M,M,M,M,M,M,HZ,M,M,M,M,M,M,85.21,KWMC 161756Z AUTO 04003KT 5SM HZ CLR 32/02 A3001 RMK AO2 SLP103 T03170022 10317 20133 58008,M
HND,2021-08-16 17:56,-115.1344,35.9729,742.79,97.00,61.00,30.56,0.00,0.00,0.00,29.91,1010.40,10.00,M,CLR,M,M,M,M,M,M,M,M,M,M,M,M,M,M,97.66,KHND 161756Z 00000KT 10SM CLR 36/16 A2991 RMK AO2 SLP104 T03610161 10361 20289 58000,M
TPH,2021-08-16 17:56,-117.0904,38.0505,1654.00,91.00,25.00,9.23,220.00,6.00,0.00,30.13,1010.00,6.00,M,CLR,M,M,M,M,M,M,M,HZ,M,M,M,M,M,M,85.93,KTPH 161756Z AUTO 22006KT 6SM HZ CLR 33/M04 A3013 RMK AO2 SLP100 T03281039 10328 20200 58007,M
NFL,2021-08-16 17:56,-118.7010,39.4166,1199.00,93.00,37.00,14.09,230.00,6.00,0.00,29.99,1012.50,3.00,M,OVC,M,M,M,3500.00,M,M,M,FU,M,M,M,M,M,M,88.63,KNFL 161756Z 23006KT 3SM FU OVC035 34/03 A2999 RMK AO2 SLP125 FU OVC035 T03390028 10339 20200 58007,M
LSV,2021-08-16 17:58,-115.0343,36.2362,570.00,96.00,63.00,33.83,100.00,4.00,0.00,29.84,1007.60,10.00,M,CLR,M,M,M,M,M,M,M,M,M,M,M,M,M,M,97.76,KLSV 161758Z AUTO 10004KT 10SM CLR 36/17 A2984 RMK AO2 SLP076 T03560173 10356 20298 58001 $,M
INS,2021-08-16 17:58,-115.6733,36.5872,955.00,93.20,52.20,25.00,0.00,0.00,0.00,29.93,1007.60,10.00,M,FEW,M,M,M,19000.00,M,M,M,M,M,M,M,M,M,M,90.54,KINS 161758Z AUTO 00000KT 10SM FEW190 34/11 A2993 RMK AO2 SLP076 T03400112 10340 20248 58004 $,M
BVU,2021-08-16 18:15,-114.8611,35.9475,671.00,96.80,60.80,30.53,M,4.00,0.00,29.87,M,10.00,M,CLR,M,M,M,M,M,M,M,M,M,M,M,M,M,M,97.33,KBVU 161815Z AUTO VRB04KT 10SM CLR 36/16 A2987 RMK AO2,M
RTS,2021-08-16 18:15,-119.8764,39.6682,1539.00,86.00,39.20,19.15,M,3.00,0.00,30.09,M,2.50,M,CLR,M,M,M,M,M,M,M,HZ,M,M,M,M,M,M,82.79,KRTS 161815Z AUTO VRB03KT 2 1/2SM HZ CLR 30/04 A3009 RMK AO2,M
MEV,2021-08-16 18:15,-119.7500,38.9963,1441.42,87.80,41.00,19.40,0.00,0.00,0.00,30.05,M,2.50,M,CLR,M,M,M,M,M,M,M,HZ,M,M,M,M,M,M,84.30,KMEV 161815Z AUTO 00000KT 2 1/2SM HZ CLR 31/05 A3005 RMK AO2,M
BAM,2021-08-16 18:15,-116.8743,40.5990,1382.36,95.00,32.00,10.85,0.00,0.00,0.00,30.03,M,7.00,M,CLR,M,M,M,M,M,M,M,M,M,M,M,M,M,M,89.71,KBAM 161815Z AUTO 00000KT 7SM CLR 35/00 A3003 RMK AO1,M
CXP,2021-08-16 18:15,-119.7326,39.1923,1431.00,87.80,39.20,18.09,0.00,0.00,0.00,30.06,M,4.00,M,CLR,M,M,M,M,M,M,M,HZ,M,M,M,M,M,M,84.22,KCXP 161815Z AUTO 00000KT 4SM HZ CLR 31/04 A3006 RMK AO2,M
HTH,2021-08-16 18:15,-118.6315,38.5448,1282.89,89.60,35.60,14.83,320.00,3.00,0.00,30.02,M,6.00,M,CLR,M,M,M,M,M,M,M,HZ,M,M,M,M,M,M,85.62,KHTH 161815Z AUTO 32003KT 6SM HZ CLR 32/02 A3002 RMK A01,M
BAM,2021-08-16 18:35,-116.8743,40.5990,1382.36,95.00,30.20,10.09,0.00,0.00,0.00,30.02,M,7.00,M,CLR,M,M,M,M,M,M,M,M,M,M,M,M,M,M,89.48,KBAM 161835Z AUTO 00000KT 7SM CLR 35/M01 A3002 RMK AO1,M
MEV,2021-08-16 18:35,-119.7500,38.9963,1441.42,89.60,41.00,18.33,0.00,0.00,0.00,30.04,M,2.00,M,CLR,M,M,M,M,M,M,M,HZ,M,M,M,M,M,M,85.82,KMEV 161835Z AUTO 00000KT 2SM HZ CLR 32/05 A3004 RMK AO2,M
RTS,2021-08-16 18:35,-119.8764,39.6682,1539.00,87.80,37.40,16.86,0.00,0.00,0.00,30.08,M,2.50,M,CLR,M,M,M,M,M,M,M,HZ,M,M,M,M,M,M,84.16,KRTS 161835Z AUTO 00000KT 2 1/2SM HZ CLR 31/03 A3008 RMK AO2,M
BVU,2021-08-16 18:35,-114.8611,35.9475,671.00,98.60,62.60,30.80,M,4.00,0.00,29.86,M,10.00,11.00,CLR,M,M,M,M,M,M,M,M,M,M,M,M,M,M,100.38,KBVU 161835Z AUTO VRB04G11KT 10SM CLR 37/17 A2986 RMK AO2,M
TMT,2021-08-16 18:35,-117.1971,39.4643,1749.34,91.40,36.30,14.41,290.00,4.00,0.00,30.13,M,10.00,M,CLR,M,M,M,M,M,M,M,M,M,M,M,M,M,M,87.19,KTMT 161835Z AUTO 29004KT 10SM CLR 33/02 A3013 RMK AO2 T03300024,M
CXP,2021-08-16 18:35,-119.7326,39.1923,1431.00,89.60,37.40,15.92,0.00,0.00,0.00,30.05,M,4.00,M,CLR,M,M,M,M,M,M,M,HZ,M,M,M,M,M,M,85.67,KCXP 161835Z AUTO 00000KT 4SM HZ CLR 32/03 A3005 RMK AO2,M
HTH,2021-08-16 18:35,-118.6315,38.5448,1282.89,91.40,35.60,14.02,0.00,0.00,0.00,30.01,M,6.00,M,CLR,M,M,M,M,M,M,M,HZ,M,M,M,M,M,M,87.17,KHTH 161835Z AUTO 00000KT 6SM HZ CLR 33/02 A3001 RMK A01,M
DRA,2021-08-16 18:53,-116.0278,36.6206,1009.00,99.00,50.00,19.28,M,M,0.00,29.93,1007.10,10.00,M,CLR,M,M,M,M,M,M,M,M,M,M,M,M,M,M,95.97,KDRA 161853Z AUTO 10SM CLR 37/10 A2993 RMK AO2 SLP071 T03720100,M
P68,2021-08-16 18:53,-116.0056,39.6014,1993.00,89.00,23.00,9.01,90.00,4.00,0.00,30.13,1011.00,M,M,M,M,M,M,M,M,M,M,M,M,M,M,M,M,M,84.38,KP68 161853Z AUTO 09004KT 32/M05 A3013 RMK AO1 SLP110 T03171050,M
ELY,2021-08-16 18:53,-114.8453,39.2950,1909.00,86.00,26.10,11.31,0.00,0.00,0.00,30.17,1011.10,6.00,M,CLR,M,M,M,M,M,M,M,HZ,M,M,M,M,M,M,82.35,KELY 161853Z AUTO 00000KT 6SM HZ CLR 30/M03 A3017 RMK AO2 SLP111 T03001033,M
LOL,2021-08-16 18:53,-118.5701,40.0684,1192.43,94.00,41.00,16.02,M,5.00,0.00,29.95,1009.20,4.00,M,CLR,M,M,M,M,M,M,M,HZ,M,M,M,M,M,M,89.68,KLOL 161853Z AUTO VRB05KT 4SM HZ CLR 34/05 A2995 RMK AO2 SLP092 T03440050,M
VGT,2021-08-16 18:53,-115.1933,36.2111,667.00,99.00,63.00,30.86,M,6.00,0.00,29.84,1008.80,10.00,M,CLR,M,M,M,M,M,M,M,M,M,M,M,M,M,M,101.09,KVGT 161853Z VRB06KT 10SM CLR 37/17 A2984 RMK AO2 SLP088 T03720172,M
TMT,2021-08-16 18:55,-117.1971,39.4643,1749.34,91.40,36.70,14.64,0.00,0.00,0.00,30.12,M,10.00,M,CLR,M,M,M,M,M,M,M,M,M,M,M,M,M,M,87.20,KTMT 161855Z AUTO 00000KT 10SM CLR 33/03 A3012 RMK AO2 T03300026,M
HTH,2021-08-16 18:55,-118.6315,38.5448,1282.89,93.20,33.80,12.34,M,5.00,0.00,29.99,M,6.00,M,CLR,M,M,M,M,M,M,M,HZ,M,M,M,M,M,M,88.55,KHTH 161855Z AUTO VRB05KT 6SM HZ CLR 34/01 A2999 RMK A01,M
BAM,2021-08-16 18:55,-116.8743,40.5990,1382.36,95.00,30.20,10.09,230.00,3.00,0.00,30.01,M,7.00,M,CLR,M,M,M,M,M,M,M,M,M,M,M,M,M,M,89.48,KBAM 161855Z AUTO 23003KT 7SM CLR 35/M01 A3001 RMK AO1,M
MEV,2021-08-16 18:55,-119.7500,38.9963,1441.42,91.40,41.00,17.32,0.00,0.00,0.00,30.03,M,2.00,M,CLR,M,M,M,M,M,M,M,HZ,M,M,M,M,M,M,87.40,KMEV 161855Z AUTO 00000KT 2SM HZ CLR 33/05 A3003 RMK AO2,M
BVU,2021-08-16 18:55,-114.8611,35.9475,671.00,98.60,62.60,30.80,110.00,9.00,0.00,29.85,M,10.00,M,CLR,M,M,M,M,M,M,M,M,M,M,M,M,M,M,100.38,KBVU 161855Z AUTO 11009KT 10SM CLR 37/17 A2985 RMK AO2,M
CXP,2021-08-16 18:55,-119.7326,39.1923,1431.00,91.40,37.40,15.05,0.00,0.00,0.00,30.04,M,4.00,M,CLR,M,M,M,M,M,M,M,HZ,M,M,M,M,M,M,87.23,KCXP 161855Z AUTO 00000KT 4SM HZ CLR 33/03 A3004 RMK AO2,M
RNO,2021-08-16 18:55,-119.7711,39.4839,1341.00,90.00,42.00,18.88,70.00,3.00,0.00,30.01,1009.30,3.00,M,BKN,M,M,M,3700.00,M,M,M,FU,M,M,M,M,M,M,86.23,KRNO 161855Z 07003KT 3SM FU BKN037 32/06 A3001 RMK AO2 SLP093 FU BKN037 T03220056,M
RTS,2021-08-16 18:55,-119.8764,39.6682,1539.00,89.60,37.40,15.92,M,5.00,0.00,30.07,M,2.50,M,CLR,M,M,M,M,M,M,M,HZ,M,M,M,M,M,M,85.67,KRTS 161855Z AUTO VRB05KT 2 1/2SM HZ CLR 32/03 A3007 RMK AO2,M
EKO,2021-08-16 18:56,-115.7860,40.8242,1367.00,91.00,33.00,12.85,260.00,3.00,0.00,30.06,1011.20,6.00,M,CLR,M,M,M,M,M,M,M,HZ,M,M,M,M,M,M,86.74,KEKO 161856Z AUTO 26003KT 6SM HZ CLR 33/01 A3006 RMK AO2 SLP112 T03280006,M
HND,2021-08-16 18:56,-115.1344,35.9729,742.79,101.00,60.00,26.30,0.00,0.00,0.00,29.89,1009.60,10.00,M,CLR,M,M,M,M,M,M,M,M,M,M,M,M,M,M,101.68,KHND 161856Z 00000KT 10SM CLR 38/16 A2989 RMK AO2 SLP096 T03830156,M
WMC,2021-08-16 18:56,-117.8072,40.9019,1315.00,94.00,36.00,13.17,260.00,4.00,0.00,29.98,1008.90,5.00,M,CLR,M,M,M,M,M,M,M,HZ,M,M,M,M,M,M,89.40,KWMC 161856Z AUTO 26004KT 5SM HZ CLR 34/02 A2998 RMK AO2 SLP089 T03440022,M
TPH,2021-08-16 18:56,-117.0904,38.0505,1654.00,92.00,24.10,8.64,M,4.00,0.00,30.10,1009.10,6.00,M,CLR,M,M,M,M,M,M,M,HZ,M,M,M,M,M,M,86.53,KTPH 161856Z AUTO VRB04KT 6SM HZ CLR 33/M04 A3010 RMK AO2 SLP091 T03331044,M
LAS,2021-08-16 18:56,-115.1634,36.0719,663.00,99.00,60.00,27.85,0.00,0.00,0.00,29.86,1007.60,10.00,M,FEW,M,M,M,14000.00,M,M,M,M,M,M,M,M,M,M,99.50,KLAS 161856Z 00000KT 10SM FEW140 37/16 A2986 RMK AO2 SLP076 T03720156,M
NFL,2021-08-16 18:56,-118.7010,39.4166,1199.00,96.00,36.00,12.31,0.00,0.00,0.00,29.96,1011.60,3.00,M,OVC,M,M,M,4000.00,M,M,M,FU,M,M,M,M,M,M,91.21,KNFL 161856Z 00000KT 3SM FU OVC040 36/02 A2996 RMK AO2 SLP116 FU OVC040 T03560022,M
INS,2021-08-16 18:58,-115.6733,36.5872,955.00,96.60,51.40,21.85,0.00,0.00,0.00,29.91,1007.00,10.00,M,CLR,M,M,M,M,M,M,M,M,M,M,M,M,M,M,93.82,KINS 161858Z AUTO 00000KT 10SM CLR 36/11 A2991 RMK AO2 SLP070 T03590108 $,M
LSV,2021-08-16 18:58,-115.0343,36.2362,570.00,98.20,61.30,29.78,0.00,0.00,0.00,29.82,1006.80,10.00,M,CLR,M,M,M,M,M,M,M,M,M,M,M,M,M,M,99.19,KLSV 161858Z AUTO 00000KT 10SM CLR 37/16 A2982 RMK AO2 SLP068 T03680163 $,M
MEV,2021-08-16 19:15,-119.7500,38.9963,1441.42,93.20,42.80,17.55,M,3.00,0.00,30.02,M,2.00,M,CLR,M,M,M,M,M,M,M,HZ,M,M,M,M,M,M,89.17,KMEV 161915Z AUTO VRB03KT 2SM HZ CLR 34/06 A3002 RMK AO2,M
CXP,2021-08-16 19:15,-119.7326,39.1923,1431.00,93.20,33.80,12.34,0.00,0.00,0.00,30.03,M,4.00,M,CLR,M,M,M,M,M,M,M,HZ,M,M,M,M,M,M,88.55,KCXP 161915Z AUTO 00000KT 4SM HZ CLR 34/01 A3003 RMK AO2,M
BAM,2021-08-16 19:15,-116.8743,40.5990,1382.36,96.80,30.20,9.55,0.00,0.00,0.00,30.00,M,7.00,M,CLR,M,M,M,M,M,M,M,M,M,M,M,M,M,M,90.96,KBAM 161915Z AUTO 00000KT 7SM CLR 36/M01 A3000 RMK AO1,M
BVU,2021-08-16 19:15,-114.8611,35.9475,671.00,100.40,62.60,29.17,110.00,8.00,0.00,29.84,M,10.00,13.00,CLR,M,M,M,M,M,M,M,M,M,M,M,M,M,M,102.50,KBVU 161915Z AUTO 11008G13KT 10SM CLR 38/17 A2984 RMK AO2,M
TMT,2021-08-16 19:15,-117.1971,39.4643,1749.34,91.60,35.00,13.66,310.00,3.00,0.00,30.12,M,10.00,M,CLR,M,M,M,M,M,M,M,M,M,M,M,M,M,M,87.33,KTMT 161915Z AUTO 31003KT 10SM CLR 33/02 A3012 RMK AO2 T03310017,M
HTH,2021-08-16 19:15,-118.6315,38.5448,1282.89,95.00,35.60,12.53,340.00,6.00,0.00,29.99,M,6.00,M,CLR,M,M,M,M,M,M,M,HZ,M,M,M,M,M,M,90.25,KHTH 161915Z AUTO 34006KT 6SM HZ CLR 35/02 A2999 RMK A01,M
RTS,2021-08-16 19:15,-119.8764,39.6682,1539.00,91.40,37.40,15.05,M,4.00,0.00,30.06,M,3.00,M,CLR,M,M,M,M,M,M,M,HZ,M,M,M,M,M,M,87.23,KRTS 161915Z AUTO VRB04KT 3SM HZ CLR 33/03 A3006 RMK AO2,M
HTH,2021-08-16 19:35,-118.6315,38.5448,1282.89,95.00,33.80,11.67,30.00,4.00,0.00,29.97,M,6.00,M,CLR,M,M,M,M,M,M,M,HZ,M,M,M,M,M,M,89.97,KHTH 161935Z AUTO 03004KT 6SM HZ CLR 35/01 A2997 RMK A01,M
TMT,2021-08-16 19:35,-117.1971,39.4643,1749.34,92.30,34.70,13.15,290.00,3.00,0.00,30.10,M,10.00,M,CLR,M,M,M,M,M,M,M,M,M,M,M,M,M,M,87.94,KTMT 161935Z AUTO 29003KT 10SM CLR 34/02 A3010 RMK AO2 T03350015,M
BAM,2021-08-16 19:35,-116.8743,40.5990,1382.36,98.60,32.00,9.72,0.00,0.00,0.00,29.99,M,7.00,M,CLR,M,M,M,M,M,M,M,M,M,M,M,M,M,M,92.69,KBAM 161935Z AUTO 00000KT 7SM CLR 37/00 A2999 RMK AO1,M
RTS,2021-08-16 19:35,-119.8764,39.6682,1539.00,93.20,35.60,13.25,240.00,4.00,0.00,30.05,M,3.00,M,CLR,M,M,M,M,M,M,M,HZ,M,M,M,M,M,M,88.76,KRTS 161935Z AUTO 24004KT 3SM HZ CLR 34/02 A3005 RMK AO2,M
MEV,2021-08-16 19:35,-119.7500,38.9963,1441.42,93.20,42.80,17.55,0.00,0.00,0.00,30.00,M,2.00,M,CLR,M,M,M,M,M,M,M,HZ,M,M,M,M,M,M,89.17,KMEV 161935Z AUTO 00000KT 2SM HZ CLR 34/06 A3000 RMK AO2,M
CXP,2021-08-16 19:35,-119.7326,39.1923,1431.00,95.00,35.60,12.53,0.00,0.00,0.00,30.02,M,4.00,M,CLR,M,M,M,M,M,M,M,HZ,M,M,M,M,M,M,90.25,KCXP 161935Z AUTO 00000KT 4SM HZ CLR 35/02 A3002 RMK AO2,M
BVU,2021-08-16 19:35,-114.8611,35.9475,671.00,98.60,62.60,30.80,80.00,6.00,0.00,29.84,M,10.00,13.00,CLR,M,M,M,M,M,M,M,M,M,M,M,M,M,M,100.38,KBVU 161935Z AUTO 08006G13KT 10SM CLR 37/17 A2984 RMK AO2,M
DRA,2021-08-16 19:53,-116.0278,36.6206,1009.00,100.00,49.00,17.96,M,4.00,0.00,29.90,1006.10,10.00,M,CLR,M,M,M,M,M,M,M,M,M,M,M,M,M,M,96.75,KDRA 161953Z AUTO VRB04KT 10SM CLR 38/09 A2990 RMK AO2 SLP061 T03780094,M
ELY,2021-08-16 19:53,-114.8453,39.2950,1909.00,90.00,26.10,9.96,350.00,5.00,0.00,30.14,1009.90,7.00,M,CLR,M,M,M,M,M,M,M,M,M,M,M,M,M,M,85.27,KELY 161953Z AUTO 35005KT 7SM CLR 32/M03 A3014 RMK AO2 SLP099 T03221033,M
LOL,2021-08-16 19:53,-118.5701,40.0684,1192.43,98.00,39.00,13.03,M,3.00,0.00,29.92,1008.10,4.00,M,CLR,M,M,M,M,M,M,M,HZ,M,M,M,M,M,M,93.42,KLOL 161953Z AUTO VRB03KT 4SM HZ CLR 37/04 A2992 RMK AO2 SLP081 T03670039,M
VGT,2021-08-16 19:53,-115.1933,36.2111,667.00,100.00,61.00,27.90,M,3.00,0.00,29.82,1007.90,10.00,M,CLR,M,M,M,M,M,M,M,M,M,M,M,M,M,M,101.12,KVGT 161953Z VRB03KT 10SM CLR 38/16 A2982 RMK AO2 SLP079 T03780161,M
P68,2021-08-16 19:53,-116.0056,39.6014,1993.00,93.00,28.90,10.18,10.00,7.00,0.00,30.11,1009.80,M,M,M,M,M,M,M,M,M,M,M,M,M,M,M,M,M,87.79,KP68 161953Z AUTO 01007KT 34/M02 A3011 RMK AO1 SLP098 T03391017,M
TMT,2021-08-16 19:55,-117.1971,39.4643,1749.34,94.30,35.40,12.71,230.00,4.00,0.00,30.10,M,10.00,M,CLR,M,M,M,M,M,M,M,M,M,M,M,M,M,M,89.66,KTMT 161955Z AUTO 23004KT 10SM CLR 35/02 A3010 RMK AO2 T03460019,M
HTH,2021-08-16 19:55,-118.6315,38.5448,1282.89,96.80,33.80,11.04,350.00,5.00,0.00,29.96,M,6.00,M,CLR,M,M,M,M,M,M,M,HZ,M,M,M,M,M,M,91.44,KHTH 161955Z AUTO 35005KT 6SM HZ CLR 36/01 A2996 RMK A01,M
BAM,2021-08-16 19:55,-116.8743,40.5990,1382.36,98.60,32.00,9.72,0.00,0.00,0.00,29.97,M,7.00,M,CLR,M,M,M,M,M,M,M,M,M,M,M,M,M,M,92.69,KBAM 161955Z AUTO 00000KT 7SM CLR 37/00 A2997 RMK AO1,M
MEV,2021-08-16 19:55,-119.7500,38.9963,1441.42,95.00,41.00,15.49,0.00,0.00,0.00,30.00,M,2.50,M,CLR,M,M,M,M,M,M,M,HZ,M,M,M,M,M,M,90.70,KMEV 161955Z AUTO 00000KT 2 1/2SM HZ CLR 35/05 A3000 RMK AO2,M
RTS,2021-08-16 19:55,-119.8764,39.6682,1539.00,93.20,35.60,13.25,M,3.00,0.00,30.04,M,2.50,M,CLR,M,M,M,M,M,M,M,HZ,M,M,M,M,M,M,88.76,KRTS 161955Z AUTO VRB03KT 2 1/2SM HZ CLR 34/02 A3004 RMK AO2,M
RNO,2021-08-16 19:55,-119.7711,39.4839,1341.00,95.00,41.00,15.49,M,4.00,0.00,29.98,1008.10,3.00,M,BKN,M,M,M,3500.00,M,M,M,FU,M,M,M,M,M,M,90.70,KRNO 161955Z VRB04KT 3SM FU BKN035 35/05 A2998 RMK AO2 SLP081 FU BKN035 T03500050,M
CXP,2021-08-16 19:55,-119.7326,39.1923,1431.00,96.80,35.60,11.86,220.00,4.00,0.00,30.01,M,4.00,M,CLR,M,M,M,M,M,M,M,HZ,M,M,M,M,M,M,91.72,KCXP 161955Z AUTO 22004KT 4SM HZ CLR 36/02 A3001 RMK AO2,M
BVU,2021-08-16 19:55,-114.8611,35.9475,671.00,100.40,62.60,29.17,100.00,5.00,0.00,29.83,M,10.00,10.00,CLR,M,M,M,M,M,M,M,M,M,M,M,M,M,M,102.50,KBVU 161955Z AUTO 10005G10KT 10SM CLR 38/17 A2983 RMK AO2,M
NFL,2021-08-16 19:56,-118.7010,39.4166,1199.00,99.00,35.00,10.87,170.00,3.00,0.00,29.93,1010.70,3.00,M,BKN,M,M,M,3800.00,M,M,M,FU,M,M,M,M,M,M,93.48,KNFL 161956Z 17003KT 3SM FU BKN038 37/02 A2993 RMK AO2 SLP107 FU BKN038 T03720017,M
TPH,2021-08-16 19:56,-117.0904,38.0505,1654.00,96.00,24.10,7.59,M,3.00,0.00,30.08,1008.10,6.00,M,CLR,M,M,M,M,M,M,M,HZ,M,M,M,M,M,M,89.76,KTPH 161956Z AUTO VRB03KT 6SM HZ CLR 36/M04 A3008 RMK AO2 SLP081 T03561044,M
WMC,2021-08-16 19:56,-117.8072,40.9019,1315.00,98.00,37.00,12.05,0.00,0.00,0.00,29.94,1007.70,5.00,M,CLR,M,M,M,M,M,M,M,HZ,M,M,M,M,M,M,93.05,KWMC 161956Z AUTO 00000KT 5SM HZ CLR 37/03 A2994 RMK AO2 SLP077 T03670028,M
LAS,2021-08-16 19:56,-115.1634,36.0719,663.00,102.00,60.00,25.44,110.00,8.00,0.00,29.83,1006.70,10.00,M,FEW,M,M,M,14000.00,M,M,M,M,M,M,M,M,M,M,102.95,KLAS 161956Z 11008KT 10SM FEW140 39/16 A2983 RMK AO2 SLP067 T03890156,M
EKO,2021-08-16 19:56,-115.7860,40.8242,1367.00,95.00,32.00,10.85,M,4.00,0.00,30.02,1009.70,7.00,M,CLR,M,M,M,M,M,M,M,M,M,M,M,M,M,M,89.71,KEKO 161956Z AUTO VRB04KT 7SM CLR 35/00 A3002 RMK AO2 SLP097 T03500000,M
HND,2021-08-16 19:56,-115.1344,35.9729,742.79,101.00,62.00,28.23,10.00,4.00,0.00,29.86,1008.90,10.00,M,CLR,M,M,M,M,M,M,M,M,M,M,M,M,M,M,102.79,KHND 161956Z 01004KT 10SM CLR 38/17 A2986 RMK AO2 SLP089 T03830167,M
LSV,2021-08-16 19:58,-115.0343,36.2362,570.00,101.50,59.00,24.83,0.00,0.00,0.00,29.80,1006.10,10.00,M,CLR,M,M,M,M,M,M,M,M,M,M,M,M,M,M,101.82,KLSV 161958Z AUTO 00000KT 10SM CLR 39/15 A2980 RMK AO2 SLP061 T03860150 $,M
INS,2021-08-16 19:58,-115.6733,36.5872,955.00,99.00,51.00,19.94,0.00,0.00,0.00,29.88,1005.90,10.00,M,CLR,M,M,M,M,M,M,M,M,M,M,M,M,M,M,96.19,KINS 161958Z AUTO 00000KT 10SM CLR 37/11 A2988 RMK AO2 SLP059 T03720105 $,M
HTH,2021-08-16 20:15,-118.6315,38.5448,1282.89,98.60,32.00,9.72,310.00,4.00,0.00,29.95,M,6.00,M,CLR,M,M,M,M,M,M,M,HZ,M,M,M,M,M,M,92.69,KHTH 162015Z AUTO 31004KT 6SM HZ CLR 37/00 A2995 RMK A01,M
BVU,2021-08-16 20:15,-114.8611,35.9475,671.00,100.40,60.80,27.37,60.00,7.00,0.00,29.82,M,10.00,M,CLR,M,M,M,M,M,M,M,M,M,M,M,M,M,M,101.47,KBVU 162015Z AUTO 06007KT 10SM CLR 38/16 A2982 RMK AO2,M
TMT,2021-08-16 20:15,-117.1971,39.4643,1749.34,93.60,34.50,12.53,160.00,3.00,0.00,30.09,M,10.00,M,CLR,M,M,M,M,M,M,M,M,M,M,M,M,M,M,88.96,KTMT 162015Z AUTO 16003KT 10SM CLR 34/01 A3009 RMK AO2 T03420014,M
CXP,2021-08-16 20:15,-119.7326,39.1923,1431.00,96.80,35.60,11.86,M,4.00,0.00,30.00,M,2.50,M,CLR,M,M,M,M,M,M,M,HZ,M,M,M,M,M,M,91.72,KCXP 162015Z AUTO VRB04KT 2 1/2SM HZ CLR 36/02 A3000 RMK AO2,M
RTS,2021-08-16 20:15,-119.8764,39.6682,1539.00,95.00,35.60,12.53,0.00,0.00,0.00,30.03,M,3.00,M,CLR,M,M,M,M,M,M,M,HZ,M,M,M,M,M,M,90.25,KRTS 162015Z AUTO 00000KT 3SM HZ CLR 35/02 A3003 RMK AO2,M
MEV,2021-08-16 20:15,-119.7500,38.9963,1441.42,96.80,37.40,12.73,M,6.00,0.00,29.99,M,2.00,M,CLR,M,M,M,M,M,M,M,HZ,M,M,M,M,M,M,92.04,KMEV 162015Z AUTO VRB06KT 2SM HZ CLR 36/03 A2999 RMK AO2,M
BAM,2021-08-16 20:15,-116.8743,40.5990,1382.36,100.40,32.00,9.21,230.00,5.00,0.00,29.97,M,7.00,M,CLR,M,M,M,M,M,M,M,M,M,M,M,M,M,M,94.21,KBAM 162015Z AUTO 23005KT 7SM CLR 38/00 A2997 RMK AO1,M
HTH,2021-08-16 20:35,-118.6315,38.5448,1282.89,98.60,33.80,10.45,330.00,6.00,0.00,29.94,M,6.00,M,CLR,M,M,M,M,M,M,M,HZ,M,M,M,M,M,M,92.94,KHTH 162035Z AUTO 33006KT 6SM HZ CLR 37/01 A2994 RMK A01,M
BVU,2021-08-16 20:35,-114.8611,35.9475,671.00,100.40,59.00,25.67,70.00,8.00,0.00,29.81,M,10.00,M,CLR,M,M,M,M,M,M,M,M,M,M,M,M,M,M,100.57,KBVU 162035Z AUTO 07008KT 10SM CLR 38/15 A2981 RMK AO2,M
CXP,2021-08-16 20:35,-119.7326,39.1923,1431.00,98.60,33.80,10.45,290.00,13.00,0.00,29.99,M,2.50,19.00,CLR,M,M,M,M,M,M,M,HZ,M,M,M,M,M,M,92.94,KCXP 162035Z AUTO 29013G19KT 2 1/2SM HZ CLR 37/01 A2999 RMK AO2,M
RTS,2021-08-16 20:35,-119.8764,39.6682,1539.00,93.20,33.80,12.34,0.00,0.00,0.00,30.02,M,3.00,M,CLR,M,M,M,M,M,M,M,HZ,M,M,M,M,M,M,88.55,KRTS 162035Z AUTO 00000KT 3SM HZ CLR 34/01 A3002 RMK AO2,M
MEV,2021-08-16 20:35,-119.7500,38.9963,1441.42,98.60,41.00,13.87,310.00,14.00,0.00,29.98,M,1.25,M,CLR,M,M,M,M,M,M,M,HZ,M,M,M,M,M,M,94.09,KMEV 162035Z AUTO 31014KT 1 1/4SM HZ CLR 37/05 A2998 RMK AO2,M
BAM,2021-08-16 20:35,-116.8743,40.5990,1382.36,100.40,32.00,9.21,260.00,6.00,0.00,29.96,M,7.00,M,CLR,M,M,M,M,M,M,M,M,M,M,M,M,M,M,94.21,KBAM 162035Z AUTO 26006KT 7SM CLR 38/00 A2996 RMK AO1,M
TMT,2021-08-16 20:35,-117.1971,39.4643,1749.34,96.00,35.20,12.00,140.00,6.00,0.00,30.08,M,10.00,M,CLR,M,M,M,M,M,M,M,M,M,M,M,M,M,M,90.92,KTMT 162035Z AUTO 14006KT 10SM CLR 36/02 A3008 RMK AO2 T03550018,M
ELY,2021-08-16 20:53,-114.8453,39.2950,1909.00,92.00,25.00,8.97,30.00,7.00,0.00,30.12,1009.00,9.00,M,CLR,M,M,M,M,M,M,M,M,M,M,M,M,M,M,86.60,KELY 162053Z AUTO 03007KT 360V080 9SM CLR 33/M04 A3012 RMK AO2 SLP090 T03331039 58021,M
DRA,2021-08-16 20:53,-116.0278,36.6206,1009.00,102.00,49.00,16.91,M,M,0.00,29.88,1005.40,10.00,M,CLR,M,M,M,M,M,M,M,M,M,M,M,M,M,M,98.79,KDRA 162053Z AUTO 10SM CLR 39/09 A2988 RMK AO2 SLP054 T03890094 58020,M
VGT,2021-08-16 20:53,-115.1933,36.2111,667.00,104.00,58.00,22.15,140.00,5.00,0.00,29.79,1006.90,10.00,M,CLR,M,M,M,M,M,M,M,M,M,M,M,M,M,M,104.13,KVGT 162053Z 14005KT 10SM CLR 40/14 A2979 RMK AO2 SLP069 T04000144 58022,M
P68,2021-08-16 20:53,-116.0056,39.6014,1993.00,92.00,27.00,9.75,100.00,7.00,0.00,30.08,1009.30,M,M,M,M,M,M,M,M,M,M,M,M,M,M,M,M,M,86.77,KP68 162053Z AUTO 10007KT 33/M03 A3008 RMK AO1 SLP093 T03331028 56021,M
BVU,2021-08-16 20:55,-114.8611,35.9475,671.00,102.20,59.00,24.32,90.00,7.00,0.00,29.80,M,10.00,M,CLR,M,M,M,M,M,M,M,M,M,M,M,M,M,M,102.62,KBVU 162055Z AUTO 09007KT 10SM CLR 39/15 A2980 RMK AO2,M
BAM,2021-08-16 20:55,-116.8743,40.5990,1382.36,100.40,32.00,9.21,360.00,4.00,0.00,29.95,M,7.00,M,CLR,M,M,M,M,M,M,M,M,M,M,M,M,M,M,94.21,KBAM 162055Z AUTO 36004KT 7SM CLR 38/00 A2995 RMK AO1,M
RTS,2021-08-16 20:55,-119.8764,39.6682,1539.00,93.20,33.80,12.34,0.00,0.00,0.00,30.02,M,3.00,M,CLR,M,M,M,M,M,M,M,HZ,M,M,M,M,M,M,88.55,KRTS 162055Z AUTO 00000KT 3SM HZ CLR 34/01 A3002 RMK AO2,M
MEV,2021-08-16 20:55,-119.7500,38.9963,1441.42,98.60,39.20,12.94,290.00,13.00,0.00,29.98,M,1.25,M,CLR,M,M,M,M,M,M,M,HZ,M,M,M,M,M,M,93.89,KMEV 162055Z AUTO 29013KT 1 1/4SM HZ CLR 37/04 A2998 RMK AO2,M
TMT,2021-08-16 20:55,-117.1971,39.4643,1749.34,95.00,35.20,12.34,200.00,5.00,0.00,30.07,M,10.00,M,CLR,M,M,M,M,M,M,M,M,M,M,M,M,M,M,90.19,KTMT 162055Z AUTO 20005KT 10SM CLR 35/02 A3007 RMK AO2 T03500018,M
RNO,2021-08-16 20:55,-119.7711,39.4839,1341.00,98.00,40.00,13.50,120.00,3.00,0.00,29.94,1006.90,3.00,M,BKN,M,M,M,3600.00,M,M,M,FU,M,M,M,M,M,M,93.51,KRNO 162055Z 12003KT 3SM FU BKN036 37/04 A2994 RMK AO2 SLP069 FU BKN036 T03670044 58027,M
HTH,2021-08-16 20:55,-118.6315,38.5448,1282.89,100.40,32.00,9.21,M,5.00,0.00,29.93,M,6.00,M,CLR,M,M,M,M,M,M,M,HZ,M,M,M,M,M,M,94.21,KHTH 162055Z AUTO VRB05KT 6SM HZ CLR 38/M00 A2993 RMK A01,M
CXP,2021-08-16 20:55,-119.7326,39.1923,1431.00,98.60,32.00,9.72,280.00,11.00,0.00,29.99,M,3.00,20.00,CLR,M,M,M,M,M,M,M,HZ,M,M,M,M,M,M,92.69,KCXP 162055Z AUTO 28011G20KT 250V310 3SM HZ CLR 37/00 A2999 RMK AO2,M
TPH,2021-08-16 20:56,-117.0904,38.0505,1654.00,97.00,25.00,7.66,120.00,5.00,0.00,30.05,1007.30,7.00,M,CLR,M,M,M,M,M,M,M,M,M,M,M,M,M,M,90.58,KTPH 162056Z AUTO 12005KT 7SM CLR 36/M04 A3005 RMK AO2 SLP073 T03611039 56021,M
NFL,2021-08-16 20:56,-118.7010,39.4166,1199.00,101.00,35.00,10.27,0.00,0.00,0.00,29.90,1009.90,3.00,M,BKN,M,M,M,4000.00,M,M,M,FU,M,M,M,M,M,M,95.10,KNFL 162056Z 00000KT 3SM FU BKN040 38/02 A2990 RMK AO2 SLP099 FU BKN040 T03830017 56026,M
HND,2021-08-16 20:56,-115.1344,35.9729,742.79,104.00,62.00,25.73,M,5.00,0.00,29.84,1007.90,10.00,M,CLR,M,M,M,M,M,M,M,M,M,M,M,M,M,M,106.45,KHND 162056Z VRB05KT 10SM CLR 40/17 A2984 RMK AO2 SLP079 T04000167 58022,M
EKO,2021-08-16 20:56,-115.7860,40.8242,1367.00,96.00,35.00,11.88,230.00,4.00,0.00,30.00,1009.00,7.00,M,CLR,M,M,M,M,M,M,M,M,M,M,M,M,M,M,91.07,KEKO 162056Z AUTO 23004KT 7SM CLR 36/02 A3000 RMK AO2 SLP090 T03560017 56028,M
LAS,2021-08-16 20:56,-115.1634,36.0719,663.00,103.00,57.00,22.16,M,4.00,0.00,29.80,1005.60,10.00,M,FEW,M,M,M,14000.00,M,M,M,M,M,M,M,M,M,M,102.48,KLAS 162056Z VRB04KT 10SM FEW140 39/14 A2980 RMK AO2 SLP056 T03940139 58024,M
WMC,2021-08-16 20:56,-117.8072,40.9019,1315.00,102.00,37.00,10.71,240.00,8.00,0.00,29.91,1006.80,4.00,M,CLR,M,M,M,M,M,M,M,HZ,M,M,M,M,M,M,96.38,KWMC 162056Z AUTO 24008KT 4SM HZ CLR 39/03 A2991 RMK AO2 SLP068 T03890028 58028 $,M
INS,2021-08-16 20:58,-115.6733,36.5872,955.00,102.20,49.00,16.93,140.00,11.00,0.00,29.86,1005.00,10.00,17.00,CLR,M,M,M,M,M,M,M,M,M,M,M,M,M,M,99.05,KINS 162058Z AUTO 14011G17KT 10SM CLR 39/10 A2986 RMK AO2 SLP050 T03900095 57023 $,M
LSV,2021-08-16 20:58,-115.0343,36.2362,570.00,102.70,55.20,20.89,160.00,3.00,0.00,29.77,1005.10,10.00,M,CLR,M,M,M,M,M,M,M,M,M,M,M,M,M,M,101.51,KLSV 162058Z AUTO 16003KT 10SM CLR 39/13 A2977 RMK AO2 SLP051 T03930129 57023 $,M
CXP,2021-08-16 21:10,-119.7326,39.1923,1431.00,98.60,32.00,9.72,270.00,10.00,0.00,29.98,M,4.00,17.00,CLR,M,M,M,M,M,M,M,HZ,M,M,M,M,M,M,92.69,KCXP 162110Z AUTO 27010G17KT 250V310 4SM HZ CLR 37/00 A2998 RMK AO2,M
BVU,2021-08-16 21:15,-114.8611,35.9475,671.00,102.20,57.20,22.79,160.00,7.00,0.00,29.79,M,10.00,M,CLR,M,M,M,M,M,M,M,M,M,M,M,M,M,M,101.78,KBVU 162115Z AUTO 16007KT 10SM CLR 39/14 A2979 RMK AO2,M
BAM,2021-08-16 21:15,-116.8743,40.5990,1382.36,102.20,32.00,8.72,260.00,10.00,0.00,29.94,M,7.00,M,CLR,M,M,M,M,M,M,M,M,M,M,M,M,M,M,95.74,KBAM 162115Z AUTO 26010KT 200V270 7SM CLR 39/00 A2994 RMK AO1,M
TMT,2021-08-16 21:15,-117.1971,39.4643,1749.34,94.60,35.20,12.49,120.00,4.00,0.00,30.06,M,10.00,M,CLR,M,M,M,M,M,M,M,M,M,M,M,M,M,M,89.87,KTMT 162115Z AUTO 12004KT 10SM CLR 35/02 A3006 RMK AO2 T03480018,M
MEV,2021-08-16 21:15,-119.7500,38.9963,1441.42,98.60,37.40,12.05,280.00,16.00,0.00,29.97,M,1.75,M,CLR,M,M,M,M,M,M,M,HZ,M,M,M,M,M,M,93.54,KMEV 162115Z AUTO 28016KT 1 3/4SM HZ CLR 37/03 A2997 RMK AO2,M
RTS,2021-08-16 21:15,-119.8764,39.6682,1539.00,93.20,35.60,13.25,130.00,4.00,0.00,30.01,M,3.00,M,CLR,M,M,M,M,M,M,M,HZ,M,M,M,M,M,M,88.76,KRTS 162115Z AUTO 13004KT 3SM HZ CLR 34/02 A3001 RMK AO2,M
HTH,2021-08-16 21:15,-118.6315,38.5448,1282.89,100.40,30.20,8.56,M,4.00,0.00,29.91,M,6.00,M,CLR,M,M,M,M,M,M,M,HZ,M,M,M,M,M,M,93.98,KHTH 162115Z AUTO VRB04KT 6SM HZ CLR 38/M01 A2991 RMK A01,M
CXP,2021-08-16 21:30,-119.7326,39.1923,1431.00,98.60,32.00,9.72,270.00,13.00,0.00,29.98,M,4.00,20.00,CLR,M,M,M,M,M,M,M,HZ,M,M,M,M,M,M,92.69,KCXP 162130Z AUTO 27013G20KT 4SM HZ CLR 37/00 A2998 RMK AO2,M
MEV,2021-08-16 21:35,-119.7500,38.9963,1441.42,98.60,37.40,12.05,290.00,12.00,0.00,29.97,M,2.00,M,CLR,M,M,M,M,M,M,M,HZ,M,M,M,M,M,M,93.54,KMEV 162135Z AUTO 29012KT 2SM HZ CLR 37/03 A2997 RMK AO2,M
RTS,2021-08-16 21:35,-119.8764,39.6682,1539.00,95.00,35.60,12.53,180.00,4.00,0.00,30.00,M,3.00,M,CLR,M,M,M,M,M,M,M,HZ,M,M,M,M,M,M,90.25,KRTS 162135Z AUTO 18004KT 3SM HZ CLR 35/02 A3000 RMK AO2,M
HTH,2021-08-16 21:35,-118.6315,38.5448,1282.89,100.40,32.00,9.21,290.00,5.00,0.00,29.91,M,6.00,12.00,CLR,M,M,M,M,M,M,M,HZ,M,M,M,M,M,M,94.21,KHTH 162135Z AUTO 29005G12KT 6SM HZ CLR 38/M00 A2991 RMK A01,M
BAM,2021-08-16 21:35,-116.8743,40.5990,1382.36,102.20,32.00,8.72,250.00,10.00,0.00,29.93,M,7.00,17.00,CLR,M,M,M,M,M,M,M,M,M,M,M,M,M,M,95.74,KBAM 162135Z AUTO 25010G17KT 7SM CLR 39/00 A2993 RMK AO1,M
BVU,2021-08-16 21:35,-114.8611,35.9475,671.00,102.20,55.40,21.36,0.00,0.00,0.00,29.78,M,10.00,M,CLR,M,M,M,M,M,M,M,M,M,M,M,M,M,M,101.04,KBVU 162135Z AUTO 00000KT 10SM CLR 39/13 A2978 RMK AO2,M
TMT,2021-08-16 21:35,-117.1971,39.4643,1749.34,94.60,34.30,12.05,190.00,12.00,0.00,30.05,M,10.00,16.00,CLR,M,M,M,M,M,M,M,M,M,M,M,M,M,M,89.73,KTMT 162135Z AUTO 19012G16KT 160V220 10SM CLR 35/01 A3005 RMK AO2 T03480013,M
RNO,2021-08-16 21:38,-119.7711,39.4839,1341.00,102.00,39.00,11.58,260.00,13.00,0.00,29.92,M,5.00,22.00,SCT,SCT,M,M,3600.00,11000.00,M,M,FU,M,M,M,M,M,M,96.77,KRNO 162138Z 26013G22KT 5SM FU SCT036 SCT110 39/04 A2992 RMK AO2 FU SCT036 HZ ALQDS T03890039,M
CXP,2021-08-16 21:50,-119.7326,39.1923,1431.00,98.60,32.00,9.72,280.00,12.00,0.00,29.97,M,5.00,18.00,CLR,M,M,M,M,M,M,M,HZ,M,M,M,M,M,M,92.69,KCXP 162150Z AUTO 28012G18KT 5SM HZ CLR 37/00 A2997 RMK AO2,M
VGT,2021-08-16 21:53,-115.1933,36.2111,667.00,106.00,49.00,15.01,150.00,9.00,0.00,29.76,1005.70,10.00,M,CLR,M,M,M,M,M,M,M,M,M,M,M,M,M,M,102.85,KVGT 162153Z 15009KT 10SM CLR 41/09 A2976 RMK AO2 SLP057 T04110094,M
DRA,2021-08-16 21:53,-116.0278,36.6206,1009.00,104.00,46.00,14.28,M,M,0.00,29.84,1004.20,10.00,M,CLR,M,M,M,M,M,M,M,M,M,M,M,M,M,M,100.12,KDRA 162153Z AUTO 10SM CLR 40/08 A2984 RMK AO2 SLP042 T04000078,M
ELY,2021-08-16 21:53,-114.8453,39.2950,1909.00,92.00,24.10,8.64,M,3.00,0.00,30.09,1008.10,9.00,M,CLR,M,M,M,M,M,M,M,M,M,M,M,M,M,M,86.53,KELY 162153Z AUTO VRB03KT 9SM CLR 33/M04 A3009 RMK AO2 SLP081 T03331044,M
P68,2021-08-16 21:53,-116.0056,39.6014,1993.00,93.00,26.10,9.07,100.00,5.00,0.00,30.05,1008.20,M,M,M,M,M,M,M,M,M,M,M,M,M,M,M,M,M,87.52,KP68 162153Z AUTO 10005KT 34/M03 A3005 RMK AO1 SLP082 T03391033,M
BVU,2021-08-16 21:55,-114.8611,35.9475,671.00,104.00,55.40,20.24,70.00,6.00,0.00,29.77,M,10.00,M,CLR,M,M,M,M,M,M,M,M,M,M,M,M,M,M,103.01,KBVU 162155Z AUTO 07006KT 10SM CLR 40/13 A2977 RMK AO2,M
RTS,2021-08-16 21:55,-119.8764,39.6682,1539.00,98.60,30.20,9.04,250.00,15.00,0.00,29.99,M,9.00,22.00,CLR,M,M,M,M,M,M,M,M,M,M,M,M,M,M,92.46,KRTS 162155Z AUTO 25015G22KT 9SM CLR 37/M01 A2999 RMK AO2,M
MEV,2021-08-16 21:55,-119.7500,38.9963,1441.42,98.60,37.40,12.05,270.00,13.00,0.00,29.96,M,2.50,20.00,CLR,M,M,M,M,M,M,M,HZ,M,M,M,M,M,M,93.54,KMEV 162155Z AUTO 27013G20KT 2 1/2SM HZ CLR 37/03 A2996 RMK AO2,M
BAM,2021-08-16 21:55,-116.8743,40.5990,1382.36,104.00,32.00,8.27,260.00,7.00,0.00,29.92,M,7.00,16.00,CLR,M,M,M,M,M,M,M,M,M,M,M,M,M,M,97.28,KBAM 162155Z AUTO 26007G16KT 7SM CLR 40/00 A2992 RMK AO1,M
TMT,2021-08-16 21:55,-117.1971,39.4643,1749.34,96.00,35.00,11.79,320.00,7.00,0.00,30.03,M,10.00,M,CLR,M,M,M,M,M,M,M,M,M,M,M,M,M,M,91.03,KTMT 162155Z AUTO 32007KT 10SM CLR 36/02 A3003 RMK AO2 T03560016,M
HTH,2021-08-16 21:55,-118.6315,38.5448,1282.89,98.60,33.80,10.45,310.00,9.00,0.00,29.90,M,6.00,M,CLR,M,M,M,M,M,M,M,HZ,M,M,M,M,M,M,92.94,KHTH 162155Z AUTO 31009KT 6SM HZ CLR 37/01 A2990 RMK A01,M
RNO,2021-08-16 21:55,-119.7711,39.4839,1341.00,101.00,38.00,11.47,270.00,16.00,0.00,29.91,1005.50,6.00,21.00,FEW,SCT,M,M,3600.00,11000.00,M,M,HZ FU,M,M,M,M,M,M,95.60,KRNO 162155Z 27016G21KT 6SM HZ FU FEW036 SCT110 38/03 A2991 RMK AO2 SLP055 FU FEW036 HZ ALQDS T03830033,M
LAS,2021-08-16 21:56,-115.1634,36.0719,663.00,105.00,50.00,16.06,110.00,6.00,0.00,29.77,1004.70,10.00,M,FEW,M,M,M,14000.00,M,M,M,M,M,M,M,M,M,M,102.27,KLAS 162156Z 11006KT 10SM FEW140 41/10 A2977 RMK AO2 SLP047 T04060100,M
WMC,2021-08-16 21:56,-117.8072,40.9019,1315.00,104.00,37.00,10.09,250.00,9.00,0.00,29.88,1005.70,4.00,19.00,FEW,M,M,M,4600.00,M,M,M,HZ,M,M,M,M,M,M,98.11,KWMC 162156Z AUTO 25009G19KT 4SM HZ FEW046 40/03 A2988 RMK AO2 SLP057 T04000028,M
TPH,2021-08-16 21:56,-117.0904,38.0505,1654.00,98.00,25.00,7.41,M,6.00,0.00,30.02,1006.10,7.00,M,CLR,M,M,M,M,M,M,M,M,M,M,M,M,M,M,91.50,KTPH 162156Z AUTO VRB06KT 7SM CLR 37/M04 A3002 RMK AO2 SLP061 T03671039,M
HND,2021-08-16 21:56,-115.1344,35.9729,742.79,105.00,59.00,22.30,110.00,9.00,0.00,29.80,1006.80,10.00,M,CLR,M,M,M,M,M,M,M,M,M,M,M,M,M,M,105.93,KHND 162156Z 11009KT 10SM CLR 41/15 A2980 RMK AO2 SLP068 T04060150,M
EKO,2021-08-16 21:56,-115.7860,40.8242,1367.00,98.00,34.00,10.70,230.00,4.00,0.00,29.96,1007.70,6.00,16.00,CLR,M,M,M,M,M,M,M,HZ,M,M,M,M,M,M,92.55,KEKO 162156Z AUTO 23004G16KT 6SM HZ CLR 37/01 A2996 RMK AO2 SLP077 T03670011,M
NFL,2021-08-16 21:56,-118.7010,39.4166,1199.00,102.00,33.00,9.17,M,5.00,0.00,29.86,1008.70,4.00,M,BKN,M,M,M,4000.00,M,M,M,FU,M,M,M,M,M,M,95.73,KNFL 162156Z VRB05KT 4SM FU BKN040 39/01 A2986 RMK AO2 SLP087 FU BKN040 T03890006,M
INS,2021-08-16 21:58,-115.6733,36.5872,955.00,101.80,45.50,14.97,160.00,4.00,0.00,29.83,1004.10,10.00,M,CLR,M,M,M,M,M,M,M,M,M,M,M,M,M,M,97.85,KINS 162158Z AUTO 16004KT 10SM CLR 39/08 A2983 RMK AO2 SLP041 T03880075 $,M
LSV,2021-08-16 21:58,-115.0343,36.2362,570.00,104.20,56.50,20.94,0.00,0.00,0.00,29.73,1003.60,10.00,M,CLR,M,M,M,M,M,M,M,M,M,M,M,M,M,M,103.70,KLSV 162158Z AUTO 00000KT 10SM CLR 40/14 A2973 RMK AO2 SLP036 T04010136 $,M
BAM,2021-08-16 22:15,-116.8743,40.5990,1382.36,104.00,32.00,8.27,230.00,9.00,0.00,29.90,M,7.00,18.00,CLR,M,M,M,M,M,M,M,M,M,M,M,M,M,M,97.28,KBAM 162215Z AUTO 23009G18KT 200V270 7SM CLR 40/00 A2990 RMK AO1,M
HTH,2021-08-16 22:15,-118.6315,38.5448,1282.89,98.60,32.00,9.72,290.00,21.00,0.00,29.90,M,6.00,28.00,CLR,M,M,M,M,M,M,M,HZ,M,M,M,M,M,M,92.69,KHTH 162215Z AUTO 29021G28KT 6SM HZ CLR 37/M00 A2990 RMK A01,M
TMT,2021-08-16 22:15,-117.1971,39.4643,1749.34,95.50,34.50,11.81,350.00,7.00,0.00,30.03,M,10.00,M,CLR,M,M,M,M,M,M,M,M,M,M,M,M,M,M,90.48,KTMT 162215Z AUTO 35007KT 10SM CLR 35/01 A3003 RMK AO2 T03530014,M
MEV,2021-08-16 22:15,-119.7500,38.9963,1441.42,98.60,35.60,11.23,280.00,14.00,0.00,29.96,M,2.50,20.00,CLR,M,M,M,M,M,M,M,HZ,M,M,M,M,M,M,93.23,KMEV 162215Z AUTO 28014G20KT 2 1/2SM HZ CLR 37/02 A2996 RMK AO2,M
RTS,2021-08-16 22:15,-119.8764,39.6682,1539.00,98.60,30.20,9.04,240.00,18.00,0.00,29.98,M,10.00,M,CLR,M,M,M,M,M,M,M,M,M,M,M,M,M,M,92.46,KRTS 162215Z AUTO 24018KT 10SM CLR 37/M01 A2998 RMK AO2,M
CXP,2021-08-16 22:15,-119.7326,39.1923,1431.00,98.60,32.00,9.72,280.00,8.00,0.00,29.97,M,5.00,21.00,CLR,M,M,M,M,M,M,M,HZ,M,M,M,M,M,M,92.69,KCXP 162215Z AUTO 28008G21KT 5SM HZ CLR 37/00 A2997 RMK AO2,M
BVU,2021-08-16 22:15,-114.8611,35.9475,671.00,104.00,55.40,20.24,M,5.00,0.00,29.75,M,10.00,M,CLR,M,M,M,M,M,M,M,M,M,M,M,M,M,M,103.01,KBVU 162215Z AUTO VRB05KT 10SM CLR 40/13 A2975 RMK AO2,M
MEV,2021-08-16 22:35,-119.7500,38.9963,1441.42,98.60,37.40,12.05,290.00,14.00,0.00,29.95,M,3.00,M,CLR,M,M,M,M,M,M,M,HZ,M,M,M,M,M,M,93.54,KMEV 162235Z AUTO 29014KT 3SM HZ CLR 37/03 A2995 RMK AO2,M
CXP,2021-08-16 22:35,-119.7326,39.1923,1431.00,96.80,32.00,10.27,280.00,12.00,0.00,29.96,M,7.00,19.00,CLR,M,M,M,M,M,M,M,M,M,M,M,M,M,M,91.19,KCXP 162235Z AUTO 28012G19KT 7SM CLR 36/M00 A2996 RMK AO2,M
BVU,2021-08-16 22:35,-114.8611,35.9475,671.00,104.00,53.60,18.95,100.00,8.00,0.00,29.74,M,10.00,M,CLR,M,M,M,M,M,M,M,M,M,M,M,M,M,M,102.31,KBVU 162235Z AUTO 10008KT 070V140 10SM CLR 40/12 A2974 RMK AO2,M
RTS,2021-08-16 22:35,-119.8764,39.6682,1539.00,98.60,30.20,9.04,240.00,19.00,0.00,29.97,M,10.00,M,CLR,M,M,M,M,M,M,M,M,M,M,M,M,M,M,92.46,KRTS 162235Z AUTO 24019KT 10SM CLR 37/M01 A2997 RMK AO2,M
TMT,2021-08-16 22:35,-117.1971,39.4643,1749.34,93.70,34.50,12.49,350.00,5.00,0.00,30.02,M,10.00,M,CLR,M,M,M,M,M,M,M,M,M,M,M,M,M,M,89.04,KTMT 162235Z AUTO 35005KT 10SM CLR 34/01 A3002 RMK AO2 T03430014,M
HTH,2021-08-16 22:35,-118.6315,38.5448,1282.89,98.60,32.00,9.72,230.00,24.00,0.00,29.89,M,7.00,31.00,CLR,M,M,M,M,M,M,M,M,M,M,M,M,M,M,92.69,KHTH 162235Z AUTO 23024G31KT 7SM CLR 37/00 A2989 RMK A01,M
BAM,2021-08-16 22:35,-116.8743,40.5990,1382.36,102.20,32.00,8.72,270.00,7.00,0.00,29.89,M,7.00,14.00,CLR,M,M,M,M,M,M,M,M,M,M,M,M,M,M,95.74,KBAM 162235Z AUTO 27007G14KT 7SM CLR 39/00 A2989 RMK AO1,M
VGT,2021-08-16 22:53,-115.1933,36.2111,667.00,107.00,46.00,13.03,160.00,6.00,0.00,29.73,1004.70,10.00,M,CLR,M,M,M,M,M,M,M,M,M,M,M,M,M,M,103.13,KVGT 162253Z 16006KT 10SM CLR 42/08 A2973 RMK AO2 SLP047 T04170078,M
P68,2021-08-16 22:53,-116.0056,39.6014,1993.00,96.00,26.10,8.24,80.00,8.00,0.00,30.01,1006.40,M,M,M,M,M,M,M,M,M,M,M,M,M,M,M,M,M,89.94,KP68 162253Z AUTO 08008KT 36/M03 A3001 RMK AO1 SLP064 T03561033,M
DRA,2021-08-16 22:53,-116.0278,36.6206,1009.00,104.00,46.00,14.28,240.00,7.00,0.00,29.81,1003.30,10.00,M,CLR,M,M,M,M,M,M,M,M,M,M,M,M,M,M,100.12,KDRA 162253Z AUTO 24007KT 10SM CLR 40/08 A2981 RMK AO2 SLP033 T04000078,M
ELY,2021-08-16 22:53,-114.8453,39.2950,1909.00,92.00,24.10,8.64,100.00,6.00,0.00,30.06,1007.30,7.00,M,CLR,M,M,M,M,M,M,M,M,M,M,M,M,M,M,86.53,KELY 162253Z AUTO 10006KT 7SM CLR 33/M04 A3006 RMK AO2 SLP073 T03331044,M
RNO,2021-08-16 22:55,-119.7711,39.4839,1341.00,101.00,37.00,11.07,260.00,15.00,0.00,29.89,1005.10,7.00,22.00,SCT,SCT,M,M,12000.00,20000.00,M,M,M,M,M,M,M,M,M,95.43,KRNO 162255Z 26015G22KT 7SM SCT120 SCT200 38/03 A2989 RMK AO2 SLP051 HZ FU ALQDS T03830028,M
MEV,2021-08-16 22:55,-119.7500,38.9963,1441.42,98.60,37.40,12.05,260.00,13.00,0.00,29.95,M,3.00,M,CLR,M,M,M,M,M,M,M,HZ,M,M,M,M,M,M,93.54,KMEV 162255Z AUTO 26013KT 3SM HZ CLR 37/03 A2995 RMK AO2,M
CXP,2021-08-16 22:55,-119.7326,39.1923,1431.00,98.60,30.20,9.04,290.00,14.00,0.00,29.96,M,8.00,20.00,CLR,M,M,M,M,M,M,M,M,M,M,M,M,M,M,92.46,KCXP 162255Z AUTO 29014G20KT 8SM CLR 37/M01 A2996 RMK AO2,M
BVU,2021-08-16 22:55,-114.8611,35.9475,671.00,104.00,53.60,18.95,M,4.00,0.00,29.73,M,10.00,11.00,CLR,M,M,M,M,M,M,M,M,M,M,M,M,M,M,102.31,KBVU 162255Z AUTO VRB04G11KT 10SM CLR 40/12 A2973 RMK AO2,M
BAM,2021-08-16 22:55,-116.8743,40.5990,1382.36,104.00,32.00,8.27,240.00,12.00,0.00,29.89,M,7.00,19.00,CLR,M,M,M,M,M,M,M,M,M,M,M,M,M,M,97.28,KBAM 162255Z AUTO 24012G19KT 7SM CLR 40/00 A2989 RMK AO1,M
HTH,2021-08-16 22:55,-118.6315,38.5448,1282.89,98.60,32.00,9.72,260.00,19.00,0.00,29.89,M,8.00,26.00,CLR,M,M,M,M,M,M,M,M,M,M,M,M,M,M,92.69,KHTH 162255Z AUTO 26019G26KT 8SM CLR 37/00 A2989 RMK A01,M
TMT,2021-08-16 22:55,-117.1971,39.4643,1749.34,95.20,34.30,11.83,0.00,0.00,0.00,30.02,M,10.00,M,CLR,M,M,M,M,M,M,M,M,M,M,M,M,M,M,90.20,KTMT 162255Z AUTO 00000KT 10SM CLR 35/01 A3002 RMK AO2 T03510013,M
RTS,2021-08-16 22:55,-119.8764,39.6682,1539.00,98.60,32.00,9.72,250.00,18.00,0.00,29.97,M,10.00,27.00,CLR,M,M,M,M,M,M,M,M,M,M,M,M,M,M,92.69,KRTS 162255Z AUTO 25018G27KT 220V280 10SM CLR 37/M00 A2997 RMK AO2,M
EKO,2021-08-16 22:56,-115.7860,40.8242,1367.00,98.00,36.00,11.58,220.00,9.00,0.00,29.93,1006.90,7.00,M,CLR,M,M,M,M,M,M,M,M,M,M,M,M,M,M,92.87,KEKO 162256Z AUTO 22009KT 7SM CLR 37/02 A2993 RMK AO2 SLP069 T03670022,M
WMC,2021-08-16 22:56,-117.8072,40.9019,1315.00,100.00,36.00,10.93,260.00,13.00,0.00,29.85,1005.00,4.00,18.00,FEW,M,M,M,4200.00,M,M,M,HZ,M,M,M,M,M,M,94.48,KWMC 162256Z AUTO 26013G18KT 4SM HZ FEW042 38/02 A2985 RMK AO2 SLP050 T03780022,M
NFL,2021-08-16 22:56,-118.7010,39.4166,1199.00,105.00,34.00,8.67,320.00,6.00,0.00,29.83,1007.80,4.00,M,BKN,M,M,M,4000.00,M,M,M,FU,M,M,M,M,M,M,98.53,KNFL 162256Z 32006KT 4SM FU BKN040 41/01 A2983 RMK AO2 SLP078 FU BKN040 T04060011,M
HND,2021-08-16 22:56,-115.1344,35.9729,742.79,105.00,57.00,20.76,130.00,7.00,0.00,29.77,1005.70,10.00,M,CLR,M,M,M,M,M,M,M,M,M,M,M,M,M,M,104.93,KHND 162256Z 13007KT 10SM CLR 41/14 A2977 RMK AO2 SLP057 T04060139,M
TPH,2021-08-16 22:56,-117.0904,38.0505,1654.00,98.00,25.00,7.41,230.00,4.00,0.00,29.99,1005.20,7.00,M,CLR,M,M,M,M,M,M,M,M,M,M,M,M,M,M,91.50,KTPH 162256Z AUTO 23004KT 7SM CLR 37/M04 A2999 RMK AO2 SLP052 T03671039,M
LAS,2021-08-16 22:56,-115.1634,36.0719,663.00,106.00,50.00,15.64,60.00,5.00,0.00,29.74,1003.50,10.00,M,FEW,FEW,M,M,14000.00,20000.00,M,M,M,M,M,M,M,M,M,103.18,KLAS 162256Z 06005KT 10SM FEW140 FEW200 41/10 A2974 RMK AO2 SLP035 HAZY T04110100,M
LSV,2021-08-16 22:58,-115.0343,36.2362,570.00,106.20,53.80,17.89,0.00,0.00,0.00,29.70,1002.70,10.00,M,CLR,M,M,M,M,M,M,M,M,M,M,M,M,M,M,104.74,KLSV 162258Z AUTO 00000KT 10SM CLR 41/12 A2970 RMK AO2 SLP027 T04120121 $,M
INS,2021-08-16 22:58,-115.6733,36.5872,955.00,102.60,38.00,10.90,0.00,0.00,0.00,29.80,1003.30,10.00,M,CLR,M,M,M,M,M,M,M,M,M,M,M,M,M,M,97.07,KINS 162258Z AUTO 00000KT 10SM CLR 39/03 A2980 RMK AO2 SLP033 T03920033 $,M
CXP,2021-08-16 23:15,-119.7326,39.1923,1431.00,96.80,32.00,10.27,270.00,7.00,0.00,29.96,M,9.00,18.00,CLR,M,M,M,M,M,M,M,M,M,M,M,M,M,M,91.19,KCXP 162315Z AUTO 27007G18KT 230V290 9SM CLR 36/M00 A2996 RMK AO2,M
RTS,2021-08-16 23:15,-119.8764,39.6682,1539.00,98.60,30.20,9.04,250.00,19.00,0.00,29.96,M,10.00,24.00,CLR,M,M,M,M,M,M,M,M,M,M,M,M,M,M,92.46,KRTS 162315Z AUTO 25019G24KT 10SM CLR 37/M01 A2996 RMK AO2,M
MEV,2021-08-16 23:15,-119.7500,38.9963,1441.42,96.80,37.40,12.73,290.00,10.00,0.00,29.95,M,4.00,23.00,CLR,M,M,M,M,M,M,M,HZ,M,M,M,M,M,M,92.04,KMEV 162315Z AUTO 29010G23KT 250V310 4SM HZ CLR 36/03 A2995 RMK AO2,M
BVU,2021-08-16 23:15,-114.8611,35.9475,671.00,104.00,57.20,21.60,170.00,6.00,0.00,29.72,M,10.00,13.00,CLR,M,M,M,M,M,M,M,M,M,M,M,M,M,M,103.79,KBVU 162315Z AUTO 17006G13KT 10SM CLR 40/14 A2972 RMK AO2,M
HTH,2021-08-16 23:15,-118.6315,38.5448,1282.89,98.60,32.00,9.72,140.00,7.00,0.00,29.91,M,7.00,27.00,CLR,M,M,M,M,M,M,M,M,M,M,M,M,M,M,92.69,KHTH 162315Z AUTO 14007G27KT 100V170 7SM CLR 37/M00 A2991 RMK A01,M
BAM,2021-08-16 23:15,-116.8743,40.5990,1382.36,104.00,32.00,8.27,270.00,5.00,0.00,29.88,M,7.00,M,CLR,M,M,M,M,M,M,M,M,M,M,M,M,M,M,97.28,KBAM 162315Z AUTO 27005KT 7SM CLR 40/00 A2988 RMK AO1,M
TMT,2021-08-16 23:15,-117.1971,39.4643,1749.34,94.00,35.20,12.68,290.00,13.00,0.00,30.01,M,10.00,M,CLR,M,M,M,M,M,M,M,M,M,M,M,M,M,M,89.47,KTMT 162315Z AUTO 29013KT 10SM CLR 35/02 A3001 RMK AO2 LTG DSNT N T03450018,M
CXP,2021-08-16 23:35,-119.7326,39.1923,1431.00,96.80,33.80,11.04,250.00,7.00,0.00,29.96,M,9.00,M,CLR,M,M,M,M,M,M,M,M,M,M,M,M,M,M,91.44,KCXP 162335Z AUTO 25007KT 210V290 9SM CLR 36/01 A2996 RMK AO2,M
HTH,2021-08-16 23:35,-118.6315,38.5448,1282.89,98.60,32.00,9.72,220.00,5.00,0.00,29.91,M,8.00,M,CLR,M,M,M,M,M,M,M,M,M,M,M,M,M,M,92.69,KHTH 162335Z AUTO 22005KT 8SM CLR 37/M00 A2991 RMK A01,M
TMT,2021-08-16 23:35,-117.1971,39.4643,1749.34,93.00,36.00,13.55,280.00,6.00,0.00,30.01,M,10.00,M,CLR,M,M,M,M,M,M,M,M,M,M,M,M,M,M,88.59,KTMT 162335Z AUTO 28006KT 10SM CLR 34/02 A3001 RMK AO2 T03390022,M
RTS,2021-08-16 23:35,-119.8764,39.6682,1539.00,96.80,32.00,10.27,260.00,21.00,0.00,29.95,M,10.00,28.00,CLR,M,M,M,M,M,M,M,M,M,M,M,M,M,M,91.19,KRTS 162335Z AUTO 26021G28KT 10SM CLR 36/M00 A2995 RMK AO2,M
MEV,2021-08-16 23:35,-119.7500,38.9963,1441.42,96.80,37.40,12.73,290.00,10.00,0.00,29.95,M,5.00,20.00,CLR,M,M,M,M,M,M,M,HZ,M,M,M,M,M,M,92.04,KMEV 162335Z AUTO 29010G20KT 5SM HZ CLR 36/03 A2995 RMK AO2,M
BVU,2021-08-16 23:35,-114.8611,35.9475,671.00,104.00,59.00,23.04,130.00,9.00,0.00,29.72,M,10.00,14.00,CLR,M,M,M,M,M,M,M,M,M,M,M,M,M,M,104.68,KBVU 162335Z AUTO 13009G14KT 10SM CLR 40/15 A2972 RMK AO2,M
BAM,2021-08-16 23:35,-116.8743,40.5990,1382.36,102.20,32.00,8.72,240.00,9.00,0.00,29.87,M,7.00,M,CLR,M,M,M,M,M,M,M,M,M,M,M,M,M,M,95.74,KBAM 162335Z AUTO 24009KT 7SM CLR 39/00 A2987 RMK AO1,M
DRA,2021-08-16 23:53,-116.0278,36.6206,1009.00,104.00,45.00,13.75,M,4.00,0.00,29.79,1002.60,10.00,18.00,CLR,M,M,M,M,M,M,M,M,M,M,M,M,M,M,99.90,KDRA 162353Z AUTO VRB04G18KT 10SM CLR 40/07 A2979 RMK AO2 SLP026 T04000072 10406 20356 56026,M
P68,2021-08-16 23:53,-116.0056,39.6014,1993.00,94.00,24.10,8.12,0.00,0.00,0.00,29.99,1005.80,M,M,M,M,M,M,M,M,M,M,M,M,M,M,M,M,M,88.03,KP68 162353Z AUTO 00000KT 34/M04 A2999 RMK AO1 SLP058 T03441044 10356 20294 56026,M
ELY,2021-08-16 23:53,-114.8453,39.2950,1909.00,92.00,24.10,8.64,70.00,8.00,0.00,30.04,1006.60,7.00,M,CLR,M,M,M,M,M,M,M,M,M,M,M,M,M,M,86.53,KELY 162353Z AUTO 07008KT 7SM CLR 33/M04 A3004 RMK AO2 SLP066 T03331044 10344 20283 56022,M
VGT,2021-08-16 23:53,-115.1933,36.2111,667.00,107.00,48.00,14.05,180.00,4.00,0.00,29.70,1003.80,10.00,M,CLR,M,M,M,M,M,M,M,M,M,M,M,M,M,M,103.68,KVGT 162353Z 18004KT 10SM CLR 42/09 A2970 RMK AO2 SLP038 T04170089 10428 20356 56029,M
HTH,2021-08-16 23:55,-118.6315,38.5448,1282.89,96.80,33.80,11.04,250.00,16.00,0.00,29.90,M,9.00,M,CLR,M,M,M,M,M,M,M,M,M,M,M,M,M,M,91.44,KHTH 162355Z AUTO 25016KT 9SM CLR 36/01 A2990 RMK A01,M
RTS,2021-08-16 23:55,-119.8764,39.6682,1539.00,96.80,30.20,9.55,250.00,20.00,0.00,29.95,M,10.00,26.00,CLR,M,M,M,M,M,M,M,M,M,M,M,M,M,M,90.96,KRTS 162355Z AUTO 25020G26KT 10SM CLR 36/M01 A2995 RMK AO2,M
BVU,2021-08-16 23:55,-114.8611,35.9475,671.00,105.80,59.00,21.85,160.00,11.00,0.00,29.71,M,10.00,18.00,CLR,M,M,M,M,M,M,M,M,M,M,M,M,M,M,106.72,KBVU 162355Z AUTO 16011G18KT 10SM CLR 41/15 A2971 RMK AO2,M
CXP,2021-08-16 23:55,-119.7326,39.1923,1431.00,96.80,33.80,11.04,230.00,8.00,0.00,29.95,M,9.00,13.00,CLR,M,M,M,M,M,M,M,M,M,M,M,M,M,M,91.44,KCXP 162355Z AUTO 23008G13KT 190V250 9SM CLR 36/01 A2995 RMK AO2,M
RNO,2021-08-16 23:55,-119.7711,39.4839,1341.00,100.00,37.00,11.37,250.00,8.00,0.00,29.89,1005.30,8.00,20.00,SCT,M,M,M,14000.00,M,M,M,M,M,M,M,M,M,M,94.66,KRNO 162355Z 25008G20KT 8SM SCT140 38/03 A2989 RMK AO2 SLP053 FU ALF AND HZ ALQDS T03780028 10389 20294 56015,M
MEV,2021-08-16 23:55,-119.7500,38.9963,1441.42,96.80,37.40,12.73,290.00,9.00,0.00,29.95,M,5.00,19.00,CLR,M,M,M,M,M,M,M,HZ,M,M,M,M,M,M,92.04,KMEV 162355Z AUTO 29009G19KT 5SM HZ CLR 36/03 A2995 RMK AO2,M
BAM,2021-08-16 23:55,-116.8743,40.5990,1382.36,102.20,32.00,8.72,250.00,8.00,0.00,29.86,M,7.00,M,CLR,M,M,M,M,M,M,M,M,M,M,M,M,M,M,95.74,KBAM 162355Z AUTO 25008KT 7SM CLR 39/00 A2986 RMK AO1,M
TMT,2021-08-16 23:55,-117.1971,39.4643,1749.34,92.70,32.40,11.84,0.00,0.00,0.00,30.00,M,10.00,M,CLR,M,M,M,M,M,M,M,M,M,M,M,M,M,M,87.97,KTMT 162355Z AUTO 00000KT 10SM CLR 34/00 A3000 RMK AO2 T03370002 10361 20305,M
HND,2021-08-16 23:56,-115.1344,35.9729,742.79,104.00,59.00,23.04,60.00,6.00,0.00,29.75,1005.20,10.00,M,CLR,M,M,M,M,M,M,M,M,M,M,M,M,M,M,104.68,KHND 162356Z 06006KT 10SM CLR 40/15 A2975 RMK AO2 SLP052 T04000150 10417 20361 56027,M
TPH,2021-08-16 23:56,-117.0904,38.0505,1654.00,98.00,23.00,6.82,110.00,3.00,0.00,29.97,1004.50,8.00,M,CLR,M,M,M,M,M,M,M,M,M,M,M,M,M,M,91.33,KTPH 162356Z AUTO 11003KT 8SM CLR 37/M05 A2997 RMK AO2 SLP045 T03671050 10378 20322 56024,M
EKO,2021-08-16 23:56,-115.7860,40.8242,1367.00,97.00,34.00,11.06,280.00,12.00,0.00,29.91,1006.00,6.00,M,CLR,M,M,M,M,M,M,M,HZ,M,M,M,M,M,M,91.64,KEKO 162356Z AUTO 28012KT 6SM HZ CLR 36/01 A2991 RMK AO2 LTG DSNT W SLP060 T03610011 10372 20300 56025,M
WMC,2021-08-16 23:56,-117.8072,40.9019,1315.00,101.00,37.00,11.07,230.00,6.00,0.00,29.82,1003.70,4.00,M,FEW,M,M,M,4500.00,M,M,M,HZ,M,M,M,M,M,M,95.43,KWMC 162356Z AUTO 23006KT 4SM HZ FEW045 38/03 A2982 RMK AO2 SLP037 T03830028 10400 20317 58026,M
LAS,2021-08-16 23:56,-115.1634,36.0719,663.00,106.00,51.00,16.29,70.00,7.00,0.00,29.71,1002.70,10.00,M,FEW,FEW,M,M,14000.00,20000.00,M,M,M,M,M,M,M,M,M,103.54,KLAS 162356Z 07007KT 10SM FEW140 FEW200 41/11 A2971 RMK AO2 SLP027 HAZY T04110106 10417 20356 56027,M
NFL,2021-08-16 23:56,-118.7010,39.4166,1199.00,101.00,38.00,11.47,330.00,6.00,0.00,29.82,1007.50,4.00,M,BKN,M,M,M,4000.00,M,M,M,FU,M,M,M,M,M,M,95.60,KNFL 162356Z 33006KT 4SM FU BKN040 38/03 A2982 RMK AO2 SLP075 SH DSNT SW T03830033 10406 20333 56024,M
INS,2021-08-16 23:58,-115.6733,36.5872,955.00,103.50,36.00,9.88,120.00,6.00,0.00,29.78,1002.40,10.00,M,CLR,M,M,M,M,M,M,M,M,M,M,M,M,M,M,97.51,KINS 162358Z AUTO 12006KT 10SM CLR 40/02 A2978 RMK AO2 SLP024 T03970023 10402 20341 57025 $,M
LSV,2021-08-16 23:58,-115.0343,36.2362,570.00,106.00,47.00,13.93,0.00,0.00,0.00,29.68,1001.90,10.00,M,CLR,M,M,M,M,M,M,M,M,M,M,M,M,M,M,102.30,KLSV 162358Z AUTO 00000KT 10SM CLR 41/08 A2968 RMK AO2 SLP019 T04110083 10416 20356 57029 $,M
