station,valid,lon,lat,elevation,tmpf,dwpf,relh,drct,sknt,p01i,alti,mslp,vsby,gust,skyc1,skyc2,skyc3,skyc4,skyl1,skyl2,skyl3,skyl4,wxcodes,ice_accretion_1hr,ice_accretion_3hr,ice_accretion_6hr,peak_wind_gust,peak_wind_drct,peak_wind_time,feel,metar,snowdepth
TMT,2025-07-18 00:10,-117.1971,39.4643,1749.34,88.30,35.80,15.61,340.00,10.00,0.00,30.03,M,10.00,19.00,SCT,M,M,M,11000.00,M,M,M,M,M,M,M,M,M,M,84.54,KTMT 180010Z AUTO 34010G19KT 10SM SCT110 31/02 A3003 RMK AO2 T03130021,M
BVU,2025-07-18 00:15,-114.8611,35.9475,671.00,95.00,53.60,24.97,140.00,21.00,0.00,29.84,M,10.00,M,CLR,M,M,M,M,M,M,M,M,M,M,M,M,M,M,92.73,KBVU 180015Z AUTO 14021KT 10SM CLR 35/12 A2984 RMK AO2,M
BAM,2025-07-18 00:15,-116.8743,40.5990,1382.36,80.60,51.80,36.84,50.00,9.00,0.00,29.95,M,10.00,M,SCT,BKN,M,M,10000.00,12000.00,M,M,M,M,M,M,M,M,M,80.08,KBAM 180015Z AUTO 05009KT 10SM SCT100 BKN120 27/11 A2995 RMK AO1,M
CXP,2025-07-18 00:15,-119.7326,39.1923,1431.00,87.80,44.60,22.33,260.00,11.00,0.00,30.00,M,10.00,23.00,CLR,M,M,M,M,M,M,M,M,M,M,M,M,M,M,84.53,KCXP 180015Z AUTO 26011G23KT 10SM CLR 31/07 A3000 RMK AO2,M
RTS,2025-07-18 00:15,-119.8764,39.6682,1539.00,87.80,35.60,15.73,270.00,10.00,0.00,30.02,M,10.00,17.00,CLR,M,M,M,M,M,M,M,M,M,M,M,M,M,M,84.12,KRTS 180015Z AUTO 27010G17KT 10SM CLR 31/02 A3002 RMK AO2,M
05U,2025-07-18 00:15,-116.0051,39.6042,1811.23,91.40,26.60,9.76,270.00,9.00,0.00,30.03,M,10.00,M,CLR,M,M,M,M,M,M,M,M,M,M,M,M,M,M,86.37,K05U 180015Z AUTO 27009KT 10SM CLR 33/M03 A3003 RMK A01,M
MEV,2025-07-18 00:15,-119.7500,38.9963,1441.42,87.80,44.60,22.33,280.00,16.00,0.00,29.99,M,10.00,23.00,CLR,M,M,M,M,M,M,M,M,M,M,M,M,M,M,84.53,KMEV 180015Z AUTO 28016G23KT 10SM CLR 31/07 A2999 RMK AO2,M
HTH,2025-07-18 00:15,-118.6315,38.5448,1282.89,93.20,30.20,10.70,310.00,20.00,0.00,29.88,M,10.00,M,CLR,M,M,M,M,M,M,M,M,M,M,M,M,M,M,88.10,KHTH 180015Z AUTO 31020KT 10SM CLR 34/M01 A2988 RMK A01,M
ELY,2025-07-18 00:21,-114.8453,39.2950,1909.00,87.00,24.00,10.06,220.00,18.00,0.00,30.04,M,10.00,25.00,CLR,M,M,M,M,M,M,M,M,M,M,M,M,M,M,82.92,KELY 180021Z AUTO 22018G25KT 10SM CLR 31/M04 A3004 RMK AO2 WSHFT 0001 T03061044,M
HND,2025-07-18 00:23,-115.1344,35.9729,742.79,95.00,57.20,28.46,200.00,18.00,0.00,29.87,M,10.00,25.00,CLR,M,M,M,M,M,M,M,M,M,M,M,27.00,200.00,2025-07-18 00:09,93.85,KHND 180023Z 20018G25KT 10SM CLR 35/14 A2987 RMK AO2 PK WND 20027/0009 WSHFT 0003 LTG DSNT S-NW $,M
RTS,2025-07-18 00:25,-119.8764,39.6682,1539.00,87.80,35.60,15.73,250.00,11.00,0.00,30.02,M,10.00,18.00,CLR,M,M,M,M,M,M,M,M,M,M,M,M,M,M,84.12,KRTS 180025Z AUTO 25011G18KT 10SM CLR 31/02 A3002 RMK AO2,M
MEV,2025-07-18 00:25,-119.7500,38.9963,1441.42,87.80,44.60,22.33,280.00,14.00,0.00,29.99,M,10.00,21.00,CLR,M,M,M,M,M,M,M,M,M,M,M,M,M,M,84.53,KMEV 180025Z AUTO 28014G21KT 10SM CLR 31/07 A2999 RMK AO2,M
TMT,2025-07-18 00:30,-117.1971,39.4643,1749.34,87.00,35.00,15.76,360.00,12.00,0.00,30.03,M,10.00,16.00,CLR,M,M,M,M,M,M,M,M,M,M,M,M,M,M,83.47,KTMT 180030Z AUTO 36012G16KT 10SM CLR 31/02 A3003 RMK AO2 T03060016,M
INS,2025-07-18 00:32,-115.6733,36.5872,955.00,95.00,39.20,14.49,170.00,21.00,0.00,29.85,1004.70,10.00,30.00,BKN,OVC,M,M,18000.00,20000.00,M,M,VCTS,M,M,M,M,M,M,90.57,KINS 180032Z AUTO 17021G30KT 10SM VCTS BKN180 OVC200 35/04 A2985 RMK AO2 WSHFT 23 SLP047 $,M
BVU,2025-07-18 00:35,-114.8611,35.9475,671.00,93.20,53.60,26.40,140.00,19.00,0.00,29.85,M,10.00,27.00,SCT,M,M,M,12000.00,M,M,M,M,M,M,M,M,M,M,90.89,KBVU 180035Z AUTO 14019G27KT 10SM SCT120 34/12 A2985 RMK AO2,M
BAM,2025-07-18 00:35,-116.8743,40.5990,1382.36,82.40,50.00,32.51,30.00,10.00,0.00,29.94,M,10.00,15.00,SCT,M,M,M,11000.00,M,M,M,M,M,M,M,M,M,M,80.99,KBAM 180035Z AUTO 03010G15KT 10SM SCT110 28/10 A2994 RMK AO1,M
CXP,2025-07-18 00:35,-119.7326,39.1923,1431.00,87.80,42.80,20.84,270.00,13.00,0.00,30.00,M,10.00,M,CLR,M,M,M,M,M,M,M,M,M,M,M,M,M,M,84.40,KCXP 180035Z AUTO 27013KT 10SM CLR 31/06 A3000 RMK AO2,M
05U,2025-07-18 00:35,-116.0051,39.6042,1811.23,89.60,35.60,14.87,350.00,17.00,0.00,30.03,M,10.00,25.00,CLR,M,M,M,M,M,M,M,M,M,M,M,M,M,M,85.62,K05U 180035Z AUTO 35017G25KT 10SM CLR 32/02 A3003 RMK A01,M
HTH,2025-07-18 00:35,-118.6315,38.5448,1282.89,91.40,30.20,11.31,320.00,16.00,0.00,29.89,M,10.00,22.00,CLR,M,M,M,M,M,M,M,M,M,M,M,M,M,M,86.71,KHTH 180035Z AUTO 32016G22KT 10SM CLR 33/M01 A2989 RMK A01,M
P68,2025-07-18 00:40,-116.0056,39.6014,1993.00,88.00,35.00,15.27,350.00,19.00,0.00,30.00,M,M,30.00,M,M,M,M,M,M,M,M,M,M,M,M,30.00,10.00,2025-07-18 00:32,84.28,KP68 180040Z AUTO 35019G30KT 31/02 A3000 RMK AO1 PK WND 01030/0032 WSHFT 0023 T03110017,M
TMT,2025-07-18 00:50,-117.1971,39.4643,1749.34,85.50,36.00,17.20,30.00,8.00,0.00,30.03,M,10.00,M,CLR,M,M,M,M,M,M,M,M,M,M,M,M,M,M,82.31,KTMT 180050Z AUTO 03008KT 10SM CLR 30/02 A3003 RMK AO2 T02970022,M
P68,2025-07-18 00:53,-116.0056,39.6014,1993.00,88.00,33.00,14.09,330.00,18.00,0.00,30.01,1007.40,M,27.00,M,M,M,M,M,M,M,M,M,M,M,M,30.00,10.00,2025-07-18 00:32,84.25,KP68 180053Z AUTO 33018G27KT 31/01 A3001 RMK AO1 PK WND 01030/0032 WSHFT 0023 SLP074 T03110006,M
DRA,2025-07-18 00:53,-116.0278,36.6206,1009.00,96.00,50.00,21.21,220.00,15.00,0.00,29.86,1005.20,10.00,25.00,CLR,M,M,M,M,M,M,M,M,M,M,M,M,M,M,92.91,KDRA 180053Z AUTO 22015G25KT 10SM CLR 36/10 A2986 RMK AO2 SLP052 T03560100,M
ELY,2025-07-18 00:53,-114.8453,39.2950,1909.00,88.00,24.00,9.74,220.00,15.00,0.00,30.04,1005.50,10.00,25.00,CLR,M,M,M,M,M,M,M,M,M,M,M,28.00,210.00,2025-07-18 00:35,83.65,KELY 180053Z AUTO 22015G25KT 10SM CLR 31/M04 A3004 RMK AO2 PK WND 21028/0035 WSHFT 0001 SLP055 T03111044,M
VGT,2025-07-18 00:53,-115.1933,36.2111,667.00,96.00,56.00,26.43,140.00,22.00,0.00,29.82,1008.40,10.00,29.00,CLR,M,M,M,M,M,M,M,M,M,M,M,31.00,130.00,2025-07-18 00:26,94.51,KVGT 180053Z 14022G29KT 10SM CLR 36/13 A2982 RMK AO2 PK WND 13031/0026 LTG DSNT SW-NW SLP084 T03560133,M
LOL,2025-07-18 00:53,-118.5701,40.0684,1192.43,96.00,29.00,9.35,260.00,5.00,0.00,29.86,1006.50,10.00,M,CLR,M,M,M,M,M,M,M,M,M,M,M,M,M,M,90.16,KLOL 180053Z AUTO 26005KT 10SM CLR 36/M02 A2986 RMK AO2 SLP065 T03561017,M
BVU,2025-07-18 00:55,-114.8611,35.9475,671.00,93.20,53.60,26.40,150.00,19.00,0.00,29.84,M,10.00,M,OVC,M,M,M,11000.00,M,M,M,M,M,M,M,M,M,M,90.89,KBVU 180055Z AUTO 15019KT 10SM OVC110 34/12 A2984 RMK AO2,M
RNO,2025-07-18 00:55,-119.7711,39.4839,1341.00,89.00,42.00,19.46,290.00,23.00,0.00,29.94,1007.60,10.00,33.00,FEW,M,M,M,9000.00,M,M,M,M,M,M,M,33.00,290.00,2025-07-18 00:55,85.36,KRNO 180055Z 29023G33KT 10SM FEW090 32/06 A2994 RMK AO2 PK WND 29033/0055 SLP076 T03170056,M
LSV,2025-07-18 00:55,-115.0343,36.2362,570.00,98.40,53.00,22.03,150.00,14.00,0.00,29.77,1004.90,10.00,23.00,FEW,SCT,M,M,12000.00,22000.00,M,M,M,M,M,M,26.00,210.00,2025-07-18 00:37,96.15,KLSV 180055Z 15014G23KT 10SM FEW120 SCT220 37/12 A2977 RMK AO2A PK WND 21026/37 LTG DSNT W-NW SLP049 T03690116 $,M
BAM,2025-07-18 00:55,-116.8743,40.5990,1382.36,86.00,44.60,23.64,80.00,13.00,0.00,29.93,M,10.00,18.00,CLR,M,M,M,M,M,M,M,M,M,M,M,M,M,M,83.08,KBAM 180055Z AUTO 08013G18KT 10SM CLR 30/07 A2993 RMK AO1,M
CXP,2025-07-18 00:55,-119.7326,39.1923,1431.00,86.00,42.80,22.07,280.00,12.00,0.00,30.00,M,10.00,17.00,CLR,M,M,M,M,M,M,M,M,M,M,M,M,M,M,82.96,KCXP 180055Z AUTO 28012G17KT 240V310 10SM CLR 30/06 A3000 RMK AO2,M
RTS,2025-07-18 00:55,-119.8764,39.6682,1539.00,86.00,35.60,16.66,250.00,16.00,0.00,30.02,M,10.00,23.00,CLR,M,M,M,M,M,M,M,M,M,M,M,M,M,M,82.69,KRTS 180055Z AUTO 25016G23KT 10SM CLR 30/02 A3002 RMK AO2,M
05U,2025-07-18 00:55,-116.0051,39.6042,1811.23,87.80,33.80,14.64,350.00,18.00,0.00,30.04,M,10.00,M,CLR,M,M,M,M,M,M,M,M,M,M,M,M,M,M,84.10,K05U 180055Z AUTO 35018KT 10SM CLR 31/01 A3004 RMK A01,M
MEV,2025-07-18 00:55,-119.7500,38.9963,1441.42,86.00,41.00,20.59,250.00,15.00,0.00,29.99,M,10.00,20.00,CLR,M,M,M,M,M,M,M,M,M,M,M,M,M,M,82.86,KMEV 180055Z AUTO 25015G20KT 10SM CLR 30/05 A2999 RMK AO2,M
HTH,2025-07-18 00:55,-118.6315,38.5448,1282.89,91.40,28.40,10.51,340.00,13.00,0.00,29.89,M,10.00,19.00,CLR,M,M,M,M,M,M,M,M,M,M,M,M,M,M,86.53,KHTH 180055Z AUTO 34013G19KT 10SM CLR 33/M02 A2989 RMK A01,M
INS,2025-07-18 00:55,-115.6733,36.5872,955.00,94.30,39.60,15.04,150.00,13.00,0.00,29.86,1005.20,10.00,M,BKN,OVC,M,M,13000.00,16000.00,M,M,VCTS,M,M,M,30.00,160.00,2025-07-18 00:32,89.95,KINS 180055Z AUTO 15013KT 10SM VCTS BKN130 OVC160 35/04 A2986 RMK AO2 PK WND 16030/32 SLP052 T03460042 $,M
EKO,2025-07-18 00:56,-115.7860,40.8242,1367.00,87.00,32.00,13.97,350.00,8.00,T,29.96,1008.70,10.00,M,CLR,M,M,M,M,M,M,M,M,M,M,M,43.00,50.00,2025-07-18 00:07,83.43,KEKO 180056Z AUTO 35008KT 10SM CLR 31/00 A2996 RMK AO2 PK WND 05043/0007 RAB2357E16 SLP087 P0000 T03060000,M
HND,2025-07-18 00:56,-115.1344,35.9729,742.79,88.00,58.00,36.42,180.00,15.00,0.00,29.88,1010.30,10.00,22.00,CLR,M,M,M,M,M,M,M,M,M,M,M,30.00,200.00,2025-07-18 00:27,87.01,KHND 180056Z 18015G22KT 10SM CLR 31/14 A2988 RMK AO2 PK WND 20030/0027 WSHFT 0003 LTG DSNT W AND NW SLP103 T03110144 $,M
TPH,2025-07-18 00:56,-117.0904,38.0505,1654.00,90.00,24.00,9.15,210.00,8.00,0.00,29.99,1007.60,10.00,18.00,CLR,M,M,M,M,M,M,M,M,M,M,M,M,M,M,85.12,KTPH 180056Z AUTO 21008G18KT 10SM CLR 32/M04 A2999 RMK AO2 SLP076 T03221044,M
LAS,2025-07-18 00:56,-115.1634,36.0719,663.00,91.00,57.00,31.98,160.00,9.00,0.00,29.84,1007.50,10.00,24.00,FEW,SCT,SCT,M,11000.00,18000.00,23000.00,M,M,M,M,M,29.00,200.00,2025-07-18 00:35,89.62,KLAS 180056Z 16009G24KT 10SM FEW110 SCT180 SCT230 33/14 A2984 RMK AO2 PK WND 20029/0035 LTG DSNT W AND NW SLP075 ACC NE-SE CB DSNT N AND E AND S-W T03280139,M
NFL,2025-07-18 00:57,-118.7010,39.4166,1199.00,98.00,35.00,11.21,330.00,9.00,0.00,29.85,1008.50,9.00,M,SCT,SCT,SCT,SCT,8000.00,12000.00,18000.00,25000.00,M,M,M,M,M,M,M,92.64,KNFL 180057Z 33009KT 9SM SCT080 SCT120 SCT180 SCT250 37/02 A2985 RMK A02 SLP085 CB DSNT S-SW T03670017,M
LSV,2025-07-18 00:58,-115.0343,36.2362,570.00,98.60,53.60,22.38,180.00,16.00,0.00,29.77,1004.90,10.00,23.00,FEW,SCT,M,M,12000.00,22000.00,M,M,M,M,M,M,M,M,M,96.54,KLSV 180058Z 18016G23KT 10SM FEW120 SCT220 37/12 A2977 RMK AO2A WSHFT 50 LTG DSNT W-NW SLP049 $,M
VGT,2025-07-18 01:07,-115.1933,36.2111,667.00,94.00,55.00,27.10,180.00,16.00,0.00,29.82,M,10.00,22.00,CLR,M,M,M,M,M,M,M,M,M,M,M,M,M,M,92.08,KVGT 180107Z 18016G22KT 10SM CLR 34/13 A2982 RMK AO2 WSHFT 0047 LTG DSNT SW-N T03440128,M
INS,2025-07-18 01:08,-115.6733,36.5872,955.00,93.20,41.00,16.43,140.00,14.00,0.00,29.86,1005.20,10.00,18.00,FEW,OVC,M,M,8000.00,12000.00,M,M,VCTS -DZ,M,M,M,M,M,M,89.04,KINS 180108Z AUTO 14014G18KT 10SM VCTS -DZ FEW080 OVC120 34/05 A2986 RMK AO2 DZB08 SLP052 $,M
TMT,2025-07-18 01:10,-117.1971,39.4643,1749.34,84.60,34.30,16.54,0.00,0.00,0.00,30.03,M,10.00,M,CLR,M,M,M,M,M,M,M,M,M,M,M,M,M,M,81.60,KTMT 180110Z AUTO 00000KT 10SM CLR 29/01 A3003 RMK AO2 T02920013,M
BVU,2025-07-18 01:15,-114.8611,35.9475,671.00,91.40,53.60,27.91,160.00,21.00,0.00,29.84,M,10.00,M,BKN,M,M,M,11000.00,M,M,M,M,M,M,M,M,M,M,89.09,KBVU 180115Z AUTO 16021KT 10SM BKN110 33/12 A2984 RMK AO2 LTG DSNT N AND SW,M
BAM,2025-07-18 01:15,-116.8743,40.5990,1382.36,87.80,42.80,20.84,70.00,8.00,0.00,29.92,M,10.00,12.00,CLR,M,M,M,M,M,M,M,M,M,M,M,M,M,M,84.40,KBAM 180115Z AUTO 07008G12KT 10SM CLR 31/06 A2992 RMK AO1,M
CXP,2025-07-18 01:15,-119.7326,39.1923,1431.00,86.00,42.80,22.07,250.00,13.00,0.00,30.00,M,10.00,18.00,CLR,M,M,M,M,M,M,M,M,M,M,M,M,M,M,82.96,KCXP 180115Z AUTO 25013G18KT 10SM CLR 30/06 A3000 RMK AO2,M
RTS,2025-07-18 01:15,-119.8764,39.6682,1539.00,84.20,33.80,16.42,260.00,19.00,0.00,30.02,M,10.00,26.00,CLR,M,M,M,M,M,M,M,M,M,M,M,M,M,M,81.30,KRTS 180115Z AUTO 26019G26KT 10SM CLR 29/01 A3002 RMK AO2,M
05U,2025-07-18 01:15,-116.0051,39.6042,1811.23,86.00,35.60,16.66,360.00,13.00,0.00,30.05,M,10.00,19.00,CLR,M,M,M,M,M,M,M,M,M,M,M,M,M,M,82.69,K05U 180115Z AUTO 36013G19KT 10SM CLR 30/02 A3005 RMK A01,M
MEV,2025-07-18 01:15,-119.7500,38.9963,1441.42,86.00,41.00,20.59,270.00,10.00,0.00,29.99,M,10.00,18.00,CLR,M,M,M,M,M,M,M,M,M,M,M,M,M,M,82.86,KMEV 180115Z AUTO 27010G18KT 10SM CLR 30/05 A2999 RMK AO2,M
HTH,2025-07-18 01:15,-118.6315,38.5448,1282.89,91.40,26.60,9.76,360.00,14.00,0.00,29.88,M,10.00,M,CLR,M,M,M,M,M,M,M,M,M,M,M,M,M,M,86.37,KHTH 180115Z AUTO 36014KT 10SM CLR 33/M03 A2988 RMK A01,M
INS,2025-07-18 01:17,-115.6733,36.5872,955.00,91.40,42.80,18.62,110.00,9.00,0.00,29.87,1005.80,10.00,M,OVC,M,M,M,12000.00,M,M,M,VCTS,M,M,M,M,M,M,87.53,KINS 180117Z AUTO 11009KT 10SM VCTS OVC120 33/06 A2987 RMK AO2 DZE0055DZB08E17DZB17 SLP058 $,M
INS,2025-07-18 01:25,-115.6733,36.5872,955.00,91.40,44.60,19.94,80.00,17.00,0.00,29.89,1006.40,10.00,21.00,FEW,OVC,M,M,9000.00,11000.00,M,M,VCTS,M,M,M,M,M,M,87.68,KINS 180125Z AUTO 08017G21KT 10SM VCTS FEW090 OVC110 33/07 A2989 RMK AO2 WSHFT 18 DZB08E17DZB17E17 PRESRR SLP064 $,M
INS,2025-07-18 01:28,-115.6733,36.5872,955.00,89.60,44.60,21.10,70.00,21.00,0.00,29.90,1006.80,10.00,25.00,FEW,BKN,OVC,M,9000.00,11000.00,13000.00,M,VCTS -DZ,M,M,M,M,M,M,86.07,KINS 180128Z AUTO 07021G25KT 10SM VCTS -DZ FEW090 BKN110 OVC130 32/07 A2990 RMK AO2 DZB08E17DZB17E17DZB28 SLP068 $,M
TMT,2025-07-18 01:30,-117.1971,39.4643,1749.34,86.00,34.50,15.94,320.00,12.00,0.00,30.03,M,10.00,M,CLR,M,M,M,M,M,M,M,M,M,M,M,M,M,M,82.67,KTMT 180130Z AUTO 32012KT 10SM CLR 30/01 A3003 RMK AO2 T03000014,M
BVU,2025-07-18 01:35,-114.8611,35.9475,671.00,89.60,53.60,29.53,170.00,17.00,0.00,29.85,M,10.00,M,SCT,M,M,M,10000.00,M,M,M,M,M,M,M,M,M,M,87.37,KBVU 180135Z AUTO 17017KT 10SM SCT100 32/12 A2985 RMK AO2,M
BAM,2025-07-18 01:35,-116.8743,40.5990,1382.36,86.00,46.40,25.31,80.00,6.00,0.00,29.92,M,10.00,M,CLR,M,M,M,M,M,M,M,M,M,M,M,M,M,M,83.23,KBAM 180135Z AUTO 08006KT 10SM CLR 30/08 A2992 RMK AO1,M
CXP,2025-07-18 01:35,-119.7326,39.1923,1431.00,84.20,41.00,21.80,250.00,10.00,0.00,30.01,M,10.00,M,CLR,M,M,M,M,M,M,M,M,M,M,M,M,M,M,81.52,KCXP 180135Z AUTO 25010KT 10SM CLR 29/05 A3001 RMK AO2,M
RTS,2025-07-18 01:35,-119.8764,39.6682,1539.00,84.20,30.20,14.20,260.00,19.00,0.00,30.03,M,10.00,25.00,CLR,M,M,M,M,M,M,M,M,M,M,M,M,M,M,81.26,KRTS 180135Z AUTO 26019G25KT 10SM CLR 29/M01 A3003 RMK AO2,M
05U,2025-07-18 01:35,-116.0051,39.6042,1811.23,84.20,35.60,17.64,10.00,12.00,0.00,30.06,M,10.00,M,CLR,M,M,M,M,M,M,M,M,M,M,M,M,M,M,81.34,K05U 180135Z AUTO 01012KT 10SM CLR 29/02 A3006 RMK A01,M
MEV,2025-07-18 01:35,-119.7500,38.9963,1441.42,84.20,42.80,23.37,260.00,17.00,0.00,30.00,M,10.00,M,CLR,M,M,M,M,M,M,M,M,M,M,M,M,M,M,81.61,KMEV 180135Z AUTO 26017KT 10SM CLR 29/06 A3000 RMK AO2,M
HTH,2025-07-18 01:35,-118.6315,38.5448,1282.89,91.40,26.60,9.76,360.00,15.00,0.00,29.89,M,10.00,M,CLR,M,M,M,M,M,M,M,M,M,M,M,M,M,M,86.37,KHTH 180135Z AUTO 36015KT 10SM CLR 33/M03 A2989 RMK A01,M
INS,2025-07-18 01:41,-115.6733,36.5872,955.00,84.20,51.80,32.80,60.00,28.00,0.00,29.94,1008.60,10.00,32.00,FEW,OVC,M,M,5000.00,10000.00,M,M,TS -DZ,M,M,M,M,M,M,82.48,KINS 180141Z AUTO 06028G32KT 10SM TS -DZ FEW050 OVC100 29/11 A2994 RMK AO2 DZE0055DZB08E17DZB17E17DZB28 TSB41 PRESRR SLP086 $,M
TMT,2025-07-18 01:50,-117.1971,39.4643,1749.34,81.30,35.40,19.22,280.00,10.00,0.00,30.04,M,10.00,17.00,CLR,M,M,M,M,M,M,M,M,M,M,M,M,M,M,79.37,KTMT 180150Z AUTO 28010G17KT 10SM CLR 27/02 A3004 RMK AO2 T02740019,M
P68,2025-07-18 01:53,-116.0056,39.6014,1993.00,85.00,33.00,15.50,20.00,12.00,0.00,30.04,1007.70,M,M,M,M,M,M,M,M,M,M,M,M,M,M,28.00,360.00,2025-07-18 00:55,81.89,KP68 180153Z AUTO 02012KT 29/01 A3004 RMK AO1 PK WND 36028/0055 SLP077 T02940006,M
DRA,2025-07-18 01:53,-116.0278,36.6206,1009.00,96.00,50.00,21.21,110.00,12.00,0.00,29.89,1006.20,10.00,24.00,CLR,M,M,M,M,M,M,M,M,M,M,M,M,M,M,92.91,KDRA 180153Z AUTO 11012G24KT 10SM CLR 36/10 A2989 RMK AO2 PRESRR SLP062 T03560100,M
ELY,2025-07-18 01:53,-114.8453,39.2950,1909.00,86.00,25.00,10.82,220.00,10.00,0.00,30.04,1005.40,10.00,M,CLR,M,M,M,M,M,M,M,M,M,M,M,M,M,M,82.28,KELY 180153Z AUTO 22010KT 10SM CLR 30/M04 A3004 RMK AO2 SLP054 T03001039,M
VGT,2025-07-18 01:53,-115.1933,36.2111,667.00,91.00,55.00,29.74,200.00,12.00,0.00,29.85,1009.50,10.00,M,FEW,M,M,M,12000.00,M,M,M,M,M,M,M,M,M,M,89.05,KVGT 180153Z 20012KT 10SM FEW120 33/13 A2985 RMK AO2 WSHFT 0047 LTG DSNT N AND NW SLP095 T03280128,M
LOL,2025-07-18 01:53,-118.5701,40.0684,1192.43,95.00,29.00,9.64,280.00,12.00,0.00,29.86,1006.50,10.00,M,CLR,M,M,M,M,M,M,M,M,M,M,M,M,M,M,89.34,KLOL 180153Z AUTO 28012KT 10SM CLR 35/M02 A2986 RMK AO2 SLP065 T03501017,M
BVU,2025-07-18 01:55,-114.8611,35.9475,671.00,89.60,53.60,29.53,160.00,16.00,0.00,29.87,M,10.00,M,CLR,M,M,M,M,M,M,M,M,M,M,M,M,M,M,87.37,KBVU 180155Z AUTO 16016KT 10SM CLR 32/12 A2987 RMK AO2,M
RNO,2025-07-18 01:55,-119.7711,39.4839,1341.00,86.00,41.00,20.59,280.00,18.00,0.00,29.96,1008.40,10.00,30.00,FEW,M,M,M,9000.00,M,M,M,M,M,M,M,30.00,260.00,2025-07-18 01:46,82.86,KRNO 180155Z 28018G30KT 10SM FEW090 30/05 A2996 RMK AO2 PK WND 26030/0146 SLP084 T03000050,M
BAM,2025-07-18 01:55,-116.8743,40.5990,1382.36,86.00,44.60,23.64,90.00,8.00,0.00,29.92,M,10.00,M,CLR,M,M,M,M,M,M,M,M,M,M,M,M,M,M,83.08,KBAM 180155Z AUTO 09008KT 10SM CLR 30/07 A2992 RMK AO1,M
INS,2025-07-18 01:55,-115.6733,36.5872,955.00,80.60,56.70,44.06,80.00,19.00,0.01,29.95,1009.00,10.00,M,OVC,M,M,M,10000.00,M,M,M,TS -RA,M,M,M,34.00,60.00,2025-07-18 01:44,80.73,KINS 180155Z AUTO 08019KT 10SM TS -RA OVC100 27/14 A2995 RMK AO2 PK WND 06034/44 DZE0055DZB08E17DZB17E17DZB28E48RAB48 TSE0055TSB41 SLP090 P0001 T02700137 $,M
CXP,2025-07-18 01:55,-119.7326,39.1923,1431.00,82.40,42.80,24.77,280.00,11.00,0.00,30.01,M,10.00,18.00,CLR,M,M,M,M,M,M,M,M,M,M,M,M,M,M,80.39,KCXP 180155Z AUTO 28011G18KT 10SM CLR 28/06 A3001 RMK AO2,M
RTS,2025-07-18 01:55,-119.8764,39.6682,1539.00,82.40,28.40,13.98,250.00,17.00,0.00,30.04,M,10.00,23.00,CLR,M,M,M,M,M,M,M,M,M,M,M,M,M,M,79.94,KRTS 180155Z AUTO 25017G23KT 10SM CLR 28/M02 A3004 RMK AO2,M
05U,2025-07-18 01:55,-116.0051,39.6042,1811.23,84.20,32.00,15.28,10.00,9.00,0.00,30.07,M,10.00,M,CLR,M,M,M,M,M,M,M,M,M,M,M,M,M,M,81.28,K05U 180155Z AUTO 01009KT 10SM CLR 29/00 A3007 RMK A01,M
MEV,2025-07-18 01:55,-119.7500,38.9963,1441.42,82.40,42.80,24.77,270.00,14.00,0.00,30.00,M,10.00,21.00,CLR,M,M,M,M,M,M,M,M,M,M,M,M,M,M,80.39,KMEV 180155Z AUTO 27014G21KT 10SM CLR 28/06 A3000 RMK AO2,M
HTH,2025-07-18 01:55,-118.6315,38.5448,1282.89,87.80,30.20,12.66,330.00,17.00,0.00,29.90,M,10.00,25.00,CLR,M,M,M,M,M,M,M,M,M,M,M,M,M,M,84.01,KHTH 180155Z AUTO 33017G25KT 10SM CLR 31/M01 A2990 RMK A01,M
LSV,2025-07-18 01:55,-115.0343,36.2362,570.00,95.40,52.70,23.87,170.00,15.00,0.00,29.80,1006.00,10.00,M,FEW,SCT,BKN,M,11000.00,15000.00,22000.00,M,M,M,M,M,M,M,M,92.91,KLSV 180155Z 17015KT 10SM FEW110 SCT150 BKN220 35/12 A2980 RMK AO2A LTG DSNT W-NW SLP060 T03520115 $,M
EKO,2025-07-18 01:56,-115.7860,40.8242,1367.00,79.00,42.00,26.83,240.00,15.00,0.00,29.99,1009.80,10.00,24.00,CLR,M,M,M,M,M,M,M,M,M,M,M,M,M,M,79.00,KEKO 180156Z AUTO 24015G24KT 10SM CLR 26/06 A2999 RMK AO2 PRESRR SLP098 T02610056,M
HND,2025-07-18 01:56,-115.1344,35.9729,742.79,89.00,57.00,34.04,170.00,17.00,0.00,29.90,1011.10,10.00,22.00,FEW,M,M,M,11000.00,M,M,M,M,M,M,M,M,M,M,87.66,KHND 180156Z 17017G22KT 10SM FEW110 32/14 A2990 RMK AO2 LTG DSNT N AND NW SLP111 T03170139 $,M
TPH,2025-07-18 01:56,-117.0904,38.0505,1654.00,89.00,27.00,10.70,170.00,14.00,0.00,29.99,1007.20,10.00,19.00,CLR,M,M,M,M,M,M,M,M,M,M,M,M,M,M,84.61,KTPH 180156Z AUTO 17014G19KT 10SM CLR 32/M03 A2999 RMK AO2 SLP072 T03171028,M
LAS,2025-07-18 01:56,-115.1634,36.0719,663.00,90.00,54.00,29.59,220.00,11.00,0.00,29.87,1008.80,10.00,21.00,FEW,BKN,BKN,M,11000.00,16000.00,23000.00,M,M,M,M,M,M,M,M,87.84,KLAS 180156Z 22011G21KT 10SM FEW110 BKN160 BKN230 32/12 A2987 RMK AO2 LTG DSNT W-N SLP088 ACC NE-SE CB DSNT S-W-N T03220122,M
DRA,2025-07-18 01:57,-116.0278,36.6206,1009.00,94.00,50.00,22.55,100.00,24.00,0.00,29.89,M,10.00,32.00,CLR,M,M,M,M,M,M,M,M,M,M,M,32.00,100.00,2025-07-18 01:56,90.90,KDRA 180157Z AUTO 10024G32KT 10SM CLR 34/10 A2989 RMK AO2 PK WND 10032/0156 WSHFT 0140 T03440100,M
NFL,2025-07-18 01:57,-118.7010,39.4166,1199.00,97.00,35.00,11.55,310.00,10.00,0.00,29.87,1008.90,9.00,M,SCT,SCT,SCT,SCT,8000.00,12000.00,18000.00,25000.00,M,M,M,M,M,M,M,91.81,KNFL 180157Z 31010KT 9SM SCT080 SCT120 SCT180 SCT250 36/02 A2987 RMK AO2 SLP089 CB DSNT SE-S T03610017,M
DRA,2025-07-18 02:03,-116.0278,36.6206,1009.00,92.00,51.00,24.90,100.00,25.00,0.00,29.90,M,10.00,35.00,FEW,M,M,M,12000.00,M,M,M,M,M,M,M,35.00,110.00,2025-07-18 02:02,89.13,KDRA 180203Z AUTO 10025G35KT 10SM FEW120 33/11 A2990 RMK AO2 PK WND 11035/0202 WSHFT 0146 T03330106,M
LAS,2025-07-18 02:07,-115.1634,36.0719,663.00,91.00,53.00,27.65,200.00,9.00,0.00,29.88,M,10.00,M,FEW,BKN,BKN,M,11000.00,16000.00,23000.00,M,M,M,M,M,M,M,M,88.57,KLAS 180207Z 20009KT 10SM FEW110 BKN160 BKN230 33/12 A2988 RMK AO2 LTG DSNT W-N ACC NE-SE CB DSNT S-W-N T03280117,M
INS,2025-07-18 02:09,-115.6733,36.5872,955.00,75.20,60.80,60.96,100.00,25.00,0.00,29.97,1009.90,10.00,M,BKN,OVC,M,M,4900.00,10000.00,M,M,-VCTSRA,M,M,M,M,M,M,75.20,KINS 180209Z AUTO 10025KT 10SM -VCTSRA BKN049 OVC100 24/16 A2997 RMK AO2 LTG DSNT NE-E AND S RAE0157DZB0157E07RAB07E09 TSE09 PRESRR SLP099 $,M
TMT,2025-07-18 02:10,-117.1971,39.4643,1749.34,80.00,35.00,19.74,300.00,6.00,0.00,30.03,M,10.00,M,CLR,M,M,M,M,M,M,M,M,M,M,M,M,M,M,78.63,KTMT 180210Z AUTO 30006KT 10SM CLR 27/02 A3003 RMK AO2 T02660016,M
INS,2025-07-18 02:10,-115.6733,36.5872,955.00,75.20,60.80,60.96,100.00,25.00,0.00,29.97,1009.90,10.00,M,BKN,OVC,M,M,4900.00,10000.00,M,M,-TSRA,M,M,M,M,M,M,75.20,KINS 180210Z AUTO 10025KT 10SM -TSRA BKN049 OVC100 24/16 A2997 RMK AO2 RAE0157DZB0157E07RAB07E09RAB09 TSE09TSB10 SLP099 $,M
EKO,2025-07-18 02:11,-115.7860,40.8242,1367.00,83.00,37.00,19.38,280.00,16.00,0.00,30.00,M,10.00,M,CLR,M,M,M,M,M,M,M,M,M,M,M,M,M,M,80.53,KEKO 180211Z AUTO 28016KT 10SM CLR 28/03 A3000 RMK AO2 WSHFT 0151 T02830028,M
RTS,2025-07-18 02:15,-119.8764,39.6682,1539.00,80.60,23.00,11.84,260.00,15.00,0.00,30.04,M,10.00,27.00,CLR,M,M,M,M,M,M,M,M,M,M,M,M,M,M,78.80,KRTS 180215Z AUTO 26015G27KT 10SM CLR 27/M05 A3004 RMK AO2,M
05U,2025-07-18 02:15,-116.0051,39.6042,1811.23,84.20,33.80,16.42,0.00,0.00,0.00,30.07,M,10.00,M,CLR,M,M,M,M,M,M,M,M,M,M,M,M,M,M,81.30,K05U 180215Z AUTO 00000KT 10SM CLR 29/01 A3007 RMK A01,M
MEV,2025-07-18 02:15,-119.7500,38.9963,1441.42,82.40,42.80,24.77,300.00,13.00,0.00,30.01,M,10.00,19.00,CLR,M,M,M,M,M,M,M,M,M,M,M,M,M,M,80.39,KMEV 180215Z AUTO 30013G19KT 10SM CLR 28/06 A3001 RMK AO2,M
BAM,2025-07-18 02:15,-116.8743,40.5990,1382.36,86.00,44.60,23.64,90.00,7.00,0.00,29.93,M,10.00,M,CLR,M,M,M,M,M,M,M,M,M,M,M,M,M,M,83.08,KBAM 180215Z AUTO 09007KT 10SM CLR 30/07 A2993 RMK AO1,M
HTH,2025-07-18 02:15,-118.6315,38.5448,1282.89,89.60,32.00,12.87,360.00,14.00,0.00,29.91,M,10.00,M,CLR,M,M,M,M,M,M,M,M,M,M,M,M,M,M,85.55,KHTH 180215Z AUTO 36014KT 10SM CLR 32/00 A2991 RMK A01,M
BVU,2025-07-18 02:15,-114.8611,35.9475,671.00,89.60,53.60,29.53,170.00,10.00,0.00,29.87,M,10.00,M,CLR,M,M,M,M,M,M,M,M,M,M,M,M,M,M,87.37,KBVU 180215Z AUTO 17010KT 10SM CLR 32/12 A2987 RMK AO2,M
CXP,2025-07-18 02:15,-119.7326,39.1923,1431.00,82.40,41.00,23.10,270.00,11.00,0.00,30.02,M,10.00,17.00,CLR,M,M,M,M,M,M,M,M,M,M,M,M,M,M,80.29,KCXP 180215Z AUTO 27011G17KT 10SM CLR 28/05 A3002 RMK AO2,M
INS,2025-07-18 02:23,-115.6733,36.5872,955.00,73.40,62.60,68.99,110.00,18.00,0.00,29.99,1010.60,10.00,27.00,OVC,M,M,M,5500.00,M,M,M,-VCTSRA,M,M,M,M,M,M,73.40,KINS 180223Z AUTO 11018G27KT 10SM -VCTSRA OVC055 23/17 A2999 RMK AO2 LTG DSNT NE-S RAE0157DZB0157E07RAB07E09RAB09E11DZB11E12RAB12E23 TSE09TSB10E23 PRESRR SLP106 $,M
RTS,2025-07-18 02:25,-119.8764,39.6682,1539.00,80.60,24.80,12.77,250.00,16.00,0.00,30.05,M,10.00,22.00,CLR,M,M,M,M,M,M,M,M,M,M,M,M,M,M,78.94,KRTS 180225Z AUTO 25016G22KT 10SM CLR 27/M04 A3005 RMK AO2,M
INS,2025-07-18 02:26,-115.6733,36.5872,955.00,73.40,62.60,68.99,130.00,12.00,0.00,29.99,1010.60,10.00,27.00,OVC,M,M,M,5500.00,M,M,M,VCTS -DZ,M,M,M,M,M,M,73.40,KINS 180226Z AUTO 13012G27KT 10SM VCTS -DZ OVC055 23/17 A2999 RMK AO2 RAE0157DZB0157E07RAB07E09RAB09E11DZB11E12RAB12E23DZB26 TSE09TSB10E23 SLP106 $,M
TMT,2025-07-18 02:30,-117.1971,39.4643,1749.34,79.00,37.00,22.07,0.00,0.00,0.00,30.04,M,10.00,M,CLR,M,M,M,M,M,M,M,M,M,M,M,M,M,M,79.00,KTMT 180230Z AUTO 00000KT 10SM CLR 26/03 A3004 RMK AO2 T02610027,M
HND,2025-07-18 02:30,-115.1344,35.9729,742.79,84.20,57.20,39.93,220.00,12.00,0.00,29.93,M,10.00,18.00,OVC,M,M,M,10000.00,M,M,M,M,M,M,M,M,M,M,83.48,KHND 180230Z 22012G18KT 10SM OVC100 29/14 A2993 RMK AO2 WSHFT 0210 LTG DSNT NW $,M
05U,2025-07-18 02:35,-116.0051,39.6042,1811.23,82.40,33.80,17.40,0.00,0.00,0.00,30.07,M,10.00,M,CLR,M,M,M,M,M,M,M,M,M,M,M,M,M,M,80.04,K05U 180235Z AUTO 00000KT 10SM CLR 28/01 A3007 RMK A01,M
MEV,2025-07-18 02:35,-119.7500,38.9963,1441.42,80.60,42.80,26.26,320.00,8.00,0.00,30.02,M,10.00,15.00,CLR,M,M,M,M,M,M,M,M,M,M,M,M,M,M,79.31,KMEV 180235Z AUTO 32008G15KT 10SM CLR 27/06 A3002 RMK AO2,M
BAM,2025-07-18 02:35,-116.8743,40.5990,1382.36,84.20,46.40,26.81,50.00,7.00,0.00,29.94,M,10.00,M,CLR,M,M,M,M,M,M,M,M,M,M,M,M,M,M,81.87,KBAM 180235Z AUTO 05007KT 10SM CLR 29/08 A2994 RMK AO1,M
HTH,2025-07-18 02:35,-118.6315,38.5448,1282.89,87.80,37.40,16.89,10.00,22.00,0.00,29.91,M,7.00,29.00,CLR,M,M,M,M,M,M,M,M,M,M,M,M,M,M,84.17,KHTH 180235Z AUTO 01022G29KT 7SM CLR 31/03 A2991 RMK A01,M
BVU,2025-07-18 02:35,-114.8611,35.9475,671.00,89.60,53.60,29.53,210.00,7.00,0.00,29.88,M,10.00,12.00,CLR,M,M,M,M,M,M,M,M,M,M,M,M,M,M,87.37,KBVU 180235Z AUTO 21007G12KT 10SM CLR 32/12 A2988 RMK AO2 LTG DSNT NW,M
CXP,2025-07-18 02:35,-119.7326,39.1923,1431.00,80.60,41.00,24.49,270.00,10.00,0.00,30.03,M,10.00,15.00,CLR,M,M,M,M,M,M,M,M,M,M,M,M,M,M,79.20,KCXP 180235Z AUTO 27010G15KT 10SM CLR 27/05 A3003 RMK AO2,M
INS,2025-07-18 02:35,-115.6733,36.5872,955.00,73.40,62.60,68.99,130.00,20.00,0.00,29.99,1010.60,10.00,24.00,OVC,M,M,M,6500.00,M,M,M,TS -DZ,M,M,M,M,M,M,73.40,KINS 180235Z AUTO 13020G24KT 10SM TS -DZ OVC065 23/17 A2999 RMK AO2 DZE0155RAB0155E0157DZB0157E07RAB07E09RAB09E11DZB11E12RAB12E23 DZB26 TSB0155E09TSB10E23TSB35 SLP106 $,M
NFL,2025-07-18 02:35,-118.7010,39.4166,1199.00,91.00,42.00,18.28,220.00,17.00,0.00,29.91,M,8.00,23.00,SCT,BKN,BKN,M,10000.00,12000.00,15000.00,M,TS,M,M,M,M,M,M,87.11,KNFL 180235Z 22017G23KT 8SM TS SCT100CB BKN120 BKN150 33/06 A2991 RMK AO2 WSHFT 0217 TSB35 OCNL LTGIC VC S TS S MOV N T03280056,M
INS,2025-07-18 02:36,-115.6733,36.5872,955.00,73.40,62.60,68.99,120.00,20.00,0.00,29.99,1010.60,10.00,24.00,OVC,M,M,M,6500.00,M,M,M,TS,M,M,M,M,M,M,73.40,KINS 180236Z AUTO 12020G24KT 10SM TS OVC065 23/17 A2999 RMK AO2 DZE0155RAB0155E0157DZB0157E07RAB07E09RAB09E11DZB11E12RAB12E23 DZB26E36 TSB0155E09TSB10E23TSB35 SLP106 $,M
LSV,2025-07-18 02:48,-115.0343,36.2362,570.00,93.20,53.60,26.40,280.00,14.00,0.00,29.85,1007.70,10.00,M,BKN,BKN,M,M,10000.00,18000.00,M,M,M,M,M,M,M,M,M,90.89,KLSV 180248Z 28014KT 10SM BKN100 BKN180 34/12 A2985 RMK AO2A WSHFT 47 LTG DSNT SW-NW SLP077 $,M
INS,2025-07-18 02:50,-115.6733,36.5872,955.00,73.40,60.80,64.74,120.00,19.00,0.00,30.00,1010.90,9.00,33.00,FEW,BKN,OVC,M,2400.00,4800.00,9500.00,M,TS -DZ,M,M,M,M,M,M,73.40,KINS 180250Z AUTO 12019G33KT 9SM TS -DZ FEW024 BKN048 OVC095 23/16 A3000 RMK AO2 RAB0155E0157DZB0157E07RAB07E09RAB09E11DZB11E12RAB12E23DZB26E3 6DZB50 TSE09TSB10E23TSB35 SLP109 $,M
TMT,2025-07-18 02:50,-117.1971,39.4643,1749.34,77.00,36.30,22.93,0.00,0.00,0.00,30.04,M,10.00,M,CLR,M,M,M,M,M,M,M,M,M,M,M,M,M,M,77.00,KTMT 180250Z AUTO 00000KT 10SM CLR 25/02 A3004 RMK AO2 T02500024,M
INS,2025-07-18 02:53,-115.6733,36.5872,955.00,75.20,57.20,53.60,140.00,31.00,0.00,30.00,1010.70,8.00,42.00,FEW,BKN,OVC,M,2600.00,4800.00,9000.00,M,-TSRA SQ,M,M,M,M,M,M,75.20,KINS 180253Z AUTO 14031G42KT 8SM -TSRA SQ FEW026 BKN048 OVC090 24/14 A3000 RMK AO2 RAB0155E0157DZB0157E07RAB07E09RAB09E11DZB11E12RAB12E23DZB26E3 6DZB50E53RAB53 TSE09TSB10E23TSB35 SLP107 $,M
P68,2025-07-18 02:53,-116.0056,39.6014,1993.00,79.00,35.00,20.39,10.00,5.00,0.00,30.05,1007.70,M,M,M,M,M,M,M,M,M,M,M,M,M,M,M,M,M,79.00,KP68 180253Z AUTO 01005KT 26/02 A3005 RMK AO1 SLP077 T02610017 53009,M
DRA,2025-07-18 02:53,-116.0278,36.6206,1009.00,79.00,59.00,50.42,110.00,24.00,0.00,29.94,1008.70,10.00,39.00,CLR,M,M,M,M,M,M,M,M,M,M,M,48.00,120.00,2025-07-18 02:12,79.00,KDRA 180253Z AUTO 11024G39KT 10SM CLR 26/15 A2994 RMK AO2 PK WND 12048/0212 WSHFT 0146 SLP087 T02610150 53021,M
ELY,2025-07-18 02:53,-114.8453,39.2950,1909.00,83.00,29.00,14.06,230.00,12.00,0.00,30.05,1005.30,10.00,19.00,CLR,M,M,M,M,M,M,M,M,M,M,M,M,M,M,80.37,KELY 180253Z AUTO 23012G19KT 10SM CLR 28/M02 A3005 RMK AO2 SLP053 T02831017 53002,M
VGT,2025-07-18 02:53,-115.1933,36.2111,667.00,80.00,58.00,47.08,310.00,12.00,0.00,29.93,1012.60,10.00,36.00,FEW,BKN,M,M,4500.00,10000.00,M,M,M,M,M,M,42.00,330.00,2025-07-18 02:43,80.53,KVGT 180253Z 31012G36KT 10SM FEW045 BKN100 27/14 A2993 RMK AO2 PK WND 33042/0243 WSHFT 0232 LTG DSNT S-NW SLP126 T02670144 51035,M
LSV,2025-07-18 02:53,-115.0343,36.2362,570.00,91.40,51.80,26.12,260.00,11.00,0.00,29.85,1007.70,10.00,M,BKN,BKN,M,M,9500.00,18000.00,M,M,M,M,M,M,M,M,M,88.71,KLSV 180253Z 26011KT 10SM BKN095 BKN180 33/11 A2985 RMK AO2A WSHFT 50 LTG DSNT S-NW SLP077 $,M
LOL,2025-07-18 02:53,-118.5701,40.0684,1192.43,91.00,31.00,11.83,310.00,13.00,0.00,29.88,1007.00,10.00,M,CLR,M,M,M,M,M,M,M,M,M,M,M,M,M,M,86.50,KLOL 180253Z AUTO 31013KT 10SM CLR 33/M01 A2988 RMK AO2 SLP070 T03281006 53003,M
INS,2025-07-18 02:54,-115.6733,36.5872,955.00,75.20,57.20,53.60,150.00,34.00,0.00,30.00,1010.70,8.00,42.00,FEW,BKN,OVC,M,2600.00,4800.00,9000.00,M,-TSRA SQ,M,M,M,M,M,M,75.20,KINS 180254Z AUTO 15034G42KT 8SM -TSRA SQ FEW026 BKN048 OVC090 24/14 A3000 RMK AO2 WSHFT 51 RAB0155E0157DZB0157E07RAB07E09RAB09E11DZB11E12RAB12E23DZB26E3 6DZB50E53RAB53 TSE09TSB10E23TSB35 SLP107 $,M
RTS,2025-07-18 02:55,-119.8764,39.6682,1539.00,78.80,26.60,14.60,280.00,9.00,0.00,30.07,M,10.00,22.00,CLR,M,M,M,M,M,M,M,M,M,M,M,M,M,M,78.80,KRTS 180255Z AUTO 28009G22KT 10SM CLR 26/M03 A3007 RMK AO2,M
05U,2025-07-18 02:55,-116.0051,39.6042,1811.23,78.80,35.60,21.02,0.00,0.00,0.00,30.07,M,10.00,M,CLR,M,M,M,M,M,M,M,M,M,M,M,M,M,M,78.80,K05U 180255Z AUTO 00000KT 10SM CLR 26/02 A3007 RMK A01,M
MEV,2025-07-18 02:55,-119.7500,38.9963,1441.42,78.80,42.80,27.85,300.00,9.00,0.00,30.03,M,10.00,17.00,CLR,M,M,M,M,M,M,M,M,M,M,M,M,M,M,78.80,KMEV 180255Z AUTO 30009G17KT 10SM CLR 26/06 A3003 RMK AO2,M
BAM,2025-07-18 02:55,-116.8743,40.5990,1382.36,82.40,44.60,26.53,60.00,13.00,0.00,29.95,M,10.00,19.00,CLR,M,M,M,M,M,M,M,M,M,M,M,M,M,M,80.51,KBAM 180255Z AUTO 06013G19KT 10SM CLR 28/07 A2995 RMK AO1,M
HTH,2025-07-18 02:55,-118.6315,38.5448,1282.89,86.00,33.80,15.50,360.00,16.00,0.00,29.92,M,10.00,25.00,CLR,M,M,M,M,M,M,M,M,M,M,M,M,M,M,82.66,KHTH 180255Z AUTO 36016G25KT 10SM CLR 30/01 A2992 RMK A01,M
BVU,2025-07-18 02:55,-114.8611,35.9475,671.00,86.00,55.40,35.33,210.00,13.00,0.00,29.89,M,10.00,20.00,FEW,M,M,M,12000.00,M,M,M,M,M,M,M,M,M,M,84.56,KBVU 180255Z AUTO 21013G20KT 10SM FEW120 30/13 A2989 RMK AO2,M
CXP,2025-07-18 02:55,-119.7326,39.1923,1431.00,80.60,39.20,22.84,260.00,6.00,0.00,30.04,M,10.00,M,FEW,M,M,M,1400.00,M,M,M,M,M,M,M,M,M,M,79.11,KCXP 180255Z AUTO 26006KT 10SM FEW014 27/04 A3004 RMK AO2,M
INS,2025-07-18 02:55,-115.6733,36.5872,955.00,75.00,57.20,53.95,150.00,34.00,0.04,30.00,1010.70,8.00,42.00,FEW,BKN,BKN,OVC,2600.00,4800.00,7500.00,10000.00,-TSRA SQ,M,M,M,M,M,M,75.00,KINS 180255Z AUTO 15034G42KT 8SM -TSRA SQ FEW026 BKN048 BKN075 OVC100 24/14 A3000 RMK AO2 RAB0155E0157DZB0157E07RAB07E09RAB09E11DZB11E12RAB12E23DZB26E3 6DZB50E53RAB53 TSE09TSB10E23TSB35 SLP107 P0004 60005 T02390140 53045 $,M
RNO,2025-07-18 02:55,-119.7711,39.4839,1341.00,82.00,33.00,17.07,280.00,13.00,0.00,29.99,1009.50,10.00,27.00,FEW,M,M,M,9000.00,M,M,M,M,M,M,M,30.00,270.00,2025-07-18 01:56,79.75,KRNO 180255Z 28013G27KT 10SM FEW090 28/01 A2999 RMK AO2 PK WND 27030/0156 SLP095 T02780006 53012,M
LSV,2025-07-18 02:55,-115.0343,36.2362,570.00,90.30,51.80,27.04,260.00,9.00,0.00,29.86,1008.10,10.00,M,FEW,BKN,BKN,BKN,10000.00,16000.00,18000.00,22000.00,M,M,M,M,28.00,320.00,2025-07-18 02:54,87.66,KLSV 180255Z 26009KT 10SM FEW100 BKN160 BKN180 BKN220 32/11 A2986 RMK AO2A PK WND 32028/54 LTG DSNT S-W SLP081 T03240110 52032 $,M
TPH,2025-07-18 02:56,-117.0904,38.0505,1654.00,85.00,28.00,12.65,190.00,14.00,0.00,30.01,1007.30,10.00,M,CLR,M,M,M,M,M,M,M,M,M,M,M,M,M,M,81.80,KTPH 180256Z AUTO 19014KT 10SM CLR 29/M02 A3001 RMK AO2 SLP073 T02941022 53001,M
LAS,2025-07-18 02:56,-115.1634,36.0719,663.00,84.00,57.00,39.90,220.00,13.00,0.00,29.93,1010.60,10.00,21.00,FEW,BKN,BKN,M,11000.00,16000.00,23000.00,M,M,M,M,M,M,M,M,83.28,KLAS 180256Z 22013G21KT 10SM FEW110 BKN160 BKN230 29/14 A2993 RMK AO2 LTG DSNT SW AND NW SLP106 T02890139 53033,M
EKO,2025-07-18 02:56,-115.7860,40.8242,1367.00,82.00,37.00,20.02,320.00,9.00,0.00,30.00,1009.50,10.00,19.00,CLR,M,M,M,M,M,M,M,M,M,M,M,M,M,M,79.87,KEKO 180256Z AUTO 32009G19KT 10SM CLR 28/03 A3000 RMK AO2 WSHFT 0151 SLP095 60000 T02780028 53004,M
HND,2025-07-18 02:56,-115.1344,35.9729,742.79,82.00,61.00,49.10,190.00,13.00,T,29.94,1012.60,10.00,M,FEW,BKN,OVC,M,3600.00,10000.00,12000.00,M,-RA,M,M,M,M,M,M,82.64,KHND 180256Z 19013KT 10SM -RA FEW036 BKN100 OVC120 28/16 A2994 RMK AO2 WSHFT 0237 LTG DSNT SW AND NW RAB40 SLP126 P0000 60000 T02780161 53026 $,M
INS,2025-07-18 02:56,-115.6733,36.5872,955.00,75.20,57.20,53.60,150.00,26.00,0.00,30.00,1010.70,7.00,42.00,BKN,BKN,OVC,M,4800.00,7500.00,10000.00,M,VCTS -RA SQ,M,M,M,M,M,M,75.20,KINS 180256Z AUTO 15026G42KT 7SM VCTS -RA SQ BKN048 BKN075 OVC100 24/14 A3000 RMK AO2 TSE56 SLP107 $,M
NFL,2025-07-18 02:57,-118.7010,39.4166,1199.00,87.00,44.00,22.38,230.00,14.00,0.00,29.92,1010.60,8.00,30.00,SCT,BKN,BKN,M,10000.00,12000.00,15000.00,M,TS,M,M,M,31.00,210.00,2025-07-18 02:38,83.83,KNFL 180257Z 23014G30KT 200V270 8SM TS SCT100CB BKN120 BKN150 31/07 A2992 RMK AO2 PK WND 21031/0238 WSHFT 0217 TSB35 SLP106 OCNL LTGIC VC S TS S MOV N T03060067 53017,M
INS,2025-07-18 03:06,-115.6733,36.5872,955.00,75.20,59.00,57.17,130.00,18.00,0.00,30.00,1010.70,9.00,34.00,FEW,BKN,OVC,M,2100.00,6500.00,9000.00,M,VCTS -RA,M,M,M,M,M,M,75.20,KINS 180306Z AUTO 13018G34KT 9SM VCTS -RA FEW021 BKN065 OVC090 24/15 A3000 RMK AO2 WSHFT 05 TSB0255E0256 SLP107 $,M
LSV,2025-07-18 03:08,-115.0343,36.2362,570.00,89.60,51.80,27.64,310.00,20.00,0.00,29.86,1008.10,10.00,26.00,SCT,BKN,BKN,M,9500.00,14000.00,19000.00,M,TS,M,M,M,M,M,M,87.01,KLSV 180308Z 31020G26KT 10SM TS SCT095 BKN140 BKN190 32/11 A2986 RMK AO2A TSB08 SLP081 $,M
TMT,2025-07-18 03:10,-117.1971,39.4643,1749.34,68.00,38.70,34.14,150.00,5.00,0.00,30.04,M,10.00,M,CLR,M,M,M,M,M,M,M,M,M,M,M,M,M,M,68.00,KTMT 180310Z AUTO 15005KT 10SM CLR 20/04 A3004 RMK AO2 T02010037,M
05U,2025-07-18 03:10,-116.0051,39.6042,1811.23,77.00,32.00,19.31,0.00,0.00,0.00,30.07,M,10.00,M,CLR,M,M,M,M,M,M,M,M,M,M,M,M,M,M,77.00,K05U 180310Z AUTO 00000KT 10SM CLR 25/00 A3007 RMK A01,M
INS,2025-07-18 03:10,-115.6733,36.5872,955.00,75.20,57.20,53.60,90.00,16.00,0.00,30.00,1010.70,9.00,31.00,FEW,OVC,M,M,2300.00,7000.00,M,M,-VCTSRA,M,M,M,M,M,M,75.20,KINS 180310Z AUTO 09016G31KT 9SM -VCTSRA FEW023 OVC070 24/14 A3000 RMK AO2 LTG DSNT SE-S RAE10 TSB0255E0256 SLP107 $,M
INS,2025-07-18 03:12,-115.6733,36.5872,955.00,75.20,57.20,53.60,100.00,25.00,0.00,30.00,1010.70,10.00,31.00,FEW,OVC,M,M,2300.00,8000.00,M,M,VCTS -RA,M,M,M,M,M,M,75.20,KINS 180312Z AUTO 10025G31KT 10SM VCTS -RA FEW023 OVC080 24/14 A3000 RMK AO2 RAE10RAB12 TSB0255E0256 SLP107 $,M
HND,2025-07-18 03:13,-115.1344,35.9729,742.79,82.40,59.00,45.14,220.00,15.00,T,29.94,M,10.00,M,BKN,M,M,M,11000.00,M,M,M,VCTS,M,M,M,M,M,M,82.47,KHND 180313Z AUTO 22015KT 10SM VCTS BKN110 28/15 A2994 RMK AO2 WSHFT 0253 LTG DSNT NW TSB13RAE0259 P0000 $,M
BVU,2025-07-18 03:15,-114.8611,35.9475,671.00,86.00,53.60,33.08,200.00,10.00,0.00,29.89,M,10.00,M,BKN,BKN,M,M,10000.00,12000.00,M,M,M,M,M,M,M,M,M,84.19,KBVU 180315Z AUTO 20010KT 10SM BKN100 BKN120 30/12 A2989 RMK AO2,M
CXP,2025-07-18 03:15,-119.7326,39.1923,1431.00,78.80,37.40,22.57,M,4.00,0.00,30.04,M,10.00,M,FEW,M,M,M,1300.00,M,M,M,M,M,M,M,M,M,M,78.80,KCXP 180315Z AUTO VRB04KT 10SM FEW013 26/03 A3004 RMK AO2,M
RTS,2025-07-18 03:15,-119.8764,39.6682,1539.00,75.20,33.80,22.04,300.00,11.00,0.00,30.08,M,10.00,16.00,CLR,M,M,M,M,M,M,M,M,M,M,M,M,M,M,75.20,KRTS 180315Z AUTO 30011G16KT 10SM CLR 24/01 A3008 RMK AO2,M
MEV,2025-07-18 03:15,-119.7500,38.9963,1441.42,77.00,42.80,29.55,290.00,9.00,0.00,30.03,M,10.00,M,CLR,M,M,M,M,M,M,M,M,M,M,M,M,M,M,77.00,KMEV 180315Z AUTO 29009KT 10SM CLR 25/06 A3003 RMK AO2,M
HTH,2025-07-18 03:15,-118.6315,38.5448,1282.89,84.20,39.20,20.33,320.00,16.00,0.00,29.93,M,9.00,M,CLR,M,M,M,M,M,M,M,M,M,M,M,M,M,M,81.44,KHTH 180315Z AUTO 32016KT 9SM CLR 29/04 A2993 RMK A01,M
BAM,2025-07-18 03:15,-116.8743,40.5990,1382.36,80.60,44.60,28.13,60.00,9.00,0.00,29.95,M,10.00,M,CLR,M,M,M,M,M,M,M,M,M,M,M,M,M,M,79.43,KBAM 180315Z AUTO 06009KT 10SM CLR 27/07 A2995 RMK AO1,M
VGT,2025-07-18 03:15,-115.1933,36.2111,667.00,79.00,59.00,50.42,310.00,19.00,0.00,29.92,M,10.00,30.00,FEW,M,M,M,4600.00,M,M,M,VCTS,M,M,M,35.00,320.00,2025-07-18 02:59,79.00,KVGT 180315Z 31019G30KT 10SM VCTS FEW046 26/15 A2992 RMK AO2 PK WND 32035/0259 LTG DSNT S-NW T02610150,M
INS,2025-07-18 03:21,-115.6733,36.5872,955.00,73.40,60.80,64.74,130.00,19.00,0.00,29.99,1010.30,10.00,31.00,OVC,M,M,M,9000.00,M,M,M,-TSRA,M,M,M,M,M,M,73.40,KINS 180321Z AUTO 13019G31KT 10SM -TSRA OVC090 23/16 A2999 RMK AO2 RAE10RAB12 TSB0255E0256TSB21 SLP103 $,M
INS,2025-07-18 03:22,-115.6733,36.5872,955.00,73.40,60.80,64.74,130.00,18.00,0.00,29.99,1010.30,10.00,31.00,OVC,M,M,M,9000.00,M,M,M,-TSRA,M,M,M,M,M,M,73.40,KINS 180322Z AUTO 13018G31KT 10SM -TSRA OVC090 23/16 A2999 RMK AO2 WSHFT 16 RAE10RAB12 TSB0255E0256TSB21 SLP103 $,M
NFL,2025-07-18 03:23,-118.7010,39.4166,1199.00,86.00,45.00,24.00,210.00,11.00,T,29.94,M,9.00,19.00,SCT,BKN,BKN,BKN,10000.00,12000.00,15000.00,25000.00,-TSRA,M,M,M,33.00,180.00,2025-07-18 03:01,83.11,KNFL 180323Z 21011G19KT 9SM -TSRA SCT100CB BKN120 BKN150 BKN250 30/07 A2994 RMK AO2 PK WND 18033/0301 RAB21 TSE19B21 OCNL LTGIC VC S TS S MOV N P0000 T03000072,M
TMT,2025-07-18 03:30,-117.1971,39.4643,1749.34,71.20,36.30,27.85,150.00,3.00,0.00,30.05,M,10.00,M,CLR,M,M,M,M,M,M,M,M,M,M,M,M,M,M,71.20,KTMT 180330Z AUTO 15003KT 10SM CLR 22/02 A3005 RMK AO2 T02180024,M
VGT,2025-07-18 03:30,-115.1933,36.2111,667.00,81.00,56.00,42.40,320.00,19.00,0.00,29.91,M,10.00,27.00,CLR,M,M,M,M,M,M,M,M,M,M,M,35.00,320.00,2025-07-18 02:59,80.89,KVGT 180330Z 32019G27KT 10SM CLR 27/13 A2991 RMK AO2 PK WND 32035/0259 LTG DSNT SW-NW T02720133,M
LSV,2025-07-18 03:33,-115.0343,36.2362,570.00,86.00,55.40,35.33,300.00,17.00,0.00,29.86,1008.20,10.00,27.00,BKN,OVC,M,M,10000.00,14000.00,M,M,M,M,M,M,M,M,M,84.56,KLSV 180333Z 30017G27KT 10SM BKN100 OVC140 30/13 A2986 RMK AO2A LTG DSNT W TSE0255TSB08E33 SLP082 $,M
HND,2025-07-18 03:34,-115.1344,35.9729,742.79,82.40,57.20,42.32,320.00,11.00,T,29.98,M,10.00,17.00,BKN,M,M,M,10000.00,M,M,M,M,M,M,M,M,M,M,82.09,KHND 180334Z AUTO 32011G17KT 10SM BKN100 28/14 A2998 RMK AO2 WSHFT 0253 LTG DSNT SW AND W TSB13E28RAE0259 P0000 $,M
BAM,2025-07-18 03:35,-116.8743,40.5990,1382.36,78.80,44.60,29.83,60.00,3.00,0.00,29.95,M,10.00,M,CLR,M,M,M,M,M,M,M,M,M,M,M,M,M,M,78.80,KBAM 180335Z AUTO 06003KT 10SM CLR 26/07 A2995 RMK AO1,M
RTS,2025-07-18 03:35,-119.8764,39.6682,1539.00,73.40,33.80,23.41,300.00,12.00,0.00,30.09,M,10.00,M,CLR,M,M,M,M,M,M,M,M,M,M,M,M,M,M,73.40,KRTS 180335Z AUTO 30012KT 10SM CLR 23/01 A3009 RMK AO2,M
05U,2025-07-18 03:35,-116.0051,39.6042,1811.23,73.40,35.60,25.15,0.00,0.00,0.00,30.08,M,10.00,M,CLR,M,M,M,M,M,M,M,M,M,M,M,M,M,M,73.40,K05U 180335Z AUTO 00000KT 10SM CLR 23/02 A3008 RMK A01,M
MEV,2025-07-18 03:35,-119.7500,38.9963,1441.42,75.20,42.80,31.37,290.00,9.00,0.00,30.04,M,10.00,15.00,CLR,M,M,M,M,M,M,M,M,M,M,M,M,M,M,75.20,KMEV 180335Z AUTO 29009G15KT 10SM CLR 24/06 A3004 RMK AO2,M
HTH,2025-07-18 03:35,-118.6315,38.5448,1282.89,84.20,37.40,18.94,330.00,16.00,0.00,29.94,M,10.00,M,CLR,M,M,M,M,M,M,M,M,M,M,M,M,M,M,81.38,KHTH 180335Z AUTO 33016KT 10SM CLR 29/03 A2994 RMK A01,M
BVU,2025-07-18 03:35,-114.8611,35.9475,671.00,86.00,55.40,35.33,240.00,6.00,0.00,29.90,M,10.00,M,BKN,BKN,M,M,10000.00,12000.00,M,M,M,M,M,M,M,M,M,84.56,KBVU 180335Z AUTO 24006KT 10SM BKN100 BKN120 30/13 A2990 RMK AO2,M
CXP,2025-07-18 03:35,-119.7326,39.1923,1431.00,77.00,35.60,22.31,300.00,6.00,0.00,30.05,M,10.00,M,CLR,M,M,M,M,M,M,M,M,M,M,M,M,M,M,77.00,KCXP 180335Z AUTO 30006KT 10SM CLR 25/02 A3005 RMK AO2,M
NFL,2025-07-18 03:36,-118.7010,39.4166,1199.00,86.00,45.00,24.00,190.00,9.00,T,29.95,M,10.00,19.00,SCT,BKN,BKN,BKN,10000.00,12000.00,15000.00,25000.00,-RA,M,M,M,33.00,180.00,2025-07-18 03:01,83.11,KNFL 180336Z 19009G19KT 10SM -RA SCT100CB BKN120 BKN150 BKN250 30/07 A2995 RMK AO2 PK WND 18033/0301 RAB21 TSE19B21E35 CB S MOV N P0000 T03000072,M
INS,2025-07-18 03:36,-115.6733,36.5872,955.00,75.20,57.20,53.60,130.00,10.00,0.00,30.00,1010.70,10.00,18.00,BKN,OVC,M,M,6000.00,10000.00,M,M,-RA,M,M,M,M,M,M,75.20,KINS 180336Z AUTO 13010G18KT 10SM -RA BKN060 OVC100 24/14 A3000 RMK AO2 LTG DSNT SE-S RAE10RAB12 TSE0256TSB21E36 SLP107 $,M
LSV,2025-07-18 03:40,-115.0343,36.2362,570.00,84.20,57.20,39.93,310.00,17.00,0.00,29.85,1007.90,10.00,23.00,FEW,SCT,OVC,M,6000.00,8000.00,10000.00,M,-RA,M,M,M,M,M,M,83.48,KLSV 180340Z 31017G23KT 10SM -RA FEW060 SCT080 OVC100 29/14 A2985 RMK AO2A LTG DSNT NE AND W RAB40 TSB08E33 SLP079 $,M
TMT,2025-07-18 03:50,-117.1971,39.4643,1749.34,69.40,34.00,27.02,0.00,0.00,0.00,30.06,M,10.00,M,CLR,M,M,M,M,M,M,M,M,M,M,M,M,M,M,69.40,KTMT 180350Z AUTO 00000KT 10SM CLR 21/01 A3006 RMK AO2 T02080011,M
CXP,2025-07-18 03:50,-119.7326,39.1923,1431.00,77.00,37.40,23.95,250.00,5.00,0.00,30.06,M,10.00,M,CLR,M,M,M,M,M,M,M,M,M,M,M,M,M,M,77.00,KCXP 180350Z AUTO 25005KT 10SM CLR 25/03 A3006 RMK AO2,M
P68,2025-07-18 03:53,-116.0056,39.6014,1993.00,73.00,33.00,22.98,360.00,5.00,0.00,30.06,1008.20,M,M,M,M,M,M,M,M,M,M,M,M,M,M,M,M,M,73.00,KP68 180353Z AUTO 36005KT 23/01 A3006 RMK AO1 SLP082 T02280006,M
DRA,2025-07-18 03:53,-116.0278,36.6206,1009.00,83.00,50.00,31.89,110.00,29.00,0.00,29.95,1008.70,10.00,46.00,CLR,M,M,M,M,M,M,M,M,M,M,M,46.00,120.00,2025-07-18 03:51,81.39,KDRA 180353Z AUTO 11029G46KT 10SM CLR 28/10 A2995 RMK AO2 PK WND 12046/0351 SLP087 T02830100,M
ELY,2025-07-18 03:53,-114.8453,39.2950,1909.00,78.00,32.00,18.69,190.00,15.00,0.00,30.10,1007.30,10.00,24.00,CLR,M,M,M,M,M,M,M,M,M,M,M,M,M,M,78.00,KELY 180353Z AUTO 19015G24KT 10SM CLR 26/00 A3010 RMK AO2 PRESRR SLP073 T02560000,M
VGT,2025-07-18 03:53,-115.1933,36.2111,667.00,83.00,55.00,38.33,300.00,15.00,0.00,29.92,1012.00,10.00,M,CLR,M,M,M,M,M,M,M,M,M,M,M,35.00,320.00,2025-07-18 02:59,82.11,KVGT 180353Z 30015KT 10SM CLR 28/13 A2992 RMK AO2 PK WND 32035/0259 LTG DSNT W SLP120 T02830128,M
LOL,2025-07-18 03:53,-118.5701,40.0684,1192.43,86.00,34.00,15.63,290.00,16.00,0.00,29.91,1008.00,10.00,M,CLR,M,M,M,M,M,M,M,M,M,M,M,M,M,M,82.66,KLOL 180353Z AUTO 29016KT 10SM CLR 30/01 A2991 RMK AO2 SLP080 T03000011,M
BVU,2025-07-18 03:55,-114.8611,35.9475,671.00,86.00,55.40,35.33,330.00,12.00,0.00,29.91,M,10.00,M,BKN,BKN,M,M,9500.00,11000.00,M,M,M,M,M,M,M,M,M,84.56,KBVU 180355Z AUTO 33012KT 10SM BKN095 BKN110 30/13 A2991 RMK AO2 LTG DSNT SW AND W,M
RNO,2025-07-18 03:55,-119.7711,39.4839,1341.00,79.00,35.00,20.39,300.00,13.00,0.00,30.02,1010.70,10.00,23.00,FEW,M,M,M,9000.00,M,M,M,M,M,M,M,29.00,290.00,2025-07-18 02:57,79.00,KRNO 180355Z 30013G23KT 10SM FEW090 26/02 A3002 RMK AO2 PK WND 29029/0257 SLP107 T02610017,M
BAM,2025-07-18 03:55,-116.8743,40.5990,1382.36,77.00,46.40,33.89,0.00,0.00,0.00,29.96,M,10.00,M,CLR,M,M,M,M,M,M,M,M,M,M,M,M,M,M,77.00,KBAM 180355Z AUTO 00000KT 10SM CLR 25/08 A2996 RMK AO1,M
RTS,2025-07-18 03:55,-119.8764,39.6682,1539.00,71.60,35.60,26.72,290.00,11.00,0.00,30.10,M,10.00,M,CLR,M,M,M,M,M,M,M,M,M,M,M,M,M,M,71.60,KRTS 180355Z AUTO 29011KT 10SM CLR 22/02 A3010 RMK AO2,M
05U,2025-07-18 03:55,-116.0051,39.6042,1811.23,73.40,33.80,23.41,0.00,0.00,0.00,30.08,M,10.00,M,CLR,M,M,M,M,M,M,M,M,M,M,M,M,M,M,73.40,K05U 180355Z AUTO 00000KT 10SM CLR 23/01 A3008 RMK A01,M
MEV,2025-07-18 03:55,-119.7500,38.9963,1441.42,75.20,41.00,29.26,280.00,10.00,0.00,30.05,M,10.00,M,CLR,M,M,M,M,M,M,M,M,M,M,M,M,M,M,75.20,KMEV 180355Z AUTO 28010KT 10SM CLR 24/05 A3005 RMK AO2,M
HTH,2025-07-18 03:55,-118.6315,38.5448,1282.89,84.20,41.00,21.80,360.00,8.00,0.00,29.95,M,10.00,M,CLR,M,M,M,M,M,M,M,M,M,M,M,M,M,M,81.52,KHTH 180355Z AUTO 36008KT 10SM CLR 29/05 A2995 RMK A01,M
INS,2025-07-18 03:55,-115.6733,36.5872,955.00,77.70,55.20,45.89,90.00,4.00,0.02,30.00,1010.50,10.00,M,BKN,BKN,OVC,M,6500.00,8000.00,10000.00,M,-RA,M,M,M,36.00,80.00,2025-07-18 03:05,77.70,KINS 180355Z AUTO 09004KT 10SM -RA BKN065 BKN080 OVC100 25/13 A3000 RMK AO2 PK WND 08036/05 LTG DSNT S RAE10RAB12 TSB0255E0256TSB21E36 SLP105 P0002 T02540129 $,M
LSV,2025-07-18 03:55,-115.0343,36.2362,570.00,82.40,60.60,47.79,300.00,15.00,0.01,29.86,1008.30,10.00,M,FEW,SCT,BKN,M,8000.00,10000.00,15000.00,M,-RA,M,M,M,27.00,300.00,2025-07-18 03:29,82.86,KLSV 180355Z 30015KT 10SM -RA FEW080 SCT100 BKN150 28/16 A2986 RMK AO2A PK WND 30027/29 RAE0255RAB40 TSB08E33 SLP083 P0001 T02800159 $,M
EKO,2025-07-18 03:56,-115.7860,40.8242,1367.00,80.00,37.00,21.36,50.00,7.00,0.00,30.00,1009.20,10.00,M,CLR,M,M,M,M,M,M,M,M,M,M,M,M,M,M,78.70,KEKO 180356Z AUTO 05007KT 10SM CLR 27/03 A3000 RMK AO2 SLP092 T02670028,M
HND,2025-07-18 03:56,-115.1344,35.9729,742.79,83.00,56.00,39.74,350.00,7.00,T,29.99,1014.00,10.00,M,FEW,M,M,M,10000.00,M,M,M,M,M,M,M,M,M,M,82.30,KHND 180356Z AUTO 35007KT 10SM FEW100 28/13 A2999 RMK AO2 WSHFT 0253 TSB13E28RAE0259 SLP140 P0000 T02830133 $,M
TPH,2025-07-18 03:56,-117.0904,38.0505,1654.00,81.00,32.00,16.94,170.00,10.00,0.00,30.03,1007.90,10.00,M,CLR,M,M,M,M,M,M,M,M,M,M,M,M,M,M,79.07,KTPH 180356Z AUTO 17010KT 10SM CLR 27/00 A3003 RMK AO2 SLP079 T02720000,M
LAS,2025-07-18 03:56,-115.1634,36.0719,663.00,85.00,54.00,34.66,340.00,10.00,0.00,29.94,1011.10,10.00,17.00,FEW,BKN,BKN,M,11000.00,16000.00,23000.00,M,M,M,M,M,M,M,M,83.46,KLAS 180356Z 34010G17KT 10SM FEW110 BKN160 BKN230 29/12 A2994 RMK AO2 LTG DSNT NW SLP111 T02940122,M
NFL,2025-07-18 03:57,-118.7010,39.4166,1199.00,86.00,42.00,21.40,210.00,10.00,T,29.95,1011.50,10.00,21.00,SCT,BKN,BKN,BKN,10000.00,12000.00,15000.00,25000.00,M,M,M,M,33.00,180.00,2025-07-18 03:01,82.91,KNFL 180357Z 21010G21KT 10SM SCT100CB BKN120 BKN150 BKN250 30/06 A2995 RMK AO2 PK WND 18033/0301 RAB21E46 TSE19B21E35 SLP115 CB S MOV N P0000 T03000056,M
HND,2025-07-18 04:04,-115.1344,35.9729,742.79,82.40,57.20,42.32,330.00,4.00,0.00,29.99,M,10.00,M,CLR,M,M,M,M,M,M,M,VCTS,M,M,M,M,M,M,82.09,KHND 180404Z AUTO 33004KT 10SM VCTS CLR 28/14 A2999 RMK AO2 TSB0358 $,M
RTS,2025-07-18 04:05,-119.8764,39.6682,1539.00,71.60,35.60,26.72,300.00,13.00,0.00,30.10,M,10.00,M,CLR,M,M,M,M,M,M,M,M,M,M,M,M,M,M,71.60,KRTS 180405Z AUTO 30013KT 10SM CLR 22/02 A3010 RMK AO2,M
MEV,2025-07-18 04:05,-119.7500,38.9963,1441.42,73.40,41.00,31.08,260.00,9.00,0.00,30.05,M,10.00,15.00,CLR,M,M,M,M,M,M,M,M,M,M,M,M,M,M,73.40,KMEV 180405Z AUTO 26009G15KT 10SM CLR 23/05 A3005 RMK AO2,M
TMT,2025-07-18 04:10,-117.1971,39.4643,1749.34,64.80,37.00,35.67,230.00,3.00,0.00,30.07,M,10.00,M,CLR,M,M,M,M,M,M,M,M,M,M,M,M,M,M,64.80,KTMT 180410Z AUTO 23003KT 10SM CLR 18/03 A3007 RMK AO2 T01820028,M
LSV,2025-07-18 04:11,-115.0343,36.2362,570.00,84.20,57.20,39.93,290.00,10.00,0.00,29.86,1008.20,10.00,22.00,SCT,BKN,BKN,M,10000.00,15000.00,18000.00,M,M,M,M,M,M,M,M,83.48,KLSV 180411Z 29010G22KT 10SM SCT100 BKN150 BKN180 29/14 A2986 RMK AO2A LTG DSNT S RAE00DZB00E02 SLP082 CHINO RWY03R $,M
05U,2025-07-18 04:15,-116.0051,39.6042,1811.23,69.80,33.80,26.44,0.00,0.00,0.00,30.10,M,10.00,M,CLR,M,M,M,M,M,M,M,M,M,M,M,M,M,M,69.80,K05U 180415Z AUTO 00000KT 10SM CLR 21/01 A3010 RMK A01,M
BAM,2025-07-18 04:15,-116.8743,40.5990,1382.36,73.40,46.40,38.21,0.00,0.00,0.00,29.97,M,10.00,M,CLR,M,M,M,M,M,M,M,M,M,M,M,M,M,M,73.40,KBAM 180415Z AUTO 00000KT 10SM CLR 23/08 A2997 RMK AO1,M
HTH,2025-07-18 04:15,-118.6315,38.5448,1282.89,82.40,37.40,20.08,350.00,7.00,0.00,29.96,M,10.00,M,CLR,M,M,M,M,M,M,M,M,M,M,M,M,M,M,80.14,KHTH 180415Z AUTO 35007KT 10SM CLR 28/03 A2996 RMK A01,M
BVU,2025-07-18 04:15,-114.8611,35.9475,671.00,78.80,60.80,54.11,330.00,17.00,0.00,29.92,M,4.00,23.00,SCT,BKN,OVC,M,500.00,5000.00,9500.00,M,RA,M,M,M,M,M,M,78.80,KBVU 180415Z AUTO 33017G23KT 4SM RA SCT005 BKN050 OVC095 26/16 A2992 RMK AO2 LTG DSNT SW AND W,M
CXP,2025-07-18 04:15,-119.7326,39.1923,1431.00,75.20,35.60,23.68,280.00,5.00,0.00,30.06,M,10.00,10.00,CLR,M,M,M,M,M,M,M,M,M,M,M,M,M,M,75.20,KCXP 180415Z AUTO 28005G10KT 10SM CLR 24/02 A3006 RMK AO2,M
INS,2025-07-18 04:20,-115.6733,36.5872,955.00,78.80,53.60,41.75,190.00,14.00,0.00,29.97,1009.40,10.00,M,FEW,OVC,M,M,7500.00,10000.00,M,M,M,M,M,M,M,M,M,78.80,KINS 180420Z AUTO 19014KT 10SM FEW075 OVC100 26/12 A2997 RMK AO2 RAE13DZB13E20 PRESFR SLP094 $,M
INS,2025-07-18 04:24,-115.6733,36.5872,955.00,78.80,53.60,41.75,200.00,18.00,0.00,29.97,1009.40,10.00,M,FEW,FEW,OVC,M,4700.00,7500.00,10000.00,M,-DZ,M,M,M,M,M,M,78.80,KINS 180424Z AUTO 20018KT 10SM -DZ FEW047 FEW075 OVC100 26/12 A2997 RMK AO2 LTG DSNT S RAE13DZB13E20DZB24 SLP094 $,M
TMT,2025-07-18 04:30,-117.1971,39.4643,1749.34,64.60,35.40,33.72,290.00,9.00,0.00,30.09,M,10.00,14.00,CLR,M,M,M,M,M,M,M,M,M,M,M,M,M,M,64.60,KTMT 180430Z AUTO 29009G14KT 200V300 10SM CLR 18/02 A3009 RMK AO2 T01810019,M
HND,2025-07-18 04:33,-115.1344,35.9729,742.79,80.60,57.20,44.86,150.00,10.00,T,29.99,M,10.00,M,FEW,BKN,BKN,M,6500.00,9000.00,11000.00,M,-RA,M,M,M,M,M,M,80.81,KHND 180433Z AUTO 15010KT 10SM -RA FEW065 BKN090 BKN110 27/14 A2999 RMK AO2 LTG DSNT NE TSB0358E27RAB31 P0000 $,M
RTS,2025-07-18 04:35,-119.8764,39.6682,1539.00,69.80,37.40,30.50,290.00,13.00,0.00,30.11,M,10.00,M,CLR,M,M,M,M,M,M,M,M,M,M,M,M,M,M,69.80,KRTS 180435Z AUTO 29013KT 10SM CLR 21/03 A3011 RMK AO2,M
05U,2025-07-18 04:35,-116.0051,39.6042,1811.23,69.80,33.80,26.44,0.00,0.00,0.00,30.10,M,10.00,M,CLR,M,M,M,M,M,M,M,M,M,M,M,M,M,M,69.80,K05U 180435Z AUTO 00000KT 10SM CLR 21/01 A3010 RMK A01,M
MEV,2025-07-18 04:35,-119.7500,38.9963,1441.42,73.40,39.20,28.98,270.00,8.00,0.00,30.06,M,10.00,M,CLR,M,M,M,M,M,M,M,M,M,M,M,M,M,M,73.40,KMEV 180435Z AUTO 27008KT 10SM CLR 23/04 A3006 RMK AO2,M
BAM,2025-07-18 04:35,-116.8743,40.5990,1382.36,73.40,46.40,38.21,0.00,0.00,0.00,29.97,M,10.00,M,CLR,M,M,M,M,M,M,M,M,M,M,M,M,M,M,73.40,KBAM 180435Z AUTO 00000KT 10SM CLR 23/08 A2997 RMK AO1,M
HTH,2025-07-18 04:35,-118.6315,38.5448,1282.89,82.40,39.20,21.54,320.00,7.00,0.00,29.98,M,10.00,M,CLR,M,M,M,M,M,M,M,M,M,M,M,M,M,M,80.21,KHTH 180435Z AUTO 32007KT 10SM CLR 28/04 A2998 RMK A01,M
BVU,2025-07-18 04:35,-114.8611,35.9475,671.00,78.80,60.80,54.11,300.00,11.00,0.00,29.92,M,10.00,19.00,SCT,BKN,BKN,M,500.00,4900.00,6500.00,M,M,M,M,M,M,M,M,78.80,KBVU 180435Z AUTO 30011G19KT 10SM SCT005 BKN049 BKN065 26/16 A2992 RMK AO2,M
CXP,2025-07-18 04:35,-119.7326,39.1923,1431.00,75.20,35.60,23.68,290.00,4.00,0.00,30.08,M,10.00,10.00,CLR,M,M,M,M,M,M,M,M,M,M,M,M,M,M,75.20,KCXP 180435Z AUTO 29004G10KT 10SM CLR 24/02 A3008 RMK AO2,M
LSV,2025-07-18 04:39,-115.0343,36.2362,570.00,84.20,57.20,39.93,210.00,16.00,0.00,29.87,1008.50,10.00,M,SCT,BKN,M,M,10000.00,18000.00,M,M,TS,M,M,M,M,M,M,83.48,KLSV 180439Z 21016KT 10SM TS SCT100 BKN180 29/14 A2987 RMK AO2A RAB0355E00DZB00E02 TSB39 SLP085 CHINO RWY03R $,M
INS,2025-07-18 04:46,-115.6733,36.5872,955.00,78.80,50.00,36.56,220.00,19.00,0.00,29.93,1007.80,10.00,32.00,FEW,SCT,BKN,OVC,4900.00,6000.00,9500.00,14000.00,M,M,M,M,M,M,M,78.80,KINS 180446Z AUTO 22019G32KT 10SM FEW049 SCT060 BKN095 OVC140 26/10 A2993 RMK AO2 LTG DSNT S DZE0355RAB0355E13DZB13E20DZB24E36RAB36E46 PRESFR SLP078 $,M
LAS,2025-07-18 04:47,-115.1634,36.0719,663.00,86.00,54.00,33.57,M,4.00,T,29.95,M,10.00,M,FEW,SCT,BKN,M,9000.00,11000.00,16000.00,M,-TSRA,M,M,M,M,M,M,84.27,KLAS 180447Z VRB04KT 10SM -TSRA FEW090 SCT110CB BKN160 30/12 A2995 RMK AO2 RAB34 TSB44 OCNL LTGICCG NE-SE TS NE-SE P0000 T03000122,M
INS,2025-07-18 04:49,-115.6733,36.5872,955.00,80.60,50.00,34.47,190.00,18.00,0.00,29.93,1007.60,10.00,32.00,FEW,SCT,OVC,M,4900.00,6000.00,13000.00,M,M,M,M,M,M,M,M,79.89,KINS 180449Z AUTO 19018G32KT 10SM FEW049 SCT060 OVC130 27/10 A2993 RMK AO2 WSHFT 47 LTG DSNT S DZE0355RAB0355E13DZB13E20DZB24E36RAB36E46 SLP076 $,M
TMT,2025-07-18 04:50,-117.1971,39.4643,1749.34,73.60,33.80,23.25,270.00,6.00,0.00,30.10,M,10.00,M,CLR,M,M,M,M,M,M,M,M,M,M,M,M,M,M,73.60,KTMT 180450Z AUTO 27006KT 10SM CLR 23/01 A3010 RMK AO2 T02310010,M
P68,2025-07-18 04:53,-116.0056,39.6014,1993.00,69.00,33.00,26.32,330.00,3.00,0.00,30.09,1009.20,M,M,M,M,M,M,M,M,M,M,M,M,M,M,M,M,M,69.00,KP68 180453Z AUTO 33003KT 21/01 A3009 RMK AO1 SLP092 T02060006,M
DRA,2025-07-18 04:53,-116.0278,36.6206,1009.00,83.00,49.00,30.72,110.00,17.00,0.00,29.96,1008.90,10.00,31.00,CLR,M,M,M,M,M,M,M,M,M,M,M,41.00,120.00,2025-07-18 03:54,81.28,KDRA 180453Z AUTO 11017G31KT 10SM CLR 28/09 A2996 RMK AO2 PK WND 12041/0354 SLP089 T02830094,M
ELY,2025-07-18 04:53,-114.8453,39.2950,1909.00,72.00,46.00,39.45,160.00,22.00,T,30.15,1009.00,10.00,33.00,BKN,M,M,M,12000.00,M,M,M,M,M,M,M,34.00,170.00,2025-07-18 04:43,72.00,KELY 180453Z AUTO 16022G33KT 10SM BKN120 22/08 A3015 RMK AO2 PK WND 17034/0443 RAB12E36 SLP090 P0000 T02220078,M
VGT,2025-07-18 04:53,-115.1933,36.2111,667.00,83.00,56.00,39.74,0.00,0.00,0.00,29.94,1012.40,10.00,M,FEW,FEW,M,M,9500.00,11000.00,M,M,VCTS,M,M,M,M,M,M,82.30,KVGT 180453Z AUTO 00000KT 10SM VCTS FEW095 FEW110 28/13 A2994 RMK AO2 LTG DSNT W PRESRR SLP124 T02830133,M
LOL,2025-07-18 04:53,-118.5701,40.0684,1192.43,83.00,32.00,15.88,300.00,14.00,0.00,29.95,1009.10,10.00,M,CLR,M,M,M,M,M,M,M,M,M,M,M,M,M,M,80.41,KLOL 180453Z AUTO 30014KT 10SM CLR 28/00 A2995 RMK AO2 SLP091 T02830000,M
BVU,2025-07-18 04:55,-114.8611,35.9475,671.00,78.80,60.80,54.11,290.00,7.00,0.00,29.93,M,10.00,M,FEW,FEW,M,M,4800.00,12000.00,M,M,M,M,M,M,M,M,M,78.80,KBVU 180455Z AUTO 29007KT 10SM FEW048 FEW120 26/16 A2993 RMK AO2,M
RTS,2025-07-18 04:55,-119.8764,39.6682,1539.00,68.00,35.60,30.21,340.00,7.00,0.00,30.13,M,10.00,M,CLR,M,M,M,M,M,M,M,M,M,M,M,M,M,M,68.00,KRTS 180455Z AUTO 34007KT 10SM CLR 20/02 A3013 RMK AO2,M
05U,2025-07-18 04:55,-116.0051,39.6042,1811.23,69.80,32.00,24.60,0.00,0.00,0.00,30.11,M,10.00,M,CLR,M,M,M,M,M,M,M,M,M,M,M,M,M,M,69.80,K05U 180455Z AUTO 00000KT 10SM CLR 21/00 A3011 RMK A01,M
MEV,2025-07-18 04:55,-119.7500,38.9963,1441.42,69.80,41.00,35.11,0.00,0.00,0.00,30.07,M,10.00,M,CLR,M,M,M,M,M,M,M,M,M,M,M,M,M,M,69.80,KMEV 180455Z AUTO 00000KT 10SM CLR 21/05 A3007 RMK AO2,M
BAM,2025-07-18 04:55,-116.8743,40.5990,1382.36,73.40,46.40,38.21,0.00,0.00,0.00,29.98,M,10.00,M,CLR,M,M,M,M,M,M,M,M,M,M,M,M,M,M,73.40,KBAM 180455Z AUTO 00000KT 10SM CLR 23/08 A2998 RMK AO1,M
HTH,2025-07-18 04:55,-118.6315,38.5448,1282.89,82.40,37.40,20.08,360.00,10.00,0.00,29.99,M,10.00,15.00,CLR,M,M,M,M,M,M,M,M,M,M,M,M,M,M,80.14,KHTH 180455Z AUTO 36010G15KT 10SM CLR 28/03 A2999 RMK A01,M
CXP,2025-07-18 04:55,-119.7326,39.1923,1431.00,73.40,35.60,25.15,0.00,0.00,0.00,30.09,M,10.00,M,CLR,M,M,M,M,M,M,M,M,M,M,M,M,M,M,73.40,KCXP 180455Z AUTO 00000KT 10SM CLR 23/02 A3009 RMK AO2,M
RNO,2025-07-18 04:55,-119.7711,39.4839,1341.00,77.00,34.00,20.93,300.00,15.00,0.00,30.06,1011.70,10.00,21.00,CLR,M,M,M,M,M,M,M,M,M,M,M,M,M,M,77.00,KRNO 180455Z 30015G21KT 10SM CLR 25/01 A3006 RMK AO2 SLP117 T02500011,M
INS,2025-07-18 04:55,-115.6733,36.5872,955.00,80.00,50.70,36.07,180.00,11.00,0.01,29.94,1007.90,10.00,M,FEW,BKN,M,M,6000.00,14000.00,M,M,M,M,M,M,32.00,200.00,2025-07-18 04:41,79.62,KINS 180455Z AUTO 18011KT 10SM FEW060 BKN140 27/10 A2994 RMK AO2 PK WND 20032/41 LTG DSNT S RAB0355E13DZB13E20DZB24E36RAB36E46 SLP079 P0001 T02670104 $,M
LSV,2025-07-18 04:55,-115.0343,36.2362,570.00,84.00,55.60,37.93,230.00,16.00,T,29.86,1008.20,10.00,M,FEW,SCT,BKN,M,8000.00,12000.00,18000.00,M,TS,M,M,M,M,M,M,82.98,KLSV 180455Z 23016KT 10SM TS FEW080 SCT120 BKN180 29/13 A2986 RMK AO2A RAB0355E00DZB00E02 TSE0355TSB39 SLP082 P0000 T02890131 CHINO RWY03R $,M
TPH,2025-07-18 04:56,-117.0904,38.0505,1654.00,79.00,35.00,20.39,190.00,9.00,0.00,30.06,1008.60,10.00,M,CLR,M,M,M,M,M,M,M,M,M,M,M,M,M,M,79.00,KTPH 180456Z AUTO 19009KT 10SM CLR 26/02 A3006 RMK AO2 SLP086 T02610017,M
LAS,2025-07-18 04:56,-115.1634,36.0719,663.00,85.00,54.00,34.66,120.00,6.00,T,29.95,1011.20,10.00,M,FEW,SCT,BKN,OVC,5500.00,9000.00,11000.00,16000.00,-TSRA,M,M,M,M,M,M,83.46,KLAS 180456Z 12006KT 10SM -TSRA FEW055 SCT090 BKN110CB OVC160 29/12 A2995 RMK AO2 SLP112 RAB34 TSB44 OCNL LTGICCG NE-SE TS NE-SE MOV SW P0000 T02940122,M
EKO,2025-07-18 04:56,-115.7860,40.8242,1367.00,74.00,38.00,27.10,80.00,5.00,0.00,30.03,1010.30,10.00,M,CLR,M,M,M,M,M,M,M,M,M,M,M,M,M,M,74.00,KEKO 180456Z AUTO 08005KT 10SM CLR 23/03 A3003 RMK AO2 SLP103 T02330033,M
HND,2025-07-18 04:56,-115.1344,35.9729,742.79,80.00,60.00,50.57,160.00,6.00,T,29.99,1013.90,10.00,M,BKN,M,M,M,11000.00,M,M,M,-RA,M,M,M,M,M,M,80.86,KHND 180456Z AUTO 16006KT 10SM -RA BKN110 27/16 A2999 RMK AO2 TSB0358E27RAB31 SLP139 P0000 T02670156 $,M
NFL,2025-07-18 04:57,-118.7010,39.4166,1199.00,84.00,41.00,21.94,310.00,15.00,0.00,29.96,1011.70,10.00,20.00,SCT,BKN,M,M,12000.00,25000.00,M,M,M,M,M,M,M,M,M,81.38,KNFL 180457Z 31015G20KT 10SM SCT120 BKN250 29/05 A2996 RMK AO2 SLP117 T02890050,M
VGT,2025-07-18 05:02,-115.1933,36.2111,667.00,84.00,55.00,37.11,340.00,5.00,0.00,29.94,M,10.00,M,FEW,M,M,M,9000.00,M,M,M,M,M,M,M,M,M,M,82.86,KVGT 180502Z AUTO 34005KT 10SM FEW090 29/13 A2994 RMK AO2 T02890128,M
LSV,2025-07-18 05:06,-115.0343,36.2362,570.00,84.20,57.20,39.93,230.00,12.00,0.00,29.86,1008.10,10.00,M,FEW,SCT,M,M,8000.00,12000.00,M,M,M,M,M,M,M,M,M,83.48,KLSV 180506Z 23012KT 10SM FEW080 SCT120 29/14 A2986 RMK AO2A TSE06 SLP081 CHINO RWY03R $,M
TMT,2025-07-18 05:10,-117.1971,39.4643,1749.34,68.00,34.70,29.15,180.00,5.00,0.00,30.10,M,10.00,M,CLR,M,M,M,M,M,M,M,M,M,M,M,M,M,M,68.00,KTMT 180510Z AUTO 18005KT 10SM CLR 20/02 A3010 RMK AO2 T01990015,M
CXP,2025-07-18 05:15,-119.7326,39.1923,1431.00,73.40,35.60,25.15,300.00,11.00,0.00,30.10,M,10.00,M,CLR,M,M,M,M,M,M,M,M,M,M,M,M,M,M,73.40,KCXP 180515Z AUTO 30011KT 10SM CLR 23/02 A3010 RMK AO2,M
RTS,2025-07-18 05:15,-119.8764,39.6682,1539.00,66.20,35.60,32.15,290.00,8.00,0.00,30.14,M,10.00,M,CLR,M,M,M,M,M,M,M,M,M,M,M,M,M,M,66.20,KRTS 180515Z AUTO 29008KT 10SM CLR 19/02 A3014 RMK AO2,M
05U,2025-07-18 05:15,-116.0051,39.6042,1811.23,69.80,33.80,26.44,0.00,0.00,0.00,30.12,M,10.00,M,FEW,SCT,M,M,10000.00,12000.00,M,M,M,M,M,M,M,M,M,69.80,K05U 180515Z AUTO 00000KT 10SM FEW100 SCT120 21/01 A3012 RMK A01,M
MEV,2025-07-18 05:15,-119.7500,38.9963,1441.42,66.20,41.00,39.73,90.00,3.00,0.00,30.08,M,10.00,M,CLR,M,M,M,M,M,M,M,M,M,M,M,M,M,M,66.20,KMEV 180515Z AUTO 09003KT 10SM CLR 19/05 A3008 RMK AO2,M
HTH,2025-07-18 05:15,-118.6315,38.5448,1282.89,M,M,M,M,M,0.00,M,M,M,M,M,M,M,M,M,M,M,M,M,M,M,M,M,M,M,M,KHTH 180515Z AUTO RMK A01,M
BAM,2025-07-18 05:15,-116.8743,40.5990,1382.36,77.00,46.40,33.89,0.00,0.00,0.00,29.98,M,10.00,M,CLR,M,M,M,M,M,M,M,M,M,M,M,M,M,M,77.00,KBAM 180515Z AUTO 00000KT 10SM CLR 25/08 A2998 RMK AO1,M
BVU,2025-07-18 05:15,-114.8611,35.9475,671.00,80.60,59.00,47.85,270.00,3.00,0.00,29.93,M,10.00,M,CLR,M,M,M,M,M,M,M,M,M,M,M,M,M,M,81.12,KBVU 180515Z AUTO 27003KT 10SM CLR 27/15 A2993 RMK AO2,M
LAS,2025-07-18 05:17,-115.1634,36.0719,663.00,85.00,55.00,35.94,200.00,5.00,T,29.94,M,10.00,M,FEW,SCT,SCT,OVC,7500.00,9500.00,12000.00,16000.00,M,M,M,M,M,M,M,83.65,KLAS 180517Z 20005KT 10SM FEW075 SCT095 SCT120 OVC160 29/13 A2994 RMK AO2 RAE02 TSE17 OCNL LTGICCG DSNT SE-S VCSH NE-E CB DSNT SE-S P0000 T02940128,M
DRA,2025-07-18 05:25,-116.0278,36.6206,1009.00,86.00,45.00,24.00,160.00,13.00,0.00,29.93,M,10.00,20.00,SCT,M,M,M,11000.00,M,M,M,M,M,M,M,27.00,110.00,2025-07-18 04:58,83.11,KDRA 180525Z AUTO 16013G20KT 10SM SCT110 30/07 A2993 RMK AO2 PK WND 11027/0458 WSHFT 0508 PRESFR T03000072,M
TMT,2025-07-18 05:30,-117.1971,39.4643,1749.34,64.60,34.30,32.27,140.00,7.00,0.00,30.11,M,10.00,M,CLR,M,M,M,M,M,M,M,M,M,M,M,M,M,M,64.60,KTMT 180530Z AUTO 14007KT 10SM CLR 18/01 A3011 RMK AO2 T01810013,M
BVU,2025-07-18 05:35,-114.8611,35.9475,671.00,82.40,57.20,42.32,0.00,0.00,0.00,29.93,M,10.00,M,CLR,M,M,M,M,M,M,M,M,M,M,M,M,M,M,82.09,KBVU 180535Z AUTO 00000KT 10SM CLR 28/14 A2993 RMK AO2,M
CXP,2025-07-18 05:35,-119.7326,39.1923,1431.00,73.40,32.00,21.77,290.00,10.00,0.00,30.10,M,10.00,M,CLR,M,M,M,M,M,M,M,M,M,M,M,M,M,M,73.40,KCXP 180535Z AUTO 29010KT 10SM CLR 23/00 A3010 RMK AO2,M
RTS,2025-07-18 05:35,-119.8764,39.6682,1539.00,66.20,37.40,34.52,290.00,10.00,0.00,30.14,M,10.00,M,CLR,M,M,M,M,M,M,M,M,M,M,M,M,M,M,66.20,KRTS 180535Z AUTO 29010KT 10SM CLR 19/03 A3014 RMK AO2,M
05U,2025-07-18 05:35,-116.0051,39.6042,1811.23,73.40,32.00,21.77,0.00,0.00,0.00,30.13,M,10.00,M,SCT,BKN,M,M,9000.00,12000.00,M,M,M,M,M,M,M,M,M,73.40,K05U 180535Z AUTO 00000KT 10SM SCT090 BKN120 23/00 A3013 RMK A01,M
MEV,2025-07-18 05:35,-119.7500,38.9963,1441.42,64.40,42.80,45.34,0.00,0.00,0.00,30.09,M,10.00,M,CLR,M,M,M,M,M,M,M,M,M,M,M,M,M,M,64.40,KMEV 180535Z AUTO 00000KT 10SM CLR 18/06 A3009 RMK AO2,M
BAM,2025-07-18 05:35,-116.8743,40.5990,1382.36,75.20,42.80,31.37,0.00,0.00,0.00,29.99,M,10.00,M,CLR,M,M,M,M,M,M,M,M,M,M,M,M,M,M,75.20,KBAM 180535Z AUTO 00000KT 10SM CLR 24/06 A2999 RMK AO1,M
HTH,2025-07-18 05:35,-118.6315,38.5448,1282.89,80.60,41.00,24.49,270.00,6.00,0.00,30.00,M,10.00,M,M,M,M,M,M,M,M,M,M,M,M,M,M,M,M,79.20,KHTH 180535Z AUTO 27006KT 10SM 27/05 A3000 RMK A01,M
TMT,2025-07-18 05:50,-117.1971,39.4643,1749.34,66.20,35.60,32.15,160.00,7.00,0.00,30.11,M,10.00,M,CLR,M,M,M,M,M,M,M,M,M,M,M,M,M,M,66.20,KTMT 180550Z AUTO 16007KT 10SM CLR 19/02 A3011 RMK AO2 T01900020,M
P68,2025-07-18 05:53,-116.0056,39.6014,1993.00,74.00,33.00,22.22,350.00,10.00,0.00,30.10,1009.00,M,M,M,M,M,M,M,M,M,M,M,M,M,M,M,M,M,74.00,KP68 180553Z AUTO 35010KT 23/01 A3010 RMK AO1 SLP090 T02330006 10333 20200 51015,M
DRA,2025-07-18 05:53,-116.0278,36.6206,1009.00,87.00,46.00,24.15,210.00,11.00,0.00,29.93,1007.40,10.00,M,CLR,M,M,M,M,M,M,M,M,M,M,M,27.00,110.00,2025-07-18 04:58,83.99,KDRA 180553Z AUTO 21011KT 10SM CLR 31/08 A2993 RMK AO2 PK WND 11027/0458 WSHFT 0508 SLP074 T03060078 10367 20261 58005,M
ELY,2025-07-18 05:53,-114.8453,39.2950,1909.00,70.00,46.00,42.22,170.00,17.00,0.00,30.17,1009.90,10.00,28.00,SCT,M,M,M,12000.00,M,M,M,M,M,M,M,32.00,160.00,2025-07-18 04:54,70.00,KELY 180553Z AUTO 17017G28KT 10SM SCT120 21/08 A3017 RMK AO2 PK WND 16032/0454 SLP099 60000 T02110078 10328 20211 51036,M
VGT,2025-07-18 05:53,-115.1933,36.2111,667.00,85.00,54.00,34.66,170.00,9.00,T,29.92,1011.90,10.00,M,FEW,FEW,BKN,M,5500.00,8500.00,12000.00,M,M,M,M,M,M,M,M,83.46,KVGT 180553Z AUTO 17009KT 10SM FEW055 FEW085 BKN120 29/12 A2992 RMK AO2 RAB34E50 SLP119 P0000 60000 T02940122 10356 20256 56002,M
LOL,2025-07-18 05:53,-118.5701,40.0684,1192.43,81.00,26.00,13.25,0.00,0.00,0.00,29.96,1009.40,10.00,M,CLR,M,M,M,M,M,M,M,M,M,M,M,M,M,M,78.94,KLOL 180553Z AUTO 00000KT 10SM CLR 27/M03 A2996 RMK AO2 SLP094 T02721033 10367 20272 51025,M
BVU,2025-07-18 05:55,-114.8611,35.9475,671.00,80.60,59.00,47.85,0.00,0.00,0.00,29.93,M,10.00,M,CLR,M,M,M,M,M,M,M,M,M,M,M,M,M,M,81.12,KBVU 180555Z AUTO 00000KT 10SM CLR 27/15 A2993 RMK AO2,M
RNO,2025-07-18 05:55,-119.7711,39.4839,1341.00,74.00,37.00,26.05,M,3.00,0.00,30.08,1012.40,10.00,M,CLR,M,M,M,M,M,M,M,M,M,M,M,M,M,M,74.00,KRNO 180555Z VRB03KT 10SM CLR 23/03 A3008 RMK AO2 SLP124 T02330028 10339 20233 51028,M
BAM,2025-07-18 05:55,-116.8743,40.5990,1382.36,73.40,42.80,33.31,0.00,0.00,0.00,29.99,M,10.00,M,CLR,M,M,M,M,M,M,M,M,M,M,M,M,M,M,73.40,KBAM 180555Z AUTO 00000KT 10SM CLR 23/06 A2999 RMK AO1,M
CXP,2025-07-18 05:55,-119.7326,39.1923,1431.00,73.40,30.20,20.24,280.00,8.00,0.00,30.10,M,10.00,15.00,CLR,M,M,M,M,M,M,M,M,M,M,M,M,M,M,73.40,KCXP 180555Z AUTO 28008G15KT 10SM CLR 23/M01 A3010 RMK AO2,M
RTS,2025-07-18 05:55,-119.8764,39.6682,1539.00,64.40,37.40,36.75,290.00,7.00,0.00,30.14,M,10.00,M,CLR,M,M,M,M,M,M,M,M,M,M,M,M,M,M,64.40,KRTS 180555Z AUTO 29007KT 10SM CLR 18/03 A3014 RMK AO2,M
05U,2025-07-18 05:55,-116.0051,39.6042,1811.23,75.20,33.80,22.04,10.00,10.00,0.00,30.12,M,10.00,M,FEW,SCT,BKN,M,3700.00,5000.00,8000.00,M,M,M,M,M,M,M,M,75.20,K05U 180555Z AUTO 01010KT 10SM FEW037 SCT050 BKN080 24/01 A3012 RMK A01,M
MEV,2025-07-18 05:55,-119.7500,38.9963,1441.42,62.60,42.80,48.29,40.00,4.00,0.00,30.09,M,10.00,M,CLR,M,M,M,M,M,M,M,M,M,M,M,M,M,M,62.60,KMEV 180555Z AUTO 04004KT 10SM CLR 17/06 A3009 RMK AO2,M
HTH,2025-07-18 05:55,-118.6315,38.5448,1282.89,78.80,41.00,25.98,240.00,5.00,0.00,30.00,M,10.00,M,CLR,M,M,M,M,M,M,M,M,M,M,M,M,M,M,78.80,KHTH 180555Z AUTO 24005KT 10SM CLR 26/05 A3000 RMK A01,M
INS,2025-07-18 05:55,-115.6733,36.5872,955.00,75.00,59.00,57.55,130.00,11.00,0.00,29.96,1008.90,10.00,M,FEW,BKN,M,M,15000.00,18000.00,M,M,M,M,M,M,M,M,M,75.00,KINS 180555Z AUTO 13011KT 10SM FEW150 BKN180 24/15 A2996 RMK AO2 LTG DSNT SW SLP089 60008 T02380150 10353 20227 58014 $,M
LSV,2025-07-18 05:55,-115.0343,36.2362,570.00,83.50,59.00,43.57,140.00,3.00,0.00,29.87,1008.50,10.00,M,OVC,M,M,M,12000.00,M,M,M,M,M,M,M,M,M,M,83.35,KLSV 180555Z 14003KT 10SM OVC120 29/15 A2987 RMK AO2A TSB0455E06 SLP085 60001 T02860151 10378 20277 50005 $,M
EKO,2025-07-18 05:56,-115.7860,40.8242,1367.00,73.00,40.00,30.30,40.00,4.00,0.00,30.05,1010.70,10.00,M,CLR,M,M,M,M,M,M,M,M,M,M,M,M,M,M,73.00,KEKO 180556Z AUTO 04004KT 10SM CLR 23/04 A3005 RMK AO2 SLP107 60000 T02280044 10306 20228 53015,M
HND,2025-07-18 05:56,-115.1344,35.9729,742.79,76.00,64.00,66.43,200.00,10.00,0.01,29.98,1013.80,10.00,M,SCT,SCT,BKN,M,4300.00,7000.00,9500.00,M,-RA,M,M,M,M,M,M,76.00,KHND 180556Z AUTO 20010KT 10SM -RA SCT043 SCT070 BKN095 24/18 A2998 RMK AO2 SLP138 P0001 60001 T02440178 10367 20244 50012 $,M
TPH,2025-07-18 05:56,-117.0904,38.0505,1654.00,78.00,36.00,21.93,210.00,10.00,0.00,30.09,1009.40,10.00,M,CLR,M,M,M,M,M,M,M,M,M,M,M,M,M,M,78.00,KTPH 180556Z AUTO 21010KT 10SM CLR 26/02 A3009 RMK AO2 SLP094 T02560022 10333 20250 53024,M
LAS,2025-07-18 05:56,-115.1634,36.0719,663.00,82.00,57.00,42.56,210.00,8.00,T,29.94,1011.10,10.00,16.00,FEW,SCT,OVC,M,8000.00,10000.00,12000.00,M,M,M,M,M,M,M,M,81.76,KLAS 180556Z 21008G16KT 10SM FEW080 SCT100 OVC120 28/14 A2994 RMK AO2 RAE02B24E35 TSE17 SLP111 VCSH W AND N CB DSNT NW-NE P0000 60000 T02780139 10372 20278 50005,M
NFL,2025-07-18 05:57,-118.7010,39.4166,1199.00,81.00,35.00,19.10,290.00,10.00,0.00,29.99,1012.50,10.00,M,SCT,M,M,M,25000.00,M,M,M,M,M,M,M,M,M,M,79.17,KNFL 180557Z 29010KT 10SM SCT250 27/02 A2999 RMK AO2 SLP125 60000 T02720017 10372 20272 51019,M
TMT,2025-07-18 06:10,-117.1971,39.4643,1749.34,66.00,34.30,30.74,180.00,5.00,0.00,30.11,M,10.00,M,CLR,M,M,M,M,M,M,M,M,M,M,M,M,M,M,66.00,KTMT 180610Z AUTO 18005KT 10SM CLR 19/01 A3011 RMK AO2 T01880013,M
VGT,2025-07-18 06:14,-115.1933,36.2111,667.00,84.00,56.00,38.49,240.00,10.00,0.00,29.92,M,10.00,22.00,SCT,BKN,M,M,7000.00,12000.00,M,M,M,M,M,M,M,M,M,83.06,KVGT 180614Z AUTO 24010G22KT 10SM SCT070 BKN120 29/13 A2992 RMK AO2 WSHFT 0554 LTG DSNT SW T02890133,M
BVU,2025-07-18 06:15,-114.8611,35.9475,671.00,80.60,60.80,51.02,0.00,0.00,0.00,29.94,M,10.00,M,CLR,M,M,M,M,M,M,M,M,M,M,M,M,M,M,81.46,KBVU 180615Z AUTO 00000KT 10SM CLR 27/16 A2994 RMK AO2,M
BAM,2025-07-18 06:15,-116.8743,40.5990,1382.36,71.60,46.40,40.60,270.00,4.00,0.00,29.99,M,10.00,M,CLR,M,M,M,M,M,M,M,M,M,M,M,M,M,M,71.60,KBAM 180615Z AUTO 27004KT 10SM CLR 22/08 A2999 RMK AO1,M
CXP,2025-07-18 06:15,-119.7326,39.1923,1431.00,73.40,30.20,20.24,290.00,10.00,0.00,30.10,M,10.00,M,CLR,M,M,M,M,M,M,M,M,M,M,M,M,M,M,73.40,KCXP 180615Z AUTO 29010KT 10SM CLR 23/M01 A3010 RMK AO2,M
RTS,2025-07-18 06:15,-119.8764,39.6682,1539.00,62.60,39.20,42.00,300.00,7.00,0.00,30.14,M,10.00,M,CLR,M,M,M,M,M,M,M,M,M,M,M,M,M,M,62.60,KRTS 180615Z AUTO 30007KT 10SM CLR 17/04 A3014 RMK AO2,M
05U,2025-07-18 06:15,-116.0051,39.6042,1811.23,77.00,32.00,19.31,140.00,6.00,0.00,30.12,M,10.00,M,FEW,SCT,BKN,M,4100.00,9000.00,11000.00,M,M,M,M,M,M,M,M,77.00,K05U 180615Z AUTO 14006KT 10SM FEW041 SCT090 BKN110 25/M00 A3012 RMK A01,M
MEV,2025-07-18 06:15,-119.7500,38.9963,1441.42,64.40,39.20,39.44,340.00,4.00,0.00,30.09,M,10.00,M,CLR,M,M,M,M,M,M,M,M,M,M,M,M,M,M,64.40,KMEV 180615Z AUTO 34004KT 10SM CLR 18/04 A3009 RMK AO2,M
HTH,2025-07-18 06:15,-118.6315,38.5448,1282.89,78.80,39.20,24.22,240.00,6.00,0.00,30.01,M,10.00,M,CLR,M,M,M,M,M,M,M,M,M,M,M,M,M,M,78.80,KHTH 180615Z AUTO 24006KT 10SM CLR 26/04 A3001 RMK A01,M
RTS,2025-07-18 06:25,-119.8764,39.6682,1539.00,62.60,39.20,42.00,310.00,7.00,0.00,30.14,M,10.00,M,CLR,M,M,M,M,M,M,M,M,M,M,M,M,M,M,62.60,KRTS 180625Z AUTO 31007KT 10SM CLR 17/04 A3014 RMK AO2,M
MEV,2025-07-18 06:25,-119.7500,38.9963,1441.42,62.60,39.20,42.00,0.00,0.00,0.00,30.09,M,10.00,M,CLR,M,M,M,M,M,M,M,M,M,M,M,M,M,M,62.60,KMEV 180625Z AUTO 00000KT 10SM CLR 17/04 A3009 RMK AO2,M
TMT,2025-07-18 06:30,-117.1971,39.4643,1749.34,64.00,34.00,32.56,360.00,4.00,0.00,30.13,M,10.00,M,CLR,M,M,M,M,M,M,M,M,M,M,M,M,M,M,64.00,KTMT 180630Z AUTO 36004KT 10SM CLR 18/01 A3013 RMK AO2 T01780012,M
BVU,2025-07-18 06:35,-114.8611,35.9475,671.00,78.80,62.60,57.67,0.00,0.00,0.00,29.93,M,10.00,M,CLR,M,M,M,M,M,M,M,M,M,M,M,M,M,M,78.80,KBVU 180635Z AUTO 00000KT 10SM CLR 26/17 A2993 RMK AO2,M
BAM,2025-07-18 06:35,-116.8743,40.5990,1382.36,69.80,46.40,43.16,290.00,5.00,0.00,29.99,M,10.00,M,CLR,M,M,M,M,M,M,M,M,M,M,M,M,M,M,69.80,KBAM 180635Z AUTO 29005KT 10SM CLR 21/08 A2999 RMK AO1,M
CXP,2025-07-18 06:35,-119.7326,39.1923,1431.00,73.40,28.40,18.81,290.00,7.00,0.00,30.11,M,10.00,M,CLR,M,M,M,M,M,M,M,M,M,M,M,M,M,M,73.40,KCXP 180635Z AUTO 29007KT 10SM CLR 23/M02 A3011 RMK AO2,M
05U,2025-07-18 06:35,-116.0051,39.6042,1811.23,73.40,33.80,23.41,0.00,0.00,0.00,30.13,M,10.00,10.00,FEW,M,M,M,11000.00,M,M,M,M,M,M,M,M,M,M,73.40,K05U 180635Z AUTO 00000G10KT 10SM FEW110 23/01 A3013 RMK A01,M
HTH,2025-07-18 06:35,-118.6315,38.5448,1282.89,77.00,37.40,23.95,240.00,6.00,0.00,30.01,M,10.00,M,CLR,M,M,M,M,M,M,M,M,M,M,M,M,M,M,77.00,KHTH 180635Z AUTO 24006KT 10SM CLR 25/03 A3001 RMK A01,M
DRA,2025-07-18 06:47,-116.0278,36.6206,1009.00,82.00,50.00,32.94,100.00,10.00,0.00,29.96,M,10.00,24.00,CLR,M,M,M,M,M,M,M,M,M,M,M,M,M,M,80.73,KDRA 180647Z AUTO 10010G24KT 10SM CLR 28/10 A2996 RMK AO2 WSHFT 0630 T02780100,M
TMT,2025-07-18 06:50,-117.1971,39.4643,1749.34,61.50,34.70,36.56,70.00,5.00,0.00,30.13,M,10.00,M,CLR,M,M,M,M,M,M,M,M,M,M,M,M,M,M,61.50,KTMT 180650Z AUTO 07005KT 10SM CLR 16/02 A3013 RMK AO2 T01640015,M
P68,2025-07-18 06:53,-116.0056,39.6014,1993.00,72.00,35.00,25.74,320.00,8.00,0.00,30.11,1009.20,M,M,M,M,M,M,M,M,M,M,M,M,M,M,M,M,M,72.00,KP68 180653Z AUTO 32008KT 22/02 A3011 RMK AO1 SLP092 T02220017,M
DRA,2025-07-18 06:53,-116.0278,36.6206,1009.00,83.00,49.00,30.72,100.00,9.00,0.00,29.97,1009.20,10.00,21.00,CLR,M,M,M,M,M,M,M,M,M,M,M,M,M,M,81.28,KDRA 180653Z AUTO 10009G21KT 10SM CLR 28/09 A2997 RMK AO2 WSHFT 0630 PRESRR SLP092 T02830094,M
ELY,2025-07-18 06:53,-114.8453,39.2950,1909.00,70.00,44.00,39.13,150.00,15.00,0.00,30.19,1009.90,10.00,25.00,CLR,M,M,M,M,M,M,M,M,M,M,M,29.00,160.00,2025-07-18 06:10,70.00,KELY 180653Z AUTO 15015G25KT 10SM CLR 21/07 A3019 RMK AO2 PK WND 16029/0610 SLP099 T02110067,M
VGT,2025-07-18 06:53,-115.1933,36.2111,667.00,84.00,56.00,38.49,120.00,5.00,0.00,29.93,1012.20,10.00,M,CLR,M,M,M,M,M,M,M,M,M,M,M,M,M,M,83.06,KVGT 180653Z AUTO 12005KT 10SM CLR 29/13 A2993 RMK AO2 WSHFT 0554 SLP122 T02890133,M
LOL,2025-07-18 06:53,-118.5701,40.0684,1192.43,73.00,34.00,23.92,90.00,10.00,0.00,29.98,1010.20,10.00,M,CLR,M,M,M,M,M,M,M,M,M,M,M,M,M,M,73.00,KLOL 180653Z AUTO 09010KT 10SM CLR 23/01 A2998 RMK AO2 SLP102 T02280011,M
CXP,2025-07-18 06:55,-119.7326,39.1923,1431.00,73.40,26.60,17.46,270.00,6.00,0.00,30.11,M,10.00,M,CLR,M,M,M,M,M,M,M,M,M,M,M,M,M,M,73.40,KCXP 180655Z AUTO 27006KT 10SM CLR 23/M03 A3011 RMK AO2,M
INS,2025-07-18 06:55,-115.6733,36.5872,955.00,75.40,57.00,52.86,120.00,6.00,0.00,29.97,1009.20,10.00,M,SCT,M,M,M,17000.00,M,M,M,M,M,M,M,M,M,M,75.40,KINS 180655Z AUTO 12006KT 10SM SCT170 24/14 A2997 RMK AO2 SLP092 T02410139 $,M
05U,2025-07-18 06:55,-116.0051,39.6042,1811.23,73.40,33.80,23.41,310.00,4.00,0.00,30.13,M,10.00,11.00,FEW,M,M,M,11000.00,M,M,M,M,M,M,M,M,M,M,73.40,K05U 180655Z AUTO 31004G11KT 10SM FEW110 23/01 A3013 RMK A01,M
HTH,2025-07-18 06:55,-118.6315,38.5448,1282.89,78.80,41.00,25.98,320.00,8.00,0.00,30.02,M,10.00,M,CLR,M,M,M,M,M,M,M,M,M,M,M,M,M,M,78.80,KHTH 180655Z AUTO 32008KT 10SM CLR 26/05 A3002 RMK A01,M
BVU,2025-07-18 06:55,-114.8611,35.9475,671.00,77.00,64.40,65.17,320.00,4.00,0.00,29.93,M,10.00,M,FEW,M,M,M,10000.00,M,M,M,M,M,M,M,M,M,M,77.00,KBVU 180655Z AUTO 32004KT 10SM FEW100 25/18 A2993 RMK AO2,M
RNO,2025-07-18 06:55,-119.7711,39.4839,1341.00,73.00,38.00,28.02,270.00,6.00,0.00,30.08,1012.20,10.00,15.00,CLR,M,M,M,M,M,M,M,M,M,M,M,M,M,M,73.00,KRNO 180655Z 27006G15KT 10SM CLR 23/03 A3008 RMK AO2 SLP122 T02280033,M
BAM,2025-07-18 06:55,-116.8743,40.5990,1382.36,68.00,48.20,49.12,0.00,0.00,0.00,30.00,M,10.00,M,CLR,M,M,M,M,M,M,M,M,M,M,M,M,M,M,68.00,KBAM 180655Z AUTO 00000KT 10SM CLR 20/09 A3000 RMK AO1,M
LSV,2025-07-18 06:55,-115.0343,36.2362,570.00,84.00,57.00,39.90,0.00,0.00,0.00,29.89,1009.20,10.00,M,BKN,OVC,M,M,12000.00,15000.00,M,M,M,M,M,M,M,M,M,83.28,KLSV 180655Z 00000KT 10SM BKN120 OVC150 29/14 A2989 RMK AO2A SLP092 T02880138 $,M
EKO,2025-07-18 06:56,-115.7860,40.8242,1367.00,70.00,41.00,34.87,90.00,5.00,0.00,30.05,1010.60,10.00,M,CLR,M,M,M,M,M,M,M,M,M,M,M,M,M,M,70.00,KEKO 180656Z AUTO 09005KT 10SM CLR 21/05 A3005 RMK AO2 SLP106 T02110050,M
HND,2025-07-18 06:56,-115.1344,35.9729,742.79,77.00,60.00,55.81,170.00,10.00,T,29.98,1013.70,10.00,M,CLR,M,M,M,M,M,M,M,M,M,M,M,M,M,M,77.00,KHND 180656Z AUTO 17010KT 10SM CLR 25/16 A2998 RMK AO2 RAE0559 SLP137 P0000 T02500156 403780244 $,M
TPH,2025-07-18 06:56,-117.0904,38.0505,1654.00,76.00,42.00,29.62,210.00,11.00,0.00,30.10,1009.70,10.00,M,CLR,M,M,M,M,M,M,M,M,M,M,M,M,M,M,76.00,KTPH 180656Z AUTO 21011KT 10SM CLR 24/06 A3010 RMK AO2 SLP097 T02440056,M
LAS,2025-07-18 06:56,-115.1634,36.0719,663.00,83.00,56.00,39.74,170.00,3.00,T,29.95,1011.10,10.00,M,BKN,OVC,M,M,14000.00,19000.00,M,M,M,M,M,M,M,M,M,82.30,KLAS 180656Z 17003KT 10SM BKN140 OVC190 28/13 A2995 RMK AO2 RAB0558E18 SLP111 P0000 T02830133,M
NFL,2025-07-18 06:57,-118.7010,39.4166,1199.00,74.00,35.00,24.07,90.00,5.00,0.00,30.01,1013.10,10.00,M,CLR,M,M,M,M,M,M,M,M,M,M,M,M,M,M,74.00,KNFL 180657Z AUTO 09005KT 10SM CLR 23/02 A3001 RMK AO2 SLP131 T02330017,M
TMT,2025-07-18 07:10,-117.1971,39.4643,1749.34,61.00,35.00,37.66,140.00,5.00,0.00,30.13,M,10.00,M,CLR,M,M,M,M,M,M,M,M,M,M,M,M,M,M,61.00,KTMT 180710Z AUTO 14005KT 10SM CLR 16/02 A3013 RMK AO2 T01610016,M
BVU,2025-07-18 07:15,-114.8611,35.9475,671.00,77.00,64.40,65.17,350.00,6.00,0.00,29.93,M,10.00,M,SCT,M,M,M,10000.00,M,M,M,M,M,M,M,M,M,M,77.00,KBVU 180715Z AUTO 35006KT 10SM SCT100 25/18 A2993 RMK AO2,M
BAM,2025-07-18 07:15,-116.8743,40.5990,1382.36,68.00,44.60,42.87,130.00,5.00,0.00,30.01,M,10.00,M,CLR,M,M,M,M,M,M,M,M,M,M,M,M,M,M,68.00,KBAM 180715Z AUTO 13005KT 10SM CLR 20/07 A3001 RMK AO1,M
CXP,2025-07-18 07:15,-119.7326,39.1923,1431.00,68.00,35.60,30.21,0.00,0.00,0.00,30.12,M,10.00,M,CLR,M,M,M,M,M,M,M,M,M,M,M,M,M,M,68.00,KCXP 180715Z AUTO 00000KT 10SM CLR 20/02 A3012 RMK AO2,M
05U,2025-07-18 07:15,-116.0051,39.6042,1811.23,73.40,35.60,25.15,350.00,7.00,0.00,30.13,M,10.00,M,FEW,M,M,M,12000.00,M,M,M,M,M,M,M,M,M,M,73.40,K05U 180715Z AUTO 35007KT 10SM FEW120 23/02 A3013 RMK A01,M
HTH,2025-07-18 07:15,-118.6315,38.5448,1282.89,77.00,44.60,31.65,310.00,8.00,0.00,30.02,M,10.00,M,CLR,M,M,M,M,M,M,M,M,M,M,M,M,M,M,77.00,KHTH 180715Z AUTO 31008KT 10SM CLR 25/07 A3002 RMK A01,M
05U,2025-07-18 07:30,-116.0051,39.6042,1811.23,71.60,35.60,26.72,70.00,5.00,0.00,30.15,M,10.00,15.00,SCT,M,M,M,12000.00,M,M,M,M,M,M,M,M,M,M,71.60,K05U 180730Z AUTO 07005G15KT 10SM SCT120 22/02 A3015 RMK A01,M
TMT,2025-07-18 07:30,-117.1971,39.4643,1749.34,63.00,34.70,34.68,160.00,4.00,0.00,30.13,M,10.00,M,SCT,M,M,M,11000.00,M,M,M,M,M,M,M,M,M,M,63.00,KTMT 180730Z AUTO 16004KT 10SM SCT110 17/02 A3013 RMK AO2 T01720015,M
BVU,2025-07-18 07:35,-114.8611,35.9475,671.00,77.00,64.40,65.17,330.00,4.00,0.00,29.93,M,10.00,M,BKN,M,M,M,11000.00,M,M,M,M,M,M,M,M,M,M,77.00,KBVU 180735Z AUTO 33004KT 10SM BKN110 25/18 A2993 RMK AO2,M
BAM,2025-07-18 07:35,-116.8743,40.5990,1382.36,73.40,39.20,28.98,0.00,0.00,0.00,30.01,M,10.00,M,CLR,M,M,M,M,M,M,M,M,M,M,M,M,M,M,73.40,KBAM 180735Z AUTO 00000KT 10SM CLR 23/04 A3001 RMK AO1,M
CXP,2025-07-18 07:35,-119.7326,39.1923,1431.00,66.20,33.80,29.92,0.00,0.00,0.00,30.12,M,10.00,M,CLR,M,M,M,M,M,M,M,M,M,M,M,M,M,M,66.20,KCXP 180735Z AUTO 00000KT 10SM CLR 19/01 A3012 RMK AO2,M
RTS,2025-07-18 07:35,-119.8764,39.6682,1539.00,60.80,33.80,36.16,320.00,6.00,0.00,30.14,M,10.00,M,CLR,M,M,M,M,M,M,M,M,M,M,M,M,M,M,60.80,KRTS 180735Z AUTO 32006KT 10SM CLR 16/01 A3014 RMK AO2,M
MEV,2025-07-18 07:35,-119.7500,38.9963,1441.42,60.80,41.00,48.01,60.00,3.00,0.00,30.10,M,10.00,M,CLR,M,M,M,M,M,M,M,M,M,M,M,M,M,M,60.80,KMEV 180735Z AUTO 06003KT 10SM CLR 16/05 A3010 RMK AO2,M
HTH,2025-07-18 07:35,-118.6315,38.5448,1282.89,77.00,42.80,29.55,320.00,9.00,0.00,30.03,M,10.00,M,CLR,M,M,M,M,M,M,M,M,M,M,M,M,M,M,77.00,KHTH 180735Z AUTO 32009KT 10SM CLR 25/06 A3003 RMK A01,M
CXP,2025-07-18 07:50,-119.7326,39.1923,1431.00,64.40,33.80,31.86,M,4.00,0.00,30.12,M,10.00,M,CLR,M,M,M,M,M,M,M,M,M,M,M,M,M,M,64.40,KCXP 180750Z AUTO VRB04KT 10SM CLR 18/01 A3012 RMK AO2,M
RTS,2025-07-18 07:50,-119.8764,39.6682,1539.00,60.80,33.80,36.16,290.00,7.00,0.00,30.14,M,10.00,M,CLR,M,M,M,M,M,M,M,M,M,M,M,M,M,M,60.80,KRTS 180750Z AUTO 29007KT 10SM CLR 16/01 A3014 RMK AO2,M
TMT,2025-07-18 07:50,-117.1971,39.4643,1749.34,61.00,34.00,36.19,140.00,4.00,0.00,30.12,M,10.00,M,CLR,M,M,M,M,M,M,M,M,M,M,M,M,M,M,61.00,KTMT 180750Z AUTO 14004KT 10SM CLR 16/01 A3012 RMK AO2 T01610012,M
MEV,2025-07-18 07:50,-119.7500,38.9963,1441.42,59.00,39.20,47.72,0.00,0.00,0.00,30.10,M,10.00,M,CLR,M,M,M,M,M,M,M,M,M,M,M,M,M,M,59.00,KMEV 180750Z AUTO 00000KT 10SM CLR 15/04 A3010 RMK AO2,M
P68,2025-07-18 07:53,-116.0056,39.6014,1993.00,74.00,41.00,30.46,110.00,12.00,0.00,30.13,1009.60,M,M,M,M,M,M,M,M,M,M,M,M,M,M,M,M,M,74.00,KP68 180753Z AUTO 11012KT 23/05 A3013 RMK AO1 SLP096 T02330050 403500111,M
DRA,2025-07-18 07:53,-116.0278,36.6206,1009.00,80.00,53.00,39.27,130.00,12.00,0.00,29.99,1009.80,10.00,M,CLR,M,M,M,M,M,M,M,M,M,M,M,M,M,M,79.87,KDRA 180753Z AUTO 13012KT 10SM CLR 27/12 A2999 RMK AO2 SLP098 T02670117 403780256,M
ELY,2025-07-18 07:53,-114.8453,39.2950,1909.00,68.00,44.00,41.90,220.00,10.00,0.00,30.19,1010.10,10.00,M,CLR,M,M,M,M,M,M,M,M,M,M,M,M,M,M,68.00,KELY 180753Z AUTO 22010KT 10SM CLR 20/07 A3019 RMK AO2 SLP101 T02000067 403330172,M
VGT,2025-07-18 07:53,-115.1933,36.2111,667.00,83.00,58.00,42.72,100.00,8.00,0.00,29.93,1012.20,10.00,M,CLR,M,M,M,M,M,M,M,M,M,M,M,M,M,M,82.71,KVGT 180753Z AUTO 10008KT 10SM CLR 28/14 A2993 RMK AO2 SLP122 T02830144 403830256,M
LOL,2025-07-18 07:53,-118.5701,40.0684,1192.43,71.00,33.00,24.58,130.00,8.00,0.00,29.99,1010.70,10.00,M,CLR,M,M,M,M,M,M,M,M,M,M,M,M,M,M,71.00,KLOL 180753Z AUTO 13008KT 10SM CLR 22/01 A2999 RMK AO2 SLP107 T02170006 403720144,M
BVU,2025-07-18 07:55,-114.8611,35.9475,671.00,77.00,64.40,65.17,350.00,6.00,0.00,29.93,M,10.00,M,BKN,M,M,M,11000.00,M,M,M,M,M,M,M,M,M,M,77.00,KBVU 180755Z AUTO 35006KT 10SM BKN110 25/18 A2993 RMK AO2,M
RNO,2025-07-18 07:55,-119.7711,39.4839,1341.00,71.00,37.00,28.82,290.00,12.00,0.00,30.09,1012.60,10.00,17.00,CLR,M,M,M,M,M,M,M,M,M,M,M,M,M,M,71.00,KRNO 180755Z 29012G17KT 10SM CLR 22/03 A3009 RMK AO2 SLP126 T02170028 403500194,M
BAM,2025-07-18 07:55,-116.8743,40.5990,1382.36,71.60,42.80,35.40,0.00,0.00,0.00,30.01,M,10.00,M,CLR,M,M,M,M,M,M,M,M,M,M,M,M,M,M,71.60,KBAM 180755Z AUTO 00000KT 10SM CLR 22/06 A3001 RMK AO1,M
HTH,2025-07-18 07:55,-118.6315,38.5448,1282.89,77.00,41.00,27.57,310.00,10.00,0.00,30.03,M,10.00,M,CLR,M,M,M,M,M,M,M,M,M,M,M,M,M,M,77.00,KHTH 180755Z AUTO 31010KT 10SM CLR 25/05 A3003 RMK A01,M
05U,2025-07-18 07:55,-116.0051,39.6042,1811.23,73.40,42.80,33.31,110.00,5.00,0.00,30.15,M,10.00,13.00,FEW,OVC,M,M,9000.00,11000.00,M,M,M,M,M,M,M,M,M,73.40,K05U 180755Z AUTO 11005G13KT 10SM FEW090 OVC110 23/06 A3015 RMK A01,M
INS,2025-07-18 07:55,-115.6733,36.5872,955.00,77.00,57.20,50.49,130.00,4.00,0.00,29.99,1009.70,10.00,M,SCT,BKN,OVC,M,16000.00,18000.00,20000.00,M,M,M,M,M,M,M,M,77.00,KINS 180755Z AUTO 13004KT 10SM SCT160 BKN180 OVC200 25/14 A2999 RMK AO2 SLP097 T02490140 403750227 $,M
LSV,2025-07-18 07:55,-115.0343,36.2362,570.00,83.70,59.40,43.91,60.00,4.00,0.00,29.89,1009.10,10.00,M,BKN,OVC,M,M,15000.00,20000.00,M,M,M,M,M,M,M,M,M,83.62,KLSV 180755Z 06004KT 10SM BKN150 OVC200 29/15 A2989 RMK AO2A SLP091 T02870152 403840277,M
EKO,2025-07-18 07:56,-115.7860,40.8242,1367.00,61.00,43.00,51.49,200.00,4.00,0.00,30.05,1011.00,10.00,M,CLR,M,M,M,M,M,M,M,M,M,M,M,M,M,M,61.00,KEKO 180756Z AUTO 20004KT 10SM CLR 16/06 A3005 RMK AO2 SLP110 T01610061 403560122,M
HND,2025-07-18 07:56,-115.1344,35.9729,742.79,78.00,59.00,52.11,180.00,7.00,0.00,29.97,1013.50,10.00,M,BKN,M,M,M,11000.00,M,M,M,M,M,M,M,M,M,M,78.00,KHND 180756Z AUTO 18007KT 10SM BKN110 26/15 A2997 RMK AO2 SLP135 T02560150 $,M
TPH,2025-07-18 07:56,-117.0904,38.0505,1654.00,72.00,44.00,36.56,160.00,7.00,0.00,30.12,1010.50,10.00,M,CLR,M,M,M,M,M,M,M,M,M,M,M,M,M,M,72.00,KTPH 180756Z AUTO 16007KT 10SM CLR 22/07 A3012 RMK AO2 SLP105 T02220067 403440139,M
LAS,2025-07-18 07:56,-115.1634,36.0719,663.00,82.00,56.00,41.05,170.00,5.00,0.00,29.95,1011.00,10.00,M,SCT,BKN,OVC,M,11000.00,14000.00,17000.00,M,M,M,M,M,M,M,M,81.58,KLAS 180756Z 17005KT 10SM SCT110 BKN140 OVC170 28/13 A2995 RMK AO2 SLP110 T02780133 403780278,M
NFL,2025-07-18 07:57,-118.7010,39.4166,1199.00,72.00,34.00,24.74,360.00,3.00,0.00,30.01,1013.30,10.00,M,CLR,M,M,M,M,M,M,M,M,M,M,M,M,M,M,72.00,KNFL 180757Z AUTO 36003KT 10SM CLR 22/01 A3001 RMK AO2 SLP133 T02220011 403720167,M
RTS,2025-07-18 08:05,-119.8764,39.6682,1539.00,60.80,33.80,36.16,280.00,8.00,0.00,30.14,M,10.00,M,CLR,M,M,M,M,M,M,M,M,M,M,M,M,M,M,60.80,KRTS 180805Z AUTO 28008KT 10SM CLR 16/01 A3014 RMK AO2,M
MEV,2025-07-18 08:05,-119.7500,38.9963,1441.42,59.00,39.20,47.72,0.00,0.00,0.00,30.10,M,10.00,M,CLR,M,M,M,M,M,M,M,M,M,M,M,M,M,M,59.00,KMEV 180805Z AUTO 00000KT 10SM CLR 15/04 A3010 RMK AO2,M
TMT,2025-07-18 08:10,-117.1971,39.4643,1749.34,58.60,36.30,43.20,300.00,6.00,0.00,30.12,M,10.00,M,CLR,M,M,M,M,M,M,M,M,M,M,M,M,M,M,58.60,KTMT 180810Z AUTO 30006KT 10SM CLR 15/02 A3012 RMK AO2 T01480024,M
BVU,2025-07-18 08:15,-114.8611,35.9475,671.00,77.00,62.60,61.19,340.00,4.00,0.00,29.93,M,10.00,M,FEW,M,M,M,11000.00,M,M,M,M,M,M,M,M,M,M,77.00,KBVU 180815Z AUTO 34004KT 10SM FEW110 25/17 A2993 RMK AO2,M
BAM,2025-07-18 08:15,-116.8743,40.5990,1382.36,71.60,44.60,37.92,40.00,5.00,0.00,30.01,M,10.00,M,CLR,M,M,M,M,M,M,M,M,M,M,M,M,M,M,71.60,KBAM 180815Z AUTO 04005KT 10SM CLR 22/07 A3001 RMK AO1,M
CXP,2025-07-18 08:15,-119.7326,39.1923,1431.00,64.40,33.80,31.86,110.00,4.00,0.00,30.11,M,10.00,M,CLR,M,M,M,M,M,M,M,M,M,M,M,M,M,M,64.40,KCXP 180815Z AUTO 11004KT 10SM CLR 18/01 A3011 RMK AO2,M
05U,2025-07-18 08:15,-116.0051,39.6042,1811.23,73.40,42.80,33.31,150.00,7.00,0.00,30.16,M,10.00,13.00,BKN,OVC,M,M,10000.00,12000.00,M,M,M,M,M,M,M,M,M,73.40,K05U 180815Z AUTO 15007G13KT 10SM BKN100 OVC120 23/06 A3016 RMK A01,M
HTH,2025-07-18 08:15,-118.6315,38.5448,1282.89,77.00,39.20,25.70,310.00,9.00,0.00,30.03,M,10.00,15.00,CLR,M,M,M,M,M,M,M,M,M,M,M,M,M,M,77.00,KHTH 180815Z AUTO 31009G15KT 10SM CLR 25/04 A3003 RMK A01,M
TMT,2025-07-18 08:30,-117.1971,39.4643,1749.34,62.40,35.60,36.71,240.00,6.00,0.00,30.13,M,10.00,M,CLR,M,M,M,M,M,M,M,M,M,M,M,M,M,M,62.40,KTMT 180830Z AUTO 24006KT 10SM CLR 17/02 A3013 RMK AO2 T01690020,M
BVU,2025-07-18 08:35,-114.8611,35.9475,671.00,77.00,60.80,57.42,40.00,3.00,0.00,29.92,M,10.00,M,CLR,M,M,M,M,M,M,M,M,M,M,M,M,M,M,77.00,KBVU 180835Z AUTO 04003KT 10SM CLR 25/16 A2992 RMK AO2,M
BAM,2025-07-18 08:35,-116.8743,40.5990,1382.36,73.40,42.80,33.31,0.00,0.00,0.00,30.01,M,10.00,M,CLR,M,M,M,M,M,M,M,M,M,M,M,M,M,M,73.40,KBAM 180835Z AUTO 00000KT 10SM CLR 23/06 A3001 RMK AO1,M
CXP,2025-07-18 08:35,-119.7326,39.1923,1431.00,62.60,33.80,33.93,0.00,0.00,0.00,30.12,M,10.00,M,CLR,M,M,M,M,M,M,M,M,M,M,M,M,M,M,62.60,KCXP 180835Z AUTO 00000KT 10SM CLR 17/01 A3012 RMK AO2,M
05U,2025-07-18 08:35,-116.0051,39.6042,1811.23,71.60,44.60,37.92,150.00,11.00,0.00,30.16,M,10.00,M,BKN,M,M,M,11000.00,M,M,M,M,M,M,M,M,M,M,71.60,K05U 180835Z AUTO 15011KT 10SM BKN110 22/07 A3016 RMK A01,M
HTH,2025-07-18 08:35,-118.6315,38.5448,1282.89,75.20,39.20,27.28,310.00,8.00,0.00,30.04,M,10.00,M,CLR,M,M,M,M,M,M,M,M,M,M,M,M,M,M,75.20,KHTH 180835Z AUTO 31008KT 10SM CLR 24/04 A3004 RMK A01,M
TMT,2025-07-18 08:50,-117.1971,39.4643,1749.34,59.70,36.00,41.04,340.00,3.00,0.00,30.12,M,10.00,M,CLR,M,M,M,M,M,M,M,M,M,M,M,M,M,M,59.70,KTMT 180850Z AUTO 34003KT 10SM CLR 15/02 A3012 RMK AO2 T01540022,M
P68,2025-07-18 08:53,-116.0056,39.6014,1993.00,70.00,40.00,33.54,130.00,8.00,0.00,30.13,1010.00,M,M,M,M,M,M,M,M,M,M,M,M,M,M,M,M,M,70.00,KP68 180853Z AUTO 13008KT 21/04 A3013 RMK AO1 SLP100 T02110044 51010,M
DRA,2025-07-18 08:53,-116.0278,36.6206,1009.00,79.00,53.00,40.57,120.00,9.00,0.00,29.99,1009.90,10.00,M,CLR,M,M,M,M,M,M,M,M,M,M,M,M,M,M,79.00,KDRA 180853Z AUTO 12009KT 10SM CLR 26/12 A2999 RMK AO2 SLP099 T02610117 51020,M
ELY,2025-07-18 08:53,-114.8453,39.2950,1909.00,67.00,43.00,41.74,230.00,7.00,0.00,30.20,1010.10,10.00,M,BKN,M,M,M,12000.00,M,M,M,M,M,M,M,M,M,M,67.00,KELY 180853Z AUTO 23007KT 10SM BKN120 19/06 A3020 RMK AO2 SLP101 T01940061 51006,M
VGT,2025-07-18 08:53,-115.1933,36.2111,667.00,82.00,57.00,42.56,100.00,4.00,0.00,29.93,1012.20,10.00,M,CLR,M,M,M,M,M,M,M,M,M,M,M,M,M,M,81.76,KVGT 180853Z AUTO 10004KT 10SM CLR 28/14 A2993 RMK AO2 SLP122 T02780139 51003,M
LOL,2025-07-18 08:53,-118.5701,40.0684,1192.43,64.00,32.00,30.05,160.00,4.00,0.00,29.99,1011.00,10.00,M,CLR,M,M,M,M,M,M,M,M,M,M,M,M,M,M,64.00,KLOL 180853Z AUTO 16004KT 10SM CLR 18/00 A2999 RMK AO2 SLP110 T01780000 51009,M
BAM,2025-07-18 08:55,-116.8743,40.5990,1382.36,71.60,42.80,35.40,0.00,0.00,0.00,30.00,M,10.00,M,CLR,M,M,M,M,M,M,M,M,M,M,M,M,M,M,71.60,KBAM 180855Z AUTO 00000KT 10SM CLR 22/06 A3000 RMK AO1,M
BVU,2025-07-18 08:55,-114.8611,35.9475,671.00,77.00,60.80,57.42,70.00,3.00,0.00,29.92,M,10.00,M,SCT,M,M,M,11000.00,M,M,M,M,M,M,M,M,M,M,77.00,KBVU 180855Z AUTO 07003KT 10SM SCT110 25/16 A2992 RMK AO2,M
RNO,2025-07-18 08:55,-119.7711,39.4839,1341.00,68.00,36.00,30.70,M,4.00,0.00,30.10,1013.00,10.00,M,CLR,M,M,M,M,M,M,M,M,M,M,M,M,M,M,68.00,KRNO 180855Z VRB04KT 10SM CLR 20/02 A3010 RMK AO2 SLP130 T02000022 53005,M
CXP,2025-07-18 08:55,-119.7326,39.1923,1431.00,60.80,33.80,36.16,0.00,0.00,0.00,30.12,M,10.00,M,CLR,M,M,M,M,M,M,M,M,M,M,M,M,M,M,60.80,KCXP 180855Z AUTO 00000KT 10SM CLR 16/01 A3012 RMK AO2,M
RTS,2025-07-18 08:55,-119.8764,39.6682,1539.00,57.20,35.60,44.18,320.00,7.00,0.00,30.14,M,10.00,M,CLR,M,M,M,M,M,M,M,M,M,M,M,M,M,M,57.20,KRTS 180855Z AUTO 32007KT 10SM CLR 14/02 A3014 RMK AO2,M
05U,2025-07-18 08:55,-116.0051,39.6042,1811.23,69.80,41.00,35.11,0.00,0.00,0.00,30.16,M,10.00,M,SCT,M,M,M,11000.00,M,M,M,M,M,M,M,M,M,M,69.80,K05U 180855Z AUTO 00000KT 10SM SCT110 21/05 A3016 RMK A01,M
MEV,2025-07-18 08:55,-119.7500,38.9963,1441.42,51.80,39.20,61.99,0.00,0.00,0.00,30.11,M,10.00,M,CLR,M,M,M,M,M,M,M,M,M,M,M,M,M,M,51.80,KMEV 180855Z AUTO 00000KT 10SM CLR 11/04 A3011 RMK AO2,M
HTH,2025-07-18 08:55,-118.6315,38.5448,1282.89,75.20,37.40,25.43,310.00,8.00,0.00,30.04,M,10.00,M,CLR,M,M,M,M,M,M,M,M,M,M,M,M,M,M,75.20,KHTH 180855Z AUTO 31008KT 10SM CLR 24/03 A3004 RMK A01,M
INS,2025-07-18 08:55,-115.6733,36.5872,955.00,77.00,56.70,49.58,190.00,3.00,0.00,29.99,1009.50,10.00,M,FEW,BKN,OVC,M,12000.00,16000.00,18000.00,M,M,M,M,M,M,M,M,77.00,KINS 180855Z AUTO 19003KT 10SM FEW120 BKN160 OVC180 25/14 A2999 RMK AO2 SLP095 T02490137 50009 $,M
LSV,2025-07-18 08:55,-115.0343,36.2362,570.00,81.00,61.00,50.72,0.00,0.00,0.00,29.88,1008.80,10.00,M,BKN,OVC,M,M,15000.00,18000.00,M,M,M,M,M,M,M,M,M,81.82,KLSV 180855Z 00000KT 10SM BKN150 OVC180 27/16 A2988 RMK AO2A SLP088 T02730162 50001,M
TPH,2025-07-18 08:56,-117.0904,38.0505,1654.00,69.00,43.00,38.97,130.00,6.00,0.00,30.13,1011.00,10.00,M,CLR,M,M,M,M,M,M,M,M,M,M,M,M,M,M,69.00,KTPH 180856Z AUTO 13006KT 10SM CLR 21/06 A3013 RMK AO2 SLP110 T02060061 52010,M
LAS,2025-07-18 08:56,-115.1634,36.0719,663.00,82.00,57.00,42.56,180.00,4.00,0.00,29.95,1011.20,10.00,M,FEW,SCT,OVC,M,11000.00,15000.00,18000.00,M,M,M,M,M,M,M,M,81.76,KLAS 180856Z 18004KT 10SM FEW110 SCT150 OVC180 28/14 A2995 RMK AO2 SLP112 60000 T02780139 51002,M
EKO,2025-07-18 08:56,-115.7860,40.8242,1367.00,61.00,42.00,49.55,200.00,3.00,0.00,30.06,1011.40,10.00,M,CLR,M,M,M,M,M,M,M,M,M,M,M,M,M,M,61.00,KEKO 180856Z AUTO 20003KT 10SM CLR 16/06 A3006 RMK AO2 SLP114 T01610056 53004,M
HND,2025-07-18 08:56,-115.1344,35.9729,742.79,78.00,59.00,52.11,180.00,5.00,0.00,29.97,1013.10,10.00,M,CLR,M,M,M,M,M,M,M,M,M,M,M,M,M,M,78.00,KHND 180856Z AUTO 18005KT 10SM CLR 26/15 A2997 RMK AO2 SLP131 60000 T02560150 58004 $,M
NFL,2025-07-18 08:57,-118.7010,39.4166,1199.00,70.00,31.00,23.46,330.00,4.00,0.00,30.02,1013.40,10.00,M,CLR,M,M,M,M,M,M,M,M,M,M,M,M,M,M,70.00,KNFL 180857Z AUTO 33004KT 10SM CLR 21/M01 A3002 RMK AO2 SLP134 T02111006 51009,M
TMT,2025-07-18 09:10,-117.1971,39.4643,1749.34,61.00,35.40,38.27,360.00,3.00,0.00,30.12,M,10.00,M,CLR,M,M,M,M,M,M,M,M,M,M,M,M,M,M,61.00,KTMT 180910Z AUTO 36003KT 10SM CLR 16/02 A3012 RMK AO2 T01620019,M
BVU,2025-07-18 09:15,-114.8611,35.9475,671.00,75.20,62.60,64.96,0.00,0.00,0.00,29.92,M,10.00,M,SCT,M,M,M,11000.00,M,M,M,M,M,M,M,M,M,M,75.20,KBVU 180915Z AUTO 00000KT 10SM SCT110 24/17 A2992 RMK AO2,M
BAM,2025-07-18 09:15,-116.8743,40.5990,1382.36,69.80,42.80,37.63,120.00,5.00,0.00,30.02,M,10.00,M,CLR,M,M,M,M,M,M,M,M,M,M,M,M,M,M,69.80,KBAM 180915Z AUTO 12005KT 10SM CLR 21/06 A3002 RMK AO1,M
CXP,2025-07-18 09:15,-119.7326,39.1923,1431.00,60.80,33.80,36.16,0.00,0.00,0.00,30.12,M,10.00,M,CLR,M,M,M,M,M,M,M,M,M,M,M,M,M,M,60.80,KCXP 180915Z AUTO 00000KT 10SM CLR 16/01 A3012 RMK AO2,M
RTS,2025-07-18 09:15,-119.8764,39.6682,1539.00,59.00,33.80,38.55,310.00,5.00,0.00,30.14,M,10.00,M,CLR,M,M,M,M,M,M,M,M,M,M,M,M,M,M,59.00,KRTS 180915Z AUTO 31005KT 10SM CLR 15/01 A3014 RMK AO2,M
05U,2025-07-18 09:15,-116.0051,39.6042,1811.23,68.00,44.60,42.87,0.00,0.00,0.00,30.16,M,10.00,M,FEW,M,M,M,11000.00,M,M,M,M,M,M,M,M,M,M,68.00,K05U 180915Z AUTO 00000KT 10SM FEW110 20/07 A3016 RMK A01,M
MEV,2025-07-18 09:15,-119.7500,38.9963,1441.42,51.80,39.20,61.99,130.00,6.00,0.00,30.11,M,10.00,M,CLR,M,M,M,M,M,M,M,M,M,M,M,M,M,M,51.80,KMEV 180915Z AUTO 13006KT 10SM CLR 11/04 A3011 RMK AO2,M
HTH,2025-07-18 09:15,-118.6315,38.5448,1282.89,73.40,37.40,27.00,300.00,8.00,0.00,30.04,M,10.00,M,CLR,M,M,M,M,M,M,M,M,M,M,M,M,M,M,73.40,KHTH 180915Z AUTO 30008KT 10SM CLR 23/03 A3004 RMK A01,M
RTS,2025-07-18 09:25,-119.8764,39.6682,1539.00,59.00,33.80,38.55,340.00,6.00,0.00,30.14,M,10.00,M,CLR,M,M,M,M,M,M,M,M,M,M,M,M,M,M,59.00,KRTS 180925Z AUTO 34006KT 10SM CLR 15/01 A3014 RMK AO2,M
MEV,2025-07-18 09:25,-119.7500,38.9963,1441.42,51.80,35.60,53.80,150.00,8.00,0.00,30.11,M,10.00,M,CLR,M,M,M,M,M,M,M,M,M,M,M,M,M,M,51.80,KMEV 180925Z AUTO 15008KT 10SM CLR 11/02 A3011 RMK AO2,M
TMT,2025-07-18 09:30,-117.1971,39.4643,1749.34,57.00,34.00,41.75,0.00,0.00,0.00,30.12,M,10.00,M,CLR,M,M,M,M,M,M,M,M,M,M,M,M,M,M,57.00,KTMT 180930Z AUTO 00000KT 10SM CLR 14/01 A3012 RMK AO2 T01390012,M
BVU,2025-07-18 09:35,-114.8611,35.9475,671.00,77.00,60.80,57.42,0.00,0.00,0.00,29.92,M,10.00,M,FEW,M,M,M,11000.00,M,M,M,M,M,M,M,M,M,M,77.00,KBVU 180935Z AUTO 00000KT 10SM FEW110 25/16 A2992 RMK AO2,M
BAM,2025-07-18 09:35,-116.8743,40.5990,1382.36,69.80,41.00,35.11,120.00,4.00,0.00,30.02,M,10.00,M,CLR,M,M,M,M,M,M,M,M,M,M,M,M,M,M,69.80,KBAM 180935Z AUTO 12004KT 10SM CLR 21/05 A3002 RMK AO1,M
CXP,2025-07-18 09:35,-119.7326,39.1923,1431.00,60.80,33.80,36.16,40.00,4.00,0.00,30.12,M,10.00,M,CLR,M,M,M,M,M,M,M,M,M,M,M,M,M,M,60.80,KCXP 180935Z AUTO 04004KT 10SM CLR 16/01 A3012 RMK AO2,M
05U,2025-07-18 09:35,-116.0051,39.6042,1811.23,68.00,44.60,42.87,0.00,0.00,0.00,30.15,M,10.00,M,CLR,M,M,M,M,M,M,M,M,M,M,M,M,M,M,68.00,K05U 180935Z AUTO 00000KT 10SM CLR 20/07 A3015 RMK A01,M
HTH,2025-07-18 09:35,-118.6315,38.5448,1282.89,73.40,37.40,27.00,290.00,7.00,0.00,30.04,M,10.00,M,CLR,M,M,M,M,M,M,M,M,M,M,M,M,M,M,73.40,KHTH 180935Z AUTO 29007KT 10SM CLR 23/03 A3004 RMK A01,M
CXP,2025-07-18 09:50,-119.7326,39.1923,1431.00,60.80,35.60,38.85,0.00,0.00,0.00,30.12,M,10.00,M,CLR,M,M,M,M,M,M,M,M,M,M,M,M,M,M,60.80,KCXP 180950Z AUTO 00000KT 10SM CLR 16/02 A3012 RMK AO2,M
RTS,2025-07-18 09:50,-119.8764,39.6682,1539.00,59.00,33.80,38.55,350.00,5.00,0.00,30.14,M,10.00,M,CLR,M,M,M,M,M,M,M,M,M,M,M,M,M,M,59.00,KRTS 180950Z AUTO 35005KT 10SM CLR 15/01 A3014 RMK AO2,M
TMT,2025-07-18 09:50,-117.1971,39.4643,1749.34,56.50,34.50,43.37,190.00,4.00,0.00,30.13,M,10.00,M,CLR,M,M,M,M,M,M,M,M,M,M,M,M,M,M,56.50,KTMT 180950Z AUTO 19004KT 10SM CLR 14/01 A3013 RMK AO2 T01360014,M
MEV,2025-07-18 09:50,-119.7500,38.9963,1441.42,53.60,35.60,50.35,140.00,7.00,0.00,30.11,M,10.00,M,CLR,M,M,M,M,M,M,M,M,M,M,M,M,M,M,53.60,KMEV 180950Z AUTO 14007KT 10SM CLR 12/02 A3011 RMK AO2,M
P68,2025-07-18 09:53,-116.0056,39.6014,1993.00,65.00,43.00,44.74,M,3.00,0.00,30.12,1010.10,M,M,M,M,M,M,M,M,M,M,M,M,M,M,M,M,M,65.00,KP68 180953Z AUTO VRB03KT 18/06 A3012 RMK AO1 SLP101 T01830061,M
DRA,2025-07-18 09:53,-116.0278,36.6206,1009.00,79.00,53.00,40.57,110.00,6.00,0.00,29.99,1009.60,10.00,M,CLR,M,M,M,M,M,M,M,M,M,M,M,M,M,M,79.00,KDRA 180953Z AUTO 11006KT 10SM CLR 26/12 A2999 RMK AO2 SLP096 T02610117,M
ELY,2025-07-18 09:53,-114.8453,39.2950,1909.00,65.00,43.00,44.74,310.00,5.00,0.00,30.19,1010.60,10.00,M,CLR,M,M,M,M,M,M,M,M,M,M,M,M,M,M,65.00,KELY 180953Z AUTO 31005KT 10SM CLR 18/06 A3019 RMK AO2 SLP106 T01830061,M
VGT,2025-07-18 09:53,-115.1933,36.2111,667.00,83.00,57.00,41.21,210.00,5.00,0.00,29.92,1011.60,10.00,M,CLR,M,M,M,M,M,M,M,M,M,M,M,M,M,M,82.50,KVGT 180953Z AUTO 21005KT 10SM CLR 28/14 A2992 RMK AO2 SLP116 T02830139,M
LOL,2025-07-18 09:53,-118.5701,40.0684,1192.43,63.00,32.00,31.12,150.00,6.00,0.00,30.00,1011.20,10.00,M,CLR,M,M,M,M,M,M,M,M,M,M,M,M,M,M,63.00,KLOL 180953Z AUTO 15006KT 10SM CLR 17/00 A3000 RMK AO2 SLP112 T01720000,M
INS,2025-07-18 09:55,-115.6733,36.5872,955.00,75.00,61.30,62.46,210.00,3.00,0.00,29.98,1009.30,10.00,M,OVC,M,M,M,15000.00,M,M,M,M,M,M,M,M,M,M,75.00,KINS 180955Z AUTO 21003KT 10SM OVC150 24/16 A2998 RMK AO2 SLP093 T02380163 $,M
BVU,2025-07-18 09:55,-114.8611,35.9475,671.00,75.20,62.60,64.96,0.00,0.00,0.00,29.92,M,10.00,M,CLR,M,M,M,M,M,M,M,M,M,M,M,M,M,M,75.20,KBVU 180955Z AUTO 00000KT 10SM CLR 24/17 A2992 RMK AO2,M
RNO,2025-07-18 09:55,-119.7711,39.4839,1341.00,68.00,34.00,28.35,260.00,5.00,0.00,30.10,1013.00,10.00,M,CLR,M,M,M,M,M,M,M,M,M,M,M,M,M,M,68.00,KRNO 180955Z 26005KT 10SM CLR 20/01 A3010 RMK AO2 SLP130 T02000011,M
LSV,2025-07-18 09:55,-115.0343,36.2362,570.00,82.20,58.60,44.79,0.00,0.00,0.00,29.87,1008.40,10.00,M,BKN,BKN,M,M,14000.00,17000.00,M,M,M,M,M,M,M,M,M,82.23,KLSV 180955Z 00000KT 10SM BKN140 BKN170 28/15 A2987 RMK AO2A SLP084 T02790148,M
BAM,2025-07-18 09:55,-116.8743,40.5990,1382.36,68.00,41.00,37.34,0.00,0.00,0.00,30.02,M,10.00,M,CLR,M,M,M,M,M,M,M,M,M,M,M,M,M,M,68.00,KBAM 180955Z AUTO 00000KT 10SM CLR 20/05 A3002 RMK AO1,M
05U,2025-07-18 09:55,-116.0051,39.6042,1811.23,62.60,42.80,48.29,0.00,0.00,0.00,30.15,M,10.00,M,CLR,M,M,M,M,M,M,M,M,M,M,M,M,M,M,62.60,K05U 180955Z AUTO 00000KT 10SM CLR 17/06 A3015 RMK A01,M
HTH,2025-07-18 09:55,-118.6315,38.5448,1282.89,71.60,37.40,28.69,310.00,6.00,0.00,30.04,M,10.00,M,CLR,M,M,M,M,M,M,M,M,M,M,M,M,M,M,71.60,KHTH 180955Z AUTO 31006KT 10SM CLR 22/03 A3004 RMK A01,M
EKO,2025-07-18 09:56,-115.7860,40.8242,1367.00,64.00,41.00,42.89,330.00,5.00,0.00,30.06,1011.40,10.00,M,CLR,M,M,M,M,M,M,M,M,M,M,M,M,M,M,64.00,KEKO 180956Z AUTO 33005KT 10SM CLR 18/05 A3006 RMK AO2 SLP114 T01780050,M
HND,2025-07-18 09:56,-115.1344,35.9729,742.79,77.00,59.00,53.86,200.00,3.00,0.00,29.97,1013.40,10.00,M,CLR,M,M,M,M,M,M,M,M,M,M,M,M,M,M,77.00,KHND 180956Z AUTO 20003KT 10SM CLR 25/15 A2997 RMK AO2 SLP134 T02500150 $,M
TPH,2025-07-18 09:56,-117.0904,38.0505,1654.00,65.00,42.00,43.05,0.00,0.00,0.00,30.13,1011.40,10.00,M,CLR,M,M,M,M,M,M,M,M,M,M,M,M,M,M,65.00,KTPH 180956Z AUTO 00000KT 10SM CLR 18/06 A3013 RMK AO2 SLP114 T01830056,M
LAS,2025-07-18 09:56,-115.1634,36.0719,663.00,81.00,59.00,47.24,210.00,6.00,0.00,29.94,1010.80,10.00,M,FEW,SCT,BKN,M,11000.00,15000.00,18000.00,M,M,M,M,M,M,M,M,81.41,KLAS 180956Z 21006KT 10SM FEW110 SCT150 BKN180 27/15 A2994 RMK AO2 SLP108 T02720150,M
NFL,2025-07-18 09:57,-118.7010,39.4166,1199.00,66.00,30.00,25.85,230.00,3.00,0.00,30.03,1013.80,10.00,M,CLR,M,M,M,M,M,M,M,M,M,M,M,M,M,M,66.00,KNFL 180957Z AUTO 23003KT 10SM CLR 19/M01 A3003 RMK AO2 SLP138 T01891011,M
TMT,2025-07-18 10:10,-117.1971,39.4643,1749.34,55.80,34.70,44.84,0.00,0.00,0.00,30.13,M,10.00,M,CLR,M,M,M,M,M,M,M,M,M,M,M,M,M,M,55.80,KTMT 181010Z AUTO 00000KT 10SM CLR 13/02 A3013 RMK AO2 T01320015,M
BVU,2025-07-18 10:15,-114.8611,35.9475,671.00,75.20,62.60,64.96,0.00,0.00,0.00,29.92,M,10.00,M,CLR,M,M,M,M,M,M,M,M,M,M,M,M,M,M,75.20,KBVU 181015Z AUTO 00000KT 10SM CLR 24/17 A2992 RMK AO2,M
BAM,2025-07-18 10:15,-116.8743,40.5990,1382.36,68.00,41.00,37.34,130.00,4.00,0.00,30.02,M,10.00,M,CLR,M,M,M,M,M,M,M,M,M,M,M,M,M,M,68.00,KBAM 181015Z AUTO 13004KT 10SM CLR 20/05 A3002 RMK AO1,M
CXP,2025-07-18 10:15,-119.7326,39.1923,1431.00,57.20,33.80,41.12,0.00,0.00,0.00,30.12,M,10.00,M,CLR,M,M,M,M,M,M,M,M,M,M,M,M,M,M,57.20,KCXP 181015Z AUTO 00000KT 10SM CLR 14/01 A3012 RMK AO2,M
RTS,2025-07-18 10:15,-119.8764,39.6682,1539.00,59.00,33.80,38.55,310.00,6.00,0.00,30.14,M,10.00,M,CLR,M,M,M,M,M,M,M,M,M,M,M,M,M,M,59.00,KRTS 181015Z AUTO 31006KT 10SM CLR 15/01 A3014 RMK AO2,M
05U,2025-07-18 10:15,-116.0051,39.6042,1811.23,66.20,44.60,45.62,0.00,0.00,0.00,30.15,M,10.00,10.00,CLR,M,M,M,M,M,M,M,M,M,M,M,M,M,M,66.20,K05U 181015Z AUTO 00000G10KT 10SM CLR 19/07 A3015 RMK A01,M
MEV,2025-07-18 10:15,-119.7500,38.9963,1441.42,51.80,35.60,53.80,M,5.00,0.00,30.11,M,10.00,M,CLR,M,M,M,M,M,M,M,M,M,M,M,M,M,M,51.80,KMEV 181015Z AUTO VRB05KT 10SM CLR 11/02 A3011 RMK AO2,M
HTH,2025-07-18 10:15,-118.6315,38.5448,1282.89,69.80,37.40,30.50,320.00,5.00,0.00,30.05,M,10.00,M,CLR,M,M,M,M,M,M,M,M,M,M,M,M,M,M,69.80,KHTH 181015Z AUTO 32005KT 10SM CLR 21/03 A3005 RMK A01,M
CXP,2025-07-18 10:30,-119.7326,39.1923,1431.00,59.00,33.80,38.55,0.00,0.00,0.00,30.13,M,10.00,M,CLR,M,M,M,M,M,M,M,M,M,M,M,M,M,M,59.00,KCXP 181030Z AUTO 00000KT 10SM CLR 15/01 A3013 RMK AO2,M
TMT,2025-07-18 10:30,-117.1971,39.4643,1749.34,55.00,34.70,46.16,290.00,7.00,0.00,30.13,M,10.00,M,CLR,M,M,M,M,M,M,M,M,M,M,M,M,M,M,55.00,KTMT 181030Z AUTO 29007KT 10SM CLR 13/02 A3013 RMK AO2 T01280015,M
BVU,2025-07-18 10:35,-114.8611,35.9475,671.00,73.40,62.60,68.99,10.00,3.00,0.00,29.91,M,10.00,M,CLR,M,M,M,M,M,M,M,M,M,M,M,M,M,M,73.40,KBVU 181035Z AUTO 01003KT 10SM CLR 23/17 A2991 RMK AO2,M
BAM,2025-07-18 10:35,-116.8743,40.5990,1382.36,68.00,42.80,40.02,0.00,0.00,0.00,30.03,M,10.00,M,CLR,M,M,M,M,M,M,M,M,M,M,M,M,M,M,68.00,KBAM 181035Z AUTO 00000KT 10SM CLR 20/06 A3003 RMK AO1,M
RTS,2025-07-18 10:35,-119.8764,39.6682,1539.00,57.20,32.00,38.25,340.00,8.00,0.00,30.14,M,10.00,M,CLR,M,M,M,M,M,M,M,M,M,M,M,M,M,M,57.20,KRTS 181035Z AUTO 34008KT 10SM CLR 14/00 A3014 RMK AO2,M
05U,2025-07-18 10:35,-116.0051,39.6042,1811.23,66.20,44.60,45.62,150.00,8.00,0.00,30.15,M,10.00,M,CLR,M,M,M,M,M,M,M,M,M,M,M,M,M,M,66.20,K05U 181035Z AUTO 15008KT 10SM CLR 19/07 A3015 RMK A01,M
MEV,2025-07-18 10:35,-119.7500,38.9963,1441.42,51.80,35.60,53.80,0.00,0.00,0.00,30.12,M,10.00,M,CLR,M,M,M,M,M,M,M,M,M,M,M,M,M,M,51.80,KMEV 181035Z AUTO 00000KT 10SM CLR 11/02 A3012 RMK AO2,M
HTH,2025-07-18 10:35,-118.6315,38.5448,1282.89,69.80,37.40,30.50,320.00,4.00,0.00,30.05,M,10.00,M,CLR,M,M,M,M,M,M,M,M,M,M,M,M,M,M,69.80,KHTH 181035Z AUTO 32004KT 10SM CLR 21/03 A3005 RMK A01,M
TMT,2025-07-18 10:50,-117.1971,39.4643,1749.34,51.40,35.00,53.31,0.00,0.00,0.00,30.14,M,10.00,M,CLR,M,M,M,M,M,M,M,M,M,M,M,M,M,M,51.40,KTMT 181050Z AUTO 00000KT 10SM CLR 11/02 A3014 RMK AO2 T01080016,M
P68,2025-07-18 10:53,-116.0056,39.6014,1993.00,65.00,44.00,46.49,190.00,6.00,0.00,30.12,1010.40,M,M,M,M,M,M,M,M,M,M,M,M,M,M,M,M,M,65.00,KP68 181053Z AUTO 19006KT 18/07 A3012 RMK AO1 SLP104 T01830067,M
DRA,2025-07-18 10:53,-116.0278,36.6206,1009.00,78.00,52.00,40.42,90.00,3.00,0.00,29.99,1009.70,10.00,M,CLR,M,M,M,M,M,M,M,M,M,M,M,M,M,M,78.00,KDRA 181053Z AUTO 09003KT 10SM CLR 26/11 A2999 RMK AO2 SLP097 T02560111,M
ELY,2025-07-18 10:53,-114.8453,39.2950,1909.00,63.00,43.00,47.98,10.00,3.00,0.00,30.18,1010.20,10.00,M,CLR,M,M,M,M,M,M,M,M,M,M,M,M,M,M,63.00,KELY 181053Z AUTO 01003KT 10SM CLR 17/06 A3018 RMK AO2 SLP102 T01720061,M
VGT,2025-07-18 10:53,-115.1933,36.2111,667.00,83.00,56.00,39.74,0.00,0.00,0.00,29.92,1011.70,10.00,M,CLR,M,M,M,M,M,M,M,M,M,M,M,M,M,M,82.30,KVGT 181053Z AUTO 00000KT 10SM CLR 28/13 A2992 RMK AO2 SLP117 T02830133,M
LOL,2025-07-18 10:53,-118.5701,40.0684,1192.43,59.00,34.00,38.86,170.00,5.00,0.00,30.01,1011.70,10.00,M,CLR,M,M,M,M,M,M,M,M,M,M,M,M,M,M,59.00,KLOL 181053Z AUTO 17005KT 10SM CLR 15/01 A3001 RMK AO2 SLP117 T01500011,M
BVU,2025-07-18 10:55,-114.8611,35.9475,671.00,73.40,62.60,68.99,0.00,0.00,0.00,29.92,M,10.00,M,CLR,M,M,M,M,M,M,M,M,M,M,M,M,M,M,73.40,KBVU 181055Z AUTO 00000KT 10SM CLR 23/17 A2992 RMK AO2,M
RNO,2025-07-18 10:55,-119.7711,39.4839,1341.00,63.00,35.00,35.10,190.00,4.00,0.00,30.10,1013.20,10.00,M,CLR,M,M,M,M,M,M,M,M,M,M,M,M,M,M,63.00,KRNO 181055Z 19004KT 10SM CLR 17/02 A3010 RMK AO2 SLP132 T01720017,M
BAM,2025-07-18 10:55,-116.8743,40.5990,1382.36,68.00,42.80,40.02,0.00,0.00,0.00,30.03,M,10.00,M,CLR,M,M,M,M,M,M,M,M,M,M,M,M,M,M,68.00,KBAM 181055Z AUTO 00000KT 10SM CLR 20/06 A3003 RMK AO1,M
CXP,2025-07-18 10:55,-119.7326,39.1923,1431.00,57.20,35.60,44.18,0.00,0.00,0.00,30.13,M,10.00,M,CLR,M,M,M,M,M,M,M,M,M,M,M,M,M,M,57.20,KCXP 181055Z AUTO 00000KT 10SM CLR 14/02 A3013 RMK AO2,M
RTS,2025-07-18 10:55,-119.8764,39.6682,1539.00,55.40,32.00,40.83,340.00,7.00,0.00,30.15,M,10.00,M,CLR,M,M,M,M,M,M,M,M,M,M,M,M,M,M,55.40,KRTS 181055Z AUTO 34007KT 10SM CLR 13/00 A3015 RMK AO2,M
05U,2025-07-18 10:55,-116.0051,39.6042,1811.23,64.40,44.60,48.57,0.00,0.00,0.00,30.15,M,10.00,M,CLR,M,M,M,M,M,M,M,M,M,M,M,M,M,M,64.40,K05U 181055Z AUTO 00000KT 10SM CLR 18/07 A3015 RMK A01,M
MEV,2025-07-18 10:55,-119.7500,38.9963,1441.42,50.00,35.60,57.51,120.00,3.00,0.00,30.11,M,10.00,M,CLR,M,M,M,M,M,M,M,M,M,M,M,M,M,M,50.00,KMEV 181055Z AUTO 12003KT 10SM CLR 10/02 A3011 RMK AO2,M
HTH,2025-07-18 10:55,-118.6315,38.5448,1282.89,69.80,39.20,32.73,0.00,0.00,0.00,30.06,M,10.00,M,CLR,M,M,M,M,M,M,M,M,M,M,M,M,M,M,69.80,KHTH 181055Z AUTO 00000KT 10SM CLR 21/04 A3006 RMK A01,M
INS,2025-07-18 10:55,-115.6733,36.5872,955.00,76.00,60.00,57.69,200.00,5.00,0.00,29.98,1009.30,10.00,M,BKN,OVC,M,M,14000.00,16000.00,M,M,M,M,M,M,M,M,M,76.00,KINS 181055Z AUTO 20005KT 10SM BKN140 OVC160 24/16 A2998 RMK AO2 SLP093 T02440156 $,M
LSV,2025-07-18 10:55,-115.0343,36.2362,570.00,81.00,59.40,47.92,100.00,3.00,0.00,29.87,1008.40,10.00,M,BKN,BKN,M,M,14000.00,16000.00,M,M,M,M,M,M,M,M,M,81.49,KLSV 181055Z 10003KT 10SM BKN140 BKN160 27/15 A2987 RMK AO2A SLP084 T02720152,M
EKO,2025-07-18 10:56,-115.7860,40.8242,1367.00,62.00,40.00,44.26,80.00,5.00,0.00,30.07,1012.00,10.00,M,CLR,M,M,M,M,M,M,M,M,M,M,M,M,M,M,62.00,KEKO 181056Z AUTO 08005KT 10SM CLR 17/04 A3007 RMK AO2 SLP120 T01670044,M
HND,2025-07-18 10:56,-115.1344,35.9729,742.79,76.00,59.00,55.67,180.00,5.00,0.00,29.97,1013.20,10.00,M,CLR,M,M,M,M,M,M,M,M,M,M,M,M,M,M,76.00,KHND 181056Z AUTO 18005KT 10SM CLR 24/15 A2997 RMK AO2 SLP132 T02440150 $,M
TPH,2025-07-18 10:56,-117.0904,38.0505,1654.00,63.00,41.00,44.42,110.00,3.00,0.00,30.13,1011.70,10.00,M,CLR,M,M,M,M,M,M,M,M,M,M,M,M,M,M,63.00,KTPH 181056Z AUTO 11003KT 10SM CLR 17/05 A3013 RMK AO2 SLP117 T01720050,M
LAS,2025-07-18 10:56,-115.1634,36.0719,663.00,81.00,59.00,47.24,170.00,5.00,0.00,29.94,1010.70,10.00,M,FEW,OVC,M,M,11000.00,15000.00,M,M,M,M,M,M,M,M,M,81.41,KLAS 181056Z 17005KT 10SM FEW110 OVC150 27/15 A2994 RMK AO2 SLP107 T02720150,M
NFL,2025-07-18 10:57,-118.7010,39.4166,1199.00,62.00,31.00,30.96,180.00,5.00,0.00,30.03,1013.90,10.00,M,CLR,M,M,M,M,M,M,M,M,M,M,M,M,M,M,62.00,KNFL 181057Z AUTO 18005KT 10SM CLR 17/M01 A3003 RMK AO2 SLP139 T01671006,M
RTS,2025-07-18 11:05,-119.8764,39.6682,1539.00,53.60,32.00,43.60,330.00,7.00,0.00,30.14,M,10.00,M,CLR,M,M,M,M,M,M,M,M,M,M,M,M,M,M,53.60,KRTS 181105Z AUTO 33007KT 10SM CLR 12/M00 A3014 RMK AO2,M
CXP,2025-07-18 11:10,-119.7326,39.1923,1431.00,57.20,33.80,41.12,0.00,0.00,0.00,30.13,M,10.00,M,CLR,M,M,M,M,M,M,M,M,M,M,M,M,M,M,57.20,KCXP 181110Z AUTO 00000KT 10SM CLR 14/01 A3013 RMK AO2,M
TMT,2025-07-18 11:10,-117.1971,39.4643,1749.34,52.30,35.20,51.98,0.00,0.00,0.00,30.14,M,10.00,M,CLR,M,M,M,M,M,M,M,M,M,M,M,M,M,M,52.30,KTMT 181110Z AUTO 00000KT 10SM CLR 11/02 A3014 RMK AO2 T01130018,M
BVU,2025-07-18 11:15,-114.8611,35.9475,671.00,75.20,60.80,60.96,0.00,0.00,0.00,29.92,M,10.00,M,CLR,M,M,M,M,M,M,M,M,M,M,M,M,M,M,75.20,KBVU 181115Z AUTO 00000KT 10SM CLR 24/16 A2992 RMK AO2,M
BAM,2025-07-18 11:15,-116.8743,40.5990,1382.36,66.20,41.00,39.73,260.00,3.00,0.00,30.03,M,10.00,M,CLR,M,M,M,M,M,M,M,M,M,M,M,M,M,M,66.20,KBAM 181115Z AUTO 26003KT 10SM CLR 19/05 A3003 RMK AO1,M
05U,2025-07-18 11:15,-116.0051,39.6042,1811.23,59.00,41.00,51.18,0.00,0.00,0.00,30.15,M,10.00,M,CLR,M,M,M,M,M,M,M,M,M,M,M,M,M,M,59.00,K05U 181115Z AUTO 00000KT 10SM CLR 15/05 A3015 RMK A01,M
MEV,2025-07-18 11:15,-119.7500,38.9963,1441.42,46.40,35.60,65.82,140.00,5.00,0.00,30.12,M,10.00,M,CLR,M,M,M,M,M,M,M,M,M,M,M,M,M,M,43.50,KMEV 181115Z AUTO 14005KT 10SM CLR 08/02 A3012 RMK AO2,M
HTH,2025-07-18 11:15,-118.6315,38.5448,1282.89,69.80,44.60,40.31,360.00,3.00,0.00,30.06,M,10.00,M,CLR,M,M,M,M,M,M,M,M,M,M,M,M,M,M,69.80,KHTH 181115Z AUTO 36003KT 10SM CLR 21/07 A3006 RMK A01,M
TMT,2025-07-18 11:30,-117.1971,39.4643,1749.34,49.00,33.00,53.80,0.00,0.00,0.00,30.14,M,10.00,M,CLR,M,M,M,M,M,M,M,M,M,M,M,M,M,M,49.00,KTMT 181130Z AUTO 00000KT 10SM CLR 09/01 A3014 RMK AO2 T00940005,M
BVU,2025-07-18 11:35,-114.8611,35.9475,671.00,71.60,62.60,73.30,0.00,0.00,0.00,29.92,M,10.00,M,CLR,M,M,M,M,M,M,M,M,M,M,M,M,M,M,71.60,KBVU 181135Z AUTO 00000KT 10SM CLR 22/17 A2992 RMK AO2,M
BAM,2025-07-18 11:35,-116.8743,40.5990,1382.36,64.40,41.00,42.30,0.00,0.00,0.00,30.04,M,10.00,M,CLR,M,M,M,M,M,M,M,M,M,M,M,M,M,M,64.40,KBAM 181135Z AUTO 00000KT 10SM CLR 18/05 A3004 RMK AO1,M
RTS,2025-07-18 11:50,-119.8764,39.6682,1539.00,55.40,32.00,40.83,330.00,9.00,0.00,30.15,M,10.00,M,CLR,M,M,M,M,M,M,M,M,M,M,M,M,M,M,55.40,KRTS 181150Z AUTO 33009KT 10SM CLR 13/00 A3015 RMK AO2,M
TMT,2025-07-18 11:50,-117.1971,39.4643,1749.34,50.00,33.00,51.84,0.00,0.00,0.00,30.15,M,10.00,M,CLR,M,M,M,M,M,M,M,M,M,M,M,M,M,M,50.00,KTMT 181150Z AUTO 00000KT 10SM CLR 10/01 A3015 RMK AO2 T01010006,M
CXP,2025-07-18 11:50,-119.7326,39.1923,1431.00,57.20,33.80,41.12,0.00,0.00,0.00,30.14,M,10.00,M,CLR,M,M,M,M,M,M,M,M,M,M,M,M,M,M,57.20,KCXP 181150Z AUTO 00000KT 10SM CLR 14/01 A3014 RMK AO2,M
MEV,2025-07-18 11:50,-119.7500,38.9963,1441.42,46.40,35.60,65.82,110.00,7.00,0.00,30.12,M,10.00,M,CLR,M,M,M,M,M,M,M,M,M,M,M,M,M,M,42.33,KMEV 181150Z AUTO 11007KT 10SM CLR 08/02 A3012 RMK AO2,M
P68,2025-07-18 11:53,-116.0056,39.6014,1993.00,61.00,43.00,51.49,180.00,5.00,0.00,30.13,1010.90,M,M,M,M,M,M,M,M,M,M,M,M,M,M,M,M,M,61.00,KP68 181153Z AUTO 18005KT 16/06 A3013 RMK AO1 SLP109 T01610061 10267 20156 55001,M
DRA,2025-07-18 11:53,-116.0278,36.6206,1009.00,77.00,51.00,40.26,270.00,3.00,0.00,29.99,1009.90,10.00,M,CLR,M,M,M,M,M,M,M,M,M,M,M,M,M,M,77.00,KDRA 181153Z AUTO 27003KT 10SM CLR 25/11 A2999 RMK AO2 SLP099 T02500106 10311 20250 55000,M
ELY,2025-07-18 11:53,-114.8453,39.2950,1909.00,59.00,42.00,53.20,180.00,6.00,0.00,30.19,1010.90,10.00,M,CLR,M,M,M,M,M,M,M,M,M,M,M,M,M,M,59.00,KELY 181153Z AUTO 18006KT 10SM CLR 15/06 A3019 RMK AO2 SLP109 T01500056 10211 20150 55002,M
VGT,2025-07-18 11:53,-115.1933,36.2111,667.00,81.00,56.00,42.40,80.00,4.00,0.00,29.93,1012.20,10.00,M,CLR,M,M,M,M,M,M,M,M,M,M,M,M,M,M,80.89,KVGT 181153Z AUTO 08004KT 10SM CLR 27/13 A2993 RMK AO2 SLP122 T02720133 10294 20272 55000,M
LOL,2025-07-18 11:53,-118.5701,40.0684,1192.43,55.00,33.00,43.13,0.00,0.00,0.00,30.02,1012.40,10.00,M,CLR,M,M,M,M,M,M,M,M,M,M,M,M,M,M,55.00,KLOL 181153Z AUTO 00000KT 10SM CLR 13/01 A3002 RMK AO2 SLP124 T01280006 10278 20117 53008,M
05U,2025-07-18 11:55,-116.0051,39.6042,1811.23,60.80,42.80,51.46,0.00,0.00,0.00,30.15,M,10.00,M,CLR,M,M,M,M,M,M,M,M,M,M,M,M,M,M,60.80,K05U 181155Z AUTO 00000KT 10SM CLR 16/06 A3015 RMK A01,M
HTH,2025-07-18 11:55,-118.6315,38.5448,1282.89,68.00,42.80,40.02,210.00,4.00,0.00,30.08,M,10.00,M,CLR,M,M,M,M,M,M,M,M,M,M,M,M,M,M,68.00,KHTH 181155Z AUTO 21004KT 10SM CLR 20/06 A3008 RMK A01,M
BVU,2025-07-18 11:55,-114.8611,35.9475,671.00,75.20,60.80,60.96,0.00,0.00,0.00,29.93,M,10.00,M,CLR,M,M,M,M,M,M,M,M,M,M,M,M,M,M,75.20,KBVU 181155Z AUTO 00000KT 10SM CLR 24/16 A2993 RMK AO2,M
RNO,2025-07-18 11:55,-119.7711,39.4839,1341.00,61.00,33.00,34.77,180.00,5.00,0.00,30.11,1013.90,10.00,M,CLR,M,M,M,M,M,M,M,M,M,M,M,M,M,M,61.00,KRNO 181155Z 18005KT 10SM CLR 16/01 A3011 RMK AO2 SLP139 T01610006 10239 20156 53005,M
BAM,2025-07-18 11:55,-116.8743,40.5990,1382.36,62.60,39.20,42.00,130.00,3.00,0.00,30.04,M,10.00,M,CLR,M,M,M,M,M,M,M,M,M,M,M,M,M,M,62.60,KBAM 181155Z AUTO 13003KT 10SM CLR 17/04 A3004 RMK AO1,M
INS,2025-07-18 11:55,-115.6733,36.5872,955.00,75.00,61.00,61.80,90.00,4.00,0.00,29.99,1009.90,10.00,M,OVC,M,M,M,15000.00,M,M,M,M,M,M,M,M,M,M,75.00,KINS 181155Z AUTO 09004KT 10SM OVC150 24/16 A2999 RMK AO2 SLP099 70008 T02390162 10260 20234 53001 $,M
LSV,2025-07-18 11:55,-115.0343,36.2362,570.00,82.00,58.50,44.92,0.00,0.00,0.00,29.88,1008.70,10.00,M,BKN,M,M,M,15000.00,M,M,M,M,M,M,M,M,M,M,82.06,KLSV 181155Z 00000KT 10SM BKN150 28/15 A2988 RMK AO2A SLP087 70001 T02770147 10296 20267 53002,M
EKO,2025-07-18 11:56,-115.7860,40.8242,1367.00,59.00,41.00,51.18,0.00,0.00,0.00,30.06,1012.20,10.00,M,CLR,M,M,M,M,M,M,M,M,M,M,M,M,M,M,59.00,KEKO 181156Z AUTO 00000KT 10SM CLR 15/05 A3006 RMK AO2 SLP122 T01500050 10228 20133 50000,M
HND,2025-07-18 11:56,-115.1344,35.9729,742.79,77.00,59.00,53.86,210.00,8.00,0.00,29.98,1013.60,10.00,M,CLR,M,M,M,M,M,M,M,M,M,M,M,M,M,M,77.00,KHND 181156Z AUTO 21008KT 10SM CLR 25/15 A2998 RMK AO2 SLP136 60000 70001 T02500150 10261 20239 53003 $,M
TPH,2025-07-18 11:56,-117.0904,38.0505,1654.00,61.00,41.00,47.67,0.00,0.00,0.00,30.14,1012.40,10.00,M,CLR,M,M,M,M,M,M,M,M,M,M,M,M,M,M,61.00,KTPH 181156Z AUTO 00000KT 10SM CLR 16/05 A3014 RMK AO2 SLP124 T01610050 10256 20161 53004,M
LAS,2025-07-18 11:56,-115.1634,36.0719,663.00,80.00,58.00,47.08,200.00,5.00,0.00,29.94,1010.90,10.00,M,OVC,M,M,M,14000.00,M,M,M,M,M,M,M,M,M,M,80.53,KLAS 181156Z 20005KT 10SM OVC140 27/14 A2994 RMK AO2 SLP109 ACC N AND DSNT NE 60000 T02670144 10283 20267 55002,M
NFL,2025-07-18 11:57,-118.7010,39.4166,1199.00,58.00,32.00,37.17,180.00,6.00,0.00,30.04,1014.20,10.00,M,CLR,M,M,M,M,M,M,M,M,M,M,M,M,M,M,58.00,KNFL 181157Z AUTO 18006KT 10SM CLR 14/00 A3004 RMK AO2 SLP142 T01440000 10272 20144 51008,M
TMT,2025-07-18 12:10,-117.1971,39.4643,1749.34,46.60,32.00,56.56,170.00,3.00,0.00,30.15,M,10.00,M,CLR,M,M,M,M,M,M,M,M,M,M,M,M,M,M,45.38,KTMT 181210Z AUTO 17003KT 10SM CLR 08/00 A3015 RMK AO2 T00810000,M
BVU,2025-07-18 12:15,-114.8611,35.9475,671.00,75.20,60.80,60.96,100.00,4.00,0.00,29.93,M,10.00,M,CLR,M,M,M,M,M,M,M,M,M,M,M,M,M,M,75.20,KBVU 181215Z AUTO 10004KT 10SM CLR 24/16 A2993 RMK AO2,M
BAM,2025-07-18 12:15,-116.8743,40.5990,1382.36,62.60,37.40,39.14,150.00,5.00,0.00,30.04,M,10.00,M,CLR,M,M,M,M,M,M,M,M,M,M,M,M,M,M,62.60,KBAM 181215Z AUTO 15005KT 10SM CLR 17/03 A3004 RMK AO1,M
CXP,2025-07-18 12:15,-119.7326,39.1923,1431.00,55.40,33.80,43.89,0.00,0.00,0.00,30.14,M,10.00,M,CLR,M,M,M,M,M,M,M,M,M,M,M,M,M,M,55.40,KCXP 181215Z AUTO 00000KT 10SM CLR 13/01 A3014 RMK AO2,M
RTS,2025-07-18 12:15,-119.8764,39.6682,1539.00,55.40,32.00,40.83,330.00,8.00,0.00,30.16,M,10.00,M,CLR,M,M,M,M,M,M,M,M,M,M,M,M,M,M,55.40,KRTS 181215Z AUTO 33008KT 10SM CLR 13/00 A3016 RMK AO2,M
05U,2025-07-18 12:15,-116.0051,39.6042,1811.23,59.00,41.00,51.18,0.00,0.00,0.00,30.16,M,10.00,M,CLR,M,M,M,M,M,M,M,M,M,M,M,M,M,M,59.00,K05U 181215Z AUTO 00000KT 10SM CLR 15/05 A3016 RMK A01,M
MEV,2025-07-18 12:15,-119.7500,38.9963,1441.42,50.00,35.60,57.51,0.00,0.00,0.00,30.13,M,10.00,M,CLR,M,M,M,M,M,M,M,M,M,M,M,M,M,M,50.00,KMEV 181215Z AUTO 00000KT 10SM CLR 10/02 A3013 RMK AO2,M
HTH,2025-07-18 12:15,-118.6315,38.5448,1282.89,68.00,42.80,40.02,0.00,0.00,0.00,30.08,M,10.00,M,CLR,M,M,M,M,M,M,M,M,M,M,M,M,M,M,68.00,KHTH 181215Z AUTO 00000KT 10SM CLR 20/06 A3008 RMK A01,M
TMT,2025-07-18 12:30,-117.1971,39.4643,1749.34,48.00,32.70,55.19,240.00,4.00,0.00,30.16,M,10.00,M,CLR,M,M,M,M,M,M,M,M,M,M,M,M,M,M,46.10,KTMT 181230Z AUTO 24004KT 10SM CLR 09/00 A3016 RMK AO2 T00890004,M
BVU,2025-07-18 12:35,-114.8611,35.9475,671.00,77.00,59.00,53.86,130.00,4.00,0.00,29.94,M,10.00,M,CLR,M,M,M,M,M,M,M,M,M,M,M,M,M,M,77.00,KBVU 181235Z AUTO 13004KT 10SM CLR 25/15 A2994 RMK AO2,M
BAM,2025-07-18 12:35,-116.8743,40.5990,1382.36,60.80,35.60,38.85,180.00,6.00,0.00,30.04,M,10.00,M,CLR,M,M,M,M,M,M,M,M,M,M,M,M,M,M,60.80,KBAM 181235Z AUTO 18006KT 10SM CLR 16/02 A3004 RMK AO1,M
CXP,2025-07-18 12:35,-119.7326,39.1923,1431.00,53.60,33.80,46.87,0.00,0.00,0.00,30.15,M,10.00,M,CLR,M,M,M,M,M,M,M,M,M,M,M,M,M,M,53.60,KCXP 181235Z AUTO 00000KT 10SM CLR 12/01 A3015 RMK AO2,M
RTS,2025-07-18 12:35,-119.8764,39.6682,1539.00,55.40,32.00,40.83,320.00,9.00,0.00,30.16,M,10.00,M,CLR,M,M,M,M,M,M,M,M,M,M,M,M,M,M,55.40,KRTS 181235Z AUTO 32009KT 10SM CLR 13/00 A3016 RMK AO2,M
05U,2025-07-18 12:35,-116.0051,39.6042,1811.23,55.40,41.00,58.27,0.00,0.00,0.00,30.17,M,10.00,M,CLR,M,M,M,M,M,M,M,M,M,M,M,M,M,M,55.40,K05U 181235Z AUTO 00000KT 10SM CLR 13/05 A3017 RMK A01,M
MEV,2025-07-18 12:35,-119.7500,38.9963,1441.42,48.20,35.60,61.50,0.00,0.00,0.00,30.14,M,10.00,M,CLR,M,M,M,M,M,M,M,M,M,M,M,M,M,M,48.20,KMEV 181235Z AUTO 00000KT 10SM CLR 09/02 A3014 RMK AO2,M
HTH,2025-07-18 12:35,-118.6315,38.5448,1282.89,69.80,42.80,37.63,0.00,0.00,0.00,30.09,M,10.00,M,CLR,M,M,M,M,M,M,M,M,M,M,M,M,M,M,69.80,KHTH 181235Z AUTO 00000KT 10SM CLR 21/06 A3009 RMK A01,M
TMT,2025-07-18 12:50,-117.1971,39.4643,1749.34,47.00,34.00,60.37,260.00,6.00,0.00,30.16,M,10.00,M,CLR,M,M,M,M,M,M,M,M,M,M,M,M,M,M,43.60,KTMT 181250Z AUTO 26006KT 10SM CLR 08/01 A3016 RMK AO2 T00840012,M
P68,2025-07-18 12:53,-116.0056,39.6014,1993.00,61.00,39.00,44.10,200.00,7.00,0.00,30.15,1011.60,M,M,M,M,M,M,M,M,M,M,M,M,M,M,M,M,M,61.00,KP68 181253Z AUTO 20007KT 16/04 A3015 RMK AO1 SLP116 T01610039,M
DRA,2025-07-18 12:53,-116.0278,36.6206,1009.00,75.00,61.00,61.80,350.00,4.00,T,30.02,1011.00,10.00,M,FEW,BKN,M,M,8000.00,11000.00,M,M,M,M,M,M,M,M,M,75.00,KDRA 181253Z AUTO 35004KT 10SM FEW080 BKN110 24/16 A3002 RMK AO2 RAB21E48 SLP110 P0000 T02390161,M
ELY,2025-07-18 12:53,-114.8453,39.2950,1909.00,59.00,42.00,53.20,180.00,6.00,0.00,30.20,1011.60,10.00,M,CLR,M,M,M,M,M,M,M,M,M,M,M,M,M,M,59.00,KELY 181253Z AUTO 18006KT 10SM CLR 15/06 A3020 RMK AO2 SLP116 T01500056,M
VGT,2025-07-18 12:53,-115.1933,36.2111,667.00,81.00,58.00,45.57,60.00,5.00,0.00,29.95,1013.00,10.00,M,CLR,M,M,M,M,M,M,M,M,M,M,M,M,M,M,81.23,KVGT 181253Z 06005KT 10SM CLR 27/14 A2995 RMK AO2 SLP130 T02720144,M
LOL,2025-07-18 12:53,-118.5701,40.0684,1192.43,54.00,33.00,44.73,0.00,0.00,0.00,30.04,1013.10,10.00,M,CLR,M,M,M,M,M,M,M,M,M,M,M,M,M,M,54.00,KLOL 181253Z AUTO 00000KT 10SM CLR 12/01 A3004 RMK AO2 SLP131 T01220006,M
CXP,2025-07-18 12:55,-119.7326,39.1923,1431.00,55.40,37.40,50.63,0.00,0.00,0.00,30.16,M,10.00,M,CLR,M,M,M,M,M,M,M,M,M,M,M,M,M,M,55.40,KCXP 181255Z AUTO 00000KT 10SM CLR 13/03 A3016 RMK AO2,M
RTS,2025-07-18 12:55,-119.8764,39.6682,1539.00,51.80,30.20,43.30,330.00,7.00,0.00,30.16,M,10.00,M,CLR,M,M,M,M,M,M,M,M,M,M,M,M,M,M,51.80,KRTS 181255Z AUTO 33007KT 10SM CLR 11/M01 A3016 RMK AO2,M
05U,2025-07-18 12:55,-116.0051,39.6042,1811.23,59.00,39.20,47.72,0.00,0.00,0.00,30.17,M,10.00,M,CLR,M,M,M,M,M,M,M,M,M,M,M,M,M,M,59.00,K05U 181255Z AUTO 00000KT 10SM CLR 15/04 A3017 RMK A01,M
MEV,2025-07-18 12:55,-119.7500,38.9963,1441.42,46.40,35.60,65.82,0.00,0.00,0.00,30.14,M,10.00,M,CLR,M,M,M,M,M,M,M,M,M,M,M,M,M,M,46.40,KMEV 181255Z AUTO 00000KT 10SM CLR 08/02 A3014 RMK AO2,M
HTH,2025-07-18 12:55,-118.6315,38.5448,1282.89,68.00,41.00,37.34,230.00,6.00,0.00,30.09,M,10.00,M,CLR,M,M,M,M,M,M,M,M,M,M,M,M,M,M,68.00,KHTH 181255Z AUTO 23006KT 10SM CLR 20/05 A3009 RMK A01,M
BVU,2025-07-18 12:55,-114.8611,35.9475,671.00,75.20,60.80,60.96,0.00,0.00,0.00,29.95,M,10.00,M,CLR,M,M,M,M,M,M,M,M,M,M,M,M,M,M,75.20,KBVU 181255Z AUTO 00000KT 10SM CLR 24/16 A2995 RMK AO2,M
RNO,2025-07-18 12:55,-119.7711,39.4839,1341.00,61.00,31.00,32.07,0.00,0.00,0.00,30.13,1014.60,10.00,M,CLR,M,M,M,M,M,M,M,M,M,M,M,M,M,M,61.00,KRNO 181255Z 00000KT 10SM CLR 16/M01 A3013 RMK AO2 SLP146 T01611006,M
BAM,2025-07-18 12:55,-116.8743,40.5990,1382.36,62.60,35.60,36.45,180.00,6.00,0.00,30.05,M,10.00,M,CLR,M,M,M,M,M,M,M,M,M,M,M,M,M,M,62.60,KBAM 181255Z AUTO 18006KT 10SM CLR 17/02 A3005 RMK AO1,M
INS,2025-07-18 12:55,-115.6733,36.5872,955.00,75.60,58.60,55.61,110.00,5.00,0.00,30.00,1010.20,10.00,M,OVC,M,M,M,20000.00,M,M,M,M,M,M,M,M,M,M,75.60,KINS 181255Z AUTO 11005KT 10SM OVC200 24/15 A3000 RMK AO2 SLP102 T02420148 $,M
LSV,2025-07-18 12:55,-115.0343,36.2362,570.00,81.00,59.00,47.24,90.00,3.00,0.00,29.91,1009.80,10.00,M,BKN,M,M,M,14000.00,M,M,M,M,M,M,M,M,M,M,81.41,KLSV 181255Z 09003KT 10SM BKN140 27/15 A2991 RMK AO2A SLP098 T02730150,M
EKO,2025-07-18 12:56,-115.7860,40.8242,1367.00,56.00,41.00,57.02,310.00,3.00,0.00,30.08,1013.00,10.00,M,CLR,M,M,M,M,M,M,M,M,M,M,M,M,M,M,56.00,KEKO 181256Z AUTO 31003KT 10SM CLR 13/05 A3008 RMK AO2 SLP130 T01330050,M
HND,2025-07-18 12:56,-115.1344,35.9729,742.79,76.00,59.00,55.67,200.00,6.00,0.00,29.99,1014.60,10.00,M,CLR,M,M,M,M,M,M,M,M,M,M,M,M,M,M,76.00,KHND 181256Z AUTO 20006KT 10SM CLR 24/15 A2999 RMK AO2 SLP146 T02440150 $,M
TPH,2025-07-18 12:56,-117.0904,38.0505,1654.00,59.00,38.00,45.53,0.00,0.00,0.00,30.16,1013.10,10.00,M,CLR,M,M,M,M,M,M,M,M,M,M,M,M,M,M,59.00,KTPH 181256Z AUTO 00000KT 10SM CLR 15/03 A3016 RMK AO2 SLP131 T01500033,M
LAS,2025-07-18 12:56,-115.1634,36.0719,663.00,80.00,58.00,47.08,170.00,4.00,0.00,29.97,1012.00,10.00,M,FEW,BKN,BKN,M,11000.00,15000.00,18000.00,M,M,M,M,M,M,M,M,80.53,KLAS 181256Z 17004KT 10SM FEW110 BKN150 BKN180 27/14 A2997 RMK AO2 SLP120 ACC SW-W AND DSNT NE T02670144,M
NFL,2025-07-18 12:57,-118.7010,39.4166,1199.00,60.00,35.00,39.03,M,5.00,0.00,30.05,1014.60,9.00,M,FEW,M,M,M,12000.00,M,M,M,M,M,M,M,M,M,M,60.00,KNFL 181257Z VRB05KT 9SM FEW120 16/02 A3005 RMK AO2 SLP146 T01560017,M
05U,2025-07-18 13:10,-116.0051,39.6042,1811.23,60.80,39.20,44.76,0.00,0.00,0.00,30.18,M,10.00,M,CLR,M,M,M,M,M,M,M,M,M,M,M,M,M,M,60.80,K05U 181310Z AUTO 00000KT 10SM CLR 16/04 A3018 RMK A01,M
TMT,2025-07-18 13:10,-117.1971,39.4643,1749.34,48.60,35.00,59.16,0.00,0.00,0.00,30.18,M,10.00,M,CLR,M,M,M,M,M,M,M,M,M,M,M,M,M,M,48.60,KTMT 181310Z AUTO 00000KT 10SM CLR 09/02 A3018 RMK AO2 T00920017,M
BVU,2025-07-18 13:15,-114.8611,35.9475,671.00,73.40,62.60,68.99,360.00,6.00,0.00,29.95,M,10.00,M,CLR,M,M,M,M,M,M,M,M,M,M,M,M,M,M,73.40,KBVU 181315Z AUTO 36006KT 10SM CLR 23/17 A2995 RMK AO2,M
BAM,2025-07-18 13:15,-116.8743,40.5990,1382.36,62.60,37.40,39.14,210.00,5.00,0.00,30.05,M,10.00,M,CLR,M,M,M,M,M,M,M,M,M,M,M,M,M,M,62.60,KBAM 181315Z AUTO 21005KT 10SM CLR 17/03 A3005 RMK AO1,M
CXP,2025-07-18 13:15,-119.7326,39.1923,1431.00,55.40,37.40,50.63,0.00,0.00,0.00,30.16,M,10.00,M,CLR,M,M,M,M,M,M,M,M,M,M,M,M,M,M,55.40,KCXP 181315Z AUTO 00000KT 10SM CLR 13/03 A3016 RMK AO2,M
RTS,2025-07-18 13:15,-119.8764,39.6682,1539.00,50.00,32.00,49.79,330.00,8.00,0.00,30.17,M,10.00,M,CLR,M,M,M,M,M,M,M,M,M,M,M,M,M,M,50.00,KRTS 181315Z AUTO 33008KT 10SM CLR 10/M00 A3017 RMK AO2,M
MEV,2025-07-18 13:15,-119.7500,38.9963,1441.42,44.60,37.40,75.67,50.00,3.00,0.00,30.15,M,10.00,M,CLR,M,M,M,M,M,M,M,M,M,M,M,M,M,M,43.09,KMEV 181315Z AUTO 05003KT 10SM CLR 07/03 A3015 RMK AO2,M
HTH,2025-07-18 13:15,-118.6315,38.5448,1282.89,68.00,41.00,37.34,220.00,5.00,0.00,30.10,M,10.00,M,CLR,M,M,M,M,M,M,M,M,M,M,M,M,M,M,68.00,KHTH 181315Z AUTO 22005KT 10SM CLR 20/05 A3010 RMK A01,M
TMT,2025-07-18 13:30,-117.1971,39.4643,1749.34,50.00,34.00,53.95,0.00,0.00,0.00,30.18,M,10.00,M,CLR,M,M,M,M,M,M,M,M,M,M,M,M,M,M,50.00,KTMT 181330Z AUTO 00000KT 10SM CLR 10/01 A3018 RMK AO2 T01000011,M
BVU,2025-07-18 13:35,-114.8611,35.9475,671.00,77.00,60.80,57.42,0.00,0.00,0.00,29.96,M,10.00,M,BKN,M,M,M,12000.00,M,M,M,M,M,M,M,M,M,M,77.00,KBVU 181335Z AUTO 00000KT 10SM BKN120 25/16 A2996 RMK AO2,M
BAM,2025-07-18 13:35,-116.8743,40.5990,1382.36,64.40,37.40,36.75,100.00,3.00,0.00,30.06,M,10.00,M,CLR,M,M,M,M,M,M,M,M,M,M,M,M,M,M,64.40,KBAM 181335Z AUTO 10003KT 10SM CLR 18/03 A3006 RMK AO1,M
CXP,2025-07-18 13:35,-119.7326,39.1923,1431.00,57.20,37.40,47.44,0.00,0.00,0.00,30.17,M,10.00,M,CLR,M,M,M,M,M,M,M,M,M,M,M,M,M,M,57.20,KCXP 181335Z AUTO 00000KT 10SM CLR 14/03 A3017 RMK AO2,M
RTS,2025-07-18 13:35,-119.8764,39.6682,1539.00,53.60,32.00,43.60,320.00,7.00,0.00,30.17,M,10.00,M,CLR,M,M,M,M,M,M,M,M,M,M,M,M,M,M,53.60,KRTS 181335Z AUTO 32007KT 10SM CLR 12/M00 A3017 RMK AO2,M
05U,2025-07-18 13:35,-116.0051,39.6042,1811.23,64.40,41.00,42.30,0.00,0.00,0.00,30.18,M,10.00,M,CLR,M,M,M,M,M,M,M,M,M,M,M,M,M,M,64.40,K05U 181335Z AUTO 00000KT 10SM CLR 18/05 A3018 RMK A01,M
MEV,2025-07-18 13:35,-119.7500,38.9963,1441.42,46.40,37.40,70.67,0.00,0.00,0.00,30.15,M,10.00,M,CLR,M,M,M,M,M,M,M,M,M,M,M,M,M,M,46.40,KMEV 181335Z AUTO 00000KT 10SM CLR 08/03 A3015 RMK AO2,M
HTH,2025-07-18 13:35,-118.6315,38.5448,1282.89,68.00,39.20,34.81,220.00,4.00,0.00,30.10,M,10.00,M,CLR,M,M,M,M,M,M,M,M,M,M,M,M,M,M,68.00,KHTH 181335Z AUTO 22004KT 10SM CLR 20/04 A3010 RMK A01,M
TMT,2025-07-18 13:50,-117.1971,39.4643,1749.34,53.60,34.00,47.24,0.00,0.00,0.00,30.19,M,10.00,M,CLR,M,M,M,M,M,M,M,M,M,M,M,M,M,M,53.60,KTMT 181350Z AUTO 00000KT 10SM CLR 12/01 A3019 RMK AO2 T01200011,M
P68,2025-07-18 13:53,-116.0056,39.6014,1993.00,67.00,41.00,38.65,230.00,3.00,0.00,30.16,1011.90,M,M,M,M,M,M,M,M,M,M,M,M,M,M,M,M,M,67.00,KP68 181353Z AUTO 23003KT 19/05 A3016 RMK AO1 SLP119 T01940050,M
DRA,2025-07-18 13:53,-116.0278,36.6206,1009.00,76.00,59.00,55.67,60.00,4.00,0.00,30.04,1011.70,10.00,M,OVC,M,M,M,11000.00,M,M,M,M,M,M,M,M,M,M,76.00,KDRA 181353Z AUTO 06004KT 10SM OVC110 24/15 A3004 RMK AO2 SLP117 T02440150,M
ELY,2025-07-18 13:53,-114.8453,39.2950,1909.00,61.00,42.00,49.55,130.00,3.00,0.00,30.21,1011.90,10.00,M,BKN,M,M,M,11000.00,M,M,M,M,M,M,M,M,M,M,61.00,KELY 181353Z AUTO 13003KT 10SM BKN110 16/06 A3021 RMK AO2 SLP119 T01610056,M
LOL,2025-07-18 13:53,-118.5701,40.0684,1192.43,60.00,36.00,40.61,90.00,5.00,0.00,30.05,1013.30,10.00,M,CLR,M,M,M,M,M,M,M,M,M,M,M,M,M,M,60.00,KLOL 181353Z AUTO 09005KT 10SM CLR 16/02 A3005 RMK AO2 SLP133 T01560022,M
VGT,2025-07-18 13:53,-115.1933,36.2111,667.00,81.00,59.00,47.24,130.00,5.00,0.00,29.97,1014.00,10.00,M,CLR,M,M,M,M,M,M,M,M,M,M,M,M,M,M,81.41,KVGT 181353Z 13005KT 10SM CLR 27/15 A2997 RMK AO2 SLP140 T02720150,M
RNO,2025-07-18 13:55,-119.7711,39.4839,1341.00,61.00,33.00,34.77,160.00,3.00,0.00,30.14,1015.30,10.00,M,CLR,M,M,M,M,M,M,M,M,M,M,M,M,M,M,61.00,KRNO 181355Z 16003KT 10SM CLR 16/01 A3014 RMK AO2 SLP153 T01610006,M
RTS,2025-07-18 13:55,-119.8764,39.6682,1539.00,59.00,33.80,38.55,340.00,7.00,0.00,30.17,M,10.00,M,CLR,M,M,M,M,M,M,M,M,M,M,M,M,M,M,59.00,KRTS 181355Z AUTO 34007KT 10SM CLR 15/01 A3017 RMK AO2,M
05U,2025-07-18 13:55,-116.0051,39.6042,1811.23,66.20,41.00,39.73,0.00,0.00,0.00,30.19,M,10.00,M,CLR,M,M,M,M,M,M,M,M,M,M,M,M,M,M,66.20,K05U 181355Z AUTO 00000KT 10SM CLR 19/05 A3019 RMK A01,M
MEV,2025-07-18 13:55,-119.7500,38.9963,1441.42,51.80,39.20,61.99,0.00,0.00,0.00,30.16,M,10.00,M,CLR,M,M,M,M,M,M,M,M,M,M,M,M,M,M,51.80,KMEV 181355Z AUTO 00000KT 10SM CLR 11/04 A3016 RMK AO2,M
BAM,2025-07-18 13:55,-116.8743,40.5990,1382.36,66.20,41.00,39.73,0.00,0.00,0.00,30.06,M,10.00,M,CLR,M,M,M,M,M,M,M,M,M,M,M,M,M,M,66.20,KBAM 181355Z AUTO 00000KT 10SM CLR 19/05 A3006 RMK AO1,M
HTH,2025-07-18 13:55,-118.6315,38.5448,1282.89,71.60,37.40,28.69,0.00,0.00,0.00,30.11,M,10.00,M,CLR,M,M,M,M,M,M,M,M,M,M,M,M,M,M,71.60,KHTH 181355Z AUTO 00000KT 10SM CLR 22/03 A3011 RMK A01,M
BVU,2025-07-18 13:55,-114.8611,35.9475,671.00,77.00,60.80,57.42,0.00,0.00,0.00,29.97,M,10.00,M,OVC,M,M,M,12000.00,M,M,M,M,M,M,M,M,M,M,77.00,KBVU 181355Z AUTO 00000KT 10SM OVC120 25/16 A2997 RMK AO2,M
CXP,2025-07-18 13:55,-119.7326,39.1923,1431.00,59.00,37.40,44.47,0.00,0.00,0.00,30.17,M,10.00,M,CLR,M,M,M,M,M,M,M,M,M,M,M,M,M,M,59.00,KCXP 181355Z AUTO 00000KT 10SM CLR 15/03 A3017 RMK AO2,M
INS,2025-07-18 13:55,-115.6733,36.5872,955.00,76.00,58.60,54.88,0.00,0.00,0.00,30.03,1011.90,10.00,M,OVC,M,M,M,13000.00,M,M,M,M,M,M,M,M,M,M,76.00,KINS 181355Z AUTO 00000KT 10SM OVC130 25/15 A3003 RMK AO2 SLP119 T02450148 $,M
LSV,2025-07-18 13:55,-115.0343,36.2362,570.00,81.00,60.00,48.95,0.00,0.00,0.00,29.93,1010.60,10.00,M,FEW,BKN,M,M,12000.00,15000.00,M,M,M,M,M,M,M,M,M,81.61,KLSV 181355Z 00000KT 10SM FEW120 BKN150 27/16 A2993 RMK AO2A SLP106 T02730156 CHINO RWY03R $,M
HND,2025-07-18 13:56,-115.1344,35.9729,742.79,78.00,60.00,54.00,210.00,6.00,0.00,30.01,1015.10,10.00,M,OVC,M,M,M,12000.00,M,M,M,M,M,M,M,M,M,M,78.00,KHND 181356Z 21006KT 10SM OVC120 26/16 A3001 RMK AO2 SLP151 T02560156 $,M
TPH,2025-07-18 13:56,-117.0904,38.0505,1654.00,64.00,41.00,42.89,0.00,0.00,0.00,30.17,1013.30,10.00,M,CLR,M,M,M,M,M,M,M,M,M,M,M,M,M,M,64.00,KTPH 181356Z AUTO 00000KT 10SM CLR 18/05 A3017 RMK AO2 SLP133 T01780050,M
LAS,2025-07-18 13:56,-115.1634,36.0719,663.00,82.00,58.00,44.12,0.00,0.00,0.00,29.99,1012.80,10.00,M,SCT,BKN,BKN,M,11000.00,15000.00,18000.00,M,M,M,M,M,M,M,M,81.95,KLAS 181356Z 00000KT 10SM SCT110 BKN150 BKN180 28/14 A2999 RMK AO2 SLP128 T02780144,M
EKO,2025-07-18 13:56,-115.7860,40.8242,1367.00,58.00,40.00,51.03,0.00,0.00,0.00,30.09,1013.70,10.00,M,CLR,M,M,M,M,M,M,M,M,M,M,M,M,M,M,58.00,KEKO 181356Z AUTO 00000KT 10SM CLR 14/04 A3009 RMK AO2 SLP137 T01440044,M
NFL,2025-07-18 13:57,-118.7010,39.4166,1199.00,68.00,35.00,29.50,M,5.00,0.00,30.07,1015.10,9.00,M,FEW,M,M,M,12000.00,M,M,M,M,M,M,M,M,M,M,68.00,KNFL 181357Z VRB05KT 9SM FEW120 20/02 A3007 RMK AO2 SLP151 T02000017,M
TMT,2025-07-18 14:10,-117.1971,39.4643,1749.34,57.00,35.40,44.15,0.00,0.00,0.00,30.19,M,10.00,M,CLR,M,M,M,M,M,M,M,M,M,M,M,M,M,M,57.00,KTMT 181410Z AUTO 00000KT 10SM CLR 14/02 A3019 RMK AO2 T01390019,M
BAM,2025-07-18 14:15,-116.8743,40.5990,1382.36,69.80,37.40,30.50,0.00,0.00,0.00,30.07,M,10.00,M,CLR,M,M,M,M,M,M,M,M,M,M,M,M,M,M,69.80,KBAM 181415Z AUTO 00000KT 10SM CLR 21/03 A3007 RMK AO1,M
CXP,2025-07-18 14:15,-119.7326,39.1923,1431.00,59.00,39.20,47.72,0.00,0.00,0.00,30.18,M,10.00,M,CLR,M,M,M,M,M,M,M,M,M,M,M,M,M,M,59.00,KCXP 181415Z AUTO 00000KT 10SM CLR 15/04 A3018 RMK AO2,M
RTS,2025-07-18 14:15,-119.8764,39.6682,1539.00,60.80,33.80,36.16,320.00,4.00,0.00,30.18,M,10.00,10.00,CLR,M,M,M,M,M,M,M,M,M,M,M,M,M,M,60.80,KRTS 181415Z AUTO 32004G10KT 10SM CLR 16/01 A3018 RMK AO2,M
05U,2025-07-18 14:15,-116.0051,39.6042,1811.23,68.00,42.80,40.02,0.00,0.00,0.00,30.19,M,10.00,M,CLR,M,M,M,M,M,M,M,M,M,M,M,M,M,M,68.00,K05U 181415Z AUTO 00000KT 10SM CLR 20/06 A3019 RMK A01,M
MEV,2025-07-18 14:15,-119.7500,38.9963,1441.42,55.40,39.20,54.33,0.00,0.00,0.00,30.16,M,10.00,M,CLR,M,M,M,M,M,M,M,M,M,M,M,M,M,M,55.40,KMEV 181415Z AUTO 00000KT 10SM CLR 13/04 A3016 RMK AO2,M
HTH,2025-07-18 14:15,-118.6315,38.5448,1282.89,71.60,39.20,30.79,0.00,0.00,0.00,30.11,M,10.00,M,CLR,M,M,M,M,M,M,M,M,M,M,M,M,M,M,71.60,KHTH 181415Z AUTO 00000KT 10SM CLR 22/04 A3011 RMK A01,M
TMT,2025-07-18 14:30,-117.1971,39.4643,1749.34,60.30,37.20,42.13,0.00,0.00,0.00,30.19,M,10.00,M,CLR,M,M,M,M,M,M,M,M,M,M,M,M,M,M,60.30,KTMT 181430Z AUTO 00000KT 10SM CLR 16/03 A3019 RMK AO2 T01570029,M
BAM,2025-07-18 14:35,-116.8743,40.5990,1382.36,73.40,37.40,27.00,0.00,0.00,0.00,30.07,M,10.00,M,CLR,M,M,M,M,M,M,M,M,M,M,M,M,M,M,73.40,KBAM 181435Z AUTO 00000KT 10SM CLR 23/03 A3007 RMK AO1,M
CXP,2025-07-18 14:35,-119.7326,39.1923,1431.00,60.80,37.40,41.71,0.00,0.00,0.00,30.18,M,10.00,M,CLR,M,M,M,M,M,M,M,M,M,M,M,M,M,M,60.80,KCXP 181435Z AUTO 00000KT 10SM CLR 16/03 A3018 RMK AO2,M
RTS,2025-07-18 14:35,-119.8764,39.6682,1539.00,64.40,33.80,31.86,320.00,5.00,0.00,30.18,M,10.00,M,CLR,M,M,M,M,M,M,M,M,M,M,M,M,M,M,64.40,KRTS 181435Z AUTO 32005KT 10SM CLR 18/01 A3018 RMK AO2,M
05U,2025-07-18 14:35,-116.0051,39.6042,1811.23,71.60,42.80,35.40,0.00,0.00,0.00,30.20,M,10.00,M,CLR,M,M,M,M,M,M,M,M,M,M,M,M,M,M,71.60,K05U 181435Z AUTO 00000KT 10SM CLR 22/06 A3020 RMK A01,M
MEV,2025-07-18 14:35,-119.7500,38.9963,1441.42,59.00,39.20,47.72,0.00,0.00,0.00,30.16,M,10.00,M,CLR,M,M,M,M,M,M,M,M,M,M,M,M,M,M,59.00,KMEV 181435Z AUTO 00000KT 10SM CLR 15/04 A3016 RMK AO2,M
HTH,2025-07-18 14:35,-118.6315,38.5448,1282.89,73.40,42.80,33.31,290.00,4.00,0.00,30.12,M,10.00,M,M,M,M,M,M,M,M,M,M,M,M,M,M,M,M,73.40,KHTH 181435Z AUTO 29004KT 10SM 23/06 A3012 RMK A01,M
TMT,2025-07-18 14:50,-117.1971,39.4643,1749.34,63.70,39.40,40.73,0.00,0.00,0.00,30.19,M,10.00,M,CLR,M,M,M,M,M,M,M,M,M,M,M,M,M,M,63.70,KTMT 181450Z AUTO 00000KT 10SM CLR 18/04 A3019 RMK AO2 T01760041,M
P68,2025-07-18 14:53,-116.0056,39.6014,1993.00,72.00,43.00,35.19,0.00,0.00,0.00,30.17,1012.30,M,M,M,M,M,M,M,M,M,M,M,M,M,M,M,M,M,72.00,KP68 181453Z AUTO 00000KT 22/06 A3017 RMK AO1 SLP123 T02220061 51013,M
DRA,2025-07-18 14:53,-116.0278,36.6206,1009.00,79.00,57.00,46.93,290.00,3.00,0.00,30.06,1013.20,10.00,M,BKN,M,M,M,11000.00,M,M,M,M,M,M,M,M,M,M,79.00,KDRA 181453Z AUTO 29003KT 10SM BKN110 26/14 A3006 RMK AO2 SLP132 60000 T02610139 51020,M
ELY,2025-07-18 14:53,-114.8453,39.2950,1909.00,65.00,43.00,44.74,140.00,4.00,0.00,30.23,1012.40,10.00,M,FEW,SCT,OVC,M,6500.00,8500.00,11000.00,M,M,M,M,M,M,M,M,65.00,KELY 181453Z AUTO 14004KT 10SM FEW065 SCT085 OVC110 18/06 A3023 RMK AO2 SLP124 T01830061 51010,M
VGT,2025-07-18 14:53,-115.1933,36.2111,667.00,83.00,58.00,42.72,130.00,4.00,0.00,29.99,1014.80,10.00,M,CLR,M,M,M,M,M,M,M,M,M,M,M,M,M,M,82.71,KVGT 181453Z 13004KT 10SM CLR 28/14 A2999 RMK AO2 SLP148 T02830144 51018,M
LOL,2025-07-18 14:53,-118.5701,40.0684,1192.43,72.00,41.00,32.58,150.00,3.00,0.00,30.07,1013.30,10.00,M,CLR,M,M,M,M,M,M,M,M,M,M,M,M,M,M,72.00,KLOL 181453Z AUTO 15003KT 10SM CLR 22/05 A3007 RMK AO2 SLP133 T02220050 51014,M
BVU,2025-07-18 14:55,-114.8611,35.9475,671.00,80.60,57.20,44.86,280.00,3.00,0.00,29.98,M,10.00,M,FEW,M,M,M,12000.00,M,M,M,M,M,M,M,M,M,M,80.81,KBVU 181455Z AUTO 28003KT 10SM FEW120 27/14 A2998 RMK AO2,M
RNO,2025-07-18 14:55,-119.7711,39.4839,1341.00,65.00,35.00,32.73,150.00,3.00,0.00,30.15,1015.60,10.00,M,CLR,M,M,M,M,M,M,M,M,M,M,M,M,M,M,65.00,KRNO 181455Z 15003KT 10SM CLR 18/02 A3015 RMK AO2 SLP156 T01830017 51012,M
BAM,2025-07-18 14:55,-116.8743,40.5990,1382.36,78.80,35.60,21.02,240.00,7.00,0.00,30.08,M,10.00,M,CLR,M,M,M,M,M,M,M,M,M,M,M,M,M,M,78.80,KBAM 181455Z AUTO 24007KT 10SM CLR 26/02 A3008 RMK AO1,M
CXP,2025-07-18 14:55,-119.7326,39.1923,1431.00,62.60,37.40,39.14,0.00,0.00,0.00,30.18,M,10.00,M,CLR,M,M,M,M,M,M,M,M,M,M,M,M,M,M,62.60,KCXP 181455Z AUTO 00000KT 10SM CLR 17/03 A3018 RMK AO2,M
LSV,2025-07-18 14:55,-115.0343,36.2362,570.00,84.00,59.00,42.87,0.00,0.00,0.00,29.94,1010.90,10.00,M,BKN,M,M,M,12000.00,M,M,M,M,M,M,M,M,M,M,83.76,KLSV 181455Z AUTO 00000KT 10SM BKN120 29/15 A2994 RMK AO2 SLP109 T02890150 52018 CHINO RWY03R $,M
RTS,2025-07-18 14:55,-119.8764,39.6682,1539.00,66.20,33.80,29.92,0.00,0.00,0.00,30.18,M,10.00,M,CLR,M,M,M,M,M,M,M,M,M,M,M,M,M,M,66.20,KRTS 181455Z AUTO 00000KT 10SM CLR 19/01 A3018 RMK AO2,M
05U,2025-07-18 14:55,-116.0051,39.6042,1811.23,71.60,42.80,35.40,0.00,0.00,0.00,30.20,M,10.00,M,CLR,M,M,M,M,M,M,M,M,M,M,M,M,M,M,71.60,K05U 181455Z AUTO 00000KT 10SM CLR 22/06 A3020 RMK A01,M
MEV,2025-07-18 14:55,-119.7500,38.9963,1441.42,60.80,37.40,41.71,0.00,0.00,0.00,30.16,M,10.00,M,CLR,M,M,M,M,M,M,M,M,M,M,M,M,M,M,60.80,KMEV 181455Z AUTO 00000KT 10SM CLR 16/03 A3016 RMK AO2,M
HTH,2025-07-18 14:55,-118.6315,38.5448,1282.89,73.40,37.40,27.00,320.00,5.00,0.00,30.12,M,10.00,M,CLR,M,M,M,M,M,M,M,M,M,M,M,M,M,M,73.40,KHTH 181455Z AUTO 32005KT 10SM CLR 23/03 A3012 RMK A01,M
INS,2025-07-18 14:55,-115.6733,36.5872,955.00,77.50,57.00,49.30,0.00,0.00,0.00,30.05,1012.90,10.00,M,OVC,M,M,M,12000.00,M,M,M,M,M,M,M,M,M,M,77.50,KINS 181455Z AUTO 00000KT 10SM OVC120 25/14 A3005 RMK AO2 SLP129 T02530138 52017 $,M
EKO,2025-07-18 14:56,-115.7860,40.8242,1367.00,65.00,41.00,41.42,0.00,0.00,0.00,30.10,1013.50,10.00,M,CLR,M,M,M,M,M,M,M,M,M,M,M,M,M,M,65.00,KEKO 181456Z AUTO 00000KT 10SM CLR 18/05 A3010 RMK AO2 SLP135 T01830050 51012,M
HND,2025-07-18 14:56,-115.1344,35.9729,742.79,82.00,57.00,42.56,210.00,6.00,0.00,30.03,1015.80,10.00,M,BKN,M,M,M,12000.00,M,M,M,M,M,M,M,M,M,M,81.76,KHND 181456Z 21006KT 10SM BKN120 28/14 A3003 RMK AO2 SLP158 T02780139 51016 $,M
TPH,2025-07-18 14:56,-117.0904,38.0505,1654.00,69.00,46.00,43.69,140.00,4.00,0.00,30.19,1013.90,10.00,M,CLR,M,M,M,M,M,M,M,M,M,M,M,M,M,M,69.00,KTPH 181456Z AUTO 14004KT 10SM CLR 21/08 A3019 RMK AO2 SLP139 T02060078 53014,M
LAS,2025-07-18 14:56,-115.1634,36.0719,663.00,83.00,58.00,42.72,M,4.00,0.00,30.00,1013.40,10.00,M,SCT,BKN,BKN,M,11000.00,15000.00,18000.00,M,M,M,M,M,M,M,M,82.71,KLAS 181456Z VRB04KT 10SM SCT110 BKN150 BKN180 28/14 A3000 RMK AO2 SLP134 T02830144 51019,M
NFL,2025-07-18 14:57,-118.7010,39.4166,1199.00,74.00,37.00,26.05,200.00,5.00,0.00,30.09,1015.50,9.00,M,CLR,M,M,M,M,M,M,M,M,M,M,M,M,M,M,74.00,KNFL 181457Z 20005KT 9SM CLR 23/03 A3009 RMK AO2 SLP155 T02330028 51013,M
RTS,2025-07-18 15:05,-119.8764,39.6682,1539.00,68.00,33.80,28.12,0.00,0.00,0.00,30.18,M,10.00,M,CLR,M,M,M,M,M,M,M,M,M,M,M,M,M,M,68.00,KRTS 181505Z AUTO 00000KT 10SM CLR 20/01 A3018 RMK AO2,M
CXP,2025-07-18 15:10,-119.7326,39.1923,1431.00,66.20,37.40,34.52,0.00,0.00,0.00,30.18,M,10.00,M,CLR,M,M,M,M,M,M,M,M,M,M,M,M,M,M,66.20,KCXP 181510Z AUTO 00000KT 10SM CLR 19/03 A3018 RMK AO2,M
05U,2025-07-18 15:10,-116.0051,39.6042,1811.23,73.40,42.80,33.31,0.00,0.00,0.00,30.20,M,10.00,M,CLR,M,M,M,M,M,M,M,M,M,M,M,M,M,M,73.40,K05U 181510Z AUTO 00000KT 10SM CLR 23/06 A3020 RMK A01,M
TMT,2025-07-18 15:10,-117.1971,39.4643,1749.34,67.60,41.70,38.89,0.00,0.00,0.00,30.20,M,10.00,M,CLR,M,M,M,M,M,M,M,M,M,M,M,M,M,M,67.60,KTMT 181510Z AUTO 00000KT 10SM CLR 20/05 A3020 RMK AO2 T01980054,M
BAM,2025-07-18 15:15,-116.8743,40.5990,1382.36,78.80,44.60,29.83,320.00,3.00,0.00,30.08,M,10.00,M,CLR,M,M,M,M,M,M,M,M,M,M,M,M,M,M,78.80,KBAM 181515Z AUTO 32003KT 10SM CLR 26/07 A3008 RMK AO1,M
MEV,2025-07-18 15:15,-119.7500,38.9963,1441.42,64.40,35.60,34.23,0.00,0.00,0.00,30.16,M,10.00,M,CLR,M,M,M,M,M,M,M,M,M,M,M,M,M,M,64.40,KMEV 181515Z AUTO 00000KT 10SM CLR 18/02 A3016 RMK AO2,M
HTH,2025-07-18 15:15,-118.6315,38.5448,1282.89,73.40,39.20,28.98,340.00,5.00,0.00,30.13,M,M,M,CLR,M,M,M,M,M,M,M,M,M,M,M,M,M,M,73.40,KHTH 181515Z AUTO 34005KT CLR 23/04 A3013 RMK A01,M
BVU,2025-07-18 15:15,-114.8611,35.9475,671.00,82.40,55.40,39.65,0.00,0.00,0.00,29.99,M,10.00,M,FEW,M,M,M,12000.00,M,M,M,M,M,M,M,M,M,M,81.75,KBVU 181515Z AUTO 00000KT 10SM FEW120 28/13 A2999 RMK AO2,M
TMT,2025-07-18 15:30,-117.1971,39.4643,1749.34,73.20,39.70,29.75,210.00,5.00,0.00,30.20,M,10.00,M,CLR,M,M,M,M,M,M,M,M,M,M,M,M,M,M,73.20,KTMT 181530Z AUTO 21005KT 10SM CLR 23/04 A3020 RMK AO2 T02290043,M
BAM,2025-07-18 15:35,-116.8743,40.5990,1382.36,80.60,37.40,21.28,250.00,7.00,0.00,30.08,M,10.00,M,CLR,M,M,M,M,M,M,M,M,M,M,M,M,M,M,79.02,KBAM 181535Z AUTO 25007KT 10SM CLR 27/03 A3008 RMK AO1,M
CXP,2025-07-18 15:35,-119.7326,39.1923,1431.00,68.00,37.40,32.44,0.00,0.00,0.00,30.18,M,10.00,M,CLR,M,M,M,M,M,M,M,M,M,M,M,M,M,M,68.00,KCXP 181535Z AUTO 00000KT 10SM CLR 20/03 A3018 RMK AO2,M
05U,2025-07-18 15:35,-116.0051,39.6042,1811.23,77.00,42.80,29.55,0.00,0.00,0.00,30.21,M,10.00,M,CLR,M,M,M,M,M,M,M,M,M,M,M,M,M,M,77.00,K05U 181535Z AUTO 00000KT 10SM CLR 25/06 A3021 RMK A01,M
MEV,2025-07-18 15:35,-119.7500,38.9963,1441.42,66.20,37.40,34.52,220.00,4.00,0.00,30.17,M,10.00,M,CLR,M,M,M,M,M,M,M,M,M,M,M,M,M,M,66.20,KMEV 181535Z AUTO 22004KT 10SM CLR 19/03 A3017 RMK AO2,M
HTH,2025-07-18 15:35,-118.6315,38.5448,1282.89,75.20,35.60,23.68,320.00,5.00,0.00,30.13,M,10.00,M,CLR,M,M,M,M,M,M,M,M,M,M,M,M,M,M,75.20,KHTH 181535Z AUTO 32005KT 10SM CLR 24/02 A3013 RMK A01,M
TMT,2025-07-18 15:50,-117.1971,39.4643,1749.34,75.00,37.40,25.60,220.00,5.00,0.00,30.19,M,10.00,M,CLR,M,M,M,M,M,M,M,M,M,M,M,M,M,M,75.00,KTMT 181550Z AUTO 22005KT 10SM CLR 24/03 A3019 RMK AO2 T02380030,M
P68,2025-07-18 15:53,-116.0056,39.6014,1993.00,75.00,42.00,30.62,150.00,4.00,0.00,30.18,1012.90,M,M,M,M,M,M,M,M,M,M,M,M,M,M,M,M,M,75.00,KP68 181553Z AUTO 15004KT 24/06 A3018 RMK AO1 SLP129 T02390056,M
DRA,2025-07-18 15:53,-116.0278,36.6206,1009.00,82.00,54.00,38.17,0.00,0.00,0.00,30.07,1013.00,10.00,M,FEW,M,M,M,12000.00,M,M,M,M,M,M,M,M,M,M,81.25,KDRA 181553Z AUTO 00000KT 10SM FEW120 28/12 A3007 RMK AO2 SLP130 T02780122,M
ELY,2025-07-18 15:53,-114.8453,39.2950,1909.00,68.00,43.00,40.33,0.00,0.00,T,30.23,1012.60,10.00,M,FEW,OVC,M,M,4600.00,10000.00,M,M,M,M,M,M,M,M,M,68.00,KELY 181553Z AUTO 00000KT 10SM FEW046 OVC100 20/06 A3023 RMK AO2 RAB31E40 SLP126 P0000 T02000061,M
VGT,2025-07-18 15:53,-115.1933,36.2111,667.00,86.00,57.00,37.43,110.00,3.00,0.00,29.99,1014.70,10.00,M,CLR,M,M,M,M,M,M,M,M,M,M,M,M,M,M,84.93,KVGT 181553Z 11003KT 10SM CLR 30/14 A2999 RMK AO2 SLP147 T03000139,M
LOL,2025-07-18 15:53,-118.5701,40.0684,1192.43,78.00,38.00,23.73,160.00,4.00,0.00,30.07,1013.60,10.00,M,CLR,M,M,M,M,M,M,M,M,M,M,M,M,M,M,78.00,KLOL 181553Z AUTO 16004KT 10SM CLR 26/03 A3007 RMK AO2 SLP136 T02560033,M
RNO,2025-07-18 15:55,-119.7711,39.4839,1341.00,70.00,31.00,23.46,200.00,3.00,0.00,30.15,1015.40,10.00,M,CLR,M,M,M,M,M,M,M,M,M,M,M,M,M,M,70.00,KRNO 181555Z 20003KT 10SM CLR 21/M01 A3015 RMK AO2 SLP154 T02111006,M
BAM,2025-07-18 15:55,-116.8743,40.5990,1382.36,82.40,33.80,17.40,240.00,9.00,0.00,30.08,M,10.00,M,CLR,M,M,M,M,M,M,M,M,M,M,M,M,M,M,80.04,KBAM 181555Z AUTO 24009KT 10SM CLR 28/01 A3008 RMK AO1,M
CXP,2025-07-18 15:55,-119.7326,39.1923,1431.00,69.80,37.40,30.50,0.00,0.00,0.00,30.18,M,10.00,M,CLR,M,M,M,M,M,M,M,M,M,M,M,M,M,M,69.80,KCXP 181555Z AUTO 00000KT 10SM CLR 21/03 A3018 RMK AO2,M
RTS,2025-07-18 15:55,-119.8764,39.6682,1539.00,73.40,28.40,18.81,270.00,7.00,0.00,30.18,M,10.00,M,CLR,M,M,M,M,M,M,M,M,M,M,M,M,M,M,73.40,KRTS 181555Z AUTO 27007KT 240V310 10SM CLR 23/M02 A3018 RMK AO2,M
05U,2025-07-18 15:55,-116.0051,39.6042,1811.23,77.00,41.00,27.57,0.00,0.00,0.00,30.21,M,10.00,M,CLR,M,M,M,M,M,M,M,M,M,M,M,M,M,M,77.00,K05U 181555Z AUTO 00000KT 10SM CLR 25/05 A3021 RMK A01,M
MEV,2025-07-18 15:55,-119.7500,38.9963,1441.42,68.00,35.60,30.21,190.00,4.00,0.00,30.17,M,10.00,M,CLR,M,M,M,M,M,M,M,M,M,M,M,M,M,M,68.00,KMEV 181555Z AUTO 19004KT 10SM CLR 20/02 A3017 RMK AO2,M
HTH,2025-07-18 15:55,-118.6315,38.5448,1282.89,77.00,33.80,20.76,310.00,4.00,0.00,30.13,M,10.00,M,CLR,M,M,M,M,M,M,M,M,M,M,M,M,M,M,77.00,KHTH 181555Z AUTO 31004KT 10SM CLR 25/01 A3013 RMK A01,M
INS,2025-07-18 15:55,-115.6733,36.5872,955.00,81.00,55.80,42.10,0.00,0.00,0.00,30.05,1012.60,10.00,M,OVC,M,M,M,12000.00,M,M,M,M,M,M,M,M,M,M,80.86,KINS 181555Z AUTO 00000KT 10SM OVC120 27/13 A3005 RMK AO2 SLP126 T02730132 $,M
LSV,2025-07-18 15:55,-115.0343,36.2362,570.00,86.40,56.00,35.65,0.00,0.00,0.00,29.95,1011.50,10.00,M,SCT,M,M,M,18000.00,M,M,M,M,M,M,M,M,M,M,85.04,KLSV 181555Z 00000KT 10SM SCT180 30/13 A2995 RMK AO2A SLP115 T03020134 CHINO RWY03R $,M
EKO,2025-07-18 15:56,-115.7860,40.8242,1367.00,69.00,45.00,42.06,220.00,4.00,0.00,30.11,1013.30,10.00,M,CLR,M,M,M,M,M,M,M,M,M,M,M,M,M,M,69.00,KEKO 181556Z AUTO 22004KT 10SM CLR 21/07 A3011 RMK AO2 SLP133 T02060072,M
HND,2025-07-18 15:56,-115.1344,35.9729,742.79,84.00,58.00,41.36,200.00,5.00,0.00,30.04,1016.00,10.00,M,BKN,M,M,M,12000.00,M,M,M,M,M,M,M,M,M,M,83.51,KHND 181556Z 20005KT 10SM BKN120 29/14 A3004 RMK AO2 SLP160 T02890144 $,M
TPH,2025-07-18 15:56,-117.0904,38.0505,1654.00,74.00,47.00,38.31,180.00,7.00,0.00,30.19,1013.80,10.00,M,CLR,M,M,M,M,M,M,M,M,M,M,M,M,M,M,74.00,KTPH 181556Z AUTO 18007KT 10SM CLR 23/08 A3019 RMK AO2 SLP138 T02330083,M
LAS,2025-07-18 15:56,-115.1634,36.0719,663.00,87.00,56.00,34.97,180.00,7.00,0.00,30.01,1013.60,10.00,M,BKN,M,M,M,12000.00,M,M,M,M,M,M,M,M,M,M,85.56,KLAS 181556Z 18007KT 10SM BKN120 31/13 A3001 RMK AO2 SLP136 T03060133,M
NFL,2025-07-18 15:57,-118.7010,39.4166,1199.00,78.00,39.00,24.67,270.00,6.00,0.00,30.09,1015.60,8.00,M,CLR,M,M,M,M,M,M,M,M,M,M,M,M,M,M,78.00,KNFL 181557Z 27006KT 8SM CLR 26/04 A3009 RMK AO2 SLP156 T02560039,M
RTS,2025-07-18 16:05,-119.8764,39.6682,1539.00,73.40,28.40,18.81,M,5.00,0.00,30.18,M,10.00,11.00,CLR,M,M,M,M,M,M,M,M,M,M,M,M,M,M,73.40,KRTS 181605Z AUTO VRB05G11KT 10SM CLR 23/M02 A3018 RMK AO2,M
TMT,2025-07-18 16:10,-117.1971,39.4643,1749.34,77.00,37.40,23.95,230.00,5.00,0.00,30.19,M,10.00,M,CLR,M,M,M,M,M,M,M,M,M,M,M,M,M,M,77.00,KTMT 181610Z AUTO 23005KT 10SM CLR 25/03 A3019 RMK AO2 T02500030,M
BVU,2025-07-18 16:15,-114.8611,35.9475,671.00,84.20,55.40,37.42,0.00,0.00,0.00,29.99,M,10.00,M,CLR,M,M,M,M,M,M,M,M,M,M,M,M,M,M,83.10,KBVU 181615Z AUTO 00000KT 10SM CLR 29/13 A2999 RMK AO2,M
BAM,2025-07-18 16:15,-116.8743,40.5990,1382.36,84.20,33.80,16.42,270.00,7.00,0.00,30.08,M,10.00,M,CLR,M,M,M,M,M,M,M,M,M,M,M,M,M,M,81.30,KBAM 181615Z AUTO 27007KT 10SM CLR 29/01 A3008 RMK AO1,M
CXP,2025-07-18 16:15,-119.7326,39.1923,1431.00,73.40,33.80,23.41,250.00,4.00,0.00,30.17,M,10.00,M,CLR,M,M,M,M,M,M,M,M,M,M,M,M,M,M,73.40,KCXP 181615Z AUTO 25004KT 10SM CLR 23/01 A3017 RMK AO2,M
05U,2025-07-18 16:15,-116.0051,39.6042,1811.23,78.80,42.80,27.85,0.00,0.00,0.00,30.21,M,10.00,13.00,CLR,M,M,M,M,M,M,M,M,M,M,M,M,M,M,78.80,K05U 181615Z AUTO 00000G13KT 10SM CLR 26/06 A3021 RMK A01,M
MEV,2025-07-18 16:15,-119.7500,38.9963,1441.42,69.80,37.40,30.50,0.00,0.00,0.00,30.16,M,10.00,M,CLR,M,M,M,M,M,M,M,M,M,M,M,M,M,M,69.80,KMEV 181615Z AUTO 00000KT 10SM CLR 21/03 A3016 RMK AO2,M
HTH,2025-07-18 16:15,-118.6315,38.5448,1282.89,77.00,32.00,19.31,M,4.00,0.00,30.13,M,10.00,M,CLR,M,M,M,M,M,M,M,M,M,M,M,M,M,M,77.00,KHTH 181615Z AUTO VRB04KT 10SM CLR 25/00 A3013 RMK A01,M
TMT,2025-07-18 16:30,-117.1971,39.4643,1749.34,78.00,37.40,23.17,200.00,3.00,0.00,30.19,M,10.00,M,CLR,M,M,M,M,M,M,M,M,M,M,M,M,M,M,78.00,KTMT 181630Z AUTO 20003KT 10SM CLR 26/03 A3019 RMK AO2 T02560030,M
BVU,2025-07-18 16:35,-114.8611,35.9475,671.00,87.80,53.60,31.25,0.00,0.00,0.00,29.99,M,10.00,M,CLR,M,M,M,M,M,M,M,M,M,M,M,M,M,M,85.73,KBVU 181635Z AUTO 00000KT 10SM CLR 31/12 A2999 RMK AO2,M
BAM,2025-07-18 16:35,-116.8743,40.5990,1382.36,84.20,33.80,16.42,250.00,3.00,0.00,30.08,M,10.00,M,CLR,M,M,M,M,M,M,M,M,M,M,M,M,M,M,81.30,KBAM 181635Z AUTO 25003KT 10SM CLR 29/01 A3008 RMK AO1,M
CXP,2025-07-18 16:35,-119.7326,39.1923,1431.00,75.20,35.60,23.68,230.00,4.00,0.00,30.17,M,10.00,M,CLR,M,M,M,M,M,M,M,M,M,M,M,M,M,M,75.20,KCXP 181635Z AUTO 23004KT 10SM CLR 24/02 A3017 RMK AO2,M
RTS,2025-07-18 16:35,-119.8764,39.6682,1539.00,77.00,28.40,16.68,280.00,6.00,0.00,30.18,M,10.00,M,CLR,M,M,M,M,M,M,M,M,M,M,M,M,M,M,77.00,KRTS 181635Z AUTO 28006KT 10SM CLR 25/M02 A3018 RMK AO2,M
05U,2025-07-18 16:35,-116.0051,39.6042,1811.23,78.80,41.00,25.98,0.00,0.00,0.00,30.21,M,10.00,M,CLR,M,M,M,M,M,M,M,M,M,M,M,M,M,M,78.80,K05U 181635Z AUTO 00000KT 10SM CLR 26/05 A3021 RMK A01,M
MEV,2025-07-18 16:35,-119.7500,38.9963,1441.42,71.60,37.40,28.69,0.00,0.00,0.00,30.15,M,10.00,M,CLR,M,M,M,M,M,M,M,M,M,M,M,M,M,M,71.60,KMEV 181635Z AUTO 00000KT 10SM CLR 22/03 A3015 RMK AO2,M
HTH,2025-07-18 16:35,-118.6315,38.5448,1282.89,78.80,32.00,18.20,0.00,0.00,0.00,30.13,M,10.00,M,CLR,M,M,M,M,M,M,M,M,M,M,M,M,M,M,78.80,KHTH 181635Z AUTO 00000KT 10SM CLR 26/M00 A3013 RMK A01,M
TMT,2025-07-18 16:50,-117.1971,39.4643,1749.34,79.00,36.00,21.22,260.00,5.00,0.00,30.19,M,10.00,M,CLR,M,M,M,M,M,M,M,M,M,M,M,M,M,M,79.00,KTMT 181650Z AUTO 26005KT 10SM CLR 26/02 A3019 RMK AO2 T02610023,M
P68,2025-07-18 16:53,-116.0056,39.6014,1993.00,78.00,41.00,26.67,0.00,0.00,0.00,30.18,1012.70,M,M,M,M,M,M,M,M,M,M,M,M,M,M,M,M,M,78.00,KP68 181653Z AUTO 00000KT 26/05 A3018 RMK AO1 SLP127 T02560050,M
DRA,2025-07-18 16:53,-116.0278,36.6206,1009.00,84.00,54.00,35.79,M,3.00,0.00,30.07,1013.00,10.00,M,CLR,M,M,M,M,M,M,M,M,M,M,M,M,M,M,82.68,KDRA 181653Z AUTO VRB03KT 10SM CLR 29/12 A3007 RMK AO2 SLP130 T02890122,M
ELY,2025-07-18 16:53,-114.8453,39.2950,1909.00,71.00,45.00,39.29,100.00,3.00,T,30.24,1013.20,10.00,M,OVC,M,M,M,11000.00,M,M,M,M,M,M,M,M,M,M,71.00,KELY 181653Z AUTO 10003KT 10SM OVC110 22/07 A3024 RMK AO2 RAB00E17 SLP132 P0000 T02170072,M
VGT,2025-07-18 16:53,-115.1933,36.2111,667.00,88.00,55.00,32.68,100.00,5.00,0.00,30.00,1014.90,10.00,M,SCT,M,M,M,12000.00,M,M,M,M,M,M,M,M,M,M,86.22,KVGT 181653Z 10005KT 10SM SCT120 31/13 A3000 RMK AO2 SLP149 T03110128,M
LOL,2025-07-18 16:53,-118.5701,40.0684,1192.43,82.00,38.00,20.82,M,5.00,0.00,30.07,1013.40,10.00,M,CLR,M,M,M,M,M,M,M,M,M,M,M,M,M,M,79.90,KLOL 181653Z AUTO VRB05KT 10SM CLR 28/03 A3007 RMK AO2 SLP134 T02780033,M
RNO,2025-07-18 16:55,-119.7711,39.4839,1341.00,74.00,31.00,20.50,0.00,0.00,0.00,30.14,1014.90,10.00,M,CLR,M,M,M,M,M,M,M,M,M,M,M,M,M,M,74.00,KRNO 181655Z 00000KT 10SM CLR 23/M01 A3014 RMK AO2 SLP149 T02331006,M
BAM,2025-07-18 16:55,-116.8743,40.5990,1382.36,86.00,33.80,15.50,220.00,3.00,0.00,30.08,M,10.00,M,CLR,M,M,M,M,M,M,M,M,M,M,M,M,M,M,82.66,KBAM 181655Z AUTO 22003KT 10SM CLR 30/01 A3008 RMK AO1,M
BVU,2025-07-18 16:55,-114.8611,35.9475,671.00,87.80,53.60,31.25,0.00,0.00,0.00,29.99,M,10.00,M,CLR,M,M,M,M,M,M,M,M,M,M,M,M,M,M,85.73,KBVU 181655Z AUTO 00000KT 10SM CLR 31/12 A2999 RMK AO2 LTG DSNT SW,M
CXP,2025-07-18 16:55,-119.7326,39.1923,1431.00,77.00,35.60,22.31,0.00,0.00,0.00,30.17,M,10.00,M,CLR,M,M,M,M,M,M,M,M,M,M,M,M,M,M,77.00,KCXP 181655Z AUTO 00000KT 10SM CLR 25/02 A3017 RMK AO2,M
LSV,2025-07-18 16:55,-115.0343,36.2362,570.00,89.80,54.00,29.77,170.00,3.00,0.00,29.95,1011.30,10.00,M,BKN,M,M,M,15000.00,M,M,M,M,M,M,M,M,M,M,87.65,KLSV 181655Z 17003KT 10SM BKN150 32/12 A2995 RMK AO2A SLP113 T03210123 CHINO RWY03R $,M
RTS,2025-07-18 16:55,-119.8764,39.6682,1539.00,77.00,28.40,16.68,M,5.00,0.00,30.18,M,6.00,11.00,CLR,M,M,M,M,M,M,M,HZ,M,M,M,M,M,M,77.00,KRTS 181655Z AUTO VRB05G11KT 6SM HZ CLR 25/M02 A3018 RMK AO2,M
05U,2025-07-18 16:55,-116.0051,39.6042,1811.23,78.80,41.00,25.98,0.00,0.00,0.00,30.21,M,10.00,M,CLR,M,M,M,M,M,M,M,M,M,M,M,M,M,M,78.80,K05U 181655Z AUTO 00000KT 10SM CLR 26/05 A3021 RMK A01,M
MEV,2025-07-18 16:55,-119.7500,38.9963,1441.42,73.40,37.40,27.00,0.00,0.00,0.00,30.15,M,10.00,M,CLR,M,M,M,M,M,M,M,M,M,M,M,M,M,M,73.40,KMEV 181655Z AUTO 00000KT 10SM CLR 23/03 A3015 RMK AO2,M
HTH,2025-07-18 16:55,-118.6315,38.5448,1282.89,80.60,28.40,14.82,M,4.00,0.00,30.13,M,10.00,M,CLR,M,M,M,M,M,M,M,M,M,M,M,M,M,M,78.72,KHTH 181655Z AUTO VRB04KT 10SM CLR 27/M02 A3013 RMK A01,M
INS,2025-07-18 16:55,-115.6733,36.5872,955.00,84.40,54.50,35.98,0.00,0.00,0.00,30.05,1012.20,10.00,M,OVC,M,M,M,13000.00,M,M,M,M,M,M,M,M,M,M,83.08,KINS 181655Z AUTO 00000KT 10SM OVC130 29/13 A3005 RMK AO2 SLP122 T02910125 $,M
EKO,2025-07-18 16:56,-115.7860,40.8242,1367.00,79.00,45.00,30.09,230.00,4.00,0.00,30.11,1013.10,10.00,M,CLR,M,M,M,M,M,M,M,M,M,M,M,M,M,M,79.00,KEKO 181656Z AUTO 23004KT 10SM CLR 26/07 A3011 RMK AO2 SLP131 T02610072,M
HND,2025-07-18 16:56,-115.1344,35.9729,742.79,87.00,57.00,36.26,M,3.00,0.00,30.04,1016.10,10.00,M,CLR,M,M,M,M,M,M,M,M,M,M,M,M,M,M,85.81,KHND 181656Z VRB03KT 10SM CLR 31/14 A3004 RMK AO2 SLP161 T03060139 $,M
TPH,2025-07-18 16:56,-117.0904,38.0505,1654.00,78.00,46.00,32.30,190.00,9.00,0.00,30.19,1013.50,10.00,M,CLR,M,M,M,M,M,M,M,M,M,M,M,M,M,M,78.00,KTPH 181656Z AUTO 19009KT 10SM CLR 26/08 A3019 RMK AO2 SLP135 T02560078,M
LAS,2025-07-18 16:56,-115.1634,36.0719,663.00,88.00,54.00,31.51,140.00,5.00,0.00,30.02,1013.70,10.00,M,FEW,SCT,BKN,M,10000.00,12000.00,15000.00,M,M,M,M,M,M,M,M,85.99,KLAS 181656Z 14005KT 10SM FEW100 SCT120 BKN150 31/12 A3002 RMK AO2 SLP137 T03110122,M
NFL,2025-07-18 16:57,-118.7010,39.4166,1199.00,82.00,38.00,20.82,300.00,6.00,0.00,30.08,1015.40,8.00,M,CLR,M,M,M,M,M,M,M,M,M,M,M,M,M,M,79.90,KNFL 181657Z 30006KT 8SM CLR 28/03 A3008 RMK AO2 SLP154 T02780033,M
TMT,2025-07-18 17:10,-117.1971,39.4643,1749.34,79.50,34.30,19.51,0.00,0.00,0.00,30.19,M,10.00,M,CLR,M,M,M,M,M,M,M,M,M,M,M,M,M,M,79.50,KTMT 181710Z AUTO 00000KT 10SM CLR 26/01 A3019 RMK AO2 T02640013,M
BVU,2025-07-18 17:15,-114.8611,35.9475,671.00,87.80,53.60,31.25,M,3.00,0.00,30.00,M,10.00,M,CLR,M,M,M,M,M,M,M,M,M,M,M,M,M,M,85.73,KBVU 181715Z AUTO VRB03KT 10SM CLR 31/12 A3000 RMK AO2,M
BAM,2025-07-18 17:15,-116.8743,40.5990,1382.36,87.80,33.80,14.64,0.00,0.00,0.00,30.08,M,10.00,M,CLR,M,M,M,M,M,M,M,M,M,M,M,M,M,M,84.10,KBAM 181715Z AUTO 00000KT 10SM CLR 31/01 A3008 RMK AO1,M
CXP,2025-07-18 17:15,-119.7326,39.1923,1431.00,77.00,32.00,19.31,0.00,0.00,0.00,30.16,M,10.00,M,CLR,M,M,M,M,M,M,M,M,M,M,M,M,M,M,77.00,KCXP 181715Z AUTO 00000KT 10SM CLR 25/00 A3016 RMK AO2,M
RTS,2025-07-18 17:15,-119.8764,39.6682,1539.00,78.80,26.60,14.60,290.00,7.00,0.00,30.18,M,10.00,12.00,CLR,M,M,M,M,M,M,M,M,M,M,M,M,M,M,78.80,KRTS 181715Z AUTO 29007G12KT 10SM CLR 26/M03 A3018 RMK AO2,M
05U,2025-07-18 17:15,-116.0051,39.6042,1811.23,80.60,41.00,24.49,M,4.00,0.00,30.20,M,10.00,M,CLR,M,M,M,M,M,M,M,M,M,M,M,M,M,M,79.20,K05U 181715Z AUTO VRB04KT 10SM CLR 27/05 A3020 RMK A01,M
MEV,2025-07-18 17:15,-119.7500,38.9963,1441.42,77.00,37.40,23.95,M,3.00,0.00,30.15,M,10.00,M,CLR,M,M,M,M,M,M,M,M,M,M,M,M,M,M,77.00,KMEV 181715Z AUTO VRB03KT 10SM CLR 25/03 A3015 RMK AO2,M
HTH,2025-07-18 17:15,-118.6315,38.5448,1282.89,80.60,24.80,12.77,M,6.00,0.00,30.13,M,10.00,11.00,CLR,M,M,M,M,M,M,M,M,M,M,M,M,M,M,78.94,KHTH 181715Z AUTO VRB06G11KT 10SM CLR 27/M04 A3013 RMK A01,M
CXP,2025-07-18 17:30,-119.7326,39.1923,1431.00,78.80,30.20,16.92,0.00,0.00,0.00,30.16,M,10.00,M,CLR,M,M,M,M,M,M,M,M,M,M,M,M,M,M,78.80,KCXP 181730Z AUTO 00000KT 10SM CLR 26/M01 A3016 RMK AO2,M
TMT,2025-07-18 17:30,-117.1971,39.4643,1749.34,80.80,35.60,19.69,190.00,3.00,0.00,30.18,M,10.00,M,CLR,M,M,M,M,M,M,M,M,M,M,M,M,M,M,79.07,KTMT 181730Z AUTO 19003KT 10SM CLR 27/02 A3018 RMK AO2 T02710020,M
RTS,2025-07-18 17:35,-119.8764,39.6682,1539.00,78.80,26.60,14.60,M,5.00,0.00,30.18,M,10.00,M,CLR,M,M,M,M,M,M,M,M,M,M,M,M,M,M,78.80,KRTS 181735Z AUTO VRB05KT 10SM CLR 26/M03 A3018 RMK AO2,M
05U,2025-07-18 17:35,-116.0051,39.6042,1811.23,80.60,41.00,24.49,210.00,3.00,0.00,30.20,M,10.00,M,CLR,M,M,M,M,M,M,M,M,M,M,M,M,M,M,79.20,K05U 181735Z AUTO 21003KT 10SM CLR 27/05 A3020 RMK A01,M
MEV,2025-07-18 17:35,-119.7500,38.9963,1441.42,77.00,35.60,22.31,M,3.00,0.00,30.15,M,10.00,M,CLR,M,M,M,M,M,M,M,M,M,M,M,M,M,M,77.00,KMEV 181735Z AUTO VRB03KT 10SM CLR 25/02 A3015 RMK AO2,M
BAM,2025-07-18 17:35,-116.8743,40.5990,1382.36,89.60,33.80,13.84,250.00,4.00,0.00,30.08,M,10.00,M,CLR,M,M,M,M,M,M,M,M,M,M,M,M,M,M,85.59,KBAM 181735Z AUTO 25004KT 10SM CLR 32/01 A3008 RMK AO1,M
HTH,2025-07-18 17:35,-118.6315,38.5448,1282.89,82.40,24.80,12.05,310.00,8.00,0.00,30.12,M,10.00,14.00,CLR,M,M,M,M,M,M,M,M,M,M,M,M,M,M,79.79,KHTH 181735Z AUTO 31008G14KT 10SM CLR 28/M04 A3012 RMK A01,M
TMT,2025-07-18 17:50,-117.1971,39.4643,1749.34,82.00,35.20,18.64,220.00,7.00,0.00,30.18,M,10.00,M,CLR,M,M,M,M,M,M,M,M,M,M,M,M,M,M,79.81,KTMT 181750Z AUTO 22007KT 10SM CLR 28/02 A3018 RMK AO2 T02780018,M
P68,2025-07-18 17:53,-116.0056,39.6014,1993.00,83.00,41.00,22.66,200.00,6.00,0.00,30.17,1011.60,M,M,M,M,M,M,M,M,M,M,M,M,M,M,M,M,M,80.69,KP68 181753Z AUTO 20006KT 28/05 A3017 RMK AO1 SLP116 T02830050 10283 20128 58002,M
DRA,2025-07-18 17:53,-116.0278,36.6206,1009.00,87.00,54.00,32.52,250.00,9.00,0.00,30.07,1012.60,10.00,16.00,SCT,SCT,BKN,M,6000.00,8000.00,10000.00,M,M,M,M,M,M,M,M,85.12,KDRA 181753Z AUTO 25009G16KT 10SM SCT060 SCT080 BKN100 31/12 A3007 RMK AO2 SLP126 60000 T03060122 10306 20239 50003,M
ELY,2025-07-18 17:53,-114.8453,39.2950,1909.00,74.00,43.00,32.90,130.00,6.00,0.00,30.23,1012.90,10.00,M,CLR,M,M,M,M,M,M,M,M,M,M,M,M,M,M,74.00,KELY 181753Z AUTO 13006KT 10SM CLR 23/06 A3023 RMK AO2 SLP129 60000 T02330061 10233 20150 50001,M
VGT,2025-07-18 17:53,-115.1933,36.2111,667.00,89.00,54.00,30.53,M,3.00,0.00,29.99,1014.50,10.00,M,CLR,M,M,M,M,M,M,M,M,M,M,M,M,M,M,86.90,KVGT 181753Z VRB03KT 10SM CLR 32/12 A2999 RMK AO2 LTG DSNT W SLP145 T03170122 10317 20272 50001,M
LOL,2025-07-18 17:53,-118.5701,40.0684,1192.43,85.00,37.00,18.18,M,M,0.00,30.06,1013.10,10.00,M,CLR,M,M,M,M,M,M,M,M,M,M,M,M,M,M,81.96,KLOL 181753Z AUTO 10SM CLR 29/03 A3006 RMK AO2 SLP131 T02940028 10300 20100 58001,M
CXP,2025-07-18 17:55,-119.7326,39.1923,1431.00,80.60,24.80,12.77,M,5.00,0.00,30.16,M,10.00,M,CLR,M,M,M,M,M,M,M,M,M,M,M,M,M,M,78.94,KCXP 181755Z AUTO VRB05KT 10SM CLR 27/M04 A3016 RMK AO2,M
LSV,2025-07-18 17:55,-115.0343,36.2362,570.00,92.00,52.00,25.83,0.00,0.00,0.00,29.94,1010.90,10.00,M,FEW,FEW,SCT,SCT,7500.00,10000.00,13000.00,17000.00,M,M,M,M,M,M,M,89.33,KLSV 181755Z AUTO 00000KT 10SM FEW075 FEW100 SCT130 SCT170 BKN200 33/11 A2994 RMK AO2 LTG DSNT NW SLP109 T03340112 10334 20264 50000 $,M
RTS,2025-07-18 17:55,-119.8764,39.6682,1539.00,78.80,24.80,13.55,260.00,9.00,0.00,30.18,M,10.00,M,CLR,M,M,M,M,M,M,M,M,M,M,M,M,M,M,78.80,KRTS 181755Z AUTO 26009KT 10SM CLR 26/M04 A3018 RMK AO2,M
05U,2025-07-18 17:55,-116.0051,39.6042,1811.23,82.40,41.00,23.10,M,5.00,0.00,30.20,M,10.00,M,CLR,M,M,M,M,M,M,M,M,M,M,M,M,M,M,80.29,K05U 181755Z AUTO VRB05KT 10SM CLR 28/05 A3020 RMK A01,M
MEV,2025-07-18 17:55,-119.7500,38.9963,1441.42,78.80,35.60,21.02,0.00,0.00,0.00,30.14,M,10.00,M,CLR,M,M,M,M,M,M,M,M,M,M,M,M,M,M,78.80,KMEV 181755Z AUTO 00000KT 10SM CLR 26/02 A3014 RMK AO2,M
HTH,2025-07-18 17:55,-118.6315,38.5448,1282.89,84.20,24.80,11.37,M,4.00,0.00,30.12,M,10.00,10.00,CLR,M,M,M,M,M,M,M,M,M,M,M,M,M,M,81.00,KHTH 181755Z AUTO VRB04G10KT 10SM CLR 29/M04 A3012 RMK A01,M
BVU,2025-07-18 17:55,-114.8611,35.9475,671.00,91.40,51.80,26.12,0.00,0.00,0.00,29.99,M,10.00,M,CLR,M,M,M,M,M,M,M,M,M,M,M,M,M,M,88.71,KBVU 181755Z AUTO 00000KT 10SM CLR 33/11 A2999 RMK AO2,M
RNO,2025-07-18 17:55,-119.7711,39.4839,1341.00,80.00,29.00,15.49,0.00,0.00,0.00,30.13,1014.60,10.00,M,FEW,M,M,M,25000.00,M,M,M,M,M,M,M,M,M,M,78.43,KRNO 181755Z 00000KT 10SM FEW250 27/M02 A3013 RMK AO2 SLP146 T02671017 10267 20156 58005,M
BAM,2025-07-18 17:55,-116.8743,40.5990,1382.36,89.60,35.60,14.87,260.00,5.00,0.00,30.08,M,10.00,M,CLR,M,M,M,M,M,M,M,M,M,M,M,M,M,M,85.62,KBAM 181755Z AUTO 26005KT 10SM CLR 32/02 A3008 RMK AO1,M
INS,2025-07-18 17:55,-115.6733,36.5872,955.00,87.60,53.20,30.99,0.00,0.00,0.00,30.05,1012.40,10.00,M,BKN,M,M,M,13000.00,M,M,M,M,M,M,M,M,M,M,85.48,KINS 181755Z AUTO 00000KT 10SM BKN130 31/12 A3005 RMK AO2 LTG DSNT E AND S-SW SLP124 T03090118 10311 20236 50001 $,M
EKO,2025-07-18 17:56,-115.7860,40.8242,1367.00,85.00,39.00,19.66,230.00,9.00,0.00,30.10,1012.60,10.00,M,CLR,M,M,M,M,M,M,M,M,M,M,M,M,M,M,82.02,KEKO 181756Z AUTO 23009KT 10SM CLR 29/04 A3010 RMK AO2 SLP126 T02940039 10300 20117 58002,M
HND,2025-07-18 17:56,-115.1344,35.9729,742.79,92.00,56.00,29.90,190.00,12.00,0.00,30.02,1015.40,10.00,17.00,CLR,M,M,M,M,M,M,M,M,M,M,M,M,M,M,90.32,KHND 181756Z 19012G17KT 10SM CLR 33/13 A3002 RMK AO2 LTG DSNT S SLP154 T03330133 10333 20244 58002 $,M
TPH,2025-07-18 17:56,-117.0904,38.0505,1654.00,82.00,43.00,25.28,210.00,12.00,0.00,30.19,1013.10,10.00,18.00,CLR,M,M,M,M,M,M,M,M,M,M,M,M,M,M,80.15,KTPH 181756Z AUTO 21012G18KT 10SM CLR 28/06 A3019 RMK AO2 SLP131 T02780061 10278 20150 58001,M
LAS,2025-07-18 17:56,-115.1634,36.0719,663.00,91.00,54.00,28.68,0.00,0.00,0.00,30.00,1013.10,10.00,M,FEW,FEW,SCT,M,10000.00,12000.00,15000.00,M,M,M,M,M,M,M,M,88.80,KLAS 181756Z 00000KT 10SM FEW100 FEW120 SCT150 33/12 A3000 RMK AO2 SLP131 CB DSNT S AND NW T03280122 10333 20261 58001,M
NFL,2025-07-18 17:57,-118.7010,39.4166,1199.00,87.00,34.00,15.14,260.00,9.00,0.00,30.08,1015.40,9.00,14.00,CLR,M,M,M,M,M,M,M,M,M,M,M,M,M,M,83.45,KNFL 181757Z 26009G14KT 9SM CLR 31/01 A3008 RMK AO2 SLP154 T03060011 10306 20144 58001,M
TMT,2025-07-18 18:10,-117.1971,39.4643,1749.34,83.30,34.00,17.04,210.00,7.00,0.00,30.18,M,10.00,M,CLR,M,M,M,M,M,M,M,M,M,M,M,M,M,M,80.66,KTMT 181810Z AUTO 21007KT 10SM CLR 29/01 A3018 RMK AO2 T02850012,M
BVU,2025-07-18 18:15,-114.8611,35.9475,671.00,93.20,51.80,24.71,160.00,6.00,0.00,29.98,M,10.00,11.00,CLR,M,M,M,M,M,M,M,M,M,M,M,M,M,M,90.47,KBVU 181815Z AUTO 16006G11KT 10SM CLR 34/11 A2998 RMK AO2,M
BAM,2025-07-18 18:15,-116.8743,40.5990,1382.36,89.60,33.80,13.84,250.00,8.00,0.00,30.07,M,10.00,M,CLR,M,M,M,M,M,M,M,M,M,M,M,M,M,M,85.59,KBAM 181815Z AUTO 25008KT 10SM CLR 32/01 A3007 RMK AO1,M
CXP,2025-07-18 18:15,-119.7326,39.1923,1431.00,82.40,23.00,11.17,0.00,0.00,0.00,30.15,M,10.00,M,CLR,M,M,M,M,M,M,M,M,M,M,M,M,M,M,79.67,KCXP 181815Z AUTO 00000KT 10SM CLR 28/M05 A3015 RMK AO2,M
RTS,2025-07-18 18:15,-119.8764,39.6682,1539.00,82.40,24.80,12.05,250.00,7.00,0.00,30.17,M,10.00,M,CLR,M,M,M,M,M,M,M,M,M,M,M,M,M,M,79.79,KRTS 181815Z AUTO 25007KT 10SM CLR 28/M04 A3017 RMK AO2,M
05U,2025-07-18 18:15,-116.0051,39.6042,1811.23,80.60,41.00,24.49,0.00,0.00,0.00,30.20,M,10.00,12.00,CLR,M,M,M,M,M,M,M,M,M,M,M,M,M,M,79.20,K05U 181815Z AUTO 00000G12KT 10SM CLR 27/05 A3020 RMK A01,M
MEV,2025-07-18 18:15,-119.7500,38.9963,1441.42,82.40,35.60,18.70,M,4.00,0.00,30.14,M,9.00,M,CLR,M,M,M,M,M,M,M,M,M,M,M,M,M,M,80.08,KMEV 181815Z AUTO VRB04KT 9SM CLR 28/02 A3014 RMK AO2,M
HTH,2025-07-18 18:15,-118.6315,38.5448,1282.89,84.20,24.80,11.37,360.00,6.00,0.00,30.11,M,10.00,11.00,CLR,M,M,M,M,M,M,M,M,M,M,M,M,M,M,81.00,KHTH 181815Z AUTO 36006G11KT 10SM CLR 29/M04 A3011 RMK A01,M
TMT,2025-07-18 18:30,-117.1971,39.4643,1749.34,84.60,34.00,16.34,190.00,6.00,0.00,30.18,M,10.00,M,CLR,M,M,M,M,M,M,M,M,M,M,M,M,M,M,81.60,KTMT 181830Z AUTO 19006KT 10SM CLR 29/01 A3018 RMK AO2 T02920012,M
BVU,2025-07-18 18:35,-114.8611,35.9475,671.00,93.20,51.80,24.71,290.00,7.00,0.00,29.98,M,10.00,M,CLR,M,M,M,M,M,M,M,M,M,M,M,M,M,M,90.47,KBVU 181835Z AUTO 29007KT 10SM CLR 34/11 A2998 RMK AO2,M
BAM,2025-07-18 18:35,-116.8743,40.5990,1382.36,93.20,33.80,12.37,250.00,10.00,0.00,30.07,M,10.00,15.00,CLR,M,M,M,M,M,M,M,M,M,M,M,M,M,M,88.56,KBAM 181835Z AUTO 25010G15KT 10SM CLR 34/01 A3007 RMK AO1,M
CXP,2025-07-18 18:35,-119.7326,39.1923,1431.00,84.20,23.00,10.54,200.00,3.00,0.00,30.15,M,10.00,M,CLR,M,M,M,M,M,M,M,M,M,M,M,M,M,M,80.88,KCXP 181835Z AUTO 20003KT 10SM CLR 29/M05 A3015 RMK AO2,M
RTS,2025-07-18 18:35,-119.8764,39.6682,1539.00,80.60,23.00,11.84,M,4.00,0.00,30.17,M,10.00,11.00,CLR,M,M,M,M,M,M,M,M,M,M,M,M,M,M,78.80,KRTS 181835Z AUTO VRB04G11KT 10SM CLR 27/M05 A3017 RMK AO2,M
05U,2025-07-18 18:35,-116.0051,39.6042,1811.23,84.20,39.20,20.33,0.00,0.00,0.00,30.19,M,10.00,M,CLR,M,M,M,M,M,M,M,M,M,M,M,M,M,M,81.44,K05U 181835Z AUTO 00000KT 10SM CLR 29/04 A3019 RMK A01,M
MEV,2025-07-18 18:35,-119.7500,38.9963,1441.42,82.40,32.00,16.19,0.00,0.00,0.00,30.13,M,10.00,M,CLR,M,M,M,M,M,M,M,M,M,M,M,M,M,M,80.00,KMEV 181835Z AUTO 00000KT 10SM CLR 28/M00 A3013 RMK AO2,M
HTH,2025-07-18 18:35,-118.6315,38.5448,1282.89,86.00,23.00,9.95,320.00,5.00,0.00,30.10,M,10.00,16.00,CLR,M,M,M,M,M,M,M,M,M,M,M,M,M,M,82.14,KHTH 181835Z AUTO 32005G16KT 10SM CLR 30/M05 A3010 RMK A01,M
TMT,2025-07-18 18:50,-117.1971,39.4643,1749.34,84.00,32.40,15.62,0.00,0.00,0.00,30.17,M,10.00,M,CLR,M,M,M,M,M,M,M,M,M,M,M,M,M,M,81.14,KTMT 181850Z AUTO 00000KT 10SM CLR 29/00 A3017 RMK AO2 T02880002,M
P68,2025-07-18 18:53,-116.0056,39.6014,1993.00,86.00,39.00,19.04,M,6.00,0.00,30.15,1011.10,M,M,M,M,M,M,M,M,M,M,M,M,M,M,M,M,M,82.78,KP68 181853Z AUTO VRB06KT 30/04 A3015 RMK AO1 SLP111 T03000039,M
DRA,2025-07-18 18:53,-116.0278,36.6206,1009.00,88.00,53.00,30.37,250.00,15.00,0.00,30.06,1012.60,10.00,20.00,OVC,M,M,M,11000.00,M,M,M,M,M,M,M,M,M,M,85.79,KDRA 181853Z AUTO 25015G20KT 10SM OVC110 31/12 A3006 RMK AO2 SLP126 T03110117,M
ELY,2025-07-18 18:53,-114.8453,39.2950,1909.00,79.00,42.00,26.83,M,4.00,0.00,30.21,1011.60,10.00,M,CLR,M,M,M,M,M,M,M,M,M,M,M,M,M,M,79.00,KELY 181853Z AUTO VRB04KT 10SM CLR 26/06 A3021 RMK AO2 LTG DSNT E AND SE SLP116 T02610056,M
VGT,2025-07-18 18:53,-115.1933,36.2111,667.00,93.00,54.00,26.95,110.00,5.00,0.00,29.98,1013.80,10.00,15.00,CLR,M,M,M,M,M,M,M,M,M,M,M,M,M,M,90.78,KVGT 181853Z 11005G15KT 10SM CLR 34/12 A2998 RMK AO2 LTG DSNT N AND SE SLP138 T03390122,M
LOL,2025-07-18 18:53,-118.5701,40.0684,1192.43,90.00,31.00,12.21,M,3.00,0.00,30.05,1012.70,10.00,M,CLR,M,M,M,M,M,M,M,M,M,M,M,M,M,M,85.74,KLOL 181853Z AUTO VRB03KT 10SM CLR 32/M01 A3005 RMK AO2 SLP127 T03221006,M
BAM,2025-07-18 18:55,-116.8743,40.5990,1382.36,93.20,32.00,11.51,220.00,7.00,0.00,30.06,M,10.00,19.00,CLR,M,M,M,M,M,M,M,M,M,M,M,M,M,M,88.31,KBAM 181855Z AUTO 22007G19KT 10SM CLR 34/00 A3006 RMK AO1,M
CXP,2025-07-18 18:55,-119.7326,39.1923,1431.00,84.20,23.00,10.54,0.00,0.00,0.00,30.14,M,10.00,M,CLR,M,M,M,M,M,M,M,M,M,M,M,M,M,M,80.88,KCXP 181855Z AUTO 00000KT 10SM CLR 29/M05 A3014 RMK AO2,M
RTS,2025-07-18 18:55,-119.8764,39.6682,1539.00,82.40,24.80,12.05,M,6.00,0.00,30.17,M,10.00,M,CLR,M,M,M,M,M,M,M,M,M,M,M,M,M,M,79.79,KRTS 181855Z AUTO VRB06KT 10SM CLR 28/M04 A3017 RMK AO2,M
05U,2025-07-18 18:55,-116.0051,39.6042,1811.23,86.00,39.20,19.19,0.00,0.00,0.00,30.18,M,10.00,M,CLR,M,M,M,M,M,M,M,M,M,M,M,M,M,M,82.79,K05U 181855Z AUTO 00000KT 10SM CLR 30/04 A3018 RMK A01,M
MEV,2025-07-18 18:55,-119.7500,38.9963,1441.42,84.20,26.60,12.25,M,4.00,0.00,30.13,M,10.00,M,CLR,M,M,M,M,M,M,M,M,M,M,M,M,M,M,81.14,KMEV 181855Z AUTO VRB04KT 10SM CLR 29/M03 A3013 RMK AO2,M
HTH,2025-07-18 18:55,-118.6315,38.5448,1282.89,86.00,24.80,10.73,330.00,7.00,0.00,30.10,M,10.00,M,CLR,M,M,M,M,M,M,M,M,M,M,M,M,M,M,82.26,KHTH 181855Z AUTO 33007KT 290V350 10SM CLR 30/M04 A3010 RMK A01,M
BVU,2025-07-18 18:55,-114.8611,35.9475,671.00,95.00,51.80,23.38,190.00,10.00,0.00,29.97,M,10.00,M,CLR,M,M,M,M,M,M,M,M,M,M,M,M,M,M,92.29,KBVU 181855Z AUTO 19010KT 10SM CLR 35/11 A2997 RMK AO2,M
RNO,2025-07-18 18:55,-119.7711,39.4839,1341.00,85.00,23.00,10.28,0.00,0.00,0.00,30.12,1013.70,10.00,M,CLR,M,M,M,M,M,M,M,M,M,M,M,M,M,M,81.44,KRNO 181855Z 00000KT 10SM CLR 29/M05 A3012 RMK AO2 SLP137 T02941050,M
INS,2025-07-18 18:55,-115.6733,36.5872,955.00,88.30,53.00,30.09,90.00,6.00,0.00,30.05,1012.20,10.00,M,BKN,BKN,M,M,11000.00,15000.00,M,M,M,M,M,M,M,M,M,86.06,KINS 181855Z AUTO 09006KT 10SM BKN110 BKN150 31/12 A3005 RMK AO2 LTG DSNT E-S SLP122 T03130116 $,M
LSV,2025-07-18 18:55,-115.0343,36.2362,570.00,94.00,50.50,22.97,190.00,6.00,0.00,29.93,1010.50,10.00,M,FEW,SCT,M,M,12000.00,15000.00,M,M,M,M,M,M,M,M,M,91.00,KLSV 181855Z 19006KT 10SM FEW120 SCT150 35/10 A2993 RMK AO2A LTG DSNT W-N AND S SLP105 T03450103 $,M
TPH,2025-07-18 18:56,-117.0904,38.0505,1654.00,84.00,41.00,21.94,200.00,7.00,0.00,30.17,1012.60,10.00,19.00,CLR,M,M,M,M,M,M,M,M,M,M,M,M,M,M,81.38,KTPH 181856Z AUTO 20007G19KT 170V260 10SM CLR 29/05 A3017 RMK AO2 SLP126 T02890050,M
LAS,2025-07-18 18:56,-115.1634,36.0719,663.00,94.00,55.00,27.10,M,3.00,0.00,29.98,1012.40,10.00,M,FEW,SCT,M,M,9000.00,13000.00,M,M,M,M,M,M,M,M,M,92.08,KLAS 181856Z VRB03KT 10SM FEW090 SCT130 34/13 A2998 RMK AO2 LTG DSNT SE SLP124 CB DSNT S AND NW T03440128,M
EKO,2025-07-18 18:56,-115.7860,40.8242,1367.00,88.00,39.00,17.87,230.00,9.00,0.00,30.09,1012.20,10.00,M,CLR,M,M,M,M,M,M,M,M,M,M,M,M,M,M,84.38,KEKO 181856Z AUTO 23009KT 10SM CLR 31/04 A3009 RMK AO2 SLP122 T03110039,M
HND,2025-07-18 18:56,-115.1344,35.9729,742.79,95.00,54.00,25.34,190.00,12.00,0.00,30.02,1015.10,10.00,20.00,CLR,M,M,M,M,M,M,M,M,M,M,M,M,M,M,92.84,KHND 181856Z 19012G20KT 10SM CLR 35/12 A3002 RMK AO2 LTG DSNT SE SLP151 T03500122 $,M
WMC,2025-07-18 18:56,-117.8072,40.9019,1315.00,91.00,31.00,11.83,250.00,13.00,0.00,30.06,1011.40,10.00,22.00,CLR,M,M,M,M,M,M,M,M,M,M,M,M,M,M,86.50,KWMC 181856Z AUTO 25013G22KT 10SM CLR 32/M01 A3006 RMK AO2 SLP119 T03221011 TSNO ZCZC RNORRYWMC ALL .A WMC 0718 DH1900/PPH 0.00 ZCZC RNOMTRWMC ALL METAR KWMC 181956Z AUTO 25014G22KT 10SM CLR 33/M01 A3004 RMK AO2 SLP114 T03281006 TSNO ZCZC RNORRYWMC ALL .,M
NFL,2025-07-18 18:57,-118.7010,39.4166,1199.00,89.00,30.00,12.10,240.00,7.00,0.00,30.07,1015.10,9.00,M,CLR,M,M,M,M,M,M,M,M,M,M,M,M,M,M,84.88,KNFL 181857Z 24007KT 9SM CLR 32/M01 A3007 RMK AO2 SLP151 T03171011,M
TMT,2025-07-18 19:10,-117.1971,39.4643,1749.34,85.30,31.30,14.34,160.00,7.00,0.00,30.16,M,10.00,M,CLR,M,M,M,M,M,M,M,M,M,M,M,M,M,M,82.10,KTMT 181910Z AUTO 16007KT 150V210 10SM CLR 30/00 A3016 RMK AO2 T02961004,M
BVU,2025-07-18 19:15,-114.8611,35.9475,671.00,95.00,50.00,21.87,M,4.00,0.00,29.97,M,10.00,M,CLR,M,M,M,M,M,M,M,M,M,M,M,M,M,M,91.90,KBVU 181915Z AUTO VRB04KT 10SM CLR 35/10 A2997 RMK AO2 LTG DSNT SW,M
BAM,2025-07-18 19:15,-116.8743,40.5990,1382.36,95.00,32.00,10.89,250.00,11.00,0.00,30.06,M,10.00,19.00,CLR,M,M,M,M,M,M,M,M,M,M,M,M,M,M,89.72,KBAM 181915Z AUTO 25011G19KT 10SM CLR 35/00 A3006 RMK AO1,M
CXP,2025-07-18 19:15,-119.7326,39.1923,1431.00,86.00,24.80,10.73,0.00,0.00,0.00,30.13,M,10.00,M,CLR,M,M,M,M,M,M,M,M,M,M,M,M,M,M,82.26,KCXP 181915Z AUTO 00000KT 10SM CLR 30/M04 A3013 RMK AO2,M
RTS,2025-07-18 19:15,-119.8764,39.6682,1539.00,82.40,24.80,12.05,0.00,0.00,0.00,30.16,M,10.00,M,CLR,M,M,M,M,M,M,M,M,M,M,M,M,M,M,79.79,KRTS 181915Z AUTO 00000KT 10SM CLR 28/M04 A3016 RMK AO2,M
05U,2025-07-18 19:15,-116.0051,39.6042,1811.23,82.40,37.40,20.08,0.00,0.00,0.00,30.18,M,10.00,M,CLR,M,M,M,M,M,M,M,M,M,M,M,M,M,M,80.14,K05U 181915Z AUTO 00000KT 10SM CLR 28/03 A3018 RMK A01,M
MEV,2025-07-18 19:15,-119.7500,38.9963,1441.42,86.00,26.60,11.57,280.00,5.00,0.00,30.12,M,10.00,M,CLR,M,M,M,M,M,M,M,M,M,M,M,M,M,M,82.40,KMEV 181915Z AUTO 28005KT 10SM CLR 30/M03 A3012 RMK AO2,M
HTH,2025-07-18 19:15,-118.6315,38.5448,1282.89,86.00,26.60,11.57,M,5.00,0.00,30.09,M,10.00,M,CLR,M,M,M,M,M,M,M,M,M,M,M,M,M,M,82.40,KHTH 181915Z AUTO VRB05KT 10SM CLR 30/M03 A3009 RMK A01,M
DRA,2025-07-18 19:21,-116.0278,36.6206,1009.00,87.00,53.00,31.35,180.00,14.00,0.00,30.06,M,10.00,M,BKN,M,M,M,11000.00,M,M,M,M,M,M,M,M,M,M,84.92,KDRA 181921Z AUTO 18014KT 10SM BKN110 31/12 A3006 RMK AO2 WSHFT 1904 T03060117,M
HTH,2025-07-18 19:30,-118.6315,38.5448,1282.89,87.80,28.40,11.77,M,5.00,0.00,30.08,M,10.00,10.00,CLR,M,M,M,M,M,M,M,M,M,M,M,M,M,M,83.84,KHTH 181930Z AUTO VRB05G10KT 10SM CLR 31/M02 A3008 RMK A01,M
TMT,2025-07-18 19:30,-117.1971,39.4643,1749.34,87.80,30.00,12.56,220.00,8.00,0.00,30.16,M,10.00,M,CLR,M,M,M,M,M,M,M,M,M,M,M,M,M,M,83.99,KTMT 181930Z AUTO 22008KT 10SM CLR 31/M01 A3016 RMK AO2 T03101011,M
BVU,2025-07-18 19:35,-114.8611,35.9475,671.00,95.00,50.00,21.87,220.00,10.00,0.00,29.97,M,10.00,16.00,FEW,M,M,M,11000.00,M,M,M,M,M,M,M,M,M,M,91.90,KBVU 181935Z AUTO 22010G16KT 10SM FEW110 35/10 A2997 RMK AO2,M
BAM,2025-07-18 19:35,-116.8743,40.5990,1382.36,96.80,30.20,9.58,240.00,9.00,0.00,30.05,M,10.00,17.00,CLR,M,M,M,M,M,M,M,M,M,M,M,M,M,M,90.97,KBAM 181935Z AUTO 24009G17KT 10SM CLR 36/M01 A3005 RMK AO1,M
CXP,2025-07-18 19:35,-119.7326,39.1923,1431.00,87.80,23.00,9.40,0.00,0.00,0.00,30.13,M,10.00,M,CLR,M,M,M,M,M,M,M,M,M,M,M,M,M,M,83.44,KCXP 181935Z AUTO 00000KT 10SM CLR 31/M05 A3013 RMK AO2,M
RTS,2025-07-18 19:35,-119.8764,39.6682,1539.00,84.20,23.00,10.54,M,6.00,0.00,30.16,M,10.00,12.00,CLR,M,M,M,M,M,M,M,M,M,M,M,M,M,M,80.88,KRTS 181935Z AUTO VRB06G12KT 10SM CLR 29/M05 A3016 RMK AO2,M
05U,2025-07-18 19:35,-116.0051,39.6042,1811.23,82.40,39.20,21.54,0.00,0.00,0.00,30.17,M,10.00,M,CLR,M,M,M,M,M,M,M,M,M,M,M,M,M,M,80.21,K05U 181935Z AUTO 00000KT 10SM CLR 28/04 A3017 RMK A01,M
MEV,2025-07-18 19:35,-119.7500,38.9963,1441.42,86.00,24.80,10.73,0.00,0.00,0.00,30.11,M,10.00,M,CLR,M,M,M,M,M,M,M,M,M,M,M,M,M,M,82.26,KMEV 181935Z AUTO 00000KT 10SM CLR 30/M04 A3011 RMK AO2,M
CXP,2025-07-18 19:50,-119.7326,39.1923,1431.00,87.80,23.00,9.40,M,4.00,0.00,30.13,M,10.00,M,CLR,M,M,M,M,M,M,M,M,M,M,M,M,M,M,83.44,KCXP 181950Z AUTO VRB04KT 10SM CLR 31/M05 A3013 RMK AO2,M
TMT,2025-07-18 19:50,-117.1971,39.4643,1749.34,87.60,30.20,12.74,240.00,6.00,0.00,30.15,M,10.00,M,CLR,M,M,M,M,M,M,M,M,M,M,M,M,M,M,83.86,KTMT 181950Z AUTO 24006KT 10SM CLR 31/M01 A3015 RMK AO2 T03091010,M
P68,2025-07-18 19:53,-116.0056,39.6014,1993.00,83.00,39.00,20.97,170.00,11.00,0.00,30.14,1010.60,M,16.00,M,M,M,M,M,M,M,M,M,M,M,M,M,M,M,80.60,KP68 181953Z AUTO 17011G16KT 28/04 A3014 RMK AO1 SLP106 T02830039,M
DRA,2025-07-18 19:53,-116.0278,36.6206,1009.00,88.00,51.00,28.22,210.00,5.00,0.00,30.06,1012.60,10.00,M,BKN,M,M,M,11000.00,M,M,M,M,M,M,M,M,M,M,85.44,KDRA 181953Z AUTO 21005KT 10SM BKN110 31/11 A3006 RMK AO2 WSHFT 1904 SLP126 T03110106,M
ELY,2025-07-18 19:53,-114.8453,39.2950,1909.00,79.00,41.00,25.81,190.00,15.00,0.00,30.19,1011.20,10.00,21.00,BKN,M,M,M,10000.00,M,M,M,M,M,M,M,M,M,M,79.00,KELY 181953Z AUTO 19015G21KT 10SM BKN100 26/05 A3019 RMK AO2 SLP112 T02610050,M
VGT,2025-07-18 19:53,-115.1933,36.2111,667.00,96.00,53.00,23.70,180.00,6.00,0.00,29.96,1013.20,10.00,M,FEW,M,M,M,11000.00,M,M,M,M,M,M,M,M,M,M,93.62,KVGT 181953Z 18006KT 10SM FEW110 36/12 A2996 RMK AO2 LTG DSNT W-N SLP132 T03560117,M
LOL,2025-07-18 19:53,-118.5701,40.0684,1192.43,91.00,30.00,11.36,M,5.00,0.00,30.03,1012.20,10.00,15.00,CLR,M,M,M,M,M,M,M,M,M,M,M,M,M,M,86.39,KLOL 181953Z AUTO VRB05G15KT 10SM CLR 33/M01 A3003 RMK AO2 SLP122 T03281011,M
BVU,2025-07-18 19:55,-114.8611,35.9475,671.00,91.40,53.60,27.91,200.00,16.00,0.00,29.97,M,10.00,22.00,CLR,M,M,M,M,M,M,M,M,M,M,M,M,M,M,89.09,KBVU 181955Z AUTO 20016G22KT 10SM CLR 33/12 A2997 RMK AO2,M
RNO,2025-07-18 19:55,-119.7711,39.4839,1341.00,88.00,23.00,9.34,M,4.00,0.00,30.10,1012.90,10.00,M,CLR,M,M,M,M,M,M,M,M,M,M,M,M,M,M,83.58,KRNO 181955Z VRB04KT 10SM CLR 31/M05 A3010 RMK AO2 SLP129 T03111050,M
BAM,2025-07-18 19:55,-116.8743,40.5990,1382.36,95.00,26.60,8.73,230.00,13.00,0.00,30.04,M,10.00,17.00,CLR,M,M,M,M,M,M,M,M,M,M,M,M,M,M,89.09,KBAM 181955Z AUTO 23013G17KT 10SM CLR 35/M03 A3004 RMK AO1,M
INS,2025-07-18 19:55,-115.6733,36.5872,955.00,87.40,46.20,24.03,190.00,22.00,0.00,30.03,1011.50,10.00,28.00,FEW,BKN,M,M,10000.00,13000.00,M,M,VCTS,M,M,M,M,M,M,84.34,KINS 181955Z AUTO 19022G28KT 10SM VCTS FEW100 BKN130 31/08 A3003 RMK AO2 SLP115 T03080079 $,M
RTS,2025-07-18 19:55,-119.8764,39.6682,1539.00,84.20,23.00,10.54,310.00,5.00,0.00,30.16,M,10.00,12.00,CLR,M,M,M,M,M,M,M,M,M,M,M,M,M,M,80.88,KRTS 181955Z AUTO 31005G12KT 10SM CLR 29/M05 A3016 RMK AO2,M
05U,2025-07-18 19:55,-116.0051,39.6042,1811.23,82.40,39.20,21.54,180.00,12.00,0.00,30.16,M,9.00,M,CLR,M,M,M,M,M,M,M,M,M,M,M,M,M,M,80.21,K05U 181955Z AUTO 18012KT 9SM CLR 28/04 A3016 RMK A01,M
MEV,2025-07-18 19:55,-119.7500,38.9963,1441.42,87.80,24.80,10.14,M,4.00,0.00,30.11,M,10.00,10.00,CLR,M,M,M,M,M,M,M,M,M,M,M,M,M,M,83.56,KMEV 181955Z AUTO VRB04G10KT 10SM CLR 31/M04 A3011 RMK AO2,M
HTH,2025-07-18 19:55,-118.6315,38.5448,1282.89,87.80,28.40,11.77,M,4.00,0.00,30.07,M,10.00,M,CLR,M,M,M,M,M,M,M,M,M,M,M,M,M,M,83.84,KHTH 181955Z AUTO VRB04KT 10SM CLR 31/M02 A3007 RMK A01,M
LSV,2025-07-18 19:55,-115.0343,36.2362,570.00,98.00,51.30,20.94,240.00,6.00,0.00,29.91,1009.80,10.00,M,BKN,M,M,M,12000.00,M,M,M,M,M,M,M,M,M,M,95.27,KLSV 181955Z 24006KT 10SM BKN120 37/11 A2991 RMK AO2A LTG DSNT W-N SLP098 T03660107 $,M
EKO,2025-07-18 19:56,-115.7860,40.8242,1367.00,88.00,37.00,16.52,260.00,6.00,0.00,30.07,1012.00,10.00,M,CLR,M,M,M,M,M,M,M,M,M,M,M,M,M,M,84.32,KEKO 181956Z AUTO 26006KT 10SM CLR 31/03 A3007 RMK AO2 SLP120 T03110028,M
HND,2025-07-18 19:56,-115.1344,35.9729,742.79,93.00,53.00,25.98,220.00,22.00,0.00,30.01,1015.00,10.00,25.00,FEW,M,M,M,11000.00,M,M,M,M,M,M,M,26.00,210.00,2025-07-18 19:56,90.54,KHND 181956Z 22022G25KT 10SM FEW110 34/12 A3001 RMK AO2 PK WND 21026/1956 LTG DSNT SE AND NW SLP150 T03390117 $,M
TPH,2025-07-18 19:56,-117.0904,38.0505,1654.00,87.00,42.00,20.73,230.00,11.00,0.00,30.15,1011.80,10.00,20.00,CLR,M,M,M,M,M,M,M,M,M,M,M,M,M,M,83.70,KTPH 181956Z AUTO 23011G20KT 10SM CLR 31/06 A3015 RMK AO2 SLP118 T03060056,M
LAS,2025-07-18 19:56,-115.1634,36.0719,663.00,98.00,51.00,20.71,180.00,16.00,0.00,29.98,1012.00,10.00,26.00,SCT,SCT,M,M,9000.00,13000.00,M,M,M,M,M,M,26.00,200.00,2025-07-18 19:53,95.20,KLAS 181956Z 18016G26KT 10SM SCT090 SCT130 37/11 A2998 RMK AO2 PK WND 20026/1953 LTG DSNT N AND NW SLP120 CB DSNT ALQDS T03670106,M
WMC,2025-07-18 19:56,-117.8072,40.9019,1315.00,91.00,31.00,11.83,250.00,14.00,0.00,30.04,1011.40,10.00,22.00,CLR,M,M,M,M,M,M,M,M,M,M,M,M,M,M,86.50,KWMC 181956Z AUTO 25014G22KT 10SM CLR 33/M01 A3004 RMK AO2 SLP114 T03281006 TSNO ZCZC RNORRYWMC ALL .A WMC 0718 DH2000/PPH 0.00 ZCZC RNOMTRWMC ALL METAR KWMC 182056Z AUTO 23014G24KT 10SM CL,M
NFL,2025-07-18 19:57,-118.7010,39.4166,1199.00,91.00,31.00,11.83,270.00,10.00,0.00,30.06,1014.60,9.00,M,FEW,M,M,M,8000.00,M,M,M,M,M,M,M,M,M,M,86.50,KNFL 181957Z 27010KT 9SM FEW080 33/M01 A3006 RMK AO2 SLP146 T03281006,M
TMT,2025-07-18 20:10,-117.1971,39.4643,1749.34,87.00,29.00,12.37,170.00,5.00,0.00,30.14,M,10.00,14.00,CLR,M,M,M,M,M,M,M,M,M,M,M,M,M,M,83.31,KTMT 182010Z AUTO 17005G14KT 10SM CLR 31/M02 A3014 RMK AO2 T03061016,M
BVU,2025-07-18 20:15,-114.8611,35.9475,671.00,93.20,51.80,24.71,180.00,13.00,0.00,29.97,M,10.00,M,CLR,M,M,M,M,M,M,M,M,M,M,M,M,M,M,90.47,KBVU 182015Z AUTO 18013KT 10SM CLR 34/11 A2997 RMK AO2,M
VGT,2025-07-18 20:15,-115.1933,36.2111,667.00,95.00,52.00,23.55,150.00,6.00,0.00,29.95,M,10.00,M,BKN,M,M,M,10000.00,M,M,M,TS,M,M,M,M,M,M,92.33,KVGT 182015Z 15006KT 10SM TS BKN100 35/11 A2995 RMK AO2 LTG DSNT W AND NW TSB09 T03500111,M
CXP,2025-07-18 20:15,-119.7326,39.1923,1431.00,89.60,24.80,9.58,M,4.00,0.00,30.12,M,10.00,10.00,CLR,M,M,M,M,M,M,M,M,M,M,M,M,M,M,84.88,KCXP 182015Z AUTO VRB04G10KT 10SM CLR 32/M04 A3012 RMK AO2,M
RTS,2025-07-18 20:15,-119.8764,39.6682,1539.00,84.20,23.00,10.54,250.00,3.00,0.00,30.15,M,10.00,11.00,CLR,M,M,M,M,M,M,M,M,M,M,M,M,M,M,80.88,KRTS 182015Z AUTO 25003G11KT 10SM CLR 29/M05 A3015 RMK AO2,M
05U,2025-07-18 20:15,-116.0051,39.6042,1811.23,80.60,42.80,26.26,190.00,11.00,0.00,30.17,M,10.00,M,CLR,M,M,M,M,M,M,M,M,M,M,M,M,M,M,79.31,K05U 182015Z AUTO 19011KT 10SM CLR 27/06 A3017 RMK A01,M
MEV,2025-07-18 20:15,-119.7500,38.9963,1441.42,87.80,26.60,10.93,M,6.00,0.00,30.11,M,10.00,13.00,CLR,M,M,M,M,M,M,M,M,M,M,M,M,M,M,83.69,KMEV 182015Z AUTO VRB06G13KT 10SM CLR 31/M03 A3011 RMK AO2,M
BAM,2025-07-18 20:15,-116.8743,40.5990,1382.36,96.80,23.00,7.11,240.00,15.00,0.00,30.04,M,10.00,21.00,CLR,M,M,M,M,M,M,M,M,M,M,M,M,M,M,90.25,KBAM 182015Z AUTO 24015G21KT 10SM CLR 36/M05 A3004 RMK AO1,M
HTH,2025-07-18 20:15,-118.6315,38.5448,1282.89,89.60,28.40,11.12,350.00,7.00,0.00,30.06,M,10.00,M,CLR,M,M,M,M,M,M,M,M,M,M,M,M,M,M,85.18,KHTH 182015Z AUTO 35007KT 320V040 10SM CLR 32/M02 A3006 RMK A01,M
ELY,2025-07-18 20:29,-114.8453,39.2950,1909.00,77.00,42.00,28.65,180.00,7.00,T,30.20,M,10.00,M,BKN,BKN,M,M,10000.00,12000.00,M,M,VCTS -RA,M,M,M,M,M,M,77.00,KELY 182029Z AUTO 18007KT 10SM VCTS -RA BKN100 BKN120 25/06 A3020 RMK AO2 LTG DSNT E RAB1957 P0000 T02500056,M
TMT,2025-07-18 20:30,-117.1971,39.4643,1749.34,87.60,28.80,12.04,280.00,4.00,0.00,30.13,M,10.00,M,CLR,M,M,M,M,M,M,M,M,M,M,M,M,M,M,83.73,KTMT 182030Z AUTO 28004KT 10SM CLR 31/M02 A3013 RMK AO2 T03091018,M
VGT,2025-07-18 20:30,-115.1933,36.2111,667.00,94.00,52.00,24.28,310.00,12.00,0.00,29.96,M,10.00,18.00,FEW,OVC,M,M,8000.00,9500.00,M,M,M,M,M,M,M,M,M,91.32,KVGT 182030Z 31012G18KT 10SM FEW080 OVC095 34/11 A2996 RMK AO2 LTG DSNT N TSB09E24 T03440111,M
CXP,2025-07-18 20:35,-119.7326,39.1923,1431.00,89.60,23.00,8.88,260.00,9.00,0.00,30.11,M,10.00,M,CLR,M,M,M,M,M,M,M,M,M,M,M,M,M,M,84.75,KCXP 182035Z AUTO 26009KT 10SM CLR 32/M05 A3011 RMK AO2,M
RTS,2025-07-18 20:35,-119.8764,39.6682,1539.00,86.00,23.00,9.95,M,4.00,0.00,30.14,M,10.00,14.00,CLR,M,M,M,M,M,M,M,M,M,M,M,M,M,M,82.14,KRTS 182035Z AUTO VRB04G14KT 10SM CLR 30/M05 A3014 RMK AO2,M
05U,2025-07-18 20:35,-116.0051,39.6042,1811.23,77.00,42.80,29.55,190.00,10.00,0.00,30.16,M,10.00,17.00,FEW,M,M,M,12000.00,M,M,M,M,M,M,M,M,M,M,77.00,K05U 182035Z AUTO 19010G17KT 10SM FEW120 25/06 A3016 RMK A01,M
MEV,2025-07-18 20:35,-119.7500,38.9963,1441.42,89.60,26.60,10.32,M,6.00,0.00,30.10,M,10.00,13.00,CLR,M,M,M,M,M,M,M,M,M,M,M,M,M,M,85.02,KMEV 182035Z AUTO VRB06G13KT 10SM CLR 32/M03 A3010 RMK AO2,M
HTH,2025-07-18 20:35,-118.6315,38.5448,1282.89,89.60,30.20,11.97,300.00,6.00,0.00,30.05,M,10.00,M,CLR,M,M,M,M,M,M,M,M,M,M,M,M,M,M,85.35,KHTH 182035Z AUTO 30006KT 10SM CLR 32/M01 A3005 RMK A01,M
BVU,2025-07-18 20:35,-114.8611,35.9475,671.00,96.80,50.00,20.70,240.00,20.00,0.00,29.96,M,10.00,30.00,CLR,M,M,M,M,M,M,M,M,M,M,M,M,M,M,93.73,KBVU 182035Z AUTO 24020G30KT 10SM CLR 36/10 A2996 RMK AO2,M
BAM,2025-07-18 20:35,-116.8743,40.5990,1382.36,96.80,21.20,6.59,220.00,14.00,0.00,30.03,M,10.00,18.00,CLR,M,M,M,M,M,M,M,M,M,M,M,M,M,M,90.12,KBAM 182035Z AUTO 22014G18KT 10SM CLR 36/M06 A3003 RMK AO1,M
VGT,2025-07-18 20:42,-115.1933,36.2111,667.00,86.00,61.00,43.19,310.00,9.00,0.00,29.96,M,10.00,21.00,OVC,M,M,M,9500.00,M,M,M,VCTS,M,M,M,M,M,M,86.14,KVGT 182042Z 31009G21KT 10SM VCTS OVC095 30/16 A2996 RMK AO2 LTG DSNT NW TSB09E24 T03000161,M
ELY,2025-07-18 20:44,-114.8453,39.2950,1909.00,75.00,45.00,34.35,M,M,T,30.20,M,10.00,M,FEW,FEW,M,M,10000.00,12000.00,M,M,M,M,M,M,M,M,M,75.00,KELY 182044Z AUTO 10SM FEW100 FEW120 24/07 A3020 RMK AO2 LTG DSNT E RAB1957E30 P0000 T02390072,M
LSV,2025-07-18 20:44,-115.0343,36.2362,570.00,100.40,48.20,17.36,200.00,26.00,0.00,29.89,1009.10,10.00,M,BKN,M,M,M,12000.00,M,M,M,VCTS,M,M,M,M,M,M,97.03,KLSV 182044Z 20026KT 10SM VCTS BKN120 38/09 A2989 RMK SLP091 $,M
RTS,2025-07-18 20:45,-119.8764,39.6682,1539.00,87.80,23.00,9.40,310.00,9.00,0.00,30.14,M,10.00,17.00,CLR,M,M,M,M,M,M,M,M,M,M,M,M,M,M,83.44,KRTS 182045Z AUTO 31009G17KT 10SM CLR 31/M05 A3014 RMK AO2,M
MEV,2025-07-18 20:45,-119.7500,38.9963,1441.42,91.40,28.40,10.51,290.00,10.00,0.00,30.10,M,10.00,15.00,CLR,M,M,M,M,M,M,M,M,M,M,M,M,M,M,86.53,KMEV 182045Z AUTO 29010G15KT 10SM CLR 33/M02 A3010 RMK AO2,M
VGT,2025-07-18 20:50,-115.1933,36.2111,667.00,84.20,60.80,45.42,310.00,13.00,0.00,29.97,M,10.00,21.00,OVC,M,M,M,9500.00,M,M,M,TS,M,M,M,M,M,M,84.45,KVGT 182050Z 31013G21KT 10SM TS OVC095 29/16 A2997 RMK AO2 LTG DSNT N TSB09E24B44,M
TMT,2025-07-18 20:50,-117.1971,39.4643,1749.34,88.70,26.80,10.71,0.00,0.00,0.00,30.13,M,10.00,M,CLR,M,M,M,M,M,M,M,M,M,M,M,M,M,M,84.37,KTMT 182050Z AUTO 00000KT 10SM CLR 32/M03 A3013 RMK AO2 T03151029,M
P68,2025-07-18 20:53,-116.0056,39.6014,1993.00,77.00,41.00,27.57,170.00,9.00,0.00,30.14,1011.40,M,M,M,M,M,M,M,M,M,M,M,M,M,M,M,M,M,77.00,KP68 182053Z AUTO 17009KT 25/05 A3014 RMK AO1 SLP114 T02500050 56008,M
DRA,2025-07-18 20:53,-116.0278,36.6206,1009.00,91.00,50.00,24.75,190.00,5.00,0.00,30.04,1011.90,10.00,15.00,FEW,M,M,M,11000.00,M,M,M,M,M,M,M,M,M,M,88.00,KDRA 182053Z AUTO 19005G15KT 10SM FEW110 33/10 A3004 RMK AO2 SLP119 T03280100 58009,M
ELY,2025-07-18 20:53,-114.8453,39.2950,1909.00,74.00,45.00,35.51,M,M,T,30.19,1011.80,10.00,M,FEW,M,M,M,11000.00,M,M,M,M,M,M,M,M,M,M,74.00,KELY 182053Z AUTO 10SM FEW110 23/07 A3019 RMK AO2 RAB1957E30 SLP118 P0000 60000 T02330072 55010,M
VGT,2025-07-18 20:53,-115.1933,36.2111,667.00,84.00,61.00,46.04,330.00,19.00,0.00,29.97,1014.00,10.00,26.00,BKN,OVC,M,M,9500.00,11000.00,M,M,TS,M,M,M,26.00,320.00,2025-07-18 20:52,84.33,KVGT 182053Z 33019G26KT 10SM TS BKN095 OVC110 29/16 A2997 RMK AO2 PK WND 32026/2052 LTG DSNT N TSB09E24B44 SLP140 T02890161 56003,M
LOL,2025-07-18 20:53,-118.5701,40.0684,1192.43,93.00,29.00,10.25,290.00,5.00,0.00,30.02,1011.90,10.00,15.00,CLR,M,M,M,M,M,M,M,M,M,M,M,M,M,M,87.81,KLOL 182053Z AUTO 29005G15KT 10SM CLR 34/M02 A3002 RMK AO2 SLP119 T03391017 58014,M
BVU,2025-07-18 20:55,-114.8611,35.9475,671.00,96.80,50.00,20.70,220.00,21.00,0.00,29.96,M,10.00,27.00,CLR,M,M,M,M,M,M,M,M,M,M,M,M,M,M,93.73,KBVU 182055Z AUTO 22021G27KT 10SM CLR 36/10 A2996 RMK AO2,M
RNO,2025-07-18 20:55,-119.7711,39.4839,1341.00,90.00,23.00,8.77,50.00,7.00,0.00,30.07,1012.20,10.00,14.00,CLR,M,M,M,M,M,M,M,M,M,M,M,M,M,M,85.05,KRNO 182055Z 05007G14KT 10SM CLR 32/M05 A3007 RMK AO2 SLP122 T03221050 58018,M
BAM,2025-07-18 20:55,-116.8743,40.5990,1382.36,96.80,23.00,7.11,270.00,14.00,0.00,30.03,M,10.00,20.00,CLR,M,M,M,M,M,M,M,M,M,M,M,M,M,M,90.25,KBAM 182055Z AUTO 27014G20KT 10SM CLR 36/M05 A3003 RMK AO1,M
CXP,2025-07-18 20:55,-119.7326,39.1923,1431.00,91.40,23.00,8.40,280.00,11.00,0.00,30.11,M,10.00,17.00,CLR,M,M,M,M,M,M,M,M,M,M,M,M,M,M,86.09,KCXP 182055Z AUTO 28011G17KT 240V300 10SM CLR 33/M05 A3011 RMK AO2,M
INS,2025-07-18 20:55,-115.6733,36.5872,955.00,87.80,49.60,26.96,170.00,8.00,0.00,30.04,1011.80,10.00,M,OVC,M,M,M,11000.00,M,M,M,M,M,M,M,26.00,210.00,2025-07-18 19:58,85.06,KINS 182055Z AUTO 17008KT 10SM OVC110 31/10 A3004 RMK AO2 PK WND 21026/1958 LTG DSNT N AND E-SE SLP118 T03100098 55004 $,M
05U,2025-07-18 20:55,-116.0051,39.6042,1811.23,77.00,41.00,27.57,0.00,0.00,0.00,30.17,M,10.00,13.00,FEW,M,M,M,12000.00,M,M,M,M,M,M,M,M,M,M,77.00,K05U 182055Z AUTO 00000G13KT 10SM FEW120 25/05 A3017 RMK A01,M
HTH,2025-07-18 20:55,-118.6315,38.5448,1282.89,91.40,28.40,10.51,360.00,9.00,0.00,30.04,M,10.00,M,CLR,M,M,M,M,M,M,M,M,M,M,M,M,M,M,86.53,KHTH 182055Z AUTO 36009KT 320V020 10SM CLR 33/M02 A3004 RMK A01,M
LSV,2025-07-18 20:55,-115.0343,36.2362,570.00,100.00,48.70,17.90,210.00,23.00,0.00,29.90,1009.40,10.00,M,BKN,M,M,M,12000.00,M,M,M,VCTS,M,M,M,28.00,240.00,2025-07-18 20:54,96.73,KLSV 182055Z 21023KT 10SM VCTS BKN120 38/09 A2990 RMK AO2A PK WND 24028/54 SLP094 T03770093 57014 $,M
EKO,2025-07-18 20:56,-115.7860,40.8242,1367.00,88.00,35.00,15.27,220.00,12.00,0.00,30.05,1011.20,10.00,23.00,CLR,M,M,M,M,M,M,M,M,M,M,M,M,M,M,84.28,KEKO 182056Z AUTO 22012G23KT 10SM CLR 31/02 A3005 RMK AO2 SLP112 T03110017 58016,M
HND,2025-07-18 20:56,-115.1344,35.9729,742.79,92.00,53.00,26.80,220.00,16.00,0.00,30.02,1015.00,10.00,20.00,CLR,M,M,M,M,M,M,M,M,M,M,M,30.00,210.00,2025-07-18 20:24,89.54,KHND 182056Z 22016G20KT 10SM CLR 33/12 A3002 RMK AO2 PK WND 21030/2024 LTG DSNT N AND SE SLP150 T03330117 55002 $,M
TPH,2025-07-18 20:56,-117.0904,38.0505,1654.00,88.00,42.00,20.08,220.00,11.00,0.00,30.13,1011.50,10.00,19.00,M,M,M,M,M,M,M,M,M,M,M,M,M,M,M,84.52,KTPH 182056Z AUTO 22011G19KT 10SM 31/06 A3013 RMK AO2 SLP115 T03110056 58015 $,M
LAS,2025-07-18 20:56,-115.1634,36.0719,663.00,93.00,54.00,26.95,200.00,16.00,0.00,29.98,1012.50,10.00,27.00,SCT,SCT,M,M,8000.00,13000.00,M,M,M,M,M,M,38.00,190.00,2025-07-18 20:28,90.78,KLAS 182056Z 20016G27KT 10SM SCT080 SCT130 34/12 A2998 RMK AO2 PK WND 19038/2028 LTG DSNT N SLP125 CB DSNT ALQDS T03390122 55005,M
NFL,2025-07-18 20:57,-118.7010,39.4166,1199.00,92.00,29.00,10.57,270.00,10.00,0.00,30.03,1013.90,9.00,M,FEW,M,M,M,8000.00,M,M,M,M,M,M,M,M,M,M,87.05,KNFL 182057Z 27010KT 9SM FEW080 33/M02 A3003 RMK AO2 WSHFT 2041 SLP139 T03331017 58014,M
VGT,2025-07-18 21:05,-115.1933,36.2111,667.00,84.00,59.00,42.87,300.00,12.00,0.00,29.98,M,10.00,19.00,BKN,M,M,M,10000.00,M,M,M,M,M,M,M,M,M,M,83.76,KVGT 182105Z 30012G19KT 10SM BKN100 29/15 A2998 RMK AO2 TSE2059 T02890150,M
LSV,2025-07-18 21:10,-115.0343,36.2362,570.00,98.60,48.20,18.32,250.00,21.00,0.00,29.91,1009.80,10.00,26.00,FEW,SCT,M,M,8000.00,12000.00,M,M,VCTS,M,M,M,M,M,M,95.19,KLSV 182110Z 25021G26KT 10SM VCTS FEW080 SCT120CB 37/09 A2991 RMK AO2A WSHFT 2055 SLP098 $,M
TMT,2025-07-18 21:10,-117.1971,39.4643,1749.34,89.00,28.00,11.15,200.00,5.00,0.00,30.13,M,10.00,15.00,CLR,M,M,M,M,M,M,M,M,M,M,M,M,M,M,84.69,KTMT 182110Z AUTO 20005G15KT 10SM CLR 32/M02 A3013 RMK AO2 T03171022,M
BVU,2025-07-18 21:15,-114.8611,35.9475,671.00,96.80,46.40,18.08,230.00,13.00,0.00,29.96,M,10.00,22.00,CLR,M,M,M,M,M,M,M,M,M,M,M,M,M,M,93.07,KBVU 182115Z AUTO 23013G22KT 10SM CLR 36/08 A2996 RMK AO2,M
BAM,2025-07-18 21:15,-116.8743,40.5990,1382.36,98.60,19.40,5.78,280.00,13.00,0.00,30.02,M,10.00,18.00,CLR,M,M,M,M,M,M,M,M,M,M,M,M,M,M,91.49,KBAM 182115Z AUTO 28013G18KT 10SM CLR 37/M07 A3002 RMK AO1,M
CXP,2025-07-18 21:15,-119.7326,39.1923,1431.00,89.60,21.20,8.23,250.00,10.00,0.00,30.11,M,10.00,18.00,CLR,M,M,M,M,M,M,M,M,M,M,M,M,M,M,84.64,KCXP 182115Z AUTO 25010G18KT 10SM CLR 32/M06 A3011 RMK AO2,M
05U,2025-07-18 21:15,-116.0051,39.6042,1811.23,75.20,42.80,31.37,170.00,11.00,0.00,30.18,M,10.00,17.00,SCT,M,M,M,11000.00,M,M,M,M,M,M,M,M,M,M,75.20,K05U 182115Z AUTO 17011G17KT 10SM SCT110 24/06 A3018 RMK A01,M
HTH,2025-07-18 21:15,-118.6315,38.5448,1282.89,91.40,30.20,11.31,340.00,10.00,0.00,30.03,M,10.00,M,CLR,M,M,M,M,M,M,M,M,M,M,M,M,M,M,86.71,KHTH 182115Z AUTO 34010KT 310V010 10SM CLR 33/M01 A3003 RMK A01,M
LSV,2025-07-18 21:23,-115.0343,36.2362,570.00,98.60,51.80,20.95,300.00,13.00,0.00,29.92,1010.10,10.00,21.00,FEW,SCT,M,M,8000.00,12000.00,M,M,VCTS,M,M,M,M,M,M,96.03,KLSV 182123Z 30013G21KT 10SM VCTS FEW080 SCT120CB 37/11 A2992 RMK AO2A WSHFT 10 SLP101 $,M
LAS,2025-07-18 21:25,-115.1634,36.0719,663.00,93.00,54.00,26.95,310.00,11.00,0.00,29.99,M,10.00,18.00,SCT,SCT,M,M,8000.00,13000.00,M,M,M,M,M,M,28.00,210.00,2025-07-18 20:58,90.78,KLAS 182125Z 31011G18KT 10SM SCT080 SCT130 34/12 A2999 RMK AO2 PK WND 21028/2058 CB DSNT ALQDS T03390122,M
TMT,2025-07-18 21:30,-117.1971,39.4643,1749.34,87.00,28.00,11.87,180.00,4.00,0.00,30.12,M,10.00,M,CLR,M,M,M,M,M,M,M,M,M,M,M,M,M,M,83.23,KTMT 182130Z AUTO 18004KT 10SM CLR 31/M02 A3012 RMK AO2 T03061022,M
VGT,2025-07-18 21:34,-115.1933,36.2111,667.00,88.00,58.00,36.42,330.00,13.00,0.00,29.98,M,10.00,22.00,CLR,M,M,M,M,M,M,M,VCTS,M,M,M,26.00,310.00,2025-07-18 21:10,87.01,KVGT 182134Z 33013G22KT 10SM VCTS CLR 31/14 A2998 RMK AO2 PK WND 31026/2110 TSE2059 T03110144,M
BVU,2025-07-18 21:35,-114.8611,35.9475,671.00,96.80,44.60,16.89,230.00,16.00,0.00,29.96,M,10.00,M,FEW,M,M,M,12000.00,M,M,M,M,M,M,M,M,M,M,92.81,KBVU 182135Z AUTO 23016KT 10SM FEW120 36/07 A2996 RMK AO2,M
BAM,2025-07-18 21:35,-116.8743,40.5990,1382.36,96.80,17.60,5.65,240.00,15.00,0.00,30.02,M,10.00,20.00,CLR,M,M,M,M,M,M,M,M,M,M,M,M,M,M,89.88,KBAM 182135Z AUTO 24015G20KT 10SM CLR 36/M08 A3002 RMK AO1,M
CXP,2025-07-18 21:35,-119.7326,39.1923,1431.00,91.40,21.20,7.78,250.00,10.00,0.00,30.11,M,10.00,16.00,CLR,M,M,M,M,M,M,M,M,M,M,M,M,M,M,85.97,KCXP 182135Z AUTO 25010G16KT 220V280 10SM CLR 33/M06 A3011 RMK AO2,M
RTS,2025-07-18 21:35,-119.8764,39.6682,1539.00,87.80,26.60,10.93,290.00,11.00,0.00,30.13,M,10.00,20.00,CLR,M,M,M,M,M,M,M,M,M,M,M,M,M,M,83.69,KRTS 182135Z AUTO 29011G20KT 10SM CLR 31/M03 A3013 RMK AO2,M
05U,2025-07-18 21:35,-116.0051,39.6042,1811.23,75.20,37.40,25.43,M,4.00,0.00,30.21,M,10.00,15.00,BKN,M,M,M,10000.00,M,M,M,M,M,M,M,M,M,M,75.20,K05U 182135Z AUTO VRB04G15KT 10SM BKN100 24/03 A3021 RMK A01,M
MEV,2025-07-18 21:35,-119.7500,38.9963,1441.42,91.40,26.60,9.76,280.00,12.00,0.00,30.09,M,10.00,M,CLR,M,M,M,M,M,M,M,M,M,M,M,M,M,M,86.37,KMEV 182135Z AUTO 28012KT 10SM CLR 33/M03 A3009 RMK AO2,M
HTH,2025-07-18 21:35,-118.6315,38.5448,1282.89,93.20,30.20,10.70,330.00,12.00,0.00,30.02,M,10.00,M,CLR,M,M,M,M,M,M,M,M,M,M,M,M,M,M,88.10,KHTH 182135Z AUTO 33012KT 10SM CLR 34/M01 A3002 RMK A01,M
VGT,2025-07-18 21:49,-115.1933,36.2111,667.00,87.80,57.20,35.61,340.00,15.00,0.00,29.97,M,10.00,27.00,CLR,M,M,M,M,M,M,M,M,M,M,M,27.00,320.00,2025-07-18 21:42,86.59,KVGT 182149Z 34015G27KT 10SM CLR 31/14 A2997 RMK AO2 PK WND 32027/2142 TSE2059,M
TMT,2025-07-18 21:50,-117.1971,39.4643,1749.34,90.50,26.80,10.12,240.00,6.00,0.00,30.11,M,10.00,14.00,CLR,M,M,M,M,M,M,M,M,M,M,M,M,M,M,85.71,KTMT 182150Z AUTO 24006G14KT 210V270 10SM CLR 33/M03 A3011 RMK AO2 T03251029,M
P68,2025-07-18 21:53,-116.0056,39.6014,1993.00,68.00,50.00,52.54,340.00,17.00,0.00,30.19,1014.70,M,28.00,M,M,M,M,M,M,M,M,M,M,M,M,28.00,340.00,2025-07-18 21:53,68.00,KP68 182153Z AUTO 34017G28KT 20/10 A3019 RMK AO1 PK WND 34028/2153 SLP147 T02000100,M
DRA,2025-07-18 21:53,-116.0278,36.6206,1009.00,90.00,52.00,27.49,120.00,11.00,0.00,30.03,1011.50,10.00,18.00,FEW,M,M,M,12000.00,M,M,M,M,M,M,M,M,M,M,87.42,KDRA 182153Z AUTO 12011G18KT 10SM FEW120 32/11 A3003 RMK AO2 SLP115 T03220111,M
ELY,2025-07-18 21:53,-114.8453,39.2950,1909.00,83.00,40.00,21.80,130.00,9.00,0.00,30.17,1010.50,10.00,19.00,CLR,M,M,M,M,M,M,M,M,M,M,M,M,M,M,80.64,KELY 182153Z AUTO 13009G19KT 10SM CLR 28/04 A3017 RMK AO2 SLP105 T02830044,M
VGT,2025-07-18 21:53,-115.1933,36.2111,667.00,87.00,58.00,37.59,330.00,15.00,0.00,29.96,1013.70,10.00,M,CLR,M,M,M,M,M,M,M,M,M,M,M,27.00,320.00,2025-07-18 21:42,86.09,KVGT 182153Z 33015KT 10SM CLR 31/14 A2996 RMK AO2 PK WND 32027/2142 TSE2059 SLP137 T03060144,M
LOL,2025-07-18 21:53,-118.5701,40.0684,1192.43,96.00,26.00,8.26,270.00,13.00,0.00,30.00,1011.20,10.00,20.00,CLR,M,M,M,M,M,M,M,M,M,M,M,M,M,M,89.85,KLOL 182153Z AUTO 27013G20KT 10SM CLR 36/M03 A3000 RMK AO2 SLP112 T03561033,M
BVU,2025-07-18 21:55,-114.8611,35.9475,671.00,95.00,42.80,16.66,270.00,8.00,0.00,29.95,M,10.00,16.00,CLR,M,M,M,M,M,M,M,M,M,M,M,M,M,M,90.87,KBVU 182155Z AUTO 27008G16KT 10SM CLR 35/06 A2995 RMK AO2,M
CXP,2025-07-18 21:55,-119.7326,39.1923,1431.00,91.40,15.80,6.17,260.00,9.00,0.00,30.10,M,10.00,M,CLR,M,M,M,M,M,M,M,M,M,M,M,M,M,M,85.68,KCXP 182155Z AUTO 26009KT 10SM CLR 33/M09 A3010 RMK AO2,M
RTS,2025-07-18 21:55,-119.8764,39.6682,1539.00,87.80,26.60,10.93,320.00,11.00,0.00,30.12,M,10.00,20.00,CLR,M,M,M,M,M,M,M,M,M,M,M,M,M,M,83.69,KRTS 182155Z AUTO 32011G20KT 300V360 10SM CLR 31/M03 A3012 RMK AO2,M
05U,2025-07-18 21:55,-116.0051,39.6042,1811.23,66.20,50.00,55.91,350.00,19.00,0.01,30.22,M,3.00,M,FEW,FEW,BKN,M,6000.00,7500.00,10000.00,M,HZ,M,M,M,M,M,M,66.20,K05U 182155Z AUTO 35019KT 3SM HZ FEW060 FEW075 BKN100 19/10 A3022 RMK A01 P0001,M
MEV,2025-07-18 21:55,-119.7500,38.9963,1441.42,89.60,28.40,11.12,290.00,13.00,0.00,30.09,M,10.00,M,CLR,M,M,M,M,M,M,M,M,M,M,M,M,M,M,85.18,KMEV 182155Z AUTO 29013KT 10SM CLR 32/M02 A3009 RMK AO2,M
BAM,2025-07-18 21:55,-116.8743,40.5990,1382.36,96.80,17.60,5.65,260.00,16.00,0.00,30.02,M,10.00,21.00,CLR,M,M,M,M,M,M,M,M,M,M,M,M,M,M,89.88,KBAM 182155Z AUTO 26016G21KT 10SM CLR 36/M08 A3002 RMK AO1,M
HTH,2025-07-18 21:55,-118.6315,38.5448,1282.89,93.20,30.20,10.70,330.00,11.00,0.00,30.01,M,10.00,M,CLR,M,M,M,M,M,M,M,M,M,M,M,M,M,M,88.10,KHTH 182155Z AUTO 33011KT 10SM CLR 34/M01 A3001 RMK A01,M
RNO,2025-07-18 21:55,-119.7711,39.4839,1341.00,95.00,25.00,8.17,250.00,9.00,0.00,30.06,1011.30,10.00,15.00,FEW,M,M,M,10000.00,M,M,M,M,M,M,M,M,M,M,88.94,KRNO 182155Z COR 25009G15KT 10SM FEW100 35/M04 A3006 RMK AO2 SLP113 T03501039,M
INS,2025-07-18 21:55,-115.6733,36.5872,955.00,91.60,46.00,20.90,180.00,8.00,0.00,30.03,1011.50,10.00,17.00,SCT,SCT,M,M,17000.00,20000.00,M,M,M,M,M,M,M,M,M,88.01,KINS 182155Z AUTO 18008G17KT 10SM SCT170 SCT200 33/08 A3003 RMK AO2 LTG DSNT N SLP115 T03310078 $,M
LSV,2025-07-18 21:55,-115.0343,36.2362,570.00,93.40,52.00,24.74,320.00,21.00,0.00,29.91,1009.90,10.00,29.00,FEW,SCT,M,M,8000.00,12000.00,M,M,M,M,M,M,29.00,310.00,2025-07-18 21:44,90.71,KLSV 182155Z 32021G29KT 10SM FEW080 SCT120 34/11 A2991 RMK AO2A PK WND 31029/44 SLP099 T03410112 $,M
EKO,2025-07-18 21:56,-115.7860,40.8242,1367.00,93.00,37.00,14.14,210.00,8.00,0.00,30.02,1009.80,10.00,M,CLR,M,M,M,M,M,M,M,M,M,M,M,M,M,M,88.63,KEKO 182156Z AUTO 21008KT 10SM CLR 34/03 A3002 RMK AO2 SLP098 T03390028,M
HND,2025-07-18 21:56,-115.1344,35.9729,742.79,91.00,56.00,30.84,220.00,8.00,0.00,30.01,1014.70,10.00,M,CLR,M,M,M,M,M,M,M,M,M,M,M,M,M,M,89.32,KHND 182156Z 22008KT 10SM CLR 33/13 A3001 RMK AO2 SLP147 T03280133 $,M
TPH,2025-07-18 21:56,-117.0904,38.0505,1654.00,88.00,42.00,20.08,170.00,15.00,0.00,30.12,1011.30,10.00,24.00,BKN,M,M,M,11000.00,M,M,M,M,M,M,M,M,M,M,84.52,KTPH 182156Z AUTO 17015G24KT 140V210 10SM BKN110 31/06 A3012 RMK AO2 SLP113 T03110056,M
LAS,2025-07-18 21:56,-115.1634,36.0719,663.00,92.00,56.00,29.90,320.00,11.00,0.00,29.98,1012.60,10.00,M,SCT,SCT,M,M,8000.00,13000.00,M,M,M,M,M,M,28.00,210.00,2025-07-18 20:58,90.32,KLAS 182156Z 32011KT 10SM SCT080 SCT130 33/13 A2998 RMK AO2 PK WND 21028/2058 SLP126 CB DSNT ALQDS T03330133,M
NFL,2025-07-18 21:57,-118.7010,39.4166,1199.00,96.00,25.00,7.93,310.00,9.00,0.00,30.01,1013.20,10.00,15.00,FEW,M,M,M,8000.00,M,M,M,M,M,M,M,M,M,M,89.76,KNFL 182157Z AUTO 31009G15KT 10SM FEW080 36/M04 A3001 RMK AO2 SLP132 T03561039,M
P68,2025-07-18 22:10,-116.0056,39.6014,1993.00,69.00,48.00,47.11,60.00,9.00,0.00,30.19,M,M,20.00,M,M,M,M,M,M,M,M,M,M,M,M,29.00,340.00,2025-07-18 21:54,69.00,KP68 182210Z AUTO 06009G20KT 21/09 A3019 RMK AO1 PK WND 34029/2154 WSHFT 2153 T02060089,M
TMT,2025-07-18 22:10,-117.1971,39.4643,1749.34,91.20,26.00,9.58,300.00,10.00,0.00,30.12,M,10.00,20.00,CLR,M,M,M,M,M,M,M,M,M,M,M,M,M,M,86.17,KTMT 182210Z AUTO 30010G20KT 270V330 10SM CLR 33/M03 A3012 RMK AO2 T03291034,M
BVU,2025-07-18 22:15,-114.8611,35.9475,671.00,95.00,44.60,17.85,250.00,12.00,0.00,29.94,M,10.00,18.00,CLR,M,M,M,M,M,M,M,M,M,M,M,M,M,M,91.07,KBVU 182215Z AUTO 25012G18KT 10SM CLR 35/07 A2994 RMK AO2,M
BAM,2025-07-18 22:15,-116.8743,40.5990,1382.36,96.80,15.80,5.23,280.00,14.00,0.00,30.01,M,10.00,20.00,CLR,M,M,M,M,M,M,M,M,M,M,M,M,M,M,89.78,KBAM 182215Z AUTO 28014G20KT 10SM CLR 36/M09 A3001 RMK AO1,M
CXP,2025-07-18 22:15,-119.7326,39.1923,1431.00,91.40,17.60,6.67,270.00,10.00,0.00,30.10,M,10.00,17.00,CLR,M,M,M,M,M,M,M,M,M,M,M,M,M,M,85.77,KCXP 182215Z AUTO 27010G17KT 10SM CLR 33/M08 A3010 RMK AO2,M
RTS,2025-07-18 22:15,-119.8764,39.6682,1539.00,89.60,23.00,8.88,300.00,16.00,0.00,30.12,M,10.00,M,CLR,M,M,M,M,M,M,M,M,M,M,M,M,M,M,84.75,KRTS 182215Z AUTO 30016KT 10SM CLR 32/M05 A3012 RMK AO2,M
05U,2025-07-18 22:15,-116.0051,39.6042,1811.23,69.80,50.00,49.40,60.00,13.00,0.00,30.20,M,9.00,M,FEW,FEW,FEW,M,2700.00,3900.00,5500.00,M,M,M,M,M,M,M,M,69.80,K05U 182215Z AUTO 06013KT 9SM FEW027 FEW039 FEW055 21/10 A3020 RMK A01,M
MEV,2025-07-18 22:15,-119.7500,38.9963,1441.42,91.40,30.20,11.31,290.00,14.00,0.00,30.08,M,10.00,M,CLR,M,M,M,M,M,M,M,M,M,M,M,M,M,M,86.71,KMEV 182215Z AUTO 29014KT 10SM CLR 33/M01 A3008 RMK AO2,M
HTH,2025-07-18 22:15,-118.6315,38.5448,1282.89,95.00,30.20,10.12,340.00,12.00,0.00,30.01,M,10.00,M,CLR,M,M,M,M,M,M,M,M,M,M,M,M,M,M,89.49,KHTH 182215Z AUTO 34012KT 10SM CLR 35/M01 A3001 RMK A01,M
TMT,2025-07-18 22:30,-117.1971,39.4643,1749.34,91.00,24.60,9.09,270.00,4.00,0.00,30.12,M,10.00,19.00,CLR,M,M,M,M,M,M,M,M,M,M,M,M,M,M,85.90,KTMT 182230Z AUTO 27004G19KT 10SM CLR 33/M04 A3012 RMK AO2 T03271041,M
BVU,2025-07-18 22:35,-114.8611,35.9475,671.00,95.00,44.60,17.85,200.00,9.00,0.00,29.93,M,10.00,16.00,CLR,M,M,M,M,M,M,M,M,M,M,M,M,M,M,91.07,KBVU 182235Z AUTO 20009G16KT 10SM CLR 35/07 A2993 RMK AO2,M
BAM,2025-07-18 22:35,-116.8743,40.5990,1382.36,96.80,17.60,5.65,270.00,14.00,0.00,30.01,M,10.00,19.00,CLR,M,M,M,M,M,M,M,M,M,M,M,M,M,M,89.88,KBAM 182235Z AUTO 27014G19KT 10SM CLR 36/M08 A3001 RMK AO1,M
CXP,2025-07-18 22:35,-119.7326,39.1923,1431.00,91.40,24.80,9.06,250.00,10.00,0.00,30.09,M,10.00,18.00,CLR,M,M,M,M,M,M,M,M,M,M,M,M,M,M,86.22,KCXP 182235Z AUTO 25010G18KT 10SM CLR 33/M04 A3009 RMK AO2,M
RTS,2025-07-18 22:35,-119.8764,39.6682,1539.00,89.60,24.80,9.58,310.00,17.00,0.00,30.11,M,10.00,23.00,CLR,M,M,M,M,M,M,M,M,M,M,M,M,M,M,84.88,KRTS 182235Z AUTO 31017G23KT 10SM CLR 32/M04 A3011 RMK AO2,M
05U,2025-07-18 22:35,-116.0051,39.6042,1811.23,71.60,48.20,43.45,90.00,10.00,0.00,30.19,M,10.00,19.00,CLR,M,M,M,M,M,M,M,M,M,M,M,M,M,M,71.60,K05U 182235Z AUTO 09010G19KT 10SM CLR 22/09 A3019 RMK A01,M
MEV,2025-07-18 22:35,-119.7500,38.9963,1441.42,91.40,32.00,12.17,280.00,12.00,0.00,30.08,M,10.00,20.00,CLR,M,M,M,M,M,M,M,M,M,M,M,M,M,M,86.92,KMEV 182235Z AUTO 28012G20KT 10SM CLR 33/00 A3008 RMK AO2,M
HTH,2025-07-18 22:35,-118.6315,38.5448,1282.89,95.00,28.40,9.40,340.00,15.00,0.00,30.00,M,10.00,M,CLR,M,M,M,M,M,M,M,M,M,M,M,M,M,M,89.28,KHTH 182235Z AUTO 34015KT 10SM CLR 35/M02 A3000 RMK A01,M
TMT,2025-07-18 22:50,-117.1971,39.4643,1749.34,90.30,24.00,9.06,340.00,10.00,0.00,30.11,M,10.00,17.00,CLR,M,M,M,M,M,M,M,M,M,M,M,M,M,M,85.34,KTMT 182250Z AUTO 34010G17KT 10SM CLR 32/M04 A3011 RMK AO2 T03241044,M
P68,2025-07-18 22:53,-116.0056,39.6014,1993.00,75.00,46.00,35.68,100.00,11.00,0.01,30.16,1012.80,M,M,M,M,M,M,M,M,M,M,M,M,M,M,29.00,340.00,2025-07-18 21:54,75.00,KP68 182253Z AUTO 10011KT 24/08 A3016 RMK AO1 PK WND 34029/2154 WSHFT 2153 SLP128 P0001 T02390078,M
DRA,2025-07-18 22:53,-116.0278,36.6206,1009.00,94.00,50.00,22.55,200.00,10.00,0.00,30.00,1010.40,10.00,15.00,SCT,M,M,M,9000.00,M,M,M,M,M,M,M,M,M,M,90.90,KDRA 182253Z AUTO 20010G15KT 10SM SCT090 34/10 A3000 RMK AO2 SLP104 T03440100,M
ELY,2025-07-18 22:53,-114.8453,39.2950,1909.00,79.00,42.00,26.83,180.00,14.00,0.00,30.17,1011.00,10.00,22.00,SCT,M,M,M,11000.00,M,M,M,M,M,M,M,M,M,M,79.00,KELY 182253Z AUTO 18014G22KT 10SM SCT110 26/06 A3017 RMK AO2 LTG DSNT SW SLP110 T02610056,M
VGT,2025-07-18 22:53,-115.1933,36.2111,667.00,90.00,54.00,29.59,340.00,11.00,0.00,29.93,1012.40,10.00,M,CLR,M,M,M,M,M,M,M,M,M,M,M,M,M,M,87.84,KVGT 182253Z 34011KT 10SM CLR 32/12 A2993 RMK AO2 SLP124 T03220122,M
LOL,2025-07-18 22:53,-118.5701,40.0684,1192.43,95.00,26.00,8.52,320.00,4.00,0.00,29.98,1010.90,10.00,23.00,CLR,M,M,M,M,M,M,M,M,M,M,M,M,M,M,89.03,KLOL 182253Z AUTO 32004G23KT 10SM CLR 35/M03 A2998 RMK AO2 SLP109 T03501033,M
BVU,2025-07-18 22:55,-114.8611,35.9475,671.00,95.00,46.40,19.11,190.00,7.00,0.00,29.92,M,10.00,14.00,CLR,M,M,M,M,M,M,M,M,M,M,M,M,M,M,91.30,KBVU 182255Z AUTO 19007G14KT 150V230 10SM CLR 35/08 A2992 RMK AO2,M
RNO,2025-07-18 22:55,-119.7711,39.4839,1341.00,95.00,25.00,8.17,260.00,13.00,0.00,30.04,1011.20,10.00,20.00,FEW,M,M,M,10000.00,M,M,M,M,M,M,M,26.00,260.00,2025-07-18 22:24,88.94,KRNO 182255Z 26013G20KT 10SM FEW100 35/M04 A3004 RMK AO2 PK WND 26026/2224 SLP112 T03501039,M
BAM,2025-07-18 22:55,-116.8743,40.5990,1382.36,96.80,14.00,4.83,270.00,15.00,0.00,30.01,M,10.00,22.00,CLR,M,M,M,M,M,M,M,M,M,M,M,M,M,M,89.69,KBAM 182255Z AUTO 27015G22KT 10SM CLR 36/M10 A3001 RMK AO1,M
CXP,2025-07-18 22:55,-119.7326,39.1923,1431.00,91.40,23.00,8.40,260.00,9.00,0.00,30.09,M,10.00,20.00,CLR,M,M,M,M,M,M,M,M,M,M,M,M,M,M,86.09,KCXP 182255Z AUTO 26009G20KT 220V280 10SM CLR 33/M05 A3009 RMK AO2,M
INS,2025-07-18 22:55,-115.6733,36.5872,955.00,91.00,49.00,23.84,90.00,12.00,0.00,29.99,1009.90,10.00,M,BKN,OVC,M,M,18000.00,20000.00,M,M,M,M,M,M,M,M,M,87.84,KINS 182255Z AUTO 09012KT 10SM BKN180 OVC200 33/10 A2999 RMK AO2 SLP099 T03270095 $,M
RTS,2025-07-18 22:55,-119.8764,39.6682,1539.00,89.60,24.80,9.58,280.00,17.00,0.00,30.11,M,10.00,23.00,CLR,M,M,M,M,M,M,M,M,M,M,M,M,M,M,84.88,KRTS 182255Z AUTO 28017G23KT 10SM CLR 32/M04 A3011 RMK AO2,M
05U,2025-07-18 22:55,-116.0051,39.6042,1811.23,75.20,46.40,35.98,100.00,9.00,0.00,30.19,M,10.00,17.00,CLR,M,M,M,M,M,M,M,M,M,M,M,M,M,M,75.20,K05U 182255Z AUTO 10009G17KT 10SM CLR 24/08 A3019 RMK A01,M
MEV,2025-07-18 22:55,-119.7500,38.9963,1441.42,89.60,33.80,13.84,280.00,14.00,0.00,30.08,M,10.00,20.00,CLR,M,M,M,M,M,M,M,M,M,M,M,M,M,M,85.59,KMEV 182255Z AUTO 28014G20KT 10SM CLR 32/01 A3008 RMK AO2,M
HTH,2025-07-18 22:55,-118.6315,38.5448,1282.89,95.00,28.40,9.40,310.00,16.00,0.00,30.00,M,10.00,M,CLR,M,M,M,M,M,M,M,M,M,M,M,M,M,M,89.28,KHTH 182255Z AUTO 31016KT 10SM CLR 35/M02 A3000 RMK A01,M
LSV,2025-07-18 22:55,-115.0343,36.2362,570.00,97.50,45.30,16.98,290.00,12.00,0.00,29.87,1008.50,10.00,M,FEW,SCT,SCT,M,8000.00,12000.00,20000.00,M,M,M,M,M,M,M,M,93.59,KLSV 182255Z 29012KT 10SM FEW080 SCT120 SCT200 36/07 A2987 RMK AO2A SLP085 T03640074 $,M
EKO,2025-07-18 22:56,-115.7860,40.8242,1367.00,94.00,30.00,10.35,230.00,16.00,0.00,30.01,1009.30,10.00,23.00,CLR,M,M,M,M,M,M,M,M,M,M,M,M,M,M,88.69,KEKO 182256Z AUTO 23016G23KT 10SM CLR 34/M01 A3001 RMK AO2 SLP093 T03441011,M
HND,2025-07-18 22:56,-115.1344,35.9729,742.79,94.00,54.00,26.13,180.00,8.00,0.00,29.97,1013.60,10.00,M,CLR,M,M,M,M,M,M,M,M,M,M,M,M,M,M,91.81,KHND 182256Z 18008KT 10SM CLR 34/12 A2997 RMK AO2 SLP136 T03440122 $,M
TPH,2025-07-18 22:56,-117.0904,38.0505,1654.00,88.00,40.00,18.59,200.00,10.00,0.00,30.10,1010.90,10.00,23.00,FEW,M,M,M,10000.00,M,M,M,M,M,M,M,28.00,180.00,2025-07-18 22:31,84.42,KTPH 182256Z AUTO 20010G23KT 170V240 10SM FEW100 31/04 A3010 RMK AO2 PK WND 18028/2231 SLP109 T03110044,M
LAS,2025-07-18 22:56,-115.1634,36.0719,663.00,93.00,53.00,25.98,340.00,6.00,0.00,29.95,1011.30,10.00,15.00,FEW,FEW,SCT,M,8000.00,13000.00,20000.00,M,M,M,M,M,M,M,M,90.54,KLAS 182256Z 34006G15KT 10SM FEW080 FEW130 SCT200 34/12 A2995 RMK AO2 SLP113 CB DSNT N-NE AND SE T03390117,M
NFL,2025-07-18 22:57,-118.7010,39.4166,1199.00,96.00,26.00,8.26,340.00,5.00,0.00,29.99,1012.60,9.00,M,FEW,M,M,M,8000.00,M,M,M,M,M,M,M,M,M,M,89.85,KNFL 182257Z 34005KT 9SM FEW080 36/M03 A2999 RMK AO2 SLP126 T03561033,M
INS,2025-07-18 22:58,-115.6733,36.5872,955.00,91.40,48.20,22.85,130.00,11.00,0.00,29.99,1009.90,10.00,M,OVC,M,M,M,19000.00,M,M,M,M,M,M,M,M,M,M,88.10,KINS 182258Z AUTO 13011KT 10SM OVC190 33/09 A2999 RMK AO2 WSHFT 53 SLP099 $,M
HTH,2025-07-18 23:10,-118.6315,38.5448,1282.89,95.00,26.60,8.73,340.00,16.00,0.00,30.00,M,10.00,22.00,CLR,M,M,M,M,M,M,M,M,M,M,M,M,M,M,89.09,KHTH 182310Z AUTO 34016G22KT 10SM CLR 35/M03 A3000 RMK A01,M
TMT,2025-07-18 23:10,-117.1971,39.4643,1749.34,90.50,23.00,8.64,310.00,15.00,0.00,30.11,M,10.00,22.00,CLR,M,M,M,M,M,M,M,M,M,M,M,M,M,M,85.42,KTMT 182310Z AUTO 31015G22KT 10SM CLR 33/M05 A3011 RMK AO2 T03251050,M
BVU,2025-07-18 23:15,-114.8611,35.9475,671.00,96.80,48.20,19.35,260.00,7.00,0.00,29.92,M,10.00,13.00,CLR,M,M,M,M,M,M,M,M,M,M,M,M,M,M,93.37,KBVU 182315Z AUTO 26007G13KT 10SM CLR 36/09 A2992 RMK AO2,M
BAM,2025-07-18 23:15,-116.8743,40.5990,1382.36,96.80,17.60,5.65,240.00,12.00,0.00,30.00,M,10.00,23.00,CLR,M,M,M,M,M,M,M,M,M,M,M,M,M,M,89.88,KBAM 182315Z AUTO 24012G23KT 10SM CLR 36/M08 A3000 RMK AO1,M
CXP,2025-07-18 23:15,-119.7326,39.1923,1431.00,91.40,19.40,7.21,270.00,10.00,0.00,30.09,M,10.00,21.00,CLR,M,M,M,M,M,M,M,M,M,M,M,M,M,M,85.86,KCXP 182315Z AUTO 27010G21KT 10SM CLR 33/M07 A3009 RMK AO2,M
RTS,2025-07-18 23:15,-119.8764,39.6682,1539.00,89.60,24.80,9.58,300.00,14.00,0.00,30.11,M,10.00,23.00,CLR,M,M,M,M,M,M,M,M,M,M,M,M,M,M,84.88,KRTS 182315Z AUTO 30014G23KT 10SM CLR 32/M04 A3011 RMK AO2,M
05U,2025-07-18 23:15,-116.0051,39.6042,1811.23,80.60,41.00,24.49,110.00,9.00,0.00,30.17,M,10.00,M,CLR,M,M,M,M,M,M,M,M,M,M,M,M,M,M,79.20,K05U 182315Z AUTO 11009KT 10SM CLR 27/05 A3017 RMK A01,M
MEV,2025-07-18 23:15,-119.7500,38.9963,1441.42,89.60,35.60,14.87,300.00,11.00,0.00,30.08,M,10.00,21.00,CLR,M,M,M,M,M,M,M,M,M,M,M,M,M,M,85.62,KMEV 182315Z AUTO 30011G21KT 10SM CLR 32/02 A3008 RMK AO2,M
05U,2025-07-18 23:30,-116.0051,39.6042,1811.23,82.40,37.40,20.08,0.00,0.00,0.00,30.16,M,10.00,12.00,CLR,M,M,M,M,M,M,M,M,M,M,M,M,M,M,80.14,K05U 182330Z AUTO 00000G12KT 10SM CLR 28/03 A3016 RMK A01,M
TMT,2025-07-18 23:30,-117.1971,39.4643,1749.34,90.00,22.00,8.41,290.00,18.00,0.00,30.11,M,10.00,25.00,CLR,M,M,M,M,M,M,M,M,M,M,M,M,M,M,84.98,KTMT 182330Z AUTO 29018G25KT 10SM CLR 32/M06 A3011 RMK AO2 T03221056,M
CXP,2025-07-18 23:35,-119.7326,39.1923,1431.00,91.40,23.00,8.40,280.00,13.00,0.00,30.09,M,10.00,M,CLR,M,M,M,M,M,M,M,M,M,M,M,M,M,M,86.09,KCXP 182335Z AUTO 28013KT 240V300 10SM CLR 33/M05 A3009 RMK AO2,M
RTS,2025-07-18 23:35,-119.8764,39.6682,1539.00,89.60,24.80,9.58,290.00,17.00,0.00,30.11,M,10.00,26.00,CLR,M,M,M,M,M,M,M,M,M,M,M,M,M,M,84.88,KRTS 182335Z AUTO 29017G26KT 10SM CLR 32/M04 A3011 RMK AO2,M
MEV,2025-07-18 23:35,-119.7500,38.9963,1441.42,89.60,35.60,14.87,300.00,12.00,0.00,30.07,M,10.00,21.00,CLR,M,M,M,M,M,M,M,M,M,M,M,M,M,M,85.62,KMEV 182335Z AUTO 30012G21KT 10SM CLR 32/02 A3007 RMK AO2,M
HTH,2025-07-18 23:35,-118.6315,38.5448,1282.89,95.00,24.80,8.10,330.00,12.00,0.00,29.99,M,10.00,19.00,CLR,M,M,M,M,M,M,M,M,M,M,M,M,M,M,88.92,KHTH 182335Z AUTO 33012G19KT 10SM CLR 35/M04 A2999 RMK A01,M
BVU,2025-07-18 23:35,-114.8611,35.9475,671.00,96.80,48.20,19.35,260.00,12.00,0.00,29.90,M,10.00,M,CLR,M,M,M,M,M,M,M,M,M,M,M,M,M,M,93.37,KBVU 182335Z AUTO 26012KT 10SM CLR 36/09 A2990 RMK AO2,M
ELY,2025-07-18 23:35,-114.8453,39.2950,1909.00,71.00,45.00,39.29,290.00,15.00,0.00,30.21,M,10.00,23.00,BKN,OVC,M,M,8000.00,10000.00,M,M,M,M,M,M,27.00,190.00,2025-07-18 23:02,71.00,KELY 182335Z AUTO 29015G23KT 10SM BKN080 OVC100 22/07 A3021 RMK AO2 PK WND 19027/2302 WSHFT 2315 LTG DSNT N AND SW T02170072,M
BAM,2025-07-18 23:35,-116.8743,40.5990,1382.36,96.80,21.20,6.59,300.00,9.00,0.00,30.00,M,10.00,19.00,CLR,M,M,M,M,M,M,M,M,M,M,M,M,M,M,90.12,KBAM 182335Z AUTO 30009G19KT 10SM CLR 36/M06 A3000 RMK AO1,M
ELY,2025-07-18 23:42,-114.8453,39.2950,1909.00,68.00,49.00,50.62,290.00,15.00,T,30.22,M,10.00,24.00,OVC,M,M,M,8500.00,M,M,M,-RA,M,M,M,27.00,190.00,2025-07-18 23:02,68.00,KELY 182342Z AUTO 29015G24KT 10SM -RA OVC085 20/09 A3022 RMK AO2 PK WND 19027/2302 WSHFT 2322 LTG DSNT SW RAB37 P0000 T02000094,M
TMT,2025-07-18 23:50,-117.1971,39.4643,1749.34,89.80,22.30,8.57,290.00,12.00,0.00,30.11,M,10.00,20.00,CLR,M,M,M,M,M,M,M,M,M,M,M,M,M,M,84.86,KTMT 182350Z AUTO 29012G20KT 10SM CLR 32/M05 A3011 RMK AO2 T03211054,M
P68,2025-07-18 23:53,-116.0056,39.6014,1993.00,82.00,38.00,20.82,170.00,14.00,0.00,30.12,1011.20,M,M,M,M,M,M,M,M,M,M,M,M,M,M,M,M,M,79.90,KP68 182353Z AUTO 17014KT 28/03 A3012 RMK AO1 SLP112 60001 T02780033 10300 20189 58004,M
DRA,2025-07-18 23:53,-116.0278,36.6206,1009.00,93.00,49.00,22.41,220.00,7.00,0.00,29.98,1009.80,10.00,17.00,CLR,M,M,M,M,M,M,M,M,M,M,M,M,M,M,89.75,KDRA 182353Z AUTO 22007G17KT 10SM CLR 34/09 A2998 RMK AO2 SLP098 T03390094 10350 20300 58018,M
ELY,2025-07-18 23:53,-114.8453,39.2950,1909.00,69.00,49.00,48.91,260.00,10.00,T,30.22,1014.20,10.00,19.00,OVC,M,M,M,9000.00,M,M,M,M,M,M,M,27.00,190.00,2025-07-18 23:02,69.00,KELY 182353Z AUTO 26010G19KT 10SM OVC090 21/09 A3022 RMK AO2 PK WND 19027/2302 WSHFT 2322 RAB37E53 SLP142 P0000 60000 T02060094 10289 20200 53006,M
VGT,2025-07-18 23:53,-115.1933,36.2111,667.00,92.00,52.00,25.83,M,M,0.00,29.91,1011.90,10.00,M,CLR,M,M,M,M,M,M,M,M,M,M,M,M,M,M,89.33,KVGT 182353Z 10SM CLR 33/11 A2991 RMK AO2 SLP119 T03330111 10356 20283 58016,M
LOL,2025-07-18 23:53,-118.5701,40.0684,1192.43,96.00,19.00,6.15,250.00,14.00,0.00,29.98,1010.90,10.00,25.00,CLR,M,M,M,M,M,M,M,M,M,M,M,M,M,M,89.31,KLOL 182353Z AUTO 25014G25KT 10SM CLR 36/M07 A2998 RMK AO2 SLP109 T03561072 10367 20300 56012,M
BVU,2025-07-18 23:55,-114.8611,35.9475,671.00,96.80,48.20,19.35,200.00,7.00,0.00,29.90,M,10.00,13.00,CLR,M,M,M,M,M,M,M,M,M,M,M,M,M,M,93.37,KBVU 182355Z AUTO 20007G13KT 170V230 10SM CLR 36/09 A2990 RMK AO2,M
RNO,2025-07-18 23:55,-119.7711,39.4839,1341.00,94.00,28.00,9.54,300.00,12.00,0.00,30.04,1011.10,10.00,M,FEW,M,M,M,10000.00,M,M,M,M,M,M,M,M,M,M,88.47,KRNO 182355Z 30012KT 10SM FEW100 34/M02 A3004 RMK AO2 SLP111 T03441022 10356 20267 56010,M
BAM,2025-07-18 23:55,-116.8743,40.5990,1382.36,96.80,21.20,6.59,240.00,13.00,0.00,29.99,M,10.00,19.00,CLR,M,M,M,M,M,M,M,M,M,M,M,M,M,M,90.12,KBAM 182355Z AUTO 24013G19KT 10SM CLR 36/M06 A2999 RMK AO1,M
CXP,2025-07-18 23:55,-119.7326,39.1923,1431.00,89.60,28.40,11.12,280.00,13.00,0.00,30.09,M,10.00,22.00,CLR,M,M,M,M,M,M,M,M,M,M,M,M,M,M,85.18,KCXP 182355Z AUTO 28013G22KT 10SM CLR 32/M02 A3009 RMK AO2,M
INS,2025-07-18 23:55,-115.6733,36.5872,955.00,91.00,48.00,22.96,70.00,8.00,0.00,29.98,1009.80,10.00,M,CLR,M,M,M,M,M,M,M,M,M,M,M,M,M,M,87.70,KINS 182355Z AUTO 07008KT 10SM CLR 33/09 A2998 RMK AO2 SLP098 T03280089 10334 20302 57019 $,M
RTS,2025-07-18 23:55,-119.8764,39.6682,1539.00,87.80,24.80,10.14,290.00,14.00,0.00,30.11,M,10.00,M,CLR,M,M,M,M,M,M,M,M,M,M,M,M,M,M,83.56,KRTS 182355Z AUTO 29014KT 10SM CLR 31/M04 A3011 RMK AO2,M
05U,2025-07-18 23:55,-116.0051,39.6042,1811.23,82.40,37.40,20.08,150.00,11.00,0.00,30.16,M,10.00,M,CLR,M,M,M,M,M,M,M,M,M,M,M,M,M,M,80.14,K05U 182355Z AUTO 15011KT 10SM CLR 28/03 A3016 RMK A01,M
MEV,2025-07-18 23:55,-119.7500,38.9963,1441.42,89.60,35.60,14.87,280.00,13.00,0.00,30.07,M,10.00,19.00,CLR,M,M,M,M,M,M,M,M,M,M,M,M,M,M,85.62,KMEV 182355Z AUTO 28013G19KT 10SM CLR 32/02 A3007 RMK AO2,M
HTH,2025-07-18 23:55,-118.6315,38.5448,1282.89,95.00,21.20,6.96,340.00,15.00,0.00,29.99,M,10.00,M,CLR,M,M,M,M,M,M,M,M,M,M,M,M,M,M,88.63,KHTH 182355Z AUTO 34015KT 10SM CLR 35/M06 A2999 RMK A01,M
LSV,2025-07-18 23:55,-115.0343,36.2362,570.00,95.70,48.20,20.01,220.00,6.00,0.00,29.86,1008.20,10.00,M,FEW,FEW,M,M,10000.00,15000.00,M,M,M,M,M,M,M,M,M,92.27,KLSV 182355Z 22006KT 10SM FEW100 FEW150 35/09 A2986 RMK AO2A SLP082 T03540090 10379 20333 58015 $,M
EKO,2025-07-18 23:56,-115.7860,40.8242,1367.00,93.00,19.00,6.74,280.00,20.00,0.00,30.00,1009.60,10.00,27.00,CLR,M,M,M,M,M,M,M,M,M,M,M,28.00,260.00,2025-07-18 23:17,87.01,KEKO 182356Z AUTO 28020G27KT 10SM CLR 34/M07 A3000 RMK AO2 PK WND 26028/2317 SLP096 T03391072 10350 20289 56013,M
HND,2025-07-18 23:56,-115.1344,35.9729,742.79,96.00,49.00,20.43,230.00,12.00,0.00,29.95,1012.70,10.00,M,CLR,M,M,M,M,M,M,M,M,M,M,M,M,M,M,92.72,KHND 182356Z AUTO 23012KT 10SM CLR 36/09 A2995 RMK AO2 SLP127 T03560094 10361 20317 58020 $,M
TPH,2025-07-18 23:56,-117.0904,38.0505,1654.00,87.00,39.00,18.45,180.00,12.00,0.00,30.09,1010.90,10.00,M,CLR,M,M,M,M,M,M,M,M,M,M,M,27.00,210.00,2025-07-18 23:08,83.57,KTPH 182356Z AUTO 18012KT 10SM CLR 31/04 A3009 RMK AO2 PK WND 21027/2308 LTG DSNT NE SLP109 T03060039 10322 20272 56014,M
LAS,2025-07-18 23:56,-115.1634,36.0719,663.00,95.00,53.00,24.43,M,3.00,0.00,29.92,1010.20,10.00,M,FEW,FEW,SCT,M,8000.00,13000.00,20000.00,M,M,M,M,M,M,M,M,92.58,KLAS 182356Z VRB03KT 10SM FEW080 FEW130 SCT200 35/12 A2992 RMK AO2 SLP102 CB DSNT NE AND SE T03500117 10372 20328 58021,M
NFL,2025-07-18 23:57,-118.7010,39.4166,1199.00,97.00,22.00,6.78,360.00,8.00,0.00,29.97,1012.10,10.00,M,FEW,M,M,M,8000.00,M,M,M,M,M,M,M,M,M,M,90.34,KNFL 182357Z 36008KT 10SM FEW080 36/M06 A2997 RMK AO2 SLP121 T03611056 10367 20300 56018,M
