station,valid,lon,lat,elevation,tmpf,dwpf,relh,drct,sknt,p01i,alti,mslp,vsby,gust,skyc1,skyc2,skyc3,skyc4,skyl1,skyl2,skyl3,skyl4,wxcodes,ice_accretion_1hr,ice_accretion_3hr,ice_accretion_6hr,peak_wind_gust,peak_wind_drct,peak_wind_time,feel,metar,snowdepth
RTS,2022-09-29 00:15,-119.8764,39.6682,1539.00,75.20,28.40,17.70,220.00,20.00,0.00,30.14,M,10.00,33.00,CLR,M,M,M,M,M,M,M,M,M,M,M,M,M,M,75.20,KRTS 290015Z AUTO 22020G33KT 10SM CLR 24/M02 A3014 RMK AO2,M
TMT,2022-09-29 00:15,-117.1971,39.4643,1749.34,M,M,M,240.00,10.00,0.00,30.16,M,10.00,M,CLR,M,M,M,M,M,M,M,M,M,M,M,M,M,M,M,KTMT 290015Z AUTO 24010KT 10SM CLR A3016 RMK AO2 LTG DSNT SE,M
HTH,2022-09-29 00:15,-118.6315,38.5448,1282.89,87.80,24.80,10.12,250.00,12.00,0.00,30.06,M,10.00,M,CLR,M,M,M,M,M,M,M,M,M,M,M,M,M,M,83.56,KHTH 290015Z AUTO 25012KT 10SM CLR 31/M04 A3006 RMK A01,M
MEV,2022-09-29 00:15,-119.7500,38.9963,1441.42,78.80,32.00,18.18,230.00,19.00,0.00,30.12,M,10.00,M,CLR,M,M,M,M,M,M,M,M,M,M,M,M,M,M,78.80,KMEV 290015Z AUTO 23019KT 10SM CLR 26/M00 A3012 RMK AO2,M
05U,2022-09-29 00:15,-116.0051,39.6042,1811.23,78.80,37.40,22.54,180.00,21.00,0.00,30.18,M,10.00,M,FEW,M,M,M,12000.00,M,M,M,M,M,M,M,M,M,M,78.80,K05U 290015Z AUTO 18021KT 10SM FEW120 26/03 A3018 RMK A01,M
BVU,2022-09-29 00:15,-114.8611,35.9475,671.00,89.60,50.00,25.79,20.00,9.00,0.00,30.00,M,10.00,14.00,CLR,M,M,M,M,M,M,M,M,M,M,M,M,M,M,86.70,KBVU 290015Z AUTO 02009G14KT 10SM CLR 32/10 A3000 RMK AO2,M
BAM,2022-09-29 00:15,-116.8743,40.5990,1382.36,86.00,30.20,13.38,260.00,13.00,0.00,30.07,M,10.00,17.00,CLR,M,M,M,M,M,M,M,M,M,M,M,M,M,M,82.64,KBAM 290015Z AUTO 26013G17KT 10SM CLR 30/M01 A3007 RMK AO1,M
CXP,2022-09-29 00:15,-119.7326,39.1923,1431.00,80.60,32.00,17.14,210.00,10.00,0.00,30.13,M,10.00,26.00,CLR,M,M,M,M,M,M,M,M,M,M,M,M,M,M,78.82,KCXP 290015Z AUTO 21010G26KT 10SM CLR 27/00 A3013 RMK AO2,M
HTH,2022-09-29 00:35,-118.6315,38.5448,1282.89,86.00,24.80,10.72,250.00,14.00,0.00,30.06,M,10.00,21.00,CLR,M,M,M,M,M,M,M,M,M,M,M,M,M,M,82.26,KHTH 290035Z AUTO 25014G21KT 10SM CLR 30/M04 A3006 RMK A01,M
TMT,2022-09-29 00:35,-117.1971,39.4643,1749.34,M,M,M,240.00,8.00,0.00,30.16,M,10.00,M,CLR,M,M,M,M,M,M,M,M,M,M,M,M,M,M,M,KTMT 290035Z AUTO 24008KT 10SM CLR A3016 RMK AO2,M
BVU,2022-09-29 00:35,-114.8611,35.9475,671.00,89.60,50.00,25.79,10.00,10.00,0.00,30.00,M,10.00,M,CLR,M,M,M,M,M,M,M,M,M,M,M,M,M,M,86.70,KBVU 290035Z AUTO 01010KT 10SM CLR 32/10 A3000 RMK AO2,M
CXP,2022-09-29 00:35,-119.7326,39.1923,1431.00,78.80,32.00,18.18,230.00,14.00,0.00,30.12,M,10.00,24.00,CLR,M,M,M,M,M,M,M,M,M,M,M,M,M,M,78.80,KCXP 290035Z AUTO 23014G24KT 10SM CLR 26/M00 A3012 RMK AO2,M
RTS,2022-09-29 00:35,-119.8764,39.6682,1539.00,75.20,28.40,17.70,240.00,21.00,0.00,30.14,M,10.00,M,CLR,M,M,M,M,M,M,M,M,M,M,M,M,M,M,75.20,KRTS 290035Z AUTO 24021KT 10SM CLR 24/M02 A3014 RMK AO2,M
05U,2022-09-29 00:35,-116.0051,39.6042,1811.23,77.00,39.20,25.67,190.00,18.00,0.00,30.18,M,10.00,M,FEW,M,M,M,12000.00,M,M,M,M,M,M,M,M,M,M,77.00,K05U 290035Z AUTO 19018KT 10SM FEW120 25/04 A3018 RMK A01,M
MEV,2022-09-29 00:35,-119.7500,38.9963,1441.42,78.80,32.00,18.18,250.00,15.00,0.00,30.11,M,10.00,26.00,CLR,M,M,M,M,M,M,M,M,M,M,M,M,M,M,78.80,KMEV 290035Z AUTO 25015G26KT 10SM CLR 26/M00 A3011 RMK AO2,M
BAM,2022-09-29 00:35,-116.8743,40.5990,1382.36,84.20,28.40,13.18,250.00,14.00,0.00,30.07,M,10.00,20.00,CLR,M,M,M,M,M,M,M,M,M,M,M,M,M,M,81.25,KBAM 290035Z AUTO 25014G20KT 10SM CLR 29/M02 A3007 RMK AO1,M
TPH,2022-09-29 00:43,-117.0904,38.0505,1654.00,82.00,28.90,14.44,200.00,11.00,0.00,30.16,M,10.00,M,CLR,M,M,M,M,M,M,M,M,M,M,M,M,M,M,79.67,KTPH 290043Z AUTO 20011KT 10SM CLR 28/M02 A3016 RMK AO2 WSHFT 0023 T02781017,M
ELY,2022-09-29 00:53,-114.8453,39.2950,1909.00,69.00,42.00,37.50,170.00,15.00,0.00,30.24,1017.30,10.00,20.00,CLR,M,M,M,M,M,M,M,M,M,M,M,M,M,M,69.10,KELY 290053Z AUTO 17015G20KT 10SM CLR 21/06 A3024 RMK AO2 SLP173 T02060056,M
P68,2022-09-29 00:53,-116.0056,39.6014,1993.00,72.00,41.00,32.56,190.00,18.00,0.00,30.16,1014.90,M,28.00,M,M,M,M,M,M,M,M,M,M,M,M,33.00,180.00,2022-09-29 00:13,72.00,KP68 290053Z AUTO 19018G28KT 22/05 A3016 RMK AO1 PK WND 18033/0013 SLP149 T02220050,M
DRA,2022-09-29 00:53,-116.0278,36.6206,1009.00,87.00,46.00,24.02,0.00,0.00,0.00,30.04,1012.60,10.00,M,SCT,M,M,M,11000.00,M,M,M,M,M,M,M,M,M,M,84.07,KDRA 290053Z AUTO 00000KT 10SM SCT110 31/08 A3004 RMK AO2 SLP126 T03060078,M
LOL,2022-09-29 00:53,-118.5701,40.0684,1192.43,84.00,28.00,13.04,250.00,17.00,0.00,30.01,1013.30,10.00,M,CLR,M,M,M,M,M,M,M,M,M,M,M,M,M,M,81.10,KLOL 290053Z AUTO 25017KT 10SM CLR 29/M02 A3001 RMK AO2 SLP133 T02891022,M
VGT,2022-09-29 00:53,-115.1933,36.2111,667.00,89.00,53.00,29.37,120.00,6.00,0.00,30.01,1015.20,10.00,M,CLR,M,M,M,M,M,M,M,M,M,M,M,M,M,M,86.79,KVGT 290053Z 12006KT 10SM CLR 32/12 A3001 RMK AO2 SLP152 T03170117,M
RNO,2022-09-29 00:55,-119.7711,39.4839,1341.00,79.00,37.00,22.05,200.00,13.00,0.00,30.08,1014.30,10.00,M,FEW,SCT,BKN,M,9000.00,15000.00,22000.00,M,M,M,M,M,27.00,220.00,2022-09-28 23:58,79.00,KRNO 290055Z 20013KT 10SM FEW090 SCT150 BKN220 26/03 A3008 RMK AO2 PK WND 22027/2358 SLP143 ACSL DSNT E T02610028,M
BVU,2022-09-29 00:55,-114.8611,35.9475,671.00,89.60,50.00,25.79,10.00,9.00,0.00,30.01,M,10.00,M,CLR,M,M,M,M,M,M,M,M,M,M,M,M,M,M,86.70,KBVU 290055Z AUTO 01009KT 10SM CLR 32/10 A3001 RMK AO2,M
RTS,2022-09-29 00:55,-119.8764,39.6682,1539.00,73.40,30.20,20.23,240.00,15.00,0.00,30.14,M,10.00,35.00,CLR,M,M,M,M,M,M,M,M,M,M,M,M,M,M,73.40,KRTS 290055Z AUTO 24015G35KT 10SM CLR 23/M01 A3014 RMK AO2,M
05U,2022-09-29 00:55,-116.0051,39.6042,1811.23,73.40,41.00,31.05,190.00,16.00,0.00,30.18,M,10.00,M,CLR,M,M,M,M,M,M,M,M,M,M,M,M,M,M,73.40,K05U 290055Z AUTO 19016KT 10SM CLR 23/05 A3018 RMK A01,M
MEV,2022-09-29 00:55,-119.7500,38.9963,1441.42,77.00,32.00,19.30,220.00,11.00,0.00,30.11,M,10.00,24.00,CLR,M,M,M,M,M,M,M,M,M,M,M,M,M,M,77.00,KMEV 290055Z AUTO 22011G24KT 10SM CLR 25/00 A3011 RMK AO2,M
BAM,2022-09-29 00:55,-116.8743,40.5990,1382.36,84.20,30.20,14.18,250.00,14.00,0.00,30.07,M,10.00,17.00,CLR,M,M,M,M,M,M,M,M,M,M,M,M,M,M,81.26,KBAM 290055Z AUTO 25014G17KT 10SM CLR 29/M01 A3007 RMK AO1,M
HTH,2022-09-29 00:55,-118.6315,38.5448,1282.89,86.00,24.80,10.72,250.00,15.00,0.00,30.06,M,10.00,M,CLR,M,M,M,M,M,M,M,M,M,M,M,M,M,M,82.26,KHTH 290055Z AUTO 25015KT 10SM CLR 30/M04 A3006 RMK A01,M
TMT,2022-09-29 00:55,-117.1971,39.4643,1749.34,M,M,M,230.00,7.00,0.00,30.16,M,10.00,M,SCT,M,M,M,12000.00,M,M,M,M,M,M,M,M,M,M,M,KTMT 290055Z AUTO 23007KT 10SM SCT120 A3016 RMK AO2,M
CXP,2022-09-29 00:55,-119.7326,39.1923,1431.00,77.00,32.00,19.30,210.00,10.00,0.00,30.12,M,10.00,19.00,CLR,M,M,M,M,M,M,M,M,M,M,M,M,M,M,77.00,KCXP 290055Z AUTO 21010G19KT 10SM CLR 25/M00 A3012 RMK AO2,M
TPH,2022-09-29 00:56,-117.0904,38.0505,1654.00,82.00,28.90,14.44,210.00,10.00,0.00,30.16,1014.50,10.00,M,CLR,M,M,M,M,M,M,M,M,M,M,M,M,M,M,79.67,KTPH 290056Z AUTO 21010KT 10SM CLR 28/M02 A3016 RMK AO2 WSHFT 0023 SLP145 T02781017,M
EKO,2022-09-29 00:56,-115.7860,40.8242,1367.00,78.00,32.00,18.61,0.00,0.00,0.00,30.07,1014.40,10.00,M,CLR,M,M,M,M,M,M,M,M,M,M,M,M,M,M,78.10,KEKO 290056Z AUTO 00000KT 10SM CLR 26/00 A3007 RMK AO2 SLP144 T02560000,M
WMC,2022-09-29 00:56,-117.8072,40.9019,1315.00,83.00,30.00,14.67,240.00,12.00,0.00,30.02,1012.70,10.00,19.00,FEW,M,M,M,12000.00,M,M,M,M,M,M,M,M,M,M,80.31,KWMC 290056Z AUTO 24012G19KT 10SM FEW120 28/M01 A3002 RMK AO2 SLP127 T02831011,M
NFL,2022-09-29 00:56,-118.7010,39.4166,1199.00,84.00,28.90,13.53,260.00,17.00,0.00,30.02,1013.60,10.00,22.00,FEW,FEW,FEW,M,8000.00,15000.00,25000.00,M,M,M,M,M,M,M,M,81.10,KNFL 290056Z 26017G22KT 10SM FEW080 FEW150 FEW250 29/M02 A3002 RMK AO2 SLP136 ACSL W-NW T02891017,M
HND,2022-09-29 00:56,-115.1344,35.9729,742.79,87.00,54.00,32.34,M,3.00,0.00,30.06,1016.60,10.00,M,CLR,M,M,M,M,M,M,M,M,M,M,M,M,M,M,85.19,KHND 290056Z VRB03KT 10SM CLR 31/12 A3006 RMK AO2 SLP166 T03060122,M
LAS,2022-09-29 00:56,-115.1634,36.0719,663.00,88.00,53.00,30.41,360.00,4.00,0.00,30.02,1014.00,10.00,M,FEW,FEW,SCT,M,8000.00,12000.00,25000.00,M,M,M,M,M,M,M,M,85.80,KLAS 290056Z 36004KT 10SM FEW080 FEW120 SCT250 31/12 A3002 RMK AO2 SLP140 CB DSNT SE T03110117,M
LSV,2022-09-29 00:56,-115.0343,36.2362,570.00,88.20,55.40,32.87,50.00,12.00,0.00,29.97,1012.50,10.00,M,CLR,M,M,M,M,M,M,M,M,M,M,M,M,M,M,86.48,KLSV 290056Z AUTO 05012KT 10SM CLR 31/13 A2997 RMK AO2 SLP125 T03120130 $,M
INS,2022-09-29 00:56,-115.6733,36.5872,955.00,82.20,50.20,32.91,100.00,13.00,0.00,30.04,1013.00,10.00,M,CLR,M,M,M,M,M,M,M,M,M,M,M,M,M,M,80.88,KINS 290056Z AUTO 10013KT 10SM CLR 28/10 A3004 RMK AO2 SLP130 T02790101 $,M
MEV,2022-09-29 01:15,-119.7500,38.9963,1441.42,77.00,32.00,19.30,200.00,12.00,0.00,30.11,M,10.00,M,CLR,M,M,M,M,M,M,M,M,M,M,M,M,M,M,77.00,KMEV 290115Z AUTO 20012KT 10SM CLR 25/00 A3011 RMK AO2,M
HTH,2022-09-29 01:15,-118.6315,38.5448,1282.89,84.20,24.80,11.35,240.00,10.00,0.00,30.07,M,10.00,18.00,CLR,M,M,M,M,M,M,M,M,M,M,M,M,M,M,81.00,KHTH 290115Z AUTO 24010G18KT 10SM CLR 29/M04 A3007 RMK A01,M
TMT,2022-09-29 01:15,-117.1971,39.4643,1749.34,M,M,M,220.00,6.00,0.00,30.16,M,10.00,M,CLR,M,M,M,M,M,M,M,M,M,M,M,M,M,M,M,KTMT 290115Z AUTO 22006KT 10SM CLR A3016 RMK AO2 LTG DSNT SE,M
BAM,2022-09-29 01:15,-116.8743,40.5990,1382.36,82.40,28.40,13.96,240.00,9.00,0.00,30.07,M,10.00,M,CLR,M,M,M,M,M,M,M,M,M,M,M,M,M,M,79.94,KBAM 290115Z AUTO 24009KT 10SM CLR 28/M02 A3007 RMK AO1,M
05U,2022-09-29 01:15,-116.0051,39.6042,1811.23,71.60,41.00,33.00,180.00,14.00,0.00,30.19,M,10.00,21.00,CLR,M,M,M,M,M,M,M,M,M,M,M,M,M,M,71.60,K05U 290115Z AUTO 18014G21KT 10SM CLR 22/05 A3019 RMK A01,M
BVU,2022-09-29 01:15,-114.8611,35.9475,671.00,87.80,50.00,27.29,10.00,7.00,0.00,30.01,M,10.00,M,CLR,M,M,M,M,M,M,M,M,M,M,M,M,M,M,85.11,KBVU 290115Z AUTO 01007KT 10SM CLR 31/10 A3001 RMK AO2,M
CXP,2022-09-29 01:15,-119.7326,39.1923,1431.00,77.00,32.00,19.30,210.00,6.00,0.00,30.13,M,10.00,15.00,CLR,M,M,M,M,M,M,M,M,M,M,M,M,M,M,77.00,KCXP 290115Z AUTO 21006G15KT 10SM CLR 25/00 A3013 RMK AO2,M
RTS,2022-09-29 01:15,-119.8764,39.6682,1539.00,73.40,28.40,18.80,240.00,17.00,0.00,30.14,M,10.00,22.00,CLR,M,M,M,M,M,M,M,M,M,M,M,M,M,M,73.40,KRTS 290115Z AUTO 24017G22KT 10SM CLR 23/M02 A3014 RMK AO2,M
HTH,2022-09-29 01:35,-118.6315,38.5448,1282.89,82.40,24.80,12.03,230.00,8.00,0.00,30.07,M,10.00,16.00,CLR,M,M,M,M,M,M,M,M,M,M,M,M,M,M,79.79,KHTH 290135Z AUTO 23008G16KT 10SM CLR 28/M04 A3007 RMK A01,M
BVU,2022-09-29 01:35,-114.8611,35.9475,671.00,87.80,50.00,27.29,20.00,6.00,0.00,30.01,M,10.00,M,CLR,M,M,M,M,M,M,M,M,M,M,M,M,M,M,85.11,KBVU 290135Z AUTO 02006KT 10SM CLR 31/10 A3001 RMK AO2,M
CXP,2022-09-29 01:35,-119.7326,39.1923,1431.00,75.20,32.00,20.49,220.00,8.00,0.00,30.13,M,10.00,19.00,CLR,M,M,M,M,M,M,M,M,M,M,M,M,M,M,75.20,KCXP 290135Z AUTO 22008G19KT 200V270 10SM CLR 24/00 A3013 RMK AO2,M
RTS,2022-09-29 01:35,-119.8764,39.6682,1539.00,71.60,28.40,19.98,240.00,16.00,0.00,30.14,M,10.00,24.00,CLR,M,M,M,M,M,M,M,M,M,M,M,M,M,M,71.60,KRTS 290135Z AUTO 24016G24KT 10SM CLR 22/M02 A3014 RMK AO2,M
05U,2022-09-29 01:35,-116.0051,39.6042,1811.23,71.60,41.00,33.00,180.00,14.00,0.00,30.19,M,10.00,M,CLR,M,M,M,M,M,M,M,M,M,M,M,M,M,M,71.60,K05U 290135Z AUTO 18014KT 10SM CLR 22/05 A3019 RMK A01,M
MEV,2022-09-29 01:35,-119.7500,38.9963,1441.42,73.40,32.00,21.76,190.00,12.00,0.00,30.12,M,10.00,19.00,CLR,M,M,M,M,M,M,M,M,M,M,M,M,M,M,73.40,KMEV 290135Z AUTO 19012G19KT 10SM CLR 23/M00 A3012 RMK AO2,M
BAM,2022-09-29 01:35,-116.8743,40.5990,1382.36,78.80,30.20,16.90,270.00,5.00,0.00,30.06,M,10.00,M,CLR,M,M,M,M,M,M,M,M,M,M,M,M,M,M,78.80,KBAM 290135Z AUTO 27005KT 10SM CLR 26/M01 A3006 RMK AO1,M
TMT,2022-09-29 01:35,-117.1971,39.4643,1749.34,M,M,M,230.00,7.00,0.00,30.16,M,10.00,M,CLR,M,M,M,M,M,M,M,M,M,M,M,M,M,M,M,KTMT 290135Z AUTO 23007KT 10SM CLR A3016 RMK AO2,M
DRA,2022-09-29 01:53,-116.0278,36.6206,1009.00,84.00,46.00,26.52,110.00,8.00,0.00,30.04,1012.70,10.00,M,FEW,M,M,M,12000.00,M,M,M,M,M,M,M,M,M,M,81.69,KDRA 290153Z AUTO 11008KT 10SM FEW120 29/08 A3004 RMK AO2 SLP127 T02890078,M
LOL,2022-09-29 01:53,-118.5701,40.0684,1192.43,79.00,28.00,15.35,260.00,19.00,0.00,30.01,1013.80,10.00,M,CLR,M,M,M,M,M,M,M,M,M,M,M,M,M,M,79.00,KLOL 290153Z AUTO 26019KT 10SM CLR 26/M02 A3001 RMK AO2 SLP138 T02611022,M
P68,2022-09-29 01:53,-116.0056,39.6014,1993.00,70.00,40.00,33.39,170.00,15.00,0.00,30.18,1015.80,M,M,M,M,M,M,M,M,M,M,M,M,M,M,27.00,180.00,2022-09-29 01:05,70.00,KP68 290153Z AUTO 17015KT 21/04 A3018 RMK AO1 PK WND 18027/0105 SLP158 T02110044,M
VGT,2022-09-29 01:53,-115.1933,36.2111,667.00,86.00,56.00,35.90,130.00,6.00,0.00,30.01,1015.70,10.00,M,CLR,M,M,M,M,M,M,M,M,M,M,M,M,M,M,84.66,KVGT 290153Z 13006KT 10SM CLR 30/13 A3001 RMK AO2 SLP157 T03000133,M
ELY,2022-09-29 01:53,-114.8453,39.2950,1909.00,67.00,42.00,40.45,150.00,15.00,0.00,30.24,1017.40,10.00,23.00,CLR,M,M,M,M,M,M,M,M,M,M,M,26.00,160.00,2022-09-29 01:15,66.90,KELY 290153Z AUTO 15015G23KT 10SM CLR 19/06 A3024 RMK AO2 PK WND 16026/0115 SLP174 T01940056,M
BAM,2022-09-29 01:55,-116.8743,40.5990,1382.36,77.00,30.20,17.94,270.00,6.00,0.00,30.07,M,10.00,M,CLR,M,M,M,M,M,M,M,M,M,M,M,M,M,M,77.00,KBAM 290155Z AUTO 27006KT 10SM CLR 25/M01 A3007 RMK AO1,M
RTS,2022-09-29 01:55,-119.8764,39.6682,1539.00,69.80,28.40,21.24,240.00,11.00,0.00,30.15,M,10.00,18.00,CLR,M,M,M,M,M,M,M,M,M,M,M,M,M,M,69.80,KRTS 290155Z AUTO 24011G18KT 10SM CLR 21/M02 A3015 RMK AO2,M
TMT,2022-09-29 01:55,-117.1971,39.4643,1749.34,M,M,M,220.00,5.00,0.00,30.16,M,10.00,M,CLR,M,M,M,M,M,M,M,M,M,M,M,M,M,M,M,KTMT 290155Z AUTO 22005KT 10SM CLR A3016 RMK AO2,M
05U,2022-09-29 01:55,-116.0051,39.6042,1811.23,69.80,39.20,32.72,170.00,15.00,0.00,30.20,M,10.00,M,FEW,M,M,M,12000.00,M,M,M,M,M,M,M,M,M,M,69.80,K05U 290155Z AUTO 17015KT 10SM FEW120 21/04 A3020 RMK A01,M
MEV,2022-09-29 01:55,-119.7500,38.9963,1441.42,73.40,30.20,20.23,190.00,19.00,0.00,30.12,M,10.00,M,CLR,M,M,M,M,M,M,M,M,M,M,M,M,M,M,73.40,KMEV 290155Z AUTO 19019KT 10SM CLR 23/M01 A3012 RMK AO2,M
CXP,2022-09-29 01:55,-119.7326,39.1923,1431.00,75.20,32.00,20.49,210.00,10.00,0.00,30.13,M,10.00,17.00,CLR,M,M,M,M,M,M,M,M,M,M,M,M,M,M,75.20,KCXP 290155Z AUTO 21010G17KT 190V250 10SM CLR 24/00 A3013 RMK AO2,M
RNO,2022-09-29 01:55,-119.7711,39.4839,1341.00,76.00,36.00,23.48,190.00,16.00,0.00,30.09,1014.90,10.00,M,FEW,FEW,SCT,M,9000.00,15000.00,22000.00,M,M,M,M,M,M,M,M,75.90,KRNO 290155Z 19016KT 10SM FEW090 FEW150 SCT220 24/02 A3009 RMK AO2 SLP149 T02440022,M
HTH,2022-09-29 01:55,-118.6315,38.5448,1282.89,80.60,24.80,12.76,240.00,9.00,0.00,30.07,M,10.00,M,CLR,M,M,M,M,M,M,M,M,M,M,M,M,M,M,78.94,KHTH 290155Z AUTO 24009KT 10SM CLR 27/M04 A3007 RMK A01,M
BVU,2022-09-29 01:55,-114.8611,35.9475,671.00,86.00,51.80,30.90,360.00,8.00,0.00,30.01,M,10.00,M,CLR,M,M,M,M,M,M,M,M,M,M,M,M,M,M,83.87,KBVU 290155Z AUTO 36008KT 10SM CLR 30/11 A3001 RMK AO2,M
LAS,2022-09-29 01:56,-115.1634,36.0719,663.00,86.00,53.00,32.41,20.00,6.00,0.00,30.03,1014.50,10.00,M,FEW,FEW,SCT,M,8000.00,12000.00,25000.00,M,M,M,M,M,M,M,M,84.09,KLAS 290156Z 02006KT 10SM FEW080 FEW120 SCT250 30/12 A3003 RMK AO2 SLP145 ACC E-SE T03000117,M
EKO,2022-09-29 01:56,-115.7860,40.8242,1367.00,73.00,32.00,22.06,180.00,4.00,0.00,30.08,1015.20,10.00,M,FEW,M,M,M,12000.00,M,M,M,M,M,M,M,M,M,M,73.00,KEKO 290156Z AUTO 18004KT 10SM FEW120 23/00 A3008 RMK AO2 SLP152 T02280000,M
WMC,2022-09-29 01:56,-117.8072,40.9019,1315.00,76.00,28.00,17.01,230.00,8.00,0.00,30.03,1013.70,10.00,M,CLR,M,M,M,M,M,M,M,M,M,M,M,M,M,M,75.90,KWMC 290156Z AUTO 23008KT 10SM CLR 24/M02 A3003 RMK AO2 SLP137 T02441022,M
NFL,2022-09-29 01:56,-118.7010,39.4166,1199.00,79.00,28.90,15.93,260.00,15.00,0.00,30.03,1013.80,10.00,M,FEW,SCT,SCT,M,8000.00,15000.00,25000.00,M,M,M,M,M,M,M,M,79.00,KNFL 290156Z 26015KT 10SM FEW080 SCT150 SCT250 26/M02 A3003 RMK AO2 SLP138 ACSL NW-N T02611017,M
HND,2022-09-29 01:56,-115.1344,35.9729,742.79,84.00,55.00,37.05,0.00,0.00,0.00,30.06,1016.80,10.00,M,CLR,M,M,M,M,M,M,M,M,M,M,M,M,M,M,82.85,KHND 290156Z 00000KT 10SM CLR 29/13 A3006 RMK AO2 SLP168 T02890128,M
TPH,2022-09-29 01:56,-117.0904,38.0505,1654.00,77.00,28.90,17.01,200.00,8.00,0.00,30.16,1015.40,10.00,M,FEW,M,M,M,12000.00,M,M,M,M,M,M,M,M,M,M,77.00,KTPH 290156Z AUTO 20008KT 10SM FEW120 25/M02 A3016 RMK AO2 SLP154 T02501017,M
LSV,2022-09-29 01:56,-115.0343,36.2362,570.00,83.50,55.20,37.92,90.00,6.00,0.00,29.98,1013.10,10.00,M,CLR,M,M,M,M,M,M,M,M,M,M,M,M,M,M,82.51,KLSV 290156Z AUTO 09006KT 10SM CLR 29/13 A2998 RMK AO2 SLP131 T02860129 $,M
INS,2022-09-29 01:56,-115.6733,36.5872,955.00,78.60,51.00,38.00,90.00,15.00,0.00,30.04,1013.30,10.00,M,FEW,M,M,M,20000.00,M,M,M,M,M,M,M,M,M,M,78.60,KINS 290156Z AUTO 09015KT 10SM FEW200 26/11 A3004 RMK AO2 SLP133 T02590105 $,M
RTS,2022-09-29 02:15,-119.8764,39.6682,1539.00,69.80,28.40,21.24,230.00,11.00,0.00,30.15,M,10.00,17.00,CLR,M,M,M,M,M,M,M,M,M,M,M,M,M,M,69.80,KRTS 290215Z AUTO 23011G17KT 10SM CLR 21/M02 A3015 RMK AO2,M
BAM,2022-09-29 02:15,-116.8743,40.5990,1382.36,71.60,30.20,21.50,250.00,4.00,0.00,30.07,M,10.00,M,CLR,M,M,M,M,M,M,M,M,M,M,M,M,M,M,71.60,KBAM 290215Z AUTO 25004KT 10SM CLR 22/M01 A3007 RMK AO1,M
MEV,2022-09-29 02:15,-119.7500,38.9963,1441.42,69.80,32.00,24.59,210.00,9.00,0.00,30.13,M,10.00,M,CLR,M,M,M,M,M,M,M,M,M,M,M,M,M,M,69.80,KMEV 290215Z AUTO 21009KT 10SM CLR 21/M00 A3013 RMK AO2,M
05U,2022-09-29 02:15,-116.0051,39.6042,1811.23,69.80,39.20,32.72,170.00,15.00,0.00,30.20,M,10.00,21.00,CLR,M,M,M,M,M,M,M,M,M,M,M,M,M,M,69.80,K05U 290215Z AUTO 17015G21KT 10SM CLR 21/04 A3020 RMK A01,M
HTH,2022-09-29 02:15,-118.6315,38.5448,1282.89,80.60,24.80,12.76,230.00,12.00,0.00,30.07,M,10.00,17.00,CLR,M,M,M,M,M,M,M,M,M,M,M,M,M,M,78.94,KHTH 290215Z AUTO 23012G17KT 10SM CLR 27/M04 A3007 RMK A01,M
TMT,2022-09-29 02:15,-117.1971,39.4643,1749.34,M,M,M,230.00,5.00,0.00,30.16,M,10.00,M,SCT,M,M,M,12000.00,M,M,M,M,M,M,M,M,M,M,M,KTMT 290215Z AUTO 23005KT 10SM SCT120 A3016 RMK AO2,M
BVU,2022-09-29 02:15,-114.8611,35.9475,671.00,86.00,51.80,30.90,330.00,7.00,0.00,30.01,M,10.00,M,CLR,M,M,M,M,M,M,M,M,M,M,M,M,M,M,83.87,KBVU 290215Z AUTO 33007KT 10SM CLR 30/11 A3001 RMK AO2,M
CXP,2022-09-29 02:15,-119.7326,39.1923,1431.00,73.40,32.00,21.76,220.00,6.00,0.00,30.14,M,10.00,16.00,CLR,M,M,M,M,M,M,M,M,M,M,M,M,M,M,73.40,KCXP 290215Z AUTO 22006G16KT 10SM CLR 23/00 A3014 RMK AO2,M
BAM,2022-09-29 02:35,-116.8743,40.5990,1382.36,71.60,28.40,19.98,240.00,3.00,0.00,30.07,M,10.00,M,CLR,M,M,M,M,M,M,M,M,M,M,M,M,M,M,71.60,KBAM 290235Z AUTO 24003KT 10SM CLR 22/M02 A3007 RMK AO1,M
MEV,2022-09-29 02:35,-119.7500,38.9963,1441.42,69.80,32.00,24.59,190.00,15.00,0.00,30.12,M,10.00,M,CLR,M,M,M,M,M,M,M,M,M,M,M,M,M,M,69.80,KMEV 290235Z AUTO 19015KT 10SM CLR 21/M00 A3012 RMK AO2,M
HTH,2022-09-29 02:35,-118.6315,38.5448,1282.89,80.60,26.60,13.75,240.00,13.00,0.00,30.08,M,10.00,18.00,CLR,M,M,M,M,M,M,M,M,M,M,M,M,M,M,78.68,KHTH 290235Z AUTO 24013G18KT 10SM CLR 27/M03 A3008 RMK A01,M
BVU,2022-09-29 02:35,-114.8611,35.9475,671.00,86.00,50.00,28.90,350.00,5.00,0.00,30.02,M,10.00,12.00,CLR,M,M,M,M,M,M,M,M,M,M,M,M,M,M,83.62,KBVU 290235Z AUTO 35005G12KT 10SM CLR 30/10 A3002 RMK AO2,M
TMT,2022-09-29 02:35,-117.1971,39.4643,1749.34,M,M,M,200.00,3.00,0.00,30.17,M,10.00,M,BKN,M,M,M,12000.00,M,M,M,M,M,M,M,M,M,M,M,KTMT 290235Z AUTO 20003KT 10SM BKN120 A3017 RMK AO2,M
RTS,2022-09-29 02:35,-119.8764,39.6682,1539.00,68.00,26.60,20.98,250.00,8.00,0.00,30.16,M,10.00,16.00,CLR,M,M,M,M,M,M,M,M,M,M,M,M,M,M,68.00,KRTS 290235Z AUTO 25008G16KT 10SM CLR 20/M03 A3016 RMK AO2,M
CXP,2022-09-29 02:35,-119.7326,39.1923,1431.00,73.40,32.00,21.76,240.00,7.00,0.00,30.13,M,10.00,15.00,CLR,M,M,M,M,M,M,M,M,M,M,M,M,M,M,73.40,KCXP 290235Z AUTO 24007G15KT 10SM CLR 23/00 A3013 RMK AO2,M
05U,2022-09-29 02:35,-116.0051,39.6042,1811.23,68.00,41.00,37.32,180.00,13.00,0.00,30.21,M,10.00,19.00,CLR,M,M,M,M,M,M,M,M,M,M,M,M,M,M,68.00,K05U 290235Z AUTO 18013G19KT 10SM CLR 20/05 A3021 RMK A01,M
CXP,2022-09-29 02:50,-119.7326,39.1923,1431.00,73.40,33.80,23.39,230.00,9.00,0.00,30.14,M,10.00,15.00,CLR,M,M,M,M,M,M,M,M,M,M,M,M,M,M,73.40,KCXP 290250Z AUTO 23009G15KT 10SM CLR 23/01 A3014 RMK AO2,M
P68,2022-09-29 02:53,-116.0056,39.6014,1993.00,68.00,41.00,37.32,180.00,14.00,0.00,30.18,1015.40,M,25.00,M,M,M,M,M,M,M,M,M,M,M,M,26.00,170.00,2022-09-29 02:27,68.00,KP68 290253Z AUTO 18014G25KT 20/05 A3018 RMK AO1 PK WND 17026/0227 SLP154 T02000050 53009,M
LOL,2022-09-29 02:53,-118.5701,40.0684,1192.43,77.00,28.90,17.01,270.00,20.00,0.00,30.03,1014.40,10.00,24.00,CLR,M,M,M,M,M,M,M,M,M,M,M,M,M,M,77.00,KLOL 290253Z AUTO 27020G24KT 10SM CLR 25/M02 A3003 RMK AO2 SLP144 T02501017 53004,M
ELY,2022-09-29 02:53,-114.8453,39.2950,1909.00,63.00,40.00,42.56,220.00,7.00,0.00,30.26,1017.10,10.00,M,CLR,M,M,M,M,M,M,M,M,M,M,M,M,M,M,63.00,KELY 290253Z AUTO 22007KT 10SM CLR 17/04 A3026 RMK AO2 SLP171 T01720044 53005,M
DRA,2022-09-29 02:53,-116.0278,36.6206,1009.00,79.00,47.00,32.29,M,5.00,0.00,30.06,1013.50,10.00,M,CLR,M,M,M,M,M,M,M,M,M,M,M,M,M,M,79.00,KDRA 290253Z AUTO VRB05KT 10SM CLR 26/08 A3006 RMK AO2 SLP135 T02610083 53007,M
VGT,2022-09-29 02:53,-115.1933,36.2111,667.00,85.00,56.00,37.18,170.00,4.00,0.00,30.02,1016.10,10.00,M,CLR,M,M,M,M,M,M,M,M,M,M,M,M,M,M,83.74,KVGT 290253Z 17004KT 10SM CLR 29/13 A3002 RMK AO2 SLP161 T02940133 53004,M
RTS,2022-09-29 02:55,-119.8764,39.6682,1539.00,68.00,28.40,22.59,250.00,12.00,0.00,30.17,M,10.00,M,CLR,M,M,M,M,M,M,M,M,M,M,M,M,M,M,68.00,KRTS 290255Z AUTO 25012KT 10SM CLR 20/M02 A3017 RMK AO2,M
RNO,2022-09-29 02:55,-119.7711,39.4839,1341.00,74.00,36.00,25.11,220.00,7.00,0.00,30.11,1015.20,10.00,M,FEW,M,M,M,22000.00,M,M,M,M,M,M,M,M,M,M,73.90,KRNO 290255Z 22007KT 10SM FEW220 23/02 A3011 RMK AO2 SLP152 T02330022 53006,M
05U,2022-09-29 02:55,-116.0051,39.6042,1811.23,68.00,41.00,37.32,170.00,10.00,0.00,30.21,M,10.00,18.00,CLR,M,M,M,M,M,M,M,M,M,M,M,M,M,M,68.00,K05U 290255Z AUTO 17010G18KT 10SM CLR 20/05 A3021 RMK A01,M
BVU,2022-09-29 02:55,-114.8611,35.9475,671.00,84.20,50.00,30.62,350.00,7.00,0.00,30.02,M,10.00,M,CLR,M,M,M,M,M,M,M,M,M,M,M,M,M,M,82.24,KBVU 290255Z AUTO 35007KT 10SM CLR 29/10 A3002 RMK AO2,M
MEV,2022-09-29 02:55,-119.7500,38.9963,1441.42,69.80,32.00,24.59,200.00,12.00,0.00,30.13,M,10.00,M,CLR,M,M,M,M,M,M,M,M,M,M,M,M,M,M,69.80,KMEV 290255Z AUTO 20012KT 10SM CLR 21/M00 A3013 RMK AO2,M
BAM,2022-09-29 02:55,-116.8743,40.5990,1382.36,64.40,26.60,23.77,210.00,7.00,0.00,30.08,M,10.00,M,CLR,M,M,M,M,M,M,M,M,M,M,M,M,M,M,64.40,KBAM 290255Z AUTO 21007KT 10SM CLR 18/M03 A3008 RMK AO1,M
HTH,2022-09-29 02:55,-118.6315,38.5448,1282.89,80.60,26.60,13.75,230.00,13.00,0.00,30.08,M,10.00,M,CLR,M,M,M,M,M,M,M,M,M,M,M,M,M,M,78.68,KHTH 290255Z AUTO 23013KT 10SM CLR 27/M03 A3008 RMK A01,M
TMT,2022-09-29 02:55,-117.1971,39.4643,1749.34,57.60,27.30,31.14,180.00,6.00,0.00,30.18,M,10.00,M,CLR,M,M,M,M,M,M,M,M,M,M,M,M,M,M,57.60,KTMT 290255Z AUTO 18006KT 10SM CLR 14/M03 A3018 RMK AO2 T01421026,M
WMC,2022-09-29 02:56,-117.8072,40.9019,1315.00,73.00,28.90,19.45,230.00,8.00,0.00,30.05,1013.90,10.00,M,CLR,M,M,M,M,M,M,M,M,M,M,M,M,M,M,73.00,KWMC 290256Z AUTO 23008KT 10SM CLR 23/M02 A3005 RMK AO2 SLP139 T02281017 53006,M
TPH,2022-09-29 02:56,-117.0904,38.0505,1654.00,69.00,30.90,24.09,100.00,5.00,0.00,30.17,1016.20,10.00,M,CLR,M,M,M,M,M,M,M,M,M,M,M,M,M,M,69.10,KTPH 290256Z AUTO 10005KT 10SM CLR 21/M01 A3017 RMK AO2 SLP162 T02061006 53005,M
LSV,2022-09-29 02:56,-115.0343,36.2362,570.00,82.00,55.80,40.82,70.00,8.00,0.00,29.98,1013.20,10.00,M,CLR,M,M,M,M,M,M,M,M,M,M,M,M,M,M,81.46,KLSV 290256Z AUTO 07008KT 10SM CLR 28/13 A2998 RMK AO2 SLP132 T02770132 53003 $,M
EKO,2022-09-29 02:56,-115.7860,40.8242,1367.00,68.00,30.00,24.12,260.00,3.00,0.00,30.10,1015.90,10.00,M,CLR,M,M,M,M,M,M,M,M,M,M,M,M,M,M,68.00,KEKO 290256Z AUTO 26003KT 10SM CLR 20/M01 A3010 RMK AO2 SLP159 T02001011 53007,M
INS,2022-09-29 02:56,-115.6733,36.5872,955.00,78.00,51.00,38.88,120.00,8.00,0.00,30.06,1013.80,10.00,M,CLR,M,M,M,M,M,M,M,M,M,M,M,M,M,M,77.90,KINS 290256Z AUTO 12008KT 10SM CLR 26/11 A3006 RMK AO2 SLP138 T02550105 51006 $,M
LAS,2022-09-29 02:56,-115.1634,36.0719,663.00,84.00,53.00,34.56,10.00,4.00,0.00,30.04,1014.90,10.00,M,FEW,FEW,M,M,12000.00,25000.00,M,M,M,M,M,M,M,M,M,82.52,KLAS 290256Z 01004KT 10SM FEW120 FEW250 29/12 A3004 RMK AO2 SLP149 T02890117 53004,M
NFL,2022-09-29 02:56,-118.7010,39.4166,1199.00,76.00,32.00,20.01,270.00,13.00,0.00,30.05,1014.40,10.00,M,FEW,SCT,SCT,M,8000.00,15000.00,25000.00,M,M,M,M,M,M,M,M,75.90,KNFL 290256Z 27013KT 10SM FEW080 SCT150 SCT250 24/00 A3005 RMK AO2 SLP144 T02440000 53009,M
HND,2022-09-29 02:56,-115.1344,35.9729,742.79,80.00,59.00,48.58,0.00,0.00,0.00,30.07,1017.40,10.00,M,CLR,M,M,M,M,M,M,M,M,M,M,M,M,M,M,80.76,KHND 290256Z 00000KT 10SM CLR 27/15 A3007 RMK AO2 SLP174 T02670150 53004,M
MEV,2022-09-29 03:15,-119.7500,38.9963,1441.42,69.80,32.00,24.59,190.00,13.00,0.00,30.13,M,10.00,M,CLR,M,M,M,M,M,M,M,M,M,M,M,M,M,M,69.80,KMEV 290315Z AUTO 19013KT 10SM CLR 21/M00 A3013 RMK AO2,M
05U,2022-09-29 03:15,-116.0051,39.6042,1811.23,66.20,41.00,39.72,180.00,8.00,0.00,30.22,M,10.00,M,CLR,M,M,M,M,M,M,M,M,M,M,M,M,M,M,66.20,K05U 290315Z AUTO 18008KT 10SM CLR 19/05 A3022 RMK A01,M
TMT,2022-09-29 03:15,-117.1971,39.4643,1749.34,M,M,M,200.00,6.00,0.00,30.18,M,10.00,M,CLR,M,M,M,M,M,M,M,M,M,M,M,M,M,M,M,KTMT 290315Z AUTO 20006KT 10SM CLR A3018 RMK AO2,M
RTS,2022-09-29 03:15,-119.8764,39.6682,1539.00,66.20,28.40,24.04,260.00,12.00,0.00,30.17,M,10.00,17.00,CLR,M,M,M,M,M,M,M,M,M,M,M,M,M,M,66.20,KRTS 290315Z AUTO 26012G17KT 10SM CLR 19/M02 A3017 RMK AO2,M
BVU,2022-09-29 03:15,-114.8611,35.9475,671.00,84.20,51.80,32.73,10.00,5.00,0.00,30.03,M,10.00,M,CLR,M,M,M,M,M,M,M,M,M,M,M,M,M,M,82.48,KBVU 290315Z AUTO 01005KT 10SM CLR 29/11 A3003 RMK AO2,M
CXP,2022-09-29 03:15,-119.7326,39.1923,1431.00,71.60,33.80,24.86,230.00,7.00,0.00,30.14,M,10.00,13.00,CLR,M,M,M,M,M,M,M,M,M,M,M,M,M,M,71.60,KCXP 290315Z AUTO 23007G13KT 190V250 10SM CLR 22/01 A3014 RMK AO2,M
HTH,2022-09-29 03:15,-118.6315,38.5448,1282.89,78.80,24.80,13.54,220.00,16.00,0.00,30.08,M,10.00,M,M,M,M,M,M,M,M,M,M,M,M,M,M,M,M,78.80,KHTH 290315Z AUTO 22016KT 10SM 26/M04 A3008 RMK A01,M
BAM,2022-09-29 03:15,-116.8743,40.5990,1382.36,64.40,26.60,23.77,200.00,6.00,0.00,30.08,M,10.00,M,CLR,M,M,M,M,M,M,M,M,M,M,M,M,M,M,64.40,KBAM 290315Z AUTO 20006KT 10SM CLR 18/M03 A3008 RMK AO1,M
MEV,2022-09-29 03:35,-119.7500,38.9963,1441.42,68.00,33.80,28.11,0.00,0.00,0.00,30.14,M,10.00,M,CLR,M,M,M,M,M,M,M,M,M,M,M,M,M,M,68.00,KMEV 290335Z AUTO 00000KT 10SM CLR 20/01 A3014 RMK AO2,M
BVU,2022-09-29 03:35,-114.8611,35.9475,671.00,82.40,51.80,34.69,140.00,3.00,0.00,30.03,M,10.00,M,CLR,M,M,M,M,M,M,M,M,M,M,M,M,M,M,81.20,KBVU 290335Z AUTO 14003KT 10SM CLR 28/11 A3003 RMK AO2,M
CXP,2022-09-29 03:35,-119.7326,39.1923,1431.00,69.80,35.60,28.39,260.00,7.00,0.00,30.15,M,10.00,M,CLR,M,M,M,M,M,M,M,M,M,M,M,M,M,M,69.80,KCXP 290335Z AUTO 26007KT 10SM CLR 21/02 A3015 RMK AO2,M
RTS,2022-09-29 03:35,-119.8764,39.6682,1539.00,66.20,28.40,24.04,260.00,10.00,0.00,30.18,M,10.00,M,CLR,M,M,M,M,M,M,M,M,M,M,M,M,M,M,66.20,KRTS 290335Z AUTO 26010KT 10SM CLR 19/M02 A3018 RMK AO2,M
05U,2022-09-29 03:35,-116.0051,39.6042,1811.23,66.20,42.80,42.57,170.00,11.00,0.00,30.22,M,10.00,16.00,CLR,M,M,M,M,M,M,M,M,M,M,M,M,M,M,66.20,K05U 290335Z AUTO 17011G16KT 10SM CLR 19/06 A3022 RMK A01,M
BAM,2022-09-29 03:35,-116.8743,40.5990,1382.36,64.40,26.60,23.77,230.00,3.00,0.00,30.09,M,10.00,M,CLR,M,M,M,M,M,M,M,M,M,M,M,M,M,M,64.40,KBAM 290335Z AUTO 23003KT 10SM CLR 18/M03 A3009 RMK AO1,M
HTH,2022-09-29 03:35,-118.6315,38.5448,1282.89,78.80,24.80,13.54,210.00,16.00,0.00,30.09,M,10.00,21.00,M,M,M,M,M,M,M,M,M,M,M,M,M,M,M,78.80,KHTH 290335Z AUTO 21016G21KT 10SM 26/M04 A3009 RMK A01,M
TMT,2022-09-29 03:35,-117.1971,39.4643,1749.34,53.80,26.60,34.73,180.00,9.00,0.00,30.20,M,10.00,M,SCT,M,M,M,12000.00,M,M,M,M,M,M,M,M,M,M,53.80,KTMT 290335Z AUTO 18009KT 10SM SCT120 12/M03 A3020 RMK AO2 T01211030,M
LOL,2022-09-29 03:53,-118.5701,40.0684,1192.43,74.00,32.00,21.40,270.00,14.00,0.00,30.06,1014.80,10.00,M,CLR,M,M,M,M,M,M,M,M,M,M,M,27.00,270.00,2022-09-29 03:00,73.90,KLOL 290353Z AUTO 27014KT 10SM CLR 23/00 A3006 RMK AO2 PK WND 27027/0300 SLP148 T02330000,M
ELY,2022-09-29 03:53,-114.8453,39.2950,1909.00,62.00,43.00,49.52,170.00,10.00,0.00,30.27,1016.20,10.00,M,CLR,M,M,M,M,M,M,M,M,M,M,M,M,M,M,62.10,KELY 290353Z AUTO 17010KT 10SM CLR 17/06 A3027 RMK AO2 SLP162 T01670061,M
DRA,2022-09-29 03:53,-116.0278,36.6206,1009.00,74.00,48.00,39.87,320.00,8.00,0.00,30.08,1014.20,10.00,M,CLR,M,M,M,M,M,M,M,M,M,M,M,M,M,M,73.90,KDRA 290353Z AUTO 32008KT 10SM CLR 23/09 A3008 RMK AO2 SLP142 T02330089,M
P68,2022-09-29 03:53,-116.0056,39.6014,1993.00,65.00,42.00,43.36,160.00,9.00,0.00,30.20,1015.30,M,M,M,M,M,M,M,M,M,M,M,M,M,M,M,M,M,64.90,KP68 290353Z AUTO 16009KT 18/06 A3020 RMK AO1 SLP153 T01830056,M
VGT,2022-09-29 03:53,-115.1933,36.2111,667.00,83.00,56.00,39.66,0.00,0.00,0.00,30.04,1016.60,10.00,M,CLR,M,M,M,M,M,M,M,M,M,M,M,M,M,M,82.20,KVGT 290353Z 00000KT 10SM CLR 28/13 A3004 RMK AO2 SLP166 T02830133,M
05U,2022-09-29 03:55,-116.0051,39.6042,1811.23,64.40,42.80,45.32,160.00,8.00,0.00,30.22,M,10.00,M,CLR,M,M,M,M,M,M,M,M,M,M,M,M,M,M,64.40,K05U 290355Z AUTO 16008KT 10SM CLR 18/06 A3022 RMK A01,M
RTS,2022-09-29 03:55,-119.8764,39.6682,1539.00,64.40,28.40,25.60,260.00,8.00,0.00,30.19,M,10.00,14.00,CLR,M,M,M,M,M,M,M,M,M,M,M,M,M,M,64.40,KRTS 290355Z AUTO 26008G14KT 10SM CLR 18/M02 A3019 RMK AO2,M
CXP,2022-09-29 03:55,-119.7326,39.1923,1431.00,69.80,35.60,28.39,260.00,8.00,0.00,30.15,M,10.00,M,CLR,M,M,M,M,M,M,M,M,M,M,M,M,M,M,69.80,KCXP 290355Z AUTO 26008KT 230V290 10SM CLR 21/02 A3015 RMK AO2,M
TMT,2022-09-29 03:55,-117.1971,39.4643,1749.34,56.70,27.30,32.17,200.00,6.00,0.00,30.21,M,10.00,M,OVC,M,M,M,12000.00,M,M,M,M,M,M,M,M,M,M,56.70,KTMT 290355Z AUTO 20006KT 10SM OVC120 14/M03 A3021 RMK AO2 T01371026,M
BVU,2022-09-29 03:55,-114.8611,35.9475,671.00,84.20,51.80,32.73,0.00,0.00,0.00,30.03,M,10.00,M,CLR,M,M,M,M,M,M,M,M,M,M,M,M,M,M,82.48,KBVU 290355Z AUTO 00000KT 10SM CLR 29/11 A3003 RMK AO2,M
HTH,2022-09-29 03:55,-118.6315,38.5448,1282.89,77.00,26.60,15.48,200.00,13.00,0.00,30.10,M,10.00,18.00,CLR,M,M,M,M,M,M,M,M,M,M,M,M,M,M,77.00,KHTH 290355Z AUTO 20013G18KT 10SM CLR 25/M03 A3010 RMK A01,M
BAM,2022-09-29 03:55,-116.8743,40.5990,1382.36,62.60,26.60,25.32,0.00,0.00,0.00,30.09,M,10.00,M,CLR,M,M,M,M,M,M,M,M,M,M,M,M,M,M,62.60,KBAM 290355Z AUTO 00000KT 10SM CLR 17/M03 A3009 RMK AO1,M
RNO,2022-09-29 03:55,-119.7711,39.4839,1341.00,71.00,33.00,24.59,120.00,3.00,0.00,30.13,1015.80,10.00,M,SCT,BKN,M,M,15000.00,22000.00,M,M,M,M,M,M,M,M,M,71.10,KRNO 290355Z 12003KT 10SM SCT150 BKN220 22/01 A3013 RMK AO2 SLP158 T02170006,M
MEV,2022-09-29 03:55,-119.7500,38.9963,1441.42,68.00,32.00,26.15,0.00,0.00,0.00,30.14,M,10.00,M,CLR,M,M,M,M,M,M,M,M,M,M,M,M,M,M,68.00,KMEV 290355Z AUTO 00000KT 10SM CLR 20/00 A3014 RMK AO2,M
INS,2022-09-29 03:56,-115.6733,36.5872,955.00,75.20,51.00,42.85,110.00,8.00,0.00,30.07,1013.80,10.00,M,CLR,M,M,M,M,M,M,M,M,M,M,M,M,M,M,75.20,KINS 290356Z AUTO 11008KT 10SM CLR 24/11 A3007 RMK AO2 SLP138 T02400106 $,M
EKO,2022-09-29 03:56,-115.7860,40.8242,1367.00,66.00,30.90,26.81,0.00,0.00,0.00,30.12,1016.20,10.00,M,BKN,M,M,M,12000.00,M,M,M,M,M,M,M,M,M,M,66.00,KEKO 290356Z AUTO 00000KT 10SM BKN120 19/M01 A3012 RMK AO2 SLP162 T01891006,M
WMC,2022-09-29 03:56,-117.8072,40.9019,1315.00,69.00,28.00,21.40,290.00,9.00,0.00,30.08,1014.30,10.00,M,CLR,M,M,M,M,M,M,M,M,M,M,M,M,M,M,69.10,KWMC 290356Z AUTO 29009KT 10SM CLR 21/M02 A3008 RMK AO2 SLP143 T02061022,M
HND,2022-09-29 03:56,-115.1344,35.9729,742.79,77.00,61.00,57.77,180.00,3.00,0.00,30.08,1017.90,10.00,M,CLR,M,M,M,M,M,M,M,M,M,M,M,M,M,M,77.00,KHND 290356Z AUTO 18003KT 10SM CLR 25/16 A3008 RMK AO2 SLP179 T02500161,M
LAS,2022-09-29 03:56,-115.1634,36.0719,663.00,82.00,54.00,38.11,10.00,4.00,0.00,30.05,1015.30,10.00,M,FEW,FEW,M,M,12000.00,25000.00,M,M,M,M,M,M,M,M,M,81.24,KLAS 290356Z 01004KT 10SM FEW120 FEW250 28/12 A3005 RMK AO2 SLP153 T02780122,M
NFL,2022-09-29 03:56,-118.7010,39.4166,1199.00,73.00,32.00,22.06,260.00,12.00,0.00,30.07,1015.20,10.00,M,FEW,FEW,M,M,15000.00,25000.00,M,M,M,M,M,M,M,M,M,73.00,KNFL 290356Z 26012KT 10SM FEW150 FEW250 23/00 A3007 RMK AO2 SLP152 T02280000,M
LSV,2022-09-29 03:56,-115.0343,36.2362,570.00,80.40,57.00,44.77,100.00,6.00,0.00,30.00,1014.00,10.00,M,CLR,M,M,M,M,M,M,M,M,M,M,M,M,M,M,80.64,KLSV 290356Z AUTO 10006KT 10SM CLR 27/14 A3000 RMK AO2 SLP140 T02690139 $,M
TPH,2022-09-29 03:56,-117.0904,38.0505,1654.00,69.00,44.00,40.48,120.00,7.00,0.00,30.19,1015.90,10.00,M,CLR,M,M,M,M,M,M,M,M,M,M,M,M,M,M,69.10,KTPH 290356Z AUTO 12007KT 10SM CLR 21/07 A3019 RMK AO2 SLP159 T02060067,M
BVU,2022-09-29 04:15,-114.8611,35.9475,671.00,82.40,53.60,37.07,0.00,0.00,0.00,30.04,M,10.00,M,CLR,M,M,M,M,M,M,M,M,M,M,M,M,M,M,81.46,KBVU 290415Z AUTO 00000KT 10SM CLR 28/12 A3004 RMK AO2,M
RTS,2022-09-29 04:15,-119.8764,39.6682,1539.00,66.20,28.40,24.04,270.00,10.00,0.00,30.18,M,10.00,17.00,CLR,M,M,M,M,M,M,M,M,M,M,M,M,M,M,66.20,KRTS 290415Z AUTO 27010G17KT 10SM CLR 19/M02 A3018 RMK AO2,M
TMT,2022-09-29 04:15,-117.1971,39.4643,1749.34,M,M,M,180.00,5.00,0.00,30.22,M,10.00,M,OVC,M,M,M,12000.00,M,M,M,M,M,M,M,M,M,M,M,KTMT 290415Z AUTO 18005KT 10SM OVC120 A3022 RMK AO2,M
HTH,2022-09-29 04:15,-118.6315,38.5448,1282.89,77.00,26.60,15.48,210.00,15.00,0.00,30.10,M,10.00,21.00,CLR,M,M,M,M,M,M,M,M,M,M,M,M,M,M,77.00,KHTH 290415Z AUTO 21015G21KT 10SM CLR 25/M03 A3010 RMK A01,M
BAM,2022-09-29 04:15,-116.8743,40.5990,1382.36,60.80,26.60,26.98,250.00,5.00,0.00,30.11,M,10.00,M,CLR,M,M,M,M,M,M,M,M,M,M,M,M,M,M,60.80,KBAM 290415Z AUTO 25005KT 10SM CLR 16/M03 A3011 RMK AO1,M
MEV,2022-09-29 04:15,-119.7500,38.9963,1441.42,66.20,32.00,27.83,0.00,0.00,0.00,30.15,M,10.00,M,CLR,M,M,M,M,M,M,M,M,M,M,M,M,M,M,66.20,KMEV 290415Z AUTO 00000KT 10SM CLR 19/00 A3015 RMK AO2,M
CXP,2022-09-29 04:15,-119.7326,39.1923,1431.00,69.80,33.80,26.43,260.00,6.00,0.00,30.15,M,10.00,M,CLR,M,M,M,M,M,M,M,M,M,M,M,M,M,M,69.80,KCXP 290415Z AUTO 26006KT 10SM CLR 21/01 A3015 RMK AO2,M
05U,2022-09-29 04:15,-116.0051,39.6042,1811.23,64.40,42.80,45.32,150.00,10.00,0.00,30.22,M,10.00,M,CLR,M,M,M,M,M,M,M,M,M,M,M,M,M,M,64.40,K05U 290415Z AUTO 15010KT 10SM CLR 18/06 A3022 RMK A01,M
BAM,2022-09-29 04:35,-116.8743,40.5990,1382.36,62.60,28.40,27.27,260.00,7.00,0.00,30.11,M,10.00,M,CLR,M,M,M,M,M,M,M,M,M,M,M,M,M,M,62.60,KBAM 290435Z AUTO 26007KT 10SM CLR 17/M02 A3011 RMK AO1,M
TMT,2022-09-29 04:35,-117.1971,39.4643,1749.34,M,M,M,180.00,5.00,0.00,30.23,M,10.00,M,OVC,M,M,M,12000.00,M,M,M,M,M,M,M,M,M,M,M,KTMT 290435Z AUTO 18005KT 10SM OVC120 A3023 RMK AO2,M
BVU,2022-09-29 04:35,-114.8611,35.9475,671.00,78.80,55.40,44.52,0.00,0.00,0.00,30.04,M,10.00,M,CLR,M,M,M,M,M,M,M,M,M,M,M,M,M,M,78.80,KBVU 290435Z AUTO 00000KT 10SM CLR 26/13 A3004 RMK AO2,M
CXP,2022-09-29 04:35,-119.7326,39.1923,1431.00,68.00,33.80,28.11,0.00,0.00,0.00,30.16,M,10.00,M,CLR,M,M,M,M,M,M,M,M,M,M,M,M,M,M,68.00,KCXP 290435Z AUTO 00000KT 10SM CLR 20/01 A3016 RMK AO2,M
RTS,2022-09-29 04:35,-119.8764,39.6682,1539.00,64.40,28.40,25.60,250.00,12.00,0.00,30.19,M,10.00,M,CLR,M,M,M,M,M,M,M,M,M,M,M,M,M,M,64.40,KRTS 290435Z AUTO 25012KT 10SM CLR 18/M02 A3019 RMK AO2,M
05U,2022-09-29 04:35,-116.0051,39.6042,1811.23,64.40,42.80,45.32,180.00,13.00,0.00,30.22,M,10.00,18.00,FEW,M,M,M,12000.00,M,M,M,M,M,M,M,M,M,M,64.40,K05U 290435Z AUTO 18013G18KT 10SM FEW120 18/06 A3022 RMK A01,M
MEV,2022-09-29 04:35,-119.7500,38.9963,1441.42,60.80,32.00,33.64,M,4.00,0.00,30.15,M,10.00,M,CLR,M,M,M,M,M,M,M,M,M,M,M,M,M,M,60.80,KMEV 290435Z AUTO VRB04KT 10SM CLR 16/M00 A3015 RMK AO2,M
HTH,2022-09-29 04:35,-118.6315,38.5448,1282.89,77.00,26.60,15.48,220.00,15.00,0.00,30.11,M,10.00,M,CLR,M,M,M,M,M,M,M,M,M,M,M,M,M,M,77.00,KHTH 290435Z AUTO 22015KT 10SM CLR 25/M03 A3011 RMK A01,M
P68,2022-09-29 04:53,-116.0056,39.6014,1993.00,67.00,43.00,41.87,180.00,16.00,0.00,30.20,1014.10,M,26.00,M,M,M,M,M,M,M,M,M,M,M,M,26.00,180.00,2022-09-29 04:45,66.90,KP68 290453Z AUTO 18016G26KT 19/06 A3020 RMK AO1 PK WND 18026/0445 SLP141 T01940061,M
VGT,2022-09-29 04:53,-115.1933,36.2111,667.00,82.00,55.00,39.52,200.00,3.00,0.00,30.04,1016.80,10.00,M,CLR,M,M,M,M,M,M,M,M,M,M,M,M,M,M,81.40,KVGT 290453Z AUTO 20003KT 10SM CLR 28/13 A3004 RMK AO2 SLP168 T02780128,M
DRA,2022-09-29 04:53,-116.0278,36.6206,1009.00,73.00,47.00,39.43,40.00,6.00,0.00,30.08,1013.90,10.00,M,CLR,M,M,M,M,M,M,M,M,M,M,M,M,M,M,73.00,KDRA 290453Z AUTO 04006KT 10SM CLR 23/08 A3008 RMK AO2 SLP139 T02280083,M
ELY,2022-09-29 04:53,-114.8453,39.2950,1909.00,59.00,42.00,53.40,220.00,9.00,0.00,30.28,1015.90,10.00,M,CLR,M,M,M,M,M,M,M,M,M,M,M,M,M,M,59.00,KELY 290453Z AUTO 22009KT 10SM CLR 15/06 A3028 RMK AO2 SLP159 T01500056,M
LOL,2022-09-29 04:53,-118.5701,40.0684,1192.43,72.00,33.00,23.85,280.00,11.00,0.00,30.08,1015.10,10.00,M,CLR,M,M,M,M,M,M,M,M,M,M,M,M,M,M,72.00,KLOL 290453Z AUTO 28011KT 10SM CLR 22/01 A3008 RMK AO2 SLP151 T02220006,M
TMT,2022-09-29 04:55,-117.1971,39.4643,1749.34,M,M,M,210.00,7.00,0.00,30.24,M,10.00,M,BKN,M,M,M,12000.00,M,M,M,M,M,M,M,M,M,M,M,KTMT 290455Z AUTO 21007KT 10SM BKN120 A3024 RMK AO2,M
RNO,2022-09-29 04:55,-119.7711,39.4839,1341.00,69.00,33.00,26.32,310.00,9.00,0.00,30.14,1015.90,10.00,M,SCT,BKN,M,M,15000.00,22000.00,M,M,M,M,M,M,M,M,M,69.10,KRNO 290455Z 31009KT 10SM SCT150 BKN220 21/01 A3014 RMK AO2 SLP159 T02060006,M
RTS,2022-09-29 04:55,-119.8764,39.6682,1539.00,64.40,30.20,27.55,280.00,12.00,0.00,30.19,M,10.00,18.00,CLR,M,M,M,M,M,M,M,M,M,M,M,M,M,M,64.40,KRTS 290455Z AUTO 28012G18KT 10SM CLR 18/M01 A3019 RMK AO2,M
CXP,2022-09-29 04:55,-119.7326,39.1923,1431.00,68.00,35.60,30.20,0.00,0.00,0.00,30.16,M,10.00,M,CLR,M,M,M,M,M,M,M,M,M,M,M,M,M,M,68.00,KCXP 290455Z AUTO 00000KT 10SM CLR 20/02 A3016 RMK AO2,M
BVU,2022-09-29 04:55,-114.8611,35.9475,671.00,78.80,55.40,44.52,0.00,0.00,0.00,30.04,M,10.00,M,CLR,M,M,M,M,M,M,M,M,M,M,M,M,M,M,78.80,KBVU 290455Z AUTO 00000KT 10SM CLR 26/13 A3004 RMK AO2,M
05U,2022-09-29 04:55,-116.0051,39.6042,1811.23,66.20,42.80,42.57,180.00,13.00,0.00,30.22,M,10.00,M,CLR,M,M,M,M,M,M,M,M,M,M,M,M,M,M,66.20,K05U 290455Z AUTO 18013KT 10SM CLR 19/06 A3022 RMK A01,M
MEV,2022-09-29 04:55,-119.7500,38.9963,1441.42,66.20,32.00,27.83,310.00,4.00,0.00,30.15,M,10.00,M,CLR,M,M,M,M,M,M,M,M,M,M,M,M,M,M,66.20,KMEV 290455Z AUTO 31004KT 10SM CLR 19/M00 A3015 RMK AO2,M
BAM,2022-09-29 04:55,-116.8743,40.5990,1382.36,62.60,28.40,27.27,230.00,8.00,0.00,30.11,M,10.00,M,CLR,M,M,M,M,M,M,M,M,M,M,M,M,M,M,62.60,KBAM 290455Z AUTO 23008KT 10SM CLR 17/M02 A3011 RMK AO1,M
HTH,2022-09-29 04:55,-118.6315,38.5448,1282.89,77.00,26.60,15.48,220.00,14.00,0.00,30.11,M,10.00,20.00,CLR,M,M,M,M,M,M,M,M,M,M,M,M,M,M,77.00,KHTH 290455Z AUTO 22014G20KT 10SM CLR 25/M03 A3011 RMK A01,M
LAS,2022-09-29 04:56,-115.1634,36.0719,663.00,82.00,54.00,38.11,240.00,3.00,0.00,30.06,1015.40,10.00,M,BKN,M,M,M,25000.00,M,M,M,M,M,M,M,M,M,M,81.24,KLAS 290456Z 24003KT 10SM BKN250 28/12 A3006 RMK AO2 SLP154 T02780122,M
INS,2022-09-29 04:56,-115.6733,36.5872,955.00,74.70,51.80,44.71,20.00,4.00,0.00,30.08,1014.00,10.00,M,BKN,M,M,M,12000.00,M,M,M,M,M,M,M,M,M,M,74.70,KINS 290456Z AUTO 02004KT 10SM BKN120 24/11 A3008 RMK AO2 SLP140 T02370110 $,M
HND,2022-09-29 04:56,-115.1344,35.9729,742.79,76.00,60.00,58.04,160.00,4.00,0.00,30.08,1018.00,10.00,M,CLR,M,M,M,M,M,M,M,M,M,M,M,M,M,M,75.90,KHND 290456Z AUTO 16004KT 10SM CLR 24/16 A3008 RMK AO2 SLP180 T02440156,M
EKO,2022-09-29 04:56,-115.7860,40.8242,1367.00,62.00,30.90,30.73,330.00,4.00,0.00,30.13,1016.10,10.00,M,CLR,M,M,M,M,M,M,M,M,M,M,M,M,M,M,62.10,KEKO 290456Z AUTO 33004KT 10SM CLR 17/M01 A3013 RMK AO2 SLP161 T01671006,M
LSV,2022-09-29 04:56,-115.0343,36.2362,570.00,78.40,57.00,47.80,80.00,5.00,0.00,30.01,1014.40,10.00,M,CLR,M,M,M,M,M,M,M,M,M,M,M,M,M,M,78.40,KLSV 290456Z AUTO 08005KT 10SM CLR 26/14 A3001 RMK AO2 SLP144 T02580139 $,M
WMC,2022-09-29 04:56,-117.8072,40.9019,1315.00,68.00,28.00,22.23,M,5.00,0.00,30.11,1014.80,10.00,M,CLR,M,M,M,M,M,M,M,M,M,M,M,M,M,M,68.00,KWMC 290456Z AUTO VRB05KT 10SM CLR 20/M02 A3011 RMK AO2 SLP148 T02001022,M
NFL,2022-09-29 04:56,-118.7010,39.4166,1199.00,69.00,32.00,25.18,210.00,7.00,0.00,30.09,1015.70,10.00,M,FEW,M,M,M,25000.00,M,M,M,M,M,M,M,M,M,M,69.10,KNFL 290456Z 21007KT 10SM FEW250 21/00 A3009 RMK AO2 SLP157 T02060000,M
TPH,2022-09-29 04:56,-117.0904,38.0505,1654.00,67.00,44.00,43.67,30.00,3.00,0.00,30.22,1016.30,10.00,M,BKN,M,M,M,12000.00,M,M,M,M,M,M,M,M,M,M,66.90,KTPH 290456Z AUTO 03003KT 10SM BKN120 19/07 A3022 RMK AO2 SLP163 T01940067,M
BAM,2022-09-29 05:15,-116.8743,40.5990,1382.36,62.60,28.40,27.27,240.00,7.00,0.00,30.12,M,10.00,M,CLR,M,M,M,M,M,M,M,M,M,M,M,M,M,M,62.60,KBAM 290515Z AUTO 24007KT 10SM CLR 17/M02 A3012 RMK AO1,M
BVU,2022-09-29 05:15,-114.8611,35.9475,671.00,78.80,55.40,44.52,360.00,5.00,0.00,30.04,M,10.00,M,CLR,M,M,M,M,M,M,M,M,M,M,M,M,M,M,78.80,KBVU 290515Z AUTO 36005KT 10SM CLR 26/13 A3004 RMK AO2,M
CXP,2022-09-29 05:15,-119.7326,39.1923,1431.00,66.20,35.60,32.14,0.00,0.00,0.00,30.17,M,10.00,M,CLR,M,M,M,M,M,M,M,M,M,M,M,M,M,M,66.20,KCXP 290515Z AUTO 00000KT 10SM CLR 19/02 A3017 RMK AO2,M
RTS,2022-09-29 05:15,-119.8764,39.6682,1539.00,64.40,30.20,27.55,270.00,10.00,0.00,30.19,M,10.00,M,CLR,M,M,M,M,M,M,M,M,M,M,M,M,M,M,64.40,KRTS 290515Z AUTO 27010KT 10SM CLR 18/M01 A3019 RMK AO2,M
05U,2022-09-29 05:15,-116.0051,39.6042,1811.23,66.20,42.80,42.57,180.00,14.00,0.00,30.22,M,10.00,M,CLR,M,M,M,M,M,M,M,M,M,M,M,M,M,M,66.20,K05U 290515Z AUTO 18014KT 10SM CLR 19/06 A3022 RMK A01,M
MEV,2022-09-29 05:15,-119.7500,38.9963,1441.42,62.60,32.00,31.56,0.00,0.00,0.00,30.15,M,10.00,M,CLR,M,M,M,M,M,M,M,M,M,M,M,M,M,M,62.60,KMEV 290515Z AUTO 00000KT 10SM CLR 17/M00 A3015 RMK AO2,M
HTH,2022-09-29 05:15,-118.6315,38.5448,1282.89,75.20,26.60,16.43,210.00,14.00,0.00,30.11,M,10.00,20.00,CLR,M,M,M,M,M,M,M,M,M,M,M,M,M,M,75.20,KHTH 290515Z AUTO 21014G20KT 10SM CLR 24/M03 A3011 RMK A01,M
TMT,2022-09-29 05:15,-117.1971,39.4643,1749.34,M,M,M,200.00,8.00,0.00,30.24,M,10.00,M,CLR,M,M,M,M,M,M,M,M,M,M,M,M,M,M,M,KTMT 290515Z AUTO 20008KT 10SM CLR A3024 RMK AO2,M
HTH,2022-09-29 05:35,-118.6315,38.5448,1282.89,75.20,28.40,17.70,200.00,10.00,0.00,30.11,M,10.00,M,CLR,M,M,M,M,M,M,M,M,M,M,M,M,M,M,75.20,KHTH 290535Z AUTO 20010KT 10SM CLR 24/M02 A3011 RMK A01,M
TMT,2022-09-29 05:35,-117.1971,39.4643,1749.34,M,M,M,0.00,0.00,0.00,30.24,M,10.00,M,CLR,M,M,M,M,M,M,M,M,M,M,M,M,M,M,M,KTMT 290535Z AUTO 00000KT 10SM CLR A3024 RMK AO2,M
BVU,2022-09-29 05:35,-114.8611,35.9475,671.00,78.80,53.60,41.69,360.00,6.00,0.00,30.04,M,10.00,M,CLR,M,M,M,M,M,M,M,M,M,M,M,M,M,M,78.80,KBVU 290535Z AUTO 36006KT 10SM CLR 26/12 A3004 RMK AO2,M
CXP,2022-09-29 05:35,-119.7326,39.1923,1431.00,66.20,35.60,32.14,0.00,0.00,0.00,30.17,M,10.00,M,CLR,M,M,M,M,M,M,M,M,M,M,M,M,M,M,66.20,KCXP 290535Z AUTO 00000KT 10SM CLR 19/02 A3017 RMK AO2,M
05U,2022-09-29 05:35,-116.0051,39.6042,1811.23,66.20,42.80,42.57,280.00,10.00,0.00,30.24,M,10.00,M,CLR,M,M,M,M,M,M,M,M,M,M,M,M,M,M,66.20,K05U 290535Z AUTO 28010KT 10SM CLR 19/06 A3024 RMK A01,M
RTS,2022-09-29 05:35,-119.8764,39.6682,1539.00,64.40,30.20,27.55,260.00,9.00,0.00,30.19,M,10.00,15.00,CLR,M,M,M,M,M,M,M,M,M,M,M,M,M,M,64.40,KRTS 290535Z AUTO 26009G15KT 10SM CLR 18/M01 A3019 RMK AO2,M
MEV,2022-09-29 05:35,-119.7500,38.9963,1441.42,57.20,32.00,38.26,60.00,3.00,0.00,30.15,M,10.00,M,CLR,M,M,M,M,M,M,M,M,M,M,M,M,M,M,57.20,KMEV 290535Z AUTO 06003KT 10SM CLR 14/M00 A3015 RMK AO2,M
BAM,2022-09-29 05:35,-116.8743,40.5990,1382.36,66.20,30.20,25.88,230.00,9.00,0.00,30.12,M,10.00,M,CLR,M,M,M,M,M,M,M,M,M,M,M,M,M,M,66.20,KBAM 290535Z AUTO 23009KT 10SM CLR 19/M01 A3012 RMK AO1,M
ELY,2022-09-29 05:53,-114.8453,39.2950,1909.00,59.00,43.00,55.28,210.00,12.00,0.00,30.28,1015.80,10.00,M,CLR,M,M,M,M,M,M,M,M,M,M,M,M,M,M,59.00,KELY 290553Z AUTO 21012KT 10SM CLR 15/06 A3028 RMK AO2 SLP158 T01500061 10228 20144 51005,M
LOL,2022-09-29 05:53,-118.5701,40.0684,1192.43,72.00,32.00,22.82,270.00,15.00,0.00,30.09,1014.80,10.00,M,CLR,M,M,M,M,M,M,M,M,M,M,M,M,M,M,72.00,KLOL 290553Z AUTO 27015KT 10SM CLR 22/00 A3009 RMK AO2 SLP148 T02220000 10306 20217 51017,M
DRA,2022-09-29 05:53,-116.0278,36.6206,1009.00,73.00,47.00,39.43,40.00,4.00,0.00,30.08,1013.90,10.00,M,CLR,M,M,M,M,M,M,M,M,M,M,M,M,M,M,73.00,KDRA 290553Z AUTO 04004KT 10SM CLR 23/08 A3008 RMK AO2 SLP139 T02280083 10322 20217 51007,M
P68,2022-09-29 05:53,-116.0056,39.6014,1993.00,65.00,42.00,43.36,240.00,3.00,0.00,30.22,1014.70,M,M,M,M,M,M,M,M,M,M,M,M,M,M,M,M,M,64.90,KP68 290553Z AUTO 24003KT 18/06 A3022 RMK AO1 SLP147 T01830056 10267 20178 53010,M
VGT,2022-09-29 05:53,-115.1933,36.2111,667.00,81.00,55.00,40.83,200.00,3.00,0.00,30.05,1016.90,10.00,M,CLR,M,M,M,M,M,M,M,M,M,M,M,M,M,M,80.73,KVGT 290553Z AUTO 20003KT 10SM CLR 27/13 A3005 RMK AO2 SLP169 T02720128 10328 20272 51007,M
HTH,2022-09-29 05:55,-118.6315,38.5448,1282.89,75.20,28.40,17.70,210.00,11.00,0.00,30.12,M,10.00,M,CLR,M,M,M,M,M,M,M,M,M,M,M,M,M,M,75.20,KHTH 290555Z AUTO 21011KT 10SM CLR 24/M02 A3012 RMK A01,M
BVU,2022-09-29 05:55,-114.8611,35.9475,671.00,77.00,55.40,47.25,40.00,3.00,0.00,30.05,M,10.00,M,CLR,M,M,M,M,M,M,M,M,M,M,M,M,M,M,77.00,KBVU 290555Z AUTO 04003KT 10SM CLR 25/13 A3005 RMK AO2,M
CXP,2022-09-29 05:55,-119.7326,39.1923,1431.00,62.60,35.60,36.45,0.00,0.00,0.00,30.17,M,10.00,M,CLR,M,M,M,M,M,M,M,M,M,M,M,M,M,M,62.60,KCXP 290555Z AUTO 00000KT 10SM CLR 17/02 A3017 RMK AO2,M
RNO,2022-09-29 05:55,-119.7711,39.4839,1341.00,68.00,34.00,28.34,M,4.00,0.00,30.15,1015.50,10.00,M,SCT,BKN,M,M,15000.00,22000.00,M,M,M,M,M,M,M,M,M,68.00,KRNO 290555Z VRB04KT 10SM SCT150 BKN220 20/01 A3015 RMK AO2 SLP155 T02000011 10278 20194 51013,M
RTS,2022-09-29 05:55,-119.8764,39.6682,1539.00,62.60,30.20,29.35,270.00,11.00,0.00,30.19,M,10.00,M,CLR,M,M,M,M,M,M,M,M,M,M,M,M,M,M,62.60,KRTS 290555Z AUTO 27011KT 10SM CLR 17/M01 A3019 RMK AO2,M
05U,2022-09-29 05:55,-116.0051,39.6042,1811.23,66.20,42.80,42.57,240.00,4.00,0.00,30.24,M,10.00,12.00,FEW,M,M,M,12000.00,M,M,M,M,M,M,M,M,M,M,66.20,K05U 290555Z AUTO 24004G12KT 10SM FEW120 19/06 A3024 RMK A01,M
MEV,2022-09-29 05:55,-119.7500,38.9963,1441.42,57.20,32.00,38.26,80.00,5.00,0.00,30.15,M,9.00,M,CLR,M,M,M,M,M,M,M,M,M,M,M,M,M,M,57.20,KMEV 290555Z AUTO 08005KT 9SM CLR 14/M00 A3015 RMK AO2,M
BAM,2022-09-29 05:55,-116.8743,40.5990,1382.36,68.00,30.20,24.32,230.00,9.00,0.00,30.13,M,10.00,M,CLR,M,M,M,M,M,M,M,M,M,M,M,M,M,M,68.00,KBAM 290555Z AUTO 23009KT 10SM CLR 20/M01 A3013 RMK AO1,M
TMT,2022-09-29 05:55,-117.1971,39.4643,1749.34,51.60,30.20,43.64,270.00,3.00,0.00,30.24,M,10.00,M,CLR,M,M,M,M,M,M,M,M,M,M,M,M,M,M,51.60,KTMT 290555Z AUTO 27003KT 10SM CLR 11/M01 A3024 RMK AO2 T01091010,M
NFL,2022-09-29 05:56,-118.7010,39.4166,1199.00,68.00,32.00,26.15,250.00,5.00,0.00,30.09,1015.80,10.00,M,FEW,M,M,M,25000.00,M,M,M,M,M,M,M,M,M,M,68.00,KNFL 290556Z 25005KT 10SM FEW250 20/00 A3009 RMK AO2 SLP158 T02000000 10311 20194 51014,M
LSV,2022-09-29 05:56,-115.0343,36.2362,570.00,77.50,56.30,48.02,40.00,5.00,0.00,30.01,1014.20,10.00,M,CLR,M,M,M,M,M,M,M,M,M,M,M,M,M,M,77.50,KLSV 290556Z AUTO 04005KT 10SM CLR 25/14 A3001 RMK AO2 SLP142 T02530135 10317 20253 52008 $,M
LAS,2022-09-29 05:56,-115.1634,36.0719,663.00,79.00,57.00,46.87,0.00,0.00,0.00,30.05,1015.50,10.00,M,SCT,M,M,M,25000.00,M,M,M,M,M,M,M,M,M,M,79.00,KLAS 290556Z 00000KT 10SM SCT250 26/14 A3005 RMK AO2 SLP155 T02610139 10317 20261 50006,M
EKO,2022-09-29 05:56,-115.7860,40.8242,1367.00,61.00,30.00,30.80,340.00,4.00,0.00,30.14,1015.80,10.00,M,CLR,M,M,M,M,M,M,M,M,M,M,M,M,M,M,61.00,KEKO 290556Z AUTO 34004KT 10SM CLR 16/M01 A3014 RMK AO2 SLP158 T01611011 10283 20139 51011,M
HND,2022-09-29 05:56,-115.1344,35.9729,742.79,74.00,60.00,62.05,160.00,6.00,0.00,30.09,1018.30,10.00,M,CLR,M,M,M,M,M,M,M,M,M,M,M,M,M,M,73.90,KHND 290556Z AUTO 16006KT 10SM CLR 23/16 A3009 RMK AO2 SLP183 T02330156 10311 20233 51008,M
TPH,2022-09-29 05:56,-117.0904,38.0505,1654.00,65.00,44.00,46.81,90.00,7.00,0.00,30.22,1016.00,10.00,M,CLR,M,M,M,M,M,M,M,M,M,M,M,M,M,M,64.90,KTPH 290556Z AUTO 09007KT 10SM CLR 18/07 A3022 RMK AO2 SLP160 T01830067 10289 20183 51013,M
WMC,2022-09-29 05:56,-117.8072,40.9019,1315.00,71.00,27.00,19.18,280.00,12.00,0.00,30.10,1014.30,10.00,21.00,CLR,M,M,M,M,M,M,M,M,M,M,M,M,M,M,71.10,KWMC 290556Z AUTO 28012G21KT 10SM CLR 22/M03 A3010 RMK AO2 SLP143 T02171028 10294 20200 50016,M
INS,2022-09-29 05:56,-115.6733,36.5872,955.00,72.70,52.30,48.71,0.00,0.00,0.00,30.08,1014.20,10.00,M,FEW,M,M,M,12000.00,M,M,M,M,M,M,M,M,M,M,72.70,KINS 290556Z AUTO 00000KT 10SM FEW120 23/11 A3008 RMK AO2 SLP142 T02260113 10294 20224 51009 $,M
RTS,2022-09-29 06:15,-119.8764,39.6682,1539.00,62.60,30.20,29.35,280.00,11.00,0.00,30.18,M,10.00,M,CLR,M,M,M,M,M,M,M,M,M,M,M,M,M,M,62.60,KRTS 290615Z AUTO 28011KT 10SM CLR 17/M01 A3018 RMK AO2,M
BAM,2022-09-29 06:15,-116.8743,40.5990,1382.36,68.00,30.20,24.32,230.00,8.00,0.00,30.13,M,10.00,M,CLR,M,M,M,M,M,M,M,M,M,M,M,M,M,M,68.00,KBAM 290615Z AUTO 23008KT 10SM CLR 20/M01 A3013 RMK AO1,M
MEV,2022-09-29 06:15,-119.7500,38.9963,1441.42,59.00,30.20,33.35,0.00,0.00,0.00,30.15,M,10.00,M,CLR,M,M,M,M,M,M,M,M,M,M,M,M,M,M,59.00,KMEV 290615Z AUTO 00000KT 10SM CLR 15/M01 A3015 RMK AO2,M
HTH,2022-09-29 06:15,-118.6315,38.5448,1282.89,75.20,28.40,17.70,200.00,11.00,0.00,30.11,M,10.00,17.00,CLR,M,M,M,M,M,M,M,M,M,M,M,M,M,M,75.20,KHTH 290615Z AUTO 20011G17KT 10SM CLR 24/M02 A3011 RMK A01,M
CXP,2022-09-29 06:15,-119.7326,39.1923,1431.00,62.60,35.60,36.45,0.00,0.00,0.00,30.17,M,10.00,M,CLR,M,M,M,M,M,M,M,M,M,M,M,M,M,M,62.60,KCXP 290615Z AUTO 00000KT 10SM CLR 17/02 A3017 RMK AO2,M
BVU,2022-09-29 06:15,-114.8611,35.9475,671.00,78.80,53.60,41.69,70.00,3.00,0.00,30.04,M,10.00,M,CLR,M,M,M,M,M,M,M,M,M,M,M,M,M,M,78.80,KBVU 290615Z AUTO 07003KT 10SM CLR 26/12 A3004 RMK AO2,M
05U,2022-09-29 06:15,-116.0051,39.6042,1811.23,62.60,42.80,48.28,0.00,0.00,0.00,30.24,M,10.00,M,CLR,M,M,M,M,M,M,M,M,M,M,M,M,M,M,62.60,K05U 290615Z AUTO 00000KT 10SM CLR 17/06 A3024 RMK A01,M
TMT,2022-09-29 06:15,-117.1971,39.4643,1749.34,M,M,M,230.00,6.00,0.00,30.24,M,10.00,M,CLR,M,M,M,M,M,M,M,M,M,M,M,M,M,M,M,KTMT 290615Z AUTO 23006KT 10SM CLR A3024 RMK AO2,M
BVU,2022-09-29 06:35,-114.8611,35.9475,671.00,78.80,53.60,41.69,0.00,0.00,0.00,30.05,M,10.00,M,CLR,M,M,M,M,M,M,M,M,M,M,M,M,M,M,78.80,KBVU 290635Z AUTO 00000KT 10SM CLR 26/12 A3005 RMK AO2,M
CXP,2022-09-29 06:35,-119.7326,39.1923,1431.00,64.40,35.60,34.22,0.00,0.00,0.00,30.16,M,10.00,M,CLR,M,M,M,M,M,M,M,M,M,M,M,M,M,M,64.40,KCXP 290635Z AUTO 00000KT 10SM CLR 18/02 A3016 RMK AO2,M
BAM,2022-09-29 06:35,-116.8743,40.5990,1382.36,69.80,32.00,24.59,220.00,9.00,0.00,30.13,M,10.00,M,CLR,M,M,M,M,M,M,M,M,M,M,M,M,M,M,69.80,KBAM 290635Z AUTO 22009KT 10SM CLR 21/00 A3013 RMK AO1,M
05U,2022-09-29 06:35,-116.0051,39.6042,1811.23,60.80,42.80,51.45,0.00,0.00,0.00,30.24,M,10.00,M,CLR,M,M,M,M,M,M,M,M,M,M,M,M,M,M,60.80,K05U 290635Z AUTO 00000KT 10SM CLR 16/06 A3024 RMK A01,M
MEV,2022-09-29 06:35,-119.7500,38.9963,1441.42,62.60,30.20,29.35,140.00,4.00,0.00,30.15,M,10.00,M,CLR,M,M,M,M,M,M,M,M,M,M,M,M,M,M,62.60,KMEV 290635Z AUTO 14004KT 10SM CLR 17/M01 A3015 RMK AO2,M
TMT,2022-09-29 06:35,-117.1971,39.4643,1749.34,48.00,27.50,44.68,160.00,5.00,0.00,30.24,M,10.00,M,CLR,M,M,M,M,M,M,M,M,M,M,M,M,M,M,45.40,KTMT 290635Z AUTO 16005KT 10SM CLR 09/M02 A3024 RMK AO2 T00891025,M
HTH,2022-09-29 06:35,-118.6315,38.5448,1282.89,73.40,28.40,18.80,170.00,11.00,0.00,30.11,M,10.00,M,CLR,M,M,M,M,M,M,M,M,M,M,M,M,M,M,73.40,KHTH 290635Z AUTO 17011KT 10SM CLR 23/M02 A3011 RMK A01,M
RTS,2022-09-29 06:35,-119.8764,39.6682,1539.00,62.60,30.20,29.35,270.00,9.00,0.00,30.18,M,10.00,M,CLR,M,M,M,M,M,M,M,M,M,M,M,M,M,M,62.60,KRTS 290635Z AUTO 27009KT 10SM CLR 17/M01 A3018 RMK AO2,M
LOL,2022-09-29 06:53,-118.5701,40.0684,1192.43,66.00,32.00,28.03,0.00,0.00,0.00,30.09,1015.10,10.00,M,CLR,M,M,M,M,M,M,M,M,M,M,M,M,M,M,66.00,KLOL 290653Z AUTO 00000KT 10SM CLR 19/00 A3009 RMK AO2 SLP151 T01890000,M
P68,2022-09-29 06:53,-116.0056,39.6014,1993.00,63.00,42.00,46.34,M,M,0.00,30.22,1014.90,M,M,M,M,M,M,M,M,M,M,M,M,M,M,M,M,M,63.00,KP68 290653Z AUTO 17/06 A3022 RMK AO1 SLP149 T01720056,M
VGT,2022-09-29 06:53,-115.1933,36.2111,667.00,81.00,55.00,40.83,0.00,0.00,0.00,30.04,1016.40,10.00,M,CLR,M,M,M,M,M,M,M,M,M,M,M,M,M,M,80.73,KVGT 290653Z AUTO 00000KT 10SM CLR 27/13 A3004 RMK AO2 SLP164 T02720128,M
ELY,2022-09-29 06:53,-114.8453,39.2950,1909.00,59.00,43.00,55.28,220.00,10.00,0.00,30.28,1015.50,10.00,M,CLR,M,M,M,M,M,M,M,M,M,M,M,M,M,M,59.00,KELY 290653Z AUTO 22010KT 10SM CLR 15/06 A3028 RMK AO2 SLP155 T01500061 402610056,M
DRA,2022-09-29 06:53,-116.0278,36.6206,1009.00,71.00,46.00,40.65,50.00,3.00,0.00,30.08,1013.80,10.00,M,CLR,M,M,M,M,M,M,M,M,M,M,M,M,M,M,71.10,KDRA 290653Z AUTO 05003KT 10SM CLR 22/08 A3008 RMK AO2 SLP138 T02170078,M
HTH,2022-09-29 06:55,-118.6315,38.5448,1282.89,73.40,28.40,18.80,200.00,8.00,0.00,30.11,M,10.00,17.00,CLR,M,M,M,M,M,M,M,M,M,M,M,M,M,M,73.40,KHTH 290655Z AUTO 20008G17KT 10SM CLR 23/M02 A3011 RMK A01,M
MEV,2022-09-29 06:55,-119.7500,38.9963,1441.42,66.20,32.00,27.83,140.00,4.00,0.00,30.15,M,10.00,M,CLR,M,M,M,M,M,M,M,M,M,M,M,M,M,M,66.20,KMEV 290655Z AUTO 14004KT 10SM CLR 19/M00 A3015 RMK AO2,M
05U,2022-09-29 06:55,-116.0051,39.6042,1811.23,62.60,41.00,45.04,210.00,6.00,0.00,30.25,M,10.00,M,CLR,M,M,M,M,M,M,M,M,M,M,M,M,M,M,62.60,K05U 290655Z AUTO 21006KT 10SM CLR 17/05 A3025 RMK A01,M
RTS,2022-09-29 06:55,-119.8764,39.6682,1539.00,60.80,30.20,31.28,280.00,6.00,0.00,30.18,M,10.00,M,CLR,M,M,M,M,M,M,M,M,M,M,M,M,M,M,60.80,KRTS 290655Z AUTO 28006KT 10SM CLR 16/M01 A3018 RMK AO2,M
CXP,2022-09-29 06:55,-119.7326,39.1923,1431.00,64.40,35.60,34.22,0.00,0.00,0.00,30.16,M,10.00,M,CLR,M,M,M,M,M,M,M,M,M,M,M,M,M,M,64.40,KCXP 290655Z AUTO 00000KT 10SM CLR 18/02 A3016 RMK AO2,M
BVU,2022-09-29 06:55,-114.8611,35.9475,671.00,77.00,53.60,44.25,300.00,3.00,0.00,30.05,M,10.00,M,CLR,M,M,M,M,M,M,M,M,M,M,M,M,M,M,77.00,KBVU 290655Z AUTO 30003KT 10SM CLR 25/12 A3005 RMK AO2,M
RNO,2022-09-29 06:55,-119.7711,39.4839,1341.00,67.00,33.00,28.39,350.00,4.00,0.00,30.13,1014.70,10.00,M,SCT,BKN,M,M,13000.00,22000.00,M,M,M,M,M,M,M,M,M,66.90,KRNO 290655Z 35004KT 10SM SCT130 BKN220 19/01 A3013 RMK AO2 SLP147 T01940006,M
TMT,2022-09-29 06:55,-117.1971,39.4643,1749.34,47.50,27.70,45.90,0.00,0.00,0.00,30.24,M,10.00,M,CLR,M,M,M,M,M,M,M,M,M,M,M,M,M,M,47.50,KTMT 290655Z AUTO 00000KT 10SM CLR 09/M02 A3024 RMK AO2 T00861024,M
BAM,2022-09-29 06:55,-116.8743,40.5990,1382.36,69.80,32.00,24.59,220.00,9.00,0.00,30.13,M,10.00,M,CLR,M,M,M,M,M,M,M,M,M,M,M,M,M,M,69.80,KBAM 290655Z AUTO 22009KT 10SM CLR 21/00 A3013 RMK AO1,M
HND,2022-09-29 06:56,-115.1344,35.9729,742.79,74.00,58.00,57.36,160.00,6.00,0.00,30.08,1017.80,10.00,M,CLR,M,M,M,M,M,M,M,M,M,M,M,M,M,M,73.90,KHND 290656Z AUTO 16006KT 10SM CLR 23/14 A3008 RMK AO2 SLP178 T02330144 403170217,M
WMC,2022-09-29 06:56,-117.8072,40.9019,1315.00,64.00,28.90,26.50,0.00,0.00,0.00,30.10,1014.40,10.00,M,CLR,M,M,M,M,M,M,M,M,M,M,M,M,M,M,64.00,KWMC 290656Z AUTO 00000KT 10SM CLR 18/M02 A3010 RMK AO2 SLP144 T01781017,M
NFL,2022-09-29 06:56,-118.7010,39.4166,1199.00,68.00,32.00,26.15,M,5.00,0.00,30.10,1015.90,10.00,M,FEW,M,M,M,25000.00,M,M,M,M,M,M,M,M,M,M,68.00,KNFL 290656Z VRB05KT 10SM FEW250 20/00 A3010 RMK AO2 SLP159 T02000000,M
LAS,2022-09-29 06:56,-115.1634,36.0719,663.00,78.00,57.00,48.28,210.00,3.00,0.00,30.05,1015.10,10.00,M,CLR,M,M,M,M,M,M,M,M,M,M,M,M,M,M,78.10,KLAS 290656Z 21003KT 10SM CLR 26/14 A3005 RMK AO2 SLP151 T02560139,M
TPH,2022-09-29 06:56,-117.0904,38.0505,1654.00,62.00,44.00,51.64,90.00,7.00,0.00,30.21,1015.80,10.00,M,CLR,M,M,M,M,M,M,M,M,M,M,M,M,M,M,62.10,KTPH 290656Z AUTO 09007KT 10SM CLR 17/07 A3021 RMK AO2 SLP158 T01670067,M
EKO,2022-09-29 06:56,-115.7860,40.8242,1367.00,58.00,33.00,39.00,0.00,0.00,0.00,30.15,1015.70,10.00,M,CLR,M,M,M,M,M,M,M,M,M,M,M,M,M,M,57.90,KEKO 290656Z AUTO 00000KT 10SM CLR 14/01 A3015 RMK AO2 SLP157 T01440006,M
INS,2022-09-29 06:56,-115.6733,36.5872,955.00,72.30,51.00,46.89,180.00,4.00,0.00,30.08,1014.50,10.00,M,CLR,M,M,M,M,M,M,M,M,M,M,M,M,M,M,72.30,KINS 290656Z AUTO 18004KT 10SM CLR 22/11 A3008 RMK AO2 SLP145 T02240105 $,M
LSV,2022-09-29 06:56,-115.0343,36.2362,570.00,73.80,54.00,49.96,0.00,0.00,0.00,30.01,1014.20,10.00,M,CLR,M,M,M,M,M,M,M,M,M,M,M,M,M,M,73.80,KLSV 290656Z AUTO 00000KT 10SM CLR 23/12 A3001 RMK AO2 SLP142 T02320122 $,M
BVU,2022-09-29 07:15,-114.8611,35.9475,671.00,75.20,55.40,50.17,350.00,3.00,0.00,30.05,M,10.00,M,CLR,M,M,M,M,M,M,M,M,M,M,M,M,M,M,75.20,KBVU 290715Z AUTO 35003KT 10SM CLR 24/13 A3005 RMK AO2,M
TMT,2022-09-29 07:15,-117.1971,39.4643,1749.34,48.00,28.20,45.98,250.00,3.00,0.00,30.24,M,10.00,M,CLR,M,M,M,M,M,M,M,M,M,M,M,M,M,M,46.98,KTMT 290715Z AUTO 25003KT 10SM CLR 09/M02 A3024 RMK AO2 T00891021,M
HTH,2022-09-29 07:15,-118.6315,38.5448,1282.89,73.40,28.40,18.80,200.00,10.00,0.00,30.12,M,10.00,M,CLR,M,M,M,M,M,M,M,M,M,M,M,M,M,M,73.40,KHTH 290715Z AUTO 20010KT 10SM CLR 23/M02 A3012 RMK A01,M
BAM,2022-09-29 07:15,-116.8743,40.5990,1382.36,66.20,30.20,25.88,240.00,8.00,0.00,30.13,M,10.00,M,CLR,M,M,M,M,M,M,M,M,M,M,M,M,M,M,66.20,KBAM 290715Z AUTO 24008KT 10SM CLR 19/M01 A3013 RMK AO1,M
MEV,2022-09-29 07:15,-119.7500,38.9963,1441.42,66.20,32.00,27.83,150.00,4.00,0.00,30.15,M,10.00,M,CLR,M,M,M,M,M,M,M,M,M,M,M,M,M,M,66.20,KMEV 290715Z AUTO 15004KT 10SM CLR 19/M00 A3015 RMK AO2,M
05U,2022-09-29 07:15,-116.0051,39.6042,1811.23,62.60,41.00,45.04,230.00,4.00,0.00,30.24,M,10.00,10.00,CLR,M,M,M,M,M,M,M,M,M,M,M,M,M,M,62.60,K05U 290715Z AUTO 23004G10KT 10SM CLR 17/05 A3024 RMK A01,M
RTS,2022-09-29 07:15,-119.8764,39.6682,1539.00,60.80,30.20,31.28,280.00,8.00,0.00,30.18,M,10.00,M,CLR,M,M,M,M,M,M,M,M,M,M,M,M,M,M,60.80,KRTS 290715Z AUTO 28008KT 10SM CLR 16/M01 A3018 RMK AO2,M
CXP,2022-09-29 07:15,-119.7326,39.1923,1431.00,64.40,35.60,34.22,0.00,0.00,0.00,30.16,M,10.00,M,CLR,M,M,M,M,M,M,M,M,M,M,M,M,M,M,64.40,KCXP 290715Z AUTO 00000KT 10SM CLR 18/02 A3016 RMK AO2,M
RTS,2022-09-29 07:35,-119.8764,39.6682,1539.00,60.80,30.20,31.28,M,7.00,0.00,30.18,M,10.00,12.00,CLR,M,M,M,M,M,M,M,M,M,M,M,M,M,M,60.80,KRTS 290735Z AUTO VRB07G12KT 10SM CLR 16/M01 A3018 RMK AO2,M
BVU,2022-09-29 07:35,-114.8611,35.9475,671.00,75.20,55.40,50.17,0.00,0.00,0.00,30.05,M,10.00,M,CLR,M,M,M,M,M,M,M,M,M,M,M,M,M,M,75.20,KBVU 290735Z AUTO 00000KT 10SM CLR 24/13 A3005 RMK AO2,M
HTH,2022-09-29 07:35,-118.6315,38.5448,1282.89,73.40,28.40,18.80,200.00,10.00,0.00,30.12,M,10.00,16.00,CLR,M,M,M,M,M,M,M,M,M,M,M,M,M,M,73.40,KHTH 290735Z AUTO 20010G16KT 10SM CLR 23/M02 A3012 RMK A01,M
BAM,2022-09-29 07:35,-116.8743,40.5990,1382.36,66.20,30.20,25.88,230.00,8.00,0.00,30.13,M,10.00,M,CLR,M,M,M,M,M,M,M,M,M,M,M,M,M,M,66.20,KBAM 290735Z AUTO 23008KT 10SM CLR 19/M01 A3013 RMK AO1,M
MEV,2022-09-29 07:35,-119.7500,38.9963,1441.42,62.60,32.00,31.56,140.00,6.00,0.00,30.14,M,10.00,M,CLR,M,M,M,M,M,M,M,M,M,M,M,M,M,M,62.60,KMEV 290735Z AUTO 14006KT 10SM CLR 17/M00 A3014 RMK AO2,M
05U,2022-09-29 07:35,-116.0051,39.6042,1811.23,M,M,M,200.00,4.00,0.00,30.25,M,10.00,M,CLR,M,M,M,M,M,M,M,M,M,M,M,M,M,M,M,K05U 290735Z AUTO 20004KT 10SM CLR A3025 RMK A01,M
CXP,2022-09-29 07:35,-119.7326,39.1923,1431.00,60.80,33.80,36.16,0.00,0.00,0.00,30.16,M,10.00,M,CLR,M,M,M,M,M,M,M,M,M,M,M,M,M,M,60.80,KCXP 290735Z AUTO 00000KT 10SM CLR 16/01 A3016 RMK AO2,M
TMT,2022-09-29 07:35,-117.1971,39.4643,1749.34,48.40,29.10,47.00,200.00,4.00,0.00,30.24,M,10.00,M,CLR,M,M,M,M,M,M,M,M,M,M,M,M,M,M,46.57,KTMT 290735Z AUTO 20004KT 10SM CLR 09/M02 A3024 RMK AO2 T00911016,M
ELY,2022-09-29 07:53,-114.8453,39.2950,1909.00,58.00,42.00,55.55,200.00,10.00,0.00,30.27,1015.50,10.00,M,BKN,M,M,M,12000.00,M,M,M,M,M,M,M,M,M,M,57.90,KELY 290753Z AUTO 20010KT 10SM BKN120 14/06 A3027 RMK AO2 SLP155 T01440056,M
DRA,2022-09-29 07:53,-116.0278,36.6206,1009.00,69.00,47.00,45.02,0.00,0.00,0.00,30.08,1014.20,10.00,M,CLR,M,M,M,M,M,M,M,M,M,M,M,M,M,M,69.10,KDRA 290753Z AUTO 00000KT 10SM CLR 21/08 A3008 RMK AO2 SLP142 T02060083 403220194,M
LOL,2022-09-29 07:53,-118.5701,40.0684,1192.43,63.00,30.90,29.77,180.00,5.00,0.00,30.09,1015.10,10.00,M,CLR,M,M,M,M,M,M,M,M,M,M,M,M,M,M,63.00,KLOL 290753Z AUTO 18005KT 10SM CLR 17/M01 A3009 RMK AO2 SLP151 T01721006 403110056,M
VGT,2022-09-29 07:53,-115.1933,36.2111,667.00,79.00,55.00,43.59,210.00,3.00,0.00,30.04,1016.40,10.00,M,CLR,M,M,M,M,M,M,M,M,M,M,M,M,M,M,79.00,KVGT 290753Z AUTO 21003KT 10SM CLR 26/13 A3004 RMK AO2 SLP164 T02610128 403280239,M
P68,2022-09-29 07:53,-116.0056,39.6014,1993.00,61.00,42.00,49.73,180.00,5.00,0.00,30.22,1015.00,M,M,M,M,M,M,M,M,M,M,M,M,M,M,M,M,M,61.00,KP68 290753Z AUTO 18005KT 16/06 A3022 RMK AO1 SLP150 T01610056 402780061,M
05U,2022-09-29 07:55,-116.0051,39.6042,1811.23,60.80,41.00,48.00,180.00,4.00,0.00,30.25,M,10.00,M,CLR,M,M,M,M,M,M,M,M,M,M,M,M,M,M,60.80,K05U 290755Z AUTO 18004KT 10SM CLR 16/05 A3025 RMK A01,M
RNO,2022-09-29 07:55,-119.7711,39.4839,1341.00,63.00,34.00,33.72,0.00,0.00,0.00,30.13,1015.00,10.00,M,FEW,SCT,M,M,11000.00,23000.00,M,M,M,M,M,M,M,M,M,63.00,KRNO 290755Z 00000KT 10SM FEW110 SCT230 17/01 A3013 RMK AO2 SLP150 T01720011 402940106,M
CXP,2022-09-29 07:55,-119.7326,39.1923,1431.00,62.60,35.60,36.45,0.00,0.00,0.00,30.16,M,10.00,M,CLR,M,M,M,M,M,M,M,M,M,M,M,M,M,M,62.60,KCXP 290755Z AUTO 00000KT 10SM CLR 17/02 A3016 RMK AO2,M
BVU,2022-09-29 07:55,-114.8611,35.9475,671.00,75.20,55.40,50.17,0.00,0.00,0.00,30.05,M,10.00,M,CLR,M,M,M,M,M,M,M,M,M,M,M,M,M,M,75.20,KBVU 290755Z AUTO 00000KT 10SM CLR 24/13 A3005 RMK AO2,M
TMT,2022-09-29 07:55,-117.1971,39.4643,1749.34,47.50,28.40,47.24,270.00,3.00,0.00,30.24,M,10.00,M,CLR,M,M,M,M,M,M,M,M,M,M,M,M,M,M,46.41,KTMT 290755Z AUTO 27003KT 10SM CLR 09/M02 A3024 RMK AO2 T00861020,M
HTH,2022-09-29 07:55,-118.6315,38.5448,1282.89,73.40,28.40,18.80,200.00,10.00,0.00,30.11,M,10.00,M,CLR,M,M,M,M,M,M,M,M,M,M,M,M,M,M,73.40,KHTH 290755Z AUTO 20010KT 10SM CLR 23/M02 A3011 RMK A01,M
BAM,2022-09-29 07:55,-116.8743,40.5990,1382.36,64.40,30.20,27.55,240.00,7.00,0.00,30.13,M,10.00,M,CLR,M,M,M,M,M,M,M,M,M,M,M,M,M,M,64.40,KBAM 290755Z AUTO 24007KT 10SM CLR 18/M01 A3013 RMK AO1,M
MEV,2022-09-29 07:55,-119.7500,38.9963,1441.42,60.80,32.00,33.64,150.00,10.00,0.00,30.14,M,10.00,M,CLR,M,M,M,M,M,M,M,M,M,M,M,M,M,M,60.80,KMEV 290755Z AUTO 15010KT 10SM CLR 16/M00 A3014 RMK AO2,M
RTS,2022-09-29 07:55,-119.8764,39.6682,1539.00,60.80,30.20,31.28,250.00,4.00,0.00,30.18,M,10.00,M,CLR,M,M,M,M,M,M,M,M,M,M,M,M,M,M,60.80,KRTS 290755Z AUTO 25004KT 10SM CLR 16/M01 A3018 RMK AO2,M
HND,2022-09-29 07:56,-115.1344,35.9729,742.79,72.00,59.00,63.61,170.00,5.00,0.00,30.08,1017.70,10.00,M,CLR,M,M,M,M,M,M,M,M,M,M,M,M,M,M,72.00,KHND 290756Z AUTO 17005KT 10SM CLR 22/15 A3008 RMK AO2 SLP177 T02220150,M
LSV,2022-09-29 07:56,-115.0343,36.2362,570.00,72.00,54.50,53.88,40.00,4.00,0.00,30.01,1014.20,10.00,M,CLR,M,M,M,M,M,M,M,M,M,M,M,M,M,M,72.10,KLSV 290756Z AUTO 04004KT 10SM CLR 22/13 A3001 RMK AO2 SLP142 T02230125 403240211 $,M
EKO,2022-09-29 07:56,-115.7860,40.8242,1367.00,54.00,33.00,44.92,10.00,4.00,0.00,30.15,1016.20,10.00,M,CLR,M,M,M,M,M,M,M,M,M,M,M,M,M,M,54.00,KEKO 290756Z AUTO 01004KT 10SM CLR 12/01 A3015 RMK AO2 SLP162 T01220006 403000050,M
NFL,2022-09-29 07:56,-118.7010,39.4166,1199.00,64.00,33.00,31.41,10.00,3.00,0.00,30.10,1015.80,10.00,M,CLR,M,M,M,M,M,M,M,M,M,M,M,M,M,M,64.00,KNFL 290756Z AUTO 01003KT 10SM CLR 18/01 A3010 RMK AO2 SLP158 T01780006 403170122,M
WMC,2022-09-29 07:56,-117.8072,40.9019,1315.00,63.00,28.00,26.45,250.00,9.00,0.00,30.11,1014.60,10.00,M,CLR,M,M,M,M,M,M,M,M,M,M,M,M,M,M,63.00,KWMC 290756Z AUTO 25009KT 10SM CLR 17/M02 A3011 RMK AO2 SLP146 T01721022 403110072,M
TPH,2022-09-29 07:56,-117.0904,38.0505,1654.00,62.00,43.00,49.52,0.00,0.00,0.00,30.22,1015.80,10.00,M,CLR,M,M,M,M,M,M,M,M,M,M,M,M,M,M,62.10,KTPH 290756Z AUTO 00000KT 10SM CLR 17/06 A3022 RMK AO2 SLP158 T01670061 403000111,M
INS,2022-09-29 07:56,-115.6733,36.5872,955.00,68.50,52.20,56.00,270.00,3.00,0.00,30.08,1014.50,10.00,M,CLR,M,M,M,M,M,M,M,M,M,M,M,M,M,M,68.50,KINS 290756Z AUTO 27003KT 10SM CLR 20/11 A3008 RMK AO2 SLP145 T02030112 402970182 $,M
LAS,2022-09-29 07:56,-115.1634,36.0719,663.00,76.00,56.00,49.91,210.00,4.00,0.00,30.05,1015.10,10.00,M,CLR,M,M,M,M,M,M,M,M,M,M,M,M,M,M,75.90,KLAS 290756Z 21004KT 10SM CLR 24/13 A3005 RMK AO2 SLP151 T02440133 403170222,M
05U,2022-09-29 08:15,-116.0051,39.6042,1811.23,57.20,42.80,58.52,140.00,5.00,0.00,30.25,M,10.00,M,CLR,M,M,M,M,M,M,M,M,M,M,M,M,M,M,57.20,K05U 290815Z AUTO 14005KT 10SM CLR 14/06 A3025 RMK A01,M
RTS,2022-09-29 08:15,-119.8764,39.6682,1539.00,60.80,32.00,33.64,270.00,7.00,0.00,30.18,M,10.00,M,CLR,M,M,M,M,M,M,M,M,M,M,M,M,M,M,60.80,KRTS 290815Z AUTO 27007KT 10SM CLR 16/M00 A3018 RMK AO2,M
CXP,2022-09-29 08:15,-119.7326,39.1923,1431.00,60.80,33.80,36.16,0.00,0.00,0.00,30.16,M,10.00,M,CLR,M,M,M,M,M,M,M,M,M,M,M,M,M,M,60.80,KCXP 290815Z AUTO 00000KT 10SM CLR 16/01 A3016 RMK AO2,M
TMT,2022-09-29 08:15,-117.1971,39.4643,1749.34,42.80,27.30,53.99,0.00,0.00,0.00,30.24,M,10.00,M,CLR,M,M,M,M,M,M,M,M,M,M,M,M,M,M,42.80,KTMT 290815Z AUTO 00000KT 10SM CLR 06/M03 A3024 RMK AO2 T00601026,M
BVU,2022-09-29 08:15,-114.8611,35.9475,671.00,73.40,55.40,53.29,0.00,0.00,0.00,30.05,M,10.00,M,CLR,M,M,M,M,M,M,M,M,M,M,M,M,M,M,73.40,KBVU 290815Z AUTO 00000KT 10SM CLR 23/13 A3005 RMK AO2,M
HTH,2022-09-29 08:15,-118.6315,38.5448,1282.89,73.40,28.40,18.80,210.00,12.00,0.00,30.11,M,10.00,M,CLR,M,M,M,M,M,M,M,M,M,M,M,M,M,M,73.40,KHTH 290815Z AUTO 21012KT 10SM CLR 23/M02 A3011 RMK A01,M
BAM,2022-09-29 08:15,-116.8743,40.5990,1382.36,62.60,30.20,29.35,250.00,7.00,0.00,30.13,M,10.00,M,CLR,M,M,M,M,M,M,M,M,M,M,M,M,M,M,62.60,KBAM 290815Z AUTO 25007KT 10SM CLR 17/M01 A3013 RMK AO1,M
MEV,2022-09-29 08:15,-119.7500,38.9963,1441.42,60.80,32.00,33.64,150.00,8.00,0.00,30.14,M,10.00,M,CLR,M,M,M,M,M,M,M,M,M,M,M,M,M,M,60.80,KMEV 290815Z AUTO 15008KT 10SM CLR 16/M00 A3014 RMK AO2,M
05U,2022-09-29 08:35,-116.0051,39.6042,1811.23,59.00,41.00,51.18,180.00,5.00,0.00,30.25,M,10.00,M,CLR,M,M,M,M,M,M,M,M,M,M,M,M,M,M,59.00,K05U 290835Z AUTO 18005KT 10SM CLR 15/05 A3025 RMK A01,M
MEV,2022-09-29 08:35,-119.7500,38.9963,1441.42,60.80,32.00,33.64,140.00,6.00,0.00,30.14,M,10.00,M,CLR,M,M,M,M,M,M,M,M,M,M,M,M,M,M,60.80,KMEV 290835Z AUTO 14006KT 10SM CLR 16/M00 A3014 RMK AO2,M
BAM,2022-09-29 08:35,-116.8743,40.5990,1382.36,62.60,32.00,31.56,240.00,6.00,0.00,30.13,M,10.00,M,CLR,M,M,M,M,M,M,M,M,M,M,M,M,M,M,62.60,KBAM 290835Z AUTO 24006KT 10SM CLR 17/00 A3013 RMK AO1,M
TMT,2022-09-29 08:35,-117.1971,39.4643,1749.34,42.80,27.00,53.32,0.00,0.00,0.00,30.24,M,10.00,M,CLR,M,M,M,M,M,M,M,M,M,M,M,M,M,M,42.80,KTMT 290835Z AUTO 00000KT 10SM CLR 06/M03 A3024 RMK AO2 T00601028,M
HTH,2022-09-29 08:35,-118.6315,38.5448,1282.89,71.60,28.40,19.98,200.00,11.00,0.00,30.12,M,10.00,M,CLR,M,M,M,M,M,M,M,M,M,M,M,M,M,M,71.60,KHTH 290835Z AUTO 20011KT 10SM CLR 22/M02 A3012 RMK A01,M
CXP,2022-09-29 08:35,-119.7326,39.1923,1431.00,59.00,35.60,41.42,M,3.00,0.00,30.16,M,10.00,M,CLR,M,M,M,M,M,M,M,M,M,M,M,M,M,M,59.00,KCXP 290835Z AUTO VRB03KT 10SM CLR 15/02 A3016 RMK AO2,M
BVU,2022-09-29 08:35,-114.8611,35.9475,671.00,73.40,53.60,49.90,360.00,3.00,0.00,30.05,M,10.00,M,CLR,M,M,M,M,M,M,M,M,M,M,M,M,M,M,73.40,KBVU 290835Z AUTO 36003KT 10SM CLR 23/12 A3005 RMK AO2,M
RTS,2022-09-29 08:35,-119.8764,39.6682,1539.00,59.00,32.00,35.87,270.00,8.00,0.00,30.19,M,10.00,M,CLR,M,M,M,M,M,M,M,M,M,M,M,M,M,M,59.00,KRTS 290835Z AUTO 27008KT 10SM CLR 15/M00 A3019 RMK AO2,M
P68,2022-09-29 08:53,-116.0056,39.6014,1993.00,57.00,40.00,52.70,180.00,5.00,0.00,30.23,1015.30,M,M,M,M,M,M,M,M,M,M,M,M,M,M,M,M,M,57.00,KP68 290853Z AUTO 18005KT 14/04 A3023 RMK AO1 SLP153 T01390044 52002,M
DRA,2022-09-29 08:53,-116.0278,36.6206,1009.00,70.00,46.00,42.20,50.00,3.00,0.00,30.08,1013.90,10.00,M,CLR,M,M,M,M,M,M,M,M,M,M,M,M,M,M,70.00,KDRA 290853Z AUTO 05003KT 10SM CLR 21/08 A3008 RMK AO2 SLP139 T02110078 58001,M
LOL,2022-09-29 08:53,-118.5701,40.0684,1192.43,62.00,32.00,32.13,90.00,3.00,0.00,30.10,1015.40,10.00,M,CLR,M,M,M,M,M,M,M,M,M,M,M,M,M,M,62.10,KLOL 290853Z AUTO 09003KT 10SM CLR 17/00 A3010 RMK AO2 SLP154 T01670000 53004,M
VGT,2022-09-29 08:53,-115.1933,36.2111,667.00,78.00,55.00,44.90,230.00,3.00,0.00,30.04,1016.30,10.00,M,CLR,M,M,M,M,M,M,M,M,M,M,M,M,M,M,78.10,KVGT 290853Z AUTO 23003KT 10SM CLR 26/13 A3004 RMK AO2 SLP163 T02560128 56002,M
ELY,2022-09-29 08:53,-114.8453,39.2950,1909.00,57.00,41.00,54.99,220.00,9.00,0.00,30.27,1015.60,10.00,M,FEW,M,M,M,12000.00,M,M,M,M,M,M,M,M,M,M,57.00,KELY 290853Z AUTO 22009KT 10SM FEW120 14/05 A3027 RMK AO2 SLP156 T01390050 55002,M
MEV,2022-09-29 08:55,-119.7500,38.9963,1441.42,59.00,32.00,35.87,170.00,4.00,0.00,30.14,M,10.00,M,CLR,M,M,M,M,M,M,M,M,M,M,M,M,M,M,59.00,KMEV 290855Z AUTO 17004KT 10SM CLR 15/M00 A3014 RMK AO2,M
05U,2022-09-29 08:55,-116.0051,39.6042,1811.23,59.00,41.00,51.18,180.00,5.00,0.00,30.25,M,10.00,M,CLR,M,M,M,M,M,M,M,M,M,M,M,M,M,M,59.00,K05U 290855Z AUTO 18005KT 10SM CLR 15/05 A3025 RMK A01,M
BVU,2022-09-29 08:55,-114.8611,35.9475,671.00,73.40,55.40,53.29,0.00,0.00,0.00,30.05,M,10.00,M,CLR,M,M,M,M,M,M,M,M,M,M,M,M,M,M,73.40,KBVU 290855Z AUTO 00000KT 10SM CLR 23/13 A3005 RMK AO2,M
RNO,2022-09-29 08:55,-119.7711,39.4839,1341.00,60.00,35.00,39.04,0.00,0.00,0.00,30.15,1015.80,10.00,M,FEW,SCT,M,M,11000.00,20000.00,M,M,M,M,M,M,M,M,M,60.10,KRNO 290855Z 00000KT 10SM FEW110 SCT200 16/02 A3015 RMK AO2 SLP158 T01560017 55000,M
HTH,2022-09-29 08:55,-118.6315,38.5448,1282.89,73.40,28.40,18.80,190.00,11.00,0.00,30.12,M,10.00,M,CLR,M,M,M,M,M,M,M,M,M,M,M,M,M,M,73.40,KHTH 290855Z AUTO 19011KT 10SM CLR 23/M02 A3012 RMK A01,M
RTS,2022-09-29 08:55,-119.8764,39.6682,1539.00,59.00,32.00,35.87,280.00,7.00,0.00,30.19,M,10.00,M,CLR,M,M,M,M,M,M,M,M,M,M,M,M,M,M,59.00,KRTS 290855Z AUTO 28007KT 10SM CLR 15/M00 A3019 RMK AO2,M
BAM,2022-09-29 08:55,-116.8743,40.5990,1382.36,60.80,30.20,31.28,250.00,7.00,0.00,30.13,M,10.00,M,CLR,M,M,M,M,M,M,M,M,M,M,M,M,M,M,60.80,KBAM 290855Z AUTO 25007KT 10SM CLR 16/M01 A3013 RMK AO1,M
CXP,2022-09-29 08:55,-119.7326,39.1923,1431.00,57.20,33.80,41.13,0.00,0.00,0.00,30.16,M,10.00,M,CLR,M,M,M,M,M,M,M,M,M,M,M,M,M,M,57.20,KCXP 290855Z AUTO 00000KT 10SM CLR 14/01 A3016 RMK AO2,M
TMT,2022-09-29 08:55,-117.1971,39.4643,1749.34,40.50,25.70,55.22,0.00,0.00,0.00,30.24,M,10.00,M,CLR,M,M,M,M,M,M,M,M,M,M,M,M,M,M,40.50,KTMT 290855Z AUTO 00000KT 10SM CLR 05/M03 A3024 RMK AO2 T00471035,M
INS,2022-09-29 08:56,-115.6733,36.5872,955.00,68.70,51.00,53.00,0.00,0.00,0.00,30.09,1014.50,10.00,M,CLR,M,M,M,M,M,M,M,M,M,M,M,M,M,M,68.70,KINS 290856Z AUTO 00000KT 10SM CLR 20/11 A3009 RMK AO2 SLP145 T02040105 50001 $,M
LSV,2022-09-29 08:56,-115.0343,36.2362,570.00,71.00,57.40,61.92,50.00,5.00,0.00,30.01,1014.10,10.00,M,CLR,M,M,M,M,M,M,M,M,M,M,M,M,M,M,71.10,KLSV 290856Z AUTO 05005KT 10SM CLR 22/14 A3001 RMK AO2 SLP141 T02170141 55001 $,M
EKO,2022-09-29 08:56,-115.7860,40.8242,1367.00,52.00,34.00,50.12,0.00,0.00,0.00,30.16,1016.40,10.00,M,CLR,M,M,M,M,M,M,M,M,M,M,M,M,M,M,52.00,KEKO 290856Z AUTO 00000KT 10SM CLR 11/01 A3016 RMK AO2 SLP164 T01110011 53006,M
HND,2022-09-29 08:56,-115.1344,35.9729,742.79,71.00,58.00,63.05,180.00,6.00,0.00,30.08,1017.70,10.00,M,CLR,M,M,M,M,M,M,M,M,M,M,M,M,M,M,71.10,KHND 290856Z AUTO 18006KT 10SM CLR 22/14 A3008 RMK AO2 SLP177 T02170144 56004,M
WMC,2022-09-29 08:56,-117.8072,40.9019,1315.00,66.00,26.10,22.02,300.00,7.00,0.00,30.12,1014.80,10.00,M,CLR,M,M,M,M,M,M,M,M,M,M,M,M,M,M,66.00,KWMC 290856Z AUTO 30007KT 10SM CLR 19/M03 A3012 RMK AO2 SLP148 T01891033 53005,M
NFL,2022-09-29 08:56,-118.7010,39.4166,1199.00,60.00,32.00,34.49,90.00,5.00,0.00,30.10,1015.90,10.00,M,CLR,M,M,M,M,M,M,M,M,M,M,M,M,M,M,60.10,KNFL 290856Z AUTO 09005KT 10SM CLR 16/00 A3010 RMK AO2 SLP159 T01560000 51001,M
LAS,2022-09-29 08:56,-115.1634,36.0719,663.00,75.00,55.00,49.78,220.00,4.00,0.00,30.05,1015.20,10.00,M,CLR,M,M,M,M,M,M,M,M,M,M,M,M,M,M,75.00,KLAS 290856Z 22004KT 10SM CLR 24/13 A3005 RMK AO2 SLP152 T02390128 56002,M
TPH,2022-09-29 08:56,-117.0904,38.0505,1654.00,58.00,43.00,57.51,90.00,7.00,0.00,30.22,1015.90,10.00,M,CLR,M,M,M,M,M,M,M,M,M,M,M,M,M,M,57.90,KTPH 290856Z AUTO 09007KT 10SM CLR 14/06 A3022 RMK AO2 SLP159 T01440061 53001,M
RTS,2022-09-29 09:15,-119.8764,39.6682,1539.00,55.40,30.20,37.97,290.00,4.00,0.00,30.19,M,10.00,M,CLR,M,M,M,M,M,M,M,M,M,M,M,M,M,M,55.40,KRTS 290915Z AUTO 29004KT 10SM CLR 13/M01 A3019 RMK AO2,M
05U,2022-09-29 09:15,-116.0051,39.6042,1811.23,53.60,41.00,62.23,100.00,5.00,0.00,30.25,M,10.00,M,FEW,M,M,M,11000.00,M,M,M,M,M,M,M,M,M,M,53.60,K05U 290915Z AUTO 10005KT 10SM FEW110 12/05 A3025 RMK A01,M
MEV,2022-09-29 09:15,-119.7500,38.9963,1441.42,59.00,30.20,33.35,M,4.00,0.00,30.14,M,10.00,M,CLR,M,M,M,M,M,M,M,M,M,M,M,M,M,M,59.00,KMEV 290915Z AUTO VRB04KT 10SM CLR 15/M01 A3014 RMK AO2,M
BAM,2022-09-29 09:15,-116.8743,40.5990,1382.36,59.00,30.20,33.35,240.00,5.00,0.00,30.13,M,10.00,M,CLR,M,M,M,M,M,M,M,M,M,M,M,M,M,M,59.00,KBAM 290915Z AUTO 24005KT 10SM CLR 15/M01 A3013 RMK AO1,M
HTH,2022-09-29 09:15,-118.6315,38.5448,1282.89,69.80,26.60,19.72,0.00,0.00,0.00,30.12,M,10.00,M,CLR,M,M,M,M,M,M,M,M,M,M,M,M,M,M,69.80,KHTH 290915Z AUTO 00000KT 10SM CLR 21/M03 A3012 RMK A01,M
TMT,2022-09-29 09:15,-117.1971,39.4643,1749.34,41.70,26.60,54.72,0.00,0.00,0.00,30.24,M,10.00,M,CLR,M,M,M,M,M,M,M,M,M,M,M,M,M,M,41.70,KTMT 290915Z AUTO 00000KT 10SM CLR 05/M03 A3024 RMK AO2 T00541030,M
BVU,2022-09-29 09:15,-114.8611,35.9475,671.00,71.60,57.20,60.44,0.00,0.00,0.00,30.05,M,10.00,M,CLR,M,M,M,M,M,M,M,M,M,M,M,M,M,M,71.60,KBVU 290915Z AUTO 00000KT 10SM CLR 22/14 A3005 RMK AO2,M
CXP,2022-09-29 09:15,-119.7326,39.1923,1431.00,59.00,33.80,38.56,0.00,0.00,0.00,30.17,M,10.00,M,CLR,M,M,M,M,M,M,M,M,M,M,M,M,M,M,59.00,KCXP 290915Z AUTO 00000KT 10SM CLR 15/01 A3017 RMK AO2,M
HTH,2022-09-29 09:35,-118.6315,38.5448,1282.89,69.80,26.60,19.72,80.00,4.00,0.00,30.12,M,10.00,M,CLR,M,M,M,M,M,M,M,M,M,M,M,M,M,M,69.80,KHTH 290935Z AUTO 08004KT 10SM CLR 21/M03 A3012 RMK A01,M
CXP,2022-09-29 09:35,-119.7326,39.1923,1431.00,59.00,32.00,35.87,80.00,3.00,0.00,30.17,M,10.00,M,CLR,M,M,M,M,M,M,M,M,M,M,M,M,M,M,59.00,KCXP 290935Z AUTO 08003KT 10SM CLR 15/M00 A3017 RMK AO2,M
BVU,2022-09-29 09:35,-114.8611,35.9475,671.00,71.60,55.40,56.63,0.00,0.00,0.00,30.04,M,10.00,M,CLR,M,M,M,M,M,M,M,M,M,M,M,M,M,M,71.60,KBVU 290935Z AUTO 00000KT 10SM CLR 22/13 A3004 RMK AO2,M
MEV,2022-09-29 09:35,-119.7500,38.9963,1441.42,59.00,32.00,35.87,150.00,5.00,0.00,30.15,M,10.00,M,CLR,M,M,M,M,M,M,M,M,M,M,M,M,M,M,59.00,KMEV 290935Z AUTO 15005KT 10SM CLR 15/M00 A3015 RMK AO2,M
BAM,2022-09-29 09:35,-116.8743,40.5990,1382.36,57.20,30.20,35.57,0.00,0.00,0.00,30.14,M,10.00,M,CLR,M,M,M,M,M,M,M,M,M,M,M,M,M,M,57.20,KBAM 290935Z AUTO 00000KT 10SM CLR 14/M01 A3014 RMK AO1,M
RTS,2022-09-29 09:35,-119.8764,39.6682,1539.00,53.60,30.20,40.54,360.00,4.00,0.00,30.19,M,10.00,M,CLR,M,M,M,M,M,M,M,M,M,M,M,M,M,M,53.60,KRTS 290935Z AUTO 36004KT 10SM CLR 12/M01 A3019 RMK AO2,M
05U,2022-09-29 09:35,-116.0051,39.6042,1811.23,51.80,39.20,61.99,140.00,5.00,0.00,30.25,M,10.00,M,FEW,M,M,M,11000.00,M,M,M,M,M,M,M,M,M,M,51.80,K05U 290935Z AUTO 14005KT 10SM FEW110 11/04 A3025 RMK A01,M
VGT,2022-09-29 09:53,-115.1933,36.2111,667.00,75.00,55.00,49.78,0.00,0.00,0.00,30.04,1016.50,10.00,M,CLR,M,M,M,M,M,M,M,M,M,M,M,M,M,M,75.00,KVGT 290953Z AUTO 00000KT 10SM CLR 24/13 A3004 RMK AO2 SLP165 T02390128,M
P68,2022-09-29 09:53,-116.0056,39.6014,1993.00,53.00,39.00,58.64,130.00,5.00,0.00,30.23,1015.80,M,M,M,M,M,M,M,M,M,M,M,M,M,M,M,M,M,53.10,KP68 290953Z AUTO 13005KT 12/04 A3023 RMK AO1 SLP158 T01170039,M
LOL,2022-09-29 09:53,-118.5701,40.0684,1192.43,55.00,32.00,41.44,80.00,4.00,0.00,30.11,1016.20,10.00,M,CLR,M,M,M,M,M,M,M,M,M,M,M,M,M,M,55.00,KLOL 290953Z AUTO 08004KT 10SM CLR 13/00 A3011 RMK AO2 SLP162 T01280000,M
ELY,2022-09-29 09:53,-114.8453,39.2950,1909.00,57.00,42.00,57.38,210.00,10.00,0.00,30.27,1015.70,10.00,M,FEW,M,M,M,11000.00,M,M,M,M,M,M,M,M,M,M,57.00,KELY 290953Z AUTO 21010KT 10SM FEW110 14/06 A3027 RMK AO2 SLP157 T01390056,M
DRA,2022-09-29 09:53,-116.0278,36.6206,1009.00,68.00,47.00,46.76,320.00,6.00,0.00,30.08,1014.00,10.00,M,CLR,M,M,M,M,M,M,M,M,M,M,M,M,M,M,68.00,KDRA 290953Z AUTO 32006KT 10SM CLR 20/08 A3008 RMK AO2 SLP140 T02000083,M
HTH,2022-09-29 09:55,-118.6315,38.5448,1282.89,68.00,26.60,20.98,0.00,0.00,0.00,30.12,M,10.00,M,CLR,M,M,M,M,M,M,M,M,M,M,M,M,M,M,68.00,KHTH 290955Z AUTO 00000KT 10SM CLR 20/M03 A3012 RMK A01,M
BAM,2022-09-29 09:55,-116.8743,40.5990,1382.36,55.40,30.20,37.97,0.00,0.00,0.00,30.14,M,10.00,M,CLR,M,M,M,M,M,M,M,M,M,M,M,M,M,M,55.40,KBAM 290955Z AUTO 00000KT 10SM CLR 13/M01 A3014 RMK AO1,M
TMT,2022-09-29 09:55,-117.1971,39.4643,1749.34,41.20,26.40,55.32,0.00,0.00,0.00,30.24,M,10.00,M,CLR,M,M,M,M,M,M,M,M,M,M,M,M,M,M,41.20,KTMT 290955Z AUTO 00000KT 10SM CLR 05/M03 A3024 RMK AO2 T00511031,M
CXP,2022-09-29 09:55,-119.7326,39.1923,1431.00,59.00,32.00,35.87,30.00,3.00,0.00,30.17,M,10.00,M,CLR,M,M,M,M,M,M,M,M,M,M,M,M,M,M,59.00,KCXP 290955Z AUTO 03003KT 10SM CLR 15/M00 A3017 RMK AO2,M
BVU,2022-09-29 09:55,-114.8611,35.9475,671.00,71.60,55.40,56.63,0.00,0.00,0.00,30.04,M,10.00,M,CLR,M,M,M,M,M,M,M,M,M,M,M,M,M,M,71.60,KBVU 290955Z AUTO 00000KT 10SM CLR 22/13 A3004 RMK AO2,M
RNO,2022-09-29 09:55,-119.7711,39.4839,1341.00,57.00,37.00,47.04,0.00,0.00,0.00,30.15,1015.90,10.00,M,FEW,FEW,M,M,11000.00,20000.00,M,M,M,M,M,M,M,M,M,57.00,KRNO 290955Z 00000KT 10SM FEW110 FEW200 14/03 A3015 RMK AO2 SLP159 T01390028,M
RTS,2022-09-29 09:55,-119.8764,39.6682,1539.00,51.80,30.20,43.32,0.00,0.00,0.00,30.19,M,10.00,M,CLR,M,M,M,M,M,M,M,M,M,M,M,M,M,M,51.80,KRTS 290955Z AUTO 00000KT 10SM CLR 11/M01 A3019 RMK AO2,M
05U,2022-09-29 09:55,-116.0051,39.6042,1811.23,51.80,39.20,61.99,130.00,4.00,0.00,30.25,M,10.00,M,CLR,M,M,M,M,M,M,M,M,M,M,M,M,M,M,51.80,K05U 290955Z AUTO 13004KT 10SM CLR 11/04 A3025 RMK A01,M
MEV,2022-09-29 09:55,-119.7500,38.9963,1441.42,60.80,30.20,31.28,0.00,0.00,0.00,30.15,M,10.00,M,CLR,M,M,M,M,M,M,M,M,M,M,M,M,M,M,60.80,KMEV 290955Z AUTO 00000KT 10SM CLR 16/M01 A3015 RMK AO2,M
TPH,2022-09-29 09:56,-117.0904,38.0505,1654.00,58.00,42.00,55.55,360.00,5.00,0.00,30.22,1016.00,10.00,M,CLR,M,M,M,M,M,M,M,M,M,M,M,M,M,M,57.90,KTPH 290956Z AUTO 36005KT 10SM CLR 14/06 A3022 RMK AO2 SLP160 T01440056,M
NFL,2022-09-29 09:56,-118.7010,39.4166,1199.00,57.00,34.00,41.76,350.00,4.00,0.00,30.10,1016.10,10.00,M,CLR,M,M,M,M,M,M,M,M,M,M,M,M,M,M,57.00,KNFL 290956Z AUTO 35004KT 10SM CLR 14/01 A3010 RMK AO2 SLP161 T01390011,M
EKO,2022-09-29 09:56,-115.7860,40.8242,1367.00,53.00,35.00,50.28,0.00,0.00,0.00,30.16,1016.50,10.00,M,FEW,M,M,M,12000.00,M,M,M,M,M,M,M,M,M,M,53.10,KEKO 290956Z AUTO 00000KT 10SM FEW120 12/02 A3016 RMK AO2 SLP165 T01170017,M
INS,2022-09-29 09:56,-115.6733,36.5872,955.00,64.40,53.20,66.96,0.00,0.00,0.00,30.09,1014.70,10.00,M,CLR,M,M,M,M,M,M,M,M,M,M,M,M,M,M,64.40,KINS 290956Z AUTO 00000KT 10SM CLR 18/12 A3009 RMK AO2 SLP147 T01800118 $,M
HND,2022-09-29 09:56,-115.1344,35.9729,742.79,70.00,57.00,63.37,170.00,6.00,0.00,30.08,1017.70,10.00,M,CLR,M,M,M,M,M,M,M,M,M,M,M,M,M,M,70.00,KHND 290956Z AUTO 17006KT 10SM CLR 21/14 A3008 RMK AO2 SLP177 T02110139,M
LSV,2022-09-29 09:56,-115.0343,36.2362,570.00,70.30,57.60,64.09,30.00,5.00,0.00,30.01,1014.20,10.00,M,CLR,M,M,M,M,M,M,M,M,M,M,M,M,M,M,70.30,KLSV 290956Z AUTO 03005KT 10SM CLR 21/14 A3001 RMK AO2 SLP142 T02130142 $,M
LAS,2022-09-29 09:56,-115.1634,36.0719,663.00,74.00,56.00,53.36,220.00,3.00,0.00,30.05,1015.20,10.00,M,CLR,M,M,M,M,M,M,M,M,M,M,M,M,M,M,73.90,KLAS 290956Z 22003KT 10SM CLR 23/13 A3005 RMK AO2 SLP152 T02330133,M
WMC,2022-09-29 09:56,-117.8072,40.9019,1315.00,58.00,25.00,28.01,310.00,10.00,0.00,30.14,1015.90,10.00,M,CLR,M,M,M,M,M,M,M,M,M,M,M,M,M,M,57.90,KWMC 290956Z AUTO 31010KT 10SM CLR 14/M04 A3014 RMK AO2 SLP159 T01441039,M
MEV,2022-09-29 10:15,-119.7500,38.9963,1441.42,53.60,30.20,40.54,340.00,4.00,0.00,30.15,M,10.00,M,CLR,M,M,M,M,M,M,M,M,M,M,M,M,M,M,53.60,KMEV 291015Z AUTO 34004KT 10SM CLR 12/M01 A3015 RMK AO2,M
TMT,2022-09-29 10:15,-117.1971,39.4643,1749.34,40.00,25.50,55.62,0.00,0.00,0.00,30.23,M,10.00,M,CLR,M,M,M,M,M,M,M,M,M,M,M,M,M,M,40.10,KTMT 291015Z AUTO 00000KT 10SM CLR 05/M04 A3023 RMK AO2 T00451036,M
HTH,2022-09-29 10:15,-118.6315,38.5448,1282.89,66.20,26.60,22.33,140.00,4.00,0.00,30.12,M,10.00,M,CLR,M,M,M,M,M,M,M,M,M,M,M,M,M,M,66.20,KHTH 291015Z AUTO 14004KT 10SM CLR 19/M03 A3012 RMK A01,M
BVU,2022-09-29 10:15,-114.8611,35.9475,671.00,71.60,55.40,56.63,0.00,0.00,0.00,30.04,M,10.00,M,CLR,M,M,M,M,M,M,M,M,M,M,M,M,M,M,71.60,KBVU 291015Z AUTO 00000KT 10SM CLR 22/13 A3004 RMK AO2,M
CXP,2022-09-29 10:15,-119.7326,39.1923,1431.00,59.00,32.00,35.87,330.00,4.00,0.00,30.17,M,10.00,M,CLR,M,M,M,M,M,M,M,M,M,M,M,M,M,M,59.00,KCXP 291015Z AUTO 33004KT 10SM CLR 15/M00 A3017 RMK AO2,M
RTS,2022-09-29 10:15,-119.8764,39.6682,1539.00,53.60,28.40,37.67,0.00,0.00,0.00,30.19,M,10.00,M,CLR,M,M,M,M,M,M,M,M,M,M,M,M,M,M,53.60,KRTS 291015Z AUTO 00000KT 10SM CLR 12/M02 A3019 RMK AO2,M
05U,2022-09-29 10:15,-116.0051,39.6042,1811.23,50.00,39.20,66.27,0.00,0.00,0.00,30.25,M,10.00,M,CLR,M,M,M,M,M,M,M,M,M,M,M,M,M,M,50.00,K05U 291015Z AUTO 00000KT 10SM CLR 10/04 A3025 RMK A01,M
BAM,2022-09-29 10:15,-116.8743,40.5990,1382.36,51.80,28.40,40.25,150.00,5.00,0.00,30.15,M,10.00,M,CLR,M,M,M,M,M,M,M,M,M,M,M,M,M,M,51.80,KBAM 291015Z AUTO 15005KT 10SM CLR 11/M02 A3015 RMK AO1,M
HTH,2022-09-29 10:35,-118.6315,38.5448,1282.89,68.00,26.60,20.98,240.00,3.00,0.00,30.12,M,10.00,M,CLR,M,M,M,M,M,M,M,M,M,M,M,M,M,M,68.00,KHTH 291035Z AUTO 24003KT 10SM CLR 20/M03 A3012 RMK A01,M
BVU,2022-09-29 10:35,-114.8611,35.9475,671.00,71.60,55.40,56.63,0.00,0.00,0.00,30.04,M,10.00,M,CLR,M,M,M,M,M,M,M,M,M,M,M,M,M,M,71.60,KBVU 291035Z AUTO 00000KT 10SM CLR 22/13 A3004 RMK AO2,M
CXP,2022-09-29 10:35,-119.7326,39.1923,1431.00,59.00,32.00,35.87,0.00,0.00,0.00,30.16,M,10.00,M,CLR,M,M,M,M,M,M,M,M,M,M,M,M,M,M,59.00,KCXP 291035Z AUTO 00000KT 10SM CLR 15/M00 A3016 RMK AO2,M
RTS,2022-09-29 10:35,-119.8764,39.6682,1539.00,55.40,28.40,35.28,0.00,0.00,0.00,30.19,M,10.00,M,CLR,M,M,M,M,M,M,M,M,M,M,M,M,M,M,55.40,KRTS 291035Z AUTO 00000KT 10SM CLR 13/M02 A3019 RMK AO2,M
05U,2022-09-29 10:35,-116.0051,39.6042,1811.23,50.00,39.20,66.27,0.00,0.00,0.00,30.25,M,10.00,M,CLR,M,M,M,M,M,M,M,M,M,M,M,M,M,M,50.00,K05U 291035Z AUTO 00000KT 10SM CLR 10/04 A3025 RMK A01,M
MEV,2022-09-29 10:35,-119.7500,38.9963,1441.42,51.80,33.80,50.08,30.00,3.00,0.00,30.15,M,10.00,M,CLR,M,M,M,M,M,M,M,M,M,M,M,M,M,M,51.80,KMEV 291035Z AUTO 03003KT 10SM CLR 11/01 A3015 RMK AO2,M
BAM,2022-09-29 10:35,-116.8743,40.5990,1382.36,51.80,28.40,40.25,180.00,4.00,0.00,30.14,M,10.00,M,CLR,M,M,M,M,M,M,M,M,M,M,M,M,M,M,51.80,KBAM 291035Z AUTO 18004KT 10SM CLR 11/M02 A3014 RMK AO1,M
TMT,2022-09-29 10:35,-117.1971,39.4643,1749.34,37.00,25.30,62.28,0.00,0.00,0.00,30.23,M,10.00,M,CLR,M,M,M,M,M,M,M,M,M,M,M,M,M,M,37.00,KTMT 291035Z AUTO 00000KT 10SM CLR 03/M04 A3023 RMK AO2 LTG DSNT N T00281037,M
VGT,2022-09-29 10:53,-115.1933,36.2111,667.00,74.00,55.00,51.64,0.00,0.00,0.00,30.03,1016.20,10.00,M,CLR,M,M,M,M,M,M,M,M,M,M,M,M,M,M,73.90,KVGT 291053Z AUTO 00000KT 10SM CLR 23/13 A3003 RMK AO2 SLP162 T02330128,M
LOL,2022-09-29 10:53,-118.5701,40.0684,1192.43,54.00,32.00,42.98,90.00,5.00,0.00,30.12,1016.30,10.00,M,CLR,M,M,M,M,M,M,M,M,M,M,M,M,M,M,54.00,KLOL 291053Z AUTO 09005KT 10SM CLR 12/00 A3012 RMK AO2 SLP163 T01220000,M
P68,2022-09-29 10:53,-116.0056,39.6014,1993.00,50.00,38.00,62.98,210.00,7.00,0.00,30.22,1015.70,M,M,M,M,M,M,M,M,M,M,M,M,M,M,M,M,M,50.00,KP68 291053Z AUTO 21007KT 10/03 A3022 RMK AO1 SLP157 T01000033,M
DRA,2022-09-29 10:53,-116.0278,36.6206,1009.00,66.00,47.00,50.10,0.00,0.00,0.00,30.07,1013.80,10.00,M,CLR,M,M,M,M,M,M,M,M,M,M,M,M,M,M,66.00,KDRA 291053Z AUTO 00000KT 10SM CLR 19/08 A3007 RMK AO2 SLP138 T01890083,M
ELY,2022-09-29 10:53,-114.8453,39.2950,1909.00,57.00,42.00,57.38,210.00,11.00,0.00,30.27,1015.70,10.00,M,SCT,M,M,M,11000.00,M,M,M,M,M,M,M,M,M,M,57.00,KELY 291053Z AUTO 21011KT 10SM SCT110 14/06 A3027 RMK AO2 SLP157 T01390056,M
BAM,2022-09-29 10:55,-116.8743,40.5990,1382.36,50.00,28.40,43.03,160.00,6.00,0.00,30.15,M,10.00,M,CLR,M,M,M,M,M,M,M,M,M,M,M,M,M,M,50.00,KBAM 291055Z AUTO 16006KT 10SM CLR 10/M02 A3015 RMK AO1,M
TMT,2022-09-29 10:55,-117.1971,39.4643,1749.34,39.70,26.40,58.64,0.00,0.00,0.00,30.23,M,10.00,M,CLR,M,M,M,M,M,M,M,M,M,M,M,M,M,M,39.70,KTMT 291055Z AUTO 00000KT 10SM CLR 04/M03 A3023 RMK AO2 LTG DSNT N T00431031,M
BVU,2022-09-29 10:55,-114.8611,35.9475,671.00,71.60,55.40,56.63,0.00,0.00,0.00,30.04,M,10.00,M,CLR,M,M,M,M,M,M,M,M,M,M,M,M,M,M,71.60,KBVU 291055Z AUTO 00000KT 10SM CLR 22/13 A3004 RMK AO2,M
CXP,2022-09-29 10:55,-119.7326,39.1923,1431.00,59.00,32.00,35.87,0.00,0.00,0.00,30.16,M,10.00,M,CLR,M,M,M,M,M,M,M,M,M,M,M,M,M,M,59.00,KCXP 291055Z AUTO 00000KT 10SM CLR 15/00 A3016 RMK AO2,M
RNO,2022-09-29 10:55,-119.7711,39.4839,1341.00,55.00,36.00,48.62,0.00,0.00,0.00,30.15,1016.10,10.00,M,FEW,M,M,M,11000.00,M,M,M,M,M,M,M,M,M,M,55.00,KRNO 291055Z 00000KT 10SM FEW110 13/02 A3015 RMK AO2 SLP161 T01280022,M
RTS,2022-09-29 10:55,-119.8764,39.6682,1539.00,53.60,26.60,34.98,0.00,0.00,0.00,30.20,M,10.00,M,CLR,M,M,M,M,M,M,M,M,M,M,M,M,M,M,53.60,KRTS 291055Z AUTO 00000KT 10SM CLR 12/M03 A3020 RMK AO2,M
05U,2022-09-29 10:55,-116.0051,39.6042,1811.23,50.00,39.20,66.27,210.00,6.00,0.00,30.24,M,10.00,M,CLR,M,M,M,M,M,M,M,M,M,M,M,M,M,M,50.00,K05U 291055Z AUTO 21006KT 10SM CLR 10/04 A3024 RMK A01,M
MEV,2022-09-29 10:55,-119.7500,38.9963,1441.42,53.60,33.80,46.88,20.00,4.00,0.00,30.15,M,10.00,M,CLR,M,M,M,M,M,M,M,M,M,M,M,M,M,M,53.60,KMEV 291055Z AUTO 02004KT 10SM CLR 12/01 A3015 RMK AO2,M
HTH,2022-09-29 10:55,-118.6315,38.5448,1282.89,64.40,26.60,23.77,130.00,4.00,0.00,30.12,M,10.00,M,CLR,M,M,M,M,M,M,M,M,M,M,M,M,M,M,64.40,KHTH 291055Z AUTO 13004KT 10SM CLR 18/M03 A3012 RMK A01,M
HND,2022-09-29 10:56,-115.1344,35.9729,742.79,70.00,56.00,60.89,190.00,6.00,0.00,30.07,1017.30,10.00,M,CLR,M,M,M,M,M,M,M,M,M,M,M,M,M,M,70.00,KHND 291056Z AUTO 19006KT 10SM CLR 21/13 A3007 RMK AO2 SLP173 T02110133,M
LSV,2022-09-29 10:56,-115.0343,36.2362,570.00,69.40,57.60,66.09,0.00,0.00,0.00,30.00,1013.70,10.00,M,CLR,M,M,M,M,M,M,M,M,M,M,M,M,M,M,69.40,KLSV 291056Z AUTO 00000KT 10SM CLR 21/14 A3000 RMK AO2 SLP137 T02080142 $,M
LAS,2022-09-29 10:56,-115.1634,36.0719,663.00,74.00,55.00,51.64,0.00,0.00,0.00,30.04,1014.90,10.00,M,CLR,M,M,M,M,M,M,M,M,M,M,M,M,M,M,73.90,KLAS 291056Z 00000KT 10SM CLR 23/13 A3004 RMK AO2 SLP149 T02330128,M
TPH,2022-09-29 10:56,-117.0904,38.0505,1654.00,56.00,40.00,54.83,350.00,6.00,0.00,30.22,1016.20,10.00,M,CLR,M,M,M,M,M,M,M,M,M,M,M,M,M,M,55.90,KTPH 291056Z AUTO 35006KT 10SM CLR 13/04 A3022 RMK AO2 SLP162 T01330044,M
INS,2022-09-29 10:56,-115.6733,36.5872,955.00,65.70,51.00,58.79,0.00,0.00,0.00,30.08,1014.40,10.00,M,CLR,M,M,M,M,M,M,M,M,M,M,M,M,M,M,65.70,KINS 291056Z AUTO 00000KT 10SM CLR 19/11 A3008 RMK AO2 SLP144 T01870105 $,M
NFL,2022-09-29 10:56,-118.7010,39.4166,1199.00,57.00,35.00,43.63,30.00,4.00,0.00,30.11,1016.30,10.00,M,CLR,M,M,M,M,M,M,M,M,M,M,M,M,M,M,57.00,KNFL 291056Z AUTO 03004KT 10SM CLR 14/02 A3011 RMK AO2 SLP163 T01390017,M
WMC,2022-09-29 10:56,-117.8072,40.9019,1315.00,60.00,30.00,31.80,250.00,8.00,0.00,30.15,1016.10,10.00,M,CLR,M,M,M,M,M,M,M,M,M,M,M,M,M,M,60.10,KWMC 291056Z AUTO 25008KT 10SM CLR 16/M01 A3015 RMK AO2 SLP161 T01561011,M
EKO,2022-09-29 10:56,-115.7860,40.8242,1367.00,52.00,38.00,58.48,0.00,0.00,0.00,30.16,1016.20,10.00,M,BKN,M,M,M,12000.00,M,M,M,M,M,M,M,M,M,M,52.00,KEKO 291056Z AUTO 00000KT 10SM BKN120 11/03 A3016 RMK AO2 SLP162 T01110033,M
TMT,2022-09-29 11:15,-117.1971,39.4643,1749.34,34.70,24.10,64.89,100.00,4.00,0.00,30.24,M,10.00,M,CLR,M,M,M,M,M,M,M,M,M,M,M,M,M,M,30.57,KTMT 291115Z AUTO 10004KT 10SM CLR 02/M04 A3024 RMK AO2 LTG DSNT N T00151044,M
BVU,2022-09-29 11:15,-114.8611,35.9475,671.00,71.60,55.40,56.63,0.00,0.00,0.00,30.04,M,10.00,M,CLR,M,M,M,M,M,M,M,M,M,M,M,M,M,M,71.60,KBVU 291115Z AUTO 00000KT 10SM CLR 22/13 A3004 RMK AO2,M
CXP,2022-09-29 11:15,-119.7326,39.1923,1431.00,57.20,32.00,38.26,0.00,0.00,0.00,30.16,M,10.00,M,CLR,M,M,M,M,M,M,M,M,M,M,M,M,M,M,57.20,KCXP 291115Z AUTO 00000KT 10SM CLR 14/M00 A3016 RMK AO2,M
RTS,2022-09-29 11:15,-119.8764,39.6682,1539.00,53.60,26.60,34.98,0.00,0.00,0.00,30.20,M,10.00,M,CLR,M,M,M,M,M,M,M,M,M,M,M,M,M,M,53.60,KRTS 291115Z AUTO 00000KT 10SM CLR 12/M03 A3020 RMK AO2,M
05U,2022-09-29 11:15,-116.0051,39.6042,1811.23,50.00,37.40,61.76,210.00,7.00,0.00,30.25,M,10.00,M,CLR,M,M,M,M,M,M,M,M,M,M,M,M,M,M,50.00,K05U 291115Z AUTO 21007KT 10SM CLR 10/03 A3025 RMK A01,M
MEV,2022-09-29 11:15,-119.7500,38.9963,1441.42,51.80,33.80,50.08,0.00,0.00,0.00,30.15,M,10.00,M,CLR,M,M,M,M,M,M,M,M,M,M,M,M,M,M,51.80,KMEV 291115Z AUTO 00000KT 10SM CLR 11/01 A3015 RMK AO2,M
BAM,2022-09-29 11:15,-116.8743,40.5990,1382.36,50.00,28.40,43.03,150.00,6.00,0.00,30.15,M,10.00,M,CLR,M,M,M,M,M,M,M,M,M,M,M,M,M,M,50.00,KBAM 291115Z AUTO 15006KT 10SM CLR 10/M02 A3015 RMK AO1,M
HTH,2022-09-29 11:15,-118.6315,38.5448,1282.89,66.20,24.80,20.72,230.00,3.00,0.00,30.12,M,10.00,M,CLR,M,M,M,M,M,M,M,M,M,M,M,M,M,M,66.20,KHTH 291115Z AUTO 23003KT 10SM CLR 19/M04 A3012 RMK A01,M
HTH,2022-09-29 11:35,-118.6315,38.5448,1282.89,69.80,24.80,18.30,220.00,4.00,0.00,30.13,M,10.00,M,CLR,M,M,M,M,M,M,M,M,M,M,M,M,M,M,69.80,KHTH 291135Z AUTO 22004KT 10SM CLR 21/M04 A3013 RMK A01,M
BVU,2022-09-29 11:35,-114.8611,35.9475,671.00,71.60,55.40,56.63,0.00,0.00,0.00,30.04,M,10.00,M,CLR,M,M,M,M,M,M,M,M,M,M,M,M,M,M,71.60,KBVU 291135Z AUTO 00000KT 10SM CLR 22/13 A3004 RMK AO2,M
CXP,2022-09-29 11:35,-119.7326,39.1923,1431.00,57.20,32.00,38.26,0.00,0.00,0.00,30.17,M,10.00,M,CLR,M,M,M,M,M,M,M,M,M,M,M,M,M,M,57.20,KCXP 291135Z AUTO 00000KT 10SM CLR 14/M00 A3017 RMK AO2,M
BAM,2022-09-29 11:35,-116.8743,40.5990,1382.36,48.20,28.40,46.02,160.00,3.00,0.00,30.15,M,10.00,M,CLR,M,M,M,M,M,M,M,M,M,M,M,M,M,M,47.21,KBAM 291135Z AUTO 16003KT 10SM CLR 09/M02 A3015 RMK AO1,M
MEV,2022-09-29 11:35,-119.7500,38.9963,1441.42,51.80,33.80,50.08,M,3.00,0.00,30.15,M,10.00,M,CLR,M,M,M,M,M,M,M,M,M,M,M,M,M,M,51.80,KMEV 291135Z AUTO VRB03KT 10SM CLR 11/01 A3015 RMK AO2,M
05U,2022-09-29 11:35,-116.0051,39.6042,1811.23,48.20,37.40,66.05,170.00,4.00,0.00,30.25,M,10.00,M,CLR,M,M,M,M,M,M,M,M,M,M,M,M,M,M,46.34,K05U 291135Z AUTO 17004KT 10SM CLR 09/03 A3025 RMK A01,M
RTS,2022-09-29 11:35,-119.8764,39.6682,1539.00,50.00,26.60,39.95,340.00,9.00,0.00,30.21,M,10.00,M,CLR,M,M,M,M,M,M,M,M,M,M,M,M,M,M,50.00,KRTS 291135Z AUTO 34009KT 10SM CLR 10/M03 A3021 RMK AO2,M
TMT,2022-09-29 11:35,-117.1971,39.4643,1749.34,40.00,27.10,59.89,130.00,3.00,0.00,30.24,M,10.00,M,CLR,M,M,M,M,M,M,M,M,M,M,M,M,M,M,37.72,KTMT 291135Z AUTO 13003KT 10SM CLR 04/M03 A3024 RMK AO2 LTG DSNT N T00441027,M
ELY,2022-09-29 11:53,-114.8453,39.2950,1909.00,58.00,43.00,57.51,220.00,11.00,0.00,30.27,1015.60,10.00,M,CLR,M,M,M,M,M,M,M,M,M,M,M,M,M,M,57.90,KELY 291153Z AUTO 22011KT 10SM CLR 14/06 A3027 RMK AO2 SLP156 T01440061 10150 20133 55002,M
P68,2022-09-29 11:53,-116.0056,39.6014,1993.00,49.00,38.00,65.62,190.00,5.00,0.00,30.22,1016.00,M,M,M,M,M,M,M,M,M,M,M,M,M,M,M,M,M,46.47,KP68 291153Z AUTO 19005KT 09/03 A3022 RMK AO1 SLP160 T00940033 10183 20089 55002,M
DRA,2022-09-29 11:53,-116.0278,36.6206,1009.00,65.00,47.00,52.06,0.00,0.00,0.00,30.08,1014.10,10.00,M,CLR,M,M,M,M,M,M,M,M,M,M,M,M,M,M,64.90,KDRA 291153Z AUTO 00000KT 10SM CLR 18/08 A3008 RMK AO2 SLP141 T01830083 10233 20178 53002,M
VGT,2022-09-29 11:53,-115.1933,36.2111,667.00,74.00,54.00,49.79,0.00,0.00,0.00,30.03,1016.20,10.00,M,CLR,M,M,M,M,M,M,M,M,M,M,M,M,M,M,73.90,KVGT 291153Z AUTO 00000KT 10SM CLR 23/12 A3003 RMK AO2 SLP162 70004 T02330122 10278 20233 55002,M
LOL,2022-09-29 11:53,-118.5701,40.0684,1192.43,53.00,32.00,44.42,0.00,0.00,0.00,30.12,1016.60,10.00,M,CLR,M,M,M,M,M,M,M,M,M,M,M,M,M,M,53.10,KLOL 291153Z AUTO 00000KT 10SM CLR 12/00 A3012 RMK AO2 SLP166 T01170000 10222 20106 51006,M
05U,2022-09-29 11:55,-116.0051,39.6042,1811.23,48.20,37.40,66.05,190.00,6.00,0.00,30.25,M,10.00,M,CLR,M,M,M,M,M,M,M,M,M,M,M,M,M,M,45.04,K05U 291155Z AUTO 19006KT 10SM CLR 09/03 A3025 RMK A01,M
MEV,2022-09-29 11:55,-119.7500,38.9963,1441.42,50.00,33.80,53.54,70.00,3.00,0.00,30.15,M,10.00,M,CLR,M,M,M,M,M,M,M,M,M,M,M,M,M,M,50.00,KMEV 291155Z AUTO 07003KT 10SM CLR 10/01 A3015 RMK AO2,M
CXP,2022-09-29 11:55,-119.7326,39.1923,1431.00,55.40,32.00,40.84,0.00,0.00,0.00,30.17,M,10.00,M,CLR,M,M,M,M,M,M,M,M,M,M,M,M,M,M,55.40,KCXP 291155Z AUTO 00000KT 10SM CLR 13/M00 A3017 RMK AO2,M
TMT,2022-09-29 11:55,-117.1971,39.4643,1749.34,38.70,26.20,60.47,0.00,0.00,0.00,30.24,M,10.00,M,CLR,M,M,M,M,M,M,M,M,M,M,M,M,M,M,38.70,KTMT 291155Z AUTO 00000KT 10SM CLR 04/M03 A3024 RMK AO2 LTG DSNT N T00371032 10111 20015,M
HTH,2022-09-29 11:55,-118.6315,38.5448,1282.89,64.40,24.80,22.06,290.00,6.00,0.00,30.13,M,10.00,M,CLR,M,M,M,M,M,M,M,M,M,M,M,M,M,M,64.40,KHTH 291155Z AUTO 29006KT 10SM CLR 18/M04 A3013 RMK A01,M
RTS,2022-09-29 11:55,-119.8764,39.6682,1539.00,48.20,26.60,42.73,320.00,6.00,0.00,30.20,M,10.00,M,CLR,M,M,M,M,M,M,M,M,M,M,M,M,M,M,45.04,KRTS 291155Z AUTO 32006KT 10SM CLR 09/M03 A3020 RMK AO2,M
BAM,2022-09-29 11:55,-116.8743,40.5990,1382.36,48.20,28.40,46.02,190.00,3.00,0.00,30.15,M,10.00,M,CLR,M,M,M,M,M,M,M,M,M,M,M,M,M,M,47.21,KBAM 291155Z AUTO 19003KT 10SM CLR 09/M02 A3015 RMK AO1,M
RNO,2022-09-29 11:55,-119.7711,39.4839,1341.00,57.00,36.00,45.22,0.00,0.00,0.00,30.16,1016.50,10.00,M,CLR,M,M,M,M,M,M,M,M,M,M,M,M,M,M,57.00,KRNO 291155Z 00000KT 10SM CLR 14/02 A3016 RMK AO2 SLP165 T01390022 10206 20128 53004,M
BVU,2022-09-29 11:55,-114.8611,35.9475,671.00,71.60,55.40,56.63,60.00,3.00,0.00,30.04,M,10.00,M,CLR,M,M,M,M,M,M,M,M,M,M,M,M,M,M,71.60,KBVU 291155Z AUTO 06003KT 10SM CLR 22/13 A3004 RMK AO2,M
HND,2022-09-29 11:56,-115.1344,35.9729,742.79,71.00,54.00,54.73,180.00,7.00,0.00,30.07,1017.40,10.00,M,CLR,M,M,M,M,M,M,M,M,M,M,M,M,M,M,71.10,KHND 291156Z AUTO 18007KT 10SM CLR 22/12 A3007 RMK AO2 SLP174 70009 T02170122 10239 20211 55003,M
NFL,2022-09-29 11:56,-118.7010,39.4166,1199.00,53.00,35.00,50.28,40.00,7.00,0.00,30.12,1016.50,10.00,M,CLR,M,M,M,M,M,M,M,M,M,M,M,M,M,M,53.10,KNFL 291156Z AUTO 04007KT 10SM CLR 12/02 A3012 RMK AO2 SLP165 T01170017 10211 20117 53006,M
EKO,2022-09-29 11:56,-115.7860,40.8242,1367.00,53.00,35.00,50.28,0.00,0.00,0.00,30.16,1016.40,10.00,M,BKN,M,M,M,12000.00,M,M,M,M,M,M,M,M,M,M,53.10,KEKO 291156Z AUTO 00000KT 10SM BKN120 12/02 A3016 RMK AO2 SLP164 T01170017 10161 20100 50000,M
INS,2022-09-29 11:56,-115.6733,36.5872,955.00,64.60,51.30,62.00,260.00,4.00,0.00,30.09,1014.70,10.00,M,CLR,M,M,M,M,M,M,M,M,M,M,M,M,M,M,64.60,KINS 291156Z AUTO 26004KT 10SM CLR 18/11 A3009 RMK AO2 SLP147 70010 T01810107 10234 20167 55000 $,M
LAS,2022-09-29 11:56,-115.1634,36.0719,663.00,73.00,56.00,55.00,200.00,3.00,0.00,30.04,1015.00,10.00,M,CLR,M,M,M,M,M,M,M,M,M,M,M,M,M,M,73.00,KLAS 291156Z 20003KT 10SM CLR 23/13 A3004 RMK AO2 SLP150 70024 T02280133 10267 20228 55002,M
TPH,2022-09-29 11:56,-117.0904,38.0505,1654.00,55.00,40.00,56.66,360.00,6.00,0.00,30.22,1016.20,10.00,M,CLR,M,M,M,M,M,M,M,M,M,M,M,M,M,M,55.00,KTPH 291156Z AUTO 36006KT 10SM CLR 13/04 A3022 RMK AO2 SLP162 T01280044 10183 20122 58001,M
WMC,2022-09-29 11:56,-117.8072,40.9019,1315.00,55.00,33.00,43.31,260.00,5.00,0.00,30.15,1016.50,10.00,M,CLR,M,M,M,M,M,M,M,M,M,M,M,M,M,M,55.00,KWMC 291156Z AUTO 26005KT 10SM CLR 13/01 A3015 RMK AO2 SLP165 T01280006 10217 20128 51007,M
LSV,2022-09-29 11:56,-115.0343,36.2362,570.00,69.40,57.20,65.15,40.00,3.00,0.00,30.00,1013.80,10.00,M,CLR,M,M,M,M,M,M,M,M,M,M,M,M,M,M,69.40,KLSV 291156Z AUTO 04003KT 10SM CLR 21/14 A3000 RMK AO2 SLP138 70018 T02080140 10252 20207 58001 $,M
MEV,2022-09-29 12:15,-119.7500,38.9963,1441.42,51.80,33.80,50.08,0.00,0.00,0.00,30.15,M,10.00,M,CLR,M,M,M,M,M,M,M,M,M,M,M,M,M,M,51.80,KMEV 291215Z AUTO 00000KT 10SM CLR 11/01 A3015 RMK AO2,M
CXP,2022-09-29 12:15,-119.7326,39.1923,1431.00,55.40,32.00,40.84,0.00,0.00,0.00,30.17,M,10.00,M,CLR,M,M,M,M,M,M,M,M,M,M,M,M,M,M,55.40,KCXP 291215Z AUTO 00000KT 10SM CLR 13/M00 A3017 RMK AO2,M
05U,2022-09-29 12:15,-116.0051,39.6042,1811.23,50.00,39.20,66.27,210.00,7.00,0.00,30.25,M,10.00,M,CLR,M,M,M,M,M,M,M,M,M,M,M,M,M,M,50.00,K05U 291215Z AUTO 21007KT 10SM CLR 10/04 A3025 RMK A01,M
BAM,2022-09-29 12:15,-116.8743,40.5990,1382.36,46.40,26.60,45.73,30.00,3.00,0.00,30.16,M,10.00,M,CLR,M,M,M,M,M,M,M,M,M,M,M,M,M,M,45.15,KBAM 291215Z AUTO 03003KT 10SM CLR 08/M03 A3016 RMK AO1,M
HTH,2022-09-29 12:15,-118.6315,38.5448,1282.89,68.00,26.60,20.98,320.00,5.00,0.00,30.14,M,10.00,M,CLR,M,M,M,M,M,M,M,M,M,M,M,M,M,M,68.00,KHTH 291215Z AUTO 32005KT 10SM CLR 20/M03 A3014 RMK A01,M
TMT,2022-09-29 12:15,-117.1971,39.4643,1749.34,37.00,25.30,62.28,0.00,0.00,0.00,30.24,M,10.00,M,CLR,M,M,M,M,M,M,M,M,M,M,M,M,M,M,37.00,KTMT 291215Z AUTO 00000KT 10SM CLR 03/M04 A3024 RMK AO2 LTG DSNT N T00281037,M
BVU,2022-09-29 12:15,-114.8611,35.9475,671.00,69.80,55.40,60.21,0.00,0.00,0.00,30.04,M,10.00,M,CLR,M,M,M,M,M,M,M,M,M,M,M,M,M,M,69.80,KBVU 291215Z AUTO 00000KT 10SM CLR 21/13 A3004 RMK AO2,M
RTS,2022-09-29 12:15,-119.8764,39.6682,1539.00,50.00,26.60,39.95,300.00,4.00,0.00,30.20,M,10.00,M,CLR,M,M,M,M,M,M,M,M,M,M,M,M,M,M,50.00,KRTS 291215Z AUTO 30004KT 10SM CLR 10/M03 A3020 RMK AO2,M
MEV,2022-09-29 12:35,-119.7500,38.9963,1441.42,51.80,32.00,46.59,50.00,3.00,0.00,30.15,M,10.00,M,CLR,M,M,M,M,M,M,M,M,M,M,M,M,M,M,51.80,KMEV 291235Z AUTO 05003KT 10SM CLR 11/00 A3015 RMK AO2,M
CXP,2022-09-29 12:35,-119.7326,39.1923,1431.00,55.40,32.00,40.84,0.00,0.00,0.00,30.17,M,10.00,M,CLR,M,M,M,M,M,M,M,M,M,M,M,M,M,M,55.40,KCXP 291235Z AUTO 00000KT 10SM CLR 13/M00 A3017 RMK AO2 LTG DSNT N AND S,M
HTH,2022-09-29 12:35,-118.6315,38.5448,1282.89,64.40,33.80,31.85,310.00,7.00,0.00,30.13,M,10.00,M,CLR,M,M,M,M,M,M,M,M,M,M,M,M,M,M,64.40,KHTH 291235Z AUTO 31007KT 10SM CLR 18/01 A3013 RMK A01,M
RTS,2022-09-29 12:35,-119.8764,39.6682,1539.00,48.20,26.60,42.73,330.00,5.00,0.00,30.20,M,10.00,M,CLR,M,M,M,M,M,M,M,M,M,M,M,M,M,M,45.63,KRTS 291235Z AUTO 33005KT 10SM CLR 09/M03 A3020 RMK AO2,M
BVU,2022-09-29 12:35,-114.8611,35.9475,671.00,69.80,55.40,60.21,0.00,0.00,0.00,30.04,M,10.00,M,CLR,M,M,M,M,M,M,M,M,M,M,M,M,M,M,69.80,KBVU 291235Z AUTO 00000KT 10SM CLR 21/13 A3004 RMK AO2,M
BAM,2022-09-29 12:35,-116.8743,40.5990,1382.36,46.40,28.40,49.24,0.00,0.00,0.00,30.15,M,10.00,M,CLR,M,M,M,M,M,M,M,M,M,M,M,M,M,M,46.40,KBAM 291235Z AUTO 00000KT 10SM CLR 08/M02 A3015 RMK AO1,M
05U,2022-09-29 12:35,-116.0051,39.6042,1811.23,50.00,39.20,66.27,200.00,7.00,0.00,30.25,M,10.00,M,CLR,M,M,M,M,M,M,M,M,M,M,M,M,M,M,50.00,K05U 291235Z AUTO 20007KT 10SM CLR 10/04 A3025 RMK A01,M
TMT,2022-09-29 12:35,-117.1971,39.4643,1749.34,36.50,26.10,65.66,0.00,0.00,0.00,30.24,M,10.00,M,CLR,M,M,M,M,M,M,M,M,M,M,M,M,M,M,36.50,KTMT 291235Z AUTO 00000KT 10SM CLR 03/M03 A3024 RMK AO2 LTG DSNT N T00251033,M
P68,2022-09-29 12:53,-116.0056,39.6014,1993.00,50.00,39.00,65.75,210.00,8.00,0.00,30.22,1017.00,M,M,M,M,M,M,M,M,M,M,M,M,M,M,M,M,M,50.00,KP68 291253Z AUTO 21008KT 10/04 A3022 RMK AO1 SLP170 T01000039,M
ELY,2022-09-29 12:53,-114.8453,39.2950,1909.00,57.00,43.00,59.40,200.00,10.00,0.00,30.27,1016.20,10.00,M,SCT,M,M,M,11000.00,M,M,M,M,M,M,M,M,M,M,57.00,KELY 291253Z AUTO 20010KT 10SM SCT110 14/06 A3027 RMK AO2 SLP162 T01390061,M
DRA,2022-09-29 12:53,-116.0278,36.6206,1009.00,66.00,48.00,52.22,10.00,5.00,0.00,30.08,1014.20,10.00,M,CLR,M,M,M,M,M,M,M,M,M,M,M,M,M,M,66.00,KDRA 291253Z AUTO 01005KT 10SM CLR 19/09 A3008 RMK AO2 SLP142 T01890089,M
VGT,2022-09-29 12:53,-115.1933,36.2111,667.00,73.00,55.00,53.23,330.00,3.00,0.00,30.04,1016.60,10.00,M,CLR,M,M,M,M,M,M,M,M,M,M,M,M,M,M,73.00,KVGT 291253Z 33003KT 10SM CLR 23/13 A3004 RMK AO2 SLP166 T02280128,M
LOL,2022-09-29 12:53,-118.5701,40.0684,1192.43,46.00,28.90,51.03,0.00,0.00,0.00,30.12,1017.30,10.00,M,CLR,M,M,M,M,M,M,M,M,M,M,M,M,M,M,46.00,KLOL 291253Z AUTO 00000KT 10SM CLR 08/M02 A3012 RMK AO2 SLP173 T00781017,M
BAM,2022-09-29 12:55,-116.8743,40.5990,1382.36,46.40,28.40,49.24,360.00,3.00,0.00,30.16,M,10.00,M,CLR,M,M,M,M,M,M,M,M,M,M,M,M,M,M,45.15,KBAM 291255Z AUTO 36003KT 10SM CLR 08/M02 A3016 RMK AO1,M
RNO,2022-09-29 12:55,-119.7711,39.4839,1341.00,52.00,36.00,54.26,0.00,0.00,0.00,30.17,1017.20,10.00,M,CLR,M,M,M,M,M,M,M,M,M,M,M,M,M,M,52.00,KRNO 291255Z 00000KT 10SM CLR 11/02 A3017 RMK AO2 SLP172 T01110022,M
05U,2022-09-29 12:55,-116.0051,39.6042,1811.23,50.00,39.20,66.27,210.00,7.00,0.00,30.25,M,10.00,M,CLR,M,M,M,M,M,M,M,M,M,M,M,M,M,M,50.00,K05U 291255Z AUTO 21007KT 10SM CLR 10/04 A3025 RMK A01,M
MEV,2022-09-29 12:55,-119.7500,38.9963,1441.42,50.00,32.00,49.81,M,3.00,0.00,30.15,M,10.00,M,CLR,M,M,M,M,M,M,M,M,M,M,M,M,M,M,50.00,KMEV 291255Z AUTO VRB03KT 10SM CLR 10/00 A3015 RMK AO2,M
RTS,2022-09-29 12:55,-119.8764,39.6682,1539.00,46.40,26.60,45.73,330.00,8.00,0.00,30.20,M,10.00,M,CLR,M,M,M,M,M,M,M,M,M,M,M,M,M,M,41.85,KRTS 291255Z AUTO 33008KT 10SM CLR 08/M03 A3020 RMK AO2,M
TMT,2022-09-29 12:55,-117.1971,39.4643,1749.34,36.00,25.30,64.53,10.00,3.00,0.00,30.24,M,10.00,M,CLR,M,M,M,M,M,M,M,M,M,M,M,M,M,M,33.38,KTMT 291255Z AUTO 01003KT 10SM CLR 02/M04 A3024 RMK AO2 T00231037,M
CXP,2022-09-29 12:55,-119.7326,39.1923,1431.00,55.40,32.00,40.84,360.00,3.00,0.00,30.17,M,10.00,M,CLR,M,M,M,M,M,M,M,M,M,M,M,M,M,M,55.40,KCXP 291255Z AUTO 36003KT 10SM CLR 13/M00 A3017 RMK AO2,M
BVU,2022-09-29 12:55,-114.8611,35.9475,671.00,69.80,55.40,60.21,0.00,0.00,0.00,30.04,M,10.00,M,CLR,M,M,M,M,M,M,M,M,M,M,M,M,M,M,69.80,KBVU 291255Z AUTO 00000KT 10SM CLR 21/13 A3004 RMK AO2,M
HTH,2022-09-29 12:55,-118.6315,38.5448,1282.89,62.60,35.60,36.45,0.00,0.00,0.00,30.14,M,10.00,M,CLR,M,M,M,M,M,M,M,M,M,M,M,M,M,M,62.60,KHTH 291255Z AUTO 00000KT 10SM CLR 17/02 A3014 RMK A01,M
HND,2022-09-29 12:56,-115.1344,35.9729,742.79,70.00,55.00,58.94,170.00,6.00,0.00,30.08,1017.60,10.00,M,CLR,M,M,M,M,M,M,M,M,M,M,M,M,M,M,70.00,KHND 291256Z AUTO 17006KT 10SM CLR 21/13 A3008 RMK AO2 SLP176 T02110128,M
TPH,2022-09-29 12:56,-117.0904,38.0505,1654.00,53.00,40.00,60.73,360.00,6.00,0.00,30.22,1016.80,10.00,M,CLR,M,M,M,M,M,M,M,M,M,M,M,M,M,M,53.10,KTPH 291256Z AUTO 36006KT 10SM CLR 12/04 A3022 RMK AO2 SLP168 T01170044,M
WMC,2022-09-29 12:56,-117.8072,40.9019,1315.00,51.00,33.00,49.98,240.00,5.00,0.00,30.15,1017.00,10.00,M,CLR,M,M,M,M,M,M,M,M,M,M,M,M,M,M,51.10,KWMC 291256Z AUTO 24005KT 10SM CLR 11/01 A3015 RMK AO2 SLP170 T01060006,M
INS,2022-09-29 12:56,-115.6733,36.5872,955.00,62.80,51.60,66.78,0.00,0.00,0.00,30.08,1014.70,10.00,M,CLR,M,M,M,M,M,M,M,M,M,M,M,M,M,M,62.80,KINS 291256Z AUTO 00000KT 10SM CLR 17/11 A3008 RMK AO2 SLP147 T01710109 $,M
LSV,2022-09-29 12:56,-115.0343,36.2362,570.00,69.30,56.00,62.82,30.00,3.00,0.00,30.01,1014.20,10.00,M,CLR,M,M,M,M,M,M,M,M,M,M,M,M,M,M,69.30,KLSV 291256Z AUTO 03003KT 10SM CLR 21/13 A3001 RMK AO2 SLP142 T02070134 $,M
LAS,2022-09-29 12:56,-115.1634,36.0719,663.00,73.00,55.00,53.23,0.00,0.00,0.00,30.05,1015.20,10.00,M,CLR,M,M,M,M,M,M,M,M,M,M,M,M,M,M,73.00,KLAS 291256Z 00000KT 10SM CLR 23/13 A3005 RMK AO2 SLP152 T02280128,M
NFL,2022-09-29 12:56,-118.7010,39.4166,1199.00,52.00,35.00,52.36,330.00,4.00,0.00,30.13,1016.90,10.00,M,CLR,M,M,M,M,M,M,M,M,M,M,M,M,M,M,52.00,KNFL 291256Z AUTO 33004KT 10SM CLR 11/02 A3013 RMK AO2 SLP169 T01110017,M
EKO,2022-09-29 12:56,-115.7860,40.8242,1367.00,50.00,35.00,56.39,0.00,0.00,0.00,30.16,1017.10,10.00,M,FEW,M,M,M,11000.00,M,M,M,M,M,M,M,M,M,M,50.00,KEKO 291256Z AUTO 00000KT 10SM FEW110 10/02 A3016 RMK AO2 SLP171 T01000017,M
BAM,2022-09-29 13:15,-116.8743,40.5990,1382.36,44.60,26.60,48.96,0.00,0.00,0.00,30.16,M,10.00,M,CLR,M,M,M,M,M,M,M,M,M,M,M,M,M,M,44.60,KBAM 291315Z AUTO 00000KT 10SM CLR 07/M03 A3016 RMK AO1,M
MEV,2022-09-29 13:15,-119.7500,38.9963,1441.42,48.20,33.80,57.26,40.00,6.00,0.00,30.15,M,10.00,M,CLR,M,M,M,M,M,M,M,M,M,M,M,M,M,M,45.04,KMEV 291315Z AUTO 04006KT 10SM CLR 09/01 A3015 RMK AO2,M
CXP,2022-09-29 13:15,-119.7326,39.1923,1431.00,55.40,32.00,40.84,0.00,0.00,0.00,30.18,M,10.00,M,CLR,M,M,M,M,M,M,M,M,M,M,M,M,M,M,55.40,KCXP 291315Z AUTO 00000KT 10SM CLR 13/M00 A3018 RMK AO2,M
05U,2022-09-29 13:15,-116.0051,39.6042,1811.23,48.20,39.20,70.88,220.00,7.00,0.00,30.25,M,10.00,M,CLR,M,M,M,M,M,M,M,M,M,M,M,M,M,M,44.53,K05U 291315Z AUTO 22007KT 10SM CLR 09/04 A3025 RMK A01,M
RTS,2022-09-29 13:15,-119.8764,39.6682,1539.00,44.60,24.80,45.44,350.00,6.00,0.00,30.20,M,10.00,M,CLR,M,M,M,M,M,M,M,M,M,M,M,M,M,M,40.71,KRTS 291315Z AUTO 35006KT 10SM CLR 07/M04 A3020 RMK AO2,M
TMT,2022-09-29 13:15,-117.1971,39.4643,1749.34,36.00,24.80,63.45,0.00,0.00,0.00,30.24,M,10.00,M,CLR,M,M,M,M,M,M,M,M,M,M,M,M,M,M,36.00,KTMT 291315Z AUTO 00000KT 10SM CLR 02/M04 A3024 RMK AO2 T00221040,M
HTH,2022-09-29 13:15,-118.6315,38.5448,1282.89,62.60,41.00,45.04,280.00,3.00,0.00,30.15,M,10.00,M,CLR,M,M,M,M,M,M,M,M,M,M,M,M,M,M,62.60,KHTH 291315Z AUTO 28003KT 10SM CLR 17/05 A3015 RMK A01,M
BVU,2022-09-29 13:15,-114.8611,35.9475,671.00,69.80,53.60,56.38,0.00,0.00,0.00,30.04,M,10.00,M,CLR,M,M,M,M,M,M,M,M,M,M,M,M,M,M,69.80,KBVU 291315Z AUTO 00000KT 10SM CLR 21/12 A3004 RMK AO2,M
MEV,2022-09-29 13:35,-119.7500,38.9963,1441.42,50.00,35.60,57.52,80.00,6.00,0.00,30.15,M,10.00,M,CLR,M,M,M,M,M,M,M,M,M,M,M,M,M,M,50.00,KMEV 291335Z AUTO 08006KT 10SM CLR 10/02 A3015 RMK AO2,M
05U,2022-09-29 13:35,-116.0051,39.6042,1811.23,48.20,39.20,70.88,210.00,8.00,0.00,30.25,M,10.00,M,CLR,M,M,M,M,M,M,M,M,M,M,M,M,M,M,44.07,K05U 291335Z AUTO 21008KT 10SM CLR 09/04 A3025 RMK A01,M
RTS,2022-09-29 13:35,-119.8764,39.6682,1539.00,48.20,24.80,39.66,360.00,4.00,0.00,30.21,M,10.00,M,CLR,M,M,M,M,M,M,M,M,M,M,M,M,M,M,46.34,KRTS 291335Z AUTO 36004KT 10SM CLR 09/M04 A3021 RMK AO2,M
CXP,2022-09-29 13:35,-119.7326,39.1923,1431.00,53.60,32.00,43.61,0.00,0.00,0.00,30.18,M,10.00,M,CLR,M,M,M,M,M,M,M,M,M,M,M,M,M,M,53.60,KCXP 291335Z AUTO 00000KT 10SM CLR 12/M00 A3018 RMK AO2,M
BVU,2022-09-29 13:35,-114.8611,35.9475,671.00,69.80,55.40,60.21,0.00,0.00,0.00,30.05,M,10.00,M,CLR,M,M,M,M,M,M,M,M,M,M,M,M,M,M,69.80,KBVU 291335Z AUTO 00000KT 10SM CLR 21/13 A3005 RMK AO2,M
TMT,2022-09-29 13:35,-117.1971,39.4643,1749.34,37.60,25.00,60.07,0.00,0.00,0.00,30.24,M,10.00,M,CLR,M,M,M,M,M,M,M,M,M,M,M,M,M,M,37.60,KTMT 291335Z AUTO 00000KT 10SM CLR 03/M04 A3024 RMK AO2 T00311039,M
HTH,2022-09-29 13:35,-118.6315,38.5448,1282.89,59.00,33.80,38.56,0.00,0.00,0.00,30.15,M,10.00,M,CLR,M,M,M,M,M,M,M,M,M,M,M,M,M,M,59.00,KHTH 291335Z AUTO 00000KT 10SM CLR 15/01 A3015 RMK A01,M
BAM,2022-09-29 13:35,-116.8743,40.5990,1382.36,44.60,26.60,48.96,0.00,0.00,0.00,30.16,M,10.00,M,CLR,M,M,M,M,M,M,M,M,M,M,M,M,M,M,44.60,KBAM 291335Z AUTO 00000KT 10SM CLR 07/M03 A3016 RMK AO1,M
P68,2022-09-29 13:53,-116.0056,39.6014,1993.00,50.00,38.00,62.98,190.00,7.00,0.00,30.23,1017.40,M,M,M,M,M,M,M,M,M,M,M,M,M,M,M,M,M,50.00,KP68 291353Z AUTO 19007KT 10/03 A3023 RMK AO1 SLP174 T01000033,M
ELY,2022-09-29 13:53,-114.8453,39.2950,1909.00,56.00,43.00,61.81,210.00,12.00,0.00,30.27,1016.60,10.00,M,CLR,M,M,M,M,M,M,M,M,M,M,M,M,M,M,55.90,KELY 291353Z AUTO 21012KT 10SM CLR 13/06 A3027 RMK AO2 SLP166 T01330061,M
LOL,2022-09-29 13:53,-118.5701,40.0684,1192.43,48.00,30.90,51.34,330.00,3.00,0.00,30.14,1018.10,10.00,M,CLR,M,M,M,M,M,M,M,M,M,M,M,M,M,M,46.98,KLOL 291353Z AUTO 33003KT 10SM CLR 09/M01 A3014 RMK AO2 SLP181 T00891006,M
DRA,2022-09-29 13:53,-116.0278,36.6206,1009.00,65.00,47.00,52.06,0.00,0.00,0.00,30.09,1014.60,10.00,M,CLR,M,M,M,M,M,M,M,M,M,M,M,M,M,M,64.90,KDRA 291353Z AUTO 00000KT 10SM CLR 18/08 A3009 RMK AO2 SLP146 T01830083,M
VGT,2022-09-29 13:53,-115.1933,36.2111,667.00,73.00,55.00,53.23,300.00,3.00,0.00,30.04,1016.90,10.00,M,CLR,M,M,M,M,M,M,M,M,M,M,M,M,M,M,73.00,KVGT 291353Z 30003KT 10SM CLR 23/13 A3004 RMK AO2 SLP169 T02280128,M
MEV,2022-09-29 13:55,-119.7500,38.9963,1441.42,50.00,33.80,53.54,10.00,3.00,0.00,30.16,M,10.00,M,CLR,M,M,M,M,M,M,M,M,M,M,M,M,M,M,50.00,KMEV 291355Z AUTO 01003KT 10SM CLR 10/01 A3016 RMK AO2,M
TMT,2022-09-29 13:55,-117.1971,39.4643,1749.34,32.20,23.70,70.53,0.00,0.00,0.00,30.25,M,10.00,M,CLR,M,M,M,M,M,M,M,M,M,M,M,M,M,M,32.20,KTMT 291355Z AUTO 00000KT 10SM CLR 00/M05 A3025 RMK AO2 T00011046,M
HTH,2022-09-29 13:55,-118.6315,38.5448,1282.89,57.20,33.80,41.13,0.00,0.00,0.00,30.15,M,10.00,M,CLR,M,M,M,M,M,M,M,M,M,M,M,M,M,M,57.20,KHTH 291355Z AUTO 00000KT 10SM CLR 14/01 A3015 RMK A01,M
BAM,2022-09-29 13:55,-116.8743,40.5990,1382.36,44.60,28.40,52.72,140.00,3.00,0.00,30.17,M,10.00,M,CLR,M,M,M,M,M,M,M,M,M,M,M,M,M,M,43.09,KBAM 291355Z AUTO 14003KT 10SM CLR 07/M02 A3017 RMK AO1,M
05U,2022-09-29 13:55,-116.0051,39.6042,1811.23,50.00,39.20,66.27,200.00,7.00,0.00,30.25,M,10.00,M,CLR,M,M,M,M,M,M,M,M,M,M,M,M,M,M,50.00,K05U 291355Z AUTO 20007KT 10SM CLR 10/04 A3025 RMK A01,M
RTS,2022-09-29 13:55,-119.8764,39.6682,1539.00,50.00,26.60,39.95,0.00,0.00,0.00,30.21,M,10.00,M,CLR,M,M,M,M,M,M,M,M,M,M,M,M,M,M,50.00,KRTS 291355Z AUTO 00000KT 10SM CLR 10/M03 A3021 RMK AO2,M
CXP,2022-09-29 13:55,-119.7326,39.1923,1431.00,53.60,32.00,43.61,0.00,0.00,0.00,30.18,M,10.00,M,CLR,M,M,M,M,M,M,M,M,M,M,M,M,M,M,53.60,KCXP 291355Z AUTO 00000KT 10SM CLR 12/00 A3018 RMK AO2,M
BVU,2022-09-29 13:55,-114.8611,35.9475,671.00,69.80,55.40,60.21,0.00,0.00,0.00,30.05,M,10.00,M,CLR,M,M,M,M,M,M,M,M,M,M,M,M,M,M,69.80,KBVU 291355Z AUTO 00000KT 10SM CLR 21/13 A3005 RMK AO2,M
RNO,2022-09-29 13:55,-119.7711,39.4839,1341.00,53.00,37.00,54.21,0.00,0.00,0.00,30.17,1017.60,10.00,M,FEW,M,M,M,13000.00,M,M,M,M,M,M,M,M,M,M,53.10,KRNO 291355Z 00000KT 10SM FEW130 12/03 A3017 RMK AO2 SLP176 T01170028,M
NFL,2022-09-29 13:56,-118.7010,39.4166,1199.00,48.00,35.00,60.76,180.00,6.00,0.00,30.13,1017.00,10.00,M,CLR,M,M,M,M,M,M,M,M,M,M,M,M,M,M,44.80,KNFL 291356Z AUTO 18006KT 10SM CLR 09/02 A3013 RMK AO2 SLP170 T00890017,M
EKO,2022-09-29 13:56,-115.7860,40.8242,1367.00,49.00,34.00,56.23,0.00,0.00,0.00,30.17,1017.90,10.00,M,CLR,M,M,M,M,M,M,M,M,M,M,M,M,M,M,48.90,KEKO 291356Z AUTO 00000KT 10SM CLR 09/01 A3017 RMK AO2 SLP179 T00940011,M
INS,2022-09-29 13:56,-115.6733,36.5872,955.00,61.30,53.40,75.23,0.00,0.00,0.00,30.09,1015.20,10.00,M,CLR,M,M,M,M,M,M,M,M,M,M,M,M,M,M,61.30,KINS 291356Z AUTO 00000KT 10SM CLR 16/12 A3009 RMK AO2 SLP152 T01630119 $,M
LAS,2022-09-29 13:56,-115.1634,36.0719,663.00,74.00,55.00,51.64,0.00,0.00,0.00,30.05,1015.50,10.00,M,FEW,M,M,M,25000.00,M,M,M,M,M,M,M,M,M,M,73.90,KLAS 291356Z 00000KT 10SM FEW250 23/13 A3005 RMK AO2 SLP155 T02330128,M
HND,2022-09-29 13:56,-115.1344,35.9729,742.79,69.00,56.00,62.80,180.00,3.00,0.00,30.08,1018.00,10.00,M,CLR,M,M,M,M,M,M,M,M,M,M,M,M,M,M,69.10,KHND 291356Z 18003KT 10SM CLR 21/13 A3008 RMK AO2 SLP180 T02060133,M
TPH,2022-09-29 13:56,-117.0904,38.0505,1654.00,53.00,40.00,60.73,350.00,7.00,0.00,30.23,1017.80,10.00,M,CLR,M,M,M,M,M,M,M,M,M,M,M,M,M,M,53.10,KTPH 291356Z AUTO 35007KT 10SM CLR 12/04 A3023 RMK AO2 SLP178 T01170044,M
LSV,2022-09-29 13:56,-115.0343,36.2362,570.00,69.40,55.40,61.04,40.00,6.00,0.00,30.01,1014.30,10.00,M,CLR,M,M,M,M,M,M,M,M,M,M,M,M,M,M,69.40,KLSV 291356Z AUTO 04006KT 10SM CLR 21/13 A3001 RMK AO2 SLP143 T02080130 $,M
WMC,2022-09-29 13:56,-117.8072,40.9019,1315.00,50.00,33.00,52.06,30.00,3.00,0.00,30.16,1018.00,10.00,M,CLR,M,M,M,M,M,M,M,M,M,M,M,M,M,M,50.00,KWMC 291356Z AUTO 03003KT 10SM CLR 10/01 A3016 RMK AO2 SLP180 T01000006,M
CXP,2022-09-29 14:15,-119.7326,39.1923,1431.00,51.80,32.00,46.59,0.00,0.00,0.00,30.18,M,10.00,M,CLR,M,M,M,M,M,M,M,M,M,M,M,M,M,M,51.80,KCXP 291415Z AUTO 00000KT 10SM CLR 11/00 A3018 RMK AO2,M
RTS,2022-09-29 14:15,-119.8764,39.6682,1539.00,46.40,26.60,45.73,0.00,0.00,0.00,30.21,M,10.00,M,CLR,M,M,M,M,M,M,M,M,M,M,M,M,M,M,46.40,KRTS 291415Z AUTO 00000KT 10SM CLR 08/M03 A3021 RMK AO2,M
05U,2022-09-29 14:15,-116.0051,39.6042,1811.23,50.00,39.20,66.27,200.00,7.00,0.00,30.26,M,10.00,M,CLR,M,M,M,M,M,M,M,M,M,M,M,M,M,M,50.00,K05U 291415Z AUTO 20007KT 10SM CLR 10/04 A3026 RMK A01,M
MEV,2022-09-29 14:15,-119.7500,38.9963,1441.42,46.40,33.80,61.28,330.00,3.00,0.00,30.16,M,10.00,M,CLR,M,M,M,M,M,M,M,M,M,M,M,M,M,M,45.15,KMEV 291415Z AUTO 33003KT 10SM CLR 08/01 A3016 RMK AO2,M
BAM,2022-09-29 14:15,-116.8743,40.5990,1382.36,44.60,26.60,48.96,80.00,3.00,0.00,30.17,M,10.00,M,CLR,M,M,M,M,M,M,M,M,M,M,M,M,M,M,43.09,KBAM 291415Z AUTO 08003KT 10SM CLR 07/M03 A3017 RMK AO1,M
HTH,2022-09-29 14:15,-118.6315,38.5448,1282.89,59.00,35.60,41.42,0.00,0.00,0.00,30.15,M,10.00,M,CLR,M,M,M,M,M,M,M,M,M,M,M,M,M,M,59.00,KHTH 291415Z AUTO 00000KT 10SM CLR 15/02 A3015 RMK A01,M
TMT,2022-09-29 14:15,-117.1971,39.4643,1749.34,34.70,24.60,66.26,0.00,0.00,0.00,30.25,M,10.00,M,CLR,M,M,M,M,M,M,M,M,M,M,M,M,M,M,34.70,KTMT 291415Z AUTO 00000KT 10SM CLR 02/M04 A3025 RMK AO2 T00151041,M
BVU,2022-09-29 14:15,-114.8611,35.9475,671.00,71.60,55.40,56.63,0.00,0.00,0.00,30.06,M,10.00,M,CLR,M,M,M,M,M,M,M,M,M,M,M,M,M,M,71.60,KBVU 291415Z AUTO 00000KT 10SM CLR 22/13 A3006 RMK AO2,M
HTH,2022-09-29 14:35,-118.6315,38.5448,1282.89,60.80,33.80,36.16,0.00,0.00,0.00,30.16,M,10.00,M,CLR,M,M,M,M,M,M,M,M,M,M,M,M,M,M,60.80,KHTH 291435Z AUTO 00000KT 10SM CLR 16/01 A3016 RMK A01,M
TMT,2022-09-29 14:35,-117.1971,39.4643,1749.34,40.50,26.80,57.79,0.00,0.00,0.00,30.25,M,10.00,M,CLR,M,M,M,M,M,M,M,M,M,M,M,M,M,M,40.50,KTMT 291435Z AUTO 00000KT 10SM CLR 05/M03 A3025 RMK AO2 T00471029,M
BVU,2022-09-29 14:35,-114.8611,35.9475,671.00,73.40,55.40,53.29,0.00,0.00,0.00,30.06,M,10.00,M,CLR,M,M,M,M,M,M,M,M,M,M,M,M,M,M,73.40,KBVU 291435Z AUTO 00000KT 10SM CLR 23/13 A3006 RMK AO2,M
CXP,2022-09-29 14:35,-119.7326,39.1923,1431.00,55.40,33.80,43.90,0.00,0.00,0.00,30.18,M,10.00,M,CLR,M,M,M,M,M,M,M,M,M,M,M,M,M,M,55.40,KCXP 291435Z AUTO 00000KT 10SM CLR 13/01 A3018 RMK AO2,M
RTS,2022-09-29 14:35,-119.8764,39.6682,1539.00,46.40,26.60,45.73,0.00,0.00,0.00,30.21,M,10.00,M,CLR,M,M,M,M,M,M,M,M,M,M,M,M,M,M,46.40,KRTS 291435Z AUTO 00000KT 10SM CLR 08/M03 A3021 RMK AO2,M
05U,2022-09-29 14:35,-116.0051,39.6042,1811.23,53.60,39.20,58.02,210.00,7.00,0.00,30.25,M,10.00,M,CLR,M,M,M,M,M,M,M,M,M,M,M,M,M,M,53.60,K05U 291435Z AUTO 21007KT 10SM CLR 12/04 A3025 RMK A01,M
MEV,2022-09-29 14:35,-119.7500,38.9963,1441.42,51.80,33.80,50.08,360.00,5.00,0.00,30.16,M,10.00,M,CLR,M,M,M,M,M,M,M,M,M,M,M,M,M,M,51.80,KMEV 291435Z AUTO 36005KT 10SM CLR 11/01 A3016 RMK AO2,M
BAM,2022-09-29 14:35,-116.8743,40.5990,1382.36,50.00,28.40,43.03,0.00,0.00,0.00,30.18,M,10.00,M,CLR,M,M,M,M,M,M,M,M,M,M,M,M,M,M,50.00,KBAM 291435Z AUTO 00000KT 10SM CLR 10/M02 A3018 RMK AO1,M
NFL,2022-09-29 14:45,-118.7010,39.4166,1199.00,52.00,35.00,52.36,150.00,4.00,0.00,30.14,M,10.00,M,SCT,M,M,M,10000.00,M,M,M,M,M,M,M,M,M,M,52.00,KNFL 291445Z 15004KT 10SM SCT100 11/02 A3014 RMK AO2 T01110017,M
DRA,2022-09-29 14:53,-116.0278,36.6206,1009.00,69.00,48.00,46.92,0.00,0.00,0.00,30.10,1015.00,10.00,M,CLR,M,M,M,M,M,M,M,M,M,M,M,M,M,M,69.10,KDRA 291453Z AUTO 00000KT 10SM CLR 21/09 A3010 RMK AO2 SLP150 T02060089 53004,M
P68,2022-09-29 14:53,-116.0056,39.6014,1993.00,54.00,40.00,58.76,210.00,7.00,0.00,30.23,1017.30,M,M,M,M,M,M,M,M,M,M,M,M,M,M,M,M,M,54.00,KP68 291453Z AUTO 21007KT 12/04 A3023 RMK AO1 SLP173 T01220044 51003,M
LOL,2022-09-29 14:53,-118.5701,40.0684,1192.43,49.00,30.00,47.85,130.00,4.00,0.00,30.15,1018.50,10.00,M,CLR,M,M,M,M,M,M,M,M,M,M,M,M,M,M,47.16,KLOL 291453Z AUTO 13004KT 10SM CLR 09/M01 A3015 RMK AO2 SLP185 T00941011 53007,M
ELY,2022-09-29 14:53,-114.8453,39.2950,1909.00,59.00,43.00,55.28,210.00,11.00,0.00,30.27,1016.90,10.00,M,CLR,M,M,M,M,M,M,M,M,M,M,M,M,M,M,59.00,KELY 291453Z AUTO 21011KT 10SM CLR 15/06 A3027 RMK AO2 SLP169 T01500061 53002,M
VGT,2022-09-29 14:53,-115.1933,36.2111,667.00,77.00,55.00,46.57,0.00,0.00,0.00,30.06,1017.20,10.00,M,CLR,M,M,M,M,M,M,M,M,M,M,M,M,M,M,77.00,KVGT 291453Z 00000KT 10SM CLR 25/13 A3006 RMK AO2 SLP172 T02500128 53007,M
BAM,2022-09-29 14:55,-116.8743,40.5990,1382.36,51.80,30.20,43.32,0.00,0.00,0.00,30.18,M,10.00,M,CLR,M,M,M,M,M,M,M,M,M,M,M,M,M,M,51.80,KBAM 291455Z AUTO 00000KT 10SM CLR 11/M01 A3018 RMK AO1,M
BVU,2022-09-29 14:55,-114.8611,35.9475,671.00,75.20,53.60,46.98,0.00,0.00,0.00,30.06,M,10.00,M,CLR,M,M,M,M,M,M,M,M,M,M,M,M,M,M,75.20,KBVU 291455Z AUTO 00000KT 10SM CLR 24/12 A3006 RMK AO2,M
CXP,2022-09-29 14:55,-119.7326,39.1923,1431.00,57.20,33.80,41.13,110.00,3.00,0.00,30.18,M,10.00,M,CLR,M,M,M,M,M,M,M,M,M,M,M,M,M,M,57.20,KCXP 291455Z AUTO 11003KT 10SM CLR 14/01 A3018 RMK AO2,M
RNO,2022-09-29 14:55,-119.7711,39.4839,1341.00,54.00,37.00,52.45,0.00,0.00,0.00,30.18,1018.00,10.00,M,CLR,M,M,M,M,M,M,M,M,M,M,M,M,M,M,54.00,KRNO 291455Z 00000KT 10SM CLR 12/03 A3018 RMK AO2 SLP180 T01220028 51006,M
RTS,2022-09-29 14:55,-119.8764,39.6682,1539.00,48.20,26.60,42.73,0.00,0.00,0.00,30.22,M,10.00,M,CLR,M,M,M,M,M,M,M,M,M,M,M,M,M,M,48.20,KRTS 291455Z AUTO 00000KT 10SM CLR 09/M03 A3022 RMK AO2,M
05U,2022-09-29 14:55,-116.0051,39.6042,1811.23,55.40,39.20,54.34,210.00,6.00,0.00,30.25,M,10.00,M,CLR,M,M,M,M,M,M,M,M,M,M,M,M,M,M,55.40,K05U 291455Z AUTO 21006KT 10SM CLR 13/04 A3025 RMK A01,M
MEV,2022-09-29 14:55,-119.7500,38.9963,1441.42,55.40,33.80,43.90,340.00,4.00,0.00,30.16,M,10.00,M,CLR,M,M,M,M,M,M,M,M,M,M,M,M,M,M,55.40,KMEV 291455Z AUTO 34004KT 10SM CLR 13/01 A3016 RMK AO2,M
HTH,2022-09-29 14:55,-118.6315,38.5448,1282.89,62.60,33.80,33.93,270.00,4.00,0.00,30.16,M,10.00,M,CLR,M,M,M,M,M,M,M,M,M,M,M,M,M,M,62.60,KHTH 291455Z AUTO 27004KT 10SM CLR 17/01 A3016 RMK A01,M
TMT,2022-09-29 14:55,-117.1971,39.4643,1749.34,45.00,28.40,51.73,0.00,0.00,0.00,30.25,M,10.00,M,CLR,M,M,M,M,M,M,M,M,M,M,M,M,M,M,45.10,KTMT 291455Z AUTO 00000KT 10SM CLR 07/M02 A3025 RMK AO2 T00731020,M
WMC,2022-09-29 14:56,-117.8072,40.9019,1315.00,57.00,35.00,43.63,200.00,3.00,0.00,30.17,1018.10,10.00,M,CLR,M,M,M,M,M,M,M,M,M,M,M,M,M,M,57.00,KWMC 291456Z AUTO 20003KT 10SM CLR 14/02 A3017 RMK AO2 SLP181 T01390017 53008,M
INS,2022-09-29 14:56,-115.6733,36.5872,955.00,64.20,55.40,73.07,0.00,0.00,0.00,30.10,1015.40,10.00,M,CLR,M,M,M,M,M,M,M,M,M,M,M,M,M,M,64.20,KINS 291456Z AUTO 00000KT 10SM CLR 18/13 A3010 RMK AO2 SLP154 T01790130 53005 $,M
LSV,2022-09-29 14:56,-115.0343,36.2362,570.00,74.50,57.20,54.81,70.00,7.00,0.00,30.02,1014.50,10.00,M,CLR,M,M,M,M,M,M,M,M,M,M,M,M,M,M,74.50,KLSV 291456Z AUTO 07007KT 10SM CLR 24/14 A3002 RMK AO2 SLP145 T02360140 52007 $,M
LAS,2022-09-29 14:56,-115.1634,36.0719,663.00,77.00,55.00,46.57,320.00,3.00,0.00,30.07,1015.90,10.00,M,FEW,M,M,M,25000.00,M,M,M,M,M,M,M,M,M,M,77.00,KLAS 291456Z 32003KT 10SM FEW250 25/13 A3007 RMK AO2 SLP159 T02500128 53008,M
HND,2022-09-29 14:56,-115.1344,35.9729,742.79,73.00,57.00,57.23,0.00,0.00,0.00,30.10,1018.40,10.00,M,CLR,M,M,M,M,M,M,M,M,M,M,M,M,M,M,73.00,KHND 291456Z 00000KT 10SM CLR 23/14 A3010 RMK AO2 SLP184 T02280139 53008,M
EKO,2022-09-29 14:56,-115.7860,40.8242,1367.00,49.00,34.00,56.23,0.00,0.00,0.00,30.17,1018.50,10.00,M,CLR,M,M,M,M,M,M,M,M,M,M,M,M,M,M,48.90,KEKO 291456Z AUTO 00000KT 10SM CLR 09/01 A3017 RMK AO2 SLP185 T00940011 53004,M
TPH,2022-09-29 14:56,-117.0904,38.0505,1654.00,59.00,42.00,53.40,360.00,8.00,0.00,30.23,1018.10,10.00,M,CLR,M,M,M,M,M,M,M,M,M,M,M,M,M,M,59.00,KTPH 291456Z AUTO 36008KT 10SM CLR 15/06 A3023 RMK AO2 SLP181 T01500056 52005,M
NFL,2022-09-29 14:56,-118.7010,39.4166,1199.00,54.00,35.00,48.65,0.00,0.00,0.00,30.14,1017.20,10.00,M,SCT,M,M,M,10000.00,M,M,M,M,M,M,M,M,M,M,54.00,KNFL 291456Z 00000KT 10SM SCT100 12/02 A3014 RMK AO2 SLP172 T01220017 51007,M
CXP,2022-09-29 15:10,-119.7326,39.1923,1431.00,59.00,33.80,38.56,120.00,5.00,0.00,30.18,M,10.00,M,CLR,M,M,M,M,M,M,M,M,M,M,M,M,M,M,59.00,KCXP 291510Z AUTO 12005KT 10SM CLR 15/01 A3018 RMK AO2,M
MEV,2022-09-29 15:15,-119.7500,38.9963,1441.42,59.00,35.60,41.42,20.00,3.00,0.00,30.16,M,10.00,M,CLR,M,M,M,M,M,M,M,M,M,M,M,M,M,M,59.00,KMEV 291515Z AUTO 02003KT 10SM CLR 15/02 A3016 RMK AO2,M
05U,2022-09-29 15:15,-116.0051,39.6042,1811.23,59.00,41.00,51.18,210.00,7.00,0.00,30.25,M,10.00,M,CLR,M,M,M,M,M,M,M,M,M,M,M,M,M,M,59.00,K05U 291515Z AUTO 21007KT 10SM CLR 15/05 A3025 RMK A01,M
RTS,2022-09-29 15:15,-119.8764,39.6682,1539.00,53.60,28.40,37.67,260.00,3.00,0.00,30.22,M,10.00,M,CLR,M,M,M,M,M,M,M,M,M,M,M,M,M,M,53.60,KRTS 291515Z AUTO 26003KT 10SM CLR 12/M02 A3022 RMK AO2,M
BVU,2022-09-29 15:15,-114.8611,35.9475,671.00,77.00,55.40,47.25,0.00,0.00,0.00,30.07,M,10.00,M,CLR,M,M,M,M,M,M,M,M,M,M,M,M,M,M,77.00,KBVU 291515Z AUTO 00000KT 10SM CLR 25/13 A3007 RMK AO2,M
TMT,2022-09-29 15:15,-117.1971,39.4643,1749.34,48.20,29.50,48.13,0.00,0.00,0.00,30.24,M,10.00,M,CLR,M,M,M,M,M,M,M,M,M,M,M,M,M,M,48.20,KTMT 291515Z AUTO 00000KT 10SM CLR 09/M01 A3024 RMK AO2 T00901014,M
BAM,2022-09-29 15:15,-116.8743,40.5990,1382.36,55.40,30.20,37.97,0.00,0.00,0.00,30.18,M,10.00,M,CLR,M,M,M,M,M,M,M,M,M,M,M,M,M,M,55.40,KBAM 291515Z AUTO 00000KT 10SM CLR 13/M01 A3018 RMK AO1,M
HTH,2022-09-29 15:15,-118.6315,38.5448,1282.89,64.40,37.40,36.74,0.00,0.00,0.00,30.16,M,10.00,M,CLR,M,M,M,M,M,M,M,M,M,M,M,M,M,M,64.40,KHTH 291515Z AUTO 00000KT 10SM CLR 18/03 A3016 RMK A01,M
HTH,2022-09-29 15:35,-118.6315,38.5448,1282.89,64.40,37.40,36.74,0.00,0.00,0.00,30.16,M,10.00,M,CLR,M,M,M,M,M,M,M,M,M,M,M,M,M,M,64.40,KHTH 291535Z AUTO 00000KT 10SM CLR 18/03 A3016 RMK A01,M
MEV,2022-09-29 15:35,-119.7500,38.9963,1441.42,66.20,35.60,32.14,350.00,5.00,0.00,30.16,M,10.00,M,CLR,M,M,M,M,M,M,M,M,M,M,M,M,M,M,66.20,KMEV 291535Z AUTO 35005KT 10SM CLR 19/02 A3016 RMK AO2,M
05U,2022-09-29 15:35,-116.0051,39.6042,1811.23,62.60,41.00,45.04,220.00,6.00,0.00,30.25,M,10.00,M,CLR,M,M,M,M,M,M,M,M,M,M,M,M,M,M,62.60,K05U 291535Z AUTO 22006KT 10SM CLR 17/05 A3025 RMK A01,M
RTS,2022-09-29 15:35,-119.8764,39.6682,1539.00,57.20,28.40,33.05,0.00,0.00,0.00,30.22,M,10.00,M,CLR,M,M,M,M,M,M,M,M,M,M,M,M,M,M,57.20,KRTS 291535Z AUTO 00000KT 10SM CLR 14/M02 A3022 RMK AO2,M
CXP,2022-09-29 15:35,-119.7326,39.1923,1431.00,64.40,35.60,34.22,0.00,0.00,0.00,30.18,M,10.00,M,CLR,M,M,M,M,M,M,M,M,M,M,M,M,M,M,64.40,KCXP 291535Z AUTO 00000KT 10SM CLR 18/02 A3018 RMK AO2,M
BVU,2022-09-29 15:35,-114.8611,35.9475,671.00,78.80,55.40,44.52,0.00,0.00,0.00,30.07,M,10.00,M,CLR,M,M,M,M,M,M,M,M,M,M,M,M,M,M,78.80,KBVU 291535Z AUTO 00000KT 10SM CLR 26/13 A3007 RMK AO2,M
TMT,2022-09-29 15:35,-117.1971,39.4643,1749.34,50.50,29.80,44.72,280.00,3.00,0.00,30.24,M,10.00,M,CLR,M,M,M,M,M,M,M,M,M,M,M,M,M,M,50.50,KTMT 291535Z AUTO 28003KT 10SM CLR 10/M01 A3024 RMK AO2 T01031012,M
BAM,2022-09-29 15:35,-116.8743,40.5990,1382.36,60.80,30.20,31.28,320.00,3.00,0.00,30.18,M,10.00,M,CLR,M,M,M,M,M,M,M,M,M,M,M,M,M,M,60.80,KBAM 291535Z AUTO 32003KT 10SM CLR 16/M01 A3018 RMK AO1,M
VGT,2022-09-29 15:53,-115.1933,36.2111,667.00,80.00,54.00,40.54,130.00,7.00,0.00,30.06,1017.30,10.00,M,CLR,M,M,M,M,M,M,M,M,M,M,M,M,M,M,80.04,KVGT 291553Z 13007KT 10SM CLR 27/12 A3006 RMK AO2 SLP173 T02670122,M
DRA,2022-09-29 15:53,-116.0278,36.6206,1009.00,76.00,48.00,37.29,0.00,0.00,0.00,30.10,1015.00,10.00,M,CLR,M,M,M,M,M,M,M,M,M,M,M,M,M,M,75.90,KDRA 291553Z AUTO 00000KT 10SM CLR 24/09 A3010 RMK AO2 SLP150 T02440089,M
P68,2022-09-29 15:53,-116.0056,39.6014,1993.00,64.00,41.00,42.88,250.00,4.00,0.00,30.23,1016.20,M,M,M,M,M,M,M,M,M,M,M,M,M,M,M,M,M,64.00,KP68 291553Z AUTO 25004KT 18/05 A3023 RMK AO1 SLP162 T01780050,M
ELY,2022-09-29 15:53,-114.8453,39.2950,1909.00,65.00,45.00,48.44,220.00,12.00,0.00,30.27,1016.00,10.00,M,CLR,M,M,M,M,M,M,M,M,M,M,M,M,M,M,64.90,KELY 291553Z AUTO 22012KT 10SM CLR 18/07 A3027 RMK AO2 SLP160 T01830072,M
LOL,2022-09-29 15:53,-118.5701,40.0684,1192.43,59.00,32.00,35.87,0.00,0.00,0.00,30.16,1018.30,10.00,M,CLR,M,M,M,M,M,M,M,M,M,M,M,M,M,M,59.00,KLOL 291553Z AUTO 00000KT 10SM CLR 15/00 A3016 RMK AO2 SLP183 T01500000,M
RTS,2022-09-29 15:55,-119.8764,39.6682,1539.00,57.20,28.40,33.05,0.00,0.00,0.00,30.23,M,10.00,M,CLR,M,M,M,M,M,M,M,M,M,M,M,M,M,M,57.20,KRTS 291555Z AUTO 00000KT 10SM CLR 14/M02 A3023 RMK AO2,M
BVU,2022-09-29 15:55,-114.8611,35.9475,671.00,80.60,55.40,41.97,0.00,0.00,0.00,30.07,M,10.00,M,CLR,M,M,M,M,M,M,M,M,M,M,M,M,M,M,80.53,KBVU 291555Z AUTO 00000KT 10SM CLR 27/13 A3007 RMK AO2,M
CXP,2022-09-29 15:55,-119.7326,39.1923,1431.00,66.20,35.60,32.14,0.00,0.00,0.00,30.19,M,10.00,M,CLR,M,M,M,M,M,M,M,M,M,M,M,M,M,M,66.20,KCXP 291555Z AUTO 00000KT 10SM CLR 19/02 A3019 RMK AO2,M
RNO,2022-09-29 15:55,-119.7711,39.4839,1341.00,61.00,37.00,40.77,0.00,0.00,0.00,30.19,1018.10,10.00,M,CLR,M,M,M,M,M,M,M,M,M,M,M,M,M,M,61.00,KRNO 291555Z 00000KT 10SM CLR 16/03 A3019 RMK AO2 SLP181 T01610028,M
05U,2022-09-29 15:55,-116.0051,39.6042,1811.23,66.20,41.00,39.72,240.00,5.00,0.00,30.25,M,10.00,M,CLR,M,M,M,M,M,M,M,M,M,M,M,M,M,M,66.20,K05U 291555Z AUTO 24005KT 10SM CLR 19/05 A3025 RMK A01,M
MEV,2022-09-29 15:55,-119.7500,38.9963,1441.42,69.80,33.80,26.43,0.00,0.00,0.00,30.16,M,10.00,M,CLR,M,M,M,M,M,M,M,M,M,M,M,M,M,M,69.80,KMEV 291555Z AUTO 00000KT 10SM CLR 21/01 A3016 RMK AO2,M
BAM,2022-09-29 15:55,-116.8743,40.5990,1382.36,62.60,32.00,31.56,320.00,4.00,0.00,30.18,M,10.00,M,CLR,M,M,M,M,M,M,M,M,M,M,M,M,M,M,62.60,KBAM 291555Z AUTO 32004KT 10SM CLR 17/00 A3018 RMK AO1,M
HTH,2022-09-29 15:55,-118.6315,38.5448,1282.89,66.20,37.40,34.51,0.00,0.00,0.00,30.16,M,10.00,M,CLR,M,M,M,M,M,M,M,M,M,M,M,M,M,M,66.20,KHTH 291555Z AUTO 00000KT 10SM CLR 19/03 A3016 RMK A01,M
TMT,2022-09-29 15:55,-117.1971,39.4643,1749.34,M,M,M,0.00,0.00,0.00,30.24,M,10.00,M,CLR,M,M,M,M,M,M,M,M,M,M,M,M,M,M,M,KTMT 291555Z AUTO 00000KT 10SM CLR A3024 RMK AO2,M
NFL,2022-09-29 15:56,-118.7010,39.4166,1199.00,63.00,36.00,36.52,270.00,3.00,0.00,30.15,1017.40,10.00,M,FEW,M,M,M,12000.00,M,M,M,M,M,M,M,M,M,M,63.00,KNFL 291556Z 27003KT 10SM FEW120 17/02 A3015 RMK AO2 SLP174 T01720022,M
INS,2022-09-29 15:56,-115.6733,36.5872,955.00,71.60,52.50,50.93,0.00,0.00,0.00,30.10,1015.20,10.00,M,CLR,M,M,M,M,M,M,M,M,M,M,M,M,M,M,71.60,KINS 291556Z AUTO 00000KT 10SM CLR 22/11 A3010 RMK AO2 SLP152 T02200114 $,M
HND,2022-09-29 15:56,-115.1344,35.9729,742.79,79.00,53.00,40.67,0.00,0.00,0.00,30.10,1018.60,10.00,M,CLR,M,M,M,M,M,M,M,M,M,M,M,M,M,M,79.00,KHND 291556Z 00000KT 10SM CLR 26/12 A3010 RMK AO2 SLP186 T02610117,M
WMC,2022-09-29 15:56,-117.8072,40.9019,1315.00,66.00,39.00,37.00,0.00,0.00,0.00,30.18,1017.90,10.00,M,CLR,M,M,M,M,M,M,M,M,M,M,M,M,M,M,66.00,KWMC 291556Z AUTO 00000KT 10SM CLR 19/04 A3018 RMK AO2 SLP179 T01890039,M
LSV,2022-09-29 15:56,-115.0343,36.2362,570.00,80.20,54.30,40.85,80.00,10.00,0.00,30.03,1014.80,10.00,M,CLR,M,M,M,M,M,M,M,M,M,M,M,M,M,M,80.14,KLSV 291556Z AUTO 08010KT 10SM CLR 27/12 A3003 RMK AO2 SLP148 T02680124 $,M
TPH,2022-09-29 15:56,-117.0904,38.0505,1654.00,67.00,44.00,43.67,360.00,4.00,0.00,30.24,1017.30,10.00,M,CLR,M,M,M,M,M,M,M,M,M,M,M,M,M,M,66.90,KTPH 291556Z AUTO 36004KT 10SM CLR 19/07 A3024 RMK AO2 SLP173 T01940067,M
LAS,2022-09-29 15:56,-115.1634,36.0719,663.00,79.00,55.00,43.59,0.00,0.00,0.00,30.07,1016.00,10.00,M,FEW,M,M,M,25000.00,M,M,M,M,M,M,M,M,M,M,79.00,KLAS 291556Z 00000KT 10SM FEW250 26/13 A3007 RMK AO2 SLP160 T02610128,M
EKO,2022-09-29 15:56,-115.7860,40.8242,1367.00,59.00,36.00,42.08,0.00,0.00,0.00,30.17,1017.70,10.00,M,CLR,M,M,M,M,M,M,M,M,M,M,M,M,M,M,59.00,KEKO 291556Z AUTO 00000KT 10SM CLR 15/02 A3017 RMK AO2 SLP177 T01500022,M
TMT,2022-09-29 16:15,-117.1971,39.4643,1749.34,M,M,M,0.00,0.00,0.00,30.24,M,10.00,M,CLR,M,M,M,M,M,M,M,M,M,M,M,M,M,M,M,KTMT 291615Z AUTO 00000KT 10SM CLR A3024 RMK AO2,M
05U,2022-09-29 16:15,-116.0051,39.6042,1811.23,68.00,41.00,37.32,0.00,0.00,0.00,30.25,M,10.00,M,CLR,M,M,M,M,M,M,M,M,M,M,M,M,M,M,68.00,K05U 291615Z AUTO 00000KT 10SM CLR 20/05 A3025 RMK A01,M
RTS,2022-09-29 16:15,-119.8764,39.6682,1539.00,59.00,26.60,28.77,0.00,0.00,0.00,30.23,M,10.00,M,CLR,M,M,M,M,M,M,M,M,M,M,M,M,M,M,59.00,KRTS 291615Z AUTO 00000KT 10SM CLR 15/M03 A3023 RMK AO2,M
CXP,2022-09-29 16:15,-119.7326,39.1923,1431.00,68.00,35.60,30.20,0.00,0.00,0.00,30.19,M,10.00,M,CLR,M,M,M,M,M,M,M,M,M,M,M,M,M,M,68.00,KCXP 291615Z AUTO 00000KT 10SM CLR 20/02 A3019 RMK AO2,M
BAM,2022-09-29 16:15,-116.8743,40.5990,1382.36,66.20,35.60,32.14,340.00,9.00,0.00,30.19,M,10.00,M,CLR,M,M,M,M,M,M,M,M,M,M,M,M,M,M,66.20,KBAM 291615Z AUTO 34009KT 10SM CLR 19/02 A3019 RMK AO1,M
MEV,2022-09-29 16:15,-119.7500,38.9963,1441.42,71.60,33.80,24.86,0.00,0.00,0.00,30.16,M,10.00,M,CLR,M,M,M,M,M,M,M,M,M,M,M,M,M,M,71.60,KMEV 291615Z AUTO 00000KT 10SM CLR 22/01 A3016 RMK AO2,M
BVU,2022-09-29 16:15,-114.8611,35.9475,671.00,82.40,51.80,34.69,M,4.00,0.00,30.07,M,10.00,M,CLR,M,M,M,M,M,M,M,M,M,M,M,M,M,M,81.20,KBVU 291615Z AUTO VRB04KT 10SM CLR 28/11 A3007 RMK AO2,M
HTH,2022-09-29 16:15,-118.6315,38.5448,1282.89,66.20,35.60,32.14,0.00,0.00,0.00,30.16,M,10.00,M,CLR,M,M,M,M,M,M,M,M,M,M,M,M,M,M,66.20,KHTH 291615Z AUTO 00000KT 10SM CLR 19/02 A3016 RMK A01,M
RTS,2022-09-29 16:35,-119.8764,39.6682,1539.00,60.80,26.60,26.98,M,4.00,0.00,30.23,M,10.00,M,CLR,M,M,M,M,M,M,M,M,M,M,M,M,M,M,60.80,KRTS 291635Z AUTO VRB04KT 10SM CLR 16/M03 A3023 RMK AO2,M
MEV,2022-09-29 16:35,-119.7500,38.9963,1441.42,73.40,32.00,21.76,240.00,3.00,0.00,30.16,M,10.00,M,CLR,M,M,M,M,M,M,M,M,M,M,M,M,M,M,73.40,KMEV 291635Z AUTO 24003KT 10SM CLR 23/00 A3016 RMK AO2,M
05U,2022-09-29 16:35,-116.0051,39.6042,1811.23,69.80,41.00,35.09,M,3.00,0.00,30.24,M,10.00,M,CLR,M,M,M,M,M,M,M,M,M,M,M,M,M,M,69.80,K05U 291635Z AUTO VRB03KT 10SM CLR 21/05 A3024 RMK A01,M
CXP,2022-09-29 16:35,-119.7326,39.1923,1431.00,71.60,33.80,24.86,90.00,7.00,0.00,30.18,M,10.00,M,CLR,M,M,M,M,M,M,M,M,M,M,M,M,M,M,71.60,KCXP 291635Z AUTO 09007KT 10SM CLR 22/01 A3018 RMK AO2,M
BVU,2022-09-29 16:35,-114.8611,35.9475,671.00,84.20,51.80,32.73,100.00,4.00,0.00,30.07,M,10.00,M,CLR,M,M,M,M,M,M,M,M,M,M,M,M,M,M,82.48,KBVU 291635Z AUTO 10004KT 10SM CLR 29/11 A3007 RMK AO2,M
TMT,2022-09-29 16:35,-117.1971,39.4643,1749.34,62.40,33.30,33.49,0.00,0.00,0.00,30.24,M,10.00,M,CLR,M,M,M,M,M,M,M,M,M,M,M,M,M,M,62.40,KTMT 291635Z AUTO 00000KT 10SM CLR 17/01 A3024 RMK AO2 T01690007,M
HTH,2022-09-29 16:35,-118.6315,38.5448,1282.89,68.00,33.80,28.11,330.00,3.00,0.00,30.15,M,10.00,M,CLR,M,M,M,M,M,M,M,M,M,M,M,M,M,M,68.00,KHTH 291635Z AUTO 33003KT 10SM CLR 20/01 A3015 RMK A01,M
BAM,2022-09-29 16:35,-116.8743,40.5990,1382.36,68.00,37.40,32.43,330.00,9.00,0.00,30.19,M,10.00,14.00,CLR,M,M,M,M,M,M,M,M,M,M,M,M,M,M,68.00,KBAM 291635Z AUTO 33009G14KT 10SM CLR 20/03 A3019 RMK AO1,M
VGT,2022-09-29 16:53,-115.1933,36.2111,667.00,83.00,53.00,35.81,100.00,4.00,0.00,30.06,1017.20,10.00,M,CLR,M,M,M,M,M,M,M,M,M,M,M,M,M,M,81.73,KVGT 291653Z 10004KT 10SM CLR 28/12 A3006 RMK AO2 SLP172 T02830117,M
P68,2022-09-29 16:53,-116.0056,39.6014,1993.00,70.00,41.00,34.85,M,3.00,0.00,30.21,1014.80,M,M,M,M,M,M,M,M,M,M,M,M,M,M,M,M,M,70.00,KP68 291653Z AUTO VRB03KT 21/05 A3021 RMK AO1 SLP148 T02110050,M
DRA,2022-09-29 16:53,-116.0278,36.6206,1009.00,81.00,47.00,30.24,0.00,0.00,0.00,30.10,1014.70,10.00,M,CLR,M,M,M,M,M,M,M,M,M,M,M,M,M,M,79.83,KDRA 291653Z AUTO 00000KT 10SM CLR 27/08 A3010 RMK AO2 SLP147 T02720083,M
ELY,2022-09-29 16:53,-114.8453,39.2950,1909.00,72.00,43.00,35.16,160.00,12.00,0.00,30.25,1015.20,10.00,18.00,CLR,M,M,M,M,M,M,M,M,M,M,M,M,M,M,72.00,KELY 291653Z AUTO 16012G18KT 10SM CLR 22/06 A3025 RMK AO2 SLP152 T02220061,M
LOL,2022-09-29 16:53,-118.5701,40.0684,1192.43,71.00,33.00,24.59,40.00,8.00,0.00,30.16,1017.60,10.00,M,CLR,M,M,M,M,M,M,M,M,M,M,M,M,M,M,71.10,KLOL 291653Z AUTO 04008KT 10SM CLR 22/01 A3016 RMK AO2 SLP176 T02170006,M
TMT,2022-09-29 16:55,-117.1971,39.4643,1749.34,M,M,M,150.00,4.00,0.00,30.24,M,10.00,M,CLR,M,M,M,M,M,M,M,M,M,M,M,M,M,M,M,KTMT 291655Z AUTO 15004KT 10SM CLR A3024 RMK AO2,M
BAM,2022-09-29 16:55,-116.8743,40.5990,1382.36,69.80,37.40,30.49,340.00,10.00,0.00,30.19,M,10.00,M,CLR,M,M,M,M,M,M,M,M,M,M,M,M,M,M,69.80,KBAM 291655Z AUTO 34010KT 10SM CLR 21/03 A3019 RMK AO1,M
MEV,2022-09-29 16:55,-119.7500,38.9963,1441.42,75.20,32.00,20.49,M,4.00,0.00,30.16,M,10.00,M,CLR,M,M,M,M,M,M,M,M,M,M,M,M,M,M,75.20,KMEV 291655Z AUTO VRB04KT 10SM CLR 24/00 A3016 RMK AO2,M
05U,2022-09-29 16:55,-116.0051,39.6042,1811.23,71.60,41.00,33.00,0.00,0.00,0.00,30.24,M,10.00,M,CLR,M,M,M,M,M,M,M,M,M,M,M,M,M,M,71.60,K05U 291655Z AUTO 00000KT 10SM CLR 22/05 A3024 RMK A01,M
RTS,2022-09-29 16:55,-119.8764,39.6682,1539.00,64.40,26.60,23.77,0.00,0.00,0.00,30.22,M,10.00,M,CLR,M,M,M,M,M,M,M,M,M,M,M,M,M,M,64.40,KRTS 291655Z AUTO 00000KT 10SM CLR 18/M03 A3022 RMK AO2,M
RNO,2022-09-29 16:55,-119.7711,39.4839,1341.00,66.00,35.00,31.73,220.00,3.00,0.00,30.19,1017.70,10.00,M,CLR,M,M,M,M,M,M,M,M,M,M,M,M,M,M,66.00,KRNO 291655Z 22003KT 10SM CLR 19/02 A3019 RMK AO2 SLP177 T01890017,M
BVU,2022-09-29 16:55,-114.8611,35.9475,671.00,86.00,51.80,30.90,120.00,5.00,0.00,30.06,M,10.00,M,CLR,M,M,M,M,M,M,M,M,M,M,M,M,M,M,83.87,KBVU 291655Z AUTO 12005KT 10SM CLR 30/11 A3006 RMK AO2,M
CXP,2022-09-29 16:55,-119.7326,39.1923,1431.00,71.60,33.80,24.86,80.00,7.00,0.00,30.19,M,10.00,M,CLR,M,M,M,M,M,M,M,M,M,M,M,M,M,M,71.60,KCXP 291655Z AUTO 08007KT 10SM CLR 22/01 A3019 RMK AO2,M
HTH,2022-09-29 16:55,-118.6315,38.5448,1282.89,69.80,32.00,24.59,340.00,5.00,0.00,30.16,M,10.00,M,CLR,M,M,M,M,M,M,M,M,M,M,M,M,M,M,69.80,KHTH 291655Z AUTO 34005KT 10SM CLR 21/00 A3016 RMK A01,M
EKO,2022-09-29 16:56,-115.7860,40.8242,1367.00,70.00,36.00,28.65,210.00,6.00,0.00,30.17,1017.00,10.00,M,CLR,M,M,M,M,M,M,M,M,M,M,M,M,M,M,70.00,KEKO 291656Z AUTO 21006KT 10SM CLR 21/02 A3017 RMK AO2 SLP170 T02110022,M
LAS,2022-09-29 16:56,-115.1634,36.0719,663.00,83.00,54.00,37.01,40.00,5.00,0.00,30.07,1015.90,10.00,M,FEW,FEW,M,M,12000.00,25000.00,M,M,M,M,M,M,M,M,M,81.87,KLAS 291656Z 04005KT 10SM FEW120 FEW250 28/12 A3007 RMK AO2 SLP159 T02830122,M
TPH,2022-09-29 16:56,-117.0904,38.0505,1654.00,71.00,46.00,40.65,M,6.00,0.00,30.23,1016.90,10.00,M,CLR,M,M,M,M,M,M,M,M,M,M,M,M,M,M,71.10,KTPH 291656Z AUTO VRB06KT 10SM CLR 22/08 A3023 RMK AO2 SLP169 T02170078,M
WMC,2022-09-29 16:56,-117.8072,40.9019,1315.00,69.00,39.00,33.25,260.00,10.00,0.00,30.17,1017.60,10.00,14.00,CLR,M,M,M,M,M,M,M,M,M,M,M,M,M,M,69.10,KWMC 291656Z AUTO 26010G14KT 10SM CLR 21/04 A3017 RMK AO2 SLP176 T02060039,M
NFL,2022-09-29 16:56,-118.7010,39.4166,1199.00,71.00,32.00,23.52,30.00,6.00,0.00,30.15,1017.60,10.00,M,SCT,M,M,M,18000.00,M,M,M,M,M,M,M,M,M,M,71.10,KNFL 291656Z 03006KT 10SM SCT180 22/00 A3015 RMK AO2 SLP176 T02170000,M
HND,2022-09-29 16:56,-115.1344,35.9729,742.79,83.00,54.00,37.01,0.00,0.00,0.00,30.10,1018.30,10.00,M,CLR,M,M,M,M,M,M,M,M,M,M,M,M,M,M,81.87,KHND 291656Z 00000KT 10SM CLR 28/12 A3010 RMK AO2 SLP183 T02830122,M
LSV,2022-09-29 16:56,-115.0343,36.2362,570.00,85.80,52.50,31.91,80.00,7.00,0.00,30.03,1014.70,10.00,M,CLR,M,M,M,M,M,M,M,M,M,M,M,M,M,M,83.83,KLSV 291656Z AUTO 08007KT 10SM CLR 30/11 A3003 RMK AO2 SLP147 T02990114 $,M
INS,2022-09-29 16:56,-115.6733,36.5872,955.00,77.70,52.20,41.07,330.00,3.00,0.00,30.10,1015.00,10.00,M,CLR,M,M,M,M,M,M,M,M,M,M,M,M,M,M,77.70,KINS 291656Z AUTO 33003KT 10SM CLR 25/11 A3010 RMK AO2 SLP150 T02540112 $,M
TMT,2022-09-29 17:10,-117.1971,39.4643,1749.34,M,M,M,0.00,0.00,0.00,30.24,M,10.00,M,CLR,M,M,M,M,M,M,M,M,M,M,M,M,M,M,M,KTMT 291710Z AUTO 00000KT 10SM CLR A3024 RMK AO2,M
CXP,2022-09-29 17:15,-119.7326,39.1923,1431.00,73.40,33.80,23.39,90.00,10.00,0.00,30.18,M,10.00,M,CLR,M,M,M,M,M,M,M,M,M,M,M,M,M,M,73.40,KCXP 291715Z AUTO 09010KT 10SM CLR 23/01 A3018 RMK AO2,M
05U,2022-09-29 17:15,-116.0051,39.6042,1811.23,73.40,39.20,28.96,0.00,0.00,0.00,30.24,M,10.00,M,CLR,M,M,M,M,M,M,M,M,M,M,M,M,M,M,73.40,K05U 291715Z AUTO 00000KT 10SM CLR 23/04 A3024 RMK A01,M
BVU,2022-09-29 17:15,-114.8611,35.9475,671.00,86.00,51.80,30.90,160.00,5.00,0.00,30.06,M,10.00,M,CLR,M,M,M,M,M,M,M,M,M,M,M,M,M,M,83.87,KBVU 291715Z AUTO 16005KT 10SM CLR 30/11 A3006 RMK AO2,M
BAM,2022-09-29 17:15,-116.8743,40.5990,1382.36,69.80,37.40,30.49,350.00,7.00,0.00,30.18,M,10.00,M,CLR,M,M,M,M,M,M,M,M,M,M,M,M,M,M,69.80,KBAM 291715Z AUTO 35007KT 10SM CLR 21/03 A3018 RMK AO1,M
RTS,2022-09-29 17:15,-119.8764,39.6682,1539.00,66.20,28.40,24.04,M,3.00,0.00,30.22,M,10.00,M,CLR,M,M,M,M,M,M,M,M,M,M,M,M,M,M,66.20,KRTS 291715Z AUTO VRB03KT 10SM CLR 19/M02 A3022 RMK AO2,M
HTH,2022-09-29 17:15,-118.6315,38.5448,1282.89,71.60,32.00,23.13,350.00,8.00,0.00,30.16,M,10.00,M,CLR,M,M,M,M,M,M,M,M,M,M,M,M,M,M,71.60,KHTH 291715Z AUTO 35008KT 10SM CLR 22/00 A3016 RMK A01,M
MEV,2022-09-29 17:15,-119.7500,38.9963,1441.42,75.20,30.20,19.05,M,5.00,0.00,30.15,M,10.00,M,CLR,M,M,M,M,M,M,M,M,M,M,M,M,M,M,75.20,KMEV 291715Z AUTO VRB05KT 10SM CLR 24/M01 A3015 RMK AO2,M
TMT,2022-09-29 17:35,-117.1971,39.4643,1749.34,M,M,M,0.00,0.00,0.00,30.23,M,10.00,M,CLR,M,M,M,M,M,M,M,M,M,M,M,M,M,M,M,KTMT 291735Z AUTO 00000KT 10SM CLR A3023 RMK AO2,M
BVU,2022-09-29 17:35,-114.8611,35.9475,671.00,87.80,53.60,31.17,170.00,7.00,0.00,30.05,M,10.00,M,CLR,M,M,M,M,M,M,M,M,M,M,M,M,M,M,85.72,KBVU 291735Z AUTO 17007KT 10SM CLR 31/12 A3005 RMK AO2,M
CXP,2022-09-29 17:35,-119.7326,39.1923,1431.00,73.40,33.80,23.39,70.00,9.00,0.00,30.18,M,10.00,14.00,CLR,M,M,M,M,M,M,M,M,M,M,M,M,M,M,73.40,KCXP 291735Z AUTO 07009G14KT 10SM CLR 23/01 A3018 RMK AO2,M
RTS,2022-09-29 17:35,-119.8764,39.6682,1539.00,68.00,30.20,24.32,150.00,3.00,0.00,30.21,M,10.00,10.00,CLR,M,M,M,M,M,M,M,M,M,M,M,M,M,M,68.00,KRTS 291735Z AUTO 15003G10KT 10SM CLR 20/M01 A3021 RMK AO2,M
05U,2022-09-29 17:35,-116.0051,39.6042,1811.23,75.20,37.40,25.40,210.00,5.00,0.00,30.23,M,10.00,M,CLR,M,M,M,M,M,M,M,M,M,M,M,M,M,M,75.20,K05U 291735Z AUTO 21005KT 10SM CLR 24/03 A3023 RMK A01,M
MEV,2022-09-29 17:35,-119.7500,38.9963,1441.42,77.00,26.60,15.48,10.00,7.00,0.00,30.15,M,10.00,M,CLR,M,M,M,M,M,M,M,M,M,M,M,M,M,M,77.00,KMEV 291735Z AUTO 01007KT 350V050 10SM CLR 25/M03 A3015 RMK AO2,M
BAM,2022-09-29 17:35,-116.8743,40.5990,1382.36,71.60,37.40,28.68,350.00,6.00,0.00,30.17,M,10.00,M,CLR,M,M,M,M,M,M,M,M,M,M,M,M,M,M,71.60,KBAM 291735Z AUTO 35006KT 10SM CLR 22/03 A3017 RMK AO1,M
HTH,2022-09-29 17:35,-118.6315,38.5448,1282.89,71.60,30.20,21.50,330.00,8.00,0.00,30.15,M,10.00,M,CLR,M,M,M,M,M,M,M,M,M,M,M,M,M,M,71.60,KHTH 291735Z AUTO 33008KT 10SM CLR 22/M01 A3015 RMK A01,M
DRA,2022-09-29 17:53,-116.0278,36.6206,1009.00,87.00,42.00,20.70,M,4.00,0.00,30.08,1013.70,10.00,M,CLR,M,M,M,M,M,M,M,M,M,M,M,M,M,M,83.79,KDRA 291753Z AUTO VRB04KT 10SM CLR 31/06 A3008 RMK AO2 SLP137 T03060056 10311 20161 58006,M
LOL,2022-09-29 17:53,-118.5701,40.0684,1192.43,74.00,33.00,22.37,0.00,0.00,0.00,30.14,1017.00,10.00,M,CLR,M,M,M,M,M,M,M,M,M,M,M,M,M,M,73.90,KLOL 291753Z AUTO 00000KT 10SM CLR 23/01 A3014 RMK AO2 SLP170 T02330006 10239 20072 58001,M
P68,2022-09-29 17:53,-116.0056,39.6014,1993.00,75.00,38.00,26.08,M,4.00,0.00,30.20,1014.10,M,M,M,M,M,M,M,M,M,M,M,M,M,M,M,M,M,75.00,KP68 291753Z AUTO VRB04KT 24/03 A3020 RMK AO1 SLP141 T02390033 10239 20089 58010,M
VGT,2022-09-29 17:53,-115.1933,36.2111,667.00,86.00,53.00,32.41,M,4.00,0.00,30.04,1016.50,10.00,M,CLR,M,M,M,M,M,M,M,M,M,M,M,M,M,M,84.09,KVGT 291753Z VRB04KT 10SM CLR 30/12 A3004 RMK AO2 SLP165 T03000117 10300 20228 58004,M
ELY,2022-09-29 17:53,-114.8453,39.2950,1909.00,75.00,36.00,24.20,220.00,17.00,0.00,30.23,1014.10,10.00,26.00,CLR,M,M,M,M,M,M,M,M,M,M,M,26.00,230.00,2022-09-29 17:49,75.00,KELY 291753Z AUTO 22017G26KT 10SM CLR 24/02 A3023 RMK AO2 PK WND 23026/1749 SLP141 T02390022 10239 20128 58012,M
05U,2022-09-29 17:55,-116.0051,39.6042,1811.23,75.20,37.40,25.40,M,4.00,0.00,30.22,M,10.00,10.00,CLR,M,M,M,M,M,M,M,M,M,M,M,M,M,M,75.20,K05U 291755Z AUTO VRB04G10KT 10SM CLR 24/03 A3022 RMK A01,M
CXP,2022-09-29 17:55,-119.7326,39.1923,1431.00,75.20,32.00,20.49,M,6.00,0.00,30.18,M,10.00,M,CLR,M,M,M,M,M,M,M,M,M,M,M,M,M,M,75.20,KCXP 291755Z AUTO VRB06KT 10SM CLR 24/00 A3018 RMK AO2,M
BVU,2022-09-29 17:55,-114.8611,35.9475,671.00,87.80,53.60,31.17,150.00,5.00,0.00,30.05,M,10.00,10.00,CLR,M,M,M,M,M,M,M,M,M,M,M,M,M,M,85.72,KBVU 291755Z AUTO 15005G10KT 10SM CLR 31/12 A3005 RMK AO2,M
RNO,2022-09-29 17:55,-119.7711,39.4839,1341.00,71.00,35.00,26.63,0.00,0.00,0.00,30.17,1016.80,10.00,M,FEW,M,M,M,25000.00,M,M,M,M,M,M,M,M,M,M,71.10,KRNO 291755Z 00000KT 10SM FEW250 22/02 A3017 RMK AO2 SLP168 T02170017 10217 20111 58002,M
TMT,2022-09-29 17:55,-117.1971,39.4643,1749.34,M,M,M,210.00,6.00,0.00,30.22,M,10.00,M,CLR,M,M,M,M,M,M,M,M,M,M,M,M,M,M,M,KTMT 291755Z AUTO 21006KT 10SM CLR A3022 RMK AO2,M
HTH,2022-09-29 17:55,-118.6315,38.5448,1282.89,73.40,30.20,20.23,340.00,6.00,0.00,30.14,M,10.00,M,CLR,M,M,M,M,M,M,M,M,M,M,M,M,M,M,73.40,KHTH 291755Z AUTO 34006KT 10SM CLR 23/M01 A3014 RMK A01,M
BAM,2022-09-29 17:55,-116.8743,40.5990,1382.36,71.60,35.60,26.71,320.00,4.00,0.00,30.17,M,10.00,M,CLR,M,M,M,M,M,M,M,M,M,M,M,M,M,M,71.60,KBAM 291755Z AUTO 32004KT 10SM CLR 22/02 A3017 RMK AO1,M
MEV,2022-09-29 17:55,-119.7500,38.9963,1441.42,77.00,24.80,14.37,10.00,9.00,0.00,30.15,M,10.00,M,CLR,M,M,M,M,M,M,M,M,M,M,M,M,M,M,77.00,KMEV 291755Z AUTO 01009KT 10SM CLR 25/M04 A3015 RMK AO2,M
RTS,2022-09-29 17:55,-119.8764,39.6682,1539.00,68.00,30.20,24.32,0.00,0.00,0.00,30.21,M,10.00,M,CLR,M,M,M,M,M,M,M,M,M,M,M,M,M,M,68.00,KRTS 291755Z AUTO 00000KT 10SM CLR 20/M01 A3021 RMK AO2,M
EKO,2022-09-29 17:56,-115.7860,40.8242,1367.00,74.00,33.00,22.37,240.00,12.00,0.00,30.16,1016.10,10.00,22.00,CLR,M,M,M,M,M,M,M,M,M,M,M,M,M,M,73.90,KEKO 291756Z AUTO 24012G22KT 10SM CLR 23/01 A3016 RMK AO2 SLP161 T02330006 10239 20072 58006,M
LSV,2022-09-29 17:56,-115.0343,36.2362,570.00,89.20,51.80,27.91,120.00,6.00,0.00,30.01,1013.90,10.00,M,CLR,M,M,M,M,M,M,M,M,M,M,M,M,M,M,86.63,KLSV 291756Z AUTO 12006KT 10SM CLR 32/11 A3001 RMK AO2 SLP139 T03180110 10318 20206 58005 $,M
TPH,2022-09-29 17:56,-117.0904,38.0505,1654.00,75.00,44.00,33.16,170.00,9.00,0.00,30.21,1015.90,10.00,M,CLR,M,M,M,M,M,M,M,M,M,M,M,M,M,M,75.00,KTPH 291756Z AUTO 17009KT 10SM CLR 24/07 A3021 RMK AO2 SLP159 T02390067 10239 20111 58007,M
WMC,2022-09-29 17:56,-117.8072,40.9019,1315.00,71.00,37.00,28.71,300.00,9.00,0.00,30.18,1017.40,10.00,M,CLR,M,M,M,M,M,M,M,M,M,M,M,M,M,M,71.10,KWMC 291756Z AUTO 30009KT 10SM CLR 22/03 A3018 RMK AO2 SLP174 T02170028 10217 20083 51001,M
LAS,2022-09-29 17:56,-115.1634,36.0719,663.00,85.00,53.00,33.57,M,3.00,0.00,30.05,1015.30,10.00,M,FEW,SCT,M,M,12000.00,25000.00,M,M,M,M,M,M,M,M,M,83.21,KLAS 291756Z VRB03KT 10SM FEW120 SCT250 29/12 A3005 RMK AO2 SLP153 T02940117 10294 20228 58005,M
NFL,2022-09-29 17:56,-118.7010,39.4166,1199.00,75.00,28.00,17.53,20.00,8.00,0.00,30.14,1017.20,10.00,M,SCT,M,M,M,18000.00,M,M,M,M,M,M,M,M,M,M,75.00,KNFL 291756Z 02008KT 10SM SCT180 24/M02 A3014 RMK AO2 SLP172 T02391022 10239 20083 50000,M
INS,2022-09-29 17:56,-115.6733,36.5872,955.00,81.00,51.60,35.93,240.00,6.00,0.00,30.07,1013.80,10.00,M,CLR,M,M,M,M,M,M,M,M,M,M,M,M,M,M,80.35,KINS 291756Z AUTO 24006KT 10SM CLR 27/11 A3007 RMK AO2 SLP138 T02730109 10273 20157 58009 $,M
HND,2022-09-29 17:56,-115.1344,35.9729,742.79,86.00,55.00,34.74,M,3.00,0.00,30.08,1017.60,10.00,M,CLR,M,M,M,M,M,M,M,M,M,M,M,M,M,M,84.46,KHND 291756Z VRB03KT 10SM CLR 30/13 A3008 RMK AO2 SLP176 T03000128 10300 20200 58006,M
BAM,2022-09-29 18:15,-116.8743,40.5990,1382.36,73.40,35.60,25.13,340.00,6.00,0.00,30.16,M,10.00,M,CLR,M,M,M,M,M,M,M,M,M,M,M,M,M,M,73.40,KBAM 291815Z AUTO 34006KT 10SM CLR 23/02 A3016 RMK AO1,M
MEV,2022-09-29 18:15,-119.7500,38.9963,1441.42,78.80,28.40,15.71,M,6.00,0.00,30.15,M,10.00,M,CLR,M,M,M,M,M,M,M,M,M,M,M,M,M,M,78.80,KMEV 291815Z AUTO VRB06KT 10SM CLR 26/M02 A3015 RMK AO2,M
05U,2022-09-29 18:15,-116.0051,39.6042,1811.23,77.00,37.40,23.93,M,3.00,0.00,30.21,M,10.00,M,CLR,M,M,M,M,M,M,M,M,M,M,M,M,M,M,77.00,K05U 291815Z AUTO VRB03KT 10SM CLR 25/03 A3021 RMK A01,M
RTS,2022-09-29 18:15,-119.8764,39.6682,1539.00,69.80,30.20,22.86,0.00,0.00,0.00,30.21,M,10.00,M,CLR,M,M,M,M,M,M,M,M,M,M,M,M,M,M,69.80,KRTS 291815Z AUTO 00000KT 10SM CLR 21/M01 A3021 RMK AO2,M
CXP,2022-09-29 18:15,-119.7326,39.1923,1431.00,75.20,32.00,20.49,0.00,0.00,0.00,30.17,M,10.00,M,CLR,M,M,M,M,M,M,M,M,M,M,M,M,M,M,75.20,KCXP 291815Z AUTO 00000KT 10SM CLR 24/00 A3017 RMK AO2,M
BVU,2022-09-29 18:15,-114.8611,35.9475,671.00,89.60,53.60,29.45,180.00,6.00,0.00,30.04,M,10.00,M,CLR,M,M,M,M,M,M,M,M,M,M,M,M,M,M,87.36,KBVU 291815Z AUTO 18006KT 10SM CLR 32/12 A3004 RMK AO2,M
TMT,2022-09-29 18:15,-117.1971,39.4643,1749.34,M,M,M,250.00,9.00,0.00,30.21,M,10.00,M,CLR,M,M,M,M,M,M,M,M,M,M,M,M,M,M,M,KTMT 291815Z AUTO 25009KT 10SM CLR A3021 RMK AO2,M
HTH,2022-09-29 18:15,-118.6315,38.5448,1282.89,75.20,30.20,19.05,340.00,10.00,0.00,30.13,M,10.00,M,CLR,M,M,M,M,M,M,M,M,M,M,M,M,M,M,75.20,KHTH 291815Z AUTO 34010KT 10SM CLR 24/M01 A3013 RMK A01,M
MEV,2022-09-29 18:35,-119.7500,38.9963,1441.42,78.80,28.40,15.71,M,5.00,0.00,30.14,M,10.00,M,CLR,M,M,M,M,M,M,M,M,M,M,M,M,M,M,78.80,KMEV 291835Z AUTO VRB05KT 10SM CLR 26/M02 A3014 RMK AO2,M
05U,2022-09-29 18:35,-116.0051,39.6042,1811.23,77.00,35.60,22.28,280.00,5.00,0.00,30.20,M,10.00,M,CLR,M,M,M,M,M,M,M,M,M,M,M,M,M,M,77.00,K05U 291835Z AUTO 28005KT 10SM CLR 25/02 A3020 RMK A01,M
RTS,2022-09-29 18:35,-119.8764,39.6682,1539.00,71.60,32.00,23.13,0.00,0.00,0.00,30.20,M,10.00,M,CLR,M,M,M,M,M,M,M,M,M,M,M,M,M,M,71.60,KRTS 291835Z AUTO 00000KT 10SM CLR 22/M00 A3020 RMK AO2,M
BVU,2022-09-29 18:35,-114.8611,35.9475,671.00,89.60,55.40,31.45,180.00,7.00,0.00,30.03,M,10.00,13.00,CLR,M,M,M,M,M,M,M,M,M,M,M,M,M,M,87.78,KBVU 291835Z AUTO 18007G13KT 10SM CLR 32/13 A3003 RMK AO2,M
BAM,2022-09-29 18:35,-116.8743,40.5990,1382.36,73.40,35.60,25.13,310.00,5.00,0.00,30.16,M,10.00,M,CLR,M,M,M,M,M,M,M,M,M,M,M,M,M,M,73.40,KBAM 291835Z AUTO 31005KT 10SM CLR 23/02 A3016 RMK AO1,M
HTH,2022-09-29 18:35,-118.6315,38.5448,1282.89,75.20,30.20,19.05,340.00,12.00,0.00,30.12,M,10.00,M,CLR,M,M,M,M,M,M,M,M,M,M,M,M,M,M,75.20,KHTH 291835Z AUTO 34012KT 10SM CLR 24/M01 A3012 RMK A01,M
TMT,2022-09-29 18:35,-117.1971,39.4643,1749.34,M,M,M,260.00,11.00,0.00,30.20,M,10.00,15.00,CLR,M,M,M,M,M,M,M,M,M,M,M,M,M,M,M,KTMT 291835Z AUTO 26011G15KT 10SM CLR A3020 RMK AO2,M
CXP,2022-09-29 18:35,-119.7326,39.1923,1431.00,77.00,32.00,19.30,M,4.00,0.00,30.16,M,10.00,10.00,CLR,M,M,M,M,M,M,M,M,M,M,M,M,M,M,77.00,KCXP 291835Z AUTO VRB04G10KT 10SM CLR 25/00 A3016 RMK AO2,M
P68,2022-09-29 18:53,-116.0056,39.6014,1993.00,77.00,36.00,22.64,M,4.00,0.00,30.17,1013.00,M,M,M,M,M,M,M,M,M,M,M,M,M,M,M,M,M,77.00,KP68 291853Z AUTO VRB04KT 25/02 A3017 RMK AO1 SLP130 T02500022,M
ELY,2022-09-29 18:53,-114.8453,39.2950,1909.00,77.00,35.00,21.85,210.00,15.00,0.00,30.21,1013.20,10.00,27.00,CLR,M,M,M,M,M,M,M,M,M,M,M,30.00,230.00,2022-09-29 17:54,77.00,KELY 291853Z AUTO 21015G27KT 10SM CLR 25/02 A3021 RMK AO2 PK WND 23030/1754 SLP132 T02500017,M
DRA,2022-09-29 18:53,-116.0278,36.6206,1009.00,91.00,35.00,13.91,200.00,14.00,0.00,30.05,1012.90,10.00,24.00,CLR,M,M,M,M,M,M,M,M,M,M,M,27.00,220.00,2022-09-29 18:34,86.81,KDRA 291853Z AUTO 20014G24KT 10SM CLR 33/02 A3005 RMK AO2 PK WND 22027/1834 SLP129 T03280017,M
VGT,2022-09-29 18:53,-115.1933,36.2111,667.00,90.00,54.00,29.51,M,M,0.00,30.01,1015.40,10.00,M,CLR,M,M,M,M,M,M,M,M,M,M,M,M,M,M,87.82,KVGT 291853Z 10SM CLR 32/12 A3001 RMK AO2 SLP154 T03220122,M
LOL,2022-09-29 18:53,-118.5701,40.0684,1192.43,75.00,33.00,21.56,0.00,0.00,0.00,30.12,1016.60,10.00,M,CLR,M,M,M,M,M,M,M,M,M,M,M,M,M,M,75.00,KLOL 291853Z AUTO 00000KT 10SM CLR 24/01 A3012 RMK AO2 SLP166 T02390006,M
05U,2022-09-29 18:55,-116.0051,39.6042,1811.23,77.00,35.60,22.28,M,5.00,0.00,30.19,M,10.00,12.00,CLR,M,M,M,M,M,M,M,M,M,M,M,M,M,M,77.00,K05U 291855Z AUTO VRB05G12KT 10SM CLR 25/02 A3019 RMK A01,M
MEV,2022-09-29 18:55,-119.7500,38.9963,1441.42,80.60,30.20,15.94,330.00,6.00,0.00,30.13,M,10.00,12.00,CLR,M,M,M,M,M,M,M,M,M,M,M,M,M,M,78.77,KMEV 291855Z AUTO 33006G12KT 10SM CLR 27/M01 A3013 RMK AO2,M
BAM,2022-09-29 18:55,-116.8743,40.5990,1382.36,75.20,33.80,22.02,300.00,5.00,0.00,30.15,M,10.00,M,CLR,M,M,M,M,M,M,M,M,M,M,M,M,M,M,75.20,KBAM 291855Z AUTO 30005KT 10SM CLR 24/01 A3015 RMK AO1,M
HTH,2022-09-29 18:55,-118.6315,38.5448,1282.89,77.00,28.40,16.67,320.00,9.00,0.00,30.12,M,10.00,M,CLR,M,M,M,M,M,M,M,M,M,M,M,M,M,M,77.00,KHTH 291855Z AUTO 32009KT 10SM CLR 25/M02 A3012 RMK A01,M
TMT,2022-09-29 18:55,-117.1971,39.4643,1749.34,M,M,M,270.00,12.00,0.00,30.19,M,10.00,18.00,CLR,M,M,M,M,M,M,M,M,M,M,M,M,M,M,M,KTMT 291855Z AUTO 27012G18KT 10SM CLR A3019 RMK AO2,M
BVU,2022-09-29 18:55,-114.8611,35.9475,671.00,91.40,57.20,31.72,130.00,8.00,0.00,30.02,M,10.00,M,CLR,M,M,M,M,M,M,M,M,M,M,M,M,M,M,90.06,KBVU 291855Z AUTO 13008KT 10SM CLR 33/14 A3002 RMK AO2,M
RTS,2022-09-29 18:55,-119.8764,39.6682,1539.00,73.40,32.00,21.76,M,3.00,0.00,30.19,M,10.00,M,CLR,M,M,M,M,M,M,M,M,M,M,M,M,M,M,73.40,KRTS 291855Z AUTO VRB03KT 10SM CLR 23/00 A3019 RMK AO2,M
RNO,2022-09-29 18:55,-119.7711,39.4839,1341.00,75.00,37.00,25.17,90.00,5.00,0.00,30.15,1015.90,10.00,M,FEW,M,M,M,25000.00,M,M,M,M,M,M,M,M,M,M,75.00,KRNO 291855Z 09005KT 10SM FEW250 24/03 A3015 RMK AO2 SLP159 T02390028,M
CXP,2022-09-29 18:55,-119.7326,39.1923,1431.00,77.00,32.00,19.30,300.00,7.00,0.00,30.16,M,10.00,M,CLR,M,M,M,M,M,M,M,M,M,M,M,M,M,M,77.00,KCXP 291855Z AUTO 30007KT 260V330 10SM CLR 25/00 A3016 RMK AO2,M
WMC,2022-09-29 18:56,-117.8072,40.9019,1315.00,73.00,35.00,24.97,250.00,9.00,0.00,30.15,1016.90,10.00,16.00,CLR,M,M,M,M,M,M,M,M,M,M,M,M,M,M,73.00,KWMC 291856Z AUTO 25009G16KT 10SM CLR 23/02 A3015 RMK AO2 SLP169 T02280017,M
NFL,2022-09-29 18:56,-118.7010,39.4166,1199.00,77.00,28.00,16.40,360.00,7.00,0.00,30.12,1016.60,10.00,M,SCT,M,M,M,18000.00,M,M,M,M,M,M,M,M,M,M,77.00,KNFL 291856Z 36007KT 10SM SCT180 25/M02 A3012 RMK AO2 SLP166 T02501022,M
HND,2022-09-29 18:56,-115.1344,35.9729,742.79,89.00,57.00,33.85,50.00,4.00,0.00,30.05,1016.40,10.00,M,CLR,M,M,M,M,M,M,M,M,M,M,M,M,M,M,87.74,KHND 291856Z 05004KT 10SM CLR 32/14 A3005 RMK AO2 LTG DSNT S SLP164 T03170139,M
LSV,2022-09-29 18:56,-115.0343,36.2362,570.00,92.30,53.40,26.86,40.00,3.00,0.00,29.98,1012.80,10.00,M,CLR,M,M,M,M,M,M,M,M,M,M,M,M,M,M,89.91,KLSV 291856Z AUTO 04003KT 10SM CLR 34/12 A2998 RMK AO2 SLP128 T03350119 $,M
TPH,2022-09-29 18:56,-117.0904,38.0505,1654.00,77.00,41.00,27.53,190.00,6.00,0.00,30.19,1015.30,10.00,M,CLR,M,M,M,M,M,M,M,M,M,M,M,M,M,M,77.00,KTPH 291856Z AUTO 19006KT 10SM CLR 25/05 A3019 RMK AO2 SLP153 T02500050,M
LAS,2022-09-29 18:56,-115.1634,36.0719,663.00,88.00,55.00,32.60,100.00,6.00,0.00,30.02,1014.10,10.00,M,FEW,BKN,M,M,12000.00,25000.00,M,M,M,M,M,M,M,M,M,86.20,KLAS 291856Z 10006KT 10SM FEW120 BKN250 31/13 A3002 RMK AO2 SLP141 CB DSNT S T03110128,M
INS,2022-09-29 18:56,-115.6733,36.5872,955.00,88.20,46.80,23.91,100.00,14.00,0.00,30.04,1012.50,10.00,M,CLR,M,M,M,M,M,M,M,M,M,M,M,M,M,M,85.06,KINS 291856Z AUTO 10014KT 10SM CLR 31/08 A3004 RMK AO2 SLP125 T03120082 $,M
EKO,2022-09-29 18:56,-115.7860,40.8242,1367.00,77.00,33.00,20.17,270.00,13.00,0.00,30.14,1015.60,10.00,20.00,CLR,M,M,M,M,M,M,M,M,M,M,M,M,M,M,77.00,KEKO 291856Z AUTO 27013G20KT 10SM CLR 25/01 A3014 RMK AO2 SLP156 T02500006,M
05U,2022-09-29 19:15,-116.0051,39.6042,1811.23,78.80,35.60,21.00,260.00,7.00,0.00,30.18,M,10.00,14.00,CLR,M,M,M,M,M,M,M,M,M,M,M,M,M,M,78.80,K05U 291915Z AUTO 26007G14KT 230V290 10SM CLR 26/02 A3018 RMK A01,M
MEV,2022-09-29 19:15,-119.7500,38.9963,1441.42,78.80,28.40,15.71,M,4.00,0.00,30.13,M,10.00,M,CLR,M,M,M,M,M,M,M,M,M,M,M,M,M,M,78.80,KMEV 291915Z AUTO VRB04KT 10SM CLR 26/M02 A3013 RMK AO2,M
BAM,2022-09-29 19:15,-116.8743,40.5990,1382.36,77.00,33.80,20.74,300.00,5.00,0.00,30.14,M,10.00,M,CLR,M,M,M,M,M,M,M,M,M,M,M,M,M,M,77.00,KBAM 291915Z AUTO 30005KT 10SM CLR 25/01 A3014 RMK AO1,M
HTH,2022-09-29 19:15,-118.6315,38.5448,1282.89,77.00,26.60,15.48,330.00,10.00,0.00,30.11,M,10.00,M,CLR,M,M,M,M,M,M,M,M,M,M,M,M,M,M,77.00,KHTH 291915Z AUTO 33010KT 10SM CLR 25/M03 A3011 RMK A01,M
TMT,2022-09-29 19:15,-117.1971,39.4643,1749.34,M,M,M,250.00,12.00,0.00,30.19,M,10.00,18.00,CLR,M,M,M,M,M,M,M,M,M,M,M,M,M,M,M,KTMT 291915Z AUTO 25012G18KT 10SM CLR A3019 RMK AO2,M
BVU,2022-09-29 19:15,-114.8611,35.9475,671.00,91.40,55.40,29.72,M,6.00,0.00,30.00,M,10.00,11.00,CLR,M,M,M,M,M,M,M,M,M,M,M,M,M,M,89.53,KBVU 291915Z AUTO VRB06G11KT 10SM CLR 33/13 A3000 RMK AO2,M
CXP,2022-09-29 19:15,-119.7326,39.1923,1431.00,78.80,30.20,16.90,290.00,5.00,0.00,30.14,M,10.00,11.00,CLR,M,M,M,M,M,M,M,M,M,M,M,M,M,M,78.80,KCXP 291915Z AUTO 29005G11KT 10SM CLR 26/M01 A3014 RMK AO2,M
RTS,2022-09-29 19:15,-119.8764,39.6682,1539.00,71.60,32.00,23.13,M,3.00,0.00,30.19,M,10.00,M,CLR,M,M,M,M,M,M,M,M,M,M,M,M,M,M,71.60,KRTS 291915Z AUTO VRB03KT 10SM CLR 22/M00 A3019 RMK AO2,M
RTS,2022-09-29 19:35,-119.8764,39.6682,1539.00,75.20,26.60,16.43,230.00,5.00,0.00,30.18,M,10.00,13.00,CLR,M,M,M,M,M,M,M,M,M,M,M,M,M,M,75.20,KRTS 291935Z AUTO 23005G13KT 10SM CLR 24/M03 A3018 RMK AO2,M
05U,2022-09-29 19:35,-116.0051,39.6042,1811.23,78.80,33.80,19.55,290.00,9.00,0.00,30.18,M,10.00,M,CLR,M,M,M,M,M,M,M,M,M,M,M,M,M,M,78.80,K05U 291935Z AUTO 29009KT 10SM CLR 26/01 A3018 RMK A01,M
MEV,2022-09-29 19:35,-119.7500,38.9963,1441.42,80.60,28.40,14.81,M,4.00,0.00,30.12,M,10.00,10.00,CLR,M,M,M,M,M,M,M,M,M,M,M,M,M,M,78.72,KMEV 291935Z AUTO VRB04G10KT 10SM CLR 27/M02 A3012 RMK AO2,M
BAM,2022-09-29 19:35,-116.8743,40.5990,1382.36,78.80,33.80,19.55,280.00,4.00,0.00,30.13,M,10.00,M,CLR,M,M,M,M,M,M,M,M,M,M,M,M,M,M,78.80,KBAM 291935Z AUTO 28004KT 10SM CLR 26/01 A3013 RMK AO1,M
HTH,2022-09-29 19:35,-118.6315,38.5448,1282.89,78.80,28.40,15.71,340.00,10.00,0.00,30.10,M,10.00,M,CLR,M,M,M,M,M,M,M,M,M,M,M,M,M,M,78.80,KHTH 291935Z AUTO 34010KT 10SM CLR 26/M02 A3010 RMK A01,M
BVU,2022-09-29 19:35,-114.8611,35.9475,671.00,93.20,55.40,28.10,170.00,11.00,0.00,29.99,M,10.00,M,CLR,M,M,M,M,M,M,M,M,M,M,M,M,M,M,91.35,KBVU 291935Z AUTO 17011KT 10SM CLR 34/13 A2999 RMK AO2,M
TMT,2022-09-29 19:35,-117.1971,39.4643,1749.34,M,M,M,240.00,16.00,0.00,30.18,M,10.00,19.00,CLR,M,M,M,M,M,M,M,M,M,M,M,M,M,M,M,KTMT 291935Z AUTO 24016G19KT 10SM CLR A3018 RMK AO2,M
CXP,2022-09-29 19:35,-119.7326,39.1923,1431.00,80.60,28.40,14.81,250.00,7.00,0.00,30.14,M,10.00,15.00,CLR,M,M,M,M,M,M,M,M,M,M,M,M,M,M,78.72,KCXP 291935Z AUTO 25007G15KT 230V290 10SM CLR 27/M02 A3014 RMK AO2,M
VGT,2022-09-29 19:53,-115.1933,36.2111,667.00,93.00,54.00,26.87,90.00,10.00,0.00,29.97,1014.00,10.00,M,CLR,M,M,M,M,M,M,M,M,M,M,M,M,M,M,90.76,KVGT 291953Z 09010KT 10SM CLR 34/12 A2997 RMK AO2 SLP140 T03390122,M
P68,2022-09-29 19:53,-116.0056,39.6014,1993.00,79.00,32.00,18.06,M,M,0.00,30.15,1012.40,M,M,M,M,M,M,M,M,M,M,M,M,M,M,M,M,M,79.00,KP68 291953Z AUTO 26/00 A3015 RMK AO1 SLP124 T02610000,M
DRA,2022-09-29 19:53,-116.0278,36.6206,1009.00,92.00,36.00,14.02,190.00,13.00,0.00,30.03,1012.00,10.00,35.00,CLR,M,M,M,M,M,M,M,M,M,M,M,35.00,210.00,2022-09-29 19:50,87.62,KDRA 291953Z AUTO 19013G35KT 10SM CLR 33/02 A3003 RMK AO2 PK WND 21035/1950 SLP120 T03330022,M
ELY,2022-09-29 19:53,-114.8453,39.2950,1909.00,77.00,36.00,22.64,190.00,15.00,0.00,30.19,1012.50,10.00,27.00,CLR,M,M,M,M,M,M,M,M,M,M,M,32.00,220.00,2022-09-29 19:23,77.00,KELY 291953Z AUTO 19015G27KT 10SM CLR 25/02 A3019 RMK AO2 PK WND 22032/1923 SLP125 T02500022,M
LOL,2022-09-29 19:53,-118.5701,40.0684,1192.43,79.00,33.00,18.88,200.00,6.00,0.00,30.10,1015.80,10.00,M,CLR,M,M,M,M,M,M,M,M,M,M,M,M,M,M,79.00,KLOL 291953Z AUTO 20006KT 10SM CLR 26/01 A3010 RMK AO2 SLP158 T02610006,M
BVU,2022-09-29 19:55,-114.8611,35.9475,671.00,93.20,55.40,28.10,170.00,11.00,0.00,29.98,M,10.00,M,CLR,M,M,M,M,M,M,M,M,M,M,M,M,M,M,91.35,KBVU 291955Z AUTO 17011KT 10SM CLR 34/13 A2998 RMK AO2,M
RNO,2022-09-29 19:55,-119.7711,39.4839,1341.00,78.00,36.00,21.83,0.00,0.00,0.00,30.13,1015.10,10.00,M,FEW,M,M,M,25000.00,M,M,M,M,M,M,M,M,M,M,78.10,KRNO 291955Z 00000KT 10SM FEW250 26/02 A3013 RMK AO2 SLP151 T02560022,M
CXP,2022-09-29 19:55,-119.7326,39.1923,1431.00,80.60,32.00,17.14,270.00,9.00,0.00,30.13,M,10.00,M,CLR,M,M,M,M,M,M,M,M,M,M,M,M,M,M,78.82,KCXP 291955Z AUTO 27009KT 10SM CLR 27/00 A3013 RMK AO2,M
05U,2022-09-29 19:55,-116.0051,39.6042,1811.23,80.60,30.20,15.94,260.00,8.00,0.00,30.17,M,10.00,15.00,CLR,M,M,M,M,M,M,M,M,M,M,M,M,M,M,78.77,K05U 291955Z AUTO 26008G15KT 10SM CLR 27/M01 A3017 RMK A01,M
MEV,2022-09-29 19:55,-119.7500,38.9963,1441.42,80.60,28.40,14.81,0.00,0.00,0.00,30.12,M,8.00,M,CLR,M,M,M,M,M,M,M,M,M,M,M,M,M,M,78.72,KMEV 291955Z AUTO 00000KT 8SM CLR 27/M02 A3012 RMK AO2,M
BAM,2022-09-29 19:55,-116.8743,40.5990,1382.36,78.80,33.80,19.55,280.00,4.00,0.00,30.12,M,10.00,M,CLR,M,M,M,M,M,M,M,M,M,M,M,M,M,M,78.80,KBAM 291955Z AUTO 28004KT 10SM CLR 26/01 A3012 RMK AO1,M
HTH,2022-09-29 19:55,-118.6315,38.5448,1282.89,80.60,26.60,13.75,340.00,10.00,0.00,30.09,M,10.00,M,CLR,M,M,M,M,M,M,M,M,M,M,M,M,M,M,78.68,KHTH 291955Z AUTO 34010KT 10SM CLR 27/M03 A3009 RMK A01,M
TMT,2022-09-29 19:55,-117.1971,39.4643,1749.34,M,M,M,260.00,14.00,0.00,30.17,M,10.00,21.00,CLR,M,M,M,M,M,M,M,M,M,M,M,M,M,M,M,KTMT 291955Z AUTO 26014G21KT 10SM CLR A3017 RMK AO2,M
RTS,2022-09-29 19:55,-119.8764,39.6682,1539.00,75.20,28.40,17.70,M,4.00,0.00,30.17,M,10.00,12.00,CLR,M,M,M,M,M,M,M,M,M,M,M,M,M,M,75.20,KRTS 291955Z AUTO VRB04G12KT 10SM CLR 24/M02 A3017 RMK AO2,M
WMC,2022-09-29 19:56,-117.8072,40.9019,1315.00,75.00,30.00,19.02,290.00,8.00,0.00,30.13,1016.20,10.00,20.00,CLR,M,M,M,M,M,M,M,M,M,M,M,M,M,M,75.00,KWMC 291956Z AUTO 29008G20KT 10SM CLR 24/M01 A3013 RMK AO2 SLP162 T02391011,M
EKO,2022-09-29 19:56,-115.7860,40.8242,1367.00,78.00,32.00,18.61,260.00,17.00,0.00,30.11,1015.00,10.00,22.00,CLR,M,M,M,M,M,M,M,M,M,M,M,M,M,M,78.10,KEKO 291956Z AUTO 26017G22KT 10SM CLR 26/00 A3011 RMK AO2 SLP150 T02560000,M
NFL,2022-09-29 19:56,-118.7010,39.4166,1199.00,79.00,28.90,15.93,340.00,9.00,0.00,30.10,1016.00,10.00,M,CLR,M,M,M,M,M,M,M,M,M,M,M,M,M,M,79.00,KNFL 291956Z 34009KT 10SM CLR 26/M02 A3010 RMK AO2 SLP160 T02611017,M
HND,2022-09-29 19:56,-115.1344,35.9729,742.79,92.00,56.00,29.80,170.00,3.00,0.00,30.01,1015.20,10.00,M,FEW,M,M,M,9000.00,M,M,M,M,M,M,M,M,M,M,90.17,KHND 291956Z 17003KT 10SM FEW090 33/13 A3001 RMK AO2 SLP152 T03330133,M
LAS,2022-09-29 19:56,-115.1634,36.0719,663.00,92.00,55.00,28.84,120.00,7.00,0.00,29.98,1012.70,10.00,M,FEW,SCT,M,M,12000.00,25000.00,M,M,M,M,M,M,M,M,M,89.92,KLAS 291956Z 12007KT 10SM FEW120 SCT250 33/13 A2998 RMK AO2 SLP127 CB DSNT SE AND S T03330128,M
LSV,2022-09-29 19:56,-115.0343,36.2362,570.00,96.30,55.80,25.91,140.00,7.00,0.00,29.94,1011.50,10.00,M,CLR,M,M,M,M,M,M,M,M,M,M,M,M,M,M,94.74,KLSV 291956Z AUTO 14007KT 10SM CLR 36/13 A2994 RMK AO2 SLP115 T03570132 $,M
INS,2022-09-29 19:56,-115.6733,36.5872,955.00,88.70,46.00,22.83,120.00,10.00,0.00,30.02,1011.90,10.00,M,CLR,M,M,M,M,M,M,M,M,M,M,M,M,M,M,85.41,KINS 291956Z AUTO 12010KT 10SM CLR 32/08 A3002 RMK AO2 SLP119 T03150078 $,M
TPH,2022-09-29 19:56,-117.0904,38.0505,1654.00,80.00,36.00,20.44,170.00,11.00,0.00,30.16,1013.90,10.00,18.00,CLR,M,M,M,M,M,M,M,M,M,M,M,M,M,M,78.77,KTPH 291956Z AUTO 17011G18KT 100V220 10SM CLR 27/02 A3016 RMK AO2 SLP139 T02670022,M
INS,2022-09-29 20:06,-115.6733,36.5872,955.00,89.60,46.40,22.53,80.00,12.00,0.00,30.01,1011.60,10.00,M,CLR,M,M,M,M,M,M,M,M,M,M,M,M,M,M,86.24,KINS 292006Z AUTO 08012KT 10SM CLR 32/08 A3001 RMK AO2 WSHFT 1956 SLP116 $,M
INS,2022-09-29 20:09,-115.6733,36.5872,955.00,89.60,46.40,22.53,110.00,11.00,0.00,30.01,1011.60,10.00,M,CLR,M,M,M,M,M,M,M,M,M,M,M,M,M,M,86.24,KINS 292009Z AUTO 11011KT 10SM CLR 32/08 A3001 RMK AO2 WSHFT 07 SLP116 $,M
MEV,2022-09-29 20:15,-119.7500,38.9963,1441.42,80.60,28.40,14.81,M,3.00,0.00,30.11,M,10.00,M,CLR,M,M,M,M,M,M,M,M,M,M,M,M,M,M,78.72,KMEV 292015Z AUTO VRB03KT 10SM CLR 27/M02 A3011 RMK AO2,M
BAM,2022-09-29 20:15,-116.8743,40.5990,1382.36,78.80,33.80,19.55,350.00,6.00,0.00,30.11,M,10.00,M,CLR,M,M,M,M,M,M,M,M,M,M,M,M,M,M,78.80,KBAM 292015Z AUTO 35006KT 10SM CLR 26/01 A3011 RMK AO1,M
BVU,2022-09-29 20:15,-114.8611,35.9475,671.00,93.20,55.40,28.10,170.00,7.00,0.00,29.97,M,10.00,13.00,FEW,M,M,M,8000.00,M,M,M,M,M,M,M,M,M,M,91.35,KBVU 292015Z AUTO 17007G13KT 10SM FEW080 34/13 A2997 RMK AO2,M
HTH,2022-09-29 20:15,-118.6315,38.5448,1282.89,80.60,26.60,13.75,310.00,12.00,0.00,30.08,M,10.00,M,CLR,M,M,M,M,M,M,M,M,M,M,M,M,M,M,78.68,KHTH 292015Z AUTO 31012KT 10SM CLR 27/M03 A3008 RMK A01,M
CXP,2022-09-29 20:15,-119.7326,39.1923,1431.00,82.40,26.60,12.97,260.00,8.00,0.00,30.13,M,10.00,16.00,CLR,M,M,M,M,M,M,M,M,M,M,M,M,M,M,79.92,KCXP 292015Z AUTO 26008G16KT 10SM CLR 28/M03 A3013 RMK AO2,M
RTS,2022-09-29 20:15,-119.8764,39.6682,1539.00,75.20,28.40,17.70,0.00,0.00,0.00,30.17,M,10.00,M,CLR,M,M,M,M,M,M,M,M,M,M,M,M,M,M,75.20,KRTS 292015Z AUTO 00000KT 10SM CLR 24/M02 A3017 RMK AO2,M
TMT,2022-09-29 20:15,-117.1971,39.4643,1749.34,M,M,M,260.00,15.00,0.00,30.16,M,10.00,21.00,CLR,M,M,M,M,M,M,M,M,M,M,M,M,M,M,M,KTMT 292015Z AUTO 26015G21KT 10SM CLR A3016 RMK AO2,M
05U,2022-09-29 20:15,-116.0051,39.6042,1811.23,80.60,28.40,14.81,260.00,11.00,0.00,30.16,M,10.00,22.00,CLR,M,M,M,M,M,M,M,M,M,M,M,M,M,M,78.72,K05U 292015Z AUTO 26011G22KT 10SM CLR 27/M02 A3016 RMK A01,M
CXP,2022-09-29 20:35,-119.7326,39.1923,1431.00,82.40,28.40,13.96,260.00,10.00,0.00,30.12,M,10.00,17.00,CLR,M,M,M,M,M,M,M,M,M,M,M,M,M,M,79.94,KCXP 292035Z AUTO 26010G17KT 220V300 10SM CLR 28/M02 A3012 RMK AO2,M
HTH,2022-09-29 20:35,-118.6315,38.5448,1282.89,80.60,26.60,13.75,320.00,11.00,0.00,30.07,M,10.00,M,CLR,M,M,M,M,M,M,M,M,M,M,M,M,M,M,78.68,KHTH 292035Z AUTO 32011KT 10SM CLR 27/M03 A3007 RMK A01,M
BAM,2022-09-29 20:35,-116.8743,40.5990,1382.36,78.80,32.00,18.18,0.00,0.00,0.00,30.10,M,10.00,M,CLR,M,M,M,M,M,M,M,M,M,M,M,M,M,M,78.80,KBAM 292035Z AUTO 00000KT 10SM CLR 26/00 A3010 RMK AO1,M
TMT,2022-09-29 20:35,-117.1971,39.4643,1749.34,M,M,M,240.00,11.00,0.00,30.16,M,10.00,16.00,CLR,M,M,M,M,M,M,M,M,M,M,M,M,M,M,M,KTMT 292035Z AUTO 24011G16KT 10SM CLR A3016 RMK AO2,M
MEV,2022-09-29 20:35,-119.7500,38.9963,1441.42,82.40,28.40,13.96,20.00,7.00,0.00,30.10,M,9.00,M,CLR,M,M,M,M,M,M,M,M,M,M,M,M,M,M,79.94,KMEV 292035Z AUTO 02007KT 9SM CLR 28/M02 A3010 RMK AO2,M
05U,2022-09-29 20:35,-116.0051,39.6042,1811.23,80.60,24.80,12.76,M,5.00,0.00,30.15,M,10.00,13.00,CLR,M,M,M,M,M,M,M,M,M,M,M,M,M,M,78.94,K05U 292035Z AUTO VRB05G13KT 10SM CLR 27/M04 A3015 RMK A01,M
BVU,2022-09-29 20:35,-114.8611,35.9475,671.00,89.60,51.80,27.56,140.00,12.00,0.00,29.97,M,9.00,25.00,FEW,FEW,M,M,8000.00,9000.00,M,M,M,M,M,M,M,M,M,87.00,KBVU 292035Z AUTO 14012G25KT 9SM FEW080 FEW090 32/11 A2997 RMK AO2,M
RTS,2022-09-29 20:35,-119.8764,39.6682,1539.00,75.20,28.40,17.70,290.00,7.00,0.00,30.15,M,10.00,13.00,CLR,M,M,M,M,M,M,M,M,M,M,M,M,M,M,75.20,KRTS 292035Z AUTO 29007G13KT 10SM CLR 24/M02 A3015 RMK AO2,M
LOL,2022-09-29 20:53,-118.5701,40.0684,1192.43,80.00,33.00,18.21,270.00,12.00,0.00,30.08,1015.00,10.00,17.00,CLR,M,M,M,M,M,M,M,M,M,M,M,M,M,M,78.67,KLOL 292053Z AUTO 27012G17KT 10SM CLR 27/01 A3008 RMK AO2 SLP150 T02670006 58019,M
ELY,2022-09-29 20:53,-114.8453,39.2950,1909.00,77.00,38.00,24.40,200.00,13.00,0.00,30.15,1011.40,10.00,26.00,FEW,M,M,M,8000.00,M,M,M,M,M,M,M,30.00,190.00,2022-09-29 20:23,77.00,KELY 292053Z AUTO 20013G26KT 10SM FEW080 25/03 A3015 RMK AO2 PK WND 19030/2023 SLP114 T02500033 58022,M
P68,2022-09-29 20:53,-116.0056,39.6014,1993.00,80.00,25.00,13.08,M,4.00,0.00,30.11,1011.30,M,15.00,M,M,M,M,M,M,M,M,M,M,M,M,M,M,M,78.42,KP68 292053Z AUTO VRB04G15KT 27/M04 A3011 RMK AO1 SLP113 T02671039 58024,M
DRA,2022-09-29 20:53,-116.0278,36.6206,1009.00,93.00,35.00,13.07,220.00,16.00,0.00,29.99,1010.60,10.00,24.00,CLR,M,M,M,M,M,M,M,M,M,M,M,27.00,220.00,2022-09-29 20:43,88.56,KDRA 292053Z AUTO 22016G24KT 10SM CLR 34/02 A2999 RMK AO2 PK WND 22027/2043 SLP106 T03390017 58025,M
VGT,2022-09-29 20:53,-115.1933,36.2111,667.00,94.00,52.00,24.28,160.00,5.00,0.00,29.93,1012.60,10.00,M,CLR,M,M,M,M,M,M,M,M,M,M,M,M,M,M,91.19,KVGT 292053Z 16005KT 10SM CLR 34/11 A2993 RMK AO2 SLP126 T03440111 58035,M
MEV,2022-09-29 20:55,-119.7500,38.9963,1441.42,82.40,28.40,13.96,30.00,7.00,0.00,30.09,M,10.00,M,CLR,M,M,M,M,M,M,M,M,M,M,M,M,M,M,79.94,KMEV 292055Z AUTO 03007KT 350V110 10SM CLR 28/M02 A3009 RMK AO2,M
BVU,2022-09-29 20:55,-114.8611,35.9475,671.00,91.40,55.40,29.72,90.00,5.00,0.00,29.95,M,10.00,10.00,BKN,M,M,M,8000.00,M,M,M,M,M,M,M,M,M,M,89.53,KBVU 292055Z AUTO 09005G10KT 10SM BKN080 33/13 A2995 RMK AO2 LTG DSNT E AND SE,M
CXP,2022-09-29 20:55,-119.7326,39.1923,1431.00,82.40,32.00,16.17,270.00,11.00,0.00,30.12,M,10.00,17.00,CLR,M,M,M,M,M,M,M,M,M,M,M,M,M,M,80.00,KCXP 292055Z AUTO 27011G17KT 10SM CLR 28/00 A3012 RMK AO2,M
05U,2022-09-29 20:55,-116.0051,39.6042,1811.23,80.60,24.80,12.76,270.00,7.00,0.00,30.14,M,10.00,13.00,CLR,M,M,M,M,M,M,M,M,M,M,M,M,M,M,78.94,K05U 292055Z AUTO 27007G13KT 10SM CLR 27/M04 A3014 RMK A01,M
TMT,2022-09-29 20:55,-117.1971,39.4643,1749.34,M,M,M,260.00,9.00,0.00,30.15,M,10.00,15.00,CLR,M,M,M,M,M,M,M,M,M,M,M,M,M,M,M,KTMT 292055Z AUTO 26009G15KT 10SM CLR A3015 RMK AO2,M
RNO,2022-09-29 20:55,-119.7711,39.4839,1341.00,81.00,35.00,19.15,0.00,0.00,0.00,30.09,1013.80,10.00,M,CLR,M,M,M,M,M,M,M,M,M,M,M,M,M,M,79.17,KRNO 292055Z 00000KT 10SM CLR 27/02 A3009 RMK AO2 SLP138 T02720017 58025,M
RTS,2022-09-29 20:55,-119.8764,39.6682,1539.00,77.00,28.40,16.67,300.00,8.00,0.00,30.14,M,10.00,15.00,CLR,M,M,M,M,M,M,M,M,M,M,M,M,M,M,77.00,KRTS 292055Z AUTO 30008G15KT 230V310 10SM CLR 25/M02 A3014 RMK AO2,M
HTH,2022-09-29 20:55,-118.6315,38.5448,1282.89,82.40,26.60,12.97,320.00,13.00,0.00,30.06,M,10.00,M,CLR,M,M,M,M,M,M,M,M,M,M,M,M,M,M,79.92,KHTH 292055Z AUTO 32013KT 10SM CLR 28/M03 A3006 RMK A01,M
BAM,2022-09-29 20:55,-116.8743,40.5990,1382.36,80.60,32.00,17.14,270.00,4.00,0.00,30.09,M,10.00,14.00,CLR,M,M,M,M,M,M,M,M,M,M,M,M,M,M,78.82,KBAM 292055Z AUTO 27004G14KT 10SM CLR 27/00 A3009 RMK AO1,M
INS,2022-09-29 20:56,-115.6733,36.5872,955.00,90.00,46.00,21.84,110.00,14.00,0.00,29.98,1010.60,10.00,M,CLR,M,M,M,M,M,M,M,M,M,M,M,M,M,M,86.64,KINS 292056Z AUTO 11014KT 10SM CLR 32/08 A2998 RMK AO2 SLP106 T03230078 57029 $,M
LAS,2022-09-29 20:56,-115.1634,36.0719,663.00,95.00,53.00,24.44,70.00,10.00,0.00,29.94,1011.10,10.00,16.00,FEW,SCT,M,M,12000.00,25000.00,M,M,M,M,M,M,M,M,M,92.58,KLAS 292056Z 07010G16KT 10SM FEW120 SCT250 35/12 A2994 RMK AO2 SLP111 TCU DSNT SE T03500117 58037,M
EKO,2022-09-29 20:56,-115.7860,40.8242,1367.00,79.00,30.90,17.28,240.00,14.00,0.00,30.09,1014.10,10.00,28.00,CLR,M,M,M,M,M,M,M,M,M,M,M,28.00,270.00,2022-09-29 20:48,79.00,KEKO 292056Z AUTO 24014G28KT 10SM CLR 26/M01 A3009 RMK AO2 PK WND 27028/2048 SLP141 T02611006 58020,M
WMC,2022-09-29 20:56,-117.8072,40.9019,1315.00,77.00,28.00,16.40,280.00,14.00,0.00,30.11,1015.10,10.00,25.00,CLR,M,M,M,M,M,M,M,M,M,M,M,M,M,M,77.00,KWMC 292056Z AUTO 28014G25KT 10SM CLR 25/M02 A3011 RMK AO2 SLP151 T02501022 56018,M
NFL,2022-09-29 20:56,-118.7010,39.4166,1199.00,81.00,28.90,14.92,20.00,9.00,0.00,30.07,1015.20,10.00,18.00,SCT,M,M,M,22000.00,M,M,M,M,M,M,M,M,M,M,78.99,KNFL 292056Z 02009G18KT 330V060 10SM SCT220 27/M02 A3007 RMK AO2 SLP152 T02721017 58020,M
LSV,2022-09-29 20:56,-115.0343,36.2362,570.00,95.40,54.00,24.95,130.00,8.00,0.00,29.90,1010.20,10.00,M,CLR,M,M,M,M,M,M,M,M,M,M,M,M,M,M,93.23,KLSV 292056Z AUTO 13008KT 10SM CLR 35/12 A2990 RMK AO2 SLP102 T03520122 57036 $,M
TPH,2022-09-29 20:56,-117.0904,38.0505,1654.00,82.00,34.00,17.74,250.00,7.00,0.00,30.13,1013.10,10.00,M,CLR,M,M,M,M,M,M,M,M,M,M,M,M,M,M,79.77,KTPH 292056Z AUTO 25007KT 10SM CLR 28/01 A3013 RMK AO2 SLP131 T02780011 58023,M
HND,2022-09-29 20:56,-115.1344,35.9729,742.79,93.00,56.00,28.79,160.00,9.00,0.00,29.97,1013.80,10.00,15.00,BKN,M,M,M,10000.00,M,M,M,M,M,M,M,M,M,M,91.29,KHND 292056Z 16009G15KT 10SM BKN100 34/13 A2997 RMK AO2 SLP138 T03390133 58034,M
LAS,2022-09-29 21:06,-115.1634,36.0719,663.00,95.00,53.00,24.44,100.00,10.00,0.00,29.93,M,10.00,M,FEW,SCT,M,M,12000.00,25000.00,M,M,M,M,M,M,M,M,M,92.58,KLAS 292106Z 10010KT 10SM FEW120 SCT250 35/12 A2993 RMK AO2 TCU DSNT SE T03500117,M
TMT,2022-09-29 21:15,-117.1971,39.4643,1749.34,M,M,M,280.00,12.00,0.00,30.14,M,10.00,18.00,CLR,M,M,M,M,M,M,M,M,M,M,M,M,M,M,M,KTMT 292115Z AUTO 28012G18KT 10SM CLR A3014 RMK AO2,M
RTS,2022-09-29 21:15,-119.8764,39.6682,1539.00,77.00,26.60,15.48,230.00,5.00,0.00,30.13,M,10.00,M,CLR,M,M,M,M,M,M,M,M,M,M,M,M,M,M,77.00,KRTS 292115Z AUTO 23005KT 10SM CLR 25/M03 A3013 RMK AO2,M
05U,2022-09-29 21:15,-116.0051,39.6042,1811.23,82.40,23.00,11.16,300.00,7.00,0.00,30.13,M,10.00,16.00,CLR,M,M,M,M,M,M,M,M,M,M,M,M,M,M,79.67,K05U 292115Z AUTO 30007G16KT 10SM CLR 28/M05 A3013 RMK A01,M
HTH,2022-09-29 21:15,-118.6315,38.5448,1282.89,82.40,26.60,12.97,320.00,13.00,0.00,30.05,M,10.00,18.00,CLR,M,M,M,M,M,M,M,M,M,M,M,M,M,M,79.92,KHTH 292115Z AUTO 32013G18KT 10SM CLR 28/M03 A3005 RMK A01,M
BAM,2022-09-29 21:15,-116.8743,40.5990,1382.36,80.60,28.40,14.81,220.00,9.00,0.00,30.09,M,10.00,18.00,CLR,M,M,M,M,M,M,M,M,M,M,M,M,M,M,78.72,KBAM 292115Z AUTO 22009G18KT 10SM CLR 27/M02 A3009 RMK AO1,M
CXP,2022-09-29 21:15,-119.7326,39.1923,1431.00,80.60,33.80,18.42,300.00,16.00,0.00,30.11,M,10.00,M,CLR,M,M,M,M,M,M,M,M,M,M,M,M,M,M,78.88,KCXP 292115Z AUTO 30016KT 10SM CLR 27/01 A3011 RMK AO2,M
BVU,2022-09-29 21:15,-114.8611,35.9475,671.00,86.00,55.40,35.25,70.00,13.00,0.00,29.95,M,9.00,31.00,BKN,M,M,M,8000.00,M,M,M,TS,M,M,M,M,M,M,84.54,KBVU 292115Z AUTO 07013G31KT 9SM TS BKN080 30/13 A2995 RMK AO2 LTG DSNT E AND SE,M
MEV,2022-09-29 21:15,-119.7500,38.9963,1441.42,82.40,28.40,13.96,290.00,8.00,0.00,30.08,M,10.00,16.00,CLR,M,M,M,M,M,M,M,M,M,M,M,M,M,M,79.94,KMEV 292115Z AUTO 29008G16KT 270V330 10SM CLR 28/M02 A3008 RMK AO2,M
BAM,2022-09-29 21:35,-116.8743,40.5990,1382.36,80.60,30.20,15.94,280.00,9.00,0.00,30.08,M,10.00,15.00,CLR,M,M,M,M,M,M,M,M,M,M,M,M,M,M,78.77,KBAM 292135Z AUTO 28009G15KT 10SM CLR 27/M01 A3008 RMK AO1,M
TMT,2022-09-29 21:35,-117.1971,39.4643,1749.34,M,M,M,290.00,9.00,0.00,30.14,M,10.00,M,CLR,M,M,M,M,M,M,M,M,M,M,M,M,M,M,M,KTMT 292135Z AUTO 29009KT 10SM CLR A3014 RMK AO2,M
CXP,2022-09-29 21:35,-119.7326,39.1923,1431.00,80.60,33.80,18.42,290.00,12.00,0.00,30.10,M,10.00,20.00,CLR,M,M,M,M,M,M,M,M,M,M,M,M,M,M,78.88,KCXP 292135Z AUTO 29012G20KT 10SM CLR 27/01 A3010 RMK AO2,M
RTS,2022-09-29 21:35,-119.8764,39.6682,1539.00,78.80,23.00,12.55,220.00,8.00,0.00,30.12,M,10.00,14.00,CLR,M,M,M,M,M,M,M,M,M,M,M,M,M,M,78.80,KRTS 292135Z AUTO 22008G14KT 200V260 10SM CLR 26/M05 A3012 RMK AO2,M
05U,2022-09-29 21:35,-116.0051,39.6042,1811.23,82.40,21.20,10.34,280.00,7.00,0.00,30.12,M,10.00,14.00,CLR,M,M,M,M,M,M,M,M,M,M,M,M,M,M,79.55,K05U 292135Z AUTO 28007G14KT 10SM CLR 28/M06 A3012 RMK A01,M
BVU,2022-09-29 21:35,-114.8611,35.9475,671.00,87.80,55.40,33.29,60.00,8.00,0.00,29.93,M,10.00,14.00,FEW,M,M,M,9000.00,M,M,M,M,M,M,M,M,M,M,86.11,KBVU 292135Z AUTO 06008G14KT 10SM FEW090 31/13 A2993 RMK AO2,M
MEV,2022-09-29 21:35,-119.7500,38.9963,1441.42,84.20,26.60,12.23,280.00,14.00,0.00,30.08,M,10.00,22.00,CLR,M,M,M,M,M,M,M,M,M,M,M,M,M,M,81.13,KMEV 292135Z AUTO 28014G22KT 10SM CLR 29/M03 A3008 RMK AO2,M
HTH,2022-09-29 21:35,-118.6315,38.5448,1282.89,82.40,24.80,12.03,320.00,13.00,0.00,30.04,M,10.00,18.00,CLR,M,M,M,M,M,M,M,M,M,M,M,M,M,M,79.79,KHTH 292135Z AUTO 32013G18KT 10SM CLR 28/M04 A3004 RMK A01,M
LOL,2022-09-29 21:53,-118.5701,40.0684,1192.43,80.00,33.00,18.21,260.00,6.00,0.00,30.05,1014.60,10.00,M,CLR,M,M,M,M,M,M,M,M,M,M,M,M,M,M,78.67,KLOL 292153Z AUTO 26006KT 10SM CLR 27/01 A3005 RMK AO2 SLP146 T02670006,M
VGT,2022-09-29 21:53,-115.1933,36.2111,667.00,96.00,51.00,21.95,160.00,8.00,0.00,29.90,1011.30,10.00,21.00,CLR,M,M,M,M,M,M,M,M,M,M,M,M,M,M,93.23,KVGT 292153Z 16008G21KT 10SM CLR 36/11 A2990 RMK AO2 SLP113 T03560106,M
ELY,2022-09-29 21:53,-114.8453,39.2950,1909.00,77.00,37.00,23.55,200.00,17.00,0.00,30.13,1010.60,10.00,27.00,CLR,M,M,M,M,M,M,M,M,M,M,M,34.00,210.00,2022-09-29 20:54,77.00,KELY 292153Z AUTO 20017G27KT 10SM CLR 25/03 A3013 RMK AO2 PK WND 21034/2054 SLP106 T02500028,M
DRA,2022-09-29 21:53,-116.0278,36.6206,1009.00,92.00,30.90,11.43,230.00,16.00,0.00,29.98,1010.30,10.00,27.00,CLR,M,M,M,M,M,M,M,M,M,M,M,39.00,210.00,2022-09-29 20:55,87.17,KDRA 292153Z AUTO 23016G27KT 10SM CLR 33/M01 A2998 RMK AO2 PK WND 21039/2055 SLP103 T03331006,M
P68,2022-09-29 21:53,-116.0056,39.6014,1993.00,81.00,21.90,11.15,270.00,11.00,0.00,30.09,1011.00,M,21.00,M,M,M,M,M,M,M,M,M,M,M,M,M,M,M,78.68,KP68 292153Z AUTO 27011G21KT 27/M06 A3009 RMK AO1 SLP110 T02721056,M
05U,2022-09-29 21:55,-116.0051,39.6042,1811.23,82.40,21.20,10.34,280.00,12.00,0.00,30.12,M,10.00,18.00,CLR,M,M,M,M,M,M,M,M,M,M,M,M,M,M,79.55,K05U 292155Z AUTO 28012G18KT 10SM CLR 28/M06 A3012 RMK A01,M
HTH,2022-09-29 21:55,-118.6315,38.5448,1282.89,82.40,26.60,12.97,330.00,16.00,0.00,30.03,M,10.00,M,CLR,M,M,M,M,M,M,M,M,M,M,M,M,M,M,79.92,KHTH 292155Z AUTO 33016KT 10SM CLR 28/M03 A3003 RMK A01,M
RNO,2022-09-29 21:55,-119.7711,39.4839,1341.00,85.00,33.00,15.59,300.00,15.00,0.00,30.06,1012.80,10.00,21.00,CLR,M,M,M,M,M,M,M,M,M,M,M,M,M,M,81.81,KRNO 292155Z 30015G21KT 10SM CLR 29/01 A3006 RMK AO2 SLP128 T02940006,M
TMT,2022-09-29 21:55,-117.1971,39.4643,1749.34,M,M,M,260.00,9.00,0.00,30.14,M,10.00,19.00,CLR,M,M,M,M,M,M,M,M,M,M,M,M,M,M,M,KTMT 292155Z AUTO 26009G19KT 10SM CLR A3014 RMK AO2,M
BAM,2022-09-29 21:55,-116.8743,40.5990,1382.36,80.60,30.20,15.94,270.00,10.00,0.00,30.08,M,10.00,18.00,CLR,M,M,M,M,M,M,M,M,M,M,M,M,M,M,78.77,KBAM 292155Z AUTO 27010G18KT 240V300 10SM CLR 27/M01 A3008 RMK AO1,M
CXP,2022-09-29 21:55,-119.7326,39.1923,1431.00,80.60,33.80,18.42,280.00,13.00,0.00,30.10,M,10.00,22.00,CLR,M,M,M,M,M,M,M,M,M,M,M,M,M,M,78.88,KCXP 292155Z AUTO 28013G22KT 10SM CLR 27/01 A3010 RMK AO2,M
BVU,2022-09-29 21:55,-114.8611,35.9475,671.00,91.40,55.40,29.72,M,4.00,0.00,29.92,M,10.00,11.00,FEW,M,M,M,9000.00,M,M,M,M,M,M,M,M,M,M,89.53,KBVU 292155Z AUTO VRB04G11KT 10SM FEW090 33/13 A2992 RMK AO2,M
RTS,2022-09-29 21:55,-119.8764,39.6682,1539.00,78.80,24.80,13.54,230.00,11.00,0.00,30.12,M,10.00,M,CLR,M,M,M,M,M,M,M,M,M,M,M,M,M,M,78.80,KRTS 292155Z AUTO 23011KT 10SM CLR 26/M04 A3012 RMK AO2,M
MEV,2022-09-29 21:55,-119.7500,38.9963,1441.42,84.20,26.60,12.23,270.00,17.00,0.00,30.07,M,10.00,M,CLR,M,M,M,M,M,M,M,M,M,M,M,M,M,M,81.13,KMEV 292155Z AUTO 27017KT 10SM CLR 29/M03 A3007 RMK AO2,M
INS,2022-09-29 21:56,-115.6733,36.5872,955.00,91.00,43.00,18.94,100.00,9.00,0.00,29.95,1009.50,10.00,19.00,SCT,M,M,M,10000.00,M,M,M,M,M,M,M,M,M,M,87.18,KINS 292156Z AUTO 10009G19KT 10SM SCT100 33/06 A2995 RMK AO2 SLP095 T03280061 $,M
LAS,2022-09-29 21:56,-115.1634,36.0719,663.00,95.00,52.00,23.47,130.00,6.00,0.00,29.90,1009.90,10.00,M,FEW,FEW,SCT,M,12000.00,15000.00,22000.00,M,M,M,M,M,M,M,M,92.31,KLAS 292156Z 13006KT 10SM FEW120 FEW150 SCT220 35/11 A2990 RMK AO2 SLP099 CB DSNT E-SE T03500111,M
TPH,2022-09-29 21:56,-117.0904,38.0505,1654.00,83.00,28.00,13.52,260.00,6.00,0.00,30.10,1011.90,10.00,M,CLR,M,M,M,M,M,M,M,M,M,M,M,M,M,M,80.29,KTPH 292156Z AUTO 26006KT 10SM CLR 28/M02 A3010 RMK AO2 SLP119 T02831022,M
NFL,2022-09-29 21:56,-118.7010,39.4166,1199.00,82.00,28.90,14.44,20.00,6.00,0.00,30.05,1014.40,10.00,M,FEW,M,M,M,20000.00,M,M,M,M,M,M,M,M,M,M,79.67,KNFL 292156Z 02006KT 10SM FEW200 28/M02 A3005 RMK AO2 SLP144 T02781017,M
WMC,2022-09-29 21:56,-117.8072,40.9019,1315.00,77.00,28.00,16.40,290.00,16.00,0.00,30.09,1014.90,10.00,24.00,CLR,M,M,M,M,M,M,M,M,M,M,M,M,M,M,77.00,KWMC 292156Z AUTO 29016G24KT 10SM CLR 25/M02 A3009 RMK AO2 SLP149 T02501022,M
HND,2022-09-29 21:56,-115.1344,35.9729,742.79,93.00,53.00,26.00,150.00,11.00,0.00,29.94,1012.80,10.00,M,FEW,M,M,M,12000.00,M,M,M,M,M,M,M,M,M,M,90.54,KHND 292156Z 15011KT 10SM FEW120 34/12 A2994 RMK AO2 SLP128 T03390117,M
EKO,2022-09-29 21:56,-115.7860,40.8242,1367.00,79.00,28.90,15.93,250.00,16.00,0.00,30.07,1013.50,10.00,29.00,CLR,M,M,M,M,M,M,M,M,M,M,M,30.00,260.00,2022-09-29 21:40,79.00,KEKO 292156Z AUTO 25016G29KT 10SM CLR 26/M02 A3007 RMK AO2 PK WND 26030/2140 SLP135 T02611017,M
LSV,2022-09-29 21:56,-115.0343,36.2362,570.00,95.70,56.30,26.87,100.00,12.00,0.00,29.86,1008.80,10.00,16.00,CLR,M,M,M,M,M,M,M,M,M,M,M,M,M,M,94.26,KLSV 292156Z AUTO 10012G16KT 10SM CLR 35/14 A2986 RMK AO2 SLP088 T03540135 $,M
MEV,2022-09-29 22:15,-119.7500,38.9963,1441.42,82.40,26.60,12.97,270.00,16.00,0.00,30.07,M,10.00,M,CLR,M,M,M,M,M,M,M,M,M,M,M,M,M,M,79.92,KMEV 292215Z AUTO 27016KT 10SM CLR 28/M03 A3007 RMK AO2,M
BAM,2022-09-29 22:15,-116.8743,40.5990,1382.36,80.60,32.00,17.14,300.00,11.00,0.00,30.07,M,10.00,15.00,CLR,M,M,M,M,M,M,M,M,M,M,M,M,M,M,78.82,KBAM 292215Z AUTO 30011G15KT 250V320 10SM CLR 27/00 A3007 RMK AO1,M
HTH,2022-09-29 22:15,-118.6315,38.5448,1282.89,84.20,26.60,12.23,330.00,17.00,0.00,30.03,M,10.00,M,CLR,M,M,M,M,M,M,M,M,M,M,M,M,M,M,81.13,KHTH 292215Z AUTO 33017KT 10SM CLR 29/M03 A3003 RMK A01,M
TMT,2022-09-29 22:15,-117.1971,39.4643,1749.34,M,M,M,290.00,12.00,0.00,30.13,M,10.00,19.00,CLR,M,M,M,M,M,M,M,M,M,M,M,M,M,M,M,KTMT 292215Z AUTO 29012G19KT 10SM CLR A3013 RMK AO2,M
BVU,2022-09-29 22:15,-114.8611,35.9475,671.00,93.20,55.40,28.10,120.00,9.00,0.00,29.91,M,10.00,M,CLR,M,M,M,M,M,M,M,M,M,M,M,M,M,M,91.35,KBVU 292215Z AUTO 12009KT 10SM CLR 34/13 A2991 RMK AO2,M
RTS,2022-09-29 22:15,-119.8764,39.6682,1539.00,78.80,21.20,11.64,310.00,16.00,0.00,30.12,M,10.00,23.00,CLR,M,M,M,M,M,M,M,M,M,M,M,M,M,M,78.80,KRTS 292215Z AUTO 31016G23KT 10SM CLR 26/M06 A3012 RMK AO2,M
CXP,2022-09-29 22:15,-119.7326,39.1923,1431.00,80.60,33.80,18.42,290.00,17.00,0.00,30.10,M,10.00,M,CLR,M,M,M,M,M,M,M,M,M,M,M,M,M,M,78.88,KCXP 292215Z AUTO 29017KT 10SM CLR 27/01 A3010 RMK AO2,M
05U,2022-09-29 22:15,-116.0051,39.6042,1811.23,82.40,21.20,10.34,280.00,9.00,0.00,30.11,M,10.00,18.00,CLR,M,M,M,M,M,M,M,M,M,M,M,M,M,M,79.55,K05U 292215Z AUTO 28009G18KT 10SM CLR 28/M06 A3011 RMK A01,M
MEV,2022-09-29 22:35,-119.7500,38.9963,1441.42,84.20,28.40,13.18,270.00,17.00,0.00,30.07,M,10.00,M,CLR,M,M,M,M,M,M,M,M,M,M,M,M,M,M,81.25,KMEV 292235Z AUTO 27017KT 10SM CLR 29/M02 A3007 RMK AO2,M
TMT,2022-09-29 22:35,-117.1971,39.4643,1749.34,M,M,M,270.00,8.00,0.00,30.13,M,10.00,M,CLR,M,M,M,M,M,M,M,M,M,M,M,M,M,M,M,KTMT 292235Z AUTO 27008KT 240V310 10SM CLR A3013 RMK AO2,M
HTH,2022-09-29 22:35,-118.6315,38.5448,1282.89,84.20,26.60,12.23,320.00,17.00,0.00,30.03,M,10.00,M,CLR,M,M,M,M,M,M,M,M,M,M,M,M,M,M,81.13,KHTH 292235Z AUTO 32017KT 10SM CLR 29/M03 A3003 RMK A01,M
BAM,2022-09-29 22:35,-116.8743,40.5990,1382.36,80.60,32.00,17.14,330.00,13.00,0.00,30.07,M,10.00,17.00,CLR,M,M,M,M,M,M,M,M,M,M,M,M,M,M,78.82,KBAM 292235Z AUTO 33013G17KT 10SM CLR 27/00 A3007 RMK AO1,M
05U,2022-09-29 22:35,-116.0051,39.6042,1811.23,82.40,21.20,10.34,240.00,10.00,0.00,30.11,M,10.00,18.00,CLR,M,M,M,M,M,M,M,M,M,M,M,M,M,M,79.55,K05U 292235Z AUTO 24010G18KT 10SM CLR 28/M06 A3011 RMK A01,M
RTS,2022-09-29 22:35,-119.8764,39.6682,1539.00,78.80,19.40,10.78,280.00,17.00,0.00,30.12,M,10.00,M,CLR,M,M,M,M,M,M,M,M,M,M,M,M,M,M,78.80,KRTS 292235Z AUTO 28017KT 10SM CLR 26/M07 A3012 RMK AO2,M
CXP,2022-09-29 22:35,-119.7326,39.1923,1431.00,80.60,32.00,17.14,290.00,15.00,0.00,30.10,M,10.00,23.00,CLR,M,M,M,M,M,M,M,M,M,M,M,M,M,M,78.82,KCXP 292235Z AUTO 29015G23KT 10SM CLR 27/00 A3010 RMK AO2,M
BVU,2022-09-29 22:35,-114.8611,35.9475,671.00,91.40,55.40,29.72,80.00,7.00,0.00,29.91,M,10.00,M,FEW,M,M,M,9500.00,M,M,M,M,M,M,M,M,M,M,89.53,KBVU 292235Z AUTO 08007KT 10SM FEW095 33/13 A2991 RMK AO2,M
ELY,2022-09-29 22:53,-114.8453,39.2950,1909.00,76.00,30.00,18.46,210.00,11.00,0.00,30.12,1010.20,10.00,23.00,FEW,M,M,M,12000.00,M,M,M,M,M,M,M,30.00,200.00,2022-09-29 21:58,75.90,KELY 292253Z AUTO 21011G23KT 10SM FEW120 24/M01 A3012 RMK AO2 PK WND 20030/2158 SLP102 T02441011,M
P68,2022-09-29 22:53,-116.0056,39.6014,1993.00,81.00,21.90,11.15,280.00,14.00,0.00,30.08,1010.80,M,25.00,M,M,M,M,M,M,M,M,M,M,M,M,M,M,M,78.68,KP68 292253Z AUTO 28014G25KT 27/M06 A3008 RMK AO1 SLP108 T02721056,M
DRA,2022-09-29 22:53,-116.0278,36.6206,1009.00,92.00,32.00,11.95,180.00,16.00,0.00,29.96,1009.70,10.00,24.00,CLR,M,M,M,M,M,M,M,M,M,M,M,32.00,180.00,2022-09-29 22:01,87.30,KDRA 292253Z AUTO 18016G24KT 10SM CLR 33/00 A2996 RMK AO2 PK WND 18032/2201 SLP097 T03330000,M
VGT,2022-09-29 22:53,-115.1933,36.2111,667.00,95.00,53.00,24.44,100.00,9.00,0.00,29.88,1010.70,10.00,M,FEW,M,M,M,12000.00,M,M,M,M,M,M,M,M,M,M,92.58,KVGT 292253Z 10009KT 10SM FEW120 35/12 A2988 RMK AO2 SLP107 T03500117,M
LOL,2022-09-29 22:53,-118.5701,40.0684,1192.43,82.00,32.00,16.38,340.00,11.00,0.00,30.04,1014.00,10.00,M,CLR,M,M,M,M,M,M,M,M,M,M,M,M,M,M,79.73,KLOL 292253Z AUTO 34011KT 10SM CLR 28/00 A3004 RMK AO2 SLP140 T02780000,M
INS,2022-09-29 22:53,-115.6733,36.5872,955.00,93.20,30.20,10.67,210.00,11.00,0.00,29.93,1008.80,10.00,M,FEW,M,M,M,11000.00,M,M,M,M,M,M,M,M,M,M,88.09,KINS 292253Z AUTO 21011KT 10SM FEW110 34/M01 A2993 RMK AO2 WSHFT 51 SLP088 $,M
HTH,2022-09-29 22:55,-118.6315,38.5448,1282.89,84.20,26.60,12.23,320.00,17.00,0.00,30.02,M,10.00,M,CLR,M,M,M,M,M,M,M,M,M,M,M,M,M,M,81.13,KHTH 292255Z AUTO 32017KT 10SM CLR 29/M03 A3002 RMK A01,M
BVU,2022-09-29 22:55,-114.8611,35.9475,671.00,93.20,55.40,28.10,M,6.00,0.00,29.90,M,10.00,M,SCT,BKN,M,M,9000.00,12000.00,M,M,M,M,M,M,M,M,M,91.35,KBVU 292255Z AUTO VRB06KT 10SM SCT090 BKN120 34/13 A2990 RMK AO2,M
CXP,2022-09-29 22:55,-119.7326,39.1923,1431.00,80.60,33.80,18.42,290.00,18.00,0.00,30.09,M,10.00,23.00,CLR,M,M,M,M,M,M,M,M,M,M,M,M,M,M,78.88,KCXP 292255Z AUTO 29018G23KT 10SM CLR 27/01 A3009 RMK AO2,M
RNO,2022-09-29 22:55,-119.7711,39.4839,1341.00,84.00,28.90,13.53,290.00,16.00,0.00,30.05,1012.70,10.00,21.00,CLR,M,M,M,M,M,M,M,M,M,M,M,M,M,M,81.10,KRNO 292255Z 29016G21KT 10SM CLR 29/M02 A3005 RMK AO2 SLP127 T02891017,M
TMT,2022-09-29 22:55,-117.1971,39.4643,1749.34,M,M,M,250.00,11.00,0.00,30.13,M,10.00,19.00,CLR,M,M,M,M,M,M,M,M,M,M,M,M,M,M,M,KTMT 292255Z AUTO 25011G19KT 10SM CLR A3013 RMK AO2,M
RTS,2022-09-29 22:55,-119.8764,39.6682,1539.00,78.80,24.80,13.54,300.00,16.00,0.00,30.12,M,10.00,M,CLR,M,M,M,M,M,M,M,M,M,M,M,M,M,M,78.80,KRTS 292255Z AUTO 30016KT 10SM CLR 26/M04 A3012 RMK AO2,M
05U,2022-09-29 22:55,-116.0051,39.6042,1811.23,82.40,21.20,10.34,280.00,10.00,0.00,30.10,M,10.00,21.00,CLR,M,M,M,M,M,M,M,M,M,M,M,M,M,M,79.55,K05U 292255Z AUTO 28010G21KT 10SM CLR 28/M06 A3010 RMK A01,M
MEV,2022-09-29 22:55,-119.7500,38.9963,1441.42,82.40,30.20,15.03,280.00,15.00,0.00,30.07,M,10.00,20.00,CLR,M,M,M,M,M,M,M,M,M,M,M,M,M,M,79.97,KMEV 292255Z AUTO 28015G20KT 10SM CLR 28/M01 A3007 RMK AO2,M
BAM,2022-09-29 22:55,-116.8743,40.5990,1382.36,78.80,32.00,18.18,340.00,15.00,0.00,30.07,M,10.00,18.00,CLR,M,M,M,M,M,M,M,M,M,M,M,M,M,M,78.80,KBAM 292255Z AUTO 34015G18KT 10SM CLR 26/00 A3007 RMK AO1,M
HND,2022-09-29 22:56,-115.1344,35.9729,742.79,94.00,54.00,26.13,160.00,13.00,0.00,29.92,1012.10,10.00,M,SCT,M,M,M,11000.00,M,M,M,M,M,M,M,M,M,M,91.68,KHND 292256Z 16013KT 10SM SCT110 34/12 A2992 RMK AO2 SLP121 T03440122,M
LSV,2022-09-29 22:56,-115.0343,36.2362,570.00,96.00,52.20,22.86,170.00,7.00,0.00,29.84,1008.20,10.00,16.00,CLR,M,M,M,M,M,M,M,M,M,M,M,M,M,M,93.49,KLSV 292256Z AUTO 17007G16KT 10SM CLR 36/11 A2984 RMK AO2 SLP082 T03560112 $,M
LAS,2022-09-29 22:56,-115.1634,36.0719,663.00,95.00,50.00,21.79,M,3.00,0.00,29.88,1009.10,10.00,16.00,FEW,FEW,SCT,M,12000.00,15000.00,22000.00,M,M,M,M,M,M,M,M,91.89,KLAS 292256Z VRB03G16KT 10SM FEW120 FEW150 SCT220 35/10 A2988 RMK AO2 SLP091 T03500100,M
EKO,2022-09-29 22:56,-115.7860,40.8242,1367.00,78.00,28.90,16.41,280.00,12.00,0.00,30.06,1013.30,10.00,22.00,CLR,M,M,M,M,M,M,M,M,M,M,M,27.00,250.00,2022-09-29 22:00,78.10,KEKO 292256Z AUTO 28012G22KT 10SM CLR 26/M02 A3006 RMK AO2 PK WND 25027/2200 SLP133 T02561017,M
WMC,2022-09-29 22:56,-117.8072,40.9019,1315.00,76.00,32.00,20.01,270.00,10.00,0.00,30.08,1014.50,10.00,22.00,CLR,M,M,M,M,M,M,M,M,M,M,M,M,M,M,75.90,KWMC 292256Z AUTO 27010G22KT 10SM CLR 24/00 A3008 RMK AO2 SLP145 T02440000,M
TPH,2022-09-29 22:56,-117.0904,38.0505,1654.00,83.00,26.10,12.50,M,M,0.00,30.09,1011.80,10.00,M,CLR,M,M,M,M,M,M,M,M,M,M,M,M,M,M,80.21,KTPH 292256Z AUTO 10SM CLR 28/M03 A3009 RMK AO2 SLP118 T02831033,M
INS,2022-09-29 22:56,-115.6733,36.5872,955.00,92.70,30.40,10.92,220.00,12.00,0.00,29.93,1008.80,10.00,M,SCT,M,M,M,11000.00,M,M,M,M,M,M,M,M,M,M,87.73,KINS 292256Z AUTO 22012KT 10SM SCT110 34/M01 A2993 RMK AO2 SLP088 T03371009 $,M
NFL,2022-09-29 22:56,-118.7010,39.4166,1199.00,83.00,30.00,14.67,M,3.00,0.00,30.03,1013.90,10.00,M,FEW,M,M,M,20000.00,M,M,M,M,M,M,M,M,M,M,80.31,KNFL 292256Z VRB03KT 10SM FEW200 28/M01 A3003 RMK AO2 SLP139 T02831011,M
LAS,2022-09-29 23:02,-115.1634,36.0719,663.00,97.00,41.00,14.57,210.00,5.00,0.00,29.88,M,10.00,M,FEW,FEW,SCT,M,12000.00,15000.00,22000.00,M,M,M,M,M,M,M,M,92.58,KLAS 292302Z 21005KT 10SM FEW120 FEW150 SCT220 36/05 A2988 RMK AO2 T03610050,M
BAM,2022-09-29 23:15,-116.8743,40.5990,1382.36,78.80,32.00,18.18,320.00,15.00,0.00,30.06,M,10.00,19.00,CLR,M,M,M,M,M,M,M,M,M,M,M,M,M,M,78.80,KBAM 292315Z AUTO 32015G19KT 10SM CLR 26/00 A3006 RMK AO1,M
BVU,2022-09-29 23:15,-114.8611,35.9475,671.00,93.20,51.80,24.63,200.00,7.00,0.00,29.90,M,10.00,M,SCT,BKN,M,M,9000.00,12000.00,M,M,M,M,M,M,M,M,M,90.45,KBVU 292315Z AUTO 20007KT 160V220 10SM SCT090 BKN120 34/11 A2990 RMK AO2,M
CXP,2022-09-29 23:15,-119.7326,39.1923,1431.00,78.80,32.00,18.18,280.00,13.00,0.00,30.10,M,10.00,20.00,CLR,M,M,M,M,M,M,M,M,M,M,M,M,M,M,78.80,KCXP 292315Z AUTO 28013G20KT 10SM CLR 26/M00 A3010 RMK AO2,M
RTS,2022-09-29 23:15,-119.8764,39.6682,1539.00,78.80,24.80,13.54,310.00,16.00,0.00,30.12,M,10.00,M,CLR,M,M,M,M,M,M,M,M,M,M,M,M,M,M,78.80,KRTS 292315Z AUTO 31016KT 10SM CLR 26/M04 A3012 RMK AO2,M
05U,2022-09-29 23:15,-116.0051,39.6042,1811.23,80.60,23.00,11.83,240.00,9.00,0.00,30.10,M,10.00,16.00,CLR,M,M,M,M,M,M,M,M,M,M,M,M,M,M,78.80,K05U 292315Z AUTO 24009G16KT 10SM CLR 27/M05 A3010 RMK A01,M
MEV,2022-09-29 23:15,-119.7500,38.9963,1441.42,80.60,30.20,15.94,280.00,14.00,0.00,30.07,M,10.00,21.00,CLR,M,M,M,M,M,M,M,M,M,M,M,M,M,M,78.77,KMEV 292315Z AUTO 28014G21KT 10SM CLR 27/M01 A3007 RMK AO2,M
HTH,2022-09-29 23:15,-118.6315,38.5448,1282.89,84.20,28.40,13.18,320.00,16.00,0.00,30.02,M,10.00,M,CLR,M,M,M,M,M,M,M,M,M,M,M,M,M,M,81.25,KHTH 292315Z AUTO 32016KT 10SM CLR 29/M02 A3002 RMK A01,M
TMT,2022-09-29 23:15,-117.1971,39.4643,1749.34,M,M,M,260.00,9.00,0.00,30.13,M,10.00,15.00,CLR,M,M,M,M,M,M,M,M,M,M,M,M,M,M,M,KTMT 292315Z AUTO 26009G15KT 10SM CLR A3013 RMK AO2,M
BAM,2022-09-29 23:35,-116.8743,40.5990,1382.36,78.80,32.00,18.18,330.00,9.00,0.00,30.06,M,10.00,22.00,CLR,M,M,M,M,M,M,M,M,M,M,M,M,M,M,78.80,KBAM 292335Z AUTO 33009G22KT 10SM CLR 26/00 A3006 RMK AO1,M
TMT,2022-09-29 23:35,-117.1971,39.4643,1749.34,M,M,M,270.00,11.00,0.00,30.13,M,10.00,22.00,CLR,M,M,M,M,M,M,M,M,M,M,M,M,M,M,M,KTMT 292335Z AUTO 27011G22KT 10SM CLR A3013 RMK AO2,M
BVU,2022-09-29 23:35,-114.8611,35.9475,671.00,95.00,50.00,21.79,170.00,9.00,0.00,29.89,M,10.00,M,BKN,M,M,M,10000.00,M,M,M,M,M,M,M,M,M,M,91.89,KBVU 292335Z AUTO 17009KT 10SM BKN100 35/10 A2989 RMK AO2,M
HTH,2022-09-29 23:35,-118.6315,38.5448,1282.89,82.40,26.60,12.97,330.00,15.00,0.00,30.02,M,10.00,M,CLR,M,M,M,M,M,M,M,M,M,M,M,M,M,M,79.92,KHTH 292335Z AUTO 33015KT 10SM CLR 28/M03 A3002 RMK A01,M
CXP,2022-09-29 23:35,-119.7326,39.1923,1431.00,78.80,32.00,18.18,290.00,16.00,0.00,30.10,M,10.00,M,CLR,M,M,M,M,M,M,M,M,M,M,M,M,M,M,78.80,KCXP 292335Z AUTO 29016KT 10SM CLR 26/M00 A3010 RMK AO2,M
RTS,2022-09-29 23:35,-119.8764,39.6682,1539.00,77.00,24.80,14.37,290.00,16.00,0.00,30.11,M,10.00,M,CLR,M,M,M,M,M,M,M,M,M,M,M,M,M,M,77.00,KRTS 292335Z AUTO 29016KT 10SM CLR 25/M04 A3011 RMK AO2,M
05U,2022-09-29 23:35,-116.0051,39.6042,1811.23,80.60,21.20,10.97,280.00,7.00,0.00,30.10,M,10.00,22.00,CLR,M,M,M,M,M,M,M,M,M,M,M,M,M,M,78.68,K05U 292335Z AUTO 28007G22KT 10SM CLR 27/M06 A3010 RMK A01,M
MEV,2022-09-29 23:35,-119.7500,38.9963,1441.42,80.60,30.20,15.94,270.00,11.00,0.00,30.07,M,10.00,18.00,CLR,M,M,M,M,M,M,M,M,M,M,M,M,M,M,78.77,KMEV 292335Z AUTO 27011G18KT 10SM CLR 27/M01 A3007 RMK AO2,M
LSV,2022-09-29 23:45,-115.0343,36.2362,570.00,95.00,55.40,26.58,160.00,12.00,0.00,29.83,1007.80,10.00,17.00,CLR,M,M,M,M,M,M,M,M,M,M,M,M,M,M,93.22,KLSV 292345Z AUTO 16012G17KT 10SM CLR 35/13 A2983 RMK AO2 WSHFT 39 SLP078 $,M
LOL,2022-09-29 23:53,-118.5701,40.0684,1192.43,81.00,30.00,15.60,320.00,13.00,0.00,30.03,1013.80,10.00,18.00,CLR,M,M,M,M,M,M,M,M,M,M,M,M,M,M,79.02,KLOL 292353Z AUTO 32013G18KT 10SM CLR 27/M01 A3003 RMK AO2 SLP138 T02721011 10283 20233 56015,M
P68,2022-09-29 23:53,-116.0056,39.6014,1993.00,79.00,21.90,11.91,320.00,13.00,0.00,30.07,1011.10,M,19.00,M,M,M,M,M,M,M,M,M,M,M,M,M,M,M,79.00,KP68 292353Z AUTO 32013G19KT 26/M06 A3007 RMK AO1 SLP111 T02611056 10278 20233 56011,M
DRA,2022-09-29 23:53,-116.0278,36.6206,1009.00,91.00,30.90,11.76,210.00,12.00,0.00,29.94,1009.30,10.00,18.00,CLR,M,M,M,M,M,M,M,M,M,M,M,29.00,180.00,2022-09-29 23:18,86.48,KDRA 292353Z AUTO 21012G18KT 10SM CLR 33/M01 A2994 RMK AO2 PK WND 18029/2318 SLP093 T03281006 10344 20311 56016,M
ELY,2022-09-29 23:53,-114.8453,39.2950,1909.00,75.00,34.00,22.35,220.00,12.00,0.00,30.10,1009.60,10.00,M,BKN,M,M,M,10000.00,M,M,M,M,M,M,M,M,M,M,75.00,KELY 292353Z AUTO 22012KT 10SM BKN100 24/01 A3010 RMK AO2 SLP096 T02390011 10256 20233 56015,M
VGT,2022-09-29 23:53,-115.1933,36.2111,667.00,96.00,49.00,20.22,120.00,4.00,0.00,29.86,1010.00,10.00,M,CLR,M,M,M,M,M,M,M,M,M,M,M,M,M,M,92.78,KVGT 292353Z 12004KT 10SM CLR 36/09 A2986 RMK AO2 SLP100 T03560094 10367 20300 56024,M
CXP,2022-09-29 23:55,-119.7326,39.1923,1431.00,78.80,30.20,16.90,260.00,9.00,0.00,30.09,M,10.00,21.00,CLR,M,M,M,M,M,M,M,M,M,M,M,M,M,M,78.80,KCXP 292355Z AUTO 26009G21KT 10SM CLR 26/M01 A3009 RMK AO2,M
RTS,2022-09-29 23:55,-119.8764,39.6682,1539.00,77.00,24.80,14.37,310.00,13.00,0.00,30.11,M,10.00,20.00,CLR,M,M,M,M,M,M,M,M,M,M,M,M,M,M,77.00,KRTS 292355Z AUTO 31013G20KT 10SM CLR 25/M04 A3011 RMK AO2,M
TMT,2022-09-29 23:55,-117.1971,39.4643,1749.34,M,M,M,260.00,8.00,0.00,30.12,M,10.00,M,CLR,M,M,M,M,M,M,M,M,M,M,M,M,M,M,M,KTMT 292355Z AUTO 26008KT 10SM CLR A3012 RMK AO2,M
HTH,2022-09-29 23:55,-118.6315,38.5448,1282.89,82.40,26.60,12.97,320.00,15.00,0.00,30.02,M,10.00,M,CLR,M,M,M,M,M,M,M,M,M,M,M,M,M,M,79.92,KHTH 292355Z AUTO 32015KT 10SM CLR 28/M03 A3002 RMK A01,M
BAM,2022-09-29 23:55,-116.8743,40.5990,1382.36,78.80,30.20,16.90,320.00,11.00,0.00,30.05,M,10.00,17.00,CLR,M,M,M,M,M,M,M,M,M,M,M,M,M,M,78.80,KBAM 292355Z AUTO 32011G17KT 10SM CLR 26/M01 A3005 RMK AO1,M
MEV,2022-09-29 23:55,-119.7500,38.9963,1441.42,80.60,30.20,15.94,290.00,11.00,0.00,30.06,M,10.00,M,CLR,M,M,M,M,M,M,M,M,M,M,M,M,M,M,78.77,KMEV 292355Z AUTO 29011KT 10SM CLR 27/M01 A3006 RMK AO2,M
05U,2022-09-29 23:55,-116.0051,39.6042,1811.23,80.60,21.20,10.97,310.00,10.00,0.00,30.10,M,10.00,20.00,CLR,M,M,M,M,M,M,M,M,M,M,M,M,M,M,78.68,K05U 292355Z AUTO 31010G20KT 10SM CLR 27/M06 A3010 RMK A01,M
RNO,2022-09-29 23:55,-119.7711,39.4839,1341.00,82.00,28.00,13.92,290.00,13.00,0.00,30.05,1012.70,10.00,M,CLR,M,M,M,M,M,M,M,M,M,M,M,M,M,M,79.66,KRNO 292355Z 29013KT 10SM CLR 28/M02 A3005 RMK AO2 SLP127 T02781022 10294 20217 56010,M
BVU,2022-09-29 23:55,-114.8611,35.9475,671.00,95.00,48.20,20.38,200.00,12.00,0.00,29.88,M,10.00,M,SCT,M,M,M,11000.00,M,M,M,M,M,M,M,M,M,M,91.56,KBVU 292355Z AUTO 20012KT 10SM SCT110 35/09 A2988 RMK AO2,M
HND,2022-09-29 23:56,-115.1344,35.9729,742.79,95.00,48.00,20.22,210.00,16.00,0.00,29.91,1011.50,10.00,M,FEW,M,M,M,12000.00,M,M,M,M,M,M,M,M,M,M,91.53,KHND 292356Z 21016KT 10SM FEW120 35/09 A2991 RMK AO2 SLP115 T03500089 10350 20300 56020,M
NFL,2022-09-29 23:56,-118.7010,39.4166,1199.00,83.00,30.90,15.21,30.00,6.00,0.00,30.02,1013.40,10.00,M,FEW,M,M,M,20000.00,M,M,M,M,M,M,M,M,M,M,80.33,KNFL 292356Z 03006KT 10SM FEW200 28/M01 A3002 RMK AO2 SLP134 T02831006 10289 20239 56018,M
LSV,2022-09-29 23:56,-115.0343,36.2362,570.00,95.00,52.50,23.90,170.00,13.00,0.00,29.82,1007.50,10.00,M,CLR,M,M,M,M,M,M,M,M,M,M,M,M,M,M,92.43,KLSV 292356Z AUTO 17013KT 10SM CLR 35/11 A2982 RMK AO2 SLP075 T03500114 10361 20318 57024 $,M
WMC,2022-09-29 23:56,-117.8072,40.9019,1315.00,75.00,32.00,20.63,260.00,12.00,0.00,30.07,1014.60,10.00,M,CLR,M,M,M,M,M,M,M,M,M,M,M,M,M,M,75.00,KWMC 292356Z AUTO 26012KT 10SM CLR 24/00 A3007 RMK AO2 SLP146 T02390000 10256 20217 56013,M
LAS,2022-09-29 23:56,-115.1634,36.0719,663.00,97.00,38.00,12.91,240.00,8.00,0.00,29.87,1008.90,10.00,M,FEW,FEW,SCT,M,12000.00,15000.00,22000.00,M,M,M,M,M,M,M,M,92.30,KLAS 292356Z 24008KT 10SM FEW120 FEW150 SCT220 36/03 A2987 RMK AO2 SLP089 T03610033 10367 20294 56020,M
TPH,2022-09-29 23:56,-117.0904,38.0505,1654.00,83.00,27.00,12.97,0.00,0.00,0.00,30.08,1011.50,10.00,M,CLR,M,M,M,M,M,M,M,M,M,M,M,M,M,M,80.28,KTPH 292356Z AUTO 00000KT 10SM CLR 28/M03 A3008 RMK AO2 SLP115 T02831028 10289 20239 56015,M
EKO,2022-09-29 23:56,-115.7860,40.8242,1367.00,75.00,28.00,17.53,290.00,15.00,0.00,30.05,1013.20,10.00,24.00,CLR,M,M,M,M,M,M,M,M,M,M,M,M,M,M,75.00,KEKO 292356Z AUTO 29015G24KT 10SM CLR 24/M02 A3005 RMK AO2 SLP132 T02391022 10267 20233 56010,M
