station,valid,lon,lat,elevation,tmpf,dwpf,relh,drct,sknt,p01i,alti,mslp,vsby,gust,skyc1,skyc2,skyc3,skyc4,skyl1,skyl2,skyl3,skyl4,wxcodes,ice_accretion_1hr,ice_accretion_3hr,ice_accretion_6hr,peak_wind_gust,peak_wind_drct,peak_wind_time,feel,metar,snowdepth
05U,2024-09-21 00:10,-116.0051,39.6042,1811.23,73.40,23.00,15.03,0.00,0.00,0.00,30.03,M,10.00,M,CLR,M,M,M,M,M,M,M,M,M,M,M,M,M,M,73.40,K05U 210010Z AUTO 00000KT 10SM CLR 23/M05 A3003 RMK A01,M
BVU,2024-09-21 00:15,-114.8611,35.9475,671.00,84.20,41.00,21.76,330.00,13.00,0.00,29.75,M,10.00,M,BKN,M,M,M,10000.00,M,M,M,M,M,M,M,M,M,M,81.52,KBVU 210015Z AUTO 33013KT 10SM BKN100 29/05 A2975 RMK AO2 LTG DSNT NE AND SW,M
BAM,2024-09-21 00:15,-116.8743,40.5990,1382.36,78.80,35.60,21.00,330.00,10.00,0.00,29.98,M,10.00,M,CLR,M,M,M,M,M,M,M,M,M,M,M,M,M,M,78.80,KBAM 210015Z AUTO 33010KT 10SM CLR 26/02 A2998 RMK AO1,M
CXP,2024-09-21 00:15,-119.7326,39.1923,1431.00,75.20,33.80,22.02,0.00,0.00,0.00,30.02,M,10.00,M,CLR,M,M,M,M,M,M,M,M,M,M,M,M,M,M,75.20,KCXP 210015Z AUTO 00000KT 10SM CLR 24/01 A3002 RMK AO2,M
RTS,2024-09-21 00:15,-119.8764,39.6682,1539.00,73.40,30.20,20.23,0.00,0.00,0.00,30.03,M,10.00,M,CLR,M,M,M,M,M,M,M,M,M,M,M,M,M,M,73.40,KRTS 210015Z AUTO 00000KT 10SM CLR 23/M01 A3003 RMK AO2,M
MEV,2024-09-21 00:15,-119.7500,38.9963,1441.42,75.20,32.00,20.49,260.00,8.00,0.00,30.00,M,9.00,M,CLR,M,M,M,M,M,M,M,M,M,M,M,M,M,M,75.20,KMEV 210015Z AUTO 26008KT 9SM CLR 24/00 A3000 RMK AO2,M
HTH,2024-09-21 00:15,-118.6315,38.5448,1282.89,75.20,35.60,23.66,350.00,10.00,0.00,29.98,M,10.00,M,CLR,M,M,M,M,M,M,M,M,M,M,M,M,M,M,75.20,KHTH 210015Z AUTO 35010KT 10SM CLR 24/02 A2998 RMK A01,M
TMT,2024-09-21 00:15,-117.1971,39.4643,1749.34,69.80,41.00,35.09,340.00,10.00,0.00,30.05,M,10.00,M,CLR,M,M,M,M,M,M,M,M,M,M,M,M,M,M,69.80,KTMT 210015Z AUTO 34010KT 10SM CLR 21/05 A3005 RMK AO2 T02100051,M
10U,2024-09-21 00:15,-116.1876,41.9532,1637.00,69.80,35.60,28.39,320.00,9.00,0.00,30.03,M,10.00,M,CLR,M,M,M,M,M,M,M,M,M,M,M,M,M,M,69.80,K10U 210015Z AUTO 32009KT 10SM CLR 21/02 A3003 RMK AO2,M
LSV,2024-09-21 00:30,-115.0343,36.2362,570.00,84.20,32.00,15.25,30.00,11.00,0.00,29.73,1004.40,10.00,M,CLR,M,M,M,M,M,M,M,M,M,M,M,M,M,M,81.28,KLSV 210030Z AUTO 03011KT 10SM CLR 29/00 A2973 RMK AO2 WSHFT 22 SLP044 $,M
05U,2024-09-21 00:30,-116.0051,39.6042,1811.23,73.40,24.80,16.20,360.00,5.00,0.00,30.03,M,10.00,11.00,CLR,M,M,M,M,M,M,M,M,M,M,M,M,M,M,73.40,K05U 210030Z AUTO 36005G11KT 10SM CLR 23/M04 A3003 RMK A01,M
BVU,2024-09-21 00:35,-114.8611,35.9475,671.00,82.40,41.00,23.07,330.00,12.00,0.00,29.76,M,10.00,M,SCT,M,M,M,10000.00,M,M,M,M,M,M,M,M,M,M,80.29,KBVU 210035Z AUTO 33012KT 10SM SCT100 28/05 A2976 RMK AO2 LTG DSNT NE AND W,M
BAM,2024-09-21 00:35,-116.8743,40.5990,1382.36,77.00,35.60,22.28,330.00,10.00,0.00,29.99,M,10.00,M,CLR,M,M,M,M,M,M,M,M,M,M,M,M,M,M,77.00,KBAM 210035Z AUTO 33010KT 10SM CLR 25/02 A2999 RMK AO1,M
CXP,2024-09-21 00:35,-119.7326,39.1923,1431.00,77.00,30.20,17.94,M,3.00,0.00,30.02,M,10.00,M,CLR,M,M,M,M,M,M,M,M,M,M,M,M,M,M,77.00,KCXP 210035Z AUTO VRB03KT 10SM CLR 25/M01 A3002 RMK AO2,M
RTS,2024-09-21 00:35,-119.8764,39.6682,1539.00,75.20,30.20,19.05,M,5.00,0.00,30.03,M,10.00,M,CLR,M,M,M,M,M,M,M,M,M,M,M,M,M,M,75.20,KRTS 210035Z AUTO VRB05KT 10SM CLR 24/M01 A3003 RMK AO2,M
MEV,2024-09-21 00:35,-119.7500,38.9963,1441.42,75.20,33.80,22.02,310.00,5.00,0.00,30.00,M,10.00,M,CLR,M,M,M,M,M,M,M,M,M,M,M,M,M,M,75.20,KMEV 210035Z AUTO 31005KT 10SM CLR 24/01 A3000 RMK AO2,M
HTH,2024-09-21 00:35,-118.6315,38.5448,1282.89,75.20,35.60,23.66,330.00,9.00,0.00,29.99,M,10.00,M,M,M,M,M,M,M,M,M,M,M,M,M,M,M,M,75.20,KHTH 210035Z AUTO 33009KT 10SM 24/02 A2999 RMK A01,M
TMT,2024-09-21 00:35,-117.1971,39.4643,1749.34,69.00,41.00,36.06,320.00,11.00,0.00,30.05,M,10.00,M,CLR,M,M,M,M,M,M,M,M,M,M,M,M,M,M,69.00,KTMT 210035Z AUTO 32011KT 10SM CLR 21/05 A3005 RMK AO2 T02050049,M
10U,2024-09-21 00:35,-116.1876,41.9532,1637.00,69.80,37.40,30.49,310.00,10.00,0.00,30.03,M,10.00,M,CLR,M,M,M,M,M,M,M,M,M,M,M,M,M,M,69.80,K10U 210035Z AUTO 31010KT 10SM CLR 21/03 A3003 RMK AO2,M
05U,2024-09-21 00:50,-116.0051,39.6042,1811.23,71.60,30.20,21.50,360.00,7.00,0.00,30.03,M,10.00,14.00,CLR,M,M,M,M,M,M,M,M,M,M,M,M,M,M,71.60,K05U 210050Z AUTO 36007G14KT 10SM CLR 22/M01 A3003 RMK A01,M
P68,2024-09-21 00:53,-116.0056,39.6014,1993.00,71.00,31.00,22.67,360.00,10.00,0.00,30.00,1010.60,M,M,M,M,M,M,M,M,M,M,M,M,M,M,M,M,M,71.00,KP68 210053Z AUTO 36010KT 22/M01 A3000 RMK AO1 SLP106 T02171006,M
DRA,2024-09-21 00:53,-116.0278,36.6206,1009.00,76.00,41.00,28.47,240.00,13.00,0.00,29.88,1008.00,10.00,M,FEW,BKN,BKN,M,7500.00,9500.00,12000.00,M,M,M,M,M,M,M,M,76.00,KDRA 210053Z AUTO 24013KT 10SM FEW075 BKN095 BKN120 24/05 A2988 RMK AO2 SLP080 T02440050,M
ELY,2024-09-21 00:53,-114.8453,39.2950,1909.00,71.00,27.00,19.25,M,6.00,0.00,30.00,1008.90,10.00,M,BKN,M,M,M,11000.00,M,M,M,M,M,M,M,M,M,M,71.00,KELY 210053Z AUTO VRB06KT 10SM BKN110 22/M03 A3000 RMK AO2 SLP089 T02171028,M
VGT,2024-09-21 00:53,-115.1933,36.2111,667.00,82.00,47.00,29.39,190.00,6.00,T,29.78,1007.90,9.00,M,FEW,BKN,M,M,4700.00,10000.00,M,M,-RA,M,M,M,M,M,M,80.44,KVGT 210053Z 19006KT 9SM -RA FEW047 BKN100 28/08 A2978 RMK AO2 RAB43 SLP079 P0000 T02780083,M
LOL,2024-09-21 00:53,-118.5701,40.0684,1192.43,77.00,39.00,25.47,120.00,5.00,0.00,29.95,1012.10,10.00,M,CLR,M,M,M,M,M,M,M,M,M,M,M,M,M,M,77.00,KLOL 210053Z AUTO 12005KT 10SM CLR 25/04 A2995 RMK AO2 SLP121 T02500039,M
BVU,2024-09-21 00:55,-114.8611,35.9475,671.00,82.40,41.00,23.07,260.00,6.00,0.00,29.77,M,10.00,12.00,BKN,M,M,M,10000.00,M,M,M,M,M,M,M,M,M,M,80.29,KBVU 210055Z AUTO 26006G12KT 10SM BKN100 28/05 A2977 RMK AO2,M
RNO,2024-09-21 00:55,-119.7711,39.4839,1341.00,77.00,34.00,20.91,100.00,3.00,0.00,29.99,1011.30,10.00,M,FEW,FEW,M,M,8000.00,20000.00,M,M,M,M,M,M,M,M,M,77.00,KRNO 210055Z 10003KT 10SM FEW080 FEW200 25/01 A2999 RMK AO2 SLP113 T02500011,M
BAM,2024-09-21 00:55,-116.8743,40.5990,1382.36,77.00,35.60,22.28,340.00,11.00,0.00,29.99,M,10.00,M,CLR,M,M,M,M,M,M,M,M,M,M,M,M,M,M,77.00,KBAM 210055Z AUTO 34011KT 10SM CLR 25/02 A2999 RMK AO1,M
CXP,2024-09-21 00:55,-119.7326,39.1923,1431.00,77.00,26.60,15.48,300.00,8.00,0.00,30.01,M,10.00,M,CLR,M,M,M,M,M,M,M,M,M,M,M,M,M,M,77.00,KCXP 210055Z AUTO 30008KT 270V340 10SM CLR 25/M03 A3001 RMK AO2,M
RTS,2024-09-21 00:55,-119.8764,39.6682,1539.00,73.40,32.00,21.76,10.00,5.00,0.00,30.04,M,10.00,M,CLR,M,M,M,M,M,M,M,M,M,M,M,M,M,M,73.40,KRTS 210055Z AUTO 01005KT 10SM CLR 23/00 A3004 RMK AO2,M
MEV,2024-09-21 00:55,-119.7500,38.9963,1441.42,75.20,33.80,22.02,250.00,7.00,0.00,30.00,M,9.00,M,CLR,M,M,M,M,M,M,M,-RA,M,M,M,M,M,M,75.20,KMEV 210055Z AUTO 25007KT 9SM -RA CLR 24/01 A3000 RMK AO2,M
HTH,2024-09-21 00:55,-118.6315,38.5448,1282.89,75.20,35.60,23.66,320.00,8.00,0.00,29.99,M,10.00,M,M,M,M,M,M,M,M,M,M,M,M,M,M,M,M,75.20,KHTH 210055Z AUTO 32008KT 10SM 24/02 A2999 RMK A01,M
TMT,2024-09-21 00:55,-117.1971,39.4643,1749.34,67.60,40.50,37.11,330.00,12.00,0.00,30.06,M,10.00,M,CLR,M,M,M,M,M,M,M,M,M,M,M,M,M,M,67.60,KTMT 210055Z AUTO 33012KT 10SM CLR 20/05 A3006 RMK AO2 T01980047,M
10U,2024-09-21 00:55,-116.1876,41.9532,1637.00,69.80,37.40,30.49,340.00,10.00,0.00,30.03,M,10.00,M,CLR,M,M,M,M,M,M,M,M,M,M,M,M,M,M,69.80,K10U 210055Z AUTO 34010KT 10SM CLR 21/03 A3003 RMK AO2,M
INS,2024-09-21 00:55,-115.6733,36.5872,955.00,78.30,36.30,21.95,280.00,22.00,0.00,29.84,1006.80,10.00,M,SCT,BKN,M,M,11000.00,13000.00,M,M,M,M,M,M,M,M,M,78.30,KINS 210055Z AUTO 28022KT 10SM SCT110 BKN130 26/02 A2984 RMK AO2 SLP068 T02570024,M
LSV,2024-09-21 00:55,-115.0343,36.2362,570.00,85.60,29.00,12.91,350.00,5.00,0.00,29.71,1003.70,10.00,M,CLR,M,M,M,M,M,M,M,M,M,M,M,M,M,M,82.31,KLSV 210055Z AUTO 35005KT 10SM CLR 30/M02 A2971 RMK AO2 SLP037 T02981016 $,M
EKO,2024-09-21 00:56,-115.7860,40.8242,1367.00,76.00,34.00,21.62,280.00,9.00,0.00,29.97,1011.00,10.00,M,CLR,M,M,M,M,M,M,M,M,M,M,M,M,M,M,76.00,KEKO 210056Z AUTO 28009KT 10SM CLR 24/01 A2997 RMK AO2 SLP110 T02440011,M
WMC,2024-09-21 00:56,-117.8072,40.9019,1315.00,77.00,36.00,22.64,330.00,7.00,T,29.98,1012.00,10.00,M,CLR,M,M,M,M,M,M,M,-RA,M,M,M,M,M,M,77.00,KWMC 210056Z AUTO 33007KT 10SM -RA CLR 25/02 A2998 RMK AO2 SLP120 P0000 T02500022,M
HND,2024-09-21 00:56,-115.1344,35.9729,742.79,80.00,45.00,29.08,210.00,11.00,0.00,29.82,1009.30,10.00,M,BKN,M,M,M,11000.00,M,M,M,M,M,M,M,M,M,M,79.13,KHND 210056Z 21011KT 10SM BKN110 27/07 A2982 RMK AO2 SLP093 T02670072,M
TPH,2024-09-21 00:56,-117.0904,38.0505,1654.00,74.00,32.00,21.33,300.00,16.00,0.00,29.98,1009.70,10.00,21.00,SCT,M,M,M,11000.00,M,M,M,M,M,M,M,M,M,M,74.00,KTPH 210056Z AUTO 30016G21KT 10SM SCT110 23/00 A2998 RMK AO2 SLP097 T02330000,M
LAS,2024-09-21 00:56,-115.1634,36.0719,663.00,83.00,40.00,21.76,310.00,7.00,0.00,29.79,1006.70,10.00,M,FEW,BKN,BKN,M,8500.00,15000.00,22000.00,M,M,M,M,M,M,M,M,80.64,KLAS 210056Z 31007KT 10SM FEW085 BKN150 BKN220 28/04 A2979 RMK AO2 SLP067 CB DSNT ALQDS T02830044,M
NFL,2024-09-21 00:57,-118.7010,39.4166,1199.00,79.00,36.00,21.19,10.00,6.00,0.00,29.96,1011.80,10.00,M,FEW,SCT,M,M,6000.00,20000.00,M,M,M,M,M,M,M,M,M,79.00,KNFL 210057Z 01006KT 10SM FEW060 SCT200 26/02 A2996 RMK AO2 SLP118 T02610022,M
05U,2024-09-21 01:10,-116.0051,39.6042,1811.23,69.80,28.40,21.24,350.00,9.00,0.00,30.04,M,10.00,M,CLR,M,M,M,M,M,M,M,M,M,M,M,M,M,M,69.80,K05U 210110Z AUTO 35009KT 10SM CLR 21/M02 A3004 RMK A01,M
BVU,2024-09-21 01:15,-114.8611,35.9475,671.00,80.60,39.20,22.81,230.00,9.00,0.00,29.77,M,10.00,M,SCT,M,M,M,10000.00,M,M,M,M,M,M,M,M,M,M,79.10,KBVU 210115Z AUTO 23009KT 10SM SCT100 27/04 A2977 RMK AO2,M
CXP,2024-09-21 01:15,-119.7326,39.1923,1431.00,75.20,32.00,20.49,90.00,5.00,0.00,30.02,M,10.00,M,CLR,M,M,M,M,M,M,M,M,M,M,M,M,M,M,75.20,KCXP 210115Z AUTO 09005KT 10SM CLR 24/00 A3002 RMK AO2,M
RTS,2024-09-21 01:15,-119.8764,39.6682,1539.00,73.40,33.80,23.39,40.00,7.00,0.00,30.04,M,10.00,M,CLR,M,M,M,M,M,M,M,M,M,M,M,M,M,M,73.40,KRTS 210115Z AUTO 04007KT 10SM CLR 23/01 A3004 RMK AO2,M
MEV,2024-09-21 01:15,-119.7500,38.9963,1441.42,73.40,37.40,26.98,270.00,6.00,0.00,30.01,M,7.00,M,CLR,M,M,M,M,M,M,M,-RA,M,M,M,M,M,M,73.40,KMEV 210115Z AUTO 27006KT 7SM -RA CLR 23/03 A3001 RMK AO2,M
BAM,2024-09-21 01:15,-116.8743,40.5990,1382.36,75.20,35.60,23.66,340.00,8.00,0.00,29.99,M,10.00,M,CLR,M,M,M,M,M,M,M,M,M,M,M,M,M,M,75.20,KBAM 210115Z AUTO 34008KT 10SM CLR 24/02 A2999 RMK AO1,M
HTH,2024-09-21 01:15,-118.6315,38.5448,1282.89,73.40,39.20,28.96,320.00,8.00,0.00,29.99,M,10.00,M,CLR,M,M,M,M,M,M,M,M,M,M,M,M,M,M,73.40,KHTH 210115Z AUTO 32008KT 10SM CLR 23/04 A2999 RMK A01,M
TMT,2024-09-21 01:15,-117.1971,39.4643,1749.34,66.20,39.40,37.32,330.00,9.00,0.00,30.06,M,10.00,M,CLR,M,M,M,M,M,M,M,M,M,M,M,M,M,M,66.20,KTMT 210115Z AUTO 33009KT 10SM CLR 19/04 A3006 RMK AO2 T01900041,M
10U,2024-09-21 01:15,-116.1876,41.9532,1637.00,68.00,35.60,30.20,340.00,7.00,0.00,30.04,M,10.00,M,CLR,M,M,M,M,M,M,M,M,M,M,M,M,M,M,68.00,K10U 210115Z AUTO 34007KT 10SM CLR 20/02 A3004 RMK AO2,M
LSV,2024-09-21 01:30,-115.0343,36.2362,570.00,84.20,32.00,15.25,310.00,14.00,0.00,29.72,1004.20,10.00,19.00,FEW,SCT,M,M,15000.00,20000.00,M,M,M,M,M,M,M,M,M,81.28,KLSV 210130Z AUTO 31014G19KT 10SM FEW150 SCT200 29/M00 A2972 RMK AO2 WSHFT 28 SLP042 $,M
05U,2024-09-21 01:30,-116.0051,39.6042,1811.23,66.20,30.20,25.88,340.00,4.00,0.00,30.04,M,10.00,M,CLR,M,M,M,M,M,M,M,M,M,M,M,M,M,M,66.20,K05U 210130Z AUTO 34004KT 10SM CLR 19/M01 A3004 RMK A01,M
BVU,2024-09-21 01:35,-114.8611,35.9475,671.00,78.80,41.00,25.95,330.00,4.00,0.00,29.77,M,10.00,M,CLR,M,M,M,M,M,M,M,M,M,M,M,M,M,M,78.80,KBVU 210135Z AUTO 33004KT 10SM CLR 26/05 A2977 RMK AO2,M
BAM,2024-09-21 01:35,-116.8743,40.5990,1382.36,73.40,37.40,26.98,340.00,8.00,0.00,29.99,M,10.00,M,CLR,M,M,M,M,M,M,M,M,M,M,M,M,M,M,73.40,KBAM 210135Z AUTO 34008KT 10SM CLR 23/03 A2999 RMK AO1,M
CXP,2024-09-21 01:35,-119.7326,39.1923,1431.00,73.40,33.80,23.39,50.00,4.00,0.00,30.02,M,10.00,M,CLR,M,M,M,M,M,M,M,M,M,M,M,M,M,M,73.40,KCXP 210135Z AUTO 05004KT 10SM CLR 23/01 A3002 RMK AO2,M
RTS,2024-09-21 01:35,-119.8764,39.6682,1539.00,71.60,33.80,24.86,40.00,6.00,0.00,30.04,M,10.00,M,CLR,M,M,M,M,M,M,M,M,M,M,M,M,M,M,71.60,KRTS 210135Z AUTO 04006KT 10SM CLR 22/01 A3004 RMK AO2,M
MEV,2024-09-21 01:35,-119.7500,38.9963,1441.42,69.80,39.20,32.72,260.00,7.00,0.00,30.01,M,10.00,M,CLR,M,M,M,M,M,M,M,M,M,M,M,M,M,M,69.80,KMEV 210135Z AUTO 26007KT 10SM CLR 21/04 A3001 RMK AO2,M
HTH,2024-09-21 01:35,-118.6315,38.5448,1282.89,71.60,39.20,30.77,310.00,6.00,0.00,29.99,M,10.00,M,CLR,M,M,M,M,M,M,M,M,M,M,M,M,M,M,71.60,KHTH 210135Z AUTO 31006KT 10SM CLR 22/04 A2999 RMK A01,M
TMT,2024-09-21 01:35,-117.1971,39.4643,1749.34,64.20,39.70,40.49,330.00,6.00,0.00,30.06,M,10.00,M,CLR,M,M,M,M,M,M,M,M,M,M,M,M,M,M,64.20,KTMT 210135Z AUTO 33006KT 10SM CLR 18/04 A3006 RMK AO2 T01790043,M
10U,2024-09-21 01:35,-116.1876,41.9532,1637.00,64.40,35.60,34.22,330.00,6.00,0.00,30.04,M,10.00,M,CLR,M,M,M,M,M,M,M,M,M,M,M,M,M,M,64.40,K10U 210135Z AUTO 33006KT 10SM CLR 18/02 A3004 RMK AO2,M
05U,2024-09-21 01:50,-116.0051,39.6042,1811.23,62.60,32.00,31.56,0.00,0.00,0.00,30.05,M,10.00,M,CLR,M,M,M,M,M,M,M,M,M,M,M,M,M,M,62.60,K05U 210150Z AUTO 00000KT 10SM CLR 17/M00 A3005 RMK A01,M
P68,2024-09-21 01:53,-116.0056,39.6014,1993.00,62.00,32.00,32.24,330.00,7.00,0.00,30.02,1012.10,M,M,M,M,M,M,M,M,M,M,M,M,M,M,M,M,M,62.00,KP68 210153Z AUTO 33007KT 17/00 A3002 RMK AO1 SLP121 T01670000,M
DRA,2024-09-21 01:53,-116.0278,36.6206,1009.00,73.00,41.00,31.47,200.00,8.00,0.00,29.86,1007.50,10.00,M,FEW,M,M,M,11000.00,M,M,M,M,M,M,M,M,M,M,73.00,KDRA 210153Z AUTO 20008KT 10SM FEW110 23/05 A2986 RMK AO2 SLP075 T02280050,M
ELY,2024-09-21 01:53,-114.8453,39.2950,1909.00,64.00,27.00,24.51,320.00,6.00,0.00,30.01,1010.20,10.00,M,CLR,M,M,M,M,M,M,M,M,M,M,M,M,M,M,64.00,KELY 210153Z AUTO 32006KT 10SM CLR 18/M03 A3001 RMK AO2 SLP102 T01781028,M
VGT,2024-09-21 01:53,-115.1933,36.2111,667.00,81.00,45.00,28.15,220.00,3.00,T,29.78,1008.00,10.00,M,CLR,M,M,M,M,M,M,M,M,M,M,M,M,M,M,79.68,KVGT 210153Z 22003KT 10SM CLR 27/07 A2978 RMK AO2 LTG DSNT NW RAE04 SLP080 P0000 T02720072,M
LOL,2024-09-21 01:53,-118.5701,40.0684,1192.43,72.00,42.00,33.84,130.00,4.00,0.00,29.95,1012.40,10.00,M,CLR,M,M,M,M,M,M,M,M,M,M,M,M,M,M,72.00,KLOL 210153Z AUTO 13004KT 10SM CLR 22/06 A2995 RMK AO2 SLP124 T02220056,M
BVU,2024-09-21 01:55,-114.8611,35.9475,671.00,78.80,41.00,25.95,360.00,4.00,0.00,29.78,M,10.00,M,CLR,M,M,M,M,M,M,M,M,M,M,M,M,M,M,78.80,KBVU 210155Z AUTO 36004KT 10SM CLR 26/05 A2978 RMK AO2,M
RNO,2024-09-21 01:55,-119.7711,39.4839,1341.00,76.00,34.00,21.62,30.00,6.00,0.00,30.00,1011.80,10.00,M,FEW,M,M,M,20000.00,M,M,M,M,M,M,M,M,M,M,76.00,KRNO 210155Z 03006KT 10SM FEW200 24/01 A3000 RMK AO2 SLP118 T02440011,M
BAM,2024-09-21 01:55,-116.8743,40.5990,1382.36,71.60,37.40,28.68,340.00,7.00,0.00,29.99,M,10.00,M,CLR,M,M,M,M,M,M,M,M,M,M,M,M,M,M,71.60,KBAM 210155Z AUTO 34007KT 10SM CLR 22/03 A2999 RMK AO1,M
CXP,2024-09-21 01:55,-119.7326,39.1923,1431.00,71.60,37.40,28.68,0.00,0.00,0.00,30.02,M,10.00,M,CLR,M,M,M,M,M,M,M,M,M,M,M,M,M,M,71.60,KCXP 210155Z AUTO 00000KT 10SM CLR 22/03 A3002 RMK AO2,M
RTS,2024-09-21 01:55,-119.8764,39.6682,1539.00,69.80,33.80,26.43,60.00,6.00,0.00,30.04,M,10.00,M,CLR,M,M,M,M,M,M,M,M,M,M,M,M,M,M,69.80,KRTS 210155Z AUTO 06006KT 10SM CLR 21/01 A3004 RMK AO2,M
MEV,2024-09-21 01:55,-119.7500,38.9963,1441.42,68.00,37.40,32.43,270.00,5.00,0.00,30.01,M,10.00,M,CLR,M,M,M,M,M,M,M,M,M,M,M,M,M,M,68.00,KMEV 210155Z AUTO 27005KT 10SM CLR 20/03 A3001 RMK AO2,M
HTH,2024-09-21 01:55,-118.6315,38.5448,1282.89,69.80,41.00,35.09,300.00,6.00,0.00,30.00,M,10.00,M,CLR,M,M,M,M,M,M,M,M,M,M,M,M,M,M,69.80,KHTH 210155Z AUTO 30006KT 10SM CLR 21/05 A3000 RMK A01,M
TMT,2024-09-21 01:55,-117.1971,39.4643,1749.34,60.60,40.50,47.42,320.00,5.00,0.00,30.07,M,10.00,M,CLR,M,M,M,M,M,M,M,M,M,M,M,M,M,M,60.60,KTMT 210155Z AUTO 32005KT 10SM CLR 16/05 A3007 RMK AO2 T01590047,M
10U,2024-09-21 01:55,-116.1876,41.9532,1637.00,60.80,37.40,41.71,360.00,6.00,0.00,30.05,M,10.00,M,CLR,M,M,M,M,M,M,M,M,M,M,M,M,M,M,60.80,K10U 210155Z AUTO 36006KT 10SM CLR 16/03 A3005 RMK AO2,M
INS,2024-09-21 01:55,-115.6733,36.5872,955.00,75.60,38.30,25.97,190.00,3.00,0.00,29.88,1008.40,10.00,M,SCT,BKN,OVC,M,9000.00,11000.00,13000.00,M,M,M,M,M,M,M,M,75.60,KINS 210155Z AUTO 19003KT 10SM SCT090 BKN110 OVC130 24/04 A2988 RMK AO2 LTG DSNT NE SLP084 T02420035,M
LSV,2024-09-21 01:55,-115.0343,36.2362,570.00,84.00,29.50,13.87,290.00,7.00,0.00,29.73,1004.50,10.00,M,CLR,M,M,M,M,M,M,M,M,M,M,M,M,M,M,81.11,KLSV 210155Z AUTO 29007KT 10SM CLR 29/M01 A2973 RMK AO2 SLP045 T02881014 $,M
EKO,2024-09-21 01:56,-115.7860,40.8242,1367.00,70.00,35.00,27.54,270.00,5.00,0.00,29.98,1012.00,10.00,M,FEW,M,M,M,10000.00,M,M,M,M,M,M,M,M,M,M,70.00,KEKO 210156Z AUTO 27005KT 10SM FEW100 21/02 A2998 RMK AO2 SLP120 T02110017,M
WMC,2024-09-21 01:56,-117.8072,40.9019,1315.00,71.00,39.00,31.16,10.00,5.00,T,29.98,1012.60,10.00,M,CLR,M,M,M,M,M,M,M,-RA,M,M,M,M,M,M,71.00,KWMC 210156Z AUTO 01005KT 10SM -RA CLR 22/04 A2998 RMK AO2 SLP126 P0000 T02170039,M
HND,2024-09-21 01:56,-115.1344,35.9729,742.79,77.00,51.00,40.21,230.00,6.00,T,29.82,1009.20,10.00,M,FEW,SCT,BKN,M,3200.00,4600.00,10000.00,M,-RA,M,M,M,M,M,M,77.00,KHND 210156Z 23006KT 10SM -RA FEW032 SCT046 BKN100 25/11 A2982 RMK AO2 LTG DSNT NW RAB46 SLP092 P0000 T02500106,M
TPH,2024-09-21 01:56,-117.0904,38.0505,1654.00,71.00,35.00,26.62,310.00,14.00,0.00,29.99,1010.30,10.00,25.00,FEW,M,M,M,11000.00,M,M,M,M,M,M,M,M,M,M,71.00,KTPH 210156Z AUTO 31014G25KT 10SM FEW110 22/02 A2999 RMK AO2 SLP103 T02170017,M
LAS,2024-09-21 01:56,-115.1634,36.0719,663.00,82.00,39.00,21.62,300.00,4.00,0.00,29.79,1006.60,10.00,M,FEW,BKN,BKN,M,8500.00,15000.00,22000.00,M,M,M,M,M,M,M,M,79.94,KLAS 210156Z 30004KT 10SM FEW085 BKN150 BKN220 28/04 A2979 RMK AO2 LTG DSNT NW SLP066 CB DSNT ALQDS T02780039,M
NFL,2024-09-21 01:57,-118.7010,39.4166,1199.00,74.00,38.00,27.08,50.00,3.00,0.00,29.97,1011.90,10.00,M,FEW,FEW,M,M,6000.00,20000.00,M,M,M,M,M,M,M,M,M,74.00,KNFL 210157Z COR 05003KT 10SM FEW060 FEW200 23/03 A2997 RMK SLP119 T02330033,M
05U,2024-09-21 02:10,-116.0051,39.6042,1811.23,59.00,32.00,35.87,0.00,0.00,0.00,30.05,M,10.00,M,CLR,M,M,M,M,M,M,M,M,M,M,M,M,M,M,59.00,K05U 210210Z AUTO 00000KT 10SM CLR 15/M00 A3005 RMK A01,M
BVU,2024-09-21 02:15,-114.8611,35.9475,671.00,78.80,39.20,24.19,20.00,3.00,0.00,29.77,M,10.00,M,CLR,M,M,M,M,M,M,M,M,M,M,M,M,M,M,78.80,KBVU 210215Z AUTO 02003KT 10SM CLR 26/04 A2977 RMK AO2,M
CXP,2024-09-21 02:15,-119.7326,39.1923,1431.00,69.80,35.60,28.39,330.00,6.00,0.00,30.03,M,6.00,M,CLR,M,M,M,M,M,M,M,HZ,M,M,M,M,M,M,69.80,KCXP 210215Z AUTO 33006KT 6SM HZ CLR 21/02 A3003 RMK AO2,M
RTS,2024-09-21 02:15,-119.8764,39.6682,1539.00,68.00,32.00,26.15,50.00,7.00,0.00,30.05,M,10.00,M,CLR,M,M,M,M,M,M,M,M,M,M,M,M,M,M,68.00,KRTS 210215Z AUTO 05007KT 10SM CLR 20/00 A3005 RMK AO2,M
MEV,2024-09-21 02:15,-119.7500,38.9963,1441.42,64.40,41.00,42.28,0.00,0.00,0.00,30.01,M,10.00,M,CLR,M,M,M,M,M,M,M,M,M,M,M,M,M,M,64.40,KMEV 210215Z AUTO 00000KT 10SM CLR 18/05 A3001 RMK AO2,M
BAM,2024-09-21 02:15,-116.8743,40.5990,1382.36,69.80,37.40,30.49,330.00,9.00,0.00,30.00,M,10.00,M,CLR,M,M,M,M,M,M,M,M,M,M,M,M,M,M,69.80,KBAM 210215Z AUTO 33009KT 10SM CLR 21/03 A3000 RMK AO1,M
HTH,2024-09-21 02:15,-118.6315,38.5448,1282.89,69.80,39.20,32.72,270.00,5.00,0.00,30.00,M,10.00,M,CLR,M,M,M,M,M,M,M,M,M,M,M,M,M,M,69.80,KHTH 210215Z AUTO 27005KT 10SM CLR 21/04 A3000 RMK A01,M
TMT,2024-09-21 02:15,-117.1971,39.4643,1749.34,58.60,40.60,51.12,0.00,0.00,0.00,30.08,M,10.00,M,CLR,M,M,M,M,M,M,M,M,M,M,M,M,M,M,58.60,KTMT 210215Z AUTO 00000KT 10SM CLR 15/05 A3008 RMK AO2 T01480048,M
10U,2024-09-21 02:15,-116.1876,41.9532,1637.00,59.00,35.60,41.42,350.00,7.00,0.00,30.05,M,10.00,M,CLR,M,M,M,M,M,M,M,M,M,M,M,M,M,M,59.00,K10U 210215Z AUTO 35007KT 10SM CLR 15/02 A3005 RMK AO2,M
05U,2024-09-21 02:30,-116.0051,39.6042,1811.23,57.20,33.80,41.13,0.00,0.00,0.00,30.06,M,10.00,M,CLR,M,M,M,M,M,M,M,M,M,M,M,M,M,M,57.20,K05U 210230Z AUTO 00000KT 10SM CLR 14/01 A3006 RMK A01,M
BVU,2024-09-21 02:35,-114.8611,35.9475,671.00,75.20,41.00,29.23,0.00,0.00,0.00,29.77,M,10.00,M,CLR,M,M,M,M,M,M,M,M,M,M,M,M,M,M,75.20,KBVU 210235Z AUTO 00000KT 10SM CLR 24/05 A2977 RMK AO2,M
CXP,2024-09-21 02:35,-119.7326,39.1923,1431.00,68.00,35.60,30.20,340.00,6.00,0.00,30.03,M,10.00,M,CLR,M,M,M,M,M,M,M,M,M,M,M,M,M,M,68.00,KCXP 210235Z AUTO 34006KT 10SM CLR 20/02 A3003 RMK AO2,M
RTS,2024-09-21 02:35,-119.8764,39.6682,1539.00,66.20,33.80,29.92,40.00,5.00,0.00,30.05,M,10.00,M,CLR,M,M,M,M,M,M,M,M,M,M,M,M,M,M,66.20,KRTS 210235Z AUTO 04005KT 10SM CLR 19/01 A3005 RMK AO2,M
MEV,2024-09-21 02:35,-119.7500,38.9963,1441.42,57.20,44.60,62.69,120.00,3.00,0.00,30.02,M,10.00,M,CLR,M,M,M,M,M,M,M,M,M,M,M,M,M,M,57.20,KMEV 210235Z AUTO 12003KT 10SM CLR 14/07 A3002 RMK AO2,M
BAM,2024-09-21 02:35,-116.8743,40.5990,1382.36,68.00,37.40,32.43,340.00,7.00,0.00,30.01,M,10.00,M,CLR,M,M,M,M,M,M,M,M,M,M,M,M,M,M,68.00,KBAM 210235Z AUTO 34007KT 10SM CLR 20/03 A3001 RMK AO1,M
HTH,2024-09-21 02:35,-118.6315,38.5448,1282.89,68.00,41.00,37.32,240.00,4.00,0.00,30.00,M,10.00,M,CLR,M,M,M,M,M,M,M,M,M,M,M,M,M,M,68.00,KHTH 210235Z AUTO 24004KT 10SM CLR 20/05 A3000 RMK A01,M
TMT,2024-09-21 02:35,-117.1971,39.4643,1749.34,56.70,40.00,53.48,0.00,0.00,0.00,30.08,M,10.00,M,CLR,M,M,M,M,M,M,M,M,M,M,M,M,M,M,56.70,KTMT 210235Z AUTO 00000KT 10SM CLR 14/05 A3008 RMK AO2 T01370045,M
10U,2024-09-21 02:35,-116.1876,41.9532,1637.00,57.20,37.40,47.44,350.00,6.00,0.00,30.06,M,10.00,M,CLR,M,M,M,M,M,M,M,M,M,M,M,M,M,M,57.20,K10U 210235Z AUTO 35006KT 10SM CLR 14/03 A3006 RMK AO2,M
05U,2024-09-21 02:50,-116.0051,39.6042,1811.23,55.40,33.80,43.90,0.00,0.00,0.00,30.07,M,10.00,M,CLR,M,M,M,M,M,M,M,M,M,M,M,M,M,M,55.40,K05U 210250Z AUTO 00000KT 10SM CLR 13/01 A3007 RMK A01,M
P68,2024-09-21 02:53,-116.0056,39.6014,1993.00,57.00,35.00,43.46,50.00,6.00,0.00,30.04,1012.40,M,M,M,M,M,M,M,M,M,M,M,M,M,M,M,M,M,57.00,KP68 210253Z AUTO 05006KT 14/02 A3004 RMK AO1 SLP124 T01390017 53013,M
DRA,2024-09-21 02:53,-116.0278,36.6206,1009.00,71.00,41.00,33.68,80.00,5.00,0.00,29.90,1008.50,10.00,M,FEW,M,M,M,12000.00,M,M,M,M,M,M,M,M,M,M,71.00,KDRA 210253Z AUTO 08005KT 10SM FEW120 22/05 A2990 RMK AO2 SLP085 T02170050 53016,M
ELY,2024-09-21 02:53,-114.8453,39.2950,1909.00,57.00,26.00,30.16,210.00,5.00,0.00,30.03,1011.10,4.00,M,CLR,M,M,M,M,M,M,M,HZ,M,M,M,M,M,M,57.00,KELY 210253Z AUTO 21005KT 4SM HZ CLR 14/M03 A3003 RMK AO2 SLP111 T01391033 53010,M
VGT,2024-09-21 02:53,-115.1933,36.2111,667.00,79.00,40.00,24.79,340.00,12.00,0.00,29.79,1008.20,10.00,18.00,CLR,M,M,M,M,M,M,M,M,M,M,M,M,M,M,79.00,KVGT 210253Z 34012G18KT 10SM CLR 26/04 A2979 RMK AO2 SLP082 60000 T02610044 51008,M
LOL,2024-09-21 02:53,-118.5701,40.0684,1192.43,68.00,43.00,40.31,0.00,0.00,0.00,29.96,1012.40,10.00,M,CLR,M,M,M,M,M,M,M,M,M,M,M,M,M,M,68.00,KLOL 210253Z AUTO 00000KT 10SM CLR 20/06 A2996 RMK AO2 SLP124 T02000061 53004,M
BVU,2024-09-21 02:55,-114.8611,35.9475,671.00,77.00,41.00,27.53,0.00,0.00,0.00,29.78,M,10.00,M,CLR,M,M,M,M,M,M,M,M,M,M,M,M,M,M,77.00,KBVU 210255Z AUTO 00000KT 10SM CLR 25/05 A2978 RMK AO2,M
RNO,2024-09-21 02:55,-119.7711,39.4839,1341.00,71.00,36.00,27.69,10.00,4.00,0.00,30.01,1012.30,10.00,M,FEW,M,M,M,20000.00,M,M,M,M,M,M,M,M,M,M,71.00,KRNO 210255Z 01004KT 10SM FEW200 22/02 A3001 RMK AO2 SLP123 T02170022 53006,M
CXP,2024-09-21 02:55,-119.7326,39.1923,1431.00,68.00,33.80,28.11,350.00,4.00,0.00,30.04,M,10.00,M,CLR,M,M,M,M,M,M,M,M,M,M,M,M,M,M,68.00,KCXP 210255Z AUTO 35004KT 10SM CLR 20/01 A3004 RMK AO2,M
RTS,2024-09-21 02:55,-119.8764,39.6682,1539.00,62.60,33.80,33.93,280.00,3.00,0.00,30.05,M,10.00,M,CLR,M,M,M,M,M,M,M,M,M,M,M,M,M,M,62.60,KRTS 210255Z AUTO 28003KT 10SM CLR 17/01 A3005 RMK AO2,M
MEV,2024-09-21 02:55,-119.7500,38.9963,1441.42,57.20,44.60,62.69,120.00,4.00,0.00,30.02,M,10.00,M,CLR,M,M,M,M,M,M,M,M,M,M,M,M,M,M,57.20,KMEV 210255Z AUTO 12004KT 10SM CLR 14/07 A3002 RMK AO2,M
BAM,2024-09-21 02:55,-116.8743,40.5990,1382.36,64.40,37.40,36.74,330.00,5.00,0.00,30.01,M,10.00,M,CLR,M,M,M,M,M,M,M,M,M,M,M,M,M,M,64.40,KBAM 210255Z AUTO 33005KT 10SM CLR 18/03 A3001 RMK AO1,M
HTH,2024-09-21 02:55,-118.6315,38.5448,1282.89,66.20,39.20,37.03,230.00,3.00,0.00,30.01,M,10.00,M,CLR,M,M,M,M,M,M,M,M,M,M,M,M,M,M,66.20,KHTH 210255Z AUTO 23003KT 10SM CLR 19/04 A3001 RMK A01,M
TMT,2024-09-21 02:55,-117.1971,39.4643,1749.34,51.00,40.60,67.43,90.00,4.00,0.00,30.09,M,10.00,M,CLR,M,M,M,M,M,M,M,M,M,M,M,M,M,M,51.00,KTMT 210255Z AUTO 09004KT 10SM CLR 11/05 A3009 RMK AO2 T01050048,M
10U,2024-09-21 02:55,-116.1876,41.9532,1637.00,55.40,37.40,50.64,0.00,0.00,0.00,30.07,M,10.00,M,CLR,M,M,M,M,M,M,M,M,M,M,M,M,M,M,55.40,K10U 210255Z AUTO 00000KT 10SM CLR 13/03 A3007 RMK AO2,M
INS,2024-09-21 02:55,-115.6733,36.5872,955.00,75.20,39.00,27.05,0.00,0.00,0.00,29.88,1008.40,10.00,M,BKN,OVC,M,M,11000.00,15000.00,M,M,M,M,M,M,M,M,M,75.20,KINS 210255Z AUTO 00000KT 10SM BKN110 OVC150 24/04 A2988 RMK AO2 SLP084 T02400038 51023,M
LSV,2024-09-21 02:55,-115.0343,36.2362,570.00,82.00,34.00,17.74,340.00,16.00,0.00,29.75,1005.20,10.00,M,SCT,M,M,M,13000.00,M,M,M,M,M,M,M,M,M,M,79.77,KLSV 210255Z AUTO 34016KT 10SM SCT130 28/01 A2975 RMK AO2 SLP052 T02770012 53011 $,M
EKO,2024-09-21 02:56,-115.7860,40.8242,1367.00,60.00,38.00,43.94,220.00,3.00,0.00,30.00,1013.20,10.00,M,CLR,M,M,M,M,M,M,M,M,M,M,M,M,M,M,60.00,KEKO 210256Z AUTO 22003KT 10SM CLR 16/03 A3000 RMK AO2 SLP132 T01560033 53013,M
WMC,2024-09-21 02:56,-117.8072,40.9019,1315.00,58.00,42.00,55.14,0.00,0.00,T,29.99,1013.40,10.00,M,CLR,M,M,M,M,M,M,M,-RA,M,M,M,M,M,M,58.00,KWMC 210256Z AUTO 00000KT 10SM -RA CLR 14/06 A2999 RMK AO2 SLP134 P0000 60000 T01440056 53005,M
HND,2024-09-21 02:56,-115.1344,35.9729,742.79,73.00,48.00,41.10,190.00,8.00,T,29.83,1009.70,10.00,M,CLR,M,M,M,M,M,M,M,M,M,M,M,M,M,M,73.00,KHND 210256Z 19008KT 10SM CLR 23/09 A2983 RMK AO2 RAE04 SLP097 P0000 60000 T02280089 52007,M
TPH,2024-09-21 02:56,-117.0904,38.0505,1654.00,68.00,36.00,30.69,300.00,18.00,0.00,29.99,1010.20,10.00,27.00,CLR,M,M,M,M,M,M,M,M,M,M,M,28.00,310.00,2024-09-21 02:46,68.00,KTPH 210256Z AUTO 30018G27KT 10SM CLR 20/02 A2999 RMK AO2 PK WND 31028/0246 SLP102 T02000022 53006,M
LAS,2024-09-21 02:56,-115.1634,36.0719,663.00,81.00,37.00,20.65,350.00,8.00,0.00,29.80,1006.80,10.00,M,FEW,SCT,BKN,M,8500.00,15000.00,22000.00,M,M,M,M,M,M,M,M,79.24,KLAS 210256Z 35008KT 10SM FEW085 SCT150 BKN220 27/03 A2980 RMK AO2 SLP068 T02720028 51006,M
NFL,2024-09-21 02:57,-118.7010,39.4166,1199.00,68.00,44.00,41.88,200.00,3.00,0.00,29.97,1012.10,10.00,M,CLR,M,M,M,M,M,M,M,M,M,M,M,M,M,M,68.00,KNFL 210257Z 20003KT 10SM CLR 20/07 A2997 RMK AO2 SLP121 T02000067 53003,M
05U,2024-09-21 03:10,-116.0051,39.6042,1811.23,53.60,33.80,46.88,0.00,0.00,0.00,30.08,M,10.00,M,CLR,M,M,M,M,M,M,M,M,M,M,M,M,M,M,53.60,K05U 210310Z AUTO 00000KT 10SM CLR 12/01 A3008 RMK A01,M
BVU,2024-09-21 03:15,-114.8611,35.9475,671.00,77.00,42.80,29.51,0.00,0.00,0.00,29.79,M,10.00,M,CLR,M,M,M,M,M,M,M,VCTS,M,M,M,M,M,M,77.00,KBVU 210315Z AUTO 00000KT 10SM VCTS CLR 25/06 A2979 RMK AO2 LTG DSNT SE,M
BAM,2024-09-21 03:15,-116.8743,40.5990,1382.36,64.40,37.40,36.74,340.00,7.00,0.00,30.01,M,10.00,M,CLR,M,M,M,M,M,M,M,M,M,M,M,M,M,M,64.40,KBAM 210315Z AUTO 34007KT 10SM CLR 18/03 A3001 RMK AO1,M
CXP,2024-09-21 03:15,-119.7326,39.1923,1431.00,68.00,35.60,30.20,0.00,0.00,0.00,30.04,M,9.00,M,CLR,M,M,M,M,M,M,M,M,M,M,M,M,M,M,68.00,KCXP 210315Z AUTO 00000KT 9SM CLR 20/02 A3004 RMK AO2,M
RTS,2024-09-21 03:15,-119.8764,39.6682,1539.00,64.40,32.00,29.63,230.00,4.00,0.00,30.06,M,10.00,M,CLR,M,M,M,M,M,M,M,M,M,M,M,M,M,M,64.40,KRTS 210315Z AUTO 23004KT 10SM CLR 18/00 A3006 RMK AO2,M
MEV,2024-09-21 03:15,-119.7500,38.9963,1441.42,55.40,42.80,62.46,110.00,6.00,0.00,30.02,M,10.00,M,FEW,M,M,M,5000.00,M,M,M,M,M,M,M,M,M,M,55.40,KMEV 210315Z AUTO 11006KT 10SM FEW050 13/06 A3002 RMK AO2,M
HTH,2024-09-21 03:15,-118.6315,38.5448,1282.89,68.00,37.40,32.43,0.00,0.00,0.00,30.01,M,10.00,M,CLR,M,M,M,M,M,M,M,M,M,M,M,M,M,M,68.00,KHTH 210315Z AUTO 00000KT 10SM CLR 20/03 A3001 RMK A01,M
TMT,2024-09-21 03:15,-117.1971,39.4643,1749.34,57.60,39.00,49.79,0.00,0.00,0.00,30.09,M,10.00,M,CLR,M,M,M,M,M,M,M,M,M,M,M,M,M,M,57.60,KTMT 210315Z AUTO 00000KT 10SM CLR 14/04 A3009 RMK AO2 T01420039,M
10U,2024-09-21 03:15,-116.1876,41.9532,1637.00,53.60,35.60,50.36,340.00,6.00,0.00,30.07,M,10.00,M,CLR,M,M,M,M,M,M,M,M,M,M,M,M,M,M,53.60,K10U 210315Z AUTO 34006KT 10SM CLR 12/02 A3007 RMK AO2,M
05U,2024-09-21 03:30,-116.0051,39.6042,1811.23,51.80,33.80,50.08,0.00,0.00,0.00,30.09,M,10.00,M,CLR,M,M,M,M,M,M,M,M,M,M,M,M,M,M,51.80,K05U 210330Z AUTO 00000KT 10SM CLR 11/01 A3009 RMK A01,M
BVU,2024-09-21 03:35,-114.8611,35.9475,671.00,75.20,44.60,33.57,20.00,4.00,0.00,29.80,M,10.00,M,CLR,M,M,M,M,M,M,M,M,M,M,M,M,M,M,75.20,KBVU 210335Z AUTO 02004KT 10SM CLR 24/07 A2980 RMK AO2,M
CXP,2024-09-21 03:35,-119.7326,39.1923,1431.00,62.60,41.00,45.04,0.00,0.00,0.00,30.05,M,10.00,M,CLR,M,M,M,M,M,M,M,M,M,M,M,M,M,M,62.60,KCXP 210335Z AUTO 00000KT 10SM CLR 17/05 A3005 RMK AO2,M
RTS,2024-09-21 03:35,-119.8764,39.6682,1539.00,62.60,33.80,33.93,0.00,0.00,0.00,30.06,M,10.00,M,CLR,M,M,M,M,M,M,M,M,M,M,M,M,M,M,62.60,KRTS 210335Z AUTO 00000KT 10SM CLR 17/01 A3006 RMK AO2,M
MEV,2024-09-21 03:35,-119.7500,38.9963,1441.42,51.80,42.80,71.26,120.00,7.00,0.00,30.03,M,10.00,M,CLR,M,M,M,M,M,M,M,M,M,M,M,M,M,M,51.80,KMEV 210335Z AUTO 12007KT 10SM CLR 11/06 A3003 RMK AO2,M
BAM,2024-09-21 03:35,-116.8743,40.5990,1382.36,64.40,35.60,34.22,340.00,6.00,0.00,30.02,M,10.00,M,CLR,M,M,M,M,M,M,M,M,M,M,M,M,M,M,64.40,KBAM 210335Z AUTO 34006KT 10SM CLR 18/02 A3002 RMK AO1,M
HTH,2024-09-21 03:35,-118.6315,38.5448,1282.89,66.20,41.00,39.72,0.00,0.00,0.00,30.02,M,10.00,M,CLR,M,M,M,M,M,M,M,M,M,M,M,M,M,M,66.20,KHTH 210335Z AUTO 00000KT 10SM CLR 19/05 A3002 RMK A01,M
TMT,2024-09-21 03:35,-117.1971,39.4643,1749.34,54.50,39.20,56.15,0.00,0.00,0.00,30.10,M,10.00,M,CLR,M,M,M,M,M,M,M,M,M,M,M,M,M,M,54.50,KTMT 210335Z AUTO 00000KT 10SM CLR 13/04 A3010 RMK AO2 T01250040,M
10U,2024-09-21 03:35,-116.1876,41.9532,1637.00,51.80,35.60,53.81,10.00,5.00,0.00,30.09,M,10.00,M,CLR,M,M,M,M,M,M,M,M,M,M,M,M,M,M,51.80,K10U 210335Z AUTO 01005KT 10SM CLR 11/02 A3009 RMK AO2,M
05U,2024-09-21 03:50,-116.0051,39.6042,1811.23,53.60,32.00,43.61,0.00,0.00,0.00,30.10,M,10.00,M,CLR,M,M,M,M,M,M,M,M,M,M,M,M,M,M,53.60,K05U 210350Z AUTO 00000KT 10SM CLR 12/00 A3010 RMK A01,M
P68,2024-09-21 03:53,-116.0056,39.6014,1993.00,52.00,33.00,48.15,180.00,5.00,0.00,30.07,1013.00,M,M,M,M,M,M,M,M,M,M,M,M,M,M,M,M,M,52.00,KP68 210353Z AUTO 18005KT 11/01 A3007 RMK AO1 SLP130 T01110006,M
DRA,2024-09-21 03:53,-116.0278,36.6206,1009.00,69.00,40.00,34.69,0.00,0.00,0.00,29.89,1008.10,10.00,M,CLR,M,M,M,M,M,M,M,M,M,M,M,M,M,M,69.00,KDRA 210353Z AUTO 00000KT 10SM CLR 21/04 A2989 RMK AO2 SLP081 T02060044,M
ELY,2024-09-21 03:53,-114.8453,39.2950,1909.00,52.00,27.00,37.72,210.00,8.00,0.00,30.05,1011.10,10.00,M,SCT,M,M,M,11000.00,M,M,M,M,M,M,M,M,M,M,52.00,KELY 210353Z AUTO 21008KT 10SM SCT110 11/M03 A3005 RMK AO2 SLP111 T01111028,M
VGT,2024-09-21 03:53,-115.1933,36.2111,667.00,79.00,40.00,24.79,310.00,7.00,0.00,29.81,1009.00,10.00,M,CLR,M,M,M,M,M,M,M,M,M,M,M,M,M,M,79.00,KVGT 210353Z AUTO 31007KT 10SM CLR 26/04 A2981 RMK AO2 SLP090 T02610044,M
LOL,2024-09-21 03:53,-118.5701,40.0684,1192.43,63.00,43.00,47.97,70.00,5.00,0.00,29.98,1013.00,10.00,M,CLR,M,M,M,M,M,M,M,M,M,M,M,M,M,M,63.00,KLOL 210353Z AUTO 07005KT 10SM CLR 17/06 A2998 RMK AO2 SLP130 T01720061,M
BVU,2024-09-21 03:55,-114.8611,35.9475,671.00,78.80,35.60,21.00,320.00,9.00,0.00,29.81,M,10.00,14.00,CLR,M,M,M,M,M,M,M,M,M,M,M,M,M,M,78.80,KBVU 210355Z AUTO 32009G14KT 10SM CLR 26/02 A2981 RMK AO2 LTG DSNT NE AND SE,M
RNO,2024-09-21 03:55,-119.7711,39.4839,1341.00,68.00,38.00,33.20,280.00,6.00,0.00,30.03,1012.90,10.00,M,FEW,M,M,M,20000.00,M,M,M,M,M,M,M,M,M,M,68.00,KRNO 210355Z 28006KT 10SM FEW200 20/03 A3003 RMK AO2 SLP129 T02000033,M
BAM,2024-09-21 03:55,-116.8743,40.5990,1382.36,64.40,35.60,34.22,340.00,5.00,0.00,30.03,M,10.00,M,CLR,M,M,M,M,M,M,M,M,M,M,M,M,M,M,64.40,KBAM 210355Z AUTO 34005KT 10SM CLR 18/02 A3003 RMK AO1,M
CXP,2024-09-21 03:55,-119.7326,39.1923,1431.00,62.60,39.20,42.00,0.00,0.00,0.00,30.06,M,10.00,M,CLR,M,M,M,M,M,M,M,M,M,M,M,M,M,M,62.60,KCXP 210355Z AUTO 00000KT 10SM CLR 17/04 A3006 RMK AO2,M
RTS,2024-09-21 03:55,-119.8764,39.6682,1539.00,57.20,35.60,44.19,350.00,3.00,0.00,30.07,M,10.00,M,CLR,M,M,M,M,M,M,M,M,M,M,M,M,M,M,57.20,KRTS 210355Z AUTO 35003KT 10SM CLR 14/02 A3007 RMK AO2,M
MEV,2024-09-21 03:55,-119.7500,38.9963,1441.42,53.60,42.80,66.70,90.00,6.00,0.00,30.04,M,10.00,M,FEW,M,M,M,4200.00,M,M,M,M,M,M,M,M,M,M,53.60,KMEV 210355Z AUTO 09006KT 10SM FEW042 12/06 A3004 RMK AO2,M
HTH,2024-09-21 03:55,-118.6315,38.5448,1282.89,62.60,42.80,48.28,190.00,4.00,0.00,30.02,M,10.00,M,CLR,M,M,M,M,M,M,M,M,M,M,M,M,M,M,62.60,KHTH 210355Z AUTO 19004KT 10SM CLR 17/06 A3002 RMK A01,M
TMT,2024-09-21 03:55,-117.1971,39.4643,1749.34,48.60,39.60,70.92,0.00,0.00,0.00,30.10,M,10.00,M,CLR,M,M,M,M,M,M,M,M,M,M,M,M,M,M,48.60,KTMT 210355Z AUTO 00000KT 10SM CLR 09/04 A3010 RMK AO2 T00920042,M
10U,2024-09-21 03:55,-116.1876,41.9532,1637.00,51.80,35.60,53.81,340.00,4.00,0.00,30.10,M,10.00,M,CLR,M,M,M,M,M,M,M,M,M,M,M,M,M,M,51.80,K10U 210355Z AUTO 34004KT 10SM CLR 11/02 A3010 RMK AO2,M
INS,2024-09-21 03:55,-115.6733,36.5872,955.00,71.20,36.50,28.05,270.00,4.00,0.00,29.88,1008.20,10.00,M,SCT,SCT,M,M,14000.00,17000.00,M,M,M,M,M,M,M,M,M,71.20,KINS 210355Z AUTO 27004KT 10SM SCT140 SCT170 22/03 A2988 RMK AO2 SLP082 T02180025,M
LSV,2024-09-21 03:55,-115.0343,36.2362,570.00,80.40,39.20,22.96,90.00,3.00,0.00,29.77,1005.80,10.00,M,SCT,M,M,M,14000.00,M,M,M,M,M,M,M,M,M,M,78.99,KLSV 210355Z AUTO 09003KT 10SM SCT140 27/04 A2977 RMK AO2 SLP058 T02690040 $,M
EKO,2024-09-21 03:56,-115.7860,40.8242,1367.00,58.00,37.00,45.38,210.00,5.00,0.00,30.03,1013.50,10.00,M,CLR,M,M,M,M,M,M,M,M,M,M,M,M,M,M,58.00,KEKO 210356Z AUTO 21005KT 10SM CLR 14/03 A3003 RMK AO2 SLP135 T01440028,M
WMC,2024-09-21 03:56,-117.8072,40.9019,1315.00,62.00,40.00,44.25,340.00,7.00,T,30.02,1013.60,10.00,M,CLR,M,M,M,M,M,M,M,-RA,M,M,M,M,M,M,62.00,KWMC 210356Z AUTO 34007KT 10SM -RA CLR 17/04 A3002 RMK AO2 RAE03B29 SLP136 P0000 T01670044,M
HND,2024-09-21 03:56,-115.1344,35.9729,742.79,72.00,46.00,39.42,210.00,7.00,0.00,29.86,1010.70,10.00,M,CLR,M,M,M,M,M,M,M,M,M,M,M,M,M,M,72.00,KHND 210356Z AUTO 21007KT 10SM CLR 22/08 A2986 RMK AO2 SLP107 T02220078,M
TPH,2024-09-21 03:56,-117.0904,38.0505,1654.00,67.00,36.00,31.76,310.00,17.00,0.00,30.01,1010.00,10.00,28.00,CLR,M,M,M,M,M,M,M,M,M,M,M,31.00,310.00,2024-09-21 03:34,67.00,KTPH 210356Z AUTO 31017G28KT 10SM CLR 19/02 A3001 RMK AO2 PK WND 31031/0334 SLP100 T01940022,M
LAS,2024-09-21 03:56,-115.1634,36.0719,663.00,79.00,38.00,22.93,330.00,8.00,0.00,29.83,1007.90,10.00,M,FEW,SCT,BKN,M,8500.00,15000.00,22000.00,M,M,M,M,M,M,M,M,79.00,KLAS 210356Z 33008KT 10SM FEW085 SCT150 BKN220 26/03 A2983 RMK AO2 SLP079 T02610033,M
NFL,2024-09-21 03:57,-118.7010,39.4166,1199.00,64.00,44.00,48.12,240.00,5.00,0.00,29.98,1012.50,10.00,M,CLR,M,M,M,M,M,M,M,M,M,M,M,M,M,M,64.00,KNFL 210357Z 24005KT 10SM CLR 18/07 A2998 RMK AO2 SLP125 T01780067,M
05U,2024-09-21 04:10,-116.0051,39.6042,1811.23,50.00,30.20,46.31,0.00,0.00,0.00,30.10,M,10.00,M,CLR,M,M,M,M,M,M,M,M,M,M,M,M,M,M,50.00,K05U 210410Z AUTO 00000KT 10SM CLR 10/M01 A3010 RMK A01,M
BVU,2024-09-21 04:15,-114.8611,35.9475,671.00,78.80,35.60,21.00,330.00,10.00,0.00,29.81,M,10.00,M,FEW,M,M,M,12000.00,M,M,M,M,M,M,M,M,M,M,78.80,KBVU 210415Z AUTO 33010KT 10SM FEW120 26/02 A2981 RMK AO2,M
CXP,2024-09-21 04:15,-119.7326,39.1923,1431.00,60.80,39.20,44.76,0.00,0.00,0.00,30.06,M,10.00,M,CLR,M,M,M,M,M,M,M,M,M,M,M,M,M,M,60.80,KCXP 210415Z AUTO 00000KT 10SM CLR 16/04 A3006 RMK AO2,M
RTS,2024-09-21 04:15,-119.8764,39.6682,1539.00,57.20,37.40,47.44,350.00,5.00,0.00,30.07,M,10.00,M,CLR,M,M,M,M,M,M,M,M,M,M,M,M,M,M,57.20,KRTS 210415Z AUTO 35005KT 10SM CLR 14/03 A3007 RMK AO2,M
MEV,2024-09-21 04:15,-119.7500,38.9963,1441.42,53.60,42.80,66.70,180.00,3.00,0.00,30.05,M,10.00,M,FEW,FEW,M,M,4600.00,5000.00,M,M,UP,M,M,M,M,M,M,53.60,KMEV 210415Z AUTO 18003KT 10SM UP FEW046 FEW050 12/06 A3005 RMK AO2,M
BAM,2024-09-21 04:15,-116.8743,40.5990,1382.36,59.00,35.60,41.42,190.00,3.00,0.00,30.04,M,10.00,M,CLR,M,M,M,M,M,M,M,M,M,M,M,M,M,M,59.00,KBAM 210415Z AUTO 19003KT 10SM CLR 15/02 A3004 RMK AO1,M
HTH,2024-09-21 04:15,-118.6315,38.5448,1282.89,62.60,42.80,48.28,220.00,5.00,0.00,30.02,M,10.00,M,CLR,M,M,M,M,M,M,M,M,M,M,M,M,M,M,62.60,KHTH 210415Z AUTO 22005KT 10SM CLR 17/06 A3002 RMK A01,M
TMT,2024-09-21 04:15,-117.1971,39.4643,1749.34,46.60,40.00,77.66,150.00,4.00,0.00,30.10,M,7.00,M,CLR,M,M,M,M,M,M,M,M,M,M,M,M,M,M,44.47,KTMT 210415Z AUTO 15004KT 7SM CLR 08/04 A3010 RMK AO2 T00810044,M
10U,2024-09-21 04:15,-116.1876,41.9532,1637.00,50.00,35.60,57.52,310.00,3.00,0.00,30.10,M,10.00,M,CLR,M,M,M,M,M,M,M,M,M,M,M,M,M,M,50.00,K10U 210415Z AUTO 31003KT 10SM CLR 10/02 A3010 RMK AO2,M
05U,2024-09-21 04:30,-116.0051,39.6042,1811.23,50.00,30.20,46.31,0.00,0.00,0.00,30.11,M,10.00,M,CLR,M,M,M,M,M,M,M,M,M,M,M,M,M,M,50.00,K05U 210430Z AUTO 00000KT 10SM CLR 10/M01 A3011 RMK A01,M
BVU,2024-09-21 04:35,-114.8611,35.9475,671.00,77.00,37.40,23.93,360.00,8.00,0.00,29.82,M,10.00,M,FEW,SCT,BKN,M,5000.00,8000.00,12000.00,M,M,M,M,M,M,M,M,77.00,KBVU 210435Z AUTO 36008KT 10SM FEW050 SCT080 BKN120 25/03 A2982 RMK AO2,M
CXP,2024-09-21 04:35,-119.7326,39.1923,1431.00,62.60,37.40,39.14,0.00,0.00,0.00,30.06,M,10.00,M,CLR,M,M,M,M,M,M,M,M,M,M,M,M,M,M,62.60,KCXP 210435Z AUTO 00000KT 10SM CLR 17/03 A3006 RMK AO2,M
RTS,2024-09-21 04:35,-119.8764,39.6682,1539.00,55.40,37.40,50.64,10.00,3.00,0.00,30.08,M,10.00,M,CLR,M,M,M,M,M,M,M,M,M,M,M,M,M,M,55.40,KRTS 210435Z AUTO 01003KT 10SM CLR 13/03 A3008 RMK AO2,M
MEV,2024-09-21 04:35,-119.7500,38.9963,1441.42,51.80,41.00,66.48,150.00,4.00,0.00,30.05,M,10.00,M,SCT,SCT,M,M,4500.00,5500.00,M,M,M,M,M,M,M,M,M,51.80,KMEV 210435Z AUTO 15004KT 10SM SCT045 SCT055 11/05 A3005 RMK AO2,M
BAM,2024-09-21 04:35,-116.8743,40.5990,1382.36,60.80,35.60,38.85,180.00,3.00,0.00,30.04,M,10.00,M,CLR,M,M,M,M,M,M,M,M,M,M,M,M,M,M,60.80,KBAM 210435Z AUTO 18003KT 10SM CLR 16/02 A3004 RMK AO1,M
HTH,2024-09-21 04:35,-118.6315,38.5448,1282.89,62.60,41.00,45.04,210.00,5.00,0.00,30.02,M,10.00,M,CLR,M,M,M,M,M,M,M,M,M,M,M,M,M,M,62.60,KHTH 210435Z AUTO 21005KT 10SM CLR 17/05 A3002 RMK A01,M
TMT,2024-09-21 04:35,-117.1971,39.4643,1749.34,46.20,40.00,78.84,150.00,5.00,0.00,30.11,M,10.00,M,CLR,M,M,M,M,M,M,M,M,M,M,M,M,M,M,43.26,KTMT 210435Z AUTO 15005KT 10SM CLR 08/05 A3011 RMK AO2 T00790045,M
10U,2024-09-21 04:35,-116.1876,41.9532,1637.00,48.20,35.60,61.52,310.00,6.00,0.00,30.10,M,10.00,M,CLR,M,M,M,M,M,M,M,M,M,M,M,M,M,M,45.04,K10U 210435Z AUTO 31006KT 10SM CLR 09/02 A3010 RMK AO2,M
05U,2024-09-21 04:50,-116.0051,39.6042,1811.23,50.00,30.20,46.31,0.00,0.00,0.00,30.11,M,10.00,M,CLR,M,M,M,M,M,M,M,M,M,M,M,M,M,M,50.00,K05U 210450Z AUTO 00000KT 10SM CLR 10/M01 A3011 RMK A01,M
P68,2024-09-21 04:53,-116.0056,39.6014,1993.00,49.00,31.00,49.65,170.00,5.00,0.00,30.08,1013.40,M,M,M,M,M,M,M,M,M,M,M,M,M,M,M,M,M,46.58,KP68 210453Z AUTO 17005KT 09/M01 A3008 RMK AO1 SLP134 T00941006,M
DRA,2024-09-21 04:53,-116.0278,36.6206,1009.00,68.00,40.00,35.90,30.00,6.00,0.00,29.88,1007.70,10.00,M,CLR,M,M,M,M,M,M,M,M,M,M,M,M,M,M,68.00,KDRA 210453Z AUTO 03006KT 10SM CLR 20/04 A2988 RMK AO2 SLP077 T02000044,M
ELY,2024-09-21 04:53,-114.8453,39.2950,1909.00,47.00,27.00,45.45,160.00,8.00,0.00,30.07,1011.50,10.00,M,CLR,M,M,M,M,M,M,M,M,M,M,M,M,M,M,42.59,KELY 210453Z AUTO 16008KT 10SM CLR 08/M03 A3007 RMK AO2 SLP115 T00831028,M
VGT,2024-09-21 04:53,-115.1933,36.2111,667.00,78.00,40.00,25.62,100.00,7.00,0.00,29.83,1009.50,10.00,M,CLR,M,M,M,M,M,M,M,M,M,M,M,M,M,M,78.00,KVGT 210453Z AUTO 10007KT 10SM CLR 26/04 A2983 RMK AO2 SLP095 T02560044,M
LOL,2024-09-21 04:53,-118.5701,40.0684,1192.43,58.00,42.00,55.14,0.00,0.00,0.00,29.99,1013.30,10.00,M,CLR,M,M,M,M,M,M,M,M,M,M,M,M,M,M,58.00,KLOL 210453Z AUTO 00000KT 10SM CLR 14/06 A2999 RMK AO2 SLP133 T01440056,M
BVU,2024-09-21 04:55,-114.8611,35.9475,671.00,77.00,42.80,29.51,60.00,9.00,0.00,29.84,M,10.00,14.00,FEW,SCT,BKN,M,2700.00,4900.00,8000.00,M,M,M,M,M,M,M,M,77.00,KBVU 210455Z AUTO 06009G14KT 10SM FEW027 SCT049 BKN080 25/06 A2984 RMK AO2,M
RNO,2024-09-21 04:55,-119.7711,39.4839,1341.00,65.00,38.00,36.84,190.00,3.00,0.00,30.03,1012.90,10.00,M,CLR,M,M,M,M,M,M,M,M,M,M,M,M,M,M,65.00,KRNO 210455Z 19003KT 10SM CLR 18/03 A3003 RMK AO2 SLP129 T01830033,M
BAM,2024-09-21 04:55,-116.8743,40.5990,1382.36,53.60,32.00,43.61,160.00,3.00,0.00,30.04,M,10.00,M,CLR,M,M,M,M,M,M,M,M,M,M,M,M,M,M,53.60,KBAM 210455Z AUTO 16003KT 10SM CLR 12/00 A3004 RMK AO1,M
CXP,2024-09-21 04:55,-119.7326,39.1923,1431.00,60.80,39.20,44.76,30.00,3.00,0.00,30.07,M,10.00,M,CLR,M,M,M,M,M,M,M,M,M,M,M,M,M,M,60.80,KCXP 210455Z AUTO 03003KT 10SM CLR 16/04 A3007 RMK AO2,M
RTS,2024-09-21 04:55,-119.8764,39.6682,1539.00,51.80,35.60,53.81,340.00,4.00,0.00,30.08,M,10.00,M,CLR,M,M,M,M,M,M,M,M,M,M,M,M,M,M,51.80,KRTS 210455Z AUTO 34004KT 10SM CLR 11/02 A3008 RMK AO2,M
MEV,2024-09-21 04:55,-119.7500,38.9963,1441.42,48.20,41.00,76.01,140.00,5.00,0.00,30.05,M,10.00,M,FEW,FEW,M,M,4600.00,5000.00,M,M,M,M,M,M,M,M,M,45.63,KMEV 210455Z AUTO 14005KT 10SM FEW046 FEW050 09/05 A3005 RMK AO2,M
HTH,2024-09-21 04:55,-118.6315,38.5448,1282.89,62.60,41.00,45.04,170.00,4.00,0.00,30.03,M,10.00,M,CLR,M,M,M,M,M,M,M,M,M,M,M,M,M,M,62.60,KHTH 210455Z AUTO 17004KT 10SM CLR 17/05 A3003 RMK A01,M
TMT,2024-09-21 04:55,-117.1971,39.4643,1749.34,45.50,39.70,80.02,0.00,0.00,0.00,30.11,M,10.00,M,CLR,M,M,M,M,M,M,M,M,M,M,M,M,M,M,45.50,KTMT 210455Z AUTO 00000KT 10SM CLR 08/04 A3011 RMK AO2 T00750043,M
10U,2024-09-21 04:55,-116.1876,41.9532,1637.00,48.20,35.60,61.52,300.00,6.00,0.00,30.10,M,10.00,M,CLR,M,M,M,M,M,M,M,M,M,M,M,M,M,M,45.04,K10U 210455Z AUTO 30006KT 10SM CLR 09/02 A3010 RMK AO2,M
INS,2024-09-21 04:55,-115.6733,36.5872,955.00,70.50,37.60,30.00,0.00,0.00,0.00,29.88,1007.90,10.00,M,BKN,M,M,M,18000.00,M,M,M,M,M,M,M,M,M,M,70.50,KINS 210455Z AUTO 00000KT 10SM BKN180 21/03 A2988 RMK AO2 SLP079 T02140031,M
LSV,2024-09-21 04:55,-115.0343,36.2362,570.00,78.30,41.50,26.89,80.00,11.00,0.00,29.79,1006.30,10.00,M,BKN,M,M,M,14000.00,M,M,M,M,M,M,M,M,M,M,78.30,KLSV 210455Z AUTO 08011KT 10SM BKN140 26/05 A2979 RMK AO2 SLP063 T02570053 $,M
EKO,2024-09-21 04:56,-115.7860,40.8242,1367.00,57.00,37.00,47.04,0.00,0.00,0.00,30.04,1013.60,10.00,M,CLR,M,M,M,M,M,M,M,M,M,M,M,M,M,M,57.00,KEKO 210456Z AUTO 00000KT 10SM CLR 14/03 A3004 RMK AO2 SLP136 T01390028,M
WMC,2024-09-21 04:56,-117.8072,40.9019,1315.00,62.00,37.00,39.35,M,4.00,T,30.03,1013.30,10.00,M,CLR,M,M,M,M,M,M,M,-RA,M,M,M,M,M,M,62.00,KWMC 210456Z AUTO VRB04KT 10SM -RA CLR 17/03 A3003 RMK AO2 SLP133 P0000 T01670028,M
HND,2024-09-21 04:56,-115.1344,35.9729,742.79,70.00,46.00,42.20,90.00,5.00,0.00,29.88,1011.10,10.00,M,CLR,M,M,M,M,M,M,M,M,M,M,M,M,M,M,70.00,KHND 210456Z AUTO 09005KT 10SM CLR 21/08 A2988 RMK AO2 SLP111 T02110078,M
TPH,2024-09-21 04:56,-117.0904,38.0505,1654.00,66.00,35.00,31.60,360.00,10.00,0.00,30.02,1010.30,10.00,M,CLR,M,M,M,M,M,M,M,M,M,M,M,27.00,320.00,2024-09-21 04:01,66.00,KTPH 210456Z AUTO 36010KT 10SM CLR 19/02 A3002 RMK AO2 PK WND 32027/0401 SLP103 T01890017,M
LAS,2024-09-21 04:56,-115.1634,36.0719,663.00,77.00,42.00,28.62,100.00,7.00,0.00,29.85,1008.60,10.00,M,FEW,BKN,BKN,M,8500.00,15000.00,22000.00,M,M,M,M,M,M,M,M,77.00,KLAS 210456Z 10007KT 10SM FEW085 BKN150 BKN220 25/06 A2985 RMK AO2 SLP086 T02500056,M
NFL,2024-09-21 04:57,-118.7010,39.4166,1199.00,61.00,44.00,53.49,210.00,3.00,0.00,29.99,1012.60,10.00,M,CLR,M,M,M,M,M,M,M,M,M,M,M,M,M,M,61.00,KNFL 210457Z 21003KT 10SM CLR 16/07 A2999 RMK AO2 SLP126 T01610067,M
05U,2024-09-21 05:10,-116.0051,39.6042,1811.23,50.00,28.40,43.03,0.00,0.00,0.00,30.11,M,10.00,M,CLR,M,M,M,M,M,M,M,M,M,M,M,M,M,M,50.00,K05U 210510Z AUTO 00000KT 10SM CLR 10/M02 A3011 RMK A01,M
BVU,2024-09-21 05:15,-114.8611,35.9475,671.00,77.00,46.40,33.85,120.00,9.00,0.00,29.85,M,10.00,M,FEW,SCT,OVC,M,5000.00,8500.00,12000.00,M,M,M,M,M,M,M,M,77.00,KBVU 210515Z AUTO 12009KT 10SM FEW050 SCT085 OVC120 25/08 A2985 RMK AO2,M
CXP,2024-09-21 05:15,-119.7326,39.1923,1431.00,55.40,41.00,58.27,0.00,0.00,0.00,30.07,M,10.00,M,CLR,M,M,M,M,M,M,M,M,M,M,M,M,M,M,55.40,KCXP 210515Z AUTO 00000KT 10SM CLR 13/05 A3007 RMK AO2,M
RTS,2024-09-21 05:15,-119.8764,39.6682,1539.00,53.60,33.80,46.88,330.00,7.00,0.00,30.08,M,10.00,M,CLR,M,M,M,M,M,M,M,M,M,M,M,M,M,M,53.60,KRTS 210515Z AUTO 33007KT 10SM CLR 12/01 A3008 RMK AO2,M
MEV,2024-09-21 05:15,-119.7500,38.9963,1441.42,50.00,42.80,76.18,110.00,7.00,0.00,30.06,M,10.00,M,SCT,M,M,M,4800.00,M,M,M,M,M,M,M,M,M,M,50.00,KMEV 210515Z AUTO 11007KT 10SM SCT048 10/06 A3006 RMK AO2,M
BAM,2024-09-21 05:15,-116.8743,40.5990,1382.36,51.80,32.00,46.59,140.00,3.00,0.00,30.04,M,10.00,M,CLR,M,M,M,M,M,M,M,M,M,M,M,M,M,M,51.80,KBAM 210515Z AUTO 14003KT 10SM CLR 11/00 A3004 RMK AO1,M
HTH,2024-09-21 05:15,-118.6315,38.5448,1282.89,62.60,39.20,42.00,200.00,5.00,0.00,30.03,M,10.00,M,CLR,M,M,M,M,M,M,M,M,M,M,M,M,M,M,62.60,KHTH 210515Z AUTO 20005KT 10SM CLR 17/04 A3003 RMK A01,M
TMT,2024-09-21 05:15,-117.1971,39.4643,1749.34,47.50,39.70,74.20,220.00,3.00,0.00,30.11,M,10.00,M,CLR,M,M,M,M,M,M,M,M,M,M,M,M,M,M,46.41,KTMT 210515Z AUTO 22003KT 10SM CLR 09/04 A3011 RMK AO2 T00860043,M
10U,2024-09-21 05:15,-116.1876,41.9532,1637.00,48.20,35.60,61.52,320.00,5.00,0.00,30.10,M,10.00,M,CLR,M,M,M,M,M,M,M,M,M,M,M,M,M,M,45.63,K10U 210515Z AUTO 32005KT 10SM CLR 09/02 A3010 RMK AO2,M
05U,2024-09-21 05:30,-116.0051,39.6042,1811.23,46.40,28.40,49.24,0.00,0.00,0.00,30.11,M,10.00,M,CLR,M,M,M,M,M,M,M,M,M,M,M,M,M,M,46.40,K05U 210530Z AUTO 00000KT 10SM CLR 08/M02 A3011 RMK A01,M
HTH,2024-09-21 05:30,-118.6315,38.5448,1282.89,62.60,41.00,45.04,210.00,5.00,0.00,30.03,M,10.00,M,CLR,M,M,M,M,M,M,M,M,M,M,M,M,M,M,62.60,KHTH 210530Z AUTO 21005KT 10SM CLR 17/05 A3003 RMK A01,M
BVU,2024-09-21 05:35,-114.8611,35.9475,671.00,75.20,46.40,35.94,140.00,6.00,0.00,29.84,M,10.00,M,FEW,BKN,OVC,M,5500.00,10000.00,12000.00,M,M,M,M,M,M,M,M,75.20,KBVU 210535Z AUTO 14006KT 10SM FEW055 BKN100 OVC120 24/08 A2984 RMK AO2,M
CXP,2024-09-21 05:35,-119.7326,39.1923,1431.00,57.20,41.00,54.60,0.00,0.00,0.00,30.07,M,10.00,M,CLR,M,M,M,M,M,M,M,M,M,M,M,M,M,M,57.20,KCXP 210535Z AUTO 00000KT 10SM CLR 14/05 A3007 RMK AO2,M
RTS,2024-09-21 05:35,-119.8764,39.6682,1539.00,53.60,35.60,50.36,340.00,8.00,0.00,30.08,M,10.00,M,CLR,M,M,M,M,M,M,M,M,M,M,M,M,M,M,53.60,KRTS 210535Z AUTO 34008KT 10SM CLR 12/02 A3008 RMK AO2,M
MEV,2024-09-21 05:35,-119.7500,38.9963,1441.42,50.00,41.00,71.07,110.00,6.00,0.00,30.06,M,10.00,M,FEW,SCT,SCT,M,4400.00,5000.00,5500.00,M,M,M,M,M,M,M,M,50.00,KMEV 210535Z AUTO 11006KT 10SM FEW044 SCT050 SCT055 10/05 A3006 RMK AO2,M
BAM,2024-09-21 05:35,-116.8743,40.5990,1382.36,51.80,32.00,46.59,170.00,3.00,0.00,30.04,M,10.00,M,CLR,M,M,M,M,M,M,M,M,M,M,M,M,M,M,51.80,KBAM 210535Z AUTO 17003KT 10SM CLR 11/00 A3004 RMK AO1,M
TMT,2024-09-21 05:35,-117.1971,39.4643,1749.34,44.80,39.40,81.22,280.00,3.00,0.00,30.11,M,10.00,M,CLR,M,M,M,M,M,M,M,M,M,M,M,M,M,M,43.32,KTMT 210535Z AUTO 28003KT 10SM CLR 07/04 A3011 RMK AO2 T00710041,M
10U,2024-09-21 05:35,-116.1876,41.9532,1637.00,48.20,33.80,57.26,310.00,4.00,0.00,30.10,M,10.00,M,CLR,M,M,M,M,M,M,M,M,M,M,M,M,M,M,46.34,K10U 210535Z AUTO 31004KT 10SM CLR 09/01 A3010 RMK AO2,M
05U,2024-09-21 05:50,-116.0051,39.6042,1811.23,42.80,30.20,60.79,0.00,0.00,0.00,30.11,M,10.00,M,CLR,M,M,M,M,M,M,M,M,M,M,M,M,M,M,42.80,K05U 210550Z AUTO 00000KT 10SM CLR 06/M01 A3011 RMK A01,M
P68,2024-09-21 05:53,-116.0056,39.6014,1993.00,44.00,30.00,57.59,210.00,4.00,0.00,30.09,1013.80,M,M,M,M,M,M,M,M,M,M,M,M,M,M,M,M,M,41.43,KP68 210553Z AUTO 21004KT 07/M01 A3009 RMK AO1 SLP138 T00671011 10239 20067 51013,M
DRA,2024-09-21 05:53,-116.0278,36.6206,1009.00,64.00,39.00,39.67,0.00,0.00,0.00,29.89,1008.00,10.00,M,CLR,M,M,M,M,M,M,M,M,M,M,M,M,M,M,64.00,KDRA 210553Z AUTO 00000KT 10SM CLR 18/04 A2989 RMK AO2 SLP080 T01780039 10256 20178 55003,M
ELY,2024-09-21 05:53,-114.8453,39.2950,1909.00,46.00,26.00,45.29,180.00,8.00,0.00,30.07,1010.90,10.00,M,FEW,M,M,M,10000.00,M,M,M,M,M,M,M,M,M,M,41.36,KELY 210553Z AUTO 18008KT 10SM FEW100 08/M03 A3007 RMK AO2 SLP109 T00781033 10233 20078 50012,M
VGT,2024-09-21 05:53,-115.1933,36.2111,667.00,77.00,43.00,29.74,140.00,4.00,0.00,29.84,1009.90,10.00,M,CLR,M,M,M,M,M,M,M,M,M,M,M,M,M,M,77.00,KVGT 210553Z AUTO 14004KT 10SM CLR 25/06 A2984 RMK AO2 SLP099 60000 T02500061 10306 20244 51018,M
LOL,2024-09-21 05:53,-118.5701,40.0684,1192.43,61.00,38.00,42.40,30.00,9.00,0.00,29.99,1013.00,10.00,M,CLR,M,M,M,M,M,M,M,M,M,M,M,M,M,M,61.00,KLOL 210553Z AUTO 03009KT 10SM CLR 16/03 A2999 RMK AO2 SLP130 T01610033 10261 20139 51008,M
BVU,2024-09-21 05:55,-114.8611,35.9475,671.00,75.20,46.40,35.94,170.00,12.00,0.00,29.84,M,10.00,M,BKN,BKN,M,M,10000.00,12000.00,M,M,M,M,M,M,M,M,M,75.20,KBVU 210555Z AUTO 17012KT 10SM BKN100 BKN120 24/08 A2984 RMK AO2,M
RNO,2024-09-21 05:55,-119.7711,39.4839,1341.00,65.00,36.00,34.05,260.00,5.00,0.00,30.04,1012.80,10.00,M,CLR,M,M,M,M,M,M,M,M,M,M,M,M,M,M,65.00,KRNO 210555Z 26005KT 10SM CLR 18/02 A3004 RMK AO2 SLP128 T01830022 10261 20178 51008,M
BAM,2024-09-21 05:55,-116.8743,40.5990,1382.36,53.60,33.80,46.88,330.00,4.00,0.00,30.05,M,10.00,M,CLR,M,M,M,M,M,M,M,M,M,M,M,M,M,M,53.60,KBAM 210555Z AUTO 33004KT 10SM CLR 12/01 A3005 RMK AO1,M
CXP,2024-09-21 05:55,-119.7326,39.1923,1431.00,55.40,42.80,62.46,0.00,0.00,0.00,30.07,M,10.00,M,CLR,M,M,M,M,M,M,M,M,M,M,M,M,M,M,55.40,KCXP 210555Z AUTO 00000KT 10SM CLR 13/06 A3007 RMK AO2,M
RTS,2024-09-21 05:55,-119.8764,39.6682,1539.00,55.40,35.60,47.16,350.00,8.00,0.00,30.08,M,10.00,M,CLR,M,M,M,M,M,M,M,M,M,M,M,M,M,M,55.40,KRTS 210555Z AUTO 35008KT 10SM CLR 13/02 A3008 RMK AO2,M
MEV,2024-09-21 05:55,-119.7500,38.9963,1441.42,50.00,41.00,71.07,0.00,0.00,0.00,30.06,M,10.00,M,SCT,BKN,M,M,4300.00,5000.00,M,M,M,M,M,M,M,M,M,50.00,KMEV 210555Z AUTO 00000KT 10SM SCT043 BKN050 10/05 A3006 RMK AO2,M
HTH,2024-09-21 05:55,-118.6315,38.5448,1282.89,60.80,39.20,44.76,210.00,6.00,0.00,30.03,M,10.00,M,CLR,M,M,M,M,M,M,M,M,M,M,M,M,M,M,60.80,KHTH 210555Z AUTO 21006KT 10SM CLR 16/04 A3003 RMK A01,M
TMT,2024-09-21 05:55,-117.1971,39.4643,1749.34,47.30,40.30,76.52,250.00,4.00,0.00,30.11,M,10.00,M,CLR,M,M,M,M,M,M,M,M,M,M,M,M,M,M,45.29,KTMT 210555Z AUTO 25004KT 10SM CLR 09/05 A3011 RMK AO2 T00850046 10212 20071,M
10U,2024-09-21 05:55,-116.1876,41.9532,1637.00,48.20,35.60,61.52,320.00,7.00,0.00,30.10,M,10.00,M,CLR,M,M,M,M,M,M,M,M,M,M,M,M,M,M,44.53,K10U 210555Z AUTO 32007KT 10SM CLR 09/02 A3010 RMK AO2,M
INS,2024-09-21 05:55,-115.6733,36.5872,955.00,69.30,36.50,29.93,20.00,5.00,0.00,29.88,1007.50,10.00,M,BKN,OVC,M,M,11000.00,13000.00,M,M,M,M,M,M,M,M,M,69.30,KINS 210555Z AUTO 02005KT 10SM BKN110 OVC130 21/03 A2988 RMK AO2 SLP075 T02070025 10276 20205 55000,M
LSV,2024-09-21 05:55,-115.0343,36.2362,570.00,78.40,42.60,27.96,120.00,7.00,0.00,29.79,1006.30,10.00,M,BKN,M,M,M,14000.00,M,M,M,M,M,M,M,M,M,M,78.40,KLSV 210555Z AUTO 12007KT 10SM BKN140 26/06 A2979 RMK AO2 SLP063 T02580059 10301 20256 50010 $,M
EKO,2024-09-21 05:56,-115.7860,40.8242,1367.00,56.00,39.00,52.75,60.00,5.00,0.00,30.05,1013.40,10.00,M,CLR,M,M,M,M,M,M,M,M,M,M,M,M,M,M,56.00,KEKO 210556Z AUTO 06005KT 10SM CLR 13/04 A3005 RMK AO2 SLP134 T01330039 10250 20128 51013,M
WMC,2024-09-21 05:56,-117.8072,40.9019,1315.00,63.00,37.00,37.99,20.00,7.00,T,30.04,1013.30,10.00,M,CLR,M,M,M,M,M,M,M,-RA,M,M,M,M,M,M,63.00,KWMC 210556Z AUTO 02007KT 10SM -RA CLR 17/03 A3004 RMK AO2 SLP133 P0000 60000 T01720028 10261 20133 51014,M
HND,2024-09-21 05:56,-115.1344,35.9729,742.79,74.00,44.00,34.15,140.00,7.00,0.00,29.87,1010.60,10.00,M,CLR,M,M,M,M,M,M,M,M,M,M,M,M,M,M,74.00,KHND 210556Z AUTO 14007KT 10SM CLR 23/07 A2987 RMK AO2 SLP106 60000 T02330067 10283 20211 50013,M
TPH,2024-09-21 05:56,-117.0904,38.0505,1654.00,63.00,34.00,33.72,340.00,9.00,0.00,30.03,1010.20,10.00,M,CLR,M,M,M,M,M,M,M,M,M,M,M,M,M,M,63.00,KTPH 210556Z AUTO 34009KT 10SM CLR 17/01 A3003 RMK AO2 SLP102 T01720011 10239 20172 51009,M
LAS,2024-09-21 05:56,-115.1634,36.0719,663.00,75.00,45.00,34.31,130.00,3.00,0.00,29.85,1008.50,10.00,M,FEW,SCT,BKN,M,8500.00,15000.00,22000.00,M,M,M,M,M,M,M,M,75.00,KLAS 210556Z 13003KT 10SM FEW085 SCT150 BKN220 24/07 A2985 RMK AO2 SLP085 T02390072 10289 20239 50015,M
NFL,2024-09-21 05:57,-118.7010,39.4166,1199.00,57.00,46.00,66.59,160.00,6.00,0.00,29.99,1012.50,10.00,M,CLR,M,M,M,M,M,M,M,M,M,M,M,M,M,M,57.00,KNFL 210557Z 16006KT 10SM CLR 14/08 A2999 RMK AO2 SLP125 T01390078 10267 20139 50004,M
CXP,2024-09-21 06:10,-119.7326,39.1923,1431.00,57.20,41.00,54.60,330.00,3.00,0.00,30.07,M,10.00,M,CLR,M,M,M,M,M,M,M,M,M,M,M,M,M,M,57.20,KCXP 210610Z AUTO 33003KT 10SM CLR 14/05 A3007 RMK AO2,M
RTS,2024-09-21 06:10,-119.8764,39.6682,1539.00,59.00,33.80,38.56,340.00,6.00,0.00,30.08,M,10.00,M,CLR,M,M,M,M,M,M,M,M,M,M,M,M,M,M,59.00,KRTS 210610Z AUTO 34006KT 10SM CLR 15/01 A3008 RMK AO2,M
05U,2024-09-21 06:10,-116.0051,39.6042,1811.23,44.60,30.20,56.74,0.00,0.00,0.00,30.11,M,10.00,M,CLR,M,M,M,M,M,M,M,M,M,M,M,M,M,M,44.60,K05U 210610Z AUTO 00000KT 10SM CLR 07/M01 A3011 RMK A01,M
HTH,2024-09-21 06:10,-118.6315,38.5448,1282.89,59.00,41.00,51.18,210.00,4.00,0.00,30.02,M,10.00,M,CLR,M,M,M,M,M,M,M,M,M,M,M,M,M,M,59.00,KHTH 210610Z AUTO 21004KT 10SM CLR 15/05 A3002 RMK A01,M
MEV,2024-09-21 06:10,-119.7500,38.9963,1441.42,50.00,41.00,71.07,160.00,3.00,0.00,30.06,M,10.00,M,SCT,SCT,M,M,4500.00,5500.00,M,M,M,M,M,M,M,M,M,50.00,KMEV 210610Z AUTO 16003KT 10SM SCT045 SCT055 10/05 A3006 RMK AO2,M
BVU,2024-09-21 06:15,-114.8611,35.9475,671.00,71.60,50.00,46.43,140.00,12.00,0.00,29.85,M,10.00,20.00,FEW,SCT,OVC,M,700.00,4600.00,11000.00,M,M,M,M,M,M,M,M,71.60,KBVU 210615Z AUTO 14012G20KT 10SM FEW007 SCT046 OVC110 22/10 A2985 RMK AO2,M
BAM,2024-09-21 06:15,-116.8743,40.5990,1382.36,59.00,37.40,44.47,20.00,4.00,0.00,30.05,M,10.00,M,CLR,M,M,M,M,M,M,M,M,M,M,M,M,M,M,59.00,KBAM 210615Z AUTO 02004KT 10SM CLR 15/03 A3005 RMK AO1,M
TMT,2024-09-21 06:15,-117.1971,39.4643,1749.34,45.00,40.30,83.48,230.00,4.00,0.00,30.11,M,10.00,M,CLR,M,M,M,M,M,M,M,M,M,M,M,M,M,M,42.60,KTMT 210615Z AUTO 23004KT 10SM CLR 07/05 A3011 RMK AO2 T00720046,M
10U,2024-09-21 06:15,-116.1876,41.9532,1637.00,46.40,33.80,61.28,340.00,3.00,0.00,30.11,M,10.00,M,CLR,M,M,M,M,M,M,M,M,M,M,M,M,M,M,45.15,K10U 210615Z AUTO 34003KT 10SM CLR 08/01 A3011 RMK AO2,M
BVU,2024-09-21 06:35,-114.8611,35.9475,671.00,71.60,50.00,46.43,160.00,8.00,0.00,29.87,M,10.00,14.00,FEW,SCT,BKN,M,1500.00,3900.00,5500.00,M,M,M,M,M,M,M,M,71.60,KBVU 210635Z AUTO 16008G14KT 10SM FEW015 SCT039 BKN055 22/10 A2987 RMK AO2,M
BAM,2024-09-21 06:35,-116.8743,40.5990,1382.36,57.20,37.40,47.44,330.00,4.00,0.00,30.05,M,10.00,M,CLR,M,M,M,M,M,M,M,M,M,M,M,M,M,M,57.20,KBAM 210635Z AUTO 33004KT 10SM CLR 14/03 A3005 RMK AO1,M
TMT,2024-09-21 06:35,-117.1971,39.4643,1749.34,42.80,39.40,87.67,190.00,5.00,0.00,30.11,M,10.00,M,CLR,M,M,M,M,M,M,M,M,M,M,M,M,M,M,39.22,KTMT 210635Z AUTO 19005KT 10SM CLR 06/04 A3011 RMK AO2 T00600041,M
P68,2024-09-21 06:53,-116.0056,39.6014,1993.00,43.00,29.00,57.44,170.00,6.00,0.00,30.09,1013.30,M,M,M,M,M,M,M,M,M,M,M,M,M,M,M,M,M,38.78,KP68 210653Z AUTO 17006KT 06/M02 A3009 RMK AO1 SLP133 T00611017,M
DRA,2024-09-21 06:53,-116.0278,36.6206,1009.00,63.00,41.00,44.41,0.00,0.00,0.00,29.88,1007.80,10.00,M,CLR,M,M,M,M,M,M,M,M,M,M,M,M,M,M,63.00,KDRA 210653Z AUTO 00000KT 10SM CLR 17/05 A2988 RMK AO2 SLP078 T01720050,M
ELY,2024-09-21 06:53,-114.8453,39.2950,1909.00,44.00,27.00,50.93,170.00,7.00,0.00,30.08,1011.20,10.00,M,CLR,M,M,M,M,M,M,M,M,M,M,M,M,M,M,39.41,KELY 210653Z AUTO 17007KT 10SM CLR 07/M03 A3008 RMK AO2 SLP112 T00671028,M
VGT,2024-09-21 06:53,-115.1933,36.2111,667.00,75.00,45.00,34.31,0.00,0.00,0.00,29.85,1010.30,10.00,M,CLR,M,M,M,M,M,M,M,M,M,M,M,M,M,M,75.00,KVGT 210653Z AUTO 00000KT 10SM CLR 24/07 A2985 RMK AO2 SLP103 T02390072,M
LOL,2024-09-21 06:53,-118.5701,40.0684,1192.43,63.00,35.00,35.10,20.00,11.00,0.00,29.99,1012.40,10.00,M,CLR,M,M,M,M,M,M,M,M,M,M,M,M,M,M,63.00,KLOL 210653Z AUTO 02011KT 10SM CLR 17/02 A2999 RMK AO2 SLP124 T01720017,M
BVU,2024-09-21 06:55,-114.8611,35.9475,671.00,69.80,51.80,52.77,190.00,4.00,0.00,29.86,M,10.00,M,FEW,SCT,BKN,M,1800.00,4700.00,7000.00,M,M,M,M,M,M,M,M,69.80,KBVU 210655Z AUTO 19004KT 10SM FEW018 SCT047 BKN070 21/11 A2986 RMK AO2,M
RNO,2024-09-21 06:55,-119.7711,39.4839,1341.00,61.00,37.00,40.77,310.00,3.00,0.00,30.04,1012.80,10.00,M,CLR,M,M,M,M,M,M,M,M,M,M,M,M,M,M,61.00,KRNO 210655Z 31003KT 10SM CLR 16/03 A3004 RMK AO2 SLP128 T01610028,M
BAM,2024-09-21 06:55,-116.8743,40.5990,1382.36,55.40,37.40,50.64,320.00,5.00,0.00,30.05,M,10.00,M,CLR,M,M,M,M,M,M,M,M,M,M,M,M,M,M,55.40,KBAM 210655Z AUTO 32005KT 10SM CLR 13/03 A3005 RMK AO1,M
TMT,2024-09-21 06:55,-117.1971,39.4643,1749.34,42.30,38.50,86.29,160.00,3.00,0.00,30.11,M,10.00,M,CLR,M,M,M,M,M,M,M,M,M,M,M,M,M,M,40.46,KTMT 210655Z AUTO 16003KT 10SM CLR 06/04 A3011 RMK AO2 T00570036,M
INS,2024-09-21 06:55,-115.6733,36.5872,955.00,69.00,36.00,29.65,0.00,0.00,0.00,29.88,1007.20,10.00,M,OVC,M,M,M,13000.00,M,M,M,M,M,M,M,M,M,M,69.00,KINS 210655Z AUTO 00000KT 10SM OVC130 21/02 A2988 RMK AO2 SLP072 T02050023,M
LSV,2024-09-21 06:55,-115.0343,36.2362,570.00,77.50,42.80,29.03,30.00,3.00,0.00,29.81,1007.00,10.00,M,BKN,M,M,M,13000.00,M,M,M,M,M,M,M,M,M,M,77.50,KLSV 210655Z AUTO 03003KT 10SM BKN130 25/06 A2981 RMK AO2 SLP070 T02530060 $,M
EKO,2024-09-21 06:56,-115.7860,40.8242,1367.00,54.00,39.00,56.74,110.00,4.00,0.00,30.05,1013.50,10.00,M,CLR,M,M,M,M,M,M,M,M,M,M,M,M,M,M,54.00,KEKO 210656Z AUTO 11004KT 10SM CLR 12/04 A3005 RMK AO2 SLP135 T01220039,M
WMC,2024-09-21 06:56,-117.8072,40.9019,1315.00,59.00,35.00,40.45,10.00,5.00,T,30.05,1013.50,10.00,M,CLR,M,M,M,M,M,M,M,M,M,M,M,M,M,M,59.00,KWMC 210656Z AUTO 01005KT 10SM CLR 15/02 A3005 RMK AO2 RAE51 SLP135 P0000 T01500017,M
HND,2024-09-21 06:56,-115.1344,35.9729,742.79,71.00,47.00,42.35,150.00,10.00,0.00,29.88,1011.00,10.00,M,CLR,M,M,M,M,M,M,M,M,M,M,M,M,M,M,71.00,KHND 210656Z AUTO 15010KT 10SM CLR 22/08 A2988 RMK AO2 SLP110 T02170083 402940178,M
TPH,2024-09-21 06:56,-117.0904,38.0505,1654.00,60.00,34.00,37.50,350.00,9.00,0.00,30.03,1010.60,10.00,M,CLR,M,M,M,M,M,M,M,M,M,M,M,M,M,M,60.00,KTPH 210656Z AUTO 35009KT 10SM CLR 16/01 A3003 RMK AO2 SLP106 T01560011,M
LAS,2024-09-21 06:56,-115.1634,36.0719,663.00,75.00,45.00,34.31,330.00,3.00,0.00,29.86,1008.90,10.00,M,FEW,SCT,BKN,M,8500.00,15000.00,24000.00,M,M,M,M,M,M,M,M,75.00,KLAS 210656Z 33003KT 10SM FEW085 SCT150 BKN240 24/07 A2986 RMK AO2 SLP089 T02390072,M
NFL,2024-09-21 06:57,-118.7010,39.4166,1199.00,56.00,44.00,63.99,180.00,6.00,0.00,29.98,1012.40,10.00,M,CLR,M,M,M,M,M,M,M,M,M,M,M,M,M,M,56.00,KNFL 210657Z AUTO 18006KT 10SM CLR 13/07 A2998 RMK AO2 SLP124 T01330067,M
BVU,2024-09-21 07:15,-114.8611,35.9475,671.00,68.00,51.80,56.13,220.00,8.00,0.00,29.86,M,10.00,M,FEW,FEW,FEW,M,6500.00,7500.00,12000.00,M,M,M,M,M,M,M,M,68.00,KBVU 210715Z AUTO 22008KT 10SM FEW065 FEW075 FEW120 20/11 A2986 RMK AO2 LTG DSNT SE,M
BAM,2024-09-21 07:15,-116.8743,40.5990,1382.36,51.80,33.80,50.08,0.00,0.00,0.00,30.05,M,10.00,M,CLR,M,M,M,M,M,M,M,M,M,M,M,M,M,M,51.80,KBAM 210715Z AUTO 00000KT 10SM CLR 11/01 A3005 RMK AO1,M
TMT,2024-09-21 07:15,-117.1971,39.4643,1749.34,43.00,38.70,84.66,190.00,4.00,0.00,30.10,M,10.00,M,CLR,M,M,M,M,M,M,M,M,M,M,M,M,M,M,40.27,KTMT 210715Z AUTO 19004KT 10SM CLR 06/04 A3010 RMK AO2 T00610037,M
BVU,2024-09-21 07:35,-114.8611,35.9475,671.00,68.00,51.80,56.13,310.00,4.00,0.00,29.87,M,10.00,M,SCT,M,M,M,11000.00,M,M,M,M,M,M,M,M,M,M,68.00,KBVU 210735Z AUTO 31004KT 10SM SCT110 20/11 A2987 RMK AO2,M
BAM,2024-09-21 07:35,-116.8743,40.5990,1382.36,55.40,35.60,47.16,340.00,4.00,0.00,30.06,M,10.00,M,CLR,M,M,M,M,M,M,M,M,M,M,M,M,M,M,55.40,KBAM 210735Z AUTO 34004KT 10SM CLR 13/02 A3006 RMK AO1,M
TMT,2024-09-21 07:35,-117.1971,39.4643,1749.34,42.80,39.00,86.32,0.00,0.00,0.00,30.11,M,10.00,M,CLR,M,M,M,M,M,M,M,M,M,M,M,M,M,M,42.80,KTMT 210735Z AUTO 00000KT 10SM CLR 06/04 A3011 RMK AO2 T00600038,M
P68,2024-09-21 07:53,-116.0056,39.6014,1993.00,41.00,30.00,64.63,190.00,4.00,0.00,30.09,1013.10,M,M,M,M,M,M,M,M,M,M,M,M,M,M,M,M,M,37.93,KP68 210753Z AUTO 19004KT 05/M01 A3009 RMK AO1 SLP131 T00501011 402440017,M
DRA,2024-09-21 07:53,-116.0278,36.6206,1009.00,65.00,42.00,43.04,100.00,5.00,0.00,29.88,1007.80,10.00,M,CLR,M,M,M,M,M,M,M,M,M,M,M,M,M,M,65.00,KDRA 210753Z AUTO 10005KT 10SM CLR 18/06 A2988 RMK AO2 SLP078 T01830056 402940139,M
ELY,2024-09-21 07:53,-114.8453,39.2950,1909.00,51.00,28.00,40.78,M,5.00,0.00,30.09,1010.40,10.00,M,OVC,M,M,M,11000.00,M,M,M,M,M,M,M,M,M,M,51.00,KELY 210753Z AUTO VRB05KT 10SM OVC110 11/M02 A3009 RMK AO2 SLP104 T01061022 402440022,M
VGT,2024-09-21 07:53,-115.1933,36.2111,667.00,74.00,47.00,38.27,110.00,5.00,0.00,29.85,1010.20,10.00,M,CLR,M,M,M,M,M,M,M,M,M,M,M,M,M,M,74.00,KVGT 210753Z AUTO 11005KT 10SM CLR 23/08 A2985 RMK AO2 SLP102 T02330083 403060206,M
LOL,2024-09-21 07:53,-118.5701,40.0684,1192.43,59.00,35.00,40.45,310.00,3.00,0.00,30.01,1013.20,10.00,M,CLR,M,M,M,M,M,M,M,M,M,M,M,M,M,M,59.00,KLOL 210753Z AUTO 31003KT 10SM CLR 15/02 A3001 RMK AO2 SLP132 T01500017 402610044,M
BVU,2024-09-21 07:55,-114.8611,35.9475,671.00,66.20,50.00,55.88,0.00,0.00,0.00,29.87,M,10.00,M,FEW,M,M,M,11000.00,M,M,M,M,M,M,M,M,M,M,66.20,KBVU 210755Z AUTO 00000KT 10SM FEW110 19/10 A2987 RMK AO2,M
RNO,2024-09-21 07:55,-119.7711,39.4839,1341.00,58.00,40.00,51.03,0.00,0.00,0.00,30.05,1013.00,10.00,M,CLR,M,M,M,M,M,M,M,M,M,M,M,M,M,M,58.00,KRNO 210755Z 00000KT 10SM CLR 14/04 A3005 RMK AO2 SLP130 T01440044 402610089,M
BAM,2024-09-21 07:55,-116.8743,40.5990,1382.36,57.20,35.60,44.19,350.00,6.00,0.00,30.06,M,10.00,M,CLR,M,M,M,M,M,M,M,M,M,M,M,M,M,M,57.20,KBAM 210755Z AUTO 35006KT 10SM CLR 14/02 A3006 RMK AO1,M
TMT,2024-09-21 07:55,-117.1971,39.4643,1749.34,41.70,37.80,85.91,260.00,3.00,0.00,30.11,M,10.00,M,CLR,M,M,M,M,M,M,M,M,M,M,M,M,M,M,39.78,KTMT 210755Z AUTO 26003KT 10SM CLR 05/03 A3011 RMK AO2 T00540032 402211001,M
INS,2024-09-21 07:55,-115.6733,36.5872,955.00,66.00,36.00,32.88,0.00,0.00,0.00,29.89,1007.80,10.00,M,BKN,M,M,M,14000.00,M,M,M,M,M,M,M,M,M,M,66.00,KINS 210755Z AUTO 00000KT 10SM BKN140 19/02 A2989 RMK AO2 SLP078 T01890023 402930125,M
LSV,2024-09-21 07:55,-115.0343,36.2362,570.00,75.00,47.00,37.01,180.00,5.00,0.00,29.81,1007.00,10.00,M,FEW,FEW,M,M,13000.00,15000.00,M,M,M,M,M,M,M,M,M,75.00,KLSV 210755Z AUTO 18005KT 10SM FEW130 FEW150 24/08 A2981 RMK AO2 SLP070 T02390083 403140206 $,M
EKO,2024-09-21 07:56,-115.7860,40.8242,1367.00,54.00,37.00,52.45,0.00,0.00,0.00,30.06,1013.50,10.00,M,CLR,M,M,M,M,M,M,M,M,M,M,M,M,M,M,54.00,KEKO 210756Z AUTO 00000KT 10SM CLR 12/03 A3006 RMK AO2 SLP135 T01220028 402610044,M
WMC,2024-09-21 07:56,-117.8072,40.9019,1315.00,53.00,34.00,48.30,340.00,7.00,T,30.05,1013.70,10.00,M,CLR,M,M,M,M,M,M,M,-RA,M,M,M,M,M,M,53.00,KWMC 210756Z AUTO 34007KT 10SM -RA CLR 12/01 A3005 RMK AO2 RAB0658 SLP137 P0000 T01170011 402670044,M
HND,2024-09-21 07:56,-115.1344,35.9729,742.79,68.00,51.00,54.50,170.00,10.00,0.00,29.88,1011.30,10.00,M,CLR,M,M,M,M,M,M,M,M,M,M,M,M,M,M,68.00,KHND 210756Z AUTO 17010KT 10SM CLR 20/11 A2988 RMK AO2 SLP113 T02000106,M
TPH,2024-09-21 07:56,-117.0904,38.0505,1654.00,62.00,34.00,34.93,350.00,11.00,0.00,30.03,1010.30,10.00,M,CLR,M,M,M,M,M,M,M,M,M,M,M,M,M,M,62.00,KTPH 210756Z AUTO 35011KT 10SM CLR 17/01 A3003 RMK AO2 SLP103 T01670011 402560089,M
LAS,2024-09-21 07:56,-115.1634,36.0719,663.00,72.00,49.00,44.13,180.00,5.00,0.00,29.86,1008.90,10.00,M,FEW,BKN,OVC,M,9000.00,18000.00,24000.00,M,M,M,M,M,M,M,M,72.00,KLAS 210756Z 18005KT 10SM FEW090 BKN180 OVC240 22/09 A2986 RMK AO2 SLP089 T02220094 402890206,M
NFL,2024-09-21 07:57,-118.7010,39.4166,1199.00,54.00,44.00,68.82,0.00,0.00,0.00,30.00,1012.90,10.00,M,CLR,M,M,M,M,M,M,M,M,M,M,M,M,M,M,54.00,KNFL 210757Z AUTO 00000KT 10SM CLR 12/07 A3000 RMK AO2 SLP129 T01220067 402670072,M
BVU,2024-09-21 08:15,-114.8611,35.9475,671.00,68.00,50.00,52.51,0.00,0.00,0.00,29.87,M,10.00,M,CLR,M,M,M,M,M,M,M,M,M,M,M,M,M,M,68.00,KBVU 210815Z AUTO 00000KT 10SM CLR 20/10 A2987 RMK AO2,M
BAM,2024-09-21 08:15,-116.8743,40.5990,1382.36,53.60,33.80,46.88,10.00,5.00,0.00,30.06,M,10.00,M,CLR,M,M,M,M,M,M,M,M,M,M,M,M,M,M,53.60,KBAM 210815Z AUTO 01005KT 10SM CLR 12/01 A3006 RMK AO1,M
TMT,2024-09-21 08:15,-117.1971,39.4643,1749.34,42.00,39.00,89.01,280.00,3.00,0.00,30.11,M,10.00,M,CLR,M,M,M,M,M,M,M,M,M,M,M,M,M,M,40.12,KTMT 210815Z AUTO 28003KT 10SM CLR 06/04 A3011 RMK AO2 T00560039,M
BVU,2024-09-21 08:35,-114.8611,35.9475,671.00,66.20,50.00,55.88,270.00,4.00,0.00,29.86,M,10.00,M,CLR,M,M,M,M,M,M,M,M,M,M,M,M,M,M,66.20,KBVU 210835Z AUTO 27004KT 10SM CLR 19/10 A2986 RMK AO2,M
BAM,2024-09-21 08:35,-116.8743,40.5990,1382.36,51.80,33.80,50.08,20.00,4.00,0.00,30.06,M,10.00,M,CLR,M,M,M,M,M,M,M,M,M,M,M,M,M,M,51.80,KBAM 210835Z AUTO 02004KT 10SM CLR 11/01 A3006 RMK AO1,M
TMT,2024-09-21 08:35,-117.1971,39.4643,1749.34,40.50,38.30,91.78,270.00,5.00,0.00,30.11,M,10.00,M,CLR,M,M,M,M,M,M,M,M,M,M,M,M,M,M,36.49,KTMT 210835Z AUTO 27005KT 10SM CLR 05/04 A3011 RMK AO2 T00470035,M
P68,2024-09-21 08:53,-116.0056,39.6014,1993.00,41.00,30.00,64.63,0.00,0.00,0.00,30.09,1013.40,M,M,M,M,M,M,M,M,M,M,M,M,M,M,M,M,M,41.00,KP68 210853Z AUTO 00000KT 05/M01 A3009 RMK AO1 SLP134 T00501011 53000,M
DRA,2024-09-21 08:53,-116.0278,36.6206,1009.00,64.00,39.00,39.67,330.00,3.00,0.00,29.89,1008.20,10.00,M,CLR,M,M,M,M,M,M,M,M,M,M,M,M,M,M,64.00,KDRA 210853Z AUTO 33003KT 10SM CLR 18/04 A2989 RMK AO2 SLP082 T01780039 53003,M
ELY,2024-09-21 08:53,-114.8453,39.2950,1909.00,45.00,27.00,49.02,0.00,0.00,0.00,30.10,1011.60,10.00,M,FEW,M,M,M,11000.00,M,M,M,M,M,M,M,M,M,M,45.00,KELY 210853Z AUTO 00000KT 10SM FEW110 07/M03 A3010 RMK AO2 SLP116 T00721028 51007,M
VGT,2024-09-21 08:53,-115.1933,36.2111,667.00,71.00,51.00,49.18,140.00,5.00,0.00,29.86,1010.50,10.00,M,CLR,M,M,M,M,M,M,M,M,M,M,M,M,M,M,71.00,KVGT 210853Z AUTO 14005KT 10SM CLR 22/11 A2986 RMK AO2 SLP105 T02170106 51004,M
LOL,2024-09-21 08:53,-118.5701,40.0684,1192.43,58.00,32.00,37.18,10.00,7.00,0.00,30.01,1013.20,10.00,M,CLR,M,M,M,M,M,M,M,M,M,M,M,M,M,M,58.00,KLOL 210853Z AUTO 01007KT 10SM CLR 14/00 A3001 RMK AO2 SLP132 T01440000 53006,M
BVU,2024-09-21 08:55,-114.8611,35.9475,671.00,66.20,50.00,55.88,280.00,4.00,0.00,29.86,M,10.00,M,FEW,M,M,M,11000.00,M,M,M,M,M,M,M,M,M,M,66.20,KBVU 210855Z AUTO 28004KT 10SM FEW110 19/10 A2986 RMK AO2,M
RNO,2024-09-21 08:55,-119.7711,39.4839,1341.00,58.00,39.00,49.08,0.00,0.00,0.00,30.05,1013.10,10.00,M,CLR,M,M,M,M,M,M,M,M,M,M,M,M,M,M,58.00,KRNO 210855Z 00000KT 10SM CLR 14/04 A3005 RMK AO2 SLP131 T01440039 52004,M
BAM,2024-09-21 08:55,-116.8743,40.5990,1382.36,51.80,32.00,46.59,360.00,4.00,0.00,30.07,M,10.00,M,CLR,M,M,M,M,M,M,M,M,M,M,M,M,M,M,51.80,KBAM 210855Z AUTO 36004KT 10SM CLR 11/00 A3007 RMK AO1,M
TMT,2024-09-21 08:55,-117.1971,39.4643,1749.34,40.00,38.00,92.49,250.00,3.00,0.00,30.11,M,10.00,M,CLR,M,M,M,M,M,M,M,M,M,M,M,M,M,M,37.83,KTMT 210855Z AUTO 25003KT 10SM CLR 05/03 A3011 RMK AO2 T00450034,M
INS,2024-09-21 08:55,-115.6733,36.5872,955.00,63.00,35.00,35.10,270.00,7.00,0.00,29.89,1008.00,10.00,M,CLR,M,M,M,M,M,M,M,M,M,M,M,M,M,M,63.00,KINS 210855Z AUTO 27007KT 10SM CLR 17/02 A2989 RMK AO2 SLP080 T01720016 51002,M
LSV,2024-09-21 08:55,-115.0343,36.2362,570.00,73.00,48.00,41.10,190.00,7.00,0.00,29.81,1007.00,10.00,M,SCT,M,M,M,14000.00,M,M,M,M,M,M,M,M,M,M,73.00,KLSV 210855Z AUTO 19007KT 10SM SCT140 23/09 A2981 RMK AO2 SLP070 T02270088 51009 $,M
EKO,2024-09-21 08:56,-115.7860,40.8242,1367.00,47.00,38.00,70.74,0.00,0.00,0.00,30.07,1014.20,10.00,M,CLR,M,M,M,M,M,M,M,M,M,M,M,M,M,M,47.00,KEKO 210856Z AUTO 00000KT 10SM CLR 08/03 A3007 RMK AO2 SLP142 T00830033 53006,M
WMC,2024-09-21 08:56,-117.8072,40.9019,1315.00,51.00,32.00,47.99,350.00,4.00,T,30.05,1013.80,10.00,M,CLR,M,M,M,M,M,M,M,-RA,M,M,M,M,M,M,51.00,KWMC 210856Z AUTO 35004KT 10SM -RA CLR 11/00 A3005 RMK AO2 RAE15B53 SLP138 P0000 60000 T01060000 51003,M
HND,2024-09-21 08:56,-115.1344,35.9729,742.79,69.00,48.00,47.09,180.00,9.00,0.00,29.89,1011.70,10.00,M,CLR,M,M,M,M,M,M,M,M,M,M,M,M,M,M,69.00,KHND 210856Z AUTO 18009KT 10SM CLR 21/09 A2989 RMK AO2 SLP117 T02060089 51008,M
TPH,2024-09-21 08:56,-117.0904,38.0505,1654.00,62.00,35.00,36.35,330.00,14.00,0.00,30.03,1010.20,10.00,M,CLR,M,M,M,M,M,M,M,M,M,M,M,M,M,M,62.00,KTPH 210856Z AUTO 33014KT 10SM CLR 17/02 A3003 RMK AO2 SLP102 T01670017 50001,M
LAS,2024-09-21 08:56,-115.1634,36.0719,663.00,71.00,48.00,43.98,190.00,7.00,0.00,29.86,1009.20,10.00,M,BKN,BKN,M,M,13000.00,25000.00,M,M,M,M,M,M,M,M,M,71.00,KLAS 210856Z 19007KT 10SM BKN130 BKN250 22/09 A2986 RMK AO2 SLP092 T02170089 51005,M
NFL,2024-09-21 08:57,-118.7010,39.4166,1199.00,53.00,45.00,74.16,290.00,4.00,0.00,30.00,1012.90,10.00,M,CLR,M,M,M,M,M,M,M,M,M,M,M,M,M,M,53.00,KNFL 210857Z AUTO 29004KT 10SM CLR 12/07 A3000 RMK AO2 SLP129 T01170072 50004,M
BVU,2024-09-21 09:15,-114.8611,35.9475,671.00,66.20,48.20,52.25,310.00,3.00,0.00,29.85,M,10.00,M,BKN,M,M,M,11000.00,M,M,M,M,M,M,M,M,M,M,66.20,KBVU 210915Z AUTO 31003KT 10SM BKN110 19/09 A2985 RMK AO2,M
BAM,2024-09-21 09:15,-116.8743,40.5990,1382.36,48.20,32.00,53.27,0.00,0.00,0.00,30.07,M,10.00,M,CLR,M,M,M,M,M,M,M,M,M,M,M,M,M,M,48.20,KBAM 210915Z AUTO 00000KT 10SM CLR 09/00 A3007 RMK AO1,M
TMT,2024-09-21 09:15,-117.1971,39.4643,1749.34,39.20,37.00,91.73,210.00,3.00,0.00,30.12,M,10.00,M,CLR,M,M,M,M,M,M,M,M,M,M,M,M,M,M,36.92,KTMT 210915Z AUTO 21003KT 10SM CLR 04/03 A3012 RMK AO2 T00400028,M
BVU,2024-09-21 09:35,-114.8611,35.9475,671.00,68.00,50.00,52.51,280.00,4.00,0.00,29.83,M,10.00,M,BKN,M,M,M,12000.00,M,M,M,M,M,M,M,M,M,M,68.00,KBVU 210935Z AUTO 28004KT 10SM BKN120 20/10 A2983 RMK AO2,M
BAM,2024-09-21 09:35,-116.8743,40.5990,1382.36,44.60,30.20,56.74,130.00,5.00,0.00,30.07,M,10.00,M,CLR,M,M,M,M,M,M,M,M,M,M,M,M,M,M,41.36,KBAM 210935Z AUTO 13005KT 10SM CLR 07/M01 A3007 RMK AO1,M
TMT,2024-09-21 09:35,-117.1971,39.4643,1749.34,35.40,34.00,94.58,0.00,0.00,0.00,30.12,M,10.00,M,CLR,M,M,M,M,M,M,M,M,M,M,M,M,M,M,35.40,KTMT 210935Z AUTO 00000KT 10SM CLR 02/01 A3012 RMK AO2 T00190012,M
P68,2024-09-21 09:53,-116.0056,39.6014,1993.00,41.00,30.00,64.63,140.00,4.00,0.00,30.08,1012.80,M,M,M,M,M,M,M,M,M,M,M,M,M,M,M,M,M,37.93,KP68 210953Z AUTO 14004KT 05/M01 A3008 RMK AO1 SLP128 T00501011,M
DRA,2024-09-21 09:53,-116.0278,36.6206,1009.00,62.00,41.00,46.00,120.00,9.00,0.00,29.88,1007.80,10.00,M,CLR,M,M,M,M,M,M,M,M,M,M,M,M,M,M,62.00,KDRA 210953Z AUTO 12009KT 10SM CLR 17/05 A2988 RMK AO2 SLP078 T01670050,M
ELY,2024-09-21 09:53,-114.8453,39.2950,1909.00,38.00,24.00,56.71,190.00,7.00,0.00,30.09,1012.50,10.00,M,CLR,M,M,M,M,M,M,M,M,M,M,M,M,M,M,32.09,KELY 210953Z AUTO 19007KT 10SM CLR 03/M04 A3009 RMK AO2 SLP125 T00331044,M
VGT,2024-09-21 09:53,-115.1933,36.2111,667.00,70.00,49.00,47.24,0.00,0.00,0.00,29.85,1010.20,10.00,M,CLR,M,M,M,M,M,M,M,M,M,M,M,M,M,M,70.00,KVGT 210953Z AUTO 00000KT 10SM CLR 21/09 A2985 RMK AO2 SLP102 T02110094,M
LOL,2024-09-21 09:53,-118.5701,40.0684,1192.43,59.00,31.00,34.45,360.00,9.00,0.00,30.01,1012.90,10.00,M,CLR,M,M,M,M,M,M,M,M,M,M,M,M,M,M,59.00,KLOL 210953Z AUTO 36009KT 10SM CLR 15/M01 A3001 RMK AO2 SLP129 T01501006,M
BVU,2024-09-21 09:55,-114.8611,35.9475,671.00,66.20,50.00,55.88,360.00,4.00,0.00,29.84,M,10.00,M,SCT,M,M,M,11000.00,M,M,M,M,M,M,M,M,M,M,66.20,KBVU 210955Z AUTO 36004KT 10SM SCT110 19/10 A2984 RMK AO2,M
RNO,2024-09-21 09:55,-119.7711,39.4839,1341.00,55.00,40.00,56.88,0.00,0.00,0.00,30.06,1013.60,10.00,M,CLR,M,M,M,M,M,M,M,M,M,M,M,M,M,M,55.00,KRNO 210955Z 00000KT 10SM CLR 13/04 A3006 RMK AO2 SLP136 T01280044,M
BAM,2024-09-21 09:55,-116.8743,40.5990,1382.36,44.60,30.20,56.74,0.00,0.00,0.00,30.07,M,10.00,M,CLR,M,M,M,M,M,M,M,M,M,M,M,M,M,M,44.60,KBAM 210955Z AUTO 00000KT 10SM CLR 07/M01 A3007 RMK AO1,M
TMT,2024-09-21 09:55,-117.1971,39.4643,1749.34,34.00,33.30,97.24,130.00,3.00,0.00,30.11,M,10.00,M,CLR,M,M,M,M,M,M,M,M,M,M,M,M,M,M,30.97,KTMT 210955Z AUTO 13003KT 10SM CLR 01/01 A3011 RMK AO2 T00120007,M
INS,2024-09-21 09:55,-115.6733,36.5872,955.00,63.70,36.00,35.63,0.00,0.00,0.00,29.89,1007.80,10.00,M,CLR,M,M,M,M,M,M,M,M,M,M,M,M,M,M,63.70,KINS 210955Z AUTO 00000KT 10SM CLR 18/02 A2989 RMK AO2 SLP078 T01760023,M
LSV,2024-09-21 09:55,-115.0343,36.2362,570.00,71.20,47.70,43.19,240.00,5.00,0.00,29.81,1007.00,10.00,M,CLR,M,M,M,M,M,M,M,M,M,M,M,M,M,M,71.20,KLSV 210955Z AUTO 24005KT 10SM CLR 22/09 A2981 RMK AO2 SLP070 T02180087 $,M
EKO,2024-09-21 09:56,-115.7860,40.8242,1367.00,45.00,37.00,73.37,0.00,0.00,0.00,30.07,1014.50,10.00,M,CLR,M,M,M,M,M,M,M,M,M,M,M,M,M,M,45.00,KEKO 210956Z AUTO 00000KT 10SM CLR 07/03 A3007 RMK AO2 SLP145 T00720028,M
WMC,2024-09-21 09:56,-117.8072,40.9019,1315.00,52.00,31.00,44.42,350.00,5.00,T,30.05,1013.80,10.00,M,CLR,M,M,M,M,M,M,M,-RA,M,M,M,M,M,M,52.00,KWMC 210956Z AUTO 35005KT 10SM -RA CLR 11/M01 A3005 RMK AO2 RAE02B35 SLP138 P0000 T01111006,M
HND,2024-09-21 09:56,-115.1344,35.9729,742.79,67.00,49.00,52.37,200.00,11.00,0.00,29.87,1010.90,10.00,M,SCT,M,M,M,11000.00,M,M,M,M,M,M,M,M,M,M,67.00,KHND 210956Z AUTO 20011KT 10SM SCT110 19/09 A2987 RMK AO2 SLP109 T01940094,M
TPH,2024-09-21 09:56,-117.0904,38.0505,1654.00,60.00,34.00,37.50,320.00,10.00,0.00,30.03,1010.20,10.00,M,CLR,M,M,M,M,M,M,M,M,M,M,M,M,M,M,60.00,KTPH 210956Z AUTO 32010KT 10SM CLR 16/01 A3003 RMK AO2 SLP102 T01560011,M
LAS,2024-09-21 09:56,-115.1634,36.0719,663.00,71.00,46.00,40.78,220.00,8.00,0.00,29.85,1008.50,10.00,M,SCT,BKN,M,M,14000.00,25000.00,M,M,M,M,M,M,M,M,M,71.00,KLAS 210956Z 22008KT 10SM SCT140 BKN250 22/08 A2985 RMK AO2 SLP085 T02170078,M
NFL,2024-09-21 09:57,-118.7010,39.4166,1199.00,52.00,41.00,66.00,0.00,0.00,0.00,30.00,1013.00,10.00,M,CLR,M,M,M,M,M,M,M,M,M,M,M,M,M,M,52.00,KNFL 210957Z AUTO 00000KT 10SM CLR 11/05 A3000 RMK AO2 SLP130 T01110050,M
BVU,2024-09-21 10:15,-114.8611,35.9475,671.00,66.20,50.00,55.88,0.00,0.00,0.00,29.83,M,10.00,M,SCT,M,M,M,12000.00,M,M,M,M,M,M,M,M,M,M,66.20,KBVU 211015Z AUTO 00000KT 10SM SCT120 19/10 A2983 RMK AO2,M
BAM,2024-09-21 10:15,-116.8743,40.5990,1382.36,46.40,32.00,57.00,120.00,3.00,0.00,30.07,M,10.00,M,CLR,M,M,M,M,M,M,M,M,M,M,M,M,M,M,45.15,KBAM 211015Z AUTO 12003KT 10SM CLR 08/00 A3007 RMK AO1,M
TMT,2024-09-21 10:15,-117.1971,39.4643,1749.34,36.30,34.50,93.10,0.00,0.00,0.00,30.12,M,10.00,M,CLR,M,M,M,M,M,M,M,M,M,M,M,M,M,M,36.30,KTMT 211015Z AUTO 00000KT 10SM CLR 02/01 A3012 RMK AO2 T00240014,M
BVU,2024-09-21 10:35,-114.8611,35.9475,671.00,64.40,46.40,51.98,340.00,4.00,0.00,29.82,M,10.00,M,FEW,M,M,M,12000.00,M,M,M,M,M,M,M,M,M,M,64.40,KBVU 211035Z AUTO 34004KT 10SM FEW120 18/08 A2982 RMK AO2,M
BAM,2024-09-21 10:35,-116.8743,40.5990,1382.36,46.40,32.00,57.00,0.00,0.00,0.00,30.07,M,10.00,M,CLR,M,M,M,M,M,M,M,M,M,M,M,M,M,M,46.40,KBAM 211035Z AUTO 00000KT 10SM CLR 08/00 A3007 RMK AO1,M
TMT,2024-09-21 10:35,-117.1971,39.4643,1749.34,36.00,34.70,94.97,0.00,0.00,0.00,30.12,M,10.00,M,CLR,M,M,M,M,M,M,M,M,M,M,M,M,M,M,36.00,KTMT 211035Z AUTO 00000KT 10SM CLR 02/02 A3012 RMK AO2 T00220015,M
P68,2024-09-21 10:53,-116.0056,39.6014,1993.00,41.00,30.00,64.63,180.00,4.00,0.00,30.09,1013.10,M,M,M,M,M,M,M,M,M,M,M,M,M,M,M,M,M,37.93,KP68 211053Z AUTO 18004KT 05/M01 A3009 RMK AO1 SLP131 T00501011,M
ELY,2024-09-21 10:53,-114.8453,39.2950,1909.00,38.00,25.00,59.13,200.00,6.00,0.00,30.08,1011.70,10.00,M,CLR,M,M,M,M,M,M,M,M,M,M,M,M,M,M,32.76,KELY 211053Z AUTO 20006KT 10SM CLR 03/M04 A3008 RMK AO2 SLP117 T00331039,M
VGT,2024-09-21 10:53,-115.1933,36.2111,667.00,70.00,50.00,49.03,20.00,4.00,0.00,29.83,1009.70,10.00,M,CLR,M,M,M,M,M,M,M,M,M,M,M,M,M,M,70.00,KVGT 211053Z AUTO 02004KT 10SM CLR 21/10 A2983 RMK AO2 SLP097 T02110100,M
LOL,2024-09-21 10:53,-118.5701,40.0684,1192.43,58.00,30.00,34.28,40.00,6.00,0.00,30.02,1013.20,10.00,M,CLR,M,M,M,M,M,M,M,M,M,M,M,M,M,M,58.00,KLOL 211053Z AUTO 04006KT 10SM CLR 14/M01 A3002 RMK AO2 SLP132 T01441011,M
BVU,2024-09-21 10:55,-114.8611,35.9475,671.00,64.40,46.40,51.98,300.00,3.00,0.00,29.82,M,10.00,M,CLR,M,M,M,M,M,M,M,M,M,M,M,M,M,M,64.40,KBVU 211055Z AUTO 30003KT 10SM CLR 18/08 A2982 RMK AO2,M
RNO,2024-09-21 10:55,-119.7711,39.4839,1341.00,52.00,40.00,63.48,200.00,3.00,0.00,30.07,1013.90,10.00,M,CLR,M,M,M,M,M,M,M,M,M,M,M,M,M,M,52.00,KRNO 211055Z 20003KT 10SM CLR 11/04 A3007 RMK AO2 SLP139 T01110044,M
BAM,2024-09-21 10:55,-116.8743,40.5990,1382.36,50.00,32.00,49.81,0.00,0.00,0.00,30.07,M,10.00,M,CLR,M,M,M,M,M,M,M,M,M,M,M,M,M,M,50.00,KBAM 211055Z AUTO 00000KT 10SM CLR 10/00 A3007 RMK AO1,M
TMT,2024-09-21 10:55,-117.1971,39.4643,1749.34,35.20,33.80,94.57,0.00,0.00,0.00,30.12,M,10.00,M,CLR,M,M,M,M,M,M,M,M,M,M,M,M,M,M,35.20,KTMT 211055Z AUTO 00000KT 10SM CLR 02/01 A3012 RMK AO2 T00180010,M
INS,2024-09-21 10:55,-115.6733,36.5872,955.00,60.60,35.60,39.12,260.00,3.00,0.00,29.89,1008.00,10.00,M,SCT,M,M,M,13000.00,M,M,M,M,M,M,M,M,M,M,60.60,KINS 211055Z AUTO 26003KT 10SM SCT130 16/02 A2989 RMK AO2 SLP080 T01590020,M
LSV,2024-09-21 10:55,-115.0343,36.2362,570.00,70.50,47.50,43.90,0.00,0.00,0.00,29.79,1006.40,10.00,M,CLR,M,M,M,M,M,M,M,M,M,M,M,M,M,M,70.50,KLSV 211055Z AUTO 00000KT 10SM CLR 21/09 A2979 RMK AO2 SLP064 T02140086 $,M
EKO,2024-09-21 10:56,-115.7860,40.8242,1367.00,45.00,38.00,76.31,0.00,0.00,0.00,30.07,1014.40,10.00,M,CLR,M,M,M,M,M,M,M,M,M,M,M,M,M,M,45.00,KEKO 211056Z AUTO 00000KT 10SM CLR 07/03 A3007 RMK AO2 SLP144 T00720033,M
WMC,2024-09-21 10:56,-117.8072,40.9019,1315.00,45.00,32.00,60.11,260.00,4.00,T,30.06,1014.60,10.00,M,CLR,M,M,M,M,M,M,M,M,M,M,M,M,M,M,42.60,KWMC 211056Z AUTO 26004KT 10SM CLR 07/00 A3006 RMK AO2 RAE02B15E49 SLP146 P0000 T00720000,M
HND,2024-09-21 10:56,-115.1344,35.9729,742.79,66.00,47.00,50.29,180.00,7.00,0.00,29.87,1010.90,10.00,M,CLR,M,M,M,M,M,M,M,M,M,M,M,M,M,M,66.00,KHND 211056Z AUTO 18007KT 10SM CLR 19/08 A2987 RMK AO2 SLP109 T01890083,M
TPH,2024-09-21 10:56,-117.0904,38.0505,1654.00,52.00,33.00,48.15,50.00,6.00,0.00,30.04,1011.40,10.00,M,SCT,M,M,M,11000.00,M,M,M,M,M,M,M,M,M,M,52.00,KTPH 211056Z AUTO 05006KT 10SM SCT110 11/01 A3004 RMK AO2 SLP114 T01110006,M
LAS,2024-09-21 10:56,-115.1634,36.0719,663.00,69.00,45.00,42.04,140.00,3.00,0.00,29.85,1008.60,10.00,M,FEW,SCT,M,M,14000.00,25000.00,M,M,M,M,M,M,M,M,M,69.00,KLAS 211056Z COR 14003KT 10SM FEW140 SCT250 21/07 A2985 RMK AO2 SLP086 T02060072,M
NFL,2024-09-21 10:57,-118.7010,39.4166,1199.00,50.00,42.00,73.87,0.00,0.00,0.00,30.02,1013.50,10.00,M,CLR,M,M,M,M,M,M,M,M,M,M,M,M,M,M,50.00,KNFL 211057Z AUTO 00000KT 10SM CLR 10/06 A3002 RMK AO2 SLP135 T01000056,M
BVU,2024-09-21 11:15,-114.8611,35.9475,671.00,64.40,48.20,55.63,0.00,0.00,0.00,29.83,M,10.00,M,CLR,M,M,M,M,M,M,M,M,M,M,M,M,M,M,64.40,KBVU 211115Z AUTO 00000KT 10SM CLR 18/09 A2983 RMK AO2,M
BAM,2024-09-21 11:15,-116.8743,40.5990,1382.36,44.60,30.20,56.74,0.00,0.00,0.00,30.07,M,10.00,M,CLR,M,M,M,M,M,M,M,M,M,M,M,M,M,M,44.60,KBAM 211115Z AUTO 00000KT 10SM CLR 07/M01 A3007 RMK AO1,M
TMT,2024-09-21 11:15,-117.1971,39.4643,1749.34,36.00,33.80,91.62,0.00,0.00,0.00,30.12,M,10.00,M,CLR,M,M,M,M,M,M,M,M,M,M,M,M,M,M,36.00,KTMT 211115Z AUTO 00000KT 10SM CLR 02/01 A3012 RMK AO2 T00220010,M
BVU,2024-09-21 11:35,-114.8611,35.9475,671.00,66.20,48.20,52.25,30.00,6.00,0.00,29.83,M,10.00,M,CLR,M,M,M,M,M,M,M,M,M,M,M,M,M,M,66.20,KBVU 211135Z AUTO 03006KT 10SM CLR 19/09 A2983 RMK AO2,M
BAM,2024-09-21 11:35,-116.8743,40.5990,1382.36,44.60,28.40,52.72,110.00,4.00,0.00,30.07,M,10.00,M,CLR,M,M,M,M,M,M,M,M,M,M,M,M,M,M,42.13,KBAM 211135Z AUTO 11004KT 10SM CLR 07/M02 A3007 RMK AO1,M
TMT,2024-09-21 11:35,-117.1971,39.4643,1749.34,35.20,33.60,93.82,210.00,3.00,0.00,30.12,M,10.00,M,CLR,M,M,M,M,M,M,M,M,M,M,M,M,M,M,32.35,KTMT 211135Z AUTO 21003KT 10SM CLR 02/01 A3012 RMK AO2 T00180009,M
P68,2024-09-21 11:53,-116.0056,39.6014,1993.00,44.00,32.00,62.44,200.00,6.00,0.00,30.09,1012.70,M,M,M,M,M,M,M,M,M,M,M,M,M,M,M,M,M,39.98,KP68 211153Z AUTO 20006KT 07/00 A3009 RMK AO1 SLP127 T00670000 10072 20033 50000,M
DRA,2024-09-21 11:53,-116.0278,36.6206,1009.00,58.00,38.00,47.20,70.00,4.00,0.00,29.90,1008.70,10.00,M,CLR,M,M,M,M,M,M,M,M,M,M,M,M,M,M,58.00,KDRA 211153Z AUTO 07004KT 10SM CLR 14/03 A2990 RMK AO2 SLP087 T01440033 10200 20144 53000,M
ELY,2024-09-21 11:53,-114.8453,39.2950,1909.00,38.00,26.00,61.64,200.00,6.00,0.00,30.09,1011.80,10.00,M,CLR,M,M,M,M,M,M,M,M,M,M,M,M,M,M,32.76,KELY 211153Z AUTO 20006KT 10SM CLR 03/M03 A3009 RMK AO2 SLP118 T00331033 10106 20017 55003,M
VGT,2024-09-21 11:53,-115.1933,36.2111,667.00,69.00,50.00,50.74,170.00,3.00,0.00,29.83,1009.80,10.00,M,CLR,M,M,M,M,M,M,M,M,M,M,M,M,M,M,69.00,KVGT 211153Z AUTO 17003KT 10SM CLR 21/10 A2983 RMK AO2 SLP098 T02060100 10250 20206 55007,M
LOL,2024-09-21 11:53,-118.5701,40.0684,1192.43,54.00,32.00,42.98,360.00,6.00,0.00,30.03,1014.00,10.00,M,CLR,M,M,M,M,M,M,M,M,M,M,M,M,M,M,54.00,KLOL 211153Z AUTO 36006KT 10SM CLR 12/00 A3003 RMK AO2 SLP140 T01220000 10172 20100 53005,M
BVU,2024-09-21 11:55,-114.8611,35.9475,671.00,66.20,48.20,52.25,50.00,5.00,0.00,29.83,M,10.00,M,CLR,M,M,M,M,M,M,M,M,M,M,M,M,M,M,66.20,KBVU 211155Z AUTO 05005KT 10SM CLR 19/09 A2983 RMK AO2,M
RNO,2024-09-21 11:55,-119.7711,39.4839,1341.00,53.00,40.00,61.19,0.00,0.00,0.00,30.07,1013.80,10.00,M,CLR,M,M,M,M,M,M,M,M,M,M,M,M,M,M,53.00,KRNO 211155Z 00000KT 10SM CLR 12/04 A3007 RMK AO2 SLP138 T01170044 10183 20111 51005,M
BAM,2024-09-21 11:55,-116.8743,40.5990,1382.36,41.00,28.40,60.54,0.00,0.00,0.00,30.08,M,10.00,M,CLR,M,M,M,M,M,M,M,M,M,M,M,M,M,M,41.00,KBAM 211155Z AUTO 00000KT 10SM CLR 05/M02 A3008 RMK AO1,M
TMT,2024-09-21 11:55,-117.1971,39.4643,1749.34,32.40,32.00,98.40,150.00,5.00,0.00,30.12,M,10.00,M,CLR,M,M,M,M,M,M,M,M,M,M,M,M,M,M,26.87,KTMT 211155Z AUTO 15005KT 10SM CLR 00/00 A3012 RMK AO2 T00020000 10078 20001,M
INS,2024-09-21 11:55,-115.6733,36.5872,955.00,58.60,35.00,41.03,260.00,5.00,0.00,29.89,1008.30,10.00,M,BKN,M,M,M,13000.00,M,M,M,M,M,M,M,M,M,M,58.60,KINS 211155Z AUTO 26005KT 10SM BKN130 15/02 A2989 RMK AO2 SLP083 T01480017 10215 20147 50000,M
LSV,2024-09-21 11:55,-115.0343,36.2362,570.00,69.30,46.00,43.22,50.00,3.00,0.00,29.79,1006.40,10.00,M,BKN,M,M,M,14000.00,M,M,M,M,M,M,M,M,M,M,69.30,KLSV 211155Z AUTO 05003KT 10SM BKN140 21/08 A2979 RMK AO2 SLP064 T02070077 10258 20198 56007 $,M
EKO,2024-09-21 11:56,-115.7860,40.8242,1367.00,43.00,37.00,79.19,170.00,3.00,0.00,30.07,1014.60,10.00,M,CLR,M,M,M,M,M,M,M,M,M,M,M,M,M,M,41.26,KEKO 211156Z AUTO 17003KT 10SM CLR 06/03 A3007 RMK AO2 SLP146 T00610028 10133 20061 52001,M
WMC,2024-09-21 11:56,-117.8072,40.9019,1315.00,43.00,33.00,67.54,120.00,3.00,T,30.07,1015.00,10.00,M,CLR,M,M,M,M,M,M,M,-RA,M,M,M,M,M,M,41.26,KWMC 211156Z AUTO 12003KT 10SM -RA CLR 06/01 A3007 RMK AO2 RAB36 SLP150 P0000 60000 T00610006 10172 20050 53006,M
HND,2024-09-21 11:56,-115.1344,35.9729,742.79,65.00,48.00,54.07,180.00,8.00,0.00,29.86,1010.70,10.00,M,FEW,M,M,M,12000.00,M,M,M,M,M,M,M,M,M,M,65.00,KHND 211156Z AUTO 18008KT 10SM FEW120 18/09 A2986 RMK AO2 SLP107 T01830089 10233 20178 56009,M
TPH,2024-09-21 11:56,-117.0904,38.0505,1654.00,53.00,33.00,46.41,330.00,8.00,0.00,30.05,1011.50,10.00,M,SCT,M,M,M,11000.00,M,M,M,M,M,M,M,M,M,M,53.00,KTPH 211156Z AUTO 33008KT 10SM SCT110 12/01 A3005 RMK AO2 SLP115 T01170006 10172 20111 53004,M
LAS,2024-09-21 11:56,-115.1634,36.0719,663.00,68.00,47.00,46.93,250.00,3.00,0.00,29.84,1008.40,10.00,M,BKN,BKN,M,M,13000.00,20000.00,M,M,M,M,M,M,M,M,M,68.00,KLAS 211156Z 25003KT 10SM BKN130 BKN200 20/08 A2984 RMK AO2 SLP084 T02000083 10239 20200 56008,M
BVU,2024-09-21 12:15,-114.8611,35.9475,671.00,66.20,50.00,55.88,50.00,7.00,0.00,29.83,M,10.00,M,CLR,M,M,M,M,M,M,M,M,M,M,M,M,M,M,66.20,KBVU 211215Z AUTO 05007KT 10SM CLR 19/10 A2983 RMK AO2,M
BAM,2024-09-21 12:15,-116.8743,40.5990,1382.36,41.00,28.40,60.54,140.00,4.00,0.00,30.08,M,10.00,M,CLR,M,M,M,M,M,M,M,M,M,M,M,M,M,M,37.93,KBAM 211215Z AUTO 14004KT 10SM CLR 05/M02 A3008 RMK AO1,M
TMT,2024-09-21 12:15,-117.1971,39.4643,1749.34,34.70,34.00,97.25,0.00,0.00,0.00,30.13,M,10.00,M,CLR,M,M,M,M,M,M,M,M,M,M,M,M,M,M,34.70,KTMT 211215Z AUTO 00000KT 10SM CLR 02/01 A3013 RMK AO2 T00150012,M
BVU,2024-09-21 12:35,-114.8611,35.9475,671.00,68.00,50.00,52.51,90.00,3.00,0.00,29.83,M,10.00,M,FEW,M,M,M,12000.00,M,M,M,M,M,M,M,M,M,M,68.00,KBVU 211235Z AUTO 09003KT 10SM FEW120 20/10 A2983 RMK AO2,M
BAM,2024-09-21 12:35,-116.8743,40.5990,1382.36,39.20,28.40,64.93,110.00,3.00,0.00,30.08,M,10.00,M,CLR,M,M,M,M,M,M,M,M,M,M,M,M,M,M,36.92,KBAM 211235Z AUTO 11003KT 10SM CLR 04/M02 A3008 RMK AO1,M
TMT,2024-09-21 12:35,-117.1971,39.4643,1749.34,34.00,33.00,96.08,0.00,0.00,0.00,30.12,M,10.00,M,CLR,M,M,M,M,M,M,M,M,M,M,M,M,M,M,34.00,KTMT 211235Z AUTO 00000KT 10SM CLR 01/01 A3012 RMK AO2 T00120006,M
P68,2024-09-21 12:53,-116.0056,39.6014,1993.00,40.00,31.00,69.97,190.00,6.00,0.00,30.09,1013.50,M,M,M,M,M,M,M,M,M,M,M,M,M,M,M,M,M,35.17,KP68 211253Z AUTO 19006KT 04/M01 A3009 RMK AO1 SLP135 T00441006,M
DRA,2024-09-21 12:53,-116.0278,36.6206,1009.00,56.00,37.00,48.77,0.00,0.00,0.00,29.91,1009.30,10.00,M,CLR,M,M,M,M,M,M,M,M,M,M,M,M,M,M,56.00,KDRA 211253Z AUTO 00000KT 10SM CLR 13/03 A2991 RMK AO2 SLP093 T01330028,M
ELY,2024-09-21 12:53,-114.8453,39.2950,1909.00,35.00,25.00,66.57,180.00,8.00,0.00,30.10,1012.90,10.00,M,CLR,M,M,M,M,M,M,M,M,M,M,M,M,M,M,27.81,KELY 211253Z AUTO 18008KT 10SM CLR 02/M04 A3010 RMK AO2 SLP129 T00171039,M
VGT,2024-09-21 12:53,-115.1933,36.2111,667.00,70.00,50.00,49.03,270.00,5.00,0.00,29.84,1010.10,10.00,M,SCT,M,M,M,12000.00,M,M,M,M,M,M,M,M,M,M,70.00,KVGT 211253Z 27005KT 10SM SCT120 21/10 A2984 RMK AO2 SLP101 T02110100,M
LOL,2024-09-21 12:53,-118.5701,40.0684,1192.43,55.00,30.00,38.21,360.00,9.00,0.00,30.04,1014.30,10.00,M,CLR,M,M,M,M,M,M,M,M,M,M,M,M,M,M,55.00,KLOL 211253Z AUTO 36009KT 10SM CLR 13/M01 A3004 RMK AO2 SLP143 T01281011,M
BVU,2024-09-21 12:55,-114.8611,35.9475,671.00,66.20,50.00,55.88,0.00,0.00,0.00,29.84,M,10.00,M,FEW,FEW,BKN,M,4500.00,7000.00,11000.00,M,M,M,M,M,M,M,M,66.20,KBVU 211255Z AUTO 00000KT 10SM FEW045 FEW070 BKN110 19/10 A2984 RMK AO2 LTG DSNT E,M
RNO,2024-09-21 12:55,-119.7711,39.4839,1341.00,50.00,39.00,65.75,0.00,0.00,0.00,30.09,1014.70,10.00,M,CLR,M,M,M,M,M,M,M,M,M,M,M,M,M,M,50.00,KRNO 211255Z 00000KT 10SM CLR 10/04 A3009 RMK AO2 SLP147 T01000039,M
BAM,2024-09-21 12:55,-116.8743,40.5990,1382.36,39.20,28.40,64.93,0.00,0.00,0.00,30.08,M,10.00,M,CLR,M,M,M,M,M,M,M,M,M,M,M,M,M,M,39.20,KBAM 211255Z AUTO 00000KT 10SM CLR 04/M02 A3008 RMK AO1,M
TMT,2024-09-21 12:55,-117.1971,39.4643,1749.34,34.30,33.60,97.24,310.00,4.00,0.00,30.13,M,10.00,M,CLR,M,M,M,M,M,M,M,M,M,M,M,M,M,M,30.11,KTMT 211255Z AUTO 31004KT 10SM CLR 01/01 A3013 RMK AO2 T00130009,M
INS,2024-09-21 12:55,-115.6733,36.5872,955.00,58.50,35.40,41.84,250.00,7.00,0.00,29.90,1008.80,10.00,M,CLR,M,M,M,M,M,M,M,M,M,M,M,M,M,M,58.50,KINS 211255Z AUTO 25007KT 10SM CLR 15/02 A2990 RMK AO2 SLP088 T01470019,M
LSV,2024-09-21 12:55,-115.0343,36.2362,570.00,70.00,47.00,43.82,270.00,3.00,0.00,29.80,1006.90,10.00,M,SCT,BKN,M,M,11000.00,14000.00,M,M,M,M,M,M,M,M,M,70.00,KLSV 211255Z AUTO 27003KT 10SM SCT110 BKN140 21/08 A2980 RMK AO2 SLP069 T02110084 $,M
EKO,2024-09-21 12:56,-115.7860,40.8242,1367.00,41.00,36.00,82.22,0.00,0.00,0.00,30.08,1015.30,10.00,M,CLR,M,M,M,M,M,M,M,M,M,M,M,M,M,M,41.00,KEKO 211256Z AUTO 00000KT 10SM CLR 05/02 A3008 RMK AO2 SLP153 T00500022,M
WMC,2024-09-21 12:56,-117.8072,40.9019,1315.00,41.00,31.00,67.30,0.00,0.00,T,30.07,1015.60,10.00,M,CLR,M,M,M,M,M,M,M,M,M,M,M,M,M,M,41.00,KWMC 211256Z AUTO 00000KT 10SM CLR 05/M01 A3007 RMK AO2 RAE36 SLP156 P0000 T00501006,M
HND,2024-09-21 12:56,-115.1344,35.9729,742.79,65.00,49.00,56.13,230.00,7.00,0.00,29.88,1011.40,10.00,M,FEW,M,M,M,11000.00,M,M,M,M,M,M,M,M,M,M,65.00,KHND 211256Z 23007KT 10SM FEW110 18/09 A2988 RMK AO2 SLP114 T01830094,M
TPH,2024-09-21 12:56,-117.0904,38.0505,1654.00,51.00,33.00,49.96,340.00,9.00,0.00,30.05,1012.00,10.00,M,CLR,M,M,M,M,M,M,M,M,M,M,M,M,M,M,51.00,KTPH 211256Z AUTO 34009KT 10SM CLR 11/01 A3005 RMK AO2 SLP120 T01060006,M
LAS,2024-09-21 12:56,-115.1634,36.0719,663.00,69.00,45.00,42.04,230.00,3.00,0.00,29.85,1008.90,10.00,M,BKN,BKN,M,M,15000.00,20000.00,M,M,M,M,M,M,M,M,M,69.00,KLAS 211256Z 23003KT 10SM BKN150 BKN200 21/07 A2985 RMK AO2 SLP089 T02060072,M
BVU,2024-09-21 13:15,-114.8611,35.9475,671.00,64.40,50.00,59.50,0.00,0.00,0.00,29.85,M,10.00,M,FEW,FEW,OVC,M,5000.00,7000.00,11000.00,M,M,M,M,M,M,M,M,64.40,KBVU 211315Z AUTO 00000KT 10SM FEW050 FEW070 OVC110 18/10 A2985 RMK AO2,M
BAM,2024-09-21 13:15,-116.8743,40.5990,1382.36,41.00,28.40,60.54,0.00,0.00,0.00,30.09,M,10.00,M,CLR,M,M,M,M,M,M,M,M,M,M,M,M,M,M,41.00,KBAM 211315Z AUTO 00000KT 10SM CLR 05/M02 A3009 RMK AO1,M
TMT,2024-09-21 13:15,-117.1971,39.4643,1749.34,34.50,33.40,95.70,0.00,0.00,0.00,30.14,M,10.00,M,CLR,M,M,M,M,M,M,M,M,M,M,M,M,M,M,34.50,KTMT 211315Z AUTO 00000KT 10SM CLR 01/01 A3014 RMK AO2 T00140008,M
BVU,2024-09-21 13:35,-114.8611,35.9475,671.00,64.40,48.20,55.63,320.00,5.00,0.00,29.85,M,10.00,M,BKN,M,M,M,11000.00,M,M,M,M,M,M,M,M,M,M,64.40,KBVU 211335Z AUTO 32005KT 10SM BKN110 18/09 A2985 RMK AO2,M
BAM,2024-09-21 13:35,-116.8743,40.5990,1382.36,41.00,28.40,60.54,120.00,3.00,0.00,30.09,M,10.00,M,CLR,M,M,M,M,M,M,M,M,M,M,M,M,M,M,38.98,KBAM 211335Z AUTO 12003KT 10SM CLR 05/M02 A3009 RMK AO1,M
TMT,2024-09-21 13:35,-117.1971,39.4643,1749.34,33.00,32.00,96.06,0.00,0.00,0.00,30.14,M,10.00,M,CLR,M,M,M,M,M,M,M,M,M,M,M,M,M,M,33.00,KTMT 211335Z AUTO 00000KT 10SM CLR 01/00 A3014 RMK AO2 T00060001,M
P68,2024-09-21 13:53,-116.0056,39.6014,1993.00,41.00,31.00,67.30,190.00,4.00,0.00,30.11,1015.00,M,M,M,M,M,M,M,M,M,M,M,M,M,M,M,M,M,37.93,KP68 211353Z AUTO 19004KT 05/M01 A3011 RMK AO1 SLP150 T00501006,M
DRA,2024-09-21 13:53,-116.0278,36.6206,1009.00,55.00,37.00,50.58,0.00,0.00,0.00,29.93,1010.20,10.00,M,CLR,M,M,M,M,M,M,M,M,M,M,M,M,M,M,55.00,KDRA 211353Z AUTO 00000KT 10SM CLR 13/03 A2993 RMK AO2 SLP102 T01280028,M
ELY,2024-09-21 13:53,-114.8453,39.2950,1909.00,35.00,24.00,63.85,180.00,8.00,0.00,30.11,1014.40,10.00,M,CLR,M,M,M,M,M,M,M,M,M,M,M,M,M,M,27.81,KELY 211353Z AUTO 18008KT 10SM CLR 02/M04 A3011 RMK AO2 SLP144 T00171044,M
VGT,2024-09-21 13:53,-115.1933,36.2111,667.00,69.00,50.00,50.74,150.00,6.00,0.00,29.85,1010.50,10.00,M,CLR,M,M,M,M,M,M,M,M,M,M,M,M,M,M,69.00,KVGT 211353Z 15006KT 10SM CLR 21/10 A2985 RMK AO2 SLP105 T02060100,M
LOL,2024-09-21 13:53,-118.5701,40.0684,1192.43,54.00,30.00,39.63,30.00,8.00,0.00,30.06,1015.40,10.00,M,CLR,M,M,M,M,M,M,M,M,M,M,M,M,M,M,54.00,KLOL 211353Z AUTO 03008KT 10SM CLR 12/M01 A3006 RMK AO2 SLP154 T01221011,M
BAM,2024-09-21 13:55,-116.8743,40.5990,1382.36,41.00,28.40,60.54,0.00,0.00,0.00,30.10,M,10.00,M,CLR,M,M,M,M,M,M,M,M,M,M,M,M,M,M,41.00,KBAM 211355Z AUTO 00000KT 10SM CLR 05/M02 A3010 RMK AO1,M
BVU,2024-09-21 13:55,-114.8611,35.9475,671.00,64.40,48.20,55.63,330.00,5.00,0.00,29.85,M,10.00,M,FEW,M,M,M,12000.00,M,M,M,M,M,M,M,M,M,M,64.40,KBVU 211355Z AUTO 33005KT 10SM FEW120 18/09 A2985 RMK AO2,M
RNO,2024-09-21 13:55,-119.7711,39.4839,1341.00,50.00,39.00,65.75,0.00,0.00,0.00,30.10,1015.30,10.00,M,CLR,M,M,M,M,M,M,M,M,M,M,M,M,M,M,50.00,KRNO 211355Z 00000KT 10SM CLR 10/04 A3010 RMK AO2 SLP153 T01000039,M
TMT,2024-09-21 13:55,-117.1971,39.4643,1749.34,32.00,31.00,96.04,0.00,0.00,0.00,30.15,M,10.00,M,CLR,M,M,M,M,M,M,M,M,M,M,M,M,M,M,32.00,KTMT 211355Z AUTO 00000KT 10SM CLR 00/00 A3015 RMK AO2 T10011005,M
INS,2024-09-21 13:55,-115.6733,36.5872,955.00,58.60,37.00,44.41,240.00,8.00,0.00,29.92,1009.50,10.00,M,CLR,M,M,M,M,M,M,M,M,M,M,M,M,M,M,58.60,KINS 211355Z AUTO 24008KT 10SM CLR 15/03 A2992 RMK AO2 SLP095 T01480027,M
LSV,2024-09-21 13:55,-115.0343,36.2362,570.00,69.40,47.00,44.73,160.00,3.00,0.00,29.81,1007.30,10.00,M,BKN,M,M,M,12000.00,M,M,M,M,M,M,M,M,M,M,69.40,KLSV 211355Z AUTO 16003KT 10SM BKN120 21/08 A2981 RMK AO2 SLP073 T02080084 $,M
EKO,2024-09-21 13:56,-115.7860,40.8242,1367.00,42.00,36.00,79.11,0.00,0.00,0.00,30.10,1016.50,10.00,M,CLR,M,M,M,M,M,M,M,M,M,M,M,M,M,M,42.00,KEKO 211356Z AUTO 00000KT 10SM CLR 06/02 A3010 RMK AO2 SLP165 T00560022,M
WMC,2024-09-21 13:56,-117.8072,40.9019,1315.00,41.00,30.00,64.63,0.00,0.00,T,30.09,1016.60,10.00,M,CLR,M,M,M,M,M,M,M,M,M,M,M,M,M,M,41.00,KWMC 211356Z AUTO 00000KT 10SM CLR 05/M01 A3009 RMK AO2 RAB10E11B27E37 SLP166 P0000 T00501011,M
HND,2024-09-21 13:56,-115.1344,35.9729,742.79,65.00,48.00,54.07,210.00,9.00,0.00,29.89,1011.80,10.00,M,CLR,M,M,M,M,M,M,M,M,M,M,M,M,M,M,65.00,KHND 211356Z 21009KT 10SM CLR 18/09 A2989 RMK AO2 SLP118 T01830089,M
TPH,2024-09-21 13:56,-117.0904,38.0505,1654.00,50.00,33.00,51.85,350.00,11.00,0.00,30.07,1013.00,10.00,M,CLR,M,M,M,M,M,M,M,M,M,M,M,M,M,M,50.00,KTPH 211356Z AUTO 35011KT 10SM CLR 10/01 A3007 RMK AO2 SLP130 T01000006,M
LAS,2024-09-21 13:56,-115.1634,36.0719,663.00,69.00,46.00,43.67,200.00,5.00,0.00,29.86,1009.20,10.00,M,SCT,SCT,M,M,12000.00,20000.00,M,M,M,M,M,M,M,M,M,69.00,KLAS 211356Z 20005KT 10SM SCT120 SCT200 21/08 A2986 RMK AO2 SLP092 T02060078,M
NFL,2024-09-21 13:57,-118.7010,39.4166,1199.00,46.00,40.00,79.44,160.00,3.00,0.00,30.06,1014.70,10.00,M,CLR,M,M,M,M,M,M,M,M,M,M,M,M,M,M,44.69,KNFL 211357Z AUTO 16003KT 10SM CLR 08/04 A3006 RMK AO2 SLP147 T00780044,M
BVU,2024-09-21 14:15,-114.8611,35.9475,671.00,68.00,48.20,49.10,0.00,0.00,0.00,29.86,M,10.00,M,FEW,M,M,M,12000.00,M,M,M,M,M,M,M,M,M,M,68.00,KBVU 211415Z AUTO 00000KT 10SM FEW120 20/09 A2986 RMK AO2,M
BAM,2024-09-21 14:15,-116.8743,40.5990,1382.36,41.00,28.40,60.54,0.00,0.00,0.00,30.11,M,10.00,M,CLR,M,M,M,M,M,M,M,M,M,M,M,M,M,M,41.00,KBAM 211415Z AUTO 00000KT 10SM CLR 05/M02 A3011 RMK AO1,M
TMT,2024-09-21 14:15,-117.1971,39.4643,1749.34,35.60,34.50,95.72,0.00,0.00,0.00,30.15,M,10.00,M,CLR,M,M,M,M,M,M,M,M,M,M,M,M,M,M,35.60,KTMT 211415Z AUTO 00000KT 10SM CLR 02/01 A3015 RMK AO2 T00200014,M
BVU,2024-09-21 14:35,-114.8611,35.9475,671.00,68.00,48.20,49.10,0.00,0.00,0.00,29.87,M,10.00,M,CLR,M,M,M,M,M,M,M,M,M,M,M,M,M,M,68.00,KBVU 211435Z AUTO 00000KT 10SM CLR 20/09 A2987 RMK AO2,M
BAM,2024-09-21 14:35,-116.8743,40.5990,1382.36,46.40,30.20,53.00,0.00,0.00,0.00,30.11,M,10.00,M,CLR,M,M,M,M,M,M,M,M,M,M,M,M,M,M,46.40,KBAM 211435Z AUTO 00000KT 10SM CLR 08/M01 A3011 RMK AO1,M
TMT,2024-09-21 14:35,-117.1971,39.4643,1749.34,38.00,37.00,96.14,0.00,0.00,0.00,30.15,M,10.00,M,CLR,M,M,M,M,M,M,M,M,M,M,M,M,M,M,38.00,KTMT 211435Z AUTO 00000KT 10SM CLR 03/03 A3015 RMK AO2 T00340028,M
05U,2024-09-21 14:50,-116.0051,39.6042,1811.23,50.00,33.80,53.54,0.00,0.00,0.00,30.14,M,10.00,M,CLR,M,M,M,M,M,M,M,M,M,M,M,M,M,M,50.00,K05U 211450Z AUTO 00000KT 10SM CLR 10/01 A3014 RMK A01,M
P68,2024-09-21 14:53,-116.0056,39.6014,1993.00,50.00,35.00,56.16,200.00,4.00,0.00,30.12,1014.80,M,M,M,M,M,M,M,M,M,M,M,M,M,M,M,M,M,50.00,KP68 211453Z AUTO 20004KT 10/02 A3012 RMK AO1 SLP148 T01000017 53008,M
DRA,2024-09-21 14:53,-116.0278,36.6206,1009.00,61.00,39.00,44.10,0.00,0.00,0.00,29.95,1010.60,10.00,M,CLR,M,M,M,M,M,M,M,M,M,M,M,M,M,M,61.00,KDRA 211453Z AUTO 00000KT 10SM CLR 16/04 A2995 RMK AO2 SLP106 T01610039 53016,M
ELY,2024-09-21 14:53,-114.8453,39.2950,1909.00,46.00,29.00,51.24,170.00,5.00,0.00,30.12,1013.90,10.00,M,CLR,M,M,M,M,M,M,M,M,M,M,M,M,M,M,43.02,KELY 211453Z AUTO 17005KT 10SM CLR 08/M02 A3012 RMK AO2 SLP139 T00781017 51008,M
VGT,2024-09-21 14:53,-115.1933,36.2111,667.00,72.00,45.00,37.96,330.00,11.00,0.00,29.86,1010.90,10.00,16.00,CLR,M,M,M,M,M,M,M,M,M,M,M,M,M,M,72.00,KVGT 211453Z 33011G16KT 10SM CLR 22/07 A2986 RMK AO2 SLP109 T02220072 53009,M
LOL,2024-09-21 14:53,-118.5701,40.0684,1192.43,59.00,29.00,31.76,30.00,10.00,0.00,30.07,1015.80,10.00,M,CLR,M,M,M,M,M,M,M,M,M,M,M,M,M,M,59.00,KLOL 211453Z AUTO 03010KT 10SM CLR 15/M02 A3007 RMK AO2 SLP158 T01501017 53012,M
BVU,2024-09-21 14:55,-114.8611,35.9475,671.00,69.80,46.40,43.13,0.00,0.00,0.00,29.87,M,10.00,M,CLR,M,M,M,M,M,M,M,M,M,M,M,M,M,M,69.80,KBVU 211455Z AUTO 00000KT 10SM CLR 21/08 A2987 RMK AO2 LTG DSNT E,M
RNO,2024-09-21 14:55,-119.7711,39.4839,1341.00,54.00,38.00,54.56,290.00,3.00,0.00,30.11,1015.80,10.00,M,CLR,M,M,M,M,M,M,M,M,M,M,M,M,M,M,54.00,KRNO 211455Z 29003KT 10SM CLR 12/03 A3011 RMK AO2 SLP158 T01220033 51014,M
BAM,2024-09-21 14:55,-116.8743,40.5990,1382.36,51.80,30.20,43.32,350.00,4.00,0.00,30.11,M,10.00,M,CLR,M,M,M,M,M,M,M,M,M,M,M,M,M,M,51.80,KBAM 211455Z AUTO 35004KT 10SM CLR 11/M01 A3011 RMK AO1,M
CXP,2024-09-21 14:55,-119.7326,39.1923,1431.00,50.00,41.00,71.07,0.00,0.00,0.00,30.14,M,10.00,M,CLR,M,M,M,M,M,M,M,M,M,M,M,M,M,M,50.00,KCXP 211455Z AUTO 00000KT 10SM CLR 10/05 A3014 RMK AO2,M
LSV,2024-09-21 14:55,-115.0343,36.2362,570.00,72.00,48.00,42.51,0.00,0.00,0.00,29.83,1007.90,10.00,M,CLR,M,M,M,M,M,M,M,M,M,M,M,M,M,M,72.00,KLSV 211455Z AUTO 00000KT 10SM CLR 22/09 A2983 RMK AO2 SLP079 T02230088 52011 $,M
RTS,2024-09-21 14:55,-119.8764,39.6682,1539.00,50.00,33.80,53.54,0.00,0.00,0.00,30.14,M,10.00,M,CLR,M,M,M,M,M,M,M,M,M,M,M,M,M,M,50.00,KRTS 211455Z AUTO 00000KT 10SM CLR 10/01 A3014 RMK AO2,M
MEV,2024-09-21 14:55,-119.7500,38.9963,1441.42,44.60,41.00,87.09,0.00,0.00,0.00,30.12,M,10.00,M,CLR,M,M,M,M,M,M,M,M,M,M,M,M,M,M,44.60,KMEV 211455Z AUTO 00000KT 10SM CLR 07/05 A3012 RMK AO2,M
TMT,2024-09-21 14:55,-117.1971,39.4643,1749.34,41.00,38.50,90.73,0.00,0.00,0.00,30.15,M,10.00,M,CLR,M,M,M,M,M,M,M,M,M,M,M,M,M,M,41.00,KTMT 211455Z AUTO 00000KT 10SM CLR 05/04 A3015 RMK AO2 T00490036,M
INS,2024-09-21 14:55,-115.6733,36.5872,955.00,62.40,36.50,38.04,290.00,4.00,0.00,29.94,1010.00,10.00,M,FEW,M,M,M,10000.00,M,M,M,M,M,M,M,M,M,M,62.40,KINS 211455Z AUTO 29004KT 10SM FEW100 17/03 A2994 RMK AO2 SLP100 T01690025 52017,M
EKO,2024-09-21 14:56,-115.7860,40.8242,1367.00,48.00,39.00,70.85,0.00,0.00,0.00,30.11,1017.10,10.00,M,CLR,M,M,M,M,M,M,M,M,M,M,M,M,M,M,48.00,KEKO 211456Z AUTO 00000KT 10SM CLR 09/04 A3011 RMK AO2 SLP171 T00890039 51011,M
WMC,2024-09-21 14:56,-117.8072,40.9019,1315.00,50.00,35.00,56.16,0.00,0.00,0.00,30.11,1017.40,10.00,M,CLR,M,M,M,M,M,M,M,M,M,M,M,M,M,M,50.00,KWMC 211456Z AUTO 00000KT 10SM CLR 10/02 A3011 RMK AO2 SLP174 60000 T01000017 53012,M
HND,2024-09-21 14:56,-115.1344,35.9729,742.79,67.00,48.00,50.44,220.00,9.00,0.00,29.91,1012.60,10.00,M,FEW,M,M,M,12000.00,M,M,M,M,M,M,M,M,M,M,67.00,KHND 211456Z 22009KT 10SM FEW120 19/09 A2991 RMK AO2 SLP126 T01940089 53015,M
TPH,2024-09-21 14:56,-117.0904,38.0505,1654.00,57.00,34.00,41.76,350.00,10.00,0.00,30.08,1013.00,10.00,M,CLR,M,M,M,M,M,M,M,M,M,M,M,M,M,M,57.00,KTPH 211456Z AUTO 35010KT 10SM CLR 14/01 A3008 RMK AO2 SLP130 T01390011 53010,M
LAS,2024-09-21 14:56,-115.1634,36.0719,663.00,71.00,47.00,42.35,200.00,5.00,0.00,29.88,1009.90,10.00,M,FEW,FEW,M,M,12000.00,20000.00,M,M,M,M,M,M,M,M,M,71.00,KLAS 211456Z 20005KT 10SM FEW120 FEW200 22/08 A2988 RMK AO2 SLP099 T02170083 53014,M
05U,2024-09-21 15:10,-116.0051,39.6042,1811.23,55.40,33.80,43.90,0.00,0.00,0.00,30.14,M,10.00,M,CLR,M,M,M,M,M,M,M,M,M,M,M,M,M,M,55.40,K05U 211510Z AUTO 00000KT 10SM CLR 13/01 A3014 RMK A01,M
BVU,2024-09-21 15:15,-114.8611,35.9475,671.00,71.60,46.40,40.57,0.00,0.00,0.00,29.87,M,10.00,M,CLR,M,M,M,M,M,M,M,M,M,M,M,M,M,M,71.60,KBVU 211515Z AUTO 00000KT 10SM CLR 22/08 A2987 RMK AO2,M
BAM,2024-09-21 15:15,-116.8743,40.5990,1382.36,53.60,30.20,40.54,340.00,6.00,0.00,30.11,M,10.00,M,CLR,M,M,M,M,M,M,M,M,M,M,M,M,M,M,53.60,KBAM 211515Z AUTO 34006KT 10SM CLR 12/M01 A3011 RMK AO1,M
CXP,2024-09-21 15:15,-119.7326,39.1923,1431.00,51.80,41.00,66.48,0.00,0.00,0.00,30.14,M,10.00,M,CLR,M,M,M,M,M,M,M,M,M,M,M,M,M,M,51.80,KCXP 211515Z AUTO 00000KT 10SM CLR 11/05 A3014 RMK AO2,M
RTS,2024-09-21 15:15,-119.8764,39.6682,1539.00,51.80,32.00,46.59,0.00,0.00,0.00,30.14,M,10.00,M,CLR,M,M,M,M,M,M,M,M,M,M,M,M,M,M,51.80,KRTS 211515Z AUTO 00000KT 10SM CLR 11/M00 A3014 RMK AO2,M
MEV,2024-09-21 15:15,-119.7500,38.9963,1441.42,48.20,42.80,81.47,0.00,0.00,0.00,30.12,M,10.00,M,CLR,M,M,M,M,M,M,M,M,M,M,M,M,M,M,48.20,KMEV 211515Z AUTO 00000KT 10SM CLR 09/06 A3012 RMK AO2,M
HTH,2024-09-21 15:15,-118.6315,38.5448,1282.89,60.80,44.60,55.12,0.00,0.00,0.00,30.10,M,10.00,M,CLR,M,M,M,M,M,M,M,M,M,M,M,M,M,M,60.80,KHTH 211515Z AUTO 00000KT 10SM CLR 16/07 A3010 RMK A01,M
TMT,2024-09-21 15:15,-117.1971,39.4643,1749.34,43.50,39.20,84.69,0.00,0.00,0.00,30.15,M,10.00,M,CLR,M,M,M,M,M,M,M,M,M,M,M,M,M,M,43.50,KTMT 211515Z AUTO 00000KT 10SM CLR 06/04 A3015 RMK AO2 T00640040,M
10U,2024-09-21 15:15,-116.1876,41.9532,1637.00,46.40,30.20,53.00,130.00,3.00,0.00,30.16,M,10.00,M,CLR,M,M,M,M,M,M,M,M,M,M,M,M,M,M,45.15,K10U 211515Z AUTO 13003KT 10SM CLR 08/M01 A3016 RMK AO2,M
05U,2024-09-21 15:30,-116.0051,39.6042,1811.23,57.20,35.60,44.19,0.00,0.00,0.00,30.15,M,10.00,M,CLR,M,M,M,M,M,M,M,M,M,M,M,M,M,M,57.20,K05U 211530Z AUTO 00000KT 10SM CLR 14/02 A3015 RMK A01,M
BVU,2024-09-21 15:35,-114.8611,35.9475,671.00,73.40,46.40,38.18,0.00,0.00,0.00,29.88,M,10.00,M,CLR,M,M,M,M,M,M,M,M,M,M,M,M,M,M,73.40,KBVU 211535Z AUTO 00000KT 10SM CLR 23/08 A2988 RMK AO2,M
BAM,2024-09-21 15:35,-116.8743,40.5990,1382.36,55.40,32.00,40.84,350.00,5.00,0.00,30.12,M,10.00,M,CLR,M,M,M,M,M,M,M,M,M,M,M,M,M,M,55.40,KBAM 211535Z AUTO 35005KT 10SM CLR 13/00 A3012 RMK AO1,M
CXP,2024-09-21 15:35,-119.7326,39.1923,1431.00,53.60,39.20,58.02,0.00,0.00,0.00,30.14,M,10.00,M,CLR,M,M,M,M,M,M,M,M,M,M,M,M,M,M,53.60,KCXP 211535Z AUTO 00000KT 10SM CLR 12/04 A3014 RMK AO2,M
RTS,2024-09-21 15:35,-119.8764,39.6682,1539.00,53.60,32.00,43.61,0.00,0.00,0.00,30.14,M,10.00,M,CLR,M,M,M,M,M,M,M,M,M,M,M,M,M,M,53.60,KRTS 211535Z AUTO 00000KT 10SM CLR 12/00 A3014 RMK AO2,M
MEV,2024-09-21 15:35,-119.7500,38.9963,1441.42,51.80,41.00,66.48,0.00,0.00,0.00,30.12,M,10.00,M,CLR,M,M,M,M,M,M,M,M,M,M,M,M,M,M,51.80,KMEV 211535Z AUTO 00000KT 10SM CLR 11/05 A3012 RMK AO2,M
HTH,2024-09-21 15:35,-118.6315,38.5448,1282.89,60.80,42.80,51.45,0.00,0.00,0.00,30.10,M,10.00,M,CLR,M,M,M,M,M,M,M,M,M,M,M,M,M,M,60.80,KHTH 211535Z AUTO 00000KT 10SM CLR 16/06 A3010 RMK A01,M
TMT,2024-09-21 15:35,-117.1971,39.4643,1749.34,47.00,40.60,78.30,0.00,0.00,0.00,30.16,M,10.00,M,CLR,M,M,M,M,M,M,M,M,M,M,M,M,M,M,47.00,KTMT 211535Z AUTO 00000KT 10SM CLR 08/05 A3016 RMK AO2 T00840048,M
10U,2024-09-21 15:35,-116.1876,41.9532,1637.00,50.00,30.20,46.31,150.00,5.00,0.00,30.16,M,10.00,M,CLR,M,M,M,M,M,M,M,M,M,M,M,M,M,M,50.00,K10U 211535Z AUTO 15005KT 10SM CLR 10/M01 A3016 RMK AO2,M
05U,2024-09-21 15:50,-116.0051,39.6042,1811.23,59.00,35.60,41.42,0.00,0.00,0.00,30.14,M,10.00,M,CLR,M,M,M,M,M,M,M,M,M,M,M,M,M,M,59.00,K05U 211550Z AUTO 00000KT 10SM CLR 15/02 A3014 RMK A01,M
P68,2024-09-21 15:53,-116.0056,39.6014,1993.00,61.00,36.00,39.19,350.00,4.00,0.00,30.11,1014.00,M,M,M,M,M,M,M,M,M,M,M,M,M,M,M,M,M,61.00,KP68 211553Z AUTO 35004KT 16/02 A3011 RMK AO1 SLP140 T01610022,M
DRA,2024-09-21 15:53,-116.0278,36.6206,1009.00,68.00,40.00,35.90,0.00,0.00,0.00,29.95,1010.30,10.00,M,CLR,M,M,M,M,M,M,M,M,M,M,M,M,M,M,68.00,KDRA 211553Z AUTO 00000KT 10SM CLR 20/04 A2995 RMK AO2 SLP103 T02000044,M
ELY,2024-09-21 15:53,-114.8453,39.2950,1909.00,55.00,34.00,44.90,0.00,0.00,0.00,30.12,1013.50,10.00,M,CLR,M,M,M,M,M,M,M,M,M,M,M,M,M,M,55.00,KELY 211553Z AUTO 00000KT 10SM CLR 13/01 A3012 RMK AO2 SLP135 T01280011,M
VGT,2024-09-21 15:53,-115.1933,36.2111,667.00,76.00,47.00,35.80,320.00,12.00,0.00,29.87,1011.10,10.00,M,CLR,M,M,M,M,M,M,M,M,M,M,M,M,M,M,76.00,KVGT 211553Z 32012KT 10SM CLR 24/08 A2987 RMK AO2 SLP111 T02440083,M
LOL,2024-09-21 15:53,-118.5701,40.0684,1192.43,62.00,29.00,28.54,20.00,9.00,0.00,30.07,1015.90,10.00,M,CLR,M,M,M,M,M,M,M,M,M,M,M,M,M,M,62.00,KLOL 211553Z AUTO 02009KT 10SM CLR 17/M02 A3007 RMK AO2 SLP159 T01671017,M
BVU,2024-09-21 15:55,-114.8611,35.9475,671.00,73.40,46.40,38.18,0.00,0.00,0.00,29.88,M,10.00,M,CLR,M,M,M,M,M,M,M,M,M,M,M,M,M,M,73.40,KBVU 211555Z AUTO 00000KT 10SM CLR 23/08 A2988 RMK AO2,M
RNO,2024-09-21 15:55,-119.7711,39.4839,1341.00,58.00,38.00,47.20,0.00,0.00,0.00,30.12,1015.90,10.00,M,CLR,M,M,M,M,M,M,M,M,M,M,M,M,M,M,58.00,KRNO 211555Z 00000KT 10SM CLR 14/03 A3012 RMK AO2 SLP159 T01440033,M
BAM,2024-09-21 15:55,-116.8743,40.5990,1382.36,55.40,32.00,40.84,350.00,5.00,0.00,30.12,M,10.00,M,CLR,M,M,M,M,M,M,M,M,M,M,M,M,M,M,55.40,KBAM 211555Z AUTO 35005KT 10SM CLR 13/00 A3012 RMK AO1,M
CXP,2024-09-21 15:55,-119.7326,39.1923,1431.00,55.40,39.20,54.34,0.00,0.00,0.00,30.14,M,10.00,M,CLR,M,M,M,M,M,M,M,M,M,M,M,M,M,M,55.40,KCXP 211555Z AUTO 00000KT 10SM CLR 13/04 A3014 RMK AO2,M
RTS,2024-09-21 15:55,-119.8764,39.6682,1539.00,57.20,32.00,38.26,0.00,0.00,0.00,30.14,M,10.00,M,CLR,M,M,M,M,M,M,M,M,M,M,M,M,M,M,57.20,KRTS 211555Z AUTO 00000KT 10SM CLR 14/M00 A3014 RMK AO2,M
MEV,2024-09-21 15:55,-119.7500,38.9963,1441.42,53.60,41.00,62.23,0.00,0.00,0.00,30.12,M,10.00,M,CLR,M,M,M,M,M,M,M,M,M,M,M,M,M,M,53.60,KMEV 211555Z AUTO 00000KT 10SM CLR 12/05 A3012 RMK AO2,M
HTH,2024-09-21 15:55,-118.6315,38.5448,1282.89,62.60,44.60,51.72,0.00,0.00,0.00,30.10,M,10.00,M,CLR,M,M,M,M,M,M,M,M,M,M,M,M,M,M,62.60,KHTH 211555Z AUTO 00000KT 10SM CLR 17/07 A3010 RMK A01,M
TMT,2024-09-21 15:55,-117.1971,39.4643,1749.34,49.50,41.00,72.41,0.00,0.00,0.00,30.16,M,10.00,M,CLR,M,M,M,M,M,M,M,M,M,M,M,M,M,M,49.50,KTMT 211555Z AUTO 00000KT 10SM CLR 10/05 A3016 RMK AO2 T00970049,M
10U,2024-09-21 15:55,-116.1876,41.9532,1637.00,51.80,32.00,46.59,0.00,0.00,0.00,30.16,M,10.00,M,CLR,M,M,M,M,M,M,M,M,M,M,M,M,M,M,51.80,K10U 211555Z AUTO 00000KT 10SM CLR 11/00 A3016 RMK AO2,M
INS,2024-09-21 15:55,-115.6733,36.5872,955.00,70.00,38.00,31.00,10.00,6.00,0.00,29.94,1010.00,10.00,M,CLR,M,M,M,M,M,M,M,M,M,M,M,M,M,M,70.00,KINS 211555Z AUTO 01006KT 10SM CLR 21/03 A2994 RMK AO2 SLP100 T02110033,M
LSV,2024-09-21 15:55,-115.0343,36.2362,570.00,75.60,45.00,33.63,180.00,3.00,0.00,29.84,1008.30,10.00,M,CLR,M,M,M,M,M,M,M,M,M,M,M,M,M,M,75.60,KLSV 211555Z AUTO 18003KT 10SM CLR 24/07 A2984 RMK AO2 SLP083 T02420073 $,M
EKO,2024-09-21 15:56,-115.7860,40.8242,1367.00,55.00,39.00,54.70,0.00,0.00,0.00,30.11,1016.70,10.00,M,CLR,M,M,M,M,M,M,M,M,M,M,M,M,M,M,55.00,KEKO 211556Z AUTO 00000KT 10SM CLR 13/04 A3011 RMK AO2 SLP167 T01280039,M
WMC,2024-09-21 15:56,-117.8072,40.9019,1315.00,60.00,29.00,30.64,360.00,4.00,0.00,30.11,1016.30,10.00,M,CLR,M,M,M,M,M,M,M,M,M,M,M,M,M,M,60.00,KWMC 211556Z AUTO 36004KT 10SM CLR 16/M02 A3011 RMK AO2 SLP163 T01561017,M
HND,2024-09-21 15:56,-115.1344,35.9729,742.79,73.00,47.00,39.58,210.00,11.00,0.00,29.92,1012.60,10.00,M,CLR,M,M,M,M,M,M,M,M,M,M,M,M,M,M,73.00,KHND 211556Z 21011KT 10SM CLR 23/08 A2992 RMK AO2 SLP126 T02280083,M
TPH,2024-09-21 15:56,-117.0904,38.0505,1654.00,66.00,35.00,31.60,330.00,7.00,0.00,30.08,1012.20,10.00,M,CLR,M,M,M,M,M,M,M,M,M,M,M,M,M,M,66.00,KTPH 211556Z AUTO 33007KT 10SM CLR 19/02 A3008 RMK AO2 SLP122 T01890017,M
LAS,2024-09-21 15:56,-115.1634,36.0719,663.00,73.00,47.00,39.58,160.00,4.00,0.00,29.89,1010.20,10.00,M,FEW,FEW,M,M,12000.00,20000.00,M,M,M,M,M,M,M,M,M,73.00,KLAS 211556Z 16004KT 10SM FEW120 FEW200 23/08 A2989 RMK AO2 SLP102 T02280083,M
05U,2024-09-21 16:10,-116.0051,39.6042,1811.23,59.00,33.80,38.56,0.00,0.00,0.00,30.14,M,10.00,M,CLR,M,M,M,M,M,M,M,M,M,M,M,M,M,M,59.00,K05U 211610Z AUTO 00000KT 10SM CLR 15/01 A3014 RMK A01,M
BVU,2024-09-21 16:15,-114.8611,35.9475,671.00,73.40,44.60,35.66,0.00,0.00,0.00,29.89,M,10.00,M,CLR,M,M,M,M,M,M,M,M,M,M,M,M,M,M,73.40,KBVU 211615Z AUTO 00000KT 10SM CLR 23/07 A2989 RMK AO2,M
BAM,2024-09-21 16:15,-116.8743,40.5990,1382.36,59.00,32.00,35.87,360.00,3.00,0.00,30.12,M,10.00,M,CLR,M,M,M,M,M,M,M,M,M,M,M,M,M,M,59.00,KBAM 211615Z AUTO 36003KT 10SM CLR 15/00 A3012 RMK AO1,M
CXP,2024-09-21 16:15,-119.7326,39.1923,1431.00,57.20,41.00,54.60,0.00,0.00,0.00,30.14,M,10.00,M,CLR,M,M,M,M,M,M,M,M,M,M,M,M,M,M,57.20,KCXP 211615Z AUTO 00000KT 10SM CLR 14/05 A3014 RMK AO2,M
RTS,2024-09-21 16:15,-119.8764,39.6682,1539.00,59.00,30.20,33.35,0.00,0.00,0.00,30.14,M,10.00,M,CLR,M,M,M,M,M,M,M,M,M,M,M,M,M,M,59.00,KRTS 211615Z AUTO 00000KT 10SM CLR 15/M01 A3014 RMK AO2,M
MEV,2024-09-21 16:15,-119.7500,38.9963,1441.42,55.40,39.20,54.34,0.00,0.00,0.00,30.12,M,10.00,M,CLR,M,M,M,M,M,M,M,M,M,M,M,M,M,M,55.40,KMEV 211615Z AUTO 00000KT 10SM CLR 13/04 A3012 RMK AO2,M
HTH,2024-09-21 16:15,-118.6315,38.5448,1282.89,62.60,42.80,48.28,350.00,4.00,0.00,30.10,M,10.00,M,CLR,M,M,M,M,M,M,M,M,M,M,M,M,M,M,62.60,KHTH 211615Z AUTO 35004KT 10SM CLR 17/06 A3010 RMK A01,M
TMT,2024-09-21 16:15,-117.1971,39.4643,1749.34,52.30,41.50,66.54,0.00,0.00,0.00,30.16,M,10.00,M,CLR,M,M,M,M,M,M,M,M,M,M,M,M,M,M,52.30,KTMT 211615Z AUTO 00000KT 10SM CLR 11/05 A3016 RMK AO2 T01130053,M
10U,2024-09-21 16:15,-116.1876,41.9532,1637.00,53.60,32.00,43.61,0.00,0.00,0.00,30.16,M,10.00,M,CLR,M,M,M,M,M,M,M,M,M,M,M,M,M,M,53.60,K10U 211615Z AUTO 00000KT 10SM CLR 12/00 A3016 RMK AO2,M
05U,2024-09-21 16:30,-116.0051,39.6042,1811.23,60.80,33.80,36.16,0.00,0.00,0.00,30.15,M,10.00,M,CLR,M,M,M,M,M,M,M,M,M,M,M,M,M,M,60.80,K05U 211630Z AUTO 00000KT 10SM CLR 16/01 A3015 RMK A01,M
BVU,2024-09-21 16:35,-114.8611,35.9475,671.00,75.20,44.60,33.57,0.00,0.00,0.00,29.89,M,10.00,M,CLR,M,M,M,M,M,M,M,M,M,M,M,M,M,M,75.20,KBVU 211635Z AUTO 00000KT 10SM CLR 24/07 A2989 RMK AO2,M
CXP,2024-09-21 16:35,-119.7326,39.1923,1431.00,59.00,39.20,47.72,0.00,0.00,0.00,30.14,M,10.00,M,CLR,M,M,M,M,M,M,M,M,M,M,M,M,M,M,59.00,KCXP 211635Z AUTO 00000KT 10SM CLR 15/04 A3014 RMK AO2,M
RTS,2024-09-21 16:35,-119.8764,39.6682,1539.00,60.80,28.40,29.06,0.00,0.00,0.00,30.14,M,10.00,M,CLR,M,M,M,M,M,M,M,M,M,M,M,M,M,M,60.80,KRTS 211635Z AUTO 00000KT 10SM CLR 16/M02 A3014 RMK AO2,M
MEV,2024-09-21 16:35,-119.7500,38.9963,1441.42,57.20,39.20,50.91,0.00,0.00,0.00,30.12,M,10.00,M,CLR,M,M,M,M,M,M,M,M,M,M,M,M,M,M,57.20,KMEV 211635Z AUTO 00000KT 10SM CLR 14/04 A3012 RMK AO2,M
BAM,2024-09-21 16:35,-116.8743,40.5990,1382.36,60.80,32.00,33.64,350.00,6.00,0.00,30.12,M,10.00,M,CLR,M,M,M,M,M,M,M,M,M,M,M,M,M,M,60.80,KBAM 211635Z AUTO 35006KT 10SM CLR 16/00 A3012 RMK AO1,M
HTH,2024-09-21 16:35,-118.6315,38.5448,1282.89,64.40,41.00,42.28,350.00,4.00,0.00,30.10,M,10.00,M,CLR,M,M,M,M,M,M,M,M,M,M,M,M,M,M,64.40,KHTH 211635Z AUTO 35004KT 10SM CLR 18/05 A3010 RMK A01,M
TMT,2024-09-21 16:35,-117.1971,39.4643,1749.34,54.70,42.40,63.10,0.00,0.00,0.00,30.15,M,10.00,M,CLR,M,M,M,M,M,M,M,M,M,M,M,M,M,M,54.70,KTMT 211635Z AUTO 00000KT 10SM CLR 13/06 A3015 RMK AO2 T01260058,M
10U,2024-09-21 16:35,-116.1876,41.9532,1637.00,55.40,30.20,37.97,0.00,0.00,0.00,30.16,M,10.00,M,CLR,M,M,M,M,M,M,M,M,M,M,M,M,M,M,55.40,K10U 211635Z AUTO 00000KT 10SM CLR 13/M01 A3016 RMK AO2,M
05U,2024-09-21 16:50,-116.0051,39.6042,1811.23,62.60,35.60,36.45,0.00,0.00,0.00,30.15,M,10.00,M,CLR,M,M,M,M,M,M,M,M,M,M,M,M,M,M,62.60,K05U 211650Z AUTO 00000KT 10SM CLR 17/02 A3015 RMK A01,M
P68,2024-09-21 16:53,-116.0056,39.6014,1993.00,63.00,37.00,37.99,10.00,7.00,0.00,30.12,1014.50,M,M,M,M,M,M,M,M,M,M,M,M,M,M,M,M,M,63.00,KP68 211653Z AUTO 01007KT 17/03 A3012 RMK AO1 SLP145 T01720028,M
DRA,2024-09-21 16:53,-116.0278,36.6206,1009.00,76.00,40.00,27.38,M,4.00,0.00,29.95,1010.00,10.00,M,CLR,M,M,M,M,M,M,M,M,M,M,M,M,M,M,76.00,KDRA 211653Z AUTO VRB04KT 10SM CLR 24/04 A2995 RMK AO2 SLP100 T02440044,M
ELY,2024-09-21 16:53,-114.8453,39.2950,1909.00,62.00,36.00,37.83,20.00,5.00,0.00,30.11,1013.00,10.00,M,CLR,M,M,M,M,M,M,M,M,M,M,M,M,M,M,62.00,KELY 211653Z AUTO 02005KT 10SM CLR 17/02 A3011 RMK AO2 SLP130 T01670022,M
VGT,2024-09-21 16:53,-115.1933,36.2111,667.00,81.00,46.00,29.23,M,3.00,0.00,29.88,1011.40,10.00,M,CLR,M,M,M,M,M,M,M,M,M,M,M,M,M,M,79.76,KVGT 211653Z VRB03KT 10SM CLR 27/08 A2988 RMK AO2 SLP114 T02720078,M
LOL,2024-09-21 16:53,-118.5701,40.0684,1192.43,66.00,29.00,24.81,30.00,10.00,0.00,30.08,1016.10,10.00,M,CLR,M,M,M,M,M,M,M,M,M,M,M,M,M,M,66.00,KLOL 211653Z AUTO 03010KT 10SM CLR 19/M02 A3008 RMK AO2 SLP161 T01891017,M
BAM,2024-09-21 16:55,-116.8743,40.5990,1382.36,62.60,32.00,31.56,360.00,5.00,0.00,30.12,M,10.00,M,CLR,M,M,M,M,M,M,M,M,M,M,M,M,M,M,62.60,KBAM 211655Z AUTO 36005KT 10SM CLR 17/00 A3012 RMK AO1,M
BVU,2024-09-21 16:55,-114.8611,35.9475,671.00,75.20,44.60,33.57,M,5.00,0.00,29.89,M,10.00,M,CLR,M,M,M,M,M,M,M,M,M,M,M,M,M,M,75.20,KBVU 211655Z AUTO VRB05KT 10SM CLR 24/07 A2989 RMK AO2,M
RNO,2024-09-21 16:55,-119.7711,39.4839,1341.00,63.00,37.00,37.99,0.00,0.00,0.00,30.11,1015.60,10.00,M,CLR,M,M,M,M,M,M,M,M,M,M,M,M,M,M,63.00,KRNO 211655Z 00000KT 10SM CLR 17/03 A3011 RMK AO2 SLP156 T01720028,M
CXP,2024-09-21 16:55,-119.7326,39.1923,1431.00,60.80,39.20,44.76,0.00,0.00,0.00,30.13,M,10.00,M,CLR,M,M,M,M,M,M,M,M,M,M,M,M,M,M,60.80,KCXP 211655Z AUTO 00000KT 10SM CLR 16/04 A3013 RMK AO2,M
RTS,2024-09-21 16:55,-119.8764,39.6682,1539.00,62.60,28.40,27.27,0.00,0.00,0.00,30.14,M,10.00,M,CLR,M,M,M,M,M,M,M,M,M,M,M,M,M,M,62.60,KRTS 211655Z AUTO 00000KT 10SM CLR 17/M02 A3014 RMK AO2,M
MEV,2024-09-21 16:55,-119.7500,38.9963,1441.42,59.00,39.20,47.72,0.00,0.00,0.00,30.12,M,10.00,M,CLR,M,M,M,M,M,M,M,M,M,M,M,M,M,M,59.00,KMEV 211655Z AUTO 00000KT 10SM CLR 15/04 A3012 RMK AO2,M
HTH,2024-09-21 16:55,-118.6315,38.5448,1282.89,66.20,37.40,34.51,330.00,7.00,0.00,30.10,M,10.00,M,CLR,M,M,M,M,M,M,M,M,M,M,M,M,M,M,66.20,KHTH 211655Z AUTO 33007KT 10SM CLR 19/03 A3010 RMK A01,M
TMT,2024-09-21 16:55,-117.1971,39.4643,1749.34,56.50,42.40,59.10,0.00,0.00,0.00,30.15,M,10.00,M,CLR,M,M,M,M,M,M,M,M,M,M,M,M,M,M,56.50,KTMT 211655Z AUTO 00000KT 10SM CLR 14/06 A3015 RMK AO2 T01360058,M
10U,2024-09-21 16:55,-116.1876,41.9532,1637.00,57.20,28.40,33.05,0.00,0.00,0.00,30.16,M,10.00,M,CLR,M,M,M,M,M,M,M,M,M,M,M,M,M,M,57.20,K10U 211655Z AUTO 00000KT 10SM CLR 14/M02 A3016 RMK AO2,M
INS,2024-09-21 16:55,-115.6733,36.5872,955.00,74.30,39.00,27.87,10.00,5.00,0.00,29.94,1009.50,10.00,M,CLR,M,M,M,M,M,M,M,M,M,M,M,M,M,M,74.30,KINS 211655Z AUTO 01005KT 10SM CLR 24/04 A2994 RMK AO2 SLP095 T02350039,M
LSV,2024-09-21 16:55,-115.0343,36.2362,570.00,78.30,45.00,30.75,80.00,3.00,0.00,29.85,1008.50,10.00,M,CLR,M,M,M,M,M,M,M,M,M,M,M,M,M,M,78.30,KLSV 211655Z AUTO 08003KT 10SM CLR 26/07 A2985 RMK AO2 SLP085 T02570073 $,M
EKO,2024-09-21 16:56,-115.7860,40.8242,1367.00,61.00,37.00,40.77,0.00,0.00,0.00,30.11,1016.10,10.00,M,CLR,M,M,M,M,M,M,M,M,M,M,M,M,M,M,61.00,KEKO 211656Z AUTO 00000KT 10SM CLR 16/03 A3011 RMK AO2 SLP161 T01610028,M
WMC,2024-09-21 16:56,-117.8072,40.9019,1315.00,63.00,29.00,27.56,30.00,3.00,0.00,30.11,1016.10,10.00,M,CLR,M,M,M,M,M,M,M,M,M,M,M,M,M,M,63.00,KWMC 211656Z AUTO 03003KT 10SM CLR 17/M02 A3011 RMK AO2 SLP161 T01721017,M
HND,2024-09-21 16:56,-115.1344,35.9729,742.79,77.00,45.00,32.10,250.00,4.00,0.00,29.93,1013.10,10.00,M,CLR,M,M,M,M,M,M,M,M,M,M,M,M,M,M,77.00,KHND 211656Z 25004KT 10SM CLR 25/07 A2993 RMK AO2 SLP131 T02500072,M
TPH,2024-09-21 16:56,-117.0904,38.0505,1654.00,71.00,36.00,27.69,290.00,10.00,0.00,30.08,1011.70,10.00,M,CLR,M,M,M,M,M,M,M,M,M,M,M,M,M,M,71.00,KTPH 211656Z AUTO 29010KT 10SM CLR 22/02 A3008 RMK AO2 SLP117 T02170022,M
LAS,2024-09-21 16:56,-115.1634,36.0719,663.00,76.00,44.00,31.95,0.00,0.00,0.00,29.90,1010.40,10.00,M,FEW,FEW,M,M,12000.00,20000.00,M,M,M,M,M,M,M,M,M,76.00,KLAS 211656Z 00000KT 10SM FEW120 FEW200 24/07 A2990 RMK AO2 SLP104 T02440067,M
NFL,2024-09-21 16:57,-118.7010,39.4166,1199.00,66.00,37.00,34.21,0.00,0.00,0.00,30.07,1015.20,10.00,M,CLR,M,M,M,M,M,M,M,M,M,M,M,M,M,M,66.00,KNFL 211657Z AUTO 00000KT 10SM CLR 19/03 A3007 RMK AO2 SLP152 T01890028,M
05U,2024-09-21 17:10,-116.0051,39.6042,1811.23,62.60,35.60,36.45,M,5.00,0.00,30.15,M,10.00,11.00,CLR,M,M,M,M,M,M,M,M,M,M,M,M,M,M,62.60,K05U 211710Z AUTO VRB05G11KT 10SM CLR 17/02 A3015 RMK A01,M
BVU,2024-09-21 17:15,-114.8611,35.9475,671.00,77.00,44.60,31.62,M,4.00,0.00,29.89,M,10.00,M,CLR,M,M,M,M,M,M,M,M,M,M,M,M,M,M,77.00,KBVU 211715Z AUTO VRB04KT 10SM CLR 25/07 A2989 RMK AO2,M
CXP,2024-09-21 17:15,-119.7326,39.1923,1431.00,64.40,37.40,36.74,0.00,0.00,0.00,30.13,M,10.00,M,CLR,M,M,M,M,M,M,M,M,M,M,M,M,M,M,64.40,KCXP 211715Z AUTO 00000KT 10SM CLR 18/03 A3013 RMK AO2,M
RTS,2024-09-21 17:15,-119.8764,39.6682,1539.00,64.40,28.40,25.60,90.00,4.00,0.00,30.14,M,10.00,M,CLR,M,M,M,M,M,M,M,M,M,M,M,M,M,M,64.40,KRTS 211715Z AUTO 09004KT 10SM CLR 18/M02 A3014 RMK AO2,M
MEV,2024-09-21 17:15,-119.7500,38.9963,1441.42,60.80,41.00,48.00,0.00,0.00,0.00,30.12,M,10.00,M,CLR,M,M,M,M,M,M,M,M,M,M,M,M,M,M,60.80,KMEV 211715Z AUTO 00000KT 10SM CLR 16/05 A3012 RMK AO2,M
BAM,2024-09-21 17:15,-116.8743,40.5990,1382.36,64.40,32.00,29.63,10.00,5.00,0.00,30.12,M,10.00,M,CLR,M,M,M,M,M,M,M,M,M,M,M,M,M,M,64.40,KBAM 211715Z AUTO 01005KT 10SM CLR 18/00 A3012 RMK AO1,M
HTH,2024-09-21 17:15,-118.6315,38.5448,1282.89,66.20,33.80,29.92,330.00,8.00,0.00,30.10,M,10.00,M,CLR,M,M,M,M,M,M,M,M,M,M,M,M,M,M,66.20,KHTH 211715Z AUTO 33008KT 10SM CLR 19/01 A3010 RMK A01,M
TMT,2024-09-21 17:15,-117.1971,39.4643,1749.34,59.00,41.00,51.18,0.00,0.00,0.00,30.15,M,10.00,M,CLR,M,M,M,M,M,M,M,M,M,M,M,M,M,M,59.00,KTMT 211715Z AUTO 00000KT 10SM CLR 15/05 A3015 RMK AO2 T01510050,M
10U,2024-09-21 17:15,-116.1876,41.9532,1637.00,59.00,26.60,28.77,0.00,0.00,0.00,30.16,M,10.00,M,CLR,M,M,M,M,M,M,M,M,M,M,M,M,M,M,59.00,K10U 211715Z AUTO 00000KT 10SM CLR 15/M03 A3016 RMK AO2,M
05U,2024-09-21 17:30,-116.0051,39.6042,1811.23,62.60,35.60,36.45,0.00,0.00,0.00,30.15,M,10.00,11.00,CLR,M,M,M,M,M,M,M,M,M,M,M,M,M,M,62.60,K05U 211730Z AUTO 00000G11KT 10SM CLR 17/02 A3015 RMK A01,M
BVU,2024-09-21 17:35,-114.8611,35.9475,671.00,78.80,44.60,29.79,0.00,0.00,0.00,29.89,M,10.00,M,CLR,M,M,M,M,M,M,M,M,M,M,M,M,M,M,78.80,KBVU 211735Z AUTO 00000KT 10SM CLR 26/07 A2989 RMK AO2,M
BAM,2024-09-21 17:35,-116.8743,40.5990,1382.36,66.20,32.00,27.83,340.00,4.00,0.00,30.12,M,10.00,M,CLR,M,M,M,M,M,M,M,M,M,M,M,M,M,M,66.20,KBAM 211735Z AUTO 34004KT 10SM CLR 19/00 A3012 RMK AO1,M
CXP,2024-09-21 17:35,-119.7326,39.1923,1431.00,66.20,37.40,34.51,0.00,0.00,0.00,30.13,M,10.00,M,CLR,M,M,M,M,M,M,M,M,M,M,M,M,M,M,66.20,KCXP 211735Z AUTO 00000KT 10SM CLR 19/03 A3013 RMK AO2,M
RTS,2024-09-21 17:35,-119.8764,39.6682,1539.00,64.40,30.20,27.55,M,5.00,0.00,30.14,M,10.00,M,CLR,M,M,M,M,M,M,M,M,M,M,M,M,M,M,64.40,KRTS 211735Z AUTO VRB05KT 10SM CLR 18/M01 A3014 RMK AO2,M
MEV,2024-09-21 17:35,-119.7500,38.9963,1441.42,64.40,37.40,36.74,0.00,0.00,0.00,30.11,M,10.00,M,CLR,M,M,M,M,M,M,M,M,M,M,M,M,M,M,64.40,KMEV 211735Z AUTO 00000KT 10SM CLR 18/03 A3011 RMK AO2,M
HTH,2024-09-21 17:35,-118.6315,38.5448,1282.89,68.00,33.80,28.11,330.00,8.00,0.00,30.10,M,10.00,M,CLR,M,M,M,M,M,M,M,M,M,M,M,M,M,M,68.00,KHTH 211735Z AUTO 33008KT 10SM CLR 20/01 A3010 RMK A01,M
TMT,2024-09-21 17:35,-117.1971,39.4643,1749.34,61.30,39.00,43.63,0.00,0.00,0.00,30.15,M,10.00,M,CLR,M,M,M,M,M,M,M,M,M,M,M,M,M,M,61.30,KTMT 211735Z AUTO 00000KT 10SM CLR 16/04 A3015 RMK AO2 T01630039,M
10U,2024-09-21 17:35,-116.1876,41.9532,1637.00,60.80,26.60,26.98,0.00,0.00,0.00,30.16,M,10.00,M,CLR,M,M,M,M,M,M,M,M,M,M,M,M,M,M,60.80,K10U 211735Z AUTO 00000KT 10SM CLR 16/M03 A3016 RMK AO2,M
05U,2024-09-21 17:50,-116.0051,39.6042,1811.23,64.40,35.60,34.22,0.00,0.00,0.00,30.15,M,10.00,M,CLR,M,M,M,M,M,M,M,M,M,M,M,M,M,M,64.40,K05U 211750Z AUTO 00000KT 10SM CLR 18/02 A3015 RMK A01,M
P68,2024-09-21 17:53,-116.0056,39.6014,1993.00,66.00,37.00,34.21,M,4.00,0.00,30.12,1014.50,M,M,M,M,M,M,M,M,M,M,M,M,M,M,M,M,M,66.00,KP68 211753Z AUTO VRB04KT 19/03 A3012 RMK AO1 SLP145 T01890028 10189 20033 54000,M
DRA,2024-09-21 17:53,-116.0278,36.6206,1009.00,80.00,39.00,23.08,230.00,6.00,0.00,29.95,1010.10,10.00,M,CLR,M,M,M,M,M,M,M,M,M,M,M,M,M,M,78.78,KDRA 211753Z AUTO 23006KT 10SM CLR 27/04 A2995 RMK AO2 SLP101 T02670039 10267 20122 52001,M
ELY,2024-09-21 17:53,-114.8453,39.2950,1909.00,66.00,36.00,32.88,20.00,11.00,0.00,30.11,1012.60,10.00,M,CLR,M,M,M,M,M,M,M,M,M,M,M,M,M,M,66.00,KELY 211753Z AUTO 02011KT 10SM CLR 19/02 A3011 RMK AO2 SLP126 T01890022 10189 20017 58002,M
VGT,2024-09-21 17:53,-115.1933,36.2111,667.00,83.00,44.00,25.39,0.00,0.00,0.00,29.88,1011.40,10.00,M,CLR,M,M,M,M,M,M,M,M,M,M,M,M,M,M,80.86,KVGT 211753Z 00000KT 10SM CLR 28/07 A2988 RMK AO2 SLP114 T02830067 10289 20206 50006,M
LOL,2024-09-21 17:53,-118.5701,40.0684,1192.43,70.00,27.00,19.92,30.00,6.00,0.00,30.07,1015.40,10.00,M,CLR,M,M,M,M,M,M,M,M,M,M,M,M,M,M,70.00,KLOL 211753Z AUTO 03006KT 10SM CLR 21/M03 A3007 RMK AO2 SLP154 T02111028 10211 20122 50001,M
BVU,2024-09-21 17:55,-114.8611,35.9475,671.00,78.80,44.60,29.79,250.00,4.00,0.00,29.88,M,10.00,M,CLR,M,M,M,M,M,M,M,M,M,M,M,M,M,M,78.80,KBVU 211755Z AUTO 25004KT 10SM CLR 26/07 A2988 RMK AO2,M
RNO,2024-09-21 17:55,-119.7711,39.4839,1341.00,68.00,33.00,27.23,M,3.00,0.00,30.11,1015.00,10.00,M,CLR,M,M,M,M,M,M,M,M,M,M,M,M,M,M,68.00,KRNO 211755Z VRB03KT 10SM CLR 20/01 A3011 RMK AO2 SLP150 T02000006 10200 20094 58002,M
CXP,2024-09-21 17:55,-119.7326,39.1923,1431.00,68.00,37.40,32.43,0.00,0.00,0.00,30.13,M,10.00,M,CLR,M,M,M,M,M,M,M,M,M,M,M,M,M,M,68.00,KCXP 211755Z AUTO 00000KT 10SM CLR 20/03 A3013 RMK AO2,M
RTS,2024-09-21 17:55,-119.8764,39.6682,1539.00,66.20,30.20,25.88,M,4.00,0.00,30.14,M,10.00,M,CLR,M,M,M,M,M,M,M,M,M,M,M,M,M,M,66.20,KRTS 211755Z AUTO VRB04KT 10SM CLR 19/M01 A3014 RMK AO2,M
MEV,2024-09-21 17:55,-119.7500,38.9963,1441.42,64.40,37.40,36.74,0.00,0.00,0.00,30.11,M,10.00,M,CLR,M,M,M,M,M,M,M,M,M,M,M,M,M,M,64.40,KMEV 211755Z AUTO 00000KT 10SM CLR 18/03 A3011 RMK AO2,M
BAM,2024-09-21 17:55,-116.8743,40.5990,1382.36,68.00,30.20,24.32,330.00,5.00,0.00,30.11,M,10.00,M,CLR,M,M,M,M,M,M,M,M,M,M,M,M,M,M,68.00,KBAM 211755Z AUTO 33005KT 10SM CLR 20/M01 A3011 RMK AO1,M
HTH,2024-09-21 17:55,-118.6315,38.5448,1282.89,68.00,33.80,28.11,M,M,0.00,30.09,M,10.00,M,CLR,M,M,M,M,M,M,M,M,M,M,M,M,M,M,68.00,KHTH 211755Z AUTO 10SM CLR 20/01 A3009 RMK A01,M
TMT,2024-09-21 17:55,-117.1971,39.4643,1749.34,63.30,40.30,42.77,0.00,0.00,0.00,30.15,M,10.00,M,CLR,M,M,M,M,M,M,M,M,M,M,M,M,M,M,63.30,KTMT 211755Z AUTO 00000KT 10SM CLR 17/05 A3015 RMK AO2 T01740046 10174 21001,M
10U,2024-09-21 17:55,-116.1876,41.9532,1637.00,60.80,26.60,26.98,M,6.00,0.00,30.16,M,10.00,M,CLR,M,M,M,M,M,M,M,M,M,M,M,M,M,M,60.80,K10U 211755Z AUTO VRB06KT 10SM CLR 16/M03 A3016 RMK AO2,M
INS,2024-09-21 17:55,-115.6733,36.5872,955.00,77.40,36.70,22.97,0.00,0.00,0.00,29.94,1009.50,10.00,M,CLR,M,M,M,M,M,M,M,M,M,M,M,M,M,M,77.40,KINS 211755Z AUTO 00000KT 10SM CLR 25/03 A2994 RMK AO2 SLP095 T02520026 10255 20137 50000,M
LSV,2024-09-21 17:55,-115.0343,36.2362,570.00,81.30,42.00,24.85,0.00,0.00,0.00,29.84,1008.10,10.00,M,CLR,M,M,M,M,M,M,M,M,M,M,M,M,M,M,79.66,KLSV 211755Z AUTO 00000KT 10SM CLR 27/06 A2984 RMK AO2 SLP081 T02740056 10274 20197 50005 $,M
EKO,2024-09-21 17:56,-115.7860,40.8242,1367.00,66.00,28.00,23.82,0.00,0.00,0.00,30.10,1015.60,10.00,M,CLR,M,M,M,M,M,M,M,M,M,M,M,M,M,M,66.00,KEKO 211756Z AUTO 00000KT 10SM CLR 19/M02 A3010 RMK AO2 SLP156 T01891022 10189 20044 58003,M
WMC,2024-09-21 17:56,-117.8072,40.9019,1315.00,68.00,29.00,23.16,M,4.00,0.00,30.11,1015.70,10.00,M,CLR,M,M,M,M,M,M,M,M,M,M,M,M,M,M,68.00,KWMC 211756Z AUTO VRB04KT 10SM CLR 20/M02 A3011 RMK AO2 SLP157 60000 T02001017 10200 20033 53001,M
HND,2024-09-21 17:56,-115.1344,35.9729,742.79,80.00,44.00,27.99,340.00,6.00,0.00,29.93,1012.60,10.00,M,CLR,M,M,M,M,M,M,M,M,M,M,M,M,M,M,79.06,KHND 211756Z 34006KT 10SM CLR 27/07 A2993 RMK AO2 SLP126 T02670067 10267 20183 50005,M
TPH,2024-09-21 17:56,-117.0904,38.0505,1654.00,73.00,35.00,24.87,280.00,13.00,0.00,30.08,1012.00,10.00,M,CLR,M,M,M,M,M,M,M,M,M,M,M,M,M,M,73.00,KTPH 211756Z AUTO 28013KT 10SM CLR 23/02 A3008 RMK AO2 SLP120 T02280017 10228 20100 51001,M
LAS,2024-09-21 17:56,-115.1634,36.0719,663.00,80.00,43.00,26.94,280.00,4.00,0.00,29.90,1010.20,10.00,M,FEW,FEW,M,M,12000.00,20000.00,M,M,M,M,M,M,M,M,M,78.97,KLAS 211756Z 28004KT 10SM FEW120 FEW200 27/06 A2990 RMK AO2 SLP102 T02670061 10267 20200 50005,M
NFL,2024-09-21 17:57,-118.7010,39.4166,1199.00,70.00,30.00,22.52,330.00,6.00,0.00,30.08,1015.30,10.00,M,CLR,M,M,M,M,M,M,M,M,M,M,M,M,M,M,70.00,KNFL 211757Z AUTO 33006KT 10SM CLR 21/M01 A3008 RMK AO2 SLP153 T02111011 10217 20078 51002,M
05U,2024-09-21 18:10,-116.0051,39.6042,1811.23,64.40,35.60,34.22,20.00,5.00,0.00,30.15,M,10.00,12.00,CLR,M,M,M,M,M,M,M,M,M,M,M,M,M,M,64.40,K05U 211810Z AUTO 02005G12KT 10SM CLR 18/02 A3015 RMK A01,M
BVU,2024-09-21 18:15,-114.8611,35.9475,671.00,80.60,42.80,26.22,M,6.00,0.00,29.88,M,10.00,M,CLR,M,M,M,M,M,M,M,M,M,M,M,M,M,M,79.30,KBVU 211815Z AUTO VRB06KT 10SM CLR 27/06 A2988 RMK AO2,M
BAM,2024-09-21 18:15,-116.8743,40.5990,1382.36,68.00,30.20,24.32,310.00,5.00,0.00,30.11,M,10.00,M,CLR,M,M,M,M,M,M,M,M,M,M,M,M,M,M,68.00,KBAM 211815Z AUTO 31005KT 10SM CLR 20/M01 A3011 RMK AO1,M
CXP,2024-09-21 18:15,-119.7326,39.1923,1431.00,68.00,35.60,30.20,90.00,6.00,0.00,30.12,M,10.00,M,CLR,M,M,M,M,M,M,M,M,M,M,M,M,M,M,68.00,KCXP 211815Z AUTO 09006KT 10SM CLR 20/02 A3012 RMK AO2,M
RTS,2024-09-21 18:15,-119.8764,39.6682,1539.00,68.00,30.20,24.32,M,5.00,0.00,30.14,M,10.00,M,CLR,M,M,M,M,M,M,M,M,M,M,M,M,M,M,68.00,KRTS 211815Z AUTO VRB05KT 10SM CLR 20/M01 A3014 RMK AO2,M
MEV,2024-09-21 18:15,-119.7500,38.9963,1441.42,68.00,39.20,34.80,0.00,0.00,0.00,30.11,M,10.00,M,CLR,M,M,M,M,M,M,M,M,M,M,M,M,M,M,68.00,KMEV 211815Z AUTO 00000KT 10SM CLR 20/04 A3011 RMK AO2,M
HTH,2024-09-21 18:15,-118.6315,38.5448,1282.89,69.80,32.00,24.59,320.00,8.00,0.00,30.09,M,10.00,M,M,M,M,M,M,M,M,M,M,M,M,M,M,M,M,69.80,KHTH 211815Z AUTO 32008KT 10SM 21/00 A3009 RMK A01,M
TMT,2024-09-21 18:15,-117.1971,39.4643,1749.34,64.40,40.00,40.68,310.00,3.00,0.00,30.15,M,10.00,M,CLR,M,M,M,M,M,M,M,M,M,M,M,M,M,M,64.40,KTMT 211815Z AUTO 31003KT 10SM CLR 18/04 A3015 RMK AO2 T01800044,M
10U,2024-09-21 18:15,-116.1876,41.9532,1637.00,62.60,24.80,23.50,300.00,8.00,0.00,30.16,M,10.00,M,CLR,M,M,M,M,M,M,M,M,M,M,M,M,M,M,62.60,K10U 211815Z AUTO 30008KT 10SM CLR 17/M04 A3016 RMK AO2,M
05U,2024-09-21 18:30,-116.0051,39.6042,1811.23,66.20,35.60,32.14,20.00,6.00,0.00,30.14,M,10.00,M,CLR,M,M,M,M,M,M,M,M,M,M,M,M,M,M,66.20,K05U 211830Z AUTO 02006KT 10SM CLR 19/02 A3014 RMK A01,M
BVU,2024-09-21 18:35,-114.8611,35.9475,671.00,82.40,42.80,24.72,M,4.00,0.00,29.88,M,10.00,M,CLR,M,M,M,M,M,M,M,M,M,M,M,M,M,M,80.39,KBVU 211835Z AUTO VRB04KT 10SM CLR 28/06 A2988 RMK AO2,M
CXP,2024-09-21 18:35,-119.7326,39.1923,1431.00,69.80,33.80,26.43,0.00,0.00,0.00,30.12,M,10.00,M,CLR,M,M,M,M,M,M,M,M,M,M,M,M,M,M,69.80,KCXP 211835Z AUTO 00000KT 10SM CLR 21/01 A3012 RMK AO2,M
RTS,2024-09-21 18:35,-119.8764,39.6682,1539.00,68.00,28.40,22.59,120.00,6.00,0.00,30.13,M,10.00,M,CLR,M,M,M,M,M,M,M,M,M,M,M,M,M,M,68.00,KRTS 211835Z AUTO 12006KT 10SM CLR 20/M02 A3013 RMK AO2,M
MEV,2024-09-21 18:35,-119.7500,38.9963,1441.42,68.00,39.20,34.80,0.00,0.00,0.00,30.10,M,10.00,M,CLR,M,M,M,M,M,M,M,M,M,M,M,M,M,M,68.00,KMEV 211835Z AUTO 00000KT 10SM CLR 20/04 A3010 RMK AO2,M
BAM,2024-09-21 18:35,-116.8743,40.5990,1382.36,69.80,30.20,22.86,20.00,4.00,0.00,30.11,M,10.00,M,CLR,M,M,M,M,M,M,M,M,M,M,M,M,M,M,69.80,KBAM 211835Z AUTO 02004KT 10SM CLR 21/M01 A3011 RMK AO1,M
HTH,2024-09-21 18:35,-118.6315,38.5448,1282.89,69.80,32.00,24.59,320.00,9.00,0.00,30.09,M,10.00,M,CLR,M,M,M,M,M,M,M,M,M,M,M,M,M,M,69.80,KHTH 211835Z AUTO 32009KT 10SM CLR 21/00 A3009 RMK A01,M
TMT,2024-09-21 18:35,-117.1971,39.4643,1749.34,65.30,39.00,37.91,70.00,3.00,0.00,30.14,M,10.00,M,CLR,M,M,M,M,M,M,M,M,M,M,M,M,M,M,65.30,KTMT 211835Z AUTO 07003KT 10SM CLR 19/04 A3014 RMK AO2 T01850038,M
10U,2024-09-21 18:35,-116.1876,41.9532,1637.00,62.60,23.00,21.79,20.00,7.00,0.00,30.16,M,10.00,12.00,CLR,M,M,M,M,M,M,M,M,M,M,M,M,M,M,62.60,K10U 211835Z AUTO 02007G12KT 10SM CLR 17/M05 A3016 RMK AO2,M
05U,2024-09-21 18:50,-116.0051,39.6042,1811.23,66.20,35.60,32.14,10.00,8.00,0.00,30.14,M,10.00,M,CLR,M,M,M,M,M,M,M,M,M,M,M,M,M,M,66.20,K05U 211850Z AUTO 01008KT 10SM CLR 19/02 A3014 RMK A01,M
P68,2024-09-21 18:53,-116.0056,39.6014,1993.00,69.00,37.00,30.84,10.00,8.00,0.00,30.11,1014.00,M,M,M,M,M,M,M,M,M,M,M,M,M,M,M,M,M,69.00,KP68 211853Z AUTO 01008KT 21/03 A3011 RMK AO1 SLP140 T02060028,M
DRA,2024-09-21 18:53,-116.0278,36.6206,1009.00,83.00,35.00,17.88,M,3.00,0.00,29.94,1009.70,10.00,M,CLR,M,M,M,M,M,M,M,M,M,M,M,M,M,M,80.47,KDRA 211853Z AUTO VRB03KT 10SM CLR 28/02 A2994 RMK AO2 SLP097 T02830017,M
ELY,2024-09-21 18:53,-114.8453,39.2950,1909.00,71.00,36.00,27.69,10.00,9.00,0.00,30.10,1011.60,10.00,18.00,CLR,M,M,M,M,M,M,M,M,M,M,M,M,M,M,71.00,KELY 211853Z AUTO 01009G18KT 10SM CLR 22/02 A3010 RMK AO2 SLP116 T02170022,M
VGT,2024-09-21 18:53,-115.1933,36.2111,667.00,86.00,44.00,23.05,0.00,0.00,0.00,29.87,1010.90,10.00,M,CLR,M,M,M,M,M,M,M,M,M,M,M,M,M,M,83.03,KVGT 211853Z 00000KT 10SM CLR 30/07 A2987 RMK AO2 SLP109 T03000067,M
LOL,2024-09-21 18:53,-118.5701,40.0684,1192.43,73.00,27.00,17.99,40.00,9.00,0.00,30.07,1015.10,10.00,M,CLR,M,M,M,M,M,M,M,M,M,M,M,M,M,M,73.00,KLOL 211853Z AUTO 04009KT 10SM CLR 23/M03 A3007 RMK AO2 SLP151 T02281028,M
BVU,2024-09-21 18:55,-114.8611,35.9475,671.00,82.40,42.80,24.72,0.00,0.00,0.00,29.88,M,10.00,M,CLR,M,M,M,M,M,M,M,M,M,M,M,M,M,M,80.39,KBVU 211855Z AUTO 00000KT 10SM CLR 28/06 A2988 RMK AO2,M
RNO,2024-09-21 18:55,-119.7711,39.4839,1341.00,71.00,32.00,23.60,310.00,4.00,0.00,30.09,1014.60,10.00,M,FEW,M,M,M,9000.00,M,M,M,M,M,M,M,M,M,M,71.00,KRNO 211855Z 31004KT 10SM FEW090 22/00 A3009 RMK AO2 SLP146 T02170000,M
CXP,2024-09-21 18:55,-119.7326,39.1923,1431.00,71.60,33.80,24.86,0.00,0.00,0.00,30.11,M,10.00,M,CLR,M,M,M,M,M,M,M,M,M,M,M,M,M,M,71.60,KCXP 211855Z AUTO 00000KT 10SM CLR 22/01 A3011 RMK AO2,M
RTS,2024-09-21 18:55,-119.8764,39.6682,1539.00,69.80,28.40,21.24,120.00,4.00,0.00,30.13,M,10.00,M,CLR,M,M,M,M,M,M,M,M,M,M,M,M,M,M,69.80,KRTS 211855Z AUTO 12004KT 10SM CLR 21/M02 A3013 RMK AO2,M
MEV,2024-09-21 18:55,-119.7500,38.9963,1441.42,69.80,37.40,30.49,0.00,0.00,0.00,30.09,M,9.00,M,CLR,M,M,M,M,M,M,M,M,M,M,M,M,M,M,69.80,KMEV 211855Z AUTO 00000KT 9SM CLR 21/03 A3009 RMK AO2,M
BAM,2024-09-21 18:55,-116.8743,40.5990,1382.36,71.60,30.20,21.50,0.00,0.00,0.00,30.11,M,10.00,M,CLR,M,M,M,M,M,M,M,M,M,M,M,M,M,M,71.60,KBAM 211855Z AUTO 00000KT 10SM CLR 22/M01 A3011 RMK AO1,M
HTH,2024-09-21 18:55,-118.6315,38.5448,1282.89,71.60,33.80,24.86,330.00,9.00,0.00,30.08,M,10.00,M,CLR,M,M,M,M,M,M,M,M,M,M,M,M,M,M,71.60,KHTH 211855Z AUTO 33009KT 10SM CLR 22/01 A3008 RMK A01,M
TMT,2024-09-21 18:55,-117.1971,39.4643,1749.34,67.00,38.00,34.37,0.00,0.00,0.00,30.14,M,10.00,M,CLR,M,M,M,M,M,M,M,M,M,M,M,M,M,M,67.00,KTMT 211855Z AUTO 00000KT 10SM CLR 20/03 A3014 RMK AO2 T01950034,M
10U,2024-09-21 18:55,-116.1876,41.9532,1637.00,64.40,23.00,20.46,320.00,8.00,0.00,30.15,M,10.00,M,CLR,M,M,M,M,M,M,M,M,M,M,M,M,M,M,64.40,K10U 211855Z AUTO 32008KT 10SM CLR 18/M05 A3015 RMK AO2,M
INS,2024-09-21 18:55,-115.6733,36.5872,955.00,81.00,33.40,17.90,70.00,3.00,0.00,29.93,1009.00,10.00,M,CLR,M,M,M,M,M,M,M,M,M,M,M,M,M,M,79.11,KINS 211855Z AUTO 07003KT 10SM CLR 27/01 A2993 RMK AO2 SLP090 T02720008,M
LSV,2024-09-21 18:55,-115.0343,36.2362,570.00,84.00,40.00,21.07,150.00,3.00,0.00,29.83,1007.70,10.00,M,CLR,M,M,M,M,M,M,M,M,M,M,M,M,M,M,81.33,KLSV 211855Z AUTO 15003KT 10SM CLR 29/04 A2983 RMK AO2 SLP077 T02890044 $,M
EKO,2024-09-21 18:56,-115.7860,40.8242,1367.00,70.00,29.00,21.62,M,3.00,0.00,30.09,1014.90,10.00,M,CLR,M,M,M,M,M,M,M,M,M,M,M,M,M,M,70.00,KEKO 211856Z AUTO VRB03KT 10SM CLR 21/M02 A3009 RMK AO2 SLP149 T02111017,M
WMC,2024-09-21 18:56,-117.8072,40.9019,1315.00,72.00,26.00,17.85,50.00,9.00,0.00,30.10,1015.50,10.00,M,CLR,M,M,M,M,M,M,M,M,M,M,M,M,M,M,72.00,KWMC 211856Z AUTO 05009KT 10SM CLR 22/M03 A3010 RMK AO2 SLP155 T02221033,M
HND,2024-09-21 18:56,-115.1344,35.9729,742.79,83.00,43.00,24.44,M,3.00,0.00,29.92,1012.30,10.00,M,CLR,M,M,M,M,M,M,M,M,M,M,M,M,M,M,80.79,KHND 211856Z VRB03KT 10SM CLR 28/06 A2992 RMK AO2 SLP123 T02830061,M
TPH,2024-09-21 18:56,-117.0904,38.0505,1654.00,75.00,33.00,21.47,270.00,10.00,0.00,30.08,1011.80,10.00,M,CLR,M,M,M,M,M,M,M,M,M,M,M,M,M,M,75.00,KTPH 211856Z AUTO 27010KT 10SM CLR 24/01 A3008 RMK AO2 SLP118 T02390006,M
LAS,2024-09-21 18:56,-115.1634,36.0719,663.00,82.00,43.00,25.24,0.00,0.00,0.00,29.89,1009.90,10.00,M,FEW,FEW,M,M,12000.00,20000.00,M,M,M,M,M,M,M,M,M,80.15,KLAS 211856Z 00000KT 10SM FEW120 FEW200 28/06 A2989 RMK AO2 SLP099 T02780061,M
NFL,2024-09-21 18:57,-118.7010,39.4166,1199.00,72.00,30.00,21.04,300.00,5.00,0.00,30.07,1015.10,10.00,M,CLR,M,M,M,M,M,M,M,M,M,M,M,M,M,M,72.00,KNFL 211857Z AUTO 30005KT 10SM CLR 22/M01 A3007 RMK AO2 SLP151 T02221011,M
05U,2024-09-21 19:10,-116.0051,39.6042,1811.23,69.80,33.80,26.43,0.00,0.00,0.00,30.13,M,10.00,12.00,CLR,M,M,M,M,M,M,M,M,M,M,M,M,M,M,69.80,K05U 211910Z AUTO 00000G12KT 10SM CLR 21/01 A3013 RMK A01,M
BVU,2024-09-21 19:15,-114.8611,35.9475,671.00,84.20,41.00,21.76,80.00,5.00,0.00,29.87,M,10.00,M,CLR,M,M,M,M,M,M,M,M,M,M,M,M,M,M,81.52,KBVU 211915Z AUTO 08005KT 10SM CLR 29/05 A2987 RMK AO2,M
CXP,2024-09-21 19:15,-119.7326,39.1923,1431.00,71.60,33.80,24.86,0.00,0.00,0.00,30.11,M,9.00,M,CLR,M,M,M,M,M,M,M,M,M,M,M,M,M,M,71.60,KCXP 211915Z AUTO 00000KT 9SM CLR 22/01 A3011 RMK AO2,M
RTS,2024-09-21 19:15,-119.8764,39.6682,1539.00,69.80,28.40,21.24,150.00,6.00,0.00,30.12,M,10.00,M,CLR,M,M,M,M,M,M,M,M,M,M,M,M,M,M,69.80,KRTS 211915Z AUTO 15006KT 10SM CLR 21/M02 A3012 RMK AO2,M
MEV,2024-09-21 19:15,-119.7500,38.9963,1441.42,71.60,37.40,28.68,300.00,4.00,0.00,30.09,M,9.00,M,CLR,M,M,M,M,M,M,M,M,M,M,M,M,M,M,71.60,KMEV 211915Z AUTO 30004KT 9SM CLR 22/03 A3009 RMK AO2,M
BAM,2024-09-21 19:15,-116.8743,40.5990,1382.36,71.60,28.40,19.98,310.00,5.00,0.00,30.10,M,10.00,M,CLR,M,M,M,M,M,M,M,M,M,M,M,M,M,M,71.60,KBAM 211915Z AUTO 31005KT 10SM CLR 22/M02 A3010 RMK AO1,M
HTH,2024-09-21 19:15,-118.6315,38.5448,1282.89,71.60,35.60,26.71,340.00,8.00,0.00,30.08,M,10.00,14.00,CLR,M,M,M,M,M,M,M,M,M,M,M,M,M,M,71.60,KHTH 211915Z AUTO 34008G14KT 10SM CLR 22/02 A3008 RMK A01,M
TMT,2024-09-21 19:15,-117.1971,39.4643,1749.34,68.00,38.70,34.13,280.00,4.00,0.00,30.13,M,10.00,M,CLR,M,M,M,M,M,M,M,M,M,M,M,M,M,M,68.00,KTMT 211915Z AUTO 28004KT 10SM CLR 20/04 A3013 RMK AO2 T01990037,M
10U,2024-09-21 19:15,-116.1876,41.9532,1637.00,64.40,23.00,20.46,330.00,5.00,0.00,30.15,M,10.00,10.00,CLR,M,M,M,M,M,M,M,M,M,M,M,M,M,M,64.40,K10U 211915Z AUTO 33005G10KT 10SM CLR 18/M05 A3015 RMK AO2,M
05U,2024-09-21 19:30,-116.0051,39.6042,1811.23,69.80,33.80,26.43,0.00,0.00,0.00,30.13,M,10.00,11.00,CLR,M,M,M,M,M,M,M,M,M,M,M,M,M,M,69.80,K05U 211930Z AUTO 00000G11KT 10SM CLR 21/01 A3013 RMK A01,M
BVU,2024-09-21 19:35,-114.8611,35.9475,671.00,84.20,41.00,21.76,60.00,4.00,0.00,29.86,M,10.00,M,CLR,M,M,M,M,M,M,M,M,M,M,M,M,M,M,81.52,KBVU 211935Z AUTO 06004KT 10SM CLR 29/05 A2986 RMK AO2,M
CXP,2024-09-21 19:35,-119.7326,39.1923,1431.00,73.40,33.80,23.39,50.00,7.00,0.00,30.10,M,8.00,M,CLR,M,M,M,M,M,M,M,M,M,M,M,M,M,M,73.40,KCXP 211935Z AUTO 05007KT 8SM CLR 23/01 A3010 RMK AO2,M
RTS,2024-09-21 19:35,-119.8764,39.6682,1539.00,69.80,28.40,21.24,M,4.00,0.00,30.12,M,10.00,10.00,CLR,M,M,M,M,M,M,M,M,M,M,M,M,M,M,69.80,KRTS 211935Z AUTO VRB04G10KT 10SM CLR 21/M02 A3012 RMK AO2,M
MEV,2024-09-21 19:35,-119.7500,38.9963,1441.42,71.60,35.60,26.71,110.00,4.00,0.00,30.08,M,10.00,M,CLR,M,M,M,M,M,M,M,M,M,M,M,M,M,M,71.60,KMEV 211935Z AUTO 11004KT 10SM CLR 22/02 A3008 RMK AO2,M
BAM,2024-09-21 19:35,-116.8743,40.5990,1382.36,73.40,28.40,18.80,310.00,5.00,0.00,30.09,M,10.00,M,CLR,M,M,M,M,M,M,M,M,M,M,M,M,M,M,73.40,KBAM 211935Z AUTO 31005KT 10SM CLR 23/M02 A3009 RMK AO1,M
HTH,2024-09-21 19:35,-118.6315,38.5448,1282.89,73.40,35.60,25.13,310.00,9.00,0.00,30.08,M,10.00,M,CLR,M,M,M,M,M,M,M,M,M,M,M,M,M,M,73.40,KHTH 211935Z AUTO 31009KT 10SM CLR 23/02 A3008 RMK A01,M
TMT,2024-09-21 19:35,-117.1971,39.4643,1749.34,69.00,40.00,34.69,10.00,3.00,0.00,30.13,M,10.00,M,CLR,M,M,M,M,M,M,M,M,M,M,M,M,M,M,69.00,KTMT 211935Z AUTO 01003KT 10SM CLR 21/04 A3013 RMK AO2 T02060044,M
10U,2024-09-21 19:35,-116.1876,41.9532,1637.00,64.40,23.00,20.46,340.00,8.00,0.00,30.15,M,10.00,M,CLR,M,M,M,M,M,M,M,M,M,M,M,M,M,M,64.40,K10U 211935Z AUTO 34008KT 320V020 10SM CLR 18/M05 A3015 RMK AO2,M
05U,2024-09-21 19:50,-116.0051,39.6042,1811.23,69.80,33.80,26.43,M,3.00,0.00,30.12,M,10.00,12.00,CLR,M,M,M,M,M,M,M,M,M,M,M,M,M,M,69.80,K05U 211950Z AUTO VRB03G12KT 10SM CLR 21/01 A3012 RMK A01,M
P68,2024-09-21 19:53,-116.0056,39.6014,1993.00,70.00,34.00,26.46,30.00,7.00,0.00,30.09,1013.50,M,15.00,M,M,M,M,M,M,M,M,M,M,M,M,M,M,M,70.00,KP68 211953Z AUTO 03007G15KT 21/01 A3009 RMK AO1 SLP135 T02110011,M
DRA,2024-09-21 19:53,-116.0278,36.6206,1009.00,86.00,36.00,16.89,360.00,3.00,0.00,29.93,1008.90,10.00,M,CLR,M,M,M,M,M,M,M,M,M,M,M,M,M,M,82.70,KDRA 211953Z AUTO 36003KT 10SM CLR 30/02 A2993 RMK AO2 SLP089 T03000022,M
ELY,2024-09-21 19:53,-114.8453,39.2950,1909.00,72.00,32.00,22.82,350.00,8.00,0.00,30.08,1010.10,10.00,17.00,CLR,M,M,M,M,M,M,M,M,M,M,M,M,M,M,72.00,KELY 211953Z AUTO 35008G17KT 290V040 10SM CLR 22/00 A3008 RMK AO2 SLP101 T02220000,M
VGT,2024-09-21 19:53,-115.1933,36.2111,667.00,87.00,42.00,20.68,160.00,4.00,0.00,29.86,1010.50,10.00,M,CLR,M,M,M,M,M,M,M,M,M,M,M,M,M,M,83.70,KVGT 211953Z 16004KT 10SM CLR 31/06 A2986 RMK AO2 SLP105 T03060056,M
LOL,2024-09-21 19:53,-118.5701,40.0684,1192.43,76.00,28.00,16.95,80.00,11.00,0.00,30.05,1014.50,10.00,M,CLR,M,M,M,M,M,M,M,M,M,M,M,M,M,M,76.00,KLOL 211953Z AUTO 08011KT 10SM CLR 24/M02 A3005 RMK AO2 SLP145 T02441022,M
BVU,2024-09-21 19:55,-114.8611,35.9475,671.00,86.00,41.00,20.54,150.00,6.00,0.00,29.86,M,10.00,M,CLR,M,M,M,M,M,M,M,M,M,M,M,M,M,M,82.86,KBVU 211955Z AUTO 15006KT 10SM CLR 30/05 A2986 RMK AO2,M
CXP,2024-09-21 19:55,-119.7326,39.1923,1431.00,73.40,33.80,23.39,M,5.00,0.00,30.09,M,10.00,M,CLR,M,M,M,M,M,M,M,M,M,M,M,M,M,M,73.40,KCXP 211955Z AUTO VRB05KT 10SM CLR 23/01 A3009 RMK AO2,M
INS,2024-09-21 19:55,-115.6733,36.5872,955.00,83.50,32.50,15.92,0.00,0.00,0.00,29.91,1008.30,10.00,M,CLR,M,M,M,M,M,M,M,M,M,M,M,M,M,M,80.77,KINS 211955Z AUTO 00000KT 10SM CLR 29/00 A2991 RMK AO2 SLP083 T02860003,M
RNO,2024-09-21 19:55,-119.7711,39.4839,1341.00,75.00,32.00,20.63,M,3.00,0.00,30.07,1013.80,10.00,M,FEW,M,M,M,9000.00,M,M,M,M,M,M,M,M,M,M,75.00,KRNO 211955Z COR VRB03KT 10SM FEW090 24/00 A3007 RMK AO2 SLP138 T02390000,M
RTS,2024-09-21 19:55,-119.8764,39.6682,1539.00,71.60,30.20,21.50,70.00,6.00,0.00,30.12,M,10.00,M,CLR,M,M,M,M,M,M,M,M,M,M,M,M,M,M,71.60,KRTS 211955Z AUTO 07006KT 10SM CLR 22/M01 A3012 RMK AO2,M
MEV,2024-09-21 19:55,-119.7500,38.9963,1441.42,73.40,35.60,25.13,0.00,0.00,0.00,30.07,M,10.00,M,CLR,M,M,M,M,M,M,M,M,M,M,M,M,M,M,73.40,KMEV 211955Z AUTO 00000KT 10SM CLR 23/02 A3007 RMK AO2,M
BAM,2024-09-21 19:55,-116.8743,40.5990,1382.36,73.40,28.40,18.80,350.00,8.00,0.00,30.09,M,10.00,M,CLR,M,M,M,M,M,M,M,M,M,M,M,M,M,M,73.40,KBAM 211955Z AUTO 35008KT 10SM CLR 23/M02 A3009 RMK AO1,M
HTH,2024-09-21 19:55,-118.6315,38.5448,1282.89,73.40,35.60,25.13,330.00,10.00,0.00,30.07,M,10.00,M,CLR,M,M,M,M,M,M,M,M,M,M,M,M,M,M,73.40,KHTH 211955Z AUTO 33010KT 10SM CLR 23/02 A3007 RMK A01,M
TMT,2024-09-21 19:55,-117.1971,39.4643,1749.34,70.00,40.50,34.18,300.00,6.00,0.00,30.13,M,10.00,M,CLR,M,M,M,M,M,M,M,M,M,M,M,M,M,M,70.00,KTMT 211955Z AUTO 30006KT 10SM CLR 21/05 A3013 RMK AO2 T02120047,M
10U,2024-09-21 19:55,-116.1876,41.9532,1637.00,66.20,23.00,19.22,350.00,9.00,0.00,30.14,M,10.00,M,CLR,M,M,M,M,M,M,M,M,M,M,M,M,M,M,66.20,K10U 211955Z AUTO 35009KT 320V020 10SM CLR 19/M05 A3014 RMK AO2,M
LSV,2024-09-21 19:55,-115.0343,36.2362,570.00,86.40,37.80,17.90,30.00,3.00,0.00,29.82,1007.30,10.00,M,CLR,M,M,M,M,M,M,M,M,M,M,M,M,M,M,83.05,KLSV 211955Z AUTO 03003KT 10SM CLR 30/03 A2982 RMK AO2 SLP073 T03020032 $,M
EKO,2024-09-21 19:56,-115.7860,40.8242,1367.00,73.00,29.00,19.53,60.00,3.00,0.00,30.08,1014.00,10.00,M,CLR,M,M,M,M,M,M,M,M,M,M,M,M,M,M,73.00,KEKO 211956Z AUTO 06003KT 10SM CLR 23/M02 A3008 RMK AO2 SLP140 T02281017,M
WMC,2024-09-21 19:56,-117.8072,40.9019,1315.00,74.00,25.00,16.01,50.00,9.00,0.00,30.09,1015.30,10.00,M,CLR,M,M,M,M,M,M,M,M,M,M,M,M,M,M,74.00,KWMC 211956Z AUTO 05009KT 10SM CLR 23/M04 A3009 RMK AO2 SLP153 T02331039,M
HND,2024-09-21 19:56,-115.1344,35.9729,742.79,85.00,42.00,22.05,260.00,6.00,0.00,29.91,1011.90,10.00,M,CLR,M,M,M,M,M,M,M,M,M,M,M,M,M,M,82.15,KHND 211956Z 26006KT 10SM CLR 29/06 A2991 RMK AO2 SLP119 T02940056,M
TPH,2024-09-21 19:56,-117.0904,38.0505,1654.00,77.00,32.00,19.30,290.00,11.00,0.00,30.06,1010.70,10.00,19.00,CLR,M,M,M,M,M,M,M,M,M,M,M,M,M,M,77.00,KTPH 211956Z AUTO 29011G19KT 10SM CLR 25/00 A3006 RMK AO2 SLP107 T02500000,M
LAS,2024-09-21 19:56,-115.1634,36.0719,663.00,84.00,41.00,21.90,0.00,0.00,0.00,29.88,1009.50,10.00,M,FEW,M,M,M,12000.00,M,M,M,M,M,M,M,M,M,M,81.37,KLAS 211956Z 00000KT 10SM FEW120 29/05 A2988 RMK AO2 SLP095 ACC DSNT E T02890050 $,M
NFL,2024-09-21 19:57,-118.7010,39.4166,1199.00,76.00,31.00,19.16,20.00,7.00,0.00,30.06,1014.60,10.00,M,CLR,M,M,M,M,M,M,M,M,M,M,M,M,M,M,76.00,KNFL 211957Z AUTO 02007KT 10SM CLR 24/M01 A3006 RMK AO2 SLP146 T02441006,M
05U,2024-09-21 20:10,-116.0051,39.6042,1811.23,69.80,33.80,26.43,0.00,0.00,0.00,30.12,M,10.00,16.00,CLR,M,M,M,M,M,M,M,M,M,M,M,M,M,M,69.80,K05U 212010Z AUTO 00000G16KT 10SM CLR 21/01 A3012 RMK A01,M
10U,2024-09-21 20:10,-116.1876,41.9532,1637.00,66.20,23.00,19.22,350.00,6.00,0.00,30.14,M,10.00,14.00,CLR,M,M,M,M,M,M,M,M,M,M,M,M,M,M,66.20,K10U 212010Z AUTO 35006G14KT 10SM CLR 19/M05 A3014 RMK AO2,M
BVU,2024-09-21 20:15,-114.8611,35.9475,671.00,86.00,41.00,20.54,M,4.00,0.00,29.86,M,10.00,M,CLR,M,M,M,M,M,M,M,M,M,M,M,M,M,M,82.86,KBVU 212015Z AUTO VRB04KT 10SM CLR 30/05 A2986 RMK AO2,M
CXP,2024-09-21 20:15,-119.7326,39.1923,1431.00,75.20,33.80,22.02,70.00,7.00,0.00,30.09,M,10.00,M,CLR,M,M,M,M,M,M,M,M,M,M,M,M,M,M,75.20,KCXP 212015Z AUTO 07007KT 10SM CLR 24/01 A3009 RMK AO2,M
RTS,2024-09-21 20:15,-119.8764,39.6682,1539.00,71.60,30.20,21.50,M,4.00,0.00,30.11,M,10.00,10.00,CLR,M,M,M,M,M,M,M,M,M,M,M,M,M,M,71.60,KRTS 212015Z AUTO VRB04G10KT 10SM CLR 22/M01 A3011 RMK AO2,M
MEV,2024-09-21 20:15,-119.7500,38.9963,1441.42,73.40,35.60,25.13,0.00,0.00,0.00,30.07,M,10.00,M,CLR,M,M,M,M,M,M,M,M,M,M,M,M,M,M,73.40,KMEV 212015Z AUTO 00000KT 10SM CLR 23/02 A3007 RMK AO2,M
BAM,2024-09-21 20:15,-116.8743,40.5990,1382.36,73.40,28.40,18.80,300.00,6.00,0.00,30.09,M,10.00,M,CLR,M,M,M,M,M,M,M,M,M,M,M,M,M,M,73.40,KBAM 212015Z AUTO 30006KT 10SM CLR 23/M02 A3009 RMK AO1,M
HTH,2024-09-21 20:15,-118.6315,38.5448,1282.89,75.20,35.60,23.66,340.00,10.00,0.00,30.06,M,10.00,M,CLR,M,M,M,M,M,M,M,M,M,M,M,M,M,M,75.20,KHTH 212015Z AUTO 34010KT 10SM CLR 24/02 A3006 RMK A01,M
TMT,2024-09-21 20:15,-117.1971,39.4643,1749.34,70.70,39.00,31.48,350.00,7.00,0.00,30.12,M,10.00,M,SCT,M,M,M,7000.00,M,M,M,M,M,M,M,M,M,M,70.70,KTMT 212015Z AUTO 35007KT 10SM SCT070 22/04 A3012 RMK AO2 T02150039,M
05U,2024-09-21 20:30,-116.0051,39.6042,1811.23,69.80,33.80,26.43,M,4.00,0.00,30.12,M,10.00,10.00,CLR,M,M,M,M,M,M,M,M,M,M,M,M,M,M,69.80,K05U 212030Z AUTO VRB04G10KT 10SM CLR 21/01 A3012 RMK A01,M
BVU,2024-09-21 20:35,-114.8611,35.9475,671.00,86.00,41.00,20.54,M,4.00,0.00,29.85,M,10.00,M,CLR,M,M,M,M,M,M,M,M,M,M,M,M,M,M,82.86,KBVU 212035Z AUTO VRB04KT 10SM CLR 30/05 A2985 RMK AO2,M
CXP,2024-09-21 20:35,-119.7326,39.1923,1431.00,75.20,33.80,22.02,70.00,9.00,0.00,30.08,M,10.00,M,CLR,M,M,M,M,M,M,M,M,M,M,M,M,M,M,75.20,KCXP 212035Z AUTO 07009KT 10SM CLR 24/01 A3008 RMK AO2,M
RTS,2024-09-21 20:35,-119.8764,39.6682,1539.00,71.60,30.20,21.50,0.00,0.00,0.00,30.11,M,10.00,10.00,CLR,M,M,M,M,M,M,M,M,M,M,M,M,M,M,71.60,KRTS 212035Z AUTO 00000G10KT 10SM CLR 22/M01 A3011 RMK AO2,M
MEV,2024-09-21 20:35,-119.7500,38.9963,1441.42,75.20,35.60,23.66,0.00,0.00,0.00,30.06,M,10.00,M,CLR,M,M,M,M,M,M,M,M,M,M,M,M,M,M,75.20,KMEV 212035Z AUTO 00000KT 10SM CLR 24/02 A3006 RMK AO2,M
BAM,2024-09-21 20:35,-116.8743,40.5990,1382.36,75.20,28.40,17.70,300.00,5.00,0.00,30.09,M,10.00,M,CLR,M,M,M,M,M,M,M,M,M,M,M,M,M,M,75.20,KBAM 212035Z AUTO 30005KT 10SM CLR 24/M02 A3009 RMK AO1,M
HTH,2024-09-21 20:35,-118.6315,38.5448,1282.89,75.20,35.60,23.66,340.00,11.00,0.00,30.06,M,10.00,M,CLR,M,M,M,M,M,M,M,M,M,M,M,M,M,M,75.20,KHTH 212035Z AUTO 34011KT 10SM CLR 24/02 A3006 RMK A01,M
TMT,2024-09-21 20:35,-117.1971,39.4643,1749.34,71.80,38.00,29.16,330.00,7.00,0.00,30.12,M,10.00,15.00,SCT,M,M,M,7000.00,M,M,M,M,M,M,M,M,M,M,71.80,KTMT 212035Z AUTO 33007G15KT 10SM SCT070 22/03 A3012 RMK AO2 T02210034,M
10U,2024-09-21 20:35,-116.1876,41.9532,1637.00,66.20,23.00,19.22,350.00,6.00,0.00,30.14,M,10.00,14.00,CLR,M,M,M,M,M,M,M,M,M,M,M,M,M,M,66.20,K10U 212035Z AUTO 35006G14KT 320V020 10SM CLR 19/M05 A3014 RMK AO2,M
05U,2024-09-21 20:50,-116.0051,39.6042,1811.23,71.60,33.80,24.86,0.00,0.00,0.00,30.11,M,10.00,13.00,CLR,M,M,M,M,M,M,M,M,M,M,M,M,M,M,71.60,K05U 212050Z AUTO 00000G13KT 10SM CLR 22/01 A3011 RMK A01,M
P68,2024-09-21 20:53,-116.0056,39.6014,1993.00,73.00,34.00,23.90,30.00,8.00,0.00,30.08,1012.90,M,18.00,M,M,M,M,M,M,M,M,M,M,M,M,M,M,M,73.00,KP68 212053Z AUTO 03008G18KT 23/01 A3008 RMK AO1 SLP129 T02280011 58010,M
DRA,2024-09-21 20:53,-116.0278,36.6206,1009.00,89.00,38.00,16.61,220.00,8.00,0.00,29.91,1008.20,10.00,M,CLR,M,M,M,M,M,M,M,M,M,M,M,M,M,M,85.18,KDRA 212053Z AUTO 22008KT 10SM CLR 32/03 A2991 RMK AO2 SLP082 T03170033 58013,M
ELY,2024-09-21 20:53,-114.8453,39.2950,1909.00,74.00,31.00,20.48,M,5.00,0.00,30.07,1010.10,10.00,M,CLR,M,M,M,M,M,M,M,M,M,M,M,M,M,M,74.00,KELY 212053Z AUTO VRB05KT 10SM CLR 23/M01 A3007 RMK AO2 SLP101 T02331006 58011,M
VGT,2024-09-21 20:53,-115.1933,36.2111,667.00,89.00,42.00,19.41,210.00,6.00,0.00,29.85,1010.10,10.00,M,CLR,M,M,M,M,M,M,M,M,M,M,M,M,M,M,85.36,KVGT 212053Z 21006KT 10SM CLR 32/06 A2985 RMK AO2 SLP101 T03170056 58012,M
LOL,2024-09-21 20:53,-118.5701,40.0684,1192.43,77.00,27.00,15.74,M,5.00,0.00,30.04,1014.20,10.00,M,CLR,M,M,M,M,M,M,M,M,M,M,M,M,M,M,77.00,KLOL 212053Z AUTO VRB05KT 10SM CLR 25/M03 A3004 RMK AO2 SLP142 T02501028 58009,M
BVU,2024-09-21 20:55,-114.8611,35.9475,671.00,86.00,39.20,19.15,40.00,5.00,0.00,29.85,M,10.00,M,CLR,M,M,M,M,M,M,M,M,M,M,M,M,M,M,82.79,KBVU 212055Z AUTO 04005KT 10SM CLR 30/04 A2985 RMK AO2,M
RNO,2024-09-21 20:55,-119.7711,39.4839,1341.00,77.00,32.00,19.30,310.00,3.00,0.00,30.06,1013.20,10.00,M,FEW,M,M,M,9000.00,M,M,M,M,M,M,M,M,M,M,77.00,KRNO 212055Z 31003KT 10SM FEW090 25/00 A3006 RMK AO2 SLP132 T02500000 56014,M
BAM,2024-09-21 20:55,-116.8743,40.5990,1382.36,75.20,28.40,17.70,80.00,5.00,0.00,30.08,M,10.00,14.00,CLR,M,M,M,M,M,M,M,M,M,M,M,M,M,M,75.20,KBAM 212055Z AUTO 08005G14KT 10SM CLR 24/M02 A3008 RMK AO1,M
CXP,2024-09-21 20:55,-119.7326,39.1923,1431.00,75.20,33.80,22.02,60.00,4.00,0.00,30.08,M,10.00,M,CLR,M,M,M,M,M,M,M,M,M,M,M,M,M,M,75.20,KCXP 212055Z AUTO 06004KT 10SM CLR 24/01 A3008 RMK AO2,M
INS,2024-09-21 20:55,-115.6733,36.5872,955.00,85.50,29.00,12.95,10.00,6.00,0.00,29.90,1007.90,10.00,M,CLR,M,M,M,M,M,M,M,M,M,M,M,M,M,M,82.24,KINS 212055Z AUTO 01006KT 10SM CLR 30/M02 A2990 RMK AO2 SLP079 T02971017 57014,M
RTS,2024-09-21 20:55,-119.8764,39.6682,1539.00,73.40,30.20,20.23,M,5.00,0.00,30.10,M,10.00,M,CLR,M,M,M,M,M,M,M,M,M,M,M,M,M,M,73.40,KRTS 212055Z AUTO VRB05KT 10SM CLR 23/M01 A3010 RMK AO2,M
MEV,2024-09-21 20:55,-119.7500,38.9963,1441.42,75.20,35.60,23.66,150.00,4.00,0.00,30.05,M,10.00,M,CLR,M,M,M,M,M,M,M,M,M,M,M,M,M,M,75.20,KMEV 212055Z AUTO 15004KT 10SM CLR 24/02 A3005 RMK AO2,M
HTH,2024-09-21 20:55,-118.6315,38.5448,1282.89,75.20,35.60,23.66,330.00,9.00,0.00,30.05,M,10.00,M,CLR,M,M,M,M,M,M,M,M,M,M,M,M,M,M,75.20,KHTH 212055Z AUTO 33009KT 10SM CLR 24/02 A3005 RMK A01,M
TMT,2024-09-21 20:55,-117.1971,39.4643,1749.34,71.80,37.40,28.48,330.00,3.00,0.00,30.12,M,10.00,7.00,CLR,M,M,M,M,M,M,M,M,M,M,M,M,M,M,71.80,KTMT 212055Z AUTO 33003G07KT 10SM CLR 22/03 A3012 RMK AO2 T02210030,M
10U,2024-09-21 20:55,-116.1876,41.9532,1637.00,66.20,23.00,19.22,350.00,9.00,0.00,30.14,M,10.00,M,CLR,M,M,M,M,M,M,M,M,M,M,M,M,M,M,66.20,K10U 212055Z AUTO 35009KT 10SM CLR 19/M05 A3014 RMK AO2,M
LSV,2024-09-21 20:55,-115.0343,36.2362,570.00,88.50,36.50,15.91,180.00,6.00,0.00,29.80,1006.60,10.00,M,CLR,M,M,M,M,M,M,M,M,M,M,M,M,M,M,84.72,KLSV 212055Z AUTO 18006KT 10SM CLR 31/03 A2980 RMK AO2 SLP066 T03140025 57014 $,M
EKO,2024-09-21 20:56,-115.7860,40.8242,1367.00,74.00,29.00,18.88,0.00,0.00,0.00,30.06,1013.90,10.00,M,CLR,M,M,M,M,M,M,M,M,M,M,M,M,M,M,74.00,KEKO 212056Z AUTO 00000KT 10SM CLR 23/M02 A3006 RMK AO2 SLP139 T02331017 58014,M
WMC,2024-09-21 20:56,-117.8072,40.9019,1315.00,76.00,24.00,14.36,20.00,9.00,0.00,30.08,1015.00,10.00,14.00,CLR,M,M,M,M,M,M,M,M,M,M,M,M,M,M,76.00,KWMC 212056Z AUTO 02009G14KT 10SM CLR 24/M04 A3008 RMK AO2 SLP150 T02441044 58008,M
HND,2024-09-21 20:56,-115.1344,35.9729,742.79,86.00,41.00,20.54,M,3.00,0.00,29.89,1011.40,10.00,M,CLR,M,M,M,M,M,M,M,M,M,M,M,M,M,M,82.86,KHND 212056Z VRB03KT 10SM CLR 30/05 A2989 RMK AO2 SLP114 T03000050 58012,M
TPH,2024-09-21 20:56,-117.0904,38.0505,1654.00,77.00,30.00,17.80,270.00,9.00,0.00,30.05,1010.40,10.00,20.00,CLR,M,M,M,M,M,M,M,M,M,M,M,M,M,M,77.00,KTPH 212056Z AUTO 27009G20KT 10SM CLR 25/M01 A3005 RMK AO2 SLP104 T02501011 58009,M
LAS,2024-09-21 20:56,-115.1634,36.0719,663.00,87.00,40.00,19.14,40.00,5.00,0.00,29.86,1009.00,10.00,M,FEW,M,M,M,12000.00,M,M,M,M,M,M,M,M,M,M,83.60,KLAS 212056Z 04005KT 10SM FEW120 31/04 A2986 RMK AO2 SLP090 T03060044 58012 $,M
NFL,2024-09-21 20:57,-118.7010,39.4166,1199.00,78.00,33.00,19.43,M,6.00,0.00,30.04,1014.20,10.00,M,CLR,M,M,M,M,M,M,M,M,M,M,M,M,M,M,78.00,KNFL 212057Z AUTO VRB06KT 10SM CLR 26/01 A3004 RMK AO2 SLP142 T02560006 58011,M
05U,2024-09-21 21:10,-116.0051,39.6042,1811.23,71.60,33.80,24.86,50.00,8.00,0.00,30.11,M,10.00,M,CLR,M,M,M,M,M,M,M,M,M,M,M,M,M,M,71.60,K05U 212110Z AUTO 05008KT 360V060 10SM CLR 22/01 A3011 RMK A01,M
BVU,2024-09-21 21:15,-114.8611,35.9475,671.00,86.00,39.20,19.15,0.00,0.00,0.00,29.84,M,10.00,M,CLR,M,M,M,M,M,M,M,M,M,M,M,M,M,M,82.79,KBVU 212115Z AUTO 00000KT 10SM CLR 30/04 A2984 RMK AO2,M
CXP,2024-09-21 21:15,-119.7326,39.1923,1431.00,77.00,33.80,20.74,100.00,9.00,0.00,30.07,M,10.00,M,CLR,M,M,M,M,M,M,M,M,M,M,M,M,M,M,77.00,KCXP 212115Z AUTO 10009KT 10SM CLR 25/01 A3007 RMK AO2,M
RTS,2024-09-21 21:15,-119.8764,39.6682,1539.00,73.40,30.20,20.23,0.00,0.00,0.00,30.10,M,10.00,M,CLR,M,M,M,M,M,M,M,M,M,M,M,M,M,M,73.40,KRTS 212115Z AUTO 00000KT 10SM CLR 23/M01 A3010 RMK AO2,M
MEV,2024-09-21 21:15,-119.7500,38.9963,1441.42,77.00,37.40,23.93,M,4.00,0.00,30.05,M,10.00,M,CLR,M,M,M,M,M,M,M,M,M,M,M,M,M,M,77.00,KMEV 212115Z AUTO VRB04KT 10SM CLR 25/03 A3005 RMK AO2,M
BAM,2024-09-21 21:15,-116.8743,40.5990,1382.36,77.00,28.40,16.67,350.00,8.00,0.00,30.08,M,10.00,M,CLR,M,M,M,M,M,M,M,M,M,M,M,M,M,M,77.00,KBAM 212115Z AUTO 35008KT 10SM CLR 25/M02 A3008 RMK AO1,M
HTH,2024-09-21 21:15,-118.6315,38.5448,1282.89,77.00,35.60,22.28,310.00,11.00,0.00,30.04,M,10.00,16.00,CLR,M,M,M,M,M,M,M,M,M,M,M,M,M,M,77.00,KHTH 212115Z AUTO 31011G16KT 10SM CLR 25/02 A3004 RMK A01,M
TMT,2024-09-21 21:15,-117.1971,39.4643,1749.34,72.00,37.00,27.85,30.00,7.00,0.00,30.12,M,10.00,14.00,CLR,M,M,M,M,M,M,M,M,M,M,M,M,M,M,72.00,KTMT 212115Z AUTO 03007G14KT 10SM CLR 22/03 A3012 RMK AO2 T02220027,M
10U,2024-09-21 21:15,-116.1876,41.9532,1637.00,66.20,24.80,20.72,0.00,0.00,0.00,30.13,M,10.00,11.00,CLR,M,M,M,M,M,M,M,M,M,M,M,M,M,M,66.20,K10U 212115Z AUTO 00000G11KT 10SM CLR 19/M04 A3013 RMK AO2,M
05U,2024-09-21 21:30,-116.0051,39.6042,1811.23,73.40,33.80,23.39,40.00,9.00,0.00,30.10,M,10.00,M,CLR,M,M,M,M,M,M,M,M,M,M,M,M,M,M,73.40,K05U 212130Z AUTO 04009KT 10SM CLR 23/01 A3010 RMK A01,M
BVU,2024-09-21 21:35,-114.8611,35.9475,671.00,87.80,39.20,18.09,60.00,6.00,0.00,29.84,M,10.00,12.00,CLR,M,M,M,M,M,M,M,M,M,M,M,M,M,M,84.22,KBVU 212135Z AUTO 06006G12KT 10SM CLR 31/04 A2984 RMK AO2,M
CXP,2024-09-21 21:35,-119.7326,39.1923,1431.00,77.00,33.80,20.74,80.00,11.00,0.00,30.06,M,10.00,M,CLR,M,M,M,M,M,M,M,M,M,M,M,M,M,M,77.00,KCXP 212135Z AUTO 08011KT 10SM CLR 25/01 A3006 RMK AO2,M
RTS,2024-09-21 21:35,-119.8764,39.6682,1539.00,75.20,30.20,19.05,60.00,4.00,0.00,30.09,M,10.00,M,CLR,M,M,M,M,M,M,M,M,M,M,M,M,M,M,75.20,KRTS 212135Z AUTO 06004KT 10SM CLR 24/M01 A3009 RMK AO2,M
MEV,2024-09-21 21:35,-119.7500,38.9963,1441.42,77.00,37.40,23.93,M,4.00,0.00,30.04,M,10.00,M,CLR,M,M,M,M,M,M,M,M,M,M,M,M,M,M,77.00,KMEV 212135Z AUTO VRB04KT 10SM CLR 25/03 A3004 RMK AO2,M
BAM,2024-09-21 21:35,-116.8743,40.5990,1382.36,77.00,28.40,16.67,340.00,10.00,0.00,30.08,M,10.00,M,CLR,M,M,M,M,M,M,M,M,M,M,M,M,M,M,77.00,KBAM 212135Z AUTO 34010KT 10SM CLR 25/M02 A3008 RMK AO1,M
HTH,2024-09-21 21:35,-118.6315,38.5448,1282.89,77.00,35.60,22.28,320.00,10.00,0.00,30.04,M,10.00,15.00,CLR,M,M,M,M,M,M,M,M,M,M,M,M,M,M,77.00,KHTH 212135Z AUTO 32010G15KT 10SM CLR 25/02 A3004 RMK A01,M
TMT,2024-09-21 21:35,-117.1971,39.4643,1749.34,71.20,36.70,28.28,20.00,8.00,0.00,30.11,M,10.00,M,SCT,M,M,M,8000.00,M,M,M,M,M,M,M,M,M,M,71.20,KTMT 212135Z AUTO 02008KT 340V040 10SM SCT080 22/03 A3011 RMK AO2 T02180026,M
10U,2024-09-21 21:35,-116.1876,41.9532,1637.00,68.00,24.80,19.47,10.00,7.00,0.00,30.13,M,10.00,M,CLR,M,M,M,M,M,M,M,M,M,M,M,M,M,M,68.00,K10U 212135Z AUTO 01007KT 10SM CLR 20/M04 A3013 RMK AO2,M
05U,2024-09-21 21:50,-116.0051,39.6042,1811.23,73.40,32.00,21.76,0.00,0.00,0.00,30.10,M,10.00,12.00,CLR,M,M,M,M,M,M,M,M,M,M,M,M,M,M,73.40,K05U 212150Z AUTO 00000G12KT 10SM CLR 23/00 A3010 RMK A01,M
P68,2024-09-21 21:53,-116.0056,39.6014,1993.00,74.00,34.00,23.11,50.00,9.00,0.00,30.07,1012.30,M,16.00,M,M,M,M,M,M,M,M,M,M,M,M,M,M,M,74.00,KP68 212153Z AUTO 05009G16KT 23/01 A3007 RMK AO1 SLP123 T02330011,M
ELY,2024-09-21 21:53,-114.8453,39.2950,1909.00,74.00,30.00,19.67,0.00,0.00,0.00,30.07,1011.10,10.00,M,CLR,M,M,M,M,M,M,M,M,M,M,M,M,M,M,74.00,KELY 212153Z AUTO 00000KT 10SM CLR 23/M01 A3007 RMK AO2 SLP111 T02331011,M
VGT,2024-09-21 21:53,-115.1933,36.2111,667.00,90.00,41.00,18.10,170.00,9.00,0.00,29.83,1009.60,10.00,14.00,CLR,M,M,M,M,M,M,M,M,M,M,M,M,M,M,86.16,KVGT 212153Z 17009G14KT 10SM CLR 32/05 A2983 RMK AO2 SLP096 T03220050,M
LOL,2024-09-21 21:53,-118.5701,40.0684,1192.43,79.00,27.00,14.73,M,6.00,0.00,30.03,1013.70,10.00,M,CLR,M,M,M,M,M,M,M,M,M,M,M,M,M,M,79.00,KLOL 212153Z AUTO VRB06KT 10SM CLR 26/M03 A3003 RMK AO2 SLP137 T02611028,M
BVU,2024-09-21 21:55,-114.8611,35.9475,671.00,87.80,39.20,18.09,M,4.00,0.00,29.84,M,10.00,M,CLR,M,M,M,M,M,M,M,M,M,M,M,M,M,M,84.22,KBVU 212155Z AUTO VRB04KT 10SM CLR 31/04 A2984 RMK AO2,M
RNO,2024-09-21 21:55,-119.7711,39.4839,1341.00,78.00,33.00,19.43,0.00,0.00,0.00,30.04,1012.80,10.00,M,FEW,M,M,M,9000.00,M,M,M,M,M,M,M,M,M,M,78.00,KRNO 212155Z 00000KT 10SM FEW090 26/01 A3004 RMK AO2 SLP128 T02560006,M
CXP,2024-09-21 21:55,-119.7326,39.1923,1431.00,77.00,33.80,20.74,90.00,10.00,0.00,30.06,M,10.00,M,CLR,M,M,M,M,M,M,M,M,M,M,M,M,M,M,77.00,KCXP 212155Z AUTO 09010KT 10SM CLR 25/01 A3006 RMK AO2,M
RTS,2024-09-21 21:55,-119.8764,39.6682,1539.00,75.20,30.20,19.05,130.00,9.00,0.00,30.09,M,10.00,M,CLR,M,M,M,M,M,M,M,M,M,M,M,M,M,M,75.20,KRTS 212155Z AUTO 13009KT 10SM CLR 24/M01 A3009 RMK AO2,M
MEV,2024-09-21 21:55,-119.7500,38.9963,1441.42,78.80,35.60,21.00,300.00,5.00,0.00,30.04,M,10.00,11.00,CLR,M,M,M,M,M,M,M,M,M,M,M,M,M,M,78.80,KMEV 212155Z AUTO 30005G11KT 10SM CLR 26/02 A3004 RMK AO2,M
BAM,2024-09-21 21:55,-116.8743,40.5990,1382.36,77.00,28.40,16.67,350.00,11.00,0.00,30.07,M,10.00,14.00,CLR,M,M,M,M,M,M,M,M,M,M,M,M,M,M,77.00,KBAM 212155Z AUTO 35011G14KT 10SM CLR 25/M02 A3007 RMK AO1,M
HTH,2024-09-21 21:55,-118.6315,38.5448,1282.89,77.00,35.60,22.28,310.00,12.00,0.00,30.03,M,10.00,M,CLR,M,M,M,M,M,M,M,M,M,M,M,M,M,M,77.00,KHTH 212155Z AUTO 31012KT 10SM CLR 25/02 A3003 RMK A01,M
TMT,2024-09-21 21:55,-117.1971,39.4643,1749.34,72.00,37.60,28.51,20.00,9.00,0.00,30.11,M,10.00,15.00,SCT,M,M,M,8000.00,M,M,M,M,M,M,M,M,M,M,72.00,KTMT 212155Z AUTO 02009G15KT 10SM SCT080 22/03 A3011 RMK AO2 T02230031,M
10U,2024-09-21 21:55,-116.1876,41.9532,1637.00,68.00,23.00,18.06,340.00,8.00,0.00,30.13,M,10.00,13.00,CLR,M,M,M,M,M,M,M,M,M,M,M,M,M,M,68.00,K10U 212155Z AUTO 34008G13KT 310V020 10SM CLR 20/M05 A3013 RMK AO2,M
INS,2024-09-21 21:55,-115.6733,36.5872,955.00,87.00,30.00,12.86,190.00,3.00,0.00,29.88,1007.20,10.00,M,CLR,M,M,M,M,M,M,M,M,M,M,M,M,M,M,83.40,KINS 212155Z AUTO 19003KT 10SM CLR 31/M01 A2988 RMK AO2 SLP072 T03051011,M
LSV,2024-09-21 21:55,-115.0343,36.2362,570.00,89.40,35.60,14.92,0.00,0.00,0.00,29.78,1006.00,10.00,M,CLR,M,M,M,M,M,M,M,M,M,M,M,M,M,M,85.45,KLSV 212155Z AUTO 00000KT 10SM CLR 32/02 A2978 RMK AO2 SLP060 T03190020 $,M
EKO,2024-09-21 21:56,-115.7860,40.8242,1367.00,75.00,28.00,17.53,0.00,0.00,0.00,30.05,1013.80,10.00,M,CLR,M,M,M,M,M,M,M,M,M,M,M,M,M,M,75.00,KEKO 212156Z AUTO 00000KT 10SM CLR 24/M02 A3005 RMK AO2 SLP138 T02391022,M
WMC,2024-09-21 21:56,-117.8072,40.9019,1315.00,76.00,26.00,15.61,310.00,10.00,0.00,30.07,1014.70,10.00,15.00,CLR,M,M,M,M,M,M,M,M,M,M,M,M,M,M,76.00,KWMC 212156Z AUTO 31010G15KT 10SM CLR 24/M03 A3007 RMK AO2 SLP147 T02441033,M
HND,2024-09-21 21:56,-115.1344,35.9729,742.79,88.00,39.00,17.83,0.00,0.00,0.00,29.88,1011.00,10.00,M,CLR,M,M,M,M,M,M,M,M,M,M,M,M,M,M,84.38,KHND 212156Z 00000KT 10SM CLR 31/04 A2988 RMK AO2 SLP110 T03110039,M
TPH,2024-09-21 21:56,-117.0904,38.0505,1654.00,77.00,29.00,17.08,250.00,7.00,0.00,30.04,1010.30,10.00,16.00,CLR,M,M,M,M,M,M,M,M,M,M,M,M,M,M,77.00,KTPH 212156Z AUTO 25007G16KT 10SM CLR 25/M02 A3004 RMK AO2 SLP103 T02501017,M
LAS,2024-09-21 21:56,-115.1634,36.0719,663.00,88.00,39.00,17.83,210.00,4.00,0.00,29.85,1008.40,10.00,M,FEW,M,M,M,12000.00,M,M,M,M,M,M,M,M,M,M,84.38,KLAS 212156Z 21004KT 10SM FEW120 31/04 A2985 RMK AO2 SLP084 T03110039 $,M
NFL,2024-09-21 21:57,-118.7010,39.4166,1199.00,80.00,33.00,18.20,M,6.00,0.00,30.03,1013.80,10.00,14.00,CLR,M,M,M,M,M,M,M,M,M,M,M,M,M,M,78.56,KNFL 212157Z AUTO VRB06G14KT 10SM CLR 27/01 A3003 RMK AO2 SLP138 T02670006,M
05U,2024-09-21 22:10,-116.0051,39.6042,1811.23,73.40,32.00,21.76,10.00,10.00,0.00,30.10,M,10.00,17.00,CLR,M,M,M,M,M,M,M,M,M,M,M,M,M,M,73.40,K05U 212210Z AUTO 01010G17KT 10SM CLR 23/00 A3010 RMK A01,M
BVU,2024-09-21 22:15,-114.8611,35.9475,671.00,87.80,37.40,16.86,M,4.00,0.00,29.83,M,10.00,M,CLR,M,M,M,M,M,M,M,M,M,M,M,M,M,M,84.16,KBVU 212215Z AUTO VRB04KT 10SM CLR 31/03 A2983 RMK AO2,M
CXP,2024-09-21 22:15,-119.7326,39.1923,1431.00,78.80,33.80,19.55,80.00,10.00,0.00,30.06,M,10.00,16.00,CLR,M,M,M,M,M,M,M,M,M,M,M,M,M,M,78.80,KCXP 212215Z AUTO 08010G16KT 10SM CLR 26/01 A3006 RMK AO2,M
RTS,2024-09-21 22:15,-119.8764,39.6682,1539.00,75.20,26.60,16.43,0.00,0.00,0.00,30.09,M,10.00,12.00,CLR,M,M,M,M,M,M,M,M,M,M,M,M,M,M,75.20,KRTS 212215Z AUTO 00000G12KT 10SM CLR 24/M03 A3009 RMK AO2,M
MEV,2024-09-21 22:15,-119.7500,38.9963,1441.42,78.80,35.60,21.00,M,6.00,0.00,30.04,M,10.00,M,CLR,M,M,M,M,M,M,M,M,M,M,M,M,M,M,78.80,KMEV 212215Z AUTO VRB06KT 10SM CLR 26/02 A3004 RMK AO2,M
BAM,2024-09-21 22:15,-116.8743,40.5990,1382.36,77.00,28.40,16.67,330.00,8.00,0.00,30.08,M,10.00,M,CLR,M,M,M,M,M,M,M,M,M,M,M,M,M,M,77.00,KBAM 212215Z AUTO 33008KT 10SM CLR 25/M02 A3008 RMK AO1,M
HTH,2024-09-21 22:15,-118.6315,38.5448,1282.89,77.00,35.60,22.28,330.00,10.00,0.00,30.03,M,10.00,M,CLR,M,M,M,M,M,M,M,M,M,M,M,M,M,M,77.00,KHTH 212215Z AUTO 33010KT 10SM CLR 25/02 A3003 RMK A01,M
TMT,2024-09-21 22:15,-117.1971,39.4643,1749.34,72.00,37.20,28.07,360.00,10.00,0.00,30.12,M,10.00,M,CLR,M,M,M,M,M,M,M,M,M,M,M,M,M,M,72.00,KTMT 212215Z AUTO 36010KT 10SM CLR 22/03 A3012 RMK AO2 T02220029,M
10U,2024-09-21 22:15,-116.1876,41.9532,1637.00,68.00,21.20,16.74,360.00,6.00,0.00,30.13,M,10.00,11.00,CLR,M,M,M,M,M,M,M,M,M,M,M,M,M,M,68.00,K10U 212215Z AUTO 36006G11KT 10SM CLR 20/M06 A3013 RMK AO2,M
05U,2024-09-21 22:30,-116.0051,39.6042,1811.23,73.40,32.00,21.76,340.00,11.00,0.00,30.10,M,10.00,22.00,CLR,M,M,M,M,M,M,M,M,M,M,M,M,M,M,73.40,K05U 212230Z AUTO 34011G22KT 10SM CLR 23/00 A3010 RMK A01,M
BVU,2024-09-21 22:35,-114.8611,35.9475,671.00,87.80,37.40,16.86,90.00,7.00,0.00,29.83,M,10.00,M,CLR,M,M,M,M,M,M,M,M,M,M,M,M,M,M,84.16,KBVU 212235Z AUTO 09007KT 10SM CLR 31/03 A2983 RMK AO2,M
CXP,2024-09-21 22:35,-119.7326,39.1923,1431.00,78.80,32.00,18.18,60.00,11.00,0.00,30.06,M,10.00,M,CLR,M,M,M,M,M,M,M,M,M,M,M,M,M,M,78.80,KCXP 212235Z AUTO 06011KT 10SM CLR 26/00 A3006 RMK AO2,M
RTS,2024-09-21 22:35,-119.8764,39.6682,1539.00,75.20,26.60,16.43,M,6.00,0.00,30.09,M,10.00,14.00,CLR,M,M,M,M,M,M,M,M,M,M,M,M,M,M,75.20,KRTS 212235Z AUTO VRB06G14KT 10SM CLR 24/M03 A3009 RMK AO2,M
MEV,2024-09-21 22:35,-119.7500,38.9963,1441.42,78.80,35.60,21.00,340.00,11.00,0.00,30.03,M,10.00,M,CLR,M,M,M,M,M,M,M,M,M,M,M,M,M,M,78.80,KMEV 212235Z AUTO 34011KT 10SM CLR 26/02 A3003 RMK AO2,M
BAM,2024-09-21 22:35,-116.8743,40.5990,1382.36,77.00,28.40,16.67,320.00,11.00,0.00,30.07,M,10.00,M,CLR,M,M,M,M,M,M,M,M,M,M,M,M,M,M,77.00,KBAM 212235Z AUTO 32011KT 10SM CLR 25/M02 A3007 RMK AO1,M
HTH,2024-09-21 22:35,-118.6315,38.5448,1282.89,77.00,35.60,22.28,320.00,13.00,0.00,30.03,M,10.00,M,CLR,M,M,M,M,M,M,M,M,M,M,M,M,M,M,77.00,KHTH 212235Z AUTO 32013KT 10SM CLR 25/02 A3003 RMK A01,M
TMT,2024-09-21 22:35,-117.1971,39.4643,1749.34,72.00,37.40,28.29,330.00,11.00,0.00,30.12,M,10.00,15.00,CLR,M,M,M,M,M,M,M,M,M,M,M,M,M,M,72.00,KTMT 212235Z AUTO 33011G15KT 10SM CLR 22/03 A3012 RMK AO2 T02220030,M
10U,2024-09-21 22:35,-116.1876,41.9532,1637.00,68.00,21.20,16.74,0.00,0.00,0.00,30.12,M,10.00,11.00,CLR,M,M,M,M,M,M,M,M,M,M,M,M,M,M,68.00,K10U 212235Z AUTO 00000G11KT 10SM CLR 20/M06 A3012 RMK AO2,M
05U,2024-09-21 22:50,-116.0051,39.6042,1811.23,73.40,32.00,21.76,350.00,8.00,0.00,30.10,M,10.00,M,CLR,M,M,M,M,M,M,M,M,M,M,M,M,M,M,73.40,K05U 212250Z AUTO 35008KT 10SM CLR 23/00 A3010 RMK A01,M
P68,2024-09-21 22:53,-116.0056,39.6014,1993.00,73.00,33.00,22.96,20.00,13.00,0.00,30.07,1012.60,M,17.00,M,M,M,M,M,M,M,M,M,M,M,M,M,M,M,73.00,KP68 212253Z AUTO 02013G17KT 23/01 A3007 RMK AO1 SLP126 T02280006,M
DRA,2024-09-21 22:53,-116.0278,36.6206,1009.00,90.00,36.00,14.88,240.00,6.00,0.00,29.88,1007.40,10.00,M,CLR,M,M,M,M,M,M,M,M,M,M,M,M,M,M,85.97,KDRA 212253Z AUTO 24006KT 10SM CLR 32/02 A2988 RMK AO2 SLP074 T03220022,M
ELY,2024-09-21 22:53,-114.8453,39.2950,1909.00,75.00,31.00,19.81,10.00,7.00,0.00,30.06,1010.60,10.00,M,CLR,M,M,M,M,M,M,M,M,M,M,M,M,M,M,75.00,KELY 212253Z AUTO 01007KT 10SM CLR 24/M01 A3006 RMK AO2 SLP106 T02391006,M
VGT,2024-09-21 22:53,-115.1933,36.2111,667.00,90.00,41.00,18.10,150.00,7.00,0.00,29.82,1009.10,10.00,M,CLR,M,M,M,M,M,M,M,M,M,M,M,M,M,M,86.16,KVGT 212253Z 15007KT 10SM CLR 32/05 A2982 RMK AO2 SLP091 T03220050,M
LOL,2024-09-21 22:53,-118.5701,40.0684,1192.43,79.00,28.00,15.35,60.00,13.00,0.00,30.02,1013.40,10.00,18.00,CLR,M,M,M,M,M,M,M,M,M,M,M,M,M,M,79.00,KLOL 212253Z AUTO 06013G18KT 10SM CLR 26/M02 A3002 RMK AO2 SLP134 T02611022,M
BVU,2024-09-21 22:55,-114.8611,35.9475,671.00,89.60,37.40,15.92,M,5.00,0.00,29.82,M,10.00,11.00,CLR,M,M,M,M,M,M,M,M,M,M,M,M,M,M,85.67,KBVU 212255Z AUTO VRB05G11KT 10SM CLR 32/03 A2982 RMK AO2,M
RNO,2024-09-21 22:55,-119.7711,39.4839,1341.00,79.00,32.00,18.06,10.00,6.00,0.00,30.03,1012.50,10.00,M,FEW,M,M,M,9000.00,M,M,M,M,M,M,M,M,M,M,79.00,KRNO 212255Z 01006KT 10SM FEW090 26/00 A3003 RMK AO2 SLP125 T02610000,M
BAM,2024-09-21 22:55,-116.8743,40.5990,1382.36,77.00,28.40,16.67,10.00,10.00,0.00,30.07,M,10.00,14.00,CLR,M,M,M,M,M,M,M,M,M,M,M,M,M,M,77.00,KBAM 212255Z AUTO 01010G14KT 10SM CLR 25/M02 A3007 RMK AO1,M
CXP,2024-09-21 22:55,-119.7326,39.1923,1431.00,77.00,32.00,19.30,80.00,10.00,0.00,30.06,M,10.00,18.00,CLR,M,M,M,M,M,M,M,M,M,M,M,M,M,M,77.00,KCXP 212255Z AUTO 08010G18KT 10SM CLR 25/00 A3006 RMK AO2,M
RTS,2024-09-21 22:55,-119.8764,39.6682,1539.00,75.20,26.60,16.43,60.00,10.00,0.00,30.09,M,10.00,M,CLR,M,M,M,M,M,M,M,M,M,M,M,M,M,M,75.20,KRTS 212255Z AUTO 06010KT 10SM CLR 24/M03 A3009 RMK AO2,M
MEV,2024-09-21 22:55,-119.7500,38.9963,1441.42,78.80,35.60,21.00,M,6.00,0.00,30.03,M,10.00,14.00,CLR,M,M,M,M,M,M,M,M,M,M,M,M,M,M,78.80,KMEV 212255Z AUTO VRB06G14KT 10SM CLR 26/02 A3003 RMK AO2,M
HTH,2024-09-21 22:55,-118.6315,38.5448,1282.89,78.80,35.60,21.00,310.00,12.00,0.00,30.02,M,10.00,M,CLR,M,M,M,M,M,M,M,M,M,M,M,M,M,M,78.80,KHTH 212255Z AUTO 31012KT 10SM CLR 26/02 A3002 RMK A01,M
TMT,2024-09-21 22:55,-117.1971,39.4643,1749.34,71.40,37.00,28.42,330.00,9.00,0.00,30.12,M,10.00,15.00,CLR,M,M,M,M,M,M,M,M,M,M,M,M,M,M,71.40,KTMT 212255Z AUTO 33009G15KT 10SM CLR 22/03 A3012 RMK AO2 T02190028,M
10U,2024-09-21 22:55,-116.1876,41.9532,1637.00,68.00,21.20,16.74,M,4.00,0.00,30.12,M,10.00,12.00,CLR,M,M,M,M,M,M,M,M,M,M,M,M,M,M,68.00,K10U 212255Z AUTO VRB04G12KT 10SM CLR 20/M06 A3012 RMK AO2,M
INS,2024-09-21 22:55,-115.6733,36.5872,955.00,87.30,28.40,11.93,0.00,0.00,0.00,29.87,1006.90,10.00,M,CLR,M,M,M,M,M,M,M,M,M,M,M,M,M,M,83.47,KINS 212255Z AUTO 00000KT 10SM CLR 31/M02 A2987 RMK AO2 SLP069 T03071020,M
LSV,2024-09-21 22:55,-115.0343,36.2362,570.00,91.00,35.20,13.97,210.00,4.00,0.00,29.77,1005.60,10.00,M,CLR,M,M,M,M,M,M,M,M,M,M,M,M,M,M,86.81,KLSV 212255Z AUTO 21004KT 10SM CLR 33/02 A2977 RMK AO2 SLP056 T03280018 $,M
EKO,2024-09-21 22:56,-115.7860,40.8242,1367.00,78.00,28.00,15.86,M,3.00,0.00,30.04,1013.20,10.00,M,CLR,M,M,M,M,M,M,M,M,M,M,M,M,M,M,78.00,KEKO 212256Z AUTO VRB03KT 10SM CLR 26/M02 A3004 RMK AO2 SLP132 T02561022,M
WMC,2024-09-21 22:56,-117.8072,40.9019,1315.00,76.00,25.00,14.97,360.00,7.00,0.00,30.07,1015.10,10.00,M,CLR,M,M,M,M,M,M,M,M,M,M,M,M,M,M,76.00,KWMC 212256Z AUTO 36007KT 10SM CLR 24/M04 A3007 RMK AO2 SLP151 T02441039,M
HND,2024-09-21 22:56,-115.1344,35.9729,742.79,88.00,39.00,17.83,0.00,0.00,0.00,29.87,1010.60,10.00,M,CLR,M,M,M,M,M,M,M,M,M,M,M,M,M,M,84.38,KHND 212256Z 00000KT 10SM CLR 31/04 A2987 RMK AO2 SLP106 T03110039,M
TPH,2024-09-21 22:56,-117.0904,38.0505,1654.00,79.00,28.00,15.35,320.00,8.00,0.00,30.04,1010.80,10.00,M,CLR,M,M,M,M,M,M,M,M,M,M,M,M,M,M,79.00,KTPH 212256Z AUTO 32008KT 10SM CLR 26/M02 A3004 RMK AO2 SLP108 T02611022,M
LAS,2024-09-21 22:56,-115.1634,36.0719,663.00,89.00,38.00,16.61,160.00,6.00,0.00,29.84,1008.00,10.00,M,FEW,M,M,M,12000.00,M,M,M,M,M,M,M,M,M,M,85.18,KLAS 212256Z 16006KT 10SM FEW120 32/03 A2984 RMK AO2 SLP080 T03170033 $,M
NFL,2024-09-21 22:57,-118.7010,39.4166,1199.00,80.00,32.00,17.48,350.00,7.00,0.00,30.02,1013.50,10.00,18.00,CLR,M,M,M,M,M,M,M,M,M,M,M,M,M,M,78.52,KNFL 212257Z AUTO 35007G18KT 330V030 10SM CLR 27/00 A3002 RMK AO2 SLP135 T02670000,M
05U,2024-09-21 23:10,-116.0051,39.6042,1811.23,73.40,32.00,21.76,360.00,8.00,0.00,30.10,M,10.00,14.00,CLR,M,M,M,M,M,M,M,M,M,M,M,M,M,M,73.40,K05U 212310Z AUTO 36008G14KT 10SM CLR 23/M00 A3010 RMK A01,M
BVU,2024-09-21 23:15,-114.8611,35.9475,671.00,87.80,37.40,16.86,M,3.00,0.00,29.82,M,10.00,M,CLR,M,M,M,M,M,M,M,M,M,M,M,M,M,M,84.16,KBVU 212315Z AUTO VRB03KT 10SM CLR 31/03 A2982 RMK AO2,M
CXP,2024-09-21 23:15,-119.7326,39.1923,1431.00,77.00,32.00,19.30,70.00,11.00,0.00,30.06,M,10.00,18.00,CLR,M,M,M,M,M,M,M,M,M,M,M,M,M,M,77.00,KCXP 212315Z AUTO 07011G18KT 10SM CLR 25/M00 A3006 RMK AO2,M
RTS,2024-09-21 23:15,-119.8764,39.6682,1539.00,75.20,26.60,16.43,70.00,9.00,0.00,30.09,M,10.00,M,CLR,M,M,M,M,M,M,M,M,M,M,M,M,M,M,75.20,KRTS 212315Z AUTO 07009KT 10SM CLR 24/M03 A3009 RMK AO2,M
MEV,2024-09-21 23:15,-119.7500,38.9963,1441.42,78.80,33.80,19.55,350.00,12.00,0.00,30.03,M,10.00,M,CLR,M,M,M,M,M,M,M,M,M,M,M,M,M,M,78.80,KMEV 212315Z AUTO 35012KT 10SM CLR 26/01 A3003 RMK AO2,M
BAM,2024-09-21 23:15,-116.8743,40.5990,1382.36,77.00,28.40,16.67,330.00,9.00,0.00,30.07,M,10.00,M,CLR,M,M,M,M,M,M,M,M,M,M,M,M,M,M,77.00,KBAM 212315Z AUTO 33009KT 10SM CLR 25/M02 A3007 RMK AO1,M
HTH,2024-09-21 23:15,-118.6315,38.5448,1282.89,78.80,35.60,21.00,320.00,11.00,0.00,30.02,M,10.00,18.00,CLR,M,M,M,M,M,M,M,M,M,M,M,M,M,M,78.80,KHTH 212315Z AUTO 32011G18KT 10SM CLR 26/02 A3002 RMK A01,M
TMT,2024-09-21 23:15,-117.1971,39.4643,1749.34,71.00,35.80,27.47,330.00,10.00,0.00,30.12,M,10.00,M,CLR,M,M,M,M,M,M,M,M,M,M,M,M,M,M,71.00,KTMT 212315Z AUTO 33010KT 10SM CLR 22/02 A3012 RMK AO2 T02170021,M
10U,2024-09-21 23:15,-116.1876,41.9532,1637.00,69.80,23.00,16.98,10.00,7.00,0.00,30.12,M,10.00,M,CLR,M,M,M,M,M,M,M,M,M,M,M,M,M,M,69.80,K10U 212315Z AUTO 01007KT 340V050 10SM CLR 21/M05 A3012 RMK AO2,M
05U,2024-09-21 23:30,-116.0051,39.6042,1811.23,71.60,30.20,21.50,350.00,10.00,0.00,30.11,M,10.00,M,CLR,M,M,M,M,M,M,M,M,M,M,M,M,M,M,71.60,K05U 212330Z AUTO 35010KT 10SM CLR 22/M01 A3011 RMK A01,M
BVU,2024-09-21 23:35,-114.8611,35.9475,671.00,89.60,35.60,14.83,140.00,7.00,0.00,29.82,M,10.00,M,CLR,M,M,M,M,M,M,M,M,M,M,M,M,M,M,85.62,KBVU 212335Z AUTO 14007KT 10SM CLR 32/02 A2982 RMK AO2,M
CXP,2024-09-21 23:35,-119.7326,39.1923,1431.00,77.00,32.00,19.30,80.00,13.00,0.00,30.06,M,10.00,18.00,CLR,M,M,M,M,M,M,M,M,M,M,M,M,M,M,77.00,KCXP 212335Z AUTO 08013G18KT 10SM CLR 25/M00 A3006 RMK AO2,M
RTS,2024-09-21 23:35,-119.8764,39.6682,1539.00,75.20,26.60,16.43,80.00,11.00,0.00,30.09,M,10.00,M,CLR,M,M,M,M,M,M,M,M,M,M,M,M,M,M,75.20,KRTS 212335Z AUTO 08011KT 10SM CLR 24/M03 A3009 RMK AO2,M
MEV,2024-09-21 23:35,-119.7500,38.9963,1441.42,78.80,33.80,19.55,340.00,12.00,0.00,30.03,M,10.00,M,CLR,M,M,M,M,M,M,M,M,M,M,M,M,M,M,78.80,KMEV 212335Z AUTO 34012KT 10SM CLR 26/01 A3003 RMK AO2,M
BAM,2024-09-21 23:35,-116.8743,40.5990,1382.36,77.00,28.40,16.67,350.00,9.00,0.00,30.07,M,10.00,M,CLR,M,M,M,M,M,M,M,M,M,M,M,M,M,M,77.00,KBAM 212335Z AUTO 35009KT 10SM CLR 25/M02 A3007 RMK AO1,M
HTH,2024-09-21 23:35,-118.6315,38.5448,1282.89,78.80,35.60,21.00,310.00,13.00,0.00,30.02,M,10.00,M,CLR,M,M,M,M,M,M,M,M,M,M,M,M,M,M,78.80,KHTH 212335Z AUTO 31013KT 10SM CLR 26/02 A3002 RMK A01,M
TMT,2024-09-21 23:35,-117.1971,39.4643,1749.34,70.50,35.60,27.72,350.00,10.00,0.00,30.12,M,10.00,M,CLR,M,M,M,M,M,M,M,M,M,M,M,M,M,M,70.50,KTMT 212335Z AUTO 35010KT 10SM CLR 21/02 A3012 RMK AO2 T02140020,M
10U,2024-09-21 23:35,-116.1876,41.9532,1637.00,68.00,23.00,18.06,320.00,5.00,0.00,30.12,M,10.00,M,CLR,M,M,M,M,M,M,M,M,M,M,M,M,M,M,68.00,K10U 212335Z AUTO 32005KT 10SM CLR 20/M05 A3012 RMK AO2,M
05U,2024-09-21 23:50,-116.0051,39.6042,1811.23,73.40,30.20,20.23,360.00,11.00,0.00,30.11,M,10.00,16.00,CLR,M,M,M,M,M,M,M,M,M,M,M,M,M,M,73.40,K05U 212350Z AUTO 36011G16KT 10SM CLR 23/M01 A3011 RMK A01,M
P68,2024-09-21 23:53,-116.0056,39.6014,1993.00,73.00,31.00,21.18,360.00,11.00,0.00,30.08,1012.40,M,M,M,M,M,M,M,M,M,M,M,M,M,M,M,M,M,73.00,KP68 212353Z AUTO 36011KT 23/M01 A3008 RMK AO1 SLP124 T02281006 10244 20189 55001,M
DRA,2024-09-21 23:53,-116.0278,36.6206,1009.00,89.00,37.00,15.97,240.00,9.00,0.00,29.88,1007.40,10.00,18.00,CLR,M,M,M,M,M,M,M,M,M,M,M,M,M,M,85.15,KDRA 212353Z AUTO 24009G18KT 10SM CLR 32/03 A2988 RMK AO2 SLP074 T03170028 10322 20267 56009,M
ELY,2024-09-21 23:53,-114.8453,39.2950,1909.00,72.00,31.00,21.91,330.00,7.00,0.00,30.07,1011.30,10.00,M,FEW,M,M,M,11000.00,M,M,M,M,M,M,M,M,M,M,72.00,KELY 212353Z AUTO 33007KT 10SM FEW110 22/M01 A3007 RMK AO2 SLP113 T02221006 10244 20189 55002,M
VGT,2024-09-21 23:53,-115.1933,36.2111,667.00,92.00,40.00,16.35,170.00,12.00,0.00,29.80,1008.50,10.00,M,CLR,M,M,M,M,M,M,M,M,M,M,M,M,M,M,87.88,KVGT 212353Z 17012KT 10SM CLR 33/04 A2980 RMK AO2 SLP085 T03330044 10333 20283 56013,M
LOL,2024-09-21 23:53,-118.5701,40.0684,1192.43,78.00,27.00,15.22,60.00,12.00,0.00,30.02,1013.60,10.00,M,CLR,M,M,M,M,M,M,M,M,M,M,M,M,M,M,78.00,KLOL 212353Z AUTO 06012KT 10SM CLR 26/M03 A3002 RMK AO2 SLP136 T02561028 10267 20211 56006,M
BVU,2024-09-21 23:55,-114.8611,35.9475,671.00,89.60,35.60,14.83,120.00,6.00,0.00,29.82,M,10.00,M,CLR,M,M,M,M,M,M,M,M,M,M,M,M,M,M,85.62,KBVU 212355Z AUTO 12006KT 10SM CLR 32/02 A2982 RMK AO2,M
RNO,2024-09-21 23:55,-119.7711,39.4839,1341.00,79.00,32.00,18.06,350.00,4.00,0.00,30.03,1012.60,10.00,M,FEW,M,M,M,9000.00,M,M,M,M,M,M,M,M,M,M,79.00,KRNO 212355Z 35004KT 10SM FEW090 26/00 A3003 RMK AO2 SLP126 T02610000 10267 20194 55007,M
CXP,2024-09-21 23:55,-119.7326,39.1923,1431.00,77.00,30.20,17.94,60.00,13.00,0.00,30.06,M,10.00,M,CLR,M,M,M,M,M,M,M,M,M,M,M,M,M,M,77.00,KCXP 212355Z AUTO 06013KT 10SM CLR 25/M01 A3006 RMK AO2,M
RTS,2024-09-21 23:55,-119.8764,39.6682,1539.00,73.40,24.80,16.20,50.00,10.00,0.00,30.09,M,10.00,M,CLR,M,M,M,M,M,M,M,M,M,M,M,M,M,M,73.40,KRTS 212355Z AUTO 05010KT 10SM CLR 23/M04 A3009 RMK AO2,M
MEV,2024-09-21 23:55,-119.7500,38.9963,1441.42,78.80,33.80,19.55,360.00,12.00,0.00,30.03,M,10.00,M,CLR,M,M,M,M,M,M,M,M,M,M,M,M,M,M,78.80,KMEV 212355Z AUTO 36012KT 10SM CLR 26/01 A3003 RMK AO2,M
BAM,2024-09-21 23:55,-116.8743,40.5990,1382.36,77.00,26.60,15.48,340.00,6.00,0.00,30.07,M,10.00,9.00,CLR,M,M,M,M,M,M,M,M,M,M,M,M,M,M,77.00,KBAM 212355Z AUTO 34006G09KT 10SM CLR 25/M03 A3007 RMK AO1,M
HTH,2024-09-21 23:55,-118.6315,38.5448,1282.89,78.80,35.60,21.00,310.00,11.00,0.00,30.02,M,10.00,17.00,CLR,M,M,M,M,M,M,M,M,M,M,M,M,M,M,78.80,KHTH 212355Z AUTO 31011G17KT 10SM CLR 26/02 A3002 RMK A01,M
TMT,2024-09-21 23:55,-117.1971,39.4643,1749.34,70.00,34.70,27.21,350.00,9.00,0.00,30.12,M,10.00,M,CLR,M,M,M,M,M,M,M,M,M,M,M,M,M,M,70.00,KTMT 212355Z AUTO 35009KT 10SM CLR 21/02 A3012 RMK AO2 T02110015 10224 20171,M
10U,2024-09-21 23:55,-116.1876,41.9532,1637.00,69.80,23.00,16.98,350.00,7.00,0.00,30.12,M,10.00,12.00,CLR,M,M,M,M,M,M,M,M,M,M,M,M,M,M,69.80,K10U 212355Z AUTO 35007G12KT 10SM CLR 21/M05 A3012 RMK AO2,M
INS,2024-09-21 23:55,-115.6733,36.5872,955.00,88.00,29.00,11.96,130.00,3.00,0.00,29.86,1006.80,10.00,M,CLR,M,M,M,M,M,M,M,M,M,M,M,M,M,M,84.04,KINS 212355Z AUTO 13003KT 10SM CLR 31/M02 A2986 RMK AO2 SLP068 T03121016 10312 20251 57010,M
LSV,2024-09-21 23:55,-115.0343,36.2362,570.00,91.20,35.20,13.88,180.00,9.00,0.00,29.76,1005.30,10.00,M,CLR,M,M,M,M,M,M,M,M,M,M,M,M,M,M,86.99,KLSV 212355Z AUTO 18009KT 10SM CLR 33/02 A2976 RMK AO2 SLP053 T03290018 10330 20271 57014 $,M
EKO,2024-09-21 23:56,-115.7860,40.8242,1367.00,77.00,26.00,15.10,260.00,6.00,0.00,30.04,1013.60,10.00,M,CLR,M,M,M,M,M,M,M,M,M,M,M,M,M,M,77.00,KEKO 212356Z AUTO 26006KT 10SM CLR 25/M03 A3004 RMK AO2 SLP136 T02501033 10261 20189 56005,M
WMC,2024-09-21 23:56,-117.8072,40.9019,1315.00,76.00,25.00,14.97,360.00,11.00,0.00,30.07,1015.20,10.00,M,CLR,M,M,M,M,M,M,M,M,M,M,M,M,M,M,76.00,KWMC 212356Z AUTO 36011KT 10SM CLR 24/M04 A3007 RMK AO2 SLP152 T02441039 10256 20194 56003,M
HND,2024-09-21 23:56,-115.1344,35.9729,742.79,89.00,39.00,17.28,0.00,0.00,0.00,29.86,1010.30,10.00,M,CLR,M,M,M,M,M,M,M,M,M,M,M,M,M,M,85.21,KHND 212356Z 00000KT 10SM CLR 32/04 A2986 RMK AO2 SLP103 T03170039 10322 20267 56010,M
TPH,2024-09-21 23:56,-117.0904,38.0505,1654.00,78.00,28.00,15.86,310.00,5.00,0.00,30.04,1010.80,10.00,M,CLR,M,M,M,M,M,M,M,M,M,M,M,M,M,M,78.00,KTPH 212356Z AUTO 31005KT 10SM CLR 26/M02 A3004 RMK AO2 SLP108 T02561022 10267 20228 56004,M
LAS,2024-09-21 23:56,-115.1634,36.0719,663.00,90.00,38.00,16.10,M,3.00,0.00,29.82,1007.60,10.00,M,FEW,M,M,M,12000.00,M,M,M,M,M,M,M,M,M,M,86.03,KLAS 212356Z VRB03KT 10SM FEW120 32/03 A2982 RMK AO2 SLP076 T03220033 10328 20261 56012 $,M
NFL,2024-09-21 23:57,-118.7010,39.4166,1199.00,81.00,31.00,16.25,360.00,9.00,0.00,30.02,1013.40,10.00,M,CLR,M,M,M,M,M,M,M,M,M,M,M,M,M,M,79.04,KNFL 212357Z AUTO 36009KT 10SM CLR 27/M01 A3002 RMK AO2 SLP134 T02721006 10278 20211 56008,M
