station,valid,lon,lat,elevation,tmpf,dwpf,relh,drct,sknt,p01i,alti,mslp,vsby,gust,skyc1,skyc2,skyc3,skyc4,skyl1,skyl2,skyl3,skyl4,wxcodes,ice_accretion_1hr,ice_accretion_3hr,ice_accretion_6hr,peak_wind_gust,peak_wind_drct,peak_wind_time,feel,metar,snowdepth
BVU,2024-07-23 00:15,-114.8611,35.9475,671.00,107.60,50.00,14.92,180.00,7.00,0.00,29.77,M,10.00,M,CLR,M,M,M,M,M,M,M,M,M,M,M,M,M,M,104.80,KBVU 230015Z AUTO 18007KT 10SM CLR 42/10 A2977 RMK AO2,M
CXP,2024-07-23 00:15,-119.7326,39.1923,1431.00,96.80,46.40,18.02,260.00,12.00,0.00,30.05,M,10.00,M,CLR,M,M,M,M,M,M,M,M,M,M,M,M,M,M,93.05,KCXP 230015Z AUTO 26012KT 10SM CLR 36/08 A3005 RMK AO2 LTG DSNT SE,M
RTS,2024-07-23 00:15,-119.8764,39.6682,1539.00,95.00,42.80,16.60,280.00,14.00,0.00,30.08,M,10.00,19.00,CLR,M,M,M,M,M,M,M,M,M,M,M,M,M,M,90.86,KRTS 230015Z AUTO 28014G19KT 10SM CLR 35/06 A3008 RMK AO2,M
05U,2024-07-23 00:15,-116.0051,39.6042,1811.23,77.00,55.40,47.25,160.00,12.00,0.00,30.20,M,10.00,18.00,CLR,M,M,M,M,M,M,M,M,M,M,M,M,M,M,77.00,K05U 230015Z AUTO 16012G18KT 10SM CLR 25/13 A3020 RMK A01,M
MEV,2024-07-23 00:15,-119.7500,38.9963,1441.42,95.00,50.00,21.79,300.00,12.00,0.00,30.04,M,10.00,17.00,CLR,M,M,M,M,M,M,M,M,M,M,M,M,M,M,91.89,KMEV 230015Z AUTO 30012G17KT 10SM CLR 35/10 A3004 RMK AO2 LTG DSNT SE,M
BAM,2024-07-23 00:15,-116.8743,40.5990,1382.36,96.80,46.40,18.02,320.00,6.00,0.00,30.02,M,10.00,M,CLR,M,M,M,M,M,M,M,M,M,M,M,M,M,M,93.05,KBAM 230015Z AUTO 32006KT 10SM CLR 36/08 A3002 RMK AO1,M
HTH,2024-07-23 00:15,-118.6315,38.5448,1282.89,86.00,48.20,27.03,220.00,11.00,0.00,30.05,M,10.00,28.00,M,M,M,M,M,M,M,M,M,M,M,M,M,M,M,83.40,KHTH 230015Z AUTO 22011G28KT 10SM 30/09 A3005 RMK A01,M
10U,2024-07-23 00:15,-116.1876,41.9532,1637.00,91.40,41.00,17.32,M,4.00,0.00,30.08,M,10.00,M,CLR,M,M,M,M,M,M,M,VCTS,M,M,M,M,M,M,87.40,K10U 230015Z AUTO VRB04KT 10SM VCTS CLR 33/05 A3008 RMK AO2 LTG DSNT ALQDS,M
TMT,2024-07-23 00:15,-117.1971,39.4643,1749.34,89.60,45.00,21.36,70.00,6.00,0.00,30.14,M,10.00,M,CLR,M,M,M,M,M,M,M,M,M,M,M,M,M,M,86.10,KTMT 230015Z AUTO 07006KT 10SM CLR 32/07 A3014 RMK AO2 T03200072,M
BVU,2024-07-23 00:35,-114.8611,35.9475,671.00,105.80,50.00,15.73,170.00,7.00,0.00,29.77,M,10.00,M,CLR,M,M,M,M,M,M,M,M,M,M,M,M,M,M,102.98,KBVU 230035Z AUTO 17007KT 10SM CLR 41/10 A2977 RMK AO2,M
CXP,2024-07-23 00:35,-119.7326,39.1923,1431.00,95.00,46.40,19.04,250.00,13.00,0.00,30.05,M,10.00,22.00,CLR,M,M,M,M,M,M,M,M,M,M,M,M,M,M,91.29,KCXP 230035Z AUTO 25013G22KT 10SM CLR 35/08 A3005 RMK AO2 LTG DSNT E AND SE,M
RTS,2024-07-23 00:35,-119.8764,39.6682,1539.00,95.00,42.80,16.60,310.00,14.00,0.00,30.08,M,10.00,M,CLR,M,M,M,M,M,M,M,M,M,M,M,M,M,M,90.86,KRTS 230035Z AUTO 31014KT 10SM CLR 35/06 A3008 RMK AO2,M
05U,2024-07-23 00:35,-116.0051,39.6042,1811.23,78.80,55.40,44.52,130.00,14.00,0.00,30.20,M,10.00,M,CLR,M,M,M,M,M,M,M,M,M,M,M,M,M,M,78.80,K05U 230035Z AUTO 13014KT 10SM CLR 26/13 A3020 RMK A01,M
MEV,2024-07-23 00:35,-119.7500,38.9963,1441.42,95.00,48.20,20.38,270.00,12.00,0.00,30.04,M,10.00,18.00,CLR,M,M,M,M,M,M,M,VCTS,M,M,M,M,M,M,91.56,KMEV 230035Z AUTO 27012G18KT 10SM VCTS CLR 35/09 A3004 RMK AO2 LTG DSNT NE-SE,M
BAM,2024-07-23 00:35,-116.8743,40.5990,1382.36,95.00,46.40,19.04,270.00,3.00,0.00,30.02,M,10.00,M,CLR,M,M,M,M,M,M,M,M,M,M,M,M,M,M,91.29,KBAM 230035Z AUTO 27003KT 10SM CLR 35/08 A3002 RMK AO1,M
HTH,2024-07-23 00:35,-118.6315,38.5448,1282.89,86.00,48.20,27.03,220.00,19.00,0.00,30.05,M,10.00,28.00,FEW,SCT,BKN,M,1700.00,5500.00,6500.00,M,M,M,M,M,M,M,M,83.40,KHTH 230035Z AUTO 22019G28KT 10SM FEW017 SCT055 BKN065 30/09 A3005 RMK A01,M
10U,2024-07-23 00:35,-116.1876,41.9532,1637.00,91.40,44.60,19.89,130.00,14.00,0.00,30.09,M,10.00,M,CLR,M,M,M,M,M,M,M,M,M,M,M,M,M,M,87.68,K10U 230035Z AUTO 13014KT 10SM CLR 33/07 A3009 RMK AO2,M
TMT,2024-07-23 00:35,-117.1971,39.4643,1749.34,88.50,44.80,21.95,50.00,9.00,0.00,30.14,M,10.00,M,CLR,M,M,M,M,M,M,M,M,M,M,M,M,M,M,85.13,KTMT 230035Z AUTO 05009KT 10SM CLR 31/07 A3014 RMK AO2 T03140071,M
P68,2024-07-23 00:45,-116.0056,39.6014,1993.00,76.00,53.00,44.75,130.00,18.00,0.00,30.17,M,M,27.00,M,M,M,M,M,M,M,M,M,M,M,M,27.00,140.00,2024-07-23 00:41,76.00,KP68 230045Z AUTO 13018G27KT 24/12 A3017 RMK AO1 PK WND 14027/0041 WSHFT 0028 T02440117,M
P68,2024-07-23 00:53,-116.0056,39.6014,1993.00,77.00,54.00,44.90,150.00,16.00,0.00,30.17,1013.00,M,25.00,M,M,M,M,M,M,M,M,M,M,M,M,27.00,140.00,2024-07-23 00:41,77.00,KP68 230053Z AUTO 15016G25KT 25/12 A3017 RMK AO1 PK WND 14027/0041 WSHFT 0028 SLP130 T02500122,M
DRA,2024-07-23 00:53,-116.0278,36.6206,1009.00,101.00,48.00,16.85,120.00,18.00,0.00,29.89,1005.90,10.00,27.00,CLR,M,M,M,M,M,M,M,M,M,M,M,31.00,140.00,2024-07-23 00:24,97.57,KDRA 230053Z AUTO 12018G27KT 10SM CLR 38/09 A2989 RMK AO2 PK WND 14031/0024 SLP059 T03830089,M
ELY,2024-07-23 00:53,-114.8453,39.2950,1909.00,77.00,47.00,34.63,30.00,13.00,0.00,30.24,1014.10,10.00,20.00,BKN,M,M,M,11000.00,M,M,M,M,M,M,M,26.00,350.00,2024-07-22 23:55,77.00,KELY 230053Z AUTO 03013G20KT 10SM BKN110 25/08 A3024 RMK AO2 PK WND 35026/2355 SLP141 T02500083,M
VGT,2024-07-23 00:53,-115.1933,36.2111,667.00,107.00,52.00,16.35,320.00,15.00,0.00,29.79,1006.70,10.00,25.00,CLR,M,M,M,M,M,M,M,M,M,M,M,28.00,320.00,2024-07-23 00:40,104.89,KVGT 230053Z 32015G25KT 10SM CLR 42/11 A2979 RMK AO2 PK WND 32028/0040 LTG DSNT SE AND W AND NW SLP067 T04170111,M
LOL,2024-07-23 00:53,-118.5701,40.0684,1192.43,99.00,46.00,16.60,120.00,7.00,0.00,29.93,1008.40,10.00,M,CLR,M,M,M,M,M,M,M,M,M,M,M,M,M,M,95.17,KLOL 230053Z AUTO 12007KT 10SM CLR 37/08 A2993 RMK AO2 SLP084 T03720078,M
NFL,2024-07-23 00:54,-118.7010,39.4166,1199.00,97.00,47.00,18.32,250.00,13.00,0.00,29.95,1011.30,10.00,22.00,SCT,BKN,BKN,M,8000.00,12000.00,25000.00,M,M,M,M,M,M,M,M,93.35,KNFL 230054Z 25013G22KT 10SM SCT080 BKN120 BKN250 36/08 A2995 RMK SLP113 CB DSNT ALQDS T03610083,M
BVU,2024-07-23 00:55,-114.8611,35.9475,671.00,105.80,50.00,15.73,140.00,4.00,0.00,29.78,M,10.00,M,CLR,M,M,M,M,M,M,M,M,M,M,M,M,M,M,102.98,KBVU 230055Z AUTO 14004KT 10SM CLR 41/10 A2978 RMK AO2,M
CXP,2024-07-23 00:55,-119.7326,39.1923,1431.00,95.00,46.40,19.04,250.00,11.00,0.00,30.05,M,10.00,21.00,CLR,M,M,M,M,M,M,M,M,M,M,M,M,M,M,91.29,KCXP 230055Z AUTO 25011G21KT 10SM CLR 35/08 A3005 RMK AO2 LTG DSNT SE,M
RNO,2024-07-23 00:55,-119.7711,39.4839,1341.00,99.00,47.00,17.23,280.00,10.00,0.00,30.00,1008.70,10.00,18.00,FEW,SCT,M,M,11000.00,22000.00,M,M,M,M,M,M,33.00,280.00,2024-07-22 23:59,95.35,KRNO 230055Z 28010G18KT 10SM FEW110 SCT220 37/08 A3000 RMK AO2 PK WND 28033/2359 SLP087 CB DSNT NE THRU SE T03720083,M
RTS,2024-07-23 00:55,-119.8764,39.6682,1539.00,93.20,44.60,18.80,310.00,9.00,0.00,30.08,M,10.00,17.00,CLR,M,M,M,M,M,M,M,M,M,M,M,M,M,M,89.34,KRTS 230055Z AUTO 31009G17KT 10SM CLR 34/07 A3008 RMK AO2,M
05U,2024-07-23 00:55,-116.0051,39.6042,1811.23,77.00,53.60,44.25,140.00,16.00,0.00,30.20,M,10.00,M,CLR,M,M,M,M,M,M,M,M,M,M,M,M,M,M,77.00,K05U 230055Z AUTO 14016KT 10SM CLR 25/12 A3020 RMK A01,M
MEV,2024-07-23 00:55,-119.7500,38.9963,1441.42,95.00,48.20,20.38,270.00,11.00,0.00,30.05,M,10.00,17.00,CLR,M,M,M,M,M,M,M,VCTS,M,M,M,M,M,M,91.56,KMEV 230055Z AUTO 27011G17KT 10SM VCTS CLR 35/09 A3005 RMK AO2 LTG DSNT NE-SE,M
BAM,2024-07-23 00:55,-116.8743,40.5990,1382.36,95.00,50.00,21.79,220.00,12.00,0.00,30.03,M,10.00,15.00,CLR,M,M,M,M,M,M,M,M,M,M,M,M,M,M,91.89,KBAM 230055Z AUTO 22012G15KT 10SM CLR 35/10 A3003 RMK AO1,M
HTH,2024-07-23 00:55,-118.6315,38.5448,1282.89,84.20,51.80,32.73,240.00,22.00,0.00,30.08,M,10.00,30.00,SCT,BKN,OVC,M,5500.00,6500.00,11000.00,M,M,M,M,M,M,M,M,82.48,KHTH 230055Z AUTO 24022G30KT 10SM SCT055 BKN065 OVC110 29/11 A3008 RMK A01,M
10U,2024-07-23 00:55,-116.1876,41.9532,1637.00,89.60,44.60,21.04,110.00,11.00,0.00,30.09,M,10.00,18.00,CLR,M,M,M,M,M,M,M,M,M,M,M,M,M,M,86.07,K10U 230055Z AUTO 11011G18KT 10SM CLR 32/07 A3009 RMK AO2,M
TMT,2024-07-23 00:55,-117.1971,39.4643,1749.34,88.00,44.40,21.97,60.00,7.00,0.00,30.13,M,10.00,M,CLR,M,M,M,M,M,M,M,M,M,M,M,M,M,M,84.68,KTMT 230055Z AUTO 06007KT 10SM CLR 31/07 A3013 RMK AO2 T03120069,M
INS,2024-07-23 00:55,-115.6733,36.5872,955.00,101.00,39.00,11.94,170.00,10.00,0.00,29.89,1005.80,10.00,M,SCT,M,M,M,19000.00,M,M,M,M,M,M,M,29.00,190.00,2024-07-23 00:24,95.90,KINS 230055Z AUTO 17010KT 10SM SCT190 38/04 A2989 RMK AO2 PK WND 19029/24 LTG DSNT SE AND NW SLP058 T03840039 $,M
LSV,2024-07-23 00:55,-115.0343,36.2362,570.00,108.70,40.00,9.88,220.00,5.00,0.00,29.72,1002.90,10.00,M,FEW,M,M,M,16000.00,M,M,M,M,M,M,M,M,M,M,102.89,KLSV 230055Z AUTO 22005KT 10SM FEW160 43/05 A2972 RMK AO2 LTG DSNT W SLP029 T04260045 $,M
EKO,2024-07-23 00:56,-115.7860,40.8242,1367.00,92.00,45.00,19.82,90.00,3.00,0.00,30.07,1011.50,10.00,M,CLR,M,M,M,M,M,M,M,M,M,M,M,M,M,M,88.27,KEKO 230056Z AUTO 09003KT 10SM CLR 33/07 A3007 RMK AO2 LTG DSNT S SLP115 T03330072,M
WMC,2024-07-23 00:56,-117.8072,40.9019,1315.00,98.00,44.00,15.86,180.00,5.00,0.00,29.97,1008.50,10.00,M,CLR,M,M,M,M,M,M,M,M,M,M,M,M,M,M,93.88,KWMC 230056Z AUTO 18005KT 10SM CLR 37/07 A2997 RMK AO2 LTG DSNT N SLP085 T03670067,M
HND,2024-07-23 00:56,-115.1344,35.9729,742.79,104.00,56.00,20.68,240.00,10.00,0.00,29.84,1008.00,10.00,M,CLR,M,M,M,M,M,M,M,M,M,M,M,M,M,M,103.26,KHND 230056Z 24010KT 10SM CLR 40/13 A2984 RMK AO2 LTG DSNT NE AND NW SLP080 T04000133,M
TPH,2024-07-23 00:56,-117.0904,38.0505,1654.00,88.00,48.00,25.17,140.00,12.00,0.00,30.11,1010.70,10.00,22.00,SCT,M,M,M,12000.00,M,M,M,M,M,M,M,27.00,110.00,2024-07-23 00:32,85.02,KTPH 230056Z AUTO 14012G22KT 10SM SCT120 31/09 A3011 RMK AO2 PK WND 11027/0032 LTG DSNT NE SLP107 T03110089,M
LAS,2024-07-23 00:56,-115.1634,36.0719,663.00,108.00,53.00,16.48,220.00,7.00,0.00,29.79,1001.80,10.00,M,SCT,SCT,BKN,M,11000.00,18000.00,25000.00,M,M,M,M,M,M,M,M,106.30,KLAS 230056Z 22007KT 10SM SCT110 SCT180 BKN250 42/12 A2979 RMK AO2 LTG DSNT E AND NW SLP018 CB DSNT SW-NW-NE-SE T04220117 $,M
VGT,2024-07-23 01:00,-115.1933,36.2111,667.00,107.00,52.00,16.35,310.00,21.00,0.00,29.78,M,10.00,29.00,CLR,M,M,M,M,M,M,M,M,M,M,M,29.00,310.00,2024-07-23 00:58,104.89,KVGT 230100Z 31021G29KT 10SM CLR 42/11 A2978 RMK AO2 PK WND 31029/0058 WSHFT 0040 LTG DSNT W AND NW T04170111,M
CXP,2024-07-23 01:10,-119.7326,39.1923,1431.00,95.00,44.60,17.78,M,5.00,0.00,30.06,M,10.00,16.00,CLR,M,M,M,M,M,M,M,M,M,M,M,M,M,M,91.06,KCXP 230110Z AUTO VRB05G16KT 10SM CLR 35/07 A3006 RMK AO2 LTG DSNT SE,M
VGT,2024-07-23 01:14,-115.1933,36.2111,667.00,103.00,54.00,19.81,290.00,19.00,0.00,29.80,M,10.00,27.00,CLR,M,M,M,M,M,M,M,VCTS,M,M,M,36.00,300.00,2024-07-23 01:02,101.38,KVGT 230114Z 29019G27KT 10SM VCTS CLR 39/12 A2980 RMK AO2 PK WND 30036/0102 WSHFT 0040 LTG DSNT NW T03940122,M
BVU,2024-07-23 01:15,-114.8611,35.9475,671.00,105.80,50.00,15.73,120.00,5.00,0.00,29.78,M,10.00,M,CLR,M,M,M,M,M,M,M,M,M,M,M,M,M,M,102.98,KBVU 230115Z AUTO 12005KT 10SM CLR 41/10 A2978 RMK AO2,M
RTS,2024-07-23 01:15,-119.8764,39.6682,1539.00,93.20,44.60,18.80,290.00,14.00,0.00,30.08,M,10.00,M,CLR,M,M,M,M,M,M,M,M,M,M,M,M,M,M,89.34,KRTS 230115Z AUTO 29014KT 10SM CLR 34/07 A3008 RMK AO2,M
05U,2024-07-23 01:15,-116.0051,39.6042,1811.23,78.80,53.60,41.69,150.00,14.00,0.00,30.20,M,10.00,M,CLR,M,M,M,M,M,M,M,M,M,M,M,M,M,M,78.80,K05U 230115Z AUTO 15014KT 10SM CLR 26/12 A3020 RMK A01,M
MEV,2024-07-23 01:15,-119.7500,38.9963,1441.42,95.00,48.20,20.38,280.00,11.00,0.00,30.05,M,10.00,M,CLR,M,M,M,M,M,M,M,M,M,M,M,M,M,M,91.56,KMEV 230115Z AUTO 28011KT 10SM CLR 35/09 A3005 RMK AO2,M
BAM,2024-07-23 01:15,-116.8743,40.5990,1382.36,89.60,50.00,25.79,230.00,14.00,0.00,30.04,M,10.00,M,SCT,M,M,M,12000.00,M,M,M,M,M,M,M,M,M,M,86.70,KBAM 230115Z AUTO 23014KT 10SM SCT120 32/10 A3004 RMK AO1,M
HTH,2024-07-23 01:15,-118.6315,38.5448,1282.89,77.00,57.20,50.43,240.00,20.00,0.00,30.13,M,5.00,31.00,SCT,BKN,OVC,M,3800.00,5000.00,7500.00,M,HZ,M,M,M,M,M,M,77.00,KHTH 230115Z AUTO 24020G31KT 5SM HZ SCT038 BKN050 OVC075 25/14 A3013 RMK A01,M
10U,2024-07-23 01:15,-116.1876,41.9532,1637.00,87.80,46.40,23.85,120.00,11.00,0.00,30.09,M,10.00,M,CLR,M,M,M,M,M,M,M,M,M,M,M,M,M,M,84.68,K10U 230115Z AUTO 12011KT 10SM CLR 31/08 A3009 RMK AO2,M
TMT,2024-07-23 01:15,-117.1971,39.4643,1749.34,87.30,45.00,22.98,20.00,4.00,0.00,30.13,M,10.00,M,CLR,M,M,M,M,M,M,M,M,M,M,M,M,M,M,84.14,KTMT 230115Z AUTO 02004KT 10SM CLR 31/07 A3013 RMK AO2 T03070073,M
LAS,2024-07-23 01:19,-115.1634,36.0719,663.00,107.00,52.00,16.35,310.00,18.00,0.00,29.79,M,10.00,26.00,SCT,SCT,BKN,M,11000.00,18000.00,25000.00,M,TS,M,M,M,26.00,330.00,2024-07-23 01:19,104.89,KLAS 230119Z 31018G26KT 10SM TS SCT110CB SCT180 BKN250 42/11 A2979 RMK AO2 PK WND 33026/0119 LTG DSNT NW TSB13 OCNL LTGICCG NW TS NW MOV E CB DSNT SW-NW-NE-SE T04170111 $,M
BVU,2024-07-23 01:35,-114.8611,35.9475,671.00,105.80,50.00,15.73,0.00,0.00,0.00,29.78,M,10.00,M,CLR,M,M,M,M,M,M,M,M,M,M,M,M,M,M,102.98,KBVU 230135Z AUTO 00000KT 10SM CLR 41/10 A2978 RMK AO2,M
CXP,2024-07-23 01:35,-119.7326,39.1923,1431.00,95.00,44.60,17.78,250.00,8.00,0.00,30.06,M,10.00,14.00,CLR,M,M,M,M,M,M,M,VCTS,M,M,M,M,M,M,91.06,KCXP 230135Z AUTO 25008G14KT 230V290 10SM VCTS CLR 35/07 A3006 RMK AO2 LTG DSNT SE,M
RTS,2024-07-23 01:35,-119.8764,39.6682,1539.00,93.20,44.60,18.80,280.00,11.00,0.00,30.08,M,10.00,16.00,CLR,M,M,M,M,M,M,M,M,M,M,M,M,M,M,89.34,KRTS 230135Z AUTO 28011G16KT 10SM CLR 34/07 A3008 RMK AO2,M
05U,2024-07-23 01:35,-116.0051,39.6042,1811.23,78.80,51.80,39.02,150.00,13.00,0.00,30.20,M,10.00,M,CLR,M,M,M,M,M,M,M,M,M,M,M,M,M,M,78.80,K05U 230135Z AUTO 15013KT 10SM CLR 26/11 A3020 RMK A01,M
MEV,2024-07-23 01:35,-119.7500,38.9963,1441.42,93.20,48.20,21.54,290.00,8.00,0.00,30.05,M,10.00,14.00,CLR,M,M,M,M,M,M,M,M,M,M,M,M,M,M,89.80,KMEV 230135Z AUTO 29008G14KT 10SM CLR 34/09 A3005 RMK AO2 LTG DSNT N-SE,M
BAM,2024-07-23 01:35,-116.8743,40.5990,1382.36,89.60,46.40,22.53,200.00,17.00,0.00,30.02,M,10.00,23.00,SCT,M,M,M,12000.00,M,M,M,M,M,M,M,M,M,M,86.24,KBAM 230135Z AUTO 20017G23KT 170V240 10SM SCT120 32/08 A3002 RMK AO1,M
HTH,2024-07-23 01:35,-118.6315,38.5448,1282.89,75.20,59.00,57.12,180.00,14.00,0.00,30.12,M,6.00,M,SCT,BKN,OVC,M,3900.00,5000.00,6500.00,M,HZ,M,M,M,M,M,M,75.20,KHTH 230135Z AUTO 18014KT 6SM HZ SCT039 BKN050 OVC065 24/15 A3012 RMK A01,M
10U,2024-07-23 01:35,-116.1876,41.9532,1637.00,84.20,46.40,26.76,120.00,10.00,0.00,30.10,M,10.00,15.00,SCT,M,M,M,12000.00,M,M,M,M,M,M,M,M,M,M,81.87,K10U 230135Z AUTO 12010G15KT 10SM SCT120 29/08 A3010 RMK AO2,M
TMT,2024-07-23 01:35,-117.1971,39.4643,1749.34,86.00,46.40,25.26,0.00,0.00,0.00,30.13,M,5.00,M,CLR,M,M,M,M,M,M,M,HZ,M,M,M,M,M,M,83.22,KTMT 230135Z AUTO 00000KT 5SM HZ CLR 30/08 A3013 RMK AO2 T03010080,M
LAS,2024-07-23 01:38,-115.1634,36.0719,663.00,104.00,52.00,17.87,320.00,15.00,0.00,29.79,M,10.00,M,SCT,SCT,BKN,M,11000.00,18000.00,25000.00,M,M,M,M,M,32.00,330.00,2024-07-23 01:20,101.76,KLAS 230138Z 32015KT 10SM SCT110 SCT180 BKN250 40/11 A2979 RMK AO2 PK WND 33032/0120 WSHFT 0118 TSB13E38 TS DSIPTD CB DSNT NE-SE AND W T04000111 $,M
TPH,2024-07-23 01:45,-117.0904,38.0505,1654.00,83.00,51.00,33.04,40.00,12.00,T,30.15,M,10.00,27.00,SCT,M,M,M,11000.00,M,M,M,M,M,M,M,27.00,20.00,2024-07-23 01:42,81.51,KTPH 230145Z AUTO 04012G27KT 10SM SCT110 28/11 A3015 RMK AO2 PK WND 02027/0142 WSHFT 0125 LTG DSNT N RAB0058E13 P0000 T02830106,M
WMC,2024-07-23 01:47,-117.8072,40.9019,1315.00,92.00,43.00,18.36,360.00,17.00,0.00,29.98,M,10.00,32.00,CLR,M,M,M,M,M,M,M,M,M,M,M,32.00,360.00,2024-07-23 01:38,88.08,KWMC 230147Z AUTO 36017G32KT 10SM CLR 33/06 A2998 RMK AO2 PK WND 36032/0138 WSHFT 0127 LTG DSNT S T03330061,M
P68,2024-07-23 01:53,-116.0056,39.6014,1993.00,77.00,52.00,41.72,130.00,9.00,0.00,30.18,1013.00,M,M,M,M,M,M,M,M,M,M,M,M,M,M,M,M,M,77.00,KP68 230153Z AUTO 13009KT 25/11 A3018 RMK AO1 SLP130 T02500111,M
DRA,2024-07-23 01:53,-116.0278,36.6206,1009.00,99.00,49.00,18.58,110.00,13.00,0.00,29.89,1006.00,10.00,M,CLR,M,M,M,M,M,M,M,M,M,M,M,26.00,140.00,2024-07-23 00:56,95.75,KDRA 230153Z AUTO 11013KT 10SM CLR 37/09 A2989 RMK AO2 PK WND 14026/0056 SLP060 T03720094,M
ELY,2024-07-23 01:53,-114.8453,39.2950,1909.00,72.00,51.00,47.54,360.00,7.00,0.00,30.27,1015.00,10.00,M,FEW,SCT,M,M,10000.00,12000.00,M,M,M,M,M,M,M,M,M,72.00,KELY 230153Z AUTO 36007KT 10SM FEW100 SCT120 22/11 A3027 RMK AO2 SLP150 T02220106,M
VGT,2024-07-23 01:53,-115.1933,36.2111,667.00,102.00,54.00,20.42,290.00,13.00,0.00,29.80,1007.20,10.00,M,CLR,M,M,M,M,M,M,M,M,M,M,M,36.00,300.00,2024-07-23 01:02,100.30,KVGT 230153Z 29013KT 10SM CLR 39/12 A2980 RMK AO2 PK WND 30036/0102 WSHFT 0040 LTG DSNT E SLP072 T03890122,M
LOL,2024-07-23 01:53,-118.5701,40.0684,1192.43,100.00,46.00,16.10,90.00,11.00,0.00,29.93,1008.20,10.00,15.00,CLR,M,M,M,M,M,M,M,M,M,M,M,M,M,M,96.16,KLOL 230153Z AUTO 09011G15KT 10SM CLR 38/08 A2993 RMK AO2 LTG DSNT NE AND SW SLP082 T03780078,M
NFL,2024-07-23 01:54,-118.7010,39.4166,1199.00,95.00,45.00,18.06,250.00,15.00,0.00,29.95,1011.40,10.00,24.00,SCT,BKN,BKN,M,8000.00,12000.00,25000.00,M,M,M,M,M,M,M,M,91.10,KNFL 230154Z 25015G24KT 10SM SCT080 BKN120 BKN250 35/07 A2995 RMK AO2 SLP114 CB DSNT ALQDS T03500072,M
BVU,2024-07-23 01:55,-114.8611,35.9475,671.00,105.80,50.00,15.73,0.00,0.00,0.00,29.78,M,10.00,M,CLR,M,M,M,M,M,M,M,M,M,M,M,M,M,M,102.98,KBVU 230155Z AUTO 00000KT 10SM CLR 41/10 A2978 RMK AO2 LTG DSNT NE AND E,M
CXP,2024-07-23 01:55,-119.7326,39.1923,1431.00,93.20,44.60,18.80,250.00,6.00,0.00,30.06,M,10.00,13.00,CLR,M,M,M,M,M,M,M,M,M,M,M,M,M,M,89.34,KCXP 230155Z AUTO 25006G13KT 10SM CLR 34/07 A3006 RMK AO2,M
RNO,2024-07-23 01:55,-119.7711,39.4839,1341.00,98.00,47.00,17.77,260.00,10.00,0.00,30.01,1009.30,10.00,17.00,FEW,SCT,M,M,10000.00,22000.00,M,M,M,M,M,M,30.00,300.00,2024-07-23 01:16,94.34,KRNO 230155Z 26010G17KT 10SM FEW100 SCT220 37/08 A3001 RMK AO2 PK WND 30030/0116 SLP093 TCU DSNT E THRU SE T03670083,M
RTS,2024-07-23 01:55,-119.8764,39.6682,1539.00,93.20,44.60,18.80,280.00,12.00,0.00,30.09,M,10.00,M,CLR,M,M,M,M,M,M,M,M,M,M,M,M,M,M,89.34,KRTS 230155Z AUTO 28012KT 10SM CLR 34/07 A3009 RMK AO2,M
05U,2024-07-23 01:55,-116.0051,39.6042,1811.23,77.00,51.80,41.42,120.00,10.00,0.00,30.20,M,10.00,M,CLR,M,M,M,M,M,M,M,M,M,M,M,M,M,M,77.00,K05U 230155Z AUTO 12010KT 10SM CLR 25/11 A3020 RMK A01,M
MEV,2024-07-23 01:55,-119.7500,38.9963,1441.42,93.20,48.20,21.54,280.00,9.00,0.00,30.06,M,10.00,M,CLR,M,M,M,M,M,M,M,M,M,M,M,M,M,M,89.80,KMEV 230155Z AUTO 28009KT 10SM CLR 34/09 A3006 RMK AO2,M
BAM,2024-07-23 01:55,-116.8743,40.5990,1382.36,93.20,44.60,18.80,250.00,12.00,0.00,30.02,M,10.00,17.00,SCT,M,M,M,12000.00,M,M,M,M,M,M,M,M,M,M,89.34,KBAM 230155Z AUTO 25012G17KT 10SM SCT120 34/07 A3002 RMK AO1,M
HTH,2024-07-23 01:55,-118.6315,38.5448,1282.89,75.20,55.40,50.17,M,7.00,0.03,30.11,M,7.00,21.00,SCT,BKN,BKN,M,3600.00,5000.00,6000.00,M,M,M,M,M,M,M,M,75.20,KHTH 230155Z AUTO VRB07G21KT 110V180 7SM SCT036 BKN050 BKN060 24/13 A3011 RMK A01 P0003,M
10U,2024-07-23 01:55,-116.1876,41.9532,1637.00,86.00,48.20,27.03,130.00,9.00,0.00,30.10,M,10.00,14.00,FEW,M,M,M,12000.00,M,M,M,M,M,M,M,M,M,M,83.40,K10U 230155Z AUTO 13009G14KT 10SM FEW120 30/09 A3010 RMK AO2 LTG DSNT SE AND W,M
TMT,2024-07-23 01:55,-117.1971,39.4643,1749.34,85.00,46.00,25.69,0.00,0.00,0.00,30.15,M,10.00,M,CLR,M,M,M,M,M,M,M,M,M,M,M,M,M,M,82.42,KTMT 230155Z AUTO 00000KT 10SM CLR 29/08 A3015 RMK AO2 T02940077,M
INS,2024-07-23 01:55,-115.6733,36.5872,955.00,99.30,46.80,16.95,160.00,7.00,0.00,29.89,1005.90,10.00,M,CLR,M,M,M,M,M,M,M,M,M,M,M,M,M,M,95.61,KINS 230155Z AUTO 16007KT 10SM CLR 37/08 A2989 RMK AO2 SLP059 T03740082 $,M
LSV,2024-07-23 01:55,-115.0343,36.2362,570.00,103.50,50.00,16.84,300.00,16.00,0.00,29.72,1003.00,10.00,M,CLR,M,M,M,M,M,M,M,M,M,M,M,27.00,310.00,2024-07-23 01:17,100.62,KLSV 230155Z AUTO 30016KT 10SM CLR 40/10 A2972 RMK AO2 PK WND 31027/17 SLP030 T03970100 $,M
EKO,2024-07-23 01:56,-115.7860,40.8242,1367.00,90.00,46.00,21.91,180.00,7.00,0.00,30.08,1011.80,10.00,M,CLR,M,M,M,M,M,M,M,M,M,M,M,M,M,M,86.55,KEKO 230156Z AUTO 18007KT 10SM CLR 32/08 A3008 RMK AO2 LTG DSNT N SLP118 T03220078,M
WMC,2024-07-23 01:56,-117.8072,40.9019,1315.00,93.00,43.00,17.80,360.00,14.00,0.00,29.98,1009.40,10.00,M,CLR,M,M,M,M,M,M,M,M,M,M,M,32.00,360.00,2024-07-23 01:38,89.00,KWMC 230156Z AUTO 36014KT 10SM CLR 34/06 A2998 RMK AO2 PK WND 36032/0138 WSHFT 0127 LTG DSNT S SLP094 T03390061,M
HND,2024-07-23 01:56,-115.1344,35.9729,742.79,102.00,54.00,20.42,330.00,13.00,0.00,29.85,1008.50,10.00,M,CLR,M,M,M,M,M,M,M,M,M,M,M,M,M,M,100.30,KHND 230156Z 33013KT 10SM CLR 39/12 A2985 RMK AO2 LTG DSNT NE AND E SLP085 T03890122,M
TPH,2024-07-23 01:56,-117.0904,38.0505,1654.00,83.00,50.00,31.83,40.00,13.00,T,30.16,1012.30,10.00,31.00,BKN,M,M,M,11000.00,M,M,M,M,M,M,M,31.00,30.00,2024-07-23 01:50,81.39,KTPH 230156Z AUTO 04013G31KT 10SM BKN110 28/10 A3016 RMK AO2 PK WND 03031/0150 WSHFT 0125 LTG DSNT N RAB0058E13 SLP123 P0000 T02830100,M
LAS,2024-07-23 01:56,-115.1634,36.0719,663.00,104.00,52.00,17.87,310.00,9.00,0.00,29.80,1002.20,10.00,M,SCT,SCT,BKN,M,11000.00,18000.00,22000.00,M,M,M,M,M,32.00,330.00,2024-07-23 01:20,101.76,KLAS 230156Z 31009KT 10SM SCT110CB SCT180 BKN220 40/11 A2980 RMK AO2 PK WND 33032/0120 WSHFT 0118 LTG DSNT NE AND E TSB13E38 SLP022 TS DSIPTD CB NE-SE AND DSNT NE-SE AND W T04000111 $,M
05U,2024-07-23 02:10,-116.0051,39.6042,1811.23,75.20,50.00,41.14,130.00,10.00,0.00,30.20,M,10.00,17.00,CLR,M,M,M,M,M,M,M,M,M,M,M,M,M,M,75.20,K05U 230210Z AUTO 13010G17KT 10SM CLR 24/10 A3020 RMK A01,M
BVU,2024-07-23 02:15,-114.8611,35.9475,671.00,104.00,51.80,17.74,90.00,11.00,0.00,29.82,M,10.00,20.00,SCT,M,M,M,12000.00,M,M,M,M,M,M,M,M,M,M,101.69,KBVU 230215Z AUTO 09011G20KT 10SM SCT120 40/11 A2982 RMK AO2 LTG DSNT NE-SE,M
CXP,2024-07-23 02:15,-119.7326,39.1923,1431.00,93.20,44.60,18.80,250.00,6.00,0.00,30.07,M,10.00,11.00,CLR,M,M,M,M,M,M,M,M,M,M,M,M,M,M,89.34,KCXP 230215Z AUTO 25006G11KT 10SM CLR 34/07 A3007 RMK AO2 LTG DSNT NE AND SE,M
WMC,2024-07-23 02:15,-117.8072,40.9019,1315.00,92.00,44.00,19.08,40.00,10.00,0.00,29.99,M,10.00,17.00,CLR,M,M,M,M,M,M,M,VCTS,M,M,M,M,M,M,88.17,KWMC 230215Z AUTO 04010G17KT 10SM VCTS CLR 33/07 A2999 RMK AO2 LTG DSNT W T03330067,M
RTS,2024-07-23 02:15,-119.8764,39.6682,1539.00,89.60,44.60,21.04,310.00,17.00,0.00,30.09,M,10.00,M,CLR,M,M,M,M,M,M,M,M,M,M,M,M,M,M,86.07,KRTS 230215Z AUTO 31017KT 10SM CLR 32/07 A3009 RMK AO2,M
MEV,2024-07-23 02:15,-119.7500,38.9963,1441.42,91.40,48.20,22.78,280.00,7.00,0.00,30.06,M,10.00,M,CLR,M,M,M,M,M,M,M,M,M,M,M,M,M,M,88.09,KMEV 230215Z AUTO 28007KT 10SM CLR 33/09 A3006 RMK AO2,M
BAM,2024-07-23 02:15,-116.8743,40.5990,1382.36,95.00,41.00,15.49,160.00,6.00,0.00,30.01,M,10.00,25.00,SCT,M,M,M,12000.00,M,M,M,M,M,M,M,M,M,M,90.70,KBAM 230215Z AUTO 16006G25KT 10SM SCT120 35/05 A3001 RMK AO1,M
HTH,2024-07-23 02:15,-118.6315,38.5448,1282.89,80.60,50.00,34.41,0.00,0.00,0.00,30.11,M,10.00,M,FEW,FEW,M,M,6000.00,12000.00,M,M,M,M,M,M,M,M,M,79.88,KHTH 230215Z AUTO 00000KT 10SM FEW060 FEW120 27/10 A3011 RMK A01,M
10U,2024-07-23 02:15,-116.1876,41.9532,1637.00,84.20,48.20,28.63,140.00,8.00,0.00,30.10,M,10.00,M,FEW,M,M,M,12000.00,M,M,M,M,M,M,M,M,M,M,82.04,K10U 230215Z AUTO 14008KT 10SM FEW120 29/09 A3010 RMK AO2,M
TMT,2024-07-23 02:15,-117.1971,39.4643,1749.34,81.50,48.20,31.25,220.00,14.00,0.00,30.17,M,10.00,21.00,SCT,M,M,M,12000.00,M,M,M,M,M,M,M,M,M,M,80.24,KTMT 230215Z AUTO 22014G21KT 10SM SCT120 28/09 A3017 RMK AO2 T02750090,M
NFL,2024-07-23 02:17,-118.7010,39.4166,1199.00,95.00,45.00,18.06,170.00,13.00,0.00,29.96,M,10.00,M,SCT,BKN,BKN,M,8000.00,12000.00,25000.00,M,M,M,M,M,M,M,M,91.10,KNFL 230217Z 17013KT 10SM SCT080 BKN120 BKN250 35/07 A2996 RMK AO2 WSHFT 0157 CB DSNT NW-N T03500072,M
WMC,2024-07-23 02:30,-117.8072,40.9019,1315.00,92.00,44.00,19.08,90.00,11.00,0.00,29.99,M,10.00,M,BKN,M,M,M,12000.00,M,M,M,M,M,M,M,M,M,M,88.17,KWMC 230230Z AUTO 09011KT 10SM BKN120 33/07 A2999 RMK AO2 T03330067,M
10U,2024-07-23 02:30,-116.1876,41.9532,1637.00,84.20,48.20,28.63,110.00,7.00,0.00,30.10,M,10.00,M,CLR,M,M,M,M,M,M,M,M,M,M,M,M,M,M,82.04,K10U 230230Z AUTO 11007KT 10SM CLR 29/09 A3010 RMK AO2,M
BVU,2024-07-23 02:35,-114.8611,35.9475,671.00,96.80,59.00,28.63,110.00,19.00,0.00,29.83,M,8.00,30.00,FEW,SCT,OVC,M,5000.00,6500.00,12000.00,M,M,M,M,M,M,M,M,96.50,KBVU 230235Z AUTO 11019G30KT 8SM FEW050 SCT065 OVC120 36/15 A2983 RMK AO2 LTG DSNT E AND SE,M
CXP,2024-07-23 02:35,-119.7326,39.1923,1431.00,91.40,44.60,19.89,M,4.00,0.00,30.07,M,10.00,M,CLR,M,M,M,M,M,M,M,M,M,M,M,M,M,M,87.68,KCXP 230235Z AUTO VRB04KT 10SM CLR 33/07 A3007 RMK AO2 LTG DSNT NE AND SE,M
RTS,2024-07-23 02:35,-119.8764,39.6682,1539.00,87.80,44.60,22.27,300.00,11.00,0.00,30.10,M,10.00,17.00,CLR,M,M,M,M,M,M,M,M,M,M,M,M,M,M,84.53,KRTS 230235Z AUTO 30011G17KT 10SM CLR 31/07 A3010 RMK AO2,M
05U,2024-07-23 02:35,-116.0051,39.6042,1811.23,73.40,50.00,43.69,0.00,0.00,0.00,30.21,M,10.00,12.00,CLR,M,M,M,M,M,M,M,M,M,M,M,M,M,M,73.40,K05U 230235Z AUTO 00000G12KT 10SM CLR 23/10 A3021 RMK A01,M
MEV,2024-07-23 02:35,-119.7500,38.9963,1441.42,89.60,48.20,24.11,270.00,3.00,0.00,30.07,M,10.00,10.00,CLR,M,M,M,M,M,M,M,M,M,M,M,M,M,M,86.44,KMEV 230235Z AUTO 27003G10KT 10SM CLR 32/09 A3007 RMK AO2,M
BAM,2024-07-23 02:35,-116.8743,40.5990,1382.36,93.20,41.00,16.37,130.00,3.00,0.00,30.01,M,10.00,M,CLR,M,M,M,M,M,M,M,M,M,M,M,M,M,M,89.03,KBAM 230235Z AUTO 13003KT 10SM CLR 34/05 A3001 RMK AO1,M
HTH,2024-07-23 02:35,-118.6315,38.5448,1282.89,80.60,51.80,36.79,210.00,4.00,0.00,30.10,M,10.00,M,CLR,M,M,M,M,M,M,M,M,M,M,M,M,M,M,80.08,KHTH 230235Z AUTO 21004KT 10SM CLR 27/11 A3010 RMK A01,M
TMT,2024-07-23 02:35,-117.1971,39.4643,1749.34,78.40,50.00,36.99,220.00,15.00,0.00,30.20,M,10.00,27.00,BKN,M,M,M,12000.00,M,M,M,M,M,M,M,M,M,M,78.40,KTMT 230235Z AUTO 22015G27KT 10SM BKN120 26/10 A3020 RMK AO2 T02580101,M
P68,2024-07-23 02:53,-116.0056,39.6014,1993.00,73.00,50.00,44.29,150.00,6.00,0.00,30.20,1013.70,M,M,M,M,M,M,M,M,M,M,M,M,M,M,M,M,M,73.00,KP68 230253Z AUTO 15006KT 23/10 A3020 RMK AO1 SLP137 T02280100 53000,M
DRA,2024-07-23 02:53,-116.0278,36.6206,1009.00,98.00,48.00,18.45,110.00,10.00,0.00,29.90,1006.30,10.00,M,CLR,M,M,M,M,M,M,M,M,M,M,M,M,M,M,94.53,KDRA 230253Z AUTO 11010KT 10SM CLR 37/09 A2990 RMK AO2 SLP063 T03670089 55002,M
ELY,2024-07-23 02:53,-114.8453,39.2950,1909.00,73.00,49.00,42.67,160.00,11.00,0.00,30.22,1012.40,10.00,M,FEW,SCT,SCT,M,8000.00,10000.00,11000.00,M,M,M,M,M,M,M,M,73.00,KELY 230253Z AUTO 16011KT 10SM FEW080 SCT100 SCT110 23/09 A3022 RMK AO2 PRESFR SLP124 T02280094 50001,M
VGT,2024-07-23 02:53,-115.1933,36.2111,667.00,104.00,53.00,18.54,230.00,5.00,0.00,29.80,1007.10,10.00,M,CLR,M,M,M,M,M,M,M,M,M,M,M,M,M,M,102.10,KVGT 230253Z 23005KT 10SM CLR 40/12 A2980 RMK AO2 LTG DSNT SE SLP071 T04000117 51006,M
LOL,2024-07-23 02:53,-118.5701,40.0684,1192.43,94.00,47.00,20.09,140.00,4.00,0.00,29.94,1008.70,10.00,M,CLR,M,M,M,M,M,M,M,M,M,M,M,M,M,M,90.40,KLOL 230253Z AUTO 14004KT 10SM CLR 34/08 A2994 RMK AO2 LTG DSNT NE AND E SLP087 T03440083 53003,M
NFL,2024-07-23 02:54,-118.7010,39.4166,1199.00,91.00,49.00,23.77,260.00,12.00,0.00,30.00,1013.00,10.00,22.00,SCT,BKN,BKN,M,8000.00,12000.00,25000.00,M,M,M,M,M,M,M,M,87.83,KNFL 230254Z 26012G22KT 10SM SCT080 BKN120 BKN250 33/09 A3000 RMK AO2 WSHFT 0230 SLP130 OCNL LTGIC DSNT NW-N CB DSNT NW-N T03280094 50017,M
BVU,2024-07-23 02:55,-114.8611,35.9475,671.00,96.80,55.40,25.15,70.00,16.00,0.00,29.86,M,10.00,22.00,FEW,SCT,OVC,M,3100.00,6500.00,12000.00,M,VCTS,M,M,M,M,M,M,95.14,KBVU 230255Z AUTO 07016G22KT 10SM VCTS FEW031 SCT065 OVC120 36/13 A2986 RMK AO2 LTG DSNT ALQDS,M
CXP,2024-07-23 02:55,-119.7326,39.1923,1431.00,89.60,46.40,22.53,M,4.00,0.00,30.07,M,10.00,M,CLR,M,M,M,M,M,M,M,M,M,M,M,M,M,M,86.24,KCXP 230255Z AUTO VRB04KT 10SM CLR 32/08 A3007 RMK AO2,M
RNO,2024-07-23 02:55,-119.7711,39.4839,1341.00,94.00,46.00,19.34,280.00,12.00,0.00,30.03,1009.90,10.00,M,FEW,FEW,M,M,10000.00,15000.00,M,M,M,M,M,M,27.00,260.00,2024-07-23 01:58,90.27,KRNO 230255Z 28012KT 10SM FEW100 FEW150 34/08 A3003 RMK AO2 PK WND 26027/0158 SLP099 FU FEW150 T03440078 53006,M
RTS,2024-07-23 02:55,-119.8764,39.6682,1539.00,87.80,44.60,22.27,290.00,10.00,0.00,30.11,M,10.00,M,CLR,M,M,M,M,M,M,M,M,M,M,M,M,M,M,84.53,KRTS 230255Z AUTO 29010KT 10SM CLR 31/07 A3011 RMK AO2,M
05U,2024-07-23 02:55,-116.0051,39.6042,1811.23,73.40,50.00,43.69,150.00,3.00,0.00,30.22,M,10.00,M,CLR,M,M,M,M,M,M,M,M,M,M,M,M,M,M,73.40,K05U 230255Z AUTO 15003KT 10SM CLR 23/10 A3022 RMK A01,M
MEV,2024-07-23 02:55,-119.7500,38.9963,1441.42,87.80,48.20,25.52,260.00,6.00,0.00,30.07,M,10.00,M,CLR,M,M,M,M,M,M,M,M,M,M,M,M,M,M,84.87,KMEV 230255Z AUTO 26006KT 10SM CLR 31/09 A3007 RMK AO2,M
BAM,2024-07-23 02:55,-116.8743,40.5990,1382.36,89.60,44.60,21.04,120.00,9.00,0.00,30.03,M,10.00,14.00,CLR,M,M,M,M,M,M,M,M,M,M,M,M,M,M,86.07,KBAM 230255Z AUTO 12009G14KT 10SM CLR 32/07 A3003 RMK AO1,M
HTH,2024-07-23 02:55,-118.6315,38.5448,1282.89,78.80,60.80,54.05,200.00,9.00,0.00,30.09,M,10.00,M,CLR,M,M,M,M,M,M,M,M,M,M,M,M,M,M,78.80,KHTH 230255Z AUTO 20009KT 10SM CLR 26/16 A3009 RMK A01,M
10U,2024-07-23 02:55,-116.1876,41.9532,1637.00,80.60,48.20,32.18,120.00,8.00,0.00,30.10,M,10.00,M,CLR,M,M,M,M,M,M,M,M,M,M,M,M,M,M,79.71,K10U 230255Z AUTO 12008KT 10SM CLR 27/09 A3010 RMK AO2,M
TMT,2024-07-23 02:55,-117.1971,39.4643,1749.34,74.50,51.60,44.68,210.00,17.00,0.00,30.21,M,10.00,M,BKN,M,M,M,12000.00,M,M,M,M,M,M,M,M,M,M,74.50,KTMT 230255Z AUTO 21017KT 10SM BKN120 24/11 A3021 RMK AO2 T02360109,M
INS,2024-07-23 02:55,-115.6733,36.5872,955.00,97.00,45.00,16.98,90.00,7.00,0.00,29.89,1005.90,10.00,M,BKN,BKN,M,M,18000.00,20000.00,M,M,M,M,M,M,M,M,M,93.04,KINS 230255Z AUTO 09007KT 10SM BKN180 BKN200 36/07 A2989 RMK AO2 SLP059 T03620072 55007 $,M
LSV,2024-07-23 02:55,-115.0343,36.2362,570.00,101.00,52.30,19.77,120.00,19.00,0.00,29.75,1004.00,10.00,22.00,BKN,M,M,M,17000.00,M,M,M,M,M,M,M,M,M,M,98.68,KLSV 230255Z AUTO 12019G22KT 10SM BKN170 38/11 A2975 RMK AO2 SLP040 T03830113 53012 $,M
EKO,2024-07-23 02:56,-115.7860,40.8242,1367.00,81.00,51.00,35.25,240.00,9.00,0.00,30.11,1013.10,10.00,28.00,SCT,M,M,M,12000.00,M,M,M,M,M,M,M,33.00,190.00,2024-07-23 02:37,80.22,KEKO 230256Z AUTO 24009G28KT 10SM SCT120 27/11 A3011 RMK AO2 PK WND 19033/0237 LTG DSNT NW SLP131 T02720106 53007,M
WMC,2024-07-23 02:56,-117.8072,40.9019,1315.00,90.00,44.00,20.31,0.00,0.00,0.00,30.01,1010.10,10.00,M,SCT,M,M,M,12000.00,M,M,M,M,M,M,M,M,M,M,86.37,KWMC 230256Z AUTO 00000KT 10SM SCT120 32/07 A3001 RMK AO2 SLP101 T03220067 53010,M
HND,2024-07-23 02:56,-115.1344,35.9729,742.79,101.00,55.00,21.82,90.00,5.00,0.00,29.87,1009.10,10.00,M,CLR,M,M,M,M,M,M,M,M,M,M,M,M,M,M,99.57,KHND 230256Z 09005KT 10SM CLR 38/13 A2987 RMK AO2 LTG DSNT E SLP091 T03830128 53012,M
TPH,2024-07-23 02:56,-117.0904,38.0505,1654.00,75.00,59.00,57.50,80.00,9.00,0.11,30.21,1014.40,10.00,M,FEW,SCT,BKN,M,3400.00,6000.00,11000.00,M,M,M,M,M,M,M,M,75.00,KTPH 230256Z AUTO 08009KT 10SM FEW034 SCT060 BKN110 24/15 A3021 RMK AO2 RAB17E52 SLP144 P0011 60011 T02390150 53037,M
LAS,2024-07-23 02:56,-115.1634,36.0719,663.00,104.00,51.00,17.22,0.00,0.00,0.00,29.80,1002.20,10.00,M,SCT,SCT,BKN,M,11000.00,18000.00,22000.00,M,TS,M,M,M,M,M,M,101.44,KLAS 230256Z 00000KT 10SM TS SCT110CB SCT180 BKN220 40/11 A2980 RMK AO2 LTG DSNT E AND SE TSB56 SLP022 OCNL LTGICCCCG NE-SE TS NE-SE MOV E VCSH NE-SE T04000106 51006 $,M
BVU,2024-07-23 03:15,-114.8611,35.9475,671.00,95.00,59.00,30.26,100.00,15.00,0.00,29.87,M,10.00,M,FEW,OVC,M,M,8500.00,12000.00,M,M,VCTS,M,M,M,M,M,M,94.51,KBVU 230315Z AUTO 10015KT 10SM VCTS FEW085 OVC120 35/15 A2987 RMK AO2 LTG DSNT E AND SE,M
CXP,2024-07-23 03:15,-119.7326,39.1923,1431.00,87.80,48.20,25.52,0.00,0.00,0.00,30.08,M,10.00,M,CLR,M,M,M,M,M,M,M,M,M,M,M,M,M,M,84.87,KCXP 230315Z AUTO 00000KT 10SM CLR 31/09 A3008 RMK AO2,M
RTS,2024-07-23 03:15,-119.8764,39.6682,1539.00,86.00,46.40,25.26,290.00,9.00,0.00,30.11,M,10.00,M,CLR,M,M,M,M,M,M,M,M,M,M,M,M,M,M,83.22,KRTS 230315Z AUTO 29009KT 10SM CLR 30/08 A3011 RMK AO2,M
05U,2024-07-23 03:15,-116.0051,39.6042,1811.23,71.60,50.00,46.43,0.00,0.00,0.00,30.23,M,10.00,M,CLR,M,M,M,M,M,M,M,M,M,M,M,M,M,M,71.60,K05U 230315Z AUTO 00000KT 10SM CLR 22/10 A3023 RMK A01,M
MEV,2024-07-23 03:15,-119.7500,38.9963,1441.42,86.00,48.20,27.03,M,4.00,0.00,30.07,M,10.00,M,CLR,M,M,M,M,M,M,M,M,M,M,M,M,M,M,83.40,KMEV 230315Z AUTO VRB04KT 10SM CLR 30/09 A3007 RMK AO2,M
BAM,2024-07-23 03:15,-116.8743,40.5990,1382.36,89.60,44.60,21.04,120.00,4.00,0.00,30.04,M,10.00,M,CLR,M,M,M,M,M,M,M,M,M,M,M,M,M,M,86.07,KBAM 230315Z AUTO 12004KT 10SM CLR 32/07 A3004 RMK AO1,M
HTH,2024-07-23 03:15,-118.6315,38.5448,1282.89,78.80,57.20,47.52,210.00,9.00,0.00,30.07,M,10.00,M,CLR,M,M,M,M,M,M,M,M,M,M,M,M,M,M,78.80,KHTH 230315Z AUTO 21009KT 10SM CLR 26/14 A3007 RMK A01,M
10U,2024-07-23 03:15,-116.1876,41.9532,1637.00,78.80,48.20,34.13,130.00,10.00,0.00,30.11,M,10.00,M,CLR,M,M,M,M,M,M,M,M,M,M,M,M,M,M,78.80,K10U 230315Z AUTO 13010KT 10SM CLR 26/09 A3011 RMK AO2,M
TMT,2024-07-23 03:15,-117.1971,39.4643,1749.34,75.00,51.00,42.98,240.00,14.00,0.00,30.22,M,10.00,M,CLR,M,M,M,M,M,M,M,M,M,M,M,M,M,M,75.00,KTMT 230315Z AUTO 24014KT 10SM CLR 24/11 A3022 RMK AO2 T02390106,M
DRA,2024-07-23 03:18,-116.0278,36.6206,1009.00,95.00,49.00,21.00,10.00,17.00,0.00,29.94,M,10.00,26.00,CLR,M,M,M,M,M,M,M,M,M,M,M,26.00,350.00,2024-07-23 03:12,91.70,KDRA 230318Z AUTO 01017G26KT 10SM CLR 35/09 A2994 RMK AO2 PK WND 35026/0312 WSHFT 0301 T03500094,M
NFL,2024-07-23 03:18,-118.7010,39.4166,1199.00,89.00,49.00,25.32,200.00,9.00,0.00,30.01,M,10.00,M,SCT,BKN,BKN,M,8000.00,12000.00,25000.00,M,M,M,M,M,M,M,M,86.01,KNFL 230318Z 20009KT 10SM SCT080 BKN120 BKN250 32/09 A3001 RMK AO2 WSHFT 0258 OCNL LTGIC DSNT NW-N CB DSNT NW-N T03170094,M
LAS,2024-07-23 03:23,-115.1634,36.0719,663.00,100.00,55.00,22.49,110.00,16.00,0.00,29.80,M,10.00,25.00,SCT,SCT,BKN,M,11000.00,18000.00,22000.00,M,TS,M,M,M,M,M,M,98.48,KLAS 230323Z 11016G25KT 10SM TS SCT110CB SCT180 BKN220 38/13 A2980 RMK AO2 WSHFT 0303 LTG DSNT E AND SE OCNL LTGICCCCG NE-SE TS NE-SE MOV E VCSH NE-SE T03780128 $,M
WMC,2024-07-23 03:29,-117.8072,40.9019,1315.00,83.00,54.00,36.89,360.00,13.00,0.02,30.02,M,10.00,19.00,FEW,SCT,M,M,3500.00,12000.00,M,M,M,M,M,M,33.00,360.00,2024-07-23 03:14,81.94,KWMC 230329Z AUTO 36013G19KT 10SM FEW035 SCT120 28/12 A3002 RMK AO2 PK WND 36033/0314 WSHFT 0309 LTG DSNT S RAB13E29 P0002 T02830122,M
HTH,2024-07-23 03:30,-118.6315,38.5448,1282.89,77.00,57.20,50.43,170.00,13.00,0.00,30.08,M,10.00,M,CLR,M,M,M,M,M,M,M,M,M,M,M,M,M,M,77.00,KHTH 230330Z AUTO 17013KT 10SM CLR 25/14 A3008 RMK A01,M
BVU,2024-07-23 03:35,-114.8611,35.9475,671.00,93.20,57.20,29.99,110.00,12.00,0.00,29.86,M,10.00,18.00,FEW,FEW,BKN,M,4000.00,6500.00,9000.00,M,M,M,M,M,M,M,M,91.91,KBVU 230335Z AUTO 11012G18KT 10SM FEW040 FEW065 BKN090 34/14 A2986 RMK AO2 LTG DSNT E AND SE,M
CXP,2024-07-23 03:35,-119.7326,39.1923,1431.00,87.80,46.40,23.85,0.00,0.00,0.00,30.09,M,10.00,M,CLR,M,M,M,M,M,M,M,M,M,M,M,M,M,M,84.68,KCXP 230335Z AUTO 00000KT 10SM CLR 31/08 A3009 RMK AO2,M
RTS,2024-07-23 03:35,-119.8764,39.6682,1539.00,82.40,46.40,28.36,290.00,7.00,0.00,30.12,M,10.00,M,CLR,M,M,M,M,M,M,M,M,M,M,M,M,M,M,80.64,KRTS 230335Z AUTO 29007KT 10SM CLR 28/08 A3012 RMK AO2,M
05U,2024-07-23 03:35,-116.0051,39.6042,1811.23,69.80,50.00,49.37,0.00,0.00,0.00,30.24,M,10.00,M,CLR,M,M,M,M,M,M,M,M,M,M,M,M,M,M,69.80,K05U 230335Z AUTO 00000KT 10SM CLR 21/10 A3024 RMK A01,M
MEV,2024-07-23 03:35,-119.7500,38.9963,1441.42,84.20,50.00,30.62,100.00,4.00,0.00,30.08,M,10.00,M,FEW,M,M,M,10000.00,M,M,M,M,M,M,M,M,M,M,82.24,KMEV 230335Z AUTO 10004KT 10SM FEW100 29/10 A3008 RMK AO2,M
BAM,2024-07-23 03:35,-116.8743,40.5990,1382.36,87.80,46.40,23.85,90.00,4.00,0.00,30.07,M,10.00,M,CLR,M,M,M,M,M,M,M,M,M,M,M,M,M,M,84.68,KBAM 230335Z AUTO 09004KT 10SM CLR 31/08 A3007 RMK AO1,M
10U,2024-07-23 03:35,-116.1876,41.9532,1637.00,78.80,48.20,34.13,130.00,12.00,0.00,30.11,M,10.00,M,CLR,M,M,M,M,M,M,M,M,M,M,M,M,M,M,78.80,K10U 230335Z AUTO 13012KT 10SM CLR 26/09 A3011 RMK AO2,M
TMT,2024-07-23 03:35,-117.1971,39.4643,1749.34,75.20,50.50,41.91,230.00,10.00,0.00,30.22,M,10.00,13.00,CLR,M,M,M,M,M,M,M,M,M,M,M,M,M,M,75.20,KTMT 230335Z AUTO 23010G13KT 10SM CLR 24/10 A3022 RMK AO2 T02400103,M
LAS,2024-07-23 03:43,-115.1634,36.0719,663.00,99.00,56.00,24.04,140.00,14.00,0.00,29.83,M,10.00,27.00,SCT,SCT,BKN,M,11000.00,18000.00,22000.00,M,M,M,M,M,27.00,140.00,2024-07-23 03:36,97.74,KLAS 230343Z 14014G27KT 10SM SCT110 SCT180 BKN220 37/13 A2983 RMK AO2 PK WND 14027/0336 WSHFT 0303 LTG DSNT SE AND S TSE43 PRESRR TS MOVD SE OCNL LTGICCCCG DSNT SE T03720133 $,M
RNO,2024-07-23 03:44,-119.7711,39.4839,1341.00,91.00,46.00,21.24,280.00,10.00,0.00,30.04,M,10.00,M,FEW,FEW,M,M,10000.00,15000.00,M,M,TS,M,M,M,M,M,M,87.45,KRNO 230344Z 28010KT 10SM TS FEW100CB FEW150 33/08 A3004 RMK AO2 TSB43 OCNL LTGIC E TS E MOV NE FU FEW150 T03280078,M
P68,2024-07-23 03:53,-116.0056,39.6014,1993.00,65.00,52.00,62.74,130.00,3.00,0.00,30.22,1014.50,M,M,M,M,M,M,M,M,M,M,M,M,M,M,M,M,M,65.00,KP68 230353Z AUTO 13003KT 18/11 A3022 RMK AO1 SLP145 T01830111,M
DRA,2024-07-23 03:53,-116.0278,36.6206,1009.00,82.00,66.00,58.43,40.00,13.00,0.10,29.97,1009.20,8.00,M,SCT,BKN,OVC,M,6500.00,9000.00,11000.00,M,-RA,M,M,M,26.00,350.00,2024-07-23 03:12,84.15,KDRA 230353Z AUTO 04013KT 8SM -RA SCT065 BKN090 OVC110 28/19 A2997 RMK AO2 PK WND 35026/0312 WSHFT 0301 RAB31 SLP092 P0010 T02780189,M
ELY,2024-07-23 03:53,-114.8453,39.2950,1909.00,69.00,52.00,54.64,310.00,7.00,0.00,30.25,1013.20,10.00,M,FEW,M,M,M,12000.00,M,M,M,M,M,M,M,M,M,M,69.00,KELY 230353Z AUTO 31007KT 10SM FEW120 21/11 A3025 RMK AO2 SLP132 T02060111 $,M
VGT,2024-07-23 03:53,-115.1933,36.2111,667.00,98.00,57.00,25.69,140.00,16.00,0.00,29.84,1008.70,10.00,23.00,FEW,M,M,M,11000.00,M,M,M,M,M,M,M,M,M,M,97.02,KVGT 230353Z 14016G23KT 10SM FEW110 37/14 A2984 RMK AO2 LTG DSNT SE SLP087 T03670139,M
LOL,2024-07-23 03:53,-118.5701,40.0684,1192.43,90.00,47.00,22.76,220.00,17.00,0.00,29.97,1009.50,10.00,24.00,CLR,M,M,M,M,M,M,M,M,M,M,M,M,M,M,86.66,KLOL 230353Z AUTO 22017G24KT 10SM CLR 32/08 A2997 RMK AO2 LTG DSNT SE SLP095 T03220083,M
NFL,2024-07-23 03:54,-118.7010,39.4166,1199.00,88.00,49.00,26.13,160.00,15.00,0.00,30.02,1013.70,10.00,23.00,SCT,BKN,BKN,M,8000.00,12000.00,25000.00,M,M,M,M,M,M,M,M,85.14,KNFL 230354Z 16015G23KT 10SM SCT080 BKN120 BKN250 31/09 A3002 RMK AO2 WSHFT 0258 SLP137 OCNL LTGIC DSNT W CB DSNT W T03110094,M
BVU,2024-07-23 03:55,-114.8611,35.9475,671.00,91.40,62.60,38.45,120.00,11.00,0.00,29.85,M,9.00,M,SCT,BKN,OVC,M,3900.00,6000.00,12000.00,M,-RA,M,M,M,M,M,M,92.23,KBVU 230355Z AUTO 12011KT 9SM -RA SCT039 BKN060 OVC120 33/17 A2985 RMK AO2 LTG DSNT S AND W,M
CXP,2024-07-23 03:55,-119.7326,39.1923,1431.00,86.00,48.20,27.03,0.00,0.00,0.00,30.10,M,10.00,M,CLR,M,M,M,M,M,M,M,M,M,M,M,M,M,M,83.40,KCXP 230355Z AUTO 00000KT 10SM CLR 30/09 A3010 RMK AO2,M
RNO,2024-07-23 03:55,-119.7711,39.4839,1341.00,91.00,47.00,22.05,280.00,10.00,0.00,30.05,1010.70,10.00,M,FEW,FEW,M,M,10000.00,15000.00,M,M,TS,M,M,M,M,M,M,87.57,KRNO 230355Z 28010KT 10SM TS FEW100CB FEW150 33/08 A3005 RMK AO2 TSB43 SLP107 OCNL LTGIC E TS E MOV NE FU FEW150 T03280083,M
LSV,2024-07-23 03:55,-115.0343,36.2362,570.00,98.40,53.00,21.94,140.00,18.00,0.00,29.77,1004.70,10.00,24.00,FEW,M,M,M,21000.00,M,M,M,M,M,M,M,M,M,M,96.12,KLSV 230355Z AUTO 14018G24KT 10SM FEW210 37/12 A2977 RMK AO2 SLP047 T03690116 $,M
RTS,2024-07-23 03:55,-119.8764,39.6682,1539.00,82.40,46.40,28.36,260.00,8.00,0.00,30.12,M,10.00,M,CLR,M,M,M,M,M,M,M,M,M,M,M,M,M,M,80.64,KRTS 230355Z AUTO 26008KT 10SM CLR 28/08 A3012 RMK AO2,M
05U,2024-07-23 03:55,-116.0051,39.6042,1811.23,66.20,51.80,59.74,0.00,0.00,0.00,30.24,M,10.00,M,CLR,M,M,M,M,M,M,M,M,M,M,M,M,M,M,66.20,K05U 230355Z AUTO 00000KT 10SM CLR 19/11 A3024 RMK A01,M
MEV,2024-07-23 03:55,-119.7500,38.9963,1441.42,77.00,53.60,44.25,140.00,7.00,0.00,30.09,M,10.00,M,FEW,M,M,M,10000.00,M,M,M,M,M,M,M,M,M,M,77.00,KMEV 230355Z AUTO 14007KT 10SM FEW100 25/12 A3009 RMK AO2,M
BAM,2024-07-23 03:55,-116.8743,40.5990,1382.36,86.00,48.20,27.03,80.00,14.00,0.00,30.08,M,10.00,M,CLR,M,M,M,M,M,M,M,M,M,M,M,M,M,M,83.40,KBAM 230355Z AUTO 08014KT 10SM CLR 30/09 A3008 RMK AO1,M
HTH,2024-07-23 03:55,-118.6315,38.5448,1282.89,78.80,57.20,47.52,130.00,12.00,0.00,30.07,M,10.00,M,CLR,M,M,M,M,M,M,M,M,M,M,M,M,M,M,78.80,KHTH 230355Z AUTO 13012KT 10SM CLR 26/14 A3007 RMK A01,M
10U,2024-07-23 03:55,-116.1876,41.9532,1637.00,78.80,48.20,34.13,130.00,13.00,0.00,30.12,M,10.00,18.00,CLR,M,M,M,M,M,M,M,M,M,M,M,M,M,M,78.80,K10U 230355Z AUTO 13013G18KT 10SM CLR 26/09 A3012 RMK AO2,M
TMT,2024-07-23 03:55,-117.1971,39.4643,1749.34,74.50,50.00,42.11,210.00,12.00,0.00,30.22,M,10.00,M,SCT,M,M,M,12000.00,M,M,M,M,M,M,M,M,M,M,74.50,KTMT 230355Z AUTO 21012KT 10SM SCT120 24/10 A3022 RMK AO2 T02360100,M
INS,2024-07-23 03:55,-115.6733,36.5872,955.00,95.00,44.60,17.78,330.00,10.00,0.00,29.93,1007.10,10.00,M,OVC,M,M,M,13000.00,M,M,M,M,M,M,M,M,M,M,91.06,KINS 230355Z AUTO 33010KT 10SM OVC130 35/07 A2993 RMK AO2 SLP071 T03490070 $,M
EKO,2024-07-23 03:56,-115.7860,40.8242,1367.00,80.00,50.00,35.10,270.00,4.00,0.00,30.16,1014.50,10.00,M,SCT,M,M,M,12000.00,M,M,M,M,M,M,M,M,M,M,79.55,KEKO 230356Z AUTO 27004KT 10SM SCT120 27/10 A3016 RMK AO2 SLP145 T02670100,M
WMC,2024-07-23 03:56,-117.8072,40.9019,1315.00,83.00,51.00,33.04,20.00,6.00,0.02,30.04,1011.10,10.00,M,CLR,M,M,M,M,M,M,M,M,M,M,M,33.00,360.00,2024-07-23 03:14,81.51,KWMC 230356Z AUTO 02006KT 10SM CLR 28/11 A3004 RMK AO2 PK WND 36033/0314 WSHFT 0309 LTG DSNT E RAB13E29 SLP111 P0002 T02830106,M
HND,2024-07-23 03:56,-115.1344,35.9729,742.79,92.00,61.00,35.66,130.00,13.00,T,29.89,1010.00,10.00,24.00,FEW,M,M,M,9000.00,M,M,M,M,M,M,M,27.00,130.00,2024-07-23 03:31,92.12,KHND 230356Z AUTO 13013G24KT 10SM FEW090 33/16 A2989 RMK AO2 PK WND 13027/0331 LTG DSNT E-S RAB18E37 SLP100 P0000 T03330161,M
TPH,2024-07-23 03:56,-117.0904,38.0505,1654.00,72.00,57.00,59.20,60.00,13.00,0.00,30.23,1015.00,10.00,M,BKN,M,M,M,10000.00,M,M,M,M,M,M,M,M,M,M,72.00,KTPH 230356Z AUTO 06013KT 10SM BKN100 22/14 A3023 RMK AO2 SLP150 T02220139,M
LAS,2024-07-23 03:56,-115.1634,36.0719,663.00,97.00,58.00,27.46,150.00,8.00,0.00,29.85,1003.80,10.00,23.00,SCT,BKN,BKN,M,11000.00,18000.00,22000.00,M,M,M,M,M,27.00,140.00,2024-07-23 03:36,96.30,KLAS 230356Z 15008G23KT 10SM SCT110 BKN180 BKN220 36/14 A2985 RMK AO2 PK WND 14027/0336 WSHFT 0303 LTG DSNT SE AND S TSE43 PRESRR SLP038 TS MOVD SE OCNL LTGICCCCG DSNT SE T03610144 $,M
LSV,2024-07-23 03:58,-115.0343,36.2362,570.00,98.60,53.60,22.29,180.00,12.00,0.00,29.78,1005.00,10.00,24.00,CLR,M,M,M,M,M,M,M,M,M,M,M,M,M,M,96.51,KLSV 230358Z AUTO 18012G24KT 10SM CLR 37/12 A2978 RMK AO2 WSHFT 53 SLP050 $,M
RNO,2024-07-23 04:08,-119.7711,39.4839,1341.00,90.00,48.00,23.63,260.00,11.00,0.00,30.05,M,10.00,M,FEW,FEW,M,M,10000.00,15000.00,M,M,M,M,M,M,M,M,M,86.78,KRNO 230408Z COR 26011KT 10SM FEW100 FEW150 32/09 A3005 RMK AO2 TSE08 OCNL LTGIC DSNT NE FU FEW150 CB DSNT NE MOV NE T03220089,M
BVU,2024-07-23 04:15,-114.8611,35.9475,671.00,91.40,60.80,36.08,0.00,0.00,0.00,29.87,M,10.00,12.00,FEW,SCT,BKN,M,3400.00,4700.00,7500.00,M,VCTS,M,M,M,M,M,M,91.40,KBVU 230415Z AUTO 00000G12KT 10SM VCTS FEW034 SCT047 BKN075 33/16 A2987 RMK AO2 LTG DSNT S,M
CXP,2024-07-23 04:15,-119.7326,39.1923,1431.00,84.20,48.20,28.63,0.00,0.00,0.00,30.11,M,10.00,M,CLR,M,M,M,M,M,M,M,M,M,M,M,M,M,M,82.04,KCXP 230415Z AUTO 00000KT 10SM CLR 29/09 A3011 RMK AO2,M
RTS,2024-07-23 04:15,-119.8764,39.6682,1539.00,80.60,46.40,30.07,280.00,6.00,0.00,30.13,M,10.00,M,CLR,M,M,M,M,M,M,M,M,M,M,M,M,M,M,79.56,KRTS 230415Z AUTO 28006KT 10SM CLR 27/08 A3013 RMK AO2,M
05U,2024-07-23 04:15,-116.0051,39.6042,1811.23,66.20,50.00,55.88,0.00,0.00,0.00,30.24,M,10.00,M,CLR,M,M,M,M,M,M,M,M,M,M,M,M,M,M,66.20,K05U 230415Z AUTO 00000KT 10SM CLR 19/10 A3024 RMK A01,M
MEV,2024-07-23 04:15,-119.7500,38.9963,1441.42,77.00,51.80,41.42,130.00,5.00,0.00,30.10,M,10.00,M,CLR,M,M,M,M,M,M,M,M,M,M,M,M,M,M,77.00,KMEV 230415Z AUTO 13005KT 10SM CLR 25/11 A3010 RMK AO2,M
BAM,2024-07-23 04:15,-116.8743,40.5990,1382.36,86.00,50.00,28.90,70.00,8.00,0.00,30.09,M,10.00,M,SCT,M,M,M,12000.00,M,M,M,M,M,M,M,M,M,M,83.62,KBAM 230415Z AUTO 07008KT 10SM SCT120 30/10 A3009 RMK AO1,M
HTH,2024-07-23 04:15,-118.6315,38.5448,1282.89,75.20,55.40,50.17,140.00,13.00,0.00,30.08,M,10.00,M,CLR,M,M,M,M,M,M,M,M,M,M,M,M,M,M,75.20,KHTH 230415Z AUTO 14013KT 10SM CLR 24/13 A3008 RMK A01,M
10U,2024-07-23 04:15,-116.1876,41.9532,1637.00,78.80,48.20,34.13,120.00,12.00,0.00,30.12,M,10.00,M,CLR,M,M,M,M,M,M,M,M,M,M,M,M,M,M,78.80,K10U 230415Z AUTO 12012KT 10SM CLR 26/09 A3012 RMK AO2,M
TMT,2024-07-23 04:15,-117.1971,39.4643,1749.34,75.00,49.00,39.90,190.00,11.00,0.00,30.21,M,10.00,17.00,SCT,M,M,M,12000.00,M,M,M,M,M,M,M,M,M,M,75.00,KTMT 230415Z AUTO 19011G17KT 10SM SCT120 24/09 A3021 RMK AO2 T02380094,M
BVU,2024-07-23 04:35,-114.8611,35.9475,671.00,89.60,62.60,40.69,280.00,7.00,0.00,29.86,M,10.00,M,CLR,M,M,M,M,M,M,M,M,M,M,M,M,M,M,90.32,KBVU 230435Z AUTO 28007KT 10SM CLR 32/17 A2986 RMK AO2 LTG DSNT SE AND SW,M
CXP,2024-07-23 04:35,-119.7326,39.1923,1431.00,82.40,48.20,30.35,70.00,11.00,0.00,30.12,M,10.00,M,CLR,M,M,M,M,M,M,M,M,M,M,M,M,M,M,80.80,KCXP 230435Z AUTO 07011KT 10SM CLR 28/09 A3012 RMK AO2,M
RTS,2024-07-23 04:35,-119.8764,39.6682,1539.00,78.80,46.40,31.90,280.00,6.00,0.00,30.13,M,10.00,M,CLR,M,M,M,M,M,M,M,M,M,M,M,M,M,M,78.80,KRTS 230435Z AUTO 28006KT 10SM CLR 26/08 A3013 RMK AO2,M
05U,2024-07-23 04:35,-116.0051,39.6042,1811.23,64.40,50.00,59.50,0.00,0.00,0.00,30.25,M,10.00,M,CLR,M,M,M,M,M,M,M,M,M,M,M,M,M,M,64.40,K05U 230435Z AUTO 00000KT 10SM CLR 18/10 A3025 RMK A01,M
MEV,2024-07-23 04:35,-119.7500,38.9963,1441.42,77.00,50.00,38.74,250.00,3.00,0.00,30.11,M,10.00,M,CLR,M,M,M,M,M,M,M,M,M,M,M,M,M,M,77.00,KMEV 230435Z AUTO 25003KT 10SM CLR 25/10 A3011 RMK AO2,M
BAM,2024-07-23 04:35,-116.8743,40.5990,1382.36,86.00,50.00,28.90,80.00,3.00,0.00,30.09,M,10.00,M,BKN,M,M,M,12000.00,M,M,M,M,M,M,M,M,M,M,83.62,KBAM 230435Z AUTO 08003KT 10SM BKN120 30/10 A3009 RMK AO1,M
HTH,2024-07-23 04:35,-118.6315,38.5448,1282.89,77.00,55.40,47.25,140.00,11.00,0.00,30.09,M,10.00,M,CLR,M,M,M,M,M,M,M,M,M,M,M,M,M,M,77.00,KHTH 230435Z AUTO 14011KT 10SM CLR 25/13 A3009 RMK A01,M
10U,2024-07-23 04:35,-116.1876,41.9532,1637.00,77.00,46.40,33.85,140.00,10.00,0.00,30.13,M,10.00,17.00,CLR,M,M,M,M,M,M,M,M,M,M,M,M,M,M,77.00,K10U 230435Z AUTO 14010G17KT 10SM CLR 25/08 A3013 RMK AO2,M
TMT,2024-07-23 04:35,-117.1971,39.4643,1749.34,74.00,48.60,40.64,180.00,6.00,0.00,30.22,M,10.00,M,CLR,M,M,M,M,M,M,M,M,M,M,M,M,M,M,74.00,KTMT 230435Z AUTO 18006KT 10SM CLR 23/09 A3022 RMK AO2 T02330092,M
LAS,2024-07-23 04:47,-115.1634,36.0719,663.00,98.00,58.00,26.63,M,6.00,0.00,29.87,M,10.00,M,FEW,BKN,BKN,M,11000.00,19000.00,22000.00,M,M,M,M,M,M,M,M,97.42,KLAS 230447Z VRB06KT 10SM FEW110 BKN190 BKN220 37/14 A2987 RMK AO2 LTG DSNT SE AND NW T03670144 $,M
CXP,2024-07-23 04:50,-119.7326,39.1923,1431.00,82.40,46.40,28.36,80.00,10.00,0.00,30.13,M,10.00,M,CLR,M,M,M,M,M,M,M,M,M,M,M,M,M,M,80.64,KCXP 230450Z AUTO 08010KT 10SM CLR 28/08 A3013 RMK AO2,M
P68,2024-07-23 04:53,-116.0056,39.6014,1993.00,64.00,52.00,64.97,190.00,7.00,0.00,30.22,1014.00,M,M,M,M,M,M,M,M,M,M,M,M,M,M,M,M,M,64.00,KP68 230453Z AUTO 19007KT 18/11 A3022 RMK AO1 SLP140 T01780111,M
DRA,2024-07-23 04:53,-116.0278,36.6206,1009.00,90.00,54.00,29.51,40.00,15.00,0.01,29.98,1009.10,10.00,23.00,FEW,M,M,M,12000.00,M,M,M,M,M,M,M,26.00,30.00,2024-07-23 04:13,87.82,KDRA 230453Z AUTO 04015G23KT 10SM FEW120 32/12 A2998 RMK AO2 PK WND 03026/0413 RAE15 SLP091 P0001 T03220122,M
ELY,2024-07-23 04:53,-114.8453,39.2950,1909.00,68.00,50.00,52.51,310.00,5.00,0.00,30.26,1013.00,10.00,M,CLR,M,M,M,M,M,M,M,M,M,M,M,M,M,M,68.00,KELY 230453Z AUTO 31005KT 10SM CLR 20/10 A3026 RMK AO2 SLP130 T02000100 $,M
VGT,2024-07-23 04:53,-115.1933,36.2111,667.00,98.00,58.00,26.63,270.00,3.00,0.00,29.88,1009.90,10.00,M,CLR,M,M,M,M,M,M,M,M,M,M,M,M,M,M,97.42,KVGT 230453Z AUTO 27003KT 10SM CLR 37/14 A2988 RMK AO2 LTG DSNT W AND NW SLP099 T03670144,M
LOL,2024-07-23 04:53,-118.5701,40.0684,1192.43,85.00,51.00,30.97,230.00,13.00,0.00,30.02,1011.20,10.00,24.00,FEW,M,M,M,12000.00,M,M,M,M,M,M,M,26.00,210.00,2024-07-23 04:19,82.97,KLOL 230453Z AUTO 23013G24KT 10SM FEW120 29/11 A3002 RMK AO2 PK WND 21026/0419 LTG DSNT S-NW SLP112 T02940106,M
NFL,2024-07-23 04:54,-118.7010,39.4166,1199.00,86.00,50.00,28.90,150.00,12.00,0.00,30.04,1014.10,10.00,M,SCT,BKN,BKN,M,8000.00,12000.00,25000.00,M,M,M,M,M,M,M,M,83.62,KNFL 230454Z 15012KT 10SM SCT080 BKN120 BKN250 30/10 A3004 RMK AO2 SLP141 OCNL LTGIC DSNT NW-N CB DSNT NW-N T03000100,M
BVU,2024-07-23 04:55,-114.8611,35.9475,671.00,91.40,60.80,36.08,0.00,0.00,0.00,29.86,M,10.00,M,CLR,M,M,M,M,M,M,M,M,M,M,M,M,M,M,91.40,KBVU 230455Z AUTO 00000KT 10SM CLR 33/16 A2986 RMK AO2,M
INS,2024-07-23 04:55,-115.6733,36.5872,955.00,94.00,46.80,19.94,350.00,14.00,0.00,29.99,1009.10,10.00,19.00,BKN,BKN,OVC,M,12000.00,15000.00,18000.00,M,M,M,M,M,M,M,M,90.37,KINS 230455Z AUTO 35014G19KT 10SM BKN120 BKN150 OVC180 35/08 A2999 RMK AO2 SLP091 T03450082 $,M
RNO,2024-07-23 04:55,-119.7711,39.4839,1341.00,88.00,49.00,26.13,20.00,6.00,0.00,30.08,1011.50,10.00,M,FEW,M,M,M,10000.00,M,M,M,M,M,M,M,M,M,M,85.14,KRNO 230455Z 02006KT 10SM FEW100 31/09 A3008 RMK AO2 TSE08 SLP115 T03110094,M
RTS,2024-07-23 04:55,-119.8764,39.6682,1539.00,78.80,46.40,31.90,270.00,6.00,0.00,30.14,M,10.00,M,CLR,M,M,M,M,M,M,M,M,M,M,M,M,M,M,78.80,KRTS 230455Z AUTO 27006KT 10SM CLR 26/08 A3014 RMK AO2,M
05U,2024-07-23 04:55,-116.0051,39.6042,1811.23,62.60,51.80,67.75,0.00,0.00,0.00,30.24,M,10.00,M,CLR,M,M,M,M,M,M,M,M,M,M,M,M,M,M,62.60,K05U 230455Z AUTO 00000KT 10SM CLR 17/11 A3024 RMK A01,M
MEV,2024-07-23 04:55,-119.7500,38.9963,1441.42,75.20,51.80,43.97,M,4.00,0.00,30.12,M,10.00,M,CLR,M,M,M,M,M,M,M,M,M,M,M,M,M,M,75.20,KMEV 230455Z AUTO VRB04KT 10SM CLR 24/11 A3012 RMK AO2,M
BAM,2024-07-23 04:55,-116.8743,40.5990,1382.36,86.00,48.20,27.03,180.00,6.00,0.00,30.09,M,10.00,M,BKN,M,M,M,12000.00,M,M,M,M,M,M,M,M,M,M,83.40,KBAM 230455Z AUTO 18006KT 10SM BKN120 30/09 A3009 RMK AO1,M
HTH,2024-07-23 04:55,-118.6315,38.5448,1282.89,75.20,57.20,53.55,150.00,15.00,0.00,30.09,M,10.00,M,CLR,M,M,M,M,M,M,M,M,M,M,M,M,M,M,75.20,KHTH 230455Z AUTO 15015KT 10SM CLR 24/14 A3009 RMK A01,M
10U,2024-07-23 04:55,-116.1876,41.9532,1637.00,77.00,46.40,33.85,150.00,10.00,0.00,30.14,M,10.00,19.00,CLR,M,M,M,M,M,M,M,M,M,M,M,M,M,M,77.00,K10U 230455Z AUTO 15010G19KT 10SM CLR 25/08 A3014 RMK AO2,M
TMT,2024-07-23 04:55,-117.1971,39.4643,1749.34,72.30,49.50,44.51,200.00,8.00,0.00,30.22,M,10.00,M,CLR,M,M,M,M,M,M,M,M,M,M,M,M,M,M,72.30,KTMT 230455Z AUTO 20008KT 10SM CLR 22/10 A3022 RMK AO2 T02240097,M
LSV,2024-07-23 04:55,-115.0343,36.2362,570.00,93.20,61.30,34.72,50.00,7.00,0.00,29.82,1006.50,10.00,M,SCT,M,M,M,19000.00,M,M,M,M,M,M,M,M,M,M,93.55,KLSV 230455Z AUTO 05007KT 10SM SCT190 34/16 A2982 RMK AO2 SLP065 T03400163 $,M
EKO,2024-07-23 04:56,-115.7860,40.8242,1367.00,78.00,52.00,40.36,170.00,8.00,0.00,30.15,1014.00,10.00,M,SCT,BKN,M,M,9000.00,11000.00,M,M,M,M,M,M,M,M,M,78.00,KEKO 230456Z AUTO 17008KT 10SM SCT090 BKN110 26/11 A3015 RMK AO2 SLP140 T02560111,M
WMC,2024-07-23 04:56,-117.8072,40.9019,1315.00,80.00,52.00,37.79,220.00,7.00,0.00,30.06,1011.50,10.00,M,CLR,M,M,M,M,M,M,M,M,M,M,M,M,M,M,79.75,KWMC 230456Z AUTO 22007KT 10SM CLR 27/11 A3006 RMK AO2 LTG DSNT SW SLP115 T02670111,M
HND,2024-07-23 04:56,-115.1344,35.9729,742.79,94.00,59.00,31.21,160.00,13.00,0.00,29.90,1010.30,10.00,M,CLR,M,M,M,M,M,M,M,M,M,M,M,M,M,M,93.42,KHND 230456Z AUTO 16013KT 10SM CLR 34/15 A2990 RMK AO2 SLP103 T03440150,M
TPH,2024-07-23 04:56,-117.0904,38.0505,1654.00,72.00,55.00,55.06,70.00,7.00,0.00,30.25,1015.10,10.00,M,CLR,M,M,M,M,M,M,M,M,M,M,M,M,M,M,72.00,KTPH 230456Z AUTO 07007KT 10SM CLR 22/13 A3025 RMK AO2 SLP151 T02220128,M
LAS,2024-07-23 04:56,-115.1634,36.0719,663.00,99.00,56.00,24.04,190.00,7.00,0.00,29.87,1004.40,10.00,M,FEW,BKN,BKN,M,11000.00,19000.00,22000.00,M,M,M,M,M,M,M,M,97.74,KLAS 230456Z 19007KT 10SM FEW110 BKN190 BKN220 37/13 A2987 RMK AO2 LTG DSNT W SLP044 T03720133 $,M
INS,2024-07-23 04:56,-115.6733,36.5872,955.00,95.00,48.20,20.38,350.00,13.00,0.00,29.99,1009.10,10.00,19.00,BKN,BKN,OVC,M,12000.00,15000.00,18000.00,M,-DZ,M,M,M,M,M,M,91.56,KINS 230456Z AUTO 35013G19KT 10SM -DZ BKN120 BKN150 OVC180 35/09 A2999 RMK AO2 DZB55 SLP091 $,M
HTH,2024-07-23 05:00,-118.6315,38.5448,1282.89,75.20,55.40,50.17,140.00,13.00,0.00,30.10,M,10.00,18.00,CLR,M,M,M,M,M,M,M,M,M,M,M,M,M,M,75.20,KHTH 230500Z AUTO 14013G18KT 10SM CLR 24/13 A3010 RMK A01,M
10U,2024-07-23 05:00,-116.1876,41.9532,1637.00,77.00,46.40,33.85,140.00,10.00,0.00,30.14,M,10.00,18.00,CLR,M,M,M,M,M,M,M,M,M,M,M,M,M,M,77.00,K10U 230500Z AUTO 14010G18KT 10SM CLR 25/08 A3014 RMK AO2,M
BVU,2024-07-23 05:15,-114.8611,35.9475,671.00,91.40,59.00,33.84,260.00,6.00,0.00,29.86,M,10.00,M,CLR,M,M,M,M,M,M,M,M,M,M,M,M,M,M,90.68,KBVU 230515Z AUTO 26006KT 10SM CLR 33/15 A2986 RMK AO2 LTG DSNT W,M
CXP,2024-07-23 05:15,-119.7326,39.1923,1431.00,82.40,46.40,28.36,110.00,4.00,0.00,30.14,M,10.00,M,CLR,M,M,M,M,M,M,M,M,M,M,M,M,M,M,80.64,KCXP 230515Z AUTO 11004KT 10SM CLR 28/08 A3014 RMK AO2,M
RTS,2024-07-23 05:15,-119.8764,39.6682,1539.00,78.80,46.40,31.90,340.00,7.00,0.00,30.15,M,10.00,M,CLR,M,M,M,M,M,M,M,M,M,M,M,M,M,M,78.80,KRTS 230515Z AUTO 34007KT 10SM CLR 26/08 A3015 RMK AO2,M
05U,2024-07-23 05:15,-116.0051,39.6042,1811.23,66.20,50.00,55.88,190.00,4.00,0.00,30.24,M,10.00,M,FEW,M,M,M,12000.00,M,M,M,M,M,M,M,M,M,M,66.20,K05U 230515Z AUTO 19004KT 10SM FEW120 19/10 A3024 RMK A01,M
MEV,2024-07-23 05:15,-119.7500,38.9963,1441.42,71.60,51.80,49.64,140.00,5.00,0.00,30.12,M,10.00,M,CLR,M,M,M,M,M,M,M,M,M,M,M,M,M,M,71.60,KMEV 230515Z AUTO 14005KT 10SM CLR 22/11 A3012 RMK AO2,M
BAM,2024-07-23 05:15,-116.8743,40.5990,1382.36,82.40,50.00,32.46,0.00,0.00,0.00,30.11,M,10.00,M,SCT,M,M,M,12000.00,M,M,M,M,M,M,M,M,M,M,80.99,KBAM 230515Z AUTO 00000KT 10SM SCT120 28/10 A3011 RMK AO1,M
TMT,2024-07-23 05:15,-117.1971,39.4643,1749.34,71.20,50.50,47.95,220.00,7.00,0.00,30.24,M,10.00,M,CLR,M,M,M,M,M,M,M,M,M,M,M,M,M,M,71.20,KTMT 230515Z AUTO 22007KT 10SM CLR 22/10 A3024 RMK AO2 T02180103,M
INS,2024-07-23 05:23,-115.6733,36.5872,955.00,91.40,50.00,24.37,360.00,8.00,0.00,30.01,1009.80,10.00,M,OVC,M,M,M,12000.00,M,M,M,M,M,M,M,M,M,M,88.36,KINS 230523Z AUTO 36008KT 10SM OVC120 33/10 A3001 RMK AO2 DZB0455E0457RAB0457E23 SLP098 $,M
LAS,2024-07-23 05:27,-115.1634,36.0719,663.00,99.00,55.00,23.18,200.00,8.00,0.00,29.87,M,10.00,M,FEW,BKN,BKN,M,11000.00,19000.00,22000.00,M,M,M,M,M,M,M,M,97.39,KLAS 230527Z 20008KT 10SM FEW110 BKN190 BKN220 37/13 A2987 RMK AO2 LTG DSNT W T03720128 $,M
WMC,2024-07-23 05:34,-117.8072,40.9019,1315.00,78.00,50.00,37.48,200.00,6.00,0.00,30.09,M,10.00,M,CLR,M,M,M,M,M,M,M,VCTS,M,M,M,M,M,M,78.00,KWMC 230534Z AUTO 20006KT 10SM VCTS CLR 26/10 A3009 RMK AO2 T02560100,M
BVU,2024-07-23 05:35,-114.8611,35.9475,671.00,93.20,57.20,29.99,260.00,8.00,0.00,29.86,M,10.00,M,CLR,M,M,M,M,M,M,M,M,M,M,M,M,M,M,91.91,KBVU 230535Z AUTO 26008KT 10SM CLR 34/14 A2986 RMK AO2 LTG DSNT S AND W,M
CXP,2024-07-23 05:35,-119.7326,39.1923,1431.00,80.60,48.20,32.18,50.00,8.00,0.00,30.13,M,10.00,M,CLR,M,M,M,M,M,M,M,M,M,M,M,M,M,M,79.71,KCXP 230535Z AUTO 05008KT 10SM CLR 27/09 A3013 RMK AO2,M
RTS,2024-07-23 05:35,-119.8764,39.6682,1539.00,78.80,46.40,31.90,280.00,8.00,0.00,30.15,M,10.00,M,CLR,M,M,M,M,M,M,M,M,M,M,M,M,M,M,78.80,KRTS 230535Z AUTO 28008KT 10SM CLR 26/08 A3015 RMK AO2,M
05U,2024-07-23 05:35,-116.0051,39.6042,1811.23,68.00,48.20,49.10,230.00,8.00,0.00,30.25,M,10.00,M,FEW,M,M,M,12000.00,M,M,M,M,M,M,M,M,M,M,68.00,K05U 230535Z AUTO 23008KT 10SM FEW120 20/09 A3025 RMK A01,M
MEV,2024-07-23 05:35,-119.7500,38.9963,1441.42,73.40,50.00,43.69,50.00,5.00,0.00,30.12,M,10.00,M,CLR,M,M,M,M,M,M,M,M,M,M,M,M,M,M,73.40,KMEV 230535Z AUTO 05005KT 10SM CLR 23/10 A3012 RMK AO2,M
HTH,2024-07-23 05:35,-118.6315,38.5448,1282.89,75.20,55.40,50.17,200.00,6.00,0.00,30.11,M,10.00,M,CLR,M,M,M,M,M,M,M,M,M,M,M,M,M,M,75.20,KHTH 230535Z AUTO 20006KT 10SM CLR 24/13 A3011 RMK A01,M
10U,2024-07-23 05:35,-116.1876,41.9532,1637.00,75.20,44.60,33.57,170.00,6.00,0.00,30.16,M,10.00,11.00,CLR,M,M,M,M,M,M,M,M,M,M,M,M,M,M,75.20,K10U 230535Z AUTO 17006G11KT 10SM CLR 24/07 A3016 RMK AO2,M
BAM,2024-07-23 05:35,-116.8743,40.5990,1382.36,82.40,50.00,32.46,350.00,7.00,0.00,30.13,M,10.00,M,CLR,M,M,M,M,M,M,M,M,M,M,M,M,M,M,80.99,KBAM 230535Z AUTO 35007KT 10SM CLR 28/10 A3013 RMK AO1,M
TMT,2024-07-23 05:35,-117.1971,39.4643,1749.34,70.50,50.00,48.20,230.00,6.00,0.00,30.24,M,10.00,M,BKN,M,M,M,12000.00,M,M,M,M,M,M,M,M,M,M,70.50,KTMT 230535Z AUTO 23006KT 10SM BKN120 21/10 A3024 RMK AO2 T02140101,M
WMC,2024-07-23 05:49,-117.8072,40.9019,1315.00,82.00,50.00,32.88,170.00,18.00,0.00,30.11,M,10.00,27.00,FEW,SCT,M,M,6500.00,10000.00,M,M,M,M,M,M,27.00,160.00,2024-07-23 05:47,80.73,KWMC 230549Z AUTO 17018G27KT 10SM FEW065 SCT100 28/10 A3011 RMK AO2 PK WND 16027/0547 T02780100,M
P68,2024-07-23 05:53,-116.0056,39.6014,1993.00,70.00,48.00,45.50,190.00,9.00,0.00,30.23,1013.90,M,M,M,M,M,M,M,M,M,M,M,M,M,M,M,M,M,70.00,KP68 230553Z AUTO 19009KT 21/09 A3023 RMK AO1 SLP139 T02110089 10256 20172 51009,M
DRA,2024-07-23 05:53,-116.0278,36.6206,1009.00,88.00,54.00,31.43,60.00,10.00,0.00,30.01,1010.20,10.00,21.00,BKN,M,M,M,12000.00,M,M,M,M,M,M,M,29.00,50.00,2024-07-23 05:21,85.98,KDRA 230553Z AUTO 06010G21KT 10SM BKN120 31/12 A3001 RMK AO2 PK WND 05029/0521 SLP102 60011 T03110122 10383 20272 51034,M
ELY,2024-07-23 05:53,-114.8453,39.2950,1909.00,66.00,50.00,56.27,110.00,7.00,0.00,30.27,1013.20,10.00,M,FEW,M,M,M,11000.00,M,M,M,M,M,M,M,M,M,M,66.00,KELY 230553Z AUTO 11007KT 10SM FEW110 19/10 A3027 RMK AO2 SLP132 T01890100 10278 20189 51015 $,M
VGT,2024-07-23 05:53,-115.1933,36.2111,667.00,97.00,58.00,27.46,330.00,7.00,0.00,29.89,1010.40,10.00,M,CLR,M,M,M,M,M,M,M,M,M,M,M,M,M,M,96.30,KVGT 230553Z AUTO 33007KT 10SM CLR 36/14 A2989 RMK AO2 LTG DSNT SW AND W SLP104 T03610144 10428 20361 51029,M
LOL,2024-07-23 05:53,-118.5701,40.0684,1192.43,82.00,54.00,38.11,350.00,9.00,0.03,30.07,1013.00,10.00,M,FEW,BKN,BKN,M,7500.00,9500.00,12000.00,M,M,M,M,M,26.00,300.00,2024-07-23 05:16,81.24,KLOL 230553Z AUTO 35009KT 10SM FEW075 BKN095 BKN120 28/12 A3007 RMK AO2 PK WND 30026/0516 LTG DSNT N RAB0459E42 SLP130 P0003 60003 T02780122 10389 20272 53038,M
NFL,2024-07-23 05:54,-118.7010,39.4166,1199.00,86.00,50.00,28.90,90.00,5.00,0.00,30.05,1014.40,10.00,M,SCT,BKN,BKN,M,8000.00,12000.00,25000.00,M,M,M,M,M,M,M,M,83.62,KNFL 230554Z 09005KT 10SM SCT080 BKN120 BKN250 30/10 A3005 RMK AO2 SLP144 OCNL LTGIC DSNT NW-N CB DSNT NW-N T03000100 10389 20294 51014,M
BVU,2024-07-23 05:55,-114.8611,35.9475,671.00,93.20,57.20,29.99,260.00,5.00,0.00,29.86,M,10.00,M,CLR,M,M,M,M,M,M,M,M,M,M,M,M,M,M,91.91,KBVU 230555Z AUTO 26005KT 10SM CLR 34/14 A2986 RMK AO2,M
CXP,2024-07-23 05:55,-119.7326,39.1923,1431.00,80.60,48.20,32.18,220.00,4.00,0.00,30.14,M,10.00,M,CLR,M,M,M,M,M,M,M,M,M,M,M,M,M,M,79.71,KCXP 230555Z AUTO 22004KT 10SM CLR 27/09 A3014 RMK AO2,M
RNO,2024-07-23 05:55,-119.7711,39.4839,1341.00,85.00,49.00,28.75,0.00,0.00,0.00,30.09,1011.90,10.00,M,FEW,SCT,M,M,10000.00,17000.00,M,M,M,M,M,M,M,M,M,82.71,KRNO 230555Z 00000KT 10SM FEW100 SCT170 29/09 A3009 RMK AO2 SLP119 T02940094 10378 20294 51020,M
RTS,2024-07-23 05:55,-119.8764,39.6682,1539.00,77.00,46.40,33.85,310.00,8.00,0.00,30.16,M,10.00,M,CLR,M,M,M,M,M,M,M,M,M,M,M,M,M,M,77.00,KRTS 230555Z AUTO 31008KT 10SM CLR 25/08 A3016 RMK AO2,M
05U,2024-07-23 05:55,-116.0051,39.6042,1811.23,69.80,46.40,43.13,0.00,0.00,0.00,30.25,M,10.00,M,SCT,M,M,M,12000.00,M,M,M,M,M,M,M,M,M,M,69.80,K05U 230555Z AUTO 00000KT 10SM SCT120 21/08 A3025 RMK A01,M
MEV,2024-07-23 05:55,-119.7500,38.9963,1441.42,69.80,53.60,56.38,0.00,0.00,0.00,30.12,M,10.00,M,CLR,M,M,M,M,M,M,M,M,M,M,M,M,M,M,69.80,KMEV 230555Z AUTO 00000KT 10SM CLR 21/12 A3012 RMK AO2,M
HTH,2024-07-23 05:55,-118.6315,38.5448,1282.89,75.20,55.40,50.17,220.00,5.00,0.00,30.11,M,10.00,M,FEW,M,M,M,12000.00,M,M,M,M,M,M,M,M,M,M,75.20,KHTH 230555Z AUTO 22005KT 10SM FEW120 24/13 A3011 RMK A01,M
10U,2024-07-23 05:55,-116.1876,41.9532,1637.00,75.20,44.60,33.57,160.00,6.00,0.00,30.17,M,10.00,M,CLR,M,M,M,M,M,M,M,M,M,M,M,M,M,M,75.20,K10U 230555Z AUTO 16006KT 10SM CLR 24/07 A3017 RMK AO2,M
BAM,2024-07-23 05:55,-116.8743,40.5990,1382.36,84.20,50.00,30.62,320.00,8.00,0.00,30.14,M,10.00,M,BKN,M,M,M,12000.00,M,M,M,M,M,M,M,M,M,M,82.24,KBAM 230555Z AUTO 32008KT 10SM BKN120 29/10 A3014 RMK AO1,M
TMT,2024-07-23 05:55,-117.1971,39.4643,1749.34,69.00,51.00,52.66,320.00,4.00,0.00,30.25,M,10.00,M,BKN,M,M,M,11000.00,M,M,M,M,M,M,M,M,M,M,69.00,KTMT 230555Z AUTO 32004KT 10SM BKN110 21/11 A3025 RMK AO2 T02050105 10324 20203,M
INS,2024-07-23 05:55,-115.6733,36.5872,955.00,91.00,49.00,23.77,180.00,5.00,T,30.01,1009.80,10.00,M,FEW,BKN,M,M,11000.00,15000.00,M,M,M,M,M,M,M,M,M,87.83,KINS 230555Z AUTO 18005KT 10SM FEW110 BKN150 33/10 A3001 RMK AO2 LTG DSNT N AND S DZB0455E0457RAB0457E23 SLP098 P0000 60000 T03280095 10387 20324 52037 $,M
LSV,2024-07-23 05:55,-115.0343,36.2362,570.00,94.50,59.00,30.73,80.00,7.00,0.00,29.83,1006.70,10.00,M,BKN,OVC,M,M,14000.00,16000.00,M,M,M,M,M,M,M,M,M,93.96,KLSV 230555Z AUTO 08007KT 10SM BKN140 OVC160 35/15 A2983 RMK AO2 SLP067 T03470150 10428 20340 52024 $,M
EKO,2024-07-23 05:56,-115.7860,40.8242,1367.00,80.00,50.00,35.10,100.00,6.00,0.00,30.14,1013.40,10.00,M,SCT,OVC,M,M,8000.00,10000.00,M,M,M,M,M,M,M,M,M,79.55,KEKO 230556Z AUTO 10006KT 10SM SCT080 OVC100 27/10 A3014 RMK AO2 SLP134 T02670100 10339 20250 50009,M
WMC,2024-07-23 05:56,-117.8072,40.9019,1315.00,81.00,51.00,35.25,180.00,17.00,0.00,30.11,1013.20,10.00,27.00,SCT,BKN,M,M,6000.00,10000.00,M,M,M,M,M,M,27.00,160.00,2024-07-23 05:47,80.22,KWMC 230556Z AUTO 18017G27KT 10SM SCT060 BKN100 27/11 A3011 RMK AO2 PK WND 16027/0547 SLP132 60002 T02720106 10389 20250 53030,M
HND,2024-07-23 05:56,-115.1344,35.9729,742.79,95.00,58.00,29.20,270.00,10.00,0.00,29.93,1011.20,10.00,M,CLR,M,M,M,M,M,M,M,M,M,M,M,M,M,M,94.11,KHND 230556Z AUTO 27010KT 10SM CLR 35/14 A2993 RMK AO2 LTG DSNT W AND NW SLP112 60000 T03500144 10406 20328 53020,M
TPH,2024-07-23 05:56,-117.0904,38.0505,1654.00,70.00,55.00,58.94,0.00,0.00,0.00,30.23,1014.70,10.00,M,CLR,M,M,M,M,M,M,M,M,M,M,M,M,M,M,70.00,KTPH 230556Z AUTO 00000KT 10SM CLR 21/13 A3023 RMK AO2 SLP147 60011 T02110128 10350 20211 50007,M
LAS,2024-07-23 05:56,-115.1634,36.0719,663.00,99.00,57.00,24.92,310.00,9.00,0.00,29.88,1004.70,10.00,M,FEW,OVC,M,M,11000.00,15000.00,M,M,M,M,M,M,M,M,M,98.12,KLAS 230556Z 31009KT 10SM FEW110 OVC150 37/14 A2988 RMK AO2 LTG DSNT W SLP047 T03720139 10428 20361 $,M
BVU,2024-07-23 06:15,-114.8611,35.9475,671.00,93.20,57.20,29.99,310.00,7.00,0.00,29.87,M,10.00,M,FEW,M,M,M,11000.00,M,M,M,M,M,M,M,M,M,M,91.91,KBVU 230615Z AUTO 31007KT 10SM FEW110 34/14 A2987 RMK AO2,M
CXP,2024-07-23 06:15,-119.7326,39.1923,1431.00,78.80,48.20,34.13,0.00,0.00,0.00,30.14,M,10.00,M,CLR,M,M,M,M,M,M,M,M,M,M,M,M,M,M,78.80,KCXP 230615Z AUTO 00000KT 10SM CLR 26/09 A3014 RMK AO2,M
RTS,2024-07-23 06:15,-119.8764,39.6682,1539.00,75.20,46.40,35.94,0.00,0.00,0.00,30.16,M,10.00,M,CLR,M,M,M,M,M,M,M,M,M,M,M,M,M,M,75.20,KRTS 230615Z AUTO 00000KT 10SM CLR 24/08 A3016 RMK AO2,M
05U,2024-07-23 06:15,-116.0051,39.6042,1811.23,69.80,50.00,49.37,190.00,6.00,0.00,30.26,M,10.00,M,SCT,M,M,M,12000.00,M,M,M,M,M,M,M,M,M,M,69.80,K05U 230615Z AUTO 19006KT 10SM SCT120 21/10 A3026 RMK A01,M
MEV,2024-07-23 06:15,-119.7500,38.9963,1441.42,71.60,51.80,49.64,0.00,0.00,0.00,30.12,M,10.00,M,CLR,M,M,M,M,M,M,M,M,M,M,M,M,M,M,71.60,KMEV 230615Z AUTO 00000KT 10SM CLR 22/11 A3012 RMK AO2,M
BAM,2024-07-23 06:15,-116.8743,40.5990,1382.36,82.40,51.80,34.69,0.00,0.00,0.00,30.15,M,10.00,M,SCT,M,M,M,12000.00,M,M,M,M,M,M,M,M,M,M,81.20,KBAM 230615Z AUTO 00000KT 10SM SCT120 28/11 A3015 RMK AO1,M
HTH,2024-07-23 06:15,-118.6315,38.5448,1282.89,75.20,57.20,53.55,0.00,0.00,0.00,30.11,M,10.00,M,CLR,M,M,M,M,M,M,M,M,M,M,M,M,M,M,75.20,KHTH 230615Z AUTO 00000KT 10SM CLR 24/14 A3011 RMK A01,M
10U,2024-07-23 06:15,-116.1876,41.9532,1637.00,71.60,46.40,40.57,60.00,8.00,0.00,30.18,M,10.00,M,SCT,M,M,M,12000.00,M,M,M,M,M,M,M,M,M,M,71.60,K10U 230615Z AUTO 06008KT 10SM SCT120 22/08 A3018 RMK AO2,M
TMT,2024-07-23 06:15,-117.1971,39.4643,1749.34,69.00,51.60,53.84,270.00,5.00,0.00,30.26,M,10.00,M,OVC,M,M,M,11000.00,M,M,M,M,M,M,M,M,M,M,69.00,KTMT 230615Z AUTO 27005KT 10SM OVC110 21/11 A3026 RMK AO2 T02060109,M
BVU,2024-07-23 06:35,-114.8611,35.9475,671.00,95.00,55.40,26.58,320.00,11.00,0.00,29.87,M,10.00,18.00,CLR,M,M,M,M,M,M,M,M,M,M,M,M,M,M,93.22,KBVU 230635Z AUTO 32011G18KT 10SM CLR 35/13 A2987 RMK AO2,M
CXP,2024-07-23 06:35,-119.7326,39.1923,1431.00,78.80,48.20,34.13,0.00,0.00,0.00,30.14,M,10.00,M,CLR,M,M,M,M,M,M,M,M,M,M,M,M,M,M,78.80,KCXP 230635Z AUTO 00000KT 10SM CLR 26/09 A3014 RMK AO2,M
RTS,2024-07-23 06:35,-119.8764,39.6682,1539.00,75.20,46.40,35.94,60.00,3.00,0.00,30.17,M,10.00,M,CLR,M,M,M,M,M,M,M,M,M,M,M,M,M,M,75.20,KRTS 230635Z AUTO 06003KT 10SM CLR 24/08 A3017 RMK AO2,M
05U,2024-07-23 06:35,-116.0051,39.6042,1811.23,69.80,50.00,49.37,0.00,0.00,0.00,30.27,M,10.00,M,SCT,M,M,M,12000.00,M,M,M,M,M,M,M,M,M,M,69.80,K05U 230635Z AUTO 00000KT 10SM SCT120 21/10 A3027 RMK A01,M
MEV,2024-07-23 06:35,-119.7500,38.9963,1441.42,68.00,50.00,52.51,0.00,0.00,0.00,30.12,M,10.00,M,CLR,M,M,M,M,M,M,M,M,M,M,M,M,M,M,68.00,KMEV 230635Z AUTO 00000KT 10SM CLR 20/10 A3012 RMK AO2,M
BAM,2024-07-23 06:35,-116.8743,40.5990,1382.36,82.40,50.00,32.46,220.00,4.00,0.00,30.15,M,10.00,M,SCT,M,M,M,12000.00,M,M,M,M,M,M,M,M,M,M,80.99,KBAM 230635Z AUTO 22004KT 10SM SCT120 28/10 A3015 RMK AO1,M
HTH,2024-07-23 06:35,-118.6315,38.5448,1282.89,73.40,59.00,60.67,70.00,5.00,0.00,30.11,M,10.00,M,CLR,M,M,M,M,M,M,M,M,M,M,M,M,M,M,73.40,KHTH 230635Z AUTO 07005KT 10SM CLR 23/15 A3011 RMK A01,M
10U,2024-07-23 06:35,-116.1876,41.9532,1637.00,68.00,46.40,45.88,50.00,5.00,0.00,30.19,M,10.00,M,FEW,M,M,M,12000.00,M,M,M,M,M,M,M,M,M,M,68.00,K10U 230635Z AUTO 05005KT 10SM FEW120 20/08 A3019 RMK AO2,M
TMT,2024-07-23 06:35,-117.1971,39.4643,1749.34,69.60,50.00,49.71,290.00,6.00,0.00,30.26,M,10.00,M,OVC,M,M,M,11000.00,M,M,M,M,M,M,M,M,M,M,69.60,KTMT 230635Z AUTO 29006KT 10SM OVC110 21/10 A3026 RMK AO2 T02090101,M
DRA,2024-07-23 06:53,-116.0278,36.6206,1009.00,87.00,56.00,34.90,110.00,9.00,0.00,30.02,1010.30,10.00,M,FEW,SCT,BKN,M,5500.00,7000.00,10000.00,M,M,M,M,M,M,M,M,85.54,KDRA 230653Z AUTO 11009KT 10SM FEW055 SCT070 BKN100 31/13 A3002 RMK AO2 SLP103 T03060133,M
ELY,2024-07-23 06:53,-114.8453,39.2950,1909.00,65.00,50.00,58.26,310.00,5.00,0.00,30.28,1013.50,10.00,M,BKN,M,M,M,11000.00,M,M,M,M,M,M,M,M,M,M,65.00,KELY 230653Z AUTO 31005KT 10SM BKN110 18/10 A3028 RMK AO2 SLP135 T01830100 $,M
VGT,2024-07-23 06:53,-115.1933,36.2111,667.00,98.00,53.00,22.21,320.00,15.00,0.00,29.89,1010.20,10.00,23.00,CLR,M,M,M,M,M,M,M,M,M,M,M,M,M,M,95.69,KVGT 230653Z AUTO 32015G23KT 10SM CLR 37/12 A2989 RMK AO2 LTG DSNT SW SLP102 T03670117,M
LOL,2024-07-23 06:53,-118.5701,40.0684,1192.43,79.00,56.00,45.20,70.00,3.00,T,30.07,1013.10,10.00,M,BKN,M,M,M,12000.00,M,M,M,M,M,M,M,M,M,M,79.00,KLOL 230653Z AUTO 07003KT 10SM BKN120 26/13 A3007 RMK AO2 RAB0555E05 SLP131 P0000 T02610133,M
NFL,2024-07-23 06:54,-118.7010,39.4166,1199.00,84.00,50.00,30.82,170.00,8.00,0.00,30.05,1014.40,10.00,M,CLR,M,M,M,M,M,M,M,M,M,M,M,M,M,M,82.09,KNFL 230654Z AUTO 17008KT 10SM CLR 29/10 A3005 RMK AO2 SLP144 T02890100,M
BVU,2024-07-23 06:55,-114.8611,35.9475,671.00,95.00,55.40,26.58,340.00,11.00,0.00,29.88,M,10.00,M,CLR,M,M,M,M,M,M,M,M,M,M,M,M,M,M,93.22,KBVU 230655Z AUTO 34011KT 10SM CLR 35/13 A2988 RMK AO2,M
CXP,2024-07-23 06:55,-119.7326,39.1923,1431.00,77.00,48.20,36.22,0.00,0.00,0.00,30.14,M,10.00,M,CLR,M,M,M,M,M,M,M,M,M,M,M,M,M,M,77.00,KCXP 230655Z AUTO 00000KT 10SM CLR 25/09 A3014 RMK AO2,M
RNO,2024-07-23 06:55,-119.7711,39.4839,1341.00,83.00,51.00,33.04,40.00,5.00,0.00,30.10,1012.10,10.00,M,FEW,FEW,M,M,10000.00,17000.00,M,M,M,M,M,M,M,M,M,81.51,KRNO 230655Z 04005KT 10SM FEW100 FEW170 28/11 A3010 RMK AO2 SLP121 T02830106,M
RTS,2024-07-23 06:55,-119.8764,39.6682,1539.00,78.80,46.40,31.90,0.00,0.00,0.00,30.17,M,10.00,M,CLR,M,M,M,M,M,M,M,M,M,M,M,M,M,M,78.80,KRTS 230655Z AUTO 00000KT 10SM CLR 26/08 A3017 RMK AO2,M
05U,2024-07-23 06:55,-116.0051,39.6042,1811.23,66.20,51.80,59.74,0.00,0.00,0.00,30.28,M,10.00,M,BKN,M,M,M,12000.00,M,M,M,M,M,M,M,M,M,M,66.20,K05U 230655Z AUTO 00000KT 10SM BKN120 19/11 A3028 RMK A01,M
MEV,2024-07-23 06:55,-119.7500,38.9963,1441.42,66.20,50.00,55.88,140.00,6.00,0.00,30.13,M,10.00,M,FEW,M,M,M,5500.00,M,M,M,M,M,M,M,M,M,M,66.20,KMEV 230655Z AUTO 14006KT 10SM FEW055 19/10 A3013 RMK AO2,M
BAM,2024-07-23 06:55,-116.8743,40.5990,1382.36,82.40,50.00,32.46,220.00,9.00,0.00,30.14,M,10.00,M,CLR,M,M,M,M,M,M,M,M,M,M,M,M,M,M,80.99,KBAM 230655Z AUTO 22009KT 10SM CLR 28/10 A3014 RMK AO1,M
HTH,2024-07-23 06:55,-118.6315,38.5448,1282.89,69.80,59.00,68.55,110.00,5.00,0.00,30.12,M,10.00,M,CLR,M,M,M,M,M,M,M,M,M,M,M,M,M,M,69.80,KHTH 230655Z AUTO 11005KT 10SM CLR 21/15 A3012 RMK A01,M
10U,2024-07-23 06:55,-116.1876,41.9532,1637.00,66.20,46.40,48.83,0.00,0.00,0.00,30.19,M,10.00,M,CLR,M,M,M,M,M,M,M,M,M,M,M,M,M,M,66.20,K10U 230655Z AUTO 00000KT 10SM CLR 19/08 A3019 RMK AO2,M
TMT,2024-07-23 06:55,-117.1971,39.4643,1749.34,67.00,50.00,54.35,100.00,6.00,0.00,30.27,M,10.00,M,SCT,M,M,M,11000.00,M,M,M,M,M,M,M,M,M,M,67.00,KTMT 230655Z AUTO 10006KT 10SM SCT110 20/10 A3027 RMK AO2 T01950101,M
INS,2024-07-23 06:55,-115.6733,36.5872,955.00,90.50,48.70,23.88,0.00,0.00,0.00,30.01,1009.60,10.00,M,BKN,OVC,M,M,17000.00,19000.00,M,M,M,M,M,M,M,M,M,87.33,KINS 230655Z AUTO 00000KT 10SM BKN170 OVC190 33/09 A3001 RMK AO2 SLP096 T03250093 $,M
LSV,2024-07-23 06:55,-115.0343,36.2362,570.00,97.00,55.40,25.00,320.00,9.00,0.00,29.82,1006.30,10.00,M,FEW,BKN,M,M,18000.00,20000.00,M,M,M,M,M,M,M,M,M,95.36,KLSV 230655Z AUTO 32009KT 10SM FEW180 BKN200 36/13 A2982 RMK AO2 LTG DSNT SW SLP063 T03620130 $,M
EKO,2024-07-23 06:56,-115.7860,40.8242,1367.00,80.00,50.00,35.10,M,3.00,0.00,30.15,1013.30,10.00,M,CLR,M,M,M,M,M,M,M,M,M,M,M,M,M,M,79.55,KEKO 230656Z AUTO VRB03KT 10SM CLR 27/10 A3015 RMK AO2 SLP133 T02670100,M
WMC,2024-07-23 06:56,-117.8072,40.9019,1315.00,79.00,51.00,37.64,170.00,14.00,T,30.09,1012.50,10.00,23.00,CLR,M,M,M,M,M,M,M,M,M,M,M,27.00,150.00,2024-07-23 06:40,79.00,KWMC 230656Z AUTO 17014G23KT 10SM CLR 26/11 A3009 RMK AO2 PK WND 15027/0640 RAB16E28 SLP125 P0000 T02610106,M
HND,2024-07-23 06:56,-115.1344,35.9729,742.79,96.00,54.00,24.49,330.00,8.00,0.00,29.95,1011.90,10.00,M,SCT,M,M,M,12000.00,M,M,M,M,M,M,M,M,M,M,93.86,KHND 230656Z AUTO 33008KT 10SM SCT120 36/12 A2995 RMK AO2 LTG DSNT W SLP119 T03560122 404280317,M
TPH,2024-07-23 06:56,-117.0904,38.0505,1654.00,70.00,54.00,56.82,340.00,9.00,0.00,30.22,1014.00,10.00,M,CLR,M,M,M,M,M,M,M,M,M,M,M,M,M,M,70.00,KTPH 230656Z AUTO 34009KT 10SM CLR 21/12 A3022 RMK AO2 SLP140 T02110122,M
LAS,2024-07-23 06:56,-115.1634,36.0719,663.00,99.00,52.00,20.77,320.00,14.00,0.00,29.90,1005.40,10.00,19.00,FEW,SCT,BKN,M,11000.00,14000.00,17000.00,M,M,M,M,M,M,M,M,96.47,KLAS 230656Z 32014G19KT 10SM FEW110 SCT140 BKN170 37/11 A2990 RMK AO2 LTG DSNT W SLP054 VCSH N T03720111 $,M
10U,2024-07-23 07:10,-116.1876,41.9532,1637.00,68.00,46.40,45.88,140.00,8.00,0.00,30.19,M,10.00,M,CLR,M,M,M,M,M,M,M,M,M,M,M,M,M,M,68.00,K10U 230710Z AUTO 14008KT 10SM CLR 20/08 A3019 RMK AO2,M
BVU,2024-07-23 07:15,-114.8611,35.9475,671.00,95.00,55.40,26.58,360.00,8.00,0.00,29.88,M,10.00,M,CLR,M,M,M,M,M,M,M,M,M,M,M,M,M,M,93.22,KBVU 230715Z AUTO 36008KT 10SM CLR 35/13 A2988 RMK AO2,M
CXP,2024-07-23 07:15,-119.7326,39.1923,1431.00,75.20,50.00,41.14,0.00,0.00,0.00,30.14,M,10.00,M,CLR,M,M,M,M,M,M,M,M,M,M,M,M,M,M,75.20,KCXP 230715Z AUTO 00000KT 10SM CLR 24/10 A3014 RMK AO2,M
RTS,2024-07-23 07:15,-119.8764,39.6682,1539.00,73.40,46.40,38.18,310.00,3.00,0.00,30.17,M,10.00,M,FEW,SCT,SCT,M,3000.00,3600.00,4300.00,M,M,M,M,M,M,M,M,73.40,KRTS 230715Z AUTO 31003KT 10SM FEW030 SCT036 SCT043 23/08 A3017 RMK AO2,M
05U,2024-07-23 07:15,-116.0051,39.6042,1811.23,66.20,51.80,59.74,360.00,8.00,0.00,30.29,M,10.00,M,FEW,M,M,M,12000.00,M,M,M,M,M,M,M,M,M,M,66.20,K05U 230715Z AUTO 36008KT 10SM FEW120 19/11 A3029 RMK A01,M
MEV,2024-07-23 07:15,-119.7500,38.9963,1441.42,68.00,50.00,52.51,130.00,10.00,0.00,30.13,M,10.00,M,CLR,M,M,M,M,M,M,M,M,M,M,M,M,M,M,68.00,KMEV 230715Z AUTO 13010KT 10SM CLR 20/10 A3013 RMK AO2,M
BAM,2024-07-23 07:15,-116.8743,40.5990,1382.36,80.60,50.00,34.41,220.00,9.00,0.00,30.13,M,10.00,M,CLR,M,M,M,M,M,M,M,M,M,M,M,M,M,M,79.88,KBAM 230715Z AUTO 22009KT 10SM CLR 27/10 A3013 RMK AO1,M
HTH,2024-07-23 07:15,-118.6315,38.5448,1282.89,69.80,59.00,68.55,150.00,5.00,0.00,30.12,M,10.00,M,CLR,M,M,M,M,M,M,M,M,M,M,M,M,M,M,69.80,KHTH 230715Z AUTO 15005KT 10SM CLR 21/15 A3012 RMK A01,M
TMT,2024-07-23 07:15,-117.1971,39.4643,1749.34,66.00,50.00,56.27,120.00,4.00,0.00,30.27,M,10.00,M,CLR,M,M,M,M,M,M,M,M,M,M,M,M,M,M,66.00,KTMT 230715Z AUTO 12004KT 10SM CLR 19/10 A3027 RMK AO2 T01890101,M
BVU,2024-07-23 07:35,-114.8611,35.9475,671.00,93.20,55.40,28.10,M,4.00,0.00,29.89,M,10.00,M,CLR,M,M,M,M,M,M,M,M,M,M,M,M,M,M,91.35,KBVU 230735Z AUTO VRB04KT 10SM CLR 34/13 A2989 RMK AO2,M
CXP,2024-07-23 07:35,-119.7326,39.1923,1431.00,75.20,48.20,38.46,20.00,3.00,0.00,30.15,M,10.00,M,CLR,M,M,M,M,M,M,M,M,M,M,M,M,M,M,75.20,KCXP 230735Z AUTO 02003KT 10SM CLR 24/09 A3015 RMK AO2,M
RTS,2024-07-23 07:35,-119.8764,39.6682,1539.00,69.80,44.60,40.29,350.00,6.00,0.00,30.17,M,10.00,M,FEW,FEW,M,M,3000.00,3500.00,M,M,M,M,M,M,M,M,M,69.80,KRTS 230735Z AUTO 35006KT 10SM FEW030 FEW035 21/07 A3017 RMK AO2,M
05U,2024-07-23 07:35,-116.0051,39.6042,1811.23,64.40,51.80,63.60,0.00,0.00,0.00,30.29,M,10.00,M,CLR,M,M,M,M,M,M,M,M,M,M,M,M,M,M,64.40,K05U 230735Z AUTO 00000KT 10SM CLR 18/11 A3029 RMK A01,M
MEV,2024-07-23 07:35,-119.7500,38.9963,1441.42,68.00,50.00,52.51,140.00,7.00,0.00,30.13,M,10.00,M,CLR,M,M,M,M,M,M,M,M,M,M,M,M,M,M,68.00,KMEV 230735Z AUTO 14007KT 10SM CLR 20/10 A3013 RMK AO2,M
BAM,2024-07-23 07:35,-116.8743,40.5990,1382.36,80.60,50.00,34.41,210.00,13.00,0.00,30.13,M,10.00,M,CLR,M,M,M,M,M,M,M,M,M,M,M,M,M,M,79.88,KBAM 230735Z AUTO 21013KT 10SM CLR 27/10 A3013 RMK AO1,M
HTH,2024-07-23 07:35,-118.6315,38.5448,1282.89,69.80,57.20,64.26,200.00,7.00,0.00,30.12,M,10.00,M,CLR,M,M,M,M,M,M,M,M,M,M,M,M,M,M,69.80,KHTH 230735Z AUTO 20007KT 10SM CLR 21/14 A3012 RMK A01,M
10U,2024-07-23 07:35,-116.1876,41.9532,1637.00,66.20,46.40,48.83,M,3.00,0.00,30.19,M,10.00,M,CLR,M,M,M,M,M,M,M,M,M,M,M,M,M,M,66.20,K10U 230735Z AUTO VRB03KT 10SM CLR 19/08 A3019 RMK AO2,M
TMT,2024-07-23 07:35,-117.1971,39.4643,1749.34,66.00,50.50,57.33,0.00,0.00,0.00,30.27,M,10.00,M,SCT,M,M,M,12000.00,M,M,M,M,M,M,M,M,M,M,66.00,KTMT 230735Z AUTO 00000KT 10SM SCT120 19/10 A3027 RMK AO2 T01890103,M
05U,2024-07-23 07:50,-116.0051,39.6042,1811.23,62.60,53.60,72.38,0.00,0.00,0.00,30.29,M,10.00,M,CLR,M,M,M,M,M,M,M,M,M,M,M,M,M,M,62.60,K05U 230750Z AUTO 00000KT 10SM CLR 17/12 A3029 RMK A01,M
P68,2024-07-23 07:53,-116.0056,39.6014,1993.00,62.00,53.00,72.32,150.00,4.00,0.00,30.27,1015.60,M,M,M,M,M,M,M,M,M,M,M,M,M,M,M,M,M,62.00,KP68 230753Z AUTO 15004KT 17/12 A3027 RMK AO1 SLP156 T01670117 403390144,M
DRA,2024-07-23 07:53,-116.0278,36.6206,1009.00,86.00,56.00,36.03,110.00,9.00,0.00,30.01,1010.10,10.00,M,CLR,M,M,M,M,M,M,M,M,M,M,M,M,M,M,84.68,KDRA 230753Z AUTO 11009KT 10SM CLR 30/13 A3001 RMK AO2 SLP101 T03000133 404220272,M
ELY,2024-07-23 07:53,-114.8453,39.2950,1909.00,65.00,49.00,56.13,190.00,6.00,0.00,30.27,1013.70,10.00,M,CLR,M,M,M,M,M,M,M,M,M,M,M,M,M,M,65.00,KELY 230753Z AUTO 19006KT 10SM CLR 18/09 A3027 RMK AO2 SLP137 T01830094 403220144 $,M
VGT,2024-07-23 07:53,-115.1933,36.2111,667.00,99.00,51.00,20.01,310.00,15.00,0.00,29.87,1009.40,10.00,M,FEW,BKN,M,M,9000.00,11000.00,M,M,M,M,M,M,M,M,M,96.21,KVGT 230753Z AUTO 31015KT 10SM FEW090 BKN110 37/11 A2987 RMK AO2 SLP094 T03720106 404390339,M
LOL,2024-07-23 07:53,-118.5701,40.0684,1192.43,75.00,56.00,51.62,60.00,3.00,0.00,30.07,1013.40,10.00,M,CLR,M,M,M,M,M,M,M,M,M,M,M,M,M,M,75.00,KLOL 230753Z AUTO 06003KT 10SM CLR 24/13 A3007 RMK AO2 SLP134 T02390133 403890178,M
NFL,2024-07-23 07:54,-118.7010,39.4166,1199.00,83.00,53.00,35.56,10.00,3.00,0.00,30.08,1015.40,10.00,M,CLR,M,M,M,M,M,M,M,M,M,M,M,M,M,M,81.78,KNFL 230754Z AUTO 01003KT 10SM CLR 28/12 A3008 RMK AO2 SLP154 T02830117 404060200,M
BVU,2024-07-23 07:55,-114.8611,35.9475,671.00,91.40,59.00,33.84,80.00,3.00,0.00,29.89,M,10.00,M,CLR,M,M,M,M,M,M,M,M,M,M,M,M,M,M,90.68,KBVU 230755Z AUTO 08003KT 10SM CLR 33/15 A2989 RMK AO2,M
CXP,2024-07-23 07:55,-119.7326,39.1923,1431.00,73.40,48.20,40.85,0.00,0.00,0.00,30.15,M,10.00,M,CLR,M,M,M,M,M,M,M,M,M,M,M,M,M,M,73.40,KCXP 230755Z AUTO 00000KT 10SM CLR 23/09 A3015 RMK AO2,M
RNO,2024-07-23 07:55,-119.7711,39.4839,1341.00,83.00,50.00,31.83,260.00,6.00,0.00,30.12,1012.40,10.00,M,BKN,M,M,M,11000.00,M,M,M,M,M,M,M,M,M,M,81.39,KRNO 230755Z 26006KT 10SM BKN110 28/10 A3012 RMK AO2 SLP124 T02830100 403830217,M
RTS,2024-07-23 07:55,-119.8764,39.6682,1539.00,69.80,44.60,40.29,350.00,6.00,0.00,30.18,M,10.00,M,CLR,M,M,M,M,M,M,M,M,M,M,M,M,M,M,69.80,KRTS 230755Z AUTO 35006KT 10SM CLR 21/07 A3018 RMK AO2,M
MEV,2024-07-23 07:55,-119.7500,38.9963,1441.42,68.00,51.80,56.13,240.00,6.00,0.00,30.14,M,10.00,M,CLR,M,M,M,M,M,M,M,M,M,M,M,M,M,M,68.00,KMEV 230755Z AUTO 24006KT 10SM CLR 20/11 A3014 RMK AO2,M
BAM,2024-07-23 07:55,-116.8743,40.5990,1382.36,80.60,51.80,36.79,200.00,13.00,0.00,30.13,M,10.00,M,CLR,M,M,M,M,M,M,M,M,M,M,M,M,M,M,80.08,KBAM 230755Z AUTO 20013KT 10SM CLR 27/11 A3013 RMK AO1,M
HTH,2024-07-23 07:55,-118.6315,38.5448,1282.89,71.60,55.40,56.63,180.00,6.00,0.00,30.12,M,10.00,M,CLR,M,M,M,M,M,M,M,M,M,M,M,M,M,M,71.60,KHTH 230755Z AUTO 18006KT 10SM CLR 22/13 A3012 RMK A01,M
10U,2024-07-23 07:55,-116.1876,41.9532,1637.00,66.20,46.40,48.83,0.00,0.00,0.00,30.19,M,10.00,M,CLR,M,M,M,M,M,M,M,M,M,M,M,M,M,M,66.20,K10U 230755Z AUTO 00000KT 10SM CLR 19/08 A3019 RMK AO2,M
TMT,2024-07-23 07:55,-117.1971,39.4643,1749.34,65.00,51.00,60.47,300.00,4.00,0.00,30.27,M,10.00,M,BKN,M,M,M,11000.00,M,M,M,M,M,M,M,M,M,M,65.00,KTMT 230755Z AUTO 30004KT 10SM BKN110 18/11 A3027 RMK AO2 T01840105 403360147,M
INS,2024-07-23 07:55,-115.6733,36.5872,955.00,88.00,51.80,28.99,250.00,6.00,0.00,30.00,1009.30,10.00,M,BKN,OVC,M,M,16000.00,18000.00,M,M,M,M,M,M,M,M,M,85.56,KINS 230755Z AUTO 25006KT 10SM BKN160 OVC180 31/11 A3000 RMK AO2 SLP093 T03120110 404140285 $,M
LSV,2024-07-23 07:55,-115.0343,36.2362,570.00,96.00,57.60,27.91,170.00,5.00,0.00,29.82,1006.30,10.00,M,SCT,M,M,M,18000.00,M,M,M,M,M,M,M,M,M,M,95.05,KLSV 230755Z AUTO 17005KT 10SM SCT180 36/14 A2982 RMK AO2 SLP063 T03550142 404340331 $,M
EKO,2024-07-23 07:56,-115.7860,40.8242,1367.00,77.00,50.00,38.74,0.00,0.00,0.00,30.16,1013.70,10.00,M,CLR,M,M,M,M,M,M,M,M,M,M,M,M,M,M,77.00,KEKO 230756Z AUTO 00000KT 10SM CLR 25/10 A3016 RMK AO2 SLP137 T02500100 403610161,M
WMC,2024-07-23 07:56,-117.8072,40.9019,1315.00,79.00,50.00,36.27,160.00,14.00,0.00,30.08,1012.10,10.00,M,CLR,M,M,M,M,M,M,M,M,M,M,M,M,M,M,79.00,KWMC 230756Z AUTO 16014KT 10SM CLR 26/10 A3008 RMK AO2 SLP121 T02610100 404000206,M
HND,2024-07-23 07:56,-115.1344,35.9729,742.79,94.00,55.00,27.02,260.00,8.00,0.00,29.95,1011.70,10.00,M,BKN,M,M,M,12000.00,M,M,M,M,M,M,M,M,M,M,92.06,KHND 230756Z AUTO 26008KT 10SM BKN120 34/13 A2995 RMK AO2 LTG DSNT SW AND W SLP117 T03440128,M
TPH,2024-07-23 07:56,-117.0904,38.0505,1654.00,70.00,56.00,61.11,350.00,10.00,0.00,30.22,1013.80,10.00,M,SCT,M,M,M,12000.00,M,M,M,M,M,M,M,M,M,M,70.00,KTPH 230756Z AUTO 35010KT 10SM SCT120 21/13 A3022 RMK AO2 SLP138 T02110133 403720206,M
LAS,2024-07-23 07:56,-115.1634,36.0719,663.00,99.00,50.00,19.28,280.00,10.00,0.00,29.89,1005.00,10.00,M,FEW,BKN,M,M,14000.00,19000.00,M,M,M,M,M,M,M,M,M,95.97,KLAS 230756Z 28010KT 10SM FEW140 BKN190 37/10 A2989 RMK AO2 LTG DSNT SW SLP050 T03720100 404440344 $,M
HTH,2024-07-23 08:10,-118.6315,38.5448,1282.89,73.40,53.60,49.90,170.00,5.00,0.00,30.12,M,10.00,M,CLR,M,M,M,M,M,M,M,M,M,M,M,M,M,M,73.40,KHTH 230810Z AUTO 17005KT 10SM CLR 23/12 A3012 RMK A01,M
BVU,2024-07-23 08:15,-114.8611,35.9475,671.00,91.40,59.00,33.84,0.00,0.00,0.00,29.89,M,10.00,M,CLR,M,M,M,M,M,M,M,M,M,M,M,M,M,M,90.68,KBVU 230815Z AUTO 00000KT 10SM CLR 33/15 A2989 RMK AO2,M
CXP,2024-07-23 08:15,-119.7326,39.1923,1431.00,73.40,48.20,40.85,180.00,3.00,0.00,30.16,M,10.00,M,CLR,M,M,M,M,M,M,M,M,M,M,M,M,M,M,73.40,KCXP 230815Z AUTO 18003KT 10SM CLR 23/09 A3016 RMK AO2,M
RTS,2024-07-23 08:15,-119.8764,39.6682,1539.00,69.80,46.40,43.13,340.00,6.00,0.00,30.18,M,10.00,M,SCT,M,M,M,10000.00,M,M,M,M,M,M,M,M,M,M,69.80,KRTS 230815Z AUTO 34006KT 10SM SCT100 21/08 A3018 RMK AO2,M
05U,2024-07-23 08:15,-116.0051,39.6042,1811.23,60.80,51.80,72.20,220.00,7.00,0.00,30.29,M,10.00,M,BKN,M,M,M,11000.00,M,M,M,M,M,M,M,M,M,M,60.80,K05U 230815Z AUTO 22007KT 10SM BKN110 16/11 A3029 RMK A01,M
MEV,2024-07-23 08:15,-119.7500,38.9963,1441.42,69.80,51.80,52.77,240.00,4.00,0.00,30.14,M,10.00,M,CLR,M,M,M,M,M,M,M,M,M,M,M,M,M,M,69.80,KMEV 230815Z AUTO 24004KT 10SM CLR 21/11 A3014 RMK AO2,M
BAM,2024-07-23 08:15,-116.8743,40.5990,1382.36,80.60,50.00,34.41,200.00,11.00,0.00,30.13,M,10.00,17.00,CLR,M,M,M,M,M,M,M,M,M,M,M,M,M,M,79.88,KBAM 230815Z AUTO 20011G17KT 10SM CLR 27/10 A3013 RMK AO1,M
10U,2024-07-23 08:15,-116.1876,41.9532,1637.00,64.40,46.40,51.98,160.00,6.00,0.00,30.19,M,10.00,M,CLR,M,M,M,M,M,M,M,M,M,M,M,M,M,M,64.40,K10U 230815Z AUTO 16006KT 10SM CLR 18/08 A3019 RMK AO2,M
TMT,2024-07-23 08:15,-117.1971,39.4643,1749.34,65.00,52.00,62.74,0.00,0.00,0.00,30.26,M,10.00,M,SCT,M,M,M,11000.00,M,M,M,M,M,M,M,M,M,M,65.00,KTMT 230815Z AUTO 00000KT 10SM SCT110 18/11 A3026 RMK AO2 T01830111,M
BVU,2024-07-23 08:35,-114.8611,35.9475,671.00,91.40,57.20,31.72,0.00,0.00,0.00,29.89,M,10.00,M,CLR,M,M,M,M,M,M,M,M,M,M,M,M,M,M,90.06,KBVU 230835Z AUTO 00000KT 10SM CLR 33/14 A2989 RMK AO2,M
CXP,2024-07-23 08:35,-119.7326,39.1923,1431.00,73.40,48.20,40.85,0.00,0.00,0.00,30.16,M,10.00,M,CLR,M,M,M,M,M,M,M,M,M,M,M,M,M,M,73.40,KCXP 230835Z AUTO 00000KT 10SM CLR 23/09 A3016 RMK AO2,M
RTS,2024-07-23 08:35,-119.8764,39.6682,1539.00,71.60,46.40,40.57,350.00,6.00,0.00,30.18,M,10.00,M,BKN,M,M,M,9500.00,M,M,M,M,M,M,M,M,M,M,71.60,KRTS 230835Z AUTO 35006KT 10SM BKN095 22/08 A3018 RMK AO2,M
05U,2024-07-23 08:35,-116.0051,39.6042,1811.23,62.60,51.80,67.75,180.00,7.00,0.00,30.28,M,10.00,M,OVC,M,M,M,11000.00,M,M,M,M,M,M,M,M,M,M,62.60,K05U 230835Z AUTO 18007KT 10SM OVC110 17/11 A3028 RMK A01,M
MEV,2024-07-23 08:35,-119.7500,38.9963,1441.42,66.20,51.80,59.74,50.00,10.00,0.00,30.15,M,10.00,M,CLR,M,M,M,M,M,M,M,M,M,M,M,M,M,M,66.20,KMEV 230835Z AUTO 05010KT 10SM CLR 19/11 A3015 RMK AO2,M
BAM,2024-07-23 08:35,-116.8743,40.5990,1382.36,80.60,50.00,34.41,200.00,8.00,0.00,30.13,M,10.00,M,CLR,M,M,M,M,M,M,M,M,M,M,M,M,M,M,79.88,KBAM 230835Z AUTO 20008KT 10SM CLR 27/10 A3013 RMK AO1,M
HTH,2024-07-23 08:35,-118.6315,38.5448,1282.89,69.80,57.20,64.26,0.00,0.00,0.00,30.12,M,10.00,M,CLR,M,M,M,M,M,M,M,M,M,M,M,M,M,M,69.80,KHTH 230835Z AUTO 00000KT 10SM CLR 21/14 A3012 RMK A01,M
10U,2024-07-23 08:35,-116.1876,41.9532,1637.00,64.40,46.40,51.98,130.00,7.00,0.00,30.18,M,10.00,M,CLR,M,M,M,M,M,M,M,M,M,M,M,M,M,M,64.40,K10U 230835Z AUTO 13007KT 10SM CLR 18/08 A3018 RMK AO2,M
TMT,2024-07-23 08:35,-117.1971,39.4643,1749.34,63.70,52.70,67.37,240.00,5.00,0.00,30.27,M,10.00,M,SCT,M,M,M,12000.00,M,M,M,M,M,M,M,M,M,M,63.70,KTMT 230835Z AUTO 24005KT 10SM SCT120 18/12 A3027 RMK AO2 T01760115,M
P68,2024-07-23 08:53,-116.0056,39.6014,1993.00,63.00,52.00,67.29,180.00,6.00,0.00,30.26,1015.10,M,M,M,M,M,M,M,M,M,M,M,M,M,M,M,M,M,63.00,KP68 230853Z AUTO 18006KT 17/11 A3026 RMK AO1 SLP151 T01720111 50008,M
DRA,2024-07-23 08:53,-116.0278,36.6206,1009.00,83.00,59.00,44.20,0.00,0.00,0.00,30.00,1009.80,10.00,M,CLR,M,M,M,M,M,M,M,M,M,M,M,M,M,M,82.94,KDRA 230853Z AUTO 00000KT 10SM CLR 28/15 A3000 RMK AO2 SLP098 T02830150 58003,M
ELY,2024-07-23 08:53,-114.8453,39.2950,1909.00,65.00,50.00,58.26,0.00,0.00,0.00,30.28,1014.70,10.00,M,CLR,M,M,M,M,M,M,M,M,M,M,M,M,M,M,65.00,KELY 230853Z AUTO 00000KT 10SM CLR 18/10 A3028 RMK AO2 SLP147 T01830100 52004 $,M
VGT,2024-07-23 08:53,-115.1933,36.2111,667.00,99.00,51.00,20.01,270.00,6.00,0.00,29.89,1010.10,10.00,M,CLR,M,M,M,M,M,M,M,M,M,M,M,M,M,M,96.21,KVGT 230853Z AUTO 27006KT 10SM CLR 37/11 A2989 RMK AO2 SLP101 T03720106 55000,M
LOL,2024-07-23 08:53,-118.5701,40.0684,1192.43,69.00,56.00,63.24,300.00,7.00,0.00,30.06,1012.90,10.00,M,CLR,M,M,M,M,M,M,M,M,M,M,M,M,M,M,69.00,KLOL 230853Z AUTO 30007KT 10SM CLR 21/13 A3006 RMK AO2 SLP129 60000 T02060133 58003,M
NFL,2024-07-23 08:54,-118.7010,39.4166,1199.00,81.00,50.00,33.97,160.00,4.00,0.00,30.08,1015.30,10.00,M,FEW,M,M,M,11000.00,M,M,M,M,M,M,M,M,M,M,80.12,KNFL 230854Z AUTO 16004KT 10SM FEW110 27/10 A3008 RMK AO2 SLP153 T02720100 50009,M
BVU,2024-07-23 08:55,-114.8611,35.9475,671.00,93.20,53.60,26.31,0.00,0.00,0.00,29.90,M,10.00,M,CLR,M,M,M,M,M,M,M,M,M,M,M,M,M,M,90.86,KBVU 230855Z AUTO 00000KT 10SM CLR 34/12 A2990 RMK AO2,M
CXP,2024-07-23 08:55,-119.7326,39.1923,1431.00,73.40,48.20,40.85,0.00,0.00,0.00,30.16,M,9.00,M,CLR,M,M,M,M,M,M,M,M,M,M,M,M,M,M,73.40,KCXP 230855Z AUTO 00000KT 9SM CLR 23/09 A3016 RMK AO2,M
RNO,2024-07-23 08:55,-119.7711,39.4839,1341.00,81.00,50.00,33.97,270.00,5.00,0.00,30.12,1012.50,10.00,M,FEW,M,M,M,15000.00,M,M,M,M,M,M,M,M,M,M,80.12,KRNO 230855Z 27005KT 10SM FEW150 27/10 A3012 RMK AO2 SLP125 T02720100 51007,M
RTS,2024-07-23 08:55,-119.8764,39.6682,1539.00,69.80,46.40,43.13,360.00,5.00,0.00,30.17,M,10.00,M,FEW,M,M,M,10000.00,M,M,M,M,M,M,M,M,M,M,69.80,KRTS 230855Z AUTO 36005KT 10SM FEW100 21/08 A3017 RMK AO2,M
05U,2024-07-23 08:55,-116.0051,39.6042,1811.23,64.40,51.80,63.60,0.00,0.00,0.00,30.28,M,10.00,M,BKN,M,M,M,11000.00,M,M,M,M,M,M,M,M,M,M,64.40,K05U 230855Z AUTO 00000KT 10SM BKN110 18/11 A3028 RMK A01,M
MEV,2024-07-23 08:55,-119.7500,38.9963,1441.42,68.00,50.00,52.51,60.00,9.00,0.00,30.15,M,10.00,M,FEW,M,M,M,5000.00,M,M,M,M,M,M,M,M,M,M,68.00,KMEV 230855Z AUTO 06009KT 10SM FEW050 20/10 A3015 RMK AO2,M
BAM,2024-07-23 08:55,-116.8743,40.5990,1382.36,80.60,50.00,34.41,200.00,5.00,0.00,30.13,M,10.00,M,CLR,M,M,M,M,M,M,M,M,M,M,M,M,M,M,79.88,KBAM 230855Z AUTO 20005KT 10SM CLR 27/10 A3013 RMK AO1,M
HTH,2024-07-23 08:55,-118.6315,38.5448,1282.89,69.80,55.40,60.21,160.00,4.00,0.00,30.12,M,10.00,M,CLR,M,M,M,M,M,M,M,M,M,M,M,M,M,M,69.80,KHTH 230855Z AUTO 16004KT 10SM CLR 21/13 A3012 RMK A01,M
10U,2024-07-23 08:55,-116.1876,41.9532,1637.00,64.40,46.40,51.98,140.00,9.00,0.00,30.18,M,10.00,M,CLR,M,M,M,M,M,M,M,M,M,M,M,M,M,M,64.40,K10U 230855Z AUTO 14009KT 10SM CLR 18/08 A3018 RMK AO2,M
TMT,2024-07-23 08:55,-117.1971,39.4643,1749.34,64.00,53.00,67.41,240.00,5.00,0.00,30.26,M,10.00,M,CLR,M,M,M,M,M,M,M,M,M,M,M,M,M,M,64.00,KTMT 230855Z AUTO 24005KT 10SM CLR 18/12 A3026 RMK AO2 T01770117,M
INS,2024-07-23 08:55,-115.6733,36.5872,955.00,86.40,55.40,34.80,250.00,9.00,0.00,29.98,1008.70,10.00,M,BKN,OVC,M,M,14000.00,17000.00,M,M,M,M,M,M,M,M,M,84.88,KINS 230855Z AUTO 25009KT 10SM BKN140 OVC170 30/13 A2998 RMK AO2 SLP087 T03020130 58008 $,M
LSV,2024-07-23 08:55,-115.0343,36.2362,570.00,98.00,48.60,18.87,260.00,9.00,0.00,29.83,1006.60,10.00,M,CLR,M,M,M,M,M,M,M,M,M,M,M,M,M,M,94.64,KLSV 230855Z AUTO 26009KT 10SM CLR 37/09 A2983 RMK AO2 SLP066 T03660092 55001 $,M
EKO,2024-07-23 08:56,-115.7860,40.8242,1367.00,74.00,50.00,42.82,110.00,3.00,0.00,30.16,1013.90,10.00,M,CLR,M,M,M,M,M,M,M,M,M,M,M,M,M,M,74.00,KEKO 230856Z AUTO 11003KT 10SM CLR 23/10 A3016 RMK AO2 SLP139 T02330100 52005,M
WMC,2024-07-23 08:56,-117.8072,40.9019,1315.00,75.00,52.00,44.59,200.00,8.00,0.00,30.09,1012.10,10.00,M,CLR,M,M,M,M,M,M,M,M,M,M,M,M,M,M,75.00,KWMC 230856Z AUTO 20008KT 10SM CLR 24/11 A3009 RMK AO2 SLP121 60000 T02390111 55008,M
HND,2024-07-23 08:56,-115.1344,35.9729,742.79,93.00,57.00,29.96,260.00,5.00,0.00,29.95,1012.00,10.00,M,CLR,M,M,M,M,M,M,M,M,M,M,M,M,M,M,91.64,KHND 230856Z AUTO 26005KT 10SM CLR 34/14 A2995 RMK AO2 SLP120 T03390139 51008,M
TPH,2024-07-23 08:56,-117.0904,38.0505,1654.00,68.00,58.00,70.35,10.00,9.00,0.00,30.22,1013.90,10.00,M,CLR,M,M,M,M,M,M,M,M,M,M,M,M,M,M,68.00,KTPH 230856Z AUTO 01009KT 10SM CLR 20/14 A3022 RMK AO2 SLP139 T02000144 56004,M
LAS,2024-07-23 08:56,-115.1634,36.0719,663.00,96.00,55.00,25.40,240.00,10.00,0.00,29.90,1005.40,10.00,M,FEW,SCT,BKN,M,11000.00,14000.00,19000.00,M,M,M,M,M,M,M,M,94.16,KLAS 230856Z 24010KT 10SM FEW110 SCT140 BKN190 36/13 A2990 RMK AO2 SLP054 T03560128 51006 $,M
BVU,2024-07-23 09:15,-114.8611,35.9475,671.00,91.40,53.60,27.83,0.00,0.00,0.00,29.90,M,10.00,M,CLR,M,M,M,M,M,M,M,M,M,M,M,M,M,M,89.08,KBVU 230915Z AUTO 00000KT 10SM CLR 33/12 A2990 RMK AO2,M
CXP,2024-07-23 09:15,-119.7326,39.1923,1431.00,73.40,48.20,40.85,0.00,0.00,0.00,30.16,M,10.00,M,CLR,M,M,M,M,M,M,M,M,M,M,M,M,M,M,73.40,KCXP 230915Z AUTO 00000KT 10SM CLR 23/09 A3016 RMK AO2,M
RTS,2024-07-23 09:15,-119.8764,39.6682,1539.00,71.60,46.40,40.57,0.00,0.00,0.00,30.17,M,10.00,M,CLR,M,M,M,M,M,M,M,M,M,M,M,M,M,M,71.60,KRTS 230915Z AUTO 00000KT 10SM CLR 22/08 A3017 RMK AO2,M
05U,2024-07-23 09:15,-116.0051,39.6042,1811.23,60.80,50.00,67.54,0.00,0.00,0.00,30.28,M,10.00,M,FEW,M,M,M,11000.00,M,M,M,M,M,M,M,M,M,M,60.80,K05U 230915Z AUTO 00000KT 10SM FEW110 16/10 A3028 RMK A01,M
MEV,2024-07-23 09:15,-119.7500,38.9963,1441.42,66.20,51.80,59.74,M,5.00,0.00,30.15,M,10.00,M,FEW,M,M,M,5000.00,M,M,M,M,M,M,M,M,M,M,66.20,KMEV 230915Z AUTO VRB05KT 10SM FEW050 19/11 A3015 RMK AO2,M
BAM,2024-07-23 09:15,-116.8743,40.5990,1382.36,78.80,50.00,36.51,0.00,0.00,0.00,30.13,M,10.00,M,CLR,M,M,M,M,M,M,M,M,M,M,M,M,M,M,78.80,KBAM 230915Z AUTO 00000KT 10SM CLR 26/10 A3013 RMK AO1,M
TMT,2024-07-23 09:15,-117.1971,39.4643,1749.34,61.00,51.60,71.16,200.00,6.00,0.00,30.26,M,10.00,M,CLR,M,M,M,M,M,M,M,M,M,M,M,M,M,M,61.00,KTMT 230915Z AUTO 20006KT 10SM CLR 16/11 A3026 RMK AO2 T01610109,M
CXP,2024-07-23 09:30,-119.7326,39.1923,1431.00,71.60,48.20,43.42,0.00,0.00,0.00,30.16,M,10.00,M,CLR,M,M,M,M,M,M,M,M,M,M,M,M,M,M,71.60,KCXP 230930Z AUTO 00000KT 10SM CLR 22/09 A3016 RMK AO2,M
RTS,2024-07-23 09:30,-119.8764,39.6682,1539.00,69.80,46.40,43.13,0.00,0.00,0.00,30.17,M,10.00,M,CLR,M,M,M,M,M,M,M,M,M,M,M,M,M,M,69.80,KRTS 230930Z AUTO 00000KT 10SM CLR 21/08 A3017 RMK AO2,M
MEV,2024-07-23 09:30,-119.7500,38.9963,1441.42,66.20,51.80,59.74,220.00,6.00,0.00,30.14,M,10.00,M,CLR,M,M,M,M,M,M,M,M,M,M,M,M,M,M,66.20,KMEV 230930Z AUTO 22006KT 10SM CLR 19/11 A3014 RMK AO2,M
HTH,2024-07-23 09:30,-118.6315,38.5448,1282.89,69.80,53.60,56.38,140.00,5.00,0.00,30.12,M,10.00,M,CLR,M,M,M,M,M,M,M,M,M,M,M,M,M,M,69.80,KHTH 230930Z AUTO 14005KT 10SM CLR 21/12 A3012 RMK A01,M
10U,2024-07-23 09:30,-116.1876,41.9532,1637.00,66.20,46.40,48.83,150.00,6.00,0.00,30.17,M,10.00,M,CLR,M,M,M,M,M,M,M,M,M,M,M,M,M,M,66.20,K10U 230930Z AUTO 15006KT 10SM CLR 19/08 A3017 RMK AO2,M
BVU,2024-07-23 09:35,-114.8611,35.9475,671.00,91.40,57.20,31.72,0.00,0.00,0.00,29.89,M,10.00,M,CLR,M,M,M,M,M,M,M,M,M,M,M,M,M,M,90.06,KBVU 230935Z AUTO 00000KT 10SM CLR 33/14 A2989 RMK AO2,M
05U,2024-07-23 09:35,-116.0051,39.6042,1811.23,62.60,50.00,63.38,0.00,0.00,0.00,30.28,M,10.00,M,CLR,M,M,M,M,M,M,M,M,M,M,M,M,M,M,62.60,K05U 230935Z AUTO 00000KT 10SM CLR 17/10 A3028 RMK A01,M
BAM,2024-07-23 09:35,-116.8743,40.5990,1382.36,77.00,51.80,41.42,250.00,4.00,0.00,30.13,M,10.00,M,CLR,M,M,M,M,M,M,M,M,M,M,M,M,M,M,77.00,KBAM 230935Z AUTO 25004KT 10SM CLR 25/11 A3013 RMK AO1,M
TMT,2024-07-23 09:35,-117.1971,39.4643,1749.34,59.00,50.00,72.01,0.00,0.00,0.00,30.26,M,10.00,M,CLR,M,M,M,M,M,M,M,M,M,M,M,M,M,M,59.00,KTMT 230935Z AUTO 00000KT 10SM CLR 15/10 A3026 RMK AO2 T01510101,M
P68,2024-07-23 09:53,-116.0056,39.6014,1993.00,59.00,51.00,74.74,190.00,4.00,0.00,30.25,1017.00,M,M,M,M,M,M,M,M,M,M,M,M,M,M,M,M,M,59.00,KP68 230953Z AUTO 19004KT 15/11 A3025 RMK AO1 SLP170 T01500106,M
DRA,2024-07-23 09:53,-116.0278,36.6206,1009.00,85.00,55.00,35.87,330.00,6.00,0.00,30.01,1009.80,10.00,M,CLR,M,M,M,M,M,M,M,M,M,M,M,M,M,M,83.64,KDRA 230953Z AUTO 33006KT 10SM CLR 29/13 A3001 RMK AO2 SLP098 T02940128,M
ELY,2024-07-23 09:53,-114.8453,39.2950,1909.00,60.00,48.00,64.49,210.00,4.00,0.00,30.28,1015.20,10.00,M,CLR,M,M,M,M,M,M,M,M,M,M,M,M,M,M,60.00,KELY 230953Z AUTO 21004KT 10SM CLR 16/09 A3028 RMK AO2 SLP152 T01560089 $,M
VGT,2024-07-23 09:53,-115.1933,36.2111,667.00,97.00,52.00,22.07,340.00,4.00,0.00,29.89,1010.10,10.00,M,CLR,M,M,M,M,M,M,M,M,M,M,M,M,M,M,94.38,KVGT 230953Z AUTO 34004KT 10SM CLR 36/11 A2989 RMK AO2 SLP101 T03610111,M
LOL,2024-07-23 09:53,-118.5701,40.0684,1192.43,73.00,51.00,45.96,310.00,4.00,0.00,30.06,1012.60,10.00,M,CLR,M,M,M,M,M,M,M,M,M,M,M,M,M,M,73.00,KLOL 230953Z AUTO 31004KT 10SM CLR 23/11 A3006 RMK AO2 SLP126 T02280106,M
NFL,2024-07-23 09:54,-118.7010,39.4166,1199.00,79.00,51.00,37.64,200.00,5.00,0.00,30.07,1015.00,10.00,M,CLR,M,M,M,M,M,M,M,M,M,M,M,M,M,M,79.00,KNFL 230954Z AUTO 20005KT 10SM CLR 26/11 A3007 RMK AO2 SLP150 T02610106,M
BVU,2024-07-23 09:55,-114.8611,35.9475,671.00,91.40,57.20,31.72,0.00,0.00,0.00,29.89,M,10.00,M,CLR,M,M,M,M,M,M,M,M,M,M,M,M,M,M,90.06,KBVU 230955Z AUTO 00000KT 10SM CLR 33/14 A2989 RMK AO2,M
CXP,2024-07-23 09:55,-119.7326,39.1923,1431.00,69.80,50.00,49.37,0.00,0.00,0.00,30.16,M,10.00,M,CLR,M,M,M,M,M,M,M,M,M,M,M,M,M,M,69.80,KCXP 230955Z AUTO 00000KT 10SM CLR 21/10 A3016 RMK AO2,M
RNO,2024-07-23 09:55,-119.7711,39.4839,1341.00,78.00,50.00,37.48,270.00,7.00,0.00,30.11,1012.60,10.00,M,FEW,M,M,M,20000.00,M,M,M,M,M,M,M,M,M,M,78.00,KRNO 230955Z 27007KT 10SM FEW200 26/10 A3011 RMK AO2 SLP126 T02560100,M
RTS,2024-07-23 09:55,-119.8764,39.6682,1539.00,64.40,44.60,48.55,350.00,5.00,0.00,30.17,M,10.00,M,CLR,M,M,M,M,M,M,M,M,M,M,M,M,M,M,64.40,KRTS 230955Z AUTO 35005KT 10SM CLR 18/07 A3017 RMK AO2,M
05U,2024-07-23 09:55,-116.0051,39.6042,1811.23,59.00,51.80,76.98,0.00,0.00,0.00,30.27,M,10.00,M,CLR,M,M,M,M,M,M,M,M,M,M,M,M,M,M,59.00,K05U 230955Z AUTO 00000KT 10SM CLR 15/11 A3027 RMK A01,M
MEV,2024-07-23 09:55,-119.7500,38.9963,1441.42,64.40,51.80,63.60,160.00,4.00,0.00,30.15,M,10.00,10.00,CLR,M,M,M,M,M,M,M,M,M,M,M,M,M,M,64.40,KMEV 230955Z AUTO 16004G10KT 10SM CLR 18/11 A3015 RMK AO2,M
BAM,2024-07-23 09:55,-116.8743,40.5990,1382.36,75.20,51.80,43.97,190.00,3.00,0.00,30.12,M,10.00,M,CLR,M,M,M,M,M,M,M,M,M,M,M,M,M,M,75.20,KBAM 230955Z AUTO 19003KT 10SM CLR 24/11 A3012 RMK AO1,M
HTH,2024-07-23 09:55,-118.6315,38.5448,1282.89,69.80,53.60,56.38,180.00,9.00,0.00,30.12,M,10.00,M,CLR,M,M,M,M,M,M,M,M,M,M,M,M,M,M,69.80,KHTH 230955Z AUTO 18009KT 10SM CLR 21/12 A3012 RMK A01,M
10U,2024-07-23 09:55,-116.1876,41.9532,1637.00,66.20,46.40,48.83,170.00,5.00,0.00,30.17,M,10.00,M,CLR,M,M,M,M,M,M,M,M,M,M,M,M,M,M,66.20,K10U 230955Z AUTO 17005KT 10SM CLR 19/08 A3017 RMK AO2,M
TMT,2024-07-23 09:55,-117.1971,39.4643,1749.34,60.30,50.00,68.75,210.00,7.00,0.00,30.25,M,10.00,M,CLR,M,M,M,M,M,M,M,M,M,M,M,M,M,M,60.30,KTMT 230955Z AUTO 21007KT 10SM CLR 16/10 A3025 RMK AO2 T01570101,M
INS,2024-07-23 09:55,-115.6733,36.5872,955.00,86.40,54.70,33.93,220.00,6.00,0.00,29.99,1009.00,10.00,M,OVC,M,M,M,14000.00,M,M,M,M,M,M,M,M,M,M,84.73,KINS 230955Z AUTO 22006KT 10SM OVC140 30/13 A2999 RMK AO2 SLP090 T03020126 $,M
LSV,2024-07-23 09:55,-115.0343,36.2362,570.00,96.80,49.00,19.87,230.00,8.00,0.00,29.82,1006.30,10.00,M,FEW,M,M,M,20000.00,M,M,M,M,M,M,M,M,M,M,93.51,KLSV 230955Z AUTO 23008KT 10SM FEW200 36/10 A2982 RMK AO2 SLP063 T03600095 $,M
EKO,2024-07-23 09:56,-115.7860,40.8242,1367.00,73.00,52.00,47.69,30.00,6.00,0.00,30.16,1014.60,10.00,M,CLR,M,M,M,M,M,M,M,M,M,M,M,M,M,M,73.00,KEKO 230956Z AUTO 03006KT 10SM CLR 23/11 A3016 RMK AO2 SLP146 T02280111,M
WMC,2024-07-23 09:56,-117.8072,40.9019,1315.00,70.00,49.00,47.24,240.00,8.00,0.00,30.08,1012.50,10.00,M,CLR,M,M,M,M,M,M,M,M,M,M,M,M,M,M,70.00,KWMC 230956Z AUTO 24008KT 10SM CLR 21/09 A3008 RMK AO2 SLP125 T02110094,M
HND,2024-07-23 09:56,-115.1344,35.9729,742.79,93.00,56.00,28.90,M,4.00,0.00,29.94,1011.50,10.00,M,CLR,M,M,M,M,M,M,M,M,M,M,M,M,M,M,91.32,KHND 230956Z AUTO VRB04KT 10SM CLR 34/13 A2994 RMK AO2 SLP115 T03390133,M
TPH,2024-07-23 09:56,-117.0904,38.0505,1654.00,67.00,57.00,70.24,350.00,7.00,0.00,30.21,1013.50,10.00,M,CLR,M,M,M,M,M,M,M,M,M,M,M,M,M,M,67.00,KTPH 230956Z AUTO 35007KT 10SM CLR 19/14 A3021 RMK AO2 SLP135 T01940139,M
LAS,2024-07-23 09:56,-115.1634,36.0719,663.00,97.00,54.00,23.75,250.00,7.00,0.00,29.90,1005.30,10.00,M,SCT,OVC,M,M,14000.00,17000.00,M,M,M,M,M,M,M,M,M,94.92,KLAS 230956Z 25007KT 10SM SCT140 OVC170 36/12 A2990 RMK AO2 SLP053 T03610122 $,M
BVU,2024-07-23 10:15,-114.8611,35.9475,671.00,91.40,59.00,33.84,0.00,0.00,0.00,29.88,M,10.00,M,CLR,M,M,M,M,M,M,M,M,M,M,M,M,M,M,90.68,KBVU 231015Z AUTO 00000KT 10SM CLR 33/15 A2988 RMK AO2,M
CXP,2024-07-23 10:15,-119.7326,39.1923,1431.00,68.00,50.00,52.51,0.00,0.00,0.00,30.16,M,10.00,M,CLR,M,M,M,M,M,M,M,M,M,M,M,M,M,M,68.00,KCXP 231015Z AUTO 00000KT 10SM CLR 20/10 A3016 RMK AO2,M
RTS,2024-07-23 10:15,-119.8764,39.6682,1539.00,64.40,44.60,48.55,330.00,5.00,0.00,30.17,M,10.00,M,CLR,M,M,M,M,M,M,M,M,M,M,M,M,M,M,64.40,KRTS 231015Z AUTO 33005KT 10SM CLR 18/07 A3017 RMK AO2,M
05U,2024-07-23 10:15,-116.0051,39.6042,1811.23,60.80,51.80,72.20,0.00,0.00,0.00,30.27,M,10.00,M,CLR,M,M,M,M,M,M,M,M,M,M,M,M,M,M,60.80,K05U 231015Z AUTO 00000KT 10SM CLR 16/11 A3027 RMK A01,M
MEV,2024-07-23 10:15,-119.7500,38.9963,1441.42,62.60,51.80,67.75,130.00,7.00,0.00,30.15,M,10.00,M,CLR,M,M,M,M,M,M,M,M,M,M,M,M,M,M,62.60,KMEV 231015Z AUTO 13007KT 10SM CLR 17/11 A3015 RMK AO2,M
BAM,2024-07-23 10:15,-116.8743,40.5990,1382.36,75.20,51.80,43.97,0.00,0.00,0.00,30.12,M,10.00,M,CLR,M,M,M,M,M,M,M,M,M,M,M,M,M,M,75.20,KBAM 231015Z AUTO 00000KT 10SM CLR 24/11 A3012 RMK AO1,M
HTH,2024-07-23 10:15,-118.6315,38.5448,1282.89,69.80,55.40,60.21,180.00,7.00,0.00,30.11,M,10.00,M,CLR,M,M,M,M,M,M,M,M,M,M,M,M,M,M,69.80,KHTH 231015Z AUTO 18007KT 10SM CLR 21/13 A3011 RMK A01,M
10U,2024-07-23 10:15,-116.1876,41.9532,1637.00,68.00,46.40,45.88,170.00,4.00,0.00,30.18,M,10.00,M,CLR,M,M,M,M,M,M,M,M,M,M,M,M,M,M,68.00,K10U 231015Z AUTO 17004KT 10SM CLR 20/08 A3018 RMK AO2,M
TMT,2024-07-23 10:15,-117.1971,39.4643,1749.34,59.40,51.00,73.68,320.00,5.00,0.00,30.26,M,10.00,M,CLR,M,M,M,M,M,M,M,M,M,M,M,M,M,M,59.40,KTMT 231015Z AUTO 32005KT 10SM CLR 15/11 A3026 RMK AO2 T01520105,M
BVU,2024-07-23 10:35,-114.8611,35.9475,671.00,87.80,60.80,40.41,0.00,0.00,0.00,29.89,M,10.00,M,CLR,M,M,M,M,M,M,M,M,M,M,M,M,M,M,87.75,KBVU 231035Z AUTO 00000KT 10SM CLR 31/16 A2989 RMK AO2,M
CXP,2024-07-23 10:35,-119.7326,39.1923,1431.00,68.00,50.00,52.51,0.00,0.00,0.00,30.16,M,10.00,M,CLR,M,M,M,M,M,M,M,M,M,M,M,M,M,M,68.00,KCXP 231035Z AUTO 00000KT 10SM CLR 20/10 A3016 RMK AO2,M
RTS,2024-07-23 10:35,-119.8764,39.6682,1539.00,68.00,46.40,45.88,340.00,4.00,0.00,30.17,M,10.00,M,CLR,M,M,M,M,M,M,M,M,M,M,M,M,M,M,68.00,KRTS 231035Z AUTO 34004KT 10SM CLR 20/08 A3017 RMK AO2,M
05U,2024-07-23 10:35,-116.0051,39.6042,1811.23,57.20,51.80,82.12,0.00,0.00,0.00,30.26,M,10.00,M,CLR,M,M,M,M,M,M,M,M,M,M,M,M,M,M,57.20,K05U 231035Z AUTO 00000KT 10SM CLR 14/11 A3026 RMK A01,M
MEV,2024-07-23 10:35,-119.7500,38.9963,1441.42,64.40,51.80,63.60,110.00,8.00,0.00,30.15,M,10.00,M,CLR,M,M,M,M,M,M,M,M,M,M,M,M,M,M,64.40,KMEV 231035Z AUTO 11008KT 10SM CLR 18/11 A3015 RMK AO2,M
BAM,2024-07-23 10:35,-116.8743,40.5990,1382.36,73.40,51.80,46.71,250.00,4.00,0.00,30.12,M,10.00,M,CLR,M,M,M,M,M,M,M,M,M,M,M,M,M,M,73.40,KBAM 231035Z AUTO 25004KT 10SM CLR 23/11 A3012 RMK AO1,M
HTH,2024-07-23 10:35,-118.6315,38.5448,1282.89,68.00,55.40,64.04,130.00,9.00,0.00,30.11,M,10.00,M,CLR,M,M,M,M,M,M,M,M,M,M,M,M,M,M,68.00,KHTH 231035Z AUTO 13009KT 10SM CLR 20/13 A3011 RMK A01,M
10U,2024-07-23 10:35,-116.1876,41.9532,1637.00,66.20,46.40,48.83,140.00,6.00,0.00,30.18,M,10.00,M,CLR,M,M,M,M,M,M,M,M,M,M,M,M,M,M,66.20,K10U 231035Z AUTO 14006KT 10SM CLR 19/08 A3018 RMK AO2,M
TMT,2024-07-23 10:35,-117.1971,39.4643,1749.34,58.50,51.00,76.09,0.00,0.00,0.00,30.25,M,10.00,M,CLR,M,M,M,M,M,M,M,M,M,M,M,M,M,M,58.50,KTMT 231035Z AUTO 00000KT 10SM CLR 15/11 A3025 RMK AO2 T01470105,M
P68,2024-07-23 10:53,-116.0056,39.6014,1993.00,59.00,51.00,74.74,190.00,6.00,0.00,30.23,1016.50,M,M,M,M,M,M,M,M,M,M,M,M,M,M,M,M,M,59.00,KP68 231053Z AUTO 19006KT 15/11 A3023 RMK AO1 SLP165 T01500106,M
DRA,2024-07-23 10:53,-116.0278,36.6206,1009.00,84.00,56.00,38.42,350.00,4.00,0.00,30.01,1010.00,10.00,M,SCT,M,M,M,10000.00,M,M,M,M,M,M,M,M,M,M,83.05,KDRA 231053Z AUTO 35004KT 10SM SCT100 29/13 A3001 RMK AO2 SLP100 T02890133,M
ELY,2024-07-23 10:53,-114.8453,39.2950,1909.00,58.00,46.00,64.24,170.00,10.00,0.00,30.27,1014.80,10.00,M,SCT,M,M,M,12000.00,M,M,M,M,M,M,M,M,M,M,58.00,KELY 231053Z AUTO 17010KT 10SM SCT120 14/08 A3027 RMK AO2 SLP148 T01440078 $,M
VGT,2024-07-23 10:53,-115.1933,36.2111,667.00,96.00,52.00,22.76,350.00,7.00,0.00,29.88,1009.90,10.00,M,CLR,M,M,M,M,M,M,M,M,M,M,M,M,M,M,93.34,KVGT 231053Z AUTO 35007KT 10SM CLR 36/11 A2988 RMK AO2 SLP099 T03560111,M
LOL,2024-07-23 10:53,-118.5701,40.0684,1192.43,69.00,52.00,54.64,250.00,6.00,0.00,30.06,1012.60,10.00,M,CLR,M,M,M,M,M,M,M,M,M,M,M,M,M,M,69.00,KLOL 231053Z AUTO 25006KT 10SM CLR 21/11 A3006 RMK AO2 SLP126 T02060111,M
NFL,2024-07-23 10:54,-118.7010,39.4166,1199.00,75.00,54.00,47.99,250.00,3.00,0.00,30.06,1014.70,10.00,M,CLR,M,M,M,M,M,M,M,M,M,M,M,M,M,M,75.00,KNFL 231054Z AUTO 25003KT 10SM CLR 24/12 A3006 RMK AO2 SLP147 T02390122,M
BVU,2024-07-23 10:55,-114.8611,35.9475,671.00,87.80,59.00,37.90,0.00,0.00,0.00,29.89,M,10.00,M,CLR,M,M,M,M,M,M,M,M,M,M,M,M,M,M,87.12,KBVU 231055Z AUTO 00000KT 10SM CLR 31/15 A2989 RMK AO2,M
CXP,2024-07-23 10:55,-119.7326,39.1923,1431.00,68.00,50.00,52.51,0.00,0.00,0.00,30.17,M,10.00,M,CLR,M,M,M,M,M,M,M,M,M,M,M,M,M,M,68.00,KCXP 231055Z AUTO 00000KT 10SM CLR 20/10 A3017 RMK AO2,M
RNO,2024-07-23 10:55,-119.7711,39.4839,1341.00,76.00,50.00,40.05,270.00,7.00,0.00,30.11,1012.70,10.00,M,CLR,M,M,M,M,M,M,M,M,M,M,M,M,M,M,76.00,KRNO 231055Z 27007KT 10SM CLR 24/10 A3011 RMK AO2 SLP127 T02440100,M
RTS,2024-07-23 10:55,-119.8764,39.6682,1539.00,62.60,44.60,51.72,0.00,0.00,0.00,30.17,M,10.00,M,CLR,M,M,M,M,M,M,M,M,M,M,M,M,M,M,62.60,KRTS 231055Z AUTO 00000KT 10SM CLR 17/07 A3017 RMK AO2,M
05U,2024-07-23 10:55,-116.0051,39.6042,1811.23,59.00,50.00,72.01,0.00,0.00,0.00,30.26,M,10.00,M,CLR,M,M,M,M,M,M,M,M,M,M,M,M,M,M,59.00,K05U 231055Z AUTO 00000KT 10SM CLR 15/10 A3026 RMK A01,M
MEV,2024-07-23 10:55,-119.7500,38.9963,1441.42,66.20,50.00,55.88,0.00,0.00,0.00,30.15,M,10.00,M,CLR,M,M,M,M,M,M,M,M,M,M,M,M,M,M,66.20,KMEV 231055Z AUTO 00000KT 10SM CLR 19/10 A3015 RMK AO2,M
BAM,2024-07-23 10:55,-116.8743,40.5990,1382.36,71.60,51.80,49.64,0.00,0.00,0.00,30.12,M,10.00,M,CLR,M,M,M,M,M,M,M,M,M,M,M,M,M,M,71.60,KBAM 231055Z AUTO 00000KT 10SM CLR 22/11 A3012 RMK AO1,M
HTH,2024-07-23 10:55,-118.6315,38.5448,1282.89,66.20,55.40,68.15,0.00,0.00,0.00,30.12,M,10.00,M,CLR,M,M,M,M,M,M,M,M,M,M,M,M,M,M,66.20,KHTH 231055Z AUTO 00000KT 10SM CLR 19/13 A3012 RMK A01,M
10U,2024-07-23 10:55,-116.1876,41.9532,1637.00,62.60,46.40,55.37,150.00,6.00,0.00,30.18,M,10.00,M,CLR,M,M,M,M,M,M,M,M,M,M,M,M,M,M,62.60,K10U 231055Z AUTO 15006KT 10SM CLR 17/08 A3018 RMK AO2,M
TMT,2024-07-23 10:55,-117.1971,39.4643,1749.34,55.60,49.30,79.31,140.00,6.00,0.00,30.24,M,10.00,M,CLR,M,M,M,M,M,M,M,M,M,M,M,M,M,M,55.60,KTMT 231055Z AUTO 14006KT 10SM CLR 13/10 A3024 RMK AO2 T01310096,M
INS,2024-07-23 10:55,-115.6733,36.5872,955.00,86.40,53.00,31.88,0.00,0.00,0.00,29.99,1009.20,10.00,M,FEW,BKN,BKN,M,11000.00,14000.00,16000.00,M,M,M,M,M,M,M,M,84.40,KINS 231055Z AUTO 00000KT 10SM FEW110 BKN140 BKN160 30/12 A2999 RMK AO2 SLP092 T03020117 $,M
LSV,2024-07-23 10:55,-115.0343,36.2362,570.00,95.00,52.30,23.73,60.00,3.00,0.00,29.82,1006.30,10.00,M,CLR,M,M,M,M,M,M,M,M,M,M,M,M,M,M,92.38,KLSV 231055Z AUTO 06003KT 10SM CLR 35/11 A2982 RMK AO2 SLP063 T03490113 $,M
EKO,2024-07-23 10:56,-115.7860,40.8242,1367.00,69.00,53.00,56.69,50.00,4.00,0.00,30.17,1015.00,10.00,M,CLR,M,M,M,M,M,M,M,M,M,M,M,M,M,M,69.00,KEKO 231056Z AUTO 05004KT 10SM CLR 21/12 A3017 RMK AO2 SLP150 T02060117,M
WMC,2024-07-23 10:56,-117.8072,40.9019,1315.00,65.00,50.00,58.26,0.00,0.00,0.00,30.10,1013.00,10.00,M,CLR,M,M,M,M,M,M,M,M,M,M,M,M,M,M,65.00,KWMC 231056Z AUTO 00000KT 10SM CLR 18/10 A3010 RMK AO2 SLP130 T01830100,M
HND,2024-07-23 10:56,-115.1344,35.9729,742.79,90.00,58.00,34.11,180.00,5.00,0.00,29.94,1011.50,10.00,M,CLR,M,M,M,M,M,M,M,M,M,M,M,M,M,M,88.92,KHND 231056Z AUTO 18005KT 10SM CLR 32/14 A2994 RMK AO2 SLP115 T03220144,M
TPH,2024-07-23 10:56,-117.0904,38.0505,1654.00,66.00,56.00,70.14,350.00,10.00,0.00,30.21,1013.60,10.00,M,CLR,M,M,M,M,M,M,M,M,M,M,M,M,M,M,66.00,KTPH 231056Z AUTO 35010KT 10SM CLR 19/13 A3021 RMK AO2 SLP136 T01890133,M
LAS,2024-07-23 10:56,-115.1634,36.0719,663.00,96.00,53.00,23.61,220.00,7.00,0.00,29.89,1004.90,10.00,M,FEW,OVC,M,M,14000.00,18000.00,M,M,M,M,M,M,M,M,M,93.59,KLAS 231056Z 22007KT 10SM FEW140 OVC180 36/12 A2989 RMK AO2 SLP049 T03560117 $,M
BVU,2024-07-23 11:15,-114.8611,35.9475,671.00,86.00,60.80,42.80,0.00,0.00,0.00,29.89,M,10.00,M,CLR,M,M,M,M,M,M,M,M,M,M,M,M,M,M,86.05,KBVU 231115Z AUTO 00000KT 10SM CLR 30/16 A2989 RMK AO2,M
CXP,2024-07-23 11:15,-119.7326,39.1923,1431.00,69.80,50.00,49.37,270.00,5.00,0.00,30.17,M,10.00,M,CLR,M,M,M,M,M,M,M,M,M,M,M,M,M,M,69.80,KCXP 231115Z AUTO 27005KT 10SM CLR 21/10 A3017 RMK AO2,M
RTS,2024-07-23 11:15,-119.8764,39.6682,1539.00,66.20,44.60,45.60,350.00,3.00,0.00,30.17,M,10.00,M,CLR,M,M,M,M,M,M,M,M,M,M,M,M,M,M,66.20,KRTS 231115Z AUTO 35003KT 10SM CLR 19/07 A3017 RMK AO2,M
05U,2024-07-23 11:15,-116.0051,39.6042,1811.23,60.80,50.00,67.54,200.00,4.00,0.00,30.25,M,10.00,M,CLR,M,M,M,M,M,M,M,M,M,M,M,M,M,M,60.80,K05U 231115Z AUTO 20004KT 10SM CLR 16/10 A3025 RMK A01,M
MEV,2024-07-23 11:15,-119.7500,38.9963,1441.42,62.60,51.80,67.75,0.00,0.00,0.00,30.16,M,10.00,M,CLR,M,M,M,M,M,M,M,M,M,M,M,M,M,M,62.60,KMEV 231115Z AUTO 00000KT 10SM CLR 17/11 A3016 RMK AO2,M
BAM,2024-07-23 11:15,-116.8743,40.5990,1382.36,68.00,50.00,52.51,120.00,4.00,0.00,30.13,M,10.00,M,CLR,M,M,M,M,M,M,M,M,M,M,M,M,M,M,68.00,KBAM 231115Z AUTO 12004KT 10SM CLR 20/10 A3013 RMK AO1,M
HTH,2024-07-23 11:15,-118.6315,38.5448,1282.89,66.20,55.40,68.15,150.00,7.00,0.00,30.12,M,10.00,M,CLR,M,M,M,M,M,M,M,M,M,M,M,M,M,M,66.20,KHTH 231115Z AUTO 15007KT 10SM CLR 19/13 A3012 RMK A01,M
10U,2024-07-23 11:15,-116.1876,41.9532,1637.00,60.80,46.40,59.01,150.00,5.00,0.00,30.19,M,10.00,M,CLR,M,M,M,M,M,M,M,M,M,M,M,M,M,M,60.80,K10U 231115Z AUTO 15005KT 10SM CLR 16/08 A3019 RMK AO2,M
TMT,2024-07-23 11:15,-117.1971,39.4643,1749.34,56.70,49.00,75.36,210.00,4.00,0.00,30.24,M,10.00,M,CLR,M,M,M,M,M,M,M,M,M,M,M,M,M,M,56.70,KTMT 231115Z AUTO 21004KT 10SM CLR 14/09 A3024 RMK AO2 T01370094,M
BVU,2024-07-23 11:35,-114.8611,35.9475,671.00,86.00,60.80,42.80,60.00,4.00,0.00,29.89,M,10.00,M,CLR,M,M,M,M,M,M,M,M,M,M,M,M,M,M,86.05,KBVU 231135Z AUTO 06004KT 10SM CLR 30/16 A2989 RMK AO2,M
CXP,2024-07-23 11:35,-119.7326,39.1923,1431.00,69.80,48.20,46.16,300.00,3.00,0.00,30.17,M,10.00,M,CLR,M,M,M,M,M,M,M,M,M,M,M,M,M,M,69.80,KCXP 231135Z AUTO 30003KT 10SM CLR 21/09 A3017 RMK AO2,M
RTS,2024-07-23 11:35,-119.8764,39.6682,1539.00,62.60,44.60,51.72,360.00,6.00,0.00,30.17,M,10.00,M,CLR,M,M,M,M,M,M,M,M,M,M,M,M,M,M,62.60,KRTS 231135Z AUTO 36006KT 10SM CLR 17/07 A3017 RMK AO2,M
05U,2024-07-23 11:35,-116.0051,39.6042,1811.23,57.20,50.00,76.82,0.00,0.00,0.00,30.26,M,10.00,M,CLR,M,M,M,M,M,M,M,M,M,M,M,M,M,M,57.20,K05U 231135Z AUTO 00000KT 10SM CLR 14/10 A3026 RMK A01,M
MEV,2024-07-23 11:35,-119.7500,38.9963,1441.42,62.60,51.80,67.75,0.00,0.00,0.00,30.16,M,10.00,M,CLR,M,M,M,M,M,M,M,M,M,M,M,M,M,M,62.60,KMEV 231135Z AUTO 00000KT 10SM CLR 17/11 A3016 RMK AO2,M
HTH,2024-07-23 11:35,-118.6315,38.5448,1282.89,66.20,57.20,72.74,200.00,5.00,0.00,30.12,M,10.00,M,CLR,M,M,M,M,M,M,M,M,M,M,M,M,M,M,66.20,KHTH 231135Z AUTO 20005KT 10SM CLR 19/14 A3012 RMK A01,M
10U,2024-07-23 11:35,-116.1876,41.9532,1637.00,60.80,46.40,59.01,150.00,6.00,0.00,30.19,M,10.00,M,CLR,M,M,M,M,M,M,M,M,M,M,M,M,M,M,60.80,K10U 231135Z AUTO 15006KT 10SM CLR 16/08 A3019 RMK AO2,M
BAM,2024-07-23 11:35,-116.8743,40.5990,1382.36,68.00,48.20,49.10,120.00,4.00,0.00,30.13,M,10.00,M,CLR,M,M,M,M,M,M,M,M,M,M,M,M,M,M,68.00,KBAM 231135Z AUTO 12004KT 10SM CLR 20/09 A3013 RMK AO1,M
TMT,2024-07-23 11:35,-117.1971,39.4643,1749.34,58.00,49.00,71.91,210.00,5.00,0.00,30.24,M,10.00,M,CLR,M,M,M,M,M,M,M,M,M,M,M,M,M,M,58.00,KTMT 231135Z AUTO 21005KT 10SM CLR 15/10 A3024 RMK AO2 T01450095,M
10U,2024-07-23 11:50,-116.1876,41.9532,1637.00,60.80,46.40,59.01,150.00,6.00,0.00,30.20,M,10.00,M,CLR,M,M,M,M,M,M,M,M,M,M,M,M,M,M,60.80,K10U 231150Z AUTO 15006KT 10SM CLR 16/08 A3020 RMK AO2,M
HTH,2024-07-23 11:50,-118.6315,38.5448,1282.89,66.20,55.40,68.15,180.00,5.00,0.00,30.12,M,10.00,M,CLR,M,M,M,M,M,M,M,M,M,M,M,M,M,M,66.20,KHTH 231150Z AUTO 18005KT 10SM CLR 19/13 A3012 RMK A01,M
P68,2024-07-23 11:53,-116.0056,39.6014,1993.00,59.00,50.00,72.01,190.00,5.00,0.00,30.24,1015.90,M,M,M,M,M,M,M,M,M,M,M,M,M,M,M,M,M,59.00,KP68 231153Z AUTO 19005KT 15/10 A3024 RMK AO1 SLP159 70005 T01500100 10211 20144 55006,M
DRA,2024-07-23 11:53,-116.0278,36.6206,1009.00,83.00,55.00,38.26,340.00,6.00,0.00,30.01,1010.00,10.00,M,CLR,M,M,M,M,M,M,M,M,M,M,M,M,M,M,82.11,KDRA 231153Z AUTO 34006KT 10SM CLR 28/13 A3001 RMK AO2 SLP100 70011 T02830128 10317 20283 50001,M
ELY,2024-07-23 11:53,-114.8453,39.2950,1909.00,57.00,45.00,64.12,180.00,8.00,0.00,30.28,1015.20,10.00,M,CLR,M,M,M,M,M,M,M,M,M,M,M,M,M,M,57.00,KELY 231153Z AUTO 18008KT 10SM CLR 14/07 A3028 RMK AO2 SLP152 T01390072 10211 20139 55000 $,M
VGT,2024-07-23 11:53,-115.1933,36.2111,667.00,95.00,54.00,25.26,320.00,10.00,0.00,29.89,1010.00,10.00,M,CLR,M,M,M,M,M,M,M,M,M,M,M,M,M,M,92.82,KVGT 231153Z AUTO 32010KT 10SM CLR 35/12 A2989 RMK AO2 SLP100 T03500122 10372 20350 55001,M
LOL,2024-07-23 11:53,-118.5701,40.0684,1192.43,64.00,54.00,69.92,80.00,3.00,0.00,30.07,1013.30,10.00,M,CLR,M,M,M,M,M,M,M,M,M,M,M,M,M,M,64.00,KLOL 231153Z AUTO 08003KT 10SM CLR 18/12 A3007 RMK AO2 SLP133 60000 70003 T01780122 10294 20178 53002,M
BVU,2024-07-23 11:55,-114.8611,35.9475,671.00,86.00,60.80,42.80,50.00,6.00,0.00,29.89,M,10.00,M,CLR,M,M,M,M,M,M,M,M,M,M,M,M,M,M,86.05,KBVU 231155Z AUTO 05006KT 10SM CLR 30/16 A2989 RMK AO2,M
CXP,2024-07-23 11:55,-119.7326,39.1923,1431.00,69.80,50.00,49.37,0.00,0.00,0.00,30.17,M,10.00,M,CLR,M,M,M,M,M,M,M,M,M,M,M,M,M,M,69.80,KCXP 231155Z AUTO 00000KT 10SM CLR 21/10 A3017 RMK AO2,M
RNO,2024-07-23 11:55,-119.7711,39.4839,1341.00,75.00,50.00,41.41,250.00,3.00,0.00,30.12,1012.80,10.00,M,FEW,M,M,M,18000.00,M,M,M,M,M,M,M,M,M,M,75.00,KRNO 231155Z 25003KT 10SM FEW180 24/10 A3012 RMK AO2 SLP128 FU ALF ALQDS T02390100 10294 20239 53001,M
RTS,2024-07-23 11:55,-119.8764,39.6682,1539.00,66.20,46.40,48.83,350.00,5.00,0.00,30.17,M,10.00,M,CLR,M,M,M,M,M,M,M,M,M,M,M,M,M,M,66.20,KRTS 231155Z AUTO 35005KT 10SM CLR 19/08 A3017 RMK AO2,M
05U,2024-07-23 11:55,-116.0051,39.6042,1811.23,59.00,50.00,72.01,0.00,0.00,0.00,30.26,M,10.00,M,CLR,M,M,M,M,M,M,M,M,M,M,M,M,M,M,59.00,K05U 231155Z AUTO 00000KT 10SM CLR 15/10 A3026 RMK A01,M
MEV,2024-07-23 11:55,-119.7500,38.9963,1441.42,60.80,50.00,67.54,0.00,0.00,0.00,30.16,M,10.00,M,CLR,M,M,M,M,M,M,M,M,M,M,M,M,M,M,60.80,KMEV 231155Z AUTO 00000KT 10SM CLR 16/10 A3016 RMK AO2,M
BAM,2024-07-23 11:55,-116.8743,40.5990,1382.36,66.20,50.00,55.88,80.00,5.00,0.00,30.14,M,10.00,M,CLR,M,M,M,M,M,M,M,M,M,M,M,M,M,M,66.20,KBAM 231155Z AUTO 08005KT 10SM CLR 19/10 A3014 RMK AO1,M
TMT,2024-07-23 11:55,-117.1971,39.4643,1749.34,60.40,49.50,67.24,220.00,6.00,0.00,30.24,M,10.00,M,CLR,M,M,M,M,M,M,M,M,M,M,M,M,M,M,60.40,KTMT 231155Z AUTO 22006KT 10SM CLR 16/10 A3024 RMK AO2 T01580097 10214 20125,M
INS,2024-07-23 11:55,-115.6733,36.5872,955.00,86.00,50.00,28.90,350.00,8.00,0.00,29.99,1009.30,10.00,M,OVC,M,M,M,17000.00,M,M,M,M,M,M,M,M,M,M,83.62,KINS 231155Z AUTO 35008KT 10SM OVC170 30/10 A2999 RMK AO2 SLP093 T02990099 10329 20296 50002 $,M
LSV,2024-07-23 11:55,-115.0343,36.2362,570.00,92.50,56.50,29.89,70.00,7.00,0.00,29.83,1006.70,10.00,M,CLR,M,M,M,M,M,M,M,M,M,M,M,M,M,M,90.96,KLSV 231155Z AUTO 07007KT 10SM CLR 34/14 A2983 RMK AO2 SLP067 T03360136 10370 20334 53001 $,M
EKO,2024-07-23 11:56,-115.7860,40.8242,1367.00,67.00,53.00,60.73,90.00,5.00,0.00,30.18,1015.60,10.00,M,CLR,M,M,M,M,M,M,M,M,M,M,M,M,M,M,67.00,KEKO 231156Z AUTO 09005KT 10SM CLR 19/12 A3018 RMK AO2 SLP156 T01940117 10278 20194 53006,M
WMC,2024-07-23 11:56,-117.8072,40.9019,1315.00,61.00,49.00,64.61,150.00,3.00,0.00,30.11,1013.90,10.00,M,CLR,M,M,M,M,M,M,M,M,M,M,M,M,M,M,61.00,KWMC 231156Z AUTO 15003KT 10SM CLR 16/09 A3011 RMK AO2 SLP139 60000 70002 T01610094 10283 20144 53006,M
HND,2024-07-23 11:56,-115.1344,35.9729,742.79,90.00,57.00,32.91,210.00,6.00,0.00,29.94,1011.70,10.00,M,CLR,M,M,M,M,M,M,M,M,M,M,M,M,M,M,88.61,KHND 231156Z AUTO 21006KT 10SM CLR 32/14 A2994 RMK AO2 SLP117 T03220139 10356 20322 55003,M
TPH,2024-07-23 11:56,-117.0904,38.0505,1654.00,65.00,55.00,70.03,360.00,11.00,0.00,30.22,1014.20,10.00,M,CLR,M,M,M,M,M,M,M,M,M,M,M,M,M,M,65.00,KTPH 231156Z AUTO 36011KT 10SM CLR 18/13 A3022 RMK AO2 SLP142 70011 T01830128 10217 20183 53001,M
LAS,2024-07-23 11:56,-115.1634,36.0719,663.00,94.00,56.00,28.01,M,3.00,0.00,29.89,1005.00,10.00,M,FEW,BKN,M,M,12000.00,16000.00,M,M,M,M,M,M,M,M,M,92.36,KLAS 231156Z VRB03KT 10SM FEW120 BKN160 34/13 A2989 RMK AO2 SLP050 T03440133 10378 20344 57003 $,M
BVU,2024-07-23 12:15,-114.8611,35.9475,671.00,87.80,59.00,37.90,80.00,5.00,0.00,29.90,M,10.00,M,CLR,M,M,M,M,M,M,M,M,M,M,M,M,M,M,87.12,KBVU 231215Z AUTO 08005KT 10SM CLR 31/15 A2990 RMK AO2,M
CXP,2024-07-23 12:15,-119.7326,39.1923,1431.00,66.20,50.00,55.88,0.00,0.00,0.00,30.17,M,10.00,M,CLR,M,M,M,M,M,M,M,M,M,M,M,M,M,M,66.20,KCXP 231215Z AUTO 00000KT 10SM CLR 19/10 A3017 RMK AO2,M
RTS,2024-07-23 12:15,-119.8764,39.6682,1539.00,64.40,44.60,48.55,80.00,4.00,0.00,30.18,M,10.00,M,CLR,M,M,M,M,M,M,M,M,M,M,M,M,M,M,64.40,KRTS 231215Z AUTO 08004KT 10SM CLR 18/07 A3018 RMK AO2,M
05U,2024-07-23 12:15,-116.0051,39.6042,1811.23,59.00,48.20,67.33,0.00,0.00,0.00,30.27,M,10.00,M,CLR,M,M,M,M,M,M,M,M,M,M,M,M,M,M,59.00,K05U 231215Z AUTO 00000KT 10SM CLR 15/09 A3027 RMK A01,M
MEV,2024-07-23 12:15,-119.7500,38.9963,1441.42,59.00,51.80,76.98,0.00,0.00,0.00,30.16,M,10.00,M,CLR,M,M,M,M,M,M,M,M,M,M,M,M,M,M,59.00,KMEV 231215Z AUTO 00000KT 10SM CLR 15/11 A3016 RMK AO2,M
BAM,2024-07-23 12:15,-116.8743,40.5990,1382.36,66.20,50.00,55.88,40.00,3.00,0.00,30.15,M,10.00,M,CLR,M,M,M,M,M,M,M,M,M,M,M,M,M,M,66.20,KBAM 231215Z AUTO 04003KT 10SM CLR 19/10 A3015 RMK AO1,M
HTH,2024-07-23 12:15,-118.6315,38.5448,1282.89,66.20,55.40,68.15,40.00,5.00,0.00,30.13,M,10.00,M,CLR,M,M,M,M,M,M,M,M,M,M,M,M,M,M,66.20,KHTH 231215Z AUTO 04005KT 10SM CLR 19/13 A3013 RMK A01,M
TMT,2024-07-23 12:15,-117.1971,39.4643,1749.34,58.50,50.40,74.41,230.00,4.00,0.00,30.25,M,10.00,M,CLR,M,M,M,M,M,M,M,M,M,M,M,M,M,M,58.50,KTMT 231215Z AUTO 23004KT 10SM CLR 15/10 A3025 RMK AO2 T01470102,M
10U,2024-07-23 12:15,-116.1876,41.9532,1637.00,59.00,46.40,62.92,150.00,7.00,0.00,30.20,M,10.00,M,CLR,M,M,M,M,M,M,M,M,M,M,M,M,M,M,59.00,K10U 231215Z AUTO 15007KT 10SM CLR 15/08 A3020 RMK AO2,M
BVU,2024-07-23 12:35,-114.8611,35.9475,671.00,86.00,60.80,42.80,50.00,5.00,0.00,29.90,M,10.00,M,CLR,M,M,M,M,M,M,M,M,M,M,M,M,M,M,86.05,KBVU 231235Z AUTO 05005KT 10SM CLR 30/16 A2990 RMK AO2,M
CXP,2024-07-23 12:35,-119.7326,39.1923,1431.00,66.20,50.00,55.88,0.00,0.00,0.00,30.18,M,10.00,M,CLR,M,M,M,M,M,M,M,M,M,M,M,M,M,M,66.20,KCXP 231235Z AUTO 00000KT 10SM CLR 19/10 A3018 RMK AO2,M
RTS,2024-07-23 12:35,-119.8764,39.6682,1539.00,62.60,46.40,55.37,310.00,4.00,0.00,30.18,M,10.00,M,CLR,M,M,M,M,M,M,M,M,M,M,M,M,M,M,62.60,KRTS 231235Z AUTO 31004KT 10SM CLR 17/08 A3018 RMK AO2,M
05U,2024-07-23 12:35,-116.0051,39.6042,1811.23,55.40,50.00,81.99,0.00,0.00,0.00,30.27,M,10.00,M,CLR,M,M,M,M,M,M,M,M,M,M,M,M,M,M,55.40,K05U 231235Z AUTO 00000KT 10SM CLR 13/10 A3027 RMK A01,M
MEV,2024-07-23 12:35,-119.7500,38.9963,1441.42,59.00,51.80,76.98,80.00,4.00,0.00,30.17,M,10.00,M,CLR,M,M,M,M,M,M,M,M,M,M,M,M,M,M,59.00,KMEV 231235Z AUTO 08004KT 10SM CLR 15/11 A3017 RMK AO2,M
BAM,2024-07-23 12:35,-116.8743,40.5990,1382.36,68.00,51.80,56.13,0.00,0.00,0.00,30.15,M,10.00,M,CLR,M,M,M,M,M,M,M,M,M,M,M,M,M,M,68.00,KBAM 231235Z AUTO 00000KT 10SM CLR 20/11 A3015 RMK AO1,M
HTH,2024-07-23 12:35,-118.6315,38.5448,1282.89,66.20,55.40,68.15,150.00,5.00,0.00,30.13,M,10.00,M,CLR,M,M,M,M,M,M,M,M,M,M,M,M,M,M,66.20,KHTH 231235Z AUTO 15005KT 10SM CLR 19/13 A3013 RMK A01,M
10U,2024-07-23 12:35,-116.1876,41.9532,1637.00,60.80,46.40,59.01,130.00,6.00,0.00,30.20,M,10.00,M,FEW,M,M,M,12000.00,M,M,M,M,M,M,M,M,M,M,60.80,K10U 231235Z AUTO 13006KT 10SM FEW120 16/08 A3020 RMK AO2,M
TMT,2024-07-23 12:35,-117.1971,39.4643,1749.34,58.50,49.60,72.23,230.00,7.00,0.00,30.25,M,10.00,M,CLR,M,M,M,M,M,M,M,M,M,M,M,M,M,M,58.50,KTMT 231235Z AUTO 23007KT 10SM CLR 15/10 A3025 RMK AO2 T01470098,M
P68,2024-07-23 12:53,-116.0056,39.6014,1993.00,55.00,49.00,80.15,0.00,0.00,0.00,30.25,1017.00,M,M,M,M,M,M,M,M,M,M,M,M,M,M,M,M,M,55.00,KP68 231253Z AUTO 00000KT 13/09 A3025 RMK AO1 SLP170 T01280094,M
DRA,2024-07-23 12:53,-116.0278,36.6206,1009.00,83.00,55.00,38.26,40.00,6.00,0.00,30.02,1010.40,10.00,M,CLR,M,M,M,M,M,M,M,M,M,M,M,M,M,M,82.11,KDRA 231253Z AUTO 04006KT 10SM CLR 28/13 A3002 RMK AO2 SLP104 T02830128,M
ELY,2024-07-23 12:53,-114.8453,39.2950,1909.00,55.00,45.00,68.93,170.00,10.00,0.00,30.29,1016.30,10.00,M,FEW,M,M,M,12000.00,M,M,M,M,M,M,M,M,M,M,55.00,KELY 231253Z AUTO 17010KT 10SM FEW120 13/07 A3029 RMK AO2 SLP163 T01280072 $,M
VGT,2024-07-23 12:53,-115.1933,36.2111,667.00,94.00,54.00,26.05,40.00,8.00,0.00,29.91,1011.00,10.00,M,CLR,M,M,M,M,M,M,M,M,M,M,M,M,M,M,91.78,KVGT 231253Z AUTO 04008KT 10SM CLR 34/12 A2991 RMK AO2 SLP110 T03440122,M
LOL,2024-07-23 12:53,-118.5701,40.0684,1192.43,65.00,53.00,65.09,0.00,0.00,0.00,30.08,1013.80,10.00,M,CLR,M,M,M,M,M,M,M,M,M,M,M,M,M,M,65.00,KLOL 231253Z AUTO 00000KT 10SM CLR 18/12 A3008 RMK AO2 SLP138 T01830117,M
NFL,2024-07-23 12:54,-118.7010,39.4166,1199.00,69.00,50.00,50.74,160.00,5.00,0.00,30.09,1015.70,10.00,M,CLR,M,M,M,M,M,M,M,M,M,M,M,M,M,M,69.00,KNFL 231254Z AUTO 16005KT 10SM CLR 21/10 A3009 RMK AO2 SLP157 T02060100,M
BVU,2024-07-23 12:55,-114.8611,35.9475,671.00,84.20,60.80,45.34,30.00,4.00,0.00,29.90,M,10.00,M,CLR,M,M,M,M,M,M,M,M,M,M,M,M,M,M,84.43,KBVU 231255Z AUTO 03004KT 10SM CLR 29/16 A2990 RMK AO2,M
CXP,2024-07-23 12:55,-119.7326,39.1923,1431.00,66.20,50.00,55.88,0.00,0.00,0.00,30.18,M,10.00,M,CLR,M,M,M,M,M,M,M,M,M,M,M,M,M,M,66.20,KCXP 231255Z AUTO 00000KT 10SM CLR 19/10 A3018 RMK AO2,M
RNO,2024-07-23 12:55,-119.7711,39.4839,1341.00,74.00,50.00,42.82,0.00,0.00,0.00,30.13,1013.30,10.00,M,SCT,M,M,M,18000.00,M,M,M,M,M,M,M,M,M,M,74.00,KRNO 231255Z 00000KT 10SM SCT180 23/10 A3013 RMK AO2 SLP133 FU ALF ALQDS T02330100,M
RTS,2024-07-23 12:55,-119.8764,39.6682,1539.00,60.80,44.60,55.12,310.00,5.00,0.00,30.19,M,10.00,M,CLR,M,M,M,M,M,M,M,M,M,M,M,M,M,M,60.80,KRTS 231255Z AUTO 31005KT 10SM CLR 16/07 A3019 RMK AO2,M
05U,2024-07-23 12:55,-116.0051,39.6042,1811.23,55.40,48.20,76.66,0.00,0.00,0.00,30.28,M,10.00,M,CLR,M,M,M,M,M,M,M,M,M,M,M,M,M,M,55.40,K05U 231255Z AUTO 00000KT 10SM CLR 13/09 A3028 RMK A01,M
MEV,2024-07-23 12:55,-119.7500,38.9963,1441.42,57.20,50.00,76.82,100.00,3.00,0.00,30.17,M,10.00,M,CLR,M,M,M,M,M,M,M,M,M,M,M,M,M,M,57.20,KMEV 231255Z AUTO 10003KT 10SM CLR 14/10 A3017 RMK AO2,M
BAM,2024-07-23 12:55,-116.8743,40.5990,1382.36,68.00,51.80,56.13,0.00,0.00,0.00,30.16,M,10.00,M,CLR,M,M,M,M,M,M,M,M,M,M,M,M,M,M,68.00,KBAM 231255Z AUTO 00000KT 10SM CLR 20/11 A3016 RMK AO1,M
HTH,2024-07-23 12:55,-118.6315,38.5448,1282.89,66.20,55.40,68.15,200.00,4.00,0.00,30.14,M,10.00,M,CLR,M,M,M,M,M,M,M,M,M,M,M,M,M,M,66.20,KHTH 231255Z AUTO 20004KT 10SM CLR 19/13 A3014 RMK A01,M
10U,2024-07-23 12:55,-116.1876,41.9532,1637.00,62.60,48.20,59.26,120.00,4.00,0.00,30.21,M,10.00,M,FEW,M,M,M,12000.00,M,M,M,M,M,M,M,M,M,M,62.60,K10U 231255Z AUTO 12004KT 10SM FEW120 17/09 A3021 RMK AO2,M
TMT,2024-07-23 12:55,-117.1971,39.4643,1749.34,57.70,50.00,75.45,210.00,3.00,0.00,30.25,M,10.00,M,CLR,M,M,M,M,M,M,M,M,M,M,M,M,M,M,57.70,KTMT 231255Z AUTO 21003KT 10SM CLR 14/10 A3025 RMK AO2 T01430100,M
INS,2024-07-23 12:55,-115.6733,36.5872,955.00,84.40,49.50,29.86,300.00,5.00,0.00,30.01,1009.90,10.00,M,SCT,M,M,M,18000.00,M,M,M,M,M,M,M,M,M,M,82.32,KINS 231255Z AUTO 30005KT 10SM SCT180 29/10 A3001 RMK AO2 SLP099 T02910097 $,M
LSV,2024-07-23 12:55,-115.0343,36.2362,570.00,91.60,55.00,29.11,80.00,8.00,0.00,29.85,1007.40,10.00,M,CLR,M,M,M,M,M,M,M,M,M,M,M,M,M,M,89.62,KLSV 231255Z AUTO 08008KT 10SM CLR 33/13 A2985 RMK AO2 SLP074 T03310127 $,M
EKO,2024-07-23 12:56,-115.7860,40.8242,1367.00,67.00,53.00,60.73,50.00,5.00,0.00,30.20,1015.80,10.00,M,CLR,M,M,M,M,M,M,M,M,M,M,M,M,M,M,67.00,KEKO 231256Z AUTO 05005KT 10SM CLR 19/12 A3020 RMK AO2 SLP158 T01940117,M
WMC,2024-07-23 12:56,-117.8072,40.9019,1315.00,63.00,52.00,67.29,160.00,5.00,0.00,30.12,1014.10,10.00,M,CLR,M,M,M,M,M,M,M,M,M,M,M,M,M,M,63.00,KWMC 231256Z AUTO 16005KT 10SM CLR 17/11 A3012 RMK AO2 SLP141 T01720111,M
HND,2024-07-23 12:56,-115.1344,35.9729,742.79,89.00,58.00,35.20,210.00,10.00,0.00,29.96,1012.30,10.00,M,CLR,M,M,M,M,M,M,M,M,M,M,M,M,M,M,87.94,KHND 231256Z 21010KT 10SM CLR 32/14 A2996 RMK AO2 SLP123 T03170144,M
TPH,2024-07-23 12:56,-117.0904,38.0505,1654.00,62.00,55.00,77.81,30.00,8.00,0.00,30.24,1015.80,10.00,M,CLR,M,M,M,M,M,M,M,M,M,M,M,M,M,M,62.00,KTPH 231256Z AUTO 03008KT 10SM CLR 17/13 A3024 RMK AO2 SLP158 T01670128,M
LAS,2024-07-23 12:56,-115.1634,36.0719,663.00,95.00,56.00,27.16,220.00,3.00,0.00,29.92,1006.10,10.00,M,FEW,BKN,M,M,15000.00,20000.00,M,M,M,M,M,M,M,M,M,93.41,KLAS 231256Z 22003KT 10SM FEW150 BKN200 35/13 A2992 RMK AO2 PRESRR SLP061 T03500133 $,M
RTS,2024-07-23 13:05,-119.8764,39.6682,1539.00,60.80,44.60,55.12,0.00,0.00,0.00,30.19,M,10.00,M,CLR,M,M,M,M,M,M,M,M,M,M,M,M,M,M,60.80,KRTS 231305Z AUTO 00000KT 10SM CLR 16/07 A3019 RMK AO2,M
MEV,2024-07-23 13:05,-119.7500,38.9963,1441.42,59.00,50.00,72.01,110.00,5.00,0.00,30.17,M,10.00,M,CLR,M,M,M,M,M,M,M,M,M,M,M,M,M,M,59.00,KMEV 231305Z AUTO 11005KT 10SM CLR 15/10 A3017 RMK AO2,M
BVU,2024-07-23 13:15,-114.8611,35.9475,671.00,86.00,59.00,40.14,40.00,4.00,0.00,29.91,M,10.00,M,CLR,M,M,M,M,M,M,M,M,M,M,M,M,M,M,85.47,KBVU 231315Z AUTO 04004KT 10SM CLR 30/15 A2991 RMK AO2,M
CXP,2024-07-23 13:15,-119.7326,39.1923,1431.00,66.20,50.00,55.88,320.00,6.00,0.00,30.18,M,8.00,M,CLR,M,M,M,M,M,M,M,M,M,M,M,M,M,M,66.20,KCXP 231315Z AUTO 32006KT 8SM CLR 19/10 A3018 RMK AO2,M
05U,2024-07-23 13:15,-116.0051,39.6042,1811.23,53.60,50.00,87.56,0.00,0.00,0.00,30.29,M,10.00,M,CLR,M,M,M,M,M,M,M,M,M,M,M,M,M,M,53.60,K05U 231315Z AUTO 00000KT 10SM CLR 12/10 A3029 RMK A01,M
BAM,2024-07-23 13:15,-116.8743,40.5990,1382.36,64.40,50.00,59.50,70.00,3.00,0.00,30.16,M,10.00,M,CLR,M,M,M,M,M,M,M,M,M,M,M,M,M,M,64.40,KBAM 231315Z AUTO 07003KT 10SM CLR 18/10 A3016 RMK AO1,M
HTH,2024-07-23 13:15,-118.6315,38.5448,1282.89,66.20,55.40,68.15,170.00,7.00,0.00,30.13,M,10.00,M,CLR,M,M,M,M,M,M,M,M,M,M,M,M,M,M,66.20,KHTH 231315Z AUTO 17007KT 10SM CLR 19/13 A3013 RMK A01,M
10U,2024-07-23 13:15,-116.1876,41.9532,1637.00,64.40,48.20,55.63,130.00,6.00,0.00,30.21,M,10.00,M,SCT,M,M,M,12000.00,M,M,M,M,M,M,M,M,M,M,64.40,K10U 231315Z AUTO 13006KT 10SM SCT120 18/09 A3021 RMK AO2,M
TMT,2024-07-23 13:15,-117.1971,39.4643,1749.34,57.00,48.40,72.89,0.00,0.00,0.00,30.25,M,10.00,M,CLR,M,M,M,M,M,M,M,M,M,M,M,M,M,M,57.00,KTMT 231315Z AUTO 00000KT 10SM CLR 14/09 A3025 RMK AO2 T01380091,M
05U,2024-07-23 13:30,-116.0051,39.6042,1811.23,55.40,50.00,81.99,0.00,0.00,0.00,30.29,M,10.00,M,CLR,M,M,M,M,M,M,M,M,M,M,M,M,M,M,55.40,K05U 231330Z AUTO 00000KT 10SM CLR 13/10 A3029 RMK A01,M
BVU,2024-07-23 13:35,-114.8611,35.9475,671.00,87.80,59.00,37.90,70.00,3.00,0.00,29.92,M,10.00,M,CLR,M,M,M,M,M,M,M,M,M,M,M,M,M,M,87.12,KBVU 231335Z AUTO 07003KT 10SM CLR 31/15 A2992 RMK AO2,M
CXP,2024-07-23 13:35,-119.7326,39.1923,1431.00,69.80,50.00,49.37,310.00,5.00,0.00,30.18,M,10.00,M,CLR,M,M,M,M,M,M,M,M,M,M,M,M,M,M,69.80,KCXP 231335Z AUTO 31005KT 10SM CLR 21/10 A3018 RMK AO2,M
RTS,2024-07-23 13:35,-119.8764,39.6682,1539.00,62.60,44.60,51.72,290.00,4.00,0.00,30.20,M,9.00,M,CLR,M,M,M,M,M,M,M,M,M,M,M,M,M,M,62.60,KRTS 231335Z AUTO 29004KT 9SM CLR 17/07 A3020 RMK AO2,M
MEV,2024-07-23 13:35,-119.7500,38.9963,1441.42,60.80,51.80,72.20,120.00,4.00,0.00,30.18,M,10.00,M,CLR,M,M,M,M,M,M,M,M,M,M,M,M,M,M,60.80,KMEV 231335Z AUTO 12004KT 10SM CLR 16/11 A3018 RMK AO2,M
BAM,2024-07-23 13:35,-116.8743,40.5990,1382.36,64.40,51.80,63.60,90.00,4.00,0.00,30.16,M,10.00,M,CLR,M,M,M,M,M,M,M,M,M,M,M,M,M,M,64.40,KBAM 231335Z AUTO 09004KT 10SM CLR 18/11 A3016 RMK AO1,M
HTH,2024-07-23 13:35,-118.6315,38.5448,1282.89,68.00,55.40,64.04,100.00,4.00,0.00,30.14,M,10.00,M,CLR,M,M,M,M,M,M,M,M,M,M,M,M,M,M,68.00,KHTH 231335Z AUTO 10004KT 10SM CLR 20/13 A3014 RMK A01,M
10U,2024-07-23 13:35,-116.1876,41.9532,1637.00,68.00,48.20,49.10,M,4.00,0.00,30.21,M,10.00,M,CLR,M,M,M,M,M,M,M,M,M,M,M,M,M,M,68.00,K10U 231335Z AUTO VRB04KT 10SM CLR 20/09 A3021 RMK AO2,M
TMT,2024-07-23 13:35,-117.1971,39.4643,1749.34,59.70,49.50,68.94,0.00,0.00,0.00,30.26,M,10.00,M,CLR,M,M,M,M,M,M,M,M,M,M,M,M,M,M,59.70,KTMT 231335Z AUTO 00000KT 10SM CLR 15/10 A3026 RMK AO2 T01540097,M
NFL,2024-07-23 13:38,-118.7010,39.4166,1199.00,75.00,51.00,42.98,190.00,4.00,0.00,30.10,M,10.00,M,FEW,SCT,M,M,12000.00,20000.00,M,M,M,M,M,M,M,M,M,75.00,KNFL 231338Z 19004KT 10SM FEW120 SCT200 24/11 A3010 RMK AO2 FU SCT200 T02390106,M
HTH,2024-07-23 13:50,-118.6315,38.5448,1282.89,68.00,55.40,64.04,120.00,8.00,0.00,30.14,M,10.00,M,CLR,M,M,M,M,M,M,M,M,M,M,M,M,M,M,68.00,KHTH 231350Z AUTO 12008KT 10SM CLR 20/13 A3014 RMK A01,M
P68,2024-07-23 13:53,-116.0056,39.6014,1993.00,59.00,50.00,72.01,170.00,3.00,0.00,30.27,1017.00,M,M,M,M,M,M,M,M,M,M,M,M,M,M,M,M,M,59.00,KP68 231353Z AUTO 17003KT 15/10 A3027 RMK AO1 SLP170 T01500100,M
DRA,2024-07-23 13:53,-116.0278,36.6206,1009.00,81.00,60.00,48.88,0.00,0.00,0.00,30.03,1011.10,10.00,M,CLR,M,M,M,M,M,M,M,M,M,M,M,M,M,M,81.60,KDRA 231353Z AUTO 00000KT 10SM CLR 27/16 A3003 RMK AO2 SLP111 T02720156,M
ELY,2024-07-23 13:53,-114.8453,39.2950,1909.00,64.00,48.00,55.99,180.00,6.00,0.00,30.29,1016.00,10.00,M,CLR,M,M,M,M,M,M,M,M,M,M,M,M,M,M,64.00,KELY 231353Z AUTO 18006KT 10SM CLR 18/09 A3029 RMK AO2 SLP160 T01780089 $,M
VGT,2024-07-23 13:53,-115.1933,36.2111,667.00,94.00,54.00,26.05,360.00,7.00,0.00,29.93,1011.90,10.00,M,CLR,M,M,M,M,M,M,M,M,M,M,M,M,M,M,91.78,KVGT 231353Z 36007KT 10SM CLR 34/12 A2993 RMK AO2 SLP119 T03440122,M
LOL,2024-07-23 13:53,-118.5701,40.0684,1192.43,68.00,55.00,63.12,90.00,5.00,0.00,30.10,1014.20,10.00,M,CLR,M,M,M,M,M,M,M,M,M,M,M,M,M,M,68.00,KLOL 231353Z AUTO 09005KT 10SM CLR 20/13 A3010 RMK AO2 SLP142 T02000128,M
NFL,2024-07-23 13:54,-118.7010,39.4166,1199.00,77.00,52.00,41.72,190.00,3.00,0.00,30.10,1015.90,10.00,M,FEW,SCT,M,M,12000.00,20000.00,M,M,M,M,M,M,M,M,M,77.00,KNFL 231354Z 19003KT 10SM FEW120 SCT200 25/11 A3010 RMK AO2 SLP159 FU SCT200 T02500111,M
BVU,2024-07-23 13:55,-114.8611,35.9475,671.00,89.60,60.80,38.18,0.00,0.00,0.00,29.92,M,10.00,M,CLR,M,M,M,M,M,M,M,M,M,M,M,M,M,M,89.54,KBVU 231355Z AUTO 00000KT 10SM CLR 32/16 A2992 RMK AO2,M
CXP,2024-07-23 13:55,-119.7326,39.1923,1431.00,69.80,50.00,49.37,310.00,4.00,0.00,30.18,M,10.00,M,CLR,M,M,M,M,M,M,M,M,M,M,M,M,M,M,69.80,KCXP 231355Z AUTO 31004KT 10SM CLR 21/10 A3018 RMK AO2,M
RNO,2024-07-23 13:55,-119.7711,39.4839,1341.00,74.00,50.00,42.82,280.00,4.00,0.00,30.14,1013.70,10.00,M,SCT,M,M,M,18000.00,M,M,M,M,M,M,M,M,M,M,74.00,KRNO 231355Z 28004KT 10SM SCT180 23/10 A3014 RMK AO2 SLP137 FU ALF ALQDS T02330100,M
RTS,2024-07-23 13:55,-119.8764,39.6682,1539.00,66.20,46.40,48.83,340.00,5.00,0.00,30.20,M,10.00,M,CLR,M,M,M,M,M,M,M,M,M,M,M,M,M,M,66.20,KRTS 231355Z AUTO 34005KT 10SM CLR 19/08 A3020 RMK AO2,M
05U,2024-07-23 13:55,-116.0051,39.6042,1811.23,59.00,50.00,72.01,0.00,0.00,0.00,30.29,M,10.00,M,CLR,M,M,M,M,M,M,M,M,M,M,M,M,M,M,59.00,K05U 231355Z AUTO 00000KT 10SM CLR 15/10 A3029 RMK A01,M
MEV,2024-07-23 13:55,-119.7500,38.9963,1441.42,64.40,51.80,63.60,0.00,0.00,0.00,30.18,M,10.00,M,CLR,M,M,M,M,M,M,M,M,M,M,M,M,M,M,64.40,KMEV 231355Z AUTO 00000KT 10SM CLR 18/11 A3018 RMK AO2,M
BAM,2024-07-23 13:55,-116.8743,40.5990,1382.36,68.00,51.80,56.13,0.00,0.00,0.00,30.17,M,10.00,M,CLR,M,M,M,M,M,M,M,M,M,M,M,M,M,M,68.00,KBAM 231355Z AUTO 00000KT 10SM CLR 20/11 A3017 RMK AO1,M
10U,2024-07-23 13:55,-116.1876,41.9532,1637.00,69.80,48.20,46.16,140.00,4.00,0.00,30.21,M,10.00,M,FEW,M,M,M,12000.00,M,M,M,M,M,M,M,M,M,M,69.80,K10U 231355Z AUTO 14004KT 10SM FEW120 21/09 A3021 RMK AO2,M
TMT,2024-07-23 13:55,-117.1971,39.4643,1749.34,62.20,49.60,63.33,0.00,0.00,0.00,30.27,M,10.00,M,CLR,M,M,M,M,M,M,M,M,M,M,M,M,M,M,62.20,KTMT 231355Z AUTO 00000KT 10SM CLR 17/10 A3027 RMK AO2 T01680098,M
INS,2024-07-23 13:55,-115.6733,36.5872,955.00,85.50,53.00,32.81,200.00,3.00,0.00,30.03,1010.60,10.00,M,CLR,M,M,M,M,M,M,M,M,M,M,M,M,M,M,83.67,KINS 231355Z AUTO 20003KT 10SM CLR 30/12 A3003 RMK AO2 SLP106 T02970117 $,M
LSV,2024-07-23 13:55,-115.0343,36.2362,570.00,91.20,52.50,26.90,70.00,9.00,0.00,29.87,1008.20,10.00,M,CLR,M,M,M,M,M,M,M,M,M,M,M,M,M,M,88.64,KLSV 231355Z AUTO 07009KT 10SM CLR 33/11 A2987 RMK AO2 SLP082 T03290114 $,M
EKO,2024-07-23 13:56,-115.7860,40.8242,1367.00,68.00,54.00,60.86,110.00,5.00,0.00,30.21,1016.30,10.00,M,CLR,M,M,M,M,M,M,M,M,M,M,M,M,M,M,68.00,KEKO 231356Z AUTO 11005KT 10SM CLR 20/12 A3021 RMK AO2 SLP163 T02000122,M
WMC,2024-07-23 13:56,-117.8072,40.9019,1315.00,67.00,53.00,60.73,150.00,3.00,0.00,30.13,1014.60,10.00,M,CLR,M,M,M,M,M,M,M,M,M,M,M,M,M,M,67.00,KWMC 231356Z AUTO 15003KT 10SM CLR 19/12 A3013 RMK AO2 SLP146 T01940117,M
HND,2024-07-23 13:56,-115.1344,35.9729,742.79,90.00,58.00,34.11,210.00,7.00,0.00,29.98,1013.10,10.00,M,CLR,M,M,M,M,M,M,M,M,M,M,M,M,M,M,88.92,KHND 231356Z 21007KT 10SM CLR 32/14 A2998 RMK AO2 SLP131 T03220144,M
TPH,2024-07-23 13:56,-117.0904,38.0505,1654.00,67.00,54.00,62.99,360.00,6.00,0.00,30.25,1016.20,4.00,M,CLR,M,M,M,M,M,M,M,HZ,M,M,M,M,M,M,67.00,KTPH 231356Z AUTO 36006KT 4SM HZ CLR 19/12 A3025 RMK AO2 SLP162 T01940122,M
LAS,2024-07-23 13:56,-115.1634,36.0719,663.00,96.00,53.00,23.61,360.00,7.00,0.00,29.94,1006.90,10.00,M,FEW,SCT,M,M,15000.00,20000.00,M,M,M,M,M,M,M,M,M,93.59,KLAS 231356Z 36007KT 10SM FEW150 SCT200 36/12 A2994 RMK AO2 SLP069 T03560117 $,M
BVU,2024-07-23 14:15,-114.8611,35.9475,671.00,91.40,59.00,33.84,0.00,0.00,0.00,29.93,M,10.00,M,CLR,M,M,M,M,M,M,M,M,M,M,M,M,M,M,90.68,KBVU 231415Z AUTO 00000KT 10SM CLR 33/15 A2993 RMK AO2,M
CXP,2024-07-23 14:15,-119.7326,39.1923,1431.00,71.60,50.00,46.43,0.00,0.00,0.00,30.19,M,10.00,M,CLR,M,M,M,M,M,M,M,M,M,M,M,M,M,M,71.60,KCXP 231415Z AUTO 00000KT 10SM CLR 22/10 A3019 RMK AO2,M
RTS,2024-07-23 14:15,-119.8764,39.6682,1539.00,69.80,46.40,43.13,330.00,4.00,0.00,30.20,M,10.00,M,CLR,M,M,M,M,M,M,M,M,M,M,M,M,M,M,69.80,KRTS 231415Z AUTO 33004KT 10SM CLR 21/08 A3020 RMK AO2,M
05U,2024-07-23 14:15,-116.0051,39.6042,1811.23,62.60,50.00,63.38,0.00,0.00,0.00,30.30,M,10.00,M,CLR,M,M,M,M,M,M,M,M,M,M,M,M,M,M,62.60,K05U 231415Z AUTO 00000KT 10SM CLR 17/10 A3030 RMK A01,M
MEV,2024-07-23 14:15,-119.7500,38.9963,1441.42,68.00,50.00,52.51,240.00,3.00,0.00,30.18,M,10.00,M,CLR,M,M,M,M,M,M,M,M,M,M,M,M,M,M,68.00,KMEV 231415Z AUTO 24003KT 10SM CLR 20/10 A3018 RMK AO2,M
BAM,2024-07-23 14:15,-116.8743,40.5990,1382.36,71.60,51.80,49.64,0.00,0.00,0.00,30.17,M,10.00,M,CLR,M,M,M,M,M,M,M,M,M,M,M,M,M,M,71.60,KBAM 231415Z AUTO 00000KT 10SM CLR 22/11 A3017 RMK AO1,M
HTH,2024-07-23 14:15,-118.6315,38.5448,1282.89,71.60,55.40,56.63,150.00,7.00,0.00,30.14,M,10.00,M,CLR,M,M,M,M,M,M,M,M,M,M,M,M,M,M,71.60,KHTH 231415Z AUTO 15007KT 10SM CLR 22/13 A3014 RMK A01,M
10U,2024-07-23 14:15,-116.1876,41.9532,1637.00,73.40,48.20,40.85,140.00,5.00,0.00,30.22,M,10.00,M,FEW,M,M,M,12000.00,M,M,M,M,M,M,M,M,M,M,73.40,K10U 231415Z AUTO 14005KT 10SM FEW120 23/09 A3022 RMK AO2,M
TMT,2024-07-23 14:15,-117.1971,39.4643,1749.34,64.00,49.60,59.44,0.00,0.00,0.00,30.28,M,10.00,M,CLR,M,M,M,M,M,M,M,M,M,M,M,M,M,M,64.00,KTMT 231415Z AUTO 00000KT 10SM CLR 18/10 A3028 RMK AO2 T01770098,M
BVU,2024-07-23 14:35,-114.8611,35.9475,671.00,93.20,55.40,28.10,0.00,0.00,0.00,29.93,M,10.00,M,CLR,M,M,M,M,M,M,M,M,M,M,M,M,M,M,91.35,KBVU 231435Z AUTO 00000KT 10SM CLR 34/13 A2993 RMK AO2,M
CXP,2024-07-23 14:35,-119.7326,39.1923,1431.00,73.40,50.00,43.69,0.00,0.00,0.00,30.19,M,10.00,M,CLR,M,M,M,M,M,M,M,M,M,M,M,M,M,M,73.40,KCXP 231435Z AUTO 00000KT 10SM CLR 23/10 A3019 RMK AO2,M
RTS,2024-07-23 14:35,-119.8764,39.6682,1539.00,73.40,48.20,40.85,330.00,5.00,0.00,30.20,M,10.00,M,CLR,M,M,M,M,M,M,M,M,M,M,M,M,M,M,73.40,KRTS 231435Z AUTO 33005KT 10SM CLR 23/09 A3020 RMK AO2,M
05U,2024-07-23 14:35,-116.0051,39.6042,1811.23,68.00,53.60,59.97,0.00,0.00,0.00,30.30,M,10.00,M,CLR,M,M,M,M,M,M,M,M,M,M,M,M,M,M,68.00,K05U 231435Z AUTO 00000KT 10SM CLR 20/12 A3030 RMK A01,M
MEV,2024-07-23 14:35,-119.7500,38.9963,1441.42,68.00,53.60,59.97,0.00,0.00,0.00,30.18,M,10.00,M,CLR,M,M,M,M,M,M,M,M,M,M,M,M,M,M,68.00,KMEV 231435Z AUTO 00000KT 10SM CLR 20/12 A3018 RMK AO2,M
HTH,2024-07-23 14:35,-118.6315,38.5448,1282.89,73.40,55.40,53.29,0.00,0.00,0.00,30.14,M,10.00,M,CLR,M,M,M,M,M,M,M,M,M,M,M,M,M,M,73.40,KHTH 231435Z AUTO 00000KT 10SM CLR 23/13 A3014 RMK A01,M
10U,2024-07-23 14:35,-116.1876,41.9532,1637.00,75.20,48.20,38.46,130.00,5.00,0.00,30.22,M,10.00,M,CLR,M,M,M,M,M,M,M,M,M,M,M,M,M,M,75.20,K10U 231435Z AUTO 13005KT 10SM CLR 24/09 A3022 RMK AO2,M
BAM,2024-07-23 14:35,-116.8743,40.5990,1382.36,73.40,53.60,49.90,0.00,0.00,0.00,30.17,M,10.00,M,CLR,M,M,M,M,M,M,M,M,M,M,M,M,M,M,73.40,KBAM 231435Z AUTO 00000KT 10SM CLR 23/12 A3017 RMK AO1,M
TMT,2024-07-23 14:35,-117.1971,39.4643,1749.34,66.70,49.60,54.11,0.00,0.00,0.00,30.28,M,10.00,M,CLR,M,M,M,M,M,M,M,M,M,M,M,M,M,M,66.70,KTMT 231435Z AUTO 00000KT 10SM CLR 19/10 A3028 RMK AO2 T01930098,M
P68,2024-07-23 14:53,-116.0056,39.6014,1993.00,71.00,51.00,49.18,220.00,4.00,0.00,30.28,1016.50,M,M,M,M,M,M,M,M,M,M,M,M,M,M,M,M,M,71.00,KP68 231453Z AUTO 22004KT 22/11 A3028 RMK AO1 SLP165 T02170106 51011,M
DRA,2024-07-23 14:53,-116.0278,36.6206,1009.00,87.00,56.00,34.90,120.00,9.00,0.00,30.05,1011.50,10.00,M,CLR,M,M,M,M,M,M,M,M,M,M,M,M,M,M,85.54,KDRA 231453Z AUTO 12009KT 10SM CLR 31/13 A3005 RMK AO2 SLP115 T03060133 53014,M
ELY,2024-07-23 14:53,-114.8453,39.2950,1909.00,71.00,48.00,43.98,160.00,5.00,0.00,30.30,1015.40,10.00,M,CLR,M,M,M,M,M,M,M,M,M,M,M,M,M,M,71.00,KELY 231453Z AUTO 16005KT 10SM CLR 22/09 A3030 RMK AO2 SLP154 T02170089 53006 $,M
VGT,2024-07-23 14:53,-115.1933,36.2111,667.00,96.00,54.00,24.49,340.00,6.00,0.00,29.95,1012.30,10.00,M,CLR,M,M,M,M,M,M,M,M,M,M,M,M,M,M,93.86,KVGT 231453Z 34006KT 10SM CLR 36/12 A2995 RMK AO2 SLP123 T03560122 51020,M
LOL,2024-07-23 14:53,-118.5701,40.0684,1192.43,77.00,55.00,46.57,0.00,0.00,0.00,30.11,1014.40,10.00,M,CLR,M,M,M,M,M,M,M,M,M,M,M,M,M,M,77.00,KLOL 231453Z AUTO 00000KT 10SM CLR 25/13 A3011 RMK AO2 SLP144 T02500128 52014,M
NFL,2024-07-23 14:54,-118.7010,39.4166,1199.00,81.00,53.00,37.95,200.00,3.00,0.00,30.11,1016.20,10.00,M,FEW,FEW,M,M,18000.00,20000.00,M,M,M,M,M,M,M,M,M,80.46,KNFL 231454Z 20003KT 10SM FEW180 FEW200 27/12 A3011 RMK AO2 SLP162 FU FEW200 T02720117 51012,M
BVU,2024-07-23 14:55,-114.8611,35.9475,671.00,93.20,55.40,28.10,80.00,3.00,0.00,29.94,M,10.00,M,CLR,M,M,M,M,M,M,M,M,M,M,M,M,M,M,91.35,KBVU 231455Z AUTO 08003KT 10SM CLR 34/13 A2994 RMK AO2,M
CXP,2024-07-23 14:55,-119.7326,39.1923,1431.00,75.20,50.00,41.14,0.00,0.00,0.00,30.19,M,10.00,M,CLR,M,M,M,M,M,M,M,M,M,M,M,M,M,M,75.20,KCXP 231455Z AUTO 00000KT 10SM CLR 24/10 A3019 RMK AO2,M
RNO,2024-07-23 14:55,-119.7711,39.4839,1341.00,76.00,51.00,41.57,0.00,0.00,0.00,30.16,1014.40,10.00,M,FEW,M,M,M,20000.00,M,M,M,M,M,M,M,M,M,M,76.00,KRNO 231455Z 00000KT 10SM FEW200 24/11 A3016 RMK AO2 SLP144 FU ALF ALQDS T02440106 53011,M
RTS,2024-07-23 14:55,-119.8764,39.6682,1539.00,75.20,46.40,35.94,350.00,5.00,0.00,30.21,M,10.00,M,CLR,M,M,M,M,M,M,M,M,M,M,M,M,M,M,75.20,KRTS 231455Z AUTO 35005KT 10SM CLR 24/08 A3021 RMK AO2,M
05U,2024-07-23 14:55,-116.0051,39.6042,1811.23,69.80,50.00,49.37,0.00,0.00,0.00,30.30,M,10.00,M,CLR,M,M,M,M,M,M,M,M,M,M,M,M,M,M,69.80,K05U 231455Z AUTO 00000KT 10SM CLR 21/10 A3030 RMK A01,M
MEV,2024-07-23 14:55,-119.7500,38.9963,1441.42,71.60,53.60,53.03,0.00,0.00,0.00,30.18,M,10.00,M,CLR,M,M,M,M,M,M,M,M,M,M,M,M,M,M,71.60,KMEV 231455Z AUTO 00000KT 10SM CLR 22/12 A3018 RMK AO2,M
HTH,2024-07-23 14:55,-118.6315,38.5448,1282.89,75.20,53.60,46.98,0.00,0.00,0.00,30.14,M,10.00,M,CLR,M,M,M,M,M,M,M,M,M,M,M,M,M,M,75.20,KHTH 231455Z AUTO 00000KT 10SM CLR 24/12 A3014 RMK A01,M
BAM,2024-07-23 14:55,-116.8743,40.5990,1382.36,77.00,51.80,41.42,0.00,0.00,0.00,30.17,M,10.00,M,CLR,M,M,M,M,M,M,M,M,M,M,M,M,M,M,77.00,KBAM 231455Z AUTO 00000KT 10SM CLR 25/11 A3017 RMK AO1,M
10U,2024-07-23 14:55,-116.1876,41.9532,1637.00,77.00,48.20,36.22,140.00,6.00,0.00,30.22,M,10.00,M,CLR,M,M,M,M,M,M,M,M,M,M,M,M,M,M,77.00,K10U 231455Z AUTO 14006KT 10SM CLR 25/09 A3022 RMK AO2,M
TMT,2024-07-23 14:55,-117.1971,39.4643,1749.34,69.00,49.50,49.80,0.00,0.00,0.00,30.28,M,10.00,M,CLR,M,M,M,M,M,M,M,M,M,M,M,M,M,M,69.00,KTMT 231455Z AUTO 00000KT 10SM CLR 21/10 A3028 RMK AO2 T02050097,M
INS,2024-07-23 14:55,-115.6733,36.5872,955.00,89.80,52.30,27.90,260.00,6.00,0.00,30.04,1010.90,10.00,M,CLR,M,M,M,M,M,M,M,M,M,M,M,M,M,M,87.28,KINS 231455Z AUTO 26006KT 10SM CLR 32/11 A3004 RMK AO2 SLP109 T03210113 52015 $,M
LSV,2024-07-23 14:55,-115.0343,36.2362,570.00,96.00,52.00,22.76,80.00,5.00,0.00,29.89,1008.80,10.00,M,CLR,M,M,M,M,M,M,M,M,M,M,M,M,M,M,93.34,KLSV 231455Z AUTO 08005KT 10SM CLR 36/11 A2989 RMK AO2 SLP088 T03550112 52018 $,M
EKO,2024-07-23 14:56,-115.7860,40.8242,1367.00,73.00,54.00,51.33,100.00,5.00,0.00,30.22,1016.90,10.00,M,CLR,M,M,M,M,M,M,M,M,M,M,M,M,M,M,73.00,KEKO 231456Z AUTO 10005KT 10SM CLR 23/12 A3022 RMK AO2 SLP169 T02280122 51009,M
WMC,2024-07-23 14:56,-117.8072,40.9019,1315.00,74.00,54.00,49.63,150.00,8.00,0.00,30.13,1014.60,10.00,M,CLR,M,M,M,M,M,M,M,M,M,M,M,M,M,M,74.00,KWMC 231456Z AUTO 15008KT 10SM CLR 23/12 A3013 RMK AO2 SLP146 T02330122 51007,M
HND,2024-07-23 14:56,-115.1344,35.9729,742.79,95.00,57.00,28.16,360.00,4.00,0.00,29.99,1013.40,10.00,M,CLR,M,M,M,M,M,M,M,M,M,M,M,M,M,M,93.75,KHND 231456Z 36004KT 10SM CLR 35/14 A2999 RMK AO2 SLP134 T03500139 51016,M
TPH,2024-07-23 14:56,-117.0904,38.0505,1654.00,71.00,55.00,56.96,90.00,4.00,0.00,30.25,1016.80,10.00,M,CLR,M,M,M,M,M,M,M,M,M,M,M,M,M,M,71.00,KTPH 231456Z AUTO 09004KT 10SM CLR 22/13 A3025 RMK AO2 SLP168 T02170128 51009,M
LAS,2024-07-23 14:56,-115.1634,36.0719,663.00,98.00,53.00,22.21,360.00,8.00,0.00,29.95,1007.30,10.00,M,FEW,SCT,M,M,15000.00,20000.00,M,M,M,M,M,M,M,M,M,95.69,KLAS 231456Z 36008KT 10SM FEW150 SCT200 37/12 A2995 RMK AO2 SLP073 T03670117 51019 $,M
BVU,2024-07-23 15:15,-114.8611,35.9475,671.00,95.00,55.40,26.58,0.00,0.00,0.00,29.94,M,10.00,M,CLR,M,M,M,M,M,M,M,M,M,M,M,M,M,M,93.22,KBVU 231515Z AUTO 00000KT 10SM CLR 35/13 A2994 RMK AO2,M
CXP,2024-07-23 15:15,-119.7326,39.1923,1431.00,77.00,50.00,38.74,210.00,4.00,0.00,30.19,M,10.00,M,CLR,M,M,M,M,M,M,M,M,M,M,M,M,M,M,77.00,KCXP 231515Z AUTO 21004KT 10SM CLR 25/10 A3019 RMK AO2,M
RTS,2024-07-23 15:15,-119.8764,39.6682,1539.00,77.00,48.20,36.22,0.00,0.00,0.00,30.21,M,10.00,M,CLR,M,M,M,M,M,M,M,M,M,M,M,M,M,M,77.00,KRTS 231515Z AUTO 00000KT 10SM CLR 25/09 A3021 RMK AO2,M
05U,2024-07-23 15:15,-116.0051,39.6042,1811.23,73.40,50.00,43.69,0.00,0.00,0.00,30.30,M,10.00,M,CLR,M,M,M,M,M,M,M,M,M,M,M,M,M,M,73.40,K05U 231515Z AUTO 00000KT 10SM CLR 23/10 A3030 RMK A01,M
MEV,2024-07-23 15:15,-119.7500,38.9963,1441.42,75.20,51.80,43.97,0.00,0.00,0.00,30.18,M,10.00,M,CLR,M,M,M,M,M,M,M,M,M,M,M,M,M,M,75.20,KMEV 231515Z AUTO 00000KT 10SM CLR 24/11 A3018 RMK AO2,M
BAM,2024-07-23 15:15,-116.8743,40.5990,1382.36,78.80,51.80,39.02,0.00,0.00,0.00,30.18,M,10.00,M,CLR,M,M,M,M,M,M,M,M,M,M,M,M,M,M,78.80,KBAM 231515Z AUTO 00000KT 10SM CLR 26/11 A3018 RMK AO1,M
HTH,2024-07-23 15:15,-118.6315,38.5448,1282.89,77.00,55.40,47.25,0.00,0.00,0.00,30.15,M,10.00,M,CLR,M,M,M,M,M,M,M,M,M,M,M,M,M,M,77.00,KHTH 231515Z AUTO 00000KT 10SM CLR 25/13 A3015 RMK A01,M
10U,2024-07-23 15:15,-116.1876,41.9532,1637.00,78.80,48.20,34.13,120.00,6.00,0.00,30.23,M,10.00,M,CLR,M,M,M,M,M,M,M,M,M,M,M,M,M,M,78.80,K10U 231515Z AUTO 12006KT 10SM CLR 26/09 A3023 RMK AO2,M
TMT,2024-07-23 15:15,-117.1971,39.4643,1749.34,71.60,50.50,47.30,220.00,3.00,0.00,30.28,M,10.00,M,CLR,M,M,M,M,M,M,M,M,M,M,M,M,M,M,71.60,KTMT 231515Z AUTO 22003KT 10SM CLR 22/10 A3028 RMK AO2 T02200103,M
BVU,2024-07-23 15:35,-114.8611,35.9475,671.00,96.80,51.80,22.04,0.00,0.00,0.00,29.94,M,10.00,M,CLR,M,M,M,M,M,M,M,M,M,M,M,M,M,M,94.12,KBVU 231535Z AUTO 00000KT 10SM CLR 36/11 A2994 RMK AO2,M
CXP,2024-07-23 15:35,-119.7326,39.1923,1431.00,78.80,50.00,36.51,M,3.00,0.00,30.19,M,10.00,M,CLR,M,M,M,M,M,M,M,M,M,M,M,M,M,M,78.80,KCXP 231535Z AUTO VRB03KT 10SM CLR 26/10 A3019 RMK AO2,M
RTS,2024-07-23 15:35,-119.8764,39.6682,1539.00,78.80,48.20,34.13,0.00,0.00,0.00,30.21,M,10.00,M,CLR,M,M,M,M,M,M,M,M,M,M,M,M,M,M,78.80,KRTS 231535Z AUTO 00000KT 10SM CLR 26/09 A3021 RMK AO2,M
05U,2024-07-23 15:35,-116.0051,39.6042,1811.23,75.20,50.00,41.14,0.00,0.00,0.00,30.31,M,10.00,M,CLR,M,M,M,M,M,M,M,M,M,M,M,M,M,M,75.20,K05U 231535Z AUTO 00000KT 10SM CLR 24/10 A3031 RMK A01,M
MEV,2024-07-23 15:35,-119.7500,38.9963,1441.42,77.00,50.00,38.74,0.00,0.00,0.00,30.18,M,10.00,M,CLR,M,M,M,M,M,M,M,M,M,M,M,M,M,M,77.00,KMEV 231535Z AUTO 00000KT 10SM CLR 25/10 A3018 RMK AO2,M
HTH,2024-07-23 15:35,-118.6315,38.5448,1282.89,78.80,55.40,44.52,310.00,3.00,0.00,30.15,M,10.00,M,CLR,M,M,M,M,M,M,M,M,M,M,M,M,M,M,78.80,KHTH 231535Z AUTO 31003KT 10SM CLR 26/13 A3015 RMK A01,M
10U,2024-07-23 15:35,-116.1876,41.9532,1637.00,80.60,48.20,32.18,110.00,6.00,0.00,30.23,M,10.00,M,CLR,M,M,M,M,M,M,M,M,M,M,M,M,M,M,79.71,K10U 231535Z AUTO 11006KT 10SM CLR 27/09 A3023 RMK AO2,M
BAM,2024-07-23 15:35,-116.8743,40.5990,1382.36,80.60,51.80,36.79,0.00,0.00,0.00,30.18,M,10.00,M,CLR,M,M,M,M,M,M,M,M,M,M,M,M,M,M,80.08,KBAM 231535Z AUTO 00000KT 10SM CLR 27/11 A3018 RMK AO1,M
TMT,2024-07-23 15:35,-117.1971,39.4643,1749.34,73.40,51.00,45.35,210.00,4.00,0.00,30.29,M,10.00,M,CLR,M,M,M,M,M,M,M,M,M,M,M,M,M,M,73.40,KTMT 231535Z AUTO 21004KT 10SM CLR 23/11 A3029 RMK AO2 T02300105,M
P68,2024-07-23 15:53,-116.0056,39.6014,1993.00,77.00,50.00,38.74,0.00,0.00,0.00,30.28,1016.70,M,M,M,M,M,M,M,M,M,M,M,M,M,M,M,M,M,77.00,KP68 231553Z AUTO 00000KT 25/10 A3028 RMK AO1 SLP167 T02500100,M
DRA,2024-07-23 15:53,-116.0278,36.6206,1009.00,92.00,54.00,27.72,120.00,8.00,0.00,30.05,1012.00,10.00,M,CLR,M,M,M,M,M,M,M,M,M,M,M,M,M,M,89.76,KDRA 231553Z AUTO 12008KT 10SM CLR 33/12 A3005 RMK AO2 SLP120 T03330122,M
ELY,2024-07-23 15:53,-114.8453,39.2950,1909.00,77.00,49.00,37.33,0.00,0.00,0.00,30.30,1015.00,10.00,M,CLR,M,M,M,M,M,M,M,M,M,M,M,M,M,M,77.00,KELY 231553Z AUTO 00000KT 10SM CLR 25/09 A3030 RMK AO2 SLP150 T02500094,M
VGT,2024-07-23 15:53,-115.1933,36.2111,667.00,100.00,53.00,20.90,340.00,9.00,0.00,29.95,1012.40,10.00,M,CLR,M,M,M,M,M,M,M,M,M,M,M,M,M,M,97.82,KVGT 231553Z 34009KT 10SM CLR 38/12 A2995 RMK AO2 SLP124 T03780117,M
LOL,2024-07-23 15:53,-118.5701,40.0684,1192.43,83.00,55.00,38.26,100.00,3.00,0.00,30.11,1014.40,10.00,M,CLR,M,M,M,M,M,M,M,M,M,M,M,M,M,M,82.11,KLOL 231553Z AUTO 10003KT 10SM CLR 28/13 A3011 RMK AO2 SLP144 T02830128,M
NFL,2024-07-23 15:54,-118.7010,39.4166,1199.00,86.00,52.00,31.13,M,4.00,0.00,30.12,1016.50,10.00,M,FEW,SCT,M,M,12000.00,20000.00,M,M,M,M,M,M,M,M,M,83.91,KNFL 231554Z VRB04KT 10SM FEW120 SCT200 30/11 A3012 RMK AO2 SLP165 T03000111,M
BVU,2024-07-23 15:55,-114.8611,35.9475,671.00,98.60,53.60,22.29,280.00,6.00,0.00,29.94,M,10.00,M,CLR,M,M,M,M,M,M,M,M,M,M,M,M,M,M,96.51,KBVU 231555Z AUTO 28006KT 10SM CLR 37/12 A2994 RMK AO2,M
CXP,2024-07-23 15:55,-119.7326,39.1923,1431.00,80.60,50.00,34.41,M,5.00,0.00,30.19,M,10.00,M,CLR,M,M,M,M,M,M,M,M,M,M,M,M,M,M,79.88,KCXP 231555Z AUTO VRB05KT 10SM CLR 27/10 A3019 RMK AO2,M
RNO,2024-07-23 15:55,-119.7711,39.4839,1341.00,81.00,51.00,35.25,0.00,0.00,0.00,30.16,1014.50,10.00,M,FEW,M,M,M,20000.00,M,M,M,M,M,M,M,M,M,M,80.22,KRNO 231555Z 00000KT 10SM FEW200 27/11 A3016 RMK AO2 SLP145 FU ALF ALQDS T02720106,M
RTS,2024-07-23 15:55,-119.8764,39.6682,1539.00,80.60,48.20,32.18,0.00,0.00,0.00,30.21,M,10.00,M,CLR,M,M,M,M,M,M,M,M,M,M,M,M,M,M,79.71,KRTS 231555Z AUTO 00000KT 10SM CLR 27/09 A3021 RMK AO2,M
05U,2024-07-23 15:55,-116.0051,39.6042,1811.23,75.20,50.00,41.14,0.00,0.00,0.00,30.30,M,10.00,M,CLR,M,M,M,M,M,M,M,M,M,M,M,M,M,M,75.20,K05U 231555Z AUTO 00000KT 10SM CLR 24/10 A3030 RMK A01,M
MEV,2024-07-23 15:55,-119.7500,38.9963,1441.42,78.80,51.80,39.02,0.00,0.00,0.00,30.18,M,10.00,M,CLR,M,M,M,M,M,M,M,M,M,M,M,M,M,M,78.80,KMEV 231555Z AUTO 00000KT 10SM CLR 26/11 A3018 RMK AO2,M
BAM,2024-07-23 15:55,-116.8743,40.5990,1382.36,82.40,51.80,34.69,0.00,0.00,0.00,30.18,M,10.00,M,CLR,M,M,M,M,M,M,M,M,M,M,M,M,M,M,81.20,KBAM 231555Z AUTO 00000KT 10SM CLR 28/11 A3018 RMK AO1,M
HTH,2024-07-23 15:55,-118.6315,38.5448,1282.89,80.60,53.60,39.30,250.00,4.00,0.00,30.15,M,10.00,M,CLR,M,M,M,M,M,M,M,M,M,M,M,M,M,M,80.29,KHTH 231555Z AUTO 25004KT 10SM CLR 27/12 A3015 RMK A01,M
10U,2024-07-23 15:55,-116.1876,41.9532,1637.00,82.40,48.20,30.35,130.00,5.00,0.00,30.23,M,10.00,M,CLR,M,M,M,M,M,M,M,M,M,M,M,M,M,M,80.80,K10U 231555Z AUTO 13005KT 10SM CLR 28/09 A3023 RMK AO2,M
TMT,2024-07-23 15:55,-117.1971,39.4643,1749.34,75.20,51.40,43.33,250.00,5.00,0.00,30.29,M,10.00,M,CLR,M,M,M,M,M,M,M,M,M,M,M,M,M,M,75.20,KTMT 231555Z AUTO 25005KT 10SM CLR 24/11 A3029 RMK AO2 T02400108,M
INS,2024-07-23 15:55,-115.6733,36.5872,955.00,92.00,50.00,23.92,220.00,3.00,0.00,30.04,1010.90,10.00,M,CLR,M,M,M,M,M,M,M,M,M,M,M,M,M,M,88.94,KINS 231555Z AUTO 22003KT 10SM CLR 33/10 A3004 RMK AO2 SLP109 T03340100 $,M
LSV,2024-07-23 15:55,-115.0343,36.2362,570.00,98.00,50.00,19.88,0.00,0.00,0.00,29.89,1008.80,10.00,M,CLR,M,M,M,M,M,M,M,M,M,M,M,M,M,M,94.94,KLSV 231555Z AUTO 00000KT 10SM CLR 37/10 A2989 RMK AO2 SLP088 T03670100 $,M
EKO,2024-07-23 15:56,-115.7860,40.8242,1367.00,79.00,52.00,39.06,0.00,0.00,0.00,30.22,1016.60,10.00,M,CLR,M,M,M,M,M,M,M,M,M,M,M,M,M,M,79.00,KEKO 231556Z AUTO 00000KT 10SM CLR 26/11 A3022 RMK AO2 SLP166 T02610111,M
WMC,2024-07-23 15:56,-117.8072,40.9019,1315.00,85.00,50.00,29.85,140.00,8.00,0.00,30.14,1014.50,10.00,M,CLR,M,M,M,M,M,M,M,M,M,M,M,M,M,M,82.83,KWMC 231556Z AUTO 14008KT 10SM CLR 29/10 A3014 RMK AO2 SLP145 T02940100,M
HND,2024-07-23 15:56,-115.1344,35.9729,742.79,97.00,55.00,24.63,20.00,6.00,0.00,30.00,1013.90,10.00,M,CLR,M,M,M,M,M,M,M,M,M,M,M,M,M,M,95.23,KHND 231556Z 02006KT 10SM CLR 36/13 A3000 RMK AO2 SLP139 T03610128,M
TPH,2024-07-23 15:56,-117.0904,38.0505,1654.00,77.00,53.00,43.29,0.00,0.00,0.00,30.25,1016.40,10.00,M,CLR,M,M,M,M,M,M,M,M,M,M,M,M,M,M,77.00,KTPH 231556Z AUTO 00000KT 10SM CLR 25/12 A3025 RMK AO2 SLP164 T02500117,M
LAS,2024-07-23 15:56,-115.1634,36.0719,663.00,100.00,52.00,20.15,350.00,5.00,0.00,29.95,1007.40,10.00,M,FEW,FEW,M,M,15000.00,20000.00,M,M,M,M,M,M,M,M,M,97.53,KLAS 231556Z 35005KT 10SM FEW150 FEW200 38/11 A2995 RMK AO2 SLP074 T03780111 $,M
BVU,2024-07-23 16:15,-114.8611,35.9475,671.00,98.60,53.60,22.29,330.00,4.00,0.00,29.94,M,10.00,M,CLR,M,M,M,M,M,M,M,M,M,M,M,M,M,M,96.51,KBVU 231615Z AUTO 33004KT 10SM CLR 37/12 A2994 RMK AO2,M
CXP,2024-07-23 16:15,-119.7326,39.1923,1431.00,82.40,50.00,32.46,0.00,0.00,0.00,30.19,M,10.00,M,CLR,M,M,M,M,M,M,M,M,M,M,M,M,M,M,80.99,KCXP 231615Z AUTO 00000KT 10SM CLR 28/10 A3019 RMK AO2,M
RTS,2024-07-23 16:15,-119.8764,39.6682,1539.00,80.60,48.20,32.18,0.00,0.00,0.00,30.21,M,10.00,M,CLR,M,M,M,M,M,M,M,M,M,M,M,M,M,M,79.71,KRTS 231615Z AUTO 00000KT 10SM CLR 27/09 A3021 RMK AO2,M
05U,2024-07-23 16:15,-116.0051,39.6042,1811.23,78.80,50.00,36.51,0.00,0.00,0.00,30.30,M,10.00,M,CLR,M,M,M,M,M,M,M,M,M,M,M,M,M,M,78.80,K05U 231615Z AUTO 00000KT 10SM CLR 26/10 A3030 RMK A01,M
MEV,2024-07-23 16:15,-119.7500,38.9963,1441.42,82.40,51.80,34.69,0.00,0.00,0.00,30.18,M,10.00,M,CLR,M,M,M,M,M,M,M,M,M,M,M,M,M,M,81.20,KMEV 231615Z AUTO 00000KT 10SM CLR 28/11 A3018 RMK AO2,M
HTH,2024-07-23 16:15,-118.6315,38.5448,1282.89,82.40,50.00,32.46,270.00,4.00,0.00,30.15,M,10.00,M,CLR,M,M,M,M,M,M,M,M,M,M,M,M,M,M,80.99,KHTH 231615Z AUTO 27004KT 10SM CLR 28/10 A3015 RMK A01,M
10U,2024-07-23 16:15,-116.1876,41.9532,1637.00,84.20,46.40,26.76,70.00,5.00,0.00,30.23,M,10.00,M,CLR,M,M,M,M,M,M,M,M,M,M,M,M,M,M,81.87,K10U 231615Z AUTO 07005KT 10SM CLR 29/08 A3023 RMK AO2,M
BAM,2024-07-23 16:15,-116.8743,40.5990,1382.36,86.00,51.80,30.90,0.00,0.00,0.00,30.18,M,10.00,M,CLR,M,M,M,M,M,M,M,M,M,M,M,M,M,M,83.87,KBAM 231615Z AUTO 00000KT 10SM CLR 30/11 A3018 RMK AO1,M
TMT,2024-07-23 16:15,-117.1971,39.4643,1749.34,78.30,52.00,39.97,220.00,4.00,0.00,30.28,M,10.00,M,CLR,M,M,M,M,M,M,M,M,M,M,M,M,M,M,78.30,KTMT 231615Z AUTO 22004KT 10SM CLR 26/11 A3028 RMK AO2 T02570111,M
BVU,2024-07-23 16:35,-114.8611,35.9475,671.00,98.60,55.40,23.81,0.00,0.00,0.00,29.94,M,10.00,M,CLR,M,M,M,M,M,M,M,M,M,M,M,M,M,M,97.09,KBVU 231635Z AUTO 00000KT 10SM CLR 37/13 A2994 RMK AO2,M
CXP,2024-07-23 16:35,-119.7326,39.1923,1431.00,82.40,50.00,32.46,300.00,4.00,0.00,30.19,M,10.00,M,CLR,M,M,M,M,M,M,M,M,M,M,M,M,M,M,80.99,KCXP 231635Z AUTO 30004KT 10SM CLR 28/10 A3019 RMK AO2,M
RTS,2024-07-23 16:35,-119.8764,39.6682,1539.00,84.20,48.20,28.63,0.00,0.00,0.00,30.22,M,10.00,M,CLR,M,M,M,M,M,M,M,M,M,M,M,M,M,M,82.04,KRTS 231635Z AUTO 00000KT 10SM CLR 29/09 A3022 RMK AO2,M
05U,2024-07-23 16:35,-116.0051,39.6042,1811.23,78.80,50.00,36.51,0.00,0.00,0.00,30.30,M,10.00,M,CLR,M,M,M,M,M,M,M,M,M,M,M,M,M,M,78.80,K05U 231635Z AUTO 00000KT 10SM CLR 26/10 A3030 RMK A01,M
MEV,2024-07-23 16:35,-119.7500,38.9963,1441.42,84.20,51.80,32.73,300.00,4.00,0.00,30.18,M,10.00,M,CLR,M,M,M,M,M,M,M,M,M,M,M,M,M,M,82.48,KMEV 231635Z AUTO 30004KT 10SM CLR 29/11 A3018 RMK AO2,M
BAM,2024-07-23 16:35,-116.8743,40.5990,1382.36,87.80,50.00,27.29,0.00,0.00,0.00,30.18,M,10.00,M,CLR,M,M,M,M,M,M,M,M,M,M,M,M,M,M,85.11,KBAM 231635Z AUTO 00000KT 10SM CLR 31/10 A3018 RMK AO1,M
HTH,2024-07-23 16:35,-118.6315,38.5448,1282.89,84.20,50.00,30.62,0.00,0.00,0.00,30.15,M,10.00,M,CLR,M,M,M,M,M,M,M,M,M,M,M,M,M,M,82.24,KHTH 231635Z AUTO 00000KT 10SM CLR 29/10 A3015 RMK A01,M
10U,2024-07-23 16:35,-116.1876,41.9532,1637.00,86.00,44.60,23.59,0.00,0.00,0.00,30.23,M,10.00,M,CLR,M,M,M,M,M,M,M,M,M,M,M,M,M,M,83.07,K10U 231635Z AUTO 00000KT 10SM CLR 30/07 A3023 RMK AO2,M
TMT,2024-07-23 16:35,-117.1971,39.4643,1749.34,80.00,51.30,36.83,250.00,5.00,0.00,30.29,M,10.00,M,CLR,M,M,M,M,M,M,M,M,M,M,M,M,M,M,79.68,KTMT 231635Z AUTO 25005KT 10SM CLR 27/11 A3029 RMK AO2 T02660107,M
05U,2024-07-23 16:50,-116.0051,39.6042,1811.23,80.60,50.00,34.41,0.00,0.00,0.00,30.30,M,10.00,M,CLR,M,M,M,M,M,M,M,M,M,M,M,M,M,M,79.88,K05U 231650Z AUTO 00000KT 10SM CLR 27/10 A3030 RMK A01,M
P68,2024-07-23 16:53,-116.0056,39.6014,1993.00,83.00,50.00,31.83,M,3.00,0.00,30.27,1016.00,M,M,M,M,M,M,M,M,M,M,M,M,M,M,M,M,M,81.39,KP68 231653Z AUTO VRB03KT 28/10 A3027 RMK AO1 SLP160 T02830100,M
DRA,2024-07-23 16:53,-116.0278,36.6206,1009.00,95.00,53.00,24.35,130.00,6.00,0.00,30.05,1011.40,10.00,M,CLR,M,M,M,M,M,M,M,M,M,M,M,M,M,M,92.55,KDRA 231653Z AUTO 13006KT 10SM CLR 35/12 A3005 RMK AO2 SLP114 T03500117,M
ELY,2024-07-23 16:53,-114.8453,39.2950,1909.00,83.00,47.00,28.45,M,4.00,0.00,30.29,1014.20,10.00,M,CLR,M,M,M,M,M,M,M,M,M,M,M,M,M,M,81.09,KELY 231653Z AUTO VRB04KT 10SM CLR 28/08 A3029 RMK AO2 SLP142 T02830083,M
VGT,2024-07-23 16:53,-115.1933,36.2111,667.00,102.00,52.00,18.97,20.00,4.00,0.00,29.95,1012.30,10.00,M,CLR,M,M,M,M,M,M,M,M,M,M,M,M,M,M,99.65,KVGT 231653Z 02004KT 10SM CLR 39/11 A2995 RMK AO2 SLP123 T03890111,M
LOL,2024-07-23 16:53,-118.5701,40.0684,1192.43,87.00,54.00,32.45,170.00,6.00,0.00,30.12,1014.60,10.00,M,CLR,M,M,M,M,M,M,M,M,M,M,M,M,M,M,85.10,KLOL 231653Z AUTO 17006KT 10SM CLR 31/12 A3012 RMK AO2 SLP146 T03060122,M
BVU,2024-07-23 16:55,-114.8611,35.9475,671.00,100.40,55.40,22.54,0.00,0.00,0.00,29.94,M,10.00,M,CLR,M,M,M,M,M,M,M,M,M,M,M,M,M,M,99.06,KBVU 231655Z AUTO 00000KT 10SM CLR 38/13 A2994 RMK AO2,M
CXP,2024-07-23 16:55,-119.7326,39.1923,1431.00,86.00,50.00,28.90,0.00,0.00,0.00,30.19,M,10.00,M,CLR,M,M,M,M,M,M,M,M,M,M,M,M,M,M,83.62,KCXP 231655Z AUTO 00000KT 10SM CLR 30/10 A3019 RMK AO2,M
RNO,2024-07-23 16:55,-119.7711,39.4839,1341.00,85.00,51.00,30.97,0.00,0.00,0.00,30.16,1014.20,10.00,M,FEW,M,M,M,20000.00,M,M,M,M,M,M,M,M,M,M,82.97,KRNO 231655Z 00000KT 10SM FEW200 29/11 A3016 RMK AO2 SLP142 FU ALF N THRU NE T02940106,M
RTS,2024-07-23 16:55,-119.8764,39.6682,1539.00,84.20,46.40,26.76,0.00,0.00,0.00,30.21,M,10.00,M,CLR,M,M,M,M,M,M,M,M,M,M,M,M,M,M,81.87,KRTS 231655Z AUTO 00000KT 10SM CLR 29/08 A3021 RMK AO2,M
MEV,2024-07-23 16:55,-119.7500,38.9963,1441.42,84.20,51.80,32.73,320.00,4.00,0.00,30.17,M,10.00,M,CLR,M,M,M,M,M,M,M,M,M,M,M,M,M,M,82.48,KMEV 231655Z AUTO 32004KT 10SM CLR 29/11 A3017 RMK AO2,M
BAM,2024-07-23 16:55,-116.8743,40.5990,1382.36,87.80,51.80,29.18,60.00,3.00,0.00,30.18,M,10.00,M,CLR,M,M,M,M,M,M,M,M,M,M,M,M,M,M,85.39,KBAM 231655Z AUTO 06003KT 10SM CLR 31/11 A3018 RMK AO1,M
HTH,2024-07-23 16:55,-118.6315,38.5448,1282.89,86.00,50.00,28.90,0.00,0.00,0.00,30.15,M,10.00,M,CLR,M,M,M,M,M,M,M,M,M,M,M,M,M,M,83.62,KHTH 231655Z AUTO 00000KT 10SM CLR 30/10 A3015 RMK A01,M
10U,2024-07-23 16:55,-116.1876,41.9532,1637.00,87.80,44.60,22.27,M,4.00,0.00,30.22,M,10.00,M,CLR,M,M,M,M,M,M,M,M,M,M,M,M,M,M,84.53,K10U 231655Z AUTO VRB04KT 10SM CLR 31/07 A3022 RMK AO2,M
TMT,2024-07-23 16:55,-117.1971,39.4643,1749.34,81.00,47.00,30.36,0.00,0.00,0.00,30.28,M,10.00,M,CLR,M,M,M,M,M,M,M,M,M,M,M,M,M,M,79.84,KTMT 231655Z AUTO 00000KT 10SM CLR 27/08 A3028 RMK AO2 T02730084,M
INS,2024-07-23 16:55,-115.6733,36.5872,955.00,94.30,49.50,21.86,0.00,0.00,0.00,30.04,1010.80,10.00,M,CLR,M,M,M,M,M,M,M,M,M,M,M,M,M,M,91.09,KINS 231655Z AUTO 00000KT 10SM CLR 35/10 A3004 RMK AO2 SLP108 T03460097 $,M
LSV,2024-07-23 16:55,-115.0343,36.2362,570.00,101.00,48.20,16.97,0.00,0.00,0.00,29.89,1008.90,10.00,M,CLR,M,M,M,M,M,M,M,M,M,M,M,M,M,M,97.61,KLSV 231655Z AUTO 00000KT 10SM CLR 38/09 A2989 RMK AO2 SLP089 T03840090 $,M
EKO,2024-07-23 16:56,-115.7860,40.8242,1367.00,85.00,52.00,32.14,200.00,3.00,0.00,30.21,1016.00,10.00,M,CLR,M,M,M,M,M,M,M,M,M,M,M,M,M,M,83.11,KEKO 231656Z AUTO 20003KT 10SM CLR 29/11 A3021 RMK AO2 SLP160 T02940111,M
WMC,2024-07-23 16:56,-117.8072,40.9019,1315.00,91.00,48.00,22.90,290.00,4.00,0.00,30.14,1014.40,10.00,M,CLR,M,M,M,M,M,M,M,M,M,M,M,M,M,M,87.69,KWMC 231656Z AUTO 29004KT 10SM CLR 33/09 A3014 RMK AO2 SLP144 T03280089,M
HND,2024-07-23 16:56,-115.1344,35.9729,742.79,100.00,54.00,21.68,360.00,6.00,0.00,30.00,1013.80,10.00,M,CLR,M,M,M,M,M,M,M,M,M,M,M,M,M,M,98.14,KHND 231656Z 36006KT 10SM CLR 38/12 A3000 RMK AO2 SLP138 T03780122,M
TPH,2024-07-23 16:56,-117.0904,38.0505,1654.00,81.00,52.00,36.58,0.00,0.00,0.00,30.25,1015.90,10.00,M,CLR,M,M,M,M,M,M,M,M,M,M,M,M,M,M,80.34,KTPH 231656Z AUTO 00000KT 10SM CLR 27/11 A3025 RMK AO2 SLP159 T02720111,M
LAS,2024-07-23 16:56,-115.1634,36.0719,663.00,102.00,51.00,18.28,M,3.00,0.00,29.96,1007.70,10.00,M,FEW,FEW,M,M,11000.00,15000.00,M,M,M,M,M,M,M,M,M,99.35,KLAS 231656Z VRB03KT 10SM FEW110 FEW150 39/11 A2996 RMK AO2 SLP077 T03890106 $,M
05U,2024-07-23 17:10,-116.0051,39.6042,1811.23,80.60,48.20,32.18,0.00,0.00,0.00,30.30,M,10.00,M,CLR,M,M,M,M,M,M,M,M,M,M,M,M,M,M,79.71,K05U 231710Z AUTO 00000KT 10SM CLR 27/09 A3030 RMK A01,M
BVU,2024-07-23 17:15,-114.8611,35.9475,671.00,100.40,53.60,21.11,60.00,4.00,0.00,29.94,M,10.00,M,CLR,M,M,M,M,M,M,M,M,M,M,M,M,M,M,98.44,KBVU 231715Z AUTO 06004KT 10SM CLR 38/12 A2994 RMK AO2,M
CXP,2024-07-23 17:15,-119.7326,39.1923,1431.00,87.80,48.20,25.52,0.00,0.00,0.00,30.19,M,10.00,M,CLR,M,M,M,M,M,M,M,M,M,M,M,M,M,M,84.87,KCXP 231715Z AUTO 00000KT 10SM CLR 31/09 A3019 RMK AO2,M
RTS,2024-07-23 17:15,-119.8764,39.6682,1539.00,86.00,46.40,25.26,130.00,5.00,0.00,30.21,M,10.00,M,CLR,M,M,M,M,M,M,M,M,M,M,M,M,M,M,83.22,KRTS 231715Z AUTO 13005KT 10SM CLR 30/08 A3021 RMK AO2,M
MEV,2024-07-23 17:15,-119.7500,38.9963,1441.42,86.00,53.60,33.01,310.00,5.00,0.00,30.17,M,9.00,M,CLR,M,M,M,M,M,M,M,M,M,M,M,M,M,M,84.18,KMEV 231715Z AUTO 31005KT 9SM CLR 30/12 A3017 RMK AO2,M
HTH,2024-07-23 17:15,-118.6315,38.5448,1282.89,86.00,50.00,28.90,M,3.00,0.00,30.15,M,10.00,M,CLR,M,M,M,M,M,M,M,M,M,M,M,M,M,M,83.62,KHTH 231715Z AUTO VRB03KT 10SM CLR 30/10 A3015 RMK A01,M
10U,2024-07-23 17:15,-116.1876,41.9532,1637.00,87.80,42.80,20.79,M,4.00,0.00,30.22,M,10.00,10.00,CLR,M,M,M,M,M,M,M,M,M,M,M,M,M,M,84.40,K10U 231715Z AUTO VRB04G10KT 10SM CLR 31/06 A3022 RMK AO2,M
BAM,2024-07-23 17:15,-116.8743,40.5990,1382.36,89.60,50.00,25.79,0.00,0.00,0.00,30.17,M,10.00,M,CLR,M,M,M,M,M,M,M,M,M,M,M,M,M,M,86.70,KBAM 231715Z AUTO 00000KT 10SM CLR 32/10 A3017 RMK AO1,M
TMT,2024-07-23 17:15,-117.1971,39.4643,1749.34,82.40,47.50,29.56,250.00,4.00,0.00,30.28,M,10.00,M,CLR,M,M,M,M,M,M,M,M,M,M,M,M,M,M,80.74,KTMT 231715Z AUTO 25004KT 10SM CLR 28/09 A3028 RMK AO2 T02800086,M
BVU,2024-07-23 17:35,-114.8611,35.9475,671.00,100.40,51.80,19.76,M,5.00,0.00,29.94,M,10.00,M,CLR,M,M,M,M,M,M,M,M,M,M,M,M,M,M,97.90,KBVU 231735Z AUTO VRB05KT 10SM CLR 38/11 A2994 RMK AO2,M
CXP,2024-07-23 17:35,-119.7326,39.1923,1431.00,87.80,48.20,25.52,0.00,0.00,0.00,30.19,M,10.00,M,CLR,M,M,M,M,M,M,M,M,M,M,M,M,M,M,84.87,KCXP 231735Z AUTO 00000KT 10SM CLR 31/09 A3019 RMK AO2,M
RTS,2024-07-23 17:35,-119.8764,39.6682,1539.00,87.80,46.40,23.85,M,5.00,0.00,30.21,M,10.00,M,CLR,M,M,M,M,M,M,M,M,M,M,M,M,M,M,84.68,KRTS 231735Z AUTO VRB05KT 10SM CLR 31/08 A3021 RMK AO2,M
05U,2024-07-23 17:35,-116.0051,39.6042,1811.23,82.40,48.20,30.35,0.00,0.00,0.00,30.30,M,10.00,M,CLR,M,M,M,M,M,M,M,M,M,M,M,M,M,M,80.80,K05U 231735Z AUTO 00000KT 10SM CLR 28/09 A3030 RMK A01,M
MEV,2024-07-23 17:35,-119.7500,38.9963,1441.42,87.80,51.80,29.18,340.00,5.00,0.00,30.17,M,10.00,M,CLR,M,M,M,M,M,M,M,M,M,M,M,M,M,M,85.39,KMEV 231735Z AUTO 34005KT 10SM CLR 31/11 A3017 RMK AO2,M
BAM,2024-07-23 17:35,-116.8743,40.5990,1382.36,89.60,50.00,25.79,0.00,0.00,0.00,30.17,M,10.00,M,CLR,M,M,M,M,M,M,M,M,M,M,M,M,M,M,86.70,KBAM 231735Z AUTO 00000KT 10SM CLR 32/10 A3017 RMK AO1,M
HTH,2024-07-23 17:35,-118.6315,38.5448,1282.89,87.80,50.00,27.29,M,4.00,0.00,30.15,M,10.00,M,CLR,M,M,M,M,M,M,M,M,M,M,M,M,M,M,85.11,KHTH 231735Z AUTO VRB04KT 10SM CLR 31/10 A3015 RMK A01,M
10U,2024-07-23 17:35,-116.1876,41.9532,1637.00,89.60,42.80,19.64,M,5.00,0.00,30.22,M,10.00,M,CLR,M,M,M,M,M,M,M,M,M,M,M,M,M,M,85.93,K10U 231735Z AUTO VRB05KT 10SM CLR 32/06 A3022 RMK AO2,M
TMT,2024-07-23 17:35,-117.1971,39.4643,1749.34,83.30,47.30,28.50,0.00,0.00,0.00,30.28,M,10.00,M,CLR,M,M,M,M,M,M,M,M,M,M,M,M,M,M,81.32,KTMT 231735Z AUTO 00000KT 10SM CLR 29/09 A3028 RMK AO2 T02850085,M
RTS,2024-07-23 17:50,-119.8764,39.6682,1539.00,87.80,46.40,23.85,M,4.00,0.00,30.21,M,10.00,M,CLR,M,M,M,M,M,M,M,M,M,M,M,M,M,M,84.68,KRTS 231750Z AUTO VRB04KT 10SM CLR 31/08 A3021 RMK AO2,M
DRA,2024-07-23 17:53,-116.0278,36.6206,1009.00,98.00,51.00,20.63,320.00,3.00,0.00,30.04,1011.30,10.00,M,CLR,M,M,M,M,M,M,M,M,M,M,M,M,M,M,95.17,KDRA 231753Z AUTO 32003KT 10SM CLR 37/11 A3004 RMK AO2 SLP113 T03670106 10372 20256 58002,M
ELY,2024-07-23 17:53,-114.8453,39.2950,1909.00,87.00,46.00,24.10,330.00,7.00,0.00,30.28,1013.80,10.00,M,CLR,M,M,M,M,M,M,M,M,M,M,M,M,M,M,83.98,KELY 231753Z AUTO 33007KT 300V030 10SM CLR 31/08 A3028 RMK AO2 SLP138 T03060078 10306 20128 57005,M
VGT,2024-07-23 17:53,-115.1933,36.2111,667.00,104.00,52.00,17.87,M,M,0.00,29.95,1012.10,10.00,M,CLR,M,M,M,M,M,M,M,M,M,M,M,M,M,M,101.76,KVGT 231753Z 10SM CLR 40/11 A2995 RMK AO2 SLP121 T04000111 10411 20339 58001,M
LOL,2024-07-23 17:53,-118.5701,40.0684,1192.43,91.00,52.00,26.57,140.00,6.00,0.00,30.11,1014.30,10.00,M,CLR,M,M,M,M,M,M,M,M,M,M,M,M,M,M,88.35,KLOL 231753Z AUTO 14006KT 10SM CLR 33/11 A3011 RMK AO2 SLP143 T03280111 10328 20167 58000,M
NFL,2024-07-23 17:54,-118.7010,39.4166,1199.00,92.00,49.00,23.04,M,5.00,0.00,30.11,1016.30,10.00,M,FEW,FEW,SCT,M,8000.00,12000.00,20000.00,M,M,M,M,M,M,M,M,88.77,KNFL 231754Z VRB05KT 10SM FEW080 FEW120 SCT200 33/09 A3011 RMK AO2 SLP163 T03330094 10339 20206 50000,M
BVU,2024-07-23 17:55,-114.8611,35.9475,671.00,102.20,51.80,18.72,M,4.00,0.00,29.94,M,10.00,M,CLR,M,M,M,M,M,M,M,M,M,M,M,M,M,M,99.80,KBVU 231755Z AUTO VRB04KT 10SM CLR 39/11 A2994 RMK AO2,M
CXP,2024-07-23 17:55,-119.7326,39.1923,1431.00,89.60,48.20,24.11,300.00,4.00,0.00,30.18,M,10.00,M,CLR,M,M,M,M,M,M,M,M,M,M,M,M,M,M,86.44,KCXP 231755Z AUTO 30004KT 10SM CLR 32/09 A3018 RMK AO2,M
RNO,2024-07-23 17:55,-119.7711,39.4839,1341.00,90.00,51.00,26.43,150.00,3.00,0.00,30.15,1013.80,10.00,M,FEW,FEW,M,M,9000.00,20000.00,M,M,M,M,M,M,M,M,M,87.22,KRNO 231755Z 15003KT 10SM FEW090 FEW200 32/11 A3015 RMK AO2 SLP138 T03220106 10322 20228 58003,M
05U,2024-07-23 17:55,-116.0051,39.6042,1811.23,84.20,48.20,28.63,0.00,0.00,0.00,30.30,M,10.00,M,CLR,M,M,M,M,M,M,M,M,M,M,M,M,M,M,82.04,K05U 231755Z AUTO 00000KT 10SM CLR 29/09 A3030 RMK A01,M
MEV,2024-07-23 17:55,-119.7500,38.9963,1441.42,91.40,48.20,22.78,340.00,3.00,0.00,30.17,M,1.50,M,CLR,M,M,M,M,M,M,M,-RA HZ,M,M,M,M,M,M,88.09,KMEV 231755Z AUTO 34003KT 1 1/2SM -RA HZ CLR 33/09 A3017 RMK AO2 VIS 3/4V5,M
HTH,2024-07-23 17:55,-118.6315,38.5448,1282.89,87.80,50.00,27.29,30.00,6.00,0.00,30.15,M,10.00,M,CLR,M,M,M,M,M,M,M,M,M,M,M,M,M,M,85.11,KHTH 231755Z AUTO 03006KT 10SM CLR 31/10 A3015 RMK A01,M
10U,2024-07-23 17:55,-116.1876,41.9532,1637.00,91.40,42.80,18.56,0.00,0.00,0.00,30.22,M,10.00,M,CLR,M,M,M,M,M,M,M,M,M,M,M,M,M,M,87.52,K10U 231755Z AUTO 00000KT 10SM CLR 33/06 A3022 RMK AO2,M
BAM,2024-07-23 17:55,-116.8743,40.5990,1382.36,89.60,50.00,25.79,0.00,0.00,0.00,30.17,M,10.00,M,CLR,M,M,M,M,M,M,M,M,M,M,M,M,M,M,86.70,KBAM 231755Z AUTO 00000KT 10SM CLR 32/10 A3017 RMK AO1,M
TMT,2024-07-23 17:55,-117.1971,39.4643,1749.34,84.00,47.00,27.55,270.00,3.00,0.00,30.28,M,10.00,M,CLR,M,M,M,M,M,M,M,M,M,M,M,M,M,M,81.78,KTMT 231755Z AUTO 27003KT 10SM CLR 29/08 A3028 RMK AO2 T02880083 10291 20138,M
INS,2024-07-23 17:55,-115.6733,36.5872,955.00,97.30,46.80,18.01,320.00,3.00,0.00,30.03,1010.60,10.00,M,CLR,M,M,M,M,M,M,M,M,M,M,M,M,M,M,93.61,KINS 231755Z AUTO 32003KT 10SM CLR 36/08 A3003 RMK AO2 SLP106 T03630082 10365 20287 58004 $,M
LSV,2024-07-23 17:55,-115.0343,36.2362,570.00,102.60,46.00,14.89,180.00,3.00,0.00,29.90,1009.10,10.00,M,FEW,FEW,M,M,17000.00,20000.00,M,M,M,M,M,M,M,M,M,98.74,KLSV 231755Z AUTO 18003KT 10SM FEW170 FEW200 39/08 A2990 RMK AO2 SLP091 T03920078 10401 20328 50002 $,M
EKO,2024-07-23 17:56,-115.7860,40.8242,1367.00,90.00,49.00,24.53,0.00,0.00,0.00,30.20,1015.30,10.00,M,CLR,M,M,M,M,M,M,M,M,M,M,M,M,M,M,86.91,KEKO 231756Z AUTO 00000KT 10SM CLR 32/09 A3020 RMK AO2 SLP153 T03220094 10322 20189 58005,M
WMC,2024-07-23 17:56,-117.8072,40.9019,1315.00,94.00,47.00,20.09,M,4.00,0.00,30.13,1013.90,10.00,M,CLR,M,M,M,M,M,M,M,M,M,M,M,M,M,M,90.40,KWMC 231756Z AUTO VRB04KT 10SM CLR 34/08 A3013 RMK AO2 SLP139 T03440083 10350 20156 50000,M
HND,2024-07-23 17:56,-115.1344,35.9729,742.79,101.00,54.00,21.04,20.00,5.00,0.00,30.00,1013.70,10.00,M,CLR,M,M,M,M,M,M,M,M,M,M,M,M,M,M,99.22,KHND 231756Z 02005KT 10SM CLR 38/12 A3000 RMK AO2 SLP137 T03830122 10383 20317 50002,M
TPH,2024-07-23 17:56,-117.0904,38.0505,1654.00,86.00,50.00,28.90,90.00,3.00,0.00,30.24,1015.30,10.00,M,CLR,M,M,M,M,M,M,M,M,M,M,M,M,M,M,83.62,KTPH 231756Z AUTO 09003KT 10SM CLR 30/10 A3024 RMK AO2 SLP153 T03000100 10300 20167 58003,M
LAS,2024-07-23 17:56,-115.1634,36.0719,663.00,104.00,51.00,17.22,80.00,7.00,0.00,29.96,1007.60,10.00,M,FEW,FEW,SCT,M,11000.00,15000.00,25000.00,M,M,M,M,M,M,M,M,101.44,KLAS 231756Z 08007KT 10SM FEW110 FEW150 SCT250 40/11 A2996 RMK AO2 SLP076 T04000106 10406 20344 52003 $,M
LAS,2024-07-23 18:10,-115.1634,36.0719,663.00,106.00,51.00,16.23,360.00,5.00,0.00,29.96,M,10.00,M,FEW,FEW,SCT,M,11000.00,15000.00,25000.00,M,M,M,M,M,M,M,M,103.51,KLAS 231810Z 36005KT 10SM FEW110 FEW150 SCT250 41/11 A2996 RMK AO2 T04110106 $,M
BVU,2024-07-23 18:15,-114.8611,35.9475,671.00,102.20,51.80,18.72,0.00,0.00,0.00,29.94,M,10.00,M,CLR,M,M,M,M,M,M,M,M,M,M,M,M,M,M,99.80,KBVU 231815Z AUTO 00000KT 10SM CLR 39/11 A2994 RMK AO2,M
CXP,2024-07-23 18:15,-119.7326,39.1923,1431.00,91.40,48.20,22.78,0.00,0.00,0.00,30.18,M,10.00,M,CLR,M,M,M,M,M,M,M,M,M,M,M,M,M,M,88.09,KCXP 231815Z AUTO 00000KT 10SM CLR 33/09 A3018 RMK AO2,M
RTS,2024-07-23 18:15,-119.8764,39.6682,1539.00,89.60,46.40,22.53,M,6.00,0.00,30.20,M,10.00,M,CLR,M,M,M,M,M,M,M,M,M,M,M,M,M,M,86.24,KRTS 231815Z AUTO VRB06KT 10SM CLR 32/08 A3020 RMK AO2,M
05U,2024-07-23 18:15,-116.0051,39.6042,1811.23,86.00,46.40,25.26,0.00,0.00,0.00,30.29,M,10.00,M,CLR,M,M,M,M,M,M,M,M,M,M,M,M,M,M,83.22,K05U 231815Z AUTO 00000KT 10SM CLR 30/08 A3029 RMK A01,M
MEV,2024-07-23 18:15,-119.7500,38.9963,1441.42,91.40,46.40,21.29,100.00,5.00,0.00,30.16,M,10.00,M,CLR,M,M,M,M,M,M,M,M,M,M,M,M,M,M,87.86,KMEV 231815Z AUTO 10005KT 10SM CLR 33/08 A3016 RMK AO2,M
HTH,2024-07-23 18:15,-118.6315,38.5448,1282.89,89.60,50.00,25.79,M,4.00,0.00,30.14,M,10.00,M,CLR,M,M,M,M,M,M,M,M,M,M,M,M,M,M,86.70,KHTH 231815Z AUTO VRB04KT 10SM CLR 32/10 A3014 RMK A01,M
10U,2024-07-23 18:15,-116.1876,41.9532,1637.00,91.40,42.80,18.56,310.00,5.00,0.00,30.22,M,10.00,10.00,CLR,M,M,M,M,M,M,M,M,M,M,M,M,M,M,87.52,K10U 231815Z AUTO 31005G10KT 10SM CLR 33/06 A3022 RMK AO2,M
BAM,2024-07-23 18:15,-116.8743,40.5990,1382.36,91.40,48.20,22.78,0.00,0.00,0.00,30.16,M,10.00,M,CLR,M,M,M,M,M,M,M,M,M,M,M,M,M,M,88.09,KBAM 231815Z AUTO 00000KT 10SM CLR 33/09 A3016 RMK AO1,M
TMT,2024-07-23 18:15,-117.1971,39.4643,1749.34,85.00,46.00,25.69,30.00,3.00,0.00,30.27,M,10.00,M,CLR,M,M,M,M,M,M,M,M,M,M,M,M,M,M,82.42,KTMT 231815Z AUTO 03003KT 10SM CLR 30/08 A3027 RMK AO2 T02950078,M
BVU,2024-07-23 18:35,-114.8611,35.9475,671.00,102.20,51.80,18.72,M,5.00,0.00,29.93,M,10.00,M,CLR,M,M,M,M,M,M,M,M,M,M,M,M,M,M,99.80,KBVU 231835Z AUTO VRB05KT 10SM CLR 39/11 A2993 RMK AO2,M
CXP,2024-07-23 18:35,-119.7326,39.1923,1431.00,93.20,48.20,21.54,310.00,4.00,0.00,30.17,M,10.00,M,CLR,M,M,M,M,M,M,M,M,M,M,M,M,M,M,89.80,KCXP 231835Z AUTO 31004KT 10SM CLR 34/09 A3017 RMK AO2,M
RTS,2024-07-23 18:35,-119.8764,39.6682,1539.00,91.40,46.40,21.29,140.00,7.00,0.00,30.20,M,10.00,M,CLR,M,M,M,M,M,M,M,M,M,M,M,M,M,M,87.86,KRTS 231835Z AUTO 14007KT 10SM CLR 33/08 A3020 RMK AO2,M
05U,2024-07-23 18:35,-116.0051,39.6042,1811.23,86.00,44.60,23.59,0.00,0.00,0.00,30.29,M,10.00,M,CLR,M,M,M,M,M,M,M,M,M,M,M,M,M,M,83.07,K05U 231835Z AUTO 00000KT 10SM CLR 30/07 A3029 RMK A01,M
MEV,2024-07-23 18:35,-119.7500,38.9963,1441.42,93.20,48.20,21.54,0.00,0.00,0.00,30.16,M,10.00,M,CLR,M,M,M,M,M,M,M,M,M,M,M,M,M,M,89.80,KMEV 231835Z AUTO 00000KT 10SM CLR 34/09 A3016 RMK AO2,M
BAM,2024-07-23 18:35,-116.8743,40.5990,1382.36,93.20,48.20,21.54,290.00,5.00,0.00,30.16,M,10.00,M,CLR,M,M,M,M,M,M,M,M,M,M,M,M,M,M,89.80,KBAM 231835Z AUTO 29005KT 10SM CLR 34/09 A3016 RMK AO1,M
HTH,2024-07-23 18:35,-118.6315,38.5448,1282.89,91.40,50.00,24.37,M,5.00,0.00,30.14,M,10.00,M,CLR,M,M,M,M,M,M,M,M,M,M,M,M,M,M,88.36,KHTH 231835Z AUTO VRB05KT 10SM CLR 33/10 A3014 RMK A01,M
10U,2024-07-23 18:35,-116.1876,41.9532,1637.00,91.40,44.60,19.89,M,5.00,0.00,30.21,M,10.00,M,CLR,M,M,M,M,M,M,M,M,M,M,M,M,M,M,87.68,K10U 231835Z AUTO VRB05KT 10SM CLR 33/07 A3021 RMK AO2,M
TMT,2024-07-23 18:35,-117.1971,39.4643,1749.34,87.00,46.40,24.46,260.00,5.00,0.00,30.27,M,10.00,M,CLR,M,M,M,M,M,M,M,M,M,M,M,M,M,M,84.02,KTMT 231835Z AUTO 26005KT 10SM CLR 31/08 A3027 RMK AO2 T03060080,M
P68,2024-07-23 18:53,-116.0056,39.6014,1993.00,87.00,45.00,23.20,100.00,6.00,0.00,30.25,1014.80,M,M,M,M,M,M,M,M,M,M,M,M,M,M,M,M,M,83.90,KP68 231853Z AUTO 10006KT 31/07 A3025 RMK AO1 SLP148 T03060072,M
DRA,2024-07-23 18:53,-116.0278,36.6206,1009.00,100.00,51.00,19.42,M,3.00,0.00,30.03,1010.80,10.00,M,CLR,M,M,M,M,M,M,M,M,M,M,M,M,M,M,97.26,KDRA 231853Z AUTO VRB03KT 10SM CLR 38/11 A3003 RMK AO2 SLP108 T03780106,M
ELY,2024-07-23 18:53,-114.8453,39.2950,1909.00,90.00,45.00,21.10,M,6.00,0.00,30.27,1013.10,10.00,M,CLR,M,M,M,M,M,M,M,M,M,M,M,M,M,M,86.45,KELY 231853Z AUTO VRB06KT 10SM CLR 32/07 A3027 RMK AO2 SLP131 T03220072,M
VGT,2024-07-23 18:53,-115.1933,36.2111,667.00,107.00,52.00,16.35,M,6.00,0.00,29.93,1011.60,10.00,M,CLR,M,M,M,M,M,M,M,M,M,M,M,M,M,M,104.89,KVGT 231853Z VRB06KT 10SM CLR 42/11 A2993 RMK AO2 SLP116 T04170111,M
LOL,2024-07-23 18:53,-118.5701,40.0684,1192.43,93.00,51.00,24.06,0.00,0.00,0.00,30.10,1014.00,10.00,M,CLR,M,M,M,M,M,M,M,M,M,M,M,M,M,M,90.09,KLOL 231853Z AUTO 00000KT 10SM CLR 34/11 A3010 RMK AO2 SLP140 T03390106,M
NFL,2024-07-23 18:54,-118.7010,39.4166,1199.00,96.00,50.00,21.13,M,6.00,0.00,30.10,1016.00,10.00,M,FEW,SCT,M,M,8000.00,20000.00,M,M,M,M,M,M,M,M,M,92.89,KNFL 231854Z VRB06KT 10SM FEW080 SCT200 36/10 A3010 RMK AO2 SLP160 T03560100,M
BVU,2024-07-23 18:55,-114.8611,35.9475,671.00,104.00,50.00,16.59,320.00,4.00,0.00,29.93,M,10.00,M,CLR,M,M,M,M,M,M,M,M,M,M,M,M,M,M,101.14,KBVU 231855Z AUTO 32004KT 10SM CLR 40/10 A2993 RMK AO2,M
CXP,2024-07-23 18:55,-119.7326,39.1923,1431.00,93.20,46.40,20.13,260.00,4.00,0.00,30.17,M,10.00,M,CLR,M,M,M,M,M,M,M,M,M,M,M,M,M,M,89.55,KCXP 231855Z AUTO 26004KT 10SM CLR 34/08 A3017 RMK AO2,M
RNO,2024-07-23 18:55,-119.7711,39.4839,1341.00,95.00,49.00,21.00,120.00,5.00,0.00,30.14,1013.10,10.00,M,FEW,M,M,M,10000.00,M,M,M,M,M,M,M,M,M,M,91.70,KRNO 231855Z 12005KT 10SM FEW100TCU 35/09 A3014 RMK AO2 SLP131 TCU SW T03500094,M
RTS,2024-07-23 18:55,-119.8764,39.6682,1539.00,91.40,46.40,21.29,190.00,6.00,0.00,30.20,M,10.00,M,CLR,M,M,M,M,M,M,M,M,M,M,M,M,M,M,87.86,KRTS 231855Z AUTO 19006KT 10SM CLR 33/08 A3020 RMK AO2,M
05U,2024-07-23 18:55,-116.0051,39.6042,1811.23,87.80,44.60,22.27,0.00,0.00,0.00,30.28,M,10.00,M,CLR,M,M,M,M,M,M,M,M,M,M,M,M,M,M,84.53,K05U 231855Z AUTO 00000KT 10SM CLR 31/07 A3028 RMK A01,M
MEV,2024-07-23 18:55,-119.7500,38.9963,1441.42,93.20,46.40,20.13,M,3.00,0.00,30.16,M,10.00,M,CLR,M,M,M,M,M,M,M,M,M,M,M,M,M,M,89.55,KMEV 231855Z AUTO VRB03KT 10SM CLR 34/08 A3016 RMK AO2,M
BAM,2024-07-23 18:55,-116.8743,40.5990,1382.36,95.00,48.20,20.38,280.00,6.00,0.00,30.16,M,10.00,M,CLR,M,M,M,M,M,M,M,M,M,M,M,M,M,M,91.56,KBAM 231855Z AUTO 28006KT 10SM CLR 35/09 A3016 RMK AO1,M
HTH,2024-07-23 18:55,-118.6315,38.5448,1282.89,91.40,48.20,22.78,M,5.00,0.00,30.13,M,10.00,M,CLR,M,M,M,M,M,M,M,M,M,M,M,M,M,M,88.09,KHTH 231855Z AUTO VRB05KT 10SM CLR 33/09 A3013 RMK A01,M
10U,2024-07-23 18:55,-116.1876,41.9532,1637.00,91.40,44.60,19.89,40.00,7.00,0.00,30.21,M,10.00,M,CLR,M,M,M,M,M,M,M,M,M,M,M,M,M,M,87.68,K10U 231855Z AUTO 04007KT 10SM CLR 33/07 A3021 RMK AO2,M
TMT,2024-07-23 18:55,-117.1971,39.4643,1749.34,87.00,44.20,22.50,300.00,5.00,0.00,30.27,M,10.00,M,CLR,M,M,M,M,M,M,M,M,M,M,M,M,M,M,83.84,KTMT 231855Z AUTO 30005KT 10SM CLR 31/07 A3027 RMK AO2 T03060068,M
INS,2024-07-23 18:55,-115.6733,36.5872,955.00,100.60,44.40,14.88,240.00,3.00,0.00,30.02,1010.10,10.00,M,CLR,M,M,M,M,M,M,M,M,M,M,M,M,M,M,96.48,KINS 231855Z AUTO 24003KT 10SM CLR 38/07 A3002 RMK AO2 SLP101 T03810069 $,M
LSV,2024-07-23 18:55,-115.0343,36.2362,570.00,105.00,44.20,12.95,100.00,3.00,0.00,29.88,1008.30,10.00,M,FEW,M,M,M,19000.00,M,M,M,M,M,M,M,M,M,M,100.69,KLSV 231855Z AUTO 10003KT 10SM FEW190 41/07 A2988 RMK AO2 SLP083 T04060068 $,M
EKO,2024-07-23 18:56,-115.7860,40.8242,1367.00,93.00,45.00,19.21,350.00,5.00,0.00,30.19,1014.70,10.00,M,CLR,M,M,M,M,M,M,M,M,M,M,M,M,M,M,89.20,KEKO 231856Z AUTO 35005KT 10SM CLR 34/07 A3019 RMK AO2 SLP147 T03390072,M
WMC,2024-07-23 18:56,-117.8072,40.9019,1315.00,97.00,46.00,17.64,M,5.00,0.00,30.12,1013.50,10.00,M,CLR,M,M,M,M,M,M,M,M,M,M,M,M,M,M,93.19,KWMC 231856Z AUTO VRB05KT 10SM CLR 36/08 A3012 RMK AO2 SLP135 T03610078,M
HND,2024-07-23 18:56,-115.1344,35.9729,742.79,103.00,54.00,19.81,M,4.00,0.00,29.99,1013.10,10.00,M,CLR,M,M,M,M,M,M,M,M,M,M,M,M,M,M,101.38,KHND 231856Z VRB04KT 10SM CLR 39/12 A2999 RMK AO2 LTG DSNT S SLP131 T03940122,M
TPH,2024-07-23 18:56,-117.0904,38.0505,1654.00,90.00,47.00,22.76,M,3.00,0.00,30.23,1014.60,10.00,M,CLR,M,M,M,M,M,M,M,M,M,M,M,M,M,M,86.66,KTPH 231856Z AUTO VRB03KT 10SM CLR 32/08 A3023 RMK AO2 SLP146 T03220083,M
LAS,2024-07-23 18:56,-115.1634,36.0719,663.00,103.00,56.00,21.31,170.00,4.00,T,29.94,1006.90,10.00,M,FEW,SCT,SCT,M,11000.00,15000.00,25000.00,M,-RA,M,M,M,M,M,M,102.16,KLAS 231856Z 17004KT 10SM -RA FEW110 SCT150 SCT250 39/13 A2994 RMK AO2 LTG DSNT S RAB55 SLP069 CB DSNT S P0000 T03940133 $,M
05U,2024-07-23 19:10,-116.0051,39.6042,1811.23,87.80,44.60,22.27,0.00,0.00,0.00,30.28,M,10.00,M,CLR,M,M,M,M,M,M,M,M,M,M,M,M,M,M,84.53,K05U 231910Z AUTO 00000KT 10SM CLR 31/07 A3028 RMK A01,M
BVU,2024-07-23 19:15,-114.8611,35.9475,671.00,104.00,51.80,17.74,M,4.00,0.00,29.92,M,10.00,M,CLR,M,M,M,M,M,M,M,M,M,M,M,M,M,M,101.69,KBVU 231915Z AUTO VRB04KT 10SM CLR 40/11 A2992 RMK AO2,M
CXP,2024-07-23 19:15,-119.7326,39.1923,1431.00,93.20,46.40,20.13,0.00,0.00,0.00,30.17,M,10.00,M,CLR,M,M,M,M,M,M,M,M,M,M,M,M,M,M,89.55,KCXP 231915Z AUTO 00000KT 10SM CLR 34/08 A3017 RMK AO2,M
RTS,2024-07-23 19:15,-119.8764,39.6682,1539.00,91.40,46.40,21.29,M,4.00,0.00,30.20,M,10.00,M,CLR,M,M,M,M,M,M,M,M,M,M,M,M,M,M,87.86,KRTS 231915Z AUTO VRB04KT 10SM CLR 33/08 A3020 RMK AO2,M
MEV,2024-07-23 19:15,-119.7500,38.9963,1441.42,93.20,48.20,21.54,0.00,0.00,0.00,30.16,M,10.00,11.00,CLR,M,M,M,M,M,M,M,M,M,M,M,M,M,M,89.80,KMEV 231915Z AUTO 00000G11KT 10SM CLR 34/09 A3016 RMK AO2,M
BAM,2024-07-23 19:15,-116.8743,40.5990,1382.36,95.00,48.20,20.38,240.00,6.00,0.00,30.15,M,10.00,M,CLR,M,M,M,M,M,M,M,M,M,M,M,M,M,M,91.56,KBAM 231915Z AUTO 24006KT 10SM CLR 35/09 A3015 RMK AO1,M
HTH,2024-07-23 19:15,-118.6315,38.5448,1282.89,93.20,46.40,20.13,350.00,5.00,0.00,30.13,M,10.00,M,CLR,M,M,M,M,M,M,M,M,M,M,M,M,M,M,89.55,KHTH 231915Z AUTO 35005KT 10SM CLR 34/08 A3013 RMK A01,M
10U,2024-07-23 19:15,-116.1876,41.9532,1637.00,91.40,42.80,18.56,M,3.00,0.00,30.21,M,10.00,M,CLR,M,M,M,M,M,M,M,M,M,M,M,M,M,M,87.52,K10U 231915Z AUTO VRB03KT 10SM CLR 33/06 A3021 RMK AO2,M
TMT,2024-07-23 19:15,-117.1971,39.4643,1749.34,87.30,44.00,22.12,0.00,0.00,0.00,30.26,M,10.00,M,CLR,M,M,M,M,M,M,M,M,M,M,M,M,M,M,84.07,KTMT 231915Z AUTO 00000KT 10SM CLR 31/07 A3026 RMK AO2 T03070066,M
BVU,2024-07-23 19:35,-114.8611,35.9475,671.00,105.80,50.00,15.73,M,6.00,0.00,29.92,M,10.00,M,CLR,M,M,M,M,M,M,M,M,M,M,M,M,M,M,102.98,KBVU 231935Z AUTO VRB06KT 10SM CLR 41/10 A2992 RMK AO2,M
CXP,2024-07-23 19:35,-119.7326,39.1923,1431.00,95.00,46.40,19.04,0.00,0.00,0.00,30.17,M,10.00,M,CLR,M,M,M,M,M,M,M,M,M,M,M,M,M,M,91.29,KCXP 231935Z AUTO 00000KT 10SM CLR 35/08 A3017 RMK AO2,M
RTS,2024-07-23 19:35,-119.8764,39.6682,1539.00,91.40,46.40,21.29,130.00,5.00,0.00,30.20,M,10.00,11.00,CLR,M,M,M,M,M,M,M,M,M,M,M,M,M,M,87.86,KRTS 231935Z AUTO 13005G11KT 10SM CLR 33/08 A3020 RMK AO2,M
05U,2024-07-23 19:35,-116.0051,39.6042,1811.23,87.80,42.80,20.79,0.00,0.00,0.00,30.27,M,10.00,10.00,CLR,M,M,M,M,M,M,M,M,M,M,M,M,M,M,84.40,K05U 231935Z AUTO 00000G10KT 10SM CLR 31/06 A3027 RMK A01,M
MEV,2024-07-23 19:35,-119.7500,38.9963,1441.42,95.00,48.20,20.38,290.00,6.00,0.00,30.16,M,10.00,M,CLR,M,M,M,M,M,M,M,M,M,M,M,M,M,M,91.56,KMEV 231935Z AUTO 29006KT 10SM CLR 35/09 A3016 RMK AO2,M
BAM,2024-07-23 19:35,-116.8743,40.5990,1382.36,96.80,46.40,18.02,150.00,5.00,0.00,30.15,M,10.00,M,CLR,M,M,M,M,M,M,M,M,M,M,M,M,M,M,93.05,KBAM 231935Z AUTO 15005KT 10SM CLR 36/08 A3015 RMK AO1,M
HTH,2024-07-23 19:35,-118.6315,38.5448,1282.89,93.20,46.40,20.13,320.00,6.00,0.00,30.12,M,10.00,M,CLR,M,M,M,M,M,M,M,M,M,M,M,M,M,M,89.55,KHTH 231935Z AUTO 32006KT 10SM CLR 34/08 A3012 RMK A01,M
10U,2024-07-23 19:35,-116.1876,41.9532,1637.00,93.20,44.60,18.80,M,4.00,0.00,30.20,M,10.00,10.00,CLR,M,M,M,M,M,M,M,M,M,M,M,M,M,M,89.34,K10U 231935Z AUTO VRB04G10KT 10SM CLR 34/07 A3020 RMK AO2,M
TMT,2024-07-23 19:35,-117.1971,39.4643,1749.34,88.70,45.00,21.98,230.00,3.00,0.00,30.26,M,10.00,M,CLR,M,M,M,M,M,M,M,M,M,M,M,M,M,M,85.32,KTMT 231935Z AUTO 23003KT 10SM CLR 32/07 A3026 RMK AO2 T03150072,M
05U,2024-07-23 19:50,-116.0051,39.6042,1811.23,89.60,41.00,18.33,0.00,0.00,0.00,30.27,M,10.00,M,CLR,M,M,M,M,M,M,M,M,M,M,M,M,M,M,85.82,K05U 231950Z AUTO 00000KT 10SM CLR 32/05 A3027 RMK A01,M
P68,2024-07-23 19:53,-116.0056,39.6014,1993.00,92.00,42.00,17.67,360.00,7.00,0.00,30.24,1014.30,M,M,M,M,M,M,M,M,M,M,M,M,M,M,M,M,M,88.01,KP68 231953Z AUTO 36007KT 330V030 33/06 A3024 RMK AO1 SLP143 T03330056,M
DRA,2024-07-23 19:53,-116.0278,36.6206,1009.00,102.00,49.00,16.97,180.00,7.00,0.00,30.02,1010.30,10.00,M,CLR,M,M,M,M,M,M,M,M,M,M,M,M,M,M,98.82,KDRA 231953Z AUTO 18007KT 150V220 10SM CLR 39/09 A3002 RMK AO2 SLP103 T03890094,M
ELY,2024-07-23 19:53,-114.8453,39.2950,1909.00,91.00,45.00,20.45,M,M,0.00,30.26,1012.70,10.00,M,BKN,M,M,M,10000.00,M,M,M,M,M,M,M,M,M,M,87.35,KELY 231953Z AUTO 10SM BKN100 33/07 A3026 RMK AO2 LTG DSNT SW SLP127 T03280072 $,M
VGT,2024-07-23 19:53,-115.1933,36.2111,667.00,107.00,51.00,15.76,130.00,5.00,0.00,29.92,1011.20,10.00,M,CLR,M,M,M,M,M,M,M,M,M,M,M,M,M,M,104.53,KVGT 231953Z 13005KT 10SM CLR 42/11 A2992 RMK AO2 SLP112 T04170106,M
LOL,2024-07-23 19:53,-118.5701,40.0684,1192.43,96.00,50.00,21.13,M,4.00,0.00,30.08,1013.50,10.00,M,CLR,M,M,M,M,M,M,M,M,M,M,M,M,M,M,92.89,KLOL 231953Z AUTO VRB04KT 10SM CLR 36/10 A3008 RMK AO2 SLP135 T03560100,M
NFL,2024-07-23 19:54,-118.7010,39.4166,1199.00,98.00,48.00,18.45,M,M,0.00,30.09,1015.70,10.00,M,SCT,SCT,M,M,8000.00,20000.00,M,M,M,M,M,M,M,M,M,94.53,KNFL 231954Z 10SM SCT080 SCT200 37/09 A3009 RMK AO2 SLP157 CB DSNT SE-S T03670089,M
BVU,2024-07-23 19:55,-114.8611,35.9475,671.00,105.80,50.00,15.73,0.00,0.00,0.00,29.91,M,10.00,M,CLR,M,M,M,M,M,M,M,M,M,M,M,M,M,M,102.98,KBVU 231955Z AUTO 00000KT 10SM CLR 41/10 A2991 RMK AO2,M
CXP,2024-07-23 19:55,-119.7326,39.1923,1431.00,96.80,44.60,16.83,M,4.00,0.00,30.16,M,10.00,M,CLR,M,M,M,M,M,M,M,M,M,M,M,M,M,M,92.79,KCXP 231955Z AUTO VRB04KT 10SM CLR 36/07 A3016 RMK AO2,M
RNO,2024-07-23 19:55,-119.7711,39.4839,1341.00,99.00,49.00,18.58,0.00,0.00,0.00,30.13,1012.60,10.00,M,SCT,M,M,M,10000.00,M,M,M,M,M,M,M,M,M,M,95.75,KRNO 231955Z 00000KT 10SM SCT100TCU 37/09 A3013 RMK AO2 SLP126 TCU SE AND NW T03720094,M
RTS,2024-07-23 19:55,-119.8764,39.6682,1539.00,93.20,46.40,20.13,0.00,0.00,0.00,30.19,M,10.00,M,CLR,M,M,M,M,M,M,M,M,M,M,M,M,M,M,89.55,KRTS 231955Z AUTO 00000KT 10SM CLR 34/08 A3019 RMK AO2,M
MEV,2024-07-23 19:55,-119.7500,38.9963,1441.42,95.00,48.20,20.38,0.00,0.00,0.00,30.15,M,10.00,10.00,CLR,M,M,M,M,M,M,M,M,M,M,M,M,M,M,91.56,KMEV 231955Z AUTO 00000G10KT 10SM CLR 35/09 A3015 RMK AO2,M
BAM,2024-07-23 19:55,-116.8743,40.5990,1382.36,96.80,46.40,18.02,330.00,7.00,0.00,30.14,M,10.00,M,CLR,M,M,M,M,M,M,M,M,M,M,M,M,M,M,93.05,KBAM 231955Z AUTO 33007KT 10SM CLR 36/08 A3014 RMK AO1,M
HTH,2024-07-23 19:55,-118.6315,38.5448,1282.89,95.00,44.60,17.78,350.00,4.00,0.00,30.12,M,10.00,11.00,CLR,M,M,M,M,M,M,M,M,M,M,M,M,M,M,91.06,KHTH 231955Z AUTO 35004G11KT 10SM CLR 35/07 A3012 RMK A01,M
10U,2024-07-23 19:55,-116.1876,41.9532,1637.00,93.20,44.60,18.80,50.00,6.00,0.00,30.20,M,10.00,M,CLR,M,M,M,M,M,M,M,M,M,M,M,M,M,M,89.34,K10U 231955Z AUTO 05006KT 10SM CLR 34/07 A3020 RMK AO2,M
TMT,2024-07-23 19:55,-117.1971,39.4643,1749.34,88.00,46.40,23.70,280.00,4.00,0.00,30.25,M,10.00,M,CLR,M,M,M,M,M,M,M,M,M,M,M,M,M,M,84.85,KTMT 231955Z AUTO 28004KT 10SM CLR 31/08 A3025 RMK AO2 T03120080,M
INS,2024-07-23 19:55,-115.6733,36.5872,955.00,102.60,44.20,13.91,230.00,4.00,0.00,30.00,1009.40,10.00,M,CLR,M,M,M,M,M,M,M,M,M,M,M,M,M,M,98.39,KINS 231955Z AUTO 23004KT 10SM CLR 39/07 A3000 RMK AO2 SLP094 T03920068 $,M
LSV,2024-07-23 19:55,-115.0343,36.2362,570.00,106.30,45.00,12.84,0.00,0.00,0.00,29.87,1008.00,10.00,M,FEW,FEW,SCT,M,15000.00,17000.00,20000.00,M,M,M,M,M,M,M,M,102.10,KLSV 231955Z AUTO 00000KT 10SM FEW150 FEW170 SCT200 41/07 A2987 RMK AO2 SLP080 T04130073 $,M
EKO,2024-07-23 19:56,-115.7860,40.8242,1367.00,95.00,45.00,18.06,220.00,5.00,0.00,30.17,1014.10,10.00,M,CLR,M,M,M,M,M,M,M,M,M,M,M,M,M,M,91.10,KEKO 231956Z AUTO 22005KT 10SM CLR 35/07 A3017 RMK AO2 SLP141 T03500072,M
WMC,2024-07-23 19:56,-117.8072,40.9019,1315.00,99.00,44.00,15.38,100.00,6.00,0.00,30.11,1013.00,10.00,M,CLR,M,M,M,M,M,M,M,M,M,M,M,M,M,M,94.85,KWMC 231956Z AUTO 10006KT 10SM CLR 37/07 A3011 RMK AO2 SLP130 T03720067,M
HND,2024-07-23 19:56,-115.1344,35.9729,742.79,103.00,54.00,19.81,M,3.00,0.00,29.97,1012.60,10.00,M,CLR,M,M,M,M,M,M,M,M,M,M,M,M,M,M,101.38,KHND 231956Z VRB03KT 10SM CLR 39/12 A2997 RMK AO2 SLP126 T03940122,M
TPH,2024-07-23 19:56,-117.0904,38.0505,1654.00,92.00,46.00,20.58,0.00,0.00,0.00,30.21,1013.80,10.00,M,CLR,M,M,M,M,M,M,M,M,M,M,M,M,M,M,88.38,KTPH 231956Z AUTO 00000KT 10SM CLR 33/08 A3021 RMK AO2 SLP138 T03330078,M
LAS,2024-07-23 19:56,-115.1634,36.0719,663.00,104.00,51.00,17.22,270.00,4.00,T,29.93,1006.50,10.00,M,SCT,SCT,M,M,11000.00,25000.00,M,M,M,M,M,M,M,M,M,101.44,KLAS 231956Z 27004KT 10SM SCT110 SCT250 40/11 A2993 RMK AO2 RAE10 SLP065 CB DSNT S P0000 T04000106 $,M
05U,2024-07-23 20:10,-116.0051,39.6042,1811.23,91.40,41.00,17.32,0.00,0.00,0.00,30.27,M,10.00,M,CLR,M,M,M,M,M,M,M,M,M,M,M,M,M,M,87.40,K05U 232010Z AUTO 00000KT 10SM CLR 33/05 A3027 RMK A01,M
BVU,2024-07-23 20:15,-114.8611,35.9475,671.00,105.80,50.00,15.73,100.00,6.00,0.00,29.91,M,10.00,M,CLR,M,M,M,M,M,M,M,M,M,M,M,M,M,M,102.98,KBVU 232015Z AUTO 10006KT 10SM CLR 41/10 A2991 RMK AO2,M
CXP,2024-07-23 20:15,-119.7326,39.1923,1431.00,96.80,48.20,19.28,260.00,8.00,0.00,30.16,M,10.00,15.00,CLR,M,M,M,M,M,M,M,M,M,M,M,M,M,M,93.36,KCXP 232015Z AUTO 26008G15KT 240V300 10SM CLR 36/09 A3016 RMK AO2,M
RTS,2024-07-23 20:15,-119.8764,39.6682,1539.00,91.40,46.40,21.29,120.00,7.00,0.00,30.19,M,10.00,12.00,CLR,M,M,M,M,M,M,M,M,M,M,M,M,M,M,87.86,KRTS 232015Z AUTO 12007G12KT 10SM CLR 33/08 A3019 RMK AO2,M
MEV,2024-07-23 20:15,-119.7500,38.9963,1441.42,95.00,48.20,20.38,10.00,6.00,0.00,30.15,M,10.00,M,CLR,M,M,M,M,M,M,M,M,M,M,M,M,M,M,91.56,KMEV 232015Z AUTO 01006KT 10SM CLR 35/09 A3015 RMK AO2,M
BAM,2024-07-23 20:15,-116.8743,40.5990,1382.36,96.80,46.40,18.02,340.00,5.00,0.00,30.13,M,10.00,M,CLR,M,M,M,M,M,M,M,M,M,M,M,M,M,M,93.05,KBAM 232015Z AUTO 34005KT 10SM CLR 36/08 A3013 RMK AO1,M
HTH,2024-07-23 20:15,-118.6315,38.5448,1282.89,96.80,42.80,15.71,340.00,8.00,0.00,30.11,M,10.00,M,CLR,M,M,M,M,M,M,M,M,M,M,M,M,M,M,92.57,KHTH 232015Z AUTO 34008KT 310V020 10SM CLR 36/06 A3011 RMK A01,M
10U,2024-07-23 20:15,-116.1876,41.9532,1637.00,93.20,42.80,17.55,M,4.00,0.00,30.20,M,10.00,11.00,CLR,M,M,M,M,M,M,M,M,M,M,M,M,M,M,89.17,K10U 232015Z AUTO VRB04G11KT 10SM CLR 34/06 A3020 RMK AO2,M
TMT,2024-07-23 20:15,-117.1971,39.4643,1749.34,90.30,46.00,21.71,0.00,0.00,0.00,30.25,M,10.00,M,CLR,M,M,M,M,M,M,M,M,M,M,M,M,M,M,86.82,KTMT 232015Z AUTO 00000KT 10SM CLR 32/08 A3025 RMK AO2 T03240077,M
BVU,2024-07-23 20:35,-114.8611,35.9475,671.00,107.60,50.00,14.92,250.00,8.00,0.00,29.90,M,10.00,M,CLR,M,M,M,M,M,M,M,M,M,M,M,M,M,M,104.80,KBVU 232035Z AUTO 25008KT 10SM CLR 42/10 A2990 RMK AO2,M
CXP,2024-07-23 20:35,-119.7326,39.1923,1431.00,96.80,48.20,19.28,290.00,12.00,0.00,30.15,M,9.00,19.00,CLR,M,M,M,M,M,M,M,M,M,M,M,M,M,M,93.36,KCXP 232035Z AUTO 29012G19KT 240V360 9SM CLR 36/09 A3015 RMK AO2,M
RTS,2024-07-23 20:35,-119.8764,39.6682,1539.00,91.40,46.40,21.29,150.00,6.00,0.00,30.18,M,10.00,13.00,FEW,FEW,M,M,10000.00,12000.00,M,M,M,M,M,M,M,M,M,87.86,KRTS 232035Z AUTO 15006G13KT 10SM FEW100 FEW120 33/08 A3018 RMK AO2,M
05U,2024-07-23 20:35,-116.0051,39.6042,1811.23,89.60,41.00,18.33,0.00,0.00,0.00,30.27,M,10.00,M,CLR,M,M,M,M,M,M,M,M,M,M,M,M,M,M,85.82,K05U 232035Z AUTO 00000KT 10SM CLR 32/05 A3027 RMK A01,M
MEV,2024-07-23 20:35,-119.7500,38.9963,1441.42,95.00,48.20,20.38,0.00,0.00,0.00,30.15,M,10.00,M,CLR,M,M,M,M,M,M,M,M,M,M,M,M,M,M,91.56,KMEV 232035Z AUTO 00000KT 10SM CLR 35/09 A3015 RMK AO2,M
HTH,2024-07-23 20:35,-118.6315,38.5448,1282.89,96.80,41.00,14.66,330.00,7.00,0.00,30.10,M,10.00,13.00,CLR,M,M,M,M,M,M,M,M,M,M,M,M,M,M,92.39,KHTH 232035Z AUTO 33007G13KT 10SM CLR 36/05 A3010 RMK A01,M
10U,2024-07-23 20:35,-116.1876,41.9532,1637.00,91.40,42.80,18.56,20.00,7.00,0.00,30.20,M,10.00,M,BKN,M,M,M,11000.00,M,M,M,M,M,M,M,M,M,M,87.52,K10U 232035Z AUTO 02007KT 10SM BKN110 33/06 A3020 RMK AO2,M
TMT,2024-07-23 20:35,-117.1971,39.4643,1749.34,90.50,46.80,22.23,140.00,3.00,0.00,30.24,M,10.00,M,CLR,M,M,M,M,M,M,M,M,M,M,M,M,M,M,87.09,KTMT 232035Z AUTO 14003KT 10SM CLR 33/08 A3024 RMK AO2 T03250082,M
ELY,2024-07-23 20:41,-114.8453,39.2950,1909.00,89.00,45.00,21.77,210.00,10.00,0.00,30.26,M,10.00,M,CLR,M,M,M,M,M,M,M,VCTS,M,M,M,M,M,M,85.58,KELY 232041Z AUTO 21010KT 10SM VCTS CLR 32/07 A3026 RMK AO2 LTG DSNT S AND W T03170072,M
P68,2024-07-23 20:53,-116.0056,39.6014,1993.00,94.00,44.00,17.93,360.00,10.00,0.00,30.23,1013.60,M,15.00,M,M,M,M,M,M,M,M,M,M,M,M,M,M,M,90.04,KP68 232053Z AUTO 36010G15KT 34/07 A3023 RMK AO1 SLP136 T03440067 56012,M
DRA,2024-07-23 20:53,-116.0278,36.6206,1009.00,105.00,50.00,16.11,250.00,5.00,0.00,30.00,1009.70,10.00,14.00,CLR,M,M,M,M,M,M,M,M,M,M,M,M,M,M,102.16,KDRA 232053Z AUTO 25005G14KT 10SM CLR 41/10 A3000 RMK AO2 SLP097 T04060100 58013,M
ELY,2024-07-23 20:53,-114.8453,39.2950,1909.00,89.00,45.00,21.77,160.00,8.00,0.00,30.27,1013.20,10.00,M,FEW,M,M,M,11000.00,M,M,M,M,M,M,M,M,M,M,85.58,KELY 232053Z AUTO 16008KT 10SM FEW110 32/07 A3027 RMK AO2 LTG DSNT S SLP132 T03170072 55004,M
VGT,2024-07-23 20:53,-115.1933,36.2111,667.00,108.00,52.00,15.88,0.00,0.00,0.00,29.90,1010.60,10.00,M,CLR,M,M,M,M,M,M,M,M,M,M,M,M,M,M,105.91,KVGT 232053Z 00000KT 10SM CLR 42/11 A2990 RMK AO2 SLP106 T04220111 58013,M
LOL,2024-07-23 20:53,-118.5701,40.0684,1192.43,100.00,50.00,18.71,170.00,8.00,0.00,30.06,1012.90,10.00,M,CLR,M,M,M,M,M,M,M,M,M,M,M,M,M,M,97.00,KLOL 232053Z AUTO 17008KT 10SM CLR 38/10 A3006 RMK AO2 SLP129 T03780100 58014,M
NFL,2024-07-23 20:54,-118.7010,39.4166,1199.00,100.00,46.00,16.10,290.00,6.00,0.00,30.07,1015.20,10.00,M,SCT,SCT,M,M,8000.00,20000.00,M,M,M,M,M,M,M,M,M,96.16,KNFL 232054Z 29006KT 10SM SCT080 SCT200 38/08 A3007 RMK AO2 SLP152 CB DSNT E-S-W T03780078 58011,M
BVU,2024-07-23 20:55,-114.8611,35.9475,671.00,107.60,50.00,14.92,M,4.00,0.00,29.89,M,10.00,M,CLR,M,M,M,M,M,M,M,M,M,M,M,M,M,M,104.80,KBVU 232055Z AUTO VRB04KT 10SM CLR 42/10 A2989 RMK AO2,M
CXP,2024-07-23 20:55,-119.7326,39.1923,1431.00,98.60,44.60,15.93,280.00,10.00,0.00,30.15,M,10.00,19.00,CLR,M,M,M,M,M,M,M,M,M,M,M,M,M,M,94.55,KCXP 232055Z AUTO 28010G19KT 240V300 10SM CLR 37/07 A3015 RMK AO2,M
RTS,2024-07-23 20:55,-119.8764,39.6682,1539.00,91.40,46.40,21.29,340.00,11.00,0.00,30.18,M,10.00,M,FEW,M,M,M,10000.00,M,M,M,M,M,M,M,M,M,M,87.86,KRTS 232055Z AUTO 34011KT 300V020 10SM FEW100 33/08 A3018 RMK AO2,M
05U,2024-07-23 20:55,-116.0051,39.6042,1811.23,93.20,42.80,17.55,M,6.00,0.00,30.26,M,10.00,13.00,CLR,M,M,M,M,M,M,M,M,M,M,M,M,M,M,89.17,K05U 232055Z AUTO VRB06G13KT 10SM CLR 34/06 A3026 RMK A01,M
MEV,2024-07-23 20:55,-119.7500,38.9963,1441.42,96.80,46.40,18.02,330.00,7.00,0.00,30.14,M,10.00,M,CLR,M,M,M,M,M,M,M,M,M,M,M,M,M,M,93.05,KMEV 232055Z AUTO 33007KT 270V360 10SM CLR 36/08 A3014 RMK AO2,M
BAM,2024-07-23 20:55,-116.8743,40.5990,1382.36,98.60,46.40,17.05,350.00,8.00,0.00,30.13,M,10.00,M,CLR,M,M,M,M,M,M,M,M,M,M,M,M,M,M,94.84,KBAM 232055Z AUTO 35008KT 10SM CLR 37/08 A3013 RMK AO1,M
HTH,2024-07-23 20:55,-118.6315,38.5448,1282.89,98.60,41.00,13.87,340.00,11.00,0.00,30.09,M,10.00,M,CLR,M,M,M,M,M,M,M,M,M,M,M,M,M,M,94.09,KHTH 232055Z AUTO 34011KT 10SM CLR 37/05 A3009 RMK A01,M
10U,2024-07-23 20:55,-116.1876,41.9532,1637.00,95.00,41.00,15.49,M,3.00,0.00,30.19,M,10.00,M,BKN,M,M,M,11000.00,M,M,M,M,M,M,M,M,M,M,90.70,K10U 232055Z AUTO VRB03KT 10SM BKN110 35/05 A3019 RMK AO2,M
TMT,2024-07-23 20:55,-117.1971,39.4643,1749.34,91.00,46.00,21.24,0.00,0.00,0.00,30.24,M,10.00,M,CLR,M,M,M,M,M,M,M,M,M,M,M,M,M,M,87.45,KTMT 232055Z AUTO 00000KT 10SM CLR 33/08 A3024 RMK AO2 T03270078,M
RNO,2024-07-23 20:55,-119.7711,39.4839,1341.00,100.00,46.00,16.10,180.00,10.00,0.00,30.11,1011.90,10.00,18.00,SCT,SCT,M,M,10000.00,24000.00,M,M,M,M,M,M,28.00,280.00,2024-07-23 20:12,96.16,KRNO 232055Z COR 18010G18KT 10SM SCT100CB SCT240 38/08 A3011 RMK AO2 PK WND 28028/2012 SLP119 CB N MOV NE T03780078 58013,M
INS,2024-07-23 20:55,-115.6733,36.5872,955.00,104.40,43.70,12.93,140.00,6.00,0.00,29.97,1008.40,10.00,14.00,CLR,M,M,M,M,M,M,M,M,M,M,M,M,M,M,100.02,KINS 232055Z AUTO 14006G14KT 10SM CLR 40/07 A2997 RMK AO2 SLP084 T04020065 57016 $,M
LSV,2024-07-23 20:55,-115.0343,36.2362,570.00,109.00,42.80,10.91,180.00,9.00,0.00,29.85,1007.20,10.00,M,CLR,M,M,M,M,M,M,M,M,M,M,M,M,M,M,103.89,KLSV 232055Z AUTO 18009KT 10SM CLR 43/06 A2985 RMK AO2 SLP072 T04280060 57016 $,M
EKO,2024-07-23 20:56,-115.7860,40.8242,1367.00,97.00,42.00,15.14,M,3.00,0.00,30.16,1013.60,10.00,M,CLR,M,M,M,M,M,M,M,M,M,M,M,M,M,M,92.68,KEKO 232056Z AUTO VRB03KT 10SM CLR 36/06 A3016 RMK AO2 SLP136 T03610056 58012,M
WMC,2024-07-23 20:56,-117.8072,40.9019,1315.00,101.00,45.00,15.04,M,5.00,0.00,30.10,1012.70,10.00,M,CLR,M,M,M,M,M,M,M,M,M,M,M,M,M,M,96.97,KWMC 232056Z AUTO VRB05KT 10SM CLR 38/07 A3010 RMK AO2 SLP127 T03830072 58011,M
HND,2024-07-23 20:56,-115.1344,35.9729,742.79,107.00,54.00,17.60,350.00,9.00,0.00,29.95,1011.90,10.00,M,CLR,M,M,M,M,M,M,M,M,M,M,M,M,M,M,105.66,KHND 232056Z 35009KT 10SM CLR 42/12 A2995 RMK AO2 SLP119 T04170122 58016,M
TPH,2024-07-23 20:56,-117.0904,38.0505,1654.00,93.00,46.00,19.95,M,M,0.00,30.19,1013.20,10.00,M,CLR,M,M,M,M,M,M,M,M,M,M,M,M,M,M,89.31,KTPH 232056Z AUTO 10SM CLR 34/08 A3019 RMK AO2 SLP132 T03390078 58013,M
LAS,2024-07-23 20:56,-115.1634,36.0719,663.00,107.00,51.00,15.76,250.00,3.00,0.00,29.92,1006.10,10.00,M,FEW,SCT,M,M,11000.00,25000.00,M,M,M,M,M,M,M,M,M,104.53,KLAS 232056Z 25003KT 10SM FEW110 SCT250 42/11 A2992 RMK AO2 SLP061 CB DSNT S AND NW 60000 T04170106 56013 $,M
05U,2024-07-23 21:10,-116.0051,39.6042,1811.23,93.20,42.80,17.55,10.00,9.00,0.00,30.25,M,10.00,16.00,CLR,M,M,M,M,M,M,M,M,M,M,M,M,M,M,89.17,K05U 232110Z AUTO 01009G16KT 10SM CLR 34/06 A3025 RMK A01,M
MEV,2024-07-23 21:10,-119.7500,38.9963,1441.42,96.80,48.20,19.28,290.00,9.00,0.00,30.14,M,10.00,M,CLR,M,M,M,M,M,M,M,M,M,M,M,M,M,M,93.36,KMEV 232110Z AUTO 29009KT 10SM CLR 36/09 A3014 RMK AO2,M
BVU,2024-07-23 21:15,-114.8611,35.9475,671.00,107.60,50.00,14.92,M,5.00,0.00,29.89,M,10.00,11.00,CLR,M,M,M,M,M,M,M,M,M,M,M,M,M,M,104.80,KBVU 232115Z AUTO VRB05G11KT 10SM CLR 42/10 A2989 RMK AO2,M
CXP,2024-07-23 21:15,-119.7326,39.1923,1431.00,98.60,46.40,17.05,290.00,13.00,0.00,30.15,M,10.00,22.00,CLR,M,M,M,M,M,M,M,M,M,M,M,M,M,M,94.84,KCXP 232115Z AUTO 29013G22KT 10SM CLR 37/08 A3015 RMK AO2,M
RTS,2024-07-23 21:15,-119.8764,39.6682,1539.00,95.00,46.40,19.04,300.00,9.00,0.00,30.18,M,10.00,M,FEW,M,M,M,10000.00,M,M,M,M,M,M,M,M,M,M,91.29,KRTS 232115Z AUTO 30009KT 10SM FEW100 35/08 A3018 RMK AO2,M
BAM,2024-07-23 21:15,-116.8743,40.5990,1382.36,98.60,46.40,17.05,350.00,6.00,0.00,30.13,M,10.00,M,CLR,M,M,M,M,M,M,M,M,M,M,M,M,M,M,94.84,KBAM 232115Z AUTO 35006KT 10SM CLR 37/08 A3013 RMK AO1,M
HTH,2024-07-23 21:15,-118.6315,38.5448,1282.89,98.60,41.00,13.87,310.00,11.00,0.00,30.09,M,10.00,M,CLR,M,M,M,M,M,M,M,M,M,M,M,M,M,M,94.09,KHTH 232115Z AUTO 31011KT 10SM CLR 37/05 A3009 RMK A01,M
10U,2024-07-23 21:15,-116.1876,41.9532,1637.00,95.00,41.00,15.49,30.00,8.00,0.00,30.19,M,10.00,M,FEW,M,M,M,11000.00,M,M,M,M,M,M,M,M,M,M,90.70,K10U 232115Z AUTO 03008KT 360V060 10SM FEW110 35/05 A3019 RMK AO2,M
TMT,2024-07-23 21:15,-117.1971,39.4643,1749.34,90.70,46.20,21.60,270.00,3.00,0.00,30.24,M,10.00,M,CLR,M,M,M,M,M,M,M,M,M,M,M,M,M,M,87.20,KTMT 232115Z AUTO 27003KT 10SM CLR 33/08 A3024 RMK AO2 T03260079,M
05U,2024-07-23 21:30,-116.0051,39.6042,1811.23,93.20,42.80,17.55,0.00,0.00,0.00,30.25,M,10.00,10.00,CLR,M,M,M,M,M,M,M,M,M,M,M,M,M,M,89.17,K05U 232130Z AUTO 00000G10KT 10SM CLR 34/06 A3025 RMK A01,M
BVU,2024-07-23 21:35,-114.8611,35.9475,671.00,107.60,48.20,13.95,0.00,0.00,0.00,29.88,M,10.00,11.00,FEW,M,M,M,12000.00,M,M,M,M,M,M,M,M,M,M,104.23,KBVU 232135Z AUTO 00000G11KT 10SM FEW120 42/09 A2988 RMK AO2,M
CXP,2024-07-23 21:35,-119.7326,39.1923,1431.00,96.80,46.40,18.02,300.00,13.00,0.00,30.15,M,10.00,21.00,CLR,M,M,M,M,M,M,M,M,M,M,M,M,M,M,93.05,KCXP 232135Z AUTO 30013G21KT 10SM CLR 36/08 A3015 RMK AO2,M
RTS,2024-07-23 21:35,-119.8764,39.6682,1539.00,95.00,46.40,19.04,M,4.00,0.00,30.18,M,10.00,13.00,CLR,M,M,M,M,M,M,M,M,M,M,M,M,M,M,91.29,KRTS 232135Z AUTO VRB04G13KT 10SM CLR 35/08 A3018 RMK AO2,M
MEV,2024-07-23 21:35,-119.7500,38.9963,1441.42,98.60,46.40,17.05,280.00,10.00,0.00,30.13,M,10.00,16.00,CLR,M,M,M,M,M,M,M,M,M,M,M,M,M,M,94.84,KMEV 232135Z AUTO 28010G16KT 240V310 10SM CLR 37/08 A3013 RMK AO2,M
HTH,2024-07-23 21:35,-118.6315,38.5448,1282.89,98.60,42.80,14.87,320.00,7.00,0.00,30.09,M,10.00,16.00,CLR,M,M,M,M,M,M,M,M,M,M,M,M,M,M,94.30,KHTH 232135Z AUTO 32007G16KT 10SM CLR 37/06 A3009 RMK A01,M
10U,2024-07-23 21:35,-116.1876,41.9532,1637.00,95.00,41.00,15.49,20.00,9.00,0.00,30.19,M,10.00,M,SCT,M,M,M,12000.00,M,M,M,M,M,M,M,M,M,M,90.70,K10U 232135Z AUTO 02009KT 10SM SCT120 35/05 A3019 RMK AO2,M
BAM,2024-07-23 21:35,-116.8743,40.5990,1382.36,98.60,48.20,18.25,50.00,3.00,0.00,30.12,M,10.00,M,CLR,M,M,M,M,M,M,M,M,M,M,M,M,M,M,95.17,KBAM 232135Z AUTO 05003KT 10SM CLR 37/09 A3012 RMK AO1,M
TMT,2024-07-23 21:35,-117.1971,39.4643,1749.34,89.40,45.30,21.75,0.00,0.00,0.00,30.23,M,10.00,M,CLR,M,M,M,M,M,M,M,M,M,M,M,M,M,M,85.95,KTMT 232135Z AUTO 00000KT 10SM CLR 32/07 A3023 RMK AO2 T03190074,M
INS,2024-07-23 21:41,-115.6733,36.5872,955.00,105.80,42.80,11.98,200.00,11.00,0.00,29.96,1007.90,10.00,M,FEW,M,M,M,14000.00,M,M,M,M,M,M,M,M,M,M,101.02,KINS 232141Z AUTO 20011KT 10SM FEW140 41/06 A2996 RMK AO2 WSHFT 39 SLP079 $,M
LAS,2024-07-23 21:47,-115.1634,36.0719,663.00,108.00,51.00,15.30,0.00,0.00,0.00,29.90,M,10.00,M,FEW,SCT,M,M,11000.00,25000.00,M,M,TS,M,M,M,M,M,M,105.54,KLAS 232147Z COR 00000KT 10SM TS FEW110CB SCT250 42/11 A2990 RMK AO2 LTG DSNT S TSB47 OCNL LTGICCCCG S TS S MOV E CB DSNT E AND S-W T04220106 $,M
HND,2024-07-23 21:48,-115.1344,35.9729,742.79,109.40,55.40,17.27,300.00,7.00,0.00,29.94,M,10.00,M,CLR,M,M,M,M,M,M,M,TS,M,M,M,M,M,M,108.82,KHND 232148Z 30007KT 10SM TS CLR 43/13 A2994 RMK AO2 TSB42,M
05U,2024-07-23 21:50,-116.0051,39.6042,1811.23,95.00,44.60,17.78,30.00,11.00,0.00,30.25,M,10.00,18.00,CLR,M,M,M,M,M,M,M,M,M,M,M,M,M,M,91.06,K05U 232150Z AUTO 03011G18KT 10SM CLR 35/07 A3025 RMK A01,M
P68,2024-07-23 21:53,-116.0056,39.6014,1993.00,94.00,45.00,18.62,10.00,13.00,0.00,30.22,1013.60,M,20.00,M,M,M,M,M,M,M,M,M,M,M,M,M,M,M,90.15,KP68 232153Z AUTO 01013G20KT 34/07 A3022 RMK AO1 SLP136 T03440072,M
DRA,2024-07-23 21:53,-116.0278,36.6206,1009.00,105.00,49.00,15.52,260.00,9.00,0.00,29.99,1009.20,10.00,15.00,CLR,M,M,M,M,M,M,M,M,M,M,M,M,M,M,101.87,KDRA 232153Z AUTO 26009G15KT 210V290 10SM CLR 41/09 A2999 RMK AO2 SLP092 T04060094,M
ELY,2024-07-23 21:53,-114.8453,39.2950,1909.00,88.00,48.00,25.17,190.00,19.00,0.00,30.27,1013.90,10.00,29.00,FEW,M,M,M,12000.00,M,M,M,M,M,M,M,29.00,180.00,2024-07-23 21:50,85.02,KELY 232153Z AUTO 19019G29KT 10SM FEW120 31/09 A3027 RMK AO2 PK WND 18029/2150 SLP139 T03110089,M
VGT,2024-07-23 21:53,-115.1933,36.2111,667.00,110.00,51.00,14.44,250.00,9.00,0.00,29.88,1009.90,10.00,16.00,CLR,M,M,M,M,M,M,M,M,M,M,M,M,M,M,107.54,KVGT 232153Z 25009G16KT 10SM CLR 43/11 A2988 RMK AO2 LTG DSNT S SLP099 T04330106,M
LOL,2024-07-23 21:53,-118.5701,40.0684,1192.43,100.00,48.00,17.36,140.00,10.00,0.00,30.04,1011.90,10.00,M,CLR,M,M,M,M,M,M,M,M,M,M,M,M,M,M,96.55,KLOL 232153Z AUTO 14010KT 10SM CLR 38/09 A3004 RMK AO2 SLP119 T03780089,M
BVU,2024-07-23 21:55,-114.8611,35.9475,671.00,107.60,50.00,14.92,M,4.00,0.00,29.87,M,10.00,M,CLR,M,M,M,M,M,M,M,M,M,M,M,M,M,M,104.80,KBVU 232155Z AUTO VRB04KT 10SM CLR 42/10 A2987 RMK AO2,M
CXP,2024-07-23 21:55,-119.7326,39.1923,1431.00,98.60,46.40,17.05,290.00,13.00,0.00,30.15,M,10.00,21.00,CLR,M,M,M,M,M,M,M,M,M,M,M,M,M,M,94.84,KCXP 232155Z AUTO 29013G21KT 10SM CLR 37/08 A3015 RMK AO2,M
RNO,2024-07-23 21:55,-119.7711,39.4839,1341.00,101.00,45.00,15.04,290.00,12.00,0.00,30.10,1011.70,10.00,19.00,SCT,SCT,M,M,11000.00,24000.00,M,M,M,M,M,M,M,M,M,96.97,KRNO 232155Z 29012G19KT 250V320 10SM SCT110CB SCT240 38/07 A3010 RMK AO2 SLP117 CB NE MOV NE T03830072,M
RTS,2024-07-23 21:55,-119.8764,39.6682,1539.00,93.20,46.40,20.13,70.00,14.00,0.00,30.17,M,10.00,M,CLR,M,M,M,M,M,M,M,M,M,M,M,M,M,M,89.55,KRTS 232155Z AUTO 07014KT 10SM CLR 34/08 A3017 RMK AO2,M
MEV,2024-07-23 21:55,-119.7500,38.9963,1441.42,98.60,48.20,18.25,300.00,13.00,0.00,30.13,M,10.00,M,CLR,M,M,M,M,M,M,M,M,M,M,M,M,M,M,95.17,KMEV 232155Z AUTO 30013KT 10SM CLR 37/09 A3013 RMK AO2,M
HTH,2024-07-23 21:55,-118.6315,38.5448,1282.89,98.60,42.80,14.87,330.00,9.00,0.00,30.08,M,10.00,14.00,CLR,M,M,M,M,M,M,M,M,M,M,M,M,M,M,94.30,KHTH 232155Z AUTO 33009G14KT 10SM CLR 37/06 A3008 RMK A01,M
10U,2024-07-23 21:55,-116.1876,41.9532,1637.00,91.40,41.00,17.32,360.00,7.00,0.00,30.18,M,10.00,M,FEW,M,M,M,12000.00,M,M,M,M,M,M,M,M,M,M,87.40,K10U 232155Z AUTO 36007KT 10SM FEW120 33/05 A3018 RMK AO2,M
BAM,2024-07-23 21:55,-116.8743,40.5990,1382.36,98.60,46.40,17.05,360.00,4.00,0.00,30.11,M,10.00,M,CLR,M,M,M,M,M,M,M,M,M,M,M,M,M,M,94.84,KBAM 232155Z AUTO 36004KT 10SM CLR 37/08 A3011 RMK AO1,M
TMT,2024-07-23 21:55,-117.1971,39.4643,1749.34,89.80,45.30,21.47,310.00,4.00,0.00,30.22,M,10.00,M,CLR,M,M,M,M,M,M,M,M,M,M,M,M,M,M,86.30,KTMT 232155Z AUTO 31004KT 10SM CLR 32/07 A3022 RMK AO2 T03210074,M
INS,2024-07-23 21:55,-115.6733,36.5872,955.00,104.70,42.00,12.01,0.00,0.00,0.00,29.96,1008.00,10.00,M,BKN,M,M,M,13000.00,M,M,M,M,M,M,M,M,M,M,99.83,KINS 232155Z AUTO 00000KT 10SM BKN130 40/06 A2996 RMK AO2 SLP080 T04040055 $,M
LSV,2024-07-23 21:55,-115.0343,36.2362,570.00,109.00,42.80,10.91,200.00,4.00,0.00,29.82,1006.30,10.00,M,CLR,M,M,M,M,M,M,M,M,M,M,M,M,M,M,103.89,KLSV 232155Z AUTO 20004KT 10SM CLR 43/06 A2982 RMK AO2 SLP063 T04270060 $,M
EKO,2024-07-23 21:56,-115.7860,40.8242,1367.00,100.00,43.00,14.36,M,3.00,0.00,30.14,1012.90,10.00,M,CLR,M,M,M,M,M,M,M,M,M,M,M,M,M,M,95.68,KEKO 232156Z AUTO VRB03KT 10SM CLR 38/06 A3014 RMK AO2 SLP129 T03780061,M
WMC,2024-07-23 21:56,-117.8072,40.9019,1315.00,98.00,45.00,16.47,220.00,5.00,0.00,30.08,1012.50,10.00,M,CLR,M,M,M,M,M,M,M,M,M,M,M,M,M,M,94.02,KWMC 232156Z AUTO 22005KT 10SM CLR 37/07 A3008 RMK AO2 SLP125 T03670072,M
HND,2024-07-23 21:56,-115.1344,35.9729,742.79,108.00,55.00,17.73,190.00,19.00,0.00,29.92,1010.70,10.00,28.00,CLR,M,M,M,M,M,M,M,TS,M,M,M,28.00,200.00,2024-07-23 21:56,107.16,KHND 232156Z 19019G28KT 10SM TS CLR 42/13 A2992 RMK AO2 PK WND 20028/2156 TSB42 SLP107 T04220128,M
TPH,2024-07-23 21:56,-117.0904,38.0505,1654.00,95.00,45.00,18.06,M,M,0.00,30.17,1012.50,10.00,M,SCT,M,M,M,11000.00,M,M,M,M,M,M,M,M,M,M,91.10,KTPH 232156Z AUTO 10SM SCT110 35/07 A3017 RMK AO2 LTG DSNT NE SLP125 T03500072,M
LAS,2024-07-23 21:56,-115.1634,36.0719,663.00,108.00,51.00,15.30,M,4.00,0.00,29.89,1005.00,10.00,M,FEW,SCT,M,M,11000.00,25000.00,M,M,TS,M,M,M,M,M,M,105.54,KLAS 232156Z VRB04KT 10SM TS FEW110CB SCT250 42/11 A2989 RMK AO2 LTG DSNT S TSB47 PRESFR SLP050 OCNL LTGICCCCG S TS S MOV E CB DSNT E AND S-W T04220106 $,M
NFL,2024-07-23 21:56,-118.7010,39.4166,1199.00,103.00,48.00,15.87,M,5.00,0.00,30.05,1014.60,10.00,M,SCT,SCT,M,M,8000.00,18000.00,M,M,M,M,M,M,M,M,M,99.59,KNFL 232156Z VRB05KT 10SM SCT080 SCT180 39/09 A3005 RMK SLP146 CB DSNT SW AND NW TCU DSNT E-S-W T03940089,M
05U,2024-07-23 22:10,-116.0051,39.6042,1811.23,91.40,44.60,19.89,360.00,13.00,0.00,30.25,M,10.00,M,CLR,M,M,M,M,M,M,M,M,M,M,M,M,M,M,87.68,K05U 232210Z AUTO 36013KT 10SM CLR 33/07 A3025 RMK A01,M
HND,2024-07-23 22:13,-115.1344,35.9729,742.79,109.40,55.40,17.27,220.00,19.00,0.00,29.93,M,10.00,22.00,CLR,M,M,M,M,M,M,M,TS,M,M,M,M,M,M,108.82,KHND 232213Z 22019G22KT 10SM TS CLR 43/13 A2993 RMK AO2 WSHFT 2153,M
BVU,2024-07-23 22:15,-114.8611,35.9475,671.00,109.40,50.00,14.16,190.00,9.00,0.00,29.87,M,10.00,23.00,FEW,M,M,M,12000.00,M,M,M,M,M,M,M,M,M,M,106.58,KBVU 232215Z AUTO 19009G23KT 10SM FEW120 43/10 A2987 RMK AO2 LTG DSNT SW AND W,M
CXP,2024-07-23 22:15,-119.7326,39.1923,1431.00,96.80,46.40,18.02,290.00,12.00,0.00,30.15,M,10.00,19.00,CLR,M,M,M,M,M,M,M,M,M,M,M,M,M,M,93.05,KCXP 232215Z AUTO 29012G19KT 10SM CLR 36/08 A3015 RMK AO2,M
RTS,2024-07-23 22:15,-119.8764,39.6682,1539.00,89.60,50.00,25.79,80.00,16.00,0.00,30.17,M,10.00,22.00,SCT,M,M,M,9500.00,M,M,M,M,M,M,M,M,M,M,86.70,KRTS 232215Z AUTO 08016G22KT 10SM SCT095 32/10 A3017 RMK AO2,M
MEV,2024-07-23 22:15,-119.7500,38.9963,1441.42,96.80,46.40,18.02,310.00,8.00,0.00,30.13,M,10.00,19.00,CLR,M,M,M,M,M,M,M,M,M,M,M,M,M,M,93.05,KMEV 232215Z AUTO 31008G19KT 10SM CLR 36/08 A3013 RMK AO2,M
HTH,2024-07-23 22:15,-118.6315,38.5448,1282.89,96.80,44.60,16.83,350.00,9.00,0.00,30.08,M,10.00,M,CLR,M,M,M,M,M,M,M,M,M,M,M,M,M,M,92.79,KHTH 232215Z AUTO 35009KT 10SM CLR 36/07 A3008 RMK A01,M
10U,2024-07-23 22:15,-116.1876,41.9532,1637.00,93.20,41.00,16.37,50.00,8.00,0.00,30.18,M,10.00,M,CLR,M,M,M,M,M,M,M,M,M,M,M,M,M,M,89.03,K10U 232215Z AUTO 05008KT 020V080 10SM CLR 34/05 A3018 RMK AO2,M
BAM,2024-07-23 22:15,-116.8743,40.5990,1382.36,100.40,46.40,16.15,340.00,8.00,0.00,30.11,M,10.00,15.00,CLR,M,M,M,M,M,M,M,M,M,M,M,M,M,M,96.63,KBAM 232215Z AUTO 34008G15KT 10SM CLR 38/08 A3011 RMK AO1,M
TMT,2024-07-23 22:15,-117.1971,39.4643,1749.34,90.50,44.80,20.61,280.00,5.00,0.00,30.22,M,10.00,M,CLR,M,M,M,M,M,M,M,M,M,M,M,M,M,M,86.88,KTMT 232215Z AUTO 28005KT 10SM CLR 33/07 A3022 RMK AO2 T03250071,M
ELY,2024-07-23 22:18,-114.8453,39.2950,1909.00,83.00,47.00,28.45,160.00,12.00,0.00,30.27,M,10.00,22.00,BKN,M,M,M,10000.00,M,M,M,VCTS,M,M,M,27.00,170.00,2024-07-23 21:58,81.09,KELY 232218Z AUTO 16012G22KT 10SM VCTS BKN100 28/08 A3027 RMK AO2 PK WND 17027/2158 LTG DSNT NE T02830083,M
05U,2024-07-23 22:30,-116.0051,39.6042,1811.23,89.60,42.80,19.64,340.00,10.00,0.00,30.25,M,10.00,M,CLR,M,M,M,M,M,M,M,M,M,M,M,M,M,M,85.93,K05U 232230Z AUTO 34010KT 10SM CLR 32/06 A3025 RMK A01,M
ELY,2024-07-23 22:33,-114.8453,39.2950,1909.00,84.00,47.00,27.55,180.00,13.00,0.00,30.27,M,10.00,M,FEW,OVC,M,M,4400.00,11000.00,M,M,M,M,M,M,27.00,170.00,2024-07-23 21:58,81.78,KELY 232233Z AUTO 18013KT 10SM FEW044 OVC110 29/08 A3027 RMK AO2 PK WND 17027/2158 LTG DSNT NE AND E T02890083,M
HND,2024-07-23 22:33,-115.1344,35.9729,742.79,105.80,57.20,20.48,220.00,15.00,0.00,29.94,M,10.00,24.00,CLR,M,M,M,M,M,M,M,M,M,M,M,M,M,M,105.80,KHND 232233Z 22015G24KT 10SM CLR 41/14 A2994 RMK AO2 WSHFT 2153 TSE27,M
BVU,2024-07-23 22:35,-114.8611,35.9475,671.00,107.60,48.20,13.95,260.00,11.00,0.00,29.87,M,10.00,16.00,FEW,M,M,M,12000.00,M,M,M,M,M,M,M,M,M,M,104.23,KBVU 232235Z AUTO 26011G16KT 10SM FEW120 42/09 A2987 RMK AO2,M
CXP,2024-07-23 22:35,-119.7326,39.1923,1431.00,96.80,46.40,18.02,270.00,13.00,0.00,30.14,M,10.00,23.00,CLR,M,M,M,M,M,M,M,M,M,M,M,M,M,M,93.05,KCXP 232235Z AUTO 27013G23KT 10SM CLR 36/08 A3014 RMK AO2 LTG DSNT SE AND S,M
RTS,2024-07-23 22:35,-119.8764,39.6682,1539.00,86.00,50.00,28.90,30.00,17.00,0.00,30.17,M,10.00,29.00,SCT,SCT,M,M,10000.00,12000.00,M,M,M,M,M,M,M,M,M,83.62,KRTS 232235Z AUTO 03017G29KT 10SM SCT100 SCT120 30/10 A3017 RMK AO2,M
MEV,2024-07-23 22:35,-119.7500,38.9963,1441.42,98.60,44.60,15.93,270.00,13.00,0.00,30.12,M,10.00,21.00,CLR,M,M,M,M,M,M,M,M,M,M,M,M,M,M,94.55,KMEV 232235Z AUTO 27013G21KT 10SM CLR 37/07 A3012 RMK AO2,M
HTH,2024-07-23 22:35,-118.6315,38.5448,1282.89,96.80,42.80,15.71,330.00,7.00,0.00,30.08,M,10.00,14.00,CLR,M,M,M,M,M,M,M,M,M,M,M,M,M,M,92.57,KHTH 232235Z AUTO 33007G14KT 10SM CLR 36/06 A3008 RMK A01,M
10U,2024-07-23 22:35,-116.1876,41.9532,1637.00,95.00,39.20,14.44,M,4.00,0.00,30.17,M,10.00,10.00,CLR,M,M,M,M,M,M,M,M,M,M,M,M,M,M,90.57,K10U 232235Z AUTO VRB04G10KT 10SM CLR 35/04 A3017 RMK AO2,M
BAM,2024-07-23 22:35,-116.8743,40.5990,1382.36,100.40,44.60,15.08,20.00,6.00,0.00,30.10,M,10.00,M,CLR,M,M,M,M,M,M,M,M,M,M,M,M,M,M,96.31,KBAM 232235Z AUTO 02006KT 10SM CLR 38/07 A3010 RMK AO1,M
TMT,2024-07-23 22:35,-117.1971,39.4643,1749.34,92.00,45.70,20.35,170.00,5.00,0.00,30.22,M,10.00,M,CLR,M,M,M,M,M,M,M,M,M,M,M,M,M,M,88.34,KTMT 232235Z AUTO 17005KT 10SM CLR 33/08 A3022 RMK AO2 T03340076,M
INS,2024-07-23 22:49,-115.6733,36.5872,955.00,102.20,48.20,16.37,170.00,13.00,0.00,29.96,1008.00,10.00,M,FEW,BKN,M,M,12000.00,18000.00,M,M,M,M,M,M,M,M,M,98.83,KINS 232249Z AUTO 17013KT 10SM FEW120 BKN180 39/09 A2996 RMK AO2 WSHFT 38 SLP080 $,M
05U,2024-07-23 22:50,-116.0051,39.6042,1811.23,89.60,42.80,19.64,0.00,0.00,0.00,30.25,M,10.00,M,CLR,M,M,M,M,M,M,M,M,M,M,M,M,M,M,85.93,K05U 232250Z AUTO 00000KT 10SM CLR 32/06 A3025 RMK A01,M
P68,2024-07-23 22:53,-116.0056,39.6014,1993.00,90.00,42.00,18.81,310.00,5.00,0.00,30.22,1014.10,M,M,M,M,M,M,M,M,M,M,M,M,M,M,M,M,M,86.22,KP68 232253Z AUTO 31005KT 32/06 A3022 RMK AO1 SLP141 T03220056,M
DRA,2024-07-23 22:53,-116.0278,36.6206,1009.00,106.00,50.00,15.64,250.00,13.00,0.00,29.97,1008.80,10.00,25.00,FEW,M,M,M,11000.00,M,M,M,M,M,M,M,M,M,M,103.18,KDRA 232253Z AUTO 25013G25KT 10SM FEW110 41/10 A2997 RMK AO2 SLP088 T04110100,M
ELY,2024-07-23 22:53,-114.8453,39.2950,1909.00,88.00,47.00,24.24,160.00,11.00,0.00,30.26,1013.70,10.00,M,FEW,BKN,OVC,M,4800.00,8000.00,11000.00,M,M,M,M,M,27.00,170.00,2024-07-23 21:58,84.91,KELY 232253Z AUTO 16011KT 10SM FEW048 BKN080 OVC110 31/08 A3026 RMK AO2 PK WND 17027/2158 SLP137 T03110083 $,M
VGT,2024-07-23 22:53,-115.1933,36.2111,667.00,110.00,53.00,15.54,200.00,17.00,0.00,29.87,1009.50,10.00,24.00,CLR,M,M,M,M,M,M,M,M,M,M,M,M,M,M,108.35,KVGT 232253Z 20017G24KT 10SM CLR 43/12 A2987 RMK AO2 SLP095 T04330117,M
LOL,2024-07-23 22:53,-118.5701,40.0684,1192.43,100.00,47.00,16.72,M,M,0.00,30.03,1011.60,10.00,M,CLR,M,M,M,M,M,M,M,M,M,M,M,M,M,M,96.35,KLOL 232253Z AUTO 10SM CLR 38/08 A3003 RMK AO2 SLP116 T03780083,M
NFL,2024-07-23 22:54,-118.7010,39.4166,1199.00,102.00,46.00,15.16,M,6.00,0.00,30.03,1013.90,10.00,M,SCT,SCT,BKN,M,8000.00,12000.00,18000.00,M,M,M,M,M,M,M,M,98.15,KNFL 232254Z COR VRB06KT 10SM SCT080 SCT120 BKN180 39/08 A3003 RMK AO2 SLP139 CB DSNT SW-NW TCU DSNT ALQDS T03890078,M
BVU,2024-07-23 22:55,-114.8611,35.9475,671.00,107.60,50.00,14.92,230.00,13.00,0.00,29.87,M,10.00,20.00,CLR,M,M,M,M,M,M,M,M,M,M,M,M,M,M,104.80,KBVU 232255Z AUTO 23013G20KT 10SM CLR 42/10 A2987 RMK AO2,M
CXP,2024-07-23 22:55,-119.7326,39.1923,1431.00,96.80,44.60,16.83,280.00,11.00,0.00,30.14,M,10.00,17.00,CLR,M,M,M,M,M,M,M,M,M,M,M,M,M,M,92.79,KCXP 232255Z AUTO 28011G17KT 240V300 10SM CLR 36/07 A3014 RMK AO2,M
RNO,2024-07-23 22:55,-119.7711,39.4839,1341.00,102.00,42.00,13.01,290.00,13.00,0.00,30.08,1011.30,10.00,22.00,SCT,SCT,M,M,11000.00,17000.00,M,M,M,M,M,M,27.00,330.00,2024-07-23 22:35,97.45,KRNO 232255Z 29013G22KT 10SM SCT110 SCT170 39/06 A3008 RMK AO2 PK WND 33027/2235 SLP113 CB DSNT N MOV NE FU ALF DSNT NW T03890056,M
RTS,2024-07-23 22:55,-119.8764,39.6682,1539.00,87.80,50.00,27.29,20.00,13.00,0.00,30.17,M,10.00,M,BKN,M,M,M,11000.00,M,M,M,M,M,M,M,M,M,M,85.11,KRTS 232255Z AUTO 02013KT 10SM BKN110 31/10 A3017 RMK AO2,M
MEV,2024-07-23 22:55,-119.7500,38.9963,1441.42,98.60,46.40,17.05,300.00,13.00,0.00,30.12,M,10.00,M,CLR,M,M,M,M,M,M,M,M,M,M,M,M,M,M,94.84,KMEV 232255Z AUTO 30013KT 10SM CLR 37/08 A3012 RMK AO2 LTG DSNT SE,M
BAM,2024-07-23 22:55,-116.8743,40.5990,1382.36,100.40,44.60,15.08,350.00,9.00,0.00,30.10,M,10.00,M,CLR,M,M,M,M,M,M,M,M,M,M,M,M,M,M,96.31,KBAM 232255Z AUTO 35009KT 10SM CLR 38/07 A3010 RMK AO1,M
HTH,2024-07-23 22:55,-118.6315,38.5448,1282.89,96.80,42.80,15.71,330.00,7.00,0.00,30.08,M,10.00,M,CLR,M,M,M,M,M,M,M,M,M,M,M,M,M,M,92.57,KHTH 232255Z AUTO 33007KT 10SM CLR 36/06 A3008 RMK A01,M
10U,2024-07-23 22:55,-116.1876,41.9532,1637.00,96.80,39.20,13.66,20.00,7.00,0.00,30.17,M,10.00,M,CLR,M,M,M,M,M,M,M,M,M,M,M,M,M,M,92.23,K10U 232255Z AUTO 02007KT 350V050 10SM CLR 36/04 A3017 RMK AO2,M
TMT,2024-07-23 22:55,-117.1971,39.4643,1749.34,93.20,45.00,19.09,240.00,5.00,0.00,30.21,M,10.00,M,BKN,M,M,M,11000.00,M,M,M,M,M,M,M,M,M,M,89.39,KTMT 232255Z AUTO 24005KT 10SM BKN110 34/07 A3021 RMK AO2 T03400072,M
INS,2024-07-23 22:55,-115.6733,36.5872,955.00,101.70,47.00,15.89,170.00,13.00,0.00,29.95,1007.70,10.00,M,FEW,BKN,M,M,12000.00,18000.00,M,M,M,M,M,M,M,M,M,98.05,KINS 232255Z AUTO 17013KT 10SM FEW120 BKN180 39/08 A2995 RMK AO2 SLP077 T03870083 $,M
LSV,2024-07-23 22:55,-115.0343,36.2362,570.00,110.50,41.50,9.93,220.00,8.00,0.00,29.81,1005.90,10.00,15.00,CLR,M,M,M,M,M,M,M,M,M,M,M,M,M,M,104.90,KLSV 232255Z AUTO 22008G15KT 10SM CLR 44/05 A2981 RMK AO2 SLP059 T04360053 $,M
EKO,2024-07-23 22:56,-115.7860,40.8242,1367.00,100.00,40.00,12.79,30.00,9.00,0.00,30.13,1012.80,10.00,M,CLR,M,M,M,M,M,M,M,M,M,M,M,M,M,M,95.26,KEKO 232256Z AUTO 03009KT 10SM CLR 38/04 A3013 RMK AO2 SLP128 T03780044,M
WMC,2024-07-23 22:56,-117.8072,40.9019,1315.00,102.00,42.00,13.01,M,3.00,0.00,30.06,1011.90,10.00,M,CLR,M,M,M,M,M,M,M,M,M,M,M,M,M,M,97.45,KWMC 232256Z AUTO VRB03KT 10SM CLR 39/06 A3006 RMK AO2 SLP119 T03890056,M
HND,2024-07-23 22:56,-115.1344,35.9729,742.79,104.00,58.00,22.23,210.00,15.00,0.00,29.95,1011.80,10.00,M,CLR,M,M,M,M,M,M,M,M,M,M,M,M,M,M,104.17,KHND 232256Z 21015KT 10SM CLR 40/14 A2995 RMK AO2 WSHFT 2153 TSE27 SLP118 T04000144,M
TPH,2024-07-23 22:56,-117.0904,38.0505,1654.00,96.00,43.00,16.22,M,M,0.00,30.16,1012.10,10.00,M,FEW,M,M,M,11000.00,M,M,M,M,M,M,M,M,M,M,91.83,KTPH 232256Z AUTO 10SM FEW110 36/06 A3016 RMK AO2 LTG DSNT N SLP121 T03560061,M
LAS,2024-07-23 22:56,-115.1634,36.0719,663.00,108.00,55.00,17.73,210.00,11.00,0.00,29.89,1005.00,10.00,27.00,SCT,SCT,M,M,11000.00,22000.00,M,M,M,M,M,M,29.00,190.00,2024-07-23 22:29,107.16,KLAS 232256Z 21011G27KT 10SM SCT110 SCT220 42/13 A2989 RMK AO2 PK WND 19029/2229 TSE55 SLP050 TS DSIPTD CB DSNT E-S-W T04220128 $,M
RTS,2024-07-23 23:00,-119.8764,39.6682,1539.00,86.00,51.80,30.90,10.00,9.00,0.00,30.17,M,10.00,16.00,BKN,M,M,M,11000.00,M,M,M,M,M,M,M,M,M,M,83.87,KRTS 232300Z AUTO 01009G16KT 10SM BKN110 30/11 A3017 RMK AO2,M
BVU,2024-07-23 23:15,-114.8611,35.9475,671.00,109.40,50.00,14.16,230.00,14.00,0.00,29.87,M,10.00,22.00,CLR,M,M,M,M,M,M,M,VCTS,M,M,M,M,M,M,106.58,KBVU 232315Z AUTO 23014G22KT 10SM VCTS CLR 43/10 A2987 RMK AO2 LTG DSNT E AND SE,M
CXP,2024-07-23 23:15,-119.7326,39.1923,1431.00,96.80,42.80,15.71,280.00,9.00,0.00,30.14,M,10.00,16.00,CLR,M,M,M,M,M,M,M,M,M,M,M,M,M,M,92.57,KCXP 232315Z AUTO 28009G16KT 230V300 10SM CLR 36/06 A3014 RMK AO2 LTG DSNT E AND SE,M
05U,2024-07-23 23:15,-116.0051,39.6042,1811.23,91.40,41.00,17.32,320.00,8.00,0.00,30.24,M,10.00,14.00,CLR,M,M,M,M,M,M,M,M,M,M,M,M,M,M,87.40,K05U 232315Z AUTO 32008G14KT 300V360 10SM CLR 33/05 A3024 RMK A01,M
HTH,2024-07-23 23:15,-118.6315,38.5448,1282.89,96.80,44.60,16.83,260.00,5.00,0.00,30.08,M,10.00,M,CLR,M,M,M,M,M,M,M,M,M,M,M,M,M,M,92.79,KHTH 232315Z AUTO 26005KT 10SM CLR 36/07 A3008 RMK A01,M
10U,2024-07-23 23:15,-116.1876,41.9532,1637.00,95.00,37.40,13.46,M,5.00,0.00,30.16,M,10.00,M,CLR,M,M,M,M,M,M,M,M,M,M,M,M,M,M,90.46,K10U 232315Z AUTO VRB05KT 10SM CLR 35/03 A3016 RMK AO2,M
BAM,2024-07-23 23:15,-116.8743,40.5990,1382.36,98.60,44.60,15.93,350.00,7.00,0.00,30.09,M,10.00,M,CLR,M,M,M,M,M,M,M,M,M,M,M,M,M,M,94.55,KBAM 232315Z AUTO 35007KT 320V020 10SM CLR 37/07 A3009 RMK AO1,M
TMT,2024-07-23 23:15,-117.1971,39.4643,1749.34,93.00,45.30,19.43,330.00,11.00,0.00,30.21,M,10.00,M,OVC,M,M,M,11000.00,M,M,M,M,M,M,M,M,M,M,89.23,KTMT 232315Z AUTO 33011KT 10SM OVC110 34/07 A3021 RMK AO2 T03390074,M
MEV,2024-07-23 23:15,-119.7500,38.9963,1441.42,96.80,46.40,18.02,290.00,11.00,0.00,30.12,M,10.00,17.00,CLR,M,M,M,M,M,M,M,M,M,M,M,M,M,M,93.05,KMEV 232315Z AUTO 29011G17KT 10SM CLR 36/08 A3012 RMK AO2 LTG DSNT E AND SE,M
BVU,2024-07-23 23:35,-114.8611,35.9475,671.00,107.60,50.00,14.92,200.00,12.00,0.00,29.87,M,10.00,21.00,CLR,M,M,M,M,M,M,M,M,M,M,M,M,M,M,104.80,KBVU 232335Z AUTO 20012G21KT 10SM CLR 42/10 A2987 RMK AO2,M
CXP,2024-07-23 23:35,-119.7326,39.1923,1431.00,96.80,44.60,16.83,280.00,8.00,0.00,30.14,M,10.00,15.00,CLR,M,M,M,M,M,M,M,M,M,M,M,M,M,M,92.79,KCXP 232335Z AUTO 28008G15KT 240V300 10SM CLR 36/07 A3014 RMK AO2 LTG DSNT E AND S,M
RTS,2024-07-23 23:35,-119.8764,39.6682,1539.00,91.40,51.80,26.05,340.00,9.00,0.00,30.17,M,10.00,M,FEW,M,M,M,11000.00,M,M,M,M,M,M,M,M,M,M,88.69,KRTS 232335Z AUTO 34009KT 10SM FEW110 33/11 A3017 RMK AO2,M
05U,2024-07-23 23:35,-116.0051,39.6042,1811.23,93.20,41.00,16.37,300.00,8.00,0.00,30.23,M,10.00,M,CLR,M,M,M,M,M,M,M,M,M,M,M,M,M,M,89.03,K05U 232335Z AUTO 30008KT 10SM CLR 34/05 A3023 RMK A01,M
HTH,2024-07-23 23:35,-118.6315,38.5448,1282.89,93.20,44.60,18.80,240.00,19.00,0.00,30.08,M,10.00,26.00,CLR,M,M,M,M,M,M,M,M,M,M,M,M,M,M,89.34,KHTH 232335Z AUTO 24019G26KT 10SM CLR 34/07 A3008 RMK A01,M
10U,2024-07-23 23:35,-116.1876,41.9532,1637.00,93.20,37.40,14.23,0.00,0.00,0.00,30.16,M,10.00,M,CLR,M,M,M,M,M,M,M,M,M,M,M,M,M,M,88.83,K10U 232335Z AUTO 00000KT 10SM CLR 34/03 A3016 RMK AO2,M
BAM,2024-07-23 23:35,-116.8743,40.5990,1382.36,98.60,44.60,15.93,10.00,4.00,0.00,30.09,M,10.00,M,CLR,M,M,M,M,M,M,M,M,M,M,M,M,M,M,94.55,KBAM 232335Z AUTO 01004KT 10SM CLR 37/07 A3009 RMK AO1,M
TMT,2024-07-23 23:35,-117.1971,39.4643,1749.34,90.30,47.70,23.15,360.00,11.00,0.00,30.21,M,10.00,16.00,BKN,M,M,M,11000.00,M,M,M,M,M,M,M,M,M,M,87.01,KTMT 232335Z AUTO 36011G16KT 10SM BKN110 32/09 A3021 RMK AO2 T03240087,M
TPH,2024-07-23 23:49,-117.0904,38.0505,1654.00,97.00,43.00,15.73,200.00,10.00,0.00,30.15,M,10.00,M,CLR,M,M,M,M,M,M,M,VCTS,M,M,M,M,M,M,92.79,KTPH 232349Z AUTO 20010KT 10SM VCTS CLR 36/06 A3015 RMK AO2 LTG DSNT N-E T03610061,M
05U,2024-07-23 23:50,-116.0051,39.6042,1811.23,93.20,39.20,15.27,0.00,0.00,0.00,30.23,M,10.00,14.00,CLR,M,M,M,M,M,M,M,M,M,M,M,M,M,M,88.92,K05U 232350Z AUTO 00000G14KT 10SM CLR 34/04 A3023 RMK A01,M
P68,2024-07-23 23:53,-116.0056,39.6014,1993.00,94.00,39.00,14.78,330.00,7.00,0.00,30.19,1012.70,M,15.00,M,M,M,M,M,M,M,M,M,M,M,M,M,M,M,89.64,KP68 232353Z AUTO 33007G15KT 34/04 A3019 RMK AO1 SLP127 T03440039 10350 20294 58010,M
DRA,2024-07-23 23:53,-116.0278,36.6206,1009.00,106.00,49.00,15.07,210.00,7.00,0.00,29.96,1008.30,10.00,16.00,FEW,M,M,M,12000.00,M,M,M,M,M,M,M,M,M,M,102.88,KDRA 232353Z AUTO 21007G16KT 10SM FEW120 41/09 A2996 RMK AO2 SLP083 T04110094 10417 20367 56013,M
ELY,2024-07-23 23:53,-114.8453,39.2950,1909.00,87.00,44.00,22.33,170.00,9.00,0.00,30.24,1013.40,10.00,M,CLR,M,M,M,M,M,M,M,M,M,M,M,M,M,M,83.82,KELY 232353Z AUTO 17009KT 10SM CLR 31/07 A3024 RMK AO2 SLP134 T03060067 10333 20283 58007 $,M
VGT,2024-07-23 23:53,-115.1933,36.2111,667.00,110.00,54.00,16.12,200.00,13.00,0.00,29.86,1009.00,10.00,M,CLR,M,M,M,M,M,M,M,M,M,M,M,M,M,M,108.79,KVGT 232353Z 20013KT 10SM CLR 43/12 A2986 RMK AO2 SLP090 T04330122 10439 20400 56015,M
LOL,2024-07-23 23:53,-118.5701,40.0684,1192.43,98.00,47.00,17.77,160.00,4.00,0.00,30.02,1011.80,10.00,M,CLR,M,M,M,M,M,M,M,M,M,M,M,M,M,M,94.34,KLOL 232353Z AUTO 16004KT 10SM CLR 37/08 A3002 RMK AO2 SLP118 T03670083 10389 20328 56014,M
NFL,2024-07-23 23:54,-118.7010,39.4166,1199.00,100.00,46.00,16.10,30.00,5.00,0.00,30.03,1013.80,10.00,M,SCT,BKN,M,M,8000.00,15000.00,M,M,M,M,M,M,M,M,M,96.16,KNFL 232354Z 03005KT 10SM SCT080 BKN150 38/08 A3003 RMK AO2 SLP138 OCNL LTGICCG DSNT SW-W CB DSNT SW-NW TCU DSNT ALQDS T03780078 10400 20333 56014,M
BVU,2024-07-23 23:55,-114.8611,35.9475,671.00,107.60,50.00,14.92,220.00,11.00,0.00,29.86,M,10.00,M,CLR,M,M,M,M,M,M,M,M,M,M,M,M,M,M,104.80,KBVU 232355Z AUTO 22011KT 10SM CLR 42/10 A2986 RMK AO2,M
CXP,2024-07-23 23:55,-119.7326,39.1923,1431.00,96.80,46.40,18.02,210.00,9.00,0.00,30.14,M,10.00,M,CLR,M,M,M,M,M,M,M,M,M,M,M,M,M,M,93.05,KCXP 232355Z AUTO 21009KT 10SM CLR 36/08 A3014 RMK AO2,M
RNO,2024-07-23 23:55,-119.7711,39.4839,1341.00,101.00,47.00,16.22,330.00,6.00,0.00,30.09,1011.60,10.00,M,SCT,M,M,M,12000.00,M,M,M,M,M,M,M,M,M,M,97.35,KRNO 232355Z 33006KT 10SM SCT120 38/08 A3009 RMK AO2 SLP116 FU ALF DSNT NW T03830083 10394 20322 55006,M
RTS,2024-07-23 23:55,-119.8764,39.6682,1539.00,89.60,53.60,29.45,360.00,8.00,0.00,30.17,M,10.00,13.00,CLR,M,M,M,M,M,M,M,M,M,M,M,M,M,M,87.36,KRTS 232355Z AUTO 36008G13KT 10SM CLR 32/12 A3017 RMK AO2,M
HTH,2024-07-23 23:55,-118.6315,38.5448,1282.89,93.20,42.80,17.55,240.00,21.00,0.00,30.08,M,10.00,27.00,CLR,M,M,M,M,M,M,M,M,M,M,M,M,M,M,89.17,KHTH 232355Z AUTO 24021G27KT 10SM CLR 34/06 A3008 RMK A01,M
10U,2024-07-23 23:55,-116.1876,41.9532,1637.00,93.20,37.40,14.23,0.00,0.00,0.00,30.15,M,10.00,M,CLR,M,M,M,M,M,M,M,M,M,M,M,M,M,M,88.83,K10U 232355Z AUTO 00000KT 10SM CLR 34/03 A3015 RMK AO2,M
BAM,2024-07-23 23:55,-116.8743,40.5990,1382.36,98.60,42.80,14.87,20.00,3.00,0.00,30.08,M,10.00,M,CLR,M,M,M,M,M,M,M,M,M,M,M,M,M,M,94.30,KBAM 232355Z AUTO 02003KT 10SM CLR 37/06 A3008 RMK AO1,M
TMT,2024-07-23 23:55,-117.1971,39.4643,1749.34,91.40,45.70,20.74,350.00,8.00,0.00,30.20,M,10.00,M,CLR,M,M,M,M,M,M,M,M,M,M,M,M,M,M,87.79,KTMT 232355Z AUTO 35008KT 310V010 10SM CLR 33/08 A3020 RMK AO2 T03300076 10346 20290,M
INS,2024-07-23 23:55,-115.6733,36.5872,955.00,104.00,43.30,12.89,160.00,10.00,0.00,29.94,1007.40,10.00,M,FEW,M,M,M,21000.00,M,M,M,M,M,M,M,M,M,M,99.55,KINS 232355Z AUTO 16010KT 10SM FEW210 40/06 A2994 RMK AO2 SLP074 T04000063 10412 20364 57010 $,M
LSV,2024-07-23 23:55,-115.0343,36.2362,570.00,110.00,48.00,12.91,220.00,16.00,0.00,29.80,1005.60,10.00,M,CLR,M,M,M,M,M,M,M,M,M,M,M,M,M,M,106.47,KLSV 232355Z AUTO 22016KT 10SM CLR 43/09 A2980 RMK AO2 SLP056 T04330089 10439 20392 57015 $,M
EKO,2024-07-23 23:56,-115.7860,40.8242,1367.00,99.00,41.00,13.70,M,4.00,0.00,30.11,1012.40,10.00,M,CLR,M,M,M,M,M,M,M,M,M,M,M,M,M,M,94.47,KEKO 232356Z AUTO VRB04KT 10SM CLR 37/05 A3011 RMK AO2 SLP124 T03720050 10383 20322 58014,M
WMC,2024-07-23 23:56,-117.8072,40.9019,1315.00,100.00,39.00,12.30,310.00,3.00,0.00,30.05,1011.60,10.00,M,CLR,M,M,M,M,M,M,M,M,M,M,M,M,M,M,95.05,KWMC 232356Z AUTO 31003KT 10SM CLR 38/04 A3005 RMK AO2 SLP116 T03780039 10406 20344 57016,M
HND,2024-07-23 23:56,-115.1344,35.9729,742.79,106.00,57.00,20.21,220.00,16.00,0.00,29.92,1011.00,10.00,M,CLR,M,M,M,M,M,M,M,M,M,M,M,M,M,M,105.92,KHND 232356Z 22016KT 10SM CLR 41/14 A2992 RMK AO2 SLP110 T04110139 10428 20383 56009,M
TPH,2024-07-23 23:56,-117.0904,38.0505,1654.00,96.00,43.00,16.22,0.00,0.00,0.00,30.15,1011.50,10.00,M,CLR,M,M,M,M,M,M,M,VCTS,M,M,M,M,M,M,91.83,KTPH 232356Z AUTO 00000KT 10SM VCTS CLR 36/06 A3015 RMK AO2 LTG DSNT N AND NE SLP115 T03560061 10372 20300 56014,M
LAS,2024-07-23 23:56,-115.1634,36.0719,663.00,108.00,54.00,17.09,210.00,8.00,0.00,29.89,1005.10,10.00,17.00,SCT,SCT,M,M,11000.00,22000.00,M,M,M,M,M,M,M,M,M,106.72,KLAS 232356Z 21008G17KT 10SM SCT110 SCT220 42/12 A2989 RMK AO2 SLP051 CB DSNT N AND E-S 60000 T04220122 10428 20378 56009 $,M
