station,valid,lon,lat,elevation,tmpf,dwpf,relh,drct,sknt,p01i,alti,mslp,vsby,gust,skyc1,skyc2,skyc3,skyc4,skyl1,skyl2,skyl3,skyl4,wxcodes,ice_accretion_1hr,ice_accretion_3hr,ice_accretion_6hr,peak_wind_gust,peak_wind_drct,peak_wind_time,feel,metar,snowdepth
INS,2022-08-23 00:10,-115.6733,36.5872,955.00,100.40,41.00,13.14,20.00,8.00,0.00,29.93,M,10.00,M,FEW,M,M,M,8000.00,M,M,M,M,M,M,M,M,M,M,95.79,KINS 230010Z 02008KT 10SM FEW080 38/05 A2993 RMK SLPNO WND DATA ESTD ALT DATA ESTD $,M
INS,2022-08-23 00:14,-115.6733,36.5872,955.00,100.40,41.00,13.14,20.00,8.00,0.00,29.93,M,10.00,M,FEW,M,M,M,8000.00,M,M,M,M,M,M,M,M,M,M,95.79,KINS 230014Z 02008KT 10SM FEW080 38/05 A2993 RMK SLPNO WND DATA ESTD ALT DATA ESTD $,M
MEV,2022-08-23 00:15,-119.7500,38.9963,1441.42,89.60,32.00,12.84,290.00,13.00,0.00,30.13,M,10.00,M,CLR,M,M,M,M,M,M,M,M,M,M,M,M,M,M,85.54,KMEV 230015Z AUTO 29013KT 10SM CLR 32/M00 A3013 RMK AO2,M
BVU,2022-08-23 00:15,-114.8611,35.9475,671.00,102.20,50.00,17.51,0.00,0.00,0.00,29.85,M,M,M,M,M,M,M,M,M,M,M,M,M,M,M,M,M,M,99.28,KBVU 230015Z AUTO 00000KT 39/10 A2985 RMK AO2 PWINO TSNO,M
BAM,2022-08-23 00:15,-116.8743,40.5990,1382.36,96.80,32.00,10.27,290.00,14.00,0.00,30.07,M,10.00,18.00,CLR,M,M,M,M,M,M,M,M,M,M,M,M,M,M,91.19,KBAM 230015Z AUTO 29014G18KT 10SM CLR 36/00 A3007 RMK AO1,M
RTS,2022-08-23 00:15,-119.8764,39.6682,1539.00,89.60,19.40,7.61,260.00,15.00,0.00,30.16,M,10.00,M,CLR,M,M,M,M,M,M,M,M,M,M,M,M,M,M,84.54,KRTS 230015Z AUTO 26015KT 10SM CLR 32/M07 A3016 RMK AO2,M
HTH,2022-08-23 00:15,-118.6315,38.5448,1282.89,95.00,28.40,9.38,330.00,11.00,0.00,30.04,M,10.00,M,CLR,M,M,M,M,M,M,M,M,M,M,M,M,M,M,89.27,KHTH 230015Z AUTO 33011KT 10SM CLR 35/M02 A3004 RMK A01,M
TMT,2022-08-23 00:15,-117.1971,39.4643,1749.34,M,M,M,280.00,9.00,0.00,30.18,M,10.00,18.00,CLR,M,M,M,M,M,M,M,M,M,M,M,M,M,M,M,KTMT 230015Z AUTO 28009G18KT 10SM CLR A3018 RMK AO2,M
CXP,2022-08-23 00:15,-119.7326,39.1923,1431.00,89.60,24.80,9.56,260.00,9.00,0.00,30.14,M,10.00,18.00,CLR,M,M,M,M,M,M,M,M,M,M,M,M,M,M,84.88,KCXP 230015Z AUTO 26009G18KT 230V290 10SM CLR 32/M04 A3014 RMK AO2,M
RTS,2022-08-23 00:35,-119.8764,39.6682,1539.00,89.60,21.20,8.22,280.00,13.00,0.00,30.16,M,10.00,19.00,CLR,M,M,M,M,M,M,M,M,M,M,M,M,M,M,84.64,KRTS 230035Z AUTO 28013G19KT 10SM CLR 32/M06 A3016 RMK AO2,M
BVU,2022-08-23 00:35,-114.8611,35.9475,671.00,102.20,50.00,17.51,M,4.00,0.00,29.85,M,M,M,M,M,M,M,M,M,M,M,M,M,M,M,M,M,M,99.28,KBVU 230035Z AUTO VRB04KT 39/10 A2985 RMK AO2 PWINO TSNO,M
CXP,2022-08-23 00:35,-119.7326,39.1923,1431.00,89.60,24.80,9.56,270.00,9.00,0.00,30.14,M,10.00,20.00,CLR,M,M,M,M,M,M,M,M,M,M,M,M,M,M,84.88,KCXP 230035Z AUTO 27009G20KT 10SM CLR 32/M04 A3014 RMK AO2,M
MEV,2022-08-23 00:35,-119.7500,38.9963,1441.42,89.60,32.00,12.84,300.00,14.00,0.00,30.12,M,10.00,M,CLR,M,M,M,M,M,M,M,M,M,M,M,M,M,M,85.54,KMEV 230035Z AUTO 30014KT 10SM CLR 32/M00 A3012 RMK AO2,M
BAM,2022-08-23 00:35,-116.8743,40.5990,1382.36,96.80,30.20,9.55,250.00,12.00,0.00,30.06,M,10.00,M,CLR,M,M,M,M,M,M,M,M,M,M,M,M,M,M,90.96,KBAM 230035Z AUTO 25012KT 10SM CLR 36/M01 A3006 RMK AO1,M
HTH,2022-08-23 00:35,-118.6315,38.5448,1282.89,95.00,28.40,9.38,340.00,12.00,0.00,30.03,M,10.00,M,CLR,M,M,M,M,M,M,M,M,M,M,M,M,M,M,89.27,KHTH 230035Z AUTO 34012KT 10SM CLR 35/M02 A3003 RMK A01,M
TMT,2022-08-23 00:35,-117.1971,39.4643,1749.34,M,M,M,270.00,10.00,0.00,30.18,M,10.00,M,CLR,M,M,M,M,M,M,M,M,M,M,M,M,M,M,M,KTMT 230035Z AUTO 27010KT 10SM CLR A3018 RMK AO2,M
INS,2022-08-23 00:38,-115.6733,36.5872,955.00,100.40,46.40,16.15,220.00,10.00,0.00,29.91,M,10.00,M,FEW,M,M,M,16000.00,M,M,M,M,M,M,M,M,M,M,96.63,KINS 230038Z AUTO 22010KT 10SM FEW160 38/08 A2991 RMK AO2 WSHFT 36 SLPNO $,M
ELY,2022-08-23 00:53,-114.8453,39.2950,1909.00,85.00,36.00,17.50,230.00,12.00,T,30.20,1012.60,10.00,18.00,FEW,FEW,M,M,7000.00,10000.00,M,M,-RA,M,M,M,M,M,M,81.86,KELY 230053Z AUTO 23012G18KT 10SM -RA FEW070 FEW100 29/02 A3020 RMK AO2 RAB51 SLP126 P0000 T02940022,M
LOL,2022-08-23 00:53,-118.5701,40.0684,1192.43,96.00,24.10,7.59,300.00,9.00,0.00,30.02,1012.40,10.00,17.00,CLR,M,M,M,M,M,M,M,M,M,M,M,M,M,M,89.76,KLOL 230053Z AUTO 30009G17KT 10SM CLR 36/M04 A3002 RMK AO2 SLP124 T03561044,M
DRA,2022-08-23 00:53,-116.0278,36.6206,1009.00,101.00,33.00,9.48,220.00,8.00,0.00,29.93,1007.80,10.00,M,CLR,M,M,M,M,M,M,M,M,M,M,M,M,M,M,94.79,KDRA 230053Z AUTO 22008KT 10SM CLR 38/01 A2993 RMK AO2 SLP078 T03830006,M
VGT,2022-08-23 00:53,-115.1933,36.2111,667.00,105.00,51.00,16.73,60.00,5.00,0.00,29.85,1009.10,10.00,M,CLR,M,M,M,M,M,M,M,M,M,M,M,M,M,M,102.61,KVGT 230053Z 06005KT 10SM CLR 41/11 A2985 RMK AO2 SLP091 T04060106,M
P68,2022-08-23 00:53,-116.0056,39.6014,1993.00,87.00,34.00,15.06,40.00,5.00,0.00,30.15,1012.10,M,M,M,M,M,M,M,M,M,M,M,M,M,M,M,M,M,83.53,KP68 230053Z AUTO 04005KT 31/01 A3015 RMK AO1 SLP121 T03060011,M
MEV,2022-08-23 00:55,-119.7500,38.9963,1441.42,87.80,32.00,13.59,300.00,15.00,0.00,30.12,M,10.00,M,CLR,M,M,M,M,M,M,M,M,M,M,M,M,M,M,84.08,KMEV 230055Z AUTO 30015KT 10SM CLR 31/00 A3012 RMK AO2,M
HTH,2022-08-23 00:55,-118.6315,38.5448,1282.89,95.00,28.40,9.38,330.00,15.00,0.00,30.03,M,10.00,M,CLR,M,M,M,M,M,M,M,M,M,M,M,M,M,M,89.27,KHTH 230055Z AUTO 33015KT 10SM CLR 35/M02 A3003 RMK A01,M
TMT,2022-08-23 00:55,-117.1971,39.4643,1749.34,M,M,M,260.00,12.00,0.00,30.18,M,10.00,17.00,CLR,M,M,M,M,M,M,M,M,M,M,M,M,M,M,M,KTMT 230055Z AUTO 26012G17KT 10SM CLR A3018 RMK AO2,M
BVU,2022-08-23 00:55,-114.8611,35.9475,671.00,102.20,50.00,17.51,M,5.00,0.00,29.85,M,M,M,M,M,M,M,M,M,M,M,M,M,M,M,M,M,M,99.28,KBVU 230055Z AUTO VRB05KT 39/10 A2985 RMK AO2 PWINO TSNO,M
CXP,2022-08-23 00:55,-119.7326,39.1923,1431.00,87.80,26.60,10.91,280.00,9.00,0.00,30.15,M,10.00,18.00,CLR,M,M,M,M,M,M,M,M,M,M,M,M,M,M,83.69,KCXP 230055Z AUTO 28009G18KT 10SM CLR 31/M03 A3015 RMK AO2,M
RNO,2022-08-23 00:55,-119.7711,39.4839,1341.00,93.00,23.00,7.97,270.00,13.00,0.00,30.09,1012.90,10.00,23.00,CLR,M,M,M,M,M,M,M,M,M,M,M,M,M,M,87.27,KRNO 230055Z 27013G23KT 10SM CLR 34/M05 A3009 RMK AO2 SLP129 T03391050,M
RTS,2022-08-23 00:55,-119.8764,39.6682,1539.00,87.80,19.40,8.06,290.00,13.00,0.00,30.16,M,10.00,M,CLR,M,M,M,M,M,M,M,M,M,M,M,M,M,M,83.23,KRTS 230055Z AUTO 29013KT 10SM CLR 31/M07 A3016 RMK AO2,M
BAM,2022-08-23 00:55,-116.8743,40.5990,1382.36,96.80,28.40,8.87,250.00,14.00,0.00,30.06,M,10.00,18.00,CLR,M,M,M,M,M,M,M,M,M,M,M,M,M,M,90.75,KBAM 230055Z AUTO 25014G18KT 10SM CLR 36/M02 A3006 RMK AO1,M
LAS,2022-08-23 00:56,-115.1634,36.0719,663.00,103.00,52.00,18.47,0.00,0.00,0.00,29.86,1007.80,10.00,M,FEW,FEW,SCT,M,12000.00,15000.00,22000.00,M,M,M,M,M,M,M,M,100.60,KLAS 230056Z 00000KT 10SM FEW120 FEW150 SCT220 39/11 A2986 RMK AO2 SLP078 T03940111,M
EKO,2022-08-23 00:56,-115.7860,40.8242,1367.00,86.00,30.00,13.28,280.00,12.00,0.00,30.08,1013.30,10.00,M,CLR,M,M,M,M,M,M,M,M,M,M,M,M,M,M,82.64,KEKO 230056Z AUTO 28012KT 10SM CLR 30/M01 A3008 RMK AO2 SLP133 T03001011,M
WMC,2022-08-23 00:56,-117.8072,40.9019,1315.00,94.00,19.00,6.54,290.00,10.00,0.00,30.05,1012.60,10.00,18.00,CLR,M,M,M,M,M,M,M,M,M,M,M,M,M,M,87.67,KWMC 230056Z AUTO 29010G18KT 10SM CLR 34/M07 A3005 RMK AO2 SLP126 T03441072,M
HND,2022-08-23 00:56,-115.1344,35.9729,742.79,102.00,54.00,20.42,0.00,0.00,0.00,29.90,1010.60,10.00,M,CLR,M,M,M,M,M,M,M,M,M,M,M,M,M,M,100.30,KHND 230056Z 00000KT 10SM CLR 39/12 A2990 RMK AO2 SLP106 T03890122,M
TPH,2022-08-23 00:56,-117.0904,38.0505,1654.00,93.00,21.90,7.61,310.00,3.00,0.00,30.12,1011.00,10.00,M,CLR,M,M,M,M,M,M,M,M,M,M,M,M,M,M,87.19,KTPH 230056Z AUTO 31003KT 10SM CLR 34/M06 A3012 RMK AO2 SLP110 T03391056,M
NFL,2022-08-23 00:56,-118.7010,39.4166,1199.00,97.00,23.00,7.05,M,5.00,0.00,30.01,1013.30,10.00,M,FEW,M,M,M,9000.00,M,M,M,M,M,M,M,M,M,M,90.41,KNFL 230056Z VRB05KT 10SM FEW090 36/M05 A3001 RMK AO2 SLP133 T03611050,M
LSV,2022-08-23 00:58,-115.0343,36.2362,570.00,103.50,53.00,18.89,40.00,3.00,0.00,29.82,M,10.00,M,FEW,M,M,M,18000.00,M,M,M,M,M,M,M,M,M,M,101.60,KLSV 230058Z AUTO 04003KT 10SM FEW180 40/12 A2982 RMK AO2 SLPNO T03970117 $,M
INS,2022-08-23 00:58,-115.6733,36.5872,955.00,99.70,47.00,16.94,0.00,0.00,0.00,29.92,M,10.00,M,BKN,M,M,M,16000.00,M,M,M,M,M,M,M,M,M,M,96.07,KINS 230058Z AUTO 00000KT 10SM BKN160 38/08 A2992 RMK AO2 SLPNO T03760084 $,M
BAM,2022-08-23 01:15,-116.8743,40.5990,1382.36,95.00,28.40,9.38,260.00,9.00,0.00,30.07,M,10.00,M,CLR,M,M,M,M,M,M,M,M,M,M,M,M,M,M,89.27,KBAM 230115Z AUTO 26009KT 10SM CLR 35/M02 A3007 RMK AO1,M
CXP,2022-08-23 01:15,-119.7326,39.1923,1431.00,87.80,23.00,9.39,250.00,8.00,0.00,30.15,M,10.00,17.00,CLR,M,M,M,M,M,M,M,M,M,M,M,M,M,M,83.43,KCXP 230115Z AUTO 25008G17KT 220V300 10SM CLR 31/M05 A3015 RMK AO2,M
BVU,2022-08-23 01:15,-114.8611,35.9475,671.00,102.20,50.00,17.51,0.00,0.00,0.00,29.85,M,M,M,M,M,M,M,M,M,M,M,M,M,M,M,M,M,M,99.28,KBVU 230115Z AUTO 00000KT 39/10 A2985 RMK AO2 PWINO TSNO,M
HTH,2022-08-23 01:15,-118.6315,38.5448,1282.89,95.00,28.40,9.38,320.00,12.00,0.00,30.04,M,10.00,M,CLR,M,M,M,M,M,M,M,M,M,M,M,M,M,M,89.27,KHTH 230115Z AUTO 32012KT 10SM CLR 35/M02 A3004 RMK A01,M
MEV,2022-08-23 01:15,-119.7500,38.9963,1441.42,86.00,32.00,14.40,290.00,14.00,0.00,30.13,M,10.00,19.00,CLR,M,M,M,M,M,M,M,M,M,M,M,M,M,M,82.64,KMEV 230115Z AUTO 29014G19KT 10SM CLR 30/00 A3013 RMK AO2,M
TMT,2022-08-23 01:15,-117.1971,39.4643,1749.34,M,M,M,280.00,10.00,0.00,30.18,M,10.00,15.00,CLR,M,M,M,M,M,M,M,M,M,M,M,M,M,M,M,KTMT 230115Z AUTO 28010G15KT 10SM CLR A3018 RMK AO2,M
RTS,2022-08-23 01:15,-119.8764,39.6682,1539.00,86.00,24.80,10.72,290.00,13.00,0.00,30.16,M,10.00,M,CLR,M,M,M,M,M,M,M,M,M,M,M,M,M,M,82.26,KRTS 230115Z AUTO 29013KT 10SM CLR 30/M04 A3016 RMK AO2,M
HTH,2022-08-23 01:35,-118.6315,38.5448,1282.89,95.00,28.40,9.38,310.00,10.00,0.00,30.03,M,10.00,M,CLR,M,M,M,M,M,M,M,M,M,M,M,M,M,M,89.27,KHTH 230135Z AUTO 31010KT 10SM CLR 35/M02 A3003 RMK A01,M
BVU,2022-08-23 01:35,-114.8611,35.9475,671.00,100.40,51.80,19.76,30.00,8.00,0.00,29.84,M,M,M,M,M,M,M,M,M,M,M,M,M,M,M,M,M,M,97.90,KBVU 230135Z AUTO 03008KT 38/11 A2984 RMK AO2 PWINO TSNO,M
CXP,2022-08-23 01:35,-119.7326,39.1923,1431.00,87.80,24.80,10.12,M,5.00,0.00,30.14,M,10.00,M,CLR,M,M,M,M,M,M,M,M,M,M,M,M,M,M,83.56,KCXP 230135Z AUTO VRB05KT 10SM CLR 31/M04 A3014 RMK AO2,M
RTS,2022-08-23 01:35,-119.8764,39.6682,1539.00,86.00,26.60,11.55,310.00,13.00,0.00,30.16,M,10.00,M,CLR,M,M,M,M,M,M,M,M,M,M,M,M,M,M,82.39,KRTS 230135Z AUTO 31013KT 10SM CLR 30/M03 A3016 RMK AO2,M
MEV,2022-08-23 01:35,-119.7500,38.9963,1441.42,86.00,32.00,14.40,300.00,12.00,0.00,30.13,M,10.00,M,CLR,M,M,M,M,M,M,M,M,M,M,M,M,M,M,82.64,KMEV 230135Z AUTO 30012KT 10SM CLR 30/M00 A3013 RMK AO2,M
BAM,2022-08-23 01:35,-116.8743,40.5990,1382.36,95.00,24.80,8.08,270.00,13.00,0.00,30.06,M,10.00,M,CLR,M,M,M,M,M,M,M,M,M,M,M,M,M,M,88.91,KBAM 230135Z AUTO 27013KT 10SM CLR 35/M04 A3006 RMK AO1,M
TMT,2022-08-23 01:35,-117.1971,39.4643,1749.34,M,M,M,280.00,8.00,0.00,30.18,M,10.00,11.00,CLR,M,M,M,M,M,M,M,M,M,M,M,M,M,M,M,KTMT 230135Z AUTO 28008G11KT 10SM CLR A3018 RMK AO2,M
DRA,2022-08-23 01:53,-116.0278,36.6206,1009.00,100.00,32.00,9.32,230.00,3.00,0.00,29.93,1007.60,10.00,M,CLR,M,M,M,M,M,M,M,M,M,M,M,M,M,M,93.87,KDRA 230153Z AUTO 23003KT 10SM CLR 38/00 A2993 RMK AO2 SLP076 T03780000,M
ELY,2022-08-23 01:53,-114.8453,39.2950,1909.00,80.00,36.00,20.44,250.00,5.00,T,30.19,1012.30,10.00,M,CLR,M,M,M,M,M,M,M,M,M,M,M,M,M,M,78.77,KELY 230153Z AUTO 25005KT 10SM CLR 27/02 A3019 RMK AO2 RAE00 SLP123 P0000 T02670022,M
LOL,2022-08-23 01:53,-118.5701,40.0684,1192.43,94.00,21.90,7.40,300.00,13.00,0.00,30.01,1012.00,10.00,22.00,CLR,M,M,M,M,M,M,M,M,M,M,M,M,M,M,87.86,KLOL 230153Z AUTO 30013G22KT 10SM CLR 34/M06 A3001 RMK AO2 SLP120 T03441056,M
P68,2022-08-23 01:53,-116.0056,39.6014,1993.00,86.00,35.00,16.30,50.00,5.00,0.00,30.15,1012.10,M,M,M,M,M,M,M,M,M,M,M,M,M,M,M,M,M,82.68,KP68 230153Z AUTO 05005KT 30/02 A3015 RMK AO1 SLP121 T03000017,M
VGT,2022-08-23 01:53,-115.1933,36.2111,667.00,103.00,51.00,17.86,90.00,5.00,0.00,29.83,1008.70,10.00,M,CLR,M,M,M,M,M,M,M,M,M,M,M,M,M,M,100.32,KVGT 230153Z 09005KT 10SM CLR 39/11 A2983 RMK AO2 SLP087 T03940106,M
MEV,2022-08-23 01:55,-119.7500,38.9963,1441.42,84.20,32.00,15.25,300.00,9.00,0.00,30.12,M,10.00,15.00,CLR,M,M,M,M,M,M,M,M,M,M,M,M,M,M,81.28,KMEV 230155Z AUTO 30009G15KT 10SM CLR 29/M00 A3012 RMK AO2,M
BVU,2022-08-23 01:55,-114.8611,35.9475,671.00,100.40,50.00,18.48,40.00,6.00,0.00,29.85,M,M,M,M,M,M,M,M,M,M,M,M,M,M,M,M,M,M,97.42,KBVU 230155Z AUTO 04006KT 38/10 A2985 RMK AO2 PWINO TSNO,M
CXP,2022-08-23 01:55,-119.7326,39.1923,1431.00,87.80,21.20,8.70,280.00,5.00,0.00,30.13,M,10.00,M,CLR,M,M,M,M,M,M,M,M,M,M,M,M,M,M,83.33,KCXP 230155Z AUTO 28005KT 10SM CLR 31/M06 A3013 RMK AO2,M
RNO,2022-08-23 01:55,-119.7711,39.4839,1341.00,89.00,25.00,9.79,280.00,11.00,0.00,30.09,1013.10,10.00,M,CLR,M,M,M,M,M,M,M,M,M,M,M,M,M,M,84.52,KRNO 230155Z 28011KT 10SM CLR 32/M04 A3009 RMK AO2 SLP131 T03171039,M
RTS,2022-08-23 01:55,-119.8764,39.6682,1539.00,84.20,24.80,11.35,300.00,12.00,0.00,30.16,M,10.00,M,CLR,M,M,M,M,M,M,M,M,M,M,M,M,M,M,81.00,KRTS 230155Z AUTO 30012KT 10SM CLR 29/M04 A3016 RMK AO2,M
BAM,2022-08-23 01:55,-116.8743,40.5990,1382.36,91.40,26.60,9.74,250.00,9.00,0.00,30.06,M,10.00,M,CLR,M,M,M,M,M,M,M,M,M,M,M,M,M,M,86.36,KBAM 230155Z AUTO 25009KT 10SM CLR 33/M03 A3006 RMK AO1,M
HTH,2022-08-23 01:55,-118.6315,38.5448,1282.89,93.20,30.20,10.67,310.00,8.00,0.00,30.03,M,10.00,M,CLR,M,M,M,M,M,M,M,M,M,M,M,M,M,M,88.09,KHTH 230155Z AUTO 31008KT 10SM CLR 34/M01 A3003 RMK A01,M
TMT,2022-08-23 01:55,-117.1971,39.4643,1749.34,M,M,M,280.00,6.00,0.00,30.17,M,10.00,M,CLR,M,M,M,M,M,M,M,M,M,M,M,M,M,M,M,KTMT 230155Z AUTO 28006KT 10SM CLR A3017 RMK AO2,M
LAS,2022-08-23 01:56,-115.1634,36.0719,663.00,101.00,51.00,18.97,100.00,6.00,0.00,29.84,1007.40,10.00,M,FEW,FEW,SCT,M,12000.00,15000.00,22000.00,M,M,M,M,M,M,M,M,98.23,KLAS 230156Z 10006KT 10SM FEW120 FEW150 SCT220 38/11 A2984 RMK AO2 SLP074 CB DSNT N VCSH DSNT N T03830106,M
NFL,2022-08-23 01:56,-118.7010,39.4166,1199.00,95.00,25.00,8.15,M,5.00,0.00,30.01,1013.10,10.00,M,CLR,M,M,M,M,M,M,M,M,M,M,M,M,M,M,88.93,KNFL 230156Z VRB05KT 10SM CLR 35/M04 A3001 RMK AO2 SLP131 T03501039,M
WMC,2022-08-23 01:56,-117.8072,40.9019,1315.00,91.00,18.00,6.86,290.00,11.00,0.00,30.05,1012.60,10.00,18.00,CLR,M,M,M,M,M,M,M,M,M,M,M,M,M,M,85.49,KWMC 230156Z AUTO 29011G18KT 10SM CLR 33/M08 A3005 RMK AO2 SLP126 T03281078,M
EKO,2022-08-23 01:56,-115.7860,40.8242,1367.00,83.00,30.00,14.67,310.00,8.00,0.00,30.08,1013.40,10.00,M,CLR,M,M,M,M,M,M,M,M,M,M,M,M,M,M,80.31,KEKO 230156Z AUTO 31008KT 10SM CLR 28/M01 A3008 RMK AO2 SLP134 T02831011,M
HND,2022-08-23 01:56,-115.1344,35.9729,742.79,100.00,54.00,21.68,90.00,3.00,0.00,29.89,1010.30,10.00,M,CLR,M,M,M,M,M,M,M,M,M,M,M,M,M,M,98.14,KHND 230156Z 09003KT 10SM CLR 38/12 A2989 RMK AO2 SLP103 T03780122,M
TPH,2022-08-23 01:56,-117.0904,38.0505,1654.00,90.00,27.00,10.34,290.00,4.00,0.00,30.11,1010.70,10.00,M,CLR,M,M,M,M,M,M,M,M,M,M,M,M,M,M,85.35,KTPH 230156Z AUTO 29004KT 10SM CLR 32/M03 A3011 RMK AO2 SLP107 T03221028,M
INS,2022-08-23 01:58,-115.6733,36.5872,955.00,98.20,47.50,17.99,50.00,8.00,0.00,29.91,M,10.00,M,FEW,M,M,M,16000.00,M,M,M,M,M,M,M,M,M,M,94.63,KINS 230158Z AUTO 05008KT 10SM FEW160 37/09 A2991 RMK AO2 SLPNO T03680086 $,M
LSV,2022-08-23 01:58,-115.0343,36.2362,570.00,100.60,53.40,20.83,50.00,5.00,0.00,29.81,M,10.00,M,CLR,M,M,M,M,M,M,M,M,M,M,M,M,M,M,98.59,KLSV 230158Z AUTO 05005KT 10SM CLR 38/12 A2981 RMK AO2 SLPNO T03810119 $,M
BVU,2022-08-23 02:15,-114.8611,35.9475,671.00,98.60,51.80,20.87,50.00,5.00,0.00,29.85,M,M,M,M,M,M,M,M,M,M,M,M,M,M,M,M,M,M,96.00,KBVU 230215Z AUTO 05005KT 37/11 A2985 RMK AO2 PWINO TSNO,M
CXP,2022-08-23 02:15,-119.7326,39.1923,1431.00,86.00,23.00,9.94,310.00,10.00,0.00,30.13,M,10.00,M,CLR,M,M,M,M,M,M,M,M,M,M,M,M,M,M,82.14,KCXP 230215Z AUTO 31010KT 10SM CLR 30/M05 A3013 RMK AO2,M
RTS,2022-08-23 02:15,-119.8764,39.6682,1539.00,82.40,24.80,12.03,290.00,9.00,0.00,30.16,M,10.00,15.00,CLR,M,M,M,M,M,M,M,M,M,M,M,M,M,M,79.79,KRTS 230215Z AUTO 29009G15KT 10SM CLR 28/M04 A3016 RMK AO2,M
MEV,2022-08-23 02:15,-119.7500,38.9963,1441.42,82.40,30.20,15.03,280.00,9.00,0.00,30.12,M,10.00,14.00,CLR,M,M,M,M,M,M,M,M,M,M,M,M,M,M,79.97,KMEV 230215Z AUTO 28009G14KT 10SM CLR 28/M01 A3012 RMK AO2,M
BAM,2022-08-23 02:15,-116.8743,40.5990,1382.36,91.40,28.40,10.48,290.00,6.00,0.00,30.07,M,10.00,M,CLR,M,M,M,M,M,M,M,M,M,M,M,M,M,M,86.53,KBAM 230215Z AUTO 29006KT 10SM CLR 33/M02 A3007 RMK AO1,M
HTH,2022-08-23 02:15,-118.6315,38.5448,1282.89,91.40,30.20,11.28,310.00,9.00,0.00,30.03,M,10.00,M,CLR,M,M,M,M,M,M,M,M,M,M,M,M,M,M,86.71,KHTH 230215Z AUTO 31009KT 10SM CLR 33/M01 A3003 RMK A01,M
TMT,2022-08-23 02:15,-117.1971,39.4643,1749.34,83.30,32.00,15.70,310.00,8.00,0.00,30.18,M,10.00,15.00,CLR,M,M,M,M,M,M,M,M,M,M,M,M,M,M,80.62,KTMT 230215Z AUTO 31008G15KT 10SM CLR 29/00 A3018 RMK AO2 T02850000,M
TMT,2022-08-23 02:35,-117.1971,39.4643,1749.34,M,M,M,300.00,5.00,0.00,30.18,M,10.00,M,CLR,M,M,M,M,M,M,M,M,M,M,M,M,M,M,M,KTMT 230235Z AUTO 30005KT 10SM CLR A3018 RMK AO2,M
BVU,2022-08-23 02:35,-114.8611,35.9475,671.00,96.80,51.80,22.04,40.00,5.00,0.00,29.85,M,M,M,M,M,M,M,M,M,M,M,M,M,M,M,M,M,M,94.12,KBVU 230235Z AUTO 04005KT 36/11 A2985 RMK AO2 PWINO TSNO,M
CXP,2022-08-23 02:35,-119.7326,39.1923,1431.00,82.40,26.60,12.97,290.00,5.00,0.00,30.14,M,10.00,M,CLR,M,M,M,M,M,M,M,M,M,M,M,M,M,M,79.92,KCXP 230235Z AUTO 29005KT 10SM CLR 28/M03 A3014 RMK AO2,M
RTS,2022-08-23 02:35,-119.8764,39.6682,1539.00,80.60,23.00,11.83,300.00,9.00,0.00,30.17,M,10.00,M,CLR,M,M,M,M,M,M,M,M,M,M,M,M,M,M,78.80,KRTS 230235Z AUTO 30009KT 10SM CLR 27/M05 A3017 RMK AO2,M
MEV,2022-08-23 02:35,-119.7500,38.9963,1441.42,78.80,32.00,18.18,290.00,9.00,0.00,30.12,M,10.00,M,CLR,M,M,M,M,M,M,M,M,M,M,M,M,M,M,78.80,KMEV 230235Z AUTO 29009KT 10SM CLR 26/M00 A3012 RMK AO2,M
BAM,2022-08-23 02:35,-116.8743,40.5990,1382.36,87.80,28.40,11.74,320.00,7.00,0.00,30.08,M,10.00,M,CLR,M,M,M,M,M,M,M,M,M,M,M,M,M,M,83.84,KBAM 230235Z AUTO 32007KT 10SM CLR 31/M02 A3008 RMK AO1,M
HTH,2022-08-23 02:35,-118.6315,38.5448,1282.89,89.60,30.20,11.94,310.00,9.00,0.00,30.04,M,10.00,M,CLR,M,M,M,M,M,M,M,M,M,M,M,M,M,M,85.34,KHTH 230235Z AUTO 31009KT 10SM CLR 32/M01 A3004 RMK A01,M
DRA,2022-08-23 02:53,-116.0278,36.6206,1009.00,96.00,32.00,10.49,0.00,0.00,0.00,29.93,1007.90,10.00,M,CLR,M,M,M,M,M,M,M,M,M,M,M,M,M,M,90.61,KDRA 230253Z AUTO 00000KT 10SM CLR 36/00 A2993 RMK AO2 SLP079 T03560000 55003,M
VGT,2022-08-23 02:53,-115.1933,36.2111,667.00,100.00,55.00,22.49,60.00,10.00,0.00,29.85,1009.20,10.00,M,CLR,M,M,M,M,M,M,M,M,M,M,M,M,M,M,98.48,KVGT 230253Z 06010KT 10SM CLR 38/13 A2985 RMK AO2 SLP092 T03780128 55001,M
ELY,2022-08-23 02:53,-114.8453,39.2950,1909.00,74.00,38.00,27.06,0.00,0.00,0.00,30.19,1012.20,10.00,M,CLR,M,M,M,M,M,M,M,M,M,M,M,M,M,M,73.90,KELY 230253Z AUTO 00000KT 10SM CLR 23/03 A3019 RMK AO2 SLP122 60000 T02330033 55000,M
LOL,2022-08-23 02:53,-118.5701,40.0684,1192.43,87.00,19.90,8.42,290.00,8.00,0.00,30.02,1012.30,10.00,M,CLR,M,M,M,M,M,M,M,M,M,M,M,M,M,M,82.75,KLOL 230253Z AUTO 29008KT 10SM CLR 31/M07 A3002 RMK AO2 SLP123 T03061067 55004,M
P68,2022-08-23 02:53,-116.0056,39.6014,1993.00,78.00,28.00,15.81,330.00,6.00,0.00,30.17,1013.10,M,M,M,M,M,M,M,M,M,M,M,M,M,M,M,M,M,78.10,KP68 230253Z AUTO 33006KT 26/M02 A3017 RMK AO1 SLP131 T02561022 53006,M
RTS,2022-08-23 02:55,-119.8764,39.6682,1539.00,75.20,23.00,14.15,310.00,8.00,0.00,30.17,M,10.00,M,CLR,M,M,M,M,M,M,M,M,M,M,M,M,M,M,75.20,KRTS 230255Z AUTO 31008KT 10SM CLR 24/M05 A3017 RMK AO2,M
BVU,2022-08-23 02:55,-114.8611,35.9475,671.00,96.80,51.80,22.04,50.00,5.00,0.00,29.86,M,M,M,M,M,M,M,M,M,M,M,M,M,M,M,M,M,M,94.12,KBVU 230255Z AUTO 05005KT 36/11 A2986 RMK AO2 PWINO TSNO,M
MEV,2022-08-23 02:55,-119.7500,38.9963,1441.42,80.60,30.20,15.94,270.00,9.00,0.00,30.13,M,10.00,M,CLR,M,M,M,M,M,M,M,M,M,M,M,M,M,M,78.77,KMEV 230255Z AUTO 27009KT 10SM CLR 27/M01 A3013 RMK AO2,M
BAM,2022-08-23 02:55,-116.8743,40.5990,1382.36,86.00,28.40,12.44,330.00,8.00,0.00,30.08,M,10.00,M,CLR,M,M,M,M,M,M,M,M,M,M,M,M,M,M,82.54,KBAM 230255Z AUTO 33008KT 10SM CLR 30/M02 A3008 RMK AO1,M
HTH,2022-08-23 02:55,-118.6315,38.5448,1282.89,89.60,30.20,11.94,320.00,9.00,0.00,30.04,M,10.00,M,CLR,M,M,M,M,M,M,M,M,M,M,M,M,M,M,85.34,KHTH 230255Z AUTO 32009KT 10SM CLR 32/M01 A3004 RMK A01,M
TMT,2022-08-23 02:55,-117.1971,39.4643,1749.34,M,M,M,310.00,5.00,0.00,30.19,M,10.00,M,CLR,M,M,M,M,M,M,M,M,M,M,M,M,M,M,M,KTMT 230255Z AUTO 31005KT 10SM CLR A3019 RMK AO2,M
CXP,2022-08-23 02:55,-119.7326,39.1923,1431.00,80.60,24.80,12.76,330.00,4.00,0.00,30.14,M,10.00,M,CLR,M,M,M,M,M,M,M,M,M,M,M,M,M,M,78.94,KCXP 230255Z AUTO 33004KT 10SM CLR 27/M04 A3014 RMK AO2,M
RNO,2022-08-23 02:55,-119.7711,39.4839,1341.00,85.00,28.90,13.15,280.00,9.00,0.00,30.11,1013.70,10.00,M,CLR,M,M,M,M,M,M,M,M,M,M,M,M,M,M,81.78,KRNO 230255Z 28009KT 10SM CLR 29/M02 A3011 RMK AO2 SLP137 T02941017 53005,M
WMC,2022-08-23 02:56,-117.8072,40.9019,1315.00,79.00,19.90,10.94,260.00,4.00,0.00,30.05,1012.80,10.00,M,CLR,M,M,M,M,M,M,M,M,M,M,M,M,M,M,79.00,KWMC 230256Z AUTO 26004KT 10SM CLR 26/M07 A3005 RMK AO2 SLP128 T02611067 55002,M
HND,2022-08-23 02:56,-115.1344,35.9729,742.79,98.00,54.00,22.97,70.00,4.00,0.00,29.90,1010.50,10.00,M,CLR,M,M,M,M,M,M,M,M,M,M,M,M,M,M,96.10,KHND 230256Z 07004KT 10SM CLR 37/12 A2990 RMK AO2 SLP105 T03670122 55002,M
TPH,2022-08-23 02:56,-117.0904,38.0505,1654.00,84.00,26.10,12.06,350.00,3.00,0.00,30.12,1010.70,10.00,M,CLR,M,M,M,M,M,M,M,M,M,M,M,M,M,M,80.96,KTPH 230256Z AUTO 35003KT 10SM CLR 29/M03 A3012 RMK AO2 SLP107 T02891033 55003,M
EKO,2022-08-23 02:56,-115.7860,40.8242,1367.00,77.00,30.00,17.80,310.00,6.00,0.00,30.09,1013.90,10.00,M,CLR,M,M,M,M,M,M,M,M,M,M,M,M,M,M,77.00,KEKO 230256Z AUTO 31006KT 10SM CLR 25/M01 A3009 RMK AO2 SLP139 T02501011 53003,M
LAS,2022-08-23 02:56,-115.1634,36.0719,663.00,100.00,51.00,19.49,100.00,5.00,0.00,29.86,1007.90,10.00,M,FEW,FEW,SCT,M,12000.00,15000.00,22000.00,M,M,M,M,M,M,M,M,97.28,KLAS 230256Z 10005KT 10SM FEW120 FEW150 SCT220 38/11 A2986 RMK AO2 SLP079 T03780106 55002,M
NFL,2022-08-23 02:56,-118.7010,39.4166,1199.00,85.00,30.90,14.26,20.00,5.00,0.00,30.02,1013.50,10.00,M,CLR,M,M,M,M,M,M,M,M,M,M,M,M,M,M,81.79,KNFL 230256Z 02005KT 10SM CLR 29/M01 A3002 RMK SLP135 T02941006 55001,M
LSV,2022-08-23 02:58,-115.0343,36.2362,570.00,97.20,55.40,24.84,40.00,5.00,0.00,29.82,M,10.00,M,FEW,M,M,M,16000.00,M,M,M,M,M,M,M,M,M,M,95.57,KLSV 230258Z AUTO 04005KT 10SM FEW160 36/13 A2982 RMK AO2 SLPNO T03620130 55001 $,M
INS,2022-08-23 02:58,-115.6733,36.5872,955.00,94.50,41.40,15.97,70.00,10.00,0.00,29.93,M,10.00,M,CLR,M,M,M,M,M,M,M,M,M,M,M,M,M,M,90.27,KINS 230258Z AUTO 07010KT 10SM CLR 35/05 A2993 RMK AO2 SLPNO T03470052 $,M
HTH,2022-08-23 03:15,-118.6315,38.5448,1282.89,87.80,37.40,16.86,320.00,9.00,0.00,30.05,M,10.00,M,CLR,M,M,M,M,M,M,M,M,M,M,M,M,M,M,84.16,KHTH 230315Z AUTO 32009KT 10SM CLR 31/03 A3005 RMK A01,M
TMT,2022-08-23 03:15,-117.1971,39.4643,1749.34,M,M,M,0.00,0.00,0.00,30.19,M,10.00,M,CLR,M,M,M,M,M,M,M,M,M,M,M,M,M,M,M,KTMT 230315Z AUTO 00000KT 10SM CLR A3019 RMK AO2,M
BAM,2022-08-23 03:15,-116.8743,40.5990,1382.36,82.40,28.40,13.96,340.00,7.00,0.00,30.08,M,10.00,M,CLR,M,M,M,M,M,M,M,M,M,M,M,M,M,M,79.94,KBAM 230315Z AUTO 34007KT 10SM CLR 28/M02 A3008 RMK AO1,M
MEV,2022-08-23 03:15,-119.7500,38.9963,1441.42,77.00,30.20,17.94,250.00,6.00,0.00,30.13,M,10.00,M,CLR,M,M,M,M,M,M,M,M,M,M,M,M,M,M,77.00,KMEV 230315Z AUTO 25006KT 10SM CLR 25/M01 A3013 RMK AO2,M
CXP,2022-08-23 03:15,-119.7326,39.1923,1431.00,78.80,21.20,11.64,310.00,6.00,0.00,30.14,M,10.00,M,CLR,M,M,M,M,M,M,M,M,M,M,M,M,M,M,78.80,KCXP 230315Z AUTO 31006KT 10SM CLR 26/M06 A3014 RMK AO2,M
RTS,2022-08-23 03:15,-119.8764,39.6682,1539.00,73.40,24.80,16.20,320.00,7.00,0.00,30.18,M,10.00,M,CLR,M,M,M,M,M,M,M,M,M,M,M,M,M,M,73.40,KRTS 230315Z AUTO 32007KT 10SM CLR 23/M04 A3018 RMK AO2,M
BVU,2022-08-23 03:15,-114.8611,35.9475,671.00,95.00,53.60,24.89,70.00,4.00,0.00,29.86,M,M,M,M,M,M,M,M,M,M,M,M,M,M,M,M,M,M,92.71,KBVU 230315Z AUTO 07004KT 35/12 A2986 RMK AO2 PWINO TSNO,M
BVU,2022-08-23 03:35,-114.8611,35.9475,671.00,93.20,57.20,29.99,70.00,5.00,0.00,29.87,M,M,M,M,M,M,M,M,M,M,M,M,M,M,M,M,M,M,91.91,KBVU 230335Z AUTO 07005KT 34/14 A2987 RMK AO2 PWINO TSNO,M
RTS,2022-08-23 03:35,-119.8764,39.6682,1539.00,71.60,24.80,17.22,290.00,8.00,0.00,30.18,M,10.00,M,CLR,M,M,M,M,M,M,M,M,M,M,M,M,M,M,71.60,KRTS 230335Z AUTO 29008KT 10SM CLR 22/M04 A3018 RMK AO2,M
MEV,2022-08-23 03:35,-119.7500,38.9963,1441.42,75.20,30.20,19.05,M,3.00,0.00,30.14,M,10.00,M,CLR,M,M,M,M,M,M,M,M,M,M,M,M,M,M,75.20,KMEV 230335Z AUTO VRB03KT 10SM CLR 24/M01 A3014 RMK AO2,M
BAM,2022-08-23 03:35,-116.8743,40.5990,1382.36,80.60,26.60,13.75,340.00,7.00,0.00,30.09,M,10.00,M,CLR,M,M,M,M,M,M,M,M,M,M,M,M,M,M,78.68,KBAM 230335Z AUTO 34007KT 10SM CLR 27/M03 A3009 RMK AO1,M
HTH,2022-08-23 03:35,-118.6315,38.5448,1282.89,86.00,39.20,19.15,340.00,6.00,0.00,30.06,M,10.00,M,CLR,M,M,M,M,M,M,M,M,M,M,M,M,M,M,82.79,KHTH 230335Z AUTO 34006KT 10SM CLR 30/04 A3006 RMK A01,M
TMT,2022-08-23 03:35,-117.1971,39.4643,1749.34,M,M,M,110.00,5.00,0.00,30.21,M,10.00,M,CLR,M,M,M,M,M,M,M,M,M,M,M,M,M,M,M,KTMT 230335Z AUTO 11005KT 10SM CLR A3021 RMK AO2,M
CXP,2022-08-23 03:35,-119.7326,39.1923,1431.00,75.20,24.80,15.25,320.00,5.00,0.00,30.15,M,10.00,M,CLR,M,M,M,M,M,M,M,M,M,M,M,M,M,M,75.20,KCXP 230335Z AUTO 32005KT 10SM CLR 24/M04 A3015 RMK AO2,M
LOL,2022-08-23 03:53,-118.5701,40.0684,1192.43,77.00,23.00,13.32,330.00,6.00,0.00,30.04,1013.00,10.00,M,CLR,M,M,M,M,M,M,M,M,M,M,M,M,M,M,77.00,KLOL 230353Z AUTO 33006KT 10SM CLR 25/M05 A3004 RMK AO2 SLP130 T02501050,M
P68,2022-08-23 03:53,-116.0056,39.6014,1993.00,70.00,34.00,26.46,100.00,6.00,0.00,30.19,1013.70,M,M,M,M,M,M,M,M,M,M,M,M,M,M,M,M,M,70.00,KP68 230353Z AUTO 10006KT 21/01 A3019 RMK AO1 SLP137 T02110011,M
DRA,2022-08-23 03:53,-116.0278,36.6206,1009.00,92.00,45.00,19.88,120.00,13.00,0.00,29.95,1008.50,10.00,M,CLR,M,M,M,M,M,M,M,M,M,M,M,M,M,M,88.17,KDRA 230353Z AUTO 12013KT 10SM CLR 33/07 A2995 RMK AO2 SLP085 T03330072,M
VGT,2022-08-23 03:53,-115.1933,36.2111,667.00,100.00,54.00,21.68,50.00,3.00,0.00,29.85,1009.40,10.00,M,CLR,M,M,M,M,M,M,M,M,M,M,M,M,M,M,98.14,KVGT 230353Z AUTO 05003KT 10SM CLR 38/12 A2985 RMK AO2 SLP094 T03780122,M
ELY,2022-08-23 03:53,-114.8453,39.2950,1909.00,70.00,38.00,30.88,0.00,0.00,0.00,30.21,1012.70,10.00,M,FEW,M,M,M,12000.00,M,M,M,M,M,M,M,M,M,M,70.00,KELY 230353Z AUTO 00000KT 10SM FEW120 21/03 A3021 RMK AO2 SLP127 T02110033,M
MEV,2022-08-23 03:55,-119.7500,38.9963,1441.42,73.40,28.40,18.80,100.00,4.00,0.00,30.14,M,10.00,M,CLR,M,M,M,M,M,M,M,M,M,M,M,M,M,M,73.40,KMEV 230355Z AUTO 10004KT 10SM CLR 23/M02 A3014 RMK AO2,M
BAM,2022-08-23 03:55,-116.8743,40.5990,1382.36,78.80,23.00,12.55,330.00,7.00,0.00,30.10,M,10.00,M,CLR,M,M,M,M,M,M,M,M,M,M,M,M,M,M,78.80,KBAM 230355Z AUTO 33007KT 10SM CLR 26/M05 A3010 RMK AO1,M
RNO,2022-08-23 03:55,-119.7711,39.4839,1341.00,82.00,28.90,14.44,320.00,11.00,0.00,30.12,1014.00,10.00,M,CLR,M,M,M,M,M,M,M,M,M,M,M,M,M,M,79.67,KRNO 230355Z 32011KT 10SM CLR 28/M02 A3012 RMK AO2 SLP140 T02781017,M
RTS,2022-08-23 03:55,-119.8764,39.6682,1539.00,71.60,24.80,17.22,290.00,3.00,0.00,30.19,M,10.00,M,CLR,M,M,M,M,M,M,M,M,M,M,M,M,M,M,71.60,KRTS 230355Z AUTO 29003KT 10SM CLR 22/M04 A3019 RMK AO2,M
CXP,2022-08-23 03:55,-119.7326,39.1923,1431.00,75.20,24.80,15.25,280.00,6.00,0.00,30.15,M,10.00,M,CLR,M,M,M,M,M,M,M,M,M,M,M,M,M,M,75.20,KCXP 230355Z AUTO 28006KT 10SM CLR 24/M04 A3015 RMK AO2,M
BVU,2022-08-23 03:55,-114.8611,35.9475,671.00,93.20,55.40,28.10,60.00,5.00,0.00,29.87,M,M,M,M,M,M,M,M,M,M,M,M,M,M,M,M,M,M,91.35,KBVU 230355Z AUTO 06005KT 34/13 A2987 RMK AO2 PWINO TSNO,M
TMT,2022-08-23 03:55,-117.1971,39.4643,1749.34,66.20,31.30,27.06,130.00,6.00,0.00,30.21,M,10.00,M,CLR,M,M,M,M,M,M,M,M,M,M,M,M,M,M,66.20,KTMT 230355Z AUTO 13006KT 10SM CLR 19/00 A3021 RMK AO2 T01901004,M
HTH,2022-08-23 03:55,-118.6315,38.5448,1282.89,87.80,32.00,13.59,350.00,12.00,0.00,30.07,M,10.00,M,CLR,M,M,M,M,M,M,M,M,M,M,M,M,M,M,84.08,KHTH 230355Z AUTO 35012KT 10SM CLR 31/00 A3007 RMK A01,M
WMC,2022-08-23 03:56,-117.8072,40.9019,1315.00,72.00,19.90,13.82,240.00,6.00,0.00,30.07,1013.30,10.00,M,CLR,M,M,M,M,M,M,M,M,M,M,M,M,M,M,72.00,KWMC 230356Z AUTO 24006KT 10SM CLR 22/M07 A3007 RMK AO2 SLP133 T02221067,M
NFL,2022-08-23 03:56,-118.7010,39.4166,1199.00,80.00,27.00,14.21,350.00,7.00,0.00,30.05,1014.30,10.00,M,CLR,M,M,M,M,M,M,M,M,M,M,M,M,M,M,78.48,KNFL 230356Z 35007KT 10SM CLR 27/M03 A3005 RMK AO2 SLP143 T02671028,M
EKO,2022-08-23 03:56,-115.7860,40.8242,1367.00,68.00,32.00,26.15,0.00,0.00,0.00,30.11,1014.50,10.00,M,CLR,M,M,M,M,M,M,M,M,M,M,M,M,M,M,68.00,KEKO 230356Z AUTO 00000KT 10SM CLR 20/00 A3011 RMK AO2 SLP145 T02000000,M
HND,2022-08-23 03:56,-115.1344,35.9729,742.79,95.00,54.00,25.26,100.00,5.00,0.00,29.91,1011.00,10.00,M,CLR,M,M,M,M,M,M,M,M,M,M,M,M,M,M,92.82,KHND 230356Z AUTO 10005KT 10SM CLR 35/12 A2991 RMK AO2 SLP110 T03500122,M
TPH,2022-08-23 03:56,-117.0904,38.0505,1654.00,78.00,28.90,16.41,10.00,7.00,0.00,30.13,1011.20,10.00,M,CLR,M,M,M,M,M,M,M,M,M,M,M,M,M,M,78.10,KTPH 230356Z AUTO 01007KT 10SM CLR 26/M02 A3013 RMK AO2 SLP112 T02561017,M
LAS,2022-08-23 03:56,-115.1634,36.0719,663.00,98.00,50.00,19.82,90.00,3.00,0.00,29.87,1008.20,10.00,M,FEW,FEW,M,M,12000.00,22000.00,M,M,M,M,M,M,M,M,M,95.04,KLAS 230356Z 09003KT 10SM FEW120 FEW220 37/10 A2987 RMK AO2 SLP082 T03670100,M
INS,2022-08-23 03:58,-115.6733,36.5872,955.00,92.70,44.20,18.81,170.00,9.00,0.00,29.93,M,10.00,M,FEW,FEW,M,M,18000.00,20000.00,M,M,M,M,M,M,M,M,M,88.84,KINS 230358Z AUTO 17009KT 10SM FEW180 FEW200 34/07 A2993 RMK AO2 SLPNO T03370068 $,M
LSV,2022-08-23 03:58,-115.0343,36.2362,570.00,94.30,57.00,28.78,70.00,6.00,0.00,29.82,M,10.00,M,CLR,M,M,M,M,M,M,M,M,M,M,M,M,M,M,93.00,KLSV 230358Z AUTO 07006KT 10SM CLR 35/14 A2982 RMK AO2 SLPNO T03460139 $,M
TMT,2022-08-23 04:15,-117.1971,39.4643,1749.34,61.30,31.50,32.39,150.00,5.00,0.00,30.22,M,10.00,M,CLR,M,M,M,M,M,M,M,M,M,M,M,M,M,M,61.30,KTMT 230415Z AUTO 15005KT 10SM CLR 16/00 A3022 RMK AO2 T01631003,M
HTH,2022-08-23 04:15,-118.6315,38.5448,1282.89,86.00,28.40,12.44,350.00,10.00,0.00,30.08,M,10.00,M,CLR,M,M,M,M,M,M,M,M,M,M,M,M,M,M,82.54,KHTH 230415Z AUTO 35010KT 10SM CLR 30/M02 A3008 RMK A01,M
BAM,2022-08-23 04:15,-116.8743,40.5990,1382.36,78.80,21.20,11.64,350.00,8.00,0.00,30.10,M,10.00,M,CLR,M,M,M,M,M,M,M,M,M,M,M,M,M,M,78.80,KBAM 230415Z AUTO 35008KT 10SM CLR 26/M06 A3010 RMK AO1,M
BVU,2022-08-23 04:15,-114.8611,35.9475,671.00,91.40,57.20,31.72,0.00,0.00,0.00,29.87,M,M,M,M,M,M,M,M,M,M,M,M,M,M,M,M,M,M,90.06,KBVU 230415Z AUTO 00000KT 33/14 A2987 RMK AO2 PWINO TSNO,M
MEV,2022-08-23 04:15,-119.7500,38.9963,1441.42,64.40,30.20,27.55,110.00,7.00,0.00,30.14,M,10.00,M,CLR,M,M,M,M,M,M,M,M,M,M,M,M,M,M,64.40,KMEV 230415Z AUTO 11007KT 10SM CLR 18/M01 A3014 RMK AO2,M
RTS,2022-08-23 04:15,-119.8764,39.6682,1539.00,66.20,24.80,20.72,310.00,7.00,0.00,30.19,M,10.00,M,CLR,M,M,M,M,M,M,M,M,M,M,M,M,M,M,66.20,KRTS 230415Z AUTO 31007KT 10SM CLR 19/M04 A3019 RMK AO2,M
CXP,2022-08-23 04:15,-119.7326,39.1923,1431.00,75.20,28.40,17.70,260.00,5.00,0.00,30.15,M,10.00,M,CLR,M,M,M,M,M,M,M,M,M,M,M,M,M,M,75.20,KCXP 230415Z AUTO 26005KT 10SM CLR 24/M02 A3015 RMK AO2,M
CXP,2022-08-23 04:35,-119.7326,39.1923,1431.00,77.00,30.20,17.94,270.00,5.00,0.00,30.15,M,10.00,M,CLR,M,M,M,M,M,M,M,M,M,M,M,M,M,M,77.00,KCXP 230435Z AUTO 27005KT 10SM CLR 25/M01 A3015 RMK AO2,M
BVU,2022-08-23 04:35,-114.8611,35.9475,671.00,89.60,59.00,35.81,0.00,0.00,0.00,29.88,M,M,M,M,M,M,M,M,M,M,M,M,M,M,M,M,M,M,88.86,KBVU 230435Z AUTO 00000KT 32/15 A2988 RMK AO2 PWINO TSNO,M
RTS,2022-08-23 04:35,-119.8764,39.6682,1539.00,68.00,26.60,20.98,290.00,13.00,0.00,30.18,M,10.00,M,CLR,M,M,M,M,M,M,M,M,M,M,M,M,M,M,68.00,KRTS 230435Z AUTO 29013KT 10SM CLR 20/M03 A3018 RMK AO2,M
MEV,2022-08-23 04:35,-119.7500,38.9963,1441.42,60.80,35.60,38.85,90.00,8.00,0.00,30.14,M,10.00,M,CLR,M,M,M,M,M,M,M,M,M,M,M,M,M,M,60.80,KMEV 230435Z AUTO 09008KT 10SM CLR 16/02 A3014 RMK AO2,M
BAM,2022-08-23 04:35,-116.8743,40.5990,1382.36,78.80,19.40,10.78,360.00,8.00,0.00,30.10,M,10.00,M,CLR,M,M,M,M,M,M,M,M,M,M,M,M,M,M,78.80,KBAM 230435Z AUTO 36008KT 10SM CLR 26/M07 A3010 RMK AO1,M
HTH,2022-08-23 04:35,-118.6315,38.5448,1282.89,84.20,28.40,13.18,340.00,8.00,0.00,30.08,M,10.00,M,CLR,M,M,M,M,M,M,M,M,M,M,M,M,M,M,81.25,KHTH 230435Z AUTO 34008KT 10SM CLR 29/M02 A3008 RMK A01,M
TMT,2022-08-23 04:35,-117.1971,39.4643,1749.34,61.20,30.40,31.09,160.00,7.00,0.00,30.22,M,10.00,M,CLR,M,M,M,M,M,M,M,M,M,M,M,M,M,M,61.20,KTMT 230435Z AUTO 16007KT 10SM CLR 16/M01 A3022 RMK AO2 T01621009,M
P68,2022-08-23 04:53,-116.0056,39.6014,1993.00,64.00,33.00,31.41,190.00,6.00,0.00,30.21,1014.10,M,M,M,M,M,M,M,M,M,M,M,M,M,M,M,M,M,64.00,KP68 230453Z AUTO 19006KT 18/01 A3021 RMK AO1 SLP141 T01780006,M
VGT,2022-08-23 04:53,-115.1933,36.2111,667.00,97.00,57.00,26.49,300.00,3.00,0.00,29.86,1009.60,10.00,M,CLR,M,M,M,M,M,M,M,M,M,M,M,M,M,M,95.92,KVGT 230453Z AUTO 30003KT 10SM CLR 36/14 A2986 RMK AO2 SLP096 T03610139,M
LOL,2022-08-23 04:53,-118.5701,40.0684,1192.43,72.00,24.10,16.50,0.00,0.00,0.00,30.05,1013.10,10.00,M,CLR,M,M,M,M,M,M,M,M,M,M,M,M,M,M,72.00,KLOL 230453Z AUTO 00000KT 10SM CLR 22/M04 A3005 RMK AO2 SLP131 T02221044,M
ELY,2022-08-23 04:53,-114.8453,39.2950,1909.00,69.00,40.00,34.43,180.00,7.00,0.00,30.22,1012.20,10.00,M,FEW,M,M,M,12000.00,M,M,M,M,M,M,M,M,M,M,69.10,KELY 230453Z AUTO 18007KT 10SM FEW120 21/04 A3022 RMK AO2 SLP122 T02060044,M
DRA,2022-08-23 04:53,-116.0278,36.6206,1009.00,90.00,45.00,21.10,130.00,8.00,0.00,29.95,1008.50,10.00,M,CLR,M,M,M,M,M,M,M,M,M,M,M,M,M,M,86.45,KDRA 230453Z AUTO 13008KT 10SM CLR 32/07 A2995 RMK AO2 SLP085 T03220072,M
CXP,2022-08-23 04:55,-119.7326,39.1923,1431.00,71.60,30.20,21.50,30.00,3.00,0.00,30.15,M,10.00,M,CLR,M,M,M,M,M,M,M,M,M,M,M,M,M,M,71.60,KCXP 230455Z AUTO 03003KT 10SM CLR 22/M01 A3015 RMK AO2,M
HTH,2022-08-23 04:55,-118.6315,38.5448,1282.89,82.40,28.40,13.96,340.00,6.00,0.00,30.08,M,10.00,M,CLR,M,M,M,M,M,M,M,M,M,M,M,M,M,M,79.94,KHTH 230455Z AUTO 34006KT 10SM CLR 28/M02 A3008 RMK A01,M
BVU,2022-08-23 04:55,-114.8611,35.9475,671.00,95.00,53.60,24.89,0.00,0.00,0.00,29.88,M,M,M,M,M,M,M,M,M,M,M,M,M,M,M,M,M,M,92.71,KBVU 230455Z AUTO 00000KT 35/12 A2988 RMK AO2 PWINO TSNO,M
RNO,2022-08-23 04:55,-119.7711,39.4839,1341.00,80.00,30.90,16.67,M,4.00,0.00,30.13,1014.10,10.00,M,CLR,M,M,M,M,M,M,M,M,M,M,M,M,M,M,78.59,KRNO 230455Z VRB04KT 10SM CLR 27/M01 A3013 RMK AO2 SLP141 T02671006,M
TMT,2022-08-23 04:55,-117.1971,39.4643,1749.34,M,M,M,150.00,6.00,0.00,30.22,M,10.00,M,CLR,M,M,M,M,M,M,M,M,M,M,M,M,M,M,M,KTMT 230455Z AUTO 15006KT 10SM CLR A3022 RMK AO2,M
RTS,2022-08-23 04:55,-119.8764,39.6682,1539.00,69.80,30.20,22.86,310.00,8.00,0.00,30.19,M,10.00,M,CLR,M,M,M,M,M,M,M,M,M,M,M,M,M,M,69.80,KRTS 230455Z AUTO 31008KT 10SM CLR 21/M01 A3019 RMK AO2,M
BAM,2022-08-23 04:55,-116.8743,40.5990,1382.36,71.60,19.40,13.71,160.00,4.00,0.00,30.11,M,10.00,M,CLR,M,M,M,M,M,M,M,M,M,M,M,M,M,M,71.60,KBAM 230455Z AUTO 16004KT 10SM CLR 22/M07 A3011 RMK AO1,M
MEV,2022-08-23 04:55,-119.7500,38.9963,1441.42,60.80,33.80,36.16,100.00,8.00,0.00,30.14,M,10.00,M,CLR,M,M,M,M,M,M,M,M,M,M,M,M,M,M,60.80,KMEV 230455Z AUTO 10008KT 10SM CLR 16/01 A3014 RMK AO2,M
WMC,2022-08-23 04:56,-117.8072,40.9019,1315.00,72.00,25.00,17.13,0.00,0.00,0.00,30.07,1012.70,10.00,M,CLR,M,M,M,M,M,M,M,M,M,M,M,M,M,M,72.00,KWMC 230456Z AUTO 00000KT 10SM CLR 22/M04 A3007 RMK AO2 SLP127 T02221039,M
TPH,2022-08-23 04:56,-117.0904,38.0505,1654.00,78.00,27.00,15.17,10.00,9.00,0.00,30.14,1011.40,10.00,M,CLR,M,M,M,M,M,M,M,M,M,M,M,M,M,M,78.10,KTPH 230456Z AUTO 01009KT 10SM CLR 26/M03 A3014 RMK AO2 SLP114 T02561028,M
EKO,2022-08-23 04:56,-115.7860,40.8242,1367.00,73.00,26.10,17.33,300.00,3.00,0.00,30.12,1014.20,10.00,M,CLR,M,M,M,M,M,M,M,M,M,M,M,M,M,M,73.00,KEKO 230456Z AUTO 30003KT 10SM CLR 23/M03 A3012 RMK AO2 SLP142 T02281033,M
HND,2022-08-23 04:56,-115.1344,35.9729,742.79,92.00,57.00,31.00,170.00,6.00,0.00,29.91,1011.20,10.00,M,CLR,M,M,M,M,M,M,M,M,M,M,M,M,M,M,90.50,KHND 230456Z AUTO 17006KT 10SM CLR 33/14 A2991 RMK AO2 SLP112 T03330139,M
LAS,2022-08-23 04:56,-115.1634,36.0719,663.00,96.00,51.00,21.95,240.00,4.00,0.00,29.87,1008.30,10.00,M,FEW,FEW,M,M,12000.00,22000.00,M,M,M,M,M,M,M,M,M,93.23,KLAS 230456Z 24004KT 10SM FEW120 FEW220 36/11 A2987 RMK AO2 SLP083 T03560106,M
INS,2022-08-23 04:58,-115.6733,36.5872,955.00,91.80,46.20,20.87,20.00,7.00,0.00,29.94,M,10.00,M,CLR,M,M,M,M,M,M,M,M,M,M,M,M,M,M,88.21,KINS 230458Z AUTO 02007KT 10SM CLR 33/08 A2994 RMK AO2 SLPNO T03320079 $,M
LSV,2022-08-23 04:58,-115.0343,36.2362,570.00,91.40,59.00,33.84,20.00,6.00,0.00,29.83,M,10.00,M,CLR,M,M,M,M,M,M,M,M,M,M,M,M,M,M,90.68,KLSV 230458Z AUTO 02006KT 10SM CLR 33/15 A2983 RMK AO2 SLPNO T03300150 $,M
TMT,2022-08-23 05:10,-117.1971,39.4643,1749.34,59.00,29.30,32.15,0.00,0.00,0.00,30.22,M,10.00,M,CLR,M,M,M,M,M,M,M,M,M,M,M,M,M,M,59.00,KTMT 230510Z AUTO 00000KT 10SM CLR 15/M01 A3022 RMK AO2 T01501015,M
HTH,2022-08-23 05:15,-118.6315,38.5448,1282.89,80.60,33.80,18.42,320.00,8.00,0.00,30.08,M,10.00,M,CLR,M,M,M,M,M,M,M,M,M,M,M,M,M,M,78.88,KHTH 230515Z AUTO 32008KT 10SM CLR 27/01 A3008 RMK A01,M
BVU,2022-08-23 05:15,-114.8611,35.9475,671.00,91.40,59.00,33.84,90.00,4.00,0.00,29.87,M,M,M,M,M,M,M,M,M,M,M,M,M,M,M,M,M,M,90.68,KBVU 230515Z AUTO 09004KT 33/15 A2987 RMK AO2 PWINO TSNO,M
CXP,2022-08-23 05:15,-119.7326,39.1923,1431.00,68.00,30.20,24.32,0.00,0.00,0.00,30.15,M,10.00,M,CLR,M,M,M,M,M,M,M,M,M,M,M,M,M,M,68.00,KCXP 230515Z AUTO 00000KT 10SM CLR 20/M01 A3015 RMK AO2,M
RTS,2022-08-23 05:15,-119.8764,39.6682,1539.00,69.80,30.20,22.86,0.00,0.00,0.00,30.19,M,10.00,M,CLR,M,M,M,M,M,M,M,M,M,M,M,M,M,M,69.80,KRTS 230515Z AUTO 00000KT 10SM CLR 21/M01 A3019 RMK AO2,M
MEV,2022-08-23 05:15,-119.7500,38.9963,1441.42,57.20,35.60,44.19,120.00,7.00,0.00,30.14,M,10.00,M,CLR,M,M,M,M,M,M,M,M,M,M,M,M,M,M,57.20,KMEV 230515Z AUTO 12007KT 10SM CLR 14/02 A3014 RMK AO2,M
CXP,2022-08-23 05:35,-119.7326,39.1923,1431.00,69.80,28.40,21.24,0.00,0.00,0.00,30.16,M,10.00,M,CLR,M,M,M,M,M,M,M,M,M,M,M,M,M,M,69.80,KCXP 230535Z AUTO 00000KT 10SM CLR 21/M02 A3016 RMK AO2,M
HTH,2022-08-23 05:35,-118.6315,38.5448,1282.89,80.60,33.80,18.42,290.00,6.00,0.00,30.09,M,10.00,M,CLR,M,M,M,M,M,M,M,M,M,M,M,M,M,M,78.88,KHTH 230535Z AUTO 29006KT 10SM CLR 27/01 A3009 RMK A01,M
TMT,2022-08-23 05:35,-117.1971,39.4643,1749.34,60.80,31.30,32.70,250.00,4.00,0.00,30.22,M,10.00,M,CLR,M,M,M,M,M,M,M,M,M,M,M,M,M,M,60.80,KTMT 230535Z AUTO 25004KT 10SM CLR 16/00 A3022 RMK AO2 T01601004,M
RTS,2022-08-23 05:35,-119.8764,39.6682,1539.00,69.80,30.20,22.86,300.00,5.00,0.00,30.19,M,10.00,M,CLR,M,M,M,M,M,M,M,M,M,M,M,M,M,M,69.80,KRTS 230535Z AUTO 30005KT 10SM CLR 21/M01 A3019 RMK AO2,M
BVU,2022-08-23 05:35,-114.8611,35.9475,671.00,93.20,55.40,28.10,120.00,3.00,0.00,29.87,M,M,M,M,M,M,M,M,M,M,M,M,M,M,M,M,M,M,91.35,KBVU 230535Z AUTO 12003KT 34/13 A2987 RMK AO2 PWINO TSNO,M
MEV,2022-08-23 05:35,-119.7500,38.9963,1441.42,57.20,28.40,33.05,130.00,6.00,0.00,30.15,M,10.00,M,CLR,M,M,M,M,M,M,M,M,M,M,M,M,M,M,57.20,KMEV 230535Z AUTO 13006KT 10SM CLR 14/M02 A3015 RMK AO2,M
BAM,2022-08-23 05:35,-116.8743,40.5990,1382.36,62.60,19.40,18.71,150.00,4.00,0.00,30.11,M,10.00,M,CLR,M,M,M,M,M,M,M,M,M,M,M,M,M,M,62.60,KBAM 230535Z AUTO 15004KT 10SM CLR 17/M07 A3011 RMK AO1,M
VGT,2022-08-23 05:53,-115.1933,36.2111,667.00,96.00,57.00,27.23,0.00,0.00,0.00,29.86,1009.50,10.00,M,CLR,M,M,M,M,M,M,M,M,M,M,M,M,M,M,94.94,KVGT 230553Z AUTO 00000KT 10SM CLR 36/14 A2986 RMK AO2 SLP095 T03560139 10406 20350 50004,M
P68,2022-08-23 05:53,-116.0056,39.6014,1993.00,64.00,30.90,28.74,140.00,3.00,0.00,30.20,1013.60,M,M,M,M,M,M,M,M,M,M,M,M,M,M,M,M,M,64.00,KP68 230553Z AUTO 14003KT 18/M01 A3020 RMK AO1 SLP136 T01781006 10322 20156 50008,M
DRA,2022-08-23 05:53,-116.0278,36.6206,1009.00,85.00,46.00,25.77,90.00,5.00,0.00,29.95,1008.40,10.00,M,CLR,M,M,M,M,M,M,M,M,M,M,M,M,M,M,82.35,KDRA 230553Z AUTO 09005KT 10SM CLR 29/08 A2995 RMK AO2 SLP084 T02940078 10389 20294 51005,M
ELY,2022-08-23 05:53,-114.8453,39.2950,1909.00,68.00,39.00,34.53,210.00,7.00,0.00,30.22,1011.80,10.00,M,CLR,M,M,M,M,M,M,M,M,M,M,M,M,M,M,68.00,KELY 230553Z AUTO 21007KT 10SM CLR 20/04 A3022 RMK AO2 SLP118 60000 T02000039 10300 20189 51008,M
LOL,2022-08-23 05:53,-118.5701,40.0684,1192.43,72.00,25.00,17.13,0.00,0.00,0.00,30.05,1012.80,10.00,M,CLR,M,M,M,M,M,M,M,M,M,M,M,M,M,M,72.00,KLOL 230553Z AUTO 00000KT 10SM CLR 22/M04 A3005 RMK AO2 SLP128 T02221039 10367 20206 51009,M
MEV,2022-08-23 05:55,-119.7500,38.9963,1441.42,57.20,30.20,35.57,160.00,7.00,0.00,30.15,M,10.00,M,CLR,M,M,M,M,M,M,M,M,M,M,M,M,M,M,57.20,KMEV 230555Z AUTO 16007KT 10SM CLR 14/M01 A3015 RMK AO2,M
RNO,2022-08-23 05:55,-119.7711,39.4839,1341.00,75.00,32.00,20.63,40.00,4.00,0.00,30.13,1014.10,10.00,M,CLR,M,M,M,M,M,M,M,M,M,M,M,M,M,M,75.00,KRNO 230555Z 04004KT 10SM CLR 24/00 A3013 RMK AO2 SLP141 T02390000 10350 20239 51005,M
RTS,2022-08-23 05:55,-119.8764,39.6682,1539.00,68.00,30.20,24.32,270.00,5.00,0.00,30.18,M,10.00,M,CLR,M,M,M,M,M,M,M,M,M,M,M,M,M,M,68.00,KRTS 230555Z AUTO 27005KT 10SM CLR 20/M01 A3018 RMK AO2,M
BAM,2022-08-23 05:55,-116.8743,40.5990,1382.36,60.80,19.40,19.94,170.00,6.00,0.00,30.10,M,10.00,M,CLR,M,M,M,M,M,M,M,M,M,M,M,M,M,M,60.80,KBAM 230555Z AUTO 17006KT 10SM CLR 16/M07 A3010 RMK AO1,M
HTH,2022-08-23 05:55,-118.6315,38.5448,1282.89,80.60,33.80,18.42,310.00,10.00,0.00,30.09,M,10.00,M,CLR,M,M,M,M,M,M,M,M,M,M,M,M,M,M,78.88,KHTH 230555Z AUTO 31010KT 10SM CLR 27/01 A3009 RMK A01,M
TMT,2022-08-23 05:55,-117.1971,39.4643,1749.34,57.20,30.00,35.29,230.00,4.00,0.00,30.21,M,10.00,M,CLR,M,M,M,M,M,M,M,M,M,M,M,M,M,M,57.20,KTMT 230555Z AUTO 23004KT 10SM CLR 14/M01 A3021 RMK AO2 T01401011,M
CXP,2022-08-23 05:55,-119.7326,39.1923,1431.00,68.00,28.40,22.59,0.00,0.00,0.00,30.15,M,10.00,M,CLR,M,M,M,M,M,M,M,M,M,M,M,M,M,M,68.00,KCXP 230555Z AUTO 00000KT 10SM CLR 20/M02 A3015 RMK AO2,M
BVU,2022-08-23 05:55,-114.8611,35.9475,671.00,91.40,55.40,29.72,0.00,0.00,0.00,29.87,M,M,M,M,M,M,M,M,M,M,M,M,M,M,M,M,M,M,89.53,KBVU 230555Z AUTO 00000KT 33/13 A2987 RMK AO2 PWINO TSNO,M
LAS,2022-08-23 05:56,-115.1634,36.0719,663.00,93.00,55.00,27.87,290.00,4.00,0.00,29.86,1008.10,10.00,M,FEW,FEW,M,M,12000.00,22000.00,M,M,M,M,M,M,M,M,M,91.03,KLAS 230556Z 29004KT 10SM FEW120 FEW220 34/13 A2986 RMK AO2 SLP081 T03390128 10400 20339 50003,M
HND,2022-08-23 05:56,-115.1344,35.9729,742.79,93.00,58.00,30.95,210.00,7.00,0.00,29.91,1010.90,10.00,M,CLR,M,M,M,M,M,M,M,M,M,M,M,M,M,M,91.94,KHND 230556Z AUTO 21007KT 10SM CLR 34/14 A2991 RMK AO2 SLP109 T03390144 10389 20333 50004,M
WMC,2022-08-23 05:56,-117.8072,40.9019,1315.00,61.00,23.00,23.06,200.00,4.00,0.00,30.07,1013.00,10.00,M,CLR,M,M,M,M,M,M,M,M,M,M,M,M,M,M,61.00,KWMC 230556Z AUTO 20004KT 10SM CLR 16/M05 A3007 RMK AO2 SLP130 T01611050 10356 20161 50003,M
EKO,2022-08-23 05:56,-115.7860,40.8242,1367.00,66.00,26.10,22.02,70.00,6.00,0.00,30.12,1014.30,10.00,M,CLR,M,M,M,M,M,M,M,M,M,M,M,M,M,M,66.00,KEKO 230556Z AUTO 07006KT 10SM CLR 19/M03 A3012 RMK AO2 SLP143 T01891033 10311 20178 51009,M
TPH,2022-08-23 05:56,-117.0904,38.0505,1654.00,76.00,30.90,19.14,330.00,7.00,0.00,30.13,1011.20,10.00,M,CLR,M,M,M,M,M,M,M,M,M,M,M,M,M,M,75.90,KTPH 230556Z AUTO 33007KT 10SM CLR 24/M01 A3013 RMK AO2 SLP112 T02441006 10344 20244 50005,M
NFL,2022-08-23 05:56,-118.7010,39.4166,1199.00,73.00,30.90,21.10,320.00,4.00,0.00,30.06,1014.80,10.00,M,CLR,M,M,M,M,M,M,M,M,M,M,M,M,M,M,73.00,KNFL 230556Z 32004KT 10SM CLR 23/M01 A3006 RMK AO2 SLP148 T02281006 10367 20222 51013,M
INS,2022-08-23 05:58,-115.6733,36.5872,955.00,87.40,45.00,22.99,0.00,0.00,0.00,29.94,M,10.00,M,CLR,M,M,M,M,M,M,M,M,M,M,M,M,M,M,84.23,KINS 230558Z AUTO 00000KT 10SM CLR 31/07 A2994 RMK AO2 SLPNO T03080073 10384 20305 52005 $,M
LSV,2022-08-23 05:58,-115.0343,36.2362,570.00,90.30,58.00,33.91,60.00,4.00,0.00,29.83,M,10.00,M,CLR,M,M,M,M,M,M,M,M,M,M,M,M,M,M,89.25,KLSV 230558Z AUTO 06004KT 10SM CLR 32/15 A2983 RMK AO2 SLPNO T03240145 10402 20324 52003 $,M
BAM,2022-08-23 06:15,-116.8743,40.5990,1382.36,60.80,19.40,19.94,140.00,5.00,0.00,30.10,M,10.00,M,CLR,M,M,M,M,M,M,M,M,M,M,M,M,M,M,60.80,KBAM 230615Z AUTO 14005KT 10SM CLR 16/M07 A3010 RMK AO1,M
HTH,2022-08-23 06:15,-118.6315,38.5448,1282.89,80.60,32.00,17.14,310.00,8.00,0.00,30.09,M,10.00,M,M,M,M,M,M,M,M,M,M,M,M,M,M,M,M,78.82,KHTH 230615Z AUTO 31008KT 10SM 27/M00 A3009 RMK A01,M
TMT,2022-08-23 06:15,-117.1971,39.4643,1749.34,59.00,31.80,35.58,240.00,3.00,0.00,30.21,M,10.00,M,CLR,M,M,M,M,M,M,M,M,M,M,M,M,M,M,59.00,KTMT 230615Z AUTO 24003KT 10SM CLR 15/00 A3021 RMK AO2 T01501001,M
BVU,2022-08-23 06:15,-114.8611,35.9475,671.00,89.60,57.20,33.56,0.00,0.00,0.00,29.87,M,M,M,M,M,M,M,M,M,M,M,M,M,M,M,M,M,M,88.28,KBVU 230615Z AUTO 00000KT 32/14 A2987 RMK AO2 PWINO TSNO,M
CXP,2022-08-23 06:15,-119.7326,39.1923,1431.00,64.40,28.40,25.60,0.00,0.00,0.00,30.16,M,10.00,M,CLR,M,M,M,M,M,M,M,M,M,M,M,M,M,M,64.40,KCXP 230615Z AUTO 00000KT 10SM CLR 18/M02 A3016 RMK AO2,M
RTS,2022-08-23 06:15,-119.8764,39.6682,1539.00,68.00,30.20,24.32,260.00,8.00,0.00,30.19,M,10.00,M,CLR,M,M,M,M,M,M,M,M,M,M,M,M,M,M,68.00,KRTS 230615Z AUTO 26008KT 10SM CLR 20/M01 A3019 RMK AO2,M
MEV,2022-08-23 06:15,-119.7500,38.9963,1441.42,59.00,28.40,30.98,140.00,5.00,0.00,30.15,M,10.00,10.00,CLR,M,M,M,M,M,M,M,M,M,M,M,M,M,M,59.00,KMEV 230615Z AUTO 14005G10KT 10SM CLR 15/M02 A3015 RMK AO2,M
CXP,2022-08-23 06:30,-119.7326,39.1923,1431.00,64.40,28.40,25.60,0.00,0.00,0.00,30.16,M,10.00,M,CLR,M,M,M,M,M,M,M,M,M,M,M,M,M,M,64.40,KCXP 230630Z AUTO 00000KT 10SM CLR 18/M02 A3016 RMK AO2,M
RTS,2022-08-23 06:35,-119.8764,39.6682,1539.00,66.20,30.20,25.88,270.00,11.00,0.00,30.18,M,10.00,M,CLR,M,M,M,M,M,M,M,M,M,M,M,M,M,M,66.20,KRTS 230635Z AUTO 27011KT 10SM CLR 19/M01 A3018 RMK AO2,M
TMT,2022-08-23 06:35,-117.1971,39.4643,1749.34,55.00,28.90,36.67,200.00,5.00,0.00,30.21,M,10.00,M,CLR,M,M,M,M,M,M,M,M,M,M,M,M,M,M,54.90,KTMT 230635Z AUTO 20005KT 10SM CLR 13/M02 A3021 RMK AO2 T01271017,M
BVU,2022-08-23 06:35,-114.8611,35.9475,671.00,89.60,57.20,33.56,280.00,3.00,0.00,29.87,M,M,M,M,M,M,M,M,M,M,M,M,M,M,M,M,M,M,88.28,KBVU 230635Z AUTO 28003KT 32/14 A2987 RMK AO2 PWINO TSNO,M
HTH,2022-08-23 06:35,-118.6315,38.5448,1282.89,80.60,24.80,12.76,310.00,8.00,0.00,30.09,M,10.00,M,M,M,M,M,M,M,M,M,M,M,M,M,M,M,M,78.94,KHTH 230635Z AUTO 31008KT 10SM 27/M04 A3009 RMK A01,M
BAM,2022-08-23 06:35,-116.8743,40.5990,1382.36,60.80,21.20,21.53,190.00,4.00,0.00,30.09,M,10.00,M,CLR,M,M,M,M,M,M,M,M,M,M,M,M,M,M,60.80,KBAM 230635Z AUTO 19004KT 10SM CLR 16/M06 A3009 RMK AO1,M
MEV,2022-08-23 06:35,-119.7500,38.9963,1441.42,57.20,30.20,35.57,90.00,7.00,0.00,30.15,M,10.00,M,CLR,M,M,M,M,M,M,M,M,M,M,M,M,M,M,57.20,KMEV 230635Z AUTO 09007KT 10SM CLR 14/M01 A3015 RMK AO2,M
DRA,2022-08-23 06:53,-116.0278,36.6206,1009.00,86.00,45.00,23.95,M,3.00,0.00,29.95,1008.20,10.00,M,CLR,M,M,M,M,M,M,M,M,M,M,M,M,M,M,83.10,KDRA 230653Z AUTO VRB03KT 10SM CLR 30/07 A2995 RMK AO2 SLP082 T03000072,M
P68,2022-08-23 06:53,-116.0056,39.6014,1993.00,63.00,28.90,27.44,180.00,6.00,0.00,30.20,1013.40,M,M,M,M,M,M,M,M,M,M,M,M,M,M,M,M,M,63.00,KP68 230653Z AUTO 18006KT 17/M02 A3020 RMK AO1 SLP134 T01721017,M
VGT,2022-08-23 06:53,-115.1933,36.2111,667.00,93.00,57.00,29.96,330.00,4.00,0.00,29.85,1009.40,10.00,M,CLR,M,M,M,M,M,M,M,M,M,M,M,M,M,M,91.64,KVGT 230653Z AUTO 33004KT 10SM CLR 34/14 A2985 RMK AO2 SLP094 T03390139,M
LOL,2022-08-23 06:53,-118.5701,40.0684,1192.43,69.00,25.00,18.91,0.00,0.00,0.00,30.04,1012.70,10.00,M,CLR,M,M,M,M,M,M,M,M,M,M,M,M,M,M,69.10,KLOL 230653Z AUTO 00000KT 10SM CLR 21/M04 A3004 RMK AO2 SLP127 T02061039,M
ELY,2022-08-23 06:53,-114.8453,39.2950,1909.00,66.00,40.00,38.32,170.00,6.00,0.00,30.22,1011.90,10.00,M,CLR,M,M,M,M,M,M,M,M,M,M,M,M,M,M,66.00,KELY 230653Z AUTO 17006KT 10SM CLR 19/04 A3022 RMK AO2 SLP119 T01890044 403170094,M
TMT,2022-08-23 06:55,-117.1971,39.4643,1749.34,54.30,29.50,38.41,0.00,0.00,0.00,30.21,M,10.00,M,CLR,M,M,M,M,M,M,M,M,M,M,M,M,M,M,54.30,KTMT 230655Z AUTO 00000KT 10SM CLR 12/M01 A3021 RMK AO2 T01241014,M
HTH,2022-08-23 06:55,-118.6315,38.5448,1282.89,80.60,24.80,12.76,320.00,9.00,0.00,30.08,M,10.00,M,M,M,M,M,M,M,M,M,M,M,M,M,M,M,M,78.94,KHTH 230655Z AUTO 32009KT 10SM 27/M04 A3008 RMK A01,M
BAM,2022-08-23 06:55,-116.8743,40.5990,1382.36,62.60,21.20,20.20,190.00,7.00,0.00,30.09,M,10.00,M,CLR,M,M,M,M,M,M,M,M,M,M,M,M,M,M,62.60,KBAM 230655Z AUTO 19007KT 10SM CLR 17/M06 A3009 RMK AO1,M
MEV,2022-08-23 06:55,-119.7500,38.9963,1441.42,55.40,33.80,43.90,80.00,6.00,0.00,30.14,M,10.00,M,CLR,M,M,M,M,M,M,M,M,M,M,M,M,M,M,55.40,KMEV 230655Z AUTO 08006KT 10SM CLR 13/01 A3014 RMK AO2,M
BVU,2022-08-23 06:55,-114.8611,35.9475,671.00,87.80,57.20,35.53,290.00,4.00,0.00,29.87,M,M,M,M,M,M,M,M,M,M,M,M,M,M,M,M,M,M,86.58,KBVU 230655Z AUTO 29004KT 31/14 A2987 RMK AO2 PWINO TSNO,M
RTS,2022-08-23 06:55,-119.8764,39.6682,1539.00,66.20,30.20,25.88,M,3.00,0.00,30.19,M,10.00,M,CLR,M,M,M,M,M,M,M,M,M,M,M,M,M,M,66.20,KRTS 230655Z AUTO VRB03KT 10SM CLR 19/M01 A3019 RMK AO2,M
RNO,2022-08-23 06:55,-119.7711,39.4839,1341.00,71.00,34.00,25.49,170.00,3.00,0.00,30.13,1014.10,10.00,M,CLR,M,M,M,M,M,M,M,M,M,M,M,M,M,M,71.10,KRNO 230655Z 17003KT 10SM CLR 22/01 A3013 RMK AO2 SLP141 T02170011,M
CXP,2022-08-23 06:55,-119.7326,39.1923,1431.00,64.40,28.40,25.60,0.00,0.00,0.00,30.16,M,10.00,M,CLR,M,M,M,M,M,M,M,M,M,M,M,M,M,M,64.40,KCXP 230655Z AUTO 00000KT 10SM CLR 18/M02 A3016 RMK AO2,M
LAS,2022-08-23 06:56,-115.1634,36.0719,663.00,92.00,57.00,31.00,0.00,0.00,0.00,29.86,1008.10,10.00,M,FEW,M,M,M,22000.00,M,M,M,M,M,M,M,M,M,M,90.50,KLAS 230656Z 00000KT 10SM FEW220 33/14 A2986 RMK AO2 SLP081 T03330139,M
TPH,2022-08-23 06:56,-117.0904,38.0505,1654.00,74.00,32.00,21.40,20.00,6.00,0.00,30.13,1010.70,10.00,M,CLR,M,M,M,M,M,M,M,M,M,M,M,M,M,M,73.90,KTPH 230656Z AUTO 02006KT 10SM CLR 23/00 A3013 RMK AO2 SLP107 T02330000,M
EKO,2022-08-23 06:56,-115.7860,40.8242,1367.00,58.00,30.90,35.69,0.00,0.00,0.00,30.12,1014.60,10.00,M,CLR,M,M,M,M,M,M,M,M,M,M,M,M,M,M,57.90,KEKO 230656Z AUTO 00000KT 10SM CLR 14/M01 A3012 RMK AO2 SLP146 T01441006,M
WMC,2022-08-23 06:56,-117.8072,40.9019,1315.00,61.00,23.00,23.06,150.00,8.00,0.00,30.07,M,10.00,M,CLR,M,M,M,M,M,M,M,M,M,M,M,M,M,M,61.00,KWMC 230656Z AUTO 15008KT 10SM CLR 16/M05 A3007 RMK AO2 SLPNO T01611050,M
HND,2022-08-23 06:56,-115.1344,35.9729,742.79,89.00,57.00,33.85,180.00,4.00,0.00,29.91,1010.80,10.00,M,CLR,M,M,M,M,M,M,M,M,M,M,M,M,M,M,87.74,KHND 230656Z AUTO 18004KT 10SM CLR 32/14 A2991 RMK AO2 SLP108 T03170139 404000256,M
LSV,2022-08-23 06:58,-115.0343,36.2362,570.00,87.30,59.20,38.78,30.00,6.00,0.00,29.83,M,10.00,M,CLR,M,M,M,M,M,M,M,M,M,M,M,M,M,M,86.72,KLSV 230658Z AUTO 03006KT 10SM CLR 31/15 A2983 RMK AO2 SLPNO T03070151 $,M
INS,2022-08-23 06:58,-115.6733,36.5872,955.00,83.80,46.20,26.90,0.00,0.00,0.00,29.94,M,10.00,M,CLR,M,M,M,M,M,M,M,M,M,M,M,M,M,M,81.57,KINS 230658Z AUTO 00000KT 10SM CLR 29/08 A2994 RMK AO2 SLPNO T02880079 $,M
BVU,2022-08-23 07:15,-114.8611,35.9475,671.00,87.80,59.00,37.90,0.00,0.00,0.00,29.87,M,M,M,M,M,M,M,M,M,M,M,M,M,M,M,M,M,M,87.12,KBVU 230715Z AUTO 00000KT 31/15 A2987 RMK AO2 PWINO TSNO,M
CXP,2022-08-23 07:15,-119.7326,39.1923,1431.00,60.80,30.20,31.28,0.00,0.00,0.00,30.16,M,10.00,M,CLR,M,M,M,M,M,M,M,M,M,M,M,M,M,M,60.80,KCXP 230715Z AUTO 00000KT 10SM CLR 16/M01 A3016 RMK AO2,M
RTS,2022-08-23 07:15,-119.8764,39.6682,1539.00,66.20,30.20,25.88,M,4.00,0.00,30.18,M,10.00,M,CLR,M,M,M,M,M,M,M,M,M,M,M,M,M,M,66.20,KRTS 230715Z AUTO VRB04KT 10SM CLR 19/M01 A3018 RMK AO2,M
MEV,2022-08-23 07:15,-119.7500,38.9963,1441.42,55.40,33.80,43.90,100.00,4.00,0.00,30.14,M,10.00,M,CLR,M,M,M,M,M,M,M,M,M,M,M,M,M,M,55.40,KMEV 230715Z AUTO 10004KT 10SM CLR 13/01 A3014 RMK AO2,M
BAM,2022-08-23 07:15,-116.8743,40.5990,1382.36,64.40,21.20,18.96,240.00,3.00,0.00,30.09,M,10.00,M,CLR,M,M,M,M,M,M,M,M,M,M,M,M,M,M,64.40,KBAM 230715Z AUTO 24003KT 10SM CLR 18/M06 A3009 RMK AO1,M
HTH,2022-08-23 07:15,-118.6315,38.5448,1282.89,78.80,24.80,13.54,280.00,6.00,0.00,30.08,M,10.00,M,CLR,M,M,M,M,M,M,M,M,M,M,M,M,M,M,78.80,KHTH 230715Z AUTO 28006KT 10SM CLR 26/M04 A3008 RMK A01,M
TMT,2022-08-23 07:15,-117.1971,39.4643,1749.34,54.70,28.60,36.49,0.00,0.00,0.00,30.20,M,10.00,M,CLR,M,M,M,M,M,M,M,M,M,M,M,M,M,M,54.70,KTMT 230715Z AUTO 00000KT 10SM CLR 13/M02 A3020 RMK AO2 T01261019,M
RTS,2022-08-23 07:35,-119.8764,39.6682,1539.00,59.00,28.40,30.98,330.00,6.00,0.00,30.18,M,10.00,M,CLR,M,M,M,M,M,M,M,M,M,M,M,M,M,M,59.00,KRTS 230735Z AUTO 33006KT 10SM CLR 15/M02 A3018 RMK AO2,M
CXP,2022-08-23 07:35,-119.7326,39.1923,1431.00,60.80,30.20,31.28,0.00,0.00,0.00,30.16,M,10.00,M,CLR,M,M,M,M,M,M,M,M,M,M,M,M,M,M,60.80,KCXP 230735Z AUTO 00000KT 10SM CLR 16/M01 A3016 RMK AO2,M
BVU,2022-08-23 07:35,-114.8611,35.9475,671.00,86.00,60.80,42.80,0.00,0.00,0.00,29.86,M,M,M,M,M,M,M,M,M,M,M,M,M,M,M,M,M,M,86.05,KBVU 230735Z AUTO 00000KT 30/16 A2986 RMK AO2 PWINO TSNO,M
MEV,2022-08-23 07:35,-119.7500,38.9963,1441.42,53.60,30.20,40.54,0.00,0.00,0.00,30.14,M,10.00,M,CLR,M,M,M,M,M,M,M,M,M,M,M,M,M,M,53.60,KMEV 230735Z AUTO 00000KT 10SM CLR 12/M01 A3014 RMK AO2,M
BAM,2022-08-23 07:35,-116.8743,40.5990,1382.36,62.60,21.20,20.20,190.00,3.00,0.00,30.09,M,10.00,M,CLR,M,M,M,M,M,M,M,M,M,M,M,M,M,M,62.60,KBAM 230735Z AUTO 19003KT 10SM CLR 17/M06 A3009 RMK AO1,M
HTH,2022-08-23 07:35,-118.6315,38.5448,1282.89,77.00,26.60,15.48,260.00,7.00,0.00,30.08,M,10.00,M,CLR,M,M,M,M,M,M,M,M,M,M,M,M,M,M,77.00,KHTH 230735Z AUTO 26007KT 10SM CLR 25/M03 A3008 RMK A01,M
TMT,2022-08-23 07:35,-117.1971,39.4643,1749.34,51.40,30.00,43.61,230.00,3.00,0.00,30.21,M,10.00,M,CLR,M,M,M,M,M,M,M,M,M,M,M,M,M,M,51.40,KTMT 230735Z AUTO 23003KT 10SM CLR 11/M01 A3021 RMK AO2 T01081011,M
P68,2022-08-23 07:53,-116.0056,39.6014,1993.00,57.00,32.00,38.54,180.00,3.00,0.00,30.19,1013.50,M,M,M,M,M,M,M,M,M,M,M,M,M,M,M,M,M,57.00,KP68 230753Z AUTO 18003KT 14/00 A3019 RMK AO1 SLP135 T01390000 403390106,M
ELY,2022-08-23 07:53,-114.8453,39.2950,1909.00,60.00,42.00,51.35,170.00,4.00,0.00,30.22,1012.40,10.00,M,CLR,M,M,M,M,M,M,M,M,M,M,M,M,M,M,60.10,KELY 230753Z AUTO 17004KT 10SM CLR 16/06 A3022 RMK AO2 SLP124 T01560056,M
DRA,2022-08-23 07:53,-116.0278,36.6206,1009.00,83.00,43.00,24.51,M,4.00,0.00,29.94,1008.00,10.00,M,CLR,M,M,M,M,M,M,M,M,M,M,M,M,M,M,80.73,KDRA 230753Z AUTO VRB04KT 10SM CLR 28/06 A2994 RMK AO2 SLP080 T02830061 403940228,M
VGT,2022-08-23 07:53,-115.1933,36.2111,667.00,92.00,56.00,29.80,0.00,0.00,0.00,29.84,1009.00,10.00,M,CLR,M,M,M,M,M,M,M,M,M,M,M,M,M,M,90.17,KVGT 230753Z AUTO 00000KT 10SM CLR 33/13 A2984 RMK AO2 SLP090 T03330133 404110283,M
LOL,2022-08-23 07:53,-118.5701,40.0684,1192.43,66.00,27.00,22.86,0.00,0.00,0.00,30.04,1012.70,10.00,M,CLR,M,M,M,M,M,M,M,M,M,M,M,M,M,M,66.00,KLOL 230753Z AUTO 00000KT 10SM CLR 19/M03 A3004 RMK AO2 SLP127 T01891028 403720128,M
HTH,2022-08-23 07:55,-118.6315,38.5448,1282.89,77.00,24.80,14.37,260.00,7.00,0.00,30.08,M,10.00,M,CLR,M,M,M,M,M,M,M,M,M,M,M,M,M,M,77.00,KHTH 230755Z AUTO 26007KT 10SM CLR 25/M04 A3008 RMK A01,M
RNO,2022-08-23 07:55,-119.7711,39.4839,1341.00,69.00,32.00,25.18,0.00,0.00,0.00,30.13,1013.90,10.00,M,CLR,M,M,M,M,M,M,M,M,M,M,M,M,M,M,69.10,KRNO 230755Z 00000KT 10SM CLR 21/00 A3013 RMK AO2 SLP139 T02060000 403670161,M
RTS,2022-08-23 07:55,-119.8764,39.6682,1539.00,57.20,26.60,30.69,350.00,7.00,0.00,30.17,M,10.00,M,CLR,M,M,M,M,M,M,M,M,M,M,M,M,M,M,57.20,KRTS 230755Z AUTO 35007KT 10SM CLR 14/M03 A3017 RMK AO2,M
CXP,2022-08-23 07:55,-119.7326,39.1923,1431.00,59.00,30.20,33.35,0.00,0.00,0.00,30.15,M,10.00,M,CLR,M,M,M,M,M,M,M,M,M,M,M,M,M,M,59.00,KCXP 230755Z AUTO 00000KT 10SM CLR 15/M01 A3015 RMK AO2,M
MEV,2022-08-23 07:55,-119.7500,38.9963,1441.42,51.80,33.80,50.08,0.00,0.00,0.00,30.14,M,10.00,M,CLR,M,M,M,M,M,M,M,M,M,M,M,M,M,M,51.80,KMEV 230755Z AUTO 00000KT 10SM CLR 11/01 A3014 RMK AO2,M
BAM,2022-08-23 07:55,-116.8743,40.5990,1382.36,59.00,19.40,21.26,200.00,3.00,0.00,30.09,M,10.00,M,CLR,M,M,M,M,M,M,M,M,M,M,M,M,M,M,59.00,KBAM 230755Z AUTO 20003KT 10SM CLR 15/M07 A3009 RMK AO1,M
TMT,2022-08-23 07:55,-117.1971,39.4643,1749.34,50.20,31.10,47.67,260.00,6.00,0.00,30.19,M,10.00,M,CLR,M,M,M,M,M,M,M,M,M,M,M,M,M,M,50.20,KTMT 230755Z AUTO 26006KT 10SM CLR 10/00 A3019 RMK AO2 T01011005,M
BVU,2022-08-23 07:55,-114.8611,35.9475,671.00,86.00,60.80,42.80,0.00,0.00,0.00,29.86,M,M,M,M,M,M,M,M,M,M,M,M,M,M,M,M,M,M,86.05,KBVU 230755Z AUTO 00000KT 30/16 A2986 RMK AO2 PWINO TSNO,M
NFL,2022-08-23 07:56,-118.7010,39.4166,1199.00,66.00,30.90,26.81,0.00,0.00,0.00,30.05,1014.60,10.00,M,CLR,M,M,M,M,M,M,M,M,M,M,M,M,M,M,66.00,KNFL 230756Z AUTO 00000KT 10SM CLR 19/M01 A3005 RMK AO2 SLP146 T01891006 403670150,M
TPH,2022-08-23 07:56,-117.0904,38.0505,1654.00,70.00,33.00,25.53,10.00,5.00,0.00,30.14,1011.20,10.00,M,CLR,M,M,M,M,M,M,M,M,M,M,M,M,M,M,70.00,KTPH 230756Z AUTO 01005KT 10SM CLR 21/01 A3014 RMK AO2 SLP112 T02110006 403500178,M
HND,2022-08-23 07:56,-115.1344,35.9729,742.79,86.00,57.00,37.35,200.00,6.00,0.00,29.90,1010.50,10.00,M,CLR,M,M,M,M,M,M,M,M,M,M,M,M,M,M,84.92,KHND 230756Z AUTO 20006KT 10SM CLR 30/14 A2990 RMK AO2 SLP105 T03000139,M
LAS,2022-08-23 07:56,-115.1634,36.0719,663.00,90.00,56.00,31.62,200.00,4.00,0.00,29.86,1007.70,10.00,M,CLR,M,M,M,M,M,M,M,M,M,M,M,M,M,M,88.29,KLAS 230756Z 20004KT 10SM CLR 32/13 A2986 RMK AO2 SLP077 T03220133 404000278,M
WMC,2022-08-23 07:56,-117.8072,40.9019,1315.00,59.00,24.10,25.93,150.00,7.00,0.00,30.06,1012.70,10.00,M,CLR,M,M,M,M,M,M,M,M,M,M,M,M,M,M,59.00,KWMC 230756Z AUTO 15007KT 10SM CLR 15/M04 A3006 RMK AO2 SLP127 T01501044 403670117,M
EKO,2022-08-23 07:56,-115.7860,40.8242,1367.00,58.00,28.00,31.71,50.00,3.00,0.00,30.11,1014.20,10.00,M,CLR,M,M,M,M,M,M,M,M,M,M,M,M,M,M,57.90,KEKO 230756Z AUTO 05003KT 10SM CLR 14/M02 A3011 RMK AO2 SLP142 T01441022 403220094,M
INS,2022-08-23 07:58,-115.6733,36.5872,955.00,81.00,45.00,28.05,290.00,4.00,0.00,29.93,M,10.00,M,FEW,M,M,M,16000.00,M,M,M,M,M,M,M,M,M,M,79.74,KINS 230758Z AUTO 29004KT 10SM FEW160 27/07 A2993 RMK AO2 SLPNO T02730072 403870268 $,M
LSV,2022-08-23 07:58,-115.0343,36.2362,570.00,87.30,57.70,36.75,30.00,5.00,0.00,29.82,M,10.00,M,CLR,M,M,M,M,M,M,M,M,M,M,M,M,M,M,86.26,KLSV 230758Z 03005KT 10SM CLR 31/14 A2982 RMK AO2A SLPNO T03070143 404150302 $,M
HTH,2022-08-23 08:15,-118.6315,38.5448,1282.89,77.00,26.60,15.48,250.00,8.00,0.00,30.08,M,10.00,M,CLR,M,M,M,M,M,M,M,M,M,M,M,M,M,M,77.00,KHTH 230815Z AUTO 25008KT 10SM CLR 25/M03 A3008 RMK A01,M
BAM,2022-08-23 08:15,-116.8743,40.5990,1382.36,57.20,19.40,22.68,190.00,4.00,0.00,30.08,M,10.00,M,CLR,M,M,M,M,M,M,M,M,M,M,M,M,M,M,57.20,KBAM 230815Z AUTO 19004KT 10SM CLR 14/M07 A3008 RMK AO1,M
MEV,2022-08-23 08:15,-119.7500,38.9963,1441.42,48.20,32.00,53.27,0.00,0.00,0.00,30.14,M,10.00,M,CLR,M,M,M,M,M,M,M,M,M,M,M,M,M,M,48.20,KMEV 230815Z AUTO 00000KT 10SM CLR 09/00 A3014 RMK AO2,M
RTS,2022-08-23 08:15,-119.8764,39.6682,1539.00,55.40,24.80,30.40,320.00,4.00,0.00,30.17,M,10.00,M,CLR,M,M,M,M,M,M,M,M,M,M,M,M,M,M,55.40,KRTS 230815Z AUTO 32004KT 10SM CLR 13/M04 A3017 RMK AO2,M
BVU,2022-08-23 08:15,-114.8611,35.9475,671.00,84.20,60.80,45.34,0.00,0.00,0.00,29.86,M,M,M,M,M,M,M,M,M,M,M,M,M,M,M,M,M,M,84.43,KBVU 230815Z AUTO 00000KT 29/16 A2986 RMK AO2 PWINO TSNO,M
CXP,2022-08-23 08:15,-119.7326,39.1923,1431.00,59.00,30.20,33.35,0.00,0.00,0.00,30.15,M,10.00,M,CLR,M,M,M,M,M,M,M,M,M,M,M,M,M,M,59.00,KCXP 230815Z AUTO 00000KT 10SM CLR 15/M01 A3015 RMK AO2,M
TMT,2022-08-23 08:15,-117.1971,39.4643,1749.34,47.80,29.30,48.46,0.00,0.00,0.00,30.20,M,10.00,M,CLR,M,M,M,M,M,M,M,M,M,M,M,M,M,M,47.80,KTMT 230815Z AUTO 00000KT 10SM CLR 09/M01 A3020 RMK AO2 T00881015,M
CXP,2022-08-23 08:35,-119.7326,39.1923,1431.00,59.00,28.40,30.98,M,3.00,0.00,30.15,M,10.00,M,CLR,M,M,M,M,M,M,M,M,M,M,M,M,M,M,59.00,KCXP 230835Z AUTO VRB03KT 10SM CLR 15/M02 A3015 RMK AO2,M
BVU,2022-08-23 08:35,-114.8611,35.9475,671.00,84.20,60.80,45.34,60.00,5.00,0.00,29.86,M,M,M,M,M,M,M,M,M,M,M,M,M,M,M,M,M,M,84.43,KBVU 230835Z AUTO 06005KT 29/16 A2986 RMK AO2 PWINO TSNO,M
RTS,2022-08-23 08:35,-119.8764,39.6682,1539.00,57.20,26.60,30.69,350.00,4.00,0.00,30.17,M,10.00,M,CLR,M,M,M,M,M,M,M,M,M,M,M,M,M,M,57.20,KRTS 230835Z AUTO 35004KT 10SM CLR 14/M03 A3017 RMK AO2,M
MEV,2022-08-23 08:35,-119.7500,38.9963,1441.42,48.20,28.40,46.02,140.00,4.00,0.00,30.14,M,10.00,M,CLR,M,M,M,M,M,M,M,M,M,M,M,M,M,M,46.34,KMEV 230835Z AUTO 14004KT 10SM CLR 09/M02 A3014 RMK AO2,M
BAM,2022-08-23 08:35,-116.8743,40.5990,1382.36,55.40,19.40,24.21,0.00,0.00,0.00,30.09,M,10.00,M,CLR,M,M,M,M,M,M,M,M,M,M,M,M,M,M,55.40,KBAM 230835Z AUTO 00000KT 10SM CLR 13/M07 A3009 RMK AO1,M
HTH,2022-08-23 08:35,-118.6315,38.5448,1282.89,77.00,26.60,15.48,M,6.00,0.00,30.08,M,10.00,M,CLR,M,M,M,M,M,M,M,M,M,M,M,M,M,M,77.00,KHTH 230835Z AUTO VRB06KT 10SM CLR 25/M03 A3008 RMK A01,M
TMT,2022-08-23 08:35,-117.1971,39.4643,1749.34,49.80,29.50,45.34,240.00,4.00,0.00,30.19,M,10.00,M,CLR,M,M,M,M,M,M,M,M,M,M,M,M,M,M,48.21,KTMT 230835Z AUTO 24004KT 10SM CLR 10/M01 A3019 RMK AO2 T00991014,M
VGT,2022-08-23 08:53,-115.1933,36.2111,667.00,89.00,54.00,30.36,310.00,3.00,0.00,29.84,1008.90,10.00,M,CLR,M,M,M,M,M,M,M,M,M,M,M,M,M,M,86.98,KVGT 230853Z AUTO 31003KT 10SM CLR 32/12 A2984 RMK AO2 SLP089 T03170122 56005,M
P68,2022-08-23 08:53,-116.0056,39.6014,1993.00,55.00,28.00,35.21,150.00,5.00,0.00,30.19,1013.20,M,M,M,M,M,M,M,M,M,M,M,M,M,M,M,M,M,55.00,KP68 230853Z AUTO 15005KT 13/M02 A3019 RMK AO1 SLP132 T01281022 58004,M
LOL,2022-08-23 08:53,-118.5701,40.0684,1192.43,63.00,28.90,27.44,120.00,3.00,0.00,30.04,1012.40,10.00,M,CLR,M,M,M,M,M,M,M,M,M,M,M,M,M,M,63.00,KLOL 230853Z AUTO 12003KT 10SM CLR 17/M02 A3004 RMK AO2 SLP124 T01721017 58003,M
DRA,2022-08-23 08:53,-116.0278,36.6206,1009.00,79.00,44.00,29.04,60.00,4.00,0.00,29.94,1007.80,10.00,M,CLR,M,M,M,M,M,M,M,M,M,M,M,M,M,M,79.00,KDRA 230853Z AUTO 06004KT 10SM CLR 26/07 A2994 RMK AO2 SLP078 T02610067 58004,M
ELY,2022-08-23 08:53,-114.8453,39.2950,1909.00,57.00,42.00,57.38,160.00,7.00,0.00,30.21,1012.30,10.00,M,CLR,M,M,M,M,M,M,M,M,M,M,M,M,M,M,57.00,KELY 230853Z AUTO 16007KT 10SM CLR 14/06 A3021 RMK AO2 SLP123 T01390056 58002,M
RNO,2022-08-23 08:55,-119.7711,39.4839,1341.00,65.00,33.00,30.44,0.00,0.00,0.00,30.12,1013.90,10.00,M,CLR,M,M,M,M,M,M,M,M,M,M,M,M,M,M,64.90,KRNO 230855Z 00000KT 10SM CLR 18/01 A3012 RMK AO2 SLP139 T01830006 58002,M
RTS,2022-08-23 08:55,-119.8764,39.6682,1539.00,57.20,24.80,28.48,340.00,6.00,0.00,30.17,M,10.00,M,CLR,M,M,M,M,M,M,M,M,M,M,M,M,M,M,57.20,KRTS 230855Z AUTO 34006KT 10SM CLR 14/M04 A3017 RMK AO2,M
TMT,2022-08-23 08:55,-117.1971,39.4643,1749.34,50.50,31.60,48.11,240.00,4.00,0.00,30.19,M,10.00,M,CLR,M,M,M,M,M,M,M,M,M,M,M,M,M,M,50.50,KTMT 230855Z AUTO 24004KT 10SM CLR 10/00 A3019 RMK AO2 T01031002,M
HTH,2022-08-23 08:55,-118.6315,38.5448,1282.89,75.20,28.40,17.70,0.00,0.00,0.00,30.08,M,10.00,M,CLR,M,M,M,M,M,M,M,M,M,M,M,M,M,M,75.20,KHTH 230855Z AUTO 00000KT 10SM CLR 24/M02 A3008 RMK A01,M
BVU,2022-08-23 08:55,-114.8611,35.9475,671.00,86.00,60.80,42.80,50.00,5.00,0.00,29.86,M,M,M,M,M,M,M,M,M,M,M,M,M,M,M,M,M,M,86.05,KBVU 230855Z AUTO 05005KT 30/16 A2986 RMK AO2 PWINO TSNO,M
BAM,2022-08-23 08:55,-116.8743,40.5990,1382.36,55.40,19.40,24.21,0.00,0.00,0.00,30.08,M,10.00,M,CLR,M,M,M,M,M,M,M,M,M,M,M,M,M,M,55.40,KBAM 230855Z AUTO 00000KT 10SM CLR 13/M07 A3008 RMK AO1,M
CXP,2022-08-23 08:55,-119.7326,39.1923,1431.00,60.80,28.40,29.06,90.00,3.00,0.00,30.15,M,10.00,M,CLR,M,M,M,M,M,M,M,M,M,M,M,M,M,M,60.80,KCXP 230855Z AUTO 09003KT 10SM CLR 16/M02 A3015 RMK AO2,M
MEV,2022-08-23 08:55,-119.7500,38.9963,1441.42,50.00,32.00,49.81,0.00,0.00,0.00,30.14,M,10.00,M,CLR,M,M,M,M,M,M,M,M,M,M,M,M,M,M,50.00,KMEV 230855Z AUTO 00000KT 10SM CLR 10/M00 A3014 RMK AO2,M
LAS,2022-08-23 08:56,-115.1634,36.0719,663.00,89.00,55.00,31.49,210.00,3.00,0.00,29.85,1007.50,10.00,M,SCT,M,M,M,16000.00,M,M,M,M,M,M,M,M,M,M,87.21,KLAS 230856Z 21003KT 10SM SCT160 32/13 A2985 RMK AO2 SLP075 T03170128 58005,M
WMC,2022-08-23 08:56,-117.8072,40.9019,1315.00,56.00,24.10,29.00,170.00,5.00,0.00,30.06,1012.60,10.00,M,CLR,M,M,M,M,M,M,M,M,M,M,M,M,M,M,55.90,KWMC 230856Z AUTO 17005KT 10SM CLR 13/M04 A3006 RMK AO2 SLP126 T01331044 58003,M
HND,2022-08-23 08:56,-115.1344,35.9729,742.79,85.00,56.00,37.18,190.00,7.00,0.00,29.89,1010.20,10.00,M,CLR,M,M,M,M,M,M,M,M,M,M,M,M,M,M,83.74,KHND 230856Z AUTO 19007KT 10SM CLR 29/13 A2989 RMK AO2 SLP102 T02940133 58006,M
NFL,2022-08-23 08:56,-118.7010,39.4166,1199.00,66.00,33.00,29.29,210.00,5.00,0.00,30.05,1014.30,10.00,M,CLR,M,M,M,M,M,M,M,M,M,M,M,M,M,M,66.00,KNFL 230856Z AUTO 21005KT 10SM CLR 19/01 A3005 RMK AO2 SLP143 T01890006 58005,M
EKO,2022-08-23 08:56,-115.7860,40.8242,1367.00,49.00,34.00,56.23,0.00,0.00,0.00,30.11,1014.50,10.00,M,CLR,M,M,M,M,M,M,M,M,M,M,M,M,M,M,48.90,KEKO 230856Z AUTO 00000KT 10SM CLR 09/01 A3011 RMK AO2 SLP145 T00940011 58003,M
TPH,2022-08-23 08:56,-117.0904,38.0505,1654.00,72.00,30.00,21.04,20.00,9.00,0.00,30.13,1010.60,10.00,M,CLR,M,M,M,M,M,M,M,M,M,M,M,M,M,M,72.00,KTPH 230856Z AUTO 02009KT 10SM CLR 22/M01 A3013 RMK AO2 SLP106 T02221011 54000,M
LSV,2022-08-23 08:58,-115.0343,36.2362,570.00,86.50,56.30,35.84,60.00,7.00,0.00,29.81,M,10.00,M,CLR,M,M,M,M,M,M,M,M,M,M,M,M,M,M,85.18,KLSV 230858Z AUTO 06007KT 10SM CLR 30/14 A2981 RMK AO2 SLPNO T03030135 57006 $,M
INS,2022-08-23 08:58,-115.6733,36.5872,955.00,79.50,45.30,29.90,320.00,3.00,0.00,29.93,M,10.00,M,OVC,M,M,M,16000.00,M,M,M,M,M,M,M,M,M,M,79.50,KINS 230858Z AUTO 32003KT 10SM OVC160 26/07 A2993 RMK AO2 SLPNO T02640074 57005 $,M
HTH,2022-08-23 09:15,-118.6315,38.5448,1282.89,75.20,28.40,17.70,M,3.00,0.00,30.08,M,10.00,M,CLR,M,M,M,M,M,M,M,M,M,M,M,M,M,M,75.20,KHTH 230915Z AUTO VRB03KT 10SM CLR 24/M02 A3008 RMK A01,M
BAM,2022-08-23 09:15,-116.8743,40.5990,1382.36,53.60,19.40,25.85,130.00,4.00,0.00,30.08,M,10.00,M,CLR,M,M,M,M,M,M,M,M,M,M,M,M,M,M,53.60,KBAM 230915Z AUTO 13004KT 10SM CLR 12/M07 A3008 RMK AO1,M
MEV,2022-08-23 09:15,-119.7500,38.9963,1441.42,48.20,30.20,49.53,160.00,4.00,0.00,30.14,M,10.00,M,CLR,M,M,M,M,M,M,M,M,M,M,M,M,M,M,46.34,KMEV 230915Z AUTO 16004KT 10SM CLR 09/M01 A3014 RMK AO2,M
RTS,2022-08-23 09:15,-119.8764,39.6682,1539.00,57.20,24.80,28.48,330.00,3.00,0.00,30.17,M,10.00,M,CLR,M,M,M,M,M,M,M,M,M,M,M,M,M,M,57.20,KRTS 230915Z AUTO 33003KT 10SM CLR 14/M04 A3017 RMK AO2,M
CXP,2022-08-23 09:15,-119.7326,39.1923,1431.00,57.20,30.20,35.57,0.00,0.00,0.00,30.15,M,10.00,M,CLR,M,M,M,M,M,M,M,M,M,M,M,M,M,M,57.20,KCXP 230915Z AUTO 00000KT 10SM CLR 14/M01 A3015 RMK AO2,M
BVU,2022-08-23 09:15,-114.8611,35.9475,671.00,86.00,60.80,42.80,50.00,4.00,0.00,29.86,M,M,M,M,M,M,M,M,M,M,M,M,M,M,M,M,M,M,86.05,KBVU 230915Z AUTO 05004KT 30/16 A2986 RMK AO2 PWINO TSNO,M
TMT,2022-08-23 09:15,-117.1971,39.4643,1749.34,47.70,29.10,48.25,220.00,3.00,0.00,30.19,M,10.00,M,CLR,M,M,M,M,M,M,M,M,M,M,M,M,M,M,46.64,KTMT 230915Z AUTO 22003KT 10SM CLR 09/M02 A3019 RMK AO2 T00871016,M
MEV,2022-08-23 09:35,-119.7500,38.9963,1441.42,50.00,30.20,46.31,130.00,4.00,0.00,30.13,M,10.00,M,CLR,M,M,M,M,M,M,M,M,M,M,M,M,M,M,50.00,KMEV 230935Z AUTO 13004KT 10SM CLR 10/M01 A3013 RMK AO2,M
RTS,2022-08-23 09:35,-119.8764,39.6682,1539.00,57.20,24.80,28.48,0.00,0.00,0.00,30.16,M,10.00,M,CLR,M,M,M,M,M,M,M,M,M,M,M,M,M,M,57.20,KRTS 230935Z AUTO 00000KT 10SM CLR 14/M04 A3016 RMK AO2,M
BVU,2022-08-23 09:35,-114.8611,35.9475,671.00,86.00,60.80,42.80,0.00,0.00,0.00,29.86,M,M,M,M,M,M,M,M,M,M,M,M,M,M,M,M,M,M,86.05,KBVU 230935Z AUTO 00000KT 30/16 A2986 RMK AO2 PWINO TSNO,M
CXP,2022-08-23 09:35,-119.7326,39.1923,1431.00,59.00,30.20,33.35,0.00,0.00,0.00,30.14,M,10.00,M,CLR,M,M,M,M,M,M,M,M,M,M,M,M,M,M,59.00,KCXP 230935Z AUTO 00000KT 10SM CLR 15/M01 A3014 RMK AO2,M
TMT,2022-08-23 09:35,-117.1971,39.4643,1749.34,43.20,26.60,51.65,170.00,3.00,0.00,30.19,M,10.00,M,CLR,M,M,M,M,M,M,M,M,M,M,M,M,M,M,41.49,KTMT 230935Z AUTO 17003KT 10SM CLR 06/M03 A3019 RMK AO2 T00621030,M
HTH,2022-08-23 09:35,-118.6315,38.5448,1282.89,73.40,35.60,25.13,310.00,8.00,0.00,30.08,M,10.00,M,CLR,M,M,M,M,M,M,M,M,M,M,M,M,M,M,73.40,KHTH 230935Z AUTO 31008KT 10SM CLR 23/02 A3008 RMK A01,M
BAM,2022-08-23 09:35,-116.8743,40.5990,1382.36,53.60,19.40,25.85,140.00,4.00,0.00,30.08,M,10.00,M,CLR,M,M,M,M,M,M,M,M,M,M,M,M,M,M,53.60,KBAM 230935Z AUTO 14004KT 10SM CLR 12/M07 A3008 RMK AO1,M
ELY,2022-08-23 09:53,-114.8453,39.2950,1909.00,53.00,42.00,66.13,170.00,7.00,0.00,30.21,1012.60,10.00,M,FEW,M,M,M,12000.00,M,M,M,M,M,M,M,M,M,M,53.10,KELY 230953Z AUTO 17007KT 10SM FEW120 12/06 A3021 RMK AO2 SLP126 T01170056,M
LOL,2022-08-23 09:53,-118.5701,40.0684,1192.43,59.00,30.00,33.08,80.00,4.00,0.00,30.03,1012.40,10.00,M,CLR,M,M,M,M,M,M,M,M,M,M,M,M,M,M,59.00,KLOL 230953Z AUTO 08004KT 10SM CLR 15/M01 A3003 RMK AO2 SLP124 T01501011,M
VGT,2022-08-23 09:53,-115.1933,36.2111,667.00,88.00,54.00,31.43,320.00,3.00,0.00,29.84,1008.80,10.00,M,CLR,M,M,M,M,M,M,M,M,M,M,M,M,M,M,85.98,KVGT 230953Z AUTO 32003KT 10SM CLR 31/12 A2984 RMK AO2 SLP088 T03110122,M
DRA,2022-08-23 09:53,-116.0278,36.6206,1009.00,79.00,45.00,30.05,60.00,3.00,0.00,29.93,1007.60,10.00,M,CLR,M,M,M,M,M,M,M,M,M,M,M,M,M,M,79.00,KDRA 230953Z AUTO 06003KT 10SM CLR 26/07 A2993 RMK AO2 SLP076 T02610072,M
P68,2022-08-23 09:53,-116.0056,39.6014,1993.00,54.00,28.90,37.89,190.00,4.00,0.00,30.17,1012.90,M,M,M,M,M,M,M,M,M,M,M,M,M,M,M,M,M,54.00,KP68 230953Z AUTO 19004KT 12/M02 A3017 RMK AO1 SLP129 T01221017,M
CXP,2022-08-23 09:55,-119.7326,39.1923,1431.00,55.40,30.20,37.97,0.00,0.00,0.00,30.14,M,10.00,M,CLR,M,M,M,M,M,M,M,M,M,M,M,M,M,M,55.40,KCXP 230955Z AUTO 00000KT 10SM CLR 13/M01 A3014 RMK AO2,M
BVU,2022-08-23 09:55,-114.8611,35.9475,671.00,86.00,60.80,42.80,M,4.00,0.00,29.86,M,M,M,M,M,M,M,M,M,M,M,M,M,M,M,M,M,M,86.05,KBVU 230955Z AUTO VRB04KT 30/16 A2986 RMK AO2 PWINO TSNO,M
RTS,2022-08-23 09:55,-119.8764,39.6682,1539.00,53.60,24.80,32.46,0.00,0.00,0.00,30.16,M,10.00,M,CLR,M,M,M,M,M,M,M,M,M,M,M,M,M,M,53.60,KRTS 230955Z AUTO 00000KT 10SM CLR 12/M04 A3016 RMK AO2,M
MEV,2022-08-23 09:55,-119.7500,38.9963,1441.42,48.20,30.20,49.53,110.00,5.00,0.00,30.13,M,10.00,M,CLR,M,M,M,M,M,M,M,M,M,M,M,M,M,M,45.63,KMEV 230955Z AUTO 11005KT 10SM CLR 09/M01 A3013 RMK AO2,M
BAM,2022-08-23 09:55,-116.8743,40.5990,1382.36,55.40,21.20,26.13,0.00,0.00,0.00,30.08,M,10.00,M,CLR,M,M,M,M,M,M,M,M,M,M,M,M,M,M,55.40,KBAM 230955Z AUTO 00000KT 10SM CLR 13/M06 A3008 RMK AO1,M
HTH,2022-08-23 09:55,-118.6315,38.5448,1282.89,73.40,33.80,23.39,240.00,5.00,0.00,30.08,M,10.00,M,CLR,M,M,M,M,M,M,M,M,M,M,M,M,M,M,73.40,KHTH 230955Z AUTO 24005KT 10SM CLR 23/01 A3008 RMK A01,M
TMT,2022-08-23 09:55,-117.1971,39.4643,1749.34,45.30,28.90,52.40,0.00,0.00,0.00,30.18,M,10.00,M,CLR,M,M,M,M,M,M,M,M,M,M,M,M,M,M,45.30,KTMT 230955Z AUTO 00000KT 10SM CLR 07/M02 A3018 RMK AO2 T00741017,M
RNO,2022-08-23 09:55,-119.7711,39.4839,1341.00,65.00,28.00,24.75,270.00,5.00,0.00,30.11,1013.30,10.00,M,CLR,M,M,M,M,M,M,M,M,M,M,M,M,M,M,64.90,KRNO 230955Z 27005KT 10SM CLR 18/M02 A3011 RMK AO2 SLP133 T01831022,M
LAS,2022-08-23 09:56,-115.1634,36.0719,663.00,87.00,54.00,32.34,240.00,5.00,0.00,29.85,1007.40,10.00,M,SCT,M,M,M,16000.00,M,M,M,M,M,M,M,M,M,M,85.19,KLAS 230956Z 24005KT 10SM SCT160 31/12 A2985 RMK AO2 SLP074 T03060122,M
TPH,2022-08-23 09:56,-117.0904,38.0505,1654.00,70.00,30.00,22.52,360.00,9.00,0.00,30.12,1010.30,10.00,M,CLR,M,M,M,M,M,M,M,M,M,M,M,M,M,M,70.00,KTPH 230956Z AUTO 36009KT 10SM CLR 21/M01 A3012 RMK AO2 SLP103 T02111011,M
HND,2022-08-23 09:56,-115.1344,35.9729,742.79,85.00,55.00,35.99,220.00,7.00,0.00,29.89,1010.10,10.00,M,CLR,M,M,M,M,M,M,M,M,M,M,M,M,M,M,83.56,KHND 230956Z AUTO 22007KT 10SM CLR 29/13 A2989 RMK AO2 SLP101 T02940128,M
WMC,2022-08-23 09:56,-117.8072,40.9019,1315.00,52.00,23.00,31.93,140.00,3.00,0.00,30.05,1012.80,10.00,M,CLR,M,M,M,M,M,M,M,M,M,M,M,M,M,M,52.00,KWMC 230956Z AUTO 14003KT 10SM CLR 11/M05 A3005 RMK AO2 SLP128 T01111050,M
EKO,2022-08-23 09:56,-115.7860,40.8242,1367.00,51.00,30.00,44.09,0.00,0.00,0.00,30.11,1014.60,10.00,M,CLR,M,M,M,M,M,M,M,M,M,M,M,M,M,M,51.10,KEKO 230956Z AUTO 00000KT 10SM CLR 11/M01 A3011 RMK AO2 SLP146 T01061011,M
NFL,2022-08-23 09:56,-118.7010,39.4166,1199.00,62.00,33.00,33.58,220.00,4.00,0.00,30.04,1014.10,10.00,M,CLR,M,M,M,M,M,M,M,M,M,M,M,M,M,M,62.10,KNFL 230956Z AUTO 22004KT 10SM CLR 17/01 A3004 RMK AO2 SLP141 T01670006,M
LSV,2022-08-23 09:58,-115.0343,36.2362,570.00,85.80,57.20,37.87,40.00,7.00,0.00,29.81,1006.50,10.00,M,CLR,M,M,M,M,M,M,M,M,M,M,M,M,M,M,84.80,KLSV 230958Z AUTO 04007KT 10SM CLR 30/14 A2981 RMK AO2 SLP065 T02990140 $,M
INS,2022-08-23 09:58,-115.6733,36.5872,955.00,80.00,45.70,29.96,0.00,0.00,0.00,29.93,1007.90,10.00,M,SCT,M,M,M,15000.00,M,M,M,M,M,M,M,M,M,M,79.90,KINS 230958Z AUTO 00000KT 10SM SCT150 27/08 A2993 RMK AO2 SLP079 T02660076 $,M
BAM,2022-08-23 10:15,-116.8743,40.5990,1382.36,55.40,21.20,26.13,50.00,7.00,0.00,30.07,M,10.00,M,CLR,M,M,M,M,M,M,M,M,M,M,M,M,M,M,55.40,KBAM 231015Z AUTO 05007KT 10SM CLR 13/M06 A3007 RMK AO1,M
MEV,2022-08-23 10:15,-119.7500,38.9963,1441.42,48.20,28.40,46.02,100.00,5.00,0.00,30.13,M,10.00,M,CLR,M,M,M,M,M,M,M,M,M,M,M,M,M,M,45.63,KMEV 231015Z AUTO 10005KT 10SM CLR 09/M02 A3013 RMK AO2,M
RTS,2022-08-23 10:15,-119.8764,39.6682,1539.00,53.60,24.80,32.46,330.00,8.00,0.00,30.16,M,10.00,M,CLR,M,M,M,M,M,M,M,M,M,M,M,M,M,M,53.60,KRTS 231015Z AUTO 33008KT 10SM CLR 12/M04 A3016 RMK AO2,M
CXP,2022-08-23 10:15,-119.7326,39.1923,1431.00,55.40,28.40,35.28,290.00,3.00,0.00,30.14,M,10.00,M,CLR,M,M,M,M,M,M,M,M,M,M,M,M,M,M,55.40,KCXP 231015Z AUTO 29003KT 10SM CLR 13/M02 A3014 RMK AO2,M
TMT,2022-08-23 10:15,-117.1971,39.4643,1749.34,45.50,29.30,52.86,0.00,0.00,0.00,30.18,M,10.00,M,CLR,M,M,M,M,M,M,M,M,M,M,M,M,M,M,45.50,KTMT 231015Z AUTO 00000KT 10SM CLR 08/M01 A3018 RMK AO2 T00751015,M
BVU,2022-08-23 10:15,-114.8611,35.9475,671.00,86.00,59.00,40.14,0.00,0.00,0.00,29.86,M,M,M,M,M,M,M,M,M,M,M,M,M,M,M,M,M,M,85.47,KBVU 231015Z AUTO 00000KT 30/15 A2986 RMK AO2 PWINO TSNO,M
HTH,2022-08-23 10:15,-118.6315,38.5448,1282.89,71.60,33.80,24.86,240.00,4.00,0.00,30.08,M,10.00,M,CLR,M,M,M,M,M,M,M,M,M,M,M,M,M,M,71.60,KHTH 231015Z AUTO 24004KT 10SM CLR 22/01 A3008 RMK A01,M
TMT,2022-08-23 10:35,-117.1971,39.4643,1749.34,41.40,25.20,52.23,150.00,3.00,0.00,30.18,M,10.00,M,CLR,M,M,M,M,M,M,M,M,M,M,M,M,M,M,39.43,KTMT 231035Z AUTO 15003KT 10SM CLR 05/M04 A3018 RMK AO2 T00521038,M
BAM,2022-08-23 10:35,-116.8743,40.5990,1382.36,53.60,21.20,27.91,170.00,5.00,0.00,30.08,M,10.00,M,CLR,M,M,M,M,M,M,M,M,M,M,M,M,M,M,53.60,KBAM 231035Z AUTO 17005KT 10SM CLR 12/M06 A3008 RMK AO1,M
MEV,2022-08-23 10:35,-119.7500,38.9963,1441.42,48.20,30.20,49.53,0.00,0.00,0.00,30.13,M,10.00,M,CLR,M,M,M,M,M,M,M,M,M,M,M,M,M,M,48.20,KMEV 231035Z AUTO 00000KT 10SM CLR 09/M01 A3013 RMK AO2,M
RTS,2022-08-23 10:35,-119.8764,39.6682,1539.00,50.00,24.80,37.08,320.00,6.00,0.00,30.16,M,10.00,M,CLR,M,M,M,M,M,M,M,M,M,M,M,M,M,M,50.00,KRTS 231035Z AUTO 32006KT 10SM CLR 10/M04 A3016 RMK AO2,M
CXP,2022-08-23 10:35,-119.7326,39.1923,1431.00,57.20,30.20,35.57,0.00,0.00,0.00,30.14,M,10.00,M,CLR,M,M,M,M,M,M,M,M,M,M,M,M,M,M,57.20,KCXP 231035Z AUTO 00000KT 10SM CLR 14/M01 A3014 RMK AO2,M
BVU,2022-08-23 10:35,-114.8611,35.9475,671.00,86.00,59.00,40.14,110.00,3.00,0.00,29.86,M,M,M,M,M,M,M,M,M,M,M,M,M,M,M,M,M,M,85.47,KBVU 231035Z AUTO 11003KT 30/15 A2986 RMK AO2 PWINO TSNO,M
HTH,2022-08-23 10:35,-118.6315,38.5448,1282.89,69.80,33.80,26.43,260.00,5.00,0.00,30.08,M,10.00,M,CLR,M,M,M,M,M,M,M,M,M,M,M,M,M,M,69.80,KHTH 231035Z AUTO 26005KT 10SM CLR 21/01 A3008 RMK A01,M
DRA,2022-08-23 10:53,-116.0278,36.6206,1009.00,76.00,44.00,32.17,350.00,3.00,0.00,29.93,1007.70,10.00,M,CLR,M,M,M,M,M,M,M,M,M,M,M,M,M,M,75.90,KDRA 231053Z AUTO 35003KT 10SM CLR 24/07 A2993 RMK AO2 SLP077 T02440067,M
P68,2022-08-23 10:53,-116.0056,39.6014,1993.00,55.00,28.00,35.21,170.00,6.00,0.00,30.18,1012.90,M,M,M,M,M,M,M,M,M,M,M,M,M,M,M,M,M,55.00,KP68 231053Z AUTO 17006KT 13/M02 A3018 RMK AO1 SLP129 T01281022,M
VGT,2022-08-23 10:53,-115.1933,36.2111,667.00,87.00,55.00,33.55,330.00,3.00,0.00,29.84,1008.90,10.00,M,CLR,M,M,M,M,M,M,M,M,M,M,M,M,M,M,85.40,KVGT 231053Z AUTO 33003KT 10SM CLR 31/13 A2984 RMK AO2 SLP089 T03060128,M
LOL,2022-08-23 10:53,-118.5701,40.0684,1192.43,51.00,28.90,42.16,0.00,0.00,0.00,30.03,1012.80,10.00,M,CLR,M,M,M,M,M,M,M,M,M,M,M,M,M,M,51.10,KLOL 231053Z AUTO 00000KT 10SM CLR 11/M02 A3003 RMK AO2 SLP128 T01061017,M
ELY,2022-08-23 10:53,-114.8453,39.2950,1909.00,54.00,42.00,63.98,170.00,7.00,0.00,30.20,1012.30,10.00,M,CLR,M,M,M,M,M,M,M,M,M,M,M,M,M,M,54.00,KELY 231053Z AUTO 17007KT 10SM CLR 12/06 A3020 RMK AO2 SLP123 T01220056,M
CXP,2022-08-23 10:55,-119.7326,39.1923,1431.00,53.60,30.20,40.54,0.00,0.00,0.00,30.14,M,10.00,M,CLR,M,M,M,M,M,M,M,M,M,M,M,M,M,M,53.60,KCXP 231055Z AUTO 00000KT 10SM CLR 12/M01 A3014 RMK AO2,M
TMT,2022-08-23 10:55,-117.1971,39.4643,1749.34,43.50,26.40,50.64,0.00,0.00,0.00,30.18,M,10.00,M,CLR,M,M,M,M,M,M,M,M,M,M,M,M,M,M,43.50,KTMT 231055Z AUTO 00000KT 10SM CLR 06/M03 A3018 RMK AO2 T00641031,M
BAM,2022-08-23 10:55,-116.8743,40.5990,1382.36,51.80,21.20,29.82,0.00,0.00,0.00,30.08,M,10.00,M,CLR,M,M,M,M,M,M,M,M,M,M,M,M,M,M,51.80,KBAM 231055Z AUTO 00000KT 10SM CLR 11/M06 A3008 RMK AO1,M
MEV,2022-08-23 10:55,-119.7500,38.9963,1441.42,46.40,30.20,53.00,0.00,0.00,0.00,30.13,M,10.00,M,CLR,M,M,M,M,M,M,M,M,M,M,M,M,M,M,46.40,KMEV 231055Z AUTO 00000KT 10SM CLR 08/M01 A3013 RMK AO2,M
HTH,2022-08-23 10:55,-118.6315,38.5448,1282.89,69.80,33.80,26.43,250.00,4.00,0.00,30.08,M,10.00,M,CLR,M,M,M,M,M,M,M,M,M,M,M,M,M,M,69.80,KHTH 231055Z AUTO 25004KT 10SM CLR 21/01 A3008 RMK A01,M
BVU,2022-08-23 10:55,-114.8611,35.9475,671.00,84.20,60.80,45.34,60.00,5.00,0.00,29.86,M,M,M,M,M,M,M,M,M,M,M,M,M,M,M,M,M,M,84.43,KBVU 231055Z AUTO 06005KT 29/16 A2986 RMK AO2 PWINO TSNO,M
RTS,2022-08-23 10:55,-119.8764,39.6682,1539.00,51.80,24.80,34.69,0.00,0.00,0.00,30.16,M,10.00,M,CLR,M,M,M,M,M,M,M,M,M,M,M,M,M,M,51.80,KRTS 231055Z AUTO 00000KT 10SM CLR 11/M04 A3016 RMK AO2,M
RNO,2022-08-23 10:55,-119.7711,39.4839,1341.00,63.00,28.90,27.44,300.00,4.00,0.00,30.11,1013.40,10.00,M,CLR,M,M,M,M,M,M,M,M,M,M,M,M,M,M,63.00,KRNO 231055Z 30004KT 10SM CLR 17/M02 A3011 RMK AO2 SLP134 T01721017,M
LAS,2022-08-23 10:56,-115.1634,36.0719,663.00,87.00,54.00,32.34,210.00,3.00,0.00,29.85,1007.60,10.00,M,SCT,M,M,M,16000.00,M,M,M,M,M,M,M,M,M,M,85.19,KLAS 231056Z 21003KT 10SM SCT160 31/12 A2985 RMK AO2 SLP076 T03060122,M
NFL,2022-08-23 10:56,-118.7010,39.4166,1199.00,60.00,33.00,36.05,220.00,4.00,0.00,30.04,1014.10,10.00,M,CLR,M,M,M,M,M,M,M,M,M,M,M,M,M,M,60.10,KNFL 231056Z AUTO 22004KT 10SM CLR 16/01 A3004 RMK AO2 SLP141 T01560006,M
EKO,2022-08-23 10:56,-115.7860,40.8242,1367.00,50.00,28.90,43.92,60.00,4.00,0.00,30.11,1014.50,10.00,M,CLR,M,M,M,M,M,M,M,M,M,M,M,M,M,M,50.00,KEKO 231056Z AUTO 06004KT 10SM CLR 10/M02 A3011 RMK AO2 SLP145 T01001017,M
WMC,2022-08-23 10:56,-117.8072,40.9019,1315.00,50.00,25.00,37.39,150.00,6.00,0.00,30.06,1013.00,10.00,M,CLR,M,M,M,M,M,M,M,M,M,M,M,M,M,M,50.00,KWMC 231056Z AUTO 15006KT 10SM CLR 10/M04 A3006 RMK AO2 SLP130 T01001039,M
HND,2022-08-23 10:56,-115.1344,35.9729,742.79,83.00,54.00,37.01,180.00,4.00,0.00,29.89,1010.30,10.00,M,CLR,M,M,M,M,M,M,M,M,M,M,M,M,M,M,81.87,KHND 231056Z AUTO 18004KT 10SM CLR 28/12 A2989 RMK AO2 SLP103 T02830122,M
TPH,2022-08-23 10:56,-117.0904,38.0505,1654.00,69.00,30.00,23.22,360.00,7.00,0.00,30.13,1010.90,10.00,M,CLR,M,M,M,M,M,M,M,M,M,M,M,M,M,M,69.10,KTPH 231056Z AUTO 36007KT 10SM CLR 21/M01 A3013 RMK AO2 SLP109 T02061011,M
LSV,2022-08-23 10:58,-115.0343,36.2362,570.00,84.40,59.40,42.86,50.00,7.00,0.00,29.82,1006.90,10.00,M,CLR,M,M,M,M,M,M,M,M,M,M,M,M,M,M,84.19,KLSV 231058Z 05007KT 10SM CLR 29/15 A2982 RMK AO2A SLP069 T02910152 $,M
INS,2022-08-23 10:58,-115.6733,36.5872,955.00,77.50,45.30,31.94,250.00,3.00,0.00,29.93,1007.90,10.00,M,CLR,M,M,M,M,M,M,M,M,M,M,M,M,M,M,77.50,KINS 231058Z AUTO 25003KT 10SM CLR 25/07 A2993 RMK AO2 SLP079 T02530074 $,M
RTS,2022-08-23 11:15,-119.8764,39.6682,1539.00,50.00,24.80,37.08,0.00,0.00,0.00,30.15,M,10.00,M,CLR,M,M,M,M,M,M,M,M,M,M,M,M,M,M,50.00,KRTS 231115Z AUTO 00000KT 10SM CLR 10/M04 A3015 RMK AO2,M
TMT,2022-08-23 11:15,-117.1971,39.4643,1749.34,43.70,27.90,53.46,0.00,0.00,0.00,30.18,M,10.00,M,CLR,M,M,M,M,M,M,M,M,M,M,M,M,M,M,43.70,KTMT 231115Z AUTO 00000KT 10SM CLR 07/M02 A3018 RMK AO2 T00651023,M
BAM,2022-08-23 11:15,-116.8743,40.5990,1382.36,60.80,21.20,21.53,280.00,6.00,0.00,30.08,M,10.00,M,CLR,M,M,M,M,M,M,M,M,M,M,M,M,M,M,60.80,KBAM 231115Z AUTO 28006KT 10SM CLR 16/M06 A3008 RMK AO1,M
BVU,2022-08-23 11:15,-114.8611,35.9475,671.00,82.40,60.80,48.05,50.00,5.00,0.00,29.86,M,M,M,M,M,M,M,M,M,M,M,M,M,M,M,M,M,M,82.90,KBVU 231115Z AUTO 05005KT 28/16 A2986 RMK AO2 PWINO TSNO,M
CXP,2022-08-23 11:15,-119.7326,39.1923,1431.00,53.60,28.40,37.67,300.00,3.00,0.00,30.14,M,10.00,M,CLR,M,M,M,M,M,M,M,M,M,M,M,M,M,M,53.60,KCXP 231115Z AUTO 30003KT 10SM CLR 12/M02 A3014 RMK AO2,M
MEV,2022-08-23 11:15,-119.7500,38.9963,1441.42,44.60,33.80,65.61,0.00,0.00,0.00,30.13,M,10.00,M,CLR,M,M,M,M,M,M,M,M,M,M,M,M,M,M,44.60,KMEV 231115Z AUTO 00000KT 10SM CLR 07/01 A3013 RMK AO2,M
HTH,2022-08-23 11:15,-118.6315,38.5448,1282.89,68.00,33.80,28.11,220.00,6.00,0.00,30.07,M,10.00,M,CLR,M,M,M,M,M,M,M,M,M,M,M,M,M,M,68.00,KHTH 231115Z AUTO 22006KT 10SM CLR 20/01 A3007 RMK A01,M
BAM,2022-08-23 11:35,-116.8743,40.5990,1382.36,59.00,23.00,24.76,30.00,6.00,0.00,30.08,M,10.00,M,CLR,M,M,M,M,M,M,M,M,M,M,M,M,M,M,59.00,KBAM 231135Z AUTO 03006KT 10SM CLR 15/M05 A3008 RMK AO1,M
TMT,2022-08-23 11:35,-117.1971,39.4643,1749.34,44.60,28.60,53.16,0.00,0.00,0.00,30.18,M,10.00,M,CLR,M,M,M,M,M,M,M,M,M,M,M,M,M,M,44.60,KTMT 231135Z AUTO 00000KT 10SM CLR 07/M02 A3018 RMK AO2 T00701019,M
BVU,2022-08-23 11:35,-114.8611,35.9475,671.00,82.40,62.60,51.21,50.00,6.00,0.00,29.86,M,M,M,M,M,M,M,M,M,M,M,M,M,M,M,M,M,M,83.41,KBVU 231135Z AUTO 05006KT 28/17 A2986 RMK AO2 PWINO TSNO,M
CXP,2022-08-23 11:35,-119.7326,39.1923,1431.00,53.60,30.20,40.54,0.00,0.00,0.00,30.14,M,10.00,M,CLR,M,M,M,M,M,M,M,M,M,M,M,M,M,M,53.60,KCXP 231135Z AUTO 00000KT 10SM CLR 12/M01 A3014 RMK AO2,M
RTS,2022-08-23 11:35,-119.8764,39.6682,1539.00,48.20,26.60,42.73,0.00,0.00,0.00,30.15,M,10.00,M,CLR,M,M,M,M,M,M,M,M,M,M,M,M,M,M,48.20,KRTS 231135Z AUTO 00000KT 10SM CLR 09/M03 A3015 RMK AO2,M
MEV,2022-08-23 11:35,-119.7500,38.9963,1441.42,44.60,32.00,61.03,0.00,0.00,0.00,30.13,M,10.00,M,CLR,M,M,M,M,M,M,M,M,M,M,M,M,M,M,44.60,KMEV 231135Z AUTO 00000KT 10SM CLR 07/00 A3013 RMK AO2,M
HTH,2022-08-23 11:35,-118.6315,38.5448,1282.89,68.00,35.60,30.20,220.00,5.00,0.00,30.07,M,10.00,M,CLR,M,M,M,M,M,M,M,M,M,M,M,M,M,M,68.00,KHTH 231135Z AUTO 22005KT 10SM CLR 20/02 A3007 RMK A01,M
LOL,2022-08-23 11:53,-118.5701,40.0684,1192.43,55.00,30.00,38.21,280.00,3.00,0.00,30.03,1012.50,10.00,M,CLR,M,M,M,M,M,M,M,M,M,M,M,M,M,M,55.00,KLOL 231153Z AUTO 28003KT 10SM CLR 13/M01 A3003 RMK AO2 SLP125 T01281011 10256 20106 56002,M
DRA,2022-08-23 11:53,-116.0278,36.6206,1009.00,74.00,44.00,34.40,0.00,0.00,0.00,29.93,1007.80,10.00,M,CLR,M,M,M,M,M,M,M,M,M,M,M,M,M,M,73.90,KDRA 231153Z AUTO 00000KT 10SM CLR 23/07 A2993 RMK AO2 SLP078 T02330067 10306 20233 55002,M
VGT,2022-08-23 11:53,-115.1933,36.2111,667.00,85.00,55.00,35.99,350.00,4.00,0.00,29.85,1009.20,10.00,M,CLR,M,M,M,M,M,M,M,M,M,M,M,M,M,M,83.56,KVGT 231153Z AUTO 35004KT 10SM CLR 29/13 A2985 RMK AO2 SLP092 T02940128 10356 20294 53002,M
P68,2022-08-23 11:53,-116.0056,39.6014,1993.00,55.00,27.00,33.79,160.00,8.00,0.00,30.17,1012.50,M,M,M,M,M,M,M,M,M,M,M,M,M,M,M,M,M,55.00,KP68 231153Z AUTO 16008KT 13/M03 A3017 RMK AO1 SLP125 T01281028 10189 20106 56005,M
ELY,2022-08-23 11:53,-114.8453,39.2950,1909.00,53.00,42.00,66.13,170.00,5.00,0.00,30.19,1012.30,10.00,M,CLR,M,M,M,M,M,M,M,M,M,M,M,M,M,M,53.10,KELY 231153Z AUTO 17005KT 10SM CLR 12/06 A3019 RMK AO2 SLP123 T01170056 10200 20117 58006,M
RNO,2022-08-23 11:55,-119.7711,39.4839,1341.00,59.00,35.00,40.61,0.00,0.00,0.00,30.11,1013.70,10.00,M,CLR,M,M,M,M,M,M,M,M,M,M,M,M,M,M,59.00,KRNO 231155Z 00000KT 10SM CLR 15/02 A3011 RMK AO2 SLP137 T01500017 10239 20150 56004,M
TMT,2022-08-23 11:55,-117.1971,39.4643,1749.34,39.20,25.00,56.42,180.00,3.00,0.00,30.18,M,10.00,M,CLR,M,M,M,M,M,M,M,M,M,M,M,M,M,M,36.92,KTMT 231155Z AUTO 18003KT 10SM CLR 04/M04 A3018 RMK AO2 T00401039 10152 20036,M
BAM,2022-08-23 11:55,-116.8743,40.5990,1382.36,55.40,23.00,28.20,80.00,4.00,0.00,30.08,M,10.00,M,CLR,M,M,M,M,M,M,M,M,M,M,M,M,M,M,55.40,KBAM 231155Z AUTO 08004KT 10SM CLR 13/M05 A3008 RMK AO1,M
HTH,2022-08-23 11:55,-118.6315,38.5448,1282.89,68.00,35.60,30.20,210.00,4.00,0.00,30.07,M,10.00,M,CLR,M,M,M,M,M,M,M,M,M,M,M,M,M,M,68.00,KHTH 231155Z AUTO 21004KT 10SM CLR 20/02 A3007 RMK A01,M
MEV,2022-08-23 11:55,-119.7500,38.9963,1441.42,44.60,32.00,61.03,0.00,0.00,0.00,30.13,M,10.00,M,CLR,M,M,M,M,M,M,M,M,M,M,M,M,M,M,44.60,KMEV 231155Z AUTO 00000KT 10SM CLR 07/M00 A3013 RMK AO2,M
RTS,2022-08-23 11:55,-119.8764,39.6682,1539.00,50.00,26.60,39.95,320.00,5.00,0.00,30.15,M,10.00,M,CLR,M,M,M,M,M,M,M,M,M,M,M,M,M,M,50.00,KRTS 231155Z AUTO 32005KT 10SM CLR 10/M03 A3015 RMK AO2,M
CXP,2022-08-23 11:55,-119.7326,39.1923,1431.00,50.00,32.00,49.81,0.00,0.00,0.00,30.14,M,10.00,M,CLR,M,M,M,M,M,M,M,M,M,M,M,M,M,M,50.00,KCXP 231155Z AUTO 00000KT 10SM CLR 10/M00 A3014 RMK AO2,M
BVU,2022-08-23 11:55,-114.8611,35.9475,671.00,82.40,62.60,51.21,40.00,5.00,0.00,29.86,M,M,M,M,M,M,M,M,M,M,M,M,M,M,M,M,M,M,83.41,KBVU 231155Z AUTO 04005KT 28/17 A2986 RMK AO2 PWINO TSNO,M
NFL,2022-08-23 11:56,-118.7010,39.4166,1199.00,60.00,30.00,31.80,160.00,8.00,0.00,30.03,1014.00,10.00,M,CLR,M,M,M,M,M,M,M,M,M,M,M,M,M,M,60.10,KNFL 231156Z AUTO 16008KT 10SM CLR 16/M01 A3003 RMK AO2 SLP140 T01561011 10256 20144 56003,M
WMC,2022-08-23 11:56,-117.8072,40.9019,1315.00,47.00,23.00,38.62,0.00,0.00,0.00,30.05,1013.00,10.00,M,CLR,M,M,M,M,M,M,M,M,M,M,M,M,M,M,46.90,KWMC 231156Z AUTO 00000KT 10SM CLR 08/M05 A3005 RMK AO2 SLP130 T00831050 10172 20078 58001,M
TPH,2022-08-23 11:56,-117.0904,38.0505,1654.00,68.00,30.00,24.12,10.00,12.00,0.00,30.13,1010.90,10.00,M,CLR,M,M,M,M,M,M,M,M,M,M,M,M,M,M,68.00,KTPH 231156Z AUTO 01012KT 10SM CLR 20/M01 A3013 RMK AO2 SLP109 T02001011 10239 20194 56002,M
LAS,2022-08-23 11:56,-115.1634,36.0719,663.00,85.00,57.00,38.69,300.00,3.00,0.00,29.86,1007.80,10.00,M,FEW,M,M,M,16000.00,M,M,M,M,M,M,M,M,M,M,83.99,KLAS 231156Z 30003KT 10SM FEW160 29/14 A2986 RMK AO2 SLP078 T02940139 10344 20294 53003,M
EKO,2022-08-23 11:56,-115.7860,40.8242,1367.00,48.00,28.00,45.61,100.00,3.00,0.00,30.11,1014.80,10.00,M,CLR,M,M,M,M,M,M,M,M,M,M,M,M,M,M,46.98,KEKO 231156Z AUTO 10003KT 10SM CLR 09/M02 A3011 RMK AO2 SLP148 T00891022 10200 20072 50001,M
INS,2022-08-23 11:58,-115.6733,36.5872,955.00,76.50,45.00,32.76,0.00,0.00,0.00,29.93,M,10.00,M,CLR,M,M,M,M,M,M,M,M,M,M,M,M,M,M,76.50,KINS 231158Z AUTO 00000KT 10SM CLR 25/07 A2993 RMK AO2 SLPNO T02470073 10310 20244 53001 $,M
LSV,2022-08-23 11:58,-115.0343,36.2362,570.00,84.20,61.70,46.81,30.00,4.00,0.00,29.82,1007.00,10.00,M,CLR,M,M,M,M,M,M,M,M,M,M,M,M,M,M,84.72,KLSV 231158Z 03004KT 10SM CLR 29/17 A2982 RMK AO2A SLP070 T02900165 10323 20286 53003 $,M
MEV,2022-08-23 12:15,-119.7500,38.9963,1441.42,42.80,30.20,60.79,0.00,0.00,0.00,30.12,M,10.00,M,CLR,M,M,M,M,M,M,M,M,M,M,M,M,M,M,42.80,KMEV 231215Z AUTO 00000KT 10SM CLR 06/M01 A3012 RMK AO2,M
BAM,2022-08-23 12:15,-116.8743,40.5990,1382.36,55.40,23.00,28.20,70.00,4.00,0.00,30.08,M,10.00,M,CLR,M,M,M,M,M,M,M,M,M,M,M,M,M,M,55.40,KBAM 231215Z AUTO 07004KT 10SM CLR 13/M05 A3008 RMK AO1,M
RTS,2022-08-23 12:15,-119.8764,39.6682,1539.00,51.80,24.80,34.69,290.00,4.00,0.00,30.15,M,10.00,M,CLR,M,M,M,M,M,M,M,M,M,M,M,M,M,M,51.80,KRTS 231215Z AUTO 29004KT 10SM CLR 11/M04 A3015 RMK AO2,M
TMT,2022-08-23 12:15,-117.1971,39.4643,1749.34,40.00,26.20,57.71,130.00,3.00,0.00,30.18,M,10.00,M,CLR,M,M,M,M,M,M,M,M,M,M,M,M,M,M,37.72,KTMT 231215Z AUTO 13003KT 10SM CLR 04/M03 A3018 RMK AO2 T00441032,M
CXP,2022-08-23 12:15,-119.7326,39.1923,1431.00,50.00,33.80,53.54,0.00,0.00,0.00,30.13,M,10.00,M,CLR,M,M,M,M,M,M,M,M,M,M,M,M,M,M,50.00,KCXP 231215Z AUTO 00000KT 10SM CLR 10/01 A3013 RMK AO2,M
BVU,2022-08-23 12:15,-114.8611,35.9475,671.00,82.40,62.60,51.21,50.00,4.00,0.00,29.86,M,M,M,M,M,M,M,M,M,M,M,M,M,M,M,M,M,M,83.41,KBVU 231215Z AUTO 05004KT 28/17 A2986 RMK AO2 PWINO TSNO,M
HTH,2022-08-23 12:15,-118.6315,38.5448,1282.89,66.20,35.60,32.14,190.00,4.00,0.00,30.07,M,10.00,M,CLR,M,M,M,M,M,M,M,M,M,M,M,M,M,M,66.20,KHTH 231215Z AUTO 19004KT 10SM CLR 19/02 A3007 RMK A01,M
HTH,2022-08-23 12:35,-118.6315,38.5448,1282.89,66.20,35.60,32.14,230.00,4.00,0.00,30.07,M,10.00,M,CLR,M,M,M,M,M,M,M,M,M,M,M,M,M,M,66.20,KHTH 231235Z AUTO 23004KT 10SM CLR 19/02 A3007 RMK A01,M
MEV,2022-08-23 12:35,-119.7500,38.9963,1441.42,41.00,28.40,60.54,110.00,4.00,0.00,30.12,M,10.00,M,CLR,M,M,M,M,M,M,M,M,M,M,M,M,M,M,37.93,KMEV 231235Z AUTO 11004KT 10SM CLR 05/M02 A3012 RMK AO2,M
RTS,2022-08-23 12:35,-119.8764,39.6682,1539.00,48.20,26.60,42.73,340.00,6.00,0.00,30.15,M,10.00,M,CLR,M,M,M,M,M,M,M,M,M,M,M,M,M,M,45.04,KRTS 231235Z AUTO 34006KT 10SM CLR 09/M03 A3015 RMK AO2,M
CXP,2022-08-23 12:35,-119.7326,39.1923,1431.00,48.20,30.20,49.53,310.00,4.00,0.00,30.14,M,10.00,M,CLR,M,M,M,M,M,M,M,M,M,M,M,M,M,M,46.34,KCXP 231235Z AUTO 31004KT 10SM CLR 09/M01 A3014 RMK AO2,M
BVU,2022-08-23 12:35,-114.8611,35.9475,671.00,82.40,62.60,51.21,50.00,5.00,0.00,29.86,M,M,M,M,M,M,M,M,M,M,M,M,M,M,M,M,M,M,83.41,KBVU 231235Z AUTO 05005KT 28/17 A2986 RMK AO2 PWINO TSNO,M
TMT,2022-08-23 12:35,-117.1971,39.4643,1749.34,42.00,26.10,53.18,150.00,3.00,0.00,30.18,M,10.00,M,CLR,M,M,M,M,M,M,M,M,M,M,M,M,M,M,40.01,KTMT 231235Z AUTO 15003KT 10SM CLR 06/M03 A3018 RMK AO2 T00551033,M
BAM,2022-08-23 12:35,-116.8743,40.5990,1382.36,51.80,23.00,32.17,190.00,6.00,0.00,30.08,M,10.00,M,CLR,M,M,M,M,M,M,M,M,M,M,M,M,M,M,51.80,KBAM 231235Z AUTO 19006KT 10SM CLR 11/M05 A3008 RMK AO1,M
HND,2022-08-23 12:51,-115.1344,35.9729,742.79,80.60,51.80,36.79,180.00,6.00,0.00,29.90,M,10.00,M,CLR,M,M,M,M,M,M,M,M,M,M,M,M,M,M,80.08,KHND 231251Z 18006KT 10SM CLR 27/11 A2990 RMK FX,M
ELY,2022-08-23 12:53,-114.8453,39.2950,1909.00,51.00,43.00,73.69,170.00,6.00,0.00,30.20,1012.60,10.00,M,CLR,M,M,M,M,M,M,M,M,M,M,M,M,M,M,51.10,KELY 231253Z AUTO 17006KT 10SM CLR 11/06 A3020 RMK AO2 SLP126 T01060061,M
LOL,2022-08-23 12:53,-118.5701,40.0684,1192.43,53.00,30.90,42.48,60.00,3.00,0.00,30.03,1012.90,10.00,M,CLR,M,M,M,M,M,M,M,M,M,M,M,M,M,M,53.10,KLOL 231253Z AUTO 06003KT 10SM CLR 12/M01 A3003 RMK AO2 SLP129 T01171006,M
VGT,2022-08-23 12:53,-115.1933,36.2111,667.00,84.00,56.00,38.28,310.00,6.00,0.00,29.85,1009.30,10.00,M,CLR,M,M,M,M,M,M,M,M,M,M,M,M,M,M,83.03,KVGT 231253Z 31006KT 10SM CLR 29/13 A2985 RMK AO2 SLP093 T02890133,M
DRA,2022-08-23 12:53,-116.0278,36.6206,1009.00,74.00,45.00,35.60,10.00,3.00,0.00,29.94,1008.00,10.00,M,CLR,M,M,M,M,M,M,M,M,M,M,M,M,M,M,73.90,KDRA 231253Z AUTO 01003KT 10SM CLR 23/07 A2994 RMK AO2 SLP080 T02330072,M
P68,2022-08-23 12:53,-116.0056,39.6014,1993.00,55.00,28.00,35.21,190.00,9.00,0.00,30.16,1012.70,M,M,M,M,M,M,M,M,M,M,M,M,M,M,M,M,M,55.00,KP68 231253Z AUTO 19009KT 13/M02 A3016 RMK AO1 SLP127 T01281022,M
CXP,2022-08-23 12:55,-119.7326,39.1923,1431.00,50.00,28.40,43.03,0.00,0.00,0.00,30.13,M,10.00,M,CLR,M,M,M,M,M,M,M,M,M,M,M,M,M,M,50.00,KCXP 231255Z AUTO 00000KT 10SM CLR 10/M02 A3013 RMK AO2,M
HTH,2022-08-23 12:55,-118.6315,38.5448,1282.89,64.40,37.40,36.74,0.00,0.00,0.00,30.07,M,10.00,M,CLR,M,M,M,M,M,M,M,M,M,M,M,M,M,M,64.40,KHTH 231255Z AUTO 00000KT 10SM CLR 18/03 A3007 RMK A01,M
BAM,2022-08-23 12:55,-116.8743,40.5990,1382.36,51.80,23.00,32.17,0.00,0.00,0.00,30.08,M,10.00,M,CLR,M,M,M,M,M,M,M,M,M,M,M,M,M,M,51.80,KBAM 231255Z AUTO 00000KT 10SM CLR 11/M05 A3008 RMK AO1,M
MEV,2022-08-23 12:55,-119.7500,38.9963,1441.42,42.80,30.20,60.79,0.00,0.00,0.00,30.13,M,10.00,M,CLR,M,M,M,M,M,M,M,M,M,M,M,M,M,M,42.80,KMEV 231255Z AUTO 00000KT 10SM CLR 06/M01 A3013 RMK AO2,M
RTS,2022-08-23 12:55,-119.8764,39.6682,1539.00,48.20,26.60,42.73,310.00,3.00,0.00,30.15,M,10.00,M,CLR,M,M,M,M,M,M,M,M,M,M,M,M,M,M,47.21,KRTS 231255Z AUTO 31003KT 10SM CLR 09/M03 A3015 RMK AO2,M
RNO,2022-08-23 12:55,-119.7711,39.4839,1341.00,59.00,34.00,38.87,0.00,0.00,0.00,30.11,1013.80,10.00,M,CLR,M,M,M,M,M,M,M,M,M,M,M,M,M,M,59.00,KRNO 231255Z 00000KT 10SM CLR 15/01 A3011 RMK AO2 SLP138 T01500011,M
TMT,2022-08-23 12:55,-117.1971,39.4643,1749.34,41.20,26.20,54.87,0.00,0.00,0.00,30.18,M,10.00,M,CLR,M,M,M,M,M,M,M,M,M,M,M,M,M,M,41.20,KTMT 231255Z AUTO 00000KT 10SM CLR 05/M03 A3018 RMK AO2 T00511032,M
BVU,2022-08-23 12:55,-114.8611,35.9475,671.00,82.40,62.60,51.21,80.00,5.00,0.00,29.87,M,M,M,M,M,M,M,M,M,M,M,M,M,M,M,M,M,M,83.41,KBVU 231255Z AUTO 08005KT 28/17 A2987 RMK AO2 PWINO TSNO,M
TPH,2022-08-23 12:56,-117.0904,38.0505,1654.00,65.00,30.90,27.85,20.00,8.00,0.00,30.14,1011.50,10.00,M,CLR,M,M,M,M,M,M,M,M,M,M,M,M,M,M,64.90,KTPH 231256Z AUTO 02008KT 10SM CLR 18/M01 A3014 RMK AO2 SLP115 T01831006,M
EKO,2022-08-23 12:56,-115.7860,40.8242,1367.00,48.00,28.00,45.61,30.00,4.00,0.00,30.12,1015.10,10.00,M,CLR,M,M,M,M,M,M,M,M,M,M,M,M,M,M,46.10,KEKO 231256Z AUTO 03004KT 10SM CLR 09/M02 A3012 RMK AO2 SLP151 T00891022,M
WMC,2022-08-23 12:56,-117.8072,40.9019,1315.00,51.00,23.00,33.01,0.00,0.00,0.00,30.05,1012.70,10.00,M,CLR,M,M,M,M,M,M,M,M,M,M,M,M,M,M,51.10,KWMC 231256Z AUTO 00000KT 10SM CLR 11/M05 A3005 RMK AO2 SLP127 T01061050,M
LAS,2022-08-23 12:56,-115.1634,36.0719,663.00,84.00,57.00,39.83,290.00,5.00,0.00,29.86,1007.90,10.00,M,FEW,M,M,M,12000.00,M,M,M,M,M,M,M,M,M,M,83.26,KLAS 231256Z 29005KT 10SM FEW120 29/14 A2986 RMK AO2 SLP079 T02890139,M
NFL,2022-08-23 12:56,-118.7010,39.4166,1199.00,59.00,30.90,34.31,160.00,6.00,0.00,30.04,1014.00,10.00,M,CLR,M,M,M,M,M,M,M,M,M,M,M,M,M,M,59.00,KNFL 231256Z AUTO 16006KT 10SM CLR 15/M01 A3004 RMK AO2 SLP140 T01501006,M
INS,2022-08-23 12:58,-115.6733,36.5872,955.00,75.60,46.80,36.00,0.00,0.00,0.00,29.93,1008.00,10.00,M,CLR,M,M,M,M,M,M,M,M,M,M,M,M,M,M,75.60,KINS 231258Z AUTO 00000KT 10SM CLR 24/08 A2993 RMK AO2 SLP080 T02420082 $,M
LSV,2022-08-23 12:58,-115.0343,36.2362,570.00,83.50,62.20,48.73,40.00,7.00,0.00,29.83,1007.30,10.00,M,CLR,M,M,M,M,M,M,M,M,M,M,M,M,M,M,84.26,KLSV 231258Z 04007KT 10SM CLR 29/17 A2983 RMK AO2A SLP073 T02860168 $,M
BVU,2022-08-23 13:15,-114.8611,35.9475,671.00,80.60,62.60,54.30,60.00,6.00,0.00,29.87,M,M,M,M,M,M,M,M,M,M,M,M,M,M,M,M,M,M,81.84,KBVU 231315Z AUTO 06006KT 27/17 A2987 RMK AO2 PWINO TSNO,M
CXP,2022-08-23 13:15,-119.7326,39.1923,1431.00,50.00,30.20,46.31,0.00,0.00,0.00,30.13,M,10.00,M,CLR,M,M,M,M,M,M,M,M,M,M,M,M,M,M,50.00,KCXP 231315Z AUTO 00000KT 10SM CLR 10/M01 A3013 RMK AO2,M
RTS,2022-08-23 13:15,-119.8764,39.6682,1539.00,46.40,24.80,42.44,330.00,5.00,0.00,30.15,M,10.00,M,CLR,M,M,M,M,M,M,M,M,M,M,M,M,M,M,43.50,KRTS 231315Z AUTO 33005KT 10SM CLR 08/M04 A3015 RMK AO2,M
MEV,2022-08-23 13:15,-119.7500,38.9963,1441.42,41.00,30.20,65.16,0.00,0.00,0.00,30.13,M,10.00,M,CLR,M,M,M,M,M,M,M,M,M,M,M,M,M,M,41.00,KMEV 231315Z AUTO 00000KT 10SM CLR 05/M01 A3013 RMK AO2,M
BAM,2022-08-23 13:15,-116.8743,40.5990,1382.36,48.20,19.40,31.57,0.00,0.00,0.00,30.08,M,10.00,M,CLR,M,M,M,M,M,M,M,M,M,M,M,M,M,M,48.20,KBAM 231315Z AUTO 00000KT 10SM CLR 09/M07 A3008 RMK AO1,M
HTH,2022-08-23 13:15,-118.6315,38.5448,1282.89,62.60,33.80,33.93,70.00,3.00,0.00,30.07,M,10.00,M,CLR,M,M,M,M,M,M,M,M,M,M,M,M,M,M,62.60,KHTH 231315Z AUTO 07003KT 10SM CLR 17/01 A3007 RMK A01,M
TMT,2022-08-23 13:15,-117.1971,39.4643,1749.34,42.30,30.60,62.98,0.00,0.00,0.00,30.18,M,10.00,M,CLR,M,M,M,M,M,M,M,M,M,M,M,M,M,M,42.30,KTMT 231315Z AUTO 00000KT 10SM CLR 06/M01 A3018 RMK AO2 T00571008,M
CXP,2022-08-23 13:30,-119.7326,39.1923,1431.00,48.20,32.00,53.27,0.00,0.00,0.00,30.14,M,10.00,M,CLR,M,M,M,M,M,M,M,M,M,M,M,M,M,M,48.20,KCXP 231330Z AUTO 00000KT 10SM CLR 09/00 A3014 RMK AO2,M
MEV,2022-08-23 13:35,-119.7500,38.9963,1441.42,41.00,30.20,65.16,0.00,0.00,0.00,30.13,M,10.00,M,CLR,M,M,M,M,M,M,M,M,M,M,M,M,M,M,41.00,KMEV 231335Z AUTO 00000KT 10SM CLR 05/M01 A3013 RMK AO2,M
RTS,2022-08-23 13:35,-119.8764,39.6682,1539.00,48.20,26.60,42.73,360.00,5.00,0.00,30.14,M,10.00,M,CLR,M,M,M,M,M,M,M,M,M,M,M,M,M,M,45.63,KRTS 231335Z AUTO 36005KT 10SM CLR 09/M03 A3014 RMK AO2,M
HTH,2022-08-23 13:35,-118.6315,38.5448,1282.89,64.40,37.40,36.74,180.00,3.00,0.00,30.07,M,10.00,M,CLR,M,M,M,M,M,M,M,M,M,M,M,M,M,M,64.40,KHTH 231335Z AUTO 18003KT 10SM CLR 18/03 A3007 RMK A01,M
TMT,2022-08-23 13:35,-117.1971,39.4643,1749.34,42.30,30.90,63.75,0.00,0.00,0.00,30.18,M,10.00,M,CLR,M,M,M,M,M,M,M,M,M,M,M,M,M,M,42.30,KTMT 231335Z AUTO 00000KT 10SM CLR 06/M01 A3018 RMK AO2 T00571006,M
BVU,2022-08-23 13:35,-114.8611,35.9475,671.00,82.40,62.60,51.21,40.00,5.00,0.00,29.88,M,M,M,M,M,M,M,M,M,M,M,M,M,M,M,M,M,M,83.41,KBVU 231335Z AUTO 04005KT 28/17 A2988 RMK AO2 PWINO TSNO,M
BAM,2022-08-23 13:35,-116.8743,40.5990,1382.36,51.80,21.20,29.82,0.00,0.00,0.00,30.09,M,10.00,M,CLR,M,M,M,M,M,M,M,M,M,M,M,M,M,M,51.80,KBAM 231335Z AUTO 00000KT 10SM CLR 11/M06 A3009 RMK AO1,M
P68,2022-08-23 13:53,-116.0056,39.6014,1993.00,55.00,30.00,38.21,220.00,5.00,0.00,30.17,1012.90,M,M,M,M,M,M,M,M,M,M,M,M,M,M,M,M,M,55.00,KP68 231353Z AUTO 22005KT 13/M01 A3017 RMK AO1 SLP129 T01281011,M
DRA,2022-08-23 13:53,-116.0278,36.6206,1009.00,77.00,46.00,33.34,0.00,0.00,0.00,29.95,1008.40,10.00,M,CLR,M,M,M,M,M,M,M,M,M,M,M,M,M,M,77.00,KDRA 231353Z AUTO 00000KT 10SM CLR 25/08 A2995 RMK AO2 SLP084 T02500078,M
ELY,2022-08-23 13:53,-114.8453,39.2950,1909.00,56.00,43.00,61.81,160.00,6.00,0.00,30.20,1012.70,10.00,M,CLR,M,M,M,M,M,M,M,M,M,M,M,M,M,M,55.90,KELY 231353Z AUTO 16006KT 10SM CLR 13/06 A3020 RMK AO2 SLP127 T01330061,M
VGT,2022-08-23 13:53,-115.1933,36.2111,667.00,83.00,57.00,41.27,350.00,5.00,0.00,29.87,1009.90,10.00,M,CLR,M,M,M,M,M,M,M,M,M,M,M,M,M,M,82.41,KVGT 231353Z 35005KT 10SM CLR 28/14 A2987 RMK AO2 SLP099 T02830139,M
LOL,2022-08-23 13:53,-118.5701,40.0684,1192.43,51.00,28.90,42.16,90.00,6.00,0.00,30.04,1013.40,10.00,M,CLR,M,M,M,M,M,M,M,M,M,M,M,M,M,M,51.10,KLOL 231353Z AUTO 09006KT 10SM CLR 11/M02 A3004 RMK AO2 SLP134 T01061017,M
HTH,2022-08-23 13:55,-118.6315,38.5448,1282.89,68.00,32.00,26.15,200.00,4.00,0.00,30.07,M,10.00,M,CLR,M,M,M,M,M,M,M,M,M,M,M,M,M,M,68.00,KHTH 231355Z AUTO 20004KT 10SM CLR 20/00 A3007 RMK A01,M
RTS,2022-08-23 13:55,-119.8764,39.6682,1539.00,50.00,26.60,39.95,0.00,0.00,0.00,30.15,M,10.00,M,CLR,M,M,M,M,M,M,M,M,M,M,M,M,M,M,50.00,KRTS 231355Z AUTO 00000KT 10SM CLR 10/M03 A3015 RMK AO2,M
MEV,2022-08-23 13:55,-119.7500,38.9963,1441.42,42.80,32.00,65.38,0.00,0.00,0.00,30.13,M,10.00,M,CLR,M,M,M,M,M,M,M,M,M,M,M,M,M,M,42.80,KMEV 231355Z AUTO 00000KT 10SM CLR 06/M00 A3013 RMK AO2,M
BAM,2022-08-23 13:55,-116.8743,40.5990,1382.36,53.60,23.00,30.11,0.00,0.00,0.00,30.09,M,10.00,M,CLR,M,M,M,M,M,M,M,M,M,M,M,M,M,M,53.60,KBAM 231355Z AUTO 00000KT 10SM CLR 12/M05 A3009 RMK AO1,M
RNO,2022-08-23 13:55,-119.7711,39.4839,1341.00,58.00,35.00,42.24,0.00,0.00,0.00,30.11,1014.20,10.00,M,CLR,M,M,M,M,M,M,M,M,M,M,M,M,M,M,57.90,KRNO 231355Z 00000KT 10SM CLR 14/02 A3011 RMK AO2 SLP142 T01440017,M
BVU,2022-08-23 13:55,-114.8611,35.9475,671.00,82.40,62.60,51.21,50.00,5.00,0.00,29.88,M,M,M,M,M,M,M,M,M,M,M,M,M,M,M,M,M,M,83.41,KBVU 231355Z AUTO 05005KT 28/17 A2988 RMK AO2 PWINO TSNO,M
CXP,2022-08-23 13:55,-119.7326,39.1923,1431.00,50.00,32.00,49.81,0.00,0.00,0.00,30.14,M,10.00,M,CLR,M,M,M,M,M,M,M,M,M,M,M,M,M,M,50.00,KCXP 231355Z AUTO 00000KT 10SM CLR 10/M00 A3014 RMK AO2,M
TMT,2022-08-23 13:55,-117.1971,39.4643,1749.34,45.30,30.60,56.16,0.00,0.00,0.00,30.18,M,10.00,M,CLR,M,M,M,M,M,M,M,M,M,M,M,M,M,M,45.30,KTMT 231355Z AUTO 00000KT 10SM CLR 07/M01 A3018 RMK AO2 T00741008,M
NFL,2022-08-23 13:56,-118.7010,39.4166,1199.00,61.00,30.00,30.80,150.00,6.00,0.00,30.04,1014.10,10.00,M,CLR,M,M,M,M,M,M,M,M,M,M,M,M,M,M,61.00,KNFL 231356Z AUTO 15006KT 10SM CLR 16/M01 A3004 RMK AO2 SLP141 T01611011,M
LAS,2022-08-23 13:56,-115.1634,36.0719,663.00,85.00,58.00,39.97,280.00,3.00,0.00,29.88,1008.50,10.00,M,FEW,M,M,M,12000.00,M,M,M,M,M,M,M,M,M,M,84.21,KLAS 231356Z 28003KT 10SM FEW120 29/14 A2988 RMK AO2 SLP085 T02940144,M
EKO,2022-08-23 13:56,-115.7860,40.8242,1367.00,49.00,28.90,45.75,50.00,3.00,0.00,30.13,1015.60,10.00,M,CLR,M,M,M,M,M,M,M,M,M,M,M,M,M,M,48.01,KEKO 231356Z AUTO 05003KT 10SM CLR 09/M02 A3013 RMK AO2 SLP156 T00941017,M
WMC,2022-08-23 13:56,-117.8072,40.9019,1315.00,52.00,26.10,36.34,140.00,6.00,0.00,30.06,1013.30,10.00,M,CLR,M,M,M,M,M,M,M,M,M,M,M,M,M,M,52.00,KWMC 231356Z AUTO 14006KT 10SM CLR 11/M03 A3006 RMK AO2 SLP133 T01111033,M
TPH,2022-08-23 13:56,-117.0904,38.0505,1654.00,64.00,32.00,30.05,340.00,8.00,0.00,30.14,1012.20,10.00,M,CLR,M,M,M,M,M,M,M,M,M,M,M,M,M,M,64.00,KTPH 231356Z AUTO 34008KT 10SM CLR 18/00 A3014 RMK AO2 SLP122 T01780000,M
LSV,2022-08-23 13:58,-115.0343,36.2362,570.00,84.20,63.50,49.87,50.00,8.00,0.00,29.85,1008.00,10.00,M,CLR,M,M,M,M,M,M,M,M,M,M,M,M,M,M,85.36,KLSV 231358Z 05008KT 10SM CLR 29/18 A2985 RMK AO2A SLP080 T02900175 $,M
INS,2022-08-23 13:58,-115.6733,36.5872,955.00,73.40,44.80,35.93,0.00,0.00,0.00,29.94,1008.50,10.00,M,CLR,M,M,M,M,M,M,M,M,M,M,M,M,M,M,73.40,KINS 231358Z AUTO 00000KT 10SM CLR 23/07 A2994 RMK AO2 SLP085 T02300071 $,M
TMT,2022-08-23 14:15,-117.1971,39.4643,1749.34,46.40,27.70,47.85,100.00,3.00,0.00,30.18,M,10.00,M,CLR,M,M,M,M,M,M,M,M,M,M,M,M,M,M,45.15,KTMT 231415Z AUTO 10003KT 10SM CLR 08/M02 A3018 RMK AO2 T00801024,M
HTH,2022-08-23 14:15,-118.6315,38.5448,1282.89,68.00,32.00,26.15,0.00,0.00,0.00,30.07,M,10.00,M,CLR,M,M,M,M,M,M,M,M,M,M,M,M,M,M,68.00,KHTH 231415Z AUTO 00000KT 10SM CLR 20/M00 A3007 RMK A01,M
BAM,2022-08-23 14:15,-116.8743,40.5990,1382.36,59.00,23.00,24.76,0.00,0.00,0.00,30.09,M,10.00,M,CLR,M,M,M,M,M,M,M,M,M,M,M,M,M,M,59.00,KBAM 231415Z AUTO 00000KT 10SM CLR 15/M05 A3009 RMK AO1,M
MEV,2022-08-23 14:15,-119.7500,38.9963,1441.42,48.20,32.00,53.27,0.00,0.00,0.00,30.13,M,5.00,M,CLR,M,M,M,M,M,M,M,HZ,M,M,M,M,M,M,48.20,KMEV 231415Z AUTO 00000KT 5SM HZ CLR 09/00 A3013 RMK AO2,M
RTS,2022-08-23 14:15,-119.8764,39.6682,1539.00,53.60,26.60,34.98,0.00,0.00,0.00,30.15,M,10.00,M,CLR,M,M,M,M,M,M,M,M,M,M,M,M,M,M,53.60,KRTS 231415Z AUTO 00000KT 10SM CLR 12/M03 A3015 RMK AO2,M
CXP,2022-08-23 14:15,-119.7326,39.1923,1431.00,53.60,32.00,43.61,0.00,0.00,0.00,30.14,M,10.00,M,CLR,M,M,M,M,M,M,M,M,M,M,M,M,M,M,53.60,KCXP 231415Z AUTO 00000KT 10SM CLR 12/M00 A3014 RMK AO2,M
BVU,2022-08-23 14:15,-114.8611,35.9475,671.00,84.20,62.60,48.32,50.00,5.00,0.00,29.88,M,M,M,M,M,M,M,M,M,M,M,M,M,M,M,M,M,M,85.03,KBVU 231415Z AUTO 05005KT 29/17 A2988 RMK AO2 PWINO TSNO,M
CXP,2022-08-23 14:35,-119.7326,39.1923,1431.00,59.00,30.20,33.35,0.00,0.00,0.00,30.14,M,10.00,M,CLR,M,M,M,M,M,M,M,M,M,M,M,M,M,M,59.00,KCXP 231435Z AUTO 00000KT 10SM CLR 15/M01 A3014 RMK AO2,M
RTS,2022-08-23 14:35,-119.8764,39.6682,1539.00,55.40,28.40,35.28,0.00,0.00,0.00,30.15,M,10.00,M,CLR,M,M,M,M,M,M,M,M,M,M,M,M,M,M,55.40,KRTS 231435Z AUTO 00000KT 10SM CLR 13/M02 A3015 RMK AO2,M
HTH,2022-08-23 14:35,-118.6315,38.5448,1282.89,69.80,33.80,26.43,0.00,0.00,0.00,30.07,M,10.00,M,CLR,M,M,M,M,M,M,M,M,M,M,M,M,M,M,69.80,KHTH 231435Z AUTO 00000KT 10SM CLR 21/01 A3007 RMK A01,M
BVU,2022-08-23 14:35,-114.8611,35.9475,671.00,86.00,62.60,45.61,60.00,5.00,0.00,29.88,M,M,M,M,M,M,M,M,M,M,M,M,M,M,M,M,M,M,86.72,KBVU 231435Z AUTO 06005KT 30/17 A2988 RMK AO2 PWINO TSNO,M
BAM,2022-08-23 14:35,-116.8743,40.5990,1382.36,60.80,23.00,23.23,0.00,0.00,0.00,30.09,M,10.00,M,CLR,M,M,M,M,M,M,M,M,M,M,M,M,M,M,60.80,KBAM 231435Z AUTO 00000KT 10SM CLR 16/M05 A3009 RMK AO1,M
MEV,2022-08-23 14:35,-119.7500,38.9963,1441.42,51.80,32.00,46.59,0.00,0.00,0.00,30.12,M,10.00,M,CLR,M,M,M,M,M,M,M,M,M,M,M,M,M,M,51.80,KMEV 231435Z AUTO 00000KT 10SM CLR 11/00 A3012 RMK AO2,M
TMT,2022-08-23 14:35,-117.1971,39.4643,1749.34,51.00,28.80,41.99,0.00,0.00,0.00,30.18,M,10.00,M,CLR,M,M,M,M,M,M,M,M,M,M,M,M,M,M,51.10,KTMT 231435Z AUTO 00000KT 10SM CLR 11/M02 A3018 RMK AO2 T01061018,M
NFL,2022-08-23 14:38,-118.7010,39.4166,1199.00,69.00,30.00,23.22,190.00,3.00,0.00,30.04,M,10.00,M,CLR,M,M,M,M,M,M,M,M,M,M,M,M,M,M,69.10,KNFL 231438Z 19003KT 10SM CLR 21/M01 A3004 RMK AO2 T02061011,M
P68,2022-08-23 14:53,-116.0056,39.6014,1993.00,64.00,30.00,27.71,210.00,6.00,0.00,30.17,1012.80,M,M,M,M,M,M,M,M,M,M,M,M,M,M,M,M,M,64.00,KP68 231453Z AUTO 21006KT 18/M01 A3017 RMK AO1 SLP128 T01781011 55000,M
VGT,2022-08-23 14:53,-115.1933,36.2111,667.00,89.00,62.00,40.61,70.00,4.00,0.00,29.87,1010.00,10.00,M,CLR,M,M,M,M,M,M,M,M,M,M,M,M,M,M,89.58,KVGT 231453Z 07004KT 10SM CLR 32/17 A2987 RMK AO2 SLP100 T03170167 53008,M
LOL,2022-08-23 14:53,-118.5701,40.0684,1192.43,63.00,32.00,31.12,0.00,0.00,0.00,30.04,1013.10,10.00,M,CLR,M,M,M,M,M,M,M,M,M,M,M,M,M,M,63.00,KLOL 231453Z AUTO 00000KT 10SM CLR 17/00 A3004 RMK AO2 SLP131 T01720000 50003,M
ELY,2022-08-23 14:53,-114.8453,39.2950,1909.00,65.00,46.00,50.32,180.00,3.00,0.00,30.19,1012.00,10.00,M,CLR,M,M,M,M,M,M,M,M,M,M,M,M,M,M,64.90,KELY 231453Z AUTO 18003KT 10SM CLR 18/08 A3019 RMK AO2 SLP120 T01830078 50000,M
DRA,2022-08-23 14:53,-116.0278,36.6206,1009.00,82.00,46.00,28.30,0.00,0.00,0.00,29.95,1008.40,10.00,M,CLR,M,M,M,M,M,M,M,M,M,M,M,M,M,M,80.36,KDRA 231453Z AUTO 00000KT 10SM CLR 28/08 A2995 RMK AO2 SLP084 T02780078 51006,M
RNO,2022-08-23 14:55,-119.7711,39.4839,1341.00,64.00,30.00,27.71,280.00,4.00,0.00,30.11,1013.90,10.00,M,CLR,M,M,M,M,M,M,M,M,M,M,M,M,M,M,64.00,KRNO 231455Z 28004KT 10SM CLR 18/M01 A3011 RMK AO2 SLP139 T01781011 58001,M
CXP,2022-08-23 14:55,-119.7326,39.1923,1431.00,59.00,33.80,38.56,0.00,0.00,0.00,30.13,M,10.00,M,CLR,M,M,M,M,M,M,M,M,M,M,M,M,M,M,59.00,KCXP 231455Z AUTO 00000KT 10SM CLR 15/01 A3013 RMK AO2,M
BVU,2022-08-23 14:55,-114.8611,35.9475,671.00,87.80,62.60,43.07,60.00,7.00,0.00,29.88,M,M,M,M,M,M,M,M,M,M,M,M,M,M,M,M,M,M,88.48,KBVU 231455Z AUTO 06007KT 31/17 A2988 RMK AO2 PWINO TSNO,M
TMT,2022-08-23 14:55,-117.1971,39.4643,1749.34,55.40,31.80,40.51,0.00,0.00,0.00,30.18,M,10.00,M,CLR,M,M,M,M,M,M,M,M,M,M,M,M,M,M,55.40,KTMT 231455Z AUTO 00000KT 10SM CLR 13/00 A3018 RMK AO2 T01301001,M
HTH,2022-08-23 14:55,-118.6315,38.5448,1282.89,69.80,35.60,28.39,0.00,0.00,0.00,30.07,M,10.00,M,CLR,M,M,M,M,M,M,M,M,M,M,M,M,M,M,69.80,KHTH 231455Z AUTO 00000KT 10SM CLR 21/02 A3007 RMK A01,M
BAM,2022-08-23 14:55,-116.8743,40.5990,1382.36,64.40,23.00,20.46,0.00,0.00,0.00,30.08,M,10.00,M,CLR,M,M,M,M,M,M,M,M,M,M,M,M,M,M,64.40,KBAM 231455Z AUTO 00000KT 10SM CLR 18/M05 A3008 RMK AO1,M
MEV,2022-08-23 14:55,-119.7500,38.9963,1441.42,55.40,35.60,47.16,0.00,0.00,0.00,30.13,M,10.00,M,CLR,M,M,M,M,M,M,M,M,M,M,M,M,M,M,55.40,KMEV 231455Z AUTO 00000KT 10SM CLR 13/02 A3013 RMK AO2,M
RTS,2022-08-23 14:55,-119.8764,39.6682,1539.00,57.20,30.20,35.57,0.00,0.00,0.00,30.14,M,10.00,M,CLR,M,M,M,M,M,M,M,M,M,M,M,M,M,M,57.20,KRTS 231455Z AUTO 00000KT 10SM CLR 14/M01 A3014 RMK AO2,M
TPH,2022-08-23 14:56,-117.0904,38.0505,1654.00,71.00,34.00,25.49,10.00,4.00,0.00,30.14,1011.90,10.00,M,CLR,M,M,M,M,M,M,M,M,M,M,M,M,M,M,71.10,KTPH 231456Z AUTO 01004KT 10SM CLR 22/01 A3014 RMK AO2 SLP119 T02170011 50003,M
WMC,2022-08-23 14:56,-117.8072,40.9019,1315.00,63.00,28.00,26.45,0.00,0.00,0.00,30.06,1013.50,10.00,M,CLR,M,M,M,M,M,M,M,M,M,M,M,M,M,M,63.00,KWMC 231456Z AUTO 00000KT 10SM CLR 17/M02 A3006 RMK AO2 SLP135 T01721022 53003 $,M
EKO,2022-08-23 14:56,-115.7860,40.8242,1367.00,53.00,28.90,39.16,0.00,0.00,0.00,30.13,1015.90,10.00,M,CLR,M,M,M,M,M,M,M,M,M,M,M,M,M,M,53.10,KEKO 231456Z AUTO 00000KT 10SM CLR 12/M02 A3013 RMK AO2 SLP159 T01171017 52005,M
NFL,2022-08-23 14:56,-118.7010,39.4166,1199.00,71.00,30.90,22.50,150.00,5.00,0.00,30.04,1014.10,10.00,M,CLR,M,M,M,M,M,M,M,M,M,M,M,M,M,M,71.10,KNFL 231456Z 15005KT 10SM CLR 22/M01 A3004 RMK SLP141 T02171006 50001,M
LAS,2022-08-23 14:56,-115.1634,36.0719,663.00,88.00,59.00,37.66,0.00,0.00,0.00,29.88,1008.70,10.00,M,CLR,M,M,M,M,M,M,M,M,M,M,M,M,M,M,87.31,KLAS 231456Z 00000KT 10SM CLR 31/15 A2988 RMK AO2 SLP087 T03110150 53009,M
LSV,2022-08-23 14:58,-115.0343,36.2362,570.00,89.60,66.00,45.82,200.00,3.00,0.00,29.85,1008.00,10.00,M,CLR,M,M,M,M,M,M,M,M,M,M,M,M,M,M,92.15,KLSV 231458Z AUTO 20003KT 10SM CLR 32/19 A2985 RMK AO2 SLP080 T03200189 52009 $,M
INS,2022-08-23 14:58,-115.6733,36.5872,955.00,80.40,46.00,29.81,0.00,0.00,0.00,29.94,1008.40,10.00,M,CLR,M,M,M,M,M,M,M,M,M,M,M,M,M,M,79.42,KINS 231458Z AUTO 00000KT 10SM CLR 27/08 A2994 RMK AO2 SLP084 T02690078 51004 $,M
BVU,2022-08-23 15:15,-114.8611,35.9475,671.00,89.60,62.60,40.69,80.00,4.00,0.00,29.89,M,M,M,M,M,M,M,M,M,M,M,M,M,M,M,M,M,M,90.32,KBVU 231515Z AUTO 08004KT 32/17 A2989 RMK AO2 PWINO TSNO,M
HTH,2022-08-23 15:15,-118.6315,38.5448,1282.89,69.80,35.60,28.39,320.00,4.00,0.00,30.07,M,10.00,M,CLR,M,M,M,M,M,M,M,M,M,M,M,M,M,M,69.80,KHTH 231515Z AUTO 32004KT 10SM CLR 21/02 A3007 RMK A01,M
TMT,2022-08-23 15:15,-117.1971,39.4643,1749.34,60.40,33.60,36.39,0.00,0.00,0.00,30.17,M,10.00,M,CLR,M,M,M,M,M,M,M,M,M,M,M,M,M,M,60.40,KTMT 231515Z AUTO 00000KT 10SM CLR 16/01 A3017 RMK AO2 T01580009,M
CXP,2022-08-23 15:15,-119.7326,39.1923,1431.00,62.60,33.80,33.93,M,3.00,0.00,30.13,M,10.00,M,CLR,M,M,M,M,M,M,M,M,M,M,M,M,M,M,62.60,KCXP 231515Z AUTO VRB03KT 10SM CLR 17/01 A3013 RMK AO2,M
BAM,2022-08-23 15:15,-116.8743,40.5990,1382.36,69.80,26.60,19.72,360.00,3.00,0.00,30.08,M,10.00,M,CLR,M,M,M,M,M,M,M,M,M,M,M,M,M,M,69.80,KBAM 231515Z AUTO 36003KT 10SM CLR 21/M03 A3008 RMK AO1,M
MEV,2022-08-23 15:15,-119.7500,38.9963,1441.42,60.80,33.80,36.16,0.00,0.00,0.00,30.12,M,10.00,M,CLR,M,M,M,M,M,M,M,M,M,M,M,M,M,M,60.80,KMEV 231515Z AUTO 00000KT 10SM CLR 16/01 A3012 RMK AO2,M
RTS,2022-08-23 15:15,-119.8764,39.6682,1539.00,62.60,28.40,27.27,0.00,0.00,0.00,30.14,M,10.00,M,CLR,M,M,M,M,M,M,M,M,M,M,M,M,M,M,62.60,KRTS 231515Z AUTO 00000KT 10SM CLR 17/M02 A3014 RMK AO2,M
RTS,2022-08-23 15:35,-119.8764,39.6682,1539.00,64.40,28.40,25.60,0.00,0.00,0.00,30.14,M,10.00,M,CLR,M,M,M,M,M,M,M,M,M,M,M,M,M,M,64.40,KRTS 231535Z AUTO 00000KT 10SM CLR 18/M02 A3014 RMK AO2,M
BVU,2022-08-23 15:35,-114.8611,35.9475,671.00,89.60,60.80,38.18,0.00,0.00,0.00,29.89,M,M,M,M,M,M,M,M,M,M,M,M,M,M,M,M,M,M,89.54,KBVU 231535Z AUTO 00000KT 32/16 A2989 RMK AO2 PWINO TSNO,M
CXP,2022-08-23 15:35,-119.7326,39.1923,1431.00,62.60,32.00,31.56,0.00,0.00,0.00,30.13,M,10.00,M,CLR,M,M,M,M,M,M,M,M,M,M,M,M,M,M,62.60,KCXP 231535Z AUTO 00000KT 10SM CLR 17/M00 A3013 RMK AO2,M
MEV,2022-08-23 15:35,-119.7500,38.9963,1441.42,64.40,32.00,29.63,0.00,0.00,0.00,30.12,M,10.00,M,CLR,M,M,M,M,M,M,M,M,M,M,M,M,M,M,64.40,KMEV 231535Z AUTO 00000KT 10SM CLR 18/M00 A3012 RMK AO2,M
BAM,2022-08-23 15:35,-116.8743,40.5990,1382.36,71.60,24.80,17.22,20.00,3.00,0.00,30.08,M,10.00,M,CLR,M,M,M,M,M,M,M,M,M,M,M,M,M,M,71.60,KBAM 231535Z AUTO 02003KT 10SM CLR 22/M04 A3008 RMK AO1,M
HTH,2022-08-23 15:35,-118.6315,38.5448,1282.89,71.60,33.80,24.86,300.00,3.00,0.00,30.07,M,10.00,M,CLR,M,M,M,M,M,M,M,M,M,M,M,M,M,M,71.60,KHTH 231535Z AUTO 30003KT 10SM CLR 22/01 A3007 RMK A01,M
TMT,2022-08-23 15:35,-117.1971,39.4643,1749.34,64.00,35.00,33.87,0.00,0.00,0.00,30.17,M,10.00,M,CLR,M,M,M,M,M,M,M,M,M,M,M,M,M,M,63.90,KTMT 231535Z AUTO 00000KT 10SM CLR 18/02 A3017 RMK AO2 T01770016,M
ELY,2022-08-23 15:53,-114.8453,39.2950,1909.00,75.00,48.00,38.43,0.00,0.00,0.00,30.19,1011.20,10.00,M,CLR,M,M,M,M,M,M,M,M,M,M,M,M,M,M,75.00,KELY 231553Z AUTO 00000KT 10SM CLR 24/09 A3019 RMK AO2 SLP112 T02390089,M
VGT,2022-08-23 15:53,-115.1933,36.2111,667.00,92.00,60.00,34.65,90.00,3.00,0.00,29.88,1010.10,10.00,M,CLR,M,M,M,M,M,M,M,M,M,M,M,M,M,M,91.63,KVGT 231553Z 09003KT 10SM CLR 33/16 A2988 RMK AO2 SLP101 T03330156,M
DRA,2022-08-23 15:53,-116.0278,36.6206,1009.00,88.00,45.00,22.47,0.00,0.00,0.00,29.95,1008.20,10.00,M,CLR,M,M,M,M,M,M,M,M,M,M,M,M,M,M,84.72,KDRA 231553Z AUTO 00000KT 10SM CLR 31/07 A2995 RMK AO2 SLP082 T03110072,M
P68,2022-08-23 15:53,-116.0056,39.6014,1993.00,74.00,27.00,17.45,0.00,0.00,0.00,30.16,1012.50,M,M,M,M,M,M,M,M,M,M,M,M,M,M,M,M,M,73.90,KP68 231553Z AUTO 00000KT 23/M03 A3016 RMK AO1 SLP125 T02331028,M
LOL,2022-08-23 15:53,-118.5701,40.0684,1192.43,73.00,32.00,22.06,0.00,0.00,0.00,30.03,1012.70,10.00,M,CLR,M,M,M,M,M,M,M,M,M,M,M,M,M,M,73.00,KLOL 231553Z AUTO 00000KT 10SM CLR 23/00 A3003 RMK AO2 SLP127 T02280000,M
BAM,2022-08-23 15:55,-116.8743,40.5990,1382.36,73.40,24.80,16.20,0.00,0.00,0.00,30.08,M,10.00,M,CLR,M,M,M,M,M,M,M,M,M,M,M,M,M,M,73.40,KBAM 231555Z AUTO 00000KT 10SM CLR 23/M04 A3008 RMK AO1,M
HTH,2022-08-23 15:55,-118.6315,38.5448,1282.89,73.40,35.60,25.13,350.00,4.00,0.00,30.07,M,10.00,M,CLR,M,M,M,M,M,M,M,M,M,M,M,M,M,M,73.40,KHTH 231555Z AUTO 35004KT 10SM CLR 23/02 A3007 RMK A01,M
RNO,2022-08-23 15:55,-119.7711,39.4839,1341.00,69.00,30.90,24.09,M,3.00,0.00,30.10,1013.40,10.00,M,CLR,M,M,M,M,M,M,M,M,M,M,M,M,M,M,69.10,KRNO 231555Z VRB03KT 10SM CLR 21/M01 A3010 RMK AO2 SLP134 T02061006,M
TMT,2022-08-23 15:55,-117.1971,39.4643,1749.34,M,M,M,0.00,0.00,0.00,30.16,M,10.00,M,CLR,M,M,M,M,M,M,M,M,M,M,M,M,M,M,M,KTMT 231555Z AUTO 00000KT 10SM CLR A3016 RMK AO2,M
CXP,2022-08-23 15:55,-119.7326,39.1923,1431.00,66.20,32.00,27.83,250.00,4.00,0.00,30.12,M,10.00,M,CLR,M,M,M,M,M,M,M,M,M,M,M,M,M,M,66.20,KCXP 231555Z AUTO 25004KT 10SM CLR 19/M00 A3012 RMK AO2,M
RTS,2022-08-23 15:55,-119.8764,39.6682,1539.00,66.20,26.60,22.33,0.00,0.00,0.00,30.13,M,10.00,M,CLR,M,M,M,M,M,M,M,M,M,M,M,M,M,M,66.20,KRTS 231555Z AUTO 00000KT 10SM CLR 19/M03 A3013 RMK AO2,M
MEV,2022-08-23 15:55,-119.7500,38.9963,1441.42,66.20,32.00,27.83,0.00,0.00,0.00,30.11,M,10.00,M,CLR,M,M,M,M,M,M,M,M,M,M,M,M,M,M,66.20,KMEV 231555Z AUTO 00000KT 10SM CLR 19/00 A3011 RMK AO2,M
BVU,2022-08-23 15:55,-114.8611,35.9475,671.00,89.60,60.80,38.18,0.00,0.00,0.00,29.89,M,M,M,M,M,M,M,M,M,M,M,M,M,M,M,M,M,M,89.54,KBVU 231555Z AUTO 00000KT 32/16 A2989 RMK AO2 PWINO TSNO,M
NFL,2022-08-23 15:56,-118.7010,39.4166,1199.00,77.00,28.00,16.40,170.00,3.00,0.00,30.03,1013.90,10.00,M,CLR,M,M,M,M,M,M,M,M,M,M,M,M,M,M,77.00,KNFL 231556Z 17003KT 10SM CLR 25/M02 A3003 RMK AO2 SLP139 T02501022,M
TPH,2022-08-23 15:56,-117.0904,38.0505,1654.00,78.00,32.00,18.61,0.00,0.00,0.00,30.14,1011.80,10.00,M,CLR,M,M,M,M,M,M,M,M,M,M,M,M,M,M,78.10,KTPH 231556Z AUTO 00000KT 10SM CLR 26/00 A3014 RMK AO2 SLP118 T02560000,M
LAS,2022-08-23 15:56,-115.1634,36.0719,663.00,90.00,57.00,32.91,30.00,5.00,0.00,29.89,1008.90,10.00,M,FEW,M,M,M,3000.00,M,M,M,M,M,M,M,M,M,M,88.61,KLAS 231556Z 03005KT 10SM FEW030 32/14 A2989 RMK AO2 SLP089 FU FEW030 T03220139,M
EKO,2022-08-23 15:56,-115.7860,40.8242,1367.00,62.00,30.00,29.63,0.00,0.00,0.00,30.12,1015.60,10.00,M,CLR,M,M,M,M,M,M,M,M,M,M,M,M,M,M,62.10,KEKO 231556Z AUTO 00000KT 10SM CLR 17/M01 A3012 RMK AO2 SLP156 T01671011,M
WMC,2022-08-23 15:56,-117.8072,40.9019,1315.00,73.00,28.90,19.45,0.00,0.00,0.00,30.06,1013.00,10.00,M,CLR,M,M,M,M,M,M,M,M,M,M,M,M,M,M,73.00,KWMC 231556Z AUTO 00000KT 10SM CLR 23/M02 A3006 RMK AO2 SLP130 T02281017,M
INS,2022-08-23 15:58,-115.6733,36.5872,955.00,85.00,47.30,26.89,80.00,3.00,0.00,29.94,1008.20,10.00,M,CLR,M,M,M,M,M,M,M,M,M,M,M,M,M,M,82.61,KINS 231558Z AUTO 08003KT 10SM CLR 30/09 A2994 RMK AO2 SLP082 T02950085 $,M
LSV,2022-08-23 15:58,-115.0343,36.2362,570.00,96.40,61.70,31.91,0.00,0.00,0.00,29.86,1008.20,10.00,M,CLR,M,M,M,M,M,M,M,M,M,M,M,M,M,M,97.33,KLSV 231558Z AUTO 00000KT 10SM CLR 36/17 A2986 RMK AO2 SLP082 T03580165 $,M
MEV,2022-08-23 16:15,-119.7500,38.9963,1441.42,68.00,33.80,28.11,0.00,0.00,0.00,30.11,M,10.00,M,CLR,M,M,M,M,M,M,M,M,M,M,M,M,M,M,68.00,KMEV 231615Z AUTO 00000KT 10SM CLR 20/01 A3011 RMK AO2,M
RTS,2022-08-23 16:15,-119.8764,39.6682,1539.00,69.80,30.20,22.86,0.00,0.00,0.00,30.13,M,10.00,M,CLR,M,M,M,M,M,M,M,M,M,M,M,M,M,M,69.80,KRTS 231615Z AUTO 00000KT 10SM CLR 21/M01 A3013 RMK AO2,M
CXP,2022-08-23 16:15,-119.7326,39.1923,1431.00,68.00,32.00,26.15,0.00,0.00,0.00,30.12,M,10.00,M,CLR,M,M,M,M,M,M,M,M,M,M,M,M,M,M,68.00,KCXP 231615Z AUTO 00000KT 10SM CLR 20/M00 A3012 RMK AO2,M
TMT,2022-08-23 16:15,-117.1971,39.4643,1749.34,M,M,M,0.00,0.00,0.00,30.16,M,10.00,M,CLR,M,M,M,M,M,M,M,M,M,M,M,M,M,M,M,KTMT 231615Z AUTO 00000KT 10SM CLR A3016 RMK AO2,M
BVU,2022-08-23 16:15,-114.8611,35.9475,671.00,89.60,60.80,38.18,130.00,3.00,0.00,29.89,M,M,M,M,M,M,M,M,M,M,M,M,M,M,M,M,M,M,89.54,KBVU 231615Z AUTO 13003KT 32/16 A2989 RMK AO2 PWINO TSNO,M
BAM,2022-08-23 16:15,-116.8743,40.5990,1382.36,77.00,26.60,15.48,0.00,0.00,0.00,30.08,M,10.00,M,CLR,M,M,M,M,M,M,M,M,M,M,M,M,M,M,77.00,KBAM 231615Z AUTO 00000KT 10SM CLR 25/M03 A3008 RMK AO1,M
HTH,2022-08-23 16:15,-118.6315,38.5448,1282.89,75.20,33.80,22.02,0.00,0.00,0.00,30.07,M,10.00,M,CLR,M,M,M,M,M,M,M,M,M,M,M,M,M,M,75.20,KHTH 231615Z AUTO 00000KT 10SM CLR 24/01 A3007 RMK A01,M
RTS,2022-08-23 16:35,-119.8764,39.6682,1539.00,71.60,28.40,19.98,0.00,0.00,0.00,30.13,M,10.00,M,CLR,M,M,M,M,M,M,M,M,M,M,M,M,M,M,71.60,KRTS 231635Z AUTO 00000KT 10SM CLR 22/M02 A3013 RMK AO2,M
BVU,2022-08-23 16:35,-114.8611,35.9475,671.00,91.40,60.80,36.08,160.00,4.00,0.00,29.89,M,M,M,M,M,M,M,M,M,M,M,M,M,M,M,M,M,M,91.40,KBVU 231635Z AUTO 16004KT 33/16 A2989 RMK AO2 PWINO TSNO,M
CXP,2022-08-23 16:35,-119.7326,39.1923,1431.00,69.80,32.00,24.59,0.00,0.00,0.00,30.11,M,10.00,M,CLR,M,M,M,M,M,M,M,M,M,M,M,M,M,M,69.80,KCXP 231635Z AUTO 00000KT 10SM CLR 21/00 A3011 RMK AO2,M
MEV,2022-08-23 16:35,-119.7500,38.9963,1441.42,71.60,33.80,24.86,0.00,0.00,0.00,30.10,M,10.00,M,CLR,M,M,M,M,M,M,M,M,M,M,M,M,M,M,71.60,KMEV 231635Z AUTO 00000KT 10SM CLR 22/01 A3010 RMK AO2,M
BAM,2022-08-23 16:35,-116.8743,40.5990,1382.36,78.80,28.40,15.71,20.00,3.00,0.00,30.08,M,10.00,M,CLR,M,M,M,M,M,M,M,M,M,M,M,M,M,M,78.80,KBAM 231635Z AUTO 02003KT 10SM CLR 26/M02 A3008 RMK AO1,M
HTH,2022-08-23 16:35,-118.6315,38.5448,1282.89,77.00,30.20,17.94,M,4.00,0.00,30.06,M,10.00,M,CLR,M,M,M,M,M,M,M,M,M,M,M,M,M,M,77.00,KHTH 231635Z AUTO VRB04KT 10SM CLR 25/M01 A3006 RMK A01,M
TMT,2022-08-23 16:35,-117.1971,39.4643,1749.34,M,M,M,0.00,0.00,0.00,30.16,M,10.00,M,CLR,M,M,M,M,M,M,M,M,M,M,M,M,M,M,M,KTMT 231635Z AUTO 00000KT 10SM CLR A3016 RMK AO2,M
ELY,2022-08-23 16:53,-114.8453,39.2950,1909.00,82.00,44.00,26.33,M,5.00,0.00,30.18,1010.30,10.00,M,CLR,M,M,M,M,M,M,M,M,M,M,M,M,M,M,80.22,KELY 231653Z AUTO VRB05KT 10SM CLR 28/07 A3018 RMK AO2 SLP103 T02780067,M
LOL,2022-08-23 16:53,-118.5701,40.0684,1192.43,80.00,32.00,17.42,0.00,0.00,0.00,30.02,1012.40,10.00,M,CLR,M,M,M,M,M,M,M,M,M,M,M,M,M,M,78.63,KLOL 231653Z AUTO 00000KT 10SM CLR 27/00 A3002 RMK AO2 SLP124 T02670000,M
VGT,2022-08-23 16:53,-115.1933,36.2111,667.00,95.00,59.00,30.26,110.00,5.00,0.00,29.88,1010.00,10.00,M,FEW,M,M,M,200.00,M,M,M,M,M,M,M,M,M,M,94.51,KVGT 231653Z AUTO 11005KT 10SM FEW002 35/15 A2988 RMK AO2 SLP100 T03500150 PNO $,M
P68,2022-08-23 16:53,-116.0056,39.6014,1993.00,79.00,24.10,13.06,30.00,3.00,0.00,30.15,1012.20,M,M,M,M,M,M,M,M,M,M,M,M,M,M,M,M,M,79.00,KP68 231653Z AUTO 03003KT 26/M04 A3015 RMK AO1 SLP122 T02611044,M
DRA,2022-08-23 16:53,-116.0278,36.6206,1009.00,93.00,47.00,20.64,130.00,5.00,0.00,29.95,1008.00,10.00,M,CLR,M,M,M,M,M,M,M,M,M,M,M,M,M,M,89.43,KDRA 231653Z AUTO 13005KT 10SM CLR 34/08 A2995 RMK AO2 SLP080 T03390083,M
HTH,2022-08-23 16:55,-118.6315,38.5448,1282.89,78.80,30.20,16.90,0.00,0.00,0.00,30.06,M,10.00,M,CLR,M,M,M,M,M,M,M,M,M,M,M,M,M,M,78.80,KHTH 231655Z AUTO 00000KT 10SM CLR 26/M01 A3006 RMK A01,M
RNO,2022-08-23 16:55,-119.7711,39.4839,1341.00,73.00,30.90,21.10,0.00,0.00,0.00,30.08,1012.80,10.00,M,CLR,M,M,M,M,M,M,M,M,M,M,M,M,M,M,73.00,KRNO 231655Z 00000KT 10SM CLR 23/M01 A3008 RMK AO2 SLP128 T02281006,M
RTS,2022-08-23 16:55,-119.8764,39.6682,1539.00,73.40,30.20,20.23,0.00,0.00,0.00,30.12,M,10.00,M,CLR,M,M,M,M,M,M,M,M,M,M,M,M,M,M,73.40,KRTS 231655Z AUTO 00000KT 10SM CLR 23/M01 A3012 RMK AO2,M
MEV,2022-08-23 16:55,-119.7500,38.9963,1441.42,73.40,32.00,21.76,0.00,0.00,0.00,30.10,M,10.00,M,CLR,M,M,M,M,M,M,M,M,M,M,M,M,M,M,73.40,KMEV 231655Z AUTO 00000KT 10SM CLR 23/00 A3010 RMK AO2,M
TMT,2022-08-23 16:55,-117.1971,39.4643,1749.34,M,M,M,0.00,0.00,0.00,30.16,M,10.00,M,CLR,M,M,M,M,M,M,M,M,M,M,M,M,M,M,M,KTMT 231655Z AUTO 00000KT 10SM CLR A3016 RMK AO2,M
BAM,2022-08-23 16:55,-116.8743,40.5990,1382.36,80.60,26.60,13.75,350.00,3.00,0.00,30.08,M,10.00,M,CLR,M,M,M,M,M,M,M,M,M,M,M,M,M,M,78.68,KBAM 231655Z AUTO 35003KT 10SM CLR 27/M03 A3008 RMK AO1,M
BVU,2022-08-23 16:55,-114.8611,35.9475,671.00,93.20,59.00,31.99,M,4.00,0.00,29.89,M,M,M,M,M,M,M,M,M,M,M,M,M,M,M,M,M,M,92.57,KBVU 231655Z AUTO VRB04KT 34/15 A2989 RMK AO2 PWINO TSNO,M
CXP,2022-08-23 16:55,-119.7326,39.1923,1431.00,73.40,32.00,21.76,0.00,0.00,0.00,30.11,M,10.00,M,CLR,M,M,M,M,M,M,M,M,M,M,M,M,M,M,73.40,KCXP 231655Z AUTO 00000KT 10SM CLR 23/00 A3011 RMK AO2,M
EKO,2022-08-23 16:56,-115.7860,40.8242,1367.00,70.00,30.90,23.36,20.00,4.00,0.00,30.11,1014.10,10.00,M,CLR,M,M,M,M,M,M,M,M,M,M,M,M,M,M,70.00,KEKO 231656Z AUTO 02004KT 10SM CLR 21/M01 A3011 RMK AO2 SLP141 T02111006,M
LAS,2022-08-23 16:56,-115.1634,36.0719,663.00,93.00,57.00,29.96,M,6.00,0.00,29.89,1008.90,10.00,M,FEW,M,M,M,12000.00,M,M,M,M,M,M,M,M,M,M,91.64,KLAS 231656Z VRB06KT 10SM FEW120 34/14 A2989 RMK AO2 SLP089 T03390139,M
TPH,2022-08-23 16:56,-117.0904,38.0505,1654.00,82.00,33.00,17.12,M,3.00,0.00,30.13,1011.10,10.00,M,CLR,M,M,M,M,M,M,M,M,M,M,M,M,M,M,79.75,KTPH 231656Z AUTO VRB03KT 10SM CLR 28/01 A3013 RMK AO2 SLP111 T02780006,M
NFL,2022-08-23 16:56,-118.7010,39.4166,1199.00,81.00,28.90,14.92,260.00,4.00,0.00,30.03,1013.80,10.00,M,CLR,M,M,M,M,M,M,M,M,M,M,M,M,M,M,78.99,KNFL 231656Z 26004KT 10SM CLR 27/M02 A3003 RMK AO2 SLP138 T02721017,M
WMC,2022-08-23 16:56,-117.8072,40.9019,1315.00,81.00,30.00,15.60,0.00,0.00,0.00,30.05,1012.20,10.00,M,CLR,M,M,M,M,M,M,M,M,M,M,M,M,M,M,79.02,KWMC 231656Z AUTO 00000KT 10SM CLR 27/M01 A3005 RMK AO2 SLP122 T02721011,M
LSV,2022-08-23 16:58,-115.0343,36.2362,570.00,96.60,62.00,31.94,130.00,6.00,0.00,29.85,1007.90,10.00,M,CLR,M,M,M,M,M,M,M,M,M,M,M,M,M,M,97.67,KLSV 231658Z AUTO 13006KT 10SM CLR 36/17 A2985 RMK AO2 SLP079 T03590166 $,M
INS,2022-08-23 16:58,-115.6733,36.5872,955.00,91.80,56.00,29.89,80.00,10.00,0.00,29.93,1007.70,10.00,M,CLR,M,M,M,M,M,M,M,M,M,M,M,M,M,M,90.07,KINS 231658Z AUTO 08010KT 10SM CLR 33/13 A2993 RMK AO2 SLP077 T03320133 $,M
CXP,2022-08-23 17:15,-119.7326,39.1923,1431.00,75.20,32.00,20.49,0.00,0.00,0.00,30.10,M,10.00,M,CLR,M,M,M,M,M,M,M,M,M,M,M,M,M,M,75.20,KCXP 231715Z AUTO 00000KT 10SM CLR 24/M00 A3010 RMK AO2,M
HTH,2022-08-23 17:15,-118.6315,38.5448,1282.89,80.60,32.00,17.14,M,4.00,0.00,30.05,M,10.00,M,CLR,M,M,M,M,M,M,M,M,M,M,M,M,M,M,78.82,KHTH 231715Z AUTO VRB04KT 10SM CLR 27/00 A3005 RMK A01,M
TMT,2022-08-23 17:15,-117.1971,39.4643,1749.34,M,M,M,0.00,0.00,0.00,30.15,M,10.00,M,CLR,M,M,M,M,M,M,M,M,M,M,M,M,M,M,M,KTMT 231715Z AUTO 00000KT 10SM CLR A3015 RMK AO2,M
BVU,2022-08-23 17:15,-114.8611,35.9475,671.00,93.20,59.00,31.99,M,4.00,0.00,29.88,M,M,M,M,M,M,M,M,M,M,M,M,M,M,M,M,M,M,92.57,KBVU 231715Z AUTO VRB04KT 34/15 A2988 RMK AO2 PWINO TSNO,M
MEV,2022-08-23 17:15,-119.7500,38.9963,1441.42,75.20,33.80,22.02,0.00,0.00,0.00,30.09,M,10.00,M,CLR,M,M,M,M,M,M,M,M,M,M,M,M,M,M,75.20,KMEV 231715Z AUTO 00000KT 10SM CLR 24/01 A3009 RMK AO2,M
RTS,2022-08-23 17:15,-119.8764,39.6682,1539.00,75.20,30.20,19.05,M,3.00,0.00,30.12,M,10.00,M,CLR,M,M,M,M,M,M,M,M,M,M,M,M,M,M,75.20,KRTS 231715Z AUTO VRB03KT 10SM CLR 24/M01 A3012 RMK AO2,M
BAM,2022-08-23 17:15,-116.8743,40.5990,1382.36,82.40,26.60,12.97,10.00,4.00,0.00,30.08,M,10.00,M,CLR,M,M,M,M,M,M,M,M,M,M,M,M,M,M,79.92,KBAM 231715Z AUTO 01004KT 10SM CLR 28/M03 A3008 RMK AO1,M
MEV,2022-08-23 17:35,-119.7500,38.9963,1441.42,77.00,32.00,19.30,270.00,3.00,0.00,30.08,M,10.00,M,CLR,M,M,M,M,M,M,M,M,M,M,M,M,M,M,77.00,KMEV 231735Z AUTO 27003KT 10SM CLR 25/00 A3008 RMK AO2,M
TMT,2022-08-23 17:35,-117.1971,39.4643,1749.34,M,M,M,0.00,0.00,0.00,30.14,M,10.00,M,CLR,M,M,M,M,M,M,M,M,M,M,M,M,M,M,M,KTMT 231735Z AUTO 00000KT 10SM CLR A3014 RMK AO2,M
HTH,2022-08-23 17:35,-118.6315,38.5448,1282.89,80.60,33.80,18.42,M,5.00,0.00,30.05,M,10.00,M,CLR,M,M,M,M,M,M,M,M,M,M,M,M,M,M,78.88,KHTH 231735Z AUTO VRB05KT 10SM CLR 27/01 A3005 RMK A01,M
BAM,2022-08-23 17:35,-116.8743,40.5990,1382.36,84.20,26.60,12.23,340.00,4.00,0.00,30.07,M,10.00,M,CLR,M,M,M,M,M,M,M,M,M,M,M,M,M,M,81.13,KBAM 231735Z AUTO 34004KT 10SM CLR 29/M03 A3007 RMK AO1,M
RTS,2022-08-23 17:35,-119.8764,39.6682,1539.00,77.00,28.40,16.67,M,3.00,0.00,30.11,M,10.00,M,CLR,M,M,M,M,M,M,M,M,M,M,M,M,M,M,77.00,KRTS 231735Z AUTO VRB03KT 10SM CLR 25/M02 A3011 RMK AO2,M
CXP,2022-08-23 17:35,-119.7326,39.1923,1431.00,78.80,30.20,16.90,M,3.00,0.00,30.09,M,10.00,M,CLR,M,M,M,M,M,M,M,M,M,M,M,M,M,M,78.80,KCXP 231735Z AUTO VRB03KT 10SM CLR 26/M01 A3009 RMK AO2,M
BVU,2022-08-23 17:35,-114.8611,35.9475,671.00,95.00,57.20,28.37,M,4.00,0.00,29.88,M,M,M,M,M,M,M,M,M,M,M,M,M,M,M,M,M,M,93.82,KBVU 231735Z AUTO VRB04KT 35/14 A2988 RMK AO2 PWINO TSNO,M
VGT,2022-08-23 17:53,-115.1933,36.2111,667.00,95.00,60.00,31.47,220.00,4.00,0.00,29.87,1009.80,M,M,CLR,M,M,M,M,M,M,M,M,M,M,M,M,M,M,94.98,KVGT 231753Z AUTO 22004KT CLR 35/16 A2987 RMK AO2 SLP098 6//// T03500156 10361 20272 58001 PNO $,M
P68,2022-08-23 17:53,-116.0056,39.6014,1993.00,84.00,27.00,12.52,50.00,5.00,0.00,30.14,1011.50,M,M,M,M,M,M,M,M,M,M,M,M,M,M,M,M,M,81.03,KP68 231753Z AUTO 05005KT 29/M03 A3014 RMK AO1 SLP115 T02891028 10294 20106 58007,M
DRA,2022-08-23 17:53,-116.0278,36.6206,1009.00,96.00,49.00,20.22,140.00,12.00,0.00,29.94,1007.80,10.00,M,CLR,M,M,M,M,M,M,M,M,M,M,M,M,M,M,92.78,KDRA 231753Z AUTO 14012KT 10SM CLR 36/09 A2994 RMK AO2 SLP078 T03560094 10361 20222 58004,M
ELY,2022-08-23 17:53,-114.8453,39.2950,1909.00,84.00,41.00,21.90,M,3.00,0.00,30.17,1010.10,10.00,M,CLR,M,M,M,M,M,M,M,M,M,M,M,M,M,M,81.37,KELY 231753Z AUTO VRB03KT 10SM CLR 29/05 A3017 RMK AO2 SLP101 T02890050 10294 20106 58006 $,M
LOL,2022-08-23 17:53,-118.5701,40.0684,1192.43,85.00,32.00,14.91,0.00,0.00,0.00,30.01,1011.80,10.00,M,CLR,M,M,M,M,M,M,M,M,M,M,M,M,M,M,81.80,KLOL 231753Z AUTO 00000KT 10SM CLR 29/00 A3001 RMK AO2 SLP118 T02940000 10294 20100 56007,M
TMT,2022-08-23 17:55,-117.1971,39.4643,1749.34,M,M,M,250.00,3.00,0.00,30.14,M,10.00,M,CLR,M,M,M,M,M,M,M,M,M,M,M,M,M,M,M,KTMT 231755Z AUTO 25003KT 10SM CLR A3014 RMK AO2,M
BVU,2022-08-23 17:55,-114.8611,35.9475,671.00,95.00,57.20,28.37,180.00,4.00,0.00,29.88,M,M,M,M,M,M,M,M,M,M,M,M,M,M,M,M,M,M,93.82,KBVU 231755Z AUTO 18004KT 35/14 A2988 RMK AO2 PWINO TSNO,M
CXP,2022-08-23 17:55,-119.7326,39.1923,1431.00,80.60,30.20,15.94,M,3.00,0.00,30.08,M,10.00,M,CLR,M,M,M,M,M,M,M,M,M,M,M,M,M,M,78.77,KCXP 231755Z AUTO VRB03KT 10SM CLR 27/M01 A3008 RMK AO2,M
RNO,2022-08-23 17:55,-119.7711,39.4839,1341.00,80.00,30.00,16.07,M,3.00,0.00,30.07,1012.10,10.00,M,CLR,M,M,M,M,M,M,M,M,M,M,M,M,M,M,78.57,KRNO 231755Z VRB03KT 10SM CLR 27/M01 A3007 RMK AO2 SLP121 T02671011 10267 20139 58012,M
RTS,2022-08-23 17:55,-119.8764,39.6682,1539.00,78.80,23.00,12.55,150.00,5.00,0.00,30.11,M,10.00,M,CLR,M,M,M,M,M,M,M,M,M,M,M,M,M,M,78.80,KRTS 231755Z AUTO 15005KT 10SM CLR 26/M05 A3011 RMK AO2,M
MEV,2022-08-23 17:55,-119.7500,38.9963,1441.42,78.80,33.80,19.55,0.00,0.00,0.00,30.07,M,10.00,M,CLR,M,M,M,M,M,M,M,M,M,M,M,M,M,M,78.80,KMEV 231755Z AUTO 00000KT 10SM CLR 26/01 A3007 RMK AO2,M
BAM,2022-08-23 17:55,-116.8743,40.5990,1382.36,84.20,26.60,12.23,350.00,3.00,0.00,30.07,M,10.00,M,CLR,M,M,M,M,M,M,M,M,M,M,M,M,M,M,81.13,KBAM 231755Z AUTO 35003KT 10SM CLR 29/M03 A3007 RMK AO1,M
HTH,2022-08-23 17:55,-118.6315,38.5448,1282.89,82.40,30.20,15.03,320.00,5.00,0.00,30.04,M,10.00,M,CLR,M,M,M,M,M,M,M,M,M,M,M,M,M,M,79.97,KHTH 231755Z AUTO 32005KT 10SM CLR 28/M01 A3004 RMK A01,M
NFL,2022-08-23 17:56,-118.7010,39.4166,1199.00,85.00,30.90,14.26,0.00,0.00,0.00,30.02,1013.60,10.00,M,CLR,M,M,M,M,M,M,M,M,M,M,M,M,M,M,81.79,KNFL 231756Z 00000KT 10SM CLR 29/M01 A3002 RMK AO2 SLP136 T02941006 10294 20144 58005,M
LAS,2022-08-23 17:56,-115.1634,36.0719,663.00,94.00,59.00,31.31,60.00,7.00,0.00,29.89,1008.80,10.00,M,FEW,M,M,M,12000.00,M,M,M,M,M,M,M,M,M,M,93.32,KLAS 231756Z 06007KT 10SM FEW120 34/15 A2989 RMK AO2 SLP088 T03440150 10344 20289 50000,M
EKO,2022-08-23 17:56,-115.7860,40.8242,1367.00,77.00,30.00,17.80,0.00,0.00,0.00,30.10,1013.60,10.00,M,CLR,M,M,M,M,M,M,M,M,M,M,M,M,M,M,77.00,KEKO 231756Z AUTO 00000KT 10SM CLR 25/M01 A3010 RMK AO2 SLP136 T02501011 10256 20078 58010,M
WMC,2022-08-23 17:56,-117.8072,40.9019,1315.00,86.00,30.90,13.77,M,4.00,0.00,30.04,1012.30,10.00,M,CLR,M,M,M,M,M,M,M,M,M,M,M,M,M,M,82.64,KWMC 231756Z AUTO VRB04KT 10SM CLR 30/M01 A3004 RMK AO2 SLP123 T03001006 10300 20078 57007,M
TPH,2022-08-23 17:56,-117.0904,38.0505,1654.00,85.00,32.00,14.91,170.00,4.00,0.00,30.13,1010.80,10.00,M,CLR,M,M,M,M,M,M,M,M,M,M,M,M,M,M,81.80,KTPH 231756Z AUTO 17004KT 10SM CLR 29/00 A3013 RMK AO2 SLP108 T02940000 10300 20172 58004,M
INS,2022-08-23 17:58,-115.6733,36.5872,955.00,95.20,52.70,23.93,90.00,14.00,0.00,29.92,1007.40,10.00,M,CLR,M,M,M,M,M,M,M,M,M,M,M,M,M,M,92.68,KINS 231758Z AUTO 09014KT 10SM CLR 35/12 A2992 RMK AO2 SLP074 T03510115 10351 20230 58008 $,M
LSV,2022-08-23 17:58,-115.0343,36.2362,570.00,98.60,60.80,28.90,140.00,9.00,0.00,29.84,1007.60,10.00,M,CLR,M,M,M,M,M,M,M,M,M,M,M,M,M,M,99.39,KLSV 231758Z AUTO 14009KT 10SM CLR 37/16 A2984 RMK AO2 SLP076 T03700160 10371 20285 58003 $,M
TMT,2022-08-23 18:15,-117.1971,39.4643,1749.34,M,M,M,0.00,0.00,0.00,30.14,M,10.00,M,CLR,M,M,M,M,M,M,M,M,M,M,M,M,M,M,M,KTMT 231815Z AUTO 00000KT 10SM CLR A3014 RMK AO2,M
BVU,2022-08-23 18:15,-114.8611,35.9475,671.00,95.00,55.40,26.58,0.00,0.00,0.00,29.88,M,M,M,M,M,M,M,M,M,M,M,M,M,M,M,M,M,M,93.22,KBVU 231815Z AUTO 00000KT 35/13 A2988 RMK AO2 PWINO TSNO,M
CXP,2022-08-23 18:15,-119.7326,39.1923,1431.00,82.40,24.80,12.03,0.00,0.00,0.00,30.08,M,10.00,M,CLR,M,M,M,M,M,M,M,M,M,M,M,M,M,M,79.79,KCXP 231815Z AUTO 00000KT 10SM CLR 28/M04 A3008 RMK AO2,M
RTS,2022-08-23 18:15,-119.8764,39.6682,1539.00,78.80,26.60,14.59,0.00,0.00,0.00,30.11,M,10.00,M,CLR,M,M,M,M,M,M,M,M,M,M,M,M,M,M,78.80,KRTS 231815Z AUTO 00000KT 10SM CLR 26/M03 A3011 RMK AO2,M
MEV,2022-08-23 18:15,-119.7500,38.9963,1441.42,80.60,35.60,19.79,240.00,5.00,0.00,30.07,M,10.00,M,CLR,M,M,M,M,M,M,M,M,M,M,M,M,M,M,78.94,KMEV 231815Z AUTO 24005KT 10SM CLR 27/02 A3007 RMK AO2,M
BAM,2022-08-23 18:15,-116.8743,40.5990,1382.36,86.00,26.60,11.55,60.00,4.00,0.00,30.06,M,10.00,M,CLR,M,M,M,M,M,M,M,M,M,M,M,M,M,M,82.39,KBAM 231815Z AUTO 06004KT 10SM CLR 30/M03 A3006 RMK AO1,M
HTH,2022-08-23 18:15,-118.6315,38.5448,1282.89,84.20,26.60,12.23,310.00,5.00,0.00,30.04,M,10.00,M,CLR,M,M,M,M,M,M,M,M,M,M,M,M,M,M,81.13,KHTH 231815Z AUTO 31005KT 10SM CLR 29/M03 A3004 RMK A01,M
CXP,2022-08-23 18:30,-119.7326,39.1923,1431.00,84.20,23.00,10.53,0.00,0.00,0.00,30.08,M,10.00,M,CLR,M,M,M,M,M,M,M,M,M,M,M,M,M,M,80.88,KCXP 231830Z AUTO 00000KT 10SM CLR 29/M05 A3008 RMK AO2,M
TMT,2022-08-23 18:35,-117.1971,39.4643,1749.34,M,M,M,240.00,4.00,0.00,30.13,M,10.00,M,CLR,M,M,M,M,M,M,M,M,M,M,M,M,M,M,M,KTMT 231835Z AUTO 24004KT 10SM CLR A3013 RMK AO2,M
MEV,2022-08-23 18:35,-119.7500,38.9963,1441.42,82.40,33.80,17.38,0.00,0.00,0.00,30.06,M,10.00,M,CLR,M,M,M,M,M,M,M,M,M,M,M,M,M,M,80.03,KMEV 231835Z AUTO 00000KT 10SM CLR 28/01 A3006 RMK AO2,M
RTS,2022-08-23 18:35,-119.8764,39.6682,1539.00,82.40,24.80,12.03,160.00,4.00,0.00,30.10,M,10.00,M,CLR,M,M,M,M,M,M,M,M,M,M,M,M,M,M,79.79,KRTS 231835Z AUTO 16004KT 10SM CLR 28/M04 A3010 RMK AO2,M
BVU,2022-08-23 18:35,-114.8611,35.9475,671.00,96.80,57.20,26.84,10.00,5.00,0.00,29.87,M,M,M,M,M,M,M,M,M,M,M,M,M,M,M,M,M,M,95.77,KBVU 231835Z AUTO 01005KT 36/14 A2987 RMK AO2 PWINO TSNO,M
HTH,2022-08-23 18:35,-118.6315,38.5448,1282.89,86.00,24.80,10.72,350.00,6.00,0.00,30.03,M,10.00,M,CLR,M,M,M,M,M,M,M,M,M,M,M,M,M,M,82.26,KHTH 231835Z AUTO 35006KT 10SM CLR 30/M04 A3003 RMK A01,M
BAM,2022-08-23 18:35,-116.8743,40.5990,1382.36,87.80,26.60,10.91,0.00,0.00,0.00,30.05,M,10.00,M,CLR,M,M,M,M,M,M,M,M,M,M,M,M,M,M,83.69,KBAM 231835Z AUTO 00000KT 10SM CLR 31/M03 A3005 RMK AO1,M
DRA,2022-08-23 18:53,-116.0278,36.6206,1009.00,98.00,50.00,19.82,M,6.00,0.00,29.93,1007.30,10.00,M,CLR,M,M,M,M,M,M,M,M,M,M,M,M,M,M,95.04,KDRA 231853Z AUTO VRB06KT 10SM CLR 37/10 A2993 RMK AO2 SLP073 T03670100,M
VGT,2022-08-23 18:53,-115.1933,36.2111,667.00,97.00,58.00,27.36,120.00,7.00,0.00,29.86,1009.60,M,M,CLR,M,M,M,M,M,M,M,M,M,M,M,M,M,M,96.26,KVGT 231853Z 12007KT CLR 36/14 A2986 RMK AO2 SLP096 T03610144 PNO $,M
P68,2022-08-23 18:53,-116.0056,39.6014,1993.00,89.00,28.00,11.09,M,5.00,0.00,30.12,1010.50,M,M,M,M,M,M,M,M,M,M,M,M,M,M,M,M,M,84.76,KP68 231853Z AUTO VRB05KT 32/M02 A3012 RMK AO1 SLP105 T03171022,M
LOL,2022-08-23 18:53,-118.5701,40.0684,1192.43,89.00,30.90,12.48,0.00,0.00,0.00,30.00,1011.20,10.00,M,CLR,M,M,M,M,M,M,M,M,M,M,M,M,M,M,85.04,KLOL 231853Z AUTO 00000KT 10SM CLR 32/M01 A3000 RMK AO2 SLP112 T03171006,M
ELY,2022-08-23 18:53,-114.8453,39.2950,1909.00,87.00,41.00,19.83,M,5.00,0.00,30.16,1009.30,10.00,M,FEW,M,M,M,10000.00,M,M,M,M,M,M,M,M,M,M,83.73,KELY 231853Z AUTO VRB05KT 10SM FEW100 31/05 A3016 RMK AO2 SLP093 T03060050,M
RNO,2022-08-23 18:55,-119.7711,39.4839,1341.00,86.00,28.00,12.23,330.00,3.00,0.00,30.04,1011.20,10.00,M,CLR,M,M,M,M,M,M,M,M,M,M,M,M,M,M,82.50,KRNO 231855Z 33003KT 10SM CLR 30/M02 A3004 RMK AO2 SLP112 T03001022,M
TMT,2022-08-23 18:55,-117.1971,39.4643,1749.34,M,M,M,260.00,6.00,0.00,30.12,M,10.00,M,CLR,M,M,M,M,M,M,M,M,M,M,M,M,M,M,M,KTMT 231855Z AUTO 26006KT 10SM CLR A3012 RMK AO2,M
HTH,2022-08-23 18:55,-118.6315,38.5448,1282.89,86.00,21.20,9.21,340.00,8.00,0.00,30.02,M,10.00,M,CLR,M,M,M,M,M,M,M,M,M,M,M,M,M,M,82.04,KHTH 231855Z AUTO 34008KT 10SM CLR 30/M06 A3002 RMK A01,M
BAM,2022-08-23 18:55,-116.8743,40.5990,1382.36,89.60,26.60,10.30,270.00,3.00,0.00,30.04,M,10.00,M,CLR,M,M,M,M,M,M,M,M,M,M,M,M,M,M,85.02,KBAM 231855Z AUTO 27003KT 10SM CLR 32/M03 A3004 RMK AO1,M
MEV,2022-08-23 18:55,-119.7500,38.9963,1441.42,84.20,35.60,17.61,M,3.00,0.00,30.05,M,7.00,M,CLR,M,M,M,M,M,M,M,M,M,M,M,M,M,M,81.34,KMEV 231855Z AUTO VRB03KT 7SM CLR 29/02 A3005 RMK AO2,M
BVU,2022-08-23 18:55,-114.8611,35.9475,671.00,98.60,55.40,23.81,M,3.00,0.00,29.87,M,M,10.00,M,M,M,M,M,M,M,M,M,M,M,M,M,M,M,97.09,KBVU 231855Z AUTO VRB03G10KT 37/13 A2987 RMK AO2 PWINO TSNO,M
CXP,2022-08-23 18:55,-119.7326,39.1923,1431.00,86.00,21.20,9.21,0.00,0.00,0.00,30.06,M,10.00,M,CLR,M,M,M,M,M,M,M,M,M,M,M,M,M,M,82.04,KCXP 231855Z AUTO 00000KT 10SM CLR 30/M06 A3006 RMK AO2,M
RTS,2022-08-23 18:55,-119.8764,39.6682,1539.00,82.40,21.20,10.34,M,3.00,0.00,30.10,M,10.00,M,CLR,M,M,M,M,M,M,M,M,M,M,M,M,M,M,79.55,KRTS 231855Z AUTO VRB03KT 10SM CLR 28/M06 A3010 RMK AO2,M
LAS,2022-08-23 18:56,-115.1634,36.0719,663.00,97.00,59.00,28.46,0.00,0.00,0.00,29.87,1008.30,10.00,M,FEW,M,M,M,12000.00,M,M,M,M,M,M,M,M,M,M,96.72,KLAS 231856Z 00000KT 10SM FEW120 36/15 A2987 RMK AO2 SLP083 T03610150,M
NFL,2022-08-23 18:56,-118.7010,39.4166,1199.00,89.00,30.00,12.03,M,3.00,0.00,30.00,1012.80,10.00,M,FEW,M,M,M,9000.00,M,M,M,M,M,M,M,M,M,M,84.95,KNFL 231856Z VRB03KT 10SM FEW090 32/M01 A3000 RMK SLP128 T03171011,M
WMC,2022-08-23 18:56,-117.8072,40.9019,1315.00,91.00,30.90,11.76,M,3.00,0.00,30.02,1011.40,10.00,M,CLR,M,M,M,M,M,M,M,M,M,M,M,M,M,M,86.48,KWMC 231856Z AUTO VRB03KT 10SM CLR 33/M01 A3002 RMK AO2 SLP114 T03281006,M
TPH,2022-08-23 18:56,-117.0904,38.0505,1654.00,90.00,30.90,12.13,160.00,6.00,0.00,30.11,1010.10,10.00,M,CLR,M,M,M,M,M,M,M,M,M,M,M,M,M,M,85.72,KTPH 231856Z AUTO 16006KT 10SM CLR 32/M01 A3011 RMK AO2 SLP101 T03221006,M
EKO,2022-08-23 18:56,-115.7860,40.8242,1367.00,83.00,26.10,12.50,0.00,0.00,0.00,30.08,1012.90,10.00,M,CLR,M,M,M,M,M,M,M,M,M,M,M,M,M,M,80.21,KEKO 231856Z AUTO 00000KT 10SM CLR 28/M03 A3008 RMK AO2 SLP129 T02831033,M
INS,2022-08-23 18:58,-115.6733,36.5872,955.00,99.30,45.00,15.89,100.00,11.00,0.00,29.91,1007.00,10.00,19.00,CLR,M,M,M,M,M,M,M,M,M,M,M,M,M,M,95.32,KINS 231858Z AUTO 10011G19KT 10SM CLR 37/07 A2991 RMK AO2 SLP070 T03740073 $,M
LSV,2022-08-23 18:58,-115.0343,36.2362,570.00,101.30,58.80,24.80,90.00,5.00,0.00,29.83,1007.20,10.00,M,CLR,M,M,M,M,M,M,M,M,M,M,M,M,M,M,101.50,KLSV 231858Z AUTO 09005KT 10SM CLR 39/15 A2983 RMK AO2 SLP072 T03850149 $,M
CXP,2022-08-23 19:15,-119.7326,39.1923,1431.00,87.80,19.40,8.06,M,3.00,0.00,30.06,M,10.00,M,CLR,M,M,M,M,M,M,M,M,M,M,M,M,M,M,83.23,KCXP 231915Z AUTO VRB03KT 10SM CLR 31/M07 A3006 RMK AO2,M
TMT,2022-08-23 19:15,-117.1971,39.4643,1749.34,M,M,M,240.00,4.00,0.00,30.12,M,10.00,M,CLR,M,M,M,M,M,M,M,M,M,M,M,M,M,M,M,KTMT 231915Z AUTO 24004KT 10SM CLR A3012 RMK AO2,M
HTH,2022-08-23 19:15,-118.6315,38.5448,1282.89,87.80,19.40,8.06,340.00,9.00,0.00,30.01,M,10.00,M,CLR,M,M,M,M,M,M,M,M,M,M,M,M,M,M,83.23,KHTH 231915Z AUTO 34009KT 10SM CLR 31/M07 A3001 RMK A01,M
BAM,2022-08-23 19:15,-116.8743,40.5990,1382.36,89.60,26.60,10.30,0.00,0.00,0.00,30.04,M,10.00,M,CLR,M,M,M,M,M,M,M,M,M,M,M,M,M,M,85.02,KBAM 231915Z AUTO 00000KT 10SM CLR 32/M03 A3004 RMK AO1,M
MEV,2022-08-23 19:15,-119.7500,38.9963,1441.42,87.80,19.40,8.06,0.00,0.00,0.00,30.04,M,10.00,M,CLR,M,M,M,M,M,M,M,M,M,M,M,M,M,M,83.23,KMEV 231915Z AUTO 00000KT 10SM CLR 31/M07 A3004 RMK AO2,M
RTS,2022-08-23 19:15,-119.8764,39.6682,1539.00,84.20,21.20,9.76,0.00,0.00,0.00,30.09,M,10.00,M,CLR,M,M,M,M,M,M,M,M,M,M,M,M,M,M,80.77,KRTS 231915Z AUTO 00000KT 10SM CLR 29/M06 A3009 RMK AO2,M
BVU,2022-08-23 19:15,-114.8611,35.9475,671.00,98.60,57.20,25.41,140.00,5.00,0.00,29.86,M,M,M,M,M,M,M,M,M,M,M,M,M,M,M,M,M,M,97.76,KBVU 231915Z AUTO 14005KT 37/14 A2986 RMK AO2 PWINO TSNO,M
INS,2022-08-23 19:29,-115.6733,36.5872,955.00,100.40,44.60,15.08,120.00,11.00,0.00,29.90,1006.80,10.00,M,CLR,M,M,M,M,M,M,M,M,M,M,M,M,M,M,96.31,KINS 231929Z AUTO 12011KT 10SM CLR 38/07 A2990 RMK AO2 WSHFT 17 LTG DSNT S SLP068 $,M
BAM,2022-08-23 19:35,-116.8743,40.5990,1382.36,91.40,26.60,9.74,0.00,0.00,0.00,30.03,M,10.00,M,CLR,M,M,M,M,M,M,M,M,M,M,M,M,M,M,86.36,KBAM 231935Z AUTO 00000KT 10SM CLR 33/M03 A3003 RMK AO1,M
HTH,2022-08-23 19:35,-118.6315,38.5448,1282.89,87.80,15.80,6.90,330.00,6.00,0.00,30.00,M,10.00,M,CLR,M,M,M,M,M,M,M,M,M,M,M,M,M,M,83.07,KHTH 231935Z AUTO 33006KT 10SM CLR 31/M09 A3000 RMK A01,M
BVU,2022-08-23 19:35,-114.8611,35.9475,671.00,98.60,57.20,25.41,0.00,0.00,0.00,29.85,M,M,M,M,M,M,M,M,M,M,M,M,M,M,M,M,M,M,97.76,KBVU 231935Z AUTO 00000KT 37/14 A2985 RMK AO2 PWINO TSNO,M
TMT,2022-08-23 19:35,-117.1971,39.4643,1749.34,M,M,M,250.00,7.00,0.00,30.11,M,10.00,M,CLR,M,M,M,M,M,M,M,M,M,M,M,M,M,M,M,KTMT 231935Z AUTO 25007KT 10SM CLR A3011 RMK AO2,M
CXP,2022-08-23 19:35,-119.7326,39.1923,1431.00,89.60,19.40,7.61,0.00,0.00,0.00,30.05,M,10.00,M,CLR,M,M,M,M,M,M,M,M,M,M,M,M,M,M,84.54,KCXP 231935Z AUTO 00000KT 10SM CLR 32/M07 A3005 RMK AO2,M
MEV,2022-08-23 19:35,-119.7500,38.9963,1441.42,87.80,26.60,10.91,M,4.00,0.00,30.03,M,10.00,M,CLR,M,M,M,M,M,M,M,M,M,M,M,M,M,M,83.69,KMEV 231935Z AUTO VRB04KT 10SM CLR 31/M03 A3003 RMK AO2,M
RTS,2022-08-23 19:35,-119.8764,39.6682,1539.00,84.20,19.40,9.04,230.00,3.00,0.00,30.08,M,10.00,M,CLR,M,M,M,M,M,M,M,M,M,M,M,M,M,M,80.68,KRTS 231935Z AUTO 23003KT 10SM CLR 29/M07 A3008 RMK AO2,M
DRA,2022-08-23 19:53,-116.0278,36.6206,1009.00,102.00,43.00,13.52,230.00,11.00,0.00,29.91,1006.50,10.00,M,CLR,M,M,M,M,M,M,M,M,M,M,M,M,M,M,97.60,KDRA 231953Z AUTO 23011KT 190V250 10SM CLR 39/06 A2991 RMK AO2 SLP065 T03890061,M
LOL,2022-08-23 19:53,-118.5701,40.0684,1192.43,92.00,27.00,9.75,0.00,0.00,0.00,29.97,1010.40,10.00,M,CLR,M,M,M,M,M,M,M,M,M,M,M,M,M,M,86.77,KLOL 231953Z AUTO 00000KT 10SM CLR 33/M03 A2997 RMK AO2 SLP104 T03331028,M
VGT,2022-08-23 19:53,-115.1933,36.2111,667.00,101.00,58.00,24.31,150.00,9.00,0.00,29.84,1008.70,M,M,CLR,M,M,M,M,M,M,M,M,M,M,M,M,M,M,100.63,KVGT 231953Z 15009KT CLR 38/14 A2984 RMK AO2 SLP087 T03830144,M
P68,2022-08-23 19:53,-116.0056,39.6014,1993.00,90.00,26.10,9.96,M,M,0.00,30.10,1010.00,M,M,M,M,M,M,M,M,M,M,M,M,M,M,M,M,M,85.27,KP68 231953Z AUTO 32/M03 A3010 RMK AO1 SLP100 T03221033,M
ELY,2022-08-23 19:53,-114.8453,39.2950,1909.00,89.00,37.00,15.92,M,M,0.00,30.13,1008.70,10.00,M,FEW,M,M,M,11000.00,M,M,M,M,M,M,M,M,M,M,85.23,KELY 231953Z AUTO 10SM FEW110 32/03 A3013 RMK AO2 LTG DSNT E SLP087 T03170028 $,M
BVU,2022-08-23 19:55,-114.8611,35.9475,671.00,100.40,55.40,22.54,M,3.00,0.00,29.84,M,M,M,M,M,M,M,M,M,M,M,M,M,M,M,M,M,M,99.06,KBVU 231955Z AUTO VRB03KT 38/13 A2984 RMK AO2 PWINO TSNO,M
RNO,2022-08-23 19:55,-119.7711,39.4839,1341.00,92.00,25.00,8.97,M,3.00,0.00,30.01,1009.90,10.00,M,CLR,M,M,M,M,M,M,M,M,M,M,M,M,M,M,86.60,KRNO 231955Z VRB03KT 10SM CLR 33/M04 A3001 RMK AO2 SLP099 T03331039,M
TMT,2022-08-23 19:55,-117.1971,39.4643,1749.34,M,M,M,250.00,11.00,0.00,30.10,M,10.00,17.00,CLR,M,M,M,M,M,M,M,M,M,M,M,M,M,M,M,KTMT 231955Z AUTO 25011G17KT 210V280 10SM CLR A3010 RMK AO2,M
HTH,2022-08-23 19:55,-118.6315,38.5448,1282.89,89.60,15.80,6.52,M,5.00,0.00,29.98,M,10.00,M,CLR,M,M,M,M,M,M,M,M,M,M,M,M,M,M,84.37,KHTH 231955Z AUTO VRB05KT 10SM CLR 32/M09 A2998 RMK A01,M
MEV,2022-08-23 19:55,-119.7500,38.9963,1441.42,89.60,24.80,9.56,0.00,0.00,0.00,30.02,M,9.00,M,CLR,M,M,M,M,M,M,M,M,M,M,M,M,M,M,84.88,KMEV 231955Z AUTO 00000KT 9SM CLR 32/M04 A3002 RMK AO2,M
BAM,2022-08-23 19:55,-116.8743,40.5990,1382.36,93.20,26.60,9.21,0.00,0.00,0.00,30.02,M,10.00,M,CLR,M,M,M,M,M,M,M,M,M,M,M,M,M,M,87.72,KBAM 231955Z AUTO 00000KT 10SM CLR 34/M03 A3002 RMK AO1,M
RTS,2022-08-23 19:55,-119.8764,39.6682,1539.00,86.00,19.40,8.53,0.00,0.00,0.00,30.07,M,10.00,M,CLR,M,M,M,M,M,M,M,M,M,M,M,M,M,M,81.94,KRTS 231955Z AUTO 00000KT 10SM CLR 30/M07 A3007 RMK AO2,M
CXP,2022-08-23 19:55,-119.7326,39.1923,1431.00,89.60,21.20,8.22,0.00,0.00,0.00,30.04,M,10.00,M,CLR,M,M,M,M,M,M,M,M,M,M,M,M,M,M,84.64,KCXP 231955Z AUTO 00000KT 10SM CLR 32/M06 A3004 RMK AO2,M
LAS,2022-08-23 19:56,-115.1634,36.0719,663.00,99.00,59.00,26.78,M,4.00,0.00,29.85,1007.50,10.00,M,FEW,M,M,M,12000.00,M,M,M,M,M,M,M,M,M,M,98.97,KLAS 231956Z VRB04KT 10SM FEW120 37/15 A2985 RMK AO2 SLP075 CB DSNT N AND NW T03720150,M
WMC,2022-08-23 19:56,-117.8072,40.9019,1315.00,93.00,32.00,11.55,M,3.00,0.00,30.00,1010.60,10.00,M,CLR,M,M,M,M,M,M,M,M,M,M,M,M,M,M,88.15,KWMC 231956Z AUTO VRB03KT 10SM CLR 34/00 A3000 RMK AO2 SLP106 T03390000,M
TPH,2022-08-23 19:56,-117.0904,38.0505,1654.00,92.00,30.90,11.43,M,4.00,0.00,30.09,1009.40,10.00,M,CLR,M,M,M,M,M,M,M,M,M,M,M,M,M,M,87.17,KTPH 231956Z AUTO VRB04KT 10SM CLR 33/M01 A3009 RMK AO2 SLP094 T03331006,M
EKO,2022-08-23 19:56,-115.7860,40.8242,1367.00,85.00,23.00,10.30,260.00,3.00,0.00,30.05,1011.90,10.00,M,CLR,M,M,M,M,M,M,M,M,M,M,M,M,M,M,81.37,KEKO 231956Z AUTO 26003KT 10SM CLR 29/M05 A3005 RMK AO2 SLP119 T02941050,M
INS,2022-08-23 19:58,-115.6733,36.5872,955.00,100.40,42.40,13.87,80.00,11.00,0.00,29.89,1006.40,10.00,19.00,CLR,M,M,M,M,M,M,M,M,M,M,M,M,M,M,95.98,KINS 231958Z AUTO 08011G19KT 10SM CLR 38/06 A2989 RMK AO2 SLP064 T03800058 $,M
LSV,2022-08-23 19:58,-115.0343,36.2362,570.00,104.50,59.20,22.87,100.00,4.00,0.00,29.81,1006.50,10.00,M,CLR,M,M,M,M,M,M,M,M,M,M,M,M,M,M,105.35,KLSV 231958Z AUTO 10004KT 10SM CLR 40/15 A2981 RMK AO2 SLP065 T04030151 $,M
BAM,2022-08-23 20:15,-116.8743,40.5990,1382.36,95.00,26.60,8.71,130.00,4.00,0.00,30.01,M,10.00,M,CLR,M,M,M,M,M,M,M,M,M,M,M,M,M,M,89.08,KBAM 232015Z AUTO 13004KT 10SM CLR 35/M03 A3001 RMK AO1,M
RTS,2022-08-23 20:15,-119.8764,39.6682,1539.00,87.80,19.40,8.06,310.00,5.00,0.00,30.06,M,10.00,M,CLR,M,M,M,M,M,M,M,M,M,M,M,M,M,M,83.23,KRTS 232015Z AUTO 31005KT 10SM CLR 31/M07 A3006 RMK AO2,M
CXP,2022-08-23 20:15,-119.7326,39.1923,1431.00,91.40,21.20,7.77,M,5.00,0.00,30.03,M,10.00,M,CLR,M,M,M,M,M,M,M,M,M,M,M,M,M,M,85.96,KCXP 232015Z AUTO VRB05KT 10SM CLR 33/M06 A3003 RMK AO2,M
BVU,2022-08-23 20:15,-114.8611,35.9475,671.00,100.40,55.40,22.54,0.00,0.00,0.00,29.83,M,M,M,M,M,M,M,M,M,M,M,M,M,M,M,M,M,M,99.06,KBVU 232015Z AUTO 00000KT 38/13 A2983 RMK AO2 PWINO TSNO,M
HTH,2022-08-23 20:15,-118.6315,38.5448,1282.89,91.40,15.80,6.16,330.00,8.00,0.00,29.97,M,10.00,M,CLR,M,M,M,M,M,M,M,M,M,M,M,M,M,M,85.68,KHTH 232015Z AUTO 33008KT 10SM CLR 33/M09 A2997 RMK A01,M
TMT,2022-08-23 20:15,-117.1971,39.4643,1749.34,M,M,M,260.00,9.00,0.00,30.10,M,10.00,20.00,CLR,M,M,M,M,M,M,M,M,M,M,M,M,M,M,M,KTMT 232015Z AUTO 26009G20KT 10SM CLR A3010 RMK AO2,M
MEV,2022-08-23 20:15,-119.7500,38.9963,1441.42,91.40,26.60,9.74,M,5.00,0.00,30.02,M,10.00,M,CLR,M,M,M,M,M,M,M,M,M,M,M,M,M,M,86.36,KMEV 232015Z AUTO VRB05KT 10SM CLR 33/M03 A3002 RMK AO2,M
BAM,2022-08-23 20:35,-116.8743,40.5990,1382.36,95.00,26.60,8.71,140.00,4.00,0.00,30.00,M,10.00,M,CLR,M,M,M,M,M,M,M,M,M,M,M,M,M,M,89.08,KBAM 232035Z AUTO 14004KT 10SM CLR 35/M03 A3000 RMK AO1,M
BVU,2022-08-23 20:35,-114.8611,35.9475,671.00,102.20,57.20,22.79,M,3.00,0.00,29.83,M,M,11.00,M,M,M,M,M,M,M,M,M,M,M,M,M,M,M,101.78,KBVU 232035Z AUTO VRB03G11KT 39/14 A2983 RMK AO2 PWINO TSNO,M
CXP,2022-08-23 20:35,-119.7326,39.1923,1431.00,93.20,21.20,7.34,200.00,8.00,0.00,30.02,M,10.00,M,CLR,M,M,M,M,M,M,M,M,M,M,M,M,M,M,87.29,KCXP 232035Z AUTO 20008KT 10SM CLR 34/M06 A3002 RMK AO2,M
RTS,2022-08-23 20:35,-119.8764,39.6682,1539.00,87.80,19.40,8.06,0.00,0.00,0.00,30.06,M,10.00,M,CLR,M,M,M,M,M,M,M,M,M,M,M,M,M,M,83.23,KRTS 232035Z AUTO 00000KT 10SM CLR 31/M07 A3006 RMK AO2,M
MEV,2022-08-23 20:35,-119.7500,38.9963,1441.42,91.40,26.60,9.74,M,4.00,0.00,30.01,M,10.00,M,CLR,M,M,M,M,M,M,M,M,M,M,M,M,M,M,86.36,KMEV 232035Z AUTO VRB04KT 10SM CLR 33/M03 A3001 RMK AO2,M
HTH,2022-08-23 20:35,-118.6315,38.5448,1282.89,91.40,17.60,6.66,320.00,6.00,0.00,29.96,M,10.00,M,CLR,M,M,M,M,M,M,M,M,M,M,M,M,M,M,85.76,KHTH 232035Z AUTO 32006KT 10SM CLR 33/M08 A2996 RMK A01,M
TMT,2022-08-23 20:35,-117.1971,39.4643,1749.34,92.50,33.00,12.16,260.00,14.00,0.00,30.09,M,10.00,21.00,CLR,M,M,M,M,M,M,M,M,M,M,M,M,M,M,87.88,KTMT 232035Z AUTO 26014G21KT 10SM CLR 34/01 A3009 RMK AO2 T03360005,M
ELY,2022-08-23 20:53,-114.8453,39.2950,1909.00,90.00,33.00,13.26,220.00,10.00,0.00,30.13,1009.00,10.00,18.00,CLR,M,M,M,M,M,M,M,M,M,M,M,M,M,M,85.92,KELY 232053Z AUTO 22010G18KT 10SM CLR 32/01 A3013 RMK AO2 SLP090 T03220006 56012,M
DRA,2022-08-23 20:53,-116.0278,36.6206,1009.00,104.00,36.00,9.70,230.00,8.00,0.00,29.88,1005.80,10.00,18.00,CLR,M,M,M,M,M,M,M,M,M,M,M,M,M,M,97.93,KDRA 232053Z AUTO 23008G18KT 10SM CLR 40/02 A2988 RMK AO2 SLP058 T04000022 58016,M
LOL,2022-08-23 20:53,-118.5701,40.0684,1192.43,95.00,19.90,6.57,220.00,5.00,0.00,29.95,1009.60,10.00,M,CLR,M,M,M,M,M,M,M,M,M,M,M,M,M,M,88.53,KLOL 232053Z AUTO 22005KT 10SM CLR 35/M07 A2995 RMK AO2 SLP096 T03501067 58019,M
VGT,2022-08-23 20:53,-115.1933,36.2111,667.00,102.00,55.00,21.17,130.00,3.00,0.00,29.81,1007.90,M,M,CLR,M,M,M,M,M,M,M,M,M,M,M,M,M,M,100.66,KVGT 232053Z 13003KT CLR 39/13 A2981 RMK AO2 LTG DSNT N AND W SLP079 6//// T03890128 58018,M
P68,2022-08-23 20:53,-116.0056,39.6014,1993.00,88.00,27.00,11.02,100.00,9.00,0.00,30.08,1009.70,M,M,M,M,M,M,M,M,M,M,M,M,M,M,M,M,M,83.87,KP68 232053Z AUTO 10009KT 31/M03 A3008 RMK AO1 SLP097 T03111028 56017,M
BVU,2022-08-23 20:55,-114.8611,35.9475,671.00,102.20,53.60,20.00,0.00,0.00,0.00,29.82,M,M,12.00,M,M,M,M,M,M,M,M,M,M,M,M,M,M,M,100.38,KBVU 232055Z AUTO 00000G12KT 39/12 A2982 RMK AO2 PWINO TSNO,M
CXP,2022-08-23 20:55,-119.7326,39.1923,1431.00,93.20,19.40,6.80,240.00,8.00,0.00,30.02,M,10.00,19.00,CLR,M,M,M,M,M,M,M,M,M,M,M,M,M,M,87.18,KCXP 232055Z AUTO 24008G19KT 10SM CLR 34/M07 A3002 RMK AO2,M
RNO,2022-08-23 20:55,-119.7711,39.4839,1341.00,93.00,28.00,9.81,M,3.00,0.00,29.99,1009.30,10.00,M,CLR,M,M,M,M,M,M,M,M,M,M,M,M,M,M,87.70,KRNO 232055Z VRB03KT 10SM CLR 34/M02 A2999 RMK AO2 SLP093 T03391022 58023,M
RTS,2022-08-23 20:55,-119.8764,39.6682,1539.00,87.80,17.60,7.46,M,4.00,0.00,30.05,M,10.00,M,CLR,M,M,M,M,M,M,M,M,M,M,M,M,M,M,83.14,KRTS 232055Z AUTO VRB04KT 10SM CLR 31/M08 A3005 RMK AO2,M
MEV,2022-08-23 20:55,-119.7500,38.9963,1441.42,91.40,26.60,9.74,330.00,3.00,0.00,30.00,M,10.00,10.00,CLR,M,M,M,M,M,M,M,M,M,M,M,M,M,M,86.36,KMEV 232055Z AUTO 33003G10KT 10SM CLR 33/M03 A3000 RMK AO2,M
BAM,2022-08-23 20:55,-116.8743,40.5990,1382.36,96.80,26.60,8.24,200.00,10.00,0.00,30.00,M,10.00,M,CLR,M,M,M,M,M,M,M,M,M,M,M,M,M,M,90.57,KBAM 232055Z AUTO 20010KT 10SM CLR 36/M03 A3000 RMK AO1,M
HTH,2022-08-23 20:55,-118.6315,38.5448,1282.89,91.40,21.20,7.77,M,5.00,0.00,29.96,M,10.00,M,CLR,M,M,M,M,M,M,M,M,M,M,M,M,M,M,85.96,KHTH 232055Z AUTO VRB05KT 10SM CLR 33/M06 A2996 RMK A01,M
TMT,2022-08-23 20:55,-117.1971,39.4643,1749.34,M,M,M,270.00,13.00,0.00,30.09,M,10.00,23.00,CLR,M,M,M,M,M,M,M,M,M,M,M,M,M,M,M,KTMT 232055Z AUTO 27013G23KT 10SM CLR A3009 RMK AO2,M
NFL,2022-08-23 20:56,-118.7010,39.4166,1199.00,94.00,25.00,8.43,310.00,6.00,0.00,29.95,1011.50,10.00,M,FEW,M,M,M,9000.00,M,M,M,M,M,M,M,M,M,M,88.10,KNFL 232056Z 31006KT 10SM FEW090 34/M04 A2995 RMK AO2 SLP115 T03441039 57021,M
WMC,2022-08-23 20:56,-117.8072,40.9019,1315.00,94.00,27.00,9.16,340.00,5.00,0.00,29.98,1010.00,10.00,M,CLR,M,M,M,M,M,M,M,M,M,M,M,M,M,M,88.29,KWMC 232056Z AUTO 34005KT 10SM CLR 34/M03 A2998 RMK AO2 SLP100 T03441028 58018,M
LAS,2022-08-23 20:56,-115.1634,36.0719,663.00,102.00,55.00,21.17,0.00,0.00,0.00,29.82,1006.60,10.00,M,FEW,FEW,M,M,12000.00,25000.00,M,M,M,M,M,M,M,M,M,100.66,KLAS 232056Z 00000KT 10SM FEW120 FEW250 39/13 A2982 RMK AO2 LTG DSNT W SLP066 CB DSNT S AND W-N T03890128 58020,M
TPH,2022-08-23 20:56,-117.0904,38.0505,1654.00,93.00,32.00,11.55,200.00,7.00,0.00,30.07,1008.30,10.00,M,CLR,M,M,M,M,M,M,M,M,M,M,M,M,M,M,88.15,KTPH 232056Z AUTO 20007KT 160V240 10SM CLR 34/00 A3007 RMK AO2 SLP083 T03390000 58017,M
EKO,2022-08-23 20:56,-115.7860,40.8242,1367.00,90.00,28.90,11.18,220.00,7.00,0.00,30.03,1011.40,10.00,M,CLR,M,M,M,M,M,M,M,M,M,M,M,M,M,M,85.52,KEKO 232056Z AUTO 22007KT 10SM CLR 32/M02 A3003 RMK AO2 SLP114 T03221017 57021,M
LSV,2022-08-23 20:58,-115.0343,36.2362,570.00,109.20,59.20,19.91,220.00,5.00,0.00,29.79,1005.70,10.00,M,CLR,M,M,M,M,M,M,M,M,M,M,M,M,M,M,110.64,KLSV 232058Z AUTO 22005KT 10SM CLR 43/15 A2979 RMK AO2 SLP057 T04290151 57019 $,M
INS,2022-08-23 20:58,-115.6733,36.5872,955.00,101.30,43.20,13.92,90.00,14.00,0.00,29.87,1005.70,10.00,M,CLR,M,M,M,M,M,M,M,M,M,M,M,M,M,M,96.96,KINS 232058Z AUTO 09014KT 10SM CLR 39/06 A2987 RMK AO2 SLP057 T03850062 57014 $,M
CXP,2022-08-23 21:15,-119.7326,39.1923,1431.00,95.00,21.20,6.95,240.00,10.00,0.00,30.01,M,10.00,18.00,CLR,M,M,M,M,M,M,M,M,M,M,M,M,M,M,88.62,KCXP 232115Z AUTO 24010G18KT 10SM CLR 35/M06 A3001 RMK AO2,M
BVU,2022-08-23 21:15,-114.8611,35.9475,671.00,104.00,53.60,18.95,100.00,8.00,0.00,29.81,M,M,16.00,M,M,M,M,M,M,M,M,M,M,M,M,M,M,M,102.31,KBVU 232115Z AUTO 10008G16KT 40/12 A2981 RMK AO2 PWINO TSNO,M
RTS,2022-08-23 21:15,-119.8764,39.6682,1539.00,89.60,17.60,7.05,M,5.00,0.00,30.04,M,10.00,12.00,CLR,M,M,M,M,M,M,M,M,M,M,M,M,M,M,84.45,KRTS 232115Z AUTO VRB05G12KT 10SM CLR 32/M08 A3004 RMK AO2,M
MEV,2022-08-23 21:15,-119.7500,38.9963,1441.42,91.40,26.60,9.74,340.00,7.00,0.00,29.99,M,10.00,M,CLR,M,M,M,M,M,M,M,M,M,M,M,M,M,M,86.36,KMEV 232115Z AUTO 34007KT 10SM CLR 33/M03 A2999 RMK AO2,M
BAM,2022-08-23 21:15,-116.8743,40.5990,1382.36,96.80,26.60,8.24,240.00,10.00,0.00,29.99,M,10.00,17.00,CLR,M,M,M,M,M,M,M,M,M,M,M,M,M,M,90.57,KBAM 232115Z AUTO 24010G17KT 10SM CLR 36/M03 A2999 RMK AO1,M
HTH,2022-08-23 21:15,-118.6315,38.5448,1282.89,93.20,21.20,7.34,320.00,6.00,0.00,29.95,M,10.00,14.00,CLR,M,M,M,M,M,M,M,M,M,M,M,M,M,M,87.29,KHTH 232115Z AUTO 32006G14KT 10SM CLR 34/M06 A2995 RMK A01,M
TMT,2022-08-23 21:15,-117.1971,39.4643,1749.34,M,M,M,260.00,12.00,0.00,30.08,M,10.00,19.00,CLR,M,M,M,M,M,M,M,M,M,M,M,M,M,M,M,KTMT 232115Z AUTO 26012G19KT 10SM CLR A3008 RMK AO2,M
INS,2022-08-23 21:24,-115.6733,36.5872,955.00,102.20,46.40,15.30,150.00,23.00,0.00,29.87,1005.70,9.00,32.00,CLR,M,M,M,M,M,M,M,M,M,M,M,M,M,M,98.43,KINS 232124Z AUTO 15023G32KT 9SM CLR 39/08 A2987 RMK AO2 WSHFT 22 SLP057 $,M
INS,2022-08-23 21:27,-115.6733,36.5872,955.00,100.40,42.80,14.08,200.00,21.00,0.00,29.87,1005.80,9.00,32.00,CLR,M,M,M,M,M,M,M,M,M,M,M,M,M,M,96.04,KINS 232127Z AUTO 20021G32KT 9SM CLR 38/06 A2987 RMK AO2 WSHFT 24 SLP058 $,M
CXP,2022-08-23 21:35,-119.7326,39.1923,1431.00,95.00,21.20,6.95,260.00,12.00,0.00,30.01,M,10.00,19.00,CLR,M,M,M,M,M,M,M,M,M,M,M,M,M,M,88.62,KCXP 232135Z AUTO 26012G19KT 10SM CLR 35/M06 A3001 RMK AO2,M
RTS,2022-08-23 21:35,-119.8764,39.6682,1539.00,89.60,17.60,7.05,250.00,5.00,0.00,30.04,M,10.00,19.00,CLR,M,M,M,M,M,M,M,M,M,M,M,M,M,M,84.45,KRTS 232135Z AUTO 25005G19KT 10SM CLR 32/M08 A3004 RMK AO2,M
MEV,2022-08-23 21:35,-119.7500,38.9963,1441.42,93.20,24.80,8.54,300.00,11.00,0.00,29.99,M,10.00,M,CLR,M,M,M,M,M,M,M,M,M,M,M,M,M,M,87.56,KMEV 232135Z AUTO 30011KT 270V330 10SM CLR 34/M04 A2999 RMK AO2,M
BAM,2022-08-23 21:35,-116.8743,40.5990,1382.36,96.80,26.60,8.24,260.00,6.00,0.00,29.98,M,10.00,M,CLR,M,M,M,M,M,M,M,M,M,M,M,M,M,M,90.57,KBAM 232135Z AUTO 26006KT 10SM CLR 36/M03 A2998 RMK AO1,M
BVU,2022-08-23 21:35,-114.8611,35.9475,671.00,104.00,53.60,18.95,130.00,7.00,0.00,29.80,M,M,M,M,M,M,M,M,M,M,M,M,M,M,M,M,M,M,102.31,KBVU 232135Z AUTO 13007KT 40/12 A2980 RMK AO2 PWINO TSNO,M
HTH,2022-08-23 21:35,-118.6315,38.5448,1282.89,95.00,21.20,6.95,350.00,8.00,0.00,29.94,M,10.00,14.00,CLR,M,M,M,M,M,M,M,M,M,M,M,M,M,M,88.62,KHTH 232135Z AUTO 35008G14KT 310V020 10SM CLR 35/M06 A2994 RMK A01,M
TMT,2022-08-23 21:35,-117.1971,39.4643,1749.34,M,M,M,250.00,16.00,0.00,30.08,M,10.00,21.00,CLR,M,M,M,M,M,M,M,M,M,M,M,M,M,M,M,KTMT 232135Z AUTO 25016G21KT 10SM CLR A3008 RMK AO2,M
LOL,2022-08-23 21:53,-118.5701,40.0684,1192.43,97.00,21.00,6.48,100.00,7.00,0.00,29.92,1008.80,10.00,M,CLR,M,M,M,M,M,M,M,M,M,M,M,M,M,M,90.27,KLOL 232153Z AUTO 10007KT 080V020 10SM CLR 36/M06 A2992 RMK AO2 SLP088 T03611061,M
P68,2022-08-23 21:53,-116.0056,39.6014,1993.00,92.00,27.00,9.75,M,M,0.00,30.06,1008.70,M,M,M,M,M,M,M,M,M,M,M,M,M,M,M,M,M,86.77,KP68 232153Z AUTO 33/M03 A3006 RMK AO1 SLP087 T03331028,M
DRA,2022-08-23 21:53,-116.0278,36.6206,1009.00,104.00,37.00,10.09,160.00,4.00,0.00,29.86,1005.20,10.00,M,CLR,M,M,M,M,M,M,M,M,M,M,M,M,M,M,98.11,KDRA 232153Z AUTO 16004KT 10SM CLR 40/03 A2986 RMK AO2 SLP052 T04000028,M
VGT,2022-08-23 21:53,-115.1933,36.2111,667.00,104.00,54.00,19.23,160.00,5.00,0.00,29.78,1006.90,M,M,CLR,M,M,M,M,M,M,M,M,M,M,M,M,M,M,102.46,KVGT 232153Z 16005KT CLR 40/12 A2978 RMK AO2 LTG DSNT W SLP069 T04000122,M
ELY,2022-08-23 21:53,-114.8453,39.2950,1909.00,90.00,36.00,14.88,320.00,16.00,0.00,30.11,1008.60,10.00,26.00,CLR,M,M,M,M,M,M,M,M,M,M,M,26.00,330.00,2022-08-23 21:44,85.97,KELY 232153Z AUTO 32016G26KT 10SM CLR 32/02 A3011 RMK AO2 PK WND 33026/2144 SLP086 T03220022,M
BVU,2022-08-23 21:55,-114.8611,35.9475,671.00,104.00,53.60,18.95,M,3.00,0.00,29.79,M,M,M,M,M,M,M,M,M,M,M,M,M,M,M,M,M,M,102.31,KBVU 232155Z AUTO VRB03KT 40/12 A2979 RMK AO2 PWINO TSNO,M
TMT,2022-08-23 21:55,-117.1971,39.4643,1749.34,M,M,M,260.00,14.00,0.00,30.07,M,10.00,25.00,CLR,M,M,M,M,M,M,M,M,M,M,M,M,M,M,M,KTMT 232155Z AUTO 26014G25KT 10SM CLR A3007 RMK AO2,M
HTH,2022-08-23 21:55,-118.6315,38.5448,1282.89,95.00,21.20,6.95,320.00,11.00,0.00,29.93,M,10.00,M,CLR,M,M,M,M,M,M,M,M,M,M,M,M,M,M,88.62,KHTH 232155Z AUTO 32011KT 10SM CLR 35/M06 A2993 RMK A01,M
BAM,2022-08-23 21:55,-116.8743,40.5990,1382.36,98.60,26.60,7.80,220.00,8.00,0.00,29.97,M,10.00,16.00,CLR,M,M,M,M,M,M,M,M,M,M,M,M,M,M,92.07,KBAM 232155Z AUTO 22008G16KT 10SM CLR 37/M03 A2997 RMK AO1,M
MEV,2022-08-23 21:55,-119.7500,38.9963,1441.42,95.00,24.80,8.08,260.00,10.00,0.00,29.98,M,10.00,M,CLR,M,M,M,M,M,M,M,M,M,M,M,M,M,M,88.91,KMEV 232155Z AUTO 26010KT 10SM CLR 35/M04 A2998 RMK AO2,M
RTS,2022-08-23 21:55,-119.8764,39.6682,1539.00,91.40,17.60,6.66,M,6.00,0.00,30.03,M,10.00,16.00,CLR,M,M,M,M,M,M,M,M,M,M,M,M,M,M,85.76,KRTS 232155Z AUTO VRB06G16KT 310V030 10SM CLR 33/M08 A3003 RMK AO2,M
RNO,2022-08-23 21:55,-119.7711,39.4839,1341.00,95.00,27.00,8.85,140.00,8.00,0.00,29.96,1008.20,10.00,M,CLR,M,M,M,M,M,M,M,M,M,M,M,M,M,M,89.12,KRNO 232155Z 14008KT 10SM CLR 35/M03 A2996 RMK AO2 SLP082 T03501028,M
CXP,2022-08-23 21:55,-119.7326,39.1923,1431.00,95.00,21.20,6.95,290.00,12.00,0.00,30.00,M,10.00,19.00,CLR,M,M,M,M,M,M,M,M,M,M,M,M,M,M,88.62,KCXP 232155Z AUTO 29012G19KT 10SM CLR 35/M06 A3000 RMK AO2,M
WMC,2022-08-23 21:56,-117.8072,40.9019,1315.00,97.00,25.00,7.66,290.00,11.00,0.00,29.95,1009.10,10.00,20.00,CLR,M,M,M,M,M,M,M,M,M,M,M,M,M,M,90.58,KWMC 232156Z AUTO 29011G20KT 10SM CLR 36/M04 A2995 RMK AO2 SLP091 T03611039,M
EKO,2022-08-23 21:56,-115.7860,40.8242,1367.00,88.00,28.90,11.91,200.00,10.00,0.00,30.00,1010.50,10.00,16.00,CLR,M,M,M,M,M,M,M,M,M,M,M,M,M,M,84.03,KEKO 232156Z AUTO 20010G16KT 10SM CLR 31/M02 A3000 RMK AO2 SLP105 T03111017,M
LAS,2022-08-23 21:56,-115.1634,36.0719,663.00,104.00,53.00,18.61,M,3.00,0.00,29.79,1005.40,10.00,M,FEW,FEW,M,M,12000.00,25000.00,M,M,M,M,M,M,M,M,M,102.13,KLAS 232156Z VRB03KT 10SM FEW120 FEW250 40/12 A2979 RMK AO2 LTG DSNT W SLP054 CB DSNT N AND NE-SE AND SW-NW T04000117,M
NFL,2022-08-23 21:56,-118.7010,39.4166,1199.00,95.00,23.00,7.49,M,5.00,0.00,29.93,1010.70,10.00,M,FEW,M,M,M,9000.00,M,M,M,M,M,M,M,M,M,M,88.76,KNFL 232156Z VRB05KT 10SM FEW090 35/M05 A2993 RMK AO2 SLP107 T03501050,M
TPH,2022-08-23 21:56,-117.0904,38.0505,1654.00,94.00,30.00,10.36,140.00,10.00,0.00,30.04,1007.60,10.00,M,CLR,M,M,M,M,M,M,M,M,M,M,M,M,M,M,88.60,KTPH 232156Z AUTO 14010KT 10SM CLR 34/M01 A3004 RMK AO2 SLP076 T03441011,M
INS,2022-08-23 21:58,-115.6733,36.5872,955.00,97.00,40.00,13.96,180.00,12.00,0.00,29.86,1005.60,10.00,M,CLR,M,M,M,M,M,M,M,M,M,M,M,32.00,140.00,2022-08-23 21:22,92.48,KINS 232158Z AUTO 18012KT 10SM CLR 36/04 A2986 RMK AO2 PK WND 14032/22 SLP056 T03610044 $,M
LSV,2022-08-23 21:58,-115.0343,36.2362,570.00,109.00,56.00,17.92,120.00,5.00,0.00,29.75,1004.40,10.00,M,CLR,M,M,M,M,M,M,M,M,M,M,M,M,M,M,108.74,KLSV 232158Z AUTO 12005KT 10SM CLR 43/13 A2975 RMK AO2 SLP044 T04280134 $,M
CXP,2022-08-23 22:15,-119.7326,39.1923,1431.00,95.00,23.00,7.49,290.00,14.00,0.00,29.99,M,10.00,20.00,CLR,M,M,M,M,M,M,M,M,M,M,M,M,M,M,88.76,KCXP 232215Z AUTO 29014G20KT 10SM CLR 35/M05 A2999 RMK AO2,M
TMT,2022-08-23 22:15,-117.1971,39.4643,1749.34,M,M,M,300.00,7.00,0.00,30.06,M,10.00,22.00,CLR,M,M,M,M,M,M,M,M,M,M,M,M,M,M,M,KTMT 232215Z AUTO 30007G22KT 260V330 10SM CLR A3006 RMK AO2,M
HTH,2022-08-23 22:15,-118.6315,38.5448,1282.89,96.80,21.20,6.57,310.00,11.00,0.00,29.92,M,10.00,M,CLR,M,M,M,M,M,M,M,M,M,M,M,M,M,M,90.11,KHTH 232215Z AUTO 31011KT 10SM CLR 36/M06 A2992 RMK A01,M
BAM,2022-08-23 22:15,-116.8743,40.5990,1382.36,98.60,26.60,7.80,270.00,7.00,0.00,29.97,M,10.00,M,CLR,M,M,M,M,M,M,M,M,M,M,M,M,M,M,92.07,KBAM 232215Z AUTO 27007KT 10SM CLR 37/M03 A2997 RMK AO1,M
MEV,2022-08-23 22:15,-119.7500,38.9963,1441.42,95.00,24.80,8.08,M,4.00,0.00,29.98,M,10.00,13.00,CLR,M,M,M,M,M,M,M,M,M,M,M,M,M,M,88.91,KMEV 232215Z AUTO VRB04G13KT 10SM CLR 35/M04 A2998 RMK AO2,M
RTS,2022-08-23 22:15,-119.8764,39.6682,1539.00,89.60,17.60,7.05,350.00,8.00,0.00,30.03,M,10.00,M,CLR,M,M,M,M,M,M,M,M,M,M,M,M,M,M,84.45,KRTS 232215Z AUTO 35008KT 10SM CLR 32/M08 A3003 RMK AO2,M
BVU,2022-08-23 22:15,-114.8611,35.9475,671.00,104.00,53.60,18.95,140.00,8.00,0.00,29.78,M,M,13.00,M,M,M,M,M,M,M,M,M,M,M,M,M,M,M,102.31,KBVU 232215Z AUTO 14008G13KT 070V210 40/12 A2978 RMK AO2 PWINO TSNO,M
HTH,2022-08-23 22:35,-118.6315,38.5448,1282.89,96.80,21.20,6.57,320.00,13.00,0.00,29.91,M,10.00,18.00,CLR,M,M,M,M,M,M,M,M,M,M,M,M,M,M,90.11,KHTH 232235Z AUTO 32013G18KT 10SM CLR 36/M06 A2991 RMK A01,M
BAM,2022-08-23 22:35,-116.8743,40.5990,1382.36,98.60,26.60,7.80,230.00,6.00,0.00,29.96,M,10.00,17.00,CLR,M,M,M,M,M,M,M,M,M,M,M,M,M,M,92.07,KBAM 232235Z AUTO 23006G17KT 10SM CLR 37/M03 A2996 RMK AO1,M
TMT,2022-08-23 22:35,-117.1971,39.4643,1749.34,M,M,M,270.00,10.00,0.00,30.06,M,10.00,18.00,CLR,M,M,M,M,M,M,M,M,M,M,M,M,M,M,M,KTMT 232235Z AUTO 27010G18KT 10SM CLR A3006 RMK AO2,M
MEV,2022-08-23 22:35,-119.7500,38.9963,1441.42,95.00,24.80,8.08,300.00,10.00,0.00,29.97,M,10.00,16.00,CLR,M,M,M,M,M,M,M,M,M,M,M,M,M,M,88.91,KMEV 232235Z AUTO 30010G16KT 270V330 10SM CLR 35/M04 A2997 RMK AO2,M
BVU,2022-08-23 22:35,-114.8611,35.9475,671.00,104.00,53.60,18.95,0.00,0.00,0.00,29.77,M,M,M,M,M,M,M,M,M,M,M,M,M,M,M,M,M,M,102.31,KBVU 232235Z AUTO 00000KT 40/12 A2977 RMK AO2 PWINO TSNO,M
CXP,2022-08-23 22:35,-119.7326,39.1923,1431.00,93.20,24.80,8.54,280.00,13.00,0.00,29.99,M,10.00,20.00,CLR,M,M,M,M,M,M,M,M,M,M,M,M,M,M,87.56,KCXP 232235Z AUTO 28013G20KT 10SM CLR 34/M04 A2999 RMK AO2,M
RTS,2022-08-23 22:35,-119.8764,39.6682,1539.00,91.40,17.60,6.66,220.00,5.00,0.00,30.02,M,10.00,M,CLR,M,M,M,M,M,M,M,M,M,M,M,M,M,M,85.76,KRTS 232235Z AUTO 22005KT 10SM CLR 33/M08 A3002 RMK AO2,M
DRA,2022-08-23 22:53,-116.0278,36.6206,1009.00,104.00,35.00,9.36,M,6.00,0.00,29.85,1004.80,10.00,M,CLR,M,M,M,M,M,M,M,M,M,M,M,M,M,M,97.77,KDRA 232253Z AUTO VRB06KT 10SM CLR 40/02 A2985 RMK AO2 SLP048 T04000017,M
LOL,2022-08-23 22:53,-118.5701,40.0684,1192.43,97.00,19.00,5.95,200.00,10.00,0.00,29.90,1008.40,10.00,M,CLR,M,M,M,M,M,M,M,M,M,M,M,M,M,M,90.13,KLOL 232253Z AUTO 20010KT 10SM CLR 36/M07 A2990 RMK AO2 SLP084 T03611072,M
ELY,2022-08-23 22:53,-114.8453,39.2950,1909.00,86.00,36.00,16.89,130.00,8.00,0.00,30.11,1009.10,10.00,M,FEW,M,M,M,12000.00,M,M,M,M,M,M,M,M,M,M,82.70,KELY 232253Z AUTO 13008KT 10SM FEW120 30/02 A3011 RMK AO2 SLP091 T03000022,M
P68,2022-08-23 22:53,-116.0056,39.6014,1993.00,91.00,27.00,10.02,M,6.00,0.00,30.04,1008.30,M,M,M,M,M,M,M,M,M,M,M,M,M,M,M,M,M,86.10,KP68 232253Z AUTO VRB06KT 33/M03 A3004 RMK AO1 SLP083 T03281028,M
VGT,2022-08-23 22:53,-115.1933,36.2111,667.00,105.00,51.00,16.73,0.00,0.00,0.00,29.75,1005.80,M,M,CLR,M,M,M,M,M,M,M,M,M,M,M,M,M,M,102.61,KVGT 232253Z 00000KT CLR 41/11 A2975 RMK AO2 LTG DSNT N SLP058 T04060106,M
BVU,2022-08-23 22:55,-114.8611,35.9475,671.00,102.20,53.60,20.00,20.00,5.00,0.00,29.76,M,M,11.00,M,M,M,M,M,M,M,M,M,M,M,M,M,M,M,100.38,KBVU 232255Z AUTO 02005G11KT 39/12 A2976 RMK AO2 PWINO TSNO,M
TMT,2022-08-23 22:55,-117.1971,39.4643,1749.34,M,M,M,280.00,12.00,0.00,30.05,M,10.00,16.00,CLR,M,M,M,M,M,M,M,M,M,M,M,M,M,M,M,KTMT 232255Z AUTO 28012G16KT 10SM CLR A3005 RMK AO2,M
HTH,2022-08-23 22:55,-118.6315,38.5448,1282.89,96.80,21.20,6.57,320.00,12.00,0.00,29.90,M,10.00,M,CLR,M,M,M,M,M,M,M,M,M,M,M,M,M,M,90.11,KHTH 232255Z AUTO 32012KT 10SM CLR 36/M06 A2990 RMK A01,M
BAM,2022-08-23 22:55,-116.8743,40.5990,1382.36,98.60,23.00,6.71,230.00,11.00,0.00,29.95,M,10.00,26.00,CLR,M,M,M,M,M,M,M,M,M,M,M,M,M,M,91.75,KBAM 232255Z AUTO 23011G26KT 190V250 10SM CLR 37/M05 A2995 RMK AO1,M
MEV,2022-08-23 22:55,-119.7500,38.9963,1441.42,96.80,26.60,8.24,260.00,16.00,0.00,29.96,M,10.00,M,CLR,M,M,M,M,M,M,M,M,M,M,M,M,M,M,90.57,KMEV 232255Z AUTO 26016KT 10SM CLR 36/M03 A2996 RMK AO2,M
CXP,2022-08-23 22:55,-119.7326,39.1923,1431.00,93.20,24.80,8.54,290.00,17.00,0.00,29.99,M,10.00,M,CLR,M,M,M,M,M,M,M,M,M,M,M,M,M,M,87.56,KCXP 232255Z AUTO 29017KT 10SM CLR 34/M04 A2999 RMK AO2,M
RNO,2022-08-23 22:55,-119.7711,39.4839,1341.00,97.00,27.00,8.32,290.00,11.00,0.00,29.95,1007.60,10.00,18.00,FEW,M,M,M,13000.00,M,M,M,M,M,M,M,M,M,M,90.77,KRNO 232255Z 29011G18KT 10SM FEW130 36/M03 A2995 RMK AO2 SLP076 T03611028,M
RTS,2022-08-23 22:55,-119.8764,39.6682,1539.00,91.40,15.80,6.16,190.00,5.00,0.00,30.02,M,10.00,M,CLR,M,M,M,M,M,M,M,M,M,M,M,M,M,M,85.68,KRTS 232255Z AUTO 19005KT 10SM CLR 33/M09 A3002 RMK AO2,M
LAS,2022-08-23 22:56,-115.1634,36.0719,663.00,106.00,51.00,16.29,30.00,6.00,0.00,29.77,1004.60,10.00,M,FEW,FEW,M,M,12000.00,22000.00,M,M,M,M,M,M,M,M,M,103.54,KLAS 232256Z 03006KT 10SM FEW120 FEW220 41/11 A2977 RMK AO2 LTG DSNT N SLP046 CB DSNT ALQDS T04110106,M
EKO,2022-08-23 22:56,-115.7860,40.8242,1367.00,89.00,28.00,11.09,180.00,6.00,0.00,29.98,1009.60,10.00,M,CLR,M,M,M,M,M,M,M,M,M,M,M,M,M,M,84.76,KEKO 232256Z AUTO 18006KT 10SM CLR 32/M02 A2998 RMK AO2 SLP096 T03171022,M
WMC,2022-08-23 22:56,-117.8072,40.9019,1315.00,97.00,24.10,7.38,260.00,15.00,0.00,29.93,1008.60,10.00,23.00,CLR,M,M,M,M,M,M,M,M,M,M,M,M,M,M,90.50,KWMC 232256Z AUTO 26015G23KT 10SM CLR 36/M04 A2993 RMK AO2 SLP086 T03611044,M
NFL,2022-08-23 22:56,-118.7010,39.4166,1199.00,95.00,21.00,6.89,M,5.00,0.00,29.90,1010.00,10.00,M,FEW,M,M,M,9000.00,M,M,M,M,M,M,M,M,M,M,88.61,KNFL 232256Z VRB05KT 10SM FEW090 35/M06 A2990 RMK SLP100 T03501061,M
TPH,2022-08-23 22:56,-117.0904,38.0505,1654.00,95.00,30.00,10.01,M,4.00,0.00,30.02,1006.80,10.00,M,CLR,M,M,M,M,M,M,M,M,M,M,M,M,M,M,89.45,KTPH 232256Z AUTO VRB04KT 10SM CLR 35/M01 A3002 RMK AO2 SLP068 T03501011,M
LSV,2022-08-23 22:58,-115.0343,36.2362,570.00,110.70,54.00,15.86,0.00,0.00,0.00,29.72,1003.30,10.00,M,CLR,M,M,M,M,M,M,M,M,M,M,M,M,M,M,109.56,KLSV 232258Z AUTO 00000KT 10SM CLR 44/12 A2972 RMK AO2 SLP033 T04370123 $,M
INS,2022-08-23 22:58,-115.6733,36.5872,955.00,100.40,42.40,13.87,120.00,5.00,0.00,29.84,1004.80,10.00,M,CLR,M,M,M,M,M,M,M,M,M,M,M,M,M,M,95.98,KINS 232258Z AUTO 12005KT 10SM CLR 38/06 A2984 RMK AO2 SLP048 T03800058 $,M
MEV,2022-08-23 23:15,-119.7500,38.9963,1441.42,95.00,26.60,8.71,270.00,15.00,0.00,29.96,M,10.00,M,CLR,M,M,M,M,M,M,M,M,M,M,M,M,M,M,89.08,KMEV 232315Z AUTO 27015KT 10SM CLR 35/M03 A2996 RMK AO2,M
CXP,2022-08-23 23:15,-119.7326,39.1923,1431.00,93.20,26.60,9.21,280.00,13.00,0.00,29.98,M,10.00,23.00,CLR,M,M,M,M,M,M,M,M,M,M,M,M,M,M,87.72,KCXP 232315Z AUTO 28013G23KT 10SM CLR 34/M03 A2998 RMK AO2,M
BVU,2022-08-23 23:15,-114.8611,35.9475,671.00,104.00,51.80,17.74,M,4.00,0.00,29.76,M,M,M,M,M,M,M,M,M,M,M,M,M,M,M,M,M,M,101.69,KBVU 232315Z AUTO VRB04KT 40/11 A2976 RMK AO2 PWINO TSNO,M
TMT,2022-08-23 23:15,-117.1971,39.4643,1749.34,M,M,M,270.00,9.00,0.00,30.05,M,10.00,M,CLR,M,M,M,M,M,M,M,M,M,M,M,M,M,M,M,KTMT 232315Z AUTO 27009KT 10SM CLR A3005 RMK AO2,M
HTH,2022-08-23 23:15,-118.6315,38.5448,1282.89,96.80,21.20,6.57,310.00,13.00,0.00,29.90,M,10.00,M,CLR,M,M,M,M,M,M,M,M,M,M,M,M,M,M,90.11,KHTH 232315Z AUTO 31013KT 10SM CLR 36/M06 A2990 RMK A01,M
BAM,2022-08-23 23:15,-116.8743,40.5990,1382.36,98.60,21.20,6.22,270.00,11.00,0.00,29.95,M,10.00,22.00,CLR,M,M,M,M,M,M,M,M,M,M,M,M,M,M,91.61,KBAM 232315Z AUTO 27011G22KT 10SM CLR 37/M06 A2995 RMK AO1,M
RTS,2022-08-23 23:15,-119.8764,39.6682,1539.00,91.40,17.60,6.66,220.00,5.00,0.00,30.01,M,10.00,M,CLR,M,M,M,M,M,M,M,M,M,M,M,M,M,M,85.76,KRTS 232315Z AUTO 22005KT 10SM CLR 33/M08 A3001 RMK AO2,M
HTH,2022-08-23 23:35,-118.6315,38.5448,1282.89,96.80,21.20,6.57,320.00,12.00,0.00,29.89,M,10.00,M,CLR,M,M,M,M,M,M,M,M,M,M,M,M,M,M,90.11,KHTH 232335Z AUTO 32012KT 10SM CLR 36/M06 A2989 RMK A01,M
TMT,2022-08-23 23:35,-117.1971,39.4643,1749.34,92.50,28.20,10.05,250.00,8.00,0.00,30.05,M,10.00,15.00,CLR,M,M,M,M,M,M,M,M,M,M,M,M,M,M,87.34,KTMT 232335Z AUTO 25008G15KT 10SM CLR 34/M02 A3005 RMK AO2 T03361021,M
BAM,2022-08-23 23:35,-116.8743,40.5990,1382.36,98.60,23.00,6.71,250.00,13.00,0.00,29.95,M,10.00,19.00,CLR,M,M,M,M,M,M,M,M,M,M,M,M,M,M,91.75,KBAM 232335Z AUTO 25013G19KT 10SM CLR 37/M05 A2995 RMK AO1,M
MEV,2022-08-23 23:35,-119.7500,38.9963,1441.42,95.00,28.40,9.38,270.00,14.00,0.00,29.96,M,10.00,M,CLR,M,M,M,M,M,M,M,M,M,M,M,M,M,M,89.27,KMEV 232335Z AUTO 27014KT 10SM CLR 35/M02 A2996 RMK AO2,M
RTS,2022-08-23 23:35,-119.8764,39.6682,1539.00,93.20,15.80,5.82,210.00,13.00,0.00,30.01,M,10.00,M,CLR,M,M,M,M,M,M,M,M,M,M,M,M,M,M,86.99,KRTS 232335Z AUTO 21013KT 10SM CLR 34/M09 A3001 RMK AO2,M
CXP,2022-08-23 23:35,-119.7326,39.1923,1431.00,93.20,26.60,9.21,290.00,17.00,0.00,29.98,M,10.00,M,CLR,M,M,M,M,M,M,M,M,M,M,M,M,M,M,87.72,KCXP 232335Z AUTO 29017KT 10SM CLR 34/M03 A2998 RMK AO2,M
BVU,2022-08-23 23:35,-114.8611,35.9475,671.00,104.00,50.00,16.59,0.00,0.00,0.00,29.75,M,M,M,M,M,M,M,M,M,M,M,M,M,M,M,M,M,M,101.14,KBVU 232335Z AUTO 00000KT 40/10 A2975 RMK AO2 PWINO TSNO,M
VGT,2022-08-23 23:53,-115.1933,36.2111,667.00,106.00,48.00,14.51,180.00,5.00,0.00,29.74,1005.40,M,M,CLR,M,M,M,M,M,M,M,M,M,M,M,M,M,M,102.59,KVGT 232353Z 18005KT CLR 41/09 A2974 RMK AO2 SLP054 6//// T04110089 10422 20328 56023,M
ELY,2022-08-23 23:53,-114.8453,39.2950,1909.00,88.00,30.90,12.92,M,4.00,T,30.08,1007.90,10.00,M,FEW,M,M,M,12000.00,M,M,M,M,M,M,M,26.00,130.00,2022-08-23 23:10,84.22,KELY 232353Z AUTO VRB04KT 10SM FEW120 31/M01 A3008 RMK AO2 PK WND 13026/2310 RAB40E49 SLP079 P0000 60000 T03111006 10333 20283 58014,M
P68,2022-08-23 23:53,-116.0056,39.6014,1993.00,91.00,27.00,10.02,M,3.00,0.00,30.03,1007.90,M,M,M,M,M,M,M,M,M,M,M,M,M,M,M,M,M,86.10,KP68 232353Z AUTO VRB03KT 33/M03 A3003 RMK AO1 SLP079 T03281028 10344 20289 56014,M
LOL,2022-08-23 23:53,-118.5701,40.0684,1192.43,98.00,14.00,4.63,280.00,12.00,0.00,29.89,1007.70,10.00,16.00,CLR,M,M,M,M,M,M,M,M,M,M,M,M,M,M,90.77,KLOL 232353Z AUTO 28012G16KT 10SM CLR 37/M10 A2989 RMK AO2 SLP077 T03671100 10372 20294 56019,M
DRA,2022-08-23 23:53,-116.0278,36.6206,1009.00,98.00,44.00,15.87,40.00,11.00,T,29.85,1005.20,10.00,M,FEW,SCT,BKN,M,7000.00,9000.00,11000.00,M,-RA,M,M,M,M,M,M,93.99,KDRA 232353Z AUTO 04011KT 10SM -RA FEW070 SCT090 BKN110 37/07 A2985 RMK AO2 RAB42 SLP052 P0000 60000 T03670067 10417 20356 56011,M
RTS,2022-08-23 23:55,-119.8764,39.6682,1539.00,91.40,15.80,6.16,230.00,12.00,0.00,30.01,M,10.00,21.00,CLR,M,M,M,M,M,M,M,M,M,M,M,M,M,M,85.68,KRTS 232355Z AUTO 23012G21KT 10SM CLR 33/M09 A3001 RMK AO2,M
CXP,2022-08-23 23:55,-119.7326,39.1923,1431.00,93.20,26.60,9.21,270.00,13.00,0.00,29.97,M,10.00,23.00,CLR,M,M,M,M,M,M,M,M,M,M,M,M,M,M,87.72,KCXP 232355Z AUTO 27013G23KT 10SM CLR 34/M03 A2997 RMK AO2,M
MEV,2022-08-23 23:55,-119.7500,38.9963,1441.42,93.20,28.40,9.91,270.00,13.00,0.00,29.96,M,10.00,19.00,CLR,M,M,M,M,M,M,M,M,M,M,M,M,M,M,87.89,KMEV 232355Z AUTO 27013G19KT 10SM CLR 34/M02 A2996 RMK AO2,M
BAM,2022-08-23 23:55,-116.8743,40.5990,1382.36,98.60,21.20,6.22,250.00,10.00,0.00,29.95,M,10.00,18.00,CLR,M,M,M,M,M,M,M,M,M,M,M,M,M,M,91.61,KBAM 232355Z AUTO 25010G18KT 10SM CLR 37/M06 A2995 RMK AO1,M
HTH,2022-08-23 23:55,-118.6315,38.5448,1282.89,95.00,21.20,6.95,320.00,13.00,0.00,29.89,M,10.00,M,CLR,M,M,M,M,M,M,M,M,M,M,M,M,M,M,88.62,KHTH 232355Z AUTO 32013KT 10SM CLR 35/M06 A2989 RMK A01,M
BVU,2022-08-23 23:55,-114.8611,35.9475,671.00,104.00,46.40,14.50,30.00,4.00,0.00,29.75,M,M,M,M,M,M,M,M,M,M,M,M,M,M,M,M,M,M,100.21,KBVU 232355Z AUTO 03004KT 40/08 A2975 RMK AO2 PWINO TSNO,M
TMT,2022-08-23 23:55,-117.1971,39.4643,1749.34,M,M,M,250.00,9.00,0.00,30.05,M,10.00,15.00,CLR,M,M,M,M,M,M,M,M,M,M,M,M,M,M,M,KTMT 232355Z AUTO 25009G15KT 10SM CLR A3005 RMK AO2,M
RNO,2022-08-23 23:55,-119.7711,39.4839,1341.00,96.00,28.00,8.92,280.00,14.00,0.00,29.93,1007.30,10.00,22.00,FEW,M,M,M,13000.00,M,M,M,M,M,M,M,M,M,M,90.13,KRNO 232355Z 28014G22KT 10SM FEW130 36/M02 A2993 RMK AO2 SLP073 T03561022 10367 20261 56018,M
LAS,2022-08-23 23:56,-115.1634,36.0719,663.00,107.00,47.00,13.48,340.00,5.00,0.00,29.75,1004.00,10.00,M,FEW,FEW,M,M,12000.00,22000.00,M,M,M,M,M,M,M,M,M,103.37,KLAS 232356Z 34005KT 10SM FEW120TCU FEW220 42/08 A2975 RMK AO2 SLP040 TCU E-S-W CB DSNT ALQDS T04170083 10417 20344 56023,M
WMC,2022-08-23 23:56,-117.8072,40.9019,1315.00,96.00,21.90,6.92,0.00,0.00,0.00,29.93,1008.60,10.00,M,CLR,M,M,M,M,M,M,M,M,M,M,M,M,M,M,89.58,KWMC 232356Z AUTO 00000KT 10SM CLR 36/M06 A2993 RMK AO2 SLP086 T03561056 10367 20300 56015,M
TPH,2022-08-23 23:56,-117.0904,38.0505,1654.00,93.00,28.90,10.18,240.00,11.00,0.00,30.01,1006.60,10.00,M,CLR,M,M,M,M,M,M,M,M,M,M,M,M,M,M,87.79,KTPH 232356Z AUTO 24011KT 10SM CLR 34/M02 A3001 RMK AO2 SLP066 T03391017 10356 20294 56017,M
NFL,2022-08-23 23:56,-118.7010,39.4166,1199.00,96.00,21.00,6.66,M,5.00,0.00,29.89,1009.50,10.00,M,FEW,M,M,M,9000.00,M,M,M,M,M,M,M,M,M,M,89.52,KNFL 232356Z VRB05KT 10SM FEW090 36/M06 A2989 RMK AO2 SLP095 T03561061 10367 20289 56020,M
EKO,2022-08-23 23:56,-115.7860,40.8242,1367.00,89.00,26.10,10.25,290.00,11.00,0.00,29.97,1009.40,10.00,18.00,CLR,M,M,M,M,M,M,M,M,M,M,M,M,M,M,84.60,KEKO 232356Z AUTO 29011G18KT 10SM CLR 32/M03 A2997 RMK AO2 SLP094 T03171033 10344 20250 56018,M
LSV,2022-08-23 23:58,-115.0343,36.2362,570.00,110.00,50.00,13.87,50.00,3.00,0.00,29.71,1003.00,10.00,M,CLR,M,M,M,M,M,M,M,M,M,M,M,M,M,M,107.27,KLSV 232358Z AUTO 05003KT 10SM CLR 43/10 A2971 RMK AO2 SLP030 T04340100 10440 20369 57024 $,M
INS,2022-08-23 23:58,-115.6733,36.5872,955.00,101.70,39.60,11.96,190.00,4.00,0.00,29.83,1004.40,10.00,M,FEW,SCT,M,M,12000.00,16000.00,M,M,M,M,M,M,M,M,M,96.64,KINS 232358Z AUTO 19004KT 10SM FEW120 SCT160 39/04 A2983 RMK AO2 SLP044 T03870042 10390 20351 57014 $,M
