station,valid,lon,lat,elevation,tmpf,dwpf,relh,drct,sknt,p01i,alti,mslp,vsby,gust,skyc1,skyc2,skyc3,skyc4,skyl1,skyl2,skyl3,skyl4,wxcodes,ice_accretion_1hr,ice_accretion_3hr,ice_accretion_6hr,peak_wind_gust,peak_wind_drct,peak_wind_time,feel,metar,snowdepth
VGT,2023-08-25 00:03,-115.1933,36.2111,667.00,92.00,62.00,36.95,210.00,13.00,0.00,29.90,M,10.00,22.00,FEW,M,M,M,11000.00,M,M,M,M,M,M,M,M,M,M,92.58,KVGT 250003Z 21013G22KT 10SM FEW110 33/17 A2990 RMK AO2 TSE00 T03330167,M
HND,2023-08-25 00:09,-115.1344,35.9729,742.79,89.60,57.20,33.56,M,4.00,0.00,29.96,M,10.00,M,FEW,M,M,M,10000.00,M,M,M,M,M,M,M,M,M,M,88.28,KHND 250009Z VRB04KT 10SM FEW100 32/14 A2996 RMK AO2 TSE03,M
05U,2023-08-25 00:10,-116.0051,39.6042,1811.23,80.60,41.00,24.46,M,M,0.00,30.18,M,10.00,M,M,M,M,M,M,M,M,M,M,M,M,M,M,M,M,79.20,K05U 250010Z AUTO 10SM 27/05 A3018 RMK A01,M
BVU,2023-08-25 00:15,-114.8611,35.9475,671.00,95.00,55.40,26.58,170.00,8.00,0.00,29.89,M,10.00,M,CLR,M,M,M,M,M,M,M,M,M,M,M,M,M,M,93.22,KBVU 250015Z AUTO 17008KT 10SM CLR 35/13 A2989 RMK AO2,M
CXP,2023-08-25 00:15,-119.7326,39.1923,1431.00,82.40,39.20,21.51,210.00,4.00,0.00,30.06,M,10.00,10.00,OVC,M,M,M,11000.00,M,M,M,M,M,M,M,M,M,M,80.21,KCXP 250015Z AUTO 21004G10KT 10SM OVC110 28/04 A3006 RMK AO2,M
RTS,2023-08-25 00:15,-119.8764,39.6682,1539.00,80.60,37.40,21.25,220.00,12.00,0.00,30.08,M,10.00,17.00,OVC,M,M,M,11000.00,M,M,M,M,M,M,M,M,M,M,79.02,KRTS 250015Z AUTO 22012G17KT 10SM OVC110 27/03 A3008 RMK AO2,M
MEV,2023-08-25 00:15,-119.7500,38.9963,1441.42,82.40,44.60,26.49,170.00,8.00,0.00,30.04,M,10.00,M,BKN,M,M,M,11000.00,M,M,M,M,M,M,M,M,M,M,80.50,KMEV 250015Z AUTO 17008KT 10SM BKN110 28/07 A3004 RMK AO2,M
HTH,2023-08-25 00:15,-118.6315,38.5448,1282.89,87.80,41.00,19.40,280.00,8.00,0.00,30.00,M,10.00,16.00,FEW,M,M,M,12000.00,M,M,M,M,M,M,M,M,M,M,84.30,KHTH 250015Z AUTO 28008G16KT 10SM FEW120 31/05 A3000 RMK A01,M
10U,2023-08-25 00:15,-116.1876,41.9532,1637.00,84.20,33.80,16.39,130.00,6.00,0.00,30.11,M,10.00,12.00,SCT,M,M,M,12000.00,M,M,M,M,M,M,M,M,M,M,81.30,K10U 250015Z AUTO 13006G12KT 10SM SCT120 29/01 A3011 RMK AO2,M
BAM,2023-08-25 00:15,-116.8743,40.5990,1382.36,89.60,30.20,11.94,240.00,7.00,0.00,30.05,M,10.00,16.00,CLR,M,M,M,M,M,M,M,M,M,M,M,M,M,M,85.34,KBAM 250015Z AUTO 24007G16KT 10SM CLR 32/M01 A3005 RMK AO1,M
TMT,2023-08-25 00:15,-117.1971,39.4643,1749.34,82.40,42.00,23.97,240.00,7.00,0.00,30.14,M,M,M,CLR,M,M,M,M,M,M,M,M,M,M,M,M,M,M,80.34,KTMT 250015Z AUTO 24007KT CLR 28/06 A3014 RMK AO2 T02800056 PWINO,M
DRA,2023-08-25 00:16,-116.0278,36.6206,1009.00,94.00,56.00,28.01,100.00,13.00,0.00,29.97,M,10.00,M,BKN,BKN,M,M,9500.00,11000.00,M,M,M,M,M,M,M,M,M,92.36,KDRA 250016Z AUTO 10013KT 10SM BKN095 BKN110 34/13 A2997 RMK AO2 WSHFT 2359 T03440133,M
LAS,2023-08-25 00:18,-115.1634,36.0719,663.00,88.00,64.00,44.95,260.00,5.00,T,29.91,M,10.00,M,FEW,SCT,BKN,M,11000.00,16000.00,22000.00,M,M,M,M,M,M,M,M,89.34,KLAS 250018Z 26005KT 10SM FEW110 SCT160 BKN220 31/18 A2991 RMK AO2 RAE2358 TSE18 TS DSIPTD CB DSNT ALQDS P0000 T03110178,M
BVU,2023-08-25 00:35,-114.8611,35.9475,671.00,95.00,55.40,26.58,230.00,5.00,0.00,29.89,M,10.00,M,CLR,M,M,M,M,M,M,M,M,M,M,M,M,M,M,93.22,KBVU 250035Z AUTO 23005KT 10SM CLR 35/13 A2989 RMK AO2,M
CXP,2023-08-25 00:35,-119.7326,39.1923,1431.00,82.40,39.20,21.51,210.00,4.00,0.00,30.06,M,10.00,M,OVC,M,M,M,11000.00,M,M,M,M,M,M,M,M,M,M,80.21,KCXP 250035Z AUTO 21004KT 10SM OVC110 28/04 A3006 RMK AO2,M
RTS,2023-08-25 00:35,-119.8764,39.6682,1539.00,80.60,37.40,21.25,230.00,11.00,0.00,30.08,M,10.00,M,OVC,M,M,M,11000.00,M,M,M,M,M,M,M,M,M,M,79.02,KRTS 250035Z AUTO 23011KT 10SM OVC110 27/03 A3008 RMK AO2,M
05U,2023-08-25 00:35,-116.0051,39.6042,1811.23,80.60,42.80,26.22,M,M,0.00,30.18,M,10.00,M,M,M,M,M,M,M,M,M,M,M,M,M,M,M,M,79.30,K05U 250035Z AUTO 10SM 27/06 A3018 RMK A01,M
MEV,2023-08-25 00:35,-119.7500,38.9963,1441.42,82.40,44.60,26.49,170.00,8.00,0.00,30.04,M,10.00,M,OVC,M,M,M,10000.00,M,M,M,M,M,M,M,M,M,M,80.50,KMEV 250035Z AUTO 17008KT 10SM OVC100 28/07 A3004 RMK AO2,M
HTH,2023-08-25 00:35,-118.6315,38.5448,1282.89,89.60,42.80,19.64,240.00,11.00,0.00,30.00,M,10.00,17.00,FEW,M,M,M,12000.00,M,M,M,M,M,M,M,M,M,M,85.93,KHTH 250035Z AUTO 24011G17KT 10SM FEW120 32/06 A3000 RMK A01,M
10U,2023-08-25 00:35,-116.1876,41.9532,1637.00,84.20,32.00,15.25,190.00,6.00,0.00,30.11,M,10.00,M,FEW,M,M,M,12000.00,M,M,M,M,M,M,M,M,M,M,81.28,K10U 250035Z AUTO 19006KT 10SM FEW120 29/00 A3011 RMK AO2,M
BAM,2023-08-25 00:35,-116.8743,40.5990,1382.36,89.60,32.00,12.84,250.00,8.00,0.00,30.05,M,10.00,M,CLR,M,M,M,M,M,M,M,M,M,M,M,M,M,M,85.54,KBAM 250035Z AUTO 25008KT 10SM CLR 32/00 A3005 RMK AO1,M
TMT,2023-08-25 00:35,-117.1971,39.4643,1749.34,79.50,44.40,28.89,250.00,5.00,0.00,30.14,M,M,M,SCT,M,M,M,11000.00,M,M,M,M,M,M,M,M,M,M,79.50,KTMT 250035Z AUTO 25005KT SCT110 26/07 A3014 RMK AO2 T02640069 PWINO,M
05U,2023-08-25 00:50,-116.0051,39.6042,1811.23,80.60,44.60,28.08,M,M,0.00,30.18,M,10.00,M,M,M,M,M,M,M,M,M,M,M,M,M,M,M,M,79.42,K05U 250050Z AUTO 10SM 27/07 A3018 RMK A01,M
P68,2023-08-25 00:53,-116.0056,39.6014,1993.00,80.00,43.00,26.94,170.00,9.00,0.00,30.15,1013.20,M,M,M,M,M,M,M,M,M,M,M,M,M,M,M,M,M,78.97,KP68 250053Z AUTO 17009KT 27/06 A3015 RMK AO1 SLP132 T02670061,M
DRA,2023-08-25 00:53,-116.0278,36.6206,1009.00,93.00,56.00,28.90,100.00,12.00,0.00,29.96,1009.40,10.00,M,SCT,BKN,M,M,9000.00,11000.00,M,M,M,M,M,M,M,M,M,91.32,KDRA 250053Z AUTO 10012KT 10SM SCT090 BKN110 34/13 A2996 RMK AO2 WSHFT 2359 SLP094 T03390133,M
ELY,2023-08-25 00:53,-114.8453,39.2950,1909.00,77.00,46.00,33.34,270.00,7.00,0.00,30.19,1013.40,10.00,M,FEW,M,M,M,11000.00,M,M,M,M,M,M,M,M,M,M,77.00,KELY 250053Z AUTO 27007KT 10SM FEW110 25/08 A3019 RMK AO2 SLP134 T02500078,M
VGT,2023-08-25 00:53,-115.1933,36.2111,667.00,95.00,56.00,27.16,200.00,9.00,0.00,29.89,1011.00,10.00,M,FEW,SCT,M,M,5500.00,10000.00,M,M,M,M,M,M,M,M,M,93.41,KVGT 250053Z 20009KT 10SM FEW055 SCT100 35/13 A2989 RMK AO2 TSE00 SLP110 T03500133,M
LOL,2023-08-25 00:53,-118.5701,40.0684,1192.43,87.00,37.00,17.02,140.00,8.00,0.00,29.98,1011.90,10.00,M,CLR,M,M,M,M,M,M,M,M,M,M,M,M,M,M,83.51,KLOL 250053Z AUTO 14008KT 10SM CLR 31/03 A2998 RMK AO2 SLP119 T03060028,M
BVU,2023-08-25 00:55,-114.8611,35.9475,671.00,95.00,55.40,26.58,M,3.00,0.00,29.89,M,10.00,M,CLR,M,M,M,M,M,M,M,M,M,M,M,M,M,M,93.22,KBVU 250055Z AUTO VRB03KT 10SM CLR 35/13 A2989 RMK AO2,M
CXP,2023-08-25 00:55,-119.7326,39.1923,1431.00,80.60,39.20,22.81,290.00,7.00,0.00,30.06,M,10.00,M,OVC,M,M,M,10000.00,M,M,M,M,M,M,M,M,M,M,79.10,KCXP 250055Z AUTO 29007KT 10SM OVC100 27/04 A3006 RMK AO2,M
INS,2023-08-25 00:55,-115.6733,36.5872,955.00,88.30,55.60,33.00,60.00,13.00,0.00,29.96,1009.70,10.00,M,CLR,M,M,M,M,M,M,M,M,M,M,M,M,M,M,86.62,KINS 250055Z AUTO 06013KT 10SM CLR 31/13 A2996 RMK AO2 SLP097 T03130131 $,M
RNO,2023-08-25 00:55,-119.7711,39.4839,1341.00,85.00,38.00,18.87,210.00,9.00,0.00,30.02,1011.20,10.00,17.00,BKN,M,M,M,11000.00,M,M,M,M,M,M,M,31.00,250.00,2023-08-24 23:58,81.99,KRNO 250055Z 21009G17KT 10SM BKN110 29/03 A3002 RMK AO2 PK WND 25031/2358 SLP112 T02940033,M
RTS,2023-08-25 00:55,-119.8764,39.6682,1539.00,80.60,35.60,19.79,220.00,10.00,0.00,30.08,M,10.00,M,OVC,M,M,M,11000.00,M,M,M,M,M,M,M,M,M,M,78.94,KRTS 250055Z AUTO 22010KT 10SM OVC110 27/02 A3008 RMK AO2,M
MEV,2023-08-25 00:55,-119.7500,38.9963,1441.42,84.20,44.60,24.99,180.00,7.00,0.00,30.04,M,10.00,M,BKN,M,M,M,10000.00,M,M,M,M,M,M,M,M,M,M,81.73,KMEV 250055Z AUTO 18007KT 10SM BKN100 29/07 A3004 RMK AO2,M
BAM,2023-08-25 00:55,-116.8743,40.5990,1382.36,89.60,32.00,12.84,290.00,7.00,0.00,30.05,M,10.00,M,CLR,M,M,M,M,M,M,M,M,M,M,M,M,M,M,85.54,KBAM 250055Z AUTO 29007KT 10SM CLR 32/00 A3005 RMK AO1,M
HTH,2023-08-25 00:55,-118.6315,38.5448,1282.89,87.80,41.00,19.40,240.00,9.00,0.00,30.00,M,10.00,17.00,FEW,M,M,M,11000.00,M,M,M,M,M,M,M,M,M,M,84.30,KHTH 250055Z AUTO 24009G17KT 10SM FEW110 31/05 A3000 RMK A01,M
TMT,2023-08-25 00:55,-117.1971,39.4643,1749.34,77.00,46.40,33.85,250.00,4.00,0.00,30.13,M,M,M,SCT,M,M,M,11000.00,M,M,M,M,M,M,M,M,M,M,77.00,KTMT 250055Z AUTO 25004KT SCT110 25/08 A3013 RMK AO2 T02510080 PWINO,M
10U,2023-08-25 00:55,-116.1876,41.9532,1637.00,82.40,35.60,18.67,120.00,4.00,0.00,30.11,M,10.00,M,CLR,M,M,M,M,M,M,M,M,M,M,M,M,M,M,80.08,K10U 250055Z AUTO 12004KT 10SM CLR 28/02 A3011 RMK AO2,M
LSV,2023-08-25 00:55,-115.0343,36.2362,570.00,94.60,58.30,29.88,180.00,8.00,0.00,29.85,1008.20,10.00,M,FEW,M,M,M,14000.00,M,M,M,M,M,M,M,M,M,M,93.80,KLSV 250055Z AUTO 18008KT 10SM FEW140 35/15 A2985 RMK AO2 SLP082 T03480146 $,M
EKO,2023-08-25 00:56,-115.7860,40.8242,1367.00,87.00,43.00,21.49,280.00,4.00,0.00,30.08,1013.10,10.00,M,CLR,M,M,M,M,M,M,M,M,M,M,M,M,M,M,83.76,KEKO 250056Z AUTO 28004KT 10SM CLR 31/06 A3008 RMK AO2 SLP131 T03060061,M
WMC,2023-08-25 00:56,-117.8072,40.9019,1315.00,88.00,32.00,13.51,230.00,7.00,0.00,30.02,1012.10,10.00,M,CLR,M,M,M,M,M,M,M,M,M,M,M,M,M,M,84.24,KWMC 250056Z AUTO 23007KT 10SM CLR 31/00 A3002 RMK AO2 SLP121 T03110000,M
NFL,2023-08-25 00:56,-118.7010,39.4166,1199.00,85.00,47.00,26.67,350.00,5.00,0.00,29.98,1012.20,10.00,M,SCT,BKN,BKN,M,7000.00,12000.00,25000.00,M,M,M,M,M,M,M,M,82.51,KNFL 250056Z 35005KT 10SM SCT070 BKN120 BKN250 29/08 A2998 RMK AO2 SLP122 T02940083,M
HND,2023-08-25 00:56,-115.1344,35.9729,742.79,91.00,57.00,31.89,180.00,6.00,0.00,29.94,1012.70,10.00,M,CLR,M,M,M,M,M,M,M,M,M,M,M,M,M,M,89.59,KHND 250056Z 18006KT 10SM CLR 33/14 A2994 RMK AO2 TSE03 SLP127 T03280139,M
LAS,2023-08-25 00:56,-115.1634,36.0719,663.00,91.00,59.00,34.27,230.00,5.00,T,29.90,1009.90,10.00,M,FEW,SCT,BKN,M,11000.00,16000.00,22000.00,M,M,M,M,M,M,M,M,90.27,KLAS 250056Z 23005KT 10SM FEW110 SCT160 BKN220 33/15 A2990 RMK AO2 RAE2358 TSE18 SLP099 TS DSIPTD ACC SW-W CB DSNT SW-NW P0000 T03280150,M
BVU,2023-08-25 01:15,-114.8611,35.9475,671.00,95.00,53.60,24.89,320.00,7.00,0.00,29.89,M,10.00,M,CLR,M,M,M,M,M,M,M,M,M,M,M,M,M,M,92.71,KBVU 250115Z AUTO 32007KT 10SM CLR 35/12 A2989 RMK AO2,M
CXP,2023-08-25 01:15,-119.7326,39.1923,1431.00,82.40,39.20,21.51,M,5.00,0.00,30.06,M,10.00,M,OVC,M,M,M,10000.00,M,M,M,M,M,M,M,M,M,M,80.21,KCXP 250115Z AUTO VRB05KT 10SM OVC100 28/04 A3006 RMK AO2,M
RTS,2023-08-25 01:15,-119.8764,39.6682,1539.00,78.80,37.40,22.54,260.00,10.00,0.00,30.08,M,10.00,M,OVC,M,M,M,10000.00,M,M,M,M,M,M,M,M,M,M,78.80,KRTS 250115Z AUTO 26010KT 10SM OVC100 26/03 A3008 RMK AO2,M
05U,2023-08-25 01:15,-116.0051,39.6042,1811.23,78.80,46.40,31.90,M,M,0.00,30.18,M,10.00,M,M,M,M,M,M,M,M,M,M,M,M,M,M,M,M,78.80,K05U 250115Z AUTO 10SM 26/08 A3018 RMK A01,M
MEV,2023-08-25 01:15,-119.7500,38.9963,1441.42,80.60,41.00,24.46,280.00,8.00,0.00,30.05,M,10.00,14.00,BKN,BKN,M,M,10000.00,12000.00,M,M,M,M,M,M,M,M,M,79.20,KMEV 250115Z AUTO 28008G14KT 10SM BKN100 BKN120 27/05 A3005 RMK AO2,M
HTH,2023-08-25 01:15,-118.6315,38.5448,1282.89,86.00,41.00,20.54,260.00,9.00,0.00,30.00,M,10.00,M,FEW,M,M,M,11000.00,M,M,M,M,M,M,M,M,M,M,82.86,KHTH 250115Z AUTO 26009KT 10SM FEW110 30/05 A3000 RMK A01,M
10U,2023-08-25 01:15,-116.1876,41.9532,1637.00,82.40,37.40,20.04,150.00,4.00,0.00,30.11,M,10.00,M,CLR,M,M,M,M,M,M,M,M,M,M,M,M,M,M,80.14,K10U 250115Z AUTO 15004KT 10SM CLR 28/03 A3011 RMK AO2,M
BAM,2023-08-25 01:15,-116.8743,40.5990,1382.36,87.80,33.80,14.61,240.00,6.00,0.00,30.05,M,10.00,M,CLR,M,M,M,M,M,M,M,M,M,M,M,M,M,M,84.10,KBAM 250115Z AUTO 24006KT 10SM CLR 31/01 A3005 RMK AO1,M
TMT,2023-08-25 01:15,-117.1971,39.4643,1749.34,75.70,46.60,35.61,0.00,0.00,0.00,30.13,M,M,M,CLR,M,M,M,M,M,M,M,M,M,M,M,M,M,M,75.70,KTMT 250115Z AUTO 00000KT CLR 24/08 A3013 RMK AO2 T02430081 PWINO,M
HTH,2023-08-25 01:30,-118.6315,38.5448,1282.89,86.00,41.00,20.54,250.00,7.00,0.00,30.00,M,10.00,M,CLR,M,M,M,M,M,M,M,M,M,M,M,M,M,M,82.86,KHTH 250130Z AUTO 25007KT 10SM CLR 30/05 A3000 RMK A01,M
BVU,2023-08-25 01:35,-114.8611,35.9475,671.00,95.00,53.60,24.89,0.00,0.00,0.00,29.89,M,10.00,M,CLR,M,M,M,M,M,M,M,M,M,M,M,M,M,M,92.71,KBVU 250135Z AUTO 00000KT 10SM CLR 35/12 A2989 RMK AO2,M
CXP,2023-08-25 01:35,-119.7326,39.1923,1431.00,80.60,37.40,21.25,290.00,8.00,0.00,30.06,M,10.00,M,OVC,M,M,M,10000.00,M,M,M,M,M,M,M,M,M,M,79.02,KCXP 250135Z AUTO 29008KT 10SM OVC100 27/03 A3006 RMK AO2,M
RTS,2023-08-25 01:35,-119.8764,39.6682,1539.00,78.80,37.40,22.54,250.00,8.00,0.00,30.08,M,10.00,M,OVC,M,M,M,10000.00,M,M,M,M,M,M,M,M,M,M,78.80,KRTS 250135Z AUTO 25008KT 10SM OVC100 26/03 A3008 RMK AO2,M
05U,2023-08-25 01:35,-116.0051,39.6042,1811.23,77.00,46.40,33.85,M,M,0.00,30.18,M,10.00,M,M,M,M,M,M,M,M,M,M,M,M,M,M,M,M,77.00,K05U 250135Z AUTO 10SM 25/08 A3018 RMK A01,M
MEV,2023-08-25 01:35,-119.7500,38.9963,1441.42,80.60,42.80,26.22,250.00,5.00,0.00,30.05,M,10.00,12.00,BKN,OVC,M,M,10000.00,12000.00,M,M,M,M,M,M,M,M,M,79.30,KMEV 250135Z AUTO 25005G12KT 10SM BKN100 OVC120 27/06 A3005 RMK AO2,M
10U,2023-08-25 01:35,-116.1876,41.9532,1637.00,82.40,39.20,21.51,110.00,5.00,0.00,30.10,M,10.00,M,CLR,M,M,M,M,M,M,M,M,M,M,M,M,M,M,80.21,K10U 250135Z AUTO 11005KT 10SM CLR 28/04 A3010 RMK AO2,M
BAM,2023-08-25 01:35,-116.8743,40.5990,1382.36,87.80,33.80,14.61,270.00,7.00,0.00,30.05,M,10.00,M,CLR,M,M,M,M,M,M,M,M,M,M,M,M,M,M,84.10,KBAM 250135Z AUTO 27007KT 10SM CLR 31/01 A3005 RMK AO1,M
TMT,2023-08-25 01:35,-117.1971,39.4643,1749.34,73.00,50.40,44.95,0.00,0.00,0.00,30.13,M,M,M,CLR,M,M,M,M,M,M,M,M,M,M,M,M,M,M,73.00,KTMT 250135Z AUTO 00000KT CLR 23/10 A3013 RMK AO2 T02280102 PWINO,M
05U,2023-08-25 01:50,-116.0051,39.6042,1811.23,77.00,46.40,33.85,M,M,0.00,30.18,M,10.00,M,M,M,M,M,M,M,M,M,M,M,M,M,M,M,M,77.00,K05U 250150Z AUTO 10SM 25/08 A3018 RMK A01,M
P68,2023-08-25 01:53,-116.0056,39.6014,1993.00,77.00,46.00,33.34,180.00,12.00,0.00,30.15,1013.30,M,M,M,M,M,M,M,M,M,M,M,M,M,M,M,M,M,77.00,KP68 250153Z AUTO 18012KT 25/08 A3015 RMK AO1 SLP133 T02500078,M
DRA,2023-08-25 01:53,-116.0278,36.6206,1009.00,91.00,54.00,28.60,110.00,10.00,0.00,29.96,1009.70,10.00,M,SCT,SCT,M,M,9000.00,10000.00,M,M,M,M,M,M,M,M,M,88.78,KDRA 250153Z AUTO 11010KT 10SM SCT090 SCT100 33/12 A2996 RMK AO2 SLP097 T03280122,M
ELY,2023-08-25 01:53,-114.8453,39.2950,1909.00,69.00,51.00,52.66,160.00,4.00,0.00,30.20,1014.70,10.00,M,FEW,M,M,M,11000.00,M,M,M,M,M,M,M,M,M,M,69.00,KELY 250153Z AUTO 16004KT 10SM FEW110 21/11 A3020 RMK AO2 SLP147 T02060106,M
VGT,2023-08-25 01:53,-115.1933,36.2111,667.00,95.00,56.00,27.16,220.00,4.00,0.00,29.90,1011.10,10.00,M,CLR,M,M,M,M,M,M,M,M,M,M,M,M,M,M,93.41,KVGT 250153Z 22004KT 10SM CLR 35/13 A2990 RMK AO2 SLP111 T03500133,M
LOL,2023-08-25 01:53,-118.5701,40.0684,1192.43,85.00,39.00,19.62,40.00,4.00,0.00,29.98,1011.40,10.00,M,CLR,M,M,M,M,M,M,M,M,M,M,M,M,M,M,82.02,KLOL 250153Z AUTO 04004KT 10SM CLR 29/04 A2998 RMK AO2 SLP114 T02940039,M
BVU,2023-08-25 01:55,-114.8611,35.9475,671.00,93.20,53.60,26.31,0.00,0.00,0.00,29.90,M,10.00,M,CLR,M,M,M,M,M,M,M,M,M,M,M,M,M,M,90.86,KBVU 250155Z AUTO 00000KT 10SM CLR 34/12 A2990 RMK AO2,M
CXP,2023-08-25 01:55,-119.7326,39.1923,1431.00,80.60,39.20,22.81,M,3.00,0.00,30.06,M,10.00,10.00,BKN,OVC,M,M,10000.00,12000.00,M,M,M,M,M,M,M,M,M,79.10,KCXP 250155Z AUTO VRB03G10KT 10SM BKN100 OVC120 27/04 A3006 RMK AO2,M
INS,2023-08-25 01:55,-115.6733,36.5872,955.00,87.40,55.60,33.96,80.00,9.00,0.00,29.96,1009.70,10.00,M,CLR,M,M,M,M,M,M,M,M,M,M,M,M,M,M,85.80,KINS 250155Z AUTO 08009KT 10SM CLR 31/13 A2996 RMK AO2 SLP097 T03080131 $,M
RNO,2023-08-25 01:55,-119.7711,39.4839,1341.00,84.00,41.00,21.90,140.00,7.00,0.00,30.03,1011.30,10.00,M,BKN,M,M,M,11000.00,M,M,M,M,M,M,M,M,M,M,81.37,KRNO 250155Z 14007KT 10SM BKN110 29/05 A3003 RMK AO2 SLP113 T02890050,M
LSV,2023-08-25 01:55,-115.0343,36.2362,570.00,94.30,56.00,27.76,210.00,4.00,0.00,29.85,1008.20,10.00,M,BKN,M,M,M,17000.00,M,M,M,M,M,M,M,M,M,M,92.67,KLSV 250155Z AUTO 21004KT 10SM BKN170 35/13 A2985 RMK AO2 SLP082 T03460134 $,M
RTS,2023-08-25 01:55,-119.8764,39.6682,1539.00,78.80,39.20,24.19,250.00,10.00,0.00,30.08,M,10.00,M,OVC,M,M,M,10000.00,M,M,M,M,M,M,M,M,M,M,78.80,KRTS 250155Z AUTO 25010KT 10SM OVC100 26/04 A3008 RMK AO2,M
MEV,2023-08-25 01:55,-119.7500,38.9963,1441.42,80.60,42.80,26.22,270.00,4.00,0.00,30.05,M,10.00,M,BKN,BKN,M,M,10000.00,12000.00,M,M,M,M,M,M,M,M,M,79.30,KMEV 250155Z AUTO 27004KT 10SM BKN100 BKN120 27/06 A3005 RMK AO2,M
HTH,2023-08-25 01:55,-118.6315,38.5448,1282.89,84.20,41.00,21.76,280.00,7.00,0.00,30.00,M,10.00,13.00,FEW,M,M,M,11000.00,M,M,M,M,M,M,M,M,M,M,81.52,KHTH 250155Z AUTO 28007G13KT 10SM FEW110 29/05 A3000 RMK A01,M
BAM,2023-08-25 01:55,-116.8743,40.5990,1382.36,86.00,32.00,14.40,290.00,6.00,0.00,30.05,M,10.00,M,CLR,M,M,M,M,M,M,M,M,M,M,M,M,M,M,82.64,KBAM 250155Z AUTO 29006KT 10SM CLR 30/00 A3005 RMK AO1,M
TMT,2023-08-25 01:55,-117.1971,39.4643,1749.34,73.60,50.70,44.54,0.00,0.00,0.00,30.13,M,M,M,CLR,M,M,M,M,M,M,M,M,M,M,M,M,M,M,73.60,KTMT 250155Z AUTO 00000KT CLR 23/10 A3013 RMK AO2 T02310104 PWINO,M
10U,2023-08-25 01:55,-116.1876,41.9532,1637.00,82.40,37.40,20.04,90.00,4.00,0.00,30.10,M,10.00,M,FEW,M,M,M,12000.00,M,M,M,M,M,M,M,M,M,M,80.14,K10U 250155Z AUTO 09004KT 10SM FEW120 28/03 A3010 RMK AO2,M
EKO,2023-08-25 01:56,-115.7860,40.8242,1367.00,84.00,43.00,23.66,0.00,0.00,0.00,30.08,1013.10,10.00,M,CLR,M,M,M,M,M,M,M,M,M,M,M,M,M,M,81.48,KEKO 250156Z AUTO 00000KT 10SM CLR 29/06 A3008 RMK AO2 SLP131 T02890061,M
WMC,2023-08-25 01:56,-117.8072,40.9019,1315.00,86.00,36.00,16.89,170.00,7.00,0.00,30.02,1012.20,10.00,M,CLR,M,M,M,M,M,M,M,M,M,M,M,M,M,M,82.70,KWMC 250156Z AUTO 17007KT 10SM CLR 30/02 A3002 RMK AO2 SLP122 T03000022,M
NFL,2023-08-25 01:56,-118.7010,39.4166,1199.00,83.00,55.00,38.26,30.00,5.00,0.00,29.97,1012.10,10.00,M,SCT,BKN,BKN,M,7000.00,12000.00,25000.00,M,M,M,M,M,M,M,M,82.11,KNFL 250156Z 03005KT 10SM SCT070 BKN120 BKN250 28/13 A2997 RMK AO2 SLP121 T02830128,M
HND,2023-08-25 01:56,-115.1344,35.9729,742.79,90.00,60.00,36.64,210.00,7.00,0.00,29.95,1012.80,10.00,M,CLR,M,M,M,M,M,M,M,M,M,M,M,M,M,M,89.63,KHND 250156Z 21007KT 10SM CLR 32/16 A2995 RMK AO2 SLP128 T03220156,M
LAS,2023-08-25 01:56,-115.1634,36.0719,663.00,90.00,61.00,37.97,190.00,4.00,0.00,29.90,1010.00,10.00,M,FEW,SCT,BKN,M,11000.00,16000.00,22000.00,M,M,M,M,M,M,M,M,90.03,KLAS 250156Z 19004KT 10SM FEW110 SCT160 BKN220 32/16 A2990 RMK AO2 SLP100 T03220161,M
BVU,2023-08-25 02:15,-114.8611,35.9475,671.00,93.20,55.40,28.10,230.00,3.00,0.00,29.90,M,10.00,M,CLR,M,M,M,M,M,M,M,M,M,M,M,M,M,M,91.35,KBVU 250215Z AUTO 23003KT 10SM CLR 34/13 A2990 RMK AO2,M
CXP,2023-08-25 02:15,-119.7326,39.1923,1431.00,80.60,39.20,22.81,M,5.00,0.00,30.07,M,10.00,M,FEW,FEW,OVC,M,4900.00,6500.00,10000.00,M,M,M,M,M,M,M,M,79.10,KCXP 250215Z AUTO VRB05KT 10SM FEW049 FEW065 OVC100 27/04 A3007 RMK AO2,M
RTS,2023-08-25 02:15,-119.8764,39.6682,1539.00,78.80,39.20,24.19,250.00,8.00,0.00,30.08,M,10.00,M,BKN,M,M,M,11000.00,M,M,M,M,M,M,M,M,M,M,78.80,KRTS 250215Z AUTO 25008KT 10SM BKN110 26/04 A3008 RMK AO2,M
05U,2023-08-25 02:15,-116.0051,39.6042,1811.23,75.20,46.40,35.94,M,M,0.00,30.18,M,10.00,M,M,M,M,M,M,M,M,M,M,M,M,M,M,M,M,75.20,K05U 250215Z AUTO 10SM 24/08 A3018 RMK A01,M
MEV,2023-08-25 02:15,-119.7500,38.9963,1441.42,78.80,41.00,25.95,0.00,0.00,0.00,30.05,M,10.00,M,FEW,FEW,M,M,9500.00,12000.00,M,M,M,M,M,M,M,M,M,78.80,KMEV 250215Z AUTO 00000KT 10SM FEW095 FEW120 26/05 A3005 RMK AO2,M
HTH,2023-08-25 02:15,-118.6315,38.5448,1282.89,84.20,42.80,23.33,240.00,6.00,0.00,30.01,M,10.00,M,BKN,M,M,M,11000.00,M,M,M,M,M,M,M,M,M,M,81.61,KHTH 250215Z AUTO 24006KT 10SM BKN110 29/06 A3001 RMK A01,M
10U,2023-08-25 02:15,-116.1876,41.9532,1637.00,78.80,41.00,25.95,80.00,5.00,0.00,30.11,M,10.00,M,FEW,M,M,M,12000.00,M,M,M,M,M,M,M,M,M,M,78.80,K10U 250215Z AUTO 08005KT 10SM FEW120 26/05 A3011 RMK AO2,M
BAM,2023-08-25 02:15,-116.8743,40.5990,1382.36,84.20,33.80,16.39,280.00,5.00,0.00,30.05,M,10.00,M,CLR,M,M,M,M,M,M,M,M,M,M,M,M,M,M,81.30,KBAM 250215Z AUTO 28005KT 10SM CLR 29/01 A3005 RMK AO1,M
TMT,2023-08-25 02:15,-117.1971,39.4643,1749.34,68.40,51.40,54.55,110.00,6.00,0.00,30.13,M,M,M,CLR,M,M,M,M,M,M,M,M,M,M,M,M,M,M,68.40,KTMT 250215Z AUTO 11006KT CLR 20/11 A3013 RMK AO2 T02020108 PWINO,M
05U,2023-08-25 02:30,-116.0051,39.6042,1811.23,73.40,48.20,40.85,M,M,0.00,30.19,M,10.00,M,M,M,M,M,M,M,M,M,M,M,M,M,M,M,M,73.40,K05U 250230Z AUTO 10SM 23/09 A3019 RMK A01,M
BVU,2023-08-25 02:35,-114.8611,35.9475,671.00,89.60,59.00,35.81,280.00,3.00,0.00,29.90,M,10.00,M,CLR,M,M,M,M,M,M,M,M,M,M,M,M,M,M,88.86,KBVU 250235Z AUTO 28003KT 10SM CLR 32/15 A2990 RMK AO2,M
CXP,2023-08-25 02:35,-119.7326,39.1923,1431.00,77.00,42.80,29.51,330.00,3.00,0.00,30.07,M,10.00,M,FEW,FEW,BKN,M,5000.00,7000.00,10000.00,M,M,M,M,M,M,M,M,77.00,KCXP 250235Z AUTO 33003KT 10SM FEW050 FEW070 BKN100 25/06 A3007 RMK AO2,M
RTS,2023-08-25 02:35,-119.8764,39.6682,1539.00,77.00,39.20,25.67,250.00,14.00,0.00,30.09,M,10.00,M,BKN,M,M,M,11000.00,M,M,M,M,M,M,M,M,M,M,77.00,KRTS 250235Z AUTO 25014KT 10SM BKN110 25/04 A3009 RMK AO2,M
MEV,2023-08-25 02:35,-119.7500,38.9963,1441.42,73.40,50.00,43.69,0.00,0.00,0.00,30.05,M,10.00,M,SCT,M,M,M,12000.00,M,M,M,M,M,M,M,M,M,M,73.40,KMEV 250235Z AUTO 00000KT 10SM SCT120 23/10 A3005 RMK AO2,M
HTH,2023-08-25 02:35,-118.6315,38.5448,1282.89,82.40,42.80,24.72,250.00,5.00,0.00,30.01,M,10.00,M,BKN,M,M,M,11000.00,M,M,M,M,M,M,M,M,M,M,80.39,KHTH 250235Z AUTO 25005KT 10SM BKN110 28/06 A3001 RMK A01,M
10U,2023-08-25 02:35,-116.1876,41.9532,1637.00,75.20,42.80,31.34,90.00,7.00,0.00,30.11,M,10.00,M,SCT,M,M,M,12000.00,M,M,M,M,M,M,M,M,M,M,75.20,K10U 250235Z AUTO 09007KT 10SM SCT120 24/06 A3011 RMK AO2,M
BAM,2023-08-25 02:35,-116.8743,40.5990,1382.36,80.60,33.80,18.42,290.00,4.00,0.00,30.05,M,10.00,M,CLR,M,M,M,M,M,M,M,M,M,M,M,M,M,M,78.88,KBAM 250235Z AUTO 29004KT 10SM CLR 27/01 A3005 RMK AO1,M
TMT,2023-08-25 02:35,-117.1971,39.4643,1749.34,66.20,51.30,58.64,120.00,6.00,0.00,30.14,M,M,M,CLR,M,M,M,M,M,M,M,M,M,M,M,M,M,M,66.20,KTMT 250235Z AUTO 12006KT CLR 19/11 A3014 RMK AO2 T01900107 PWINO,M
P68,2023-08-25 02:53,-116.0056,39.6014,1993.00,69.00,49.00,48.88,130.00,9.00,0.00,30.16,1013.60,M,M,M,M,M,M,M,M,M,M,M,M,M,M,M,M,M,69.00,KP68 250253Z AUTO 13009KT 21/09 A3016 RMK AO1 SLP136 T02060094 53004,M
DRA,2023-08-25 02:53,-116.0278,36.6206,1009.00,87.00,55.00,33.65,110.00,9.00,0.00,29.98,1009.90,10.00,M,CLR,M,M,M,M,M,M,M,M,M,M,M,M,M,M,85.31,KDRA 250253Z AUTO 11009KT 10SM CLR 31/13 A2998 RMK AO2 SLP099 T03060128 53002,M
ELY,2023-08-25 02:53,-114.8453,39.2950,1909.00,63.00,51.00,64.85,170.00,5.00,0.00,30.21,1015.20,10.00,M,CLR,M,M,M,M,M,M,M,M,M,M,M,M,M,M,63.00,KELY 250253Z AUTO 17005KT 10SM CLR 17/11 A3021 RMK AO2 SLP152 T01720106 53005,M
VGT,2023-08-25 02:53,-115.1933,36.2111,667.00,94.00,56.00,28.01,0.00,0.00,0.00,29.90,1011.30,10.00,M,CLR,M,M,M,M,M,M,M,M,M,M,M,M,M,M,92.36,KVGT 250253Z 00000KT 10SM CLR 34/13 A2990 RMK AO2 SLP113 T03440133 53000,M
LOL,2023-08-25 02:53,-118.5701,40.0684,1192.43,81.00,45.00,28.15,60.00,4.00,0.00,29.98,1011.30,10.00,M,CLR,M,M,M,M,M,M,M,M,M,M,M,M,M,M,79.68,KLOL 250253Z AUTO 06004KT 10SM CLR 27/07 A2998 RMK AO2 SLP113 T02720072 56005,M
BVU,2023-08-25 02:55,-114.8611,35.9475,671.00,87.80,59.00,37.90,320.00,4.00,0.00,29.91,M,10.00,M,CLR,M,M,M,M,M,M,M,M,M,M,M,M,M,M,87.12,KBVU 250255Z AUTO 32004KT 10SM CLR 31/15 A2991 RMK AO2,M
CXP,2023-08-25 02:55,-119.7326,39.1923,1431.00,75.20,41.00,29.23,340.00,4.00,0.00,30.07,M,10.00,M,SCT,SCT,M,M,10000.00,12000.00,M,M,M,M,M,M,M,M,M,75.20,KCXP 250255Z AUTO 34004KT 10SM SCT100 SCT120 24/05 A3007 RMK AO2,M
INS,2023-08-25 02:55,-115.6733,36.5872,955.00,84.20,55.80,37.89,70.00,7.00,0.00,29.97,1010.10,10.00,M,CLR,M,M,M,M,M,M,M,M,M,M,M,M,M,M,83.17,KINS 250255Z AUTO 07007KT 10SM CLR 29/13 A2997 RMK AO2 SLP101 T02900132 53002 $,M
RNO,2023-08-25 02:55,-119.7711,39.4839,1341.00,82.00,41.00,23.37,140.00,5.00,0.00,30.03,1011.60,10.00,M,BKN,M,M,M,12000.00,M,M,M,M,M,M,M,M,M,M,80.04,KRNO 250255Z 14005KT 10SM BKN120 28/05 A3003 RMK AO2 SLP116 T02780050 53003,M
LSV,2023-08-25 02:55,-115.0343,36.2362,570.00,91.60,56.70,30.96,160.00,3.00,0.00,29.86,1008.60,10.00,M,FEW,M,M,M,18000.00,M,M,M,M,M,M,M,M,M,M,90.10,KLSV 250255Z AUTO 16003KT 10SM FEW180 33/14 A2986 RMK AO2 SLP086 T03310137 53002 $,M
RTS,2023-08-25 02:55,-119.8764,39.6682,1539.00,75.20,39.20,27.26,250.00,9.00,0.00,30.09,M,10.00,M,OVC,M,M,M,11000.00,M,M,M,M,M,M,M,M,M,M,75.20,KRTS 250255Z AUTO 25009KT 10SM OVC110 24/04 A3009 RMK AO2,M
05U,2023-08-25 02:55,-116.0051,39.6042,1811.23,69.80,48.20,46.16,M,M,0.00,30.19,M,10.00,M,M,M,M,M,M,M,M,M,M,M,M,M,M,M,M,69.80,K05U 250255Z AUTO 10SM 21/09 A3019 RMK A01,M
MEV,2023-08-25 02:55,-119.7500,38.9963,1441.42,71.60,51.80,49.64,0.00,0.00,0.00,30.06,M,10.00,M,FEW,OVC,M,M,8000.00,11000.00,M,M,M,M,M,M,M,M,M,71.60,KMEV 250255Z AUTO 00000KT 10SM FEW080 OVC110 22/11 A3006 RMK AO2,M
HTH,2023-08-25 02:55,-118.6315,38.5448,1282.89,80.60,44.60,28.08,110.00,4.00,0.00,30.01,M,10.00,M,SCT,M,M,M,11000.00,M,M,M,M,M,M,M,M,M,M,79.42,KHTH 250255Z AUTO 11004KT 10SM SCT110 27/07 A3001 RMK A01,M
10U,2023-08-25 02:55,-116.1876,41.9532,1637.00,75.20,42.80,31.34,130.00,5.00,0.00,30.11,M,10.00,M,OVC,M,M,M,11000.00,M,M,M,M,M,M,M,M,M,M,75.20,K10U 250255Z AUTO 13005KT 10SM OVC110 24/06 A3011 RMK AO2,M
BAM,2023-08-25 02:55,-116.8743,40.5990,1382.36,78.80,33.80,19.55,300.00,3.00,0.00,30.05,M,10.00,M,CLR,M,M,M,M,M,M,M,M,M,M,M,M,M,M,78.80,KBAM 250255Z AUTO 30003KT 10SM CLR 26/01 A3005 RMK AO1,M
TMT,2023-08-25 02:55,-117.1971,39.4643,1749.34,63.30,50.50,62.99,140.00,5.00,0.00,30.14,M,M,M,CLR,M,M,M,M,M,M,M,M,M,M,M,M,M,M,63.30,KTMT 250255Z AUTO 14005KT CLR 17/10 A3014 RMK AO2 T01740103 PWINO,M
EKO,2023-08-25 02:56,-115.7860,40.8242,1367.00,78.00,47.00,33.50,80.00,3.00,0.00,30.09,1013.40,10.00,M,CLR,M,M,M,M,M,M,M,M,M,M,M,M,M,M,78.00,KEKO 250256Z AUTO 08003KT 10SM CLR 26/08 A3009 RMK AO2 SLP134 T02560083 53000,M
WMC,2023-08-25 02:56,-117.8072,40.9019,1315.00,75.00,37.00,25.17,210.00,6.00,0.00,30.02,1012.10,10.00,M,CLR,M,M,M,M,M,M,M,M,M,M,M,M,M,M,75.00,KWMC 250256Z AUTO 21006KT 10SM CLR 24/03 A3002 RMK AO2 SLP121 T02390028 55002,M
NFL,2023-08-25 02:56,-118.7010,39.4166,1199.00,78.00,56.00,46.72,60.00,4.00,0.00,29.98,1012.30,10.00,M,SCT,BKN,BKN,M,7000.00,12000.00,25000.00,M,M,M,M,M,M,M,M,78.00,KNFL 250256Z 06004KT 10SM SCT070 BKN120 BKN250 26/13 A2998 RMK AO2 SLP123 T02560133 55002,M
HND,2023-08-25 02:56,-115.1344,35.9729,742.79,87.00,61.00,41.75,220.00,7.00,0.00,29.95,1012.90,10.00,M,CLR,M,M,M,M,M,M,M,M,M,M,M,M,M,M,87.06,KHND 250256Z 22007KT 10SM CLR 31/16 A2995 RMK AO2 SLP129 T03060161 55001,M
LAS,2023-08-25 02:56,-115.1634,36.0719,663.00,89.00,61.00,39.18,200.00,5.00,0.00,29.91,1010.10,10.00,M,FEW,SCT,SCT,M,11000.00,16000.00,22000.00,M,M,M,M,M,M,M,M,89.01,KLAS 250256Z 20005KT 10SM FEW110 SCT160 SCT220 32/16 A2991 RMK AO2 SLP101 CB DSNT SW 60000 T03170161 55002,M
LAS,2023-08-25 03:01,-115.1634,36.0719,663.00,89.00,61.00,39.18,200.00,4.00,0.00,29.91,M,10.00,M,FEW,SCT,SCT,M,11000.00,16000.00,22000.00,M,TS,M,M,M,M,M,M,89.01,KLAS 250301Z 20004KT 10SM TS FEW110CB SCT160 SCT220 32/16 A2991 RMK AO2 TSE0259B01 OCNL LTGICCG SW TS SW MOV N T03170161,M
HND,2023-08-25 03:05,-115.1344,35.9729,742.79,86.00,62.60,45.61,230.00,8.00,0.00,29.96,M,10.00,M,CLR,M,M,M,M,M,M,M,VCTS,M,M,M,M,M,M,86.72,KHND 250305Z AUTO 23008KT 10SM VCTS CLR 30/17 A2996 RMK AO2 LTG DSNT W TSB0259,M
05U,2023-08-25 03:10,-116.0051,39.6042,1811.23,69.80,46.40,43.13,M,M,0.00,30.19,M,10.00,M,M,M,M,M,M,M,M,M,M,M,M,M,M,M,M,69.80,K05U 250310Z AUTO 10SM 21/08 A3019 RMK A01,M
BVU,2023-08-25 03:15,-114.8611,35.9475,671.00,87.80,59.00,37.90,0.00,0.00,0.00,29.91,M,10.00,M,CLR,M,M,M,M,M,M,M,M,M,M,M,M,M,M,87.12,KBVU 250315Z AUTO 00000KT 10SM CLR 31/15 A2991 RMK AO2,M
CXP,2023-08-25 03:15,-119.7326,39.1923,1431.00,77.00,42.80,29.51,320.00,3.00,0.00,30.08,M,10.00,M,BKN,M,M,M,11000.00,M,M,M,M,M,M,M,M,M,M,77.00,KCXP 250315Z AUTO 32003KT 10SM BKN110 25/06 A3008 RMK AO2,M
RTS,2023-08-25 03:15,-119.8764,39.6682,1539.00,75.20,39.20,27.26,290.00,3.00,0.00,30.10,M,10.00,M,FEW,M,M,M,11000.00,M,M,M,M,M,M,M,M,M,M,75.20,KRTS 250315Z AUTO 29003KT 10SM FEW110 24/04 A3010 RMK AO2,M
MEV,2023-08-25 03:15,-119.7500,38.9963,1441.42,69.80,53.60,56.38,160.00,8.00,0.00,30.08,M,10.00,M,FEW,SCT,BKN,M,4100.00,5500.00,6500.00,M,M,M,M,M,M,M,M,69.80,KMEV 250315Z AUTO 16008KT 10SM FEW041 SCT055 BKN065 21/12 A3008 RMK AO2,M
HTH,2023-08-25 03:15,-118.6315,38.5448,1282.89,82.40,42.80,24.72,0.00,0.00,0.00,30.02,M,10.00,M,BKN,M,M,M,12000.00,M,M,M,M,M,M,M,M,M,M,80.39,KHTH 250315Z AUTO 00000KT 10SM BKN120 28/06 A3002 RMK A01,M
10U,2023-08-25 03:15,-116.1876,41.9532,1637.00,73.40,42.80,33.29,110.00,8.00,0.00,30.11,M,10.00,M,OVC,M,M,M,11000.00,M,M,M,M,M,M,M,M,M,M,73.40,K10U 250315Z AUTO 11008KT 10SM OVC110 23/06 A3011 RMK AO2,M
BAM,2023-08-25 03:15,-116.8743,40.5990,1382.36,71.60,35.60,26.71,90.00,3.00,0.00,30.06,M,10.00,M,CLR,M,M,M,M,M,M,M,M,M,M,M,M,M,M,71.60,KBAM 250315Z AUTO 09003KT 10SM CLR 22/02 A3006 RMK AO1,M
TMT,2023-08-25 03:15,-117.1971,39.4643,1749.34,64.00,49.00,58.13,170.00,5.00,0.00,30.15,M,M,M,CLR,M,M,M,M,M,M,M,M,M,M,M,M,M,M,64.00,KTMT 250315Z AUTO 17005KT CLR 18/09 A3015 RMK AO2 T01780094 PWINO,M
BVU,2023-08-25 03:35,-114.8611,35.9475,671.00,87.80,60.80,40.41,300.00,5.00,0.00,29.91,M,10.00,M,CLR,M,M,M,M,M,M,M,M,M,M,M,M,M,M,87.75,KBVU 250335Z AUTO 30005KT 10SM CLR 31/16 A2991 RMK AO2,M
CXP,2023-08-25 03:35,-119.7326,39.1923,1431.00,75.20,42.80,31.34,0.00,0.00,0.00,30.09,M,10.00,M,FEW,SCT,BKN,M,6000.00,6500.00,8000.00,M,M,M,M,M,M,M,M,75.20,KCXP 250335Z AUTO 00000KT 10SM FEW060 SCT065 BKN080 24/06 A3009 RMK AO2,M
HND,2023-08-25 03:35,-115.1344,35.9729,742.79,86.00,60.80,42.80,230.00,4.00,0.00,29.97,M,10.00,M,CLR,M,M,M,M,M,M,M,M,M,M,M,M,M,M,86.05,KHND 250335Z AUTO 23004KT 10SM CLR 30/16 A2997 RMK AO2 TSB0259E29,M
RTS,2023-08-25 03:35,-119.8764,39.6682,1539.00,73.40,39.20,28.96,M,3.00,0.00,30.10,M,10.00,M,SCT,M,M,M,11000.00,M,M,M,M,M,M,M,M,M,M,73.40,KRTS 250335Z AUTO VRB03KT 10SM SCT110 23/04 A3010 RMK AO2,M
05U,2023-08-25 03:35,-116.0051,39.6042,1811.23,68.00,48.20,49.10,M,M,0.00,30.19,M,10.00,M,M,M,M,M,M,M,M,M,M,M,M,M,M,M,M,68.00,K05U 250335Z AUTO 10SM 20/09 A3019 RMK A01,M
MEV,2023-08-25 03:35,-119.7500,38.9963,1441.42,73.40,46.40,38.18,210.00,3.00,0.00,30.07,M,10.00,10.00,FEW,SCT,BKN,M,6000.00,8000.00,12000.00,M,M,M,M,M,M,M,M,73.40,KMEV 250335Z AUTO 21003G10KT 10SM FEW060 SCT080 BKN120 23/08 A3007 RMK AO2,M
HTH,2023-08-25 03:35,-118.6315,38.5448,1282.89,80.60,44.60,28.08,160.00,4.00,0.00,30.02,M,10.00,M,SCT,M,M,M,11000.00,M,M,M,M,M,M,M,M,M,M,79.42,KHTH 250335Z AUTO 16004KT 10SM SCT110 27/07 A3002 RMK A01,M
10U,2023-08-25 03:35,-116.1876,41.9532,1637.00,73.40,42.80,33.29,120.00,7.00,0.00,30.11,M,10.00,M,OVC,M,M,M,11000.00,M,M,M,M,M,M,M,M,M,M,73.40,K10U 250335Z AUTO 12007KT 10SM OVC110 23/06 A3011 RMK AO2,M
BAM,2023-08-25 03:35,-116.8743,40.5990,1382.36,69.80,37.40,30.49,80.00,4.00,0.00,30.05,M,10.00,M,CLR,M,M,M,M,M,M,M,M,M,M,M,M,M,M,69.80,KBAM 250335Z AUTO 08004KT 10SM CLR 21/03 A3005 RMK AO1,M
TMT,2023-08-25 03:35,-117.1971,39.4643,1749.34,63.00,48.20,58.43,150.00,6.00,0.00,30.15,M,M,M,CLR,M,M,M,M,M,M,M,M,M,M,M,M,M,M,63.00,KTMT 250335Z AUTO 15006KT CLR 17/09 A3015 RMK AO2 T01720090 PWINO,M
05U,2023-08-25 03:50,-116.0051,39.6042,1811.23,68.00,48.20,49.10,M,M,0.00,30.20,M,10.00,M,M,M,M,M,M,M,M,M,M,M,M,M,M,M,M,68.00,K05U 250350Z AUTO 10SM 20/09 A3020 RMK A01,M
P68,2023-08-25 03:53,-116.0056,39.6014,1993.00,69.00,48.00,47.09,140.00,9.00,0.00,30.17,1013.50,M,M,M,M,M,M,M,M,M,M,M,M,M,M,M,M,M,69.00,KP68 250353Z AUTO 14009KT 21/09 A3017 RMK AO1 SLP135 T02060089,M
DRA,2023-08-25 03:53,-116.0278,36.6206,1009.00,84.00,57.00,39.83,150.00,6.00,0.00,29.99,1010.40,10.00,M,CLR,M,M,M,M,M,M,M,M,M,M,M,M,M,M,83.26,KDRA 250353Z AUTO 15006KT 10SM CLR 29/14 A2999 RMK AO2 SLP104 T02890139,M
ELY,2023-08-25 03:53,-114.8453,39.2950,1909.00,62.00,51.00,67.18,190.00,8.00,0.00,30.23,1014.50,10.00,M,FEW,M,M,M,12000.00,M,M,M,M,M,M,M,M,M,M,62.00,KELY 250353Z AUTO 19008KT 10SM FEW120 17/11 A3023 RMK AO2 SLP145 T01670106,M
VGT,2023-08-25 03:53,-115.1933,36.2111,667.00,92.00,57.00,30.91,240.00,5.00,0.00,29.92,1011.90,10.00,M,FEW,M,M,M,11000.00,M,M,M,M,M,M,M,M,M,M,90.60,KVGT 250353Z 24005KT 10SM FEW110 33/14 A2992 RMK AO2 SLP119 T03330139,M
LOL,2023-08-25 03:53,-118.5701,40.0684,1192.43,76.00,52.00,43.13,70.00,6.00,0.00,29.99,1011.50,10.00,M,BKN,M,M,M,12000.00,M,M,M,M,M,M,M,M,M,M,76.00,KLOL 250353Z AUTO 07006KT 10SM BKN120 24/11 A2999 RMK AO2 SLP115 T02440111,M
BVU,2023-08-25 03:55,-114.8611,35.9475,671.00,87.80,59.00,37.90,290.00,4.00,0.00,29.92,M,10.00,M,CLR,M,M,M,M,M,M,M,M,M,M,M,M,M,M,87.12,KBVU 250355Z AUTO 29004KT 10SM CLR 31/15 A2992 RMK AO2,M
CXP,2023-08-25 03:55,-119.7326,39.1923,1431.00,75.20,46.40,35.94,0.00,0.00,0.00,30.09,M,10.00,M,FEW,SCT,SCT,M,6000.00,7500.00,9000.00,M,M,M,M,M,M,M,M,75.20,KCXP 250355Z AUTO 00000KT 10SM FEW060 SCT075 SCT090 24/08 A3009 RMK AO2,M
INS,2023-08-25 03:55,-115.6733,36.5872,955.00,82.20,57.00,42.22,70.00,6.00,0.00,29.98,1010.40,10.00,M,CLR,M,M,M,M,M,M,M,M,M,M,M,M,M,M,81.89,KINS 250355Z AUTO 07006KT 10SM CLR 28/14 A2998 RMK AO2 SLP104 T02790138 $,M
RNO,2023-08-25 03:55,-119.7711,39.4839,1341.00,80.00,43.00,26.94,270.00,7.00,0.00,30.05,1012.00,10.00,M,BKN,M,M,M,11000.00,M,M,M,M,M,M,M,M,M,M,78.97,KRNO 250355Z 27007KT 10SM BKN110 27/06 A3005 RMK AO2 SLP120 T02670061,M
RTS,2023-08-25 03:55,-119.8764,39.6682,1539.00,73.40,41.00,31.05,280.00,7.00,0.00,30.10,M,10.00,M,CLR,M,M,M,M,M,M,M,M,M,M,M,M,M,M,73.40,KRTS 250355Z AUTO 28007KT 10SM CLR 23/05 A3010 RMK AO2,M
MEV,2023-08-25 03:55,-119.7500,38.9963,1441.42,69.80,44.60,40.29,180.00,5.00,0.00,30.08,M,10.00,M,CLR,M,M,M,M,M,M,M,M,M,M,M,M,M,M,69.80,KMEV 250355Z AUTO 18005KT 10SM CLR 21/07 A3008 RMK AO2,M
HTH,2023-08-25 03:55,-118.6315,38.5448,1282.89,80.60,44.60,28.08,170.00,4.00,0.00,30.02,M,10.00,M,BKN,M,M,M,11000.00,M,M,M,M,M,M,M,M,M,M,79.42,KHTH 250355Z AUTO 17004KT 10SM BKN110 27/07 A3002 RMK A01,M
10U,2023-08-25 03:55,-116.1876,41.9532,1637.00,73.40,44.60,35.66,120.00,8.00,0.00,30.12,M,10.00,M,SCT,M,M,M,11000.00,M,M,M,M,M,M,M,M,M,M,73.40,K10U 250355Z AUTO 12008KT 10SM SCT110 23/07 A3012 RMK AO2,M
BAM,2023-08-25 03:55,-116.8743,40.5990,1382.36,68.00,33.80,28.11,140.00,7.00,0.00,30.06,M,10.00,M,CLR,M,M,M,M,M,M,M,M,M,M,M,M,M,M,68.00,KBAM 250355Z AUTO 14007KT 10SM CLR 20/01 A3006 RMK AO1,M
TMT,2023-08-25 03:55,-117.1971,39.4643,1749.34,62.60,49.50,62.21,260.00,3.00,0.00,30.15,M,M,M,CLR,M,M,M,M,M,M,M,M,M,M,M,M,M,M,62.60,KTMT 250355Z AUTO 26003KT CLR 17/10 A3015 RMK AO2 T01700097 PWINO,M
LSV,2023-08-25 03:55,-115.0343,36.2362,570.00,90.00,58.60,34.85,190.00,8.00,0.00,29.87,1008.80,10.00,M,CLR,M,M,M,M,M,M,M,M,M,M,M,M,M,M,89.12,KLSV 250355Z AUTO 19008KT 10SM CLR 32/15 A2987 RMK AO2 SLP088 T03220148 $,M
EKO,2023-08-25 03:56,-115.7860,40.8242,1367.00,75.00,49.00,39.90,50.00,3.00,0.00,30.10,1013.80,10.00,M,BKN,M,M,M,11000.00,M,M,M,M,M,M,M,M,M,M,75.00,KEKO 250356Z AUTO 05003KT 10SM BKN110 24/09 A3010 RMK AO2 SLP138 T02390094,M
WMC,2023-08-25 03:56,-117.8072,40.9019,1315.00,74.00,39.00,28.16,120.00,4.00,0.00,30.03,1012.10,10.00,M,CLR,M,M,M,M,M,M,M,M,M,M,M,M,M,M,74.00,KWMC 250356Z AUTO 12004KT 10SM CLR 23/04 A3003 RMK AO2 SLP121 T02330039,M
NFL,2023-08-25 03:56,-118.7010,39.4166,1199.00,76.00,54.00,46.42,M,5.00,0.00,29.99,1012.60,10.00,M,SCT,BKN,BKN,M,7000.00,12000.00,25000.00,M,M,M,M,M,M,M,M,76.00,KNFL 250356Z COR VRB05KT 10SM SCT070 BKN120 BKN250 24/12 A2999 RMK AO2 SLP126 T02440122,M
HND,2023-08-25 03:56,-115.1344,35.9729,742.79,85.00,62.00,46.11,170.00,5.00,0.00,29.97,1013.60,10.00,M,CLR,M,M,M,M,M,M,M,M,M,M,M,M,M,M,85.55,KHND 250356Z AUTO 17005KT 10SM CLR 29/17 A2997 RMK AO2 TSB0259E29 SLP136 T02940167,M
LAS,2023-08-25 03:56,-115.1634,36.0719,663.00,88.00,57.00,35.05,270.00,3.00,0.00,29.92,1010.60,10.00,M,FEW,SCT,SCT,M,11000.00,16000.00,22000.00,M,TS,M,M,M,M,M,M,86.71,KLAS 250356Z 27003KT 10SM TS FEW110CB SCT160 SCT220 31/14 A2992 RMK AO2 TSE0259B01 SLP106 OCNL LTGICCG SW TS SW MOV N T03110139,M
LAS,2023-08-25 03:59,-115.1634,36.0719,663.00,88.00,57.00,35.05,270.00,3.00,0.00,29.93,M,10.00,M,FEW,FEW,SCT,M,11000.00,16000.00,22000.00,M,M,M,M,M,M,M,M,86.71,KLAS 250359Z 27003KT 10SM FEW110 FEW160 SCT220 31/14 A2993 RMK AO2 TSE59 TS DSIPTD T03110139,M
BVU,2023-08-25 04:15,-114.8611,35.9475,671.00,87.80,59.00,37.90,0.00,0.00,0.00,29.92,M,10.00,M,CLR,M,M,M,M,M,M,M,M,M,M,M,M,M,M,87.12,KBVU 250415Z AUTO 00000KT 10SM CLR 31/15 A2992 RMK AO2,M
CXP,2023-08-25 04:15,-119.7326,39.1923,1431.00,71.60,48.20,43.42,0.00,0.00,0.00,30.09,M,10.00,M,CLR,M,M,M,M,M,M,M,M,M,M,M,M,M,M,71.60,KCXP 250415Z AUTO 00000KT 10SM CLR 22/09 A3009 RMK AO2,M
RTS,2023-08-25 04:15,-119.8764,39.6682,1539.00,71.60,41.00,33.00,310.00,6.00,0.00,30.11,M,10.00,M,FEW,FEW,BKN,M,3900.00,5500.00,11000.00,M,M,M,M,M,M,M,M,71.60,KRTS 250415Z AUTO 31006KT 10SM FEW039 FEW055 BKN110 22/05 A3011 RMK AO2,M
05U,2023-08-25 04:15,-116.0051,39.6042,1811.23,66.20,48.20,52.25,M,M,0.00,30.20,M,10.00,M,M,M,M,M,M,M,M,M,M,M,M,M,M,M,M,66.20,K05U 250415Z AUTO 10SM 19/09 A3020 RMK A01,M
MEV,2023-08-25 04:15,-119.7500,38.9963,1441.42,68.00,50.00,52.51,140.00,4.00,0.00,30.08,M,10.00,M,CLR,M,M,M,M,M,M,M,M,M,M,M,M,M,M,68.00,KMEV 250415Z AUTO 14004KT 10SM CLR 20/10 A3008 RMK AO2,M
HTH,2023-08-25 04:15,-118.6315,38.5448,1282.89,78.80,46.40,31.90,220.00,8.00,0.00,30.02,M,10.00,M,SCT,M,M,M,11000.00,M,M,M,M,M,M,M,M,M,M,78.80,KHTH 250415Z AUTO 22008KT 10SM SCT110 26/08 A3002 RMK A01,M
10U,2023-08-25 04:15,-116.1876,41.9532,1637.00,71.60,44.60,37.89,190.00,4.00,0.00,30.13,M,10.00,11.00,CLR,M,M,M,M,M,M,M,M,M,M,M,M,M,M,71.60,K10U 250415Z AUTO 19004G11KT 10SM CLR 22/07 A3013 RMK AO2,M
BAM,2023-08-25 04:15,-116.8743,40.5990,1382.36,69.80,33.80,26.43,150.00,7.00,0.00,30.07,M,10.00,M,CLR,M,M,M,M,M,M,M,M,M,M,M,M,M,M,69.80,KBAM 250415Z AUTO 15007KT 10SM CLR 21/01 A3007 RMK AO1,M
TMT,2023-08-25 04:15,-117.1971,39.4643,1749.34,60.60,50.00,68.02,300.00,3.00,0.00,30.16,M,M,M,CLR,M,M,M,M,M,M,M,M,M,M,M,M,M,M,60.60,KTMT 250415Z AUTO 30003KT CLR 16/10 A3016 RMK AO2 T01590101 PWINO,M
05U,2023-08-25 04:30,-116.0051,39.6042,1811.23,64.40,48.20,55.63,M,M,0.00,30.20,M,10.00,M,M,M,M,M,M,M,M,M,M,M,M,M,M,M,M,64.40,K05U 250430Z AUTO 10SM 18/09 A3020 RMK A01,M
HTH,2023-08-25 04:30,-118.6315,38.5448,1282.89,78.80,46.40,31.90,310.00,4.00,0.00,30.03,M,10.00,M,SCT,M,M,M,11000.00,M,M,M,M,M,M,M,M,M,M,78.80,KHTH 250430Z AUTO 31004KT 10SM SCT110 26/08 A3003 RMK A01,M
BVU,2023-08-25 04:35,-114.8611,35.9475,671.00,86.00,60.80,42.80,0.00,0.00,0.00,29.93,M,10.00,M,CLR,M,M,M,M,M,M,M,M,M,M,M,M,M,M,86.05,KBVU 250435Z AUTO 00000KT 10SM CLR 30/16 A2993 RMK AO2,M
CXP,2023-08-25 04:35,-119.7326,39.1923,1431.00,71.60,48.20,43.42,0.00,0.00,0.00,30.09,M,10.00,M,FEW,M,M,M,12000.00,M,M,M,M,M,M,M,M,M,M,71.60,KCXP 250435Z AUTO 00000KT 10SM FEW120 22/09 A3009 RMK AO2,M
RTS,2023-08-25 04:35,-119.8764,39.6682,1539.00,73.40,42.80,33.29,300.00,7.00,0.00,30.12,M,10.00,M,FEW,FEW,OVC,M,4200.00,5500.00,9500.00,M,M,M,M,M,M,M,M,73.40,KRTS 250435Z AUTO 30007KT 10SM FEW042 FEW055 OVC095 23/06 A3012 RMK AO2,M
MEV,2023-08-25 04:35,-119.7500,38.9963,1441.42,68.00,50.00,52.51,0.00,0.00,0.00,30.08,M,10.00,M,CLR,M,M,M,M,M,M,M,M,M,M,M,M,M,M,68.00,KMEV 250435Z AUTO 00000KT 10SM CLR 20/10 A3008 RMK AO2,M
10U,2023-08-25 04:35,-116.1876,41.9532,1637.00,69.80,42.80,37.61,100.00,6.00,0.00,30.13,M,10.00,M,CLR,M,M,M,M,M,M,M,M,M,M,M,M,M,M,69.80,K10U 250435Z AUTO 10006KT 10SM CLR 21/06 A3013 RMK AO2,M
BAM,2023-08-25 04:35,-116.8743,40.5990,1382.36,69.80,33.80,26.43,150.00,8.00,0.00,30.06,M,10.00,M,CLR,M,M,M,M,M,M,M,M,M,M,M,M,M,M,69.80,KBAM 250435Z AUTO 15008KT 10SM CLR 21/01 A3006 RMK AO1,M
TMT,2023-08-25 04:35,-117.1971,39.4643,1749.34,61.50,51.00,68.38,0.00,0.00,0.00,30.16,M,M,M,CLR,M,M,M,M,M,M,M,M,M,M,M,M,M,M,61.50,KTMT 250435Z AUTO 00000KT CLR 16/11 A3016 RMK AO2 T01640106 PWINO,M
P68,2023-08-25 04:53,-116.0056,39.6014,1993.00,65.00,47.00,52.07,0.00,0.00,0.00,30.18,1013.40,M,M,M,M,M,M,M,M,M,M,M,M,M,M,M,M,M,65.00,KP68 250453Z AUTO 00000KT 18/08 A3018 RMK AO1 SLP134 T01830083,M
DRA,2023-08-25 04:53,-116.0278,36.6206,1009.00,82.00,59.00,45.66,M,6.00,0.00,30.00,1010.60,10.00,M,CLR,M,M,M,M,M,M,M,M,M,M,M,M,M,M,82.15,KDRA 250453Z AUTO VRB06KT 10SM CLR 28/15 A3000 RMK AO2 SLP106 T02780150,M
ELY,2023-08-25 04:53,-114.8453,39.2950,1909.00,63.00,50.00,62.49,200.00,8.00,0.00,30.24,1014.00,10.00,M,CLR,M,M,M,M,M,M,M,M,M,M,M,M,M,M,63.00,KELY 250453Z AUTO 20008KT 10SM CLR 17/10 A3024 RMK AO2 SLP140 T01720100,M
VGT,2023-08-25 04:53,-115.1933,36.2111,667.00,92.00,56.00,29.81,250.00,9.00,0.00,29.93,1012.00,10.00,M,CLR,M,M,M,M,M,M,M,M,M,M,M,M,M,M,90.30,KVGT 250453Z AUTO 25009KT 10SM CLR 33/13 A2993 RMK AO2 SLP120 T03330133,M
LOL,2023-08-25 04:53,-118.5701,40.0684,1192.43,71.00,52.00,51.03,0.00,0.00,0.00,29.98,1011.60,10.00,M,CLR,M,M,M,M,M,M,M,M,M,M,M,M,M,M,71.00,KLOL 250453Z AUTO 00000KT 10SM CLR 22/11 A2998 RMK AO2 SLP116 T02170111,M
BVU,2023-08-25 04:55,-114.8611,35.9475,671.00,86.00,60.80,42.80,0.00,0.00,0.00,29.93,M,10.00,M,CLR,M,M,M,M,M,M,M,M,M,M,M,M,M,M,86.05,KBVU 250455Z AUTO 00000KT 10SM CLR 30/16 A2993 RMK AO2,M
CXP,2023-08-25 04:55,-119.7326,39.1923,1431.00,68.00,50.00,52.51,0.00,0.00,0.00,30.09,M,10.00,M,CLR,M,M,M,M,M,M,M,M,M,M,M,M,M,M,68.00,KCXP 250455Z AUTO 00000KT 10SM CLR 20/10 A3009 RMK AO2,M
INS,2023-08-25 04:55,-115.6733,36.5872,955.00,80.60,57.20,44.80,350.00,4.00,0.00,29.99,1010.60,10.00,M,CLR,M,M,M,M,M,M,M,M,M,M,M,M,M,M,80.81,KINS 250455Z AUTO 35004KT 10SM CLR 27/14 A2999 RMK AO2 SLP106 T02700140 $,M
RNO,2023-08-25 04:55,-119.7711,39.4839,1341.00,76.00,46.00,34.47,270.00,8.00,0.00,30.06,1012.10,10.00,M,SCT,M,M,M,10000.00,M,M,M,M,M,M,M,M,M,M,76.00,KRNO 250455Z 27008KT 10SM SCT100 24/08 A3006 RMK AO2 SLP121 T02440078,M
LSV,2023-08-25 04:55,-115.0343,36.2362,570.00,88.30,58.60,36.78,0.00,0.00,0.00,29.88,1009.20,10.00,M,FEW,M,M,M,16000.00,M,M,M,M,M,M,M,M,M,M,87.46,KLSV 250455Z AUTO 00000KT 10SM FEW160 31/15 A2988 RMK AO2 SLP092 T03130148 $,M
RTS,2023-08-25 04:55,-119.8764,39.6682,1539.00,69.80,44.60,40.29,300.00,5.00,0.00,30.11,M,10.00,M,FEW,FEW,BKN,M,4100.00,5500.00,9500.00,M,M,M,M,M,M,M,M,69.80,KRTS 250455Z AUTO 30005KT 10SM FEW041 FEW055 BKN095 21/07 A3011 RMK AO2,M
05U,2023-08-25 04:55,-116.0051,39.6042,1811.23,64.40,46.40,51.98,M,M,0.00,30.20,M,10.00,M,M,M,M,M,M,M,M,M,M,M,M,M,M,M,M,64.40,K05U 250455Z AUTO 10SM 18/08 A3020 RMK A01,M
MEV,2023-08-25 04:55,-119.7500,38.9963,1441.42,66.20,50.00,55.88,0.00,0.00,0.00,30.09,M,10.00,M,CLR,M,M,M,M,M,M,M,M,M,M,M,M,M,M,66.20,KMEV 250455Z AUTO 00000KT 10SM CLR 19/10 A3009 RMK AO2,M
HTH,2023-08-25 04:55,-118.6315,38.5448,1282.89,78.80,46.40,31.90,200.00,6.00,0.00,30.03,M,10.00,M,BKN,M,M,M,11000.00,M,M,M,M,M,M,M,M,M,M,78.80,KHTH 250455Z AUTO 20006KT 10SM BKN110 26/08 A3003 RMK A01,M
10U,2023-08-25 04:55,-116.1876,41.9532,1637.00,69.80,42.80,37.61,160.00,6.00,0.00,30.13,M,10.00,M,CLR,M,M,M,M,M,M,M,M,M,M,M,M,M,M,69.80,K10U 250455Z AUTO 16006KT 10SM CLR 21/06 A3013 RMK AO2,M
BAM,2023-08-25 04:55,-116.8743,40.5990,1382.36,69.80,35.60,28.39,140.00,5.00,0.00,30.06,M,10.00,M,CLR,M,M,M,M,M,M,M,M,M,M,M,M,M,M,69.80,KBAM 250455Z AUTO 14005KT 10SM CLR 21/02 A3006 RMK AO1,M
TMT,2023-08-25 04:55,-117.1971,39.4643,1749.34,59.00,50.50,73.37,0.00,0.00,0.00,30.16,M,M,M,BKN,M,M,M,10000.00,M,M,M,M,M,M,M,M,M,M,59.00,KTMT 250455Z AUTO 00000KT BKN100 15/10 A3016 RMK AO2 T01500103 PWINO,M
EKO,2023-08-25 04:56,-115.7860,40.8242,1367.00,72.00,50.00,45.81,40.00,5.00,0.00,30.11,1013.70,10.00,M,OVC,M,M,M,11000.00,M,M,M,M,M,M,M,M,M,M,72.00,KEKO 250456Z AUTO 04005KT 10SM OVC110 22/10 A3011 RMK AO2 SLP137 T02220100,M
WMC,2023-08-25 04:56,-117.8072,40.9019,1315.00,73.00,42.00,32.71,70.00,3.00,0.00,30.03,1011.70,10.00,M,CLR,M,M,M,M,M,M,M,M,M,M,M,M,M,M,73.00,KWMC 250456Z AUTO 07003KT 10SM CLR 23/06 A3003 RMK AO2 SLP117 T02280056,M
NFL,2023-08-25 04:56,-118.7010,39.4166,1199.00,73.00,57.00,57.23,M,5.00,0.00,30.00,1012.90,10.00,M,SCT,BKN,BKN,M,7000.00,12000.00,25000.00,M,M,M,M,M,M,M,M,73.00,KNFL 250456Z VRB05KT 10SM SCT070 BKN120 BKN250 23/14 A3000 RMK AO2 SLP129 SH VC ALQDS T02280139,M
HND,2023-08-25 04:56,-115.1344,35.9729,742.79,85.00,61.00,44.50,260.00,8.00,0.00,29.98,1013.70,10.00,M,CLR,M,M,M,M,M,M,M,M,M,M,M,M,M,M,85.21,KHND 250456Z AUTO 26008KT 10SM CLR 29/16 A2998 RMK AO2 SLP137 T02940161,M
LAS,2023-08-25 04:56,-115.1634,36.0719,663.00,87.00,59.00,38.88,220.00,3.00,0.00,29.93,1010.90,10.00,M,FEW,SCT,M,M,16000.00,22000.00,M,M,M,M,M,M,M,M,M,86.37,KLAS 250456Z 22003KT 10SM FEW160 SCT220 31/15 A2993 RMK AO2 TSE0359 SLP109 TS DSIPTD T03060150,M
05U,2023-08-25 05:10,-116.0051,39.6042,1811.23,66.20,46.40,48.83,M,M,0.00,30.21,M,10.00,M,M,M,M,M,M,M,M,M,M,M,M,M,M,M,M,66.20,K05U 250510Z AUTO 10SM 19/08 A3021 RMK A01,M
BVU,2023-08-25 05:15,-114.8611,35.9475,671.00,84.20,62.60,48.32,0.00,0.00,0.00,29.93,M,10.00,M,CLR,M,M,M,M,M,M,M,M,M,M,M,M,M,M,85.03,KBVU 250515Z AUTO 00000KT 10SM CLR 29/17 A2993 RMK AO2,M
CXP,2023-08-25 05:15,-119.7326,39.1923,1431.00,69.80,48.20,46.16,240.00,3.00,0.00,30.09,M,10.00,M,FEW,M,M,M,12000.00,M,M,M,M,M,M,M,M,M,M,69.80,KCXP 250515Z AUTO 24003KT 10SM FEW120 21/09 A3009 RMK AO2,M
RTS,2023-08-25 05:15,-119.8764,39.6682,1539.00,66.20,46.40,48.83,320.00,10.00,0.00,30.11,M,10.00,M,FEW,FEW,M,M,10000.00,12000.00,M,M,M,M,M,M,M,M,M,66.20,KRTS 250515Z AUTO 32010KT 10SM FEW100 FEW120 19/08 A3011 RMK AO2,M
MEV,2023-08-25 05:15,-119.7500,38.9963,1441.42,66.20,51.80,59.74,300.00,6.00,0.00,30.09,M,10.00,M,CLR,M,M,M,M,M,M,M,M,M,M,M,M,M,M,66.20,KMEV 250515Z AUTO 30006KT 10SM CLR 19/11 A3009 RMK AO2,M
HTH,2023-08-25 05:15,-118.6315,38.5448,1282.89,77.00,46.40,33.85,190.00,5.00,0.00,30.03,M,10.00,M,BKN,M,M,M,10000.00,M,M,M,M,M,M,M,M,M,M,77.00,KHTH 250515Z AUTO 19005KT 10SM BKN100 25/08 A3003 RMK A01,M
10U,2023-08-25 05:15,-116.1876,41.9532,1637.00,68.00,42.80,40.00,160.00,5.00,0.00,30.13,M,10.00,M,CLR,M,M,M,M,M,M,M,M,M,M,M,M,M,M,68.00,K10U 250515Z AUTO 16005KT 10SM CLR 20/06 A3013 RMK AO2,M
BAM,2023-08-25 05:15,-116.8743,40.5990,1382.36,69.80,35.60,28.39,140.00,5.00,0.00,30.06,M,10.00,M,CLR,M,M,M,M,M,M,M,M,M,M,M,M,M,M,69.80,KBAM 250515Z AUTO 14005KT 10SM CLR 21/02 A3006 RMK AO1,M
TMT,2023-08-25 05:15,-117.1971,39.4643,1749.34,56.30,50.50,80.85,0.00,0.00,0.00,30.16,M,M,M,BKN,M,M,M,10000.00,M,M,M,M,M,M,M,M,M,M,56.30,KTMT 250515Z AUTO 00000KT BKN100 14/10 A3016 RMK AO2 T01350103 PWINO,M
BVU,2023-08-25 05:35,-114.8611,35.9475,671.00,82.40,64.40,54.55,0.00,0.00,0.00,29.93,M,10.00,M,CLR,M,M,M,M,M,M,M,M,M,M,M,M,M,M,83.98,KBVU 250535Z AUTO 00000KT 10SM CLR 28/18 A2993 RMK AO2,M
CXP,2023-08-25 05:35,-119.7326,39.1923,1431.00,69.80,50.00,49.37,300.00,4.00,0.00,30.10,M,10.00,M,SCT,M,M,M,11000.00,M,M,M,M,M,M,M,M,M,M,69.80,KCXP 250535Z AUTO 30004KT 10SM SCT110 21/10 A3010 RMK AO2,M
RTS,2023-08-25 05:35,-119.8764,39.6682,1539.00,66.20,46.40,48.83,320.00,5.00,0.00,30.11,M,10.00,M,BKN,M,M,M,11000.00,M,M,M,M,M,M,M,M,M,M,66.20,KRTS 250535Z AUTO 32005KT 10SM BKN110 19/08 A3011 RMK AO2,M
05U,2023-08-25 05:35,-116.0051,39.6042,1811.23,64.40,46.40,51.98,M,M,0.00,30.21,M,10.00,M,M,M,M,M,M,M,M,M,M,M,M,M,M,M,M,64.40,K05U 250535Z AUTO 10SM 18/08 A3021 RMK A01,M
MEV,2023-08-25 05:35,-119.7500,38.9963,1441.42,64.40,51.80,63.60,0.00,0.00,0.00,30.09,M,10.00,M,FEW,BKN,M,M,4800.00,11000.00,M,M,M,M,M,M,M,M,M,64.40,KMEV 250535Z AUTO 00000KT 10SM FEW048 BKN110 18/11 A3009 RMK AO2,M
HTH,2023-08-25 05:35,-118.6315,38.5448,1282.89,77.00,48.20,36.22,0.00,0.00,0.00,30.04,M,10.00,M,FEW,OVC,M,M,5500.00,10000.00,M,M,M,M,M,M,M,M,M,77.00,KHTH 250535Z AUTO 00000KT 10SM FEW055 OVC100 25/09 A3004 RMK A01,M
10U,2023-08-25 05:35,-116.1876,41.9532,1637.00,62.60,39.20,42.00,160.00,6.00,0.00,30.14,M,10.00,M,CLR,M,M,M,M,M,M,M,M,M,M,M,M,M,M,62.60,K10U 250535Z AUTO 16006KT 10SM CLR 17/04 A3014 RMK AO2,M
BAM,2023-08-25 05:35,-116.8743,40.5990,1382.36,69.80,37.40,30.49,0.00,0.00,0.00,30.07,M,10.00,M,CLR,M,M,M,M,M,M,M,M,M,M,M,M,M,M,69.80,KBAM 250535Z AUTO 00000KT 10SM CLR 21/03 A3007 RMK AO1,M
TMT,2023-08-25 05:35,-117.1971,39.4643,1749.34,57.60,50.40,76.86,0.00,0.00,0.00,30.16,M,M,M,BKN,M,M,M,9000.00,M,M,M,M,M,M,M,M,M,M,57.60,KTMT 250535Z AUTO 00000KT BKN090 14/10 A3016 RMK AO2 T01420102 PWINO,M
05U,2023-08-25 05:50,-116.0051,39.6042,1811.23,64.40,48.20,55.63,M,M,0.00,30.21,M,10.00,M,M,M,M,M,M,M,M,M,M,M,M,M,M,M,M,64.40,K05U 250550Z AUTO 10SM 18/09 A3021 RMK A01,M
P68,2023-08-25 05:53,-116.0056,39.6014,1993.00,64.00,48.00,55.99,190.00,6.00,0.00,30.18,1013.50,M,M,M,M,M,M,M,M,M,M,M,M,M,M,M,M,M,64.00,KP68 250553Z AUTO 19006KT 18/09 A3018 RMK AO1 SLP135 T01780089 10272 20178 51004,M
DRA,2023-08-25 05:53,-116.0278,36.6206,1009.00,80.00,59.00,48.74,330.00,3.00,0.00,30.00,1010.60,10.00,M,CLR,M,M,M,M,M,M,M,M,M,M,M,M,M,M,80.68,KDRA 250553Z AUTO 33003KT 10SM CLR 27/15 A3000 RMK AO2 SLP106 T02670150 10356 20267 51007,M
ELY,2023-08-25 05:53,-114.8453,39.2950,1909.00,62.00,50.00,64.73,200.00,7.00,0.00,30.23,1014.20,10.00,M,CLR,M,M,M,M,M,M,M,M,M,M,M,M,M,M,62.00,KELY 250553Z AUTO 20007KT 10SM CLR 17/10 A3023 RMK AO2 SLP142 T01670100 10267 20144 50005,M
VGT,2023-08-25 05:53,-115.1933,36.2111,667.00,92.00,59.00,33.21,0.00,0.00,0.00,29.92,1011.90,10.00,M,CLR,M,M,M,M,M,M,M,M,M,M,M,M,M,M,91.30,KVGT 250553Z AUTO 00000KT 10SM CLR 33/15 A2992 RMK AO2 SLP119 T03330150 10356 20322 50006,M
LOL,2023-08-25 05:53,-118.5701,40.0684,1192.43,72.00,52.00,49.33,280.00,6.00,0.00,30.00,1012.00,10.00,M,BKN,M,M,M,12000.00,M,M,M,M,M,M,M,M,M,M,72.00,KLOL 250553Z AUTO 28006KT 10SM BKN120 22/11 A3000 RMK AO2 SLP120 T02220111 10311 20211 53008,M
BVU,2023-08-25 05:55,-114.8611,35.9475,671.00,82.40,62.60,51.21,0.00,0.00,0.00,29.93,M,10.00,M,CLR,M,M,M,M,M,M,M,M,M,M,M,M,M,M,83.41,KBVU 250555Z AUTO 00000KT 10SM CLR 28/17 A2993 RMK AO2,M
CXP,2023-08-25 05:55,-119.7326,39.1923,1431.00,68.00,50.00,52.51,0.00,0.00,0.00,30.10,M,10.00,M,FEW,M,M,M,11000.00,M,M,M,M,M,M,M,M,M,M,68.00,KCXP 250555Z AUTO 00000KT 10SM FEW110 20/10 A3010 RMK AO2,M
INS,2023-08-25 05:55,-115.6733,36.5872,955.00,78.60,59.00,51.03,130.00,4.00,0.00,30.00,1010.90,10.00,M,BKN,M,M,M,14000.00,M,M,M,M,M,M,M,M,M,M,78.60,KINS 250555Z AUTO 13004KT 10SM BKN140 26/15 A3000 RMK AO2 SLP109 T02590150 10330 20259 52007 $,M
RNO,2023-08-25 05:55,-119.7711,39.4839,1341.00,76.00,47.00,35.80,270.00,6.00,0.00,30.06,1012.00,10.00,M,SCT,M,M,M,10000.00,M,M,M,M,M,M,M,M,M,M,76.00,KRNO 250555Z 27006KT 10SM SCT100 24/08 A3006 RMK AO2 SLP120 T02440083 10306 20233 51009,M
RTS,2023-08-25 05:55,-119.8764,39.6682,1539.00,68.00,46.40,45.88,300.00,7.00,0.00,30.11,M,10.00,M,BKN,M,M,M,11000.00,M,M,M,M,M,M,M,M,M,M,68.00,KRTS 250555Z AUTO 30007KT 10SM BKN110 20/08 A3011 RMK AO2,M
MEV,2023-08-25 05:55,-119.7500,38.9963,1441.42,64.40,53.60,67.95,0.00,0.00,0.00,30.09,M,10.00,M,OVC,M,M,M,11000.00,M,M,M,M,M,M,M,M,M,M,64.40,KMEV 250555Z AUTO 00000KT 10SM OVC110 18/12 A3009 RMK AO2,M
HTH,2023-08-25 05:55,-118.6315,38.5448,1282.89,77.00,48.20,36.22,140.00,5.00,0.00,30.04,M,10.00,M,FEW,FEW,OVC,M,4400.00,5500.00,10000.00,M,M,M,M,M,M,M,M,77.00,KHTH 250555Z AUTO 14005KT 10SM FEW044 FEW055 OVC100 25/09 A3004 RMK A01,M
BAM,2023-08-25 05:55,-116.8743,40.5990,1382.36,69.80,37.40,30.49,0.00,0.00,0.00,30.07,M,10.00,M,CLR,M,M,M,M,M,M,M,M,M,M,M,M,M,M,69.80,KBAM 250555Z AUTO 00000KT 10SM CLR 21/03 A3007 RMK AO1,M
TMT,2023-08-25 05:55,-117.1971,39.4643,1749.34,57.00,50.00,77.38,220.00,3.00,0.00,30.16,M,M,M,OVC,M,M,M,10000.00,M,M,M,M,M,M,M,M,M,M,57.00,KTMT 250555Z AUTO 22003KT OVC100 14/10 A3016 RMK AO2 T01380101 10281 20135 PWINO,M
10U,2023-08-25 05:55,-116.1876,41.9532,1637.00,62.60,41.00,45.04,140.00,9.00,0.00,30.13,M,10.00,M,CLR,M,M,M,M,M,M,M,M,M,M,M,M,M,M,62.60,K10U 250555Z AUTO 14009KT 10SM CLR 17/05 A3013 RMK AO2,M
LSV,2023-08-25 05:55,-115.0343,36.2362,570.00,86.70,59.00,39.25,190.00,3.00,0.00,29.88,1009.20,10.00,M,CLR,M,M,M,M,M,M,M,M,M,M,M,M,M,M,86.10,KLSV 250555Z AUTO 19003KT 10SM CLR 30/15 A2988 RMK AO2 SLP092 T03040149 10373 20304 51006 $,M
EKO,2023-08-25 05:56,-115.7860,40.8242,1367.00,71.00,48.00,43.98,0.00,0.00,0.00,30.11,1013.40,10.00,M,BKN,M,M,M,11000.00,M,M,M,M,M,M,M,M,M,M,71.00,KEKO 250556Z AUTO 00000KT 10SM BKN110 22/09 A3011 RMK AO2 SLP134 T02170089 10311 20211 51006,M
WMC,2023-08-25 05:56,-117.8072,40.9019,1315.00,66.00,42.00,41.57,120.00,4.00,0.00,30.03,1011.90,10.00,M,CLR,M,M,M,M,M,M,M,M,M,M,M,M,M,M,66.00,KWMC 250556Z AUTO 12004KT 10SM CLR 19/06 A3003 RMK AO2 SLP119 T01890056 10322 20178 51003,M
NFL,2023-08-25 05:56,-118.7010,39.4166,1199.00,73.00,58.00,59.33,M,5.00,T,30.00,1012.90,10.00,M,BKN,OVC,M,M,7000.00,10000.00,M,M,M,M,M,M,M,M,M,73.00,KNFL 250556Z VRB05KT 10SM BKN070 OVC100 23/14 A3000 RMK AO2 RAB25E51 SLP129 SH VC ALQDS P0000 60000 T02280144 10311 20222 51006,M
HND,2023-08-25 05:56,-115.1344,35.9729,742.79,83.00,61.00,47.47,170.00,6.00,0.00,29.97,1013.60,10.00,M,CLR,M,M,M,M,M,M,M,M,M,M,M,M,M,M,83.46,KHND 250556Z AUTO 17006KT 10SM CLR 28/16 A2997 RMK AO2 SLP136 T02830161 10328 20278 50006,M
LAS,2023-08-25 05:56,-115.1634,36.0719,663.00,85.00,63.00,47.76,200.00,4.00,0.00,29.93,1010.80,10.00,M,FEW,M,M,M,16000.00,M,M,M,M,M,M,M,M,M,M,85.92,KLAS 250556Z 20004KT 10SM FEW160 29/17 A2993 RMK AO2 SLP108 60000 T02940172 10328 20289 50006,M
BVU,2023-08-25 06:15,-114.8611,35.9475,671.00,84.20,62.60,48.32,0.00,0.00,0.00,29.93,M,10.00,M,CLR,M,M,M,M,M,M,M,M,M,M,M,M,M,M,85.03,KBVU 250615Z AUTO 00000KT 10SM CLR 29/17 A2993 RMK AO2,M
CXP,2023-08-25 06:15,-119.7326,39.1923,1431.00,68.00,48.20,49.10,0.00,0.00,0.00,30.10,M,10.00,M,CLR,M,M,M,M,M,M,M,M,M,M,M,M,M,M,68.00,KCXP 250615Z AUTO 00000KT 10SM CLR 20/09 A3010 RMK AO2,M
RTS,2023-08-25 06:15,-119.8764,39.6682,1539.00,66.20,46.40,48.83,320.00,6.00,0.00,30.11,M,10.00,M,BKN,M,M,M,11000.00,M,M,M,M,M,M,M,M,M,M,66.20,KRTS 250615Z AUTO 32006KT 10SM BKN110 19/08 A3011 RMK AO2,M
05U,2023-08-25 06:15,-116.0051,39.6042,1811.23,62.60,48.20,59.26,M,M,0.00,30.21,M,10.00,M,M,M,M,M,M,M,M,M,M,M,M,M,M,M,M,62.60,K05U 250615Z AUTO 10SM 17/09 A3021 RMK A01,M
MEV,2023-08-25 06:15,-119.7500,38.9963,1441.42,59.00,51.80,76.98,0.00,0.00,0.00,30.09,M,10.00,M,FEW,BKN,M,M,4800.00,12000.00,M,M,M,M,M,M,M,M,M,59.00,KMEV 250615Z AUTO 00000KT 10SM FEW048 BKN120 15/11 A3009 RMK AO2,M
HTH,2023-08-25 06:15,-118.6315,38.5448,1282.89,77.00,48.20,36.22,170.00,8.00,0.00,30.04,M,10.00,M,OVC,M,M,M,9500.00,M,M,M,M,M,M,M,M,M,M,77.00,KHTH 250615Z AUTO 17008KT 10SM OVC095 25/09 A3004 RMK A01,M
10U,2023-08-25 06:15,-116.1876,41.9532,1637.00,64.40,44.60,48.55,130.00,8.00,0.00,30.13,M,10.00,M,CLR,M,M,M,M,M,M,M,M,M,M,M,M,M,M,64.40,K10U 250615Z AUTO 13008KT 10SM CLR 18/07 A3013 RMK AO2,M
BAM,2023-08-25 06:15,-116.8743,40.5990,1382.36,68.00,37.40,32.43,40.00,5.00,0.00,30.07,M,10.00,M,SCT,M,M,M,11000.00,M,M,M,M,M,M,M,M,M,M,68.00,KBAM 250615Z AUTO 04005KT 10SM SCT110 20/03 A3007 RMK AO1,M
TMT,2023-08-25 06:15,-117.1971,39.4643,1749.34,56.70,49.50,76.78,0.00,0.00,0.00,30.16,M,M,M,BKN,M,M,M,10000.00,M,M,M,M,M,M,M,M,M,M,56.70,KTMT 250615Z AUTO 00000KT BKN100 14/10 A3016 RMK AO2 T01370097 PWINO,M
05U,2023-08-25 06:30,-116.0051,39.6042,1811.23,64.40,48.20,55.63,M,M,0.00,M,M,10.00,M,M,M,M,M,M,M,M,M,M,M,M,M,M,M,M,64.40,K05U 250630Z AUTO 10SM 18/09 RMK A01,M
BVU,2023-08-25 06:35,-114.8611,35.9475,671.00,82.40,62.60,51.21,0.00,0.00,0.00,29.93,M,10.00,M,CLR,M,M,M,M,M,M,M,M,M,M,M,M,M,M,83.41,KBVU 250635Z AUTO 00000KT 10SM CLR 28/17 A2993 RMK AO2,M
CXP,2023-08-25 06:35,-119.7326,39.1923,1431.00,68.00,50.00,52.51,0.00,0.00,0.00,30.10,M,10.00,M,FEW,M,M,M,11000.00,M,M,M,M,M,M,M,M,M,M,68.00,KCXP 250635Z AUTO 00000KT 10SM FEW110 20/10 A3010 RMK AO2,M
RTS,2023-08-25 06:35,-119.8764,39.6682,1539.00,66.20,46.40,48.83,280.00,5.00,0.00,30.11,M,10.00,M,BKN,M,M,M,11000.00,M,M,M,M,M,M,M,M,M,M,66.20,KRTS 250635Z AUTO 28005KT 10SM BKN110 19/08 A3011 RMK AO2,M
MEV,2023-08-25 06:35,-119.7500,38.9963,1441.42,60.80,51.80,72.20,0.00,0.00,0.00,30.09,M,10.00,M,FEW,FEW,SCT,M,4100.00,4600.00,12000.00,M,M,M,M,M,M,M,M,60.80,KMEV 250635Z AUTO 00000KT 10SM FEW041 FEW046 SCT120 16/11 A3009 RMK AO2,M
HTH,2023-08-25 06:35,-118.6315,38.5448,1282.89,78.80,46.40,31.90,230.00,7.00,0.00,30.05,M,10.00,14.00,FEW,SCT,OVC,M,3300.00,5000.00,9000.00,M,M,M,M,M,M,M,M,78.80,KHTH 250635Z AUTO 23007G14KT 10SM FEW033 SCT050 OVC090 26/08 A3005 RMK A01,M
10U,2023-08-25 06:35,-116.1876,41.9532,1637.00,64.40,42.80,45.32,130.00,8.00,0.00,30.13,M,10.00,M,CLR,M,M,M,M,M,M,M,M,M,M,M,M,M,M,64.40,K10U 250635Z AUTO 13008KT 10SM CLR 18/06 A3013 RMK AO2,M
BAM,2023-08-25 06:35,-116.8743,40.5990,1382.36,69.80,37.40,30.49,50.00,7.00,0.00,30.07,M,10.00,M,BKN,M,M,M,12000.00,M,M,M,M,M,M,M,M,M,M,69.80,KBAM 250635Z AUTO 05007KT 10SM BKN120 21/03 A3007 RMK AO1,M
TMT,2023-08-25 06:35,-117.1971,39.4643,1749.34,57.40,50.00,76.27,250.00,3.00,0.00,30.17,M,M,M,BKN,M,M,M,10000.00,M,M,M,M,M,M,M,M,M,M,57.40,KTMT 250635Z AUTO 25003KT BKN100 14/10 A3017 RMK AO2 T01410101 PWINO,M
NFL,2023-08-25 06:36,-118.7010,39.4166,1199.00,76.00,48.00,37.17,240.00,10.00,0.00,30.01,M,10.00,M,FEW,SCT,BKN,M,6000.00,8000.00,12000.00,M,M,M,M,M,M,M,M,76.00,KNFL 250636Z AUTO 24010KT 10SM FEW060 SCT080 BKN120 24/09 A3001 RMK AO2 WSHFT 0616 T02440089,M
P68,2023-08-25 06:53,-116.0056,39.6014,1993.00,64.00,48.00,55.99,150.00,8.00,0.00,30.18,1013.30,M,M,M,M,M,M,M,M,M,M,M,M,M,M,M,M,M,64.00,KP68 250653Z AUTO 15008KT 18/09 A3018 RMK AO1 SLP133 T01780089,M
DRA,2023-08-25 06:53,-116.0278,36.6206,1009.00,77.00,60.00,55.75,300.00,3.00,0.00,30.00,1010.80,10.00,M,CLR,M,M,M,M,M,M,M,M,M,M,M,M,M,M,77.00,KDRA 250653Z AUTO 30003KT 10SM CLR 25/16 A3000 RMK AO2 SLP108 T02500156,M
ELY,2023-08-25 06:53,-114.8453,39.2950,1909.00,58.00,51.00,77.47,0.00,0.00,0.00,30.24,1015.40,10.00,M,FEW,M,M,M,9500.00,M,M,M,M,M,M,M,M,M,M,58.00,KELY 250653Z AUTO 00000KT 10SM FEW095 14/11 A3024 RMK AO2 SLP154 T01440106,M
VGT,2023-08-25 06:53,-115.1933,36.2111,667.00,89.00,59.00,36.49,0.00,0.00,0.00,29.93,1012.10,10.00,M,CLR,M,M,M,M,M,M,M,M,M,M,M,M,M,M,88.27,KVGT 250653Z AUTO 00000KT 10SM CLR 32/15 A2993 RMK AO2 SLP121 T03170150,M
LOL,2023-08-25 06:53,-118.5701,40.0684,1192.43,67.00,52.00,58.53,170.00,5.00,0.00,30.00,1011.90,10.00,M,CLR,M,M,M,M,M,M,M,M,M,M,M,M,M,M,67.00,KLOL 250653Z AUTO 17005KT 10SM CLR 19/11 A3000 RMK AO2 SLP119 T01940111,M
BVU,2023-08-25 06:55,-114.8611,35.9475,671.00,80.60,64.40,57.84,0.00,0.00,0.00,29.93,M,10.00,M,CLR,M,M,M,M,M,M,M,M,M,M,M,M,M,M,82.27,KBVU 250655Z AUTO 00000KT 10SM CLR 27/18 A2993 RMK AO2,M
CXP,2023-08-25 06:55,-119.7326,39.1923,1431.00,66.20,50.00,55.88,0.00,0.00,0.00,30.10,M,10.00,M,SCT,M,M,M,11000.00,M,M,M,M,M,M,M,M,M,M,66.20,KCXP 250655Z AUTO 00000KT 10SM SCT110 19/10 A3010 RMK AO2,M
INS,2023-08-25 06:55,-115.6733,36.5872,955.00,78.80,58.60,49.97,0.00,0.00,0.00,30.00,1010.80,10.00,M,OVC,M,M,M,15000.00,M,M,M,M,M,M,M,M,M,M,78.80,KINS 250655Z AUTO 00000KT 10SM OVC150 26/15 A3000 RMK AO2 SLP108 T02600148 $,M
RNO,2023-08-25 06:55,-119.7711,39.4839,1341.00,73.00,48.00,41.10,M,4.00,0.00,30.07,1012.10,10.00,M,SCT,M,M,M,11000.00,M,M,M,M,M,M,M,M,M,M,73.00,KRNO 250655Z VRB04KT 10SM SCT110 23/09 A3007 RMK AO2 SLP121 T02280089,M
LSV,2023-08-25 06:55,-115.0343,36.2362,570.00,85.00,58.60,40.85,200.00,4.00,0.00,29.88,1009.00,10.00,M,CLR,M,M,M,M,M,M,M,M,M,M,M,M,M,M,84.48,KLSV 250655Z AUTO 20004KT 10SM CLR 30/15 A2988 RMK AO2 SLP090 T02950148 $,M
RTS,2023-08-25 06:55,-119.8764,39.6682,1539.00,66.20,46.40,48.83,340.00,5.00,0.00,30.12,M,10.00,M,BKN,M,M,M,10000.00,M,M,M,M,M,M,M,M,M,M,66.20,KRTS 250655Z AUTO 34005KT 10SM BKN100 19/08 A3012 RMK AO2,M
05U,2023-08-25 06:55,-116.0051,39.6042,1811.23,62.60,48.20,59.26,M,M,0.00,30.21,M,10.00,M,M,M,M,M,M,M,M,M,M,M,M,M,M,M,M,62.60,K05U 250655Z AUTO 10SM 17/09 A3021 RMK A01,M
MEV,2023-08-25 06:55,-119.7500,38.9963,1441.42,55.40,51.80,87.65,90.00,3.00,0.00,30.09,M,10.00,M,FEW,FEW,M,M,4300.00,4900.00,M,M,M,M,M,M,M,M,M,55.40,KMEV 250655Z AUTO 09003KT 10SM FEW043 FEW049 13/11 A3009 RMK AO2,M
BAM,2023-08-25 06:55,-116.8743,40.5990,1382.36,71.60,37.40,28.68,170.00,10.00,0.00,30.07,M,10.00,26.00,SCT,SCT,OVC,M,6000.00,9500.00,12000.00,M,M,M,M,M,M,M,M,71.60,KBAM 250655Z AUTO 17010G26KT 10SM SCT060 SCT095 OVC120 22/03 A3007 RMK AO1,M
HTH,2023-08-25 06:55,-118.6315,38.5448,1282.89,77.00,48.20,36.22,0.00,0.00,0.00,30.05,M,10.00,M,FEW,OVC,M,M,5000.00,9000.00,M,M,M,M,M,M,M,M,M,77.00,KHTH 250655Z AUTO 00000KT 10SM FEW050 OVC090 25/09 A3005 RMK A01,M
TMT,2023-08-25 06:55,-117.1971,39.4643,1749.34,58.00,49.30,72.72,210.00,3.00,0.00,30.17,M,M,M,BKN,M,M,M,11000.00,M,M,M,M,M,M,M,M,M,M,58.00,KTMT 250655Z AUTO 21003KT BKN110 15/10 A3017 RMK AO2 T01450096 PWINO,M
10U,2023-08-25 06:55,-116.1876,41.9532,1637.00,62.60,42.80,48.28,150.00,6.00,0.00,30.13,M,10.00,M,CLR,M,M,M,M,M,M,M,M,M,M,M,M,M,M,62.60,K10U 250655Z AUTO 15006KT 10SM CLR 17/06 A3013 RMK AO2,M
EKO,2023-08-25 06:56,-115.7860,40.8242,1367.00,70.00,49.00,47.24,0.00,0.00,0.00,30.11,1013.40,10.00,M,BKN,M,M,M,10000.00,M,M,M,M,M,M,M,M,M,M,70.00,KEKO 250656Z AUTO 00000KT 10SM BKN100 21/09 A3011 RMK AO2 SLP134 T02110094,M
WMC,2023-08-25 06:56,-117.8072,40.9019,1315.00,69.00,44.00,40.47,140.00,6.00,0.00,30.02,1011.20,10.00,M,FEW,SCT,M,M,7000.00,12000.00,M,M,M,M,M,M,M,M,M,69.00,KWMC 250656Z AUTO 14006KT 10SM FEW070 SCT120 21/07 A3002 RMK AO2 SLP112 T02060067,M
HND,2023-08-25 06:56,-115.1344,35.9729,742.79,82.00,61.00,49.03,220.00,6.00,0.00,29.98,1013.70,10.00,M,CLR,M,M,M,M,M,M,M,M,M,M,M,M,M,M,82.62,KHND 250656Z AUTO 22006KT 10SM CLR 28/16 A2998 RMK AO2 SLP137 T02780161 403670233,M
LAS,2023-08-25 06:56,-115.1634,36.0719,663.00,84.00,61.00,45.96,200.00,4.00,0.00,29.94,1010.90,10.00,M,CLR,M,M,M,M,M,M,M,M,M,M,M,M,M,M,84.32,KLAS 250656Z 20004KT 10SM CLR 29/16 A2994 RMK AO2 SLP109 T02890161,M
NFL,2023-08-25 06:56,-118.7010,39.4166,1199.00,76.00,48.00,37.17,270.00,12.00,0.00,30.02,1013.50,10.00,M,FEW,BKN,M,M,6000.00,11000.00,M,M,M,M,M,M,M,M,M,76.00,KNFL 250656Z AUTO 27012KT 10SM FEW060 BKN110 24/09 A3002 RMK AO2 WSHFT 0616 SLP135 T02440089,M
BVU,2023-08-25 07:15,-114.8611,35.9475,671.00,82.40,64.40,54.55,0.00,0.00,0.00,29.93,M,10.00,M,CLR,M,M,M,M,M,M,M,M,M,M,M,M,M,M,83.98,KBVU 250715Z AUTO 00000KT 10SM CLR 28/18 A2993 RMK AO2,M
CXP,2023-08-25 07:15,-119.7326,39.1923,1431.00,64.40,50.00,59.50,0.00,0.00,0.00,30.10,M,10.00,M,BKN,M,M,M,11000.00,M,M,M,M,M,M,M,M,M,M,64.40,KCXP 250715Z AUTO 00000KT 10SM BKN110 18/10 A3010 RMK AO2,M
RTS,2023-08-25 07:15,-119.8764,39.6682,1539.00,64.40,46.40,51.98,330.00,6.00,0.00,30.12,M,10.00,M,BKN,M,M,M,11000.00,M,M,M,M,M,M,M,M,M,M,64.40,KRTS 250715Z AUTO 33006KT 10SM BKN110 18/08 A3012 RMK AO2,M
05U,2023-08-25 07:15,-116.0051,39.6042,1811.23,64.40,46.40,51.98,M,M,0.00,30.21,M,10.00,M,M,M,M,M,M,M,M,M,M,M,M,M,M,M,M,64.40,K05U 250715Z AUTO 10SM 18/08 A3021 RMK A01,M
MEV,2023-08-25 07:15,-119.7500,38.9963,1441.42,57.20,51.80,82.12,100.00,6.00,0.00,30.08,M,10.00,M,CLR,M,M,M,M,M,M,M,M,M,M,M,M,M,M,57.20,KMEV 250715Z AUTO 10006KT 10SM CLR 14/11 A3008 RMK AO2,M
HTH,2023-08-25 07:15,-118.6315,38.5448,1282.89,77.00,50.00,38.74,0.00,0.00,0.00,30.06,M,10.00,M,FEW,FEW,OVC,M,2600.00,4000.00,9000.00,M,M,M,M,M,M,M,M,77.00,KHTH 250715Z AUTO 00000KT 10SM FEW026 FEW040 OVC090 25/10 A3006 RMK A01,M
10U,2023-08-25 07:15,-116.1876,41.9532,1637.00,60.80,42.80,51.45,140.00,5.00,0.00,30.13,M,10.00,M,CLR,M,M,M,M,M,M,M,M,M,M,M,M,M,M,60.80,K10U 250715Z AUTO 14005KT 10SM CLR 16/06 A3013 RMK AO2,M
05U,2023-08-25 07:30,-116.0051,39.6042,1811.23,64.40,48.20,55.63,M,M,0.00,30.21,M,10.00,M,M,M,M,M,M,M,M,M,M,M,M,M,M,M,M,64.40,K05U 250730Z AUTO 10SM 18/09 A3021 RMK A01,M
BVU,2023-08-25 07:35,-114.8611,35.9475,671.00,80.60,64.40,57.84,70.00,3.00,0.00,29.93,M,10.00,M,CLR,M,M,M,M,M,M,M,M,M,M,M,M,M,M,82.27,KBVU 250735Z AUTO 07003KT 10SM CLR 27/18 A2993 RMK AO2,M
CXP,2023-08-25 07:35,-119.7326,39.1923,1431.00,64.40,51.80,63.60,0.00,0.00,0.00,30.10,M,10.00,M,OVC,M,M,M,11000.00,M,M,M,M,M,M,M,M,M,M,64.40,KCXP 250735Z AUTO 00000KT 10SM OVC110 18/11 A3010 RMK AO2,M
RTS,2023-08-25 07:35,-119.8764,39.6682,1539.00,62.60,46.40,55.37,340.00,6.00,0.00,30.12,M,10.00,M,BKN,M,M,M,10000.00,M,M,M,M,M,M,M,M,M,M,62.60,KRTS 250735Z AUTO 34006KT 10SM BKN100 17/08 A3012 RMK AO2,M
MEV,2023-08-25 07:35,-119.7500,38.9963,1441.42,57.20,50.00,76.82,90.00,6.00,0.00,30.08,M,10.00,M,CLR,M,M,M,M,M,M,M,M,M,M,M,M,M,M,57.20,KMEV 250735Z AUTO 09006KT 10SM CLR 14/10 A3008 RMK AO2,M
HTH,2023-08-25 07:35,-118.6315,38.5448,1282.89,73.40,55.40,53.29,10.00,6.00,0.00,30.07,M,10.00,M,FEW,OVC,M,M,4800.00,9000.00,M,M,M,M,M,M,M,M,M,73.40,KHTH 250735Z AUTO 01006KT 10SM FEW048 OVC090 23/13 A3007 RMK A01,M
10U,2023-08-25 07:35,-116.1876,41.9532,1637.00,64.40,42.80,45.32,130.00,10.00,0.00,30.13,M,10.00,M,CLR,M,M,M,M,M,M,M,M,M,M,M,M,M,M,64.40,K10U 250735Z AUTO 13010KT 10SM CLR 18/06 A3013 RMK AO2,M
BAM,2023-08-25 07:35,-116.8743,40.5990,1382.36,73.40,41.00,31.05,160.00,4.00,0.00,30.05,M,10.00,M,BKN,M,M,M,11000.00,M,M,M,M,M,M,M,M,M,M,73.40,KBAM 250735Z AUTO 16004KT 10SM BKN110 23/05 A3005 RMK AO1,M
TMT,2023-08-25 07:35,-117.1971,39.4643,1749.34,54.70,48.70,80.13,70.00,3.00,0.00,30.18,M,M,M,CLR,M,M,M,M,M,M,M,M,M,M,M,M,M,M,54.70,KTMT 250735Z AUTO 07003KT CLR 13/09 A3018 RMK AO2 T01260093 PWINO,M
P68,2023-08-25 07:53,-116.0056,39.6014,1993.00,64.00,48.00,55.99,200.00,8.00,0.00,30.19,1013.20,M,M,M,M,M,M,M,M,M,M,M,M,M,M,M,M,M,64.00,KP68 250753Z AUTO 20008KT 18/09 A3019 RMK AO1 SLP132 T01780089 402890106,M
DRA,2023-08-25 07:53,-116.0278,36.6206,1009.00,77.00,59.00,53.80,60.00,4.00,0.00,30.00,1010.70,10.00,M,CLR,M,M,M,M,M,M,M,M,M,M,M,M,M,M,77.00,KDRA 250753Z AUTO 06004KT 10SM CLR 25/15 A3000 RMK AO2 SLP107 T02500150 403560206,M
ELY,2023-08-25 07:53,-114.8453,39.2950,1909.00,57.00,50.00,77.38,210.00,4.00,0.00,30.25,1014.60,10.00,M,CLR,M,M,M,M,M,M,M,M,M,M,M,M,M,M,57.00,KELY 250753Z AUTO 21004KT 10SM CLR 14/10 A3025 RMK AO2 SLP146 T01390100 402720106,M
VGT,2023-08-25 07:53,-115.1933,36.2111,667.00,87.00,60.00,40.29,0.00,0.00,0.00,29.93,1012.00,10.00,M,CLR,M,M,M,M,M,M,M,M,M,M,M,M,M,M,86.70,KVGT 250753Z AUTO 00000KT 10SM CLR 31/16 A2993 RMK AO2 SLP120 T03060156 403670267,M
LOL,2023-08-25 07:53,-118.5701,40.0684,1192.43,69.00,53.00,56.69,330.00,8.00,T,30.01,1012.00,10.00,M,FEW,SCT,M,M,5500.00,11000.00,M,M,M,M,M,M,M,M,M,69.00,KLOL 250753Z AUTO 33008KT 10SM FEW055 SCT110 21/12 A3001 RMK AO2 RAB32E45 SLP120 P0000 T02060117 403170094,M
BVU,2023-08-25 07:55,-114.8611,35.9475,671.00,80.60,64.40,57.84,0.00,0.00,0.00,29.93,M,10.00,M,CLR,M,M,M,M,M,M,M,M,M,M,M,M,M,M,82.27,KBVU 250755Z AUTO 00000KT 10SM CLR 27/18 A2993 RMK AO2,M
CXP,2023-08-25 07:55,-119.7326,39.1923,1431.00,64.40,51.80,63.60,0.00,0.00,0.00,30.10,M,10.00,M,OVC,M,M,M,11000.00,M,M,M,M,M,M,M,M,M,M,64.40,KCXP 250755Z AUTO 00000KT 10SM OVC110 18/11 A3010 RMK AO2,M
INS,2023-08-25 07:55,-115.6733,36.5872,955.00,77.00,58.30,52.47,0.00,0.00,0.00,30.00,1010.90,10.00,M,CLR,M,M,M,M,M,M,M,M,M,M,M,M,M,M,77.00,KINS 250755Z AUTO 00000KT 10SM CLR 25/15 A3000 RMK AO2 SLP109 T02490146 403330220 $,M
RNO,2023-08-25 07:55,-119.7711,39.4839,1341.00,72.00,48.00,42.51,280.00,5.00,0.00,30.07,1012.10,10.00,M,BKN,M,M,M,11000.00,M,M,M,M,M,M,M,M,M,M,72.00,KRNO 250755Z 28005KT 10SM BKN110 22/09 A3007 RMK AO2 SLP121 T02220089 403330150,M
LSV,2023-08-25 07:55,-115.0343,36.2362,570.00,84.00,59.00,42.80,0.00,0.00,0.00,29.88,1009.10,10.00,M,CLR,M,M,M,M,M,M,M,M,M,M,M,M,M,M,83.75,KLSV 250755Z AUTO 00000KT 10SM CLR 29/15 A2988 RMK AO2 SLP091 T02890150 403910262 $,M
RTS,2023-08-25 07:55,-119.8764,39.6682,1539.00,62.60,48.20,59.26,340.00,6.00,0.00,30.12,M,10.00,M,OVC,M,M,M,10000.00,M,M,M,M,M,M,M,M,M,M,62.60,KRTS 250755Z AUTO 34006KT 10SM OVC100 17/09 A3012 RMK AO2,M
05U,2023-08-25 07:55,-116.0051,39.6042,1811.23,62.60,48.20,59.26,M,M,0.00,30.21,M,10.00,M,M,M,M,M,M,M,M,M,M,M,M,M,M,M,M,62.60,K05U 250755Z AUTO 10SM 17/09 A3021 RMK A01,M
MEV,2023-08-25 07:55,-119.7500,38.9963,1441.42,57.20,50.00,76.82,100.00,7.00,0.00,30.08,M,10.00,M,CLR,M,M,M,M,M,M,M,M,M,M,M,M,M,M,57.20,KMEV 250755Z AUTO 10007KT 10SM CLR 14/10 A3008 RMK AO2,M
HTH,2023-08-25 07:55,-118.6315,38.5448,1282.89,71.60,55.40,56.63,300.00,6.00,0.00,30.07,M,10.00,M,BKN,BKN,M,M,9000.00,11000.00,M,M,M,M,M,M,M,M,M,71.60,KHTH 250755Z AUTO 30006KT 10SM BKN090 BKN110 22/13 A3007 RMK A01,M
BAM,2023-08-25 07:55,-116.8743,40.5990,1382.36,69.80,41.00,35.09,0.00,0.00,0.00,30.06,M,10.00,M,SCT,M,M,M,12000.00,M,M,M,M,M,M,M,M,M,M,69.80,KBAM 250755Z AUTO 00000KT 10SM SCT120 21/05 A3006 RMK AO1,M
TMT,2023-08-25 07:55,-117.1971,39.4643,1749.34,54.50,49.30,82.54,360.00,3.00,0.00,30.17,M,M,M,CLR,M,M,M,M,M,M,M,M,M,M,M,M,M,M,54.50,KTMT 250755Z AUTO 36003KT CLR 13/10 A3017 RMK AO2 T01250096 402860046 PWINO,M
10U,2023-08-25 07:55,-116.1876,41.9532,1637.00,62.60,42.80,48.28,90.00,5.00,0.00,30.13,M,10.00,11.00,CLR,M,M,M,M,M,M,M,M,M,M,M,M,M,M,62.60,K10U 250755Z AUTO 09005G11KT 10SM CLR 17/06 A3013 RMK AO2,M
EKO,2023-08-25 07:56,-115.7860,40.8242,1367.00,67.00,49.00,52.37,0.00,0.00,0.00,30.12,1013.90,10.00,M,CLR,M,M,M,M,M,M,M,M,M,M,M,M,M,M,67.00,KEKO 250756Z AUTO 00000KT 10SM CLR 19/09 A3012 RMK AO2 SLP139 T01940094 403110100,M
WMC,2023-08-25 07:56,-117.8072,40.9019,1315.00,69.00,43.00,38.95,M,5.00,T,30.03,1011.70,10.00,M,OVC,M,M,M,12000.00,M,M,M,M,M,M,M,M,M,M,69.00,KWMC 250756Z AUTO VRB05KT 10SM OVC120 21/06 A3003 RMK AO2 RAB04E08 SLP117 P0000 T02060061 403280100,M
NFL,2023-08-25 07:56,-118.7010,39.4166,1199.00,75.00,49.00,39.90,250.00,7.00,0.00,30.03,1013.80,10.00,16.00,FEW,BKN,BKN,M,7000.00,8500.00,11000.00,M,M,M,M,M,M,M,M,75.00,KNFL 250756Z AUTO 25007G16KT 10SM FEW070 BKN085 BKN110 24/09 A3003 RMK AO2 SLP138 T02390094 403220150,M
HND,2023-08-25 07:56,-115.1344,35.9729,742.79,81.00,63.00,54.36,200.00,8.00,0.00,29.98,1013.60,10.00,M,CLR,M,M,M,M,M,M,M,M,M,M,M,M,M,M,82.28,KHND 250756Z AUTO 20008KT 10SM CLR 27/17 A2998 RMK AO2 SLP136 T02720172,M
LAS,2023-08-25 07:56,-115.1634,36.0719,663.00,83.00,61.00,47.47,220.00,5.00,0.00,29.93,1010.70,10.00,M,CLR,M,M,M,M,M,M,M,M,M,M,M,M,M,M,83.46,KLAS 250756Z 22005KT 10SM CLR 28/16 A2993 RMK AO2 SLP107 T02830161 403670256,M
05U,2023-08-25 08:10,-116.0051,39.6042,1811.23,62.60,48.20,59.26,M,M,0.00,30.21,M,10.00,M,M,M,M,M,M,M,M,M,M,M,M,M,M,M,M,62.60,K05U 250810Z AUTO 10SM 17/09 A3021 RMK A01,M
BVU,2023-08-25 08:15,-114.8611,35.9475,671.00,80.60,64.40,57.84,70.00,4.00,0.00,29.93,M,10.00,M,CLR,M,M,M,M,M,M,M,M,M,M,M,M,M,M,82.27,KBVU 250815Z AUTO 07004KT 10SM CLR 27/18 A2993 RMK AO2,M
CXP,2023-08-25 08:15,-119.7326,39.1923,1431.00,64.40,51.80,63.60,0.00,0.00,0.00,30.10,M,10.00,M,OVC,M,M,M,11000.00,M,M,M,M,M,M,M,M,M,M,64.40,KCXP 250815Z AUTO 00000KT 10SM OVC110 18/11 A3010 RMK AO2,M
RTS,2023-08-25 08:15,-119.8764,39.6682,1539.00,64.40,46.40,51.98,10.00,5.00,0.00,30.13,M,10.00,M,OVC,M,M,M,10000.00,M,M,M,M,M,M,M,M,M,M,64.40,KRTS 250815Z AUTO 01005KT 10SM OVC100 18/08 A3013 RMK AO2,M
MEV,2023-08-25 08:15,-119.7500,38.9963,1441.42,57.20,50.00,76.82,0.00,0.00,0.00,30.09,M,10.00,M,CLR,M,M,M,M,M,M,M,M,M,M,M,M,M,M,57.20,KMEV 250815Z AUTO 00000KT 10SM CLR 14/10 A3009 RMK AO2,M
HTH,2023-08-25 08:15,-118.6315,38.5448,1282.89,71.60,55.40,56.63,310.00,5.00,0.00,30.06,M,10.00,M,FEW,FEW,M,M,9000.00,12000.00,M,M,M,M,M,M,M,M,M,71.60,KHTH 250815Z AUTO 31005KT 10SM FEW090 FEW120 22/13 A3006 RMK A01,M
10U,2023-08-25 08:15,-116.1876,41.9532,1637.00,62.60,42.80,48.28,120.00,5.00,0.00,30.13,M,10.00,M,CLR,M,M,M,M,M,M,M,M,M,M,M,M,M,M,62.60,K10U 250815Z AUTO 12005KT 10SM CLR 17/06 A3013 RMK AO2,M
BAM,2023-08-25 08:15,-116.8743,40.5990,1382.36,71.60,37.40,28.68,160.00,3.00,0.00,30.06,M,10.00,M,SCT,M,M,M,10000.00,M,M,M,M,M,M,M,M,M,M,71.60,KBAM 250815Z AUTO 16003KT 10SM SCT100 22/03 A3006 RMK AO1,M
TMT,2023-08-25 08:15,-117.1971,39.4643,1749.34,56.00,50.00,80.23,320.00,3.00,0.00,30.18,M,M,M,CLR,M,M,M,M,M,M,M,M,M,M,M,M,M,M,56.00,KTMT 250815Z AUTO 32003KT CLR 13/10 A3018 RMK AO2 T01340100 PWINO,M
RTS,2023-08-25 08:30,-119.8764,39.6682,1539.00,64.40,46.40,51.98,350.00,5.00,0.00,30.13,M,10.00,M,OVC,M,M,M,10000.00,M,M,M,M,M,M,M,M,M,M,64.40,KRTS 250830Z AUTO 35005KT 10SM OVC100 18/08 A3013 RMK AO2,M
BVU,2023-08-25 08:35,-114.8611,35.9475,671.00,80.60,64.40,57.84,0.00,0.00,0.00,29.93,M,10.00,M,CLR,M,M,M,M,M,M,M,M,M,M,M,M,M,M,82.27,KBVU 250835Z AUTO 00000KT 10SM CLR 27/18 A2993 RMK AO2,M
CXP,2023-08-25 08:35,-119.7326,39.1923,1431.00,64.40,51.80,63.60,0.00,0.00,0.00,30.11,M,10.00,M,OVC,M,M,M,11000.00,M,M,M,M,M,M,M,M,M,M,64.40,KCXP 250835Z AUTO 00000KT 10SM OVC110 18/11 A3011 RMK AO2,M
05U,2023-08-25 08:35,-116.0051,39.6042,1811.23,62.60,48.20,59.26,M,M,0.00,30.22,M,10.00,M,M,M,M,M,M,M,M,M,M,M,M,M,M,M,M,62.60,K05U 250835Z AUTO 10SM 17/09 A3022 RMK A01,M
MEV,2023-08-25 08:35,-119.7500,38.9963,1441.42,59.00,51.80,76.98,340.00,3.00,0.00,30.09,M,10.00,M,FEW,M,M,M,5000.00,M,M,M,M,M,M,M,M,M,M,59.00,KMEV 250835Z AUTO 34003KT 10SM FEW050 15/11 A3009 RMK AO2,M
HTH,2023-08-25 08:35,-118.6315,38.5448,1282.89,71.60,55.40,56.63,220.00,6.00,0.00,30.06,M,10.00,M,CLR,M,M,M,M,M,M,M,M,M,M,M,M,M,M,71.60,KHTH 250835Z AUTO 22006KT 10SM CLR 22/13 A3006 RMK A01,M
10U,2023-08-25 08:35,-116.1876,41.9532,1637.00,66.20,42.80,42.57,120.00,7.00,0.00,30.13,M,10.00,14.00,CLR,M,M,M,M,M,M,M,M,M,M,M,M,M,M,66.20,K10U 250835Z AUTO 12007G14KT 10SM CLR 19/06 A3013 RMK AO2,M
BAM,2023-08-25 08:35,-116.8743,40.5990,1382.36,68.00,39.20,34.80,0.00,0.00,0.00,30.06,M,10.00,M,SCT,M,M,M,10000.00,M,M,M,M,M,M,M,M,M,M,68.00,KBAM 250835Z AUTO 00000KT 10SM SCT100 20/04 A3006 RMK AO1,M
TMT,2023-08-25 08:35,-117.1971,39.4643,1749.34,51.60,47.70,86.48,0.00,0.00,0.00,30.17,M,M,M,M,M,M,M,M,M,M,M,M,M,M,M,M,M,M,51.60,KTMT 250835Z AUTO 00000KT 11/09 A3017 RMK AO2 T01090087 PWINO,M
05U,2023-08-25 08:50,-116.0051,39.6042,1811.23,62.60,48.20,59.26,M,M,0.00,30.22,M,10.00,M,M,M,M,M,M,M,M,M,M,M,M,M,M,M,M,62.60,K05U 250850Z AUTO 10SM 17/09 A3022 RMK A01,M
P68,2023-08-25 08:53,-116.0056,39.6014,1993.00,64.00,48.00,55.99,160.00,9.00,0.00,30.19,1013.20,M,M,M,M,M,M,M,M,M,M,M,M,M,M,M,M,M,64.00,KP68 250853Z AUTO 16009KT 18/09 A3019 RMK AO1 SLP132 T01780089 51003,M
DRA,2023-08-25 08:53,-116.0278,36.6206,1009.00,76.00,59.00,55.62,360.00,4.00,0.00,30.00,1010.60,10.00,M,FEW,M,M,M,11000.00,M,M,M,M,M,M,M,M,M,M,76.00,KDRA 250853Z AUTO 36004KT 10SM FEW110 24/15 A3000 RMK AO2 SLP106 T02440150 50001,M
ELY,2023-08-25 08:53,-114.8453,39.2950,1909.00,54.00,50.00,86.29,190.00,7.00,0.00,30.25,1014.90,10.00,M,CLR,M,M,M,M,M,M,M,M,M,M,M,M,M,M,54.00,KELY 250853Z AUTO 19007KT 10SM CLR 12/10 A3025 RMK AO2 SLP149 T01220100 51004,M
VGT,2023-08-25 08:53,-115.1933,36.2111,667.00,86.00,61.00,43.10,320.00,3.00,0.00,29.93,1012.00,10.00,M,CLR,M,M,M,M,M,M,M,M,M,M,M,M,M,M,86.12,KVGT 250853Z AUTO 32003KT 10SM CLR 30/16 A2993 RMK AO2 SLP120 T03000161 51001,M
LOL,2023-08-25 08:53,-118.5701,40.0684,1192.43,69.00,52.00,54.64,130.00,5.00,0.00,30.03,1012.60,10.00,M,OVC,M,M,M,11000.00,M,M,M,M,M,M,M,M,M,M,69.00,KLOL 250853Z AUTO 13005KT 10SM OVC110 21/11 A3003 RMK AO2 SLP126 60000 T02060111 53008,M
BVU,2023-08-25 08:55,-114.8611,35.9475,671.00,78.80,64.40,61.36,0.00,0.00,0.00,29.93,M,10.00,M,CLR,M,M,M,M,M,M,M,M,M,M,M,M,M,M,78.80,KBVU 250855Z AUTO 00000KT 10SM CLR 26/18 A2993 RMK AO2,M
CXP,2023-08-25 08:55,-119.7326,39.1923,1431.00,64.40,51.80,63.60,0.00,0.00,0.00,30.11,M,10.00,M,BKN,M,M,M,11000.00,M,M,M,M,M,M,M,M,M,M,64.40,KCXP 250855Z AUTO 00000KT 10SM BKN110 18/11 A3011 RMK AO2,M
INS,2023-08-25 08:55,-115.6733,36.5872,955.00,75.70,59.00,56.18,0.00,0.00,0.00,30.00,1010.90,10.00,M,CLR,M,M,M,M,M,M,M,M,M,M,M,M,M,M,75.70,KINS 250855Z AUTO 00000KT 10SM CLR 24/15 A3000 RMK AO2 SLP109 T02430149 52003 $,M
RNO,2023-08-25 08:55,-119.7711,39.4839,1341.00,71.00,49.00,45.66,290.00,3.00,0.00,30.08,1012.40,10.00,M,BKN,M,M,M,11000.00,M,M,M,M,M,M,M,M,M,M,71.00,KRNO 250855Z 29003KT 10SM BKN110 22/09 A3008 RMK AO2 SLP124 T02170094 53006,M
LSV,2023-08-25 08:55,-115.0343,36.2362,570.00,82.60,59.70,45.91,0.00,0.00,0.00,29.88,1009.10,10.00,M,CLR,M,M,M,M,M,M,M,M,M,M,M,M,M,M,82.79,KLSV 250855Z AUTO 00000KT 10SM CLR 28/15 A2988 RMK AO2 SLP091 T02810154 50001 $,M
RTS,2023-08-25 08:55,-119.8764,39.6682,1539.00,62.60,48.20,59.26,330.00,5.00,0.00,30.13,M,10.00,M,OVC,M,M,M,10000.00,M,M,M,M,M,M,M,M,M,M,62.60,KRTS 250855Z AUTO 33005KT 10SM OVC100 17/09 A3013 RMK AO2,M
MEV,2023-08-25 08:55,-119.7500,38.9963,1441.42,57.20,51.80,82.12,M,5.00,0.00,30.09,M,10.00,10.00,FEW,M,M,M,4800.00,M,M,M,M,M,M,M,M,M,M,57.20,KMEV 250855Z AUTO VRB05G10KT 10SM FEW048 14/11 A3009 RMK AO2,M
HTH,2023-08-25 08:55,-118.6315,38.5448,1282.89,71.60,53.60,53.03,240.00,6.00,0.00,30.06,M,10.00,M,CLR,M,M,M,M,M,M,M,M,M,M,M,M,M,M,71.60,KHTH 250855Z AUTO 24006KT 10SM CLR 22/12 A3006 RMK A01,M
BAM,2023-08-25 08:55,-116.8743,40.5990,1382.36,66.20,39.20,37.03,0.00,0.00,0.00,30.07,M,10.00,M,BKN,M,M,M,11000.00,M,M,M,M,M,M,M,M,M,M,66.20,KBAM 250855Z AUTO 00000KT 10SM BKN110 19/04 A3007 RMK AO1,M
TMT,2023-08-25 08:55,-117.1971,39.4643,1749.34,51.80,48.20,87.47,0.00,0.00,0.00,30.17,M,M,M,M,M,M,M,M,M,M,M,M,M,M,M,M,M,M,51.80,KTMT 250855Z AUTO 00000KT 11/09 A3017 RMK AO2 T01100090 PWINO,M
10U,2023-08-25 08:55,-116.1876,41.9532,1637.00,66.20,42.80,42.57,130.00,8.00,0.00,30.12,M,10.00,M,CLR,M,M,M,M,M,M,M,M,M,M,M,M,M,M,66.20,K10U 250855Z AUTO 13008KT 10SM CLR 19/06 A3012 RMK AO2,M
EKO,2023-08-25 08:56,-115.7860,40.8242,1367.00,67.00,49.00,52.37,60.00,4.00,0.00,30.12,1013.90,10.00,M,BKN,M,M,M,10000.00,M,M,M,M,M,M,M,M,M,M,67.00,KEKO 250856Z AUTO 06004KT 10SM BKN100 19/09 A3012 RMK AO2 SLP139 T01940094 53005,M
WMC,2023-08-25 08:56,-117.8072,40.9019,1315.00,67.00,45.00,45.04,0.00,0.00,0.00,30.03,1011.60,10.00,M,BKN,M,M,M,11000.00,M,M,M,M,M,M,M,M,M,M,67.00,KWMC 250856Z AUTO 00000KT 10SM BKN110 19/07 A3003 RMK AO2 SLP116 60000 T01940072 53002,M
NFL,2023-08-25 08:56,-118.7010,39.4166,1199.00,73.00,53.00,49.48,250.00,6.00,0.00,30.03,1013.90,10.00,M,OVC,M,M,M,10000.00,M,M,M,M,M,M,M,M,M,M,73.00,KNFL 250856Z AUTO 25006KT 10SM OVC100 23/12 A3003 RMK AO2 SLP139 T02280117 51009,M
HND,2023-08-25 08:56,-115.1344,35.9729,742.79,80.00,62.00,54.22,200.00,6.00,0.00,29.98,1013.50,10.00,M,CLR,M,M,M,M,M,M,M,M,M,M,M,M,M,M,81.21,KHND 250856Z AUTO 20006KT 10SM CLR 27/17 A2998 RMK AO2 SLP135 T02670167 51001,M
LAS,2023-08-25 08:56,-115.1634,36.0719,663.00,83.00,61.00,47.47,0.00,0.00,0.00,29.94,1010.70,10.00,M,CLR,M,M,M,M,M,M,M,M,M,M,M,M,M,M,83.46,KLAS 250856Z 00000KT 10SM CLR 28/16 A2994 RMK AO2 SLP107 T02830161 51001,M
BVU,2023-08-25 09:15,-114.8611,35.9475,671.00,80.60,64.40,57.84,0.00,0.00,0.00,29.93,M,10.00,M,CLR,M,M,M,M,M,M,M,M,M,M,M,M,M,M,82.27,KBVU 250915Z AUTO 00000KT 10SM CLR 27/18 A2993 RMK AO2,M
CXP,2023-08-25 09:15,-119.7326,39.1923,1431.00,60.80,53.60,77.14,0.00,0.00,0.00,30.10,M,10.00,M,FEW,M,M,M,11000.00,M,M,M,M,M,M,M,M,M,M,60.80,KCXP 250915Z AUTO 00000KT 10SM FEW110 16/12 A3010 RMK AO2,M
RTS,2023-08-25 09:15,-119.8764,39.6682,1539.00,62.60,48.20,59.26,340.00,6.00,0.00,30.13,M,10.00,M,BKN,M,M,M,10000.00,M,M,M,M,M,M,M,M,M,M,62.60,KRTS 250915Z AUTO 34006KT 10SM BKN100 17/09 A3013 RMK AO2,M
05U,2023-08-25 09:15,-116.0051,39.6042,1811.23,60.80,48.20,63.15,M,M,0.00,30.22,M,10.00,M,M,M,M,M,M,M,M,M,M,M,M,M,M,M,M,60.80,K05U 250915Z AUTO 10SM 16/09 A3022 RMK A01,M
MEV,2023-08-25 09:15,-119.7500,38.9963,1441.42,57.20,51.80,82.12,90.00,5.00,0.00,30.09,M,10.00,M,CLR,M,M,M,M,M,M,M,M,M,M,M,M,M,M,57.20,KMEV 250915Z AUTO 09005KT 10SM CLR 14/11 A3009 RMK AO2,M
HTH,2023-08-25 09:15,-118.6315,38.5448,1282.89,69.80,51.80,52.77,280.00,4.00,0.00,30.06,M,10.00,M,CLR,M,M,M,M,M,M,M,M,M,M,M,M,M,M,69.80,KHTH 250915Z AUTO 28004KT 10SM CLR 21/11 A3006 RMK A01,M
10U,2023-08-25 09:15,-116.1876,41.9532,1637.00,66.20,42.80,42.57,110.00,11.00,0.00,30.12,M,10.00,M,CLR,M,M,M,M,M,M,M,M,M,M,M,M,M,M,66.20,K10U 250915Z AUTO 11011KT 10SM CLR 19/06 A3012 RMK AO2,M
BAM,2023-08-25 09:15,-116.8743,40.5990,1382.36,68.00,37.40,32.43,60.00,7.00,0.00,30.07,M,10.00,M,OVC,M,M,M,11000.00,M,M,M,M,M,M,M,M,M,M,68.00,KBAM 250915Z AUTO 06007KT 10SM OVC110 20/03 A3007 RMK AO1,M
TMT,2023-08-25 09:15,-117.1971,39.4643,1749.34,50.00,46.60,88.04,110.00,3.00,0.00,30.18,M,M,M,M,M,M,M,M,M,M,M,M,M,M,M,M,M,M,50.00,KTMT 250915Z AUTO 11003KT 10/08 A3018 RMK AO2 T00990081 PWINO,M
05U,2023-08-25 09:30,-116.0051,39.6042,1811.23,59.00,48.20,67.33,M,M,0.00,30.21,M,10.00,M,M,M,M,M,M,M,M,M,M,M,M,M,M,M,M,59.00,K05U 250930Z AUTO 10SM 15/09 A3021 RMK A01,M
BVU,2023-08-25 09:35,-114.8611,35.9475,671.00,78.80,64.40,61.36,40.00,3.00,0.00,29.93,M,10.00,M,CLR,M,M,M,M,M,M,M,M,M,M,M,M,M,M,78.80,KBVU 250935Z AUTO 04003KT 10SM CLR 26/18 A2993 RMK AO2,M
CXP,2023-08-25 09:35,-119.7326,39.1923,1431.00,60.80,53.60,77.14,0.00,0.00,0.00,30.10,M,10.00,M,CLR,M,M,M,M,M,M,M,M,M,M,M,M,M,M,60.80,KCXP 250935Z AUTO 00000KT 10SM CLR 16/12 A3010 RMK AO2,M
RTS,2023-08-25 09:35,-119.8764,39.6682,1539.00,60.80,48.20,63.15,20.00,5.00,0.00,30.13,M,10.00,M,SCT,M,M,M,11000.00,M,M,M,M,M,M,M,M,M,M,60.80,KRTS 250935Z AUTO 02005KT 10SM SCT110 16/09 A3013 RMK AO2,M
MEV,2023-08-25 09:35,-119.7500,38.9963,1441.42,55.40,50.00,81.99,M,4.00,0.00,30.09,M,10.00,M,CLR,M,M,M,M,M,M,M,M,M,M,M,M,M,M,55.40,KMEV 250935Z AUTO VRB04KT 10SM CLR 13/10 A3009 RMK AO2,M
HTH,2023-08-25 09:35,-118.6315,38.5448,1282.89,68.00,53.60,59.97,0.00,0.00,0.00,30.07,M,10.00,M,CLR,M,M,M,M,M,M,M,M,M,M,M,M,M,M,68.00,KHTH 250935Z AUTO 00000KT 10SM CLR 20/12 A3007 RMK A01,M
10U,2023-08-25 09:35,-116.1876,41.9532,1637.00,69.80,42.80,37.61,110.00,11.00,0.00,30.12,M,10.00,17.00,CLR,M,M,M,M,M,M,M,M,M,M,M,M,M,M,69.80,K10U 250935Z AUTO 11011G17KT 10SM CLR 21/06 A3012 RMK AO2,M
BAM,2023-08-25 09:35,-116.8743,40.5990,1382.36,64.40,37.40,36.74,80.00,6.00,0.00,30.07,M,10.00,M,SCT,M,M,M,11000.00,M,M,M,M,M,M,M,M,M,M,64.40,KBAM 250935Z AUTO 08006KT 10SM SCT110 18/03 A3007 RMK AO1,M
TMT,2023-08-25 09:35,-117.1971,39.4643,1749.34,51.40,47.00,84.85,110.00,4.00,0.00,30.18,M,M,M,CLR,M,M,M,M,M,M,M,M,M,M,M,M,M,M,51.40,KTMT 250935Z AUTO 11004KT CLR 11/08 A3018 RMK AO2 T01080083 PWINO,M
P68,2023-08-25 09:53,-116.0056,39.6014,1993.00,60.00,48.00,64.49,270.00,3.00,0.00,30.19,1013.70,M,M,M,M,M,M,M,M,M,M,M,M,M,M,M,M,M,60.00,KP68 250953Z AUTO 27003KT 16/09 A3019 RMK AO1 SLP137 T01560089,M
DRA,2023-08-25 09:53,-116.0278,36.6206,1009.00,74.00,61.00,63.85,320.00,4.00,0.00,30.01,1010.90,10.00,M,FEW,M,M,M,9000.00,M,M,M,M,M,M,M,M,M,M,74.00,KDRA 250953Z AUTO 32004KT 10SM FEW090 23/16 A3001 RMK AO2 SLP109 T02330161,M
ELY,2023-08-25 09:53,-114.8453,39.2950,1909.00,56.00,50.00,80.23,210.00,8.00,0.00,30.25,1014.70,10.00,M,CLR,M,M,M,M,M,M,M,M,M,M,M,M,M,M,56.00,KELY 250953Z AUTO 21008KT 10SM CLR 13/10 A3025 RMK AO2 SLP147 T01330100,M
VGT,2023-08-25 09:53,-115.1933,36.2111,667.00,84.00,62.00,47.61,330.00,5.00,0.00,29.93,1012.00,10.00,M,CLR,M,M,M,M,M,M,M,M,M,M,M,M,M,M,84.64,KVGT 250953Z AUTO 33005KT 10SM CLR 29/17 A2993 RMK AO2 SLP120 T02890167,M
LOL,2023-08-25 09:53,-118.5701,40.0684,1192.43,68.00,54.00,60.86,270.00,8.00,T,30.05,1013.20,9.00,M,FEW,SCT,BKN,M,5500.00,7000.00,10000.00,M,-RA,M,M,M,M,M,M,68.00,KLOL 250953Z AUTO 27008KT 9SM -RA FEW055 SCT070 BKN100 20/12 A3005 RMK AO2 RAB03 SLP132 P0000 T02000122,M
BVU,2023-08-25 09:55,-114.8611,35.9475,671.00,80.60,62.60,54.30,0.00,0.00,0.00,29.93,M,10.00,M,CLR,M,M,M,M,M,M,M,M,M,M,M,M,M,M,81.84,KBVU 250955Z AUTO 00000KT 10SM CLR 27/17 A2993 RMK AO2,M
CXP,2023-08-25 09:55,-119.7326,39.1923,1431.00,60.80,53.60,77.14,0.00,0.00,0.00,30.11,M,10.00,M,FEW,M,M,M,11000.00,M,M,M,M,M,M,M,M,M,M,60.80,KCXP 250955Z AUTO 00000KT 10SM FEW110 16/12 A3011 RMK AO2,M
INS,2023-08-25 09:55,-115.6733,36.5872,955.00,73.40,61.30,65.85,0.00,0.00,0.00,30.00,1010.90,10.00,M,CLR,M,M,M,M,M,M,M,M,M,M,M,M,M,M,73.40,KINS 250955Z AUTO 00000KT 10SM CLR 23/16 A3000 RMK AO2 SLP109 T02300163 $,M
RNO,2023-08-25 09:55,-119.7711,39.4839,1341.00,68.00,49.00,50.59,270.00,4.00,0.00,30.08,1012.40,10.00,M,FEW,M,M,M,11000.00,M,M,M,M,M,M,M,M,M,M,68.00,KRNO 250955Z 27004KT 10SM FEW110 20/09 A3008 RMK AO2 SLP124 T02000094,M
LSV,2023-08-25 09:55,-115.0343,36.2362,570.00,81.00,61.70,51.92,40.00,3.00,0.00,29.88,1009.10,10.00,M,CLR,M,M,M,M,M,M,M,M,M,M,M,M,M,M,81.97,KLSV 250955Z AUTO 04003KT 10SM CLR 27/17 A2988 RMK AO2 SLP091 T02720165 $,M
RTS,2023-08-25 09:55,-119.8764,39.6682,1539.00,60.80,46.40,59.01,360.00,4.00,0.00,30.13,M,10.00,M,SCT,M,M,M,12000.00,M,M,M,M,M,M,M,M,M,M,60.80,KRTS 250955Z AUTO 36004KT 10SM SCT120 16/08 A3013 RMK AO2,M
05U,2023-08-25 09:55,-116.0051,39.6042,1811.23,60.80,48.20,63.15,M,M,0.00,30.22,M,10.00,M,M,M,M,M,M,M,M,M,M,M,M,M,M,M,M,60.80,K05U 250955Z AUTO 10SM 16/09 A3022 RMK A01,M
MEV,2023-08-25 09:55,-119.7500,38.9963,1441.42,57.20,50.00,76.82,0.00,0.00,0.00,30.09,M,10.00,M,CLR,M,M,M,M,M,M,M,M,M,M,M,M,M,M,57.20,KMEV 250955Z AUTO 00000KT 10SM CLR 14/10 A3009 RMK AO2,M
HTH,2023-08-25 09:55,-118.6315,38.5448,1282.89,66.20,53.60,63.82,140.00,4.00,0.00,30.07,M,10.00,M,CLR,M,M,M,M,M,M,M,M,M,M,M,M,M,M,66.20,KHTH 250955Z AUTO 14004KT 10SM CLR 19/12 A3007 RMK A01,M
BAM,2023-08-25 09:55,-116.8743,40.5990,1382.36,64.40,37.40,36.74,220.00,6.00,0.00,30.08,M,10.00,M,CLR,M,M,M,M,M,M,M,M,M,M,M,M,M,M,64.40,KBAM 250955Z AUTO 22006KT 10SM CLR 18/03 A3008 RMK AO1,M
TMT,2023-08-25 09:55,-117.1971,39.4643,1749.34,51.00,47.00,86.12,0.00,0.00,0.00,30.18,M,M,M,M,M,M,M,M,M,M,M,M,M,M,M,M,M,M,51.00,KTMT 250955Z AUTO 00000KT 11/08 A3018 RMK AO2 T01050083 PWINO,M
10U,2023-08-25 09:55,-116.1876,41.9532,1637.00,69.80,42.80,37.61,130.00,15.00,0.00,30.12,M,10.00,21.00,CLR,M,M,M,M,M,M,M,M,M,M,M,M,M,M,69.80,K10U 250955Z AUTO 13015G21KT 10SM CLR 21/06 A3012 RMK AO2,M
EKO,2023-08-25 09:56,-115.7860,40.8242,1367.00,63.00,49.00,60.20,0.00,0.00,0.00,30.13,1014.20,10.00,M,CLR,M,M,M,M,M,M,M,M,M,M,M,M,M,M,63.00,KEKO 250956Z AUTO 00000KT 10SM CLR 17/09 A3013 RMK AO2 SLP142 T01720094,M
WMC,2023-08-25 09:56,-117.8072,40.9019,1315.00,66.00,47.00,50.29,10.00,5.00,T,30.04,1011.80,10.00,M,BKN,M,M,M,11000.00,M,M,M,M,M,M,M,M,M,M,66.00,KWMC 250956Z AUTO 01005KT 10SM BKN110 19/08 A3004 RMK AO2 RAB39E49 SLP118 P0000 T01890083,M
NFL,2023-08-25 09:56,-118.7010,39.4166,1199.00,69.00,57.00,65.57,90.00,5.00,T,30.03,1014.00,10.00,M,FEW,FEW,OVC,M,4000.00,6000.00,10000.00,M,M,M,M,M,M,M,M,69.00,KNFL 250956Z AUTO 09005KT 10SM FEW040 FEW060 OVC100 21/14 A3003 RMK AO2 RAB37E46 SLP140 P0000 T02060139,M
HND,2023-08-25 09:56,-115.1344,35.9729,742.79,79.00,62.00,56.03,210.00,6.00,0.00,29.97,1013.40,10.00,M,CLR,M,M,M,M,M,M,M,M,M,M,M,M,M,M,79.00,KHND 250956Z AUTO 21006KT 10SM CLR 26/17 A2997 RMK AO2 SLP134 T02610167,M
LAS,2023-08-25 09:56,-115.1634,36.0719,663.00,82.00,62.00,50.80,0.00,0.00,0.00,29.93,1010.70,10.00,M,CLR,M,M,M,M,M,M,M,M,M,M,M,M,M,M,82.89,KLAS 250956Z 00000KT 10SM CLR 28/17 A2993 RMK AO2 SLP107 T02780167,M
HTH,2023-08-25 10:10,-118.6315,38.5448,1282.89,66.20,51.80,59.74,170.00,3.00,0.00,30.07,M,10.00,M,CLR,M,M,M,M,M,M,M,M,M,M,M,M,M,M,66.20,KHTH 251010Z AUTO 17003KT 10SM CLR 19/11 A3007 RMK A01,M
BVU,2023-08-25 10:15,-114.8611,35.9475,671.00,77.00,64.40,65.12,0.00,0.00,0.00,29.92,M,10.00,M,CLR,M,M,M,M,M,M,M,M,M,M,M,M,M,M,77.00,KBVU 251015Z AUTO 00000KT 10SM CLR 25/18 A2992 RMK AO2,M
CXP,2023-08-25 10:15,-119.7326,39.1923,1431.00,59.00,51.80,76.98,0.00,0.00,0.00,30.11,M,10.00,M,FEW,M,M,M,12000.00,M,M,M,M,M,M,M,M,M,M,59.00,KCXP 251015Z AUTO 00000KT 10SM FEW120 15/11 A3011 RMK AO2,M
RTS,2023-08-25 10:15,-119.8764,39.6682,1539.00,60.80,46.40,59.01,320.00,3.00,0.00,30.13,M,10.00,M,FEW,M,M,M,12000.00,M,M,M,M,M,M,M,M,M,M,60.80,KRTS 251015Z AUTO 32003KT 10SM FEW120 16/08 A3013 RMK AO2,M
05U,2023-08-25 10:15,-116.0051,39.6042,1811.23,60.80,48.20,63.15,M,M,0.00,30.22,M,10.00,M,M,M,M,M,M,M,M,M,M,M,M,M,M,M,M,60.80,K05U 251015Z AUTO 10SM 16/09 A3022 RMK A01,M
MEV,2023-08-25 10:15,-119.7500,38.9963,1441.42,53.60,50.00,87.56,0.00,0.00,0.00,30.10,M,10.00,M,FEW,FEW,FEW,M,5000.00,6000.00,7500.00,M,M,M,M,M,M,M,M,53.60,KMEV 251015Z AUTO 00000KT 10SM FEW050 FEW060 FEW075 12/10 A3010 RMK AO2,M
10U,2023-08-25 10:15,-116.1876,41.9532,1637.00,68.00,44.60,42.85,130.00,12.00,0.00,30.12,M,10.00,18.00,CLR,M,M,M,M,M,M,M,M,M,M,M,M,M,M,68.00,K10U 251015Z AUTO 13012G18KT 10SM CLR 20/07 A3012 RMK AO2,M
BAM,2023-08-25 10:15,-116.8743,40.5990,1382.36,62.60,39.20,42.00,0.00,0.00,0.00,30.08,M,10.00,M,CLR,M,M,M,M,M,M,M,M,M,M,M,M,M,M,62.60,KBAM 251015Z AUTO 00000KT 10SM CLR 17/04 A3008 RMK AO1,M
TMT,2023-08-25 10:15,-117.1971,39.4643,1749.34,51.00,48.20,90.09,0.00,0.00,0.00,30.18,M,M,M,M,M,M,M,M,M,M,M,M,M,M,M,M,M,M,51.00,KTMT 251015Z AUTO 00000KT 11/09 A3018 RMK AO2 T01060090 PWINO,M
05U,2023-08-25 10:30,-116.0051,39.6042,1811.23,62.60,48.20,59.26,M,M,0.00,30.22,M,10.00,M,M,M,M,M,M,M,M,M,M,M,M,M,M,M,M,62.60,K05U 251030Z AUTO 10SM 17/09 A3022 RMK A01,M
BVU,2023-08-25 10:35,-114.8611,35.9475,671.00,78.80,64.40,61.36,0.00,0.00,0.00,29.93,M,10.00,M,CLR,M,M,M,M,M,M,M,M,M,M,M,M,M,M,78.80,KBVU 251035Z AUTO 00000KT 10SM CLR 26/18 A2993 RMK AO2,M
CXP,2023-08-25 10:35,-119.7326,39.1923,1431.00,59.00,51.80,76.98,0.00,0.00,0.00,30.11,M,10.00,M,CLR,M,M,M,M,M,M,M,M,M,M,M,M,M,M,59.00,KCXP 251035Z AUTO 00000KT 10SM CLR 15/11 A3011 RMK AO2,M
RTS,2023-08-25 10:35,-119.8764,39.6682,1539.00,59.00,46.40,62.92,320.00,7.00,0.00,30.13,M,10.00,M,CLR,M,M,M,M,M,M,M,M,M,M,M,M,M,M,59.00,KRTS 251035Z AUTO 32007KT 10SM CLR 15/08 A3013 RMK AO2,M
MEV,2023-08-25 10:35,-119.7500,38.9963,1441.42,55.40,50.00,81.99,0.00,0.00,0.00,30.09,M,10.00,M,FEW,SCT,SCT,M,4900.00,6000.00,7500.00,M,M,M,M,M,M,M,M,55.40,KMEV 251035Z AUTO 00000KT 10SM FEW049 SCT060 SCT075 13/10 A3009 RMK AO2,M
HTH,2023-08-25 10:35,-118.6315,38.5448,1282.89,66.20,51.80,59.74,210.00,4.00,0.00,30.07,M,10.00,M,CLR,M,M,M,M,M,M,M,M,M,M,M,M,M,M,66.20,KHTH 251035Z AUTO 21004KT 10SM CLR 19/11 A3007 RMK A01,M
10U,2023-08-25 10:35,-116.1876,41.9532,1637.00,68.00,44.60,42.85,130.00,12.00,0.00,30.13,M,10.00,M,BKN,M,M,M,11000.00,M,M,M,M,M,M,M,M,M,M,68.00,K10U 251035Z AUTO 13012KT 10SM BKN110 20/07 A3013 RMK AO2,M
BAM,2023-08-25 10:35,-116.8743,40.5990,1382.36,64.40,37.40,36.74,130.00,4.00,0.00,30.08,M,10.00,M,CLR,M,M,M,M,M,M,M,M,M,M,M,M,M,M,64.40,KBAM 251035Z AUTO 13004KT 10SM CLR 18/03 A3008 RMK AO1,M
TMT,2023-08-25 10:35,-117.1971,39.4643,1749.34,50.70,47.50,88.74,340.00,4.00,0.00,30.18,M,M,M,M,M,M,M,M,M,M,M,M,M,M,M,M,M,M,50.70,KTMT 251035Z AUTO 34004KT 10/09 A3018 RMK AO2 T01040086 PWINO,M
P68,2023-08-25 10:53,-116.0056,39.6014,1993.00,60.00,48.00,64.49,0.00,0.00,0.00,30.20,1013.90,M,M,M,M,M,M,M,M,M,M,M,M,M,M,M,M,M,60.00,KP68 251053Z AUTO 00000KT 16/09 A3020 RMK AO1 SLP139 T01560089,M
DRA,2023-08-25 10:53,-116.0278,36.6206,1009.00,75.00,60.00,59.59,100.00,4.00,0.00,30.01,1010.80,10.00,M,CLR,M,M,M,M,M,M,M,M,M,M,M,M,M,M,75.00,KDRA 251053Z AUTO 10004KT 10SM CLR 24/16 A3001 RMK AO2 SLP108 T02390156,M
ELY,2023-08-25 10:53,-114.8453,39.2950,1909.00,54.00,49.00,83.13,140.00,3.00,0.00,30.26,1015.20,10.00,M,BKN,BKN,M,M,8000.00,10000.00,M,M,M,M,M,M,M,M,M,54.00,KELY 251053Z AUTO 14003KT 10SM BKN080 BKN100 12/09 A3026 RMK AO2 SLP152 T01220094,M
VGT,2023-08-25 10:53,-115.1933,36.2111,667.00,82.00,62.00,50.80,0.00,0.00,0.00,29.93,1012.00,10.00,M,CLR,M,M,M,M,M,M,M,M,M,M,M,M,M,M,82.89,KVGT 251053Z AUTO 00000KT 10SM CLR 28/17 A2993 RMK AO2 SLP120 T02780167,M
LOL,2023-08-25 10:53,-118.5701,40.0684,1192.43,69.00,54.00,58.80,350.00,7.00,T,30.04,1012.80,10.00,M,FEW,SCT,M,M,8000.00,11000.00,M,M,M,M,M,M,M,M,M,69.00,KLOL 251053Z AUTO 35007KT 10SM FEW080 SCT110 21/12 A3004 RMK AO2 RAE02 SLP128 P0000 T02060122,M
BVU,2023-08-25 10:55,-114.8611,35.9475,671.00,77.00,64.40,65.12,0.00,0.00,0.00,29.93,M,10.00,M,CLR,M,M,M,M,M,M,M,M,M,M,M,M,M,M,77.00,KBVU 251055Z AUTO 00000KT 10SM CLR 25/18 A2993 RMK AO2,M
CXP,2023-08-25 10:55,-119.7326,39.1923,1431.00,60.80,51.80,72.20,70.00,3.00,0.00,30.11,M,10.00,M,SCT,M,M,M,11000.00,M,M,M,M,M,M,M,M,M,M,60.80,KCXP 251055Z AUTO 07003KT 10SM SCT110 16/11 A3011 RMK AO2,M
INS,2023-08-25 10:55,-115.6733,36.5872,955.00,73.60,59.70,61.79,0.00,0.00,0.00,30.00,1010.90,10.00,M,CLR,M,M,M,M,M,M,M,M,M,M,M,M,M,M,73.60,KINS 251055Z AUTO 00000KT 10SM CLR 23/15 A3000 RMK AO2 SLP109 T02310154 $,M
RNO,2023-08-25 10:55,-119.7711,39.4839,1341.00,65.00,49.00,56.13,280.00,6.00,0.00,30.08,1012.80,10.00,M,FEW,M,M,M,11000.00,M,M,M,M,M,M,M,M,M,M,65.00,KRNO 251055Z 28006KT 10SM FEW110 18/09 A3008 RMK AO2 SLP128 T01830094,M
LSV,2023-08-25 10:55,-115.0343,36.2362,570.00,79.00,60.00,52.19,30.00,3.00,0.00,29.88,1009.20,10.00,M,CLR,M,M,M,M,M,M,M,M,M,M,M,M,M,M,79.00,KLSV 251055Z AUTO 03003KT 10SM CLR 26/16 A2988 RMK AO2 SLP092 T02620155 $,M
RTS,2023-08-25 10:55,-119.8764,39.6682,1539.00,57.20,48.20,71.83,340.00,6.00,0.00,30.13,M,10.00,M,CLR,M,M,M,M,M,M,M,M,M,M,M,M,M,M,57.20,KRTS 251055Z AUTO 34006KT 10SM CLR 14/09 A3013 RMK AO2,M
05U,2023-08-25 10:55,-116.0051,39.6042,1811.23,57.20,48.20,71.83,M,M,0.00,30.22,M,10.00,M,M,M,M,M,M,M,M,M,M,M,M,M,M,M,M,57.20,K05U 251055Z AUTO 10SM 14/09 A3022 RMK A01,M
MEV,2023-08-25 10:55,-119.7500,38.9963,1441.42,53.60,48.20,81.87,0.00,0.00,0.00,30.10,M,10.00,M,FEW,FEW,SCT,M,4900.00,5500.00,7000.00,M,M,M,M,M,M,M,M,53.60,KMEV 251055Z AUTO 00000KT 10SM FEW049 FEW055 SCT070 12/09 A3010 RMK AO2,M
HTH,2023-08-25 10:55,-118.6315,38.5448,1282.89,64.40,53.60,67.95,0.00,0.00,0.00,30.07,M,10.00,M,CLR,M,M,M,M,M,M,M,M,M,M,M,M,M,M,64.40,KHTH 251055Z AUTO 00000KT 10SM CLR 18/12 A3007 RMK A01,M
BAM,2023-08-25 10:55,-116.8743,40.5990,1382.36,62.60,37.40,39.14,120.00,6.00,0.00,30.08,M,10.00,M,CLR,M,M,M,M,M,M,M,M,M,M,M,M,M,M,62.60,KBAM 251055Z AUTO 12006KT 10SM CLR 17/03 A3008 RMK AO1,M
TMT,2023-08-25 10:55,-117.1971,39.4643,1749.34,47.00,44.60,91.31,0.00,0.00,0.00,30.18,M,M,M,M,M,M,M,M,M,M,M,M,M,M,M,M,M,M,47.00,KTMT 251055Z AUTO 00000KT 08/07 A3018 RMK AO2 T00840070 PWINO,M
10U,2023-08-25 10:55,-116.1876,41.9532,1637.00,68.00,44.60,42.85,150.00,8.00,0.00,30.13,M,10.00,13.00,BKN,M,M,M,10000.00,M,M,M,M,M,M,M,M,M,M,68.00,K10U 251055Z AUTO 15008G13KT 10SM BKN100 20/07 A3013 RMK AO2,M
EKO,2023-08-25 10:56,-115.7860,40.8242,1367.00,62.00,50.00,64.73,M,3.00,0.00,30.14,1014.40,10.00,M,CLR,M,M,M,M,M,M,M,M,M,M,M,M,M,M,62.00,KEKO 251056Z AUTO VRB03KT 10SM CLR 17/10 A3014 RMK AO2 SLP144 T01670100,M
WMC,2023-08-25 10:56,-117.8072,40.9019,1315.00,64.00,47.00,53.92,210.00,5.00,0.00,30.07,1012.90,10.00,M,BKN,M,M,M,10000.00,M,M,M,M,M,M,M,M,M,M,64.00,KWMC 251056Z AUTO 21005KT 10SM BKN100 18/08 A3007 RMK AO2 SLP129 T01780083,M
NFL,2023-08-25 10:56,-118.7010,39.4166,1199.00,68.00,54.00,60.86,110.00,6.00,0.00,30.03,1013.90,10.00,M,BKN,M,M,M,10000.00,M,M,M,M,M,M,M,M,M,M,68.00,KNFL 251056Z AUTO 11006KT 10SM BKN100 20/12 A3003 RMK AO2 SLP139 T02000122,M
HND,2023-08-25 10:56,-115.1344,35.9729,742.79,77.00,62.00,59.85,190.00,5.00,0.00,29.97,1013.60,10.00,M,CLR,M,M,M,M,M,M,M,M,M,M,M,M,M,M,77.00,KHND 251056Z AUTO 19005KT 10SM CLR 25/17 A2997 RMK AO2 SLP136 T02500167,M
LAS,2023-08-25 10:56,-115.1634,36.0719,663.00,81.00,62.00,52.48,190.00,3.00,0.00,29.93,1010.70,10.00,M,CLR,M,M,M,M,M,M,M,M,M,M,M,M,M,M,82.04,KLAS 251056Z 19003KT 10SM CLR 27/17 A2993 RMK AO2 SLP107 T02720167,M
05U,2023-08-25 11:10,-116.0051,39.6042,1811.23,60.80,48.20,63.15,M,M,0.00,30.22,M,10.00,M,M,M,M,M,M,M,M,M,M,M,M,M,M,M,M,60.80,K05U 251110Z AUTO 10SM 16/09 A3022 RMK A01,M
BVU,2023-08-25 11:15,-114.8611,35.9475,671.00,77.00,64.40,65.12,0.00,0.00,0.00,29.93,M,10.00,M,CLR,M,M,M,M,M,M,M,M,M,M,M,M,M,M,77.00,KBVU 251115Z AUTO 00000KT 10SM CLR 25/18 A2993 RMK AO2,M
CXP,2023-08-25 11:15,-119.7326,39.1923,1431.00,57.20,51.80,82.12,0.00,0.00,0.00,30.11,M,10.00,M,BKN,M,M,M,11000.00,M,M,M,M,M,M,M,M,M,M,57.20,KCXP 251115Z AUTO 00000KT 10SM BKN110 14/11 A3011 RMK AO2,M
RTS,2023-08-25 11:15,-119.8764,39.6682,1539.00,55.40,46.40,71.64,350.00,7.00,0.00,30.13,M,10.00,M,CLR,M,M,M,M,M,M,M,M,M,M,M,M,M,M,55.40,KRTS 251115Z AUTO 35007KT 10SM CLR 13/08 A3013 RMK AO2,M
MEV,2023-08-25 11:15,-119.7500,38.9963,1441.42,53.60,48.20,81.87,130.00,4.00,0.00,30.10,M,10.00,M,FEW,SCT,SCT,M,3600.00,4600.00,5500.00,M,M,M,M,M,M,M,M,53.60,KMEV 251115Z AUTO 13004KT 10SM FEW036 SCT046 SCT055 12/09 A3010 RMK AO2,M
HTH,2023-08-25 11:15,-118.6315,38.5448,1282.89,62.60,51.80,67.75,130.00,4.00,0.00,30.08,M,10.00,M,CLR,M,M,M,M,M,M,M,M,M,M,M,M,M,M,62.60,KHTH 251115Z AUTO 13004KT 10SM CLR 17/11 A3008 RMK A01,M
10U,2023-08-25 11:15,-116.1876,41.9532,1637.00,68.00,44.60,42.85,150.00,8.00,0.00,30.13,M,10.00,M,FEW,FEW,BKN,M,6000.00,8000.00,9500.00,M,M,M,M,M,M,M,M,68.00,K10U 251115Z AUTO 15008KT 10SM FEW060 FEW080 BKN095 20/07 A3013 RMK AO2,M
BAM,2023-08-25 11:15,-116.8743,40.5990,1382.36,60.80,39.20,44.76,100.00,5.00,0.00,30.08,M,10.00,M,CLR,M,M,M,M,M,M,M,M,M,M,M,M,M,M,60.80,KBAM 251115Z AUTO 10005KT 10SM CLR 16/04 A3008 RMK AO1,M
TMT,2023-08-25 11:15,-117.1971,39.4643,1749.34,46.40,44.60,93.40,90.00,4.00,0.00,30.18,M,M,M,M,M,M,M,M,M,M,M,M,M,M,M,M,M,M,44.24,KTMT 251115Z AUTO 09004KT 08/07 A3018 RMK AO2 T00800070 PWINO,M
BVU,2023-08-25 11:35,-114.8611,35.9475,671.00,77.00,64.40,65.12,0.00,0.00,0.00,29.93,M,10.00,M,CLR,M,M,M,M,M,M,M,M,M,M,M,M,M,M,77.00,KBVU 251135Z AUTO 00000KT 10SM CLR 25/18 A2993 RMK AO2,M
CXP,2023-08-25 11:35,-119.7326,39.1923,1431.00,59.00,51.80,76.98,0.00,0.00,0.00,30.11,M,10.00,M,FEW,SCT,M,M,9500.00,11000.00,M,M,M,M,M,M,M,M,M,59.00,KCXP 251135Z AUTO 00000KT 10SM FEW095 SCT110 15/11 A3011 RMK AO2,M
RTS,2023-08-25 11:35,-119.8764,39.6682,1539.00,57.20,46.40,67.12,360.00,8.00,0.00,30.13,M,10.00,M,CLR,M,M,M,M,M,M,M,M,M,M,M,M,M,M,57.20,KRTS 251135Z AUTO 36008KT 10SM CLR 14/08 A3013 RMK AO2,M
05U,2023-08-25 11:35,-116.0051,39.6042,1811.23,57.20,48.20,71.83,M,M,0.00,30.22,M,10.00,M,M,M,M,M,M,M,M,M,M,M,M,M,M,M,M,57.20,K05U 251135Z AUTO 10SM 14/09 A3022 RMK A01,M
MEV,2023-08-25 11:35,-119.7500,38.9963,1441.42,51.80,48.20,87.47,120.00,5.00,0.00,30.09,M,10.00,M,FEW,SCT,BKN,M,3500.00,4200.00,6000.00,M,M,M,M,M,M,M,M,51.80,KMEV 251135Z AUTO 12005KT 10SM FEW035 SCT042 BKN060 11/09 A3009 RMK AO2,M
HTH,2023-08-25 11:35,-118.6315,38.5448,1282.89,64.40,51.80,63.60,0.00,0.00,0.00,30.07,M,10.00,M,FEW,M,M,M,11000.00,M,M,M,M,M,M,M,M,M,M,64.40,KHTH 251135Z AUTO 00000KT 10SM FEW110 18/11 A3007 RMK A01,M
10U,2023-08-25 11:35,-116.1876,41.9532,1637.00,68.00,44.60,42.85,130.00,12.00,0.00,30.13,M,10.00,M,FEW,SCT,BKN,M,4300.00,6000.00,7500.00,M,M,M,M,M,M,M,M,68.00,K10U 251135Z AUTO 13012KT 10SM FEW043 SCT060 BKN075 20/07 A3013 RMK AO2,M
BAM,2023-08-25 11:35,-116.8743,40.5990,1382.36,66.20,41.00,39.72,190.00,3.00,0.00,30.10,M,10.00,M,CLR,M,M,M,M,M,M,M,M,M,M,M,M,M,M,66.20,KBAM 251135Z AUTO 19003KT 10SM CLR 19/05 A3010 RMK AO1,M
TMT,2023-08-25 11:35,-117.1971,39.4643,1749.34,47.50,46.00,94.50,0.00,0.00,0.00,30.18,M,M,M,BKN,M,M,M,11000.00,M,M,M,M,M,M,M,M,M,M,47.50,KTMT 251135Z AUTO 00000KT BKN110 09/08 A3018 RMK AO2 T00860077 PWINO,M
05U,2023-08-25 11:50,-116.0051,39.6042,1811.23,59.00,48.20,67.33,M,M,0.00,30.22,M,10.00,M,M,M,M,M,M,M,M,M,M,M,M,M,M,M,M,59.00,K05U 251150Z AUTO 10SM 15/09 A3022 RMK A01,M
P68,2023-08-25 11:53,-116.0056,39.6014,1993.00,59.00,49.00,69.38,160.00,4.00,0.00,30.20,1014.20,M,M,M,M,M,M,M,M,M,M,M,M,M,M,M,M,M,59.00,KP68 251153Z AUTO 16004KT 15/09 A3020 RMK AO1 SLP142 T01500094 10189 20128 51002,M
DRA,2023-08-25 11:53,-116.0278,36.6206,1009.00,74.00,59.00,59.46,10.00,3.00,0.00,30.00,1010.60,10.00,M,CLR,M,M,M,M,M,M,M,M,M,M,M,M,M,M,74.00,KDRA 251153Z AUTO 01003KT 10SM CLR 23/15 A3000 RMK AO2 SLP106 T02330150 10272 20228 50000,M
ELY,2023-08-25 11:53,-114.8453,39.2950,1909.00,54.00,50.00,86.29,200.00,7.00,0.00,30.25,1014.80,10.00,M,FEW,M,M,M,9000.00,M,M,M,M,M,M,M,M,M,M,54.00,KELY 251153Z AUTO 20007KT 10SM FEW090 12/10 A3025 RMK AO2 SLP148 70009 T01220100 10167 20117 50001,M
VGT,2023-08-25 11:53,-115.1933,36.2111,667.00,82.00,62.00,50.80,0.00,0.00,0.00,29.93,1012.40,10.00,M,CLR,M,M,M,M,M,M,M,M,M,M,M,M,M,M,82.89,KVGT 251153Z AUTO 00000KT 10SM CLR 28/17 A2993 RMK AO2 SLP124 T02780167 10333 20278 53000,M
LOL,2023-08-25 11:53,-118.5701,40.0684,1192.43,64.00,53.00,67.41,70.00,7.00,0.00,30.04,1013.00,10.00,M,FEW,M,M,M,10000.00,M,M,M,M,M,M,M,M,M,M,64.00,KLOL 251153Z AUTO 07007KT 10SM FEW100 18/12 A3004 RMK AO2 SLP130 60000 T01780117 10228 20178 50002,M
BVU,2023-08-25 11:55,-114.8611,35.9475,671.00,77.00,62.60,61.13,0.00,0.00,0.00,29.93,M,10.00,M,CLR,M,M,M,M,M,M,M,M,M,M,M,M,M,M,77.00,KBVU 251155Z AUTO 00000KT 10SM CLR 25/17 A2993 RMK AO2,M
CXP,2023-08-25 11:55,-119.7326,39.1923,1431.00,59.00,51.80,76.98,0.00,0.00,0.00,30.11,M,10.00,M,BKN,M,M,M,9000.00,M,M,M,M,M,M,M,M,M,M,59.00,KCXP 251155Z AUTO 00000KT 10SM BKN090 15/11 A3011 RMK AO2,M
INS,2023-08-25 11:55,-115.6733,36.5872,955.00,72.30,58.50,61.85,0.00,0.00,0.00,30.00,1011.10,10.00,M,CLR,M,M,M,M,M,M,M,M,M,M,M,M,M,M,72.30,KINS 251155Z AUTO 00000KT 10SM CLR 22/15 A3000 RMK AO2 SLP111 T02240147 10262 20217 55000 $,M
RNO,2023-08-25 11:55,-119.7711,39.4839,1341.00,65.00,49.00,56.13,250.00,6.00,0.00,30.09,1013.10,10.00,M,FEW,M,M,M,11000.00,M,M,M,M,M,M,M,M,M,M,65.00,KRNO 251155Z 25006KT 10SM FEW110 18/09 A3009 RMK AO2 SLP131 T01830094 10244 20183 53002,M
LSV,2023-08-25 11:55,-115.0343,36.2362,570.00,78.80,60.60,53.67,60.00,6.00,0.00,29.89,1009.50,10.00,M,CLR,M,M,M,M,M,M,M,M,M,M,M,M,M,M,78.80,KLSV 251155Z AUTO 06006KT 10SM CLR 26/16 A2989 RMK AO2 SLP095 T02600159 10303 20260 53003 $,M
RTS,2023-08-25 11:55,-119.8764,39.6682,1539.00,57.20,46.40,67.12,360.00,7.00,0.00,30.13,M,10.00,M,FEW,M,M,M,9500.00,M,M,M,M,M,M,M,M,M,M,57.20,KRTS 251155Z AUTO 36007KT 10SM FEW095 14/08 A3013 RMK AO2,M
MEV,2023-08-25 11:55,-119.7500,38.9963,1441.42,53.60,48.20,81.87,0.00,0.00,0.00,30.10,M,10.00,M,FEW,SCT,BKN,M,3300.00,4100.00,4700.00,M,M,M,M,M,M,M,M,53.60,KMEV 251155Z AUTO 00000KT 10SM FEW033 SCT041 BKN047 12/09 A3010 RMK AO2,M
HTH,2023-08-25 11:55,-118.6315,38.5448,1282.89,64.40,51.80,63.60,M,4.00,0.00,30.08,M,10.00,M,BKN,M,M,M,11000.00,M,M,M,M,M,M,M,M,M,M,64.40,KHTH 251155Z AUTO VRB04KT 10SM BKN110 18/11 A3008 RMK A01,M
BAM,2023-08-25 11:55,-116.8743,40.5990,1382.36,62.60,41.00,45.04,220.00,3.00,0.00,30.10,M,10.00,M,CLR,M,M,M,M,M,M,M,M,M,M,M,M,M,M,62.60,KBAM 251155Z AUTO 22003KT 10SM CLR 17/05 A3010 RMK AO1,M
TMT,2023-08-25 11:55,-117.1971,39.4643,1749.34,49.50,47.30,92.09,0.00,0.00,0.00,30.18,M,M,M,BKN,BKN,M,M,9000.00,11000.00,M,M,M,M,M,M,M,M,M,49.50,KTMT 251155Z AUTO 00000KT BKN090 BKN110 10/09 A3018 RMK AO2 T00970085 10146 20080 PWINO,M
10U,2023-08-25 11:55,-116.1876,41.9532,1637.00,68.00,44.60,42.85,160.00,9.00,0.00,30.13,M,10.00,14.00,FEW,FEW,BKN,M,4100.00,6500.00,9500.00,M,M,M,M,M,M,M,M,68.00,K10U 251155Z AUTO 16009G14KT 10SM FEW041 FEW065 BKN095 20/07 A3013 RMK AO2,M
EKO,2023-08-25 11:56,-115.7860,40.8242,1367.00,60.00,50.00,69.49,90.00,6.00,0.00,30.14,1014.80,10.00,M,CLR,M,M,M,M,M,M,M,M,M,M,M,M,M,M,60.00,KEKO 251156Z AUTO 09006KT 10SM CLR 16/10 A3014 RMK AO2 SLP148 T01560100 10217 20156 51005,M
WMC,2023-08-25 11:56,-117.8072,40.9019,1315.00,68.00,47.00,46.93,330.00,6.00,T,30.08,1013.10,10.00,M,FEW,BKN,M,M,4400.00,10000.00,M,M,-RA,M,M,M,M,M,M,68.00,KWMC 251156Z AUTO 33006KT 10SM -RA FEW044 BKN100 20/08 A3008 RMK AO2 RAB43 SLP131 P0000 60000 T02000083 10222 20172 53014,M
NFL,2023-08-25 11:56,-118.7010,39.4166,1199.00,68.00,54.00,60.86,230.00,3.00,0.00,30.03,1014.00,10.00,M,BKN,M,M,M,10000.00,M,M,M,M,M,M,M,M,M,M,68.00,KNFL 251156Z AUTO 23003KT 10SM BKN100 20/12 A3003 RMK AO2 SLP140 60000 T02000122 10244 20189 51001,M
HND,2023-08-25 11:56,-115.1344,35.9729,742.79,77.00,62.00,59.85,200.00,5.00,0.00,29.98,1013.90,10.00,M,CLR,M,M,M,M,M,M,M,M,M,M,M,M,M,M,77.00,KHND 251156Z AUTO 20005KT 10SM CLR 25/17 A2998 RMK AO2 SLP139 T02500167 10283 20250 53001,M
LAS,2023-08-25 11:56,-115.1634,36.0719,663.00,80.00,63.00,56.16,0.00,0.00,0.00,29.94,1011.30,10.00,M,CLR,M,M,M,M,M,M,M,M,M,M,M,M,M,M,81.41,KLAS 251156Z 00000KT 10SM CLR 27/17 A2994 RMK AO2 SLP113 70002 T02670172 10294 20267 53001,M
BVU,2023-08-25 12:15,-114.8611,35.9475,671.00,77.00,62.60,61.13,0.00,0.00,0.00,29.93,M,10.00,M,CLR,M,M,M,M,M,M,M,M,M,M,M,M,M,M,77.00,KBVU 251215Z AUTO 00000KT 10SM CLR 25/17 A2993 RMK AO2,M
CXP,2023-08-25 12:15,-119.7326,39.1923,1431.00,57.20,51.80,82.12,0.00,0.00,0.00,30.12,M,10.00,M,SCT,M,M,M,10000.00,M,M,M,M,M,M,M,M,M,M,57.20,KCXP 251215Z AUTO 00000KT 10SM SCT100 14/11 A3012 RMK AO2,M
RTS,2023-08-25 12:15,-119.8764,39.6682,1539.00,57.20,46.40,67.12,360.00,5.00,0.00,30.13,M,10.00,M,SCT,M,M,M,9000.00,M,M,M,M,M,M,M,M,M,M,57.20,KRTS 251215Z AUTO 36005KT 10SM SCT090 14/08 A3013 RMK AO2,M
05U,2023-08-25 12:15,-116.0051,39.6042,1811.23,57.20,50.00,76.82,M,M,0.00,30.23,M,10.00,M,M,M,M,M,M,M,M,M,M,M,M,M,M,M,M,57.20,K05U 251215Z AUTO 10SM 14/10 A3023 RMK A01,M
MEV,2023-08-25 12:15,-119.7500,38.9963,1441.42,51.80,48.20,87.47,0.00,0.00,0.00,30.10,M,10.00,M,SCT,BKN,BKN,M,3300.00,4100.00,4800.00,M,M,M,M,M,M,M,M,51.80,KMEV 251215Z AUTO 00000KT 10SM SCT033 BKN041 BKN048 11/09 A3010 RMK AO2,M
HTH,2023-08-25 12:15,-118.6315,38.5448,1282.89,66.20,51.80,59.74,150.00,4.00,0.00,30.08,M,10.00,M,BKN,M,M,M,11000.00,M,M,M,M,M,M,M,M,M,M,66.20,KHTH 251215Z AUTO 15004KT 10SM BKN110 19/11 A3008 RMK A01,M
10U,2023-08-25 12:15,-116.1876,41.9532,1637.00,68.00,44.60,42.85,130.00,15.00,0.00,30.13,M,10.00,M,SCT,M,M,M,9500.00,M,M,M,M,M,M,M,M,M,M,68.00,K10U 251215Z AUTO 13015KT 10SM SCT095 20/07 A3013 RMK AO2,M
BAM,2023-08-25 12:15,-116.8743,40.5990,1382.36,64.40,41.00,42.28,190.00,6.00,0.00,30.11,M,10.00,M,CLR,M,M,M,M,M,M,M,M,M,M,M,M,M,M,64.40,KBAM 251215Z AUTO 19006KT 10SM CLR 18/05 A3011 RMK AO1,M
TMT,2023-08-25 12:15,-117.1971,39.4643,1749.34,50.00,47.50,91.07,0.00,0.00,0.00,30.18,M,M,M,BKN,OVC,M,M,9000.00,11000.00,M,M,M,M,M,M,M,M,M,50.00,KTMT 251215Z AUTO 00000KT BKN090 OVC110 10/09 A3018 RMK AO2 T01000086 PWINO,M
05U,2023-08-25 12:30,-116.0051,39.6042,1811.23,59.00,50.00,72.01,M,M,0.00,30.23,M,10.00,M,M,M,M,M,M,M,M,M,M,M,M,M,M,M,M,59.00,K05U 251230Z AUTO 10SM 15/10 A3023 RMK A01,M
BVU,2023-08-25 12:35,-114.8611,35.9475,671.00,77.00,62.60,61.13,0.00,0.00,0.00,29.94,M,10.00,M,CLR,M,M,M,M,M,M,M,M,M,M,M,M,M,M,77.00,KBVU 251235Z AUTO 00000KT 10SM CLR 25/17 A2994 RMK AO2,M
CXP,2023-08-25 12:35,-119.7326,39.1923,1431.00,57.20,51.80,82.12,0.00,0.00,0.00,30.12,M,10.00,M,FEW,M,M,M,10000.00,M,M,M,M,M,M,M,M,M,M,57.20,KCXP 251235Z AUTO 00000KT 10SM FEW100 14/11 A3012 RMK AO2,M
RTS,2023-08-25 12:35,-119.8764,39.6682,1539.00,53.60,46.40,76.50,340.00,6.00,0.00,30.14,M,10.00,M,SCT,M,M,M,9500.00,M,M,M,M,M,M,M,M,M,M,53.60,KRTS 251235Z AUTO 34006KT 10SM SCT095 12/08 A3014 RMK AO2,M
MEV,2023-08-25 12:35,-119.7500,38.9963,1441.42,51.80,48.20,87.47,0.00,0.00,0.00,30.11,M,10.00,M,FEW,SCT,BKN,M,3200.00,3800.00,9000.00,M,M,M,M,M,M,M,M,51.80,KMEV 251235Z AUTO 00000KT 10SM FEW032 SCT038 BKN090 11/09 A3011 RMK AO2,M
HTH,2023-08-25 12:35,-118.6315,38.5448,1282.89,66.20,51.80,59.74,170.00,6.00,0.00,30.08,M,10.00,M,BKN,M,M,M,12000.00,M,M,M,M,M,M,M,M,M,M,66.20,KHTH 251235Z AUTO 17006KT 10SM BKN120 19/11 A3008 RMK A01,M
10U,2023-08-25 12:35,-116.1876,41.9532,1637.00,68.00,44.60,42.85,140.00,12.00,0.00,30.14,M,10.00,18.00,CLR,M,M,M,M,M,M,M,M,M,M,M,M,M,M,68.00,K10U 251235Z AUTO 14012G18KT 10SM CLR 20/07 A3014 RMK AO2,M
BAM,2023-08-25 12:35,-116.8743,40.5990,1382.36,59.00,41.00,51.18,120.00,6.00,0.00,30.11,M,10.00,M,CLR,M,M,M,M,M,M,M,M,M,M,M,M,M,M,59.00,KBAM 251235Z AUTO 12006KT 10SM CLR 15/05 A3011 RMK AO1,M
TMT,2023-08-25 12:35,-117.1971,39.4643,1749.34,51.00,48.40,90.77,180.00,6.00,0.00,30.21,M,M,M,OVC,M,M,M,8000.00,M,M,M,M,M,M,M,M,M,M,51.00,KTMT 251235Z AUTO 18006KT OVC080 11/09 A3021 RMK AO2 T01050091 PWINO,M
P68,2023-08-25 12:53,-116.0056,39.6014,1993.00,54.00,48.00,80.07,290.00,4.00,0.00,30.21,1015.30,M,M,M,M,M,M,M,M,M,M,M,M,M,M,M,M,M,54.00,KP68 251253Z AUTO 29004KT 12/09 A3021 RMK AO1 SLP153 T01220089,M
DRA,2023-08-25 12:53,-116.0278,36.6206,1009.00,73.00,60.00,63.73,0.00,0.00,0.00,30.02,1011.40,10.00,M,FEW,M,M,M,12000.00,M,M,M,M,M,M,M,M,M,M,73.00,KDRA 251253Z AUTO 00000KT 10SM FEW120 23/16 A3002 RMK AO2 SLP114 T02280156,M
ELY,2023-08-25 12:53,-114.8453,39.2950,1909.00,53.00,49.00,86.23,140.00,4.00,0.00,30.26,1015.70,10.00,M,CLR,M,M,M,M,M,M,M,M,M,M,M,M,M,M,53.00,KELY 251253Z AUTO 14004KT 10SM CLR 12/09 A3026 RMK AO2 SLP157 T01170094,M
VGT,2023-08-25 12:53,-115.1933,36.2111,667.00,83.00,61.00,47.47,300.00,3.00,0.00,29.94,1012.70,10.00,M,CLR,M,M,M,M,M,M,M,M,M,M,M,M,M,M,83.46,KVGT 251253Z AUTO 30003KT 10SM CLR 28/16 A2994 RMK AO2 SLP127 T02830161,M
LOL,2023-08-25 12:53,-118.5701,40.0684,1192.43,64.00,52.00,64.97,290.00,6.00,0.00,30.06,1013.70,10.00,M,CLR,M,M,M,M,M,M,M,M,M,M,M,M,M,M,64.00,KLOL 251253Z AUTO 29006KT 10SM CLR 18/11 A3006 RMK AO2 SLP137 T01780111,M
BVU,2023-08-25 12:55,-114.8611,35.9475,671.00,77.00,62.60,61.13,0.00,0.00,0.00,29.94,M,10.00,M,CLR,M,M,M,M,M,M,M,M,M,M,M,M,M,M,77.00,KBVU 251255Z AUTO 00000KT 10SM CLR 25/17 A2994 RMK AO2,M
CXP,2023-08-25 12:55,-119.7326,39.1923,1431.00,57.20,51.80,82.12,0.00,0.00,0.00,30.13,M,10.00,M,SCT,M,M,M,10000.00,M,M,M,M,M,M,M,M,M,M,57.20,KCXP 251255Z AUTO 00000KT 10SM SCT100 14/11 A3013 RMK AO2,M
INS,2023-08-25 12:55,-115.6733,36.5872,955.00,72.00,60.00,65.92,190.00,3.00,0.00,30.01,1011.40,10.00,M,CLR,M,M,M,M,M,M,M,M,M,M,M,M,M,M,72.00,KINS 251255Z AUTO 19003KT 10SM CLR 22/16 A3001 RMK AO2 SLP114 T02230156 $,M
RNO,2023-08-25 12:55,-119.7711,39.4839,1341.00,63.00,49.00,60.20,210.00,3.00,0.00,30.10,1014.00,10.00,M,SCT,M,M,M,11000.00,M,M,M,M,M,M,M,M,M,M,63.00,KRNO 251255Z 21003KT 10SM SCT110 17/09 A3010 RMK AO2 SLP140 T01720094,M
LSV,2023-08-25 12:55,-115.0343,36.2362,570.00,80.00,60.00,50.51,50.00,8.00,0.00,29.90,1009.90,10.00,M,CLR,M,M,M,M,M,M,M,M,M,M,M,M,M,M,80.85,KLSV 251255Z AUTO 05008KT 10SM CLR 27/16 A2990 RMK AO2 SLP099 T02660156 $,M
RTS,2023-08-25 12:55,-119.8764,39.6682,1539.00,53.60,44.60,71.45,320.00,6.00,0.00,30.14,M,10.00,M,FEW,M,M,M,10000.00,M,M,M,M,M,M,M,M,M,M,53.60,KRTS 251255Z AUTO 32006KT 10SM FEW100 12/07 A3014 RMK AO2,M
05U,2023-08-25 12:55,-116.0051,39.6042,1811.23,55.40,48.20,76.66,M,M,0.00,30.24,M,10.00,M,M,M,M,M,M,M,M,M,M,M,M,M,M,M,M,55.40,K05U 251255Z AUTO 10SM 13/09 A3024 RMK A01,M
MEV,2023-08-25 12:55,-119.7500,38.9963,1441.42,53.60,48.20,81.87,0.00,0.00,0.00,30.11,M,10.00,M,FEW,FEW,SCT,M,3800.00,4600.00,9000.00,M,M,M,M,M,M,M,M,53.60,KMEV 251255Z AUTO 00000KT 10SM FEW038 FEW046 SCT090 12/09 A3011 RMK AO2,M
HTH,2023-08-25 12:55,-118.6315,38.5448,1282.89,64.40,53.60,67.95,180.00,3.00,0.00,30.09,M,10.00,M,BKN,M,M,M,12000.00,M,M,M,M,M,M,M,M,M,M,64.40,KHTH 251255Z AUTO 18003KT 10SM BKN120 18/12 A3009 RMK A01,M
BAM,2023-08-25 12:55,-116.8743,40.5990,1382.36,55.40,39.20,54.34,140.00,4.00,0.00,30.12,M,10.00,M,CLR,M,M,M,M,M,M,M,M,M,M,M,M,M,M,55.40,KBAM 251255Z AUTO 14004KT 10SM CLR 13/04 A3012 RMK AO1,M
TMT,2023-08-25 12:55,-117.1971,39.4643,1749.34,53.20,49.30,86.56,170.00,4.00,0.00,30.22,M,M,M,BKN,OVC,M,M,7500.00,8000.00,M,M,M,M,M,M,M,M,M,53.20,KTMT 251255Z AUTO 17004KT BKN075 OVC080 12/10 A3022 RMK AO2 T01180096 PWINO,M
10U,2023-08-25 12:55,-116.1876,41.9532,1637.00,68.00,46.40,45.88,150.00,11.00,0.00,30.15,M,10.00,M,CLR,M,M,M,M,M,M,M,M,M,M,M,M,M,M,68.00,K10U 251255Z AUTO 15011KT 10SM CLR 20/08 A3015 RMK AO2,M
EKO,2023-08-25 12:56,-115.7860,40.8242,1367.00,59.00,48.00,66.83,70.00,7.00,0.00,30.15,1015.40,10.00,M,CLR,M,M,M,M,M,M,M,M,M,M,M,M,M,M,59.00,KEKO 251256Z AUTO 07007KT 10SM CLR 15/09 A3015 RMK AO2 SLP154 T01500089,M
WMC,2023-08-25 12:56,-117.8072,40.9019,1315.00,67.00,46.00,46.78,300.00,4.00,T,30.10,1013.80,10.00,M,CLR,M,M,M,M,M,M,M,M,M,M,M,M,M,M,67.00,KWMC 251256Z AUTO 30004KT 10SM CLR 19/08 A3010 RMK AO2 RAE01 SLP138 P0000 T01940078,M
NFL,2023-08-25 12:56,-118.7010,39.4166,1199.00,65.00,55.00,70.03,0.00,0.00,0.00,30.05,1014.50,10.00,M,FEW,M,M,M,11000.00,M,M,M,M,M,M,M,M,M,M,65.00,KNFL 251256Z AUTO 00000KT 10SM FEW110 18/13 A3005 RMK AO2 SLP145 T01830128,M
HND,2023-08-25 12:56,-115.1344,35.9729,742.79,76.00,62.00,61.87,180.00,5.00,0.00,29.99,1014.30,10.00,M,CLR,M,M,M,M,M,M,M,M,M,M,M,M,M,M,76.00,KHND 251256Z AUTO 18005KT 10SM CLR 24/17 A2999 RMK AO2 SLP143 T02440167,M
LAS,2023-08-25 12:56,-115.1634,36.0719,663.00,80.00,63.00,56.16,0.00,0.00,0.00,29.95,1011.50,10.00,M,SCT,M,M,M,12000.00,M,M,M,M,M,M,M,M,M,M,81.41,KLAS 251256Z 00000KT 10SM SCT120 27/17 A2995 RMK AO2 SLP115 ACC OHD-S T02670172,M
05U,2023-08-25 13:10,-116.0051,39.6042,1811.23,55.40,48.20,76.66,M,M,0.00,30.24,M,10.00,M,M,M,M,M,M,M,M,M,M,M,M,M,M,M,M,55.40,K05U 251310Z AUTO 10SM 13/09 A3024 RMK A01,M
HTH,2023-08-25 13:10,-118.6315,38.5448,1282.89,66.20,50.00,55.88,180.00,4.00,0.00,30.09,M,10.00,M,FEW,M,M,M,11000.00,M,M,M,M,M,M,M,M,M,M,66.20,KHTH 251310Z AUTO 18004KT 10SM FEW110 19/10 A3009 RMK A01,M
BVU,2023-08-25 13:15,-114.8611,35.9475,671.00,77.00,62.60,61.13,0.00,0.00,0.00,29.95,M,10.00,M,CLR,M,M,M,M,M,M,M,M,M,M,M,M,M,M,77.00,KBVU 251315Z AUTO 00000KT 10SM CLR 25/17 A2995 RMK AO2,M
CXP,2023-08-25 13:15,-119.7326,39.1923,1431.00,57.20,51.80,82.12,0.00,0.00,0.00,30.13,M,10.00,M,FEW,M,M,M,9500.00,M,M,M,M,M,M,M,M,M,M,57.20,KCXP 251315Z AUTO 00000KT 10SM FEW095 14/11 A3013 RMK AO2,M
RTS,2023-08-25 13:15,-119.8764,39.6682,1539.00,55.40,46.40,71.64,330.00,4.00,0.00,30.15,M,10.00,M,FEW,M,M,M,9500.00,M,M,M,M,M,M,M,M,M,M,55.40,KRTS 251315Z AUTO 33004KT 10SM FEW095 13/08 A3015 RMK AO2,M
MEV,2023-08-25 13:15,-119.7500,38.9963,1441.42,53.60,48.20,81.87,0.00,0.00,0.00,30.12,M,10.00,M,CLR,M,M,M,M,M,M,M,M,M,M,M,M,M,M,53.60,KMEV 251315Z AUTO 00000KT 10SM CLR 12/09 A3012 RMK AO2,M
10U,2023-08-25 13:15,-116.1876,41.9532,1637.00,66.20,46.40,48.83,130.00,7.00,0.00,30.15,M,10.00,13.00,CLR,M,M,M,M,M,M,M,M,M,M,M,M,M,M,66.20,K10U 251315Z AUTO 13007G13KT 10SM CLR 19/08 A3015 RMK AO2,M
BAM,2023-08-25 13:15,-116.8743,40.5990,1382.36,57.20,41.00,54.60,0.00,0.00,0.00,30.13,M,10.00,M,CLR,M,M,M,M,M,M,M,M,M,M,M,M,M,M,57.20,KBAM 251315Z AUTO 00000KT 10SM CLR 14/05 A3013 RMK AO1,M
TMT,2023-08-25 13:15,-117.1971,39.4643,1749.34,53.60,51.60,92.91,320.00,4.00,0.00,30.22,M,M,M,M,M,M,M,M,M,M,M,M,M,M,M,M,M,M,53.60,KTMT 251315Z AUTO 32004KT 12/11 A3022 RMK AO2 LTG DSNT N T01200109 PWINO,M
BVU,2023-08-25 13:35,-114.8611,35.9475,671.00,77.00,62.60,61.13,0.00,0.00,0.00,29.96,M,10.00,M,CLR,M,M,M,M,M,M,M,M,M,M,M,M,M,M,77.00,KBVU 251335Z AUTO 00000KT 10SM CLR 25/17 A2996 RMK AO2,M
CXP,2023-08-25 13:35,-119.7326,39.1923,1431.00,57.20,51.80,82.12,0.00,0.00,0.00,30.13,M,10.00,M,CLR,M,M,M,M,M,M,M,M,M,M,M,M,M,M,57.20,KCXP 251335Z AUTO 00000KT 10SM CLR 14/11 A3013 RMK AO2,M
RTS,2023-08-25 13:35,-119.8764,39.6682,1539.00,53.60,46.40,76.50,0.00,0.00,0.00,30.16,M,10.00,M,BKN,M,M,M,9500.00,M,M,M,M,M,M,M,M,M,M,53.60,KRTS 251335Z AUTO 00000KT 10SM BKN095 12/08 A3016 RMK AO2,M
05U,2023-08-25 13:35,-116.0051,39.6042,1811.23,57.20,50.00,76.82,M,M,0.00,30.24,M,10.00,M,M,M,M,M,M,M,M,M,M,M,M,M,M,M,M,57.20,K05U 251335Z AUTO 10SM 14/10 A3024 RMK A01,M
MEV,2023-08-25 13:35,-119.7500,38.9963,1441.42,50.00,46.40,87.37,0.00,0.00,0.00,30.12,M,10.00,M,CLR,M,M,M,M,M,M,M,M,M,M,M,M,M,M,50.00,KMEV 251335Z AUTO 00000KT 10SM CLR 10/08 A3012 RMK AO2,M
HTH,2023-08-25 13:35,-118.6315,38.5448,1282.89,64.40,50.00,59.50,160.00,4.00,0.00,30.10,M,10.00,M,CLR,M,M,M,M,M,M,M,M,M,M,M,M,M,M,64.40,KHTH 251335Z AUTO 16004KT 10SM CLR 18/10 A3010 RMK A01,M
10U,2023-08-25 13:35,-116.1876,41.9532,1637.00,66.20,46.40,48.83,140.00,6.00,0.00,30.15,M,10.00,M,CLR,M,M,M,M,M,M,M,M,M,M,M,M,M,M,66.20,K10U 251335Z AUTO 14006KT 10SM CLR 19/08 A3015 RMK AO2,M
BAM,2023-08-25 13:35,-116.8743,40.5990,1382.36,57.20,41.00,54.60,30.00,4.00,0.00,30.13,M,10.00,M,CLR,M,M,M,M,M,M,M,M,M,M,M,M,M,M,57.20,KBAM 251335Z AUTO 03004KT 10SM CLR 14/05 A3013 RMK AO1,M
TMT,2023-08-25 13:35,-117.1971,39.4643,1749.34,53.80,51.40,91.55,360.00,5.00,0.00,30.24,M,M,M,M,M,M,M,M,M,M,M,M,M,M,M,M,M,M,53.80,KTMT 251335Z AUTO 36005KT 12/11 A3024 RMK AO2 T01210108 PWINO,M
NFL,2023-08-25 13:46,-118.7010,39.4166,1199.00,61.00,57.00,86.67,0.00,0.00,0.00,30.07,M,10.00,M,SCT,SCT,M,M,6000.00,8000.00,M,M,M,M,M,M,M,M,M,61.00,KNFL 251346Z 00000KT 10SM SCT060 SCT080 16/14 A3007 RMK AO2 T01610139,M
05U,2023-08-25 13:50,-116.0051,39.6042,1811.23,59.00,50.00,72.01,M,M,0.00,30.25,M,10.00,M,M,M,M,M,M,M,M,M,M,M,M,M,M,M,M,59.00,K05U 251350Z AUTO 10SM 15/10 A3025 RMK A01,M
P68,2023-08-25 13:53,-116.0056,39.6014,1993.00,58.00,51.00,77.47,250.00,3.00,0.00,30.23,1015.60,M,M,M,M,M,M,M,M,M,M,M,M,M,M,M,M,M,58.00,KP68 251353Z AUTO 25003KT 14/11 A3023 RMK AO1 SLP156 T01440106,M
DRA,2023-08-25 13:53,-116.0278,36.6206,1009.00,73.00,60.00,63.73,0.00,0.00,0.00,30.04,1012.20,10.00,M,FEW,M,M,M,12000.00,M,M,M,M,M,M,M,M,M,M,73.00,KDRA 251353Z AUTO 00000KT 10SM FEW120 23/16 A3004 RMK AO2 SLP122 T02280156,M
ELY,2023-08-25 13:53,-114.8453,39.2950,1909.00,54.00,50.00,86.29,160.00,8.00,0.00,30.28,1016.80,10.00,M,CLR,M,M,M,M,M,M,M,M,M,M,M,M,M,M,54.00,KELY 251353Z AUTO 16008KT 10SM CLR 12/10 A3028 RMK AO2 SLP168 T01220100,M
VGT,2023-08-25 13:53,-115.1933,36.2111,667.00,83.00,61.00,47.47,260.00,3.00,0.00,29.97,1013.50,10.00,M,CLR,M,M,M,M,M,M,M,M,M,M,M,M,M,M,83.46,KVGT 251353Z 26003KT 10SM CLR 28/16 A2997 RMK AO2 SLP135 T02830161,M
LOL,2023-08-25 13:53,-118.5701,40.0684,1192.43,61.00,54.00,77.72,230.00,4.00,0.00,30.07,1014.50,10.00,M,FEW,M,M,M,11000.00,M,M,M,M,M,M,M,M,M,M,61.00,KLOL 251353Z AUTO 23004KT 10SM FEW110 16/12 A3007 RMK AO2 SLP145 T01610122,M
BVU,2023-08-25 13:55,-114.8611,35.9475,671.00,78.80,62.60,57.60,0.00,0.00,0.00,29.96,M,10.00,M,CLR,M,M,M,M,M,M,M,M,M,M,M,M,M,M,78.80,KBVU 251355Z AUTO 00000KT 10SM CLR 26/17 A2996 RMK AO2,M
CXP,2023-08-25 13:55,-119.7326,39.1923,1431.00,57.20,51.80,82.12,0.00,0.00,0.00,30.14,M,10.00,M,CLR,M,M,M,M,M,M,M,M,M,M,M,M,M,M,57.20,KCXP 251355Z AUTO 00000KT 10SM CLR 14/11 A3014 RMK AO2,M
INS,2023-08-25 13:55,-115.6733,36.5872,955.00,71.80,59.70,65.66,0.00,0.00,0.00,30.03,1012.30,10.00,M,CLR,M,M,M,M,M,M,M,M,M,M,M,M,M,M,71.80,KINS 251355Z AUTO 00000KT 10SM CLR 22/15 A3003 RMK AO2 SLP123 T02210154 $,M
RNO,2023-08-25 13:55,-119.7711,39.4839,1341.00,63.00,49.00,60.20,0.00,0.00,0.00,30.12,1014.40,10.00,M,SCT,M,M,M,11000.00,M,M,M,M,M,M,M,M,M,M,63.00,KRNO 251355Z 00000KT 10SM SCT110 17/09 A3012 RMK AO2 SLP144 T01720094,M
LSV,2023-08-25 13:55,-115.0343,36.2362,570.00,82.40,60.00,46.71,50.00,9.00,0.00,29.92,1010.60,10.00,M,CLR,M,M,M,M,M,M,M,M,M,M,M,M,M,M,82.70,KLSV 251355Z AUTO 05009KT 10SM CLR 28/16 A2992 RMK AO2 SLP106 T02800156 $,M
RTS,2023-08-25 13:55,-119.8764,39.6682,1539.00,55.40,46.40,71.64,340.00,5.00,0.00,30.15,M,10.00,M,FEW,M,M,M,9500.00,M,M,M,M,M,M,M,M,M,M,55.40,KRTS 251355Z AUTO 34005KT 10SM FEW095 13/08 A3015 RMK AO2,M
MEV,2023-08-25 13:55,-119.7500,38.9963,1441.42,51.80,48.20,87.47,110.00,3.00,0.00,30.13,M,10.00,M,CLR,M,M,M,M,M,M,M,M,M,M,M,M,M,M,51.80,KMEV 251355Z AUTO 11003KT 10SM CLR 11/09 A3013 RMK AO2,M
HTH,2023-08-25 13:55,-118.6315,38.5448,1282.89,64.40,51.80,63.60,0.00,0.00,0.00,30.10,M,10.00,M,SCT,SCT,M,M,8500.00,11000.00,M,M,M,M,M,M,M,M,M,64.40,KHTH 251355Z AUTO 00000KT 10SM SCT085 SCT110 18/11 A3010 RMK A01,M
BAM,2023-08-25 13:55,-116.8743,40.5990,1382.36,60.80,42.80,51.45,0.00,0.00,0.00,30.13,M,10.00,M,CLR,M,M,M,M,M,M,M,M,M,M,M,M,M,M,60.80,KBAM 251355Z AUTO 00000KT 10SM CLR 16/06 A3013 RMK AO1,M
TMT,2023-08-25 13:55,-117.1971,39.4643,1749.34,54.30,52.50,93.62,340.00,5.00,0.02,30.24,M,M,M,M,M,M,M,M,M,M,M,M,M,M,M,M,M,M,54.30,KTMT 251355Z AUTO 34005KT 12/11 A3024 RMK AO2 P0002 T01240114 PWINO,M
10U,2023-08-25 13:55,-116.1876,41.9532,1637.00,66.20,46.40,48.83,110.00,8.00,0.00,30.15,M,10.00,M,CLR,M,M,M,M,M,M,M,M,M,M,M,M,M,M,66.20,K10U 251355Z AUTO 11008KT 10SM CLR 19/08 A3015 RMK AO2,M
EKO,2023-08-25 13:56,-115.7860,40.8242,1367.00,60.00,48.00,64.49,70.00,6.00,0.00,30.17,1016.20,10.00,M,CLR,M,M,M,M,M,M,M,M,M,M,M,M,M,M,60.00,KEKO 251356Z AUTO 07006KT 10SM CLR 16/09 A3017 RMK AO2 SLP162 T01560089,M
WMC,2023-08-25 13:56,-117.8072,40.9019,1315.00,65.00,48.00,54.07,100.00,4.00,0.00,30.11,1014.60,10.00,M,CLR,M,M,M,M,M,M,M,M,M,M,M,M,M,M,65.00,KWMC 251356Z AUTO 10004KT 10SM CLR 18/09 A3011 RMK AO2 SLP146 T01830089,M
NFL,2023-08-25 13:56,-118.7010,39.4166,1199.00,63.00,57.00,80.76,200.00,3.00,0.00,30.07,1015.00,10.00,M,SCT,SCT,M,M,6000.00,8000.00,M,M,M,M,M,M,M,M,M,63.00,KNFL 251356Z 20003KT 10SM SCT060 SCT080 17/14 A3007 RMK AO2 SLP150 T01720139,M
HND,2023-08-25 13:56,-115.1344,35.9729,742.79,77.00,63.00,62.00,210.00,4.00,0.00,30.01,1015.00,10.00,M,CLR,M,M,M,M,M,M,M,M,M,M,M,M,M,M,77.00,KHND 251356Z 21004KT 10SM CLR 25/17 A3001 RMK AO2 SLP150 T02500172,M
LAS,2023-08-25 13:56,-115.1634,36.0719,663.00,81.00,63.00,54.36,270.00,3.00,0.00,29.97,1012.30,10.00,M,FEW,M,M,M,12000.00,M,M,M,M,M,M,M,M,M,M,82.28,KLAS 251356Z 27003KT 10SM FEW120 27/17 A2997 RMK AO2 SLP123 T02720172,M
BVU,2023-08-25 14:15,-114.8611,35.9475,671.00,80.60,62.60,54.30,0.00,0.00,0.00,29.97,M,10.00,M,CLR,M,M,M,M,M,M,M,M,M,M,M,M,M,M,81.84,KBVU 251415Z AUTO 00000KT 10SM CLR 27/17 A2997 RMK AO2,M
CXP,2023-08-25 14:15,-119.7326,39.1923,1431.00,59.00,51.80,76.98,0.00,0.00,0.00,30.15,M,10.00,M,CLR,M,M,M,M,M,M,M,M,M,M,M,M,M,M,59.00,KCXP 251415Z AUTO 00000KT 10SM CLR 15/11 A3015 RMK AO2,M
RTS,2023-08-25 14:15,-119.8764,39.6682,1539.00,57.20,46.40,67.12,10.00,6.00,0.00,30.16,M,10.00,M,FEW,M,M,M,9500.00,M,M,M,M,M,M,M,M,M,M,57.20,KRTS 251415Z AUTO 01006KT 10SM FEW095 14/08 A3016 RMK AO2,M
05U,2023-08-25 14:15,-116.0051,39.6042,1811.23,60.80,50.00,67.54,M,M,0.00,30.26,M,10.00,M,M,M,M,M,M,M,M,M,M,M,M,M,M,M,M,60.80,K05U 251415Z AUTO 10SM 16/10 A3026 RMK A01,M
MEV,2023-08-25 14:15,-119.7500,38.9963,1441.42,55.40,50.00,81.99,0.00,0.00,0.00,30.13,M,10.00,M,CLR,M,M,M,M,M,M,M,M,M,M,M,M,M,M,55.40,KMEV 251415Z AUTO 00000KT 10SM CLR 13/10 A3013 RMK AO2,M
HTH,2023-08-25 14:15,-118.6315,38.5448,1282.89,68.00,51.80,56.13,0.00,0.00,0.00,30.10,M,10.00,M,FEW,SCT,M,M,8500.00,11000.00,M,M,M,M,M,M,M,M,M,68.00,KHTH 251415Z AUTO 00000KT 10SM FEW085 SCT110 20/11 A3010 RMK A01,M
10U,2023-08-25 14:15,-116.1876,41.9532,1637.00,68.00,44.60,42.85,M,5.00,0.00,30.17,M,10.00,M,CLR,M,M,M,M,M,M,M,M,M,M,M,M,M,M,68.00,K10U 251415Z AUTO VRB05KT 10SM CLR 20/07 A3017 RMK AO2,M
BAM,2023-08-25 14:15,-116.8743,40.5990,1382.36,64.40,42.80,45.32,0.00,0.00,0.00,30.14,M,10.00,M,CLR,M,M,M,M,M,M,M,M,M,M,M,M,M,M,64.40,KBAM 251415Z AUTO 00000KT 10SM CLR 18/06 A3014 RMK AO1,M
TMT,2023-08-25 14:15,-117.1971,39.4643,1749.34,55.00,53.00,92.95,30.00,6.00,0.00,30.24,M,M,M,M,M,M,M,M,M,M,M,M,M,M,M,M,M,M,55.00,KTMT 251415Z AUTO 03006KT 13/12 A3024 RMK AO2 T01270117 PWINO,M
05U,2023-08-25 14:30,-116.0051,39.6042,1811.23,64.40,48.20,55.63,M,M,0.00,30.27,M,10.00,M,M,M,M,M,M,M,M,M,M,M,M,M,M,M,M,64.40,K05U 251430Z AUTO 10SM 18/09 A3027 RMK A01,M
BVU,2023-08-25 14:35,-114.8611,35.9475,671.00,82.40,62.60,51.21,0.00,0.00,0.00,29.98,M,10.00,M,CLR,M,M,M,M,M,M,M,M,M,M,M,M,M,M,83.41,KBVU 251435Z AUTO 00000KT 10SM CLR 28/17 A2998 RMK AO2,M
CXP,2023-08-25 14:35,-119.7326,39.1923,1431.00,60.80,51.80,72.20,0.00,0.00,0.00,30.15,M,10.00,M,CLR,M,M,M,M,M,M,M,M,M,M,M,M,M,M,60.80,KCXP 251435Z AUTO 00000KT 10SM CLR 16/11 A3015 RMK AO2,M
RTS,2023-08-25 14:35,-119.8764,39.6682,1539.00,60.80,48.20,63.15,0.00,0.00,0.00,30.16,M,10.00,M,FEW,M,M,M,9500.00,M,M,M,M,M,M,M,M,M,M,60.80,KRTS 251435Z AUTO 00000KT 10SM FEW095 16/09 A3016 RMK AO2,M
MEV,2023-08-25 14:35,-119.7500,38.9963,1441.42,59.00,51.80,76.98,0.00,0.00,0.00,30.13,M,10.00,M,CLR,M,M,M,M,M,M,M,M,M,M,M,M,M,M,59.00,KMEV 251435Z AUTO 00000KT 10SM CLR 15/11 A3013 RMK AO2,M
HTH,2023-08-25 14:35,-118.6315,38.5448,1282.89,69.80,51.80,52.77,0.00,0.00,0.00,30.11,M,10.00,M,CLR,M,M,M,M,M,M,M,M,M,M,M,M,M,M,69.80,KHTH 251435Z AUTO 00000KT 10SM CLR 21/11 A3011 RMK A01,M
10U,2023-08-25 14:35,-116.1876,41.9532,1637.00,71.60,44.60,37.89,220.00,11.00,0.00,30.18,M,10.00,16.00,CLR,M,M,M,M,M,M,M,M,M,M,M,M,M,M,71.60,K10U 251435Z AUTO 22011G16KT 10SM CLR 22/07 A3018 RMK AO2,M
BAM,2023-08-25 14:35,-116.8743,40.5990,1382.36,64.40,44.60,48.55,0.00,0.00,0.00,30.16,M,10.00,M,BKN,M,M,M,11000.00,M,M,M,M,M,M,M,M,M,M,64.40,KBAM 251435Z AUTO 00000KT 10SM BKN110 18/07 A3016 RMK AO1,M
TMT,2023-08-25 14:35,-117.1971,39.4643,1749.34,55.00,53.60,95.02,30.00,6.00,0.00,30.23,M,M,M,M,M,M,M,M,M,M,M,M,M,M,M,M,M,M,55.00,KTMT 251435Z AUTO 03006KT 13/12 A3023 RMK AO2 T01270120 PWINO,M
P68,2023-08-25 14:53,-116.0056,39.6014,1993.00,61.00,52.00,72.22,250.00,9.00,0.00,30.26,1017.50,M,M,M,M,M,M,M,M,M,M,M,M,M,M,M,M,M,61.00,KP68 251453Z AUTO 25009KT 16/11 A3026 RMK AO1 SLP175 T01610111 53018,M
DRA,2023-08-25 14:53,-116.0278,36.6206,1009.00,78.00,59.00,52.05,0.00,0.00,0.00,30.06,1012.70,10.00,M,CLR,M,M,M,M,M,M,M,M,M,M,M,M,M,M,78.00,KDRA 251453Z AUTO 00000KT 10SM CLR 26/15 A3006 RMK AO2 SLP127 T02560150 53017,M
ELY,2023-08-25 14:53,-114.8453,39.2950,1909.00,65.00,53.00,65.09,210.00,9.00,0.00,30.28,1016.40,10.00,M,CLR,M,M,M,M,M,M,M,M,M,M,M,M,M,M,65.00,KELY 251453Z AUTO 21009KT 10SM CLR 18/12 A3028 RMK AO2 SLP164 T01830117 51008,M
VGT,2023-08-25 14:53,-115.1933,36.2111,667.00,85.00,61.00,44.50,140.00,3.00,0.00,29.98,1014.00,10.00,M,CLR,M,M,M,M,M,M,M,M,M,M,M,M,M,M,85.21,KVGT 251453Z 14003KT 10SM CLR 29/16 A2998 RMK AO2 SLP140 T02940161 53018,M
LOL,2023-08-25 14:53,-118.5701,40.0684,1192.43,68.00,52.00,56.55,0.00,0.00,0.00,30.08,1014.60,10.00,M,CLR,M,M,M,M,M,M,M,M,M,M,M,M,M,M,68.00,KLOL 251453Z AUTO 00000KT 10SM CLR 20/11 A3008 RMK AO2 SLP146 T02000111 51013 TSNO,M
BVU,2023-08-25 14:55,-114.8611,35.9475,671.00,82.40,62.60,51.21,0.00,0.00,0.00,29.98,M,10.00,M,CLR,M,M,M,M,M,M,M,M,M,M,M,M,M,M,83.41,KBVU 251455Z AUTO 00000KT 10SM CLR 28/17 A2998 RMK AO2,M
CXP,2023-08-25 14:55,-119.7326,39.1923,1431.00,62.60,51.80,67.75,0.00,0.00,0.00,30.15,M,10.00,M,CLR,M,M,M,M,M,M,M,M,M,M,M,M,M,M,62.60,KCXP 251455Z AUTO 00000KT 10SM CLR 17/11 A3015 RMK AO2,M
INS,2023-08-25 14:55,-115.6733,36.5872,955.00,76.00,59.00,55.62,0.00,0.00,0.00,30.05,1012.80,10.00,M,FEW,M,M,M,12000.00,M,M,M,M,M,M,M,M,M,M,76.00,KINS 251455Z AUTO 00000KT 10SM FEW120 25/15 A3005 RMK AO2 SLP128 T02450151 52015 $,M
RNO,2023-08-25 14:55,-119.7711,39.4839,1341.00,66.00,49.00,54.21,290.00,4.00,0.00,30.13,1014.90,10.00,M,FEW,M,M,M,11000.00,M,M,M,M,M,M,M,M,M,M,66.00,KRNO 251455Z 29004KT 10SM FEW110 19/09 A3013 RMK AO2 SLP149 T01890094 51012,M
LSV,2023-08-25 14:55,-115.0343,36.2362,570.00,88.00,63.50,44.17,0.00,0.00,0.00,29.95,1011.50,10.00,M,CLR,M,M,M,M,M,M,M,M,M,M,M,M,M,M,89.10,KLSV 251455Z AUTO 00000KT 10SM CLR 31/18 A2995 RMK AO2 SLP115 T03120175 52018 $,M
RTS,2023-08-25 14:55,-119.8764,39.6682,1539.00,62.60,48.20,59.26,300.00,3.00,0.00,30.17,M,10.00,M,CLR,M,M,M,M,M,M,M,M,M,M,M,M,M,M,62.60,KRTS 251455Z AUTO 30003KT 10SM CLR 17/09 A3017 RMK AO2,M
05U,2023-08-25 14:55,-116.0051,39.6042,1811.23,60.80,53.60,77.14,M,M,0.01,30.29,M,2.50,M,M,M,M,M,M,M,M,M,HZ,M,M,M,M,M,M,60.80,K05U 251455Z AUTO 2 1/2SM HZ 16/12 A3029 RMK A01 P0001,M
MEV,2023-08-25 14:55,-119.7500,38.9963,1441.42,60.80,51.80,72.20,0.00,0.00,0.00,30.14,M,10.00,M,CLR,M,M,M,M,M,M,M,M,M,M,M,M,M,M,60.80,KMEV 251455Z AUTO 00000KT 10SM CLR 16/11 A3014 RMK AO2,M
HTH,2023-08-25 14:55,-118.6315,38.5448,1282.89,68.00,51.80,56.13,0.00,0.00,0.00,30.11,M,10.00,M,CLR,M,M,M,M,M,M,M,M,M,M,M,M,M,M,68.00,KHTH 251455Z AUTO 00000KT 10SM CLR 20/11 A3011 RMK A01,M
BAM,2023-08-25 14:55,-116.8743,40.5990,1382.36,62.60,42.80,48.28,190.00,6.00,0.00,30.18,M,10.00,M,OVC,M,M,M,8500.00,M,M,M,M,M,M,M,M,M,M,62.60,KBAM 251455Z AUTO 19006KT 10SM OVC085 17/06 A3018 RMK AO1,M
TMT,2023-08-25 14:55,-117.1971,39.4643,1749.34,57.20,55.40,93.69,300.00,4.00,0.00,30.23,M,M,M,M,M,M,M,M,M,M,M,M,M,M,M,M,M,M,57.20,KTMT 251455Z AUTO 30004KT 14/13 A3023 RMK AO2 LTG DSNT SE 60002 T01400130 PWINO,M
10U,2023-08-25 14:55,-116.1876,41.9532,1637.00,73.40,44.60,35.66,210.00,10.00,0.00,30.19,M,10.00,16.00,CLR,M,M,M,M,M,M,M,M,M,M,M,M,M,M,73.40,K10U 251455Z AUTO 21010G16KT 10SM CLR 23/07 A3019 RMK AO2,M
EKO,2023-08-25 14:56,-115.7860,40.8242,1367.00,66.00,50.00,56.27,80.00,4.00,0.00,30.18,1016.40,10.00,M,CLR,M,M,M,M,M,M,M,M,M,M,M,M,M,M,66.00,KEKO 251456Z AUTO 08004KT 10SM CLR 19/10 A3018 RMK AO2 SLP164 T01890100 51011,M
WMC,2023-08-25 14:56,-117.8072,40.9019,1315.00,75.00,45.00,34.31,0.00,0.00,0.00,30.12,1014.80,10.00,M,CLR,M,M,M,M,M,M,M,M,M,M,M,M,M,M,75.00,KWMC 251456Z AUTO 00000KT 10SM CLR 24/07 A3012 RMK AO2 SLP148 60000 T02390072 51011,M
NFL,2023-08-25 14:56,-118.7010,39.4166,1199.00,72.00,55.00,55.06,M,3.00,0.00,30.08,1015.40,10.00,M,SCT,SCT,M,M,6000.00,8000.00,M,M,M,M,M,M,M,M,M,72.00,KNFL 251456Z VRB03KT 10SM SCT060 SCT080 22/13 A3008 RMK AO2 SLP154 T02220128 51014,M
HND,2023-08-25 14:56,-115.1344,35.9729,742.79,82.00,62.00,50.80,220.00,5.00,0.00,30.03,1015.60,10.00,M,FEW,M,M,M,12000.00,M,M,M,M,M,M,M,M,M,M,82.89,KHND 251456Z 22005KT 10SM FEW120 28/17 A3003 RMK AO2 SLP156 T02780167 53017,M
LAS,2023-08-25 14:56,-115.1634,36.0719,663.00,85.00,61.00,44.50,0.00,0.00,0.00,29.99,1013.00,10.00,M,FEW,FEW,M,M,8500.00,12000.00,M,M,M,M,M,M,M,M,M,85.21,KLAS 251456Z 00000KT 10SM FEW085 FEW120 29/16 A2999 RMK AO2 SLP130 T02940161 53018,M
05U,2023-08-25 15:10,-116.0051,39.6042,1811.23,60.80,55.40,82.37,M,M,0.00,30.29,M,10.00,M,M,M,M,M,M,M,M,M,M,M,M,M,M,M,M,60.80,K05U 251510Z AUTO 10SM 16/13 A3029 RMK A01,M
BVU,2023-08-25 15:15,-114.8611,35.9475,671.00,82.40,62.60,51.21,0.00,0.00,0.00,29.99,M,10.00,M,CLR,M,M,M,M,M,M,M,M,M,M,M,M,M,M,83.41,KBVU 251515Z AUTO 00000KT 10SM CLR 28/17 A2999 RMK AO2,M
CXP,2023-08-25 15:15,-119.7326,39.1923,1431.00,64.40,51.80,63.60,0.00,0.00,0.00,30.15,M,10.00,M,CLR,M,M,M,M,M,M,M,M,M,M,M,M,M,M,64.40,KCXP 251515Z AUTO 00000KT 10SM CLR 18/11 A3015 RMK AO2,M
RTS,2023-08-25 15:15,-119.8764,39.6682,1539.00,64.40,48.20,55.63,0.00,0.00,0.00,30.17,M,10.00,M,CLR,M,M,M,M,M,M,M,M,M,M,M,M,M,M,64.40,KRTS 251515Z AUTO 00000KT 10SM CLR 18/09 A3017 RMK AO2,M
MEV,2023-08-25 15:15,-119.7500,38.9963,1441.42,62.60,51.80,67.75,0.00,0.00,0.00,30.14,M,10.00,M,CLR,M,M,M,M,M,M,M,M,M,M,M,M,M,M,62.60,KMEV 251515Z AUTO 00000KT 10SM CLR 17/11 A3014 RMK AO2,M
HTH,2023-08-25 15:15,-118.6315,38.5448,1282.89,69.80,53.60,56.38,240.00,3.00,0.00,30.11,M,10.00,M,CLR,M,M,M,M,M,M,M,M,M,M,M,M,M,M,69.80,KHTH 251515Z AUTO 24003KT 10SM CLR 21/12 A3011 RMK A01,M
10U,2023-08-25 15:15,-116.1876,41.9532,1637.00,75.20,44.60,33.57,210.00,14.00,0.00,30.19,M,10.00,M,CLR,M,M,M,M,M,M,M,M,M,M,M,M,M,M,75.20,K10U 251515Z AUTO 21014KT 10SM CLR 24/07 A3019 RMK AO2,M
BAM,2023-08-25 15:15,-116.8743,40.5990,1382.36,64.40,44.60,48.55,0.00,0.00,0.00,30.18,M,10.00,M,OVC,M,M,M,8500.00,M,M,M,M,M,M,M,M,M,M,64.40,KBAM 251515Z AUTO 00000KT 10SM OVC085 18/07 A3018 RMK AO1,M
TMT,2023-08-25 15:15,-117.1971,39.4643,1749.34,58.50,57.00,94.75,290.00,4.00,0.00,30.24,M,M,M,M,M,M,M,M,M,M,M,M,M,M,M,M,M,M,58.50,KTMT 251515Z AUTO 29004KT 15/14 A3024 RMK AO2 T01470138 PWINO,M
05U,2023-08-25 15:35,-116.0051,39.6042,1811.23,64.40,57.20,77.45,M,M,0.00,30.30,M,10.00,M,M,M,M,M,M,M,M,M,M,M,M,M,M,M,M,64.40,K05U 251535Z AUTO 10SM 18/14 A3030 RMK A01,M
BVU,2023-08-25 15:35,-114.8611,35.9475,671.00,84.20,62.60,48.32,0.00,0.00,0.00,29.99,M,10.00,M,CLR,M,M,M,M,M,M,M,M,M,M,M,M,M,M,85.03,KBVU 251535Z AUTO 00000KT 10SM CLR 29/17 A2999 RMK AO2,M
CXP,2023-08-25 15:35,-119.7326,39.1923,1431.00,66.20,51.80,59.74,0.00,0.00,0.00,30.15,M,10.00,M,CLR,M,M,M,M,M,M,M,M,M,M,M,M,M,M,66.20,KCXP 251535Z AUTO 00000KT 10SM CLR 19/11 A3015 RMK AO2,M
RTS,2023-08-25 15:35,-119.8764,39.6682,1539.00,66.20,48.20,52.25,0.00,0.00,0.00,30.17,M,10.00,M,CLR,M,M,M,M,M,M,M,M,M,M,M,M,M,M,66.20,KRTS 251535Z AUTO 00000KT 10SM CLR 19/09 A3017 RMK AO2,M
MEV,2023-08-25 15:35,-119.7500,38.9963,1441.42,66.20,50.00,55.88,0.00,0.00,0.00,30.14,M,10.00,M,CLR,M,M,M,M,M,M,M,M,M,M,M,M,M,M,66.20,KMEV 251535Z AUTO 00000KT 10SM CLR 19/10 A3014 RMK AO2,M
HTH,2023-08-25 15:35,-118.6315,38.5448,1282.89,71.60,51.80,49.64,260.00,3.00,0.00,30.11,M,10.00,M,CLR,M,M,M,M,M,M,M,M,M,M,M,M,M,M,71.60,KHTH 251535Z AUTO 26003KT 10SM CLR 22/11 A3011 RMK A01,M
10U,2023-08-25 15:35,-116.1876,41.9532,1637.00,75.20,37.40,25.40,200.00,11.00,0.00,30.19,M,10.00,16.00,CLR,M,M,M,M,M,M,M,M,M,M,M,M,M,M,75.20,K10U 251535Z AUTO 20011G16KT 10SM CLR 24/03 A3019 RMK AO2,M
BAM,2023-08-25 15:35,-116.8743,40.5990,1382.36,64.40,46.40,51.98,0.00,0.00,0.00,30.19,M,10.00,M,OVC,M,M,M,8500.00,M,M,M,M,M,M,M,M,M,M,64.40,KBAM 251535Z AUTO 00000KT 10SM OVC085 18/08 A3019 RMK AO1,M
TMT,2023-08-25 15:35,-117.1971,39.4643,1749.34,59.00,56.70,92.06,310.00,4.00,0.00,30.24,M,M,M,M,M,M,M,M,M,M,M,M,M,M,M,M,M,M,59.00,KTMT 251535Z AUTO 31004KT 15/14 A3024 RMK AO2 T01500137 PWINO,M
05U,2023-08-25 15:50,-116.0051,39.6042,1811.23,64.40,57.20,77.45,M,M,0.00,30.29,M,10.00,M,M,M,M,M,M,M,M,M,M,M,M,M,M,M,M,64.40,K05U 251550Z AUTO 10SM 18/14 A3029 RMK A01,M
P68,2023-08-25 15:53,-116.0056,39.6014,1993.00,63.00,56.00,77.89,80.00,8.00,0.02,30.27,1017.40,M,M,M,M,M,M,M,M,M,M,M,M,M,M,M,M,M,63.00,KP68 251553Z AUTO 08008KT 17/13 A3027 RMK AO1 SLP174 P0002 T01720133,M
DRA,2023-08-25 15:53,-116.0278,36.6206,1009.00,83.00,58.00,42.64,0.00,0.00,0.00,30.06,1012.90,10.00,M,FEW,M,M,M,12000.00,M,M,M,M,M,M,M,M,M,M,82.70,KDRA 251553Z AUTO 00000KT 10SM FEW120 28/14 A3006 RMK AO2 SLP129 T02830144,M
ELY,2023-08-25 15:53,-114.8453,39.2950,1909.00,71.00,53.00,52.95,210.00,9.00,0.00,30.28,1015.90,10.00,M,CLR,M,M,M,M,M,M,M,M,M,M,M,M,M,M,71.00,KELY 251553Z AUTO 21009KT 10SM CLR 22/12 A3028 RMK AO2 SLP159 T02170117,M
VGT,2023-08-25 15:53,-115.1933,36.2111,667.00,88.00,60.00,39.03,190.00,3.00,0.00,29.99,1014.30,10.00,M,CLR,M,M,M,M,M,M,M,M,M,M,M,M,M,M,87.65,KVGT 251553Z 19003KT 10SM CLR 31/16 A2999 RMK AO2 SLP143 T03110156,M
BVU,2023-08-25 15:55,-114.8611,35.9475,671.00,86.00,62.60,45.61,0.00,0.00,0.00,29.99,M,10.00,M,CLR,M,M,M,M,M,M,M,M,M,M,M,M,M,M,86.72,KBVU 251555Z AUTO 00000KT 10SM CLR 30/17 A2999 RMK AO2,M
CXP,2023-08-25 15:55,-119.7326,39.1923,1431.00,69.80,51.80,52.77,0.00,0.00,0.00,30.15,M,10.00,M,CLR,M,M,M,M,M,M,M,M,M,M,M,M,M,M,69.80,KCXP 251555Z AUTO 00000KT 10SM CLR 21/11 A3015 RMK AO2,M
INS,2023-08-25 15:55,-115.6733,36.5872,955.00,80.20,57.60,46.05,0.00,0.00,0.00,30.06,1013.20,10.00,M,CLR,M,M,M,M,M,M,M,M,M,M,M,M,M,M,80.60,KINS 251555Z AUTO 00000KT 10SM CLR 27/14 A3006 RMK AO2 SLP132 T02680142 $,M
RNO,2023-08-25 15:55,-119.7711,39.4839,1341.00,71.00,49.00,45.66,0.00,0.00,0.00,30.13,1014.40,10.00,M,FEW,M,M,M,11000.00,M,M,M,M,M,M,M,M,M,M,71.00,KRNO 251555Z 00000KT 10SM FEW110 22/09 A3013 RMK AO2 SLP144 T02170094,M
LSV,2023-08-25 15:55,-115.0343,36.2362,570.00,92.00,58.60,32.74,30.00,13.00,0.00,29.95,1011.50,10.00,M,CLR,M,M,M,M,M,M,M,M,M,M,M,M,M,M,91.15,KLSV 251555Z AUTO 03013KT 10SM CLR 33/15 A2995 RMK AO2 SLP115 T03330148 $,M
RTS,2023-08-25 15:55,-119.8764,39.6682,1539.00,68.00,48.20,49.10,0.00,0.00,0.00,30.17,M,10.00,M,CLR,M,M,M,M,M,M,M,M,M,M,M,M,M,M,68.00,KRTS 251555Z AUTO 00000KT 10SM CLR 20/09 A3017 RMK AO2,M
MEV,2023-08-25 15:55,-119.7500,38.9963,1441.42,69.80,48.20,46.16,0.00,0.00,0.00,30.14,M,10.00,M,CLR,M,M,M,M,M,M,M,M,M,M,M,M,M,M,69.80,KMEV 251555Z AUTO 00000KT 10SM CLR 21/09 A3014 RMK AO2,M
HTH,2023-08-25 15:55,-118.6315,38.5448,1282.89,75.20,50.00,41.14,230.00,3.00,0.00,30.11,M,10.00,M,CLR,M,M,M,M,M,M,M,M,M,M,M,M,M,M,75.20,KHTH 251555Z AUTO 23003KT 10SM CLR 24/10 A3011 RMK A01,M
BAM,2023-08-25 15:55,-116.8743,40.5990,1382.36,64.40,50.00,59.50,30.00,8.00,0.00,30.17,M,10.00,M,SCT,SCT,OVC,M,4700.00,6500.00,8500.00,M,M,M,M,M,M,M,M,64.40,KBAM 251555Z AUTO 03008KT 10SM SCT047 SCT065 OVC085 18/10 A3017 RMK AO1,M
TMT,2023-08-25 15:55,-117.1971,39.4643,1749.34,61.70,58.00,87.64,330.00,3.00,0.00,30.24,M,M,M,M,M,M,M,M,M,M,M,M,M,M,M,M,M,M,61.70,KTMT 251555Z AUTO 33003KT 17/15 A3024 RMK AO2 T01650145 PWINO,M
10U,2023-08-25 15:55,-116.1876,41.9532,1637.00,77.00,37.40,23.93,220.00,11.00,0.00,30.20,M,10.00,M,CLR,M,M,M,M,M,M,M,M,M,M,M,M,M,M,77.00,K10U 251555Z AUTO 22011KT 10SM CLR 25/03 A3020 RMK AO2,M
EKO,2023-08-25 15:56,-115.7860,40.8242,1367.00,76.00,51.00,41.57,50.00,4.00,0.00,30.18,1015.90,10.00,M,CLR,M,M,M,M,M,M,M,M,M,M,M,M,M,M,76.00,KEKO 251556Z AUTO 05004KT 10SM CLR 24/11 A3018 RMK AO2 SLP159 T02440106,M
WMC,2023-08-25 15:56,-117.8072,40.9019,1315.00,78.00,44.00,29.90,0.00,0.00,0.00,30.12,1014.80,10.00,M,CLR,M,M,M,M,M,M,M,M,M,M,M,M,M,M,78.00,KWMC 251556Z AUTO 00000KT 10SM CLR 26/07 A3012 RMK AO2 SLP148 T02560067,M
NFL,2023-08-25 15:56,-118.7010,39.4166,1199.00,75.00,55.00,49.78,0.00,0.00,0.00,30.08,1015.40,10.00,M,SCT,SCT,M,M,6000.00,10000.00,M,M,M,M,M,M,M,M,M,75.00,KNFL 251556Z 00000KT 10SM SCT060 SCT100 24/13 A3008 RMK AO2 SLP154 T02390128,M
HND,2023-08-25 15:56,-115.1344,35.9729,742.79,87.00,61.00,41.75,0.00,0.00,0.00,30.04,1015.90,10.00,M,CLR,M,M,M,M,M,M,M,M,M,M,M,M,M,M,87.06,KHND 251556Z 00000KT 10SM CLR 31/16 A3004 RMK AO2 SLP159 T03060161,M
LAS,2023-08-25 15:56,-115.1634,36.0719,663.00,88.00,60.00,39.03,80.00,3.00,0.00,30.00,1013.10,10.00,M,FEW,FEW,M,M,8500.00,12000.00,M,M,M,M,M,M,M,M,M,87.65,KLAS 251556Z 08003KT 10SM FEW085 FEW120 31/16 A3000 RMK AO2 SLP131 T03110156,M
BVU,2023-08-25 16:15,-114.8611,35.9475,671.00,87.80,60.80,40.41,0.00,0.00,0.00,29.99,M,10.00,M,FEW,M,M,M,12000.00,M,M,M,M,M,M,M,M,M,M,87.75,KBVU 251615Z AUTO 00000KT 10SM FEW120 31/16 A2999 RMK AO2,M
CXP,2023-08-25 16:15,-119.7326,39.1923,1431.00,71.60,50.00,46.43,0.00,0.00,0.00,30.15,M,10.00,M,CLR,M,M,M,M,M,M,M,M,M,M,M,M,M,M,71.60,KCXP 251615Z AUTO 00000KT 10SM CLR 22/10 A3015 RMK AO2,M
RTS,2023-08-25 16:15,-119.8764,39.6682,1539.00,69.80,48.20,46.16,M,3.00,0.00,30.17,M,10.00,M,CLR,M,M,M,M,M,M,M,M,M,M,M,M,M,M,69.80,KRTS 251615Z AUTO VRB03KT 10SM CLR 21/09 A3017 RMK AO2,M
05U,2023-08-25 16:15,-116.0051,39.6042,1811.23,66.20,53.60,63.82,M,M,0.00,30.30,M,10.00,M,M,M,M,M,M,M,M,M,M,M,M,M,M,M,M,66.20,K05U 251615Z AUTO 10SM 19/12 A3030 RMK A01,M
MEV,2023-08-25 16:15,-119.7500,38.9963,1441.42,71.60,48.20,43.42,0.00,0.00,0.00,30.13,M,10.00,M,CLR,M,M,M,M,M,M,M,M,M,M,M,M,M,M,71.60,KMEV 251615Z AUTO 00000KT 10SM CLR 22/09 A3013 RMK AO2,M
HTH,2023-08-25 16:15,-118.6315,38.5448,1282.89,75.20,50.00,41.14,0.00,0.00,0.00,30.11,M,10.00,M,CLR,M,M,M,M,M,M,M,M,M,M,M,M,M,M,75.20,KHTH 251615Z AUTO 00000KT 10SM CLR 24/10 A3011 RMK A01,M
10U,2023-08-25 16:15,-116.1876,41.9532,1637.00,77.00,37.40,23.93,240.00,7.00,0.00,30.20,M,10.00,M,CLR,M,M,M,M,M,M,M,M,M,M,M,M,M,M,77.00,K10U 251615Z AUTO 24007KT 10SM CLR 25/03 A3020 RMK AO2,M
BAM,2023-08-25 16:15,-116.8743,40.5990,1382.36,66.20,51.80,59.74,0.00,0.00,0.00,30.19,M,10.00,M,SCT,BKN,OVC,M,3300.00,8500.00,9500.00,M,M,M,M,M,M,M,M,66.20,KBAM 251615Z AUTO 00000KT 10SM SCT033 BKN085 OVC095 19/11 A3019 RMK AO1,M
TMT,2023-08-25 16:15,-117.1971,39.4643,1749.34,66.20,59.00,77.60,0.00,0.00,0.00,30.24,M,M,M,CLR,M,M,M,M,M,M,M,M,M,M,M,M,M,M,66.20,KTMT 251615Z AUTO 00000KT CLR 19/15 A3024 RMK AO2 T01900150 PWINO,M
BVU,2023-08-25 16:35,-114.8611,35.9475,671.00,89.60,60.80,38.18,M,4.00,0.00,29.99,M,10.00,M,FEW,M,M,M,12000.00,M,M,M,M,M,M,M,M,M,M,89.54,KBVU 251635Z AUTO VRB04KT 10SM FEW120 32/16 A2999 RMK AO2,M
CXP,2023-08-25 16:35,-119.7326,39.1923,1431.00,73.40,48.20,40.85,0.00,0.00,0.00,30.15,M,10.00,M,CLR,M,M,M,M,M,M,M,M,M,M,M,M,M,M,73.40,KCXP 251635Z AUTO 00000KT 10SM CLR 23/09 A3015 RMK AO2,M
RTS,2023-08-25 16:35,-119.8764,39.6682,1539.00,71.60,46.40,40.57,140.00,3.00,0.00,30.17,M,10.00,M,CLR,M,M,M,M,M,M,M,M,M,M,M,M,M,M,71.60,KRTS 251635Z AUTO 14003KT 10SM CLR 22/08 A3017 RMK AO2,M
05U,2023-08-25 16:35,-116.0051,39.6042,1811.23,69.80,53.60,56.38,M,M,0.00,30.30,M,10.00,M,M,M,M,M,M,M,M,M,M,M,M,M,M,M,M,69.80,K05U 251635Z AUTO 10SM 21/12 A3030 RMK A01,M
MEV,2023-08-25 16:35,-119.7500,38.9963,1441.42,71.60,48.20,43.42,0.00,0.00,0.00,30.13,M,10.00,M,CLR,M,M,M,M,M,M,M,M,M,M,M,M,M,M,71.60,KMEV 251635Z AUTO 00000KT 10SM CLR 22/09 A3013 RMK AO2,M
HTH,2023-08-25 16:35,-118.6315,38.5448,1282.89,75.20,50.00,41.14,0.00,0.00,0.00,30.11,M,10.00,M,CLR,M,M,M,M,M,M,M,M,M,M,M,M,M,M,75.20,KHTH 251635Z AUTO 00000KT 10SM CLR 24/10 A3011 RMK A01,M
10U,2023-08-25 16:35,-116.1876,41.9532,1637.00,78.80,37.40,22.54,M,4.00,0.00,30.21,M,10.00,11.00,CLR,M,M,M,M,M,M,M,M,M,M,M,M,M,M,78.80,K10U 251635Z AUTO VRB04G11KT 10SM CLR 26/03 A3021 RMK AO2,M
BAM,2023-08-25 16:35,-116.8743,40.5990,1382.36,68.00,51.80,56.13,100.00,3.00,0.00,30.18,M,10.00,M,SCT,OVC,M,M,7000.00,10000.00,M,M,M,M,M,M,M,M,M,68.00,KBAM 251635Z AUTO 10003KT 10SM SCT070 OVC100 20/11 A3018 RMK AO1,M
TMT,2023-08-25 16:35,-117.1971,39.4643,1749.34,67.50,57.40,70.04,0.00,0.00,0.00,30.24,M,M,M,CLR,M,M,M,M,M,M,M,M,M,M,M,M,M,M,67.50,KTMT 251635Z AUTO 00000KT CLR 20/14 A3024 RMK AO2 T01970141 PWINO,M
05U,2023-08-25 16:50,-116.0051,39.6042,1811.23,71.60,55.40,56.63,M,M,0.00,30.30,M,10.00,M,M,M,M,M,M,M,M,M,M,M,M,M,M,M,M,71.60,K05U 251650Z AUTO 10SM 22/13 A3030 RMK A01,M
P68,2023-08-25 16:53,-116.0056,39.6014,1993.00,70.00,55.00,58.94,40.00,6.00,0.00,30.27,1017.00,M,M,M,M,M,M,M,M,M,M,M,M,M,M,M,M,M,70.00,KP68 251653Z AUTO 04006KT 21/13 A3027 RMK AO1 SLP170 T02110128,M
DRA,2023-08-25 16:53,-116.0278,36.6206,1009.00,87.00,56.00,34.90,0.00,0.00,0.00,30.07,1012.80,10.00,M,FEW,M,M,M,12000.00,M,M,M,M,M,M,M,M,M,M,85.54,KDRA 251653Z AUTO 00000KT 10SM FEW120 31/13 A3007 RMK AO2 SLP128 T03060133,M
ELY,2023-08-25 16:53,-114.8453,39.2950,1909.00,75.00,54.00,47.99,280.00,6.00,0.00,30.29,1015.60,10.00,14.00,CLR,M,M,M,M,M,M,M,M,M,M,M,M,M,M,75.00,KELY 251653Z AUTO 28006G14KT 10SM CLR 24/12 A3029 RMK AO2 SLP156 T02390122,M
VGT,2023-08-25 16:53,-115.1933,36.2111,667.00,91.00,59.00,34.27,110.00,4.00,0.00,30.00,1014.30,10.00,M,CLR,M,M,M,M,M,M,M,M,M,M,M,M,M,M,90.27,KVGT 251653Z 11004KT 10SM CLR 33/15 A3000 RMK AO2 SLP143 T03280150,M
BVU,2023-08-25 16:55,-114.8611,35.9475,671.00,91.40,57.20,31.72,0.00,0.00,0.00,29.99,M,10.00,M,CLR,M,M,M,M,M,M,M,M,M,M,M,M,M,M,90.06,KBVU 251655Z AUTO 00000KT 10SM CLR 33/14 A2999 RMK AO2,M
CXP,2023-08-25 16:55,-119.7326,39.1923,1431.00,75.20,48.20,38.46,0.00,0.00,0.00,30.15,M,10.00,M,CLR,M,M,M,M,M,M,M,M,M,M,M,M,M,M,75.20,KCXP 251655Z AUTO 00000KT 10SM CLR 24/09 A3015 RMK AO2,M
RNO,2023-08-25 16:55,-119.7711,39.4839,1341.00,76.00,49.00,38.59,0.00,0.00,0.00,30.12,1014.30,10.00,M,FEW,M,M,M,6500.00,M,M,M,M,M,M,M,M,M,M,76.00,KRNO 251655Z 00000KT 10SM FEW065 24/09 A3012 RMK AO2 SLP143 T02440094,M
RTS,2023-08-25 16:55,-119.8764,39.6682,1539.00,73.40,44.60,35.66,120.00,3.00,0.00,30.17,M,10.00,M,CLR,M,M,M,M,M,M,M,M,M,M,M,M,M,M,73.40,KRTS 251655Z AUTO 12003KT 10SM CLR 23/07 A3017 RMK AO2,M
MEV,2023-08-25 16:55,-119.7500,38.9963,1441.42,73.40,48.20,40.85,0.00,0.00,0.00,30.13,M,10.00,M,CLR,M,M,M,M,M,M,M,M,M,M,M,M,M,M,73.40,KMEV 251655Z AUTO 00000KT 10SM CLR 23/09 A3013 RMK AO2,M
HTH,2023-08-25 16:55,-118.6315,38.5448,1282.89,77.00,48.20,36.22,360.00,3.00,0.00,30.11,M,10.00,M,CLR,M,M,M,M,M,M,M,M,M,M,M,M,M,M,77.00,KHTH 251655Z AUTO 36003KT 10SM CLR 25/09 A3011 RMK A01,M
INS,2023-08-25 16:55,-115.6733,36.5872,955.00,85.60,56.30,36.89,0.00,0.00,0.00,30.05,1012.70,10.00,M,FEW,M,M,M,12000.00,M,M,M,M,M,M,M,M,M,M,84.41,KINS 251655Z AUTO 00000KT 10SM FEW120 30/14 A3005 RMK AO2 SLP127 T02980135 $,M
BAM,2023-08-25 16:55,-116.8743,40.5990,1382.36,71.60,51.80,49.64,60.00,3.00,0.00,30.19,M,10.00,M,BKN,M,M,M,10000.00,M,M,M,M,M,M,M,M,M,M,71.60,KBAM 251655Z AUTO 06003KT 10SM BKN100 22/11 A3019 RMK AO1,M
TMT,2023-08-25 16:55,-117.1971,39.4643,1749.34,69.60,55.60,61.06,0.00,0.00,0.00,30.24,M,M,M,CLR,M,M,M,M,M,M,M,M,M,M,M,M,M,M,69.60,KTMT 251655Z AUTO 00000KT CLR 21/13 A3024 RMK AO2 T02090131 PWINO,M
10U,2023-08-25 16:55,-116.1876,41.9532,1637.00,78.80,37.40,22.54,M,4.00,0.00,30.21,M,10.00,10.00,CLR,M,M,M,M,M,M,M,M,M,M,M,M,M,M,78.80,K10U 251655Z AUTO VRB04G10KT 10SM CLR 26/03 A3021 RMK AO2,M
LSV,2023-08-25 16:55,-115.0343,36.2362,570.00,93.70,57.60,29.96,50.00,9.00,0.00,29.95,1011.50,10.00,M,CLR,M,M,M,M,M,M,M,M,M,M,M,M,M,M,92.58,KLSV 251655Z AUTO 05009KT 10SM CLR 34/14 A2995 RMK AO2 SLP115 T03430142 $,M
EKO,2023-08-25 16:56,-115.7860,40.8242,1367.00,74.00,54.00,49.63,220.00,8.00,0.00,30.22,1017.50,10.00,M,FEW,SCT,M,M,9000.00,12000.00,M,M,M,M,M,M,M,M,M,74.00,KEKO 251656Z AUTO 22008KT 10SM FEW090 SCT120 23/12 A3022 RMK AO2 SLP175 T02330122,M
WMC,2023-08-25 16:56,-117.8072,40.9019,1315.00,80.00,44.00,27.99,M,4.00,0.00,30.13,1015.00,10.00,M,CLR,M,M,M,M,M,M,M,M,M,M,M,M,M,M,79.06,KWMC 251656Z AUTO VRB04KT 10SM CLR 27/07 A3013 RMK AO2 SLP150 T02670067,M
NFL,2023-08-25 16:56,-118.7010,39.4166,1199.00,79.00,52.00,39.06,0.00,0.00,0.00,30.09,1015.60,10.00,M,FEW,SCT,M,M,7000.00,18000.00,M,M,M,M,M,M,M,M,M,79.00,KNFL 251656Z 00000KT 10SM FEW070 SCT180 26/11 A3009 RMK AO2 SLP156 T02610111,M
HND,2023-08-25 16:56,-115.1344,35.9729,742.79,89.00,60.00,37.82,0.00,0.00,0.00,30.04,1015.90,10.00,M,CLR,M,M,M,M,M,M,M,M,M,M,M,M,M,M,88.63,KHND 251656Z 00000KT 10SM CLR 32/16 A3004 RMK AO2 SLP159 T03170156,M
LAS,2023-08-25 16:56,-115.1634,36.0719,663.00,90.00,59.00,35.36,0.00,0.00,0.00,30.01,1013.10,10.00,M,FEW,FEW,M,M,9000.00,12000.00,M,M,M,M,M,M,M,M,M,89.26,KLAS 251656Z 00000KT 10SM FEW090 FEW120 32/15 A3001 RMK AO2 SLP131 T03220150,M
BVU,2023-08-25 17:15,-114.8611,35.9475,671.00,93.20,59.00,31.99,0.00,0.00,0.00,29.99,M,10.00,M,CLR,M,M,M,M,M,M,M,M,M,M,M,M,M,M,92.57,KBVU 251715Z AUTO 00000KT 10SM CLR 34/15 A2999 RMK AO2,M
CXP,2023-08-25 17:15,-119.7326,39.1923,1431.00,77.00,48.20,36.22,120.00,3.00,0.00,30.15,M,10.00,M,CLR,M,M,M,M,M,M,M,M,M,M,M,M,M,M,77.00,KCXP 251715Z AUTO 12003KT 10SM CLR 25/09 A3015 RMK AO2,M
RTS,2023-08-25 17:15,-119.8764,39.6682,1539.00,73.40,44.60,35.66,M,4.00,0.00,30.17,M,10.00,M,CLR,M,M,M,M,M,M,M,M,M,M,M,M,M,M,73.40,KRTS 251715Z AUTO VRB04KT 10SM CLR 23/07 A3017 RMK AO2,M
05U,2023-08-25 17:15,-116.0051,39.6042,1811.23,73.40,53.60,49.90,M,M,0.00,30.29,M,10.00,M,M,M,M,M,M,M,M,M,M,M,M,M,M,M,M,73.40,K05U 251715Z AUTO 10SM 23/12 A3029 RMK A01,M
MEV,2023-08-25 17:15,-119.7500,38.9963,1441.42,73.40,50.00,43.69,0.00,0.00,0.00,30.13,M,10.00,M,CLR,M,M,M,M,M,M,M,M,M,M,M,M,M,M,73.40,KMEV 251715Z AUTO 00000KT 10SM CLR 23/10 A3013 RMK AO2,M
HTH,2023-08-25 17:15,-118.6315,38.5448,1282.89,78.80,48.20,34.13,0.00,0.00,0.00,30.11,M,10.00,M,CLR,M,M,M,M,M,M,M,M,M,M,M,M,M,M,78.80,KHTH 251715Z AUTO 00000KT 10SM CLR 26/09 A3011 RMK A01,M
10U,2023-08-25 17:15,-116.1876,41.9532,1637.00,78.80,37.40,22.54,M,3.00,0.00,30.21,M,10.00,10.00,CLR,M,M,M,M,M,M,M,M,M,M,M,M,M,M,78.80,K10U 251715Z AUTO VRB03G10KT 10SM CLR 26/03 A3021 RMK AO2,M
BAM,2023-08-25 17:15,-116.8743,40.5990,1382.36,73.40,50.00,43.69,60.00,6.00,0.00,30.18,M,10.00,M,OVC,M,M,M,10000.00,M,M,M,M,M,M,M,M,M,M,73.40,KBAM 251715Z AUTO 06006KT 10SM OVC100 23/10 A3018 RMK AO1,M
TMT,2023-08-25 17:15,-117.1971,39.4643,1749.34,70.70,56.00,59.67,0.00,0.00,0.00,30.24,M,M,M,CLR,M,M,M,M,M,M,M,M,M,M,M,M,M,M,70.70,KTMT 251715Z AUTO 00000KT CLR 22/13 A3024 RMK AO2 T02150134 PWINO,M
05U,2023-08-25 17:30,-116.0051,39.6042,1811.23,75.20,53.60,46.98,M,M,0.00,30.29,M,10.00,M,M,M,M,M,M,M,M,M,M,M,M,M,M,M,M,75.20,K05U 251730Z AUTO 10SM 24/12 A3029 RMK A01,M
BVU,2023-08-25 17:35,-114.8611,35.9475,671.00,93.20,59.00,31.99,0.00,0.00,0.00,29.99,M,10.00,M,CLR,M,M,M,M,M,M,M,M,M,M,M,M,M,M,92.57,KBVU 251735Z AUTO 00000KT 10SM CLR 34/15 A2999 RMK AO2,M
CXP,2023-08-25 17:35,-119.7326,39.1923,1431.00,77.00,46.40,33.85,0.00,0.00,0.00,30.14,M,10.00,M,CLR,M,M,M,M,M,M,M,M,M,M,M,M,M,M,77.00,KCXP 251735Z AUTO 00000KT 10SM CLR 25/08 A3014 RMK AO2,M
RTS,2023-08-25 17:35,-119.8764,39.6682,1539.00,75.20,46.40,35.94,0.00,0.00,0.00,30.17,M,10.00,M,CLR,M,M,M,M,M,M,M,M,M,M,M,M,M,M,75.20,KRTS 251735Z AUTO 00000KT 10SM CLR 24/08 A3017 RMK AO2,M
MEV,2023-08-25 17:35,-119.7500,38.9963,1441.42,77.00,50.00,38.74,320.00,3.00,0.00,30.13,M,10.00,M,CLR,M,M,M,M,M,M,M,M,M,M,M,M,M,M,77.00,KMEV 251735Z AUTO 32003KT 10SM CLR 25/10 A3013 RMK AO2,M
HTH,2023-08-25 17:35,-118.6315,38.5448,1282.89,78.80,48.20,34.13,M,4.00,0.00,30.10,M,10.00,M,CLR,M,M,M,M,M,M,M,M,M,M,M,M,M,M,78.80,KHTH 251735Z AUTO VRB04KT 10SM CLR 26/09 A3010 RMK A01,M
10U,2023-08-25 17:35,-116.1876,41.9532,1637.00,80.60,37.40,21.25,0.00,0.00,0.00,30.21,M,10.00,M,CLR,M,M,M,M,M,M,M,M,M,M,M,M,M,M,79.02,K10U 251735Z AUTO 00000KT 10SM CLR 27/03 A3021 RMK AO2,M
BAM,2023-08-25 17:35,-116.8743,40.5990,1382.36,78.80,53.60,41.69,140.00,12.00,0.00,30.18,M,10.00,15.00,BKN,M,M,M,9000.00,M,M,M,M,M,M,M,M,M,M,78.80,KBAM 251735Z AUTO 14012G15KT 10SM BKN090 26/12 A3018 RMK AO1,M
TMT,2023-08-25 17:35,-117.1971,39.4643,1749.34,73.40,55.60,53.68,0.00,0.00,0.00,30.24,M,M,M,CLR,M,M,M,M,M,M,M,M,M,M,M,M,M,M,73.40,KTMT 251735Z AUTO 00000KT CLR 23/13 A3024 RMK AO2 T02300131 PWINO,M
P68,2023-08-25 17:53,-116.0056,39.6014,1993.00,73.00,53.00,49.48,0.00,0.00,0.00,30.25,1016.20,M,M,M,M,M,M,M,M,M,M,M,M,M,M,M,M,M,73.00,KP68 251753Z AUTO 00000KT 23/12 A3025 RMK AO1 SLP162 60002 T02280117 10233 20122 58003,M
DRA,2023-08-25 17:53,-116.0278,36.6206,1009.00,91.00,56.00,30.76,200.00,6.00,0.00,30.06,1012.50,10.00,M,CLR,M,M,M,M,M,M,M,M,M,M,M,M,M,M,89.30,KDRA 251753Z AUTO 20006KT 10SM CLR 33/13 A3006 RMK AO2 SLP125 T03280133 10328 20217 50001,M
ELY,2023-08-25 17:53,-114.8453,39.2950,1909.00,78.00,52.00,40.36,M,5.00,0.00,30.28,1015.10,10.00,M,SCT,SCT,BKN,M,6500.00,8000.00,11000.00,M,M,M,M,M,M,M,M,78.00,KELY 251753Z AUTO VRB05KT 10SM SCT065 SCT080 BKN110 26/11 A3028 RMK AO2 SLP151 T02560111 10261 20117 50001,M
VGT,2023-08-25 17:53,-115.1933,36.2111,667.00,94.00,58.00,30.11,120.00,8.00,0.00,29.99,1014.10,10.00,M,CLR,M,M,M,M,M,M,M,M,M,M,M,M,M,M,93.04,KVGT 251753Z 12008KT 10SM CLR 34/14 A2999 RMK AO2 SLP141 T03440144 10344 20272 50002,M
LOL,2023-08-25 17:53,-118.5701,40.0684,1192.43,81.00,49.00,32.73,60.00,5.00,0.00,30.08,1014.30,10.00,M,CLR,M,M,M,M,M,M,M,M,M,M,M,M,M,M,80.02,KLOL 251753Z AUTO 06005KT 10SM CLR 27/09 A3008 RMK AO2 SLP143 6//// T02720094 10272 20161 $,M
BVU,2023-08-25 17:55,-114.8611,35.9475,671.00,93.20,59.00,31.99,0.00,0.00,0.00,29.98,M,10.00,M,CLR,M,M,M,M,M,M,M,M,M,M,M,M,M,M,92.57,KBVU 251755Z AUTO 00000KT 10SM CLR 34/15 A2998 RMK AO2,M
CXP,2023-08-25 17:55,-119.7326,39.1923,1431.00,78.80,46.40,31.90,0.00,0.00,0.00,30.14,M,10.00,M,CLR,M,M,M,M,M,M,M,M,M,M,M,M,M,M,78.80,KCXP 251755Z AUTO 00000KT 10SM CLR 26/08 A3014 RMK AO2,M
INS,2023-08-25 17:55,-115.6733,36.5872,955.00,89.00,54.30,30.79,90.00,10.00,0.00,30.04,1012.20,10.00,M,BKN,M,M,M,11000.00,M,M,M,M,M,M,M,M,M,M,86.95,KINS 251755Z AUTO 09010KT 10SM BKN110 32/12 A3004 RMK AO2 SLP122 T03160124 10316 20207 58004 $,M
RNO,2023-08-25 17:55,-119.7711,39.4839,1341.00,80.00,48.00,32.57,0.00,0.00,0.00,30.12,1013.80,10.00,M,FEW,M,M,M,6000.00,M,M,M,M,M,M,M,M,M,M,79.37,KRNO 251755Z 00000KT 10SM FEW060 27/09 A3012 RMK AO2 SLP138 T02670089 10267 20172 58003,M
LSV,2023-08-25 17:55,-115.0343,36.2362,570.00,97.50,59.00,28.03,20.00,6.00,0.00,29.95,1011.50,10.00,M,CLR,M,M,M,M,M,M,M,M,M,M,M,M,M,M,97.28,KLSV 251755Z AUTO 02006KT 10SM CLR 36/15 A2995 RMK AO2 SLP115 T03640149 10364 20260 50000 $,M
RTS,2023-08-25 17:55,-119.8764,39.6682,1539.00,75.20,44.60,33.57,M,5.00,0.00,30.17,M,10.00,M,CLR,M,M,M,M,M,M,M,M,M,M,M,M,M,M,75.20,KRTS 251755Z AUTO VRB05KT 10SM CLR 24/07 A3017 RMK AO2,M
05U,2023-08-25 17:55,-116.0051,39.6042,1811.23,77.00,53.60,44.25,M,M,0.00,30.28,M,10.00,M,M,M,M,M,M,M,M,M,M,M,M,M,M,M,M,77.00,K05U 251755Z AUTO 10SM 25/12 A3028 RMK A01,M
MEV,2023-08-25 17:55,-119.7500,38.9963,1441.42,77.00,44.60,31.62,0.00,0.00,0.00,30.13,M,10.00,M,CLR,M,M,M,M,M,M,M,M,M,M,M,M,M,M,77.00,KMEV 251755Z AUTO 00000KT 10SM CLR 25/07 A3013 RMK AO2,M
HTH,2023-08-25 17:55,-118.6315,38.5448,1282.89,80.60,50.00,34.41,0.00,0.00,0.00,30.10,M,10.00,M,CLR,M,M,M,M,M,M,M,M,M,M,M,M,M,M,79.88,KHTH 251755Z AUTO 00000KT 10SM CLR 27/10 A3010 RMK A01,M
BAM,2023-08-25 17:55,-116.8743,40.5990,1382.36,78.80,51.80,39.02,130.00,5.00,0.00,30.17,M,10.00,M,SCT,M,M,M,11000.00,M,M,M,M,M,M,M,M,M,M,78.80,KBAM 251755Z AUTO 13005KT 10SM SCT110 26/11 A3017 RMK AO1,M
TMT,2023-08-25 17:55,-117.1971,39.4643,1749.34,75.70,55.00,48.63,0.00,0.00,0.00,30.24,M,M,M,CLR,M,M,M,M,M,M,M,M,M,M,M,M,M,M,75.70,KTMT 251755Z AUTO 00000KT CLR 24/13 A3024 RMK AO2 60002 T02430128 10243 20095 PWINO,M
10U,2023-08-25 17:55,-116.1876,41.9532,1637.00,82.40,39.20,21.51,240.00,5.00,0.00,30.21,M,10.00,M,CLR,M,M,M,M,M,M,M,M,M,M,M,M,M,M,80.21,K10U 251755Z AUTO 24005KT 10SM CLR 28/04 A3021 RMK AO2,M
EKO,2023-08-25 17:56,-115.7860,40.8242,1367.00,72.00,54.00,53.09,260.00,7.00,T,30.23,1018.00,10.00,M,FEW,BKN,BKN,M,1200.00,9000.00,11000.00,M,-RA,M,M,M,M,M,M,72.00,KEKO 251756Z AUTO 26007KT 10SM -RA FEW012 BKN090 BKN110 22/12 A3023 RMK AO2 RAB41 SLP180 P0000 60000 T02220122 10256 20144 53014,M
WMC,2023-08-25 17:56,-117.8072,40.9019,1315.00,85.00,44.00,23.80,150.00,9.00,0.00,30.12,1014.90,10.00,14.00,CLR,M,M,M,M,M,M,M,M,M,M,M,M,M,M,82.27,KWMC 251756Z AUTO 15009G14KT 10SM CLR 29/07 A3012 RMK AO2 SLP149 60000 T02940067 10294 20167 50002,M
NFL,2023-08-25 17:56,-118.7010,39.4166,1199.00,83.00,51.00,33.04,0.00,0.00,0.00,30.08,1015.50,10.00,M,SCT,SCT,M,M,6000.00,10000.00,M,M,M,M,M,M,M,M,M,81.51,KNFL 251756Z 00000KT 10SM SCT060 SCT100 28/11 A3008 RMK AO2 SLP155 T02830106 10283 20161 50001,M
HND,2023-08-25 17:56,-115.1344,35.9729,742.79,92.00,61.00,35.66,60.00,5.00,0.00,30.04,1015.50,10.00,M,CLR,M,M,M,M,M,M,M,M,M,M,M,M,M,M,92.12,KHND 251756Z 06005KT 10SM CLR 33/16 A3004 RMK AO2 SLP155 T03330161 10339 20239 50001,M
LAS,2023-08-25 17:56,-115.1634,36.0719,663.00,92.00,59.00,33.21,50.00,3.00,0.00,30.00,1013.00,10.00,M,FEW,FEW,M,M,9000.00,15000.00,M,M,M,M,M,M,M,M,M,91.30,KLAS 251756Z 05003KT 10SM FEW090 FEW150 33/15 A3000 RMK AO2 SLP130 ACC DSNT W T03330150 10339 20261 50002,M
05U,2023-08-25 18:10,-116.0051,39.6042,1811.23,78.80,53.60,41.69,M,M,0.00,30.28,M,10.00,M,M,M,M,M,M,M,M,M,M,M,M,M,M,M,M,78.80,K05U 251810Z AUTO 10SM 26/12 A3028 RMK A01,M
BVU,2023-08-25 18:15,-114.8611,35.9475,671.00,95.00,57.20,28.37,0.00,0.00,0.00,29.98,M,10.00,M,CLR,M,M,M,M,M,M,M,M,M,M,M,M,M,M,93.82,KBVU 251815Z AUTO 00000KT 10SM CLR 35/14 A2998 RMK AO2,M
CXP,2023-08-25 18:15,-119.7326,39.1923,1431.00,80.60,46.40,30.07,40.00,6.00,0.00,30.14,M,10.00,M,CLR,M,M,M,M,M,M,M,M,M,M,M,M,M,M,79.56,KCXP 251815Z AUTO 04006KT 10SM CLR 27/08 A3014 RMK AO2,M
RTS,2023-08-25 18:15,-119.8764,39.6682,1539.00,77.00,44.60,31.62,130.00,3.00,0.00,30.16,M,10.00,M,CLR,M,M,M,M,M,M,M,M,M,M,M,M,M,M,77.00,KRTS 251815Z AUTO 13003KT 10SM CLR 25/07 A3016 RMK AO2,M
MEV,2023-08-25 18:15,-119.7500,38.9963,1441.42,80.60,44.60,28.08,M,3.00,0.00,30.12,M,10.00,M,CLR,M,M,M,M,M,M,M,M,M,M,M,M,M,M,79.42,KMEV 251815Z AUTO VRB03KT 10SM CLR 27/07 A3012 RMK AO2,M
HTH,2023-08-25 18:15,-118.6315,38.5448,1282.89,82.40,50.00,32.46,M,4.00,0.00,30.09,M,10.00,M,CLR,M,M,M,M,M,M,M,M,M,M,M,M,M,M,80.99,KHTH 251815Z AUTO VRB04KT 10SM CLR 28/10 A3009 RMK A01,M
10U,2023-08-25 18:15,-116.1876,41.9532,1637.00,78.80,41.00,25.95,210.00,15.00,0.00,30.22,M,10.00,M,CLR,M,M,M,M,M,M,M,M,M,M,M,M,M,M,78.80,K10U 251815Z AUTO 21015KT 10SM CLR 26/05 A3022 RMK AO2,M
BAM,2023-08-25 18:15,-116.8743,40.5990,1382.36,78.80,51.80,39.02,200.00,4.00,0.00,30.17,M,10.00,M,SCT,SCT,M,M,9500.00,11000.00,M,M,M,M,M,M,M,M,M,78.80,KBAM 251815Z AUTO 20004KT 10SM SCT095 SCT110 26/11 A3017 RMK AO1,M
TMT,2023-08-25 18:15,-117.1971,39.4643,1749.34,77.00,54.50,45.73,180.00,5.00,0.00,30.22,M,M,M,CLR,M,M,M,M,M,M,M,M,M,M,M,M,M,M,77.00,KTMT 251815Z AUTO 18005KT CLR 25/13 A3022 RMK AO2 T02490125 PWINO,M
BVU,2023-08-25 18:35,-114.8611,35.9475,671.00,95.00,57.20,28.37,0.00,0.00,0.00,29.98,M,10.00,M,CLR,M,M,M,M,M,M,M,M,M,M,M,M,M,M,93.82,KBVU 251835Z AUTO 00000KT 10SM CLR 35/14 A2998 RMK AO2,M
CXP,2023-08-25 18:35,-119.7326,39.1923,1431.00,80.60,46.40,30.07,M,6.00,0.00,30.13,M,10.00,M,CLR,M,M,M,M,M,M,M,M,M,M,M,M,M,M,79.56,KCXP 251835Z AUTO VRB06KT 10SM CLR 27/08 A3013 RMK AO2,M
RTS,2023-08-25 18:35,-119.8764,39.6682,1539.00,78.80,44.60,29.79,170.00,7.00,0.00,30.16,M,10.00,M,CLR,M,M,M,M,M,M,M,M,M,M,M,M,M,M,78.80,KRTS 251835Z AUTO 17007KT 10SM CLR 26/07 A3016 RMK AO2,M
05U,2023-08-25 18:35,-116.0051,39.6042,1811.23,80.60,51.80,36.79,M,M,0.00,30.27,M,10.00,M,M,M,M,M,M,M,M,M,M,M,M,M,M,M,M,80.08,K05U 251835Z AUTO 10SM 27/11 A3027 RMK A01,M
MEV,2023-08-25 18:35,-119.7500,38.9963,1441.42,80.60,42.80,26.22,0.00,0.00,0.00,30.12,M,10.00,M,CLR,M,M,M,M,M,M,M,M,M,M,M,M,M,M,79.30,KMEV 251835Z AUTO 00000KT 10SM CLR 27/06 A3012 RMK AO2,M
HTH,2023-08-25 18:35,-118.6315,38.5448,1282.89,84.20,48.20,28.63,0.00,0.00,0.00,30.09,M,10.00,M,CLR,M,M,M,M,M,M,M,M,M,M,M,M,M,M,82.04,KHTH 251835Z AUTO 00000KT 10SM CLR 29/09 A3009 RMK A01,M
10U,2023-08-25 18:35,-116.1876,41.9532,1637.00,80.60,41.00,24.46,250.00,15.00,0.00,30.22,M,10.00,21.00,SCT,M,M,M,11000.00,M,M,M,M,M,M,M,M,M,M,79.20,K10U 251835Z AUTO 25015G21KT 10SM SCT110 27/05 A3022 RMK AO2,M
BAM,2023-08-25 18:35,-116.8743,40.5990,1382.36,82.40,51.80,34.69,0.00,0.00,0.00,30.16,M,10.00,M,SCT,M,M,M,8500.00,M,M,M,M,M,M,M,M,M,M,81.20,KBAM 251835Z AUTO 00000KT 10SM SCT085 28/11 A3016 RMK AO1,M
TMT,2023-08-25 18:35,-117.1971,39.4643,1749.34,80.60,49.60,33.91,190.00,13.00,0.00,30.22,M,M,31.00,SCT,M,M,M,7500.00,M,M,M,M,M,M,M,M,M,M,79.84,KTMT 251835Z AUTO 19013G31KT SCT075 27/10 A3022 RMK AO2 T02700098 PWINO,M
05U,2023-08-25 18:50,-116.0051,39.6042,1811.23,80.60,50.00,34.41,M,M,0.00,30.26,M,10.00,M,M,M,M,M,M,M,M,M,M,M,M,M,M,M,M,79.88,K05U 251850Z AUTO 10SM 27/10 A3026 RMK A01,M
P68,2023-08-25 18:53,-116.0056,39.6014,1993.00,81.00,48.00,31.52,190.00,15.00,0.00,30.22,1014.60,M,M,M,M,M,M,M,M,M,M,M,M,M,M,M,M,M,79.92,KP68 251853Z AUTO 19015KT 27/09 A3022 RMK AO1 SLP146 T02720089,M
DRA,2023-08-25 18:53,-116.0278,36.6206,1009.00,91.00,53.00,27.57,200.00,10.00,0.00,30.05,1012.20,10.00,18.00,SCT,BKN,M,M,10000.00,11000.00,M,M,M,M,M,M,M,M,M,88.55,KDRA 251853Z AUTO 20010G18KT 180V240 10SM SCT100 BKN110 33/12 A3005 RMK AO2 SLP122 T03280117,M
ELY,2023-08-25 18:53,-114.8453,39.2950,1909.00,79.00,52.00,39.06,170.00,8.00,0.00,30.28,1015.20,10.00,M,FEW,SCT,BKN,M,8000.00,10000.00,12000.00,M,M,M,M,M,M,M,M,79.00,KELY 251853Z AUTO 17008KT 10SM FEW080 SCT100 BKN120 26/11 A3028 RMK AO2 SLP152 T02610111,M
VGT,2023-08-25 18:53,-115.1933,36.2111,667.00,97.00,58.00,27.46,100.00,4.00,0.00,29.97,1013.60,10.00,M,CLR,M,M,M,M,M,M,M,M,M,M,M,M,M,M,96.30,KVGT 251853Z 10004KT 10SM CLR 36/14 A2997 RMK AO2 SLP136 T03610144,M
LOL,2023-08-25 18:53,-118.5701,40.0684,1192.43,85.00,48.00,27.70,110.00,6.00,0.00,30.07,1013.80,10.00,M,CLR,M,M,M,M,M,M,M,M,M,M,M,M,M,M,82.61,KLOL 251853Z AUTO 11006KT 10SM CLR 29/09 A3007 RMK AO2 SLP138 T02940089 $,M
BVU,2023-08-25 18:55,-114.8611,35.9475,671.00,95.00,57.20,28.37,30.00,5.00,0.00,29.97,M,10.00,M,CLR,M,M,M,M,M,M,M,M,M,M,M,M,M,M,93.82,KBVU 251855Z AUTO 03005KT 10SM CLR 35/14 A2997 RMK AO2,M
CXP,2023-08-25 18:55,-119.7326,39.1923,1431.00,80.60,46.40,30.07,0.00,0.00,0.00,30.13,M,9.00,M,CLR,M,M,M,M,M,M,M,M,M,M,M,M,M,M,79.56,KCXP 251855Z AUTO 00000KT 9SM CLR 27/08 A3013 RMK AO2,M
INS,2023-08-25 18:55,-115.6733,36.5872,955.00,91.80,54.00,27.89,100.00,11.00,0.00,30.03,1011.60,10.00,M,FEW,SCT,M,M,10000.00,14000.00,M,M,M,M,M,M,M,M,M,89.56,KINS 251855Z AUTO 10011KT 10SM FEW100 SCT140 33/12 A3003 RMK AO2 SLP116 T03320122 $,M
RNO,2023-08-25 18:55,-119.7711,39.4839,1341.00,83.00,48.00,29.54,60.00,3.00,0.00,30.10,1013.20,10.00,M,SCT,M,M,M,8000.00,M,M,M,M,M,M,M,M,M,M,81.18,KRNO 251855Z 06003KT 10SM SCT080 28/09 A3010 RMK AO2 SLP132 T02830089,M
LSV,2023-08-25 18:55,-115.0343,36.2362,570.00,101.70,60.30,25.85,60.00,6.00,0.00,29.93,1010.70,10.00,M,CLR,M,M,M,M,M,M,M,M,M,M,M,M,M,M,102.71,KLSV 251855Z AUTO 06006KT 10SM CLR 39/16 A2993 RMK AO2 SLP107 T03870157 $,M
RTS,2023-08-25 18:55,-119.8764,39.6682,1539.00,78.80,44.60,29.79,100.00,4.00,0.00,30.16,M,10.00,13.00,CLR,M,M,M,M,M,M,M,M,M,M,M,M,M,M,78.80,KRTS 251855Z AUTO 10004G13KT 10SM CLR 26/07 A3016 RMK AO2,M
MEV,2023-08-25 18:55,-119.7500,38.9963,1441.42,82.40,41.00,23.07,M,4.00,0.00,30.12,M,10.00,M,CLR,M,M,M,M,M,M,M,M,M,M,M,M,M,M,80.29,KMEV 251855Z AUTO VRB04KT 10SM CLR 28/05 A3012 RMK AO2,M
HTH,2023-08-25 18:55,-118.6315,38.5448,1282.89,86.00,48.20,27.03,M,5.00,0.00,30.08,M,10.00,M,FEW,M,M,M,11000.00,M,M,M,M,M,M,M,M,M,M,83.40,KHTH 251855Z AUTO VRB05KT 10SM FEW110 30/09 A3008 RMK A01,M
BAM,2023-08-25 18:55,-116.8743,40.5990,1382.36,82.40,50.00,32.46,0.00,0.00,0.00,30.16,M,10.00,M,CLR,M,M,M,M,M,M,M,M,M,M,M,M,M,M,80.99,KBAM 251855Z AUTO 00000KT 10SM CLR 28/10 A3016 RMK AO1,M
TMT,2023-08-25 18:55,-117.1971,39.4643,1749.34,80.60,47.00,30.76,200.00,17.00,0.00,30.22,M,M,22.00,SCT,SCT,M,M,7500.00,9000.00,M,M,M,M,M,M,M,M,M,79.61,KTMT 251855Z AUTO 20017G22KT SCT075 SCT090 27/08 A3022 RMK AO2 T02700083 PWINO,M
10U,2023-08-25 18:55,-116.1876,41.9532,1637.00,78.80,41.00,25.95,220.00,14.00,0.00,30.24,M,10.00,22.00,SCT,SCT,M,M,10000.00,12000.00,M,M,M,M,M,M,M,M,M,78.80,K10U 251855Z AUTO 22014G22KT 10SM SCT100 SCT120 26/05 A3024 RMK AO2,M
EKO,2023-08-25 18:56,-115.7860,40.8242,1367.00,75.00,51.00,42.98,0.00,0.00,T,30.22,1017.60,10.00,M,FEW,OVC,M,M,8500.00,11000.00,M,M,M,M,M,M,M,M,M,75.00,KEKO 251856Z AUTO 00000KT 10SM FEW085 OVC110 24/11 A3022 RMK AO2 RAE02 SLP176 P0000 T02390106,M
WMC,2023-08-25 18:56,-117.8072,40.9019,1315.00,86.00,44.00,23.05,M,3.00,0.00,30.11,1014.10,10.00,M,FEW,M,M,M,12000.00,M,M,M,M,M,M,M,M,M,M,83.03,KWMC 251856Z AUTO VRB03KT 10SM FEW120 30/07 A3011 RMK AO2 SLP141 T03000067,M
NFL,2023-08-25 18:56,-118.7010,39.4166,1199.00,84.00,51.00,31.99,330.00,3.00,0.00,30.07,1015.10,10.00,M,SCT,SCT,M,M,6000.00,9000.00,M,M,M,M,M,M,M,M,M,82.22,KNFL 251856Z 33003KT 10SM SCT060 SCT090 29/11 A3007 RMK AO2 SLP151 T02890106,M
HND,2023-08-25 18:56,-115.1344,35.9729,742.79,94.00,60.00,32.34,M,3.00,0.00,30.02,1015.00,10.00,M,CLR,M,M,M,M,M,M,M,M,M,M,M,M,M,M,93.84,KHND 251856Z VRB03KT 10SM CLR 34/16 A3002 RMK AO2 SLP150 T03440156,M
LAS,2023-08-25 18:56,-115.1634,36.0719,663.00,96.00,58.00,28.31,20.00,4.00,0.00,29.99,1012.40,10.00,M,FEW,FEW,M,M,9000.00,15000.00,M,M,M,M,M,M,M,M,M,95.20,KLAS 251856Z 02004KT 10SM FEW090 FEW150 36/14 A2999 RMK AO2 SLP124 T03560144,M
05U,2023-08-25 19:10,-116.0051,39.6042,1811.23,82.40,48.20,30.35,M,M,0.00,30.25,M,10.00,M,M,M,M,M,M,M,M,M,M,M,M,M,M,M,M,80.80,K05U 251910Z AUTO 10SM 28/09 A3025 RMK A01,M
HTH,2023-08-25 19:10,-118.6315,38.5448,1282.89,84.20,50.00,30.62,350.00,5.00,0.00,30.07,M,10.00,M,FEW,M,M,M,11000.00,M,M,M,M,M,M,M,M,M,M,82.24,KHTH 251910Z AUTO 35005KT 10SM FEW110 29/10 A3007 RMK A01,M
BVU,2023-08-25 19:15,-114.8611,35.9475,671.00,96.80,55.40,25.15,M,6.00,0.00,29.96,M,10.00,M,CLR,M,M,M,M,M,M,M,M,M,M,M,M,M,M,95.14,KBVU 251915Z AUTO VRB06KT 10SM CLR 36/13 A2996 RMK AO2,M
CXP,2023-08-25 19:15,-119.7326,39.1923,1431.00,82.40,44.60,26.49,70.00,7.00,0.00,30.12,M,8.00,M,CLR,M,M,M,M,M,M,M,M,M,M,M,M,M,M,80.50,KCXP 251915Z AUTO 07007KT 040V110 8SM CLR 28/07 A3012 RMK AO2,M
RTS,2023-08-25 19:15,-119.8764,39.6682,1539.00,80.60,42.80,26.22,170.00,7.00,0.00,30.15,M,10.00,16.00,FEW,M,M,M,7000.00,M,M,M,M,M,M,M,M,M,M,79.30,KRTS 251915Z AUTO 17007G16KT 10SM FEW070 27/06 A3015 RMK AO2,M
MEV,2023-08-25 19:15,-119.7500,38.9963,1441.42,82.40,42.80,24.72,M,4.00,0.00,30.11,M,10.00,M,CLR,M,M,M,M,M,M,M,M,M,M,M,M,M,M,80.39,KMEV 251915Z AUTO VRB04KT 10SM CLR 28/06 A3011 RMK AO2,M
10U,2023-08-25 19:15,-116.1876,41.9532,1637.00,77.00,41.00,27.53,200.00,9.00,0.00,30.23,M,10.00,18.00,FEW,FEW,SCT,M,5000.00,6000.00,11000.00,M,M,M,M,M,M,M,M,77.00,K10U 251915Z AUTO 20009G18KT 10SM FEW050 FEW060 SCT110 25/05 A3023 RMK AO2,M
BAM,2023-08-25 19:15,-116.8743,40.5990,1382.36,86.00,50.00,28.90,0.00,0.00,0.00,30.15,M,10.00,M,CLR,M,M,M,M,M,M,M,M,M,M,M,M,M,M,83.62,KBAM 251915Z AUTO 00000KT 10SM CLR 30/10 A3015 RMK AO1,M
TMT,2023-08-25 19:15,-117.1971,39.4643,1749.34,81.00,48.20,31.76,190.00,12.00,0.00,30.21,M,M,18.00,SCT,M,M,M,7500.00,M,M,M,M,M,M,M,M,M,M,79.94,KTMT 251915Z AUTO 19012G18KT SCT075 27/09 A3021 RMK AO2 T02720090 PWINO,M
05U,2023-08-25 19:30,-116.0051,39.6042,1811.23,80.60,48.20,32.18,M,M,0.00,30.25,M,10.00,M,M,M,M,M,M,M,M,M,M,M,M,M,M,M,M,79.71,K05U 251930Z AUTO 10SM 27/09 A3025 RMK A01,M
CXP,2023-08-25 19:35,-119.7326,39.1923,1431.00,82.40,44.60,26.49,M,5.00,0.00,30.12,M,10.00,M,CLR,M,M,M,M,M,M,M,M,M,M,M,M,M,M,80.50,KCXP 251935Z AUTO VRB05KT 10SM CLR 28/07 A3012 RMK AO2,M
RTS,2023-08-25 19:35,-119.8764,39.6682,1539.00,82.40,41.00,23.07,190.00,6.00,0.00,30.15,M,10.00,21.00,CLR,M,M,M,M,M,M,M,M,M,M,M,M,M,M,80.29,KRTS 251935Z AUTO 19006G21KT 10SM CLR 28/05 A3015 RMK AO2,M
MEV,2023-08-25 19:35,-119.7500,38.9963,1441.42,82.40,42.80,24.72,M,6.00,0.00,30.10,M,9.00,M,CLR,M,M,M,M,M,M,M,M,M,M,M,M,M,M,80.39,KMEV 251935Z AUTO VRB06KT 9SM CLR 28/06 A3010 RMK AO2,M
HTH,2023-08-25 19:35,-118.6315,38.5448,1282.89,87.80,44.60,22.27,160.00,8.00,0.00,30.06,M,10.00,17.00,FEW,FEW,M,M,9000.00,11000.00,M,M,M,M,M,M,M,M,M,84.53,KHTH 251935Z AUTO 16008G17KT 10SM FEW090 FEW110 31/07 A3006 RMK A01,M
10U,2023-08-25 19:35,-116.1876,41.9532,1637.00,77.00,42.80,29.51,190.00,8.00,0.00,30.23,M,10.00,14.00,FEW,OVC,M,M,6000.00,11000.00,M,M,M,M,M,M,M,M,M,77.00,K10U 251935Z AUTO 19008G14KT 10SM FEW060 OVC110 25/06 A3023 RMK AO2,M
BAM,2023-08-25 19:35,-116.8743,40.5990,1382.36,86.00,50.00,28.90,280.00,8.00,0.00,30.13,M,10.00,M,CLR,M,M,M,M,M,M,M,M,M,M,M,M,M,M,83.62,KBAM 251935Z AUTO 28008KT 250V010 10SM CLR 30/10 A3013 RMK AO1,M
TMT,2023-08-25 19:35,-117.1971,39.4643,1749.34,81.70,47.30,30.01,210.00,18.00,0.00,30.21,M,M,22.00,SCT,M,M,M,7500.00,M,M,M,M,M,M,M,M,M,M,80.28,KTMT 251935Z AUTO 21018G22KT SCT075 28/09 A3021 RMK AO2 T02760085 PWINO,M
05U,2023-08-25 19:50,-116.0051,39.6042,1811.23,84.20,41.00,21.76,M,M,0.00,30.24,M,10.00,M,M,M,M,M,M,M,M,M,M,M,M,M,M,M,M,81.52,K05U 251950Z AUTO 10SM 29/05 A3024 RMK A01,M
P68,2023-08-25 19:53,-116.0056,39.6014,1993.00,83.00,41.00,22.62,210.00,16.00,0.00,30.22,1014.10,M,25.00,M,M,M,M,M,M,M,M,M,M,M,M,M,M,M,80.69,KP68 251953Z AUTO 21016G25KT 28/05 A3022 RMK AO1 SLP141 T02830050,M
DRA,2023-08-25 19:53,-116.0278,36.6206,1009.00,96.00,53.00,23.61,220.00,13.00,0.00,30.03,1011.30,10.00,25.00,FEW,M,M,M,11000.00,M,M,M,M,M,M,M,29.00,210.00,2023-08-25 19:41,93.59,KDRA 251953Z AUTO 22013G25KT 10SM FEW110 36/12 A3003 RMK AO2 PK WND 21029/1941 SLP113 T03560117,M
ELY,2023-08-25 19:53,-114.8453,39.2950,1909.00,80.00,48.00,32.57,200.00,10.00,0.00,30.26,1014.80,10.00,18.00,FEW,M,M,M,8000.00,M,M,M,M,M,M,M,M,M,M,79.37,KELY 251953Z AUTO 20010G18KT 10SM FEW080 27/09 A3026 RMK AO2 SLP148 T02670089,M
VGT,2023-08-25 19:53,-115.1933,36.2111,667.00,98.00,56.00,24.78,140.00,5.00,0.00,29.96,1012.90,10.00,15.00,CLR,M,M,M,M,M,M,M,M,M,M,M,M,M,M,96.65,KVGT 251953Z 14005G15KT 10SM CLR 37/13 A2996 RMK AO2 SLP129 T03670133,M
LOL,2023-08-25 19:53,-118.5701,40.0684,1192.43,86.00,48.00,26.82,230.00,5.00,0.00,30.06,1013.30,10.00,M,FEW,M,M,M,8500.00,M,M,M,M,M,M,M,M,M,M,83.38,KLOL 251953Z AUTO 23005KT 10SM FEW085 30/09 A3006 RMK AO2 SLP133 T03000089 $,M
CXP,2023-08-25 19:55,-119.7326,39.1923,1431.00,84.20,44.60,24.99,0.00,0.00,0.00,30.11,M,10.00,M,CLR,M,M,M,M,M,M,M,M,M,M,M,M,M,M,81.73,KCXP 251955Z AUTO 00000KT 10SM CLR 29/07 A3011 RMK AO2,M
INS,2023-08-25 19:55,-115.6733,36.5872,955.00,91.80,53.00,26.89,130.00,7.00,0.00,30.01,1011.10,10.00,M,BKN,BKN,M,M,10000.00,13000.00,M,M,M,M,M,M,M,M,M,89.33,KINS 251955Z AUTO 13007KT 10SM BKN100 BKN130 33/12 A3001 RMK AO2 SLP111 T03320116 $,M
RNO,2023-08-25 19:55,-119.7711,39.4839,1341.00,87.00,44.00,22.33,60.00,4.00,0.00,30.08,1012.20,10.00,14.00,BKN,M,M,M,9000.00,M,M,M,M,M,M,M,M,M,M,83.82,KRNO 251955Z 06004G14KT 10SM BKN090 31/07 A3008 RMK AO2 SLP122 T03060067,M
RTS,2023-08-25 19:55,-119.8764,39.6682,1539.00,80.60,41.00,24.46,M,5.00,0.00,30.14,M,10.00,12.00,BKN,BKN,M,M,8000.00,9500.00,M,M,M,M,M,M,M,M,M,79.20,KRTS 251955Z AUTO VRB05G12KT 10SM BKN080 BKN095 27/05 A3014 RMK AO2,M
MEV,2023-08-25 19:55,-119.7500,38.9963,1441.42,84.20,42.80,23.33,0.00,0.00,0.00,30.10,M,10.00,10.00,CLR,M,M,M,M,M,M,M,M,M,M,M,M,M,M,81.61,KMEV 251955Z AUTO 00000G10KT 10SM CLR 29/06 A3010 RMK AO2,M
HTH,2023-08-25 19:55,-118.6315,38.5448,1282.89,89.60,41.00,18.33,130.00,10.00,0.00,30.05,M,10.00,16.00,SCT,M,M,M,11000.00,M,M,M,M,M,M,M,M,M,M,85.82,KHTH 251955Z AUTO 13010G16KT 10SM SCT110 32/05 A3005 RMK A01,M
BAM,2023-08-25 19:55,-116.8743,40.5990,1382.36,87.80,50.00,27.29,90.00,7.00,0.00,30.13,M,10.00,M,CLR,M,M,M,M,M,M,M,M,M,M,M,M,M,M,85.11,KBAM 251955Z AUTO 09007KT 10SM CLR 31/10 A3013 RMK AO1,M
TMT,2023-08-25 19:55,-117.1971,39.4643,1749.34,83.30,48.20,29.47,200.00,15.00,0.00,30.20,M,M,29.00,CLR,M,M,M,M,M,M,M,M,M,M,M,M,M,M,81.40,KTMT 251955Z AUTO 20015G29KT CLR 29/09 A3020 RMK AO2 LTG DSNT SE T02850090 PWINO,M
10U,2023-08-25 19:55,-116.1876,41.9532,1637.00,77.00,42.80,29.51,200.00,8.00,0.00,30.22,M,10.00,M,OVC,M,M,M,9500.00,M,M,M,M,M,M,M,M,M,M,77.00,K10U 251955Z AUTO 20008KT 170V230 10SM OVC095 25/06 A3022 RMK AO2,M
LSV,2023-08-25 19:55,-115.0343,36.2362,570.00,103.50,58.30,22.81,180.00,9.00,0.00,29.91,1010.00,10.00,M,CLR,M,M,M,M,M,M,M,M,M,M,M,M,M,M,103.76,KLSV 251955Z AUTO 18009KT 10SM CLR 40/15 A2991 RMK AO2 SLP100 T03970146 $,M
EKO,2023-08-25 19:56,-115.7860,40.8242,1367.00,82.00,52.00,35.41,360.00,6.00,0.00,30.19,1016.30,10.00,M,CLR,M,M,M,M,M,M,M,M,M,M,M,M,M,M,80.97,KEKO 251956Z AUTO 36006KT 10SM CLR 28/11 A3019 RMK AO2 SLP163 T02780111,M
WMC,2023-08-25 19:56,-117.8072,40.9019,1315.00,89.00,43.00,20.17,160.00,7.00,0.00,30.09,1013.50,10.00,M,CLR,M,M,M,M,M,M,M,M,M,M,M,M,M,M,85.42,KWMC 251956Z AUTO 16007KT 10SM CLR 32/06 A3009 RMK AO2 SLP135 T03170061,M
NFL,2023-08-25 19:56,-118.7010,39.4166,1199.00,88.00,52.00,29.21,0.00,0.00,0.00,30.05,1014.50,10.00,M,SCT,SCT,M,M,6000.00,9000.00,M,M,M,M,M,M,M,M,M,85.60,KNFL 251956Z 00000KT 10SM SCT060 SCT090 31/11 A3005 RMK AO2 SLP145 T03110111,M
HND,2023-08-25 19:56,-115.1344,35.9729,742.79,97.00,59.00,28.46,0.00,0.00,0.00,30.00,1014.10,10.00,M,CLR,M,M,M,M,M,M,M,M,M,M,M,M,M,M,96.72,KHND 251956Z 00000KT 10SM CLR 36/15 A3000 RMK AO2 SLP141 T03610150,M
LAS,2023-08-25 19:56,-115.1634,36.0719,663.00,97.00,57.00,26.49,330.00,5.00,0.00,29.96,1011.60,10.00,M,FEW,SCT,M,M,9000.00,15000.00,M,M,M,M,M,M,M,M,M,95.92,KLAS 251956Z 33005KT 10SM FEW090 SCT150 36/14 A2996 RMK AO2 SLP116 CB DSNT E T03610139,M
BVU,2023-08-25 20:15,-114.8611,35.9475,671.00,98.60,53.60,22.29,0.00,0.00,0.00,29.93,M,10.00,M,CLR,M,M,M,M,M,M,M,M,M,M,M,M,M,M,96.51,KBVU 252015Z AUTO 00000KT 10SM CLR 37/12 A2993 RMK AO2,M
CXP,2023-08-25 20:15,-119.7326,39.1923,1431.00,84.20,44.60,24.99,0.00,0.00,0.00,30.10,M,10.00,10.00,CLR,M,M,M,M,M,M,M,M,M,M,M,M,M,M,81.73,KCXP 252015Z AUTO 00000G10KT 10SM CLR 29/07 A3010 RMK AO2,M
RTS,2023-08-25 20:15,-119.8764,39.6682,1539.00,80.60,41.00,24.46,230.00,7.00,0.00,30.14,M,10.00,12.00,BKN,M,M,M,8500.00,M,M,M,M,M,M,M,M,M,M,79.20,KRTS 252015Z AUTO 23007G12KT 200V270 10SM BKN085 27/05 A3014 RMK AO2,M
05U,2023-08-25 20:15,-116.0051,39.6042,1811.23,86.00,41.00,20.54,M,M,0.00,30.24,M,10.00,M,M,M,M,M,M,M,M,M,M,M,M,M,M,M,M,82.86,K05U 252015Z AUTO 10SM 30/05 A3024 RMK A01,M
MEV,2023-08-25 20:15,-119.7500,38.9963,1441.42,84.20,42.80,23.33,M,4.00,0.00,30.09,M,9.00,M,CLR,M,M,M,M,M,M,M,M,M,M,M,M,M,M,81.61,KMEV 252015Z AUTO VRB04KT 9SM CLR 29/06 A3009 RMK AO2,M
HTH,2023-08-25 20:15,-118.6315,38.5448,1282.89,89.60,42.80,19.64,140.00,14.00,0.00,30.04,M,10.00,22.00,SCT,M,M,M,11000.00,M,M,M,M,M,M,M,M,M,M,85.93,KHTH 252015Z AUTO 14014G22KT 10SM SCT110 32/06 A3004 RMK A01,M
10U,2023-08-25 20:15,-116.1876,41.9532,1637.00,77.00,41.00,27.53,190.00,7.00,0.00,30.22,M,10.00,M,OVC,M,M,M,10000.00,M,M,M,M,M,M,M,M,M,M,77.00,K10U 252015Z AUTO 19007KT 10SM OVC100 25/05 A3022 RMK AO2,M
BAM,2023-08-25 20:15,-116.8743,40.5990,1382.36,89.60,50.00,25.79,110.00,7.00,0.00,30.12,M,10.00,M,SCT,M,M,M,10000.00,M,M,M,M,M,M,M,M,M,M,86.70,KBAM 252015Z AUTO 11007KT 100V160 10SM SCT100 32/10 A3012 RMK AO1,M
TMT,2023-08-25 20:15,-117.1971,39.4643,1749.34,82.40,48.70,30.92,170.00,15.00,0.00,30.20,M,M,M,CLR,M,M,M,M,M,M,M,M,M,M,M,M,M,M,80.85,KTMT 252015Z AUTO 17015KT CLR 28/09 A3020 RMK AO2 T02800093 PWINO,M
05U,2023-08-25 20:30,-116.0051,39.6042,1811.23,86.00,41.00,20.54,M,M,0.00,30.23,M,10.00,M,M,M,M,M,M,M,M,M,M,M,M,M,M,M,M,82.86,K05U 252030Z AUTO 10SM 30/05 A3023 RMK A01,M
BVU,2023-08-25 20:35,-114.8611,35.9475,671.00,98.60,53.60,22.29,M,4.00,0.00,29.93,M,10.00,M,CLR,M,M,M,M,M,M,M,M,M,M,M,M,M,M,96.51,KBVU 252035Z AUTO VRB04KT 10SM CLR 37/12 A2993 RMK AO2,M
CXP,2023-08-25 20:35,-119.7326,39.1923,1431.00,84.20,42.80,23.33,90.00,7.00,0.00,30.10,M,10.00,M,CLR,M,M,M,M,M,M,M,M,M,M,M,M,M,M,81.61,KCXP 252035Z AUTO 09007KT 10SM CLR 29/06 A3010 RMK AO2,M
RTS,2023-08-25 20:35,-119.8764,39.6682,1539.00,82.40,41.00,23.07,240.00,9.00,0.00,30.13,M,10.00,M,SCT,SCT,M,M,9000.00,11000.00,M,M,M,M,M,M,M,M,M,80.29,KRTS 252035Z AUTO 24009KT 10SM SCT090 SCT110 28/05 A3013 RMK AO2,M
MEV,2023-08-25 20:35,-119.7500,38.9963,1441.42,86.00,44.60,23.59,240.00,5.00,0.00,30.09,M,9.00,12.00,CLR,M,M,M,M,M,M,M,M,M,M,M,M,M,M,83.07,KMEV 252035Z AUTO 24005G12KT 9SM CLR 30/07 A3009 RMK AO2,M
HTH,2023-08-25 20:35,-118.6315,38.5448,1282.89,91.40,35.60,14.02,150.00,11.00,0.00,30.04,M,10.00,22.00,FEW,M,M,M,11000.00,M,M,M,M,M,M,M,M,M,M,87.17,KHTH 252035Z AUTO 15011G22KT 10SM FEW110 33/02 A3004 RMK A01,M
10U,2023-08-25 20:35,-116.1876,41.9532,1637.00,77.00,42.80,29.51,180.00,6.00,0.00,30.22,M,10.00,M,BKN,M,M,M,11000.00,M,M,M,M,M,M,M,M,M,M,77.00,K10U 252035Z AUTO 18006KT 10SM BKN110 25/06 A3022 RMK AO2,M
BAM,2023-08-25 20:35,-116.8743,40.5990,1382.36,89.60,48.20,24.11,170.00,9.00,0.00,30.11,M,10.00,17.00,SCT,M,M,M,10000.00,M,M,M,M,M,M,M,M,M,M,86.44,KBAM 252035Z AUTO 17009G17KT 10SM SCT100 32/09 A3011 RMK AO1,M
TMT,2023-08-25 20:35,-117.1971,39.4643,1749.34,84.00,47.00,27.55,190.00,19.00,0.00,30.20,M,M,24.00,SCT,M,M,M,8000.00,M,M,M,M,M,M,M,M,M,M,81.78,KTMT 252035Z AUTO 19019G24KT SCT080 29/08 A3020 RMK AO2 T02880084 PWINO,M
P68,2023-08-25 20:53,-116.0056,39.6014,1993.00,84.00,42.00,22.77,210.00,19.00,0.00,30.19,1013.40,M,25.00,M,M,M,M,M,M,M,M,M,M,M,M,27.00,190.00,2023-08-25 19:58,81.42,KP68 252053Z AUTO 21019G25KT 29/06 A3019 RMK AO1 PK WND 19027/1958 SLP134 T02890056 56016,M
DRA,2023-08-25 20:53,-116.0278,36.6206,1009.00,97.00,50.00,20.49,230.00,16.00,0.00,30.01,1010.70,10.00,25.00,CLR,M,M,M,M,M,M,M,M,M,M,M,27.00,180.00,2023-08-25 20:04,93.91,KDRA 252053Z AUTO 23016G25KT 10SM CLR 36/10 A3001 RMK AO2 PK WND 18027/2004 SLP107 T03610100 58015,M
ELY,2023-08-25 20:53,-114.8453,39.2950,1909.00,83.00,48.00,29.54,180.00,10.00,0.00,30.25,1014.30,10.00,18.00,FEW,M,M,M,9000.00,M,M,M,M,M,M,M,M,M,M,81.18,KELY 252053Z AUTO 18010G18KT 10SM FEW090 28/09 A3025 RMK AO2 SLP143 T02830089 58009,M
VGT,2023-08-25 20:53,-115.1933,36.2111,667.00,100.00,56.00,23.32,150.00,8.00,0.00,29.93,1012.10,10.00,M,CLR,M,M,M,M,M,M,M,M,M,M,M,M,M,M,98.84,KVGT 252053Z 15008KT 10SM CLR 38/13 A2993 RMK AO2 SLP121 T03780133 58019,M
LOL,2023-08-25 20:53,-118.5701,40.0684,1192.43,88.00,49.00,26.13,M,5.00,0.00,30.04,1012.70,10.00,M,FEW,M,M,M,9000.00,M,M,M,M,M,M,M,M,M,M,85.14,KLOL 252053Z AUTO VRB05KT 10SM FEW090 31/09 A3004 RMK AO2 SLP127 T03110094 58014,M
BVU,2023-08-25 20:55,-114.8611,35.9475,671.00,100.40,51.80,19.76,150.00,6.00,0.00,29.92,M,10.00,15.00,CLR,M,M,M,M,M,M,M,M,M,M,M,M,M,M,97.90,KBVU 252055Z AUTO 15006G15KT 10SM CLR 38/11 A2992 RMK AO2,M
CXP,2023-08-25 20:55,-119.7326,39.1923,1431.00,87.80,42.80,20.79,200.00,6.00,0.00,30.09,M,10.00,M,CLR,M,M,M,M,M,M,M,M,M,M,M,M,M,M,84.40,KCXP 252055Z AUTO 20006KT 10SM CLR 31/06 A3009 RMK AO2,M
INS,2023-08-25 20:55,-115.6733,36.5872,955.00,94.00,53.00,25.11,0.00,0.00,0.00,29.99,1010.30,10.00,M,FEW,BKN,M,M,9000.00,13000.00,M,M,M,M,M,M,M,M,M,91.53,KINS 252055Z AUTO 00000KT 10SM FEW090 BKN130 35/12 A2999 RMK AO2 SLP103 T03450116 57017 $,M
RNO,2023-08-25 20:55,-119.7711,39.4839,1341.00,89.00,42.00,19.41,210.00,10.00,0.00,30.06,1011.50,10.00,M,BKN,M,M,M,9000.00,M,M,M,M,M,M,M,M,M,M,85.36,KRNO 252055Z 21010KT 10SM BKN090 32/06 A3006 RMK AO2 SLP115 T03170056 58018,M
LSV,2023-08-25 20:55,-115.0343,36.2362,570.00,106.00,56.70,19.99,330.00,5.00,0.00,29.88,1008.90,10.00,M,CLR,M,M,M,M,M,M,M,M,M,M,M,M,M,M,105.78,KLSV 252055Z AUTO 33005KT 10SM CLR 41/14 A2988 RMK AO2 SLP089 T04120137 57021 $,M
RTS,2023-08-25 20:55,-119.8764,39.6682,1539.00,82.40,39.20,21.51,200.00,6.00,0.00,30.13,M,10.00,17.00,SCT,SCT,M,M,9000.00,11000.00,M,M,M,M,M,M,M,M,M,80.21,KRTS 252055Z AUTO 20006G17KT 10SM SCT090 SCT110 28/04 A3013 RMK AO2,M
05U,2023-08-25 20:55,-116.0051,39.6042,1811.23,86.00,42.80,22.02,M,M,0.00,30.23,M,10.00,M,M,M,M,M,M,M,M,M,M,M,M,M,M,M,M,82.95,K05U 252055Z AUTO 10SM 30/06 A3023 RMK A01,M
MEV,2023-08-25 20:55,-119.7500,38.9963,1441.42,86.00,42.80,22.02,250.00,4.00,0.00,30.08,M,9.00,13.00,CLR,M,M,M,M,M,M,M,M,M,M,M,M,M,M,82.95,KMEV 252055Z AUTO 25004G13KT 9SM CLR 30/06 A3008 RMK AO2,M
HTH,2023-08-25 20:55,-118.6315,38.5448,1282.89,89.60,41.00,18.33,130.00,13.00,0.00,30.03,M,10.00,20.00,FEW,M,M,M,11000.00,M,M,M,M,M,M,M,M,M,M,85.82,KHTH 252055Z AUTO 13013G20KT 10SM FEW110 32/05 A3003 RMK A01,M
BAM,2023-08-25 20:55,-116.8743,40.5990,1382.36,87.80,51.80,29.18,260.00,19.00,0.00,30.12,M,10.00,24.00,BKN,M,M,M,9000.00,M,M,M,M,M,M,M,M,M,M,85.39,KBAM 252055Z AUTO 26019G24KT 10SM BKN090 31/11 A3012 RMK AO1,M
TMT,2023-08-25 20:55,-117.1971,39.4643,1749.34,82.60,47.50,29.37,200.00,11.00,0.00,30.19,M,M,20.00,SCT,M,M,M,12000.00,M,M,M,M,M,M,M,M,M,M,80.87,KTMT 252055Z AUTO 20011G20KT SCT120 28/09 A3019 RMK AO2 T02810086 PWINO,M
10U,2023-08-25 20:55,-116.1876,41.9532,1637.00,78.80,42.80,27.81,190.00,7.00,0.00,30.21,M,10.00,M,SCT,M,M,M,12000.00,M,M,M,M,M,M,M,M,M,M,78.80,K10U 252055Z AUTO 19007KT 10SM SCT120 26/06 A3021 RMK AO2,M
EKO,2023-08-25 20:56,-115.7860,40.8242,1367.00,86.00,52.00,31.13,M,3.00,0.00,30.16,1015.00,10.00,M,CLR,M,M,M,M,M,M,M,M,M,M,M,M,M,M,83.91,KEKO 252056Z AUTO VRB03KT 10SM CLR 30/11 A3016 RMK AO2 SLP150 60000 T03000111 58019,M
WMC,2023-08-25 20:56,-117.8072,40.9019,1315.00,91.00,42.00,18.23,160.00,9.00,0.00,30.07,1012.80,10.00,17.00,CLR,M,M,M,M,M,M,M,M,M,M,M,M,M,M,87.11,KWMC 252056Z AUTO 16009G17KT 10SM CLR 33/06 A3007 RMK AO2 SLP128 T03280056 58015,M
NFL,2023-08-25 20:56,-118.7010,39.4166,1199.00,89.00,49.00,25.32,M,3.00,0.00,30.02,1013.70,10.00,M,SCT,SCT,M,M,6000.00,9000.00,M,M,M,M,M,M,M,M,M,86.01,KNFL 252056Z VRB03KT 10SM SCT060 SCT090 32/09 A3002 RMK AO2 SLP137 T03170094 58018,M
HND,2023-08-25 20:56,-115.1344,35.9729,742.79,96.00,59.00,29.34,220.00,3.00,0.00,29.98,1013.40,10.00,M,FEW,M,M,M,9500.00,M,M,M,M,M,M,M,M,M,M,95.61,KHND 252056Z 22003KT 10SM FEW095 36/15 A2998 RMK AO2 SLP134 T03560150 58019,M
LAS,2023-08-25 20:56,-115.1634,36.0719,663.00,99.00,57.00,24.92,320.00,3.00,0.00,29.94,1010.70,10.00,M,FEW,SCT,M,M,9000.00,15000.00,M,M,M,M,M,M,M,M,M,98.12,KLAS 252056Z 32003KT 10SM FEW090 SCT150 37/14 A2994 RMK AO2 SLP107 T03720139 58020,M
05U,2023-08-25 21:10,-116.0051,39.6042,1811.23,84.20,42.80,23.33,M,M,0.00,30.23,M,10.00,M,M,M,M,M,M,M,M,M,M,M,M,M,M,M,M,81.61,K05U 252110Z AUTO 10SM 29/06 A3023 RMK A01,M
BVU,2023-08-25 21:15,-114.8611,35.9475,671.00,100.40,53.60,21.11,M,4.00,0.00,29.91,M,10.00,10.00,CLR,M,M,M,M,M,M,M,M,M,M,M,M,M,M,98.44,KBVU 252115Z AUTO VRB04G10KT 10SM CLR 38/12 A2991 RMK AO2,M
CXP,2023-08-25 21:15,-119.7326,39.1923,1431.00,86.00,42.80,22.02,0.00,0.00,0.00,30.08,M,9.00,M,CLR,M,M,M,M,M,M,M,M,M,M,M,M,M,M,82.95,KCXP 252115Z AUTO 00000KT 9SM CLR 30/06 A3008 RMK AO2,M
RTS,2023-08-25 21:15,-119.8764,39.6682,1539.00,82.40,39.20,21.51,170.00,9.00,0.00,30.12,M,10.00,14.00,FEW,M,M,M,9500.00,M,M,M,M,M,M,M,M,M,M,80.21,KRTS 252115Z AUTO 17009G14KT 10SM FEW095 28/04 A3012 RMK AO2,M
MEV,2023-08-25 21:15,-119.7500,38.9963,1441.42,86.00,44.60,23.59,280.00,7.00,0.00,30.07,M,9.00,M,CLR,M,M,M,M,M,M,M,M,M,M,M,M,M,M,83.07,KMEV 252115Z AUTO 28007KT 9SM CLR 30/07 A3007 RMK AO2,M
HTH,2023-08-25 21:15,-118.6315,38.5448,1282.89,91.40,37.40,15.05,130.00,15.00,0.00,30.02,M,10.00,M,FEW,M,M,M,11000.00,M,M,M,M,M,M,M,M,M,M,87.23,KHTH 252115Z AUTO 13015KT 10SM FEW110 33/03 A3002 RMK A01,M
10U,2023-08-25 21:15,-116.1876,41.9532,1637.00,80.60,42.80,26.22,80.00,5.00,0.00,30.20,M,10.00,M,CLR,M,M,M,M,M,M,M,M,M,M,M,M,M,M,79.30,K10U 252115Z AUTO 08005KT 10SM CLR 27/06 A3020 RMK AO2,M
BAM,2023-08-25 21:15,-116.8743,40.5990,1382.36,80.60,51.80,36.79,280.00,7.00,0.00,30.11,M,10.00,22.00,SCT,SCT,BKN,M,3600.00,6500.00,9000.00,M,M,M,M,M,M,M,M,80.08,KBAM 252115Z AUTO 28007G22KT 10SM SCT036 SCT065 BKN090 27/11 A3011 RMK AO1,M
TMT,2023-08-25 21:15,-117.1971,39.4643,1749.34,84.00,48.00,28.60,190.00,12.00,0.00,30.18,M,M,21.00,CLR,M,M,M,M,M,M,M,M,M,M,M,M,M,M,81.87,KTMT 252115Z AUTO 19012G21KT CLR 29/09 A3018 RMK AO2 LTG DSNT SE T02880089 PWINO,M
BVU,2023-08-25 21:35,-114.8611,35.9475,671.00,102.20,51.80,18.72,160.00,6.00,0.00,29.90,M,10.00,13.00,CLR,M,M,M,M,M,M,M,M,M,M,M,M,M,M,99.80,KBVU 252135Z AUTO 16006G13KT 10SM CLR 39/11 A2990 RMK AO2,M
CXP,2023-08-25 21:35,-119.7326,39.1923,1431.00,87.80,41.00,19.40,0.00,0.00,0.00,30.08,M,9.00,M,SCT,SCT,M,M,10000.00,12000.00,M,M,M,M,M,M,M,M,M,84.30,KCXP 252135Z AUTO 00000KT 9SM SCT100 SCT120 31/05 A3008 RMK AO2,M
RTS,2023-08-25 21:35,-119.8764,39.6682,1539.00,82.40,37.40,20.04,110.00,6.00,0.00,30.11,M,10.00,M,CLR,M,M,M,M,M,M,M,M,M,M,M,M,M,M,80.14,KRTS 252135Z AUTO 11006KT 10SM CLR 28/03 A3011 RMK AO2,M
05U,2023-08-25 21:35,-116.0051,39.6042,1811.23,86.00,44.60,23.59,M,M,0.00,30.21,M,10.00,M,M,M,M,M,M,M,M,M,M,M,M,M,M,M,M,83.07,K05U 252135Z AUTO 10SM 30/07 A3021 RMK A01,M
MEV,2023-08-25 21:35,-119.7500,38.9963,1441.42,86.00,42.80,22.02,310.00,7.00,0.00,30.07,M,9.00,M,CLR,M,M,M,M,M,M,M,M,M,M,M,M,M,M,82.95,KMEV 252135Z AUTO 31007KT 9SM CLR 30/06 A3007 RMK AO2,M
HTH,2023-08-25 21:35,-118.6315,38.5448,1282.89,93.20,33.80,12.34,170.00,16.00,0.00,30.01,M,10.00,22.00,CLR,M,M,M,M,M,M,M,M,M,M,M,M,M,M,88.55,KHTH 252135Z AUTO 17016G22KT 10SM CLR 34/01 A3001 RMK A01,M
10U,2023-08-25 21:35,-116.1876,41.9532,1637.00,80.60,42.80,26.22,160.00,7.00,0.00,30.19,M,10.00,14.00,CLR,M,M,M,M,M,M,M,M,M,M,M,M,M,M,79.30,K10U 252135Z AUTO 16007G14KT 140V200 10SM CLR 27/06 A3019 RMK AO2,M
BAM,2023-08-25 21:35,-116.8743,40.5990,1382.36,86.00,50.00,28.90,260.00,7.00,0.00,30.11,M,10.00,M,SCT,M,M,M,11000.00,M,M,M,M,M,M,M,M,M,M,83.62,KBAM 252135Z AUTO 26007KT 10SM SCT110 30/10 A3011 RMK AO1,M
TMT,2023-08-25 21:35,-117.1971,39.4643,1749.34,84.00,46.00,26.52,210.00,14.00,0.00,30.18,M,M,20.00,CLR,M,M,M,M,M,M,M,M,M,M,M,M,M,M,81.69,KTMT 252135Z AUTO 21014G20KT CLR 29/08 A3018 RMK AO2 T02890078 PWINO,M
05U,2023-08-25 21:50,-116.0051,39.6042,1811.23,87.80,44.60,22.27,M,M,0.00,30.20,M,10.00,M,M,M,M,M,M,M,M,M,M,M,M,M,M,M,M,84.53,K05U 252150Z AUTO 10SM 31/07 A3020 RMK A01,M
INS,2023-08-25 21:52,-115.6733,36.5872,955.00,93.20,51.80,24.63,130.00,12.00,0.00,29.97,1009.70,10.00,17.00,SCT,M,M,M,9500.00,M,M,M,M,M,M,M,M,M,M,90.45,KINS 252152Z AUTO 13012G17KT 10SM SCT095 34/11 A2997 RMK AO2 WSHFT 48 SLP097 $,M
P68,2023-08-25 21:53,-116.0056,39.6014,1993.00,85.00,44.00,23.80,200.00,11.00,0.00,30.17,1012.70,M,18.00,M,M,M,M,M,M,M,M,M,M,M,M,M,M,M,82.27,KP68 252153Z AUTO 20011G18KT 29/07 A3017 RMK AO1 SLP127 T02940067,M
DRA,2023-08-25 21:53,-116.0278,36.6206,1009.00,97.00,48.00,19.02,230.00,15.00,0.00,29.99,1010.20,10.00,26.00,CLR,M,M,M,M,M,M,M,M,M,M,M,27.00,210.00,2023-08-25 21:15,93.52,KDRA 252153Z AUTO 23015G26KT 10SM CLR 36/09 A2999 RMK AO2 PK WND 21027/2115 SLP102 T03610089,M
ELY,2023-08-25 21:53,-114.8453,39.2950,1909.00,79.00,47.00,32.41,180.00,6.00,0.00,30.23,1013.90,10.00,M,BKN,M,M,M,9000.00,M,M,M,M,M,M,M,M,M,M,79.00,KELY 252153Z AUTO 18006KT 10SM BKN090 26/08 A3023 RMK AO2 SLP139 T02610083,M
VGT,2023-08-25 21:53,-115.1933,36.2111,667.00,101.00,56.00,22.63,M,3.00,0.00,29.90,1011.10,10.00,M,CLR,M,M,M,M,M,M,M,M,M,M,M,M,M,M,99.95,KVGT 252153Z VRB03KT 10SM CLR 38/13 A2990 RMK AO2 SLP111 T03830133,M
LOL,2023-08-25 21:53,-118.5701,40.0684,1192.43,89.00,45.00,21.77,220.00,13.00,0.00,30.02,1011.90,10.00,17.00,CLR,M,M,M,M,M,M,M,M,M,M,M,M,M,M,85.58,KLOL 252153Z AUTO 22013G17KT 10SM CLR 32/07 A3002 RMK AO2 SLP119 T03170072,M
BVU,2023-08-25 21:55,-114.8611,35.9475,671.00,102.20,50.00,17.51,140.00,7.00,0.00,29.89,M,10.00,M,CLR,M,M,M,M,M,M,M,M,M,M,M,M,M,M,99.28,KBVU 252155Z AUTO 14007KT 10SM CLR 39/10 A2989 RMK AO2,M
CXP,2023-08-25 21:55,-119.7326,39.1923,1431.00,87.80,41.00,19.40,M,4.00,0.00,30.07,M,10.00,M,BKN,BKN,M,M,10000.00,12000.00,M,M,M,M,M,M,M,M,M,84.30,KCXP 252155Z AUTO VRB04KT 10SM BKN100 BKN120 31/05 A3007 RMK AO2,M
INS,2023-08-25 21:55,-115.6733,36.5872,955.00,94.00,51.60,23.85,150.00,8.00,0.00,29.97,1009.70,10.00,17.00,SCT,M,M,M,9500.00,M,M,M,M,M,M,M,M,M,M,91.21,KINS 252155Z AUTO 15008G17KT 10SM SCT095 34/11 A2997 RMK AO2 SLP097 T03440109 $,M
RNO,2023-08-25 21:55,-119.7711,39.4839,1341.00,91.00,42.00,18.23,250.00,11.00,0.00,30.04,1010.80,10.00,21.00,BKN,M,M,M,9000.00,M,M,M,M,M,M,M,M,M,M,87.11,KRNO 252155Z 25011G21KT 10SM BKN090 33/06 A3004 RMK AO2 SLP108 T03280056,M
LSV,2023-08-25 21:55,-115.0343,36.2362,570.00,105.00,55.80,19.93,0.00,0.00,0.00,29.86,1008.30,10.00,M,CLR,M,M,M,M,M,M,M,M,M,M,M,M,M,M,104.27,KLSV 252155Z AUTO 00000KT 10SM CLR 41/13 A2986 RMK AO2 SLP083 T04060132 $,M
RTS,2023-08-25 21:55,-119.8764,39.6682,1539.00,82.40,37.40,20.04,M,3.00,0.00,30.10,M,10.00,M,FEW,M,M,M,9500.00,M,M,M,M,M,M,M,M,M,M,80.14,KRTS 252155Z AUTO VRB03KT 10SM FEW095 28/03 A3010 RMK AO2,M
MEV,2023-08-25 21:55,-119.7500,38.9963,1441.42,86.00,42.80,22.02,320.00,6.00,0.00,30.06,M,10.00,12.00,CLR,M,M,M,M,M,M,M,M,M,M,M,M,M,M,82.95,KMEV 252155Z AUTO 32006G12KT 10SM CLR 30/06 A3006 RMK AO2,M
HTH,2023-08-25 21:55,-118.6315,38.5448,1282.89,91.40,35.60,14.02,160.00,15.00,0.00,30.00,M,10.00,M,CLR,M,M,M,M,M,M,M,M,M,M,M,M,M,M,87.17,KHTH 252155Z AUTO 16015KT 150V210 10SM CLR 33/02 A3000 RMK A01,M
BAM,2023-08-25 21:55,-116.8743,40.5990,1382.36,87.80,50.00,27.29,290.00,6.00,0.00,30.09,M,10.00,M,CLR,M,M,M,M,M,M,M,M,M,M,M,M,M,M,85.11,KBAM 252155Z AUTO 29006KT 10SM CLR 31/10 A3009 RMK AO1,M
TMT,2023-08-25 21:55,-117.1971,39.4643,1749.34,84.40,45.00,25.21,200.00,11.00,0.00,30.16,M,M,19.00,CLR,M,M,M,M,M,M,M,M,M,M,M,M,M,M,81.90,KTMT 252155Z AUTO 20011G19KT 180V240 CLR 29/07 A3016 RMK AO2 T02910072 PWINO,M
10U,2023-08-25 21:55,-116.1876,41.9532,1637.00,80.60,42.80,26.22,130.00,7.00,0.00,30.18,M,10.00,M,CLR,M,M,M,M,M,M,M,M,M,M,M,M,M,M,79.30,K10U 252155Z AUTO 13007KT 090V150 10SM CLR 27/06 A3018 RMK AO2,M
EKO,2023-08-25 21:56,-115.7860,40.8242,1367.00,84.00,51.00,31.99,0.00,0.00,0.00,30.13,1014.40,10.00,M,SCT,BKN,M,M,9000.00,11000.00,M,M,M,M,M,M,M,M,M,82.22,KEKO 252156Z AUTO 00000KT 10SM SCT090 BKN110 29/11 A3013 RMK AO2 SLP144 T02890106,M
WMC,2023-08-25 21:56,-117.8072,40.9019,1315.00,88.00,43.00,20.82,M,M,0.00,30.05,1012.40,10.00,M,SCT,M,M,M,10000.00,M,M,M,M,M,M,M,M,M,M,84.58,KWMC 252156Z AUTO 10SM SCT100 31/06 A3005 RMK AO2 SLP124 T03110061,M
NFL,2023-08-25 21:56,-118.7010,39.4166,1199.00,91.00,47.00,22.05,190.00,7.00,0.00,30.00,1012.80,10.00,M,SCT,SCT,M,M,6000.00,9000.00,M,M,M,M,M,M,M,M,M,87.57,KNFL 252156Z 19007KT 10SM SCT060 SCT090 33/08 A3000 RMK AO2 SLP128 T03280083,M
HND,2023-08-25 21:56,-115.1344,35.9729,742.79,96.00,58.00,28.31,360.00,5.00,0.00,29.95,1012.40,10.00,M,SCT,M,M,M,11000.00,M,M,M,M,M,M,M,M,M,M,95.20,KHND 252156Z 36005KT 10SM SCT110 36/14 A2995 RMK AO2 SLP124 T03560144,M
LAS,2023-08-25 21:56,-115.1634,36.0719,663.00,100.00,56.00,23.32,60.00,6.00,0.00,29.91,1009.80,10.00,M,FEW,SCT,M,M,9000.00,15000.00,M,M,M,M,M,M,M,M,M,98.84,KLAS 252156Z 06006KT 10SM FEW090 SCT150 38/13 A2991 RMK AO2 SLP098 T03780133,M
05U,2023-08-25 22:10,-116.0051,39.6042,1811.23,87.80,42.80,20.79,M,M,0.00,30.20,M,10.00,M,M,M,M,M,M,M,M,M,M,M,M,M,M,M,M,84.40,K05U 252210Z AUTO 10SM 31/06 A3020 RMK A01,M
BVU,2023-08-25 22:15,-114.8611,35.9475,671.00,102.20,51.80,18.72,M,6.00,0.00,29.88,M,10.00,M,FEW,M,M,M,11000.00,M,M,M,M,M,M,M,M,M,M,99.80,KBVU 252215Z AUTO VRB06KT 10SM FEW110 39/11 A2988 RMK AO2,M
CXP,2023-08-25 22:15,-119.7326,39.1923,1431.00,87.80,41.00,19.40,320.00,9.00,0.00,30.07,M,10.00,14.00,BKN,BKN,M,M,10000.00,12000.00,M,M,M,M,M,M,M,M,M,84.30,KCXP 252215Z AUTO 32009G14KT 270V360 10SM BKN100 BKN120 31/05 A3007 RMK AO2,M
RTS,2023-08-25 22:15,-119.8764,39.6682,1539.00,84.20,35.60,17.61,M,5.00,0.00,30.10,M,10.00,12.00,CLR,M,M,M,M,M,M,M,M,M,M,M,M,M,M,81.34,KRTS 252215Z AUTO VRB05G12KT 10SM CLR 29/02 A3010 RMK AO2,M
MEV,2023-08-25 22:15,-119.7500,38.9963,1441.42,86.00,44.60,23.59,280.00,11.00,0.00,30.06,M,10.00,M,CLR,M,M,M,M,M,M,M,M,M,M,M,M,M,M,83.07,KMEV 252215Z AUTO 28011KT 10SM CLR 30/07 A3006 RMK AO2,M
HTH,2023-08-25 22:15,-118.6315,38.5448,1282.89,93.20,39.20,15.27,130.00,13.00,0.00,30.00,M,10.00,26.00,CLR,M,M,M,M,M,M,M,M,M,M,M,M,M,M,88.92,KHTH 252215Z AUTO 13013G26KT 10SM CLR 34/04 A3000 RMK A01,M
10U,2023-08-25 22:15,-116.1876,41.9532,1637.00,80.60,42.80,26.22,M,5.00,0.00,30.18,M,10.00,10.00,CLR,M,M,M,M,M,M,M,M,M,M,M,M,M,M,79.30,K10U 252215Z AUTO VRB05G10KT 10SM CLR 27/06 A3018 RMK AO2,M
BAM,2023-08-25 22:15,-116.8743,40.5990,1382.36,87.80,48.20,25.52,320.00,6.00,0.00,30.08,M,10.00,15.00,SCT,M,M,M,10000.00,M,M,M,M,M,M,M,M,M,M,84.87,KBAM 252215Z AUTO 32006G15KT 10SM SCT100 31/09 A3008 RMK AO1,M
TMT,2023-08-25 22:15,-117.1971,39.4643,1749.34,85.00,46.40,26.08,210.00,14.00,0.00,30.16,M,M,18.00,SCT,M,M,M,9000.00,M,M,M,M,M,M,M,M,M,M,82.45,KTMT 252215Z AUTO 21014G18KT SCT090 30/08 A3016 RMK AO2 T02950080 PWINO,M
05U,2023-08-25 22:30,-116.0051,39.6042,1811.23,87.80,46.40,23.85,M,M,0.00,30.20,M,10.00,M,M,M,M,M,M,M,M,M,M,M,M,M,M,M,M,84.68,K05U 252230Z AUTO 10SM 31/08 A3020 RMK A01,M
BVU,2023-08-25 22:35,-114.8611,35.9475,671.00,100.40,50.00,18.48,140.00,5.00,0.00,29.88,M,10.00,12.00,CLR,M,M,M,M,M,M,M,M,M,M,M,M,M,M,97.42,KBVU 252235Z AUTO 14005G12KT 10SM CLR 38/10 A2988 RMK AO2,M
CXP,2023-08-25 22:35,-119.7326,39.1923,1431.00,86.00,42.80,22.02,M,6.00,0.00,30.07,M,10.00,15.00,OVC,M,M,M,9500.00,M,M,M,M,M,M,M,M,M,M,82.95,KCXP 252235Z AUTO VRB06G15KT 10SM OVC095 30/06 A3007 RMK AO2,M
RTS,2023-08-25 22:35,-119.8764,39.6682,1539.00,84.20,35.60,17.61,260.00,6.00,0.00,30.10,M,10.00,13.00,CLR,M,M,M,M,M,M,M,M,M,M,M,M,M,M,81.34,KRTS 252235Z AUTO 26006G13KT 10SM CLR 29/02 A3010 RMK AO2,M
MEV,2023-08-25 22:35,-119.7500,38.9963,1441.42,86.00,44.60,23.59,250.00,8.00,0.00,30.05,M,10.00,M,CLR,M,M,M,M,M,M,M,M,M,M,M,M,M,M,83.07,KMEV 252235Z AUTO 25008KT 230V290 10SM CLR 30/07 A3005 RMK AO2,M
HTH,2023-08-25 22:35,-118.6315,38.5448,1282.89,93.20,37.40,14.23,140.00,12.00,0.00,29.99,M,10.00,21.00,CLR,M,M,M,M,M,M,M,M,M,M,M,M,M,M,88.83,KHTH 252235Z AUTO 14012G21KT 10SM CLR 34/03 A2999 RMK A01,M
10U,2023-08-25 22:35,-116.1876,41.9532,1637.00,84.20,42.80,23.33,150.00,7.00,0.00,30.17,M,10.00,M,CLR,M,M,M,M,M,M,M,M,M,M,M,M,M,M,81.61,K10U 252235Z AUTO 15007KT 10SM CLR 29/06 A3017 RMK AO2,M
BAM,2023-08-25 22:35,-116.8743,40.5990,1382.36,87.80,48.20,25.52,20.00,4.00,0.00,30.08,M,10.00,M,CLR,M,M,M,M,M,M,M,M,M,M,M,M,M,M,84.87,KBAM 252235Z AUTO 02004KT 10SM CLR 31/09 A3008 RMK AO1,M
TMT,2023-08-25 22:35,-117.1971,39.4643,1749.34,84.40,45.30,25.50,200.00,12.00,0.00,30.16,M,M,21.00,SCT,SCT,M,M,9000.00,11000.00,M,M,M,M,M,M,M,M,M,81.92,KTMT 252235Z AUTO 20012G21KT 170V230 SCT090 SCT110 29/07 A3016 RMK AO2 T02910074 PWINO,M
P68,2023-08-25 22:53,-116.0056,39.6014,1993.00,81.00,45.00,28.15,190.00,14.00,0.00,30.18,1013.20,M,21.00,M,M,M,M,M,M,M,M,M,M,M,M,29.00,170.00,2023-08-25 22:26,79.68,KP68 252253Z AUTO 19014G21KT 27/07 A3018 RMK AO1 PK WND 17029/2226 SLP132 T02720072,M
DRA,2023-08-25 22:53,-116.0278,36.6206,1009.00,97.00,44.00,16.35,240.00,18.00,0.00,29.98,1009.70,10.00,24.00,CLR,M,M,M,M,M,M,M,M,M,M,M,27.00,240.00,2023-08-25 22:09,92.91,KDRA 252253Z AUTO 24018G24KT 10SM CLR 36/07 A2998 RMK AO2 PK WND 24027/2209 SLP097 T03610067,M
ELY,2023-08-25 22:53,-114.8453,39.2950,1909.00,83.00,47.00,28.45,180.00,12.00,0.00,30.22,1013.20,10.00,17.00,FEW,M,M,M,9000.00,M,M,M,M,M,M,M,M,M,M,81.09,KELY 252253Z AUTO 18012G17KT 10SM FEW090 28/08 A3022 RMK AO2 SLP132 T02830083,M
VGT,2023-08-25 22:53,-115.1933,36.2111,667.00,101.00,54.00,21.04,190.00,7.00,0.00,29.88,1010.40,10.00,M,FEW,M,M,M,12000.00,M,M,M,M,M,M,M,M,M,M,99.22,KVGT 252253Z 19007KT 10SM FEW120 38/12 A2988 RMK AO2 SLP104 T03830122,M
LOL,2023-08-25 22:53,-118.5701,40.0684,1192.43,90.00,44.00,20.31,200.00,9.00,0.00,30.00,1011.00,10.00,M,CLR,M,M,M,M,M,M,M,M,M,M,M,M,M,M,86.37,KLOL 252253Z AUTO 20009KT 10SM CLR 32/07 A3000 RMK AO2 SLP110 T03220067,M
BVU,2023-08-25 22:55,-114.8611,35.9475,671.00,100.40,48.20,17.28,130.00,5.00,0.00,29.87,M,10.00,M,CLR,M,M,M,M,M,M,M,M,M,M,M,M,M,M,97.00,KBVU 252255Z AUTO 13005KT 10SM CLR 38/09 A2987 RMK AO2,M
CXP,2023-08-25 22:55,-119.7326,39.1923,1431.00,86.00,42.80,22.02,220.00,5.00,0.00,30.06,M,10.00,M,OVC,M,M,M,9000.00,M,M,M,M,M,M,M,M,M,M,82.95,KCXP 252255Z AUTO 22005KT 10SM OVC090 30/06 A3006 RMK AO2,M
INS,2023-08-25 22:55,-115.6733,36.5872,955.00,95.00,49.00,21.00,70.00,4.00,0.00,29.96,1009.40,10.00,M,SCT,M,M,M,13000.00,M,M,M,M,M,M,M,M,M,M,91.70,KINS 252255Z AUTO 07004KT 10SM SCT130 35/09 A2996 RMK AO2 SLP094 T03500094 $,M
RNO,2023-08-25 22:55,-119.7711,39.4839,1341.00,91.00,41.00,17.54,290.00,10.00,0.00,30.03,1010.70,10.00,16.00,SCT,M,M,M,11000.00,M,M,M,M,M,M,M,M,M,M,87.04,KRNO 252255Z 29010G16KT 10SM SCT110 33/05 A3003 RMK AO2 SLP107 T03280050,M
RTS,2023-08-25 22:55,-119.8764,39.6682,1539.00,84.20,35.60,17.61,240.00,6.00,0.00,30.09,M,10.00,11.00,CLR,M,M,M,M,M,M,M,M,M,M,M,M,M,M,81.34,KRTS 252255Z AUTO 24006G11KT 10SM CLR 29/02 A3009 RMK AO2,M
05U,2023-08-25 22:55,-116.0051,39.6042,1811.23,80.60,46.40,30.07,M,M,0.00,30.20,M,10.00,M,M,M,M,M,M,M,M,M,M,M,M,M,M,M,M,79.56,K05U 252255Z AUTO 10SM 27/08 A3020 RMK A01,M
MEV,2023-08-25 22:55,-119.7500,38.9963,1441.42,86.00,44.60,23.59,290.00,7.00,0.00,30.05,M,10.00,M,CLR,M,M,M,M,M,M,M,M,M,M,M,M,M,M,83.07,KMEV 252255Z AUTO 29007KT 10SM CLR 30/07 A3005 RMK AO2,M
HTH,2023-08-25 22:55,-118.6315,38.5448,1282.89,91.40,37.40,15.05,140.00,14.00,0.00,29.99,M,10.00,19.00,CLR,M,M,M,M,M,M,M,M,M,M,M,M,M,M,87.23,KHTH 252255Z AUTO 14014G19KT 10SM CLR 33/03 A2999 RMK A01,M
BAM,2023-08-25 22:55,-116.8743,40.5990,1382.36,87.80,50.00,27.29,50.00,7.00,0.00,30.08,M,10.00,M,CLR,M,M,M,M,M,M,M,M,M,M,M,M,M,M,85.11,KBAM 252255Z AUTO 05007KT 10SM CLR 31/10 A3008 RMK AO1,M
TMT,2023-08-25 22:55,-117.1971,39.4643,1749.34,85.50,43.70,23.16,180.00,10.00,0.00,30.15,M,M,19.00,SCT,M,M,M,10000.00,M,M,M,M,M,M,M,M,M,M,82.63,KTMT 252255Z AUTO 18010G19KT SCT100 30/07 A3015 RMK AO2 T02970065 PWINO,M
10U,2023-08-25 22:55,-116.1876,41.9532,1637.00,82.40,42.80,24.72,0.00,0.00,0.00,30.16,M,10.00,M,CLR,M,M,M,M,M,M,M,M,M,M,M,M,M,M,80.39,K10U 252255Z AUTO 00000KT 10SM CLR 28/06 A3016 RMK AO2,M
LSV,2023-08-25 22:55,-115.0343,36.2362,570.00,104.00,55.00,19.95,190.00,4.00,0.00,29.84,1007.70,10.00,M,CLR,M,M,M,M,M,M,M,M,M,M,M,M,M,M,102.85,KLSV 252255Z AUTO 19004KT 10SM CLR 40/13 A2984 RMK AO2 SLP077 T04010128 $,M
EKO,2023-08-25 22:56,-115.7860,40.8242,1367.00,88.00,50.00,27.12,M,4.00,0.00,30.12,1013.70,10.00,M,FEW,M,M,M,11000.00,M,M,M,M,M,M,M,M,M,M,85.28,KEKO 252256Z AUTO VRB04KT 10SM FEW110 31/10 A3012 RMK AO2 LTG DSNT NW SLP137 T03110100,M
WMC,2023-08-25 22:56,-117.8072,40.9019,1315.00,90.00,43.00,19.55,350.00,8.00,0.00,30.04,1011.90,10.00,M,SCT,M,M,M,11000.00,M,M,M,M,M,M,M,M,M,M,86.29,KWMC 252256Z AUTO 35008KT 10SM SCT110 32/06 A3004 RMK AO2 LTG DSNT NE SLP119 T03220061,M
NFL,2023-08-25 22:56,-118.7010,39.4166,1199.00,92.00,46.00,20.58,80.00,7.00,0.00,29.98,1012.30,10.00,M,SCT,M,M,M,8000.00,M,M,M,M,M,M,M,M,M,M,88.38,KNFL 252256Z 08007KT 060V120 10SM SCT080 33/08 A2998 RMK AO2 SLP123 T03330078,M
HND,2023-08-25 22:56,-115.1344,35.9729,742.79,99.00,57.00,24.92,50.00,4.00,0.00,29.93,1011.90,10.00,M,CLR,M,M,M,M,M,M,M,M,M,M,M,M,M,M,98.12,KHND 252256Z 05004KT 10SM CLR 37/14 A2993 RMK AO2 SLP119 T03720139,M
LAS,2023-08-25 22:56,-115.1634,36.0719,663.00,99.00,55.00,23.18,M,M,0.00,29.89,1009.20,10.00,M,FEW,SCT,M,M,9000.00,15000.00,M,M,M,M,M,M,M,M,M,97.39,KLAS 252256Z 10SM FEW090 SCT150 37/13 A2989 RMK AO2 SLP092 T03720128,M
LAS,2023-08-25 22:57,-115.1634,36.0719,663.00,99.00,55.00,23.18,90.00,5.00,0.00,29.89,M,10.00,M,SCT,M,M,M,15000.00,M,M,M,M,M,M,M,M,M,M,97.39,KLAS 252257Z 09005KT 10SM SCT150 37/13 A2989 RMK AO2 T03720128,M
MEV,2023-08-25 23:10,-119.7500,38.9963,1441.42,86.00,44.60,23.59,240.00,9.00,0.00,30.05,M,10.00,M,CLR,M,M,M,M,M,M,M,M,M,M,M,M,M,M,83.07,KMEV 252310Z AUTO 24009KT 220V280 10SM CLR 30/07 A3005 RMK AO2,M
BVU,2023-08-25 23:15,-114.8611,35.9475,671.00,102.20,48.20,16.37,150.00,8.00,0.00,29.87,M,10.00,M,FEW,M,M,M,12000.00,M,M,M,M,M,M,M,M,M,M,98.83,KBVU 252315Z AUTO 15008KT 10SM FEW120 39/09 A2987 RMK AO2,M
CXP,2023-08-25 23:15,-119.7326,39.1923,1431.00,86.00,42.80,22.02,260.00,8.00,0.00,30.06,M,10.00,M,BKN,BKN,M,M,9000.00,11000.00,M,M,M,M,M,M,M,M,M,82.95,KCXP 252315Z AUTO 26008KT 10SM BKN090 BKN110 30/06 A3006 RMK AO2,M
RTS,2023-08-25 23:15,-119.8764,39.6682,1539.00,84.20,35.60,17.61,250.00,9.00,0.00,30.09,M,10.00,M,CLR,M,M,M,M,M,M,M,M,M,M,M,M,M,M,81.34,KRTS 252315Z AUTO 25009KT 10SM CLR 29/02 A3009 RMK AO2,M
05U,2023-08-25 23:15,-116.0051,39.6042,1811.23,82.40,44.60,26.49,M,M,0.00,30.21,M,10.00,M,M,M,M,M,M,M,M,M,M,M,M,M,M,M,M,80.50,K05U 252315Z AUTO 10SM 28/07 A3021 RMK A01,M
HTH,2023-08-25 23:15,-118.6315,38.5448,1282.89,93.20,35.60,13.25,120.00,12.00,0.00,29.99,M,10.00,19.00,CLR,M,M,M,M,M,M,M,M,M,M,M,M,M,M,88.76,KHTH 252315Z AUTO 12012G19KT 10SM CLR 34/02 A2999 RMK A01,M
10U,2023-08-25 23:15,-116.1876,41.9532,1637.00,84.20,41.00,21.76,180.00,7.00,0.00,30.16,M,10.00,13.00,CLR,M,M,M,M,M,M,M,M,M,M,M,M,M,M,81.52,K10U 252315Z AUTO 18007G13KT 150V210 10SM CLR 29/05 A3016 RMK AO2,M
BAM,2023-08-25 23:15,-116.8743,40.5990,1382.36,75.20,60.80,60.90,210.00,16.00,0.00,30.12,M,4.00,25.00,SCT,SCT,BKN,M,4900.00,6000.00,8000.00,M,M,M,M,M,M,M,M,75.20,KBAM 252315Z AUTO 21016G25KT 4SM SCT049 SCT060 BKN080 24/16 A3012 RMK AO1,M
TMT,2023-08-25 23:15,-117.1971,39.4643,1749.34,86.40,42.40,21.41,190.00,15.00,0.00,30.15,M,M,20.00,BKN,M,M,M,10000.00,M,M,M,M,M,M,M,M,M,M,83.24,KTMT 252315Z AUTO 19015G20KT BKN100 30/06 A3015 RMK AO2 T03020058 PWINO,M
BVU,2023-08-25 23:35,-114.8611,35.9475,671.00,102.20,48.20,16.37,140.00,9.00,0.00,29.86,M,10.00,M,SCT,M,M,M,12000.00,M,M,M,M,M,M,M,M,M,M,98.83,KBVU 252335Z AUTO 14009KT 10SM SCT120 39/09 A2986 RMK AO2,M
CXP,2023-08-25 23:35,-119.7326,39.1923,1431.00,86.00,44.60,23.59,310.00,9.00,0.00,30.06,M,10.00,14.00,SCT,BKN,M,M,9000.00,11000.00,M,M,M,M,M,M,M,M,M,83.07,KCXP 252335Z AUTO 31009G14KT 10SM SCT090 BKN110 30/07 A3006 RMK AO2,M
RTS,2023-08-25 23:35,-119.8764,39.6682,1539.00,82.40,37.40,20.04,280.00,4.00,0.00,30.09,M,10.00,M,CLR,M,M,M,M,M,M,M,M,M,M,M,M,M,M,80.14,KRTS 252335Z AUTO 28004KT 10SM CLR 28/03 A3009 RMK AO2,M
05U,2023-08-25 23:35,-116.0051,39.6042,1811.23,82.40,44.60,26.49,M,M,0.00,30.20,M,10.00,M,M,M,M,M,M,M,M,M,M,M,M,M,M,M,M,80.50,K05U 252335Z AUTO 10SM 28/07 A3020 RMK A01,M
MEV,2023-08-25 23:35,-119.7500,38.9963,1441.42,86.00,48.20,27.03,270.00,13.00,0.00,30.05,M,10.00,M,CLR,M,M,M,M,M,M,M,M,M,M,M,M,M,M,83.40,KMEV 252335Z AUTO 27013KT 10SM CLR 30/09 A3005 RMK AO2,M
HTH,2023-08-25 23:35,-118.6315,38.5448,1282.89,93.20,33.80,12.34,130.00,12.00,0.00,29.98,M,10.00,24.00,CLR,M,M,M,M,M,M,M,M,M,M,M,M,M,M,88.55,KHTH 252335Z AUTO 13012G24KT 10SM CLR 34/01 A2998 RMK A01,M
10U,2023-08-25 23:35,-116.1876,41.9532,1637.00,84.20,42.80,23.33,M,7.00,0.00,30.16,M,10.00,12.00,BKN,M,M,M,10000.00,M,M,M,M,M,M,M,M,M,M,81.61,K10U 252335Z AUTO VRB07G12KT 140V260 10SM BKN100 29/06 A3016 RMK AO2,M
BAM,2023-08-25 23:35,-116.8743,40.5990,1382.36,77.00,64.40,65.12,170.00,4.00,0.00,30.09,M,10.00,M,SCT,SCT,SCT,M,2500.00,4600.00,6000.00,M,M,M,M,M,M,M,M,77.00,KBAM 252335Z AUTO 17004KT 10SM SCT025 SCT046 SCT060 25/18 A3009 RMK AO1,M
TMT,2023-08-25 23:35,-117.1971,39.4643,1749.34,85.30,41.50,21.42,220.00,12.00,0.00,30.15,M,M,19.00,SCT,M,M,M,10000.00,M,M,M,M,M,M,M,M,M,M,82.35,KTMT 252335Z AUTO 22012G19KT SCT100 30/05 A3015 RMK AO2 T02960053 PWINO,M
05U,2023-08-25 23:50,-116.0051,39.6042,1811.23,84.20,44.60,24.99,M,M,0.00,30.20,M,10.00,M,M,M,M,M,M,M,M,M,M,M,M,M,M,M,M,81.73,K05U 252350Z AUTO 10SM 29/07 A3020 RMK A01,M
EKO,2023-08-25 23:51,-115.7860,40.8242,1367.00,84.20,53.60,34.97,80.00,10.00,0.00,30.11,M,10.00,19.00,BKN,M,M,M,10000.00,M,M,M,M,M,M,M,M,M,M,82.76,KEKO 252351Z AUTO 08010G19KT 10SM BKN100 29/12 A3011 RMK AO2 WSHFT 2331,M
P68,2023-08-25 23:53,-116.0056,39.6014,1993.00,84.00,45.00,25.54,180.00,17.00,0.00,30.17,1012.90,M,24.00,M,M,M,M,M,M,M,M,M,M,M,M,M,M,M,81.61,KP68 252353Z AUTO 18017G24KT 29/07 A3017 RMK AO1 SLP129 T02890072 10300 20233 56006,M
DRA,2023-08-25 23:53,-116.0278,36.6206,1009.00,96.00,44.00,16.86,250.00,14.00,0.00,29.97,1009.60,10.00,21.00,FEW,M,M,M,11000.00,M,M,M,M,M,M,M,M,M,M,91.95,KDRA 252353Z AUTO 25014G21KT 10SM FEW110 36/07 A2997 RMK AO2 SLP096 T03560067 10367 20317 56013,M
ELY,2023-08-25 23:53,-114.8453,39.2950,1909.00,81.00,47.00,30.36,160.00,9.00,0.00,30.21,1013.20,10.00,M,FEW,SCT,M,M,9000.00,12000.00,M,M,M,M,M,M,M,M,M,79.84,KELY 252353Z AUTO 16009KT 10SM FEW090 SCT120 27/08 A3021 RMK AO2 SLP132 T02720083 10283 20239 56010,M
VGT,2023-08-25 23:53,-115.1933,36.2111,667.00,102.00,54.00,20.42,130.00,13.00,0.00,29.87,1009.90,10.00,M,CLR,M,M,M,M,M,M,M,M,M,M,M,M,M,M,100.30,KVGT 252353Z 13013KT 10SM CLR 39/12 A2987 RMK AO2 SLP099 T03890122 10389 20344 56020,M
LOL,2023-08-25 23:53,-118.5701,40.0684,1192.43,89.00,44.00,20.96,200.00,5.00,0.00,29.98,1010.80,10.00,M,CLR,M,M,M,M,M,M,M,M,M,M,M,M,M,M,85.50,KLOL 252353Z AUTO 20005KT 10SM CLR 32/07 A2998 RMK AO2 SLP108 T03170067 10328 20278 56017,M
BVU,2023-08-25 23:55,-114.8611,35.9475,671.00,102.20,48.20,16.37,130.00,12.00,0.00,29.86,M,10.00,M,FEW,M,M,M,12000.00,M,M,M,M,M,M,M,M,M,M,98.83,KBVU 252355Z AUTO 13012KT 10SM FEW120 39/09 A2986 RMK AO2,M
CXP,2023-08-25 23:55,-119.7326,39.1923,1431.00,86.00,42.80,22.02,290.00,8.00,0.00,30.06,M,10.00,M,FEW,M,M,M,9500.00,M,M,M,M,M,M,M,M,M,M,82.95,KCXP 252355Z AUTO 29008KT 10SM FEW095 30/06 A3006 RMK AO2,M
INS,2023-08-25 23:55,-115.6733,36.5872,955.00,95.40,49.00,20.74,310.00,5.00,0.00,29.94,1008.70,10.00,M,FEW,FEW,M,M,10000.00,14000.00,M,M,M,M,M,M,M,M,M,92.10,KINS 252355Z AUTO 31005KT 10SM FEW100 FEW140 35/10 A2994 RMK AO2 SLP087 T03520095 10357 20316 57013 $,M
RNO,2023-08-25 23:55,-119.7711,39.4839,1341.00,91.00,42.00,18.23,300.00,10.00,0.00,30.02,1010.50,10.00,16.00,SCT,M,M,M,11000.00,M,M,M,M,M,M,M,M,M,M,87.11,KRNO 252355Z 30010G16KT 260V320 10SM SCT110 33/06 A3002 RMK AO2 SLP105 T03280056 10333 20267 56011,M
LSV,2023-08-25 23:55,-115.0343,36.2362,570.00,104.00,53.40,18.81,110.00,5.00,0.00,29.82,1007.00,10.00,M,FEW,M,M,M,11000.00,M,M,M,M,M,M,M,M,M,M,102.24,KLSV 252355Z AUTO 11005KT 10SM FEW110 40/12 A2982 RMK AO2 SLP070 T04000119 10412 20365 57019 $,M
RTS,2023-08-25 23:55,-119.8764,39.6682,1539.00,82.40,37.40,20.04,310.00,6.00,0.00,30.09,M,10.00,M,CLR,M,M,M,M,M,M,M,M,M,M,M,M,M,M,80.14,KRTS 252355Z AUTO 31006KT 10SM CLR 28/03 A3009 RMK AO2,M
MEV,2023-08-25 23:55,-119.7500,38.9963,1441.42,84.20,50.00,30.62,280.00,12.00,0.00,30.05,M,10.00,M,CLR,M,M,M,M,M,M,M,M,M,M,M,M,M,M,82.24,KMEV 252355Z AUTO 28012KT 10SM CLR 29/10 A3005 RMK AO2,M
HTH,2023-08-25 23:55,-118.6315,38.5448,1282.89,91.40,33.80,13.05,170.00,12.00,0.00,29.98,M,10.00,21.00,CLR,M,M,M,M,M,M,M,M,M,M,M,M,M,M,87.13,KHTH 252355Z AUTO 17012G21KT 10SM CLR 33/01 A2998 RMK A01,M
BAM,2023-08-25 23:55,-116.8743,40.5990,1382.36,82.40,59.00,45.07,0.00,0.00,0.00,30.08,M,10.00,M,CLR,M,M,M,M,M,M,M,M,M,M,M,M,M,M,82.46,KBAM 252355Z AUTO 00000KT 10SM CLR 28/15 A3008 RMK AO1,M
TMT,2023-08-25 23:55,-117.1971,39.4643,1749.34,85.00,40.60,20.88,210.00,12.00,0.00,30.15,M,M,M,CLR,M,M,M,M,M,M,M,M,M,M,M,M,M,M,82.08,KTMT 252355Z AUTO 21012KT CLR 29/05 A3015 RMK AO2 T02940048 10302 20243 PWINO,M
10U,2023-08-25 23:55,-116.1876,41.9532,1637.00,82.40,42.80,24.72,190.00,5.00,0.00,30.16,M,10.00,M,BKN,M,M,M,10000.00,M,M,M,M,M,M,M,M,M,M,80.39,K10U 252355Z AUTO 19005KT 10SM BKN100 28/06 A3016 RMK AO2,M
EKO,2023-08-25 23:56,-115.7860,40.8242,1367.00,84.00,52.00,33.19,90.00,8.00,0.00,30.11,1013.90,10.00,M,SCT,M,M,M,10000.00,M,M,M,M,M,M,M,M,M,M,82.36,KEKO 252356Z AUTO 09008KT 10SM SCT100 29/11 A3011 RMK AO2 WSHFT 2331 SLP139 60000 T02890111 10317 20222 56007,M
WMC,2023-08-25 23:56,-117.8072,40.9019,1315.00,91.00,47.00,22.05,40.00,12.00,0.00,30.03,1011.20,10.00,18.00,BKN,M,M,M,10000.00,M,M,M,M,M,M,M,M,M,M,87.57,KWMC 252356Z AUTO 04012G18KT 10SM BKN100 33/08 A3003 RMK AO2 SLP112 T03280083 10333 20283 56013,M
NFL,2023-08-25 23:56,-118.7010,39.4166,1199.00,91.00,45.00,20.45,M,6.00,0.00,29.97,1011.90,10.00,M,SCT,M,M,M,8000.00,M,M,M,M,M,M,M,M,M,M,87.35,KNFL 252356Z VRB06KT 10SM SCT080 33/07 A2997 RMK AO2 SLP119 T03280072 10339 20278 56017 $,M
HND,2023-08-25 23:56,-115.1344,35.9729,742.79,98.00,56.00,24.78,40.00,3.00,0.00,29.92,1011.30,10.00,M,BKN,M,M,M,11000.00,M,M,M,M,M,M,M,M,M,M,96.65,KHND 252356Z 04003KT 10SM BKN110 37/13 A2992 RMK AO2 SLP113 T03670133 10372 20333 56019,M
LAS,2023-08-25 23:56,-115.1634,36.0719,663.00,100.00,54.00,21.68,150.00,5.00,0.00,29.88,1008.60,10.00,M,FEW,SCT,M,M,12000.00,15000.00,M,M,M,M,M,M,M,M,M,98.14,KLAS 252356Z 15005KT 10SM FEW120 SCT150 38/12 A2988 RMK AO2 SLP086 T03780122 10389 20333 56020,M
