station,valid,lon,lat,elevation,tmpf,dwpf,relh,drct,sknt,p01i,alti,mslp,vsby,gust,skyc1,skyc2,skyc3,skyc4,skyl1,skyl2,skyl3,skyl4,wxcodes,ice_accretion_1hr,ice_accretion_3hr,ice_accretion_6hr,peak_wind_gust,peak_wind_drct,peak_wind_time,feel,metar,snowdepth
INS,2022-01-18 00:08,-115.6733,36.5872,955.00,57.20,12.20,16.58,120.00,5.00,0.00,30.00,1015.20,10.00,M,BKN,M,M,M,8000.00,M,M,M,M,M,M,M,M,M,M,57.20,KINS 180008Z AUTO 12005KT 10SM BKN080 14/M11 A3000 RMK AO2 SLP152 $,M
TMT,2022-01-18 00:15,-117.1971,39.4643,1749.34,41.50,21.40,44.36,0.00,0.00,0.00,30.04,M,10.00,M,CLR,M,M,M,M,M,M,M,M,M,M,M,M,M,M,41.50,KTMT 180015Z AUTO 00000KT 10SM CLR 05/M06 A3004 RMK AO2 T00531059,M
BVU,2022-01-18 00:15,-114.8611,35.9475,671.00,60.80,17.60,18.46,50.00,5.00,0.00,30.01,M,10.00,M,FEW,M,M,M,8500.00,M,M,M,M,M,M,M,M,M,M,60.80,KBVU 180015Z AUTO 05005KT 10SM FEW085 16/M08 A3001 RMK AO2,M
CXP,2022-01-18 00:15,-119.7326,39.1923,1431.00,46.40,28.40,49.24,90.00,10.00,0.00,30.03,M,10.00,M,CLR,M,M,M,M,M,M,M,M,M,M,M,M,M,M,41.03,KCXP 180015Z AUTO 09010KT 10SM CLR 08/M02 A3003 RMK AO2,M
RTS,2022-01-18 00:15,-119.8764,39.6682,1539.00,48.20,28.40,46.02,0.00,0.00,0.00,30.04,M,10.00,M,CLR,M,M,M,M,M,M,M,M,M,M,M,M,M,M,48.20,KRTS 180015Z AUTO 00000KT 10SM CLR 09/M02 A3004 RMK AO2,M
05U,2022-01-18 00:15,-116.0051,39.6042,1811.23,35.60,19.40,51.33,0.00,0.00,0.00,30.05,M,10.00,M,CLR,M,M,M,M,M,M,M,M,M,M,M,M,M,M,35.60,K05U 180015Z AUTO 00000KT 10SM CLR 02/M07 A3005 RMK A01,M
HTH,2022-01-18 00:15,-118.6315,38.5448,1282.89,44.60,21.20,39.06,0.00,0.00,0.00,30.05,M,10.00,M,CLR,M,M,M,M,M,M,M,M,M,M,M,M,M,M,44.60,KHTH 180015Z AUTO 00000KT 10SM CLR 07/M06 A3005 RMK A01,M
MEV,2022-01-18 00:15,-119.7500,38.9963,1441.42,50.00,24.80,37.08,0.00,0.00,0.00,30.02,M,10.00,M,CLR,M,M,M,M,M,M,M,M,M,M,M,M,M,M,50.00,KMEV 180015Z AUTO 00000KT 10SM CLR 10/M04 A3002 RMK AO2,M
BAM,2022-01-18 00:15,-116.8743,40.5990,1382.36,42.80,32.00,65.38,0.00,0.00,0.00,30.04,M,10.00,M,CLR,M,M,M,M,M,M,M,M,M,M,M,M,M,M,42.80,KBAM 180015Z AUTO 00000KT 10SM CLR 06/00 A3004 RMK AO1,M
BVU,2022-01-18 00:35,-114.8611,35.9475,671.00,60.80,17.60,18.46,60.00,4.00,0.00,30.01,M,10.00,M,CLR,M,M,M,M,M,M,M,M,M,M,M,M,M,M,60.80,KBVU 180035Z AUTO 06004KT 10SM CLR 16/M08 A3001 RMK AO2,M
05U,2022-01-18 00:35,-116.0051,39.6042,1811.23,33.80,19.40,55.14,0.00,0.00,0.00,30.05,M,10.00,M,CLR,M,M,M,M,M,M,M,M,M,M,M,M,M,M,33.80,K05U 180035Z AUTO 00000KT 10SM CLR 01/M07 A3005 RMK A01,M
RTS,2022-01-18 00:35,-119.8764,39.6682,1539.00,46.40,28.40,49.24,0.00,0.00,0.00,30.04,M,10.00,M,CLR,M,M,M,M,M,M,M,M,M,M,M,M,M,M,46.40,KRTS 180035Z AUTO 00000KT 10SM CLR 08/M02 A3004 RMK AO2,M
TMT,2022-01-18 00:35,-117.1971,39.4643,1749.34,38.70,21.20,49.04,280.00,4.00,0.00,30.04,M,10.00,M,CLR,M,M,M,M,M,M,M,M,M,M,M,M,M,M,35.24,KTMT 180035Z AUTO 28004KT 10SM CLR 04/M06 A3004 RMK AO2 T00371060,M
HTH,2022-01-18 00:35,-118.6315,38.5448,1282.89,42.80,23.00,45.14,0.00,0.00,0.00,30.05,M,10.00,M,CLR,M,M,M,M,M,M,M,M,M,M,M,M,M,M,42.80,KHTH 180035Z AUTO 00000KT 10SM CLR 06/M05 A3005 RMK A01,M
MEV,2022-01-18 00:35,-119.7500,38.9963,1441.42,48.20,24.80,39.66,0.00,0.00,0.00,30.02,M,10.00,M,CLR,M,M,M,M,M,M,M,M,M,M,M,M,M,M,48.20,KMEV 180035Z AUTO 00000KT 10SM CLR 09/M04 A3002 RMK AO2,M
BAM,2022-01-18 00:35,-116.8743,40.5990,1382.36,42.80,32.00,65.38,0.00,0.00,0.00,30.04,M,10.00,M,CLR,M,M,M,M,M,M,M,M,M,M,M,M,M,M,42.80,KBAM 180035Z AUTO 00000KT 10SM CLR 06/00 A3004 RMK AO1,M
CXP,2022-01-18 00:35,-119.7326,39.1923,1431.00,46.40,28.40,49.24,100.00,7.00,0.00,30.03,M,10.00,M,CLR,M,M,M,M,M,M,M,M,M,M,M,M,M,M,42.33,KCXP 180035Z AUTO 10007KT 10SM CLR 08/M02 A3003 RMK AO2,M
VGT,2022-01-18 00:53,-115.1933,36.2111,667.00,59.00,17.10,19.26,0.00,0.00,0.00,30.00,1017.60,10.00,M,CLR,M,M,M,M,M,M,M,M,M,M,M,M,M,M,59.00,KVGT 180053Z 00000KT 10SM CLR 15/M08 A3000 RMK AO2 SLP176 T01501083,M
ELY,2022-01-18 00:53,-114.8453,39.2950,1909.00,36.00,19.00,49.66,160.00,5.00,0.00,30.02,1018.20,10.00,M,CLR,M,M,M,M,M,M,M,M,M,M,M,M,M,M,31.15,KELY 180053Z AUTO 16005KT 10SM CLR 02/M07 A3002 RMK AO2 SLP182 T00221072,M
LOL,2022-01-18 00:53,-118.5701,40.0684,1192.43,39.00,30.00,69.85,0.00,0.00,0.00,30.03,1019.60,10.00,M,CLR,M,M,M,M,M,M,M,M,M,M,M,M,M,M,39.00,KLOL 180053Z AUTO 00000KT 10SM CLR 04/M01 A3003 RMK AO2 SLP196 T00391011,M
INS,2022-01-18 00:53,-115.6733,36.5872,955.00,53.60,14.00,20.46,110.00,9.00,0.00,30.01,1015.80,10.00,M,SCT,M,M,M,8000.00,M,M,M,M,M,M,M,M,M,M,53.60,KINS 180053Z AUTO 11009KT 10SM SCT080 12/M10 A3001 RMK AO2 SLP158 $,M
BAM,2022-01-18 00:55,-116.8743,40.5990,1382.36,41.00,32.00,70.08,0.00,0.00,0.00,30.04,M,10.00,M,CLR,M,M,M,M,M,M,M,M,M,M,M,M,M,M,41.00,KBAM 180055Z AUTO 00000KT 10SM CLR 05/00 A3004 RMK AO1,M
RNO,2022-01-18 00:55,-119.7711,39.4839,1341.00,49.00,26.10,40.77,0.00,0.00,0.00,30.02,1016.70,10.00,M,FEW,FEW,BKN,M,11000.00,17000.00,24000.00,M,M,M,M,M,M,M,M,48.90,KRNO 180055Z 00000KT 10SM FEW110 FEW170 BKN240 09/M03 A3002 RMK AO2 SLP167 T00941033 $,M
BVU,2022-01-18 00:55,-114.8611,35.9475,671.00,57.20,17.60,20.99,30.00,6.00,0.00,30.01,M,10.00,M,CLR,M,M,M,M,M,M,M,M,M,M,M,M,M,M,57.20,KBVU 180055Z AUTO 03006KT 10SM CLR 14/M08 A3001 RMK AO2,M
CXP,2022-01-18 00:55,-119.7326,39.1923,1431.00,44.60,28.40,52.72,100.00,8.00,0.00,30.03,M,10.00,M,FEW,M,M,M,1100.00,M,M,M,M,M,M,M,M,M,M,39.63,KCXP 180055Z AUTO 10008KT 10SM FEW011 07/M02 A3003 RMK AO2,M
RTS,2022-01-18 00:55,-119.8764,39.6682,1539.00,44.60,28.40,52.72,0.00,0.00,0.00,30.04,M,10.00,M,CLR,M,M,M,M,M,M,M,M,M,M,M,M,M,M,44.60,KRTS 180055Z AUTO 00000KT 10SM CLR 07/M02 A3004 RMK AO2,M
05U,2022-01-18 00:55,-116.0051,39.6042,1811.23,32.00,21.20,63.99,0.00,0.00,0.00,30.05,M,10.00,M,CLR,M,M,M,M,M,M,M,M,M,M,M,M,M,M,32.00,K05U 180055Z AUTO 00000KT 10SM CLR M00/M06 A3005 RMK A01,M
MEV,2022-01-18 00:55,-119.7500,38.9963,1441.42,46.40,24.80,42.44,0.00,0.00,0.00,30.02,M,10.00,M,CLR,M,M,M,M,M,M,M,M,M,M,M,M,M,M,46.40,KMEV 180055Z AUTO 00000KT 10SM CLR 08/M04 A3002 RMK AO2,M
HTH,2022-01-18 00:55,-118.6315,38.5448,1282.89,42.80,24.80,48.67,0.00,0.00,0.00,30.05,M,10.00,M,CLR,M,M,M,M,M,M,M,M,M,M,M,M,M,M,42.80,KHTH 180055Z AUTO 00000KT 10SM CLR 06/M04 A3005 RMK A01,M
TMT,2022-01-18 00:55,-117.1971,39.4643,1749.34,37.00,22.30,54.92,270.00,4.00,0.00,30.04,M,10.00,M,CLR,M,M,M,M,M,M,M,M,M,M,M,M,M,M,33.26,KTMT 180055Z AUTO 27004KT 10SM CLR 03/M05 A3004 RMK AO2 T00281054,M
TPH,2022-01-18 00:56,-117.0904,38.0505,1654.00,38.00,19.90,47.89,0.00,0.00,0.00,30.04,1018.50,10.00,M,CLR,M,M,M,M,M,M,M,M,M,M,M,M,M,M,37.90,KTPH 180056Z AUTO 00000KT 10SM CLR 03/M07 A3004 RMK AO2 SLP185 T00331067,M
LAS,2022-01-18 00:56,-115.1634,36.0719,663.00,57.00,19.90,23.34,110.00,3.00,0.00,30.00,1015.80,10.00,M,SCT,BKN,BKN,M,9000.00,16000.00,25000.00,M,M,M,M,M,M,M,M,57.00,KLAS 180056Z 11003KT 10SM SCT090 BKN160 BKN250 14/M07 A3000 RMK AO2 SLP158 T01391067,M
WMC,2022-01-18 00:56,-117.8072,40.9019,1315.00,41.00,30.00,64.63,0.00,0.00,0.00,30.02,1018.20,10.00,M,CLR,M,M,M,M,M,M,M,M,M,M,M,M,M,M,41.00,KWMC 180056Z AUTO 00000KT 10SM CLR 05/M01 A3002 RMK AO2 SLP182 T00501011,M
HND,2022-01-18 00:56,-115.1344,35.9729,742.79,56.00,19.90,24.28,40.00,3.00,0.00,30.03,1018.60,10.00,M,BKN,M,M,M,9000.00,M,M,M,M,M,M,M,M,M,M,55.90,KHND 180056Z 04003KT 10SM BKN090 13/M07 A3003 RMK AO2 SLP186 T01331067,M
EKO,2022-01-18 00:56,-115.7860,40.8242,1367.00,38.00,23.00,54.60,0.00,0.00,0.00,30.02,1018.70,10.00,M,CLR,M,M,M,M,M,M,M,M,M,M,M,M,M,M,37.90,KEKO 180056Z AUTO 00000KT 10SM CLR 03/M05 A3002 RMK AO2 SLP187 T00331050,M
INS,2022-01-18 00:58,-115.6733,36.5872,955.00,52.70,13.80,20.96,110.00,8.00,0.00,30.01,1015.80,10.00,M,SCT,M,M,M,8000.00,M,M,M,M,M,M,M,M,M,M,52.70,KINS 180058Z AUTO 11008KT 10SM SCT080 12/M10 A3001 RMK AO2 SLP158 T01151101 $,M
LSV,2022-01-18 00:58,-115.0343,36.2362,570.00,M,M,M,M,M,0.00,M,M,10.00,M,M,M,M,M,M,M,M,M,M,M,M,M,M,M,M,M,KLSV 180058Z AUTO M 10SM M M M RMK AO2 SLPNO $,M
CXP,2022-01-18 01:10,-119.7326,39.1923,1431.00,42.80,28.40,56.48,40.00,4.00,0.00,30.04,M,10.00,M,CLR,M,M,M,M,M,M,M,M,M,M,M,M,M,M,40.03,KCXP 180110Z AUTO 04004KT 10SM CLR 06/M02 A3004 RMK AO2,M
05U,2022-01-18 01:15,-116.0051,39.6042,1811.23,28.40,19.40,68.61,0.00,0.00,0.00,30.05,M,10.00,M,CLR,M,M,M,M,M,M,M,M,M,M,M,M,M,M,28.40,K05U 180115Z AUTO 00000KT 10SM CLR M02/M07 A3005 RMK A01,M
MEV,2022-01-18 01:15,-119.7500,38.9963,1441.42,41.00,24.80,52.17,60.00,3.00,0.00,30.02,M,10.00,M,CLR,M,M,M,M,M,M,M,M,M,M,M,M,M,M,38.98,KMEV 180115Z AUTO 06003KT 10SM CLR 05/M04 A3002 RMK AO2,M
BAM,2022-01-18 01:15,-116.8743,40.5990,1382.36,37.40,32.00,80.65,0.00,0.00,0.00,30.04,M,10.00,M,CLR,M,M,M,M,M,M,M,M,M,M,M,M,M,M,37.40,KBAM 180115Z AUTO 00000KT 10SM CLR 03/00 A3004 RMK AO1,M
TMT,2022-01-18 01:15,-117.1971,39.4643,1749.34,33.00,23.40,67.17,130.00,4.00,0.00,30.05,M,10.00,M,CLR,M,M,M,M,M,M,M,M,M,M,M,M,M,M,28.70,KTMT 180115Z AUTO 13004KT 10SM CLR 01/M05 A3005 RMK AO2 T00061048,M
HTH,2022-01-18 01:15,-118.6315,38.5448,1282.89,41.00,24.80,52.17,0.00,0.00,0.00,30.05,M,10.00,M,CLR,M,M,M,M,M,M,M,M,M,M,M,M,M,M,41.00,KHTH 180115Z AUTO 00000KT 10SM CLR 05/M04 A3005 RMK A01,M
RTS,2022-01-18 01:15,-119.8764,39.6682,1539.00,41.00,30.20,65.16,100.00,4.00,0.00,30.04,M,10.00,M,CLR,M,M,M,M,M,M,M,M,M,M,M,M,M,M,37.93,KRTS 180115Z AUTO 10004KT 10SM CLR 05/M01 A3004 RMK AO2,M
BVU,2022-01-18 01:15,-114.8611,35.9475,671.00,55.40,21.20,26.13,30.00,7.00,0.00,30.01,M,10.00,M,CLR,M,M,M,M,M,M,M,M,M,M,M,M,M,M,55.40,KBVU 180115Z AUTO 03007KT 10SM CLR 13/M06 A3001 RMK AO2,M
HTH,2022-01-18 01:35,-118.6315,38.5448,1282.89,37.40,24.80,60.04,170.00,3.00,0.00,30.05,M,10.00,M,CLR,M,M,M,M,M,M,M,M,M,M,M,M,M,M,34.86,KHTH 180135Z AUTO 17003KT 10SM CLR 03/M04 A3005 RMK A01,M
BVU,2022-01-18 01:35,-114.8611,35.9475,671.00,53.60,19.40,25.85,30.00,6.00,0.00,30.01,M,10.00,M,CLR,M,M,M,M,M,M,M,M,M,M,M,M,M,M,53.60,KBVU 180135Z AUTO 03006KT 10SM CLR 12/M07 A3001 RMK AO2,M
CXP,2022-01-18 01:35,-119.7326,39.1923,1431.00,42.80,28.40,56.48,0.00,0.00,0.00,30.04,M,10.00,M,CLR,M,M,M,M,M,M,M,M,M,M,M,M,M,M,42.80,KCXP 180135Z AUTO 00000KT 10SM CLR 06/M02 A3004 RMK AO2,M
RTS,2022-01-18 01:35,-119.8764,39.6682,1539.00,41.00,28.40,60.54,30.00,4.00,0.00,30.05,M,10.00,M,CLR,M,M,M,M,M,M,M,M,M,M,M,M,M,M,37.93,KRTS 180135Z AUTO 03004KT 10SM CLR 05/M02 A3005 RMK AO2,M
05U,2022-01-18 01:35,-116.0051,39.6042,1811.23,26.60,21.20,79.77,0.00,0.00,0.00,30.06,M,10.00,M,CLR,M,M,M,M,M,M,M,M,M,M,M,M,M,M,26.60,K05U 180135Z AUTO 00000KT 10SM CLR M03/M06 A3006 RMK A01,M
MEV,2022-01-18 01:35,-119.7500,38.9963,1441.42,33.80,23.00,64.23,50.00,3.00,0.00,30.03,M,10.00,M,CLR,M,M,M,M,M,M,M,M,M,M,M,M,M,M,30.75,KMEV 180135Z AUTO 05003KT 10SM CLR 01/M05 A3003 RMK AO2,M
TMT,2022-01-18 01:35,-117.1971,39.4643,1749.34,32.70,25.20,73.59,150.00,4.00,0.00,30.05,M,10.00,M,CLR,M,M,M,M,M,M,M,M,M,M,M,M,M,M,28.24,KTMT 180135Z AUTO 15004KT 10SM CLR 00/M04 A3005 RMK AO2 T00041038,M
BAM,2022-01-18 01:35,-116.8743,40.5990,1382.36,37.40,30.20,74.98,0.00,0.00,0.00,30.04,M,10.00,M,CLR,M,M,M,M,M,M,M,M,M,M,M,M,M,M,37.40,KBAM 180135Z AUTO 00000KT 10SM CLR 03/M01 A3004 RMK AO1,M
ELY,2022-01-18 01:53,-114.8453,39.2950,1909.00,30.00,21.00,68.81,0.00,0.00,0.00,30.03,1019.60,10.00,M,CLR,M,M,M,M,M,M,M,M,M,M,M,M,M,M,30.00,KELY 180153Z AUTO 00000KT 10SM CLR M01/M06 A3003 RMK AO2 SLP196 T10111061,M
LOL,2022-01-18 01:53,-118.5701,40.0684,1192.43,37.00,30.00,75.56,0.00,0.00,0.00,30.04,1020.00,10.00,M,CLR,M,M,M,M,M,M,M,M,M,M,M,M,M,M,37.00,KLOL 180153Z AUTO 00000KT 10SM CLR 03/M01 A3004 RMK AO2 SLP200 T00281011,M
VGT,2022-01-18 01:53,-115.1933,36.2111,667.00,57.00,17.10,20.69,0.00,0.00,0.00,30.01,1017.90,10.00,M,CLR,M,M,M,M,M,M,M,M,M,M,M,M,M,M,57.00,KVGT 180153Z 00000KT 10SM CLR 14/M08 A3001 RMK AO2 SLP179 T01391083,M
BVU,2022-01-18 01:55,-114.8611,35.9475,671.00,53.60,19.40,25.85,40.00,7.00,0.00,30.01,M,10.00,M,SCT,M,M,M,9000.00,M,M,M,M,M,M,M,M,M,M,53.60,KBVU 180155Z AUTO 04007KT 10SM SCT090 12/M07 A3001 RMK AO2,M
CXP,2022-01-18 01:55,-119.7326,39.1923,1431.00,41.00,26.60,56.22,0.00,0.00,0.00,30.04,M,10.00,M,CLR,M,M,M,M,M,M,M,M,M,M,M,M,M,M,41.00,KCXP 180155Z AUTO 00000KT 10SM CLR 05/M03 A3004 RMK AO2,M
MEV,2022-01-18 01:55,-119.7500,38.9963,1441.42,32.00,24.80,74.44,110.00,3.00,0.00,30.03,M,10.00,M,CLR,M,M,M,M,M,M,M,M,M,M,M,M,M,M,28.69,KMEV 180155Z AUTO 11003KT 10SM CLR 00/M04 A3003 RMK AO2,M
TMT,2022-01-18 01:55,-117.1971,39.4643,1749.34,30.90,24.80,77.83,190.00,3.00,0.00,30.05,M,10.00,M,CLR,M,M,M,M,M,M,M,M,M,M,M,M,M,M,27.43,KTMT 180155Z AUTO 19003KT 10SM CLR M01/M04 A3005 RMK AO2 T10061040,M
RNO,2022-01-18 01:55,-119.7711,39.4839,1341.00,45.00,26.10,47.23,0.00,0.00,0.00,30.03,1017.50,10.00,M,FEW,BKN,M,M,16000.00,21000.00,M,M,M,M,M,M,M,M,M,45.00,KRNO 180155Z 00000KT 10SM FEW160 BKN210 07/M03 A3003 RMK AO2 SLP175 T00721033 $,M
RTS,2022-01-18 01:55,-119.8764,39.6682,1539.00,39.20,28.40,64.93,0.00,0.00,0.00,30.05,M,10.00,M,CLR,M,M,M,M,M,M,M,M,M,M,M,M,M,M,39.20,KRTS 180155Z AUTO 00000KT 10SM CLR 04/M02 A3005 RMK AO2,M
05U,2022-01-18 01:55,-116.0051,39.6042,1811.23,26.60,21.20,79.77,0.00,0.00,0.00,30.06,M,10.00,M,CLR,M,M,M,M,M,M,M,M,M,M,M,M,M,M,26.60,K05U 180155Z AUTO 00000KT 10SM CLR M03/M06 A3006 RMK A01,M
HTH,2022-01-18 01:55,-118.6315,38.5448,1282.89,37.40,24.80,60.04,150.00,3.00,0.00,30.05,M,10.00,M,CLR,M,M,M,M,M,M,M,M,M,M,M,M,M,M,34.86,KHTH 180155Z AUTO 15003KT 10SM CLR 03/M04 A3005 RMK A01,M
BAM,2022-01-18 01:55,-116.8743,40.5990,1382.36,35.60,32.00,86.59,0.00,0.00,0.00,30.04,M,10.00,M,CLR,M,M,M,M,M,M,M,M,M,M,M,M,M,M,35.60,KBAM 180155Z AUTO 00000KT 10SM CLR 02/00 A3004 RMK AO1,M
WMC,2022-01-18 01:56,-117.8072,40.9019,1315.00,33.00,27.00,78.03,0.00,0.00,0.00,30.03,1019.20,10.00,M,CLR,M,M,M,M,M,M,M,M,M,M,M,M,M,M,33.10,KWMC 180156Z AUTO 00000KT 10SM CLR 01/M03 A3003 RMK AO2 SLP192 T00061028,M
LAS,2022-01-18 01:56,-115.1634,36.0719,663.00,55.00,19.90,25.09,0.00,0.00,0.00,30.01,1016.00,10.00,M,SCT,SCT,BKN,M,9500.00,16000.00,25000.00,M,M,M,M,M,M,M,M,55.00,KLAS 180156Z 00000KT 10SM SCT095 SCT160 BKN250 13/M07 A3001 RMK AO2 SLP160 T01281067,M
TPH,2022-01-18 01:56,-117.0904,38.0505,1654.00,34.00,21.90,60.83,290.00,3.00,0.00,30.05,1019.10,10.00,M,BKN,M,M,M,12000.00,M,M,M,M,M,M,M,M,M,M,30.97,KTPH 180156Z AUTO 29003KT 10SM BKN120 01/M06 A3005 RMK AO2 SLP191 T00111056,M
HND,2022-01-18 01:56,-115.1344,35.9729,742.79,54.00,19.90,26.02,0.00,0.00,0.00,30.03,1018.90,10.00,M,OVC,M,M,M,9000.00,M,M,M,M,M,M,M,M,M,M,54.00,KHND 180156Z 00000KT 10SM OVC090 12/M07 A3003 RMK AO2 SLP189 T01221067,M
EKO,2022-01-18 01:56,-115.7860,40.8242,1367.00,34.00,24.10,66.72,0.00,0.00,0.00,30.02,1019.60,10.00,M,CLR,M,M,M,M,M,M,M,M,M,M,M,M,M,M,34.00,KEKO 180156Z AUTO 00000KT 10SM CLR 01/M04 A3002 RMK AO2 SLP196 T00111044,M
INS,2022-01-18 01:58,-115.6733,36.5872,955.00,49.30,14.90,24.95,100.00,10.00,0.00,30.01,1016.00,10.00,M,FEW,M,M,M,8000.00,M,M,M,M,M,M,M,M,M,M,44.66,KINS 180158Z AUTO 10010KT 10SM FEW080 10/M09 A3001 RMK AO2 SLP160 T00961095 $,M
LSV,2022-01-18 01:58,-115.0343,36.2362,570.00,51.00,18.10,27.00,50.00,6.00,0.00,30.00,1016.10,10.00,M,CLR,M,M,M,M,M,M,M,M,M,M,M,M,M,M,50.90,KLSV 180158Z AUTO 05006KT 10SM CLR 11/M08 A3000 RMK AO2 SLP161 T01051077 $,M
MEV,2022-01-18 02:15,-119.7500,38.9963,1441.42,32.00,24.80,74.44,110.00,8.00,0.00,30.03,M,10.00,M,CLR,M,M,M,M,M,M,M,M,M,M,M,M,M,M,24.11,KMEV 180215Z AUTO 11008KT 10SM CLR 00/M04 A3003 RMK AO2,M
TMT,2022-01-18 02:15,-117.1971,39.4643,1749.34,30.00,25.00,81.40,160.00,4.00,0.00,30.05,M,10.00,M,CLR,M,M,M,M,M,M,M,M,M,M,M,M,M,M,25.08,KTMT 180215Z AUTO 16004KT 10SM CLR M01/M04 A3005 RMK AO2 T10111039,M
HTH,2022-01-18 02:15,-118.6315,38.5448,1282.89,39.20,24.80,55.95,0.00,0.00,0.00,30.05,M,10.00,M,CLR,M,M,M,M,M,M,M,M,M,M,M,M,M,M,39.20,KHTH 180215Z AUTO 00000KT 10SM CLR 04/M04 A3005 RMK A01,M
BVU,2022-01-18 02:15,-114.8611,35.9475,671.00,53.60,19.40,25.85,30.00,6.00,0.00,30.02,M,10.00,M,OVC,M,M,M,9000.00,M,M,M,M,M,M,M,M,M,M,53.60,KBVU 180215Z AUTO 03006KT 10SM OVC090 12/M07 A3002 RMK AO2,M
CXP,2022-01-18 02:15,-119.7326,39.1923,1431.00,39.20,28.40,64.93,0.00,0.00,0.00,30.05,M,10.00,M,CLR,M,M,M,M,M,M,M,M,M,M,M,M,M,M,39.20,KCXP 180215Z AUTO 00000KT 10SM CLR 04/M02 A3005 RMK AO2,M
RTS,2022-01-18 02:15,-119.8764,39.6682,1539.00,37.40,28.40,69.67,0.00,0.00,0.00,30.06,M,10.00,M,CLR,M,M,M,M,M,M,M,M,M,M,M,M,M,M,37.40,KRTS 180215Z AUTO 00000KT 10SM CLR 03/M02 A3006 RMK AO2,M
05U,2022-01-18 02:15,-116.0051,39.6042,1811.23,26.60,21.20,79.77,0.00,0.00,0.00,30.06,M,9.00,M,FEW,M,M,M,12000.00,M,M,M,M,M,M,M,M,M,M,26.60,K05U 180215Z AUTO 00000KT 9SM FEW120 M03/M06 A3006 RMK A01,M
BAM,2022-01-18 02:15,-116.8743,40.5990,1382.36,33.80,32.00,93.03,0.00,0.00,0.00,30.04,M,10.00,M,CLR,M,M,M,M,M,M,M,M,M,M,M,M,M,M,33.80,KBAM 180215Z AUTO 00000KT 10SM CLR 01/00 A3004 RMK AO1,M
CXP,2022-01-18 02:35,-119.7326,39.1923,1431.00,37.40,26.60,64.70,0.00,0.00,0.00,30.06,M,10.00,M,CLR,M,M,M,M,M,M,M,M,M,M,M,M,M,M,37.40,KCXP 180235Z AUTO 00000KT 10SM CLR 03/M03 A3006 RMK AO2,M
BVU,2022-01-18 02:35,-114.8611,35.9475,671.00,55.40,19.40,24.21,50.00,6.00,0.00,30.02,M,10.00,M,OVC,M,M,M,9000.00,M,M,M,M,M,M,M,M,M,M,55.40,KBVU 180235Z AUTO 05006KT 10SM OVC090 13/M07 A3002 RMK AO2,M
RTS,2022-01-18 02:35,-119.8764,39.6682,1539.00,37.40,26.60,64.70,300.00,6.00,0.00,30.06,M,10.00,M,CLR,M,M,M,M,M,M,M,M,M,M,M,M,M,M,32.03,KRTS 180235Z AUTO 30006KT 10SM CLR 03/M03 A3006 RMK AO2,M
05U,2022-01-18 02:35,-116.0051,39.6042,1811.23,26.60,21.20,79.77,0.00,0.00,0.00,30.06,M,10.00,M,CLR,M,M,M,M,M,M,M,M,M,M,M,M,M,M,26.60,K05U 180235Z AUTO 00000KT 10SM CLR M03/M06 A3006 RMK A01,M
MEV,2022-01-18 02:35,-119.7500,38.9963,1441.42,35.60,26.60,69.46,140.00,6.00,0.00,30.04,M,10.00,M,CLR,M,M,M,M,M,M,M,M,M,M,M,M,M,M,29.87,KMEV 180235Z AUTO 14006KT 10SM CLR 02/M03 A3004 RMK AO2,M
BAM,2022-01-18 02:35,-116.8743,40.5990,1382.36,33.80,32.00,93.03,0.00,0.00,0.00,30.04,M,10.00,M,CLR,M,M,M,M,M,M,M,M,M,M,M,M,M,M,33.80,KBAM 180235Z AUTO 00000KT 10SM CLR 01/00 A3004 RMK AO1,M
HTH,2022-01-18 02:35,-118.6315,38.5448,1282.89,37.40,24.80,60.04,160.00,4.00,0.00,30.06,M,10.00,M,CLR,M,M,M,M,M,M,M,M,M,M,M,M,M,M,33.73,KHTH 180235Z AUTO 16004KT 10SM CLR 03/M04 A3006 RMK A01,M
TMT,2022-01-18 02:35,-117.1971,39.4643,1749.34,30.20,25.30,81.76,230.00,4.00,0.00,30.06,M,10.00,M,CLR,M,M,M,M,M,M,M,M,M,M,M,M,M,M,25.32,KTMT 180235Z AUTO 23004KT 10SM CLR M01/M04 A3006 RMK AO2 T10101037,M
ELY,2022-01-18 02:53,-114.8453,39.2950,1909.00,30.90,21.90,68.91,0.00,0.00,0.00,30.04,1019.60,10.00,M,SCT,M,M,M,9000.00,M,M,M,M,M,M,M,M,M,M,30.90,KELY 180253Z AUTO 00000KT 10SM SCT090 M01/M06 A3004 RMK AO2 SLP196 T10061056 53007,M
LOL,2022-01-18 02:53,-118.5701,40.0684,1192.43,32.00,27.00,81.55,0.00,0.00,0.00,30.05,1020.80,10.00,M,CLR,M,M,M,M,M,M,M,M,M,M,M,M,M,M,32.00,KLOL 180253Z AUTO 00000KT 10SM CLR 00/M03 A3005 RMK AO2 SLP208 T00001028 53003,M
VGT,2022-01-18 02:53,-115.1933,36.2111,667.00,53.00,19.90,26.89,310.00,3.00,0.00,30.02,1018.40,10.00,M,CLR,M,M,M,M,M,M,M,M,M,M,M,M,M,M,53.10,KVGT 180253Z 31003KT 10SM CLR 12/M07 A3002 RMK AO2 SLP184 T01171067 53002,M
CXP,2022-01-18 02:55,-119.7326,39.1923,1431.00,39.20,28.40,64.93,0.00,0.00,0.00,30.06,M,10.00,M,CLR,M,M,M,M,M,M,M,M,M,M,M,M,M,M,39.20,KCXP 180255Z AUTO 00000KT 10SM CLR 04/M02 A3006 RMK AO2,M
TMT,2022-01-18 02:55,-117.1971,39.4643,1749.34,31.30,26.60,82.52,220.00,5.00,0.00,30.06,M,10.00,M,CLR,M,M,M,M,M,M,M,M,M,M,M,M,M,M,25.56,KTMT 180255Z AUTO 22005KT 10SM CLR 00/M03 A3006 RMK AO2 T10041030,M
HTH,2022-01-18 02:55,-118.6315,38.5448,1282.89,37.40,24.80,60.04,0.00,0.00,0.00,30.06,M,10.00,M,CLR,M,M,M,M,M,M,M,M,M,M,M,M,M,M,37.40,KHTH 180255Z AUTO 00000KT 10SM CLR 03/M04 A3006 RMK A01,M
RNO,2022-01-18 02:55,-119.7711,39.4839,1341.00,41.00,27.00,57.15,0.00,0.00,0.00,30.05,1018.40,10.00,M,BKN,M,M,M,21000.00,M,M,M,M,M,M,M,M,M,M,41.00,KRNO 180255Z 00000KT 10SM BKN210 05/M03 A3005 RMK AO2 SLP184 T00501028 53009 $,M
BAM,2022-01-18 02:55,-116.8743,40.5990,1382.36,33.80,30.20,86.49,0.00,0.00,0.00,30.05,M,10.00,M,CLR,M,M,M,M,M,M,M,M,M,M,M,M,M,M,33.80,KBAM 180255Z AUTO 00000KT 10SM CLR 01/M01 A3005 RMK AO1,M
BVU,2022-01-18 02:55,-114.8611,35.9475,671.00,55.40,19.40,24.21,30.00,7.00,0.00,30.02,M,10.00,M,OVC,M,M,M,9500.00,M,M,M,M,M,M,M,M,M,M,55.40,KBVU 180255Z AUTO 03007KT 10SM OVC095 13/M07 A3002 RMK AO2,M
RTS,2022-01-18 02:55,-119.8764,39.6682,1539.00,37.40,24.80,60.04,270.00,9.00,0.00,30.07,M,10.00,M,CLR,M,M,M,M,M,M,M,M,M,M,M,M,M,M,30.23,KRTS 180255Z AUTO 27009KT 10SM CLR 03/M04 A3007 RMK AO2,M
05U,2022-01-18 02:55,-116.0051,39.6042,1811.23,26.60,21.20,79.77,0.00,0.00,0.00,30.06,M,10.00,M,CLR,M,M,M,M,M,M,M,M,M,M,M,M,M,M,26.60,K05U 180255Z AUTO 00000KT 10SM CLR M03/M06 A3006 RMK A01,M
MEV,2022-01-18 02:55,-119.7500,38.9963,1441.42,35.60,26.60,69.46,110.00,7.00,0.00,30.05,M,10.00,M,CLR,M,M,M,M,M,M,M,M,M,M,M,M,M,M,29.17,KMEV 180255Z AUTO 11007KT 10SM CLR 02/M03 A3005 RMK AO2,M
LAS,2022-01-18 02:56,-115.1634,36.0719,663.00,54.00,21.00,27.27,0.00,0.00,0.00,30.01,1016.30,10.00,M,SCT,SCT,BKN,M,9500.00,16000.00,25000.00,M,M,M,M,M,M,M,M,54.00,KLAS 180256Z 00000KT 10SM SCT095 SCT160 BKN250 12/M06 A3001 RMK AO2 SLP163 T01221061 53001,M
EKO,2022-01-18 02:56,-115.7860,40.8242,1367.00,32.00,24.10,72.30,0.00,0.00,0.00,30.02,1019.90,10.00,M,CLR,M,M,M,M,M,M,M,M,M,M,M,M,M,M,32.00,KEKO 180256Z AUTO 00000KT 10SM CLR 00/M04 A3002 RMK AO2 SLP199 T00001044 53001,M
WMC,2022-01-18 02:56,-117.8072,40.9019,1315.00,30.90,26.10,82.15,280.00,3.00,0.00,30.04,1019.80,10.00,M,CLR,M,M,M,M,M,M,M,M,M,M,M,M,M,M,27.43,KWMC 180256Z AUTO 28003KT 10SM CLR M01/M03 A3004 RMK AO2 SLP198 T10061033 53003,M
TPH,2022-01-18 02:56,-117.0904,38.0505,1654.00,34.00,23.00,63.72,360.00,6.00,0.00,30.06,1019.60,10.00,M,FEW,SCT,M,M,5000.00,12000.00,M,M,M,M,M,M,M,M,M,27.94,KTPH 180256Z AUTO 36006KT 10SM FEW050 SCT120 01/M05 A3006 RMK AO2 SLP196 T00111050 53004,M
HND,2022-01-18 02:56,-115.1344,35.9729,742.79,51.00,21.00,30.34,0.00,0.00,0.00,30.04,1019.30,10.00,M,OVC,M,M,M,9000.00,M,M,M,M,M,M,M,M,M,M,51.10,KHND 180256Z 00000KT 10SM OVC090 11/M06 A3004 RMK AO2 SLP193 T01061061 53002,M
INS,2022-01-18 02:58,-115.6733,36.5872,955.00,46.00,15.40,28.98,0.00,0.00,0.00,30.02,1016.60,10.00,M,FEW,M,M,M,22000.00,M,M,M,M,M,M,M,M,M,M,45.90,KINS 180258Z AUTO 00000KT 10SM FEW220 08/M09 A3002 RMK AO2 SLP166 T00771092 53004 $,M
LSV,2022-01-18 02:58,-115.0343,36.2362,570.00,50.00,17.20,26.86,50.00,6.00,0.00,30.01,1016.40,10.00,M,FEW,M,M,M,24000.00,M,M,M,M,M,M,M,M,M,M,50.00,KLSV 180258Z AUTO 05006KT 10SM FEW240 10/M08 A3001 RMK AO2 SLP164 T01001082 $,M
CXP,2022-01-18 03:10,-119.7326,39.1923,1431.00,37.40,28.40,69.67,0.00,0.00,0.00,30.07,M,10.00,M,CLR,M,M,M,M,M,M,M,M,M,M,M,M,M,M,37.40,KCXP 180310Z AUTO 00000KT 10SM CLR 03/M02 A3007 RMK AO2,M
TMT,2022-01-18 03:15,-117.1971,39.4643,1749.34,30.90,26.10,82.15,230.00,4.00,0.00,30.06,M,10.00,M,CLR,M,M,M,M,M,M,M,M,M,M,M,M,M,M,26.14,KTMT 180315Z AUTO 23004KT 10SM CLR M01/M03 A3006 RMK AO2 T10061033,M
MEV,2022-01-18 03:15,-119.7500,38.9963,1441.42,35.60,26.60,69.46,100.00,8.00,0.00,30.05,M,10.00,M,CLR,M,M,M,M,M,M,M,M,M,M,M,M,M,M,28.55,KMEV 180315Z AUTO 10008KT 10SM CLR 02/M03 A3005 RMK AO2,M
RTS,2022-01-18 03:15,-119.8764,39.6682,1539.00,37.40,23.00,55.68,250.00,9.00,0.00,30.06,M,10.00,M,CLR,M,M,M,M,M,M,M,M,M,M,M,M,M,M,30.23,KRTS 180315Z AUTO 25009KT 10SM CLR 03/M05 A3006 RMK AO2,M
BVU,2022-01-18 03:15,-114.8611,35.9475,671.00,55.40,19.40,24.21,20.00,6.00,0.00,30.02,M,10.00,M,OVC,M,M,M,9500.00,M,M,M,M,M,M,M,M,M,M,55.40,KBVU 180315Z AUTO 02006KT 10SM OVC095 13/M07 A3002 RMK AO2,M
05U,2022-01-18 03:15,-116.0051,39.6042,1811.23,26.60,21.20,79.77,0.00,0.00,0.00,30.07,M,10.00,M,CLR,M,M,M,M,M,M,M,M,M,M,M,M,M,M,26.60,K05U 180315Z AUTO 00000KT 10SM CLR M03/M06 A3007 RMK A01,M
BAM,2022-01-18 03:15,-116.8743,40.5990,1382.36,33.80,30.20,86.49,0.00,0.00,0.00,30.05,M,10.00,M,CLR,M,M,M,M,M,M,M,M,M,M,M,M,M,M,33.80,KBAM 180315Z AUTO 00000KT 10SM CLR 01/M01 A3005 RMK AO1,M
HTH,2022-01-18 03:15,-118.6315,38.5448,1282.89,37.40,24.80,60.04,180.00,3.00,0.00,30.06,M,10.00,M,CLR,M,M,M,M,M,M,M,M,M,M,M,M,M,M,34.86,KHTH 180315Z AUTO 18003KT 10SM CLR 03/M04 A3006 RMK A01,M
RTS,2022-01-18 03:35,-119.8764,39.6682,1539.00,37.40,24.80,60.04,290.00,8.00,0.00,30.06,M,10.00,M,CLR,M,M,M,M,M,M,M,M,M,M,M,M,M,M,30.76,KRTS 180335Z AUTO 29008KT 10SM CLR 03/M04 A3006 RMK AO2,M
BVU,2022-01-18 03:35,-114.8611,35.9475,671.00,55.40,19.40,24.21,30.00,6.00,0.00,30.02,M,10.00,M,OVC,M,M,M,9500.00,M,M,M,M,M,M,M,M,M,M,55.40,KBVU 180335Z AUTO 03006KT 10SM OVC095 13/M07 A3002 RMK AO2,M
CXP,2022-01-18 03:35,-119.7326,39.1923,1431.00,35.60,26.60,69.46,0.00,0.00,0.00,30.07,M,9.00,M,CLR,M,M,M,M,M,M,M,M,M,M,M,M,M,M,35.60,KCXP 180335Z AUTO 00000KT 9SM CLR 02/M03 A3007 RMK AO2,M
05U,2022-01-18 03:35,-116.0051,39.6042,1811.23,24.80,19.40,79.62,0.00,0.00,0.00,30.07,M,10.00,M,CLR,M,M,M,M,M,M,M,M,M,M,M,M,M,M,24.80,K05U 180335Z AUTO 00000KT 10SM CLR M04/M07 A3007 RMK A01,M
MEV,2022-01-18 03:35,-119.7500,38.9963,1441.42,33.80,26.60,74.63,50.00,6.00,0.00,30.05,M,10.00,M,CLR,M,M,M,M,M,M,M,M,M,M,M,M,M,M,27.70,KMEV 180335Z AUTO 05006KT 10SM CLR 01/M03 A3005 RMK AO2,M
BAM,2022-01-18 03:35,-116.8743,40.5990,1382.36,32.00,30.20,92.97,0.00,0.00,0.00,30.05,M,10.00,M,CLR,M,M,M,M,M,M,M,M,M,M,M,M,M,M,32.00,KBAM 180335Z AUTO 00000KT 10SM CLR 00/M01 A3005 RMK AO1,M
HTH,2022-01-18 03:35,-118.6315,38.5448,1282.89,37.40,24.80,60.04,200.00,4.00,0.00,30.06,M,10.00,M,CLR,M,M,M,M,M,M,M,M,M,M,M,M,M,M,33.73,KHTH 180335Z AUTO 20004KT 10SM CLR 03/M04 A3006 RMK A01,M
TMT,2022-01-18 03:35,-117.1971,39.4643,1749.34,31.80,25.50,77.27,230.00,3.00,0.00,30.06,M,10.00,M,CLR,M,M,M,M,M,M,M,M,M,M,M,M,M,M,28.46,KTMT 180335Z AUTO 23003KT 10SM CLR 00/M04 A3006 RMK AO2 T10011036,M
LOL,2022-01-18 03:53,-118.5701,40.0684,1192.43,30.90,27.00,85.26,0.00,0.00,0.00,30.05,1020.70,10.00,M,CLR,M,M,M,M,M,M,M,M,M,M,M,M,M,M,30.90,KLOL 180353Z AUTO 00000KT 10SM CLR M01/M03 A3005 RMK AO2 SLP207 T10061028,M
ELY,2022-01-18 03:53,-114.8453,39.2950,1909.00,30.00,21.00,68.81,180.00,5.00,0.00,30.04,1019.50,10.00,M,OVC,M,M,M,10000.00,M,M,M,M,M,M,M,M,M,M,24.02,KELY 180353Z AUTO 18005KT 10SM OVC100 M01/M06 A3004 RMK AO2 SLP195 T10111061,M
VGT,2022-01-18 03:53,-115.1933,36.2111,667.00,52.00,21.00,29.35,280.00,5.00,0.00,30.02,1018.70,10.00,M,OVC,M,M,M,9000.00,M,M,M,M,M,M,M,M,M,M,52.00,KVGT 180353Z 28005KT 10SM OVC090 11/M06 A3002 RMK AO2 SLP187 T01111061,M
BAM,2022-01-18 03:55,-116.8743,40.5990,1382.36,32.00,30.20,92.97,0.00,0.00,0.00,30.05,M,10.00,M,CLR,M,M,M,M,M,M,M,M,M,M,M,M,M,M,32.00,KBAM 180355Z AUTO 00000KT 10SM CLR 00/M01 A3005 RMK AO1,M
BVU,2022-01-18 03:55,-114.8611,35.9475,671.00,55.40,21.20,26.13,30.00,7.00,0.00,30.03,M,10.00,M,OVC,M,M,M,9500.00,M,M,M,M,M,M,M,M,M,M,55.40,KBVU 180355Z AUTO 03007KT 10SM OVC095 13/M06 A3003 RMK AO2,M
CXP,2022-01-18 03:55,-119.7326,39.1923,1431.00,37.40,26.60,64.70,0.00,0.00,0.00,30.07,M,10.00,M,CLR,M,M,M,M,M,M,M,M,M,M,M,M,M,M,37.40,KCXP 180355Z AUTO 00000KT 10SM CLR 03/M03 A3007 RMK AO2,M
RNO,2022-01-18 03:55,-119.7711,39.4839,1341.00,39.00,27.00,61.78,190.00,3.00,0.00,30.05,1018.80,10.00,M,BKN,M,M,M,21000.00,M,M,M,M,M,M,M,M,M,M,36.69,KRNO 180355Z 19003KT 10SM BKN210 04/M03 A3005 RMK AO2 SLP188 T00391028 $,M
RTS,2022-01-18 03:55,-119.8764,39.6682,1539.00,37.40,24.80,60.04,270.00,7.00,0.00,30.07,M,10.00,M,CLR,M,M,M,M,M,M,M,M,M,M,M,M,M,M,31.36,KRTS 180355Z AUTO 27007KT 10SM CLR 03/M04 A3007 RMK AO2,M
05U,2022-01-18 03:55,-116.0051,39.6042,1811.23,24.80,19.40,79.62,0.00,0.00,0.00,30.06,M,10.00,M,CLR,M,M,M,M,M,M,M,M,M,M,M,M,M,M,24.80,K05U 180355Z AUTO 00000KT 10SM CLR M04/M07 A3006 RMK A01,M
MEV,2022-01-18 03:55,-119.7500,38.9963,1441.42,32.00,24.80,74.44,0.00,0.00,0.00,30.06,M,10.00,M,CLR,M,M,M,M,M,M,M,M,M,M,M,M,M,M,32.00,KMEV 180355Z AUTO 00000KT 10SM CLR M00/M04 A3006 RMK AO2,M
TMT,2022-01-18 03:55,-117.1971,39.4643,1749.34,30.70,25.70,81.45,230.00,3.00,0.00,30.06,M,10.00,M,CLR,M,M,M,M,M,M,M,M,M,M,M,M,M,M,27.20,KTMT 180355Z AUTO 23003KT 10SM CLR M01/M03 A3006 RMK AO2 T10071035,M
HTH,2022-01-18 03:55,-118.6315,38.5448,1282.89,35.60,24.80,64.46,0.00,0.00,0.00,30.06,M,10.00,M,CLR,M,M,M,M,M,M,M,M,M,M,M,M,M,M,35.60,KHTH 180355Z AUTO 00000KT 10SM CLR 02/M04 A3006 RMK A01,M
WMC,2022-01-18 03:56,-117.8072,40.9019,1315.00,28.00,25.00,88.33,130.00,4.00,0.00,30.05,1020.10,10.00,M,CLR,M,M,M,M,M,M,M,M,M,M,M,M,M,M,22.75,KWMC 180356Z AUTO 13004KT 10SM CLR M02/M04 A3005 RMK AO2 SLP201 T10221039,M
EKO,2022-01-18 03:56,-115.7860,40.8242,1367.00,30.00,25.00,81.40,0.00,0.00,0.00,30.02,1019.90,10.00,M,CLR,M,M,M,M,M,M,M,M,M,M,M,M,M,M,30.00,KEKO 180356Z AUTO 00000KT 10SM CLR M01/M04 A3002 RMK AO2 SLP199 T10111039,M
TPH,2022-01-18 03:56,-117.0904,38.0505,1654.00,32.00,21.90,65.92,10.00,7.00,0.00,30.06,1019.80,10.00,M,BKN,M,M,M,11000.00,M,M,M,M,M,M,M,M,M,M,24.78,KTPH 180356Z AUTO 01007KT 10SM BKN110 00/M06 A3006 RMK AO2 SLP198 T00001056,M
LAS,2022-01-18 03:56,-115.1634,36.0719,663.00,52.00,19.90,28.01,240.00,4.00,0.00,30.02,1016.40,10.00,M,OVC,M,M,M,9500.00,M,M,M,M,M,M,M,M,M,M,52.00,KLAS 180356Z 24004KT 10SM OVC095 11/M07 A3002 RMK AO2 SLP164 T01111067,M
HND,2022-01-18 03:56,-115.1344,35.9729,742.79,50.00,21.90,32.83,160.00,5.00,0.00,30.04,1019.40,10.00,M,SCT,OVC,M,M,6500.00,9000.00,M,M,M,M,M,M,M,M,M,50.00,KHND 180356Z 16005KT 10SM SCT065 OVC090 10/M06 A3004 RMK AO2 SLP194 T01001056,M
LSV,2022-01-18 03:58,-115.0343,36.2362,570.00,47.80,17.10,29.04,30.00,6.00,0.00,30.02,1016.90,10.00,M,FEW,M,M,M,23000.00,M,M,M,M,M,M,M,M,M,M,44.56,KLSV 180358Z AUTO 03006KT 10SM FEW230 09/M08 A3002 RMK AO2 SLP169 T00881083 $,M
INS,2022-01-18 03:58,-115.6733,36.5872,955.00,45.00,15.60,30.13,160.00,6.00,0.00,30.03,1016.90,10.00,M,CLR,M,M,M,M,M,M,M,M,M,M,M,M,M,M,41.31,KINS 180358Z AUTO 16006KT 10SM CLR 07/M09 A3003 RMK AO2 SLP169 T00731091 $,M
BVU,2022-01-18 04:15,-114.8611,35.9475,671.00,55.40,21.20,26.13,20.00,5.00,0.00,30.03,M,10.00,M,OVC,M,M,M,9500.00,M,M,M,M,M,M,M,M,M,M,55.40,KBVU 180415Z AUTO 02005KT 10SM OVC095 13/M06 A3003 RMK AO2,M
CXP,2022-01-18 04:15,-119.7326,39.1923,1431.00,33.80,26.60,74.63,0.00,0.00,0.00,30.08,M,10.00,M,CLR,M,M,M,M,M,M,M,M,M,M,M,M,M,M,33.80,KCXP 180415Z AUTO 00000KT 10SM CLR 01/M03 A3008 RMK AO2,M
RTS,2022-01-18 04:15,-119.8764,39.6682,1539.00,37.40,24.80,60.04,270.00,4.00,0.00,30.07,M,10.00,M,CLR,M,M,M,M,M,M,M,M,M,M,M,M,M,M,33.73,KRTS 180415Z AUTO 27004KT 10SM CLR 03/M04 A3007 RMK AO2,M
05U,2022-01-18 04:15,-116.0051,39.6042,1811.23,24.80,19.40,79.62,210.00,5.00,0.00,30.06,M,10.00,M,CLR,M,M,M,M,M,M,M,M,M,M,M,M,M,M,17.84,K05U 180415Z AUTO 21005KT 10SM CLR M04/M07 A3006 RMK A01,M
MEV,2022-01-18 04:15,-119.7500,38.9963,1441.42,32.00,26.60,80.22,160.00,3.00,0.00,30.06,M,10.00,M,CLR,M,M,M,M,M,M,M,M,M,M,M,M,M,M,28.69,KMEV 180415Z AUTO 16003KT 10SM CLR 00/M03 A3006 RMK AO2,M
TMT,2022-01-18 04:15,-117.1971,39.4643,1749.34,30.00,25.90,84.50,250.00,3.00,0.00,30.06,M,10.00,M,BKN,M,M,M,4200.00,M,M,M,M,M,M,M,M,M,M,26.40,KTMT 180415Z AUTO 25003KT 10SM BKN042 M01/M03 A3006 RMK AO2 T10111034,M
BAM,2022-01-18 04:15,-116.8743,40.5990,1382.36,32.00,30.20,92.97,0.00,0.00,0.00,30.05,M,10.00,M,CLR,M,M,M,M,M,M,M,M,M,M,M,M,M,M,32.00,KBAM 180415Z AUTO 00000KT 10SM CLR 00/M01 A3005 RMK AO1,M
HTH,2022-01-18 04:15,-118.6315,38.5448,1282.89,32.00,23.00,69.04,130.00,6.00,0.00,30.06,M,10.00,M,CLR,M,M,M,M,M,M,M,M,M,M,M,M,M,M,25.53,KHTH 180415Z AUTO 13006KT 10SM CLR 00/M05 A3006 RMK A01,M
INS,2022-01-18 04:23,-115.6733,36.5872,955.00,46.40,15.80,28.93,170.00,4.00,0.00,30.04,1017.00,10.00,M,BKN,M,M,M,6000.00,M,M,M,M,M,M,M,M,M,M,44.24,KINS 180423Z AUTO 17004KT 10SM BKN060 08/M09 A3004 RMK AO2 SLP170 $,M
HTH,2022-01-18 04:35,-118.6315,38.5448,1282.89,32.00,23.00,69.04,160.00,3.00,0.00,30.06,M,10.00,M,CLR,M,M,M,M,M,M,M,M,M,M,M,M,M,M,28.69,KHTH 180435Z AUTO 16003KT 10SM CLR M00/M05 A3006 RMK A01,M
MEV,2022-01-18 04:35,-119.7500,38.9963,1441.42,30.20,24.80,80.07,0.00,0.00,0.00,30.06,M,10.00,M,CLR,M,M,M,M,M,M,M,M,M,M,M,M,M,M,30.20,KMEV 180435Z AUTO 00000KT 10SM CLR M01/M04 A3006 RMK AO2,M
TMT,2022-01-18 04:35,-117.1971,39.4643,1749.34,30.70,25.30,80.11,230.00,5.00,0.00,30.06,M,10.00,M,SCT,M,M,M,4200.00,M,M,M,M,M,M,M,M,M,M,24.85,KTMT 180435Z AUTO 23005KT 10SM SCT042 M01/M04 A3006 RMK AO2 T10071037,M
BAM,2022-01-18 04:35,-116.8743,40.5990,1382.36,32.00,32.00,100.00,140.00,3.00,0.00,30.05,M,10.00,M,CLR,M,M,M,M,M,M,M,M,M,M,M,M,M,M,28.69,KBAM 180435Z AUTO 14003KT 10SM CLR 00/00 A3005 RMK AO1,M
BVU,2022-01-18 04:35,-114.8611,35.9475,671.00,55.40,21.20,26.13,20.00,5.00,0.00,30.03,M,10.00,M,OVC,M,M,M,9500.00,M,M,M,M,M,M,M,M,M,M,55.40,KBVU 180435Z AUTO 02005KT 10SM OVC095 13/M06 A3003 RMK AO2,M
CXP,2022-01-18 04:35,-119.7326,39.1923,1431.00,33.80,26.60,74.63,0.00,0.00,0.00,30.08,M,10.00,M,CLR,M,M,M,M,M,M,M,M,M,M,M,M,M,M,33.80,KCXP 180435Z AUTO 00000KT 10SM CLR 01/M03 A3008 RMK AO2,M
RTS,2022-01-18 04:35,-119.8764,39.6682,1539.00,37.40,23.00,55.68,220.00,3.00,0.00,30.07,M,10.00,M,CLR,M,M,M,M,M,M,M,M,M,M,M,M,M,M,34.86,KRTS 180435Z AUTO 22003KT 10SM CLR 03/M05 A3007 RMK AO2,M
05U,2022-01-18 04:35,-116.0051,39.6042,1811.23,24.80,19.40,79.62,210.00,5.00,0.00,30.07,M,10.00,M,CLR,M,M,M,M,M,M,M,M,M,M,M,M,M,M,17.84,K05U 180435Z AUTO 21005KT 10SM CLR M04/M07 A3007 RMK A01,M
VGT,2022-01-18 04:53,-115.1933,36.2111,667.00,52.00,21.00,29.35,310.00,3.00,0.00,30.03,1018.60,10.00,M,BKN,OVC,M,M,9000.00,10000.00,M,M,M,M,M,M,M,M,M,52.00,KVGT 180453Z AUTO 31003KT 10SM BKN090 OVC100 11/M06 A3003 RMK AO2 SLP186 T01111061,M
LOL,2022-01-18 04:53,-118.5701,40.0684,1192.43,28.00,25.00,88.33,0.00,0.00,0.00,30.06,1020.80,10.00,M,CLR,M,M,M,M,M,M,M,M,M,M,M,M,M,M,28.00,KLOL 180453Z AUTO 00000KT 10SM CLR M02/M04 A3006 RMK AO2 SLP208 T10221039,M
ELY,2022-01-18 04:53,-114.8453,39.2950,1909.00,28.90,21.00,71.96,0.00,0.00,0.00,30.04,1018.40,10.00,M,CLR,M,M,M,M,M,M,M,M,M,M,M,M,M,M,28.90,KELY 180453Z AUTO 00000KT 10SM CLR M02/M06 A3004 RMK AO2 SLP184 T10171061,M
TMT,2022-01-18 04:55,-117.1971,39.4643,1749.34,30.20,25.00,80.74,230.00,5.00,0.00,30.07,M,10.00,M,SCT,M,M,M,4900.00,M,M,M,M,M,M,M,M,M,M,24.26,KTMT 180455Z AUTO 23005KT 10SM SCT049 M01/M04 A3007 RMK AO2 T10101039,M
BVU,2022-01-18 04:55,-114.8611,35.9475,671.00,53.60,21.20,27.91,20.00,4.00,0.00,30.04,M,10.00,M,SCT,BKN,M,M,7000.00,10000.00,M,M,M,M,M,M,M,M,M,53.60,KBVU 180455Z AUTO 02004KT 10SM SCT070 BKN100 12/M06 A3004 RMK AO2,M
CXP,2022-01-18 04:55,-119.7326,39.1923,1431.00,33.80,26.60,74.63,0.00,0.00,0.00,30.08,M,10.00,M,CLR,M,M,M,M,M,M,M,M,M,M,M,M,M,M,33.80,KCXP 180455Z AUTO 00000KT 10SM CLR 01/M03 A3008 RMK AO2,M
RNO,2022-01-18 04:55,-119.7711,39.4839,1341.00,37.00,27.00,66.82,0.00,0.00,0.00,30.07,1018.80,10.00,M,FEW,BKN,M,M,7500.00,20000.00,M,M,M,M,M,M,M,M,M,37.00,KRNO 180455Z 00000KT 10SM FEW075 BKN200 03/M03 A3007 RMK AO2 SLP188 T00281028 $,M
RTS,2022-01-18 04:55,-119.8764,39.6682,1539.00,37.40,24.80,60.04,0.00,0.00,0.00,30.08,M,10.00,M,CLR,M,M,M,M,M,M,M,M,M,M,M,M,M,M,37.40,KRTS 180455Z AUTO 00000KT 10SM CLR 03/M04 A3008 RMK AO2,M
05U,2022-01-18 04:55,-116.0051,39.6042,1811.23,26.60,19.40,73.89,210.00,6.00,0.00,30.07,M,10.00,M,CLR,M,M,M,M,M,M,M,M,M,M,M,M,M,M,19.03,K05U 180455Z AUTO 21006KT 10SM CLR M03/M07 A3007 RMK A01,M
MEV,2022-01-18 04:55,-119.7500,38.9963,1441.42,30.20,24.80,80.07,0.00,0.00,0.00,30.07,M,10.00,M,CLR,M,M,M,M,M,M,M,M,M,M,M,M,M,M,30.20,KMEV 180455Z AUTO 00000KT 10SM CLR M01/M04 A3007 RMK AO2,M
BAM,2022-01-18 04:55,-116.8743,40.5990,1382.36,32.00,32.00,100.00,180.00,3.00,0.00,30.05,M,10.00,M,CLR,M,M,M,M,M,M,M,M,M,M,M,M,M,M,28.69,KBAM 180455Z AUTO 18003KT 10SM CLR 00/00 A3005 RMK AO1,M
HTH,2022-01-18 04:55,-118.6315,38.5448,1282.89,33.80,23.00,64.23,230.00,4.00,0.00,30.06,M,10.00,M,CLR,M,M,M,M,M,M,M,M,M,M,M,M,M,M,29.52,KHTH 180455Z AUTO 23004KT 10SM CLR 01/M05 A3006 RMK A01,M
HND,2022-01-18 04:56,-115.1344,35.9729,742.79,50.00,21.00,31.60,210.00,4.00,0.00,30.05,1019.40,10.00,M,OVC,M,M,M,9500.00,M,M,M,M,M,M,M,M,M,M,50.00,KHND 180456Z AUTO 21004KT 10SM OVC095 10/M06 A3005 RMK AO2 SLP194 T01001061,M
LAS,2022-01-18 04:56,-115.1634,36.0719,663.00,53.00,21.00,28.18,0.00,0.00,0.00,30.03,1016.50,10.00,M,BKN,BKN,M,M,9500.00,23000.00,M,M,M,M,M,M,M,M,M,53.10,KLAS 180456Z 00000KT 10SM BKN095 BKN230 12/M06 A3003 RMK AO2 SLP165 T01171061,M
EKO,2022-01-18 04:56,-115.7860,40.8242,1367.00,28.90,24.10,82.00,0.00,0.00,0.00,30.03,1019.90,10.00,M,CLR,M,M,M,M,M,M,M,M,M,M,M,M,M,M,28.90,KEKO 180456Z AUTO 00000KT 10SM CLR M02/M04 A3003 RMK AO2 SLP199 T10171044,M
WMC,2022-01-18 04:56,-117.8072,40.9019,1315.00,28.00,25.00,88.33,0.00,0.00,0.00,30.05,1019.90,10.00,M,CLR,M,M,M,M,M,M,M,M,M,M,M,M,M,M,28.00,KWMC 180456Z AUTO 00000KT 10SM CLR M02/M04 A3005 RMK AO2 SLP199 T10221039,M
TPH,2022-01-18 04:56,-117.0904,38.0505,1654.00,32.00,24.10,72.30,360.00,8.00,0.00,30.06,1019.60,10.00,M,FEW,SCT,M,M,9500.00,11000.00,M,M,M,M,M,M,M,M,M,24.11,KTPH 180456Z AUTO 36008KT 10SM FEW095 SCT110 00/M04 A3006 RMK AO2 SLP196 T00001044,M
LSV,2022-01-18 04:58,-115.0343,36.2362,570.00,46.20,16.50,30.05,30.00,5.00,0.00,30.03,1017.10,10.00,M,FEW,M,M,M,10000.00,M,M,M,M,M,M,M,M,M,M,43.26,KLSV 180458Z AUTO 03005KT 10SM FEW100 08/M09 A3003 RMK AO2 SLP171 T00791086 $,M
INS,2022-01-18 04:58,-115.6733,36.5872,955.00,46.00,15.40,28.98,190.00,3.00,0.00,30.05,1017.10,10.00,M,BKN,OVC,M,M,6500.00,9000.00,M,M,M,M,M,M,M,M,M,44.58,KINS 180458Z AUTO 19003KT 10SM BKN065 OVC090 08/M09 A3005 RMK AO2 SLP171 T00771092 $,M
CXP,2022-01-18 05:10,-119.7326,39.1923,1431.00,32.00,26.60,80.22,0.00,0.00,0.00,30.07,M,10.00,M,CLR,M,M,M,M,M,M,M,M,M,M,M,M,M,M,32.00,KCXP 180510Z AUTO 00000KT 10SM CLR 00/M03 A3007 RMK AO2,M
BVU,2022-01-18 05:15,-114.8611,35.9475,671.00,51.80,19.40,27.62,0.00,0.00,0.00,30.04,M,10.00,M,BKN,BKN,M,M,7500.00,9000.00,M,M,M,M,M,M,M,M,M,51.80,KBVU 180515Z AUTO 00000KT 10SM BKN075 BKN090 11/M07 A3004 RMK AO2,M
RTS,2022-01-18 05:15,-119.8764,39.6682,1539.00,35.60,24.80,64.46,0.00,0.00,0.00,30.08,M,10.00,M,CLR,M,M,M,M,M,M,M,M,M,M,M,M,M,M,35.60,KRTS 180515Z AUTO 00000KT 10SM CLR 02/M04 A3008 RMK AO2,M
05U,2022-01-18 05:15,-116.0051,39.6042,1811.23,28.40,17.60,63.51,0.00,0.00,0.00,30.07,M,10.00,M,CLR,M,M,M,M,M,M,M,M,M,M,M,M,M,M,28.40,K05U 180515Z AUTO 00000KT 10SM CLR M02/M08 A3007 RMK A01,M
MEV,2022-01-18 05:15,-119.7500,38.9963,1441.42,26.60,23.00,86.07,120.00,6.00,0.00,30.07,M,10.00,M,CLR,M,M,M,M,M,M,M,M,M,M,M,M,M,M,19.03,KMEV 180515Z AUTO 12006KT 10SM CLR M03/M05 A3007 RMK AO2,M
BAM,2022-01-18 05:15,-116.8743,40.5990,1382.36,32.00,32.00,100.00,200.00,3.00,0.00,30.06,M,10.00,M,CLR,M,M,M,M,M,M,M,M,M,M,M,M,M,M,28.69,KBAM 180515Z AUTO 20003KT 10SM CLR 00/00 A3006 RMK AO1,M
HTH,2022-01-18 05:15,-118.6315,38.5448,1282.89,33.80,23.00,64.23,200.00,4.00,0.00,30.06,M,10.00,M,CLR,M,M,M,M,M,M,M,M,M,M,M,M,M,M,29.52,KHTH 180515Z AUTO 20004KT 10SM CLR 01/M05 A3006 RMK A01,M
TMT,2022-01-18 05:15,-117.1971,39.4643,1749.34,29.80,25.50,83.79,200.00,5.00,0.00,30.07,M,10.00,M,SCT,M,M,M,4900.00,M,M,M,M,M,M,M,M,M,M,23.78,KTMT 180515Z AUTO 20005KT 10SM SCT049 M01/M04 A3007 RMK AO2 T10121036,M
05U,2022-01-18 05:30,-116.0051,39.6042,1811.23,28.40,17.60,63.51,0.00,0.00,0.00,30.07,M,10.00,M,CLR,M,M,M,M,M,M,M,M,M,M,M,M,M,M,28.40,K05U 180530Z AUTO 00000KT 10SM CLR M02/M08 A3007 RMK A01,M
HTH,2022-01-18 05:35,-118.6315,38.5448,1282.89,35.60,23.00,59.79,0.00,0.00,0.00,30.07,M,10.00,M,FEW,M,M,M,12000.00,M,M,M,M,M,M,M,M,M,M,35.60,KHTH 180535Z AUTO 00000KT 10SM FEW120 02/M05 A3007 RMK A01,M
TMT,2022-01-18 05:35,-117.1971,39.4643,1749.34,28.90,24.80,84.43,0.00,0.00,0.00,30.07,M,10.00,M,SCT,M,M,M,4900.00,M,M,M,M,M,M,M,M,M,M,28.90,KTMT 180535Z AUTO 00000KT 10SM SCT049 M02/M04 A3007 RMK AO2 T10171040,M
BAM,2022-01-18 05:35,-116.8743,40.5990,1382.36,30.20,30.20,100.00,0.00,0.00,0.00,30.06,M,10.00,M,CLR,M,M,M,M,M,M,M,M,M,M,M,M,M,M,30.20,KBAM 180535Z AUTO 00000KT 10SM CLR M01/M01 A3006 RMK AO1,M
MEV,2022-01-18 05:35,-119.7500,38.9963,1441.42,26.60,24.80,92.80,140.00,7.00,0.00,30.07,M,10.00,M,CLR,M,M,M,M,M,M,M,M,M,M,M,M,M,M,18.20,KMEV 180535Z AUTO 14007KT 10SM CLR M03/M04 A3007 RMK AO2,M
BVU,2022-01-18 05:35,-114.8611,35.9475,671.00,51.80,17.60,25.56,310.00,3.00,0.00,30.04,M,10.00,M,BKN,BKN,M,M,7500.00,9500.00,M,M,M,M,M,M,M,M,M,51.80,KBVU 180535Z AUTO 31003KT 10SM BKN075 BKN095 11/M08 A3004 RMK AO2,M
RTS,2022-01-18 05:35,-119.8764,39.6682,1539.00,37.40,23.00,55.68,0.00,0.00,0.00,30.09,M,10.00,M,CLR,M,M,M,M,M,M,M,M,M,M,M,M,M,M,37.40,KRTS 180535Z AUTO 00000KT 10SM CLR 03/M05 A3009 RMK AO2,M
CXP,2022-01-18 05:35,-119.7326,39.1923,1431.00,32.00,26.60,80.22,0.00,0.00,0.00,30.08,M,10.00,M,CLR,M,M,M,M,M,M,M,M,M,M,M,M,M,M,32.00,KCXP 180535Z AUTO 00000KT 10SM CLR 00/M03 A3008 RMK AO2,M
LOL,2022-01-18 05:53,-118.5701,40.0684,1192.43,27.00,24.10,88.65,70.00,3.00,0.00,30.06,1020.70,10.00,M,CLR,M,M,M,M,M,M,M,M,M,M,M,M,M,M,22.97,KLOL 180553Z AUTO 07003KT 10SM CLR M03/M04 A3006 RMK AO2 SLP207 T10281044 10061 21033 53004,M
ELY,2022-01-18 05:53,-114.8453,39.2950,1909.00,27.00,19.90,74.25,220.00,5.00,0.00,30.04,1017.80,10.00,M,SCT,M,M,M,12000.00,M,M,M,M,M,M,M,M,M,M,20.46,KELY 180553Z AUTO 22005KT 10SM SCT120 M03/M07 A3004 RMK AO2 SLP178 T10281067 10044 21033 58002,M
VGT,2022-01-18 05:53,-115.1933,36.2111,667.00,51.00,21.90,31.52,330.00,4.00,0.00,30.03,1018.60,10.00,M,OVC,M,M,M,10000.00,M,M,M,M,M,M,M,M,M,M,51.10,KVGT 180553Z AUTO 33004KT 10SM OVC100 11/M06 A3003 RMK AO2 SLP186 T01061056 10161 20106 51004,M
HTH,2022-01-18 05:55,-118.6315,38.5448,1282.89,33.80,23.00,64.23,230.00,3.00,0.00,30.07,M,10.00,M,CLR,M,M,M,M,M,M,M,M,M,M,M,M,M,M,30.75,KHTH 180555Z AUTO 23003KT 10SM CLR 01/M05 A3007 RMK A01,M
RTS,2022-01-18 05:55,-119.8764,39.6682,1539.00,33.80,24.80,69.25,0.00,0.00,0.00,30.08,M,10.00,M,CLR,M,M,M,M,M,M,M,M,M,M,M,M,M,M,33.80,KRTS 180555Z AUTO 00000KT 10SM CLR 01/M04 A3008 RMK AO2,M
05U,2022-01-18 05:55,-116.0051,39.6042,1811.23,24.80,17.60,73.70,160.00,4.00,0.00,30.06,M,10.00,M,CLR,M,M,M,M,M,M,M,M,M,M,M,M,M,M,19.01,K05U 180555Z AUTO 16004KT 10SM CLR M04/M08 A3006 RMK A01,M
BVU,2022-01-18 05:55,-114.8611,35.9475,671.00,50.00,19.40,29.52,0.00,0.00,0.00,30.04,M,10.00,M,FEW,BKN,M,M,7500.00,9500.00,M,M,M,M,M,M,M,M,M,50.00,KBVU 180555Z AUTO 00000KT 10SM FEW075 BKN095 10/M07 A3004 RMK AO2,M
CXP,2022-01-18 05:55,-119.7326,39.1923,1431.00,32.00,26.60,80.22,0.00,0.00,0.00,30.08,M,10.00,M,CLR,M,M,M,M,M,M,M,M,M,M,M,M,M,M,32.00,KCXP 180555Z AUTO 00000KT 10SM CLR 00/M03 A3008 RMK AO2,M
MEV,2022-01-18 05:55,-119.7500,38.9963,1441.42,28.40,24.80,86.18,150.00,6.00,0.00,30.08,M,10.00,M,CLR,M,M,M,M,M,M,M,M,M,M,M,M,M,M,21.19,KMEV 180555Z AUTO 15006KT 10SM CLR M02/M04 A3008 RMK AO2,M
TMT,2022-01-18 05:55,-117.1971,39.4643,1749.34,30.00,25.30,82.42,0.00,0.00,0.00,30.07,M,10.00,M,BKN,M,M,M,4900.00,M,M,M,M,M,M,M,M,M,M,30.00,KTMT 180555Z AUTO 00000KT 10SM BKN049 M01/M04 A3007 RMK AO2 T10111037 10060 21020,M
RNO,2022-01-18 05:55,-119.7711,39.4839,1341.00,35.00,26.10,69.41,0.00,0.00,0.00,30.07,1018.90,10.00,M,FEW,BKN,M,M,7500.00,20000.00,M,M,M,M,M,M,M,M,M,35.10,KRNO 180555Z 00000KT 10SM FEW075 BKN200 02/M03 A3007 RMK AO2 SLP189 T00171033 10111 20011 53007 $,M
BAM,2022-01-18 05:55,-116.8743,40.5990,1382.36,30.20,30.20,100.00,260.00,3.00,0.00,30.05,M,10.00,M,CLR,M,M,M,M,M,M,M,M,M,M,M,M,M,M,26.63,KBAM 180555Z AUTO 26003KT 10SM CLR M01/M01 A3005 RMK AO1,M
HND,2022-01-18 05:56,-115.1344,35.9729,742.79,50.00,21.90,32.83,170.00,5.00,0.00,30.05,1019.10,10.00,M,BKN,OVC,M,M,9000.00,11000.00,M,M,M,M,M,M,M,M,M,50.00,KHND 180556Z AUTO 17005KT 10SM BKN090 OVC110 10/M06 A3005 RMK AO2 SLP191 T01001056 10139 20094 50002,M
EKO,2022-01-18 05:56,-115.7860,40.8242,1367.00,28.00,23.00,81.25,0.00,0.00,0.00,30.03,1019.40,10.00,M,CLR,M,M,M,M,M,M,M,M,M,M,M,M,M,M,28.00,KEKO 180556Z AUTO 00000KT 10SM CLR M02/M05 A3003 RMK AO2 SLP194 T10221050 10044 21022 53002,M
WMC,2022-01-18 05:56,-117.8072,40.9019,1315.00,27.00,24.10,88.65,0.00,0.00,0.00,30.06,1019.60,10.00,M,CLR,M,M,M,M,M,M,M,M,M,M,M,M,M,M,27.00,KWMC 180556Z AUTO 00000KT 10SM CLR M03/M04 A3006 RMK AO2 SLP196 T10281044 10067 21028 51006,M
TPH,2022-01-18 05:56,-117.0904,38.0505,1654.00,30.00,23.00,74.87,10.00,8.00,0.00,30.07,1019.30,10.00,M,FEW,M,M,M,9500.00,M,M,M,M,M,M,M,M,M,M,21.65,KTPH 180556Z AUTO 01008KT 10SM FEW095 M01/M05 A3007 RMK AO2 SLP193 T10111050 10061 21011 53003,M
LAS,2022-01-18 05:56,-115.1634,36.0719,663.00,51.00,21.00,30.34,0.00,0.00,0.00,30.03,1016.50,10.00,M,BKN,BKN,OVC,M,9000.00,11000.00,23000.00,M,M,M,M,M,M,M,M,51.10,KLAS 180556Z 00000KT 10SM BKN090 BKN110 OVC230 11/M06 A3003 RMK AO2 SLP165 T01061061 10144 20106 51005,M
LSV,2022-01-18 05:58,-115.0343,36.2362,570.00,45.50,16.50,30.86,40.00,5.00,0.00,30.03,1017.00,10.00,M,BKN,OVC,M,M,9500.00,23000.00,M,M,M,M,M,M,M,M,M,42.43,KLSV 180558Z AUTO 04005KT 10SM BKN095 OVC230 08/M09 A3003 RMK AO2 SLP170 T00751086 10155 20070 52005 $,M
INS,2022-01-18 05:58,-115.6733,36.5872,955.00,42.80,17.10,35.11,220.00,3.00,0.00,30.05,1016.90,10.00,M,BKN,BKN,M,M,8000.00,10000.00,M,M,M,M,M,M,M,M,M,41.03,KINS 180558Z AUTO 22003KT 10SM BKN080 BKN100 06/M08 A3005 RMK AO2 SLP169 T00601083 10139 20060 51008 $,M
HTH,2022-01-18 06:15,-118.6315,38.5448,1282.89,32.00,23.00,69.04,0.00,0.00,0.00,30.07,M,10.00,M,CLR,M,M,M,M,M,M,M,M,M,M,M,M,M,M,32.00,KHTH 180615Z AUTO 00000KT 10SM CLR M00/M05 A3007 RMK A01,M
BAM,2022-01-18 06:15,-116.8743,40.5990,1382.36,30.20,30.20,100.00,0.00,0.00,0.00,30.06,M,10.00,M,CLR,M,M,M,M,M,M,M,M,M,M,M,M,M,M,30.20,KBAM 180615Z AUTO 00000KT 10SM CLR M01/M01 A3006 RMK AO1,M
BVU,2022-01-18 06:15,-114.8611,35.9475,671.00,50.00,21.20,31.87,0.00,0.00,0.00,30.04,M,10.00,M,BKN,OVC,M,M,7000.00,10000.00,M,M,M,M,M,M,M,M,M,50.00,KBVU 180615Z AUTO 00000KT 10SM BKN070 OVC100 10/M06 A3004 RMK AO2,M
CXP,2022-01-18 06:15,-119.7326,39.1923,1431.00,32.00,26.60,80.22,0.00,0.00,0.00,30.09,M,10.00,M,CLR,M,M,M,M,M,M,M,M,M,M,M,M,M,M,32.00,KCXP 180615Z AUTO 00000KT 10SM CLR M00/M03 A3009 RMK AO2,M
RTS,2022-01-18 06:15,-119.8764,39.6682,1539.00,30.20,23.00,74.26,340.00,3.00,0.00,30.09,M,10.00,M,CLR,M,M,M,M,M,M,M,M,M,M,M,M,M,M,26.63,KRTS 180615Z AUTO 34003KT 10SM CLR M01/M05 A3009 RMK AO2,M
MEV,2022-01-18 06:15,-119.7500,38.9963,1441.42,28.40,24.80,86.18,130.00,5.00,0.00,30.08,M,10.00,M,CLR,M,M,M,M,M,M,M,M,M,M,M,M,M,M,22.12,KMEV 180615Z AUTO 13005KT 10SM CLR M02/M04 A3008 RMK AO2,M
05U,2022-01-18 06:15,-116.0051,39.6042,1811.23,24.80,17.60,73.70,200.00,5.00,0.00,30.06,M,10.00,M,SCT,M,M,M,4400.00,M,M,M,M,M,M,M,M,M,M,17.84,K05U 180615Z AUTO 20005KT 10SM SCT044 M04/M08 A3006 RMK A01,M
TMT,2022-01-18 06:15,-117.1971,39.4643,1749.34,27.30,24.30,88.30,310.00,3.00,0.00,30.07,M,10.00,M,SCT,M,M,M,5500.00,M,M,M,M,M,M,M,M,M,M,23.32,KTMT 180615Z AUTO 31003KT 10SM SCT055 M03/M04 A3007 RMK AO2 T10261043,M
BAM,2022-01-18 06:35,-116.8743,40.5990,1382.36,30.20,30.20,100.00,310.00,4.00,0.00,30.06,M,10.00,M,CLR,M,M,M,M,M,M,M,M,M,M,M,M,M,M,25.32,KBAM 180635Z AUTO 31004KT 10SM CLR M01/M01 A3006 RMK AO1,M
MEV,2022-01-18 06:35,-119.7500,38.9963,1441.42,28.40,24.80,86.18,120.00,6.00,0.00,30.08,M,10.00,M,CLR,M,M,M,M,M,M,M,M,M,M,M,M,M,M,21.19,KMEV 180635Z AUTO 12006KT 10SM CLR M02/M04 A3008 RMK AO2,M
TMT,2022-01-18 06:35,-117.1971,39.4643,1749.34,27.50,24.40,87.94,280.00,4.00,0.00,30.07,M,10.00,M,SCT,M,M,M,5500.00,M,M,M,M,M,M,M,M,M,M,22.17,KTMT 180635Z AUTO 28004KT 10SM SCT055 M02/M04 A3007 RMK AO2 T10251042,M
HTH,2022-01-18 06:35,-118.6315,38.5448,1282.89,32.00,23.00,69.04,250.00,4.00,0.00,30.07,M,10.00,M,CLR,M,M,M,M,M,M,M,M,M,M,M,M,M,M,27.42,KHTH 180635Z AUTO 25004KT 10SM CLR 00/M05 A3007 RMK A01,M
BVU,2022-01-18 06:35,-114.8611,35.9475,671.00,51.80,21.20,29.82,0.00,0.00,0.00,30.04,M,10.00,M,SCT,OVC,M,M,7000.00,10000.00,M,M,M,M,M,M,M,M,M,51.80,KBVU 180635Z AUTO 00000KT 10SM SCT070 OVC100 11/M06 A3004 RMK AO2,M
CXP,2022-01-18 06:35,-119.7326,39.1923,1431.00,30.20,24.80,80.07,0.00,0.00,0.00,30.09,M,10.00,M,CLR,M,M,M,M,M,M,M,M,M,M,M,M,M,M,30.20,KCXP 180635Z AUTO 00000KT 10SM CLR M01/M04 A3009 RMK AO2,M
RTS,2022-01-18 06:35,-119.8764,39.6682,1539.00,32.00,23.00,69.04,330.00,4.00,0.00,30.09,M,10.00,M,CLR,M,M,M,M,M,M,M,M,M,M,M,M,M,M,27.42,KRTS 180635Z AUTO 33004KT 10SM CLR 00/M05 A3009 RMK AO2,M
05U,2022-01-18 06:35,-116.0051,39.6042,1811.23,26.60,17.60,68.40,0.00,0.00,0.00,30.06,M,10.00,M,SCT,M,M,M,4500.00,M,M,M,M,M,M,M,M,M,M,26.60,K05U 180635Z AUTO 00000KT 10SM SCT045 M03/M08 A3006 RMK A01,M
ELY,2022-01-18 06:53,-114.8453,39.2950,1909.00,26.10,18.00,71.04,180.00,8.00,0.00,30.04,1017.10,10.00,M,CLR,M,M,M,M,M,M,M,M,M,M,M,M,M,M,16.85,KELY 180653Z AUTO 18008KT 10SM CLR M03/M08 A3004 RMK AO2 SLP171 T10331078,M
LOL,2022-01-18 06:53,-118.5701,40.0684,1192.43,23.00,21.00,91.90,0.00,0.00,0.00,30.07,1020.60,10.00,M,CLR,M,M,M,M,M,M,M,M,M,M,M,M,M,M,23.00,KLOL 180653Z AUTO 00000KT 10SM CLR M05/M06 A3007 RMK AO2 SLP206 T10501061,M
VGT,2022-01-18 06:53,-115.1933,36.2111,667.00,50.00,21.90,32.83,320.00,4.00,0.00,30.03,1018.40,10.00,M,FEW,OVC,M,M,9000.00,12000.00,M,M,M,M,M,M,M,M,M,50.00,KVGT 180653Z AUTO 32004KT 10SM FEW090 OVC120 10/M06 A3003 RMK AO2 SLP184 T01001056,M
CXP,2022-01-18 06:55,-119.7326,39.1923,1431.00,30.20,26.60,86.28,0.00,0.00,0.00,30.09,M,10.00,M,CLR,M,M,M,M,M,M,M,M,M,M,M,M,M,M,30.20,KCXP 180655Z AUTO 00000KT 10SM CLR M01/M03 A3009 RMK AO2,M
BAM,2022-01-18 06:55,-116.8743,40.5990,1382.36,32.00,32.00,100.00,0.00,0.00,0.00,30.07,M,10.00,M,CLR,M,M,M,M,M,M,M,M,M,M,M,M,M,M,32.00,KBAM 180655Z AUTO 00000KT 10SM CLR 00/00 A3007 RMK AO1,M
HTH,2022-01-18 06:55,-118.6315,38.5448,1282.89,30.20,23.00,74.26,250.00,3.00,0.00,30.08,M,10.00,M,CLR,M,M,M,M,M,M,M,M,M,M,M,M,M,M,26.63,KHTH 180655Z AUTO 25003KT 10SM CLR M01/M05 A3008 RMK A01,M
BVU,2022-01-18 06:55,-114.8611,35.9475,671.00,51.80,23.00,32.17,0.00,0.00,0.00,30.04,M,10.00,M,SCT,OVC,M,M,7500.00,10000.00,M,M,M,M,M,M,M,M,M,51.80,KBVU 180655Z AUTO 00000KT 10SM SCT075 OVC100 11/M05 A3004 RMK AO2,M
TMT,2022-01-18 06:55,-117.1971,39.4643,1749.34,28.90,24.60,83.73,250.00,6.00,0.00,30.07,M,10.00,M,CLR,M,M,M,M,M,M,M,M,M,M,M,M,M,M,21.80,KTMT 180655Z AUTO 25006KT 10SM CLR M02/M04 A3007 RMK AO2 T10171041,M
RNO,2022-01-18 06:55,-119.7711,39.4839,1341.00,30.90,25.00,78.48,0.00,0.00,0.00,30.08,1019.10,10.00,M,FEW,BKN,M,M,7500.00,20000.00,M,M,M,M,M,M,M,M,M,30.90,KRNO 180655Z 00000KT 10SM FEW075 BKN200 M01/M04 A3008 RMK AO2 SLP191 T10061039 $,M
MEV,2022-01-18 06:55,-119.7500,38.9963,1441.42,28.40,24.80,86.18,50.00,3.00,0.00,30.08,M,10.00,M,CLR,M,M,M,M,M,M,M,M,M,M,M,M,M,M,24.57,KMEV 180655Z AUTO 05003KT 10SM CLR M02/M04 A3008 RMK AO2,M
RTS,2022-01-18 06:55,-119.8764,39.6682,1539.00,33.80,23.00,64.23,340.00,6.00,0.00,30.09,M,10.00,M,CLR,M,M,M,M,M,M,M,M,M,M,M,M,M,M,27.70,KRTS 180655Z AUTO 34006KT 10SM CLR 01/M05 A3009 RMK AO2,M
05U,2022-01-18 06:55,-116.0051,39.6042,1811.23,24.80,17.60,73.70,200.00,5.00,0.00,30.06,M,10.00,M,FEW,M,M,M,4700.00,M,M,M,M,M,M,M,M,M,M,17.84,K05U 180655Z AUTO 20005KT 10SM FEW047 M04/M08 A3006 RMK A01,M
TPH,2022-01-18 06:56,-117.0904,38.0505,1654.00,28.90,23.00,78.30,350.00,7.00,0.00,30.07,1018.80,10.00,M,FEW,M,M,M,12000.00,M,M,M,M,M,M,M,M,M,M,21.00,KTPH 180656Z AUTO 35007KT 10SM FEW120 M02/M05 A3007 RMK AO2 SLP188 T10171050,M
EKO,2022-01-18 06:56,-115.7860,40.8242,1367.00,26.10,21.90,83.89,150.00,3.00,0.00,30.03,1019.20,10.00,M,CLR,M,M,M,M,M,M,M,M,M,M,M,M,M,M,21.94,KEKO 180656Z AUTO 15003KT 10SM CLR M03/M06 A3003 RMK AO2 SLP192 T10331056,M
WMC,2022-01-18 06:56,-117.8072,40.9019,1315.00,25.00,21.90,87.81,0.00,0.00,0.00,30.07,1019.70,10.00,M,CLR,M,M,M,M,M,M,M,M,M,M,M,M,M,M,25.00,KWMC 180656Z AUTO 00000KT 10SM CLR M04/M06 A3007 RMK AO2 SLP197 T10391056,M
LAS,2022-01-18 06:56,-115.1634,36.0719,663.00,52.00,21.90,30.49,280.00,4.00,0.00,30.03,1016.20,10.00,M,SCT,OVC,M,M,10000.00,12000.00,M,M,M,M,M,M,M,M,M,52.00,KLAS 180656Z 28004KT 10SM SCT100 OVC120 11/M06 A3003 RMK AO2 SLP162 VIRGA W-NW T01111056,M
HND,2022-01-18 06:56,-115.1344,35.9729,742.79,49.00,21.90,34.20,190.00,3.00,0.00,30.04,1018.90,10.00,M,OVC,M,M,M,10000.00,M,M,M,M,M,M,M,M,M,M,48.01,KHND 180656Z AUTO 19003KT 10SM OVC100 09/M06 A3004 RMK AO2 SLP189 T00941056 401500033,M
LSV,2022-01-18 06:58,-115.0343,36.2362,570.00,47.80,17.10,29.04,0.00,0.00,0.00,30.03,1016.70,10.00,M,BKN,OVC,M,M,9500.00,11000.00,M,M,M,M,M,M,M,M,M,47.80,KLSV 180658Z AUTO 00000KT 10SM BKN095 OVC110 09/M08 A3003 RMK AO2 SLP167 T00881083 $,M
INS,2022-01-18 06:58,-115.6733,36.5872,955.00,43.00,17.80,35.91,0.00,0.00,0.00,30.04,1016.10,10.00,M,SCT,BKN,M,M,6500.00,8000.00,M,M,M,M,M,M,M,M,M,43.00,KINS 180658Z AUTO 00000KT 10SM SCT065 BKN080 06/M08 A3004 RMK AO2 SLP161 T00611079 $,M
INS,2022-01-18 07:06,-115.6733,36.5872,955.00,42.80,17.60,35.87,0.00,0.00,0.00,30.04,1016.10,10.00,M,BKN,BKN,M,M,6000.00,8000.00,M,M,-RA,M,M,M,M,M,M,42.80,KINS 180706Z AUTO 00000KT 10SM -RA BKN060 BKN080 06/M08 A3004 RMK AO2 RAB06 SLP161 $,M
INS,2022-01-18 07:15,-115.6733,36.5872,955.00,42.80,21.20,41.84,0.00,0.00,0.00,30.04,1016.10,10.00,M,BKN,BKN,M,M,6000.00,8000.00,M,M,M,M,M,M,M,M,M,42.80,KINS 180715Z AUTO 00000KT 10SM BKN060 BKN080 06/M06 A3004 RMK AO2 RAB06E15RAB15 SLP161 $,M
BVU,2022-01-18 07:15,-114.8611,35.9475,671.00,51.80,23.00,32.17,80.00,3.00,0.00,30.03,M,10.00,M,FEW,SCT,BKN,M,5500.00,7000.00,8000.00,M,M,M,M,M,M,M,M,51.80,KBVU 180715Z AUTO 08003KT 10SM FEW055 SCT070 BKN080 11/M05 A3003 RMK AO2,M
RTS,2022-01-18 07:15,-119.8764,39.6682,1539.00,32.00,23.00,69.04,330.00,5.00,0.00,30.09,M,10.00,M,CLR,M,M,M,M,M,M,M,M,M,M,M,M,M,M,26.40,KRTS 180715Z AUTO 33005KT 10SM CLR M00/M05 A3009 RMK AO2,M
05U,2022-01-18 07:15,-116.0051,39.6042,1811.23,24.80,17.60,73.70,0.00,0.00,0.00,30.06,M,10.00,M,CLR,M,M,M,M,M,M,M,M,M,M,M,M,M,M,24.80,K05U 180715Z AUTO 00000KT 10SM CLR M04/M08 A3006 RMK A01,M
MEV,2022-01-18 07:15,-119.7500,38.9963,1441.42,28.40,24.80,86.18,0.00,0.00,0.00,30.08,M,10.00,M,CLR,M,M,M,M,M,M,M,M,M,M,M,M,M,M,28.40,KMEV 180715Z AUTO 00000KT 10SM CLR M02/M04 A3008 RMK AO2,M
BAM,2022-01-18 07:15,-116.8743,40.5990,1382.36,28.40,28.40,100.00,200.00,3.00,0.00,30.07,M,10.00,M,CLR,M,M,M,M,M,M,M,M,M,M,M,M,M,M,24.57,KBAM 180715Z AUTO 20003KT 10SM CLR M02/M02 A3007 RMK AO1,M
HTH,2022-01-18 07:15,-118.6315,38.5448,1282.89,32.00,23.00,69.04,260.00,4.00,0.00,30.08,M,10.00,M,CLR,M,M,M,M,M,M,M,M,M,M,M,M,M,M,27.42,KHTH 180715Z AUTO 26004KT 10SM CLR 00/M05 A3008 RMK A01,M
TMT,2022-01-18 07:15,-117.1971,39.4643,1749.34,28.90,24.60,83.73,260.00,5.00,0.00,30.07,M,10.00,M,CLR,M,M,M,M,M,M,M,M,M,M,M,M,M,M,22.71,KTMT 180715Z AUTO 26005KT 10SM CLR M02/M04 A3007 RMK AO2 T10171041,M
CXP,2022-01-18 07:15,-119.7326,39.1923,1431.00,30.20,26.60,86.28,310.00,3.00,0.00,30.09,M,10.00,M,CLR,M,M,M,M,M,M,M,M,M,M,M,M,M,M,26.63,KCXP 180715Z AUTO 31003KT 10SM CLR M01/M03 A3009 RMK AO2,M
CXP,2022-01-18 07:30,-119.7326,39.1923,1431.00,32.00,26.60,80.22,0.00,0.00,0.00,30.09,M,10.00,M,CLR,M,M,M,M,M,M,M,M,M,M,M,M,M,M,32.00,KCXP 180730Z AUTO 00000KT 10SM CLR M00/M03 A3009 RMK AO2,M
BVU,2022-01-18 07:35,-114.8611,35.9475,671.00,51.80,23.00,32.17,80.00,3.00,0.00,30.03,M,10.00,M,SCT,OVC,M,M,6000.00,7500.00,M,M,M,M,M,M,M,M,M,51.80,KBVU 180735Z AUTO 08003KT 10SM SCT060 OVC075 11/M05 A3003 RMK AO2,M
TMT,2022-01-18 07:35,-117.1971,39.4643,1749.34,28.00,24.60,86.87,260.00,4.00,0.00,30.06,M,10.00,M,CLR,M,M,M,M,M,M,M,M,M,M,M,M,M,M,22.75,KTMT 180735Z AUTO 26004KT 10SM CLR M02/M04 A3006 RMK AO2 T10221041,M
05U,2022-01-18 07:35,-116.0051,39.6042,1811.23,23.00,15.80,73.51,190.00,5.00,0.00,30.06,M,10.00,M,CLR,M,M,M,M,M,M,M,M,M,M,M,M,M,M,15.71,K05U 180735Z AUTO 19005KT 10SM CLR M05/M09 A3006 RMK A01,M
MEV,2022-01-18 07:35,-119.7500,38.9963,1441.42,24.80,23.00,92.74,50.00,4.00,0.00,30.08,M,10.00,M,CLR,M,M,M,M,M,M,M,M,M,M,M,M,M,M,19.01,KMEV 180735Z AUTO 05004KT 10SM CLR M04/M05 A3008 RMK AO2,M
BAM,2022-01-18 07:35,-116.8743,40.5990,1382.36,28.40,28.40,100.00,160.00,3.00,0.00,30.07,M,10.00,M,CLR,M,M,M,M,M,M,M,M,M,M,M,M,M,M,24.57,KBAM 180735Z AUTO 16003KT 10SM CLR M02/M02 A3007 RMK AO1,M
HTH,2022-01-18 07:35,-118.6315,38.5448,1282.89,32.00,23.00,69.04,0.00,0.00,0.00,30.08,M,10.00,M,CLR,M,M,M,M,M,M,M,M,M,M,M,M,M,M,32.00,KHTH 180735Z AUTO 00000KT 10SM CLR M00/M05 A3008 RMK A01,M
RTS,2022-01-18 07:35,-119.8764,39.6682,1539.00,32.00,23.00,69.04,330.00,6.00,0.00,30.09,M,10.00,M,CLR,M,M,M,M,M,M,M,M,M,M,M,M,M,M,25.53,KRTS 180735Z AUTO 33006KT 10SM CLR M00/M05 A3009 RMK AO2,M
LOL,2022-01-18 07:48,-118.5701,40.0684,1192.43,21.20,19.40,92.63,0.00,0.00,0.00,30.07,M,1.75,M,CLR,M,M,M,M,M,M,M,BR,M,M,M,M,M,M,21.20,KLOL 180748Z AUTO 00000KT 1 3/4SM BR CLR M06/M07 A3007 RMK AO2,M
LOL,2022-01-18 07:53,-118.5701,40.0684,1192.43,21.00,19.90,95.43,0.00,0.00,0.00,30.07,1020.40,1.00,M,CLR,M,M,M,M,M,M,M,BR,M,M,M,M,M,M,21.00,KLOL 180753Z AUTO 00000KT 1SM BR CLR M06/M07 A3007 RMK AO2 VIS 1/2V4 SLP204 T10611067 400671094,M
ELY,2022-01-18 07:53,-114.8453,39.2950,1909.00,26.10,19.00,74.16,170.00,10.00,0.00,30.03,1016.40,10.00,M,CLR,M,M,M,M,M,M,M,M,M,M,M,M,M,M,15.57,KELY 180753Z AUTO 17010KT 10SM CLR M03/M07 A3003 RMK AO2 SLP164 T10331072 400831100,M
VGT,2022-01-18 07:53,-115.1933,36.2111,667.00,51.00,24.10,34.57,350.00,3.00,T,30.01,1017.80,10.00,M,FEW,OVC,M,M,6500.00,8000.00,M,M,-RA,M,M,M,M,M,M,51.10,KVGT 180753Z AUTO 35003KT 10SM -RA FEW065 OVC080 11/M04 A3001 RMK AO2 RAB48 SLP178 P0000 T01061044 401670044,M
RTS,2022-01-18 07:55,-119.8764,39.6682,1539.00,32.00,23.00,69.04,330.00,5.00,0.00,30.09,M,10.00,M,CLR,M,M,M,M,M,M,M,M,M,M,M,M,M,M,26.40,KRTS 180755Z AUTO 33005KT 10SM CLR M00/M05 A3009 RMK AO2,M
BVU,2022-01-18 07:55,-114.8611,35.9475,671.00,50.00,24.80,37.08,0.00,0.00,0.00,30.02,M,10.00,M,BKN,OVC,M,M,7000.00,8000.00,M,M,M,M,M,M,M,M,M,50.00,KBVU 180755Z AUTO 00000KT 10SM BKN070 OVC080 10/M04 A3002 RMK AO2,M
CXP,2022-01-18 07:55,-119.7326,39.1923,1431.00,30.20,24.80,80.07,0.00,0.00,0.00,30.09,M,10.00,M,CLR,M,M,M,M,M,M,M,M,M,M,M,M,M,M,30.20,KCXP 180755Z AUTO 00000KT 10SM CLR M01/M04 A3009 RMK AO2,M
RNO,2022-01-18 07:55,-119.7711,39.4839,1341.00,30.90,24.10,75.59,0.00,0.00,0.00,30.08,1018.80,10.00,M,SCT,M,M,M,20000.00,M,M,M,M,M,M,M,M,M,M,30.90,KRNO 180755Z 00000KT 10SM SCT200 M01/M04 A3008 RMK AO2 SLP188 T10061044 401111044 $,M
05U,2022-01-18 07:55,-116.0051,39.6042,1811.23,26.60,15.80,63.27,200.00,6.00,0.00,30.06,M,10.00,M,CLR,M,M,M,M,M,M,M,M,M,M,M,M,M,M,19.03,K05U 180755Z AUTO 20006KT 10SM CLR M03/M09 A3006 RMK A01,M
MEV,2022-01-18 07:55,-119.7500,38.9963,1441.42,24.80,23.00,92.74,0.00,0.00,0.00,30.08,M,10.00,M,CLR,M,M,M,M,M,M,M,M,M,M,M,M,M,M,24.80,KMEV 180755Z AUTO 00000KT 10SM CLR M04/M05 A3008 RMK AO2,M
BAM,2022-01-18 07:55,-116.8743,40.5990,1382.36,28.40,28.40,100.00,170.00,4.00,0.00,30.06,M,10.00,M,CLR,M,M,M,M,M,M,M,M,M,M,M,M,M,M,23.22,KBAM 180755Z AUTO 17004KT 10SM CLR M02/M02 A3006 RMK AO1,M
HTH,2022-01-18 07:55,-118.6315,38.5448,1282.89,32.00,23.00,69.04,270.00,3.00,0.00,30.08,M,10.00,M,CLR,M,M,M,M,M,M,M,M,M,M,M,M,M,M,28.69,KHTH 180755Z AUTO 27003KT 10SM CLR M00/M05 A3008 RMK A01,M
TMT,2022-01-18 07:55,-117.1971,39.4643,1749.34,26.60,23.50,87.89,190.00,3.00,0.00,30.06,M,10.00,M,CLR,M,M,M,M,M,M,M,M,M,M,M,M,M,M,22.52,KTMT 180755Z AUTO 19003KT 10SM CLR M03/M05 A3006 RMK AO2 T10301047 400701095,M
LAS,2022-01-18 07:56,-115.1634,36.0719,663.00,52.00,23.00,31.93,0.00,0.00,0.00,30.02,1015.90,10.00,M,OVC,M,M,M,9000.00,M,M,M,M,M,M,M,M,M,M,52.00,KLAS 180756Z 00000KT 10SM OVC090 11/M05 A3002 RMK AO2 SLP159 SHRA DSNT NW T01111050 401560050,M
HND,2022-01-18 07:56,-115.1344,35.9729,742.79,49.00,21.90,34.20,0.00,0.00,0.00,30.04,1018.40,10.00,M,BKN,OVC,M,M,8500.00,12000.00,M,M,M,M,M,M,M,M,M,48.90,KHND 180756Z AUTO 00000KT 10SM BKN085 OVC120 09/M06 A3004 RMK AO2 SLP184 T00941056,M
WMC,2022-01-18 07:56,-117.8072,40.9019,1315.00,24.10,21.00,87.76,170.00,5.00,0.00,30.05,1019.10,10.00,M,CLR,M,M,M,M,M,M,M,M,M,M,M,M,M,M,17.01,KWMC 180756Z AUTO 17005KT 10SM CLR M04/M06 A3005 RMK AO2 SLP191 T10441061 400781083,M
EKO,2022-01-18 07:56,-115.7860,40.8242,1367.00,24.10,19.90,83.75,0.00,0.00,0.00,30.03,1019.00,10.00,M,CLR,M,M,M,M,M,M,M,M,M,M,M,M,M,M,24.10,KEKO 180756Z AUTO 00000KT 10SM CLR M04/M07 A3003 RMK AO2 SLP190 T10441067 400611083,M
TPH,2022-01-18 07:56,-117.0904,38.0505,1654.00,30.00,21.90,71.48,360.00,7.00,0.00,30.06,1018.10,10.00,M,CLR,M,M,M,M,M,M,M,M,M,M,M,M,M,M,22.34,KTPH 180756Z AUTO 36007KT 10SM CLR M01/M06 A3006 RMK AO2 SLP181 T10111056 400781056,M
LSV,2022-01-18 07:58,-115.0343,36.2362,570.00,48.00,18.00,29.96,20.00,3.00,0.00,30.02,1016.20,10.00,M,FEW,OVC,M,M,10000.00,12000.00,M,M,M,M,M,M,M,M,M,46.98,KLSV 180758Z AUTO 02003KT 10SM FEW100 OVC120 09/M08 A3002 RMK AO2 SLP162 T00891078 401600009 $,M
INS,2022-01-18 07:58,-115.6733,36.5872,955.00,43.20,22.60,43.71,0.00,0.00,T,30.03,1015.80,10.00,M,SCT,OVC,M,M,6500.00,9000.00,M,M,M,M,M,M,M,M,M,43.20,KINS 180758Z AUTO 00000KT 10SM SCT065 OVC090 06/M05 A3003 RMK AO2 RAB06E15RAB15E15 SLP158 P0000 T00621052 401471025 $,M
LOL,2022-01-18 08:00,-118.5701,40.0684,1192.43,21.90,21.00,96.26,0.00,0.00,0.00,30.07,M,0.75,M,CLR,M,M,M,M,M,M,M,BR,M,M,M,M,M,M,21.90,KLOL 180800Z AUTO 00000KT 3/4SM BR CLR M06/M06 A3007 RMK AO2 T10561061,M
LOL,2022-01-18 08:07,-118.5701,40.0684,1192.43,25.00,23.00,91.97,0.00,0.00,0.00,30.07,M,2.00,M,CLR,M,M,M,M,M,M,M,BR,M,M,M,M,M,M,25.00,KLOL 180807Z AUTO 00000KT 2SM BR CLR M04/M05 A3007 RMK AO2 T10391050,M
05U,2022-01-18 08:15,-116.0051,39.6042,1811.23,23.00,15.80,73.51,210.00,4.00,0.00,30.06,M,10.00,M,CLR,M,M,M,M,M,M,M,M,M,M,M,M,M,M,16.91,K05U 180815Z AUTO 21004KT 10SM CLR M05/M09 A3006 RMK A01,M
TMT,2022-01-18 08:15,-117.1971,39.4643,1749.34,26.60,23.40,87.53,0.00,0.00,0.00,30.06,M,10.00,M,CLR,M,M,M,M,M,M,M,M,M,M,M,M,M,M,26.60,KTMT 180815Z AUTO 00000KT 10SM CLR M03/M05 A3006 RMK AO2 T10301048,M
MEV,2022-01-18 08:15,-119.7500,38.9963,1441.42,24.80,21.20,85.96,0.00,0.00,0.00,30.08,M,10.00,M,CLR,M,M,M,M,M,M,M,M,M,M,M,M,M,M,24.80,KMEV 180815Z AUTO 00000KT 10SM CLR M04/M06 A3008 RMK AO2,M
BAM,2022-01-18 08:15,-116.8743,40.5990,1382.36,28.40,28.40,100.00,180.00,3.00,0.00,30.06,M,10.00,M,CLR,M,M,M,M,M,M,M,M,M,M,M,M,M,M,24.57,KBAM 180815Z AUTO 18003KT 10SM CLR M02/M02 A3006 RMK AO1,M
HTH,2022-01-18 08:15,-118.6315,38.5448,1282.89,32.00,23.00,69.04,0.00,0.00,0.00,30.07,M,10.00,M,CLR,M,M,M,M,M,M,M,M,M,M,M,M,M,M,32.00,KHTH 180815Z AUTO 00000KT 10SM CLR M00/M05 A3007 RMK A01,M
BVU,2022-01-18 08:15,-114.8611,35.9475,671.00,50.00,24.80,37.08,0.00,0.00,0.00,30.02,M,10.00,M,BKN,OVC,M,M,7000.00,9500.00,M,M,M,M,M,M,M,M,M,50.00,KBVU 180815Z AUTO 00000KT 10SM BKN070 OVC095 10/M04 A3002 RMK AO2,M
CXP,2022-01-18 08:15,-119.7326,39.1923,1431.00,30.20,24.80,80.07,0.00,0.00,0.00,30.09,M,10.00,M,CLR,M,M,M,M,M,M,M,M,M,M,M,M,M,M,30.20,KCXP 180815Z AUTO 00000KT 10SM CLR M01/M04 A3009 RMK AO2,M
RTS,2022-01-18 08:15,-119.8764,39.6682,1539.00,33.80,23.00,64.23,340.00,4.00,0.00,30.08,M,10.00,M,CLR,M,M,M,M,M,M,M,M,M,M,M,M,M,M,29.52,KRTS 180815Z AUTO 34004KT 10SM CLR 01/M05 A3008 RMK AO2,M
LOL,2022-01-18 08:18,-118.5701,40.0684,1192.43,21.90,21.90,100.00,0.00,0.00,0.00,30.07,M,0.75,M,CLR,M,M,M,M,M,M,M,BR,T,M,M,M,M,M,21.90,KLOL 180818Z AUTO 00000KT 3/4SM BR CLR M06/M06 A3007 RMK AO2 I1000 T10561056,M
LOL,2022-01-18 08:25,-118.5701,40.0684,1192.43,19.90,19.90,100.00,210.00,3.00,0.00,30.07,M,0.50,M,VV ,M,M,M,200.00,M,M,M,FZFG,T,M,M,M,M,M,14.86,KLOL 180825Z AUTO 21003KT 1/2SM FZFG VV002 M07/M07 A3007 RMK AO2 I1000 T10671067,M
CXP,2022-01-18 08:30,-119.7326,39.1923,1431.00,30.20,24.80,80.07,0.00,0.00,0.00,30.09,M,10.00,M,CLR,M,M,M,M,M,M,M,M,M,M,M,M,M,M,30.20,KCXP 180830Z AUTO 00000KT 10SM CLR M01/M04 A3009 RMK AO2,M
05U,2022-01-18 08:35,-116.0051,39.6042,1811.23,23.00,15.80,73.51,0.00,0.00,0.00,30.05,M,10.00,M,CLR,M,M,M,M,M,M,M,M,M,M,M,M,M,M,23.00,K05U 180835Z AUTO 00000KT 10SM CLR M05/M09 A3005 RMK A01,M
MEV,2022-01-18 08:35,-119.7500,38.9963,1441.42,24.80,23.00,92.74,0.00,0.00,0.00,30.08,M,10.00,M,CLR,M,M,M,M,M,M,M,M,M,M,M,M,M,M,24.80,KMEV 180835Z AUTO 00000KT 10SM CLR M04/M05 A3008 RMK AO2,M
TMT,2022-01-18 08:35,-117.1971,39.4643,1749.34,24.80,23.00,92.74,0.00,0.00,0.00,30.06,M,10.00,M,CLR,M,M,M,M,M,M,M,M,M,M,M,M,M,M,24.80,KTMT 180835Z AUTO 00000KT 10SM CLR M04/M05 A3006 RMK AO2 T10401050,M
BVU,2022-01-18 08:35,-114.8611,35.9475,671.00,48.20,23.00,36.78,0.00,0.00,0.00,30.02,M,10.00,M,BKN,BKN,OVC,M,7500.00,9500.00,12000.00,M,M,M,M,M,M,M,M,48.20,KBVU 180835Z AUTO 00000KT 10SM BKN075 BKN095 OVC120 09/M05 A3002 RMK AO2,M
RTS,2022-01-18 08:35,-119.8764,39.6682,1539.00,28.40,21.20,74.08,350.00,4.00,0.00,30.08,M,10.00,M,CLR,M,M,M,M,M,M,M,M,M,M,M,M,M,M,23.22,KRTS 180835Z AUTO 35004KT 10SM CLR M02/M06 A3008 RMK AO2,M
BAM,2022-01-18 08:35,-116.8743,40.5990,1382.36,28.40,28.40,100.00,170.00,3.00,0.00,30.06,M,10.00,M,CLR,M,M,M,M,M,M,M,M,M,M,M,M,M,M,24.57,KBAM 180835Z AUTO 17003KT 10SM CLR M02/M02 A3006 RMK AO1,M
HTH,2022-01-18 08:35,-118.6315,38.5448,1282.89,30.20,23.00,74.26,0.00,0.00,0.00,30.08,M,10.00,M,CLR,M,M,M,M,M,M,M,M,M,M,M,M,M,M,30.20,KHTH 180835Z AUTO 00000KT 10SM CLR M01/M05 A3008 RMK A01,M
VGT,2022-01-18 08:53,-115.1933,36.2111,667.00,50.00,30.00,45.93,310.00,3.00,T,30.01,1017.50,10.00,M,OVC,M,M,M,9000.00,M,M,M,M,M,M,M,M,M,M,50.00,KVGT 180853Z AUTO 31003KT 10SM OVC090 10/M01 A3001 RMK AO2 RAE15 SLP175 P0000 60000 T01001011 58008,M
ELY,2022-01-18 08:53,-114.8453,39.2950,1909.00,24.10,18.00,77.21,200.00,9.00,0.00,30.03,1015.80,10.00,M,CLR,M,M,M,M,M,M,M,M,M,M,M,M,M,M,13.69,KELY 180853Z AUTO 20009KT 10SM CLR M04/M08 A3003 RMK AO2 SLP158 T10441078 58003,M
LOL,2022-01-18 08:53,-118.5701,40.0684,1192.43,21.00,19.90,95.43,0.00,0.00,0.00,30.07,1020.10,0.25,M,VV ,M,M,M,200.00,M,M,M,FZFG,0.01,0.01,M,M,M,M,21.00,KLOL 180853Z AUTO 00000KT 1/4SM FZFG VV002 M06/M07 A3007 RMK AO2 SLP201 I1001 I3001 T10611067 50002,M
HTH,2022-01-18 08:55,-118.6315,38.5448,1282.89,32.00,23.00,69.04,290.00,3.00,0.00,30.08,M,10.00,M,CLR,M,M,M,M,M,M,M,M,M,M,M,M,M,M,28.69,KHTH 180855Z AUTO 29003KT 10SM CLR M00/M05 A3008 RMK A01,M
BVU,2022-01-18 08:55,-114.8611,35.9475,671.00,48.20,23.00,36.78,0.00,0.00,0.00,30.01,M,10.00,M,OVC,M,M,M,7000.00,M,M,M,M,M,M,M,M,M,M,48.20,KBVU 180855Z AUTO 00000KT 10SM OVC070 09/M05 A3001 RMK AO2,M
CXP,2022-01-18 08:55,-119.7326,39.1923,1431.00,28.40,24.80,86.18,0.00,0.00,0.00,30.09,M,10.00,M,CLR,M,M,M,M,M,M,M,M,M,M,M,M,M,M,28.40,KCXP 180855Z AUTO 00000KT 10SM CLR M02/M04 A3009 RMK AO2,M
RNO,2022-01-18 08:55,-119.7711,39.4839,1341.00,28.00,23.00,81.25,180.00,3.00,0.00,30.08,1018.80,10.00,M,SCT,M,M,M,20000.00,M,M,M,M,M,M,M,M,M,M,24.12,KRNO 180855Z 18003KT 10SM SCT200 M02/M05 A3008 RMK AO2 SLP188 T10221050 50002 $,M
RTS,2022-01-18 08:55,-119.8764,39.6682,1539.00,26.60,23.00,86.07,360.00,7.00,0.00,30.09,M,10.00,M,CLR,M,M,M,M,M,M,M,M,M,M,M,M,M,M,18.20,KRTS 180855Z AUTO 36007KT 10SM CLR M03/M05 A3009 RMK AO2,M
05U,2022-01-18 08:55,-116.0051,39.6042,1811.23,23.00,15.80,73.51,180.00,6.00,0.00,30.05,M,10.00,M,CLR,M,M,M,M,M,M,M,M,M,M,M,M,M,M,14.69,K05U 180855Z AUTO 18006KT 10SM CLR M05/M09 A3005 RMK A01,M
MEV,2022-01-18 08:55,-119.7500,38.9963,1441.42,23.00,21.20,92.69,150.00,3.00,0.00,30.08,M,10.00,M,CLR,M,M,M,M,M,M,M,M,M,M,M,M,M,M,18.40,KMEV 180855Z AUTO 15003KT 10SM CLR M05/M06 A3008 RMK AO2,M
BAM,2022-01-18 08:55,-116.8743,40.5990,1382.36,28.40,28.40,100.00,160.00,3.00,0.00,30.06,M,10.00,M,CLR,M,M,M,M,M,M,M,M,M,M,M,M,M,M,24.57,KBAM 180855Z AUTO 16003KT 10SM CLR M02/M02 A3006 RMK AO1,M
TMT,2022-01-18 08:55,-117.1971,39.4643,1749.34,26.10,23.40,89.36,220.00,4.00,0.00,30.06,M,10.00,M,CLR,M,M,M,M,M,M,M,M,M,M,M,M,M,M,20.53,KTMT 180855Z AUTO 22004KT 10SM CLR M03/M05 A3006 RMK AO2 T10331048,M
TPH,2022-01-18 08:56,-117.0904,38.0505,1654.00,30.00,21.00,68.81,360.00,6.00,0.00,30.05,1017.70,10.00,M,CLR,M,M,M,M,M,M,M,M,M,M,M,M,M,M,23.12,KTPH 180856Z AUTO 36006KT 10SM CLR M01/M06 A3005 RMK AO2 SLP177 T10111061 58006,M
EKO,2022-01-18 08:56,-115.7860,40.8242,1367.00,26.10,21.90,83.89,0.00,0.00,0.00,30.03,1018.30,10.00,M,CLR,M,M,M,M,M,M,M,M,T,T,M,M,M,M,26.10,KEKO 180856Z AUTO 00000KT 10SM CLR M03/M06 A3003 RMK AO2 SLP183 I1000 I3000 T10331056 50000,M
LAS,2022-01-18 08:56,-115.1634,36.0719,663.00,51.00,23.00,33.01,0.00,0.00,0.00,30.01,1015.60,10.00,M,OVC,M,M,M,9000.00,M,M,M,M,M,M,M,M,M,M,51.10,KLAS 180856Z 00000KT 10SM OVC090 11/M05 A3001 RMK AO2 SLP156 SHRA OBSCURES MTNS DSNT W T01061050 58007,M
WMC,2022-01-18 08:56,-117.8072,40.9019,1315.00,24.10,21.00,87.76,170.00,5.00,0.00,30.06,1019.00,10.00,M,CLR,M,M,M,M,M,M,M,M,0.01,0.01,M,M,M,M,17.01,KWMC 180856Z AUTO 17005KT 10SM CLR M04/M06 A3006 RMK AO2 SLP190 I1001 I3001 T10441061 58001,M
HND,2022-01-18 08:56,-115.1344,35.9729,742.79,48.00,23.00,37.06,180.00,4.00,0.00,30.03,1018.20,10.00,M,BKN,OVC,M,M,7500.00,9500.00,M,M,M,M,M,M,M,M,M,46.10,KHND 180856Z AUTO 18004KT 10SM BKN075 OVC095 09/M05 A3003 RMK AO2 SLP182 T00891050 58006,M
INS,2022-01-18 08:58,-115.6733,36.5872,955.00,43.50,21.40,41.08,0.00,0.00,0.00,30.02,1015.20,10.00,M,BKN,BKN,OVC,M,6000.00,7500.00,9500.00,M,M,M,M,M,M,M,M,43.50,KINS 180858Z AUTO 00000KT 10SM BKN060 BKN075 OVC095 06/M06 A3002 RMK AO2 SLP152 60000 T00641059 57008 $,M
LSV,2022-01-18 08:58,-115.0343,36.2362,570.00,47.30,17.40,29.97,60.00,3.00,0.00,30.00,1015.50,10.00,M,BKN,M,M,M,9500.00,M,M,M,M,M,M,M,M,M,M,46.18,KLSV 180858Z AUTO 06003KT 10SM BKN095 09/M08 A3000 RMK AO2 SLP155 T00851081 58008 $,M
LOL,2022-01-18 09:01,-118.5701,40.0684,1192.43,24.10,23.00,95.49,0.00,0.00,0.00,30.07,M,0.75,M,VV ,M,M,M,200.00,M,M,M,BR,M,M,M,M,M,M,24.10,KLOL 180901Z AUTO 00000KT 3/4SM BR VV002 M04/M05 A3007 RMK AO2 VIS 1/4V5 T10441050,M
LOL,2022-01-18 09:03,-118.5701,40.0684,1192.43,24.10,23.00,95.49,0.00,0.00,0.00,30.07,M,1.25,M,FEW,M,M,M,200.00,M,M,M,BR,M,M,M,M,M,M,24.10,KLOL 180903Z AUTO 00000KT 1 1/4SM BR FEW002 M04/M05 A3007 RMK AO2 VIS 1/2V5 T10441050,M
CXP,2022-01-18 09:10,-119.7326,39.1923,1431.00,28.40,23.00,79.92,0.00,0.00,0.00,30.09,M,10.00,M,CLR,M,M,M,M,M,M,M,M,M,M,M,M,M,M,28.40,KCXP 180910Z AUTO 00000KT 10SM CLR M02/M05 A3009 RMK AO2,M
LOL,2022-01-18 09:11,-118.5701,40.0684,1192.43,21.00,21.00,100.00,0.00,0.00,0.00,30.07,M,2.50,M,FEW,M,M,M,200.00,M,M,M,BR,M,M,M,M,M,M,21.00,KLOL 180911Z AUTO 00000KT 2 1/2SM BR FEW002 M06/M06 A3007 RMK AO2 VIS 1 1/2V4 T10611061,M
05U,2022-01-18 09:15,-116.0051,39.6042,1811.23,23.00,14.00,67.96,190.00,3.00,0.00,30.05,M,10.00,M,CLR,M,M,M,M,M,M,M,M,M,M,M,M,M,M,18.40,K05U 180915Z AUTO 19003KT 10SM CLR M05/M10 A3005 RMK A01,M
MEV,2022-01-18 09:15,-119.7500,38.9963,1441.42,24.80,23.00,92.74,70.00,4.00,0.00,30.08,M,10.00,M,CLR,M,M,M,M,M,M,M,M,M,M,M,M,M,M,19.01,KMEV 180915Z AUTO 07004KT 10SM CLR M04/M05 A3008 RMK AO2,M
TMT,2022-01-18 09:15,-117.1971,39.4643,1749.34,23.00,21.40,93.47,360.00,3.00,0.00,30.06,M,10.00,M,CLR,M,M,M,M,M,M,M,M,M,M,M,M,M,M,18.40,KTMT 180915Z AUTO 36003KT 10SM CLR M05/M06 A3006 RMK AO2 T10501059,M
BAM,2022-01-18 09:15,-116.8743,40.5990,1382.36,28.40,28.40,100.00,200.00,4.00,0.00,30.05,M,10.00,M,CLR,M,M,M,M,M,M,M,M,M,M,M,M,M,M,23.22,KBAM 180915Z AUTO 20004KT 10SM CLR M02/M02 A3005 RMK AO1,M
HTH,2022-01-18 09:15,-118.6315,38.5448,1282.89,32.00,23.00,69.04,0.00,0.00,0.00,30.08,M,10.00,M,CLR,M,M,M,M,M,M,M,M,M,M,M,M,M,M,32.00,KHTH 180915Z AUTO 00000KT 10SM CLR M00/M05 A3008 RMK A01,M
RTS,2022-01-18 09:15,-119.8764,39.6682,1539.00,28.40,23.00,79.92,330.00,4.00,0.00,30.09,M,10.00,M,CLR,M,M,M,M,M,M,M,M,M,M,M,M,M,M,23.22,KRTS 180915Z AUTO 33004KT 10SM CLR M02/M05 A3009 RMK AO2,M
BVU,2022-01-18 09:15,-114.8611,35.9475,671.00,48.20,23.00,36.78,0.00,0.00,0.00,30.01,M,10.00,M,BKN,OVC,M,M,7000.00,9000.00,M,M,M,M,M,M,M,M,M,48.20,KBVU 180915Z AUTO 00000KT 10SM BKN070 OVC090 09/M05 A3001 RMK AO2,M
LOL,2022-01-18 09:30,-118.5701,40.0684,1192.43,23.00,21.90,95.47,0.00,0.00,0.00,30.08,M,0.75,M,CLR,M,M,M,M,M,M,M,BR,M,M,M,M,M,M,23.00,KLOL 180930Z AUTO 00000KT 3/4SM BR CLR M05/M06 A3008 RMK AO2 T10501056,M
RTS,2022-01-18 09:35,-119.8764,39.6682,1539.00,30.20,23.00,74.26,320.00,5.00,0.00,30.10,M,10.00,M,CLR,M,M,M,M,M,M,M,M,M,M,M,M,M,M,24.26,KRTS 180935Z AUTO 32005KT 10SM CLR M01/M05 A3010 RMK AO2,M
BVU,2022-01-18 09:35,-114.8611,35.9475,671.00,48.20,23.00,36.78,0.00,0.00,0.00,30.01,M,10.00,M,FEW,BKN,OVC,M,6000.00,7500.00,9000.00,M,M,M,M,M,M,M,M,48.20,KBVU 180935Z AUTO 00000KT 10SM FEW060 BKN075 OVC090 09/M05 A3001 RMK AO2,M
CXP,2022-01-18 09:35,-119.7326,39.1923,1431.00,26.60,23.00,86.07,0.00,0.00,0.00,30.10,M,8.00,M,CLR,M,M,M,M,M,M,M,M,M,M,M,M,M,M,26.60,KCXP 180935Z AUTO 00000KT 8SM CLR M03/M05 A3010 RMK AO2,M
05U,2022-01-18 09:35,-116.0051,39.6042,1811.23,19.40,12.20,73.13,0.00,0.00,0.00,30.06,M,10.00,M,CLR,M,M,M,M,M,M,M,M,M,M,M,M,M,M,19.40,K05U 180935Z AUTO 00000KT 10SM CLR M07/M11 A3006 RMK A01,M
MEV,2022-01-18 09:35,-119.7500,38.9963,1441.42,23.00,21.20,92.69,80.00,3.00,0.00,30.09,M,10.00,M,CLR,M,M,M,M,M,M,M,M,M,M,M,M,M,M,18.40,KMEV 180935Z AUTO 08003KT 10SM CLR M05/M06 A3009 RMK AO2,M
TMT,2022-01-18 09:35,-117.1971,39.4643,1749.34,22.50,20.30,91.11,0.00,0.00,0.00,30.07,M,10.00,M,CLR,M,M,M,M,M,M,M,M,M,M,M,M,M,M,22.50,KTMT 180935Z AUTO 00000KT 10SM CLR M05/M06 A3007 RMK AO2 T10531065,M
BAM,2022-01-18 09:35,-116.8743,40.5990,1382.36,28.40,28.40,100.00,200.00,3.00,0.00,30.06,M,10.00,M,CLR,M,M,M,M,M,M,M,M,M,M,M,M,M,M,24.57,KBAM 180935Z AUTO 20003KT 10SM CLR M02/M02 A3006 RMK AO1,M
HTH,2022-01-18 09:35,-118.6315,38.5448,1282.89,32.00,23.00,69.04,190.00,3.00,0.00,30.09,M,10.00,M,CLR,M,M,M,M,M,M,M,M,M,M,M,M,M,M,28.69,KHTH 180935Z AUTO 19003KT 10SM CLR M00/M05 A3009 RMK A01,M
LSV,2022-01-18 09:37,-115.0343,36.2362,570.00,48.20,17.60,29.23,10.00,5.00,0.00,30.01,1015.80,10.00,M,SCT,BKN,M,M,7500.00,9500.00,M,M,-RA,M,M,M,M,M,M,45.63,KLSV 180937Z AUTO 01005KT 10SM -RA SCT075 BKN095 09/M08 A3001 RMK AO2 RAB37 SLP158 $,M
LSV,2022-01-18 09:46,-115.0343,36.2362,570.00,48.20,21.20,34.09,10.00,4.00,0.00,30.01,1015.80,10.00,M,SCT,BKN,M,M,7500.00,10000.00,M,M,M,M,M,M,M,M,M,46.34,KLSV 180946Z AUTO 01004KT 10SM SCT075 BKN100 09/M06 A3001 RMK AO2 RAB37E46 SLP158 $,M
05U,2022-01-18 09:50,-116.0051,39.6042,1811.23,17.60,12.20,79.00,190.00,6.00,0.00,30.06,M,10.00,M,CLR,M,M,M,M,M,M,M,M,M,M,M,M,M,M,8.19,K05U 180950Z AUTO 19006KT 10SM CLR M08/M11 A3006 RMK A01,M
ELY,2022-01-18 09:53,-114.8453,39.2950,1909.00,24.10,17.10,74.27,180.00,6.00,0.00,30.03,1015.90,10.00,M,CLR,M,M,M,M,M,M,M,M,M,M,M,M,M,M,16.02,KELY 180953Z AUTO 18006KT 10SM CLR M04/M08 A3003 RMK AO2 SLP159 T10441083,M
VGT,2022-01-18 09:53,-115.1933,36.2111,667.00,48.00,30.90,51.34,290.00,5.00,0.00,30.00,1017.30,10.00,M,SCT,OVC,M,M,7500.00,11000.00,M,M,M,M,M,M,M,M,M,45.40,KVGT 180953Z AUTO 29005KT 10SM SCT075 OVC110 09/M01 A3000 RMK AO2 SLP173 T00891006,M
LOL,2022-01-18 09:53,-118.5701,40.0684,1192.43,23.00,23.00,100.00,0.00,0.00,0.00,30.07,1020.10,1.50,M,CLR,M,M,M,M,M,M,M,BR,M,M,M,M,M,M,23.00,KLOL 180953Z AUTO 00000KT 1 1/2SM BR CLR M05/M05 A3007 RMK AO2 SLP201 T10501050,M
CXP,2022-01-18 09:55,-119.7326,39.1923,1431.00,26.60,23.00,86.07,0.00,0.00,0.00,30.10,M,9.00,M,CLR,M,M,M,M,M,M,M,M,M,M,M,M,M,M,26.60,KCXP 180955Z AUTO 00000KT 9SM CLR M03/M05 A3010 RMK AO2,M
RNO,2022-01-18 09:55,-119.7711,39.4839,1341.00,28.90,24.10,82.00,0.00,0.00,0.00,30.09,1018.80,10.00,M,SCT,M,M,M,20000.00,M,M,M,M,M,M,M,M,M,M,28.90,KRNO 180955Z 00000KT 10SM SCT200 M02/M04 A3009 RMK AO2 SLP188 T10171044 $,M
RTS,2022-01-18 09:55,-119.8764,39.6682,1539.00,30.20,21.20,68.83,350.00,4.00,0.00,30.10,M,10.00,M,CLR,M,M,M,M,M,M,M,M,M,M,M,M,M,M,25.32,KRTS 180955Z AUTO 35004KT 10SM CLR M01/M06 A3010 RMK AO2,M
MEV,2022-01-18 09:55,-119.7500,38.9963,1441.42,23.00,19.40,85.85,90.00,4.00,0.00,30.09,M,10.00,M,CLR,M,M,M,M,M,M,M,M,M,M,M,M,M,M,16.91,KMEV 180955Z AUTO 09004KT 10SM CLR M05/M07 A3009 RMK AO2,M
BAM,2022-01-18 09:55,-116.8743,40.5990,1382.36,28.40,28.40,100.00,260.00,3.00,0.00,30.07,M,10.00,M,CLR,M,M,M,M,M,M,M,M,M,M,M,M,M,M,24.57,KBAM 180955Z AUTO 26003KT 10SM CLR M02/M02 A3007 RMK AO1,M
HTH,2022-01-18 09:55,-118.6315,38.5448,1282.89,32.00,23.00,69.04,150.00,4.00,0.00,30.09,M,10.00,M,CLR,M,M,M,M,M,M,M,M,M,M,M,M,M,M,27.42,KHTH 180955Z AUTO 15004KT 10SM CLR M00/M05 A3009 RMK A01,M
TMT,2022-01-18 09:55,-117.1971,39.4643,1749.34,21.90,20.30,93.44,0.00,0.00,0.00,30.07,M,10.00,M,CLR,M,M,M,M,M,M,M,M,M,M,M,M,M,M,21.90,KTMT 180955Z AUTO 00000KT 10SM CLR M06/M06 A3007 RMK AO2 T10561065,M
BVU,2022-01-18 09:55,-114.8611,35.9475,671.00,48.20,23.00,36.78,0.00,0.00,0.00,30.01,M,10.00,M,BKN,OVC,M,M,6000.00,7500.00,M,M,M,M,M,M,M,M,M,48.20,KBVU 180955Z AUTO 00000KT 10SM BKN060 OVC075 09/M05 A3001 RMK AO2,M
EKO,2022-01-18 09:56,-115.7860,40.8242,1367.00,25.00,21.90,87.81,0.00,0.00,0.00,30.03,1018.30,10.00,M,CLR,M,M,M,M,M,M,M,M,T,M,M,M,M,M,25.00,KEKO 180956Z AUTO 00000KT 10SM CLR M04/M06 A3003 RMK AO2 SLP183 I1000 T10391056,M
TPH,2022-01-18 09:56,-117.0904,38.0505,1654.00,30.90,21.90,68.91,360.00,10.00,0.00,30.05,1017.70,10.00,M,FEW,SCT,M,M,8500.00,12000.00,M,M,M,M,M,M,M,M,M,21.59,KTPH 180956Z AUTO 36010KT 10SM FEW085 SCT120 M01/M06 A3005 RMK AO2 SLP177 T10061056,M
WMC,2022-01-18 09:56,-117.8072,40.9019,1315.00,24.10,21.90,91.17,160.00,4.00,0.00,30.06,1019.00,10.00,M,CLR,M,M,M,M,M,M,M,M,M,M,M,M,M,M,18.19,KWMC 180956Z AUTO 16004KT 10SM CLR M04/M06 A3006 RMK AO2 SLP190 T10441056,M
HND,2022-01-18 09:56,-115.1344,35.9729,742.79,48.00,27.00,43.77,170.00,3.00,T,30.03,1018.20,10.00,M,OVC,M,M,M,7000.00,M,M,M,M,M,M,M,M,M,M,46.98,KHND 180956Z AUTO 17003KT 10SM OVC070 09/M03 A3003 RMK AO2 RAB31E49 SLP182 P0000 T00891028,M
LAS,2022-01-18 09:56,-115.1634,36.0719,663.00,50.00,32.00,49.81,230.00,3.00,T,30.01,1015.60,10.00,M,FEW,OVC,M,M,7000.00,10000.00,M,M,M,M,M,M,M,M,M,50.00,KLAS 180956Z 23003KT 10SM FEW070 OVC100 10/00 A3001 RMK AO2 RAB26E49 SLP156 VCSH TOPS OF MTNS OBSCURED DSNT SW-NW P0000 T01000000,M
LSV,2022-01-18 09:58,-115.0343,36.2362,570.00,49.00,19.80,31.05,70.00,4.00,T,30.01,1015.70,10.00,M,FEW,BKN,M,M,7500.00,12000.00,M,M,M,M,M,M,M,M,M,47.39,KLSV 180958Z AUTO 07004KT 10SM FEW075 BKN120 10/M07 A3001 RMK AO2 RAB37E46 SLP157 P0000 T00951068 $,M
INS,2022-01-18 09:58,-115.6733,36.5872,955.00,42.00,21.70,43.90,0.00,0.00,0.00,30.02,1015.00,10.00,M,OVC,M,M,M,6500.00,M,M,M,M,M,M,M,M,M,M,42.10,KINS 180958Z AUTO 00000KT 10SM OVC065 06/M06 A3002 RMK AO2 SLP150 T00561057 $,M
LOL,2022-01-18 10:11,-118.5701,40.0684,1192.43,21.00,19.90,95.43,0.00,0.00,0.00,30.08,M,2.00,M,FEW,M,M,M,200.00,M,M,M,BR,M,M,M,M,M,M,21.00,KLOL 181011Z AUTO 00000KT 2SM BR FEW002 M06/M07 A3008 RMK AO2 T10611067,M
05U,2022-01-18 10:15,-116.0051,39.6042,1811.23,19.40,14.00,79.16,210.00,6.00,0.00,30.06,M,10.00,M,CLR,M,M,M,M,M,M,M,M,M,M,M,M,M,M,10.36,K05U 181015Z AUTO 21006KT 10SM CLR M07/M10 A3006 RMK A01,M
BVU,2022-01-18 10:15,-114.8611,35.9475,671.00,50.00,23.00,34.39,50.00,4.00,0.00,30.02,M,10.00,M,SCT,BKN,OVC,M,6000.00,7500.00,8500.00,M,M,M,M,M,M,M,M,50.00,KBVU 181015Z AUTO 05004KT 10SM SCT060 BKN075 OVC085 10/M05 A3002 RMK AO2,M
CXP,2022-01-18 10:15,-119.7326,39.1923,1431.00,26.60,23.00,86.07,0.00,0.00,0.00,30.10,M,10.00,M,CLR,M,M,M,M,M,M,M,M,M,M,M,M,M,M,26.60,KCXP 181015Z AUTO 00000KT 10SM CLR M03/M05 A3010 RMK AO2,M
RTS,2022-01-18 10:15,-119.8764,39.6682,1539.00,30.20,23.00,74.26,M,5.00,0.00,30.09,M,10.00,M,CLR,M,M,M,M,M,M,M,M,M,M,M,M,M,M,24.26,KRTS 181015Z AUTO VRB05KT 10SM CLR M01/M05 A3009 RMK AO2,M
MEV,2022-01-18 10:15,-119.7500,38.9963,1441.42,23.00,21.20,92.69,0.00,0.00,0.00,30.09,M,10.00,M,CLR,M,M,M,M,M,M,M,M,M,M,M,M,M,M,23.00,KMEV 181015Z AUTO 00000KT 10SM CLR M05/M06 A3009 RMK AO2,M
TMT,2022-01-18 10:15,-117.1971,39.4643,1749.34,23.20,20.30,88.46,0.00,0.00,0.00,30.07,M,10.00,M,CLR,M,M,M,M,M,M,M,M,M,M,M,M,M,M,23.20,KTMT 181015Z AUTO 00000KT 10SM CLR M05/M06 A3007 RMK AO2 T10491065,M
BAM,2022-01-18 10:15,-116.8743,40.5990,1382.36,28.40,28.40,100.00,0.00,0.00,0.00,30.07,M,10.00,M,CLR,M,M,M,M,M,M,M,M,M,M,M,M,M,M,28.40,KBAM 181015Z AUTO 00000KT 10SM CLR M02/M02 A3007 RMK AO1,M
HTH,2022-01-18 10:15,-118.6315,38.5448,1282.89,30.20,21.20,68.83,140.00,3.00,0.00,30.09,M,10.00,M,CLR,M,M,M,M,M,M,M,M,M,M,M,M,M,M,26.63,KHTH 181015Z AUTO 14003KT 10SM CLR M01/M06 A3009 RMK A01,M
LOL,2022-01-18 10:18,-118.5701,40.0684,1192.43,23.00,21.00,91.90,0.00,0.00,0.00,30.07,M,7.00,M,BKN,M,M,M,200.00,M,M,M,M,M,M,M,M,M,M,23.00,KLOL 181018Z AUTO 00000KT 7SM BKN002 M05/M06 A3007 RMK AO2 T10501061,M
HTH,2022-01-18 10:35,-118.6315,38.5448,1282.89,30.20,21.20,68.83,160.00,3.00,0.00,30.10,M,10.00,M,CLR,M,M,M,M,M,M,M,M,M,M,M,M,M,M,26.63,KHTH 181035Z AUTO 16003KT 10SM CLR M01/M06 A3010 RMK A01,M
RTS,2022-01-18 10:35,-119.8764,39.6682,1539.00,28.40,21.20,74.08,0.00,0.00,0.00,30.10,M,10.00,M,CLR,M,M,M,M,M,M,M,M,M,M,M,M,M,M,28.40,KRTS 181035Z AUTO 00000KT 10SM CLR M02/M06 A3010 RMK AO2,M
TMT,2022-01-18 10:35,-117.1971,39.4643,1749.34,23.90,21.00,88.50,260.00,4.00,0.00,30.07,M,10.00,M,CLR,M,M,M,M,M,M,M,M,M,M,M,M,M,M,17.96,KTMT 181035Z AUTO 26004KT 10SM CLR M04/M06 A3007 RMK AO2 T10451061,M
MEV,2022-01-18 10:35,-119.7500,38.9963,1441.42,21.20,19.40,92.63,160.00,3.00,0.00,30.09,M,10.00,M,CLR,M,M,M,M,M,M,M,M,M,M,M,M,M,M,16.34,KMEV 181035Z AUTO 16003KT 10SM CLR M06/M07 A3009 RMK AO2,M
05U,2022-01-18 10:35,-116.0051,39.6042,1811.23,19.40,14.00,79.16,200.00,7.00,0.00,30.06,M,10.00,M,CLR,M,M,M,M,M,M,M,M,M,M,M,M,M,M,9.42,K05U 181035Z AUTO 20007KT 10SM CLR M07/M10 A3006 RMK A01,M
BAM,2022-01-18 10:35,-116.8743,40.5990,1382.36,30.20,30.20,100.00,0.00,0.00,0.00,30.07,M,10.00,M,CLR,M,M,M,M,M,M,M,M,M,M,M,M,M,M,30.20,KBAM 181035Z AUTO 00000KT 10SM CLR M01/M01 A3007 RMK AO1,M
CXP,2022-01-18 10:35,-119.7326,39.1923,1431.00,26.60,23.00,86.07,0.00,0.00,0.00,30.10,M,10.00,M,CLR,M,M,M,M,M,M,M,M,M,M,M,M,M,M,26.60,KCXP 181035Z AUTO 00000KT 10SM CLR M03/M05 A3010 RMK AO2,M
BVU,2022-01-18 10:35,-114.8611,35.9475,671.00,50.00,23.00,34.39,30.00,5.00,0.00,30.01,M,10.00,M,OVC,M,M,M,7000.00,M,M,M,M,M,M,M,M,M,M,50.00,KBVU 181035Z AUTO 03005KT 10SM OVC070 10/M05 A3001 RMK AO2,M
VGT,2022-01-18 10:53,-115.1933,36.2111,667.00,48.00,28.90,47.32,0.00,0.00,0.00,30.01,1017.40,10.00,M,SCT,BKN,M,M,8000.00,9500.00,M,M,M,M,M,M,M,M,M,48.00,KVGT 181053Z AUTO 00000KT 10SM SCT080 BKN095 09/M02 A3001 RMK AO2 SLP174 T00891017,M
LOL,2022-01-18 10:53,-118.5701,40.0684,1192.43,19.90,19.00,96.23,0.00,0.00,0.00,30.08,1020.40,10.00,M,FEW,M,M,M,200.00,M,M,M,M,M,M,M,M,M,M,19.90,KLOL 181053Z AUTO 00000KT 10SM FEW002 M07/M07 A3008 RMK AO2 SLP204 T10671072,M
ELY,2022-01-18 10:53,-114.8453,39.2950,1909.00,21.00,16.00,80.69,180.00,11.00,0.00,30.02,1016.40,10.00,M,CLR,M,M,M,M,M,M,M,M,M,M,M,M,M,M,8.57,KELY 181053Z AUTO 18011KT 10SM CLR M06/M09 A3002 RMK AO2 SLP164 T10611089,M
BVU,2022-01-18 10:55,-114.8611,35.9475,671.00,48.20,33.80,57.26,30.00,8.00,0.00,30.01,M,5.00,M,FEW,SCT,BKN,M,300.00,3200.00,4600.00,M,-RA,M,M,M,M,M,M,44.07,KBVU 181055Z AUTO 03008KT 5SM -RA FEW003 SCT032 BKN046 09/01 A3001 RMK AO2,M
CXP,2022-01-18 10:55,-119.7326,39.1923,1431.00,26.60,23.00,86.07,0.00,0.00,0.00,30.10,M,9.00,M,CLR,M,M,M,M,M,M,M,M,M,M,M,M,M,M,26.60,KCXP 181055Z AUTO 00000KT 9SM CLR M03/M05 A3010 RMK AO2,M
RNO,2022-01-18 10:55,-119.7711,39.4839,1341.00,28.00,23.00,81.25,0.00,0.00,0.00,30.09,1019.00,10.00,M,SCT,M,M,M,20000.00,M,M,M,M,M,M,M,M,M,M,28.00,KRNO 181055Z 00000KT 10SM SCT200 M02/M05 A3009 RMK AO2 SLP190 T10221050 $,M
RTS,2022-01-18 10:55,-119.8764,39.6682,1539.00,32.00,21.20,63.99,0.00,0.00,0.00,30.10,M,10.00,M,CLR,M,M,M,M,M,M,M,M,M,M,M,M,M,M,32.00,KRTS 181055Z AUTO 00000KT 10SM CLR M00/M06 A3010 RMK AO2,M
05U,2022-01-18 10:55,-116.0051,39.6042,1811.23,21.20,14.00,73.32,0.00,0.00,0.00,30.05,M,10.00,M,CLR,M,M,M,M,M,M,M,M,M,M,M,M,M,M,21.20,K05U 181055Z AUTO 00000KT 10SM CLR M06/M10 A3005 RMK A01,M
MEV,2022-01-18 10:55,-119.7500,38.9963,1441.42,23.00,21.20,92.69,0.00,0.00,0.00,30.09,M,10.00,M,CLR,M,M,M,M,M,M,M,M,M,M,M,M,M,M,23.00,KMEV 181055Z AUTO 00000KT 10SM CLR M05/M06 A3009 RMK AO2,M
BAM,2022-01-18 10:55,-116.8743,40.5990,1382.36,26.60,26.60,100.00,0.00,0.00,0.00,30.07,M,10.00,M,CLR,M,M,M,M,M,M,M,M,M,M,M,M,M,M,26.60,KBAM 181055Z AUTO 00000KT 10SM CLR M03/M03 A3007 RMK AO1,M
HTH,2022-01-18 10:55,-118.6315,38.5448,1282.89,30.20,21.20,68.83,220.00,3.00,0.00,30.09,M,10.00,M,CLR,M,M,M,M,M,M,M,M,M,M,M,M,M,M,26.63,KHTH 181055Z AUTO 22003KT 10SM CLR M01/M06 A3009 RMK A01,M
TMT,2022-01-18 10:55,-117.1971,39.4643,1749.34,19.90,18.10,92.58,0.00,0.00,0.00,30.07,M,10.00,M,CLR,M,M,M,M,M,M,M,M,M,M,M,M,M,M,19.90,KTMT 181055Z AUTO 00000KT 10SM CLR M07/M08 A3007 RMK AO2 T10671077,M
LAS,2022-01-18 10:56,-115.1634,36.0719,663.00,48.00,38.00,67.87,200.00,3.00,T,30.01,1015.50,9.00,M,OVC,M,M,M,6500.00,M,M,M,-RA,M,M,M,M,M,M,46.98,KLAS 181056Z 20003KT 9SM -RA OVC065 09/03 A3001 RMK AO2 RAB34 SLP155 TOPS OF MTNS OBSCURED DSNT SW-NW P0000 T00890033,M
TPH,2022-01-18 10:56,-117.0904,38.0505,1654.00,30.90,21.90,68.91,10.00,8.00,0.00,30.05,1017.20,10.00,M,OVC,M,M,M,11000.00,M,M,M,M,M,M,M,M,M,M,22.76,KTPH 181056Z AUTO 01008KT 10SM OVC110 M01/M06 A3005 RMK AO2 SLP172 T10061056,M
HND,2022-01-18 10:56,-115.1344,35.9729,742.79,48.00,30.00,49.49,140.00,3.00,T,30.02,1018.10,10.00,M,OVC,M,M,M,6500.00,M,M,M,-RA,M,M,M,M,M,M,46.98,KHND 181056Z AUTO 14003KT 10SM -RA OVC065 09/M01 A3002 RMK AO2 RAB44 SLP181 P0000 T00891011,M
WMC,2022-01-18 10:56,-117.8072,40.9019,1315.00,21.90,19.00,88.40,0.00,0.00,0.00,30.07,1019.40,10.00,M,CLR,M,M,M,M,M,M,M,M,T,M,M,M,M,M,21.90,KWMC 181056Z AUTO 00000KT 10SM CLR M06/M07 A3007 RMK AO2 SLP194 I1000 T10561072,M
EKO,2022-01-18 10:56,-115.7860,40.8242,1367.00,24.10,21.00,87.76,0.00,0.00,0.00,30.03,1018.30,10.00,M,CLR,M,M,M,M,M,M,M,M,T,M,M,M,M,M,24.10,KEKO 181056Z AUTO 00000KT 10SM CLR M04/M06 A3003 RMK AO2 SLP183 I1000 T10441061,M
INS,2022-01-18 10:58,-115.6733,36.5872,955.00,44.00,22.30,42.02,0.00,0.00,0.00,30.02,1014.80,10.00,M,OVC,M,M,M,6000.00,M,M,M,M,M,M,M,M,M,M,43.90,KINS 181058Z AUTO 00000KT 10SM OVC060 07/M05 A3002 RMK AO2 SLP148 T00661054 $,M
LSV,2022-01-18 10:58,-115.0343,36.2362,570.00,47.50,23.20,38.08,300.00,5.00,0.00,30.01,1015.80,10.00,M,BKN,OVC,M,M,7500.00,14000.00,M,M,M,M,M,M,M,M,M,44.80,KLSV 181058Z AUTO 30005KT 10SM BKN075 OVC140 09/M05 A3001 RMK AO2 SLP158 T00861049 $,M
LOL,2022-01-18 11:10,-118.5701,40.0684,1192.43,19.90,19.00,96.23,0.00,0.00,0.00,30.08,M,1.50,M,CLR,M,M,M,M,M,M,M,BR,M,M,M,M,M,M,19.90,KLOL 181110Z AUTO 00000KT 1 1/2SM BR CLR M07/M07 A3008 RMK AO2 T10671072,M
CXP,2022-01-18 11:10,-119.7326,39.1923,1431.00,24.80,23.00,92.74,0.00,0.00,0.00,30.10,M,8.00,M,CLR,M,M,M,M,M,M,M,M,M,M,M,M,M,M,24.80,KCXP 181110Z AUTO 00000KT 8SM CLR M04/M05 A3010 RMK AO2,M
LOL,2022-01-18 11:13,-118.5701,40.0684,1192.43,19.90,18.00,92.19,0.00,0.00,0.00,30.08,M,0.75,M,VV ,M,M,M,200.00,M,M,M,BR,M,M,M,M,M,M,19.90,KLOL 181113Z AUTO 00000KT 3/4SM BR VV002 M07/M08 A3008 RMK AO2 T10671078,M
MEV,2022-01-18 11:15,-119.7500,38.9963,1441.42,19.40,17.60,92.57,0.00,0.00,0.00,30.09,M,10.00,M,CLR,M,M,M,M,M,M,M,M,M,M,M,M,M,M,19.40,KMEV 181115Z AUTO 00000KT 10SM CLR M07/M08 A3009 RMK AO2,M
TMT,2022-01-18 11:15,-117.1971,39.4643,1749.34,20.50,19.00,93.80,0.00,0.00,0.00,30.06,M,10.00,M,CLR,M,M,M,M,M,M,M,M,M,M,M,M,M,M,20.50,KTMT 181115Z AUTO 00000KT 10SM CLR M06/M07 A3006 RMK AO2 T10641072,M
BAM,2022-01-18 11:15,-116.8743,40.5990,1382.36,26.60,26.60,100.00,0.00,0.00,0.00,30.06,M,10.00,M,CLR,M,M,M,M,M,M,M,M,M,M,M,M,M,M,26.60,KBAM 181115Z AUTO 00000KT 10SM CLR M03/M03 A3006 RMK AO1,M
HTH,2022-01-18 11:15,-118.6315,38.5448,1282.89,30.20,21.20,68.83,220.00,4.00,0.00,30.09,M,10.00,M,CLR,M,M,M,M,M,M,M,M,M,M,M,M,M,M,25.32,KHTH 181115Z AUTO 22004KT 10SM CLR M01/M06 A3009 RMK A01,M
BVU,2022-01-18 11:15,-114.8611,35.9475,671.00,50.00,32.00,49.81,30.00,6.00,0.00,30.00,M,10.00,M,FEW,SCT,OVC,M,3100.00,4400.00,6000.00,M,M,M,M,M,M,M,M,50.00,KBVU 181115Z AUTO 03006KT 10SM FEW031 SCT044 OVC060 10/00 A3000 RMK AO2,M
05U,2022-01-18 11:15,-116.0051,39.6042,1811.23,21.20,14.00,73.32,0.00,0.00,0.00,30.05,M,10.00,M,CLR,M,M,M,M,M,M,M,M,M,M,M,M,M,M,21.20,K05U 181115Z AUTO 00000KT 10SM CLR M06/M10 A3005 RMK A01,M
RTS,2022-01-18 11:15,-119.8764,39.6682,1539.00,28.40,21.20,74.08,0.00,0.00,0.00,30.09,M,10.00,M,CLR,M,M,M,M,M,M,M,M,M,M,M,M,M,M,28.40,KRTS 181115Z AUTO 00000KT 10SM CLR M02/M06 A3009 RMK AO2,M
LOL,2022-01-18 11:25,-118.5701,40.0684,1192.43,19.90,18.00,92.19,100.00,3.00,0.00,30.07,M,2.00,M,BKN,M,M,M,200.00,M,M,M,BR,M,M,M,M,M,M,14.86,KLOL 181125Z AUTO 10003KT 2SM BR BKN002 M07/M08 A3007 RMK AO2 T10671078,M
LOL,2022-01-18 11:32,-118.5701,40.0684,1192.43,19.00,18.00,95.80,100.00,4.00,0.00,30.07,M,10.00,M,BKN,M,M,M,200.00,M,M,M,M,M,M,M,M,M,M,12.24,KLOL 181132Z AUTO 10004KT 10SM BKN002 M07/M08 A3007 RMK AO2 T10721078,M
05U,2022-01-18 11:35,-116.0051,39.6042,1811.23,23.00,14.00,67.96,190.00,3.00,0.00,30.04,M,10.00,M,FEW,M,M,M,12000.00,M,M,M,M,M,M,M,M,M,M,18.40,K05U 181135Z AUTO 19003KT 10SM FEW120 M05/M10 A3004 RMK A01,M
MEV,2022-01-18 11:35,-119.7500,38.9963,1441.42,19.40,17.60,92.57,0.00,0.00,0.00,30.08,M,10.00,M,CLR,M,M,M,M,M,M,M,M,M,M,M,M,M,M,19.40,KMEV 181135Z AUTO 00000KT 10SM CLR M07/M08 A3008 RMK AO2,M
BAM,2022-01-18 11:35,-116.8743,40.5990,1382.36,26.60,26.60,100.00,0.00,0.00,0.00,30.06,M,10.00,M,CLR,M,M,M,M,M,M,M,M,M,M,M,M,M,M,26.60,KBAM 181135Z AUTO 00000KT 10SM CLR M03/M03 A3006 RMK AO1,M
BVU,2022-01-18 11:35,-114.8611,35.9475,671.00,50.00,33.80,53.54,40.00,5.00,0.00,30.00,M,10.00,M,FEW,OVC,M,M,5500.00,6500.00,M,M,M,M,M,M,M,M,M,50.00,KBVU 181135Z AUTO 04005KT 10SM FEW055 OVC065 10/01 A3000 RMK AO2,M
CXP,2022-01-18 11:35,-119.7326,39.1923,1431.00,24.80,21.20,85.96,0.00,0.00,0.00,30.10,M,10.00,M,CLR,M,M,M,M,M,M,M,M,M,M,M,M,M,M,24.80,KCXP 181135Z AUTO 00000KT 10SM CLR M04/M06 A3010 RMK AO2,M
RTS,2022-01-18 11:35,-119.8764,39.6682,1539.00,32.00,21.20,63.99,0.00,0.00,0.00,30.09,M,10.00,M,CLR,M,M,M,M,M,M,M,M,M,M,M,M,M,M,32.00,KRTS 181135Z AUTO 00000KT 10SM CLR 00/M06 A3009 RMK AO2,M
HTH,2022-01-18 11:35,-118.6315,38.5448,1282.89,28.40,21.20,74.08,0.00,0.00,0.00,30.08,M,10.00,M,CLR,M,M,M,M,M,M,M,M,M,M,M,M,M,M,28.40,KHTH 181135Z AUTO 00000KT 10SM CLR M02/M06 A3008 RMK A01,M
TMT,2022-01-18 11:35,-117.1971,39.4643,1749.34,22.30,20.10,91.10,0.00,0.00,0.00,30.06,M,10.00,M,CLR,M,M,M,M,M,M,M,M,M,M,M,M,M,M,22.30,KTMT 181135Z AUTO 00000KT 10SM CLR M05/M07 A3006 RMK AO2 T10541066,M
05U,2022-01-18 11:50,-116.0051,39.6042,1811.23,21.20,14.00,73.32,190.00,3.00,0.00,30.04,M,10.00,M,FEW,M,M,M,12000.00,M,M,M,M,M,M,M,M,M,M,16.34,K05U 181150Z AUTO 19003KT 10SM FEW120 M06/M10 A3004 RMK A01,M
VGT,2022-01-18 11:53,-115.1933,36.2111,667.00,49.00,28.90,45.75,260.00,3.00,0.00,30.00,1017.00,10.00,M,OVC,M,M,M,7000.00,M,M,M,M,M,M,M,M,M,M,48.01,KVGT 181153Z AUTO 26003KT 10SM OVC070 09/M02 A3000 RMK AO2 SLP170 60000 T00941017 10106 20089 58003,M
ELY,2022-01-18 11:53,-114.8453,39.2950,1909.00,19.90,14.00,77.48,190.00,9.00,0.00,30.01,1016.40,10.00,M,CLR,M,M,M,M,M,M,M,M,M,M,M,M,M,M,8.47,KELY 181153Z AUTO 19009KT 10SM CLR M07/M10 A3001 RMK AO2 SLP164 T10671100 11028 21067 58005,M
LOL,2022-01-18 11:53,-118.5701,40.0684,1192.43,19.90,18.00,92.19,80.00,4.00,0.00,30.07,1020.10,10.00,M,SCT,M,M,M,200.00,M,M,M,M,M,M,0.01,M,M,M,13.29,KLOL 181153Z AUTO 08004KT 10SM SCT002 M07/M08 A3007 RMK AO2 SLP201 I6001 T10671078 11039 21072 58002,M
BVU,2022-01-18 11:55,-114.8611,35.9475,671.00,50.00,32.00,49.81,240.00,3.00,0.00,30.01,M,10.00,M,OVC,M,M,M,6500.00,M,M,M,M,M,M,M,M,M,M,50.00,KBVU 181155Z AUTO 24003KT 10SM OVC065 10/00 A3001 RMK AO2,M
CXP,2022-01-18 11:55,-119.7326,39.1923,1431.00,26.60,23.00,86.07,0.00,0.00,0.00,30.09,M,10.00,M,CLR,M,M,M,M,M,M,M,M,M,M,M,M,M,M,26.60,KCXP 181155Z AUTO 00000KT 10SM CLR M03/M05 A3009 RMK AO2,M
RNO,2022-01-18 11:55,-119.7711,39.4839,1341.00,27.00,21.90,80.83,0.00,0.00,0.00,30.09,1018.50,10.00,M,FEW,M,M,M,20000.00,M,M,M,M,M,M,M,M,M,M,27.00,KRNO 181155Z 00000KT 10SM FEW200 M03/M06 A3009 RMK AO2 SLP185 T10281056 10017 21033 50003 $,M
MEV,2022-01-18 11:55,-119.7500,38.9963,1441.42,21.20,19.40,92.63,20.00,4.00,0.00,30.08,M,10.00,M,CLR,M,M,M,M,M,M,M,M,M,M,M,M,M,M,14.81,KMEV 181155Z AUTO 02004KT 10SM CLR M06/M07 A3008 RMK AO2,M
TMT,2022-01-18 11:55,-117.1971,39.4643,1749.34,19.40,18.10,94.58,0.00,0.00,0.00,30.06,M,10.00,M,CLR,M,M,M,M,M,M,M,M,M,M,M,M,M,M,19.40,KTMT 181155Z AUTO 00000KT 10SM CLR M07/M08 A3006 RMK AO2 T10701077 11012 21070,M
RTS,2022-01-18 11:55,-119.8764,39.6682,1539.00,28.40,21.20,74.08,320.00,5.00,0.00,30.08,M,10.00,M,CLR,M,M,M,M,M,M,M,M,M,M,M,M,M,M,22.12,KRTS 181155Z AUTO 32005KT 10SM CLR M02/M06 A3008 RMK AO2,M
HTH,2022-01-18 11:55,-118.6315,38.5448,1282.89,28.40,23.00,79.92,220.00,3.00,0.00,30.08,M,10.00,M,CLR,M,M,M,M,M,M,M,M,M,M,M,M,M,M,24.57,KHTH 181155Z AUTO 22003KT 10SM CLR M02/M05 A3008 RMK A01,M
BAM,2022-01-18 11:55,-116.8743,40.5990,1382.36,26.60,26.60,100.00,210.00,3.00,0.00,30.07,M,10.00,M,CLR,M,M,M,M,M,M,M,M,M,M,M,M,M,M,22.52,KBAM 181155Z AUTO 21003KT 10SM CLR M03/M03 A3007 RMK AO1,M
HND,2022-01-18 11:56,-115.1344,35.9729,742.79,46.00,42.00,86.16,0.00,0.00,0.03,30.01,1017.70,10.00,M,BKN,OVC,M,M,6000.00,7000.00,M,M,-RA,M,M,M,M,M,M,46.00,KHND 181156Z AUTO 00000KT 10SM -RA BKN060 OVC070 08/06 A3001 RMK AO2 SLP177 P0003 60003 70003 T00780056 10100 20072 58005,M
TPH,2022-01-18 11:56,-117.0904,38.0505,1654.00,30.00,21.90,71.48,10.00,5.00,0.00,30.04,1017.10,10.00,M,SCT,M,M,M,11000.00,M,M,M,M,M,M,M,M,M,M,24.02,KTPH 181156Z AUTO 01005KT 10SM SCT110 M01/M06 A3004 RMK AO2 SLP171 T10111056 11006 21017 58003,M
WMC,2022-01-18 11:56,-117.8072,40.9019,1315.00,19.90,17.10,88.68,0.00,0.00,0.00,30.06,1019.40,10.00,M,CLR,M,M,M,M,M,M,M,M,T,M,0.01,M,M,M,19.90,KWMC 181156Z AUTO 00000KT 10SM CLR M07/M08 A3006 RMK AO2 SLP194 I1000 I6001 T10671083 11022 21067 50002,M
EKO,2022-01-18 11:56,-115.7860,40.8242,1367.00,23.00,19.00,84.39,110.00,3.00,0.00,30.03,1018.50,10.00,M,CLR,M,M,M,M,M,M,M,M,T,M,T,M,M,M,18.40,KEKO 181156Z AUTO 11003KT 10SM CLR M05/M07 A3003 RMK AO2 SLP185 I1000 I6000 T10501072 11022 21050 58000,M
LAS,2022-01-18 11:56,-115.1634,36.0719,663.00,47.00,42.00,83.28,200.00,3.00,0.02,29.99,1015.10,9.00,M,SCT,OVC,M,M,6500.00,8000.00,M,M,-RA,M,M,M,M,M,M,45.72,KLAS 181156Z 20003KT 9SM -RA SCT065 OVC080 08/06 A2999 RMK AO2 SLP151 MTNS OBSCURED DSNT SW-NW P0002 60002 70002 T00830056 10111 20083 58005,M
INS,2022-01-18 11:58,-115.6733,36.5872,955.00,43.20,24.30,46.94,0.00,0.00,0.00,30.00,1014.30,10.00,M,OVC,M,M,M,5500.00,M,M,M,M,M,M,M,M,M,M,43.20,KINS 181158Z AUTO 00000KT 10SM OVC055 06/M04 A3000 RMK AO2 SLP143 60000 T00621043 10069 20056 56005 $,M
LSV,2022-01-18 11:58,-115.0343,36.2362,570.00,44.80,21.40,39.09,0.00,0.00,0.00,29.99,1015.20,10.00,M,FEW,BKN,BKN,M,8000.00,15000.00,17000.00,M,M,M,M,M,M,M,M,44.80,KLSV 181158Z AUTO 00000KT 10SM FEW080 BKN150 BKN170 07/M06 A2999 RMK AO2 SLP152 60000 T00711059 10098 20069 58003 $,M
MEV,2022-01-18 12:15,-119.7500,38.9963,1441.42,21.20,19.40,92.63,0.00,0.00,0.00,30.09,M,10.00,M,CLR,M,M,M,M,M,M,M,M,M,M,M,M,M,M,21.20,KMEV 181215Z AUTO 00000KT 10SM CLR M06/M07 A3009 RMK AO2,M
BVU,2022-01-18 12:15,-114.8611,35.9475,671.00,48.20,32.00,53.27,320.00,4.00,0.00,30.01,M,8.00,M,FEW,BKN,OVC,M,3300.00,5000.00,6500.00,M,-RA,M,M,M,M,M,M,46.34,KBVU 181215Z AUTO 32004KT 8SM -RA FEW033 BKN050 OVC065 09/00 A3001 RMK AO2,M
CXP,2022-01-18 12:15,-119.7326,39.1923,1431.00,24.80,21.20,85.96,0.00,0.00,0.00,30.10,M,10.00,M,CLR,M,M,M,M,M,M,M,M,M,M,M,M,M,M,24.80,KCXP 181215Z AUTO 00000KT 10SM CLR M04/M06 A3010 RMK AO2,M
RTS,2022-01-18 12:15,-119.8764,39.6682,1539.00,32.00,21.20,63.99,280.00,4.00,0.00,30.09,M,10.00,M,CLR,M,M,M,M,M,M,M,M,M,M,M,M,M,M,27.42,KRTS 181215Z AUTO 28004KT 10SM CLR 00/M06 A3009 RMK AO2,M
TMT,2022-01-18 12:15,-117.1971,39.4643,1749.34,20.10,18.30,92.59,0.00,0.00,0.00,30.05,M,10.00,M,CLR,M,M,M,M,M,M,M,M,M,M,M,M,M,M,20.10,KTMT 181215Z AUTO 00000KT 10SM CLR M07/M08 A3005 RMK AO2 T10661076,M
HTH,2022-01-18 12:15,-118.6315,38.5448,1282.89,28.40,23.00,79.92,230.00,4.00,0.00,30.08,M,10.00,M,CLR,M,M,M,M,M,M,M,M,M,M,M,M,M,M,23.22,KHTH 181215Z AUTO 23004KT 10SM CLR M02/M05 A3008 RMK A01,M
BAM,2022-01-18 12:15,-116.8743,40.5990,1382.36,24.80,24.80,100.00,0.00,0.00,0.00,30.07,M,10.00,M,CLR,M,M,M,M,M,M,M,M,M,M,M,M,M,M,24.80,KBAM 181215Z AUTO 00000KT 10SM CLR M04/M04 A3007 RMK AO1,M
05U,2022-01-18 12:15,-116.0051,39.6042,1811.23,21.20,14.00,73.32,230.00,4.00,0.00,30.04,M,10.00,M,CLR,M,M,M,M,M,M,M,M,M,M,M,M,M,M,14.81,K05U 181215Z AUTO 23004KT 10SM CLR M06/M10 A3004 RMK A01,M
TMT,2022-01-18 12:35,-117.1971,39.4643,1749.34,19.80,18.00,92.58,0.00,0.00,0.00,30.06,M,10.00,M,CLR,M,M,M,M,M,M,M,M,M,M,M,M,M,M,19.80,KTMT 181235Z AUTO 00000KT 10SM CLR M07/M08 A3006 RMK AO2 T10681078,M
MEV,2022-01-18 12:35,-119.7500,38.9963,1441.42,19.40,17.60,92.57,0.00,0.00,0.00,30.09,M,10.00,M,CLR,M,M,M,M,M,M,M,M,M,M,M,M,M,M,19.40,KMEV 181235Z AUTO 00000KT 10SM CLR M07/M08 A3009 RMK AO2,M
05U,2022-01-18 12:35,-116.0051,39.6042,1811.23,17.60,14.00,85.51,0.00,0.00,0.00,30.04,M,10.00,M,CLR,M,M,M,M,M,M,M,M,M,M,M,M,M,M,17.60,K05U 181235Z AUTO 00000KT 10SM CLR M08/M10 A3004 RMK A01,M
RTS,2022-01-18 12:35,-119.8764,39.6682,1539.00,28.40,21.20,74.08,30.00,4.00,0.00,30.09,M,10.00,M,CLR,M,M,M,M,M,M,M,M,M,M,M,M,M,M,23.22,KRTS 181235Z AUTO 03004KT 10SM CLR M02/M06 A3009 RMK AO2,M
CXP,2022-01-18 12:35,-119.7326,39.1923,1431.00,23.00,21.20,92.69,0.00,0.00,0.00,30.10,M,10.00,M,CLR,M,M,M,M,M,M,M,M,M,M,M,M,M,M,23.00,KCXP 181235Z AUTO 00000KT 10SM CLR M05/M06 A3010 RMK AO2,M
BAM,2022-01-18 12:35,-116.8743,40.5990,1382.36,23.00,23.00,100.00,70.00,4.00,0.00,30.07,M,10.00,M,CLR,M,M,M,M,M,M,M,M,M,M,M,M,M,M,16.91,KBAM 181235Z AUTO 07004KT 10SM CLR M05/M05 A3007 RMK AO1,M
HTH,2022-01-18 12:35,-118.6315,38.5448,1282.89,28.40,23.00,79.92,190.00,3.00,0.00,30.08,M,10.00,M,CLR,M,M,M,M,M,M,M,M,M,M,M,M,M,M,24.57,KHTH 181235Z AUTO 19003KT 10SM CLR M02/M05 A3008 RMK A01,M
BVU,2022-01-18 12:35,-114.8611,35.9475,671.00,46.40,39.20,75.84,340.00,5.00,0.00,30.01,M,10.00,M,FEW,OVC,M,M,4300.00,5500.00,M,M,-DZ,M,M,M,M,M,M,43.50,KBVU 181235Z AUTO 34005KT 10SM -DZ FEW043 OVC055 08/04 A3001 RMK AO2,M
LOL,2022-01-18 12:50,-118.5701,40.0684,1192.43,17.60,15.80,92.50,230.00,4.00,0.00,30.07,M,1.75,M,BKN,M,M,M,200.00,M,M,M,BR,T,M,M,M,M,M,10.60,KLOL 181250Z AUTO 23004KT 1 3/4SM BR BKN002 M08/M09 A3007 RMK AO2 I1000,M
ELY,2022-01-18 12:53,-114.8453,39.2950,1909.00,19.00,14.00,80.52,190.00,8.00,0.00,30.02,1017.70,10.00,M,CLR,M,M,M,M,M,M,M,M,M,M,M,M,M,M,8.10,KELY 181253Z AUTO 19008KT 10SM CLR M07/M10 A3002 RMK AO2 SLP177 T10721100,M
LOL,2022-01-18 12:53,-118.5701,40.0684,1192.43,17.10,16.00,95.35,210.00,3.00,0.00,30.07,1020.90,0.50,M,VV ,M,M,M,200.00,M,M,M,FZFG,T,M,M,M,M,M,11.66,KLOL 181253Z AUTO 21003KT 1/2SM FZFG VV002 M08/M09 A3007 RMK AO2 SLP209 I1000 T10831089,M
VGT,2022-01-18 12:53,-115.1933,36.2111,667.00,48.00,38.00,67.87,M,3.00,0.01,30.00,1017.30,8.00,M,OVC,M,M,M,6000.00,M,M,M,-RA,M,M,M,M,M,M,46.98,KVGT 181253Z AUTO VRB03KT 8SM -RA OVC060 09/03 A3000 RMK AO2 RAB08 SLP173 P0001 T00890033,M
RNO,2022-01-18 12:55,-119.7711,39.4839,1341.00,26.10,21.90,83.89,20.00,3.00,0.00,30.10,1019.20,10.00,M,FEW,M,M,M,20000.00,M,M,M,M,M,M,M,M,M,M,21.94,KRNO 181255Z 02003KT 10SM FEW200 M03/M06 A3010 RMK AO2 SLP192 T10331056 $,M
CXP,2022-01-18 12:55,-119.7326,39.1923,1431.00,24.80,21.20,85.96,0.00,0.00,0.00,30.10,M,9.00,M,CLR,M,M,M,M,M,M,M,M,M,M,M,M,M,M,24.80,KCXP 181255Z AUTO 00000KT 9SM CLR M04/M06 A3010 RMK AO2,M
05U,2022-01-18 12:55,-116.0051,39.6042,1811.23,17.60,14.00,85.51,0.00,0.00,0.00,30.05,M,10.00,M,CLR,M,M,M,M,M,M,M,M,M,M,M,M,M,M,17.60,K05U 181255Z AUTO 00000KT 10SM CLR M08/M10 A3005 RMK A01,M
RTS,2022-01-18 12:55,-119.8764,39.6682,1539.00,26.60,23.00,86.07,0.00,0.00,0.00,30.10,M,10.00,M,CLR,M,M,M,M,M,M,M,M,M,M,M,M,M,M,26.60,KRTS 181255Z AUTO 00000KT 10SM CLR M03/M05 A3010 RMK AO2,M
BVU,2022-01-18 12:55,-114.8611,35.9475,671.00,46.40,41.00,81.34,340.00,4.00,0.00,30.01,M,6.00,M,SCT,OVC,M,M,4800.00,5500.00,M,M,RA,M,M,M,M,M,M,44.24,KBVU 181255Z AUTO 34004KT 6SM RA SCT048 OVC055 08/05 A3001 RMK AO2,M
TMT,2022-01-18 12:55,-117.1971,39.4643,1749.34,19.80,18.00,92.58,0.00,0.00,0.00,30.06,M,10.00,M,CLR,M,M,M,M,M,M,M,M,M,M,M,M,M,M,19.80,KTMT 181255Z AUTO 00000KT 10SM CLR M07/M08 A3006 RMK AO2 T10681078,M
HTH,2022-01-18 12:55,-118.6315,38.5448,1282.89,28.40,23.00,79.92,0.00,0.00,0.00,30.09,M,10.00,M,CLR,M,M,M,M,M,M,M,M,M,M,M,M,M,M,28.40,KHTH 181255Z AUTO 00000KT 10SM CLR M02/M05 A3009 RMK A01,M
BAM,2022-01-18 12:55,-116.8743,40.5990,1382.36,23.00,23.00,100.00,80.00,4.00,0.00,30.07,M,10.00,M,CLR,M,M,M,M,M,M,M,M,M,M,M,M,M,M,16.91,KBAM 181255Z AUTO 08004KT 10SM CLR M05/M05 A3007 RMK AO1,M
MEV,2022-01-18 12:55,-119.7500,38.9963,1441.42,19.40,19.40,100.00,M,4.00,0.00,30.09,M,10.00,M,CLR,M,M,M,M,M,M,M,M,M,M,M,M,M,M,12.71,KMEV 181255Z AUTO VRB04KT 10SM CLR M07/M07 A3009 RMK AO2,M
WMC,2022-01-18 12:56,-117.8072,40.9019,1315.00,21.00,18.00,87.97,170.00,3.00,0.00,30.07,1019.70,10.00,M,CLR,M,M,M,M,M,M,M,M,T,M,M,M,M,M,16.11,KWMC 181256Z AUTO 17003KT 10SM CLR M06/M08 A3007 RMK AO2 SLP197 I1000 T10611078,M
EKO,2022-01-18 12:56,-115.7860,40.8242,1367.00,21.90,19.00,88.40,0.00,0.00,0.00,30.04,1019.50,10.00,M,CLR,M,M,M,M,M,M,M,M,T,M,M,M,M,M,21.90,KEKO 181256Z AUTO 00000KT 10SM CLR M06/M07 A3004 RMK AO2 SLP195 I1000 T10561072,M
HND,2022-01-18 12:56,-115.1344,35.9729,742.79,45.00,41.00,85.77,90.00,4.00,0.01,30.02,1018.10,10.00,M,OVC,M,M,M,5500.00,M,M,M,-RA,M,M,M,M,M,M,42.60,KHND 181256Z AUTO 09004KT 10SM -RA OVC055 07/05 A3002 RMK AO2 SLP181 P0001 T00720050,M
LAS,2022-01-18 12:56,-115.1634,36.0719,663.00,48.00,40.00,73.38,0.00,0.00,T,30.00,1015.50,9.00,M,OVC,M,M,M,6000.00,M,M,M,M,M,M,M,M,M,M,48.00,KLAS 181256Z 00000KT 9SM OVC060 09/04 A3000 RMK AO2 RAE1157 SLP155 MTNS OBSCURED DSNT SW-NW P0000 T00890044,M
TPH,2022-01-18 12:56,-117.0904,38.0505,1654.00,28.00,19.90,71.25,350.00,6.00,0.00,30.04,1018.10,10.00,M,CLR,M,M,M,M,M,M,M,M,M,M,M,M,M,M,20.71,KTPH 181256Z AUTO 35006KT 10SM CLR M02/M07 A3004 RMK AO2 SLP181 T10221067,M
INS,2022-01-18 12:58,-115.6733,36.5872,955.00,42.30,23.50,46.99,0.00,0.00,0.00,30.01,1014.80,10.00,M,SCT,OVC,M,M,5000.00,6500.00,M,M,M,M,M,M,M,M,M,42.30,KINS 181258Z AUTO 00000KT 10SM SCT050 OVC065 06/M05 A3001 RMK AO2 SLP148 T00571047 $,M
LSV,2022-01-18 12:58,-115.0343,36.2362,570.00,45.50,23.20,41.06,0.00,0.00,0.00,30.00,M,10.00,M,SCT,M,M,M,7000.00,M,M,M,M,M,M,M,M,M,M,45.50,KLSV 181258Z AUTO 00000KT 10SM SCT070 08/M05 A3000 RMK AO2 SLPNO T00751049 $,M
LOL,2022-01-18 13:02,-118.5701,40.0684,1192.43,18.00,16.00,91.72,250.00,3.00,0.00,30.08,M,0.25,M,VV ,M,M,M,200.00,M,M,M,FZFG,M,M,M,M,M,M,12.68,KLOL 181302Z AUTO 25003KT 1/4SM FZFG VV002 M08/M09 A3008 RMK AO2 T10781089,M
TMT,2022-01-18 13:15,-117.1971,39.4643,1749.34,20.30,18.70,93.39,0.00,0.00,0.00,30.06,M,10.00,M,CLR,M,M,M,M,M,M,M,M,M,M,M,M,M,M,20.30,KTMT 181315Z AUTO 00000KT 10SM CLR M06/M07 A3006 RMK AO2 T10651074,M
HTH,2022-01-18 13:15,-118.6315,38.5448,1282.89,28.40,21.20,74.08,0.00,0.00,0.00,30.09,M,10.00,M,CLR,M,M,M,M,M,M,M,M,M,M,M,M,M,M,28.40,KHTH 181315Z AUTO 00000KT 10SM CLR M02/M06 A3009 RMK A01,M
BVU,2022-01-18 13:15,-114.8611,35.9475,671.00,46.40,41.00,81.34,10.00,4.00,0.00,30.01,M,6.00,M,FEW,SCT,OVC,M,3200.00,4500.00,5500.00,M,RA,M,M,M,M,M,M,44.24,KBVU 181315Z AUTO 01004KT 6SM RA FEW032 SCT045 OVC055 08/05 A3001 RMK AO2,M
CXP,2022-01-18 13:15,-119.7326,39.1923,1431.00,24.80,21.20,85.96,0.00,0.00,0.00,30.10,M,10.00,M,CLR,M,M,M,M,M,M,M,M,M,M,M,M,M,M,24.80,KCXP 181315Z AUTO 00000KT 10SM CLR M04/M06 A3010 RMK AO2,M
RTS,2022-01-18 13:15,-119.8764,39.6682,1539.00,28.40,21.20,74.08,10.00,4.00,0.00,30.09,M,10.00,M,CLR,M,M,M,M,M,M,M,M,M,M,M,M,M,M,23.22,KRTS 181315Z AUTO 01004KT 10SM CLR M02/M06 A3009 RMK AO2,M
05U,2022-01-18 13:15,-116.0051,39.6042,1811.23,19.40,14.00,79.16,0.00,0.00,0.00,30.05,M,10.00,M,CLR,M,M,M,M,M,M,M,M,M,M,M,M,M,M,19.40,K05U 181315Z AUTO 00000KT 10SM CLR M07/M10 A3005 RMK A01,M
MEV,2022-01-18 13:15,-119.7500,38.9963,1441.42,23.00,21.20,92.69,0.00,0.00,0.00,30.09,M,10.00,M,CLR,M,M,M,M,M,M,M,M,M,M,M,M,M,M,23.00,KMEV 181315Z AUTO 00000KT 10SM CLR M05/M06 A3009 RMK AO2,M
BAM,2022-01-18 13:15,-116.8743,40.5990,1382.36,23.00,23.00,100.00,70.00,3.00,0.00,30.08,M,10.00,M,CLR,M,M,M,M,M,M,M,M,M,M,M,M,M,M,18.40,KBAM 181315Z AUTO 07003KT 10SM CLR M05/M05 A3008 RMK AO1,M
BVU,2022-01-18 13:35,-114.8611,35.9475,671.00,46.40,41.00,81.34,50.00,4.00,0.00,30.02,M,8.00,M,FEW,BKN,OVC,M,3100.00,4600.00,5500.00,M,-RA,M,M,M,M,M,M,44.24,KBVU 181335Z AUTO 05004KT 8SM -RA FEW031 BKN046 OVC055 08/05 A3002 RMK AO2,M
CXP,2022-01-18 13:35,-119.7326,39.1923,1431.00,24.80,21.20,85.96,0.00,0.00,0.00,30.11,M,10.00,M,CLR,M,M,M,M,M,M,M,M,M,M,M,M,M,M,24.80,KCXP 181335Z AUTO 00000KT 10SM CLR M04/M06 A3011 RMK AO2,M
RTS,2022-01-18 13:35,-119.8764,39.6682,1539.00,28.40,21.20,74.08,330.00,5.00,0.00,30.10,M,10.00,M,CLR,M,M,M,M,M,M,M,M,M,M,M,M,M,M,22.12,KRTS 181335Z AUTO 33005KT 10SM CLR M02/M06 A3010 RMK AO2,M
05U,2022-01-18 13:35,-116.0051,39.6042,1811.23,21.20,15.80,79.31,0.00,0.00,0.00,30.06,M,10.00,M,CLR,M,M,M,M,M,M,M,M,M,M,M,M,M,M,21.20,K05U 181335Z AUTO 00000KT 10SM CLR M06/M09 A3006 RMK A01,M
MEV,2022-01-18 13:35,-119.7500,38.9963,1441.42,21.20,19.40,92.63,0.00,0.00,0.00,30.10,M,10.00,M,CLR,M,M,M,M,M,M,M,M,M,M,M,M,M,M,21.20,KMEV 181335Z AUTO 00000KT 10SM CLR M06/M07 A3010 RMK AO2,M
BAM,2022-01-18 13:35,-116.8743,40.5990,1382.36,23.00,23.00,100.00,80.00,4.00,0.00,30.08,M,10.00,M,CLR,M,M,M,M,M,M,M,M,M,M,M,M,M,M,16.91,KBAM 181335Z AUTO 08004KT 10SM CLR M05/M05 A3008 RMK AO1,M
HTH,2022-01-18 13:35,-118.6315,38.5448,1282.89,28.40,21.20,74.08,220.00,3.00,0.00,30.09,M,10.00,M,CLR,M,M,M,M,M,M,M,M,M,M,M,M,M,M,24.57,KHTH 181335Z AUTO 22003KT 10SM CLR M02/M06 A3009 RMK A01,M
TMT,2022-01-18 13:35,-117.1971,39.4643,1749.34,19.90,18.30,93.38,0.00,0.00,0.00,30.08,M,10.00,M,CLR,M,M,M,M,M,M,M,M,M,M,M,M,M,M,19.90,KTMT 181335Z AUTO 00000KT 10SM CLR M07/M08 A3008 RMK AO2 T10671076,M
LOL,2022-01-18 13:39,-118.5701,40.0684,1192.43,17.10,17.10,100.00,0.00,0.00,0.00,30.09,M,0.50,M,VV ,M,M,M,200.00,M,M,M,FZFG,T,M,M,M,M,M,17.10,KLOL 181339Z AUTO 00000KT 1/2SM FZFG VV002 M08/M08 A3009 RMK AO2 I1000 T10831083,M
LSV,2022-01-18 13:50,-115.0343,36.2362,570.00,M,M,M,0.00,0.00,0.00,M,1017.40,10.00,M,BKN,M,M,M,6000.00,M,M,M,-RA,M,M,M,M,M,M,M,KLSV 181350Z 00000KT 10SM -RA BKN060 RMK AO2A RAB44 SLP174 WND DATA ESTMD SLP/ALSTG DATA ESTMD $,M
LOL,2022-01-18 13:51,-118.5701,40.0684,1192.43,17.60,17.60,100.00,0.00,0.00,0.00,30.09,M,2.00,M,BKN,M,M,M,200.00,M,M,M,BR,T,M,M,M,M,M,17.60,KLOL 181351Z AUTO 00000KT 2SM BR BKN002 M08/M08 A3009 RMK AO2 I1000,M
LOL,2022-01-18 13:52,-118.5701,40.0684,1192.43,18.00,17.10,96.19,0.00,0.00,0.00,30.09,1021.40,2.50,M,BKN,M,M,M,200.00,M,M,M,BR,T,M,M,M,M,M,18.00,KLOL 181352Z AUTO 00000KT 2 1/2SM BR BKN002 M08/M08 A3009 RMK AO2 SLP214 I1000 T10781083,M
ELY,2022-01-18 13:53,-114.8453,39.2950,1909.00,18.00,12.90,80.09,190.00,10.00,0.00,30.03,1019.40,10.00,M,CLR,M,M,M,M,M,M,M,M,M,M,M,M,M,M,5.41,KELY 181353Z AUTO 19010KT 10SM CLR M08/M11 A3003 RMK AO2 SLP194 T10781106,M
VGT,2022-01-18 13:53,-115.1933,36.2111,667.00,49.00,37.00,63.34,0.00,0.00,T,30.02,1017.90,10.00,M,OVC,M,M,M,6500.00,M,M,M,M,M,M,M,M,M,M,48.90,KVGT 181353Z 00000KT 10SM OVC065 09/03 A3002 RMK AO2 RAE40 SLP179 P0000 T00940028,M
LOL,2022-01-18 13:55,-118.5701,40.0684,1192.43,18.00,16.00,91.72,0.00,0.00,0.00,30.09,M,5.00,M,SCT,M,M,M,200.00,M,M,M,BR,M,M,M,M,M,M,18.00,KLOL 181355Z AUTO 00000KT 5SM BR SCT002 M08/M09 A3009 RMK AO2 T10781089,M
BVU,2022-01-18 13:55,-114.8611,35.9475,671.00,46.40,42.80,87.19,170.00,4.00,0.00,30.03,M,8.00,M,SCT,BKN,OVC,M,2900.00,4600.00,5500.00,M,-RA,M,M,M,M,M,M,44.24,KBVU 181355Z AUTO 17004KT 8SM -RA SCT029 BKN046 OVC055 08/06 A3003 RMK AO2,M
RTS,2022-01-18 13:55,-119.8764,39.6682,1539.00,26.60,21.20,79.77,310.00,4.00,0.00,30.11,M,10.00,M,CLR,M,M,M,M,M,M,M,M,M,M,M,M,M,M,21.11,KRTS 181355Z AUTO 31004KT 10SM CLR M03/M06 A3011 RMK AO2,M
TMT,2022-01-18 13:55,-117.1971,39.4643,1749.34,20.50,18.50,91.81,0.00,0.00,0.00,30.08,M,10.00,M,CLR,M,M,M,M,M,M,M,M,M,M,M,M,M,M,20.50,KTMT 181355Z AUTO 00000KT 10SM CLR M06/M07 A3008 RMK AO2 T10641075,M
CXP,2022-01-18 13:55,-119.7326,39.1923,1431.00,26.60,23.00,86.07,M,M,0.00,30.11,M,10.00,M,CLR,M,M,M,M,M,M,M,M,M,M,M,M,M,M,M,KCXP 181355Z AUTO 10SM CLR M03/M05 A3011 RMK AO2,M
RNO,2022-01-18 13:55,-119.7711,39.4839,1341.00,27.00,21.90,80.83,0.00,0.00,0.00,30.11,1020.00,10.00,M,FEW,M,M,M,20000.00,M,M,M,M,M,M,M,M,M,M,27.00,KRNO 181355Z 00000KT 10SM FEW200 M03/M06 A3011 RMK AO2 SLP200 T10281056 $,M
05U,2022-01-18 13:55,-116.0051,39.6042,1811.23,17.60,14.00,85.51,0.00,0.00,0.00,30.06,M,10.00,M,CLR,M,M,M,M,M,M,M,M,M,M,M,M,M,M,17.60,K05U 181355Z AUTO 00000KT 10SM CLR M08/M10 A3006 RMK A01,M
MEV,2022-01-18 13:55,-119.7500,38.9963,1441.42,21.20,19.40,92.63,0.00,0.00,0.00,30.10,M,10.00,M,CLR,M,M,M,M,M,M,M,M,M,M,M,M,M,M,21.20,KMEV 181355Z AUTO 00000KT 10SM CLR M06/M07 A3010 RMK AO2,M
BAM,2022-01-18 13:55,-116.8743,40.5990,1382.36,23.00,23.00,100.00,60.00,5.00,0.00,30.08,M,10.00,M,CLR,M,M,M,M,M,M,M,M,M,M,M,M,M,M,15.71,KBAM 181355Z AUTO 06005KT 10SM CLR M05/M05 A3008 RMK AO1,M
HTH,2022-01-18 13:55,-118.6315,38.5448,1282.89,28.40,21.20,74.08,240.00,3.00,0.00,30.10,M,10.00,M,CLR,M,M,M,M,M,M,M,M,M,M,M,M,M,M,24.57,KHTH 181355Z AUTO 24003KT 10SM CLR M02/M06 A3010 RMK A01,M
EKO,2022-01-18 13:56,-115.7860,40.8242,1367.00,21.90,18.00,84.68,80.00,4.00,0.00,30.05,1020.30,10.00,M,CLR,M,M,M,M,M,M,M,M,T,M,M,M,M,M,15.63,KEKO 181356Z AUTO 08004KT 10SM CLR M06/M08 A3005 RMK AO2 SLP203 I1000 T10561078,M
WMC,2022-01-18 13:56,-117.8072,40.9019,1315.00,19.90,18.00,92.19,180.00,5.00,0.00,30.08,1020.80,10.00,M,SCT,M,M,M,200.00,M,M,M,M,M,M,M,M,M,M,12.03,KWMC 181356Z AUTO 18005KT 10SM SCT002 M07/M08 A3008 RMK AO2 SLP208 T10671078,M
HND,2022-01-18 13:56,-115.1344,35.9729,742.79,45.00,42.00,89.49,0.00,0.00,T,30.04,1018.90,10.00,M,OVC,M,M,M,6000.00,M,M,M,-RA,M,M,M,M,M,M,45.00,KHND 181356Z 00000KT 10SM -RA OVC060 07/06 A3004 RMK AO2 RAE11B42 SLP189 P0000 T00720056,M
TPH,2022-01-18 13:56,-117.0904,38.0505,1654.00,26.10,19.00,74.16,20.00,6.00,0.00,30.05,1019.10,10.00,M,CLR,M,M,M,M,M,M,M,M,M,M,M,M,M,M,18.42,KTPH 181356Z AUTO 02006KT 10SM CLR M03/M07 A3005 RMK AO2 SLP191 T10331072,M
LAS,2022-01-18 13:56,-115.1634,36.0719,663.00,47.00,39.00,73.85,0.00,0.00,0.02,30.02,1016.20,9.00,M,OVC,M,M,M,6000.00,M,M,M,-RA,M,M,M,M,M,M,46.90,KLAS 181356Z 00000KT 9SM -RA OVC060 08/04 A3002 RMK AO2 RAB20 SLP162 P0002 T00830039,M
INS,2022-01-18 13:58,-115.6733,36.5872,955.00,42.00,22.80,45.98,0.00,0.00,0.00,30.02,1015.40,10.00,M,OVC,M,M,M,6000.00,M,M,M,M,M,M,M,M,M,M,42.10,KINS 181358Z AUTO 00000KT 10SM OVC060 06/M05 A3002 RMK AO2 SLP154 T00561051 $,M
LSV,2022-01-18 14:00,-115.0343,36.2362,570.00,45.00,30.90,57.28,0.00,0.00,T,30.04,1017.40,10.00,M,BKN,M,M,M,6000.00,M,M,M,-RA,M,M,M,M,M,M,45.10,KLSV 181400Z 00000KT 10SM -RA BKN060 07/M01 A3004 RMK RAB44 SLP174 WND DATA ESTMD SLP/ALSTG DATA ESTMD P0000 T00731006 $,M
WMC,2022-01-18 14:03,-117.8072,40.9019,1315.00,21.00,18.00,87.97,160.00,5.00,0.00,30.08,M,10.00,M,BKN,M,M,M,200.00,M,M,M,M,M,M,M,M,M,M,13.33,KWMC 181403Z AUTO 16005KT 10SM BKN002 M06/M08 A3008 RMK AO2 T10611078,M
WMC,2022-01-18 14:14,-117.8072,40.9019,1315.00,21.90,19.00,88.40,150.00,5.00,0.00,30.08,M,10.00,M,SCT,M,M,M,200.00,M,M,M,M,M,M,M,M,M,M,14.40,KWMC 181414Z AUTO 15005KT 10SM SCT002 M06/M07 A3008 RMK AO2 T10561072,M
RTS,2022-01-18 14:15,-119.8764,39.6682,1539.00,26.60,19.40,73.89,0.00,0.00,0.00,30.11,M,10.00,M,CLR,M,M,M,M,M,M,M,M,M,M,M,M,M,M,26.60,KRTS 181415Z AUTO 00000KT 10SM CLR M03/M07 A3011 RMK AO2,M
05U,2022-01-18 14:15,-116.0051,39.6042,1811.23,17.60,14.00,85.51,0.00,0.00,0.00,30.07,M,10.00,M,CLR,M,M,M,M,M,M,M,M,M,M,M,M,M,M,17.60,K05U 181415Z AUTO 00000KT 10SM CLR M08/M10 A3007 RMK A01,M
MEV,2022-01-18 14:15,-119.7500,38.9963,1441.42,21.20,19.40,92.63,0.00,0.00,0.00,30.11,M,10.00,M,CLR,M,M,M,M,M,M,M,M,M,M,M,M,M,M,21.20,KMEV 181415Z AUTO 00000KT 10SM CLR M06/M07 A3011 RMK AO2,M
CXP,2022-01-18 14:15,-119.7326,39.1923,1431.00,23.00,21.20,92.69,M,M,0.00,30.12,M,10.00,M,CLR,M,M,M,M,M,M,M,M,M,M,M,M,M,M,M,KCXP 181415Z AUTO 10SM CLR M05/M06 A3012 RMK AO2,M
HTH,2022-01-18 14:15,-118.6315,38.5448,1282.89,28.40,21.20,74.08,220.00,5.00,0.00,30.10,M,10.00,M,CLR,M,M,M,M,M,M,M,M,M,M,M,M,M,M,22.12,KHTH 181415Z AUTO 22005KT 10SM CLR M02/M06 A3010 RMK A01,M
BVU,2022-01-18 14:15,-114.8611,35.9475,671.00,42.80,41.00,93.30,0.00,0.00,0.00,30.03,M,10.00,M,FEW,BKN,OVC,M,2900.00,4900.00,5500.00,M,M,M,M,M,M,M,M,42.80,KBVU 181415Z AUTO 00000KT 10SM FEW029 BKN049 OVC055 06/05 A3003 RMK AO2,M
TMT,2022-01-18 14:15,-117.1971,39.4643,1749.34,20.50,18.70,92.60,0.00,0.00,0.00,30.08,M,10.00,M,SCT,M,M,M,12000.00,M,M,M,M,M,M,M,M,M,M,20.50,KTMT 181415Z AUTO 00000KT 10SM SCT120 M06/M07 A3008 RMK AO2 T10641074,M
BAM,2022-01-18 14:15,-116.8743,40.5990,1382.36,23.00,23.00,100.00,70.00,3.00,0.00,30.09,M,10.00,M,CLR,M,M,M,M,M,M,M,M,M,M,M,M,M,M,18.40,KBAM 181415Z AUTO 07003KT 10SM CLR M05/M05 A3009 RMK AO1,M
LOL,2022-01-18 14:28,-118.5701,40.0684,1192.43,16.00,15.10,96.16,140.00,4.00,0.00,30.10,M,2.00,M,BKN,M,M,M,200.00,M,M,M,BR,M,M,M,M,M,M,8.74,KLOL 181428Z AUTO 14004KT 2SM BR BKN002 M09/M09 A3010 RMK AO2 T10891094,M
LSV,2022-01-18 14:33,-115.0343,36.2362,570.00,44.60,30.20,56.74,0.00,0.00,0.00,30.04,1017.40,10.00,M,BKN,M,M,M,6000.00,M,M,M,M,M,M,M,M,M,M,44.60,KLSV 181433Z 00000KT 10SM BKN060 07/M01 A3004 RMK RAE27 SLP174 WND DATA ESTMD SLP/ALSTG DATA ESTMD $,M
INS,2022-01-18 14:33,-115.6733,36.5872,955.00,41.00,23.00,48.39,0.00,0.00,0.00,30.02,1015.70,10.00,M,SCT,M,M,M,7000.00,M,M,M,M,M,M,M,M,M,M,41.00,KINS 181433Z AUTO 00000KT 10SM SCT070 05/M05 A3002 RMK AO2 SLP157 $,M
LOL,2022-01-18 14:33,-118.5701,40.0684,1192.43,16.00,15.10,96.16,130.00,4.00,0.00,30.10,M,0.75,M,VV ,M,M,M,200.00,M,M,M,BR,M,M,M,M,M,M,8.74,KLOL 181433Z AUTO 13004KT 3/4SM BR VV002 M09/M09 A3010 RMK AO2 T10891094,M
RTS,2022-01-18 14:35,-119.8764,39.6682,1539.00,26.60,21.20,79.77,70.00,3.00,0.00,30.11,M,10.00,M,CLR,M,M,M,M,M,M,M,M,M,M,M,M,M,M,22.52,KRTS 181435Z AUTO 07003KT 10SM CLR M03/M06 A3011 RMK AO2,M
TMT,2022-01-18 14:35,-117.1971,39.4643,1749.34,20.30,18.50,92.60,0.00,0.00,0.00,30.08,M,10.00,M,SCT,M,M,M,12000.00,M,M,M,M,M,M,M,M,M,M,20.30,KTMT 181435Z AUTO 00000KT 10SM SCT120 M06/M07 A3008 RMK AO2 T10651075,M
BVU,2022-01-18 14:35,-114.8611,35.9475,671.00,42.80,39.20,86.99,0.00,0.00,0.00,30.03,M,10.00,M,OVC,M,M,M,5000.00,M,M,M,-DZ,M,M,M,M,M,M,42.80,KBVU 181435Z AUTO 00000KT 10SM -DZ OVC050 06/04 A3003 RMK AO2,M
MEV,2022-01-18 14:35,-119.7500,38.9963,1441.42,19.40,17.60,92.57,0.00,0.00,0.00,30.11,M,10.00,M,CLR,M,M,M,M,M,M,M,M,M,M,M,M,M,M,19.40,KMEV 181435Z AUTO 00000KT 10SM CLR M07/M08 A3011 RMK AO2,M
BAM,2022-01-18 14:35,-116.8743,40.5990,1382.36,24.80,24.80,100.00,70.00,3.00,0.00,30.09,M,10.00,M,CLR,M,M,M,M,M,M,M,M,M,M,M,M,M,M,20.46,KBAM 181435Z AUTO 07003KT 10SM CLR M04/M04 A3009 RMK AO1,M
HTH,2022-01-18 14:35,-118.6315,38.5448,1282.89,28.40,23.00,79.92,0.00,0.00,0.00,30.10,M,10.00,M,CLR,M,M,M,M,M,M,M,M,M,M,M,M,M,M,28.40,KHTH 181435Z AUTO 00000KT 10SM CLR M02/M05 A3010 RMK A01,M
05U,2022-01-18 14:35,-116.0051,39.6042,1811.23,17.60,14.00,85.51,0.00,0.00,0.00,30.07,M,10.00,M,CLR,M,M,M,M,M,M,M,M,M,M,M,M,M,M,17.60,K05U 181435Z AUTO 00000KT 10SM CLR M08/M10 A3007 RMK A01,M
CXP,2022-01-18 14:35,-119.7326,39.1923,1431.00,23.00,21.20,92.69,M,M,0.00,30.12,M,10.00,M,CLR,M,M,M,M,M,M,M,M,M,M,M,M,M,M,M,KCXP 181435Z AUTO 10SM CLR M05/M06 A3012 RMK AO2,M
LOL,2022-01-18 14:46,-118.5701,40.0684,1192.43,16.00,16.00,100.00,0.00,0.00,0.00,30.10,M,0.25,M,VV ,M,M,M,200.00,M,M,M,FZFG,M,M,M,M,M,M,16.00,KLOL 181446Z AUTO 00000KT 1/4SM FZFG VV002 M09/M09 A3010 RMK AO2 T10891089,M
ELY,2022-01-18 14:53,-114.8453,39.2950,1909.00,19.00,12.90,76.72,180.00,10.00,0.00,30.03,1019.20,10.00,M,CLR,M,M,M,M,M,M,M,M,M,M,M,M,M,M,6.67,KELY 181453Z AUTO 18010KT 10SM CLR M07/M11 A3003 RMK AO2 SLP192 T10721106 51007,M
LOL,2022-01-18 14:53,-118.5701,40.0684,1192.43,17.10,15.10,91.68,0.00,0.00,0.00,30.10,1022.40,0.50,M,VV ,M,M,M,100.00,M,M,M,FZFG,M,T,M,M,M,M,17.10,KLOL 181453Z AUTO 00000KT 1/2SM FZFG VV001 M08/M09 A3010 RMK AO2 SLP224 I3000 T10831094 53010,M
VGT,2022-01-18 14:53,-115.1933,36.2111,667.00,48.00,38.00,67.87,0.00,0.00,0.01,30.03,1018.40,10.00,M,FEW,BKN,OVC,M,7500.00,10000.00,11000.00,M,M,M,M,M,M,M,M,48.00,KVGT 181453Z 00000KT 10SM FEW075 BKN100 OVC110 09/03 A3003 RMK AO2 RAB1354E16 SLP184 P0001 60002 T00890033 53009,M
RNO,2022-01-18 14:55,-119.7711,39.4839,1341.00,26.10,21.90,83.89,0.00,0.00,0.00,30.11,1020.40,10.00,M,FEW,SCT,SCT,M,8000.00,15000.00,20000.00,M,M,M,M,M,M,M,M,26.10,KRNO 181455Z 00000KT 10SM FEW080 SCT150 SCT200 M03/M06 A3011 RMK AO2 SLP204 T10331056 51007 $,M
RTS,2022-01-18 14:55,-119.8764,39.6682,1539.00,26.60,21.20,79.77,0.00,0.00,0.00,30.11,M,10.00,M,CLR,M,M,M,M,M,M,M,M,M,M,M,M,M,M,26.60,KRTS 181455Z AUTO 00000KT 10SM CLR M03/M06 A3011 RMK AO2,M
05U,2022-01-18 14:55,-116.0051,39.6042,1811.23,17.60,14.00,85.51,0.00,0.00,0.00,30.08,M,10.00,M,CLR,M,M,M,M,M,M,M,M,M,M,M,M,M,M,17.60,K05U 181455Z AUTO 00000KT 10SM CLR M08/M10 A3008 RMK A01,M
MEV,2022-01-18 14:55,-119.7500,38.9963,1441.42,19.40,17.60,92.57,50.00,3.00,0.00,30.11,M,10.00,M,CLR,M,M,M,M,M,M,M,M,M,M,M,M,M,M,14.28,KMEV 181455Z AUTO 05003KT 10SM CLR M07/M08 A3011 RMK AO2,M
HTH,2022-01-18 14:55,-118.6315,38.5448,1282.89,28.40,23.00,79.92,0.00,0.00,0.00,30.11,M,10.00,M,CLR,M,M,M,M,M,M,M,M,M,M,M,M,M,M,28.40,KHTH 181455Z AUTO 00000KT 10SM CLR M02/M05 A3011 RMK A01,M
BAM,2022-01-18 14:55,-116.8743,40.5990,1382.36,24.80,24.80,100.00,80.00,3.00,0.00,30.09,M,10.00,M,CLR,M,M,M,M,M,M,M,M,M,M,M,M,M,M,20.46,KBAM 181455Z AUTO 08003KT 10SM CLR M04/M04 A3009 RMK AO1,M
TMT,2022-01-18 14:55,-117.1971,39.4643,1749.34,20.30,18.50,92.60,0.00,0.00,0.00,30.09,M,10.00,M,CLR,M,M,M,M,M,M,M,M,M,M,M,M,M,M,20.30,KTMT 181455Z AUTO 00000KT 10SM CLR M06/M07 A3009 RMK AO2 T10651075,M
CXP,2022-01-18 14:55,-119.7326,39.1923,1431.00,23.00,21.20,92.69,0.00,0.00,0.00,30.12,M,10.00,M,CLR,M,M,M,M,M,M,M,M,M,M,M,M,M,M,23.00,KCXP 181455Z AUTO 00000KT 10SM CLR M05/M06 A3012 RMK AO2,M
BVU,2022-01-18 14:55,-114.8611,35.9475,671.00,44.60,39.20,81.20,0.00,0.00,0.00,30.04,M,10.00,M,OVC,M,M,M,5000.00,M,M,M,M,M,M,M,M,M,M,44.60,KBVU 181455Z AUTO 00000KT 10SM OVC050 07/04 A3004 RMK AO2,M
WMC,2022-01-18 14:56,-117.8072,40.9019,1315.00,23.00,19.90,87.70,0.00,0.00,0.00,30.09,1021.20,10.00,M,CLR,M,M,M,M,M,M,M,M,M,T,M,M,M,M,23.00,KWMC 181456Z AUTO 00000KT 10SM CLR M05/M07 A3009 RMK AO2 SLP212 I3000 T10501067 51006,M
NFL,2022-01-18 14:56,-118.7010,39.4166,1199.00,21.20,17.60,85.74,140.00,4.00,0.00,30.10,1015.80,10.00,M,FEW,FEW,M,M,10000.00,20000.00,M,M,M,M,M,M,M,M,M,14.81,KNFL 181456Z 14004KT 10SM FEW100 FEW200 M06/M08 A3010 RMK SLP158 T106110789 51010,M
HND,2022-01-18 14:56,-115.1344,35.9729,742.79,45.00,42.00,89.49,170.00,4.00,0.06,30.05,1019.30,10.00,M,OVC,M,M,M,5000.00,M,M,M,-RA,M,M,M,M,M,M,42.60,KHND 181456Z 17004KT 10SM -RA OVC050 07/06 A3005 RMK AO2 SLP193 P0006 60007 T00720056 51011,M
LAS,2022-01-18 14:56,-115.1634,36.0719,663.00,46.00,41.00,82.58,0.00,0.00,0.02,30.03,1016.70,10.00,M,BKN,OVC,M,M,6000.00,11000.00,M,M,-RA,M,M,M,M,M,M,46.00,KLAS 181456Z 00000KT 10SM -RA BKN060 OVC110 08/05 A3003 RMK AO2 SLP167 P0002 60004 T00780050 51012,M
TPH,2022-01-18 14:56,-117.0904,38.0505,1654.00,26.10,18.00,71.04,0.00,0.00,0.00,30.05,1019.20,10.00,M,CLR,M,M,M,M,M,M,M,M,M,M,M,M,M,M,26.10,KTPH 181456Z AUTO 00000KT 10SM CLR M03/M08 A3005 RMK AO2 SLP192 T10331078 52004,M
EKO,2022-01-18 14:56,-115.7860,40.8242,1367.00,21.90,18.00,84.68,60.00,4.00,0.00,30.06,1020.90,10.00,M,CLR,M,M,M,M,M,M,M,M,M,T,M,M,M,M,15.63,KEKO 181456Z AUTO 06004KT 10SM CLR M06/M08 A3006 RMK AO2 SLP209 I3000 T10561078 51010,M
INS,2022-01-18 14:58,-115.6733,36.5872,955.00,40.00,24.30,52.91,0.00,0.00,0.00,30.03,1016.20,10.00,M,CLR,M,M,M,M,M,M,M,M,M,M,M,M,M,M,40.10,KINS 181458Z AUTO 00000KT 10SM CLR 05/M04 A3003 RMK AO2 SLP162 T00451043 52007 $,M
LSV,2022-01-18 14:59,-115.0343,36.2362,570.00,45.00,37.00,73.09,240.00,3.00,0.00,30.03,1017.00,10.00,M,BKN,M,M,M,6000.00,M,M,M,M,M,M,M,M,M,M,43.66,KLSV 181459Z 24003KT 10SM BKN060 07/03 A3003 RMK SLP170 T00730028 52013 $,M
LOL,2022-01-18 15:00,-118.5701,40.0684,1192.43,17.10,16.00,95.35,0.00,0.00,0.00,30.10,M,1.00,M,VV ,M,M,M,200.00,M,M,M,BR,M,M,M,M,M,M,17.10,KLOL 181500Z AUTO 00000KT 1SM BR VV002 M08/M09 A3010 RMK AO2 T10831089,M
LOL,2022-01-18 15:07,-118.5701,40.0684,1192.43,18.00,17.10,96.19,40.00,3.00,0.00,30.10,M,3.00,M,OVC,M,M,M,200.00,M,M,M,BR,M,M,M,M,M,M,12.68,KLOL 181507Z AUTO 04003KT 3SM BR OVC002 M08/M08 A3010 RMK AO2 T10781083,M
05U,2022-01-18 15:15,-116.0051,39.6042,1811.23,15.80,12.20,85.40,0.00,0.00,0.00,30.08,M,10.00,M,CLR,M,M,M,M,M,M,M,M,M,M,M,M,M,M,15.80,K05U 181515Z AUTO 00000KT 10SM CLR M09/M11 A3008 RMK A01,M
MEV,2022-01-18 15:15,-119.7500,38.9963,1441.42,19.40,17.60,92.57,0.00,0.00,0.00,30.12,M,10.00,M,CLR,M,M,M,M,M,M,M,M,M,M,M,M,M,M,19.40,KMEV 181515Z AUTO 00000KT 10SM CLR M07/M08 A3012 RMK AO2,M
BAM,2022-01-18 15:15,-116.8743,40.5990,1382.36,23.00,23.00,100.00,0.00,0.00,0.00,30.10,M,10.00,M,CLR,M,M,M,M,M,M,M,M,M,M,M,M,M,M,23.00,KBAM 181515Z AUTO 00000KT 10SM CLR M05/M05 A3010 RMK AO1,M
BVU,2022-01-18 15:15,-114.8611,35.9475,671.00,44.60,39.20,81.20,0.00,0.00,0.00,30.04,M,9.00,M,OVC,M,M,M,5000.00,M,M,M,-RA,M,M,M,M,M,M,44.60,KBVU 181515Z AUTO 00000KT 9SM -RA OVC050 07/04 A3004 RMK AO2,M
RTS,2022-01-18 15:15,-119.8764,39.6682,1539.00,24.80,21.20,85.96,250.00,4.00,0.00,30.11,M,10.00,M,CLR,M,M,M,M,M,M,M,M,M,M,M,M,M,M,19.01,KRTS 181515Z AUTO 25004KT 10SM CLR M04/M06 A3011 RMK AO2,M
HTH,2022-01-18 15:15,-118.6315,38.5448,1282.89,26.60,21.20,79.77,240.00,3.00,0.00,30.11,M,10.00,M,CLR,M,M,M,M,M,M,M,M,M,M,M,M,M,M,22.52,KHTH 181515Z AUTO 24003KT 10SM CLR M03/M06 A3011 RMK A01,M
TMT,2022-01-18 15:15,-117.1971,39.4643,1749.34,20.50,18.70,92.60,0.00,0.00,0.00,30.09,M,10.00,M,CLR,M,M,M,M,M,M,M,M,M,M,M,M,M,M,20.50,KTMT 181515Z AUTO 00000KT 10SM CLR M06/M07 A3009 RMK AO2 T10641074,M
CXP,2022-01-18 15:15,-119.7326,39.1923,1431.00,23.00,19.40,85.85,0.00,0.00,0.00,30.13,M,10.00,M,CLR,M,M,M,M,M,M,M,M,M,M,M,M,M,M,23.00,KCXP 181515Z AUTO 00000KT 10SM CLR M05/M07 A3013 RMK AO2,M
LOL,2022-01-18 15:28,-118.5701,40.0684,1192.43,18.00,16.00,91.72,0.00,0.00,0.00,30.11,M,5.00,M,SCT,M,M,M,200.00,M,M,M,BR,M,M,M,M,M,M,18.00,KLOL 181528Z AUTO 00000KT 5SM BR SCT002 M08/M09 A3011 RMK AO2 T10781089,M
TMT,2022-01-18 15:35,-117.1971,39.4643,1749.34,22.10,19.90,91.09,0.00,0.00,0.00,30.10,M,10.00,M,CLR,M,M,M,M,M,M,M,M,M,M,M,M,M,M,22.10,KTMT 181535Z AUTO 00000KT 10SM CLR M05/M07 A3010 RMK AO2 T10551067,M
BVU,2022-01-18 15:35,-114.8611,35.9475,671.00,44.60,41.00,87.09,0.00,0.00,0.00,30.05,M,7.00,M,OVC,M,M,M,5000.00,M,M,M,-RA,M,M,M,M,M,M,44.60,KBVU 181535Z AUTO 00000KT 7SM -RA OVC050 07/05 A3005 RMK AO2,M
CXP,2022-01-18 15:35,-119.7326,39.1923,1431.00,23.00,21.20,92.69,0.00,0.00,0.00,30.14,M,10.00,M,CLR,M,M,M,M,M,M,M,M,M,M,M,M,M,M,23.00,KCXP 181535Z AUTO 00000KT 10SM CLR M05/M06 A3014 RMK AO2,M
05U,2022-01-18 15:35,-116.0051,39.6042,1811.23,M,M,M,M,M,0.00,M,M,M,M,M,M,M,M,M,M,M,M,M,M,M,M,M,M,M,M,K05U 181535Z AUTO RMK A01 PNO,M
RTS,2022-01-18 15:35,-119.8764,39.6682,1539.00,28.40,21.20,74.08,0.00,0.00,0.00,30.12,M,10.00,M,SCT,M,M,M,12000.00,M,M,M,M,M,M,M,M,M,M,28.40,KRTS 181535Z AUTO 00000KT 10SM SCT120 M02/M06 A3012 RMK AO2,M
MEV,2022-01-18 15:35,-119.7500,38.9963,1441.42,19.40,17.60,92.57,0.00,0.00,0.00,30.13,M,10.00,M,CLR,M,M,M,M,M,M,M,M,M,M,M,M,M,M,19.40,KMEV 181535Z AUTO 00000KT 10SM CLR M07/M08 A3013 RMK AO2,M
BAM,2022-01-18 15:35,-116.8743,40.5990,1382.36,23.00,23.00,100.00,0.00,0.00,0.00,30.11,M,10.00,M,CLR,M,M,M,M,M,M,M,M,M,M,M,M,M,M,23.00,KBAM 181535Z AUTO 00000KT 10SM CLR M05/M05 A3011 RMK AO1,M
HTH,2022-01-18 15:35,-118.6315,38.5448,1282.89,28.40,23.00,79.92,0.00,0.00,0.00,30.12,M,10.00,M,CLR,M,M,M,M,M,M,M,M,M,M,M,M,M,M,28.40,KHTH 181535Z AUTO 00000KT 10SM CLR M02/M05 A3012 RMK A01,M
LOL,2022-01-18 15:48,-118.5701,40.0684,1192.43,19.40,17.60,92.57,0.00,0.00,0.00,30.11,M,5.00,M,BKN,M,M,M,200.00,M,M,M,BR,M,M,M,M,M,M,19.40,KLOL 181548Z AUTO 00000KT 5SM BR BKN002 M07/M08 A3011 RMK AO2,M
LOL,2022-01-18 15:53,-118.5701,40.0684,1192.43,19.90,19.00,96.23,0.00,0.00,0.00,30.12,1022.70,5.00,M,BKN,M,M,M,200.00,M,M,M,BR,M,M,M,M,M,M,19.90,KLOL 181553Z AUTO 00000KT 5SM BR BKN002 M07/M07 A3012 RMK AO2 SLP227 T10671072,M
ELY,2022-01-18 15:53,-114.8453,39.2950,1909.00,19.90,14.00,77.48,180.00,8.00,0.00,30.05,1019.80,10.00,M,CLR,M,M,M,M,M,M,M,M,M,M,M,M,M,M,9.21,KELY 181553Z AUTO 18008KT 10SM CLR M07/M10 A3005 RMK AO2 SLP198 T10671100,M
VGT,2022-01-18 15:53,-115.1933,36.2111,667.00,48.00,40.00,73.38,90.00,3.00,0.00,30.04,1019.00,10.00,M,OVC,M,M,M,9000.00,M,M,M,M,M,M,M,M,M,M,46.98,KVGT 181553Z 09003KT 10SM OVC090 09/04 A3004 RMK AO2 SLP190 T00890044,M
TMT,2022-01-18 15:55,-117.1971,39.4643,1749.34,22.60,20.80,92.67,230.00,3.00,0.00,30.11,M,10.00,M,CLR,M,M,M,M,M,M,M,M,M,M,M,M,M,M,17.94,KTMT 181555Z AUTO 23003KT 10SM CLR M05/M06 A3011 RMK AO2 T10521062,M
RNO,2022-01-18 15:55,-119.7711,39.4839,1341.00,27.00,21.90,80.83,0.00,0.00,0.00,30.13,1021.10,10.00,M,FEW,SCT,SCT,M,8000.00,14000.00,20000.00,M,M,M,M,M,M,M,M,27.00,KRNO 181555Z 00000KT 10SM FEW080 SCT140 SCT200 M03/M06 A3013 RMK AO2 SLP211 T10281056 $,M
CXP,2022-01-18 15:55,-119.7326,39.1923,1431.00,24.80,21.20,85.96,0.00,0.00,0.00,30.13,M,8.00,M,CLR,M,M,M,M,M,M,M,M,M,M,M,M,M,M,24.80,KCXP 181555Z AUTO 00000KT 8SM CLR M04/M06 A3013 RMK AO2,M
BVU,2022-01-18 15:55,-114.8611,35.9475,671.00,44.60,41.00,87.09,0.00,0.00,0.00,30.06,M,10.00,M,OVC,M,M,M,5000.00,M,M,M,M,M,M,M,M,M,M,44.60,KBVU 181555Z AUTO 00000KT 10SM OVC050 07/05 A3006 RMK AO2,M
RTS,2022-01-18 15:55,-119.8764,39.6682,1539.00,28.40,23.00,79.92,0.00,0.00,0.00,30.13,M,10.00,M,SCT,M,M,M,12000.00,M,M,M,M,M,M,M,M,M,M,28.40,KRTS 181555Z AUTO 00000KT 10SM SCT120 M02/M05 A3013 RMK AO2,M
05U,2022-01-18 15:55,-116.0051,39.6042,1811.23,M,M,M,M,M,0.00,M,M,M,M,M,M,M,M,M,M,M,M,M,M,M,M,M,M,M,M,K05U 181555Z AUTO RMK A01 PNO,M
MEV,2022-01-18 15:55,-119.7500,38.9963,1441.42,19.40,17.60,92.57,60.00,3.00,0.00,30.13,M,10.00,M,CLR,M,M,M,M,M,M,M,M,M,M,M,M,M,M,14.28,KMEV 181555Z AUTO 06003KT 10SM CLR M07/M08 A3013 RMK AO2,M
BAM,2022-01-18 15:55,-116.8743,40.5990,1382.36,26.60,26.60,100.00,0.00,0.00,0.00,30.11,M,10.00,M,CLR,M,M,M,M,M,M,M,M,M,M,M,M,M,M,26.60,KBAM 181555Z AUTO 00000KT 10SM CLR M03/M03 A3011 RMK AO1,M
HTH,2022-01-18 15:55,-118.6315,38.5448,1282.89,26.60,23.00,86.07,0.00,0.00,0.00,30.13,M,10.00,M,CLR,M,M,M,M,M,M,M,M,M,M,M,M,M,M,26.60,KHTH 181555Z AUTO 00000KT 10SM CLR M03/M05 A3013 RMK A01,M
NFL,2022-01-18 15:56,-118.7010,39.4166,1199.00,25.00,23.00,91.97,200.00,4.00,0.00,30.11,1016.40,10.00,M,FEW,BKN,M,M,10000.00,22000.00,M,M,M,M,M,M,M,M,M,19.25,KNFL 181556Z 20004KT 10SM FEW100 BKN220 M04/M05 A3011 RMK SLP164 T10391050,M
WMC,2022-01-18 15:56,-117.8072,40.9019,1315.00,24.10,21.00,87.76,0.00,0.00,0.00,30.10,1021.80,10.00,M,CLR,M,M,M,M,M,M,M,M,M,M,M,M,M,M,24.10,KWMC 181556Z AUTO 00000KT 10SM CLR M04/M06 A3010 RMK AO2 SLP218 T10441061,M
LAS,2022-01-18 15:56,-115.1634,36.0719,663.00,47.00,41.00,79.82,0.00,0.00,T,30.04,1017.10,10.00,M,BKN,BKN,OVC,M,6500.00,11000.00,20000.00,M,M,M,M,M,M,M,M,46.90,KLAS 181556Z 00000KT 10SM BKN065 BKN110 OVC200 08/05 A3004 RMK AO2 RAE35 SLP171 P0000 T00830050,M
TPH,2022-01-18 15:56,-117.0904,38.0505,1654.00,28.90,19.00,66.08,30.00,7.00,0.00,30.06,1019.40,10.00,M,CLR,M,M,M,M,M,M,M,M,M,M,M,M,M,M,21.00,KTPH 181556Z AUTO 03007KT 10SM CLR M02/M07 A3006 RMK AO2 SLP194 T10171072,M
HND,2022-01-18 15:56,-115.1344,35.9729,742.79,46.00,43.00,89.20,0.00,0.00,0.02,30.05,1019.50,10.00,M,OVC,M,M,M,6000.00,M,M,M,M,M,M,M,M,M,M,46.00,KHND 181556Z 00000KT 10SM OVC060 08/06 A3005 RMK AO2 RAE56 SLP195 P0002 T00780061,M
EKO,2022-01-18 15:56,-115.7860,40.8242,1367.00,21.90,18.00,84.68,0.00,0.00,0.00,30.08,1021.60,10.00,M,CLR,M,M,M,M,M,M,M,M,M,M,M,M,M,M,21.90,KEKO 181556Z AUTO 00000KT 10SM CLR M06/M08 A3008 RMK AO2 SLP216 T10561078,M
LSV,2022-01-18 15:58,-115.0343,36.2362,570.00,44.00,41.40,90.15,0.00,0.00,0.00,30.05,1017.70,10.00,M,BKN,BKN,M,M,10000.00,13000.00,M,M,M,M,M,M,M,M,M,44.10,KLSV 181558Z AUTO 00000KT 10SM BKN100 BKN130 07/05 A3005 RMK AO2 SLP177 T00670052 $,M
INS,2022-01-18 15:58,-115.6733,36.5872,955.00,41.40,24.60,50.94,0.00,0.00,0.00,30.05,1016.90,10.00,M,BKN,M,M,M,13000.00,M,M,M,M,M,M,M,M,M,M,41.40,KINS 181558Z AUTO 00000KT 10SM BKN130 05/M04 A3005 RMK AO2 SLP169 T00521041 $,M
LAS,2022-01-18 16:09,-115.1634,36.0719,663.00,47.00,41.00,79.82,0.00,0.00,0.00,30.05,M,10.00,M,FEW,BKN,BKN,OVC,500.00,6500.00,11000.00,20000.00,M,M,M,M,M,M,M,46.90,KLAS 181609Z 00000KT 10SM FEW005 BKN065 BKN110 OVC200 08/05 A3005 RMK AO2 FU FEW005 T00830050,M
INS,2022-01-18 16:13,-115.6733,36.5872,955.00,41.00,24.80,52.17,0.00,0.00,0.00,30.05,1016.90,10.00,M,SCT,BKN,M,M,4300.00,13000.00,M,M,M,M,M,M,M,M,M,41.00,KINS 181613Z AUTO 00000KT 10SM SCT043 BKN130 05/M04 A3005 RMK AO2 SLP169 $,M
MEV,2022-01-18 16:15,-119.7500,38.9963,1441.42,24.80,23.00,92.74,0.00,0.00,0.00,30.13,M,10.00,M,CLR,M,M,M,M,M,M,M,M,M,M,M,M,M,M,24.80,KMEV 181615Z AUTO 00000KT 10SM CLR M04/M05 A3013 RMK AO2,M
05U,2022-01-18 16:15,-116.0051,39.6042,1811.23,24.80,17.60,73.70,0.00,0.00,0.00,30.09,M,10.00,M,M,M,M,M,M,M,M,M,M,M,M,M,M,M,M,24.80,K05U 181615Z AUTO 00000KT 10SM M04/M08 A3009 RMK A01,M
RTS,2022-01-18 16:15,-119.8764,39.6682,1539.00,28.40,23.00,79.92,0.00,0.00,0.00,30.14,M,10.00,M,FEW,M,M,M,12000.00,M,M,M,M,M,M,M,M,M,M,28.40,KRTS 181615Z AUTO 00000KT 10SM FEW120 M02/M05 A3014 RMK AO2,M
TMT,2022-01-18 16:15,-117.1971,39.4643,1749.34,24.80,22.60,91.20,200.00,3.00,0.00,30.11,M,10.00,M,CLR,M,M,M,M,M,M,M,M,M,M,M,M,M,M,20.46,KTMT 181615Z AUTO 20003KT 10SM CLR M04/M05 A3011 RMK AO2 T10401052,M
HTH,2022-01-18 16:15,-118.6315,38.5448,1282.89,28.40,24.80,86.18,0.00,0.00,0.00,30.14,M,10.00,M,CLR,M,M,M,M,M,M,M,M,M,M,M,M,M,M,28.40,KHTH 181615Z AUTO 00000KT 10SM CLR M02/M04 A3014 RMK A01,M
BAM,2022-01-18 16:15,-116.8743,40.5990,1382.36,26.60,26.60,100.00,0.00,0.00,0.00,30.12,M,10.00,M,CLR,M,M,M,M,M,M,M,M,M,M,M,M,M,M,26.60,KBAM 181615Z AUTO 00000KT 10SM CLR M03/M03 A3012 RMK AO1,M
BVU,2022-01-18 16:15,-114.8611,35.9475,671.00,42.80,41.00,93.30,0.00,0.00,0.00,30.06,M,6.00,M,FEW,SCT,OVC,M,3200.00,3700.00,5500.00,M,RA,M,M,M,M,M,M,42.80,KBVU 181615Z AUTO 00000KT 6SM RA FEW032 SCT037 OVC055 06/05 A3006 RMK AO2,M
LOL,2022-01-18 16:15,-118.5701,40.0684,1192.43,21.00,19.90,95.43,0.00,0.00,0.00,30.12,M,8.00,M,BKN,BKN,M,M,100.00,12000.00,M,M,M,M,M,M,M,M,M,21.00,KLOL 181615Z AUTO 00000KT 8SM BKN001 BKN120 M06/M07 A3012 RMK AO2 T10611067,M
CXP,2022-01-18 16:15,-119.7326,39.1923,1431.00,26.60,23.00,86.07,0.00,0.00,0.00,30.14,M,9.00,M,CLR,M,M,M,M,M,M,M,M,M,M,M,M,M,M,26.60,KCXP 181615Z AUTO 00000KT 9SM CLR M03/M05 A3014 RMK AO2,M
LOL,2022-01-18 16:23,-118.5701,40.0684,1192.43,21.90,21.00,96.26,0.00,0.00,0.00,30.12,M,10.00,M,SCT,SCT,M,M,100.00,12000.00,M,M,M,M,M,M,M,M,M,21.90,KLOL 181623Z AUTO 00000KT 10SM SCT001 SCT120 M06/M06 A3012 RMK AO2 T10561061,M
CXP,2022-01-18 16:30,-119.7326,39.1923,1431.00,28.40,24.80,86.18,0.00,0.00,0.00,30.14,M,9.00,M,CLR,M,M,M,M,M,M,M,M,M,M,M,M,M,M,28.40,KCXP 181630Z AUTO 00000KT 9SM CLR M02/M04 A3014 RMK AO2,M
05U,2022-01-18 16:35,-116.0051,39.6042,1811.23,28.40,17.60,63.51,0.00,0.00,0.00,30.10,M,10.00,M,CLR,M,M,M,M,M,M,M,M,M,M,M,M,M,M,28.40,K05U 181635Z AUTO 00000KT 10SM CLR M02/M08 A3010 RMK A01,M
BVU,2022-01-18 16:35,-114.8611,35.9475,671.00,44.60,41.00,87.09,0.00,0.00,0.00,30.06,M,6.00,M,FEW,SCT,BKN,M,3200.00,3900.00,4600.00,M,-RA,M,M,M,M,M,M,44.60,KBVU 181635Z AUTO 00000KT 6SM -RA FEW032 SCT039 BKN046 07/05 A3006 RMK AO2,M
RTS,2022-01-18 16:35,-119.8764,39.6682,1539.00,28.40,24.80,86.18,0.00,0.00,0.00,30.14,M,10.00,M,CLR,M,M,M,M,M,M,M,M,M,M,M,M,M,M,28.40,KRTS 181635Z AUTO 00000KT 10SM CLR M02/M04 A3014 RMK AO2,M
MEV,2022-01-18 16:35,-119.7500,38.9963,1441.42,28.40,24.80,86.18,0.00,0.00,0.00,30.13,M,10.00,M,CLR,M,M,M,M,M,M,M,M,M,M,M,M,M,M,28.40,KMEV 181635Z AUTO 00000KT 10SM CLR M02/M04 A3013 RMK AO2,M
TMT,2022-01-18 16:35,-117.1971,39.4643,1749.34,25.70,22.80,88.59,0.00,0.00,0.00,30.11,M,10.00,M,CLR,M,M,M,M,M,M,M,M,M,M,M,M,M,M,25.70,KTMT 181635Z AUTO 00000KT 10SM CLR M03/M05 A3011 RMK AO2 T10351051,M
BAM,2022-01-18 16:35,-116.8743,40.5990,1382.36,28.40,28.40,100.00,0.00,0.00,0.00,30.12,M,10.00,M,CLR,M,M,M,M,M,M,M,M,M,M,M,M,M,M,28.40,KBAM 181635Z AUTO 00000KT 10SM CLR M02/M02 A3012 RMK AO1,M
HTH,2022-01-18 16:35,-118.6315,38.5448,1282.89,32.00,24.80,74.44,0.00,0.00,0.00,30.14,M,10.00,M,CLR,M,M,M,M,M,M,M,M,M,M,M,M,M,M,32.00,KHTH 181635Z AUTO 00000KT 10SM CLR M00/M04 A3014 RMK A01,M
05U,2022-01-18 16:50,-116.0051,39.6042,1811.23,30.20,17.60,59.01,0.00,0.00,0.00,30.10,M,10.00,M,CLR,M,M,M,M,M,M,M,M,M,M,M,M,M,M,30.20,K05U 181650Z AUTO 00000KT 10SM CLR M01/M08 A3010 RMK A01,M
ELY,2022-01-18 16:53,-114.8453,39.2950,1909.00,27.00,18.00,68.45,190.00,6.00,0.00,30.06,1019.20,10.00,M,CLR,M,M,M,M,M,M,M,M,M,M,M,M,M,M,19.51,KELY 181653Z AUTO 19006KT 10SM CLR M03/M08 A3006 RMK AO2 SLP192 T10281078,M
VGT,2022-01-18 16:53,-115.1933,36.2111,667.00,50.00,39.00,65.75,0.00,0.00,0.00,30.05,1019.40,10.00,M,BKN,OVC,M,M,7500.00,10000.00,M,M,M,M,M,M,M,M,M,50.00,KVGT 181653Z 00000KT 10SM BKN075 OVC100 10/04 A3005 RMK AO2 SLP194 T01000039,M
DRA,2022-01-18 16:53,-116.0278,36.6206,1009.00,44.00,28.00,52.86,0.00,0.00,0.00,30.06,1016.70,10.00,M,FEW,BKN,OVC,M,2600.00,9000.00,11000.00,M,M,M,M,M,M,M,M,44.10,KDRA 181653Z AUTO 00000KT 10SM FEW026 BKN090 OVC110 07/M02 A3006 RMK AO2 SLP167 T00671022,M
LOL,2022-01-18 16:53,-118.5701,40.0684,1192.43,24.10,24.10,100.00,0.00,0.00,0.00,30.13,1023.30,10.00,M,CLR,M,M,M,M,M,M,M,M,M,M,M,M,M,M,24.10,KLOL 181653Z AUTO 00000KT 10SM CLR M04/M04 A3013 RMK AO2 SLP233 T10441044,M
HTH,2022-01-18 16:55,-118.6315,38.5448,1282.89,33.80,24.80,69.25,0.00,0.00,0.00,30.14,M,10.00,M,CLR,M,M,M,M,M,M,M,M,M,M,M,M,M,M,33.80,KHTH 181655Z AUTO 00000KT 10SM CLR 01/M04 A3014 RMK A01,M
TMT,2022-01-18 16:55,-117.1971,39.4643,1749.34,26.40,23.70,89.37,0.00,0.00,0.00,30.12,M,10.00,M,CLR,M,M,M,M,M,M,M,M,M,M,M,M,M,M,26.40,KTMT 181655Z AUTO 00000KT 10SM CLR M03/M05 A3012 RMK AO2 T10311046,M
CXP,2022-01-18 16:55,-119.7326,39.1923,1431.00,33.80,26.60,74.63,0.00,0.00,0.00,30.15,M,9.00,M,CLR,M,M,M,M,M,M,M,M,M,M,M,M,M,M,33.80,KCXP 181655Z AUTO 00000KT 9SM CLR 01/M03 A3015 RMK AO2,M
BVU,2022-01-18 16:55,-114.8611,35.9475,671.00,44.60,42.80,93.35,0.00,0.00,0.00,30.06,M,9.00,M,FEW,OVC,M,M,4100.00,6000.00,M,M,-RA,M,M,M,M,M,M,44.60,KBVU 181655Z AUTO 00000KT 9SM -RA FEW041 OVC060 07/06 A3006 RMK AO2,M
RNO,2022-01-18 16:55,-119.7711,39.4839,1341.00,32.00,26.10,78.58,0.00,0.00,0.00,30.14,1021.40,10.00,M,BKN,BKN,M,M,13000.00,24000.00,M,M,M,M,M,M,M,M,M,32.00,KRNO 181655Z 00000KT 10SM BKN130 BKN240 00/M03 A3014 RMK AO2 SLP214 T00001033 $,M
MEV,2022-01-18 16:55,-119.7500,38.9963,1441.42,30.20,26.60,86.28,0.00,0.00,0.00,30.14,M,10.00,M,CLR,M,M,M,M,M,M,M,M,M,M,M,M,M,M,30.20,KMEV 181655Z AUTO 00000KT 10SM CLR M01/M03 A3014 RMK AO2,M
RTS,2022-01-18 16:55,-119.8764,39.6682,1539.00,32.00,24.80,74.44,120.00,3.00,0.00,30.14,M,10.00,M,CLR,M,M,M,M,M,M,M,M,M,M,M,M,M,M,28.69,KRTS 181655Z AUTO 12003KT 10SM CLR M00/M04 A3014 RMK AO2,M
BAM,2022-01-18 16:55,-116.8743,40.5990,1382.36,30.20,30.20,100.00,0.00,0.00,0.00,30.12,M,10.00,M,CLR,M,M,M,M,M,M,M,M,M,M,M,M,M,M,30.20,KBAM 181655Z AUTO 00000KT 10SM CLR M01/M01 A3012 RMK AO1,M
TPH,2022-01-18 16:56,-117.0904,38.0505,1654.00,32.00,19.90,60.55,10.00,8.00,0.00,30.09,1020.10,10.00,M,CLR,M,M,M,M,M,M,M,M,M,M,M,M,M,M,24.11,KTPH 181656Z AUTO 01008KT 10SM CLR 00/M07 A3009 RMK AO2 SLP201 T00001067,M
LAS,2022-01-18 16:56,-115.1634,36.0719,663.00,49.00,42.00,77.26,90.00,5.00,0.00,30.06,1017.60,10.00,M,FEW,SCT,BKN,OVC,500.00,6500.00,9000.00,20000.00,M,M,M,M,M,M,M,46.47,KLAS 181656Z 09005KT 10SM FEW005 SCT065 BKN090 OVC200 09/06 A3006 RMK AO2 SLP176 FU FEW005 T00940056,M
HND,2022-01-18 16:56,-115.1344,35.9729,742.79,46.00,41.00,82.58,110.00,3.00,T,30.07,1020.20,10.00,M,OVC,M,M,M,6500.00,M,M,M,M,M,M,M,M,M,M,44.69,KHND 181656Z 11003KT 10SM OVC065 08/05 A3007 RMK AO2 RAB25E36 SLP202 P0000 T00780050,M
NFL,2022-01-18 16:56,-118.7010,39.4166,1199.00,30.90,27.00,85.26,0.00,0.00,0.00,30.13,1016.70,10.00,M,SCT,SCT,BKN,M,10000.00,15000.00,22000.00,M,M,M,M,M,M,M,M,30.90,KNFL 181656Z 00000KT 10SM SCT100 SCT150 BKN220 M01/M03 A3013 RMK SLP167 T10061028,M
WMC,2022-01-18 16:56,-117.8072,40.9019,1315.00,28.90,28.00,96.38,0.00,0.00,0.00,30.11,1021.70,10.00,M,CLR,M,M,M,M,M,M,M,M,M,M,M,M,M,M,28.90,KWMC 181656Z AUTO 00000KT 10SM CLR M02/M02 A3011 RMK AO2 SLP217 T10171022,M
EKO,2022-01-18 16:56,-115.7860,40.8242,1367.00,26.10,21.00,80.75,0.00,0.00,0.00,30.09,1021.70,10.00,M,CLR,M,M,M,M,M,M,M,M,M,M,M,M,M,M,26.10,KEKO 181656Z AUTO 00000KT 10SM CLR M03/M06 A3009 RMK AO2 SLP217 T10331061,M
LSV,2022-01-18 16:58,-115.0343,36.2362,570.00,48.00,35.60,61.98,0.00,0.00,0.00,30.06,1017.90,10.00,M,FEW,SCT,M,M,9500.00,19000.00,M,M,M,M,M,M,M,M,M,48.00,KLSV 181658Z AUTO 00000KT 10SM FEW095 SCT190 09/02 A3006 RMK AO2 SLP179 T00890020 $,M
BVU,2022-01-18 17:15,-114.8611,35.9475,671.00,44.60,42.80,93.35,0.00,0.00,0.00,30.07,M,10.00,M,BKN,OVC,M,M,6000.00,7500.00,M,M,M,M,M,M,M,M,M,44.60,KBVU 181715Z AUTO 00000KT 10SM BKN060 OVC075 07/06 A3007 RMK AO2,M
BAM,2022-01-18 17:15,-116.8743,40.5990,1382.36,30.20,30.20,100.00,0.00,0.00,0.00,30.13,M,10.00,M,CLR,M,M,M,M,M,M,M,M,M,M,M,M,M,M,30.20,KBAM 181715Z AUTO 00000KT 10SM CLR M01/M01 A3013 RMK AO1,M
TMT,2022-01-18 17:15,-117.1971,39.4643,1749.34,28.60,24.80,85.47,0.00,0.00,0.00,30.12,M,10.00,M,CLR,M,M,M,M,M,M,M,M,M,M,M,M,M,M,28.60,KTMT 181715Z AUTO 00000KT 10SM CLR M02/M04 A3012 RMK AO2 T10191040,M
MEV,2022-01-18 17:15,-119.7500,38.9963,1441.42,33.80,28.40,80.36,0.00,0.00,0.00,30.14,M,10.00,M,CLR,M,M,M,M,M,M,M,M,M,M,M,M,M,M,33.80,KMEV 181715Z AUTO 00000KT 10SM CLR 01/M02 A3014 RMK AO2,M
05U,2022-01-18 17:15,-116.0051,39.6042,1811.23,33.80,17.60,51.04,0.00,0.00,0.00,30.11,M,10.00,M,CLR,M,M,M,M,M,M,M,M,M,M,M,M,M,M,33.80,K05U 181715Z AUTO 00000KT 10SM CLR 01/M08 A3011 RMK A01,M
HTH,2022-01-18 17:15,-118.6315,38.5448,1282.89,35.60,26.60,69.46,0.00,0.00,0.00,30.15,M,10.00,M,CLR,M,M,M,M,M,M,M,M,M,M,M,M,M,M,35.60,KHTH 181715Z AUTO 00000KT 10SM CLR 02/M03 A3015 RMK A01,M
CXP,2022-01-18 17:15,-119.7326,39.1923,1431.00,35.60,26.60,69.46,0.00,0.00,0.00,30.15,M,9.00,M,CLR,M,M,M,M,M,M,M,M,M,M,M,M,M,M,35.60,KCXP 181715Z AUTO 00000KT 9SM CLR 02/M03 A3015 RMK AO2,M
RTS,2022-01-18 17:15,-119.8764,39.6682,1539.00,32.00,26.60,80.22,100.00,3.00,0.00,30.14,M,10.00,M,SCT,M,M,M,12000.00,M,M,M,M,M,M,M,M,M,M,28.69,KRTS 181715Z AUTO 10003KT 10SM SCT120 M00/M03 A3014 RMK AO2,M
INS,2022-01-18 17:28,-115.6733,36.5872,955.00,48.20,30.00,49.12,0.00,0.00,0.00,30.06,1016.80,10.00,M,M,M,M,M,M,M,M,M,M,M,M,M,M,M,M,48.20,KINS 181728Z COR 00000KT 10SM M 09/M01 A3006 RMK SLP168 T00901011 10090 20044 51011 $ COR 1729,M
05U,2022-01-18 17:30,-116.0051,39.6042,1811.23,37.40,19.40,47.80,0.00,0.00,0.00,30.11,M,10.00,M,CLR,M,M,M,M,M,M,M,M,M,M,M,M,M,M,37.40,K05U 181730Z AUTO 00000KT 10SM CLR 03/M07 A3011 RMK A01,M
INS,2022-01-18 17:31,-115.6733,36.5872,955.00,48.20,30.20,49.53,0.00,0.00,0.00,30.06,1016.80,10.00,M,FEW,BKN,M,M,9500.00,12000.00,M,M,M,M,M,M,M,M,M,48.20,KINS 181731Z 00000KT 10SM FEW095 BKN120 09/M01 A3006 RMK SLP168 $,M
TMT,2022-01-18 17:35,-117.1971,39.4643,1749.34,30.00,25.20,82.08,0.00,0.00,0.00,30.12,M,10.00,M,CLR,M,M,M,M,M,M,M,M,M,M,M,M,M,M,30.00,KTMT 181735Z AUTO 00000KT 10SM CLR M01/M04 A3012 RMK AO2 T10111038,M
BVU,2022-01-18 17:35,-114.8611,35.9475,671.00,44.60,42.80,93.35,0.00,0.00,0.00,30.07,M,10.00,M,FEW,OVC,M,M,6500.00,8000.00,M,M,M,M,M,M,M,M,M,44.60,KBVU 181735Z AUTO 00000KT 10SM FEW065 OVC080 07/06 A3007 RMK AO2,M
CXP,2022-01-18 17:35,-119.7326,39.1923,1431.00,39.20,26.60,60.29,0.00,0.00,0.00,30.15,M,10.00,M,SCT,M,M,M,10000.00,M,M,M,M,M,M,M,M,M,M,39.20,KCXP 181735Z AUTO 00000KT 10SM SCT100 04/M03 A3015 RMK AO2,M
MEV,2022-01-18 17:35,-119.7500,38.9963,1441.42,33.80,28.40,80.36,340.00,3.00,0.00,30.14,M,10.00,M,CLR,M,M,M,M,M,M,M,M,M,M,M,M,M,M,30.75,KMEV 181735Z AUTO 34003KT 10SM CLR 01/M02 A3014 RMK AO2,M
BAM,2022-01-18 17:35,-116.8743,40.5990,1382.36,32.00,32.00,100.00,0.00,0.00,0.00,30.13,M,10.00,M,CLR,M,M,M,M,M,M,M,M,M,M,M,M,M,M,32.00,KBAM 181735Z AUTO 00000KT 10SM CLR 00/00 A3013 RMK AO1,M
HTH,2022-01-18 17:35,-118.6315,38.5448,1282.89,35.60,26.60,69.46,0.00,0.00,0.00,30.14,M,10.00,M,CLR,M,M,M,M,M,M,M,M,M,M,M,M,M,M,35.60,KHTH 181735Z AUTO 00000KT 10SM CLR 02/M03 A3014 RMK A01,M
RTS,2022-01-18 17:35,-119.8764,39.6682,1539.00,32.00,26.60,80.22,0.00,0.00,0.00,30.15,M,10.00,M,FEW,M,M,M,12000.00,M,M,M,M,M,M,M,M,M,M,32.00,KRTS 181735Z AUTO 00000KT 10SM FEW120 00/M03 A3015 RMK AO2,M
VGT,2022-01-18 17:53,-115.1933,36.2111,667.00,53.00,35.00,50.28,0.00,0.00,0.00,30.06,1019.60,10.00,M,BKN,M,M,M,7500.00,M,M,M,M,M,M,M,M,M,M,53.10,KVGT 181753Z 00000KT 10SM BKN075 12/02 A3006 RMK AO2 SLP196 60002 T01170017 10117 20083 51012,M
LOL,2022-01-18 17:53,-118.5701,40.0684,1192.43,33.00,30.90,91.51,160.00,4.00,0.00,30.14,1022.70,10.00,M,CLR,M,M,M,M,M,M,M,M,M,M,T,M,M,M,28.70,KLOL 181753Z AUTO 16004KT 10SM CLR 01/M01 A3014 RMK AO2 SLP227 I6000 T00061006 10006 21089 53007,M
DRA,2022-01-18 17:53,-116.0278,36.6206,1009.00,47.00,33.00,58.47,340.00,6.00,T,30.06,1016.50,10.00,M,OVC,M,M,M,10000.00,M,M,M,M,M,M,M,M,M,M,43.48,KDRA 181753Z AUTO 34006KT 10SM OVC100 08/01 A3006 RMK AO2 RAB07E22 SLP165 P0000 60000 T00830006 10083 20033 50010,M
ELY,2022-01-18 17:53,-114.8453,39.2950,1909.00,34.00,21.00,58.56,200.00,4.00,0.00,30.06,1018.20,10.00,M,CLR,M,M,M,M,M,M,M,M,M,M,M,M,M,M,29.76,KELY 181753Z AUTO 20004KT 10SM CLR 01/M06 A3006 RMK AO2 SLP182 T00111061 10011 21083 51008,M
BVU,2022-01-18 17:55,-114.8611,35.9475,671.00,44.60,42.80,93.35,230.00,3.00,0.00,30.08,M,10.00,M,BKN,OVC,M,M,6500.00,8500.00,M,M,M,M,M,M,M,M,M,43.09,KBVU 181755Z AUTO 23003KT 10SM BKN065 OVC085 07/06 A3008 RMK AO2,M
CXP,2022-01-18 17:55,-119.7326,39.1923,1431.00,41.00,26.60,56.22,0.00,0.00,0.00,30.15,M,10.00,M,FEW,FEW,M,M,10000.00,12000.00,M,M,M,M,M,M,M,M,M,41.00,KCXP 181755Z AUTO 00000KT 10SM FEW100 FEW120 05/M03 A3015 RMK AO2,M
RNO,2022-01-18 17:55,-119.7711,39.4839,1341.00,36.00,26.10,66.97,0.00,0.00,0.00,30.15,1021.30,10.00,M,SCT,BKN,M,M,12000.00,24000.00,M,M,M,M,M,M,M,M,M,36.00,KRNO 181755Z 00000KT 10SM SCT120 BKN240 02/M03 A3015 RMK AO2 SLP213 T00221033 10022 21039 51010 $,M
RTS,2022-01-18 17:55,-119.8764,39.6682,1539.00,35.60,26.60,69.46,0.00,0.00,0.00,30.15,M,10.00,M,CLR,M,M,M,M,M,M,M,M,M,M,M,M,M,M,35.60,KRTS 181755Z AUTO 00000KT 10SM CLR 02/M03 A3015 RMK AO2,M
05U,2022-01-18 17:55,-116.0051,39.6042,1811.23,39.20,19.40,44.55,0.00,0.00,0.00,30.12,M,10.00,M,CLR,M,M,M,M,M,M,M,M,M,M,M,M,M,M,39.20,K05U 181755Z AUTO 00000KT 10SM CLR 04/M07 A3012 RMK A01,M
MEV,2022-01-18 17:55,-119.7500,38.9963,1441.42,35.60,28.40,74.80,0.00,0.00,0.00,30.14,M,10.00,M,CLR,M,M,M,M,M,M,M,M,M,M,M,M,M,M,35.60,KMEV 181755Z AUTO 00000KT 10SM CLR 02/M02 A3014 RMK AO2,M
BAM,2022-01-18 17:55,-116.8743,40.5990,1382.36,32.00,32.00,100.00,0.00,0.00,0.00,30.13,M,10.00,M,CLR,M,M,M,M,M,M,M,M,M,M,M,M,M,M,32.00,KBAM 181755Z AUTO 00000KT 10SM CLR 00/00 A3013 RMK AO1,M
HTH,2022-01-18 17:55,-118.6315,38.5448,1282.89,37.40,26.60,64.70,0.00,0.00,0.00,30.14,M,10.00,M,CLR,M,M,M,M,M,M,M,M,M,M,M,M,M,M,37.40,KHTH 181755Z AUTO 00000KT 10SM CLR 03/M03 A3014 RMK A01,M
TMT,2022-01-18 17:55,-117.1971,39.4643,1749.34,31.30,25.70,79.50,0.00,0.00,0.00,30.12,M,10.00,M,CLR,M,M,M,M,M,M,M,M,M,M,M,M,M,M,31.30,KTMT 181755Z AUTO 00000KT 10SM CLR 00/M03 A3012 RMK AO2 T10041035 11003 21070,M
TPH,2022-01-18 17:56,-117.0904,38.0505,1654.00,39.00,23.00,52.30,70.00,4.00,0.00,30.09,1019.30,10.00,M,CLR,M,M,M,M,M,M,M,M,M,M,M,M,M,M,35.59,KTPH 181756Z AUTO 07004KT 10SM CLR 04/M05 A3009 RMK AO2 SLP193 T00391050 10044 21039 50010,M
EKO,2022-01-18 17:56,-115.7860,40.8242,1367.00,30.00,23.00,74.87,0.00,0.00,0.00,30.10,1021.60,10.00,M,CLR,M,M,M,M,M,M,M,M,M,M,T,M,M,M,30.00,KEKO 181756Z AUTO 00000KT 10SM CLR M01/M05 A3010 RMK AO2 SLP216 I6000 T10111050 11006 21067 51010,M
WMC,2022-01-18 17:56,-117.8072,40.9019,1315.00,34.00,30.00,85.11,40.00,3.00,0.00,30.14,1022.30,10.00,M,CLR,M,M,M,M,M,M,M,M,M,M,T,M,M,M,30.97,KWMC 181756Z AUTO 04003KT 10SM CLR 01/M01 A3014 RMK AO2 SLP223 I6000 T00111011 10011 21067 53016,M
HND,2022-01-18 17:56,-115.1344,35.9729,742.79,51.00,40.00,65.38,0.00,0.00,0.00,30.08,1020.30,10.00,M,FEW,M,M,M,8000.00,M,M,M,M,M,M,M,M,M,M,51.10,KHND 181756Z 00000KT 10SM FEW080 11/04 A3008 RMK AO2 SLP203 60009 T01060044 10106 20067 53011,M
LAS,2022-01-18 17:56,-115.1634,36.0719,663.00,49.00,41.00,74.05,0.00,0.00,0.00,30.07,1018.00,10.00,M,FEW,BKN,BKN,M,6500.00,9000.00,20000.00,M,M,M,M,M,M,M,M,48.90,KLAS 181756Z 00000KT 10SM FEW065 BKN090 BKN200 09/05 A3007 RMK AO2 SLP180 60004 T00940050 10100 20078 51012,M
LSV,2022-01-18 17:58,-115.0343,36.2362,570.00,51.30,32.70,48.82,0.00,0.00,0.00,30.07,1018.20,10.00,M,FEW,BKN,M,M,17000.00,20000.00,M,M,M,M,M,M,M,M,M,51.30,KLSV 181758Z 00000KT 10SM FEW170 BKN200 11/00 A3007 RMK AO2A SLP182 6//// T01070004 10107 20064 52010 $,M
INS,2022-01-18 17:58,-115.6733,36.5872,955.00,M,M,M,240.00,9.00,0.00,30.05,M,10.00,M,M,M,M,M,M,M,M,M,M,M,M,M,M,M,M,M,KINS 181758Z AUTO 24009KT 10SM M M A3005 RMK AO2 SLPNO ALSTG ESTMD 10109 20044 $,M
INS,2022-01-18 18:00,-115.6733,36.5872,955.00,48.20,30.20,49.53,229.00,7.00,0.00,30.05,M,10.00,M,FEW,BKN,BKN,M,8000.00,10000.00,12000.00,M,M,M,M,M,M,M,M,44.53,KINS 181800Z 22907KT 10SM FEW080 BKN100 BKN120 09/M01 A3005 RMK SLPNO 10109 20044,M
CXP,2022-01-18 18:10,-119.7326,39.1923,1431.00,39.20,26.60,60.29,0.00,0.00,0.00,30.16,M,10.00,M,SCT,M,M,M,11000.00,M,M,M,M,M,M,M,M,M,M,39.20,KCXP 181810Z AUTO 00000KT 10SM SCT110 04/M03 A3016 RMK AO2,M
05U,2022-01-18 18:10,-116.0051,39.6042,1811.23,37.40,19.40,47.80,0.00,0.00,0.00,30.11,M,10.00,M,CLR,M,M,M,M,M,M,M,M,M,M,M,M,M,M,37.40,K05U 181810Z AUTO 00000KT 10SM CLR 03/M07 A3011 RMK A01,M
RTS,2022-01-18 18:15,-119.8764,39.6682,1539.00,37.40,24.80,60.04,0.00,0.00,0.00,30.15,M,10.00,M,CLR,M,M,M,M,M,M,M,M,M,M,M,M,M,M,37.40,KRTS 181815Z AUTO 00000KT 10SM CLR 03/M04 A3015 RMK AO2,M
BVU,2022-01-18 18:15,-114.8611,35.9475,671.00,44.60,41.00,87.09,0.00,0.00,0.00,30.07,M,10.00,M,FEW,BKN,M,M,7000.00,9500.00,M,M,M,M,M,M,M,M,M,44.60,KBVU 181815Z AUTO 00000KT 10SM FEW070 BKN095 07/05 A3007 RMK AO2,M
MEV,2022-01-18 18:15,-119.7500,38.9963,1441.42,37.40,28.40,69.67,0.00,0.00,0.00,30.15,M,10.00,M,SCT,M,M,M,10000.00,M,M,M,M,M,M,M,M,M,M,37.40,KMEV 181815Z AUTO 00000KT 10SM SCT100 03/M02 A3015 RMK AO2,M
TMT,2022-01-18 18:15,-117.1971,39.4643,1749.34,32.00,25.70,77.28,0.00,0.00,0.00,30.12,M,10.00,M,CLR,M,M,M,M,M,M,M,M,M,M,M,M,M,M,32.00,KTMT 181815Z AUTO 00000KT 10SM CLR 00/M03 A3012 RMK AO2 T00001035,M
BAM,2022-01-18 18:15,-116.8743,40.5990,1382.36,33.80,32.00,93.03,0.00,0.00,0.00,30.14,M,10.00,M,CLR,M,M,M,M,M,M,M,M,M,M,M,M,M,M,33.80,KBAM 181815Z AUTO 00000KT 10SM CLR 01/00 A3014 RMK AO1,M
HTH,2022-01-18 18:15,-118.6315,38.5448,1282.89,39.20,26.60,60.29,0.00,0.00,0.00,30.15,M,10.00,M,CLR,M,M,M,M,M,M,M,M,M,M,M,M,M,M,39.20,KHTH 181815Z AUTO 00000KT 10SM CLR 04/M03 A3015 RMK A01,M
INS,2022-01-18 18:28,-115.6733,36.5872,955.00,53.60,32.00,43.61,290.00,7.00,0.00,30.05,1016.20,10.00,M,BKN,BKN,M,M,7000.00,8500.00,M,M,M,M,M,M,M,M,M,53.60,KINS 181828Z AUTO 29007KT 10SM BKN070 BKN085 12/00 A3005 RMK AO2 SLP162 $,M
BAM,2022-01-18 18:35,-116.8743,40.5990,1382.36,33.80,32.00,93.03,0.00,0.00,0.00,30.14,M,10.00,M,CLR,M,M,M,M,M,M,M,M,M,M,M,M,M,M,33.80,KBAM 181835Z AUTO 00000KT 10SM CLR 01/00 A3014 RMK AO1,M
CXP,2022-01-18 18:35,-119.7326,39.1923,1431.00,41.00,26.60,56.22,0.00,0.00,0.00,30.15,M,10.00,M,SCT,M,M,M,12000.00,M,M,M,M,M,M,M,M,M,M,41.00,KCXP 181835Z AUTO 00000KT 10SM SCT120 05/M03 A3015 RMK AO2,M
RTS,2022-01-18 18:35,-119.8764,39.6682,1539.00,39.20,24.80,55.95,0.00,0.00,0.00,30.15,M,10.00,M,CLR,M,M,M,M,M,M,M,M,M,M,M,M,M,M,39.20,KRTS 181835Z AUTO 00000KT 10SM CLR 04/M04 A3015 RMK AO2,M
05U,2022-01-18 18:35,-116.0051,39.6042,1811.23,37.40,19.40,47.80,0.00,0.00,0.00,30.11,M,10.00,M,CLR,M,M,M,M,M,M,M,M,M,M,M,M,M,M,37.40,K05U 181835Z AUTO 00000KT 10SM CLR 03/M07 A3011 RMK A01,M
MEV,2022-01-18 18:35,-119.7500,38.9963,1441.42,39.20,28.40,64.93,290.00,3.00,0.00,30.14,M,10.00,M,BKN,M,M,M,10000.00,M,M,M,M,M,M,M,M,M,M,36.92,KMEV 181835Z AUTO 29003KT 10SM BKN100 04/M02 A3014 RMK AO2,M
TMT,2022-01-18 18:35,-117.1971,39.4643,1749.34,34.00,26.60,74.03,0.00,0.00,0.00,30.12,M,10.00,M,CLR,M,M,M,M,M,M,M,M,M,M,M,M,M,M,34.00,KTMT 181835Z AUTO 00000KT 10SM CLR 01/M03 A3012 RMK AO2 T00111030,M
HTH,2022-01-18 18:35,-118.6315,38.5448,1282.89,39.20,26.60,60.29,0.00,0.00,0.00,30.15,M,10.00,M,CLR,M,M,M,M,M,M,M,M,M,M,M,M,M,M,39.20,KHTH 181835Z AUTO 00000KT 10SM CLR 04/M03 A3015 RMK A01,M
BVU,2022-01-18 18:35,-114.8611,35.9475,671.00,46.40,42.80,87.19,0.00,0.00,0.00,30.07,M,10.00,M,FEW,M,M,M,10000.00,M,M,M,M,M,M,M,M,M,M,46.40,KBVU 181835Z AUTO 00000KT 10SM FEW100 08/06 A3007 RMK AO2,M
INS,2022-01-18 18:38,-115.6733,36.5872,955.00,53.60,30.20,40.54,260.00,3.00,0.00,30.04,1015.90,10.00,M,BKN,BKN,M,M,7000.00,8500.00,M,M,M,M,M,M,M,M,M,53.60,KINS 181838Z AUTO 26003KT 10SM BKN070 BKN085 12/M01 A3004 RMK AO2 SLP159 $,M
INS,2022-01-18 18:48,-115.6733,36.5872,955.00,55.40,30.20,37.97,310.00,3.00,0.00,30.04,1015.70,10.00,M,BKN,M,M,M,8000.00,M,M,M,M,M,M,M,M,M,M,55.40,KINS 181848Z AUTO 31003KT 10SM BKN080 13/M01 A3004 RMK AO2 SLP157 $,M
ELY,2022-01-18 18:53,-114.8453,39.2950,1909.00,39.00,21.00,48.06,0.00,0.00,0.00,30.05,1017.20,10.00,M,CLR,M,M,M,M,M,M,M,M,M,M,M,M,M,M,39.00,KELY 181853Z AUTO 00000KT 10SM CLR 04/M06 A3005 RMK AO2 SLP172 T00391061,M
LOL,2022-01-18 18:53,-118.5701,40.0684,1192.43,40.00,33.00,76.44,300.00,3.00,0.00,30.14,1022.50,10.00,M,CLR,M,M,M,M,M,M,M,M,M,M,M,M,M,M,37.72,KLOL 181853Z AUTO 30003KT 10SM CLR 04/01 A3014 RMK AO2 SLP225 T00440006,M
VGT,2022-01-18 18:53,-115.1933,36.2111,667.00,53.00,34.00,48.13,110.00,4.00,0.00,30.04,1018.90,10.00,M,BKN,M,M,M,6500.00,M,M,M,M,M,M,M,M,M,M,53.10,KVGT 181853Z 11004KT 10SM BKN065 12/01 A3004 RMK AO2 SLP189 T01170011,M
DRA,2022-01-18 18:53,-116.0278,36.6206,1009.00,52.00,34.00,50.12,0.00,0.00,0.00,30.04,1015.60,10.00,M,CLR,M,M,M,M,M,M,M,M,M,M,M,M,M,M,52.00,KDRA 181853Z AUTO 00000KT 10SM CLR 11/01 A3004 RMK AO2 SLP156 T01110011,M
BVU,2022-01-18 18:55,-114.8611,35.9475,671.00,50.00,46.40,87.37,0.00,0.00,0.00,30.05,M,10.00,M,CLR,M,M,M,M,M,M,M,M,M,M,M,M,M,M,50.00,KBVU 181855Z AUTO 00000KT 10SM CLR 10/08 A3005 RMK AO2,M
HTH,2022-01-18 18:55,-118.6315,38.5448,1282.89,41.00,26.60,56.22,0.00,0.00,0.00,30.15,M,10.00,M,CLR,M,M,M,M,M,M,M,M,M,M,M,M,M,M,41.00,KHTH 181855Z AUTO 00000KT 10SM CLR 05/M03 A3015 RMK A01,M
BAM,2022-01-18 18:55,-116.8743,40.5990,1382.36,35.60,32.00,86.59,0.00,0.00,0.00,30.13,M,10.00,M,CLR,M,M,M,M,M,M,M,M,M,M,M,M,M,M,35.60,KBAM 181855Z AUTO 00000KT 10SM CLR 02/00 A3013 RMK AO1,M
CXP,2022-01-18 18:55,-119.7326,39.1923,1431.00,41.00,26.60,56.22,0.00,0.00,0.00,30.15,M,10.00,M,CLR,M,M,M,M,M,M,M,M,M,M,M,M,M,M,41.00,KCXP 181855Z AUTO 00000KT 10SM CLR 05/M03 A3015 RMK AO2,M
TMT,2022-01-18 18:55,-117.1971,39.4643,1749.34,36.70,26.10,65.14,0.00,0.00,0.00,30.12,M,10.00,M,CLR,M,M,M,M,M,M,M,M,M,M,M,M,M,M,36.70,KTMT 181855Z AUTO 00000KT 10SM CLR 03/M03 A3012 RMK AO2 T00261033,M
MEV,2022-01-18 18:55,-119.7500,38.9963,1441.42,39.20,28.40,64.93,0.00,0.00,0.00,30.14,M,10.00,M,OVC,M,M,M,10000.00,M,M,M,M,M,M,M,M,M,M,39.20,KMEV 181855Z AUTO 00000KT 10SM OVC100 04/M02 A3014 RMK AO2,M
05U,2022-01-18 18:55,-116.0051,39.6042,1811.23,39.20,19.40,44.55,0.00,0.00,0.00,30.11,M,10.00,M,CLR,M,M,M,M,M,M,M,M,M,M,M,M,M,M,39.20,K05U 181855Z AUTO 00000KT 10SM CLR 04/M07 A3011 RMK A01,M
RNO,2022-01-18 18:55,-119.7711,39.4839,1341.00,40.00,28.00,62.15,0.00,0.00,0.00,30.15,1021.30,10.00,M,FEW,BKN,M,M,12000.00,24000.00,M,M,M,M,M,M,M,M,M,39.90,KRNO 181855Z 00000KT 10SM FEW120 BKN240 04/M02 A3015 RMK AO2 SLP213 T00441022 $,M
RTS,2022-01-18 18:55,-119.8764,39.6682,1539.00,42.80,24.80,48.67,0.00,0.00,0.00,30.15,M,10.00,M,CLR,M,M,M,M,M,M,M,M,M,M,M,M,M,M,42.80,KRTS 181855Z AUTO 00000KT 10SM CLR 06/M04 A3015 RMK AO2,M
INS,2022-01-18 18:56,-115.6733,36.5872,955.00,55.40,30.20,37.97,M,4.00,0.00,30.03,1015.30,10.00,M,SCT,BKN,M,M,8000.00,10000.00,M,M,M,M,M,M,M,M,M,55.40,KINS 181856Z VRB04KT 10SM SCT080 BKN100 13/M01 A3003 RMK SLP153 $,M
LAS,2022-01-18 18:56,-115.1634,36.0719,663.00,53.00,42.00,66.13,0.00,0.00,0.00,30.05,1017.10,10.00,M,FEW,SCT,BKN,M,6500.00,9000.00,20000.00,M,M,M,M,M,M,M,M,53.10,KLAS 181856Z 00000KT 10SM FEW065 SCT090 BKN200 12/06 A3005 RMK AO2 SLP171 T01170056,M
EKO,2022-01-18 18:56,-115.7860,40.8242,1367.00,38.00,26.10,62.14,0.00,0.00,0.00,30.09,1020.80,10.00,M,CLR,M,M,M,M,M,M,M,M,M,M,M,M,M,M,37.90,KEKO 181856Z AUTO 00000KT 10SM CLR 03/M03 A3009 RMK AO2 SLP208 T00331033,M
HND,2022-01-18 18:56,-115.1344,35.9729,742.79,52.00,41.00,66.00,0.00,0.00,0.00,30.06,1019.60,10.00,M,FEW,M,M,M,7000.00,M,M,M,M,M,M,M,M,M,M,52.00,KHND 181856Z 00000KT 10SM FEW070 11/05 A3006 RMK AO2 SLP196 T01110050,M
NFL,2022-01-18 18:56,-118.7010,39.4166,1199.00,42.00,28.90,59.22,0.00,0.00,0.00,30.13,1016.80,10.00,M,SCT,SCT,BKN,M,12000.00,15000.00,22000.00,M,M,M,M,M,M,M,M,42.10,KNFL 181856Z 00000KT 10SM SCT120 SCT150 BKN220 06/M02 A3013 RMK AO2 SLP168 T00561017,M
TPH,2022-01-18 18:56,-117.0904,38.0505,1654.00,42.00,24.10,48.56,130.00,4.00,0.00,30.08,1018.70,10.00,M,CLR,M,M,M,M,M,M,M,M,M,M,M,M,M,M,39.21,KTPH 181856Z AUTO 13004KT 10SM CLR 06/M04 A3008 RMK AO2 SLP187 T00561044,M
WMC,2022-01-18 18:56,-117.8072,40.9019,1315.00,38.00,30.90,75.64,0.00,0.00,0.00,30.12,1021.60,10.00,M,CLR,M,M,M,M,M,M,M,M,M,M,M,M,M,M,37.90,KWMC 181856Z AUTO 00000KT 10SM CLR 03/M01 A3012 RMK AO2 SLP216 T00331006,M
INS,2022-01-18 18:58,-115.6733,36.5872,955.00,55.40,30.20,37.97,320.00,4.00,0.00,30.03,1015.30,10.00,M,BKN,M,M,M,8000.00,M,M,M,M,M,M,M,M,M,M,55.40,KINS 181858Z AUTO 32004KT 10SM BKN080 13/M01 A3003 RMK AO2 SLP153 T01301010 $,M
LSV,2022-01-18 18:58,-115.0343,36.2362,570.00,52.70,32.00,45.07,0.00,0.00,0.00,30.05,1017.40,10.00,M,SCT,BKN,M,M,13000.00,20000.00,M,M,M,M,M,M,M,M,M,52.70,KLSV 181858Z 00000KT 10SM SCT130 BKN200 12/00 A3005 RMK AO2A SLP174 T01150000 $,M
INS,2022-01-18 19:03,-115.6733,36.5872,955.00,55.40,30.20,37.97,340.00,4.00,0.00,30.03,1015.30,10.00,M,SCT,M,M,M,8000.00,M,M,M,M,M,M,M,M,M,M,55.40,KINS 181903Z AUTO 34004KT 10SM SCT080 13/M01 A3003 RMK AO2 SLP153 $,M
CXP,2022-01-18 19:10,-119.7326,39.1923,1431.00,44.60,26.60,48.96,M,3.00,0.00,30.15,M,10.00,M,CLR,M,M,M,M,M,M,M,M,M,M,M,M,M,M,43.09,KCXP 181910Z AUTO VRB03KT 10SM CLR 07/M03 A3015 RMK AO2,M
MEV,2022-01-18 19:15,-119.7500,38.9963,1441.42,41.00,28.40,60.54,0.00,0.00,0.00,30.13,M,10.00,M,BKN,M,M,M,10000.00,M,M,M,M,M,M,M,M,M,M,41.00,KMEV 181915Z AUTO 00000KT 10SM BKN100 05/M02 A3013 RMK AO2,M
BAM,2022-01-18 19:15,-116.8743,40.5990,1382.36,37.40,32.00,80.65,0.00,0.00,0.00,30.13,M,10.00,M,CLR,M,M,M,M,M,M,M,M,M,M,M,M,M,M,37.40,KBAM 181915Z AUTO 00000KT 10SM CLR 03/00 A3013 RMK AO1,M
HTH,2022-01-18 19:15,-118.6315,38.5448,1282.89,41.00,26.60,56.22,350.00,3.00,0.00,30.14,M,10.00,M,CLR,M,M,M,M,M,M,M,M,M,M,M,M,M,M,38.98,KHTH 181915Z AUTO 35003KT 10SM CLR 05/M03 A3014 RMK A01,M
RTS,2022-01-18 19:15,-119.8764,39.6682,1539.00,42.80,24.80,48.67,130.00,4.00,0.00,30.14,M,10.00,M,CLR,M,M,M,M,M,M,M,M,M,M,M,M,M,M,40.03,KRTS 181915Z AUTO 13004KT 10SM CLR 06/M04 A3014 RMK AO2,M
TMT,2022-01-18 19:15,-117.1971,39.4643,1749.34,39.40,25.90,58.11,0.00,0.00,0.00,30.11,M,10.00,M,CLR,M,M,M,M,M,M,M,M,M,M,M,M,M,M,39.40,KTMT 181915Z AUTO 00000KT 10SM CLR 04/M03 A3011 RMK AO2 T00411034,M
05U,2022-01-18 19:15,-116.0051,39.6042,1811.23,39.20,19.40,44.55,0.00,0.00,0.00,30.11,M,10.00,M,CLR,M,M,M,M,M,M,M,M,M,M,M,M,M,M,39.20,K05U 181915Z AUTO 00000KT 10SM CLR 04/M07 A3011 RMK A01,M
BVU,2022-01-18 19:15,-114.8611,35.9475,671.00,51.80,46.40,81.74,0.00,0.00,0.00,30.04,M,10.00,M,CLR,M,M,M,M,M,M,M,M,M,M,M,M,M,M,51.80,KBVU 181915Z AUTO 00000KT 10SM CLR 11/08 A3004 RMK AO2,M
RTS,2022-01-18 19:35,-119.8764,39.6682,1539.00,44.60,26.60,48.96,0.00,0.00,0.00,30.14,M,10.00,M,CLR,M,M,M,M,M,M,M,M,M,M,M,M,M,M,44.60,KRTS 181935Z AUTO 00000KT 10SM CLR 07/M03 A3014 RMK AO2,M
CXP,2022-01-18 19:35,-119.7326,39.1923,1431.00,46.40,26.60,45.73,0.00,0.00,0.00,30.13,M,10.00,M,CLR,M,M,M,M,M,M,M,M,M,M,M,M,M,M,46.40,KCXP 181935Z AUTO 00000KT 10SM CLR 08/M03 A3013 RMK AO2,M
05U,2022-01-18 19:35,-116.0051,39.6042,1811.23,41.00,19.40,41.54,0.00,0.00,0.00,30.10,M,10.00,M,CLR,M,M,M,M,M,M,M,M,M,M,M,M,M,M,41.00,K05U 181935Z AUTO 00000KT 10SM CLR 05/M07 A3010 RMK A01,M
MEV,2022-01-18 19:35,-119.7500,38.9963,1441.42,42.80,28.40,56.48,0.00,0.00,0.00,30.12,M,10.00,M,CLR,M,M,M,M,M,M,M,M,M,M,M,M,M,M,42.80,KMEV 181935Z AUTO 00000KT 10SM CLR 06/M02 A3012 RMK AO2,M
HTH,2022-01-18 19:35,-118.6315,38.5448,1282.89,42.80,26.60,52.45,0.00,0.00,0.00,30.13,M,10.00,M,CLR,M,M,M,M,M,M,M,M,M,M,M,M,M,M,42.80,KHTH 181935Z AUTO 00000KT 10SM CLR 06/M03 A3013 RMK A01,M
TMT,2022-01-18 19:35,-117.1971,39.4643,1749.34,40.80,23.20,49.17,0.00,0.00,0.00,30.10,M,10.00,M,CLR,M,M,M,M,M,M,M,M,M,M,M,M,M,M,40.80,KTMT 181935Z AUTO 00000KT 10SM CLR 05/M05 A3010 RMK AO2 T00491049,M
BAM,2022-01-18 19:35,-116.8743,40.5990,1382.36,39.20,32.00,75.16,0.00,0.00,0.00,30.12,M,10.00,M,CLR,M,M,M,M,M,M,M,M,M,M,M,M,M,M,39.20,KBAM 181935Z AUTO 00000KT 10SM CLR 04/00 A3012 RMK AO1,M
BVU,2022-01-18 19:35,-114.8611,35.9475,671.00,51.80,46.40,81.74,0.00,0.00,0.00,30.04,M,10.00,M,CLR,M,M,M,M,M,M,M,M,M,M,M,M,M,M,51.80,KBVU 181935Z AUTO 00000KT 10SM CLR 11/08 A3004 RMK AO2,M
DRA,2022-01-18 19:53,-116.0278,36.6206,1009.00,56.00,39.00,52.94,220.00,7.00,0.00,30.01,1014.40,10.00,M,CLR,M,M,M,M,M,M,M,M,M,M,M,M,M,M,55.90,KDRA 181953Z AUTO 22007KT 10SM CLR 13/04 A3001 RMK AO2 SLP144 T01330039,M
LOL,2022-01-18 19:53,-118.5701,40.0684,1192.43,42.00,32.00,67.17,210.00,4.00,0.00,30.12,1021.90,10.00,M,CLR,M,M,M,M,M,M,M,M,M,M,M,M,M,M,39.21,KLOL 181953Z AUTO 21004KT 10SM CLR 06/00 A3012 RMK AO2 SLP219 T00560000,M
ELY,2022-01-18 19:53,-114.8453,39.2950,1909.00,42.00,18.00,37.49,330.00,3.00,0.00,30.04,1016.50,10.00,M,CLR,M,M,M,M,M,M,M,M,M,M,M,M,M,M,40.23,KELY 181953Z AUTO 33003KT 10SM CLR 06/M08 A3004 RMK AO2 SLP165 T00561078,M
VGT,2022-01-18 19:53,-115.1933,36.2111,667.00,56.00,28.00,34.08,0.00,0.00,0.00,30.02,1017.80,10.00,M,CLR,M,M,M,M,M,M,M,M,M,M,M,M,M,M,55.90,KVGT 181953Z 00000KT 10SM CLR 13/M02 A3002 RMK AO2 SLP178 T01331022,M
HTH,2022-01-18 19:55,-118.6315,38.5448,1282.89,42.80,26.60,52.45,0.00,0.00,0.00,30.12,M,10.00,M,CLR,M,M,M,M,M,M,M,M,M,M,M,M,M,M,42.80,KHTH 181955Z AUTO 00000KT 10SM CLR 06/M03 A3012 RMK A01,M
BAM,2022-01-18 19:55,-116.8743,40.5990,1382.36,41.00,30.20,65.16,0.00,0.00,0.00,30.12,M,10.00,M,CLR,M,M,M,M,M,M,M,M,M,M,M,M,M,M,41.00,KBAM 181955Z AUTO 00000KT 10SM CLR 05/M01 A3012 RMK AO1,M
BVU,2022-01-18 19:55,-114.8611,35.9475,671.00,51.80,48.20,87.47,0.00,0.00,0.00,30.03,M,10.00,M,CLR,M,M,M,M,M,M,M,M,M,M,M,M,M,M,51.80,KBVU 181955Z AUTO 00000KT 10SM CLR 11/09 A3003 RMK AO2,M
CXP,2022-01-18 19:55,-119.7326,39.1923,1431.00,46.40,26.60,45.73,0.00,0.00,0.00,30.13,M,10.00,M,CLR,M,M,M,M,M,M,M,M,M,M,M,M,M,M,46.40,KCXP 181955Z AUTO 00000KT 10SM CLR 08/M03 A3013 RMK AO2,M
RNO,2022-01-18 19:55,-119.7711,39.4839,1341.00,45.00,25.00,45.12,0.00,0.00,0.00,30.13,1020.40,10.00,M,FEW,SCT,M,M,12000.00,24000.00,M,M,M,M,M,M,M,M,M,45.00,KRNO 181955Z 00000KT 10SM FEW120 SCT240 07/M04 A3013 RMK AO2 SLP204 T00721039 $,M
RTS,2022-01-18 19:55,-119.8764,39.6682,1539.00,46.40,24.80,42.44,0.00,0.00,0.00,30.14,M,10.00,M,CLR,M,M,M,M,M,M,M,M,M,M,M,M,M,M,46.40,KRTS 181955Z AUTO 00000KT 10SM CLR 08/M04 A3014 RMK AO2,M
05U,2022-01-18 19:55,-116.0051,39.6042,1811.23,41.00,19.40,41.54,0.00,0.00,0.00,30.10,M,10.00,M,CLR,M,M,M,M,M,M,M,M,M,M,M,M,M,M,41.00,K05U 181955Z AUTO 00000KT 10SM CLR 05/M07 A3010 RMK A01,M
MEV,2022-01-18 19:55,-119.7500,38.9963,1441.42,46.40,28.40,49.24,0.00,0.00,0.00,30.12,M,10.00,M,FEW,M,M,M,12000.00,M,M,M,M,M,M,M,M,M,M,46.40,KMEV 181955Z AUTO 00000KT 10SM FEW120 08/M02 A3012 RMK AO2,M
TMT,2022-01-18 19:55,-117.1971,39.4643,1749.34,42.00,23.70,48.12,0.00,0.00,0.00,30.10,M,10.00,M,CLR,M,M,M,M,M,M,M,M,M,M,M,M,M,M,41.90,KTMT 181955Z AUTO 00000KT 10SM CLR 06/M05 A3010 RMK AO2 T00551046,M
TPH,2022-01-18 19:56,-117.0904,38.0505,1654.00,47.00,23.00,38.62,320.00,14.00,0.00,30.06,1017.40,10.00,M,CLR,M,M,M,M,M,M,M,M,M,M,M,M,M,M,40.37,KTPH 181956Z AUTO 32014KT 10SM CLR 08/M05 A3006 RMK AO2 SLP174 T00831050,M
LAS,2022-01-18 19:56,-115.1634,36.0719,663.00,55.00,42.00,61.69,80.00,4.00,0.00,30.02,1016.10,10.00,M,FEW,SCT,BKN,M,6500.00,9000.00,20000.00,M,M,M,M,M,M,M,M,55.00,KLAS 181956Z 08004KT 10SM FEW065 SCT090 BKN200 13/06 A3002 RMK AO2 SLP161 T01280056,M
HND,2022-01-18 19:56,-115.1344,35.9729,742.79,54.00,44.00,69.09,0.00,0.00,0.00,30.03,1018.50,10.00,M,FEW,M,M,M,7000.00,M,M,M,M,M,M,M,M,M,M,54.00,KHND 181956Z 00000KT 10SM FEW070 12/07 A3003 RMK AO2 SLP185 T01220067,M
EKO,2022-01-18 19:56,-115.7860,40.8242,1367.00,42.00,26.10,52.78,230.00,10.00,0.00,30.07,1019.80,10.00,M,CLR,M,M,M,M,M,M,M,M,M,M,M,M,M,M,35.63,KEKO 181956Z AUTO 23010KT 10SM CLR 06/M03 A3007 RMK AO2 SLP198 T00561033,M
NFL,2022-01-18 19:56,-118.7010,39.4166,1199.00,46.00,28.90,51.03,300.00,3.00,0.00,30.11,1016.40,10.00,M,SCT,BKN,BKN,M,12000.00,15000.00,22000.00,M,M,M,M,M,M,M,M,44.69,KNFL 181956Z 30003KT 10SM SCT120 BKN150 BKN220 08/M02 A3011 RMK AO2 SLP164 T00781017,M
WMC,2022-01-18 19:56,-117.8072,40.9019,1315.00,41.00,30.90,67.03,0.00,0.00,0.00,30.11,1021.00,10.00,M,CLR,M,M,M,M,M,M,M,M,M,M,M,M,M,M,41.00,KWMC 181956Z AUTO 00000KT 10SM CLR 05/M01 A3011 RMK AO2 SLP210 T00501006,M
LSV,2022-01-18 19:58,-115.0343,36.2362,570.00,54.70,36.00,49.15,240.00,3.00,0.00,30.02,1016.20,10.00,M,FEW,SCT,M,M,13000.00,20000.00,M,M,M,M,M,M,M,M,M,54.70,KLSV 181958Z 24003KT 10SM FEW130 SCT200 13/02 A3002 RMK AO2A SLP162 T01260022 $,M
INS,2022-01-18 19:58,-115.6733,36.5872,955.00,57.20,32.50,39.04,0.00,0.00,0.00,30.01,1014.60,10.00,M,CLR,M,M,M,M,M,M,M,M,M,M,M,M,M,M,57.20,KINS 181958Z AUTO 00000KT 10SM CLR 14/00 A3001 RMK AO2 SLP146 T01400003 $,M
05U,2022-01-18 20:15,-116.0051,39.6042,1811.23,41.00,19.40,41.54,0.00,0.00,0.00,30.10,M,10.00,M,CLR,M,M,M,M,M,M,M,M,M,M,M,M,M,M,41.00,K05U 182015Z AUTO 00000KT 10SM CLR 05/M07 A3010 RMK A01,M
BVU,2022-01-18 20:15,-114.8611,35.9475,671.00,53.60,48.20,81.87,0.00,0.00,0.00,30.02,M,10.00,M,CLR,M,M,M,M,M,M,M,M,M,M,M,M,M,M,53.60,KBVU 182015Z AUTO 00000KT 10SM CLR 12/09 A3002 RMK AO2,M
MEV,2022-01-18 20:15,-119.7500,38.9963,1441.42,46.40,28.40,49.24,250.00,4.00,0.00,30.11,M,10.00,M,FEW,M,M,M,12000.00,M,M,M,M,M,M,M,M,M,M,44.24,KMEV 182015Z AUTO 25004KT 10SM FEW120 08/M02 A3011 RMK AO2,M
BAM,2022-01-18 20:15,-116.8743,40.5990,1382.36,41.00,30.20,65.16,0.00,0.00,0.00,30.12,M,10.00,M,CLR,M,M,M,M,M,M,M,M,M,M,M,M,M,M,41.00,KBAM 182015Z AUTO 00000KT 10SM CLR 05/M01 A3012 RMK AO1,M
TMT,2022-01-18 20:15,-117.1971,39.4643,1749.34,43.70,23.50,44.54,0.00,0.00,0.00,30.10,M,10.00,M,SCT,M,M,M,12000.00,M,M,M,M,M,M,M,M,M,M,43.70,KTMT 182015Z AUTO 00000KT 10SM SCT120 07/M05 A3010 RMK AO2 T00651047,M
CXP,2022-01-18 20:15,-119.7326,39.1923,1431.00,46.40,26.60,45.73,0.00,0.00,0.00,30.13,M,10.00,M,CLR,M,M,M,M,M,M,M,M,M,M,M,M,M,M,46.40,KCXP 182015Z AUTO 00000KT 10SM CLR 08/M03 A3013 RMK AO2,M
HTH,2022-01-18 20:15,-118.6315,38.5448,1282.89,44.60,26.60,48.96,0.00,0.00,0.00,30.12,M,10.00,M,CLR,M,M,M,M,M,M,M,M,M,M,M,M,M,M,44.60,KHTH 182015Z AUTO 00000KT 10SM CLR 07/M03 A3012 RMK A01,M
RTS,2022-01-18 20:15,-119.8764,39.6682,1539.00,48.20,24.80,39.66,250.00,3.00,0.00,30.13,M,10.00,M,CLR,M,M,M,M,M,M,M,M,M,M,M,M,M,M,47.21,KRTS 182015Z AUTO 25003KT 10SM CLR 09/M04 A3013 RMK AO2,M
CXP,2022-01-18 20:35,-119.7326,39.1923,1431.00,48.20,26.60,42.73,0.00,0.00,0.00,30.12,M,10.00,M,CLR,M,M,M,M,M,M,M,M,M,M,M,M,M,M,48.20,KCXP 182035Z AUTO 00000KT 10SM CLR 09/M03 A3012 RMK AO2,M
BVU,2022-01-18 20:35,-114.8611,35.9475,671.00,53.60,46.40,76.50,0.00,0.00,0.00,30.02,M,10.00,M,FEW,M,M,M,12000.00,M,M,M,M,M,M,M,M,M,M,53.60,KBVU 182035Z AUTO 00000KT 10SM FEW120 12/08 A3002 RMK AO2,M
RTS,2022-01-18 20:35,-119.8764,39.6682,1539.00,48.20,24.80,39.66,0.00,0.00,0.00,30.12,M,10.00,M,CLR,M,M,M,M,M,M,M,M,M,M,M,M,M,M,48.20,KRTS 182035Z AUTO 00000KT 10SM CLR 09/M04 A3012 RMK AO2,M
05U,2022-01-18 20:35,-116.0051,39.6042,1811.23,42.80,19.40,38.75,0.00,0.00,0.00,30.09,M,9.00,M,CLR,M,M,M,M,M,M,M,M,M,M,M,M,M,M,42.80,K05U 182035Z AUTO 00000KT 9SM CLR 06/M07 A3009 RMK A01,M
MEV,2022-01-18 20:35,-119.7500,38.9963,1441.42,48.20,28.40,46.02,0.00,0.00,0.00,30.11,M,10.00,M,CLR,M,M,M,M,M,M,M,M,M,M,M,M,M,M,48.20,KMEV 182035Z AUTO 00000KT 10SM CLR 09/M02 A3011 RMK AO2,M
TMT,2022-01-18 20:35,-117.1971,39.4643,1749.34,43.20,24.60,47.53,0.00,0.00,0.00,30.09,M,10.00,M,CLR,M,M,M,M,M,M,M,M,M,M,M,M,M,M,43.20,KTMT 182035Z AUTO 00000KT 10SM CLR 06/M04 A3009 RMK AO2 T00621041,M
BAM,2022-01-18 20:35,-116.8743,40.5990,1382.36,42.80,30.20,60.79,0.00,0.00,0.00,30.12,M,10.00,M,CLR,M,M,M,M,M,M,M,M,M,M,M,M,M,M,42.80,KBAM 182035Z AUTO 00000KT 10SM CLR 06/M01 A3012 RMK AO1,M
HTH,2022-01-18 20:35,-118.6315,38.5448,1282.89,46.40,26.60,45.73,0.00,0.00,0.00,30.11,M,10.00,M,CLR,M,M,M,M,M,M,M,M,M,M,M,M,M,M,46.40,KHTH 182035Z AUTO 00000KT 10SM CLR 08/M03 A3011 RMK A01,M
DRA,2022-01-18 20:53,-116.0278,36.6206,1009.00,57.00,36.00,45.22,200.00,8.00,0.00,29.99,1013.60,10.00,M,CLR,M,M,M,M,M,M,M,M,M,M,M,M,M,M,57.00,KDRA 182053Z AUTO 20008KT 10SM CLR 14/02 A2999 RMK AO2 SLP136 T01390022 58019,M
ELY,2022-01-18 20:53,-114.8453,39.2950,1909.00,43.00,19.90,39.29,M,3.00,0.00,30.02,1016.10,10.00,M,CLR,M,M,M,M,M,M,M,M,M,M,M,M,M,M,41.26,KELY 182053Z AUTO VRB03KT 10SM CLR 06/M07 A3002 RMK AO2 SLP161 T00611067 56010,M
VGT,2022-01-18 20:53,-115.1933,36.2111,667.00,58.00,30.90,35.69,110.00,3.00,0.00,30.00,1017.30,10.00,M,CLR,M,M,M,M,M,M,M,M,M,M,M,M,M,M,57.90,KVGT 182053Z 11003KT 10SM CLR 14/M01 A3000 RMK AO2 SLP173 T01441006 56020,M
LOL,2022-01-18 20:53,-118.5701,40.0684,1192.43,46.00,33.00,60.49,M,6.00,0.00,30.11,1021.30,10.00,M,CLR,M,M,M,M,M,M,M,M,M,M,M,M,M,M,42.39,KLOL 182053Z AUTO VRB06KT 10SM CLR 08/01 A3011 RMK AO2 SLP213 T00780006 58009,M
CXP,2022-01-18 20:55,-119.7326,39.1923,1431.00,51.80,24.80,34.69,0.00,0.00,0.00,30.12,M,10.00,M,CLR,M,M,M,M,M,M,M,M,M,M,M,M,M,M,51.80,KCXP 182055Z AUTO 00000KT 10SM CLR 11/M04 A3012 RMK AO2,M
BVU,2022-01-18 20:55,-114.8611,35.9475,671.00,55.40,46.40,71.64,0.00,0.00,0.00,30.01,M,10.00,M,CLR,M,M,M,M,M,M,M,M,M,M,M,M,M,M,55.40,KBVU 182055Z AUTO 00000KT 10SM CLR 13/08 A3001 RMK AO2,M
RNO,2022-01-18 20:55,-119.7711,39.4839,1341.00,51.00,26.10,37.57,0.00,0.00,0.00,30.11,1019.30,10.00,M,FEW,FEW,M,M,12000.00,24000.00,M,M,M,M,M,M,M,M,M,51.10,KRNO 182055Z 00000KT 10SM FEW120 FEW240 11/M03 A3011 RMK AO2 SLP193 T01061033 58011 $,M
LSV,2022-01-18 20:55,-115.0343,36.2362,570.00,55.40,42.80,62.46,0.00,0.00,0.00,30.00,1015.50,10.00,M,SCT,M,M,M,20000.00,M,M,M,M,M,M,M,M,M,M,55.40,KLSV 182055Z 00000KT 10SM SCT200 13/06 A3000 RMK SLP155 57021,M
RTS,2022-01-18 20:55,-119.8764,39.6682,1539.00,50.00,23.00,34.39,0.00,0.00,0.00,30.11,M,10.00,M,CLR,M,M,M,M,M,M,M,M,M,M,M,M,M,M,50.00,KRTS 182055Z AUTO 00000KT 10SM CLR 10/M05 A3011 RMK AO2,M
05U,2022-01-18 20:55,-116.0051,39.6042,1811.23,42.80,17.60,35.87,0.00,0.00,0.00,30.09,M,10.00,M,CLR,M,M,M,M,M,M,M,M,M,M,M,M,M,M,42.80,K05U 182055Z AUTO 00000KT 10SM CLR 06/M08 A3009 RMK A01,M
MEV,2022-01-18 20:55,-119.7500,38.9963,1441.42,48.20,28.40,46.02,0.00,0.00,0.00,30.11,M,10.00,M,CLR,M,M,M,M,M,M,M,M,M,M,M,M,M,M,48.20,KMEV 182055Z AUTO 00000KT 10SM CLR 09/M02 A3011 RMK AO2,M
BAM,2022-01-18 20:55,-116.8743,40.5990,1382.36,42.80,30.20,60.79,0.00,0.00,0.00,30.11,M,10.00,M,CLR,M,M,M,M,M,M,M,M,M,M,M,M,M,M,42.80,KBAM 182055Z AUTO 00000KT 10SM CLR 06/M01 A3011 RMK AO1,M
HTH,2022-01-18 20:55,-118.6315,38.5448,1282.89,46.40,24.80,42.44,340.00,4.00,0.00,30.11,M,10.00,M,CLR,M,M,M,M,M,M,M,M,M,M,M,M,M,M,44.24,KHTH 182055Z AUTO 34004KT 10SM CLR 08/M04 A3011 RMK A01,M
LAS,2022-01-18 20:56,-115.1634,36.0719,663.00,57.00,43.00,59.40,M,4.00,0.00,30.00,1015.10,10.00,M,FEW,FEW,BKN,M,6500.00,12000.00,20000.00,M,M,M,M,M,M,M,M,57.00,KLAS 182056Z VRB04KT 10SM FEW065 FEW120 BKN200 14/06 A3000 RMK AO2 SLP151 T01390061 58023,M
NFL,2022-01-18 20:56,-118.7010,39.4166,1199.00,47.00,27.00,45.62,0.00,0.00,0.00,30.11,1016.20,10.00,M,SCT,BKN,BKN,M,12000.00,15000.00,22000.00,M,M,M,M,M,M,M,M,46.90,KNFL 182056Z 00000KT 10SM SCT120 BKN150 BKN220 08/M03 A3011 RMK AO2 SLP162 T00831028 56008,M
TPH,2022-01-18 20:56,-117.0904,38.0505,1654.00,49.00,23.00,35.83,310.00,17.00,0.00,30.05,1016.80,10.00,23.00,CLR,M,M,M,M,M,M,M,M,M,M,M,M,M,M,42.22,KTPH 182056Z AUTO 31017G23KT 10SM CLR 09/M05 A3005 RMK AO2 SLP168 T00941050 56012,M
EKO,2022-01-18 20:56,-115.7860,40.8242,1367.00,42.00,25.00,50.42,220.00,10.00,0.00,30.07,1019.50,10.00,M,CLR,M,M,M,M,M,M,M,M,M,M,M,M,M,M,35.63,KEKO 182056Z AUTO 22010KT 10SM CLR 06/M04 A3007 RMK AO2 SLP195 T00561039 56008,M
HND,2022-01-18 20:56,-115.1344,35.9729,742.79,57.00,44.00,61.95,0.00,0.00,0.00,30.02,1017.90,10.00,M,BKN,M,M,M,7000.00,M,M,M,M,M,M,M,M,M,M,57.00,KHND 182056Z 00000KT 10SM BKN070 14/07 A3002 RMK AO2 SLP179 T01390067 56020,M
WMC,2022-01-18 20:56,-117.8072,40.9019,1315.00,45.00,32.00,60.11,0.00,0.00,0.00,30.10,1020.20,10.00,M,CLR,M,M,M,M,M,M,M,M,M,M,M,M,M,M,45.00,KWMC 182056Z AUTO 00000KT 10SM CLR 07/00 A3010 RMK AO2 SLP202 T00720000 56012,M
INS,2022-01-18 20:58,-115.6733,36.5872,955.00,59.40,33.80,38.01,360.00,4.00,0.00,29.99,1013.70,10.00,M,CLR,M,M,M,M,M,M,M,M,M,M,M,M,M,M,59.40,KINS 182058Z AUTO 36004KT 10SM CLR 15/01 A2999 RMK AO2 SLP137 T01520010 57018 $,M
05U,2022-01-18 21:10,-116.0051,39.6042,1811.23,44.60,17.60,33.49,0.00,0.00,0.00,30.09,M,10.00,M,CLR,M,M,M,M,M,M,M,M,M,M,M,M,M,M,44.60,K05U 182110Z AUTO 00000KT 10SM CLR 07/M08 A3009 RMK A01,M
TMT,2022-01-18 21:15,-117.1971,39.4643,1749.34,43.70,21.70,41.29,0.00,0.00,0.00,30.09,M,10.00,M,CLR,M,M,M,M,M,M,M,M,M,M,M,M,M,M,43.70,KTMT 182115Z AUTO 00000KT 10SM CLR 07/M06 A3009 RMK AO2 T00651057,M
HTH,2022-01-18 21:15,-118.6315,38.5448,1282.89,46.40,24.80,42.44,0.00,0.00,0.00,30.11,M,10.00,M,CLR,M,M,M,M,M,M,M,M,M,M,M,M,M,M,46.40,KHTH 182115Z AUTO 00000KT 10SM CLR 08/M04 A3011 RMK A01,M
BVU,2022-01-18 21:15,-114.8611,35.9475,671.00,55.40,44.60,66.91,0.00,0.00,0.00,30.01,M,10.00,M,CLR,M,M,M,M,M,M,M,M,M,M,M,M,M,M,55.40,KBVU 182115Z AUTO 00000KT 10SM CLR 13/07 A3001 RMK AO2,M
CXP,2022-01-18 21:15,-119.7326,39.1923,1431.00,51.80,24.80,34.69,250.00,3.00,0.00,30.11,M,10.00,M,CLR,M,M,M,M,M,M,M,M,M,M,M,M,M,M,51.80,KCXP 182115Z AUTO 25003KT 10SM CLR 11/M04 A3011 RMK AO2,M
RTS,2022-01-18 21:15,-119.8764,39.6682,1539.00,50.00,24.80,37.08,220.00,7.00,0.00,30.11,M,10.00,M,CLR,M,M,M,M,M,M,M,M,M,M,M,M,M,M,50.00,KRTS 182115Z AUTO 22007KT 10SM CLR 10/M04 A3011 RMK AO2,M
BAM,2022-01-18 21:15,-116.8743,40.5990,1382.36,44.60,30.20,56.74,0.00,0.00,0.00,30.11,M,10.00,M,CLR,M,M,M,M,M,M,M,M,M,M,M,M,M,M,44.60,KBAM 182115Z AUTO 00000KT 10SM CLR 07/M01 A3011 RMK AO1,M
MEV,2022-01-18 21:15,-119.7500,38.9963,1441.42,48.20,28.40,46.02,0.00,0.00,0.00,30.10,M,10.00,M,CLR,M,M,M,M,M,M,M,M,M,M,M,M,M,M,48.20,KMEV 182115Z AUTO 00000KT 10SM CLR 09/M02 A3010 RMK AO2,M
05U,2022-01-18 21:30,-116.0051,39.6042,1811.23,42.80,19.40,38.75,0.00,0.00,0.00,30.09,M,10.00,M,CLR,M,M,M,M,M,M,M,M,M,M,M,M,M,M,42.80,K05U 182130Z AUTO 00000KT 10SM CLR 06/M07 A3009 RMK A01,M
BAM,2022-01-18 21:35,-116.8743,40.5990,1382.36,44.60,32.00,61.03,0.00,0.00,0.00,30.10,M,10.00,M,CLR,M,M,M,M,M,M,M,M,M,M,M,M,M,M,44.60,KBAM 182135Z AUTO 00000KT 10SM CLR 07/00 A3010 RMK AO1,M
TMT,2022-01-18 21:35,-117.1971,39.4643,1749.34,44.00,22.50,42.38,0.00,0.00,0.00,30.09,M,10.00,M,CLR,M,M,M,M,M,M,M,M,M,M,M,M,M,M,43.90,KTMT 182135Z AUTO 00000KT 10SM CLR 07/M05 A3009 RMK AO2 T00661053,M
BVU,2022-01-18 21:35,-114.8611,35.9475,671.00,57.20,44.60,62.69,0.00,0.00,0.00,30.00,M,10.00,M,SCT,M,M,M,11000.00,M,M,M,M,M,M,M,M,M,M,57.20,KBVU 182135Z AUTO 00000KT 10SM SCT110 14/07 A3000 RMK AO2,M
CXP,2022-01-18 21:35,-119.7326,39.1923,1431.00,53.60,23.00,30.11,M,3.00,0.00,30.10,M,10.00,M,CLR,M,M,M,M,M,M,M,M,M,M,M,M,M,M,53.60,KCXP 182135Z AUTO VRB03KT 10SM CLR 12/M05 A3010 RMK AO2,M
RTS,2022-01-18 21:35,-119.8764,39.6682,1539.00,50.00,24.80,37.08,230.00,6.00,0.00,30.10,M,10.00,M,CLR,M,M,M,M,M,M,M,M,M,M,M,M,M,M,50.00,KRTS 182135Z AUTO 23006KT 10SM CLR 10/M04 A3010 RMK AO2,M
HTH,2022-01-18 21:35,-118.6315,38.5448,1282.89,46.40,26.60,45.73,M,4.00,0.00,30.10,M,10.00,M,FEW,M,M,M,11000.00,M,M,M,M,M,M,M,M,M,M,44.24,KHTH 182135Z AUTO VRB04KT 10SM FEW110 08/M03 A3010 RMK A01,M
MEV,2022-01-18 21:35,-119.7500,38.9963,1441.42,50.00,26.60,39.95,300.00,4.00,0.00,30.10,M,10.00,M,CLR,M,M,M,M,M,M,M,M,M,M,M,M,M,M,50.00,KMEV 182135Z AUTO 30004KT 10SM CLR 10/M03 A3010 RMK AO2,M
05U,2022-01-18 21:50,-116.0051,39.6042,1811.23,44.60,19.40,36.18,0.00,0.00,0.00,30.09,M,10.00,M,CLR,M,M,M,M,M,M,M,M,M,M,M,M,M,M,44.60,K05U 182150Z AUTO 00000KT 10SM CLR 07/M07 A3009 RMK A01,M
LOL,2022-01-18 21:53,-118.5701,40.0684,1192.43,48.00,32.00,53.67,190.00,7.00,0.00,30.08,1020.00,10.00,M,CLR,M,M,M,M,M,M,M,M,M,M,M,M,M,M,44.28,KLOL 182153Z AUTO 19007KT 10SM CLR 09/00 A3008 RMK AO2 SLP200 T00890000,M
DRA,2022-01-18 21:53,-116.0278,36.6206,1009.00,58.00,30.90,35.69,220.00,9.00,0.00,29.98,1013.30,10.00,M,CLR,M,M,M,M,M,M,M,M,M,M,M,M,M,M,57.90,KDRA 182153Z AUTO 22009KT 10SM CLR 14/M01 A2998 RMK AO2 SLP133 T01441006,M
VGT,2022-01-18 21:53,-115.1933,36.2111,667.00,59.00,36.00,42.08,110.00,4.00,0.00,29.99,1016.80,10.00,M,CLR,M,M,M,M,M,M,M,M,M,M,M,M,M,M,59.00,KVGT 182153Z 11004KT 10SM CLR 15/02 A2999 RMK AO2 SLP168 T01500022,M
ELY,2022-01-18 21:53,-114.8453,39.2950,1909.00,43.00,19.00,37.81,M,4.00,0.00,30.02,1015.90,10.00,M,CLR,M,M,M,M,M,M,M,M,M,M,M,M,M,M,40.27,KELY 182153Z AUTO VRB04KT 10SM CLR 06/M07 A3002 RMK AO2 SLP159 T00611072,M
CXP,2022-01-18 21:55,-119.7326,39.1923,1431.00,53.60,23.00,30.11,200.00,5.00,0.00,30.10,M,10.00,M,CLR,M,M,M,M,M,M,M,M,M,M,M,M,M,M,53.60,KCXP 182155Z AUTO 20005KT 10SM CLR 12/M05 A3010 RMK AO2,M
BAM,2022-01-18 21:55,-116.8743,40.5990,1382.36,44.60,32.00,61.03,260.00,3.00,0.00,30.10,M,10.00,M,CLR,M,M,M,M,M,M,M,M,M,M,M,M,M,M,43.09,KBAM 182155Z AUTO 26003KT 10SM CLR 07/00 A3010 RMK AO1,M
HTH,2022-01-18 21:55,-118.6315,38.5448,1282.89,48.20,26.60,42.73,M,4.00,0.00,30.10,M,10.00,M,FEW,M,M,M,11000.00,M,M,M,M,M,M,M,M,M,M,46.34,KHTH 182155Z AUTO VRB04KT 10SM FEW110 09/M03 A3010 RMK A01,M
BVU,2022-01-18 21:55,-114.8611,35.9475,671.00,57.20,44.60,62.69,0.00,0.00,0.00,30.00,M,10.00,M,FEW,M,M,M,11000.00,M,M,M,M,M,M,M,M,M,M,57.20,KBVU 182155Z AUTO 00000KT 10SM FEW110 14/07 A3000 RMK AO2,M
TMT,2022-01-18 21:55,-117.1971,39.4643,1749.34,44.20,22.50,41.90,0.00,0.00,0.00,30.09,M,10.00,M,CLR,M,M,M,M,M,M,M,M,M,M,M,M,M,M,44.20,KTMT 182155Z AUTO 00000KT 10SM CLR 07/M05 A3009 RMK AO2 T00681053,M
LSV,2022-01-18 21:55,-115.0343,36.2362,570.00,57.20,42.80,58.52,0.00,0.00,0.00,29.99,1015.40,10.00,M,SCT,M,M,M,20000.00,M,M,M,M,M,M,M,M,M,M,57.20,KLSV 182155Z 00000KT 10SM SCT200 14/06 A2999 RMK SLP154 WND DATA ESTMD ALSTG/SLP ESTMD $,M
RNO,2022-01-18 21:55,-119.7711,39.4839,1341.00,53.00,26.10,34.90,0.00,0.00,0.00,30.09,1018.30,10.00,M,BKN,BKN,M,M,16000.00,25000.00,M,M,M,M,M,M,M,M,M,53.10,KRNO 182155Z 00000KT 10SM BKN160 BKN250 12/M03 A3009 RMK AO2 SLP183 T01171033 $,M
RTS,2022-01-18 21:55,-119.8764,39.6682,1539.00,51.80,23.00,32.17,240.00,8.00,0.00,30.10,M,10.00,M,CLR,M,M,M,M,M,M,M,M,M,M,M,M,M,M,51.80,KRTS 182155Z AUTO 24008KT 10SM CLR 11/M05 A3010 RMK AO2,M
MEV,2022-01-18 21:55,-119.7500,38.9963,1441.42,51.80,24.80,34.69,330.00,4.00,0.00,30.09,M,10.00,M,CLR,M,M,M,M,M,M,M,M,M,M,M,M,M,M,51.80,KMEV 182155Z AUTO 33004KT 10SM CLR 11/M04 A3009 RMK AO2,M
EKO,2022-01-18 21:56,-115.7860,40.8242,1367.00,43.00,25.00,48.70,220.00,7.00,0.00,30.06,1019.10,10.00,M,CLR,M,M,M,M,M,M,M,M,M,M,M,M,M,M,38.19,KEKO 182156Z AUTO 22007KT 10SM CLR 06/M04 A3006 RMK AO2 SLP191 T00611039,M
WMC,2022-01-18 21:56,-117.8072,40.9019,1315.00,46.00,30.90,55.36,230.00,3.00,0.00,30.08,1019.60,10.00,M,CLR,M,M,M,M,M,M,M,M,M,M,M,M,M,M,44.69,KWMC 182156Z AUTO 23003KT 10SM CLR 08/M01 A3008 RMK AO2 SLP196 T00781006,M
TPH,2022-01-18 21:56,-117.0904,38.0505,1654.00,48.00,21.90,35.38,320.00,18.00,0.00,30.04,1016.50,10.00,M,CLR,M,M,M,M,M,M,M,M,M,M,M,M,M,M,40.81,KTPH 182156Z AUTO 32018KT 10SM CLR 09/M06 A3004 RMK AO2 SLP165 T00891056,M
NFL,2022-01-18 21:56,-118.7010,39.4166,1199.00,49.00,28.90,45.75,0.00,0.00,0.00,30.09,1015.70,10.00,M,SCT,BKN,BKN,M,12000.00,15000.00,22000.00,M,M,M,M,M,M,M,M,48.90,KNFL 182156Z 00000KT 10SM SCT120 BKN150 BKN220 09/M02 A3009 RMK AO2 SLP157 T00941017,M
HND,2022-01-18 21:56,-115.1344,35.9729,742.79,58.00,42.00,55.55,50.00,5.00,0.00,30.00,1017.30,10.00,M,OVC,M,M,M,10000.00,M,M,M,M,M,M,M,M,M,M,57.90,KHND 182156Z 05005KT 10SM OVC100 14/06 A3000 RMK AO2 SLP173 T01440056,M
LAS,2022-01-18 21:56,-115.1634,36.0719,663.00,57.00,42.00,57.38,80.00,4.00,0.00,29.99,1014.80,10.00,M,FEW,FEW,BKN,M,6500.00,12000.00,20000.00,M,M,M,M,M,M,M,M,57.00,KLAS 182156Z 08004KT 10SM FEW065 FEW120 BKN200 14/06 A2999 RMK AO2 SLP148 T01390056,M
INS,2022-01-18 21:58,-115.6733,36.5872,955.00,60.60,31.30,32.93,280.00,6.00,0.00,29.98,1013.40,10.00,M,CLR,M,M,M,M,M,M,M,M,M,M,M,M,M,M,60.60,KINS 182158Z 28006KT 10SM CLR 16/M00 A2998 RMK AO2A SLP134 T01591004 $,M
05U,2022-01-18 22:10,-116.0051,39.6042,1811.23,42.80,19.40,38.75,0.00,0.00,0.00,30.09,M,10.00,M,CLR,M,M,M,M,M,M,M,M,M,M,M,M,M,M,42.80,K05U 182210Z AUTO 00000KT 10SM CLR 06/M07 A3009 RMK A01,M
CXP,2022-01-18 22:15,-119.7326,39.1923,1431.00,53.60,23.00,30.11,0.00,0.00,0.00,30.09,M,10.00,M,CLR,M,M,M,M,M,M,M,M,M,M,M,M,M,M,53.60,KCXP 182215Z AUTO 00000KT 10SM CLR 12/M05 A3009 RMK AO2,M
RTS,2022-01-18 22:15,-119.8764,39.6682,1539.00,50.00,23.00,34.39,250.00,7.00,0.00,30.10,M,10.00,M,CLR,M,M,M,M,M,M,M,M,M,M,M,M,M,M,50.00,KRTS 182215Z AUTO 25007KT 10SM CLR 10/M05 A3010 RMK AO2,M
MEV,2022-01-18 22:15,-119.7500,38.9963,1441.42,51.80,24.80,34.69,0.00,0.00,0.00,30.09,M,10.00,M,CLR,M,M,M,M,M,M,M,M,M,M,M,M,M,M,51.80,KMEV 182215Z AUTO 00000KT 10SM CLR 11/M04 A3009 RMK AO2,M
TMT,2022-01-18 22:15,-117.1971,39.4643,1749.34,44.00,22.30,41.70,0.00,0.00,0.00,30.09,M,10.00,M,CLR,M,M,M,M,M,M,M,M,M,M,M,M,M,M,44.10,KTMT 182215Z AUTO 00000KT 10SM CLR 07/M05 A3009 RMK AO2 T00671054,M
BVU,2022-01-18 22:15,-114.8611,35.9475,671.00,57.20,44.60,62.69,0.00,0.00,0.00,30.00,M,10.00,M,CLR,M,M,M,M,M,M,M,M,M,M,M,M,M,M,57.20,KBVU 182215Z AUTO 00000KT 10SM CLR 14/07 A3000 RMK AO2,M
BAM,2022-01-18 22:15,-116.8743,40.5990,1382.36,44.60,32.00,61.03,0.00,0.00,0.00,30.09,M,10.00,M,CLR,M,M,M,M,M,M,M,M,M,M,M,M,M,M,44.60,KBAM 182215Z AUTO 00000KT 10SM CLR 07/00 A3009 RMK AO1,M
HTH,2022-01-18 22:15,-118.6315,38.5448,1282.89,48.20,26.60,42.73,340.00,5.00,0.00,30.10,M,10.00,M,CLR,M,M,M,M,M,M,M,M,M,M,M,M,M,M,45.63,KHTH 182215Z AUTO 34005KT 10SM CLR 09/M03 A3010 RMK A01,M
05U,2022-01-18 22:30,-116.0051,39.6042,1811.23,41.00,21.20,44.85,0.00,0.00,0.00,30.09,M,10.00,M,CLR,M,M,M,M,M,M,M,M,M,M,M,M,M,M,41.00,K05U 182230Z AUTO 00000KT 10SM CLR 05/M06 A3009 RMK A01,M
CXP,2022-01-18 22:35,-119.7326,39.1923,1431.00,53.60,23.00,30.11,0.00,0.00,0.00,30.10,M,7.00,M,CLR,M,M,M,M,M,M,M,M,M,M,M,M,M,M,53.60,KCXP 182235Z AUTO 00000KT 7SM CLR 12/M05 A3010 RMK AO2,M
HTH,2022-01-18 22:35,-118.6315,38.5448,1282.89,48.20,24.80,39.66,320.00,6.00,0.00,30.10,M,10.00,M,CLR,M,M,M,M,M,M,M,M,M,M,M,M,M,M,45.04,KHTH 182235Z AUTO 32006KT 10SM CLR 09/M04 A3010 RMK A01,M
BAM,2022-01-18 22:35,-116.8743,40.5990,1382.36,44.60,32.00,61.03,0.00,0.00,0.00,30.09,M,10.00,M,CLR,M,M,M,M,M,M,M,M,M,M,M,M,M,M,44.60,KBAM 182235Z AUTO 00000KT 10SM CLR 07/00 A3009 RMK AO1,M
TMT,2022-01-18 22:35,-117.1971,39.4643,1749.34,44.40,23.70,43.73,0.00,0.00,0.00,30.10,M,10.00,M,CLR,M,M,M,M,M,M,M,M,M,M,M,M,M,M,44.40,KTMT 182235Z AUTO 00000KT 10SM CLR 07/M05 A3010 RMK AO2 T00691046,M
MEV,2022-01-18 22:35,-119.7500,38.9963,1441.42,53.60,26.60,34.98,0.00,0.00,0.00,30.09,M,10.00,M,CLR,M,M,M,M,M,M,M,M,M,M,M,M,M,M,53.60,KMEV 182235Z AUTO 00000KT 10SM CLR 12/M03 A3009 RMK AO2,M
RTS,2022-01-18 22:35,-119.8764,39.6682,1539.00,51.80,23.00,32.17,280.00,7.00,0.00,30.10,M,10.00,M,CLR,M,M,M,M,M,M,M,M,M,M,M,M,M,M,51.80,KRTS 182235Z AUTO 28007KT 10SM CLR 11/M05 A3010 RMK AO2,M
BVU,2022-01-18 22:35,-114.8611,35.9475,671.00,57.20,44.60,62.69,0.00,0.00,0.00,30.00,M,10.00,M,CLR,M,M,M,M,M,M,M,M,M,M,M,M,M,M,57.20,KBVU 182235Z AUTO 00000KT 10SM CLR 14/07 A3000 RMK AO2,M
05U,2022-01-18 22:50,-116.0051,39.6042,1811.23,39.20,19.40,44.55,0.00,0.00,0.00,30.10,M,10.00,M,CLR,M,M,M,M,M,M,M,M,M,M,M,M,M,M,39.20,K05U 182250Z AUTO 00000KT 10SM CLR 04/M07 A3010 RMK A01,M
VGT,2022-01-18 22:53,-115.1933,36.2111,667.00,60.00,36.00,40.46,150.00,3.00,0.00,30.00,1017.10,10.00,M,CLR,M,M,M,M,M,M,M,M,M,M,M,M,M,M,60.10,KVGT 182253Z 15003KT 10SM CLR 16/02 A3000 RMK AO2 SLP171 T01560022,M
LOL,2022-01-18 22:53,-118.5701,40.0684,1192.43,48.00,30.90,51.34,210.00,4.00,0.00,30.09,1020.80,10.00,M,CLR,M,M,M,M,M,M,M,M,M,M,M,M,M,M,46.10,KLOL 182253Z AUTO 21004KT 10SM CLR 09/M01 A3009 RMK AO2 SLP208 T00891006,M
ELY,2022-01-18 22:53,-114.8453,39.2950,1909.00,42.00,19.90,40.67,10.00,8.00,0.00,30.03,1016.90,10.00,M,CLR,M,M,M,M,M,M,M,M,M,M,M,M,M,M,36.55,KELY 182253Z AUTO 01008KT 10SM CLR 06/M07 A3003 RMK AO2 SLP169 T00561067,M
DRA,2022-01-18 22:53,-116.0278,36.6206,1009.00,58.00,28.90,32.90,220.00,8.00,0.00,29.99,1013.70,10.00,M,CLR,M,M,M,M,M,M,M,M,M,M,M,M,M,M,57.90,KDRA 182253Z AUTO 22008KT 10SM CLR 14/M02 A2999 RMK AO2 SLP137 T01441017,M
CXP,2022-01-18 22:55,-119.7326,39.1923,1431.00,53.60,23.00,30.11,0.00,0.00,0.00,30.10,M,10.00,M,CLR,M,M,M,M,M,M,M,M,M,M,M,M,M,M,53.60,KCXP 182255Z AUTO 00000KT 10SM CLR 12/M05 A3010 RMK AO2,M
RNO,2022-01-18 22:55,-119.7711,39.4839,1341.00,53.00,26.10,34.90,140.00,3.00,0.00,30.09,1018.40,10.00,M,FEW,BKN,M,M,15000.00,24000.00,M,M,M,M,M,M,M,M,M,53.10,KRNO 182255Z 14003KT 10SM FEW150 BKN240 12/M03 A3009 RMK AO2 SLP184 T01171033 $,M
LSV,2022-01-18 22:55,-115.0343,36.2362,570.00,59.70,40.00,47.83,0.00,0.00,0.00,29.99,1015.10,10.00,M,SCT,M,M,M,20000.00,M,M,M,M,M,M,M,M,M,M,59.70,KLSV 182255Z 00000KT 10SM SCT200 15/04 A2999 RMK SLP151 T01540044 $,M
RTS,2022-01-18 22:55,-119.8764,39.6682,1539.00,51.80,24.80,34.69,350.00,7.00,0.00,30.10,M,10.00,M,CLR,M,M,M,M,M,M,M,M,M,M,M,M,M,M,51.80,KRTS 182255Z AUTO 35007KT 10SM CLR 11/M04 A3010 RMK AO2,M
MEV,2022-01-18 22:55,-119.7500,38.9963,1441.42,51.80,26.60,37.38,230.00,5.00,0.00,30.09,M,10.00,M,CLR,M,M,M,M,M,M,M,M,M,M,M,M,M,M,51.80,KMEV 182255Z AUTO 23005KT 10SM CLR 11/M03 A3009 RMK AO2,M
TMT,2022-01-18 22:55,-117.1971,39.4643,1749.34,44.20,23.40,43.51,0.00,0.00,0.00,30.10,M,10.00,M,CLR,M,M,M,M,M,M,M,M,M,M,M,M,M,M,44.20,KTMT 182255Z AUTO 00000KT 10SM CLR 07/M05 A3010 RMK AO2 T00681048,M
BAM,2022-01-18 22:55,-116.8743,40.5990,1382.36,44.60,32.00,61.03,0.00,0.00,0.00,30.10,M,10.00,M,CLR,M,M,M,M,M,M,M,M,M,M,M,M,M,M,44.60,KBAM 182255Z AUTO 00000KT 10SM CLR 07/00 A3010 RMK AO1,M
HTH,2022-01-18 22:55,-118.6315,38.5448,1282.89,50.00,24.80,37.08,320.00,6.00,0.00,30.10,M,10.00,M,CLR,M,M,M,M,M,M,M,M,M,M,M,M,M,M,50.00,KHTH 182255Z AUTO 32006KT 10SM CLR 10/M04 A3010 RMK A01,M
BVU,2022-01-18 22:55,-114.8611,35.9475,671.00,57.20,44.60,62.69,0.00,0.00,0.00,30.01,M,10.00,M,CLR,M,M,M,M,M,M,M,M,M,M,M,M,M,M,57.20,KBVU 182255Z AUTO 00000KT 10SM CLR 14/07 A3001 RMK AO2,M
HND,2022-01-18 22:56,-115.1344,35.9729,742.79,57.00,45.00,64.12,40.00,5.00,0.00,30.01,1017.70,10.00,M,SCT,M,M,M,9500.00,M,M,M,M,M,M,M,M,M,M,57.00,KHND 182256Z 04005KT 10SM SCT095 14/07 A3001 RMK AO2 SLP177 T01390072,M
EKO,2022-01-18 22:56,-115.7860,40.8242,1367.00,45.00,24.10,43.46,280.00,4.00,0.00,30.06,1019.00,10.00,M,CLR,M,M,M,M,M,M,M,M,M,M,M,M,M,M,42.60,KEKO 182256Z AUTO 28004KT 10SM CLR 07/M04 A3006 RMK AO2 SLP190 T00721044,M
WMC,2022-01-18 22:56,-117.8072,40.9019,1315.00,47.00,30.00,51.58,M,3.00,0.00,30.08,1019.70,10.00,M,CLR,M,M,M,M,M,M,M,M,M,M,M,M,M,M,45.72,KWMC 182256Z AUTO VRB03KT 10SM CLR 08/M01 A3008 RMK AO2 SLP197 T00831011,M
TPH,2022-01-18 22:56,-117.0904,38.0505,1654.00,50.00,24.10,36.01,320.00,15.00,0.00,30.05,1016.50,10.00,23.00,CLR,M,M,M,M,M,M,M,M,M,M,M,M,M,M,50.00,KTPH 182256Z AUTO 32015G23KT 10SM CLR 10/M04 A3005 RMK AO2 SLP165 T01001044,M
LAS,2022-01-18 22:56,-115.1634,36.0719,663.00,58.00,41.00,53.24,50.00,4.00,0.00,30.00,1015.30,10.00,M,FEW,FEW,SCT,M,6500.00,12000.00,20000.00,M,M,M,M,M,M,M,M,57.90,KLAS 182256Z 05004KT 10SM FEW065 FEW120 SCT200 14/05 A3000 RMK AO2 SLP153 T01440050,M
NFL,2022-01-18 22:56,-118.7010,39.4166,1199.00,51.00,27.00,38.99,M,5.00,0.00,30.09,1015.60,10.00,M,SCT,BKN,BKN,M,12000.00,15000.00,22000.00,M,M,M,M,M,M,M,M,51.10,KNFL 182256Z VRB05KT 10SM SCT120 BKN150 BKN220 11/M03 A3009 RMK AO2 SLP156 T01061028,M
INS,2022-01-18 22:58,-115.6733,36.5872,955.00,60.00,31.60,33.93,280.00,4.00,0.00,29.99,1013.70,10.00,M,CLR,M,M,M,M,M,M,M,M,M,M,M,M,M,M,60.10,KINS 182258Z AUTO 28004KT 10SM CLR 16/M00 A2999 RMK AO2 SLP137 T01561002 $,M
05U,2022-01-18 23:10,-116.0051,39.6042,1811.23,41.00,19.40,41.54,0.00,0.00,0.00,30.10,M,10.00,M,CLR,M,M,M,M,M,M,M,M,M,M,M,M,M,M,41.00,K05U 182310Z AUTO 00000KT 10SM CLR 05/M07 A3010 RMK A01,M
HTH,2022-01-18 23:15,-118.6315,38.5448,1282.89,51.80,23.00,32.17,320.00,10.00,0.00,30.11,M,10.00,M,CLR,M,M,M,M,M,M,M,M,M,M,M,M,M,M,51.80,KHTH 182315Z AUTO 32010KT 10SM CLR 11/M05 A3011 RMK A01,M
BVU,2022-01-18 23:15,-114.8611,35.9475,671.00,57.20,44.60,62.69,0.00,0.00,0.00,30.01,M,10.00,M,CLR,M,M,M,M,M,M,M,M,M,M,M,M,M,M,57.20,KBVU 182315Z AUTO 00000KT 10SM CLR 14/07 A3001 RMK AO2,M
CXP,2022-01-18 23:15,-119.7326,39.1923,1431.00,53.60,24.80,32.46,310.00,5.00,0.00,30.10,M,10.00,M,CLR,M,M,M,M,M,M,M,M,M,M,M,M,M,M,53.60,KCXP 182315Z AUTO 31005KT 10SM CLR 12/M04 A3010 RMK AO2,M
RTS,2022-01-18 23:15,-119.8764,39.6682,1539.00,51.80,24.80,34.69,350.00,8.00,0.00,30.11,M,10.00,M,CLR,M,M,M,M,M,M,M,M,M,M,M,M,M,M,51.80,KRTS 182315Z AUTO 35008KT 10SM CLR 11/M04 A3011 RMK AO2,M
MEV,2022-01-18 23:15,-119.7500,38.9963,1441.42,51.80,26.60,37.38,250.00,4.00,0.00,30.09,M,10.00,M,CLR,M,M,M,M,M,M,M,M,M,M,M,M,M,M,51.80,KMEV 182315Z AUTO 25004KT 10SM CLR 11/M03 A3009 RMK AO2,M
BAM,2022-01-18 23:15,-116.8743,40.5990,1382.36,44.60,30.20,56.74,0.00,0.00,0.00,30.10,M,10.00,M,CLR,M,M,M,M,M,M,M,M,M,M,M,M,M,M,44.60,KBAM 182315Z AUTO 00000KT 10SM CLR 07/M01 A3010 RMK AO1,M
TMT,2022-01-18 23:15,-117.1971,39.4643,1749.34,44.80,22.50,40.95,0.00,0.00,0.00,30.10,M,10.00,M,CLR,M,M,M,M,M,M,M,M,M,M,M,M,M,M,44.80,KTMT 182315Z AUTO 00000KT 10SM CLR 07/M05 A3010 RMK AO2 T00711053,M
05U,2022-01-18 23:30,-116.0051,39.6042,1811.23,41.00,21.20,44.85,0.00,0.00,0.00,30.11,M,10.00,M,CLR,M,M,M,M,M,M,M,M,M,M,M,M,M,M,41.00,K05U 182330Z AUTO 00000KT 10SM CLR 05/M06 A3011 RMK A01,M
RTS,2022-01-18 23:35,-119.8764,39.6682,1539.00,51.80,24.80,34.69,340.00,8.00,0.00,30.11,M,10.00,M,CLR,M,M,M,M,M,M,M,M,M,M,M,M,M,M,51.80,KRTS 182335Z AUTO 34008KT 10SM CLR 11/M04 A3011 RMK AO2,M
TMT,2022-01-18 23:35,-117.1971,39.4643,1749.34,44.40,23.90,44.09,0.00,0.00,0.00,30.10,M,10.00,M,CLR,M,M,M,M,M,M,M,M,M,M,M,M,M,M,44.40,KTMT 182335Z AUTO 00000KT 10SM CLR 07/M04 A3010 RMK AO2 T00691045,M
HTH,2022-01-18 23:35,-118.6315,38.5448,1282.89,51.80,24.80,34.69,300.00,9.00,0.00,30.11,M,10.00,M,CLR,M,M,M,M,M,M,M,M,M,M,M,M,M,M,51.80,KHTH 182335Z AUTO 30009KT 10SM CLR 11/M04 A3011 RMK A01,M
BAM,2022-01-18 23:35,-116.8743,40.5990,1382.36,44.60,32.00,61.03,0.00,0.00,0.00,30.10,M,10.00,M,CLR,M,M,M,M,M,M,M,M,M,M,M,M,M,M,44.60,KBAM 182335Z AUTO 00000KT 10SM CLR 07/00 A3010 RMK AO1,M
MEV,2022-01-18 23:35,-119.7500,38.9963,1441.42,50.00,28.40,43.03,250.00,6.00,0.00,30.09,M,10.00,M,CLR,M,M,M,M,M,M,M,M,M,M,M,M,M,M,50.00,KMEV 182335Z AUTO 25006KT 10SM CLR 10/M02 A3009 RMK AO2,M
CXP,2022-01-18 23:35,-119.7326,39.1923,1431.00,53.60,24.80,32.46,330.00,7.00,0.00,30.10,M,10.00,M,CLR,M,M,M,M,M,M,M,M,M,M,M,M,M,M,53.60,KCXP 182335Z AUTO 33007KT 10SM CLR 12/M04 A3010 RMK AO2,M
BVU,2022-01-18 23:35,-114.8611,35.9475,671.00,57.20,44.60,62.69,0.00,0.00,0.00,30.01,M,10.00,M,CLR,M,M,M,M,M,M,M,M,M,M,M,M,M,M,57.20,KBVU 182335Z AUTO 00000KT 10SM CLR 14/07 A3001 RMK AO2,M
05U,2022-01-18 23:50,-116.0051,39.6042,1811.23,41.00,21.20,44.85,0.00,0.00,0.00,30.11,M,10.00,M,CLR,M,M,M,M,M,M,M,M,M,M,M,M,M,M,41.00,K05U 182350Z AUTO 00000KT 10SM CLR 05/M06 A3011 RMK A01,M
ELY,2022-01-18 23:53,-114.8453,39.2950,1909.00,38.00,21.90,52.13,320.00,4.00,0.00,30.05,1018.60,10.00,M,CLR,M,M,M,M,M,M,M,M,M,M,M,M,M,M,34.31,KELY 182353Z AUTO 32004KT 10SM CLR 03/M06 A3005 RMK AO2 SLP186 T00331056 10072 20011 53007,M
VGT,2022-01-18 23:53,-115.1933,36.2111,667.00,59.00,38.00,45.36,140.00,3.00,0.00,29.99,1017.00,10.00,M,CLR,M,M,M,M,M,M,M,M,M,M,M,M,M,M,59.00,KVGT 182353Z 14003KT 10SM CLR 15/03 A2999 RMK AO2 SLP170 T01500033 10156 20111 56002,M
LOL,2022-01-18 23:53,-118.5701,40.0684,1192.43,47.00,30.90,53.50,200.00,6.00,0.00,30.10,1020.90,10.00,M,CLR,M,M,M,M,M,M,M,M,M,M,M,M,M,M,43.48,KLOL 182353Z AUTO 20006KT 10SM CLR 08/M01 A3010 RMK AO2 SLP209 T00831006 10094 20006 55003,M
DRA,2022-01-18 23:53,-116.0278,36.6206,1009.00,58.00,26.10,29.32,230.00,5.00,0.00,29.99,1013.90,10.00,M,CLR,M,M,M,M,M,M,M,M,M,M,M,M,M,M,57.90,KDRA 182353Z AUTO 23005KT 10SM CLR 14/M03 A2999 RMK AO2 SLP139 T01441033 10150 20083 55001,M
HTH,2022-01-18 23:55,-118.6315,38.5448,1282.89,50.00,24.80,37.08,280.00,8.00,0.00,30.11,M,10.00,M,CLR,M,M,M,M,M,M,M,M,M,M,M,M,M,M,50.00,KHTH 182355Z AUTO 28008KT 10SM CLR 10/M04 A3011 RMK A01,M
MEV,2022-01-18 23:55,-119.7500,38.9963,1441.42,51.80,28.40,40.25,280.00,6.00,0.00,30.10,M,10.00,M,CLR,M,M,M,M,M,M,M,M,M,M,M,M,M,M,51.80,KMEV 182355Z AUTO 28006KT 10SM CLR 11/M02 A3010 RMK AO2,M
BAM,2022-01-18 23:55,-116.8743,40.5990,1382.36,44.60,32.00,61.03,0.00,0.00,0.00,30.11,M,10.00,M,CLR,M,M,M,M,M,M,M,M,M,M,M,M,M,M,44.60,KBAM 182355Z AUTO 00000KT 10SM CLR 07/00 A3011 RMK AO1,M
TMT,2022-01-18 23:55,-117.1971,39.4643,1749.34,43.50,24.10,46.02,30.00,3.00,0.00,30.10,M,10.00,M,CLR,M,M,M,M,M,M,M,M,M,M,M,M,M,M,41.84,KTMT 182355Z AUTO 03003KT 10SM CLR 06/M04 A3010 RMK AO2 T00641044 10071 21001,M
RTS,2022-01-18 23:55,-119.8764,39.6682,1539.00,50.00,24.80,37.08,360.00,8.00,0.00,30.11,M,10.00,M,FEW,M,M,M,10000.00,M,M,M,M,M,M,M,M,M,M,50.00,KRTS 182355Z AUTO 36008KT 10SM FEW100 10/M04 A3011 RMK AO2,M
RNO,2022-01-18 23:55,-119.7711,39.4839,1341.00,54.00,26.10,33.77,0.00,0.00,0.00,30.09,1018.50,10.00,M,FEW,FEW,SCT,M,12000.00,15000.00,19000.00,M,M,M,M,M,M,M,M,54.00,KRNO 182355Z 00000KT 10SM FEW120 FEW150 SCT190 12/M03 A3009 RMK AO2 SLP185 T01221033 10128 20022 55006 $,M
CXP,2022-01-18 23:55,-119.7326,39.1923,1431.00,53.60,24.80,32.46,310.00,5.00,0.00,30.10,M,10.00,M,CLR,M,M,M,M,M,M,M,M,M,M,M,M,M,M,53.60,KCXP 182355Z AUTO 31005KT 10SM CLR 12/M04 A3010 RMK AO2,M
BVU,2022-01-18 23:55,-114.8611,35.9475,671.00,57.20,44.60,62.69,0.00,0.00,0.00,30.01,M,10.00,M,CLR,M,M,M,M,M,M,M,M,M,M,M,M,M,M,57.20,KBVU 182355Z AUTO 00000KT 10SM CLR 14/07 A3001 RMK AO2,M
NFL,2022-01-18 23:56,-118.7010,39.4166,1199.00,50.00,26.10,39.14,M,5.00,0.00,30.10,1015.80,10.00,M,SCT,BKN,BKN,M,12000.00,15000.00,25000.00,M,M,M,M,M,M,M,M,50.00,KNFL 182356Z VRB05KT 10SM SCT120 BKN150 BKN250 10/M03 A3010 RMK AO2 SLP158 T01001033 10106 20022 55004,M
EKO,2022-01-18 23:56,-115.7860,40.8242,1367.00,41.00,26.10,55.07,220.00,6.00,0.00,30.07,1020.10,10.00,M,CLR,M,M,M,M,M,M,M,M,M,M,M,M,M,M,36.37,KEKO 182356Z AUTO 22006KT 10SM CLR 05/M03 A3007 RMK AO2 SLP201 T00501033 10072 21011 53001,M
LAS,2022-01-18 23:56,-115.1634,36.0719,663.00,58.00,41.00,53.24,80.00,6.00,0.00,29.99,1015.10,10.00,M,FEW,FEW,SCT,M,6500.00,12000.00,20000.00,M,M,M,M,M,M,M,M,57.90,KLAS 182356Z 08006KT 10SM FEW065 FEW120 SCT200 14/05 A2999 RMK AO2 SLP151 T01440050 10144 20094 56001,M
TPH,2022-01-18 23:56,-117.0904,38.0505,1654.00,47.00,24.10,40.44,330.00,14.00,0.00,30.05,1017.30,10.00,M,CLR,M,M,M,M,M,M,M,M,M,M,M,M,M,M,40.37,KTPH 182356Z AUTO 33014KT 10SM CLR 08/M04 A3005 RMK AO2 SLP173 T00831044 10106 20039 53002,M
HND,2022-01-18 23:56,-115.1344,35.9729,742.79,57.00,45.00,64.12,40.00,6.00,0.00,30.02,1017.80,10.00,M,FEW,M,M,M,5000.00,M,M,M,M,M,M,M,M,M,M,57.00,KHND 182356Z 04006KT 10SM FEW050 14/07 A3002 RMK AO2 SLP178 T01390072 10150 20100 55001,M
WMC,2022-01-18 23:56,-117.8072,40.9019,1315.00,46.00,28.90,51.03,310.00,5.00,0.00,30.09,1020.30,10.00,M,FEW,M,M,M,11000.00,M,M,M,M,M,M,M,M,M,M,43.02,KWMC 182356Z AUTO 31005KT 10SM FEW110 08/M02 A3009 RMK AO2 SLP203 T00781017 10089 20011 55002,M
INS,2022-01-18 23:58,-115.6733,36.5872,955.00,59.00,28.40,30.98,0.00,0.00,0.00,29.99,1013.70,10.00,M,CLR,M,M,M,M,M,M,M,M,M,M,M,M,M,M,59.00,KINS 182358Z AUTO 00000KT 10SM CLR 15/M02 A2999 RMK AO2 SLP137 T01501020 10161 20110 55000 $,M
