station,valid,lon,lat,elevation,tmpf,dwpf,relh,drct,sknt,p01i,alti,mslp,vsby,gust,skyc1,skyc2,skyc3,skyc4,skyl1,skyl2,skyl3,skyl4,wxcodes,ice_accretion_1hr,ice_accretion_3hr,ice_accretion_6hr,peak_wind_gust,peak_wind_drct,peak_wind_time,feel,metar,snowdepth
BVU,2023-03-19 00:15,-114.8611,35.9475,671.00,62.60,12.20,13.68,0.00,0.00,0.00,30.08,M,10.00,M,CLR,M,M,M,M,M,M,M,M,M,M,M,M,M,M,62.60,KBVU 190015Z AUTO 00000KT 10SM CLR 17/M11 A3008 RMK AO2,M
CXP,2023-03-19 00:15,-119.7326,39.1923,1431.00,53.60,24.80,32.46,300.00,7.00,0.00,30.02,M,10.00,M,CLR,M,M,M,M,M,M,M,M,M,M,M,M,M,M,53.60,KCXP 190015Z AUTO 30007KT 10SM CLR 12/M04 A3002 RMK AO2,M
RTS,2023-03-19 00:15,-119.8764,39.6682,1539.00,51.80,23.00,32.17,290.00,3.00,0.00,30.02,M,10.00,M,CLR,M,M,M,M,M,M,M,M,M,M,M,M,M,M,51.80,KRTS 190015Z AUTO 29003KT 10SM CLR 11/M05 A3002 RMK AO2,M
05U,2023-03-19 00:15,-116.0051,39.6042,1811.23,M,M,M,130.00,11.00,0.00,30.10,M,9.00,M,CLR,M,M,M,M,M,M,M,M,M,M,M,M,M,M,M,K05U 190015Z AUTO 13011KT 9SM CLR A3010 RMK A01,M
MEV,2023-03-19 00:15,-119.7500,38.9963,1441.42,53.60,24.80,32.46,240.00,5.00,0.00,30.01,M,0.25,M,VV ,M,M,M,0.00,M,M,M,-RA HZ,M,M,M,M,M,M,53.60,KMEV 190015Z AUTO 24005KT M1/4SM -RA HZ VV000 12/M04 A3001 RMK AO2,M
BAM,2023-03-19 00:15,-116.8743,40.5990,1382.36,53.60,24.80,32.46,140.00,4.00,0.00,30.07,M,10.00,M,CLR,M,M,M,M,M,M,M,M,M,M,M,M,M,M,53.60,KBAM 190015Z AUTO 14004KT 10SM CLR 12/M04 A3007 RMK AO1,M
HTH,2023-03-19 00:15,-118.6315,38.5448,1282.89,57.20,10.40,15.31,200.00,9.00,0.00,30.01,M,10.00,M,CLR,M,M,M,M,M,M,M,M,M,M,M,M,M,M,57.20,KHTH 190015Z AUTO 20009KT 10SM CLR 14/M12 A3001 RMK A01,M
TMT,2023-03-19 00:15,-117.1971,39.4643,1749.34,49.60,18.10,28.34,0.00,0.00,0.00,30.06,M,10.00,M,CLR,M,M,M,M,M,M,M,M,M,M,M,M,M,M,49.60,KTMT 190015Z AUTO 00000KT 10SM CLR 10/M08 A3006 RMK AO2 T00981077,M
HTH,2023-03-19 00:30,-118.6315,38.5448,1282.89,57.20,10.40,15.31,180.00,9.00,0.00,30.01,M,10.00,M,CLR,M,M,M,M,M,M,M,M,M,M,M,M,M,M,57.20,KHTH 190030Z AUTO 18009KT 10SM CLR 14/M12 A3001 RMK A01,M
BVU,2023-03-19 00:35,-114.8611,35.9475,671.00,62.60,12.20,13.68,0.00,0.00,0.00,30.08,M,10.00,M,CLR,M,M,M,M,M,M,M,M,M,M,M,M,M,M,62.60,KBVU 190035Z AUTO 00000KT 10SM CLR 17/M11 A3008 RMK AO2,M
CXP,2023-03-19 00:35,-119.7326,39.1923,1431.00,53.60,26.60,34.98,290.00,7.00,0.00,30.01,M,10.00,M,CLR,M,M,M,M,M,M,M,M,M,M,M,M,M,M,53.60,KCXP 190035Z AUTO 29007KT 10SM CLR 12/M03 A3001 RMK AO2,M
RTS,2023-03-19 00:35,-119.8764,39.6682,1539.00,51.80,23.00,32.17,290.00,7.00,0.00,30.01,M,10.00,M,CLR,M,M,M,M,M,M,M,M,M,M,M,M,M,M,51.80,KRTS 190035Z AUTO 29007KT 10SM CLR 11/M05 A3001 RMK AO2,M
05U,2023-03-19 00:35,-116.0051,39.6042,1811.23,M,M,M,130.00,9.00,0.00,30.10,M,10.00,M,CLR,M,M,M,M,M,M,M,M,M,M,M,M,M,M,M,K05U 190035Z AUTO 13009KT 10SM CLR A3010 RMK A01,M
MEV,2023-03-19 00:35,-119.7500,38.9963,1441.42,53.60,26.60,34.98,280.00,5.00,0.00,30.00,M,0.25,M,VV ,M,M,M,0.00,M,M,M,-RA HZ,M,M,M,M,M,M,53.60,KMEV 190035Z AUTO 28005KT M1/4SM -RA HZ VV000 12/M03 A3000 RMK AO2,M
BAM,2023-03-19 00:35,-116.8743,40.5990,1382.36,53.60,24.80,32.46,110.00,6.00,0.00,30.07,M,10.00,M,CLR,M,M,M,M,M,M,M,M,M,M,M,M,M,M,53.60,KBAM 190035Z AUTO 11006KT 10SM CLR 12/M04 A3007 RMK AO1,M
TMT,2023-03-19 00:35,-117.1971,39.4643,1749.34,49.30,18.30,28.91,0.00,0.00,0.00,30.06,M,10.00,M,CLR,M,M,M,M,M,M,M,M,M,M,M,M,M,M,49.30,KTMT 190035Z AUTO 00000KT 10SM CLR 10/M08 A3006 RMK AO2 T00961076,M
DRA,2023-03-19 00:53,-116.0278,36.6206,1009.00,59.00,17.10,19.26,120.00,7.00,0.00,30.06,1016.40,10.00,M,CLR,M,M,M,M,M,M,M,M,M,M,M,M,M,M,59.00,KDRA 190053Z AUTO 12007KT 10SM CLR 15/M08 A3006 RMK AO2 SLP164 T01501083,M
ELY,2023-03-19 00:53,-114.8453,39.2950,1909.00,37.00,21.00,51.99,210.00,7.00,0.00,30.13,1022.90,10.00,M,CLR,M,M,M,M,M,M,M,M,M,M,M,M,M,M,30.87,KELY 190053Z AUTO 21007KT 10SM CLR 03/M06 A3013 RMK AO2 SLP229 T00281061 $,M
VGT,2023-03-19 00:53,-115.1933,36.2111,667.00,63.00,10.00,12.23,90.00,10.00,0.00,30.08,1019.90,10.00,M,CLR,M,M,M,M,M,M,M,M,M,M,M,M,M,M,63.00,KVGT 190053Z 09010KT 10SM CLR 17/M12 A3008 RMK AO2 SLP199 T01721122,M
LOL,2023-03-19 00:53,-118.5701,40.0684,1192.43,55.00,17.10,22.25,230.00,5.00,0.00,30.00,1017.00,10.00,M,CLR,M,M,M,M,M,M,M,M,M,M,M,M,M,M,55.00,KLOL 190053Z AUTO 23005KT 10SM CLR 13/M08 A3000 RMK AO2 SLP170 T01281083,M
P68,2023-03-19 00:53,-116.0056,39.6014,1993.00,44.00,21.90,41.00,140.00,10.00,0.00,30.08,1018.60,M,M,M,M,M,M,M,M,M,M,M,M,M,M,M,M,M,38.14,KP68 190053Z AUTO 14010KT 07/M06 A3008 RMK AO1 SLP186 T00671056,M
BVU,2023-03-19 00:55,-114.8611,35.9475,671.00,60.80,12.20,14.58,0.00,0.00,0.00,30.08,M,10.00,M,CLR,M,M,M,M,M,M,M,M,M,M,M,M,M,M,60.80,KBVU 190055Z AUTO 00000KT 10SM CLR 16/M11 A3008 RMK AO2,M
CXP,2023-03-19 00:55,-119.7326,39.1923,1431.00,53.60,24.80,32.46,290.00,7.00,0.00,30.01,M,10.00,M,CLR,M,M,M,M,M,M,M,M,M,M,M,M,M,M,53.60,KCXP 190055Z AUTO 29007KT 10SM CLR 12/M04 A3001 RMK AO2,M
RNO,2023-03-19 00:55,-119.7711,39.4839,1341.00,57.00,24.10,27.86,300.00,7.00,0.00,29.99,1014.20,10.00,M,SCT,BKN,OVC,M,12000.00,16000.00,20000.00,M,M,M,M,M,M,M,M,57.00,KRNO 190055Z 30007KT 10SM SCT120 BKN160 OVC200 14/M04 A2999 RMK AO2 SLP142 T01391044,M
RTS,2023-03-19 00:55,-119.8764,39.6682,1539.00,51.80,24.80,34.69,300.00,9.00,0.00,30.01,M,10.00,M,CLR,M,M,M,M,M,M,M,M,M,M,M,M,M,M,51.80,KRTS 190055Z AUTO 30009KT 10SM CLR 11/M04 A3001 RMK AO2,M
05U,2023-03-19 00:55,-116.0051,39.6042,1811.23,M,M,M,140.00,9.00,0.00,30.10,M,10.00,M,CLR,M,M,M,M,M,M,M,M,M,M,M,M,M,M,M,K05U 190055Z AUTO 14009KT 10SM CLR A3010 RMK A01,M
MEV,2023-03-19 00:55,-119.7500,38.9963,1441.42,53.60,24.80,32.46,280.00,4.00,0.00,30.00,M,0.25,M,VV ,M,M,M,0.00,M,M,M,HZ,M,M,M,M,M,M,53.60,KMEV 190055Z AUTO 28004KT M1/4SM HZ VV000 12/M04 A3000 RMK AO2,M
BAM,2023-03-19 00:55,-116.8743,40.5990,1382.36,51.80,28.40,40.25,70.00,10.00,0.00,30.07,M,10.00,14.00,CLR,M,M,M,M,M,M,M,M,M,M,M,M,M,M,51.80,KBAM 190055Z AUTO 07010G14KT 10SM CLR 11/M02 A3007 RMK AO1,M
HTH,2023-03-19 00:55,-118.6315,38.5448,1282.89,57.20,10.40,15.31,190.00,9.00,0.00,30.01,M,10.00,M,CLR,M,M,M,M,M,M,M,M,M,M,M,M,M,M,57.20,KHTH 190055Z AUTO 19009KT 10SM CLR 14/M12 A3001 RMK A01,M
TMT,2023-03-19 00:55,-117.1971,39.4643,1749.34,48.70,19.00,30.46,0.00,0.00,0.00,30.06,M,10.00,M,CLR,M,M,M,M,M,M,M,M,M,M,M,M,M,M,48.70,KTMT 190055Z AUTO 00000KT 10SM CLR 09/M07 A3006 RMK AO2 T00931072,M
INS,2023-03-19 00:55,-115.6733,36.5872,955.00,58.30,12.20,15.94,90.00,11.00,0.00,30.07,1016.90,10.00,M,CLR,M,M,M,M,M,M,M,M,M,M,M,M,M,M,58.30,KINS 190055Z AUTO 09011KT 10SM CLR 15/M11 A3007 RMK AO2 SLP169 T01461110 $,M
LSV,2023-03-19 00:55,-115.0343,36.2362,570.00,63.70,11.80,12.93,20.00,9.00,0.00,30.06,1017.40,10.00,M,CLR,M,M,M,M,M,M,M,M,M,M,M,M,M,M,63.70,KLSV 190055Z AUTO 02009KT 10SM CLR 18/M11 A3006 RMK AO2 SLP174 T01761112 $,M
WMC,2023-03-19 00:56,-117.8072,40.9019,1315.00,55.00,14.00,19.44,170.00,5.00,0.00,30.02,1016.00,10.00,M,CLR,M,M,M,M,M,M,M,M,M,M,M,M,M,M,55.00,KWMC 190056Z AUTO 17005KT 10SM CLR 13/M10 A3002 RMK AO2 SLP160 T01281100,M
NFL,2023-03-19 00:56,-118.7010,39.4166,1199.00,59.00,15.10,17.66,40.00,8.00,0.00,29.98,1012.40,10.00,M,CLR,M,M,M,M,M,M,M,M,M,M,M,M,M,M,59.00,KNFL 190056Z AUTO 04008KT 10SM CLR 15/M09 A2998 RMK AO2 SLP124 T01501094,M
TPH,2023-03-19 00:56,-117.0904,38.0505,1654.00,50.00,7.00,17.10,180.00,13.00,0.00,30.08,1018.10,10.00,M,CLR,M,M,M,M,M,M,M,M,M,M,M,M,M,M,50.00,KTPH 190056Z AUTO 18013KT 10SM CLR 10/M14 A3008 RMK AO2 SLP181 T01001139,M
LAS,2023-03-19 00:56,-115.1634,36.0719,663.00,61.00,8.10,12.06,M,3.00,0.00,30.08,1018.20,10.00,M,BKN,M,M,M,25000.00,M,M,M,M,M,M,M,M,M,M,61.00,KLAS 190056Z VRB03KT 10SM BKN250 16/M13 A3008 RMK AO2 SLP182 T01611133,M
EKO,2023-03-19 00:56,-115.7860,40.8242,1367.00,42.00,19.90,40.67,70.00,6.00,0.00,30.12,1021.80,10.00,M,CLR,M,M,M,M,M,M,M,M,M,M,M,M,M,M,37.69,KEKO 190056Z AUTO 07006KT 10SM CLR 06/M07 A3012 RMK AO2 SLP218 T00561067,M
HND,2023-03-19 00:56,-115.1344,35.9729,742.79,60.00,10.00,13.56,20.00,4.00,0.00,30.10,1020.90,10.00,M,CLR,M,M,M,M,M,M,M,M,M,M,M,M,M,M,60.10,KHND 190056Z 02004KT 10SM CLR 16/M12 A3010 RMK AO2 SLP209 T01561122,M
BVU,2023-03-19 01:15,-114.8611,35.9475,671.00,60.80,12.20,14.58,350.00,4.00,0.00,30.08,M,10.00,M,CLR,M,M,M,M,M,M,M,M,M,M,M,M,M,M,60.80,KBVU 190115Z AUTO 35004KT 10SM CLR 16/M11 A3008 RMK AO2,M
CXP,2023-03-19 01:15,-119.7326,39.1923,1431.00,51.80,26.60,37.38,330.00,6.00,0.00,30.01,M,10.00,M,CLR,M,M,M,M,M,M,M,M,M,M,M,M,M,M,51.80,KCXP 190115Z AUTO 33006KT 10SM CLR 11/M03 A3001 RMK AO2,M
RTS,2023-03-19 01:15,-119.8764,39.6682,1539.00,50.00,26.60,39.95,320.00,7.00,0.00,30.01,M,10.00,M,CLR,M,M,M,M,M,M,M,M,M,M,M,M,M,M,50.00,KRTS 190115Z AUTO 32007KT 10SM CLR 10/M03 A3001 RMK AO2,M
05U,2023-03-19 01:15,-116.0051,39.6042,1811.23,M,M,M,140.00,9.00,0.00,30.10,M,10.00,M,CLR,M,M,M,M,M,M,M,M,M,M,M,M,M,M,M,K05U 190115Z AUTO 14009KT 10SM CLR A3010 RMK A01,M
MEV,2023-03-19 01:15,-119.7500,38.9963,1441.42,51.80,24.80,34.69,290.00,5.00,0.00,29.99,M,0.25,M,VV ,M,M,M,0.00,M,M,M,HZ,M,M,M,M,M,M,51.80,KMEV 190115Z AUTO 29005KT M1/4SM HZ VV000 11/M04 A2999 RMK AO2,M
BAM,2023-03-19 01:15,-116.8743,40.5990,1382.36,50.00,28.40,43.03,60.00,8.00,0.00,30.07,M,10.00,M,CLR,M,M,M,M,M,M,M,M,M,M,M,M,M,M,50.00,KBAM 190115Z AUTO 06008KT 10SM CLR 10/M02 A3007 RMK AO1,M
HTH,2023-03-19 01:15,-118.6315,38.5448,1282.89,57.20,14.00,17.95,180.00,9.00,0.00,30.00,M,10.00,M,CLR,M,M,M,M,M,M,M,M,M,M,M,M,M,M,57.20,KHTH 190115Z AUTO 18009KT 10SM CLR 14/M10 A3000 RMK A01,M
TMT,2023-03-19 01:15,-117.1971,39.4643,1749.34,48.20,21.20,34.09,200.00,5.00,0.00,30.06,M,10.00,M,CLR,M,M,M,M,M,M,M,M,M,M,M,M,M,M,45.63,KTMT 190115Z AUTO 20005KT 10SM CLR 09/M06 A3006 RMK AO2 T00901060,M
BVU,2023-03-19 01:35,-114.8611,35.9475,671.00,59.00,15.80,18.20,350.00,3.00,0.00,30.08,M,10.00,M,CLR,M,M,M,M,M,M,M,M,M,M,M,M,M,M,59.00,KBVU 190135Z AUTO 35003KT 10SM CLR 15/M09 A3008 RMK AO2,M
CXP,2023-03-19 01:35,-119.7326,39.1923,1431.00,51.80,28.40,40.25,340.00,5.00,0.00,30.00,M,10.00,M,CLR,M,M,M,M,M,M,M,M,M,M,M,M,M,M,51.80,KCXP 190135Z AUTO 34005KT 10SM CLR 11/M02 A3000 RMK AO2,M
RTS,2023-03-19 01:35,-119.8764,39.6682,1539.00,48.20,28.40,46.02,290.00,7.00,0.00,30.00,M,10.00,M,CLR,M,M,M,M,M,M,M,M,M,M,M,M,M,M,44.53,KRTS 190135Z AUTO 29007KT 10SM CLR 09/M02 A3000 RMK AO2,M
05U,2023-03-19 01:35,-116.0051,39.6042,1811.23,M,M,M,150.00,9.00,0.00,30.10,M,10.00,M,CLR,M,M,M,M,M,M,M,M,M,M,M,M,M,M,M,K05U 190135Z AUTO 15009KT 10SM CLR A3010 RMK A01,M
MEV,2023-03-19 01:35,-119.7500,38.9963,1441.42,51.80,26.60,37.38,300.00,4.00,0.00,29.99,M,0.25,M,VV ,M,M,M,0.00,M,M,M,HZ,M,M,M,M,M,M,51.80,KMEV 190135Z AUTO 30004KT M1/4SM HZ VV000 11/M03 A2999 RMK AO2,M
BAM,2023-03-19 01:35,-116.8743,40.5990,1382.36,46.40,28.40,49.24,50.00,13.00,0.00,30.06,M,10.00,16.00,CLR,M,M,M,M,M,M,M,M,M,M,M,M,M,M,40.02,KBAM 190135Z AUTO 05013G16KT 10SM CLR 08/M02 A3006 RMK AO1,M
HTH,2023-03-19 01:35,-118.6315,38.5448,1282.89,55.40,15.80,20.73,190.00,8.00,0.00,30.00,M,10.00,M,CLR,M,M,M,M,M,M,M,M,M,M,M,M,M,M,55.40,KHTH 190135Z AUTO 19008KT 10SM CLR 13/M09 A3000 RMK A01,M
TMT,2023-03-19 01:35,-117.1971,39.4643,1749.34,47.00,24.60,41.30,250.00,5.00,0.00,30.05,M,10.00,M,CLR,M,M,M,M,M,M,M,M,M,M,M,M,M,M,44.09,KTMT 190135Z AUTO 25005KT 10SM CLR 08/M04 A3005 RMK AO2 T00831041,M
P68,2023-03-19 01:53,-116.0056,39.6014,1993.00,39.00,21.90,49.93,180.00,7.00,0.00,30.07,1018.80,M,M,M,M,M,M,M,M,M,M,M,M,M,M,M,M,M,33.31,KP68 190153Z AUTO 18007KT 04/M06 A3007 RMK AO1 SLP188 T00391056,M
DRA,2023-03-19 01:53,-116.0278,36.6206,1009.00,56.00,17.10,21.53,110.00,8.00,0.00,30.08,1017.10,10.00,M,CLR,M,M,M,M,M,M,M,M,M,M,M,M,M,M,55.90,KDRA 190153Z AUTO 11008KT 10SM CLR 13/M08 A3008 RMK AO2 SLP171 T01331083,M
ELY,2023-03-19 01:53,-114.8453,39.2950,1909.00,30.90,21.00,66.34,180.00,7.00,0.00,30.13,1024.50,10.00,M,CLR,M,M,M,M,M,M,M,M,M,M,M,M,M,M,23.44,KELY 190153Z AUTO 18007KT 10SM CLR M01/M06 A3013 RMK AO2 SLP245 T10061061 $,M
VGT,2023-03-19 01:53,-115.1933,36.2111,667.00,61.00,10.90,13.67,50.00,5.00,0.00,30.09,1020.40,10.00,M,CLR,M,M,M,M,M,M,M,M,M,M,M,M,M,M,61.00,KVGT 190153Z 05005KT 10SM CLR 16/M12 A3009 RMK AO2 SLP204 T01611117,M
LOL,2023-03-19 01:53,-118.5701,40.0684,1192.43,52.00,21.00,29.35,70.00,3.00,0.00,29.99,1016.70,10.00,M,CLR,M,M,M,M,M,M,M,M,M,M,M,M,M,M,52.00,KLOL 190153Z AUTO 07003KT 10SM CLR 11/M06 A2999 RMK AO2 SLP167 T01111061,M
BVU,2023-03-19 01:55,-114.8611,35.9475,671.00,59.00,17.60,19.68,360.00,3.00,0.00,30.09,M,10.00,M,CLR,M,M,M,M,M,M,M,M,M,M,M,M,M,M,59.00,KBVU 190155Z AUTO 36003KT 10SM CLR 15/M08 A3009 RMK AO2,M
CXP,2023-03-19 01:55,-119.7326,39.1923,1431.00,50.00,28.40,43.03,360.00,6.00,0.00,30.00,M,10.00,M,CLR,M,M,M,M,M,M,M,M,M,M,M,M,M,M,50.00,KCXP 190155Z AUTO 36006KT 10SM CLR 10/M02 A3000 RMK AO2,M
RNO,2023-03-19 01:55,-119.7711,39.4839,1341.00,55.00,26.10,32.56,290.00,7.00,0.00,29.98,1014.10,10.00,M,SCT,BKN,OVC,M,12000.00,16000.00,20000.00,M,M,M,M,M,M,M,M,55.00,KRNO 190155Z 29007KT 10SM SCT120 BKN160 OVC200 13/M03 A2998 RMK AO2 SLP141 T01281033,M
RTS,2023-03-19 01:55,-119.8764,39.6682,1539.00,48.20,28.40,46.02,300.00,6.00,0.00,30.00,M,10.00,M,CLR,M,M,M,M,M,M,M,M,M,M,M,M,M,M,45.04,KRTS 190155Z AUTO 30006KT 10SM CLR 09/M02 A3000 RMK AO2,M
05U,2023-03-19 01:55,-116.0051,39.6042,1811.23,37.40,21.20,51.61,M,5.00,0.00,30.10,M,10.00,M,CLR,M,M,M,M,M,M,M,M,M,M,M,M,M,M,32.81,K05U 190155Z AUTO VRB05KT 10SM CLR 03/M06 A3010 RMK A01,M
MEV,2023-03-19 01:55,-119.7500,38.9963,1441.42,51.80,28.40,40.25,0.00,0.00,0.00,29.98,M,0.25,M,VV ,M,M,M,0.00,M,M,M,HZ,M,M,M,M,M,M,51.80,KMEV 190155Z AUTO 00000KT M1/4SM HZ VV000 11/M02 A2998 RMK AO2,M
BAM,2023-03-19 01:55,-116.8743,40.5990,1382.36,44.60,28.40,52.72,60.00,12.00,0.00,30.07,M,10.00,M,CLR,M,M,M,M,M,M,M,M,M,M,M,M,M,M,38.04,KBAM 190155Z AUTO 06012KT 10SM CLR 07/M02 A3007 RMK AO1,M
HTH,2023-03-19 01:55,-118.6315,38.5448,1282.89,55.40,17.60,22.41,190.00,8.00,0.00,29.99,M,10.00,M,CLR,M,M,M,M,M,M,M,M,M,M,M,M,M,M,55.40,KHTH 190155Z AUTO 19008KT 10SM CLR 13/M08 A2999 RMK A01,M
TMT,2023-03-19 01:55,-117.1971,39.4643,1749.34,44.80,26.80,48.99,260.00,5.00,0.00,30.06,M,10.00,M,CLR,M,M,M,M,M,M,M,M,M,M,M,M,M,M,41.60,KTMT 190155Z AUTO 26005KT 10SM CLR 07/M03 A3006 RMK AO2 T00711029,M
INS,2023-03-19 01:55,-115.6733,36.5872,955.00,55.20,9.90,16.10,80.00,9.00,0.00,30.09,1018.10,10.00,M,CLR,M,M,M,M,M,M,M,M,M,M,M,M,M,M,55.20,KINS 190155Z AUTO 08009KT 10SM CLR 13/M12 A3009 RMK AO2 SLP181 T01291123 $,M
LSV,2023-03-19 01:55,-115.0343,36.2362,570.00,60.60,12.70,15.01,20.00,10.00,0.00,30.07,1017.80,10.00,M,CLR,M,M,M,M,M,M,M,M,M,M,M,M,M,M,60.60,KLSV 190155Z AUTO 02010KT 10SM CLR 16/M11 A3007 RMK AO2 SLP178 T01591107 $,M
EKO,2023-03-19 01:56,-115.7860,40.8242,1367.00,36.00,19.90,51.61,100.00,4.00,0.00,30.11,1022.40,10.00,M,CLR,M,M,M,M,M,M,M,M,M,M,M,M,M,M,32.09,KEKO 190156Z AUTO 10004KT 10SM CLR 02/M07 A3011 RMK AO2 SLP224 T00221067,M
NFL,2023-03-19 01:56,-118.7010,39.4166,1199.00,54.00,24.10,31.07,40.00,7.00,0.00,29.97,1012.20,10.00,M,CLR,M,M,M,M,M,M,M,M,M,M,M,M,M,M,54.00,KNFL 190156Z AUTO 04007KT 10SM CLR 12/M04 A2997 RMK AO2 SLP122 T01221044,M
TPH,2023-03-19 01:56,-117.0904,38.0505,1654.00,48.00,10.00,21.10,180.00,10.00,0.00,30.08,1018.40,10.00,M,CLR,M,M,M,M,M,M,M,M,M,M,M,M,M,M,43.03,KTPH 190156Z AUTO 18010KT 10SM CLR 09/M12 A3008 RMK AO2 SLP184 T00891122,M
WMC,2023-03-19 01:56,-117.8072,40.9019,1315.00,49.00,17.10,27.86,190.00,5.00,0.00,30.01,1016.30,10.00,M,CLR,M,M,M,M,M,M,M,M,M,M,M,M,M,M,46.47,KWMC 190156Z AUTO 19005KT 10SM CLR 09/M08 A3001 RMK AO2 SLP163 T00941083,M
HND,2023-03-19 01:56,-115.1344,35.9729,742.79,58.00,12.00,16.03,20.00,5.00,0.00,30.11,1021.50,10.00,M,CLR,M,M,M,M,M,M,M,M,M,M,M,M,M,M,57.90,KHND 190156Z 02005KT 10SM CLR 14/M11 A3011 RMK AO2 SLP215 T01441111,M
LAS,2023-03-19 01:56,-115.1634,36.0719,663.00,60.00,9.00,12.96,360.00,7.00,0.00,30.09,1018.70,10.00,M,BKN,M,M,M,25000.00,M,M,M,M,M,M,M,M,M,M,60.10,KLAS 190156Z 36007KT 10SM BKN250 16/M13 A3009 RMK AO2 SLP187 T01561128,M
BVU,2023-03-19 02:15,-114.8611,35.9475,671.00,57.20,19.40,22.68,330.00,5.00,0.00,30.09,M,10.00,M,CLR,M,M,M,M,M,M,M,M,M,M,M,M,M,M,57.20,KBVU 190215Z AUTO 33005KT 10SM CLR 14/M07 A3009 RMK AO2,M
CXP,2023-03-19 02:15,-119.7326,39.1923,1431.00,50.00,28.40,43.03,350.00,5.00,0.00,30.00,M,10.00,M,FEW,M,M,M,1800.00,M,M,M,M,M,M,M,M,M,M,50.00,KCXP 190215Z AUTO 35005KT 10SM FEW018 10/M02 A3000 RMK AO2,M
RTS,2023-03-19 02:15,-119.8764,39.6682,1539.00,46.40,28.40,49.24,300.00,4.00,0.00,30.00,M,10.00,M,CLR,M,M,M,M,M,M,M,M,M,M,M,M,M,M,44.24,KRTS 190215Z AUTO 30004KT 10SM CLR 08/M02 A3000 RMK AO2,M
05U,2023-03-19 02:15,-116.0051,39.6042,1811.23,M,M,M,M,5.00,0.00,30.10,M,10.00,M,CLR,M,M,M,M,M,M,M,M,M,M,M,M,M,M,M,K05U 190215Z AUTO VRB05KT 10SM CLR A3010 RMK A01,M
MEV,2023-03-19 02:15,-119.7500,38.9963,1441.42,50.00,30.20,46.31,0.00,0.00,0.00,29.98,M,10.00,M,CLR,M,M,M,M,M,M,M,M,M,M,M,M,M,M,50.00,KMEV 190215Z AUTO 00000KT 10SM CLR 10/M01 A2998 RMK AO2,M
BAM,2023-03-19 02:15,-116.8743,40.5990,1382.36,42.80,28.40,56.48,60.00,13.00,0.00,30.07,M,10.00,18.00,CLR,M,M,M,M,M,M,M,M,M,M,M,M,M,M,35.40,KBAM 190215Z AUTO 06013G18KT 10SM CLR 06/M02 A3007 RMK AO1,M
HTH,2023-03-19 02:15,-118.6315,38.5448,1282.89,53.60,17.60,23.93,190.00,8.00,0.00,29.99,M,10.00,M,CLR,M,M,M,M,M,M,M,M,M,M,M,M,M,M,53.60,KHTH 190215Z AUTO 19008KT 10SM CLR 12/M08 A2999 RMK A01,M
TMT,2023-03-19 02:15,-117.1971,39.4643,1749.34,43.30,26.10,50.40,280.00,4.00,0.00,30.06,M,10.00,M,CLR,M,M,M,M,M,M,M,M,M,M,M,M,M,M,40.62,KTMT 190215Z AUTO 28004KT 10SM CLR 06/M03 A3006 RMK AO2 T00631033,M
BVU,2023-03-19 02:35,-114.8611,35.9475,671.00,55.40,19.40,24.21,320.00,6.00,0.00,30.09,M,10.00,M,CLR,M,M,M,M,M,M,M,M,M,M,M,M,M,M,55.40,KBVU 190235Z AUTO 32006KT 10SM CLR 13/M07 A3009 RMK AO2,M
CXP,2023-03-19 02:35,-119.7326,39.1923,1431.00,48.20,30.20,49.53,330.00,4.00,0.00,30.00,M,10.00,M,CLR,M,M,M,M,M,M,M,M,M,M,M,M,M,M,46.34,KCXP 190235Z AUTO 33004KT 10SM CLR 09/M01 A3000 RMK AO2,M
RTS,2023-03-19 02:35,-119.8764,39.6682,1539.00,44.60,30.20,56.74,330.00,3.00,0.00,30.00,M,10.00,M,FEW,M,M,M,12000.00,M,M,M,M,M,M,M,M,M,M,43.09,KRTS 190235Z AUTO 33003KT 10SM FEW120 07/M01 A3000 RMK AO2,M
05U,2023-03-19 02:35,-116.0051,39.6042,1811.23,M,M,M,160.00,4.00,0.00,30.10,M,10.00,M,CLR,M,M,M,M,M,M,M,M,M,M,M,M,M,M,M,K05U 190235Z AUTO 16004KT 10SM CLR A3010 RMK A01,M
MEV,2023-03-19 02:35,-119.7500,38.9963,1441.42,48.20,32.00,53.27,0.00,0.00,0.00,29.98,M,10.00,M,CLR,M,M,M,M,M,M,M,M,M,M,M,M,M,M,48.20,KMEV 190235Z AUTO 00000KT 10SM CLR 09/M00 A2998 RMK AO2,M
BAM,2023-03-19 02:35,-116.8743,40.5990,1382.36,42.80,28.40,56.48,60.00,14.00,0.00,30.07,M,10.00,19.00,CLR,M,M,M,M,M,M,M,M,M,M,M,M,M,M,35.08,KBAM 190235Z AUTO 06014G19KT 10SM CLR 06/M02 A3007 RMK AO1,M
HTH,2023-03-19 02:35,-118.6315,38.5448,1282.89,53.60,17.60,23.93,170.00,6.00,0.00,29.99,M,10.00,M,CLR,M,M,M,M,M,M,M,M,M,M,M,M,M,M,53.60,KHTH 190235Z AUTO 17006KT 10SM CLR 12/M08 A2999 RMK A01,M
TMT,2023-03-19 02:35,-117.1971,39.4643,1749.34,45.50,18.00,32.92,0.00,0.00,0.00,30.05,M,10.00,M,CLR,M,M,M,M,M,M,M,M,M,M,M,M,M,M,45.50,KTMT 190235Z AUTO 00000KT 10SM CLR 08/M08 A3005 RMK AO2 T00751078,M
P68,2023-03-19 02:53,-116.0056,39.6014,1993.00,40.00,17.10,39.27,M,5.00,0.00,30.08,1018.60,M,M,M,M,M,M,M,M,M,M,M,M,M,M,M,M,M,35.78,KP68 190253Z AUTO VRB05KT 04/M08 A3008 RMK AO1 SLP186 T00441083 55002,M
DRA,2023-03-19 02:53,-116.0278,36.6206,1009.00,54.00,19.00,25.04,110.00,7.00,0.00,30.07,1016.80,10.00,M,CLR,M,M,M,M,M,M,M,M,M,M,M,M,M,M,54.00,KDRA 190253Z AUTO 11007KT 10SM CLR 12/M07 A3007 RMK AO2 SLP168 T01221072 53002,M
ELY,2023-03-19 02:53,-114.8453,39.2950,1909.00,28.90,19.90,68.67,190.00,9.00,0.00,30.13,1024.10,10.00,M,CLR,M,M,M,M,M,M,M,M,M,M,M,M,M,M,19.66,KELY 190253Z AUTO 19009KT 10SM CLR M02/M07 A3013 RMK AO2 SLP241 T10171067 50004,M
VGT,2023-03-19 02:53,-115.1933,36.2111,667.00,60.00,12.00,14.82,0.00,0.00,0.00,30.09,1020.50,10.00,M,CLR,M,M,M,M,M,M,M,M,M,M,M,M,M,M,60.10,KVGT 190253Z 00000KT 10SM CLR 16/M11 A3009 RMK AO2 SLP205 T01561111 53004,M
LOL,2023-03-19 02:53,-118.5701,40.0684,1192.43,47.00,19.00,32.59,50.00,5.00,0.00,29.98,1016.40,10.00,M,CLR,M,M,M,M,M,M,M,M,M,M,M,M,M,M,44.09,KLOL 190253Z AUTO 05005KT 10SM CLR 08/M07 A2998 RMK AO2 SLP164 T00831072 56013,M
BVU,2023-03-19 02:55,-114.8611,35.9475,671.00,55.40,17.60,22.41,330.00,6.00,0.00,30.10,M,10.00,M,CLR,M,M,M,M,M,M,M,M,M,M,M,M,M,M,55.40,KBVU 190255Z AUTO 33006KT 10SM CLR 13/M08 A3010 RMK AO2,M
CXP,2023-03-19 02:55,-119.7326,39.1923,1431.00,48.20,30.20,49.53,330.00,5.00,0.00,30.00,M,10.00,M,CLR,M,M,M,M,M,M,M,M,M,M,M,M,M,M,45.63,KCXP 190255Z AUTO 33005KT 10SM CLR 09/M01 A3000 RMK AO2,M
RTS,2023-03-19 02:55,-119.8764,39.6682,1539.00,44.60,30.20,56.74,0.00,0.00,0.00,30.00,M,10.00,M,BKN,M,M,M,12000.00,M,M,M,M,M,M,M,M,M,M,44.60,KRTS 190255Z AUTO 00000KT 10SM BKN120 07/M01 A3000 RMK AO2,M
05U,2023-03-19 02:55,-116.0051,39.6042,1811.23,M,M,M,190.00,3.00,0.00,30.11,M,10.00,M,CLR,M,M,M,M,M,M,M,M,M,M,M,M,M,M,M,K05U 190255Z AUTO 19003KT 10SM CLR A3011 RMK A01,M
MEV,2023-03-19 02:55,-119.7500,38.9963,1441.42,46.40,33.80,61.28,70.00,4.00,0.00,29.98,M,10.00,M,CLR,M,M,M,M,M,M,M,M,M,M,M,M,M,M,44.24,KMEV 190255Z AUTO 07004KT 10SM CLR 08/01 A2998 RMK AO2,M
BAM,2023-03-19 02:55,-116.8743,40.5990,1382.36,41.00,26.60,56.22,60.00,13.00,0.00,30.07,M,10.00,M,CLR,M,M,M,M,M,M,M,M,M,M,M,M,M,M,33.10,KBAM 190255Z AUTO 06013KT 10SM CLR 05/M03 A3007 RMK AO1,M
HTH,2023-03-19 02:55,-118.6315,38.5448,1282.89,53.60,14.00,20.46,170.00,8.00,0.00,29.98,M,10.00,M,CLR,M,M,M,M,M,M,M,M,M,M,M,M,M,M,53.60,KHTH 190255Z AUTO 17008KT 10SM CLR 12/M10 A2998 RMK A01,M
TMT,2023-03-19 02:55,-117.1971,39.4643,1749.34,39.20,26.80,60.79,130.00,4.00,0.00,30.05,M,10.00,M,CLR,M,M,M,M,M,M,M,M,M,M,M,M,M,M,35.83,KTMT 190255Z AUTO 13004KT 10SM CLR 04/M03 A3005 RMK AO2 T00401029,M
INS,2023-03-19 02:55,-115.6733,36.5872,955.00,52.70,10.40,18.04,70.00,8.00,0.00,30.09,1017.60,10.00,M,CLR,M,M,M,M,M,M,M,M,M,M,M,M,M,M,52.70,KINS 190255Z AUTO 07008KT 10SM CLR 12/M12 A3009 RMK AO2 SLP176 T01151120 52007 $,M
LSV,2023-03-19 02:55,-115.0343,36.2362,570.00,57.70,15.80,19.07,0.00,0.00,0.00,30.07,1017.90,10.00,M,CLR,M,M,M,M,M,M,M,M,M,M,M,M,M,M,57.70,KLSV 190255Z AUTO 00000KT 10SM CLR 14/M09 A3007 RMK AO2 SLP179 T01431090 52005 $,M
RNO,2023-03-19 02:55,-119.7711,39.4839,1341.00,53.00,27.00,36.22,170.00,7.00,0.00,29.98,1014.40,10.00,M,BKN,OVC,M,M,12000.00,16000.00,M,M,M,M,M,M,M,M,M,53.10,KRNO 190255Z 17007KT 10SM BKN120 OVC160 12/M03 A2998 RMK AO2 SLP144 T01171028 55006,M
EKO,2023-03-19 02:56,-115.7860,40.8242,1367.00,34.00,19.90,55.88,80.00,3.00,0.00,30.11,1022.30,10.00,M,CLR,M,M,M,M,M,M,M,M,M,M,M,M,M,M,30.97,KEKO 190256Z AUTO 08003KT 10SM CLR 01/M07 A3011 RMK AO2 SLP223 T00111067 56005,M
WMC,2023-03-19 02:56,-117.8072,40.9019,1315.00,43.00,21.90,42.77,150.00,6.00,0.00,30.00,1016.30,10.00,M,CLR,M,M,M,M,M,M,M,M,M,M,M,M,M,M,38.78,KWMC 190256Z AUTO 15006KT 10SM CLR 06/M06 A3000 RMK AO2 SLP163 T00611056 56006,M
TPH,2023-03-19 02:56,-117.0904,38.0505,1654.00,45.00,12.90,26.87,190.00,8.00,0.00,30.07,1018.10,10.00,M,CLR,M,M,M,M,M,M,M,M,M,M,M,M,M,M,40.13,KTPH 190256Z AUTO 19008KT 10SM CLR 07/M11 A3007 RMK AO2 SLP181 T00721106 58001,M
LAS,2023-03-19 02:56,-115.1634,36.0719,663.00,59.00,10.90,14.68,20.00,6.00,0.00,30.10,1018.80,10.00,M,BKN,M,M,M,25000.00,M,M,M,M,M,M,M,M,M,M,59.00,KLAS 190256Z 02006KT 10SM BKN250 15/M12 A3010 RMK AO2 SLP188 T01501117 53005,M
NFL,2023-03-19 02:56,-118.7010,39.4166,1199.00,51.00,25.00,35.89,60.00,6.00,0.00,29.97,1011.90,10.00,M,CLR,M,M,M,M,M,M,M,M,M,M,M,M,M,M,51.10,KNFL 190256Z AUTO 06006KT 10SM CLR 11/M04 A2997 RMK AO2 SLP119 T01061039 56010,M
HND,2023-03-19 02:56,-115.1344,35.9729,742.79,56.00,16.00,20.53,0.00,0.00,0.00,30.12,1021.60,10.00,M,CLR,M,M,M,M,M,M,M,M,M,M,M,M,M,M,55.90,KHND 190256Z 00000KT 10SM CLR 13/M09 A3012 RMK AO2 SLP216 T01331089 53004,M
RTS,2023-03-19 03:15,-119.8764,39.6682,1539.00,44.60,30.20,56.74,300.00,5.00,0.00,30.00,M,10.00,M,FEW,M,M,M,12000.00,M,M,M,M,M,M,M,M,M,M,41.36,KRTS 190315Z AUTO 30005KT 10SM FEW120 07/M01 A3000 RMK AO2,M
BVU,2023-03-19 03:15,-114.8611,35.9475,671.00,55.40,15.80,20.73,350.00,6.00,0.00,30.09,M,10.00,M,CLR,M,M,M,M,M,M,M,M,M,M,M,M,M,M,55.40,KBVU 190315Z AUTO 35006KT 10SM CLR 13/M09 A3009 RMK AO2,M
CXP,2023-03-19 03:15,-119.7326,39.1923,1431.00,48.20,28.40,46.02,340.00,3.00,0.00,30.00,M,10.00,M,CLR,M,M,M,M,M,M,M,M,M,M,M,M,M,M,47.21,KCXP 190315Z AUTO 34003KT 10SM CLR 09/M02 A3000 RMK AO2,M
05U,2023-03-19 03:15,-116.0051,39.6042,1811.23,M,M,M,M,3.00,0.00,30.11,M,10.00,M,CLR,M,M,M,M,M,M,M,M,M,M,M,M,M,M,M,K05U 190315Z AUTO VRB03KT 10SM CLR A3011 RMK A01,M
MEV,2023-03-19 03:15,-119.7500,38.9963,1441.42,46.40,32.00,57.00,0.00,0.00,0.00,29.99,M,10.00,M,FEW,FEW,SCT,M,4200.00,4900.00,5500.00,M,M,M,M,M,M,M,M,46.40,KMEV 190315Z AUTO 00000KT 10SM FEW042 FEW049 SCT055 08/00 A2999 RMK AO2,M
BAM,2023-03-19 03:15,-116.8743,40.5990,1382.36,41.00,26.60,56.22,60.00,14.00,0.00,30.07,M,10.00,20.00,CLR,M,M,M,M,M,M,M,M,M,M,M,M,M,M,32.76,KBAM 190315Z AUTO 06014G20KT 10SM CLR 05/M03 A3007 RMK AO1,M
HTH,2023-03-19 03:15,-118.6315,38.5448,1282.89,51.80,15.80,23.65,170.00,9.00,0.00,29.99,M,10.00,M,CLR,M,M,M,M,M,M,M,M,M,M,M,M,M,M,51.80,KHTH 190315Z AUTO 17009KT 10SM CLR 11/M09 A2999 RMK A01,M
TMT,2023-03-19 03:15,-117.1971,39.4643,1749.34,37.80,26.40,63.16,130.00,5.00,0.00,30.05,M,10.00,M,CLR,M,M,M,M,M,M,M,M,M,M,M,M,M,M,33.28,KTMT 190315Z AUTO 13005KT 10SM CLR 03/M03 A3005 RMK AO2 T00321031,M
BVU,2023-03-19 03:35,-114.8611,35.9475,671.00,55.40,17.60,22.41,330.00,6.00,0.00,30.10,M,10.00,M,CLR,M,M,M,M,M,M,M,M,M,M,M,M,M,M,55.40,KBVU 190335Z AUTO 33006KT 10SM CLR 13/M08 A3010 RMK AO2,M
CXP,2023-03-19 03:35,-119.7326,39.1923,1431.00,48.20,30.20,49.53,0.00,0.00,0.00,30.00,M,10.00,M,CLR,M,M,M,M,M,M,M,M,M,M,M,M,M,M,48.20,KCXP 190335Z AUTO 00000KT 10SM CLR 09/M01 A3000 RMK AO2,M
RTS,2023-03-19 03:35,-119.8764,39.6682,1539.00,42.80,30.20,60.79,280.00,4.00,0.00,30.00,M,10.00,M,CLR,M,M,M,M,M,M,M,M,M,M,M,M,M,M,40.03,KRTS 190335Z AUTO 28004KT 10SM CLR 06/M01 A3000 RMK AO2,M
05U,2023-03-19 03:35,-116.0051,39.6042,1811.23,M,M,M,0.00,0.00,0.00,30.11,M,10.00,M,CLR,M,M,M,M,M,M,M,M,M,M,M,M,M,M,M,K05U 190335Z AUTO 00000KT 10SM CLR A3011 RMK A01,M
MEV,2023-03-19 03:35,-119.7500,38.9963,1441.42,44.60,32.00,61.03,0.00,0.00,0.00,29.98,M,10.00,M,FEW,FEW,SCT,M,4300.00,4900.00,6000.00,M,M,M,M,M,M,M,M,44.60,KMEV 190335Z AUTO 00000KT 10SM FEW043 FEW049 SCT060 07/00 A2998 RMK AO2,M
BAM,2023-03-19 03:35,-116.8743,40.5990,1382.36,41.00,26.60,56.22,60.00,15.00,0.00,30.06,M,10.00,M,CLR,M,M,M,M,M,M,M,M,M,M,M,M,M,M,32.45,KBAM 190335Z AUTO 06015KT 10SM CLR 05/M03 A3006 RMK AO1,M
HTH,2023-03-19 03:35,-118.6315,38.5448,1282.89,50.00,19.40,29.52,130.00,10.00,0.00,29.99,M,10.00,M,CLR,M,M,M,M,M,M,M,M,M,M,M,M,M,M,50.00,KHTH 190335Z AUTO 13010KT 10SM CLR 10/M07 A2999 RMK A01,M
TMT,2023-03-19 03:35,-117.1971,39.4643,1749.34,36.00,26.80,68.67,140.00,7.00,0.00,30.05,M,10.00,M,CLR,M,M,M,M,M,M,M,M,M,M,M,M,M,M,29.78,KTMT 190335Z AUTO 14007KT 10SM CLR 02/M03 A3005 RMK AO2 T00231029,M
P68,2023-03-19 03:53,-116.0056,39.6014,1993.00,39.00,12.00,32.54,M,5.00,0.00,30.09,1018.70,M,M,M,M,M,M,M,M,M,M,M,M,M,M,M,M,M,34.71,KP68 190353Z AUTO VRB05KT 04/M11 A3009 RMK AO1 SLP187 T00391111,M
DRA,2023-03-19 03:53,-116.0278,36.6206,1009.00,52.00,17.10,24.83,130.00,9.00,0.00,30.07,1016.80,10.00,M,CLR,M,M,M,M,M,M,M,M,M,M,M,M,M,M,52.00,KDRA 190353Z AUTO 13009KT 10SM CLR 11/M08 A3007 RMK AO2 SLP168 T01111083,M
ELY,2023-03-19 03:53,-114.8453,39.2950,1909.00,28.00,19.00,68.57,200.00,9.00,0.00,30.15,1023.60,10.00,M,CLR,M,M,M,M,M,M,M,M,M,M,M,M,M,M,18.54,KELY 190353Z AUTO 20009KT 10SM CLR M02/M07 A3015 RMK AO2 SLP236 T10221072 $,M
VGT,2023-03-19 03:53,-115.1933,36.2111,667.00,59.00,14.00,16.83,0.00,0.00,0.00,30.09,1020.30,10.00,M,CLR,M,M,M,M,M,M,M,M,M,M,M,M,M,M,59.00,KVGT 190353Z AUTO 00000KT 10SM CLR 15/M10 A3009 RMK AO2 SLP203 T01501100,M
LOL,2023-03-19 03:53,-118.5701,40.0684,1192.43,44.00,19.90,37.67,10.00,5.00,0.00,29.98,1015.90,10.00,M,CLR,M,M,M,M,M,M,M,M,M,M,M,M,M,M,40.77,KLOL 190353Z AUTO 01005KT 10SM CLR 07/M07 A2998 RMK AO2 SLP159 T00671067,M
BVU,2023-03-19 03:55,-114.8611,35.9475,671.00,57.20,14.00,17.95,360.00,5.00,0.00,30.10,M,10.00,M,CLR,M,M,M,M,M,M,M,M,M,M,M,M,M,M,57.20,KBVU 190355Z AUTO 36005KT 10SM CLR 14/M10 A3010 RMK AO2,M
CXP,2023-03-19 03:55,-119.7326,39.1923,1431.00,46.40,32.00,57.00,0.00,0.00,0.00,30.00,M,10.00,M,CLR,M,M,M,M,M,M,M,M,M,M,M,M,M,M,46.40,KCXP 190355Z AUTO 00000KT 10SM CLR 08/00 A3000 RMK AO2,M
RTS,2023-03-19 03:55,-119.8764,39.6682,1539.00,44.60,28.40,52.72,290.00,5.00,0.00,30.00,M,10.00,M,CLR,M,M,M,M,M,M,M,M,M,M,M,M,M,M,41.36,KRTS 190355Z AUTO 29005KT 10SM CLR 07/M02 A3000 RMK AO2,M
05U,2023-03-19 03:55,-116.0051,39.6042,1811.23,M,M,M,M,5.00,0.00,30.11,M,10.00,M,CLR,M,M,M,M,M,M,M,M,M,M,M,M,M,M,M,K05U 190355Z AUTO VRB05KT 10SM CLR A3011 RMK A01,M
MEV,2023-03-19 03:55,-119.7500,38.9963,1441.42,42.80,33.80,70.28,100.00,4.00,0.00,29.98,M,10.00,M,FEW,SCT,SCT,M,4200.00,5000.00,6500.00,M,M,M,M,M,M,M,M,40.03,KMEV 190355Z AUTO 10004KT 10SM FEW042 SCT050 SCT065 06/01 A2998 RMK AO2,M
BAM,2023-03-19 03:55,-116.8743,40.5990,1382.36,41.00,26.60,56.22,60.00,15.00,0.00,30.06,M,10.00,19.00,CLR,M,M,M,M,M,M,M,M,M,M,M,M,M,M,32.45,KBAM 190355Z AUTO 06015G19KT 10SM CLR 05/M03 A3006 RMK AO1,M
HTH,2023-03-19 03:55,-118.6315,38.5448,1282.89,50.00,21.20,31.87,150.00,9.00,0.00,29.99,M,10.00,M,CLR,M,M,M,M,M,M,M,M,M,M,M,M,M,M,50.00,KHTH 190355Z AUTO 15009KT 10SM CLR 10/M06 A2999 RMK A01,M
TMT,2023-03-19 03:55,-117.1971,39.4643,1749.34,38.50,23.70,54.92,260.00,5.00,0.00,30.05,M,10.00,M,CLR,M,M,M,M,M,M,M,M,M,M,M,M,M,M,34.11,KTMT 190355Z AUTO 26005KT 10SM CLR 04/M05 A3005 RMK AO2 T00361046,M
INS,2023-03-19 03:55,-115.6733,36.5872,955.00,51.80,9.70,18.07,80.00,7.00,0.00,30.08,1017.30,10.00,M,CLR,M,M,M,M,M,M,M,M,M,M,M,M,M,M,51.80,KINS 190355Z AUTO 08007KT 10SM CLR 11/M12 A3008 RMK AO2 SLP173 T01101124 $,M
LSV,2023-03-19 03:55,-115.0343,36.2362,570.00,54.00,17.10,23.08,90.00,4.00,0.00,30.07,1017.80,10.00,M,CLR,M,M,M,M,M,M,M,M,M,M,M,M,M,M,54.00,KLSV 190355Z AUTO 09004KT 10SM CLR 12/M08 A3007 RMK AO2 SLP178 T01221083 $,M
RNO,2023-03-19 03:55,-119.7711,39.4839,1341.00,51.00,28.00,40.63,10.00,4.00,0.00,29.98,1014.10,10.00,M,BKN,OVC,M,M,12000.00,16000.00,M,M,M,M,M,M,M,M,M,51.10,KRNO 190355Z 01004KT 10SM BKN120 OVC160 11/M02 A2998 RMK AO2 SLP141 T01061022,M
EKO,2023-03-19 03:56,-115.7860,40.8242,1367.00,32.00,21.90,65.92,90.00,3.00,0.00,30.11,1021.90,10.00,M,CLR,M,M,M,M,M,M,M,M,M,M,M,M,M,M,28.69,KEKO 190356Z AUTO 09003KT 10SM CLR 00/M06 A3011 RMK AO2 SLP219 T00001056,M
WMC,2023-03-19 03:56,-117.8072,40.9019,1315.00,46.00,25.00,43.44,100.00,3.00,0.00,30.01,1015.80,10.00,M,CLR,M,M,M,M,M,M,M,M,M,M,M,M,M,M,44.69,KWMC 190356Z AUTO 10003KT 10SM CLR 08/M04 A3001 RMK AO2 SLP158 T00781039,M
NFL,2023-03-19 03:56,-118.7010,39.4166,1199.00,50.00,25.00,37.39,0.00,0.00,0.00,29.97,1012.00,10.00,M,CLR,M,M,M,M,M,M,M,M,M,M,M,M,M,M,50.00,KNFL 190356Z AUTO 00000KT 10SM CLR 10/M04 A2997 RMK AO2 SLP120 T01001039,M
LAS,2023-03-19 03:56,-115.1634,36.0719,663.00,59.00,10.90,14.68,50.00,4.00,0.00,30.10,1018.50,10.00,M,BKN,M,M,M,25000.00,M,M,M,M,M,M,M,M,M,M,59.00,KLAS 190356Z 05004KT 10SM BKN250 15/M12 A3010 RMK AO2 SLP185 T01501117,M
HND,2023-03-19 03:56,-115.1344,35.9729,742.79,53.00,19.90,26.89,170.00,3.00,0.00,30.12,1021.50,10.00,M,CLR,M,M,M,M,M,M,M,M,M,M,M,M,M,M,53.10,KHND 190356Z AUTO 17003KT 10SM CLR 12/M07 A3012 RMK AO2 SLP215 T01171067,M
TPH,2023-03-19 03:56,-117.0904,38.0505,1654.00,42.00,15.10,33.07,170.00,7.00,0.00,30.07,1017.70,10.00,M,CLR,M,M,M,M,M,M,M,M,M,M,M,M,M,M,37.09,KTPH 190356Z AUTO 17007KT 10SM CLR 06/M09 A3007 RMK AO2 SLP177 T00561094,M
BVU,2023-03-19 04:15,-114.8611,35.9475,671.00,57.20,14.00,17.95,20.00,6.00,0.00,30.09,M,10.00,M,CLR,M,M,M,M,M,M,M,M,M,M,M,M,M,M,57.20,KBVU 190415Z AUTO 02006KT 10SM CLR 14/M10 A3009 RMK AO2,M
CXP,2023-03-19 04:15,-119.7326,39.1923,1431.00,46.40,30.20,53.00,0.00,0.00,0.00,30.00,M,9.00,M,CLR,M,M,M,M,M,M,M,M,M,M,M,M,M,M,46.40,KCXP 190415Z AUTO 00000KT 9SM CLR 08/M01 A3000 RMK AO2,M
RTS,2023-03-19 04:15,-119.8764,39.6682,1539.00,44.60,26.60,48.96,0.00,0.00,0.00,30.00,M,10.00,M,CLR,M,M,M,M,M,M,M,M,M,M,M,M,M,M,44.60,KRTS 190415Z AUTO 00000KT 10SM CLR 07/M03 A3000 RMK AO2,M
05U,2023-03-19 04:15,-116.0051,39.6042,1811.23,M,M,M,M,3.00,0.00,30.11,M,10.00,M,CLR,M,M,M,M,M,M,M,M,M,M,M,M,M,M,M,K05U 190415Z AUTO VRB03KT 10SM CLR A3011 RMK A01,M
MEV,2023-03-19 04:15,-119.7500,38.9963,1441.42,42.80,33.80,70.28,0.00,0.00,0.00,29.98,M,10.00,M,FEW,SCT,SCT,M,4300.00,4800.00,5500.00,M,M,M,M,M,M,M,M,42.80,KMEV 190415Z AUTO 00000KT 10SM FEW043 SCT048 SCT055 06/01 A2998 RMK AO2,M
BAM,2023-03-19 04:15,-116.8743,40.5990,1382.36,41.00,26.60,56.22,60.00,15.00,0.00,30.05,M,10.00,M,CLR,M,M,M,M,M,M,M,M,M,M,M,M,M,M,32.45,KBAM 190415Z AUTO 06015KT 10SM CLR 05/M03 A3005 RMK AO1,M
HTH,2023-03-19 04:15,-118.6315,38.5448,1282.89,50.00,21.20,31.87,130.00,12.00,0.00,29.99,M,10.00,M,CLR,M,M,M,M,M,M,M,M,M,M,M,M,M,M,50.00,KHTH 190415Z AUTO 13012KT 10SM CLR 10/M06 A2999 RMK A01,M
TMT,2023-03-19 04:15,-117.1971,39.4643,1749.34,36.50,28.20,71.60,310.00,3.00,0.00,30.05,M,10.00,M,CLR,M,M,M,M,M,M,M,M,M,M,M,M,M,M,33.83,KTMT 190415Z AUTO 31003KT 10SM CLR 03/M02 A3005 RMK AO2 T00251021,M
BVU,2023-03-19 04:35,-114.8611,35.9475,671.00,55.40,17.60,22.41,20.00,5.00,0.00,30.09,M,10.00,M,CLR,M,M,M,M,M,M,M,M,M,M,M,M,M,M,55.40,KBVU 190435Z AUTO 02005KT 10SM CLR 13/M08 A3009 RMK AO2,M
CXP,2023-03-19 04:35,-119.7326,39.1923,1431.00,44.60,30.20,56.74,80.00,3.00,0.00,29.99,M,10.00,M,CLR,M,M,M,M,M,M,M,M,M,M,M,M,M,M,43.09,KCXP 190435Z AUTO 08003KT 10SM CLR 07/M01 A2999 RMK AO2,M
RTS,2023-03-19 04:35,-119.8764,39.6682,1539.00,42.80,26.60,52.45,300.00,5.00,0.00,30.00,M,10.00,M,CLR,M,M,M,M,M,M,M,M,M,M,M,M,M,M,39.22,KRTS 190435Z AUTO 30005KT 10SM CLR 06/M03 A3000 RMK AO2,M
05U,2023-03-19 04:35,-116.0051,39.6042,1811.23,M,M,M,0.00,0.00,0.00,30.10,M,10.00,M,CLR,M,M,M,M,M,M,M,M,M,M,M,M,M,M,M,K05U 190435Z AUTO 00000KT 10SM CLR A3010 RMK A01,M
MEV,2023-03-19 04:35,-119.7500,38.9963,1441.42,42.80,33.80,70.28,0.00,0.00,0.00,29.98,M,10.00,M,FEW,SCT,M,M,4500.00,5000.00,M,M,M,M,M,M,M,M,M,42.80,KMEV 190435Z AUTO 00000KT 10SM FEW045 SCT050 06/01 A2998 RMK AO2,M
BAM,2023-03-19 04:35,-116.8743,40.5990,1382.36,39.20,24.80,55.95,60.00,14.00,0.00,30.06,M,10.00,18.00,CLR,M,M,M,M,M,M,M,M,M,M,M,M,M,M,30.44,KBAM 190435Z AUTO 06014G18KT 10SM CLR 04/M04 A3006 RMK AO1,M
HTH,2023-03-19 04:35,-118.6315,38.5448,1282.89,50.00,21.20,31.87,140.00,10.00,0.00,29.99,M,10.00,M,CLR,M,M,M,M,M,M,M,M,M,M,M,M,M,M,50.00,KHTH 190435Z AUTO 14010KT 10SM CLR 10/M06 A2999 RMK A01,M
TMT,2023-03-19 04:35,-117.1971,39.4643,1749.34,35.40,28.40,75.40,310.00,3.00,0.00,30.05,M,10.00,M,CLR,M,M,M,M,M,M,M,M,M,M,M,M,M,M,32.58,KTMT 190435Z AUTO 31003KT 10SM CLR 02/M02 A3005 RMK AO2 T00191020,M
P68,2023-03-19 04:53,-116.0056,39.6014,1993.00,38.00,15.10,38.93,90.00,5.00,0.00,30.08,1018.10,M,M,M,M,M,M,M,M,M,M,M,M,M,M,M,M,M,33.40,KP68 190453Z AUTO 09005KT 03/M09 A3008 RMK AO1 SLP181 T00331094,M
DRA,2023-03-19 04:53,-116.0278,36.6206,1009.00,50.00,19.00,29.02,100.00,7.00,0.00,30.08,1016.90,10.00,M,CLR,M,M,M,M,M,M,M,M,M,M,M,M,M,M,50.00,KDRA 190453Z AUTO 10007KT 10SM CLR 10/M07 A3008 RMK AO2 SLP169 T01001072,M
ELY,2023-03-19 04:53,-114.8453,39.2950,1909.00,28.90,18.00,63.31,210.00,9.00,0.00,30.14,1022.40,10.00,M,CLR,M,M,M,M,M,M,M,M,M,M,M,M,M,M,19.66,KELY 190453Z AUTO 21009KT 10SM CLR M02/M08 A3014 RMK AO2 SLP224 T10171078 $,M
VGT,2023-03-19 04:53,-115.1933,36.2111,667.00,56.00,17.10,21.53,0.00,0.00,0.00,30.09,1020.20,10.00,M,CLR,M,M,M,M,M,M,M,M,M,M,M,M,M,M,55.90,KVGT 190453Z AUTO 00000KT 10SM CLR 13/M08 A3009 RMK AO2 SLP202 T01331083,M
LOL,2023-03-19 04:53,-118.5701,40.0684,1192.43,43.00,23.00,44.80,0.00,0.00,0.00,29.98,1015.60,10.00,M,CLR,M,M,M,M,M,M,M,M,M,M,M,M,M,M,43.00,KLOL 190453Z AUTO 00000KT 10SM CLR 06/M05 A2998 RMK AO2 SLP156 T00611050,M
BVU,2023-03-19 04:55,-114.8611,35.9475,671.00,53.60,17.60,23.93,20.00,5.00,0.00,30.09,M,10.00,M,CLR,M,M,M,M,M,M,M,M,M,M,M,M,M,M,53.60,KBVU 190455Z AUTO 02005KT 10SM CLR 12/M08 A3009 RMK AO2,M
CXP,2023-03-19 04:55,-119.7326,39.1923,1431.00,44.60,30.20,56.74,0.00,0.00,0.00,29.99,M,10.00,M,CLR,M,M,M,M,M,M,M,M,M,M,M,M,M,M,44.60,KCXP 190455Z AUTO 00000KT 10SM CLR 07/M01 A2999 RMK AO2,M
MEV,2023-03-19 04:55,-119.7500,38.9963,1441.42,42.80,33.80,70.28,110.00,3.00,0.00,29.98,M,10.00,M,FEW,FEW,SCT,M,4300.00,4800.00,5500.00,M,M,M,M,M,M,M,M,41.03,KMEV 190455Z AUTO 11003KT 10SM FEW043 FEW048 SCT055 06/01 A2998 RMK AO2,M
RNO,2023-03-19 04:55,-119.7711,39.4839,1341.00,50.00,28.00,42.33,0.00,0.00,0.00,29.97,1013.50,10.00,M,FEW,BKN,OVC,M,10000.00,12000.00,16000.00,M,M,M,M,M,M,M,M,50.00,KRNO 190455Z 00000KT 10SM FEW100 BKN120 OVC160 10/M02 A2997 RMK AO2 SLP135 T01001022,M
RTS,2023-03-19 04:55,-119.8764,39.6682,1539.00,41.00,28.40,60.54,300.00,5.00,0.00,29.99,M,10.00,M,CLR,M,M,M,M,M,M,M,M,M,M,M,M,M,M,37.08,KRTS 190455Z AUTO 30005KT 10SM CLR 05/M02 A2999 RMK AO2,M
05U,2023-03-19 04:55,-116.0051,39.6042,1811.23,M,M,M,90.00,4.00,0.00,30.10,M,10.00,M,CLR,M,M,M,M,M,M,M,M,M,M,M,M,M,M,M,K05U 190455Z AUTO 09004KT 10SM CLR A3010 RMK A01,M
BAM,2023-03-19 04:55,-116.8743,40.5990,1382.36,39.20,24.80,55.95,60.00,15.00,0.00,30.05,M,10.00,20.00,CLR,M,M,M,M,M,M,M,M,M,M,M,M,M,M,30.11,KBAM 190455Z AUTO 06015G20KT 10SM CLR 04/M04 A3005 RMK AO1,M
HTH,2023-03-19 04:55,-118.6315,38.5448,1282.89,50.00,23.00,34.39,150.00,8.00,0.00,29.99,M,10.00,M,CLR,M,M,M,M,M,M,M,M,M,M,M,M,M,M,50.00,KHTH 190455Z AUTO 15008KT 10SM CLR 10/M05 A2999 RMK A01,M
TMT,2023-03-19 04:55,-117.1971,39.4643,1749.34,34.70,28.40,77.53,320.00,3.00,0.00,30.05,M,10.00,M,CLR,M,M,M,M,M,M,M,M,M,M,M,M,M,M,31.78,KTMT 190455Z AUTO 32003KT 10SM CLR 02/M02 A3005 RMK AO2 T00151020,M
INS,2023-03-19 04:55,-115.6733,36.5872,955.00,52.50,7.50,15.95,130.00,10.00,0.00,30.08,1017.00,10.00,M,CLR,M,M,M,M,M,M,M,M,M,M,M,M,M,M,52.50,KINS 190455Z AUTO 13010KT 10SM CLR 11/M14 A3008 RMK AO2 SLP170 T01141136 $,M
LSV,2023-03-19 04:55,-115.0343,36.2362,570.00,53.00,17.10,24.03,60.00,5.00,0.00,30.07,1017.70,10.00,M,CLR,M,M,M,M,M,M,M,M,M,M,M,M,M,M,52.90,KLSV 190455Z AUTO 06005KT 10SM CLR 12/M08 A3007 RMK AO2 SLP177 T01161083 $,M
EKO,2023-03-19 04:56,-115.7860,40.8242,1367.00,32.00,21.90,65.92,30.00,3.00,0.00,30.10,1021.40,10.00,M,CLR,M,M,M,M,M,M,M,M,M,M,M,M,M,M,28.69,KEKO 190456Z AUTO 03003KT 10SM CLR 00/M06 A3010 RMK AO2 SLP214 T00001056,M
NFL,2023-03-19 04:56,-118.7010,39.4166,1199.00,46.00,27.00,47.20,0.00,0.00,0.00,29.97,1011.90,10.00,M,CLR,M,M,M,M,M,M,M,M,M,M,M,M,M,M,46.00,KNFL 190456Z AUTO 00000KT 10SM CLR 08/M03 A2997 RMK AO2 SLP119 T00781028,M
HND,2023-03-19 04:56,-115.1344,35.9729,742.79,51.00,21.90,31.52,210.00,4.00,0.00,30.12,1021.40,10.00,M,CLR,M,M,M,M,M,M,M,M,M,M,M,M,M,M,51.10,KHND 190456Z AUTO 21004KT 10SM CLR 11/M06 A3012 RMK AO2 SLP214 T01061056,M
LAS,2023-03-19 04:56,-115.1634,36.0719,663.00,57.00,12.00,16.56,280.00,6.00,0.00,30.09,1018.40,10.00,M,BKN,M,M,M,25000.00,M,M,M,M,M,M,M,M,M,M,57.00,KLAS 190456Z 28006KT 10SM BKN250 14/M11 A3009 RMK AO2 SLP184 T01391111,M
WMC,2023-03-19 04:56,-117.8072,40.9019,1315.00,42.00,26.10,52.78,80.00,6.00,0.00,30.01,1015.70,10.00,M,CLR,M,M,M,M,M,M,M,M,M,M,M,M,M,M,37.69,KWMC 190456Z AUTO 08006KT 10SM CLR 06/M03 A3001 RMK AO2 SLP157 T00561033,M
TPH,2023-03-19 04:56,-117.0904,38.0505,1654.00,42.00,17.10,36.07,160.00,9.00,0.00,30.08,1017.60,10.00,M,CLR,M,M,M,M,M,M,M,M,M,M,M,M,M,M,36.07,KTPH 190456Z AUTO 16009KT 10SM CLR 06/M08 A3008 RMK AO2 SLP176 T00561083,M
BVU,2023-03-19 05:15,-114.8611,35.9475,671.00,53.60,19.40,25.85,20.00,6.00,0.00,30.09,M,10.00,M,CLR,M,M,M,M,M,M,M,M,M,M,M,M,M,M,53.60,KBVU 190515Z AUTO 02006KT 10SM CLR 12/M07 A3009 RMK AO2,M
CXP,2023-03-19 05:15,-119.7326,39.1923,1431.00,44.60,28.40,52.72,0.00,0.00,0.00,29.99,M,10.00,M,CLR,M,M,M,M,M,M,M,M,M,M,M,M,M,M,44.60,KCXP 190515Z AUTO 00000KT 10SM CLR 07/M02 A2999 RMK AO2,M
RTS,2023-03-19 05:15,-119.8764,39.6682,1539.00,39.20,30.20,69.88,330.00,4.00,0.00,29.99,M,10.00,M,CLR,M,M,M,M,M,M,M,M,M,M,M,M,M,M,35.83,KRTS 190515Z AUTO 33004KT 10SM CLR 04/M01 A2999 RMK AO2,M
05U,2023-03-19 05:15,-116.0051,39.6042,1811.23,M,M,M,160.00,8.00,0.00,30.10,M,10.00,M,CLR,M,M,M,M,M,M,M,M,M,M,M,M,M,M,M,K05U 190515Z AUTO 16008KT 10SM CLR A3010 RMK A01,M
MEV,2023-03-19 05:15,-119.7500,38.9963,1441.42,39.20,33.80,80.79,120.00,6.00,0.00,29.98,M,10.00,M,FEW,FEW,BKN,M,4600.00,5500.00,11000.00,M,M,M,M,M,M,M,M,34.20,KMEV 190515Z AUTO 12006KT 10SM FEW046 FEW055 BKN110 04/01 A2998 RMK AO2,M
BAM,2023-03-19 05:15,-116.8743,40.5990,1382.36,39.20,24.80,55.95,60.00,14.00,0.00,30.05,M,10.00,M,CLR,M,M,M,M,M,M,M,M,M,M,M,M,M,M,30.44,KBAM 190515Z AUTO 06014KT 10SM CLR 04/M04 A3005 RMK AO1,M
HTH,2023-03-19 05:15,-118.6315,38.5448,1282.89,50.00,21.20,31.87,160.00,8.00,0.00,29.99,M,10.00,M,CLR,M,M,M,M,M,M,M,M,M,M,M,M,M,M,50.00,KHTH 190515Z AUTO 16008KT 10SM CLR 10/M06 A2999 RMK A01,M
TMT,2023-03-19 05:15,-117.1971,39.4643,1749.34,34.70,28.20,76.90,0.00,0.00,0.00,30.05,M,10.00,M,CLR,M,M,M,M,M,M,M,M,M,M,M,M,M,M,34.70,KTMT 190515Z AUTO 00000KT 10SM CLR 02/M02 A3005 RMK AO2 T00151021,M
CXP,2023-03-19 05:30,-119.7326,39.1923,1431.00,42.80,32.00,65.38,0.00,0.00,0.00,29.99,M,10.00,M,SCT,M,M,M,12000.00,M,M,M,M,M,M,M,M,M,M,42.80,KCXP 190530Z AUTO 00000KT 10SM SCT120 06/M00 A2999 RMK AO2,M
BVU,2023-03-19 05:35,-114.8611,35.9475,671.00,53.60,17.60,23.93,0.00,0.00,0.00,30.09,M,10.00,M,CLR,M,M,M,M,M,M,M,M,M,M,M,M,M,M,53.60,KBVU 190535Z AUTO 00000KT 10SM CLR 12/M08 A3009 RMK AO2,M
RTS,2023-03-19 05:35,-119.8764,39.6682,1539.00,37.40,32.00,80.65,320.00,5.00,0.00,29.98,M,10.00,M,BKN,M,M,M,12000.00,M,M,M,M,M,M,M,M,M,M,32.81,KRTS 190535Z AUTO 32005KT 10SM BKN120 03/M00 A2998 RMK AO2,M
05U,2023-03-19 05:35,-116.0051,39.6042,1811.23,M,M,M,130.00,8.00,0.00,30.10,M,10.00,M,CLR,M,M,M,M,M,M,M,M,M,M,M,M,M,M,M,K05U 190535Z AUTO 13008KT 10SM CLR A3010 RMK A01,M
MEV,2023-03-19 05:35,-119.7500,38.9963,1441.42,39.20,32.00,75.16,130.00,4.00,0.00,29.97,M,9.00,M,FEW,FEW,OVC,M,4500.00,5000.00,11000.00,M,M,M,M,M,M,M,M,35.83,KMEV 190535Z AUTO 13004KT 9SM FEW045 FEW050 OVC110 04/00 A2997 RMK AO2,M
BAM,2023-03-19 05:35,-116.8743,40.5990,1382.36,39.20,24.80,55.95,60.00,13.00,0.00,30.05,M,10.00,M,CLR,M,M,M,M,M,M,M,M,M,M,M,M,M,M,30.79,KBAM 190535Z AUTO 06013KT 10SM CLR 04/M04 A3005 RMK AO1,M
HTH,2023-03-19 05:35,-118.6315,38.5448,1282.89,50.00,21.20,31.87,140.00,13.00,0.00,29.99,M,10.00,M,CLR,M,M,M,M,M,M,M,M,M,M,M,M,M,M,50.00,KHTH 190535Z AUTO 14013KT 10SM CLR 10/M06 A2999 RMK A01,M
TMT,2023-03-19 05:35,-117.1971,39.4643,1749.34,32.50,28.20,83.97,100.00,3.00,0.00,30.05,M,10.00,M,CLR,M,M,M,M,M,M,M,M,M,M,M,M,M,M,29.26,KTMT 190535Z AUTO 10003KT 10SM CLR 00/M02 A3005 RMK AO2 T00031021,M
P68,2023-03-19 05:53,-116.0056,39.6014,1993.00,36.00,17.10,45.77,120.00,7.00,0.00,30.07,1017.20,M,M,M,M,M,M,M,M,M,M,M,M,M,M,M,M,M,29.65,KP68 190553Z AUTO 12007KT 02/M08 A3007 RMK AO1 SLP172 T00221083 10083 20022 58001,M
DRA,2023-03-19 05:53,-116.0278,36.6206,1009.00,48.00,24.10,38.80,0.00,0.00,0.00,30.08,1016.90,10.00,M,CLR,M,M,M,M,M,M,M,M,M,M,M,M,M,M,48.00,KDRA 190553Z AUTO 00000KT 10SM CLR 09/M04 A3008 RMK AO2 SLP169 T00891044 10161 20089 53002,M
ELY,2023-03-19 05:53,-114.8453,39.2950,1909.00,26.10,19.00,74.16,180.00,10.00,0.00,30.11,1021.50,10.00,M,CLR,M,M,M,M,M,M,M,M,M,M,M,M,M,M,15.57,KELY 190553Z AUTO 18010KT 10SM CLR M03/M07 A3011 RMK AO2 SLP215 T10331072 10044 21033 58005 $,M
VGT,2023-03-19 05:53,-115.1933,36.2111,667.00,54.00,18.00,23.99,310.00,3.00,0.00,30.08,1020.00,10.00,M,CLR,M,M,M,M,M,M,M,M,M,M,M,M,M,M,54.00,KVGT 190553Z AUTO 31003KT 10SM CLR 12/M08 A3008 RMK AO2 SLP200 T01221078 10178 20122 58004,M
LOL,2023-03-19 05:53,-118.5701,40.0684,1192.43,36.00,17.10,45.77,110.00,3.00,0.00,29.97,1015.00,10.00,M,CLR,M,M,M,M,M,M,M,M,M,M,M,M,M,M,33.26,KLOL 190553Z AUTO 11003KT 10SM CLR 02/M08 A2997 RMK AO2 SLP150 T00221083 10133 20022 58004,M
BVU,2023-03-19 05:55,-114.8611,35.9475,671.00,51.80,19.40,27.62,0.00,0.00,0.00,30.09,M,10.00,M,CLR,M,M,M,M,M,M,M,M,M,M,M,M,M,M,51.80,KBVU 190555Z AUTO 00000KT 10SM CLR 11/M07 A3009 RMK AO2,M
CXP,2023-03-19 05:55,-119.7326,39.1923,1431.00,42.80,32.00,65.38,0.00,0.00,0.00,29.99,M,10.00,M,SCT,M,M,M,11000.00,M,M,M,M,M,M,M,M,M,M,42.80,KCXP 190555Z AUTO 00000KT 10SM SCT110 06/M00 A2999 RMK AO2,M
RNO,2023-03-19 05:55,-119.7711,39.4839,1341.00,48.00,28.00,45.61,270.00,4.00,0.00,29.97,1013.00,10.00,M,BKN,OVC,M,M,12000.00,17000.00,M,M,M,M,M,M,M,M,M,46.10,KRNO 190555Z 27004KT 10SM BKN120 OVC170 09/M02 A2997 RMK AO2 SLP130 T00891022 10144 20089 58003,M
RTS,2023-03-19 05:55,-119.8764,39.6682,1539.00,37.40,30.20,74.98,340.00,4.00,0.00,29.98,M,10.00,M,BKN,M,M,M,12000.00,M,M,M,M,M,M,M,M,M,M,33.73,KRTS 190555Z AUTO 34004KT 10SM BKN120 03/M01 A2998 RMK AO2,M
05U,2023-03-19 05:55,-116.0051,39.6042,1811.23,M,M,M,130.00,7.00,0.00,30.10,M,10.00,M,CLR,M,M,M,M,M,M,M,M,M,M,M,M,M,M,M,K05U 190555Z AUTO 13007KT 10SM CLR A3010 RMK A01,M
MEV,2023-03-19 05:55,-119.7500,38.9963,1441.42,41.00,32.00,70.08,0.00,0.00,0.00,29.97,M,10.00,M,FEW,BKN,M,M,6000.00,11000.00,M,M,M,M,M,M,M,M,M,41.00,KMEV 190555Z AUTO 00000KT 10SM FEW060 BKN110 05/00 A2997 RMK AO2,M
BAM,2023-03-19 05:55,-116.8743,40.5990,1382.36,39.20,24.80,55.95,60.00,16.00,0.00,30.04,M,10.00,20.00,CLR,M,M,M,M,M,M,M,M,M,M,M,M,M,M,29.80,KBAM 190555Z AUTO 06016G20KT 10SM CLR 04/M04 A3004 RMK AO1,M
HTH,2023-03-19 05:55,-118.6315,38.5448,1282.89,48.20,21.20,34.09,140.00,13.00,0.00,29.99,M,10.00,M,FEW,M,M,M,12000.00,M,M,M,M,M,M,M,M,M,M,42.32,KHTH 190555Z AUTO 14013KT 10SM FEW120 09/M06 A2999 RMK A01,M
TMT,2023-03-19 05:55,-117.1971,39.4643,1749.34,33.00,27.70,80.95,120.00,3.00,0.00,30.05,M,10.00,M,CLR,M,M,M,M,M,M,M,M,M,M,M,M,M,M,29.72,KTMT 190555Z AUTO 12003KT 10SM CLR 01/M02 A3005 RMK AO2 T00051024 10101 20003,M
LSV,2023-03-19 05:55,-115.0343,36.2362,570.00,52.20,17.40,24.97,60.00,3.00,0.00,30.06,1017.40,10.00,M,CLR,M,M,M,M,M,M,M,M,M,M,M,M,M,M,52.20,KLSV 190555Z AUTO 06003KT 10SM CLR 11/M08 A3006 RMK AO2 SLP174 T01121081 10186 20112 58004 $,M
INS,2023-03-19 05:55,-115.6733,36.5872,955.00,51.00,10.00,18.93,80.00,7.00,0.00,30.07,1016.50,10.00,M,CLR,M,M,M,M,M,M,M,M,M,M,M,M,M,M,50.90,KINS 190555Z AUTO 08007KT 10SM CLR 11/M12 A3007 RMK AO2 SLP165 T01051122 10155 20096 57007 $,M
EKO,2023-03-19 05:56,-115.7860,40.8242,1367.00,30.00,21.90,71.48,0.00,0.00,0.00,30.09,1020.60,10.00,M,CLR,M,M,M,M,M,M,M,M,M,M,M,M,M,M,30.00,KEKO 190556Z AUTO 00000KT 10SM CLR M01/M06 A3009 RMK AO2 SLP206 T10111056 10061 21011 58004,M
WMC,2023-03-19 05:56,-117.8072,40.9019,1315.00,43.00,25.00,48.70,60.00,9.00,0.00,30.00,1015.20,10.00,M,CLR,M,M,M,M,M,M,M,M,M,M,M,M,M,M,37.19,KWMC 190556Z AUTO 06009KT 10SM CLR 06/M04 A3000 RMK AO2 SLP152 T00611039 10139 20050 58000,M
TPH,2023-03-19 05:56,-117.0904,38.0505,1654.00,41.00,16.00,35.88,160.00,8.00,0.00,30.09,1017.30,10.00,M,CLR,M,M,M,M,M,M,M,M,M,M,M,M,M,M,35.20,KTPH 190556Z AUTO 16008KT 10SM CLR 05/M09 A3009 RMK AO2 SLP173 T00501089 10111 20050 53004,M
LAS,2023-03-19 05:56,-115.1634,36.0719,663.00,55.00,15.10,20.40,230.00,3.00,0.00,30.09,1018.20,10.00,M,BKN,M,M,M,25000.00,M,M,M,M,M,M,M,M,M,M,55.00,KLAS 190556Z 23003KT 10SM BKN250 13/M09 A3009 RMK AO2 SLP182 T01281094 10172 20128 58004,M
NFL,2023-03-19 05:56,-118.7010,39.4166,1199.00,49.00,19.90,31.42,140.00,4.00,0.00,29.95,1011.50,10.00,M,CLR,M,M,M,M,M,M,M,M,M,M,M,M,M,M,47.16,KNFL 190556Z AUTO 14004KT 10SM CLR 09/M07 A2995 RMK AO2 SLP115 T00941067 10150 20078 58004,M
HND,2023-03-19 05:56,-115.1344,35.9729,742.79,49.00,21.90,34.20,160.00,5.00,0.00,30.11,1021.10,10.00,M,CLR,M,M,M,M,M,M,M,M,M,M,M,M,M,M,46.47,KHND 190556Z AUTO 16005KT 10SM CLR 09/M06 A3011 RMK AO2 SLP211 T00941056 10167 20094 58002,M
BVU,2023-03-19 06:15,-114.8611,35.9475,671.00,51.80,21.20,29.82,0.00,0.00,0.00,30.08,M,10.00,M,CLR,M,M,M,M,M,M,M,M,M,M,M,M,M,M,51.80,KBVU 190615Z AUTO 00000KT 10SM CLR 11/M06 A3008 RMK AO2,M
CXP,2023-03-19 06:15,-119.7326,39.1923,1431.00,42.80,30.20,60.79,0.00,0.00,0.00,29.98,M,10.00,M,BKN,M,M,M,11000.00,M,M,M,M,M,M,M,M,M,M,42.80,KCXP 190615Z AUTO 00000KT 10SM BKN110 06/M01 A2998 RMK AO2,M
RTS,2023-03-19 06:15,-119.8764,39.6682,1539.00,39.20,30.20,69.88,360.00,6.00,0.00,29.98,M,10.00,M,FEW,M,M,M,11000.00,M,M,M,M,M,M,M,M,M,M,34.20,KRTS 190615Z AUTO 36006KT 10SM FEW110 04/M01 A2998 RMK AO2,M
05U,2023-03-19 06:15,-116.0051,39.6042,1811.23,35.60,15.80,43.95,130.00,10.00,0.00,30.10,M,10.00,M,CLR,M,M,M,M,M,M,M,M,M,M,M,M,M,M,27.48,K05U 190615Z AUTO 13010KT 10SM CLR 02/M09 A3010 RMK A01,M
MEV,2023-03-19 06:15,-119.7500,38.9963,1441.42,39.20,33.80,80.79,110.00,5.00,0.00,29.96,M,10.00,M,FEW,BKN,M,M,5500.00,11000.00,M,M,M,M,M,M,M,M,M,34.95,KMEV 190615Z AUTO 11005KT 10SM FEW055 BKN110 04/01 A2996 RMK AO2,M
BAM,2023-03-19 06:15,-116.8743,40.5990,1382.36,39.20,23.00,51.89,70.00,14.00,0.00,30.04,M,10.00,M,CLR,M,M,M,M,M,M,M,M,M,M,M,M,M,M,30.44,KBAM 190615Z AUTO 07014KT 10SM CLR 04/M05 A3004 RMK AO1,M
HTH,2023-03-19 06:15,-118.6315,38.5448,1282.89,50.00,21.20,31.87,160.00,15.00,0.00,29.98,M,10.00,M,FEW,M,M,M,12000.00,M,M,M,M,M,M,M,M,M,M,50.00,KHTH 190615Z AUTO 16015KT 10SM FEW120 10/M06 A2998 RMK A01,M
TMT,2023-03-19 06:15,-117.1971,39.4643,1749.34,34.00,26.60,74.03,260.00,3.00,0.00,30.04,M,10.00,M,CLR,M,M,M,M,M,M,M,M,M,M,M,M,M,M,30.97,KTMT 190615Z AUTO 26003KT 10SM CLR 01/M03 A3004 RMK AO2 T00111030,M
BVU,2023-03-19 06:35,-114.8611,35.9475,671.00,50.00,21.20,31.87,0.00,0.00,0.00,30.08,M,10.00,M,CLR,M,M,M,M,M,M,M,M,M,M,M,M,M,M,50.00,KBVU 190635Z AUTO 00000KT 10SM CLR 10/M06 A3008 RMK AO2,M
CXP,2023-03-19 06:35,-119.7326,39.1923,1431.00,42.80,32.00,65.38,0.00,0.00,0.00,29.97,M,10.00,M,OVC,M,M,M,10000.00,M,M,M,M,M,M,M,M,M,M,42.80,KCXP 190635Z AUTO 00000KT 10SM OVC100 06/M00 A2997 RMK AO2,M
RTS,2023-03-19 06:35,-119.8764,39.6682,1539.00,39.20,28.40,64.93,350.00,4.00,0.00,29.97,M,10.00,M,CLR,M,M,M,M,M,M,M,M,M,M,M,M,M,M,35.83,KRTS 190635Z AUTO 35004KT 10SM CLR 04/M02 A2997 RMK AO2,M
05U,2023-03-19 06:35,-116.0051,39.6042,1811.23,M,M,M,120.00,9.00,0.00,30.10,M,10.00,M,CLR,M,M,M,M,M,M,M,M,M,M,M,M,M,M,M,K05U 190635Z AUTO 12009KT 10SM CLR A3010 RMK A01,M
MEV,2023-03-19 06:35,-119.7500,38.9963,1441.42,37.40,32.00,80.65,130.00,5.00,0.00,29.96,M,10.00,M,FEW,BKN,OVC,M,4700.00,10000.00,12000.00,M,M,M,M,M,M,M,M,32.81,KMEV 190635Z AUTO 13005KT 10SM FEW047 BKN100 OVC120 03/00 A2996 RMK AO2,M
BAM,2023-03-19 06:35,-116.8743,40.5990,1382.36,39.20,24.80,55.95,60.00,13.00,0.00,30.04,M,10.00,M,CLR,M,M,M,M,M,M,M,M,M,M,M,M,M,M,30.79,KBAM 190635Z AUTO 06013KT 10SM CLR 04/M04 A3004 RMK AO1,M
HTH,2023-03-19 06:35,-118.6315,38.5448,1282.89,50.00,19.40,29.52,150.00,17.00,0.00,29.97,M,10.00,M,BKN,M,M,M,11000.00,M,M,M,M,M,M,M,M,M,M,50.00,KHTH 190635Z AUTO 15017KT 10SM BKN110 10/M07 A2997 RMK A01,M
TMT,2023-03-19 06:35,-117.1971,39.4643,1749.34,31.80,28.40,87.09,0.00,0.00,0.00,30.03,M,10.00,M,CLR,M,M,M,M,M,M,M,M,M,M,M,M,M,M,31.80,KTMT 190635Z AUTO 00000KT 10SM CLR 00/M02 A3003 RMK AO2 T10011020,M
P68,2023-03-19 06:53,-116.0056,39.6014,1993.00,37.00,17.10,43.99,120.00,9.00,0.00,30.07,1016.10,M,M,M,M,M,M,M,M,M,M,M,M,M,M,M,M,M,29.73,KP68 190653Z AUTO 12009KT 03/M08 A3007 RMK AO1 SLP161 T00281083,M
ELY,2023-03-19 06:53,-114.8453,39.2950,1909.00,25.00,18.00,74.36,190.00,11.00,0.00,30.11,1021.00,10.00,M,CLR,M,M,M,M,M,M,M,M,M,M,M,M,M,M,13.62,KELY 190653Z AUTO 19011KT 10SM CLR M04/M08 A3011 RMK AO2 SLP210 T10391078 $,M
VGT,2023-03-19 06:53,-115.1933,36.2111,667.00,53.00,18.00,24.79,300.00,3.00,0.00,30.07,1019.60,10.00,M,CLR,M,M,M,M,M,M,M,M,M,M,M,M,M,M,53.10,KVGT 190653Z AUTO 30003KT 10SM CLR 12/M08 A3007 RMK AO2 SLP196 T01171078,M
LOL,2023-03-19 06:53,-118.5701,40.0684,1192.43,36.00,21.90,56.18,0.00,0.00,0.00,29.95,1014.50,10.00,M,CLR,M,M,M,M,M,M,M,M,M,M,M,M,M,M,36.00,KLOL 190653Z AUTO 00000KT 10SM CLR 02/M06 A2995 RMK AO2 SLP145 T00221056,M
DRA,2023-03-19 06:53,-116.0278,36.6206,1009.00,49.00,24.10,37.52,40.00,5.00,0.00,30.08,1016.50,10.00,M,CLR,M,M,M,M,M,M,M,M,M,M,M,M,M,M,46.47,KDRA 190653Z AUTO 04005KT 10SM CLR 09/M04 A3008 RMK AO2 SLP165 T00941044,M
BVU,2023-03-19 06:55,-114.8611,35.9475,671.00,51.80,15.80,23.65,0.00,0.00,0.00,30.08,M,10.00,M,CLR,M,M,M,M,M,M,M,M,M,M,M,M,M,M,51.80,KBVU 190655Z AUTO 00000KT 10SM CLR 11/M09 A3008 RMK AO2,M
CXP,2023-03-19 06:55,-119.7326,39.1923,1431.00,41.00,30.20,65.16,0.00,0.00,0.00,29.97,M,10.00,M,BKN,M,M,M,11000.00,M,M,M,M,M,M,M,M,M,M,41.00,KCXP 190655Z AUTO 00000KT 10SM BKN110 05/M01 A2997 RMK AO2,M
RTS,2023-03-19 06:55,-119.8764,39.6682,1539.00,39.20,28.40,64.93,40.00,3.00,0.00,29.96,M,10.00,M,CLR,M,M,M,M,M,M,M,M,M,M,M,M,M,M,36.92,KRTS 190655Z AUTO 04003KT 10SM CLR 04/M02 A2996 RMK AO2,M
05U,2023-03-19 06:55,-116.0051,39.6042,1811.23,M,M,M,130.00,8.00,0.00,30.09,M,10.00,M,CLR,M,M,M,M,M,M,M,M,M,M,M,M,M,M,M,K05U 190655Z AUTO 13008KT 10SM CLR A3009 RMK A01,M
MEV,2023-03-19 06:55,-119.7500,38.9963,1441.42,39.20,32.00,75.16,120.00,5.00,0.00,29.95,M,10.00,M,FEW,BKN,OVC,M,7500.00,9500.00,11000.00,M,M,M,M,M,M,M,M,34.95,KMEV 190655Z AUTO 12005KT 10SM FEW075 BKN095 OVC110 04/00 A2995 RMK AO2,M
BAM,2023-03-19 06:55,-116.8743,40.5990,1382.36,39.20,23.00,51.89,70.00,14.00,0.00,30.03,M,10.00,M,CLR,M,M,M,M,M,M,M,M,M,M,M,M,M,M,30.44,KBAM 190655Z AUTO 07014KT 10SM CLR 04/M05 A3003 RMK AO1,M
HTH,2023-03-19 06:55,-118.6315,38.5448,1282.89,50.00,19.40,29.52,150.00,18.00,0.00,29.97,M,10.00,M,BKN,M,M,M,11000.00,M,M,M,M,M,M,M,M,M,M,50.00,KHTH 190655Z AUTO 15018KT 10SM BKN110 10/M07 A2997 RMK A01,M
TMT,2023-03-19 06:55,-117.1971,39.4643,1749.34,31.80,28.00,85.67,280.00,3.00,0.00,30.03,M,10.00,M,CLR,M,M,M,M,M,M,M,M,M,M,M,M,M,M,28.46,KTMT 190655Z AUTO 28003KT 10SM CLR 00/M02 A3003 RMK AO2 T10011022,M
INS,2023-03-19 06:55,-115.6733,36.5872,955.00,48.00,12.00,23.06,260.00,4.00,0.00,30.08,1016.80,10.00,M,CLR,M,M,M,M,M,M,M,M,M,M,M,M,M,M,46.10,KINS 190655Z AUTO 26004KT 10SM CLR 09/M11 A3008 RMK AO2 SLP168 T00891111 $,M
LSV,2023-03-19 06:55,-115.0343,36.2362,570.00,49.80,17.20,27.06,0.00,0.00,0.00,30.06,1017.40,10.00,M,CLR,M,M,M,M,M,M,M,M,M,M,M,M,M,M,49.80,KLSV 190655Z AUTO 00000KT 10SM CLR 10/M08 A3006 RMK AO2 SLP174 T00991082 $,M
RNO,2023-03-19 06:55,-119.7711,39.4839,1341.00,47.00,28.00,47.54,260.00,3.00,0.00,29.94,1011.90,10.00,M,BKN,M,M,M,15000.00,M,M,M,M,M,M,M,M,M,M,45.72,KRNO 190655Z 26003KT 10SM BKN150 08/M02 A2994 RMK AO2 SLP119 T00831022,M
EKO,2023-03-19 06:56,-115.7860,40.8242,1367.00,30.00,21.00,68.81,20.00,4.00,0.00,30.08,1020.20,10.00,M,CLR,M,M,M,M,M,M,M,M,M,M,M,M,M,M,25.08,KEKO 190656Z AUTO 02004KT 10SM CLR M01/M06 A3008 RMK AO2 SLP202 T10111061,M
NFL,2023-03-19 06:56,-118.7010,39.4166,1199.00,48.00,19.90,32.50,160.00,4.00,0.00,29.95,1011.30,10.00,M,CLR,M,M,M,M,M,M,M,M,M,M,M,M,M,M,46.10,KNFL 190656Z AUTO 16004KT 10SM CLR 09/M07 A2995 RMK AO2 SLP113 T00891067,M
HND,2023-03-19 06:56,-115.1344,35.9729,742.79,48.00,21.90,35.38,170.00,6.00,0.00,30.10,1020.70,10.00,M,CLR,M,M,M,M,M,M,M,M,M,M,M,M,M,M,44.80,KHND 190656Z AUTO 17006KT 10SM CLR 09/M06 A3010 RMK AO2 SLP207 T00891056 401720033,M
LAS,2023-03-19 06:56,-115.1634,36.0719,663.00,54.00,15.10,21.16,0.00,0.00,0.00,30.08,1017.90,10.00,M,BKN,M,M,M,25000.00,M,M,M,M,M,M,M,M,M,M,54.00,KLAS 190656Z 00000KT 10SM BKN250 12/M09 A3008 RMK AO2 SLP179 T01221094,M
WMC,2023-03-19 06:56,-117.8072,40.9019,1315.00,42.00,25.00,50.42,70.00,9.00,0.00,29.98,1014.00,10.00,M,CLR,M,M,M,M,M,M,M,M,M,M,M,M,M,M,36.07,KWMC 190656Z AUTO 07009KT 10SM CLR 06/M04 A2998 RMK AO2 SLP140 T00561039,M
TPH,2023-03-19 06:56,-117.0904,38.0505,1654.00,40.00,18.00,40.82,130.00,8.00,0.00,30.07,1016.70,10.00,M,CLR,M,M,M,M,M,M,M,M,M,M,M,M,M,M,33.84,KTPH 190656Z AUTO 13008KT 10SM CLR 04/M08 A3007 RMK AO2 SLP167 T00441078,M
BVU,2023-03-19 07:15,-114.8611,35.9475,671.00,51.80,15.80,23.65,0.00,0.00,0.00,30.08,M,10.00,M,CLR,M,M,M,M,M,M,M,M,M,M,M,M,M,M,51.80,KBVU 190715Z AUTO 00000KT 10SM CLR 11/M09 A3008 RMK AO2,M
CXP,2023-03-19 07:15,-119.7326,39.1923,1431.00,42.80,30.20,60.79,0.00,0.00,0.00,29.96,M,9.00,M,BKN,M,M,M,12000.00,M,M,M,M,M,M,M,M,M,M,42.80,KCXP 190715Z AUTO 00000KT 9SM BKN120 06/M01 A2996 RMK AO2,M
RTS,2023-03-19 07:15,-119.8764,39.6682,1539.00,37.40,30.20,74.98,320.00,3.00,0.00,29.95,M,10.00,M,SCT,M,M,M,12000.00,M,M,M,M,M,M,M,M,M,M,34.86,KRTS 190715Z AUTO 32003KT 10SM SCT120 03/M01 A2995 RMK AO2,M
05U,2023-03-19 07:15,-116.0051,39.6042,1811.23,M,M,M,140.00,5.00,0.00,30.08,M,10.00,M,CLR,M,M,M,M,M,M,M,M,M,M,M,M,M,M,M,K05U 190715Z AUTO 14005KT 10SM CLR A3008 RMK A01,M
MEV,2023-03-19 07:15,-119.7500,38.9963,1441.42,39.20,33.80,80.79,110.00,6.00,0.00,29.95,M,10.00,M,FEW,BKN,M,M,8000.00,11000.00,M,M,M,M,M,M,M,M,M,34.20,KMEV 190715Z AUTO 11006KT 10SM FEW080 BKN110 04/01 A2995 RMK AO2,M
BAM,2023-03-19 07:15,-116.8743,40.5990,1382.36,39.20,23.00,51.89,60.00,12.00,0.00,30.02,M,10.00,M,CLR,M,M,M,M,M,M,M,M,M,M,M,M,M,M,31.17,KBAM 190715Z AUTO 06012KT 10SM CLR 04/M05 A3002 RMK AO1,M
HTH,2023-03-19 07:15,-118.6315,38.5448,1282.89,50.00,19.40,29.52,160.00,20.00,0.00,29.96,M,10.00,M,BKN,M,M,M,12000.00,M,M,M,M,M,M,M,M,M,M,50.00,KHTH 190715Z AUTO 16020KT 10SM BKN120 10/M07 A2996 RMK A01,M
TMT,2023-03-19 07:15,-117.1971,39.4643,1749.34,31.50,27.50,84.95,0.00,0.00,0.00,30.02,M,10.00,M,CLR,M,M,M,M,M,M,M,M,M,M,M,M,M,M,31.50,KTMT 190715Z AUTO 00000KT 10SM CLR 00/M02 A3002 RMK AO2 T10031025,M
HTH,2023-03-19 07:30,-118.6315,38.5448,1282.89,50.00,17.60,27.33,140.00,20.00,0.00,29.96,M,10.00,M,FEW,M,M,M,12000.00,M,M,M,M,M,M,M,M,M,M,50.00,KHTH 190730Z AUTO 14020KT 10SM FEW120 10/M08 A2996 RMK A01,M
05U,2023-03-19 07:35,-116.0051,39.6042,1811.23,M,M,M,140.00,9.00,0.00,30.08,M,10.00,M,CLR,M,M,M,M,M,M,M,M,M,M,M,M,M,M,M,K05U 190735Z AUTO 14009KT 10SM CLR A3008 RMK A01,M
MEV,2023-03-19 07:35,-119.7500,38.9963,1441.42,39.20,32.00,75.16,120.00,7.00,0.00,29.94,M,10.00,M,BKN,BKN,M,M,9500.00,12000.00,M,M,M,M,M,M,M,M,M,33.56,KMEV 190735Z AUTO 12007KT 10SM BKN095 BKN120 04/00 A2994 RMK AO2,M
BVU,2023-03-19 07:35,-114.8611,35.9475,671.00,51.80,17.60,25.56,0.00,0.00,0.00,30.08,M,10.00,M,CLR,M,M,M,M,M,M,M,M,M,M,M,M,M,M,51.80,KBVU 190735Z AUTO 00000KT 10SM CLR 11/M08 A3008 RMK AO2,M
CXP,2023-03-19 07:35,-119.7326,39.1923,1431.00,42.80,32.00,65.38,0.00,0.00,0.00,29.95,M,10.00,M,BKN,M,M,M,12000.00,M,M,M,M,M,M,M,M,M,M,42.80,KCXP 190735Z AUTO 00000KT 10SM BKN120 06/M00 A2995 RMK AO2,M
RTS,2023-03-19 07:35,-119.8764,39.6682,1539.00,37.40,30.20,74.98,350.00,5.00,0.00,29.95,M,10.00,M,OVC,M,M,M,11000.00,M,M,M,M,M,M,M,M,M,M,32.81,KRTS 190735Z AUTO 35005KT 10SM OVC110 03/M01 A2995 RMK AO2,M
BAM,2023-03-19 07:35,-116.8743,40.5990,1382.36,39.20,23.00,51.89,70.00,11.00,0.00,30.02,M,10.00,M,CLR,M,M,M,M,M,M,M,M,M,M,M,M,M,M,31.57,KBAM 190735Z AUTO 07011KT 10SM CLR 04/M05 A3002 RMK AO1,M
TMT,2023-03-19 07:35,-117.1971,39.4643,1749.34,30.40,27.10,87.37,0.00,0.00,0.00,30.02,M,10.00,M,CLR,M,M,M,M,M,M,M,M,M,M,M,M,M,M,30.40,KTMT 190735Z AUTO 00000KT 10SM CLR M01/M03 A3002 RMK AO2 T10091027,M
P68,2023-03-19 07:53,-116.0056,39.6014,1993.00,36.00,17.10,45.77,140.00,9.00,0.00,30.05,1015.50,M,M,M,M,M,M,M,M,M,M,M,M,M,M,M,M,M,28.49,KP68 190753Z AUTO 14009KT 02/M08 A3005 RMK AO1 SLP155 T00221083 400831078,M
DRA,2023-03-19 07:53,-116.0278,36.6206,1009.00,46.00,27.00,47.20,0.00,0.00,0.00,30.06,1015.90,10.00,M,CLR,M,M,M,M,M,M,M,M,M,M,M,M,M,M,46.00,KDRA 190753Z AUTO 00000KT 10SM CLR 08/M03 A3006 RMK AO2 SLP159 T00781028 401670039,M
ELY,2023-03-19 07:53,-114.8453,39.2950,1909.00,25.00,18.00,74.36,210.00,9.00,0.00,30.10,1019.90,M,M,CLR,M,M,M,M,M,M,M,M,M,M,M,M,M,M,14.81,KELY 190753Z AUTO 21009KT CLR M04/M08 A3010 RMK AO2 SLP199 T10391078 400501133 $,M
VGT,2023-03-19 07:53,-115.1933,36.2111,667.00,52.00,19.90,28.01,0.00,0.00,0.00,30.07,1019.40,10.00,M,CLR,M,M,M,M,M,M,M,M,M,M,M,M,M,M,52.00,KVGT 190753Z AUTO 00000KT 10SM CLR 11/M07 A3007 RMK AO2 SLP194 T01111067 401830067,M
LOL,2023-03-19 07:53,-118.5701,40.0684,1192.43,36.00,19.00,49.66,160.00,4.00,0.00,29.94,1013.80,10.00,M,CLR,M,M,M,M,M,M,M,M,M,M,M,M,M,M,32.09,KLOL 190753Z AUTO 16004KT 10SM CLR 02/M07 A2994 RMK AO2 SLP138 T00221072 401391067,M
BVU,2023-03-19 07:55,-114.8611,35.9475,671.00,50.00,17.60,27.33,0.00,0.00,0.00,30.08,M,10.00,M,CLR,M,M,M,M,M,M,M,M,M,M,M,M,M,M,50.00,KBVU 190755Z AUTO 00000KT 10SM CLR 10/M08 A3008 RMK AO2,M
CXP,2023-03-19 07:55,-119.7326,39.1923,1431.00,41.00,32.00,70.08,0.00,0.00,0.00,29.95,M,10.00,M,OVC,M,M,M,11000.00,M,M,M,M,M,M,M,M,M,M,41.00,KCXP 190755Z AUTO 00000KT 10SM OVC110 05/00 A2995 RMK AO2,M
RNO,2023-03-19 07:55,-119.7711,39.4839,1341.00,46.00,28.90,51.03,270.00,4.00,0.00,29.93,1011.30,10.00,M,OVC,M,M,M,14000.00,M,M,M,M,M,M,M,M,M,M,43.77,KRNO 190755Z 27004KT 10SM OVC140 08/M02 A2993 RMK AO2 SLP113 T00781017 401561017,M
RTS,2023-03-19 07:55,-119.8764,39.6682,1539.00,37.40,30.20,74.98,340.00,4.00,0.00,29.95,M,10.00,M,OVC,M,M,M,10000.00,M,M,M,M,M,M,M,M,M,M,33.73,KRTS 190755Z AUTO 34004KT 10SM OVC100 03/M01 A2995 RMK AO2,M
05U,2023-03-19 07:55,-116.0051,39.6042,1811.23,35.60,15.80,43.95,140.00,8.00,0.00,30.07,M,10.00,M,CLR,M,M,M,M,M,M,M,M,M,M,M,M,M,M,28.55,K05U 190755Z AUTO 14008KT 10SM CLR 02/M09 A3007 RMK A01,M
MEV,2023-03-19 07:55,-119.7500,38.9963,1441.42,39.20,33.80,80.79,90.00,4.00,0.00,29.93,M,10.00,M,BKN,BKN,OVC,M,7500.00,10000.00,12000.00,M,M,M,M,M,M,M,M,35.83,KMEV 190755Z AUTO 09004KT 10SM BKN075 BKN100 OVC120 04/01 A2993 RMK AO2,M
BAM,2023-03-19 07:55,-116.8743,40.5990,1382.36,39.20,23.00,51.89,60.00,12.00,0.00,30.01,M,10.00,17.00,CLR,M,M,M,M,M,M,M,M,M,M,M,M,M,M,31.17,KBAM 190755Z AUTO 06012G17KT 10SM CLR 04/M05 A3001 RMK AO1,M
HTH,2023-03-19 07:55,-118.6315,38.5448,1282.89,48.20,17.60,29.23,140.00,19.00,0.00,29.96,M,10.00,M,CLR,M,M,M,M,M,M,M,M,M,M,M,M,M,M,40.86,KHTH 190755Z AUTO 14019KT 10SM CLR 09/M08 A2996 RMK A01,M
TMT,2023-03-19 07:55,-117.1971,39.4643,1749.34,30.60,27.00,86.31,0.00,0.00,0.00,30.02,M,10.00,M,CLR,M,M,M,M,M,M,M,M,M,M,M,M,M,M,30.60,KTMT 190755Z AUTO 00000KT 10SM CLR M01/M03 A3002 RMK AO2 T10081028 401051053,M
INS,2023-03-19 07:55,-115.6733,36.5872,955.00,48.20,18.10,29.86,280.00,3.00,0.00,30.07,1016.50,10.00,M,CLR,M,M,M,M,M,M,M,M,M,M,M,M,M,M,47.21,KINS 190755Z AUTO 28003KT 10SM CLR 09/M08 A3007 RMK AO2 SLP165 T00901077 401580005 $,M
LSV,2023-03-19 07:55,-115.0343,36.2362,570.00,47.80,21.60,35.19,70.00,4.00,0.00,30.05,1017.00,10.00,M,CLR,M,M,M,M,M,M,M,M,M,M,M,M,M,M,45.87,KLSV 190755Z AUTO 07004KT 10SM CLR 09/M06 A3005 RMK AO2 SLP170 T00881058 401880070 $,M
EKO,2023-03-19 07:56,-115.7860,40.8242,1367.00,28.90,21.00,71.96,50.00,5.00,0.00,30.07,1019.70,10.00,M,CLR,M,M,M,M,M,M,M,M,M,M,M,M,M,M,22.71,KEKO 190756Z AUTO 05005KT 10SM CLR M02/M06 A3007 RMK AO2 SLP197 T10171061 400611067,M
WMC,2023-03-19 07:56,-117.8072,40.9019,1315.00,41.00,24.10,50.67,80.00,8.00,0.00,29.97,1013.40,10.00,M,CLR,M,M,M,M,M,M,M,M,M,M,M,M,M,M,35.20,KWMC 190756Z AUTO 08008KT 10SM CLR 05/M04 A2997 RMK AO2 SLP134 T00501044 401441017,M
NFL,2023-03-19 07:56,-118.7010,39.4166,1199.00,50.00,18.00,27.80,140.00,11.00,0.00,29.92,1010.60,10.00,M,CLR,M,M,M,M,M,M,M,M,M,M,M,M,M,M,50.00,KNFL 190756Z AUTO 14011KT 10SM CLR 10/M08 A2992 RMK AO2 SLP106 T01001078 401560000,M
HND,2023-03-19 07:56,-115.1344,35.9729,742.79,48.00,21.90,35.38,160.00,7.00,0.00,30.10,1020.50,10.00,M,CLR,M,M,M,M,M,M,M,M,M,M,M,M,M,M,44.28,KHND 190756Z AUTO 16007KT 10SM CLR 09/M06 A3010 RMK AO2 SLP205 T00891056,M
LAS,2023-03-19 07:56,-115.1634,36.0719,663.00,53.00,17.10,23.85,210.00,3.00,0.00,30.07,1017.60,10.00,M,BKN,M,M,M,25000.00,M,M,M,M,M,M,M,M,M,M,53.10,KLAS 190756Z 21003KT 10SM BKN250 12/M08 A3007 RMK AO2 SLP176 T01171083 401720061,M
TPH,2023-03-19 07:56,-117.0904,38.0505,1654.00,38.00,19.00,46.08,120.00,9.00,0.00,30.06,1016.10,10.00,M,CLR,M,M,M,M,M,M,M,M,M,M,M,M,M,M,30.85,KTPH 190756Z AUTO 12009KT 10SM CLR 03/M07 A3006 RMK AO2 SLP161 T00331072 401221033,M
BVU,2023-03-19 08:15,-114.8611,35.9475,671.00,50.00,17.60,27.33,0.00,0.00,0.00,30.08,M,10.00,M,CLR,M,M,M,M,M,M,M,M,M,M,M,M,M,M,50.00,KBVU 190815Z AUTO 00000KT 10SM CLR 10/M08 A3008 RMK AO2,M
CXP,2023-03-19 08:15,-119.7326,39.1923,1431.00,42.80,32.00,65.38,0.00,0.00,0.00,29.94,M,10.00,M,BKN,OVC,M,M,9000.00,11000.00,M,M,M,M,M,M,M,M,M,42.80,KCXP 190815Z AUTO 00000KT 10SM BKN090 OVC110 06/M00 A2994 RMK AO2,M
RTS,2023-03-19 08:15,-119.8764,39.6682,1539.00,39.20,28.40,64.93,350.00,6.00,0.00,29.94,M,10.00,M,BKN,OVC,M,M,7500.00,9500.00,M,M,M,M,M,M,M,M,M,34.20,KRTS 190815Z AUTO 35006KT 10SM BKN075 OVC095 04/M02 A2994 RMK AO2,M
05U,2023-03-19 08:15,-116.0051,39.6042,1811.23,M,M,M,130.00,8.00,0.00,30.07,M,10.00,M,CLR,M,M,M,M,M,M,M,M,M,M,M,M,M,M,M,K05U 190815Z AUTO 13008KT 10SM CLR A3007 RMK A01,M
MEV,2023-03-19 08:15,-119.7500,38.9963,1441.42,39.20,33.80,80.79,0.00,0.00,0.00,29.93,M,10.00,M,BKN,OVC,M,M,7500.00,11000.00,M,M,M,M,M,M,M,M,M,39.20,KMEV 190815Z AUTO 00000KT 10SM BKN075 OVC110 04/01 A2993 RMK AO2,M
BAM,2023-03-19 08:15,-116.8743,40.5990,1382.36,39.20,23.00,51.89,70.00,11.00,0.00,30.01,M,10.00,16.00,CLR,M,M,M,M,M,M,M,M,M,M,M,M,M,M,31.57,KBAM 190815Z AUTO 07011G16KT 10SM CLR 04/M05 A3001 RMK AO1,M
HTH,2023-03-19 08:15,-118.6315,38.5448,1282.89,48.20,17.60,29.23,160.00,19.00,0.00,29.95,M,10.00,M,CLR,M,M,M,M,M,M,M,M,M,M,M,M,M,M,40.86,KHTH 190815Z AUTO 16019KT 10SM CLR 09/M08 A2995 RMK A01,M
TMT,2023-03-19 08:15,-117.1971,39.4643,1749.34,30.60,27.30,87.38,0.00,0.00,0.00,30.02,M,10.00,M,CLR,M,M,M,M,M,M,M,M,M,M,M,M,M,M,30.60,KTMT 190815Z AUTO 00000KT 10SM CLR M01/M03 A3002 RMK AO2 T10081026,M
BVU,2023-03-19 08:35,-114.8611,35.9475,671.00,50.00,19.40,29.52,0.00,0.00,0.00,30.07,M,10.00,M,CLR,M,M,M,M,M,M,M,M,M,M,M,M,M,M,50.00,KBVU 190835Z AUTO 00000KT 10SM CLR 10/M07 A3007 RMK AO2,M
CXP,2023-03-19 08:35,-119.7326,39.1923,1431.00,41.00,32.00,70.08,0.00,0.00,0.00,29.94,M,10.00,M,SCT,OVC,M,M,7500.00,9000.00,M,M,M,M,M,M,M,M,M,41.00,KCXP 190835Z AUTO 00000KT 10SM SCT075 OVC090 05/00 A2994 RMK AO2,M
RTS,2023-03-19 08:35,-119.8764,39.6682,1539.00,39.20,28.40,64.93,340.00,3.00,0.00,29.94,M,10.00,M,BKN,OVC,M,M,7500.00,9000.00,M,M,M,M,M,M,M,M,M,36.92,KRTS 190835Z AUTO 34003KT 10SM BKN075 OVC090 04/M02 A2994 RMK AO2,M
05U,2023-03-19 08:35,-116.0051,39.6042,1811.23,M,M,M,160.00,7.00,0.00,30.07,M,10.00,M,CLR,M,M,M,M,M,M,M,M,M,M,M,M,M,M,M,K05U 190835Z AUTO 16007KT 10SM CLR A3007 RMK A01,M
MEV,2023-03-19 08:35,-119.7500,38.9963,1441.42,39.20,32.00,75.16,70.00,3.00,0.00,29.92,M,10.00,M,BKN,BKN,OVC,M,7500.00,8500.00,11000.00,M,M,M,M,M,M,M,M,36.92,KMEV 190835Z AUTO 07003KT 10SM BKN075 BKN085 OVC110 04/00 A2992 RMK AO2,M
BAM,2023-03-19 08:35,-116.8743,40.5990,1382.36,37.40,23.00,55.68,60.00,12.00,0.00,30.00,M,10.00,M,CLR,M,M,M,M,M,M,M,M,M,M,M,M,M,M,28.87,KBAM 190835Z AUTO 06012KT 10SM CLR 03/M05 A3000 RMK AO1,M
HTH,2023-03-19 08:35,-118.6315,38.5448,1282.89,48.20,17.60,29.23,110.00,14.00,0.00,29.95,M,10.00,20.00,BKN,M,M,M,12000.00,M,M,M,M,M,M,M,M,M,M,42.04,KHTH 190835Z AUTO 11014G20KT 10SM BKN120 09/M08 A2995 RMK A01,M
TMT,2023-03-19 08:35,-117.1971,39.4643,1749.34,30.20,27.00,87.72,0.00,0.00,0.00,30.02,M,10.00,M,CLR,M,M,M,M,M,M,M,M,M,M,M,M,M,M,30.20,KTMT 190835Z AUTO 00000KT 10SM CLR M01/M03 A3002 RMK AO2 T10101028,M
P68,2023-03-19 08:53,-116.0056,39.6014,1993.00,37.00,16.00,41.95,150.00,6.00,0.00,30.03,1014.80,M,M,M,M,M,M,M,M,M,M,M,M,M,M,M,M,M,31.55,KP68 190853Z AUTO 15006KT 03/M09 A3003 RMK AO1 SLP148 T00281089 58012,M
ELY,2023-03-19 08:53,-114.8453,39.2950,1909.00,26.10,17.10,68.34,190.00,8.00,0.00,30.09,1019.20,10.00,M,CLR,M,M,M,M,M,M,M,M,M,M,M,M,M,M,16.85,KELY 190853Z AUTO 19008KT 10SM CLR M03/M08 A3009 RMK AO2 SLP192 T10331083 58008 $,M
VGT,2023-03-19 08:53,-115.1933,36.2111,667.00,52.00,19.00,26.95,90.00,3.00,0.00,30.05,1018.90,10.00,M,CLR,M,M,M,M,M,M,M,M,M,M,M,M,M,M,52.00,KVGT 190853Z AUTO 09003KT 10SM CLR 11/M07 A3005 RMK AO2 SLP189 T01111072 58009,M
DRA,2023-03-19 08:53,-116.0278,36.6206,1009.00,47.00,19.00,32.59,100.00,6.00,0.00,30.05,1015.60,10.00,M,CLR,M,M,M,M,M,M,M,M,M,M,M,M,M,M,43.48,KDRA 190853Z AUTO 10006KT 10SM CLR 08/M07 A3005 RMK AO2 SLP156 T00831072 58009,M
LOL,2023-03-19 08:53,-118.5701,40.0684,1192.43,35.00,21.00,56.05,0.00,0.00,0.00,29.92,1013.10,10.00,M,CLR,M,M,M,M,M,M,M,M,M,M,M,M,M,M,35.10,KLOL 190853Z AUTO 00000KT 10SM CLR 02/M06 A2992 RMK AO2 SLP131 T00171061 58013,M
BVU,2023-03-19 08:55,-114.8611,35.9475,671.00,48.20,23.00,36.78,0.00,0.00,0.00,30.06,M,10.00,M,CLR,M,M,M,M,M,M,M,M,M,M,M,M,M,M,48.20,KBVU 190855Z AUTO 00000KT 10SM CLR 09/M05 A3006 RMK AO2,M
CXP,2023-03-19 08:55,-119.7326,39.1923,1431.00,41.00,32.00,70.08,0.00,0.00,0.00,29.93,M,10.00,M,FEW,BKN,OVC,M,6500.00,7500.00,9500.00,M,M,M,M,M,M,M,M,41.00,KCXP 190855Z AUTO 00000KT 10SM FEW065 BKN075 OVC095 05/00 A2993 RMK AO2,M
RNO,2023-03-19 08:55,-119.7711,39.4839,1341.00,46.00,28.90,51.03,290.00,3.00,0.00,29.91,1010.50,10.00,M,BKN,M,M,M,11000.00,M,M,M,M,M,M,M,M,M,M,44.69,KRNO 190855Z 29003KT 10SM BKN110 08/M02 A2991 RMK AO2 SLP105 T00781017 56017,M
RTS,2023-03-19 08:55,-119.8764,39.6682,1539.00,39.20,28.40,64.93,330.00,4.00,0.00,29.93,M,10.00,M,SCT,OVC,M,M,8000.00,9000.00,M,M,M,M,M,M,M,M,M,35.83,KRTS 190855Z AUTO 33004KT 10SM SCT080 OVC090 04/M02 A2993 RMK AO2,M
05U,2023-03-19 08:55,-116.0051,39.6042,1811.23,M,M,M,140.00,7.00,0.00,30.06,M,10.00,M,CLR,M,M,M,M,M,M,M,M,M,M,M,M,M,M,M,K05U 190855Z AUTO 14007KT 10SM CLR A3006 RMK A01,M
MEV,2023-03-19 08:55,-119.7500,38.9963,1441.42,39.20,33.80,80.79,0.00,0.00,0.00,29.92,M,8.00,M,BKN,OVC,M,M,7500.00,11000.00,M,M,M,M,M,M,M,M,M,39.20,KMEV 190855Z AUTO 00000KT 8SM BKN075 OVC110 04/01 A2992 RMK AO2,M
BAM,2023-03-19 08:55,-116.8743,40.5990,1382.36,37.40,23.00,55.68,60.00,11.00,0.00,30.00,M,10.00,M,CLR,M,M,M,M,M,M,M,M,M,M,M,M,M,M,29.29,KBAM 190855Z AUTO 06011KT 10SM CLR 03/M05 A3000 RMK AO1,M
HTH,2023-03-19 08:55,-118.6315,38.5448,1282.89,48.20,17.60,29.23,110.00,18.00,0.00,29.93,M,10.00,M,OVC,M,M,M,12000.00,M,M,M,M,M,M,M,M,M,M,41.07,KHTH 190855Z AUTO 11018KT 10SM OVC120 09/M08 A2993 RMK A01,M
TMT,2023-03-19 08:55,-117.1971,39.4643,1749.34,31.50,27.00,83.22,0.00,0.00,0.00,30.01,M,10.00,M,CLR,M,M,M,M,M,M,M,M,M,M,M,M,M,M,31.50,KTMT 190855Z AUTO 00000KT 10SM CLR 00/M03 A3001 RMK AO2 T10031028,M
INS,2023-03-19 08:55,-115.6733,36.5872,955.00,42.60,19.40,39.05,270.00,3.00,0.00,30.06,1016.30,10.00,M,CLR,M,M,M,M,M,M,M,M,M,M,M,M,M,M,40.81,KINS 190855Z AUTO 27003KT 10SM CLR 06/M07 A3006 RMK AO2 SLP163 T00591070 58003 $,M
LSV,2023-03-19 08:55,-115.0343,36.2362,570.00,47.50,19.80,32.97,40.00,5.00,0.00,30.04,1016.70,10.00,M,CLR,M,M,M,M,M,M,M,M,M,M,M,M,M,M,44.80,KLSV 190855Z AUTO 04005KT 10SM CLR 09/M07 A3004 RMK AO2 SLP167 T00861068 58007 $,M
EKO,2023-03-19 08:56,-115.7860,40.8242,1367.00,28.90,19.90,68.67,60.00,6.00,0.00,30.05,1018.80,10.00,M,CLR,M,M,M,M,M,M,M,M,M,M,M,M,M,M,21.80,KEKO 190856Z AUTO 06006KT 10SM CLR M02/M07 A3005 RMK AO2 SLP188 T10171067 58012,M
WMC,2023-03-19 08:56,-117.8072,40.9019,1315.00,39.00,23.00,52.30,80.00,7.00,0.00,29.95,1012.80,10.00,M,CLR,M,M,M,M,M,M,M,M,M,M,M,M,M,M,33.31,KWMC 190856Z AUTO 08007KT 10SM CLR 04/M05 A2995 RMK AO2 SLP128 T00391050 56017,M
HND,2023-03-19 08:56,-115.1344,35.9729,742.79,48.00,21.00,34.05,160.00,7.00,0.00,30.08,1019.90,10.00,M,CLR,M,M,M,M,M,M,M,M,M,M,M,M,M,M,44.28,KHND 190856Z AUTO 16007KT 10SM CLR 09/M06 A3008 RMK AO2 SLP199 T00891061 58009,M
LAS,2023-03-19 08:56,-115.1634,36.0719,663.00,52.00,17.10,24.83,200.00,5.00,0.00,30.06,1017.10,10.00,M,BKN,M,M,M,25000.00,M,M,M,M,M,M,M,M,M,M,52.00,KLAS 190856Z 20005KT 10SM BKN250 11/M08 A3006 RMK AO2 SLP171 T01111083 58009,M
NFL,2023-03-19 08:56,-118.7010,39.4166,1199.00,49.00,18.00,28.97,130.00,13.00,0.00,29.90,1010.10,10.00,17.00,CLR,M,M,M,M,M,M,M,M,M,M,M,M,M,M,43.22,KNFL 190856Z AUTO 13013G17KT 10SM CLR 09/M08 A2990 RMK AO2 SLP101 T00941078 58015,M
TPH,2023-03-19 08:56,-117.0904,38.0505,1654.00,38.00,19.00,46.08,120.00,10.00,0.00,30.05,1015.70,10.00,M,CLR,M,M,M,M,M,M,M,M,M,M,M,M,M,M,30.37,KTPH 190856Z AUTO 12010KT 10SM CLR 03/M07 A3005 RMK AO2 SLP157 T00331072 56012,M
BVU,2023-03-19 09:15,-114.8611,35.9475,671.00,50.00,21.20,31.87,0.00,0.00,0.00,30.05,M,10.00,M,CLR,M,M,M,M,M,M,M,M,M,M,M,M,M,M,50.00,KBVU 190915Z AUTO 00000KT 10SM CLR 10/M06 A3005 RMK AO2,M
CXP,2023-03-19 09:15,-119.7326,39.1923,1431.00,41.00,32.00,70.08,0.00,0.00,0.00,29.93,M,10.00,M,FEW,BKN,OVC,M,6500.00,7500.00,9000.00,M,M,M,M,M,M,M,M,41.00,KCXP 190915Z AUTO 00000KT 10SM FEW065 BKN075 OVC090 05/00 A2993 RMK AO2,M
RTS,2023-03-19 09:15,-119.8764,39.6682,1539.00,39.20,28.40,64.93,10.00,5.00,0.00,29.91,M,10.00,M,BKN,OVC,M,M,7000.00,9000.00,M,M,M,M,M,M,M,M,M,34.95,KRTS 190915Z AUTO 01005KT 10SM BKN070 OVC090 04/M02 A2991 RMK AO2,M
05U,2023-03-19 09:15,-116.0051,39.6042,1811.23,M,M,M,160.00,5.00,0.00,30.05,M,10.00,M,CLR,M,M,M,M,M,M,M,M,M,M,M,M,M,M,M,K05U 190915Z AUTO 16005KT 10SM CLR A3005 RMK A01,M
MEV,2023-03-19 09:15,-119.7500,38.9963,1441.42,39.20,33.80,80.79,310.00,4.00,0.00,29.91,M,2.50,M,FEW,BKN,OVC,M,6000.00,7000.00,7500.00,M,HZ,M,M,M,M,M,M,35.83,KMEV 190915Z AUTO 31004KT 2 1/2SM HZ FEW060 BKN070 OVC075 04/01 A2991 RMK AO2,M
BAM,2023-03-19 09:15,-116.8743,40.5990,1382.36,37.40,23.00,55.68,60.00,11.00,0.00,29.99,M,10.00,M,CLR,M,M,M,M,M,M,M,M,M,M,M,M,M,M,29.29,KBAM 190915Z AUTO 06011KT 10SM CLR 03/M05 A2999 RMK AO1,M
HTH,2023-03-19 09:15,-118.6315,38.5448,1282.89,48.20,17.60,29.23,130.00,19.00,0.00,29.93,M,10.00,M,OVC,M,M,M,11000.00,M,M,M,M,M,M,M,M,M,M,40.86,KHTH 190915Z AUTO 13019KT 10SM OVC110 09/M08 A2993 RMK A01,M
TMT,2023-03-19 09:15,-117.1971,39.4643,1749.34,29.30,26.10,87.67,130.00,4.00,0.00,30.01,M,10.00,M,CLR,M,M,M,M,M,M,M,M,M,M,M,M,M,M,24.27,KTMT 190915Z AUTO 13004KT 10SM CLR M01/M03 A3001 RMK AO2 T10151033,M
BVU,2023-03-19 09:35,-114.8611,35.9475,671.00,50.00,21.20,31.87,0.00,0.00,0.00,30.05,M,10.00,M,CLR,M,M,M,M,M,M,M,M,M,M,M,M,M,M,50.00,KBVU 190935Z AUTO 00000KT 10SM CLR 10/M06 A3005 RMK AO2,M
CXP,2023-03-19 09:35,-119.7326,39.1923,1431.00,41.00,32.00,70.08,30.00,3.00,0.00,29.91,M,10.00,M,FEW,OVC,M,M,6500.00,7500.00,M,M,M,M,M,M,M,M,M,38.98,KCXP 190935Z AUTO 03003KT 10SM FEW065 OVC075 05/00 A2991 RMK AO2,M
RTS,2023-03-19 09:35,-119.8764,39.6682,1539.00,39.20,28.40,64.93,300.00,4.00,0.00,29.91,M,10.00,M,OVC,M,M,M,7500.00,M,M,M,M,M,M,M,M,M,M,35.83,KRTS 190935Z AUTO 30004KT 10SM OVC075 04/M02 A2991 RMK AO2,M
05U,2023-03-19 09:35,-116.0051,39.6042,1811.23,M,M,M,160.00,5.00,0.00,30.04,M,10.00,M,CLR,M,M,M,M,M,M,M,M,M,M,M,M,M,M,M,K05U 190935Z AUTO 16005KT 10SM CLR A3004 RMK A01,M
MEV,2023-03-19 09:35,-119.7500,38.9963,1441.42,39.20,35.60,86.79,0.00,0.00,0.00,29.90,M,10.00,M,SCT,OVC,M,M,6000.00,7000.00,M,M,M,M,M,M,M,M,M,39.20,KMEV 190935Z AUTO 00000KT 10SM SCT060 OVC070 04/02 A2990 RMK AO2,M
BAM,2023-03-19 09:35,-116.8743,40.5990,1382.36,37.40,23.00,55.68,60.00,10.00,0.00,29.99,M,10.00,M,CLR,M,M,M,M,M,M,M,M,M,M,M,M,M,M,29.74,KBAM 190935Z AUTO 06010KT 10SM CLR 03/M05 A2999 RMK AO1,M
HTH,2023-03-19 09:35,-118.6315,38.5448,1282.89,48.20,17.60,29.23,130.00,20.00,0.00,29.93,M,10.00,M,OVC,M,M,M,11000.00,M,M,M,M,M,M,M,M,M,M,40.66,KHTH 190935Z AUTO 13020KT 10SM OVC110 09/M08 A2993 RMK A01,M
TMT,2023-03-19 09:35,-117.1971,39.4643,1749.34,30.00,25.00,81.40,0.00,0.00,0.00,29.99,M,10.00,M,CLR,M,M,M,M,M,M,M,M,M,M,M,M,M,M,30.00,KTMT 190935Z AUTO 00000KT 10SM CLR M01/M04 A2999 RMK AO2 T10111039,M
CXP,2023-03-19 09:50,-119.7326,39.1923,1431.00,41.00,32.00,70.08,0.00,0.00,0.00,29.91,M,10.00,M,SCT,OVC,M,M,6500.00,7500.00,M,M,M,M,M,M,M,M,M,41.00,KCXP 190950Z AUTO 00000KT 10SM SCT065 OVC075 05/00 A2991 RMK AO2,M
P68,2023-03-19 09:53,-116.0056,39.6014,1993.00,35.00,19.00,51.47,170.00,10.00,0.00,30.01,1014.00,M,M,M,M,M,M,M,M,M,M,M,M,M,M,M,M,M,26.86,KP68 190953Z AUTO 17010KT 02/M07 A3001 RMK AO1 SLP140 T00171072,M
DRA,2023-03-19 09:53,-116.0278,36.6206,1009.00,45.00,21.90,39.62,90.00,3.00,0.00,30.04,1015.20,10.00,M,CLR,M,M,M,M,M,M,M,M,M,M,M,M,M,M,43.55,KDRA 190953Z AUTO 09003KT 10SM CLR 07/M06 A3004 RMK AO2 SLP152 T00721056,M
ELY,2023-03-19 09:53,-114.8453,39.2950,1909.00,25.00,16.00,68.20,180.00,9.00,0.00,30.06,1017.80,10.00,M,CLR,M,M,M,M,M,M,M,M,M,M,M,M,M,M,14.81,KELY 190953Z AUTO 18009KT 10SM CLR M04/M09 A3006 RMK AO2 SLP178 T10391089 $,M
VGT,2023-03-19 09:53,-115.1933,36.2111,667.00,51.00,19.90,28.95,0.00,0.00,0.00,30.05,1018.70,10.00,M,CLR,M,M,M,M,M,M,M,M,M,M,M,M,M,M,51.10,KVGT 190953Z AUTO 00000KT 10SM CLR 11/M07 A3005 RMK AO2 SLP187 T01061067,M
LOL,2023-03-19 09:53,-118.5701,40.0684,1192.43,37.00,21.00,51.99,280.00,4.00,0.00,29.91,1012.20,10.00,M,CLR,M,M,M,M,M,M,M,M,M,M,M,M,M,M,33.26,KLOL 190953Z AUTO 28004KT 10SM CLR 03/M06 A2991 RMK AO2 SLP122 T00281061,M
BVU,2023-03-19 09:55,-114.8611,35.9475,671.00,50.00,21.20,31.87,340.00,3.00,0.00,30.04,M,10.00,M,CLR,M,M,M,M,M,M,M,M,M,M,M,M,M,M,50.00,KBVU 190955Z AUTO 34003KT 10SM CLR 10/M06 A3004 RMK AO2,M
RNO,2023-03-19 09:55,-119.7711,39.4839,1341.00,44.00,30.00,57.37,0.00,0.00,0.00,29.89,1009.50,10.00,M,OVC,M,M,M,10000.00,M,M,M,M,M,M,M,M,M,M,44.10,KRNO 190955Z 00000KT 10SM OVC100 07/M01 A2989 RMK AO2 SLP095 T00671011,M
RTS,2023-03-19 09:55,-119.8764,39.6682,1539.00,39.20,28.40,64.93,340.00,3.00,0.00,29.90,M,10.00,M,BKN,OVC,M,M,7000.00,8000.00,M,M,M,M,M,M,M,M,M,36.92,KRTS 190955Z AUTO 34003KT 10SM BKN070 OVC080 04/M02 A2990 RMK AO2,M
05U,2023-03-19 09:55,-116.0051,39.6042,1811.23,M,M,M,160.00,8.00,0.00,30.04,M,10.00,M,CLR,M,M,M,M,M,M,M,M,M,M,M,M,M,M,M,K05U 190955Z AUTO 16008KT 10SM CLR A3004 RMK A01,M
MEV,2023-03-19 09:55,-119.7500,38.9963,1441.42,39.20,35.60,86.79,310.00,4.00,0.00,29.90,M,1.00,M,FEW,SCT,BKN,M,3800.00,4800.00,5500.00,M,HZ,M,M,M,M,M,M,35.83,KMEV 190955Z AUTO 31004KT 1SM HZ FEW038 SCT048 BKN055 04/02 A2990 RMK AO2,M
BAM,2023-03-19 09:55,-116.8743,40.5990,1382.36,35.60,23.00,59.79,90.00,5.00,0.00,29.98,M,10.00,9.00,CLR,M,M,M,M,M,M,M,M,M,M,M,M,M,M,30.67,KBAM 190955Z AUTO 09005G09KT 10SM CLR 02/M05 A2998 RMK AO1,M
HTH,2023-03-19 09:55,-118.6315,38.5448,1282.89,48.20,17.60,29.23,120.00,18.00,0.00,29.92,M,10.00,23.00,OVC,M,M,M,11000.00,M,M,M,M,M,M,M,M,M,M,41.07,KHTH 190955Z AUTO 12018G23KT 10SM OVC110 09/M08 A2992 RMK A01,M
TMT,2023-03-19 09:55,-117.1971,39.4643,1749.34,28.40,25.70,89.46,320.00,3.00,0.00,29.98,M,10.00,M,CLR,M,M,M,M,M,M,M,M,M,M,M,M,M,M,24.57,KTMT 190955Z AUTO 32003KT 10SM CLR M02/M03 A2998 RMK AO2 T10201035,M
INS,2023-03-19 09:55,-115.6733,36.5872,955.00,45.00,19.60,35.94,0.00,0.00,0.00,30.05,1015.80,10.00,M,CLR,M,M,M,M,M,M,M,M,M,M,M,M,M,M,45.00,KINS 190955Z AUTO 00000KT 10SM CLR 07/M07 A3005 RMK AO2 SLP158 T00721069 $,M
LSV,2023-03-19 09:55,-115.0343,36.2362,570.00,48.00,21.70,35.08,60.00,3.00,0.00,30.03,1016.20,10.00,M,CLR,M,M,M,M,M,M,M,M,M,M,M,M,M,M,46.98,KLSV 190955Z AUTO 06003KT 10SM CLR 09/M06 A3003 RMK AO2 SLP162 T00891057 $,M
EKO,2023-03-19 09:56,-115.7860,40.8242,1367.00,28.00,19.00,68.57,80.00,4.00,0.00,30.04,1018.20,10.00,M,CLR,M,M,M,M,M,M,M,M,M,M,M,M,M,M,22.75,KEKO 190956Z AUTO 08004KT 10SM CLR M02/M07 A3004 RMK AO2 SLP182 T10221072,M
WMC,2023-03-19 09:56,-117.8072,40.9019,1315.00,39.00,23.00,52.30,70.00,7.00,0.00,29.93,1012.10,10.00,M,CLR,M,M,M,M,M,M,M,M,M,M,M,M,M,M,33.31,KWMC 190956Z AUTO 07007KT 10SM CLR 04/M05 A2993 RMK AO2 SLP121 T00391050,M
TPH,2023-03-19 09:56,-117.0904,38.0505,1654.00,37.00,19.00,47.74,130.00,9.00,0.00,30.02,1014.70,10.00,M,CLR,M,M,M,M,M,M,M,M,M,M,M,M,M,M,29.73,KTPH 190956Z AUTO 13009KT 10SM CLR 03/M07 A3002 RMK AO2 SLP147 T00281072,M
LAS,2023-03-19 09:56,-115.1634,36.0719,663.00,51.00,18.00,26.69,0.00,0.00,0.00,30.04,1016.60,10.00,M,BKN,M,M,M,25000.00,M,M,M,M,M,M,M,M,M,M,51.10,KLAS 190956Z 00000KT 10SM BKN250 11/M08 A3004 RMK AO2 SLP166 T01061078,M
NFL,2023-03-19 09:56,-118.7010,39.4166,1199.00,49.00,17.10,27.86,130.00,12.00,0.00,29.89,1009.60,10.00,M,CLR,M,M,M,M,M,M,M,M,M,M,M,M,M,M,43.51,KNFL 190956Z AUTO 13012KT 10SM CLR 09/M08 A2989 RMK AO2 SLP096 T00941083,M
HND,2023-03-19 09:56,-115.1344,35.9729,742.79,47.00,23.00,38.62,190.00,8.00,0.00,30.06,1019.30,10.00,M,CLR,M,M,M,M,M,M,M,M,M,M,M,M,M,M,42.47,KHND 190956Z AUTO 19008KT 10SM CLR 08/M05 A3006 RMK AO2 SLP193 T00831050,M
05U,2023-03-19 10:10,-116.0051,39.6042,1811.23,M,M,M,M,6.00,0.00,30.03,M,10.00,M,CLR,M,M,M,M,M,M,M,M,M,M,M,M,M,M,M,K05U 191010Z AUTO VRB06KT 10SM CLR A3003 RMK A01,M
BVU,2023-03-19 10:15,-114.8611,35.9475,671.00,51.80,19.40,27.62,0.00,0.00,0.00,30.04,M,10.00,M,CLR,M,M,M,M,M,M,M,M,M,M,M,M,M,M,51.80,KBVU 191015Z AUTO 00000KT 10SM CLR 11/M07 A3004 RMK AO2,M
CXP,2023-03-19 10:15,-119.7326,39.1923,1431.00,41.00,32.00,70.08,0.00,0.00,0.00,29.90,M,10.00,M,BKN,OVC,M,M,6000.00,7000.00,M,M,M,M,M,M,M,M,M,41.00,KCXP 191015Z AUTO 00000KT 10SM BKN060 OVC070 05/00 A2990 RMK AO2,M
RTS,2023-03-19 10:15,-119.8764,39.6682,1539.00,39.20,30.20,69.88,0.00,0.00,0.00,29.89,M,10.00,M,OVC,M,M,M,6500.00,M,M,M,M,M,M,M,M,M,M,39.20,KRTS 191015Z AUTO 00000KT 10SM OVC065 04/M01 A2989 RMK AO2,M
MEV,2023-03-19 10:15,-119.7500,38.9963,1441.42,39.20,35.60,86.79,60.00,3.00,0.00,29.89,M,10.00,M,FEW,BKN,OVC,M,4000.00,4800.00,5500.00,M,M,M,M,M,M,M,M,36.92,KMEV 191015Z AUTO 06003KT 10SM FEW040 BKN048 OVC055 04/02 A2989 RMK AO2,M
BAM,2023-03-19 10:15,-116.8743,40.5990,1382.36,35.60,23.00,59.79,100.00,5.00,0.00,29.97,M,10.00,M,CLR,M,M,M,M,M,M,M,M,M,M,M,M,M,M,30.67,KBAM 191015Z AUTO 10005KT 10SM CLR 02/M05 A2997 RMK AO1,M
HTH,2023-03-19 10:15,-118.6315,38.5448,1282.89,48.20,17.60,29.23,120.00,17.00,0.00,29.91,M,10.00,M,OVC,M,M,M,11000.00,M,M,M,M,M,M,M,M,M,M,41.30,KHTH 191015Z AUTO 12017KT 10SM OVC110 09/M08 A2991 RMK A01,M
TMT,2023-03-19 10:15,-117.1971,39.4643,1749.34,28.00,26.40,93.62,0.00,0.00,0.00,29.97,M,10.00,M,CLR,M,M,M,M,M,M,M,M,M,M,M,M,M,M,28.00,KTMT 191015Z AUTO 00000KT 10SM CLR M02/M03 A2997 RMK AO2 T10221031,M
BVU,2023-03-19 10:35,-114.8611,35.9475,671.00,50.00,19.40,29.52,0.00,0.00,0.00,30.04,M,10.00,M,CLR,M,M,M,M,M,M,M,M,M,M,M,M,M,M,50.00,KBVU 191035Z AUTO 00000KT 10SM CLR 10/M07 A3004 RMK AO2,M
CXP,2023-03-19 10:35,-119.7326,39.1923,1431.00,41.00,33.80,75.33,0.00,0.00,0.00,29.90,M,10.00,M,FEW,OVC,M,M,4900.00,6000.00,M,M,M,M,M,M,M,M,M,41.00,KCXP 191035Z AUTO 00000KT 10SM FEW049 OVC060 05/01 A2990 RMK AO2,M
RTS,2023-03-19 10:35,-119.8764,39.6682,1539.00,39.20,28.40,64.93,350.00,3.00,0.00,29.88,M,10.00,M,SCT,OVC,M,M,5500.00,6500.00,M,M,M,M,M,M,M,M,M,36.92,KRTS 191035Z AUTO 35003KT 10SM SCT055 OVC065 04/M02 A2988 RMK AO2,M
05U,2023-03-19 10:35,-116.0051,39.6042,1811.23,M,M,M,160.00,10.00,0.00,30.02,M,10.00,15.00,CLR,M,M,M,M,M,M,M,M,M,M,M,M,M,M,M,K05U 191035Z AUTO 16010G15KT 10SM CLR A3002 RMK A01,M
MEV,2023-03-19 10:35,-119.7500,38.9963,1441.42,39.20,33.80,80.79,90.00,6.00,0.00,29.88,M,10.00,M,FEW,BKN,OVC,M,4200.00,5000.00,6000.00,M,M,M,M,M,M,M,M,34.20,KMEV 191035Z AUTO 09006KT 10SM FEW042 BKN050 OVC060 04/01 A2988 RMK AO2,M
BAM,2023-03-19 10:35,-116.8743,40.5990,1382.36,32.00,24.80,74.44,130.00,3.00,0.00,29.96,M,10.00,M,CLR,M,M,M,M,M,M,M,M,M,M,M,M,M,M,28.69,KBAM 191035Z AUTO 13003KT 10SM CLR 00/M04 A2996 RMK AO1,M
HTH,2023-03-19 10:35,-118.6315,38.5448,1282.89,48.20,17.60,29.23,120.00,17.00,0.00,29.90,M,10.00,27.00,OVC,M,M,M,11000.00,M,M,M,M,M,M,M,M,M,M,41.30,KHTH 191035Z AUTO 12017G27KT 10SM OVC110 09/M08 A2990 RMK A01,M
TMT,2023-03-19 10:35,-117.1971,39.4643,1749.34,28.20,26.10,91.71,0.00,0.00,0.00,29.96,M,10.00,M,CLR,M,M,M,M,M,M,M,M,M,M,M,M,M,M,28.20,KTMT 191035Z AUTO 00000KT 10SM CLR M02/M03 A2996 RMK AO2 T10211033,M
P68,2023-03-19 10:53,-116.0056,39.6014,1993.00,34.00,18.00,51.52,150.00,10.00,0.00,29.99,1013.20,M,M,M,M,M,M,M,M,M,M,M,M,M,M,M,M,M,25.48,KP68 191053Z AUTO 15010KT 01/M08 A2999 RMK AO1 SLP132 T00111078,M
DRA,2023-03-19 10:53,-116.0278,36.6206,1009.00,42.00,24.10,48.56,0.00,0.00,0.00,30.00,1014.20,10.00,M,CLR,M,M,M,M,M,M,M,M,M,M,M,M,M,M,42.10,KDRA 191053Z AUTO 00000KT 10SM CLR 06/M04 A3000 RMK AO2 SLP142 T00561044,M
ELY,2023-03-19 10:53,-114.8453,39.2950,1909.00,28.90,15.10,55.83,200.00,10.00,0.00,30.04,1016.40,10.00,M,CLR,M,M,M,M,M,M,M,M,M,M,M,M,M,M,19.08,KELY 191053Z AUTO 20010KT 10SM CLR M02/M09 A3004 RMK AO2 SLP164 T10171094 $,M
LOL,2023-03-19 10:53,-118.5701,40.0684,1192.43,34.00,19.90,55.88,100.00,4.00,0.00,29.88,1011.60,10.00,M,CLR,M,M,M,M,M,M,M,M,M,M,M,M,M,M,29.76,KLOL 191053Z AUTO 10004KT 10SM CLR 01/M07 A2988 RMK AO2 SLP116 T00111067,M
VGT,2023-03-19 10:53,-115.1933,36.2111,667.00,51.00,21.00,30.34,290.00,5.00,0.00,30.03,1017.90,10.00,M,CLR,M,M,M,M,M,M,M,M,M,M,M,M,M,M,51.10,KVGT 191053Z AUTO 29005KT 10SM CLR 11/M06 A3003 RMK AO2 SLP179 T01061061,M
BVU,2023-03-19 10:55,-114.8611,35.9475,671.00,48.20,21.20,34.09,280.00,3.00,0.00,30.04,M,10.00,M,CLR,M,M,M,M,M,M,M,M,M,M,M,M,M,M,47.21,KBVU 191055Z AUTO 28003KT 10SM CLR 09/M06 A3004 RMK AO2,M
CXP,2023-03-19 10:55,-119.7326,39.1923,1431.00,42.80,30.20,60.79,M,6.00,0.00,29.91,M,9.00,15.00,FEW,SCT,BKN,M,2900.00,3800.00,4500.00,M,-RA,M,M,M,M,M,M,38.54,KCXP 191055Z AUTO VRB06G15KT 9SM -RA FEW029 SCT038 BKN045 06/M01 A2991 RMK AO2,M
RTS,2023-03-19 10:55,-119.8764,39.6682,1539.00,41.00,28.40,60.54,0.00,0.00,0.00,29.87,M,10.00,M,BKN,OVC,M,M,6000.00,6500.00,M,M,M,M,M,M,M,M,M,41.00,KRTS 191055Z AUTO 00000KT 10SM BKN060 OVC065 05/M02 A2987 RMK AO2,M
05U,2023-03-19 10:55,-116.0051,39.6042,1811.23,M,M,M,170.00,7.00,0.00,30.01,M,10.00,12.00,CLR,M,M,M,M,M,M,M,M,M,M,M,M,M,M,M,K05U 191055Z AUTO 17007G12KT 10SM CLR A3001 RMK A01,M
MEV,2023-03-19 10:55,-119.7500,38.9963,1441.42,41.00,32.00,70.08,130.00,7.00,0.00,29.87,M,10.00,M,BKN,OVC,M,M,4800.00,5500.00,M,M,M,M,M,M,M,M,M,35.75,KMEV 191055Z AUTO 13007KT 10SM BKN048 OVC055 05/00 A2987 RMK AO2,M
BAM,2023-03-19 10:55,-116.8743,40.5990,1382.36,33.80,23.00,64.23,80.00,7.00,0.00,29.96,M,10.00,M,CLR,M,M,M,M,M,M,M,M,M,M,M,M,M,M,26.97,KBAM 191055Z AUTO 08007KT 10SM CLR 01/M05 A2996 RMK AO1,M
HTH,2023-03-19 10:55,-118.6315,38.5448,1282.89,48.20,15.80,27.04,120.00,18.00,0.00,29.89,M,10.00,25.00,OVC,M,M,M,10000.00,M,M,M,M,M,M,M,M,M,M,41.07,KHTH 191055Z AUTO 12018G25KT 10SM OVC100 09/M09 A2989 RMK A01,M
TMT,2023-03-19 10:55,-117.1971,39.4643,1749.34,27.10,25.70,94.37,0.00,0.00,0.00,29.95,M,10.00,M,CLR,M,M,M,M,M,M,M,M,M,M,M,M,M,M,27.10,KTMT 191055Z AUTO 00000KT 10SM CLR M03/M03 A2995 RMK AO2 T10271035,M
INS,2023-03-19 10:55,-115.6733,36.5872,955.00,40.60,20.50,44.21,0.00,0.00,0.00,30.02,1015.00,10.00,M,SCT,M,M,M,15000.00,M,M,M,M,M,M,M,M,M,M,40.60,KINS 191055Z AUTO 00000KT 10SM SCT150 05/M06 A3002 RMK AO2 SLP150 T00481064 $,M
LSV,2023-03-19 10:55,-115.0343,36.2362,570.00,48.20,21.20,34.09,90.00,8.00,0.00,30.01,1015.50,10.00,M,CLR,M,M,M,M,M,M,M,M,M,M,M,M,M,M,44.07,KLSV 191055Z AUTO 09008KT 10SM CLR 09/M06 A3001 RMK AO2 SLP155 T00901060 $,M
RNO,2023-03-19 10:55,-119.7711,39.4839,1341.00,44.00,30.00,57.37,0.00,0.00,0.00,29.87,1008.90,10.00,M,FEW,OVC,M,M,7500.00,10000.00,M,M,M,M,M,M,M,M,M,44.10,KRNO 191055Z 00000KT 10SM FEW075 OVC100 07/M01 A2987 RMK AO2 SLP089 T00671011,M
EKO,2023-03-19 10:56,-115.7860,40.8242,1367.00,28.00,19.00,68.57,40.00,6.00,0.00,30.01,1017.30,10.00,M,CLR,M,M,M,M,M,M,M,M,M,M,M,M,M,M,20.71,KEKO 191056Z AUTO 04006KT 10SM CLR M02/M07 A3001 RMK AO2 SLP173 T10221072,M
HND,2023-03-19 10:56,-115.1344,35.9729,742.79,47.00,21.90,36.87,180.00,6.00,0.00,30.05,1018.80,10.00,M,CLR,M,M,M,M,M,M,M,M,M,M,M,M,M,M,43.48,KHND 191056Z AUTO 18006KT 10SM CLR 08/M06 A3005 RMK AO2 SLP188 T00831056,M
TPH,2023-03-19 10:56,-117.0904,38.0505,1654.00,36.00,18.00,47.58,120.00,12.00,0.00,29.98,1013.30,10.00,M,CLR,M,M,M,M,M,M,M,M,M,M,M,M,M,M,27.09,KTPH 191056Z AUTO 12012KT 10SM CLR 02/M08 A2998 RMK AO2 SLP133 T00221078,M
LAS,2023-03-19 10:56,-115.1634,36.0719,663.00,50.00,19.00,29.02,0.00,0.00,0.00,30.03,1016.10,10.00,M,BKN,M,M,M,25000.00,M,M,M,M,M,M,M,M,M,M,50.00,KLAS 191056Z 00000KT 10SM BKN250 10/M07 A3003 RMK AO2 SLP161 T01001072,M
WMC,2023-03-19 10:56,-117.8072,40.9019,1315.00,38.00,21.90,52.13,80.00,7.00,0.00,29.90,1011.40,10.00,M,CLR,M,M,M,M,M,M,M,M,M,M,M,M,M,M,31.97,KWMC 191056Z AUTO 08007KT 10SM CLR 03/M06 A2990 RMK AO2 SLP114 T00331056,M
NFL,2023-03-19 10:56,-118.7010,39.4166,1199.00,49.00,15.10,25.55,140.00,15.00,0.00,29.86,1008.70,10.00,24.00,BKN,M,M,M,11000.00,M,M,M,M,M,M,M,M,M,M,42.69,KNFL 191056Z AUTO 14015G24KT 10SM BKN110 09/M09 A2986 RMK AO2 SLP087 T00941094,M
BVU,2023-03-19 11:15,-114.8611,35.9475,671.00,46.40,21.20,36.48,330.00,3.00,0.00,30.03,M,10.00,M,CLR,M,M,M,M,M,M,M,M,M,M,M,M,M,M,45.15,KBVU 191115Z AUTO 33003KT 10SM CLR 08/M06 A3003 RMK AO2,M
CXP,2023-03-19 11:15,-119.7326,39.1923,1431.00,42.80,30.20,60.79,120.00,6.00,0.00,29.90,M,10.00,M,BKN,OVC,M,M,2900.00,3500.00,M,M,M,M,M,M,M,M,M,38.54,KCXP 191115Z AUTO 12006KT 10SM BKN029 OVC035 06/M01 A2990 RMK AO2,M
RTS,2023-03-19 11:15,-119.8764,39.6682,1539.00,39.20,30.20,69.88,50.00,4.00,0.00,29.86,M,10.00,M,BKN,OVC,M,M,4900.00,5500.00,M,M,M,M,M,M,M,M,M,35.83,KRTS 191115Z AUTO 05004KT 10SM BKN049 OVC055 04/M01 A2986 RMK AO2,M
05U,2023-03-19 11:15,-116.0051,39.6042,1811.23,M,M,M,160.00,10.00,0.00,30.00,M,10.00,M,CLR,M,M,M,M,M,M,M,M,M,M,M,M,M,M,M,K05U 191115Z AUTO 16010KT 10SM CLR A3000 RMK A01,M
MEV,2023-03-19 11:15,-119.7500,38.9963,1441.42,42.80,28.40,56.48,140.00,5.00,0.00,29.86,M,10.00,M,FEW,BKN,OVC,M,4500.00,5000.00,6000.00,M,M,M,M,M,M,M,M,39.22,KMEV 191115Z AUTO 14005KT 10SM FEW045 BKN050 OVC060 06/M02 A2986 RMK AO2,M
BAM,2023-03-19 11:15,-116.8743,40.5990,1382.36,35.60,23.00,59.79,60.00,11.00,0.00,29.94,M,10.00,M,CLR,M,M,M,M,M,M,M,M,M,M,M,M,M,M,27.02,KBAM 191115Z AUTO 06011KT 10SM CLR 02/M05 A2994 RMK AO1,M
HTH,2023-03-19 11:15,-118.6315,38.5448,1282.89,48.20,15.80,27.04,120.00,17.00,0.00,29.88,M,10.00,M,SCT,OVC,M,M,7500.00,9500.00,M,M,M,M,M,M,M,M,M,41.30,KHTH 191115Z AUTO 12017KT 10SM SCT075 OVC095 09/M09 A2988 RMK A01,M
TMT,2023-03-19 11:15,-117.1971,39.4643,1749.34,28.20,25.90,90.95,0.00,0.00,0.00,29.94,M,10.00,M,CLR,M,M,M,M,M,M,M,M,M,M,M,M,M,M,28.20,KTMT 191115Z AUTO 00000KT 10SM CLR M02/M03 A2994 RMK AO2 T10211034,M
BVU,2023-03-19 11:35,-114.8611,35.9475,671.00,46.40,23.00,39.36,0.00,0.00,0.00,30.03,M,10.00,M,CLR,M,M,M,M,M,M,M,M,M,M,M,M,M,M,46.40,KBVU 191135Z AUTO 00000KT 10SM CLR 08/M05 A3003 RMK AO2,M
CXP,2023-03-19 11:35,-119.7326,39.1923,1431.00,41.00,32.00,70.08,100.00,8.00,0.00,29.89,M,10.00,M,BKN,OVC,M,M,3000.00,3500.00,M,M,M,M,M,M,M,M,M,35.20,KCXP 191135Z AUTO 10008KT 10SM BKN030 OVC035 05/00 A2989 RMK AO2,M
RTS,2023-03-19 11:35,-119.8764,39.6682,1539.00,41.00,28.40,60.54,M,5.00,0.00,29.86,M,10.00,M,BKN,OVC,M,M,4700.00,5500.00,M,M,M,M,M,M,M,M,M,37.08,KRTS 191135Z AUTO VRB05KT 10SM BKN047 OVC055 05/M02 A2986 RMK AO2,M
05U,2023-03-19 11:35,-116.0051,39.6042,1811.23,M,M,M,140.00,10.00,0.00,29.99,M,10.00,M,CLR,M,M,M,M,M,M,M,M,M,M,M,M,M,M,M,K05U 191135Z AUTO 14010KT 10SM CLR A2999 RMK A01,M
MEV,2023-03-19 11:35,-119.7500,38.9963,1441.42,42.80,28.40,56.48,150.00,8.00,0.00,29.85,M,10.00,M,FEW,BKN,OVC,M,4500.00,5000.00,6000.00,M,M,M,M,M,M,M,M,37.42,KMEV 191135Z AUTO 15008KT 10SM FEW045 BKN050 OVC060 06/M02 A2985 RMK AO2,M
BAM,2023-03-19 11:35,-116.8743,40.5990,1382.36,35.60,23.00,59.79,70.00,10.00,0.00,29.93,M,10.00,M,CLR,M,M,M,M,M,M,M,M,M,M,M,M,M,M,27.48,KBAM 191135Z AUTO 07010KT 10SM CLR 02/M05 A2993 RMK AO1,M
HTH,2023-03-19 11:35,-118.6315,38.5448,1282.89,48.20,15.80,27.04,120.00,15.00,0.00,29.88,M,10.00,M,BKN,OVC,M,M,7500.00,9500.00,M,M,M,M,M,M,M,M,M,41.78,KHTH 191135Z AUTO 12015KT 10SM BKN075 OVC095 09/M09 A2988 RMK A01,M
TMT,2023-03-19 11:35,-117.1971,39.4643,1749.34,28.00,26.20,92.85,0.00,0.00,0.00,29.93,M,10.00,M,CLR,M,M,M,M,M,M,M,M,M,M,M,M,M,M,28.00,KTMT 191135Z AUTO 00000KT 10SM CLR M02/M03 A2993 RMK AO2 T10221032,M
P68,2023-03-19 11:53,-116.0056,39.6014,1993.00,33.00,19.00,55.75,150.00,11.00,0.00,29.96,1012.30,M,M,M,M,M,M,M,M,M,M,M,M,M,M,M,M,M,23.86,KP68 191153Z AUTO 15011KT 01/M07 A2996 RMK AO1 SLP123 T00061072 10028 21006 58021,M
ELY,2023-03-19 11:53,-114.8453,39.2950,1909.00,25.00,16.00,68.20,200.00,8.00,0.00,30.02,1016.60,10.00,M,CLR,M,M,M,M,M,M,M,M,M,M,M,M,M,M,15.49,KELY 191153Z AUTO 20008KT 10SM CLR M04/M09 A3002 RMK AO2 SLP166 T10391089 11011 21044 56018 $,M
VGT,2023-03-19 11:53,-115.1933,36.2111,667.00,50.00,21.90,32.83,0.00,0.00,0.00,30.01,1017.40,10.00,M,CLR,M,M,M,M,M,M,M,M,M,M,M,M,M,M,50.00,KVGT 191153Z AUTO 00000KT 10SM CLR 10/M06 A3001 RMK AO2 SLP174 T01001056 10122 20100 58014,M
DRA,2023-03-19 11:53,-116.0278,36.6206,1009.00,44.00,23.00,42.95,M,3.00,0.00,29.99,1013.40,10.00,M,CLR,M,M,M,M,M,M,M,M,M,M,M,M,M,M,42.52,KDRA 191153Z AUTO VRB03KT 10SM CLR 07/M05 A2999 RMK AO2 SLP134 T00671050 10094 20056 58020,M
LOL,2023-03-19 11:53,-118.5701,40.0684,1192.43,35.00,21.90,58.22,80.00,3.00,0.00,29.86,1010.70,10.00,M,CLR,M,M,M,M,M,M,M,M,M,M,M,M,M,M,32.23,KLOL 191153Z AUTO 08003KT 10SM CLR 02/M06 A2986 RMK AO2 SLP107 T00171056 10033 20006 58019,M
BVU,2023-03-19 11:55,-114.8611,35.9475,671.00,46.40,23.00,39.36,10.00,4.00,0.00,30.02,M,10.00,M,CLR,M,M,M,M,M,M,M,M,M,M,M,M,M,M,44.24,KBVU 191155Z AUTO 01004KT 10SM CLR 08/M05 A3002 RMK AO2,M
CXP,2023-03-19 11:55,-119.7326,39.1923,1431.00,41.00,32.00,70.08,90.00,9.00,0.00,29.88,M,9.00,M,OVC,M,M,M,3100.00,M,M,M,-RA,M,M,M,M,M,M,34.70,KCXP 191155Z AUTO 09009KT 9SM -RA OVC031 05/00 A2988 RMK AO2,M
RTS,2023-03-19 11:55,-119.8764,39.6682,1539.00,41.00,26.60,56.22,190.00,13.00,0.00,29.86,M,10.00,19.00,FEW,SCT,BKN,M,2600.00,3300.00,4100.00,M,M,M,M,M,M,M,M,33.10,KRTS 191155Z AUTO 19013G19KT 10SM FEW026 SCT033 BKN041 05/M03 A2986 RMK AO2,M
05U,2023-03-19 11:55,-116.0051,39.6042,1811.23,M,M,M,150.00,9.00,0.00,29.98,M,10.00,M,CLR,M,M,M,M,M,M,M,M,M,M,M,M,M,M,M,K05U 191155Z AUTO 15009KT 10SM CLR A2998 RMK A01,M
MEV,2023-03-19 11:55,-119.7500,38.9963,1441.42,42.80,28.40,56.48,130.00,8.00,0.00,29.85,M,10.00,M,SCT,OVC,M,M,4700.00,5500.00,M,M,M,M,M,M,M,M,M,37.42,KMEV 191155Z AUTO 13008KT 10SM SCT047 OVC055 06/M02 A2985 RMK AO2,M
BAM,2023-03-19 11:55,-116.8743,40.5990,1382.36,35.60,23.00,59.79,70.00,8.00,0.00,29.93,M,10.00,M,CLR,M,M,M,M,M,M,M,M,M,M,M,M,M,M,28.55,KBAM 191155Z AUTO 07008KT 10SM CLR 02/M05 A2993 RMK AO1,M
HTH,2023-03-19 11:55,-118.6315,38.5448,1282.89,46.40,17.60,31.28,120.00,14.00,0.00,29.88,M,10.00,M,OVC,M,M,M,7500.00,M,M,M,M,M,M,M,M,M,M,39.72,KHTH 191155Z AUTO 12014KT 10SM OVC075 08/M08 A2988 RMK A01,M
TMT,2023-03-19 11:55,-117.1971,39.4643,1749.34,28.00,26.60,94.40,0.00,0.00,0.00,29.93,M,10.00,M,CLR,M,M,M,M,M,M,M,M,M,M,M,M,M,M,28.00,KTMT 191155Z AUTO 00000KT 10SM CLR M02/M03 A2993 RMK AO2 T10221030 10016 21027,M
INS,2023-03-19 11:55,-115.6733,36.5872,955.00,41.00,22.30,46.98,250.00,6.00,0.00,30.00,1014.30,10.00,M,FEW,M,M,M,15000.00,M,M,M,M,M,M,M,M,M,M,36.37,KINS 191155Z AUTO 25006KT 10SM FEW150 05/M05 A3000 RMK AO2 SLP143 T00501054 10104 20047 57019 $,M
LSV,2023-03-19 11:55,-115.0343,36.2362,570.00,50.50,19.40,28.98,90.00,9.00,0.00,29.99,1014.80,10.00,M,CLR,M,M,M,M,M,M,M,M,M,M,M,M,M,M,50.50,KLSV 191155Z AUTO 09009KT 10SM CLR 10/M07 A2999 RMK AO2 SLP148 T01031070 10112 20085 58015 $,M
RNO,2023-03-19 11:55,-119.7711,39.4839,1341.00,42.00,32.00,67.17,170.00,14.00,0.00,29.86,1009.00,10.00,M,OVC,M,M,M,6000.00,M,M,M,M,M,M,M,27.00,200.00,2023-03-19 11:29,34.18,KRNO 191155Z 17014KT 10SM OVC060 06/00 A2986 RMK AO2 PK WND 20027/1129 SLP090 T00560000 10089 20056 56014,M
EKO,2023-03-19 11:56,-115.7860,40.8242,1367.00,28.00,19.90,71.25,60.00,5.00,0.00,29.99,1016.60,10.00,M,CLR,M,M,M,M,M,M,M,M,M,M,M,M,M,M,21.64,KEKO 191156Z AUTO 06005KT 10SM CLR M02/M07 A2999 RMK AO2 SLP166 T10221067 11011 21022 58019,M
NFL,2023-03-19 11:56,-118.7010,39.4166,1199.00,48.00,16.00,27.48,140.00,11.00,0.00,29.85,1008.50,10.00,M,OVC,M,M,M,10000.00,M,M,M,M,M,M,M,M,M,M,42.69,KNFL 191156Z AUTO 14011KT 10SM OVC100 09/M09 A2985 RMK AO2 SLP085 T00891089 10100 20083 56016,M
HND,2023-03-19 11:56,-115.1344,35.9729,742.79,46.00,21.90,38.15,0.00,0.00,0.00,30.03,1018.20,10.00,M,CLR,M,M,M,M,M,M,M,M,M,M,M,M,M,M,46.00,KHND 191156Z AUTO 00000KT 10SM CLR 08/M06 A3003 RMK AO2 SLP182 T00781056 10094 20072 56016,M
TPH,2023-03-19 11:56,-117.0904,38.0505,1654.00,37.00,18.00,45.73,130.00,11.00,0.00,29.97,1013.10,10.00,M,CLR,M,M,M,M,M,M,M,M,M,M,M,M,M,M,28.79,KTPH 191156Z AUTO 13011KT 10SM CLR 03/M08 A2997 RMK AO2 SLP131 T00281078 10050 20011 56022,M
LAS,2023-03-19 11:56,-115.1634,36.0719,663.00,49.00,19.90,31.42,220.00,4.00,0.00,30.01,1015.70,10.00,M,FEW,BKN,M,M,13000.00,25000.00,M,M,M,M,M,M,M,M,M,47.16,KLAS 191156Z 22004KT 10SM FEW130 BKN250 09/M07 A3001 RMK AO2 SLP157 T00941067 10128 20094 56014,M
WMC,2023-03-19 11:56,-117.8072,40.9019,1315.00,38.00,21.90,52.13,70.00,10.00,0.00,29.88,1010.40,10.00,M,CLR,M,M,M,M,M,M,M,M,M,M,M,M,M,M,30.37,KWMC 191156Z AUTO 07010KT 10SM CLR 03/M06 A2988 RMK AO2 SLP104 T00331056 10061 20028 58020,M
05U,2023-03-19 12:15,-116.0051,39.6042,1811.23,M,M,M,170.00,10.00,0.00,29.98,M,10.00,M,CLR,M,M,M,M,M,M,M,M,M,M,M,M,M,M,M,K05U 191215Z AUTO 17010KT 10SM CLR A2998 RMK A01,M
BVU,2023-03-19 12:15,-114.8611,35.9475,671.00,46.40,23.00,39.36,10.00,3.00,0.00,30.02,M,10.00,M,CLR,M,M,M,M,M,M,M,M,M,M,M,M,M,M,45.15,KBVU 191215Z AUTO 01003KT 10SM CLR 08/M05 A3002 RMK AO2,M
CXP,2023-03-19 12:15,-119.7326,39.1923,1431.00,41.00,32.00,70.08,60.00,8.00,0.00,29.87,M,10.00,M,OVC,M,M,M,3200.00,M,M,M,-RA,M,M,M,M,M,M,35.20,KCXP 191215Z AUTO 06008KT 10SM -RA OVC032 05/00 A2987 RMK AO2,M
RTS,2023-03-19 12:15,-119.8764,39.6682,1539.00,39.20,30.20,69.88,170.00,9.00,0.00,29.86,M,9.00,M,BKN,BKN,OVC,M,2400.00,3100.00,5000.00,M,-RA,M,M,M,M,M,M,32.47,KRTS 191215Z AUTO 17009KT 9SM -RA BKN024 BKN031 OVC050 04/M01 A2986 RMK AO2,M
MEV,2023-03-19 12:15,-119.7500,38.9963,1441.42,41.00,28.40,60.54,110.00,10.00,0.00,29.84,M,10.00,M,FEW,BKN,OVC,M,3300.00,4300.00,5500.00,M,M,M,M,M,M,M,M,34.25,KMEV 191215Z AUTO 11010KT 10SM FEW033 BKN043 OVC055 05/M02 A2984 RMK AO2,M
BAM,2023-03-19 12:15,-116.8743,40.5990,1382.36,35.60,23.00,59.79,80.00,7.00,0.00,29.93,M,10.00,M,CLR,M,M,M,M,M,M,M,M,M,M,M,M,M,M,29.17,KBAM 191215Z AUTO 08007KT 10SM CLR 02/M05 A2993 RMK AO1,M
HTH,2023-03-19 12:15,-118.6315,38.5448,1282.89,46.40,19.40,33.79,140.00,17.00,0.00,29.87,M,10.00,M,BKN,OVC,M,M,6000.00,7500.00,M,M,M,M,M,M,M,M,M,38.94,KHTH 191215Z AUTO 14017KT 10SM BKN060 OVC075 08/M07 A2987 RMK A01,M
TMT,2023-03-19 12:15,-117.1971,39.4643,1749.34,27.50,25.70,92.83,0.00,0.00,0.00,29.93,M,10.00,M,CLR,M,M,M,M,M,M,M,M,M,M,M,M,M,M,27.50,KTMT 191215Z AUTO 00000KT 10SM CLR M02/M03 A2993 RMK AO2 T10251035,M
05U,2023-03-19 12:35,-116.0051,39.6042,1811.23,M,M,M,170.00,7.00,0.00,29.98,M,10.00,M,CLR,M,M,M,M,M,M,M,M,M,M,M,M,M,M,M,K05U 191235Z AUTO 17007KT 10SM CLR A2998 RMK A01,M
BVU,2023-03-19 12:35,-114.8611,35.9475,671.00,46.40,26.60,45.73,0.00,0.00,0.00,30.02,M,10.00,M,CLR,M,M,M,M,M,M,M,M,M,M,M,M,M,M,46.40,KBVU 191235Z AUTO 00000KT 10SM CLR 08/M03 A3002 RMK AO2,M
CXP,2023-03-19 12:35,-119.7326,39.1923,1431.00,41.00,32.00,70.08,110.00,6.00,0.00,29.87,M,9.00,M,BKN,OVC,M,M,3200.00,4100.00,M,M,-RA,M,M,M,M,M,M,36.37,KCXP 191235Z AUTO 11006KT 9SM -RA BKN032 OVC041 05/M00 A2987 RMK AO2,M
RTS,2023-03-19 12:35,-119.8764,39.6682,1539.00,39.20,32.00,75.16,150.00,10.00,0.00,29.86,M,7.00,M,BKN,M,M,M,2100.00,M,M,M,-DZ,M,M,M,M,M,M,32.00,KRTS 191235Z AUTO 15010KT 7SM -DZ BKN021 04/M00 A2986 RMK AO2,M
MEV,2023-03-19 12:35,-119.7500,38.9963,1441.42,41.00,30.20,65.16,100.00,8.00,0.00,29.84,M,10.00,13.00,FEW,SCT,OVC,M,3200.00,4300.00,5000.00,M,M,M,M,M,M,M,M,35.20,KMEV 191235Z AUTO 10008G13KT 10SM FEW032 SCT043 OVC050 05/M01 A2984 RMK AO2,M
BAM,2023-03-19 12:35,-116.8743,40.5990,1382.36,37.40,23.00,55.68,90.00,9.00,0.00,29.92,M,10.00,M,CLR,M,M,M,M,M,M,M,M,M,M,M,M,M,M,30.23,KBAM 191235Z AUTO 09009KT 10SM CLR 03/M05 A2992 RMK AO1,M
HTH,2023-03-19 12:35,-118.6315,38.5448,1282.89,46.40,19.40,33.79,140.00,12.00,0.00,29.87,M,10.00,18.00,SCT,OVC,M,M,6000.00,7500.00,M,M,M,M,M,M,M,M,M,40.33,KHTH 191235Z AUTO 14012G18KT 10SM SCT060 OVC075 08/M07 A2987 RMK A01,M
TMT,2023-03-19 12:35,-117.1971,39.4643,1749.34,27.50,25.30,91.30,0.00,0.00,0.00,29.93,M,10.00,M,CLR,M,M,M,M,M,M,M,M,M,M,M,M,M,M,27.50,KTMT 191235Z AUTO 00000KT 10SM CLR M02/M04 A2993 RMK AO2 T10251037,M
P68,2023-03-19 12:53,-116.0056,39.6014,1993.00,34.00,17.10,49.55,160.00,10.00,0.00,29.96,1012.50,M,M,M,M,M,M,M,M,M,M,M,M,M,M,M,M,M,25.48,KP68 191253Z AUTO 16010KT 01/M08 A2996 RMK AO1 SLP125 T00111083,M
DRA,2023-03-19 12:53,-116.0278,36.6206,1009.00,44.00,25.00,46.70,360.00,6.00,0.00,29.99,1013.70,10.00,M,CLR,M,M,M,M,M,M,M,M,M,M,M,M,M,M,40.10,KDRA 191253Z AUTO 36006KT 10SM CLR 07/M04 A2999 RMK AO2 SLP137 T00671039,M
ELY,2023-03-19 12:53,-114.8453,39.2950,1909.00,26.10,15.10,62.65,210.00,8.00,0.00,30.01,1016.00,10.00,M,CLR,M,M,M,M,M,M,M,M,M,M,M,M,M,M,16.85,KELY 191253Z AUTO 21008KT 10SM CLR M03/M09 A3001 RMK AO2 SLP160 T10331094 $,M
VGT,2023-03-19 12:53,-115.1933,36.2111,667.00,52.00,19.90,28.01,180.00,4.00,0.00,30.01,1017.30,10.00,M,CLR,M,M,M,M,M,M,M,M,M,M,M,M,M,M,52.00,KVGT 191253Z 18004KT 10SM CLR 11/M07 A3001 RMK AO2 SLP173 T01111067,M
LOL,2023-03-19 12:53,-118.5701,40.0684,1192.43,36.00,24.10,61.62,70.00,5.00,0.00,29.85,1010.30,10.00,M,BKN,OVC,M,M,9000.00,12000.00,M,M,M,M,M,M,M,M,M,31.15,KLOL 191253Z AUTO 07005KT 10SM BKN090 OVC120 02/M04 A2985 RMK AO2 SLP103 T00221044,M
BVU,2023-03-19 12:55,-114.8611,35.9475,671.00,46.40,24.80,42.44,0.00,0.00,0.00,30.02,M,10.00,M,CLR,M,M,M,M,M,M,M,M,M,M,M,M,M,M,46.40,KBVU 191255Z AUTO 00000KT 10SM CLR 08/M04 A3002 RMK AO2,M
CXP,2023-03-19 12:55,-119.7326,39.1923,1431.00,39.20,32.00,75.16,100.00,7.00,0.00,29.87,M,10.00,M,BKN,OVC,M,M,3100.00,3800.00,M,M,-RA,M,M,M,M,M,M,33.56,KCXP 191255Z AUTO 10007KT 10SM -RA BKN031 OVC038 04/00 A2987 RMK AO2,M
RNO,2023-03-19 12:55,-119.7711,39.4839,1341.00,41.00,34.00,75.94,170.00,7.00,T,29.85,1008.80,10.00,M,OVC,M,M,M,4000.00,M,M,M,-RA,M,M,M,M,M,M,35.75,KRNO 191255Z 17007KT 10SM -RA OVC040 05/01 A2985 RMK AO2 RAB05 SLP088 P0000 T00500011,M
RTS,2023-03-19 12:55,-119.8764,39.6682,1539.00,37.40,32.00,80.65,150.00,12.00,0.00,29.86,M,5.00,M,BKN,M,M,M,2100.00,M,M,M,-RA,M,M,M,M,M,M,28.87,KRTS 191255Z AUTO 15012KT 5SM -RA BKN021 03/00 A2986 RMK AO2,M
05U,2023-03-19 12:55,-116.0051,39.6042,1811.23,M,M,M,160.00,9.00,0.00,29.98,M,10.00,M,FEW,M,M,M,12000.00,M,M,M,M,M,M,M,M,M,M,M,K05U 191255Z AUTO 16009KT 10SM FEW120 A2998 RMK A01,M
MEV,2023-03-19 12:55,-119.7500,38.9963,1441.42,41.00,30.20,65.16,110.00,7.00,0.00,29.83,M,10.00,M,SCT,BKN,OVC,M,4100.00,5500.00,8000.00,M,M,M,M,M,M,M,M,35.75,KMEV 191255Z AUTO 11007KT 10SM SCT041 BKN055 OVC080 05/M01 A2983 RMK AO2,M
BAM,2023-03-19 12:55,-116.8743,40.5990,1382.36,37.40,23.00,55.68,80.00,10.00,0.00,29.92,M,10.00,M,CLR,M,M,M,M,M,M,M,M,M,M,M,M,M,M,29.74,KBAM 191255Z AUTO 08010KT 10SM CLR 03/M05 A2992 RMK AO1,M
HTH,2023-03-19 12:55,-118.6315,38.5448,1282.89,46.40,17.60,31.28,150.00,16.00,0.00,29.86,M,10.00,M,SCT,BKN,OVC,M,5000.00,6500.00,7500.00,M,M,M,M,M,M,M,M,39.19,KHTH 191255Z AUTO 15016KT 10SM SCT050 BKN065 OVC075 08/M08 A2986 RMK A01,M
TMT,2023-03-19 12:55,-117.1971,39.4643,1749.34,27.50,25.70,92.83,0.00,0.00,0.00,29.93,M,10.00,M,CLR,M,M,M,M,M,M,M,M,M,M,M,M,M,M,27.50,KTMT 191255Z AUTO 00000KT 10SM CLR M02/M03 A2993 RMK AO2 T10251035,M
LSV,2023-03-19 12:55,-115.0343,36.2362,570.00,51.00,19.80,29.04,80.00,11.00,0.00,29.98,1014.50,10.00,M,CLR,M,M,M,M,M,M,M,M,M,M,M,M,M,M,50.90,KLSV 191255Z AUTO 08011KT 10SM CLR 11/M07 A2998 RMK AO2 SLP145 T01051068 $,M
INS,2023-03-19 12:55,-115.6733,36.5872,955.00,42.00,20.50,42.05,0.00,0.00,0.00,30.00,1014.30,10.00,M,OVC,M,M,M,14000.00,M,M,M,M,M,M,M,M,M,M,41.90,KINS 191255Z AUTO 00000KT 10SM OVC140 06/M06 A3000 RMK AO2 SLP143 T00551064 $,M
EKO,2023-03-19 12:56,-115.7860,40.8242,1367.00,27.00,19.00,71.45,70.00,5.00,0.00,29.98,1016.10,10.00,M,CLR,M,M,M,M,M,M,M,M,M,M,M,M,M,M,20.46,KEKO 191256Z AUTO 07005KT 10SM CLR M03/M07 A2998 RMK AO2 SLP161 T10281072,M
HND,2023-03-19 12:56,-115.1344,35.9729,742.79,46.00,21.90,38.15,180.00,6.00,0.00,30.03,1018.40,10.00,M,CLR,M,M,M,M,M,M,M,M,M,M,M,M,M,M,42.39,KHND 191256Z AUTO 18006KT 10SM CLR 08/M06 A3003 RMK AO2 SLP184 T00781056,M
TPH,2023-03-19 12:56,-117.0904,38.0505,1654.00,37.00,18.00,45.73,130.00,8.00,0.00,29.97,1013.00,10.00,M,SCT,M,M,M,12000.00,M,M,M,M,M,M,M,M,M,M,30.27,KTPH 191256Z AUTO 13008KT 10SM SCT120 03/M08 A2997 RMK AO2 SLP130 T00281078,M
LAS,2023-03-19 12:56,-115.1634,36.0719,663.00,50.00,19.90,30.16,240.00,4.00,0.00,30.02,1015.80,10.00,M,FEW,BKN,M,M,13000.00,25000.00,M,M,M,M,M,M,M,M,M,50.00,KLAS 191256Z 24004KT 10SM FEW130 BKN250 10/M07 A3002 RMK AO2 SLP158 T01001067,M
WMC,2023-03-19 12:56,-117.8072,40.9019,1315.00,38.00,21.90,52.13,90.00,6.00,0.00,29.86,1009.90,10.00,M,CLR,M,M,M,M,M,M,M,M,M,M,M,M,M,M,32.64,KWMC 191256Z AUTO 09006KT 10SM CLR 03/M06 A2986 RMK AO2 SLP099 T00331056,M
NFL,2023-03-19 12:56,-118.7010,39.4166,1199.00,49.00,16.00,26.57,150.00,9.00,0.00,29.84,1008.20,10.00,20.00,SCT,OVC,M,M,7000.00,9000.00,M,M,M,M,M,M,M,M,M,44.53,KNFL 191256Z AUTO 15009G20KT 10SM SCT070 OVC090 09/M09 A2984 RMK AO2 SLP082 T00941089,M
BVU,2023-03-19 13:15,-114.8611,35.9475,671.00,46.40,24.80,42.44,0.00,0.00,0.00,30.02,M,10.00,M,CLR,M,M,M,M,M,M,M,M,M,M,M,M,M,M,46.40,KBVU 191315Z AUTO 00000KT 10SM CLR 08/M04 A3002 RMK AO2,M
CXP,2023-03-19 13:15,-119.7326,39.1923,1431.00,39.20,33.80,80.79,70.00,6.00,0.00,29.86,M,10.00,M,SCT,SCT,OVC,M,3000.00,5500.00,8000.00,M,M,M,M,M,M,M,M,34.20,KCXP 191315Z AUTO 07006KT 10SM SCT030 SCT055 OVC080 04/01 A2986 RMK AO2,M
RTS,2023-03-19 13:15,-119.8764,39.6682,1539.00,37.40,33.80,86.69,140.00,9.00,0.00,29.86,M,7.00,M,SCT,SCT,BKN,M,2100.00,4000.00,7000.00,M,-RA,M,M,M,M,M,M,30.23,KRTS 191315Z AUTO 14009KT 7SM -RA SCT021 SCT040 BKN070 03/01 A2986 RMK AO2,M
05U,2023-03-19 13:15,-116.0051,39.6042,1811.23,M,M,M,150.00,11.00,0.00,29.98,M,10.00,M,FEW,M,M,M,12000.00,M,M,M,M,M,M,M,M,M,M,M,K05U 191315Z AUTO 15011KT 10SM FEW120 A2998 RMK A01,M
MEV,2023-03-19 13:15,-119.7500,38.9963,1441.42,41.00,30.20,65.16,130.00,4.00,0.00,29.83,M,10.00,M,FEW,BKN,OVC,M,4000.00,6500.00,7500.00,M,M,M,M,M,M,M,M,37.93,KMEV 191315Z AUTO 13004KT 10SM FEW040 BKN065 OVC075 05/M01 A2983 RMK AO2,M
BAM,2023-03-19 13:15,-116.8743,40.5990,1382.36,32.00,24.80,74.44,100.00,5.00,0.00,29.91,M,10.00,M,CLR,M,M,M,M,M,M,M,M,M,M,M,M,M,M,26.40,KBAM 191315Z AUTO 10005KT 10SM CLR 00/M04 A2991 RMK AO1,M
HTH,2023-03-19 13:15,-118.6315,38.5448,1282.89,46.40,21.20,36.48,140.00,20.00,0.00,29.86,M,10.00,M,FEW,SCT,BKN,M,2100.00,5000.00,7000.00,M,M,M,M,M,M,M,M,38.26,KHTH 191315Z AUTO 14020KT 10SM FEW021 SCT050 BKN070 08/M06 A2986 RMK A01,M
TMT,2023-03-19 13:15,-117.1971,39.4643,1749.34,28.00,25.70,90.94,0.00,0.00,0.00,29.92,M,10.00,M,CLR,M,M,M,M,M,M,M,M,M,M,M,M,M,M,28.00,KTMT 191315Z AUTO 00000KT 10SM CLR M02/M03 A2992 RMK AO2 T10221035,M
BVU,2023-03-19 13:35,-114.8611,35.9475,671.00,48.20,24.80,39.66,0.00,0.00,0.00,30.02,M,10.00,M,CLR,M,M,M,M,M,M,M,M,M,M,M,M,M,M,48.20,KBVU 191335Z AUTO 00000KT 10SM CLR 09/M04 A3002 RMK AO2,M
CXP,2023-03-19 13:35,-119.7326,39.1923,1431.00,39.20,32.00,75.16,0.00,0.00,0.00,29.85,M,10.00,M,OVC,M,M,M,7500.00,M,M,M,M,M,M,M,M,M,M,39.20,KCXP 191335Z AUTO 00000KT 10SM OVC075 04/00 A2985 RMK AO2,M
RTS,2023-03-19 13:35,-119.8764,39.6682,1539.00,37.40,33.80,86.69,120.00,7.00,0.00,29.85,M,10.00,M,OVC,M,M,M,7000.00,M,M,M,M,M,M,M,M,M,M,31.36,KRTS 191335Z AUTO 12007KT 10SM OVC070 03/01 A2985 RMK AO2,M
05U,2023-03-19 13:35,-116.0051,39.6042,1811.23,M,M,M,150.00,11.00,0.00,29.98,M,10.00,M,CLR,M,M,M,M,M,M,M,M,M,M,M,M,M,M,M,K05U 191335Z AUTO 15011KT 10SM CLR A2998 RMK A01,M
MEV,2023-03-19 13:35,-119.7500,38.9963,1441.42,39.20,32.00,75.16,0.00,0.00,0.00,29.83,M,10.00,M,BKN,OVC,M,M,6500.00,7500.00,M,M,M,M,M,M,M,M,M,39.20,KMEV 191335Z AUTO 00000KT 10SM BKN065 OVC075 04/M00 A2983 RMK AO2,M
BAM,2023-03-19 13:35,-116.8743,40.5990,1382.36,33.80,23.00,64.23,90.00,10.00,0.00,29.91,M,10.00,M,CLR,M,M,M,M,M,M,M,M,M,M,M,M,M,M,25.23,KBAM 191335Z AUTO 09010KT 10SM CLR 01/M05 A2991 RMK AO1,M
HTH,2023-03-19 13:35,-118.6315,38.5448,1282.89,46.40,19.40,33.79,140.00,14.00,0.00,29.85,M,10.00,23.00,SCT,BKN,OVC,M,6500.00,7500.00,9500.00,M,M,M,M,M,M,M,M,39.72,KHTH 191335Z AUTO 14014G23KT 10SM SCT065 BKN075 OVC095 08/M07 A2985 RMK A01,M
TMT,2023-03-19 13:35,-117.1971,39.4643,1749.34,28.40,26.60,92.86,300.00,3.00,0.00,29.91,M,10.00,M,SCT,M,M,M,11000.00,M,M,M,M,M,M,M,M,M,M,24.57,KTMT 191335Z AUTO 30003KT 10SM SCT110 M02/M03 A2991 RMK AO2 T10201030,M
HTH,2023-03-19 13:50,-118.6315,38.5448,1282.89,46.40,19.40,33.79,130.00,12.00,0.00,29.85,M,10.00,18.00,FEW,FEW,OVC,M,6500.00,7500.00,10000.00,M,M,M,M,M,M,M,M,40.33,KHTH 191350Z AUTO 13012G18KT 10SM FEW065 FEW075 OVC100 08/M07 A2985 RMK A01,M
DRA,2023-03-19 13:53,-116.0278,36.6206,1009.00,43.00,28.00,55.14,0.00,0.00,0.00,29.99,1013.70,10.00,M,FEW,M,M,M,12000.00,M,M,M,M,M,M,M,M,M,M,43.00,KDRA 191353Z AUTO 00000KT 10SM FEW120 06/M02 A2999 RMK AO2 SLP137 T00611022,M
ELY,2023-03-19 13:53,-114.8453,39.2950,1909.00,28.90,12.90,50.70,210.00,14.00,0.00,30.01,1016.80,10.00,M,CLR,M,M,M,M,M,M,M,M,M,M,M,M,M,M,17.17,KELY 191353Z AUTO 21014KT 10SM CLR M02/M11 A3001 RMK AO2 SLP168 T10171106 $,M
VGT,2023-03-19 13:53,-115.1933,36.2111,667.00,52.00,19.00,26.95,0.00,0.00,0.00,30.01,1017.50,10.00,M,CLR,M,M,M,M,M,M,M,M,M,M,M,M,M,M,52.00,KVGT 191353Z 00000KT 10SM CLR 11/M07 A3001 RMK AO2 SLP175 T01111072,M
LOL,2023-03-19 13:53,-118.5701,40.0684,1192.43,38.00,24.10,57.18,250.00,7.00,0.00,29.85,1010.60,10.00,M,BKN,OVC,M,M,7500.00,9000.00,M,M,M,M,M,M,M,M,M,31.97,KLOL 191353Z AUTO 25007KT 10SM BKN075 OVC090 03/M04 A2985 RMK AO2 SLP106 T00331044,M
P68,2023-03-19 13:53,-116.0056,39.6014,1993.00,35.00,16.00,45.22,130.00,10.00,0.00,29.94,1012.50,M,M,M,M,M,M,M,M,M,M,M,M,M,M,M,M,M,26.86,KP68 191353Z AUTO 13010KT 02/M09 A2994 RMK AO1 SLP125 T00171089,M
BVU,2023-03-19 13:55,-114.8611,35.9475,671.00,48.20,24.80,39.66,0.00,0.00,0.00,30.02,M,10.00,M,CLR,M,M,M,M,M,M,M,M,M,M,M,M,M,M,48.20,KBVU 191355Z AUTO 00000KT 10SM CLR 09/M04 A3002 RMK AO2,M
CXP,2023-03-19 13:55,-119.7326,39.1923,1431.00,39.20,33.80,80.79,300.00,4.00,0.00,29.85,M,10.00,M,OVC,M,M,M,7500.00,M,M,M,M,M,M,M,M,M,M,35.83,KCXP 191355Z AUTO 30004KT 10SM OVC075 04/01 A2985 RMK AO2,M
RNO,2023-03-19 13:55,-119.7711,39.4839,1341.00,41.00,34.00,75.94,150.00,5.00,T,29.84,1008.60,10.00,M,FEW,OVC,M,M,4000.00,7000.00,M,M,-RA,M,M,M,M,M,M,37.08,KRNO 191355Z 15005KT 10SM -RA FEW040 OVC070 05/01 A2984 RMK AO2 RAE1257B54 SLP086 MTN TOPS OBSCD DSNT SW THRU NW P0000 T00500011,M
RTS,2023-03-19 13:55,-119.8764,39.6682,1539.00,35.60,33.80,93.08,70.00,7.00,0.00,29.85,M,10.00,M,FEW,OVC,M,M,1000.00,6500.00,M,M,M,M,M,M,M,M,M,29.17,KRTS 191355Z AUTO 07007KT 10SM FEW010 OVC065 02/01 A2985 RMK AO2,M
05U,2023-03-19 13:55,-116.0051,39.6042,1811.23,M,M,M,140.00,8.00,0.00,29.97,M,10.00,M,FEW,M,M,M,12000.00,M,M,M,M,M,M,M,M,M,M,M,K05U 191355Z AUTO 14008KT 10SM FEW120 A2997 RMK A01,M
MEV,2023-03-19 13:55,-119.7500,38.9963,1441.42,39.20,32.00,75.16,350.00,7.00,0.00,29.83,M,1.25,M,SCT,OVC,M,M,6500.00,7500.00,M,M,-RA HZ,M,M,M,M,M,M,33.56,KMEV 191355Z AUTO 35007KT 1 1/4SM -RA HZ SCT065 OVC075 04/00 A2983 RMK AO2,M
BAM,2023-03-19 13:55,-116.8743,40.5990,1382.36,37.40,23.00,55.68,100.00,7.00,0.00,29.91,M,10.00,M,CLR,M,M,M,M,M,M,M,M,M,M,M,M,M,M,31.36,KBAM 191355Z AUTO 10007KT 10SM CLR 03/M05 A2991 RMK AO1,M
TMT,2023-03-19 13:55,-117.1971,39.4643,1749.34,28.40,27.00,94.41,0.00,0.00,0.00,29.90,M,10.00,M,OVC,M,M,M,11000.00,M,M,M,M,M,M,M,M,M,M,28.40,KTMT 191355Z AUTO 00000KT 10SM OVC110 M02/M03 A2990 RMK AO2 T10201028,M
INS,2023-03-19 13:55,-115.6733,36.5872,955.00,41.70,23.90,48.91,0.00,0.00,0.00,30.00,1014.50,10.00,M,OVC,M,M,M,11000.00,M,M,M,M,M,M,M,M,M,M,41.70,KINS 191355Z AUTO 00000KT 10SM OVC110 05/M04 A3000 RMK AO2 SLP145 T00541045 $,M
LSV,2023-03-19 13:55,-115.0343,36.2362,570.00,50.20,21.40,31.91,0.00,0.00,0.00,30.00,1015.30,10.00,M,CLR,M,M,M,M,M,M,M,M,M,M,M,M,M,M,50.20,KLSV 191355Z AUTO 00000KT 10SM CLR 10/M06 A3000 RMK AO2 SLP153 T01011059 $,M
EKO,2023-03-19 13:56,-115.7860,40.8242,1367.00,26.10,19.00,74.16,100.00,3.00,0.00,29.97,1016.80,10.00,M,CLR,M,M,M,M,M,M,M,M,M,M,M,M,M,M,21.94,KEKO 191356Z AUTO 10003KT 10SM CLR M03/M07 A2997 RMK AO2 SLP168 T10331072,M
NFL,2023-03-19 13:56,-118.7010,39.4166,1199.00,48.00,23.00,37.06,180.00,15.00,0.00,29.85,1008.50,10.00,26.00,OVC,M,M,M,5000.00,M,M,M,M,M,M,M,31.00,170.00,2023-03-19 13:45,41.52,KNFL 191356Z AUTO 18015G26KT 10SM OVC050 09/M05 A2985 RMK AO2 PK WND 17031/1345 SLP085 T00891050,M
HND,2023-03-19 13:56,-115.1344,35.9729,742.79,47.00,21.90,36.87,190.00,5.00,0.00,30.03,1018.30,10.00,M,CLR,M,M,M,M,M,M,M,M,M,M,M,M,M,M,44.09,KHND 191356Z 19005KT 10SM CLR 08/M06 A3003 RMK AO2 SLP183 T00831056,M
TPH,2023-03-19 13:56,-117.0904,38.0505,1654.00,37.00,18.00,45.73,0.00,0.00,0.00,29.95,1012.80,10.00,M,OVC,M,M,M,4800.00,M,M,M,M,M,M,M,M,M,M,37.00,KTPH 191356Z AUTO 00000KT 10SM OVC048 03/M08 A2995 RMK AO2 SLP128 T00281078,M
LAS,2023-03-19 13:56,-115.1634,36.0719,663.00,50.00,21.00,31.60,280.00,4.00,0.00,30.01,1015.70,10.00,M,SCT,BKN,BKN,M,13000.00,18000.00,25000.00,M,M,M,M,M,M,M,M,50.00,KLAS 191356Z 28004KT 10SM SCT130 BKN180 BKN250 10/M06 A3001 RMK AO2 SLP157 T01001061,M
WMC,2023-03-19 13:56,-117.8072,40.9019,1315.00,38.00,21.90,52.13,70.00,10.00,0.00,29.85,1010.10,10.00,M,CLR,M,M,M,M,M,M,M,M,M,M,M,M,M,M,30.37,KWMC 191356Z AUTO 07010KT 10SM CLR 03/M06 A2985 RMK AO2 SLP101 T00331056,M
BVU,2023-03-19 14:15,-114.8611,35.9475,671.00,48.20,24.80,39.66,0.00,0.00,0.00,30.03,M,10.00,M,CLR,M,M,M,M,M,M,M,M,M,M,M,M,M,M,48.20,KBVU 191415Z AUTO 00000KT 10SM CLR 09/M04 A3003 RMK AO2,M
CXP,2023-03-19 14:15,-119.7326,39.1923,1431.00,39.20,33.80,80.79,250.00,3.00,0.00,29.84,M,10.00,M,OVC,M,M,M,7000.00,M,M,M,M,M,M,M,M,M,M,36.92,KCXP 191415Z AUTO 25003KT 10SM OVC070 04/01 A2984 RMK AO2,M
RTS,2023-03-19 14:15,-119.8764,39.6682,1539.00,35.60,33.80,93.08,70.00,6.00,0.00,29.84,M,10.00,M,FEW,OVC,M,M,4300.00,6500.00,M,M,M,M,M,M,M,M,M,29.87,KRTS 191415Z AUTO 07006KT 10SM FEW043 OVC065 02/01 A2984 RMK AO2,M
05U,2023-03-19 14:15,-116.0051,39.6042,1811.23,M,M,M,140.00,6.00,0.00,29.96,M,10.00,M,FEW,M,M,M,12000.00,M,M,M,M,M,M,M,M,M,M,M,K05U 191415Z AUTO 14006KT 10SM FEW120 A2996 RMK A01,M
MEV,2023-03-19 14:15,-119.7500,38.9963,1441.42,39.20,32.00,75.16,360.00,6.00,0.00,29.82,M,4.00,M,FEW,OVC,M,M,6000.00,7000.00,M,M,-RA HZ,M,M,M,M,M,M,34.20,KMEV 191415Z AUTO 36006KT 4SM -RA HZ FEW060 OVC070 04/00 A2982 RMK AO2,M
BAM,2023-03-19 14:15,-116.8743,40.5990,1382.36,32.00,26.60,80.22,0.00,0.00,0.00,29.91,M,10.00,M,CLR,M,M,M,M,M,M,M,M,M,M,M,M,M,M,32.00,KBAM 191415Z AUTO 00000KT 10SM CLR 00/M03 A2991 RMK AO1,M
HTH,2023-03-19 14:15,-118.6315,38.5448,1282.89,46.40,19.40,33.79,120.00,13.00,0.00,29.84,M,10.00,M,BKN,BKN,M,M,9500.00,12000.00,M,M,M,M,M,M,M,M,M,40.02,KHTH 191415Z AUTO 12013KT 10SM BKN095 BKN120 08/M07 A2984 RMK A01,M
TMT,2023-03-19 14:15,-117.1971,39.4643,1749.34,28.80,27.10,93.26,0.00,0.00,0.00,29.89,M,10.00,M,BKN,M,M,M,10000.00,M,M,M,M,M,M,M,M,M,M,28.80,KTMT 191415Z AUTO 00000KT 10SM BKN100 M02/M03 A2989 RMK AO2 T10181027,M
BVU,2023-03-19 14:35,-114.8611,35.9475,671.00,48.20,24.80,39.66,0.00,0.00,0.00,30.04,M,10.00,M,CLR,M,M,M,M,M,M,M,M,M,M,M,M,M,M,48.20,KBVU 191435Z AUTO 00000KT 10SM CLR 09/M04 A3004 RMK AO2,M
CXP,2023-03-19 14:35,-119.7326,39.1923,1431.00,39.20,32.00,75.16,270.00,5.00,0.00,29.84,M,10.00,M,SCT,SCT,OVC,M,4800.00,6000.00,7000.00,M,M,M,M,M,M,M,M,34.95,KCXP 191435Z AUTO 27005KT 10SM SCT048 SCT060 OVC070 04/00 A2984 RMK AO2,M
RTS,2023-03-19 14:35,-119.8764,39.6682,1539.00,35.60,33.80,93.08,80.00,7.00,0.00,29.83,M,10.00,M,FEW,OVC,M,M,5000.00,6500.00,M,M,M,M,M,M,M,M,M,29.17,KRTS 191435Z AUTO 08007KT 10SM FEW050 OVC065 02/01 A2983 RMK AO2,M
05U,2023-03-19 14:35,-116.0051,39.6042,1811.23,M,M,M,130.00,5.00,0.00,29.96,M,10.00,M,CLR,M,M,M,M,M,M,M,M,M,M,M,M,M,M,M,K05U 191435Z AUTO 13005KT 10SM CLR A2996 RMK A01,M
MEV,2023-03-19 14:35,-119.7500,38.9963,1441.42,39.20,33.80,80.79,360.00,8.00,0.00,29.82,M,10.00,M,OVC,M,M,M,7000.00,M,M,M,M,M,M,M,M,M,M,32.98,KMEV 191435Z AUTO 36008KT 10SM OVC070 04/01 A2982 RMK AO2,M
BAM,2023-03-19 14:35,-116.8743,40.5990,1382.36,32.00,26.60,80.22,100.00,4.00,0.00,29.90,M,10.00,M,CLR,M,M,M,M,M,M,M,M,M,M,M,M,M,M,27.42,KBAM 191435Z AUTO 10004KT 10SM CLR 00/M03 A2990 RMK AO1,M
HTH,2023-03-19 14:35,-118.6315,38.5448,1282.89,46.40,17.60,31.28,130.00,15.00,0.00,29.84,M,10.00,21.00,OVC,M,M,M,9000.00,M,M,M,M,M,M,M,M,M,M,39.45,KHTH 191435Z AUTO 13015G21KT 10SM OVC090 08/M08 A2984 RMK A01,M
TMT,2023-03-19 14:35,-117.1971,39.4643,1749.34,29.30,27.50,92.89,0.00,0.00,0.00,29.89,M,10.00,M,BKN,BKN,M,M,10000.00,11000.00,M,M,M,M,M,M,M,M,M,29.30,KTMT 191435Z AUTO 00000KT 10SM BKN100 BKN110 M01/M02 A2989 RMK AO2 T10151025,M
P68,2023-03-19 14:53,-116.0056,39.6014,1993.00,36.00,15.10,41.96,M,3.00,0.00,29.93,1011.70,M,M,M,M,M,M,M,M,M,M,M,M,M,M,M,M,M,33.26,KP68 191453Z AUTO VRB03KT 02/M09 A2993 RMK AO1 SLP117 T00221094 58009,M
DRA,2023-03-19 14:53,-116.0278,36.6206,1009.00,46.00,24.10,41.84,20.00,3.00,0.00,29.99,1013.90,10.00,M,OVC,M,M,M,9500.00,M,M,M,M,M,M,M,M,M,M,44.69,KDRA 191453Z AUTO 02003KT 10SM OVC095 08/M04 A2999 RMK AO2 SLP139 T00781044 51002,M
ELY,2023-03-19 14:53,-114.8453,39.2950,1909.00,28.00,14.00,55.21,220.00,10.00,0.00,29.99,1016.50,10.00,M,CLR,M,M,M,M,M,M,M,M,M,M,M,M,M,M,17.95,KELY 191453Z AUTO 22010KT 10SM CLR M02/M10 A2999 RMK AO2 SLP165 T10221100 57008 $,M
LOL,2023-03-19 14:53,-118.5701,40.0684,1192.43,45.00,25.00,45.12,210.00,10.00,0.00,29.86,1010.80,10.00,M,BKN,OVC,M,M,6000.00,7000.00,M,M,M,M,M,M,M,M,M,39.27,KLOL 191453Z AUTO 21010KT 10SM BKN060 OVC070 07/M04 A2986 RMK AO2 SLP108 T00721039 53001,M
VGT,2023-03-19 14:53,-115.1933,36.2111,667.00,53.00,21.00,28.18,0.00,0.00,0.00,30.02,1017.90,10.00,M,FEW,M,M,M,12000.00,M,M,M,M,M,M,M,M,M,M,53.10,KVGT 191453Z 00000KT 10SM FEW120 12/M06 A3002 RMK AO2 SLP179 T01171061 53005,M
BVU,2023-03-19 14:55,-114.8611,35.9475,671.00,50.00,23.00,34.39,0.00,0.00,0.00,30.03,M,10.00,M,CLR,M,M,M,M,M,M,M,M,M,M,M,M,M,M,50.00,KBVU 191455Z AUTO 00000KT 10SM CLR 10/M05 A3003 RMK AO2,M
CXP,2023-03-19 14:55,-119.7326,39.1923,1431.00,39.20,33.80,80.79,320.00,4.00,0.00,29.83,M,10.00,M,FEW,SCT,BKN,M,2300.00,2800.00,3700.00,M,-RA,M,M,M,M,M,M,35.83,KCXP 191455Z AUTO 32004KT 10SM -RA FEW023 SCT028 BKN037 04/01 A2983 RMK AO2,M
RNO,2023-03-19 14:55,-119.7711,39.4839,1341.00,41.00,34.00,75.94,70.00,5.00,T,29.82,1008.20,10.00,M,BKN,OVC,M,M,3700.00,5500.00,M,M,-RA,M,M,M,M,M,M,37.08,KRNO 191455Z 07005KT 10SM -RA BKN037 OVC055 05/01 A2982 RMK AO2 RAE01B42 SLP082 P0000 60000 T00500011 58011,M
RTS,2023-03-19 14:55,-119.8764,39.6682,1539.00,35.60,33.80,93.08,80.00,5.00,0.00,29.83,M,9.00,M,SCT,BKN,OVC,M,1400.00,2800.00,6500.00,M,M,M,M,M,M,M,M,30.67,KRTS 191455Z AUTO 08005KT 9SM SCT014 BKN028 OVC065 02/01 A2983 RMK AO2,M
05U,2023-03-19 14:55,-116.0051,39.6042,1811.23,M,M,M,0.00,0.00,0.00,29.95,M,10.00,M,CLR,M,M,M,M,M,M,M,M,M,M,M,M,M,M,M,K05U 191455Z AUTO 00000KT 10SM CLR A2995 RMK A01,M
MEV,2023-03-19 14:55,-119.7500,38.9963,1441.42,39.20,33.80,80.79,360.00,10.00,0.00,29.80,M,10.00,M,OVC,M,M,M,6500.00,M,M,M,M,M,M,M,M,M,M,32.00,KMEV 191455Z AUTO 36010KT 10SM OVC065 04/01 A2980 RMK AO2,M
BAM,2023-03-19 14:55,-116.8743,40.5990,1382.36,41.00,23.00,48.39,90.00,9.00,0.00,29.89,M,10.00,M,CLR,M,M,M,M,M,M,M,M,M,M,M,M,M,M,34.70,KBAM 191455Z AUTO 09009KT 10SM CLR 05/M05 A2989 RMK AO1,M
HTH,2023-03-19 14:55,-118.6315,38.5448,1282.89,48.20,19.40,31.57,120.00,17.00,0.00,29.83,M,10.00,24.00,OVC,M,M,M,8500.00,M,M,M,M,M,M,M,M,M,M,41.30,KHTH 191455Z AUTO 12017G24KT 10SM OVC085 09/M07 A2983 RMK A01,M
TMT,2023-03-19 14:55,-117.1971,39.4643,1749.34,29.80,28.00,92.90,0.00,0.00,0.00,29.89,M,10.00,M,BKN,OVC,M,M,8000.00,9000.00,M,M,M,M,M,M,M,M,M,29.80,KTMT 191455Z AUTO 00000KT 10SM BKN080 OVC090 M01/M02 A2989 RMK AO2 T10121022,M
INS,2023-03-19 14:55,-115.6733,36.5872,955.00,42.40,24.60,49.02,310.00,3.00,0.00,30.00,1014.50,10.00,M,OVC,M,M,M,10000.00,M,M,M,M,M,M,M,M,M,M,40.58,KINS 191455Z AUTO 31003KT 10SM OVC100 06/M04 A3000 RMK AO2 SLP145 T00581041 56001 $,M
LSV,2023-03-19 14:55,-115.0343,36.2362,570.00,50.50,21.00,31.02,90.00,5.00,0.00,30.01,1015.80,10.00,M,FEW,M,M,M,12000.00,M,M,M,M,M,M,M,M,M,M,50.50,KLSV 191455Z AUTO 09005KT 10SM FEW120 10/M06 A3001 RMK AO2 SLP158 T01031061 53006 $,M
EKO,2023-03-19 14:56,-115.7860,40.8242,1367.00,28.00,19.90,71.25,80.00,8.00,0.00,29.95,1016.10,10.00,M,CLR,M,M,M,M,M,M,M,M,M,M,M,M,M,M,19.19,KEKO 191456Z AUTO 08008KT 10SM CLR M02/M07 A2995 RMK AO2 SLP161 T10221067 58011,M
NFL,2023-03-19 14:56,-118.7010,39.4166,1199.00,46.00,23.00,39.96,130.00,12.00,0.00,29.84,1008.10,10.00,M,SCT,OVC,M,M,7500.00,9000.00,M,M,M,M,M,M,M,M,M,39.82,KNFL 191456Z AUTO 13012KT 10SM SCT075 OVC090 08/M05 A2984 RMK AO2 SLP081 T00781050 58004,M
HND,2023-03-19 14:56,-115.1344,35.9729,742.79,48.00,21.90,35.38,170.00,6.00,0.00,30.04,1018.90,10.00,M,SCT,M,M,M,12000.00,M,M,M,M,M,M,M,M,M,M,44.80,KHND 191456Z 17006KT 10SM SCT120 09/M06 A3004 RMK AO2 SLP189 T00891056 53005,M
LAS,2023-03-19 14:56,-115.1634,36.0719,663.00,51.00,21.90,31.52,0.00,0.00,0.00,30.03,1016.20,10.00,M,SCT,BKN,OVC,M,12000.00,18000.00,25000.00,M,M,M,M,M,M,M,M,51.10,KLAS 191456Z 00000KT 10SM SCT120 BKN180 OVC250 11/M06 A3003 RMK AO2 SLP162 T01061056 53003,M
WMC,2023-03-19 14:56,-117.8072,40.9019,1315.00,40.00,21.90,48.21,60.00,8.00,0.00,29.85,1010.30,10.00,M,BKN,M,M,M,12000.00,M,M,M,M,M,M,M,M,M,M,33.84,KWMC 191456Z AUTO 06008KT 10SM BKN120 04/M06 A2985 RMK AO2 SLP103 T00441056 56008,M
TPH,2023-03-19 14:56,-117.0904,38.0505,1654.00,40.00,15.10,36.01,150.00,10.00,0.00,29.95,1012.60,10.00,M,BKN,BKN,OVC,M,6000.00,8000.00,10000.00,M,M,M,M,M,M,M,M,32.87,KTPH 191456Z AUTO 15010KT 10SM BKN060 BKN080 OVC100 04/M09 A2995 RMK AO2 SLP126 T00441094 57007,M
BVU,2023-03-19 15:15,-114.8611,35.9475,671.00,50.00,26.60,39.95,0.00,0.00,0.00,30.04,M,10.00,M,CLR,M,M,M,M,M,M,M,M,M,M,M,M,M,M,50.00,KBVU 191515Z AUTO 00000KT 10SM CLR 10/M03 A3004 RMK AO2,M
CXP,2023-03-19 15:15,-119.7326,39.1923,1431.00,41.00,33.80,75.33,340.00,4.00,0.00,29.82,M,10.00,M,FEW,FEW,OVC,M,2300.00,2800.00,6500.00,M,M,M,M,M,M,M,M,37.93,KCXP 191515Z AUTO 34004KT 10SM FEW023 FEW028 OVC065 05/01 A2982 RMK AO2,M
RTS,2023-03-19 15:15,-119.8764,39.6682,1539.00,35.60,33.80,93.08,70.00,6.00,0.00,29.83,M,9.00,M,BKN,BKN,BKN,M,1400.00,2400.00,2800.00,M,M,M,M,M,M,M,M,29.87,KRTS 191515Z AUTO 07006KT 9SM BKN014 BKN024 BKN028 02/01 A2983 RMK AO2,M
05U,2023-03-19 15:15,-116.0051,39.6042,1811.23,M,M,M,150.00,12.00,0.00,29.95,M,10.00,M,CLR,M,M,M,M,M,M,M,M,M,M,M,M,M,M,M,K05U 191515Z AUTO 15012KT 10SM CLR A2995 RMK A01,M
MEV,2023-03-19 15:15,-119.7500,38.9963,1441.42,39.20,33.80,80.79,360.00,6.00,0.00,29.80,M,10.00,M,OVC,M,M,M,6500.00,M,M,M,M,M,M,M,M,M,M,34.20,KMEV 191515Z AUTO 36006KT 10SM OVC065 04/01 A2980 RMK AO2,M
BAM,2023-03-19 15:15,-116.8743,40.5990,1382.36,41.00,23.00,48.39,80.00,9.00,0.00,29.88,M,10.00,M,CLR,M,M,M,M,M,M,M,M,M,M,M,M,M,M,34.70,KBAM 191515Z AUTO 08009KT 10SM CLR 05/M05 A2988 RMK AO1,M
HTH,2023-03-19 15:15,-118.6315,38.5448,1282.89,48.20,19.40,31.57,130.00,17.00,0.00,29.82,M,10.00,25.00,BKN,M,M,M,9000.00,M,M,M,M,M,M,M,M,M,M,41.30,KHTH 191515Z AUTO 13017G25KT 10SM BKN090 09/M07 A2982 RMK A01,M
TMT,2023-03-19 15:15,-117.1971,39.4643,1749.34,30.40,28.60,92.92,0.00,0.00,0.00,29.90,M,10.00,M,BKN,BKN,OVC,M,6000.00,7000.00,8000.00,M,M,M,M,M,M,M,M,30.40,KTMT 191515Z AUTO 00000KT 10SM BKN060 BKN070 OVC080 M01/M02 A2990 RMK AO2 T10091019,M
NFL,2023-03-19 15:33,-118.7010,39.4166,1199.00,49.00,25.00,38.95,120.00,10.00,0.00,29.82,M,10.00,M,BKN,BKN,BKN,BKN,8000.00,10000.00,15000.00,18000.00,M,M,M,M,M,M,M,44.16,KNFL 191533Z 12010KT 10SM BKN080 BKN100 BKN150 BKN180 09/M04 A2982 RMK AO2 T00941039,M
BVU,2023-03-19 15:35,-114.8611,35.9475,671.00,50.00,28.40,43.03,0.00,0.00,0.00,30.04,M,10.00,M,CLR,M,M,M,M,M,M,M,M,M,M,M,M,M,M,50.00,KBVU 191535Z AUTO 00000KT 10SM CLR 10/M02 A3004 RMK AO2,M
CXP,2023-03-19 15:35,-119.7326,39.1923,1431.00,41.00,33.80,75.33,0.00,0.00,0.00,29.82,M,10.00,M,FEW,FEW,OVC,M,4400.00,4900.00,6500.00,M,M,M,M,M,M,M,M,41.00,KCXP 191535Z AUTO 00000KT 10SM FEW044 FEW049 OVC065 05/01 A2982 RMK AO2,M
RTS,2023-03-19 15:35,-119.8764,39.6682,1539.00,37.40,35.60,93.14,80.00,6.00,0.00,29.82,M,10.00,M,FEW,BKN,OVC,M,900.00,1500.00,6500.00,M,M,M,M,M,M,M,M,32.03,KRTS 191535Z AUTO 08006KT 10SM FEW009 BKN015 OVC065 03/02 A2982 RMK AO2,M
05U,2023-03-19 15:35,-116.0051,39.6042,1811.23,M,M,M,150.00,11.00,0.00,29.95,M,10.00,M,CLR,M,M,M,M,M,M,M,M,M,M,M,M,M,M,M,K05U 191535Z AUTO 15011KT 10SM CLR A2995 RMK A01,M
MEV,2023-03-19 15:35,-119.7500,38.9963,1441.42,41.00,33.80,75.33,360.00,8.00,0.00,29.80,M,10.00,M,OVC,M,M,M,6500.00,M,M,M,M,M,M,M,M,M,M,35.20,KMEV 191535Z AUTO 36008KT 10SM OVC065 05/01 A2980 RMK AO2,M
BAM,2023-03-19 15:35,-116.8743,40.5990,1382.36,42.80,23.00,45.14,80.00,8.00,0.00,29.88,M,10.00,M,CLR,M,M,M,M,M,M,M,M,M,M,M,M,M,M,37.42,KBAM 191535Z AUTO 08008KT 10SM CLR 06/M05 A2988 RMK AO1,M
HTH,2023-03-19 15:35,-118.6315,38.5448,1282.89,48.20,19.40,31.57,120.00,18.00,0.00,29.82,M,10.00,25.00,FEW,M,M,M,10000.00,M,M,M,M,M,M,M,M,M,M,41.07,KHTH 191535Z AUTO 12018G25KT 10SM FEW100 09/M07 A2982 RMK A01,M
TMT,2023-03-19 15:35,-117.1971,39.4643,1749.34,31.30,27.50,85.64,100.00,5.00,0.00,29.91,M,10.00,M,SCT,BKN,OVC,M,2800.00,4300.00,6000.00,M,M,M,M,M,M,M,M,25.56,KTMT 191535Z AUTO 10005KT 10SM SCT028 BKN043 OVC060 00/M02 A2991 RMK AO2 T10041025,M
P68,2023-03-19 15:53,-116.0056,39.6014,1993.00,36.00,17.10,45.77,150.00,12.00,0.00,29.93,1011.60,M,M,M,M,M,M,M,M,M,M,M,M,M,M,M,M,M,27.09,KP68 191553Z AUTO 15012KT 02/M08 A2993 RMK AO1 SLP116 T00221083,M
DRA,2023-03-19 15:53,-116.0278,36.6206,1009.00,46.00,27.00,47.20,20.00,3.00,0.00,30.00,1014.40,10.00,M,OVC,M,M,M,8500.00,M,M,M,M,M,M,M,M,M,M,44.69,KDRA 191553Z AUTO 02003KT 10SM OVC085 08/M03 A3000 RMK AO2 SLP144 T00781028,M
ELY,2023-03-19 15:53,-114.8453,39.2950,1909.00,30.00,18.00,60.53,190.00,13.00,0.00,29.97,1015.80,10.00,21.00,CLR,M,M,M,M,M,M,M,M,M,M,M,M,M,M,19.01,KELY 191553Z AUTO 19013G21KT 10SM CLR M01/M08 A2997 RMK AO2 SLP158 T10111078 $,M
VGT,2023-03-19 15:53,-115.1933,36.2111,667.00,53.00,21.00,28.18,0.00,0.00,0.00,30.03,1018.20,10.00,M,OVC,M,M,M,10000.00,M,M,M,M,M,M,M,M,M,M,53.10,KVGT 191553Z 00000KT 10SM OVC100 12/M06 A3003 RMK AO2 SLP182 T01171061,M
LOL,2023-03-19 15:53,-118.5701,40.0684,1192.43,43.00,28.00,55.14,140.00,13.00,T,29.86,1010.90,10.00,21.00,BKN,OVC,M,M,3900.00,4800.00,M,M,-RA,M,M,M,28.00,200.00,2023-03-19 15:03,35.66,KLOL 191553Z AUTO 14013G21KT 10SM -RA BKN039 OVC048 06/M02 A2986 RMK AO2 PK WND 20028/1503 RAB05E20B52 SLP109 P0000 T00611022,M
BVU,2023-03-19 15:55,-114.8611,35.9475,671.00,50.00,26.60,39.95,0.00,0.00,0.00,30.04,M,10.00,M,CLR,M,M,M,M,M,M,M,M,M,M,M,M,M,M,50.00,KBVU 191555Z AUTO 00000KT 10SM CLR 10/M03 A3004 RMK AO2,M
CXP,2023-03-19 15:55,-119.7326,39.1923,1431.00,41.00,33.80,75.33,0.00,0.00,0.00,29.82,M,10.00,M,FEW,SCT,BKN,M,4500.00,5000.00,6000.00,M,M,M,M,M,M,M,M,41.00,KCXP 191555Z AUTO 00000KT 10SM FEW045 SCT050 BKN060 05/01 A2982 RMK AO2,M
RTS,2023-03-19 15:55,-119.8764,39.6682,1539.00,37.40,35.60,93.14,70.00,5.00,0.00,29.82,M,5.00,M,SCT,BKN,BKN,M,1000.00,1500.00,2100.00,M,-RA,M,M,M,M,M,M,32.81,KRTS 191555Z AUTO 07005KT 5SM -RA SCT010 BKN015 BKN021 03/02 A2982 RMK AO2,M
05U,2023-03-19 15:55,-116.0051,39.6042,1811.23,M,M,M,150.00,9.00,0.00,29.95,M,10.00,M,CLR,M,M,M,M,M,M,M,M,M,M,M,M,M,M,M,K05U 191555Z AUTO 15009KT 10SM CLR A2995 RMK A01,M
MEV,2023-03-19 15:55,-119.7500,38.9963,1441.42,41.00,33.80,75.33,360.00,10.00,0.00,29.80,M,10.00,M,OVC,M,M,M,6000.00,M,M,M,M,M,M,M,M,M,M,34.25,KMEV 191555Z AUTO 36010KT 10SM OVC060 05/01 A2980 RMK AO2,M
BAM,2023-03-19 15:55,-116.8743,40.5990,1382.36,42.80,23.00,45.14,90.00,4.00,0.00,29.89,M,10.00,M,CLR,M,M,M,M,M,M,M,M,M,M,M,M,M,M,40.03,KBAM 191555Z AUTO 09004KT 10SM CLR 06/M05 A2989 RMK AO1,M
HTH,2023-03-19 15:55,-118.6315,38.5448,1282.89,48.20,19.40,31.57,140.00,27.00,0.00,29.82,M,10.00,M,FEW,M,M,M,9500.00,M,M,M,M,M,M,M,M,M,M,39.42,KHTH 191555Z AUTO 14027KT 10SM FEW095 09/M07 A2982 RMK A01,M
TMT,2023-03-19 15:55,-117.1971,39.4643,1749.34,34.00,27.90,78.11,0.00,0.00,0.00,29.90,M,10.00,M,SCT,BKN,OVC,M,2700.00,4000.00,4800.00,M,M,M,M,M,M,M,M,34.00,KTMT 191555Z AUTO 00000KT 10SM SCT027 BKN040 OVC048 01/M02 A2990 RMK AO2 T00111023,M
INS,2023-03-19 15:55,-115.6733,36.5872,955.00,46.60,21.00,35.90,240.00,3.00,0.00,30.00,1014.50,10.00,M,OVC,M,M,M,10000.00,M,M,M,M,M,M,M,M,M,M,45.38,KINS 191555Z AUTO 24003KT 10SM OVC100 08/M06 A3000 RMK AO2 SLP145 T00811061 $,M
LSV,2023-03-19 15:55,-115.0343,36.2362,570.00,52.30,21.70,29.90,60.00,7.00,0.00,30.01,1015.80,10.00,M,CLR,M,M,M,M,M,M,M,M,M,M,M,M,M,M,52.30,KLSV 191555Z AUTO 06007KT 10SM CLR 11/M06 A3001 RMK AO2 SLP158 T01131057 $,M
RNO,2023-03-19 15:55,-119.7711,39.4839,1341.00,42.00,34.00,72.78,100.00,3.00,T,29.81,1007.70,10.00,M,FEW,BKN,OVC,M,3500.00,4600.00,6000.00,M,M,M,M,M,M,M,M,40.23,KRNO 191555Z 10003KT 10SM FEW035 BKN046 OVC060 06/01 A2981 RMK AO2 RAE49 SLP077 P0000 T00560011,M
EKO,2023-03-19 15:56,-115.7860,40.8242,1367.00,32.00,19.90,60.55,90.00,7.00,0.00,29.94,1015.50,10.00,M,CLR,M,M,M,M,M,M,M,M,M,M,M,M,M,M,24.78,KEKO 191556Z AUTO 09007KT 10SM CLR 00/M07 A2994 RMK AO2 SLP155 T00001067,M
NFL,2023-03-19 15:56,-118.7010,39.4166,1199.00,50.00,23.00,34.39,130.00,17.00,0.00,29.81,1007.30,10.00,25.00,BKN,BKN,BKN,BKN,8000.00,10000.00,15000.00,18000.00,M,M,M,M,M,M,M,50.00,KNFL 191556Z 13017G25KT 10SM BKN080 BKN100 BKN150 BKN180 10/M05 A2981 RMK AO2 SLP073 T01001050,M
HND,2023-03-19 15:56,-115.1344,35.9729,742.79,50.00,23.00,34.39,210.00,5.00,0.00,30.05,1019.10,10.00,M,OVC,M,M,M,11000.00,M,M,M,M,M,M,M,M,M,M,50.00,KHND 191556Z 21005KT 10SM OVC110 10/M05 A3005 RMK AO2 SLP191 T01001050,M
LAS,2023-03-19 15:56,-115.1634,36.0719,663.00,52.00,24.10,33.44,0.00,0.00,0.00,30.03,1016.20,10.00,M,FEW,BKN,BKN,OVC,7000.00,11000.00,18000.00,25000.00,M,M,M,M,M,M,M,52.00,KLAS 191556Z 00000KT 10SM FEW070 BKN110 BKN180 OVC250 11/M04 A3003 RMK AO2 SLP162 T01111044,M
WMC,2023-03-19 15:56,-117.8072,40.9019,1315.00,42.00,21.90,44.27,70.00,9.00,0.00,29.85,1009.90,10.00,M,OVC,M,M,M,10000.00,M,M,M,M,M,M,M,M,M,M,36.07,KWMC 191556Z AUTO 07009KT 10SM OVC100 06/M06 A2985 RMK AO2 SLP099 T00561056,M
TPH,2023-03-19 15:56,-117.0904,38.0505,1654.00,42.00,19.90,40.67,170.00,21.00,0.00,29.95,1013.00,10.00,33.00,BKN,OVC,M,M,4600.00,5500.00,M,M,M,M,M,M,33.00,170.00,2023-03-19 15:50,32.32,KTPH 191556Z AUTO 17021G33KT 10SM BKN046 OVC055 06/M07 A2995 RMK AO2 PK WND 17033/1550 SLP130 T00561067,M
CXP,2023-03-19 16:10,-119.7326,39.1923,1431.00,41.00,33.80,75.33,0.00,0.00,0.00,29.82,M,10.00,M,SCT,SCT,BKN,M,3000.00,3800.00,4500.00,M,M,M,M,M,M,M,M,41.00,KCXP 191610Z AUTO 00000KT 10SM SCT030 SCT038 BKN045 05/01 A2982 RMK AO2,M
BVU,2023-03-19 16:15,-114.8611,35.9475,671.00,51.80,23.00,32.17,0.00,0.00,0.00,30.04,M,10.00,M,CLR,M,M,M,M,M,M,M,M,M,M,M,M,M,M,51.80,KBVU 191615Z AUTO 00000KT 10SM CLR 11/M05 A3004 RMK AO2,M
RTS,2023-03-19 16:15,-119.8764,39.6682,1539.00,37.40,33.80,86.69,80.00,6.00,0.00,29.82,M,5.00,M,SCT,SCT,M,M,1000.00,1800.00,M,M,-DZ,M,M,M,M,M,M,32.03,KRTS 191615Z AUTO 08006KT 5SM -DZ SCT010 SCT018 03/01 A2982 RMK AO2,M
05U,2023-03-19 16:15,-116.0051,39.6042,1811.23,M,M,M,150.00,10.00,0.00,29.95,M,10.00,15.00,CLR,M,M,M,M,M,M,M,M,M,M,M,M,M,M,M,K05U 191615Z AUTO 15010G15KT 10SM CLR A2995 RMK A01,M
MEV,2023-03-19 16:15,-119.7500,38.9963,1441.42,41.00,33.80,75.33,360.00,8.00,0.00,29.80,M,10.00,M,FEW,SCT,BKN,M,2800.00,3300.00,4800.00,M,M,M,M,M,M,M,M,35.20,KMEV 191615Z AUTO 36008KT 10SM FEW028 SCT033 BKN048 05/01 A2980 RMK AO2,M
BAM,2023-03-19 16:15,-116.8743,40.5990,1382.36,42.80,24.80,48.67,150.00,4.00,0.00,29.88,M,10.00,M,SCT,M,M,M,12000.00,M,M,M,M,M,M,M,M,M,M,40.03,KBAM 191615Z AUTO 15004KT 10SM SCT120 06/M04 A2988 RMK AO1,M
HTH,2023-03-19 16:15,-118.6315,38.5448,1282.89,48.20,23.00,36.78,150.00,26.00,0.00,29.81,M,10.00,31.00,CLR,M,M,M,M,M,M,M,M,M,M,M,M,M,M,39.58,KHTH 191615Z AUTO 15026G31KT 10SM CLR 09/M05 A2981 RMK A01,M
TMT,2023-03-19 16:15,-117.1971,39.4643,1749.34,36.50,25.70,64.58,220.00,4.00,0.00,29.89,M,10.00,M,SCT,BKN,OVC,M,3000.00,3500.00,4900.00,M,M,M,M,M,M,M,M,32.68,KTMT 191615Z AUTO 22004KT 10SM SCT030 BKN035 OVC049 03/M03 A2989 RMK AO2 T00251035,M
BVU,2023-03-19 16:35,-114.8611,35.9475,671.00,53.60,21.20,27.91,0.00,0.00,0.00,30.05,M,10.00,M,CLR,M,M,M,M,M,M,M,M,M,M,M,M,M,M,53.60,KBVU 191635Z AUTO 00000KT 10SM CLR 12/M06 A3005 RMK AO2,M
CXP,2023-03-19 16:35,-119.7326,39.1923,1431.00,41.00,33.80,75.33,0.00,0.00,0.00,29.82,M,10.00,M,FEW,FEW,BKN,M,2800.00,3400.00,4300.00,M,M,M,M,M,M,M,M,41.00,KCXP 191635Z AUTO 00000KT 10SM FEW028 FEW034 BKN043 05/01 A2982 RMK AO2,M
RTS,2023-03-19 16:35,-119.8764,39.6682,1539.00,37.40,35.60,93.14,110.00,6.00,0.00,29.82,M,4.00,M,FEW,SCT,BKN,M,900.00,1400.00,2000.00,M,-DZ,M,M,M,M,M,M,32.03,KRTS 191635Z AUTO 11006KT 4SM -DZ FEW009 SCT014 BKN020 03/02 A2982 RMK AO2,M
05U,2023-03-19 16:35,-116.0051,39.6042,1811.23,M,M,M,150.00,8.00,0.00,29.95,M,10.00,M,CLR,M,M,M,M,M,M,M,M,M,M,M,M,M,M,M,K05U 191635Z AUTO 15008KT 10SM CLR A2995 RMK A01,M
MEV,2023-03-19 16:35,-119.7500,38.9963,1441.42,41.00,33.80,75.33,350.00,9.00,0.00,29.80,M,9.00,M,BKN,BKN,BKN,M,3200.00,4000.00,4900.00,M,M,M,M,M,M,M,M,34.70,KMEV 191635Z AUTO 35009KT 9SM BKN032 BKN040 BKN049 05/01 A2980 RMK AO2,M
BAM,2023-03-19 16:35,-116.8743,40.5990,1382.36,37.40,28.40,69.67,150.00,4.00,0.00,29.89,M,10.00,M,BKN,M,M,M,11000.00,M,M,M,M,M,M,M,M,M,M,33.73,KBAM 191635Z AUTO 15004KT 10SM BKN110 03/M02 A2989 RMK AO1,M
HTH,2023-03-19 16:35,-118.6315,38.5448,1282.89,48.20,26.60,42.73,140.00,33.00,0.00,29.80,M,8.00,40.00,CLR,M,M,M,M,M,M,M,M,M,M,M,M,M,M,38.57,KHTH 191635Z AUTO 14033G40KT 8SM CLR 09/M03 A2980 RMK A01,M
TMT,2023-03-19 16:35,-117.1971,39.4643,1749.34,36.00,28.60,74.23,40.00,6.00,0.00,29.89,M,10.00,M,SCT,SCT,OVC,M,3400.00,4200.00,4900.00,M,M,M,M,M,M,M,M,30.35,KTMT 191635Z AUTO 04006KT 10SM SCT034 SCT042 OVC049 02/M02 A2989 RMK AO2 T00221019,M
TPH,2023-03-19 16:51,-117.0904,38.0505,1654.00,35.60,30.20,80.51,170.00,22.00,T,29.97,M,2.50,32.00,BKN,OVC,M,M,2600.00,4300.00,M,M,-SN,M,M,M,38.00,170.00,2023-03-19 16:28,23.40,KTPH 191651Z AUTO 17022G32KT 2 1/2SM -SN BKN026 OVC043 02/M01 A2997 RMK AO2 PK WND 17038/1628 VIS 1V5 SNB42 P0000,M
P68,2023-03-19 16:53,-116.0056,39.6014,1993.00,37.00,17.10,43.99,200.00,11.00,0.00,29.94,1012.20,M,20.00,M,M,M,M,M,M,M,M,M,M,M,M,M,M,M,28.79,KP68 191653Z AUTO 20011G20KT 03/M08 A2994 RMK AO1 SLP122 T00281083,M
DRA,2023-03-19 16:53,-116.0278,36.6206,1009.00,52.00,26.10,36.34,190.00,14.00,0.00,30.01,1014.40,10.00,27.00,OVC,M,M,M,6500.00,M,M,M,M,M,M,M,27.00,180.00,2023-03-19 16:45,52.00,KDRA 191653Z AUTO 19014G27KT 10SM OVC065 11/M03 A3001 RMK AO2 PK WND 18027/1645 SLP144 T01111033,M
ELY,2023-03-19 16:53,-114.8453,39.2950,1909.00,33.00,21.00,60.71,200.00,12.00,0.00,29.96,1014.60,10.00,M,OVC,M,M,M,11000.00,M,M,M,M,M,M,M,M,M,M,23.40,KELY 191653Z AUTO 20012KT 10SM OVC110 01/M06 A2996 RMK AO2 SLP146 T00061061 $,M
VGT,2023-03-19 16:53,-115.1933,36.2111,667.00,54.00,19.90,26.02,130.00,4.00,0.00,30.04,1018.50,10.00,M,BKN,M,M,M,10000.00,M,M,M,M,M,M,M,M,M,M,54.00,KVGT 191653Z 13004KT 10SM BKN100 12/M07 A3004 RMK AO2 SLP185 T01221067,M
LOL,2023-03-19 16:53,-118.5701,40.0684,1192.43,46.00,28.00,49.18,110.00,7.00,T,29.83,1010.00,10.00,M,FEW,SCT,OVC,M,6000.00,7000.00,8500.00,M,M,M,M,M,M,M,M,41.84,KLOL 191653Z AUTO 11007KT 10SM FEW060 SCT070 OVC085 08/M02 A2983 RMK AO2 RAE24 SLP100 P0000 T00781022,M
BVU,2023-03-19 16:55,-114.8611,35.9475,671.00,51.80,26.60,37.38,0.00,0.00,0.00,30.05,M,10.00,M,CLR,M,M,M,M,M,M,M,M,M,M,M,M,M,M,51.80,KBVU 191655Z AUTO 00000KT 10SM CLR 11/M03 A3005 RMK AO2,M
CXP,2023-03-19 16:55,-119.7326,39.1923,1431.00,41.00,33.80,75.33,0.00,0.00,0.00,29.82,M,9.00,M,FEW,BKN,OVC,M,1400.00,2200.00,4300.00,M,-RA,M,M,M,M,M,M,41.00,KCXP 191655Z AUTO 00000KT 9SM -RA FEW014 BKN022 OVC043 05/01 A2982 RMK AO2,M
RNO,2023-03-19 16:55,-119.7711,39.4839,1341.00,43.00,34.00,70.30,170.00,3.00,T,29.80,1007.50,10.00,M,SCT,BKN,OVC,M,3500.00,6000.00,8000.00,M,M,M,M,M,M,M,M,41.26,KRNO 191655Z 17003KT 10SM SCT035 BKN060 OVC080 06/01 A2980 RMK AO2 RAB00E42 SLP075 P0000 T00610011,M
RTS,2023-03-19 16:55,-119.8764,39.6682,1539.00,37.40,35.60,93.14,110.00,9.00,0.00,29.81,M,4.00,M,FEW,SCT,SCT,M,1300.00,2000.00,2700.00,M,-DZ,M,M,M,M,M,M,30.23,KRTS 191655Z AUTO 11009KT 4SM -DZ FEW013 SCT020 SCT027 03/02 A2981 RMK AO2,M
05U,2023-03-19 16:55,-116.0051,39.6042,1811.23,M,M,M,190.00,24.00,0.00,29.97,M,10.00,M,CLR,M,M,M,M,M,M,M,M,M,M,M,M,M,M,M,K05U 191655Z AUTO 19024KT 10SM CLR A2997 RMK A01,M
MEV,2023-03-19 16:55,-119.7500,38.9963,1441.42,42.80,32.00,65.38,360.00,8.00,0.00,29.80,M,10.00,M,SCT,BKN,M,M,3000.00,3700.00,M,M,M,M,M,M,M,M,M,37.42,KMEV 191655Z AUTO 36008KT 10SM SCT030 BKN037 06/M00 A2980 RMK AO2,M
BAM,2023-03-19 16:55,-116.8743,40.5990,1382.36,41.00,28.40,60.54,70.00,4.00,0.00,29.88,M,10.00,M,BKN,M,M,M,11000.00,M,M,M,M,M,M,M,M,M,M,37.93,KBAM 191655Z AUTO 07004KT 10SM BKN110 05/M02 A2988 RMK AO1,M
HTH,2023-03-19 16:55,-118.6315,38.5448,1282.89,46.40,26.60,45.73,140.00,25.00,0.00,29.81,M,10.00,38.00,CLR,M,M,M,M,M,M,M,M,M,M,M,M,M,M,37.31,KHTH 191655Z AUTO 14025G38KT 10SM CLR 08/M03 A2981 RMK A01,M
TMT,2023-03-19 16:55,-117.1971,39.4643,1749.34,36.30,27.90,71.28,10.00,3.00,0.00,29.88,M,10.00,M,BKN,BKN,M,M,4900.00,8500.00,M,M,M,M,M,M,M,M,M,33.60,KTMT 191655Z AUTO 01003KT 10SM BKN049 BKN085 02/M02 A2988 RMK AO2 T00241023,M
LSV,2023-03-19 16:55,-115.0343,36.2362,570.00,54.30,21.90,28.02,200.00,4.00,0.00,30.02,1016.10,10.00,M,CLR,M,M,M,M,M,M,M,M,M,M,M,M,M,M,54.30,KLSV 191655Z AUTO 20004KT 10SM CLR 12/M06 A3002 RMK AO2 SLP161 T01241056 $,M
INS,2023-03-19 16:55,-115.6733,36.5872,955.00,49.00,18.90,30.11,0.00,0.00,0.00,30.02,1015.00,10.00,M,OVC,M,M,M,7500.00,M,M,M,M,M,M,M,M,M,M,48.90,KINS 191655Z AUTO 00000KT 10SM OVC075 09/M07 A3002 RMK AO2 SLP150 T00941073 $,M
EKO,2023-03-19 16:56,-115.7860,40.8242,1367.00,36.00,21.00,54.08,60.00,6.00,0.00,29.93,1014.60,10.00,M,CLR,M,M,M,M,M,M,M,M,M,M,M,M,M,M,30.35,KEKO 191656Z AUTO 06006KT 10SM CLR 02/M06 A2993 RMK AO2 SLP146 T00221061,M
WMC,2023-03-19 16:56,-117.8072,40.9019,1315.00,45.00,21.90,39.62,50.00,7.00,0.00,29.84,1009.80,10.00,M,OVC,M,M,M,10000.00,M,M,M,M,M,M,M,M,M,M,40.63,KWMC 191656Z AUTO 05007KT 10SM OVC100 07/M06 A2984 RMK AO2 SLP098 T00721056,M
NFL,2023-03-19 16:56,-118.7010,39.4166,1199.00,52.00,23.00,31.93,140.00,14.00,0.00,29.78,1006.40,10.00,M,SCT,BKN,BKN,BKN,8000.00,10000.00,15000.00,18000.00,M,M,M,M,M,M,M,52.00,KNFL 191656Z 14014KT 10SM SCT080 BKN100 BKN150 BKN180 11/M05 A2978 RMK AO2 SLP064 T01111050,M
LAS,2023-03-19 16:56,-115.1634,36.0719,663.00,54.00,19.90,26.02,0.00,0.00,0.00,30.04,1016.50,10.00,M,FEW,BKN,OVC,M,5500.00,10000.00,25000.00,M,M,M,M,M,M,M,M,54.00,KLAS 191656Z 00000KT 10SM FEW055 BKN100 OVC250 12/M07 A3004 RMK AO2 SLP165 T01221067,M
HND,2023-03-19 16:56,-115.1344,35.9729,742.79,53.00,19.90,26.89,0.00,0.00,0.00,30.05,1019.20,10.00,M,OVC,M,M,M,10000.00,M,M,M,M,M,M,M,M,M,M,53.10,KHND 191656Z 00000KT 10SM OVC100 12/M07 A3005 RMK AO2 SLP192 T01171067,M
TPH,2023-03-19 16:56,-117.0904,38.0505,1654.00,35.00,32.00,88.33,170.00,20.00,T,29.98,1014.50,1.00,32.00,BKN,OVC,M,M,2200.00,3600.00,M,M,-SN BR,M,M,M,38.00,170.00,2023-03-19 16:28,23.26,KTPH 191656Z AUTO 17020G32KT 1SM -SN BR BKN022 OVC036 02/00 A2998 RMK AO2 PK WND 17038/1628 SNB42 SLP145 P0000 T00170000,M
TPH,2023-03-19 17:04,-117.0904,38.0505,1654.00,34.00,32.00,92.29,160.00,20.00,T,29.97,M,0.50,29.00,FEW,BKN,OVC,M,1000.00,1700.00,3900.00,M,SN FG,M,M,M,26.00,170.00,2023-03-19 17:03,21.80,KTPH 191704Z AUTO 16020G29KT 1/2SM SN FG FEW010 BKN017 OVC039 01/00 A2997 RMK AO2 PK WND 17026/1703 P0000 T00110000,M
HTH,2023-03-19 17:10,-118.6315,38.5448,1282.89,46.40,26.60,45.73,130.00,23.00,0.00,29.81,M,10.00,28.00,CLR,M,M,M,M,M,M,M,M,M,M,M,M,M,M,37.67,KHTH 191710Z AUTO 13023G28KT 10SM CLR 08/M03 A2981 RMK A01,M
TPH,2023-03-19 17:14,-117.0904,38.0505,1654.00,34.00,32.00,92.29,160.00,15.00,T,29.97,M,1.00,24.00,FEW,OVC,M,M,800.00,1700.00,M,M,-SN BR,M,M,M,26.00,170.00,2023-03-19 17:03,23.37,KTPH 191714Z AUTO 16015G24KT 1SM -SN BR FEW008 OVC017 01/00 A2997 RMK AO2 PK WND 17026/1703 P0000 T00110000,M
BVU,2023-03-19 17:15,-114.8611,35.9475,671.00,53.60,24.80,32.46,0.00,0.00,0.00,30.04,M,10.00,M,CLR,M,M,M,M,M,M,M,M,M,M,M,M,M,M,53.60,KBVU 191715Z AUTO 00000KT 10SM CLR 12/M04 A3004 RMK AO2,M
CXP,2023-03-19 17:15,-119.7326,39.1923,1431.00,39.20,33.80,80.79,280.00,5.00,0.00,29.82,M,6.00,M,SCT,BKN,OVC,M,1300.00,2100.00,2600.00,M,-RA HZ,M,M,M,M,M,M,34.95,KCXP 191715Z AUTO 28005KT 6SM -RA HZ SCT013 BKN021 OVC026 04/01 A2982 RMK AO2,M
RTS,2023-03-19 17:15,-119.8764,39.6682,1539.00,39.20,33.80,80.79,120.00,6.00,0.00,29.81,M,10.00,M,FEW,FEW,BKN,M,1400.00,1900.00,2500.00,M,M,M,M,M,M,M,M,34.20,KRTS 191715Z AUTO 12006KT 10SM FEW014 FEW019 BKN025 04/01 A2981 RMK AO2,M
05U,2023-03-19 17:15,-116.0051,39.6042,1811.23,M,M,M,210.00,17.00,0.00,29.97,M,9.00,25.00,CLR,M,M,M,M,M,M,M,M,M,M,M,M,M,M,M,K05U 191715Z AUTO 21017G25KT 190V300 9SM CLR A2997 RMK A01,M
MEV,2023-03-19 17:15,-119.7500,38.9963,1441.42,41.00,32.00,70.08,360.00,7.00,0.00,29.81,M,0.50,M,SCT,BKN,OVC,M,1500.00,2100.00,2900.00,M,-RA HZ,M,M,M,M,M,M,35.75,KMEV 191715Z AUTO 36007KT 1/2SM -RA HZ SCT015 BKN021 OVC029 05/00 A2981 RMK AO2,M
BAM,2023-03-19 17:15,-116.8743,40.5990,1382.36,44.60,26.60,48.96,130.00,4.00,0.00,29.88,M,10.00,M,OVC,M,M,M,10000.00,M,M,M,M,M,M,M,M,M,M,42.13,KBAM 191715Z AUTO 13004KT 10SM OVC100 07/M03 A2988 RMK AO1,M
TMT,2023-03-19 17:15,-117.1971,39.4643,1749.34,36.50,28.80,73.38,360.00,3.00,0.00,29.87,M,10.00,M,SCT,BKN,BKN,M,3500.00,4700.00,6000.00,M,M,M,M,M,M,M,M,33.83,KTMT 191715Z AUTO 36003KT 10SM SCT035 BKN047 BKN060 03/M02 A2987 RMK AO2 T00251018,M
BVU,2023-03-19 17:35,-114.8611,35.9475,671.00,53.60,24.80,32.46,0.00,0.00,0.00,30.05,M,10.00,M,CLR,M,M,M,M,M,M,M,M,M,M,M,M,M,M,53.60,KBVU 191735Z AUTO 00000KT 10SM CLR 12/M04 A3005 RMK AO2,M
CXP,2023-03-19 17:35,-119.7326,39.1923,1431.00,39.20,33.80,80.79,330.00,4.00,0.00,29.82,M,7.00,M,BKN,BKN,BKN,M,1300.00,2000.00,2600.00,M,-RA,M,M,M,M,M,M,35.83,KCXP 191735Z AUTO 33004KT 7SM -RA BKN013 BKN020 BKN026 04/01 A2982 RMK AO2,M
RTS,2023-03-19 17:35,-119.8764,39.6682,1539.00,39.20,33.80,80.79,140.00,3.00,0.00,29.81,M,9.00,M,FEW,SCT,M,M,2400.00,4700.00,M,M,M,M,M,M,M,M,M,36.92,KRTS 191735Z AUTO 14003KT 9SM FEW024 SCT047 04/01 A2981 RMK AO2,M
05U,2023-03-19 17:35,-116.0051,39.6042,1811.23,M,M,M,160.00,10.00,0.00,29.96,M,10.00,17.00,CLR,M,M,M,M,M,M,M,M,M,M,M,M,M,M,M,K05U 191735Z AUTO 16010G17KT 10SM CLR A2996 RMK A01,M
MEV,2023-03-19 17:35,-119.7500,38.9963,1441.42,39.20,33.80,80.79,330.00,6.00,0.00,29.81,M,5.00,M,BKN,BKN,M,M,1800.00,2300.00,M,M,-RA HZ,M,M,M,M,M,M,34.20,KMEV 191735Z AUTO 33006KT 5SM -RA HZ BKN018 BKN023 04/01 A2981 RMK AO2,M
BAM,2023-03-19 17:35,-116.8743,40.5990,1382.36,42.80,28.40,56.48,0.00,0.00,0.00,29.87,M,10.00,M,OVC,M,M,M,10000.00,M,M,M,M,M,M,M,M,M,M,42.80,KBAM 191735Z AUTO 00000KT 10SM OVC100 06/M02 A2987 RMK AO1,M
HTH,2023-03-19 17:35,-118.6315,38.5448,1282.89,46.40,28.40,49.24,140.00,28.00,0.00,29.81,M,10.00,35.00,BKN,BKN,BKN,M,6000.00,7000.00,7500.00,M,M,M,M,M,M,M,M,36.81,KHTH 191735Z AUTO 14028G35KT 10SM BKN060 BKN070 BKN075 08/M02 A2981 RMK A01,M
TMT,2023-03-19 17:35,-117.1971,39.4643,1749.34,38.30,27.90,65.89,0.00,0.00,0.00,29.86,M,10.00,M,SCT,BKN,OVC,M,3500.00,4600.00,5000.00,M,M,M,M,M,M,M,M,38.30,KTMT 191735Z AUTO 00000KT 10SM SCT035 BKN046 OVC050 04/M02 A2986 RMK AO2 T00351023,M
TPH,2023-03-19 17:36,-117.0904,38.0505,1654.00,33.00,32.00,95.67,160.00,15.00,T,29.96,M,0.75,22.00,SCT,OVC,M,M,800.00,1500.00,M,M,-SN BR,M,M,M,26.00,170.00,2023-03-19 17:03,22.21,KTPH 191736Z AUTO 16015G22KT 3/4SM -SN BR SCT008 OVC015 01/00 A2996 RMK AO2 PK WND 17026/1703 P0000 T00060000,M
TPH,2023-03-19 17:47,-117.0904,38.0505,1654.00,34.00,32.00,92.29,150.00,14.00,T,29.96,M,0.75,25.00,BKN,OVC,M,M,800.00,1300.00,M,M,-SN BR,M,M,M,26.00,170.00,2023-03-19 17:03,23.74,KTPH 191747Z AUTO 15014G25KT 3/4SM -SN BR BKN008 OVC013 01/00 A2996 RMK AO2 PK WND 17026/1703 P0000 T00110000,M
DRA,2023-03-19 17:48,-116.0278,36.6206,1009.00,52.00,26.10,36.34,190.00,13.00,0.00,30.00,M,10.00,28.00,OVC,M,M,M,6000.00,M,M,M,M,M,M,M,28.00,210.00,2023-03-19 17:43,52.00,KDRA 191748Z AUTO 19013G28KT 10SM OVC060 11/M03 A3000 RMK AO2 PK WND 21028/1743 WSHFT 1731 T01111033,M
TPH,2023-03-19 17:51,-117.0904,38.0505,1654.00,33.80,32.00,93.03,140.00,13.00,T,29.96,M,1.00,M,OVC,M,M,M,1000.00,M,M,M,-SN BR,M,M,M,26.00,170.00,2023-03-19 17:03,23.87,KTPH 191751Z AUTO 14013KT 1SM -SN BR OVC010 01/00 A2996 RMK AO2 PK WND 17026/1703 P0000,M
P68,2023-03-19 17:53,-116.0056,39.6014,1993.00,37.00,23.00,56.57,140.00,10.00,0.00,29.91,1011.30,M,M,M,M,M,M,M,M,M,M,M,M,M,M,34.00,190.00,2023-03-19 16:55,29.24,KP68 191753Z AUTO 14010KT 03/M05 A2991 RMK AO1 PK WND 19034/1655 PRESFR SLP113 T00281050 10028 20000 58005,M
DRA,2023-03-19 17:53,-116.0278,36.6206,1009.00,52.00,26.10,36.34,180.00,18.00,0.00,30.00,1014.10,10.00,25.00,OVC,M,M,M,6000.00,M,M,M,M,M,M,M,28.00,210.00,2023-03-19 17:43,52.00,KDRA 191753Z AUTO 18018G25KT 10SM OVC060 11/M03 A3000 RMK AO2 PK WND 21028/1743 WSHFT 1731 SLP141 T01111033 10117 20061 50001,M
ELY,2023-03-19 17:53,-114.8453,39.2950,1909.00,37.00,19.90,49.61,170.00,13.00,0.00,29.95,1013.90,10.00,M,OVC,M,M,M,10000.00,M,M,M,M,M,M,M,M,M,M,27.97,KELY 191753Z AUTO 17013KT 10SM OVC100 03/M07 A2995 RMK AO2 SLP139 T00281067 10028 21044 56013 $,M
VGT,2023-03-19 17:53,-115.1933,36.2111,667.00,56.00,19.90,24.28,0.00,0.00,0.00,30.02,1017.80,10.00,M,BKN,M,M,M,10000.00,M,M,M,M,M,M,M,M,M,M,55.90,KVGT 191753Z 00000KT 10SM BKN100 13/M07 A3002 RMK AO2 SLP178 T01331067 10133 20100 58002,M
LOL,2023-03-19 17:53,-118.5701,40.0684,1192.43,48.00,26.10,42.17,110.00,6.00,0.00,29.81,1009.70,10.00,M,BKN,OVC,M,M,5500.00,7000.00,M,M,M,M,M,M,M,M,M,44.80,KLOL 191753Z AUTO 11006KT 10SM BKN055 OVC070 09/M03 A2981 RMK AO2 SLP097 60000 T00891033 10089 20017 58015,M
TPH,2023-03-19 17:54,-117.0904,38.0505,1654.00,33.80,33.80,100.00,140.00,15.00,T,29.96,M,2.00,M,BKN,OVC,M,M,800.00,1300.00,M,M,-SN BR,M,M,M,26.00,170.00,2023-03-19 17:03,23.11,KTPH 191754Z AUTO 14015KT 2SM -SN BR BKN008 OVC013 01/01 A2996 RMK AO2 PK WND 17026/1703 P0000,M
BVU,2023-03-19 17:55,-114.8611,35.9475,671.00,55.40,21.20,26.13,0.00,0.00,0.00,30.03,M,10.00,M,CLR,M,M,M,M,M,M,M,M,M,M,M,M,M,M,55.40,KBVU 191755Z AUTO 00000KT 10SM CLR 13/M06 A3003 RMK AO2,M
CXP,2023-03-19 17:55,-119.7326,39.1923,1431.00,39.20,33.80,80.79,0.00,0.00,0.01,29.82,M,8.00,M,BKN,OVC,M,M,1300.00,2000.00,M,M,-RA,M,M,M,M,M,M,39.20,KCXP 191755Z AUTO 00000KT 8SM -RA BKN013 OVC020 04/01 A2982 RMK AO2 P0001,M
RTS,2023-03-19 17:55,-119.8764,39.6682,1539.00,39.20,33.80,80.79,0.00,0.00,0.00,29.81,M,9.00,M,FEW,FEW,M,M,2500.00,3100.00,M,M,M,M,M,M,M,M,M,39.20,KRTS 191755Z AUTO 00000KT 9SM FEW025 FEW031 04/01 A2981 RMK AO2,M
05U,2023-03-19 17:55,-116.0051,39.6042,1811.23,M,M,M,140.00,9.00,0.00,29.93,M,10.00,M,CLR,M,M,M,M,M,M,M,M,M,M,M,M,M,M,M,K05U 191755Z AUTO 14009KT 10SM CLR A2993 RMK A01,M
MEV,2023-03-19 17:55,-119.7500,38.9963,1441.42,39.20,35.60,86.79,330.00,8.00,0.00,29.81,M,7.00,M,BKN,BKN,M,M,1800.00,2200.00,M,M,-RA,M,M,M,M,M,M,32.98,KMEV 191755Z AUTO 33008KT 7SM -RA BKN018 BKN022 04/02 A2981 RMK AO2,M
BAM,2023-03-19 17:55,-116.8743,40.5990,1382.36,44.60,28.40,52.72,210.00,4.00,0.00,29.87,M,10.00,M,BKN,OVC,M,M,7500.00,9000.00,M,M,M,M,M,M,M,M,M,42.13,KBAM 191755Z AUTO 21004KT 10SM BKN075 OVC090 07/M02 A2987 RMK AO1,M
HTH,2023-03-19 17:55,-118.6315,38.5448,1282.89,46.40,30.20,53.00,150.00,26.00,0.00,29.82,M,10.00,34.00,BKN,M,M,M,5500.00,M,M,M,M,M,M,M,M,M,M,37.14,KHTH 191755Z AUTO 15026G34KT 10SM BKN055 08/M01 A2982 RMK A01,M
TMT,2023-03-19 17:55,-117.1971,39.4643,1749.34,39.20,27.90,63.61,40.00,4.00,0.00,29.85,M,10.00,M,SCT,BKN,OVC,M,3500.00,4200.00,4800.00,M,M,M,M,M,M,M,M,35.83,KTMT 191755Z AUTO 04004KT 10SM SCT035 BKN042 OVC048 04/M02 A2985 RMK AO2 T00401023 10042 21026,M
INS,2023-03-19 17:55,-115.6733,36.5872,955.00,52.70,25.20,34.12,10.00,13.00,0.00,29.99,1013.70,10.00,M,SCT,OVC,M,M,5000.00,6500.00,M,M,M,M,M,M,M,M,M,52.70,KINS 191755Z AUTO 01013KT 10SM SCT050 OVC065 12/M04 A2999 RMK AO2 SLP137 T01151038 10115 20044 58002 $,M
LSV,2023-03-19 17:55,-115.0343,36.2362,570.00,55.00,23.40,29.09,0.00,0.00,0.00,30.00,1015.40,10.00,M,SCT,BKN,M,M,9500.00,12000.00,M,M,M,M,M,M,M,M,M,55.00,KLSV 191755Z AUTO 00000KT 10SM SCT095 BKN120 13/M05 A3000 RMK AO2 SLP154 T01281048 10128 20095 58002 $,M
RNO,2023-03-19 17:55,-119.7711,39.4839,1341.00,44.00,35.00,70.43,190.00,6.00,T,29.80,1007.50,10.00,M,SCT,BKN,OVC,M,3600.00,4400.00,7000.00,M,-RA,M,M,M,M,M,M,40.10,KRNO 191755Z 19006KT 10SM -RA SCT036 BKN044 OVC070 07/02 A2980 RMK AO2 RAB46 SLP075 P0000 60000 T00670017 10067 20044 56006,M
NFL,2023-03-19 17:56,-118.7010,39.4166,1199.00,53.00,21.90,29.28,160.00,20.00,0.00,29.78,1006.30,9.00,27.00,OVC,M,M,M,7500.00,M,M,M,M,M,M,M,27.00,140.00,2023-03-19 17:52,53.10,KNFL 191756Z 16020G27KT 9SM OVC075 12/M06 A2978 RMK AO2 PK WND 14027/1752 SLP063 T01171056 10122 20072 56018,M
HND,2023-03-19 17:56,-115.1344,35.9729,742.79,54.00,21.90,28.33,0.00,0.00,0.00,30.04,1018.80,10.00,M,OVC,M,M,M,10000.00,M,M,M,M,M,M,M,M,M,M,54.00,KHND 191756Z 00000KT 10SM OVC100 12/M06 A3004 RMK AO2 SLP188 T01221056 10122 20072 58001,M
LAS,2023-03-19 17:56,-115.1634,36.0719,663.00,54.00,21.00,27.27,100.00,3.00,0.00,30.02,1016.10,10.00,M,FEW,BKN,OVC,M,5500.00,10000.00,25000.00,M,M,M,M,M,M,M,M,54.00,KLAS 191756Z 10003KT 10SM FEW055 BKN100 OVC250 12/M06 A3002 RMK AO2 SLP161 T01221061 10128 20094 58001,M
TPH,2023-03-19 17:56,-117.0904,38.0505,1654.00,34.00,33.00,96.46,150.00,14.00,T,29.96,1014.10,3.00,M,BKN,OVC,M,M,800.00,1300.00,M,M,-SN BR,M,M,M,26.00,170.00,2023-03-19 17:03,23.74,KTPH 191756Z AUTO 15014KT 3SM -SN BR BKN008 OVC013 01/01 A2996 RMK AO2 PK WND 17026/1703 SLP141 P0000 60000 T00110006 10056 20006 50003,M
EKO,2023-03-19 17:56,-115.7860,40.8242,1367.00,40.00,19.90,44.29,100.00,7.00,0.00,29.91,1013.70,10.00,M,FEW,M,M,M,12000.00,M,M,M,M,M,M,M,M,M,M,34.41,KEKO 191756Z AUTO 10007KT 10SM FEW120 04/M07 A2991 RMK AO2 SLP137 T00441067 10044 21033 58013,M
WMC,2023-03-19 17:56,-117.8072,40.9019,1315.00,47.00,21.90,36.87,50.00,4.00,0.00,29.84,1009.40,10.00,M,OVC,M,M,M,6500.00,M,M,M,M,M,M,M,M,M,M,44.82,KWMC 191756Z AUTO 05004KT 10SM OVC065 08/M06 A2984 RMK AO2 SLP094 T00831056 10083 20028 58003,M
TPH,2023-03-19 18:11,-117.0904,38.0505,1654.00,35.00,33.00,92.32,140.00,16.00,T,29.94,M,9.00,21.00,OVC,M,M,M,1000.00,M,M,M,UP,M,M,M,M,M,M,24.46,KTPH 191811Z AUTO 14016G21KT 9SM UP OVC010 02/01 A2994 RMK AO2 UPB08SNE08 CIG 005V014 P0000 T00170006,M
BVU,2023-03-19 18:15,-114.8611,35.9475,671.00,55.40,21.20,26.13,170.00,4.00,0.00,30.03,M,10.00,M,SCT,M,M,M,8000.00,M,M,M,M,M,M,M,M,M,M,55.40,KBVU 191815Z AUTO 17004KT 10SM SCT080 13/M06 A3003 RMK AO2,M
CXP,2023-03-19 18:15,-119.7326,39.1923,1431.00,39.20,33.80,80.79,0.00,0.00,0.00,29.81,M,5.00,M,BKN,BKN,M,M,1300.00,1900.00,M,M,-RA HZ,M,M,M,M,M,M,39.20,KCXP 191815Z AUTO 00000KT 5SM -RA HZ BKN013 BKN019 04/01 A2981 RMK AO2,M
RTS,2023-03-19 18:15,-119.8764,39.6682,1539.00,39.20,33.80,80.79,0.00,0.00,0.00,29.81,M,7.00,M,SCT,BKN,BKN,M,1700.00,2400.00,3200.00,M,-DZ,M,M,M,M,M,M,39.20,KRTS 191815Z AUTO 00000KT 7SM -DZ SCT017 BKN024 BKN032 04/01 A2981 RMK AO2,M
05U,2023-03-19 18:15,-116.0051,39.6042,1811.23,M,M,M,140.00,8.00,0.00,29.92,M,10.00,M,CLR,M,M,M,M,M,M,M,M,M,M,M,M,M,M,M,K05U 191815Z AUTO 14008KT 10SM CLR A2992 RMK A01,M
MEV,2023-03-19 18:15,-119.7500,38.9963,1441.42,39.20,35.60,86.79,330.00,6.00,0.00,29.80,M,9.00,M,FEW,BKN,M,M,1300.00,2100.00,M,M,-RA,M,M,M,M,M,M,34.20,KMEV 191815Z AUTO 33006KT 9SM -RA FEW013 BKN021 04/02 A2980 RMK AO2,M
BAM,2023-03-19 18:15,-116.8743,40.5990,1382.36,44.60,28.40,52.72,170.00,4.00,0.00,29.87,M,10.00,M,OVC,M,M,M,7000.00,M,M,M,M,M,M,M,M,M,M,42.13,KBAM 191815Z AUTO 17004KT 10SM OVC070 07/M02 A2987 RMK AO1,M
HTH,2023-03-19 18:15,-118.6315,38.5448,1282.89,44.60,32.00,61.03,130.00,24.00,0.00,29.82,M,10.00,32.00,FEW,FEW,BKN,M,2600.00,3900.00,5000.00,M,M,M,M,M,M,M,M,35.06,KHTH 191815Z AUTO 13024G32KT 10SM FEW026 FEW039 BKN050 07/00 A2982 RMK A01,M
TMT,2023-03-19 18:15,-117.1971,39.4643,1749.34,41.00,28.00,59.55,70.00,5.00,0.00,29.84,M,10.00,M,SCT,SCT,BKN,M,3500.00,4000.00,4600.00,M,M,M,M,M,M,M,M,37.08,KTMT 191815Z AUTO 07005KT 10SM SCT035 SCT040 BKN046 05/M02 A2984 RMK AO2 T00501022,M
NFL,2023-03-19 18:22,-118.7010,39.4166,1199.00,52.00,24.10,33.44,200.00,22.00,T,29.79,M,10.00,33.00,SCT,BKN,OVC,M,4700.00,6000.00,8000.00,M,-RA,M,M,M,33.00,220.00,2023-03-19 18:22,52.00,KNFL 191822Z 20022G33KT 10SM -RA SCT047 BKN060 OVC080 11/M04 A2979 RMK AO2 PK WND 22033/1822 RAB21 P0000 T01111044,M
TPH,2023-03-19 18:27,-117.0904,38.0505,1654.00,37.00,35.00,92.76,140.00,17.00,T,29.94,M,10.00,M,BKN,OVC,M,M,800.00,1300.00,M,M,M,M,M,M,M,M,M,26.63,KTPH 191827Z AUTO 14017KT 10SM BKN008 OVC013 03/02 A2994 RMK AO2 UPB08E12SNE08 CIG 006V012 P0000 T00280017,M
BVU,2023-03-19 18:35,-114.8611,35.9475,671.00,55.40,23.00,28.20,0.00,0.00,0.00,30.02,M,10.00,M,FEW,M,M,M,8000.00,M,M,M,M,M,M,M,M,M,M,55.40,KBVU 191835Z AUTO 00000KT 10SM FEW080 13/M05 A3002 RMK AO2,M
CXP,2023-03-19 18:35,-119.7326,39.1923,1431.00,39.20,33.80,80.79,0.00,0.00,0.00,29.81,M,8.00,M,BKN,BKN,BKN,M,1200.00,1700.00,2500.00,M,-RA,M,M,M,M,M,M,39.20,KCXP 191835Z AUTO 00000KT 8SM -RA BKN012 BKN017 BKN025 04/01 A2981 RMK AO2,M
RTS,2023-03-19 18:35,-119.8764,39.6682,1539.00,39.20,33.80,80.79,140.00,5.00,0.00,29.80,M,6.00,M,BKN,BKN,M,M,1700.00,2400.00,M,M,-RA,M,M,M,M,M,M,34.95,KRTS 191835Z AUTO 14005KT 6SM -RA BKN017 BKN024 04/01 A2980 RMK AO2,M
TPH,2023-03-19 18:35,-117.0904,38.0505,1654.00,37.00,34.00,88.78,140.00,16.00,T,29.93,M,10.00,25.00,OVC,M,M,M,1000.00,M,M,M,M,M,M,M,M,M,M,26.94,KTPH 191835Z AUTO 14016G25KT 10SM OVC010 03/01 A2993 RMK AO2 UPB08E12SNE08 P0000 T00280011,M
05U,2023-03-19 18:35,-116.0051,39.6042,1811.23,M,M,M,190.00,14.00,0.00,29.91,M,10.00,21.00,FEW,M,M,M,8000.00,M,M,M,M,M,M,M,M,M,M,M,K05U 191835Z AUTO 19014G21KT 10SM FEW080 A2991 RMK A01,M
MEV,2023-03-19 18:35,-119.7500,38.9963,1441.42,41.00,35.60,80.93,340.00,4.00,0.00,29.79,M,9.00,M,FEW,SCT,M,M,2100.00,3000.00,M,M,-RA,M,M,M,M,M,M,37.93,KMEV 191835Z AUTO 34004KT 9SM -RA FEW021 SCT030 05/02 A2979 RMK AO2,M
BAM,2023-03-19 18:35,-116.8743,40.5990,1382.36,42.80,32.00,65.38,160.00,12.00,0.00,29.87,M,10.00,26.00,SCT,OVC,M,M,5000.00,7000.00,M,M,M,M,M,M,M,M,M,35.75,KBAM 191835Z AUTO 16012G26KT 10SM SCT050 OVC070 06/00 A2987 RMK AO1,M
HTH,2023-03-19 18:35,-118.6315,38.5448,1282.89,46.40,32.00,57.00,120.00,21.00,0.00,29.81,M,10.00,28.00,OVC,M,M,M,5500.00,M,M,M,M,M,M,M,M,M,M,38.06,KHTH 191835Z AUTO 12021G28KT 10SM OVC055 08/00 A2981 RMK A01,M
TMT,2023-03-19 18:35,-117.1971,39.4643,1749.34,40.60,27.10,58.29,300.00,4.00,0.00,29.84,M,10.00,M,BKN,BKN,OVC,M,3400.00,4600.00,6000.00,M,M,M,M,M,M,M,M,37.46,KTMT 191835Z AUTO 30004KT 10SM BKN034 BKN046 OVC060 05/M03 A2984 RMK AO2 T00481027,M
TPH,2023-03-19 18:45,-117.0904,38.0505,1654.00,37.00,34.00,88.78,150.00,16.00,T,29.93,M,10.00,M,FEW,OVC,M,M,700.00,1300.00,M,M,M,M,M,M,M,M,M,26.94,KTPH 191845Z AUTO 15016KT 10SM FEW007 OVC013 03/01 A2993 RMK AO2 UPB08E12SNE08 P0000 T00280011,M
HND,2023-03-19 18:46,-115.1344,35.9729,742.79,57.20,26.60,30.69,220.00,13.00,0.00,30.03,M,10.00,20.00,BKN,BKN,M,M,8000.00,9000.00,M,M,M,M,M,M,M,M,M,57.20,KHND 191846Z 22013G20KT 10SM BKN080 BKN090 14/M03 A3003 RMK AO2 WSHFT 1826,M
INS,2023-03-19 18:49,-115.6733,36.5872,955.00,53.60,26.60,34.98,40.00,12.00,0.00,29.97,1013.20,10.00,18.00,FEW,OVC,M,M,5500.00,10000.00,M,M,M,M,M,M,M,M,M,53.60,KINS 191849Z AUTO 04012G18KT 10SM FEW055 OVC100 12/M03 A2997 RMK AO2 WSHFT 38 SLP132 $,M
P68,2023-03-19 18:53,-116.0056,39.6014,1993.00,43.00,21.90,42.77,190.00,21.00,0.00,29.87,1009.10,M,32.00,M,M,M,M,M,M,M,M,M,M,M,M,32.00,200.00,2023-03-19 18:46,33.52,KP68 191853Z AUTO 19021G32KT 06/M06 A2987 RMK AO1 PK WND 20032/1846 SLP091 T00611056,M
ELY,2023-03-19 18:53,-114.8453,39.2950,1909.00,37.00,21.00,51.99,160.00,15.00,0.00,29.94,1014.00,10.00,26.00,BKN,OVC,M,M,5000.00,7000.00,M,M,M,M,M,M,28.00,170.00,2023-03-19 18:29,27.26,KELY 191853Z AUTO 16015G26KT 10SM BKN050 OVC070 03/M06 A2994 RMK AO2 PK WND 17028/1829 SLP140 T00281061 $,M
VGT,2023-03-19 18:53,-115.1933,36.2111,667.00,57.00,21.00,24.45,100.00,5.00,0.00,30.01,1017.40,10.00,M,OVC,M,M,M,8500.00,M,M,M,M,M,M,M,M,M,M,57.00,KVGT 191853Z 10005KT 10SM OVC085 14/M06 A3001 RMK AO2 SLP174 T01391061,M
LOL,2023-03-19 18:53,-118.5701,40.0684,1192.43,46.00,28.90,51.03,0.00,0.00,T,29.80,1009.50,10.00,M,BKN,OVC,M,M,4500.00,5500.00,M,M,-RA,M,M,M,M,M,M,46.00,KLOL 191853Z AUTO 00000KT 10SM -RA BKN045 OVC055 08/M02 A2980 RMK AO2 RAB18 SLP095 P0000 T00781017,M
DRA,2023-03-19 18:53,-116.0278,36.6206,1009.00,51.00,28.00,40.63,190.00,16.00,0.00,29.98,1013.40,10.00,25.00,BKN,OVC,M,M,5500.00,7000.00,M,M,M,M,M,M,30.00,200.00,2023-03-19 18:20,51.10,KDRA 191853Z AUTO 19016G25KT 10SM BKN055 OVC070 11/M02 A2998 RMK AO2 PK WND 20030/1820 SLP134 T01061022,M
BVU,2023-03-19 18:55,-114.8611,35.9475,671.00,57.20,23.00,26.42,170.00,6.00,0.00,30.02,M,10.00,M,CLR,M,M,M,M,M,M,M,M,M,M,M,M,M,M,57.20,KBVU 191855Z AUTO 17006KT 10SM CLR 14/M05 A3002 RMK AO2,M
CXP,2023-03-19 18:55,-119.7326,39.1923,1431.00,39.20,33.80,80.79,0.00,0.00,0.02,29.80,M,8.00,M,BKN,OVC,M,M,1400.00,2500.00,M,M,-RA,M,M,M,M,M,M,39.20,KCXP 191855Z AUTO 00000KT 8SM -RA BKN014 OVC025 04/01 A2980 RMK AO2 P0002,M
RTS,2023-03-19 18:55,-119.8764,39.6682,1539.00,39.20,33.80,80.79,120.00,6.00,0.00,29.79,M,8.00,M,SCT,BKN,M,M,1700.00,2300.00,M,M,-DZ,M,M,M,M,M,M,34.20,KRTS 191855Z AUTO 12006KT 8SM -DZ SCT017 BKN023 04/01 A2979 RMK AO2,M
05U,2023-03-19 18:55,-116.0051,39.6042,1811.23,M,M,M,190.00,16.00,0.00,29.90,M,10.00,24.00,CLR,M,M,M,M,M,M,M,M,M,M,M,M,M,M,M,K05U 191855Z AUTO 19016G24KT 10SM CLR A2990 RMK A01,M
MEV,2023-03-19 18:55,-119.7500,38.9963,1441.42,41.00,35.60,80.93,310.00,4.00,0.00,29.78,M,10.00,M,BKN,BKN,BKN,M,2400.00,3000.00,5500.00,M,M,M,M,M,M,M,M,37.93,KMEV 191855Z AUTO 31004KT 10SM BKN024 BKN030 BKN055 05/02 A2978 RMK AO2,M
BAM,2023-03-19 18:55,-116.8743,40.5990,1382.36,44.60,32.00,61.03,120.00,9.00,0.00,29.86,M,10.00,M,BKN,OVC,M,M,5000.00,6000.00,M,M,M,M,M,M,M,M,M,39.18,KBAM 191855Z AUTO 12009KT 10SM BKN050 OVC060 07/00 A2986 RMK AO1,M
HTH,2023-03-19 18:55,-118.6315,38.5448,1282.89,48.20,30.20,49.53,140.00,24.00,0.00,29.78,M,10.00,M,OVC,M,M,M,5000.00,M,M,M,M,M,M,M,M,M,M,39.91,KHTH 191855Z AUTO 14024KT 10SM OVC050 09/M01 A2978 RMK A01,M
TMT,2023-03-19 18:55,-117.1971,39.4643,1749.34,41.50,27.70,57.70,220.00,8.00,0.00,29.83,M,10.00,M,SCT,BKN,OVC,M,3400.00,4800.00,6000.00,M,M,M,M,M,M,M,M,35.82,KTMT 191855Z AUTO 22008KT 10SM SCT034 BKN048 OVC060 05/M02 A2983 RMK AO2 T00531024,M
INS,2023-03-19 18:55,-115.6733,36.5872,955.00,54.50,26.10,33.16,40.00,12.00,0.00,29.97,1013.00,10.00,M,FEW,OVC,M,M,5500.00,10000.00,M,M,M,M,M,M,M,M,M,54.50,KINS 191855Z AUTO 04012KT 10SM FEW055 OVC100 13/M03 A2997 RMK AO2 SLP130 T01251033 $,M
LSV,2023-03-19 18:55,-115.0343,36.2362,570.00,57.40,21.90,25.04,0.00,0.00,0.00,30.00,1015.40,10.00,M,FEW,M,M,M,8500.00,M,M,M,M,M,M,M,M,M,M,57.40,KLSV 191855Z AUTO 00000KT 10SM FEW085 14/M06 A3000 RMK AO2 SLP154 T01411056 $,M
RNO,2023-03-19 18:55,-119.7711,39.4839,1341.00,42.00,34.00,72.78,0.00,0.00,0.02,29.79,1007.20,10.00,M,FEW,BKN,OVC,M,1800.00,2500.00,3500.00,M,-RA,M,M,M,M,M,M,42.10,KRNO 191855Z 00000KT 10SM -RA FEW018 BKN025 OVC035 06/01 A2979 RMK AO2 SLP072 P0002 T00560011,M
EKO,2023-03-19 18:56,-115.7860,40.8242,1367.00,45.00,21.90,39.62,M,6.00,0.00,29.88,1012.20,10.00,M,SCT,M,M,M,11000.00,M,M,M,M,M,M,M,M,M,M,41.19,KEKO 191856Z AUTO VRB06KT 10SM SCT110 07/M06 A2988 RMK AO2 SLP122 T00721056,M
NFL,2023-03-19 18:56,-118.7010,39.4166,1199.00,48.00,30.00,49.49,170.00,23.00,T,29.79,1006.60,6.00,30.00,SCT,BKN,OVC,M,3900.00,4900.00,6000.00,M,-RA,M,M,M,33.00,220.00,2023-03-19 18:22,39.82,KNFL 191856Z 17023G30KT 6SM -RA SCT039 BKN049 OVC060 09/M01 A2979 RMK AO2 PK WND 22033/1822 RAB21 SLP066 P0000 T00891011,M
TPH,2023-03-19 18:56,-117.0904,38.0505,1654.00,36.00,34.00,92.35,150.00,15.00,T,29.93,1013.20,10.00,24.00,BKN,OVC,M,M,1300.00,1800.00,M,M,UP,M,M,M,M,M,M,25.97,KTPH 191856Z AUTO 15015G24KT 10SM UP BKN013 OVC018 02/01 A2993 RMK AO2 UPB08E12B55SNE08 SLP132 P0000 T00220011,M
LAS,2023-03-19 18:56,-115.1634,36.0719,663.00,57.00,19.90,23.34,90.00,3.00,0.00,30.01,1015.60,10.00,M,FEW,BKN,OVC,M,5500.00,10000.00,25000.00,M,M,M,M,M,M,M,M,57.00,KLAS 191856Z 09003KT 10SM FEW055 BKN100 OVC250 14/M07 A3001 RMK AO2 SLP156 T01391067,M
WMC,2023-03-19 18:56,-117.8072,40.9019,1315.00,49.00,24.10,37.52,160.00,8.00,0.00,29.81,1008.20,10.00,M,OVC,M,M,M,6500.00,M,M,M,M,M,M,M,M,M,M,44.93,KWMC 191856Z AUTO 16008KT 10SM OVC065 09/M04 A2981 RMK AO2 SLP082 T00941044,M
HND,2023-03-19 18:56,-115.1344,35.9729,742.79,58.00,27.00,30.43,190.00,20.00,0.00,30.01,1017.70,10.00,24.00,BKN,BKN,BKN,M,8000.00,9500.00,12000.00,M,M,M,M,M,M,M,M,57.90,KHND 191856Z 19020G24KT 10SM BKN080 BKN095 BKN120 14/M03 A3001 RMK AO2 WSHFT 1826 SLP177 T01441028,M
BVU,2023-03-19 19:15,-114.8611,35.9475,671.00,59.00,24.80,26.70,190.00,11.00,0.00,30.02,M,10.00,M,FEW,M,M,M,7000.00,M,M,M,M,M,M,M,M,M,M,59.00,KBVU 191915Z AUTO 19011KT 10SM FEW070 15/M04 A3002 RMK AO2,M
CXP,2023-03-19 19:15,-119.7326,39.1923,1431.00,41.00,35.60,80.93,0.00,0.00,0.00,29.80,M,8.00,M,SCT,BKN,BKN,M,1500.00,2400.00,3000.00,M,-RA,M,M,M,M,M,M,41.00,KCXP 191915Z AUTO 00000KT 8SM -RA SCT015 BKN024 BKN030 05/02 A2980 RMK AO2,M
RTS,2023-03-19 19:15,-119.8764,39.6682,1539.00,39.20,33.80,80.79,110.00,5.00,0.00,29.79,M,8.00,M,SCT,SCT,BKN,M,1700.00,2300.00,4100.00,M,M,M,M,M,M,M,M,34.95,KRTS 191915Z AUTO 11005KT 8SM SCT017 SCT023 BKN041 04/01 A2979 RMK AO2,M
05U,2023-03-19 19:15,-116.0051,39.6042,1811.23,M,M,M,190.00,15.00,0.00,29.90,M,10.00,20.00,BKN,M,M,M,7000.00,M,M,M,M,M,M,M,M,M,M,M,K05U 191915Z AUTO 19015G20KT 10SM BKN070 A2990 RMK A01,M
MEV,2023-03-19 19:15,-119.7500,38.9963,1441.42,41.00,35.60,80.93,320.00,5.00,0.00,29.78,M,10.00,M,BKN,OVC,M,M,2000.00,2400.00,M,M,M,M,M,M,M,M,M,37.08,KMEV 191915Z AUTO 32005KT 10SM BKN020 OVC024 05/02 A2978 RMK AO2,M
BAM,2023-03-19 19:15,-116.8743,40.5990,1382.36,48.20,32.00,53.27,160.00,10.00,0.00,29.84,M,10.00,20.00,SCT,BKN,OVC,M,4300.00,5000.00,7000.00,M,M,M,M,M,M,M,M,43.28,KBAM 191915Z AUTO 16010G20KT 10SM SCT043 BKN050 OVC070 09/00 A2984 RMK AO1,M
HTH,2023-03-19 19:15,-118.6315,38.5448,1282.89,50.00,30.20,46.31,150.00,25.00,0.00,29.78,M,10.00,35.00,BKN,BKN,BKN,M,5500.00,7500.00,9500.00,M,M,M,M,M,M,M,M,50.00,KHTH 191915Z AUTO 15025G35KT 10SM BKN055 BKN075 BKN095 10/M01 A2978 RMK A01,M
TMT,2023-03-19 19:15,-117.1971,39.4643,1749.34,41.50,27.70,57.70,220.00,18.00,0.00,29.83,M,10.00,22.00,SCT,OVC,M,M,4200.00,4800.00,M,M,M,M,M,M,M,M,M,32.25,KTMT 191915Z AUTO 22018G22KT 10SM SCT042 OVC048 05/M02 A2983 RMK AO2 T00531024,M
TPH,2023-03-19 19:17,-117.0904,38.0505,1654.00,36.00,33.00,89.09,150.00,20.00,T,29.92,M,9.00,26.00,FEW,BKN,OVC,M,1000.00,1700.00,2400.00,M,-RA,M,M,M,27.00,160.00,2023-03-19 19:04,24.45,KTPH 191917Z AUTO 15020G26KT 9SM -RA FEW010 BKN017 OVC024 02/01 A2992 RMK AO2 PK WND 16027/1904 UPE1859RAB1859SNB04E15 P0000 T00220006,M
LAS,2023-03-19 19:28,-115.1634,36.0719,663.00,59.00,26.10,28.18,200.00,16.00,0.00,29.99,M,10.00,26.00,SCT,BKN,OVC,M,5500.00,9000.00,25000.00,M,M,M,M,M,26.00,220.00,2023-03-19 19:26,59.00,KLAS 191928Z 20016G26KT 10SM SCT055 BKN090 OVC250 15/M03 A2999 RMK AO2 PK WND 22026/1926 WSHFT 1908 T01501033,M
BVU,2023-03-19 19:35,-114.8611,35.9475,671.00,59.00,26.60,28.77,170.00,19.00,0.00,30.00,M,10.00,27.00,FEW,M,M,M,7000.00,M,M,M,M,M,M,M,M,M,M,59.00,KBVU 191935Z AUTO 17019G27KT 10SM FEW070 15/M03 A3000 RMK AO2,M
CXP,2023-03-19 19:35,-119.7326,39.1923,1431.00,41.00,35.60,80.93,0.00,0.00,0.00,29.79,M,7.00,M,BKN,BKN,BKN,M,1500.00,1900.00,2400.00,M,-RA,M,M,M,M,M,M,41.00,KCXP 191935Z AUTO 00000KT 7SM -RA BKN015 BKN019 BKN024 05/02 A2979 RMK AO2,M
RTS,2023-03-19 19:35,-119.8764,39.6682,1539.00,39.20,35.60,86.79,170.00,5.00,0.00,29.79,M,7.00,M,BKN,BKN,BKN,M,1300.00,1800.00,4100.00,M,-RA,M,M,M,M,M,M,34.95,KRTS 191935Z AUTO 17005KT 7SM -RA BKN013 BKN018 BKN041 04/02 A2979 RMK AO2,M
05U,2023-03-19 19:35,-116.0051,39.6042,1811.23,M,M,M,180.00,16.00,0.00,29.89,M,10.00,M,OVC,M,M,M,7000.00,M,M,M,M,M,M,M,M,M,M,M,K05U 191935Z AUTO 18016KT 10SM OVC070 A2989 RMK A01,M
MEV,2023-03-19 19:35,-119.7500,38.9963,1441.42,41.00,35.60,80.93,300.00,4.00,0.00,29.78,M,9.00,M,OVC,M,M,M,2100.00,M,M,M,-RA,M,M,M,M,M,M,37.93,KMEV 191935Z AUTO 30004KT 9SM -RA OVC021 05/02 A2978 RMK AO2,M
BAM,2023-03-19 19:35,-116.8743,40.5990,1382.36,46.40,32.00,57.00,160.00,7.00,0.00,29.84,M,10.00,M,SCT,SCT,OVC,M,4400.00,5000.00,7000.00,M,M,M,M,M,M,M,M,42.33,KBAM 191935Z AUTO 16007KT 10SM SCT044 SCT050 OVC070 08/00 A2984 RMK AO1,M
HTH,2023-03-19 19:35,-118.6315,38.5448,1282.89,50.00,30.20,46.31,140.00,26.00,0.00,29.77,M,10.00,32.00,FEW,BKN,BKN,M,6000.00,7000.00,9500.00,M,M,M,M,M,M,M,M,50.00,KHTH 191935Z AUTO 14026G32KT 10SM FEW060 BKN070 BKN095 10/M01 A2977 RMK A01,M
TMT,2023-03-19 19:35,-117.1971,39.4643,1749.34,39.40,29.80,68.21,220.00,10.00,0.00,29.84,M,10.00,15.00,SCT,BKN,OVC,M,2800.00,3300.00,4000.00,M,M,M,M,M,M,M,M,32.25,KTMT 191935Z AUTO 22010G15KT 10SM SCT028 BKN033 OVC040 04/M01 A2984 RMK AO2 T00411012,M
TPH,2023-03-19 19:47,-117.0904,38.0505,1654.00,36.00,34.00,92.35,130.00,14.00,T,29.90,M,10.00,M,SCT,BKN,OVC,M,800.00,1600.00,2900.00,M,-RA,M,M,M,27.00,160.00,2023-03-19 19:04,26.32,KTPH 191947Z AUTO 13014KT 10SM -RA SCT008 BKN016 OVC029 02/01 A2990 RMK AO2 PK WND 16027/1904 UPE1859RAB1859E20B47SNB04E15 P0000 T00220011,M
DRA,2023-03-19 19:53,-116.0278,36.6206,1009.00,50.00,30.90,47.64,220.00,15.00,0.00,29.95,1012.90,10.00,23.00,BKN,OVC,M,M,5000.00,6000.00,M,M,M,M,M,M,30.00,210.00,2023-03-19 19:10,50.00,KDRA 191953Z AUTO 22015G23KT 10SM BKN050 OVC060 10/M01 A2995 RMK AO2 PK WND 21030/1910 SLP129 T01001006,M
ELY,2023-03-19 19:53,-114.8453,39.2950,1909.00,37.00,25.00,61.50,170.00,21.00,0.00,29.91,1013.00,10.00,31.00,FEW,BKN,OVC,M,4900.00,7500.00,9000.00,M,M,M,M,M,31.00,170.00,2023-03-19 19:48,25.52,KELY 191953Z AUTO 17021G31KT 10SM FEW049 BKN075 OVC090 03/M04 A2991 RMK AO2 PK WND 17031/1948 SLP130 T00281039 $,M
LOL,2023-03-19 19:53,-118.5701,40.0684,1192.43,45.00,33.00,62.83,190.00,21.00,T,29.80,1009.30,6.00,25.00,BKN,OVC,M,M,3800.00,5000.00,M,M,-RA,M,M,M,M,M,M,36.19,KLOL 191953Z AUTO 19021G25KT 6SM -RA BKN038 OVC050 07/01 A2980 RMK AO2 RAE1859B35 SLP093 P0000 T00720006,M
P68,2023-03-19 19:53,-116.0056,39.6014,1993.00,40.00,23.00,50.50,190.00,15.00,0.00,29.86,1009.20,M,22.00,M,M,M,M,M,M,M,M,M,M,M,M,27.00,180.00,2023-03-19 18:58,31.02,KP68 191953Z AUTO 19015G22KT 04/M05 A2986 RMK AO1 PK WND 18027/1858 SLP092 T00441050,M
VGT,2023-03-19 19:53,-115.1933,36.2111,667.00,60.00,28.00,29.31,210.00,17.00,0.00,29.98,1016.40,10.00,23.00,OVC,M,M,M,8000.00,M,M,M,M,M,M,M,M,M,M,60.10,KVGT 191953Z 21017G23KT 10SM OVC080 16/M02 A2998 RMK AO2 SLP164 T01561022,M
BVU,2023-03-19 19:55,-114.8611,35.9475,671.00,60.80,28.40,29.06,190.00,14.00,0.00,29.99,M,10.00,24.00,SCT,M,M,M,7000.00,M,M,M,M,M,M,M,M,M,M,60.80,KBVU 191955Z AUTO 19014G24KT 10SM SCT070 16/M02 A2999 RMK AO2,M
CXP,2023-03-19 19:55,-119.7326,39.1923,1431.00,41.00,35.60,80.93,0.00,0.00,0.01,29.79,M,10.00,M,BKN,OVC,M,M,1600.00,2000.00,M,M,-RA,M,M,M,M,M,M,41.00,KCXP 191955Z AUTO 00000KT 10SM -RA BKN016 OVC020 05/02 A2979 RMK AO2 P0001,M
RTS,2023-03-19 19:55,-119.8764,39.6682,1539.00,39.20,35.60,86.79,150.00,7.00,0.00,29.79,M,5.00,M,SCT,SCT,M,M,1300.00,1900.00,M,M,-RA,M,M,M,M,M,M,33.56,KRTS 191955Z AUTO 15007KT 5SM -RA SCT013 SCT019 04/02 A2979 RMK AO2,M
05U,2023-03-19 19:55,-116.0051,39.6042,1811.23,M,M,M,200.00,12.00,0.00,29.89,M,10.00,18.00,BKN,OVC,M,M,5500.00,6500.00,M,M,M,M,M,M,M,M,M,M,K05U 191955Z AUTO 20012G18KT 10SM BKN055 OVC065 A2989 RMK A01,M
MEV,2023-03-19 19:55,-119.7500,38.9963,1441.42,42.80,37.40,81.07,M,5.00,0.00,29.77,M,9.00,M,FEW,OVC,M,M,1500.00,2100.00,M,M,-RA,M,M,M,M,M,M,39.22,KMEV 191955Z AUTO VRB05KT 9SM -RA FEW015 OVC021 06/03 A2977 RMK AO2,M
BAM,2023-03-19 19:55,-116.8743,40.5990,1382.36,46.40,30.20,53.00,330.00,3.00,0.00,29.83,M,10.00,M,BKN,OVC,M,M,5000.00,7000.00,M,M,M,M,M,M,M,M,M,45.15,KBAM 191955Z AUTO 33003KT 10SM BKN050 OVC070 08/M01 A2983 RMK AO1,M
HTH,2023-03-19 19:55,-118.6315,38.5448,1282.89,50.00,30.20,46.31,150.00,25.00,0.00,29.77,M,10.00,M,FEW,FEW,BKN,M,4900.00,6000.00,7000.00,M,M,M,M,M,M,M,M,50.00,KHTH 191955Z AUTO 15025KT 10SM FEW049 FEW060 BKN070 10/M01 A2977 RMK A01,M
TMT,2023-03-19 19:55,-117.1971,39.4643,1749.34,39.60,29.70,67.41,240.00,9.00,0.00,29.83,M,10.00,M,SCT,BKN,OVC,M,2800.00,3500.00,4900.00,M,M,M,M,M,M,M,M,32.96,KTMT 191955Z AUTO 24009KT 10SM SCT028 BKN035 OVC049 04/M01 A2983 RMK AO2 T00421013,M
INS,2023-03-19 19:55,-115.6733,36.5872,955.00,53.60,27.30,36.01,350.00,11.00,0.00,29.95,1012.30,10.00,M,OVC,M,M,M,7500.00,M,M,M,M,M,M,M,M,M,M,53.60,KINS 191955Z AUTO 35011KT 10SM OVC075 12/M03 A2995 RMK AO2 SLP123 T01201026 $,M
RNO,2023-03-19 19:55,-119.7711,39.4839,1341.00,44.00,36.00,72.99,330.00,3.00,T,29.78,1006.80,10.00,M,FEW,BKN,OVC,M,2000.00,3500.00,4500.00,M,-RA,M,M,M,M,M,M,42.52,KRNO 191955Z 33003KT 10SM -RA FEW020 BKN035 OVC045 07/02 A2978 RMK AO2 SLP068 P0000 T00670022,M
LSV,2023-03-19 19:55,-115.0343,36.2362,570.00,62.00,24.80,23.92,0.00,0.00,0.00,29.97,1014.30,10.00,M,SCT,SCT,M,M,8000.00,20000.00,M,M,M,M,M,M,M,M,M,62.10,KLSV 191955Z AUTO 00000KT 10SM SCT080 SCT200 17/M04 A2997 RMK AO2 SLP143 T01671040 $,M
WMC,2023-03-19 19:56,-117.8072,40.9019,1315.00,50.00,25.00,37.39,180.00,10.00,0.00,29.79,1007.50,10.00,M,OVC,M,M,M,6000.00,M,M,M,M,M,M,M,M,M,M,50.00,KWMC 191956Z AUTO 18010KT 10SM OVC060 10/M04 A2979 RMK AO2 SLP075 T01001039,M
TPH,2023-03-19 19:56,-117.0904,38.0505,1654.00,36.00,34.00,92.35,130.00,12.00,T,29.90,1012.30,10.00,M,FEW,OVC,M,M,800.00,1900.00,M,M,-RA,M,M,M,27.00,160.00,2023-03-19 19:04,27.09,KTPH 191956Z AUTO 13012KT 10SM -RA FEW008 OVC019 02/01 A2990 RMK AO2 PK WND 16027/1904 UPE1859RAB1859E20B47SNB04E15 SLP123 P0000 T00220011,M
LAS,2023-03-19 19:56,-115.1634,36.0719,663.00,58.00,27.00,30.43,190.00,10.00,0.00,29.98,1014.60,10.00,18.00,SCT,BKN,OVC,M,7000.00,10000.00,25000.00,M,M,M,M,M,26.00,220.00,2023-03-19 19:26,57.90,KLAS 191956Z 19010G18KT 10SM SCT070 BKN100 OVC250 14/M03 A2998 RMK AO2 PK WND 22026/1926 WSHFT 1908 SLP146 T01441028,M
EKO,2023-03-19 19:56,-115.7860,40.8242,1367.00,44.00,23.00,42.95,170.00,14.00,0.00,29.86,1011.40,10.00,22.00,FEW,OVC,M,M,4900.00,6000.00,M,M,M,M,M,M,M,M,M,36.76,KEKO 191956Z AUTO 17014G22KT 10SM FEW049 OVC060 07/M05 A2986 RMK AO2 SLP114 T00671050,M
HND,2023-03-19 19:56,-115.1344,35.9729,742.79,58.00,28.00,31.71,180.00,9.00,0.00,30.00,1017.20,10.00,M,BKN,M,M,M,7500.00,M,M,M,M,M,M,M,26.00,190.00,2023-03-19 19:04,57.90,KHND 191956Z 18009KT 10SM BKN075 14/M02 A3000 RMK AO2 PK WND 19026/1904 SLP172 T01441022,M
NFL,2023-03-19 19:56,-118.7010,39.4166,1199.00,47.00,38.00,70.73,130.00,14.00,0.02,29.77,1006.10,10.00,M,SCT,BKN,OVC,M,2900.00,3400.00,7500.00,M,M,M,M,M,32.00,150.00,2023-03-19 18:59,40.37,KNFL 191956Z 13014KT 10SM SCT029 BKN034 OVC075 08/03 A2977 RMK AO2 PK WND 15032/1859 RAE52 SLP061 P0002 T00830033,M
BVU,2023-03-19 20:15,-114.8611,35.9475,671.00,59.00,28.40,30.98,200.00,17.00,0.00,29.98,M,10.00,22.00,SCT,BKN,M,M,6500.00,8000.00,M,M,M,M,M,M,M,M,M,59.00,KBVU 192015Z AUTO 20017G22KT 10SM SCT065 BKN080 15/M02 A2998 RMK AO2,M
CXP,2023-03-19 20:15,-119.7326,39.1923,1431.00,41.00,35.60,80.93,0.00,0.00,0.00,29.78,M,10.00,M,BKN,BKN,M,M,1800.00,4200.00,M,M,UP,M,M,M,M,M,M,41.00,KCXP 192015Z AUTO 00000KT 10SM UP BKN018 BKN042 05/02 A2978 RMK AO2,M
RTS,2023-03-19 20:15,-119.8764,39.6682,1539.00,39.20,33.80,80.79,120.00,6.00,0.00,29.78,M,6.00,M,FEW,FEW,FEW,M,1200.00,1900.00,2400.00,M,-RA,M,M,M,M,M,M,34.20,KRTS 192015Z AUTO 12006KT 6SM -RA FEW012 FEW019 FEW024 04/01 A2978 RMK AO2,M
05U,2023-03-19 20:15,-116.0051,39.6042,1811.23,M,M,M,160.00,14.00,0.00,29.88,M,10.00,M,FEW,SCT,BKN,M,4400.00,5000.00,6500.00,M,M,M,M,M,M,M,M,M,K05U 192015Z AUTO 16014KT 10SM FEW044 SCT050 BKN065 A2988 RMK A01,M
MEV,2023-03-19 20:15,-119.7500,38.9963,1441.42,42.80,37.40,81.07,320.00,4.00,0.00,29.76,M,10.00,M,OVC,M,M,M,2000.00,M,M,M,M,M,M,M,M,M,M,40.03,KMEV 192015Z AUTO 32004KT 10SM OVC020 06/03 A2976 RMK AO2,M
BAM,2023-03-19 20:15,-116.8743,40.5990,1382.36,46.40,32.00,57.00,170.00,14.00,0.00,29.83,M,10.00,17.00,OVC,M,M,M,5000.00,M,M,M,M,M,M,M,M,M,M,39.72,KBAM 192015Z AUTO 17014G17KT 10SM OVC050 08/00 A2983 RMK AO1,M
HTH,2023-03-19 20:15,-118.6315,38.5448,1282.89,50.00,30.20,46.31,150.00,26.00,0.00,29.75,M,10.00,32.00,FEW,M,M,M,5000.00,M,M,M,M,M,M,M,M,M,M,50.00,KHTH 192015Z AUTO 15026G32KT 10SM FEW050 10/M01 A2975 RMK A01,M
TMT,2023-03-19 20:15,-117.1971,39.4643,1749.34,39.20,31.60,73.95,230.00,12.00,0.00,29.83,M,10.00,M,SCT,BKN,OVC,M,2200.00,2900.00,4200.00,M,-DZ,M,M,M,M,M,M,31.17,KTMT 192015Z AUTO 23012KT 10SM -DZ SCT022 BKN029 OVC042 04/00 A2983 RMK AO2 T00401002,M
RNO,2023-03-19 20:20,-119.7711,39.4839,1341.00,43.00,36.00,75.50,0.00,0.00,T,29.77,M,10.00,M,FEW,BKN,OVC,M,1800.00,2700.00,3300.00,M,-RA,M,M,M,M,M,M,42.80,KRNO 192020Z 00000KT 10SM -RA FEW018 BKN027 OVC033 06/02 A2977 RMK AO2 P0000 T00610022,M
BVU,2023-03-19 20:35,-114.8611,35.9475,671.00,59.00,28.40,30.98,160.00,15.00,0.00,29.98,M,10.00,21.00,BKN,BKN,M,M,7000.00,8000.00,M,M,M,M,M,M,M,M,M,59.00,KBVU 192035Z AUTO 16015G21KT 10SM BKN070 BKN080 15/M02 A2998 RMK AO2,M
CXP,2023-03-19 20:35,-119.7326,39.1923,1431.00,42.80,35.60,75.50,0.00,0.00,0.00,29.78,M,10.00,M,BKN,BKN,BKN,M,1900.00,2400.00,4000.00,M,-RA,M,M,M,M,M,M,42.80,KCXP 192035Z AUTO 00000KT 10SM -RA BKN019 BKN024 BKN040 06/02 A2978 RMK AO2,M
RTS,2023-03-19 20:35,-119.8764,39.6682,1539.00,39.20,35.60,86.79,130.00,5.00,0.00,29.78,M,5.00,M,FEW,M,M,M,1300.00,M,M,M,-RA,M,M,M,M,M,M,34.95,KRTS 192035Z AUTO 13005KT 5SM -RA FEW013 04/02 A2978 RMK AO2,M
05U,2023-03-19 20:35,-116.0051,39.6042,1811.23,M,M,M,160.00,13.00,0.00,29.87,M,10.00,19.00,SCT,SCT,BKN,M,3500.00,4500.00,6500.00,M,M,M,M,M,M,M,M,M,K05U 192035Z AUTO 16013G19KT 10SM SCT035 SCT045 BKN065 A2987 RMK A01,M
MEV,2023-03-19 20:35,-119.7500,38.9963,1441.42,44.60,37.40,75.68,340.00,6.00,0.00,29.76,M,10.00,M,BKN,BKN,BKN,M,2000.00,4100.00,4700.00,M,M,M,M,M,M,M,M,40.71,KMEV 192035Z AUTO 34006KT 10SM BKN020 BKN041 BKN047 07/03 A2976 RMK AO2,M
BAM,2023-03-19 20:35,-116.8743,40.5990,1382.36,46.40,32.00,57.00,170.00,9.00,0.00,29.82,M,10.00,M,SCT,BKN,OVC,M,3800.00,4800.00,6000.00,M,M,M,M,M,M,M,M,41.42,KBAM 192035Z AUTO 17009KT 10SM SCT038 BKN048 OVC060 08/00 A2982 RMK AO1,M
HTH,2023-03-19 20:35,-118.6315,38.5448,1282.89,51.80,30.20,43.32,150.00,23.00,0.00,29.76,M,10.00,31.00,FEW,M,M,M,7000.00,M,M,M,M,M,M,M,M,M,M,51.80,KHTH 192035Z AUTO 15023G31KT 10SM FEW070 11/M01 A2976 RMK A01,M
TMT,2023-03-19 20:35,-117.1971,39.4643,1749.34,37.60,32.20,80.67,230.00,15.00,0.00,29.82,M,10.00,18.00,OVC,M,M,M,2700.00,M,M,M,-RA,M,M,M,M,M,M,28.04,KTMT 192035Z AUTO 23015G18KT 10SM -RA OVC027 03/00 A2982 RMK AO2 T00310001,M
INS,2023-03-19 20:38,-115.6733,36.5872,955.00,53.60,28.40,37.67,290.00,14.00,0.00,29.95,1012.80,10.00,19.00,FEW,FEW,SCT,OVC,1600.00,2500.00,3300.00,5500.00,-RA,M,M,M,M,M,M,53.60,KINS 192038Z AUTO 29014G19KT 10SM -RA FEW016 FEW025 SCT033 OVC055 12/M02 A2995 RMK AO2 RAB38 SLP128 $,M
INS,2023-03-19 20:48,-115.6733,36.5872,955.00,51.80,32.00,46.59,270.00,8.00,0.00,29.94,1012.40,10.00,19.00,FEW,SCT,BKN,BKN,400.00,1000.00,1800.00,2700.00,-RA,M,M,M,M,M,M,51.80,KINS 192048Z AUTO 27008G19KT 10SM -RA FEW004 SCT010 BKN018 BKN027 BKN033 OVC055 11/00 A2994 RMK AO2 RAB38 SLP124 $,M
P68,2023-03-19 20:53,-116.0056,39.6014,1993.00,37.00,28.00,69.63,160.00,15.00,0.00,29.84,1008.90,M,26.00,M,M,M,M,M,M,M,M,M,M,M,M,26.00,160.00,2023-03-19 20:22,27.26,KP68 192053Z AUTO 16015G26KT 03/M02 A2984 RMK AO1 PK WND 16026/2022 SLP089 T00281022 56020,M
VGT,2023-03-19 20:53,-115.1933,36.2111,667.00,59.00,27.00,29.25,190.00,11.00,0.00,29.95,1015.60,10.00,19.00,OVC,M,M,M,7000.00,M,M,M,M,M,M,M,M,M,M,59.00,KVGT 192053Z 19011G19KT 10SM OVC070 15/M03 A2995 RMK AO2 SLP156 T01501028 58020,M
ELY,2023-03-19 20:53,-114.8453,39.2950,1909.00,35.00,27.00,72.04,170.00,22.00,0.00,29.89,1012.30,10.00,29.00,FEW,BKN,OVC,M,3800.00,4500.00,5500.00,M,M,M,M,M,33.00,160.00,2023-03-19 20:16,22.73,KELY 192053Z AUTO 17022G29KT 10SM FEW038 BKN045 OVC055 02/M03 A2989 RMK AO2 PK WND 16033/2016 SLP123 T00171028 58015 $,M
DRA,2023-03-19 20:53,-116.0278,36.6206,1009.00,49.00,36.00,60.88,200.00,6.00,T,29.93,1011.80,10.00,M,OVC,M,M,M,4200.00,M,M,M,M,M,M,M,27.00,190.00,2023-03-19 20:06,45.88,KDRA 192053Z AUTO 20006KT 10SM OVC042 09/02 A2993 RMK AO2 PK WND 19027/2006 RAB04E42 SLP118 P0000 60000 T00940022 58022,M
LOL,2023-03-19 20:53,-118.5701,40.0684,1192.43,44.00,37.00,75.93,190.00,14.00,T,29.79,1009.10,10.00,M,FEW,SCT,OVC,M,2000.00,2500.00,4600.00,M,-RA,M,M,M,M,M,M,36.76,KLOL 192053Z AUTO 19014KT 10SM -RA FEW020 SCT025 OVC046 07/03 A2979 RMK AO2 SLP091 P0000 60000 T00670028 58007,M
BVU,2023-03-19 20:55,-114.8611,35.9475,671.00,57.20,30.20,35.57,150.00,11.00,0.00,29.96,M,10.00,16.00,BKN,OVC,M,M,6000.00,7000.00,M,M,M,M,M,M,M,M,M,57.20,KBVU 192055Z AUTO 15011G16KT 10SM BKN060 OVC070 14/M01 A2996 RMK AO2,M
CXP,2023-03-19 20:55,-119.7326,39.1923,1431.00,42.80,37.40,81.07,0.00,0.00,0.00,29.77,M,7.00,M,BKN,BKN,OVC,M,1800.00,2400.00,3000.00,M,-RA,M,M,M,M,M,M,42.80,KCXP 192055Z AUTO 00000KT 7SM -RA BKN018 BKN024 OVC030 06/03 A2977 RMK AO2,M
RTS,2023-03-19 20:55,-119.8764,39.6682,1539.00,39.20,35.60,86.79,110.00,4.00,0.00,29.77,M,7.00,M,SCT,SCT,M,M,1300.00,3300.00,M,M,M,M,M,M,M,M,M,35.83,KRTS 192055Z AUTO 11004KT 7SM SCT013 SCT033 04/02 A2977 RMK AO2,M
05U,2023-03-19 20:55,-116.0051,39.6042,1811.23,M,M,M,160.00,14.00,0.00,29.86,M,10.00,21.00,FEW,SCT,SCT,M,2600.00,3300.00,4700.00,M,M,M,M,M,M,M,M,M,K05U 192055Z AUTO 16014G21KT 10SM FEW026 SCT033 SCT047 A2986 RMK A01,M
MEV,2023-03-19 20:55,-119.7500,38.9963,1441.42,42.80,37.40,81.07,320.00,10.00,0.00,29.76,M,9.00,M,FEW,SCT,BKN,M,1800.00,2600.00,4400.00,M,-RA,M,M,M,M,M,M,36.51,KMEV 192055Z AUTO 32010KT 9SM -RA FEW018 SCT026 BKN044 06/03 A2976 RMK AO2,M
BAM,2023-03-19 20:55,-116.8743,40.5990,1382.36,46.40,32.00,57.00,170.00,9.00,0.00,29.81,M,10.00,M,SCT,BKN,OVC,M,3700.00,4800.00,6000.00,M,M,M,M,M,M,M,M,41.42,KBAM 192055Z AUTO 17009KT 10SM SCT037 BKN048 OVC060 08/00 A2981 RMK AO1,M
HTH,2023-03-19 20:55,-118.6315,38.5448,1282.89,50.00,33.80,53.54,150.00,20.00,0.00,29.75,M,9.00,31.00,CLR,M,M,M,M,M,M,M,M,M,M,M,M,M,M,50.00,KHTH 192055Z AUTO 15020G31KT 9SM CLR 10/01 A2975 RMK A01,M
TMT,2023-03-19 20:55,-117.1971,39.4643,1749.34,34.00,32.40,93.79,230.00,13.00,0.00,29.82,M,1.50,M,SCT,BKN,OVC,M,1000.00,1800.00,2700.00,M,-SN,M,M,M,M,M,M,24.13,KTMT 192055Z AUTO 23013KT 1 1/2SM -SN SCT010 BKN018 OVC027 01/00 A2982 RMK AO2 T00110002,M
INS,2023-03-19 20:55,-115.6733,36.5872,955.00,50.20,34.20,54.00,270.00,3.00,T,29.94,1012.70,10.00,M,FEW,SCT,BKN,BKN,400.00,900.00,1600.00,2700.00,-RA,M,M,M,M,M,M,50.20,KINS 192055Z AUTO 27003KT 10SM -RA FEW004 SCT009 BKN016 BKN027 OVC033 10/01 A2994 RMK AO2 RAB38 SLP127 P0000 60000 T01010012 57016 $,M
LSV,2023-03-19 20:55,-115.0343,36.2362,570.00,58.80,27.50,30.07,140.00,6.00,0.00,29.93,1013.00,10.00,M,SCT,M,M,M,7000.00,M,M,M,M,M,M,M,M,M,M,58.80,KLSV 192055Z AUTO 14006KT 10SM SCT070 15/M02 A2993 RMK AO2 SLP130 T01491025 58023 $,M
RNO,2023-03-19 20:55,-119.7711,39.4839,1341.00,44.00,36.00,72.99,0.00,0.00,0.01,29.76,1006.20,10.00,M,FEW,BKN,OVC,M,1800.00,2700.00,3500.00,M,-RA,M,M,M,M,M,M,44.10,KRNO 192055Z 00000KT 10SM -RA FEW018 BKN027 OVC035 07/02 A2976 RMK AO2 SLP062 P0001 60003 T00670022 58013,M
EKO,2023-03-19 20:56,-115.7860,40.8242,1367.00,45.00,24.10,43.46,190.00,9.00,0.00,29.82,1010.10,10.00,M,OVC,M,M,M,6500.00,M,M,M,M,M,M,M,M,M,M,39.68,KEKO 192056Z AUTO 19009KT 10SM OVC065 07/M04 A2982 RMK AO2 SLP101 T00721044 58027,M
LAS,2023-03-19 20:56,-115.1634,36.0719,663.00,58.00,28.00,31.71,190.00,10.00,0.00,29.95,1013.60,10.00,M,BKN,OVC,M,M,6500.00,10000.00,M,M,M,M,M,M,M,M,M,57.90,KLAS 192056Z 19010KT 10SM BKN065 OVC100 14/M02 A2995 RMK AO2 SLP136 T01441022 58023,M
HND,2023-03-19 20:56,-115.1344,35.9729,742.79,57.00,33.00,40.28,170.00,13.00,T,29.97,1016.30,10.00,M,BKN,OVC,M,M,5000.00,6000.00,M,M,-RA,M,M,M,M,M,M,57.00,KHND 192056Z 17013KT 10SM -RA BKN050 OVC060 14/01 A2997 RMK AO2 RAB54 SLP163 P0000 60000 T01390006 56022,M
WMC,2023-03-19 20:56,-117.8072,40.9019,1315.00,47.00,28.90,49.32,220.00,10.00,0.00,29.77,1007.50,10.00,M,OVC,M,M,M,5000.00,M,M,M,M,M,M,M,M,M,M,41.65,KWMC 192056Z AUTO 22010KT 10SM OVC050 08/M02 A2977 RMK AO2 SLP075 T00831017 56019,M
NFL,2023-03-19 20:56,-118.7010,39.4166,1199.00,49.00,35.00,58.75,130.00,12.00,0.00,29.75,1005.40,10.00,M,SCT,BKN,OVC,M,4900.00,6000.00,7500.00,M,M,M,M,M,M,M,M,43.51,KNFL 192056Z 13012KT 10SM SCT049 BKN060 OVC075 09/02 A2975 RMK AO2 SLP054 60002 T00940017 58009,M
TPH,2023-03-19 20:56,-117.0904,38.0505,1654.00,38.00,33.00,82.66,160.00,17.00,T,29.87,1011.10,10.00,24.00,BKN,OVC,M,M,2100.00,2600.00,M,M,-RA,M,M,M,26.00,170.00,2023-03-19 20:33,27.80,KTPH 192056Z AUTO 16017G24KT 10SM -RA BKN021 OVC026 03/01 A2987 RMK AO2 PK WND 17026/2033 RAE20B36UPB20E26SNB26E36 SLP111 P0000 60000 T00330006 58024,M
INS,2023-03-19 21:00,-115.6733,36.5872,955.00,50.00,35.60,57.52,290.00,5.00,0.00,29.94,1012.70,8.00,M,SCT,SCT,BKN,BKN,400.00,900.00,1400.00,1900.00,-RA,M,M,M,M,M,M,50.00,KINS 192100Z AUTO 29005KT 8SM -RA SCT004 SCT009 BKN014 BKN019 OVC027 10/02 A2994 RMK AO2 CIG 009 RWY26 SLP127 $,M
INS,2023-03-19 21:10,-115.6733,36.5872,955.00,48.20,37.40,66.05,340.00,4.00,0.00,29.93,1012.30,8.00,M,SCT,BKN,BKN,OVC,400.00,900.00,1600.00,2700.00,-RA,M,M,M,M,M,M,46.34,KINS 192110Z AUTO 34004KT 8SM -RA SCT004 BKN009 BKN016 OVC027 09/03 A2993 RMK AO2 SLP123 $,M
BVU,2023-03-19 21:15,-114.8611,35.9475,671.00,57.20,30.20,35.57,150.00,13.00,0.00,29.95,M,10.00,M,FEW,FEW,OVC,M,3000.00,4400.00,5500.00,M,M,M,M,M,M,M,M,57.20,KBVU 192115Z AUTO 15013KT 10SM FEW030 FEW044 OVC055 14/M01 A2995 RMK AO2,M
CXP,2023-03-19 21:15,-119.7326,39.1923,1431.00,42.80,37.40,81.07,0.00,0.00,0.00,29.77,M,5.00,M,BKN,BKN,BKN,M,1800.00,2400.00,2800.00,M,-RA HZ,M,M,M,M,M,M,42.80,KCXP 192115Z AUTO 00000KT 5SM -RA HZ BKN018 BKN024 BKN028 06/03 A2977 RMK AO2,M
LSV,2023-03-19 21:15,-115.0343,36.2362,570.00,59.00,28.40,30.98,180.00,15.00,0.00,29.92,1012.70,10.00,21.00,FEW,M,M,M,7000.00,M,M,M,M,M,M,M,M,M,M,59.00,KLSV 192115Z AUTO 18015G21KT 10SM FEW070 15/M02 A2992 RMK AO2 WSHFT 12 SLP127 $,M
LOL,2023-03-19 21:15,-118.5701,40.0684,1192.43,43.00,37.00,79.19,180.00,13.00,T,29.78,M,8.00,M,SCT,BKN,OVC,M,1900.00,2600.00,4600.00,M,-RA,M,M,M,M,M,M,35.66,KLOL 192115Z AUTO 18013KT 8SM -RA SCT019 BKN026 OVC046 06/03 A2978 RMK AO2 P0000 T00610028,M
RTS,2023-03-19 21:15,-119.8764,39.6682,1539.00,41.00,35.60,80.93,M,5.00,0.00,29.76,M,8.00,M,FEW,FEW,M,M,2900.00,3500.00,M,M,M,M,M,M,M,M,M,37.08,KRTS 192115Z AUTO VRB05KT 8SM FEW029 FEW035 05/02 A2976 RMK AO2,M
05U,2023-03-19 21:15,-116.0051,39.6042,1811.23,M,M,M,190.00,10.00,0.00,29.85,M,10.00,17.00,SCT,SCT,SCT,M,2800.00,3300.00,4600.00,M,M,M,M,M,M,M,M,M,K05U 192115Z AUTO 19010G17KT 10SM SCT028 SCT033 SCT046 A2985 RMK A01,M
MEV,2023-03-19 21:15,-119.7500,38.9963,1441.42,41.00,39.20,93.24,350.00,10.00,0.00,29.75,M,4.00,M,FEW,SCT,BKN,M,2100.00,2700.00,3300.00,M,-RA BR,M,M,M,M,M,M,34.25,KMEV 192115Z AUTO 35010KT 4SM -RA BR FEW021 SCT027 BKN033 05/04 A2975 RMK AO2,M
BAM,2023-03-19 21:15,-116.8743,40.5990,1382.36,46.40,32.00,57.00,170.00,7.00,0.00,29.80,M,10.00,M,SCT,BKN,OVC,M,3000.00,4000.00,4600.00,M,M,M,M,M,M,M,M,42.33,KBAM 192115Z AUTO 17007KT 10SM SCT030 BKN040 OVC046 08/00 A2980 RMK AO1,M
HTH,2023-03-19 21:15,-118.6315,38.5448,1282.89,51.80,32.00,46.59,140.00,20.00,0.00,29.75,M,10.00,M,FEW,FEW,M,M,5000.00,7000.00,M,M,M,M,M,M,M,M,M,51.80,KHTH 192115Z AUTO 14020KT 10SM FEW050 FEW070 11/00 A2975 RMK A01,M
TMT,2023-03-19 21:15,-117.1971,39.4643,1749.34,32.00,32.00,100.00,230.00,7.00,0.01,29.81,M,0.50,M,OVC,M,M,M,800.00,M,M,M,SN,M,M,M,M,M,M,24.78,KTMT 192115Z AUTO 23007KT 1/2SM SN OVC008 00/00 A2981 RMK AO2 P0001 T00000000,M
LSV,2023-03-19 21:18,-115.0343,36.2362,570.00,59.00,30.20,33.35,230.00,12.00,0.00,29.92,1012.70,10.00,21.00,FEW,M,M,M,7000.00,M,M,M,M,M,M,M,M,M,M,59.00,KLSV 192118Z AUTO 23012G21KT 10SM FEW070 15/M01 A2992 RMK AO2 WSHFT 15 SLP127 $,M
INS,2023-03-19 21:20,-115.6733,36.5872,955.00,48.20,35.60,61.52,0.00,0.00,0.00,29.93,1012.30,10.00,M,SCT,SCT,BKN,BKN,400.00,900.00,1700.00,5500.00,-RA,M,M,M,M,M,M,48.20,KINS 192120Z AUTO 00000KT 10SM -RA SCT004 SCT009 BKN017 BKN055 OVC070 09/02 A2993 RMK AO2 SLP123 $,M
INS,2023-03-19 21:24,-115.6733,36.5872,955.00,48.20,35.60,61.52,0.00,0.00,0.00,29.93,1012.30,10.00,M,FEW,SCT,SCT,BKN,400.00,900.00,1700.00,5000.00,M,M,M,M,M,M,M,48.20,KINS 192124Z AUTO 00000KT 10SM FEW004 SCT009 SCT017 BKN050 OVC070 09/02 A2993 RMK AO2 RAE20DZB20E24 SLP123 $,M
INS,2023-03-19 21:32,-115.6733,36.5872,955.00,48.20,35.60,61.52,0.00,0.00,0.00,29.92,1012.00,10.00,M,FEW,FEW,SCT,BKN,600.00,2200.00,3000.00,4500.00,-DZ,M,M,M,M,M,M,48.20,KINS 192132Z AUTO 00000KT 10SM -DZ FEW006 FEW022 SCT030 BKN045 BKN055 OVC070 09/02 A2992 RMK AO2 RAE20DZB20E24DZB32 SLP120 $,M
BVU,2023-03-19 21:35,-114.8611,35.9475,671.00,57.20,32.00,38.26,160.00,10.00,0.00,29.95,M,10.00,M,FEW,BKN,OVC,M,4400.00,5000.00,6000.00,M,M,M,M,M,M,M,M,57.20,KBVU 192135Z AUTO 16010KT 10SM FEW044 BKN050 OVC060 14/00 A2995 RMK AO2,M
CXP,2023-03-19 21:35,-119.7326,39.1923,1431.00,42.80,37.40,81.07,0.00,0.00,0.00,29.76,M,10.00,M,FEW,BKN,M,M,2000.00,6000.00,M,M,M,M,M,M,M,M,M,42.80,KCXP 192135Z AUTO 00000KT 10SM FEW020 BKN060 06/03 A2976 RMK AO2,M
RTS,2023-03-19 21:35,-119.8764,39.6682,1539.00,41.00,35.60,80.93,M,5.00,0.00,29.76,M,7.00,M,SCT,BKN,M,M,2800.00,3300.00,M,M,M,M,M,M,M,M,M,37.08,KRTS 192135Z AUTO VRB05KT 7SM SCT028 BKN033 05/02 A2976 RMK AO2,M
05U,2023-03-19 21:35,-116.0051,39.6042,1811.23,M,M,M,160.00,11.00,0.00,29.85,M,10.00,M,FEW,SCT,M,M,2800.00,3400.00,M,M,M,M,M,M,M,M,M,M,K05U 192135Z AUTO 16011KT 10SM FEW028 SCT034 A2985 RMK A01,M
MEV,2023-03-19 21:35,-119.7500,38.9963,1441.42,42.80,39.20,86.99,350.00,7.00,0.00,29.74,M,10.00,M,FEW,SCT,SCT,M,2400.00,2800.00,3400.00,M,-RA,M,M,M,M,M,M,37.94,KMEV 192135Z AUTO 35007KT 10SM -RA FEW024 SCT028 SCT034 06/04 A2974 RMK AO2,M
BAM,2023-03-19 21:35,-116.8743,40.5990,1382.36,44.60,32.00,61.03,150.00,9.00,0.00,29.80,M,10.00,M,BKN,OVC,M,M,3100.00,3700.00,M,M,M,M,M,M,M,M,M,39.18,KBAM 192135Z AUTO 15009KT 10SM BKN031 OVC037 07/00 A2980 RMK AO1,M
HTH,2023-03-19 21:35,-118.6315,38.5448,1282.89,51.80,32.00,46.59,160.00,19.00,0.00,29.74,M,10.00,26.00,FEW,FEW,SCT,M,4300.00,5500.00,6500.00,M,M,M,M,M,M,M,M,51.80,KHTH 192135Z AUTO 16019G26KT 10SM FEW043 FEW055 SCT065 11/00 A2974 RMK A01,M
TMT,2023-03-19 21:35,-117.1971,39.4643,1749.34,32.00,32.00,100.00,240.00,4.00,0.03,29.81,M,0.50,M,OVC,M,M,M,800.00,M,M,M,SN,M,M,M,M,M,M,27.42,KTMT 192135Z AUTO 24004KT 1/2SM SN OVC008 00/00 A2981 RMK AO2 P0003 T00000000,M
LSV,2023-03-19 21:36,-115.0343,36.2362,570.00,59.00,32.00,35.87,170.00,14.00,0.00,29.92,1012.70,10.00,21.00,FEW,M,M,M,7000.00,M,M,M,M,M,M,M,M,M,M,59.00,KLSV 192136Z AUTO 17014G21KT 10SM FEW070 15/M00 A2992 RMK AO2 WSHFT 25 SLP127 $,M
LSV,2023-03-19 21:44,-115.0343,36.2362,570.00,59.00,35.60,41.42,170.00,12.00,0.00,29.93,1013.00,10.00,M,FEW,FEW,M,M,2600.00,7000.00,M,M,-RA,M,M,M,M,M,M,59.00,KLSV 192144Z AUTO 17012KT 10SM -RA FEW026 FEW070 15/02 A2993 RMK AO2 RAB44 SLP130 $,M
LSV,2023-03-19 21:46,-115.0343,36.2362,570.00,57.20,37.40,47.44,200.00,12.00,0.00,29.93,1013.10,10.00,M,FEW,FEW,SCT,M,2400.00,3200.00,7000.00,M,-RA,M,M,M,M,M,M,57.20,KLSV 192146Z AUTO 20012KT 10SM -RA FEW024 FEW032 SCT070 14/03 A2993 RMK AO2 WSHFT 40 RAB44 SLP131 $,M
P68,2023-03-19 21:53,-116.0056,39.6014,1993.00,37.00,28.00,69.63,160.00,11.00,0.00,29.81,1008.10,M,M,M,M,M,M,M,M,M,M,M,M,M,M,M,M,M,28.79,KP68 192153Z AUTO 16011KT 03/M02 A2981 RMK AO1 SLP081 T00281022,M
VGT,2023-03-19 21:53,-115.1933,36.2111,667.00,55.00,40.00,56.66,180.00,9.00,T,29.94,1015.30,10.00,M,BKN,OVC,M,M,4600.00,5500.00,M,M,-RA,M,M,M,M,M,M,55.00,KVGT 192153Z 18009KT 10SM -RA BKN046 OVC055 13/04 A2994 RMK AO2 RAB14 SLP153 P0000 T01280044,M
DRA,2023-03-19 21:53,-116.0278,36.6206,1009.00,49.00,36.00,60.88,230.00,4.00,0.00,29.90,1011.10,10.00,M,OVC,M,M,M,4500.00,M,M,M,M,M,M,M,M,M,M,47.16,KDRA 192153Z AUTO 23004KT 10SM OVC045 09/02 A2990 RMK AO2 SLP111 T00940022,M
ELY,2023-03-19 21:53,-114.8453,39.2950,1909.00,33.00,28.00,81.30,170.00,18.00,T,29.86,1012.00,2.00,28.00,BKN,OVC,M,M,3100.00,3800.00,M,M,-SN,M,M,M,31.00,160.00,2023-03-19 21:00,21.20,KELY 192153Z AUTO 17018G28KT 2SM -SN BKN031 OVC038 01/M02 A2986 RMK AO2 PK WND 16031/2100 SNB12 SLP120 P0000 T00061022 $,M
LOL,2023-03-19 21:53,-118.5701,40.0684,1192.43,42.00,38.00,84.93,160.00,8.00,0.02,29.77,1008.60,5.00,M,BKN,OVC,M,M,1800.00,2700.00,M,M,-RA BR,M,M,M,M,M,M,36.55,KLOL 192153Z AUTO 16008KT 5SM -RA BR BKN018 OVC027 06/03 A2977 RMK AO2 SLP086 P0002 T00560033,M
BVU,2023-03-19 21:55,-114.8611,35.9475,671.00,55.40,37.40,50.64,150.00,13.00,0.00,29.94,M,9.00,M,FEW,SCT,BKN,M,2800.00,4200.00,4900.00,M,M,M,M,M,M,M,M,55.40,KBVU 192155Z AUTO 15013KT 9SM FEW028 SCT042 BKN049 13/03 A2994 RMK AO2,M
CXP,2023-03-19 21:55,-119.7326,39.1923,1431.00,44.60,37.40,75.68,M,3.00,0.01,29.76,M,10.00,M,BKN,M,M,M,6000.00,M,M,M,-RA,M,M,M,M,M,M,43.09,KCXP 192155Z AUTO VRB03KT 10SM -RA BKN060 07/03 A2976 RMK AO2 P0001,M
RNO,2023-03-19 21:55,-119.7711,39.4839,1341.00,45.00,37.00,73.37,90.00,3.00,T,29.75,1005.80,10.00,M,SCT,OVC,M,M,1800.00,3200.00,M,M,-RA,M,M,M,M,M,M,43.55,KRNO 192155Z 09003KT 10SM -RA SCT018 OVC032 07/03 A2975 RMK AO2 SLP058 P0000 T00720028,M
RTS,2023-03-19 21:55,-119.8764,39.6682,1539.00,41.00,35.60,80.93,M,6.00,0.00,29.75,M,9.00,M,FEW,FEW,BKN,M,1500.00,2000.00,2700.00,M,M,M,M,M,M,M,M,36.37,KRTS 192155Z AUTO VRB06KT 9SM FEW015 FEW020 BKN027 05/02 A2975 RMK AO2,M
05U,2023-03-19 21:55,-116.0051,39.6042,1811.23,M,M,M,150.00,12.00,0.00,29.84,M,10.00,M,FEW,SCT,M,M,2800.00,3300.00,M,M,M,M,M,M,M,M,M,M,K05U 192155Z AUTO 15012KT 10SM FEW028 SCT033 A2984 RMK A01,M
MEV,2023-03-19 21:55,-119.7500,38.9963,1441.42,42.80,39.20,86.99,340.00,7.00,0.01,29.74,M,4.00,M,FEW,SCT,SCT,M,2400.00,2900.00,3400.00,M,-RA BR,M,M,M,M,M,M,37.94,KMEV 192155Z AUTO 34007KT 4SM -RA BR FEW024 SCT029 SCT034 06/04 A2974 RMK AO2 P0001,M
BAM,2023-03-19 21:55,-116.8743,40.5990,1382.36,42.80,35.60,75.50,140.00,6.00,0.00,29.80,M,10.00,M,OVC,M,M,M,3300.00,M,M,M,M,M,M,M,M,M,M,38.54,KBAM 192155Z AUTO 14006KT 10SM OVC033 06/02 A2980 RMK AO1,M
HTH,2023-03-19 21:55,-118.6315,38.5448,1282.89,51.80,30.20,43.32,140.00,16.00,0.00,29.73,M,10.00,M,FEW,BKN,BKN,M,5000.00,6500.00,9000.00,M,M,M,M,M,M,M,M,51.80,KHTH 192155Z AUTO 14016KT 10SM FEW050 BKN065 BKN090 11/M01 A2973 RMK A01,M
TMT,2023-03-19 21:55,-117.1971,39.4643,1749.34,32.20,32.00,99.20,220.00,4.00,0.03,29.80,M,2.00,M,SCT,BKN,OVC,M,300.00,1000.00,1500.00,M,-SN,M,M,M,M,M,M,27.65,KTMT 192155Z AUTO 22004KT 2SM -SN SCT003 BKN010 OVC015 00/00 A2980 RMK AO2 P0003 T00010000,M
INS,2023-03-19 21:55,-115.6733,36.5872,955.00,49.00,35.60,59.93,0.00,0.00,T,29.91,1011.60,10.00,M,FEW,SCT,OVC,M,2300.00,3000.00,4900.00,M,-DZ,M,M,M,M,M,M,48.90,KINS 192155Z AUTO 00000KT 10SM -DZ FEW023 SCT030 OVC049 09/02 A2991 RMK AO2 RAE20DZB20E24DZB32E41RAB41E53DZB53 SLP116 P0000 T00940020 $,M
LSV,2023-03-19 21:55,-115.0343,36.2362,570.00,56.00,35.00,45.07,240.00,8.00,T,29.93,1013.10,10.00,20.00,SCT,M,M,M,2600.00,M,M,M,-RA,M,M,M,M,M,M,56.10,KLSV 192155Z AUTO 24008G20KT 10SM -RA SCT026 13/02 A2993 RMK AO2 RAB44 SLP131 P0000 T01340017 $,M
EKO,2023-03-19 21:56,-115.7860,40.8242,1367.00,45.00,25.00,45.12,170.00,8.00,0.00,29.79,1009.30,10.00,M,OVC,M,M,M,6000.00,M,M,M,M,M,M,M,M,M,M,40.13,KEKO 192156Z AUTO 17008KT 10SM OVC060 07/M04 A2979 RMK AO2 SLP093 T00721039,M
LSV,2023-03-19 21:56,-115.0343,36.2362,570.00,55.40,35.60,47.16,250.00,7.00,0.00,29.93,1013.10,9.00,20.00,SCT,M,M,M,2600.00,M,M,M,M,M,M,M,M,M,M,55.40,KLSV 192156Z AUTO 25007G20KT 9SM SCT026 13/02 A2993 RMK AO2 RAE54 SLP131 $,M
NFL,2023-03-19 21:56,-118.7010,39.4166,1199.00,51.00,34.00,51.81,160.00,15.00,T,29.72,1004.60,10.00,23.00,BKN,OVC,M,M,5000.00,8000.00,M,M,M,M,M,M,M,M,M,51.10,KNFL 192156Z 16015G23KT 10SM BKN050 OVC080 11/01 A2972 RMK AO2 RAB13E30 SLP046 P0000 T01060011,M
TPH,2023-03-19 21:56,-117.0904,38.0505,1654.00,39.00,34.00,82.08,170.00,18.00,0.01,29.85,1010.40,10.00,24.00,BKN,OVC,M,M,1700.00,2600.00,M,M,-RA,M,M,M,31.00,190.00,2023-03-19 21:33,28.96,KTPH 192156Z AUTO 17018G24KT 10SM -RA BKN017 OVC026 04/01 A2985 RMK AO2 PK WND 19031/2133 RAE2058B09SNB2058E09 SLP104 P0001 T00390011,M
LAS,2023-03-19 21:56,-115.1634,36.0719,663.00,54.00,38.00,54.34,220.00,7.00,T,29.94,1013.30,10.00,M,FEW,BKN,OVC,M,3500.00,5000.00,10000.00,M,-RA,M,M,M,M,M,M,54.00,KLAS 192156Z 22007KT 10SM -RA FEW035 BKN050 OVC100 12/03 A2994 RMK AO2 RAB08 SLP133 P0000 T01220033,M
WMC,2023-03-19 21:56,-117.8072,40.9019,1315.00,44.00,34.00,67.41,190.00,6.00,T,29.77,1007.40,10.00,M,FEW,OVC,M,M,2700.00,3600.00,M,M,-RA,M,M,M,M,M,M,40.10,KWMC 192156Z AUTO 19006KT 10SM -RA FEW027 OVC036 07/01 A2977 RMK AO2 RAB03E12B44 SLP074 P0000 T00670011 $,M
HND,2023-03-19 21:56,-115.1344,35.9729,742.79,53.00,40.00,60.73,260.00,3.00,T,29.96,1016.00,10.00,M,OVC,M,M,M,5000.00,M,M,M,-RA,M,M,M,M,M,M,53.10,KHND 192156Z 26003KT 10SM -RA OVC050 12/04 A2996 RMK AO2 SLP160 P0000 T01170044,M
LSV,2023-03-19 21:57,-115.0343,36.2362,570.00,55.40,35.60,47.16,260.00,5.00,0.00,29.93,1013.10,9.00,20.00,SCT,M,M,M,2600.00,M,M,M,-RA,M,M,M,M,M,M,55.40,KLSV 192157Z AUTO 26005G20KT 9SM -RA SCT026 13/02 A2993 RMK AO2 RAE54RAB56 SLP131 $,M
ELY,2023-03-19 21:58,-114.8453,39.2950,1909.00,32.00,28.00,86.39,170.00,18.00,T,29.86,M,1.75,29.00,BKN,OVC,M,M,2800.00,3600.00,M,M,-SN BR,M,M,M,29.00,180.00,2023-03-19 21:56,19.75,KELY 192158Z AUTO 17018G29KT 1 3/4SM -SN BR BKN028 OVC036 00/M02 A2986 RMK AO2 PK WND 18029/2156 P0000 T00001022 $,M
INS,2023-03-19 22:05,-115.6733,36.5872,955.00,50.00,37.40,61.76,50.00,5.00,0.00,29.91,1011.60,10.00,M,FEW,SCT,OVC,M,2300.00,4700.00,5500.00,M,M,M,M,M,M,M,M,50.00,KINS 192205Z AUTO 05005KT 10SM FEW023 SCT047 OVC055 10/03 A2991 RMK AO2 DZE05 SLP116 $,M
ELY,2023-03-19 22:11,-114.8453,39.2950,1909.00,32.00,28.00,84.98,170.00,14.00,T,29.86,M,1.00,25.00,BKN,OVC,M,M,2400.00,3400.00,M,M,-SN BR,M,M,M,29.00,180.00,2023-03-19 21:56,21.16,KELY 192211Z AUTO 17014G25KT 1SM -SN BR BKN024 OVC034 00/M02 A2986 RMK AO2 PK WND 18029/2156 P0000 T00001022 $,M
BVU,2023-03-19 22:15,-114.8611,35.9475,671.00,55.40,37.40,50.64,150.00,6.00,0.00,29.93,M,10.00,M,FEW,FEW,BKN,M,2900.00,4100.00,5000.00,M,M,M,M,M,M,M,M,55.40,KBVU 192215Z AUTO 15006KT 10SM FEW029 FEW041 BKN050 13/03 A2993 RMK AO2,M
CXP,2023-03-19 22:15,-119.7326,39.1923,1431.00,46.40,39.20,75.84,M,3.00,0.00,29.75,M,10.00,M,FEW,SCT,M,M,2000.00,6000.00,M,M,-RA,M,M,M,M,M,M,45.15,KCXP 192215Z AUTO VRB03KT 10SM -RA FEW020 SCT060 08/04 A2975 RMK AO2,M
RTS,2023-03-19 22:15,-119.8764,39.6682,1539.00,41.00,35.60,80.93,110.00,8.00,0.00,29.75,M,8.00,M,BKN,BKN,OVC,M,2400.00,2900.00,3300.00,M,M,M,M,M,M,M,M,35.20,KRTS 192215Z AUTO 11008KT 8SM BKN024 BKN029 OVC033 05/02 A2975 RMK AO2,M
05U,2023-03-19 22:15,-116.0051,39.6042,1811.23,M,M,M,170.00,13.00,0.00,29.83,M,9.00,M,FEW,FEW,M,M,2600.00,3000.00,M,M,M,M,M,M,M,M,M,M,K05U 192215Z AUTO 17013KT 9SM FEW026 FEW030 A2983 RMK A01,M
MEV,2023-03-19 22:15,-119.7500,38.9963,1441.42,42.80,39.20,86.99,360.00,6.00,0.00,29.73,M,4.00,M,SCT,BKN,M,M,2600.00,3300.00,M,M,-RA BR,M,M,M,M,M,M,38.54,KMEV 192215Z AUTO 36006KT 4SM -RA BR SCT026 BKN033 06/04 A2973 RMK AO2,M
BAM,2023-03-19 22:15,-116.8743,40.5990,1382.36,42.80,35.60,75.50,160.00,4.00,0.00,29.80,M,10.00,M,SCT,OVC,M,M,3100.00,4000.00,M,M,M,M,M,M,M,M,M,40.03,KBAM 192215Z AUTO 16004KT 10SM SCT031 OVC040 06/02 A2980 RMK AO1,M
HTH,2023-03-19 22:15,-118.6315,38.5448,1282.89,53.60,32.00,43.61,150.00,17.00,0.00,29.72,M,10.00,24.00,SCT,BKN,M,M,6000.00,8000.00,M,M,M,M,M,M,M,M,M,53.60,KHTH 192215Z AUTO 15017G24KT 10SM SCT060 BKN080 12/M00 A2972 RMK A01,M
TMT,2023-03-19 22:15,-117.1971,39.4643,1749.34,32.50,32.40,99.60,0.00,0.00,0.01,29.80,M,2.00,M,SCT,BKN,OVC,M,200.00,1300.00,2000.00,M,-SN,M,M,M,M,M,M,32.50,KTMT 192215Z AUTO 00000KT 2SM -SN SCT002 BKN013 OVC020 00/00 A2980 RMK AO2 P0001 T00030002,M
ELY,2023-03-19 22:27,-114.8453,39.2950,1909.00,32.00,28.00,84.98,170.00,17.00,T,29.85,M,1.50,30.00,BKN,OVC,M,M,2600.00,3400.00,M,M,-SN BR,M,M,M,30.00,170.00,2023-03-19 22:20,20.08,KELY 192227Z AUTO 17017G30KT 1 1/2SM -SN BR BKN026 OVC034 00/M02 A2985 RMK AO2 PK WND 17030/2220 P0000 T00001022 $,M
BVU,2023-03-19 22:35,-114.8611,35.9475,671.00,55.40,35.60,47.16,130.00,8.00,0.00,29.93,M,10.00,M,FEW,BKN,OVC,M,4100.00,5000.00,5500.00,M,M,M,M,M,M,M,M,55.40,KBVU 192235Z AUTO 13008KT 10SM FEW041 BKN050 OVC055 13/02 A2993 RMK AO2,M
CXP,2023-03-19 22:35,-119.7326,39.1923,1431.00,46.40,39.20,75.84,0.00,0.00,0.00,29.75,M,10.00,M,SCT,M,M,M,5500.00,M,M,M,-RA,M,M,M,M,M,M,46.40,KCXP 192235Z AUTO 00000KT 10SM -RA SCT055 08/04 A2975 RMK AO2,M
RTS,2023-03-19 22:35,-119.8764,39.6682,1539.00,41.00,35.60,80.93,140.00,7.00,0.00,29.75,M,8.00,M,SCT,BKN,OVC,M,2200.00,2700.00,3300.00,M,-DZ,M,M,M,M,M,M,35.75,KRTS 192235Z AUTO 14007KT 8SM -DZ SCT022 BKN027 OVC033 05/02 A2975 RMK AO2,M
05U,2023-03-19 22:35,-116.0051,39.6042,1811.23,M,M,M,160.00,10.00,0.00,29.83,M,10.00,M,SCT,M,M,M,2400.00,M,M,M,M,M,M,M,M,M,M,M,K05U 192235Z AUTO 16010KT 10SM SCT024 A2983 RMK A01,M
MEV,2023-03-19 22:35,-119.7500,38.9963,1441.42,44.60,39.20,81.20,310.00,3.00,0.00,29.73,M,8.00,M,FEW,SCT,BKN,M,2400.00,3700.00,4700.00,M,-RA,M,M,M,M,M,M,43.09,KMEV 192235Z AUTO 31003KT 8SM -RA FEW024 SCT037 BKN047 07/04 A2973 RMK AO2,M
BAM,2023-03-19 22:35,-116.8743,40.5990,1382.36,42.80,35.60,75.50,110.00,4.00,0.00,29.79,M,10.00,M,BKN,OVC,M,M,3600.00,4300.00,M,M,M,M,M,M,M,M,M,40.03,KBAM 192235Z AUTO 11004KT 10SM BKN036 OVC043 06/02 A2979 RMK AO1,M
HTH,2023-03-19 22:35,-118.6315,38.5448,1282.89,55.40,30.20,37.97,160.00,18.00,0.00,29.71,M,10.00,28.00,SCT,BKN,M,M,6500.00,8000.00,M,M,M,M,M,M,M,M,M,55.40,KHTH 192235Z AUTO 16018G28KT 10SM SCT065 BKN080 13/M01 A2971 RMK A01,M
TMT,2023-03-19 22:35,-117.1971,39.4643,1749.34,33.40,33.00,98.80,160.00,6.00,0.01,29.80,M,5.00,M,SCT,OVC,M,M,1600.00,2600.00,M,M,-RA,M,M,M,M,M,M,27.22,KTMT 192235Z AUTO 16006KT 5SM -RA SCT016 OVC026 01/01 A2980 RMK AO2 P0001 T00080006,M
ELY,2023-03-19 22:36,-114.8453,39.2950,1909.00,32.00,28.00,84.98,160.00,18.00,T,29.85,M,1.25,27.00,BKN,OVC,M,M,2400.00,3400.00,M,M,-SN BR,M,M,M,30.00,170.00,2023-03-19 22:20,19.75,KELY 192236Z AUTO 16018G27KT 1 1/4SM -SN BR BKN024 OVC034 00/M02 A2985 RMK AO2 PK WND 17030/2220 P0000 T00001022 $,M
INS,2023-03-19 22:36,-115.6733,36.5872,955.00,50.00,35.60,57.52,130.00,9.00,0.00,29.91,1011.60,10.00,M,FEW,FEW,SCT,SCT,900.00,1800.00,2400.00,3300.00,-RA,M,M,M,M,M,M,50.00,KINS 192236Z AUTO 13009KT 10SM -RA FEW009 FEW018 SCT024 SCT033 OVC048 10/02 A2991 RMK AO2 DZE05RAB36 SLP116 $,M
P68,2023-03-19 22:53,-116.0056,39.6014,1993.00,36.00,30.00,78.60,230.00,5.00,0.00,29.80,1008.00,M,M,M,M,M,M,M,M,M,M,M,M,M,M,M,M,M,31.15,KP68 192253Z AUTO 23005KT 02/M01 A2980 RMK AO1 SLP080 T00221011,M
ELY,2023-03-19 22:53,-114.8453,39.2950,1909.00,32.00,28.00,84.98,170.00,18.00,0.01,29.84,1010.30,2.00,26.00,BKN,OVC,M,M,2600.00,3700.00,M,M,-SN BR,M,M,M,30.00,170.00,2023-03-19 22:20,19.75,KELY 192253Z AUTO 17018G26KT 2SM -SN BR BKN026 OVC037 00/M02 A2984 RMK AO2 PK WND 17030/2220 SLP103 P0001 T00001022 $,M
VGT,2023-03-19 22:53,-115.1933,36.2111,667.00,54.00,39.00,56.74,0.00,0.00,T,29.93,1014.80,10.00,M,BKN,OVC,M,M,4900.00,6000.00,M,M,-RA,M,M,M,M,M,M,54.00,KVGT 192253Z 00000KT 10SM -RA BKN049 OVC060 12/04 A2993 RMK AO2 RAE25B43 SLP148 P0000 T01220039,M
DRA,2023-03-19 22:53,-116.0278,36.6206,1009.00,48.00,38.00,67.87,140.00,8.00,T,29.89,1010.70,10.00,15.00,OVC,M,M,M,4000.00,M,M,M,M,M,M,M,M,M,M,43.82,KDRA 192253Z AUTO 14008G15KT 10SM OVC040 09/03 A2989 RMK AO2 RAB32E38 SLP107 P0000 T00890033,M
LOL,2023-03-19 22:53,-118.5701,40.0684,1192.43,42.00,38.00,84.93,60.00,4.00,0.01,29.76,1008.40,10.00,M,BKN,OVC,M,M,3100.00,4200.00,M,M,-RA,M,M,M,M,M,M,39.21,KLOL 192253Z AUTO 06004KT 10SM -RA BKN031 OVC042 06/03 A2976 RMK AO2 SLP084 P0001 T00560033,M
EKO,2023-03-19 22:54,-115.7860,40.8242,1367.00,41.00,30.20,65.16,200.00,14.97,M,29.80,M,10.00,27.02,BKN,BKN,OVC,M,2598.00,3300.00,4599.00,M,-RA,M,M,M,27.00,210.00,2023-03-19 22:50,32.46,SPECI KEKO 192254Z 20015G27KT 10SM -RA BKN026 BKN033 OVC046 05/M01 A2980 RMK AO2 PK WND 21027/2250 RAB47 P0000 FIBI,M
BVU,2023-03-19 22:55,-114.8611,35.9475,671.00,55.40,35.60,47.16,170.00,6.00,0.00,29.92,M,10.00,M,FEW,FEW,OVC,M,3300.00,4500.00,5500.00,M,M,M,M,M,M,M,M,55.40,KBVU 192255Z AUTO 17006KT 10SM FEW033 FEW045 OVC055 13/02 A2992 RMK AO2,M
CXP,2023-03-19 22:55,-119.7326,39.1923,1431.00,46.40,37.40,70.68,0.00,0.00,0.00,29.74,M,10.00,M,FEW,BKN,BKN,M,4900.00,5500.00,7000.00,M,M,M,M,M,M,M,M,46.40,KCXP 192255Z AUTO 00000KT 10SM FEW049 BKN055 BKN070 08/03 A2974 RMK AO2,M
RNO,2023-03-19 22:55,-119.7711,39.4839,1341.00,46.00,37.00,70.64,310.00,3.00,T,29.74,1005.50,10.00,M,SCT,BKN,OVC,M,2000.00,3000.00,4000.00,M,-RA,M,M,M,M,M,M,44.69,KRNO 192255Z 31003KT 10SM -RA SCT020 BKN030 OVC040 08/03 A2974 RMK AO2 SLP055 P0000 T00780028,M
RTS,2023-03-19 22:55,-119.8764,39.6682,1539.00,41.00,35.60,80.93,M,3.00,0.01,29.75,M,6.00,M,BKN,BKN,BKN,M,1900.00,2500.00,3000.00,M,-RA,M,M,M,M,M,M,38.98,KRTS 192255Z AUTO VRB03KT 6SM -RA BKN019 BKN025 BKN030 05/02 A2975 RMK AO2 P0001,M
05U,2023-03-19 22:55,-116.0051,39.6042,1811.23,M,M,M,230.00,4.00,0.00,29.83,M,7.00,M,SCT,M,M,M,2300.00,M,M,M,M,M,M,M,M,M,M,M,K05U 192255Z AUTO 23004KT 7SM SCT023 A2983 RMK A01,M
MEV,2023-03-19 22:55,-119.7500,38.9963,1441.42,44.60,39.20,81.20,330.00,3.00,0.00,29.72,M,10.00,M,FEW,BKN,OVC,M,3900.00,4600.00,5500.00,M,M,M,M,M,M,M,M,43.09,KMEV 192255Z AUTO 33003KT 10SM FEW039 BKN046 OVC055 07/04 A2972 RMK AO2,M
BAM,2023-03-19 22:55,-116.8743,40.5990,1382.36,42.80,35.60,75.50,280.00,4.00,0.00,29.79,M,10.00,M,SCT,BKN,OVC,M,1700.00,2600.00,4300.00,M,M,M,M,M,M,M,M,40.03,KBAM 192255Z AUTO 28004KT 10SM SCT017 BKN026 OVC043 06/02 A2979 RMK AO1,M
HTH,2023-03-19 22:55,-118.6315,38.5448,1282.89,55.40,32.00,40.84,170.00,20.00,0.00,29.71,M,10.00,27.00,FEW,FEW,M,M,7000.00,8000.00,M,M,M,M,M,M,M,M,M,55.40,KHTH 192255Z AUTO 17020G27KT 10SM FEW070 FEW080 13/M00 A2971 RMK A01,M
TMT,2023-03-19 22:55,-117.1971,39.4643,1749.34,35.40,33.60,93.08,210.00,12.00,0.01,29.80,M,7.00,M,SCT,BKN,OVC,M,900.00,2100.00,2800.00,M,RA,M,M,M,M,M,M,26.33,KTMT 192255Z AUTO 21012KT 7SM RA SCT009 BKN021 OVC028 02/01 A2980 RMK AO2 P0001 T00190009,M
INS,2023-03-19 22:55,-115.6733,36.5872,955.00,48.60,37.40,65.07,90.00,9.00,0.01,29.91,1011.80,10.00,M,FEW,FEW,BKN,BKN,1700.00,2500.00,3400.00,4300.00,-RA,M,M,M,M,M,M,44.15,KINS 192255Z AUTO 09009KT 10SM -RA FEW017 FEW025 BKN034 BKN043 OVC050 09/03 A2991 RMK AO2 DZE05RAB36 SLP118 P0001 T00920030 $,M
LSV,2023-03-19 22:55,-115.0343,36.2362,570.00,53.60,42.00,64.93,0.00,0.00,T,29.91,1012.50,10.00,M,SCT,SCT,M,M,5000.00,5500.00,M,M,M,M,M,M,M,M,M,53.60,KLSV 192255Z AUTO 00000KT 10SM SCT050 SCT055 12/06 A2991 RMK AO2 RAE2154RAB2156E25DZB25E27 SLP125 P0000 T01200056 $,M
EKO,2023-03-19 22:56,-115.7860,40.8242,1367.00,41.00,30.00,64.63,200.00,15.00,T,29.80,1009.70,10.00,27.00,BKN,BKN,OVC,M,2600.00,3300.00,4600.00,M,-RA,M,M,M,27.00,210.00,2023-03-19 22:50,32.45,KEKO 192256Z AUTO 20015G27KT 10SM -RA BKN026 BKN033 OVC046 05/M01 A2980 RMK AO2 PK WND 21027/2250 RAB47 SLP097 P0000 T00501011,M
TPH,2023-03-19 22:56,-117.0904,38.0505,1654.00,39.00,34.00,82.08,180.00,16.00,T,29.83,1009.40,10.00,M,OVC,M,M,M,1800.00,M,M,M,M,M,M,M,M,M,M,29.54,KTPH 192256Z AUTO 18016KT 10SM OVC018 04/01 A2983 RMK AO2 RAE22 SLP094 P0000 T00390011,M
HND,2023-03-19 22:56,-115.1344,35.9729,742.79,54.00,40.00,58.76,0.00,0.00,T,29.93,1015.20,10.00,M,SCT,SCT,BKN,M,5500.00,7000.00,9000.00,M,M,M,M,M,M,M,M,54.00,KHND 192256Z 00000KT 10SM SCT055 SCT070 BKN090 12/04 A2993 RMK AO2 RAE41 SLP152 P0000 T01220044,M
LAS,2023-03-19 22:56,-115.1634,36.0719,663.00,54.00,38.00,54.34,0.00,0.00,T,29.92,1012.70,10.00,M,FEW,BKN,OVC,M,3500.00,5000.00,10000.00,M,M,M,M,M,M,M,M,54.00,KLAS 192256Z 00000KT 10SM FEW035 BKN050 OVC100 12/03 A2992 RMK AO2 RAE25 SLP127 P0000 T01220033,M
WMC,2023-03-19 22:56,-117.8072,40.9019,1315.00,42.00,37.00,81.98,180.00,9.00,0.01,29.76,1007.60,8.00,M,FEW,BKN,OVC,M,1500.00,3300.00,4200.00,M,-RA,M,M,M,M,M,M,36.07,KWMC 192256Z AUTO 18009KT 8SM -RA FEW015 BKN033 OVC042 06/03 A2976 RMK AO2 SLP076 P0001 T00560028 $,M
NFL,2023-03-19 22:56,-118.7010,39.4166,1199.00,49.00,38.00,65.62,200.00,12.00,T,29.73,1004.70,7.00,M,OVC,M,M,M,3800.00,M,M,M,-RA,M,M,M,M,M,M,43.51,KNFL 192256Z AUTO 20012KT 7SM -RA OVC038 09/03 A2973 RMK AO2 RAB46 SLP047 P0000 T00940033,M
ELY,2023-03-19 23:02,-114.8453,39.2950,1909.00,32.00,28.00,86.39,170.00,17.00,T,29.84,M,4.00,27.00,BKN,OVC,M,M,2800.00,4300.00,M,M,-SN BR,M,M,M,27.00,160.00,2023-03-19 22:56,20.08,KELY 192302Z AUTO 17017G27KT 4SM -SN BR BKN028 OVC043 00/M02 A2984 RMK AO2 PK WND 16027/2256 P0000 T00001022 $,M
LSV,2023-03-19 23:07,-115.0343,36.2362,570.00,53.60,41.00,62.23,0.00,0.00,0.00,29.91,1012.50,10.00,M,FEW,SCT,M,M,2500.00,5000.00,M,M,-DZ,M,M,M,M,M,M,53.60,KLSV 192307Z AUTO 00000KT 10SM -DZ FEW025 SCT050 12/05 A2991 RMK AO2 DZB07 SLP125 $,M
EKO,2023-03-19 23:09,-115.7860,40.8242,1367.00,40.00,30.90,69.96,190.00,12.00,T,29.80,M,10.00,22.00,BKN,OVC,M,M,3000.00,4100.00,M,M,M,M,M,M,M,M,M,32.06,KEKO 192309Z AUTO 19012G22KT 10SM BKN030 OVC041 04/M01 A2980 RMK AO2 RAE2259 P0000 T00441006,M
ELY,2023-03-19 23:10,-114.8453,39.2950,1909.00,32.00,28.00,84.98,170.00,15.00,T,29.83,M,8.00,M,BKN,OVC,M,M,3500.00,4700.00,M,M,-SN,M,M,M,27.00,160.00,2023-03-19 22:56,20.78,KELY 192310Z AUTO 17015KT 8SM -SN BKN035 OVC047 00/M02 A2983 RMK AO2 PK WND 16027/2256 P0000 T00001022 $,M
BVU,2023-03-19 23:15,-114.8611,35.9475,671.00,55.40,37.40,50.64,180.00,10.00,0.00,29.92,M,10.00,17.00,OVC,M,M,M,5500.00,M,M,M,M,M,M,M,M,M,M,55.40,KBVU 192315Z AUTO 18010G17KT 10SM OVC055 13/03 A2992 RMK AO2,M
CXP,2023-03-19 23:15,-119.7326,39.1923,1431.00,46.40,37.40,70.68,0.00,0.00,0.00,29.74,M,10.00,M,FEW,SCT,BKN,M,2500.00,4800.00,6500.00,M,M,M,M,M,M,M,M,46.40,KCXP 192315Z AUTO 00000KT 10SM FEW025 SCT048 BKN065 08/03 A2974 RMK AO2,M
RTS,2023-03-19 23:15,-119.8764,39.6682,1539.00,42.80,37.40,81.07,0.00,0.00,0.00,29.74,M,10.00,M,FEW,BKN,BKN,M,1400.00,1900.00,5000.00,M,M,M,M,M,M,M,M,42.80,KRTS 192315Z AUTO 00000KT 10SM FEW014 BKN019 BKN050 06/03 A2974 RMK AO2,M
05U,2023-03-19 23:15,-116.0051,39.6042,1811.23,M,M,M,M,4.00,0.00,29.82,M,6.00,M,FEW,M,M,M,2300.00,M,M,M,HZ,M,M,M,M,M,M,M,K05U 192315Z AUTO VRB04KT 6SM HZ FEW023 A2982 RMK A01,M
MEV,2023-03-19 23:15,-119.7500,38.9963,1441.42,44.60,39.20,81.20,M,4.00,0.00,29.73,M,9.00,M,BKN,OVC,M,M,4200.00,4800.00,M,M,-RA,M,M,M,M,M,M,42.13,KMEV 192315Z AUTO VRB04KT 9SM -RA BKN042 OVC048 07/04 A2973 RMK AO2,M
BAM,2023-03-19 23:15,-116.8743,40.5990,1382.36,41.00,37.40,86.89,230.00,10.00,0.00,29.79,M,7.00,M,SCT,BKN,OVC,M,800.00,1500.00,2500.00,M,M,M,M,M,M,M,M,34.25,KBAM 192315Z AUTO 23010KT 7SM SCT008 BKN015 OVC025 05/03 A2979 RMK AO1,M
HTH,2023-03-19 23:15,-118.6315,38.5448,1282.89,53.60,30.20,40.54,160.00,20.00,0.00,29.70,M,10.00,26.00,SCT,SCT,BKN,M,7000.00,8000.00,10000.00,M,M,M,M,M,M,M,M,53.60,KHTH 192315Z AUTO 16020G26KT 10SM SCT070 SCT080 BKN100 12/M01 A2970 RMK A01,M
TMT,2023-03-19 23:15,-117.1971,39.4643,1749.34,34.20,33.30,96.46,180.00,9.00,0.01,29.79,M,5.00,M,SCT,OVC,M,M,900.00,1600.00,M,M,-RA,M,M,M,M,M,M,26.25,KTMT 192315Z AUTO 18009KT 5SM -RA SCT009 OVC016 01/01 A2979 RMK AO2 P0001 T00120007,M
LSV,2023-03-19 23:16,-115.0343,36.2362,570.00,53.60,42.80,66.70,0.00,0.00,0.00,29.91,1012.50,10.00,M,FEW,FEW,M,M,2500.00,5000.00,M,M,M,M,M,M,M,M,M,53.60,KLSV 192316Z AUTO 00000KT 10SM FEW025 FEW050 12/06 A2991 RMK AO2 DZB07E15RAB15E16 SLP125 $,M
WMC,2023-03-19 23:19,-117.8072,40.9019,1315.00,41.00,37.00,85.54,170.00,6.00,0.02,29.76,M,8.00,M,SCT,BKN,OVC,M,1500.00,1900.00,2800.00,M,-RA,M,M,M,M,M,M,36.37,KWMC 192319Z AUTO 17006KT 8SM -RA SCT015 BKN019 OVC028 05/03 A2976 RMK AO2 P0002 T00500028 $,M
INS,2023-03-19 23:22,-115.6733,36.5872,955.00,48.20,39.20,70.88,110.00,13.00,0.00,29.89,1011.20,10.00,M,BKN,BKN,OVC,M,3200.00,4500.00,5500.00,M,M,M,M,M,M,M,M,42.32,KINS 192322Z AUTO 11013KT 10SM BKN032 BKN045 OVC055 09/04 A2989 RMK AO2 RAE04DZB04E12RAB12E22 SLP112 $,M
HTH,2023-03-19 23:30,-118.6315,38.5448,1282.89,55.40,32.00,40.84,160.00,18.00,0.00,29.70,M,10.00,24.00,BKN,BKN,M,M,7500.00,11000.00,M,M,M,M,M,M,M,M,M,55.40,KHTH 192330Z AUTO 16018G24KT 10SM BKN075 BKN110 13/M00 A2970 RMK A01,M
LSV,2023-03-19 23:31,-115.0343,36.2362,570.00,53.60,41.00,62.23,0.00,0.00,0.00,29.91,1012.50,10.00,M,CLR,M,M,M,M,M,M,M,-RA,M,M,M,M,M,M,53.60,KLSV 192331Z AUTO 00000KT 10SM -RA CLR 12/05 A2991 RMK AO2 DZB07E15RAB15E16RAB31 SLP125 $,M
BVU,2023-03-19 23:35,-114.8611,35.9475,671.00,57.20,35.60,44.19,170.00,7.00,0.00,29.91,M,10.00,M,OVC,M,M,M,6000.00,M,M,M,M,M,M,M,M,M,M,57.20,KBVU 192335Z AUTO 17007KT 10SM OVC060 14/02 A2991 RMK AO2,M
CXP,2023-03-19 23:35,-119.7326,39.1923,1431.00,46.40,37.40,70.68,290.00,3.00,0.00,29.74,M,8.00,M,SCT,SCT,BKN,M,2600.00,3600.00,6500.00,M,-RA,M,M,M,M,M,M,45.15,KCXP 192335Z AUTO 29003KT 8SM -RA SCT026 SCT036 BKN065 08/03 A2974 RMK AO2,M
RTS,2023-03-19 23:35,-119.8764,39.6682,1539.00,42.80,35.60,75.50,0.00,0.00,0.00,29.74,M,10.00,M,FEW,BKN,OVC,M,1600.00,2300.00,7000.00,M,M,M,M,M,M,M,M,42.80,KRTS 192335Z AUTO 00000KT 10SM FEW016 BKN023 OVC070 06/02 A2974 RMK AO2,M
05U,2023-03-19 23:35,-116.0051,39.6042,1811.23,M,M,M,0.00,0.00,0.00,29.82,M,7.00,M,CLR,M,M,M,M,M,M,M,M,M,M,M,M,M,M,M,K05U 192335Z AUTO 00000KT 7SM CLR A2982 RMK A01,M
MEV,2023-03-19 23:35,-119.7500,38.9963,1441.42,44.60,39.20,81.20,0.00,0.00,0.00,29.73,M,9.00,M,SCT,SCT,BKN,M,2600.00,3200.00,4000.00,M,-RA,M,M,M,M,M,M,44.60,KMEV 192335Z AUTO 00000KT 9SM -RA SCT026 SCT032 BKN040 07/04 A2973 RMK AO2,M
BAM,2023-03-19 23:35,-116.8743,40.5990,1382.36,41.00,37.40,86.89,230.00,7.00,0.00,29.79,M,10.00,M,SCT,BKN,OVC,M,800.00,1700.00,2500.00,M,M,M,M,M,M,M,M,35.75,KBAM 192335Z AUTO 23007KT 10SM SCT008 BKN017 OVC025 05/03 A2979 RMK AO1,M
TMT,2023-03-19 23:35,-117.1971,39.4643,1749.34,35.40,34.20,95.34,200.00,9.00,0.01,29.78,M,10.00,M,SCT,BKN,OVC,M,800.00,1400.00,2200.00,M,-RA,M,M,M,M,M,M,27.74,KTMT 192335Z AUTO 20009KT 10SM -RA SCT008 BKN014 OVC022 02/01 A2978 RMK AO2 P0001 T00190012,M
LOL,2023-03-19 23:38,-118.5701,40.0684,1192.43,42.00,38.00,84.93,50.00,6.00,T,29.75,M,10.00,M,BKN,OVC,M,M,2700.00,4200.00,M,M,M,M,M,M,M,M,M,37.69,KLOL 192338Z AUTO 05006KT 10SM BKN027 OVC042 06/03 A2975 RMK AO2 RAE2259 P0000 T00560033,M
WMC,2023-03-19 23:43,-117.8072,40.9019,1315.00,40.00,37.00,89.27,160.00,8.00,0.03,29.76,M,7.00,M,FEW,BKN,OVC,M,1000.00,1300.00,2500.00,M,-RA,M,M,M,M,M,M,33.84,KWMC 192343Z AUTO 16008KT 7SM -RA FEW010 BKN013 OVC025 04/03 A2976 RMK AO2 P0003 T00440028 $,M
EKO,2023-03-19 23:48,-115.7860,40.8242,1367.00,37.00,32.00,81.93,180.00,13.00,T,29.78,M,9.00,21.00,BKN,OVC,M,M,2400.00,3300.00,M,M,-RA,M,M,M,M,M,M,27.97,KEKO 192348Z AUTO 18013G21KT 9SM -RA BKN024 OVC033 03/00 A2978 RMK AO2 RAE2259B33 P0000 T00280000,M
P68,2023-03-19 23:53,-116.0056,39.6014,1993.00,35.00,30.90,84.49,210.00,4.00,0.00,29.78,1007.70,M,M,M,M,M,M,M,M,M,M,M,M,M,M,M,M,M,31.04,KP68 192353Z AUTO 21004KT 02/M01 A2978 RMK AO1 SLP077 T00171006 10061 20017 56016,M
DRA,2023-03-19 23:53,-116.0278,36.6206,1009.00,49.00,37.00,63.34,140.00,7.00,0.00,29.86,1009.60,10.00,M,OVC,M,M,M,4200.00,M,M,M,M,M,M,M,M,M,M,45.38,KDRA 192353Z AUTO 14007KT 10SM OVC042 09/03 A2986 RMK AO2 SLP096 60000 T00940028 10111 20089 58021,M
ELY,2023-03-19 23:53,-114.8453,39.2950,1909.00,33.00,28.00,81.30,170.00,16.00,T,29.82,1010.30,5.00,28.00,FEW,BKN,OVC,M,1600.00,3700.00,4700.00,M,-SN,M,M,M,28.00,160.00,2023-03-19 23:48,21.85,KELY 192353Z AUTO 17016G28KT 5SM -SN FEW016 BKN037 OVC047 01/M02 A2982 RMK AO2 PK WND 16028/2348 SLP103 P0000 60001 T00061022 10033 20000 56021 $,M
VGT,2023-03-19 23:53,-115.1933,36.2111,667.00,53.00,41.00,63.38,70.00,5.00,0.01,29.91,1014.40,10.00,M,SCT,OVC,M,M,6000.00,8000.00,M,M,-RA,M,M,M,M,M,M,53.10,KVGT 192353Z 07005KT 10SM -RA SCT060 OVC080 12/05 A2991 RMK AO2 SLP144 P0001 60001 T01170050 10156 20117 58014,M
LOL,2023-03-19 23:53,-118.5701,40.0684,1192.43,42.00,38.00,84.93,30.00,5.00,T,29.75,1007.90,10.00,M,OVC,M,M,M,2500.00,M,M,M,M,M,M,M,M,M,M,38.39,KLOL 192353Z AUTO 03005KT 10SM OVC025 06/03 A2975 RMK AO2 RAE2259 SLP079 P0000 60003 T00560033 10089 20050 56007,M
BVU,2023-03-19 23:55,-114.8611,35.9475,671.00,57.20,35.60,44.19,180.00,5.00,0.00,29.91,M,10.00,M,FEW,OVC,M,M,4300.00,6000.00,M,M,M,M,M,M,M,M,M,57.20,KBVU 192355Z AUTO 18005KT 10SM FEW043 OVC060 14/02 A2991 RMK AO2,M
CXP,2023-03-19 23:55,-119.7326,39.1923,1431.00,44.60,39.20,81.20,0.00,0.00,0.00,29.75,M,6.00,M,FEW,SCT,SCT,M,2500.00,3000.00,3600.00,M,-RA HZ,M,M,M,M,M,M,44.60,KCXP 192355Z AUTO 00000KT 6SM -RA HZ FEW025 SCT030 SCT036 07/04 A2975 RMK AO2,M
RTS,2023-03-19 23:55,-119.8764,39.6682,1539.00,42.80,35.60,75.50,140.00,6.00,0.00,29.74,M,10.00,M,FEW,SCT,BKN,M,2300.00,2900.00,5000.00,M,M,M,M,M,M,M,M,38.54,KRTS 192355Z AUTO 14006KT 10SM FEW023 SCT029 BKN050 06/02 A2974 RMK AO2,M
05U,2023-03-19 23:55,-116.0051,39.6042,1811.23,M,M,M,M,3.00,0.00,29.81,M,1.75,M,CLR,M,M,M,M,M,M,M,BR,M,M,M,M,M,M,M,K05U 192355Z AUTO VRB03KT 1 3/4SM BR CLR A2981 RMK A01,M
MEV,2023-03-19 23:55,-119.7500,38.9963,1441.42,46.40,39.20,75.84,0.00,0.00,0.01,29.73,M,8.00,M,FEW,SCT,SCT,M,3900.00,4400.00,5000.00,M,-RA,M,M,M,M,M,M,46.40,KMEV 192355Z AUTO 00000KT 8SM -RA FEW039 SCT044 SCT050 08/04 A2973 RMK AO2 P0001,M
BAM,2023-03-19 23:55,-116.8743,40.5990,1382.36,39.20,37.40,93.19,230.00,7.00,0.00,29.79,M,10.00,M,SCT,BKN,OVC,M,800.00,1300.00,1700.00,M,M,M,M,M,M,M,M,33.56,KBAM 192355Z AUTO 23007KT 10SM SCT008 BKN013 OVC017 04/03 A2979 RMK AO1,M
HTH,2023-03-19 23:55,-118.6315,38.5448,1282.89,53.60,30.20,40.54,190.00,15.00,0.00,29.71,M,10.00,20.00,SCT,SCT,M,M,6000.00,7500.00,M,M,M,M,M,M,M,M,M,53.60,KHTH 192355Z AUTO 19015G20KT 10SM SCT060 SCT075 12/M01 A2971 RMK A01,M
TMT,2023-03-19 23:55,-117.1971,39.4643,1749.34,37.20,35.60,93.87,190.00,7.00,0.01,29.77,M,10.00,M,BKN,BKN,OVC,M,800.00,1400.00,5000.00,M,M,M,M,M,M,M,M,31.12,KTMT 192355Z AUTO 19007KT 10SM BKN008 BKN014 OVC050 03/02 A2977 RMK AO2 P0001 60005 T00290020 10056 20000,M
INS,2023-03-19 23:55,-115.6733,36.5872,955.00,48.20,38.50,68.96,110.00,14.00,T,29.86,1010.10,10.00,18.00,BKN,BKN,OVC,M,3900.00,4800.00,7000.00,M,M,M,M,M,M,M,M,42.04,KINS 192355Z AUTO 11014G18KT 10SM BKN039 BKN048 OVC070 09/04 A2986 RMK AO2 RAE04DZB04E12RAB12E22 SLP101 P0000 60001 T00900036 10125 20089 57023 $,M
LSV,2023-03-19 23:55,-115.0343,36.2362,570.00,52.70,40.80,63.82,40.00,4.00,T,29.90,1012.10,10.00,M,FEW,M,M,M,2900.00,M,M,M,-RA,M,M,M,M,M,M,52.70,KLSV 192355Z AUTO 04004KT 10SM -RA FEW029 12/05 A2990 RMK AO2 DZB07E15RAB15E16RAB31 SLP121 P0000 60000 T01150049 10168 20112 58011 $,M
RNO,2023-03-19 23:55,-119.7711,39.4839,1341.00,48.00,38.00,67.87,0.00,0.00,T,29.73,1005.30,10.00,M,SCT,BKN,BKN,BKN,1800.00,3500.00,5000.00,13000.00,M,M,M,M,M,M,M,48.00,KRNO 192355Z 00000KT 10SM SCT018 BKN035 BKN050 BKN130 09/03 A2973 RMK AO2 RAE43 SLP053 P0000 60003 T00890033 10089 20056 56008,M
EKO,2023-03-19 23:56,-115.7860,40.8242,1367.00,37.00,32.00,81.93,180.00,12.00,T,29.78,1009.70,8.00,23.00,BKN,OVC,M,M,2400.00,3300.00,M,M,-RA,M,M,M,M,M,M,28.37,KEKO 192356Z AUTO 18012G23KT 8SM -RA BKN024 OVC033 03/00 A2978 RMK AO2 RAE2259B33 SLP097 P0000 60000 T00280000 10078 20028 58003,M
WMC,2023-03-19 23:56,-117.8072,40.9019,1315.00,40.00,36.00,85.81,160.00,10.00,0.04,29.75,1007.40,8.00,M,BKN,OVC,M,M,1300.00,1900.00,M,M,-RA,M,M,M,M,M,M,32.87,KWMC 192356Z AUTO 16010KT 8SM -RA BKN013 OVC019 04/02 A2975 RMK AO2 SLP074 P0004 60005 T00440022 10100 20044 58006,M
TPH,2023-03-19 23:56,-117.0904,38.0505,1654.00,38.00,34.00,85.69,170.00,14.00,0.00,29.82,1009.30,10.00,M,OVC,M,M,M,1800.00,M,M,M,M,M,M,M,M,M,M,28.77,KTPH 192356Z AUTO 17014KT 10SM OVC018 03/01 A2982 RMK AO2 SLP093 60001 T00330011 10039 20011 56015,M
NFL,2023-03-19 23:56,-118.7010,39.4166,1199.00,47.00,40.00,76.48,200.00,7.00,0.04,29.73,1004.80,10.00,M,BKN,BKN,OVC,M,3400.00,4900.00,9000.00,M,-RA,M,M,M,M,M,M,42.94,KNFL 192356Z AUTO 20007KT 10SM -RA BKN034 BKN049 OVC090 08/04 A2973 RMK AO2 SLP048 P0004 60006 T00830044 10117 20067 55006,M
HND,2023-03-19 23:56,-115.1344,35.9729,742.79,53.00,40.00,60.73,0.00,0.00,T,29.93,1015.10,10.00,M,BKN,OVC,M,M,5000.00,6000.00,M,M,-RA,M,M,M,M,M,M,53.10,KHND 192356Z 00000KT 10SM -RA BKN050 OVC060 12/04 A2993 RMK AO2 RAB31 SLP151 P0000 60000 T01170044 10150 20117 56013,M
LAS,2023-03-19 23:56,-115.1634,36.0719,663.00,53.00,40.00,60.73,90.00,3.00,T,29.91,1012.50,10.00,M,FEW,BKN,BKN,M,3000.00,5000.00,10000.00,M,M,M,M,M,M,M,M,53.10,KLAS 192356Z 09003KT 10SM FEW030 BKN050 BKN100 12/04 A2991 RMK AO2 RAB40E53 SLP125 P0000 60000 T01170044 10156 20117 56013,M
