station,valid,lon,lat,elevation,tmpf,dwpf,relh,drct,sknt,p01i,alti,mslp,vsby,gust,skyc1,skyc2,skyc3,skyc4,skyl1,skyl2,skyl3,skyl4,wxcodes,ice_accretion_1hr,ice_accretion_3hr,ice_accretion_6hr,peak_wind_gust,peak_wind_drct,peak_wind_time,feel,metar,snowdepth
10U,2023-10-02 00:00,-116.1876,41.9532,1637.00,42.80,41.00,93.30,320.00,4.00,0.00,30.00,M,10.00,M,BKN,OVC,M,M,1300.00,1900.00,M,M,M,M,M,M,M,M,M,40.03,K10U 020000Z AUTO 32004KT 10SM BKN013 OVC019 06/05 A3000 RMK AO2,M
05U,2023-10-02 00:10,-116.0051,39.6042,1811.23,46.40,39.20,75.84,50.00,11.00,0.00,29.97,M,10.00,M,BKN,M,M,M,4000.00,M,M,M,M,M,M,M,M,M,M,40.66,K05U 020010Z AUTO 05011KT 10SM BKN040 08/04 A2997 RMK A01,M
BVU,2023-10-02 00:15,-114.8611,35.9475,671.00,73.40,33.80,23.39,170.00,10.00,0.00,29.80,M,10.00,16.00,CLR,M,M,M,M,M,M,M,M,M,M,M,M,M,M,73.40,KBVU 020015Z AUTO 17010G16KT 10SM CLR 23/01 A2980 RMK AO2,M
CXP,2023-10-02 00:15,-119.7326,39.1923,1431.00,51.80,37.40,57.77,50.00,5.00,0.00,30.01,M,10.00,11.00,OVC,M,M,M,3900.00,M,M,M,M,M,M,M,M,M,M,51.80,KCXP 020015Z AUTO 05005G11KT 10SM OVC039 11/03 A3001 RMK AO2,M
RTS,2023-10-02 00:15,-119.8764,39.6682,1539.00,48.20,33.80,57.26,360.00,10.00,0.00,30.03,M,10.00,M,OVC,M,M,M,3900.00,M,M,M,M,M,M,M,M,M,M,43.28,KRTS 020015Z AUTO 36010KT 10SM OVC039 09/01 A3003 RMK AO2,M
MEV,2023-10-02 00:15,-119.7500,38.9963,1441.42,51.80,37.40,57.77,350.00,10.00,0.00,29.99,M,10.00,M,OVC,M,M,M,3700.00,M,M,M,M,M,M,M,M,M,M,51.80,KMEV 020015Z AUTO 35010KT 10SM OVC037 11/03 A2999 RMK AO2,M
BAM,2023-10-02 00:15,-116.8743,40.5990,1382.36,50.00,44.60,81.61,330.00,8.00,0.00,29.99,M,7.00,M,OVC,M,M,M,3500.00,M,M,M,M,M,M,M,M,M,M,50.00,KBAM 020015Z AUTO 33008KT 7SM OVC035 10/07 A2999 RMK AO1,M
HTH,2023-10-02 00:15,-118.6315,38.5448,1282.89,50.00,42.80,76.18,300.00,7.00,0.00,30.00,M,10.00,M,BKN,BKN,OVC,M,2700.00,3200.00,4300.00,M,M,M,M,M,M,M,M,50.00,KHTH 020015Z AUTO 30007KT 10SM BKN027 BKN032 OVC043 10/06 A3000 RMK A01,M
TMT,2023-10-02 00:15,-117.1971,39.4643,1749.34,44.00,40.50,87.40,310.00,3.00,0.01,29.99,M,10.00,M,BKN,OVC,M,M,4000.00,4600.00,M,M,RA,M,M,M,M,M,M,42.41,KTMT 020015Z AUTO 31003KT 10SM RA BKN040 OVC046 07/05 A2999 RMK AO2 P0001 T00660047,M
10U,2023-10-02 00:20,-116.1876,41.9532,1637.00,42.80,41.00,93.30,310.00,3.00,0.00,30.00,M,9.00,M,BKN,OVC,M,M,1100.00,1800.00,M,M,-RA,M,M,M,M,M,M,41.03,K10U 020020Z AUTO 31003KT 9SM -RA BKN011 OVC018 06/05 A3000 RMK AO2,M
05U,2023-10-02 00:30,-116.0051,39.6042,1811.23,46.40,39.20,75.84,50.00,9.00,0.00,29.98,M,10.00,M,FEW,M,M,M,4000.00,M,M,M,M,M,M,M,M,M,M,41.42,K05U 020030Z AUTO 05009KT 10SM FEW040 08/04 A2998 RMK A01,M
BVU,2023-10-02 00:35,-114.8611,35.9475,671.00,71.60,33.80,24.86,150.00,12.00,0.00,29.80,M,10.00,M,CLR,M,M,M,M,M,M,M,M,M,M,M,M,M,M,71.60,KBVU 020035Z AUTO 15012KT 10SM CLR 22/01 A2980 RMK AO2,M
CXP,2023-10-02 00:35,-119.7326,39.1923,1431.00,51.80,35.60,53.81,10.00,6.00,0.00,30.02,M,10.00,M,OVC,M,M,M,4000.00,M,M,M,M,M,M,M,M,M,M,51.80,KCXP 020035Z AUTO 01006KT 10SM OVC040 11/02 A3002 RMK AO2,M
RTS,2023-10-02 00:35,-119.8764,39.6682,1539.00,48.20,33.80,57.26,360.00,11.00,0.00,30.03,M,10.00,M,OVC,M,M,M,3900.00,M,M,M,M,M,M,M,M,M,M,42.94,KRTS 020035Z AUTO 36011KT 10SM OVC039 09/01 A3003 RMK AO2,M
MEV,2023-10-02 00:35,-119.7500,38.9963,1441.42,51.80,37.40,57.77,360.00,9.00,0.00,29.99,M,10.00,M,OVC,M,M,M,3600.00,M,M,M,M,M,M,M,M,M,M,51.80,KMEV 020035Z AUTO 36009KT 10SM OVC036 11/03 A2999 RMK AO2,M
BAM,2023-10-02 00:35,-116.8743,40.5990,1382.36,50.00,44.60,81.61,330.00,8.00,0.00,30.00,M,5.00,M,OVC,M,M,M,3500.00,M,M,M,M,M,M,M,M,M,M,50.00,KBAM 020035Z AUTO 33008KT 5SM OVC035 10/07 A3000 RMK AO1,M
HTH,2023-10-02 00:35,-118.6315,38.5448,1282.89,50.00,42.80,76.18,320.00,7.00,0.00,30.00,M,10.00,M,BKN,OVC,M,M,2600.00,3400.00,M,M,M,M,M,M,M,M,M,50.00,KHTH 020035Z AUTO 32007KT 10SM BKN026 OVC034 10/06 A3000 RMK A01,M
TMT,2023-10-02 00:35,-117.1971,39.4643,1749.34,44.00,41.00,89.11,340.00,7.00,0.01,30.00,M,10.00,M,BKN,BKN,OVC,M,2200.00,2900.00,4600.00,M,-DZ,M,M,M,M,M,M,39.41,KTMT 020035Z AUTO 34007KT 10SM -DZ BKN022 BKN029 OVC046 07/05 A3000 RMK AO2 P0001 T00660049,M
10U,2023-10-02 00:40,-116.1876,41.9532,1637.00,42.80,41.00,93.30,320.00,6.00,0.00,30.01,M,5.00,M,SCT,BKN,OVC,M,600.00,1100.00,1900.00,M,-RA,M,M,M,M,M,M,38.54,K10U 020040Z AUTO 32006KT 5SM -RA SCT006 BKN011 OVC019 06/05 A3001 RMK AO2,M
WMC,2023-10-02 00:43,-117.8072,40.9019,1315.00,48.00,40.00,73.67,360.00,9.00,0.00,30.01,M,10.00,M,OVC,M,M,M,3000.00,M,M,M,M,M,M,M,M,M,M,43.41,KWMC 020043Z AUTO 36009KT 10SM OVC030 09/04 A3001 RMK AO2 T00890044,M
05U,2023-10-02 00:50,-116.0051,39.6042,1811.23,46.40,39.20,75.84,40.00,6.00,0.00,29.99,M,10.00,M,BKN,BKN,M,M,3300.00,10000.00,M,M,M,M,M,M,M,M,M,42.87,K05U 020050Z AUTO 04006KT 10SM BKN033 BKN100 08/04 A2999 RMK A01,M
P68,2023-10-02 00:53,-116.0056,39.6014,1993.00,47.00,39.00,73.57,250.00,8.00,0.00,29.97,1011.80,M,M,M,M,M,M,M,M,M,M,M,M,M,M,M,M,M,42.59,KP68 020053Z AUTO 25008KT 08/04 A2997 RMK AO1 SLP118 T00830039,M
DRA,2023-10-02 00:53,-116.0278,36.6206,1009.00,66.00,30.00,25.85,260.00,8.00,0.00,29.86,1008.30,10.00,M,CLR,M,M,M,M,M,M,M,M,M,M,M,M,M,M,66.00,KDRA 020053Z AUTO 26008KT 10SM CLR 19/M01 A2986 RMK AO2 SLP083 T01891011 $,M
ELY,2023-10-02 00:53,-114.8453,39.2950,1909.00,49.00,35.00,58.30,170.00,12.00,0.00,29.97,1010.90,10.00,22.00,SCT,BKN,OVC,M,4700.00,6000.00,9000.00,M,M,M,M,M,M,M,M,43.64,KELY 020053Z AUTO 17012G22KT 10SM SCT047 BKN060 OVC090 09/02 A2997 RMK AO2 SLP109 T00940017,M
VGT,2023-10-02 00:53,-115.1933,36.2111,667.00,73.00,39.00,29.12,30.00,4.00,0.00,29.80,1009.50,10.00,M,SCT,M,M,M,9500.00,M,M,M,M,M,M,M,M,M,M,73.00,KVGT 020053Z 03004KT 10SM SCT095 23/04 A2980 RMK AO2 SLP095 T02280039,M
LOL,2023-10-02 00:53,-118.5701,40.0684,1192.43,50.00,42.00,73.87,0.00,0.00,0.00,30.00,1015.20,10.00,M,OVC,M,M,M,3700.00,M,M,M,M,M,M,M,M,M,M,50.00,KLOL 020053Z AUTO 00000KT 10SM OVC037 10/06 A3000 RMK AO2 SLP152 T01000056 $,M
BVU,2023-10-02 00:55,-114.8611,35.9475,671.00,71.60,33.80,24.86,150.00,9.00,0.00,29.80,M,10.00,15.00,CLR,M,M,M,M,M,M,M,M,M,M,M,M,M,M,71.60,KBVU 020055Z AUTO 15009G15KT 10SM CLR 22/01 A2980 RMK AO2,M
CXP,2023-10-02 00:55,-119.7326,39.1923,1431.00,51.80,37.40,57.77,0.00,0.00,0.00,30.02,M,10.00,M,OVC,M,M,M,4200.00,M,M,M,M,M,M,M,M,M,M,51.80,KCXP 020055Z AUTO 00000KT 10SM OVC042 11/03 A3002 RMK AO2,M
INS,2023-10-02 00:55,-115.6733,36.5872,955.00,67.30,33.00,27.89,80.00,13.00,0.00,29.84,1007.50,10.00,M,CLR,M,M,M,M,M,M,M,M,M,M,M,M,M,M,67.30,KINS 020055Z AUTO 08013KT 10SM CLR 20/01 A2984 RMK AO2 SLP075 T01960006 $,M
RNO,2023-10-02 00:55,-119.7711,39.4839,1341.00,52.00,36.00,54.26,30.00,7.00,0.00,30.02,1014.40,10.00,M,OVC,M,M,M,4500.00,M,M,M,M,M,M,M,M,M,M,52.00,KRNO 020055Z 03007KT 10SM OVC045 11/02 A3002 RMK AO2 SLP144 T01110022 $,M
LSV,2023-10-02 00:55,-115.0343,36.2362,570.00,73.40,37.40,26.98,20.00,3.00,0.00,29.77,1006.70,10.00,M,FEW,M,M,M,11000.00,M,M,M,M,M,M,M,M,M,M,73.40,KLSV 020055Z AUTO 02003KT 10SM FEW110 23/03 A2977 RMK AO2 SLP067 T02300030 $,M
RTS,2023-10-02 00:55,-119.8764,39.6682,1539.00,48.20,33.80,57.26,350.00,10.00,0.00,30.04,M,10.00,M,OVC,M,M,M,3700.00,M,M,M,M,M,M,M,M,M,M,43.28,KRTS 020055Z AUTO 35010KT 10SM OVC037 09/01 A3004 RMK AO2,M
MEV,2023-10-02 00:55,-119.7500,38.9963,1441.42,51.80,37.40,57.77,360.00,11.00,0.00,30.00,M,10.00,M,OVC,M,M,M,4000.00,M,M,M,M,M,M,M,M,M,M,51.80,KMEV 020055Z AUTO 36011KT 10SM OVC040 11/03 A3000 RMK AO2,M
BAM,2023-10-02 00:55,-116.8743,40.5990,1382.36,50.00,42.80,76.18,330.00,7.00,0.00,30.00,M,10.00,M,OVC,M,M,M,3500.00,M,M,M,M,M,M,M,M,M,M,50.00,KBAM 020055Z AUTO 33007KT 10SM OVC035 10/06 A3000 RMK AO1,M
HTH,2023-10-02 00:55,-118.6315,38.5448,1282.89,50.00,42.80,76.18,320.00,7.00,0.00,30.00,M,10.00,M,SCT,OVC,M,M,2700.00,3700.00,M,M,M,M,M,M,M,M,M,50.00,KHTH 020055Z AUTO 32007KT 10SM SCT027 OVC037 10/06 A3000 RMK A01,M
TMT,2023-10-02 00:55,-117.1971,39.4643,1749.34,43.30,41.00,91.52,20.00,5.00,0.01,30.01,M,10.00,M,OVC,M,M,M,2400.00,M,M,M,DZ,M,M,M,M,M,M,39.82,KTMT 020055Z AUTO 02005KT 10SM DZ OVC024 06/05 A3001 RMK AO2 P0001 T00630049,M
EKO,2023-10-02 00:56,-115.7860,40.8242,1367.00,52.00,41.00,66.00,260.00,9.00,0.00,29.96,1012.90,10.00,M,FEW,BKN,OVC,M,2500.00,6000.00,11000.00,M,M,M,M,M,M,M,M,52.00,KEKO 020056Z AUTO 26009KT 10SM FEW025 BKN060 OVC110 11/05 A2996 RMK AO2 SLP129 T01110050 $,M
WMC,2023-10-02 00:56,-117.8072,40.9019,1315.00,47.00,40.00,76.49,350.00,8.00,0.00,30.01,1015.40,10.00,M,OVC,M,M,M,3000.00,M,M,M,M,M,M,M,M,M,M,42.59,KWMC 020056Z AUTO 35008KT 10SM OVC030 08/04 A3001 RMK AO2 SLP154 T00830044,M
HND,2023-10-02 00:56,-115.1344,35.9729,742.79,71.00,39.00,31.16,40.00,6.00,0.00,29.83,1010.30,10.00,M,OVC,M,M,M,8500.00,M,M,M,M,M,M,M,M,M,M,71.00,KHND 020056Z 04006KT 10SM OVC085 22/04 A2983 RMK AO2 SLP103 T02170039,M
TPH,2023-10-02 00:56,-117.0904,38.0505,1654.00,47.00,43.00,85.89,200.00,10.00,0.00,29.98,1013.10,10.00,M,SCT,BKN,OVC,M,3000.00,4000.00,7500.00,M,M,M,M,M,M,M,M,41.78,KTPH 020056Z AUTO 20010KT 10SM SCT030 BKN040 OVC075 08/06 A2998 RMK AO2 SLP131 T00830061,M
LAS,2023-10-02 00:56,-115.1634,36.0719,663.00,72.00,38.00,28.96,10.00,6.00,0.00,29.80,1007.70,10.00,M,FEW,BKN,BKN,M,6000.00,9000.00,18000.00,M,M,M,M,M,M,M,M,72.00,KLAS 020056Z 01006KT 10SM FEW060 BKN090 BKN180 22/03 A2980 RMK AO2 SLP077 CB DSNT S SH DSNT S AND W T02220033,M
NFL,2023-10-02 00:56,-118.7010,39.4166,1199.00,51.00,43.00,73.97,30.00,6.00,0.00,30.00,1012.90,10.00,M,FEW,BKN,OVC,M,2500.00,3800.00,5000.00,M,M,M,M,M,M,M,M,51.00,KNFL 020056Z 03006KT 10SM FEW025 BKN038 OVC050 11/06 A3000 RMK AO2 SLP129 T01060061,M
10U,2023-10-02 01:00,-116.1876,41.9532,1637.00,41.00,39.20,93.24,310.00,8.00,0.00,30.02,M,5.00,M,OVC,M,M,M,900.00,M,M,M,-RA,M,M,M,M,M,M,35.20,K10U 020100Z AUTO 31008KT 5SM -RA OVC009 05/04 A3002 RMK AO2,M
WMC,2023-10-02 01:06,-117.8072,40.9019,1315.00,47.00,40.00,76.49,350.00,12.00,0.00,30.01,M,10.00,M,BKN,OVC,M,M,2600.00,3100.00,M,M,M,M,M,M,M,M,M,41.09,KWMC 020106Z AUTO 35012KT 10SM BKN026 OVC031 08/04 A3001 RMK AO2 T00830044,M
05U,2023-10-02 01:10,-116.0051,39.6042,1811.23,46.40,41.00,81.34,200.00,10.00,0.00,30.00,M,10.00,M,SCT,OVC,M,M,2500.00,3200.00,M,M,M,M,M,M,M,M,M,41.03,K05U 020110Z AUTO 20010KT 10SM SCT025 OVC032 08/05 A3000 RMK A01,M
BVU,2023-10-02 01:15,-114.8611,35.9475,671.00,71.60,33.80,24.86,150.00,9.00,0.00,29.80,M,10.00,M,CLR,M,M,M,M,M,M,M,M,M,M,M,M,M,M,71.60,KBVU 020115Z AUTO 15009KT 10SM CLR 22/01 A2980 RMK AO2 LTG DSNT W,M
CXP,2023-10-02 01:15,-119.7326,39.1923,1431.00,51.80,37.40,57.77,50.00,5.00,0.00,30.03,M,10.00,M,OVC,M,M,M,4100.00,M,M,M,M,M,M,M,M,M,M,51.80,KCXP 020115Z AUTO 05005KT 10SM OVC041 11/03 A3003 RMK AO2,M
RTS,2023-10-02 01:15,-119.8764,39.6682,1539.00,48.20,33.80,57.26,340.00,8.00,0.00,30.03,M,10.00,M,OVC,M,M,M,3400.00,M,M,M,M,M,M,M,M,M,M,44.07,KRTS 020115Z AUTO 34008KT 10SM OVC034 09/01 A3003 RMK AO2,M
MEV,2023-10-02 01:15,-119.7500,38.9963,1441.42,51.80,37.40,57.77,360.00,11.00,0.00,30.01,M,10.00,M,OVC,M,M,M,4000.00,M,M,M,M,M,M,M,M,M,M,51.80,KMEV 020115Z AUTO 36011KT 10SM OVC040 11/03 A3001 RMK AO2,M
BAM,2023-10-02 01:15,-116.8743,40.5990,1382.36,50.00,44.60,81.61,330.00,8.00,0.00,30.00,M,10.00,M,OVC,M,M,M,3500.00,M,M,M,M,M,M,M,M,M,M,50.00,KBAM 020115Z AUTO 33008KT 10SM OVC035 10/07 A3000 RMK AO1,M
HTH,2023-10-02 01:15,-118.6315,38.5448,1282.89,50.00,42.80,76.18,330.00,9.00,0.00,30.01,M,10.00,M,OVC,M,M,M,3700.00,M,M,M,M,M,M,M,M,M,M,50.00,KHTH 020115Z AUTO 33009KT 10SM OVC037 10/06 A3001 RMK A01,M
TMT,2023-10-02 01:15,-117.1971,39.4643,1749.34,43.00,41.00,92.58,340.00,4.00,0.00,30.01,M,10.00,M,OVC,M,M,M,2400.00,M,M,M,-DZ,M,M,M,M,M,M,40.27,KTMT 020115Z AUTO 34004KT 10SM -DZ OVC024 06/05 A3001 RMK AO2 T00620049,M
10U,2023-10-02 01:20,-116.1876,41.9532,1637.00,39.20,37.40,93.19,M,M,0.00,30.03,M,7.00,M,FEW,OVC,M,M,900.00,1500.00,M,M,-RA,M,M,M,M,M,M,M,K10U 020120Z AUTO 6/25000006KT 7SM -RA FEW009 OVC015 04/03 A3003 RMK AO2,M
HND,2023-10-02 01:21,-115.1344,35.9729,742.79,69.80,41.00,35.09,300.00,10.00,0.00,29.83,M,10.00,M,OVC,M,M,M,8000.00,M,M,M,VCTS,M,M,M,M,M,M,69.80,KHND 020121Z 30010KT 10SM VCTS OVC080 21/05 A2983 RMK AO2 LTG DSNT S AND SW TSB15,M
VGT,2023-10-02 01:28,-115.1933,36.2111,667.00,73.00,39.00,29.12,350.00,6.00,0.00,29.80,M,10.00,M,BKN,BKN,M,M,10000.00,12000.00,M,M,VCTS,M,M,M,M,M,M,73.00,KVGT 020128Z 35006KT 10SM VCTS BKN100 BKN120 23/04 A2980 RMK AO2 LTG DSNT S T02280039,M
LAS,2023-10-02 01:28,-115.1634,36.0719,663.00,72.00,39.00,30.12,340.00,6.00,0.00,29.80,M,10.00,M,FEW,BKN,BKN,M,5000.00,9000.00,18000.00,M,TS,M,M,M,M,M,M,72.00,KLAS 020128Z 34006KT 10SM TS FEW050 BKN090CB BKN180 22/04 A2980 RMK AO2 LTG DSNT S AND SW TSB22 OCNL LTGICCC S TS S MOV N T02220039,M
05U,2023-10-02 01:30,-116.0051,39.6042,1811.23,46.40,41.00,81.34,170.00,10.00,0.00,30.01,M,10.00,M,OVC,M,M,M,2700.00,M,M,M,M,M,M,M,M,M,M,41.03,K05U 020130Z AUTO 17010KT 10SM OVC027 08/05 A3001 RMK A01,M
BVU,2023-10-02 01:35,-114.8611,35.9475,671.00,69.80,33.80,26.43,160.00,7.00,0.00,29.81,M,10.00,M,CLR,M,M,M,M,M,M,M,M,M,M,M,M,M,M,69.80,KBVU 020135Z AUTO 16007KT 10SM CLR 21/01 A2981 RMK AO2 LTG DSNT SW AND W,M
CXP,2023-10-02 01:35,-119.7326,39.1923,1431.00,50.00,37.40,61.76,70.00,9.00,0.00,30.03,M,10.00,M,OVC,M,M,M,3700.00,M,M,M,M,M,M,M,M,M,M,50.00,KCXP 020135Z AUTO 07009KT 10SM OVC037 10/03 A3003 RMK AO2,M
RTS,2023-10-02 01:35,-119.8764,39.6682,1539.00,48.20,33.80,57.26,340.00,9.00,0.00,30.04,M,10.00,M,OVC,M,M,M,3400.00,M,M,M,M,M,M,M,M,M,M,43.66,KRTS 020135Z AUTO 34009KT 10SM OVC034 09/01 A3004 RMK AO2,M
MEV,2023-10-02 01:35,-119.7500,38.9963,1441.42,51.80,37.40,57.77,360.00,8.00,0.00,30.01,M,10.00,M,OVC,M,M,M,4100.00,M,M,M,M,M,M,M,M,M,M,51.80,KMEV 020135Z AUTO 36008KT 10SM OVC041 11/03 A3001 RMK AO2,M
BAM,2023-10-02 01:35,-116.8743,40.5990,1382.36,48.20,44.60,87.28,340.00,9.00,0.00,30.00,M,10.00,M,OVC,M,M,M,3500.00,M,M,M,M,M,M,M,M,M,M,43.66,KBAM 020135Z AUTO 34009KT 10SM OVC035 09/07 A3000 RMK AO1,M
HTH,2023-10-02 01:35,-118.6315,38.5448,1282.89,50.00,41.00,71.07,330.00,8.00,0.00,30.02,M,10.00,M,OVC,M,M,M,3700.00,M,M,M,M,M,M,M,M,M,M,50.00,KHTH 020135Z AUTO 33008KT 10SM OVC037 10/05 A3002 RMK A01,M
TMT,2023-10-02 01:35,-117.1971,39.4643,1749.34,42.60,39.60,89.04,350.00,6.00,0.00,30.02,M,10.00,M,OVC,M,M,M,2600.00,M,M,M,-DZ,M,M,M,M,M,M,38.30,KTMT 020135Z AUTO 35006KT 10SM -DZ OVC026 06/04 A3002 RMK AO2 T00590042,M
10U,2023-10-02 01:40,-116.1876,41.9532,1637.00,39.20,37.40,93.19,310.00,6.00,0.00,30.03,M,7.00,M,OVC,M,M,M,1600.00,M,M,M,-RA,M,M,M,M,M,M,34.20,K10U 020140Z AUTO 31006KT 7SM -RA OVC016 04/03 A3003 RMK AO2,M
VGT,2023-10-02 01:43,-115.1933,36.2111,667.00,73.00,39.00,29.12,360.00,7.00,0.00,29.80,M,10.00,M,BKN,OVC,M,M,10000.00,11000.00,M,M,M,M,M,M,M,M,M,73.00,KVGT 020143Z 36007KT 10SM BKN100 OVC110 23/04 A2980 RMK AO2 LTG DSNT S T02280039,M
05U,2023-10-02 01:50,-116.0051,39.6042,1811.23,46.40,41.00,81.34,210.00,5.00,0.00,30.01,M,10.00,11.00,FEW,BKN,OVC,M,1900.00,2400.00,2900.00,M,M,M,M,M,M,M,M,43.50,K05U 020150Z AUTO 21005G11KT 10SM FEW019 BKN024 OVC029 08/05 A3001 RMK A01,M
P68,2023-10-02 01:53,-116.0056,39.6014,1993.00,45.00,41.00,85.77,40.00,5.00,0.00,29.99,1012.70,M,M,M,M,M,M,M,M,M,M,M,M,M,M,M,M,M,41.83,KP68 020153Z AUTO 04005KT 07/05 A2999 RMK AO1 SLP127 T00720050,M
DRA,2023-10-02 01:53,-116.0278,36.6206,1009.00,62.00,30.00,29.73,260.00,6.00,0.00,29.87,1008.80,10.00,M,CLR,M,M,M,M,M,M,M,M,M,M,M,M,M,M,62.00,KDRA 020153Z AUTO 26006KT 10SM CLR 17/M01 A2987 RMK AO2 SLP088 T01671011 $,M
ELY,2023-10-02 01:53,-114.8453,39.2950,1909.00,46.00,34.00,62.71,180.00,4.00,0.00,29.99,1012.20,10.00,14.00,OVC,M,M,M,7000.00,M,M,M,M,M,M,M,M,M,M,43.77,KELY 020153Z AUTO 18004G14KT 10SM OVC070 08/01 A2999 RMK AO2 SLP122 T00780011,M
VGT,2023-10-02 01:53,-115.1933,36.2111,667.00,73.00,39.00,29.12,20.00,5.00,0.00,29.80,1009.50,10.00,M,BKN,BKN,M,M,10000.00,12000.00,M,M,M,M,M,M,M,M,M,73.00,KVGT 020153Z 02005KT 10SM BKN100 BKN120 23/04 A2980 RMK AO2 LTG DSNT S SLP095 T02280039,M
LOL,2023-10-02 01:53,-118.5701,40.0684,1192.43,50.00,43.00,76.76,60.00,5.00,0.00,30.01,1015.40,10.00,M,OVC,M,M,M,4400.00,M,M,M,M,M,M,M,M,M,M,50.00,KLOL 020153Z AUTO 06005KT 10SM OVC044 10/06 A3001 RMK AO2 SLP154 T01000061 $,M
BVU,2023-10-02 01:55,-114.8611,35.9475,671.00,69.80,33.80,26.43,150.00,8.00,0.00,29.81,M,10.00,M,CLR,M,M,M,M,M,M,M,M,M,M,M,M,M,M,69.80,KBVU 020155Z AUTO 15008KT 10SM CLR 21/01 A2981 RMK AO2,M
CXP,2023-10-02 01:55,-119.7326,39.1923,1431.00,50.00,37.40,61.76,60.00,7.00,0.00,30.04,M,10.00,M,OVC,M,M,M,3600.00,M,M,M,M,M,M,M,M,M,M,50.00,KCXP 020155Z AUTO 06007KT 10SM OVC036 10/03 A3004 RMK AO2,M
INS,2023-10-02 01:55,-115.6733,36.5872,955.00,64.80,32.50,29.82,290.00,6.00,0.00,29.85,1008.30,10.00,M,CLR,M,M,M,M,M,M,M,M,M,M,M,M,M,M,64.80,KINS 020155Z AUTO 29006KT 10SM CLR 18/00 A2985 RMK AO2 SLP083 T01820003 $,M
RNO,2023-10-02 01:55,-119.7711,39.4839,1341.00,52.00,36.00,54.26,360.00,6.00,0.00,30.02,1014.70,10.00,M,OVC,M,M,M,4400.00,M,M,M,M,M,M,M,M,M,M,52.00,KRNO 020155Z 36006KT 10SM OVC044 11/02 A3002 RMK AO2 SLP147 T01110022 $,M
LSV,2023-10-02 01:55,-115.0343,36.2362,570.00,72.30,35.40,25.88,120.00,9.00,0.00,29.77,1006.80,10.00,M,CLR,M,M,M,M,M,M,M,M,M,M,M,M,M,M,72.30,KLSV 020155Z AUTO 12009KT 10SM CLR 22/02 A2977 RMK AO2 SLP068 T02240019 $,M
RTS,2023-10-02 01:55,-119.8764,39.6682,1539.00,48.20,33.80,57.26,340.00,5.00,0.00,30.04,M,10.00,M,OVC,M,M,M,3600.00,M,M,M,M,M,M,M,M,M,M,45.63,KRTS 020155Z AUTO 34005KT 10SM OVC036 09/01 A3004 RMK AO2,M
MEV,2023-10-02 01:55,-119.7500,38.9963,1441.42,50.00,37.40,61.76,350.00,7.00,0.00,30.01,M,10.00,M,OVC,M,M,M,3900.00,M,M,M,M,M,M,M,M,M,M,50.00,KMEV 020155Z AUTO 35007KT 10SM OVC039 10/03 A3001 RMK AO2,M
BAM,2023-10-02 01:55,-116.8743,40.5990,1382.36,48.20,42.80,81.47,330.00,12.00,0.00,30.01,M,10.00,M,OVC,M,M,M,3500.00,M,M,M,M,M,M,M,M,M,M,42.62,KBAM 020155Z AUTO 33012KT 10SM OVC035 09/06 A3001 RMK AO1,M
HTH,2023-10-02 01:55,-118.6315,38.5448,1282.89,50.00,41.00,71.07,320.00,9.00,0.00,30.02,M,10.00,M,OVC,M,M,M,4100.00,M,M,M,M,M,M,M,M,M,M,50.00,KHTH 020155Z AUTO 32009KT 10SM OVC041 10/05 A3002 RMK A01,M
TMT,2023-10-02 01:55,-117.1971,39.4643,1749.34,42.30,40.00,91.49,340.00,4.00,0.00,30.02,M,10.00,M,OVC,M,M,M,2800.00,M,M,M,-DZ,M,M,M,M,M,M,39.45,KTMT 020155Z AUTO 34004KT 10SM -DZ OVC028 06/04 A3002 RMK AO2 T00570044,M
EKO,2023-10-02 01:56,-115.7860,40.8242,1367.00,48.00,41.00,76.58,190.00,3.00,0.00,29.98,1013.90,10.00,M,BKN,BKN,M,M,3700.00,6000.00,M,M,M,M,M,M,M,M,M,46.98,KEKO 020156Z AUTO 19003KT 10SM BKN037 BKN060 09/05 A2998 RMK AO2 SLP139 T00890050 $,M
WMC,2023-10-02 01:56,-117.8072,40.9019,1315.00,45.00,39.00,79.36,340.00,7.00,0.00,30.03,1016.20,10.00,M,SCT,OVC,M,M,2300.00,3700.00,M,M,M,M,M,M,M,M,M,40.63,KWMC 020156Z AUTO 34007KT 10SM SCT023 OVC037 07/04 A3003 RMK AO2 SLP162 T00720039,M
NFL,2023-10-02 01:56,-118.7010,39.4166,1199.00,51.00,43.00,73.97,40.00,4.00,0.00,30.01,1013.30,10.00,M,OVC,M,M,M,4700.00,M,M,M,M,M,M,M,M,M,M,51.00,KNFL 020156Z AUTO 04004KT 10SM OVC047 11/06 A3001 RMK AO2 SLP133 T01060061,M
HND,2023-10-02 01:56,-115.1344,35.9729,742.79,68.00,40.00,35.90,220.00,11.00,0.00,29.85,1011.10,10.00,M,OVC,M,M,M,8000.00,M,M,M,M,M,M,M,M,M,M,68.00,KHND 020156Z 22011KT 10SM OVC080 20/04 A2985 RMK AO2 TSB15E56 SLP111 T02000044,M
TPH,2023-10-02 01:56,-117.0904,38.0505,1654.00,47.00,42.00,82.65,240.00,3.00,0.00,29.99,1013.50,10.00,M,FEW,BKN,BKN,M,6000.00,7000.00,8500.00,M,M,M,M,M,M,M,M,45.84,KTPH 020156Z AUTO 24003KT 10SM FEW060 BKN070 BKN085 08/06 A2999 RMK AO2 SLP135 T00830056,M
LAS,2023-10-02 01:56,-115.1634,36.0719,663.00,63.00,45.00,51.78,240.00,9.00,0.04,29.81,1008.20,7.00,23.00,FEW,BKN,M,M,4500.00,8000.00,M,M,-TSRA,M,M,M,M,M,M,63.00,KLAS 020156Z 24009G23KT 210V280 7SM -TSRA FEW045 BKN080CB 17/07 A2981 RMK AO2 RAB36 TSB22E37B38 SLP082 CONS LTGICCC OHD-S-W TS OHD-S-W MOV N P0004 T01720072,M
10U,2023-10-02 02:00,-116.1876,41.9532,1637.00,39.20,37.40,93.19,320.00,4.00,0.00,30.04,M,10.00,M,OVC,M,M,M,1700.00,M,M,M,-RA,M,M,M,M,M,M,35.83,K10U 020200Z AUTO 32004KT 10SM -RA OVC017 04/03 A3004 RMK AO2,M
05U,2023-10-02 02:10,-116.0051,39.6042,1811.23,44.60,41.00,87.09,210.00,5.00,0.00,30.02,M,10.00,M,SCT,BKN,OVC,M,2400.00,3300.00,5500.00,M,M,M,M,M,M,M,M,41.36,K05U 020210Z AUTO 21005KT 10SM SCT024 BKN033 OVC055 07/05 A3002 RMK A01,M
BVU,2023-10-02 02:15,-114.8611,35.9475,671.00,68.00,33.80,28.11,150.00,5.00,0.00,29.82,M,10.00,M,CLR,M,M,M,M,M,M,M,M,M,M,M,M,M,M,68.00,KBVU 020215Z AUTO 15005KT 10SM CLR 20/01 A2982 RMK AO2,M
CXP,2023-10-02 02:15,-119.7326,39.1923,1431.00,50.00,37.40,61.76,50.00,7.00,0.00,30.04,M,10.00,M,BKN,OVC,M,M,3700.00,4600.00,M,M,M,M,M,M,M,M,M,50.00,KCXP 020215Z AUTO 05007KT 10SM BKN037 OVC046 10/03 A3004 RMK AO2,M
RTS,2023-10-02 02:15,-119.8764,39.6682,1539.00,48.20,33.80,57.26,340.00,6.00,0.00,30.05,M,10.00,M,OVC,M,M,M,3700.00,M,M,M,M,M,M,M,M,M,M,45.04,KRTS 020215Z AUTO 34006KT 10SM OVC037 09/01 A3005 RMK AO2,M
MEV,2023-10-02 02:15,-119.7500,38.9963,1441.42,50.00,37.40,61.76,40.00,6.00,0.00,30.02,M,10.00,M,OVC,M,M,M,3700.00,M,M,M,M,M,M,M,M,M,M,50.00,KMEV 020215Z AUTO 04006KT 10SM OVC037 10/03 A3002 RMK AO2,M
BAM,2023-10-02 02:15,-116.8743,40.5990,1382.36,48.20,42.80,81.47,330.00,9.00,0.00,30.02,M,10.00,M,OVC,M,M,M,3500.00,M,M,M,M,M,M,M,M,M,M,43.66,KBAM 020215Z AUTO 33009KT 10SM OVC035 09/06 A3002 RMK AO1,M
HTH,2023-10-02 02:15,-118.6315,38.5448,1282.89,50.00,41.00,71.07,M,6.00,0.00,30.03,M,10.00,M,OVC,M,M,M,4200.00,M,M,M,M,M,M,M,M,M,M,50.00,KHTH 020215Z AUTO VRB06KT 10SM OVC042 10/05 A3003 RMK A01,M
TMT,2023-10-02 02:15,-117.1971,39.4643,1749.34,42.80,39.60,88.36,0.00,0.00,0.00,30.03,M,10.00,M,OVC,M,M,M,3000.00,M,M,M,M,M,M,M,M,M,M,42.80,KTMT 020215Z AUTO 00000KT 10SM OVC030 06/04 A3003 RMK AO2 T00600042,M
10U,2023-10-02 02:20,-116.1876,41.9532,1637.00,39.20,37.40,93.19,330.00,4.00,0.00,30.04,M,7.00,M,OVC,M,M,M,1600.00,M,M,M,-RA,M,M,M,M,M,M,35.83,K10U 020220Z AUTO 33004KT 7SM -RA OVC016 04/03 A3004 RMK AO2,M
05U,2023-10-02 02:30,-116.0051,39.6042,1811.23,44.60,39.20,81.20,190.00,4.00,0.00,30.02,M,7.00,M,FEW,BKN,OVC,M,2000.00,3200.00,4200.00,M,M,M,M,M,M,M,M,42.13,K05U 020230Z AUTO 19004KT 7SM FEW020 BKN032 OVC042 07/04 A3002 RMK A01,M
BVU,2023-10-02 02:35,-114.8611,35.9475,671.00,66.20,33.80,29.92,0.00,0.00,0.00,29.82,M,10.00,M,CLR,M,M,M,M,M,M,M,M,M,M,M,M,M,M,66.20,KBVU 020235Z AUTO 00000KT 10SM CLR 19/01 A2982 RMK AO2,M
CXP,2023-10-02 02:35,-119.7326,39.1923,1431.00,50.00,35.60,57.52,50.00,8.00,0.00,30.04,M,10.00,M,BKN,OVC,M,M,3800.00,4500.00,M,M,M,M,M,M,M,M,M,50.00,KCXP 020235Z AUTO 05008KT 10SM BKN038 OVC045 10/02 A3004 RMK AO2,M
RTS,2023-10-02 02:35,-119.8764,39.6682,1539.00,48.20,33.80,57.26,330.00,5.00,0.00,30.05,M,10.00,M,OVC,M,M,M,4100.00,M,M,M,M,M,M,M,M,M,M,45.63,KRTS 020235Z AUTO 33005KT 10SM OVC041 09/01 A3005 RMK AO2,M
MEV,2023-10-02 02:35,-119.7500,38.9963,1441.42,50.00,37.40,61.76,30.00,7.00,0.00,30.02,M,10.00,M,BKN,OVC,M,M,3700.00,4400.00,M,M,M,M,M,M,M,M,M,50.00,KMEV 020235Z AUTO 03007KT 10SM BKN037 OVC044 10/03 A3002 RMK AO2,M
BAM,2023-10-02 02:35,-116.8743,40.5990,1382.36,48.20,42.80,81.47,330.00,8.00,0.00,30.03,M,10.00,M,OVC,M,M,M,3500.00,M,M,M,M,M,M,M,M,M,M,44.07,KBAM 020235Z AUTO 33008KT 10SM OVC035 09/06 A3003 RMK AO1,M
HTH,2023-10-02 02:35,-118.6315,38.5448,1282.89,50.00,42.80,76.18,340.00,6.00,0.00,30.03,M,10.00,M,BKN,OVC,M,M,3500.00,4200.00,M,M,M,M,M,M,M,M,M,50.00,KHTH 020235Z AUTO 34006KT 10SM BKN035 OVC042 10/06 A3003 RMK A01,M
TMT,2023-10-02 02:35,-117.1971,39.4643,1749.34,42.60,39.70,89.39,360.00,3.00,0.00,30.03,M,10.00,M,SCT,OVC,M,M,2400.00,3200.00,M,M,M,M,M,M,M,M,M,40.81,KTMT 020235Z AUTO 36003KT 10SM SCT024 OVC032 06/04 A3003 RMK AO2 T00590043,M
VGT,2023-10-02 02:37,-115.1933,36.2111,667.00,67.00,45.00,45.04,240.00,12.00,0.01,29.82,M,10.00,M,BKN,OVC,M,M,7500.00,9000.00,M,M,-TSRA,M,M,M,M,M,M,67.00,KVGT 020237Z 24012KT 10SM -TSRA BKN075 OVC090 19/07 A2982 RMK AO2 RAB15 TSB31 P0001 T01940072,M
10U,2023-10-02 02:40,-116.1876,41.9532,1637.00,39.20,37.40,93.19,330.00,4.00,0.00,30.05,M,8.00,M,SCT,OVC,M,M,1700.00,2200.00,M,M,-RA,M,M,M,M,M,M,35.83,K10U 020240Z AUTO 33004KT 8SM -RA SCT017 OVC022 04/03 A3005 RMK AO2,M
05U,2023-10-02 02:50,-116.0051,39.6042,1811.23,42.80,41.00,93.30,140.00,3.00,0.00,30.03,M,10.00,M,OVC,M,M,M,3800.00,M,M,M,M,M,M,M,M,M,M,41.03,K05U 020250Z AUTO 14003KT 10SM OVC038 06/05 A3003 RMK A01,M
P68,2023-10-02 02:53,-116.0056,39.6014,1993.00,43.00,41.00,92.58,330.00,4.00,0.00,30.00,1013.30,M,M,M,M,M,M,M,M,M,M,M,M,M,M,M,M,M,40.27,KP68 020253Z AUTO 33004KT 06/05 A3000 RMK AO1 SLP133 T00610050 51018,M
DRA,2023-10-02 02:53,-116.0278,36.6206,1009.00,60.00,28.00,29.41,340.00,4.00,0.00,29.88,1009.20,10.00,M,CLR,M,M,M,M,M,M,M,M,M,M,M,M,M,M,60.00,KDRA 020253Z AUTO 34004KT 10SM CLR 16/M02 A2988 RMK AO2 SLP092 T01561022 51009 $,M
ELY,2023-10-02 02:53,-114.8453,39.2950,1909.00,41.00,34.00,75.94,290.00,5.00,0.00,30.00,1013.20,10.00,M,FEW,M,M,M,9500.00,M,M,M,M,M,M,M,M,M,M,37.08,KELY 020253Z AUTO 29005KT 10SM FEW095 05/01 A3000 RMK AO2 SLP132 T00500011 51013,M
VGT,2023-10-02 02:53,-115.1933,36.2111,667.00,68.00,45.00,43.51,200.00,13.00,0.01,29.82,1010.30,10.00,19.00,BKN,OVC,M,M,7000.00,8500.00,M,M,-RA,M,M,M,M,M,M,68.00,KVGT 020253Z 20013G19KT 10SM -RA BKN070 OVC085 20/07 A2982 RMK AO2 RAB15 TSB31E46 SLP103 P0001 60001 T02000072 50006,M
LOL,2023-10-02 02:53,-118.5701,40.0684,1192.43,50.00,42.00,73.87,30.00,5.00,0.00,30.02,1016.00,10.00,M,OVC,M,M,M,3800.00,M,M,M,M,M,M,M,M,M,M,50.00,KLOL 020253Z AUTO 03005KT 10SM OVC038 10/06 A3002 RMK AO2 SLP160 T01000056 53009 $,M
BVU,2023-10-02 02:55,-114.8611,35.9475,671.00,68.00,33.80,28.11,200.00,4.00,0.00,29.83,M,10.00,M,CLR,M,M,M,M,M,M,M,M,M,M,M,M,M,M,68.00,KBVU 020255Z AUTO 20004KT 10SM CLR 20/01 A2983 RMK AO2,M
CXP,2023-10-02 02:55,-119.7326,39.1923,1431.00,50.00,39.20,66.27,50.00,5.00,0.00,30.04,M,10.00,M,FEW,BKN,OVC,M,3700.00,4700.00,6000.00,M,M,M,M,M,M,M,M,50.00,KCXP 020255Z AUTO 05005KT 10SM FEW037 BKN047 OVC060 10/04 A3004 RMK AO2,M
INS,2023-10-02 02:55,-115.6733,36.5872,955.00,62.00,27.70,27.06,240.00,9.00,0.00,29.87,1008.80,10.00,M,FEW,M,M,M,8000.00,M,M,M,M,M,M,M,M,M,M,62.00,KINS 020255Z AUTO 24009KT 10SM FEW080 17/M02 A2987 RMK AO2 SLP088 T01671024 52013 $,M
RNO,2023-10-02 02:55,-119.7711,39.4839,1341.00,52.00,36.00,54.26,10.00,6.00,0.00,30.03,1015.00,10.00,M,OVC,M,M,M,4300.00,M,M,M,M,M,M,M,M,M,M,52.00,KRNO 020255Z 01006KT 10SM OVC043 11/02 A3003 RMK AO2 SLP150 T01110022 51011 $,M
LSV,2023-10-02 02:55,-115.0343,36.2362,570.00,71.60,37.60,28.90,200.00,10.00,0.00,29.79,1007.40,10.00,M,SCT,M,M,M,9500.00,M,M,M,M,M,M,M,M,M,M,71.60,KLSV 020255Z AUTO 20010KT 10SM SCT095 22/03 A2979 RMK AO2 SLP074 T02200031 53008 $,M
RTS,2023-10-02 02:55,-119.8764,39.6682,1539.00,48.20,33.80,57.26,330.00,4.00,0.00,30.05,M,10.00,M,BKN,OVC,M,M,4300.00,5000.00,M,M,M,M,M,M,M,M,M,46.34,KRTS 020255Z AUTO 33004KT 10SM BKN043 OVC050 09/01 A3005 RMK AO2,M
MEV,2023-10-02 02:55,-119.7500,38.9963,1441.42,50.00,37.40,61.76,20.00,3.00,0.00,30.02,M,10.00,M,OVC,M,M,M,4600.00,M,M,M,M,M,M,M,M,M,M,50.00,KMEV 020255Z AUTO 02003KT 10SM OVC046 10/03 A3002 RMK AO2,M
BAM,2023-10-02 02:55,-116.8743,40.5990,1382.36,48.20,44.60,87.28,340.00,9.00,0.00,30.03,M,10.00,M,SCT,OVC,M,M,3500.00,6000.00,M,M,M,M,M,M,M,M,M,43.66,KBAM 020255Z AUTO 34009KT 10SM SCT035 OVC060 09/07 A3003 RMK AO1,M
HTH,2023-10-02 02:55,-118.6315,38.5448,1282.89,50.00,42.80,76.18,320.00,5.00,0.00,30.03,M,10.00,M,SCT,OVC,M,M,3400.00,4200.00,M,M,M,M,M,M,M,M,M,50.00,KHTH 020255Z AUTO 32005KT 10SM SCT034 OVC042 10/06 A3003 RMK A01,M
TMT,2023-10-02 02:55,-117.1971,39.4643,1749.34,42.60,40.00,90.44,350.00,3.00,0.00,30.03,M,10.00,M,SCT,OVC,M,M,3000.00,3600.00,M,M,M,M,M,M,M,M,M,40.81,KTMT 020255Z AUTO 35003KT 10SM SCT030 OVC036 06/05 A3003 RMK AO2 60001 T00590045,M
EKO,2023-10-02 02:56,-115.7860,40.8242,1367.00,47.00,41.00,79.52,220.00,7.00,0.00,30.00,1014.60,10.00,M,FEW,OVC,M,M,4000.00,6000.00,M,M,M,M,M,M,M,M,M,43.06,KEKO 020256Z AUTO 22007KT 10SM FEW040 OVC060 08/05 A3000 RMK AO2 SLP146 T00830050 51017 $,M
WMC,2023-10-02 02:56,-117.8072,40.9019,1315.00,44.00,40.00,85.71,310.00,8.00,T,30.04,1016.70,10.00,M,OVC,M,M,M,3400.00,M,M,M,-RA,M,M,M,M,M,M,38.90,KWMC 020256Z AUTO 31008KT 10SM -RA OVC034 07/04 A3004 RMK AO2 RAB32 SLP167 P0000 60000 T00670044 52012,M
LSV,2023-10-02 02:56,-115.0343,36.2362,570.00,71.60,37.40,28.68,210.00,13.00,0.00,29.79,1007.40,10.00,M,SCT,M,M,M,9500.00,M,M,M,M,M,M,M,M,M,M,71.60,KLSV 020256Z AUTO 21013KT 10SM SCT095 22/03 A2979 RMK AO2 WSHFT 44 SLP074 $,M
NFL,2023-10-02 02:56,-118.7010,39.4166,1199.00,50.00,44.00,79.76,0.00,0.00,0.00,30.02,1013.60,10.00,M,OVC,M,M,M,5500.00,M,M,M,M,M,M,M,M,M,M,50.00,KNFL 020256Z AUTO 00000KT 10SM OVC055 10/07 A3002 RMK AO2 SLP136 T01000067 51011,M
HND,2023-10-02 02:56,-115.1344,35.9729,742.79,64.00,44.00,48.12,260.00,11.00,T,29.87,1012.00,10.00,M,BKN,BKN,M,M,8000.00,9500.00,M,M,M,M,M,M,M,M,M,64.00,KHND 020256Z 26011KT 10SM BKN080 BKN095 18/07 A2987 RMK AO2 LTG DSNT SW RAB24E38 SLP120 P0000 60000 T01780067 53013,M
TPH,2023-10-02 02:56,-117.0904,38.0505,1654.00,47.00,39.00,73.57,300.00,5.00,0.00,30.01,1014.10,10.00,M,FEW,BKN,OVC,M,2500.00,5000.00,6000.00,M,M,M,M,M,M,M,M,44.21,KTPH 020256Z AUTO 30005KT 10SM FEW025 BKN050 OVC060 08/04 A3001 RMK AO2 SLP141 T00830039 51013,M
LAS,2023-10-02 02:56,-115.1634,36.0719,663.00,63.00,48.00,57.99,270.00,9.00,0.09,29.84,1009.30,10.00,M,FEW,BKN,M,M,3000.00,8000.00,M,M,M,M,M,M,M,M,M,63.00,KLAS 020256Z 27009KT 10SM FEW030 BKN080 17/09 A2984 RMK AO2 LTG DSNT SW RAE43 TSE52 SLP093 SH DSNT SW AND W-NW P0009 60013 T01720089 53012,M
10U,2023-10-02 03:00,-116.1876,41.9532,1637.00,39.20,37.40,93.19,0.00,0.00,0.00,30.05,M,10.00,M,OVC,M,M,M,2100.00,M,M,M,-RA,M,M,M,M,M,M,39.20,K10U 020300Z AUTO 00000KT 10SM -RA OVC021 04/03 A3005 RMK AO2,M
05U,2023-10-02 03:10,-116.0051,39.6042,1811.23,42.80,41.00,93.30,0.00,0.00,0.00,30.03,M,10.00,M,OVC,M,M,M,3500.00,M,M,M,M,M,M,M,M,M,M,42.80,K05U 020310Z AUTO 00000KT 10SM OVC035 06/05 A3003 RMK A01,M
BVU,2023-10-02 03:15,-114.8611,35.9475,671.00,66.20,35.60,32.14,0.00,0.00,0.00,29.83,M,10.00,M,CLR,M,M,M,M,M,M,M,M,M,M,M,M,M,M,66.20,KBVU 020315Z AUTO 00000KT 10SM CLR 19/02 A2983 RMK AO2,M
CXP,2023-10-02 03:15,-119.7326,39.1923,1431.00,50.00,37.40,61.76,50.00,5.00,0.00,30.05,M,10.00,M,BKN,OVC,M,M,4500.00,6000.00,M,M,M,M,M,M,M,M,M,50.00,KCXP 020315Z AUTO 05005KT 10SM BKN045 OVC060 10/03 A3005 RMK AO2,M
RTS,2023-10-02 03:15,-119.8764,39.6682,1539.00,48.20,33.80,57.26,310.00,4.00,0.00,30.06,M,10.00,M,SCT,OVC,M,M,4200.00,5500.00,M,M,M,M,M,M,M,M,M,46.34,KRTS 020315Z AUTO 31004KT 10SM SCT042 OVC055 09/01 A3006 RMK AO2,M
MEV,2023-10-02 03:15,-119.7500,38.9963,1441.42,50.00,37.40,61.76,350.00,5.00,0.00,30.03,M,10.00,M,FEW,OVC,M,M,3700.00,4900.00,M,M,M,M,M,M,M,M,M,50.00,KMEV 020315Z AUTO 35005KT 10SM FEW037 OVC049 10/03 A3003 RMK AO2,M
BAM,2023-10-02 03:15,-116.8743,40.5990,1382.36,46.40,44.60,93.40,330.00,5.00,0.00,30.03,M,10.00,M,BKN,OVC,M,M,3700.00,6000.00,M,M,M,M,M,M,M,M,M,43.50,KBAM 020315Z AUTO 33005KT 10SM BKN037 OVC060 08/07 A3003 RMK AO1,M
HTH,2023-10-02 03:15,-118.6315,38.5448,1282.89,50.00,41.00,71.07,0.00,0.00,0.00,30.04,M,10.00,M,OVC,M,M,M,4100.00,M,M,M,M,M,M,M,M,M,M,50.00,KHTH 020315Z AUTO 00000KT 10SM OVC041 10/05 A3004 RMK A01,M
TMT,2023-10-02 03:15,-117.1971,39.4643,1749.34,42.80,40.00,89.75,340.00,4.00,0.00,30.03,M,7.00,M,BKN,OVC,M,M,2800.00,3800.00,M,M,M,M,M,M,M,M,M,40.03,KTMT 020315Z AUTO 34004KT 7SM BKN028 OVC038 06/04 A3003 RMK AO2 T00600044,M
10U,2023-10-02 03:20,-116.1876,41.9532,1637.00,39.20,37.40,93.19,0.00,0.00,0.00,30.05,M,8.00,M,SCT,M,M,M,2000.00,M,M,M,-RA,M,M,M,M,M,M,39.20,K10U 020320Z AUTO 00000KT 8SM -RA SCT020 04/03 A3005 RMK AO2,M
05U,2023-10-02 03:30,-116.0051,39.6042,1811.23,44.60,41.00,87.09,0.00,0.00,0.00,30.03,M,10.00,M,SCT,BKN,OVC,M,2000.00,3000.00,3700.00,M,M,M,M,M,M,M,M,44.60,K05U 020330Z AUTO 00000KT 10SM SCT020 BKN030 OVC037 07/05 A3003 RMK A01,M
BVU,2023-10-02 03:35,-114.8611,35.9475,671.00,62.60,37.40,39.14,0.00,0.00,0.00,29.84,M,10.00,M,CLR,M,M,M,M,M,M,M,M,M,M,M,M,M,M,62.60,KBVU 020335Z AUTO 00000KT 10SM CLR 17/03 A2984 RMK AO2 LTG DSNT NW,M
CXP,2023-10-02 03:35,-119.7326,39.1923,1431.00,50.00,39.20,66.27,0.00,0.00,0.00,30.05,M,10.00,M,OVC,M,M,M,4300.00,M,M,M,M,M,M,M,M,M,M,50.00,KCXP 020335Z AUTO 00000KT 10SM OVC043 10/04 A3005 RMK AO2,M
RTS,2023-10-02 03:35,-119.8764,39.6682,1539.00,48.20,33.80,57.26,0.00,0.00,0.00,30.05,M,10.00,M,FEW,OVC,M,M,4100.00,5000.00,M,M,M,M,M,M,M,M,M,48.20,KRTS 020335Z AUTO 00000KT 10SM FEW041 OVC050 09/01 A3005 RMK AO2,M
MEV,2023-10-02 03:35,-119.7500,38.9963,1441.42,48.20,37.40,66.05,330.00,5.00,0.00,30.04,M,10.00,M,FEW,OVC,M,M,3700.00,5000.00,M,M,M,M,M,M,M,M,M,45.63,KMEV 020335Z AUTO 33005KT 10SM FEW037 OVC050 09/03 A3004 RMK AO2,M
BAM,2023-10-02 03:35,-116.8743,40.5990,1382.36,46.40,42.80,87.19,340.00,5.00,0.00,30.04,M,10.00,M,BKN,OVC,M,M,2600.00,3700.00,M,M,M,M,M,M,M,M,M,43.50,KBAM 020335Z AUTO 34005KT 10SM BKN026 OVC037 08/06 A3004 RMK AO1,M
HTH,2023-10-02 03:35,-118.6315,38.5448,1282.89,50.00,42.80,76.18,350.00,4.00,0.00,30.04,M,10.00,M,OVC,M,M,M,4100.00,M,M,M,M,M,M,M,M,M,M,50.00,KHTH 020335Z AUTO 35004KT 10SM OVC041 10/06 A3004 RMK A01,M
TMT,2023-10-02 03:35,-117.1971,39.4643,1749.34,42.80,40.50,91.51,0.00,0.00,0.00,30.04,M,10.00,M,OVC,M,M,M,2800.00,M,M,M,M,M,M,M,M,M,M,42.80,KTMT 020335Z AUTO 00000KT 10SM OVC028 06/05 A3004 RMK AO2 T00600047,M
10U,2023-10-02 03:40,-116.1876,41.9532,1637.00,39.20,37.40,93.19,0.00,0.00,0.00,30.06,M,10.00,M,FEW,BKN,BKN,M,500.00,2200.00,2800.00,M,-RA,M,M,M,M,M,M,39.20,K10U 020340Z AUTO 00000KT 10SM -RA FEW005 BKN022 BKN028 04/03 A3006 RMK AO2,M
TPH,2023-10-02 03:48,-117.0904,38.0505,1654.00,46.00,39.00,76.40,310.00,7.00,0.00,30.01,M,10.00,M,BKN,BKN,OVC,M,2500.00,6500.00,11000.00,M,M,M,M,M,M,M,M,41.84,KTPH 020348Z AUTO 31007KT 10SM BKN025 BKN065 OVC110 08/04 A3001 RMK AO2 T00780039,M
05U,2023-10-02 03:50,-116.0051,39.6042,1811.23,42.80,41.00,93.30,0.00,0.00,0.00,30.04,M,10.00,M,SCT,OVC,M,M,2200.00,2900.00,M,M,M,M,M,M,M,M,M,42.80,K05U 020350Z AUTO 00000KT 10SM SCT022 OVC029 06/05 A3004 RMK A01,M
P68,2023-10-02 03:53,-116.0056,39.6014,1993.00,43.00,40.00,89.06,10.00,4.00,0.00,30.01,1013.50,M,M,M,M,M,M,M,M,M,M,M,M,M,M,M,M,M,40.27,KP68 020353Z AUTO 01004KT 06/04 A3001 RMK AO1 SLP135 T00610044,M
DRA,2023-10-02 03:53,-116.0278,36.6206,1009.00,59.00,31.00,34.45,20.00,7.00,0.00,29.90,1009.70,10.00,M,BKN,M,M,M,8000.00,M,M,M,M,M,M,M,M,M,M,59.00,KDRA 020353Z AUTO 02007KT 10SM BKN080 15/M01 A2990 RMK AO2 SLP097 T01501006 $,M
ELY,2023-10-02 03:53,-114.8453,39.2950,1909.00,37.00,33.00,85.29,40.00,5.00,0.00,30.01,1013.20,10.00,M,CLR,M,M,M,M,M,M,M,M,M,M,M,M,M,M,32.33,KELY 020353Z AUTO 04005KT 10SM CLR 03/01 A3001 RMK AO2 SLP132 T00280006,M
VGT,2023-10-02 03:53,-115.1933,36.2111,667.00,65.00,41.00,41.41,240.00,12.00,T,29.84,1010.90,10.00,M,CLR,M,M,M,M,M,M,M,M,M,M,M,32.00,240.00,2023-10-02 03:12,65.00,KVGT 020353Z AUTO 24012KT 10SM CLR 18/05 A2984 RMK AO2 PK WND 24032/0312 LTG DSNT NW RAE18 SLP109 P0000 T01830050,M
LOL,2023-10-02 03:53,-118.5701,40.0684,1192.43,50.00,42.00,73.87,0.00,0.00,0.00,30.03,1015.90,10.00,M,OVC,M,M,M,4500.00,M,M,M,M,M,M,M,M,M,M,50.00,KLOL 020353Z AUTO 00000KT 10SM OVC045 10/06 A3003 RMK AO2 SLP159 T01000056 $,M
BVU,2023-10-02 03:55,-114.8611,35.9475,671.00,64.40,37.40,36.74,310.00,16.00,0.00,29.84,M,10.00,21.00,CLR,M,M,M,M,M,M,M,M,M,M,M,M,M,M,64.40,KBVU 020355Z AUTO 31016G21KT 10SM CLR 18/03 A2984 RMK AO2,M
CXP,2023-10-02 03:55,-119.7326,39.1923,1431.00,50.00,39.20,66.27,0.00,0.00,0.00,30.06,M,10.00,M,BKN,OVC,M,M,4200.00,4800.00,M,M,M,M,M,M,M,M,M,50.00,KCXP 020355Z AUTO 00000KT 10SM BKN042 OVC048 10/04 A3006 RMK AO2,M
INS,2023-10-02 03:55,-115.6733,36.5872,955.00,60.80,25.70,26.00,270.00,7.00,0.00,29.89,1009.50,10.00,M,FEW,M,M,M,11000.00,M,M,M,M,M,M,M,M,M,M,60.80,KINS 020355Z AUTO 27007KT 10SM FEW110 16/M03 A2989 RMK AO2 SLP095 T01601035 $,M
RNO,2023-10-02 03:55,-119.7711,39.4839,1341.00,52.00,35.00,52.15,50.00,3.00,0.00,30.04,1015.30,10.00,M,OVC,M,M,M,4200.00,M,M,M,M,M,M,M,M,M,M,52.00,KRNO 020355Z 05003KT 10SM OVC042 11/02 A3004 RMK AO2 SLP153 T01110017 $,M
RTS,2023-10-02 03:55,-119.8764,39.6682,1539.00,46.40,33.80,61.28,0.00,0.00,0.00,30.06,M,10.00,M,SCT,OVC,M,M,4000.00,4800.00,M,M,M,M,M,M,M,M,M,46.40,KRTS 020355Z AUTO 00000KT 10SM SCT040 OVC048 08/01 A3006 RMK AO2,M
MEV,2023-10-02 03:55,-119.7500,38.9963,1441.42,48.20,37.40,66.05,330.00,5.00,0.00,30.04,M,10.00,M,SCT,OVC,M,M,3600.00,5000.00,M,M,M,M,M,M,M,M,M,45.63,KMEV 020355Z AUTO 33005KT 10SM SCT036 OVC050 09/03 A3004 RMK AO2,M
BAM,2023-10-02 03:55,-116.8743,40.5990,1382.36,46.40,42.80,87.19,340.00,4.00,0.00,30.04,M,10.00,M,OVC,M,M,M,2600.00,M,M,M,M,M,M,M,M,M,M,44.24,KBAM 020355Z AUTO 34004KT 10SM OVC026 08/06 A3004 RMK AO1,M
HTH,2023-10-02 03:55,-118.6315,38.5448,1282.89,50.00,41.00,71.07,330.00,5.00,0.00,30.04,M,10.00,M,BKN,OVC,M,M,3900.00,4500.00,M,M,M,M,M,M,M,M,M,50.00,KHTH 020355Z AUTO 33005KT 10SM BKN039 OVC045 10/05 A3004 RMK A01,M
TMT,2023-10-02 03:55,-117.1971,39.4643,1749.34,42.80,41.00,93.30,0.00,0.00,0.00,30.04,M,10.00,M,OVC,M,M,M,2400.00,M,M,M,M,M,M,M,M,M,M,42.80,KTMT 020355Z AUTO 00000KT 10SM OVC024 06/05 A3004 RMK AO2 T00600051,M
LSV,2023-10-02 03:55,-115.0343,36.2362,570.00,68.00,37.60,32.68,260.00,12.00,0.00,29.81,1008.10,10.00,M,CLR,M,M,M,M,M,M,M,M,M,M,M,M,M,M,68.00,KLSV 020355Z AUTO 26012KT 10SM CLR 20/03 A2981 RMK AO2 SLP081 T01990031 $,M
EKO,2023-10-02 03:56,-115.7860,40.8242,1367.00,47.00,41.00,79.52,200.00,6.00,0.00,30.00,1014.60,10.00,M,OVC,M,M,M,6500.00,M,M,M,M,M,M,M,M,M,M,43.60,KEKO 020356Z AUTO 20006KT 10SM OVC065 08/05 A3000 RMK AO2 SLP146 T00830050 $,M
WMC,2023-10-02 03:56,-117.8072,40.9019,1315.00,44.00,40.00,85.71,300.00,5.00,T,30.04,1016.70,10.00,M,OVC,M,M,M,3500.00,M,M,M,-RA,M,M,M,M,M,M,40.65,KWMC 020356Z AUTO 30005KT 10SM -RA OVC035 07/04 A3004 RMK AO2 RAE09B50 SLP167 P0000 T00670044,M
NFL,2023-10-02 03:56,-118.7010,39.4166,1199.00,50.00,45.00,82.86,0.00,0.00,0.00,30.03,1013.70,10.00,M,OVC,M,M,M,5500.00,M,M,M,M,M,M,M,M,M,M,50.00,KNFL 020356Z AUTO 00000KT 10SM OVC055 10/07 A3003 RMK AO2 SLP137 T01000072,M
HND,2023-10-02 03:56,-115.1344,35.9729,742.79,62.00,40.00,44.25,270.00,12.00,0.00,29.90,1012.80,10.00,19.00,CLR,M,M,M,M,M,M,M,M,M,M,M,M,M,M,62.00,KHND 020356Z AUTO 27012G19KT 10SM CLR 17/04 A2990 RMK AO2 LTG DSNT W SLP128 T01670044,M
TPH,2023-10-02 03:56,-117.0904,38.0505,1654.00,46.00,39.00,76.40,310.00,7.00,0.00,30.01,1014.30,10.00,M,BKN,BKN,OVC,M,2500.00,6500.00,10000.00,M,M,M,M,M,M,M,M,41.84,KTPH 020356Z AUTO 31007KT 10SM BKN025 BKN065 OVC100 08/04 A3001 RMK AO2 SLP143 T00780039,M
LAS,2023-10-02 03:56,-115.1634,36.0719,663.00,62.00,42.00,47.82,260.00,16.00,0.00,29.86,1009.90,10.00,24.00,FEW,BKN,M,M,4500.00,10000.00,M,M,M,M,M,M,28.00,270.00,2023-10-02 03:22,62.00,KLAS 020356Z 26016G24KT 10SM FEW045 BKN100 17/06 A2986 RMK AO2 PK WND 27028/0322 LTG DSNT SW SLP099 SH DSNT W-NW T01670056,M
10U,2023-10-02 04:00,-116.1876,41.9532,1637.00,39.20,37.40,93.19,0.00,0.00,0.00,30.06,M,10.00,M,SCT,SCT,M,M,2100.00,2800.00,M,M,-RA,M,M,M,M,M,M,39.20,K10U 020400Z AUTO 00000KT 10SM -RA SCT021 SCT028 04/03 A3006 RMK AO2,M
TPH,2023-10-02 04:06,-117.0904,38.0505,1654.00,45.00,39.00,79.36,300.00,5.00,0.00,30.01,M,10.00,M,SCT,SCT,BKN,M,2500.00,6500.00,10000.00,M,M,M,M,M,M,M,M,41.83,KTPH 020406Z AUTO 30005KT 10SM SCT025 SCT065 BKN100 07/04 A3001 RMK AO2 T00720039,M
05U,2023-10-02 04:10,-116.0051,39.6042,1811.23,42.80,41.00,93.30,0.00,0.00,0.00,30.04,M,7.00,M,OVC,M,M,M,2800.00,M,M,M,M,M,M,M,M,M,M,42.80,K05U 020410Z AUTO 00000KT 7SM OVC028 06/05 A3004 RMK A01,M
BVU,2023-10-02 04:15,-114.8611,35.9475,671.00,64.40,37.40,36.74,300.00,8.00,0.00,29.85,M,10.00,14.00,CLR,M,M,M,M,M,M,M,M,M,M,M,M,M,M,64.40,KBVU 020415Z AUTO 30008G14KT 10SM CLR 18/03 A2985 RMK AO2,M
CXP,2023-10-02 04:15,-119.7326,39.1923,1431.00,48.20,39.20,70.88,0.00,0.00,0.00,30.06,M,10.00,M,OVC,M,M,M,4000.00,M,M,M,M,M,M,M,M,M,M,48.20,KCXP 020415Z AUTO 00000KT 10SM OVC040 09/04 A3006 RMK AO2,M
RTS,2023-10-02 04:15,-119.8764,39.6682,1539.00,46.40,33.80,61.28,0.00,0.00,0.00,30.06,M,10.00,M,OVC,M,M,M,4100.00,M,M,M,M,M,M,M,M,M,M,46.40,KRTS 020415Z AUTO 00000KT 10SM OVC041 08/01 A3006 RMK AO2,M
MEV,2023-10-02 04:15,-119.7500,38.9963,1441.42,48.20,39.20,70.88,330.00,5.00,0.00,30.04,M,10.00,M,FEW,SCT,OVC,M,3600.00,4300.00,5000.00,M,M,M,M,M,M,M,M,45.63,KMEV 020415Z AUTO 33005KT 10SM FEW036 SCT043 OVC050 09/04 A3004 RMK AO2,M
BAM,2023-10-02 04:15,-116.8743,40.5990,1382.36,46.40,42.80,87.19,330.00,7.00,0.00,30.04,M,10.00,M,SCT,OVC,M,M,2800.00,3500.00,M,M,M,M,M,M,M,M,M,42.33,KBAM 020415Z AUTO 33007KT 10SM SCT028 OVC035 08/06 A3004 RMK AO1,M
HTH,2023-10-02 04:15,-118.6315,38.5448,1282.89,50.00,41.00,71.07,350.00,7.00,0.00,30.04,M,10.00,M,BKN,OVC,M,M,3900.00,4500.00,M,M,M,M,M,M,M,M,M,50.00,KHTH 020415Z AUTO 35007KT 10SM BKN039 OVC045 10/05 A3004 RMK A01,M
TMT,2023-10-02 04:15,-117.1971,39.4643,1749.34,43.00,41.00,92.58,0.00,0.00,0.00,30.04,M,10.00,M,OVC,M,M,M,2200.00,M,M,M,M,M,M,M,M,M,M,43.00,KTMT 020415Z AUTO 00000KT 10SM OVC022 06/05 A3004 RMK AO2 T00610051,M
10U,2023-10-02 04:20,-116.1876,41.9532,1637.00,39.20,37.40,93.19,0.00,0.00,0.00,30.06,M,10.00,M,CLR,M,M,M,M,M,M,M,-RA,M,M,M,M,M,M,39.20,K10U 020420Z AUTO 00000KT 10SM -RA CLR 04/03 A3006 RMK AO2,M
05U,2023-10-02 04:30,-116.0051,39.6042,1811.23,42.80,41.00,93.30,0.00,0.00,0.00,30.04,M,4.00,M,FEW,BKN,OVC,M,1500.00,2900.00,3300.00,M,BR,M,M,M,M,M,M,42.80,K05U 020430Z AUTO 00000KT 4SM BR FEW015 BKN029 OVC033 06/05 A3004 RMK A01,M
MEV,2023-10-02 04:35,-119.7500,38.9963,1441.42,48.20,37.40,66.05,310.00,4.00,0.00,30.05,M,10.00,M,BKN,OVC,M,M,4300.00,5500.00,M,M,M,M,M,M,M,M,M,46.34,KMEV 020435Z AUTO 31004KT 10SM BKN043 OVC055 09/03 A3005 RMK AO2,M
BAM,2023-10-02 04:35,-116.8743,40.5990,1382.36,46.40,42.80,87.19,330.00,6.00,0.00,30.04,M,10.00,M,OVC,M,M,M,3500.00,M,M,M,M,M,M,M,M,M,M,42.87,KBAM 020435Z AUTO 33006KT 10SM OVC035 08/06 A3004 RMK AO1,M
HTH,2023-10-02 04:35,-118.6315,38.5448,1282.89,50.00,42.80,76.18,340.00,7.00,0.00,30.05,M,10.00,M,OVC,M,M,M,4500.00,M,M,M,M,M,M,M,M,M,M,50.00,KHTH 020435Z AUTO 34007KT 10SM OVC045 10/06 A3005 RMK A01,M
TMT,2023-10-02 04:35,-117.1971,39.4643,1749.34,42.60,40.50,92.21,330.00,3.00,0.00,30.03,M,10.00,M,BKN,OVC,M,M,1100.00,2200.00,M,M,M,M,M,M,M,M,M,40.81,KTMT 020435Z AUTO 33003KT 10SM BKN011 OVC022 06/05 A3003 RMK AO2 T00590047,M
BVU,2023-10-02 04:35,-114.8611,35.9475,671.00,64.40,37.40,36.74,320.00,10.00,0.00,29.87,M,10.00,M,FEW,M,M,M,9000.00,M,M,M,M,M,M,M,M,M,M,64.40,KBVU 020435Z AUTO 32010KT 10SM FEW090 18/03 A2987 RMK AO2,M
CXP,2023-10-02 04:35,-119.7326,39.1923,1431.00,48.20,37.40,66.05,0.00,0.00,0.00,30.06,M,10.00,M,OVC,M,M,M,4100.00,M,M,M,M,M,M,M,M,M,M,48.20,KCXP 020435Z AUTO 00000KT 10SM OVC041 09/03 A3006 RMK AO2,M
RTS,2023-10-02 04:35,-119.8764,39.6682,1539.00,46.40,33.80,61.28,0.00,0.00,0.00,30.06,M,10.00,M,OVC,M,M,M,4500.00,M,M,M,M,M,M,M,M,M,M,46.40,KRTS 020435Z AUTO 00000KT 10SM OVC045 08/01 A3006 RMK AO2,M
10U,2023-10-02 04:40,-116.1876,41.9532,1637.00,39.20,37.40,93.19,0.00,0.00,0.00,30.06,M,10.00,M,BKN,BKN,BKN,M,2900.00,3600.00,4700.00,M,-RA,M,M,M,M,M,M,39.20,K10U 020440Z AUTO 00000KT 10SM -RA BKN029 BKN036 BKN047 04/03 A3006 RMK AO2,M
LAS,2023-10-02 04:42,-115.1634,36.0719,663.00,61.00,42.00,49.54,260.00,10.00,0.00,29.88,M,10.00,18.00,FEW,BKN,M,M,4500.00,10000.00,M,M,M,M,M,M,29.00,260.00,2023-10-02 04:16,61.00,KLAS 020442Z 26010G18KT 10SM FEW045 BKN100 16/06 A2988 RMK AO2 PK WND 26029/0416 SH DSNT W-NW T01610056,M
05U,2023-10-02 04:50,-116.0051,39.6042,1811.23,42.80,41.00,93.30,0.00,0.00,0.00,30.04,M,8.00,M,BKN,BKN,OVC,M,1900.00,2800.00,3300.00,M,M,M,M,M,M,M,M,42.80,K05U 020450Z AUTO 00000KT 8SM BKN019 BKN028 OVC033 06/05 A3004 RMK A01,M
P68,2023-10-02 04:53,-116.0056,39.6014,1993.00,43.00,41.00,92.58,0.00,0.00,0.01,30.01,1013.40,M,M,M,M,M,M,M,M,M,M,M,M,M,M,M,M,M,43.00,KP68 020453Z AUTO 00000KT 06/05 A3001 RMK AO1 SLP134 P0001 T00610050,M
DRA,2023-10-02 04:53,-116.0278,36.6206,1009.00,58.00,37.00,45.38,40.00,8.00,0.00,29.91,1010.00,10.00,M,FEW,M,M,M,10000.00,M,M,M,M,M,M,M,M,M,M,58.00,KDRA 020453Z AUTO 04008KT 10SM FEW100 14/03 A2991 RMK AO2 SLP100 T01440028 $,M
ELY,2023-10-02 04:53,-114.8453,39.2950,1909.00,33.00,31.00,92.25,150.00,3.00,0.00,30.02,1014.10,10.00,M,CLR,M,M,M,M,M,M,M,M,M,M,M,M,M,M,29.83,KELY 020453Z AUTO 15003KT 10SM CLR 01/M01 A3002 RMK AO2 SLP141 T00061006,M
VGT,2023-10-02 04:53,-115.1933,36.2111,667.00,65.00,39.00,38.31,M,6.00,0.00,29.87,1011.80,10.00,M,BKN,M,M,M,8500.00,M,M,M,M,M,M,M,M,M,M,65.00,KVGT 020453Z AUTO VRB06KT 10SM BKN085 18/04 A2987 RMK AO2 SLP118 T01830039,M
LOL,2023-10-02 04:53,-118.5701,40.0684,1192.43,48.00,42.00,79.60,40.00,6.00,0.00,30.03,1016.40,10.00,M,OVC,M,M,M,6000.00,M,M,M,M,M,M,M,M,M,M,44.80,KLOL 020453Z AUTO 04006KT 10SM OVC060 09/06 A3003 RMK AO2 SLP164 T00890056 $,M
BVU,2023-10-02 04:55,-114.8611,35.9475,671.00,62.60,37.40,39.14,310.00,10.00,0.00,29.87,M,10.00,M,FEW,M,M,M,8500.00,M,M,M,M,M,M,M,M,M,M,62.60,KBVU 020455Z AUTO 31010KT 10SM FEW085 17/03 A2987 RMK AO2,M
CXP,2023-10-02 04:55,-119.7326,39.1923,1431.00,48.20,39.20,70.88,50.00,4.00,0.00,30.06,M,10.00,M,OVC,M,M,M,3900.00,M,M,M,M,M,M,M,M,M,M,46.34,KCXP 020455Z AUTO 05004KT 10SM OVC039 09/04 A3006 RMK AO2,M
INS,2023-10-02 04:55,-115.6733,36.5872,955.00,60.60,28.20,29.03,0.00,0.00,0.00,29.92,1010.30,10.00,M,OVC,M,M,M,8000.00,M,M,M,M,M,M,M,M,M,M,60.60,KINS 020455Z AUTO 00000KT 10SM OVC080 16/M02 A2992 RMK AO2 SLP103 T01591021 $,M
RNO,2023-10-02 04:55,-119.7711,39.4839,1341.00,52.00,35.00,52.15,0.00,0.00,0.00,30.05,1015.30,10.00,M,OVC,M,M,M,4800.00,M,M,M,M,M,M,M,M,M,M,52.00,KRNO 020455Z 00000KT 10SM OVC048 11/02 A3005 RMK AO2 SLP153 T01110017 $,M
LSV,2023-10-02 04:55,-115.0343,36.2362,570.00,66.20,37.00,33.97,240.00,7.00,0.00,29.84,1009.00,10.00,M,FEW,M,M,M,9000.00,M,M,M,M,M,M,M,M,M,M,66.20,KLSV 020455Z AUTO 24007KT 10SM FEW090 19/03 A2984 RMK AO2 SLP090 T01900028 $,M
RTS,2023-10-02 04:55,-119.8764,39.6682,1539.00,46.40,33.80,61.28,0.00,0.00,0.00,30.06,M,10.00,M,OVC,M,M,M,4900.00,M,M,M,M,M,M,M,M,M,M,46.40,KRTS 020455Z AUTO 00000KT 10SM OVC049 08/01 A3006 RMK AO2,M
MEV,2023-10-02 04:55,-119.7500,38.9963,1441.42,48.20,37.40,66.05,300.00,5.00,0.00,30.05,M,10.00,M,BKN,OVC,M,M,3700.00,4500.00,M,M,M,M,M,M,M,M,M,45.63,KMEV 020455Z AUTO 30005KT 10SM BKN037 OVC045 09/03 A3005 RMK AO2,M
BAM,2023-10-02 04:55,-116.8743,40.5990,1382.36,46.40,42.80,87.19,320.00,7.00,0.00,30.04,M,10.00,M,OVC,M,M,M,3200.00,M,M,M,M,M,M,M,M,M,M,42.33,KBAM 020455Z AUTO 32007KT 10SM OVC032 08/06 A3004 RMK AO1,M
HTH,2023-10-02 04:55,-118.6315,38.5448,1282.89,48.20,42.80,81.47,310.00,8.00,0.00,30.05,M,9.00,M,OVC,M,M,M,4800.00,M,M,M,M,M,M,M,M,M,M,44.07,KHTH 020455Z AUTO 31008KT 9SM OVC048 09/06 A3005 RMK A01,M
TMT,2023-10-02 04:55,-117.1971,39.4643,1749.34,42.30,40.00,91.49,340.00,3.00,0.00,30.04,M,10.00,M,BKN,BKN,OVC,M,1300.00,1900.00,2400.00,M,M,M,M,M,M,M,M,40.46,KTMT 020455Z AUTO 34003KT 10SM BKN013 BKN019 OVC024 06/05 A3004 RMK AO2 T00570045,M
EKO,2023-10-02 04:56,-115.7860,40.8242,1367.00,47.00,41.00,79.52,210.00,5.00,0.00,30.01,1014.60,10.00,M,OVC,M,M,M,4000.00,M,M,M,M,M,M,M,M,M,M,44.21,KEKO 020456Z AUTO 21005KT 10SM OVC040 08/05 A3001 RMK AO2 SLP146 T00830050 $,M
WMC,2023-10-02 04:56,-117.8072,40.9019,1315.00,44.00,40.00,85.71,280.00,5.00,T,30.05,1016.90,10.00,M,SCT,SCT,OVC,M,6000.00,7500.00,10000.00,M,M,M,M,M,M,M,M,40.65,KWMC 020456Z AUTO 28005KT 10SM SCT060 SCT075 OVC100 07/04 A3005 RMK AO2 RAE50 SLP169 P0000 T00670044,M
NFL,2023-10-02 04:56,-118.7010,39.4166,1199.00,50.00,44.00,79.76,310.00,4.00,0.00,30.03,1013.90,10.00,M,OVC,M,M,M,5000.00,M,M,M,M,M,M,M,M,M,M,50.00,KNFL 020456Z AUTO 31004KT 10SM OVC050 10/07 A3003 RMK AO2 SLP139 T01000067,M
HND,2023-10-02 04:56,-115.1344,35.9729,742.79,61.00,39.00,44.10,210.00,6.00,0.00,29.91,1013.30,10.00,M,CLR,M,M,M,M,M,M,M,M,M,M,M,M,M,M,61.00,KHND 020456Z AUTO 21006KT 10SM CLR 16/04 A2991 RMK AO2 SLP133 T01610039,M
TPH,2023-10-02 04:56,-117.0904,38.0505,1654.00,45.00,39.00,79.36,300.00,6.00,0.00,30.01,1014.10,10.00,M,BKN,BKN,M,M,4300.00,5000.00,M,M,M,M,M,M,M,M,M,41.19,KTPH 020456Z AUTO 30006KT 10SM BKN043 BKN050 07/04 A3001 RMK AO2 SLP141 T00720039,M
LAS,2023-10-02 04:56,-115.1634,36.0719,663.00,61.00,42.00,49.54,240.00,5.00,0.00,29.89,1010.90,10.00,16.00,FEW,BKN,M,M,4500.00,10000.00,M,M,M,M,M,M,29.00,260.00,2023-10-02 04:16,61.00,KLAS 020456Z 24005G16KT 10SM FEW045 BKN100 16/06 A2989 RMK AO2 PK WND 26029/0416 SLP109 SH DSNT W-NW T01610056,M
10U,2023-10-02 05:00,-116.1876,41.9532,1637.00,39.20,37.40,93.19,0.00,0.00,0.00,30.06,M,10.00,M,FEW,OVC,M,M,400.00,2900.00,M,M,-DZ,M,M,M,M,M,M,39.20,K10U 020500Z AUTO 00000KT 10SM -DZ FEW004 OVC029 04/03 A3006 RMK AO2,M
05U,2023-10-02 05:10,-116.0051,39.6042,1811.23,42.80,41.00,93.30,0.00,0.00,0.00,30.04,M,10.00,M,BKN,OVC,M,M,1800.00,2500.00,M,M,M,M,M,M,M,M,M,42.80,K05U 020510Z AUTO 00000KT 10SM BKN018 OVC025 06/05 A3004 RMK A01,M
BVU,2023-10-02 05:15,-114.8611,35.9475,671.00,62.60,37.40,39.14,320.00,11.00,0.00,29.87,M,10.00,M,CLR,M,M,M,M,M,M,M,M,M,M,M,M,M,M,62.60,KBVU 020515Z AUTO 32011KT 10SM CLR 17/03 A2987 RMK AO2,M
CXP,2023-10-02 05:15,-119.7326,39.1923,1431.00,48.20,39.20,70.88,60.00,4.00,0.00,30.07,M,10.00,M,OVC,M,M,M,3700.00,M,M,M,M,M,M,M,M,M,M,46.34,KCXP 020515Z AUTO 06004KT 10SM OVC037 09/04 A3007 RMK AO2,M
RTS,2023-10-02 05:15,-119.8764,39.6682,1539.00,46.40,33.80,61.28,340.00,3.00,0.00,30.06,M,10.00,M,OVC,M,M,M,4600.00,M,M,M,M,M,M,M,M,M,M,45.15,KRTS 020515Z AUTO 34003KT 10SM OVC046 08/01 A3006 RMK AO2,M
MEV,2023-10-02 05:15,-119.7500,38.9963,1441.42,48.20,37.40,66.05,310.00,6.00,0.00,30.05,M,10.00,M,OVC,M,M,M,3800.00,M,M,M,M,M,M,M,M,M,M,45.04,KMEV 020515Z AUTO 31006KT 10SM OVC038 09/03 A3005 RMK AO2,M
BAM,2023-10-02 05:15,-116.8743,40.5990,1382.36,46.40,42.80,87.19,330.00,7.00,0.00,30.04,M,10.00,M,SCT,OVC,M,M,3000.00,3700.00,M,M,M,M,M,M,M,M,M,42.33,KBAM 020515Z AUTO 33007KT 10SM SCT030 OVC037 08/06 A3004 RMK AO1,M
HTH,2023-10-02 05:15,-118.6315,38.5448,1282.89,48.20,44.60,87.28,280.00,5.00,0.00,30.05,M,10.00,M,SCT,BKN,OVC,M,4300.00,4900.00,7000.00,M,M,M,M,M,M,M,M,45.63,KHTH 020515Z AUTO 28005KT 10SM SCT043 BKN049 OVC070 09/07 A3005 RMK A01,M
TMT,2023-10-02 05:15,-117.1971,39.4643,1749.34,42.00,40.00,92.55,350.00,4.00,0.00,30.04,M,7.00,M,OVC,M,M,M,1800.00,M,M,M,M,M,M,M,M,M,M,39.10,KTMT 020515Z AUTO 35004KT 7SM OVC018 06/05 A3004 RMK AO2 T00550045,M
WMC,2023-10-02 05:17,-117.8072,40.9019,1315.00,44.00,40.00,85.71,290.00,4.00,T,30.05,M,10.00,M,BKN,OVC,M,M,2300.00,5500.00,M,M,-RA,M,M,M,M,M,M,41.43,KWMC 020517Z AUTO 29004KT 10SM -RA BKN023 OVC055 07/04 A3005 RMK AO2 RAB10 P0000 T00670044,M
10U,2023-10-02 05:20,-116.1876,41.9532,1637.00,39.20,37.40,93.19,0.00,0.00,0.00,30.06,M,10.00,M,FEW,SCT,OVC,M,400.00,2300.00,2800.00,M,-DZ,M,M,M,M,M,M,39.20,K10U 020520Z AUTO 00000KT 10SM -DZ FEW004 SCT023 OVC028 04/03 A3006 RMK AO2,M
05U,2023-10-02 05:30,-116.0051,39.6042,1811.23,42.80,41.00,93.30,0.00,0.00,0.00,30.03,M,10.00,M,SCT,SCT,OVC,M,1700.00,2200.00,2600.00,M,M,M,M,M,M,M,M,42.80,K05U 020530Z AUTO 00000KT 10SM SCT017 SCT022 OVC026 06/05 A3003 RMK A01,M
BVU,2023-10-02 05:35,-114.8611,35.9475,671.00,62.60,37.40,39.14,330.00,5.00,0.00,29.87,M,10.00,M,CLR,M,M,M,M,M,M,M,M,M,M,M,M,M,M,62.60,KBVU 020535Z AUTO 33005KT 10SM CLR 17/03 A2987 RMK AO2,M
CXP,2023-10-02 05:35,-119.7326,39.1923,1431.00,48.20,39.20,70.88,70.00,5.00,0.00,30.07,M,10.00,M,OVC,M,M,M,3600.00,M,M,M,M,M,M,M,M,M,M,45.63,KCXP 020535Z AUTO 07005KT 10SM OVC036 09/04 A3007 RMK AO2,M
RTS,2023-10-02 05:35,-119.8764,39.6682,1539.00,46.40,33.80,61.28,20.00,3.00,0.00,30.07,M,10.00,M,OVC,M,M,M,4600.00,M,M,M,M,M,M,M,M,M,M,45.15,KRTS 020535Z AUTO 02003KT 10SM OVC046 08/01 A3007 RMK AO2,M
MEV,2023-10-02 05:35,-119.7500,38.9963,1441.42,48.20,37.40,66.05,310.00,6.00,0.00,30.05,M,10.00,M,OVC,M,M,M,3900.00,M,M,M,M,M,M,M,M,M,M,45.04,KMEV 020535Z AUTO 31006KT 10SM OVC039 09/03 A3005 RMK AO2,M
BAM,2023-10-02 05:35,-116.8743,40.5990,1382.36,46.40,42.80,87.19,330.00,6.00,0.00,30.04,M,10.00,M,SCT,OVC,M,M,3100.00,3900.00,M,M,M,M,M,M,M,M,M,42.87,KBAM 020535Z AUTO 33006KT 10SM SCT031 OVC039 08/06 A3004 RMK AO1,M
HTH,2023-10-02 05:35,-118.6315,38.5448,1282.89,48.20,44.60,87.28,290.00,3.00,0.00,30.05,M,10.00,M,BKN,BKN,OVC,M,4300.00,4800.00,7000.00,M,M,M,M,M,M,M,M,47.21,KHTH 020535Z AUTO 29003KT 10SM BKN043 BKN048 OVC070 09/07 A3005 RMK A01,M
TMT,2023-10-02 05:35,-117.1971,39.4643,1749.34,42.00,40.00,92.55,330.00,3.00,0.00,30.04,M,10.00,M,OVC,M,M,M,2200.00,M,M,M,M,M,M,M,M,M,M,40.12,KTMT 020535Z AUTO 33003KT 10SM OVC022 06/05 A3004 RMK AO2 T00550045,M
10U,2023-10-02 05:40,-116.1876,41.9532,1637.00,39.20,37.40,93.19,0.00,0.00,0.00,30.06,M,10.00,M,BKN,BKN,OVC,M,2100.00,2800.00,6000.00,M,-DZ,M,M,M,M,M,M,39.20,K10U 020540Z AUTO 00000KT 10SM -DZ BKN021 BKN028 OVC060 04/03 A3006 RMK AO2,M
05U,2023-10-02 05:50,-116.0051,39.6042,1811.23,42.80,41.00,93.30,0.00,0.00,0.00,30.03,M,10.00,M,OVC,M,M,M,2600.00,M,M,M,M,M,M,M,M,M,M,42.80,K05U 020550Z AUTO 00000KT 10SM OVC026 06/05 A3003 RMK A01,M
P68,2023-10-02 05:53,-116.0056,39.6014,1993.00,43.00,41.00,92.58,0.00,0.00,0.00,30.01,1013.00,M,M,M,M,M,M,M,M,M,M,M,M,M,M,M,M,M,43.00,KP68 020553Z AUTO 00000KT 06/05 A3001 RMK AO1 SLP130 60001 T00610050 10083 20061 50002,M
DRA,2023-10-02 05:53,-116.0278,36.6206,1009.00,59.00,35.00,40.45,90.00,9.00,0.00,29.93,1010.40,10.00,M,BKN,M,M,M,8000.00,M,M,M,M,M,M,M,M,M,M,59.00,KDRA 020553Z AUTO 09009KT 10SM BKN080 15/02 A2993 RMK AO2 SLP104 T01500017 10200 20139 53014 $,M
ELY,2023-10-02 05:53,-114.8453,39.2950,1909.00,31.00,29.00,92.19,180.00,5.00,0.00,30.01,1013.40,10.00,M,CLR,M,M,M,M,M,M,M,M,M,M,M,M,M,M,25.21,KELY 020553Z AUTO 18005KT 10SM CLR M01/M02 A3001 RMK AO2 SLP134 T10061017 10106 21006 50002,M
VGT,2023-10-02 05:53,-115.1933,36.2111,667.00,64.00,39.00,39.67,160.00,4.00,0.00,29.88,1012.00,10.00,M,CLR,M,M,M,M,M,M,M,M,M,M,M,M,M,M,64.00,KVGT 020553Z AUTO 16004KT 10SM CLR 18/04 A2988 RMK AO2 SLP120 60001 T01780039 10228 20178 51017,M
LOL,2023-10-02 05:53,-118.5701,40.0684,1192.43,47.00,42.00,82.65,60.00,6.00,0.00,30.04,M,10.00,M,BKN,BKN,OVC,M,6000.00,8500.00,11000.00,M,M,M,M,M,M,M,M,43.60,KLOL 020553Z AUTO 06006KT 10SM BKN060 BKN085 OVC110 08/06 A3004 RMK AO2 SLPNO T00830056 10100 20083 53004 $,M
BVU,2023-10-02 05:55,-114.8611,35.9475,671.00,60.80,37.40,41.71,320.00,6.00,0.00,29.87,M,10.00,M,CLR,M,M,M,M,M,M,M,M,M,M,M,M,M,M,60.80,KBVU 020555Z AUTO 32006KT 10SM CLR 16/03 A2987 RMK AO2,M
CXP,2023-10-02 05:55,-119.7326,39.1923,1431.00,48.20,39.20,70.88,80.00,5.00,0.00,30.07,M,10.00,M,OVC,M,M,M,3600.00,M,M,M,M,M,M,M,M,M,M,45.63,KCXP 020555Z AUTO 08005KT 10SM OVC036 09/04 A3007 RMK AO2,M
INS,2023-10-02 05:55,-115.6733,36.5872,955.00,59.00,33.30,37.79,180.00,9.00,0.00,29.92,1010.30,10.00,M,FEW,SCT,OVC,M,7000.00,9500.00,12000.00,M,M,M,M,M,M,M,M,59.00,KINS 020555Z AUTO 18009KT 10SM FEW070 SCT095 OVC120 15/01 A2992 RMK AO2 SLP103 T01490007 10209 20148 50014 $,M
RNO,2023-10-02 05:55,-119.7711,39.4839,1341.00,52.00,35.00,52.15,0.00,0.00,0.00,30.05,1015.30,10.00,M,FEW,OVC,M,M,3900.00,5500.00,M,M,M,M,M,M,M,M,M,52.00,KRNO 020555Z 00000KT 10SM FEW039 OVC055 11/02 A3005 RMK AO2 SLP153 T01110017 10117 20100 51004 $,M
LSV,2023-10-02 05:55,-115.0343,36.2362,570.00,63.70,37.60,37.95,270.00,10.00,0.00,29.85,1009.30,10.00,M,FEW,M,M,M,13000.00,M,M,M,M,M,M,M,M,M,M,63.70,KLSV 020555Z AUTO 27010KT 10SM FEW130 18/03 A2985 RMK AO2 SLP093 T01760031 10247 20176 51017 $,M
RTS,2023-10-02 05:55,-119.8764,39.6682,1539.00,46.40,33.80,61.28,0.00,0.00,0.00,30.06,M,10.00,M,OVC,M,M,M,4800.00,M,M,M,M,M,M,M,M,M,M,46.40,KRTS 020555Z AUTO 00000KT 10SM OVC048 08/01 A3006 RMK AO2,M
MEV,2023-10-02 05:55,-119.7500,38.9963,1441.42,48.20,37.40,66.05,320.00,7.00,0.00,30.05,M,10.00,M,OVC,M,M,M,3800.00,M,M,M,M,M,M,M,M,M,M,44.53,KMEV 020555Z AUTO 32007KT 10SM OVC038 09/03 A3005 RMK AO2,M
BAM,2023-10-02 05:55,-116.8743,40.5990,1382.36,46.40,42.80,87.19,330.00,6.00,0.00,30.04,M,10.00,M,OVC,M,M,M,3700.00,M,M,M,M,M,M,M,M,M,M,42.87,KBAM 020555Z AUTO 33006KT 10SM OVC037 08/06 A3004 RMK AO1,M
HTH,2023-10-02 05:55,-118.6315,38.5448,1282.89,48.20,42.80,81.47,0.00,0.00,0.00,30.05,M,10.00,M,OVC,M,M,M,4500.00,M,M,M,M,M,M,M,M,M,M,48.20,KHTH 020555Z AUTO 00000KT 10SM OVC045 09/06 A3005 RMK A01,M
TMT,2023-10-02 05:55,-117.1971,39.4643,1749.34,42.00,40.00,92.55,340.00,3.00,0.00,30.05,M,10.00,M,SCT,OVC,M,M,1900.00,2600.00,M,M,M,M,M,M,M,M,M,40.12,KTMT 020555Z AUTO 34003KT 10SM SCT019 OVC026 06/05 A3005 RMK AO2 60001 T00550045 10066 20055,M
EKO,2023-10-02 05:56,-115.7860,40.8242,1367.00,46.00,40.00,79.44,220.00,4.00,0.00,30.00,1014.20,10.00,M,BKN,OVC,M,M,5000.00,6000.00,M,M,M,M,M,M,M,M,M,43.77,KEKO 020556Z AUTO 22004KT 10SM BKN050 OVC060 08/04 A3000 RMK AO2 SLP142 T00780044 10117 20078 50001 $,M
WMC,2023-10-02 05:56,-117.8072,40.9019,1315.00,44.00,40.00,85.71,290.00,5.00,0.01,30.05,1016.70,10.00,M,SCT,OVC,M,M,2000.00,2600.00,M,M,M,M,M,M,M,M,M,40.65,KWMC 020556Z AUTO 29005KT 10SM SCT020 OVC026 07/04 A3005 RMK AO2 RAB10E32 SLP167 P0001 60001 T00670044 10094 20061 51003,M
NFL,2023-10-02 05:56,-118.7010,39.4166,1199.00,50.00,44.00,79.76,280.00,4.00,0.00,30.03,1013.90,10.00,M,OVC,M,M,M,5000.00,M,M,M,M,M,M,M,M,M,M,50.00,KNFL 020556Z AUTO 28004KT 10SM OVC050 10/07 A3003 RMK AO2 SLP139 T01000067 10111 20100 51003,M
HND,2023-10-02 05:56,-115.1344,35.9729,742.79,59.00,38.00,45.53,190.00,7.00,0.00,29.91,1013.40,10.00,M,SCT,M,M,M,10000.00,M,M,M,M,M,M,M,M,M,M,59.00,KHND 020556Z AUTO 19007KT 10SM SCT100 15/03 A2991 RMK AO2 SLP134 60000 T01500033 10217 20150 51014,M
TPH,2023-10-02 05:56,-117.0904,38.0505,1654.00,44.00,38.00,79.27,350.00,9.00,0.00,30.01,1014.30,10.00,M,CLR,M,M,M,M,M,M,M,M,M,M,M,M,M,M,38.44,KTPH 020556Z AUTO 35009KT 10SM CLR 07/03 A3001 RMK AO2 SLP143 T00670033 10100 20067 50000,M
LAS,2023-10-02 05:56,-115.1634,36.0719,663.00,60.00,43.00,53.34,210.00,7.00,0.00,29.89,1010.70,10.00,M,BKN,OVC,M,M,9000.00,12000.00,M,M,M,M,M,M,M,M,M,60.00,KLAS 020556Z 21007KT 10SM BKN090 OVC120 16/06 A2989 RMK AO2 SLP107 ACC E 60013 T01560061 10228 20156 50014,M
10U,2023-10-02 06:00,-116.1876,41.9532,1637.00,39.20,37.40,93.19,0.00,0.00,0.00,30.06,M,10.00,M,OVC,M,M,M,2000.00,M,M,M,M,M,M,M,M,M,M,39.20,K10U 020600Z AUTO 00000KT 10SM OVC020 04/03 A3006 RMK AO2,M
05U,2023-10-02 06:10,-116.0051,39.6042,1811.23,42.80,41.00,93.30,0.00,0.00,0.00,30.03,M,10.00,M,SCT,OVC,M,M,800.00,2700.00,M,M,M,M,M,M,M,M,M,42.80,K05U 020610Z AUTO 00000KT 10SM SCT008 OVC027 06/05 A3003 RMK A01,M
BVU,2023-10-02 06:15,-114.8611,35.9475,671.00,60.80,37.40,41.71,330.00,6.00,0.00,29.87,M,10.00,M,CLR,M,M,M,M,M,M,M,M,M,M,M,M,M,M,60.80,KBVU 020615Z AUTO 33006KT 10SM CLR 16/03 A2987 RMK AO2,M
CXP,2023-10-02 06:15,-119.7326,39.1923,1431.00,48.20,39.20,70.88,100.00,5.00,0.00,30.07,M,10.00,M,OVC,M,M,M,3700.00,M,M,M,M,M,M,M,M,M,M,45.63,KCXP 020615Z AUTO 10005KT 10SM OVC037 09/04 A3007 RMK AO2,M
RTS,2023-10-02 06:15,-119.8764,39.6682,1539.00,46.40,33.80,61.28,0.00,0.00,0.00,30.07,M,10.00,M,OVC,M,M,M,4900.00,M,M,M,M,M,M,M,M,M,M,46.40,KRTS 020615Z AUTO 00000KT 10SM OVC049 08/01 A3007 RMK AO2,M
MEV,2023-10-02 06:15,-119.7500,38.9963,1441.42,48.20,37.40,66.05,330.00,6.00,0.00,30.05,M,10.00,M,OVC,M,M,M,3800.00,M,M,M,M,M,M,M,M,M,M,45.04,KMEV 020615Z AUTO 33006KT 10SM OVC038 09/03 A3005 RMK AO2,M
BAM,2023-10-02 06:15,-116.8743,40.5990,1382.36,46.40,42.80,87.19,330.00,7.00,0.00,30.04,M,10.00,M,OVC,M,M,M,3900.00,M,M,M,M,M,M,M,M,M,M,42.33,KBAM 020615Z AUTO 33007KT 10SM OVC039 08/06 A3004 RMK AO1,M
HTH,2023-10-02 06:15,-118.6315,38.5448,1282.89,48.20,42.80,81.47,0.00,0.00,0.00,30.04,M,10.00,M,BKN,BKN,OVC,M,4800.00,5500.00,7000.00,M,M,M,M,M,M,M,M,48.20,KHTH 020615Z AUTO 00000KT 10SM BKN048 BKN055 OVC070 09/06 A3004 RMK A01,M
TMT,2023-10-02 06:15,-117.1971,39.4643,1749.34,42.00,40.30,93.64,0.00,0.00,0.00,30.04,M,10.00,M,SCT,OVC,M,M,1900.00,2600.00,M,M,M,M,M,M,M,M,M,42.00,KTMT 020615Z AUTO 00000KT 10SM SCT019 OVC026 06/05 A3004 RMK AO2 T00550046,M
10U,2023-10-02 06:20,-116.1876,41.9532,1637.00,39.20,37.40,93.19,0.00,0.00,0.00,30.06,M,10.00,M,OVC,M,M,M,1900.00,M,M,M,M,M,M,M,M,M,M,39.20,K10U 020620Z AUTO 00000KT 10SM OVC019 04/03 A3006 RMK AO2,M
WMC,2023-10-02 06:22,-117.8072,40.9019,1315.00,44.00,40.00,85.71,270.00,4.00,0.00,30.05,M,10.00,M,FEW,OVC,M,M,2000.00,3000.00,M,M,M,M,M,M,M,M,M,41.43,KWMC 020622Z AUTO 27004KT 10SM FEW020 OVC030 07/04 A3005 RMK AO2 T00670044,M
05U,2023-10-02 06:30,-116.0051,39.6042,1811.23,41.00,41.00,100.00,0.00,0.00,0.00,30.03,M,10.00,M,FEW,SCT,SCT,M,800.00,2500.00,5000.00,M,M,M,M,M,M,M,M,41.00,K05U 020630Z AUTO 00000KT 10SM FEW008 SCT025 SCT050 05/05 A3003 RMK A01,M
BVU,2023-10-02 06:35,-114.8611,35.9475,671.00,60.80,37.40,41.71,340.00,4.00,0.00,29.88,M,10.00,M,FEW,M,M,M,12000.00,M,M,M,M,M,M,M,M,M,M,60.80,KBVU 020635Z AUTO 34004KT 10SM FEW120 16/03 A2988 RMK AO2,M
CXP,2023-10-02 06:35,-119.7326,39.1923,1431.00,48.20,39.20,70.88,80.00,4.00,0.00,30.07,M,10.00,M,OVC,M,M,M,3800.00,M,M,M,M,M,M,M,M,M,M,46.34,KCXP 020635Z AUTO 08004KT 10SM OVC038 09/04 A3007 RMK AO2,M
RTS,2023-10-02 06:35,-119.8764,39.6682,1539.00,46.40,35.60,65.83,270.00,3.00,0.00,30.06,M,10.00,M,OVC,M,M,M,5000.00,M,M,M,M,M,M,M,M,M,M,45.15,KRTS 020635Z AUTO 27003KT 10SM OVC050 08/02 A3006 RMK AO2,M
MEV,2023-10-02 06:35,-119.7500,38.9963,1441.42,48.20,39.20,70.88,350.00,7.00,0.00,30.05,M,10.00,M,OVC,M,M,M,4000.00,M,M,M,M,M,M,M,M,M,M,44.53,KMEV 020635Z AUTO 35007KT 10SM OVC040 09/04 A3005 RMK AO2,M
BAM,2023-10-02 06:35,-116.8743,40.5990,1382.36,46.40,41.00,81.34,340.00,5.00,0.00,30.04,M,10.00,M,SCT,BKN,OVC,M,2900.00,3900.00,6000.00,M,M,M,M,M,M,M,M,43.50,KBAM 020635Z AUTO 34005KT 10SM SCT029 BKN039 OVC060 08/05 A3004 RMK AO1,M
HTH,2023-10-02 06:35,-118.6315,38.5448,1282.89,48.20,42.80,81.47,310.00,4.00,0.00,30.04,M,10.00,M,BKN,BKN,OVC,M,4700.00,5500.00,7000.00,M,M,M,M,M,M,M,M,46.34,KHTH 020635Z AUTO 31004KT 10SM BKN047 BKN055 OVC070 09/06 A3004 RMK A01,M
TMT,2023-10-02 06:35,-117.1971,39.4643,1749.34,42.00,40.00,92.55,0.00,0.00,0.00,30.04,M,10.00,M,OVC,M,M,M,2800.00,M,M,M,M,M,M,M,M,M,M,42.00,KTMT 020635Z AUTO 00000KT 10SM OVC028 06/05 A3004 RMK AO2 T00550045,M
10U,2023-10-02 06:40,-116.1876,41.9532,1637.00,39.20,37.40,93.19,0.00,0.00,0.00,30.06,M,10.00,M,SCT,BKN,OVC,M,1900.00,3400.00,4700.00,M,M,M,M,M,M,M,M,39.20,K10U 020640Z AUTO 00000KT 10SM SCT019 BKN034 OVC047 04/03 A3006 RMK AO2,M
05U,2023-10-02 06:50,-116.0051,39.6042,1811.23,41.00,41.00,100.00,0.00,0.00,0.00,30.03,M,10.00,M,FEW,BKN,BKN,M,1400.00,2400.00,3500.00,M,M,M,M,M,M,M,M,41.00,K05U 020650Z AUTO 00000KT 10SM FEW014 BKN024 BKN035 05/05 A3003 RMK A01,M
P68,2023-10-02 06:53,-116.0056,39.6014,1993.00,42.00,41.00,96.21,0.00,0.00,0.00,30.00,1012.80,M,M,M,M,M,M,M,M,M,M,M,M,M,M,M,M,M,42.00,KP68 020653Z AUTO 00000KT 06/05 A3000 RMK AO1 SLP128 T00560050,M
DRA,2023-10-02 06:53,-116.0278,36.6206,1009.00,56.00,35.00,45.06,20.00,6.00,0.00,29.92,1010.20,10.00,M,CLR,M,M,M,M,M,M,M,M,M,M,M,M,M,M,56.00,KDRA 020653Z AUTO 02006KT 10SM CLR 13/02 A2992 RMK AO2 SLP102 T01330017 $,M
ELY,2023-10-02 06:53,-114.8453,39.2950,1909.00,30.00,28.00,92.15,180.00,8.00,0.00,30.00,1013.00,10.00,M,CLR,M,M,M,M,M,M,M,M,M,M,M,M,M,M,21.65,KELY 020653Z AUTO 18008KT 10SM CLR M01/M02 A3000 RMK AO2 SLP130 T10111022,M
VGT,2023-10-02 06:53,-115.1933,36.2111,667.00,64.00,38.00,38.15,280.00,3.00,0.00,29.88,1011.90,10.00,M,CLR,M,M,M,M,M,M,M,M,M,M,M,M,M,M,64.00,KVGT 020653Z AUTO 28003KT 10SM CLR 18/03 A2988 RMK AO2 SLP119 T01780033,M
LOL,2023-10-02 06:53,-118.5701,40.0684,1192.43,46.00,42.00,85.83,30.00,8.00,T,30.03,1016.50,10.00,M,FEW,BKN,OVC,M,4700.00,6500.00,8000.00,M,-RA,M,M,M,M,M,M,41.36,KLOL 020653Z AUTO 03008KT 10SM -RA FEW047 BKN065 OVC080 08/06 A3003 RMK AO2 RAB16 SLP165 P0000 T00780056 $,M
BVU,2023-10-02 06:55,-114.8611,35.9475,671.00,60.80,37.40,41.71,120.00,3.00,0.00,29.89,M,10.00,M,BKN,BKN,M,M,8500.00,12000.00,M,M,M,M,M,M,M,M,M,60.80,KBVU 020655Z AUTO 12003KT 10SM BKN085 BKN120 16/03 A2989 RMK AO2,M
CXP,2023-10-02 06:55,-119.7326,39.1923,1431.00,48.20,39.20,70.88,0.00,0.00,0.00,30.06,M,10.00,M,SCT,BKN,OVC,M,3900.00,4600.00,5500.00,M,M,M,M,M,M,M,M,48.20,KCXP 020655Z AUTO 00000KT 10SM SCT039 BKN046 OVC055 09/04 A3006 RMK AO2,M
INS,2023-10-02 06:55,-115.6733,36.5872,955.00,58.00,32.00,37.18,220.00,4.00,0.00,29.91,1010.00,10.00,M,FEW,BKN,M,M,10000.00,13000.00,M,M,M,M,M,M,M,M,M,58.00,KINS 020655Z AUTO 22004KT 10SM FEW100 BKN130 15/00 A2991 RMK AO2 SLP100 T01450000 $,M
RNO,2023-10-02 06:55,-119.7711,39.4839,1341.00,51.00,39.00,63.36,120.00,3.00,0.00,30.04,1015.00,10.00,M,FEW,OVC,M,M,3500.00,4900.00,M,M,M,M,M,M,M,M,M,51.00,KRNO 020655Z 12003KT 10SM FEW035 OVC049 11/04 A3004 RMK AO2 SLP150 T01060039 $,M
LSV,2023-10-02 06:55,-115.0343,36.2362,570.00,62.60,39.20,42.00,180.00,9.00,0.00,29.84,1009.00,10.00,M,CLR,M,M,M,M,M,M,M,M,M,M,M,M,M,M,62.60,KLSV 020655Z AUTO 18009KT 10SM CLR 17/04 A2984 RMK AO2 SLP090 T01700040 $,M
RTS,2023-10-02 06:55,-119.8764,39.6682,1539.00,46.40,33.80,61.28,310.00,4.00,0.00,30.06,M,10.00,M,OVC,M,M,M,5000.00,M,M,M,M,M,M,M,M,M,M,44.24,KRTS 020655Z AUTO 31004KT 10SM OVC050 08/01 A3006 RMK AO2,M
MEV,2023-10-02 06:55,-119.7500,38.9963,1441.42,48.20,39.20,70.88,350.00,6.00,0.00,30.05,M,10.00,M,BKN,OVC,M,M,4200.00,5000.00,M,M,M,M,M,M,M,M,M,45.04,KMEV 020655Z AUTO 35006KT 10SM BKN042 OVC050 09/04 A3005 RMK AO2,M
BAM,2023-10-02 06:55,-116.8743,40.5990,1382.36,46.40,41.00,81.34,340.00,6.00,0.00,30.04,M,10.00,M,OVC,M,M,M,2900.00,M,M,M,M,M,M,M,M,M,M,42.87,KBAM 020655Z AUTO 34006KT 10SM OVC029 08/05 A3004 RMK AO1,M
HTH,2023-10-02 06:55,-118.6315,38.5448,1282.89,48.20,42.80,81.47,290.00,5.00,0.00,30.04,M,10.00,M,OVC,M,M,M,4300.00,M,M,M,M,M,M,M,M,M,M,45.63,KHTH 020655Z AUTO 29005KT 10SM OVC043 09/06 A3004 RMK A01,M
TMT,2023-10-02 06:55,-117.1971,39.4643,1749.34,42.00,40.00,92.55,0.00,0.00,0.00,30.03,M,10.00,M,SCT,BKN,OVC,M,1600.00,2100.00,3000.00,M,M,M,M,M,M,M,M,42.00,KTMT 020655Z AUTO 00000KT 10SM SCT016 BKN021 OVC030 06/05 A3003 RMK AO2 T00550045,M
EKO,2023-10-02 06:56,-115.7860,40.8242,1367.00,45.00,40.00,82.51,190.00,3.00,0.00,29.99,1014.20,10.00,M,FEW,BKN,OVC,M,1900.00,6500.00,7500.00,M,M,M,M,M,M,M,M,43.55,KEKO 020656Z AUTO 19003KT 10SM FEW019 BKN065 OVC075 07/04 A2999 RMK AO2 SLP142 T00720044 $,M
WMC,2023-10-02 06:56,-117.8072,40.9019,1315.00,44.00,41.00,89.11,320.00,4.00,0.00,30.04,1016.40,10.00,M,SCT,OVC,M,M,1800.00,2900.00,M,M,M,M,M,M,M,M,M,41.43,KWMC 020656Z AUTO 32004KT 10SM SCT018 OVC029 07/05 A3004 RMK AO2 SLP164 T00670050,M
NFL,2023-10-02 06:56,-118.7010,39.4166,1199.00,50.00,45.00,82.86,270.00,4.00,0.00,30.03,1013.80,10.00,M,OVC,M,M,M,3600.00,M,M,M,M,M,M,M,M,M,M,50.00,KNFL 020656Z AUTO 27004KT 10SM OVC036 10/07 A3003 RMK AO2 SLP138 T01000072,M
HND,2023-10-02 06:56,-115.1344,35.9729,742.79,58.00,38.00,47.20,170.00,8.00,0.00,29.91,1013.20,10.00,M,CLR,M,M,M,M,M,M,M,M,M,M,M,M,M,M,58.00,KHND 020656Z AUTO 17008KT 10SM CLR 14/03 A2991 RMK AO2 SLP132 T01440033 402280128,M
TPH,2023-10-02 06:56,-117.0904,38.0505,1654.00,44.00,37.00,76.22,320.00,8.00,0.00,30.00,1013.70,10.00,M,CLR,M,M,M,M,M,M,M,M,M,M,M,M,M,M,38.90,KTPH 020656Z AUTO 32008KT 10SM CLR 07/03 A3000 RMK AO2 SLP137 T00670028,M
LAS,2023-10-02 06:56,-115.1634,36.0719,663.00,60.00,43.00,53.34,200.00,8.00,0.00,29.88,1010.30,10.00,M,FEW,BKN,M,M,6000.00,8500.00,M,M,M,M,M,M,M,M,M,60.00,KLAS 020656Z 20008KT 10SM FEW060 BKN085 16/06 A2988 RMK AO2 SLP103 ACC SW-W T01560061,M
10U,2023-10-02 07:00,-116.1876,41.9532,1637.00,39.20,37.40,93.19,0.00,0.00,0.00,30.06,M,10.00,M,FEW,BKN,OVC,M,1200.00,2000.00,4700.00,M,-DZ,M,M,M,M,M,M,39.20,K10U 020700Z AUTO 00000KT 10SM -DZ FEW012 BKN020 OVC047 04/03 A3006 RMK AO2,M
05U,2023-10-02 07:10,-116.0051,39.6042,1811.23,42.80,41.00,93.30,0.00,0.00,0.00,30.03,M,10.00,M,SCT,BKN,OVC,M,1400.00,1900.00,2400.00,M,M,M,M,M,M,M,M,42.80,K05U 020710Z AUTO 00000KT 10SM SCT014 BKN019 OVC024 06/05 A3003 RMK A01,M
BVU,2023-10-02 07:15,-114.8611,35.9475,671.00,60.80,37.40,41.71,0.00,0.00,0.00,29.89,M,10.00,M,OVC,M,M,M,8000.00,M,M,M,M,M,M,M,M,M,M,60.80,KBVU 020715Z AUTO 00000KT 10SM OVC080 16/03 A2989 RMK AO2,M
CXP,2023-10-02 07:15,-119.7326,39.1923,1431.00,48.20,39.20,70.88,0.00,0.00,0.00,30.06,M,10.00,M,SCT,BKN,OVC,M,3700.00,4500.00,5000.00,M,M,M,M,M,M,M,M,48.20,KCXP 020715Z AUTO 00000KT 10SM SCT037 BKN045 OVC050 09/04 A3006 RMK AO2,M
RTS,2023-10-02 07:15,-119.8764,39.6682,1539.00,44.60,35.60,70.48,340.00,4.00,0.00,30.06,M,10.00,M,BKN,OVC,M,M,4600.00,5000.00,M,M,M,M,M,M,M,M,M,42.13,KRTS 020715Z AUTO 34004KT 10SM BKN046 OVC050 07/02 A3006 RMK AO2,M
MEV,2023-10-02 07:15,-119.7500,38.9963,1441.42,48.20,39.20,70.88,340.00,6.00,0.00,30.04,M,10.00,M,FEW,OVC,M,M,4400.00,5500.00,M,M,M,M,M,M,M,M,M,45.04,KMEV 020715Z AUTO 34006KT 10SM FEW044 OVC055 09/04 A3004 RMK AO2,M
BAM,2023-10-02 07:15,-116.8743,40.5990,1382.36,46.40,41.00,81.34,350.00,5.00,0.00,30.04,M,10.00,M,OVC,M,M,M,2900.00,M,M,M,M,M,M,M,M,M,M,43.50,KBAM 020715Z AUTO 35005KT 10SM OVC029 08/05 A3004 RMK AO1,M
HTH,2023-10-02 07:15,-118.6315,38.5448,1282.89,48.20,41.00,76.01,330.00,5.00,0.00,30.04,M,10.00,M,BKN,BKN,OVC,M,3700.00,4300.00,5500.00,M,M,M,M,M,M,M,M,45.63,KHTH 020715Z AUTO 33005KT 10SM BKN037 BKN043 OVC055 09/05 A3004 RMK A01,M
TMT,2023-10-02 07:15,-117.1971,39.4643,1749.34,42.00,40.00,92.55,0.00,0.00,0.00,30.03,M,10.00,M,OVC,M,M,M,1400.00,M,M,M,M,M,M,M,M,M,M,42.00,KTMT 020715Z AUTO 00000KT 10SM OVC014 06/04 A3003 RMK AO2 T00560044,M
EKO,2023-10-02 07:18,-115.7860,40.8242,1367.00,44.00,40.00,85.71,0.00,0.00,0.00,30.00,M,10.00,M,BKN,OVC,M,M,2000.00,6000.00,M,M,M,M,M,M,M,M,M,44.00,KEKO 020718Z AUTO 00000KT 10SM BKN020 OVC060 07/04 A3000 RMK AO2 T00670044 $,M
10U,2023-10-02 07:20,-116.1876,41.9532,1637.00,39.20,37.40,93.19,0.00,0.00,0.00,30.06,M,10.00,M,BKN,OVC,M,M,1200.00,2000.00,M,M,-RA,M,M,M,M,M,M,39.20,K10U 020720Z AUTO 00000KT 10SM -RA BKN012 OVC020 04/03 A3006 RMK AO2,M
05U,2023-10-02 07:30,-116.0051,39.6042,1811.23,42.80,41.00,93.30,0.00,0.00,0.00,30.03,M,10.00,M,SCT,BKN,OVC,M,1900.00,2400.00,3300.00,M,M,M,M,M,M,M,M,42.80,K05U 020730Z AUTO 00000KT 10SM SCT019 BKN024 OVC033 06/05 A3003 RMK A01,M
BVU,2023-10-02 07:35,-114.8611,35.9475,671.00,59.00,39.20,47.72,0.00,0.00,0.00,29.89,M,10.00,M,SCT,OVC,M,M,8000.00,11000.00,M,M,M,M,M,M,M,M,M,59.00,KBVU 020735Z AUTO 00000KT 10SM SCT080 OVC110 15/04 A2989 RMK AO2,M
CXP,2023-10-02 07:35,-119.7326,39.1923,1431.00,48.20,41.00,76.01,0.00,0.00,0.00,30.06,M,10.00,M,SCT,SCT,OVC,M,3600.00,4300.00,5000.00,M,M,M,M,M,M,M,M,48.20,KCXP 020735Z AUTO 00000KT 10SM SCT036 SCT043 OVC050 09/05 A3006 RMK AO2,M
RTS,2023-10-02 07:35,-119.8764,39.6682,1539.00,44.60,33.80,65.61,0.00,0.00,0.00,30.06,M,10.00,M,BKN,OVC,M,M,4400.00,5000.00,M,M,M,M,M,M,M,M,M,44.60,KRTS 020735Z AUTO 00000KT 10SM BKN044 OVC050 07/01 A3006 RMK AO2,M
MEV,2023-10-02 07:35,-119.7500,38.9963,1441.42,48.20,39.20,70.88,330.00,7.00,0.00,30.05,M,10.00,M,BKN,OVC,M,M,5000.00,5500.00,M,M,M,M,M,M,M,M,M,44.53,KMEV 020735Z AUTO 33007KT 10SM BKN050 OVC055 09/04 A3005 RMK AO2,M
BAM,2023-10-02 07:35,-116.8743,40.5990,1382.36,46.40,41.00,81.34,330.00,4.00,0.00,30.04,M,10.00,M,OVC,M,M,M,2900.00,M,M,M,M,M,M,M,M,M,M,44.24,KBAM 020735Z AUTO 33004KT 10SM OVC029 08/05 A3004 RMK AO1,M
HTH,2023-10-02 07:35,-118.6315,38.5448,1282.89,50.00,41.00,71.07,M,6.00,0.00,30.04,M,10.00,M,FEW,SCT,BKN,M,3000.00,3600.00,4800.00,M,M,M,M,M,M,M,M,50.00,KHTH 020735Z AUTO VRB06KT 10SM FEW030 SCT036 BKN048 10/05 A3004 RMK A01,M
TMT,2023-10-02 07:35,-117.1971,39.4643,1749.34,42.00,39.70,91.48,330.00,3.00,0.00,30.03,M,10.00,M,OVC,M,M,M,1600.00,M,M,M,M,M,M,M,M,M,M,40.12,KTMT 020735Z AUTO 33003KT 10SM OVC016 06/04 A3003 RMK AO2 T00550043,M
10U,2023-10-02 07:40,-116.1876,41.9532,1637.00,39.20,37.40,93.19,0.00,0.00,0.00,30.05,M,10.00,M,SCT,OVC,M,M,1200.00,1900.00,M,M,M,M,M,M,M,M,M,39.20,K10U 020740Z AUTO 00000KT 10SM SCT012 OVC019 04/03 A3005 RMK AO2,M
05U,2023-10-02 07:50,-116.0051,39.6042,1811.23,42.80,41.00,93.30,0.00,0.00,0.00,30.02,M,10.00,M,OVC,M,M,M,3200.00,M,M,M,M,M,M,M,M,M,M,42.80,K05U 020750Z AUTO 00000KT 10SM OVC032 06/05 A3002 RMK A01,M
P68,2023-10-02 07:53,-116.0056,39.6014,1993.00,43.00,42.00,96.23,0.00,0.00,0.00,30.00,1012.80,M,M,M,M,M,M,M,M,M,M,M,M,M,M,M,M,M,43.00,KP68 020753Z AUTO 00000KT 06/06 A3000 RMK AO1 SLP128 T00610056 401060044,M
DRA,2023-10-02 07:53,-116.0278,36.6206,1009.00,54.00,36.00,50.42,330.00,5.00,0.00,29.92,1010.40,10.00,M,CLR,M,M,M,M,M,M,M,M,M,M,M,M,M,M,54.00,KDRA 020753Z AUTO 33005KT 10SM CLR 12/02 A2992 RMK AO2 SLP104 T01220022 402110106 $,M
ELY,2023-10-02 07:53,-114.8453,39.2950,1909.00,31.00,28.00,88.48,210.00,8.00,0.00,29.99,1012.90,10.00,M,CLR,M,M,M,M,M,M,M,M,M,M,M,M,M,M,22.88,KELY 020753Z AUTO 21008KT 10SM CLR M01/M02 A2999 RMK AO2 SLP129 T10061022 401281017,M
VGT,2023-10-02 07:53,-115.1933,36.2111,667.00,64.00,38.00,38.15,280.00,6.00,0.00,29.87,1011.60,10.00,M,CLR,M,M,M,M,M,M,M,M,M,M,M,M,M,M,64.00,KVGT 020753Z AUTO 28006KT 10SM CLR 18/03 A2987 RMK AO2 SLP116 T01780033 402390144,M
LOL,2023-10-02 07:53,-118.5701,40.0684,1192.43,45.00,41.00,85.77,50.00,7.00,T,30.03,1016.60,10.00,M,FEW,OVC,M,M,3800.00,6000.00,M,M,M,M,M,M,M,M,M,40.63,KLOL 020753Z AUTO 05007KT 10SM FEW038 OVC060 07/05 A3003 RMK AO2 RAE47 SLP166 P0000 T00720050 401060072 $,M
BVU,2023-10-02 07:55,-114.8611,35.9475,671.00,57.20,41.00,54.60,0.00,0.00,0.00,29.89,M,10.00,M,SCT,M,M,M,11000.00,M,M,M,M,M,M,M,M,M,M,57.20,KBVU 020755Z AUTO 00000KT 10SM SCT110 14/05 A2989 RMK AO2,M
CXP,2023-10-02 07:55,-119.7326,39.1923,1431.00,46.40,41.00,81.34,0.00,0.00,0.00,30.06,M,10.00,M,FEW,SCT,OVC,M,3700.00,4200.00,5000.00,M,M,M,M,M,M,M,M,46.40,KCXP 020755Z AUTO 00000KT 10SM FEW037 SCT042 OVC050 08/05 A3006 RMK AO2,M
INS,2023-10-02 07:55,-115.6733,36.5872,955.00,55.40,32.00,40.84,0.00,0.00,0.00,29.91,1010.00,10.00,M,CLR,M,M,M,M,M,M,M,M,M,M,M,M,M,M,55.40,KINS 020755Z AUTO 00000KT 10SM CLR 13/00 A2991 RMK AO2 SLP100 T01300000 402100108 $,M
RNO,2023-10-02 07:55,-119.7711,39.4839,1341.00,51.00,38.00,60.92,0.00,0.00,0.00,30.04,1015.10,10.00,M,FEW,OVC,M,M,2000.00,5000.00,M,M,M,M,M,M,M,M,M,51.00,KRNO 020755Z 00000KT 10SM FEW020 OVC050 11/03 A3004 RMK AO2 SLP151 T01060033 401280083 $,M
RTS,2023-10-02 07:55,-119.8764,39.6682,1539.00,44.60,33.80,65.61,300.00,4.00,0.00,30.06,M,10.00,M,BKN,OVC,M,M,4400.00,5000.00,M,M,M,M,M,M,M,M,M,42.13,KRTS 020755Z AUTO 30004KT 10SM BKN044 OVC050 07/01 A3006 RMK AO2,M
MEV,2023-10-02 07:55,-119.7500,38.9963,1441.42,46.40,39.20,75.84,330.00,5.00,0.00,30.04,M,10.00,M,OVC,M,M,M,5000.00,M,M,M,M,M,M,M,M,M,M,43.50,KMEV 020755Z AUTO 33005KT 10SM OVC050 08/04 A3004 RMK AO2,M
BAM,2023-10-02 07:55,-116.8743,40.5990,1382.36,44.60,41.00,87.09,330.00,6.00,0.00,30.04,M,10.00,M,OVC,M,M,M,2900.00,M,M,M,M,M,M,M,M,M,M,40.71,KBAM 020755Z AUTO 33006KT 10SM OVC029 07/05 A3004 RMK AO1,M
HTH,2023-10-02 07:55,-118.6315,38.5448,1282.89,50.00,41.00,71.07,300.00,5.00,0.00,30.04,M,10.00,M,FEW,BKN,OVC,M,2800.00,5500.00,6500.00,M,M,M,M,M,M,M,M,50.00,KHTH 020755Z AUTO 30005KT 10SM FEW028 BKN055 OVC065 10/05 A3004 RMK A01,M
TMT,2023-10-02 07:55,-117.1971,39.4643,1749.34,41.50,40.00,94.35,320.00,4.00,0.00,30.03,M,10.00,M,OVC,M,M,M,1800.00,M,M,M,-RA,M,M,M,M,M,M,38.51,KTMT 020755Z AUTO 32004KT 10SM -RA OVC018 05/04 A3003 RMK AO2 T00530044 400780048,M
LSV,2023-10-02 07:55,-115.0343,36.2362,570.00,61.00,40.30,46.39,190.00,12.00,0.00,29.84,1009.00,10.00,M,CLR,M,M,M,M,M,M,M,M,M,M,M,M,M,M,61.00,KLSV 020755Z AUTO 19012KT 10SM CLR 16/05 A2984 RMK AO2 SLP090 T01620046 402760148 $,M
EKO,2023-10-02 07:56,-115.7860,40.8242,1367.00,43.00,39.00,85.66,250.00,3.00,0.00,29.99,1014.40,10.00,M,BKN,OVC,M,M,2200.00,3900.00,M,M,M,M,M,M,M,M,M,41.26,KEKO 020756Z AUTO 25003KT 10SM BKN022 OVC039 06/04 A2999 RMK AO2 SLP144 T00610039 401220061 $,M
WMC,2023-10-02 07:56,-117.8072,40.9019,1315.00,44.00,41.00,89.11,280.00,4.00,T,30.04,1016.10,10.00,M,FEW,OVC,M,M,1700.00,2600.00,M,M,M,M,M,M,M,M,M,41.43,KWMC 020756Z AUTO 28004KT 10SM FEW017 OVC026 07/05 A3004 RMK AO2 RAB40E54 SLP161 P0000 T00670050 401000056,M
NFL,2023-10-02 07:56,-118.7010,39.4166,1199.00,50.00,44.00,79.76,290.00,3.00,0.00,30.03,1013.70,10.00,M,BKN,OVC,M,M,4100.00,6000.00,M,M,M,M,M,M,M,M,M,50.00,KNFL 020756Z AUTO 29003KT 10SM BKN041 OVC060 10/07 A3003 RMK AO2 SLP137 T01000067 401110078,M
HND,2023-10-02 07:56,-115.1344,35.9729,742.79,58.00,39.00,49.08,170.00,7.00,0.00,29.91,1013.10,10.00,M,CLR,M,M,M,M,M,M,M,M,M,M,M,M,M,M,58.00,KHND 020756Z AUTO 17007KT 10SM CLR 14/04 A2991 RMK AO2 SLP131 T01440039,M
TPH,2023-10-02 07:56,-117.0904,38.0505,1654.00,44.00,37.00,76.22,320.00,13.00,0.00,30.00,1013.30,10.00,23.00,FEW,OVC,M,M,3600.00,4400.00,M,M,M,M,M,M,M,M,M,36.94,KTPH 020756Z AUTO 32013G23KT 10SM FEW036 OVC044 07/03 A3000 RMK AO2 SLP133 T00670028 401280056,M
LAS,2023-10-02 07:56,-115.1634,36.0719,663.00,59.00,41.00,51.18,180.00,5.00,0.00,29.88,1010.50,10.00,M,FEW,BKN,M,M,8000.00,14000.00,M,M,M,M,M,M,M,M,M,59.00,KLAS 020756Z 18005KT 10SM FEW080 BKN140 15/05 A2988 RMK AO2 SLP105 T01500050 402330144,M
10U,2023-10-02 08:00,-116.1876,41.9532,1637.00,39.20,37.40,93.19,0.00,0.00,0.00,30.05,M,10.00,M,SCT,OVC,M,M,1200.00,1900.00,M,M,M,M,M,M,M,M,M,39.20,K10U 020800Z AUTO 00000KT 10SM SCT012 OVC019 04/03 A3005 RMK AO2,M
EKO,2023-10-02 08:04,-115.7860,40.8242,1367.00,42.00,39.00,89.01,240.00,3.00,0.00,29.99,M,10.00,M,SCT,OVC,M,M,2200.00,3900.00,M,M,M,M,M,M,M,M,M,40.12,KEKO 020804Z AUTO 24003KT 10SM SCT022 OVC039 06/04 A2999 RMK AO2 T00560039 $,M
05U,2023-10-02 08:10,-116.0051,39.6042,1811.23,42.80,41.00,93.30,0.00,0.00,0.00,30.03,M,10.00,M,SCT,SCT,OVC,M,900.00,1300.00,3200.00,M,M,M,M,M,M,M,M,42.80,K05U 020810Z AUTO 00000KT 10SM SCT009 SCT013 OVC032 06/05 A3003 RMK A01,M
BVU,2023-10-02 08:15,-114.8611,35.9475,671.00,57.20,41.00,54.60,40.00,3.00,0.00,29.89,M,10.00,M,CLR,M,M,M,M,M,M,M,M,M,M,M,M,M,M,57.20,KBVU 020815Z AUTO 04003KT 10SM CLR 14/05 A2989 RMK AO2,M
CXP,2023-10-02 08:15,-119.7326,39.1923,1431.00,46.40,41.00,81.34,0.00,0.00,0.00,30.06,M,10.00,M,FEW,FEW,OVC,M,3700.00,4200.00,4900.00,M,M,M,M,M,M,M,M,46.40,KCXP 020815Z AUTO 00000KT 10SM FEW037 FEW042 OVC049 08/05 A3006 RMK AO2,M
RTS,2023-10-02 08:15,-119.8764,39.6682,1539.00,44.60,33.80,65.61,310.00,3.00,0.00,30.06,M,10.00,M,OVC,M,M,M,4400.00,M,M,M,M,M,M,M,M,M,M,43.09,KRTS 020815Z AUTO 31003KT 10SM OVC044 07/01 A3006 RMK AO2,M
MEV,2023-10-02 08:15,-119.7500,38.9963,1441.42,46.40,39.20,75.84,350.00,5.00,0.00,30.05,M,10.00,M,OVC,M,M,M,5000.00,M,M,M,M,M,M,M,M,M,M,43.50,KMEV 020815Z AUTO 35005KT 10SM OVC050 08/04 A3005 RMK AO2,M
BAM,2023-10-02 08:15,-116.8743,40.5990,1382.36,44.60,42.80,93.35,330.00,7.00,0.00,30.04,M,10.00,M,OVC,M,M,M,2900.00,M,M,M,M,M,M,M,M,M,M,40.14,KBAM 020815Z AUTO 33007KT 10SM OVC029 07/06 A3004 RMK AO1,M
HTH,2023-10-02 08:15,-118.6315,38.5448,1282.89,50.00,41.00,71.07,290.00,5.00,0.00,30.04,M,10.00,M,FEW,OVC,M,M,2800.00,6000.00,M,M,M,M,M,M,M,M,M,50.00,KHTH 020815Z AUTO 29005KT 10SM FEW028 OVC060 10/05 A3004 RMK A01,M
TMT,2023-10-02 08:15,-117.1971,39.4643,1749.34,41.40,40.00,94.72,340.00,7.00,0.00,30.04,M,10.00,M,OVC,M,M,M,2000.00,M,M,M,RA,M,M,M,M,M,M,36.24,KTMT 020815Z AUTO 34007KT 10SM RA OVC020 05/04 A3004 RMK AO2 T00520044,M
10U,2023-10-02 08:20,-116.1876,41.9532,1637.00,39.20,37.40,93.19,0.00,0.00,0.00,30.06,M,10.00,M,BKN,OVC,M,M,1300.00,1900.00,M,M,M,M,M,M,M,M,M,39.20,K10U 020820Z AUTO 00000KT 10SM BKN013 OVC019 04/03 A3006 RMK AO2,M
05U,2023-10-02 08:30,-116.0051,39.6042,1811.23,42.80,41.00,93.30,0.00,0.00,0.00,30.03,M,10.00,M,BKN,BKN,OVC,M,900.00,1300.00,3400.00,M,M,M,M,M,M,M,M,42.80,K05U 020830Z AUTO 00000KT 10SM BKN009 BKN013 OVC034 06/05 A3003 RMK A01,M
BVU,2023-10-02 08:35,-114.8611,35.9475,671.00,55.40,41.00,58.27,70.00,3.00,0.00,29.89,M,10.00,M,CLR,M,M,M,M,M,M,M,M,M,M,M,M,M,M,55.40,KBVU 020835Z AUTO 07003KT 10SM CLR 13/05 A2989 RMK AO2,M
CXP,2023-10-02 08:35,-119.7326,39.1923,1431.00,46.40,41.00,81.34,0.00,0.00,0.00,30.07,M,10.00,M,OVC,M,M,M,5000.00,M,M,M,M,M,M,M,M,M,M,46.40,KCXP 020835Z AUTO 00000KT 10SM OVC050 08/05 A3007 RMK AO2,M
RTS,2023-10-02 08:35,-119.8764,39.6682,1539.00,44.60,33.80,65.61,340.00,4.00,0.00,30.07,M,10.00,M,OVC,M,M,M,4300.00,M,M,M,M,M,M,M,M,M,M,42.13,KRTS 020835Z AUTO 34004KT 10SM OVC043 07/01 A3007 RMK AO2,M
MEV,2023-10-02 08:35,-119.7500,38.9963,1441.42,46.40,39.20,75.84,350.00,5.00,0.00,30.05,M,10.00,M,OVC,M,M,M,5500.00,M,M,M,M,M,M,M,M,M,M,43.50,KMEV 020835Z AUTO 35005KT 10SM OVC055 08/04 A3005 RMK AO2,M
BAM,2023-10-02 08:35,-116.8743,40.5990,1382.36,44.60,41.00,87.09,330.00,7.00,0.00,30.04,M,10.00,M,OVC,M,M,M,2900.00,M,M,M,M,M,M,M,M,M,M,40.14,KBAM 020835Z AUTO 33007KT 10SM OVC029 07/05 A3004 RMK AO1,M
HTH,2023-10-02 08:35,-118.6315,38.5448,1282.89,48.20,41.00,76.01,300.00,4.00,0.00,30.04,M,10.00,M,SCT,OVC,M,M,2900.00,6000.00,M,M,M,M,M,M,M,M,M,46.34,KHTH 020835Z AUTO 30004KT 10SM SCT029 OVC060 09/05 A3004 RMK A01,M
TMT,2023-10-02 08:35,-117.1971,39.4643,1749.34,41.00,40.00,96.19,350.00,4.00,0.00,30.04,M,10.00,M,BKN,BKN,OVC,M,2200.00,2800.00,3300.00,M,M,M,M,M,M,M,M,37.93,KTMT 020835Z AUTO 35004KT 10SM BKN022 BKN028 OVC033 05/04 A3004 RMK AO2 T00510044,M
10U,2023-10-02 08:40,-116.1876,41.9532,1637.00,39.20,37.40,93.19,0.00,0.00,0.00,30.05,M,10.00,M,OVC,M,M,M,1600.00,M,M,M,M,M,M,M,M,M,M,39.20,K10U 020840Z AUTO 00000KT 10SM OVC016 04/03 A3005 RMK AO2,M
05U,2023-10-02 08:50,-116.0051,39.6042,1811.23,42.80,41.00,93.30,0.00,0.00,0.00,30.03,M,10.00,M,FEW,BKN,OVC,M,800.00,1300.00,3400.00,M,M,M,M,M,M,M,M,42.80,K05U 020850Z AUTO 00000KT 10SM FEW008 BKN013 OVC034 06/05 A3003 RMK A01,M
P68,2023-10-02 08:53,-116.0056,39.6014,1993.00,43.00,42.00,96.23,360.00,3.00,0.00,30.00,1012.90,M,M,M,M,M,M,M,M,M,M,M,M,M,M,M,M,M,41.26,KP68 020853Z AUTO 36003KT 06/06 A3000 RMK AO1 SLP129 T00610056 55003,M
DRA,2023-10-02 08:53,-116.0278,36.6206,1009.00,52.00,36.00,54.26,20.00,7.00,0.00,29.93,1010.60,10.00,M,CLR,M,M,M,M,M,M,M,M,M,M,M,M,M,M,52.00,KDRA 020853Z AUTO 02007KT 10SM CLR 11/02 A2993 RMK AO2 SLP106 T01110022 53000 $,M
ELY,2023-10-02 08:53,-114.8453,39.2950,1909.00,30.00,28.00,92.15,190.00,5.00,0.00,30.00,1013.30,10.00,M,CLR,M,M,M,M,M,M,M,M,M,M,M,M,M,M,24.02,KELY 020853Z AUTO 19005KT 10SM CLR M01/M02 A3000 RMK AO2 SLP133 T10111022 55003,M
VGT,2023-10-02 08:53,-115.1933,36.2111,667.00,61.00,43.00,51.48,0.00,0.00,0.00,29.88,1012.20,10.00,M,CLR,M,M,M,M,M,M,M,M,M,M,M,M,M,M,61.00,KVGT 020853Z AUTO 00000KT 10SM CLR 16/06 A2988 RMK AO2 SLP122 T01610061 53003,M
LOL,2023-10-02 08:53,-118.5701,40.0684,1192.43,46.00,41.00,82.58,20.00,5.00,T,30.04,1016.70,10.00,M,OVC,M,M,M,5000.00,M,M,M,M,M,M,M,M,M,M,43.02,KLOL 020853Z AUTO 02005KT 10SM OVC050 08/05 A3004 RMK AO2 RAB0758E17 SLP167 P0000 60000 T00780050 53001 $,M
MEV,2023-10-02 08:55,-119.7500,38.9963,1441.42,46.40,39.20,75.84,360.00,3.00,0.00,30.05,M,10.00,M,SCT,OVC,M,M,4300.00,5500.00,M,M,M,M,M,M,M,M,M,45.15,KMEV 020855Z AUTO 36003KT 10SM SCT043 OVC055 08/04 A3005 RMK AO2,M
BAM,2023-10-02 08:55,-116.8743,40.5990,1382.36,44.60,41.00,87.09,320.00,9.00,0.00,30.04,M,10.00,M,OVC,M,M,M,3100.00,M,M,M,M,M,M,M,M,M,M,39.18,KBAM 020855Z AUTO 32009KT 10SM OVC031 07/05 A3004 RMK AO1,M
HTH,2023-10-02 08:55,-118.6315,38.5448,1282.89,48.20,41.00,76.01,350.00,6.00,0.00,30.04,M,10.00,M,FEW,OVC,M,M,3000.00,6000.00,M,M,M,M,M,M,M,M,M,45.04,KHTH 020855Z AUTO 35006KT 10SM FEW030 OVC060 09/05 A3004 RMK A01,M
TMT,2023-10-02 08:55,-117.1971,39.4643,1749.34,41.00,40.00,96.19,330.00,3.00,0.00,30.04,M,10.00,M,BKN,BKN,OVC,M,1800.00,2700.00,3300.00,M,M,M,M,M,M,M,M,38.98,KTMT 020855Z AUTO 33003KT 10SM BKN018 BKN027 OVC033 05/05 A3004 RMK AO2 T00510045,M
BVU,2023-10-02 08:55,-114.8611,35.9475,671.00,55.40,41.00,58.27,0.00,0.00,0.00,29.89,M,10.00,M,CLR,M,M,M,M,M,M,M,M,M,M,M,M,M,M,55.40,KBVU 020855Z AUTO 00000KT 10SM CLR 13/05 A2989 RMK AO2,M
CXP,2023-10-02 08:55,-119.7326,39.1923,1431.00,46.40,41.00,81.34,0.00,0.00,0.00,30.07,M,10.00,M,OVC,M,M,M,5000.00,M,M,M,M,M,M,M,M,M,M,46.40,KCXP 020855Z AUTO 00000KT 10SM OVC050 08/05 A3007 RMK AO2,M
INS,2023-10-02 08:55,-115.6733,36.5872,955.00,54.70,31.50,41.05,250.00,4.00,0.00,29.92,1010.10,10.00,M,CLR,M,M,M,M,M,M,M,M,M,M,M,M,M,M,54.70,KINS 020855Z AUTO 25004KT 10SM CLR 13/M00 A2992 RMK AO2 SLP101 T01261003 53001 $,M
RNO,2023-10-02 08:55,-119.7711,39.4839,1341.00,51.00,36.00,56.31,10.00,5.00,0.00,30.05,1015.20,10.00,M,OVC,M,M,M,5500.00,M,M,M,M,M,M,M,M,M,M,51.00,KRNO 020855Z 01005KT 10SM OVC055 11/02 A3005 RMK AO2 SLP152 T01060022 53002 $,M
LSV,2023-10-02 08:55,-115.0343,36.2362,570.00,60.60,38.00,43.01,0.00,0.00,0.00,29.85,1009.20,10.00,M,CLR,M,M,M,M,M,M,M,M,M,M,M,M,M,M,60.60,KLSV 020855Z AUTO 00000KT 10SM CLR 16/03 A2985 RMK AO2 SLP092 T01590033 53003 $,M
RTS,2023-10-02 08:55,-119.8764,39.6682,1539.00,44.60,33.80,65.61,290.00,3.00,0.00,30.08,M,10.00,M,OVC,M,M,M,4400.00,M,M,M,M,M,M,M,M,M,M,43.09,KRTS 020855Z AUTO 29003KT 10SM OVC044 07/01 A3008 RMK AO2,M
EKO,2023-10-02 08:56,-115.7860,40.8242,1367.00,43.00,40.00,89.06,230.00,3.00,0.00,29.99,1014.30,10.00,M,FEW,SCT,OVC,M,2400.00,3500.00,6000.00,M,M,M,M,M,M,M,M,41.26,KEKO 020856Z AUTO 23003KT 10SM FEW024 SCT035 OVC060 06/04 A2999 RMK AO2 SLP143 T00610044 55002 $,M
WMC,2023-10-02 08:56,-117.8072,40.9019,1315.00,44.00,40.00,85.71,300.00,4.00,0.00,30.05,1016.40,10.00,M,FEW,OVC,M,M,1900.00,3000.00,M,M,M,M,M,M,M,M,M,41.43,KWMC 020856Z AUTO 30004KT 10SM FEW019 OVC030 07/04 A3005 RMK AO2 SLP164 60000 T00670044 55000,M
NFL,2023-10-02 08:56,-118.7010,39.4166,1199.00,50.00,44.00,79.76,340.00,3.00,0.00,30.03,1013.90,10.00,M,OVC,M,M,M,5500.00,M,M,M,M,M,M,M,M,M,M,50.00,KNFL 020856Z AUTO 34003KT 10SM OVC055 10/07 A3003 RMK AO2 SLP139 T01000067 55000,M
HND,2023-10-02 08:56,-115.1344,35.9729,742.79,57.00,39.00,50.88,170.00,8.00,0.00,29.91,1013.40,10.00,M,CLR,M,M,M,M,M,M,M,M,M,M,M,M,M,M,57.00,KHND 020856Z AUTO 17008KT 10SM CLR 14/04 A2991 RMK AO2 SLP134 T01390039 53001,M
TPH,2023-10-02 08:56,-117.0904,38.0505,1654.00,44.00,38.00,79.27,310.00,12.00,0.00,30.00,1013.50,10.00,M,BKN,OVC,M,M,3400.00,4800.00,M,M,M,M,M,M,M,M,M,37.27,KTPH 020856Z AUTO 31012KT 10SM BKN034 OVC048 07/03 A3000 RMK AO2 SLP135 T00670033 55001,M
LAS,2023-10-02 08:56,-115.1634,36.0719,663.00,59.00,42.00,53.20,190.00,5.00,0.00,29.89,1010.70,10.00,M,FEW,SCT,M,M,8000.00,14000.00,M,M,M,M,M,M,M,M,M,59.00,KLAS 020856Z 19005KT 10SM FEW080 SCT140 15/06 A2989 RMK AO2 SLP107 T01500056 53001,M
10U,2023-10-02 09:00,-116.1876,41.9532,1637.00,39.20,37.40,93.19,0.00,0.00,0.00,30.05,M,10.00,M,OVC,M,M,M,1400.00,M,M,M,M,M,M,M,M,M,M,39.20,K10U 020900Z AUTO 00000KT 10SM OVC014 04/03 A3005 RMK AO2,M
EKO,2023-10-02 09:09,-115.7860,40.8242,1367.00,44.00,40.00,85.71,0.00,0.00,0.00,29.99,M,10.00,M,BKN,BKN,OVC,M,2200.00,2700.00,6000.00,M,M,M,M,M,M,M,M,44.00,KEKO 020909Z AUTO 00000KT 10SM BKN022 BKN027 OVC060 07/04 A2999 RMK AO2 T00670044 $,M
05U,2023-10-02 09:10,-116.0051,39.6042,1811.23,42.80,41.00,93.30,0.00,0.00,0.00,30.02,M,10.00,M,FEW,OVC,M,M,700.00,1300.00,M,M,M,M,M,M,M,M,M,42.80,K05U 020910Z AUTO 00000KT 10SM FEW007 OVC013 06/05 A3002 RMK A01,M
BVU,2023-10-02 09:15,-114.8611,35.9475,671.00,55.40,41.00,58.27,0.00,0.00,0.00,29.89,M,10.00,M,CLR,M,M,M,M,M,M,M,M,M,M,M,M,M,M,55.40,KBVU 020915Z AUTO 00000KT 10SM CLR 13/05 A2989 RMK AO2,M
CXP,2023-10-02 09:15,-119.7326,39.1923,1431.00,46.40,41.00,81.34,0.00,0.00,0.00,30.07,M,10.00,M,OVC,M,M,M,5000.00,M,M,M,M,M,M,M,M,M,M,46.40,KCXP 020915Z AUTO 00000KT 10SM OVC050 08/05 A3007 RMK AO2,M
WMC,2023-10-02 09:15,-117.8072,40.9019,1315.00,44.00,40.00,85.71,300.00,4.00,0.00,30.04,M,10.00,M,FEW,OVC,M,M,1700.00,2800.00,M,M,M,M,M,M,M,M,M,41.43,KWMC 020915Z AUTO 30004KT 10SM FEW017 OVC028 07/04 A3004 RMK AO2 T00670044,M
RTS,2023-10-02 09:15,-119.8764,39.6682,1539.00,44.60,33.80,65.61,290.00,3.00,0.00,30.08,M,10.00,M,OVC,M,M,M,4400.00,M,M,M,M,M,M,M,M,M,M,43.09,KRTS 020915Z AUTO 29003KT 10SM OVC044 07/01 A3008 RMK AO2,M
MEV,2023-10-02 09:15,-119.7500,38.9963,1441.42,46.40,41.00,81.34,0.00,0.00,0.00,30.05,M,10.00,M,FEW,OVC,M,M,4400.00,5000.00,M,M,M,M,M,M,M,M,M,46.40,KMEV 020915Z AUTO 00000KT 10SM FEW044 OVC050 08/05 A3005 RMK AO2,M
BAM,2023-10-02 09:15,-116.8743,40.5990,1382.36,44.60,41.00,87.09,330.00,8.00,0.00,30.04,M,10.00,M,OVC,M,M,M,3300.00,M,M,M,M,M,M,M,M,M,M,39.63,KBAM 020915Z AUTO 33008KT 10SM OVC033 07/05 A3004 RMK AO1,M
HTH,2023-10-02 09:15,-118.6315,38.5448,1282.89,48.20,41.00,76.01,350.00,5.00,0.00,30.04,M,10.00,M,FEW,SCT,OVC,M,3000.00,4800.00,6000.00,M,M,M,M,M,M,M,M,45.63,KHTH 020915Z AUTO 35005KT 10SM FEW030 SCT048 OVC060 09/05 A3004 RMK A01,M
TMT,2023-10-02 09:15,-117.1971,39.4643,1749.34,41.40,40.00,94.72,330.00,3.00,0.00,30.03,M,10.00,M,BKN,OVC,M,M,1300.00,1800.00,M,M,M,M,M,M,M,M,M,39.43,KTMT 020915Z AUTO 33003KT 10SM BKN013 OVC018 05/05 A3003 RMK AO2 T00520045,M
10U,2023-10-02 09:20,-116.1876,41.9532,1637.00,39.20,37.40,93.19,0.00,0.00,0.00,30.05,M,10.00,M,OVC,M,M,M,1100.00,M,M,M,M,M,M,M,M,M,M,39.20,K10U 020920Z AUTO 00000KT 10SM OVC011 04/03 A3005 RMK AO2,M
05U,2023-10-02 09:30,-116.0051,39.6042,1811.23,42.80,41.00,93.30,160.00,3.00,0.00,30.02,M,10.00,M,FEW,OVC,M,M,700.00,1300.00,M,M,M,M,M,M,M,M,M,41.03,K05U 020930Z AUTO 16003KT 10SM FEW007 OVC013 06/05 A3002 RMK A01,M
BVU,2023-10-02 09:35,-114.8611,35.9475,671.00,55.40,39.20,54.34,90.00,5.00,0.00,29.89,M,10.00,M,CLR,M,M,M,M,M,M,M,M,M,M,M,M,M,M,55.40,KBVU 020935Z AUTO 09005KT 10SM CLR 13/04 A2989 RMK AO2,M
CXP,2023-10-02 09:35,-119.7326,39.1923,1431.00,48.20,41.00,76.01,0.00,0.00,0.00,30.07,M,10.00,M,OVC,M,M,M,5000.00,M,M,M,M,M,M,M,M,M,M,48.20,KCXP 020935Z AUTO 00000KT 10SM OVC050 09/05 A3007 RMK AO2,M
RTS,2023-10-02 09:35,-119.8764,39.6682,1539.00,44.60,33.80,65.61,320.00,4.00,0.00,30.08,M,10.00,M,OVC,M,M,M,4600.00,M,M,M,M,M,M,M,M,M,M,42.13,KRTS 020935Z AUTO 32004KT 10SM OVC046 07/01 A3008 RMK AO2,M
MEV,2023-10-02 09:35,-119.7500,38.9963,1441.42,46.40,41.00,81.34,0.00,0.00,0.00,30.06,M,9.00,M,OVC,M,M,M,4600.00,M,M,M,-RA,M,M,M,M,M,M,46.40,KMEV 020935Z AUTO 00000KT 9SM -RA OVC046 08/05 A3006 RMK AO2,M
BAM,2023-10-02 09:35,-116.8743,40.5990,1382.36,44.60,41.00,87.09,330.00,7.00,0.00,30.04,M,10.00,M,OVC,M,M,M,3500.00,M,M,M,M,M,M,M,M,M,M,40.14,KBAM 020935Z AUTO 33007KT 10SM OVC035 07/05 A3004 RMK AO1,M
HTH,2023-10-02 09:35,-118.6315,38.5448,1282.89,48.20,41.00,76.01,10.00,6.00,0.00,30.04,M,10.00,11.00,FEW,OVC,M,M,4800.00,6000.00,M,M,M,M,M,M,M,M,M,45.04,KHTH 020935Z AUTO 01006G11KT 10SM FEW048 OVC060 09/05 A3004 RMK A01,M
TMT,2023-10-02 09:35,-117.1971,39.4643,1749.34,41.50,40.00,94.35,350.00,3.00,0.00,30.03,M,10.00,M,OVC,M,M,M,1300.00,M,M,M,M,M,M,M,M,M,M,39.55,KTMT 020935Z AUTO 35003KT 10SM OVC013 05/05 A3003 RMK AO2 T00530045,M
10U,2023-10-02 09:40,-116.1876,41.9532,1637.00,39.20,37.40,93.19,0.00,0.00,0.00,30.05,M,10.00,M,OVC,M,M,M,1100.00,M,M,M,M,M,M,M,M,M,M,39.20,K10U 020940Z AUTO 00000KT 10SM OVC011 04/03 A3005 RMK AO2,M
05U,2023-10-02 09:50,-116.0051,39.6042,1811.23,42.80,41.00,93.30,0.00,0.00,0.00,30.02,M,10.00,M,SCT,SCT,OVC,M,1100.00,1600.00,2200.00,M,M,M,M,M,M,M,M,42.80,K05U 020950Z AUTO 00000KT 10SM SCT011 SCT016 OVC022 06/05 A3002 RMK A01,M
P68,2023-10-02 09:53,-116.0056,39.6014,1993.00,42.00,41.00,96.21,20.00,3.00,0.00,30.00,1012.80,M,M,M,M,M,M,M,M,M,M,M,M,M,M,M,M,M,40.12,KP68 020953Z AUTO 02003KT 06/05 A3000 RMK AO1 SLP128 T00560050,M
DRA,2023-10-02 09:53,-116.0278,36.6206,1009.00,48.00,36.00,62.97,0.00,0.00,0.00,29.93,1010.70,10.00,M,CLR,M,M,M,M,M,M,M,M,M,M,M,M,M,M,48.00,KDRA 020953Z AUTO 00000KT 10SM CLR 09/02 A2993 RMK AO2 SLP107 T00890022 $,M
ELY,2023-10-02 09:53,-114.8453,39.2950,1909.00,30.00,28.00,92.15,180.00,6.00,0.00,29.99,1012.60,10.00,M,CLR,M,M,M,M,M,M,M,M,M,M,M,M,M,M,23.12,KELY 020953Z AUTO 18006KT 10SM CLR M01/M02 A2999 RMK AO2 SLP126 T10111022,M
VGT,2023-10-02 09:53,-115.1933,36.2111,667.00,61.00,42.00,49.54,240.00,6.00,0.00,29.89,1012.40,10.00,M,CLR,M,M,M,M,M,M,M,M,M,M,M,M,M,M,61.00,KVGT 020953Z AUTO 24006KT 10SM CLR 16/06 A2989 RMK AO2 SLP124 T01610056,M
LOL,2023-10-02 09:53,-118.5701,40.0684,1192.43,46.00,41.00,82.58,340.00,3.00,0.00,30.04,1016.60,10.00,M,BKN,BKN,OVC,M,4300.00,5500.00,7500.00,M,M,M,M,M,M,M,M,44.69,KLOL 020953Z AUTO 34003KT 10SM BKN043 BKN055 OVC075 08/05 A3004 RMK AO2 SLP166 T00780050 $,M
BVU,2023-10-02 09:55,-114.8611,35.9475,671.00,55.40,39.20,54.34,0.00,0.00,0.00,29.89,M,10.00,M,CLR,M,M,M,M,M,M,M,M,M,M,M,M,M,M,55.40,KBVU 020955Z AUTO 00000KT 10SM CLR 13/04 A2989 RMK AO2,M
CXP,2023-10-02 09:55,-119.7326,39.1923,1431.00,46.40,41.00,81.34,0.00,0.00,0.00,30.07,M,10.00,M,OVC,M,M,M,5000.00,M,M,M,M,M,M,M,M,M,M,46.40,KCXP 020955Z AUTO 00000KT 10SM OVC050 08/05 A3007 RMK AO2,M
INS,2023-10-02 09:55,-115.6733,36.5872,955.00,53.60,35.00,49.18,260.00,6.00,0.00,29.92,1010.30,10.00,M,CLR,M,M,M,M,M,M,M,M,M,M,M,M,M,M,53.60,KINS 020955Z AUTO 26006KT 10SM CLR 12/02 A2992 RMK AO2 SLP103 T01200016 $,M
RNO,2023-10-02 09:55,-119.7711,39.4839,1341.00,51.00,35.00,54.12,300.00,5.00,0.00,30.06,1015.30,10.00,M,SCT,OVC,M,M,3800.00,5500.00,M,M,M,M,M,M,M,M,M,51.00,KRNO 020955Z 30005KT 10SM SCT038 OVC055 11/02 A3006 RMK AO2 SLP153 T01060017 $,M
RTS,2023-10-02 09:55,-119.8764,39.6682,1539.00,44.60,33.80,65.61,340.00,4.00,0.00,30.07,M,10.00,M,OVC,M,M,M,4900.00,M,M,M,M,M,M,M,M,M,M,42.13,KRTS 020955Z AUTO 34004KT 10SM OVC049 07/01 A3007 RMK AO2,M
MEV,2023-10-02 09:55,-119.7500,38.9963,1441.42,46.40,41.00,81.34,0.00,0.00,0.00,30.05,M,10.00,M,OVC,M,M,M,4200.00,M,M,M,M,M,M,M,M,M,M,46.40,KMEV 020955Z AUTO 00000KT 10SM OVC042 08/05 A3005 RMK AO2,M
BAM,2023-10-02 09:55,-116.8743,40.5990,1382.36,44.60,41.00,87.09,340.00,6.00,0.00,30.03,M,10.00,M,OVC,M,M,M,3700.00,M,M,M,M,M,M,M,M,M,M,40.71,KBAM 020955Z AUTO 34006KT 10SM OVC037 07/05 A3003 RMK AO1,M
HTH,2023-10-02 09:55,-118.6315,38.5448,1282.89,48.20,41.00,76.01,360.00,5.00,0.00,30.04,M,10.00,M,FEW,SCT,OVC,M,3600.00,4700.00,6000.00,M,M,M,M,M,M,M,M,45.63,KHTH 020955Z AUTO 36005KT 10SM FEW036 SCT047 OVC060 09/05 A3004 RMK A01,M
TMT,2023-10-02 09:55,-117.1971,39.4643,1749.34,41.50,39.70,93.26,0.00,0.00,0.00,30.03,M,10.00,M,OVC,M,M,M,1700.00,M,M,M,M,M,M,M,M,M,M,41.50,KTMT 020955Z AUTO 00000KT 10SM OVC017 05/04 A3003 RMK AO2 T00530043,M
LSV,2023-10-02 09:55,-115.0343,36.2362,570.00,59.00,38.00,45.53,340.00,4.00,0.00,29.86,1009.60,10.00,M,CLR,M,M,M,M,M,M,M,M,M,M,M,M,M,M,59.00,KLSV 020955Z AUTO 34004KT 10SM CLR 15/03 A2986 RMK AO2 SLP096 T01490034 $,M
EKO,2023-10-02 09:56,-115.7860,40.8242,1367.00,45.00,40.00,82.51,230.00,3.00,0.00,29.99,1013.80,10.00,M,OVC,M,M,M,2000.00,M,M,M,M,M,M,M,M,M,M,43.55,KEKO 020956Z AUTO 23003KT 10SM OVC020 07/04 A2999 RMK AO2 SLP138 T00720044 $,M
WMC,2023-10-02 09:56,-117.8072,40.9019,1315.00,44.00,40.00,85.71,290.00,4.00,0.00,30.04,1016.00,10.00,M,OVC,M,M,M,2700.00,M,M,M,M,M,M,M,M,M,M,41.43,KWMC 020956Z AUTO 29004KT 10SM OVC027 07/04 A3004 RMK AO2 SLP160 T00670044,M
NFL,2023-10-02 09:56,-118.7010,39.4166,1199.00,49.00,45.00,86.00,350.00,5.00,0.00,30.03,1013.90,10.00,M,BKN,OVC,M,M,5500.00,6500.00,M,M,M,M,M,M,M,M,M,46.58,KNFL 020956Z AUTO 35005KT 10SM BKN055 OVC065 09/07 A3003 RMK AO2 SLP139 T00940072,M
HND,2023-10-02 09:56,-115.1344,35.9729,742.79,56.00,39.00,52.75,160.00,4.00,0.00,29.92,1013.60,10.00,M,CLR,M,M,M,M,M,M,M,M,M,M,M,M,M,M,56.00,KHND 020956Z AUTO 16004KT 10SM CLR 13/04 A2992 RMK AO2 SLP136 T01330039,M
TPH,2023-10-02 09:56,-117.0904,38.0505,1654.00,44.00,39.00,82.44,320.00,9.00,0.00,30.00,1013.10,10.00,M,OVC,M,M,M,3400.00,M,M,M,M,M,M,M,M,M,M,38.44,KTPH 020956Z AUTO 32009KT 10SM OVC034 07/04 A3000 RMK AO2 SLP131 T00670039,M
LAS,2023-10-02 09:56,-115.1634,36.0719,663.00,57.00,43.00,59.40,250.00,3.00,0.00,29.89,1011.00,10.00,M,FEW,M,M,M,14000.00,M,M,M,M,M,M,M,M,M,M,57.00,KLAS 020956Z 25003KT 10SM FEW140 14/06 A2989 RMK AO2 SLP110 T01390061,M
05U,2023-10-02 10:10,-116.0051,39.6042,1811.23,42.80,41.00,93.30,0.00,0.00,0.00,30.02,M,10.00,M,FEW,BKN,OVC,M,1500.00,2100.00,3800.00,M,M,M,M,M,M,M,M,42.80,K05U 021010Z AUTO 00000KT 10SM FEW015 BKN021 OVC038 06/05 A3002 RMK A01,M
WMC,2023-10-02 10:14,-117.8072,40.9019,1315.00,44.00,40.00,85.71,290.00,3.00,0.00,30.04,M,10.00,M,BKN,OVC,M,M,3000.00,4900.00,M,M,M,M,M,M,M,M,M,42.41,KWMC 021014Z AUTO 29003KT 10SM BKN030 OVC049 07/04 A3004 RMK AO2 T00670044,M
BVU,2023-10-02 10:15,-114.8611,35.9475,671.00,55.40,39.20,54.34,0.00,0.00,0.00,29.89,M,10.00,M,CLR,M,M,M,M,M,M,M,M,M,M,M,M,M,M,55.40,KBVU 021015Z AUTO 00000KT 10SM CLR 13/04 A2989 RMK AO2,M
CXP,2023-10-02 10:15,-119.7326,39.1923,1431.00,46.40,41.00,81.34,0.00,0.00,0.00,30.07,M,10.00,M,OVC,M,M,M,5000.00,M,M,M,M,M,M,M,M,M,M,46.40,KCXP 021015Z AUTO 00000KT 10SM OVC050 08/05 A3007 RMK AO2,M
RTS,2023-10-02 10:15,-119.8764,39.6682,1539.00,44.60,33.80,65.61,0.00,0.00,0.00,30.06,M,10.00,M,BKN,OVC,M,M,5000.00,8000.00,M,M,M,M,M,M,M,M,M,44.60,KRTS 021015Z AUTO 00000KT 10SM BKN050 OVC080 07/01 A3006 RMK AO2,M
MEV,2023-10-02 10:15,-119.7500,38.9963,1441.42,46.40,41.00,81.34,0.00,0.00,0.00,30.05,M,10.00,M,BKN,OVC,M,M,3900.00,4900.00,M,M,-RA,M,M,M,M,M,M,46.40,KMEV 021015Z AUTO 00000KT 10SM -RA BKN039 OVC049 08/05 A3005 RMK AO2,M
BAM,2023-10-02 10:15,-116.8743,40.5990,1382.36,44.60,41.00,87.09,350.00,4.00,0.00,30.04,M,10.00,M,OVC,M,M,M,3500.00,M,M,M,M,M,M,M,M,M,M,42.13,KBAM 021015Z AUTO 35004KT 10SM OVC035 07/05 A3004 RMK AO1,M
HTH,2023-10-02 10:15,-118.6315,38.5448,1282.89,48.20,41.00,76.01,270.00,4.00,0.00,30.04,M,10.00,M,FEW,SCT,OVC,M,3300.00,4900.00,6000.00,M,M,M,M,M,M,M,M,46.34,KHTH 021015Z AUTO 27004KT 10SM FEW033 SCT049 OVC060 09/05 A3004 RMK A01,M
TMT,2023-10-02 10:15,-117.1971,39.4643,1749.34,41.50,39.60,92.90,0.00,0.00,0.00,30.03,M,10.00,M,SCT,OVC,M,M,1700.00,2400.00,M,M,M,M,M,M,M,M,M,41.50,KTMT 021015Z AUTO 00000KT 10SM SCT017 OVC024 05/04 A3003 RMK AO2 T00530042,M
10U,2023-10-02 10:20,-116.1876,41.9532,1637.00,39.20,37.40,93.19,0.00,0.00,0.00,30.05,M,4.00,M,FEW,BKN,OVC,M,900.00,1400.00,1900.00,M,BR,M,M,M,M,M,M,39.20,K10U 021020Z AUTO 00000KT 4SM BR FEW009 BKN014 OVC019 04/03 A3005 RMK AO2,M
05U,2023-10-02 10:30,-116.0051,39.6042,1811.23,42.80,41.00,93.30,0.00,0.00,0.00,30.02,M,10.00,M,BKN,OVC,M,M,1600.00,2000.00,M,M,M,M,M,M,M,M,M,42.80,K05U 021030Z AUTO 00000KT 10SM BKN016 OVC020 06/05 A3002 RMK A01,M
BVU,2023-10-02 10:35,-114.8611,35.9475,671.00,55.40,37.40,50.64,310.00,3.00,0.00,29.90,M,10.00,M,CLR,M,M,M,M,M,M,M,M,M,M,M,M,M,M,55.40,KBVU 021035Z AUTO 31003KT 10SM CLR 13/03 A2990 RMK AO2,M
CXP,2023-10-02 10:35,-119.7326,39.1923,1431.00,46.40,41.00,81.34,0.00,0.00,0.00,30.06,M,10.00,M,FEW,OVC,M,M,4200.00,5000.00,M,M,M,M,M,M,M,M,M,46.40,KCXP 021035Z AUTO 00000KT 10SM FEW042 OVC050 08/05 A3006 RMK AO2,M
RTS,2023-10-02 10:35,-119.8764,39.6682,1539.00,42.80,33.80,70.28,0.00,0.00,0.00,30.06,M,10.00,M,FEW,SCT,M,M,5000.00,8500.00,M,M,M,M,M,M,M,M,M,42.80,KRTS 021035Z AUTO 00000KT 10SM FEW050 SCT085 06/01 A3006 RMK AO2,M
MEV,2023-10-02 10:35,-119.7500,38.9963,1441.42,44.60,41.00,87.09,190.00,4.00,0.00,30.05,M,10.00,M,FEW,OVC,M,M,4300.00,5000.00,M,M,M,M,M,M,M,M,M,42.13,KMEV 021035Z AUTO 19004KT 10SM FEW043 OVC050 07/05 A3005 RMK AO2,M
BAM,2023-10-02 10:35,-116.8743,40.5990,1382.36,44.60,41.00,87.09,340.00,4.00,0.00,30.04,M,10.00,M,BKN,OVC,M,M,2300.00,3300.00,M,M,M,M,M,M,M,M,M,42.13,KBAM 021035Z AUTO 34004KT 10SM BKN023 OVC033 07/05 A3004 RMK AO1,M
HTH,2023-10-02 10:35,-118.6315,38.5448,1282.89,48.20,41.00,76.01,290.00,4.00,0.00,30.04,M,10.00,M,BKN,OVC,M,M,3100.00,6000.00,M,M,M,M,M,M,M,M,M,46.34,KHTH 021035Z AUTO 29004KT 10SM BKN031 OVC060 09/05 A3004 RMK A01,M
TMT,2023-10-02 10:35,-117.1971,39.4643,1749.34,41.40,39.70,93.62,320.00,3.00,0.00,30.03,M,10.00,M,OVC,M,M,M,2400.00,M,M,M,M,M,M,M,M,M,M,39.43,KTMT 021035Z AUTO 32003KT 10SM OVC024 05/04 A3003 RMK AO2 T00520043,M
10U,2023-10-02 10:40,-116.1876,41.9532,1637.00,39.20,37.40,93.19,0.00,0.00,0.00,30.04,M,10.00,M,FEW,BKN,OVC,M,1400.00,1900.00,6000.00,M,M,M,M,M,M,M,M,39.20,K10U 021040Z AUTO 00000KT 10SM FEW014 BKN019 OVC060 04/03 A3004 RMK AO2,M
05U,2023-10-02 10:50,-116.0051,39.6042,1811.23,42.80,41.00,93.30,0.00,0.00,0.00,30.02,M,10.00,M,SCT,OVC,M,M,1300.00,2100.00,M,M,M,M,M,M,M,M,M,42.80,K05U 021050Z AUTO 00000KT 10SM SCT013 OVC021 06/05 A3002 RMK A01,M
P68,2023-10-02 10:53,-116.0056,39.6014,1993.00,42.00,40.00,92.55,0.00,0.00,0.00,30.00,1012.30,M,M,M,M,M,M,M,M,M,M,M,M,M,M,M,M,M,42.00,KP68 021053Z AUTO 00000KT 06/04 A3000 RMK AO1 SLP123 T00560044,M
DRA,2023-10-02 10:53,-116.0278,36.6206,1009.00,48.00,36.00,62.97,300.00,4.00,0.00,29.93,1010.60,10.00,M,CLR,M,M,M,M,M,M,M,M,M,M,M,M,M,M,46.10,KDRA 021053Z AUTO 30004KT 10SM CLR 09/02 A2993 RMK AO2 SLP106 T00890022 $,M
ELY,2023-10-02 10:53,-114.8453,39.2950,1909.00,28.00,26.00,92.08,200.00,4.00,0.00,30.00,1013.20,10.00,M,BKN,M,M,M,6000.00,M,M,M,M,M,M,M,M,M,M,22.75,KELY 021053Z AUTO 20004KT 10SM BKN060 M02/M03 A3000 RMK AO2 SLP132 T10221033,M
VGT,2023-10-02 10:53,-115.1933,36.2111,667.00,59.00,42.00,53.20,330.00,4.00,0.00,29.90,1012.70,10.00,M,CLR,M,M,M,M,M,M,M,M,M,M,M,M,M,M,59.00,KVGT 021053Z AUTO 33004KT 10SM CLR 15/06 A2990 RMK AO2 SLP127 T01500056,M
LOL,2023-10-02 10:53,-118.5701,40.0684,1192.43,46.00,41.00,82.58,40.00,3.00,0.00,30.03,1016.50,10.00,M,OVC,M,M,M,3800.00,M,M,M,M,M,M,M,M,M,M,44.69,KLOL 021053Z AUTO 04003KT 10SM OVC038 08/05 A3003 RMK AO2 SLP165 T00780050 $,M
BVU,2023-10-02 10:55,-114.8611,35.9475,671.00,53.60,37.40,54.07,260.00,3.00,0.00,29.90,M,10.00,M,CLR,M,M,M,M,M,M,M,M,M,M,M,M,M,M,53.60,KBVU 021055Z AUTO 26003KT 10SM CLR 12/03 A2990 RMK AO2,M
CXP,2023-10-02 10:55,-119.7326,39.1923,1431.00,46.40,41.00,81.34,0.00,0.00,0.00,30.06,M,10.00,M,BKN,OVC,M,M,4100.00,5000.00,M,M,M,M,M,M,M,M,M,46.40,KCXP 021055Z AUTO 00000KT 10SM BKN041 OVC050 08/05 A3006 RMK AO2,M
INS,2023-10-02 10:55,-115.6733,36.5872,955.00,52.70,34.50,49.82,210.00,5.00,0.00,29.93,1010.60,10.00,M,CLR,M,M,M,M,M,M,M,M,M,M,M,M,M,M,52.70,KINS 021055Z AUTO 21005KT 10SM CLR 12/01 A2993 RMK AO2 SLP106 T01150014 $,M
RNO,2023-10-02 10:55,-119.7711,39.4839,1341.00,50.00,35.00,56.16,0.00,0.00,0.00,30.04,1014.80,10.00,M,SCT,OVC,M,M,4000.00,5500.00,M,M,M,M,M,M,M,M,M,50.00,KRNO 021055Z 00000KT 10SM SCT040 OVC055 10/02 A3004 RMK AO2 SLP148 T01000017 $,M
LSV,2023-10-02 10:55,-115.0343,36.2362,570.00,57.00,38.00,48.93,130.00,3.00,0.00,29.87,1010.10,10.00,M,CLR,M,M,M,M,M,M,M,M,M,M,M,M,M,M,57.00,KLSV 021055Z AUTO 13003KT 10SM CLR 14/03 A2987 RMK AO2 SLP101 T01380033 $,M
RTS,2023-10-02 10:55,-119.8764,39.6682,1539.00,42.80,33.80,70.28,320.00,3.00,0.00,30.06,M,10.00,M,BKN,M,M,M,8500.00,M,M,M,M,M,M,M,M,M,M,41.03,KRTS 021055Z AUTO 32003KT 10SM BKN085 06/01 A3006 RMK AO2,M
MEV,2023-10-02 10:55,-119.7500,38.9963,1441.42,46.40,41.00,81.34,0.00,0.00,0.00,30.05,M,10.00,M,OVC,M,M,M,5000.00,M,M,M,M,M,M,M,M,M,M,46.40,KMEV 021055Z AUTO 00000KT 10SM OVC050 08/05 A3005 RMK AO2,M
BAM,2023-10-02 10:55,-116.8743,40.5990,1382.36,44.60,41.00,87.09,330.00,5.00,0.00,30.04,M,10.00,M,SCT,OVC,M,M,2500.00,3000.00,M,M,M,M,M,M,M,M,M,41.36,KBAM 021055Z AUTO 33005KT 10SM SCT025 OVC030 07/05 A3004 RMK AO1,M
HTH,2023-10-02 10:55,-118.6315,38.5448,1282.89,48.20,41.00,76.01,0.00,0.00,0.00,30.04,M,10.00,M,BKN,OVC,M,M,3100.00,6000.00,M,M,M,M,M,M,M,M,M,48.20,KHTH 021055Z AUTO 00000KT 10SM BKN031 OVC060 09/05 A3004 RMK A01,M
TMT,2023-10-02 10:55,-117.1971,39.4643,1749.34,41.40,39.60,93.26,0.00,0.00,0.00,30.03,M,10.00,M,SCT,OVC,M,M,1200.00,2200.00,M,M,M,M,M,M,M,M,M,41.40,KTMT 021055Z AUTO 00000KT 10SM SCT012 OVC022 05/04 A3003 RMK AO2 T00520042,M
EKO,2023-10-02 10:56,-115.7860,40.8242,1367.00,46.00,41.00,82.58,190.00,4.00,0.00,29.99,1013.60,10.00,M,OVC,M,M,M,1900.00,M,M,M,M,M,M,M,M,M,M,43.77,KEKO 021056Z AUTO 19004KT 10SM OVC019 08/05 A2999 RMK AO2 SLP136 T00780050 $,M
WMC,2023-10-02 10:56,-117.8072,40.9019,1315.00,44.00,40.00,85.71,290.00,4.00,0.00,30.04,1016.10,10.00,M,FEW,BKN,OVC,M,3100.00,4400.00,8000.00,M,M,M,M,M,M,M,M,41.43,KWMC 021056Z AUTO 29004KT 10SM FEW031 BKN044 OVC080 07/04 A3004 RMK AO2 SLP161 T00670044,M
NFL,2023-10-02 10:56,-118.7010,39.4166,1199.00,48.00,44.00,85.95,340.00,4.00,0.00,30.03,1013.80,10.00,M,FEW,OVC,M,M,4500.00,5500.00,M,M,M,M,M,M,M,M,M,46.10,KNFL 021056Z AUTO 34004KT 10SM FEW045 OVC055 09/07 A3003 RMK AO2 SLP138 T00890067,M
HND,2023-10-02 10:56,-115.1344,35.9729,742.79,56.00,40.00,54.85,210.00,7.00,0.00,29.92,1013.60,10.00,M,CLR,M,M,M,M,M,M,M,M,M,M,M,M,M,M,56.00,KHND 021056Z AUTO 21007KT 10SM CLR 13/04 A2992 RMK AO2 SLP136 T01330044,M
TPH,2023-10-02 10:56,-117.0904,38.0505,1654.00,44.00,38.00,79.27,330.00,8.00,0.00,30.00,1013.20,10.00,M,BKN,OVC,M,M,3500.00,4400.00,M,M,M,M,M,M,M,M,M,38.90,KTPH 021056Z AUTO 33008KT 10SM BKN035 OVC044 07/03 A3000 RMK AO2 SLP132 T00670033,M
LAS,2023-10-02 10:56,-115.1634,36.0719,663.00,57.00,43.00,59.40,210.00,3.00,0.00,29.91,1011.30,10.00,M,CLR,M,M,M,M,M,M,M,M,M,M,M,M,M,M,57.00,KLAS 021056Z 21003KT 10SM CLR 14/06 A2991 RMK AO2 SLP113 T01390061,M
10U,2023-10-02 11:00,-116.1876,41.9532,1637.00,39.20,37.40,93.19,0.00,0.00,0.00,30.04,M,10.00,M,BKN,OVC,M,M,1400.00,4500.00,M,M,M,M,M,M,M,M,M,39.20,K10U 021100Z AUTO 00000KT 10SM BKN014 OVC045 04/03 A3004 RMK AO2,M
05U,2023-10-02 11:10,-116.0051,39.6042,1811.23,42.80,41.00,93.30,0.00,0.00,0.00,30.02,M,10.00,M,OVC,M,M,M,1100.00,M,M,M,M,M,M,M,M,M,M,42.80,K05U 021110Z AUTO 00000KT 10SM OVC011 06/05 A3002 RMK A01,M
BVU,2023-10-02 11:15,-114.8611,35.9475,671.00,55.40,37.40,50.64,0.00,0.00,0.00,29.90,M,10.00,M,CLR,M,M,M,M,M,M,M,M,M,M,M,M,M,M,55.40,KBVU 021115Z AUTO 00000KT 10SM CLR 13/03 A2990 RMK AO2,M
CXP,2023-10-02 11:15,-119.7326,39.1923,1431.00,46.40,41.00,81.34,0.00,0.00,0.00,30.06,M,10.00,M,OVC,M,M,M,4200.00,M,M,M,M,M,M,M,M,M,M,46.40,KCXP 021115Z AUTO 00000KT 10SM OVC042 08/05 A3006 RMK AO2,M
RTS,2023-10-02 11:15,-119.8764,39.6682,1539.00,41.00,33.80,75.33,330.00,6.00,0.00,30.06,M,10.00,M,BKN,OVC,M,M,7500.00,8500.00,M,M,M,M,M,M,M,M,M,36.37,KRTS 021115Z AUTO 33006KT 10SM BKN075 OVC085 05/01 A3006 RMK AO2,M
MEV,2023-10-02 11:15,-119.7500,38.9963,1441.42,46.40,41.00,81.34,0.00,0.00,0.00,30.05,M,10.00,M,FEW,OVC,M,M,3500.00,5000.00,M,M,M,M,M,M,M,M,M,46.40,KMEV 021115Z AUTO 00000KT 10SM FEW035 OVC050 08/05 A3005 RMK AO2,M
BAM,2023-10-02 11:15,-116.8743,40.5990,1382.36,44.60,41.00,87.09,320.00,6.00,0.00,30.04,M,10.00,M,OVC,M,M,M,3200.00,M,M,M,M,M,M,M,M,M,M,40.71,KBAM 021115Z AUTO 32006KT 10SM OVC032 07/05 A3004 RMK AO1,M
HTH,2023-10-02 11:15,-118.6315,38.5448,1282.89,48.20,41.00,76.01,330.00,3.00,0.00,30.04,M,10.00,M,FEW,OVC,M,M,3200.00,5500.00,M,M,M,M,M,M,M,M,M,47.21,KHTH 021115Z AUTO 33003KT 10SM FEW032 OVC055 09/05 A3004 RMK A01,M
TMT,2023-10-02 11:15,-117.1971,39.4643,1749.34,41.40,39.60,93.26,320.00,3.00,0.00,30.03,M,10.00,M,SCT,OVC,M,M,1200.00,2800.00,M,M,M,M,M,M,M,M,M,39.43,KTMT 021115Z AUTO 32003KT 10SM SCT012 OVC028 05/04 A3003 RMK AO2 T00520042,M
10U,2023-10-02 11:20,-116.1876,41.9532,1637.00,39.20,37.40,93.19,0.00,0.00,0.00,30.03,M,10.00,M,BKN,SCT,OVC,M,1300.00,4400.00,5500.00,M,M,M,M,M,M,M,M,39.20,K10U 021120Z AUTO 00000KT 10SM BKN013 SCT044 OVC055 04/03 A3003 RMK AO2,M
05U,2023-10-02 11:30,-116.0051,39.6042,1811.23,42.80,41.00,93.30,0.00,0.00,0.00,30.02,M,10.00,M,OVC,M,M,M,800.00,M,M,M,M,M,M,M,M,M,M,42.80,K05U 021130Z AUTO 00000KT 10SM OVC008 06/05 A3002 RMK A01,M
BVU,2023-10-02 11:35,-114.8611,35.9475,671.00,51.80,39.20,61.99,0.00,0.00,0.00,29.91,M,10.00,M,CLR,M,M,M,M,M,M,M,M,M,M,M,M,M,M,51.80,KBVU 021135Z AUTO 00000KT 10SM CLR 11/04 A2991 RMK AO2,M
CXP,2023-10-02 11:35,-119.7326,39.1923,1431.00,46.40,41.00,81.34,0.00,0.00,0.00,30.06,M,10.00,M,OVC,M,M,M,4400.00,M,M,M,M,M,M,M,M,M,M,46.40,KCXP 021135Z AUTO 00000KT 10SM OVC044 08/05 A3006 RMK AO2,M
RTS,2023-10-02 11:35,-119.8764,39.6682,1539.00,41.00,33.80,75.33,340.00,5.00,0.00,30.07,M,10.00,M,OVC,M,M,M,8000.00,M,M,M,M,M,M,M,M,M,M,37.08,KRTS 021135Z AUTO 34005KT 10SM OVC080 05/01 A3007 RMK AO2,M
MEV,2023-10-02 11:35,-119.7500,38.9963,1441.42,46.40,41.00,81.34,0.00,0.00,0.00,30.05,M,10.00,M,FEW,OVC,M,M,3500.00,5000.00,M,M,M,M,M,M,M,M,M,46.40,KMEV 021135Z AUTO 00000KT 10SM FEW035 OVC050 08/05 A3005 RMK AO2,M
BAM,2023-10-02 11:35,-116.8743,40.5990,1382.36,44.60,41.00,87.09,330.00,4.00,0.00,30.04,M,10.00,M,OVC,M,M,M,3400.00,M,M,M,M,M,M,M,M,M,M,42.13,KBAM 021135Z AUTO 33004KT 10SM OVC034 07/05 A3004 RMK AO1,M
HTH,2023-10-02 11:35,-118.6315,38.5448,1282.89,48.20,39.20,70.88,M,3.00,0.00,30.04,M,10.00,M,FEW,OVC,M,M,3300.00,5500.00,M,M,M,M,M,M,M,M,M,47.21,KHTH 021135Z AUTO VRB03KT 10SM FEW033 OVC055 09/04 A3004 RMK A01,M
TMT,2023-10-02 11:35,-117.1971,39.4643,1749.34,41.00,39.40,93.97,320.00,4.00,0.00,30.04,M,10.00,M,SCT,OVC,M,M,2700.00,3600.00,M,M,M,M,M,M,M,M,M,37.93,KTMT 021135Z AUTO 32004KT 10SM SCT027 OVC036 05/04 A3004 RMK AO2 T00510041,M
10U,2023-10-02 11:40,-116.1876,41.9532,1637.00,39.20,37.40,93.19,300.00,4.00,0.00,30.04,M,10.00,M,BKN,OVC,M,M,1300.00,5500.00,M,M,M,M,M,M,M,M,M,35.83,K10U 021140Z AUTO 30004KT 10SM BKN013 OVC055 04/03 A3004 RMK AO2,M
05U,2023-10-02 11:50,-116.0051,39.6042,1811.23,42.80,41.00,93.30,0.00,0.00,0.00,30.02,M,10.00,M,BKN,OVC,M,M,900.00,1200.00,M,M,M,M,M,M,M,M,M,42.80,K05U 021150Z AUTO 00000KT 10SM BKN009 OVC012 06/05 A3002 RMK A01,M
P68,2023-10-02 11:53,-116.0056,39.6014,1993.00,42.00,40.00,92.55,0.00,0.00,0.00,29.99,1012.30,M,M,M,M,M,M,M,M,M,M,M,M,M,M,M,M,M,42.00,KP68 021153Z AUTO 00000KT 06/04 A2999 RMK AO1 SLP123 70024 T00560044 10061 20050 57002,M
DRA,2023-10-02 11:53,-116.0278,36.6206,1009.00,48.00,36.00,62.97,350.00,4.00,0.00,29.95,1011.40,10.00,M,CLR,M,M,M,M,M,M,M,M,M,M,M,M,M,M,46.10,KDRA 021153Z AUTO 35004KT 10SM CLR 09/02 A2995 RMK AO2 SLP114 T00890022 10150 20083 53006 $,M
ELY,2023-10-02 11:53,-114.8453,39.2950,1909.00,30.00,28.00,92.15,190.00,6.00,0.00,29.99,1013.20,10.00,M,BKN,OVC,M,M,2100.00,7000.00,M,M,M,M,M,M,M,M,M,23.12,KELY 021153Z AUTO 19006KT 10SM BKN021 OVC070 M01/M02 A2999 RMK AO2 SLP132 T10111022 10006 21022 58001,M
VGT,2023-10-02 11:53,-115.1933,36.2111,667.00,58.00,40.00,51.03,330.00,5.00,0.00,29.91,1013.10,10.00,M,CLR,M,M,M,M,M,M,M,M,M,M,M,M,M,M,58.00,KVGT 021153Z AUTO 33005KT 10SM CLR 14/04 A2991 RMK AO2 SLP131 70001 T01440044 10183 20144 53007,M
LOL,2023-10-02 11:53,-118.5701,40.0684,1192.43,45.00,42.00,89.15,40.00,4.00,T,30.04,1016.60,10.00,M,OVC,M,M,M,4400.00,M,M,M,M,M,M,M,M,M,M,42.60,KLOL 021153Z AUTO 04004KT 10SM OVC044 07/06 A3004 RMK AO2 RAB04E30 SLP166 P0000 60000 7//// T00720056 10083 20072 55001 $,M
BVU,2023-10-02 11:55,-114.8611,35.9475,671.00,53.60,37.40,54.07,0.00,0.00,0.00,29.91,M,10.00,M,CLR,M,M,M,M,M,M,M,M,M,M,M,M,M,M,53.60,KBVU 021155Z AUTO 00000KT 10SM CLR 12/03 A2991 RMK AO2,M
CXP,2023-10-02 11:55,-119.7326,39.1923,1431.00,46.40,42.80,87.19,0.00,0.00,0.00,30.06,M,10.00,M,OVC,M,M,M,4800.00,M,M,M,M,M,M,M,M,M,M,46.40,KCXP 021155Z AUTO 00000KT 10SM OVC048 08/06 A3006 RMK AO2,M
INS,2023-10-02 11:55,-115.6733,36.5872,955.00,49.50,34.00,54.98,250.00,4.00,0.00,29.94,1011.00,10.00,M,CLR,M,M,M,M,M,M,M,M,M,M,M,M,M,M,47.86,KINS 021155Z AUTO 25004KT 10SM CLR 10/01 A2994 RMK AO2 SLP110 T00970011 10154 20097 53005 $,M
RNO,2023-10-02 11:55,-119.7711,39.4839,1341.00,49.00,36.00,60.66,270.00,4.00,0.00,30.05,1015.30,10.00,M,SCT,BKN,M,M,5000.00,9000.00,M,M,M,M,M,M,M,M,M,47.27,KRNO 021155Z 27004KT 10SM SCT050 BKN090 09/02 A3005 RMK AO2 SLP153 T00940022 10111 20094 55002 $,M
RTS,2023-10-02 11:55,-119.8764,39.6682,1539.00,41.00,33.80,75.33,320.00,5.00,0.00,30.07,M,10.00,M,OVC,M,M,M,8500.00,M,M,M,M,M,M,M,M,M,M,37.08,KRTS 021155Z AUTO 32005KT 10SM OVC085 05/01 A3007 RMK AO2,M
MEV,2023-10-02 11:55,-119.7500,38.9963,1441.42,44.60,41.00,87.09,100.00,3.00,0.00,30.05,M,10.00,M,OVC,M,M,M,5000.00,M,M,M,M,M,M,M,M,M,M,43.09,KMEV 021155Z AUTO 10003KT 10SM OVC050 07/05 A3005 RMK AO2,M
BAM,2023-10-02 11:55,-116.8743,40.5990,1382.36,44.60,41.00,87.09,350.00,5.00,0.00,30.04,M,10.00,M,OVC,M,M,M,3400.00,M,M,M,M,M,M,M,M,M,M,41.36,KBAM 021155Z AUTO 35005KT 10SM OVC034 07/05 A3004 RMK AO1,M
HTH,2023-10-02 11:55,-118.6315,38.5448,1282.89,48.20,41.00,76.01,10.00,8.00,0.00,30.04,M,10.00,M,SCT,OVC,M,M,3100.00,5500.00,M,M,M,M,M,M,M,M,M,44.07,KHTH 021155Z AUTO 01008KT 10SM SCT031 OVC055 09/05 A3004 RMK A01,M
TMT,2023-10-02 11:55,-117.1971,39.4643,1749.34,41.00,39.20,93.24,340.00,4.00,0.00,30.05,M,10.00,M,OVC,M,M,M,3900.00,M,M,M,M,M,M,M,M,M,M,37.93,KTMT 021155Z AUTO 34004KT 10SM OVC039 05/04 A3005 RMK AO2 70026 T00500040 10056 20050,M
LSV,2023-10-02 11:55,-115.0343,36.2362,570.00,54.30,35.60,49.09,60.00,4.00,0.00,29.88,1010.60,10.00,M,CLR,M,M,M,M,M,M,M,M,M,M,M,M,M,M,54.30,KLSV 021155Z AUTO 06004KT 10SM CLR 12/02 A2988 RMK AO2 SLP106 T01240020 10183 20124 52009 $,M
EKO,2023-10-02 11:56,-115.7860,40.8242,1367.00,45.00,40.00,82.51,190.00,4.00,0.00,29.98,1013.60,10.00,M,BKN,OVC,M,M,2600.00,3700.00,M,M,M,M,M,M,M,M,M,42.60,KEKO 021156Z AUTO 19004KT 10SM BKN026 OVC037 07/04 A2998 RMK AO2 SLP136 70006 T00720044 10078 20056 58003 $,M
WMC,2023-10-02 11:56,-117.8072,40.9019,1315.00,44.00,40.00,85.71,290.00,6.00,0.00,30.04,1016.10,10.00,M,FEW,OVC,M,M,2700.00,3700.00,M,M,M,M,M,M,M,M,M,39.98,KWMC 021156Z AUTO 29006KT 10SM FEW027 OVC037 07/04 A3004 RMK AO2 SLP161 60000 70014 T00670044 10067 20067 56002,M
NFL,2023-10-02 11:56,-118.7010,39.4166,1199.00,48.00,43.00,82.72,40.00,6.00,0.00,30.03,1013.80,10.00,M,BKN,BKN,OVC,M,5500.00,6500.00,8500.00,M,M,M,M,M,M,M,M,44.80,KNFL 021156Z AUTO 04006KT 10SM BKN055 BKN065 OVC085 09/06 A3003 RMK AO2 SLP138 70010 T00890061 10100 20089 57001,M
HND,2023-10-02 11:56,-115.1344,35.9729,742.79,55.00,41.00,59.13,220.00,8.00,0.00,29.94,1014.20,10.00,M,CLR,M,M,M,M,M,M,M,M,M,M,M,M,M,M,55.00,KHND 021156Z AUTO 22008KT 10SM CLR 13/05 A2994 RMK AO2 SLP142 T01280050 10150 20128 53007,M
TPH,2023-10-02 11:56,-117.0904,38.0505,1654.00,45.00,39.00,79.36,350.00,12.00,0.00,30.02,1013.90,10.00,M,SCT,OVC,M,M,1700.00,4200.00,M,M,M,M,M,M,M,M,M,38.55,KTPH 021156Z AUTO 35012KT 10SM SCT017 OVC042 07/04 A3002 RMK AO2 SLP139 70030 T00720039 10072 20061 53003,M
LAS,2023-10-02 11:56,-115.1634,36.0719,663.00,55.00,45.00,68.93,220.00,4.00,0.00,29.91,1011.70,10.00,M,CLR,M,M,M,M,M,M,M,M,M,M,M,M,M,M,55.00,KLAS 021156Z 22004KT 10SM CLR 13/07 A2991 RMK AO2 SLP117 70013 T01280072 10156 20128 53007,M
10U,2023-10-02 12:00,-116.1876,41.9532,1637.00,39.20,37.40,93.19,0.00,0.00,0.00,30.04,M,10.00,M,OVC,M,M,M,1400.00,M,M,M,M,M,M,M,M,M,M,39.20,K10U 021200Z AUTO 00000KT 10SM OVC014 04/03 A3004 RMK AO2,M
ELY,2023-10-02 12:10,-114.8453,39.2950,1909.00,30.00,28.00,92.15,200.00,5.00,0.00,29.99,M,10.00,M,SCT,BKN,M,M,2100.00,7000.00,M,M,M,M,M,M,M,M,M,24.02,KELY 021210Z AUTO 20005KT 10SM SCT021 BKN070 M01/M02 A2999 RMK AO2 T10111022,M
05U,2023-10-02 12:10,-116.0051,39.6042,1811.23,42.80,41.00,93.30,0.00,0.00,0.00,30.02,M,10.00,M,BKN,OVC,M,M,800.00,1200.00,M,M,M,M,M,M,M,M,M,42.80,K05U 021210Z AUTO 00000KT 10SM BKN008 OVC012 06/05 A3002 RMK A01,M
BVU,2023-10-02 12:15,-114.8611,35.9475,671.00,53.60,37.40,54.07,0.00,0.00,0.00,29.91,M,10.00,M,CLR,M,M,M,M,M,M,M,M,M,M,M,M,M,M,53.60,KBVU 021215Z AUTO 00000KT 10SM CLR 12/03 A2991 RMK AO2,M
CXP,2023-10-02 12:15,-119.7326,39.1923,1431.00,46.40,41.00,81.34,0.00,0.00,0.00,30.07,M,10.00,M,BKN,OVC,M,M,4800.00,7500.00,M,M,M,M,M,M,M,M,M,46.40,KCXP 021215Z AUTO 00000KT 10SM BKN048 OVC075 08/05 A3007 RMK AO2,M
RTS,2023-10-02 12:15,-119.8764,39.6682,1539.00,39.20,32.00,75.16,330.00,3.00,0.00,30.07,M,10.00,M,OVC,M,M,M,8000.00,M,M,M,M,M,M,M,M,M,M,36.92,KRTS 021215Z AUTO 33003KT 10SM OVC080 04/00 A3007 RMK AO2,M
MEV,2023-10-02 12:15,-119.7500,38.9963,1441.42,42.80,41.00,93.30,120.00,3.00,0.00,30.05,M,10.00,M,BKN,OVC,M,M,5000.00,7000.00,M,M,M,M,M,M,M,M,M,41.03,KMEV 021215Z AUTO 12003KT 10SM BKN050 OVC070 06/05 A3005 RMK AO2,M
BAM,2023-10-02 12:15,-116.8743,40.5990,1382.36,44.60,41.00,87.09,0.00,0.00,0.00,30.04,M,10.00,M,OVC,M,M,M,3400.00,M,M,M,M,M,M,M,M,M,M,44.60,KBAM 021215Z AUTO 00000KT 10SM OVC034 07/05 A3004 RMK AO1,M
HTH,2023-10-02 12:15,-118.6315,38.5448,1282.89,48.20,41.00,76.01,330.00,3.00,0.00,30.05,M,10.00,M,FEW,OVC,M,M,3100.00,5500.00,M,M,M,M,M,M,M,M,M,47.21,KHTH 021215Z AUTO 33003KT 10SM FEW031 OVC055 09/05 A3005 RMK A01,M
TMT,2023-10-02 12:15,-117.1971,39.4643,1749.34,41.00,39.20,93.24,340.00,4.00,0.00,30.05,M,10.00,M,SCT,OVC,M,M,2800.00,3700.00,M,M,M,M,M,M,M,M,M,37.93,KTMT 021215Z AUTO 34004KT 10SM SCT028 OVC037 05/04 A3005 RMK AO2 T00500040,M
10U,2023-10-02 12:20,-116.1876,41.9532,1637.00,39.20,39.20,100.00,0.00,0.00,0.00,30.04,M,10.00,M,OVC,M,M,M,1400.00,M,M,M,M,M,M,M,M,M,M,39.20,K10U 021220Z AUTO 00000KT 10SM OVC014 04/04 A3004 RMK AO2,M
ELY,2023-10-02 12:21,-114.8453,39.2950,1909.00,31.00,28.00,88.48,170.00,7.00,0.00,29.99,M,10.00,M,BKN,BKN,M,M,1900.00,7000.00,M,M,M,M,M,M,M,M,M,23.56,KELY 021221Z AUTO 17007KT 10SM BKN019 BKN070 M01/M02 A2999 RMK AO2 T10061022,M
05U,2023-10-02 12:30,-116.0051,39.6042,1811.23,42.80,41.00,93.30,0.00,0.00,0.00,30.02,M,10.00,M,OVC,M,M,M,700.00,M,M,M,M,M,M,M,M,M,M,42.80,K05U 021230Z AUTO 00000KT 10SM OVC007 06/05 A3002 RMK A01,M
BVU,2023-10-02 12:35,-114.8611,35.9475,671.00,53.60,39.20,58.02,0.00,0.00,0.00,29.92,M,10.00,M,CLR,M,M,M,M,M,M,M,M,M,M,M,M,M,M,53.60,KBVU 021235Z AUTO 00000KT 10SM CLR 12/04 A2992 RMK AO2,M
CXP,2023-10-02 12:35,-119.7326,39.1923,1431.00,46.40,41.00,81.34,0.00,0.00,0.00,30.07,M,10.00,M,OVC,M,M,M,4700.00,M,M,M,M,M,M,M,M,M,M,46.40,KCXP 021235Z AUTO 00000KT 10SM OVC047 08/05 A3007 RMK AO2,M
RTS,2023-10-02 12:35,-119.8764,39.6682,1539.00,41.00,33.80,75.33,240.00,3.00,0.00,30.07,M,10.00,M,OVC,M,M,M,7500.00,M,M,M,M,M,M,M,M,M,M,38.98,KRTS 021235Z AUTO 24003KT 10SM OVC075 05/01 A3007 RMK AO2,M
MEV,2023-10-02 12:35,-119.7500,38.9963,1441.42,42.80,41.00,93.30,0.00,0.00,0.00,30.05,M,10.00,M,FEW,OVC,M,M,5000.00,7000.00,M,M,M,M,M,M,M,M,M,42.80,KMEV 021235Z AUTO 00000KT 10SM FEW050 OVC070 06/05 A3005 RMK AO2,M
BAM,2023-10-02 12:35,-116.8743,40.5990,1382.36,44.60,41.00,87.09,0.00,0.00,0.00,30.04,M,10.00,M,OVC,M,M,M,3200.00,M,M,M,M,M,M,M,M,M,M,44.60,KBAM 021235Z AUTO 00000KT 10SM OVC032 07/05 A3004 RMK AO1,M
HTH,2023-10-02 12:35,-118.6315,38.5448,1282.89,48.20,41.00,76.01,0.00,0.00,0.00,30.05,M,10.00,M,SCT,BKN,OVC,M,3800.00,4600.00,5500.00,M,M,M,M,M,M,M,M,48.20,KHTH 021235Z AUTO 00000KT 10SM SCT038 BKN046 OVC055 09/05 A3005 RMK A01,M
TMT,2023-10-02 12:35,-117.1971,39.4643,1749.34,41.00,39.60,94.71,0.00,0.00,0.00,30.05,M,10.00,M,SCT,OVC,M,M,2800.00,3500.00,M,M,-DZ,M,M,M,M,M,M,41.00,KTMT 021235Z AUTO 00000KT 10SM -DZ SCT028 OVC035 05/04 A3005 RMK AO2 T00510042,M
10U,2023-10-02 12:40,-116.1876,41.9532,1637.00,39.20,37.40,93.19,0.00,0.00,0.00,30.04,M,10.00,M,OVC,M,M,M,1300.00,M,M,M,M,M,M,M,M,M,M,39.20,K10U 021240Z AUTO 00000KT 10SM OVC013 04/03 A3004 RMK AO2,M
05U,2023-10-02 12:50,-116.0051,39.6042,1811.23,42.80,41.00,93.30,0.00,0.00,0.00,30.03,M,10.00,M,OVC,M,M,M,700.00,M,M,M,M,M,M,M,M,M,M,42.80,K05U 021250Z AUTO 00000KT 10SM OVC007 06/05 A3003 RMK A01,M
P68,2023-10-02 12:53,-116.0056,39.6014,1993.00,42.00,40.00,92.55,0.00,0.00,0.00,30.00,1012.70,M,M,M,M,M,M,M,M,M,M,M,M,M,M,M,M,M,42.00,KP68 021253Z AUTO 00000KT 06/04 A3000 RMK AO1 SLP127 T00560044,M
DRA,2023-10-02 12:53,-116.0278,36.6206,1009.00,46.00,36.00,67.90,0.00,0.00,0.00,29.96,1012.10,10.00,M,CLR,M,M,M,M,M,M,M,M,M,M,M,M,M,M,46.00,KDRA 021253Z AUTO 00000KT 10SM CLR 08/02 A2996 RMK AO2 SLP121 T00780022 $,M
ELY,2023-10-02 12:53,-114.8453,39.2950,1909.00,30.00,28.00,92.15,150.00,7.00,0.00,30.00,1013.30,10.00,M,BKN,OVC,M,M,1600.00,7500.00,M,M,M,M,M,M,M,M,M,22.34,KELY 021253Z AUTO 15007KT 10SM BKN016 OVC075 M01/M02 A3000 RMK AO2 SLP133 T10111022,M
VGT,2023-10-02 12:53,-115.1933,36.2111,667.00,58.00,40.00,51.03,350.00,5.00,0.00,29.92,1013.60,10.00,M,CLR,M,M,M,M,M,M,M,M,M,M,M,M,M,M,58.00,KVGT 021253Z 35005KT 10SM CLR 14/04 A2992 RMK AO2 SLP136 T01440044,M
LOL,2023-10-02 12:53,-118.5701,40.0684,1192.43,46.00,41.00,82.58,0.00,0.00,T,30.04,1016.90,10.00,M,SCT,OVC,M,M,4700.00,8000.00,M,M,M,M,M,M,M,M,M,46.00,KLOL 021253Z AUTO 00000KT 10SM SCT047 OVC080 08/05 A3004 RMK AO2 RAB1158E09 SLP169 P0000 T00780050 $,M
BVU,2023-10-02 12:55,-114.8611,35.9475,671.00,51.80,39.20,61.99,0.00,0.00,0.00,29.92,M,10.00,M,CLR,M,M,M,M,M,M,M,M,M,M,M,M,M,M,51.80,KBVU 021255Z AUTO 00000KT 10SM CLR 11/04 A2992 RMK AO2,M
CXP,2023-10-02 12:55,-119.7326,39.1923,1431.00,46.40,41.00,81.34,0.00,0.00,0.00,30.07,M,10.00,M,FEW,SCT,BKN,M,4400.00,4900.00,5500.00,M,M,M,M,M,M,M,M,46.40,KCXP 021255Z AUTO 00000KT 10SM FEW044 SCT049 BKN055 08/05 A3007 RMK AO2,M
RNO,2023-10-02 12:55,-119.7711,39.4839,1341.00,47.00,35.00,62.84,280.00,4.00,0.00,30.06,1015.90,10.00,M,BKN,M,M,M,9000.00,M,M,M,M,M,M,M,M,M,M,44.94,KRNO 021255Z 28004KT 10SM BKN090 08/02 A3006 RMK AO2 SLP159 T00830017 $,M
LSV,2023-10-02 12:55,-115.0343,36.2362,570.00,53.40,36.30,52.16,50.00,4.00,0.00,29.90,1011.40,10.00,M,CLR,M,M,M,M,M,M,M,M,M,M,M,M,M,M,53.40,KLSV 021255Z AUTO 05004KT 10SM CLR 12/02 A2990 RMK AO2 SLP114 T01190024 $,M
RTS,2023-10-02 12:55,-119.8764,39.6682,1539.00,41.00,33.80,75.33,0.00,0.00,0.00,30.08,M,10.00,M,OVC,M,M,M,7500.00,M,M,M,M,M,M,M,M,M,M,41.00,KRTS 021255Z AUTO 00000KT 10SM OVC075 05/01 A3008 RMK AO2,M
MEV,2023-10-02 12:55,-119.7500,38.9963,1441.42,42.80,41.00,93.30,0.00,0.00,0.00,30.06,M,10.00,M,BKN,SCT,OVC,M,3700.00,5000.00,7500.00,M,M,M,M,M,M,M,M,42.80,KMEV 021255Z AUTO 00000KT 10SM BKN037 SCT050 OVC075 06/05 A3006 RMK AO2,M
BAM,2023-10-02 12:55,-116.8743,40.5990,1382.36,44.60,41.00,87.09,0.00,0.00,0.00,30.04,M,10.00,M,OVC,M,M,M,3200.00,M,M,M,M,M,M,M,M,M,M,44.60,KBAM 021255Z AUTO 00000KT 10SM OVC032 07/05 A3004 RMK AO1,M
HTH,2023-10-02 12:55,-118.6315,38.5448,1282.89,48.20,41.00,76.01,0.00,0.00,0.00,30.06,M,10.00,M,BKN,OVC,M,M,3500.00,4400.00,M,M,M,M,M,M,M,M,M,48.20,KHTH 021255Z AUTO 00000KT 10SM BKN035 OVC044 09/05 A3006 RMK A01,M
TMT,2023-10-02 12:55,-117.1971,39.4643,1749.34,41.00,39.40,93.97,0.00,0.00,0.00,30.05,M,10.00,M,OVC,M,M,M,3500.00,M,M,M,-DZ,M,M,M,M,M,M,41.00,KTMT 021255Z AUTO 00000KT 10SM -DZ OVC035 05/04 A3005 RMK AO2 T00500041,M
INS,2023-10-02 12:55,-115.6733,36.5872,955.00,50.00,33.30,52.48,240.00,6.00,0.00,29.95,1011.50,10.00,M,OVC,M,M,M,8000.00,M,M,M,M,M,M,M,M,M,M,50.00,KINS 021255Z AUTO 24006KT 10SM OVC080 10/01 A2995 RMK AO2 SLP115 T01010007 $,M
EKO,2023-10-02 12:56,-115.7860,40.8242,1367.00,45.00,40.00,82.51,0.00,0.00,0.00,29.99,1013.90,10.00,M,OVC,M,M,M,1900.00,M,M,M,M,M,M,M,M,M,M,45.00,KEKO 021256Z AUTO 00000KT 10SM OVC019 07/04 A2999 RMK AO2 SLP139 T00720044 $,M
WMC,2023-10-02 12:56,-117.8072,40.9019,1315.00,44.00,40.00,85.71,300.00,5.00,0.00,30.04,1016.40,10.00,M,FEW,SCT,OVC,M,3200.00,4200.00,7500.00,M,M,M,M,M,M,M,M,40.65,KWMC 021256Z AUTO 30005KT 10SM FEW032 SCT042 OVC075 07/04 A3004 RMK AO2 SLP164 T00670044,M
NFL,2023-10-02 12:56,-118.7010,39.4166,1199.00,48.00,43.00,82.72,330.00,3.00,0.00,30.05,1014.40,10.00,M,BKN,OVC,M,M,6000.00,9000.00,M,M,M,M,M,M,M,M,M,46.98,KNFL 021256Z AUTO 33003KT 10SM BKN060 OVC090 09/06 A3005 RMK AO2 SLP144 T00890061,M
HND,2023-10-02 12:56,-115.1344,35.9729,742.79,53.00,41.00,63.61,210.00,8.00,0.00,29.95,1014.90,10.00,M,CLR,M,M,M,M,M,M,M,M,M,M,M,M,M,M,53.00,KHND 021256Z 21008KT 10SM CLR 12/05 A2995 RMK AO2 SLP149 T01170050,M
TPH,2023-10-02 12:56,-117.0904,38.0505,1654.00,44.00,39.00,82.44,320.00,11.00,T,30.02,1014.50,10.00,M,FEW,OVC,M,M,4700.00,6000.00,M,M,M,M,M,M,M,M,M,37.63,KTPH 021256Z AUTO 32011KT 10SM FEW047 OVC060 07/04 A3002 RMK AO2 RAB21E30 SLP145 P0000 T00670039,M
LAS,2023-10-02 12:56,-115.1634,36.0719,663.00,55.00,45.00,68.93,220.00,3.00,0.00,29.93,1012.40,10.00,M,FEW,M,M,M,10000.00,M,M,M,M,M,M,M,M,M,M,55.00,KLAS 021256Z 22003KT 10SM FEW100 13/07 A2993 RMK AO2 SLP124 T01280072,M
10U,2023-10-02 13:00,-116.1876,41.9532,1637.00,39.20,37.40,93.19,0.00,0.00,0.00,30.04,M,10.00,M,FEW,OVC,M,M,500.00,1200.00,M,M,M,M,M,M,M,M,M,39.20,K10U 021300Z AUTO 00000KT 10SM FEW005 OVC012 04/03 A3004 RMK AO2,M
05U,2023-10-02 13:10,-116.0051,39.6042,1811.23,42.80,41.00,93.30,180.00,3.00,0.00,30.03,M,10.00,M,OVC,M,M,M,900.00,M,M,M,M,M,M,M,M,M,M,41.03,K05U 021310Z AUTO 18003KT 10SM OVC009 06/05 A3003 RMK A01,M
BVU,2023-10-02 13:15,-114.8611,35.9475,671.00,51.80,39.20,61.99,0.00,0.00,0.00,29.93,M,10.00,M,CLR,M,M,M,M,M,M,M,M,M,M,M,M,M,M,51.80,KBVU 021315Z AUTO 00000KT 10SM CLR 11/04 A2993 RMK AO2,M
CXP,2023-10-02 13:15,-119.7326,39.1923,1431.00,44.60,41.00,87.09,340.00,4.00,0.00,30.08,M,10.00,M,BKN,BKN,BKN,M,5000.00,7500.00,9000.00,M,M,M,M,M,M,M,M,42.13,KCXP 021315Z AUTO 34004KT 10SM BKN050 BKN075 BKN090 07/05 A3008 RMK AO2,M
RTS,2023-10-02 13:15,-119.8764,39.6682,1539.00,41.00,33.80,75.33,280.00,4.00,0.00,30.08,M,10.00,M,OVC,M,M,M,7000.00,M,M,M,M,M,M,M,M,M,M,37.93,KRTS 021315Z AUTO 28004KT 10SM OVC070 05/01 A3008 RMK AO2,M
MEV,2023-10-02 13:15,-119.7500,38.9963,1441.42,39.20,37.40,93.19,0.00,0.00,0.00,30.06,M,10.00,M,SCT,BKN,BKN,M,3800.00,5500.00,7500.00,M,M,M,M,M,M,M,M,39.20,KMEV 021315Z AUTO 00000KT 10SM SCT038 BKN055 BKN075 04/03 A3006 RMK AO2,M
BAM,2023-10-02 13:15,-116.8743,40.5990,1382.36,44.60,41.00,87.09,330.00,3.00,0.00,30.05,M,10.00,M,OVC,M,M,M,3400.00,M,M,M,M,M,M,M,M,M,M,43.09,KBAM 021315Z AUTO 33003KT 10SM OVC034 07/05 A3005 RMK AO1,M
HTH,2023-10-02 13:15,-118.6315,38.5448,1282.89,48.20,41.00,76.01,240.00,4.00,0.00,30.06,M,10.00,M,BKN,BKN,OVC,M,3600.00,4300.00,4900.00,M,M,M,M,M,M,M,M,46.34,KHTH 021315Z AUTO 24004KT 10SM BKN036 BKN043 OVC049 09/05 A3006 RMK A01,M
TMT,2023-10-02 13:15,-117.1971,39.4643,1749.34,41.00,39.20,93.24,0.00,0.00,0.00,30.05,M,10.00,M,BKN,BKN,OVC,M,2500.00,3200.00,3900.00,M,-DZ,M,M,M,M,M,M,41.00,KTMT 021315Z AUTO 00000KT 10SM -DZ BKN025 BKN032 OVC039 05/04 A3005 RMK AO2 T00510040,M
10U,2023-10-02 13:20,-116.1876,41.9532,1637.00,39.20,37.40,93.19,160.00,3.00,0.00,30.05,M,10.00,M,OVC,M,M,M,1100.00,M,M,M,M,M,M,M,M,M,M,36.92,K10U 021320Z AUTO 16003KT 10SM OVC011 04/03 A3005 RMK AO2,M
05U,2023-10-02 13:30,-116.0051,39.6042,1811.23,42.80,41.00,93.30,150.00,4.00,0.00,30.03,M,10.00,M,BKN,OVC,M,M,800.00,1400.00,M,M,M,M,M,M,M,M,M,40.03,K05U 021330Z AUTO 15004KT 10SM BKN008 OVC014 06/05 A3003 RMK A01,M
BVU,2023-10-02 13:35,-114.8611,35.9475,671.00,53.60,39.20,58.02,0.00,0.00,0.00,29.93,M,10.00,M,CLR,M,M,M,M,M,M,M,M,M,M,M,M,M,M,53.60,KBVU 021335Z AUTO 00000KT 10SM CLR 12/04 A2993 RMK AO2,M
CXP,2023-10-02 13:35,-119.7326,39.1923,1431.00,44.60,37.40,75.68,330.00,4.00,0.00,30.08,M,10.00,M,SCT,BKN,M,M,5000.00,8500.00,M,M,M,M,M,M,M,M,M,42.13,KCXP 021335Z AUTO 33004KT 10SM SCT050 BKN085 07/03 A3008 RMK AO2,M
RTS,2023-10-02 13:35,-119.8764,39.6682,1539.00,41.00,33.80,75.33,320.00,4.00,0.00,30.08,M,10.00,M,OVC,M,M,M,7000.00,M,M,M,M,M,M,M,M,M,M,37.93,KRTS 021335Z AUTO 32004KT 10SM OVC070 05/01 A3008 RMK AO2,M
MEV,2023-10-02 13:35,-119.7500,38.9963,1441.42,39.20,37.40,93.19,0.00,0.00,0.00,30.07,M,10.00,M,OVC,M,M,M,5000.00,M,M,M,M,M,M,M,M,M,M,39.20,KMEV 021335Z AUTO 00000KT 10SM OVC050 04/03 A3007 RMK AO2,M
BAM,2023-10-02 13:35,-116.8743,40.5990,1382.36,44.60,41.00,87.09,320.00,4.00,0.00,30.05,M,10.00,M,OVC,M,M,M,3400.00,M,M,M,M,M,M,M,M,M,M,42.13,KBAM 021335Z AUTO 32004KT 10SM OVC034 07/05 A3005 RMK AO1,M
HTH,2023-10-02 13:35,-118.6315,38.5448,1282.89,48.20,41.00,76.01,240.00,4.00,0.00,30.06,M,10.00,M,FEW,SCT,OVC,M,3600.00,4800.00,6000.00,M,M,M,M,M,M,M,M,46.34,KHTH 021335Z AUTO 24004KT 10SM FEW036 SCT048 OVC060 09/05 A3006 RMK A01,M
TMT,2023-10-02 13:35,-117.1971,39.4643,1749.34,41.00,39.70,95.08,0.00,0.00,0.00,30.06,M,10.00,M,OVC,M,M,M,2500.00,M,M,M,-DZ,M,M,M,M,M,M,41.00,KTMT 021335Z AUTO 00000KT 10SM -DZ OVC025 05/04 A3006 RMK AO2 T00510043,M
10U,2023-10-02 13:40,-116.1876,41.9532,1637.00,39.20,37.40,93.19,0.00,0.00,0.00,30.05,M,10.00,M,OVC,M,M,M,900.00,M,M,M,M,M,M,M,M,M,M,39.20,K10U 021340Z AUTO 00000KT 10SM OVC009 04/03 A3005 RMK AO2,M
NFL,2023-10-02 13:47,-118.7010,39.4166,1199.00,48.00,43.00,82.72,300.00,5.00,0.00,30.05,M,10.00,M,FEW,SCT,BKN,M,500.00,4500.00,6000.00,M,M,M,M,M,M,M,M,45.40,KNFL 021347Z 30005KT 10SM FEW005 SCT045 BKN060 09/06 A3005 RMK AO2 T00890061,M
05U,2023-10-02 13:50,-116.0051,39.6042,1811.23,42.80,41.00,93.30,160.00,5.00,0.00,30.03,M,10.00,M,SCT,OVC,M,M,800.00,1500.00,M,M,M,M,M,M,M,M,M,39.22,K05U 021350Z AUTO 16005KT 10SM SCT008 OVC015 06/05 A3003 RMK A01,M
P68,2023-10-02 13:53,-116.0056,39.6014,1993.00,42.00,41.00,96.21,360.00,4.00,0.01,30.01,1013.30,M,M,M,M,M,M,M,M,M,M,M,M,M,M,M,M,M,39.10,KP68 021353Z AUTO 36004KT 06/05 A3001 RMK AO1 SLP133 P0001 T00560050,M
DRA,2023-10-02 13:53,-116.0278,36.6206,1009.00,45.00,36.00,70.53,100.00,4.00,0.00,29.97,1012.80,10.00,M,CLR,M,M,M,M,M,M,M,M,M,M,M,M,M,M,42.60,KDRA 021353Z AUTO 10004KT 10SM CLR 07/02 A2997 RMK AO2 SLP128 T00720022 $,M
ELY,2023-10-02 13:53,-114.8453,39.2950,1909.00,33.00,30.00,88.58,180.00,7.00,0.00,30.01,1013.70,10.00,M,OVC,M,M,M,1700.00,M,M,M,M,M,M,M,M,M,M,26.00,KELY 021353Z AUTO 18007KT 10SM OVC017 01/M01 A3001 RMK AO2 SLP137 T00061011,M
VGT,2023-10-02 13:53,-115.1933,36.2111,667.00,58.00,40.00,51.03,320.00,4.00,0.00,29.94,1014.40,10.00,M,CLR,M,M,M,M,M,M,M,M,M,M,M,M,M,M,58.00,KVGT 021353Z 32004KT 10SM CLR 14/04 A2994 RMK AO2 SLP144 T01440044,M
LOL,2023-10-02 13:53,-118.5701,40.0684,1192.43,46.00,41.00,82.58,0.00,0.00,0.00,30.06,1017.30,10.00,M,BKN,OVC,M,M,7000.00,9000.00,M,M,M,M,M,M,M,M,M,46.00,KLOL 021353Z AUTO 00000KT 10SM BKN070 OVC090 08/05 A3006 RMK AO2 SLP173 T00780050,M
BVU,2023-10-02 13:55,-114.8611,35.9475,671.00,51.80,39.20,61.99,0.00,0.00,0.00,29.94,M,10.00,M,CLR,M,M,M,M,M,M,M,M,M,M,M,M,M,M,51.80,KBVU 021355Z AUTO 00000KT 10SM CLR 11/04 A2994 RMK AO2,M
CXP,2023-10-02 13:55,-119.7326,39.1923,1431.00,44.60,39.20,81.20,0.00,0.00,0.00,30.08,M,10.00,M,SCT,OVC,M,M,5000.00,8000.00,M,M,M,M,M,M,M,M,M,44.60,KCXP 021355Z AUTO 00000KT 10SM SCT050 OVC080 07/04 A3008 RMK AO2,M
INS,2023-10-02 13:55,-115.6733,36.5872,955.00,49.60,33.30,53.26,240.00,8.00,0.00,29.97,1012.40,10.00,M,FEW,M,M,M,8000.00,M,M,M,M,M,M,M,M,M,M,45.79,KINS 021355Z AUTO 24008KT 10SM FEW080 10/01 A2997 RMK AO2 SLP124 T00980007 $,M
RNO,2023-10-02 13:55,-119.7711,39.4839,1341.00,47.00,35.00,62.84,270.00,4.00,0.00,30.07,1016.10,10.00,M,BKN,M,M,M,8000.00,M,M,M,M,M,M,M,M,M,M,44.94,KRNO 021355Z 27004KT 10SM BKN080 08/02 A3007 RMK AO2 SLP161 T00830017 $,M
LSV,2023-10-02 13:55,-115.0343,36.2362,570.00,52.30,36.00,53.67,60.00,3.00,0.00,29.92,1012.10,10.00,M,CLR,M,M,M,M,M,M,M,M,M,M,M,M,M,M,52.30,KLSV 021355Z AUTO 06003KT 10SM CLR 11/02 A2992 RMK AO2 SLP121 T01130023 $,M
RTS,2023-10-02 13:55,-119.8764,39.6682,1539.00,39.20,33.80,80.79,320.00,4.00,0.00,30.08,M,10.00,M,OVC,M,M,M,7000.00,M,M,M,M,M,M,M,M,M,M,35.83,KRTS 021355Z AUTO 32004KT 10SM OVC070 04/01 A3008 RMK AO2,M
MEV,2023-10-02 13:55,-119.7500,38.9963,1441.42,39.20,39.20,100.00,0.00,0.00,0.00,30.07,M,10.00,M,OVC,M,M,M,4900.00,M,M,M,M,M,M,M,M,M,M,39.20,KMEV 021355Z AUTO 00000KT 10SM OVC049 04/04 A3007 RMK AO2,M
BAM,2023-10-02 13:55,-116.8743,40.5990,1382.36,44.60,41.00,87.09,340.00,6.00,0.00,30.05,M,10.00,M,OVC,M,M,M,3400.00,M,M,M,M,M,M,M,M,M,M,40.71,KBAM 021355Z AUTO 34006KT 10SM OVC034 07/05 A3005 RMK AO1,M
HTH,2023-10-02 13:55,-118.6315,38.5448,1282.89,48.20,41.00,76.01,0.00,0.00,0.00,30.06,M,10.00,M,BKN,OVC,M,M,6000.00,8500.00,M,M,M,M,M,M,M,M,M,48.20,KHTH 021355Z AUTO 00000KT 10SM BKN060 OVC085 09/05 A3006 RMK A01,M
TMT,2023-10-02 13:55,-117.1971,39.4643,1749.34,41.00,39.40,93.97,0.00,0.00,0.00,30.06,M,10.00,M,OVC,M,M,M,2300.00,M,M,M,M,M,M,M,M,M,M,41.00,KTMT 021355Z AUTO 00000KT 10SM OVC023 05/04 A3006 RMK AO2 T00510041,M
EKO,2023-10-02 13:56,-115.7860,40.8242,1367.00,45.00,41.00,85.77,180.00,3.00,0.00,30.00,1014.60,10.00,M,SCT,OVC,M,M,2000.00,2600.00,M,M,M,M,M,M,M,M,M,43.55,KEKO 021356Z AUTO 18003KT 10SM SCT020 OVC026 07/05 A3000 RMK AO2 SLP146 T00720050 $,M
WMC,2023-10-02 13:56,-117.8072,40.9019,1315.00,44.00,40.00,85.71,310.00,5.00,0.00,30.05,1017.00,10.00,M,SCT,OVC,M,M,6000.00,7500.00,M,M,M,M,M,M,M,M,M,40.65,KWMC 021356Z AUTO 31005KT 10SM SCT060 OVC075 07/04 A3005 RMK AO2 SLP170 T00670044,M
NFL,2023-10-02 13:56,-118.7010,39.4166,1199.00,48.00,43.00,82.72,320.00,4.00,0.00,30.05,1014.50,10.00,M,FEW,SCT,BKN,M,500.00,4500.00,6000.00,M,M,M,M,M,M,M,M,46.10,KNFL 021356Z 32004KT 10SM FEW005 SCT045 BKN060 09/06 A3005 RMK AO2 SLP145 T00890061,M
HND,2023-10-02 13:56,-115.1344,35.9729,742.79,53.00,40.00,61.19,220.00,7.00,0.00,29.97,1015.60,10.00,M,CLR,M,M,M,M,M,M,M,M,M,M,M,M,M,M,53.00,KHND 021356Z 22007KT 10SM CLR 12/04 A2997 RMK AO2 SLP156 T01170044,M
TPH,2023-10-02 13:56,-117.0904,38.0505,1654.00,44.00,39.00,82.44,340.00,7.00,0.00,30.03,1015.00,10.00,M,OVC,M,M,M,4600.00,M,M,M,M,M,M,M,M,M,M,39.41,KTPH 021356Z AUTO 34007KT 10SM OVC046 07/04 A3003 RMK AO2 SLP150 T00670039,M
LAS,2023-10-02 13:56,-115.1634,36.0719,663.00,56.00,45.00,66.48,220.00,4.00,0.00,29.95,1013.10,10.00,M,FEW,FEW,M,M,10000.00,20000.00,M,M,M,M,M,M,M,M,M,56.00,KLAS 021356Z 22004KT 10SM FEW100 FEW200 13/07 A2995 RMK AO2 SLP131 T01330072,M
10U,2023-10-02 14:00,-116.1876,41.9532,1637.00,39.20,37.40,93.19,0.00,0.00,0.00,30.05,M,10.00,M,OVC,M,M,M,800.00,M,M,M,M,M,M,M,M,M,M,39.20,K10U 021400Z AUTO 00000KT 10SM OVC008 04/03 A3005 RMK AO2,M
05U,2023-10-02 14:10,-116.0051,39.6042,1811.23,42.80,41.00,93.30,160.00,3.00,0.00,30.04,M,4.00,M,SCT,BKN,OVC,M,500.00,900.00,1600.00,M,BR,M,M,M,M,M,M,41.03,K05U 021410Z AUTO 16003KT 4SM BR SCT005 BKN009 OVC016 06/05 A3004 RMK A01,M
BVU,2023-10-02 14:15,-114.8611,35.9475,671.00,55.40,39.20,54.34,0.00,0.00,0.00,29.95,M,10.00,M,CLR,M,M,M,M,M,M,M,M,M,M,M,M,M,M,55.40,KBVU 021415Z AUTO 00000KT 10SM CLR 13/04 A2995 RMK AO2,M
CXP,2023-10-02 14:15,-119.7326,39.1923,1431.00,44.60,39.20,81.20,0.00,0.00,0.00,30.09,M,10.00,M,OVC,M,M,M,7500.00,M,M,M,M,M,M,M,M,M,M,44.60,KCXP 021415Z AUTO 00000KT 10SM OVC075 07/04 A3009 RMK AO2,M
RTS,2023-10-02 14:15,-119.8764,39.6682,1539.00,39.20,33.80,80.79,10.00,3.00,0.00,30.09,M,10.00,M,FEW,OVC,M,M,5000.00,7000.00,M,M,M,M,M,M,M,M,M,36.92,KRTS 021415Z AUTO 01003KT 10SM FEW050 OVC070 04/01 A3009 RMK AO2,M
MEV,2023-10-02 14:15,-119.7500,38.9963,1441.42,41.00,39.20,93.24,0.00,0.00,0.00,30.08,M,10.00,M,OVC,M,M,M,4800.00,M,M,M,M,M,M,M,M,M,M,41.00,KMEV 021415Z AUTO 00000KT 10SM OVC048 05/04 A3008 RMK AO2,M
BAM,2023-10-02 14:15,-116.8743,40.5990,1382.36,44.60,41.00,87.09,350.00,4.00,0.00,30.06,M,10.00,M,OVC,M,M,M,3400.00,M,M,M,M,M,M,M,M,M,M,42.13,KBAM 021415Z AUTO 35004KT 10SM OVC034 07/05 A3006 RMK AO1,M
HTH,2023-10-02 14:15,-118.6315,38.5448,1282.89,48.20,41.00,76.01,0.00,0.00,0.00,30.07,M,10.00,M,SCT,BKN,OVC,M,4100.00,6000.00,8500.00,M,M,M,M,M,M,M,M,48.20,KHTH 021415Z AUTO 00000KT 10SM SCT041 BKN060 OVC085 09/05 A3007 RMK A01,M
TMT,2023-10-02 14:15,-117.1971,39.4643,1749.34,41.40,39.40,92.53,0.00,0.00,0.00,30.06,M,10.00,M,OVC,M,M,M,2300.00,M,M,M,M,M,M,M,M,M,M,41.40,KTMT 021415Z AUTO 00000KT 10SM OVC023 05/04 A3006 RMK AO2 T00520041,M
10U,2023-10-02 14:20,-116.1876,41.9532,1637.00,39.20,39.20,100.00,0.00,0.00,0.00,30.05,M,9.00,M,OVC,M,M,M,600.00,M,M,M,M,M,M,M,M,M,M,39.20,K10U 021420Z AUTO 00000KT 9SM OVC006 04/04 A3005 RMK AO2,M
05U,2023-10-02 14:30,-116.0051,39.6042,1811.23,42.80,41.00,93.30,170.00,3.00,0.00,30.04,M,5.00,M,FEW,SCT,BKN,M,600.00,900.00,1400.00,M,BR,M,M,M,M,M,M,41.03,K05U 021430Z AUTO 17003KT 5SM BR FEW006 SCT009 BKN014 06/05 A3004 RMK A01,M
BVU,2023-10-02 14:35,-114.8611,35.9475,671.00,57.20,39.20,50.91,0.00,0.00,0.00,29.95,M,10.00,M,CLR,M,M,M,M,M,M,M,M,M,M,M,M,M,M,57.20,KBVU 021435Z AUTO 00000KT 10SM CLR 14/04 A2995 RMK AO2,M
CXP,2023-10-02 14:35,-119.7326,39.1923,1431.00,42.80,39.20,86.99,0.00,0.00,0.00,30.09,M,10.00,M,BKN,M,M,M,7500.00,M,M,M,M,M,M,M,M,M,M,42.80,KCXP 021435Z AUTO 00000KT 10SM BKN075 06/04 A3009 RMK AO2,M
RTS,2023-10-02 14:35,-119.8764,39.6682,1539.00,39.20,33.80,80.79,360.00,3.00,0.00,30.09,M,10.00,M,FEW,BKN,M,M,5000.00,7000.00,M,M,M,M,M,M,M,M,M,36.92,KRTS 021435Z AUTO 36003KT 10SM FEW050 BKN070 04/01 A3009 RMK AO2,M
MEV,2023-10-02 14:35,-119.7500,38.9963,1441.42,42.80,41.00,93.30,0.00,0.00,0.00,30.08,M,10.00,M,OVC,M,M,M,4800.00,M,M,M,M,M,M,M,M,M,M,42.80,KMEV 021435Z AUTO 00000KT 10SM OVC048 06/05 A3008 RMK AO2,M
BAM,2023-10-02 14:35,-116.8743,40.5990,1382.36,44.60,41.00,87.09,330.00,4.00,0.00,30.07,M,10.00,M,OVC,M,M,M,3400.00,M,M,M,M,M,M,M,M,M,M,42.13,KBAM 021435Z AUTO 33004KT 10SM OVC034 07/05 A3007 RMK AO1,M
HTH,2023-10-02 14:35,-118.6315,38.5448,1282.89,50.00,41.00,71.07,230.00,3.00,0.00,30.07,M,10.00,M,BKN,OVC,M,M,4700.00,6000.00,M,M,M,M,M,M,M,M,M,50.00,KHTH 021435Z AUTO 23003KT 10SM BKN047 OVC060 10/05 A3007 RMK A01,M
TMT,2023-10-02 14:35,-117.1971,39.4643,1749.34,41.40,39.40,92.53,0.00,0.00,0.00,30.07,M,10.00,M,BKN,OVC,M,M,1900.00,2500.00,M,M,M,M,M,M,M,M,M,41.40,KTMT 021435Z AUTO 00000KT 10SM BKN019 OVC025 05/04 A3007 RMK AO2 T00520041,M
EKO,2023-10-02 14:37,-115.7860,40.8242,1367.00,45.00,41.00,85.77,210.00,5.00,0.00,30.01,M,10.00,M,OVC,M,M,M,3400.00,M,M,M,M,M,M,M,M,M,M,41.83,KEKO 021437Z AUTO 21005KT 10SM OVC034 07/05 A3001 RMK AO2 T00720050 $,M
10U,2023-10-02 14:40,-116.1876,41.9532,1637.00,39.20,39.20,100.00,0.00,0.00,0.00,30.06,M,3.00,M,OVC,M,M,M,500.00,M,M,M,BR,M,M,M,M,M,M,39.20,K10U 021440Z AUTO 00000KT 3SM BR OVC005 04/04 A3006 RMK AO2,M
05U,2023-10-02 14:50,-116.0051,39.6042,1811.23,42.80,41.00,93.30,170.00,4.00,0.00,30.05,M,9.00,M,FEW,SCT,OVC,M,500.00,1200.00,2400.00,M,M,M,M,M,M,M,M,40.03,K05U 021450Z AUTO 17004KT 9SM FEW005 SCT012 OVC024 06/05 A3005 RMK A01,M
P68,2023-10-02 14:53,-116.0056,39.6014,1993.00,42.00,41.00,96.21,10.00,5.00,0.01,30.03,1014.20,M,M,M,M,M,M,M,M,M,M,M,M,M,M,M,M,M,38.27,KP68 021453Z AUTO 01005KT 06/05 A3003 RMK AO1 SLP142 P0001 60002 T00560050 53011,M
DRA,2023-10-02 14:53,-116.0278,36.6206,1009.00,50.00,37.00,60.79,310.00,3.00,0.00,29.99,1013.20,10.00,M,CLR,M,M,M,M,M,M,M,M,M,M,M,M,M,M,50.00,KDRA 021453Z AUTO 31003KT 10SM CLR 10/03 A2999 RMK AO2 SLP132 T01000028 53013 $,M
ELY,2023-10-02 14:53,-114.8453,39.2950,1909.00,37.00,33.00,85.29,200.00,7.00,0.00,30.01,1014.20,10.00,M,OVC,M,M,M,1700.00,M,M,M,M,M,M,M,M,M,M,30.87,KELY 021453Z AUTO 20007KT 10SM OVC017 03/01 A3001 RMK AO2 SLP142 T00280006 53006,M
VGT,2023-10-02 14:53,-115.1933,36.2111,667.00,62.00,40.00,44.25,340.00,3.00,0.00,29.96,1015.00,10.00,M,CLR,M,M,M,M,M,M,M,M,M,M,M,M,M,M,62.00,KVGT 021453Z 34003KT 10SM CLR 17/04 A2996 RMK AO2 SLP150 T01670044 53017,M
LOL,2023-10-02 14:53,-118.5701,40.0684,1192.43,46.00,42.00,85.83,70.00,3.00,0.00,30.07,1017.70,10.00,M,FEW,BKN,OVC,M,4100.00,7500.00,9500.00,M,M,M,M,M,M,M,M,44.69,KLOL 021453Z AUTO 07003KT 10SM FEW041 BKN075 OVC095 08/06 A3007 RMK AO2 SLP177 60000 T00780056 53009,M
BVU,2023-10-02 14:55,-114.8611,35.9475,671.00,59.00,37.40,44.47,0.00,0.00,0.00,29.96,M,10.00,M,CLR,M,M,M,M,M,M,M,M,M,M,M,M,M,M,59.00,KBVU 021455Z AUTO 00000KT 10SM CLR 15/03 A2996 RMK AO2,M
CXP,2023-10-02 14:55,-119.7326,39.1923,1431.00,46.40,37.40,70.68,0.00,0.00,0.00,30.10,M,10.00,M,BKN,M,M,M,7500.00,M,M,M,M,M,M,M,M,M,M,46.40,KCXP 021455Z AUTO 00000KT 10SM BKN075 08/03 A3010 RMK AO2,M
INS,2023-10-02 14:55,-115.6733,36.5872,955.00,54.00,36.30,51.02,220.00,9.00,0.00,29.99,1013.10,10.00,M,CLR,M,M,M,M,M,M,M,M,M,M,M,M,M,M,54.00,KINS 021455Z AUTO 22009KT 10SM CLR 12/02 A2999 RMK AO2 SLP131 T01220024 52015 $,M
RNO,2023-10-02 14:55,-119.7711,39.4839,1341.00,48.00,35.00,60.52,280.00,4.00,0.00,30.08,1016.50,10.00,M,BKN,BKN,M,M,7500.00,20000.00,M,M,M,M,M,M,M,M,M,46.10,KRNO 021455Z 28004KT 10SM BKN075 BKN200 09/02 A3008 RMK AO2 SLP165 T00890017 53009,M
LSV,2023-10-02 14:55,-115.0343,36.2362,570.00,58.00,41.40,53.88,0.00,0.00,0.00,29.94,1012.60,10.00,M,CLR,M,M,M,M,M,M,M,M,M,M,M,M,M,M,58.00,KLSV 021455Z AUTO 00000KT 10SM CLR 14/05 A2994 RMK AO2 SLP126 T01440052 52017 $,M
RTS,2023-10-02 14:55,-119.8764,39.6682,1539.00,41.00,33.80,75.33,0.00,0.00,0.00,30.09,M,10.00,M,SCT,M,M,M,6500.00,M,M,M,M,M,M,M,M,M,M,41.00,KRTS 021455Z AUTO 00000KT 10SM SCT065 05/01 A3009 RMK AO2,M
MEV,2023-10-02 14:55,-119.7500,38.9963,1441.42,42.80,41.00,93.30,150.00,3.00,0.00,30.08,M,10.00,M,OVC,M,M,M,4700.00,M,M,M,M,M,M,M,M,M,M,41.03,KMEV 021455Z AUTO 15003KT 10SM OVC047 06/05 A3008 RMK AO2,M
BAM,2023-10-02 14:55,-116.8743,40.5990,1382.36,44.60,41.00,87.09,320.00,3.00,0.00,30.07,M,10.00,M,OVC,M,M,M,3600.00,M,M,M,M,M,M,M,M,M,M,43.09,KBAM 021455Z AUTO 32003KT 10SM OVC036 07/05 A3007 RMK AO1,M
HTH,2023-10-02 14:55,-118.6315,38.5448,1282.89,50.00,41.00,71.07,0.00,0.00,0.00,30.08,M,10.00,M,SCT,OVC,M,M,2800.00,4400.00,M,M,M,M,M,M,M,M,M,50.00,KHTH 021455Z AUTO 00000KT 10SM SCT028 OVC044 10/05 A3008 RMK A01,M
TMT,2023-10-02 14:55,-117.1971,39.4643,1749.34,41.40,39.40,92.53,0.00,0.00,0.00,30.08,M,10.00,M,OVC,M,M,M,2100.00,M,M,M,-DZ,M,M,M,M,M,M,41.40,KTMT 021455Z AUTO 00000KT 10SM -DZ OVC021 05/04 A3008 RMK AO2 T00520041,M
EKO,2023-10-02 14:56,-115.7860,40.8242,1367.00,45.00,41.00,85.77,210.00,6.00,0.00,30.01,1015.20,10.00,M,OVC,M,M,M,3500.00,M,M,M,M,M,M,M,M,M,M,41.19,KEKO 021456Z AUTO 21006KT 10SM OVC035 07/05 A3001 RMK AO2 SLP152 T00720050 53009 $,M
WMC,2023-10-02 14:56,-117.8072,40.9019,1315.00,45.00,41.00,85.77,280.00,6.00,0.00,30.06,1017.30,10.00,M,BKN,OVC,M,M,3200.00,7000.00,M,M,M,M,M,M,M,M,M,41.19,KWMC 021456Z AUTO 28006KT 10SM BKN032 OVC070 07/05 A3006 RMK AO2 SLP173 T00720050 53008,M
NFL,2023-10-02 14:56,-118.7010,39.4166,1199.00,48.00,44.00,85.95,0.00,0.00,0.00,30.07,1015.00,10.00,M,SCT,BKN,BKN,M,4000.00,8000.00,12000.00,M,M,M,M,M,M,M,M,48.00,KNFL 021456Z 00000KT 10SM SCT040 BKN080 BKN120 09/07 A3007 RMK AO2 SLP150 T00890067 52012,M
HND,2023-10-02 14:56,-115.1344,35.9729,742.79,57.00,41.00,54.99,190.00,4.00,0.00,29.99,1016.10,10.00,M,CLR,M,M,M,M,M,M,M,M,M,M,M,M,M,M,57.00,KHND 021456Z 19004KT 10SM CLR 14/05 A2999 RMK AO2 SLP161 T01390050 51016,M
TPH,2023-10-02 14:56,-117.0904,38.0505,1654.00,45.00,39.00,79.36,310.00,9.00,T,30.05,1015.50,10.00,M,FEW,OVC,M,M,1800.00,4100.00,M,M,M,M,M,M,M,M,M,39.68,KTPH 021456Z AUTO 31009KT 10SM FEW018 OVC041 07/04 A3005 RMK AO2 RAB18E30 SLP155 P0000 60000 T00720039 53010,M
LAS,2023-10-02 14:56,-115.1634,36.0719,663.00,60.00,44.00,55.42,290.00,3.00,0.00,29.96,1013.40,10.00,M,FEW,SCT,M,M,10000.00,20000.00,M,M,M,M,M,M,M,M,M,60.00,KLAS 021456Z 29003KT 10SM FEW100 SCT200 16/07 A2996 RMK AO2 SLP134 T01560067 51016,M
10U,2023-10-02 15:00,-116.1876,41.9532,1637.00,39.20,39.20,100.00,200.00,4.00,0.00,30.06,M,5.00,M,OVC,M,M,M,500.00,M,M,M,BR,M,M,M,M,M,M,35.83,K10U 021500Z AUTO 20004KT 5SM BR OVC005 04/04 A3006 RMK AO2,M
05U,2023-10-02 15:10,-116.0051,39.6042,1811.23,42.80,41.00,93.30,170.00,4.00,0.00,30.06,M,3.00,M,FEW,SCT,OVC,M,600.00,1200.00,1900.00,M,BR,M,M,M,M,M,M,40.03,K05U 021510Z AUTO 17004KT 3SM BR FEW006 SCT012 OVC019 06/05 A3006 RMK A01,M
BVU,2023-10-02 15:15,-114.8611,35.9475,671.00,59.00,37.40,44.47,0.00,0.00,0.00,29.97,M,10.00,M,CLR,M,M,M,M,M,M,M,M,M,M,M,M,M,M,59.00,KBVU 021515Z AUTO 00000KT 10SM CLR 15/03 A2997 RMK AO2,M
CXP,2023-10-02 15:15,-119.7326,39.1923,1431.00,46.40,39.20,75.84,0.00,0.00,0.00,30.10,M,10.00,M,BKN,M,M,M,7000.00,M,M,M,M,M,M,M,M,M,M,46.40,KCXP 021515Z AUTO 00000KT 10SM BKN070 08/04 A3010 RMK AO2,M
RTS,2023-10-02 15:15,-119.8764,39.6682,1539.00,44.60,33.80,65.61,340.00,4.00,0.00,30.10,M,10.00,M,SCT,M,M,M,6000.00,M,M,M,M,M,M,M,M,M,M,42.13,KRTS 021515Z AUTO 34004KT 10SM SCT060 07/01 A3010 RMK AO2,M
MEV,2023-10-02 15:15,-119.7500,38.9963,1441.42,44.60,42.80,93.35,0.00,0.00,0.00,30.09,M,10.00,M,OVC,M,M,M,4600.00,M,M,M,M,M,M,M,M,M,M,44.60,KMEV 021515Z AUTO 00000KT 10SM OVC046 07/06 A3009 RMK AO2,M
BAM,2023-10-02 15:15,-116.8743,40.5990,1382.36,44.60,41.00,87.09,0.00,0.00,0.00,30.07,M,10.00,M,OVC,M,M,M,3600.00,M,M,M,M,M,M,M,M,M,M,44.60,KBAM 021515Z AUTO 00000KT 10SM OVC036 07/05 A3007 RMK AO1,M
HTH,2023-10-02 15:15,-118.6315,38.5448,1282.89,50.00,39.20,66.27,0.00,0.00,0.00,30.08,M,10.00,M,FEW,SCT,BKN,M,2800.00,3200.00,4300.00,M,M,M,M,M,M,M,M,50.00,KHTH 021515Z AUTO 00000KT 10SM FEW028 SCT032 BKN043 10/04 A3008 RMK A01,M
TMT,2023-10-02 15:15,-117.1971,39.4643,1749.34,41.50,39.60,92.90,0.00,0.00,0.00,30.08,M,10.00,M,OVC,M,M,M,2300.00,M,M,M,-RA,M,M,M,M,M,M,41.50,KTMT 021515Z AUTO 00000KT 10SM -RA OVC023 05/04 A3008 RMK AO2 T00530042,M
10U,2023-10-02 15:20,-116.1876,41.9532,1637.00,41.00,39.20,93.24,0.00,0.00,0.00,30.07,M,10.00,M,OVC,M,M,M,500.00,M,M,M,M,M,M,M,M,M,M,41.00,K10U 021520Z AUTO 00000KT 10SM OVC005 05/04 A3007 RMK AO2,M
05U,2023-10-02 15:30,-116.0051,39.6042,1811.23,41.00,41.00,100.00,170.00,5.00,0.00,30.07,M,3.00,M,FEW,SCT,BKN,M,500.00,1000.00,1400.00,M,BR,M,M,M,M,M,M,37.08,K05U 021530Z AUTO 17005KT 3SM BR FEW005 SCT010 BKN014 05/05 A3007 RMK A01,M
BVU,2023-10-02 15:35,-114.8611,35.9475,671.00,59.00,37.40,44.47,260.00,3.00,0.00,29.97,M,10.00,M,CLR,M,M,M,M,M,M,M,M,M,M,M,M,M,M,59.00,KBVU 021535Z AUTO 26003KT 10SM CLR 15/03 A2997 RMK AO2,M
CXP,2023-10-02 15:35,-119.7326,39.1923,1431.00,48.20,39.20,70.88,0.00,0.00,0.00,30.10,M,10.00,M,SCT,M,M,M,7000.00,M,M,M,M,M,M,M,M,M,M,48.20,KCXP 021535Z AUTO 00000KT 10SM SCT070 09/04 A3010 RMK AO2,M
RTS,2023-10-02 15:35,-119.8764,39.6682,1539.00,46.40,33.80,61.28,340.00,6.00,0.00,30.11,M,10.00,M,FEW,M,M,M,6000.00,M,M,M,M,M,M,M,M,M,M,42.87,KRTS 021535Z AUTO 34006KT 10SM FEW060 08/01 A3011 RMK AO2,M
MEV,2023-10-02 15:35,-119.7500,38.9963,1441.42,46.40,41.00,81.34,0.00,0.00,0.00,30.09,M,10.00,M,FEW,OVC,M,M,3500.00,4700.00,M,M,M,M,M,M,M,M,M,46.40,KMEV 021535Z AUTO 00000KT 10SM FEW035 OVC047 08/05 A3009 RMK AO2,M
BAM,2023-10-02 15:35,-116.8743,40.5990,1382.36,44.60,41.00,87.09,310.00,3.00,0.00,30.08,M,10.00,M,OVC,M,M,M,3600.00,M,M,M,M,M,M,M,M,M,M,43.09,KBAM 021535Z AUTO 31003KT 10SM OVC036 07/05 A3008 RMK AO1,M
HTH,2023-10-02 15:35,-118.6315,38.5448,1282.89,50.00,41.00,71.07,260.00,5.00,0.00,30.09,M,10.00,M,OVC,M,M,M,4400.00,M,M,M,M,M,M,M,M,M,M,50.00,KHTH 021535Z AUTO 26005KT 10SM OVC044 10/05 A3009 RMK A01,M
TMT,2023-10-02 15:35,-117.1971,39.4643,1749.34,42.00,40.00,92.55,0.00,0.00,0.00,30.08,M,10.00,M,BKN,OVC,M,M,2000.00,2600.00,M,M,-RA,M,M,M,M,M,M,42.00,KTMT 021535Z AUTO 00000KT 10SM -RA BKN020 OVC026 06/04 A3008 RMK AO2 T00550044,M
10U,2023-10-02 15:40,-116.1876,41.9532,1637.00,41.00,39.20,93.24,0.00,0.00,0.00,30.07,M,10.00,M,OVC,M,M,M,500.00,M,M,M,M,M,M,M,M,M,M,41.00,K10U 021540Z AUTO 00000KT 10SM OVC005 05/04 A3007 RMK AO2,M
05U,2023-10-02 15:50,-116.0051,39.6042,1811.23,41.00,41.00,100.00,190.00,6.00,0.00,30.08,M,7.00,M,BKN,BKN,OVC,M,900.00,1500.00,2700.00,M,M,M,M,M,M,M,M,36.37,K05U 021550Z AUTO 19006KT 7SM BKN009 BKN015 OVC027 05/05 A3008 RMK A01,M
P68,2023-10-02 15:53,-116.0056,39.6014,1993.00,41.00,40.00,96.19,30.00,6.00,0.03,30.05,1015.20,M,M,M,M,M,M,M,M,M,M,M,M,M,M,M,M,M,36.37,KP68 021553Z AUTO 03006KT 05/04 A3005 RMK AO1 SLP152 P0003 T00500044,M
DRA,2023-10-02 15:53,-116.0278,36.6206,1009.00,57.00,39.00,50.88,0.00,0.00,0.00,30.00,1013.40,10.00,M,CLR,M,M,M,M,M,M,M,M,M,M,M,M,M,M,57.00,KDRA 021553Z AUTO 00000KT 10SM CLR 14/04 A3000 RMK AO2 SLP134 T01390039 $,M
ELY,2023-10-02 15:53,-114.8453,39.2950,1909.00,40.00,35.00,82.15,190.00,3.00,0.00,30.04,1015.20,10.00,M,OVC,M,M,M,2200.00,M,M,M,M,M,M,M,M,M,M,37.83,KELY 021553Z AUTO 19003KT 10SM OVC022 04/02 A3004 RMK AO2 SLP152 T00440017,M
VGT,2023-10-02 15:53,-115.1933,36.2111,667.00,66.00,39.00,37.00,310.00,8.00,0.00,29.97,1015.30,10.00,M,CLR,M,M,M,M,M,M,M,M,M,M,M,M,M,M,66.00,KVGT 021553Z 31008KT 10SM CLR 19/04 A2997 RMK AO2 SLP153 T01890039,M
LOL,2023-10-02 15:53,-118.5701,40.0684,1192.43,48.00,41.00,76.58,0.00,0.00,0.00,30.08,1017.90,10.00,M,OVC,M,M,M,7000.00,M,M,M,M,M,M,M,M,M,M,48.00,KLOL 021553Z AUTO 00000KT 10SM OVC070 09/05 A3008 RMK AO2 SLP179 T00890050,M
BVU,2023-10-02 15:55,-114.8611,35.9475,671.00,60.80,37.40,41.71,260.00,4.00,0.00,29.98,M,10.00,M,CLR,M,M,M,M,M,M,M,M,M,M,M,M,M,M,60.80,KBVU 021555Z AUTO 26004KT 10SM CLR 16/03 A2998 RMK AO2,M
CXP,2023-10-02 15:55,-119.7326,39.1923,1431.00,50.00,39.20,66.27,0.00,0.00,0.00,30.10,M,10.00,M,SCT,M,M,M,5500.00,M,M,M,M,M,M,M,M,M,M,50.00,KCXP 021555Z AUTO 00000KT 10SM SCT055 10/04 A3010 RMK AO2,M
INS,2023-10-02 15:55,-115.6733,36.5872,955.00,59.00,36.00,42.08,310.00,3.00,0.00,30.00,1013.30,10.00,M,CLR,M,M,M,M,M,M,M,M,M,M,M,M,M,M,59.00,KINS 021555Z AUTO 31003KT 10SM CLR 15/02 A3000 RMK AO2 SLP133 T01500022 $,M
RNO,2023-10-02 15:55,-119.7711,39.4839,1341.00,51.00,36.00,56.31,0.00,0.00,0.00,30.10,1017.00,10.00,M,SCT,BKN,M,M,7000.00,23000.00,M,M,M,M,M,M,M,M,M,51.00,KRNO 021555Z 00000KT 10SM SCT070 BKN230 11/02 A3010 RMK AO2 SLP170 T01060022,M
LSV,2023-10-02 15:55,-115.0343,36.2362,570.00,64.60,41.50,42.81,0.00,0.00,0.00,29.95,1012.90,10.00,M,CLR,M,M,M,M,M,M,M,M,M,M,M,M,M,M,64.60,KLSV 021555Z AUTO 00000KT 10SM CLR 18/05 A2995 RMK AO2 SLP129 T01810053 $,M
RTS,2023-10-02 15:55,-119.8764,39.6682,1539.00,46.40,33.80,61.28,340.00,7.00,0.00,30.12,M,10.00,M,BKN,M,M,M,6000.00,M,M,M,M,M,M,M,M,M,M,42.33,KRTS 021555Z AUTO 34007KT 10SM BKN060 08/01 A3012 RMK AO2,M
MEV,2023-10-02 15:55,-119.7500,38.9963,1441.42,48.20,41.00,76.01,0.00,0.00,0.00,30.09,M,10.00,M,OVC,M,M,M,4800.00,M,M,M,M,M,M,M,M,M,M,48.20,KMEV 021555Z AUTO 00000KT 10SM OVC048 09/05 A3009 RMK AO2,M
BAM,2023-10-02 15:55,-116.8743,40.5990,1382.36,46.40,41.00,81.34,310.00,3.00,0.00,30.08,M,10.00,M,OVC,M,M,M,3600.00,M,M,M,M,M,M,M,M,M,M,45.15,KBAM 021555Z AUTO 31003KT 10SM OVC036 08/05 A3008 RMK AO1,M
HTH,2023-10-02 15:55,-118.6315,38.5448,1282.89,50.00,41.00,71.07,250.00,3.00,0.00,30.09,M,10.00,M,FEW,OVC,M,M,2800.00,4400.00,M,M,M,M,M,M,M,M,M,50.00,KHTH 021555Z AUTO 25003KT 10SM FEW028 OVC044 10/05 A3009 RMK A01,M
TMT,2023-10-02 15:55,-117.1971,39.4643,1749.34,41.50,39.20,91.46,0.00,0.00,0.00,30.09,M,7.00,M,BKN,OVC,M,M,1600.00,2200.00,M,M,-RA,M,M,M,M,M,M,41.50,KTMT 021555Z AUTO 00000KT 7SM -RA BKN016 OVC022 05/04 A3009 RMK AO2 T00530040,M
EKO,2023-10-02 15:56,-115.7860,40.8242,1367.00,46.00,41.00,82.58,200.00,7.00,0.00,30.03,1015.40,10.00,M,SCT,BKN,OVC,M,2800.00,3900.00,7000.00,M,M,M,M,M,M,M,M,41.84,KEKO 021556Z AUTO 20007KT 10SM SCT028 BKN039 OVC070 08/05 A3003 RMK AO2 SLP154 T00780050 $,M
WMC,2023-10-02 15:56,-117.8072,40.9019,1315.00,46.00,40.00,79.44,300.00,5.00,0.00,30.08,1017.80,10.00,M,SCT,BKN,OVC,M,3500.00,4800.00,7000.00,M,M,M,M,M,M,M,M,43.02,KWMC 021556Z AUTO 30005KT 10SM SCT035 BKN048 OVC070 08/04 A3008 RMK AO2 SLP178 T00780044,M
NFL,2023-10-02 15:56,-118.7010,39.4166,1199.00,50.00,43.00,76.76,0.00,0.00,0.00,30.08,1015.30,10.00,M,SCT,BKN,BKN,BKN,4000.00,8000.00,12000.00,15000.00,M,M,M,M,M,M,M,50.00,KNFL 021556Z 00000KT 10SM SCT040 BKN080 BKN120 BKN150 10/06 A3008 RMK AO2 SLP153 T01000061 $,M
HND,2023-10-02 15:56,-115.1344,35.9729,742.79,61.00,39.00,44.10,0.00,0.00,0.00,30.01,1016.70,10.00,M,CLR,M,M,M,M,M,M,M,M,M,M,M,M,M,M,61.00,KHND 021556Z 00000KT 10SM CLR 16/04 A3001 RMK AO2 SLP167 T01610039,M
TPH,2023-10-02 15:56,-117.0904,38.0505,1654.00,46.00,39.00,76.40,310.00,12.00,0.00,30.06,1016.00,10.00,20.00,OVC,M,M,M,4600.00,M,M,M,M,M,M,M,M,M,M,39.82,KTPH 021556Z AUTO 31012G20KT 10SM OVC046 08/04 A3006 RMK AO2 SLP160 T00780039,M
LAS,2023-10-02 15:56,-115.1634,36.0719,663.00,63.00,41.00,44.41,50.00,5.00,0.00,29.98,1014.00,10.00,M,FEW,SCT,M,M,10000.00,20000.00,M,M,M,M,M,M,M,M,M,63.00,KLAS 021556Z 05005KT 10SM FEW100 SCT200 17/05 A2998 RMK AO2 SLP140 T01720050,M
10U,2023-10-02 16:00,-116.1876,41.9532,1637.00,41.00,39.20,93.24,0.00,0.00,0.00,30.07,M,10.00,M,OVC,M,M,M,600.00,M,M,M,M,M,M,M,M,M,M,41.00,K10U 021600Z AUTO 00000KT 10SM OVC006 05/04 A3007 RMK AO2,M
05U,2023-10-02 16:10,-116.0051,39.6042,1811.23,41.00,41.00,100.00,200.00,6.00,0.00,30.08,M,10.00,M,OVC,M,M,M,900.00,M,M,M,M,M,M,M,M,M,M,36.37,K05U 021610Z AUTO 20006KT 10SM OVC009 05/05 A3008 RMK A01,M
BVU,2023-10-02 16:15,-114.8611,35.9475,671.00,62.60,37.40,39.14,250.00,3.00,0.00,29.98,M,10.00,M,CLR,M,M,M,M,M,M,M,M,M,M,M,M,M,M,62.60,KBVU 021615Z AUTO 25003KT 10SM CLR 17/03 A2998 RMK AO2,M
CXP,2023-10-02 16:15,-119.7326,39.1923,1431.00,50.00,37.40,61.76,0.00,0.00,0.00,30.12,M,10.00,M,OVC,M,M,M,5500.00,M,M,M,M,M,M,M,M,M,M,50.00,KCXP 021615Z AUTO 00000KT 10SM OVC055 10/03 A3012 RMK AO2,M
RTS,2023-10-02 16:15,-119.8764,39.6682,1539.00,48.20,32.00,53.27,350.00,6.00,0.00,30.11,M,10.00,M,OVC,M,M,M,6000.00,M,M,M,M,M,M,M,M,M,M,45.04,KRTS 021615Z AUTO 35006KT 10SM OVC060 09/00 A3011 RMK AO2,M
MEV,2023-10-02 16:15,-119.7500,38.9963,1441.42,48.20,39.20,70.88,0.00,0.00,0.00,30.10,M,10.00,M,OVC,M,M,M,4800.00,M,M,M,M,M,M,M,M,M,M,48.20,KMEV 021615Z AUTO 00000KT 10SM OVC048 09/04 A3010 RMK AO2,M
BAM,2023-10-02 16:15,-116.8743,40.5990,1382.36,46.40,41.00,81.34,330.00,3.00,0.00,30.08,M,10.00,M,OVC,M,M,M,3600.00,M,M,M,M,M,M,M,M,M,M,45.15,KBAM 021615Z AUTO 33003KT 10SM OVC036 08/05 A3008 RMK AO1,M
HTH,2023-10-02 16:15,-118.6315,38.5448,1282.89,50.00,39.20,66.27,260.00,5.00,0.00,30.10,M,10.00,M,BKN,OVC,M,M,3700.00,4300.00,M,M,M,M,M,M,M,M,M,50.00,KHTH 021615Z AUTO 26005KT 10SM BKN037 OVC043 10/04 A3010 RMK A01,M
TMT,2023-10-02 16:15,-117.1971,39.4643,1749.34,42.00,40.00,92.55,0.00,0.00,0.00,30.09,M,10.00,M,SCT,OVC,M,M,600.00,1600.00,M,M,-DZ,M,M,M,M,M,M,42.00,KTMT 021615Z AUTO 00000KT 10SM -DZ SCT006 OVC016 06/05 A3009 RMK AO2 T00550045,M
10U,2023-10-02 16:20,-116.1876,41.9532,1637.00,41.00,39.20,93.24,170.00,3.00,0.00,30.07,M,10.00,M,OVC,M,M,M,400.00,M,M,M,M,M,M,M,M,M,M,38.98,K10U 021620Z AUTO 17003KT 10SM OVC004 05/04 A3007 RMK AO2,M
05U,2023-10-02 16:30,-116.0051,39.6042,1811.23,42.80,41.00,93.30,200.00,7.00,0.00,30.09,M,10.00,M,OVC,M,M,M,1000.00,M,M,M,M,M,M,M,M,M,M,37.94,K05U 021630Z AUTO 20007KT 10SM OVC010 06/05 A3009 RMK A01,M
BVU,2023-10-02 16:35,-114.8611,35.9475,671.00,64.40,39.20,39.43,0.00,0.00,0.00,29.98,M,10.00,M,CLR,M,M,M,M,M,M,M,M,M,M,M,M,M,M,64.40,KBVU 021635Z AUTO 00000KT 10SM CLR 18/04 A2998 RMK AO2,M
CXP,2023-10-02 16:35,-119.7326,39.1923,1431.00,50.00,37.40,61.76,0.00,0.00,0.00,30.11,M,10.00,M,OVC,M,M,M,5500.00,M,M,M,M,M,M,M,M,M,M,50.00,KCXP 021635Z AUTO 00000KT 10SM OVC055 10/03 A3011 RMK AO2,M
RTS,2023-10-02 16:35,-119.8764,39.6682,1539.00,46.40,32.00,57.00,340.00,6.00,0.00,30.13,M,10.00,M,OVC,M,M,M,5500.00,M,M,M,M,M,M,M,M,M,M,42.87,KRTS 021635Z AUTO 34006KT 10SM OVC055 08/00 A3013 RMK AO2,M
MEV,2023-10-02 16:35,-119.7500,38.9963,1441.42,50.00,39.20,66.27,0.00,0.00,0.00,30.10,M,10.00,M,BKN,OVC,M,M,4800.00,5500.00,M,M,M,M,M,M,M,M,M,50.00,KMEV 021635Z AUTO 00000KT 10SM BKN048 OVC055 10/04 A3010 RMK AO2,M
BAM,2023-10-02 16:35,-116.8743,40.5990,1382.36,46.40,41.00,81.34,0.00,0.00,0.00,30.08,M,10.00,M,SCT,BKN,OVC,M,2000.00,3600.00,4300.00,M,M,M,M,M,M,M,M,46.40,KBAM 021635Z AUTO 00000KT 10SM SCT020 BKN036 OVC043 08/05 A3008 RMK AO1,M
HTH,2023-10-02 16:35,-118.6315,38.5448,1282.89,50.00,41.00,71.07,240.00,4.00,0.00,30.10,M,10.00,M,SCT,OVC,M,M,3600.00,4400.00,M,M,M,M,M,M,M,M,M,50.00,KHTH 021635Z AUTO 24004KT 10SM SCT036 OVC044 10/05 A3010 RMK A01,M
TMT,2023-10-02 16:35,-117.1971,39.4643,1749.34,41.50,40.30,95.46,0.00,0.00,0.00,30.10,M,7.00,M,BKN,OVC,M,M,1000.00,1600.00,M,M,-RA,M,M,M,M,M,M,41.50,KTMT 021635Z AUTO 00000KT 7SM -RA BKN010 OVC016 05/05 A3010 RMK AO2 T00530046,M
EKO,2023-10-02 16:38,-115.7860,40.8242,1367.00,48.00,41.00,76.58,210.00,7.00,0.00,30.03,M,10.00,M,BKN,OVC,M,M,2600.00,7000.00,M,M,M,M,M,M,M,M,M,44.28,KEKO 021638Z AUTO 21007KT 10SM BKN026 OVC070 09/05 A3003 RMK AO2 T00890050 $,M
10U,2023-10-02 16:40,-116.1876,41.9532,1637.00,41.00,39.20,93.24,0.00,0.00,0.00,30.07,M,10.00,M,OVC,M,M,M,400.00,M,M,M,M,M,M,M,M,M,M,41.00,K10U 021640Z AUTO 00000KT 10SM OVC004 05/04 A3007 RMK AO2,M
ELY,2023-10-02 16:41,-114.8453,39.2950,1909.00,44.00,36.00,73.27,190.00,4.00,0.00,30.05,M,10.00,M,SCT,SCT,OVC,M,2900.00,5000.00,6000.00,M,M,M,M,M,M,M,M,41.43,KELY 021641Z AUTO 19004KT 10SM SCT029 SCT050 OVC060 07/02 A3005 RMK AO2 T00670022,M
05U,2023-10-02 16:50,-116.0051,39.6042,1811.23,42.80,39.20,86.99,210.00,5.00,0.00,30.09,M,10.00,M,BKN,OVC,M,M,1200.00,2000.00,M,M,M,M,M,M,M,M,M,39.22,K05U 021650Z AUTO 21005KT 10SM BKN012 OVC020 06/04 A3009 RMK A01,M
P68,2023-10-02 16:53,-116.0056,39.6014,1993.00,42.00,39.00,89.01,40.00,6.00,0.00,30.06,1015.40,M,M,M,M,M,M,M,M,M,M,M,M,M,M,M,M,M,37.57,KP68 021653Z AUTO 04006KT 06/04 A3006 RMK AO1 SLP154 T00560039,M
DRA,2023-10-02 16:53,-116.0278,36.6206,1009.00,60.00,40.00,47.51,M,5.00,0.00,30.02,1013.90,10.00,M,CLR,M,M,M,M,M,M,M,M,M,M,M,M,M,M,60.00,KDRA 021653Z AUTO VRB05KT 10SM CLR 16/04 A3002 RMK AO2 SLP139 T01560044 $,M
ELY,2023-10-02 16:53,-114.8453,39.2950,1909.00,45.00,36.00,70.53,0.00,0.00,0.00,30.05,1015.40,10.00,M,BKN,M,M,M,6000.00,M,M,M,M,M,M,M,M,M,M,45.00,KELY 021653Z AUTO 00000KT 10SM BKN060 07/02 A3005 RMK AO2 SLP154 T00720022,M
VGT,2023-10-02 16:53,-115.1933,36.2111,667.00,68.00,39.00,34.53,M,3.00,0.00,29.98,1015.50,10.00,M,CLR,M,M,M,M,M,M,M,M,M,M,M,M,M,M,68.00,KVGT 021653Z VRB03KT 10SM CLR 20/04 A2998 RMK AO2 SLP155 T02000039,M
LOL,2023-10-02 16:53,-118.5701,40.0684,1192.43,49.00,41.00,73.77,0.00,0.00,0.00,30.09,1018.30,10.00,M,OVC,M,M,M,8500.00,M,M,M,M,M,M,M,M,M,M,49.00,KLOL 021653Z AUTO 00000KT 10SM OVC085 09/05 A3009 RMK AO2 SLP183 T00940050,M
BVU,2023-10-02 16:55,-114.8611,35.9475,671.00,64.40,39.20,39.43,210.00,4.00,0.00,29.98,M,10.00,M,CLR,M,M,M,M,M,M,M,M,M,M,M,M,M,M,64.40,KBVU 021655Z AUTO 21004KT 10SM CLR 18/04 A2998 RMK AO2,M
CXP,2023-10-02 16:55,-119.7326,39.1923,1431.00,50.00,37.40,61.76,0.00,0.00,0.00,30.12,M,10.00,M,BKN,M,M,M,5000.00,M,M,M,M,M,M,M,M,M,M,50.00,KCXP 021655Z AUTO 00000KT 10SM BKN050 10/03 A3012 RMK AO2,M
INS,2023-10-02 16:55,-115.6733,36.5872,955.00,61.70,35.80,37.93,320.00,3.00,0.00,30.01,1013.20,10.00,M,CLR,M,M,M,M,M,M,M,M,M,M,M,M,M,M,61.70,KINS 021655Z AUTO 32003KT 10SM CLR 17/02 A3001 RMK AO2 SLP132 T01650021 $,M
RNO,2023-10-02 16:55,-119.7711,39.4839,1341.00,52.00,35.00,52.15,30.00,5.00,0.00,30.11,1017.40,10.00,M,FEW,BKN,BKN,M,3000.00,6500.00,23000.00,M,M,M,M,M,M,M,M,52.00,KRNO 021655Z 03005KT 10SM FEW030 BKN065 BKN230 11/02 A3011 RMK AO2 SLP174 T01110017,M
RTS,2023-10-02 16:55,-119.8764,39.6682,1539.00,48.20,32.00,53.27,360.00,7.00,0.00,30.13,M,10.00,M,OVC,M,M,M,5500.00,M,M,M,M,M,M,M,M,M,M,44.53,KRTS 021655Z AUTO 36007KT 10SM OVC055 09/00 A3013 RMK AO2,M
MEV,2023-10-02 16:55,-119.7500,38.9963,1441.42,51.80,37.40,57.77,350.00,3.00,0.00,30.10,M,10.00,M,OVC,M,M,M,4900.00,M,M,M,M,M,M,M,M,M,M,51.80,KMEV 021655Z AUTO 35003KT 10SM OVC049 11/03 A3010 RMK AO2,M
BAM,2023-10-02 16:55,-116.8743,40.5990,1382.36,48.20,41.00,76.01,300.00,4.00,0.00,30.08,M,10.00,M,OVC,M,M,M,1800.00,M,M,M,M,M,M,M,M,M,M,46.34,KBAM 021655Z AUTO 30004KT 10SM OVC018 09/05 A3008 RMK AO1,M
HTH,2023-10-02 16:55,-118.6315,38.5448,1282.89,50.00,41.00,71.07,230.00,3.00,0.00,30.10,M,10.00,M,OVC,M,M,M,4200.00,M,M,M,M,M,M,M,M,M,M,50.00,KHTH 021655Z AUTO 23003KT 10SM OVC042 10/05 A3010 RMK A01,M
TMT,2023-10-02 16:55,-117.1971,39.4643,1749.34,42.00,40.50,94.37,0.00,0.00,0.00,30.10,M,10.00,M,SCT,OVC,M,M,1000.00,1900.00,M,M,M,M,M,M,M,M,M,42.00,KTMT 021655Z AUTO 00000KT 10SM SCT010 OVC019 06/05 A3010 RMK AO2 T00550047,M
LSV,2023-10-02 16:55,-115.0343,36.2362,570.00,69.40,42.00,36.97,0.00,0.00,0.00,29.96,1013.10,10.00,M,CLR,M,M,M,M,M,M,M,M,M,M,M,M,M,M,69.40,KLSV 021655Z AUTO 00000KT 10SM CLR 21/06 A2996 RMK AO2 SLP131 T02080056 $,M
EKO,2023-10-02 16:56,-115.7860,40.8242,1367.00,48.00,40.00,73.67,210.00,7.00,0.00,30.03,1015.60,10.00,M,BKN,OVC,M,M,2100.00,2600.00,M,M,M,M,M,M,M,M,M,44.28,KEKO 021656Z AUTO 21007KT 10SM BKN021 OVC026 09/04 A3003 RMK AO2 SLP156 T00890044 $,M
WMC,2023-10-02 16:56,-117.8072,40.9019,1315.00,48.00,41.00,76.58,300.00,6.00,0.00,30.08,1017.90,10.00,M,OVC,M,M,M,3700.00,M,M,M,M,M,M,M,M,M,M,44.80,KWMC 021656Z AUTO 30006KT 10SM OVC037 09/05 A3008 RMK AO2 SLP179 T00890050,M
NFL,2023-10-02 16:56,-118.7010,39.4166,1199.00,53.00,42.00,66.12,340.00,5.00,0.00,30.09,1015.70,10.00,M,FEW,SCT,BKN,BKN,1000.00,2500.00,6000.00,13000.00,M,M,M,M,M,M,M,53.00,KNFL 021656Z 34005KT 10SM FEW010 SCT025 BKN060 BKN130 12/06 A3009 RMK AO2 SLP157 T01170056 $,M
HND,2023-10-02 16:56,-115.1344,35.9729,742.79,64.00,38.00,38.15,0.00,0.00,0.00,30.01,1016.90,10.00,M,CLR,M,M,M,M,M,M,M,M,M,M,M,M,M,M,64.00,KHND 021656Z 00000KT 10SM CLR 18/03 A3001 RMK AO2 SLP169 T01780033,M
TPH,2023-10-02 16:56,-117.0904,38.0505,1654.00,50.00,40.00,68.37,320.00,11.00,0.00,30.07,1015.80,10.00,M,OVC,M,M,M,9500.00,M,M,M,M,M,M,M,M,M,M,50.00,KTPH 021656Z AUTO 32011KT 10SM OVC095 10/04 A3007 RMK AO2 SLP158 T01000044,M
LAS,2023-10-02 16:56,-115.1634,36.0719,663.00,64.00,41.00,42.88,90.00,5.00,0.00,29.99,1014.30,10.00,M,FEW,SCT,M,M,10000.00,20000.00,M,M,M,M,M,M,M,M,M,64.00,KLAS 021656Z 09005KT 10SM FEW100 SCT200 18/05 A2999 RMK AO2 SLP143 T01780050,M
10U,2023-10-02 17:00,-116.1876,41.9532,1637.00,41.00,39.20,93.24,240.00,3.00,0.00,30.07,M,10.00,M,OVC,M,M,M,400.00,M,M,M,M,M,M,M,M,M,M,38.98,K10U 021700Z AUTO 24003KT 10SM OVC004 05/04 A3007 RMK AO2,M
05U,2023-10-02 17:10,-116.0051,39.6042,1811.23,42.80,39.20,86.99,230.00,4.00,0.00,30.09,M,10.00,M,OVC,M,M,M,1900.00,M,M,M,M,M,M,M,M,M,M,40.03,K05U 021710Z AUTO 23004KT 10SM OVC019 06/04 A3009 RMK A01,M
BVU,2023-10-02 17:15,-114.8611,35.9475,671.00,66.20,39.20,37.03,180.00,4.00,0.00,29.99,M,10.00,M,CLR,M,M,M,M,M,M,M,M,M,M,M,M,M,M,66.20,KBVU 021715Z AUTO 18004KT 10SM CLR 19/04 A2999 RMK AO2,M
CXP,2023-10-02 17:15,-119.7326,39.1923,1431.00,51.80,35.60,53.81,0.00,0.00,0.00,30.12,M,10.00,M,CLR,M,M,M,M,M,M,M,M,M,M,M,M,M,M,51.80,KCXP 021715Z AUTO 00000KT 10SM CLR 11/02 A3012 RMK AO2,M
RTS,2023-10-02 17:15,-119.8764,39.6682,1539.00,50.00,32.00,49.81,360.00,6.00,0.00,30.13,M,10.00,M,OVC,M,M,M,6000.00,M,M,M,M,M,M,M,M,M,M,50.00,KRTS 021715Z AUTO 36006KT 10SM OVC060 10/M00 A3013 RMK AO2,M
MEV,2023-10-02 17:15,-119.7500,38.9963,1441.42,51.80,37.40,57.77,290.00,3.00,0.00,30.11,M,10.00,M,OVC,M,M,M,5000.00,M,M,M,M,M,M,M,M,M,M,51.80,KMEV 021715Z AUTO 29003KT 10SM OVC050 11/03 A3011 RMK AO2,M
BAM,2023-10-02 17:15,-116.8743,40.5990,1382.36,48.20,41.00,76.01,290.00,4.00,0.00,30.08,M,10.00,M,BKN,OVC,M,M,2000.00,2500.00,M,M,M,M,M,M,M,M,M,46.34,KBAM 021715Z AUTO 29004KT 10SM BKN020 OVC025 09/05 A3008 RMK AO1,M
HTH,2023-10-02 17:15,-118.6315,38.5448,1282.89,50.00,41.00,71.07,240.00,4.00,0.00,30.11,M,10.00,M,OVC,M,M,M,3800.00,M,M,M,M,M,M,M,M,M,M,50.00,KHTH 021715Z AUTO 24004KT 10SM OVC038 10/05 A3011 RMK A01,M
TMT,2023-10-02 17:15,-117.1971,39.4643,1749.34,42.00,40.30,93.64,0.00,0.00,0.00,30.10,M,10.00,M,OVC,M,M,M,1900.00,M,M,M,UP,M,M,M,M,M,M,42.00,KTMT 021715Z AUTO 00000KT 10SM UP OVC019 06/05 A3010 RMK AO2 T00560046,M
10U,2023-10-02 17:20,-116.1876,41.9532,1637.00,41.00,39.20,93.24,230.00,3.00,0.00,30.07,M,10.00,M,OVC,M,M,M,400.00,M,M,M,M,M,M,M,M,M,M,38.98,K10U 021720Z AUTO 23003KT 10SM OVC004 05/04 A3007 RMK AO2,M
WMC,2023-10-02 17:25,-117.8072,40.9019,1315.00,49.00,40.00,70.96,310.00,6.00,0.00,30.09,M,10.00,M,FEW,BKN,OVC,M,1800.00,2800.00,3800.00,M,M,M,M,M,M,M,M,46.00,KWMC 021725Z AUTO 31006KT 10SM FEW018 BKN028 OVC038 09/04 A3009 RMK AO2 T00940044,M
05U,2023-10-02 17:30,-116.0051,39.6042,1811.23,44.60,41.00,87.09,190.00,3.00,0.00,30.09,M,10.00,M,OVC,M,M,M,2000.00,M,M,M,M,M,M,M,M,M,M,43.09,K05U 021730Z AUTO 19003KT 10SM OVC020 07/05 A3009 RMK A01,M
BVU,2023-10-02 17:35,-114.8611,35.9475,671.00,66.20,39.20,37.03,0.00,0.00,0.00,29.99,M,10.00,M,CLR,M,M,M,M,M,M,M,M,M,M,M,M,M,M,66.20,KBVU 021735Z AUTO 00000KT 10SM CLR 19/04 A2999 RMK AO2,M
CXP,2023-10-02 17:35,-119.7326,39.1923,1431.00,51.80,35.60,53.81,0.00,0.00,0.00,30.12,M,10.00,M,FEW,M,M,M,4900.00,M,M,M,M,M,M,M,M,M,M,51.80,KCXP 021735Z AUTO 00000KT 10SM FEW049 11/02 A3012 RMK AO2,M
RTS,2023-10-02 17:35,-119.8764,39.6682,1539.00,50.00,32.00,49.81,M,4.00,0.00,30.13,M,10.00,M,OVC,M,M,M,6000.00,M,M,M,M,M,M,M,M,M,M,50.00,KRTS 021735Z AUTO VRB04KT 10SM OVC060 10/00 A3013 RMK AO2,M
MEV,2023-10-02 17:35,-119.7500,38.9963,1441.42,51.80,39.20,61.99,M,4.00,0.00,30.11,M,10.00,M,BKN,M,M,M,5500.00,M,M,M,M,M,M,M,M,M,M,51.80,KMEV 021735Z AUTO VRB04KT 10SM BKN055 11/04 A3011 RMK AO2,M
BAM,2023-10-02 17:35,-116.8743,40.5990,1382.36,50.00,41.00,71.07,310.00,5.00,0.00,30.09,M,10.00,M,OVC,M,M,M,2200.00,M,M,M,M,M,M,M,M,M,M,50.00,KBAM 021735Z AUTO 31005KT 10SM OVC022 10/05 A3009 RMK AO1,M
HTH,2023-10-02 17:35,-118.6315,38.5448,1282.89,51.80,39.20,61.99,250.00,5.00,0.00,30.12,M,10.00,M,OVC,M,M,M,3800.00,M,M,M,M,M,M,M,M,M,M,51.80,KHTH 021735Z AUTO 25005KT 10SM OVC038 11/04 A3012 RMK A01,M
TMT,2023-10-02 17:35,-117.1971,39.4643,1749.34,42.30,40.50,93.28,0.00,0.00,0.00,30.10,M,10.00,M,OVC,M,M,M,1900.00,M,M,M,-DZ,M,M,M,M,M,M,42.30,KTMT 021735Z AUTO 00000KT 10SM -DZ OVC019 06/05 A3010 RMK AO2 T00570047,M
10U,2023-10-02 17:40,-116.1876,41.9532,1637.00,41.00,39.20,93.24,220.00,3.00,0.00,30.07,M,10.00,M,OVC,M,M,M,400.00,M,M,M,M,M,M,M,M,M,M,38.98,K10U 021740Z AUTO 22003KT 10SM OVC004 05/04 A3007 RMK AO2,M
05U,2023-10-02 17:50,-116.0051,39.6042,1811.23,46.40,39.20,75.84,0.00,0.00,0.00,30.09,M,10.00,M,BKN,OVC,M,M,1500.00,2200.00,M,M,M,M,M,M,M,M,M,46.40,K05U 021750Z AUTO 00000KT 10SM BKN015 OVC022 08/04 A3009 RMK A01,M
P68,2023-10-02 17:53,-116.0056,39.6014,1993.00,45.00,39.00,79.36,20.00,3.00,0.00,30.07,1015.20,M,M,M,M,M,M,M,M,M,M,M,M,M,M,M,M,M,43.55,KP68 021753Z AUTO 02003KT 07/04 A3007 RMK AO1 SLP152 60005 T00720039 10072 20050 51010,M
DRA,2023-10-02 17:53,-116.0278,36.6206,1009.00,63.00,39.00,41.09,M,M,0.00,30.02,1013.70,10.00,M,SCT,M,M,M,11000.00,M,M,M,M,M,M,M,M,M,M,63.00,KDRA 021753Z AUTO 10SM SCT110 17/04 A3002 RMK AO2 SLP137 T01720039 10178 20072 50009,M
ELY,2023-10-02 17:53,-114.8453,39.2950,1909.00,47.00,36.00,65.38,0.00,0.00,T,30.05,1015.40,10.00,M,FEW,FEW,BKN,M,3600.00,4600.00,7000.00,M,M,M,M,M,M,M,M,47.00,KELY 021753Z AUTO 00000KT 10SM FEW036 FEW046 BKN070 08/02 A3005 RMK AO2 RAB40E49 SLP154 P0000 60000 T00830022 10089 21011 51009,M
VGT,2023-10-02 17:53,-115.1933,36.2111,667.00,69.00,39.00,33.36,0.00,0.00,0.00,29.98,1015.60,10.00,M,CLR,M,M,M,M,M,M,M,M,M,M,M,M,M,M,69.00,KVGT 021753Z 00000KT 10SM CLR 21/04 A2998 RMK AO2 SLP156 T02060039 10206 20139 51007,M
LOL,2023-10-02 17:53,-118.5701,40.0684,1192.43,52.00,40.00,63.48,M,3.00,0.00,30.10,1018.30,10.00,M,OVC,M,M,M,5000.00,M,M,M,M,M,M,M,M,M,M,52.00,KLOL 021753Z AUTO VRB03KT 10SM OVC050 11/04 A3010 RMK AO2 SLP183 60000 T01110044 10111 20072 51008,M
TMT,2023-10-02 17:55,-117.1971,39.4643,1749.34,42.60,41.00,94.02,0.00,0.00,0.00,30.10,M,10.00,M,OVC,M,M,M,2100.00,M,M,M,-RA,M,M,M,M,M,M,42.60,KTMT 021755Z AUTO 00000KT 10SM -RA OVC021 06/05 A3010 RMK AO2 T00590049 10060 20050,M
BVU,2023-10-02 17:55,-114.8611,35.9475,671.00,66.20,39.20,37.03,0.00,0.00,0.00,29.99,M,10.00,M,CLR,M,M,M,M,M,M,M,M,M,M,M,M,M,M,66.20,KBVU 021755Z AUTO 00000KT 10SM CLR 19/04 A2999 RMK AO2,M
CXP,2023-10-02 17:55,-119.7326,39.1923,1431.00,51.80,35.60,53.81,0.00,0.00,0.00,30.12,M,10.00,M,SCT,M,M,M,5000.00,M,M,M,M,M,M,M,M,M,M,51.80,KCXP 021755Z AUTO 00000KT 10SM SCT050 11/02 A3012 RMK AO2,M
INS,2023-10-02 17:55,-115.6733,36.5872,955.00,64.00,35.00,33.89,10.00,4.00,0.00,30.01,1013.40,10.00,M,CLR,M,M,M,M,M,M,M,M,M,M,M,M,M,M,64.00,KINS 021755Z AUTO 01004KT 10SM CLR 18/02 A3001 RMK AO2 SLP134 T01780017 10180 20092 50007 $,M
RNO,2023-10-02 17:55,-119.7711,39.4839,1341.00,54.00,35.00,48.46,M,3.00,0.00,30.11,1017.10,10.00,M,SCT,BKN,M,M,5500.00,23000.00,M,M,M,M,M,M,M,M,M,54.00,KRNO 021755Z VRB03KT 10SM SCT055 BKN230 12/02 A3011 RMK AO2 SLP171 T01220017 10133 20083 50009,M
LSV,2023-10-02 17:55,-115.0343,36.2362,570.00,75.40,41.00,29.04,0.00,0.00,0.00,29.96,1013.00,10.00,M,CLR,M,M,M,M,M,M,M,M,M,M,M,M,M,M,75.40,KLSV 021755Z AUTO 00000KT 10SM CLR 24/05 A2996 RMK AO2 SLP130 T02410049 10241 20113 50006 $,M
RTS,2023-10-02 17:55,-119.8764,39.6682,1539.00,51.80,32.00,46.59,M,5.00,0.00,30.13,M,10.00,M,BKN,M,M,M,6000.00,M,M,M,M,M,M,M,M,M,M,51.80,KRTS 021755Z AUTO VRB05KT 10SM BKN060 11/00 A3013 RMK AO2,M
MEV,2023-10-02 17:55,-119.7500,38.9963,1441.42,53.60,37.40,54.07,0.00,0.00,0.00,30.10,M,10.00,M,CLR,M,M,M,M,M,M,M,M,M,M,M,M,M,M,53.60,KMEV 021755Z AUTO 00000KT 10SM CLR 12/03 A3010 RMK AO2,M
BAM,2023-10-02 17:55,-116.8743,40.5990,1382.36,50.00,41.00,71.07,290.00,5.00,0.00,30.09,M,10.00,M,BKN,OVC,M,M,2200.00,2600.00,M,M,M,M,M,M,M,M,M,50.00,KBAM 021755Z AUTO 29005KT 10SM BKN022 OVC026 10/05 A3009 RMK AO1,M
HTH,2023-10-02 17:55,-118.6315,38.5448,1282.89,51.80,39.20,61.99,240.00,4.00,0.00,30.12,M,10.00,M,BKN,OVC,M,M,3800.00,4500.00,M,M,M,M,M,M,M,M,M,51.80,KHTH 021755Z AUTO 24004KT 10SM BKN038 OVC045 11/04 A3012 RMK A01,M
EKO,2023-10-02 17:56,-115.7860,40.8242,1367.00,50.00,40.00,68.37,220.00,8.00,0.00,30.04,1015.80,10.00,M,OVC,M,M,M,2400.00,M,M,M,M,M,M,M,M,M,M,50.00,KEKO 021756Z AUTO 22008KT 10SM OVC024 10/04 A3004 RMK AO2 SLP158 T01000044 10100 20072 51008,M
WMC,2023-10-02 17:56,-117.8072,40.9019,1315.00,50.00,40.00,68.37,330.00,8.00,0.00,30.10,1018.20,10.00,M,BKN,BKN,OVC,M,2200.00,2900.00,3800.00,M,M,M,M,M,M,M,M,50.00,KWMC 021756Z AUTO 33008KT 10SM BKN022 BKN029 OVC038 10/04 A3010 RMK AO2 SLP182 T01000044 10100 20067 53010,M
NFL,2023-10-02 17:56,-118.7010,39.4166,1199.00,54.00,42.00,63.74,310.00,5.00,0.00,30.10,1016.00,10.00,M,FEW,SCT,BKN,M,2900.00,7000.00,9000.00,M,M,M,M,M,M,M,M,54.00,KNFL 021756Z 31005KT 10SM FEW029 SCT070 BKN090 12/06 A3010 RMK AO2 SLP160 T01220056 10128 20083 51009 $,M
HND,2023-10-02 17:56,-115.1344,35.9729,742.79,66.00,38.00,35.58,0.00,0.00,0.00,30.02,1016.90,10.00,M,CLR,M,M,M,M,M,M,M,M,M,M,M,M,M,M,66.00,KHND 021756Z 00000KT 10SM CLR 19/03 A3002 RMK AO2 SLP169 T01890033 10189 20117 51008,M
TPH,2023-10-02 17:56,-117.0904,38.0505,1654.00,52.00,40.00,63.48,330.00,9.00,0.00,30.08,1016.00,10.00,15.00,CLR,M,M,M,M,M,M,M,M,M,M,M,M,M,M,52.00,KTPH 021756Z AUTO 33009G15KT 10SM CLR 11/04 A3008 RMK AO2 SLP160 60000 T01110044 10111 20067 51007,M
LAS,2023-10-02 17:56,-115.1634,36.0719,663.00,67.00,40.00,37.16,0.00,0.00,0.00,29.98,1014.10,10.00,M,FEW,SCT,M,M,10000.00,20000.00,M,M,M,M,M,M,M,M,M,67.00,KLAS 021756Z 00000KT 10SM FEW100 SCT200 19/04 A2998 RMK AO2 SLP141 T01940044 10194 20128 50007,M
10U,2023-10-02 18:00,-116.1876,41.9532,1637.00,42.80,41.00,93.30,0.00,0.00,0.00,30.08,M,10.00,M,OVC,M,M,M,500.00,M,M,M,M,M,M,M,M,M,M,42.80,K10U 021800Z AUTO 00000KT 10SM OVC005 06/05 A3008 RMK AO2,M
05U,2023-10-02 18:10,-116.0051,39.6042,1811.23,48.20,41.00,76.01,0.00,0.00,0.00,30.09,M,10.00,M,SCT,BKN,OVC,M,1500.00,5000.00,6500.00,M,M,M,M,M,M,M,M,48.20,K05U 021810Z AUTO 00000KT 10SM SCT015 BKN050 OVC065 09/05 A3009 RMK A01,M
WMC,2023-10-02 18:13,-117.8072,40.9019,1315.00,50.00,40.00,68.37,320.00,5.00,0.00,30.09,M,10.00,M,SCT,OVC,M,M,2200.00,3500.00,M,M,M,M,M,M,M,M,M,50.00,KWMC 021813Z AUTO 32005KT 10SM SCT022 OVC035 10/04 A3009 RMK AO2 T01000044,M
MEV,2023-10-02 18:15,-119.7500,38.9963,1441.42,53.60,37.40,54.07,0.00,0.00,0.00,30.10,M,10.00,M,FEW,M,M,M,5000.00,M,M,M,M,M,M,M,M,M,M,53.60,KMEV 021815Z AUTO 00000KT 10SM FEW050 12/03 A3010 RMK AO2,M
BAM,2023-10-02 18:15,-116.8743,40.5990,1382.36,48.20,42.80,81.47,230.00,5.00,0.00,30.09,M,10.00,M,OVC,M,M,M,2000.00,M,M,M,M,M,M,M,M,M,M,45.63,KBAM 021815Z AUTO 23005KT 10SM OVC020 09/06 A3009 RMK AO1,M
HTH,2023-10-02 18:15,-118.6315,38.5448,1282.89,51.80,39.20,61.99,250.00,5.00,0.00,30.12,M,10.00,M,BKN,BKN,OVC,M,4300.00,4900.00,5500.00,M,M,M,M,M,M,M,M,51.80,KHTH 021815Z AUTO 25005KT 10SM BKN043 BKN049 OVC055 11/04 A3012 RMK A01,M
BVU,2023-10-02 18:15,-114.8611,35.9475,671.00,68.00,39.20,34.80,M,5.00,0.00,29.98,M,10.00,M,CLR,M,M,M,M,M,M,M,M,M,M,M,M,M,M,68.00,KBVU 021815Z AUTO VRB05KT 10SM CLR 20/04 A2998 RMK AO2,M
CXP,2023-10-02 18:15,-119.7326,39.1923,1431.00,53.60,35.60,50.36,0.00,0.00,0.00,30.12,M,10.00,M,CLR,M,M,M,M,M,M,M,M,M,M,M,M,M,M,53.60,KCXP 021815Z AUTO 00000KT 10SM CLR 12/02 A3012 RMK AO2,M
RTS,2023-10-02 18:15,-119.8764,39.6682,1539.00,51.80,32.00,46.59,M,7.00,0.00,30.13,M,10.00,M,SCT,SCT,M,M,3900.00,6000.00,M,M,M,M,M,M,M,M,M,51.80,KRTS 021815Z AUTO VRB07KT 230V340 10SM SCT039 SCT060 11/M00 A3013 RMK AO2,M
TMT,2023-10-02 18:15,-117.1971,39.4643,1749.34,43.00,40.30,90.10,0.00,0.00,0.00,30.10,M,10.00,M,SCT,OVC,M,M,2100.00,3100.00,M,M,M,M,M,M,M,M,M,43.00,KTMT 021815Z AUTO 00000KT 10SM SCT021 OVC031 06/05 A3010 RMK AO2 T00610046,M
10U,2023-10-02 18:20,-116.1876,41.9532,1637.00,42.80,39.20,86.99,0.00,0.00,0.00,30.08,M,10.00,M,BKN,OVC,M,M,600.00,1000.00,M,M,M,M,M,M,M,M,M,42.80,K10U 021820Z AUTO 00000KT 10SM BKN006 OVC010 06/04 A3008 RMK AO2,M
WMC,2023-10-02 18:29,-117.8072,40.9019,1315.00,49.00,41.00,73.77,290.00,7.00,T,30.10,M,10.00,M,BKN,BKN,OVC,M,2300.00,3000.00,3800.00,M,-RA,M,M,M,M,M,M,45.50,KWMC 021829Z AUTO 29007KT 10SM -RA BKN023 BKN030 OVC038 09/05 A3010 RMK AO2 RAB29 P0000 T00940050,M
05U,2023-10-02 18:30,-116.0051,39.6042,1811.23,48.20,39.20,70.88,0.00,0.00,0.00,30.09,M,10.00,M,BKN,BKN,OVC,M,1700.00,2100.00,5500.00,M,M,M,M,M,M,M,M,48.20,K05U 021830Z AUTO 00000KT 10SM BKN017 BKN021 OVC055 09/04 A3009 RMK A01,M
EKO,2023-10-02 18:33,-115.7860,40.8242,1367.00,51.00,39.00,63.36,200.00,8.00,0.00,30.04,M,10.00,M,OVC,M,M,M,3000.00,M,M,M,M,M,M,M,M,M,M,51.00,KEKO 021833Z AUTO 20008KT 10SM OVC030 11/04 A3004 RMK AO2 T01060039,M
BVU,2023-10-02 18:35,-114.8611,35.9475,671.00,68.00,39.20,34.80,0.00,0.00,0.00,29.98,M,10.00,M,CLR,M,M,M,M,M,M,M,M,M,M,M,M,M,M,68.00,KBVU 021835Z AUTO 00000KT 10SM CLR 20/04 A2998 RMK AO2,M
CXP,2023-10-02 18:35,-119.7326,39.1923,1431.00,55.40,35.60,47.16,0.00,0.00,0.00,30.11,M,10.00,M,SCT,BKN,M,M,4100.00,6500.00,M,M,M,M,M,M,M,M,M,55.40,KCXP 021835Z AUTO 00000KT 10SM SCT041 BKN065 13/02 A3011 RMK AO2,M
RTS,2023-10-02 18:35,-119.8764,39.6682,1539.00,53.60,32.00,43.61,M,6.00,0.00,30.13,M,10.00,11.00,SCT,M,M,M,4000.00,M,M,M,M,M,M,M,M,M,M,53.60,KRTS 021835Z AUTO VRB06G11KT 10SM SCT040 12/M00 A3013 RMK AO2,M
MEV,2023-10-02 18:35,-119.7500,38.9963,1441.42,55.40,37.40,50.64,M,4.00,0.00,30.10,M,10.00,M,BKN,M,M,M,5000.00,M,M,M,M,M,M,M,M,M,M,55.40,KMEV 021835Z AUTO VRB04KT 10SM BKN050 13/03 A3010 RMK AO2,M
BAM,2023-10-02 18:35,-116.8743,40.5990,1382.36,50.00,42.80,76.18,230.00,4.00,0.00,30.09,M,10.00,M,BKN,OVC,M,M,2200.00,2600.00,M,M,M,M,M,M,M,M,M,50.00,KBAM 021835Z AUTO 23004KT 10SM BKN022 OVC026 10/06 A3009 RMK AO1,M
HTH,2023-10-02 18:35,-118.6315,38.5448,1282.89,53.60,39.20,58.02,230.00,6.00,0.00,30.11,M,10.00,M,FEW,OVC,M,M,4300.00,5500.00,M,M,M,M,M,M,M,M,M,53.60,KHTH 021835Z AUTO 23006KT 10SM FEW043 OVC055 12/04 A3011 RMK A01,M
TMT,2023-10-02 18:35,-117.1971,39.4643,1749.34,43.00,40.30,90.10,0.00,0.00,0.01,30.11,M,4.00,M,SCT,BKN,OVC,M,900.00,2400.00,3100.00,M,RA,M,M,M,M,M,M,43.00,KTMT 021835Z AUTO 00000KT 4SM RA SCT009 BKN024 OVC031 06/05 A3011 RMK AO2 P0001 T00610046,M
10U,2023-10-02 18:40,-116.1876,41.9532,1637.00,42.80,41.00,93.30,0.00,0.00,0.00,30.09,M,10.00,M,SCT,OVC,M,M,800.00,1300.00,M,M,M,M,M,M,M,M,M,42.80,K10U 021840Z AUTO 00000KT 10SM SCT008 OVC013 06/05 A3009 RMK AO2,M
05U,2023-10-02 18:50,-116.0051,39.6042,1811.23,46.40,39.20,75.84,0.00,0.00,0.00,30.09,M,10.00,M,BKN,OVC,M,M,1600.00,2200.00,M,M,M,M,M,M,M,M,M,46.40,K05U 021850Z AUTO 00000KT 10SM BKN016 OVC022 08/04 A3009 RMK A01,M
P68,2023-10-02 18:53,-116.0056,39.6014,1993.00,45.00,39.00,79.36,0.00,0.00,0.00,30.07,1015.20,M,M,M,M,M,M,M,M,M,M,M,M,M,M,M,M,M,45.00,KP68 021853Z AUTO 00000KT 07/04 A3007 RMK AO1 SLP152 T00720039,M
DRA,2023-10-02 18:53,-116.0278,36.6206,1009.00,65.00,38.00,36.84,230.00,6.00,0.00,30.00,1013.20,10.00,M,CLR,M,M,M,M,M,M,M,M,M,M,M,M,M,M,65.00,KDRA 021853Z AUTO 23006KT 10SM CLR 18/03 A3000 RMK AO2 SLP132 T01830033,M
ELY,2023-10-02 18:53,-114.8453,39.2950,1909.00,47.00,38.00,70.74,290.00,13.00,T,30.05,1015.50,10.00,20.00,FEW,SCT,OVC,M,3000.00,4500.00,7000.00,M,-RA,M,M,M,M,M,M,40.79,KELY 021853Z AUTO 29013G20KT 10SM -RA FEW030 SCT045 OVC070 08/03 A3005 RMK AO2 RAB53 SLP155 P0000 T00830033,M
VGT,2023-10-02 18:53,-115.1933,36.2111,667.00,72.00,38.00,28.96,0.00,0.00,0.00,29.97,1015.10,10.00,M,CLR,M,M,M,M,M,M,M,M,M,M,M,M,M,M,72.00,KVGT 021853Z 00000KT 10SM CLR 22/03 A2997 RMK AO2 SLP151 T02220033,M
LOL,2023-10-02 18:53,-118.5701,40.0684,1192.43,52.00,41.00,66.00,M,3.00,0.00,30.10,1018.60,10.00,M,OVC,M,M,M,3900.00,M,M,M,M,M,M,M,M,M,M,52.00,KLOL 021853Z AUTO VRB03KT 10SM OVC039 11/05 A3010 RMK AO2 SLP186 T01110050,M
BVU,2023-10-02 18:55,-114.8611,35.9475,671.00,69.80,39.20,32.72,0.00,0.00,0.00,29.98,M,10.00,M,CLR,M,M,M,M,M,M,M,M,M,M,M,M,M,M,69.80,KBVU 021855Z AUTO 00000KT 10SM CLR 21/04 A2998 RMK AO2,M
CXP,2023-10-02 18:55,-119.7326,39.1923,1431.00,55.40,35.60,47.16,M,4.00,0.00,30.12,M,10.00,M,BKN,BKN,M,M,4200.00,6500.00,M,M,M,M,M,M,M,M,M,55.40,KCXP 021855Z AUTO VRB04KT 10SM BKN042 BKN065 13/02 A3012 RMK AO2,M
INS,2023-10-02 18:55,-115.6733,36.5872,955.00,66.70,34.30,30.00,320.00,9.00,0.00,29.99,1012.50,10.00,M,CLR,M,M,M,M,M,M,M,M,M,M,M,M,M,M,66.70,KINS 021855Z AUTO 32009KT 10SM CLR 19/01 A2999 RMK AO2 SLP125 T01930013 $,M
RNO,2023-10-02 18:55,-119.7711,39.4839,1341.00,59.00,34.00,38.87,M,4.00,0.00,30.11,1016.80,10.00,M,SCT,SCT,M,M,6000.00,23000.00,M,M,M,M,M,M,M,M,M,59.00,KRNO 021855Z VRB04KT 10SM SCT060 SCT230 15/01 A3011 RMK AO2 SLP168 T01500011,M
LSV,2023-10-02 18:55,-115.0343,36.2362,570.00,77.50,39.00,25.06,130.00,3.00,0.00,29.94,1012.30,10.00,M,CLR,M,M,M,M,M,M,M,M,M,M,M,M,M,M,77.50,KLSV 021855Z AUTO 13003KT 10SM CLR 25/04 A2994 RMK AO2 SLP123 T02530038 $,M
RTS,2023-10-02 18:55,-119.8764,39.6682,1539.00,53.60,32.00,43.61,0.00,0.00,0.00,30.13,M,10.00,M,CLR,M,M,M,M,M,M,M,M,M,M,M,M,M,M,53.60,KRTS 021855Z AUTO 00000KT 10SM CLR 12/M00 A3013 RMK AO2,M
MEV,2023-10-02 18:55,-119.7500,38.9963,1441.42,55.40,35.60,47.16,M,3.00,0.00,30.10,M,10.00,M,OVC,M,M,M,5000.00,M,M,M,M,M,M,M,M,M,M,55.40,KMEV 021855Z AUTO VRB03KT 10SM OVC050 13/02 A3010 RMK AO2,M
BAM,2023-10-02 18:55,-116.8743,40.5990,1382.36,50.00,42.80,76.18,0.00,0.00,0.00,30.10,M,10.00,M,BKN,OVC,M,M,2300.00,2800.00,M,M,M,M,M,M,M,M,M,50.00,KBAM 021855Z AUTO 00000KT 10SM BKN023 OVC028 10/06 A3010 RMK AO1,M
HTH,2023-10-02 18:55,-118.6315,38.5448,1282.89,53.60,39.20,58.02,250.00,4.00,0.00,30.11,M,10.00,M,OVC,M,M,M,5500.00,M,M,M,M,M,M,M,M,M,M,53.60,KHTH 021855Z AUTO 25004KT 10SM OVC055 12/04 A3011 RMK A01,M
TMT,2023-10-02 18:55,-117.1971,39.4643,1749.34,42.80,41.00,93.30,0.00,0.00,0.03,30.11,M,4.00,M,SCT,OVC,M,M,900.00,1700.00,M,M,-RA,M,M,M,M,M,M,42.80,KTMT 021855Z AUTO 00000KT 4SM -RA SCT009 OVC017 06/05 A3011 RMK AO2 P0003 T00600050,M
EKO,2023-10-02 18:56,-115.7860,40.8242,1367.00,53.00,39.00,58.85,220.00,6.00,0.00,30.04,1015.60,10.00,M,OVC,M,M,M,3200.00,M,M,M,M,M,M,M,M,M,M,53.00,KEKO 021856Z AUTO 22006KT 10SM OVC032 12/04 A3004 RMK AO2 SLP156 T01170039,M
WMC,2023-10-02 18:56,-117.8072,40.9019,1315.00,49.00,41.00,73.77,320.00,8.00,T,30.11,1018.40,10.00,M,BKN,OVC,M,M,2500.00,3000.00,M,M,-RA,M,M,M,M,M,M,45.05,KWMC 021856Z AUTO 32008KT 10SM -RA BKN025 OVC030 09/05 A3011 RMK AO2 RAB29 SLP184 P0000 T00940050,M
NFL,2023-10-02 18:56,-118.7010,39.4166,1199.00,56.00,41.00,57.02,0.00,0.00,0.00,30.09,1015.80,10.00,M,SCT,BKN,BKN,BKN,3000.00,4500.00,8000.00,13000.00,M,M,M,M,M,M,M,56.00,KNFL 021856Z 00000KT 10SM SCT030 BKN045 BKN080 BKN130 13/05 A3009 RMK AO2 SLP158 T01330050 $,M
HND,2023-10-02 18:56,-115.1344,35.9729,742.79,69.00,38.00,32.08,M,3.00,0.00,30.01,1016.50,10.00,M,CLR,M,M,M,M,M,M,M,M,M,M,M,M,M,M,69.00,KHND 021856Z VRB03KT 10SM CLR 21/03 A3001 RMK AO2 SLP165 T02060033,M
TPH,2023-10-02 18:56,-117.0904,38.0505,1654.00,52.00,39.00,61.06,300.00,14.00,0.00,30.08,1016.10,10.00,M,BKN,M,M,M,3400.00,M,M,M,M,M,M,M,M,M,M,52.00,KTPH 021856Z AUTO 30014KT 10SM BKN034 11/04 A3008 RMK AO2 SLP161 T01110039,M
LAS,2023-10-02 18:56,-115.1634,36.0719,663.00,68.00,39.00,34.53,0.00,0.00,0.00,29.98,1013.80,10.00,M,FEW,SCT,M,M,10000.00,20000.00,M,M,M,M,M,M,M,M,M,68.00,KLAS 021856Z 00000KT 10SM FEW100 SCT200 20/04 A2998 RMK AO2 SLP138 T02000039,M
10U,2023-10-02 19:00,-116.1876,41.9532,1637.00,44.60,41.00,87.09,0.00,0.00,0.00,30.08,M,10.00,M,BKN,OVC,M,M,1500.00,1900.00,M,M,M,M,M,M,M,M,M,44.60,K10U 021900Z AUTO 00000KT 10SM BKN015 OVC019 07/05 A3008 RMK AO2,M
05U,2023-10-02 19:10,-116.0051,39.6042,1811.23,46.40,41.00,81.34,360.00,3.00,0.00,30.09,M,8.00,M,BKN,OVC,M,M,1600.00,2200.00,M,M,M,M,M,M,M,M,M,45.15,K05U 021910Z AUTO 36003KT 8SM BKN016 OVC022 08/05 A3009 RMK A01,M
BVU,2023-10-02 19:15,-114.8611,35.9475,671.00,69.80,37.40,30.49,0.00,0.00,0.00,29.97,M,10.00,M,CLR,M,M,M,M,M,M,M,M,M,M,M,M,M,M,69.80,KBVU 021915Z AUTO 00000KT 10SM CLR 21/03 A2997 RMK AO2,M
CXP,2023-10-02 19:15,-119.7326,39.1923,1431.00,57.20,35.60,44.19,160.00,3.00,0.00,30.12,M,10.00,M,FEW,M,M,M,4300.00,M,M,M,M,M,M,M,M,M,M,57.20,KCXP 021915Z AUTO 16003KT 10SM FEW043 14/02 A3012 RMK AO2,M
RTS,2023-10-02 19:15,-119.8764,39.6682,1539.00,55.40,32.00,40.84,340.00,7.00,0.00,30.13,M,10.00,M,CLR,M,M,M,M,M,M,M,M,M,M,M,M,M,M,55.40,KRTS 021915Z AUTO 34007KT 300V360 10SM CLR 13/M00 A3013 RMK AO2,M
MEV,2023-10-02 19:15,-119.7500,38.9963,1441.42,57.20,33.80,41.13,360.00,3.00,0.00,30.10,M,10.00,M,BKN,BKN,M,M,4300.00,5000.00,M,M,M,M,M,M,M,M,M,57.20,KMEV 021915Z AUTO 36003KT 10SM BKN043 BKN050 14/01 A3010 RMK AO2,M
BAM,2023-10-02 19:15,-116.8743,40.5990,1382.36,50.00,42.80,76.18,220.00,4.00,0.00,30.10,M,10.00,M,OVC,M,M,M,2800.00,M,M,M,M,M,M,M,M,M,M,50.00,KBAM 021915Z AUTO 22004KT 10SM OVC028 10/06 A3010 RMK AO1,M
HTH,2023-10-02 19:15,-118.6315,38.5448,1282.89,53.60,41.00,62.23,260.00,4.00,0.00,30.11,M,10.00,M,OVC,M,M,M,5500.00,M,M,M,M,M,M,M,M,M,M,53.60,KHTH 021915Z AUTO 26004KT 10SM OVC055 12/05 A3011 RMK A01,M
TMT,2023-10-02 19:15,-117.1971,39.4643,1749.34,43.30,41.00,91.52,0.00,0.00,0.00,30.11,M,7.00,M,SCT,SCT,OVC,M,700.00,1300.00,1900.00,M,M,M,M,M,M,M,M,43.30,KTMT 021915Z AUTO 00000KT 7SM SCT007 SCT013 OVC019 06/05 A3011 RMK AO2 T00630050,M
10U,2023-10-02 19:20,-116.1876,41.9532,1637.00,44.60,41.00,87.09,220.00,5.00,0.00,30.08,M,10.00,M,FEW,OVC,M,M,900.00,1700.00,M,M,M,M,M,M,M,M,M,41.36,K10U 021920Z AUTO 22005KT 10SM FEW009 OVC017 07/05 A3008 RMK AO2,M
05U,2023-10-02 19:30,-116.0051,39.6042,1811.23,48.20,41.00,76.01,20.00,4.00,0.00,30.09,M,9.00,M,FEW,BKN,OVC,M,1600.00,2300.00,4100.00,M,M,M,M,M,M,M,M,46.34,K05U 021930Z AUTO 02004KT 9SM FEW016 BKN023 OVC041 09/05 A3009 RMK A01,M
BVU,2023-10-02 19:35,-114.8611,35.9475,671.00,71.60,37.40,28.68,0.00,0.00,0.00,29.96,M,10.00,M,CLR,M,M,M,M,M,M,M,M,M,M,M,M,M,M,71.60,KBVU 021935Z AUTO 00000KT 10SM CLR 22/03 A2996 RMK AO2,M
CXP,2023-10-02 19:35,-119.7326,39.1923,1431.00,57.20,33.80,41.13,340.00,3.00,0.00,30.12,M,10.00,M,SCT,M,M,M,5000.00,M,M,M,M,M,M,M,M,M,M,57.20,KCXP 021935Z AUTO 34003KT 10SM SCT050 14/01 A3012 RMK AO2,M
RTS,2023-10-02 19:35,-119.8764,39.6682,1539.00,55.40,32.00,40.84,50.00,5.00,0.00,30.13,M,10.00,M,CLR,M,M,M,M,M,M,M,M,M,M,M,M,M,M,55.40,KRTS 021935Z AUTO 05005KT 10SM CLR 13/00 A3013 RMK AO2,M
MEV,2023-10-02 19:35,-119.7500,38.9963,1441.42,59.00,35.60,41.42,M,5.00,0.00,30.10,M,10.00,M,SCT,M,M,M,4400.00,M,M,M,M,M,M,M,M,M,M,59.00,KMEV 021935Z AUTO VRB05KT 10SM SCT044 15/02 A3010 RMK AO2,M
BAM,2023-10-02 19:35,-116.8743,40.5990,1382.36,50.00,42.80,76.18,210.00,3.00,0.00,30.11,M,10.00,M,OVC,M,M,M,2900.00,M,M,M,M,M,M,M,M,M,M,50.00,KBAM 021935Z AUTO 21003KT 10SM OVC029 10/06 A3011 RMK AO1,M
HTH,2023-10-02 19:35,-118.6315,38.5448,1282.89,55.40,41.00,58.27,M,4.00,0.00,30.11,M,10.00,M,FEW,OVC,M,M,3300.00,5500.00,M,M,M,M,M,M,M,M,M,55.40,KHTH 021935Z AUTO VRB04KT 10SM FEW033 OVC055 13/05 A3011 RMK A01,M
TMT,2023-10-02 19:35,-117.1971,39.4643,1749.34,44.40,40.00,84.42,0.00,0.00,0.00,30.11,M,10.00,M,SCT,BKN,OVC,M,700.00,2400.00,3400.00,M,M,M,M,M,M,M,M,44.40,KTMT 021935Z AUTO 00000KT 10SM SCT007 BKN024 OVC034 07/04 A3011 RMK AO2 T00690044,M
10U,2023-10-02 19:40,-116.1876,41.9532,1637.00,44.60,41.00,87.09,210.00,5.00,0.00,30.09,M,10.00,M,BKN,OVC,M,M,1800.00,2200.00,M,M,M,M,M,M,M,M,M,41.36,K10U 021940Z AUTO 21005KT 10SM BKN018 OVC022 07/05 A3009 RMK AO2,M
05U,2023-10-02 19:50,-116.0051,39.6042,1811.23,48.20,41.00,76.01,50.00,7.00,0.00,30.10,M,10.00,M,FEW,BKN,OVC,M,2300.00,3900.00,6000.00,M,M,M,M,M,M,M,M,44.53,K05U 021950Z AUTO 05007KT 10SM FEW023 BKN039 OVC060 09/05 A3010 RMK A01,M
P68,2023-10-02 19:53,-116.0056,39.6014,1993.00,47.00,40.00,76.49,260.00,7.00,0.00,30.07,1015.10,M,M,M,M,M,M,M,M,M,M,M,M,M,M,M,M,M,43.06,KP68 021953Z AUTO 26007KT 08/04 A3007 RMK AO1 SLP151 T00830044,M
DRA,2023-10-02 19:53,-116.0278,36.6206,1009.00,69.00,37.00,30.84,190.00,8.00,0.00,29.99,1012.60,10.00,M,CLR,M,M,M,M,M,M,M,M,M,M,M,M,M,M,69.00,KDRA 021953Z AUTO 19008KT 10SM CLR 21/03 A2999 RMK AO2 SLP126 T02060028,M
ELY,2023-10-02 19:53,-114.8453,39.2950,1909.00,45.00,39.00,79.36,210.00,9.00,T,30.06,1016.10,10.00,M,BKN,BKN,OVC,M,3500.00,6000.00,9000.00,M,M,M,M,M,M,M,M,39.68,KELY 021953Z AUTO 21009KT 10SM BKN035 BKN060 OVC090 07/04 A3006 RMK AO2 RAE36 SLP161 P0000 T00720039,M
VGT,2023-10-02 19:53,-115.1933,36.2111,667.00,72.00,39.00,30.12,0.00,0.00,0.00,29.95,1014.50,10.00,M,CLR,M,M,M,M,M,M,M,M,M,M,M,M,M,M,72.00,KVGT 021953Z 00000KT 10SM CLR 22/04 A2995 RMK AO2 SLP145 T02220039,M
LOL,2023-10-02 19:53,-118.5701,40.0684,1192.43,54.00,41.00,61.32,0.00,0.00,0.00,30.10,1018.60,10.00,M,OVC,M,M,M,4800.00,M,M,M,M,M,M,M,M,M,M,54.00,KLOL 021953Z AUTO 00000KT 10SM OVC048 12/05 A3010 RMK AO2 SLP186 T01220050,M
BVU,2023-10-02 19:55,-114.8611,35.9475,671.00,71.60,35.60,26.71,M,4.00,0.00,29.95,M,10.00,M,CLR,M,M,M,M,M,M,M,M,M,M,M,M,M,M,71.60,KBVU 021955Z AUTO VRB04KT 10SM CLR 22/02 A2995 RMK AO2,M
CXP,2023-10-02 19:55,-119.7326,39.1923,1431.00,57.20,33.80,41.13,0.00,0.00,0.00,30.12,M,10.00,M,BKN,M,M,M,5000.00,M,M,M,M,M,M,M,M,M,M,57.20,KCXP 021955Z AUTO 00000KT 10SM BKN050 14/01 A3012 RMK AO2,M
INS,2023-10-02 19:55,-115.6733,36.5872,955.00,69.00,33.40,26.73,320.00,8.00,0.00,29.98,1012.20,10.00,M,CLR,M,M,M,M,M,M,M,M,M,M,M,M,M,M,69.00,KINS 021955Z AUTO 32008KT 10SM CLR 21/01 A2998 RMK AO2 SLP122 T02050008 $,M
RNO,2023-10-02 19:55,-119.7711,39.4839,1341.00,61.00,34.00,36.19,60.00,5.00,0.00,30.10,1016.40,10.00,M,SCT,SCT,M,M,6000.00,25000.00,M,M,M,M,M,M,M,M,M,61.00,KRNO 021955Z 06005KT 10SM SCT060 SCT250 16/01 A3010 RMK AO2 SLP164 T01610011,M
LSV,2023-10-02 19:55,-115.0343,36.2362,570.00,77.40,39.00,25.14,0.00,0.00,0.00,29.93,1012.00,10.00,M,CLR,M,M,M,M,M,M,M,M,M,M,M,M,M,M,77.40,KLSV 021955Z AUTO 00000KT 10SM CLR 25/04 A2993 RMK AO2 SLP120 T02520038 $,M
RTS,2023-10-02 19:55,-119.8764,39.6682,1539.00,55.40,32.00,40.84,0.00,0.00,0.00,30.13,M,10.00,M,CLR,M,M,M,M,M,M,M,M,M,M,M,M,M,M,55.40,KRTS 021955Z AUTO 00000KT 10SM CLR 13/M00 A3013 RMK AO2,M
MEV,2023-10-02 19:55,-119.7500,38.9963,1441.42,59.00,33.80,38.56,70.00,8.00,0.00,30.11,M,10.00,M,BKN,BKN,M,M,5000.00,5500.00,M,M,M,M,M,M,M,M,M,59.00,KMEV 021955Z AUTO 07008KT 10SM BKN050 BKN055 15/01 A3011 RMK AO2,M
BAM,2023-10-02 19:55,-116.8743,40.5990,1382.36,50.00,42.80,76.18,250.00,3.00,0.00,30.11,M,10.00,M,BKN,OVC,M,M,3200.00,4100.00,M,M,M,M,M,M,M,M,M,50.00,KBAM 021955Z AUTO 25003KT 10SM BKN032 OVC041 10/06 A3011 RMK AO1,M
HTH,2023-10-02 19:55,-118.6315,38.5448,1282.89,55.40,41.00,58.27,340.00,6.00,0.00,30.11,M,10.00,M,OVC,M,M,M,5500.00,M,M,M,M,M,M,M,M,M,M,55.40,KHTH 021955Z AUTO 34006KT 10SM OVC055 13/05 A3011 RMK A01,M
TMT,2023-10-02 19:55,-117.1971,39.4643,1749.34,44.60,39.70,82.80,0.00,0.00,0.00,30.11,M,10.00,M,SCT,BKN,OVC,M,1100.00,2500.00,3300.00,M,M,M,M,M,M,M,M,44.60,KTMT 021955Z AUTO 00000KT 10SM SCT011 BKN025 OVC033 07/04 A3011 RMK AO2 T00700043,M
EKO,2023-10-02 19:56,-115.7860,40.8242,1367.00,55.00,38.00,52.60,250.00,14.00,0.00,30.04,1015.50,10.00,M,FEW,SCT,M,M,3200.00,4300.00,M,M,M,M,M,M,M,M,M,55.00,KEKO 021956Z AUTO 25014KT 10SM FEW032 SCT043 13/03 A3004 RMK AO2 SLP155 T01280033,M
WMC,2023-10-02 19:56,-117.8072,40.9019,1315.00,52.00,40.00,63.48,0.00,0.00,T,30.11,1018.40,10.00,M,FEW,BKN,OVC,M,2600.00,3600.00,6500.00,M,M,M,M,M,M,M,M,52.00,KWMC 021956Z AUTO 00000KT 10SM FEW026 BKN036 OVC065 11/04 A3011 RMK AO2 RAE05 SLP184 P0000 T01110044,M
NFL,2023-10-02 19:56,-118.7010,39.4166,1199.00,56.00,40.00,54.85,360.00,6.00,0.00,30.10,1016.00,10.00,M,FEW,BKN,BKN,M,3000.00,4500.00,10000.00,M,M,M,M,M,M,M,M,56.00,KNFL 021956Z 36006KT 10SM FEW030 BKN045 BKN100 13/04 A3010 RMK AO2 SLP160 T01330044,M
HND,2023-10-02 19:56,-115.1344,35.9729,742.79,71.00,37.00,28.81,0.00,0.00,0.00,29.99,1015.70,10.00,M,CLR,M,M,M,M,M,M,M,M,M,M,M,M,M,M,71.00,KHND 021956Z 00000KT 10SM CLR 22/03 A2999 RMK AO2 SLP157 T02170028,M
TPH,2023-10-02 19:56,-117.0904,38.0505,1654.00,54.00,39.00,56.74,310.00,14.00,0.00,30.08,1015.80,10.00,20.00,SCT,BKN,M,M,4100.00,4900.00,M,M,M,M,M,M,M,M,M,54.00,KTPH 021956Z AUTO 31014G20KT 10SM SCT041 BKN049 12/04 A3008 RMK AO2 SLP158 T01220039,M
LAS,2023-10-02 19:56,-115.1634,36.0719,663.00,70.00,38.00,31.00,0.00,0.00,0.00,29.96,1013.10,10.00,M,FEW,FEW,M,M,10000.00,20000.00,M,M,M,M,M,M,M,M,M,70.00,KLAS 021956Z 00000KT 10SM FEW100 FEW200 21/03 A2996 RMK AO2 SLP131 T02110033,M
10U,2023-10-02 20:00,-116.1876,41.9532,1637.00,44.60,41.00,87.09,230.00,7.00,0.00,30.09,M,10.00,M,BKN,OVC,M,M,1200.00,1700.00,M,M,M,M,M,M,M,M,M,40.14,K10U 022000Z AUTO 23007KT 10SM BKN012 OVC017 07/05 A3009 RMK AO2,M
05U,2023-10-02 20:10,-116.0051,39.6042,1811.23,44.60,41.00,87.09,110.00,4.00,0.00,30.10,M,2.50,M,FEW,SCT,BKN,M,1700.00,3200.00,4300.00,M,HZ,M,M,M,M,M,M,42.13,K05U 022010Z AUTO 11004KT 2 1/2SM HZ FEW017 SCT032 BKN043 07/05 A3010 RMK A01,M
BVU,2023-10-02 20:15,-114.8611,35.9475,671.00,73.40,35.60,25.13,180.00,4.00,0.00,29.95,M,10.00,M,CLR,M,M,M,M,M,M,M,M,M,M,M,M,M,M,73.40,KBVU 022015Z AUTO 18004KT 10SM CLR 23/02 A2995 RMK AO2,M
CXP,2023-10-02 20:15,-119.7326,39.1923,1431.00,59.00,35.60,41.42,330.00,8.00,0.00,30.11,M,10.00,M,FEW,M,M,M,5000.00,M,M,M,M,M,M,M,M,M,M,59.00,KCXP 022015Z AUTO 33008KT 10SM FEW050 15/02 A3011 RMK AO2,M
RTS,2023-10-02 20:15,-119.8764,39.6682,1539.00,57.20,32.00,38.26,350.00,6.00,0.00,30.12,M,10.00,M,CLR,M,M,M,M,M,M,M,M,M,M,M,M,M,M,57.20,KRTS 022015Z AUTO 35006KT 10SM CLR 14/00 A3012 RMK AO2,M
MEV,2023-10-02 20:15,-119.7500,38.9963,1441.42,57.20,35.60,44.19,M,4.00,0.00,30.10,M,10.00,M,BKN,OVC,M,M,5000.00,5500.00,M,M,M,M,M,M,M,M,M,57.20,KMEV 022015Z AUTO VRB04KT 10SM BKN050 OVC055 14/02 A3010 RMK AO2,M
BAM,2023-10-02 20:15,-116.8743,40.5990,1382.36,50.00,42.80,76.18,210.00,3.00,0.00,30.11,M,10.00,M,BKN,OVC,M,M,3000.00,3900.00,M,M,M,M,M,M,M,M,M,50.00,KBAM 022015Z AUTO 21003KT 10SM BKN030 OVC039 10/06 A3011 RMK AO1,M
HTH,2023-10-02 20:15,-118.6315,38.5448,1282.89,55.40,41.00,58.27,350.00,10.00,0.00,30.11,M,10.00,M,OVC,M,M,M,5500.00,M,M,M,M,M,M,M,M,M,M,55.40,KHTH 022015Z AUTO 35010KT 10SM OVC055 13/05 A3011 RMK A01,M
TMT,2023-10-02 20:15,-117.1971,39.4643,1749.34,45.50,41.40,85.47,10.00,3.00,0.00,30.12,M,10.00,M,SCT,SCT,OVC,M,1300.00,2300.00,2900.00,M,M,M,M,M,M,M,M,44.12,KTMT 022015Z AUTO 01003KT 10SM SCT013 SCT023 OVC029 08/05 A3012 RMK AO2 T00750052,M
10U,2023-10-02 20:20,-116.1876,41.9532,1637.00,44.60,41.00,87.09,270.00,7.00,0.00,30.09,M,10.00,M,OVC,M,M,M,1400.00,M,M,M,M,M,M,M,M,M,M,40.14,K10U 022020Z AUTO 27007KT 10SM OVC014 07/05 A3009 RMK AO2,M
05U,2023-10-02 20:30,-116.0051,39.6042,1811.23,46.40,41.00,81.34,170.00,5.00,0.00,30.09,M,4.00,M,FEW,FEW,SCT,M,2900.00,3400.00,4100.00,M,HZ,M,M,M,M,M,M,43.50,K05U 022030Z AUTO 17005KT 4SM HZ FEW029 FEW034 SCT041 08/05 A3009 RMK A01,M
BVU,2023-10-02 20:35,-114.8611,35.9475,671.00,71.60,35.60,26.71,170.00,5.00,0.00,29.94,M,10.00,M,CLR,M,M,M,M,M,M,M,M,M,M,M,M,M,M,71.60,KBVU 022035Z AUTO 17005KT 10SM CLR 22/02 A2994 RMK AO2,M
CXP,2023-10-02 20:35,-119.7326,39.1923,1431.00,59.00,35.60,41.42,280.00,6.00,0.00,30.11,M,10.00,M,CLR,M,M,M,M,M,M,M,M,M,M,M,M,M,M,59.00,KCXP 022035Z AUTO 28006KT 10SM CLR 15/02 A3011 RMK AO2,M
RTS,2023-10-02 20:35,-119.8764,39.6682,1539.00,57.20,32.00,38.26,M,5.00,0.00,30.13,M,10.00,M,CLR,M,M,M,M,M,M,M,M,M,M,M,M,M,M,57.20,KRTS 022035Z AUTO VRB05KT 10SM CLR 14/00 A3013 RMK AO2,M
MEV,2023-10-02 20:35,-119.7500,38.9963,1441.42,57.20,35.60,44.19,M,4.00,0.00,30.10,M,10.00,M,OVC,M,M,M,5000.00,M,M,M,M,M,M,M,M,M,M,57.20,KMEV 022035Z AUTO VRB04KT 10SM OVC050 14/02 A3010 RMK AO2,M
BAM,2023-10-02 20:35,-116.8743,40.5990,1382.36,51.80,42.80,71.26,0.00,0.00,0.00,30.11,M,10.00,M,SCT,SCT,OVC,M,3000.00,3600.00,4600.00,M,M,M,M,M,M,M,M,51.80,KBAM 022035Z AUTO 00000KT 10SM SCT030 SCT036 OVC046 11/06 A3011 RMK AO1,M
HTH,2023-10-02 20:35,-118.6315,38.5448,1282.89,55.40,41.00,58.27,360.00,10.00,0.00,30.11,M,10.00,M,OVC,M,M,M,5500.00,M,M,M,M,M,M,M,M,M,M,55.40,KHTH 022035Z AUTO 36010KT 10SM OVC055 13/05 A3011 RMK A01,M
TMT,2023-10-02 20:35,-117.1971,39.4643,1749.34,45.00,41.40,87.11,0.00,0.00,0.00,30.12,M,10.00,M,SCT,BKN,OVC,M,1300.00,2900.00,3700.00,M,DZ,M,M,M,M,M,M,45.00,KTMT 022035Z AUTO 00000KT 10SM DZ SCT013 BKN029 OVC037 07/05 A3012 RMK AO2 T00720052,M
10U,2023-10-02 20:40,-116.1876,41.9532,1637.00,44.60,41.00,87.09,270.00,7.00,0.00,30.10,M,10.00,M,BKN,OVC,M,M,1600.00,2200.00,M,M,M,M,M,M,M,M,M,40.14,K10U 022040Z AUTO 27007KT 10SM BKN016 OVC022 07/05 A3010 RMK AO2,M
ELY,2023-10-02 20:50,-114.8453,39.2950,1909.00,48.20,37.40,66.05,M,5.00,0.01,30.06,M,10.00,M,BKN,OVC,M,M,2800.00,5500.00,M,M,M,M,M,M,M,M,M,45.63,KELY 022050Z AUTO VRB05KT 10SM BKN028 OVC055 09/03 A3006 RMK AO2 RAB1957E12B30E41 P0001,M
05U,2023-10-02 20:50,-116.0051,39.6042,1811.23,48.20,41.00,76.01,190.00,5.00,0.00,30.10,M,10.00,M,FEW,FEW,SCT,M,2900.00,4200.00,9000.00,M,M,M,M,M,M,M,M,45.63,K05U 022050Z AUTO 19005KT 10SM FEW029 FEW042 SCT090 09/05 A3010 RMK A01,M
P68,2023-10-02 20:53,-116.0056,39.6014,1993.00,48.00,42.00,79.60,50.00,6.00,0.03,30.07,1015.00,M,M,M,M,M,M,M,M,M,M,M,M,M,M,M,M,M,44.80,KP68 022053Z AUTO 05006KT 09/06 A3007 RMK AO1 SLP150 P0003 60003 T00890056 53001,M
DRA,2023-10-02 20:53,-116.0278,36.6206,1009.00,70.00,36.00,28.65,250.00,8.00,0.00,29.98,1012.40,10.00,M,CLR,M,M,M,M,M,M,M,M,M,M,M,M,M,M,70.00,KDRA 022053Z AUTO 25008KT 10SM CLR 21/02 A2998 RMK AO2 SLP124 T02110022 56012,M
ELY,2023-10-02 20:53,-114.8453,39.2950,1909.00,49.00,37.00,63.10,M,3.00,0.01,30.06,1015.40,10.00,M,BKN,BKN,OVC,M,2800.00,3700.00,5500.00,M,M,M,M,M,M,M,M,48.12,KELY 022053Z AUTO VRB03KT 10SM BKN028 BKN037 OVC055 09/03 A3006 RMK AO2 RAB1957E12B30E41 SLP154 P0001 60001 T00940028 51002,M
VGT,2023-10-02 20:53,-115.1933,36.2111,667.00,74.00,37.00,26.03,M,M,0.00,29.94,1014.00,10.00,M,CLR,M,M,M,M,M,M,M,M,M,M,M,M,M,M,74.00,KVGT 022053Z 10SM CLR 23/03 A2994 RMK AO2 SLP140 T02330028 57013,M
LOL,2023-10-02 20:53,-118.5701,40.0684,1192.43,56.00,41.00,57.02,120.00,3.00,0.00,30.10,1018.40,10.00,M,BKN,BKN,M,M,4900.00,7000.00,M,M,M,M,M,M,M,M,M,56.00,KLOL 022053Z AUTO 12003KT 10SM BKN049 BKN070 13/05 A3010 RMK AO2 SLP184 T01330050 50002,M
BVU,2023-10-02 20:55,-114.8611,35.9475,671.00,73.40,35.60,25.13,120.00,6.00,0.00,29.94,M,10.00,M,CLR,M,M,M,M,M,M,M,M,M,M,M,M,M,M,73.40,KBVU 022055Z AUTO 12006KT 10SM CLR 23/02 A2994 RMK AO2,M
CXP,2023-10-02 20:55,-119.7326,39.1923,1431.00,60.80,35.60,38.85,300.00,6.00,0.00,30.11,M,10.00,M,CLR,M,M,M,M,M,M,M,M,M,M,M,M,M,M,60.80,KCXP 022055Z AUTO 30006KT 10SM CLR 16/02 A3011 RMK AO2,M
INS,2023-10-02 20:55,-115.6733,36.5872,955.00,70.50,33.00,24.99,250.00,9.00,0.00,29.97,1011.80,10.00,M,BKN,M,M,M,7000.00,M,M,M,M,M,M,M,M,M,M,70.50,KINS 022055Z AUTO 25009KT 10SM BKN070 21/01 A2997 RMK AO2 SLP118 T02140005 57013 $,M
RNO,2023-10-02 20:55,-119.7711,39.4839,1341.00,61.00,35.00,37.66,30.00,6.00,0.00,30.10,1016.50,10.00,M,SCT,BKN,M,M,6500.00,23000.00,M,M,M,M,M,M,M,M,M,61.00,KRNO 022055Z 03006KT 10SM SCT065 BKN230 16/02 A3010 RMK AO2 SLP165 T01610017 55001,M
LSV,2023-10-02 20:55,-115.0343,36.2362,570.00,79.70,36.30,20.96,240.00,3.00,0.00,29.91,1011.30,10.00,M,CLR,M,M,M,M,M,M,M,M,M,M,M,M,M,M,79.70,KLSV 022055Z AUTO 24003KT 10SM CLR 27/02 A2991 RMK AO2 SLP113 T02650024 57014 $,M
RTS,2023-10-02 20:55,-119.8764,39.6682,1539.00,59.00,32.00,35.87,340.00,6.00,0.00,30.13,M,10.00,11.00,CLR,M,M,M,M,M,M,M,M,M,M,M,M,M,M,59.00,KRTS 022055Z AUTO 34006G11KT 10SM CLR 15/00 A3013 RMK AO2,M
MEV,2023-10-02 20:55,-119.7500,38.9963,1441.42,59.00,35.60,41.42,50.00,6.00,0.00,30.10,M,10.00,M,OVC,M,M,M,5500.00,M,M,M,M,M,M,M,M,M,M,59.00,KMEV 022055Z AUTO 05006KT 10SM OVC055 15/02 A3010 RMK AO2,M
BAM,2023-10-02 20:55,-116.8743,40.5990,1382.36,51.80,42.80,71.26,0.00,0.00,0.00,30.11,M,10.00,M,SCT,BKN,OVC,M,2600.00,3400.00,4600.00,M,M,M,M,M,M,M,M,51.80,KBAM 022055Z AUTO 00000KT 10SM SCT026 BKN034 OVC046 11/06 A3011 RMK AO1,M
HTH,2023-10-02 20:55,-118.6315,38.5448,1282.89,55.40,41.00,58.27,330.00,9.00,0.00,30.11,M,10.00,M,OVC,M,M,M,5500.00,M,M,M,M,M,M,M,M,M,M,55.40,KHTH 022055Z AUTO 33009KT 10SM OVC055 13/05 A3011 RMK A01,M
TMT,2023-10-02 20:55,-117.1971,39.4643,1749.34,45.00,41.40,87.11,330.00,9.00,0.01,30.13,M,7.00,M,SCT,BKN,OVC,M,1500.00,2100.00,3800.00,M,-RA,M,M,M,M,M,M,39.68,KTMT 022055Z AUTO 33009KT 7SM -RA SCT015 BKN021 OVC038 07/05 A3013 RMK AO2 P0001 60004 T00720052,M
EKO,2023-10-02 20:56,-115.7860,40.8242,1367.00,56.00,36.00,46.88,260.00,16.00,0.00,30.04,1015.50,10.00,23.00,SCT,SCT,OVC,M,3900.00,4600.00,7500.00,M,M,M,M,M,M,M,M,56.00,KEKO 022056Z AUTO 26016G23KT 10SM SCT039 SCT046 OVC075 13/02 A3004 RMK AO2 SLP155 T01330022 55000,M
WMC,2023-10-02 20:56,-117.8072,40.9019,1315.00,54.00,39.00,56.74,M,3.00,0.00,30.10,1018.10,10.00,M,SCT,OVC,M,M,5000.00,6000.00,M,M,M,M,M,M,M,M,M,54.00,KWMC 022056Z AUTO VRB03KT 10SM SCT050 OVC060 12/04 A3010 RMK AO2 SLP181 60000 T01220039 50000,M
HND,2023-10-02 20:56,-115.1344,35.9729,742.79,73.00,34.00,23.90,M,5.00,0.00,29.98,1015.30,10.00,M,CLR,M,M,M,M,M,M,M,M,M,M,M,M,M,M,73.00,KHND 022056Z VRB05KT 10SM CLR 23/01 A2998 RMK AO2 SLP153 T02280011 58013,M
TPH,2023-10-02 20:56,-117.0904,38.0505,1654.00,54.00,38.00,54.56,300.00,16.00,0.00,30.07,1015.70,10.00,M,OVC,M,M,M,5500.00,M,M,M,M,M,M,M,M,M,M,54.00,KTPH 022056Z AUTO 30016KT 10SM OVC055 12/03 A3007 RMK AO2 SLP157 T01220033 58001,M
LAS,2023-10-02 20:56,-115.1634,36.0719,663.00,72.00,36.00,26.77,0.00,0.00,0.00,29.95,1012.60,10.00,M,FEW,FEW,M,M,10000.00,20000.00,M,M,M,M,M,M,M,M,M,72.00,KLAS 022056Z 00000KT 10SM FEW100 FEW200 22/02 A2995 RMK AO2 SLP126 T02220022 58012,M
10U,2023-10-02 21:00,-116.1876,41.9532,1637.00,46.40,41.00,81.34,230.00,6.00,0.00,30.10,M,10.00,M,SCT,BKN,OVC,M,1600.00,2100.00,3000.00,M,M,M,M,M,M,M,M,42.87,K10U 022100Z AUTO 23006KT 10SM SCT016 BKN021 OVC030 08/05 A3010 RMK AO2,M
ELY,2023-10-02 21:02,-114.8453,39.2950,1909.00,48.00,37.00,65.51,210.00,5.00,T,30.06,M,10.00,M,SCT,BKN,OVC,M,2800.00,4400.00,5500.00,M,-RA,M,M,M,M,M,M,45.40,KELY 022102Z AUTO 21005KT 10SM -RA SCT028 BKN044 OVC055 09/03 A3006 RMK AO2 RAB2056 P0000 T00890028,M
05U,2023-10-02 21:10,-116.0051,39.6042,1811.23,48.20,39.20,70.88,0.00,0.00,0.00,30.10,M,10.00,M,FEW,SCT,BKN,M,2500.00,3000.00,4100.00,M,M,M,M,M,M,M,M,48.20,K05U 022110Z AUTO 00000KT 10SM FEW025 SCT030 BKN041 09/04 A3010 RMK A01,M
BVU,2023-10-02 21:15,-114.8611,35.9475,671.00,73.40,33.80,23.39,70.00,4.00,0.00,29.94,M,10.00,M,CLR,M,M,M,M,M,M,M,M,M,M,M,M,M,M,73.40,KBVU 022115Z AUTO 07004KT 10SM CLR 23/01 A2994 RMK AO2,M
CXP,2023-10-02 21:15,-119.7326,39.1923,1431.00,60.80,35.60,38.85,300.00,9.00,0.00,30.11,M,10.00,M,CLR,M,M,M,M,M,M,M,M,M,M,M,M,M,M,60.80,KCXP 022115Z AUTO 30009KT 10SM CLR 16/02 A3011 RMK AO2,M
RTS,2023-10-02 21:15,-119.8764,39.6682,1539.00,59.00,32.00,35.87,0.00,0.00,0.00,30.12,M,10.00,M,CLR,M,M,M,M,M,M,M,M,M,M,M,M,M,M,59.00,KRTS 022115Z AUTO 00000KT 10SM CLR 15/00 A3012 RMK AO2,M
MEV,2023-10-02 21:15,-119.7500,38.9963,1441.42,60.80,35.60,38.85,340.00,7.00,0.00,30.10,M,10.00,M,SCT,M,M,M,5500.00,M,M,M,M,M,M,M,M,M,M,60.80,KMEV 022115Z AUTO 34007KT 10SM SCT055 16/02 A3010 RMK AO2,M
BAM,2023-10-02 21:15,-116.8743,40.5990,1382.36,51.80,42.80,71.26,240.00,3.00,0.00,30.11,M,10.00,M,BKN,OVC,M,M,3100.00,3500.00,M,M,M,M,M,M,M,M,M,51.80,KBAM 022115Z AUTO 24003KT 10SM BKN031 OVC035 11/06 A3011 RMK AO1,M
HTH,2023-10-02 21:15,-118.6315,38.5448,1282.89,57.20,41.00,54.60,350.00,9.00,0.00,30.11,M,10.00,14.00,OVC,M,M,M,6000.00,M,M,M,M,M,M,M,M,M,M,57.20,KHTH 022115Z AUTO 35009G14KT 10SM OVC060 14/05 A3011 RMK A01,M
TMT,2023-10-02 21:15,-117.1971,39.4643,1749.34,45.50,41.50,85.80,330.00,10.00,0.01,30.13,M,10.00,M,SCT,BKN,OVC,M,1500.00,3700.00,4400.00,M,-RA,M,M,M,M,M,M,39.90,KTMT 022115Z AUTO 33010KT 10SM -RA SCT015 BKN037 OVC044 08/05 A3013 RMK AO2 P0001 T00750053,M
10U,2023-10-02 21:20,-116.1876,41.9532,1637.00,46.40,41.00,81.34,M,5.00,0.00,30.10,M,10.00,M,SCT,OVC,M,M,2400.00,3300.00,M,M,M,M,M,M,M,M,M,43.50,K10U 022120Z AUTO VRB05KT 10SM SCT024 OVC033 08/05 A3010 RMK AO2,M
05U,2023-10-02 21:30,-116.0051,39.6042,1811.23,46.40,41.00,81.34,240.00,5.00,0.00,30.11,M,9.00,M,BKN,OVC,M,M,3000.00,3900.00,M,M,M,M,M,M,M,M,M,43.50,K05U 022130Z AUTO 24005KT 9SM BKN030 OVC039 08/05 A3011 RMK A01,M
BVU,2023-10-02 21:35,-114.8611,35.9475,671.00,73.40,33.80,23.39,0.00,0.00,0.00,29.93,M,10.00,M,CLR,M,M,M,M,M,M,M,M,M,M,M,M,M,M,73.40,KBVU 022135Z AUTO 00000KT 10SM CLR 23/01 A2993 RMK AO2,M
CXP,2023-10-02 21:35,-119.7326,39.1923,1431.00,60.80,35.60,38.85,300.00,7.00,0.00,30.11,M,10.00,M,FEW,M,M,M,6500.00,M,M,M,M,M,M,M,M,M,M,60.80,KCXP 022135Z AUTO 30007KT 10SM FEW065 16/02 A3011 RMK AO2,M
RTS,2023-10-02 21:35,-119.8764,39.6682,1539.00,59.00,32.00,35.87,M,5.00,0.00,30.12,M,10.00,12.00,CLR,M,M,M,M,M,M,M,M,M,M,M,M,M,M,59.00,KRTS 022135Z AUTO VRB05G12KT 10SM CLR 15/00 A3012 RMK AO2,M
MEV,2023-10-02 21:35,-119.7500,38.9963,1441.42,59.00,35.60,41.42,330.00,5.00,0.00,30.09,M,10.00,10.00,BKN,M,M,M,5500.00,M,M,M,M,M,M,M,M,M,M,59.00,KMEV 022135Z AUTO 33005G10KT 10SM BKN055 15/02 A3009 RMK AO2,M
BAM,2023-10-02 21:35,-116.8743,40.5990,1382.36,51.80,42.80,71.26,270.00,5.00,0.00,30.12,M,10.00,M,SCT,BKN,OVC,M,2400.00,2900.00,4800.00,M,M,M,M,M,M,M,M,51.80,KBAM 022135Z AUTO 27005KT 10SM SCT024 BKN029 OVC048 11/06 A3012 RMK AO1,M
HTH,2023-10-02 21:35,-118.6315,38.5448,1282.89,59.00,41.00,51.18,330.00,9.00,0.00,30.12,M,10.00,M,OVC,M,M,M,6000.00,M,M,M,M,M,M,M,M,M,M,59.00,KHTH 022135Z AUTO 33009KT 10SM OVC060 15/05 A3012 RMK A01,M
TMT,2023-10-02 21:35,-117.1971,39.4643,1749.34,45.00,41.50,87.45,330.00,5.00,0.01,30.14,M,10.00,M,SCT,SCT,OVC,M,2500.00,3300.00,4000.00,M,-RA,M,M,M,M,M,M,41.83,KTMT 022135Z AUTO 33005KT 10SM -RA SCT025 SCT033 OVC040 07/05 A3014 RMK AO2 P0001 T00720053,M
10U,2023-10-02 21:40,-116.1876,41.9532,1637.00,46.40,41.00,81.34,210.00,6.00,0.00,30.10,M,10.00,M,SCT,BKN,OVC,M,1900.00,2400.00,3700.00,M,M,M,M,M,M,M,M,42.87,K10U 022140Z AUTO 21006KT 10SM SCT019 BKN024 OVC037 08/05 A3010 RMK AO2,M
05U,2023-10-02 21:50,-116.0051,39.6042,1811.23,46.40,41.00,81.34,270.00,5.00,0.00,30.11,M,9.00,M,BKN,BKN,OVC,M,3100.00,4600.00,6000.00,M,M,M,M,M,M,M,M,43.50,K05U 022150Z AUTO 27005KT 9SM BKN031 BKN046 OVC060 08/05 A3011 RMK A01,M
P68,2023-10-02 21:53,-116.0056,39.6014,1993.00,47.00,41.00,79.52,100.00,5.00,0.00,30.09,1015.70,M,M,M,M,M,M,M,M,M,M,M,M,M,M,M,M,M,44.21,KP68 022153Z AUTO 10005KT 08/05 A3009 RMK AO1 SLP157 T00830050,M
DRA,2023-10-02 21:53,-116.0278,36.6206,1009.00,70.00,37.00,29.81,M,4.00,0.00,29.97,1012.30,10.00,M,FEW,M,M,M,7000.00,M,M,M,M,M,M,M,M,M,M,70.00,KDRA 022153Z AUTO VRB04KT 10SM FEW070 21/03 A2997 RMK AO2 SLP123 T02110028,M
ELY,2023-10-02 21:53,-114.8453,39.2950,1909.00,46.00,38.00,73.47,200.00,6.00,T,30.06,1016.30,10.00,M,FEW,SCT,BKN,M,5500.00,7000.00,9000.00,M,M,M,M,M,M,M,M,42.39,KELY 022153Z AUTO 20006KT 10SM FEW055 SCT070 BKN090 08/03 A3006 RMK AO2 RAB2056E07B29E40 SLP163 P0000 T00780033,M
VGT,2023-10-02 21:53,-115.1933,36.2111,667.00,74.00,37.00,26.03,M,3.00,0.00,29.94,1014.00,10.00,M,BKN,M,M,M,10000.00,M,M,M,M,M,M,M,M,M,M,74.00,KVGT 022153Z VRB03KT 10SM BKN100 23/03 A2994 RMK AO2 SLP140 T02330028,M
LOL,2023-10-02 21:53,-118.5701,40.0684,1192.43,59.00,42.00,53.20,M,4.00,0.00,30.09,1017.90,10.00,M,OVC,M,M,M,6000.00,M,M,M,M,M,M,M,M,M,M,59.00,KLOL 022153Z AUTO VRB04KT 10SM OVC060 15/06 A3009 RMK AO2 SLP179 T01500056,M
BVU,2023-10-02 21:55,-114.8611,35.9475,671.00,75.20,33.80,22.02,M,3.00,0.00,29.93,M,10.00,M,FEW,M,M,M,8500.00,M,M,M,M,M,M,M,M,M,M,75.20,KBVU 022155Z AUTO VRB03KT 10SM FEW085 24/01 A2993 RMK AO2,M
CXP,2023-10-02 21:55,-119.7326,39.1923,1431.00,60.80,35.60,38.85,300.00,8.00,0.00,30.10,M,10.00,M,CLR,M,M,M,M,M,M,M,M,M,M,M,M,M,M,60.80,KCXP 022155Z AUTO 30008KT 10SM CLR 16/02 A3010 RMK AO2,M
INS,2023-10-02 21:55,-115.6733,36.5872,955.00,70.30,32.00,24.17,250.00,8.00,0.00,29.96,1011.50,10.00,M,CLR,M,M,M,M,M,M,M,M,M,M,M,M,M,M,70.30,KINS 022155Z AUTO 25008KT 10SM CLR 21/M00 A2996 RMK AO2 SLP115 T02131001 $,M
RNO,2023-10-02 21:55,-119.7711,39.4839,1341.00,64.00,35.00,33.89,M,4.00,0.00,30.09,1015.60,10.00,M,SCT,SCT,M,M,6500.00,23000.00,M,M,M,M,M,M,M,M,M,64.00,KRNO 022155Z VRB04KT 10SM SCT065 SCT230 18/02 A3009 RMK AO2 SLP156 T01780017,M
RTS,2023-10-02 21:55,-119.8764,39.6682,1539.00,59.00,32.00,35.87,190.00,5.00,0.00,30.11,M,10.00,M,FEW,M,M,M,5000.00,M,M,M,M,M,M,M,M,M,M,59.00,KRTS 022155Z AUTO 19005KT 10SM FEW050 15/00 A3011 RMK AO2,M
MEV,2023-10-02 21:55,-119.7500,38.9963,1441.42,60.80,35.60,38.85,360.00,6.00,0.00,30.09,M,10.00,M,BKN,M,M,M,6000.00,M,M,M,M,M,M,M,M,M,M,60.80,KMEV 022155Z AUTO 36006KT 10SM BKN060 16/02 A3009 RMK AO2,M
BAM,2023-10-02 21:55,-116.8743,40.5990,1382.36,51.80,44.60,76.34,260.00,5.00,0.00,30.12,M,10.00,M,SCT,BKN,OVC,M,2500.00,4200.00,5000.00,M,M,M,M,M,M,M,M,51.80,KBAM 022155Z AUTO 26005KT 10SM SCT025 BKN042 OVC050 11/07 A3012 RMK AO1,M
HTH,2023-10-02 21:55,-118.6315,38.5448,1282.89,57.20,41.00,54.60,330.00,9.00,0.00,30.12,M,10.00,M,OVC,M,M,M,6000.00,M,M,M,M,M,M,M,M,M,M,57.20,KHTH 022155Z AUTO 33009KT 10SM OVC060 14/05 A3012 RMK A01,M
TMT,2023-10-02 21:55,-117.1971,39.4643,1749.34,45.30,41.50,86.46,330.00,8.00,0.02,30.14,M,7.00,M,SCT,BKN,OVC,M,2300.00,3500.00,4600.00,M,DZ,M,M,M,M,M,M,40.50,KTMT 022155Z AUTO 33008KT 7SM DZ SCT023 BKN035 OVC046 07/05 A3014 RMK AO2 P0002 T00740053,M
LSV,2023-10-02 21:55,-115.0343,36.2362,570.00,80.40,35.60,19.92,40.00,3.00,0.00,29.91,1011.30,10.00,M,CLR,M,M,M,M,M,M,M,M,M,M,M,M,M,M,78.83,KLSV 022155Z AUTO 04003KT 10SM CLR 27/02 A2991 RMK AO2 SLP113 T02690020 $,M
EKO,2023-10-02 21:56,-115.7860,40.8242,1367.00,58.00,37.00,45.38,260.00,14.00,0.00,30.06,1015.60,10.00,22.00,BKN,BKN,OVC,M,4000.00,4700.00,7000.00,M,M,M,M,M,M,M,M,58.00,KEKO 022156Z AUTO 26014G22KT 10SM BKN040 BKN047 OVC070 14/03 A3006 RMK AO2 SLP156 T01440028,M
WMC,2023-10-02 21:56,-117.8072,40.9019,1315.00,54.00,40.00,58.99,240.00,5.00,0.00,30.10,1018.00,10.00,M,FEW,OVC,M,M,3300.00,5500.00,M,M,M,M,M,M,M,M,M,54.00,KWMC 022156Z AUTO 24005KT 10SM FEW033 OVC055 12/04 A3010 RMK AO2 SLP180 T01220044,M
NFL,2023-10-02 21:56,-118.7010,39.4166,1199.00,60.00,41.00,49.39,310.00,4.00,0.00,30.10,1015.90,10.00,M,FEW,BKN,BKN,BKN,3000.00,5000.00,10000.00,25000.00,M,M,M,M,M,M,M,60.00,KNFL 022156Z 31004KT 10SM FEW030 BKN050 BKN100 BKN250 16/05 A3010 RMK AO2 SLP159 T01560050,M
HND,2023-10-02 21:56,-115.1344,35.9729,742.79,74.00,35.00,24.05,330.00,4.00,0.00,29.97,1015.10,10.00,M,SCT,M,M,M,9000.00,M,M,M,M,M,M,M,M,M,M,74.00,KHND 022156Z 33004KT 10SM SCT090 23/02 A2997 RMK AO2 SLP151 T02330017,M
TPH,2023-10-02 21:56,-117.0904,38.0505,1654.00,56.00,39.00,52.75,310.00,15.00,0.00,30.08,1015.80,10.00,23.00,FEW,M,M,M,5500.00,M,M,M,M,M,M,M,27.00,320.00,2023-10-02 21:29,56.00,KTPH 022156Z AUTO 31015G23KT 10SM FEW055 13/04 A3008 RMK AO2 PK WND 32027/2129 SLP158 T01330039,M
LAS,2023-10-02 21:56,-115.1634,36.0719,663.00,74.00,36.00,25.02,0.00,0.00,0.00,29.94,1012.40,10.00,M,FEW,SCT,SCT,M,10000.00,15000.00,20000.00,M,M,M,M,M,M,M,M,74.00,KLAS 022156Z 00000KT 10SM FEW100 SCT150 SCT200 23/02 A2994 RMK AO2 SLP124 T02330022 $,M
10U,2023-10-02 22:00,-116.1876,41.9532,1637.00,46.40,41.00,81.34,M,6.00,0.00,30.10,M,10.00,M,SCT,OVC,M,M,1800.00,2800.00,M,M,M,M,M,M,M,M,M,42.87,K10U 022200Z AUTO VRB06KT 10SM SCT018 OVC028 08/05 A3010 RMK AO2,M
05U,2023-10-02 22:10,-116.0051,39.6042,1811.23,46.40,41.00,81.34,280.00,6.00,0.00,30.12,M,3.00,M,SCT,BKN,OVC,M,2200.00,2900.00,6000.00,M,HZ,M,M,M,M,M,M,42.87,K05U 022210Z AUTO 28006KT 3SM HZ SCT022 BKN029 OVC060 08/05 A3012 RMK A01,M
BVU,2023-10-02 22:15,-114.8611,35.9475,671.00,73.40,33.80,23.39,60.00,7.00,0.00,29.93,M,10.00,M,BKN,M,M,M,8500.00,M,M,M,M,M,M,M,M,M,M,73.40,KBVU 022215Z AUTO 06007KT 10SM BKN085 23/01 A2993 RMK AO2,M
CXP,2023-10-02 22:15,-119.7326,39.1923,1431.00,62.60,33.80,33.93,300.00,7.00,0.00,30.10,M,10.00,13.00,CLR,M,M,M,M,M,M,M,M,M,M,M,M,M,M,62.60,KCXP 022215Z AUTO 30007G13KT 10SM CLR 17/01 A3010 RMK AO2,M
RTS,2023-10-02 22:15,-119.8764,39.6682,1539.00,60.80,32.00,33.64,0.00,0.00,0.00,30.11,M,10.00,M,FEW,M,M,M,5500.00,M,M,M,M,M,M,M,M,M,M,60.80,KRTS 022215Z AUTO 00000KT 10SM FEW055 16/00 A3011 RMK AO2,M
MEV,2023-10-02 22:15,-119.7500,38.9963,1441.42,60.80,35.60,38.85,M,6.00,0.00,30.09,M,10.00,M,BKN,M,M,M,6000.00,M,M,M,M,M,M,M,M,M,M,60.80,KMEV 022215Z AUTO VRB06KT 10SM BKN060 16/02 A3009 RMK AO2,M
BAM,2023-10-02 22:15,-116.8743,40.5990,1382.36,51.80,42.80,71.26,320.00,3.00,0.00,30.12,M,10.00,M,SCT,BKN,OVC,M,2100.00,4100.00,7000.00,M,M,M,M,M,M,M,M,51.80,KBAM 022215Z AUTO 32003KT 10SM SCT021 BKN041 OVC070 11/06 A3012 RMK AO1,M
HTH,2023-10-02 22:15,-118.6315,38.5448,1282.89,57.20,41.00,54.60,310.00,9.00,0.00,30.12,M,10.00,M,OVC,M,M,M,6000.00,M,M,M,M,M,M,M,M,M,M,57.20,KHTH 022215Z AUTO 31009KT 10SM OVC060 14/05 A3012 RMK A01,M
TMT,2023-10-02 22:15,-117.1971,39.4643,1749.34,46.00,41.00,82.58,320.00,6.00,0.00,30.14,M,10.00,M,SCT,SCT,OVC,M,2600.00,3500.00,5000.00,M,M,M,M,M,M,M,M,42.39,KTMT 022215Z AUTO 32006KT 10SM SCT026 SCT035 OVC050 08/05 A3014 RMK AO2 T00770049,M
10U,2023-10-02 22:20,-116.1876,41.9532,1637.00,48.20,41.00,76.01,230.00,4.00,0.00,30.10,M,10.00,M,FEW,BKN,OVC,M,1900.00,2900.00,3600.00,M,M,M,M,M,M,M,M,46.34,K10U 022220Z AUTO 23004KT 10SM FEW019 BKN029 OVC036 09/05 A3010 RMK AO2,M
05U,2023-10-02 22:30,-116.0051,39.6042,1811.23,46.40,41.00,81.34,0.00,0.00,0.00,30.12,M,9.00,M,SCT,SCT,BKN,M,2100.00,3000.00,3600.00,M,M,M,M,M,M,M,M,46.40,K05U 022230Z AUTO 00000KT 9SM SCT021 SCT030 BKN036 08/05 A3012 RMK A01,M
BVU,2023-10-02 22:35,-114.8611,35.9475,671.00,75.20,33.80,22.02,70.00,5.00,0.00,29.93,M,10.00,M,BKN,M,M,M,8500.00,M,M,M,M,M,M,M,M,M,M,75.20,KBVU 022235Z AUTO 07005KT 10SM BKN085 24/01 A2993 RMK AO2,M
CXP,2023-10-02 22:35,-119.7326,39.1923,1431.00,62.60,33.80,33.93,310.00,8.00,0.00,30.10,M,10.00,M,SCT,M,M,M,6000.00,M,M,M,M,M,M,M,M,M,M,62.60,KCXP 022235Z AUTO 31008KT 10SM SCT060 17/01 A3010 RMK AO2,M
RTS,2023-10-02 22:35,-119.8764,39.6682,1539.00,60.80,32.00,33.64,330.00,8.00,0.00,30.12,M,10.00,M,CLR,M,M,M,M,M,M,M,M,M,M,M,M,M,M,60.80,KRTS 022235Z AUTO 33008KT 10SM CLR 16/00 A3012 RMK AO2,M
MEV,2023-10-02 22:35,-119.7500,38.9963,1441.42,60.80,35.60,38.85,60.00,4.00,0.00,30.09,M,10.00,M,BKN,M,M,M,6000.00,M,M,M,M,M,M,M,M,M,M,60.80,KMEV 022235Z AUTO 06004KT 10SM BKN060 16/02 A3009 RMK AO2,M
BAM,2023-10-02 22:35,-116.8743,40.5990,1382.36,53.60,42.80,66.70,230.00,4.00,0.00,30.11,M,10.00,M,SCT,SCT,OVC,M,2300.00,2800.00,7000.00,M,M,M,M,M,M,M,M,53.60,KBAM 022235Z AUTO 23004KT 10SM SCT023 SCT028 OVC070 12/06 A3011 RMK AO1,M
HTH,2023-10-02 22:35,-118.6315,38.5448,1282.89,57.20,41.00,54.60,300.00,9.00,0.00,30.11,M,10.00,M,OVC,M,M,M,6000.00,M,M,M,M,M,M,M,M,M,M,57.20,KHTH 022235Z AUTO 30009KT 10SM OVC060 14/05 A3011 RMK A01,M
TMT,2023-10-02 22:35,-117.1971,39.4643,1749.34,47.00,41.00,79.52,320.00,5.00,0.00,30.14,M,10.00,M,OVC,M,M,M,5000.00,M,M,M,M,M,M,M,M,M,M,44.21,KTMT 022235Z AUTO 32005KT 10SM OVC050 08/05 A3014 RMK AO2 LTG DSNT SE T00840050,M
10U,2023-10-02 22:40,-116.1876,41.9532,1637.00,48.20,41.00,76.01,210.00,5.00,0.00,30.10,M,10.00,M,FEW,OVC,M,M,3100.00,3800.00,M,M,M,M,M,M,M,M,M,45.63,K10U 022240Z AUTO 21005KT 10SM FEW031 OVC038 09/05 A3010 RMK AO2,M
05U,2023-10-02 22:50,-116.0051,39.6042,1811.23,46.40,41.00,81.34,190.00,6.00,0.00,30.13,M,10.00,M,FEW,BKN,OVC,M,1500.00,2700.00,6000.00,M,M,M,M,M,M,M,M,42.87,K05U 022250Z AUTO 19006KT 10SM FEW015 BKN027 OVC060 08/05 A3013 RMK A01,M
P68,2023-10-02 22:53,-116.0056,39.6014,1993.00,46.00,41.00,82.58,20.00,5.00,0.01,30.10,1016.40,M,M,M,M,M,M,M,M,M,M,M,M,M,M,M,M,M,43.02,KP68 022253Z AUTO 02005KT 08/05 A3010 RMK AO1 SLP164 P0001 T00780050,M
DRA,2023-10-02 22:53,-116.0278,36.6206,1009.00,71.00,36.00,27.69,0.00,0.00,0.00,29.98,1012.20,10.00,M,SCT,M,M,M,8000.00,M,M,M,M,M,M,M,M,M,M,71.00,KDRA 022253Z AUTO 00000KT 10SM SCT080 22/02 A2998 RMK AO2 SLP122 T02170022,M
ELY,2023-10-02 22:53,-114.8453,39.2950,1909.00,48.00,37.00,65.51,210.00,3.00,T,30.07,1016.50,10.00,M,BKN,M,M,M,6500.00,M,M,M,M,M,M,M,M,M,M,46.98,KELY 022253Z AUTO 21003KT 10SM BKN065 09/03 A3007 RMK AO2 RAB08E31 SLP165 P0000 T00890028,M
VGT,2023-10-02 22:53,-115.1933,36.2111,667.00,74.00,37.00,26.03,20.00,4.00,0.00,29.93,1013.80,10.00,M,OVC,M,M,M,9500.00,M,M,M,M,M,M,M,M,M,M,74.00,KVGT 022253Z 02004KT 10SM OVC095 23/03 A2993 RMK AO2 SLP138 T02330028,M
LOL,2023-10-02 22:53,-118.5701,40.0684,1192.43,57.00,42.00,57.16,70.00,4.00,0.00,30.09,1018.00,10.00,M,OVC,M,M,M,5000.00,M,M,M,M,M,M,M,M,M,M,57.00,KLOL 022253Z AUTO 07004KT 10SM OVC050 14/06 A3009 RMK AO2 SLP180 T01390056,M
BVU,2023-10-02 22:55,-114.8611,35.9475,671.00,75.20,32.00,20.49,0.00,0.00,0.00,29.92,M,10.00,M,FEW,M,M,M,9000.00,M,M,M,M,M,M,M,M,M,M,75.20,KBVU 022255Z AUTO 00000KT 10SM FEW090 24/00 A2992 RMK AO2,M
CXP,2023-10-02 22:55,-119.7326,39.1923,1431.00,62.60,33.80,33.93,M,5.00,0.00,30.11,M,10.00,M,BKN,M,M,M,6000.00,M,M,M,M,M,M,M,M,M,M,62.60,KCXP 022255Z AUTO VRB05KT 10SM BKN060 17/01 A3011 RMK AO2,M
INS,2023-10-02 22:55,-115.6733,36.5872,955.00,71.00,31.50,23.13,240.00,9.00,0.00,29.96,1011.50,10.00,M,CLR,M,M,M,M,M,M,M,M,M,M,M,M,M,M,71.00,KINS 022255Z AUTO 24009KT 10SM CLR 22/M00 A2996 RMK AO2 SLP115 T02171003 $,M
RNO,2023-10-02 22:55,-119.7711,39.4839,1341.00,64.00,35.00,33.89,30.00,6.00,0.00,30.09,1015.90,10.00,M,FEW,SCT,M,M,7000.00,23000.00,M,M,M,M,M,M,M,M,M,64.00,KRNO 022255Z 03006KT 10SM FEW070 SCT230 18/02 A3009 RMK AO2 SLP159 T01780017,M
LSV,2023-10-02 22:55,-115.0343,36.2362,570.00,75.00,35.80,24.01,0.00,0.00,0.00,29.90,1011.10,10.00,M,BKN,M,M,M,10000.00,M,M,M,M,M,M,M,M,M,M,75.00,KLSV 022255Z AUTO 00000KT 10SM BKN100 24/02 A2990 RMK AO2 SLP111 T02390021 $,M
RTS,2023-10-02 22:55,-119.8764,39.6682,1539.00,60.80,33.80,36.16,M,6.00,0.00,30.12,M,10.00,M,CLR,M,M,M,M,M,M,M,M,M,M,M,M,M,M,60.80,KRTS 022255Z AUTO VRB06KT 10SM CLR 16/01 A3012 RMK AO2,M
MEV,2023-10-02 22:55,-119.7500,38.9963,1441.42,62.60,35.60,36.45,350.00,7.00,0.00,30.09,M,10.00,M,FEW,M,M,M,6000.00,M,M,M,M,M,M,M,M,M,M,62.60,KMEV 022255Z AUTO 35007KT 10SM FEW060 17/02 A3009 RMK AO2,M
BAM,2023-10-02 22:55,-116.8743,40.5990,1382.36,53.60,42.80,66.70,240.00,3.00,0.00,30.12,M,10.00,M,SCT,BKN,OVC,M,2700.00,3900.00,7000.00,M,M,M,M,M,M,M,M,53.60,KBAM 022255Z AUTO 24003KT 10SM SCT027 BKN039 OVC070 12/06 A3012 RMK AO1,M
HTH,2023-10-02 22:55,-118.6315,38.5448,1282.89,57.20,41.00,54.60,310.00,8.00,0.00,30.11,M,10.00,13.00,OVC,M,M,M,6000.00,M,M,M,M,M,M,M,M,M,M,57.20,KHTH 022255Z AUTO 31008G13KT 10SM OVC060 14/05 A3011 RMK A01,M
TMT,2023-10-02 22:55,-117.1971,39.4643,1749.34,47.70,39.70,73.64,330.00,8.00,0.00,30.14,M,10.00,M,BKN,OVC,M,M,5000.00,6500.00,M,M,M,M,M,M,M,M,M,43.45,KTMT 022255Z AUTO 33008KT 10SM BKN050 OVC065 09/04 A3014 RMK AO2 T00870043,M
EKO,2023-10-02 22:56,-115.7860,40.8242,1367.00,55.00,38.00,52.60,240.00,13.00,0.00,30.07,1016.20,10.00,M,FEW,SCT,OVC,M,3900.00,4700.00,6000.00,M,M,M,M,M,M,M,M,55.00,KEKO 022256Z AUTO 24013KT 10SM FEW039 SCT047 OVC060 13/03 A3007 RMK AO2 SLP162 T01280033,M
WMC,2023-10-02 22:56,-117.8072,40.9019,1315.00,55.00,39.00,54.70,280.00,3.00,0.00,30.10,1017.70,10.00,M,SCT,BKN,OVC,M,3800.00,4600.00,5500.00,M,M,M,M,M,M,M,M,55.00,KWMC 022256Z AUTO 28003KT 10SM SCT038 BKN046 OVC055 13/04 A3010 RMK AO2 SLP177 T01280039,M
NFL,2023-10-02 22:56,-118.7010,39.4166,1199.00,59.00,40.00,49.23,M,5.00,0.00,30.10,1015.90,10.00,M,FEW,SCT,BKN,BKN,3000.00,5000.00,10000.00,25000.00,M,M,M,M,M,M,M,59.00,KNFL 022256Z VRB05KT 10SM FEW030 SCT050 BKN100 BKN250 15/04 A3010 RMK AO2 SLP159 T01500044,M
HND,2023-10-02 22:56,-115.1344,35.9729,742.79,75.00,36.00,24.20,170.00,7.00,0.00,29.96,1014.60,10.00,M,OVC,M,M,M,8500.00,M,M,M,M,M,M,M,M,M,M,75.00,KHND 022256Z 17007KT 130V210 10SM OVC085 24/02 A2996 RMK AO2 SLP146 T02390022,M
TPH,2023-10-02 22:56,-117.0904,38.0505,1654.00,55.00,39.00,54.70,320.00,20.00,0.00,30.09,1016.10,10.00,28.00,CLR,M,M,M,M,M,M,M,M,M,M,M,29.00,300.00,2023-10-02 22:23,55.00,KTPH 022256Z AUTO 32020G28KT 10SM CLR 13/04 A3009 RMK AO2 PK WND 30029/2223 SLP161 T01280039,M
LAS,2023-10-02 22:56,-115.1634,36.0719,663.00,74.00,36.00,25.02,320.00,4.00,0.00,29.93,1012.00,10.00,M,SCT,SCT,SCT,M,10000.00,15000.00,20000.00,M,M,M,M,M,M,M,M,74.00,KLAS 022256Z 32004KT 10SM SCT100 SCT150 SCT200 23/02 A2993 RMK AO2 SLP120 VIRGA NW-N T02330022,M
10U,2023-10-02 23:00,-116.1876,41.9532,1637.00,48.20,41.00,76.01,310.00,8.00,0.00,30.10,M,10.00,M,FEW,SCT,OVC,M,2100.00,2600.00,3700.00,M,M,M,M,M,M,M,M,44.07,K10U 022300Z AUTO 31008KT 10SM FEW021 SCT026 OVC037 09/05 A3010 RMK AO2,M
05U,2023-10-02 23:10,-116.0051,39.6042,1811.23,44.60,41.00,87.09,240.00,4.00,0.00,30.13,M,3.00,M,FEW,BKN,OVC,M,1600.00,2400.00,4000.00,M,HZ,M,M,M,M,M,M,42.13,K05U 022310Z AUTO 24004KT 3SM HZ FEW016 BKN024 OVC040 07/05 A3013 RMK A01,M
BVU,2023-10-02 23:15,-114.8611,35.9475,671.00,75.20,33.80,22.02,M,3.00,0.00,29.93,M,10.00,M,FEW,M,M,M,9500.00,M,M,M,M,M,M,M,M,M,M,75.20,KBVU 022315Z AUTO VRB03KT 10SM FEW095 24/01 A2993 RMK AO2,M
CXP,2023-10-02 23:15,-119.7326,39.1923,1431.00,62.60,35.60,36.45,50.00,6.00,0.00,30.11,M,9.00,M,BKN,M,M,M,6000.00,M,M,M,M,M,M,M,M,M,M,62.60,KCXP 022315Z AUTO 05006KT 9SM BKN060 17/02 A3011 RMK AO2,M
RTS,2023-10-02 23:15,-119.8764,39.6682,1539.00,60.80,33.80,36.16,100.00,5.00,0.00,30.11,M,10.00,11.00,CLR,M,M,M,M,M,M,M,M,M,M,M,M,M,M,60.80,KRTS 022315Z AUTO 10005G11KT 10SM CLR 16/01 A3011 RMK AO2,M
MEV,2023-10-02 23:15,-119.7500,38.9963,1441.42,62.60,35.60,36.45,340.00,4.00,0.00,30.10,M,10.00,12.00,BKN,M,M,M,6000.00,M,M,M,M,M,M,M,M,M,M,62.60,KMEV 022315Z AUTO 34004G12KT 10SM BKN060 17/02 A3010 RMK AO2,M
BAM,2023-10-02 23:15,-116.8743,40.5990,1382.36,53.60,42.80,66.70,210.00,3.00,0.00,30.12,M,10.00,M,SCT,SCT,OVC,M,2900.00,4000.00,7000.00,M,M,M,M,M,M,M,M,53.60,KBAM 022315Z AUTO 21003KT 10SM SCT029 SCT040 OVC070 12/06 A3012 RMK AO1,M
HTH,2023-10-02 23:15,-118.6315,38.5448,1282.89,59.00,41.00,51.18,330.00,11.00,0.00,30.12,M,10.00,M,OVC,M,M,M,6000.00,M,M,M,M,M,M,M,M,M,M,59.00,KHTH 022315Z AUTO 33011KT 10SM OVC060 15/05 A3012 RMK A01,M
TMT,2023-10-02 23:15,-117.1971,39.4643,1749.34,47.70,39.00,71.66,330.00,4.00,0.00,30.14,M,10.00,M,OVC,M,M,M,5500.00,M,M,M,M,M,M,M,M,M,M,45.75,KTMT 022315Z AUTO 33004KT 10SM OVC055 09/04 A3014 RMK AO2 T00870038,M
10U,2023-10-02 23:20,-116.1876,41.9532,1637.00,48.20,41.00,76.01,310.00,9.00,0.00,30.10,M,10.00,M,FEW,FEW,OVC,M,2100.00,2600.00,3700.00,M,M,M,M,M,M,M,M,43.66,K10U 022320Z AUTO 31009KT 10SM FEW021 FEW026 OVC037 09/05 A3010 RMK AO2,M
05U,2023-10-02 23:30,-116.0051,39.6042,1811.23,46.40,42.80,87.19,250.00,5.00,0.00,30.13,M,10.00,M,FEW,SCT,BKN,M,2500.00,2900.00,3900.00,M,M,M,M,M,M,M,M,43.50,K05U 022330Z AUTO 25005KT 10SM FEW025 SCT029 BKN039 08/06 A3013 RMK A01,M
BVU,2023-10-02 23:35,-114.8611,35.9475,671.00,73.40,33.80,23.39,110.00,4.00,0.00,29.93,M,10.00,11.00,FEW,M,M,M,9500.00,M,M,M,M,M,M,M,M,M,M,73.40,KBVU 022335Z AUTO 11004G11KT 10SM FEW095 23/01 A2993 RMK AO2,M
CXP,2023-10-02 23:35,-119.7326,39.1923,1431.00,62.60,35.60,36.45,0.00,0.00,0.00,30.11,M,10.00,M,SCT,M,M,M,5500.00,M,M,M,M,M,M,M,M,M,M,62.60,KCXP 022335Z AUTO 00000KT 10SM SCT055 17/02 A3011 RMK AO2,M
RTS,2023-10-02 23:35,-119.8764,39.6682,1539.00,59.00,33.80,38.56,80.00,4.00,0.00,30.12,M,10.00,10.00,CLR,M,M,M,M,M,M,M,M,M,M,M,M,M,M,59.00,KRTS 022335Z AUTO 08004G10KT 10SM CLR 15/01 A3012 RMK AO2,M
MEV,2023-10-02 23:35,-119.7500,38.9963,1441.42,62.60,33.80,33.93,30.00,7.00,0.00,30.09,M,10.00,M,OVC,M,M,M,6500.00,M,M,M,M,M,M,M,M,M,M,62.60,KMEV 022335Z AUTO 03007KT 10SM OVC065 17/01 A3009 RMK AO2,M
BAM,2023-10-02 23:35,-116.8743,40.5990,1382.36,51.80,42.80,71.26,250.00,5.00,0.00,30.12,M,10.00,M,BKN,BKN,OVC,M,3000.00,3700.00,7000.00,M,M,M,M,M,M,M,M,51.80,KBAM 022335Z AUTO 25005KT 10SM BKN030 BKN037 OVC070 11/06 A3012 RMK AO1,M
HTH,2023-10-02 23:35,-118.6315,38.5448,1282.89,57.20,41.00,54.60,310.00,10.00,0.00,30.12,M,10.00,M,BKN,M,M,M,6000.00,M,M,M,M,M,M,M,M,M,M,57.20,KHTH 022335Z AUTO 31010KT 10SM BKN060 14/05 A3012 RMK A01,M
TMT,2023-10-02 23:35,-117.1971,39.4643,1749.34,47.30,38.50,71.33,0.00,0.00,0.00,30.14,M,10.00,M,SCT,SCT,BKN,M,2900.00,3900.00,5500.00,M,M,M,M,M,M,M,M,47.30,KTMT 022335Z AUTO 00000KT 10SM SCT029 SCT039 BKN055 09/04 A3014 RMK AO2 T00850036,M
10U,2023-10-02 23:40,-116.1876,41.9532,1637.00,48.20,41.00,76.01,280.00,7.00,0.00,30.10,M,10.00,M,FEW,SCT,OVC,M,2000.00,2800.00,3800.00,M,M,M,M,M,M,M,M,44.53,K10U 022340Z AUTO 28007KT 10SM FEW020 SCT028 OVC038 09/05 A3010 RMK AO2,M
05U,2023-10-02 23:50,-116.0051,39.6042,1811.23,46.40,39.20,75.84,270.00,5.00,0.00,30.13,M,10.00,M,SCT,M,M,M,5500.00,M,M,M,M,M,M,M,M,M,M,43.50,K05U 022350Z AUTO 27005KT 10SM SCT055 08/04 A3013 RMK A01,M
P68,2023-10-02 23:53,-116.0056,39.6014,1993.00,45.00,39.00,79.36,110.00,6.00,0.00,30.10,1016.40,M,M,M,M,M,M,M,M,M,M,M,M,M,M,M,M,M,41.19,KP68 022353Z AUTO 11006KT 07/04 A3010 RMK AO1 SLP164 60004 T00720039 10094 20072 50008,M
DRA,2023-10-02 23:53,-116.0278,36.6206,1009.00,70.00,35.00,27.54,250.00,8.00,0.00,29.98,1012.40,10.00,M,SCT,M,M,M,9000.00,M,M,M,M,M,M,M,M,M,M,70.00,KDRA 022353Z AUTO 25008KT 10SM SCT090 21/02 A2998 RMK AO2 SLP124 T02110017 10222 20172 55001,M
ELY,2023-10-02 23:53,-114.8453,39.2950,1909.00,43.00,40.00,89.06,280.00,9.00,0.04,30.10,1017.80,4.00,M,BKN,OVC,M,M,3400.00,4700.00,M,M,-RA BR,M,M,M,M,M,M,37.19,KELY 022353Z AUTO 28009KT 4SM -RA BR BKN034 OVC047 06/04 A3010 RMK AO2 RAB2258 SLP178 P0004 60005 T00610044 10106 20061 53012,M
VGT,2023-10-02 23:53,-115.1933,36.2111,667.00,74.00,40.00,29.28,310.00,4.00,0.00,29.94,1014.20,10.00,M,OVC,M,M,M,10000.00,M,M,M,M,M,M,M,M,M,M,74.00,KVGT 022353Z 31004KT 10SM OVC100 23/04 A2994 RMK AO2 SLP142 T02330044 10239 20206 55000,M
LOL,2023-10-02 23:53,-118.5701,40.0684,1192.43,57.00,41.00,54.99,90.00,4.00,0.00,30.09,1018.20,10.00,M,OVC,M,M,M,5500.00,M,M,M,M,M,M,M,M,M,M,57.00,KLOL 022353Z AUTO 09004KT 10SM OVC055 14/05 A3009 RMK AO2 SLP182 T01390050 10150 20106 56002,M
BVU,2023-10-02 23:55,-114.8611,35.9475,671.00,73.40,33.80,23.39,90.00,5.00,0.00,29.93,M,10.00,M,CLR,M,M,M,M,M,M,M,M,M,M,M,M,M,M,73.40,KBVU 022355Z AUTO 09005KT 10SM CLR 23/01 A2993 RMK AO2,M
CXP,2023-10-02 23:55,-119.7326,39.1923,1431.00,62.60,35.60,36.45,M,3.00,0.00,30.11,M,10.00,M,FEW,M,M,M,6000.00,M,M,M,M,M,M,M,M,M,M,62.60,KCXP 022355Z AUTO VRB03KT 10SM FEW060 17/02 A3011 RMK AO2,M
INS,2023-10-02 23:55,-115.6733,36.5872,955.00,70.50,31.00,23.06,210.00,10.00,0.00,29.96,1011.90,10.00,M,OVC,M,M,M,10000.00,M,M,M,M,M,M,M,M,M,M,70.50,KINS 022355Z AUTO 21010KT 10SM OVC100 21/M01 A2996 RMK AO2 SLP119 T02141006 10218 20178 55001 $,M
RNO,2023-10-02 23:55,-119.7711,39.4839,1341.00,64.00,35.00,33.89,0.00,0.00,0.00,30.09,1015.80,10.00,M,FEW,BKN,M,M,7000.00,23000.00,M,M,M,M,M,M,M,M,M,64.00,KRNO 022355Z 00000KT 10SM FEW070 BKN230 18/02 A3009 RMK AO2 SLP158 T01780017 10183 20128 56004,M
LSV,2023-10-02 23:55,-115.0343,36.2362,570.00,73.80,35.80,24.99,220.00,3.00,0.00,29.90,1011.30,10.00,M,BKN,M,M,M,10000.00,M,M,M,M,M,M,M,M,M,M,73.80,KLSV 022355Z AUTO 22003KT 10SM BKN100 23/02 A2990 RMK AO2 SLP113 T02320021 10273 20232 55003 $,M
RTS,2023-10-02 23:55,-119.8764,39.6682,1539.00,59.00,33.80,38.56,100.00,7.00,0.00,30.12,M,10.00,M,CLR,M,M,M,M,M,M,M,M,M,M,M,M,M,M,59.00,KRTS 022355Z AUTO 10007KT 10SM CLR 15/01 A3012 RMK AO2,M
MEV,2023-10-02 23:55,-119.7500,38.9963,1441.42,62.60,35.60,36.45,320.00,5.00,0.00,30.09,M,10.00,M,BKN,M,M,M,6000.00,M,M,M,M,M,M,M,M,M,M,62.60,KMEV 022355Z AUTO 32005KT 10SM BKN060 17/02 A3009 RMK AO2,M
BAM,2023-10-02 23:55,-116.8743,40.5990,1382.36,53.60,42.80,66.70,220.00,4.00,0.00,30.12,M,10.00,M,BKN,BKN,OVC,M,3000.00,3700.00,5500.00,M,M,M,M,M,M,M,M,53.60,KBAM 022355Z AUTO 22004KT 10SM BKN030 BKN037 OVC055 12/06 A3012 RMK AO1,M
HTH,2023-10-02 23:55,-118.6315,38.5448,1282.89,57.20,41.00,54.60,300.00,8.00,0.00,30.12,M,10.00,M,BKN,M,M,M,6000.00,M,M,M,M,M,M,M,M,M,M,57.20,KHTH 022355Z AUTO 30008KT 10SM BKN060 14/05 A3012 RMK A01,M
TMT,2023-10-02 23:55,-117.1971,39.4643,1749.34,47.70,39.20,72.22,240.00,3.00,0.00,30.14,M,10.00,M,BKN,BKN,OVC,M,2900.00,3700.00,5000.00,M,M,M,M,M,M,M,M,46.64,KTMT 022355Z AUTO 24003KT 10SM BKN029 BKN037 OVC050 09/04 A3014 RMK AO2 60006 T00870040 10088 20059,M
EKO,2023-10-02 23:56,-115.7860,40.8242,1367.00,54.00,38.00,54.56,240.00,11.00,0.00,30.07,1016.50,10.00,M,SCT,M,M,M,3500.00,M,M,M,M,M,M,M,M,M,M,54.00,KEKO 022356Z AUTO 24011KT 10SM SCT035 12/03 A3007 RMK AO2 SLP165 T01220033 10144 20100 51009,M
WMC,2023-10-02 23:56,-117.8072,40.9019,1315.00,55.00,39.00,54.70,0.00,0.00,0.00,30.10,1017.80,10.00,M,BKN,OVC,M,M,4100.00,5000.00,M,M,M,M,M,M,M,M,M,55.00,KWMC 022356Z AUTO 00000KT 10SM BKN041 OVC050 13/04 A3010 RMK AO2 SLP178 60000 T01280039 10133 20094 55001,M
NFL,2023-10-02 23:56,-118.7010,39.4166,1199.00,59.00,41.00,51.18,20.00,6.00,0.00,30.10,1015.80,10.00,M,SCT,BKN,BKN,BKN,3000.00,5000.00,10000.00,25000.00,M,M,M,M,M,M,M,59.00,KNFL 022356Z 02006KT 10SM SCT030 BKN050 BKN100 BKN250 15/05 A3010 RMK AO2 SLP158 T01500050 10161 20122 56003,M
HND,2023-10-02 23:56,-115.1344,35.9729,742.79,74.00,37.00,26.03,260.00,6.00,0.00,29.96,1014.90,10.00,M,CLR,M,M,M,M,M,M,M,M,M,M,M,M,M,M,74.00,KHND 022356Z 26006KT 10SM CLR 23/03 A2996 RMK AO2 SLP149 T02330028 10244 20189 55003,M
TPH,2023-10-02 23:56,-117.0904,38.0505,1654.00,54.00,38.00,54.56,340.00,14.00,0.00,30.10,1016.30,10.00,21.00,CLR,M,M,M,M,M,M,M,M,M,M,M,26.00,330.00,2023-10-02 22:58,54.00,KTPH 022356Z AUTO 34014G21KT 10SM CLR 12/03 A3010 RMK AO2 PK WND 33026/2258 SLP163 T01220033 10133 20111 52007,M
LAS,2023-10-02 23:56,-115.1634,36.0719,663.00,74.00,36.00,25.02,0.00,0.00,0.00,29.93,1012.20,10.00,M,SCT,BKN,BKN,M,10000.00,15000.00,20000.00,M,M,M,M,M,M,M,M,74.00,KLAS 022356Z 00000KT 10SM SCT100 BKN150 BKN200 23/02 A2993 RMK AO2 SLP122 T02330022 10239 20189,M
