station,valid,lon,lat,elevation,tmpf,dwpf,relh,drct,sknt,p01i,alti,mslp,vsby,gust,skyc1,skyc2,skyc3,skyc4,skyl1,skyl2,skyl3,skyl4,wxcodes,ice_accretion_1hr,ice_accretion_3hr,ice_accretion_6hr,peak_wind_gust,peak_wind_drct,peak_wind_time,feel,metar,snowdepth
RTS,2022-08-18 00:15,-119.8764,39.6682,1539.00,77.00,48.20,36.22,260.00,13.00,0.00,30.16,M,10.00,M,CLR,M,M,M,M,M,M,M,M,M,M,M,M,M,M,77.00,KRTS 180015Z AUTO 26013KT 10SM CLR 25/09 A3016 RMK AO2,M
MEV,2022-08-18 00:15,-119.7500,38.9963,1441.42,84.20,46.40,26.76,310.00,7.00,0.00,30.12,M,10.00,14.00,CLR,M,M,M,M,M,M,M,M,M,M,M,M,M,M,81.87,KMEV 180015Z AUTO 31007G14KT 10SM CLR 29/08 A3012 RMK AO2,M
CXP,2022-08-18 00:15,-119.7326,39.1923,1431.00,84.20,44.60,24.99,260.00,8.00,0.00,30.13,M,10.00,M,CLR,M,M,M,M,M,M,M,M,M,M,M,M,M,M,81.73,KCXP 180015Z AUTO 26008KT 230V290 10SM CLR 29/07 A3013 RMK AO2,M
BAM,2022-08-18 00:15,-116.8743,40.5990,1382.36,98.60,32.00,9.72,0.00,0.00,0.00,30.02,M,10.00,M,CLR,M,M,M,M,M,M,M,M,M,M,M,M,M,M,92.69,KBAM 180015Z AUTO 00000KT 10SM CLR 37/00 A3002 RMK AO1,M
TMT,2022-08-18 00:15,-117.1971,39.4643,1749.34,M,M,M,250.00,8.00,0.00,30.18,M,10.00,M,SCT,M,M,M,12000.00,M,M,M,M,M,M,M,M,M,M,M,KTMT 180015Z AUTO 25008KT 10SM SCT120 A3018 RMK AO2,M
HTH,2022-08-18 00:15,-118.6315,38.5448,1282.89,91.40,41.00,17.32,330.00,11.00,0.00,30.04,M,10.00,M,CLR,M,M,M,M,M,M,M,M,M,M,M,M,M,M,87.40,KHTH 180015Z AUTO 33011KT 10SM CLR 33/05 A3004 RMK A01,M
BVU,2022-08-18 00:15,-114.8611,35.9475,671.00,95.00,59.00,30.26,230.00,13.00,0.00,29.86,M,M,M,M,M,M,M,M,M,M,M,M,M,M,M,M,M,M,94.51,KBVU 180015Z AUTO 23013KT 35/15 A2986 RMK AO2 PWINO TSNO,M
TMT,2022-08-18 00:35,-117.1971,39.4643,1749.34,M,M,M,260.00,9.00,0.00,30.18,M,10.00,M,CLR,M,M,M,M,M,M,M,M,M,M,M,M,M,M,M,KTMT 180035Z AUTO 26009KT 10SM CLR A3018 RMK AO2,M
BVU,2022-08-18 00:35,-114.8611,35.9475,671.00,95.00,57.20,28.37,230.00,9.00,0.00,29.87,M,M,M,M,M,M,M,M,M,M,M,M,M,M,M,M,M,M,93.82,KBVU 180035Z AUTO 23009KT 35/14 A2987 RMK AO2 PWINO TSNO,M
CXP,2022-08-18 00:35,-119.7326,39.1923,1431.00,84.20,42.80,23.33,310.00,10.00,0.00,30.13,M,10.00,M,FEW,M,M,M,12000.00,M,M,M,M,M,M,M,M,M,M,81.61,KCXP 180035Z AUTO 31010KT 10SM FEW120 29/06 A3013 RMK AO2,M
RTS,2022-08-18 00:35,-119.8764,39.6682,1539.00,77.00,48.20,36.22,240.00,17.00,0.00,30.17,M,10.00,M,CLR,M,M,M,M,M,M,M,M,M,M,M,M,M,M,77.00,KRTS 180035Z AUTO 24017KT 10SM CLR 25/09 A3017 RMK AO2,M
MEV,2022-08-18 00:35,-119.7500,38.9963,1441.42,86.00,44.60,23.59,290.00,4.00,0.00,30.12,M,10.00,M,CLR,M,M,M,M,M,M,M,M,M,M,M,M,M,M,83.07,KMEV 180035Z AUTO 29004KT 10SM CLR 30/07 A3012 RMK AO2,M
BAM,2022-08-18 00:35,-116.8743,40.5990,1382.36,98.60,32.00,9.72,160.00,8.00,0.00,30.02,M,10.00,M,CLR,M,M,M,M,M,M,M,M,M,M,M,M,M,M,92.69,KBAM 180035Z AUTO 16008KT 150V220 10SM CLR 37/00 A3002 RMK AO1,M
HTH,2022-08-18 00:35,-118.6315,38.5448,1282.89,91.40,41.00,17.32,340.00,8.00,0.00,30.04,M,10.00,13.00,BKN,M,M,M,12000.00,M,M,M,M,M,M,M,M,M,M,87.40,KHTH 180035Z AUTO 34008G13KT 10SM BKN120 33/05 A3004 RMK A01,M
LAS,2022-08-18 00:40,-115.1634,36.0719,663.00,95.00,61.00,32.50,200.00,11.00,0.00,29.85,M,10.00,27.00,SCT,SCT,M,M,12000.00,25000.00,M,M,M,M,M,M,38.00,170.00,2022-08-18 00:16,95.40,KLAS 180040Z COR 20011G27KT 10SM SCT120 SCT250 35/16 A2985 RMK AO2 PK WND 17038/0016 TSE39 TS DSIPTD CB DSNT N-E-S-W T03500161,M
HND,2022-08-18 00:46,-115.1344,35.9729,742.79,91.40,60.80,36.08,210.00,16.00,0.00,29.89,M,10.00,23.00,FEW,M,M,M,10000.00,M,M,M,M,M,M,M,35.00,220.00,2022-08-18 00:20,91.40,KHND 180046Z 21016G23KT 10SM FEW100 33/16 A2989 RMK AO2 PK WND 22035/0020 TSE40,M
DRA,2022-08-18 00:53,-116.0278,36.6206,1009.00,99.00,50.00,19.28,290.00,4.00,0.00,29.91,1007.10,10.00,M,CLR,M,M,M,M,M,M,M,M,M,M,M,M,M,M,95.97,KDRA 180053Z AUTO 29004KT 10SM CLR 37/10 A2991 RMK AO2 SLP071 T03720100,M
LOL,2022-08-18 00:53,-118.5701,40.0684,1192.43,96.00,39.00,13.85,M,3.00,0.00,29.97,1010.20,10.00,M,CLR,M,M,M,M,M,M,M,M,M,M,M,M,M,M,91.57,KLOL 180053Z AUTO VRB03KT 10SM CLR 36/04 A2997 RMK AO2 SLP102 T03560039,M
ELY,2022-08-18 00:53,-114.8453,39.2950,1909.00,87.00,38.00,17.58,M,M,0.00,30.17,1011.40,10.00,M,SCT,M,M,M,11000.00,M,M,M,M,M,M,M,M,M,M,83.61,KELY 180053Z AUTO 10SM SCT110 31/03 A3017 RMK AO2 SLP114 T03060033,M
P68,2022-08-18 00:53,-116.0056,39.6014,1993.00,88.00,36.00,15.85,150.00,7.00,0.00,30.13,1011.90,M,M,M,M,M,M,M,M,M,M,M,M,M,M,M,M,M,84.29,KP68 180053Z AUTO 15007KT 31/02 A3013 RMK AO1 SLP119 T03110022,M
VGT,2022-08-18 00:53,-115.1933,36.2111,667.00,101.00,59.00,25.28,200.00,13.00,0.00,29.83,1008.70,10.00,M,SCT,M,M,M,10000.00,M,M,M,M,M,M,M,M,M,M,101.14,KVGT 180053Z 20013KT 10SM SCT100 38/15 A2983 RMK AO2 SLP087 T03830150,M
TMT,2022-08-18 00:55,-117.1971,39.4643,1749.34,M,M,M,280.00,4.00,0.00,30.16,M,10.00,M,CLR,M,M,M,M,M,M,M,M,M,M,M,M,M,M,M,KTMT 180055Z AUTO 28004KT 10SM CLR A3016 RMK AO2,M
BVU,2022-08-18 00:55,-114.8611,35.9475,671.00,95.00,55.40,26.58,210.00,10.00,0.00,29.86,M,M,M,M,M,M,M,M,M,M,M,M,M,M,M,M,M,M,93.22,KBVU 180055Z AUTO 21010KT 35/13 A2986 RMK AO2 PWINO TSNO,M
CXP,2022-08-18 00:55,-119.7326,39.1923,1431.00,84.20,44.60,24.99,310.00,11.00,0.00,30.14,M,10.00,M,SCT,M,M,M,12000.00,M,M,M,M,M,M,M,M,M,M,81.73,KCXP 180055Z AUTO 31011KT 10SM SCT120 29/07 A3014 RMK AO2,M
RNO,2022-08-18 00:55,-119.7711,39.4839,1341.00,83.00,48.00,29.64,280.00,23.00,0.00,30.10,1013.20,10.00,31.00,FEW,SCT,BKN,M,10000.00,16000.00,20000.00,M,M,M,M,M,31.00,280.00,2022-08-18 00:55,81.11,KRNO 180055Z 28023G31KT 10SM FEW100 SCT160 BKN200 28/09 A3010 RMK AO2 PK WND 28031/0055 SLP132 T02830089,M
RTS,2022-08-18 00:55,-119.8764,39.6682,1539.00,78.80,48.20,34.13,260.00,16.00,0.00,30.18,M,10.00,M,CLR,M,M,M,M,M,M,M,M,M,M,M,M,M,M,78.80,KRTS 180055Z AUTO 26016KT 10SM CLR 26/09 A3018 RMK AO2,M
MEV,2022-08-18 00:55,-119.7500,38.9963,1441.42,84.20,44.60,24.99,260.00,10.00,0.00,30.13,M,10.00,15.00,FEW,M,M,M,12000.00,M,M,M,M,M,M,M,M,M,M,81.73,KMEV 180055Z AUTO 26010G15KT 10SM FEW120 29/07 A3013 RMK AO2,M
BAM,2022-08-18 00:55,-116.8743,40.5990,1382.36,98.60,32.00,9.72,150.00,8.00,0.00,30.02,M,10.00,14.00,CLR,M,M,M,M,M,M,M,M,M,M,M,M,M,M,92.69,KBAM 180055Z AUTO 15008G14KT 10SM CLR 37/00 A3002 RMK AO1,M
HTH,2022-08-18 00:55,-118.6315,38.5448,1282.89,84.20,55.40,37.35,220.00,34.00,0.00,30.06,M,8.00,42.00,OVC,M,M,M,11000.00,M,M,M,M,M,M,M,M,M,M,83.09,KHTH 180055Z AUTO 22034G42KT 8SM OVC110 29/13 A3006 RMK A01,M
EKO,2022-08-18 00:56,-115.7860,40.8242,1367.00,88.00,37.00,16.49,190.00,5.00,0.00,30.07,1012.50,10.00,M,CLR,M,M,M,M,M,M,M,M,M,M,M,M,M,M,84.32,KEKO 180056Z AUTO 19005KT 10SM CLR 31/03 A3007 RMK AO2 SLP125 T03110028,M
HND,2022-08-18 00:56,-115.1344,35.9729,742.79,91.00,60.00,35.64,210.00,14.00,0.00,29.89,1010.80,10.00,M,CLR,M,M,M,M,M,M,M,M,M,M,M,35.00,220.00,2022-08-18 00:20,90.69,KHND 180056Z 21014KT 10SM CLR 33/16 A2989 RMK AO2 PK WND 22035/0020 TSE40 SLP108 T03280156,M
NFL,2022-08-18 00:56,-118.7010,39.4166,1199.00,91.00,44.00,19.76,280.00,8.00,0.00,30.02,1013.70,10.00,M,SCT,BKN,BKN,BKN,8000.00,12000.00,18000.00,25000.00,M,M,M,M,M,M,M,87.27,KNFL 180056Z 28008KT 10SM SCT080 BKN120 BKN180 BKN250 33/07 A3002 RMK AO2 SLP137 CB DSNT E-SE T03280067,M
LAS,2022-08-18 00:56,-115.1634,36.0719,663.00,98.00,59.00,27.52,190.00,8.00,0.00,29.85,1007.50,10.00,M,SCT,SCT,M,M,12000.00,25000.00,M,M,M,M,M,M,38.00,170.00,2022-08-18 00:16,97.96,KLAS 180056Z 19008KT 10SM SCT120 SCT250 37/15 A2985 RMK AO2 PK WND 17038/0016 TSE39 SLP075 TS DSIPTD CB DSNT N-E-S-W T03670150,M
TPH,2022-08-18 00:56,-117.0904,38.0505,1654.00,88.00,46.00,23.34,0.00,0.00,0.00,30.13,1011.70,10.00,M,SCT,M,M,M,11000.00,M,M,M,M,M,M,M,M,M,M,84.81,KTPH 180056Z AUTO 00000KT 10SM SCT110 31/08 A3013 RMK AO2 SLP117 T03110078,M
WMC,2022-08-18 00:56,-117.8072,40.9019,1315.00,100.00,27.00,7.60,70.00,6.00,0.00,29.98,1009.70,10.00,M,CLR,M,M,M,M,M,M,M,M,M,M,M,M,M,M,93.28,KWMC 180056Z AUTO 07006KT 10SM CLR 38/M03 A2998 RMK AO2 SLP097 T03781028 $,M
INS,2022-08-18 00:58,-115.6733,36.5872,955.00,97.00,50.50,20.88,0.00,0.00,0.00,29.91,1007.50,10.00,M,SCT,M,M,M,19000.00,M,M,M,M,M,M,M,M,M,M,94.02,KINS 180058Z AUTO 00000KT 10SM SCT190 36/10 A2991 RMK AO2 SLP075 T03610103,M
LSV,2022-08-18 00:58,-115.0343,36.2362,570.00,103.60,59.70,23.91,190.00,21.00,0.00,29.80,M,10.00,23.00,SCT,BKN,M,M,12000.00,20000.00,M,M,M,M,M,M,M,M,M,104.59,KLSV 180058Z 19021G23KT 10SM SCT120 BKN200 40/15 A2980 RMK AO2A SLPNO T03980154 $,M
MEV,2022-08-18 01:15,-119.7500,38.9963,1441.42,80.60,48.20,32.18,210.00,7.00,0.00,30.15,M,10.00,M,FEW,BKN,M,M,5000.00,11000.00,M,M,M,M,M,M,M,M,M,79.71,KMEV 180115Z AUTO 21007KT 10SM FEW050 BKN110 27/09 A3015 RMK AO2,M
BAM,2022-08-18 01:15,-116.8743,40.5990,1382.36,96.80,32.00,10.27,90.00,4.00,0.00,30.02,M,10.00,M,CLR,M,M,M,M,M,M,M,M,M,M,M,M,M,M,91.19,KBAM 180115Z AUTO 09004KT 10SM CLR 36/00 A3002 RMK AO1,M
HTH,2022-08-18 01:15,-118.6315,38.5448,1282.89,73.40,57.20,56.88,270.00,15.00,0.00,30.12,M,2.00,28.00,FEW,BKN,OVC,M,300.00,3600.00,11000.00,M,HZ,M,M,M,M,M,M,73.40,KHTH 180115Z AUTO 27015G28KT 2SM HZ FEW003 BKN036 OVC110 23/14 A3012 RMK A01,M
TMT,2022-08-18 01:15,-117.1971,39.4643,1749.34,M,M,M,270.00,6.00,0.00,30.16,M,10.00,M,CLR,M,M,M,M,M,M,M,M,M,M,M,M,M,M,M,KTMT 180115Z AUTO 27006KT 10SM CLR A3016 RMK AO2,M
CXP,2022-08-18 01:15,-119.7326,39.1923,1431.00,84.20,44.60,24.99,240.00,5.00,0.00,30.14,M,10.00,M,BKN,M,M,M,12000.00,M,M,M,M,M,M,M,M,M,M,81.73,KCXP 180115Z AUTO 24005KT 10SM BKN120 29/07 A3014 RMK AO2,M
RTS,2022-08-18 01:15,-119.8764,39.6682,1539.00,77.00,48.20,36.22,290.00,13.00,0.00,30.18,M,10.00,M,CLR,M,M,M,M,M,M,M,M,M,M,M,M,M,M,77.00,KRTS 180115Z AUTO 29013KT 10SM CLR 25/09 A3018 RMK AO2,M
BVU,2022-08-18 01:15,-114.8611,35.9475,671.00,95.00,55.40,26.58,220.00,11.00,0.00,29.86,M,M,M,M,M,M,M,M,M,M,M,M,M,M,M,M,M,M,93.22,KBVU 180115Z AUTO 22011KT 35/13 A2986 RMK AO2 PWINO TSNO,M
RTS,2022-08-18 01:35,-119.8764,39.6682,1539.00,75.20,48.20,38.46,290.00,15.00,0.00,30.18,M,10.00,M,SCT,M,M,M,12000.00,M,M,M,M,M,M,M,M,M,M,75.20,KRTS 180135Z AUTO 29015KT 10SM SCT120 24/09 A3018 RMK AO2,M
BAM,2022-08-18 01:35,-116.8743,40.5990,1382.36,96.80,33.80,11.04,120.00,4.00,0.00,30.02,M,10.00,M,CLR,M,M,M,M,M,M,M,M,M,M,M,M,M,M,91.44,KBAM 180135Z AUTO 12004KT 10SM CLR 36/01 A3002 RMK AO1,M
HTH,2022-08-18 01:35,-118.6315,38.5448,1282.89,75.20,55.40,50.17,270.00,17.00,0.00,30.11,M,10.00,M,SCT,BKN,BKN,M,3300.00,5000.00,6500.00,M,M,M,M,M,M,M,M,75.20,KHTH 180135Z AUTO 27017KT 10SM SCT033 BKN050 BKN065 24/13 A3011 RMK A01,M
MEV,2022-08-18 01:35,-119.7500,38.9963,1441.42,71.60,55.40,56.63,180.00,14.00,0.00,30.18,M,6.00,22.00,SCT,BKN,OVC,M,4600.00,7500.00,10000.00,M,-RA HZ,M,M,M,M,M,M,71.60,KMEV 180135Z AUTO 18014G22KT 6SM -RA HZ SCT046 BKN075 OVC100 22/13 A3018 RMK AO2,M
TMT,2022-08-18 01:35,-117.1971,39.4643,1749.34,M,M,M,260.00,6.00,0.00,30.16,M,10.00,M,CLR,M,M,M,M,M,M,M,M,M,M,M,M,M,M,M,KTMT 180135Z AUTO 26006KT 10SM CLR A3016 RMK AO2,M
BVU,2022-08-18 01:35,-114.8611,35.9475,671.00,95.00,55.40,26.58,220.00,6.00,0.00,29.85,M,M,M,M,M,M,M,M,M,M,M,M,M,M,M,M,M,M,93.22,KBVU 180135Z AUTO 22006KT 35/13 A2985 RMK AO2 PWINO TSNO,M
CXP,2022-08-18 01:35,-119.7326,39.1923,1431.00,82.40,44.60,26.49,210.00,3.00,0.00,30.15,M,10.00,M,BKN,M,M,M,12000.00,M,M,M,M,M,M,M,M,M,M,80.50,KCXP 180135Z AUTO 21003KT 10SM BKN120 28/07 A3015 RMK AO2,M
LOL,2022-08-18 01:49,-118.5701,40.0684,1192.43,87.80,46.40,23.85,170.00,25.00,T,30.01,M,3.00,31.00,FEW,M,M,M,3400.00,M,M,M,-RA,M,M,M,31.00,170.00,2022-08-18 01:47,84.68,KLOL 180149Z AUTO 17025G31KT 3SM -RA FEW034 31/08 A3001 RMK AO2 PK WND 17031/0147 WSHFT 0129 RAB18 P0000,M
DRA,2022-08-18 01:53,-116.0278,36.6206,1009.00,97.00,51.00,21.35,220.00,7.00,0.00,29.91,1007.20,10.00,M,FEW,M,M,M,10000.00,M,M,M,M,M,M,M,M,M,M,94.16,KDRA 180153Z AUTO 22007KT 10SM FEW100 36/11 A2991 RMK AO2 SLP072 T03610106,M
P68,2022-08-18 01:53,-116.0056,39.6014,1993.00,83.00,40.00,21.75,270.00,12.00,0.00,30.14,1011.60,M,M,M,M,M,M,M,M,M,M,M,M,M,M,M,M,M,80.57,KP68 180153Z AUTO 27012KT 28/04 A3014 RMK AO1 SLP116 T02830044,M
VGT,2022-08-18 01:53,-115.1933,36.2111,667.00,101.00,58.00,24.31,200.00,11.00,0.00,29.83,1008.60,10.00,M,CLR,M,M,M,M,M,M,M,M,M,M,M,M,M,M,100.63,KVGT 180153Z 20011KT 10SM CLR 38/14 A2983 RMK AO2 SLP086 T03830144,M
ELY,2022-08-18 01:53,-114.8453,39.2950,1909.00,84.00,36.00,18.01,100.00,7.00,0.00,30.18,1011.90,10.00,M,BKN,M,M,M,11000.00,M,M,M,M,M,M,M,M,M,M,81.20,KELY 180153Z AUTO 10007KT 10SM BKN110 29/02 A3018 RMK AO2 SLP119 T02890022,M
LOL,2022-08-18 01:53,-118.5701,40.0684,1192.43,87.00,47.00,24.85,170.00,28.00,T,30.01,1012.00,1.50,35.00,SCT,M,M,M,3200.00,M,M,M,-RA,M,M,M,35.00,170.00,2022-08-18 01:51,84.15,KLOL 180153Z AUTO 17028G35KT 1 1/2SM -RA SCT032 31/08 A3001 RMK AO2 PK WND 17035/0151 WSHFT 0129 RAB18 SLP120 P0000 T03060083,M
BAM,2022-08-18 01:55,-116.8743,40.5990,1382.36,95.00,33.80,11.67,120.00,3.00,0.00,30.02,M,10.00,M,CLR,M,M,M,M,M,M,M,M,M,M,M,M,M,M,89.97,KBAM 180155Z AUTO 12003KT 10SM CLR 35/01 A3002 RMK AO1,M
HTH,2022-08-18 01:55,-118.6315,38.5448,1282.89,77.00,55.40,47.25,240.00,12.00,0.07,30.10,M,10.00,21.00,SCT,M,M,M,12000.00,M,M,M,M,M,M,M,M,M,M,77.00,KHTH 180155Z AUTO 24012G21KT 10SM SCT120 25/13 A3010 RMK A01 P0007,M
MEV,2022-08-18 01:55,-119.7500,38.9963,1441.42,68.00,57.20,68.35,200.00,15.00,0.01,30.19,M,6.00,22.00,FEW,SCT,BKN,M,3400.00,4400.00,7500.00,M,-RA HZ,M,M,M,M,M,M,68.00,KMEV 180155Z AUTO 20015G22KT 6SM -RA HZ FEW034 SCT044 BKN075 20/14 A3019 RMK AO2 P0001,M
TMT,2022-08-18 01:55,-117.1971,39.4643,1749.34,M,M,M,250.00,5.00,0.00,30.16,M,10.00,M,SCT,M,M,M,11000.00,M,M,M,-RA,M,M,M,M,M,M,M,KTMT 180155Z AUTO 25005KT 10SM -RA SCT110 A3016 RMK AO2,M
RTS,2022-08-18 01:55,-119.8764,39.6682,1539.00,75.20,48.20,38.46,290.00,15.00,0.00,30.18,M,10.00,24.00,SCT,M,M,M,12000.00,M,M,M,M,M,M,M,M,M,M,75.20,KRTS 180155Z AUTO 29015G24KT 10SM SCT120 24/09 A3018 RMK AO2,M
CXP,2022-08-18 01:55,-119.7326,39.1923,1431.00,80.60,50.00,34.41,220.00,10.00,0.00,30.16,M,10.00,20.00,FEW,SCT,BKN,M,5500.00,6500.00,7500.00,M,-RA,M,M,M,M,M,M,79.88,KCXP 180155Z AUTO 22010G20KT 10SM -RA FEW055 SCT065 BKN075 27/10 A3016 RMK AO2,M
BVU,2022-08-18 01:55,-114.8611,35.9475,671.00,95.00,57.20,28.37,210.00,4.00,0.00,29.85,M,M,M,M,M,M,M,M,M,M,M,M,M,M,M,M,M,M,93.82,KBVU 180155Z AUTO 21004KT 35/14 A2985 RMK AO2 PWINO TSNO,M
RNO,2022-08-18 01:55,-119.7711,39.4839,1341.00,82.00,49.00,31.56,310.00,10.00,0.00,30.12,1013.80,10.00,M,BKN,BKN,M,M,11000.00,18000.00,M,M,M,M,M,M,28.00,270.00,2022-08-18 00:57,80.61,KRNO 180155Z 31010KT 10SM BKN110 BKN180 28/09 A3012 RMK AO2 PK WND 27028/0057 SLP138 VIRGA SH DSNT S T02780094,M
HND,2022-08-18 01:56,-115.1344,35.9729,742.79,93.00,62.00,35.94,170.00,8.00,0.00,29.89,1010.50,10.00,M,CLR,M,M,M,M,M,M,M,M,M,M,M,M,M,M,93.72,KHND 180156Z 17008KT 10SM CLR 34/17 A2989 RMK AO2 SLP105 T03390167,M
EKO,2022-08-18 01:56,-115.7860,40.8242,1367.00,88.00,34.00,14.64,60.00,5.00,0.00,30.06,1012.50,10.00,M,CLR,M,M,M,M,M,M,M,M,M,M,M,M,M,M,84.26,KEKO 180156Z AUTO 06005KT 10SM CLR 31/01 A3006 RMK AO2 SLP125 T03110011,M
WMC,2022-08-18 01:56,-117.8072,40.9019,1315.00,98.00,30.00,9.10,10.00,9.00,0.00,29.98,1009.30,10.00,M,CLR,M,M,M,M,M,M,M,M,M,M,M,M,M,M,92.02,KWMC 180156Z AUTO 01009KT 10SM CLR 37/M01 A2998 RMK AO2 SLP093 T03671011 $,M
TPH,2022-08-18 01:56,-117.0904,38.0505,1654.00,84.00,48.00,28.60,30.00,7.00,T,30.12,1011.60,10.00,M,FEW,M,M,M,8500.00,M,M,M,M,M,M,M,M,M,M,81.87,KTPH 180156Z AUTO 03007KT 10SM FEW085 29/09 A3012 RMK AO2 LTG DSNT E-S RAB16E27 SLP116 P0000 T02890089,M
NFL,2022-08-18 01:56,-118.7010,39.4166,1199.00,86.00,57.00,37.35,260.00,6.00,T,30.03,1013.80,10.00,M,BKN,OVC,M,M,8000.00,10000.00,M,M,M,M,M,M,M,M,M,84.92,KNFL 180156Z 26006KT 10SM BKN080 OVC100 30/14 A3003 RMK AO2 RAB33E47 SLP138 CB DSNT NE P0000 T03000139,M
LAS,2022-08-18 01:56,-115.1634,36.0719,663.00,98.00,59.00,27.52,190.00,3.00,0.00,29.85,1007.50,10.00,M,SCT,BKN,M,M,12000.00,25000.00,M,M,M,M,M,M,M,M,M,97.96,KLAS 180156Z 19003KT 10SM SCT120 BKN250 37/15 A2985 RMK AO2 SLP075 ACC N-NE CB DSNT NE-E T03670150,M
INS,2022-08-18 01:58,-115.6733,36.5872,955.00,96.00,51.00,21.95,100.00,7.00,0.00,29.91,1007.50,10.00,M,CLR,M,M,M,M,M,M,M,M,M,M,M,M,M,M,93.23,KINS 180158Z AUTO 10007KT 10SM CLR 36/11 A2991 RMK AO2 SLP075 T03560106,M
LSV,2022-08-18 01:58,-115.0343,36.2362,570.00,100.20,59.00,25.82,190.00,10.00,0.00,29.80,1006.30,10.00,M,FEW,SCT,M,M,12000.00,14000.00,M,M,M,M,M,M,M,M,M,100.34,KLSV 180158Z COR 19010KT 10SM FEW120 SCT140 38/15 A2980 RMK AO2A SLP063 T03790150 FZRANO $ COR 0220,M
LOL,2022-08-18 02:00,-118.5701,40.0684,1192.43,81.00,53.00,38.09,170.00,30.00,T,30.03,M,1.00,37.00,SCT,BKN,M,M,2300.00,11000.00,M,M,-RA,M,M,M,37.00,180.00,2022-08-18 01:58,80.47,KLOL 180200Z AUTO 17030G37KT 1SM -RA SCT023 BKN110 27/12 A3003 RMK AO2 PK WND 18037/0158 WSHFT 0140 P0000 T02720117,M
LOL,2022-08-18 02:07,-118.5701,40.0684,1192.43,76.00,56.00,49.91,200.00,16.00,0.01,30.05,M,3.00,37.00,SCT,SCT,BKN,M,2300.00,8000.00,10000.00,M,RA,M,M,M,37.00,180.00,2022-08-18 01:58,75.90,KLOL 180207Z AUTO 20016G37KT 3SM RA SCT023 SCT080 BKN100 24/13 A3005 RMK AO2 PK WND 18037/0158 WSHFT 0140 PRESRR P0001 T02440133,M
BAM,2022-08-18 02:15,-116.8743,40.5990,1382.36,93.20,35.60,13.25,0.00,0.00,0.00,30.02,M,10.00,M,CLR,M,M,M,M,M,M,M,M,M,M,M,M,M,M,88.76,KBAM 180215Z AUTO 00000KT 10SM CLR 34/02 A3002 RMK AO1,M
RTS,2022-08-18 02:15,-119.8764,39.6682,1539.00,73.40,48.20,40.85,280.00,13.00,0.00,30.19,M,10.00,19.00,BKN,M,M,M,11000.00,M,M,M,M,M,M,M,M,M,M,73.40,KRTS 180215Z AUTO 28013G19KT 10SM BKN110 23/09 A3019 RMK AO2,M
BVU,2022-08-18 02:15,-114.8611,35.9475,671.00,95.00,57.20,28.37,0.00,0.00,0.00,29.86,M,M,M,M,M,M,M,M,M,M,M,M,M,M,M,M,M,M,93.82,KBVU 180215Z AUTO 00000KT 35/14 A2986 RMK AO2 PWINO TSNO,M
HTH,2022-08-18 02:15,-118.6315,38.5448,1282.89,78.80,53.60,41.69,280.00,11.00,0.00,30.10,M,10.00,21.00,BKN,M,M,M,12000.00,M,M,M,M,M,M,M,M,M,M,78.80,KHTH 180215Z AUTO 28011G21KT 10SM BKN120 26/12 A3010 RMK A01,M
TMT,2022-08-18 02:15,-117.1971,39.4643,1749.34,M,M,M,0.00,0.00,0.00,30.16,M,10.00,M,SCT,M,M,M,11000.00,M,M,M,M,M,M,M,M,M,M,M,KTMT 180215Z AUTO 00000KT 10SM SCT110 A3016 RMK AO2,M
CXP,2022-08-18 02:15,-119.7326,39.1923,1431.00,75.20,53.60,46.98,160.00,8.00,0.00,30.20,M,10.00,15.00,FEW,SCT,BKN,M,6000.00,7500.00,12000.00,M,M,M,M,M,M,M,M,75.20,KCXP 180215Z AUTO 16008G15KT 130V190 10SM FEW060 SCT075 BKN120 24/12 A3020 RMK AO2,M
MEV,2022-08-18 02:15,-119.7500,38.9963,1441.42,64.40,59.00,82.62,160.00,9.00,0.00,30.21,M,10.00,M,FEW,BKN,OVC,M,3600.00,7500.00,10000.00,M,-RA,M,M,M,M,M,M,64.40,KMEV 180215Z AUTO 16009KT 10SM -RA FEW036 BKN075 OVC100 18/15 A3021 RMK AO2,M
LOL,2022-08-18 02:22,-118.5701,40.0684,1192.43,79.00,54.00,42.03,230.00,15.00,0.01,30.06,M,10.00,M,FEW,FEW,OVC,M,1100.00,8000.00,12000.00,M,M,M,M,M,37.00,180.00,2022-08-18 01:58,79.00,KLOL 180222Z AUTO 23015KT 10SM FEW011 FEW080 OVC120 26/12 A3006 RMK AO2 PK WND 18037/0158 WSHFT 0202 RAE20 P0001 T02610122,M
RTS,2022-08-18 02:35,-119.8764,39.6682,1539.00,73.40,46.40,38.18,290.00,18.00,0.00,30.19,M,10.00,23.00,FEW,SCT,OVC,M,2800.00,6000.00,11000.00,M,M,M,M,M,M,M,M,73.40,KRTS 180235Z AUTO 29018G23KT 10SM FEW028 SCT060 OVC110 23/08 A3019 RMK AO2,M
MEV,2022-08-18 02:35,-119.7500,38.9963,1441.42,64.40,59.00,82.62,160.00,6.00,0.00,30.21,M,8.00,M,FEW,BKN,OVC,M,4600.00,7500.00,9500.00,M,-RA,M,M,M,M,M,M,64.40,KMEV 180235Z AUTO 16006KT 8SM -RA FEW046 BKN075 OVC095 18/15 A3021 RMK AO2,M
BVU,2022-08-18 02:35,-114.8611,35.9475,671.00,95.00,59.00,30.26,140.00,6.00,0.00,29.87,M,M,M,M,M,M,M,M,M,M,M,M,M,M,M,M,M,M,94.51,KBVU 180235Z AUTO 14006KT 35/15 A2987 RMK AO2 PWINO TSNO,M
CXP,2022-08-18 02:35,-119.7326,39.1923,1431.00,73.40,53.60,49.90,160.00,7.00,0.00,30.22,M,10.00,20.00,FEW,BKN,OVC,M,6000.00,7500.00,11000.00,M,M,M,M,M,M,M,M,73.40,KCXP 180235Z AUTO 16007G20KT 10SM FEW060 BKN075 OVC110 23/12 A3022 RMK AO2,M
BAM,2022-08-18 02:35,-116.8743,40.5990,1382.36,91.40,33.80,13.05,0.00,0.00,0.00,30.03,M,10.00,M,CLR,M,M,M,M,M,M,M,M,M,M,M,M,M,M,87.13,KBAM 180235Z AUTO 00000KT 10SM CLR 33/01 A3003 RMK AO1,M
HTH,2022-08-18 02:35,-118.6315,38.5448,1282.89,75.20,59.00,57.12,30.00,8.00,0.00,30.11,M,10.00,M,BKN,M,M,M,12000.00,M,M,M,M,M,M,M,M,M,M,75.20,KHTH 180235Z AUTO 03008KT 10SM BKN120 24/15 A3011 RMK A01,M
TMT,2022-08-18 02:35,-117.1971,39.4643,1749.34,M,M,M,130.00,5.00,0.00,30.17,M,10.00,M,SCT,M,M,M,12000.00,M,M,M,M,M,M,M,M,M,M,M,KTMT 180235Z AUTO 13005KT 10SM SCT120 A3017 RMK AO2,M
DRA,2022-08-18 02:53,-116.0278,36.6206,1009.00,94.00,50.00,22.55,200.00,5.00,0.00,29.93,1007.80,10.00,M,FEW,M,M,M,10000.00,M,M,M,M,M,M,M,M,M,M,90.79,KDRA 180253Z AUTO 20005KT 10SM FEW100 34/10 A2993 RMK AO2 SLP078 T03440100 53003,M
VGT,2022-08-18 02:53,-115.1933,36.2111,667.00,100.00,57.00,24.18,190.00,4.00,0.00,29.85,1009.20,10.00,M,CLR,M,M,M,M,M,M,M,M,M,M,M,M,M,M,99.24,KVGT 180253Z 19004KT 10SM CLR 38/14 A2985 RMK AO2 LTG DSNT NE SLP092 T03780139 53005,M
LOL,2022-08-18 02:53,-118.5701,40.0684,1192.43,79.00,54.00,42.03,290.00,12.00,0.01,30.04,1013.00,10.00,M,FEW,BKN,M,M,7500.00,11000.00,M,M,M,M,M,M,37.00,180.00,2022-08-18 01:58,79.00,KLOL 180253Z AUTO 29012KT 10SM FEW075 BKN110 26/12 A3004 RMK AO2 PK WND 18037/0158 WSHFT 0202 RAE20B28E48 SLP130 P0001 60001 T02610122 51022,M
ELY,2022-08-18 02:53,-114.8453,39.2950,1909.00,76.00,41.00,28.56,230.00,10.00,0.00,30.19,1012.10,10.00,M,CLR,M,M,M,M,M,M,M,M,M,M,M,M,M,M,75.90,KELY 180253Z AUTO 23010KT 10SM CLR 24/05 A3019 RMK AO2 SLP121 T02440050 53003,M
P68,2022-08-18 02:53,-116.0056,39.6014,1993.00,80.00,41.00,24.86,210.00,5.00,0.00,30.15,1011.60,M,M,M,M,M,M,M,M,M,M,M,M,M,M,M,M,M,78.98,KP68 180253Z AUTO 21005KT 27/05 A3015 RMK AO1 SLP116 T02670050 53003,M
RTS,2022-08-18 02:55,-119.8764,39.6682,1539.00,73.40,46.40,38.18,270.00,10.00,0.00,30.21,M,10.00,21.00,FEW,SCT,BKN,M,1800.00,5000.00,7000.00,M,M,M,M,M,M,M,M,73.40,KRTS 180255Z AUTO 27010G21KT 10SM FEW018 SCT050 BKN070 23/08 A3021 RMK AO2,M
BVU,2022-08-18 02:55,-114.8611,35.9475,671.00,93.20,59.00,31.99,150.00,7.00,0.00,29.88,M,M,M,M,M,M,M,M,M,M,M,M,M,M,M,M,M,M,92.57,KBVU 180255Z AUTO 15007KT 34/15 A2988 RMK AO2 PWINO TSNO,M
CXP,2022-08-18 02:55,-119.7326,39.1923,1431.00,71.60,57.20,60.44,0.00,0.00,0.00,30.24,M,9.00,M,SCT,OVC,M,M,6000.00,7000.00,M,M,-RA,M,M,M,M,M,M,71.60,KCXP 180255Z AUTO 00000KT 9SM -RA SCT060 OVC070 22/14 A3024 RMK AO2,M
MEV,2022-08-18 02:55,-119.7500,38.9963,1441.42,64.40,59.00,82.62,130.00,6.00,0.00,30.21,M,9.00,M,FEW,BKN,OVC,M,4500.00,6500.00,7500.00,M,-RA,M,M,M,M,M,M,64.40,KMEV 180255Z AUTO 13006KT 9SM -RA FEW045 BKN065 OVC075 18/15 A3021 RMK AO2,M
BAM,2022-08-18 02:55,-116.8743,40.5990,1382.36,89.60,35.60,14.83,0.00,0.00,0.00,30.03,M,10.00,M,CLR,M,M,M,M,M,M,M,M,M,M,M,M,M,M,85.62,KBAM 180255Z AUTO 00000KT 10SM CLR 32/02 A3003 RMK AO1,M
HTH,2022-08-18 02:55,-118.6315,38.5448,1282.89,75.20,60.80,60.90,90.00,4.00,0.00,30.12,M,10.00,M,FEW,M,M,M,12000.00,M,M,M,M,M,M,M,M,M,M,75.20,KHTH 180255Z AUTO 09004KT 10SM FEW120 24/16 A3012 RMK A01,M
TMT,2022-08-18 02:55,-117.1971,39.4643,1749.34,M,M,M,180.00,5.00,0.00,30.18,M,10.00,M,CLR,M,M,M,M,M,M,M,M,M,M,M,M,M,M,M,KTMT 180255Z AUTO 18005KT 10SM CLR A3018 RMK AO2,M
RNO,2022-08-18 02:55,-119.7711,39.4839,1341.00,81.00,49.00,32.60,300.00,6.00,0.00,30.16,1015.20,10.00,M,FEW,BKN,BKN,M,6000.00,11000.00,16000.00,M,M,M,M,M,M,M,M,80.01,KRNO 180255Z 30006KT 10SM FEW060 BKN110 BKN160 27/09 A3016 RMK AO2 SLP152 T02720094 53017,M
NFL,2022-08-18 02:56,-118.7010,39.4166,1199.00,80.00,52.00,37.67,240.00,21.00,0.00,30.07,1015.20,10.00,27.00,BKN,OVC,M,M,8000.00,10000.00,M,M,M,M,M,M,34.00,230.00,2022-08-18 02:24,79.81,KNFL 180256Z 24021G27KT 10SM BKN080 OVC100 27/11 A3007 RMK AO2 PK WND 23034/0224 SLP152 SH DSNT ALQDS 60000 T02670111 53020,M
EKO,2022-08-18 02:56,-115.7860,40.8242,1367.00,80.00,37.00,21.27,80.00,4.00,0.00,30.08,1012.90,10.00,M,CLR,M,M,M,M,M,M,M,M,M,M,M,M,M,M,78.81,KEKO 180256Z AUTO 08004KT 10SM CLR 27/03 A3008 RMK AO2 SLP129 T02670028 55000,M
TPH,2022-08-18 02:56,-117.0904,38.0505,1654.00,83.00,44.00,25.57,60.00,11.00,T,30.14,1011.40,10.00,M,BKN,M,M,M,11000.00,M,M,M,M,M,M,M,M,M,M,80.80,KTPH 180256Z AUTO 06011KT 10SM BKN110 28/07 A3014 RMK AO2 LTG DSNT ALQDS RAB43E55 SLP114 P0000 60000 T02830067 53007,M
WMC,2022-08-18 02:56,-117.8072,40.9019,1315.00,90.00,36.00,14.88,280.00,14.00,0.00,29.99,1010.00,10.00,22.00,CLR,M,M,M,M,M,M,M,M,M,M,M,M,M,M,85.97,KWMC 180256Z AUTO 28014G22KT 10SM CLR 32/02 A2999 RMK AO2 SLP100 T03220022 53001 $,M
HND,2022-08-18 02:56,-115.1344,35.9729,742.79,90.00,66.00,45.25,180.00,7.00,0.00,29.91,1011.20,10.00,M,CLR,M,M,M,M,M,M,M,M,M,M,M,M,M,M,92.59,KHND 180256Z 18007KT 10SM CLR 32/19 A2991 RMK AO2 SLP112 T03220189 53010,M
LAS,2022-08-18 02:56,-115.1634,36.0719,663.00,95.00,59.00,30.26,180.00,5.00,0.00,29.86,1008.10,10.00,M,SCT,BKN,M,M,12000.00,25000.00,M,M,M,M,M,M,M,M,M,94.51,KLAS 180256Z 18005KT 10SM SCT120CB BKN250 35/15 A2986 RMK AO2 LTG DSNT NE SLP081 CB NE ACC N-E T03500150 53006,M
INS,2022-08-18 02:58,-115.6733,36.5872,955.00,93.70,50.40,23.03,120.00,4.00,0.00,29.92,1007.80,10.00,M,CLR,M,M,M,M,M,M,M,M,M,M,M,M,M,M,90.67,KINS 180258Z AUTO 12004KT 10SM CLR 34/10 A2992 RMK AO2 SLP078 T03430102 53002,M
LSV,2022-08-18 02:58,-115.0343,36.2362,570.00,98.60,59.00,27.10,180.00,6.00,0.00,29.82,M,10.00,M,SCT,SCT,M,M,12000.00,15000.00,M,M,M,M,M,M,M,M,M,98.52,KLSV 180258Z 18006KT 10SM SCT120 SCT150 37/15 A2982 RMK AO2A SLPNO ALSTG ESTMD 50006 RVRNO $,M
BVU,2022-08-18 03:15,-114.8611,35.9475,671.00,93.20,59.00,31.99,130.00,9.00,0.00,29.88,M,M,M,M,M,M,M,M,M,M,M,M,M,M,M,M,M,M,92.57,KBVU 180315Z AUTO 13009KT 34/15 A2988 RMK AO2 PWINO TSNO,M
CXP,2022-08-18 03:15,-119.7326,39.1923,1431.00,69.80,57.20,64.26,0.00,0.00,0.00,30.24,M,10.00,M,FEW,BKN,OVC,M,6000.00,7000.00,10000.00,M,-RA,M,M,M,M,M,M,69.80,KCXP 180315Z AUTO 00000KT 10SM -RA FEW060 BKN070 OVC100 21/14 A3024 RMK AO2,M
RTS,2022-08-18 03:15,-119.8764,39.6682,1539.00,71.60,46.40,40.57,270.00,10.00,0.00,30.23,M,10.00,M,SCT,OVC,M,M,8500.00,11000.00,M,M,M,M,M,M,M,M,M,71.60,KRTS 180315Z AUTO 27010KT 10SM SCT085 OVC110 22/08 A3023 RMK AO2,M
MEV,2022-08-18 03:15,-119.7500,38.9963,1441.42,64.40,60.80,88.09,100.00,8.00,0.00,30.23,M,10.00,M,FEW,BKN,OVC,M,4600.00,6000.00,9500.00,M,M,M,M,M,M,M,M,64.40,KMEV 180315Z AUTO 10008KT 10SM FEW046 BKN060 OVC095 18/16 A3023 RMK AO2,M
HTH,2022-08-18 03:15,-118.6315,38.5448,1282.89,75.20,60.80,60.90,120.00,6.00,0.00,30.12,M,10.00,M,SCT,M,M,M,12000.00,M,M,M,M,M,M,M,M,M,M,75.20,KHTH 180315Z AUTO 12006KT 10SM SCT120 24/16 A3012 RMK A01,M
BAM,2022-08-18 03:15,-116.8743,40.5990,1382.36,86.00,37.40,17.85,210.00,7.00,0.00,30.04,M,10.00,M,CLR,M,M,M,M,M,M,M,M,M,M,M,M,M,M,82.73,KBAM 180315Z AUTO 21007KT 10SM CLR 30/03 A3004 RMK AO1,M
TMT,2022-08-18 03:15,-117.1971,39.4643,1749.34,74.30,46.60,37.32,200.00,6.00,0.00,30.18,M,10.00,M,CLR,M,M,M,M,M,M,M,M,M,M,M,M,M,M,74.30,KTMT 180315Z AUTO 20006KT 10SM CLR 24/08 A3018 RMK AO2 LTG DSNT S T02350081,M
BVU,2022-08-18 03:35,-114.8611,35.9475,671.00,93.20,59.00,31.99,130.00,5.00,0.00,29.89,M,M,M,M,M,M,M,M,M,M,M,M,M,M,M,M,M,M,92.57,KBVU 180335Z AUTO 13005KT 34/15 A2989 RMK AO2 PWINO TSNO,M
CXP,2022-08-18 03:35,-119.7326,39.1923,1431.00,68.00,57.20,68.35,0.00,0.00,0.00,30.25,M,6.00,10.00,SCT,BKN,OVC,M,4100.00,6000.00,7500.00,M,-RA HZ,M,M,M,M,M,M,68.00,KCXP 180335Z AUTO 00000G10KT 6SM -RA HZ SCT041 BKN060 OVC075 20/14 A3025 RMK AO2,M
RTS,2022-08-18 03:35,-119.8764,39.6682,1539.00,71.60,48.20,43.42,0.00,0.00,0.00,30.26,M,10.00,M,FEW,BKN,OVC,M,6500.00,7500.00,11000.00,M,-DZ,M,M,M,M,M,M,71.60,KRTS 180335Z AUTO 00000KT 10SM -DZ FEW065 BKN075 OVC110 22/09 A3026 RMK AO2,M
MEV,2022-08-18 03:35,-119.7500,38.9963,1441.42,64.40,60.80,88.09,110.00,4.00,0.00,30.23,M,10.00,M,SCT,BKN,OVC,M,3700.00,5500.00,9000.00,M,M,M,M,M,M,M,M,64.40,KMEV 180335Z AUTO 11004KT 10SM SCT037 BKN055 OVC090 18/16 A3023 RMK AO2,M
BAM,2022-08-18 03:35,-116.8743,40.5990,1382.36,87.80,41.00,19.40,240.00,8.00,0.00,30.04,M,10.00,M,CLR,M,M,M,M,M,M,M,M,M,M,M,M,M,M,84.30,KBAM 180335Z AUTO 24008KT 10SM CLR 31/05 A3004 RMK AO1,M
HTH,2022-08-18 03:35,-118.6315,38.5448,1282.89,75.20,59.00,57.12,200.00,5.00,0.00,30.13,M,10.00,M,BKN,M,M,M,11000.00,M,M,M,M,M,M,M,M,M,M,75.20,KHTH 180335Z AUTO 20005KT 10SM BKN110 24/15 A3013 RMK A01,M
TMT,2022-08-18 03:35,-117.1971,39.4643,1749.34,M,M,M,190.00,6.00,0.00,30.18,M,10.00,M,CLR,M,M,M,M,M,M,M,M,M,M,M,M,M,M,M,KTMT 180335Z AUTO 19006KT 10SM CLR A3018 RMK AO2,M
ELY,2022-08-18 03:53,-114.8453,39.2950,1909.00,76.00,38.00,25.31,0.00,0.00,0.00,30.22,1012.20,10.00,M,CLR,M,M,M,M,M,M,M,M,M,M,M,M,M,M,75.90,KELY 180353Z AUTO 00000KT 10SM CLR 24/03 A3022 RMK AO2 SLP122 T02440033,M
DRA,2022-08-18 03:53,-116.0278,36.6206,1009.00,93.00,51.00,24.15,110.00,4.00,0.00,29.95,1008.10,10.00,M,CLR,M,M,M,M,M,M,M,M,M,M,M,M,M,M,90.11,KDRA 180353Z AUTO 11004KT 10SM CLR 34/11 A2995 RMK AO2 SLP081 T03390106,M
LOL,2022-08-18 03:53,-118.5701,40.0684,1192.43,76.00,54.00,46.57,200.00,9.00,0.00,30.05,1013.60,10.00,M,FEW,M,M,M,11000.00,M,M,M,M,M,M,M,M,M,M,75.90,KLOL 180353Z AUTO 20009KT 10SM FEW110 24/12 A3005 RMK AO2 PRESRR SLP136 T02440122,M
VGT,2022-08-18 03:53,-115.1933,36.2111,667.00,98.00,57.00,25.61,110.00,8.00,0.00,29.88,1010.10,10.00,M,CLR,M,M,M,M,M,M,M,M,M,M,M,M,M,M,97.13,KVGT 180353Z AUTO 11008KT 10SM CLR 37/14 A2988 RMK AO2 SLP101 T03670139,M
P68,2022-08-18 03:53,-116.0056,39.6014,1993.00,78.00,41.00,26.55,140.00,10.00,0.00,30.17,1011.90,M,M,M,M,M,M,M,M,M,M,M,M,M,M,M,M,M,78.10,KP68 180353Z AUTO 14010KT 26/05 A3017 RMK AO1 SLP119 T02560050,M
BVU,2022-08-18 03:55,-114.8611,35.9475,671.00,91.40,59.00,33.84,100.00,5.00,0.00,29.90,M,M,M,M,M,M,M,M,M,M,M,M,M,M,M,M,M,M,90.68,KBVU 180355Z AUTO 10005KT 33/15 A2990 RMK AO2 PWINO TSNO,M
HTH,2022-08-18 03:55,-118.6315,38.5448,1282.89,75.20,57.20,53.55,210.00,6.00,0.00,30.13,M,10.00,11.00,FEW,SCT,BKN,M,5000.00,6000.00,7500.00,M,M,M,M,M,M,M,M,75.20,KHTH 180355Z AUTO 21006G11KT 10SM FEW050 SCT060 BKN075 24/14 A3013 RMK A01,M
BAM,2022-08-18 03:55,-116.8743,40.5990,1382.36,86.00,42.80,22.02,240.00,7.00,0.00,30.05,M,10.00,M,CLR,M,M,M,M,M,M,M,M,M,M,M,M,M,M,82.95,KBAM 180355Z AUTO 24007KT 10SM CLR 30/06 A3005 RMK AO1,M
MEV,2022-08-18 03:55,-119.7500,38.9963,1441.42,66.20,60.80,82.74,350.00,6.00,0.00,30.23,M,9.00,M,FEW,SCT,BKN,M,800.00,3900.00,5500.00,M,-RA,M,M,M,M,M,M,66.20,KMEV 180355Z AUTO 35006KT 9SM -RA FEW008 SCT039 BKN055 19/16 A3023 RMK AO2,M
RTS,2022-08-18 03:55,-119.8764,39.6682,1539.00,69.80,50.00,49.37,320.00,13.00,0.00,30.24,M,10.00,M,FEW,SCT,BKN,M,4200.00,5000.00,7500.00,M,-DZ,M,M,M,M,M,M,69.80,KRTS 180355Z AUTO 32013KT 10SM -DZ FEW042 SCT050 BKN075 21/10 A3024 RMK AO2,M
CXP,2022-08-18 03:55,-119.7326,39.1923,1431.00,66.20,59.00,77.60,250.00,3.00,0.01,30.25,M,8.00,M,FEW,BKN,OVC,M,4900.00,6500.00,7500.00,M,-RA,M,M,M,M,M,M,66.20,KCXP 180355Z AUTO 25003KT 8SM -RA FEW049 BKN065 OVC075 19/15 A3025 RMK AO2 P0001,M
RNO,2022-08-18 03:55,-119.7711,39.4839,1341.00,75.00,58.00,55.28,260.00,8.00,T,30.18,1016.20,10.00,M,BKN,BKN,M,M,8000.00,14000.00,M,M,-RA,M,M,M,M,M,M,75.00,KRNO 180355Z 26008KT 10SM -RA BKN080 BKN140 24/14 A3018 RMK AO2 RAB07 SLP162 P0000 T02390144,M
TMT,2022-08-18 03:55,-117.1971,39.4643,1749.34,M,M,M,210.00,11.00,0.00,30.19,M,10.00,M,SCT,M,M,M,12000.00,M,M,M,M,M,M,M,M,M,M,M,KTMT 180355Z AUTO 21011KT 10SM SCT120 A3019 RMK AO2,M
NFL,2022-08-18 03:56,-118.7010,39.4166,1199.00,80.00,51.00,36.44,230.00,15.00,0.00,30.12,1016.40,10.00,22.00,SCT,BKN,BKN,M,8000.00,12000.00,25000.00,M,M,M,M,M,26.00,240.00,2022-08-18 03:07,79.72,KNFL 180356Z 23015G22KT 10SM SCT080 BKN120 BKN250 27/11 A3012 RMK PK WND 24026/0307 SLP164 SH VC ALQDS T02670106,M
LAS,2022-08-18 03:56,-115.1634,36.0719,663.00,94.00,60.00,32.56,180.00,5.00,0.00,29.89,1008.90,10.00,M,FEW,FEW,M,M,12000.00,25000.00,M,M,M,M,M,M,M,M,M,93.77,KLAS 180356Z 18005KT 10SM FEW120 FEW250 34/16 A2989 RMK AO2 SLP089 T03440156,M
TPH,2022-08-18 03:56,-117.0904,38.0505,1654.00,78.00,51.00,38.92,300.00,20.00,0.00,30.15,1012.40,10.00,29.00,BKN,OVC,M,M,10000.00,12000.00,M,M,M,M,M,M,29.00,290.00,2022-08-18 03:54,78.10,KTPH 180356Z AUTO 30020G29KT 10SM BKN100 OVC120 26/11 A3015 RMK AO2 PK WND 29029/0354 LTG DSNT NE SLP124 T02560106,M
EKO,2022-08-18 03:56,-115.7860,40.8242,1367.00,77.00,37.00,23.55,110.00,5.00,0.00,30.09,1013.20,10.00,M,CLR,M,M,M,M,M,M,M,M,M,M,M,M,M,M,77.00,KEKO 180356Z AUTO 11005KT 10SM CLR 25/03 A3009 RMK AO2 SLP132 T02500028,M
WMC,2022-08-18 03:56,-117.8072,40.9019,1315.00,88.00,40.00,18.47,250.00,19.00,0.00,30.01,1010.10,9.00,27.00,CLR,M,M,M,M,M,M,M,M,M,M,M,27.00,250.00,2022-08-18 03:49,84.41,KWMC 180356Z AUTO 25019G27KT 9SM CLR 31/04 A3001 RMK AO2 PK WND 25027/0349 SLP101 T03110044 $,M
HND,2022-08-18 03:56,-115.1344,35.9729,742.79,90.00,61.00,37.97,160.00,9.00,0.00,29.92,1011.60,10.00,M,CLR,M,M,M,M,M,M,M,M,M,M,M,M,M,M,90.03,KHND 180356Z AUTO 16009KT 10SM CLR 32/16 A2992 RMK AO2 SLP116 T03220161,M
LSV,2022-08-18 03:58,-115.0343,36.2362,570.00,96.80,59.00,28.63,40.00,10.00,0.00,29.89,M,10.00,18.00,BKN,M,M,M,17000.00,M,M,M,M,M,M,M,M,M,M,96.50,KLSV 180358Z COR 04010G18KT 10SM BKN170 36/15 A2989 RMK AO2A SLPNO WND DATA ESTMD ALSTG ESTMD $ COR 0403,M
INS,2022-08-18 03:58,-115.6733,36.5872,955.00,91.20,52.50,26.90,170.00,4.00,0.00,29.94,1008.40,10.00,M,FEW,M,M,M,11000.00,M,M,M,M,M,M,M,M,M,M,88.64,KINS 180358Z AUTO 17004KT 10SM FEW110 33/11 A2994 RMK AO2 SLP084 T03290114,M
HTH,2022-08-18 04:15,-118.6315,38.5448,1282.89,75.20,59.00,57.12,190.00,6.00,0.00,30.13,M,10.00,M,FEW,SCT,OVC,M,5500.00,7500.00,12000.00,M,M,M,M,M,M,M,M,75.20,KHTH 180415Z AUTO 19006KT 10SM FEW055 SCT075 OVC120 24/15 A3013 RMK A01,M
BVU,2022-08-18 04:15,-114.8611,35.9475,671.00,87.80,60.80,40.41,360.00,4.00,0.00,29.90,M,M,M,M,M,M,M,M,M,M,M,M,M,M,M,M,M,M,87.75,KBVU 180415Z AUTO 36004KT 31/16 A2990 RMK AO2 PWINO TSNO,M
CXP,2022-08-18 04:15,-119.7326,39.1923,1431.00,66.20,59.00,77.60,290.00,3.00,0.00,30.26,M,6.00,M,SCT,BKN,OVC,M,5000.00,6500.00,7500.00,M,-RA HZ,M,M,M,M,M,M,66.20,KCXP 180415Z AUTO 29003KT 6SM -RA HZ SCT050 BKN065 OVC075 19/15 A3026 RMK AO2,M
RTS,2022-08-18 04:15,-119.8764,39.6682,1539.00,68.00,53.60,59.97,320.00,7.00,0.00,30.27,M,10.00,M,FEW,SCT,BKN,M,4100.00,7500.00,8500.00,M,-DZ,M,M,M,M,M,M,68.00,KRTS 180415Z AUTO 32007KT 10SM -DZ FEW041 SCT075 BKN085 20/12 A3027 RMK AO2,M
MEV,2022-08-18 04:15,-119.7500,38.9963,1441.42,64.40,59.00,82.62,50.00,4.00,0.00,30.24,M,10.00,M,FEW,SCT,BKN,M,1400.00,4200.00,5500.00,M,-RA,M,M,M,M,M,M,64.40,KMEV 180415Z AUTO 05004KT 10SM -RA FEW014 SCT042 BKN055 18/15 A3024 RMK AO2,M
BAM,2022-08-18 04:15,-116.8743,40.5990,1382.36,86.00,42.80,22.02,210.00,5.00,0.00,30.05,M,10.00,M,CLR,M,M,M,M,M,M,M,M,M,M,M,M,M,M,82.95,KBAM 180415Z AUTO 21005KT 10SM CLR 30/06 A3005 RMK AO1,M
TMT,2022-08-18 04:15,-117.1971,39.4643,1749.34,M,M,M,220.00,6.00,0.00,30.19,M,10.00,M,BKN,M,M,M,12000.00,M,M,M,M,M,M,M,M,M,M,M,KTMT 180415Z AUTO 22006KT 10SM BKN120 A3019 RMK AO2,M
CXP,2022-08-18 04:35,-119.7326,39.1923,1431.00,66.20,60.80,82.74,20.00,4.00,0.00,30.25,M,8.00,M,FEW,BKN,OVC,M,4000.00,5500.00,7500.00,M,-RA,M,M,M,M,M,M,66.20,KCXP 180435Z AUTO 02004KT 8SM -RA FEW040 BKN055 OVC075 19/16 A3025 RMK AO2,M
TMT,2022-08-18 04:35,-117.1971,39.4643,1749.34,M,M,M,200.00,5.00,0.00,30.19,M,10.00,M,OVC,M,M,M,12000.00,M,M,M,M,M,M,M,M,M,M,M,KTMT 180435Z AUTO 20005KT 10SM OVC120 A3019 RMK AO2 LTG DSNT SE AND SW,M
HTH,2022-08-18 04:35,-118.6315,38.5448,1282.89,77.00,55.40,47.25,160.00,7.00,0.00,30.14,M,10.00,M,OVC,M,M,M,12000.00,M,M,M,M,M,M,M,M,M,M,77.00,KHTH 180435Z AUTO 16007KT 10SM OVC120 25/13 A3014 RMK A01,M
BAM,2022-08-18 04:35,-116.8743,40.5990,1382.36,86.00,42.80,22.02,240.00,12.00,0.00,30.05,M,10.00,16.00,CLR,M,M,M,M,M,M,M,M,M,M,M,M,M,M,82.95,KBAM 180435Z AUTO 24012G16KT 10SM CLR 30/06 A3005 RMK AO1,M
MEV,2022-08-18 04:35,-119.7500,38.9963,1441.42,64.40,60.80,88.09,10.00,3.00,0.00,30.23,M,10.00,M,FEW,BKN,OVC,M,5000.00,7000.00,9500.00,M,M,M,M,M,M,M,M,64.40,KMEV 180435Z AUTO 01003KT 10SM FEW050 BKN070 OVC095 18/16 A3023 RMK AO2,M
RTS,2022-08-18 04:35,-119.8764,39.6682,1539.00,68.00,53.60,59.97,280.00,4.00,0.00,30.29,M,10.00,M,FEW,SCT,BKN,M,3500.00,6000.00,7500.00,M,-DZ,M,M,M,M,M,M,68.00,KRTS 180435Z AUTO 28004KT 10SM -DZ FEW035 SCT060 BKN075 20/12 A3029 RMK AO2,M
BVU,2022-08-18 04:35,-114.8611,35.9475,671.00,87.80,62.60,43.07,50.00,7.00,0.00,29.91,M,M,M,M,M,M,M,M,M,M,M,M,M,M,M,M,M,M,88.48,KBVU 180435Z AUTO 05007KT 31/17 A2991 RMK AO2 PWINO TSNO,M
VGT,2022-08-18 04:53,-115.1933,36.2111,667.00,95.00,58.00,29.09,70.00,11.00,0.00,29.90,1010.90,10.00,M,CLR,M,M,M,M,M,M,M,M,M,M,M,M,M,M,94.08,KVGT 180453Z AUTO 07011KT 10SM CLR 35/14 A2990 RMK AO2 SLP109 T03500144,M
DRA,2022-08-18 04:53,-116.0278,36.6206,1009.00,91.00,52.00,26.57,100.00,6.00,0.00,29.96,1008.30,10.00,M,BKN,M,M,M,11000.00,M,M,M,M,M,M,M,M,M,M,88.35,KDRA 180453Z AUTO 10006KT 10SM BKN110 33/11 A2996 RMK AO2 SLP083 T03280111,M
P68,2022-08-18 04:53,-116.0056,39.6014,1993.00,77.00,43.00,29.74,130.00,8.00,0.00,30.17,1011.40,M,M,M,M,M,M,M,M,M,M,M,M,M,M,M,M,M,77.00,KP68 180453Z AUTO 13008KT 25/06 A3017 RMK AO1 SLP114 T02500061,M
ELY,2022-08-18 04:53,-114.8453,39.2950,1909.00,68.00,44.00,42.04,190.00,8.00,0.00,30.23,1012.70,10.00,M,CLR,M,M,M,M,M,M,M,M,M,M,M,M,M,M,68.00,KELY 180453Z AUTO 19008KT 10SM CLR 20/07 A3023 RMK AO2 SLP127 T02000067,M
LOL,2022-08-18 04:53,-118.5701,40.0684,1192.43,80.00,51.00,36.44,260.00,14.00,T,30.06,1013.30,10.00,M,FEW,M,M,M,7500.00,M,M,M,M,M,M,M,M,M,M,79.72,KLOL 180453Z AUTO 26014KT 10SM FEW075 27/11 A3006 RMK AO2 RAB21E32 SLP133 P0000 T02670106,M
CXP,2022-08-18 04:55,-119.7326,39.1923,1431.00,64.40,60.80,88.09,190.00,3.00,0.03,30.25,M,9.00,M,FEW,SCT,OVC,M,4200.00,5000.00,7000.00,M,-RA,M,M,M,M,M,M,64.40,KCXP 180455Z AUTO 19003KT 9SM -RA FEW042 SCT050 OVC070 18/16 A3025 RMK AO2 P0003,M
BAM,2022-08-18 04:55,-116.8743,40.5990,1382.36,86.00,42.80,22.02,230.00,9.00,0.00,30.05,M,10.00,M,CLR,M,M,M,M,M,M,M,M,M,M,M,M,M,M,82.95,KBAM 180455Z AUTO 23009KT 10SM CLR 30/06 A3005 RMK AO1,M
MEV,2022-08-18 04:55,-119.7500,38.9963,1441.42,64.40,60.80,88.09,60.00,4.00,0.01,30.22,M,10.00,10.00,FEW,BKN,OVC,M,3100.00,6000.00,7500.00,M,-RA,M,M,M,M,M,M,64.40,KMEV 180455Z AUTO 06004G10KT 10SM -RA FEW031 BKN060 OVC075 18/16 A3022 RMK AO2 P0001,M
HTH,2022-08-18 04:55,-118.6315,38.5448,1282.89,77.00,51.80,41.42,260.00,13.00,0.00,30.15,M,10.00,22.00,FEW,SCT,OVC,M,4600.00,6000.00,11000.00,M,M,M,M,M,M,M,M,77.00,KHTH 180455Z AUTO 26013G22KT 10SM FEW046 SCT060 OVC110 25/11 A3015 RMK A01,M
RTS,2022-08-18 04:55,-119.8764,39.6682,1539.00,66.20,57.20,72.74,0.00,0.00,0.01,30.29,M,8.00,M,FEW,SCT,OVC,M,3700.00,7000.00,9500.00,M,-DZ,M,M,M,M,M,M,66.20,KRTS 180455Z AUTO 00000KT 8SM -DZ FEW037 SCT070 OVC095 19/14 A3029 RMK AO2 P0001,M
RNO,2022-08-18 04:55,-119.7711,39.4839,1341.00,70.00,61.00,73.11,70.00,4.00,0.02,30.23,1018.00,10.00,M,OVC,M,M,M,10000.00,M,M,M,M,M,M,M,M,M,M,70.00,KRNO 180455Z 07004KT 10SM OVC100 21/16 A3023 RMK AO2 RAE53 SLP180 P0002 T02110161,M
TMT,2022-08-18 04:55,-117.1971,39.4643,1749.34,M,M,M,210.00,7.00,0.00,30.19,M,10.00,M,BKN,M,M,M,12000.00,M,M,M,M,M,M,M,M,M,M,M,KTMT 180455Z AUTO 21007KT 10SM BKN120 A3019 RMK AO2,M
BVU,2022-08-18 04:55,-114.8611,35.9475,671.00,89.60,60.80,38.18,60.00,6.00,0.00,29.91,M,M,M,M,M,M,M,M,M,M,M,M,M,M,M,M,M,M,89.54,KBVU 180455Z AUTO 06006KT 32/16 A2991 RMK AO2 PWINO TSNO,M
TPH,2022-08-18 04:56,-117.0904,38.0505,1654.00,78.00,52.00,40.23,30.00,4.00,0.00,30.20,1013.50,10.00,M,BKN,M,M,M,11000.00,M,M,M,M,M,M,M,27.00,300.00,2022-08-18 03:57,78.10,KTPH 180456Z AUTO 03004KT 10SM BKN110 26/11 A3020 RMK AO2 PK WND 30027/0357 LTG DSNT E AND SE SLP135 T02560111,M
NFL,2022-08-18 04:56,-118.7010,39.4166,1199.00,75.00,55.00,49.78,270.00,17.00,0.00,30.11,1016.30,10.00,23.00,SCT,BKN,BKN,M,8000.00,12000.00,25000.00,M,M,M,M,M,M,M,M,75.00,KNFL 180456Z 27017G23KT 10SM SCT080 BKN120 BKN250 24/13 A3011 RMK AO2 SLP163 SH VC ALQDS T02390128,M
WMC,2022-08-18 04:56,-117.8072,40.9019,1315.00,87.00,40.00,19.01,220.00,13.00,0.00,30.05,1011.20,10.00,19.00,CLR,M,M,M,M,M,M,M,M,M,M,M,28.00,240.00,2022-08-18 04:20,83.68,KWMC 180456Z AUTO 22013G19KT 10SM CLR 31/04 A3005 RMK AO2 PK WND 24028/0420 SLP112 T03060044 $,M
EKO,2022-08-18 04:56,-115.7860,40.8242,1367.00,75.00,37.00,25.17,30.00,5.00,0.00,30.10,1013.00,10.00,M,CLR,M,M,M,M,M,M,M,M,M,M,M,M,M,M,75.00,KEKO 180456Z AUTO 03005KT 10SM CLR 24/03 A3010 RMK AO2 SLP130 T02390028,M
HND,2022-08-18 04:56,-115.1344,35.9729,742.79,88.00,64.00,44.95,210.00,8.00,0.00,29.93,1012.00,10.00,M,FEW,M,M,M,11000.00,M,M,M,M,M,M,M,M,M,M,89.34,KHND 180456Z AUTO 21008KT 10SM FEW110 31/18 A2993 RMK AO2 SLP120 T03110178,M
LAS,2022-08-18 04:56,-115.1634,36.0719,663.00,93.00,60.00,33.48,10.00,4.00,0.00,29.91,1009.50,10.00,M,SCT,BKN,M,M,11000.00,25000.00,M,M,M,M,M,M,M,M,M,92.80,KLAS 180456Z 01004KT 10SM SCT110 BKN250 34/16 A2991 RMK AO2 SLP095 T03390156,M
INS,2022-08-18 04:58,-115.6733,36.5872,955.00,89.40,54.70,30.85,90.00,16.00,0.00,29.97,1009.40,10.00,23.00,BKN,M,M,M,11000.00,M,M,M,M,M,M,M,M,M,M,87.42,KINS 180458Z AUTO 09016G23KT 10SM BKN110 32/13 A2997 RMK AO2 SLP094 T03190126,M
LSV,2022-08-18 04:58,-115.0343,36.2362,570.00,93.20,60.80,34.11,40.00,15.00,0.00,29.90,M,10.00,M,SCT,M,M,M,17000.00,M,M,M,M,M,M,M,M,M,M,93.32,KLSV 180458Z 04015KT 10SM SCT170 34/16 A2990 RMK AO2A SLPNO WND DATA ESTMD ALSTG ESTMD $,M
INS,2022-08-18 05:05,-115.6733,36.5872,955.00,89.60,55.40,31.45,60.00,14.00,0.00,29.97,1009.40,10.00,23.00,SCT,M,M,M,10000.00,M,M,M,M,M,M,M,M,M,M,87.78,KINS 180505Z AUTO 06014G23KT 10SM SCT100 32/13 A2997 RMK AO2 WSHFT 01 SLP094,M
MEV,2022-08-18 05:15,-119.7500,38.9963,1441.42,64.40,60.80,88.09,230.00,10.00,0.00,30.24,M,10.00,M,SCT,BKN,OVC,M,3900.00,5000.00,6500.00,M,-RA,M,M,M,M,M,M,64.40,KMEV 180515Z AUTO 23010KT 10SM -RA SCT039 BKN050 OVC065 18/16 A3024 RMK AO2,M
BAM,2022-08-18 05:15,-116.8743,40.5990,1382.36,84.20,42.80,23.33,230.00,11.00,0.00,30.05,M,10.00,M,CLR,M,M,M,M,M,M,M,M,M,M,M,M,M,M,81.61,KBAM 180515Z AUTO 23011KT 10SM CLR 29/06 A3005 RMK AO1,M
CXP,2022-08-18 05:15,-119.7326,39.1923,1431.00,64.40,60.80,88.09,150.00,4.00,0.00,30.25,M,10.00,M,FEW,SCT,OVC,M,4700.00,6500.00,10000.00,M,M,M,M,M,M,M,M,64.40,KCXP 180515Z AUTO 15004KT 10SM FEW047 SCT065 OVC100 18/16 A3025 RMK AO2,M
TMT,2022-08-18 05:15,-117.1971,39.4643,1749.34,M,M,M,210.00,15.00,0.00,30.21,M,10.00,M,BKN,M,M,M,12000.00,M,M,M,-RA,M,M,M,M,M,M,M,KTMT 180515Z AUTO 21015KT 10SM -RA BKN120 A3021 RMK AO2 LTG DSNT SE,M
HTH,2022-08-18 05:15,-118.6315,38.5448,1282.89,75.20,51.80,43.97,260.00,20.00,0.00,30.15,M,9.00,M,FEW,SCT,BKN,M,300.00,3200.00,6500.00,M,M,M,M,M,M,M,M,75.20,KHTH 180515Z AUTO 26020KT 9SM FEW003 SCT032 BKN065 24/11 A3015 RMK A01,M
BVU,2022-08-18 05:15,-114.8611,35.9475,671.00,91.40,60.80,36.08,100.00,5.00,0.00,29.91,M,M,M,M,M,M,M,M,M,M,M,M,M,M,M,M,M,M,91.40,KBVU 180515Z AUTO 10005KT 33/16 A2991 RMK AO2 PWINO TSNO,M
RTS,2022-08-18 05:15,-119.8764,39.6682,1539.00,64.40,57.20,77.45,310.00,9.00,0.00,30.27,M,10.00,M,FEW,SCT,BKN,M,3100.00,7000.00,8000.00,M,-DZ,M,M,M,M,M,M,64.40,KRTS 180515Z AUTO 31009KT 10SM -DZ FEW031 SCT070 BKN080 18/14 A3027 RMK AO2,M
BVU,2022-08-18 05:35,-114.8611,35.9475,671.00,87.80,62.60,43.07,0.00,0.00,0.00,29.91,M,M,M,M,M,M,M,M,M,M,M,M,M,M,M,M,M,M,88.48,KBVU 180535Z AUTO 00000KT 31/17 A2991 RMK AO2 PWINO TSNO,M
MEV,2022-08-18 05:35,-119.7500,38.9963,1441.42,62.60,59.00,88.00,0.00,0.00,0.00,30.24,M,10.00,M,FEW,SCT,OVC,M,3100.00,4800.00,11000.00,M,M,M,M,M,M,M,M,62.60,KMEV 180535Z AUTO 00000KT 10SM FEW031 SCT048 OVC110 17/15 A3024 RMK AO2,M
HTH,2022-08-18 05:35,-118.6315,38.5448,1282.89,77.00,48.20,36.22,280.00,23.00,0.00,30.14,M,10.00,35.00,FEW,SCT,BKN,M,3100.00,7000.00,8000.00,M,M,M,M,M,M,M,M,77.00,KHTH 180535Z AUTO 28023G35KT 10SM FEW031 SCT070 BKN080 25/09 A3014 RMK A01,M
RTS,2022-08-18 05:35,-119.8764,39.6682,1539.00,62.60,57.20,82.50,290.00,9.00,0.00,30.26,M,10.00,M,SCT,BKN,OVC,M,5500.00,7500.00,9500.00,M,M,M,M,M,M,M,M,62.60,KRTS 180535Z AUTO 29009KT 10SM SCT055 BKN075 OVC095 17/14 A3026 RMK AO2,M
CXP,2022-08-18 05:35,-119.7326,39.1923,1431.00,64.40,60.80,88.09,0.00,0.00,0.00,30.24,M,9.00,M,FEW,BKN,OVC,M,6500.00,7500.00,10000.00,M,-RA,M,M,M,M,M,M,64.40,KCXP 180535Z AUTO 00000KT 9SM -RA FEW065 BKN075 OVC100 18/16 A3024 RMK AO2,M
BAM,2022-08-18 05:35,-116.8743,40.5990,1382.36,82.40,42.80,24.72,210.00,8.00,0.00,30.05,M,10.00,M,CLR,M,M,M,M,M,M,M,M,M,M,M,M,M,M,80.39,KBAM 180535Z AUTO 21008KT 10SM CLR 28/06 A3005 RMK AO1,M
TMT,2022-08-18 05:35,-117.1971,39.4643,1749.34,M,M,M,240.00,12.00,0.00,30.22,M,10.00,M,OVC,M,M,M,12000.00,M,M,M,-DZ,M,M,M,M,M,M,M,KTMT 180535Z AUTO 24012KT 10SM -DZ OVC120 A3022 RMK AO2 LTG DSNT SE,M
P68,2022-08-18 05:53,-116.0056,39.6014,1993.00,74.00,45.00,35.60,220.00,5.00,0.00,30.17,1011.50,M,M,M,M,M,M,M,M,M,M,M,M,M,M,M,M,M,73.90,KP68 180553Z AUTO 22005KT 23/07 A3017 RMK AO1 SLP115 T02330072 10317 20233 51006,M
VGT,2022-08-18 05:53,-115.1933,36.2111,667.00,93.00,60.00,33.48,80.00,11.00,0.00,29.90,1011.00,10.00,M,CLR,M,M,M,M,M,M,M,M,M,M,M,M,M,M,92.80,KVGT 180553Z AUTO 08011KT 10SM CLR 34/16 A2990 RMK AO2 SLP110 T03390156 10406 20339 51017,M
ELY,2022-08-18 05:53,-114.8453,39.2950,1909.00,69.00,49.00,48.53,220.00,9.00,0.00,30.24,1012.50,10.00,M,CLR,M,M,M,M,M,M,M,M,M,M,M,M,M,M,69.10,KELY 180553Z AUTO 22009KT 10SM CLR 21/09 A3024 RMK AO2 SLP125 T02060094 10311 20194 51012,M
LOL,2022-08-18 05:53,-118.5701,40.0684,1192.43,79.00,51.00,37.78,280.00,19.00,0.00,30.06,1012.90,10.00,26.00,CLR,M,M,M,M,M,M,M,M,M,M,M,27.00,280.00,2022-08-18 05:42,79.00,KLOL 180553Z AUTO 28019G26KT 10SM CLR 26/11 A3006 RMK AO2 PK WND 28027/0542 SLP129 60001 T02610106 10361 20239 50004,M
DRA,2022-08-18 05:53,-116.0278,36.6206,1009.00,85.00,59.00,41.58,20.00,21.00,0.00,30.01,1010.30,10.00,27.00,BKN,M,M,M,11000.00,M,M,M,M,M,M,M,35.00,20.00,2022-08-18 05:40,84.51,KDRA 180553Z AUTO 02021G27KT 10SM BKN110 29/15 A3001 RMK AO2 PK WND 02035/0540 SLP103 T02940150 10378 20294 53023,M
CXP,2022-08-18 05:55,-119.7326,39.1923,1431.00,64.40,60.80,88.09,M,3.00,0.00,30.25,M,10.00,10.00,FEW,BKN,OVC,M,6000.00,7000.00,11000.00,M,-RA,M,M,M,M,M,M,64.40,KCXP 180555Z AUTO VRB03G10KT 10SM -RA FEW060 BKN070 OVC110 18/16 A3025 RMK AO2,M
TMT,2022-08-18 05:55,-117.1971,39.4643,1749.34,M,M,M,260.00,9.00,0.00,30.22,M,10.00,M,BKN,OVC,M,M,9000.00,11000.00,M,M,M,M,M,M,M,M,M,M,KTMT 180555Z AUTO 26009KT 10SM BKN090 OVC110 A3022 RMK AO2 LTG DSNT S,M
BAM,2022-08-18 05:55,-116.8743,40.5990,1382.36,80.60,42.80,26.22,0.00,0.00,0.00,30.06,M,10.00,M,CLR,M,M,M,M,M,M,M,M,M,M,M,M,M,M,79.30,KBAM 180555Z AUTO 00000KT 10SM CLR 27/06 A3006 RMK AO1,M
HTH,2022-08-18 05:55,-118.6315,38.5448,1282.89,77.00,51.80,41.42,M,4.00,0.00,30.18,M,10.00,21.00,SCT,BKN,OVC,M,5000.00,6000.00,10000.00,M,M,M,M,M,M,M,M,77.00,KHTH 180555Z AUTO VRB04G21KT 10SM SCT050 BKN060 OVC100 25/11 A3018 RMK A01,M
RTS,2022-08-18 05:55,-119.8764,39.6682,1539.00,62.60,57.20,82.50,300.00,6.00,0.00,30.26,M,9.00,M,FEW,SCT,BKN,M,3200.00,4500.00,5500.00,M,-DZ,M,M,M,M,M,M,62.60,KRTS 180555Z AUTO 30006KT 9SM -DZ FEW032 SCT045 BKN055 17/14 A3026 RMK AO2,M
MEV,2022-08-18 05:55,-119.7500,38.9963,1441.42,64.40,59.00,82.62,290.00,5.00,0.00,30.25,M,10.00,M,FEW,FEW,OVC,M,2900.00,4200.00,11000.00,M,M,M,M,M,M,M,M,64.40,KMEV 180555Z AUTO 29005KT 10SM FEW029 FEW042 OVC110 18/15 A3025 RMK AO2,M
RNO,2022-08-18 05:55,-119.7711,39.4839,1341.00,67.00,60.00,78.77,0.00,0.00,0.03,30.22,1017.70,8.00,M,FEW,OVC,M,M,7000.00,10000.00,M,M,-RA,M,M,M,M,M,M,66.90,KRNO 180555Z COR 00000KT 8SM -RA FEW070 OVC100 19/16 A3022 RMK AO2 RAB24 SLP177 P0003 60005 T01940156 10300 20194 50019,M
BVU,2022-08-18 05:55,-114.8611,35.9475,671.00,87.80,62.60,43.07,0.00,0.00,0.00,29.91,M,M,M,M,M,M,M,M,M,M,M,M,M,M,M,M,M,M,88.48,KBVU 180555Z AUTO 00000KT 31/17 A2991 RMK AO2 PWINO TSNO,M
TPH,2022-08-18 05:56,-117.0904,38.0505,1654.00,74.00,53.00,48.18,160.00,6.00,0.00,30.24,1015.00,10.00,M,SCT,BKN,OVC,M,5500.00,7500.00,9000.00,M,M,M,M,M,26.00,70.00,2022-08-18 05:16,73.90,KTPH 180556Z AUTO 16006KT 10SM SCT055 BKN075 OVC090 23/12 A3024 RMK AO2 PK WND 07026/0516 LTG DSNT NE AND SW AND W SLP150 60000 T02330117 10311 20233 53030,M
HND,2022-08-18 05:56,-115.1344,35.9729,742.79,90.00,63.00,40.75,0.00,0.00,0.00,29.94,1012.10,10.00,M,CLR,M,M,M,M,M,M,M,M,M,M,M,M,M,M,90.93,KHND 180556Z AUTO 00000KT 10SM CLR 32/17 A2994 RMK AO2 SLP121 T03220172 10339 20300 51010,M
NFL,2022-08-18 05:56,-118.7010,39.4166,1199.00,74.00,55.00,51.64,250.00,10.00,0.00,30.12,1016.60,10.00,M,SCT,BKN,BKN,M,8000.00,12000.00,25000.00,M,M,M,M,M,M,M,M,73.90,KNFL 180556Z 25010KT 10SM SCT080 BKN120 BKN250 23/13 A3012 RMK AO2 SLP166 SH VC ALQDS 60000 T02330128 10328 20233 51015,M
WMC,2022-08-18 05:56,-117.8072,40.9019,1315.00,84.00,44.00,24.68,230.00,16.00,0.00,30.05,1011.00,10.00,27.00,CLR,M,M,M,M,M,M,M,M,M,M,M,28.00,230.00,2022-08-18 05:18,81.55,KWMC 180556Z AUTO 23016G27KT 10SM CLR 29/07 A3005 RMK AO2 PK WND 23028/0518 SLP110 T02890067 10389 20289 51016 $,M
EKO,2022-08-18 05:56,-115.7860,40.8242,1367.00,67.00,38.00,34.35,0.00,0.00,0.00,30.11,1013.30,10.00,M,CLR,M,M,M,M,M,M,M,M,M,M,M,M,M,M,66.90,KEKO 180556Z AUTO 00000KT 10SM CLR 19/03 A3011 RMK AO2 SLP133 T01940033 10350 20189 51009,M
LAS,2022-08-18 05:56,-115.1634,36.0719,663.00,92.00,60.00,34.65,80.00,9.00,0.00,29.91,1009.70,10.00,M,FEW,SCT,M,M,11000.00,20000.00,M,M,M,M,M,M,M,M,M,91.63,KLAS 180556Z 08009KT 10SM FEW110 SCT200 33/16 A2991 RMK AO2 SLP097 ACC S T03330156 10383 20333 51015,M
INS,2022-08-18 05:58,-115.6733,36.5872,955.00,85.60,55.60,35.97,40.00,7.00,0.00,29.98,1009.70,10.00,M,CLR,M,M,M,M,M,M,M,M,M,M,M,M,M,M,84.25,KINS 180558Z AUTO 04007KT 10SM CLR 30/13 A2998 RMK AO2 SLP097 T02980131 10369 20298 52017,M
LSV,2022-08-18 05:58,-115.0343,36.2362,570.00,91.40,59.00,33.84,30.00,12.00,0.00,29.90,M,10.00,M,FEW,SCT,M,M,15000.00,20000.00,M,M,M,M,M,M,M,M,M,90.68,KLSV 180558Z 03012KT 10SM FEW150 SCT200 33/15 A2990 RMK AO2A WND DATA ESTMD ALSTG ESTMD 10414 20360 $,M
BAM,2022-08-18 06:15,-116.8743,40.5990,1382.36,80.60,42.80,26.22,150.00,6.00,0.00,30.07,M,10.00,M,CLR,M,M,M,M,M,M,M,M,M,M,M,M,M,M,79.30,KBAM 180615Z AUTO 15006KT 10SM CLR 27/06 A3007 RMK AO1,M
MEV,2022-08-18 06:15,-119.7500,38.9963,1441.42,64.40,59.00,82.62,320.00,3.00,0.00,30.24,M,10.00,M,FEW,OVC,M,M,7000.00,11000.00,M,M,M,M,M,M,M,M,M,64.40,KMEV 180615Z AUTO 32003KT 10SM FEW070 OVC110 18/15 A3024 RMK AO2,M
RTS,2022-08-18 06:15,-119.8764,39.6682,1539.00,62.60,57.20,82.50,360.00,7.00,0.00,30.26,M,6.00,M,SCT,BKN,OVC,M,3300.00,4100.00,7000.00,M,-RA,M,M,M,M,M,M,62.60,KRTS 180615Z AUTO 36007KT 6SM -RA SCT033 BKN041 OVC070 17/14 A3026 RMK AO2,M
HTH,2022-08-18 06:15,-118.6315,38.5448,1282.89,71.60,57.20,60.44,200.00,10.00,0.00,30.21,M,6.00,15.00,FEW,SCT,BKN,M,3300.00,4900.00,6500.00,M,HZ,M,M,M,M,M,M,71.60,KHTH 180615Z AUTO 20010G15KT 6SM HZ FEW033 SCT049 BKN065 22/14 A3021 RMK A01,M
TMT,2022-08-18 06:15,-117.1971,39.4643,1749.34,71.60,51.00,48.01,220.00,16.00,0.00,30.23,M,10.00,19.00,SCT,SCT,OVC,M,6500.00,7500.00,11000.00,M,-DZ,M,M,M,M,M,M,71.60,KTMT 180615Z AUTO 22016G19KT 10SM -DZ SCT065 SCT075 OVC110 22/11 A3023 RMK AO2 LTG DSNT SE T02200105,M
CXP,2022-08-18 06:15,-119.7326,39.1923,1431.00,64.40,60.80,88.09,0.00,0.00,0.00,30.26,M,9.00,M,FEW,SCT,OVC,M,3400.00,7500.00,11000.00,M,-RA,M,M,M,M,M,M,64.40,KCXP 180615Z AUTO 00000KT 9SM -RA FEW034 SCT075 OVC110 18/16 A3026 RMK AO2,M
BVU,2022-08-18 06:15,-114.8611,35.9475,671.00,84.20,62.60,48.32,10.00,4.00,0.00,29.91,M,M,M,M,M,M,M,M,M,M,M,M,M,M,M,M,M,M,85.03,KBVU 180615Z AUTO 01004KT 29/17 A2991 RMK AO2 PWINO TSNO,M
TMT,2022-08-18 06:35,-117.1971,39.4643,1749.34,69.80,52.00,53.16,210.00,18.00,0.00,30.26,M,10.00,24.00,OVC,M,M,M,11000.00,M,M,M,-RA,M,M,M,M,M,M,69.80,KTMT 180635Z AUTO 21018G24KT 10SM -RA OVC110 21/11 A3026 RMK AO2 T02100111,M
HTH,2022-08-18 06:35,-118.6315,38.5448,1282.89,68.00,60.80,77.75,150.00,6.00,0.00,30.22,M,4.00,M,BKN,BKN,OVC,M,3700.00,4700.00,6000.00,M,HZ,M,M,M,M,M,M,68.00,KHTH 180635Z AUTO 15006KT 4SM HZ BKN037 BKN047 OVC060 20/16 A3022 RMK A01,M
BAM,2022-08-18 06:35,-116.8743,40.5990,1382.36,78.80,42.80,27.81,230.00,6.00,0.00,30.08,M,7.00,M,CLR,M,M,M,M,M,M,M,M,M,M,M,M,M,M,78.80,KBAM 180635Z AUTO 23006KT 7SM CLR 26/06 A3008 RMK AO1,M
MEV,2022-08-18 06:35,-119.7500,38.9963,1441.42,64.40,59.00,82.62,0.00,0.00,0.00,30.24,M,10.00,M,FEW,SCT,BKN,M,2200.00,7500.00,11000.00,M,M,M,M,M,M,M,M,64.40,KMEV 180635Z AUTO 00000KT 10SM FEW022 SCT075 BKN110 18/15 A3024 RMK AO2,M
RTS,2022-08-18 06:35,-119.8764,39.6682,1539.00,62.60,57.20,82.50,M,4.00,0.00,30.26,M,7.00,M,SCT,BKN,OVC,M,3200.00,6500.00,7500.00,M,-RA,M,M,M,M,M,M,62.60,KRTS 180635Z AUTO VRB04KT 7SM -RA SCT032 BKN065 OVC075 17/14 A3026 RMK AO2,M
CXP,2022-08-18 06:35,-119.7326,39.1923,1431.00,64.40,60.80,88.09,10.00,4.00,0.00,30.25,M,10.00,M,FEW,SCT,BKN,M,2800.00,4400.00,6500.00,M,M,M,M,M,M,M,M,64.40,KCXP 180635Z AUTO 01004KT 10SM FEW028 SCT044 BKN065 18/16 A3025 RMK AO2,M
BVU,2022-08-18 06:35,-114.8611,35.9475,671.00,86.00,62.60,45.61,40.00,5.00,0.00,29.91,M,M,M,M,M,M,M,M,M,M,M,M,M,M,M,M,M,M,86.72,KBVU 180635Z AUTO 04005KT 30/17 A2991 RMK AO2 PWINO TSNO,M
CXP,2022-08-18 06:50,-119.7326,39.1923,1431.00,64.40,60.80,88.09,170.00,4.00,0.00,30.25,M,10.00,M,FEW,BKN,OVC,M,4300.00,6000.00,10000.00,M,M,M,M,M,M,M,M,64.40,KCXP 180650Z AUTO 17004KT 10SM FEW043 BKN060 OVC100 18/16 A3025 RMK AO2,M
VGT,2022-08-18 06:53,-115.1933,36.2111,667.00,92.00,60.00,34.65,90.00,5.00,0.00,29.90,1011.00,10.00,M,CLR,M,M,M,M,M,M,M,M,M,M,M,M,M,M,91.63,KVGT 180653Z AUTO 09005KT 10SM CLR 33/16 A2990 RMK AO2 SLP110 T03330156,M
P68,2022-08-18 06:53,-116.0056,39.6014,1993.00,75.00,44.00,33.16,230.00,7.00,0.00,30.20,1012.40,M,M,M,M,M,M,M,M,M,M,M,M,M,M,M,M,M,75.00,KP68 180653Z AUTO 23007KT 24/07 A3020 RMK AO1 SLP124 T02390067,M
ELY,2022-08-18 06:53,-114.8453,39.2950,1909.00,65.00,49.00,56.12,0.00,0.00,0.00,30.26,1013.20,10.00,M,CLR,M,M,M,M,M,M,M,M,M,M,M,M,M,M,64.90,KELY 180653Z AUTO 00000KT 10SM CLR 18/09 A3026 RMK AO2 SLP132 T01830094 403220100,M
LOL,2022-08-18 06:53,-118.5701,40.0684,1192.43,76.00,50.00,40.19,120.00,7.00,0.00,30.08,1013.70,10.00,M,CLR,M,M,M,M,M,M,M,M,M,M,M,M,M,M,75.90,KLOL 180653Z AUTO 12007KT 10SM CLR 24/10 A3008 RMK AO2 SLP137 T02440100,M
DRA,2022-08-18 06:53,-116.0278,36.6206,1009.00,81.00,60.00,49.06,30.00,19.00,0.00,30.02,1010.90,10.00,27.00,SCT,M,M,M,11000.00,M,M,M,M,M,M,M,29.00,40.00,2022-08-18 05:57,81.62,KDRA 180653Z AUTO 03019G27KT 10SM SCT110 27/16 A3002 RMK AO2 PK WND 04029/0557 SLP109 T02720156,M
BVU,2022-08-18 06:55,-114.8611,35.9475,671.00,86.00,62.60,45.61,30.00,8.00,0.00,29.91,M,M,M,M,M,M,M,M,M,M,M,M,M,M,M,M,M,M,86.72,KBVU 180655Z AUTO 03008KT 30/17 A2991 RMK AO2 PWINO TSNO,M
TMT,2022-08-18 06:55,-117.1971,39.4643,1749.34,70.20,52.00,52.44,210.00,14.00,0.00,30.28,M,10.00,22.00,OVC,M,M,M,10000.00,M,M,M,-RA,M,M,M,M,M,M,70.20,KTMT 180655Z AUTO 21014G22KT 10SM -RA OVC100 21/11 A3028 RMK AO2 T02120111,M
HTH,2022-08-18 06:55,-118.6315,38.5448,1282.89,66.20,60.80,82.74,110.00,4.00,0.05,30.21,M,4.00,M,FEW,BKN,OVC,M,700.00,3900.00,7000.00,M,HZ,M,M,M,M,M,M,66.20,KHTH 180655Z AUTO 11004KT 4SM HZ FEW007 BKN039 OVC070 19/16 A3021 RMK A01 P0005,M
BAM,2022-08-18 06:55,-116.8743,40.5990,1382.36,82.40,44.60,26.49,250.00,15.00,0.00,30.08,M,5.00,M,CLR,M,M,M,M,M,M,M,M,M,M,M,M,M,M,80.50,KBAM 180655Z AUTO 25015KT 5SM CLR 28/07 A3008 RMK AO1,M
RNO,2022-08-18 06:55,-119.7711,39.4839,1341.00,64.00,60.00,87.14,70.00,5.00,0.02,30.23,1017.70,7.00,M,FEW,BKN,OVC,M,5000.00,6500.00,8500.00,M,-RA,M,M,M,M,M,M,64.00,KRNO 180655Z 07005KT 7SM -RA FEW050 BKN065 OVC085 18/16 A3023 RMK AO2 SLP177 P0002 T01780156,M
MEV,2022-08-18 06:55,-119.7500,38.9963,1441.42,62.60,59.00,88.00,90.00,4.00,0.00,30.23,M,10.00,M,SCT,M,M,M,12000.00,M,M,M,M,M,M,M,M,M,M,62.60,KMEV 180655Z AUTO 09004KT 10SM SCT120 17/15 A3023 RMK AO2,M
RTS,2022-08-18 06:55,-119.8764,39.6682,1539.00,62.60,55.40,77.29,170.00,4.00,0.05,30.26,M,10.00,M,SCT,BKN,OVC,M,4100.00,6000.00,10000.00,M,-DZ,M,M,M,M,M,M,62.60,KRTS 180655Z AUTO 17004KT 10SM -DZ SCT041 BKN060 OVC100 17/13 A3026 RMK AO2 P0005,M
WMC,2022-08-18 06:56,-117.8072,40.9019,1315.00,82.00,45.00,27.24,240.00,8.00,0.00,30.07,1011.50,10.00,20.00,CLR,M,M,M,M,M,M,M,M,M,M,M,28.00,230.00,2022-08-18 05:57,80.28,KWMC 180656Z AUTO 24008G20KT 10SM CLR 28/07 A3007 RMK AO2 PK WND 23028/0557 SLP115 T02780072 $,M
LAS,2022-08-18 06:56,-115.1634,36.0719,663.00,91.00,59.00,34.27,40.00,6.00,0.00,29.92,1009.80,10.00,M,FEW,BKN,M,M,11000.00,18000.00,M,M,M,M,M,M,M,M,M,90.27,KLAS 180656Z 04006KT 10SM FEW110 BKN180 33/15 A2992 RMK AO2 SLP098 ACC OHD-S-W T03280150,M
HND,2022-08-18 06:56,-115.1344,35.9729,742.79,88.00,62.00,42.05,50.00,4.00,0.00,29.95,1012.40,10.00,M,CLR,M,M,M,M,M,M,M,M,M,M,M,M,M,M,88.47,KHND 180656Z AUTO 05004KT 10SM CLR 31/17 A2995 RMK AO2 SLP124 T03110167 404000261,M
EKO,2022-08-18 06:56,-115.7860,40.8242,1367.00,65.00,39.00,38.44,80.00,4.00,0.00,30.12,1013.50,10.00,M,CLR,M,M,M,M,M,M,M,M,M,M,M,M,M,M,64.90,KEKO 180656Z AUTO 08004KT 10SM CLR 18/04 A3012 RMK AO2 SLP135 T01830039,M
TPH,2022-08-18 06:56,-117.0904,38.0505,1654.00,67.00,59.00,75.74,280.00,5.00,T,30.27,1016.60,5.00,M,FEW,FEW,OVC,M,2500.00,5500.00,8000.00,M,RA,M,M,M,M,M,M,66.90,KTPH 180656Z AUTO 28005KT 5SM RA FEW025 FEW055 OVC080 19/15 A3027 RMK AO2 RAB45 SLP166 P0000 T01940150,M
INS,2022-08-18 06:58,-115.6733,36.5872,955.00,85.00,55.80,37.05,0.00,0.00,0.00,30.00,1010.40,10.00,M,BKN,M,M,M,11000.00,M,M,M,M,M,M,M,M,M,M,83.72,KINS 180658Z AUTO 00000KT 10SM BKN110 29/13 A3000 RMK AO2 SLP104 T02940132,M
LSV,2022-08-18 06:58,-115.0343,36.2362,570.00,91.40,59.00,33.84,70.00,6.00,0.00,29.90,M,10.00,M,FEW,SCT,M,M,15000.00,25000.00,M,M,M,M,M,M,M,M,M,90.68,KLSV 180658Z 07006 10SM FEW150 SCT250 33/15 A2990 RMK AO2A SLPNO RVRNO WND DATA ESTMD ALSTG/SLP ESTMD $,M
BAM,2022-08-18 07:15,-116.8743,40.5990,1382.36,80.60,46.40,30.07,260.00,11.00,0.00,30.09,M,5.00,M,CLR,M,M,M,M,M,M,M,M,M,M,M,M,M,M,79.56,KBAM 180715Z AUTO 26011KT 5SM CLR 27/08 A3009 RMK AO1,M
BVU,2022-08-18 07:15,-114.8611,35.9475,671.00,86.00,62.60,45.61,70.00,4.00,0.00,29.91,M,M,M,M,M,M,M,M,M,M,M,M,M,M,M,M,M,M,86.72,KBVU 180715Z AUTO 07004KT 30/17 A2991 RMK AO2 PWINO TSNO,M
CXP,2022-08-18 07:15,-119.7326,39.1923,1431.00,64.40,60.80,88.09,50.00,6.00,0.00,30.23,M,9.00,M,FEW,SCT,OVC,M,3800.00,5000.00,7000.00,M,-RA,M,M,M,M,M,M,64.40,KCXP 180715Z AUTO 05006KT 9SM -RA FEW038 SCT050 OVC070 18/16 A3023 RMK AO2,M
RTS,2022-08-18 07:15,-119.8764,39.6682,1539.00,62.60,57.20,82.50,100.00,6.00,0.00,30.27,M,10.00,M,FEW,SCT,BKN,M,500.00,3800.00,5000.00,M,-DZ,M,M,M,M,M,M,62.60,KRTS 180715Z AUTO 10006KT 10SM -DZ FEW005 SCT038 BKN050 17/14 A3027 RMK AO2,M
HTH,2022-08-18 07:15,-118.6315,38.5448,1282.89,66.20,60.80,82.74,0.00,0.00,0.00,30.20,M,10.00,M,FEW,BKN,OVC,M,700.00,6000.00,7500.00,M,M,M,M,M,M,M,M,66.20,KHTH 180715Z AUTO 00000KT 10SM FEW007 BKN060 OVC075 19/16 A3020 RMK A01,M
TMT,2022-08-18 07:15,-117.1971,39.4643,1749.34,M,M,M,240.00,13.00,0.00,30.29,M,10.00,M,BKN,OVC,M,M,8000.00,9000.00,M,M,M,M,M,M,M,M,M,M,KTMT 180715Z AUTO 24013KT 10SM BKN080 OVC090 A3029 RMK AO2,M
MEV,2022-08-18 07:15,-119.7500,38.9963,1441.42,60.80,59.00,93.79,120.00,4.00,0.00,30.22,M,10.00,M,FEW,FEW,SCT,M,6000.00,9000.00,12000.00,M,M,M,M,M,M,M,M,60.80,KMEV 180715Z AUTO 12004KT 10SM FEW060 FEW090 SCT120 16/15 A3022 RMK AO2,M
LOL,2022-08-18 07:24,-118.5701,40.0684,1192.43,76.00,53.00,45.06,230.00,14.00,0.00,30.12,M,10.00,24.00,CLR,M,M,M,M,M,M,M,M,M,M,M,M,M,M,75.90,KLOL 180724Z AUTO 23014G24KT 10SM CLR 24/12 A3012 RMK AO2 WSHFT 0704 PRESRR T02440117,M
TMT,2022-08-18 07:35,-117.1971,39.4643,1749.34,66.20,54.50,65.96,240.00,11.00,0.00,30.31,M,10.00,M,OVC,M,M,M,8000.00,M,M,M,RA,M,M,M,M,M,M,66.20,KTMT 180735Z AUTO 24011KT 10SM RA OVC080 19/13 A3031 RMK AO2 T01900125,M
MEV,2022-08-18 07:35,-119.7500,38.9963,1441.42,60.80,59.00,93.79,120.00,7.00,0.00,30.22,M,10.00,M,CLR,M,M,M,M,M,M,M,M,M,M,M,M,M,M,60.80,KMEV 180735Z AUTO 12007KT 10SM CLR 16/15 A3022 RMK AO2,M
HTH,2022-08-18 07:35,-118.6315,38.5448,1282.89,66.20,60.80,82.74,130.00,8.00,0.00,30.21,M,10.00,M,SCT,BKN,OVC,M,6000.00,7000.00,11000.00,M,M,M,M,M,M,M,M,66.20,KHTH 180735Z AUTO 13008KT 10SM SCT060 BKN070 OVC110 19/16 A3021 RMK A01,M
RTS,2022-08-18 07:35,-119.8764,39.6682,1539.00,60.80,57.20,87.92,320.00,4.00,0.00,30.26,M,8.00,M,FEW,BKN,OVC,M,3600.00,5000.00,6500.00,M,-DZ,M,M,M,M,M,M,60.80,KRTS 180735Z AUTO 32004KT 8SM -DZ FEW036 BKN050 OVC065 16/14 A3026 RMK AO2,M
CXP,2022-08-18 07:35,-119.7326,39.1923,1431.00,62.60,60.80,93.83,0.00,0.00,0.00,30.23,M,10.00,M,FEW,SCT,BKN,M,4700.00,5500.00,6500.00,M,M,M,M,M,M,M,M,62.60,KCXP 180735Z AUTO 00000KT 10SM FEW047 SCT055 BKN065 17/16 A3023 RMK AO2,M
BVU,2022-08-18 07:35,-114.8611,35.9475,671.00,86.00,62.60,45.61,50.00,8.00,0.00,29.91,M,M,M,M,M,M,M,M,M,M,M,M,M,M,M,M,M,M,86.72,KBVU 180735Z AUTO 05008KT 30/17 A2991 RMK AO2 PWINO TSNO,M
BAM,2022-08-18 07:35,-116.8743,40.5990,1382.36,80.60,46.40,30.07,240.00,11.00,0.00,30.09,M,7.00,16.00,CLR,M,M,M,M,M,M,M,M,M,M,M,M,M,M,79.56,KBAM 180735Z AUTO 24011G16KT 7SM CLR 27/08 A3009 RMK AO1,M
P68,2022-08-18 07:53,-116.0056,39.6014,1993.00,73.00,48.00,41.10,250.00,8.00,0.00,30.23,1013.30,M,19.00,M,M,M,M,M,M,M,M,M,M,M,M,M,M,M,73.00,KP68 180753Z AUTO 25008G19KT 23/09 A3023 RMK AO1 SLP133 T02280089 403390111,M
ELY,2022-08-18 07:53,-114.8453,39.2950,1909.00,60.00,48.00,64.26,180.00,3.00,0.00,30.26,1013.70,10.00,M,CLR,M,M,M,M,M,M,M,M,M,M,M,M,M,M,60.10,KELY 180753Z AUTO 18003KT 10SM CLR 16/09 A3026 RMK AO2 SLP137 T01560089,M
LOL,2022-08-18 07:53,-118.5701,40.0684,1192.43,75.00,54.00,47.99,210.00,15.00,0.00,30.16,1016.10,10.00,22.00,CLR,M,M,M,M,M,M,M,M,M,M,M,M,M,M,75.00,KLOL 180753Z AUTO 21015G22KT 10SM CLR 24/12 A3016 RMK AO2 WSHFT 0704 SLP161 T02390122 403720156,M
DRA,2022-08-18 07:53,-116.0278,36.6206,1009.00,79.00,60.00,52.38,20.00,14.00,0.00,30.01,1010.50,10.00,M,CLR,M,M,M,M,M,M,M,M,M,M,M,26.00,30.00,2022-08-18 06:58,79.00,KDRA 180753Z AUTO 02014KT 10SM CLR 26/16 A3001 RMK AO2 PK WND 03026/0658 SLP105 T02610156 403830244,M
VGT,2022-08-18 07:53,-115.1933,36.2111,667.00,90.00,60.00,36.77,130.00,4.00,0.00,29.91,1011.20,10.00,M,CLR,M,M,M,M,M,M,M,M,M,M,M,M,M,M,89.66,KVGT 180753Z AUTO 13004KT 10SM CLR 32/16 A2991 RMK AO2 SLP112 T03220156 404060289,M
BAM,2022-08-18 07:55,-116.8743,40.5990,1382.36,80.60,46.40,30.07,240.00,13.00,0.00,30.10,M,10.00,16.00,CLR,M,M,M,M,M,M,M,M,M,M,M,M,M,M,79.56,KBAM 180755Z AUTO 24013G16KT 10SM CLR 27/08 A3010 RMK AO1,M
RTS,2022-08-18 07:55,-119.8764,39.6682,1539.00,60.80,59.00,93.79,0.00,0.00,0.01,30.25,M,10.00,11.00,FEW,SCT,BKN,M,3400.00,4800.00,5500.00,M,-DZ,M,M,M,M,M,M,60.80,KRTS 180755Z AUTO 00000G11KT 10SM -DZ FEW034 SCT048 BKN055 16/15 A3025 RMK AO2 P0001,M
HTH,2022-08-18 07:55,-118.6315,38.5448,1282.89,66.20,60.80,82.74,150.00,6.00,0.00,30.23,M,10.00,M,FEW,SCT,OVC,M,5500.00,7000.00,12000.00,M,M,M,M,M,M,M,M,66.20,KHTH 180755Z AUTO 15006KT 10SM FEW055 SCT070 OVC120 19/16 A3023 RMK A01,M
TMT,2022-08-18 07:55,-117.1971,39.4643,1749.34,63.30,55.80,76.52,250.00,10.00,0.00,30.30,M,10.00,M,SCT,OVC,M,M,7000.00,9500.00,M,M,DZ,M,M,M,M,M,M,63.30,KTMT 180755Z AUTO 25010KT 10SM DZ SCT070 OVC095 17/13 A3030 RMK AO2 T01740132,M
BVU,2022-08-18 07:55,-114.8611,35.9475,671.00,86.00,62.60,45.61,60.00,7.00,0.00,29.92,M,M,M,M,M,M,M,M,M,M,M,M,M,M,M,M,M,M,86.72,KBVU 180755Z AUTO 06007KT 30/17 A2992 RMK AO2 PWINO TSNO,M
CXP,2022-08-18 07:55,-119.7326,39.1923,1431.00,62.60,60.80,93.83,0.00,0.00,0.01,30.24,M,10.00,M,CLR,M,M,M,M,M,M,M,M,M,M,M,M,M,M,62.60,KCXP 180755Z AUTO 00000KT 10SM CLR 17/16 A3024 RMK AO2 P0001,M
RNO,2022-08-18 07:55,-119.7711,39.4839,1341.00,65.00,60.00,84.44,10.00,10.00,0.04,30.19,1016.20,10.00,M,FEW,BKN,OVC,M,5000.00,6000.00,8500.00,M,-RA,M,M,M,M,M,M,64.90,KRNO 180755Z 01010KT 10SM -RA FEW050 BKN060 OVC085 18/16 A3019 RMK AO2 RAE31B54 PRESFR SLP162 P0004 T01830156 403440178 $,M
MEV,2022-08-18 07:55,-119.7500,38.9963,1441.42,60.80,59.00,93.79,0.00,0.00,0.00,30.23,M,10.00,M,CLR,M,M,M,M,M,M,M,M,M,M,M,M,M,M,60.80,KMEV 180755Z AUTO 00000KT 10SM CLR 16/15 A3023 RMK AO2,M
EKO,2022-08-18 07:56,-115.7860,40.8242,1367.00,62.00,38.00,40.62,0.00,0.00,0.00,30.12,1013.60,10.00,M,CLR,M,M,M,M,M,M,M,M,M,M,M,M,M,M,62.10,KEKO 180756Z AUTO 00000KT 10SM CLR 17/03 A3012 RMK AO2 SLP136 T01670033 403500089,M
LSV,2022-08-18 07:56,-115.0343,36.2362,570.00,89.60,59.00,35.81,90.00,8.00,0.00,29.91,1009.80,10.00,M,FEW,SCT,M,M,15000.00,20000.00,M,M,M,M,M,M,M,M,M,88.86,KLSV 180756Z 09008KT 10SM FEW150 SCT200 32/15 A2991 RMK SLP098 WND DATA ESTMD ALSTG/SLP ESTMD $,M
WMC,2022-08-18 07:56,-117.8072,40.9019,1315.00,80.00,44.00,28.01,220.00,5.00,0.00,30.08,1012.00,10.00,M,CLR,M,M,M,M,M,M,M,M,M,M,M,M,M,M,79.12,KWMC 180756Z AUTO 22005KT 10SM CLR 27/07 A3008 RMK AO2 SLP120 T02670067 403940111 $,M
NFL,2022-08-18 07:56,-118.7010,39.4166,1199.00,68.00,61.00,78.30,160.00,6.00,T,30.19,1018.80,10.00,M,BKN,M,M,M,10000.00,M,M,M,-RA,M,M,M,M,M,M,68.00,KNFL 180756Z AUTO 16006KT 10SM -RA BKN100 20/16 A3019 RMK AO2 RAB12 SLP188 P0000 T02000161 403670200,M
TPH,2022-08-18 07:56,-117.0904,38.0505,1654.00,66.00,59.00,78.14,60.00,5.00,0.05,30.26,1016.10,10.00,M,FEW,BKN,OVC,M,5500.00,8500.00,11000.00,M,-RA,M,M,M,M,M,M,66.00,KTPH 180756Z AUTO 06005KT 10SM -RA FEW055 BKN085 OVC110 19/15 A3026 RMK AO2 SLP161 P0005 T01890150 403330183,M
LAS,2022-08-18 07:56,-115.1634,36.0719,663.00,90.00,60.00,36.77,20.00,6.00,0.00,29.92,1010.00,10.00,M,FEW,M,M,M,18000.00,M,M,M,M,M,M,M,M,M,M,89.66,KLAS 180756Z 02006KT 10SM FEW180 32/16 A2992 RMK AO2 SLP100 T03220156 404000289,M
HND,2022-08-18 07:56,-115.1344,35.9729,742.79,83.00,66.00,56.75,190.00,3.00,0.00,29.96,1012.80,10.00,M,CLR,M,M,M,M,M,M,M,M,M,M,M,M,M,M,85.07,KHND 180756Z AUTO 19003KT 10SM CLR 28/19 A2996 RMK AO2 SLP128 T02830189,M
INS,2022-08-18 07:58,-115.6733,36.5872,955.00,82.60,56.50,40.93,0.00,0.00,0.00,30.00,1010.40,10.00,M,CLR,M,M,M,M,M,M,M,M,M,M,M,M,M,M,82.09,KINS 180758Z AUTO 00000KT 10SM CLR 28/14 A3000 RMK AO2 SLP104 T02810136 403710226,M
LOL,2022-08-18 08:00,-118.5701,40.0684,1192.43,74.00,55.00,51.64,200.00,12.00,0.00,30.17,M,10.00,22.00,FEW,M,M,M,10000.00,M,M,M,M,M,M,M,M,M,M,73.90,KLOL 180800Z AUTO 20012G22KT 10SM FEW100 23/13 A3017 RMK AO2 WSHFT 0740 PRESRR T02330128,M
HTH,2022-08-18 08:15,-118.6315,38.5448,1282.89,68.00,60.80,77.75,140.00,7.00,0.00,30.23,M,10.00,M,FEW,BKN,M,M,5500.00,12000.00,M,M,M,M,M,M,M,M,M,68.00,KHTH 180815Z AUTO 14007KT 10SM FEW055 BKN120 20/16 A3023 RMK A01,M
BAM,2022-08-18 08:15,-116.8743,40.5990,1382.36,80.60,48.20,32.18,240.00,19.00,0.00,30.12,M,10.00,24.00,CLR,M,M,M,M,M,M,M,M,M,M,M,M,M,M,79.71,KBAM 180815Z AUTO 24019G24KT 10SM CLR 27/09 A3012 RMK AO1,M
MEV,2022-08-18 08:15,-119.7500,38.9963,1441.42,60.80,59.00,93.79,0.00,0.00,0.00,30.23,M,10.00,M,CLR,M,M,M,M,M,M,M,M,M,M,M,M,M,M,60.80,KMEV 180815Z AUTO 00000KT 10SM CLR 16/15 A3023 RMK AO2,M
RTS,2022-08-18 08:15,-119.8764,39.6682,1539.00,62.60,57.20,82.50,20.00,7.00,0.00,30.23,M,10.00,12.00,FEW,SCT,BKN,M,3200.00,4900.00,6000.00,M,M,M,M,M,M,M,M,62.60,KRTS 180815Z AUTO 02007G12KT 10SM FEW032 SCT049 BKN060 17/14 A3023 RMK AO2,M
CXP,2022-08-18 08:15,-119.7326,39.1923,1431.00,62.60,60.80,93.83,0.00,0.00,0.00,30.23,M,10.00,M,CLR,M,M,M,M,M,M,M,M,M,M,M,M,M,M,62.60,KCXP 180815Z AUTO 00000KT 10SM CLR 17/16 A3023 RMK AO2,M
BVU,2022-08-18 08:15,-114.8611,35.9475,671.00,87.80,60.80,40.41,60.00,5.00,0.00,29.92,M,M,M,M,M,M,M,M,M,M,M,M,M,M,M,M,M,M,87.75,KBVU 180815Z AUTO 06005KT 31/16 A2992 RMK AO2 PWINO TSNO,M
TMT,2022-08-18 08:15,-117.1971,39.4643,1749.34,M,M,M,250.00,10.00,0.00,30.28,M,10.00,M,SCT,OVC,M,M,7000.00,9500.00,M,M,RA,M,M,M,M,M,M,M,KTMT 180815Z AUTO 25010KT 10SM RA SCT070 OVC095 A3028 RMK AO2,M
TMT,2022-08-18 08:35,-117.1971,39.4643,1749.34,62.00,56.80,83.35,250.00,5.00,0.00,30.27,M,10.00,M,OVC,M,M,M,9500.00,M,M,M,M,M,M,M,M,M,M,61.90,KTMT 180835Z AUTO 25005KT 10SM OVC095 17/14 A3027 RMK AO2 T01660138,M
BAM,2022-08-18 08:35,-116.8743,40.5990,1382.36,80.60,50.00,34.41,240.00,29.00,0.00,30.13,M,7.00,37.00,BKN,M,M,M,12000.00,M,M,M,M,M,M,M,M,M,M,79.88,KBAM 180835Z AUTO 24029G37KT 7SM BKN120 27/10 A3013 RMK AO1,M
MEV,2022-08-18 08:35,-119.7500,38.9963,1441.42,60.80,59.00,93.79,260.00,3.00,0.00,30.23,M,10.00,M,CLR,M,M,M,M,M,M,M,M,M,M,M,M,M,M,60.80,KMEV 180835Z AUTO 26003KT 10SM CLR 16/15 A3023 RMK AO2,M
RTS,2022-08-18 08:35,-119.8764,39.6682,1539.00,60.80,57.20,87.92,200.00,10.00,0.00,30.25,M,10.00,M,FEW,SCT,BKN,M,4700.00,7500.00,9000.00,M,M,M,M,M,M,M,M,60.80,KRTS 180835Z AUTO 20010KT 10SM FEW047 SCT075 BKN090 16/14 A3025 RMK AO2,M
CXP,2022-08-18 08:35,-119.7326,39.1923,1431.00,62.60,60.80,93.83,0.00,0.00,0.00,30.24,M,10.00,M,CLR,M,M,M,M,M,M,M,M,M,M,M,M,M,M,62.60,KCXP 180835Z AUTO 00000KT 10SM CLR 17/16 A3024 RMK AO2,M
BVU,2022-08-18 08:35,-114.8611,35.9475,671.00,86.00,62.60,45.61,50.00,4.00,0.00,29.92,M,M,M,M,M,M,M,M,M,M,M,M,M,M,M,M,M,M,86.72,KBVU 180835Z AUTO 05004KT 30/17 A2992 RMK AO2 PWINO TSNO,M
HTH,2022-08-18 08:35,-118.6315,38.5448,1282.89,68.00,60.80,77.75,140.00,8.00,0.00,30.23,M,10.00,M,FEW,SCT,BKN,M,3100.00,5000.00,7000.00,M,M,M,M,M,M,M,M,68.00,KHTH 180835Z AUTO 14008KT 10SM FEW031 SCT050 BKN070 20/16 A3023 RMK A01,M
VGT,2022-08-18 08:53,-115.1933,36.2111,667.00,90.00,60.00,36.77,330.00,4.00,0.00,29.91,1011.30,10.00,M,CLR,M,M,M,M,M,M,M,M,M,M,M,M,M,M,89.66,KVGT 180853Z AUTO 33004KT 10SM CLR 32/16 A2991 RMK AO2 SLP113 T03220156 53004,M
ELY,2022-08-18 08:53,-114.8453,39.2950,1909.00,58.00,48.00,69.52,170.00,4.00,0.00,30.26,1013.90,10.00,M,CLR,M,M,M,M,M,M,M,M,M,M,M,M,M,M,57.90,KELY 180853Z AUTO 17004KT 10SM CLR 14/09 A3026 RMK AO2 SLP139 T01440089 50006,M
LOL,2022-08-18 08:53,-118.5701,40.0684,1192.43,70.00,58.00,65.45,220.00,14.00,0.01,30.18,1017.00,9.00,M,OVC,M,M,M,10000.00,M,M,M,RA,M,M,M,M,M,M,70.00,KLOL 180853Z AUTO 22014KT 9SM RA OVC100 21/14 A3018 RMK AO2 WSHFT 0740 RAB10 SLP170 P0001 60001 T02110144 51037,M
DRA,2022-08-18 08:53,-116.0278,36.6206,1009.00,79.00,58.00,48.41,30.00,14.00,0.00,30.00,1009.90,10.00,M,CLR,M,M,M,M,M,M,M,M,M,M,M,M,M,M,79.00,KDRA 180853Z AUTO 03014KT 10SM CLR 26/14 A3000 RMK AO2 SLP099 T02610144 58004,M
P68,2022-08-18 08:53,-116.0056,39.6014,1993.00,69.00,51.00,52.67,240.00,12.00,0.00,30.24,1014.10,M,21.00,M,M,M,M,M,M,M,M,M,M,M,M,27.00,270.00,2022-08-18 08:05,69.10,KP68 180853Z AUTO 24012G21KT 21/11 A3024 RMK AO1 PK WND 27027/0805 SLP141 T02060106 51019,M
BAM,2022-08-18 08:55,-116.8743,40.5990,1382.36,78.80,51.80,39.02,230.00,24.00,0.00,30.13,M,7.00,32.00,SCT,M,M,M,12000.00,M,M,M,M,M,M,M,M,M,M,78.80,KBAM 180855Z AUTO 23024G32KT 7SM SCT120 26/11 A3013 RMK AO1,M
TMT,2022-08-18 08:55,-117.1971,39.4643,1749.34,60.80,57.20,87.92,0.00,0.00,0.00,30.26,M,10.00,M,BKN,M,M,M,11000.00,M,M,M,M,M,M,M,M,M,M,60.80,KTMT 180855Z AUTO 00000KT 10SM BKN110 16/14 A3026 RMK AO2 T01600140,M
MEV,2022-08-18 08:55,-119.7500,38.9963,1441.42,57.20,57.20,100.00,0.00,0.00,0.00,30.23,M,10.00,M,CLR,M,M,M,M,M,M,M,M,M,M,M,M,M,M,57.20,KMEV 180855Z AUTO 00000KT 10SM CLR 14/14 A3023 RMK AO2,M
RTS,2022-08-18 08:55,-119.8764,39.6682,1539.00,62.60,55.40,77.29,M,4.00,0.00,30.25,M,10.00,M,FEW,M,M,M,11000.00,M,M,M,M,M,M,M,M,M,M,62.60,KRTS 180855Z AUTO VRB04KT 10SM FEW110 17/13 A3025 RMK AO2,M
BVU,2022-08-18 08:55,-114.8611,35.9475,671.00,84.20,62.60,48.32,60.00,3.00,0.00,29.92,M,M,M,M,M,M,M,M,M,M,M,M,M,M,M,M,M,M,85.03,KBVU 180855Z AUTO 06003KT 29/17 A2992 RMK AO2 PWINO TSNO,M
RNO,2022-08-18 08:55,-119.7711,39.4839,1341.00,64.00,62.00,93.54,90.00,6.00,T,30.21,1017.00,10.00,M,FEW,SCT,BKN,M,5000.00,7000.00,9000.00,M,M,M,M,M,M,M,M,64.00,KRNO 180855Z 09006KT 10SM FEW050 SCT070 BKN090 18/17 A3021 RMK AO2 RAE09 SLP170 P0000 60006 T01780167 55003 $,M
CXP,2022-08-18 08:55,-119.7326,39.1923,1431.00,60.80,60.80,100.00,70.00,3.00,0.00,30.24,M,10.00,M,CLR,M,M,M,M,M,M,M,M,M,M,M,M,M,M,60.80,KCXP 180855Z AUTO 07003KT 10SM CLR 16/16 A3024 RMK AO2,M
HTH,2022-08-18 08:55,-118.6315,38.5448,1282.89,66.20,62.60,88.18,130.00,8.00,0.00,30.23,M,10.00,M,FEW,FEW,SCT,M,3100.00,5500.00,11000.00,M,M,M,M,M,M,M,M,66.20,KHTH 180855Z AUTO 13008KT 10SM FEW031 FEW055 SCT110 19/17 A3023 RMK A01,M
HND,2022-08-18 08:56,-115.1344,35.9729,742.79,82.00,65.00,56.24,170.00,6.00,0.00,29.96,1012.60,10.00,M,CLR,M,M,M,M,M,M,M,M,M,M,M,M,M,M,83.76,KHND 180856Z AUTO 17006KT 10SM CLR 28/18 A2996 RMK AO2 SLP126 T02780183 50004,M
LAS,2022-08-18 08:56,-115.1634,36.0719,663.00,89.00,59.00,36.37,10.00,7.00,0.00,29.92,1010.00,10.00,M,FEW,M,M,M,18000.00,M,M,M,M,M,M,M,M,M,M,88.37,KLAS 180856Z 01007KT 10SM FEW180 32/15 A2992 RMK AO2 SLP100 T03170150 51004,M
EKO,2022-08-18 08:56,-115.7860,40.8242,1367.00,57.00,39.00,50.88,270.00,3.00,0.00,30.13,1014.50,10.00,M,CLR,M,M,M,M,M,M,M,M,M,M,M,M,M,M,57.00,KEKO 180856Z AUTO 27003KT 10SM CLR 14/04 A3013 RMK AO2 SLP145 T01390039 51008,M
NFL,2022-08-18 08:56,-118.7010,39.4166,1199.00,68.00,61.00,78.30,80.00,3.00,T,30.18,1018.20,10.00,M,FEW,OVC,M,M,8000.00,11000.00,M,M,M,M,M,M,M,M,M,68.00,KNFL 180856Z AUTO 08003KT 10SM FEW080 OVC110 20/16 A3018 RMK AO2 RAE01B27E44 SLP182 P0000 60000 T02000161 50016,M
WMC,2022-08-18 08:56,-117.8072,40.9019,1315.00,78.00,48.00,34.67,220.00,7.00,0.00,30.13,1013.50,10.00,M,CLR,M,M,M,M,M,M,M,M,M,M,M,M,M,M,78.10,KWMC 180856Z AUTO 22007KT 10SM CLR 26/09 A3013 RMK AO2 SLP135 T02560089 53023 $,M
LSV,2022-08-18 08:56,-115.0343,36.2362,570.00,89.60,60.80,38.18,70.00,7.00,0.00,29.92,1010.10,10.00,M,SCT,SCT,M,M,10000.00,15000.00,M,M,M,M,M,M,M,M,M,89.54,KLSV 180856Z 07007KT 10SM SCT100 SCT150 32/16 A2992 RMK SLP101 5//// WND DATA ESTMD ALSTG/SLP ESTMD $,M
TPH,2022-08-18 08:56,-117.0904,38.0505,1654.00,66.00,62.00,87.24,360.00,5.00,T,30.25,1015.60,10.00,M,FEW,OVC,M,M,7500.00,10000.00,M,M,-RA,M,M,M,M,M,M,66.00,KTPH 180856Z AUTO 36005KT 10SM -RA FEW075 OVC100 19/17 A3025 RMK AO2 SLP156 P0000 60005 T01890167 50002,M
INS,2022-08-18 08:58,-115.6733,36.5872,955.00,81.30,56.70,43.00,60.00,4.00,0.00,29.99,1010.10,10.00,M,CLR,M,M,M,M,M,M,M,M,M,M,M,M,M,M,81.20,KINS 180858Z AUTO 06004KT 10SM CLR 27/14 A2999 RMK AO2 SLP101 T02740137 50004,M
BVU,2022-08-18 09:15,-114.8611,35.9475,671.00,84.20,64.40,51.47,0.00,0.00,0.00,29.92,M,M,M,M,M,M,M,M,M,M,M,M,M,M,M,M,M,M,85.71,KBVU 180915Z AUTO 00000KT 29/18 A2992 RMK AO2 PWINO TSNO,M
BAM,2022-08-18 09:15,-116.8743,40.5990,1382.36,77.00,53.60,44.25,240.00,22.00,0.00,30.14,M,5.00,32.00,CLR,M,M,M,M,M,M,M,M,M,M,M,M,M,M,77.00,KBAM 180915Z AUTO 24022G32KT 5SM CLR 25/12 A3014 RMK AO1,M
TMT,2022-08-18 09:15,-117.1971,39.4643,1749.34,M,M,M,120.00,5.00,0.00,30.27,M,10.00,M,SCT,M,M,M,11000.00,M,M,M,M,M,M,M,M,M,M,M,KTMT 180915Z AUTO 12005KT 10SM SCT110 A3027 RMK AO2 LTG DSNT SW,M
HTH,2022-08-18 09:15,-118.6315,38.5448,1282.89,66.20,60.80,82.74,150.00,6.00,0.00,30.23,M,10.00,M,CLR,M,M,M,M,M,M,M,M,M,M,M,M,M,M,66.20,KHTH 180915Z AUTO 15006KT 10SM CLR 19/16 A3023 RMK A01,M
MEV,2022-08-18 09:15,-119.7500,38.9963,1441.42,57.20,55.40,93.69,50.00,3.00,0.00,30.23,M,10.00,M,CLR,M,M,M,M,M,M,M,M,M,M,M,M,M,M,57.20,KMEV 180915Z AUTO 05003KT 10SM CLR 14/13 A3023 RMK AO2,M
CXP,2022-08-18 09:15,-119.7326,39.1923,1431.00,60.80,60.80,100.00,0.00,0.00,0.00,30.25,M,10.00,M,CLR,M,M,M,M,M,M,M,M,M,M,M,M,M,M,60.80,KCXP 180915Z AUTO 00000KT 10SM CLR 16/16 A3025 RMK AO2,M
RTS,2022-08-18 09:15,-119.8764,39.6682,1539.00,60.80,55.40,82.37,80.00,7.00,0.00,30.26,M,10.00,M,CLR,M,M,M,M,M,M,M,M,M,M,M,M,M,M,60.80,KRTS 180915Z AUTO 08007KT 10SM CLR 16/13 A3026 RMK AO2,M
TMT,2022-08-18 09:35,-117.1971,39.4643,1749.34,M,M,M,190.00,6.00,0.00,30.27,M,10.00,M,SCT,M,M,M,12000.00,M,M,M,M,M,M,M,M,M,M,M,KTMT 180935Z AUTO 19006KT 10SM SCT120 A3027 RMK AO2,M
BVU,2022-08-18 09:35,-114.8611,35.9475,671.00,84.20,62.60,48.32,0.00,0.00,0.00,29.92,M,M,M,M,M,M,M,M,M,M,M,M,M,M,M,M,M,M,85.03,KBVU 180935Z AUTO 00000KT 29/17 A2992 RMK AO2 PWINO TSNO,M
CXP,2022-08-18 09:35,-119.7326,39.1923,1431.00,60.80,60.80,100.00,0.00,0.00,0.00,30.25,M,10.00,M,CLR,M,M,M,M,M,M,M,M,M,M,M,M,M,M,60.80,KCXP 180935Z AUTO 00000KT 10SM CLR 16/16 A3025 RMK AO2,M
RTS,2022-08-18 09:35,-119.8764,39.6682,1539.00,60.80,55.40,82.37,60.00,4.00,0.00,30.27,M,10.00,M,CLR,M,M,M,M,M,M,M,M,M,M,M,M,M,M,60.80,KRTS 180935Z AUTO 06004KT 10SM CLR 16/13 A3027 RMK AO2,M
MEV,2022-08-18 09:35,-119.7500,38.9963,1441.42,57.20,57.20,100.00,60.00,3.00,0.00,30.24,M,10.00,M,CLR,M,M,M,M,M,M,M,M,M,M,M,M,M,M,57.20,KMEV 180935Z AUTO 06003KT 10SM CLR 14/14 A3024 RMK AO2,M
BAM,2022-08-18 09:35,-116.8743,40.5990,1382.36,75.20,53.60,46.98,240.00,23.00,0.00,30.14,M,7.00,30.00,CLR,M,M,M,M,M,M,M,M,M,M,M,M,M,M,75.20,KBAM 180935Z AUTO 24023G30KT 7SM CLR 24/12 A3014 RMK AO1,M
HTH,2022-08-18 09:35,-118.6315,38.5448,1282.89,66.20,60.80,82.74,150.00,7.00,0.00,30.22,M,10.00,M,CLR,M,M,M,M,M,M,M,M,M,M,M,M,M,M,66.20,KHTH 180935Z AUTO 15007KT 10SM CLR 19/16 A3022 RMK A01,M
WMC,2022-08-18 09:40,-117.8072,40.9019,1315.00,76.00,52.00,43.28,150.00,11.00,0.00,30.15,M,10.00,M,CLR,M,M,M,M,M,M,M,M,M,M,M,M,M,M,75.90,KWMC 180940Z AUTO 15011KT 10SM CLR 24/11 A3015 RMK AO2 WSHFT 0920 T02440111 $,M
LOL,2022-08-18 09:53,-118.5701,40.0684,1192.43,69.00,58.00,67.50,270.00,10.00,0.02,30.20,1017.70,10.00,17.00,FEW,FEW,BKN,M,7000.00,9000.00,11000.00,M,M,M,M,M,M,M,M,69.10,KLOL 180953Z AUTO 27010G17KT 10SM FEW070 FEW090 BKN110 21/14 A3020 RMK AO2 RAE53 SLP177 P0002 T02060144,M
DRA,2022-08-18 09:53,-116.0278,36.6206,1009.00,81.00,56.00,42.19,20.00,9.00,0.00,30.00,1010.00,10.00,M,CLR,M,M,M,M,M,M,M,M,M,M,M,M,M,M,80.87,KDRA 180953Z AUTO 02009KT 10SM CLR 27/13 A3000 RMK AO2 SLP100 T02720133,M
ELY,2022-08-18 09:53,-114.8453,39.2950,1909.00,57.00,47.00,68.90,160.00,6.00,0.00,30.26,1013.70,10.00,M,CLR,M,M,M,M,M,M,M,M,M,M,M,M,M,M,57.00,KELY 180953Z AUTO 16006KT 10SM CLR 14/08 A3026 RMK AO2 SLP137 T01390083,M
P68,2022-08-18 09:53,-116.0056,39.6014,1993.00,68.00,50.00,52.51,270.00,5.00,0.00,30.24,1013.90,M,M,M,M,M,M,M,M,M,M,M,M,M,M,M,M,M,68.00,KP68 180953Z AUTO 27005KT 20/10 A3024 RMK AO1 SLP139 T02000100,M
VGT,2022-08-18 09:53,-115.1933,36.2111,667.00,89.00,60.00,37.83,280.00,4.00,0.00,29.91,1011.30,10.00,M,CLR,M,M,M,M,M,M,M,M,M,M,M,M,M,M,88.76,KVGT 180953Z AUTO 28004KT 10SM CLR 32/16 A2991 RMK AO2 SLP113 T03170156,M
CXP,2022-08-18 09:55,-119.7326,39.1923,1431.00,60.80,59.00,93.79,330.00,4.00,0.00,30.25,M,10.00,M,CLR,M,M,M,M,M,M,M,M,M,M,M,M,M,M,60.80,KCXP 180955Z AUTO 33004KT 10SM CLR 16/15 A3025 RMK AO2,M
RNO,2022-08-18 09:55,-119.7711,39.4839,1341.00,64.00,61.00,89.97,240.00,4.00,0.00,30.22,1017.40,10.00,M,FEW,SCT,M,M,8000.00,10000.00,M,M,M,M,M,M,M,M,M,64.00,KRNO 180955Z 24004KT 10SM FEW080 SCT100 18/16 A3022 RMK AO2 SLP174 T01780161 $,M
RTS,2022-08-18 09:55,-119.8764,39.6682,1539.00,59.00,55.40,87.83,0.00,0.00,0.00,30.27,M,10.00,M,CLR,M,M,M,M,M,M,M,M,M,M,M,M,M,M,59.00,KRTS 180955Z AUTO 00000KT 10SM CLR 15/13 A3027 RMK AO2,M
MEV,2022-08-18 09:55,-119.7500,38.9963,1441.42,55.40,53.60,93.65,100.00,3.00,0.00,30.24,M,10.00,M,CLR,M,M,M,M,M,M,M,M,M,M,M,M,M,M,55.40,KMEV 180955Z AUTO 10003KT 10SM CLR 13/12 A3024 RMK AO2,M
BAM,2022-08-18 09:55,-116.8743,40.5990,1382.36,75.20,53.60,46.98,240.00,19.00,0.00,30.15,M,10.00,23.00,CLR,M,M,M,M,M,M,M,M,M,M,M,M,M,M,75.20,KBAM 180955Z AUTO 24019G23KT 10SM CLR 24/12 A3015 RMK AO1,M
HTH,2022-08-18 09:55,-118.6315,38.5448,1282.89,68.00,60.80,77.75,150.00,4.00,0.00,30.22,M,10.00,M,CLR,M,M,M,M,M,M,M,M,M,M,M,M,M,M,68.00,KHTH 180955Z AUTO 15004KT 10SM CLR 20/16 A3022 RMK A01,M
TMT,2022-08-18 09:55,-117.1971,39.4643,1749.34,63.00,55.80,77.06,230.00,7.00,0.00,30.28,M,10.00,M,SCT,M,M,M,12000.00,M,M,M,M,M,M,M,M,M,M,63.10,KTMT 180955Z AUTO 23007KT 10SM SCT120 17/13 A3028 RMK AO2 T01730132,M
BVU,2022-08-18 09:55,-114.8611,35.9475,671.00,82.40,64.40,54.55,0.00,0.00,0.00,29.92,M,M,M,M,M,M,M,M,M,M,M,M,M,M,M,M,M,M,83.98,KBVU 180955Z AUTO 00000KT 28/18 A2992 RMK AO2 PWINO TSNO,M
LAS,2022-08-18 09:56,-115.1634,36.0719,663.00,89.00,59.00,36.37,40.00,5.00,0.00,29.92,1010.00,10.00,M,BKN,M,M,M,20000.00,M,M,M,M,M,M,M,M,M,M,88.37,KLAS 180956Z 04005KT 10SM BKN200 32/15 A2992 RMK AO2 SLP100 T03170150,M
LSV,2022-08-18 09:56,-115.0343,36.2362,570.00,87.80,60.80,40.41,60.00,5.00,0.00,29.92,1010.20,10.00,M,BKN,M,M,M,20000.00,M,M,M,M,M,M,M,M,M,M,87.75,KLSV 180956Z 06005KT 10SM BKN200 31/16 A2992 RMK SLP102 WND DATA ESTMD ALSTG/SLP ESTMD $,M
HND,2022-08-18 09:56,-115.1344,35.9729,742.79,81.00,65.00,58.10,170.00,4.00,0.00,29.96,1012.60,10.00,M,CLR,M,M,M,M,M,M,M,M,M,M,M,M,M,M,82.79,KHND 180956Z AUTO 17004KT 10SM CLR 27/18 A2996 RMK AO2 SLP126 T02720183,M
NFL,2022-08-18 09:56,-118.7010,39.4166,1199.00,67.00,60.00,78.77,170.00,3.00,0.00,30.20,1019.00,10.00,M,CLR,M,M,M,M,M,M,M,M,M,M,M,M,M,M,66.90,KNFL 180956Z AUTO 17003KT 10SM CLR 19/16 A3020 RMK AO2 SLP190 T01940156,M
WMC,2022-08-18 09:56,-117.8072,40.9019,1315.00,76.00,51.00,41.86,140.00,10.00,0.00,30.16,1014.60,10.00,M,CLR,M,M,M,M,M,M,M,M,M,M,M,M,M,M,75.90,KWMC 180956Z AUTO 14010KT 10SM CLR 24/11 A3016 RMK AO2 WSHFT 0920 SLP146 T02440106 $,M
EKO,2022-08-18 09:56,-115.7860,40.8242,1367.00,59.00,37.00,43.78,290.00,4.00,0.00,30.16,1015.70,10.00,M,CLR,M,M,M,M,M,M,M,M,M,M,M,M,M,M,59.00,KEKO 180956Z AUTO 29004KT 10SM CLR 15/03 A3016 RMK AO2 SLP157 T01500028,M
TPH,2022-08-18 09:56,-117.0904,38.0505,1654.00,66.00,59.00,78.14,330.00,9.00,T,30.24,1015.50,10.00,18.00,OVC,M,M,M,9500.00,M,M,M,M,M,M,M,M,M,M,66.00,KTPH 180956Z AUTO 33009G18KT 10SM OVC095 19/15 A3024 RMK AO2 RAE23 SLP155 P0000 T01890150,M
INS,2022-08-18 09:58,-115.6733,36.5872,955.00,79.50,56.30,44.95,0.00,0.00,0.00,30.00,1010.40,10.00,M,CLR,M,M,M,M,M,M,M,M,M,M,M,M,M,M,79.50,KINS 180958Z AUTO 00000KT 10SM CLR 26/14 A3000 RMK AO2 SLP104 T02640135,M
BAM,2022-08-18 10:15,-116.8743,40.5990,1382.36,73.40,53.60,49.90,240.00,15.00,0.00,30.15,M,10.00,19.00,CLR,M,M,M,M,M,M,M,M,M,M,M,M,M,M,73.40,KBAM 181015Z AUTO 24015G19KT 10SM CLR 23/12 A3015 RMK AO1,M
HTH,2022-08-18 10:15,-118.6315,38.5448,1282.89,68.00,59.00,72.92,170.00,4.00,0.00,30.21,M,10.00,M,CLR,M,M,M,M,M,M,M,M,M,M,M,M,M,M,68.00,KHTH 181015Z AUTO 17004KT 10SM CLR 20/15 A3021 RMK A01,M
TMT,2022-08-18 10:15,-117.1971,39.4643,1749.34,62.60,55.40,77.29,240.00,10.00,0.00,30.28,M,10.00,M,BKN,M,M,M,12000.00,M,M,M,M,M,M,M,M,M,M,62.60,KTMT 181015Z AUTO 24010KT 10SM BKN120 17/13 A3028 RMK AO2 T01700130,M
RTS,2022-08-18 10:15,-119.8764,39.6682,1539.00,59.00,55.40,87.83,250.00,4.00,0.00,30.27,M,10.00,M,CLR,M,M,M,M,M,M,M,M,M,M,M,M,M,M,59.00,KRTS 181015Z AUTO 25004KT 10SM CLR 15/13 A3027 RMK AO2,M
MEV,2022-08-18 10:15,-119.7500,38.9963,1441.42,53.60,53.60,100.00,150.00,4.00,0.00,30.24,M,10.00,M,CLR,M,M,M,M,M,M,M,M,M,M,M,M,M,M,53.60,KMEV 181015Z AUTO 15004KT 10SM CLR 12/12 A3024 RMK AO2,M
CXP,2022-08-18 10:15,-119.7326,39.1923,1431.00,60.80,59.00,93.79,310.00,3.00,0.00,30.25,M,10.00,M,CLR,M,M,M,M,M,M,M,M,M,M,M,M,M,M,60.80,KCXP 181015Z AUTO 31003KT 10SM CLR 16/15 A3025 RMK AO2,M
BVU,2022-08-18 10:15,-114.8611,35.9475,671.00,80.60,64.40,57.84,0.00,0.00,0.00,29.92,M,M,M,M,M,M,M,M,M,M,M,M,M,M,M,M,M,M,82.27,KBVU 181015Z AUTO 00000KT 27/18 A2992 RMK AO2 PWINO TSNO,M
HTH,2022-08-18 10:35,-118.6315,38.5448,1282.89,66.20,60.80,82.74,70.00,7.00,0.00,30.21,M,10.00,M,CLR,M,M,M,M,M,M,M,M,M,M,M,M,M,M,66.20,KHTH 181035Z AUTO 07007KT 10SM CLR 19/16 A3021 RMK A01,M
BVU,2022-08-18 10:35,-114.8611,35.9475,671.00,80.60,64.40,57.84,0.00,0.00,0.00,29.92,M,M,M,M,M,M,M,M,M,M,M,M,M,M,M,M,M,M,82.27,KBVU 181035Z AUTO 00000KT 27/18 A2992 RMK AO2 PWINO TSNO,M
CXP,2022-08-18 10:35,-119.7326,39.1923,1431.00,60.80,59.00,93.79,0.00,0.00,0.00,30.25,M,10.00,M,CLR,M,M,M,M,M,M,M,M,M,M,M,M,M,M,60.80,KCXP 181035Z AUTO 00000KT 10SM CLR 16/15 A3025 RMK AO2,M
RTS,2022-08-18 10:35,-119.8764,39.6682,1539.00,59.00,55.40,87.83,320.00,5.00,0.00,30.27,M,10.00,M,CLR,M,M,M,M,M,M,M,M,M,M,M,M,M,M,59.00,KRTS 181035Z AUTO 32005KT 10SM CLR 15/13 A3027 RMK AO2,M
MEV,2022-08-18 10:35,-119.7500,38.9963,1441.42,55.40,53.60,93.65,0.00,0.00,0.00,30.23,M,10.00,M,CLR,M,M,M,M,M,M,M,M,M,M,M,M,M,M,55.40,KMEV 181035Z AUTO 00000KT 10SM CLR 13/12 A3023 RMK AO2,M
BAM,2022-08-18 10:35,-116.8743,40.5990,1382.36,73.40,53.60,49.90,240.00,13.00,0.00,30.15,M,10.00,M,CLR,M,M,M,M,M,M,M,M,M,M,M,M,M,M,73.40,KBAM 181035Z AUTO 24013KT 10SM CLR 23/12 A3015 RMK AO1,M
TMT,2022-08-18 10:35,-117.1971,39.4643,1749.34,62.60,55.60,77.86,230.00,7.00,0.00,30.30,M,10.00,M,OVC,M,M,M,12000.00,M,M,M,M,M,M,M,M,M,M,62.60,KTMT 181035Z AUTO 23007KT 10SM OVC120 17/13 A3030 RMK AO2 T01700131,M
LOL,2022-08-18 10:40,-118.5701,40.0684,1192.43,66.00,57.00,72.72,360.00,8.00,0.06,30.18,M,4.00,M,FEW,FEW,OVC,M,5500.00,7500.00,11000.00,M,+TSRA,M,M,M,33.00,280.00,2022-08-18 09:57,66.00,KLOL 181040Z AUTO 36008KT 4SM +TSRA FEW055 FEW075 OVC110 19/14 A3018 RMK AO2 PK WND 28033/0957 RAB33 TSB34 P0006 T01890139,M
LOL,2022-08-18 10:51,-118.5701,40.0684,1192.43,64.40,57.20,77.45,130.00,3.00,0.15,30.20,M,2.50,M,BKN,BKN,OVC,M,5000.00,7000.00,10000.00,M,+TSRA,M,M,M,33.00,280.00,2022-08-18 09:57,64.40,KLOL 181051Z AUTO 13003KT 2 1/2SM +TSRA BKN050 BKN070 OVC100 18/14 A3020 RMK AO2 PK WND 28033/0957 RAB33 TSB34 P0015,M
DRA,2022-08-18 10:53,-116.0278,36.6206,1009.00,82.00,55.00,39.52,50.00,5.00,0.00,30.00,1010.00,10.00,M,FEW,M,M,M,12000.00,M,M,M,M,M,M,M,M,M,M,81.40,KDRA 181053Z AUTO 05005KT 10SM FEW120 28/13 A3000 RMK AO2 SLP100 T02780128,M
ELY,2022-08-18 10:53,-114.8453,39.2950,1909.00,56.00,48.00,74.72,160.00,6.00,0.00,30.25,1013.80,10.00,M,CLR,M,M,M,M,M,M,M,M,M,M,M,M,M,M,55.90,KELY 181053Z AUTO 16006KT 10SM CLR 13/09 A3025 RMK AO2 SLP138 T01330089,M
VGT,2022-08-18 10:53,-115.1933,36.2111,667.00,88.00,60.00,39.17,350.00,3.00,0.00,29.91,1011.30,10.00,M,CLR,M,M,M,M,M,M,M,M,M,M,M,M,M,M,87.69,KVGT 181053Z AUTO 35003KT 10SM CLR 31/16 A2991 RMK AO2 SLP113 T03110156,M
LOL,2022-08-18 10:53,-118.5701,40.0684,1192.43,64.00,58.00,80.54,130.00,3.00,0.15,30.20,1018.20,3.00,M,SCT,BKN,OVC,M,5500.00,7000.00,10000.00,M,+TSRA,M,M,M,33.00,280.00,2022-08-18 09:57,64.00,KLOL 181053Z AUTO 13003KT 3SM +TSRA SCT055 BKN070 OVC100 18/14 A3020 RMK AO2 PK WND 28033/0957 RAB33 TSB34 SLP182 P0015 T01780144,M
P68,2022-08-18 10:53,-116.0056,39.6014,1993.00,67.00,50.00,54.54,260.00,5.00,0.00,30.24,1014.10,M,M,M,M,M,M,M,M,M,M,M,M,M,M,M,M,M,66.90,KP68 181053Z AUTO 26005KT 19/10 A3024 RMK AO1 SLP141 T01940100,M
RNO,2022-08-18 10:55,-119.7711,39.4839,1341.00,63.00,61.00,93.18,180.00,3.00,0.00,30.22,1017.80,10.00,M,FEW,M,M,M,10000.00,M,M,M,M,M,M,M,M,M,M,63.00,KRNO 181055Z 18003KT 10SM FEW100 17/16 A3022 RMK AO2 SLP178 T01720161 $,M
MEV,2022-08-18 10:55,-119.7500,38.9963,1441.42,53.60,51.80,93.60,90.00,7.00,0.00,30.23,M,10.00,M,CLR,M,M,M,M,M,M,M,M,M,M,M,M,M,M,53.60,KMEV 181055Z AUTO 09007KT 10SM CLR 12/11 A3023 RMK AO2,M
RTS,2022-08-18 10:55,-119.8764,39.6682,1539.00,57.20,55.40,93.69,290.00,3.00,0.00,30.26,M,10.00,M,CLR,M,M,M,M,M,M,M,M,M,M,M,M,M,M,57.20,KRTS 181055Z AUTO 29003KT 10SM CLR 14/13 A3026 RMK AO2,M
BAM,2022-08-18 10:55,-116.8743,40.5990,1382.36,73.40,53.60,49.90,250.00,12.00,0.00,30.15,M,10.00,M,CLR,M,M,M,M,M,M,M,M,M,M,M,M,M,M,73.40,KBAM 181055Z AUTO 25012KT 10SM CLR 23/12 A3015 RMK AO1,M
HTH,2022-08-18 10:55,-118.6315,38.5448,1282.89,66.20,60.80,82.74,30.00,4.00,0.00,30.20,M,10.00,M,CLR,M,M,M,M,M,M,M,M,M,M,M,M,M,M,66.20,KHTH 181055Z AUTO 03004KT 10SM CLR 19/16 A3020 RMK A01,M
CXP,2022-08-18 10:55,-119.7326,39.1923,1431.00,59.00,59.00,100.00,90.00,4.00,0.00,30.25,M,10.00,M,CLR,M,M,M,M,M,M,M,M,M,M,M,M,M,M,59.00,KCXP 181055Z AUTO 09004KT 10SM CLR 15/15 A3025 RMK AO2,M
TMT,2022-08-18 10:55,-117.1971,39.4643,1749.34,63.70,54.50,71.96,260.00,6.00,0.00,30.30,M,10.00,M,OVC,M,M,M,11000.00,M,M,M,M,M,M,M,M,M,M,63.70,KTMT 181055Z AUTO 26006KT 10SM OVC110 18/13 A3030 RMK AO2 T01760125,M
BVU,2022-08-18 10:55,-114.8611,35.9475,671.00,80.60,64.40,57.84,350.00,3.00,0.00,29.92,M,M,M,M,M,M,M,M,M,M,M,M,M,M,M,M,M,M,82.27,KBVU 181055Z AUTO 35003KT 27/18 A2992 RMK AO2 PWINO TSNO,M
TPH,2022-08-18 10:56,-117.0904,38.0505,1654.00,65.00,60.00,84.44,350.00,4.00,T,30.23,1015.30,10.00,M,OVC,M,M,M,10000.00,M,M,M,-RA,M,M,M,M,M,M,64.90,KTPH 181056Z AUTO 35004KT 10SM -RA OVC100 18/16 A3023 RMK AO2 RAB0959E20B40 SLP153 P0000 T01830156,M
EKO,2022-08-18 10:56,-115.7860,40.8242,1367.00,63.00,45.00,51.78,210.00,3.00,0.00,30.17,1015.90,10.00,M,CLR,M,M,M,M,M,M,M,M,M,M,M,M,M,M,63.00,KEKO 181056Z AUTO 21003KT 10SM CLR 17/07 A3017 RMK AO2 SLP159 T01720072,M
HND,2022-08-18 10:56,-115.1344,35.9729,742.79,80.00,64.00,57.98,160.00,5.00,0.00,29.96,1012.50,10.00,M,CLR,M,M,M,M,M,M,M,M,M,M,M,M,M,M,81.71,KHND 181056Z AUTO 16005KT 10SM CLR 27/18 A2996 RMK AO2 SLP125 T02670178,M
NFL,2022-08-18 10:56,-118.7010,39.4166,1199.00,67.00,61.00,81.33,40.00,6.00,0.00,30.20,1019.10,10.00,M,CLR,M,M,M,M,M,M,M,M,M,M,M,M,M,M,66.90,KNFL 181056Z AUTO 04006KT 10SM CLR 19/16 A3020 RMK AO2 SLP191 T01940161,M
WMC,2022-08-18 10:56,-117.8072,40.9019,1315.00,74.00,53.00,48.18,160.00,11.00,0.00,30.16,1014.70,10.00,19.00,CLR,M,M,M,M,M,M,M,M,M,M,M,M,M,M,73.90,KWMC 181056Z AUTO 16011G19KT 10SM CLR 23/12 A3016 RMK AO2 SLP147 T02330117 $,M
LAS,2022-08-18 10:56,-115.1634,36.0719,663.00,87.00,58.00,37.25,70.00,4.00,0.00,29.92,1010.00,10.00,M,FEW,M,M,M,20000.00,M,M,M,M,M,M,M,M,M,M,86.14,KLAS 181056Z 07004KT 10SM FEW200 31/14 A2992 RMK AO2 SLP100 T03060144,M
INS,2022-08-18 10:58,-115.6733,36.5872,955.00,77.50,58.50,51.98,0.00,0.00,0.00,30.00,1010.60,10.00,M,SCT,M,M,M,14000.00,M,M,M,M,M,M,M,M,M,M,77.50,KINS 181058Z AUTO 00000KT 10SM SCT140 25/15 A3000 RMK AO2 SLP106 T02530147,M
LSV,2022-08-18 10:59,-115.0343,36.2362,570.00,87.80,60.80,40.41,60.00,5.00,0.00,29.90,1009.50,10.00,M,SCT,M,M,M,15000.00,M,M,M,M,M,M,M,M,M,M,87.75,KLSV 181059Z 06005KT 10SM SCT150 31/16 A2990 RMK SLP095 WND DATA ESTMD ALSTG/SLP ESTMD $,M
RTS,2022-08-18 11:15,-119.8764,39.6682,1539.00,57.20,55.40,93.69,0.00,0.00,0.00,30.27,M,10.00,M,CLR,M,M,M,M,M,M,M,M,M,M,M,M,M,M,57.20,KRTS 181115Z AUTO 00000KT 10SM CLR 14/13 A3027 RMK AO2,M
MEV,2022-08-18 11:15,-119.7500,38.9963,1441.42,53.60,53.60,100.00,100.00,5.00,0.00,30.24,M,10.00,M,CLR,M,M,M,M,M,M,M,M,M,M,M,M,M,M,53.60,KMEV 181115Z AUTO 10005KT 10SM CLR 12/12 A3024 RMK AO2,M
BAM,2022-08-18 11:15,-116.8743,40.5990,1382.36,73.40,53.60,49.90,240.00,14.00,0.00,30.15,M,10.00,18.00,CLR,M,M,M,M,M,M,M,M,M,M,M,M,M,M,73.40,KBAM 181115Z AUTO 24014G18KT 10SM CLR 23/12 A3015 RMK AO1,M
BVU,2022-08-18 11:15,-114.8611,35.9475,671.00,80.60,64.40,57.84,360.00,4.00,0.00,29.92,M,M,M,M,M,M,M,M,M,M,M,M,M,M,M,M,M,M,82.27,KBVU 181115Z AUTO 36004KT 27/18 A2992 RMK AO2 PWINO TSNO,M
TMT,2022-08-18 11:15,-117.1971,39.4643,1749.34,M,M,M,200.00,6.00,0.00,30.30,M,10.00,M,OVC,M,M,M,11000.00,M,M,M,M,M,M,M,M,M,M,M,KTMT 181115Z AUTO 20006KT 10SM OVC110 A3030 RMK AO2,M
LOL,2022-08-18 11:15,-118.5701,40.0684,1192.43,65.00,60.00,84.44,120.00,8.00,0.01,30.21,M,10.00,M,FEW,OVC,M,M,5500.00,10000.00,M,M,-RA,M,M,M,M,M,M,64.90,KLOL 181115Z AUTO 12008KT 10SM -RA FEW055 OVC100 18/16 A3021 RMK AO2 TSE09 P0001 T01830156,M
HTH,2022-08-18 11:15,-118.6315,38.5448,1282.89,64.40,60.80,88.09,0.00,0.00,0.00,30.20,M,10.00,M,CLR,M,M,M,M,M,M,M,M,M,M,M,M,M,M,64.40,KHTH 181115Z AUTO 00000KT 10SM CLR 18/16 A3020 RMK A01,M
CXP,2022-08-18 11:15,-119.7326,39.1923,1431.00,59.00,59.00,100.00,0.00,0.00,0.00,30.26,M,10.00,M,CLR,M,M,M,M,M,M,M,M,M,M,M,M,M,M,59.00,KCXP 181115Z AUTO 00000KT 10SM CLR 15/15 A3026 RMK AO2,M
TMT,2022-08-18 11:35,-117.1971,39.4643,1749.34,62.00,55.40,78.67,220.00,8.00,0.00,30.30,M,10.00,M,BKN,M,M,M,11000.00,M,M,M,M,M,M,M,M,M,M,62.10,KTMT 181135Z AUTO 22008KT 10SM BKN110 17/13 A3030 RMK AO2 T01670130,M
BVU,2022-08-18 11:35,-114.8611,35.9475,671.00,80.60,64.40,57.84,20.00,4.00,0.00,29.92,M,M,M,M,M,M,M,M,M,M,M,M,M,M,M,M,M,M,82.27,KBVU 181135Z AUTO 02004KT 27/18 A2992 RMK AO2 PWINO TSNO,M
CXP,2022-08-18 11:35,-119.7326,39.1923,1431.00,57.20,57.20,100.00,0.00,0.00,0.00,30.25,M,10.00,M,CLR,M,M,M,M,M,M,M,M,M,M,M,M,M,M,57.20,KCXP 181135Z AUTO 00000KT 10SM CLR 14/14 A3025 RMK AO2,M
RTS,2022-08-18 11:35,-119.8764,39.6682,1539.00,57.20,55.40,93.69,0.00,0.00,0.00,30.27,M,10.00,M,CLR,M,M,M,M,M,M,M,M,M,M,M,M,M,M,57.20,KRTS 181135Z AUTO 00000KT 10SM CLR 14/13 A3027 RMK AO2,M
MEV,2022-08-18 11:35,-119.7500,38.9963,1441.42,53.60,51.80,93.60,290.00,3.00,0.00,30.24,M,10.00,M,CLR,M,M,M,M,M,M,M,M,M,M,M,M,M,M,53.60,KMEV 181135Z AUTO 29003KT 10SM CLR 12/11 A3024 RMK AO2,M
BAM,2022-08-18 11:35,-116.8743,40.5990,1382.36,71.60,53.60,53.03,240.00,13.00,0.00,30.16,M,10.00,22.00,CLR,M,M,M,M,M,M,M,M,M,M,M,M,M,M,71.60,KBAM 181135Z AUTO 24013G22KT 10SM CLR 22/12 A3016 RMK AO1,M
HTH,2022-08-18 11:35,-118.6315,38.5448,1282.89,64.40,60.80,88.09,260.00,4.00,0.00,30.19,M,10.00,M,CLR,M,M,M,M,M,M,M,M,M,M,M,M,M,M,64.40,KHTH 181135Z AUTO 26004KT 10SM CLR 18/16 A3019 RMK A01,M
LOL,2022-08-18 11:53,-118.5701,40.0684,1192.43,64.00,60.00,87.14,310.00,5.00,0.07,30.19,1017.50,3.00,M,FEW,SCT,OVC,M,6000.00,7500.00,10000.00,M,+RA BR,M,M,M,M,M,M,64.00,KLOL 181153Z AUTO 31005KT 3SM +RA BR FEW060 SCT075 OVC100 18/16 A3019 RMK AO2 TSE09 PRESFR SLP175 P0007 60025 70026 T01780156 10267 20178 58003,M
DRA,2022-08-18 11:53,-116.0278,36.6206,1009.00,81.00,55.00,40.83,20.00,6.00,0.00,30.01,1010.20,10.00,M,CLR,M,M,M,M,M,M,M,M,M,M,M,M,M,M,80.73,KDRA 181153Z AUTO 02006KT 10SM CLR 27/13 A3001 RMK AO2 SLP102 T02720128 10294 20261 51003,M
ELY,2022-08-18 11:53,-114.8453,39.2950,1909.00,56.00,48.00,74.72,170.00,9.00,0.00,30.25,1013.90,10.00,M,CLR,M,M,M,M,M,M,M,M,M,M,M,M,M,M,55.90,KELY 181153Z AUTO 17009KT 10SM CLR 13/09 A3025 RMK AO2 SLP139 T01330089 10206 20133 58001,M
VGT,2022-08-18 11:53,-115.1933,36.2111,667.00,87.00,60.00,40.31,360.00,4.00,0.00,29.91,1011.10,10.00,M,CLR,M,M,M,M,M,M,M,M,M,M,M,M,M,M,86.83,KVGT 181153Z AUTO 36004KT 10SM CLR 31/16 A2991 RMK AO2 SLP111 T03060156 10339 20306 58002,M
P68,2022-08-18 11:53,-116.0056,39.6014,1993.00,66.00,51.00,58.62,100.00,4.00,0.00,30.25,1014.50,M,M,M,M,M,M,M,M,M,M,M,M,M,M,M,M,M,66.00,KP68 181153Z AUTO 10004KT 19/11 A3025 RMK AO1 SLP145 T01890106 10256 20178 53002,M
MEV,2022-08-18 11:55,-119.7500,38.9963,1441.42,55.40,53.60,93.65,0.00,0.00,0.00,30.24,M,10.00,M,FEW,M,M,M,400.00,M,M,M,M,M,M,M,M,M,M,55.40,KMEV 181155Z AUTO 00000KT 10SM FEW004 13/12 A3024 RMK AO2,M
BAM,2022-08-18 11:55,-116.8743,40.5990,1382.36,71.60,53.60,53.03,250.00,14.00,0.00,30.17,M,10.00,M,CLR,M,M,M,M,M,M,M,M,M,M,M,M,M,M,71.60,KBAM 181155Z AUTO 25014KT 10SM CLR 22/12 A3017 RMK AO1,M
HTH,2022-08-18 11:55,-118.6315,38.5448,1282.89,64.40,62.60,93.88,0.00,0.00,0.00,30.19,M,10.00,M,CLR,M,M,M,M,M,M,M,M,M,M,M,M,M,M,64.40,KHTH 181155Z AUTO 00000KT 10SM CLR 18/17 A3019 RMK A01,M
TMT,2022-08-18 11:55,-117.1971,39.4643,1749.34,62.00,56.30,81.85,210.00,7.00,0.00,30.30,M,10.00,M,SCT,BKN,M,M,6000.00,10000.00,M,M,RA,M,M,M,M,M,M,61.90,KTMT 181155Z AUTO 21007KT 10SM RA SCT060 BKN100 17/14 A3030 RMK AO2 T01660135 10220 20158,M
CXP,2022-08-18 11:55,-119.7326,39.1923,1431.00,57.20,57.20,100.00,0.00,0.00,0.00,30.25,M,10.00,M,CLR,M,M,M,M,M,M,M,M,M,M,M,M,M,M,57.20,KCXP 181155Z AUTO 00000KT 10SM CLR 14/14 A3025 RMK AO2,M
BVU,2022-08-18 11:55,-114.8611,35.9475,671.00,80.60,64.40,57.84,50.00,6.00,0.00,29.92,M,M,M,M,M,M,M,M,M,M,M,M,M,M,M,M,M,M,82.27,KBVU 181155Z AUTO 05006KT 27/18 A2992 RMK AO2 PWINO TSNO,M
RNO,2022-08-18 11:55,-119.7711,39.4839,1341.00,63.00,59.00,86.77,0.00,0.00,0.00,30.23,1018.20,10.00,M,FEW,M,M,M,10000.00,M,M,M,M,M,M,M,M,M,M,63.00,KRNO 181155Z 00000KT 10SM FEW100 17/15 A3023 RMK AO2 SLP182 60006 70011 T01720150 10194 20172 51005 $,M
RTS,2022-08-18 11:55,-119.8764,39.6682,1539.00,57.20,55.40,93.69,0.00,0.00,0.00,30.26,M,10.00,M,CLR,M,M,M,M,M,M,M,M,M,M,M,M,M,M,57.20,KRTS 181155Z AUTO 00000KT 10SM CLR 14/13 A3026 RMK AO2,M
LSV,2022-08-18 11:56,-115.0343,36.2362,570.00,87.80,57.20,35.53,70.00,7.00,0.00,29.89,1009.20,10.00,M,SCT,SCT,M,M,10000.00,15000.00,M,M,M,M,M,M,M,M,M,86.58,KLSV 181156Z 07007KT 10SM SCT100 SCT150 31/14 A2989 RMK SLP092 5//// WND DATA ESTMD ALSTG/SLP ESTMD $,M
LAS,2022-08-18 11:56,-115.1634,36.0719,663.00,87.00,60.00,40.31,20.00,8.00,0.00,29.92,1009.90,10.00,M,BKN,BKN,M,M,12000.00,20000.00,M,M,M,M,M,M,M,M,M,86.83,KLAS 181156Z 02008KT 10SM BKN120 BKN200 31/16 A2992 RMK AO2 SLP099 T03060156 10333 20306 58001,M
TPH,2022-08-18 11:56,-117.0904,38.0505,1654.00,66.00,58.00,75.12,340.00,10.00,T,30.22,1014.70,10.00,M,FEW,BKN,M,M,9000.00,11000.00,M,M,M,M,M,M,M,M,M,66.00,KTPH 181156Z AUTO 34010KT 10SM FEW090 BKN110 19/14 A3022 RMK AO2 RAE1057 SLP147 P0000 60005 70005 T01890144 10233 20183 58009,M
WMC,2022-08-18 11:56,-117.8072,40.9019,1315.00,70.00,55.00,58.94,260.00,20.00,T,30.17,1015.40,10.00,29.00,SCT,M,M,M,11000.00,M,M,M,-RA,M,M,M,29.00,260.00,2022-08-18 11:56,70.00,KWMC 181156Z AUTO 26020G29KT 10SM -RA SCT110 21/13 A3017 RMK AO2 PK WND 26029/1156 RAB42 SLP154 P0000 60000 T02110128 10289 20211 51013 $,M
EKO,2022-08-18 11:56,-115.7860,40.8242,1367.00,62.00,48.00,59.86,220.00,3.00,0.00,30.18,1015.90,10.00,M,CLR,M,M,M,M,M,M,M,M,M,M,M,M,M,M,62.10,KEKO 181156Z AUTO 22003KT 10SM CLR 17/09 A3018 RMK AO2 SLP159 T01670089 10217 20133 51013,M
NFL,2022-08-18 11:56,-118.7010,39.4166,1199.00,66.00,60.00,81.27,30.00,5.00,0.00,30.17,1018.20,10.00,M,CLR,M,M,M,M,M,M,M,M,M,M,M,M,M,M,66.00,KNFL 181156Z AUTO 03005KT 10SM CLR 19/16 A3017 RMK AO2 SLP182 60000 T01890156 10233 20189 58001,M
INS,2022-08-18 11:58,-115.6733,36.5872,955.00,78.40,57.70,49.03,0.00,0.00,0.00,30.00,1010.40,10.00,M,FEW,M,M,M,16000.00,M,M,M,M,M,M,M,M,M,M,78.40,KINS 181158Z AUTO 00000KT 10SM FEW160 26/14 A3000 RMK AO2 SLP104 T02580143 10300 20249 50001,M
MEV,2022-08-18 12:15,-119.7500,38.9963,1441.42,51.80,51.80,100.00,200.00,4.00,0.00,30.24,M,10.00,M,FEW,M,M,M,400.00,M,M,M,M,M,M,M,M,M,M,51.80,KMEV 181215Z AUTO 20004KT 10SM FEW004 11/11 A3024 RMK AO2,M
BAM,2022-08-18 12:15,-116.8743,40.5990,1382.36,73.40,53.60,49.90,250.00,17.00,0.00,30.18,M,10.00,21.00,SCT,BKN,M,M,8500.00,11000.00,M,M,M,M,M,M,M,M,M,73.40,KBAM 181215Z AUTO 25017G21KT 10SM SCT085 BKN110 23/12 A3018 RMK AO1,M
HTH,2022-08-18 12:15,-118.6315,38.5448,1282.89,64.40,62.60,93.88,180.00,3.00,0.00,30.20,M,10.00,M,CLR,M,M,M,M,M,M,M,M,M,M,M,M,M,M,64.40,KHTH 181215Z AUTO 18003KT 10SM CLR 18/17 A3020 RMK A01,M
TMT,2022-08-18 12:15,-117.1971,39.4643,1749.34,61.70,55.60,80.37,220.00,5.00,0.00,30.28,M,10.00,M,SCT,OVC,M,M,6000.00,9000.00,M,M,-RA,M,M,M,M,M,M,61.70,KTMT 181215Z AUTO 22005KT 10SM -RA SCT060 OVC090 17/13 A3028 RMK AO2 T01650131,M
RTS,2022-08-18 12:15,-119.8764,39.6682,1539.00,55.40,53.60,93.65,40.00,3.00,0.00,30.26,M,10.00,M,CLR,M,M,M,M,M,M,M,M,M,M,M,M,M,M,55.40,KRTS 181215Z AUTO 04003KT 10SM CLR 13/12 A3026 RMK AO2,M
BVU,2022-08-18 12:15,-114.8611,35.9475,671.00,84.20,62.60,48.32,50.00,5.00,0.00,29.92,M,M,M,M,M,M,M,M,M,M,M,M,M,M,M,M,M,M,85.03,KBVU 181215Z AUTO 05005KT 29/17 A2992 RMK AO2 PWINO TSNO,M
CXP,2022-08-18 12:15,-119.7326,39.1923,1431.00,59.00,57.20,93.74,0.00,0.00,0.00,30.25,M,10.00,M,CLR,M,M,M,M,M,M,M,M,M,M,M,M,M,M,59.00,KCXP 181215Z AUTO 00000KT 10SM CLR 15/14 A3025 RMK AO2,M
MEV,2022-08-18 12:35,-119.7500,38.9963,1441.42,51.80,50.00,93.55,100.00,4.00,0.00,30.24,M,10.00,M,CLR,M,M,M,M,M,M,M,M,M,M,M,M,M,M,51.80,KMEV 181235Z AUTO 10004KT 10SM CLR 11/10 A3024 RMK AO2,M
BAM,2022-08-18 12:35,-116.8743,40.5990,1382.36,71.60,53.60,53.03,240.00,17.00,0.00,30.19,M,10.00,23.00,SCT,BKN,M,M,9000.00,11000.00,M,M,M,M,M,M,M,M,M,71.60,KBAM 181235Z AUTO 24017G23KT 10SM SCT090 BKN110 22/12 A3019 RMK AO1,M
HTH,2022-08-18 12:35,-118.6315,38.5448,1282.89,64.40,62.60,93.88,210.00,4.00,0.00,30.20,M,10.00,M,CLR,M,M,M,M,M,M,M,M,M,M,M,M,M,M,64.40,KHTH 181235Z AUTO 21004KT 10SM CLR 18/17 A3020 RMK A01,M
TMT,2022-08-18 12:35,-117.1971,39.4643,1749.34,60.80,55.40,82.37,180.00,6.00,0.00,30.30,M,10.00,M,SCT,SCT,BKN,M,5000.00,7500.00,10000.00,M,-DZ,M,M,M,M,M,M,60.80,KTMT 181235Z AUTO 18006KT 10SM -DZ SCT050 SCT075 BKN100 16/13 A3030 RMK AO2 T01600130,M
BVU,2022-08-18 12:35,-114.8611,35.9475,671.00,82.40,62.60,51.21,40.00,5.00,0.00,29.93,M,M,M,M,M,M,M,M,M,M,M,M,M,M,M,M,M,M,83.41,KBVU 181235Z AUTO 04005KT 28/17 A2993 RMK AO2 PWINO TSNO,M
CXP,2022-08-18 12:35,-119.7326,39.1923,1431.00,59.00,59.00,100.00,0.00,0.00,0.00,30.25,M,10.00,M,CLR,M,M,M,M,M,M,M,M,M,M,M,M,M,M,59.00,KCXP 181235Z AUTO 00000KT 10SM CLR 15/15 A3025 RMK AO2,M
RTS,2022-08-18 12:35,-119.8764,39.6682,1539.00,57.20,55.40,93.69,50.00,3.00,0.00,30.26,M,10.00,M,CLR,M,M,M,M,M,M,M,M,M,M,M,M,M,M,57.20,KRTS 181235Z AUTO 05003KT 10SM CLR 14/13 A3026 RMK AO2,M
LOL,2022-08-18 12:53,-118.5701,40.0684,1192.43,63.00,61.00,93.18,20.00,8.00,0.02,30.15,1016.50,10.00,M,OVC,M,M,M,11000.00,M,M,M,-RA,M,M,M,M,M,M,63.00,KLOL 181253Z AUTO 02008KT 10SM -RA OVC110 17/16 A3015 RMK AO2 SLP165 P0002 T01720161,M
P68,2022-08-18 12:53,-116.0056,39.6014,1993.00,62.00,50.00,64.50,150.00,5.00,0.00,30.26,1015.50,M,M,M,M,M,M,M,M,M,M,M,M,M,M,M,M,M,62.10,KP68 181253Z AUTO 15005KT 17/10 A3026 RMK AO1 SLP155 T01670100,M
VGT,2022-08-18 12:53,-115.1933,36.2111,667.00,87.00,60.00,40.31,330.00,3.00,0.00,29.92,1011.70,10.00,M,SCT,M,M,M,12000.00,M,M,M,M,M,M,M,M,M,M,86.83,KVGT 181253Z AUTO 33003KT 10SM SCT120 31/16 A2992 RMK AO2 SLP117 T03060156,M
DRA,2022-08-18 12:53,-116.0278,36.6206,1009.00,81.00,56.00,42.19,30.00,8.00,0.00,30.02,1010.50,10.00,M,FEW,M,M,M,11000.00,M,M,M,M,M,M,M,M,M,M,80.87,KDRA 181253Z AUTO 03008KT 10SM FEW110 27/13 A3002 RMK AO2 SLP105 T02720133,M
ELY,2022-08-18 12:53,-114.8453,39.2950,1909.00,57.00,48.00,71.81,180.00,11.00,0.00,30.26,1013.90,10.00,M,CLR,M,M,M,M,M,M,M,M,M,M,M,M,M,M,57.00,KELY 181253Z AUTO 18011KT 10SM CLR 14/09 A3026 RMK AO2 SLP139 T01390089,M
BAM,2022-08-18 12:55,-116.8743,40.5990,1382.36,71.60,55.40,56.63,250.00,18.00,0.00,30.20,M,10.00,21.00,CLR,M,M,M,M,M,M,M,M,M,M,M,M,M,M,71.60,KBAM 181255Z AUTO 25018G21KT 10SM CLR 22/13 A3020 RMK AO1,M
BVU,2022-08-18 12:55,-114.8611,35.9475,671.00,82.40,62.60,51.21,50.00,6.00,0.00,29.93,M,M,M,M,M,M,M,M,M,M,M,M,M,M,M,M,M,M,83.41,KBVU 181255Z AUTO 05006KT 28/17 A2993 RMK AO2 PWINO TSNO,M
CXP,2022-08-18 12:55,-119.7326,39.1923,1431.00,57.20,57.20,100.00,0.00,0.00,0.00,30.25,M,10.00,M,CLR,M,M,M,M,M,M,M,M,M,M,M,M,M,M,57.20,KCXP 181255Z AUTO 00000KT 10SM CLR 14/14 A3025 RMK AO2,M
TMT,2022-08-18 12:55,-117.1971,39.4643,1749.34,61.20,55.80,82.40,220.00,8.00,0.00,30.31,M,10.00,M,BKN,M,M,M,10000.00,M,M,M,-DZ,M,M,M,M,M,M,61.20,KTMT 181255Z AUTO 22008KT 10SM -DZ BKN100 16/13 A3031 RMK AO2 T01620132,M
HTH,2022-08-18 12:55,-118.6315,38.5448,1282.89,64.40,62.60,93.88,210.00,5.00,0.00,30.20,M,10.00,M,CLR,M,M,M,M,M,M,M,M,M,M,M,M,M,M,64.40,KHTH 181255Z AUTO 21005KT 10SM CLR 18/17 A3020 RMK A01,M
MEV,2022-08-18 12:55,-119.7500,38.9963,1441.42,51.80,50.00,93.55,110.00,5.00,0.00,30.24,M,10.00,M,CLR,M,M,M,M,M,M,M,M,M,M,M,M,M,M,51.80,KMEV 181255Z AUTO 11005KT 10SM CLR 11/10 A3024 RMK AO2,M
RTS,2022-08-18 12:55,-119.8764,39.6682,1539.00,55.40,53.60,93.65,0.00,0.00,0.00,30.24,M,10.00,M,CLR,M,M,M,M,M,M,M,M,M,M,M,M,M,M,55.40,KRTS 181255Z AUTO 00000KT 10SM CLR 13/12 A3024 RMK AO2,M
RNO,2022-08-18 12:55,-119.7711,39.4839,1341.00,62.00,59.00,89.57,140.00,4.00,0.00,30.21,1017.70,10.00,M,FEW,SCT,M,M,8000.00,10000.00,M,M,M,M,M,M,M,M,M,62.10,KRNO 181255Z 14004KT 10SM FEW080 SCT100 17/15 A3021 RMK AO2 SLP177 T01670150 $,M
LAS,2022-08-18 12:56,-115.1634,36.0719,663.00,87.00,59.00,38.75,360.00,6.00,0.00,29.93,1010.50,10.00,M,SCT,BKN,M,M,13000.00,20000.00,M,M,M,M,M,M,M,M,M,86.47,KLAS 181256Z 36006KT 10SM SCT130 BKN200 31/15 A2993 RMK AO2 SLP105 ACC OHD AND ALQDS T03060150,M
TPH,2022-08-18 12:56,-117.0904,38.0505,1654.00,64.00,60.00,87.14,350.00,9.00,0.00,30.22,1015.20,10.00,M,CLR,M,M,M,M,M,M,M,M,M,M,M,M,M,M,64.00,KTPH 181256Z AUTO 35009KT 10SM CLR 18/16 A3022 RMK AO2 SLP152 T01780156,M
HND,2022-08-18 12:56,-115.1344,35.9729,742.79,80.00,65.00,59.83,180.00,5.00,0.00,29.97,1013.50,10.00,M,FEW,M,M,M,12000.00,M,M,M,M,M,M,M,M,M,M,81.91,KHND 181256Z 18005KT 10SM FEW120 27/18 A2997 RMK AO2 SLP135 T02670183,M
EKO,2022-08-18 12:56,-115.7860,40.8242,1367.00,60.00,48.00,64.26,200.00,3.00,0.00,30.19,1016.60,10.00,M,CLR,M,M,M,M,M,M,M,M,M,M,M,M,M,M,60.10,KEKO 181256Z AUTO 20003KT 10SM CLR 16/09 A3019 RMK AO2 SLP166 T01560089,M
LSV,2022-08-18 12:56,-115.0343,36.2362,570.00,86.00,60.80,42.80,50.00,8.00,0.00,29.90,1009.60,10.00,M,SCT,SCT,M,M,10000.00,15000.00,M,M,M,M,M,M,M,M,M,86.05,KLSV 181256Z 05008KT 10SM SCT100 SCT150 30/16 A2990 RMK SLP096 WND DATA ESTMD ALSTG/SLP ESTMD $,M
NFL,2022-08-18 12:56,-118.7010,39.4166,1199.00,63.00,59.00,86.77,70.00,4.00,0.00,30.17,1018.20,10.00,M,CLR,M,M,M,M,M,M,M,M,M,M,M,M,M,M,63.00,KNFL 181256Z AUTO 07004KT 10SM CLR 17/15 A3017 RMK AO2 SLP182 T01720150,M
WMC,2022-08-18 12:56,-117.8072,40.9019,1315.00,71.00,55.00,56.77,180.00,13.00,T,30.20,1016.40,10.00,17.00,FEW,OVC,M,M,8000.00,11000.00,M,M,M,M,M,M,34.00,250.00,2022-08-18 12:01,71.10,KWMC 181256Z AUTO 18013G17KT 10SM FEW080 OVC110 22/13 A3020 RMK AO2 PK WND 25034/1201 RAE04 SLP164 P0000 T02170128 $,M
INS,2022-08-18 12:58,-115.6733,36.5872,955.00,76.00,58.00,54.03,0.00,0.00,0.00,30.01,1010.90,10.00,M,SCT,M,M,M,17000.00,M,M,M,M,M,M,M,M,M,M,75.90,KINS 181258Z AUTO 00000KT 10SM SCT170 24/15 A3001 RMK AO2 SLP109 T02440145,M
CXP,2022-08-18 13:10,-119.7326,39.1923,1431.00,57.20,57.20,100.00,0.00,0.00,0.00,30.25,M,8.00,M,CLR,M,M,M,M,M,M,M,M,M,M,M,M,M,M,57.20,KCXP 181310Z AUTO 00000KT 8SM CLR 14/14 A3025 RMK AO2,M
BAM,2022-08-18 13:15,-116.8743,40.5990,1382.36,71.60,55.40,56.63,240.00,12.00,0.00,30.20,M,10.00,M,SCT,M,M,M,12000.00,M,M,M,M,M,M,M,M,M,M,71.60,KBAM 181315Z AUTO 24012KT 10SM SCT120 22/13 A3020 RMK AO1,M
MEV,2022-08-18 13:15,-119.7500,38.9963,1441.42,51.80,50.00,93.55,120.00,6.00,0.00,30.25,M,10.00,M,CLR,M,M,M,M,M,M,M,M,M,M,M,M,M,M,51.80,KMEV 181315Z AUTO 12006KT 10SM CLR 11/10 A3025 RMK AO2,M
TMT,2022-08-18 13:15,-117.1971,39.4643,1749.34,60.80,56.50,85.72,230.00,6.00,0.00,30.31,M,10.00,M,SCT,BKN,M,M,9000.00,11000.00,M,M,-RA,M,M,M,M,M,M,60.80,KTMT 181315Z AUTO 23006KT 10SM -RA SCT090 BKN110 16/14 A3031 RMK AO2 T01600136,M
BVU,2022-08-18 13:15,-114.8611,35.9475,671.00,82.40,62.60,51.21,50.00,5.00,0.00,29.94,M,M,M,M,M,M,M,M,M,M,M,M,M,M,M,M,M,M,83.41,KBVU 181315Z AUTO 05005KT 28/17 A2994 RMK AO2 PWINO TSNO,M
RTS,2022-08-18 13:15,-119.8764,39.6682,1539.00,53.60,53.60,100.00,350.00,8.00,0.00,30.25,M,10.00,M,CLR,M,M,M,M,M,M,M,M,M,M,M,M,M,M,53.60,KRTS 181315Z AUTO 35008KT 10SM CLR 12/12 A3025 RMK AO2,M
HTH,2022-08-18 13:15,-118.6315,38.5448,1282.89,64.40,60.80,88.09,170.00,4.00,0.00,30.21,M,10.00,M,CLR,M,M,M,M,M,M,M,M,M,M,M,M,M,M,64.40,KHTH 181315Z AUTO 17004KT 10SM CLR 18/16 A3021 RMK A01,M
TMT,2022-08-18 13:35,-117.1971,39.4643,1749.34,60.30,57.20,89.49,240.00,3.00,0.00,30.32,M,10.00,M,BKN,BKN,M,M,9000.00,12000.00,M,M,-RA,M,M,M,M,M,M,60.30,KTMT 181335Z AUTO 24003KT 10SM -RA BKN090 BKN120 16/14 A3032 RMK AO2 T01570140,M
HTH,2022-08-18 13:35,-118.6315,38.5448,1282.89,64.40,60.80,88.09,180.00,4.00,0.00,30.21,M,10.00,M,CLR,M,M,M,M,M,M,M,M,M,M,M,M,M,M,64.40,KHTH 181335Z AUTO 18004KT 10SM CLR 18/16 A3021 RMK A01,M
BAM,2022-08-18 13:35,-116.8743,40.5990,1382.36,71.60,55.40,56.63,220.00,12.00,0.00,30.21,M,10.00,M,SCT,BKN,M,M,9000.00,11000.00,M,M,M,M,M,M,M,M,M,71.60,KBAM 181335Z AUTO 22012KT 10SM SCT090 BKN110 22/13 A3021 RMK AO1,M
MEV,2022-08-18 13:35,-119.7500,38.9963,1441.42,51.80,50.00,93.55,130.00,6.00,0.00,30.25,M,10.00,M,CLR,M,M,M,M,M,M,M,M,M,M,M,M,M,M,51.80,KMEV 181335Z AUTO 13006KT 10SM CLR 11/10 A3025 RMK AO2,M
RTS,2022-08-18 13:35,-119.8764,39.6682,1539.00,57.20,55.40,93.69,20.00,6.00,0.00,30.25,M,10.00,M,CLR,M,M,M,M,M,M,M,M,M,M,M,M,M,M,57.20,KRTS 181335Z AUTO 02006KT 10SM CLR 14/13 A3025 RMK AO2,M
CXP,2022-08-18 13:35,-119.7326,39.1923,1431.00,57.20,57.20,100.00,0.00,0.00,0.00,30.25,M,10.00,M,CLR,M,M,M,M,M,M,M,M,M,M,M,M,M,M,57.20,KCXP 181335Z AUTO 00000KT 10SM CLR 14/14 A3025 RMK AO2,M
BVU,2022-08-18 13:35,-114.8611,35.9475,671.00,82.40,64.40,54.55,50.00,4.00,0.00,29.95,M,M,M,M,M,M,M,M,M,M,M,M,M,M,M,M,M,M,83.98,KBVU 181335Z AUTO 05004KT 28/18 A2995 RMK AO2 PWINO TSNO,M
P68,2022-08-18 13:53,-116.0056,39.6014,1993.00,64.00,51.00,62.85,250.00,8.00,0.00,30.27,1016.20,M,M,M,M,M,M,M,M,M,M,M,M,M,M,M,M,M,64.00,KP68 181353Z AUTO 25008KT 18/11 A3027 RMK AO1 SLP162 T01780106,M
LOL,2022-08-18 13:53,-118.5701,40.0684,1192.43,63.00,60.00,90.25,60.00,3.00,0.01,30.18,1018.10,10.00,M,CLR,M,M,M,M,M,M,M,M,M,M,M,M,M,M,63.00,KLOL 181353Z AUTO 06003KT 10SM CLR 17/16 A3018 RMK AO2 RAE1258 SLP181 P0001 T01720156,M
VGT,2022-08-18 13:53,-115.1933,36.2111,667.00,87.00,59.00,38.75,330.00,4.00,0.00,29.95,1012.60,10.00,M,CLR,M,M,M,M,M,M,M,M,M,M,M,M,M,M,86.47,KVGT 181353Z 33004KT 10SM CLR 31/15 A2995 RMK AO2 SLP126 T03060150,M
ELY,2022-08-18 13:53,-114.8453,39.2950,1909.00,58.00,49.00,71.90,160.00,7.00,0.00,30.27,1014.40,10.00,M,CLR,M,M,M,M,M,M,M,M,M,M,M,M,M,M,57.90,KELY 181353Z AUTO 16007KT 10SM CLR 14/09 A3027 RMK AO2 SLP144 T01440094,M
DRA,2022-08-18 13:53,-116.0278,36.6206,1009.00,80.00,57.00,45.21,30.00,12.00,0.00,30.03,1011.20,10.00,M,SCT,M,M,M,12000.00,M,M,M,M,M,M,M,M,M,M,80.45,KDRA 181353Z AUTO 03012KT 10SM SCT120 27/14 A3003 RMK AO2 SLP112 T02670139,M
BAM,2022-08-18 13:55,-116.8743,40.5990,1382.36,69.80,55.40,60.21,250.00,9.00,0.00,30.21,M,10.00,M,BKN,M,M,M,11000.00,M,M,M,M,M,M,M,M,M,M,69.80,KBAM 181355Z AUTO 25009KT 10SM BKN110 21/13 A3021 RMK AO1,M
RTS,2022-08-18 13:55,-119.8764,39.6682,1539.00,55.40,53.60,93.65,0.00,0.00,0.00,30.25,M,10.00,M,CLR,M,M,M,M,M,M,M,M,M,M,M,M,M,M,55.40,KRTS 181355Z AUTO 00000KT 10SM CLR 13/12 A3025 RMK AO2,M
HTH,2022-08-18 13:55,-118.6315,38.5448,1282.89,64.40,59.00,82.62,180.00,3.00,0.00,30.21,M,10.00,M,CLR,M,M,M,M,M,M,M,M,M,M,M,M,M,M,64.40,KHTH 181355Z AUTO 18003KT 10SM CLR 18/15 A3021 RMK A01,M
CXP,2022-08-18 13:55,-119.7326,39.1923,1431.00,57.20,57.20,100.00,0.00,0.00,0.00,30.26,M,10.00,M,CLR,M,M,M,M,M,M,M,M,M,M,M,M,M,M,57.20,KCXP 181355Z AUTO 00000KT 10SM CLR 14/14 A3026 RMK AO2,M
BVU,2022-08-18 13:55,-114.8611,35.9475,671.00,84.20,64.40,51.47,50.00,4.00,0.00,29.95,M,M,M,M,M,M,M,M,M,M,M,M,M,M,M,M,M,M,85.71,KBVU 181355Z AUTO 05004KT 29/18 A2995 RMK AO2 PWINO TSNO,M
TMT,2022-08-18 13:55,-117.1971,39.4643,1749.34,60.00,57.70,91.77,0.00,0.00,0.01,30.32,M,10.00,M,SCT,SCT,OVC,M,6500.00,7500.00,9000.00,M,-RA,M,M,M,M,M,M,60.10,KTMT 181355Z AUTO 00000KT 10SM -RA SCT065 SCT075 OVC090 16/14 A3032 RMK AO2 P0001 T01560143,M
RNO,2022-08-18 13:55,-119.7711,39.4839,1341.00,62.00,56.00,80.11,280.00,4.00,0.00,30.21,1017.90,10.00,M,FEW,SCT,M,M,10000.00,12000.00,M,M,M,M,M,M,M,M,M,62.10,KRNO 181355Z 28004KT 10SM FEW100 SCT120 17/13 A3021 RMK AO2 SLP179 T01670133 $,M
MEV,2022-08-18 13:55,-119.7500,38.9963,1441.42,53.60,53.60,100.00,110.00,5.00,0.00,30.25,M,10.00,M,CLR,M,M,M,M,M,M,M,M,M,M,M,M,M,M,53.60,KMEV 181355Z AUTO 11005KT 10SM CLR 12/12 A3025 RMK AO2,M
WMC,2022-08-18 13:56,-117.8072,40.9019,1315.00,66.00,59.00,78.14,160.00,5.00,T,30.20,1016.90,10.00,M,SCT,BKN,BKN,M,3800.00,7000.00,11000.00,M,-RA,M,M,M,M,M,M,66.00,KWMC 181356Z AUTO 16005KT 10SM -RA SCT038 BKN070 BKN110 19/15 A3020 RMK AO2 RAB06 SLP169 P0000 T01890150 $,M
NFL,2022-08-18 13:56,-118.7010,39.4166,1199.00,64.00,59.00,83.78,0.00,0.00,0.00,30.19,1018.60,10.00,M,CLR,M,M,M,M,M,M,M,M,M,M,M,M,M,M,64.00,KNFL 181356Z AUTO 00000KT 10SM CLR 18/15 A3019 RMK AO2 SLP186 T01780150,M
LAS,2022-08-18 13:56,-115.1634,36.0719,663.00,87.00,58.00,37.25,20.00,7.00,0.00,29.96,1011.30,10.00,M,FEW,SCT,M,M,13000.00,20000.00,M,M,M,M,M,M,M,M,M,86.14,KLAS 181356Z 02007KT 10SM FEW130 SCT200 31/14 A2996 RMK AO2 SLP113 CB DSNT N ACC DSNT NE-SE-S T03060144,M
TPH,2022-08-18 13:56,-117.0904,38.0505,1654.00,64.00,59.00,83.78,310.00,10.00,0.00,30.23,1016.00,10.00,M,CLR,M,M,M,M,M,M,M,M,M,M,M,M,M,M,64.00,KTPH 181356Z AUTO 31010KT 10SM CLR 18/15 A3023 RMK AO2 SLP160 T01780150,M
HND,2022-08-18 13:56,-115.1344,35.9729,742.79,81.00,65.00,58.10,0.00,0.00,0.00,30.00,1014.20,10.00,M,CLR,M,M,M,M,M,M,M,M,M,M,M,M,M,M,82.79,KHND 181356Z 00000KT 10SM CLR 27/18 A3000 RMK AO2 SLP142 T02720183,M
EKO,2022-08-18 13:56,-115.7860,40.8242,1367.00,59.00,49.00,69.12,240.00,4.00,0.00,30.21,1017.30,10.00,M,CLR,M,M,M,M,M,M,M,M,M,M,M,M,M,M,59.00,KEKO 181356Z AUTO 24004KT 10SM CLR 15/09 A3021 RMK AO2 SLP173 T01500094,M
LSV,2022-08-18 13:56,-115.0343,36.2362,570.00,86.00,62.60,45.61,290.00,3.00,0.00,29.93,1010.70,10.00,M,SCT,M,M,M,18000.00,M,M,M,M,M,M,M,M,M,M,86.72,KLSV 181356Z 29003KT 10SM SCT180 30/17 A2993 RMK SLP107 WND DATA ESTMD ALSTG/SLP ESTMD $,M
INS,2022-08-18 13:58,-115.6733,36.5872,955.00,78.00,59.40,52.97,0.00,0.00,0.00,30.02,1011.10,10.00,M,BKN,M,M,M,17000.00,M,M,M,M,M,M,M,M,M,M,77.90,KINS 181358Z AUTO 00000KT 10SM BKN170 26/15 A3002 RMK AO2 SLP111 T02550152,M
CXP,2022-08-18 14:15,-119.7326,39.1923,1431.00,59.00,59.00,100.00,0.00,0.00,0.00,30.25,M,10.00,M,CLR,M,M,M,M,M,M,M,M,M,M,M,M,M,M,59.00,KCXP 181415Z AUTO 00000KT 10SM CLR 15/15 A3025 RMK AO2,M
RTS,2022-08-18 14:15,-119.8764,39.6682,1539.00,55.40,55.40,100.00,0.00,0.00,0.00,30.25,M,10.00,M,CLR,M,M,M,M,M,M,M,M,M,M,M,M,M,M,55.40,KRTS 181415Z AUTO 00000KT 10SM CLR 13/13 A3025 RMK AO2,M
MEV,2022-08-18 14:15,-119.7500,38.9963,1441.42,55.40,55.40,100.00,0.00,0.00,0.00,30.25,M,10.00,M,CLR,M,M,M,M,M,M,M,M,M,M,M,M,M,M,55.40,KMEV 181415Z AUTO 00000KT 10SM CLR 13/13 A3025 RMK AO2,M
TMT,2022-08-18 14:15,-117.1971,39.4643,1749.34,60.30,58.50,93.77,0.00,0.00,0.00,30.31,M,10.00,M,SCT,BKN,OVC,M,2800.00,7500.00,9000.00,M,-RA,M,M,M,M,M,M,60.30,KTMT 181415Z AUTO 00000KT 10SM -RA SCT028 BKN075 OVC090 16/15 A3031 RMK AO2 T01570147,M
BAM,2022-08-18 14:15,-116.8743,40.5990,1382.36,69.80,57.20,64.26,220.00,10.00,0.00,30.20,M,10.00,M,SCT,M,M,M,11000.00,M,M,M,M,M,M,M,M,M,M,69.80,KBAM 181415Z AUTO 22010KT 10SM SCT110 21/14 A3020 RMK AO1,M
BVU,2022-08-18 14:15,-114.8611,35.9475,671.00,86.00,62.60,45.61,0.00,0.00,0.00,29.96,M,M,M,M,M,M,M,M,M,M,M,M,M,M,M,M,M,M,86.72,KBVU 181415Z AUTO 00000KT 30/17 A2996 RMK AO2 PWINO TSNO,M
HTH,2022-08-18 14:15,-118.6315,38.5448,1282.89,66.20,60.80,82.74,0.00,0.00,0.00,30.22,M,10.00,M,CLR,M,M,M,M,M,M,M,M,M,M,M,M,M,M,66.20,KHTH 181415Z AUTO 00000KT 10SM CLR 19/16 A3022 RMK A01,M
RTS,2022-08-18 14:35,-119.8764,39.6682,1539.00,57.20,55.40,93.69,340.00,3.00,0.00,30.25,M,10.00,M,CLR,M,M,M,M,M,M,M,M,M,M,M,M,M,M,57.20,KRTS 181435Z AUTO 34003KT 10SM CLR 14/13 A3025 RMK AO2,M
BAM,2022-08-18 14:35,-116.8743,40.5990,1382.36,71.60,55.40,56.63,240.00,14.00,0.00,30.21,M,10.00,M,CLR,M,M,M,M,M,M,M,M,M,M,M,M,M,M,71.60,KBAM 181435Z AUTO 24014KT 10SM CLR 22/13 A3021 RMK AO1,M
HTH,2022-08-18 14:35,-118.6315,38.5448,1282.89,68.00,59.00,72.92,0.00,0.00,0.00,30.22,M,10.00,M,CLR,M,M,M,M,M,M,M,M,M,M,M,M,M,M,68.00,KHTH 181435Z AUTO 00000KT 10SM CLR 20/15 A3022 RMK A01,M
TMT,2022-08-18 14:35,-117.1971,39.4643,1749.34,60.00,58.50,95.12,90.00,6.00,0.00,30.30,M,10.00,M,SCT,SCT,BKN,M,5000.00,6000.00,11000.00,M,M,M,M,M,M,M,M,59.90,KTMT 181435Z AUTO 09006KT 10SM SCT050 SCT060 BKN110 16/15 A3030 RMK AO2 T01550147,M
CXP,2022-08-18 14:35,-119.7326,39.1923,1431.00,60.80,57.20,87.92,M,3.00,0.00,30.25,M,10.00,M,CLR,M,M,M,M,M,M,M,M,M,M,M,M,M,M,60.80,KCXP 181435Z AUTO VRB03KT 10SM CLR 16/14 A3025 RMK AO2,M
MEV,2022-08-18 14:35,-119.7500,38.9963,1441.42,59.00,55.40,87.83,0.00,0.00,0.00,30.25,M,10.00,M,CLR,M,M,M,M,M,M,M,M,M,M,M,M,M,M,59.00,KMEV 181435Z AUTO 00000KT 10SM CLR 15/13 A3025 RMK AO2,M
BVU,2022-08-18 14:35,-114.8611,35.9475,671.00,86.00,62.60,45.61,0.00,0.00,0.00,29.97,M,M,M,M,M,M,M,M,M,M,M,M,M,M,M,M,M,M,86.72,KBVU 181435Z AUTO 00000KT 30/17 A2997 RMK AO2 PWINO TSNO,M
NFL,2022-08-18 14:44,-118.7010,39.4166,1199.00,66.00,60.00,81.27,310.00,3.00,0.00,30.19,M,10.00,M,SCT,SCT,SCT,M,8000.00,12000.00,15000.00,M,M,M,M,M,M,M,M,66.00,KNFL 181444Z 31003KT 10SM SCT080 SCT120 SCT150 19/16 A3019 RMK AO2 T01890156,M
CXP,2022-08-18 14:50,-119.7326,39.1923,1431.00,60.80,57.20,87.92,M,5.00,0.00,30.25,M,10.00,M,CLR,M,M,M,M,M,M,M,M,M,M,M,M,M,M,60.80,KCXP 181450Z AUTO VRB05KT 10SM CLR 16/14 A3025 RMK AO2,M
DRA,2022-08-18 14:53,-116.0278,36.6206,1009.00,84.00,56.00,38.28,20.00,12.00,0.00,30.04,1011.40,10.00,M,FEW,M,M,M,12000.00,M,M,M,M,M,M,M,M,M,M,83.03,KDRA 181453Z AUTO 02012KT 10SM FEW120 29/13 A3004 RMK AO2 SLP114 T02890133 51010,M
LOL,2022-08-18 14:53,-118.5701,40.0684,1192.43,64.00,62.00,93.54,150.00,8.00,0.00,30.19,1018.60,10.00,M,CLR,M,M,M,M,M,M,M,M,M,M,M,M,M,M,64.00,KLOL 181453Z AUTO 15008KT 10SM CLR 18/17 A3019 RMK AO2 SLP186 60003 T01780167 53000,M
P68,2022-08-18 14:53,-116.0056,39.6014,1993.00,65.00,53.00,65.56,250.00,10.00,0.00,30.30,1017.30,M,M,M,M,M,M,M,M,M,M,M,M,M,M,M,M,M,64.90,KP68 181453Z AUTO 25010KT 18/12 A3030 RMK AO1 SLP173 T01830117 53016,M
VGT,2022-08-18 14:53,-115.1933,36.2111,667.00,89.00,60.00,37.83,340.00,5.00,0.00,29.96,1012.90,10.00,M,CLR,M,M,M,M,M,M,M,M,M,M,M,M,M,M,88.76,KVGT 181453Z 34005KT 10SM CLR 32/16 A2996 RMK AO2 SLP129 T03170156 51016,M
ELY,2022-08-18 14:53,-114.8453,39.2950,1909.00,64.00,50.00,60.34,190.00,5.00,0.00,30.27,1014.70,10.00,M,CLR,M,M,M,M,M,M,M,M,M,M,M,M,M,M,64.00,KELY 181453Z AUTO 19005KT 10SM CLR 18/10 A3027 RMK AO2 SLP147 T01780100 51004,M
RNO,2022-08-18 14:55,-119.7711,39.4839,1341.00,66.00,55.00,67.64,0.00,0.00,0.00,30.21,1017.50,10.00,M,FEW,M,M,M,12000.00,M,M,M,M,M,M,M,M,M,M,66.00,KRNO 181455Z 00000KT 10SM FEW120 19/13 A3021 RMK AO2 SLP175 T01890128 56006,M
BVU,2022-08-18 14:55,-114.8611,35.9475,671.00,87.80,62.60,43.07,0.00,0.00,0.00,29.97,M,M,M,M,M,M,M,M,M,M,M,M,M,M,M,M,M,M,88.48,KBVU 181455Z AUTO 00000KT 31/17 A2997 RMK AO2 PWINO TSNO,M
RTS,2022-08-18 14:55,-119.8764,39.6682,1539.00,60.80,57.20,87.92,90.00,7.00,0.00,30.24,M,10.00,M,CLR,M,M,M,M,M,M,M,M,M,M,M,M,M,M,60.80,KRTS 181455Z AUTO 09007KT 10SM CLR 16/14 A3024 RMK AO2,M
MEV,2022-08-18 14:55,-119.7500,38.9963,1441.42,60.80,57.20,87.92,0.00,0.00,0.00,30.24,M,10.00,M,CLR,M,M,M,M,M,M,M,M,M,M,M,M,M,M,60.80,KMEV 181455Z AUTO 00000KT 10SM CLR 16/14 A3024 RMK AO2,M
BAM,2022-08-18 14:55,-116.8743,40.5990,1382.36,71.60,55.40,56.63,250.00,9.00,0.00,30.22,M,10.00,M,SCT,M,M,M,12000.00,M,M,M,M,M,M,M,M,M,M,71.60,KBAM 181455Z AUTO 25009KT 10SM SCT120 22/13 A3022 RMK AO1,M
HTH,2022-08-18 14:55,-118.6315,38.5448,1282.89,66.20,60.80,82.74,50.00,5.00,0.00,30.22,M,10.00,M,CLR,M,M,M,M,M,M,M,M,M,M,M,M,M,M,66.20,KHTH 181455Z AUTO 05005KT 10SM CLR 19/16 A3022 RMK A01,M
TMT,2022-08-18 14:55,-117.1971,39.4643,1749.34,61.30,57.60,87.63,30.00,6.00,0.00,30.28,M,10.00,M,SCT,M,M,M,11000.00,M,M,M,M,M,M,M,M,M,M,61.30,KTMT 181455Z AUTO 03006KT 10SM SCT110 16/14 A3028 RMK AO2 60001 T01630142,M
NFL,2022-08-18 14:56,-118.7010,39.4166,1199.00,67.00,59.00,75.74,M,3.00,0.00,30.19,1018.60,10.00,M,SCT,SCT,SCT,M,8000.00,12000.00,15000.00,M,M,M,M,M,M,M,M,66.90,KNFL 181456Z VRB03KT 10SM SCT080 SCT120 SCT150 19/15 A3019 RMK AO2 SLP186 T01940150 53005,M
HND,2022-08-18 14:56,-115.1344,35.9729,742.79,86.00,63.00,46.25,0.00,0.00,0.00,30.00,1014.40,10.00,M,CLR,M,M,M,M,M,M,M,M,M,M,M,M,M,M,86.88,KHND 181456Z 00000KT 10SM CLR 30/17 A3000 RMK AO2 SLP144 T03000172 51015,M
WMC,2022-08-18 14:56,-117.8072,40.9019,1315.00,68.00,58.00,70.10,190.00,8.00,T,30.20,1017.30,10.00,M,FEW,FEW,OVC,M,7500.00,9000.00,11000.00,M,M,M,M,M,M,M,M,68.00,KWMC 181456Z AUTO 19008KT 10SM FEW075 FEW090 OVC110 20/14 A3020 RMK AO2 RAE1358 SLP173 P0000 60000 T02000144 51009 $,M
EKO,2022-08-18 14:56,-115.7860,40.8242,1367.00,68.00,50.00,52.51,250.00,15.00,0.00,30.22,1017.40,10.00,19.00,CLR,M,M,M,M,M,M,M,M,M,M,M,M,M,M,68.00,KEKO 181456Z AUTO 25015G19KT 10SM CLR 20/10 A3022 RMK AO2 SLP174 T02000100 51010,M
TPH,2022-08-18 14:56,-117.0904,38.0505,1654.00,68.00,59.00,72.92,310.00,12.00,0.00,30.24,1015.80,10.00,M,FEW,M,M,M,11000.00,M,M,M,M,M,M,M,M,M,M,68.00,KTPH 181456Z AUTO 31012KT 10SM FEW110 20/15 A3024 RMK AO2 SLP158 T02000150 52007,M
LAS,2022-08-18 14:56,-115.1634,36.0719,663.00,89.00,59.00,36.37,60.00,6.00,0.00,29.97,1011.80,10.00,M,FEW,SCT,M,M,13000.00,20000.00,M,M,M,M,M,M,M,M,M,88.37,KLAS 181456Z 06006KT 10SM FEW130 SCT200 32/15 A2997 RMK AO2 SLP118 CB DSNT NE ACC DSNT E-SE T03170150 52017,M
INS,2022-08-18 14:58,-115.6733,36.5872,955.00,81.00,59.40,47.85,0.00,0.00,0.00,30.03,1011.50,10.00,M,SCT,M,M,M,17000.00,M,M,M,M,M,M,M,M,M,M,81.48,KINS 181458Z AUTO 00000KT 10SM SCT170 27/15 A3003 RMK AO2 SLP115 T02720152 51010,M
LSV,2022-08-18 14:58,-115.0343,36.2362,570.00,89.80,63.00,41.00,0.00,0.00,0.00,29.94,1011.10,10.00,M,FEW,M,M,M,12000.00,M,M,M,M,M,M,M,M,M,M,90.72,KLSV 181458Z AUTO 00000KT 10SM FEW120 32/17 A2994 RMK AO2 SLP111 T03210172 $,M
BVU,2022-08-18 15:15,-114.8611,35.9475,671.00,87.80,60.80,40.41,0.00,0.00,0.00,29.97,M,M,M,M,M,M,M,M,M,M,M,M,M,M,M,M,M,M,87.75,KBVU 181515Z AUTO 00000KT 31/16 A2997 RMK AO2 PWINO TSNO,M
CXP,2022-08-18 15:15,-119.7326,39.1923,1431.00,62.60,57.20,82.50,M,4.00,0.00,30.25,M,10.00,M,CLR,M,M,M,M,M,M,M,M,M,M,M,M,M,M,62.60,KCXP 181515Z AUTO VRB04KT 10SM CLR 17/14 A3025 RMK AO2,M
RTS,2022-08-18 15:15,-119.8764,39.6682,1539.00,60.80,57.20,87.92,110.00,4.00,0.00,30.24,M,10.00,M,CLR,M,M,M,M,M,M,M,M,M,M,M,M,M,M,60.80,KRTS 181515Z AUTO 11004KT 10SM CLR 16/14 A3024 RMK AO2,M
MEV,2022-08-18 15:15,-119.7500,38.9963,1441.42,62.60,55.40,77.29,0.00,0.00,0.00,30.24,M,10.00,M,CLR,M,M,M,M,M,M,M,M,M,M,M,M,M,M,62.60,KMEV 181515Z AUTO 00000KT 10SM CLR 17/13 A3024 RMK AO2,M
BAM,2022-08-18 15:15,-116.8743,40.5990,1382.36,71.60,55.40,56.63,240.00,9.00,0.00,30.21,M,10.00,M,BKN,M,M,M,12000.00,M,M,M,M,M,M,M,M,M,M,71.60,KBAM 181515Z AUTO 24009KT 10SM BKN120 22/13 A3021 RMK AO1,M
HTH,2022-08-18 15:15,-118.6315,38.5448,1282.89,68.00,60.80,77.75,0.00,0.00,0.00,30.21,M,10.00,M,CLR,M,M,M,M,M,M,M,M,M,M,M,M,M,M,68.00,KHTH 181515Z AUTO 00000KT 10SM CLR 20/16 A3021 RMK A01,M
TMT,2022-08-18 15:15,-117.1971,39.4643,1749.34,64.20,57.00,77.43,20.00,12.00,0.01,30.27,M,10.00,M,CLR,M,M,M,M,M,M,M,M,M,M,M,M,M,M,64.20,KTMT 181515Z AUTO 02012KT 10SM CLR 18/14 A3027 RMK AO2 P0001 T01790139,M
BVU,2022-08-18 15:35,-114.8611,35.9475,671.00,87.80,62.60,43.07,170.00,5.00,0.00,29.97,M,M,M,M,M,M,M,M,M,M,M,M,M,M,M,M,M,M,88.48,KBVU 181535Z AUTO 17005KT 31/17 A2997 RMK AO2 PWINO TSNO,M
TMT,2022-08-18 15:35,-117.1971,39.4643,1749.34,65.00,56.50,73.69,40.00,9.00,0.01,30.26,M,10.00,M,CLR,M,M,M,M,M,M,M,M,M,M,M,M,M,M,65.10,KTMT 181535Z AUTO 04009KT 10SM CLR 18/14 A3026 RMK AO2 P0001 T01840136,M
HTH,2022-08-18 15:35,-118.6315,38.5448,1282.89,69.80,59.00,68.55,0.00,0.00,0.00,30.21,M,10.00,M,CLR,M,M,M,M,M,M,M,M,M,M,M,M,M,M,69.80,KHTH 181535Z AUTO 00000KT 10SM CLR 21/15 A3021 RMK A01,M
BAM,2022-08-18 15:35,-116.8743,40.5990,1382.36,73.40,55.40,53.29,250.00,9.00,0.00,30.21,M,10.00,M,BKN,M,M,M,12000.00,M,M,M,M,M,M,M,M,M,M,73.40,KBAM 181535Z AUTO 25009KT 10SM BKN120 23/13 A3021 RMK AO1,M
MEV,2022-08-18 15:35,-119.7500,38.9963,1441.42,64.40,55.40,72.56,0.00,0.00,0.00,30.23,M,10.00,M,CLR,M,M,M,M,M,M,M,M,M,M,M,M,M,M,64.40,KMEV 181535Z AUTO 00000KT 10SM CLR 18/13 A3023 RMK AO2,M
RTS,2022-08-18 15:35,-119.8764,39.6682,1539.00,62.60,57.20,82.50,100.00,6.00,0.00,30.24,M,10.00,M,CLR,M,M,M,M,M,M,M,M,M,M,M,M,M,M,62.60,KRTS 181535Z AUTO 10006KT 10SM CLR 17/14 A3024 RMK AO2,M
CXP,2022-08-18 15:35,-119.7326,39.1923,1431.00,62.60,57.20,82.50,0.00,0.00,0.00,30.25,M,10.00,M,CLR,M,M,M,M,M,M,M,M,M,M,M,M,M,M,62.60,KCXP 181535Z AUTO 00000KT 10SM CLR 17/14 A3025 RMK AO2,M
CXP,2022-08-18 15:50,-119.7326,39.1923,1431.00,64.40,55.40,72.56,0.00,0.00,0.00,30.25,M,10.00,M,CLR,M,M,M,M,M,M,M,M,M,M,M,M,M,M,64.40,KCXP 181550Z AUTO 00000KT 10SM CLR 18/13 A3025 RMK AO2,M
VGT,2022-08-18 15:53,-115.1933,36.2111,667.00,92.00,59.00,33.31,0.00,0.00,0.00,29.96,1012.90,10.00,M,CLR,M,M,M,M,M,M,M,M,M,M,M,M,M,M,91.20,KVGT 181553Z 00000KT 10SM CLR 33/15 A2996 RMK AO2 SLP129 T03330150,M
ELY,2022-08-18 15:53,-114.8453,39.2950,1909.00,71.00,50.00,47.23,M,3.00,0.00,30.27,1013.80,10.00,M,CLR,M,M,M,M,M,M,M,M,M,M,M,M,M,M,71.10,KELY 181553Z AUTO VRB03KT 10SM CLR 22/10 A3027 RMK AO2 SLP138 T02170100,M
LOL,2022-08-18 15:53,-118.5701,40.0684,1192.43,69.00,62.00,78.39,270.00,4.00,0.00,30.18,1018.30,10.00,M,CLR,M,M,M,M,M,M,M,M,M,M,M,M,M,M,69.10,KLOL 181553Z AUTO 27004KT 10SM CLR 21/17 A3018 RMK AO2 SLP183 T02060167,M
P68,2022-08-18 15:53,-116.0056,39.6014,1993.00,66.00,52.00,60.60,70.00,6.00,0.00,30.28,1016.80,M,M,M,M,M,M,M,M,M,M,M,M,M,M,M,M,M,66.00,KP68 181553Z AUTO 07006KT 19/11 A3028 RMK AO1 SLP168 T01890111,M
DRA,2022-08-18 15:53,-116.0278,36.6206,1009.00,85.00,54.00,34.70,30.00,11.00,0.00,30.04,1011.40,10.00,M,FEW,BKN,M,M,7500.00,11000.00,M,M,M,M,M,M,M,M,M,83.37,KDRA 181553Z AUTO 03011KT 10SM FEW075 BKN110 29/12 A3004 RMK AO2 SLP114 T02940122,M
RTS,2022-08-18 15:55,-119.8764,39.6682,1539.00,64.40,57.20,77.45,90.00,7.00,0.00,30.24,M,10.00,M,CLR,M,M,M,M,M,M,M,M,M,M,M,M,M,M,64.40,KRTS 181555Z AUTO 09007KT 10SM CLR 18/14 A3024 RMK AO2,M
HTH,2022-08-18 15:55,-118.6315,38.5448,1282.89,69.80,59.00,68.55,0.00,0.00,0.00,30.21,M,10.00,M,CLR,M,M,M,M,M,M,M,M,M,M,M,M,M,M,69.80,KHTH 181555Z AUTO 00000KT 10SM CLR 21/15 A3021 RMK A01,M
BAM,2022-08-18 15:55,-116.8743,40.5990,1382.36,73.40,55.40,53.29,250.00,7.00,0.00,30.23,M,10.00,M,BKN,M,M,M,11000.00,M,M,M,M,M,M,M,M,M,M,73.40,KBAM 181555Z AUTO 25007KT 10SM BKN110 23/13 A3023 RMK AO1,M
TMT,2022-08-18 15:55,-117.1971,39.4643,1749.34,67.00,56.30,68.73,50.00,10.00,0.01,30.26,M,10.00,M,CLR,M,M,M,M,M,M,M,M,M,M,M,M,M,M,66.90,KTMT 181555Z AUTO 05010KT 10SM CLR 19/14 A3026 RMK AO2 P0001 T01940135,M
MEV,2022-08-18 15:55,-119.7500,38.9963,1441.42,64.40,55.40,72.56,0.00,0.00,0.00,30.23,M,10.00,M,CLR,M,M,M,M,M,M,M,M,M,M,M,M,M,M,64.40,KMEV 181555Z AUTO 00000KT 10SM CLR 18/13 A3023 RMK AO2,M
BVU,2022-08-18 15:55,-114.8611,35.9475,671.00,87.80,62.60,43.07,0.00,0.00,0.00,29.97,M,M,M,M,M,M,M,M,M,M,M,M,M,M,M,M,M,M,88.48,KBVU 181555Z AUTO 00000KT 31/17 A2997 RMK AO2 PWINO TSNO,M
RNO,2022-08-18 15:55,-119.7711,39.4839,1341.00,67.00,58.00,72.81,110.00,4.00,0.00,30.20,1017.70,10.00,M,FEW,FEW,M,M,7000.00,12000.00,M,M,M,M,M,M,M,M,M,66.90,KRNO 181555Z 11004KT 10SM FEW070 FEW120 19/14 A3020 RMK AO2 SLP177 T01940144,M
HND,2022-08-18 15:56,-115.1344,35.9729,742.79,89.00,63.00,41.92,40.00,5.00,0.00,30.00,1014.30,10.00,M,CLR,M,M,M,M,M,M,M,M,M,M,M,M,M,M,89.99,KHND 181556Z 04005KT 10SM CLR 32/17 A3000 RMK AO2 SLP143 T03170172,M
EKO,2022-08-18 15:56,-115.7860,40.8242,1367.00,70.00,50.00,49.03,250.00,12.00,0.00,30.23,1017.70,10.00,M,CLR,M,M,M,M,M,M,M,M,M,M,M,M,M,M,70.00,KEKO 181556Z AUTO 25012KT 10SM CLR 21/10 A3023 RMK AO2 SLP177 T02110100,M
LAS,2022-08-18 15:56,-115.1634,36.0719,663.00,91.00,60.00,35.64,40.00,7.00,0.00,29.97,1011.80,10.00,M,FEW,FEW,M,M,13000.00,20000.00,M,M,M,M,M,M,M,M,M,90.69,KLAS 181556Z 04007KT 10SM FEW130 FEW200 33/16 A2997 RMK AO2 SLP118 CB DSNT NE ACC DSNT E T03280156,M
NFL,2022-08-18 15:56,-118.7010,39.4166,1199.00,70.00,58.00,65.45,0.00,0.00,0.00,30.18,1018.30,10.00,M,FEW,SCT,SCT,M,8000.00,12000.00,18000.00,M,M,M,M,M,M,M,M,70.00,KNFL 181556Z 00000KT 10SM FEW080 SCT120 SCT180 21/14 A3018 RMK AO2 SLP183 T02110144,M
WMC,2022-08-18 15:56,-117.8072,40.9019,1315.00,70.00,58.00,65.45,250.00,9.00,0.00,30.19,1017.00,10.00,M,FEW,M,M,M,12000.00,M,M,M,M,M,M,M,M,M,M,70.00,KWMC 181556Z AUTO 25009KT 10SM FEW120 21/14 A3019 RMK AO2 SLP170 T02110144,M
TPH,2022-08-18 15:56,-117.0904,38.0505,1654.00,73.00,59.00,61.50,M,6.00,0.00,30.24,1015.70,10.00,M,CLR,M,M,M,M,M,M,M,M,M,M,M,M,M,M,73.00,KTPH 181556Z AUTO VRB06KT 10SM CLR 23/15 A3024 RMK AO2 SLP157 T02280150,M
INS,2022-08-18 15:58,-115.6733,36.5872,955.00,85.30,55.20,35.79,30.00,3.00,0.00,30.03,1011.50,10.00,M,BKN,M,M,M,11000.00,M,M,M,M,M,M,M,M,M,M,83.92,KINS 181558Z AUTO 03003KT 10SM BKN110 30/13 A3003 RMK AO2 SLP115 T02960129,M
LSV,2022-08-18 15:58,-115.0343,36.2362,570.00,96.60,62.00,31.94,70.00,4.00,0.00,29.94,M,10.00,M,CLR,M,M,M,M,M,M,M,M,M,M,M,M,M,M,97.67,KLSV 181558Z AUTO 07004KT 10SM CLR 36/17 A2994 RMK AO2 SLPNO T03590166 $,M
HTH,2022-08-18 16:15,-118.6315,38.5448,1282.89,69.80,59.00,68.55,0.00,0.00,0.00,30.20,M,10.00,M,CLR,M,M,M,M,M,M,M,M,M,M,M,M,M,M,69.80,KHTH 181615Z AUTO 00000KT 10SM CLR 21/15 A3020 RMK A01,M
BVU,2022-08-18 16:15,-114.8611,35.9475,671.00,89.60,62.60,40.69,0.00,0.00,0.00,29.97,M,M,M,M,M,M,M,M,M,M,M,M,M,M,M,M,M,M,90.32,KBVU 181615Z AUTO 00000KT 32/17 A2997 RMK AO2 PWINO TSNO,M
CXP,2022-08-18 16:15,-119.7326,39.1923,1431.00,66.20,57.20,72.74,0.00,0.00,0.00,30.24,M,10.00,M,CLR,M,M,M,M,M,M,M,M,M,M,M,M,M,M,66.20,KCXP 181615Z AUTO 00000KT 10SM CLR 19/14 A3024 RMK AO2,M
RTS,2022-08-18 16:15,-119.8764,39.6682,1539.00,66.20,57.20,72.74,110.00,4.00,0.00,30.23,M,10.00,M,CLR,M,M,M,M,M,M,M,M,M,M,M,M,M,M,66.20,KRTS 181615Z AUTO 11004KT 10SM CLR 19/14 A3023 RMK AO2,M
MEV,2022-08-18 16:15,-119.7500,38.9963,1441.42,66.20,57.20,72.74,300.00,4.00,0.00,30.22,M,10.00,M,CLR,M,M,M,M,M,M,M,M,M,M,M,M,M,M,66.20,KMEV 181615Z AUTO 30004KT 10SM CLR 19/14 A3022 RMK AO2,M
BAM,2022-08-18 16:15,-116.8743,40.5990,1382.36,77.00,53.60,44.25,240.00,4.00,0.00,30.23,M,10.00,M,SCT,BKN,M,M,8500.00,11000.00,M,M,M,M,M,M,M,M,M,77.00,KBAM 181615Z AUTO 24004KT 10SM SCT085 BKN110 25/12 A3023 RMK AO1,M
TMT,2022-08-18 16:15,-117.1971,39.4643,1749.34,M,M,M,40.00,8.00,0.00,30.25,M,10.00,M,CLR,M,M,M,M,M,M,M,M,M,M,M,M,M,M,M,KTMT 181615Z AUTO 04008KT 10SM CLR A3025 RMK AO2,M
MEV,2022-08-18 16:35,-119.7500,38.9963,1441.42,68.00,55.40,64.04,0.00,0.00,0.00,30.22,M,10.00,M,CLR,M,M,M,M,M,M,M,M,M,M,M,M,M,M,68.00,KMEV 181635Z AUTO 00000KT 10SM CLR 20/13 A3022 RMK AO2,M
TMT,2022-08-18 16:35,-117.1971,39.4643,1749.34,M,M,M,10.00,6.00,0.00,30.26,M,10.00,M,CLR,M,M,M,M,M,M,M,M,M,M,M,M,M,M,M,KTMT 181635Z AUTO 01006KT 10SM CLR A3026 RMK AO2,M
HTH,2022-08-18 16:35,-118.6315,38.5448,1282.89,71.60,59.00,64.48,0.00,0.00,0.00,30.20,M,10.00,M,CLR,M,M,M,M,M,M,M,M,M,M,M,M,M,M,71.60,KHTH 181635Z AUTO 00000KT 10SM CLR 22/15 A3020 RMK A01,M
BAM,2022-08-18 16:35,-116.8743,40.5990,1382.36,77.00,51.80,41.42,230.00,8.00,0.00,30.23,M,10.00,M,BKN,OVC,M,M,8500.00,11000.00,M,M,M,M,M,M,M,M,M,77.00,KBAM 181635Z AUTO 23008KT 10SM BKN085 OVC110 25/11 A3023 RMK AO1,M
RTS,2022-08-18 16:35,-119.8764,39.6682,1539.00,66.20,55.40,68.15,130.00,4.00,0.00,30.23,M,10.00,M,CLR,M,M,M,M,M,M,M,M,M,M,M,M,M,M,66.20,KRTS 181635Z AUTO 13004KT 10SM CLR 19/13 A3023 RMK AO2,M
CXP,2022-08-18 16:35,-119.7326,39.1923,1431.00,68.00,57.20,68.35,0.00,0.00,0.00,30.23,M,10.00,M,CLR,M,M,M,M,M,M,M,M,M,M,M,M,M,M,68.00,KCXP 181635Z AUTO 00000KT 10SM CLR 20/14 A3023 RMK AO2,M
BVU,2022-08-18 16:35,-114.8611,35.9475,671.00,91.40,62.60,38.45,0.00,0.00,0.00,29.96,M,M,M,M,M,M,M,M,M,M,M,M,M,M,M,M,M,M,92.23,KBVU 181635Z AUTO 00000KT 33/17 A2996 RMK AO2 PWINO TSNO,M
VGT,2022-08-18 16:53,-115.1933,36.2111,667.00,93.00,60.00,33.48,M,3.00,0.00,29.96,1013.00,10.00,M,CLR,M,M,M,M,M,M,M,M,M,M,M,M,M,M,92.80,KVGT 181653Z VRB03KT 10SM CLR 34/16 A2996 RMK AO2 SLP130 T03390156,M
LOL,2022-08-18 16:53,-118.5701,40.0684,1192.43,73.00,59.00,61.50,200.00,4.00,0.00,30.17,1017.50,10.00,M,CLR,M,M,M,M,M,M,M,M,M,M,M,M,M,M,73.00,KLOL 181653Z AUTO 20004KT 10SM CLR 23/15 A3017 RMK AO2 SLP175 T02280150,M
ELY,2022-08-18 16:53,-114.8453,39.2950,1909.00,77.00,50.00,38.74,M,6.00,0.00,30.24,1013.20,10.00,M,CLR,M,M,M,M,M,M,M,M,M,M,M,M,M,M,77.00,KELY 181653Z AUTO VRB06KT 10SM CLR 25/10 A3024 RMK AO2 SLP132 T02500100,M
DRA,2022-08-18 16:53,-116.0278,36.6206,1009.00,87.00,55.00,33.55,30.00,11.00,0.00,30.04,1011.50,10.00,M,CLR,M,M,M,M,M,M,M,M,M,M,M,M,M,M,85.40,KDRA 181653Z AUTO 03011KT 10SM CLR 31/13 A3004 RMK AO2 SLP115 T03060128,M
P68,2022-08-18 16:53,-116.0056,39.6014,1993.00,68.00,54.00,60.86,0.00,0.00,0.00,30.27,1016.30,M,M,M,M,M,M,M,M,M,M,M,M,M,M,M,M,M,68.00,KP68 181653Z AUTO 00000KT 20/12 A3027 RMK AO1 SLP163 T02000122,M
CXP,2022-08-18 16:55,-119.7326,39.1923,1431.00,69.80,57.20,64.26,0.00,0.00,0.00,30.22,M,10.00,M,CLR,M,M,M,M,M,M,M,M,M,M,M,M,M,M,69.80,KCXP 181655Z AUTO 00000KT 10SM CLR 21/14 A3022 RMK AO2,M
RTS,2022-08-18 16:55,-119.8764,39.6682,1539.00,68.00,57.20,68.35,120.00,7.00,0.00,30.23,M,10.00,M,CLR,M,M,M,M,M,M,M,M,M,M,M,M,M,M,68.00,KRTS 181655Z AUTO 12007KT 10SM CLR 20/14 A3023 RMK AO2,M
HTH,2022-08-18 16:55,-118.6315,38.5448,1282.89,71.60,57.20,60.44,0.00,0.00,0.00,30.19,M,10.00,M,CLR,M,M,M,M,M,M,M,M,M,M,M,M,M,M,71.60,KHTH 181655Z AUTO 00000KT 10SM CLR 22/14 A3019 RMK A01,M
BAM,2022-08-18 16:55,-116.8743,40.5990,1382.36,69.80,59.00,68.55,170.00,17.00,0.00,30.29,M,7.00,23.00,SCT,BKN,OVC,M,4800.00,7500.00,8500.00,M,M,M,M,M,M,M,M,69.80,KBAM 181655Z AUTO 17017G23KT 7SM SCT048 BKN075 OVC085 21/15 A3029 RMK AO1,M
BVU,2022-08-18 16:55,-114.8611,35.9475,671.00,91.40,62.60,38.45,60.00,6.00,0.00,29.96,M,M,M,M,M,M,M,M,M,M,M,M,M,M,M,M,M,M,92.23,KBVU 181655Z AUTO 06006KT 33/17 A2996 RMK AO2 PWINO TSNO,M
RNO,2022-08-18 16:55,-119.7711,39.4839,1341.00,73.00,58.00,59.12,0.00,0.00,0.00,30.19,1017.10,10.00,M,FEW,FEW,M,M,9000.00,12000.00,M,M,M,M,M,M,M,M,M,73.00,KRNO 181655Z 00000KT 10SM FEW090 FEW120 23/14 A3019 RMK AO2 SLP171 T02280144,M
TMT,2022-08-18 16:55,-117.1971,39.4643,1749.34,M,M,M,310.00,4.00,0.00,30.25,M,10.00,M,CLR,M,M,M,M,M,M,M,M,M,M,M,M,M,M,M,KTMT 181655Z AUTO 31004KT 10SM CLR A3025 RMK AO2,M
MEV,2022-08-18 16:55,-119.7500,38.9963,1441.42,69.80,55.40,60.21,0.00,0.00,0.00,30.21,M,10.00,M,CLR,M,M,M,M,M,M,M,M,M,M,M,M,M,M,69.80,KMEV 181655Z AUTO 00000KT 10SM CLR 21/13 A3021 RMK AO2,M
LAS,2022-08-18 16:56,-115.1634,36.0719,663.00,92.00,61.00,35.77,40.00,4.00,0.00,29.97,1011.70,10.00,M,FEW,FEW,SCT,M,11000.00,15000.00,20000.00,M,M,M,M,M,M,M,M,92.01,KLAS 181656Z 04004KT 10SM FEW110 FEW150 SCT200 33/16 A2997 RMK AO2 SLP117 CB DSNT NE ACC DSNT E T03330161,M
EKO,2022-08-18 16:56,-115.7860,40.8242,1367.00,68.00,50.00,52.51,240.00,13.00,0.00,30.23,1018.30,10.00,M,CLR,M,M,M,M,M,M,M,M,M,M,M,M,M,M,68.00,KEKO 181656Z AUTO 24013KT 10SM CLR 20/10 A3023 RMK AO2 SLP183 T02000100,M
HND,2022-08-18 16:56,-115.1344,35.9729,742.79,M,M,M,M,M,0.00,M,M,M,M,M,M,M,M,M,M,M,M,M,M,M,M,M,M,M,M,KHND 181656Z AUTO RMK AO2 SLPNO PWINO FZRANO TSNO PNO $,M
TPH,2022-08-18 16:56,-117.0904,38.0505,1654.00,76.00,56.00,49.91,360.00,5.00,0.00,30.23,1015.20,10.00,M,CLR,M,M,M,M,M,M,M,M,M,M,M,M,M,M,75.90,KTPH 181656Z AUTO 36005KT 10SM CLR 24/13 A3023 RMK AO2 SLP152 T02440133,M
NFL,2022-08-18 16:56,-118.7010,39.4166,1199.00,74.00,56.00,53.36,0.00,0.00,0.00,30.17,1018.10,10.00,M,FEW,SCT,SCT,M,8000.00,12000.00,18000.00,M,M,M,M,M,M,M,M,73.90,KNFL 181656Z 00000KT 10SM FEW080 SCT120 SCT180 23/13 A3017 RMK AO2 SLP181 T02330133,M
WMC,2022-08-18 16:56,-117.8072,40.9019,1315.00,70.00,59.00,68.09,320.00,3.00,T,30.19,1016.80,10.00,M,FEW,FEW,BKN,M,6000.00,8000.00,11000.00,M,M,M,M,M,M,M,M,70.00,KWMC 181656Z AUTO 32003KT 10SM FEW060 FEW080 BKN110 21/15 A3019 RMK AO2 RAB23E55 SLP168 P0000 T02110150,M
INS,2022-08-18 16:58,-115.6733,36.5872,955.00,87.00,54.30,32.91,0.00,0.00,0.00,30.03,1011.30,10.00,M,BKN,OVC,M,M,12000.00,14000.00,M,M,M,M,M,M,M,M,M,85.08,KINS 181658Z AUTO 00000KT 10SM BKN120 OVC140 31/12 A3003 RMK AO2 SLP113 T03050124,M
LSV,2022-08-18 16:58,-115.0343,36.2362,570.00,97.00,61.20,30.78,110.00,5.00,0.00,29.94,M,10.00,M,CLR,M,M,M,M,M,M,M,M,M,M,M,M,M,M,97.76,KLSV 181658Z AUTO 11005KT 10SM CLR 36/16 A2994 RMK AO2 SLPNO T03610162 $,M
CXP,2022-08-18 17:15,-119.7326,39.1923,1431.00,69.80,57.20,64.26,0.00,0.00,0.00,30.22,M,10.00,M,CLR,M,M,M,M,M,M,M,M,M,M,M,M,M,M,69.80,KCXP 181715Z AUTO 00000KT 10SM CLR 21/14 A3022 RMK AO2,M
BVU,2022-08-18 17:15,-114.8611,35.9475,671.00,93.20,62.60,36.35,60.00,7.00,0.00,29.97,M,M,M,M,M,M,M,M,M,M,M,M,M,M,M,M,M,M,94.20,KBVU 181715Z AUTO 06007KT 34/17 A2997 RMK AO2 PWINO TSNO,M
RTS,2022-08-18 17:15,-119.8764,39.6682,1539.00,69.80,55.40,60.21,130.00,6.00,0.00,30.23,M,10.00,M,CLR,M,M,M,M,M,M,M,M,M,M,M,M,M,M,69.80,KRTS 181715Z AUTO 13006KT 10SM CLR 21/13 A3023 RMK AO2,M
MEV,2022-08-18 17:15,-119.7500,38.9963,1441.42,71.60,55.40,56.63,0.00,0.00,0.00,30.21,M,10.00,M,CLR,M,M,M,M,M,M,M,M,M,M,M,M,M,M,71.60,KMEV 181715Z AUTO 00000KT 10SM CLR 22/13 A3021 RMK AO2,M
BAM,2022-08-18 17:15,-116.8743,40.5990,1382.36,64.40,60.80,88.09,310.00,14.00,0.00,30.23,M,2.50,M,SCT,BKN,OVC,M,3200.00,4900.00,7000.00,M,M,M,M,M,M,M,M,64.40,KBAM 181715Z AUTO 31014KT 2 1/2SM SCT032 BKN049 OVC070 18/16 A3023 RMK AO1 VIS 1 3/4V4,M
HTH,2022-08-18 17:15,-118.6315,38.5448,1282.89,71.60,57.20,60.44,0.00,0.00,0.00,30.19,M,10.00,M,CLR,M,M,M,M,M,M,M,M,M,M,M,M,M,M,71.60,KHTH 181715Z AUTO 00000KT 10SM CLR 22/14 A3019 RMK A01,M
TMT,2022-08-18 17:15,-117.1971,39.4643,1749.34,M,M,M,310.00,3.00,0.00,30.26,M,10.00,M,CLR,M,M,M,M,M,M,M,M,M,M,M,M,M,M,M,KTMT 181715Z AUTO 31003KT 10SM CLR A3026 RMK AO2,M
CXP,2022-08-18 17:35,-119.7326,39.1923,1431.00,71.60,57.20,60.44,M,4.00,0.00,30.21,M,10.00,M,CLR,M,M,M,M,M,M,M,M,M,M,M,M,M,M,71.60,KCXP 181735Z AUTO VRB04KT 10SM CLR 22/14 A3021 RMK AO2,M
TMT,2022-08-18 17:35,-117.1971,39.4643,1749.34,M,M,M,250.00,6.00,0.00,30.26,M,10.00,M,CLR,M,M,M,M,M,M,M,M,M,M,M,M,M,M,M,KTMT 181735Z AUTO 25006KT 10SM CLR A3026 RMK AO2,M
BVU,2022-08-18 17:35,-114.8611,35.9475,671.00,93.20,62.60,36.35,M,4.00,0.00,29.97,M,M,M,M,M,M,M,M,M,M,M,M,M,M,M,M,M,M,94.20,KBVU 181735Z AUTO VRB04KT 34/17 A2997 RMK AO2 PWINO TSNO,M
RTS,2022-08-18 17:35,-119.8764,39.6682,1539.00,69.80,53.60,56.38,120.00,7.00,0.00,30.22,M,10.00,M,CLR,M,M,M,M,M,M,M,M,M,M,M,M,M,M,69.80,KRTS 181735Z AUTO 12007KT 10SM CLR 21/12 A3022 RMK AO2,M
MEV,2022-08-18 17:35,-119.7500,38.9963,1441.42,73.40,55.40,53.29,M,4.00,0.00,30.20,M,10.00,M,CLR,M,M,M,M,M,M,M,M,M,M,M,M,M,M,73.40,KMEV 181735Z AUTO VRB04KT 10SM CLR 23/13 A3020 RMK AO2,M
BAM,2022-08-18 17:35,-116.8743,40.5990,1382.36,66.20,60.80,82.74,320.00,15.00,0.00,30.19,M,10.00,M,SCT,SCT,OVC,M,3900.00,5000.00,10000.00,M,M,M,M,M,M,M,M,66.20,KBAM 181735Z AUTO 32015KT 10SM SCT039 SCT050 OVC100 19/16 A3019 RMK AO1,M
HTH,2022-08-18 17:35,-118.6315,38.5448,1282.89,73.40,57.20,56.88,330.00,4.00,0.00,30.19,M,10.00,M,CLR,M,M,M,M,M,M,M,M,M,M,M,M,M,M,73.40,KHTH 181735Z AUTO 33004KT 10SM CLR 23/14 A3019 RMK A01,M
VGT,2022-08-18 17:53,-115.1933,36.2111,667.00,96.00,61.00,31.41,110.00,7.00,0.00,29.95,1012.80,10.00,M,BKN,M,M,M,12000.00,M,M,M,M,M,M,M,M,M,M,96.64,KVGT 181753Z 11007KT 070V140 10SM BKN120 36/16 A2995 RMK AO2 SLP128 T03560161 10356 20300 58001,M
P68,2022-08-18 17:53,-116.0056,39.6014,1993.00,69.00,52.00,54.45,40.00,9.00,0.00,30.25,1015.60,M,M,M,M,M,M,M,M,M,M,M,M,M,M,M,M,M,69.10,KP68 181753Z AUTO 04009KT 21/11 A3025 RMK AO1 PRESFR SLP156 T02060111 10206 20167 58015,M
LOL,2022-08-18 17:53,-118.5701,40.0684,1192.43,75.00,58.00,55.28,100.00,4.00,0.00,30.16,1017.20,10.00,M,CLR,M,M,M,M,M,M,M,M,M,M,M,M,M,M,75.00,KLOL 181753Z AUTO 10004KT 10SM CLR 24/14 A3016 RMK AO2 SLP172 60003 T02390144 10239 20167 58007,M
DRA,2022-08-18 17:53,-116.0278,36.6206,1009.00,91.00,55.00,29.66,0.00,0.00,0.00,30.04,1011.40,10.00,M,CLR,M,M,M,M,M,M,M,M,M,M,M,M,M,M,89.03,KDRA 181753Z AUTO 00000KT 10SM CLR 33/13 A3004 RMK AO2 SLP114 T03280128 10333 20261 58001,M
ELY,2022-08-18 17:53,-114.8453,39.2950,1909.00,80.00,50.00,34.98,M,6.00,0.00,30.24,1012.50,10.00,M,CLR,M,M,M,M,M,M,M,M,M,M,M,M,M,M,79.60,KELY 181753Z AUTO VRB06KT 10SM CLR 27/10 A3024 RMK AO2 SLP125 T02670100 10272 20128 58009,M
HTH,2022-08-18 17:55,-118.6315,38.5448,1282.89,73.40,57.20,56.88,0.00,0.00,0.00,30.19,M,10.00,M,CLR,M,M,M,M,M,M,M,M,M,M,M,M,M,M,73.40,KHTH 181755Z AUTO 00000KT 10SM CLR 23/14 A3019 RMK A01,M
RTS,2022-08-18 17:55,-119.8764,39.6682,1539.00,71.60,55.40,56.63,M,5.00,0.00,30.23,M,10.00,M,CLR,M,M,M,M,M,M,M,M,M,M,M,M,M,M,71.60,KRTS 181755Z AUTO VRB05KT 10SM CLR 22/13 A3023 RMK AO2,M
TMT,2022-08-18 17:55,-117.1971,39.4643,1749.34,75.20,53.00,45.79,250.00,5.00,0.00,30.26,M,10.00,M,CLR,M,M,M,M,M,M,M,M,M,M,M,M,M,M,75.20,KTMT 181755Z AUTO 25005KT 10SM CLR 24/12 A3026 RMK AO2 60002 T02400116,M
RNO,2022-08-18 17:55,-119.7711,39.4839,1341.00,77.00,59.00,53.80,0.00,0.00,0.00,30.17,1016.70,10.00,M,FEW,M,M,M,9000.00,M,M,M,M,M,M,M,M,M,M,77.00,KRNO 181755Z 00000KT 10SM FEW090 25/15 A3017 RMK AO2 SLP167 TCU DSNT W T02500150 10250 20161 58009,M
MEV,2022-08-18 17:55,-119.7500,38.9963,1441.42,75.20,55.40,50.17,170.00,4.00,0.00,30.20,M,10.00,M,CLR,M,M,M,M,M,M,M,M,M,M,M,M,M,M,75.20,KMEV 181755Z AUTO 17004KT 10SM CLR 24/13 A3020 RMK AO2,M
BVU,2022-08-18 17:55,-114.8611,35.9475,671.00,93.20,62.60,36.35,130.00,8.00,0.00,29.96,M,M,M,M,M,M,M,M,M,M,M,M,M,M,M,M,M,M,94.20,KBVU 181755Z AUTO 13008KT 34/17 A2996 RMK AO2 PWINO TSNO,M
CXP,2022-08-18 17:55,-119.7326,39.1923,1431.00,73.40,57.20,56.88,0.00,0.00,0.00,30.21,M,10.00,M,CLR,M,M,M,M,M,M,M,M,M,M,M,M,M,M,73.40,KCXP 181755Z AUTO 00000KT 10SM CLR 23/14 A3021 RMK AO2,M
BAM,2022-08-18 17:55,-116.8743,40.5990,1382.36,68.00,60.80,77.75,110.00,3.00,0.00,30.20,M,10.00,M,BKN,M,M,M,11000.00,M,M,M,M,M,M,M,M,M,M,68.00,KBAM 181755Z AUTO 11003KT 10SM BKN110 20/16 A3020 RMK AO1,M
WMC,2022-08-18 17:56,-117.8072,40.9019,1315.00,76.00,55.00,48.30,0.00,0.00,T,30.19,1016.60,10.00,M,BKN,M,M,M,10000.00,M,M,M,M,M,M,M,M,M,M,75.90,KWMC 181756Z AUTO 00000KT 10SM BKN100 24/13 A3019 RMK AO2 RAB04E19 SLP166 P0000 60000 T02440128 10250 20189 56004,M
EKO,2022-08-18 17:56,-115.7860,40.8242,1367.00,72.00,50.00,45.81,290.00,9.00,0.00,30.22,1018.10,10.00,M,SCT,M,M,M,11000.00,M,M,M,M,M,M,M,M,M,M,72.00,KEKO 181756Z AUTO 29009KT 10SM SCT110 22/10 A3022 RMK AO2 SLP181 T02220100 10222 20144 50001,M
HND,2022-08-18 17:56,-115.1344,35.9729,742.79,94.00,63.00,36.08,30.00,9.00,0.00,30.00,1013.90,10.00,M,FEW,M,M,M,12000.00,M,M,M,M,M,M,M,M,M,M,95.19,KHND 181756Z AUTO 03009KT 10SM FEW120 34/17 A3000 RMK AO2 SLP139 6//// T03440172,M
TPH,2022-08-18 17:56,-117.0904,38.0505,1654.00,79.00,55.00,43.59,M,5.00,0.00,30.22,1015.00,10.00,M,CLR,M,M,M,M,M,M,M,M,M,M,M,M,M,M,79.00,KTPH 181756Z AUTO VRB05KT 10SM CLR 26/13 A3022 RMK AO2 SLP150 T02610128 10267 20172 58005,M
LAS,2022-08-18 17:56,-115.1634,36.0719,663.00,94.00,61.00,33.62,50.00,3.00,0.00,29.97,1011.70,10.00,M,FEW,SCT,SCT,M,10000.00,15000.00,20000.00,M,M,M,M,M,M,M,M,94.18,KLAS 181756Z 05003KT 10SM FEW100 SCT150 SCT200 34/16 A2997 RMK AO2 SLP117 CB DSNT E AND NW T03440161 10350 20306 55001,M
NFL,2022-08-18 17:56,-118.7010,39.4166,1199.00,78.00,56.00,46.40,M,3.00,0.00,30.16,1017.70,10.00,M,FEW,SCT,SCT,M,8000.00,12000.00,18000.00,M,M,M,M,M,M,M,M,78.10,KNFL 181756Z VRB03KT 10SM FEW080 SCT120 SCT180 26/13 A3016 RMK AO2 SLP177 T02560133 10261 20167 58009,M
HND,2022-08-18 17:57,-115.1344,35.9729,742.79,M,M,M,0.00,0.00,0.00,30.01,M,10.00,M,CLR,M,M,M,M,M,M,M,M,M,M,M,M,M,M,M,KHND 181757Z 00000KT 10SM CLR A3001 RMK KP,M
INS,2022-08-18 17:58,-115.6733,36.5872,955.00,90.70,55.00,29.83,60.00,5.00,0.00,30.02,1011.10,10.00,M,BKN,M,M,M,15000.00,M,M,M,M,M,M,M,M,M,M,88.71,KINS 181758Z AUTO 06005KT 10SM BKN150 33/13 A3002 RMK AO2 SLP111 T03260127 10326 20236 58002,M
LSV,2022-08-18 17:58,-115.0343,36.2362,570.00,98.00,62.00,30.91,150.00,7.00,0.00,29.94,M,10.00,M,CLR,M,M,M,M,M,M,M,M,M,M,M,M,M,M,99.28,KLSV 181758Z 15007KT 10SM CLR 37/17 A2994 RMK AO2A SLPNO T03660167 10367 20299 55001 $,M
MEV,2022-08-18 18:15,-119.7500,38.9963,1441.42,75.20,55.40,50.17,190.00,6.00,0.00,30.19,M,10.00,M,CLR,M,M,M,M,M,M,M,M,M,M,M,M,M,M,75.20,KMEV 181815Z AUTO 19006KT 10SM CLR 24/13 A3019 RMK AO2,M
BAM,2022-08-18 18:15,-116.8743,40.5990,1382.36,69.80,60.80,73.09,0.00,0.00,0.00,30.20,M,10.00,M,BKN,M,M,M,11000.00,M,M,M,M,M,M,M,M,M,M,69.80,KBAM 181815Z AUTO 00000KT 10SM BKN110 21/16 A3020 RMK AO1,M
BVU,2022-08-18 18:15,-114.8611,35.9475,671.00,95.00,60.80,32.27,M,6.00,0.00,29.96,M,M,13.00,M,M,M,M,M,M,M,M,M,M,M,M,M,M,M,95.30,KBVU 181815Z AUTO VRB06G13KT 35/16 A2996 RMK AO2 PWINO TSNO,M
TMT,2022-08-18 18:15,-117.1971,39.4643,1749.34,M,M,M,170.00,3.00,0.00,30.25,M,10.00,M,CLR,M,M,M,M,M,M,M,M,M,M,M,M,M,M,M,KTMT 181815Z AUTO 17003KT 10SM CLR A3025 RMK AO2,M
HTH,2022-08-18 18:15,-118.6315,38.5448,1282.89,75.20,57.20,53.55,0.00,0.00,0.00,30.19,M,10.00,M,CLR,M,M,M,M,M,M,M,M,M,M,M,M,M,M,75.20,KHTH 181815Z AUTO 00000KT 10SM CLR 24/14 A3019 RMK A01,M
CXP,2022-08-18 18:15,-119.7326,39.1923,1431.00,75.20,57.20,53.55,0.00,0.00,0.00,30.21,M,10.00,M,CLR,M,M,M,M,M,M,M,M,M,M,M,M,M,M,75.20,KCXP 181815Z AUTO 00000KT 10SM CLR 24/14 A3021 RMK AO2,M
RTS,2022-08-18 18:15,-119.8764,39.6682,1539.00,71.60,53.60,53.03,M,4.00,0.00,30.23,M,10.00,M,CLR,M,M,M,M,M,M,M,M,M,M,M,M,M,M,71.60,KRTS 181815Z AUTO VRB04KT 10SM CLR 22/12 A3023 RMK AO2,M
CXP,2022-08-18 18:35,-119.7326,39.1923,1431.00,77.00,55.40,47.25,0.00,0.00,0.00,30.20,M,10.00,M,CLR,M,M,M,M,M,M,M,M,M,M,M,M,M,M,77.00,KCXP 181835Z AUTO 00000KT 10SM CLR 25/13 A3020 RMK AO2,M
TMT,2022-08-18 18:35,-117.1971,39.4643,1749.34,M,M,M,170.00,3.00,0.00,30.25,M,10.00,M,CLR,M,M,M,M,M,M,M,M,M,M,M,M,M,M,M,KTMT 181835Z AUTO 17003KT 10SM CLR A3025 RMK AO2,M
HTH,2022-08-18 18:35,-118.6315,38.5448,1282.89,77.00,55.40,47.25,220.00,4.00,0.00,30.18,M,10.00,M,CLR,M,M,M,M,M,M,M,M,M,M,M,M,M,M,77.00,KHTH 181835Z AUTO 22004KT 10SM CLR 25/13 A3018 RMK A01,M
BAM,2022-08-18 18:35,-116.8743,40.5990,1382.36,71.60,60.80,68.75,0.00,0.00,0.00,30.20,M,10.00,M,BKN,M,M,M,11000.00,M,M,M,M,M,M,M,M,M,M,71.60,KBAM 181835Z AUTO 00000KT 10SM BKN110 22/16 A3020 RMK AO1,M
MEV,2022-08-18 18:35,-119.7500,38.9963,1441.42,77.00,55.40,47.25,210.00,6.00,0.00,30.18,M,10.00,M,CLR,M,M,M,M,M,M,M,M,M,M,M,M,M,M,77.00,KMEV 181835Z AUTO 21006KT 10SM CLR 25/13 A3018 RMK AO2,M
RTS,2022-08-18 18:35,-119.8764,39.6682,1539.00,73.40,53.60,49.90,0.00,0.00,0.00,30.22,M,10.00,M,CLR,M,M,M,M,M,M,M,M,M,M,M,M,M,M,73.40,KRTS 181835Z AUTO 00000KT 10SM CLR 23/12 A3022 RMK AO2,M
BVU,2022-08-18 18:35,-114.8611,35.9475,671.00,95.00,60.80,32.27,M,6.00,0.00,29.96,M,M,11.00,M,M,M,M,M,M,M,M,M,M,M,M,M,M,M,95.30,KBVU 181835Z AUTO VRB06G11KT 35/16 A2996 RMK AO2 PWINO TSNO,M
CXP,2022-08-18 18:50,-119.7326,39.1923,1431.00,77.00,55.40,47.25,M,5.00,0.00,30.19,M,10.00,M,CLR,M,M,M,M,M,M,M,M,M,M,M,M,M,M,77.00,KCXP 181850Z AUTO VRB05KT 10SM CLR 25/13 A3019 RMK AO2,M
VGT,2022-08-18 18:53,-115.1933,36.2111,667.00,98.00,62.00,30.72,M,5.00,0.00,29.94,1012.30,10.00,M,CLR,M,M,M,M,M,M,M,M,M,M,M,M,M,M,99.51,KVGT 181853Z VRB05KT 10SM CLR 37/17 A2994 RMK AO2 LTG DSNT W SLP123 T03670167,M
DRA,2022-08-18 18:53,-116.0278,36.6206,1009.00,94.00,55.00,27.10,290.00,7.00,0.00,30.02,1010.90,10.00,M,CLR,M,M,M,M,M,M,M,M,M,M,M,M,M,M,91.95,KDRA 181853Z AUTO 29007KT 10SM CLR 34/13 A3002 RMK AO2 SLP109 T03440128,M
ELY,2022-08-18 18:53,-114.8453,39.2950,1909.00,84.00,48.00,28.60,M,4.00,0.00,30.22,1012.00,10.00,M,CLR,M,M,M,M,M,M,M,M,M,M,M,M,M,M,81.87,KELY 181853Z AUTO VRB04KT 10SM CLR 29/09 A3022 RMK AO2 SLP120 T02890089,M
P68,2022-08-18 18:53,-116.0056,39.6014,1993.00,71.00,51.00,49.20,0.00,0.00,0.00,30.26,1015.70,M,M,M,M,M,M,M,M,M,M,M,M,M,M,M,M,M,71.10,KP68 181853Z AUTO 00000KT 22/11 A3026 RMK AO1 SLP157 T02170106,M
LOL,2022-08-18 18:53,-118.5701,40.0684,1192.43,78.00,58.00,49.87,160.00,7.00,0.00,30.15,1016.80,10.00,M,CLR,M,M,M,M,M,M,M,M,M,M,M,M,M,M,78.10,KLOL 181853Z AUTO 16007KT 10SM CLR 26/14 A3015 RMK AO2 SLP168 T02560144,M
MEV,2022-08-18 18:55,-119.7500,38.9963,1441.42,78.80,55.40,44.52,M,4.00,0.00,30.18,M,10.00,M,CLR,M,M,M,M,M,M,M,M,M,M,M,M,M,M,78.80,KMEV 181855Z AUTO VRB04KT 10SM CLR 26/13 A3018 RMK AO2,M
RTS,2022-08-18 18:55,-119.8764,39.6682,1539.00,73.40,53.60,49.90,0.00,0.00,0.00,30.22,M,10.00,M,CLR,M,M,M,M,M,M,M,M,M,M,M,M,M,M,73.40,KRTS 181855Z AUTO 00000KT 10SM CLR 23/12 A3022 RMK AO2,M
HTH,2022-08-18 18:55,-118.6315,38.5448,1282.89,77.00,57.20,50.43,0.00,0.00,0.00,30.17,M,10.00,M,CLR,M,M,M,M,M,M,M,M,M,M,M,M,M,M,77.00,KHTH 181855Z AUTO 00000KT 10SM CLR 25/14 A3017 RMK A01,M
BAM,2022-08-18 18:55,-116.8743,40.5990,1382.36,73.40,60.80,64.69,240.00,3.00,0.00,30.20,M,10.00,M,BKN,M,M,M,11000.00,M,M,M,M,M,M,M,M,M,M,73.40,KBAM 181855Z AUTO 24003KT 10SM BKN110 23/16 A3020 RMK AO1,M
BVU,2022-08-18 18:55,-114.8611,35.9475,671.00,95.00,60.80,32.27,M,6.00,0.00,29.95,M,M,12.00,M,M,M,M,M,M,M,M,M,M,M,M,M,M,M,95.30,KBVU 181855Z AUTO VRB06G12KT 35/16 A2995 RMK AO2 PWINO TSNO,M
TMT,2022-08-18 18:55,-117.1971,39.4643,1749.34,M,M,M,260.00,5.00,0.00,30.25,M,10.00,M,CLR,M,M,M,M,M,M,M,M,M,M,M,M,M,M,M,KTMT 181855Z AUTO 26005KT 10SM CLR A3025 RMK AO2 LTG DSNT SE,M
RNO,2022-08-18 18:55,-119.7711,39.4839,1341.00,79.00,58.00,48.41,M,3.00,0.00,30.16,1016.20,10.00,M,FEW,FEW,M,M,10000.00,19000.00,M,M,M,M,M,M,M,M,M,79.00,KRNO 181855Z VRB03KT 10SM FEW100TCU FEW190 26/14 A3016 RMK AO2 SLP162 CB DSNT W TCU SW T02610144,M
WMC,2022-08-18 18:56,-117.8072,40.9019,1315.00,82.00,52.00,35.41,20.00,7.00,0.00,30.17,1015.70,10.00,M,BKN,M,M,M,10000.00,M,M,M,M,M,M,M,M,M,M,80.97,KWMC 181856Z AUTO 02007KT 10SM BKN100 28/11 A3017 RMK AO2 SLP157 T02780111,M
LAS,2022-08-18 18:56,-115.1634,36.0719,663.00,96.00,61.00,31.41,50.00,6.00,0.00,29.95,1011.00,10.00,M,FEW,SCT,SCT,M,12000.00,16000.00,20000.00,M,M,M,M,M,M,M,M,96.64,KLAS 181856Z 05006KT 10SM FEW120 SCT160 SCT200 36/16 A2995 RMK AO2 LTG DSNT NW SLP110 CB DSNT NW T03560161,M
EKO,2022-08-18 18:56,-115.7860,40.8242,1367.00,71.00,49.00,45.33,250.00,5.00,0.00,30.21,1018.10,10.00,M,FEW,FEW,M,M,7500.00,10000.00,M,M,M,M,M,M,M,M,M,71.10,KEKO 181856Z AUTO 25005KT 10SM FEW075 FEW100 22/09 A3021 RMK AO2 SLP181 T02170094,M
HND,2022-08-18 18:56,-115.1344,35.9729,742.79,95.00,62.00,33.79,M,4.00,0.00,29.98,1013.40,10.00,M,CLR,M,M,M,M,M,M,M,M,M,M,M,M,M,M,95.95,KHND 181856Z VRB04KT 10SM CLR 35/17 A2998 RMK AO2 LTG DSNT NW SLP134 T03500167,M
TPH,2022-08-18 18:56,-117.0904,38.0505,1654.00,81.00,59.00,47.17,260.00,9.00,0.00,30.21,1015.20,10.00,M,CLR,M,M,M,M,M,M,M,M,M,M,M,M,M,M,81.40,KTPH 181856Z AUTO 26009KT 10SM CLR 27/15 A3021 RMK AO2 SLP152 T02720150,M
NFL,2022-08-18 18:56,-118.7010,39.4166,1199.00,80.00,54.00,40.54,M,4.00,0.00,30.15,1017.40,10.00,M,SCT,SCT,SCT,M,8000.00,12000.00,18000.00,M,M,M,M,M,M,M,M,80.04,KNFL 181856Z VRB04KT 10SM SCT080 SCT120 SCT180 27/12 A3015 RMK AO2 SLP174 CB DSNT W-NW T02670122,M
LSV,2022-08-18 18:58,-115.0343,36.2362,570.00,100.80,61.50,27.72,150.00,6.00,0.00,29.92,M,10.00,M,CLR,M,M,M,M,M,M,M,M,M,M,M,M,M,M,102.33,KLSV 181858Z AUTO 15006KT 10SM CLR 38/16 A2992 RMK AO2 SLPNO T03820164 $,M
INS,2022-08-18 18:58,-115.6733,36.5872,955.00,92.00,56.00,29.80,40.00,5.00,0.00,30.01,1010.80,10.00,M,BKN,M,M,M,12000.00,M,M,M,M,M,M,M,M,M,M,90.17,KINS 181858Z AUTO 04005KT 10SM BKN120 33/13 A3001 RMK AO2 LTG DSNT S SLP108 T03330133,M
HTH,2022-08-18 19:15,-118.6315,38.5448,1282.89,78.80,55.40,44.52,70.00,4.00,0.00,30.17,M,10.00,M,CLR,M,M,M,M,M,M,M,M,M,M,M,M,M,M,78.80,KHTH 181915Z AUTO 07004KT 10SM CLR 26/13 A3017 RMK A01,M
BVU,2022-08-18 19:15,-114.8611,35.9475,671.00,95.00,60.80,32.27,70.00,4.00,0.00,29.94,M,M,13.00,M,M,M,M,M,M,M,M,M,M,M,M,M,M,M,95.30,KBVU 181915Z AUTO 07004G13KT 35/16 A2994 RMK AO2 PWINO TSNO,M
RTS,2022-08-18 19:15,-119.8764,39.6682,1539.00,75.20,53.60,46.98,0.00,0.00,0.00,30.21,M,10.00,M,CLR,M,M,M,M,M,M,M,M,M,M,M,M,M,M,75.20,KRTS 181915Z AUTO 00000KT 10SM CLR 24/12 A3021 RMK AO2,M
CXP,2022-08-18 19:15,-119.7326,39.1923,1431.00,80.60,55.40,41.97,M,4.00,0.00,30.18,M,6.00,M,CLR,M,M,M,M,M,M,M,HZ,M,M,M,M,M,M,80.53,KCXP 181915Z AUTO VRB04KT 6SM HZ CLR 27/13 A3018 RMK AO2,M
TMT,2022-08-18 19:15,-117.1971,39.4643,1749.34,M,M,M,310.00,3.00,0.00,30.24,M,10.00,M,CLR,M,M,M,M,M,M,M,M,M,M,M,M,M,M,M,KTMT 181915Z AUTO 31003KT 10SM CLR A3024 RMK AO2,M
BAM,2022-08-18 19:15,-116.8743,40.5990,1382.36,73.40,59.00,60.67,310.00,4.00,0.00,30.19,M,10.00,M,SCT,M,M,M,11000.00,M,M,M,M,M,M,M,M,M,M,73.40,KBAM 181915Z AUTO 31004KT 10SM SCT110 23/15 A3019 RMK AO1,M
MEV,2022-08-18 19:15,-119.7500,38.9963,1441.42,80.60,53.60,39.30,0.00,0.00,0.00,30.17,M,10.00,M,CLR,M,M,M,M,M,M,M,M,M,M,M,M,M,M,80.29,KMEV 181915Z AUTO 00000KT 10SM CLR 27/12 A3017 RMK AO2,M
RNO,2022-08-18 19:32,-119.7711,39.4839,1341.00,81.00,56.00,42.19,M,4.00,0.00,30.16,M,10.00,M,SCT,SCT,M,M,10000.00,19000.00,M,M,VCTS,M,M,M,M,M,M,80.87,KRNO 181932Z VRB04KT 10SM VCTS SCT100CB SCT190 27/13 A3016 RMK AO2 LTG DSNT SW CB SW AND W MOV E SH VC SW AND W T02720133,M
MEV,2022-08-18 19:35,-119.7500,38.9963,1441.42,82.40,51.80,34.69,0.00,0.00,0.00,30.16,M,10.00,M,CLR,M,M,M,M,M,M,M,M,M,M,M,M,M,M,81.20,KMEV 181935Z AUTO 00000KT 10SM CLR 28/11 A3016 RMK AO2,M
BAM,2022-08-18 19:35,-116.8743,40.5990,1382.36,77.00,59.00,53.80,0.00,0.00,0.00,30.19,M,10.00,M,CLR,M,M,M,M,M,M,M,M,M,M,M,M,M,M,77.00,KBAM 181935Z AUTO 00000KT 10SM CLR 25/15 A3019 RMK AO1,M
HTH,2022-08-18 19:35,-118.6315,38.5448,1282.89,78.80,55.40,44.52,0.00,0.00,0.00,30.16,M,10.00,M,CLR,M,M,M,M,M,M,M,M,M,M,M,M,M,M,78.80,KHTH 181935Z AUTO 00000KT 10SM CLR 26/13 A3016 RMK A01,M
TMT,2022-08-18 19:35,-117.1971,39.4643,1749.34,M,M,M,230.00,3.00,0.00,30.24,M,10.00,M,CLR,M,M,M,M,M,M,M,M,M,M,M,M,M,M,M,KTMT 181935Z AUTO 23003KT 10SM CLR A3024 RMK AO2,M
CXP,2022-08-18 19:35,-119.7326,39.1923,1431.00,82.40,55.40,39.58,M,5.00,0.00,30.17,M,10.00,M,CLR,M,M,M,M,M,M,M,M,M,M,M,M,M,M,81.75,KCXP 181935Z AUTO VRB05KT 10SM CLR 28/13 A3017 RMK AO2 LTG DSNT NW,M
BVU,2022-08-18 19:35,-114.8611,35.9475,671.00,96.80,60.80,30.53,60.00,7.00,0.00,29.93,M,M,13.00,M,M,M,M,M,M,M,M,M,M,M,M,M,M,M,97.33,KBVU 181935Z AUTO 06007G13KT 36/16 A2993 RMK AO2 PWINO TSNO,M
RTS,2022-08-18 19:35,-119.8764,39.6682,1539.00,77.00,53.60,44.25,70.00,4.00,0.00,30.21,M,10.00,M,CLR,M,M,M,M,M,M,M,M,M,M,M,M,M,M,77.00,KRTS 181935Z AUTO 07004KT 10SM CLR 25/12 A3021 RMK AO2,M
RNO,2022-08-18 19:40,-119.7711,39.4839,1341.00,82.00,56.00,40.83,M,4.00,0.00,30.16,M,10.00,M,SCT,SCT,M,M,10000.00,19000.00,M,M,TS,M,M,M,M,M,M,81.55,KRNO 181940Z VRB04KT 10SM TS SCT100CB SCT190 28/13 A3016 RMK AO2 LTG DSNT SW TSB38 OCNL LTGIC SW AND W TS SW AND W MOV E SH VC SW THRU W T02780133,M
DRA,2022-08-18 19:53,-116.0278,36.6206,1009.00,99.00,55.00,23.18,160.00,6.00,0.00,30.00,1010.10,10.00,M,FEW,M,M,M,8000.00,M,M,M,M,M,M,M,M,M,M,97.39,KDRA 181953Z AUTO 16006KT 10SM FEW080 37/13 A3000 RMK AO2 SLP101 T03720128,M
VGT,2022-08-18 19:53,-115.1933,36.2111,667.00,98.00,62.00,30.72,M,4.00,0.00,29.92,1011.70,10.00,M,CLR,M,M,M,M,M,M,M,M,M,M,M,M,M,M,99.51,KVGT 181953Z VRB04KT 10SM CLR 37/17 A2992 RMK AO2 LTG DSNT N AND W SLP117 T03670167,M
ELY,2022-08-18 19:53,-114.8453,39.2950,1909.00,84.00,44.00,24.68,0.00,0.00,0.00,30.20,1011.90,10.00,M,CLR,M,M,M,M,M,M,M,M,M,M,M,M,M,M,81.55,KELY 181953Z AUTO 00000KT 10SM CLR 29/07 A3020 RMK AO2 SLP119 T02890067,M
LOL,2022-08-18 19:53,-118.5701,40.0684,1192.43,80.00,56.00,43.44,M,M,0.00,30.14,1016.20,10.00,M,CLR,M,M,M,M,M,M,M,M,M,M,M,M,M,M,80.29,KLOL 181953Z AUTO 10SM CLR 27/13 A3014 RMK AO2 SLP162 T02670133,M
P68,2022-08-18 19:53,-116.0056,39.6014,1993.00,75.00,51.00,43.14,350.00,8.00,0.00,30.22,1014.30,M,M,M,M,M,M,M,M,M,M,M,M,M,M,M,M,M,75.00,KP68 181953Z AUTO 35008KT 24/11 A3022 RMK AO1 SLP143 T02390106,M
MEV,2022-08-18 19:55,-119.7500,38.9963,1441.42,84.20,50.00,30.62,0.00,0.00,0.00,30.16,M,9.00,M,CLR,M,M,M,M,M,M,M,M,M,M,M,M,M,M,82.24,KMEV 181955Z AUTO 00000KT 9SM CLR 29/10 A3016 RMK AO2 LTG DSNT N,M
BVU,2022-08-18 19:55,-114.8611,35.9475,671.00,96.80,60.80,30.53,70.00,8.00,0.00,29.92,M,M,13.00,M,M,M,M,M,M,M,M,M,M,M,M,M,M,M,97.33,KBVU 181955Z AUTO 07008G13KT 36/16 A2992 RMK AO2 PWINO TSNO,M
CXP,2022-08-18 19:55,-119.7326,39.1923,1431.00,84.20,53.60,34.97,M,4.00,0.00,30.17,M,10.00,M,FEW,M,M,M,9000.00,M,M,M,VCTS,M,M,M,M,M,M,82.76,KCXP 181955Z AUTO VRB04KT 10SM VCTS FEW090 29/12 A3017 RMK AO2 LTG DSNT N AND NW,M
RNO,2022-08-18 19:55,-119.7711,39.4839,1341.00,82.00,55.00,39.52,10.00,5.00,0.00,30.15,1015.50,10.00,M,BKN,BKN,M,M,10000.00,19000.00,M,M,TS,M,M,M,M,M,M,81.40,KRNO 181955Z 01005KT 10SM TS BKN100CB BKN190 28/13 A3015 RMK AO2 LTG DSNT S AND NW TSB38 SLP155 FRQ LTGCGIC S TS S MOV E CB W MOV E T02780128,M
RTS,2022-08-18 19:55,-119.8764,39.6682,1539.00,78.80,53.60,41.69,130.00,9.00,0.00,30.20,M,10.00,14.00,CLR,M,M,M,M,M,M,M,M,M,M,M,M,M,M,78.80,KRTS 181955Z AUTO 13009G14KT 10SM CLR 26/12 A3020 RMK AO2,M
BAM,2022-08-18 19:55,-116.8743,40.5990,1382.36,77.00,59.00,53.80,330.00,5.00,0.00,30.18,M,10.00,M,CLR,M,M,M,M,M,M,M,M,M,M,M,M,M,M,77.00,KBAM 181955Z AUTO 33005KT 10SM CLR 25/15 A3018 RMK AO1,M
HTH,2022-08-18 19:55,-118.6315,38.5448,1282.89,80.60,57.20,44.80,0.00,0.00,0.00,30.15,M,10.00,M,CLR,M,M,M,M,M,M,M,M,M,M,M,M,M,M,80.81,KHTH 181955Z AUTO 00000KT 10SM CLR 27/14 A3015 RMK A01,M
TMT,2022-08-18 19:55,-117.1971,39.4643,1749.34,M,M,M,190.00,5.00,0.00,30.23,M,10.00,M,CLR,M,M,M,M,M,M,M,M,M,M,M,M,M,M,M,KTMT 181955Z AUTO 19005KT 10SM CLR A3023 RMK AO2,M
HND,2022-08-18 19:56,-115.1344,35.9729,742.79,98.00,64.00,32.85,20.00,8.00,0.00,29.96,1012.70,10.00,M,CLR,M,M,M,M,M,M,M,M,M,M,M,M,M,M,100.65,KHND 181956Z 02008KT 10SM CLR 37/18 A2996 RMK AO2 LTG DSNT S AND NW SLP127 T03670178,M
TPH,2022-08-18 19:56,-117.0904,38.0505,1654.00,82.00,55.00,39.52,220.00,9.00,0.00,30.20,1014.70,10.00,M,CLR,M,M,M,M,M,M,M,M,M,M,M,M,M,M,81.40,KTPH 181956Z AUTO 22009KT 10SM CLR 28/13 A3020 RMK AO2 SLP147 T02780128,M
NFL,2022-08-18 19:56,-118.7010,39.4166,1199.00,83.00,52.00,34.39,340.00,4.00,0.00,30.13,1016.70,10.00,M,SCT,SCT,M,M,8000.00,12000.00,M,M,M,M,M,M,M,M,M,81.57,KNFL 181956Z 34004KT 10SM SCT080 SCT120 28/11 A3013 RMK AO2 SLP167 CB DSNT SW-NW TCU DSNT SE T02830111,M
LAS,2022-08-18 19:56,-115.1634,36.0719,663.00,98.00,62.00,30.72,40.00,9.00,0.00,29.93,1010.30,10.00,14.00,FEW,SCT,SCT,M,12000.00,16000.00,20000.00,M,M,M,M,M,M,M,M,99.51,KLAS 181956Z 04009G14KT 10SM FEW120 SCT160 SCT200 37/17 A2993 RMK AO2 LTG DSNT S AND NW SLP103 CB DSNT S NW AND N T03670167,M
EKO,2022-08-18 19:56,-115.7860,40.8242,1367.00,72.00,50.00,45.81,0.00,0.00,0.00,30.18,1017.20,10.00,M,CLR,M,M,M,M,M,M,M,M,M,M,M,M,M,M,72.00,KEKO 181956Z AUTO 00000KT 10SM CLR 22/10 A3018 RMK AO2 SLP172 T02220100,M
WMC,2022-08-18 19:56,-117.8072,40.9019,1315.00,84.00,50.00,30.82,M,4.00,0.00,30.14,1014.80,10.00,M,FEW,M,M,M,10000.00,M,M,M,M,M,M,M,M,M,M,82.09,KWMC 181956Z AUTO VRB04KT 10SM FEW100 29/10 A3014 RMK AO2 SLP148 T02890100,M
INS,2022-08-18 19:58,-115.6733,36.5872,955.00,92.00,56.00,29.83,80.00,10.00,0.00,29.99,1010.10,10.00,M,BKN,M,M,M,15000.00,M,M,M,M,M,M,M,M,M,M,90.43,KINS 181958Z AUTO 08010KT 10SM BKN150 33/13 A2999 RMK AO2 SLP101 T03340134,M
LSV,2022-08-18 19:58,-115.0343,36.2362,570.00,101.00,62.00,27.86,130.00,10.00,0.00,29.89,M,10.00,M,CLR,M,M,M,M,M,M,M,M,M,M,M,M,M,M,102.91,KLSV 181958Z AUTO 13010KT 10SM CLR 38/17 A2989 RMK AO2 SLPNO T03840166 $,M
LAS,2022-08-18 20:04,-115.1634,36.0719,663.00,99.00,62.00,29.90,30.00,7.00,0.00,29.93,M,10.00,M,FEW,SCT,SCT,M,12000.00,16000.00,20000.00,M,M,M,M,M,M,M,M,100.56,KLAS 182004Z 03007KT 10SM FEW120 SCT160 SCT200 37/17 A2993 RMK AO2 LTG DSNT W CB DSNT S NW AND N T03720167,M
MEV,2022-08-18 20:15,-119.7500,38.9963,1441.42,87.80,44.60,22.27,230.00,8.00,0.00,30.15,M,10.00,M,CLR,M,M,M,M,M,M,M,M,M,M,M,M,M,M,84.53,KMEV 182015Z AUTO 23008KT 170V280 10SM CLR 31/07 A3015 RMK AO2 LTG DSNT N,M
TMT,2022-08-18 20:15,-117.1971,39.4643,1749.34,M,M,M,270.00,13.00,0.00,30.22,M,10.00,16.00,SCT,SCT,M,M,7000.00,7500.00,M,M,M,M,M,M,M,M,M,M,KTMT 182015Z AUTO 27013G16KT 220V290 10SM SCT070 SCT075 A3022 RMK AO2,M
HTH,2022-08-18 20:15,-118.6315,38.5448,1282.89,80.60,55.40,41.97,360.00,4.00,0.00,30.14,M,10.00,M,CLR,M,M,M,M,M,M,M,M,M,M,M,M,M,M,80.53,KHTH 182015Z AUTO 36004KT 10SM CLR 27/13 A3014 RMK A01,M
BVU,2022-08-18 20:15,-114.8611,35.9475,671.00,98.60,60.80,28.90,80.00,7.00,0.00,29.92,M,M,14.00,M,M,M,M,M,M,M,M,M,M,M,M,M,M,M,99.39,KBVU 182015Z AUTO 08007G14KT 37/16 A2992 RMK AO2 PWINO TSNO,M
CXP,2022-08-18 20:15,-119.7326,39.1923,1431.00,80.60,44.60,28.08,330.00,12.00,0.00,30.16,M,10.00,22.00,FEW,FEW,M,M,9000.00,12000.00,M,M,VCTS,M,M,M,M,M,M,79.42,KCXP 182015Z AUTO 33012G22KT 10SM VCTS FEW090 FEW120 27/07 A3016 RMK AO2 LTG DSNT N AND NE,M
RTS,2022-08-18 20:15,-119.8764,39.6682,1539.00,78.80,51.80,39.02,140.00,5.00,0.00,30.19,M,10.00,M,CLR,M,M,M,M,M,M,M,M,M,M,M,M,M,M,78.80,KRTS 182015Z AUTO 14005KT 10SM CLR 26/11 A3019 RMK AO2,M
BAM,2022-08-18 20:15,-116.8743,40.5990,1382.36,78.80,55.40,44.52,170.00,3.00,0.00,30.17,M,10.00,M,CLR,M,M,M,M,M,M,M,M,M,M,M,M,M,M,78.80,KBAM 182015Z AUTO 17003KT 10SM CLR 26/13 A3017 RMK AO1,M
CXP,2022-08-18 20:30,-119.7326,39.1923,1431.00,82.40,46.40,28.36,330.00,8.00,0.00,30.16,M,10.00,13.00,FEW,M,M,M,12000.00,M,M,M,M,M,M,M,M,M,M,80.64,KCXP 182030Z AUTO 33008G13KT 10SM FEW120 28/08 A3016 RMK AO2,M
BAM,2022-08-18 20:35,-116.8743,40.5990,1382.36,80.60,55.40,41.97,0.00,0.00,0.00,30.16,M,10.00,M,CLR,M,M,M,M,M,M,M,M,M,M,M,M,M,M,80.53,KBAM 182035Z AUTO 00000KT 10SM CLR 27/13 A3016 RMK AO1,M
HTH,2022-08-18 20:35,-118.6315,38.5448,1282.89,82.40,55.40,39.58,0.00,0.00,0.00,30.13,M,10.00,M,CLR,M,M,M,M,M,M,M,M,M,M,M,M,M,M,81.75,KHTH 182035Z AUTO 00000KT 10SM CLR 28/13 A3013 RMK A01,M
TMT,2022-08-18 20:35,-117.1971,39.4643,1749.34,M,M,M,260.00,10.00,0.00,30.22,M,10.00,15.00,SCT,M,M,M,7500.00,M,M,M,M,M,M,M,M,M,M,M,KTMT 182035Z AUTO 26010G15KT 10SM SCT075 A3022 RMK AO2,M
RTS,2022-08-18 20:35,-119.8764,39.6682,1539.00,80.60,51.80,36.79,110.00,5.00,0.00,30.19,M,10.00,12.00,FEW,FEW,M,M,7500.00,10000.00,M,M,M,M,M,M,M,M,M,80.08,KRTS 182035Z AUTO 11005G12KT 10SM FEW075 FEW100 27/11 A3019 RMK AO2,M
MEV,2022-08-18 20:35,-119.7500,38.9963,1441.42,89.60,44.60,21.04,300.00,8.00,0.00,30.14,M,10.00,14.00,CLR,M,M,M,M,M,M,M,M,M,M,M,M,M,M,86.07,KMEV 182035Z AUTO 30008G14KT 240V320 10SM CLR 32/07 A3014 RMK AO2,M
BVU,2022-08-18 20:35,-114.8611,35.9475,671.00,98.60,60.80,28.90,110.00,7.00,0.00,29.91,M,M,12.00,M,M,M,M,M,M,M,M,M,M,M,M,M,M,M,99.39,KBVU 182035Z AUTO 11007G12KT 080V140 37/16 A2991 RMK AO2 PWINO TSNO,M
RNO,2022-08-18 20:36,-119.7711,39.4839,1341.00,77.00,56.00,48.12,140.00,12.00,0.05,30.15,M,10.00,M,BKN,BKN,M,M,9500.00,19000.00,M,M,M,M,M,M,M,M,M,77.00,KRNO 182036Z 14012KT 10SM BKN095CB BKN190 25/13 A3015 RMK AO2 LTG DSNT N AND E RAB12E34 TSE35 TS MOVD E CB N STNRY CB DSNT E AND SE P0005 T02500133,M
DRA,2022-08-18 20:53,-116.0278,36.6206,1009.00,96.00,54.00,24.42,M,4.00,0.00,29.97,1009.30,10.00,M,FEW,M,M,M,8500.00,M,M,M,M,M,M,M,M,M,M,93.97,KDRA 182053Z AUTO VRB04KT 10SM FEW085 36/12 A2997 RMK AO2 SLP093 T03560122 58019,M
ELY,2022-08-18 20:53,-114.8453,39.2950,1909.00,86.00,40.00,19.68,100.00,5.00,0.00,30.17,1011.00,10.00,M,BKN,M,M,M,11000.00,M,M,M,M,M,M,M,M,M,M,82.81,KELY 182053Z AUTO 10005KT 10SM BKN110 30/04 A3017 RMK AO2 LTG DSNT W AND NW SLP110 T03000044 58018,M
LOL,2022-08-18 20:53,-118.5701,40.0684,1192.43,83.00,56.00,39.66,M,3.00,0.00,30.11,1015.40,10.00,M,CLR,M,M,M,M,M,M,M,M,M,M,M,M,M,M,82.20,KLOL 182053Z AUTO VRB03KT 10SM CLR 28/13 A3011 RMK AO2 SLP154 T02830133 58016,M
VGT,2022-08-18 20:53,-115.1933,36.2111,667.00,98.00,61.00,29.55,90.00,5.00,0.00,29.90,1011.00,10.00,M,FEW,M,M,M,12000.00,M,M,M,M,M,M,M,M,M,M,98.92,KVGT 182053Z 09005KT 10SM FEW120 37/16 A2990 RMK AO2 LTG DSNT N AND SW SLP110 T03670161 58017,M
P68,2022-08-18 20:53,-116.0056,39.6014,1993.00,78.00,50.00,37.36,20.00,9.00,0.00,30.20,1013.70,M,M,M,M,M,M,M,M,M,M,M,M,M,M,M,M,M,78.10,KP68 182053Z AUTO 02009KT 26/10 A3020 RMK AO1 SLP137 T02560100 58013,M
CXP,2022-08-18 20:55,-119.7326,39.1923,1431.00,86.00,44.60,23.59,M,3.00,0.00,30.16,M,10.00,M,CLR,M,M,M,M,M,M,M,M,M,M,M,M,M,M,83.07,KCXP 182055Z AUTO VRB03KT 10SM CLR 30/07 A3016 RMK AO2,M
RTS,2022-08-18 20:55,-119.8764,39.6682,1539.00,82.40,50.00,32.46,170.00,13.00,0.00,30.18,M,10.00,19.00,FEW,FEW,M,M,7500.00,9000.00,M,M,M,M,M,M,M,M,M,80.99,KRTS 182055Z AUTO 17013G19KT 10SM FEW075 FEW090 28/10 A3018 RMK AO2,M
MEV,2022-08-18 20:55,-119.7500,38.9963,1441.42,89.60,39.20,17.09,290.00,11.00,0.00,30.14,M,10.00,19.00,CLR,M,M,M,M,M,M,M,M,M,M,M,M,M,M,85.73,KMEV 182055Z AUTO 29011G19KT 10SM CLR 32/04 A3014 RMK AO2,M
BAM,2022-08-18 20:55,-116.8743,40.5990,1382.36,80.60,53.60,39.30,220.00,4.00,0.00,30.15,M,10.00,M,CLR,M,M,M,M,M,M,M,M,M,M,M,M,M,M,80.29,KBAM 182055Z AUTO 22004KT 10SM CLR 27/12 A3015 RMK AO1,M
BVU,2022-08-18 20:55,-114.8611,35.9475,671.00,98.60,60.80,28.90,M,6.00,0.00,29.90,M,M,M,M,M,M,M,M,M,M,M,M,M,M,M,M,M,M,99.39,KBVU 182055Z AUTO VRB06KT 37/16 A2990 RMK AO2 PWINO TSNO,M
TMT,2022-08-18 20:55,-117.1971,39.4643,1749.34,M,M,M,240.00,7.00,0.00,30.21,M,10.00,17.00,SCT,M,M,M,9000.00,M,M,M,M,M,M,M,M,M,M,M,KTMT 182055Z AUTO 24007G17KT 200V280 10SM SCT090 A3021 RMK AO2,M
RNO,2022-08-18 20:55,-119.7711,39.4839,1341.00,77.00,56.00,48.12,150.00,8.00,0.05,30.14,1015.60,10.00,M,BKN,BKN,M,M,9500.00,19000.00,M,M,-RA,M,M,M,M,M,M,77.00,KRNO 182055Z 15008KT 10SM -RA BKN095CB BKN190 25/13 A3014 RMK AO2 LTG DSNT N AND E RAB12E34B46 TSE35 SLP156 CB ALQDS MOV E P0005 60005 T02500133 56010,M
HTH,2022-08-18 20:55,-118.6315,38.5448,1282.89,84.20,53.60,34.97,0.00,0.00,0.00,30.12,M,10.00,M,CLR,M,M,M,M,M,M,M,M,M,M,M,M,M,M,82.76,KHTH 182055Z AUTO 00000KT 10SM CLR 29/12 A3012 RMK A01,M
LAS,2022-08-18 20:56,-115.1634,36.0719,663.00,98.00,62.00,30.72,80.00,6.00,0.00,29.91,1009.50,10.00,M,FEW,SCT,SCT,M,12000.00,16000.00,20000.00,M,M,M,M,M,M,M,M,99.51,KLAS 182056Z 08006KT 10SM FEW120 SCT160 SCT200 37/17 A2991 RMK AO2 LTG DSNT N AND W SLP095 CB DSNT SE-S AND W-N T03670167 58020,M
TPH,2022-08-18 20:56,-117.0904,38.0505,1654.00,85.00,47.00,26.66,290.00,11.00,0.00,30.18,1013.60,10.00,18.00,CLR,M,M,M,M,M,M,M,M,M,M,M,M,M,M,82.42,KTPH 182056Z AUTO 29011G18KT 10SM CLR 29/08 A3018 RMK AO2 SLP136 T02940083 58013,M
NFL,2022-08-18 20:56,-118.7010,39.4166,1199.00,88.00,53.00,30.41,340.00,7.00,0.00,30.10,1016.10,10.00,M,SCT,SCT,M,M,8000.00,12000.00,M,M,M,M,M,M,M,M,M,85.80,KNFL 182056Z 34007KT 10SM SCT080 SCT120 31/12 A3010 RMK AO2 SLP161 CB DSNT SW-NW T03110117 58016,M
WMC,2022-08-18 20:56,-117.8072,40.9019,1315.00,88.00,50.00,27.12,130.00,8.00,0.00,30.11,1013.80,10.00,16.00,CLR,M,M,M,M,M,M,M,M,M,M,M,M,M,M,85.28,KWMC 182056Z AUTO 13008G16KT 10SM CLR 31/10 A3011 RMK AO2 SLP138 T03110100 58022,M
HND,2022-08-18 20:56,-115.1344,35.9729,742.79,99.00,64.00,31.96,M,6.00,0.00,29.94,1012.00,10.00,15.00,CLR,M,M,M,M,M,M,M,M,M,M,M,M,M,M,101.72,KHND 182056Z VRB06G15KT 10SM CLR 37/18 A2994 RMK AO2 LTG DSNT W SLP120 T03720178 58019,M
EKO,2022-08-18 20:56,-115.7860,40.8242,1367.00,74.00,49.00,41.24,M,3.00,0.00,30.16,1016.80,10.00,M,CLR,M,M,M,M,M,M,M,M,M,M,M,M,M,M,73.90,KEKO 182056Z AUTO VRB03KT 10SM CLR 23/09 A3016 RMK AO2 SLP168 T02330094 58016,M
LSV,2022-08-18 20:58,-115.0343,36.2362,570.00,104.50,61.50,24.82,240.00,3.00,0.00,29.87,M,10.00,M,SCT,M,M,M,15000.00,M,M,M,M,M,M,M,M,M,M,106.66,KLSV 182058Z 24003KT 10SM SCT150 40/16 A2987 RMK AO2A LTG DSNT N SLPNO T04030164 57019 $,M
INS,2022-08-18 20:58,-115.6733,36.5872,955.00,93.40,55.40,27.93,80.00,11.00,0.00,29.97,1009.40,10.00,M,CLR,M,M,M,M,M,M,M,M,M,M,M,M,M,M,91.55,KINS 182058Z AUTO 08011KT 10SM CLR 34/13 A2997 RMK AO2 SLP094 T03410130 57017,M
BVU,2022-08-18 21:15,-114.8611,35.9475,671.00,96.80,59.00,28.63,M,3.00,0.00,29.89,M,M,M,M,M,M,M,M,M,M,M,M,M,M,M,M,M,M,96.50,KBVU 182115Z AUTO VRB03KT 36/15 A2989 RMK AO2 PWINO TSNO,M
CXP,2022-08-18 21:15,-119.7326,39.1923,1431.00,87.80,37.40,16.86,220.00,8.00,0.00,30.15,M,10.00,15.00,CLR,M,M,M,M,M,M,M,M,M,M,M,M,M,M,84.16,KCXP 182115Z AUTO 22008G15KT 190V250 10SM CLR 31/03 A3015 RMK AO2,M
RTS,2022-08-18 21:15,-119.8764,39.6682,1539.00,82.40,50.00,32.46,M,4.00,0.00,30.17,M,10.00,M,FEW,FEW,M,M,7000.00,8500.00,M,M,M,M,M,M,M,M,M,80.99,KRTS 182115Z AUTO VRB04KT 10SM FEW070 FEW085 28/10 A3017 RMK AO2,M
MEV,2022-08-18 21:15,-119.7500,38.9963,1441.42,89.60,39.20,17.09,260.00,10.00,0.00,30.14,M,10.00,M,CLR,M,M,M,M,M,M,M,M,M,M,M,M,M,M,85.73,KMEV 182115Z AUTO 26010KT 10SM CLR 32/04 A3014 RMK AO2,M
BAM,2022-08-18 21:15,-116.8743,40.5990,1382.36,82.40,55.40,39.58,240.00,5.00,0.00,30.14,M,10.00,M,CLR,M,M,M,M,M,M,M,M,M,M,M,M,M,M,81.75,KBAM 182115Z AUTO 24005KT 10SM CLR 28/13 A3014 RMK AO1,M
HTH,2022-08-18 21:15,-118.6315,38.5448,1282.89,86.00,51.80,30.90,M,3.00,0.00,30.11,M,10.00,M,CLR,M,M,M,M,M,M,M,M,M,M,M,M,M,M,83.87,KHTH 182115Z AUTO VRB03KT 10SM CLR 30/11 A3011 RMK A01,M
TMT,2022-08-18 21:15,-117.1971,39.4643,1749.34,M,M,M,240.00,10.00,0.00,30.20,M,10.00,17.00,SCT,M,M,M,9000.00,M,M,M,M,M,M,M,M,M,M,M,KTMT 182115Z AUTO 24010G17KT 10SM SCT090 A3020 RMK AO2,M
HTH,2022-08-18 21:35,-118.6315,38.5448,1282.89,86.00,48.20,27.03,M,4.00,0.00,30.10,M,10.00,M,CLR,M,M,M,M,M,M,M,M,M,M,M,M,M,M,83.40,KHTH 182135Z AUTO VRB04KT 10SM CLR 30/09 A3010 RMK A01,M
TMT,2022-08-18 21:35,-117.1971,39.4643,1749.34,84.00,48.00,28.60,300.00,10.00,0.00,30.19,M,10.00,20.00,SCT,M,M,M,8500.00,M,M,M,M,M,M,M,M,M,M,81.87,KTMT 182135Z AUTO 30010G20KT 10SM SCT085 29/09 A3019 RMK AO2 LTG DSNT E T02890089,M
BAM,2022-08-18 21:35,-116.8743,40.5990,1382.36,84.20,55.40,37.35,210.00,4.00,0.00,30.13,M,10.00,M,CLR,M,M,M,M,M,M,M,M,M,M,M,M,M,M,83.09,KBAM 182135Z AUTO 21004KT 10SM CLR 29/13 A3013 RMK AO1,M
MEV,2022-08-18 21:35,-119.7500,38.9963,1441.42,89.60,39.20,17.09,290.00,13.00,0.00,30.13,M,10.00,M,CLR,M,M,M,M,M,M,M,M,M,M,M,M,M,M,85.73,KMEV 182135Z AUTO 29013KT 10SM CLR 32/04 A3013 RMK AO2,M
RTS,2022-08-18 21:35,-119.8764,39.6682,1539.00,80.60,48.20,32.18,190.00,8.00,0.00,30.18,M,10.00,M,SCT,M,M,M,8000.00,M,M,M,M,M,M,M,M,M,M,79.71,KRTS 182135Z AUTO 19008KT 150V240 10SM SCT080 27/09 A3018 RMK AO2,M
CXP,2022-08-18 21:35,-119.7326,39.1923,1431.00,89.60,44.60,21.04,80.00,10.00,0.00,30.15,M,10.00,16.00,CLR,M,M,M,M,M,M,M,M,M,M,M,M,M,M,86.07,KCXP 182135Z AUTO 08010G16KT 10SM CLR 32/07 A3015 RMK AO2 LTG DSNT NW-NE,M
BVU,2022-08-18 21:35,-114.8611,35.9475,671.00,95.00,62.60,34.39,M,6.00,0.00,29.88,M,M,11.00,M,M,M,M,M,M,M,M,M,M,M,M,M,M,M,96.22,KBVU 182135Z AUTO VRB06G11KT 35/17 A2988 RMK AO2 PWINO TSNO,M
HND,2022-08-18 21:46,-115.1344,35.9729,742.79,96.80,62.60,32.54,340.00,8.00,0.00,29.91,M,10.00,M,FEW,M,M,M,8500.00,M,M,M,VCTS,M,M,M,M,M,M,98.28,KHND 182146Z 34008KT 10SM VCTS FEW085 36/17 A2991 RMK AO2 LTG DSNT ALQDS TSB40,M
VGT,2022-08-18 21:53,-115.1933,36.2111,667.00,96.00,61.00,31.41,330.00,13.00,T,29.87,1010.00,10.00,M,FEW,SCT,BKN,M,3500.00,4900.00,10000.00,M,-RA,M,M,M,M,M,M,96.64,KVGT 182153Z 33013KT 10SM -RA FEW035 SCT049 BKN100 36/16 A2987 RMK AO2 LTG DSNT ALQDS RAB47 SLP100 P0000 T03560161,M
ELY,2022-08-18 21:53,-114.8453,39.2950,1909.00,82.00,44.00,26.33,320.00,11.00,0.00,30.15,1010.60,10.00,23.00,OVC,M,M,M,10000.00,M,M,M,M,M,M,M,M,M,M,80.22,KELY 182153Z AUTO 32011G23KT 10SM OVC100 28/07 A3015 RMK AO2 LTG DSNT N AND S AND SW SLP106 T02780067,M
LOL,2022-08-18 21:53,-118.5701,40.0684,1192.43,84.00,55.00,37.05,M,5.00,0.00,30.08,1014.30,10.00,M,CLR,M,M,M,M,M,M,M,M,M,M,M,M,M,M,82.85,KLOL 182153Z AUTO VRB05KT 10SM CLR 29/13 A3008 RMK AO2 LTG DSNT W SLP143 T02890128,M
P68,2022-08-18 21:53,-116.0056,39.6014,1993.00,82.00,48.00,30.51,30.00,8.00,0.00,30.16,1012.10,M,M,M,M,M,M,M,M,M,M,M,M,M,M,M,M,M,80.53,KP68 182153Z AUTO 03008KT 28/09 A3016 RMK AO1 SLP121 T02780089,M
DRA,2022-08-18 21:53,-116.0278,36.6206,1009.00,99.00,52.00,20.77,330.00,5.00,0.00,29.95,1008.20,10.00,M,CLR,M,M,M,M,M,M,M,M,M,M,M,M,M,M,96.47,KDRA 182153Z AUTO 33005KT 10SM CLR 37/11 A2995 RMK AO2 SLP082 T03720111,M
TMT,2022-08-18 21:55,-117.1971,39.4643,1749.34,M,M,M,290.00,9.00,0.00,30.19,M,10.00,20.00,BKN,M,M,M,8500.00,M,M,M,M,M,M,M,M,M,M,M,KTMT 182155Z AUTO 29009G20KT 10SM BKN085 A3019 RMK AO2,M
BVU,2022-08-18 21:55,-114.8611,35.9475,671.00,89.60,66.20,46.14,270.00,8.00,0.00,29.88,M,M,M,M,M,M,M,M,M,M,M,M,M,M,M,M,M,M,92.27,KBVU 182155Z AUTO 27008KT 32/19 A2988 RMK AO2 PWINO TSNO,M
CXP,2022-08-18 21:55,-119.7326,39.1923,1431.00,84.20,44.60,24.99,90.00,14.00,0.00,30.14,M,9.00,M,CLR,M,M,M,M,M,M,M,M,M,M,M,M,M,M,81.73,KCXP 182155Z AUTO 09014KT 9SM CLR 29/07 A3014 RMK AO2,M
RNO,2022-08-18 21:55,-119.7711,39.4839,1341.00,84.00,50.00,30.82,130.00,5.00,T,30.12,1014.50,10.00,M,BKN,BKN,M,M,10000.00,23000.00,M,M,-RA,M,M,M,M,M,M,82.09,KRNO 182155Z COR 13005KT 10SM -RA BKN100CB BKN230 29/10 A3012 RMK AO2 LTG DSNT NE RAE2057B55 SLP145 CB W THRU NW MOV E P0000 T02890100,M
RTS,2022-08-18 21:55,-119.8764,39.6682,1539.00,78.80,44.60,29.79,300.00,17.00,0.00,30.19,M,10.00,24.00,FEW,SCT,SCT,M,8000.00,9000.00,11000.00,M,M,M,M,M,M,M,M,78.80,KRTS 182155Z AUTO 30017G24KT 10SM FEW080 SCT090 SCT110 26/07 A3019 RMK AO2,M
MEV,2022-08-18 21:55,-119.7500,38.9963,1441.42,89.60,39.20,17.09,260.00,13.00,0.00,30.12,M,10.00,18.00,CLR,M,M,M,M,M,M,M,M,M,M,M,M,M,M,85.73,KMEV 182155Z AUTO 26013G18KT 10SM CLR 32/04 A3012 RMK AO2,M
BAM,2022-08-18 21:55,-116.8743,40.5990,1382.36,86.00,55.40,35.25,230.00,5.00,0.00,30.11,M,10.00,M,CLR,M,M,M,M,M,M,M,M,M,M,M,M,M,M,84.54,KBAM 182155Z AUTO 23005KT 10SM CLR 30/13 A3011 RMK AO1,M
HTH,2022-08-18 21:55,-118.6315,38.5448,1282.89,84.20,50.00,30.62,290.00,5.00,0.00,30.10,M,10.00,M,CLR,M,M,M,M,M,M,M,M,M,M,M,M,M,M,82.24,KHTH 182155Z AUTO 29005KT 10SM CLR 29/10 A3010 RMK A01,M
TPH,2022-08-18 21:56,-117.0904,38.0505,1654.00,87.00,42.00,20.70,340.00,12.00,0.00,30.15,1012.60,10.00,16.00,CLR,M,M,M,M,M,M,M,M,M,M,M,M,M,M,83.79,KTPH 182156Z AUTO 34012G16KT 10SM CLR 31/06 A3015 RMK AO2 SLP126 T03060056,M
EKO,2022-08-18 21:56,-115.7860,40.8242,1367.00,76.00,49.00,38.57,0.00,0.00,0.00,30.13,1015.30,10.00,M,CLR,M,M,M,M,M,M,M,M,M,M,M,M,M,M,75.90,KEKO 182156Z AUTO 00000KT 10SM CLR 24/09 A3013 RMK AO2 SLP153 T02440094,M
WMC,2022-08-18 21:56,-117.8072,40.9019,1315.00,87.00,50.00,27.91,200.00,7.00,0.00,30.08,1012.90,10.00,M,CLR,M,M,M,M,M,M,M,M,M,M,M,M,M,M,84.51,KWMC 182156Z AUTO 20007KT 10SM CLR 31/10 A3008 RMK AO2 SLP129 T03060100,M
HND,2022-08-18 21:56,-115.1344,35.9729,742.79,98.00,63.00,31.71,310.00,15.00,0.00,29.90,1010.90,10.00,18.00,FEW,SCT,M,M,7000.00,11000.00,M,M,VCTS,M,M,M,M,M,M,100.03,KHND 182156Z 31015G18KT 10SM VCTS FEW070 SCT110 37/17 A2990 RMK AO2 LTG DSNT ALQDS TSB40 SLP109 T03670172,M
LAS,2022-08-18 21:56,-115.1634,36.0719,663.00,99.00,61.00,28.75,310.00,14.00,0.00,29.87,1008.30,10.00,M,SCT,BKN,BKN,M,12000.00,16000.00,20000.00,M,M,M,M,M,M,M,M,99.96,KLAS 182156Z 31014KT 10SM SCT120CB BKN160 BKN200 37/16 A2987 RMK AO2 LTG DSNT ALQDS SLP083 CB E-S-W AND DSNT ALQDS VCSH SE T03720161,M
INS,2022-08-18 21:58,-115.6733,36.5872,955.00,93.40,54.30,26.83,100.00,11.00,0.00,29.95,1008.90,10.00,M,SCT,BKN,M,M,15000.00,17000.00,M,M,M,M,M,M,M,M,M,91.25,KINS 182158Z AUTO 10011KT 10SM SCT150 BKN170 34/12 A2995 RMK AO2 SLP089 T03410124,M
LSV,2022-08-18 21:58,-115.0343,36.2362,570.00,105.00,57.00,20.88,360.00,19.00,0.00,29.84,M,10.00,M,FEW,SCT,BKN,M,8500.00,12000.00,15000.00,M,M,M,M,M,M,M,M,104.70,KLSV 182158Z 36019KT 10SM FEW085 SCT120 BKN150 41/14 A2984 RMK AO2A LTG DSNT S SLPNO T04050139 $,M
RNO,2022-08-18 22:03,-119.7711,39.4839,1341.00,83.00,50.00,31.93,180.00,6.00,T,30.12,M,10.00,M,BKN,BKN,M,M,10000.00,23000.00,M,M,-TSRA,M,M,M,M,M,M,81.32,KRNO 182203Z 18006KT 10SM -TSRA BKN100CB BKN230 28/10 A3012 RMK AO2 LTG DSNT NE TSB02 OCNL LTGIC W TS W MOV E P0000 T02830100,M
NFL,2022-08-18 22:05,-118.7010,39.4166,1199.00,76.00,50.00,40.19,290.00,25.00,T,30.11,M,7.00,39.00,BKN,BKN,BKN,M,8000.00,12000.00,17000.00,M,-TSRA,M,M,M,38.00,280.00,2022-08-18 21:59,75.90,KNFL 182205Z 29025G39KT 7SM -TSRA BKN080CB BKN120 BKN170 24/10 A3011 RMK AO2 PK WND 28038/2159 RAB05 OCNL LTGCGCC VC SW-NW TS VC SW-NW MOV E P0000 T02440100,M
RTS,2022-08-18 22:15,-119.8764,39.6682,1539.00,73.40,46.40,38.18,220.00,12.00,0.00,30.19,M,10.00,19.00,SCT,SCT,M,M,9000.00,11000.00,M,M,M,M,M,M,M,M,M,73.40,KRTS 182215Z AUTO 22012G19KT 10SM SCT090 SCT110 23/08 A3019 RMK AO2,M
BAM,2022-08-18 22:15,-116.8743,40.5990,1382.36,86.00,51.80,30.90,160.00,6.00,0.00,30.10,M,10.00,M,CLR,M,M,M,M,M,M,M,M,M,M,M,M,M,M,83.87,KBAM 182215Z AUTO 16006KT 10SM CLR 30/11 A3010 RMK AO1,M
HTH,2022-08-18 22:15,-118.6315,38.5448,1282.89,86.00,48.20,27.03,M,4.00,0.00,30.09,M,10.00,M,CLR,M,M,M,M,M,M,M,M,M,M,M,M,M,M,83.40,KHTH 182215Z AUTO VRB04KT 10SM CLR 30/09 A3009 RMK A01,M
MEV,2022-08-18 22:15,-119.7500,38.9963,1441.42,87.80,39.20,18.09,310.00,7.00,0.00,30.12,M,10.00,17.00,CLR,M,M,M,M,M,M,M,M,M,M,M,M,M,M,84.22,KMEV 182215Z AUTO 31007G17KT 10SM CLR 31/04 A3012 RMK AO2,M
TMT,2022-08-18 22:15,-117.1971,39.4643,1749.34,M,M,M,250.00,10.00,0.00,30.18,M,10.00,M,SCT,M,M,M,8500.00,M,M,M,M,M,M,M,M,M,M,M,KTMT 182215Z AUTO 25010KT 10SM SCT085 A3018 RMK AO2 LTG DSNT E AND SE,M
BVU,2022-08-18 22:15,-114.8611,35.9475,671.00,86.00,66.20,51.72,250.00,13.00,0.00,29.89,M,M,20.00,M,M,M,M,M,M,M,M,M,M,M,M,M,M,M,88.39,KBVU 182215Z AUTO 25013G20KT 30/19 A2989 RMK AO2 PWINO TSNO,M
CXP,2022-08-18 22:15,-119.7326,39.1923,1431.00,86.00,44.60,23.59,90.00,13.00,0.00,30.14,M,10.00,M,FEW,M,M,M,10000.00,M,M,M,M,M,M,M,M,M,M,83.07,KCXP 182215Z AUTO 09013KT 10SM FEW100 30/07 A3014 RMK AO2,M
ELY,2022-08-18 22:23,-114.8453,39.2950,1909.00,79.00,42.00,26.89,300.00,15.00,T,30.17,M,10.00,25.00,OVC,M,M,M,10000.00,M,M,M,VCTS -RA,M,M,M,M,M,M,79.00,KELY 182223Z AUTO 30015G25KT 10SM VCTS -RA OVC100 26/06 A3017 RMK AO2 LTG DSNT S RAB19 P0000 T02610056,M
RNO,2022-08-18 22:24,-119.7711,39.4839,1341.00,79.00,50.00,36.51,340.00,13.00,T,30.14,M,10.00,21.00,BKN,BKN,M,M,10000.00,23000.00,M,M,-TSRA,M,M,M,M,M,M,78.80,KRNO 182224Z 34013G21KT 10SM -TSRA BKN100CB BKN230 26/10 A3014 RMK AO2 WSHFT 2208 LTG DSNT N TSB02 OCNL LTGIC W TS W MOV E P0000 T02610100,M
LAS,2022-08-18 22:24,-115.1634,36.0719,663.00,97.00,61.00,30.56,330.00,9.00,0.00,29.88,M,10.00,19.00,SCT,BKN,BKN,M,12000.00,16000.00,20000.00,M,TS,M,M,M,M,M,M,97.66,KLAS 182224Z 33009G19KT 10SM TS SCT120CB BKN160 BKN200 36/16 A2988 RMK AO2 LTG DSNT ALQDS TSB24 OCNL LTGICCG SE-SW TS SE-SW MOV NE VCSH SE-SW CB DSNT ALQDS T03610161,M
NFL,2022-08-18 22:26,-118.7010,39.4166,1199.00,84.00,37.00,18.74,M,4.00,T,30.11,M,3.00,44.00,BKN,BKN,BKN,M,8000.00,12000.00,17000.00,M,BLDU,M,M,M,44.00,280.00,2022-08-18 22:22,81.23,KNFL 182226Z VRB04G44KT 3SM BLDU BKN080 BKN120 BKN170 29/03 A3011 RMK AO2 PK WND 28044/2222 WSHFT 2153 RAB05E20 TSE20 TS DISPTD CB DSNT ALQDS P0000 T02890028,M
ELY,2022-08-18 22:32,-114.8453,39.2950,1909.00,74.00,49.00,41.24,230.00,20.00,T,30.18,M,8.00,28.00,OVC,M,M,M,9500.00,M,M,M,-RA,M,M,M,28.00,250.00,2022-08-18 22:29,73.90,KELY 182232Z AUTO 23020G28KT 8SM -RA OVC095 23/09 A3018 RMK AO2 PK WND 25028/2229 WSHFT 2217 RAB19 P0000 T02330094,M
RTS,2022-08-18 22:35,-119.8764,39.6682,1539.00,78.80,41.00,25.95,290.00,7.00,0.00,30.18,M,10.00,14.00,SCT,M,M,M,11000.00,M,M,M,M,M,M,M,M,M,M,78.80,KRTS 182235Z AUTO 29007G14KT 10SM SCT110 26/05 A3018 RMK AO2,M
MEV,2022-08-18 22:35,-119.7500,38.9963,1441.42,87.80,39.20,18.09,280.00,8.00,0.00,30.12,M,10.00,17.00,CLR,M,M,M,M,M,M,M,M,M,M,M,M,M,M,84.22,KMEV 182235Z AUTO 28008G17KT 250V330 10SM CLR 31/04 A3012 RMK AO2,M
BAM,2022-08-18 22:35,-116.8743,40.5990,1382.36,86.00,51.80,30.90,10.00,3.00,0.00,30.09,M,10.00,M,CLR,M,M,M,M,M,M,M,M,M,M,M,M,M,M,83.87,KBAM 182235Z AUTO 01003KT 10SM CLR 30/11 A3009 RMK AO1,M
HTH,2022-08-18 22:35,-118.6315,38.5448,1282.89,87.80,44.60,22.27,M,4.00,0.00,30.07,M,10.00,10.00,CLR,M,M,M,M,M,M,M,M,M,M,M,M,M,M,84.53,KHTH 182235Z AUTO VRB04G10KT 10SM CLR 31/07 A3007 RMK A01,M
TMT,2022-08-18 22:35,-117.1971,39.4643,1749.34,M,M,M,270.00,8.00,0.00,30.18,M,10.00,18.00,SCT,SCT,M,M,10000.00,12000.00,M,M,M,M,M,M,M,M,M,M,KTMT 182235Z AUTO 27008G18KT 10SM SCT100 SCT120 A3018 RMK AO2 LTG DSNT E,M
CXP,2022-08-18 22:35,-119.7326,39.1923,1431.00,87.80,44.60,22.27,100.00,10.00,0.00,30.13,M,10.00,M,FEW,M,M,M,10000.00,M,M,M,M,M,M,M,M,M,M,84.53,KCXP 182235Z AUTO 10010KT 10SM FEW100 31/07 A3013 RMK AO2,M
BVU,2022-08-18 22:35,-114.8611,35.9475,671.00,78.80,69.80,73.95,270.00,18.00,0.00,29.90,M,M,28.00,M,M,M,M,M,M,M,M,M,M,M,M,M,M,M,78.80,KBVU 182235Z AUTO 27018G28KT 26/21 A2990 RMK AO2 PWINO TSNO,M
LOL,2022-08-18 22:35,-118.5701,40.0684,1192.43,85.00,55.00,35.99,160.00,10.00,0.00,30.07,M,10.00,M,CLR,M,M,M,M,M,M,M,VCTS,M,M,M,M,M,M,83.56,KLOL 182235Z AUTO 16010KT 10SM VCTS CLR 29/13 A3007 RMK AO2 LTG DSNT SW T02940128,M
INS,2022-08-18 22:36,-115.6733,36.5872,955.00,95.00,53.60,24.89,110.00,6.00,0.00,29.91,1007.30,10.00,M,BKN,M,M,M,17000.00,M,M,M,M,M,M,M,M,M,M,92.71,KINS 182236Z AUTO 11006KT 10SM BKN170 35/12 A2991 RMK AO2 PRESFR SLP073,M
HND,2022-08-18 22:38,-115.1344,35.9729,742.79,89.60,62.60,40.69,130.00,18.00,0.00,29.93,M,10.00,25.00,BKN,BKN,OVC,M,8000.00,9500.00,12000.00,M,VCTS,M,M,M,28.00,130.00,2022-08-18 22:27,90.32,KHND 182238Z 13018G25KT 10SM VCTS BKN080 BKN095 OVC120 32/17 A2993 RMK AO2 PK WND 13028/2227 WSHFT 2218 LTG DSNT NE,M
ELY,2022-08-18 22:40,-114.8453,39.2950,1909.00,69.00,54.00,58.60,220.00,12.00,T,30.21,M,5.00,26.00,FEW,SCT,OVC,M,4400.00,7500.00,9500.00,M,-TSRA,M,M,M,28.00,250.00,2022-08-18 22:29,69.10,KELY 182240Z AUTO 22012G26KT 5SM -TSRA FEW044 SCT075 OVC095 21/12 A3021 RMK AO2 PK WND 25028/2229 WSHFT 2226 RAB19 TSB36 PRESRR P0000 T02060122,M
ELY,2022-08-18 22:44,-114.8453,39.2950,1909.00,69.00,55.00,60.78,200.00,8.00,T,30.22,M,1.75,25.00,FEW,SCT,OVC,M,4700.00,7000.00,9500.00,M,+TSRA,M,M,M,28.00,250.00,2022-08-18 22:29,69.10,KELY 182244Z AUTO 20008G25KT 1 3/4SM +TSRA FEW047 SCT070 OVC095 21/13 A3022 RMK AO2 PK WND 25028/2229 WSHFT 2226 RAB19 TSB36 PRESRR P0000 T02060128,M
RNO,2022-08-18 22:49,-119.7711,39.4839,1341.00,71.60,59.00,64.48,80.00,10.00,0.01,30.14,M,10.00,M,SCT,BKN,BKN,M,7000.00,11000.00,20000.00,M,-RA,M,M,M,M,M,M,71.60,KRNO 182249Z 08010KT 10SM -RA SCT070 BKN110CB BKN200 22/15 A3014 RMK AO2 WSHFT 2208 LTG DSNT N AND NE TSB02E47 TS MOVD E CB N THRU E MOV E P0001,M
VGT,2022-08-18 22:53,-115.1933,36.2111,667.00,97.00,60.00,29.60,M,3.00,T,29.86,1009.70,10.00,M,CLR,M,M,M,M,M,M,M,M,M,M,M,M,M,M,97.22,KVGT 182253Z VRB03KT 10SM CLR 36/16 A2986 RMK AO2 LTG DSNT SE RAE01 SLP097 P0000 T03610156,M
LOL,2022-08-18 22:53,-118.5701,40.0684,1192.43,83.00,56.00,39.66,200.00,24.00,0.00,30.08,1014.80,9.00,30.00,FEW,SCT,M,M,8000.00,9500.00,M,M,VCTS,M,M,M,30.00,200.00,2022-08-18 22:53,82.20,KLOL 182253Z AUTO 20024G30KT 9SM VCTS FEW080 SCT095 28/13 A3008 RMK AO2 PK WND 20030/2253 LTG DSNT S AND SW SLP148 T02830133,M
ELY,2022-08-18 22:53,-114.8453,39.2950,1909.00,70.00,51.00,51.07,60.00,6.00,0.04,30.22,1014.70,3.00,M,FEW,SCT,OVC,M,4900.00,7500.00,9000.00,M,-TSRA,M,M,M,28.00,250.00,2022-08-18 22:29,70.00,KELY 182253Z AUTO 06006KT 3SM -TSRA FEW049 SCT075 OVC090 21/11 A3022 RMK AO2 PK WND 25028/2229 WSHFT 2226 RAB19 TSB36 SLP147 P0004 T02110106,M
P68,2022-08-18 22:53,-116.0056,39.6014,1993.00,79.00,46.00,31.21,80.00,4.00,0.00,30.16,1012.40,M,M,M,M,M,M,M,M,M,M,M,M,M,M,M,M,M,79.00,KP68 182253Z AUTO 08004KT 26/08 A3016 RMK AO1 SLP124 T02610078,M
DRA,2022-08-18 22:53,-116.0278,36.6206,1009.00,98.00,54.00,22.97,140.00,6.00,0.00,29.91,1006.90,10.00,16.00,SCT,M,M,M,10000.00,M,M,M,M,M,M,M,M,M,M,96.10,KDRA 182253Z AUTO 14006G16KT 10SM SCT100 37/12 A2991 RMK AO2 SLP069 T03670122,M
CXP,2022-08-18 22:55,-119.7326,39.1923,1431.00,86.00,42.80,22.02,210.00,7.00,0.00,30.13,M,10.00,M,SCT,M,M,M,10000.00,M,M,M,M,M,M,M,M,M,M,82.95,KCXP 182255Z AUTO 21007KT 180V300 10SM SCT100 30/06 A3013 RMK AO2 LTG DSNT N,M
RNO,2022-08-18 22:55,-119.7711,39.4839,1341.00,73.00,58.00,59.12,90.00,8.00,0.01,30.13,1015.70,10.00,M,SCT,BKN,BKN,M,7000.00,11000.00,20000.00,M,M,M,M,M,M,M,M,73.00,KRNO 182255Z 09008KT 10SM SCT070 BKN110CB BKN200 23/14 A3013 RMK AO2 WSHFT 2208 LTG DSNT N AND NE RAE51 TSB02E47 SLP157 CB N THRU E MOV E P0001 T02280144,M
RTS,2022-08-18 22:55,-119.8764,39.6682,1539.00,80.60,41.00,24.46,240.00,6.00,0.00,30.17,M,10.00,11.00,FEW,M,M,M,11000.00,M,M,M,M,M,M,M,M,M,M,79.20,KRTS 182255Z AUTO 24006G11KT 10SM FEW110 27/05 A3017 RMK AO2,M
MEV,2022-08-18 22:55,-119.7500,38.9963,1441.42,89.60,39.20,17.09,280.00,13.00,0.00,30.12,M,10.00,20.00,CLR,M,M,M,M,M,M,M,M,M,M,M,M,M,M,85.73,KMEV 182255Z AUTO 28013G20KT 10SM CLR 32/04 A3012 RMK AO2,M
BAM,2022-08-18 22:55,-116.8743,40.5990,1382.36,87.80,50.00,27.29,240.00,7.00,0.00,30.08,M,10.00,M,CLR,M,M,M,M,M,M,M,M,M,M,M,M,M,M,85.11,KBAM 182255Z AUTO 24007KT 10SM CLR 31/10 A3008 RMK AO1,M
HTH,2022-08-18 22:55,-118.6315,38.5448,1282.89,87.80,42.80,20.79,340.00,9.00,0.00,30.07,M,10.00,M,CLR,M,M,M,M,M,M,M,M,M,M,M,M,M,M,84.40,KHTH 182255Z AUTO 34009KT 10SM CLR 31/06 A3007 RMK A01,M
TMT,2022-08-18 22:55,-117.1971,39.4643,1749.34,M,M,M,260.00,12.00,0.00,30.18,M,10.00,M,SCT,BKN,M,M,10000.00,12000.00,M,M,M,M,M,M,M,M,M,M,KTMT 182255Z AUTO 26012KT 220V300 10SM SCT100 BKN120 A3018 RMK AO2,M
BVU,2022-08-18 22:55,-114.8611,35.9475,671.00,82.40,68.00,61.81,300.00,16.00,0.00,29.89,M,M,M,M,M,M,M,M,M,M,M,M,M,M,M,M,M,M,85.38,KBVU 182255Z AUTO 30016KT 28/20 A2989 RMK AO2 PWINO TSNO,M
TPH,2022-08-18 22:56,-117.0904,38.0505,1654.00,87.00,40.00,19.01,330.00,8.00,0.00,30.13,1012.10,10.00,17.00,CLR,M,M,M,M,M,M,M,M,M,M,M,M,M,M,83.68,KTPH 182256Z AUTO 33008G17KT 10SM CLR 31/04 A3013 RMK AO2 SLP121 T03060044,M
NFL,2022-08-18 22:56,-118.7010,39.4166,1199.00,84.00,39.00,20.27,30.00,10.00,T,30.08,1015.30,10.00,M,BKN,BKN,BKN,M,8000.00,12000.00,17000.00,M,M,M,M,M,44.00,280.00,2022-08-18 22:22,81.29,KNFL 182256Z 03010KT 10SM BKN080 BKN120 BKN170 29/04 A3008 RMK AO2 PK WND 28044/2222 WSHFT 2153 RAB05E20 TSE20 SLP153 TS DISPTD CB DSNT ALQDS P0000 T02890039,M
LAS,2022-08-18 22:56,-115.1634,36.0719,663.00,91.00,63.00,39.49,150.00,8.00,0.00,29.88,1008.80,10.00,25.00,SCT,BKN,BKN,M,12000.00,16000.00,20000.00,M,TS,M,M,M,M,M,M,92.00,KLAS 182256Z 15008G25KT 10SM TS SCT120CB BKN160 BKN200 33/17 A2988 RMK AO2 LTG DSNT SE TSB24 SLP088 OCNL LTGICCG SE-SW TS SE-SW MOV NE VCSH SE-SW CB DSNT ALQDS T03280172,M
EKO,2022-08-18 22:56,-115.7860,40.8242,1367.00,80.00,47.00,31.15,0.00,0.00,0.00,30.10,1013.60,10.00,M,CLR,M,M,M,M,M,M,M,M,M,M,M,M,M,M,79.33,KEKO 182256Z AUTO 00000KT 10SM CLR 27/08 A3010 RMK AO2 SLP136 T02670083,M
WMC,2022-08-18 22:56,-117.8072,40.9019,1315.00,90.00,49.00,24.44,10.00,4.00,0.00,30.06,1012.00,10.00,M,CLR,M,M,M,M,M,M,M,M,M,M,M,M,M,M,86.90,KWMC 182256Z AUTO 01004KT 10SM CLR 32/09 A3006 RMK AO2 SLP120 T03220094,M
HND,2022-08-18 22:56,-115.1344,35.9729,742.79,91.00,62.00,38.26,110.00,11.00,0.00,29.91,1011.50,10.00,19.00,SCT,M,M,M,8500.00,M,M,M,VCTS,M,M,M,28.00,130.00,2022-08-18 22:27,91.56,KHND 182256Z 11011G19KT 10SM VCTS SCT085 33/17 A2991 RMK AO2 PK WND 13028/2227 WSHFT 2218 LTG DSNT SE SLP115 T03280167,M
LSV,2022-08-18 22:58,-115.0343,36.2362,570.00,98.00,60.30,28.83,70.00,8.00,0.00,29.83,M,10.00,M,SCT,BKN,M,M,12000.00,16000.00,M,M,M,M,M,M,M,M,M,98.57,KLSV 182258Z 07008KT 10SM SCT120 BKN160 37/16 A2983 RMK SLPNO T03670157 $,M
INS,2022-08-18 22:58,-115.6733,36.5872,955.00,95.40,52.70,23.79,90.00,8.00,0.00,29.91,1007.50,10.00,M,SCT,M,M,M,17000.00,M,M,M,M,M,M,M,M,M,M,92.89,KINS 182258Z AUTO 09008KT 10SM SCT170 35/12 A2991 RMK AO2 SLP075 T03520115,M
LOL,2022-08-18 23:04,-118.5701,40.0684,1192.43,71.00,59.00,65.58,190.00,20.00,T,30.09,M,8.00,40.00,FEW,SCT,BKN,M,3600.00,7500.00,9500.00,M,-TSRA,M,M,M,40.00,220.00,2022-08-18 22:57,71.10,KLOL 182304Z AUTO 19020G40KT 8SM -TSRA FEW036 SCT075 BKN095 22/15 A3009 RMK AO2 PK WND 22040/2257 LTG DSNT S AND SW RAB2255 TSB2258 P0000 T02170150,M
ELY,2022-08-18 23:06,-114.8453,39.2950,1909.00,67.00,57.00,70.49,20.00,12.00,T,30.23,M,10.00,M,FEW,BKN,OVC,M,4900.00,8500.00,11000.00,M,-RA,M,M,M,M,M,M,66.90,KELY 182306Z AUTO 02012KT 10SM -RA FEW049 BKN085 OVC110 19/14 A3023 RMK AO2 TSE00 P0000 T01940139,M
HND,2022-08-18 23:09,-115.1344,35.9729,742.79,93.20,62.60,36.35,80.00,10.00,0.00,29.91,M,10.00,M,CLR,M,M,M,M,M,M,M,M,M,M,M,M,M,M,94.20,KHND 182309Z 08010KT 10SM CLR 34/17 A2991 RMK AO2 LTG DSNT E TSE03,M
TMT,2022-08-18 23:15,-117.1971,39.4643,1749.34,M,M,M,260.00,11.00,0.00,30.18,M,10.00,18.00,SCT,M,M,M,10000.00,M,M,M,M,M,M,M,M,M,M,M,KTMT 182315Z AUTO 26011G18KT 10SM SCT100 A3018 RMK AO2,M
BVU,2022-08-18 23:15,-114.8611,35.9475,671.00,86.00,66.20,51.72,30.00,9.00,0.00,29.88,M,M,25.00,M,M,M,M,M,M,M,M,M,M,M,M,M,M,M,88.39,KBVU 182315Z AUTO 03009G25KT 30/19 A2988 RMK AO2 PWINO TSNO,M
CXP,2022-08-18 23:15,-119.7326,39.1923,1431.00,86.00,42.80,22.02,M,6.00,0.00,30.13,M,10.00,14.00,SCT,M,M,M,11000.00,M,M,M,M,M,M,M,M,M,M,82.95,KCXP 182315Z AUTO VRB06G14KT 300V030 10SM SCT110 30/06 A3013 RMK AO2,M
RTS,2022-08-18 23:15,-119.8764,39.6682,1539.00,82.40,41.00,23.07,330.00,8.00,0.00,30.17,M,10.00,15.00,FEW,M,M,M,12000.00,M,M,M,M,M,M,M,M,M,M,80.29,KRTS 182315Z AUTO 33008G15KT 10SM FEW120 28/05 A3017 RMK AO2,M
MEV,2022-08-18 23:15,-119.7500,38.9963,1441.42,89.60,39.20,17.09,260.00,13.00,0.00,30.12,M,10.00,18.00,CLR,M,M,M,M,M,M,M,M,M,M,M,M,M,M,85.73,KMEV 182315Z AUTO 26013G18KT 10SM CLR 32/04 A3012 RMK AO2,M
BAM,2022-08-18 23:15,-116.8743,40.5990,1382.36,89.60,48.20,24.11,250.00,9.00,0.00,30.08,M,10.00,M,CLR,M,M,M,M,M,M,M,M,M,M,M,M,M,M,86.44,KBAM 182315Z AUTO 25009KT 10SM CLR 32/09 A3008 RMK AO1,M
HTH,2022-08-18 23:15,-118.6315,38.5448,1282.89,87.80,44.60,22.27,320.00,9.00,0.00,30.07,M,10.00,M,CLR,M,M,M,M,M,M,M,M,M,M,M,M,M,M,84.53,KHTH 182315Z AUTO 32009KT 10SM CLR 31/07 A3007 RMK A01,M
LAS,2022-08-18 23:17,-115.1634,36.0719,663.00,93.00,62.00,35.94,140.00,6.00,0.00,29.87,M,10.00,M,SCT,BKN,BKN,M,12000.00,16000.00,20000.00,M,M,M,M,M,M,M,M,93.72,KLAS 182317Z 14006KT 10SM SCT120 BKN160 BKN200 34/17 A2987 RMK AO2 TSE17 TS DSIPTD CB DSNT ALQDS T03390167,M
P68,2022-08-18 23:28,-116.0056,39.6014,1993.00,77.00,43.00,29.74,230.00,15.00,0.00,30.17,M,M,25.00,M,M,M,M,M,M,M,M,M,M,M,M,M,M,M,77.00,KP68 182328Z AUTO 23015G25KT 25/06 A3017 RMK AO1 WSHFT 2311 T02500061,M
LOL,2022-08-18 23:29,-118.5701,40.0684,1192.43,70.00,61.00,73.11,230.00,5.00,0.01,30.10,M,10.00,M,BKN,M,M,M,11000.00,M,M,M,VCTS,M,M,M,40.00,220.00,2022-08-18 22:57,70.00,KLOL 182329Z AUTO 23005KT 10SM VCTS BKN110 21/16 A3010 RMK AO2 PK WND 22040/2257 LTG DSNT NW RAB2255E25 TSB2258E23 P0001 T02110161,M
TMT,2022-08-18 23:35,-117.1971,39.4643,1749.34,M,M,M,270.00,12.00,0.00,30.18,M,10.00,16.00,CLR,M,M,M,M,M,M,M,M,M,M,M,M,M,M,M,KTMT 182335Z AUTO 27012G16KT 10SM CLR A3018 RMK AO2 LTG DSNT E,M
CXP,2022-08-18 23:35,-119.7326,39.1923,1431.00,84.20,46.40,26.76,330.00,5.00,0.00,30.14,M,10.00,13.00,CLR,M,M,M,M,M,M,M,M,M,M,M,M,M,M,81.87,KCXP 182335Z AUTO 33005G13KT 10SM CLR 29/08 A3014 RMK AO2,M
NFL,2022-08-18 23:35,-118.7010,39.4166,1199.00,83.00,44.00,25.57,340.00,14.00,0.00,30.08,M,10.00,M,BKN,BKN,BKN,BKN,8000.00,12000.00,18000.00,25000.00,M,M,M,M,M,M,M,80.80,KNFL 182335Z 34014KT 10SM BKN080 BKN120 BKN180 BKN250 28/07 A3008 RMK AO2 WSHFT 2315 CB DSNT N-NE AND W T02830067,M
RTS,2022-08-18 23:35,-119.8764,39.6682,1539.00,84.20,42.80,23.33,260.00,10.00,0.00,30.17,M,10.00,M,BKN,M,M,M,11000.00,M,M,M,M,M,M,M,M,M,M,81.61,KRTS 182335Z AUTO 26010KT 10SM BKN110 29/06 A3017 RMK AO2,M
MEV,2022-08-18 23:35,-119.7500,38.9963,1441.42,89.60,39.20,17.09,300.00,10.00,0.00,30.12,M,10.00,15.00,CLR,M,M,M,M,M,M,M,M,M,M,M,M,M,M,85.73,KMEV 182335Z AUTO 30010G15KT 10SM CLR 32/04 A3012 RMK AO2,M
BAM,2022-08-18 23:35,-116.8743,40.5990,1382.36,89.60,50.00,25.79,180.00,6.00,0.00,30.08,M,10.00,M,CLR,M,M,M,M,M,M,M,M,M,M,M,M,M,M,86.70,KBAM 182335Z AUTO 18006KT 10SM CLR 32/10 A3008 RMK AO1,M
HTH,2022-08-18 23:35,-118.6315,38.5448,1282.89,86.00,48.20,27.03,330.00,16.00,0.00,30.08,M,10.00,22.00,CLR,M,M,M,M,M,M,M,M,M,M,M,M,M,M,83.40,KHTH 182335Z AUTO 33016G22KT 10SM CLR 30/09 A3008 RMK A01,M
BVU,2022-08-18 23:35,-114.8611,35.9475,671.00,84.20,69.80,62.03,170.00,8.00,0.00,29.86,M,M,16.00,M,M,M,M,M,M,M,M,M,M,M,M,M,M,M,88.43,KBVU 182335Z AUTO 17008G16KT 29/21 A2986 RMK AO2 PWINO TSNO,M
DRA,2022-08-18 23:43,-116.0278,36.6206,1009.00,97.00,54.00,23.75,20.00,20.00,0.00,29.91,M,10.00,M,SCT,M,M,M,10000.00,M,M,M,M,M,M,M,26.00,20.00,2022-08-18 23:35,94.92,KDRA 182343Z AUTO 02020KT 10SM SCT100 36/12 A2991 RMK AO2 PK WND 02026/2335 WSHFT 2326 T03610122,M
LOL,2022-08-18 23:48,-118.5701,40.0684,1192.43,73.40,59.00,60.67,230.00,7.00,0.01,30.09,M,10.00,M,FEW,M,M,M,12000.00,M,M,M,M,M,M,M,40.00,220.00,2022-08-18 22:57,73.40,KLOL 182348Z AUTO 23007KT 10SM FEW120 23/15 A3009 RMK AO2 PK WND 22040/2257 LTG DSNT N AND NW RAB2255E25 TSB2258E23 P0001,M
INS,2022-08-18 23:50,-115.6733,36.5872,955.00,96.80,51.80,22.04,80.00,14.00,0.00,29.90,1007.00,10.00,17.00,FEW,M,M,M,16000.00,M,M,M,M,M,M,M,M,M,M,94.12,KINS 182350Z AUTO 08014G17KT 10SM FEW160 36/11 A2990 RMK AO2 WSHFT 45 SLP070,M
LOL,2022-08-18 23:53,-118.5701,40.0684,1192.43,75.00,59.00,57.50,200.00,6.00,0.01,30.09,1015.60,10.00,M,CLR,M,M,M,M,M,M,M,M,M,M,M,40.00,220.00,2022-08-18 22:57,75.00,KLOL 182353Z AUTO 20006KT 10SM CLR 24/15 A3009 RMK AO2 PK WND 22040/2257 LTG DSNT N AND NW RAB2255E25 TSB2258E23 SLP156 P0001 60001 T02390150 10300 20206 50003,M
P68,2022-08-18 23:53,-116.0056,39.6014,1993.00,75.00,46.00,35.64,160.00,7.00,0.00,30.15,1012.40,M,M,M,M,M,M,M,M,M,M,M,M,M,M,40.00,230.00,2022-08-18 23:36,75.00,KP68 182353Z AUTO 16007KT 24/08 A3015 RMK AO1 PK WND 23040/2336 WSHFT 2311 SLP124 T02390078 10283 20211 56014,M
DRA,2022-08-18 23:53,-116.0278,36.6206,1009.00,96.00,55.00,25.32,20.00,18.00,0.00,29.91,1006.90,10.00,M,FEW,M,M,M,10000.00,M,M,M,M,M,M,M,26.00,20.00,2022-08-18 23:35,94.27,KDRA 182353Z AUTO 02018KT 10SM FEW100 36/13 A2991 RMK AO2 PK WND 02026/2335 WSHFT 2326 SLP069 T03560128 10389 20322 56021,M
ELY,2022-08-18 23:53,-114.8453,39.2950,1909.00,70.00,56.00,60.89,40.00,11.00,T,30.20,1014.00,10.00,M,BKN,M,M,M,11000.00,M,M,M,M,M,M,M,M,M,M,70.00,KELY 182353Z AUTO 04011KT 10SM BKN110 21/13 A3020 RMK AO2 LTG DSNT SE RAE34 TSE00 SLP140 P0000 60004 T02110133 10300 20194 52008,M
VGT,2022-08-18 23:53,-115.1933,36.2111,667.00,97.00,62.00,31.77,150.00,14.00,0.00,29.84,1008.90,10.00,M,CLR,M,M,M,M,M,M,M,M,M,M,M,M,M,M,98.24,KVGT 182353Z 15014KT 10SM CLR 36/17 A2984 RMK AO2 SLP089 60000 T03610167 10383 20344 56020,M
BVU,2022-08-18 23:55,-114.8611,35.9475,671.00,82.40,68.00,61.81,M,3.00,0.00,29.87,M,M,10.00,M,M,M,M,M,M,M,M,M,M,M,M,M,M,M,85.38,KBVU 182355Z AUTO VRB03G10KT 28/20 A2987 RMK AO2 PWINO TSNO,M
RTS,2022-08-18 23:55,-119.8764,39.6682,1539.00,77.00,46.40,33.85,160.00,7.00,0.00,30.17,M,10.00,M,BKN,M,M,M,11000.00,M,M,M,M,M,M,M,M,M,M,77.00,KRTS 182355Z AUTO 16007KT 10SM BKN110 25/08 A3017 RMK AO2,M
MEV,2022-08-18 23:55,-119.7500,38.9963,1441.42,89.60,39.20,17.09,290.00,9.00,0.00,30.12,M,10.00,16.00,CLR,M,M,M,M,M,M,M,M,M,M,M,M,M,M,85.73,KMEV 182355Z AUTO 29009G16KT 10SM CLR 32/04 A3012 RMK AO2,M
BAM,2022-08-18 23:55,-116.8743,40.5990,1382.36,87.80,46.40,23.85,200.00,8.00,0.00,30.07,M,10.00,14.00,CLR,M,M,M,M,M,M,M,M,M,M,M,M,M,M,84.68,KBAM 182355Z AUTO 20008G14KT 10SM CLR 31/08 A3007 RMK AO1,M
HTH,2022-08-18 23:55,-118.6315,38.5448,1282.89,86.00,46.40,25.26,320.00,17.00,0.00,30.07,M,10.00,25.00,CLR,M,M,M,M,M,M,M,M,M,M,M,M,M,M,83.22,KHTH 182355Z AUTO 32017G25KT 10SM CLR 30/08 A3007 RMK A01,M
TMT,2022-08-18 23:55,-117.1971,39.4643,1749.34,M,M,M,270.00,12.00,0.00,30.18,M,10.00,16.00,CLR,M,M,M,M,M,M,M,M,M,M,M,M,M,M,M,KTMT 182355Z AUTO 27012G16KT 10SM CLR A3018 RMK AO2 LTG DSNT E,M
RNO,2022-08-18 23:55,-119.7711,39.4839,1341.00,78.00,53.00,41.89,180.00,5.00,0.00,30.12,1014.90,10.00,M,BKN,BKN,M,M,11000.00,15000.00,M,M,M,M,M,M,M,M,M,78.10,KRNO 182355Z 18005KT 10SM BKN110 BKN150 26/12 A3012 RMK AO2 SLP149 CB DSNT N MOV E 60006 T02560117 10300 20222 50000,M
CXP,2022-08-18 23:55,-119.7326,39.1923,1431.00,84.20,48.20,28.63,70.00,11.00,0.00,30.14,M,10.00,M,CLR,M,M,M,M,M,M,M,M,M,M,M,M,M,M,82.04,KCXP 182355Z AUTO 07011KT 030V090 10SM CLR 29/09 A3014 RMK AO2,M
TPH,2022-08-18 23:56,-117.0904,38.0505,1654.00,87.00,39.00,18.35,310.00,9.00,0.00,30.12,1011.40,10.00,18.00,CLR,M,M,M,M,M,M,M,M,M,M,M,M,M,M,83.65,KTPH 182356Z AUTO 31009G18KT 10SM CLR 31/04 A3012 RMK AO2 SLP114 T03060039 10317 20261 56017,M
WMC,2022-08-18 23:56,-117.8072,40.9019,1315.00,90.00,47.00,22.67,M,5.00,0.00,30.04,1011.50,10.00,M,FEW,M,M,M,9000.00,M,M,M,M,M,M,M,M,M,M,86.65,KWMC 182356Z AUTO VRB05KT 10SM FEW090 32/08 A3004 RMK AO2 LTG DSNT W SLP115 T03220083 10322 20244 56022,M
LAS,2022-08-18 23:56,-115.1634,36.0719,663.00,95.00,62.00,33.79,210.00,4.00,0.00,29.86,1008.00,10.00,M,FEW,SCT,SCT,M,12000.00,16000.00,20000.00,M,M,M,M,M,M,M,M,95.95,KLAS 182356Z 21004KT 10SM FEW120 SCT160 SCT200 35/17 A2986 RMK AO2 TSE17 SLP080 TS DSIPTD CB DSNT ALQDS T03500167 10383 20328 56016,M
HND,2022-08-18 23:56,-115.1344,35.9729,742.79,96.00,63.00,33.71,80.00,5.00,0.00,29.89,1010.60,10.00,M,CLR,M,M,M,M,M,M,M,M,M,M,M,M,M,M,97.70,KHND 182356Z 08005KT 10SM CLR 36/17 A2989 RMK AO2 TSE03 SLP106 T03560172 10372 20317 56014,M
EKO,2022-08-18 23:56,-115.7860,40.8242,1367.00,79.00,47.00,32.29,M,4.00,0.00,30.09,1013.30,10.00,M,CLR,M,M,M,M,M,M,M,M,M,M,M,M,M,M,79.00,KEKO 182356Z AUTO VRB04KT 10SM CLR 26/08 A3009 RMK AO2 SLP133 T02610083 10272 20206 56022,M
INS,2022-08-18 23:58,-115.6733,36.5872,955.00,95.70,53.00,23.92,80.00,13.00,0.00,29.90,1007.10,10.00,M,FEW,M,M,M,16000.00,M,M,M,M,M,M,M,M,M,M,93.30,KINS 182358Z AUTO 08013KT 10SM FEW160 35/12 A2990 RMK AO2 SLP071 T03540117 10359 20327 57020,M
LSV,2022-08-18 23:58,-115.0343,36.2362,570.00,100.00,62.80,29.82,210.00,10.00,0.00,29.81,M,10.00,M,FEW,SCT,BKN,M,11000.00,14000.00,17000.00,M,M,M,M,M,M,M,M,102.03,KLSV 182358Z 21010KT 10SM FEW110 SCT140 BKN170 38/17 A2981 RMK AO2A SLPNO T03770171 10411 20360 57019 $,M
