station,valid,lon,lat,elevation,tmpf,dwpf,relh,drct,sknt,p01i,alti,mslp,vsby,gust,skyc1,skyc2,skyc3,skyc4,skyl1,skyl2,skyl3,skyl4,wxcodes,ice_accretion_1hr,ice_accretion_3hr,ice_accretion_6hr,peak_wind_gust,peak_wind_drct,peak_wind_time,feel,metar,snowdepth
VGT,2024-07-19 00:02,-115.1933,36.2111,667.00,99.00,53.00,21.54,330.00,6.00,0.00,29.94,M,10.00,M,CLR,M,M,M,M,M,M,M,VCTS,M,M,M,M,M,M,96.76,KVGT 190002Z 33006KT 10SM VCTS CLR 37/12 A2994 RMK AO2 T03720117,M
LSV,2024-07-19 00:12,-115.0343,36.2362,570.00,93.20,60.80,34.11,170.00,20.00,0.00,29.88,1008.70,9.00,33.00,FEW,M,M,M,14000.00,M,M,M,M,M,M,M,M,M,M,93.32,KLSV 190012Z AUTO 17020G33KT 9SM FEW140 34/16 A2988 RMK AO2 WSHFT 01 SLP087 $,M
BVU,2024-07-19 00:15,-114.8611,35.9475,671.00,95.00,57.20,28.37,330.00,10.00,0.00,29.91,M,10.00,M,CLR,M,M,M,M,M,M,M,M,M,M,M,M,M,M,93.82,KBVU 190015Z AUTO 33010KT 10SM CLR 35/14 A2991 RMK AO2,M
CXP,2024-07-19 00:15,-119.7326,39.1923,1431.00,91.40,35.60,14.02,0.00,0.00,0.00,30.16,M,10.00,18.00,FEW,FEW,SCT,M,6000.00,8000.00,12000.00,M,M,M,M,M,M,M,M,87.17,KCXP 190015Z AUTO 00000G18KT 10SM FEW060 FEW080 SCT120 33/02 A3016 RMK AO2,M
RTS,2024-07-19 00:15,-119.8764,39.6682,1539.00,93.20,24.80,8.54,300.00,9.00,0.00,30.17,M,10.00,21.00,CLR,M,M,M,M,M,M,M,M,M,M,M,M,M,M,87.56,KRTS 190015Z AUTO 30009G21KT 10SM CLR 34/M04 A3017 RMK AO2,M
05U,2024-07-19 00:15,-116.0051,39.6042,1811.23,77.00,50.00,38.74,240.00,8.00,0.00,30.30,M,10.00,M,FEW,M,M,M,6500.00,M,M,M,M,M,M,M,M,M,M,77.00,K05U 190015Z AUTO 24008KT 10SM FEW065 25/10 A3030 RMK A01,M
BAM,2024-07-19 00:15,-116.8743,40.5990,1382.36,96.80,37.40,12.73,250.00,10.00,0.00,30.09,M,10.00,M,CLR,M,M,M,M,M,M,M,M,M,M,M,M,M,M,92.04,KBAM 190015Z AUTO 25010KT 10SM CLR 36/03 A3009 RMK AO1,M
HTH,2024-07-19 00:15,-118.6315,38.5448,1282.89,91.40,42.80,18.56,260.00,22.00,0.00,30.09,M,10.00,27.00,CLR,M,M,M,M,M,M,M,M,M,M,M,M,M,M,87.52,KHTH 190015Z AUTO 26022G27KT 10SM CLR 33/06 A3009 RMK A01,M
10U,2024-07-19 00:15,-116.1876,41.9532,1637.00,93.20,28.40,9.91,320.00,8.00,0.00,30.15,M,10.00,13.00,CLR,M,M,M,M,M,M,M,M,M,M,M,M,M,M,87.89,K10U 190015Z AUTO 32008G13KT 10SM CLR 34/M02 A3015 RMK AO2,M
TMT,2024-07-19 00:15,-117.1971,39.4643,1749.34,87.80,41.50,19.78,150.00,4.00,0.00,30.22,M,10.00,M,CLR,M,M,M,M,M,M,M,M,M,M,M,M,M,M,84.32,KTMT 190015Z AUTO 15004KT 10SM CLR 31/05 A3022 RMK AO2 T03100053,M
LSV,2024-07-19 00:16,-115.0343,36.2362,570.00,95.00,55.40,26.58,120.00,19.00,0.00,29.86,1008.00,9.00,34.00,FEW,SCT,SCT,M,10000.00,14000.00,20000.00,M,M,M,M,M,M,M,M,93.22,KLSV 190016Z AUTO 12019G34KT 9SM FEW100 SCT140 SCT200 35/13 A2986 RMK AO2 WSHFT 12 PRESFR SLP080 $,M
VGT,2024-07-19 00:17,-115.1933,36.2111,667.00,101.00,52.00,19.55,90.00,4.00,0.00,29.93,M,10.00,M,CLR,M,M,M,M,M,M,M,M,M,M,M,M,M,M,98.59,KVGT 190017Z 09004KT 10SM CLR 38/11 A2993 RMK AO2 T03830111,M
LAS,2024-07-19 00:17,-115.1634,36.0719,663.00,98.00,54.00,23.04,0.00,0.00,0.00,29.94,M,10.00,M,SCT,BKN,BKN,M,12000.00,17000.00,22000.00,M,M,M,M,M,M,M,M,95.99,KLAS 190017Z 00000KT 10SM SCT120 BKN170 BKN220 37/12 A2994 RMK AO2 TSE16 TS MOVD N CB DSNT NE VCSH NE T03670122 $,M
BVU,2024-07-19 00:35,-114.8611,35.9475,671.00,96.80,57.20,26.84,350.00,9.00,0.00,29.91,M,10.00,M,CLR,M,M,M,M,M,M,M,M,M,M,M,M,M,M,95.77,KBVU 190035Z AUTO 35009KT 10SM CLR 36/14 A2991 RMK AO2,M
CXP,2024-07-19 00:35,-119.7326,39.1923,1431.00,93.20,35.60,13.25,M,3.00,0.00,30.15,M,10.00,M,FEW,M,M,M,12000.00,M,M,M,M,M,M,M,M,M,M,88.76,KCXP 190035Z AUTO VRB03KT 10SM FEW120 34/02 A3015 RMK AO2,M
RTS,2024-07-19 00:35,-119.8764,39.6682,1539.00,91.40,24.80,9.04,320.00,16.00,0.00,30.17,M,10.00,M,CLR,M,M,M,M,M,M,M,M,M,M,M,M,M,M,86.21,KRTS 190035Z AUTO 32016KT 10SM CLR 33/M04 A3017 RMK AO2,M
05U,2024-07-19 00:35,-116.0051,39.6042,1811.23,80.60,46.40,30.07,M,6.00,0.00,30.29,M,10.00,M,FEW,M,M,M,12000.00,M,M,M,M,M,M,M,M,M,M,79.56,K05U 190035Z AUTO VRB06KT 10SM FEW120 27/08 A3029 RMK A01,M
BAM,2024-07-19 00:35,-116.8743,40.5990,1382.36,96.80,37.40,12.73,250.00,5.00,0.00,30.09,M,10.00,M,CLR,M,M,M,M,M,M,M,M,M,M,M,M,M,M,92.04,KBAM 190035Z AUTO 25005KT 10SM CLR 36/03 A3009 RMK AO1,M
HTH,2024-07-19 00:35,-118.6315,38.5448,1282.89,89.60,44.60,21.04,260.00,20.00,0.00,30.09,M,10.00,26.00,CLR,M,M,M,M,M,M,M,M,M,M,M,M,M,M,86.07,KHTH 190035Z AUTO 26020G26KT 10SM CLR 32/07 A3009 RMK A01,M
10U,2024-07-19 00:35,-116.1876,41.9532,1637.00,89.60,35.60,14.83,90.00,8.00,0.00,30.15,M,10.00,17.00,CLR,M,M,M,M,M,M,M,M,M,M,M,M,M,M,85.62,K10U 190035Z AUTO 09008G17KT 10SM CLR 32/02 A3015 RMK AO2,M
TMT,2024-07-19 00:35,-117.1971,39.4643,1749.34,87.00,41.00,19.90,160.00,6.00,0.00,30.21,M,10.00,M,SCT,M,M,M,12000.00,M,M,M,M,M,M,M,M,M,M,83.65,KTMT 190035Z AUTO 16006KT 10SM SCT120 31/05 A3021 RMK AO2 T03050049,M
P68,2024-07-19 00:53,-116.0056,39.6014,1993.00,80.00,46.00,30.20,270.00,8.00,0.00,30.26,1016.60,M,M,M,M,M,M,M,M,M,M,M,M,M,M,M,M,M,79.20,KP68 190053Z AUTO 27008KT 27/08 A3026 RMK AO1 SLP166 T02670078,M
DRA,2024-07-19 00:53,-116.0278,36.6206,1009.00,98.00,45.00,16.47,110.00,12.00,0.00,29.99,1009.60,10.00,22.00,CLR,M,M,M,M,M,M,M,M,M,M,M,M,M,M,94.02,KDRA 190053Z AUTO 11012G22KT 10SM CLR 37/07 A2999 RMK AO2 SLP096 T03670072,M
ELY,2024-07-19 00:53,-114.8453,39.2950,1909.00,73.00,53.00,49.48,240.00,5.00,T,30.35,1018.00,10.00,M,FEW,SCT,OVC,M,5500.00,7000.00,10000.00,M,-RA,M,M,M,M,M,M,73.00,KELY 190053Z AUTO 24005KT 10SM -RA FEW055 SCT070 OVC100 23/12 A3035 RMK AO2 LTG DSNT S RAB39 SLP180 P0000 T02280117,M
VGT,2024-07-19 00:53,-115.1933,36.2111,667.00,101.00,54.00,21.04,300.00,4.00,0.00,29.92,1011.60,10.00,M,CLR,M,M,M,M,M,M,M,M,M,M,M,M,M,M,99.22,KVGT 190053Z 30004KT 10SM CLR 38/12 A2992 RMK AO2 SLP116 T03830122,M
LOL,2024-07-19 00:53,-118.5701,40.0684,1192.43,95.00,35.00,12.24,240.00,7.00,0.00,30.05,1013.50,10.00,M,CLR,M,M,M,M,M,M,M,M,M,M,M,M,M,M,90.15,KLOL 190053Z AUTO 24007KT 10SM CLR 35/02 A3005 RMK AO2 SLP135 T03500017,M
BVU,2024-07-19 00:55,-114.8611,35.9475,671.00,96.80,57.20,26.84,350.00,6.00,0.00,29.90,M,10.00,M,CLR,M,M,M,M,M,M,M,M,M,M,M,M,M,M,95.77,KBVU 190055Z AUTO 35006KT 10SM CLR 36/14 A2990 RMK AO2,M
CXP,2024-07-19 00:55,-119.7326,39.1923,1431.00,91.40,35.60,14.02,M,3.00,0.00,30.16,M,10.00,M,BKN,M,M,M,12000.00,M,M,M,M,M,M,M,M,M,M,87.17,KCXP 190055Z AUTO VRB03KT 10SM BKN120 33/02 A3016 RMK AO2,M
RNO,2024-07-19 00:55,-119.7711,39.4839,1341.00,95.00,32.00,10.85,270.00,9.00,0.00,30.10,1012.90,10.00,20.00,BKN,M,M,M,15000.00,M,M,M,M,M,M,M,26.00,300.00,2024-07-19 00:24,89.71,KRNO 190055Z 27009G20KT 10SM BKN150 35/00 A3010 RMK AO2 PK WND 30026/0024 SLP129 T03500000,M
RTS,2024-07-19 00:55,-119.8764,39.6682,1539.00,91.40,26.60,9.74,310.00,18.00,0.00,30.17,M,10.00,M,CLR,M,M,M,M,M,M,M,M,M,M,M,M,M,M,86.36,KRTS 190055Z AUTO 31018KT 10SM CLR 33/M03 A3017 RMK AO2,M
05U,2024-07-19 00:55,-116.0051,39.6042,1811.23,80.60,44.60,28.08,270.00,8.00,0.00,30.29,M,10.00,M,FEW,M,M,M,12000.00,M,M,M,M,M,M,M,M,M,M,79.42,K05U 190055Z AUTO 27008KT 10SM FEW120 27/07 A3029 RMK A01,M
BAM,2024-07-19 00:55,-116.8743,40.5990,1382.36,96.80,35.60,11.86,210.00,11.00,0.00,30.09,M,10.00,M,CLR,M,M,M,M,M,M,M,M,M,M,M,M,M,M,91.72,KBAM 190055Z AUTO 21011KT 10SM CLR 36/02 A3009 RMK AO1,M
HTH,2024-07-19 00:55,-118.6315,38.5448,1282.89,89.60,41.00,18.33,260.00,21.00,0.00,30.09,M,10.00,26.00,CLR,M,M,M,M,M,M,M,M,M,M,M,M,M,M,85.82,KHTH 190055Z AUTO 26021G26KT 10SM CLR 32/05 A3009 RMK A01,M
10U,2024-07-19 00:55,-116.1876,41.9532,1637.00,87.80,39.20,18.09,90.00,9.00,0.00,30.16,M,10.00,M,FEW,M,M,M,10000.00,M,M,M,M,M,M,M,M,M,M,84.22,K10U 190055Z AUTO 09009KT 10SM FEW100 31/04 A3016 RMK AO2,M
TMT,2024-07-19 00:55,-117.1971,39.4643,1749.34,85.00,41.40,21.54,60.00,10.00,0.00,30.21,M,10.00,14.00,SCT,SCT,BKN,M,3300.00,5500.00,12000.00,M,M,M,M,M,M,M,M,82.12,KTMT 190055Z AUTO 06010G14KT 030V090 10SM SCT033 SCT055 BKN120 30/05 A3021 RMK AO2 T02950052,M
INS,2024-07-19 00:55,-115.6733,36.5872,955.00,97.30,43.50,15.89,130.00,12.00,0.00,29.99,1009.40,10.00,M,CLR,M,M,M,M,M,M,M,M,M,M,M,M,M,M,93.14,KINS 190055Z AUTO 13012KT 10SM CLR 36/06 A2999 RMK AO2 SLP094 T03630064 $,M
LSV,2024-07-19 00:55,-115.0343,36.2362,570.00,97.70,54.70,23.85,270.00,10.00,0.01,29.86,1008.00,10.00,M,FEW,M,M,M,21000.00,M,M,M,M,M,M,M,34.00,130.00,2024-07-19 00:13,95.88,KLSV 190055Z AUTO 27010KT 10SM FEW210 37/13 A2986 RMK AO2 PK WND 13034/13 SLP080 P0001 T03650126 $,M
EKO,2024-07-19 00:56,-115.7860,40.8242,1367.00,89.00,44.00,20.96,200.00,9.00,0.00,30.13,1013.80,10.00,M,CLR,M,M,M,M,M,M,M,M,M,M,M,M,M,M,85.50,KEKO 190056Z AUTO 20009KT 10SM CLR 32/07 A3013 RMK AO2 SLP138 T03170067,M
WMC,2024-07-19 00:56,-117.8072,40.9019,1315.00,98.00,31.00,9.51,260.00,10.00,0.00,30.06,1012.90,10.00,M,CLR,M,M,M,M,M,M,M,M,M,M,M,M,M,M,92.06,KWMC 190056Z AUTO 26010KT 10SM CLR 37/M01 A3006 RMK AO2 SLP129 T03671006,M
HND,2024-07-19 00:56,-115.1344,35.9729,742.79,97.00,58.00,27.46,290.00,4.00,0.00,29.97,1013.10,10.00,M,FEW,M,M,M,10000.00,M,M,M,M,M,M,M,M,M,M,96.30,KHND 190056Z 29004KT 10SM FEW100 36/14 A2997 RMK AO2 SLP131 T03610144,M
TPH,2024-07-19 00:56,-117.0904,38.0505,1654.00,78.00,53.00,41.88,160.00,23.00,0.02,30.18,1014.60,6.00,37.00,FEW,FEW,BKN,M,7000.00,8000.00,11000.00,M,-RA,M,M,M,37.00,160.00,2024-07-19 00:51,78.00,KTPH 190056Z AUTO 16023G37KT 6SM -RA FEW070 FEW080 BKN110 26/12 A3018 RMK AO2 PK WND 16037/0051 RAB16E35B51 SLP146 P0002 T02560117,M
LAS,2024-07-19 00:56,-115.1634,36.0719,663.00,99.00,54.00,22.35,290.00,4.00,0.00,29.93,1006.80,10.00,M,FEW,BKN,BKN,M,12000.00,17000.00,22000.00,M,M,M,M,M,M,M,M,97.06,KLAS 190056Z 29004KT 10SM FEW120 BKN170 BKN220 37/12 A2993 RMK AO2 TSE16 SLP068 TS MOVD N VIRGA S CB DSNT NE AND S-SW VCSH DSNT NE T03720122 $,M
NFL,2024-07-19 00:56,-118.7010,39.4166,1199.00,97.00,36.00,11.98,320.00,6.00,0.00,30.05,1014.40,10.00,M,SCT,BKN,BKN,M,8000.00,12000.00,15000.00,M,M,M,M,M,M,M,M,91.96,KNFL 190056Z COR 32006KT 10SM SCT080 BKN120 BKN150 36/02 A3005 RMK SLP144 T03610022,M
05U,2024-07-19 01:10,-116.0051,39.6042,1811.23,78.80,44.60,29.79,290.00,5.00,0.00,30.29,M,10.00,M,FEW,M,M,M,12000.00,M,M,M,M,M,M,M,M,M,M,78.80,K05U 190110Z AUTO 29005KT 10SM FEW120 26/07 A3029 RMK A01,M
BVU,2024-07-19 01:15,-114.8611,35.9475,671.00,98.60,53.60,22.29,340.00,7.00,0.00,29.90,M,10.00,M,CLR,M,M,M,M,M,M,M,M,M,M,M,M,M,M,96.51,KBVU 190115Z AUTO 34007KT 10SM CLR 37/12 A2990 RMK AO2,M
CXP,2024-07-19 01:15,-119.7326,39.1923,1431.00,89.60,33.80,13.80,250.00,4.00,0.00,30.15,M,10.00,M,SCT,M,M,M,12000.00,M,M,M,M,M,M,M,M,M,M,85.59,KCXP 190115Z AUTO 25004KT 10SM SCT120 32/01 A3015 RMK AO2,M
RTS,2024-07-19 01:15,-119.8764,39.6682,1539.00,89.60,26.60,10.30,330.00,11.00,0.00,30.17,M,10.00,18.00,CLR,M,M,M,M,M,M,M,M,M,M,M,M,M,M,85.02,KRTS 190115Z AUTO 33011G18KT 10SM CLR 32/M03 A3017 RMK AO2,M
HTH,2024-07-19 01:15,-118.6315,38.5448,1282.89,89.60,42.80,19.64,260.00,21.00,0.00,30.09,M,10.00,27.00,CLR,M,M,M,M,M,M,M,M,M,M,M,M,M,M,85.93,KHTH 190115Z AUTO 26021G27KT 10SM CLR 32/06 A3009 RMK A01,M
10U,2024-07-19 01:15,-116.1876,41.9532,1637.00,86.00,39.20,19.15,0.00,0.00,0.00,30.18,M,10.00,M,SCT,M,M,M,11000.00,M,M,M,M,M,M,M,M,M,M,82.79,K10U 190115Z AUTO 00000KT 10SM SCT110 30/04 A3018 RMK AO2,M
BAM,2024-07-19 01:15,-116.8743,40.5990,1382.36,96.80,37.40,12.73,220.00,13.00,0.00,30.09,M,10.00,16.00,CLR,M,M,M,M,M,M,M,M,M,M,M,M,M,M,92.04,KBAM 190115Z AUTO 22013G16KT 10SM CLR 36/03 A3009 RMK AO1,M
TMT,2024-07-19 01:15,-117.1971,39.4643,1749.34,83.70,43.30,24.17,200.00,14.00,0.00,30.23,M,10.00,20.00,SCT,BKN,M,M,6500.00,12000.00,M,M,M,M,M,M,M,M,M,81.29,KTMT 190115Z AUTO 20014G20KT 10SM SCT065 BKN120 29/06 A3023 RMK AO2 T02870063,M
05U,2024-07-19 01:30,-116.0051,39.6042,1811.23,82.40,41.00,23.07,0.00,0.00,0.00,30.29,M,10.00,M,FEW,M,M,M,12000.00,M,M,M,M,M,M,M,M,M,M,80.29,K05U 190130Z AUTO 00000KT 10SM FEW120 28/05 A3029 RMK A01,M
BVU,2024-07-19 01:35,-114.8611,35.9475,671.00,98.60,57.20,25.41,0.00,0.00,0.00,29.91,M,10.00,M,CLR,M,M,M,M,M,M,M,M,M,M,M,M,M,M,97.76,KBVU 190135Z AUTO 00000KT 10SM CLR 37/14 A2991 RMK AO2,M
CXP,2024-07-19 01:35,-119.7326,39.1923,1431.00,89.60,33.80,13.80,0.00,0.00,0.00,30.16,M,10.00,M,SCT,M,M,M,12000.00,M,M,M,M,M,M,M,M,M,M,85.59,KCXP 190135Z AUTO 00000KT 10SM SCT120 32/01 A3016 RMK AO2,M
RTS,2024-07-19 01:35,-119.8764,39.6682,1539.00,87.80,28.40,11.74,290.00,13.00,0.00,30.18,M,10.00,M,CLR,M,M,M,M,M,M,M,M,M,M,M,M,M,M,83.84,KRTS 190135Z AUTO 29013KT 10SM CLR 31/M02 A3018 RMK AO2,M
HTH,2024-07-19 01:35,-118.6315,38.5448,1282.89,89.60,41.00,18.33,260.00,16.00,0.00,30.10,M,10.00,22.00,CLR,M,M,M,M,M,M,M,M,M,M,M,M,M,M,85.82,KHTH 190135Z AUTO 26016G22KT 10SM CLR 32/05 A3010 RMK A01,M
10U,2024-07-19 01:35,-116.1876,41.9532,1637.00,86.00,35.60,16.63,40.00,16.00,0.00,30.20,M,10.00,28.00,FEW,BKN,BKN,M,6000.00,7000.00,10000.00,M,M,M,M,M,M,M,M,82.69,K10U 190135Z AUTO 04016G28KT 10SM FEW060 BKN070 BKN100 30/02 A3020 RMK AO2,M
BAM,2024-07-19 01:35,-116.8743,40.5990,1382.36,95.00,35.60,12.53,190.00,9.00,0.00,30.09,M,10.00,M,CLR,M,M,M,M,M,M,M,M,M,M,M,M,M,M,90.25,KBAM 190135Z AUTO 19009KT 10SM CLR 35/02 A3009 RMK AO1,M
TMT,2024-07-19 01:35,-117.1971,39.4643,1749.34,71.80,55.80,57.07,90.00,3.00,0.00,30.24,M,7.00,M,SCT,BKN,OVC,M,4200.00,7000.00,11000.00,M,-RA,M,M,M,M,M,M,71.80,KTMT 190135Z AUTO 09003KT 7SM -RA SCT042 BKN070 OVC110 22/13 A3024 RMK AO2 T02210132,M
P68,2024-07-19 01:53,-116.0056,39.6014,1993.00,77.00,51.00,40.21,120.00,4.00,0.00,30.26,1016.00,M,M,M,M,M,M,M,M,M,M,M,M,M,M,M,M,M,77.00,KP68 190153Z AUTO 12004KT 25/11 A3026 RMK AO1 SLP160 T02500106,M
DRA,2024-07-19 01:53,-116.0278,36.6206,1009.00,97.00,45.00,16.98,100.00,11.00,0.00,29.99,1009.60,10.00,M,CLR,M,M,M,M,M,M,M,M,M,M,M,M,M,M,93.04,KDRA 190153Z AUTO 10011KT 10SM CLR 36/07 A2999 RMK AO2 SLP096 T03610072,M
ELY,2024-07-19 01:53,-114.8453,39.2950,1909.00,70.00,54.00,56.82,190.00,8.00,T,30.34,1017.80,10.00,M,BKN,M,M,M,11000.00,M,M,M,M,M,M,M,M,M,M,70.00,KELY 190153Z AUTO 19008KT 10SM BKN110 21/12 A3034 RMK AO2 RAE26 SLP178 P0000 T02110122,M
VGT,2024-07-19 01:53,-115.1933,36.2111,667.00,102.00,49.00,16.97,260.00,5.00,0.00,29.91,1011.20,10.00,M,CLR,M,M,M,M,M,M,M,M,M,M,M,M,M,M,98.82,KVGT 190153Z 26005KT 10SM CLR 39/09 A2991 RMK AO2 SLP112 T03890094,M
LOL,2024-07-19 01:53,-118.5701,40.0684,1192.43,96.00,34.00,11.40,200.00,4.00,0.00,30.05,1012.90,10.00,M,CLR,M,M,M,M,M,M,M,M,M,M,M,M,M,M,90.81,KLOL 190153Z AUTO 20004KT 10SM CLR 36/01 A3005 RMK AO2 SLP129 T03560011,M
NFL,2024-07-19 01:54,-118.7010,39.4166,1199.00,95.00,40.00,14.90,250.00,15.00,0.00,30.06,1014.80,10.00,20.00,SCT,SCT,BKN,BKN,8000.00,12000.00,15000.00,20000.00,M,M,M,M,M,M,M,90.62,KNFL 190154Z 25015G20KT 10SM SCT080 SCT120 BKN150 BKN200 35/04 A3006 RMK AO2 SLP148 T03500044,M
BVU,2024-07-19 01:55,-114.8611,35.9475,671.00,96.80,57.20,26.84,0.00,0.00,0.00,29.91,M,10.00,M,CLR,M,M,M,M,M,M,M,M,M,M,M,M,M,M,95.77,KBVU 190155Z AUTO 00000KT 10SM CLR 36/14 A2991 RMK AO2,M
CXP,2024-07-19 01:55,-119.7326,39.1923,1431.00,89.60,35.60,14.83,260.00,5.00,0.00,30.16,M,10.00,M,FEW,M,M,M,12000.00,M,M,M,M,M,M,M,M,M,M,85.62,KCXP 190155Z AUTO 26005KT 10SM FEW120 32/02 A3016 RMK AO2,M
RNO,2024-07-19 01:55,-119.7711,39.4839,1341.00,94.00,34.00,12.13,280.00,7.00,0.00,30.11,1013.50,10.00,M,BKN,M,M,M,15000.00,M,M,M,M,M,M,M,M,M,M,89.21,KRNO 190155Z 28007KT 10SM BKN150 34/01 A3011 RMK AO2 SLP135 T03440011,M
RTS,2024-07-19 01:55,-119.8764,39.6682,1539.00,87.80,28.40,11.74,290.00,11.00,0.00,30.18,M,10.00,M,CLR,M,M,M,M,M,M,M,M,M,M,M,M,M,M,83.84,KRTS 190155Z AUTO 29011KT 10SM CLR 31/M02 A3018 RMK AO2,M
05U,2024-07-19 01:55,-116.0051,39.6042,1811.23,M,M,M,0.00,0.00,0.00,30.28,M,10.00,M,CLR,M,M,M,M,M,M,M,M,M,M,M,M,M,M,M,K05U 190155Z AUTO 00000KT 10SM CLR A3028 RMK A01,M
BAM,2024-07-19 01:55,-116.8743,40.5990,1382.36,95.00,37.40,13.46,180.00,10.00,0.00,30.09,M,10.00,M,CLR,M,M,M,M,M,M,M,M,M,M,M,M,M,M,90.46,KBAM 190155Z AUTO 18010KT 10SM CLR 35/03 A3009 RMK AO1,M
HTH,2024-07-19 01:55,-118.6315,38.5448,1282.89,89.60,41.00,18.33,0.00,0.00,0.00,30.11,M,10.00,17.00,CLR,M,M,M,M,M,M,M,M,M,M,M,M,M,M,85.82,KHTH 190155Z AUTO 00000G17KT 10SM CLR 32/05 A3011 RMK A01,M
10U,2024-07-19 01:55,-116.1876,41.9532,1637.00,84.20,37.40,18.91,90.00,14.00,0.00,30.20,M,10.00,20.00,FEW,SCT,SCT,M,6000.00,7000.00,10000.00,M,M,M,M,M,M,M,M,81.38,K10U 190155Z AUTO 09014G20KT 10SM FEW060 SCT070 SCT100 29/03 A3020 RMK AO2,M
TMT,2024-07-19 01:55,-117.1971,39.4643,1749.34,74.00,58.00,57.37,140.00,5.00,0.00,30.25,M,10.00,M,SCT,SCT,BKN,M,4200.00,6000.00,12000.00,M,M,M,M,M,M,M,M,74.00,KTMT 190155Z AUTO 14005KT 10SM SCT042 SCT060 BKN120 23/14 A3025 RMK AO2 T02340144,M
INS,2024-07-19 01:55,-115.6733,36.5872,955.00,97.70,44.00,16.00,130.00,10.00,0.00,29.99,1009.30,10.00,M,FEW,M,M,M,17000.00,M,M,M,M,M,M,M,M,M,M,93.59,KINS 190155Z AUTO 13010KT 10SM FEW170 37/07 A2999 RMK AO2 SLP093 T03650066 $,M
LSV,2024-07-19 01:55,-115.0343,36.2362,570.00,96.60,61.00,30.94,170.00,4.00,0.00,29.86,1007.90,10.00,M,FEW,M,M,M,22000.00,M,M,M,M,M,M,M,M,M,M,97.20,KLSV 190155Z AUTO 17004KT 10SM FEW220 36/16 A2986 RMK AO2 SLP079 T03590161 $,M
EKO,2024-07-19 01:56,-115.7860,40.8242,1367.00,85.00,45.00,24.73,20.00,11.00,0.00,30.17,1015.50,10.00,21.00,CLR,M,M,M,M,M,M,M,M,M,M,M,M,M,M,82.34,KEKO 190156Z AUTO 02011G21KT 10SM CLR 29/07 A3017 RMK AO2 SLP155 T02940072,M
WMC,2024-07-19 01:56,-117.8072,40.9019,1315.00,93.00,32.00,11.55,260.00,5.00,0.00,30.07,1013.00,10.00,M,CLR,M,M,M,M,M,M,M,M,M,M,M,M,M,M,88.15,KWMC 190156Z AUTO 26005KT 10SM CLR 34/00 A3007 RMK AO2 SLP130 T03390000,M
HND,2024-07-19 01:56,-115.1344,35.9729,742.79,97.00,55.00,24.63,250.00,4.00,0.00,29.97,1013.00,10.00,M,CLR,M,M,M,M,M,M,M,M,M,M,M,M,M,M,95.23,KHND 190156Z 25004KT 10SM CLR 36/13 A2997 RMK AO2 SLP130 T03610128,M
TPH,2024-07-19 01:56,-117.0904,38.0505,1654.00,76.00,55.00,48.14,50.00,15.00,0.06,30.21,1015.70,10.00,M,FEW,FEW,OVC,M,5500.00,7000.00,11000.00,M,-RA,M,M,M,30.00,140.00,2024-07-19 00:57,76.00,KTPH 190156Z AUTO 05015KT 10SM -RA FEW055 FEW070 OVC110 24/13 A3021 RMK AO2 PK WND 14030/0057 LTG DSNT NE SLP157 P0006 T02440128,M
LAS,2024-07-19 01:56,-115.1634,36.0719,663.00,101.00,53.00,20.28,280.00,4.00,0.00,29.92,1006.40,10.00,M,FEW,SCT,SCT,M,12000.00,17000.00,22000.00,M,M,M,M,M,M,M,M,98.89,KLAS 190156Z 28004KT 10SM FEW120 SCT170 SCT220 38/12 A2992 RMK AO2 SLP064 CB DSNT E T03830117 $,M
TPH,2024-07-19 02:05,-117.0904,38.0505,1654.00,76.00,54.00,46.42,30.00,14.00,T,30.21,M,10.00,24.00,FEW,SCT,OVC,M,7500.00,9500.00,11000.00,M,-RA,M,M,M,26.00,50.00,2024-07-19 02:00,76.00,KTPH 190205Z AUTO 03014G24KT 10SM -RA FEW075 SCT095 OVC110 24/12 A3021 RMK AO2 PK WND 05026/0200 WSHFT 0145 P0000 T02440122,M
05U,2024-07-19 02:10,-116.0051,39.6042,1811.23,M,M,M,0.00,0.00,0.00,30.29,M,10.00,M,SCT,M,M,M,12000.00,M,M,M,M,M,M,M,M,M,M,M,K05U 190210Z AUTO 00000KT 10SM SCT120 A3029 RMK A01,M
BVU,2024-07-19 02:15,-114.8611,35.9475,671.00,96.80,55.40,25.15,0.00,0.00,0.00,29.91,M,10.00,M,CLR,M,M,M,M,M,M,M,M,M,M,M,M,M,M,95.14,KBVU 190215Z AUTO 00000KT 10SM CLR 36/13 A2991 RMK AO2,M
CXP,2024-07-19 02:15,-119.7326,39.1923,1431.00,87.80,35.60,15.70,260.00,3.00,0.00,30.16,M,10.00,M,CLR,M,M,M,M,M,M,M,M,M,M,M,M,M,M,84.12,KCXP 190215Z AUTO 26003KT 10SM CLR 31/02 A3016 RMK AO2,M
RTS,2024-07-19 02:15,-119.8764,39.6682,1539.00,89.60,28.40,11.09,270.00,12.00,0.00,30.18,M,10.00,M,CLR,M,M,M,M,M,M,M,M,M,M,M,M,M,M,85.17,KRTS 190215Z AUTO 27012KT 10SM CLR 32/M02 A3018 RMK AO2,M
HTH,2024-07-19 02:15,-118.6315,38.5448,1282.89,89.60,41.00,18.33,100.00,6.00,0.00,30.11,M,10.00,M,CLR,M,M,M,M,M,M,M,M,M,M,M,M,M,M,85.82,KHTH 190215Z AUTO 10006KT 10SM CLR 32/05 A3011 RMK A01,M
10U,2024-07-19 02:15,-116.1876,41.9532,1637.00,84.20,37.40,18.91,80.00,7.00,0.00,30.20,M,10.00,14.00,FEW,M,M,M,12000.00,M,M,M,M,M,M,M,M,M,M,81.38,K10U 190215Z AUTO 08007G14KT 10SM FEW120 29/03 A3020 RMK AO2,M
BAM,2024-07-19 02:15,-116.8743,40.5990,1382.36,93.20,37.40,14.23,180.00,6.00,0.00,30.09,M,10.00,M,CLR,M,M,M,M,M,M,M,M,M,M,M,M,M,M,88.83,KBAM 190215Z AUTO 18006KT 10SM CLR 34/03 A3009 RMK AO1,M
TMT,2024-07-19 02:15,-117.1971,39.4643,1749.34,78.60,46.00,31.63,140.00,15.00,0.00,30.24,M,10.00,24.00,SCT,BKN,OVC,M,5500.00,9500.00,11000.00,M,M,M,M,M,M,M,M,78.60,KTMT 190215Z AUTO 14015G24KT 10SM SCT055 BKN095 OVC110 26/08 A3024 RMK AO2 T02590077,M
05U,2024-07-19 02:30,-116.0051,39.6042,1811.23,M,M,M,0.00,0.00,0.00,30.30,M,10.00,M,SCT,M,M,M,12000.00,M,M,M,M,M,M,M,M,M,M,M,K05U 190230Z AUTO 00000KT 10SM SCT120 A3030 RMK A01,M
10U,2024-07-19 02:30,-116.1876,41.9532,1637.00,82.40,39.20,21.51,130.00,10.00,0.00,30.20,M,10.00,M,FEW,M,M,M,12000.00,M,M,M,M,M,M,M,M,M,M,80.21,K10U 190230Z AUTO 13010KT 10SM FEW120 28/04 A3020 RMK AO2,M
BVU,2024-07-19 02:35,-114.8611,35.9475,671.00,91.40,64.40,40.96,360.00,6.00,0.00,29.92,M,10.00,M,CLR,M,M,M,M,M,M,M,M,M,M,M,M,M,M,93.19,KBVU 190235Z AUTO 36006KT 10SM CLR 33/18 A2992 RMK AO2,M
CXP,2024-07-19 02:35,-119.7326,39.1923,1431.00,87.80,35.60,15.70,0.00,0.00,0.00,30.17,M,10.00,M,CLR,M,M,M,M,M,M,M,M,M,M,M,M,M,M,84.12,KCXP 190235Z AUTO 00000KT 10SM CLR 31/02 A3017 RMK AO2,M
RTS,2024-07-19 02:35,-119.8764,39.6682,1539.00,87.80,26.60,10.91,300.00,12.00,0.00,30.19,M,10.00,M,CLR,M,M,M,M,M,M,M,M,M,M,M,M,M,M,83.69,KRTS 190235Z AUTO 30012KT 10SM CLR 31/M03 A3019 RMK AO2,M
HTH,2024-07-19 02:35,-118.6315,38.5448,1282.89,89.60,42.80,19.64,80.00,9.00,0.00,30.11,M,10.00,M,CLR,M,M,M,M,M,M,M,M,M,M,M,M,M,M,85.93,KHTH 190235Z AUTO 08009KT 10SM CLR 32/06 A3011 RMK A01,M
BAM,2024-07-19 02:35,-116.8743,40.5990,1382.36,91.40,41.00,17.32,180.00,6.00,0.00,30.10,M,10.00,M,CLR,M,M,M,M,M,M,M,M,M,M,M,M,M,M,87.40,KBAM 190235Z AUTO 18006KT 10SM CLR 33/05 A3010 RMK AO1,M
TMT,2024-07-19 02:35,-117.1971,39.4643,1749.34,77.50,47.30,34.45,110.00,12.00,0.00,30.25,M,10.00,18.00,SCT,SCT,OVC,M,5000.00,7000.00,9500.00,M,M,M,M,M,M,M,M,77.50,KTMT 190235Z AUTO 11012G18KT 10SM SCT050 SCT070 OVC095 25/09 A3025 RMK AO2 T02530085,M
P68,2024-07-19 02:53,-116.0056,39.6014,1993.00,73.00,53.00,49.48,160.00,8.00,0.00,30.27,1015.70,M,M,M,M,M,M,M,M,M,M,M,M,M,M,M,M,M,73.00,KP68 190253Z AUTO 16008KT 23/12 A3027 RMK AO1 SLP157 T02280117 55001,M
DRA,2024-07-19 02:53,-116.0278,36.6206,1009.00,95.00,45.00,18.06,120.00,6.00,0.00,30.01,1009.90,10.00,16.00,CLR,M,M,M,M,M,M,M,M,M,M,M,M,M,M,91.10,KDRA 190253Z AUTO 12006G16KT 10SM CLR 35/07 A3001 RMK AO2 SLP099 T03500072 53004,M
ELY,2024-07-19 02:53,-114.8453,39.2950,1909.00,67.00,53.00,60.73,160.00,16.00,0.00,30.36,1017.70,10.00,26.00,BKN,M,M,M,11000.00,M,M,M,M,M,M,M,26.00,150.00,2024-07-19 02:38,67.00,KELY 190253Z AUTO 16016G26KT 10SM BKN110 19/12 A3036 RMK AO2 PK WND 15026/0238 SLP177 60000 T01940117 51016,M
VGT,2024-07-19 02:53,-115.1933,36.2111,667.00,101.00,49.00,17.49,230.00,4.00,0.00,29.92,1011.40,10.00,M,CLR,M,M,M,M,M,M,M,M,M,M,M,M,M,M,97.79,KVGT 190253Z 23004KT 10SM CLR 38/09 A2992 RMK AO2 SLP114 T03830094 55006,M
LOL,2024-07-19 02:53,-118.5701,40.0684,1192.43,91.00,39.00,16.23,160.00,3.00,0.00,30.05,1012.90,10.00,M,CLR,M,M,M,M,M,M,M,M,M,M,M,M,M,M,86.94,KLOL 190253Z AUTO 16003KT 10SM CLR 33/04 A3005 RMK AO2 SLP129 T03280039 55003,M
NFL,2024-07-19 02:54,-118.7010,39.4166,1199.00,92.00,44.00,19.08,240.00,9.00,0.00,30.07,1015.00,10.00,M,SCT,SCT,BKN,BKN,8000.00,12000.00,15000.00,20000.00,M,M,M,M,M,M,M,88.17,KNFL 190254Z 24009KT 10SM SCT080 SCT120 BKN150 BKN200 33/07 A3007 RMK AO2 SLP150 T03330067 53003,M
BVU,2024-07-19 02:55,-114.8611,35.9475,671.00,91.40,59.00,33.84,340.00,7.00,0.00,29.92,M,10.00,M,CLR,M,M,M,M,M,M,M,M,M,M,M,M,M,M,90.68,KBVU 190255Z AUTO 34007KT 10SM CLR 33/15 A2992 RMK AO2,M
CXP,2024-07-19 02:55,-119.7326,39.1923,1431.00,86.00,37.40,17.85,0.00,0.00,0.00,30.17,M,10.00,M,CLR,M,M,M,M,M,M,M,M,M,M,M,M,M,M,82.73,KCXP 190255Z AUTO 00000KT 10SM CLR 30/03 A3017 RMK AO2,M
RNO,2024-07-19 02:55,-119.7711,39.4839,1341.00,91.00,35.00,13.86,240.00,8.00,0.00,30.13,1014.00,10.00,22.00,SCT,M,M,M,15000.00,M,M,M,M,M,M,M,M,M,M,86.81,KRNO 190255Z 24008G22KT 10SM SCT150 33/02 A3013 RMK AO2 SLP140 T03280017 53009,M
RTS,2024-07-19 02:55,-119.8764,39.6682,1539.00,87.80,26.60,10.91,290.00,10.00,0.00,30.19,M,10.00,M,CLR,M,M,M,M,M,M,M,M,M,M,M,M,M,M,83.69,KRTS 190255Z AUTO 29010KT 10SM CLR 31/M03 A3019 RMK AO2,M
05U,2024-07-19 02:55,-116.0051,39.6042,1811.23,M,M,M,160.00,5.00,0.00,30.29,M,10.00,M,FEW,M,M,M,12000.00,M,M,M,M,M,M,M,M,M,M,M,K05U 190255Z AUTO 16005KT 10SM FEW120 A3029 RMK A01,M
BAM,2024-07-19 02:55,-116.8743,40.5990,1382.36,89.60,42.80,19.64,170.00,8.00,0.00,30.10,M,10.00,M,CLR,M,M,M,M,M,M,M,M,M,M,M,M,M,M,85.93,KBAM 190255Z AUTO 17008KT 10SM CLR 32/06 A3010 RMK AO1,M
HTH,2024-07-19 02:55,-118.6315,38.5448,1282.89,87.80,42.80,20.79,80.00,4.00,0.00,30.12,M,10.00,M,CLR,M,M,M,M,M,M,M,M,M,M,M,M,M,M,84.40,KHTH 190255Z AUTO 08004KT 10SM CLR 31/06 A3012 RMK A01,M
10U,2024-07-19 02:55,-116.1876,41.9532,1637.00,78.80,42.80,27.81,110.00,13.00,0.00,30.19,M,10.00,M,CLR,M,M,M,M,M,M,M,M,M,M,M,M,M,M,78.80,K10U 190255Z AUTO 11013KT 10SM CLR 26/06 A3019 RMK AO2,M
TMT,2024-07-19 02:55,-117.1971,39.4643,1749.34,76.00,46.00,34.47,360.00,4.00,0.00,30.26,M,10.00,18.00,SCT,BKN,OVC,M,5000.00,7000.00,9500.00,M,-RA,M,M,M,M,M,M,76.00,KTMT 190255Z AUTO 36004G18KT 10SM -RA SCT050 BKN070 OVC095 25/08 A3026 RMK AO2 T02450078,M
INS,2024-07-19 02:55,-115.6733,36.5872,955.00,94.60,44.40,17.87,90.00,5.00,0.00,29.99,1009.30,10.00,M,OVC,M,M,M,18000.00,M,M,M,M,M,M,M,M,M,M,90.65,KINS 190255Z AUTO 09005KT 10SM OVC180 35/07 A2999 RMK AO2 SLP093 T03480069 55004 $,M
LSV,2024-07-19 02:55,-115.0343,36.2362,570.00,93.00,62.00,35.82,130.00,3.00,0.00,29.86,1007.90,10.00,M,FEW,M,M,M,20000.00,M,M,M,M,M,M,M,M,M,M,93.67,KLSV 190255Z AUTO 13003KT 10SM FEW200 34/17 A2986 RMK AO2 SLP079 60001 T03380166 55006 $,M
EKO,2024-07-19 02:56,-115.7860,40.8242,1367.00,83.00,46.00,27.39,40.00,11.00,0.00,30.19,1016.00,10.00,22.00,CLR,M,M,M,M,M,M,M,M,M,M,M,26.00,40.00,2024-07-19 02:08,81.00,KEKO 190256Z AUTO 04011G22KT 10SM CLR 28/08 A3019 RMK AO2 PK WND 04026/0208 SLP160 T02830078 53019,M
WMC,2024-07-19 02:56,-117.8072,40.9019,1315.00,91.00,34.00,13.32,260.00,5.00,0.00,30.07,1012.50,10.00,M,CLR,M,M,M,M,M,M,M,M,M,M,M,M,M,M,86.79,KWMC 190256Z AUTO 26005KT 10SM CLR 33/01 A3007 RMK AO2 SLP125 T03280011 53001,M
HND,2024-07-19 02:56,-115.1344,35.9729,742.79,95.00,55.00,26.19,190.00,3.00,0.00,29.98,1013.10,10.00,M,CLR,M,M,M,M,M,M,M,M,M,M,M,M,M,M,93.10,KHND 190256Z 19003KT 10SM CLR 35/13 A2998 RMK AO2 SLP131 T03500128 55002,M
TPH,2024-07-19 02:56,-117.0904,38.0505,1654.00,79.00,53.00,40.52,M,5.00,T,30.24,1015.40,10.00,M,FEW,BKN,M,M,7000.00,11000.00,M,M,M,M,M,M,26.00,50.00,2024-07-19 02:00,79.00,KTPH 190256Z AUTO VRB05KT 10SM FEW070 BKN110 26/12 A3024 RMK AO2 PK WND 05026/0200 WSHFT 0145 RAE16B33E43 SLP154 P0000 60008 T02610117 53023,M
LAS,2024-07-19 02:56,-115.1634,36.0719,663.00,100.00,51.00,19.42,230.00,4.00,0.00,29.93,1006.70,10.00,M,FEW,FEW,SCT,M,12000.00,17000.00,22000.00,M,M,M,M,M,M,M,M,97.26,KLAS 190256Z 23004KT 10SM FEW120 FEW170 SCT220 38/11 A2993 RMK AO2 SLP067 CB DSNT E T03780106 55006 $,M
BVU,2024-07-19 03:15,-114.8611,35.9475,671.00,91.40,62.60,38.45,350.00,4.00,0.00,29.92,M,10.00,M,CLR,M,M,M,M,M,M,M,M,M,M,M,M,M,M,92.23,KBVU 190315Z AUTO 35004KT 10SM CLR 33/17 A2992 RMK AO2,M
CXP,2024-07-19 03:15,-119.7326,39.1923,1431.00,82.40,37.40,20.04,0.00,0.00,0.00,30.17,M,10.00,M,CLR,M,M,M,M,M,M,M,M,M,M,M,M,M,M,80.14,KCXP 190315Z AUTO 00000KT 10SM CLR 28/03 A3017 RMK AO2,M
RTS,2024-07-19 03:15,-119.8764,39.6682,1539.00,84.20,28.40,13.18,300.00,10.00,0.00,30.20,M,10.00,16.00,CLR,M,M,M,M,M,M,M,M,M,M,M,M,M,M,81.25,KRTS 190315Z AUTO 30010G16KT 10SM CLR 29/M02 A3020 RMK AO2,M
05U,2024-07-19 03:15,-116.0051,39.6042,1811.23,M,M,M,160.00,10.00,0.00,30.30,M,10.00,M,FEW,M,M,M,12000.00,M,M,M,M,M,M,M,M,M,M,M,K05U 190315Z AUTO 16010KT 10SM FEW120 A3030 RMK A01,M
MEV,2024-07-19 03:15,-119.7500,38.9963,1441.42,78.80,41.00,25.95,240.00,7.00,0.00,30.17,M,10.00,M,CLR,M,M,M,M,M,M,M,M,M,M,M,M,M,M,78.80,KMEV 190315Z AUTO 24007KT 10SM CLR 26/05 A3017 RMK AO2,M
HTH,2024-07-19 03:15,-118.6315,38.5448,1282.89,87.80,42.80,20.79,30.00,5.00,0.00,30.12,M,10.00,M,CLR,M,M,M,M,M,M,M,M,M,M,M,M,M,M,84.40,KHTH 190315Z AUTO 03005KT 10SM CLR 31/06 A3012 RMK A01,M
10U,2024-07-19 03:15,-116.1876,41.9532,1637.00,78.80,42.80,27.81,120.00,12.00,0.00,30.20,M,10.00,M,CLR,M,M,M,M,M,M,M,M,M,M,M,M,M,M,78.80,K10U 190315Z AUTO 12012KT 10SM CLR 26/06 A3020 RMK AO2,M
BAM,2024-07-19 03:15,-116.8743,40.5990,1382.36,87.80,42.80,20.79,170.00,4.00,0.00,30.11,M,10.00,M,CLR,M,M,M,M,M,M,M,M,M,M,M,M,M,M,84.40,KBAM 190315Z AUTO 17004KT 10SM CLR 31/06 A3011 RMK AO1,M
TMT,2024-07-19 03:15,-117.1971,39.4643,1749.34,81.70,43.30,25.78,150.00,10.00,0.00,30.26,M,10.00,M,SCT,SCT,BKN,M,7000.00,9000.00,11000.00,M,M,M,M,M,M,M,M,79.98,KTMT 190315Z AUTO 15010KT 10SM SCT070 SCT090 BKN110 28/06 A3026 RMK AO2 T02760063,M
05U,2024-07-19 03:30,-116.0051,39.6042,1811.23,M,M,M,180.00,11.00,0.00,30.32,M,10.00,M,FEW,SCT,M,M,10000.00,12000.00,M,M,M,M,M,M,M,M,M,M,K05U 190330Z AUTO 18011KT 10SM FEW100 SCT120 A3032 RMK A01,M
BVU,2024-07-19 03:35,-114.8611,35.9475,671.00,89.60,59.00,35.81,340.00,4.00,0.00,29.93,M,10.00,M,CLR,M,M,M,M,M,M,M,M,M,M,M,M,M,M,88.86,KBVU 190335Z AUTO 34004KT 10SM CLR 32/15 A2993 RMK AO2,M
CXP,2024-07-19 03:35,-119.7326,39.1923,1431.00,82.40,37.40,20.04,0.00,0.00,0.00,30.18,M,10.00,M,CLR,M,M,M,M,M,M,M,M,M,M,M,M,M,M,80.14,KCXP 190335Z AUTO 00000KT 10SM CLR 28/03 A3018 RMK AO2,M
RTS,2024-07-19 03:35,-119.8764,39.6682,1539.00,82.40,30.20,15.03,310.00,10.00,0.00,30.21,M,10.00,15.00,CLR,M,M,M,M,M,M,M,M,M,M,M,M,M,M,79.97,KRTS 190335Z AUTO 31010G15KT 10SM CLR 28/M01 A3021 RMK AO2,M
MEV,2024-07-19 03:35,-119.7500,38.9963,1441.42,77.00,44.60,31.62,220.00,7.00,0.00,30.17,M,10.00,M,CLR,M,M,M,M,M,M,M,M,M,M,M,M,M,M,77.00,KMEV 190335Z AUTO 22007KT 10SM CLR 25/07 A3017 RMK AO2,M
HTH,2024-07-19 03:35,-118.6315,38.5448,1282.89,86.00,42.80,22.02,0.00,0.00,0.00,30.12,M,10.00,M,CLR,M,M,M,M,M,M,M,M,M,M,M,M,M,M,82.95,KHTH 190335Z AUTO 00000KT 10SM CLR 30/06 A3012 RMK A01,M
10U,2024-07-19 03:35,-116.1876,41.9532,1637.00,77.00,44.60,31.62,120.00,9.00,0.00,30.20,M,10.00,M,SCT,M,M,M,12000.00,M,M,M,M,M,M,M,M,M,M,77.00,K10U 190335Z AUTO 12009KT 10SM SCT120 25/07 A3020 RMK AO2,M
BAM,2024-07-19 03:35,-116.8743,40.5990,1382.36,86.00,44.60,23.59,0.00,0.00,0.00,30.12,M,10.00,M,CLR,M,M,M,M,M,M,M,M,M,M,M,M,M,M,83.07,KBAM 190335Z AUTO 00000KT 10SM CLR 30/07 A3012 RMK AO1,M
TMT,2024-07-19 03:35,-117.1971,39.4643,1749.34,73.80,49.50,42.32,200.00,20.00,0.00,30.30,M,10.00,26.00,OVC,M,M,M,11000.00,M,M,M,M,M,M,M,M,M,M,73.80,KTMT 190335Z AUTO 20020G26KT 10SM OVC110 23/10 A3030 RMK AO2 T02320097,M
P68,2024-07-19 03:53,-116.0056,39.6014,1993.00,73.00,49.00,42.67,150.00,22.00,0.00,30.29,1016.00,M,30.00,M,M,M,M,M,M,M,M,M,M,M,M,30.00,150.00,2024-07-19 03:53,73.00,KP68 190353Z AUTO 15022G30KT 23/09 A3029 RMK AO1 PK WND 15030/0353 SLP160 T02280094,M
DRA,2024-07-19 03:53,-116.0278,36.6206,1009.00,94.00,46.00,19.34,80.00,3.00,0.00,30.02,1010.20,10.00,M,CLR,M,M,M,M,M,M,M,M,M,M,M,M,M,M,90.27,KDRA 190353Z AUTO 08003KT 10SM CLR 34/08 A3002 RMK AO2 SLP102 T03440078,M
ELY,2024-07-19 03:53,-114.8453,39.2950,1909.00,64.00,53.00,67.41,180.00,12.00,0.00,30.37,1017.40,10.00,M,OVC,M,M,M,10000.00,M,M,M,M,M,M,M,M,M,M,64.00,KELY 190353Z AUTO 18012KT 10SM OVC100 18/12 A3037 RMK AO2 SLP174 T01780117,M
VGT,2024-07-19 03:53,-115.1933,36.2111,667.00,99.00,52.00,20.77,200.00,3.00,0.00,29.93,1011.90,10.00,M,CLR,M,M,M,M,M,M,M,M,M,M,M,M,M,M,96.47,KVGT 190353Z AUTO 20003KT 10SM CLR 37/11 A2993 RMK AO2 SLP119 T03720111,M
LOL,2024-07-19 03:53,-118.5701,40.0684,1192.43,81.00,41.00,24.14,200.00,9.00,0.00,30.07,1013.70,10.00,M,CLR,M,M,M,M,M,M,M,M,M,M,M,M,M,M,79.43,KLOL 190353Z AUTO 20009KT 10SM CLR 27/05 A3007 RMK AO2 SLP137 T02720050,M
NFL,2024-07-19 03:54,-118.7010,39.4166,1199.00,89.00,45.00,21.77,240.00,7.00,0.00,30.08,1015.30,10.00,M,SCT,SCT,BKN,BKN,8000.00,12000.00,15000.00,20000.00,M,M,M,M,M,M,M,85.58,KNFL 190354Z 24007KT 10SM SCT080 SCT120 BKN150 BKN200 32/07 A3008 RMK AO2 SLP153 T03170072,M
BVU,2024-07-19 03:55,-114.8611,35.9475,671.00,86.00,66.20,51.72,10.00,6.00,0.00,29.94,M,10.00,M,CLR,M,M,M,M,M,M,M,M,M,M,M,M,M,M,88.39,KBVU 190355Z AUTO 01006KT 10SM CLR 30/19 A2994 RMK AO2,M
CXP,2024-07-19 03:55,-119.7326,39.1923,1431.00,80.60,39.20,22.81,0.00,0.00,0.00,30.19,M,10.00,M,CLR,M,M,M,M,M,M,M,M,M,M,M,M,M,M,79.10,KCXP 190355Z AUTO 00000KT 10SM CLR 27/04 A3019 RMK AO2,M
RNO,2024-07-19 03:55,-119.7711,39.4839,1341.00,88.00,35.00,15.23,310.00,9.00,0.00,30.14,1014.50,10.00,M,FEW,M,M,M,14000.00,M,M,M,M,M,M,M,M,M,M,84.28,KRNO 190355Z 31009KT 10SM FEW140 31/02 A3014 RMK AO2 SLP145 T03110017,M
RTS,2024-07-19 03:55,-119.8764,39.6682,1539.00,80.60,32.00,17.14,300.00,10.00,0.00,30.22,M,10.00,M,CLR,M,M,M,M,M,M,M,M,M,M,M,M,M,M,78.82,KRTS 190355Z AUTO 30010KT 10SM CLR 27/M00 A3022 RMK AO2,M
05U,2024-07-19 03:55,-116.0051,39.6042,1811.23,M,M,M,140.00,20.00,0.00,30.32,M,10.00,27.00,FEW,SCT,BKN,M,2000.00,5000.00,6500.00,M,M,M,M,M,M,M,M,M,K05U 190355Z AUTO 14020G27KT 10SM FEW020 SCT050 BKN065 A3032 RMK A01,M
MEV,2024-07-19 03:55,-119.7500,38.9963,1441.42,77.00,41.00,27.53,240.00,6.00,0.00,30.18,M,10.00,M,CLR,M,M,M,M,M,M,M,M,M,M,M,M,M,M,77.00,KMEV 190355Z AUTO 24006KT 10SM CLR 25/05 A3018 RMK AO2,M
HTH,2024-07-19 03:55,-118.6315,38.5448,1282.89,86.00,42.80,22.02,0.00,0.00,0.00,30.13,M,10.00,M,CLR,M,M,M,M,M,M,M,M,M,M,M,M,M,M,82.95,KHTH 190355Z AUTO 00000KT 10SM CLR 30/06 A3013 RMK A01,M
10U,2024-07-19 03:55,-116.1876,41.9532,1637.00,77.00,44.60,31.62,120.00,11.00,0.00,30.21,M,10.00,M,BKN,M,M,M,12000.00,M,M,M,M,M,M,M,M,M,M,77.00,K10U 190355Z AUTO 12011KT 10SM BKN120 25/07 A3021 RMK AO2,M
BAM,2024-07-19 03:55,-116.8743,40.5990,1382.36,86.00,42.80,22.02,0.00,0.00,0.00,30.13,M,10.00,M,CLR,M,M,M,M,M,M,M,M,M,M,M,M,M,M,82.95,KBAM 190355Z AUTO 00000KT 10SM CLR 30/06 A3013 RMK AO1,M
TMT,2024-07-19 03:55,-117.1971,39.4643,1749.34,70.00,51.80,52.41,150.00,14.00,0.00,30.31,M,10.00,M,OVC,M,M,M,11000.00,M,M,M,M,M,M,M,M,M,M,70.00,KTMT 190355Z AUTO 15014KT 10SM OVC110 21/11 A3031 RMK AO2 T02110110,M
INS,2024-07-19 03:55,-115.6733,36.5872,955.00,90.50,53.00,28.00,210.00,5.00,0.00,30.01,1010.00,10.00,M,FEW,M,M,M,17000.00,M,M,M,M,M,M,M,M,M,M,88.08,KINS 190355Z AUTO 21005KT 10SM FEW170 33/12 A3001 RMK AO2 SLP100 T03250116 $,M
LSV,2024-07-19 03:55,-115.0343,36.2362,570.00,92.00,59.70,34.05,360.00,3.00,0.00,29.88,1008.60,10.00,M,FEW,M,M,M,21000.00,M,M,M,M,M,M,M,M,M,M,91.57,KLSV 190355Z AUTO 36003KT 10SM FEW210 33/15 A2988 RMK AO2 SLP086 T03340154 $,M
EKO,2024-07-19 03:56,-115.7860,40.8242,1367.00,81.00,46.00,29.23,40.00,10.00,0.00,30.20,1015.70,10.00,M,CLR,M,M,M,M,M,M,M,M,M,M,M,M,M,M,79.76,KEKO 190356Z AUTO 04010KT 10SM CLR 27/08 A3020 RMK AO2 SLP157 T02720078,M
WMC,2024-07-19 03:56,-117.8072,40.9019,1315.00,88.00,29.00,11.96,290.00,9.00,0.00,30.09,1012.90,10.00,M,CLR,M,M,M,M,M,M,M,M,M,M,M,M,M,M,84.04,KWMC 190356Z AUTO 29009KT 10SM CLR 31/M02 A3009 RMK AO2 SLP129 T03111017,M
HND,2024-07-19 03:56,-115.1344,35.9729,742.79,92.00,60.00,34.42,150.00,5.00,0.00,29.99,1013.50,10.00,M,CLR,M,M,M,M,M,M,M,M,M,M,M,M,M,M,91.69,KHND 190356Z AUTO 15005KT 10SM CLR 33/16 A2999 RMK AO2 SLP135 T03330156,M
TPH,2024-07-19 03:56,-117.0904,38.0505,1654.00,76.00,54.00,46.42,340.00,12.00,T,30.25,1016.20,10.00,M,FEW,BKN,M,M,6000.00,11000.00,M,M,M,M,M,M,M,M,M,76.00,KTPH 190356Z AUTO 34012KT 10SM FEW060 BKN110 24/12 A3025 RMK AO2 RAB13E27 SLP162 P0000 T02440122,M
LAS,2024-07-19 03:56,-115.1634,36.0719,663.00,97.00,58.00,27.46,200.00,5.00,0.00,29.94,1007.00,10.00,M,FEW,FEW,SCT,M,12000.00,17000.00,22000.00,M,M,M,M,M,M,M,M,96.30,KLAS 190356Z 20005KT 10SM FEW120 FEW170 SCT220 36/14 A2994 RMK AO2 SLP070 T03610144 $,M
05U,2024-07-19 04:10,-116.0051,39.6042,1811.23,M,M,M,130.00,14.00,0.00,30.33,M,10.00,M,FEW,SCT,BKN,M,5500.00,7000.00,10000.00,M,M,M,M,M,M,M,M,M,K05U 190410Z AUTO 13014KT 10SM FEW055 SCT070 BKN100 A3033 RMK A01,M
BVU,2024-07-19 04:15,-114.8611,35.9475,671.00,87.80,60.80,40.41,30.00,6.00,0.00,29.94,M,10.00,M,CLR,M,M,M,M,M,M,M,M,M,M,M,M,M,M,87.75,KBVU 190415Z AUTO 03006KT 10SM CLR 31/16 A2994 RMK AO2,M
CXP,2024-07-19 04:15,-119.7326,39.1923,1431.00,78.80,39.20,24.19,0.00,0.00,0.00,30.20,M,10.00,M,CLR,M,M,M,M,M,M,M,M,M,M,M,M,M,M,78.80,KCXP 190415Z AUTO 00000KT 10SM CLR 26/04 A3020 RMK AO2,M
RTS,2024-07-19 04:15,-119.8764,39.6682,1539.00,80.60,32.00,17.14,300.00,12.00,0.00,30.23,M,10.00,M,CLR,M,M,M,M,M,M,M,M,M,M,M,M,M,M,78.82,KRTS 190415Z AUTO 30012KT 10SM CLR 27/M00 A3023 RMK AO2,M
MEV,2024-07-19 04:15,-119.7500,38.9963,1441.42,73.40,42.80,33.29,M,4.00,0.00,30.18,M,10.00,M,CLR,M,M,M,M,M,M,M,M,M,M,M,M,M,M,73.40,KMEV 190415Z AUTO VRB04KT 10SM CLR 23/06 A3018 RMK AO2,M
BAM,2024-07-19 04:15,-116.8743,40.5990,1382.36,82.40,44.60,26.49,20.00,3.00,0.00,30.14,M,10.00,M,CLR,M,M,M,M,M,M,M,M,M,M,M,M,M,M,80.50,KBAM 190415Z AUTO 02003KT 10SM CLR 28/07 A3014 RMK AO1,M
HTH,2024-07-19 04:15,-118.6315,38.5448,1282.89,86.00,42.80,22.02,0.00,0.00,0.00,30.13,M,10.00,M,CLR,M,M,M,M,M,M,M,M,M,M,M,M,M,M,82.95,KHTH 190415Z AUTO 00000KT 10SM CLR 30/06 A3013 RMK A01,M
10U,2024-07-19 04:15,-116.1876,41.9532,1637.00,77.00,44.60,31.62,120.00,11.00,0.00,30.22,M,10.00,M,CLR,M,M,M,M,M,M,M,M,M,M,M,M,M,M,77.00,K10U 190415Z AUTO 12011KT 10SM CLR 25/07 A3022 RMK AO2,M
TMT,2024-07-19 04:15,-117.1971,39.4643,1749.34,72.50,49.00,43.39,140.00,15.00,0.00,30.31,M,10.00,20.00,SCT,M,M,M,11000.00,M,M,M,M,M,M,M,M,M,M,72.50,KTMT 190415Z AUTO 14015G20KT 10SM SCT110 23/10 A3031 RMK AO2 T02250095,M
BVU,2024-07-19 04:35,-114.8611,35.9475,671.00,84.20,64.40,51.47,350.00,7.00,0.00,29.95,M,10.00,M,CLR,M,M,M,M,M,M,M,M,M,M,M,M,M,M,85.71,KBVU 190435Z AUTO 35007KT 10SM CLR 29/18 A2995 RMK AO2,M
CXP,2024-07-19 04:35,-119.7326,39.1923,1431.00,78.80,39.20,24.19,140.00,3.00,0.00,30.20,M,10.00,M,CLR,M,M,M,M,M,M,M,M,M,M,M,M,M,M,78.80,KCXP 190435Z AUTO 14003KT 10SM CLR 26/04 A3020 RMK AO2,M
RTS,2024-07-19 04:35,-119.8764,39.6682,1539.00,78.80,33.80,19.55,300.00,11.00,0.00,30.24,M,10.00,M,CLR,M,M,M,M,M,M,M,M,M,M,M,M,M,M,78.80,KRTS 190435Z AUTO 30011KT 10SM CLR 26/01 A3024 RMK AO2,M
05U,2024-07-19 04:35,-116.0051,39.6042,1811.23,M,M,M,160.00,11.00,0.00,30.35,M,M,M,M,M,M,M,M,M,M,M,M,M,M,M,M,M,M,M,K05U 190435Z AUTO 16011KT A3035 RMK A01,M
MEV,2024-07-19 04:35,-119.7500,38.9963,1441.42,68.00,42.80,40.00,0.00,0.00,0.00,30.19,M,10.00,M,CLR,M,M,M,M,M,M,M,M,M,M,M,M,M,M,68.00,KMEV 190435Z AUTO 00000KT 10SM CLR 20/06 A3019 RMK AO2,M
HTH,2024-07-19 04:35,-118.6315,38.5448,1282.89,84.20,42.80,23.33,110.00,5.00,0.00,30.14,M,10.00,M,CLR,M,M,M,M,M,M,M,M,M,M,M,M,M,M,81.61,KHTH 190435Z AUTO 11005KT 10SM CLR 29/06 A3014 RMK A01,M
10U,2024-07-19 04:35,-116.1876,41.9532,1637.00,75.20,42.80,31.34,110.00,10.00,0.00,30.22,M,10.00,17.00,CLR,M,M,M,M,M,M,M,M,M,M,M,M,M,M,75.20,K10U 190435Z AUTO 11010G17KT 10SM CLR 24/06 A3022 RMK AO2,M
BAM,2024-07-19 04:35,-116.8743,40.5990,1382.36,82.40,46.40,28.36,0.00,0.00,0.00,30.15,M,10.00,M,CLR,M,M,M,M,M,M,M,M,M,M,M,M,M,M,80.64,KBAM 190435Z AUTO 00000KT 10SM CLR 28/08 A3015 RMK AO1,M
TMT,2024-07-19 04:35,-117.1971,39.4643,1749.34,73.80,48.40,40.61,150.00,9.00,0.00,30.31,M,10.00,17.00,CLR,M,M,M,M,M,M,M,M,M,M,M,M,M,M,73.80,KTMT 190435Z AUTO 15009G17KT 10SM CLR 23/09 A3031 RMK AO2 T02320091,M
P68,2024-07-19 04:53,-116.0056,39.6014,1993.00,69.00,51.00,52.66,240.00,5.00,0.00,30.33,1017.50,M,M,M,M,M,M,M,M,M,M,M,M,M,M,26.00,140.00,2024-07-19 03:54,69.00,KP68 190453Z AUTO 24005KT 21/11 A3033 RMK AO1 PK WND 14026/0354 SLP175 T02060106,M
DRA,2024-07-19 04:53,-116.0278,36.6206,1009.00,94.00,47.00,20.09,190.00,3.00,0.00,30.03,1010.60,10.00,M,CLR,M,M,M,M,M,M,M,M,M,M,M,M,M,M,90.40,KDRA 190453Z AUTO 19003KT 10SM CLR 34/08 A3003 RMK AO2 SLP106 T03440083,M
ELY,2024-07-19 04:53,-114.8453,39.2950,1909.00,64.00,52.00,64.97,200.00,4.00,0.00,30.38,1017.70,10.00,M,OVC,M,M,M,11000.00,M,M,M,M,M,M,M,M,M,M,64.00,KELY 190453Z AUTO 20004KT 10SM OVC110 18/11 A3038 RMK AO2 SLP177 T01780111,M
VGT,2024-07-19 04:53,-115.1933,36.2111,667.00,93.00,60.00,33.36,110.00,5.00,0.00,29.95,1012.40,10.00,M,CLR,M,M,M,M,M,M,M,M,M,M,M,M,M,M,92.76,KVGT 190453Z AUTO 11005KT 10SM CLR 34/16 A2995 RMK AO2 SLP124 T03390156,M
LOL,2024-07-19 04:53,-118.5701,40.0684,1192.43,78.00,42.00,27.69,250.00,3.00,0.00,30.09,1014.10,10.00,M,CLR,M,M,M,M,M,M,M,M,M,M,M,M,M,M,78.00,KLOL 190453Z AUTO 25003KT 10SM CLR 26/06 A3009 RMK AO2 SLP141 T02560056,M
NFL,2024-07-19 04:54,-118.7010,39.4166,1199.00,87.00,44.00,22.33,250.00,10.00,0.00,30.09,1015.80,10.00,M,FEW,SCT,BKN,M,8000.00,12000.00,15000.00,M,M,M,M,M,M,M,M,83.82,KNFL 190454Z COR 25010KT 10SM FEW080 SCT120 BKN150 31/07 A3009 RMK SLP158 T03060067,M
BVU,2024-07-19 04:55,-114.8611,35.9475,671.00,86.00,62.60,45.61,10.00,4.00,0.00,29.95,M,10.00,M,CLR,M,M,M,M,M,M,M,M,M,M,M,M,M,M,86.72,KBVU 190455Z AUTO 01004KT 10SM CLR 30/17 A2995 RMK AO2,M
CXP,2024-07-19 04:55,-119.7326,39.1923,1431.00,77.00,39.20,25.67,0.00,0.00,0.00,30.21,M,10.00,M,CLR,M,M,M,M,M,M,M,M,M,M,M,M,M,M,77.00,KCXP 190455Z AUTO 00000KT 10SM CLR 25/04 A3021 RMK AO2,M
RNO,2024-07-19 04:55,-119.7711,39.4839,1341.00,86.00,35.00,16.23,330.00,13.00,0.00,30.16,1015.00,10.00,M,FEW,M,M,M,13000.00,M,M,M,M,M,M,M,M,M,M,82.68,KRNO 190455Z 33013KT 10SM FEW130 30/02 A3016 RMK AO2 SLP150 T03000017,M
RTS,2024-07-19 04:55,-119.8764,39.6682,1539.00,78.80,33.80,19.55,290.00,12.00,0.00,30.24,M,10.00,M,CLR,M,M,M,M,M,M,M,M,M,M,M,M,M,M,78.80,KRTS 190455Z AUTO 29012KT 10SM CLR 26/01 A3024 RMK AO2,M
05U,2024-07-19 04:55,-116.0051,39.6042,1811.23,M,M,M,0.00,0.00,0.00,30.36,M,10.00,M,M,M,M,M,M,M,M,M,M,M,M,M,M,M,M,M,K05U 190455Z AUTO 00000KT 10SM A3036 RMK A01,M
MEV,2024-07-19 04:55,-119.7500,38.9963,1441.42,68.00,44.60,42.85,110.00,6.00,0.00,30.20,M,10.00,M,CLR,M,M,M,M,M,M,M,M,M,M,M,M,M,M,68.00,KMEV 190455Z AUTO 11006KT 10SM CLR 20/07 A3020 RMK AO2,M
BAM,2024-07-19 04:55,-116.8743,40.5990,1382.36,82.40,46.40,28.36,0.00,0.00,0.00,30.15,M,10.00,M,CLR,M,M,M,M,M,M,M,M,M,M,M,M,M,M,80.64,KBAM 190455Z AUTO 00000KT 10SM CLR 28/08 A3015 RMK AO1,M
HTH,2024-07-19 04:55,-118.6315,38.5448,1282.89,84.20,46.40,26.76,190.00,4.00,0.00,30.14,M,10.00,M,CLR,M,M,M,M,M,M,M,M,M,M,M,M,M,M,81.87,KHTH 190455Z AUTO 19004KT 10SM CLR 29/08 A3014 RMK A01,M
10U,2024-07-19 04:55,-116.1876,41.9532,1637.00,73.40,44.60,35.66,110.00,10.00,0.00,30.22,M,10.00,M,CLR,M,M,M,M,M,M,M,M,M,M,M,M,M,M,73.40,K10U 190455Z AUTO 11010KT 10SM CLR 23/07 A3022 RMK AO2,M
TMT,2024-07-19 04:55,-117.1971,39.4643,1749.34,73.40,48.00,40.55,130.00,11.00,0.00,30.30,M,10.00,M,CLR,M,M,M,M,M,M,M,M,M,M,M,M,M,M,73.40,KTMT 190455Z AUTO 13011KT 10SM CLR 23/09 A3030 RMK AO2 T02300089,M
INS,2024-07-19 04:55,-115.6733,36.5872,955.00,87.60,51.40,28.93,0.00,0.00,0.00,30.02,1010.20,10.00,M,SCT,M,M,M,15000.00,M,M,M,M,M,M,M,M,M,M,85.15,KINS 190455Z AUTO 00000KT 10SM SCT150 31/11 A3002 RMK AO2 SLP102 T03090108 $,M
LSV,2024-07-19 04:55,-115.0343,36.2362,570.00,89.40,58.00,34.76,50.00,8.00,0.00,29.90,1009.30,10.00,M,BKN,M,M,M,19000.00,M,M,M,M,M,M,M,M,M,M,88.33,KLSV 190455Z AUTO 05008KT 10SM BKN190 32/15 A2990 RMK AO2 SLP093 T03190145 $,M
EKO,2024-07-19 04:56,-115.7860,40.8242,1367.00,80.00,46.00,30.20,30.00,6.00,0.00,30.22,1016.30,10.00,M,CLR,M,M,M,M,M,M,M,M,M,M,M,M,M,M,79.20,KEKO 190456Z AUTO 03006KT 10SM CLR 27/08 A3022 RMK AO2 SLP163 T02670078,M
WMC,2024-07-19 04:56,-117.8072,40.9019,1315.00,83.00,27.00,12.93,M,3.00,0.00,30.11,1013.60,10.00,M,CLR,M,M,M,M,M,M,M,M,M,M,M,M,M,M,80.35,KWMC 190456Z AUTO VRB03KT 10SM CLR 28/M03 A3011 RMK AO2 SLP136 T02831028,M
HND,2024-07-19 04:56,-115.1344,35.9729,742.79,90.00,57.00,32.91,170.00,6.00,0.00,30.00,1013.90,10.00,M,CLR,M,M,M,M,M,M,M,M,M,M,M,M,M,M,88.61,KHND 190456Z AUTO 17006KT 10SM CLR 32/14 A3000 RMK AO2 SLP139 T03220139,M
TPH,2024-07-19 04:56,-117.0904,38.0505,1654.00,74.00,52.00,46.11,10.00,18.00,0.00,30.27,1016.30,10.00,M,SCT,M,M,M,11000.00,M,M,M,M,M,M,M,M,M,M,74.00,KTPH 190456Z AUTO 01018KT 10SM SCT110 23/11 A3027 RMK AO2 SLP163 T02330111,M
LAS,2024-07-19 04:56,-115.1634,36.0719,663.00,95.00,58.00,29.20,180.00,6.00,0.00,29.96,1007.80,10.00,M,FEW,BKN,M,M,12000.00,18000.00,M,M,M,M,M,M,M,M,M,94.11,KLAS 190456Z 18006KT 10SM FEW120 BKN180 35/14 A2996 RMK AO2 SLP078 T03500144 $,M
CXP,2024-07-19 05:10,-119.7326,39.1923,1431.00,75.20,39.20,27.26,0.00,0.00,0.00,30.21,M,10.00,M,CLR,M,M,M,M,M,M,M,M,M,M,M,M,M,M,75.20,KCXP 190510Z AUTO 00000KT 10SM CLR 24/04 A3021 RMK AO2,M
RTS,2024-07-19 05:10,-119.8764,39.6682,1539.00,77.00,33.80,20.74,290.00,10.00,0.00,30.24,M,10.00,17.00,CLR,M,M,M,M,M,M,M,M,M,M,M,M,M,M,77.00,KRTS 190510Z AUTO 29010G17KT 10SM CLR 25/01 A3024 RMK AO2,M
05U,2024-07-19 05:10,-116.0051,39.6042,1811.23,69.80,50.00,49.37,220.00,8.00,0.00,30.35,M,10.00,M,FEW,M,M,M,11000.00,M,M,M,M,M,M,M,M,M,M,69.80,K05U 190510Z AUTO 22008KT 10SM FEW110 21/10 A3035 RMK A01,M
MEV,2024-07-19 05:10,-119.7500,38.9963,1441.42,64.40,44.60,48.55,140.00,8.00,0.00,30.20,M,10.00,M,CLR,M,M,M,M,M,M,M,M,M,M,M,M,M,M,64.40,KMEV 190510Z AUTO 14008KT 10SM CLR 18/07 A3020 RMK AO2,M
HTH,2024-07-19 05:10,-118.6315,38.5448,1282.89,84.20,46.40,26.76,0.00,0.00,0.00,30.14,M,10.00,M,CLR,M,M,M,M,M,M,M,M,M,M,M,M,M,M,81.87,KHTH 190510Z AUTO 00000KT 10SM CLR 29/08 A3014 RMK A01,M
10U,2024-07-19 05:10,-116.1876,41.9532,1637.00,73.40,44.60,35.66,120.00,10.00,0.00,30.23,M,10.00,M,CLR,M,M,M,M,M,M,M,M,M,M,M,M,M,M,73.40,K10U 190510Z AUTO 12010KT 10SM CLR 23/07 A3023 RMK AO2,M
BVU,2024-07-19 05:15,-114.8611,35.9475,671.00,84.20,62.60,48.32,10.00,5.00,0.00,29.95,M,10.00,M,CLR,M,M,M,M,M,M,M,M,M,M,M,M,M,M,85.03,KBVU 190515Z AUTO 01005KT 10SM CLR 29/17 A2995 RMK AO2,M
BAM,2024-07-19 05:15,-116.8743,40.5990,1382.36,80.60,46.40,30.07,210.00,6.00,0.00,30.15,M,10.00,M,CLR,M,M,M,M,M,M,M,M,M,M,M,M,M,M,79.56,KBAM 190515Z AUTO 21006KT 10SM CLR 27/08 A3015 RMK AO1,M
TMT,2024-07-19 05:15,-117.1971,39.4643,1749.34,72.00,48.20,42.83,220.00,8.00,0.00,30.31,M,10.00,M,CLR,M,M,M,M,M,M,M,M,M,M,M,M,M,M,72.00,KTMT 190515Z AUTO 22008KT 10SM CLR 22/09 A3031 RMK AO2 T02220090,M
BVU,2024-07-19 05:35,-114.8611,35.9475,671.00,86.00,62.60,45.61,330.00,4.00,0.00,29.95,M,10.00,M,CLR,M,M,M,M,M,M,M,M,M,M,M,M,M,M,86.72,KBVU 190535Z AUTO 33004KT 10SM CLR 30/17 A2995 RMK AO2,M
CXP,2024-07-19 05:35,-119.7326,39.1923,1431.00,77.00,39.20,25.67,0.00,0.00,0.00,30.21,M,10.00,M,CLR,M,M,M,M,M,M,M,M,M,M,M,M,M,M,77.00,KCXP 190535Z AUTO 00000KT 10SM CLR 25/04 A3021 RMK AO2,M
RTS,2024-07-19 05:35,-119.8764,39.6682,1539.00,77.00,33.80,20.74,260.00,10.00,0.00,30.24,M,10.00,M,CLR,M,M,M,M,M,M,M,M,M,M,M,M,M,M,77.00,KRTS 190535Z AUTO 26010KT 10SM CLR 25/01 A3024 RMK AO2,M
05U,2024-07-19 05:35,-116.0051,39.6042,1811.23,M,M,M,220.00,11.00,0.00,30.34,M,M,M,M,M,M,M,M,M,M,M,M,M,M,M,M,M,M,M,K05U 190535Z AUTO 22011KT A3034 RMK A01,M
MEV,2024-07-19 05:35,-119.7500,38.9963,1441.42,66.20,39.20,37.03,120.00,5.00,0.00,30.20,M,10.00,M,CLR,M,M,M,M,M,M,M,M,M,M,M,M,M,M,66.20,KMEV 190535Z AUTO 12005KT 10SM CLR 19/04 A3020 RMK AO2,M
HTH,2024-07-19 05:35,-118.6315,38.5448,1282.89,82.40,44.60,26.49,190.00,5.00,0.00,30.15,M,10.00,M,SCT,M,M,M,12000.00,M,M,M,M,M,M,M,M,M,M,80.50,KHTH 190535Z AUTO 19005KT 10SM SCT120 28/07 A3015 RMK A01,M
10U,2024-07-19 05:35,-116.1876,41.9532,1637.00,73.40,44.60,35.66,130.00,10.00,0.00,30.23,M,10.00,M,CLR,M,M,M,M,M,M,M,M,M,M,M,M,M,M,73.40,K10U 190535Z AUTO 13010KT 10SM CLR 23/07 A3023 RMK AO2,M
BAM,2024-07-19 05:35,-116.8743,40.5990,1382.36,80.60,44.60,28.08,140.00,3.00,0.00,30.16,M,10.00,M,CLR,M,M,M,M,M,M,M,M,M,M,M,M,M,M,79.42,KBAM 190535Z AUTO 14003KT 10SM CLR 27/07 A3016 RMK AO1,M
TMT,2024-07-19 05:35,-117.1971,39.4643,1749.34,68.70,50.50,52.22,260.00,6.00,0.00,30.31,M,10.00,M,SCT,M,M,M,12000.00,M,M,M,M,M,M,M,M,M,M,68.70,KTMT 190535Z AUTO 26006KT 10SM SCT120 20/10 A3031 RMK AO2 T02040103,M
P68,2024-07-19 05:53,-116.0056,39.6014,1993.00,70.00,50.00,49.03,180.00,7.00,0.00,30.32,1016.90,M,M,M,M,M,M,M,M,M,M,M,M,M,M,M,M,M,70.00,KP68 190553Z AUTO 18007KT 21/10 A3032 RMK AO1 SLP169 T02110100 10289 20200 50015,M
DRA,2024-07-19 05:53,-116.0278,36.6206,1009.00,90.00,47.00,22.76,0.00,0.00,0.00,30.03,1010.90,10.00,M,CLR,M,M,M,M,M,M,M,M,M,M,M,M,M,M,86.66,KDRA 190553Z AUTO 00000KT 10SM CLR 32/08 A3003 RMK AO2 SLP109 T03220083 10383 20317 51009,M
ELY,2024-07-19 05:53,-114.8453,39.2950,1909.00,63.00,54.00,72.42,140.00,8.00,0.00,30.37,1017.10,10.00,M,OVC,M,M,M,11000.00,M,M,M,M,M,M,M,M,M,M,63.00,KELY 190553Z AUTO 14008KT 10SM OVC110 17/12 A3037 RMK AO2 SLP171 60000 T01720122 10244 20167 50003,M
VGT,2024-07-19 05:53,-115.1933,36.2111,667.00,93.00,58.00,31.06,60.00,3.00,0.00,29.96,1012.90,10.00,M,CLR,M,M,M,M,M,M,M,M,M,M,M,M,M,M,91.98,KVGT 190553Z AUTO 06003KT 10SM CLR 34/14 A2996 RMK AO2 SLP129 T03390144 10389 20333 51014,M
LOL,2024-07-19 05:53,-118.5701,40.0684,1192.43,75.00,43.00,31.79,0.00,0.00,0.00,30.09,1014.10,10.00,M,CLR,M,M,M,M,M,M,M,M,M,M,M,M,M,M,75.00,KLOL 190553Z AUTO 00000KT 10SM CLR 24/06 A3009 RMK AO2 SLP141 T02390061 10356 20228 51012,M
NFL,2024-07-19 05:54,-118.7010,39.4166,1199.00,83.00,46.00,27.39,250.00,8.00,0.00,30.10,1016.00,10.00,M,FEW,SCT,BKN,M,8000.00,12000.00,15000.00,M,M,M,M,M,M,M,M,81.00,KNFL 190554Z 25008KT 10SM FEW080 SCT120 BKN150 28/08 A3010 RMK AO2 SLP160 T02830078 10372 20283 51010,M
BVU,2024-07-19 05:55,-114.8611,35.9475,671.00,84.20,64.40,51.47,0.00,0.00,0.00,29.95,M,10.00,M,CLR,M,M,M,M,M,M,M,M,M,M,M,M,M,M,85.71,KBVU 190555Z AUTO 00000KT 10SM CLR 29/18 A2995 RMK AO2,M
CXP,2024-07-19 05:55,-119.7326,39.1923,1431.00,75.20,41.00,29.23,80.00,3.00,0.00,30.22,M,10.00,M,CLR,M,M,M,M,M,M,M,M,M,M,M,M,M,M,75.20,KCXP 190555Z AUTO 08003KT 10SM CLR 24/05 A3022 RMK AO2,M
RNO,2024-07-19 05:55,-119.7711,39.4839,1341.00,83.00,37.00,19.35,310.00,8.00,0.00,30.19,1015.60,10.00,M,FEW,M,M,M,12000.00,M,M,M,M,M,M,M,M,M,M,80.53,KRNO 190555Z 31008KT 10SM FEW120 28/03 A3019 RMK AO2 SLP156 T02830028 10367 20283 53017,M
RTS,2024-07-19 05:55,-119.8764,39.6682,1539.00,77.00,32.00,19.30,260.00,12.00,0.00,30.24,M,10.00,M,CLR,M,M,M,M,M,M,M,M,M,M,M,M,M,M,77.00,KRTS 190555Z AUTO 26012KT 10SM CLR 25/00 A3024 RMK AO2,M
05U,2024-07-19 05:55,-116.0051,39.6042,1811.23,M,M,M,0.00,0.00,0.00,30.34,M,10.00,M,M,M,M,M,M,M,M,M,M,M,M,M,M,M,M,M,K05U 190555Z AUTO 00000KT 10SM A3034 RMK A01,M
MEV,2024-07-19 05:55,-119.7500,38.9963,1441.42,64.40,39.20,39.43,120.00,7.00,0.00,30.20,M,10.00,M,FEW,M,M,M,5000.00,M,M,M,M,M,M,M,M,M,M,64.40,KMEV 190555Z AUTO 12007KT 10SM FEW050 18/04 A3020 RMK AO2,M
BAM,2024-07-19 05:55,-116.8743,40.5990,1382.36,78.80,44.60,29.79,80.00,4.00,0.00,30.17,M,10.00,M,CLR,M,M,M,M,M,M,M,M,M,M,M,M,M,M,78.80,KBAM 190555Z AUTO 08004KT 10SM CLR 26/07 A3017 RMK AO1,M
HTH,2024-07-19 05:55,-118.6315,38.5448,1282.89,82.40,44.60,26.49,90.00,8.00,0.00,30.16,M,10.00,M,FEW,BKN,M,M,6000.00,12000.00,M,M,M,M,M,M,M,M,M,80.50,KHTH 190555Z AUTO 09008KT 10SM FEW060 BKN120 28/07 A3016 RMK A01,M
10U,2024-07-19 05:55,-116.1876,41.9532,1637.00,71.60,44.60,37.89,130.00,8.00,0.00,30.23,M,10.00,M,CLR,M,M,M,M,M,M,M,M,M,M,M,M,M,M,71.60,K10U 190555Z AUTO 13008KT 10SM CLR 22/07 A3023 RMK AO2,M
TMT,2024-07-19 05:55,-117.1971,39.4643,1749.34,66.00,50.70,57.75,270.00,6.00,0.00,30.31,M,10.00,M,CLR,M,M,M,M,M,M,M,M,M,M,M,M,M,M,66.00,KTMT 190555Z AUTO 27006KT 10SM CLR 19/10 A3031 RMK AO2 T01890104 10315 20189,M
INS,2024-07-19 05:55,-115.6733,36.5872,955.00,84.60,59.50,42.74,290.00,4.00,0.00,30.03,1010.80,10.00,M,BKN,M,M,M,13000.00,M,M,M,M,M,M,M,M,M,M,84.39,KINS 190555Z AUTO 29004KT 10SM BKN130 29/15 A3003 RMK AO2 SLP108 T02920153 10376 20292 52013 $,M
LSV,2024-07-19 05:55,-115.0343,36.2362,570.00,87.30,57.00,35.84,40.00,4.00,0.00,29.91,1009.50,10.00,M,FEW,FEW,M,M,13000.00,19000.00,M,M,M,M,M,M,M,M,M,86.07,KLSV 190555Z AUTO 04004KT 10SM FEW130 FEW190 31/14 A2991 RMK AO2 SLP095 60001 T03070139 10377 20306 51014 $,M
EKO,2024-07-19 05:56,-115.7860,40.8242,1367.00,75.00,47.00,37.01,110.00,3.00,0.00,30.22,1016.40,10.00,M,CLR,M,M,M,M,M,M,M,M,M,M,M,M,M,M,75.00,KEKO 190556Z AUTO 11003KT 10SM CLR 24/08 A3022 RMK AO2 SLP164 T02390083 10328 20239 53010,M
WMC,2024-07-19 05:56,-117.8072,40.9019,1315.00,76.00,33.00,20.77,160.00,6.00,0.00,30.12,1013.80,10.00,M,CLR,M,M,M,M,M,M,M,M,M,M,M,M,M,M,76.00,KWMC 190556Z AUTO 16006KT 10SM CLR 24/01 A3012 RMK AO2 SLP138 T02440006 10383 20239 51014,M
HND,2024-07-19 05:56,-115.1344,35.9729,742.79,89.00,58.00,35.20,210.00,9.00,0.00,30.00,1013.90,10.00,M,CLR,M,M,M,M,M,M,M,M,M,M,M,M,M,M,87.94,KHND 190556Z AUTO 21009KT 10SM CLR 32/14 A3000 RMK AO2 SLP139 T03170144 10367 20317 51008,M
TPH,2024-07-19 05:56,-117.0904,38.0505,1654.00,72.00,53.00,51.18,40.00,12.00,0.00,30.27,1016.10,10.00,M,SCT,M,M,M,11000.00,M,M,M,M,M,M,M,M,M,M,72.00,KTPH 190556Z AUTO 04012KT 10SM SCT110 22/12 A3027 RMK AO2 SLP161 60008 T02220117 10339 20222 51009,M
LAS,2024-07-19 05:56,-115.1634,36.0719,663.00,93.00,59.00,32.19,220.00,4.00,0.00,29.96,1007.80,10.00,M,FEW,BKN,M,M,12000.00,19000.00,M,M,M,M,M,M,M,M,M,92.35,KLAS 190556Z 22004KT 10SM FEW120 BKN190 34/15 A2996 RMK AO2 SLP078 T03390150 10389 20339 51009 $,M
BVU,2024-07-19 06:15,-114.8611,35.9475,671.00,82.40,66.20,58.08,30.00,4.00,0.00,29.96,M,10.00,M,CLR,M,M,M,M,M,M,M,M,M,M,M,M,M,M,84.63,KBVU 190615Z AUTO 03004KT 10SM CLR 28/19 A2996 RMK AO2,M
CXP,2024-07-19 06:15,-119.7326,39.1923,1431.00,73.40,41.00,31.05,0.00,0.00,0.00,30.22,M,10.00,M,CLR,M,M,M,M,M,M,M,M,M,M,M,M,M,M,73.40,KCXP 190615Z AUTO 00000KT 10SM CLR 23/05 A3022 RMK AO2,M
RTS,2024-07-19 06:15,-119.8764,39.6682,1539.00,73.40,33.80,23.39,260.00,7.00,0.00,30.25,M,10.00,M,CLR,M,M,M,M,M,M,M,M,M,M,M,M,M,M,73.40,KRTS 190615Z AUTO 26007KT 10SM CLR 23/01 A3025 RMK AO2,M
05U,2024-07-19 06:15,-116.0051,39.6042,1811.23,68.00,50.00,52.51,0.00,0.00,0.00,30.35,M,10.00,M,CLR,M,M,M,M,M,M,M,M,M,M,M,M,M,M,68.00,K05U 190615Z AUTO 00000KT 10SM CLR 20/10 A3035 RMK A01,M
MEV,2024-07-19 06:15,-119.7500,38.9963,1441.42,68.00,39.20,34.80,100.00,8.00,0.00,30.21,M,10.00,M,CLR,M,M,M,M,M,M,M,M,M,M,M,M,M,M,68.00,KMEV 190615Z AUTO 10008KT 10SM CLR 20/04 A3021 RMK AO2,M
HTH,2024-07-19 06:15,-118.6315,38.5448,1282.89,84.20,42.80,23.33,110.00,4.00,0.00,30.17,M,10.00,M,FEW,SCT,M,M,8000.00,12000.00,M,M,M,M,M,M,M,M,M,81.61,KHTH 190615Z AUTO 11004KT 10SM FEW080 SCT120 29/06 A3017 RMK A01,M
10U,2024-07-19 06:15,-116.1876,41.9532,1637.00,73.40,44.60,35.66,120.00,8.00,0.00,30.23,M,10.00,13.00,CLR,M,M,M,M,M,M,M,M,M,M,M,M,M,M,73.40,K10U 190615Z AUTO 12008G13KT 10SM CLR 23/07 A3023 RMK AO2,M
BAM,2024-07-19 06:15,-116.8743,40.5990,1382.36,80.60,44.60,28.08,50.00,4.00,0.00,30.17,M,10.00,M,SCT,M,M,M,12000.00,M,M,M,M,M,M,M,M,M,M,79.42,KBAM 190615Z AUTO 05004KT 10SM SCT120 27/07 A3017 RMK AO1,M
TMT,2024-07-19 06:15,-117.1971,39.4643,1749.34,65.50,50.00,57.26,0.00,0.00,0.00,30.31,M,10.00,M,BKN,M,M,M,12000.00,M,M,M,M,M,M,M,M,M,M,65.50,KTMT 190615Z AUTO 00000KT 10SM BKN120 19/10 A3031 RMK AO2 T01860101,M
BVU,2024-07-19 06:35,-114.8611,35.9475,671.00,82.40,64.40,54.55,20.00,5.00,0.00,29.96,M,10.00,M,CLR,M,M,M,M,M,M,M,M,M,M,M,M,M,M,83.98,KBVU 190635Z AUTO 02005KT 10SM CLR 28/18 A2996 RMK AO2,M
CXP,2024-07-19 06:35,-119.7326,39.1923,1431.00,75.20,39.20,27.26,0.00,0.00,0.00,30.22,M,10.00,M,CLR,M,M,M,M,M,M,M,M,M,M,M,M,M,M,75.20,KCXP 190635Z AUTO 00000KT 10SM CLR 24/04 A3022 RMK AO2,M
RTS,2024-07-19 06:35,-119.8764,39.6682,1539.00,75.20,33.80,22.02,260.00,9.00,0.00,30.25,M,10.00,M,CLR,M,M,M,M,M,M,M,M,M,M,M,M,M,M,75.20,KRTS 190635Z AUTO 26009KT 10SM CLR 24/01 A3025 RMK AO2,M
05U,2024-07-19 06:35,-116.0051,39.6042,1811.23,68.00,50.00,52.51,0.00,0.00,0.00,30.35,M,10.00,M,CLR,M,M,M,M,M,M,M,M,M,M,M,M,M,M,68.00,K05U 190635Z AUTO 00000KT 10SM CLR 20/10 A3035 RMK A01,M
MEV,2024-07-19 06:35,-119.7500,38.9963,1441.42,66.20,39.20,37.03,130.00,6.00,0.00,30.21,M,10.00,M,CLR,M,M,M,M,M,M,M,M,M,M,M,M,M,M,66.20,KMEV 190635Z AUTO 13006KT 10SM CLR 19/04 A3021 RMK AO2,M
HTH,2024-07-19 06:35,-118.6315,38.5448,1282.89,82.40,46.40,28.36,140.00,5.00,0.00,30.18,M,10.00,M,FEW,SCT,M,M,9000.00,12000.00,M,M,M,M,M,M,M,M,M,80.64,KHTH 190635Z AUTO 14005KT 10SM FEW090 SCT120 28/08 A3018 RMK A01,M
10U,2024-07-19 06:35,-116.1876,41.9532,1637.00,69.80,44.60,40.29,120.00,7.00,0.00,30.23,M,10.00,M,CLR,M,M,M,M,M,M,M,M,M,M,M,M,M,M,69.80,K10U 190635Z AUTO 12007KT 10SM CLR 21/07 A3023 RMK AO2,M
BAM,2024-07-19 06:35,-116.8743,40.5990,1382.36,80.60,48.20,32.18,10.00,3.00,0.00,30.17,M,10.00,M,CLR,M,M,M,M,M,M,M,M,M,M,M,M,M,M,79.71,KBAM 190635Z AUTO 01003KT 10SM CLR 27/09 A3017 RMK AO1,M
TMT,2024-07-19 06:35,-117.1971,39.4643,1749.34,63.00,50.00,62.49,340.00,3.00,0.00,30.31,M,10.00,M,BKN,M,M,M,12000.00,M,M,M,M,M,M,M,M,M,M,63.00,KTMT 190635Z AUTO 34003KT 10SM BKN120 17/10 A3031 RMK AO2 T01730101,M
05U,2024-07-19 06:50,-116.0051,39.6042,1811.23,68.00,50.00,52.51,0.00,0.00,0.00,30.34,M,10.00,M,SCT,M,M,M,11000.00,M,M,M,M,M,M,M,M,M,M,68.00,K05U 190650Z AUTO 00000KT 10SM SCT110 20/10 A3034 RMK A01,M
P68,2024-07-19 06:53,-116.0056,39.6014,1993.00,69.00,50.00,50.74,160.00,4.00,0.00,30.32,1017.20,M,M,M,M,M,M,M,M,M,M,M,M,M,M,M,M,M,69.00,KP68 190653Z AUTO 16004KT 21/10 A3032 RMK AO1 SLP172 T02060100,M
DRA,2024-07-19 06:53,-116.0278,36.6206,1009.00,89.00,48.00,24.39,M,3.00,0.00,30.04,1011.10,10.00,M,CLR,M,M,M,M,M,M,M,M,M,M,M,M,M,M,85.89,KDRA 190653Z AUTO VRB03KT 10SM CLR 32/09 A3004 RMK AO2 SLP111 T03170089,M
ELY,2024-07-19 06:53,-114.8453,39.2950,1909.00,63.00,53.00,69.82,200.00,9.00,0.00,30.34,1016.50,10.00,M,FEW,M,M,M,9500.00,M,M,M,M,M,M,M,M,M,M,63.00,KELY 190653Z AUTO 20009KT 10SM FEW095 17/12 A3034 RMK AO2 SLP165 T01720117,M
VGT,2024-07-19 06:53,-115.1933,36.2111,667.00,93.00,57.00,29.96,120.00,4.00,0.00,29.97,1013.00,10.00,M,CLR,M,M,M,M,M,M,M,M,M,M,M,M,M,M,91.64,KVGT 190653Z AUTO 12004KT 10SM CLR 34/14 A2997 RMK AO2 SLP130 T03390139,M
LOL,2024-07-19 06:53,-118.5701,40.0684,1192.43,74.00,43.00,32.87,0.00,0.00,0.00,30.11,1014.70,10.00,M,CLR,M,M,M,M,M,M,M,M,M,M,M,M,M,M,74.00,KLOL 190653Z AUTO 00000KT 10SM CLR 23/06 A3011 RMK AO2 SLP147 T02330061,M
NFL,2024-07-19 06:54,-118.7010,39.4166,1199.00,84.00,47.00,27.55,170.00,10.00,0.00,30.13,1016.90,10.00,M,CLR,M,M,M,M,M,M,M,M,M,M,M,M,M,M,81.78,KNFL 190654Z AUTO 17010KT 10SM CLR 29/08 A3013 RMK AO2 SLP169 T02890083,M
BVU,2024-07-19 06:55,-114.8611,35.9475,671.00,82.40,64.40,54.55,20.00,3.00,0.00,29.96,M,10.00,M,CLR,M,M,M,M,M,M,M,M,M,M,M,M,M,M,83.98,KBVU 190655Z AUTO 02003KT 10SM CLR 28/18 A2996 RMK AO2,M
CXP,2024-07-19 06:55,-119.7326,39.1923,1431.00,69.80,41.00,35.09,0.00,0.00,0.00,30.22,M,10.00,M,CLR,M,M,M,M,M,M,M,M,M,M,M,M,M,M,69.80,KCXP 190655Z AUTO 00000KT 10SM CLR 21/05 A3022 RMK AO2,M
RNO,2024-07-19 06:55,-119.7711,39.4839,1341.00,82.00,39.00,21.62,320.00,7.00,0.00,30.19,1015.40,10.00,M,FEW,M,M,M,12000.00,M,M,M,M,M,M,M,M,M,M,79.94,KRNO 190655Z 32007KT 10SM FEW120 28/04 A3019 RMK AO2 SLP154 T02780039,M
RTS,2024-07-19 06:55,-119.8764,39.6682,1539.00,73.40,32.00,21.76,280.00,8.00,0.00,30.26,M,10.00,M,CLR,M,M,M,M,M,M,M,M,M,M,M,M,M,M,73.40,KRTS 190655Z AUTO 28008KT 10SM CLR 23/M00 A3026 RMK AO2,M
MEV,2024-07-19 06:55,-119.7500,38.9963,1441.42,66.20,39.20,37.03,100.00,7.00,0.00,30.21,M,10.00,M,CLR,M,M,M,M,M,M,M,M,M,M,M,M,M,M,66.20,KMEV 190655Z AUTO 10007KT 10SM CLR 19/04 A3021 RMK AO2,M
BAM,2024-07-19 06:55,-116.8743,40.5990,1382.36,80.60,46.40,30.07,0.00,0.00,0.00,30.18,M,10.00,M,CLR,M,M,M,M,M,M,M,M,M,M,M,M,M,M,79.56,KBAM 190655Z AUTO 00000KT 10SM CLR 27/08 A3018 RMK AO1,M
HTH,2024-07-19 06:55,-118.6315,38.5448,1282.89,84.20,44.60,24.99,210.00,6.00,0.00,30.18,M,10.00,M,FEW,BKN,BKN,M,7500.00,9000.00,12000.00,M,M,M,M,M,M,M,M,81.73,KHTH 190655Z AUTO 21006KT 10SM FEW075 BKN090 BKN120 29/07 A3018 RMK A01,M
10U,2024-07-19 06:55,-116.1876,41.9532,1637.00,69.80,44.60,40.29,130.00,7.00,0.00,30.23,M,10.00,M,CLR,M,M,M,M,M,M,M,M,M,M,M,M,M,M,69.80,K10U 190655Z AUTO 13007KT 10SM CLR 21/07 A3023 RMK AO2,M
TMT,2024-07-19 06:55,-117.1971,39.4643,1749.34,63.50,50.00,61.40,350.00,4.00,0.00,30.31,M,10.00,M,BKN,M,M,M,12000.00,M,M,M,M,M,M,M,M,M,M,63.50,KTMT 190655Z AUTO 35004KT 10SM BKN120 18/10 A3031 RMK AO2 T01750100,M
INS,2024-07-19 06:55,-115.6733,36.5872,955.00,84.00,51.00,31.99,0.00,0.00,0.00,30.04,1011.30,10.00,M,SCT,M,M,M,14000.00,M,M,M,M,M,M,M,M,M,M,82.22,KINS 190655Z AUTO 00000KT 10SM SCT140 29/11 A3004 RMK AO2 SLP113 T02890105 $,M
LSV,2024-07-19 06:55,-115.0343,36.2362,570.00,87.30,54.70,32.97,80.00,7.00,0.00,29.91,1009.50,10.00,M,BKN,M,M,M,15000.00,M,M,M,M,M,M,M,M,M,M,85.51,KLSV 190655Z AUTO 08007KT 10SM BKN150 31/13 A2991 RMK AO2 SLP095 T03070126 $,M
EKO,2024-07-19 06:56,-115.7860,40.8242,1367.00,71.00,47.00,42.35,0.00,0.00,0.00,30.23,1016.70,10.00,M,CLR,M,M,M,M,M,M,M,M,M,M,M,M,M,M,71.00,KEKO 190656Z AUTO 00000KT 10SM CLR 22/08 A3023 RMK AO2 SLP167 T02170083,M
WMC,2024-07-19 06:56,-117.8072,40.9019,1315.00,77.00,33.00,20.09,10.00,6.00,0.00,30.12,1013.60,10.00,M,CLR,M,M,M,M,M,M,M,M,M,M,M,M,M,M,77.00,KWMC 190656Z AUTO 01006KT 10SM CLR 25/01 A3012 RMK AO2 SLP136 T02500006,M
HND,2024-07-19 06:56,-115.1344,35.9729,742.79,88.00,55.00,32.60,80.00,3.00,0.00,30.02,1014.40,10.00,M,BKN,M,M,M,12000.00,M,M,M,M,M,M,M,M,M,M,86.20,KHND 190656Z AUTO 08003KT 10SM BKN120 31/13 A3002 RMK AO2 SLP144 T03110128 404060300,M
TPH,2024-07-19 06:56,-117.0904,38.0505,1654.00,70.00,52.00,52.80,350.00,8.00,0.00,30.28,1016.20,10.00,M,CLR,M,M,M,M,M,M,M,M,M,M,M,M,M,M,70.00,KTPH 190656Z AUTO 35008KT 10SM CLR 21/11 A3028 RMK AO2 SLP162 T02110111,M
LAS,2024-07-19 06:56,-115.1634,36.0719,663.00,93.00,57.00,29.96,250.00,4.00,0.00,29.97,1008.00,10.00,M,FEW,BKN,M,M,15000.00,20000.00,M,M,M,M,M,M,M,M,M,91.64,KLAS 190656Z 25004KT 10SM FEW150 BKN200 34/14 A2997 RMK AO2 SLP080 T03390139 $,M
05U,2024-07-19 07:10,-116.0051,39.6042,1811.23,68.00,50.00,52.51,0.00,0.00,0.00,30.34,M,10.00,M,SCT,M,M,M,12000.00,M,M,M,M,M,M,M,M,M,M,68.00,K05U 190710Z AUTO 00000KT 10SM SCT120 20/10 A3034 RMK A01,M
BVU,2024-07-19 07:15,-114.8611,35.9475,671.00,84.20,60.80,45.34,90.00,7.00,0.00,29.96,M,10.00,M,CLR,M,M,M,M,M,M,M,M,M,M,M,M,M,M,84.43,KBVU 190715Z AUTO 09007KT 10SM CLR 29/16 A2996 RMK AO2,M
CXP,2024-07-19 07:15,-119.7326,39.1923,1431.00,73.40,41.00,31.05,80.00,3.00,0.00,30.23,M,10.00,M,CLR,M,M,M,M,M,M,M,M,M,M,M,M,M,M,73.40,KCXP 190715Z AUTO 08003KT 10SM CLR 23/05 A3023 RMK AO2,M
RTS,2024-07-19 07:15,-119.8764,39.6682,1539.00,73.40,28.40,18.80,270.00,7.00,0.00,30.26,M,10.00,M,CLR,M,M,M,M,M,M,M,M,M,M,M,M,M,M,73.40,KRTS 190715Z AUTO 27007KT 10SM CLR 23/M02 A3026 RMK AO2,M
MEV,2024-07-19 07:15,-119.7500,38.9963,1441.42,66.20,41.00,39.72,100.00,4.00,0.00,30.22,M,10.00,M,CLR,M,M,M,M,M,M,M,M,M,M,M,M,M,M,66.20,KMEV 190715Z AUTO 10004KT 10SM CLR 19/05 A3022 RMK AO2,M
BAM,2024-07-19 07:15,-116.8743,40.5990,1382.36,78.80,48.20,34.13,110.00,4.00,0.00,30.19,M,10.00,M,CLR,M,M,M,M,M,M,M,M,M,M,M,M,M,M,78.80,KBAM 190715Z AUTO 11004KT 10SM CLR 26/09 A3019 RMK AO1,M
HTH,2024-07-19 07:15,-118.6315,38.5448,1282.89,84.20,44.60,24.99,230.00,6.00,0.00,30.17,M,10.00,M,FEW,SCT,BKN,M,6500.00,7500.00,8500.00,M,M,M,M,M,M,M,M,81.73,KHTH 190715Z AUTO 23006KT 10SM FEW065 SCT075 BKN085 29/07 A3017 RMK A01,M
10U,2024-07-19 07:15,-116.1876,41.9532,1637.00,69.80,44.60,40.29,M,M,0.00,30.23,M,10.00,M,CLR,M,M,M,M,M,M,M,M,M,M,M,M,M,M,69.80,K10U 190715Z AUTO 6/58333307KT 10SM CLR 21/07 A3023 RMK AO2,M
TMT,2024-07-19 07:15,-117.1971,39.4643,1749.34,60.80,49.00,65.07,80.00,3.00,0.00,30.31,M,10.00,M,CLR,M,M,M,M,M,M,M,M,M,M,M,M,M,M,60.80,KTMT 190715Z AUTO 08003KT 10SM CLR 16/10 A3031 RMK AO2 T01600095,M
05U,2024-07-19 07:30,-116.0051,39.6042,1811.23,64.40,51.80,63.60,0.00,0.00,0.00,30.33,M,10.00,M,M,M,M,M,M,M,M,M,M,M,M,M,M,M,M,64.40,K05U 190730Z AUTO 00000KT 10SM 18/11 A3033 RMK A01,M
BVU,2024-07-19 07:35,-114.8611,35.9475,671.00,84.20,62.60,48.32,60.00,4.00,0.00,29.96,M,10.00,M,CLR,M,M,M,M,M,M,M,M,M,M,M,M,M,M,85.03,KBVU 190735Z AUTO 06004KT 10SM CLR 29/17 A2996 RMK AO2,M
CXP,2024-07-19 07:35,-119.7326,39.1923,1431.00,69.80,41.00,35.09,0.00,0.00,0.00,30.23,M,10.00,M,CLR,M,M,M,M,M,M,M,M,M,M,M,M,M,M,69.80,KCXP 190735Z AUTO 00000KT 10SM CLR 21/05 A3023 RMK AO2,M
RTS,2024-07-19 07:35,-119.8764,39.6682,1539.00,73.40,30.20,20.23,260.00,5.00,0.00,30.26,M,10.00,M,CLR,M,M,M,M,M,M,M,M,M,M,M,M,M,M,73.40,KRTS 190735Z AUTO 26005KT 10SM CLR 23/M01 A3026 RMK AO2,M
MEV,2024-07-19 07:35,-119.7500,38.9963,1441.42,68.00,41.00,37.32,0.00,0.00,0.00,30.22,M,10.00,M,CLR,M,M,M,M,M,M,M,M,M,M,M,M,M,M,68.00,KMEV 190735Z AUTO 00000KT 10SM CLR 20/05 A3022 RMK AO2,M
BAM,2024-07-19 07:35,-116.8743,40.5990,1382.36,78.80,46.40,31.90,320.00,5.00,0.00,30.18,M,10.00,M,CLR,M,M,M,M,M,M,M,M,M,M,M,M,M,M,78.80,KBAM 190735Z AUTO 32005KT 10SM CLR 26/08 A3018 RMK AO1,M
HTH,2024-07-19 07:35,-118.6315,38.5448,1282.89,82.40,46.40,28.36,0.00,0.00,0.00,30.17,M,10.00,M,FEW,SCT,M,M,7500.00,12000.00,M,M,M,M,M,M,M,M,M,80.64,KHTH 190735Z AUTO 00000KT 10SM FEW075 SCT120 28/08 A3017 RMK A01,M
10U,2024-07-19 07:35,-116.1876,41.9532,1637.00,68.00,42.80,40.00,130.00,7.00,0.00,30.22,M,10.00,M,CLR,M,M,M,M,M,M,M,M,M,M,M,M,M,M,68.00,K10U 190735Z AUTO 13007KT 10SM CLR 20/06 A3022 RMK AO2,M
TMT,2024-07-19 07:35,-117.1971,39.4643,1749.34,61.30,49.30,64.65,0.00,0.00,0.00,30.30,M,10.00,M,CLR,M,M,M,M,M,M,M,M,M,M,M,M,M,M,61.30,KTMT 190735Z AUTO 00000KT 10SM CLR 16/10 A3030 RMK AO2 T01630096,M
05U,2024-07-19 07:50,-116.0051,39.6042,1811.23,64.40,51.80,63.60,0.00,0.00,0.00,30.33,M,10.00,M,SCT,M,M,M,11000.00,M,M,M,M,M,M,M,M,M,M,64.40,K05U 190750Z AUTO 00000KT 10SM SCT110 18/11 A3033 RMK A01,M
P68,2024-07-19 07:53,-116.0056,39.6014,1993.00,64.00,52.00,64.97,0.00,0.00,0.00,30.30,1017.70,M,M,M,M,M,M,M,M,M,M,M,M,M,M,M,M,M,64.00,KP68 190753Z AUTO 00000KT 18/11 A3030 RMK AO1 SLP177 T01780111 403170122,M
DRA,2024-07-19 07:53,-116.0278,36.6206,1009.00,87.00,48.00,25.98,100.00,5.00,0.00,30.06,1011.80,10.00,M,CLR,M,M,M,M,M,M,M,M,M,M,M,M,M,M,84.18,KDRA 190753Z AUTO 10005KT 10SM CLR 31/09 A3006 RMK AO2 SLP118 T03060089 404000267,M
ELY,2024-07-19 07:53,-114.8453,39.2950,1909.00,65.00,51.00,60.47,140.00,4.00,0.00,30.34,1016.90,10.00,M,CLR,M,M,M,M,M,M,M,M,M,M,M,M,M,M,65.00,KELY 190753Z AUTO 14004KT 10SM CLR 18/11 A3034 RMK AO2 SLP169 T01830106 403220161,M
VGT,2024-07-19 07:53,-115.1933,36.2111,667.00,91.00,58.00,33.06,300.00,3.00,0.00,29.97,1013.00,10.00,M,CLR,M,M,M,M,M,M,M,M,M,M,M,M,M,M,89.92,KVGT 190753Z AUTO 30003KT 10SM CLR 33/14 A2997 RMK AO2 SLP130 T03280144 404220317,M
LOL,2024-07-19 07:53,-118.5701,40.0684,1192.43,80.00,38.00,22.19,20.00,4.00,0.00,30.10,1014.10,10.00,M,CLR,M,M,M,M,M,M,M,M,M,M,M,M,M,M,78.74,KLOL 190753Z AUTO 02004KT 10SM CLR 27/03 A3010 RMK AO2 SLP141 T02670033 403670117,M
NFL,2024-07-19 07:54,-118.7010,39.4166,1199.00,82.00,44.00,26.23,220.00,8.00,0.00,30.13,1017.00,10.00,M,CLR,M,M,M,M,M,M,M,M,M,M,M,M,M,M,80.21,KNFL 190754Z AUTO 22008KT 10SM CLR 28/07 A3013 RMK AO2 SLP170 T02780067 403720172,M
BVU,2024-07-19 07:55,-114.8611,35.9475,671.00,82.40,62.60,51.21,30.00,6.00,0.00,29.96,M,10.00,M,CLR,M,M,M,M,M,M,M,M,M,M,M,M,M,M,83.41,KBVU 190755Z AUTO 03006KT 10SM CLR 28/17 A2996 RMK AO2,M
CXP,2024-07-19 07:55,-119.7326,39.1923,1431.00,68.00,42.80,40.00,0.00,0.00,0.00,30.23,M,10.00,M,CLR,M,M,M,M,M,M,M,M,M,M,M,M,M,M,68.00,KCXP 190755Z AUTO 00000KT 10SM CLR 20/06 A3023 RMK AO2,M
RNO,2024-07-19 07:55,-119.7711,39.4839,1341.00,80.00,33.00,18.20,340.00,10.00,0.00,30.19,1015.50,10.00,M,FEW,M,M,M,15000.00,M,M,M,M,M,M,M,M,M,M,78.56,KRNO 190755Z 34010KT 10SM FEW150 27/01 A3019 RMK AO2 SLP155 T02670006 403720178,M
RTS,2024-07-19 07:55,-119.8764,39.6682,1539.00,71.60,30.20,21.50,280.00,3.00,0.00,30.26,M,10.00,M,CLR,M,M,M,M,M,M,M,M,M,M,M,M,M,M,71.60,KRTS 190755Z AUTO 28003KT 10SM CLR 22/M01 A3026 RMK AO2,M
MEV,2024-07-19 07:55,-119.7500,38.9963,1441.42,64.40,39.20,39.43,0.00,0.00,0.00,30.22,M,10.00,M,FEW,M,M,M,12000.00,M,M,M,M,M,M,M,M,M,M,64.40,KMEV 190755Z AUTO 00000KT 10SM FEW120 18/04 A3022 RMK AO2,M
HTH,2024-07-19 07:55,-118.6315,38.5448,1282.89,80.60,46.40,30.07,90.00,8.00,0.00,30.17,M,10.00,M,BKN,M,M,M,12000.00,M,M,M,M,M,M,M,M,M,M,79.56,KHTH 190755Z AUTO 09008KT 10SM BKN120 27/08 A3017 RMK A01,M
10U,2024-07-19 07:55,-116.1876,41.9532,1637.00,68.00,44.60,42.85,140.00,7.00,0.00,30.22,M,10.00,M,CLR,M,M,M,M,M,M,M,M,M,M,M,M,M,M,68.00,K10U 190755Z AUTO 14007KT 10SM CLR 20/07 A3022 RMK AO2,M
BAM,2024-07-19 07:55,-116.8743,40.5990,1382.36,78.80,46.40,31.90,270.00,5.00,0.00,30.18,M,10.00,M,CLR,M,M,M,M,M,M,M,M,M,M,M,M,M,M,78.80,KBAM 190755Z AUTO 27005KT 10SM CLR 26/08 A3018 RMK AO1,M
TMT,2024-07-19 07:55,-117.1971,39.4643,1749.34,59.70,49.50,68.94,0.00,0.00,0.00,30.30,M,10.00,M,CLR,M,M,M,M,M,M,M,M,M,M,M,M,M,M,59.70,KTMT 190755Z AUTO 00000KT 10SM CLR 15/10 A3030 RMK AO2 T01540097 403170061,M
INS,2024-07-19 07:55,-115.6733,36.5872,955.00,80.80,60.40,49.91,0.00,0.00,0.00,30.04,1011.60,10.00,M,BKN,OVC,M,M,13000.00,15000.00,M,M,M,M,M,M,M,M,M,81.53,KINS 190755Z AUTO 00000KT 10SM BKN130 OVC150 27/16 A3004 RMK AO2 SLP116 T02710158 403760265 $,M
LSV,2024-07-19 07:55,-115.0343,36.2362,570.00,90.00,51.60,27.02,70.00,8.00,0.00,29.91,1009.50,10.00,M,CLR,M,M,M,M,M,M,M,M,M,M,M,M,M,M,87.33,KLSV 190755Z AUTO 07008KT 10SM CLR 32/11 A2991 RMK AO2 SLP095 T03230109 404230306 $,M
EKO,2024-07-19 07:56,-115.7860,40.8242,1367.00,66.00,46.00,48.43,0.00,0.00,0.00,30.23,1017.00,10.00,M,CLR,M,M,M,M,M,M,M,M,M,M,M,M,M,M,66.00,KEKO 190756Z AUTO 00000KT 10SM CLR 19/08 A3023 RMK AO2 SLP170 T01890078 403780156,M
WMC,2024-07-19 07:56,-117.8072,40.9019,1315.00,74.00,31.00,20.48,310.00,5.00,0.00,30.14,1014.30,10.00,M,CLR,M,M,M,M,M,M,M,M,M,M,M,M,M,M,74.00,KWMC 190756Z AUTO 31005KT 10SM CLR 23/M01 A3014 RMK AO2 SLP143 T02331006 403940106,M
HND,2024-07-19 07:56,-115.1344,35.9729,742.79,87.00,58.00,37.51,220.00,3.00,0.00,30.02,1014.70,10.00,M,SCT,M,M,M,12000.00,M,M,M,M,M,M,M,M,M,M,86.07,KHND 190756Z AUTO 22003KT 10SM SCT120 31/14 A3002 RMK AO2 SLP147 T03060144,M
TPH,2024-07-19 07:56,-117.0904,38.0505,1654.00,70.00,51.00,50.89,350.00,9.00,0.00,30.27,1015.90,10.00,M,SCT,M,M,M,11000.00,M,M,M,M,M,M,M,M,M,M,70.00,KTPH 190756Z AUTO 35009KT 10SM SCT110 21/11 A3027 RMK AO2 SLP159 T02110106 403500178,M
LAS,2024-07-19 07:56,-115.1634,36.0719,663.00,92.00,57.00,30.91,240.00,3.00,0.00,29.97,1008.30,10.00,M,BKN,BKN,M,M,13000.00,20000.00,M,M,M,M,M,M,M,M,M,90.60,KLAS 190756Z 24003KT 10SM BKN130 BKN200 33/14 A2997 RMK AO2 SLP083 T03330139 404220322 $,M
05U,2024-07-19 08:10,-116.0051,39.6042,1811.23,62.60,51.80,67.75,0.00,0.00,0.00,30.33,M,10.00,M,FEW,BKN,M,M,9000.00,12000.00,M,M,M,M,M,M,M,M,M,62.60,K05U 190810Z AUTO 00000KT 10SM FEW090 BKN120 17/11 A3033 RMK A01,M
BVU,2024-07-19 08:15,-114.8611,35.9475,671.00,84.20,62.60,48.32,40.00,6.00,0.00,29.96,M,10.00,M,CLR,M,M,M,M,M,M,M,M,M,M,M,M,M,M,85.03,KBVU 190815Z AUTO 04006KT 10SM CLR 29/17 A2996 RMK AO2,M
CXP,2024-07-19 08:15,-119.7326,39.1923,1431.00,69.80,42.80,37.61,0.00,0.00,0.00,30.23,M,10.00,M,CLR,M,M,M,M,M,M,M,M,M,M,M,M,M,M,69.80,KCXP 190815Z AUTO 00000KT 10SM CLR 21/06 A3023 RMK AO2,M
RTS,2024-07-19 08:15,-119.8764,39.6682,1539.00,68.00,30.20,24.32,0.00,0.00,0.00,30.26,M,10.00,M,CLR,M,M,M,M,M,M,M,M,M,M,M,M,M,M,68.00,KRTS 190815Z AUTO 00000KT 10SM CLR 20/M01 A3026 RMK AO2,M
MEV,2024-07-19 08:15,-119.7500,38.9963,1441.42,64.40,41.00,42.28,110.00,5.00,0.00,30.22,M,10.00,M,FEW,FEW,M,M,5000.00,12000.00,M,M,M,M,M,M,M,M,M,64.40,KMEV 190815Z AUTO 11005KT 10SM FEW050 FEW120 18/05 A3022 RMK AO2,M
BAM,2024-07-19 08:15,-116.8743,40.5990,1382.36,77.00,48.20,36.22,260.00,7.00,0.00,30.19,M,10.00,M,CLR,M,M,M,M,M,M,M,M,M,M,M,M,M,M,77.00,KBAM 190815Z AUTO 26007KT 10SM CLR 25/09 A3019 RMK AO1,M
HTH,2024-07-19 08:15,-118.6315,38.5448,1282.89,80.60,46.40,30.07,0.00,0.00,0.00,30.17,M,10.00,M,SCT,M,M,M,12000.00,M,M,M,M,M,M,M,M,M,M,79.56,KHTH 190815Z AUTO 00000KT 10SM SCT120 27/08 A3017 RMK A01,M
10U,2024-07-19 08:15,-116.1876,41.9532,1637.00,62.60,42.80,48.28,170.00,5.00,0.00,30.22,M,10.00,M,CLR,M,M,M,M,M,M,M,M,M,M,M,M,M,M,62.60,K10U 190815Z AUTO 17005KT 10SM CLR 17/06 A3022 RMK AO2,M
TMT,2024-07-19 08:15,-117.1971,39.4643,1749.34,59.00,49.30,70.16,130.00,4.00,0.00,30.30,M,10.00,M,CLR,M,M,M,M,M,M,M,M,M,M,M,M,M,M,59.00,KTMT 190815Z AUTO 13004KT 10SM CLR 15/10 A3030 RMK AO2 T01490096,M
05U,2024-07-19 08:30,-116.0051,39.6042,1811.23,62.60,53.60,72.38,0.00,0.00,0.00,30.33,M,10.00,M,OVC,M,M,M,12000.00,M,M,M,M,M,M,M,M,M,M,62.60,K05U 190830Z AUTO 00000KT 10SM OVC120 17/12 A3033 RMK A01,M
BVU,2024-07-19 08:35,-114.8611,35.9475,671.00,86.00,62.60,45.61,30.00,6.00,0.00,29.96,M,10.00,M,CLR,M,M,M,M,M,M,M,M,M,M,M,M,M,M,86.72,KBVU 190835Z AUTO 03006KT 10SM CLR 30/17 A2996 RMK AO2,M
CXP,2024-07-19 08:35,-119.7326,39.1923,1431.00,71.60,41.00,33.00,0.00,0.00,0.00,30.23,M,10.00,M,CLR,M,M,M,M,M,M,M,M,M,M,M,M,M,M,71.60,KCXP 190835Z AUTO 00000KT 10SM CLR 22/05 A3023 RMK AO2,M
RTS,2024-07-19 08:35,-119.8764,39.6682,1539.00,69.80,32.00,24.59,240.00,3.00,0.00,30.26,M,10.00,M,CLR,M,M,M,M,M,M,M,M,M,M,M,M,M,M,69.80,KRTS 190835Z AUTO 24003KT 10SM CLR 21/00 A3026 RMK AO2,M
MEV,2024-07-19 08:35,-119.7500,38.9963,1441.42,64.40,42.80,45.32,120.00,5.00,0.00,30.22,M,10.00,M,FEW,FEW,SCT,M,4300.00,4900.00,12000.00,M,M,M,M,M,M,M,M,64.40,KMEV 190835Z AUTO 12005KT 10SM FEW043 FEW049 SCT120 18/06 A3022 RMK AO2,M
HTH,2024-07-19 08:35,-118.6315,38.5448,1282.89,M,M,M,M,M,0.00,30.17,M,10.00,M,M,M,M,M,M,M,M,M,M,M,M,M,M,M,M,M,KHTH 190835Z AUTO 10SM A3017 RMK A01,M
10U,2024-07-19 08:35,-116.1876,41.9532,1637.00,62.60,42.80,48.28,140.00,7.00,0.00,30.22,M,10.00,M,CLR,M,M,M,M,M,M,M,M,M,M,M,M,M,M,62.60,K10U 190835Z AUTO 14007KT 10SM CLR 17/06 A3022 RMK AO2,M
BAM,2024-07-19 08:35,-116.8743,40.5990,1382.36,77.00,50.00,38.74,240.00,5.00,0.00,30.19,M,10.00,M,CLR,M,M,M,M,M,M,M,M,M,M,M,M,M,M,77.00,KBAM 190835Z AUTO 24005KT 10SM CLR 25/10 A3019 RMK AO1,M
TMT,2024-07-19 08:35,-117.1971,39.4643,1749.34,60.30,50.00,68.75,160.00,3.00,0.00,30.29,M,10.00,M,CLR,M,M,M,M,M,M,M,M,M,M,M,M,M,M,60.30,KTMT 190835Z AUTO 16003KT 10SM CLR 16/10 A3029 RMK AO2 T01570099,M
P68,2024-07-19 08:53,-116.0056,39.6014,1993.00,63.00,53.00,69.82,200.00,4.00,0.00,30.29,1017.50,M,M,M,M,M,M,M,M,M,M,M,M,M,M,M,M,M,63.00,KP68 190853Z AUTO 20004KT 17/12 A3029 RMK AO1 SLP175 T01720117 58007,M
DRA,2024-07-19 08:53,-116.0278,36.6206,1009.00,87.00,47.00,25.02,40.00,8.00,0.00,30.05,1011.30,10.00,M,CLR,M,M,M,M,M,M,M,M,M,M,M,M,M,M,84.08,KDRA 190853Z AUTO 04008KT 10SM CLR 31/08 A3005 RMK AO2 SLP113 T03060083 50004,M
ELY,2024-07-19 08:53,-114.8453,39.2950,1909.00,60.00,53.00,77.64,170.00,8.00,0.00,30.34,1017.00,10.00,M,CLR,M,M,M,M,M,M,M,M,M,M,M,M,M,M,60.00,KELY 190853Z AUTO 17008KT 10SM CLR 16/12 A3034 RMK AO2 SLP170 T01560117 56008,M
VGT,2024-07-19 08:53,-115.1933,36.2111,667.00,91.00,58.00,33.06,230.00,5.00,0.00,29.97,1013.20,10.00,M,CLR,M,M,M,M,M,M,M,M,M,M,M,M,M,M,89.92,KVGT 190853Z AUTO 23005KT 10SM CLR 33/14 A2997 RMK AO2 SLP132 T03280144 51002,M
LOL,2024-07-19 08:53,-118.5701,40.0684,1192.43,74.00,46.00,36.85,80.00,5.00,0.00,30.11,1014.60,10.00,M,CLR,M,M,M,M,M,M,M,M,M,M,M,M,M,M,74.00,KLOL 190853Z AUTO 08005KT 10SM CLR 23/08 A3011 RMK AO2 SLP146 T02330078 51006,M
NFL,2024-07-19 08:54,-118.7010,39.4166,1199.00,82.00,42.00,24.29,260.00,11.00,0.00,30.13,1016.80,10.00,M,CLR,M,M,M,M,M,M,M,M,M,M,M,M,M,M,80.09,KNFL 190854Z AUTO 26011KT 10SM CLR 28/06 A3013 RMK AO2 SLP168 T02780056 50007,M
BVU,2024-07-19 08:55,-114.8611,35.9475,671.00,86.00,60.80,42.80,40.00,6.00,0.00,29.96,M,10.00,M,CLR,M,M,M,M,M,M,M,M,M,M,M,M,M,M,86.05,KBVU 190855Z AUTO 04006KT 10SM CLR 30/16 A2996 RMK AO2,M
CXP,2024-07-19 08:55,-119.7326,39.1923,1431.00,69.80,44.60,40.29,0.00,0.00,0.00,30.24,M,10.00,M,CLR,M,M,M,M,M,M,M,M,M,M,M,M,M,M,69.80,KCXP 190855Z AUTO 00000KT 10SM CLR 21/07 A3024 RMK AO2,M
RNO,2024-07-19 08:55,-119.7711,39.4839,1341.00,77.00,39.00,25.47,280.00,3.00,0.00,30.20,1015.70,10.00,M,SCT,M,M,M,15000.00,M,M,M,M,M,M,M,M,M,M,77.00,KRNO 190855Z 28003KT 10SM SCT150 25/04 A3020 RMK AO2 SLP157 T02500039 53005,M
RTS,2024-07-19 08:55,-119.8764,39.6682,1539.00,69.80,33.80,26.43,270.00,8.00,0.00,30.25,M,10.00,M,CLR,M,M,M,M,M,M,M,M,M,M,M,M,M,M,69.80,KRTS 190855Z AUTO 27008KT 10SM CLR 21/01 A3025 RMK AO2,M
05U,2024-07-19 08:55,-116.0051,39.6042,1811.23,62.60,53.60,72.38,0.00,0.00,0.00,30.32,M,10.00,M,BKN,M,M,M,11000.00,M,M,M,M,M,M,M,M,M,M,62.60,K05U 190855Z AUTO 00000KT 10SM BKN110 17/12 A3032 RMK A01,M
MEV,2024-07-19 08:55,-119.7500,38.9963,1441.42,66.20,42.80,42.57,0.00,0.00,0.00,30.22,M,10.00,M,FEW,FEW,SCT,M,4300.00,4900.00,5500.00,M,M,M,M,M,M,M,M,66.20,KMEV 190855Z AUTO 00000KT 10SM FEW043 FEW049 SCT055 19/06 A3022 RMK AO2,M
BAM,2024-07-19 08:55,-116.8743,40.5990,1382.36,73.40,50.00,43.69,210.00,6.00,0.00,30.19,M,10.00,M,CLR,M,M,M,M,M,M,M,M,M,M,M,M,M,M,73.40,KBAM 190855Z AUTO 21006KT 10SM CLR 23/10 A3019 RMK AO1,M
HTH,2024-07-19 08:55,-118.6315,38.5448,1282.89,M,M,M,0.00,0.00,0.00,30.17,M,10.00,M,M,M,M,M,M,M,M,M,M,M,M,M,M,M,M,M,KHTH 190855Z AUTO 00000KT 10SM A3017 RMK A01,M
10U,2024-07-19 08:55,-116.1876,41.9532,1637.00,66.20,42.80,42.57,120.00,9.00,0.00,30.22,M,10.00,M,CLR,M,M,M,M,M,M,M,M,M,M,M,M,M,M,66.20,K10U 190855Z AUTO 12009KT 10SM CLR 19/06 A3022 RMK AO2,M
TMT,2024-07-19 08:55,-117.1971,39.4643,1749.34,60.40,51.40,72.16,270.00,4.00,0.00,30.29,M,10.00,M,CLR,M,M,M,M,M,M,M,M,M,M,M,M,M,M,60.40,KTMT 190855Z AUTO 27004KT 10SM CLR 16/11 A3029 RMK AO2 T01580108,M
INS,2024-07-19 08:55,-115.6733,36.5872,955.00,81.00,59.00,47.17,0.00,0.00,0.00,30.04,1011.30,10.00,M,BKN,M,M,M,13000.00,M,M,M,M,M,M,M,M,M,M,81.40,KINS 190855Z AUTO 00000KT 10SM BKN130 27/15 A3004 RMK AO2 SLP113 T02730150 51004 $,M
LSV,2024-07-19 08:55,-115.0343,36.2362,570.00,86.00,60.30,42.04,220.00,4.00,0.00,29.92,1010.00,10.00,M,FEW,M,M,M,16000.00,M,M,M,M,M,M,M,M,M,M,85.88,KLSV 190855Z AUTO 22004KT 10SM FEW160 30/16 A2992 RMK AO2 SLP100 T03000157 51003 $,M
EKO,2024-07-19 08:56,-115.7860,40.8242,1367.00,68.00,46.00,45.19,50.00,3.00,0.00,30.23,1016.60,10.00,M,CLR,M,M,M,M,M,M,M,M,M,M,M,M,M,M,68.00,KEKO 190856Z AUTO 05003KT 10SM CLR 20/08 A3023 RMK AO2 SLP166 T02000078 50001,M
WMC,2024-07-19 08:56,-117.8072,40.9019,1315.00,75.00,31.00,19.81,200.00,6.00,0.00,30.13,1013.80,10.00,M,CLR,M,M,M,M,M,M,M,M,M,M,M,M,M,M,75.00,KWMC 190856Z AUTO 20006KT 10SM CLR 24/M01 A3013 RMK AO2 SLP138 T02391006 50004,M
HND,2024-07-19 08:56,-115.1344,35.9729,742.79,86.00,57.00,37.35,150.00,5.00,0.00,30.02,1014.90,10.00,M,FEW,M,M,M,8000.00,M,M,M,M,M,M,M,M,M,M,84.92,KHND 190856Z AUTO 15005KT 10SM FEW080 30/14 A3002 RMK AO2 SLP149 T03000139 51006,M
TPH,2024-07-19 08:56,-117.0904,38.0505,1654.00,70.00,52.00,52.80,360.00,10.00,0.00,30.27,1015.90,10.00,M,OVC,M,M,M,11000.00,M,M,M,M,M,M,M,M,M,M,70.00,KTPH 190856Z AUTO 36010KT 10SM OVC110 21/11 A3027 RMK AO2 SLP159 T02110111 58001,M
LAS,2024-07-19 08:56,-115.1634,36.0719,663.00,91.00,56.00,30.76,260.00,6.00,0.00,29.97,1008.30,10.00,M,BKN,BKN,M,M,13000.00,20000.00,M,M,M,M,M,M,M,M,M,89.30,KLAS 190856Z 26006KT 10SM BKN130 BKN200 33/13 A2997 RMK AO2 SLP083 T03280133 51003 $,M
BVU,2024-07-19 09:15,-114.8611,35.9475,671.00,84.20,62.60,48.32,0.00,0.00,0.00,29.96,M,10.00,M,CLR,M,M,M,M,M,M,M,M,M,M,M,M,M,M,85.03,KBVU 190915Z AUTO 00000KT 10SM CLR 29/17 A2996 RMK AO2,M
CXP,2024-07-19 09:15,-119.7326,39.1923,1431.00,71.60,42.80,35.37,0.00,0.00,0.00,30.24,M,10.00,M,CLR,M,M,M,M,M,M,M,M,M,M,M,M,M,M,71.60,KCXP 190915Z AUTO 00000KT 10SM CLR 22/06 A3024 RMK AO2,M
RTS,2024-07-19 09:15,-119.8764,39.6682,1539.00,64.40,32.00,29.63,290.00,5.00,0.00,30.25,M,10.00,M,CLR,M,M,M,M,M,M,M,M,M,M,M,M,M,M,64.40,KRTS 190915Z AUTO 29005KT 10SM CLR 18/00 A3025 RMK AO2,M
05U,2024-07-19 09:15,-116.0051,39.6042,1811.23,62.60,53.60,72.38,0.00,0.00,0.00,30.32,M,10.00,M,BKN,M,M,M,11000.00,M,M,M,M,M,M,M,M,M,M,62.60,K05U 190915Z AUTO 00000KT 10SM BKN110 17/12 A3032 RMK A01,M
MEV,2024-07-19 09:15,-119.7500,38.9963,1441.42,64.40,41.00,42.28,0.00,0.00,0.00,30.22,M,10.00,M,FEW,FEW,FEW,M,4300.00,5000.00,12000.00,M,M,M,M,M,M,M,M,64.40,KMEV 190915Z AUTO 00000KT 10SM FEW043 FEW050 FEW120 18/05 A3022 RMK AO2,M
HTH,2024-07-19 09:15,-118.6315,38.5448,1282.89,78.80,48.20,34.13,0.00,0.00,0.00,30.16,M,10.00,M,M,M,M,M,M,M,M,M,M,M,M,M,M,M,M,78.80,KHTH 190915Z AUTO 00000KT 10SM 26/09 A3016 RMK A01,M
10U,2024-07-19 09:15,-116.1876,41.9532,1637.00,66.20,42.80,42.57,90.00,7.00,0.00,30.22,M,10.00,M,CLR,M,M,M,M,M,M,M,M,M,M,M,M,M,M,66.20,K10U 190915Z AUTO 09007KT 10SM CLR 19/06 A3022 RMK AO2,M
BAM,2024-07-19 09:15,-116.8743,40.5990,1382.36,69.80,48.20,46.16,170.00,7.00,0.00,30.18,M,10.00,M,CLR,M,M,M,M,M,M,M,M,M,M,M,M,M,M,69.80,KBAM 190915Z AUTO 17007KT 10SM CLR 21/09 A3018 RMK AO1,M
TMT,2024-07-19 09:15,-117.1971,39.4643,1749.34,60.30,52.00,74.04,250.00,3.00,0.00,30.29,M,10.00,M,CLR,M,M,M,M,M,M,M,M,M,M,M,M,M,M,60.30,KTMT 190915Z AUTO 25003KT 10SM CLR 16/11 A3029 RMK AO2 T01570112,M
05U,2024-07-19 09:30,-116.0051,39.6042,1811.23,64.40,53.60,67.95,0.00,0.00,0.00,30.31,M,10.00,M,SCT,M,M,M,11000.00,M,M,M,M,M,M,M,M,M,M,64.40,K05U 190930Z AUTO 00000KT 10SM SCT110 18/12 A3031 RMK A01,M
BVU,2024-07-19 09:35,-114.8611,35.9475,671.00,82.40,62.60,51.21,0.00,0.00,0.00,29.96,M,10.00,M,CLR,M,M,M,M,M,M,M,M,M,M,M,M,M,M,83.41,KBVU 190935Z AUTO 00000KT 10SM CLR 28/17 A2996 RMK AO2,M
CXP,2024-07-19 09:35,-119.7326,39.1923,1431.00,68.00,42.80,40.00,0.00,0.00,0.00,30.24,M,10.00,M,CLR,M,M,M,M,M,M,M,M,M,M,M,M,M,M,68.00,KCXP 190935Z AUTO 00000KT 10SM CLR 20/06 A3024 RMK AO2,M
RTS,2024-07-19 09:35,-119.8764,39.6682,1539.00,64.40,32.00,29.63,310.00,3.00,0.00,30.26,M,10.00,M,CLR,M,M,M,M,M,M,M,M,M,M,M,M,M,M,64.40,KRTS 190935Z AUTO 31003KT 10SM CLR 18/00 A3026 RMK AO2,M
MEV,2024-07-19 09:35,-119.7500,38.9963,1441.42,60.80,44.60,55.12,0.00,0.00,0.00,30.22,M,10.00,M,FEW,M,M,M,5000.00,M,M,M,M,M,M,M,M,M,M,60.80,KMEV 190935Z AUTO 00000KT 10SM FEW050 16/07 A3022 RMK AO2,M
HTH,2024-07-19 09:35,-118.6315,38.5448,1282.89,77.00,46.40,33.85,150.00,6.00,0.00,30.16,M,10.00,M,M,M,M,M,M,M,M,M,M,M,M,M,M,M,M,77.00,KHTH 190935Z AUTO 15006KT 10SM 25/08 A3016 RMK A01,M
10U,2024-07-19 09:35,-116.1876,41.9532,1637.00,66.20,42.80,42.57,100.00,11.00,0.00,30.23,M,10.00,M,CLR,M,M,M,M,M,M,M,M,M,M,M,M,M,M,66.20,K10U 190935Z AUTO 10011KT 10SM CLR 19/06 A3023 RMK AO2,M
BAM,2024-07-19 09:35,-116.8743,40.5990,1382.36,68.00,48.20,49.10,180.00,4.00,0.00,30.19,M,10.00,M,CLR,M,M,M,M,M,M,M,M,M,M,M,M,M,M,68.00,KBAM 190935Z AUTO 18004KT 10SM CLR 20/09 A3019 RMK AO1,M
TMT,2024-07-19 09:35,-117.1971,39.4643,1749.34,59.00,51.00,74.74,0.00,0.00,0.00,30.29,M,10.00,M,CLR,M,M,M,M,M,M,M,M,M,M,M,M,M,M,59.00,KTMT 190935Z AUTO 00000KT 10SM CLR 15/11 A3029 RMK AO2 T01500106,M
10U,2024-07-19 09:50,-116.1876,41.9532,1637.00,66.20,44.60,45.60,0.00,0.00,0.00,30.23,M,10.00,11.00,CLR,M,M,M,M,M,M,M,M,M,M,M,M,M,M,66.20,K10U 190950Z AUTO 00000G11KT 10SM CLR 19/07 A3023 RMK AO2,M
HTH,2024-07-19 09:50,-118.6315,38.5448,1282.89,77.00,46.40,33.85,180.00,3.00,0.00,30.16,M,10.00,M,CLR,M,M,M,M,M,M,M,M,M,M,M,M,M,M,77.00,KHTH 190950Z AUTO 18003KT 10SM CLR 25/08 A3016 RMK A01,M
MEV,2024-07-19 09:50,-119.7500,38.9963,1441.42,60.80,46.40,59.01,0.00,0.00,0.00,30.22,M,10.00,M,CLR,M,M,M,M,M,M,M,M,M,M,M,M,M,M,60.80,KMEV 190950Z AUTO 00000KT 10SM CLR 16/08 A3022 RMK AO2,M
P68,2024-07-19 09:53,-116.0056,39.6014,1993.00,63.00,53.00,69.82,190.00,4.00,0.00,30.29,1017.00,M,M,M,M,M,M,M,M,M,M,M,M,M,M,M,M,M,63.00,KP68 190953Z AUTO 19004KT 17/12 A3029 RMK AO1 SLP170 T01720117,M
DRA,2024-07-19 09:53,-116.0278,36.6206,1009.00,87.00,47.00,25.02,40.00,8.00,0.00,30.05,1011.40,10.00,M,FEW,M,M,M,5500.00,M,M,M,M,M,M,M,M,M,M,84.08,KDRA 190953Z AUTO 04008KT 10SM FEW055 31/08 A3005 RMK AO2 SLP114 T03060083,M
ELY,2024-07-19 09:53,-114.8453,39.2950,1909.00,56.00,52.00,86.40,180.00,9.00,0.00,30.34,1016.90,10.00,M,CLR,M,M,M,M,M,M,M,M,M,M,M,M,M,M,56.00,KELY 190953Z AUTO 18009KT 10SM CLR 13/11 A3034 RMK AO2 SLP169 T01330111,M
VGT,2024-07-19 09:53,-115.1933,36.2111,667.00,90.00,58.00,34.11,0.00,0.00,0.00,29.96,1013.00,10.00,M,CLR,M,M,M,M,M,M,M,M,M,M,M,M,M,M,88.92,KVGT 190953Z AUTO 00000KT 10SM CLR 32/14 A2996 RMK AO2 SLP130 T03220144,M
LOL,2024-07-19 09:53,-118.5701,40.0684,1192.43,70.00,43.00,37.64,320.00,7.00,0.00,30.11,1014.80,10.00,M,CLR,M,M,M,M,M,M,M,M,M,M,M,M,M,M,70.00,KLOL 190953Z AUTO 32007KT 10SM CLR 21/06 A3011 RMK AO2 SLP148 T02110061,M
NFL,2024-07-19 09:54,-118.7010,39.4166,1199.00,78.00,41.00,26.64,270.00,5.00,0.00,30.12,1016.70,10.00,M,CLR,M,M,M,M,M,M,M,M,M,M,M,M,M,M,78.00,KNFL 190954Z AUTO 27005KT 10SM CLR 26/05 A3012 RMK AO2 SLP167 T02560050,M
BVU,2024-07-19 09:55,-114.8611,35.9475,671.00,80.60,62.60,54.30,0.00,0.00,0.00,29.96,M,10.00,M,CLR,M,M,M,M,M,M,M,M,M,M,M,M,M,M,81.84,KBVU 190955Z AUTO 00000KT 10SM CLR 27/17 A2996 RMK AO2,M
CXP,2024-07-19 09:55,-119.7326,39.1923,1431.00,69.80,41.00,35.09,0.00,0.00,0.00,30.24,M,10.00,M,CLR,M,M,M,M,M,M,M,M,M,M,M,M,M,M,69.80,KCXP 190955Z AUTO 00000KT 10SM CLR 21/05 A3024 RMK AO2,M
RNO,2024-07-19 09:55,-119.7711,39.4839,1341.00,73.00,41.00,31.47,220.00,3.00,0.00,30.21,1016.10,10.00,M,SCT,M,M,M,15000.00,M,M,M,M,M,M,M,M,M,M,73.00,KRNO 190955Z 22003KT 10SM SCT150 23/05 A3021 RMK AO2 SLP161 T02280050,M
RTS,2024-07-19 09:55,-119.8764,39.6682,1539.00,64.40,32.00,29.63,360.00,5.00,0.00,30.26,M,10.00,M,CLR,M,M,M,M,M,M,M,M,M,M,M,M,M,M,64.40,KRTS 190955Z AUTO 36005KT 10SM CLR 18/00 A3026 RMK AO2,M
05U,2024-07-19 09:55,-116.0051,39.6042,1811.23,62.60,53.60,72.38,0.00,0.00,0.00,30.31,M,10.00,M,SCT,M,M,M,11000.00,M,M,M,M,M,M,M,M,M,M,62.60,K05U 190955Z AUTO 00000KT 10SM SCT110 17/12 A3031 RMK A01,M
BAM,2024-07-19 09:55,-116.8743,40.5990,1382.36,68.00,50.00,52.51,240.00,5.00,0.00,30.18,M,10.00,M,CLR,M,M,M,M,M,M,M,M,M,M,M,M,M,M,68.00,KBAM 190955Z AUTO 24005KT 10SM CLR 20/10 A3018 RMK AO1,M
TMT,2024-07-19 09:55,-117.1971,39.4643,1749.34,59.40,50.70,72.86,0.00,0.00,0.00,30.29,M,10.00,M,CLR,M,M,M,M,M,M,M,M,M,M,M,M,M,M,59.40,KTMT 190955Z AUTO 00000KT 10SM CLR 15/10 A3029 RMK AO2 T01520104,M
INS,2024-07-19 09:55,-115.6733,36.5872,955.00,78.00,60.00,53.94,0.00,0.00,0.00,30.05,1011.70,10.00,M,OVC,M,M,M,17000.00,M,M,M,M,M,M,M,M,M,M,78.00,KINS 190955Z AUTO 00000KT 10SM OVC170 26/16 A3005 RMK AO2 SLP117 T02550155 $,M
LSV,2024-07-19 09:55,-115.0343,36.2362,570.00,86.50,58.60,38.94,10.00,3.00,0.00,29.92,1010.00,10.00,M,FEW,M,M,M,18000.00,M,M,M,M,M,M,M,M,M,M,85.80,KLSV 190955Z AUTO 01003KT 10SM FEW180 30/15 A2992 RMK AO2 SLP100 T03030148 $,M
EKO,2024-07-19 09:56,-115.7860,40.8242,1367.00,63.00,46.00,53.78,0.00,0.00,0.00,30.22,1016.60,10.00,M,CLR,M,M,M,M,M,M,M,M,M,M,M,M,M,M,63.00,KEKO 190956Z AUTO 00000KT 10SM CLR 17/08 A3022 RMK AO2 SLP166 T01720078,M
WMC,2024-07-19 09:56,-117.8072,40.9019,1315.00,76.00,40.00,27.38,170.00,3.00,0.00,30.13,1014.00,10.00,M,CLR,M,M,M,M,M,M,M,M,M,M,M,M,M,M,76.00,KWMC 190956Z AUTO 17003KT 10SM CLR 24/04 A3013 RMK AO2 SLP140 T02440044,M
HND,2024-07-19 09:56,-115.1344,35.9729,742.79,85.00,56.00,37.20,230.00,6.00,0.00,30.01,1014.60,10.00,M,CLR,M,M,M,M,M,M,M,M,M,M,M,M,M,M,83.85,KHND 190956Z AUTO 23006KT 10SM CLR 29/13 A3001 RMK AO2 SLP146 T02940133,M
TPH,2024-07-19 09:56,-117.0904,38.0505,1654.00,68.00,51.00,54.50,360.00,7.00,0.00,30.26,1015.50,10.00,M,CLR,M,M,M,M,M,M,M,M,M,M,M,M,M,M,68.00,KTPH 190956Z AUTO 36007KT 10SM CLR 20/11 A3026 RMK AO2 SLP155 T02000106,M
LAS,2024-07-19 09:56,-115.1634,36.0719,663.00,88.00,57.00,35.05,210.00,5.00,0.00,29.97,1008.00,10.00,M,BKN,BKN,M,M,13000.00,20000.00,M,M,M,M,M,M,M,M,M,86.71,KLAS 190956Z 21005KT 10SM BKN130 BKN200 31/14 A2997 RMK AO2 SLP080 T03110139 $,M
BVU,2024-07-19 10:15,-114.8611,35.9475,671.00,80.60,66.20,61.58,0.00,0.00,0.00,29.95,M,10.00,M,CLR,M,M,M,M,M,M,M,M,M,M,M,M,M,M,82.75,KBVU 191015Z AUTO 00000KT 10SM CLR 27/19 A2995 RMK AO2,M
CXP,2024-07-19 10:15,-119.7326,39.1923,1431.00,68.00,44.60,42.85,0.00,0.00,0.00,30.23,M,10.00,M,CLR,M,M,M,M,M,M,M,M,M,M,M,M,M,M,68.00,KCXP 191015Z AUTO 00000KT 10SM CLR 20/07 A3023 RMK AO2,M
RTS,2024-07-19 10:15,-119.8764,39.6682,1539.00,60.80,32.00,33.64,350.00,6.00,0.00,30.26,M,10.00,M,CLR,M,M,M,M,M,M,M,M,M,M,M,M,M,M,60.80,KRTS 191015Z AUTO 35006KT 10SM CLR 16/00 A3026 RMK AO2,M
05U,2024-07-19 10:15,-116.0051,39.6042,1811.23,60.80,53.60,77.14,0.00,0.00,0.00,30.32,M,10.00,M,CLR,M,M,M,M,M,M,M,M,M,M,M,M,M,M,60.80,K05U 191015Z AUTO 00000KT 10SM CLR 16/12 A3032 RMK A01,M
MEV,2024-07-19 10:15,-119.7500,38.9963,1441.42,59.00,46.40,62.92,120.00,6.00,0.00,30.22,M,10.00,M,CLR,M,M,M,M,M,M,M,M,M,M,M,M,M,M,59.00,KMEV 191015Z AUTO 12006KT 10SM CLR 15/08 A3022 RMK AO2,M
BAM,2024-07-19 10:15,-116.8743,40.5990,1382.36,64.40,46.40,51.98,180.00,4.00,0.00,30.18,M,10.00,M,CLR,M,M,M,M,M,M,M,M,M,M,M,M,M,M,64.40,KBAM 191015Z AUTO 18004KT 10SM CLR 18/08 A3018 RMK AO1,M
HTH,2024-07-19 10:15,-118.6315,38.5448,1282.89,75.20,46.40,35.94,150.00,6.00,0.00,30.16,M,10.00,M,CLR,M,M,M,M,M,M,M,M,M,M,M,M,M,M,75.20,KHTH 191015Z AUTO 15006KT 10SM CLR 24/08 A3016 RMK A01,M
10U,2024-07-19 10:15,-116.1876,41.9532,1637.00,66.20,42.80,42.57,130.00,6.00,0.00,30.22,M,10.00,M,CLR,M,M,M,M,M,M,M,M,M,M,M,M,M,M,66.20,K10U 191015Z AUTO 13006KT 10SM CLR 19/06 A3022 RMK AO2,M
TMT,2024-07-19 10:15,-117.1971,39.4643,1749.34,57.20,50.40,77.97,0.00,0.00,0.00,30.29,M,10.00,M,CLR,M,M,M,M,M,M,M,M,M,M,M,M,M,M,57.20,KTMT 191015Z AUTO 00000KT 10SM CLR 14/10 A3029 RMK AO2 T01400102,M
BVU,2024-07-19 10:35,-114.8611,35.9475,671.00,80.60,62.60,54.30,40.00,5.00,0.00,29.96,M,10.00,M,CLR,M,M,M,M,M,M,M,M,M,M,M,M,M,M,81.84,KBVU 191035Z AUTO 04005KT 10SM CLR 27/17 A2996 RMK AO2,M
CXP,2024-07-19 10:35,-119.7326,39.1923,1431.00,69.80,39.20,32.72,M,4.00,0.00,30.23,M,10.00,M,CLR,M,M,M,M,M,M,M,M,M,M,M,M,M,M,69.80,KCXP 191035Z AUTO VRB04KT 10SM CLR 21/04 A3023 RMK AO2,M
RTS,2024-07-19 10:35,-119.8764,39.6682,1539.00,59.00,32.00,35.87,350.00,6.00,0.00,30.26,M,10.00,M,CLR,M,M,M,M,M,M,M,M,M,M,M,M,M,M,59.00,KRTS 191035Z AUTO 35006KT 10SM CLR 15/00 A3026 RMK AO2,M
05U,2024-07-19 10:35,-116.0051,39.6042,1811.23,60.80,51.80,72.20,0.00,0.00,0.00,30.32,M,10.00,M,CLR,M,M,M,M,M,M,M,M,M,M,M,M,M,M,60.80,K05U 191035Z AUTO 00000KT 10SM CLR 16/11 A3032 RMK A01,M
MEV,2024-07-19 10:35,-119.7500,38.9963,1441.42,57.20,46.40,67.12,200.00,6.00,0.00,30.22,M,10.00,M,CLR,M,M,M,M,M,M,M,M,M,M,M,M,M,M,57.20,KMEV 191035Z AUTO 20006KT 10SM CLR 14/08 A3022 RMK AO2,M
HTH,2024-07-19 10:35,-118.6315,38.5448,1282.89,75.20,46.40,35.94,140.00,7.00,0.00,30.16,M,10.00,M,CLR,M,M,M,M,M,M,M,M,M,M,M,M,M,M,75.20,KHTH 191035Z AUTO 14007KT 10SM CLR 24/08 A3016 RMK A01,M
10U,2024-07-19 10:35,-116.1876,41.9532,1637.00,64.40,42.80,45.32,130.00,10.00,0.00,30.22,M,10.00,M,CLR,M,M,M,M,M,M,M,M,M,M,M,M,M,M,64.40,K10U 191035Z AUTO 13010KT 10SM CLR 18/06 A3022 RMK AO2,M
BAM,2024-07-19 10:35,-116.8743,40.5990,1382.36,68.00,46.40,45.88,190.00,4.00,0.00,30.18,M,10.00,M,CLR,M,M,M,M,M,M,M,M,M,M,M,M,M,M,68.00,KBAM 191035Z AUTO 19004KT 10SM CLR 20/08 A3018 RMK AO1,M
TMT,2024-07-19 10:35,-117.1971,39.4643,1749.34,58.60,51.00,75.82,310.00,4.00,0.00,30.29,M,10.00,M,CLR,M,M,M,M,M,M,M,M,M,M,M,M,M,M,58.60,KTMT 191035Z AUTO 31004KT 10SM CLR 15/11 A3029 RMK AO2 T01480105,M
05U,2024-07-19 10:50,-116.0051,39.6042,1811.23,60.80,51.80,72.20,0.00,0.00,0.00,30.32,M,10.00,M,CLR,M,M,M,M,M,M,M,M,M,M,M,M,M,M,60.80,K05U 191050Z AUTO 00000KT 10SM CLR 16/11 A3032 RMK A01,M
P68,2024-07-19 10:53,-116.0056,39.6014,1993.00,60.00,51.00,72.12,170.00,8.00,0.00,30.29,1017.40,M,M,M,M,M,M,M,M,M,M,M,M,M,M,M,M,M,60.00,KP68 191053Z AUTO 17008KT 16/11 A3029 RMK AO1 SLP174 T01560106,M
DRA,2024-07-19 10:53,-116.0278,36.6206,1009.00,84.00,48.00,28.60,90.00,5.00,0.00,30.06,1012.00,10.00,M,CLR,M,M,M,M,M,M,M,M,M,M,M,M,M,M,81.87,KDRA 191053Z AUTO 09005KT 10SM CLR 29/09 A3006 RMK AO2 SLP120 T02890089,M
ELY,2024-07-19 10:53,-114.8453,39.2950,1909.00,54.00,51.00,89.55,130.00,4.00,0.00,30.34,1018.80,10.00,M,CLR,M,M,M,M,M,M,M,M,M,M,M,M,M,M,54.00,KELY 191053Z AUTO 13004KT 10SM CLR 12/11 A3034 RMK AO2 SLP188 T01220106 $,M
VGT,2024-07-19 10:53,-115.1933,36.2111,667.00,89.00,58.00,35.20,0.00,0.00,0.00,29.97,1013.30,10.00,M,CLR,M,M,M,M,M,M,M,M,M,M,M,M,M,M,87.94,KVGT 191053Z AUTO 00000KT 10SM CLR 32/14 A2997 RMK AO2 SLP133 T03170144,M
LOL,2024-07-19 10:53,-118.5701,40.0684,1192.43,64.00,39.00,39.67,180.00,3.00,0.00,30.12,1015.20,10.00,M,CLR,M,M,M,M,M,M,M,M,M,M,M,M,M,M,64.00,KLOL 191053Z AUTO 18003KT 10SM CLR 18/04 A3012 RMK AO2 SLP152 T01780039,M
NFL,2024-07-19 10:54,-118.7010,39.4166,1199.00,78.00,40.00,25.62,290.00,8.00,0.00,30.13,1016.90,10.00,M,CLR,M,M,M,M,M,M,M,M,M,M,M,M,M,M,78.00,KNFL 191054Z AUTO 29008KT 10SM CLR 26/04 A3013 RMK AO2 SLP169 T02560044,M
BVU,2024-07-19 10:55,-114.8611,35.9475,671.00,80.60,62.60,54.30,40.00,8.00,0.00,29.96,M,10.00,M,CLR,M,M,M,M,M,M,M,M,M,M,M,M,M,M,81.84,KBVU 191055Z AUTO 04008KT 10SM CLR 27/17 A2996 RMK AO2,M
CXP,2024-07-19 10:55,-119.7326,39.1923,1431.00,68.00,41.00,37.32,0.00,0.00,0.00,30.23,M,10.00,M,CLR,M,M,M,M,M,M,M,M,M,M,M,M,M,M,68.00,KCXP 191055Z AUTO 00000KT 10SM CLR 20/05 A3023 RMK AO2,M
RNO,2024-07-19 10:55,-119.7711,39.4839,1341.00,73.00,39.00,29.12,270.00,5.00,0.00,30.21,1016.20,10.00,M,FEW,M,M,M,15000.00,M,M,M,M,M,M,M,M,M,M,73.00,KRNO 191055Z 27005KT 10SM FEW150 23/04 A3021 RMK AO2 SLP162 T02280039,M
RTS,2024-07-19 10:55,-119.8764,39.6682,1539.00,62.60,33.80,33.93,330.00,7.00,0.00,30.26,M,10.00,M,CLR,M,M,M,M,M,M,M,M,M,M,M,M,M,M,62.60,KRTS 191055Z AUTO 33007KT 10SM CLR 17/01 A3026 RMK AO2,M
MEV,2024-07-19 10:55,-119.7500,38.9963,1441.42,57.20,46.40,67.12,170.00,5.00,0.00,30.22,M,10.00,M,CLR,M,M,M,M,M,M,M,M,M,M,M,M,M,M,57.20,KMEV 191055Z AUTO 17005KT 10SM CLR 14/08 A3022 RMK AO2,M
BAM,2024-07-19 10:55,-116.8743,40.5990,1382.36,64.40,46.40,51.98,160.00,5.00,0.00,30.18,M,10.00,M,CLR,M,M,M,M,M,M,M,M,M,M,M,M,M,M,64.40,KBAM 191055Z AUTO 16005KT 10SM CLR 18/08 A3018 RMK AO1,M
HTH,2024-07-19 10:55,-118.6315,38.5448,1282.89,73.40,44.60,35.66,140.00,8.00,0.00,30.16,M,10.00,M,CLR,M,M,M,M,M,M,M,M,M,M,M,M,M,M,73.40,KHTH 191055Z AUTO 14008KT 10SM CLR 23/07 A3016 RMK A01,M
10U,2024-07-19 10:55,-116.1876,41.9532,1637.00,64.40,42.80,45.32,120.00,8.00,0.00,30.23,M,10.00,M,CLR,M,M,M,M,M,M,M,M,M,M,M,M,M,M,64.40,K10U 191055Z AUTO 12008KT 10SM CLR 18/06 A3023 RMK AO2,M
TMT,2024-07-19 10:55,-117.1971,39.4643,1749.34,59.70,51.40,73.98,230.00,3.00,0.00,30.29,M,10.00,M,CLR,M,M,M,M,M,M,M,M,M,M,M,M,M,M,59.70,KTMT 191055Z AUTO 23003KT 10SM CLR 15/11 A3029 RMK AO2 T01540108,M
INS,2024-07-19 10:55,-115.6733,36.5872,955.00,76.00,63.30,64.77,0.00,0.00,0.00,30.05,1011.90,10.00,M,BKN,M,M,M,18000.00,M,M,M,M,M,M,M,M,M,M,76.00,KINS 191055Z AUTO 00000KT 10SM BKN180 24/17 A3005 RMK AO2 SLP119 T02440174 $,M
LSV,2024-07-19 10:55,-115.0343,36.2362,570.00,86.00,54.50,34.12,80.00,7.00,0.00,29.92,1010.20,10.00,M,SCT,BKN,M,M,17000.00,20000.00,M,M,M,M,M,M,M,M,M,84.36,KLSV 191055Z AUTO 08007KT 10SM SCT170 BKN200 30/13 A2992 RMK AO2 SLP102 T03010125 $,M
EKO,2024-07-19 10:56,-115.7860,40.8242,1367.00,63.00,45.00,51.78,170.00,4.00,0.00,30.22,1016.80,10.00,M,CLR,M,M,M,M,M,M,M,M,M,M,M,M,M,M,63.00,KEKO 191056Z AUTO 17004KT 10SM CLR 17/07 A3022 RMK AO2 SLP168 T01720072,M
WMC,2024-07-19 10:56,-117.8072,40.9019,1315.00,62.00,33.00,33.56,0.00,0.00,0.00,30.14,1015.00,10.00,M,CLR,M,M,M,M,M,M,M,M,M,M,M,M,M,M,62.00,KWMC 191056Z AUTO 00000KT 10SM CLR 17/01 A3014 RMK AO2 SLP150 T01670006,M
HND,2024-07-19 10:56,-115.1344,35.9729,742.79,84.00,56.00,38.42,160.00,7.00,0.00,30.02,1014.80,10.00,M,CLR,M,M,M,M,M,M,M,M,M,M,M,M,M,M,83.05,KHND 191056Z AUTO 16007KT 10SM CLR 29/13 A3002 RMK AO2 SLP148 T02890133,M
TPH,2024-07-19 10:56,-117.0904,38.0505,1654.00,68.00,51.00,54.50,360.00,7.00,0.00,30.27,1015.70,10.00,M,CLR,M,M,M,M,M,M,M,M,M,M,M,M,M,M,68.00,KTPH 191056Z AUTO 36007KT 10SM CLR 20/11 A3027 RMK AO2 SLP157 T02000106,M
LAS,2024-07-19 10:56,-115.1634,36.0719,663.00,88.00,55.00,32.60,280.00,4.00,0.00,29.97,1008.00,10.00,M,FEW,BKN,M,M,13000.00,19000.00,M,M,M,M,M,M,M,M,M,86.20,KLAS 191056Z 28004KT 10SM FEW130 BKN190 31/13 A2997 RMK AO2 SLP080 T03110128 $,M
05U,2024-07-19 11:10,-116.0051,39.6042,1811.23,60.80,51.80,72.20,210.00,7.00,0.00,30.32,M,10.00,M,CLR,M,M,M,M,M,M,M,M,M,M,M,M,M,M,60.80,K05U 191110Z AUTO 21007KT 10SM CLR 16/11 A3032 RMK A01,M
BVU,2024-07-19 11:15,-114.8611,35.9475,671.00,82.40,62.60,51.21,10.00,7.00,0.00,29.96,M,10.00,M,CLR,M,M,M,M,M,M,M,M,M,M,M,M,M,M,83.41,KBVU 191115Z AUTO 01007KT 10SM CLR 28/17 A2996 RMK AO2,M
CXP,2024-07-19 11:15,-119.7326,39.1923,1431.00,66.20,42.80,42.57,0.00,0.00,0.00,30.23,M,10.00,M,CLR,M,M,M,M,M,M,M,M,M,M,M,M,M,M,66.20,KCXP 191115Z AUTO 00000KT 10SM CLR 19/06 A3023 RMK AO2,M
RTS,2024-07-19 11:15,-119.8764,39.6682,1539.00,60.80,33.80,36.16,350.00,7.00,0.00,30.26,M,10.00,M,CLR,M,M,M,M,M,M,M,M,M,M,M,M,M,M,60.80,KRTS 191115Z AUTO 35007KT 10SM CLR 16/01 A3026 RMK AO2,M
MEV,2024-07-19 11:15,-119.7500,38.9963,1441.42,57.20,48.20,71.83,0.00,0.00,0.00,30.22,M,10.00,M,BKN,M,M,M,12000.00,M,M,M,M,M,M,M,M,M,M,57.20,KMEV 191115Z AUTO 00000KT 10SM BKN120 14/09 A3022 RMK AO2,M
HTH,2024-07-19 11:15,-118.6315,38.5448,1282.89,71.60,44.60,37.89,130.00,7.00,0.00,30.17,M,10.00,M,CLR,M,M,M,M,M,M,M,M,M,M,M,M,M,M,71.60,KHTH 191115Z AUTO 13007KT 10SM CLR 22/07 A3017 RMK A01,M
10U,2024-07-19 11:15,-116.1876,41.9532,1637.00,62.60,44.60,51.72,30.00,3.00,0.00,30.23,M,10.00,M,CLR,M,M,M,M,M,M,M,M,M,M,M,M,M,M,62.60,K10U 191115Z AUTO 03003KT 10SM CLR 17/07 A3023 RMK AO2,M
BAM,2024-07-19 11:15,-116.8743,40.5990,1382.36,64.40,46.40,51.98,0.00,0.00,0.00,30.18,M,10.00,M,CLR,M,M,M,M,M,M,M,M,M,M,M,M,M,M,64.40,KBAM 191115Z AUTO 00000KT 10SM CLR 18/08 A3018 RMK AO1,M
TMT,2024-07-19 11:15,-117.1971,39.4643,1749.34,55.60,49.50,79.90,70.00,4.00,0.00,30.29,M,10.00,M,CLR,M,M,M,M,M,M,M,M,M,M,M,M,M,M,55.60,KTMT 191115Z AUTO 07004KT 10SM CLR 13/10 A3029 RMK AO2 T01310097,M
05U,2024-07-19 11:30,-116.0051,39.6042,1811.23,59.00,50.00,72.01,0.00,0.00,0.00,30.32,M,10.00,M,CLR,M,M,M,M,M,M,M,M,M,M,M,M,M,M,59.00,K05U 191130Z AUTO 00000KT 10SM CLR 15/10 A3032 RMK A01,M
CXP,2024-07-19 11:35,-119.7326,39.1923,1431.00,64.40,42.80,45.32,170.00,5.00,0.00,30.23,M,10.00,M,CLR,M,M,M,M,M,M,M,M,M,M,M,M,M,M,64.40,KCXP 191135Z AUTO 17005KT 10SM CLR 18/06 A3023 RMK AO2,M
BVU,2024-07-19 11:35,-114.8611,35.9475,671.00,82.40,62.60,51.21,10.00,6.00,0.00,29.97,M,10.00,M,CLR,M,M,M,M,M,M,M,M,M,M,M,M,M,M,83.41,KBVU 191135Z AUTO 01006KT 10SM CLR 28/17 A2997 RMK AO2,M
RTS,2024-07-19 11:35,-119.8764,39.6682,1539.00,60.80,33.80,36.16,350.00,7.00,0.00,30.27,M,10.00,M,CLR,M,M,M,M,M,M,M,M,M,M,M,M,M,M,60.80,KRTS 191135Z AUTO 35007KT 10SM CLR 16/01 A3027 RMK AO2,M
MEV,2024-07-19 11:35,-119.7500,38.9963,1441.42,60.80,44.60,55.12,0.00,0.00,0.00,30.22,M,10.00,M,SCT,M,M,M,12000.00,M,M,M,M,M,M,M,M,M,M,60.80,KMEV 191135Z AUTO 00000KT 10SM SCT120 16/07 A3022 RMK AO2,M
BAM,2024-07-19 11:35,-116.8743,40.5990,1382.36,64.40,46.40,51.98,210.00,3.00,0.00,30.18,M,10.00,M,CLR,M,M,M,M,M,M,M,M,M,M,M,M,M,M,64.40,KBAM 191135Z AUTO 21003KT 10SM CLR 18/08 A3018 RMK AO1,M
HTH,2024-07-19 11:35,-118.6315,38.5448,1282.89,73.40,44.60,35.66,150.00,4.00,0.00,30.18,M,10.00,M,SCT,M,M,M,12000.00,M,M,M,M,M,M,M,M,M,M,73.40,KHTH 191135Z AUTO 15004KT 10SM SCT120 23/07 A3018 RMK A01,M
10U,2024-07-19 11:35,-116.1876,41.9532,1637.00,60.80,42.80,51.45,0.00,0.00,0.00,30.24,M,10.00,M,CLR,M,M,M,M,M,M,M,M,M,M,M,M,M,M,60.80,K10U 191135Z AUTO 00000KT 10SM CLR 16/06 A3024 RMK AO2,M
TMT,2024-07-19 11:35,-117.1971,39.4643,1749.34,54.50,48.40,79.81,0.00,0.00,0.00,30.29,M,10.00,M,CLR,M,M,M,M,M,M,M,M,M,M,M,M,M,M,54.50,KTMT 191135Z AUTO 00000KT 10SM CLR 13/09 A3029 RMK AO2 T01250091,M
05U,2024-07-19 11:50,-116.0051,39.6042,1811.23,57.20,50.00,76.82,0.00,0.00,0.00,30.33,M,10.00,M,CLR,M,M,M,M,M,M,M,M,M,M,M,M,M,M,57.20,K05U 191150Z AUTO 00000KT 10SM CLR 14/10 A3033 RMK A01,M
P68,2024-07-19 11:53,-116.0056,39.6014,1993.00,57.00,49.00,74.55,160.00,7.00,0.00,30.31,1018.70,M,M,M,M,M,M,M,M,M,M,M,M,M,M,M,M,M,57.00,KP68 191153Z AUTO 16007KT 14/09 A3031 RMK AO1 SLP187 70008 T01390094 10211 20139 53004,M
DRA,2024-07-19 11:53,-116.0278,36.6206,1009.00,81.00,48.00,31.52,50.00,4.00,0.00,30.07,1012.30,10.00,M,CLR,M,M,M,M,M,M,M,M,M,M,M,M,M,M,79.92,KDRA 191153Z AUTO 05004KT 10SM CLR 27/09 A3007 RMK AO2 SLP123 T02720089 10322 20272 53006,M
ELY,2024-07-19 11:53,-114.8453,39.2950,1909.00,54.00,50.00,86.29,180.00,11.00,0.00,30.35,1018.60,10.00,M,CLR,M,M,M,M,M,M,M,M,M,M,M,M,M,M,54.00,KELY 191153Z AUTO 18011KT 10SM CLR 12/10 A3035 RMK AO2 SLP186 70006 T01220100 10194 20122 53001 $,M
VGT,2024-07-19 11:53,-115.1933,36.2111,667.00,89.00,57.00,33.96,270.00,3.00,0.00,29.98,1013.50,10.00,M,CLR,M,M,M,M,M,M,M,M,M,M,M,M,M,M,87.64,KVGT 191153Z AUTO 27003KT 10SM CLR 32/14 A2998 RMK AO2 SLP135 T03170139 10339 20311 53003,M
LOL,2024-07-19 11:53,-118.5701,40.0684,1192.43,64.00,46.00,51.93,0.00,0.00,0.00,30.12,1015.50,10.00,M,CLR,M,M,M,M,M,M,M,M,M,M,M,M,M,M,64.00,KLOL 191153Z AUTO 00000KT 10SM CLR 18/08 A3012 RMK AO2 SLP155 T01780078 10272 20167 53004,M
NFL,2024-07-19 11:54,-118.7010,39.4166,1199.00,77.00,40.00,26.49,350.00,8.00,0.00,30.13,1017.00,10.00,M,FEW,BKN,OVC,M,6000.00,10000.00,11000.00,M,M,M,M,M,M,M,M,77.00,KNFL 191154Z AUTO 35008KT 10SM FEW060 BKN100 OVC110 25/04 A3013 RMK AO2 SLP170 T02500044 10306 20250 53002,M
BVU,2024-07-19 11:55,-114.8611,35.9475,671.00,84.20,60.80,45.34,360.00,6.00,0.00,29.96,M,10.00,M,CLR,M,M,M,M,M,M,M,M,M,M,M,M,M,M,84.43,KBVU 191155Z AUTO 36006KT 10SM CLR 29/16 A2996 RMK AO2,M
CXP,2024-07-19 11:55,-119.7326,39.1923,1431.00,66.20,42.80,42.57,40.00,3.00,0.00,30.24,M,10.00,M,CLR,M,M,M,M,M,M,M,M,M,M,M,M,M,M,66.20,KCXP 191155Z AUTO 04003KT 10SM CLR 19/06 A3024 RMK AO2,M
RNO,2024-07-19 11:55,-119.7711,39.4839,1341.00,71.00,39.00,31.16,320.00,4.00,0.00,30.21,1016.40,10.00,M,FEW,M,M,M,15000.00,M,M,M,M,M,M,M,M,M,M,71.00,KRNO 191155Z 32004KT 10SM FEW150 22/04 A3021 RMK AO2 SLP164 T02170039 10289 20217 53003,M
RTS,2024-07-19 11:55,-119.8764,39.6682,1539.00,59.00,32.00,35.87,320.00,6.00,0.00,30.27,M,10.00,M,CLR,M,M,M,M,M,M,M,M,M,M,M,M,M,M,59.00,KRTS 191155Z AUTO 32006KT 10SM CLR 15/00 A3027 RMK AO2,M
MEV,2024-07-19 11:55,-119.7500,38.9963,1441.42,62.60,42.80,48.28,0.00,0.00,0.00,30.22,M,10.00,M,FEW,M,M,M,12000.00,M,M,M,M,M,M,M,M,M,M,62.60,KMEV 191155Z AUTO 00000KT 10SM FEW120 17/06 A3022 RMK AO2,M
BAM,2024-07-19 11:55,-116.8743,40.5990,1382.36,64.40,46.40,51.98,70.00,3.00,0.00,30.19,M,10.00,M,CLR,M,M,M,M,M,M,M,M,M,M,M,M,M,M,64.40,KBAM 191155Z AUTO 07003KT 10SM CLR 18/08 A3019 RMK AO1,M
HTH,2024-07-19 11:55,-118.6315,38.5448,1282.89,75.20,44.60,33.57,150.00,7.00,0.00,30.18,M,10.00,M,BKN,M,M,M,12000.00,M,M,M,M,M,M,M,M,M,M,75.20,KHTH 191155Z AUTO 15007KT 10SM BKN120 24/07 A3018 RMK A01,M
10U,2024-07-19 11:55,-116.1876,41.9532,1637.00,62.60,42.80,48.28,120.00,5.00,0.00,30.24,M,10.00,M,CLR,M,M,M,M,M,M,M,M,M,M,M,M,M,M,62.60,K10U 191155Z AUTO 12005KT 10SM CLR 17/06 A3024 RMK AO2,M
TMT,2024-07-19 11:55,-117.1971,39.4643,1749.34,53.40,48.00,81.85,0.00,0.00,0.00,30.30,M,10.00,M,CLR,M,M,M,M,M,M,M,M,M,M,M,M,M,M,53.40,KTMT 191155Z AUTO 00000KT 10SM CLR 12/09 A3030 RMK AO2 T01190088 10190 20119,M
INS,2024-07-19 11:55,-115.6733,36.5872,955.00,78.00,62.00,57.90,0.00,0.00,0.00,30.06,1011.80,10.00,M,CLR,M,M,M,M,M,M,M,M,M,M,M,M,M,M,78.00,KINS 191155Z AUTO 00000KT 10SM CLR 26/17 A3006 RMK AO2 SLP118 70021 T02560167 10290 20239 52006 $,M
LSV,2024-07-19 11:55,-115.0343,36.2362,570.00,88.30,50.00,26.87,80.00,7.00,0.00,29.92,1010.10,10.00,M,CLR,M,M,M,M,M,M,M,M,M,M,M,M,M,M,85.54,KLSV 191155Z AUTO 08007KT 10SM CLR 31/10 A2992 RMK AO2 SLP101 70008 T03130100 10326 20289 51002 $,M
EKO,2024-07-19 11:56,-115.7860,40.8242,1367.00,61.00,47.00,59.94,0.00,0.00,0.00,30.22,1017.40,10.00,M,CLR,M,M,M,M,M,M,M,M,M,M,M,M,M,M,61.00,KEKO 191156Z AUTO 00000KT 10SM CLR 16/08 A3022 RMK AO2 SLP174 T01610083 10244 20156 55000,M
WMC,2024-07-19 11:56,-117.8072,40.9019,1315.00,59.00,34.00,38.87,180.00,3.00,0.00,30.15,1015.40,10.00,M,CLR,M,M,M,M,M,M,M,M,M,M,M,M,M,M,59.00,KWMC 191156Z AUTO 18003KT 10SM CLR 15/01 A3015 RMK AO2 SLP154 T01500011 10256 20144 53006,M
HND,2024-07-19 11:56,-115.1344,35.9729,742.79,83.00,56.00,39.68,190.00,3.00,0.00,30.02,1015.00,10.00,M,CLR,M,M,M,M,M,M,M,M,M,M,M,M,M,M,82.29,KHND 191156Z AUTO 19003KT 10SM CLR 28/13 A3002 RMK AO2 SLP150 T02830133 10317 20283 53001,M
TPH,2024-07-19 11:56,-117.0904,38.0505,1654.00,68.00,51.00,54.50,350.00,10.00,0.00,30.27,1015.90,10.00,M,CLR,M,M,M,M,M,M,M,M,M,M,M,M,M,M,68.00,KTPH 191156Z AUTO 35010KT 10SM CLR 20/11 A3027 RMK AO2 SLP159 70008 T02000106 10239 20194 53001,M
LAS,2024-07-19 11:56,-115.1634,36.0719,663.00,89.00,55.00,31.59,200.00,3.00,0.00,29.98,1008.30,10.00,M,BKN,M,M,M,20000.00,M,M,M,M,M,M,M,M,M,M,87.12,KLAS 191156Z 20003KT 10SM BKN200 32/13 A2998 RMK AO2 SLP083 T03170128 10344 20311 53003 $,M
BVU,2024-07-19 12:15,-114.8611,35.9475,671.00,84.20,59.00,42.52,10.00,4.00,0.00,29.97,M,10.00,M,CLR,M,M,M,M,M,M,M,M,M,M,M,M,M,M,83.92,KBVU 191215Z AUTO 01004KT 10SM CLR 29/15 A2997 RMK AO2,M
CXP,2024-07-19 12:15,-119.7326,39.1923,1431.00,66.20,42.80,42.57,320.00,5.00,0.00,30.24,M,10.00,M,SCT,M,M,M,12000.00,M,M,M,M,M,M,M,M,M,M,66.20,KCXP 191215Z AUTO 32005KT 10SM SCT120 19/06 A3024 RMK AO2,M
RTS,2024-07-19 12:15,-119.8764,39.6682,1539.00,59.00,33.80,38.56,340.00,6.00,0.00,30.27,M,10.00,M,CLR,M,M,M,M,M,M,M,M,M,M,M,M,M,M,59.00,KRTS 191215Z AUTO 34006KT 10SM CLR 15/01 A3027 RMK AO2,M
05U,2024-07-19 12:15,-116.0051,39.6042,1811.23,57.20,48.20,71.83,0.00,0.00,0.00,30.34,M,10.00,M,CLR,M,M,M,M,M,M,M,M,M,M,M,M,M,M,57.20,K05U 191215Z AUTO 00000KT 10SM CLR 14/09 A3034 RMK A01,M
MEV,2024-07-19 12:15,-119.7500,38.9963,1441.42,57.20,42.80,58.52,0.00,0.00,0.00,30.23,M,10.00,M,CLR,M,M,M,M,M,M,M,M,M,M,M,M,M,M,57.20,KMEV 191215Z AUTO 00000KT 10SM CLR 14/06 A3023 RMK AO2,M
BAM,2024-07-19 12:15,-116.8743,40.5990,1382.36,69.80,46.40,43.13,20.00,3.00,0.00,30.19,M,10.00,M,CLR,M,M,M,M,M,M,M,M,M,M,M,M,M,M,69.80,KBAM 191215Z AUTO 02003KT 10SM CLR 21/08 A3019 RMK AO1,M
HTH,2024-07-19 12:15,-118.6315,38.5448,1282.89,75.20,44.60,33.57,140.00,11.00,0.00,30.19,M,10.00,M,SCT,M,M,M,12000.00,M,M,M,M,M,M,M,M,M,M,75.20,KHTH 191215Z AUTO 14011KT 10SM SCT120 24/07 A3019 RMK A01,M
10U,2024-07-19 12:15,-116.1876,41.9532,1637.00,60.80,42.80,51.45,90.00,6.00,0.00,30.24,M,10.00,M,CLR,M,M,M,M,M,M,M,M,M,M,M,M,M,M,60.80,K10U 191215Z AUTO 09006KT 10SM CLR 16/06 A3024 RMK AO2,M
TMT,2024-07-19 12:15,-117.1971,39.4643,1749.34,55.40,48.00,76.09,210.00,4.00,0.00,30.30,M,10.00,M,CLR,M,M,M,M,M,M,M,M,M,M,M,M,M,M,55.40,KTMT 191215Z AUTO 21004KT 10SM CLR 13/09 A3030 RMK AO2 T01300089,M
BVU,2024-07-19 12:35,-114.8611,35.9475,671.00,82.40,60.80,48.05,0.00,0.00,0.00,29.97,M,10.00,M,CLR,M,M,M,M,M,M,M,M,M,M,M,M,M,M,82.90,KBVU 191235Z AUTO 00000KT 10SM CLR 28/16 A2997 RMK AO2,M
CXP,2024-07-19 12:35,-119.7326,39.1923,1431.00,68.00,41.00,37.32,320.00,3.00,0.00,30.25,M,10.00,M,SCT,M,M,M,12000.00,M,M,M,M,M,M,M,M,M,M,68.00,KCXP 191235Z AUTO 32003KT 10SM SCT120 20/05 A3025 RMK AO2,M
RTS,2024-07-19 12:35,-119.8764,39.6682,1539.00,57.20,32.00,38.26,330.00,7.00,0.00,30.27,M,10.00,M,SCT,M,M,M,12000.00,M,M,M,M,M,M,M,M,M,M,57.20,KRTS 191235Z AUTO 33007KT 10SM SCT120 14/00 A3027 RMK AO2,M
05U,2024-07-19 12:35,-116.0051,39.6042,1811.23,55.40,48.20,76.66,0.00,0.00,0.00,30.34,M,10.00,M,CLR,M,M,M,M,M,M,M,M,M,M,M,M,M,M,55.40,K05U 191235Z AUTO 00000KT 10SM CLR 13/09 A3034 RMK A01,M
MEV,2024-07-19 12:35,-119.7500,38.9963,1441.42,57.20,44.60,62.69,0.00,0.00,0.00,30.23,M,10.00,M,CLR,M,M,M,M,M,M,M,M,M,M,M,M,M,M,57.20,KMEV 191235Z AUTO 00000KT 10SM CLR 14/07 A3023 RMK AO2,M
BAM,2024-07-19 12:35,-116.8743,40.5990,1382.36,69.80,46.40,43.13,40.00,5.00,0.00,30.19,M,10.00,M,CLR,M,M,M,M,M,M,M,M,M,M,M,M,M,M,69.80,KBAM 191235Z AUTO 04005KT 10SM CLR 21/08 A3019 RMK AO1,M
HTH,2024-07-19 12:35,-118.6315,38.5448,1282.89,75.20,44.60,33.57,150.00,9.00,0.00,30.19,M,10.00,M,CLR,M,M,M,M,M,M,M,M,M,M,M,M,M,M,75.20,KHTH 191235Z AUTO 15009KT 10SM CLR 24/07 A3019 RMK A01,M
10U,2024-07-19 12:35,-116.1876,41.9532,1637.00,60.80,42.80,51.45,110.00,5.00,0.00,30.25,M,10.00,M,CLR,M,M,M,M,M,M,M,M,M,M,M,M,M,M,60.80,K10U 191235Z AUTO 11005KT 10SM CLR 16/06 A3025 RMK AO2,M
TMT,2024-07-19 12:35,-117.1971,39.4643,1749.34,54.00,47.00,77.12,180.00,7.00,0.00,30.30,M,10.00,M,CLR,M,M,M,M,M,M,M,M,M,M,M,M,M,M,54.00,KTMT 191235Z AUTO 18007KT 10SM CLR 12/08 A3030 RMK AO2 T01230083,M
05U,2024-07-19 12:50,-116.0051,39.6042,1811.23,57.20,48.20,71.83,190.00,5.00,0.00,30.34,M,10.00,M,CLR,M,M,M,M,M,M,M,M,M,M,M,M,M,M,57.20,K05U 191250Z AUTO 19005KT 10SM CLR 14/09 A3034 RMK A01,M
P68,2024-07-19 12:53,-116.0056,39.6014,1993.00,57.00,48.00,71.81,180.00,7.00,0.00,30.32,1018.40,M,M,M,M,M,M,M,M,M,M,M,M,M,M,M,M,M,57.00,KP68 191253Z AUTO 18007KT 14/09 A3032 RMK AO1 SLP184 T01390089,M
DRA,2024-07-19 12:53,-116.0278,36.6206,1009.00,81.00,48.00,31.52,80.00,4.00,0.00,30.07,1012.60,10.00,M,CLR,M,M,M,M,M,M,M,M,M,M,M,M,M,M,79.92,KDRA 191253Z AUTO 08004KT 10SM CLR 27/09 A3007 RMK AO2 SLP126 T02720089,M
ELY,2024-07-19 12:53,-114.8453,39.2950,1909.00,53.00,48.00,83.06,190.00,4.00,0.00,30.35,1019.20,10.00,M,CLR,M,M,M,M,M,M,M,M,M,M,M,M,M,M,53.00,KELY 191253Z AUTO 19004KT 10SM CLR 12/09 A3035 RMK AO2 SLP192 T01170089 $,M
VGT,2024-07-19 12:53,-115.1933,36.2111,667.00,89.00,56.00,32.75,0.00,0.00,0.00,29.99,1013.90,10.00,M,CLR,M,M,M,M,M,M,M,M,M,M,M,M,M,M,87.37,KVGT 191253Z 00000KT 10SM CLR 32/13 A2999 RMK AO2 SLP139 T03170133,M
LOL,2024-07-19 12:53,-118.5701,40.0684,1192.43,64.00,43.00,46.32,0.00,0.00,0.00,30.14,1016.10,10.00,M,CLR,M,M,M,M,M,M,M,M,M,M,M,M,M,M,64.00,KLOL 191253Z AUTO 00000KT 10SM CLR 18/06 A3014 RMK AO2 SLP161 T01780061,M
NFL,2024-07-19 12:54,-118.7010,39.4166,1199.00,77.00,41.00,27.53,190.00,3.00,0.00,30.15,1017.50,10.00,M,FEW,M,M,M,11000.00,M,M,M,M,M,M,M,M,M,M,77.00,KNFL 191254Z AUTO 19003KT 10SM FEW110 25/05 A3015 RMK AO2 SLP175 T02500050,M
BVU,2024-07-19 12:55,-114.8611,35.9475,671.00,82.40,60.80,48.05,0.00,0.00,0.00,29.98,M,10.00,M,CLR,M,M,M,M,M,M,M,M,M,M,M,M,M,M,82.90,KBVU 191255Z AUTO 00000KT 10SM CLR 28/16 A2998 RMK AO2,M
CXP,2024-07-19 12:55,-119.7326,39.1923,1431.00,66.20,41.00,39.72,0.00,0.00,0.00,30.25,M,10.00,M,CLR,M,M,M,M,M,M,M,M,M,M,M,M,M,M,66.20,KCXP 191255Z AUTO 00000KT 10SM CLR 19/05 A3025 RMK AO2,M
RNO,2024-07-19 12:55,-119.7711,39.4839,1341.00,70.00,38.00,31.00,290.00,5.00,0.00,30.23,1017.00,10.00,M,SCT,M,M,M,15000.00,M,M,M,M,M,M,M,M,M,M,70.00,KRNO 191255Z 29005KT 10SM SCT150 21/03 A3023 RMK AO2 SLP170 T02110033,M
RTS,2024-07-19 12:55,-119.8764,39.6682,1539.00,59.00,33.80,38.56,360.00,6.00,0.00,30.27,M,10.00,M,SCT,M,M,M,12000.00,M,M,M,M,M,M,M,M,M,M,59.00,KRTS 191255Z AUTO 36006KT 10SM SCT120 15/01 A3027 RMK AO2,M
MEV,2024-07-19 12:55,-119.7500,38.9963,1441.42,55.40,46.40,71.64,40.00,3.00,0.00,30.23,M,10.00,M,CLR,M,M,M,M,M,M,M,M,M,M,M,M,M,M,55.40,KMEV 191255Z AUTO 04003KT 10SM CLR 13/08 A3023 RMK AO2,M
BAM,2024-07-19 12:55,-116.8743,40.5990,1382.36,64.40,46.40,51.98,0.00,0.00,0.00,30.19,M,10.00,M,CLR,M,M,M,M,M,M,M,M,M,M,M,M,M,M,64.40,KBAM 191255Z AUTO 00000KT 10SM CLR 18/08 A3019 RMK AO1,M
HTH,2024-07-19 12:55,-118.6315,38.5448,1282.89,73.40,44.60,35.66,120.00,3.00,0.00,30.19,M,10.00,M,CLR,M,M,M,M,M,M,M,M,M,M,M,M,M,M,73.40,KHTH 191255Z AUTO 12003KT 10SM CLR 23/07 A3019 RMK A01,M
10U,2024-07-19 12:55,-116.1876,41.9532,1637.00,60.80,44.60,55.12,100.00,6.00,0.00,30.25,M,10.00,M,CLR,M,M,M,M,M,M,M,M,M,M,M,M,M,M,60.80,K10U 191255Z AUTO 10006KT 10SM CLR 16/07 A3025 RMK AO2,M
TMT,2024-07-19 12:55,-117.1971,39.4643,1749.34,54.00,46.60,75.96,330.00,5.00,0.00,30.31,M,10.00,M,CLR,M,M,M,M,M,M,M,M,M,M,M,M,M,M,54.00,KTMT 191255Z AUTO 33005KT 10SM CLR 12/08 A3031 RMK AO2 T01220081,M
INS,2024-07-19 12:55,-115.6733,36.5872,955.00,74.30,61.30,63.89,0.00,0.00,0.00,30.07,1012.40,10.00,M,BKN,M,M,M,14000.00,M,M,M,M,M,M,M,M,M,M,74.30,KINS 191255Z AUTO 00000KT 10SM BKN140 24/16 A3007 RMK AO2 SLP124 T02350163 $,M
LSV,2024-07-19 12:55,-115.0343,36.2362,570.00,86.40,50.40,28.97,30.00,3.00,0.00,29.94,1010.80,10.00,M,CLR,M,M,M,M,M,M,M,M,M,M,M,M,M,M,83.99,KLSV 191255Z AUTO 03003KT 10SM CLR 30/10 A2994 RMK AO2 SLP108 T03020102 $,M
EKO,2024-07-19 12:56,-115.7860,40.8242,1367.00,65.00,47.00,52.07,70.00,6.00,0.00,30.24,1017.70,10.00,M,CLR,M,M,M,M,M,M,M,M,M,M,M,M,M,M,65.00,KEKO 191256Z AUTO 07006KT 10SM CLR 18/08 A3024 RMK AO2 SLP177 T01830083,M
WMC,2024-07-19 12:56,-117.8072,40.9019,1315.00,58.00,33.00,38.70,0.00,0.00,0.00,30.16,1016.10,10.00,M,CLR,M,M,M,M,M,M,M,M,M,M,M,M,M,M,58.00,KWMC 191256Z AUTO 00000KT 10SM CLR 14/01 A3016 RMK AO2 SLP161 T01440006,M
HND,2024-07-19 12:56,-115.1344,35.9729,742.79,82.00,58.00,44.05,190.00,4.00,0.00,30.04,1015.50,10.00,M,CLR,M,M,M,M,M,M,M,M,M,M,M,M,M,M,81.94,KHND 191256Z AUTO 19004KT 10SM CLR 28/14 A3004 RMK AO2 SLP155 T02780144,M
TPH,2024-07-19 12:56,-117.0904,38.0505,1654.00,65.00,51.00,60.47,360.00,7.00,0.00,30.28,1017.90,10.00,M,CLR,M,M,M,M,M,M,M,M,M,M,M,M,M,M,65.00,KTPH 191256Z AUTO 36007KT 10SM CLR 18/11 A3028 RMK AO2 SLP179 T01830106,M
LAS,2024-07-19 12:56,-115.1634,36.0719,663.00,86.00,57.00,37.35,200.00,4.00,0.00,29.99,1008.80,10.00,M,FEW,SCT,M,M,14000.00,19000.00,M,M,M,M,M,M,M,M,M,84.92,KLAS 191256Z 20004KT 10SM FEW140 SCT190 30/14 A2999 RMK AO2 SLP088 T03000139 $,M
05U,2024-07-19 13:10,-116.0051,39.6042,1811.23,59.00,48.20,67.33,0.00,0.00,0.00,30.34,M,10.00,M,CLR,M,M,M,M,M,M,M,M,M,M,M,M,M,M,59.00,K05U 191310Z AUTO 00000KT 10SM CLR 15/09 A3034 RMK A01,M
BVU,2024-07-19 13:15,-114.8611,35.9475,671.00,82.40,60.80,48.05,0.00,0.00,0.00,29.99,M,10.00,M,CLR,M,M,M,M,M,M,M,M,M,M,M,M,M,M,82.90,KBVU 191315Z AUTO 00000KT 10SM CLR 28/16 A2999 RMK AO2,M
CXP,2024-07-19 13:15,-119.7326,39.1923,1431.00,64.40,42.80,45.32,100.00,3.00,0.00,30.25,M,10.00,M,CLR,M,M,M,M,M,M,M,M,M,M,M,M,M,M,64.40,KCXP 191315Z AUTO 10003KT 10SM CLR 18/06 A3025 RMK AO2,M
RTS,2024-07-19 13:15,-119.8764,39.6682,1539.00,60.80,33.80,36.16,0.00,0.00,0.00,30.27,M,10.00,M,CLR,M,M,M,M,M,M,M,M,M,M,M,M,M,M,60.80,KRTS 191315Z AUTO 00000KT 10SM CLR 16/01 A3027 RMK AO2,M
MEV,2024-07-19 13:15,-119.7500,38.9963,1441.42,53.60,46.40,76.50,50.00,5.00,0.00,30.24,M,10.00,M,CLR,M,M,M,M,M,M,M,M,M,M,M,M,M,M,53.60,KMEV 191315Z AUTO 05005KT 10SM CLR 12/08 A3024 RMK AO2,M
HTH,2024-07-19 13:15,-118.6315,38.5448,1282.89,71.60,50.00,46.43,290.00,4.00,0.00,30.20,M,10.00,M,CLR,M,M,M,M,M,M,M,M,M,M,M,M,M,M,71.60,KHTH 191315Z AUTO 29004KT 10SM CLR 22/10 A3020 RMK A01,M
BAM,2024-07-19 13:15,-116.8743,40.5990,1382.36,62.60,44.60,51.72,0.00,0.00,0.00,30.20,M,10.00,M,CLR,M,M,M,M,M,M,M,M,M,M,M,M,M,M,62.60,KBAM 191315Z AUTO 00000KT 10SM CLR 17/07 A3020 RMK AO1,M
10U,2024-07-19 13:15,-116.1876,41.9532,1637.00,62.60,44.60,51.72,70.00,3.00,0.00,30.26,M,10.00,M,CLR,M,M,M,M,M,M,M,M,M,M,M,M,M,M,62.60,K10U 191315Z AUTO 07003KT 10SM CLR 17/07 A3026 RMK AO2,M
TMT,2024-07-19 13:15,-117.1971,39.4643,1749.34,56.70,49.00,75.36,0.00,0.00,0.00,30.32,M,10.00,M,CLR,M,M,M,M,M,M,M,M,M,M,M,M,M,M,56.70,KTMT 191315Z AUTO 00000KT 10SM CLR 14/10 A3032 RMK AO2 T01370095,M
05U,2024-07-19 13:30,-116.0051,39.6042,1811.23,59.00,48.20,67.33,0.00,0.00,0.00,30.35,M,10.00,M,CLR,M,M,M,M,M,M,M,M,M,M,M,M,M,M,59.00,K05U 191330Z AUTO 00000KT 10SM CLR 15/09 A3035 RMK A01,M
BVU,2024-07-19 13:35,-114.8611,35.9475,671.00,82.40,62.60,51.21,0.00,0.00,0.00,29.99,M,10.00,M,CLR,M,M,M,M,M,M,M,M,M,M,M,M,M,M,83.41,KBVU 191335Z AUTO 00000KT 10SM CLR 28/17 A2999 RMK AO2,M
CXP,2024-07-19 13:35,-119.7326,39.1923,1431.00,64.40,42.80,45.32,0.00,0.00,0.00,30.26,M,10.00,M,CLR,M,M,M,M,M,M,M,M,M,M,M,M,M,M,64.40,KCXP 191335Z AUTO 00000KT 10SM CLR 18/06 A3026 RMK AO2,M
RTS,2024-07-19 13:35,-119.8764,39.6682,1539.00,62.60,33.80,33.93,0.00,0.00,0.00,30.28,M,10.00,M,CLR,M,M,M,M,M,M,M,M,M,M,M,M,M,M,62.60,KRTS 191335Z AUTO 00000KT 10SM CLR 17/01 A3028 RMK AO2,M
MEV,2024-07-19 13:35,-119.7500,38.9963,1441.42,57.20,46.40,67.12,0.00,0.00,0.00,30.25,M,10.00,M,CLR,M,M,M,M,M,M,M,M,M,M,M,M,M,M,57.20,KMEV 191335Z AUTO 00000KT 10SM CLR 14/08 A3025 RMK AO2,M
BAM,2024-07-19 13:35,-116.8743,40.5990,1382.36,64.40,44.60,48.55,110.00,4.00,0.00,30.20,M,10.00,M,CLR,M,M,M,M,M,M,M,M,M,M,M,M,M,M,64.40,KBAM 191335Z AUTO 11004KT 10SM CLR 18/07 A3020 RMK AO1,M
HTH,2024-07-19 13:35,-118.6315,38.5448,1282.89,71.60,46.40,40.57,340.00,3.00,0.00,30.20,M,10.00,M,CLR,M,M,M,M,M,M,M,M,M,M,M,M,M,M,71.60,KHTH 191335Z AUTO 34003KT 10SM CLR 22/08 A3020 RMK A01,M
10U,2024-07-19 13:35,-116.1876,41.9532,1637.00,64.40,44.60,48.55,40.00,4.00,0.00,30.26,M,10.00,M,CLR,M,M,M,M,M,M,M,M,M,M,M,M,M,M,64.40,K10U 191335Z AUTO 04004KT 10SM CLR 18/07 A3026 RMK AO2,M
TMT,2024-07-19 13:35,-117.1971,39.4643,1749.34,59.00,49.00,69.38,0.00,0.00,0.00,30.32,M,10.00,M,CLR,M,M,M,M,M,M,M,M,M,M,M,M,M,M,59.00,KTMT 191335Z AUTO 00000KT 10SM CLR 15/10 A3032 RMK AO2 T01490095,M
NFL,2024-07-19 13:48,-118.7010,39.4166,1199.00,75.20,41.00,29.23,210.00,8.00,0.00,30.16,M,10.00,M,SCT,SCT,M,M,10000.00,16000.00,M,M,M,M,M,M,M,M,M,75.20,KNFL 191348Z 21008KT 10SM SCT100 SCT160 24/05 A3016 RMK AO2 SH VC NE-SE,M
05U,2024-07-19 13:50,-116.0051,39.6042,1811.23,62.60,50.00,63.38,0.00,0.00,0.00,30.35,M,10.00,M,CLR,M,M,M,M,M,M,M,M,M,M,M,M,M,M,62.60,K05U 191350Z AUTO 00000KT 10SM CLR 17/10 A3035 RMK A01,M
P68,2024-07-19 13:53,-116.0056,39.6014,1993.00,62.00,50.00,64.73,0.00,0.00,0.00,30.32,1018.50,M,M,M,M,M,M,M,M,M,M,M,M,M,M,M,M,M,62.00,KP68 191353Z AUTO 00000KT 17/10 A3032 RMK AO1 SLP185 T01670100,M
DRA,2024-07-19 13:53,-116.0278,36.6206,1009.00,85.00,50.00,29.85,60.00,3.00,0.00,30.09,1013.00,10.00,M,CLR,M,M,M,M,M,M,M,M,M,M,M,M,M,M,82.83,KDRA 191353Z AUTO 06003KT 10SM CLR 29/10 A3009 RMK AO2 SLP130 T02940100,M
ELY,2024-07-19 13:53,-114.8453,39.2950,1909.00,59.00,51.00,74.74,170.00,5.00,0.00,30.36,1019.20,10.00,M,CLR,M,M,M,M,M,M,M,M,M,M,M,M,M,M,59.00,KELY 191353Z AUTO 17005KT 10SM CLR 15/11 A3036 RMK AO2 SLP192 T01500106 $,M
VGT,2024-07-19 13:53,-115.1933,36.2111,667.00,90.00,54.00,29.51,160.00,4.00,0.00,30.01,1014.40,10.00,M,CLR,M,M,M,M,M,M,M,M,M,M,M,M,M,M,87.82,KVGT 191353Z 16004KT 10SM CLR 32/12 A3001 RMK AO2 SLP144 T03220122,M
LOL,2024-07-19 13:53,-118.5701,40.0684,1192.43,67.00,41.00,38.63,90.00,3.00,0.00,30.16,1016.50,10.00,M,CLR,M,M,M,M,M,M,M,M,M,M,M,M,M,M,67.00,KLOL 191353Z AUTO 09003KT 10SM CLR 19/05 A3016 RMK AO2 SLP165 T01940050,M
NFL,2024-07-19 13:54,-118.7010,39.4166,1199.00,77.00,40.00,26.49,240.00,8.00,0.00,30.16,1017.70,10.00,M,SCT,SCT,M,M,10000.00,16000.00,M,M,M,M,M,M,M,M,M,77.00,KNFL 191354Z 24008KT 10SM SCT100 SCT160 25/04 A3016 RMK AO2 SLP177 SH VC NE-SE T02500044,M
BVU,2024-07-19 13:55,-114.8611,35.9475,671.00,84.20,62.60,48.32,0.00,0.00,0.00,30.00,M,10.00,M,CLR,M,M,M,M,M,M,M,M,M,M,M,M,M,M,85.03,KBVU 191355Z AUTO 00000KT 10SM CLR 29/17 A3000 RMK AO2,M
CXP,2024-07-19 13:55,-119.7326,39.1923,1431.00,64.40,44.60,48.55,0.00,0.00,0.00,30.26,M,10.00,M,CLR,M,M,M,M,M,M,M,M,M,M,M,M,M,M,64.40,KCXP 191355Z AUTO 00000KT 10SM CLR 18/07 A3026 RMK AO2,M
RNO,2024-07-19 13:55,-119.7711,39.4839,1341.00,70.00,42.00,36.22,240.00,5.00,0.00,30.23,1017.30,10.00,M,SCT,M,M,M,15000.00,M,M,M,M,M,M,M,M,M,M,70.00,KRNO 191355Z 24005KT 10SM SCT150 21/06 A3023 RMK AO2 SLP173 T02110056,M
RTS,2024-07-19 13:55,-119.8764,39.6682,1539.00,60.80,33.80,36.16,290.00,3.00,0.00,30.28,M,10.00,M,CLR,M,M,M,M,M,M,M,M,M,M,M,M,M,M,60.80,KRTS 191355Z AUTO 29003KT 10SM CLR 16/01 A3028 RMK AO2,M
MEV,2024-07-19 13:55,-119.7500,38.9963,1441.42,59.00,46.40,62.92,0.00,0.00,0.00,30.25,M,10.00,M,FEW,M,M,M,11000.00,M,M,M,M,M,M,M,M,M,M,59.00,KMEV 191355Z AUTO 00000KT 10SM FEW110 15/08 A3025 RMK AO2,M
BAM,2024-07-19 13:55,-116.8743,40.5990,1382.36,66.20,46.40,48.83,0.00,0.00,0.00,30.21,M,10.00,M,CLR,M,M,M,M,M,M,M,M,M,M,M,M,M,M,66.20,KBAM 191355Z AUTO 00000KT 10SM CLR 19/08 A3021 RMK AO1,M
HTH,2024-07-19 13:55,-118.6315,38.5448,1282.89,73.40,48.20,40.85,0.00,0.00,0.00,30.20,M,10.00,M,CLR,M,M,M,M,M,M,M,M,M,M,M,M,M,M,73.40,KHTH 191355Z AUTO 00000KT 10SM CLR 23/09 A3020 RMK A01,M
10U,2024-07-19 13:55,-116.1876,41.9532,1637.00,62.60,46.40,55.37,0.00,0.00,0.00,30.26,M,10.00,M,CLR,M,M,M,M,M,M,M,M,M,M,M,M,M,M,62.60,K10U 191355Z AUTO 00000KT 10SM CLR 17/08 A3026 RMK AO2,M
TMT,2024-07-19 13:55,-117.1971,39.4643,1749.34,60.60,50.00,68.02,0.00,0.00,0.00,30.32,M,10.00,M,CLR,M,M,M,M,M,M,M,M,M,M,M,M,M,M,60.60,KTMT 191355Z AUTO 00000KT 10SM CLR 16/10 A3032 RMK AO2 T01590101,M
INS,2024-07-19 13:55,-115.6733,36.5872,955.00,77.40,57.20,49.77,0.00,0.00,0.00,30.09,1013.00,10.00,M,CLR,M,M,M,M,M,M,M,M,M,M,M,M,M,M,77.40,KINS 191355Z AUTO 00000KT 10SM CLR 25/14 A3009 RMK AO2 SLP130 T02520140 $,M
LSV,2024-07-19 13:55,-115.0343,36.2362,570.00,88.00,53.60,30.98,0.00,0.00,0.00,29.96,1011.50,10.00,M,CLR,M,M,M,M,M,M,M,M,M,M,M,M,M,M,85.90,KLSV 191355Z AUTO 00000KT 10SM CLR 31/12 A2996 RMK AO2 SLP115 T03120120 $,M
EKO,2024-07-19 13:56,-115.7860,40.8242,1367.00,66.00,47.00,50.29,60.00,7.00,0.00,30.26,1018.80,10.00,M,CLR,M,M,M,M,M,M,M,M,M,M,M,M,M,M,66.00,KEKO 191356Z AUTO 06007KT 10SM CLR 19/08 A3026 RMK AO2 SLP188 T01890083,M
WMC,2024-07-19 13:56,-117.8072,40.9019,1315.00,66.00,40.00,38.47,0.00,0.00,0.00,30.18,1016.40,10.00,M,CLR,M,M,M,M,M,M,M,M,M,M,M,M,M,M,66.00,KWMC 191356Z AUTO 00000KT 10SM CLR 19/04 A3018 RMK AO2 SLP164 T01890044,M
HND,2024-07-19 13:56,-115.1344,35.9729,742.79,87.00,56.00,34.90,190.00,5.00,0.00,30.05,1015.80,10.00,M,CLR,M,M,M,M,M,M,M,M,M,M,M,M,M,M,85.54,KHND 191356Z 19005KT 10SM CLR 31/13 A3005 RMK AO2 SLP158 T03060133,M
TPH,2024-07-19 13:56,-117.0904,38.0505,1654.00,68.00,51.00,54.50,20.00,5.00,0.00,30.29,1018.50,10.00,M,CLR,M,M,M,M,M,M,M,M,M,M,M,M,M,M,68.00,KTPH 191356Z AUTO 02005KT 10SM CLR 20/11 A3029 RMK AO2 SLP185 T02000106,M
LAS,2024-07-19 13:56,-115.1634,36.0719,663.00,90.00,57.00,32.91,280.00,4.00,0.00,29.99,1008.60,10.00,M,FEW,FEW,M,M,14000.00,19000.00,M,M,M,M,M,M,M,M,M,88.61,KLAS 191356Z 28004KT 10SM FEW140 FEW190 32/14 A2999 RMK AO2 SLP086 T03220139 $,M
BVU,2024-07-19 14:15,-114.8611,35.9475,671.00,86.00,59.00,40.14,0.00,0.00,0.00,30.00,M,10.00,M,CLR,M,M,M,M,M,M,M,M,M,M,M,M,M,M,85.47,KBVU 191415Z AUTO 00000KT 10SM CLR 30/15 A3000 RMK AO2,M
CXP,2024-07-19 14:15,-119.7326,39.1923,1431.00,66.20,44.60,45.60,0.00,0.00,0.00,30.26,M,10.00,M,FEW,M,M,M,11000.00,M,M,M,M,M,M,M,M,M,M,66.20,KCXP 191415Z AUTO 00000KT 10SM FEW110 19/07 A3026 RMK AO2,M
RTS,2024-07-19 14:15,-119.8764,39.6682,1539.00,64.40,33.80,31.85,0.00,0.00,0.00,30.28,M,10.00,M,CLR,M,M,M,M,M,M,M,M,M,M,M,M,M,M,64.40,KRTS 191415Z AUTO 00000KT 10SM CLR 18/01 A3028 RMK AO2,M
05U,2024-07-19 14:15,-116.0051,39.6042,1811.23,66.20,50.00,55.88,0.00,0.00,0.00,30.35,M,10.00,M,CLR,M,M,M,M,M,M,M,M,M,M,M,M,M,M,66.20,K05U 191415Z AUTO 00000KT 10SM CLR 19/10 A3035 RMK A01,M
MEV,2024-07-19 14:15,-119.7500,38.9963,1441.42,60.80,46.40,59.01,0.00,0.00,0.00,30.25,M,10.00,M,FEW,M,M,M,11000.00,M,M,M,M,M,M,M,M,M,M,60.80,KMEV 191415Z AUTO 00000KT 10SM FEW110 16/08 A3025 RMK AO2,M
BAM,2024-07-19 14:15,-116.8743,40.5990,1382.36,69.80,48.20,46.16,0.00,0.00,0.00,30.22,M,10.00,M,CLR,M,M,M,M,M,M,M,M,M,M,M,M,M,M,69.80,KBAM 191415Z AUTO 00000KT 10SM CLR 21/09 A3022 RMK AO1,M
HTH,2024-07-19 14:15,-118.6315,38.5448,1282.89,77.00,48.20,36.22,340.00,4.00,0.00,30.20,M,M,M,M,M,M,M,M,M,M,M,M,M,M,M,M,M,M,77.00,KHTH 191415Z AUTO 34004KT 25/09 A3020 RMK A01,M
10U,2024-07-19 14:15,-116.1876,41.9532,1637.00,66.20,46.40,48.83,0.00,0.00,0.00,30.27,M,10.00,M,CLR,M,M,M,M,M,M,M,M,M,M,M,M,M,M,66.20,K10U 191415Z AUTO 00000KT 10SM CLR 19/08 A3027 RMK AO2,M
TMT,2024-07-19 14:15,-117.1971,39.4643,1749.34,60.80,50.40,68.55,0.00,0.00,0.00,30.32,M,10.00,M,CLR,M,M,M,M,M,M,M,M,M,M,M,M,M,M,60.80,KTMT 191415Z AUTO 00000KT 10SM CLR 16/10 A3032 RMK AO2 T01600102,M
BVU,2024-07-19 14:35,-114.8611,35.9475,671.00,87.80,55.40,33.29,0.00,0.00,0.00,30.01,M,10.00,M,CLR,M,M,M,M,M,M,M,M,M,M,M,M,M,M,86.11,KBVU 191435Z AUTO 00000KT 10SM CLR 31/13 A3001 RMK AO2,M
CXP,2024-07-19 14:35,-119.7326,39.1923,1431.00,69.80,42.80,37.61,0.00,0.00,0.00,30.27,M,10.00,M,SCT,M,M,M,11000.00,M,M,M,M,M,M,M,M,M,M,69.80,KCXP 191435Z AUTO 00000KT 10SM SCT110 21/06 A3027 RMK AO2,M
RTS,2024-07-19 14:35,-119.8764,39.6682,1539.00,68.00,33.80,28.11,0.00,0.00,0.00,30.29,M,10.00,M,CLR,M,M,M,M,M,M,M,M,M,M,M,M,M,M,68.00,KRTS 191435Z AUTO 00000KT 10SM CLR 20/01 A3029 RMK AO2,M
05U,2024-07-19 14:35,-116.0051,39.6042,1811.23,68.00,50.00,52.51,230.00,5.00,0.00,30.36,M,10.00,M,CLR,M,M,M,M,M,M,M,M,M,M,M,M,M,M,68.00,K05U 191435Z AUTO 23005KT 10SM CLR 20/10 A3036 RMK A01,M
MEV,2024-07-19 14:35,-119.7500,38.9963,1441.42,66.20,46.40,48.83,0.00,0.00,0.00,30.26,M,9.00,M,FEW,M,M,M,11000.00,M,M,M,M,M,M,M,M,M,M,66.20,KMEV 191435Z AUTO 00000KT 9SM FEW110 19/08 A3026 RMK AO2,M
HTH,2024-07-19 14:35,-118.6315,38.5448,1282.89,78.80,46.40,31.90,0.00,0.00,0.00,30.21,M,10.00,M,M,M,M,M,M,M,M,M,M,M,M,M,M,M,M,78.80,KHTH 191435Z AUTO 00000KT 10SM 26/08 A3021 RMK A01,M
10U,2024-07-19 14:35,-116.1876,41.9532,1637.00,71.60,46.40,40.57,110.00,6.00,0.00,30.27,M,10.00,M,CLR,M,M,M,M,M,M,M,M,M,M,M,M,M,M,71.60,K10U 191435Z AUTO 11006KT 10SM CLR 22/08 A3027 RMK AO2,M
BAM,2024-07-19 14:35,-116.8743,40.5990,1382.36,71.60,50.00,46.43,40.00,5.00,0.00,30.22,M,10.00,M,CLR,M,M,M,M,M,M,M,M,M,M,M,M,M,M,71.60,KBAM 191435Z AUTO 04005KT 10SM CLR 22/10 A3022 RMK AO1,M
TMT,2024-07-19 14:35,-117.1971,39.4643,1749.34,65.00,50.00,58.26,0.00,0.00,0.00,30.33,M,10.00,M,CLR,M,M,M,M,M,M,M,M,M,M,M,M,M,M,65.00,KTMT 191435Z AUTO 00000KT 10SM CLR 18/10 A3033 RMK AO2 T01830100,M
LAS,2024-07-19 14:41,-115.1634,36.0719,663.00,94.00,55.00,27.02,320.00,3.00,0.00,30.03,M,10.00,M,FEW,M,M,M,14000.00,M,M,M,M,M,M,M,M,M,M,92.06,KLAS 191441Z 32003KT 10SM FEW140 34/13 A3003 RMK AO2 T03440128 $,M
05U,2024-07-19 14:50,-116.0051,39.6042,1811.23,69.80,50.00,49.37,0.00,0.00,0.00,30.36,M,10.00,M,CLR,M,M,M,M,M,M,M,M,M,M,M,M,M,M,69.80,K05U 191450Z AUTO 00000KT 10SM CLR 21/10 A3036 RMK A01,M
P68,2024-07-19 14:53,-116.0056,39.6014,1993.00,71.00,51.00,49.18,240.00,3.00,0.00,30.33,1018.50,M,M,M,M,M,M,M,M,M,M,M,M,M,M,M,M,M,71.00,KP68 191453Z AUTO 24003KT 22/11 A3033 RMK AO1 SLP185 T02170106 53006,M
DRA,2024-07-19 14:53,-116.0278,36.6206,1009.00,89.00,49.00,25.32,0.00,0.00,0.00,30.10,1013.30,10.00,M,CLR,M,M,M,M,M,M,M,M,M,M,M,M,M,M,86.01,KDRA 191453Z AUTO 00000KT 10SM CLR 32/09 A3010 RMK AO2 SLP133 T03170094 53010,M
ELY,2024-07-19 14:53,-114.8453,39.2950,1909.00,63.00,49.00,60.20,170.00,7.00,0.00,30.37,1019.50,10.00,M,CLR,M,M,M,M,M,M,M,M,M,M,M,M,M,M,63.00,KELY 191453Z AUTO 17007KT 10SM CLR 17/09 A3037 RMK AO2 SLP195 T01720094 53007 $,M
VGT,2024-07-19 14:53,-115.1933,36.2111,667.00,91.00,53.00,27.57,150.00,3.00,0.00,30.02,1015.10,10.00,M,CLR,M,M,M,M,M,M,M,M,M,M,M,M,M,M,88.55,KVGT 191453Z 15003KT 10SM CLR 33/12 A3002 RMK AO2 SLP151 T03280117 53015,M
LOL,2024-07-19 14:53,-118.5701,40.0684,1192.43,77.00,38.00,24.50,0.00,0.00,0.00,30.16,1016.50,10.00,M,CLR,M,M,M,M,M,M,M,M,M,M,M,M,M,M,77.00,KLOL 191453Z AUTO 00000KT 10SM CLR 25/03 A3016 RMK AO2 SLP165 T02500033 51012,M
NFL,2024-07-19 14:54,-118.7010,39.4166,1199.00,78.00,44.00,29.90,190.00,4.00,0.00,30.18,1018.30,10.00,M,SCT,SCT,M,M,10000.00,16000.00,M,M,M,M,M,M,M,M,M,78.00,KNFL 191454Z 19004KT 10SM SCT100 SCT160 26/07 A3018 RMK AO2 SLP183 T02560067 52013,M
BVU,2024-07-19 14:55,-114.8611,35.9475,671.00,89.60,55.40,31.45,0.00,0.00,0.00,30.01,M,10.00,M,CLR,M,M,M,M,M,M,M,M,M,M,M,M,M,M,87.78,KBVU 191455Z AUTO 00000KT 10SM CLR 32/13 A3001 RMK AO2,M
CXP,2024-07-19 14:55,-119.7326,39.1923,1431.00,69.80,44.60,40.29,0.00,0.00,0.00,30.27,M,10.00,M,FEW,M,M,M,12000.00,M,M,M,M,M,M,M,M,M,M,69.80,KCXP 191455Z AUTO 00000KT 10SM FEW120 21/07 A3027 RMK AO2,M
RNO,2024-07-19 14:55,-119.7711,39.4839,1341.00,75.00,40.00,28.31,0.00,0.00,0.00,30.24,1017.60,10.00,M,SCT,M,M,M,11000.00,M,M,M,M,M,M,M,M,M,M,75.00,KRNO 191455Z 00000KT 10SM SCT110 24/04 A3024 RMK AO2 SLP176 T02390044 53008,M
RTS,2024-07-19 14:55,-119.8764,39.6682,1539.00,69.80,33.80,26.43,0.00,0.00,0.00,30.29,M,10.00,M,CLR,M,M,M,M,M,M,M,M,M,M,M,M,M,M,69.80,KRTS 191455Z AUTO 00000KT 10SM CLR 21/01 A3029 RMK AO2,M
MEV,2024-07-19 14:55,-119.7500,38.9963,1441.42,69.80,46.40,43.13,0.00,0.00,0.00,30.26,M,10.00,M,FEW,M,M,M,11000.00,M,M,M,M,M,M,M,M,M,M,69.80,KMEV 191455Z AUTO 00000KT 10SM FEW110 21/08 A3026 RMK AO2,M
BAM,2024-07-19 14:55,-116.8743,40.5990,1382.36,71.60,50.00,46.43,70.00,7.00,0.00,30.22,M,10.00,M,CLR,M,M,M,M,M,M,M,M,M,M,M,M,M,M,71.60,KBAM 191455Z AUTO 07007KT 10SM CLR 22/10 A3022 RMK AO1,M
HTH,2024-07-19 14:55,-118.6315,38.5448,1282.89,80.60,48.20,32.18,60.00,4.00,0.00,30.21,M,10.00,M,CLR,M,M,M,M,M,M,M,M,M,M,M,M,M,M,79.71,KHTH 191455Z AUTO 06004KT 10SM CLR 27/09 A3021 RMK A01,M
10U,2024-07-19 14:55,-116.1876,41.9532,1637.00,71.60,46.40,40.57,110.00,5.00,0.00,30.28,M,10.00,M,CLR,M,M,M,M,M,M,M,M,M,M,M,M,M,M,71.60,K10U 191455Z AUTO 11005KT 10SM CLR 22/08 A3028 RMK AO2,M
TMT,2024-07-19 14:55,-117.1971,39.4643,1749.34,66.00,51.80,60.15,0.00,0.00,0.00,30.34,M,10.00,M,CLR,M,M,M,M,M,M,M,M,M,M,M,M,M,M,66.00,KTMT 191455Z AUTO 00000KT 10SM CLR 19/11 A3034 RMK AO2 T01880110,M
INS,2024-07-19 14:55,-115.6733,36.5872,955.00,83.00,57.40,41.73,0.00,0.00,0.00,30.10,1013.30,10.00,M,CLR,M,M,M,M,M,M,M,M,M,M,M,M,M,M,82.57,KINS 191455Z AUTO 00000KT 10SM CLR 28/14 A3010 RMK AO2 SLP133 T02830141 52010 $,M
LSV,2024-07-19 14:55,-115.0343,36.2362,570.00,91.80,53.00,26.89,0.00,0.00,0.00,29.97,1011.80,10.00,M,CLR,M,M,M,M,M,M,M,M,M,M,M,M,M,M,89.33,KLSV 191455Z AUTO 00000KT 10SM CLR 33/12 A2997 RMK AO2 SLP118 T03320116 52017 $,M
EKO,2024-07-19 14:56,-115.7860,40.8242,1367.00,75.00,49.00,39.90,0.00,0.00,0.00,30.27,1018.60,10.00,M,CLR,M,M,M,M,M,M,M,M,M,M,M,M,M,M,75.00,KEKO 191456Z AUTO 00000KT 10SM CLR 24/09 A3027 RMK AO2 SLP186 T02390094 51014,M
WMC,2024-07-19 14:56,-117.8072,40.9019,1315.00,78.00,35.00,21.05,270.00,5.00,0.00,30.19,1016.40,9.00,M,CLR,M,M,M,M,M,M,M,M,M,M,M,M,M,M,78.00,KWMC 191456Z AUTO 27005KT 9SM CLR 26/02 A3019 RMK AO2 SLP164 T02560017 53013,M
HND,2024-07-19 14:56,-115.1344,35.9729,742.79,92.00,57.00,30.91,280.00,3.00,0.00,30.07,1016.30,10.00,M,CLR,M,M,M,M,M,M,M,M,M,M,M,M,M,M,90.60,KHND 191456Z 28003KT 10SM CLR 33/14 A3007 RMK AO2 SLP163 T03330139 53014,M
TPH,2024-07-19 14:56,-117.0904,38.0505,1654.00,76.00,50.00,40.05,40.00,5.00,0.00,30.30,1017.30,10.00,M,CLR,M,M,M,M,M,M,M,M,M,M,M,M,M,M,76.00,KTPH 191456Z AUTO 04005KT 10SM CLR 24/10 A3030 RMK AO2 SLP173 T02440100 52007,M
LAS,2024-07-19 14:56,-115.1634,36.0719,663.00,95.00,55.00,26.19,0.00,0.00,0.00,30.03,1009.90,10.00,M,FEW,M,M,M,14000.00,M,M,M,M,M,M,M,M,M,M,93.10,KLAS 191456Z 00000KT 10SM FEW140 35/13 A3003 RMK AO2 SLP099 T03500128 $,M
05U,2024-07-19 15:10,-116.0051,39.6042,1811.23,71.60,50.00,46.43,0.00,0.00,0.00,30.36,M,10.00,M,CLR,M,M,M,M,M,M,M,M,M,M,M,M,M,M,71.60,K05U 191510Z AUTO 00000KT 10SM CLR 22/10 A3036 RMK A01,M
BVU,2024-07-19 15:15,-114.8611,35.9475,671.00,89.60,55.40,31.45,0.00,0.00,0.00,30.01,M,10.00,M,CLR,M,M,M,M,M,M,M,M,M,M,M,M,M,M,87.78,KBVU 191515Z AUTO 00000KT 10SM CLR 32/13 A3001 RMK AO2,M
CXP,2024-07-19 15:15,-119.7326,39.1923,1431.00,73.40,42.80,33.29,0.00,0.00,0.00,30.27,M,10.00,M,SCT,M,M,M,11000.00,M,M,M,M,M,M,M,M,M,M,73.40,KCXP 191515Z AUTO 00000KT 10SM SCT110 23/06 A3027 RMK AO2,M
RTS,2024-07-19 15:15,-119.8764,39.6682,1539.00,71.60,33.80,24.86,0.00,0.00,0.00,30.29,M,10.00,M,CLR,M,M,M,M,M,M,M,M,M,M,M,M,M,M,71.60,KRTS 191515Z AUTO 00000KT 10SM CLR 22/01 A3029 RMK AO2,M
MEV,2024-07-19 15:15,-119.7500,38.9963,1441.42,69.80,48.20,46.16,190.00,3.00,0.00,30.26,M,9.00,M,CLR,M,M,M,M,M,M,M,M,M,M,M,M,M,M,69.80,KMEV 191515Z AUTO 19003KT 9SM CLR 21/09 A3026 RMK AO2,M
HTH,2024-07-19 15:15,-118.6315,38.5448,1282.89,82.40,46.40,28.36,0.00,0.00,0.00,30.21,M,10.00,M,CLR,M,M,M,M,M,M,M,M,M,M,M,M,M,M,80.64,KHTH 191515Z AUTO 00000KT 10SM CLR 28/08 A3021 RMK A01,M
10U,2024-07-19 15:15,-116.1876,41.9532,1637.00,71.60,46.40,40.57,130.00,8.00,0.00,30.28,M,10.00,M,CLR,M,M,M,M,M,M,M,M,M,M,M,M,M,M,71.60,K10U 191515Z AUTO 13008KT 10SM CLR 22/08 A3028 RMK AO2,M
BAM,2024-07-19 15:15,-116.8743,40.5990,1382.36,75.20,50.00,41.14,60.00,6.00,0.00,30.23,M,10.00,M,CLR,M,M,M,M,M,M,M,M,M,M,M,M,M,M,75.20,KBAM 191515Z AUTO 06006KT 10SM CLR 24/10 A3023 RMK AO1,M
TMT,2024-07-19 15:15,-117.1971,39.4643,1749.34,67.30,53.00,60.10,0.00,0.00,0.00,30.34,M,10.00,M,CLR,M,M,M,M,M,M,M,M,M,M,M,M,M,M,67.30,KTMT 191515Z AUTO 00000KT 10SM CLR 20/12 A3034 RMK AO2 T01960116,M
CXP,2024-07-19 15:35,-119.7326,39.1923,1431.00,77.00,41.00,27.53,200.00,4.00,0.00,30.27,M,10.00,M,FEW,M,M,M,11000.00,M,M,M,M,M,M,M,M,M,M,77.00,KCXP 191535Z AUTO 20004KT 10SM FEW110 25/05 A3027 RMK AO2,M
RTS,2024-07-19 15:35,-119.8764,39.6682,1539.00,73.40,35.60,25.13,0.00,0.00,0.00,30.29,M,10.00,M,CLR,M,M,M,M,M,M,M,M,M,M,M,M,M,M,73.40,KRTS 191535Z AUTO 00000KT 10SM CLR 23/02 A3029 RMK AO2,M
05U,2024-07-19 15:35,-116.0051,39.6042,1811.23,75.20,50.00,41.14,0.00,0.00,0.00,30.36,M,10.00,M,CLR,M,M,M,M,M,M,M,M,M,M,M,M,M,M,75.20,K05U 191535Z AUTO 00000KT 10SM CLR 24/10 A3036 RMK A01,M
MEV,2024-07-19 15:35,-119.7500,38.9963,1441.42,71.60,44.60,37.89,230.00,3.00,0.00,30.26,M,10.00,M,CLR,M,M,M,M,M,M,M,M,M,M,M,M,M,M,71.60,KMEV 191535Z AUTO 23003KT 10SM CLR 22/07 A3026 RMK AO2,M
HTH,2024-07-19 15:35,-118.6315,38.5448,1282.89,82.40,46.40,28.36,320.00,3.00,0.00,30.20,M,10.00,M,CLR,M,M,M,M,M,M,M,M,M,M,M,M,M,M,80.64,KHTH 191535Z AUTO 32003KT 10SM CLR 28/08 A3020 RMK A01,M
10U,2024-07-19 15:35,-116.1876,41.9532,1637.00,71.60,48.20,43.42,80.00,7.00,0.00,30.28,M,10.00,13.00,CLR,M,M,M,M,M,M,M,M,M,M,M,M,M,M,71.60,K10U 191535Z AUTO 08007G13KT 10SM CLR 22/09 A3028 RMK AO2,M
BAM,2024-07-19 15:35,-116.8743,40.5990,1382.36,77.00,50.00,38.74,50.00,8.00,0.00,30.23,M,10.00,M,CLR,M,M,M,M,M,M,M,M,M,M,M,M,M,M,77.00,KBAM 191535Z AUTO 05008KT 10SM CLR 25/10 A3023 RMK AO1,M
TMT,2024-07-19 15:35,-117.1971,39.4643,1749.34,70.70,51.80,51.18,0.00,0.00,0.00,30.34,M,10.00,M,CLR,M,M,M,M,M,M,M,M,M,M,M,M,M,M,70.70,KTMT 191535Z AUTO 00000KT 10SM CLR 22/11 A3034 RMK AO2 T02150110,M
10U,2024-07-19 15:50,-116.1876,41.9532,1637.00,77.00,46.40,33.85,100.00,8.00,0.00,30.28,M,10.00,M,CLR,M,M,M,M,M,M,M,M,M,M,M,M,M,M,77.00,K10U 191550Z AUTO 10008KT 10SM CLR 25/08 A3028 RMK AO2,M
P68,2024-07-19 15:53,-116.0056,39.6014,1993.00,76.00,50.00,40.05,M,3.00,0.00,30.33,1017.80,M,M,M,M,M,M,M,M,M,M,M,M,M,M,M,M,M,76.00,KP68 191553Z AUTO VRB03KT 24/10 A3033 RMK AO1 SLP178 T02440100,M
DRA,2024-07-19 15:53,-116.0278,36.6206,1009.00,94.00,49.00,21.65,M,3.00,0.00,30.10,1013.00,10.00,M,CLR,M,M,M,M,M,M,M,M,M,M,M,M,M,M,90.71,KDRA 191553Z AUTO VRB03KT 10SM CLR 34/09 A3010 RMK AO2 SLP130 T03440094,M
ELY,2024-07-19 15:53,-114.8453,39.2950,1909.00,72.00,52.00,49.33,150.00,6.00,0.00,30.37,1018.60,10.00,M,CLR,M,M,M,M,M,M,M,M,M,M,M,M,M,M,72.00,KELY 191553Z AUTO 15006KT 10SM CLR 22/11 A3037 RMK AO2 SLP186 T02220111,M
VGT,2024-07-19 15:53,-115.1933,36.2111,667.00,96.00,54.00,24.49,130.00,5.00,0.00,30.02,1014.80,10.00,M,CLR,M,M,M,M,M,M,M,M,M,M,M,M,M,M,93.86,KVGT 191553Z 13005KT 10SM CLR 36/12 A3002 RMK AO2 SLP148 T03560122,M
LOL,2024-07-19 15:53,-118.5701,40.0684,1192.43,84.00,42.00,22.77,130.00,11.00,0.00,30.17,1016.70,10.00,M,CLR,M,M,M,M,M,M,M,M,M,M,M,M,M,M,81.42,KLOL 191553Z AUTO 13011KT 10SM CLR 29/06 A3017 RMK AO2 SLP167 T02890056,M
NFL,2024-07-19 15:54,-118.7010,39.4166,1199.00,84.00,39.00,20.27,280.00,6.00,0.00,30.18,1018.30,10.00,M,FEW,FEW,M,M,10000.00,16000.00,M,M,M,M,M,M,M,M,M,81.29,KNFL 191554Z 28006KT 10SM FEW100 FEW160 29/04 A3018 RMK AO2 SLP183 T02890039,M
BVU,2024-07-19 15:55,-114.8611,35.9475,671.00,95.00,55.40,26.58,0.00,0.00,0.00,30.01,M,10.00,M,FEW,M,M,M,12000.00,M,M,M,M,M,M,M,M,M,M,93.22,KBVU 191555Z AUTO 00000KT 10SM FEW120 35/13 A3001 RMK AO2,M
CXP,2024-07-19 15:55,-119.7326,39.1923,1431.00,77.00,41.00,27.53,M,3.00,0.00,30.27,M,10.00,M,CLR,M,M,M,M,M,M,M,M,M,M,M,M,M,M,77.00,KCXP 191555Z AUTO VRB03KT 10SM CLR 25/05 A3027 RMK AO2,M
RNO,2024-07-19 15:55,-119.7711,39.4839,1341.00,77.00,40.00,26.49,0.00,0.00,0.00,30.24,1017.60,10.00,M,FEW,M,M,M,11000.00,M,M,M,M,M,M,M,M,M,M,77.00,KRNO 191555Z 00000KT 10SM FEW110 25/04 A3024 RMK AO2 SLP176 T02500044,M
RTS,2024-07-19 15:55,-119.8764,39.6682,1539.00,75.20,35.60,23.66,0.00,0.00,0.00,30.29,M,10.00,M,CLR,M,M,M,M,M,M,M,M,M,M,M,M,M,M,75.20,KRTS 191555Z AUTO 00000KT 10SM CLR 24/02 A3029 RMK AO2,M
05U,2024-07-19 15:55,-116.0051,39.6042,1811.23,75.20,50.00,41.14,0.00,0.00,0.00,30.35,M,10.00,M,CLR,M,M,M,M,M,M,M,M,M,M,M,M,M,M,75.20,K05U 191555Z AUTO 00000KT 10SM CLR 24/10 A3035 RMK A01,M
MEV,2024-07-19 15:55,-119.7500,38.9963,1441.42,75.20,46.40,35.94,0.00,0.00,0.00,30.26,M,3.00,M,CLR,M,M,M,M,M,M,M,UP HZ,M,M,M,M,M,M,75.20,KMEV 191555Z AUTO 00000KT 3SM UP HZ CLR 24/08 A3026 RMK AO2,M
HTH,2024-07-19 15:55,-118.6315,38.5448,1282.89,84.20,46.40,26.76,350.00,4.00,0.00,30.20,M,10.00,M,CLR,M,M,M,M,M,M,M,M,M,M,M,M,M,M,81.87,KHTH 191555Z AUTO 35004KT 10SM CLR 29/08 A3020 RMK A01,M
BAM,2024-07-19 15:55,-116.8743,40.5990,1382.36,77.00,50.00,38.74,60.00,7.00,0.00,30.23,M,10.00,M,CLR,M,M,M,M,M,M,M,M,M,M,M,M,M,M,77.00,KBAM 191555Z AUTO 06007KT 10SM CLR 25/10 A3023 RMK AO1,M
TMT,2024-07-19 15:55,-117.1971,39.4643,1749.34,75.40,50.00,40.86,0.00,0.00,0.00,30.34,M,10.00,M,CLR,M,M,M,M,M,M,M,M,M,M,M,M,M,M,75.40,KTMT 191555Z AUTO 00000KT 10SM CLR 24/10 A3034 RMK AO2 T02410099,M
INS,2024-07-19 15:55,-115.6733,36.5872,955.00,89.00,49.50,25.79,0.00,0.00,0.00,30.09,1012.90,10.00,M,CLR,M,M,M,M,M,M,M,M,M,M,M,M,M,M,86.08,KINS 191555Z AUTO 00000KT 10SM CLR 32/10 A3009 RMK AO2 SLP129 T03160097 $,M
LSV,2024-07-19 15:55,-115.0343,36.2362,570.00,95.40,50.40,21.85,60.00,3.00,0.00,29.97,1011.70,10.00,M,CLR,M,M,M,M,M,M,M,M,M,M,M,M,M,M,92.37,KLSV 191555Z AUTO 06003KT 10SM CLR 35/10 A2997 RMK AO2 SLP117 T03520102 $,M
EKO,2024-07-19 15:56,-115.7860,40.8242,1367.00,81.00,50.00,33.97,20.00,3.00,0.00,30.27,1018.20,10.00,M,CLR,M,M,M,M,M,M,M,M,M,M,M,M,M,M,80.12,KEKO 191556Z AUTO 02003KT 10SM CLR 27/10 A3027 RMK AO2 SLP182 T02720100,M
WMC,2024-07-19 15:56,-117.8072,40.9019,1315.00,85.00,33.00,15.47,290.00,3.00,0.00,30.20,1016.30,10.00,M,CLR,M,M,M,M,M,M,M,M,M,M,M,M,M,M,81.88,KWMC 191556Z AUTO 29003KT 10SM CLR 29/01 A3020 RMK AO2 SLP163 T02940006,M
HND,2024-07-19 15:56,-115.1344,35.9729,742.79,94.00,56.00,28.01,0.00,0.00,0.00,30.07,1016.40,9.00,M,CLR,M,M,M,M,M,M,M,M,M,M,M,M,M,M,92.36,KHND 191556Z 00000KT 9SM CLR 34/13 A3007 RMK AO2 SLP164 T03440133,M
TPH,2024-07-19 15:56,-117.0904,38.0505,1654.00,80.00,49.00,33.81,0.00,0.00,0.00,30.29,1017.20,10.00,M,CLR,M,M,M,M,M,M,M,M,M,M,M,M,M,M,79.46,KTPH 191556Z AUTO 00000KT 10SM CLR 27/09 A3029 RMK AO2 SLP172 T02670094,M
LAS,2024-07-19 15:56,-115.1634,36.0719,663.00,98.00,53.00,22.21,50.00,5.00,0.00,30.03,1009.90,10.00,M,FEW,FEW,M,M,12000.00,20000.00,M,M,M,M,M,M,M,M,M,95.69,KLAS 191556Z 05005KT 10SM FEW120 FEW200 37/12 A3003 RMK AO2 SLP099 T03670117 $,M
05U,2024-07-19 16:10,-116.0051,39.6042,1811.23,77.00,50.00,38.74,0.00,0.00,0.00,30.35,M,10.00,M,CLR,M,M,M,M,M,M,M,M,M,M,M,M,M,M,77.00,K05U 191610Z AUTO 00000KT 10SM CLR 25/10 A3035 RMK A01,M
BVU,2024-07-19 16:15,-114.8611,35.9475,671.00,95.00,53.60,24.89,0.00,0.00,0.00,30.01,M,10.00,M,CLR,M,M,M,M,M,M,M,M,M,M,M,M,M,M,92.71,KBVU 191615Z AUTO 00000KT 10SM CLR 35/12 A3001 RMK AO2,M
CXP,2024-07-19 16:15,-119.7326,39.1923,1431.00,78.80,41.00,25.95,M,3.00,0.00,30.26,M,8.00,M,CLR,M,M,M,M,M,M,M,M,M,M,M,M,M,M,78.80,KCXP 191615Z AUTO VRB03KT 8SM CLR 26/05 A3026 RMK AO2,M
RTS,2024-07-19 16:15,-119.8764,39.6682,1539.00,77.00,35.60,22.28,0.00,0.00,0.00,30.29,M,10.00,M,CLR,M,M,M,M,M,M,M,M,M,M,M,M,M,M,77.00,KRTS 191615Z AUTO 00000KT 10SM CLR 25/02 A3029 RMK AO2,M
MEV,2024-07-19 16:15,-119.7500,38.9963,1441.42,77.00,46.40,33.85,230.00,4.00,0.00,30.25,M,9.00,M,CLR,M,M,M,M,M,M,M,M,M,M,M,M,M,M,77.00,KMEV 191615Z AUTO 23004KT 9SM CLR 25/08 A3025 RMK AO2,M
HTH,2024-07-19 16:15,-118.6315,38.5448,1282.89,84.20,46.40,26.76,350.00,3.00,0.00,30.20,M,10.00,M,CLR,M,M,M,M,M,M,M,M,M,M,M,M,M,M,81.87,KHTH 191615Z AUTO 35003KT 10SM CLR 29/08 A3020 RMK A01,M
BAM,2024-07-19 16:15,-116.8743,40.5990,1382.36,80.60,50.00,34.41,70.00,7.00,0.00,30.23,M,10.00,M,CLR,M,M,M,M,M,M,M,M,M,M,M,M,M,M,79.88,KBAM 191615Z AUTO 07007KT 10SM CLR 27/10 A3023 RMK AO1,M
TMT,2024-07-19 16:15,-117.1971,39.4643,1749.34,77.00,47.00,34.63,0.00,0.00,0.00,30.33,M,10.00,M,CLR,M,M,M,M,M,M,M,M,M,M,M,M,M,M,77.00,KTMT 191615Z AUTO 00000KT 10SM CLR 25/08 A3033 RMK AO2 T02510084,M
10U,2024-07-19 16:15,-116.1876,41.9532,1637.00,80.60,46.40,30.07,110.00,8.00,0.00,30.28,M,10.00,M,CLR,M,M,M,M,M,M,M,M,M,M,M,M,M,M,79.56,K10U 191615Z AUTO 11008KT 10SM CLR 27/08 A3028 RMK AO2,M
05U,2024-07-19 16:25,-116.0051,39.6042,1811.23,77.00,48.20,36.22,0.00,0.00,0.00,30.35,M,10.00,M,CLR,M,M,M,M,M,M,M,M,M,M,M,M,M,M,77.00,K05U 191625Z AUTO 00000KT 10SM CLR 25/09 A3035 RMK A01,M
BVU,2024-07-19 16:35,-114.8611,35.9475,671.00,96.80,53.60,23.55,0.00,0.00,0.00,30.01,M,10.00,M,CLR,M,M,M,M,M,M,M,M,M,M,M,M,M,M,94.59,KBVU 191635Z AUTO 00000KT 10SM CLR 36/12 A3001 RMK AO2,M
CXP,2024-07-19 16:35,-119.7326,39.1923,1431.00,80.60,41.00,24.46,0.00,0.00,0.00,30.26,M,10.00,M,CLR,M,M,M,M,M,M,M,M,M,M,M,M,M,M,79.20,KCXP 191635Z AUTO 00000KT 10SM CLR 27/05 A3026 RMK AO2,M
RTS,2024-07-19 16:35,-119.8764,39.6682,1539.00,78.80,33.80,19.55,0.00,0.00,0.00,30.29,M,10.00,M,CLR,M,M,M,M,M,M,M,M,M,M,M,M,M,M,78.80,KRTS 191635Z AUTO 00000KT 10SM CLR 26/01 A3029 RMK AO2,M
MEV,2024-07-19 16:35,-119.7500,38.9963,1441.42,78.80,44.60,29.79,0.00,0.00,0.00,30.25,M,8.00,M,CLR,M,M,M,M,M,M,M,M,M,M,M,M,M,M,78.80,KMEV 191635Z AUTO 00000KT 8SM CLR 26/07 A3025 RMK AO2,M
HTH,2024-07-19 16:35,-118.6315,38.5448,1282.89,86.00,46.40,25.26,M,4.00,0.00,30.20,M,10.00,M,CLR,M,M,M,M,M,M,M,M,M,M,M,M,M,M,83.22,KHTH 191635Z AUTO VRB04KT 10SM CLR 30/08 A3020 RMK A01,M
10U,2024-07-19 16:35,-116.1876,41.9532,1637.00,82.40,42.80,24.72,130.00,4.00,0.00,30.28,M,10.00,M,CLR,M,M,M,M,M,M,M,M,M,M,M,M,M,M,80.39,K10U 191635Z AUTO 13004KT 10SM CLR 28/06 A3028 RMK AO2,M
BAM,2024-07-19 16:35,-116.8743,40.5990,1382.36,82.40,50.00,32.46,60.00,4.00,0.00,30.23,M,10.00,M,CLR,M,M,M,M,M,M,M,M,M,M,M,M,M,M,80.99,KBAM 191635Z AUTO 06004KT 10SM CLR 28/10 A3023 RMK AO1,M
TMT,2024-07-19 16:35,-117.1971,39.4643,1749.34,79.00,46.20,31.45,0.00,0.00,0.00,30.33,M,10.00,M,CLR,M,M,M,M,M,M,M,M,M,M,M,M,M,M,79.00,KTMT 191635Z AUTO 00000KT 10SM CLR 26/08 A3033 RMK AO2 T02610079,M
P68,2024-07-19 16:53,-116.0056,39.6014,1993.00,81.00,49.00,32.73,70.00,4.00,0.00,30.32,1017.60,M,M,M,M,M,M,M,M,M,M,M,M,M,M,M,M,M,80.02,KP68 191653Z AUTO 07004KT 27/09 A3032 RMK AO1 SLP176 T02720094,M
DRA,2024-07-19 16:53,-116.0278,36.6206,1009.00,96.00,49.00,20.36,0.00,0.00,0.00,30.09,1012.80,10.00,M,CLR,M,M,M,M,M,M,M,M,M,M,M,M,M,M,92.70,KDRA 191653Z AUTO 00000KT 10SM CLR 36/09 A3009 RMK AO2 SLP128 T03560094,M
ELY,2024-07-19 16:53,-114.8453,39.2950,1909.00,79.00,50.00,36.27,170.00,9.00,0.00,30.36,1017.60,10.00,M,CLR,M,M,M,M,M,M,M,M,M,M,M,M,M,M,79.00,KELY 191653Z AUTO 17009KT 10SM CLR 26/10 A3036 RMK AO2 SLP176 T02610100,M
VGT,2024-07-19 16:53,-115.1933,36.2111,667.00,98.00,54.00,23.04,110.00,5.00,0.00,30.02,1015.00,10.00,M,CLR,M,M,M,M,M,M,M,M,M,M,M,M,M,M,95.99,KVGT 191653Z 11005KT 10SM CLR 37/12 A3002 RMK AO2 SLP150 T03670122,M
LOL,2024-07-19 16:53,-118.5701,40.0684,1192.43,87.00,36.00,16.36,M,4.00,0.00,30.17,1016.80,10.00,M,CLR,M,M,M,M,M,M,M,M,M,M,M,M,M,M,83.48,KLOL 191653Z AUTO VRB04KT 10SM CLR 31/02 A3017 RMK AO2 SLP168 T03060022,M
NFL,2024-07-19 16:54,-118.7010,39.4166,1199.00,88.00,38.00,17.15,M,4.00,0.00,30.18,1018.30,10.00,M,FEW,FEW,M,M,10000.00,16000.00,M,M,M,M,M,M,M,M,M,84.35,KNFL 191654Z VRB04KT 10SM FEW100 FEW160 31/03 A3018 RMK SLP183 T03110033,M
BVU,2024-07-19 16:55,-114.8611,35.9475,671.00,96.80,55.40,25.15,0.00,0.00,0.00,30.01,M,5.00,M,CLR,M,M,M,M,M,M,M,HZ,M,M,M,M,M,M,95.14,KBVU 191655Z AUTO 00000KT 5SM HZ CLR 36/13 A3001 RMK AO2,M
CXP,2024-07-19 16:55,-119.7326,39.1923,1431.00,82.40,41.00,23.07,M,3.00,0.00,30.25,M,10.00,M,CLR,M,M,M,M,M,M,M,M,M,M,M,M,M,M,80.29,KCXP 191655Z AUTO VRB03KT 10SM CLR 28/05 A3025 RMK AO2,M
RNO,2024-07-19 16:55,-119.7711,39.4839,1341.00,82.00,38.00,20.79,0.00,0.00,0.00,30.23,1017.20,10.00,M,FEW,M,M,M,10000.00,M,M,M,M,M,M,M,M,M,M,79.90,KRNO 191655Z 00000KT 10SM FEW100 28/03 A3023 RMK AO2 SLP172 T02780033,M
RTS,2024-07-19 16:55,-119.8764,39.6682,1539.00,80.60,33.80,18.42,130.00,6.00,0.00,30.28,M,10.00,M,CLR,M,M,M,M,M,M,M,M,M,M,M,M,M,M,78.88,KRTS 191655Z AUTO 13006KT 10SM CLR 27/01 A3028 RMK AO2,M
05U,2024-07-19 16:55,-116.0051,39.6042,1811.23,80.60,48.20,32.18,0.00,0.00,0.00,30.35,M,10.00,M,CLR,M,M,M,M,M,M,M,M,M,M,M,M,M,M,79.71,K05U 191655Z AUTO 00000KT 10SM CLR 27/09 A3035 RMK A01,M
MEV,2024-07-19 16:55,-119.7500,38.9963,1441.42,80.60,42.80,26.22,0.00,0.00,0.00,30.24,M,2.50,M,CLR,M,M,M,M,M,M,M,HZ,M,M,M,M,M,M,79.30,KMEV 191655Z AUTO 00000KT 2 1/2SM HZ CLR 27/06 A3024 RMK AO2 VIS 1/2V5,M
HTH,2024-07-19 16:55,-118.6315,38.5448,1282.89,87.80,44.60,22.27,M,5.00,0.00,30.20,M,10.00,M,CLR,M,M,M,M,M,M,M,M,M,M,M,M,M,M,84.53,KHTH 191655Z AUTO VRB05KT 10SM CLR 31/07 A3020 RMK A01,M
BAM,2024-07-19 16:55,-116.8743,40.5990,1382.36,82.40,48.20,30.35,100.00,3.00,0.00,30.23,M,10.00,M,CLR,M,M,M,M,M,M,M,M,M,M,M,M,M,M,80.80,KBAM 191655Z AUTO 10003KT 10SM CLR 28/09 A3023 RMK AO1,M
10U,2024-07-19 16:55,-116.1876,41.9532,1637.00,84.20,42.80,23.33,M,5.00,0.00,30.28,M,10.00,10.00,CLR,M,M,M,M,M,M,M,M,M,M,M,M,M,M,81.61,K10U 191655Z AUTO VRB05G10KT 10SM CLR 29/06 A3028 RMK AO2,M
TMT,2024-07-19 16:55,-117.1971,39.4643,1749.34,81.70,45.30,27.83,280.00,3.00,0.00,30.33,M,10.00,M,CLR,M,M,M,M,M,M,M,M,M,M,M,M,M,M,80.12,KTMT 191655Z AUTO 28003KT 10SM CLR 28/07 A3033 RMK AO2 T02760074,M
INS,2024-07-19 16:55,-115.6733,36.5872,955.00,92.30,49.00,22.83,0.00,0.00,0.00,30.09,1012.90,10.00,M,SCT,M,M,M,16000.00,M,M,M,M,M,M,M,M,M,M,89.06,KINS 191655Z AUTO 00000KT 10SM SCT160 34/10 A3009 RMK AO2 SLP129 T03350095 $,M
LSV,2024-07-19 16:55,-115.0343,36.2362,570.00,99.30,48.20,17.87,90.00,6.00,0.00,29.97,1011.70,10.00,M,CLR,M,M,M,M,M,M,M,M,M,M,M,M,M,M,95.88,KLSV 191655Z AUTO 09006KT 10SM CLR 37/09 A2997 RMK AO2 SLP117 T03740090 $,M
EKO,2024-07-19 16:56,-115.7860,40.8242,1367.00,86.00,50.00,28.90,360.00,3.00,0.00,30.26,1017.80,10.00,M,CLR,M,M,M,M,M,M,M,M,M,M,M,M,M,M,83.62,KEKO 191656Z AUTO 36003KT 10SM CLR 30/10 A3026 RMK AO2 SLP178 T03000100,M
WMC,2024-07-19 16:56,-117.8072,40.9019,1315.00,90.00,32.00,12.68,M,4.00,0.00,30.19,1016.10,10.00,M,CLR,M,M,M,M,M,M,M,M,M,M,M,M,M,M,85.84,KWMC 191656Z AUTO VRB04KT 10SM CLR 32/00 A3019 RMK AO2 SLP161 T03220000,M
HND,2024-07-19 16:56,-115.1344,35.9729,742.79,97.00,56.00,25.55,0.00,0.00,0.00,30.07,1016.20,10.00,M,CLR,M,M,M,M,M,M,M,M,M,M,M,M,M,M,95.56,KHND 191656Z 00000KT 10SM CLR 36/13 A3007 RMK AO2 SLP162 T03610133,M
TPH,2024-07-19 16:56,-117.0904,38.0505,1654.00,84.00,48.00,28.60,0.00,0.00,0.00,30.29,1017.00,10.00,M,CLR,M,M,M,M,M,M,M,M,M,M,M,M,M,M,81.87,KTPH 191656Z AUTO 00000KT 10SM CLR 29/09 A3029 RMK AO2 SLP170 T02890089,M
LAS,2024-07-19 16:56,-115.1634,36.0719,663.00,99.00,54.00,22.35,M,6.00,0.00,30.03,1010.00,10.00,M,FEW,SCT,M,M,12000.00,20000.00,M,M,M,M,M,M,M,M,M,97.06,KLAS 191656Z VRB06KT 10SM FEW120 SCT200 37/12 A3003 RMK AO2 SLP100 T03720122 $,M
BVU,2024-07-19 17:15,-114.8611,35.9475,671.00,98.60,53.60,22.29,60.00,4.00,0.00,30.01,M,9.00,M,CLR,M,M,M,M,M,M,M,M,M,M,M,M,M,M,96.51,KBVU 191715Z AUTO 06004KT 9SM CLR 37/12 A3001 RMK AO2,M
CXP,2024-07-19 17:15,-119.7326,39.1923,1431.00,86.00,37.40,17.85,0.00,0.00,0.00,30.25,M,10.00,M,CLR,M,M,M,M,M,M,M,M,M,M,M,M,M,M,82.73,KCXP 191715Z AUTO 00000KT 10SM CLR 30/03 A3025 RMK AO2,M
RTS,2024-07-19 17:15,-119.8764,39.6682,1539.00,82.40,32.00,16.17,0.00,0.00,0.00,30.28,M,10.00,M,CLR,M,M,M,M,M,M,M,M,M,M,M,M,M,M,80.00,KRTS 191715Z AUTO 00000KT 10SM CLR 28/M00 A3028 RMK AO2,M
05U,2024-07-19 17:15,-116.0051,39.6042,1811.23,82.40,46.40,28.36,0.00,0.00,0.00,30.35,M,10.00,M,CLR,M,M,M,M,M,M,M,M,M,M,M,M,M,M,80.64,K05U 191715Z AUTO 00000KT 10SM CLR 28/08 A3035 RMK A01,M
MEV,2024-07-19 17:15,-119.7500,38.9963,1441.42,82.40,42.80,24.72,0.00,0.00,0.00,30.24,M,1.25,M,CLR,M,M,M,M,M,M,M,UP HZ,M,M,M,M,M,M,80.39,KMEV 191715Z AUTO 00000KT 1 1/4SM UP HZ CLR 28/06 A3024 RMK AO2 VIS 1/4V5,M
BAM,2024-07-19 17:15,-116.8743,40.5990,1382.36,86.00,48.20,27.03,0.00,0.00,0.00,30.23,M,10.00,M,CLR,M,M,M,M,M,M,M,M,M,M,M,M,M,M,83.40,KBAM 191715Z AUTO 00000KT 10SM CLR 30/09 A3023 RMK AO1,M
HTH,2024-07-19 17:15,-118.6315,38.5448,1282.89,87.80,44.60,22.27,M,4.00,0.00,30.19,M,10.00,M,CLR,M,M,M,M,M,M,M,M,M,M,M,M,M,M,84.53,KHTH 191715Z AUTO VRB04KT 10SM CLR 31/07 A3019 RMK A01,M
10U,2024-07-19 17:15,-116.1876,41.9532,1637.00,86.00,42.80,22.02,M,4.00,0.00,30.28,M,10.00,M,CLR,M,M,M,M,M,M,M,M,M,M,M,M,M,M,82.95,K10U 191715Z AUTO VRB04KT 10SM CLR 30/06 A3028 RMK AO2,M
TMT,2024-07-19 17:15,-117.1971,39.4643,1749.34,82.00,45.70,27.98,0.00,0.00,0.00,30.32,M,10.00,M,CLR,M,M,M,M,M,M,M,M,M,M,M,M,M,M,80.33,KTMT 191715Z AUTO 00000KT 10SM CLR 28/08 A3032 RMK AO2 T02770076,M
05U,2024-07-19 17:30,-116.0051,39.6042,1811.23,84.20,46.40,26.76,0.00,0.00,0.00,30.34,M,10.00,M,CLR,M,M,M,M,M,M,M,M,M,M,M,M,M,M,81.87,K05U 191730Z AUTO 00000KT 10SM CLR 29/08 A3034 RMK A01,M
BVU,2024-07-19 17:35,-114.8611,35.9475,671.00,98.60,51.80,20.87,150.00,6.00,0.00,30.00,M,10.00,M,CLR,M,M,M,M,M,M,M,M,M,M,M,M,M,M,96.00,KBVU 191735Z AUTO 15006KT 10SM CLR 37/11 A3000 RMK AO2,M
CXP,2024-07-19 17:35,-119.7326,39.1923,1431.00,87.80,35.60,15.70,M,4.00,0.00,30.24,M,10.00,M,CLR,M,M,M,M,M,M,M,M,M,M,M,M,M,M,84.12,KCXP 191735Z AUTO VRB04KT 10SM CLR 31/02 A3024 RMK AO2,M
RTS,2024-07-19 17:35,-119.8764,39.6682,1539.00,82.40,30.20,15.03,M,4.00,0.00,30.28,M,10.00,M,CLR,M,M,M,M,M,M,M,M,M,M,M,M,M,M,79.97,KRTS 191735Z AUTO VRB04KT 10SM CLR 28/M01 A3028 RMK AO2,M
MEV,2024-07-19 17:35,-119.7500,38.9963,1441.42,84.20,39.20,20.29,330.00,4.00,0.00,30.24,M,8.00,M,CLR,M,M,M,M,M,M,M,M,M,M,M,M,M,M,81.44,KMEV 191735Z AUTO 33004KT 8SM CLR 29/04 A3024 RMK AO2,M
HTH,2024-07-19 17:35,-118.6315,38.5448,1282.89,89.60,44.60,21.04,M,4.00,0.00,30.19,M,10.00,M,CLR,M,M,M,M,M,M,M,M,M,M,M,M,M,M,86.07,KHTH 191735Z AUTO VRB04KT 10SM CLR 32/07 A3019 RMK A01,M
10U,2024-07-19 17:35,-116.1876,41.9532,1637.00,87.80,42.80,20.79,M,6.00,0.00,30.27,M,10.00,M,CLR,M,M,M,M,M,M,M,M,M,M,M,M,M,M,84.40,K10U 191735Z AUTO VRB06KT 10SM CLR 31/06 A3027 RMK AO2,M
BAM,2024-07-19 17:35,-116.8743,40.5990,1382.36,87.80,46.40,23.85,280.00,3.00,0.00,30.23,M,10.00,M,CLR,M,M,M,M,M,M,M,M,M,M,M,M,M,M,84.68,KBAM 191735Z AUTO 28003KT 10SM CLR 31/08 A3023 RMK AO1,M
TMT,2024-07-19 17:35,-117.1971,39.4643,1749.34,83.70,43.00,23.89,210.00,3.00,0.00,30.32,M,10.00,M,CLR,M,M,M,M,M,M,M,M,M,M,M,M,M,M,81.27,KTMT 191735Z AUTO 21003KT 10SM CLR 29/06 A3032 RMK AO2 T02870062,M
05U,2024-07-19 17:50,-116.0051,39.6042,1811.23,84.20,46.40,26.76,M,5.00,0.00,30.34,M,10.00,M,CLR,M,M,M,M,M,M,M,M,M,M,M,M,M,M,81.87,K05U 191750Z AUTO VRB05KT 10SM CLR 29/08 A3034 RMK A01,M
P68,2024-07-19 17:53,-116.0056,39.6014,1993.00,85.00,46.00,25.69,50.00,6.00,0.00,30.31,1016.70,M,M,M,M,M,M,M,M,M,M,M,M,M,M,M,M,M,82.42,KP68 191753Z AUTO 05006KT 29/08 A3031 RMK AO1 SLP167 T02940078 10300 20133 58006,M
DRA,2024-07-19 17:53,-116.0278,36.6206,1009.00,98.00,49.00,19.15,110.00,5.00,0.00,30.08,1012.40,10.00,M,CLR,M,M,M,M,M,M,M,M,M,M,M,M,M,M,94.72,KDRA 191753Z AUTO 11005KT 10SM CLR 37/09 A3008 RMK AO2 SLP124 T03670094 10378 20267 58006,M
ELY,2024-07-19 17:53,-114.8453,39.2950,1909.00,83.00,47.00,28.45,M,5.00,0.00,30.35,1016.90,10.00,M,CLR,M,M,M,M,M,M,M,M,M,M,M,M,M,M,81.09,KELY 191753Z AUTO VRB05KT 10SM CLR 28/08 A3035 RMK AO2 SLP169 T02830083 10283 20111 58006,M
VGT,2024-07-19 17:53,-115.1933,36.2111,667.00,100.00,54.00,21.68,0.00,0.00,0.00,30.01,1014.50,10.00,M,CLR,M,M,M,M,M,M,M,M,M,M,M,M,M,M,98.14,KVGT 191753Z 00000KT 10SM CLR 38/12 A3001 RMK AO2 LTG DSNT N SLP145 T03780122 10383 20306 58004,M
LOL,2024-07-19 17:53,-118.5701,40.0684,1192.43,90.00,35.00,14.30,M,3.00,0.00,30.17,1016.80,10.00,M,CLR,M,M,M,M,M,M,M,M,M,M,M,M,M,M,85.95,KLOL 191753Z AUTO VRB03KT 10SM CLR 32/02 A3017 RMK AO2 SLP168 T03220017 10328 20156 50002,M
NFL,2024-07-19 17:54,-118.7010,39.4166,1199.00,91.00,39.00,16.23,M,3.00,0.00,30.17,1018.10,10.00,M,FEW,FEW,M,M,10000.00,16000.00,M,M,M,M,M,M,M,M,M,86.94,KNFL 191754Z VRB03KT 10SM FEW100 FEW160 33/04 A3017 RMK AO2 SLP181 T03280039 10328 20239 58002,M
BVU,2024-07-19 17:55,-114.8611,35.9475,671.00,100.40,51.80,19.76,170.00,5.00,0.00,30.00,M,10.00,M,CLR,M,M,M,M,M,M,M,M,M,M,M,M,M,M,97.90,KBVU 191755Z AUTO 17005KT 10SM CLR 38/11 A3000 RMK AO2,M
CXP,2024-07-19 17:55,-119.7326,39.1923,1431.00,87.80,35.60,15.70,M,4.00,0.00,30.24,M,9.00,M,CLR,M,M,M,M,M,M,M,M,M,M,M,M,M,M,84.12,KCXP 191755Z AUTO VRB04KT 9SM CLR 31/02 A3024 RMK AO2,M
RNO,2024-07-19 17:55,-119.7711,39.4839,1341.00,86.00,37.00,17.57,0.00,0.00,0.00,30.22,1016.60,10.00,M,FEW,M,M,M,10000.00,M,M,M,M,M,M,M,M,M,M,82.72,KRNO 191755Z 00000KT 10SM FEW100 30/03 A3022 RMK AO2 SLP166 T03000028 10306 20206 58007,M
RTS,2024-07-19 17:55,-119.8764,39.6682,1539.00,84.20,30.20,14.18,M,4.00,0.00,30.27,M,10.00,M,CLR,M,M,M,M,M,M,M,M,M,M,M,M,M,M,81.26,KRTS 191755Z AUTO VRB04KT 10SM CLR 29/M01 A3027 RMK AO2,M
MEV,2024-07-19 17:55,-119.7500,38.9963,1441.42,84.20,39.20,20.29,M,4.00,0.00,30.23,M,4.00,M,CLR,M,M,M,M,M,M,M,UP HZ,M,M,M,M,M,M,81.44,KMEV 191755Z AUTO VRB04KT 4SM UP HZ CLR 29/04 A3023 RMK AO2,M
BAM,2024-07-19 17:55,-116.8743,40.5990,1382.36,87.80,46.40,23.85,280.00,3.00,0.00,30.23,M,10.00,M,CLR,M,M,M,M,M,M,M,M,M,M,M,M,M,M,84.68,KBAM 191755Z AUTO 28003KT 10SM CLR 31/08 A3023 RMK AO1,M
HTH,2024-07-19 17:55,-118.6315,38.5448,1282.89,89.60,46.40,22.53,350.00,9.00,0.00,30.19,M,10.00,14.00,CLR,M,M,M,M,M,M,M,M,M,M,M,M,M,M,86.24,KHTH 191755Z AUTO 35009G14KT 290V010 10SM CLR 32/08 A3019 RMK A01,M
10U,2024-07-19 17:55,-116.1876,41.9532,1637.00,87.80,41.00,19.40,60.00,4.00,0.00,30.27,M,10.00,M,CLR,M,M,M,M,M,M,M,M,M,M,M,M,M,M,84.30,K10U 191755Z AUTO 06004KT 10SM CLR 31/05 A3027 RMK AO2,M
TMT,2024-07-19 17:55,-117.1971,39.4643,1749.34,85.00,42.30,22.30,0.00,0.00,0.00,30.32,M,10.00,M,CLR,M,M,M,M,M,M,M,M,M,M,M,M,M,M,82.17,KTMT 191755Z AUTO 00000KT 10SM CLR 30/06 A3032 RMK AO2 T02950057 10295 20117,M
INS,2024-07-19 17:55,-115.6733,36.5872,955.00,97.70,47.00,17.93,130.00,4.00,0.00,30.07,1012.10,10.00,M,CLR,M,M,M,M,M,M,M,M,M,M,M,M,M,M,94.04,KINS 191755Z AUTO 13004KT 10SM CLR 37/08 A3007 RMK AO2 LTG DSNT E SLP121 T03650083 10365 20232 58009 $,M
LSV,2024-07-19 17:55,-115.0343,36.2362,570.00,101.70,48.60,16.87,130.00,5.00,0.00,29.95,1011.00,10.00,M,CLR,M,M,M,M,M,M,M,M,M,M,M,M,M,M,98.41,KLSV 191755Z AUTO 13005KT 10SM CLR 39/09 A2995 RMK AO2 SLP110 T03870092 10389 20302 57007 $,M
EKO,2024-07-19 17:56,-115.7860,40.8242,1367.00,87.00,47.00,25.02,0.00,0.00,0.00,30.26,1017.80,10.00,M,CLR,M,M,M,M,M,M,M,M,M,M,M,M,M,M,84.08,KEKO 191756Z AUTO 00000KT 10SM CLR 31/08 A3026 RMK AO2 SLP178 T03060083 10306 20161 58005,M
WMC,2024-07-19 17:56,-117.8072,40.9019,1315.00,93.00,31.00,11.09,0.00,0.00,0.00,30.19,1016.20,10.00,M,CLR,M,M,M,M,M,M,M,M,M,M,M,M,M,M,88.03,KWMC 191756Z AUTO 00000KT 10SM CLR 34/M01 A3019 RMK AO2 SLP162 T03391006 10344 20128 58002,M
HND,2024-07-19 17:56,-115.1344,35.9729,742.79,100.00,56.00,23.32,0.00,0.00,0.00,30.06,1015.70,10.00,M,CLR,M,M,M,M,M,M,M,M,M,M,M,M,M,M,98.84,KHND 191756Z 00000KT 10SM CLR 38/13 A3006 RMK AO2 SLP157 T03780133 10378 20278 58004,M
TPH,2024-07-19 17:56,-117.0904,38.0505,1654.00,86.00,47.00,25.83,M,5.00,0.00,30.29,1016.80,10.00,M,CLR,M,M,M,M,M,M,M,M,M,M,M,M,M,M,83.28,KTPH 191756Z AUTO VRB05KT 10SM CLR 30/08 A3029 RMK AO2 SLP168 T03000083 10300 20183 58003,M
LAS,2024-07-19 17:56,-115.1634,36.0719,663.00,100.00,55.00,22.49,0.00,0.00,0.00,30.02,1009.70,10.00,M,FEW,SCT,M,M,12000.00,20000.00,M,M,M,M,M,M,M,M,M,98.48,KLAS 191756Z 00000KT 10SM FEW120 SCT200 38/13 A3002 RMK AO2 SLP097 CB DSNT NW-N T03780128 10389 20300 58003 $,M
BVU,2024-07-19 18:15,-114.8611,35.9475,671.00,100.40,51.80,19.76,0.00,0.00,0.00,29.99,M,10.00,M,CLR,M,M,M,M,M,M,M,M,M,M,M,M,M,M,97.90,KBVU 191815Z AUTO 00000KT 10SM CLR 38/11 A2999 RMK AO2 LTG DSNT N,M
CXP,2024-07-19 18:15,-119.7326,39.1923,1431.00,89.60,37.40,15.92,230.00,4.00,0.00,30.23,M,10.00,M,CLR,M,M,M,M,M,M,M,M,M,M,M,M,M,M,85.67,KCXP 191815Z AUTO 23004KT 10SM CLR 32/03 A3023 RMK AO2,M
RTS,2024-07-19 18:15,-119.8764,39.6682,1539.00,84.20,30.20,14.18,140.00,7.00,0.00,30.27,M,10.00,M,CLR,M,M,M,M,M,M,M,M,M,M,M,M,M,M,81.26,KRTS 191815Z AUTO 14007KT 10SM CLR 29/M01 A3027 RMK AO2,M
05U,2024-07-19 18:15,-116.0051,39.6042,1811.23,86.00,44.60,23.59,M,6.00,0.00,30.33,M,10.00,M,CLR,M,M,M,M,M,M,M,M,M,M,M,M,M,M,83.07,K05U 191815Z AUTO VRB06KT 10SM CLR 30/07 A3033 RMK A01,M
MEV,2024-07-19 18:15,-119.7500,38.9963,1441.42,86.00,39.20,19.15,M,5.00,0.00,30.22,M,5.00,M,CLR,M,M,M,M,M,M,M,HZ,M,M,M,M,M,M,82.79,KMEV 191815Z AUTO VRB05KT 5SM HZ CLR 30/04 A3022 RMK AO2,M
HTH,2024-07-19 18:15,-118.6315,38.5448,1282.89,91.40,44.60,19.89,350.00,7.00,0.00,30.18,M,10.00,M,CLR,M,M,M,M,M,M,M,M,M,M,M,M,M,M,87.68,KHTH 191815Z AUTO 35007KT 330V030 10SM CLR 33/07 A3018 RMK A01,M
10U,2024-07-19 18:15,-116.1876,41.9532,1637.00,89.60,39.20,17.09,M,4.00,0.00,30.27,M,10.00,12.00,CLR,M,M,M,M,M,M,M,M,M,M,M,M,M,M,85.73,K10U 191815Z AUTO VRB04G12KT 10SM CLR 32/04 A3027 RMK AO2,M
BAM,2024-07-19 18:15,-116.8743,40.5990,1382.36,89.60,46.40,22.53,0.00,0.00,0.00,30.23,M,10.00,M,CLR,M,M,M,M,M,M,M,M,M,M,M,M,M,M,86.24,KBAM 191815Z AUTO 00000KT 10SM CLR 32/08 A3023 RMK AO1,M
TMT,2024-07-19 18:15,-117.1971,39.4643,1749.34,85.30,42.80,22.52,0.00,0.00,0.00,30.31,M,10.00,M,CLR,M,M,M,M,M,M,M,M,M,M,M,M,M,M,82.42,KTMT 191815Z AUTO 00000KT 10SM CLR 30/06 A3031 RMK AO2 T02960060,M
05U,2024-07-19 18:30,-116.0051,39.6042,1811.23,86.00,42.80,22.02,50.00,5.00,0.00,30.33,M,10.00,M,CLR,M,M,M,M,M,M,M,M,M,M,M,M,M,M,82.95,K05U 191830Z AUTO 05005KT 10SM CLR 30/06 A3033 RMK A01,M
BVU,2024-07-19 18:35,-114.8611,35.9475,671.00,102.20,51.80,18.72,50.00,5.00,0.00,29.98,M,10.00,M,CLR,M,M,M,M,M,M,M,M,M,M,M,M,M,M,99.80,KBVU 191835Z AUTO 05005KT 10SM CLR 39/11 A2998 RMK AO2,M
CXP,2024-07-19 18:35,-119.7326,39.1923,1431.00,89.60,39.20,17.09,M,4.00,0.00,30.23,M,10.00,M,CLR,M,M,M,M,M,M,M,M,M,M,M,M,M,M,85.73,KCXP 191835Z AUTO VRB04KT 10SM CLR 32/04 A3023 RMK AO2,M
RTS,2024-07-19 18:35,-119.8764,39.6682,1539.00,86.00,32.00,14.40,M,4.00,0.00,30.27,M,10.00,M,CLR,M,M,M,M,M,M,M,M,M,M,M,M,M,M,82.64,KRTS 191835Z AUTO VRB04KT 10SM CLR 30/00 A3027 RMK AO2,M
MEV,2024-07-19 18:35,-119.7500,38.9963,1441.42,87.80,42.80,20.79,0.00,0.00,0.00,30.22,M,7.00,M,CLR,M,M,M,M,M,M,M,M,M,M,M,M,M,M,84.40,KMEV 191835Z AUTO 00000KT 7SM CLR 31/06 A3022 RMK AO2,M
BAM,2024-07-19 18:35,-116.8743,40.5990,1382.36,91.40,44.60,19.89,0.00,0.00,0.00,30.22,M,10.00,M,CLR,M,M,M,M,M,M,M,M,M,M,M,M,M,M,87.68,KBAM 191835Z AUTO 00000KT 10SM CLR 33/07 A3022 RMK AO1,M
HTH,2024-07-19 18:35,-118.6315,38.5448,1282.89,91.40,44.60,19.89,350.00,7.00,0.00,30.18,M,10.00,12.00,CLR,M,M,M,M,M,M,M,M,M,M,M,M,M,M,87.68,KHTH 191835Z AUTO 35007G12KT 10SM CLR 33/07 A3018 RMK A01,M
10U,2024-07-19 18:35,-116.1876,41.9532,1637.00,91.40,39.20,16.15,70.00,5.00,0.00,30.27,M,10.00,M,CLR,M,M,M,M,M,M,M,M,M,M,M,M,M,M,87.30,K10U 191835Z AUTO 07005KT 10SM CLR 33/04 A3027 RMK AO2,M
TMT,2024-07-19 18:35,-117.1971,39.4643,1749.34,86.70,43.30,21.95,210.00,4.00,0.00,30.31,M,10.00,M,CLR,M,M,M,M,M,M,M,M,M,M,M,M,M,M,83.54,KTMT 191835Z AUTO 21004KT 10SM CLR 30/06 A3031 RMK AO2 T03040063,M
P68,2024-07-19 18:53,-116.0056,39.6014,1993.00,89.00,45.00,21.77,M,4.00,0.00,30.29,1016.00,M,M,M,M,M,M,M,M,M,M,M,M,M,M,M,M,M,85.58,KP68 191853Z AUTO VRB04KT 32/07 A3029 RMK AO1 SLP160 T03170072,M
DRA,2024-07-19 18:53,-116.0278,36.6206,1009.00,102.00,49.00,16.97,250.00,9.00,0.00,30.07,1012.00,10.00,M,CLR,M,M,M,M,M,M,M,M,M,M,M,M,M,M,98.82,KDRA 191853Z AUTO 25009KT 10SM CLR 39/09 A3007 RMK AO2 SLP120 T03890094,M
ELY,2024-07-19 18:53,-114.8453,39.2950,1909.00,85.00,45.00,24.73,240.00,8.00,0.00,30.33,1016.00,10.00,15.00,BKN,M,M,M,9000.00,M,M,M,M,M,M,M,M,M,M,82.34,KELY 191853Z AUTO 24008G15KT 10SM BKN090 29/07 A3033 RMK AO2 LTG DSNT E SLP160 T02940072,M
VGT,2024-07-19 18:53,-115.1933,36.2111,667.00,103.00,54.00,19.81,120.00,5.00,0.00,29.99,1013.90,10.00,M,CLR,M,M,M,M,M,M,M,M,M,M,M,M,M,M,101.38,KVGT 191853Z 12005KT 10SM CLR 39/12 A2999 RMK AO2 SLP139 T03940122,M
LOL,2024-07-19 18:53,-118.5701,40.0684,1192.43,91.00,34.00,13.32,150.00,5.00,0.00,30.16,1016.50,10.00,M,CLR,M,M,M,M,M,M,M,M,M,M,M,M,M,M,86.79,KLOL 191853Z AUTO 15005KT 10SM CLR 33/01 A3016 RMK AO2 SLP165 T03280011,M
NFL,2024-07-19 18:54,-118.7010,39.4166,1199.00,94.00,39.00,14.78,M,4.00,0.00,30.16,1017.70,10.00,M,FEW,FEW,M,M,9000.00,15000.00,M,M,M,M,M,M,M,M,M,89.64,KNFL 191854Z VRB04KT 10SM FEW090 FEW150 34/04 A3016 RMK AO2 SLP177 TCU DSNT SW T03440039,M
BVU,2024-07-19 18:55,-114.8611,35.9475,671.00,102.20,51.80,18.72,330.00,4.00,0.00,29.98,M,10.00,M,CLR,M,M,M,M,M,M,M,M,M,M,M,M,M,M,99.80,KBVU 191855Z AUTO 33004KT 10SM CLR 39/11 A2998 RMK AO2 LTG DSNT SW,M
CXP,2024-07-19 18:55,-119.7326,39.1923,1431.00,91.40,41.00,17.32,0.00,0.00,0.00,30.22,M,7.00,M,CLR,M,M,M,M,M,M,M,M,M,M,M,M,M,M,87.40,KCXP 191855Z AUTO 00000KT 7SM CLR 33/05 A3022 RMK AO2,M
RNO,2024-07-19 18:55,-119.7711,39.4839,1341.00,91.00,36.00,14.42,100.00,5.00,0.00,30.20,1015.80,10.00,M,FEW,M,M,M,7000.00,M,M,M,M,M,M,M,M,M,M,86.83,KRNO 191855Z 10005KT 10SM FEW070 33/02 A3020 RMK AO2 SLP158 T03280022,M
RTS,2024-07-19 18:55,-119.8764,39.6682,1539.00,87.80,33.80,14.61,150.00,7.00,0.00,30.26,M,10.00,M,CLR,M,M,M,M,M,M,M,M,M,M,M,M,M,M,84.10,KRTS 191855Z AUTO 15007KT 10SM CLR 31/01 A3026 RMK AO2,M
05U,2024-07-19 18:55,-116.0051,39.6042,1811.23,86.00,42.80,22.02,0.00,0.00,0.00,30.32,M,10.00,10.00,CLR,M,M,M,M,M,M,M,M,M,M,M,M,M,M,82.95,K05U 191855Z AUTO 00000G10KT 10SM CLR 30/06 A3032 RMK A01,M
MEV,2024-07-19 18:55,-119.7500,38.9963,1441.42,87.80,42.80,20.79,0.00,0.00,0.00,30.22,M,8.00,M,CLR,M,M,M,M,M,M,M,M,M,M,M,M,M,M,84.40,KMEV 191855Z AUTO 00000KT 8SM CLR 31/06 A3022 RMK AO2,M
BAM,2024-07-19 18:55,-116.8743,40.5990,1382.36,93.20,48.20,21.54,360.00,5.00,0.00,30.21,M,10.00,M,CLR,M,M,M,M,M,M,M,M,M,M,M,M,M,M,89.80,KBAM 191855Z AUTO 36005KT 10SM CLR 34/09 A3021 RMK AO1,M
HTH,2024-07-19 18:55,-118.6315,38.5448,1282.89,93.20,42.80,17.55,320.00,9.00,0.00,30.17,M,10.00,M,CLR,M,M,M,M,M,M,M,M,M,M,M,M,M,M,89.17,KHTH 191855Z AUTO 32009KT 10SM CLR 34/06 A3017 RMK A01,M
10U,2024-07-19 18:55,-116.1876,41.9532,1637.00,91.40,35.60,14.02,M,7.00,0.00,30.26,M,10.00,M,CLR,M,M,M,M,M,M,M,M,M,M,M,M,M,M,87.17,K10U 191855Z AUTO VRB07KT 10SM CLR 33/02 A3026 RMK AO2,M
TMT,2024-07-19 18:55,-117.1971,39.4643,1749.34,88.00,43.30,21.06,310.00,4.00,0.00,30.30,M,10.00,M,CLR,M,M,M,M,M,M,M,M,M,M,M,M,M,M,84.60,KTMT 191855Z AUTO 31004KT 10SM CLR 31/06 A3030 RMK AO2 T03120063,M
INS,2024-07-19 18:55,-115.6733,36.5872,955.00,99.00,46.60,16.98,80.00,5.00,0.00,30.06,1011.70,10.00,M,SCT,M,M,M,13000.00,M,M,M,M,M,M,M,M,M,M,95.27,KINS 191855Z AUTO 08005KT 10SM SCT130 37/08 A3006 RMK AO2 SLP117 T03730081 $,M
LSV,2024-07-19 18:55,-115.0343,36.2362,570.00,103.30,48.40,15.96,0.00,0.00,0.00,29.94,1010.60,10.00,M,CLR,M,M,M,M,M,M,M,M,M,M,M,M,M,M,99.99,KLSV 191855Z AUTO 00000KT 10SM CLR 40/09 A2994 RMK AO2 SLP106 T03960091 $,M
EKO,2024-07-19 18:56,-115.7860,40.8242,1367.00,91.00,44.00,19.68,M,4.00,0.00,30.24,1017.10,10.00,M,CLR,M,M,M,M,M,M,M,M,M,M,M,M,M,M,87.26,KEKO 191856Z AUTO VRB04KT 10SM CLR 33/07 A3024 RMK AO2 SLP171 T03280067,M
WMC,2024-07-19 18:56,-117.8072,40.9019,1315.00,97.00,31.00,9.80,300.00,7.00,0.00,30.18,1015.60,10.00,M,CLR,M,M,M,M,M,M,M,M,M,M,M,M,M,M,91.22,KWMC 191856Z AUTO 30007KT 270V330 10SM CLR 36/M01 A3018 RMK AO2 SLP156 T03611006,M
HND,2024-07-19 18:56,-115.1344,35.9729,742.79,102.00,56.00,21.96,M,5.00,0.00,30.04,1015.10,10.00,M,CLR,M,M,M,M,M,M,M,M,M,M,M,M,M,M,101.05,KHND 191856Z VRB05KT 10SM CLR 39/13 A3004 RMK AO2 LTG DSNT S SLP151 T03890133,M
TPH,2024-07-19 18:56,-117.0904,38.0505,1654.00,90.00,46.00,21.91,M,M,0.00,30.27,1015.90,10.00,M,CLR,M,M,M,M,M,M,M,M,M,M,M,M,M,M,86.55,KTPH 191856Z AUTO 10SM CLR 32/08 A3027 RMK AO2 SLP159 T03220078,M
LAS,2024-07-19 18:56,-115.1634,36.0719,663.00,104.00,53.00,18.54,40.00,6.00,0.00,30.00,1009.20,10.00,M,FEW,SCT,M,M,12000.00,20000.00,M,M,M,M,M,M,M,M,M,102.10,KLAS 191856Z 04006KT 10SM FEW120 SCT200 40/12 A3000 RMK AO2 LTG DSNT S SLP092 CB DSNT S AND NW-N T04000117 $,M
05U,2024-07-19 19:10,-116.0051,39.6042,1811.23,87.80,42.80,20.79,0.00,0.00,0.00,30.32,M,10.00,M,CLR,M,M,M,M,M,M,M,M,M,M,M,M,M,M,84.40,K05U 191910Z AUTO 00000KT 10SM CLR 31/06 A3032 RMK A01,M
BVU,2024-07-19 19:15,-114.8611,35.9475,671.00,102.20,51.80,18.72,30.00,6.00,0.00,29.97,M,10.00,M,CLR,M,M,M,M,M,M,M,M,M,M,M,M,M,M,99.80,KBVU 191915Z AUTO 03006KT 10SM CLR 39/11 A2997 RMK AO2 LTG DSNT S AND SW,M
CXP,2024-07-19 19:15,-119.7326,39.1923,1431.00,93.20,41.00,16.37,M,4.00,0.00,30.22,M,7.00,M,CLR,M,M,M,M,M,M,M,M,M,M,M,M,M,M,89.03,KCXP 191915Z AUTO VRB04KT 7SM CLR 34/05 A3022 RMK AO2,M
MEV,2024-07-19 19:15,-119.7500,38.9963,1441.42,89.60,42.80,19.64,0.00,0.00,0.00,30.21,M,9.00,M,CLR,M,M,M,M,M,M,M,M,M,M,M,M,M,M,85.93,KMEV 191915Z AUTO 00000KT 9SM CLR 32/06 A3021 RMK AO2,M
HTH,2024-07-19 19:15,-118.6315,38.5448,1282.89,91.40,42.80,18.56,290.00,7.00,0.00,30.16,M,10.00,M,CLR,M,M,M,M,M,M,M,M,M,M,M,M,M,M,87.52,KHTH 191915Z AUTO 29007KT 10SM CLR 33/06 A3016 RMK A01,M
10U,2024-07-19 19:15,-116.1876,41.9532,1637.00,91.40,35.60,14.02,M,5.00,0.00,30.26,M,10.00,M,CLR,M,M,M,M,M,M,M,M,M,M,M,M,M,M,87.17,K10U 191915Z AUTO VRB05KT 10SM CLR 33/02 A3026 RMK AO2,M
BAM,2024-07-19 19:15,-116.8743,40.5990,1382.36,95.00,46.40,19.04,0.00,0.00,0.00,30.21,M,10.00,M,CLR,M,M,M,M,M,M,M,M,M,M,M,M,M,M,91.29,KBAM 191915Z AUTO 00000KT 10SM CLR 35/08 A3021 RMK AO1,M
TMT,2024-07-19 19:15,-117.1971,39.4643,1749.34,87.00,42.80,21.33,270.00,4.00,0.00,30.29,M,10.00,M,CLR,M,M,M,M,M,M,M,M,M,M,M,M,M,M,83.75,KTMT 191915Z AUTO 27004KT 10SM CLR 31/06 A3029 RMK AO2 T03060060,M
LAS,2024-07-19 19:16,-115.1634,36.0719,663.00,104.00,53.00,18.54,M,3.00,0.00,30.00,M,10.00,M,FEW,SCT,M,M,12000.00,20000.00,M,M,M,M,M,M,M,M,M,102.10,KLAS 191916Z VRB03KT 10SM FEW120 SCT200 40/12 A3000 RMK AO2 LTG DSNT S CB DSNT S AND NW-N T04000117 $,M
BVU,2024-07-19 19:35,-114.8611,35.9475,671.00,102.20,51.80,18.72,10.00,3.00,0.00,29.96,M,10.00,M,CLR,M,M,M,M,M,M,M,M,M,M,M,M,M,M,99.80,KBVU 191935Z AUTO 01003KT 10SM CLR 39/11 A2996 RMK AO2 LTG DSNT SW,M
CXP,2024-07-19 19:35,-119.7326,39.1923,1431.00,91.40,39.20,16.15,M,4.00,0.00,30.21,M,10.00,M,CLR,M,M,M,M,M,M,M,M,M,M,M,M,M,M,87.30,KCXP 191935Z AUTO VRB04KT 10SM CLR 33/04 A3021 RMK AO2,M
RTS,2024-07-19 19:35,-119.8764,39.6682,1539.00,89.60,37.40,15.92,M,4.00,0.00,30.25,M,10.00,10.00,CLR,M,M,M,M,M,M,M,M,M,M,M,M,M,M,85.67,KRTS 191935Z AUTO VRB04G10KT 10SM CLR 32/03 A3025 RMK AO2,M
05U,2024-07-19 19:35,-116.0051,39.6042,1811.23,87.80,42.80,20.79,M,4.00,0.00,30.30,M,10.00,M,CLR,M,M,M,M,M,M,M,M,M,M,M,M,M,M,84.40,K05U 191935Z AUTO VRB04KT 10SM CLR 31/06 A3030 RMK A01,M
MEV,2024-07-19 19:35,-119.7500,38.9963,1441.42,91.40,42.80,18.56,M,4.00,0.00,30.20,M,10.00,M,CLR,M,M,M,M,M,M,M,M,M,M,M,M,M,M,87.52,KMEV 191935Z AUTO VRB04KT 10SM CLR 33/06 A3020 RMK AO2,M
HTH,2024-07-19 19:35,-118.6315,38.5448,1282.89,95.00,42.80,16.60,M,5.00,0.00,30.15,M,10.00,10.00,CLR,M,M,M,M,M,M,M,M,M,M,M,M,M,M,90.86,KHTH 191935Z AUTO VRB05G10KT 10SM CLR 35/06 A3015 RMK A01,M
10U,2024-07-19 19:35,-116.1876,41.9532,1637.00,91.40,35.60,14.02,350.00,6.00,0.00,30.26,M,10.00,21.00,CLR,M,M,M,M,M,M,M,M,M,M,M,M,M,M,87.17,K10U 191935Z AUTO 35006G21KT 10SM CLR 33/02 A3026 RMK AO2,M
BAM,2024-07-19 19:35,-116.8743,40.5990,1382.36,95.00,44.60,17.78,20.00,4.00,0.00,30.20,M,10.00,M,CLR,M,M,M,M,M,M,M,M,M,M,M,M,M,M,91.06,KBAM 191935Z AUTO 02004KT 10SM CLR 35/07 A3020 RMK AO1,M
TMT,2024-07-19 19:35,-117.1971,39.4643,1749.34,88.70,42.60,20.05,0.00,0.00,0.00,30.28,M,10.00,M,CLR,M,M,M,M,M,M,M,M,M,M,M,M,M,M,85.14,KTMT 191935Z AUTO 00000KT 10SM CLR 32/06 A3028 RMK AO2 T03150059,M
05U,2024-07-19 19:50,-116.0051,39.6042,1811.23,89.60,42.80,19.64,0.00,0.00,0.00,30.29,M,10.00,M,CLR,M,M,M,M,M,M,M,M,M,M,M,M,M,M,85.93,K05U 191950Z AUTO 00000KT 10SM CLR 32/06 A3029 RMK A01,M
P68,2024-07-19 19:53,-116.0056,39.6014,1993.00,89.00,45.00,21.77,60.00,6.00,0.00,30.26,1015.20,M,M,M,M,M,M,M,M,M,M,M,M,M,M,M,M,M,85.58,KP68 191953Z AUTO 06006KT 32/07 A3026 RMK AO1 SLP152 T03170072,M
DRA,2024-07-19 19:53,-116.0278,36.6206,1009.00,105.00,48.00,14.95,250.00,14.00,0.00,30.04,1010.90,10.00,21.00,FEW,M,M,M,12000.00,M,M,M,M,M,M,M,M,M,M,101.60,KDRA 191953Z AUTO 25014G21KT 10SM FEW120 41/09 A3004 RMK AO2 SLP109 T04060089,M
ELY,2024-07-19 19:53,-114.8453,39.2950,1909.00,84.00,45.00,25.54,140.00,8.00,0.00,30.31,1015.00,10.00,14.00,BKN,M,M,M,9500.00,M,M,M,M,M,M,M,M,M,M,81.61,KELY 191953Z AUTO 14008G14KT 10SM BKN095 29/07 A3031 RMK AO2 SLP150 T02890072,M
VGT,2024-07-19 19:53,-115.1933,36.2111,667.00,106.00,54.00,18.13,M,M,0.00,29.96,1012.60,10.00,M,CLR,M,M,M,M,M,M,M,M,M,M,M,M,M,M,104.60,KVGT 191953Z 10SM CLR 41/12 A2996 RMK AO2 SLP126 T04110122,M
LOL,2024-07-19 19:53,-118.5701,40.0684,1192.43,95.00,37.00,13.25,160.00,3.00,0.00,30.14,1015.30,10.00,M,CLR,M,M,M,M,M,M,M,M,M,M,M,M,M,M,90.44,KLOL 191953Z AUTO 16003KT 10SM CLR 35/03 A3014 RMK AO2 SLP153 T03500028,M
NFL,2024-07-19 19:54,-118.7010,39.4166,1199.00,96.00,39.00,13.90,M,4.00,0.00,30.13,1017.00,10.00,M,FEW,FEW,M,M,9000.00,15000.00,M,M,M,M,M,M,M,M,M,91.48,KNFL 191954Z VRB04KT 10SM FEW090 FEW150 36/04 A3013 RMK AO2 SLP170 TCU DSNT SE-SW T03560039,M
BVU,2024-07-19 19:55,-114.8611,35.9475,671.00,104.00,51.80,17.74,240.00,5.00,0.00,29.95,M,10.00,M,CLR,M,M,M,M,M,M,M,M,M,M,M,M,M,M,101.69,KBVU 191955Z AUTO 24005KT 10SM CLR 40/11 A2995 RMK AO2,M
CXP,2024-07-19 19:55,-119.7326,39.1923,1431.00,93.20,39.20,15.27,0.00,0.00,0.00,30.21,M,10.00,M,CLR,M,M,M,M,M,M,M,M,M,M,M,M,M,M,88.92,KCXP 191955Z AUTO 00000KT 10SM CLR 34/04 A3021 RMK AO2,M
RNO,2024-07-19 19:55,-119.7711,39.4839,1341.00,95.00,38.00,13.78,M,3.00,0.00,30.18,1014.70,10.00,M,FEW,M,M,M,8000.00,M,M,M,M,M,M,M,M,M,M,90.49,KRNO 191955Z VRB03KT 10SM FEW080 35/03 A3018 RMK AO2 SLP147 T03500033,M
RTS,2024-07-19 19:55,-119.8764,39.6682,1539.00,89.60,37.40,15.92,140.00,7.00,0.00,30.24,M,10.00,13.00,CLR,M,M,M,M,M,M,M,M,M,M,M,M,M,M,85.67,KRTS 191955Z AUTO 14007G13KT 10SM CLR 32/03 A3024 RMK AO2,M
MEV,2024-07-19 19:55,-119.7500,38.9963,1441.42,93.20,42.80,17.55,0.00,0.00,0.00,30.19,M,10.00,M,CLR,M,M,M,M,M,M,M,M,M,M,M,M,M,M,89.17,KMEV 191955Z AUTO 00000KT 10SM CLR 34/06 A3019 RMK AO2,M
BAM,2024-07-19 19:55,-116.8743,40.5990,1382.36,95.00,44.60,17.78,350.00,7.00,0.00,30.19,M,10.00,M,CLR,M,M,M,M,M,M,M,M,M,M,M,M,M,M,91.06,KBAM 191955Z AUTO 35007KT 310V020 10SM CLR 35/07 A3019 RMK AO1,M
HTH,2024-07-19 19:55,-118.6315,38.5448,1282.89,95.00,42.80,16.60,300.00,9.00,0.00,30.15,M,10.00,14.00,CLR,M,M,M,M,M,M,M,M,M,M,M,M,M,M,90.86,KHTH 191955Z AUTO 30009G14KT 10SM CLR 35/06 A3015 RMK A01,M
10U,2024-07-19 19:55,-116.1876,41.9532,1637.00,93.20,39.20,15.27,20.00,7.00,0.00,30.25,M,10.00,M,FEW,M,M,M,12000.00,M,M,M,M,M,M,M,M,M,M,88.92,K10U 191955Z AUTO 02007KT 340V040 10SM FEW120 34/04 A3025 RMK AO2,M
TMT,2024-07-19 19:55,-117.1971,39.4643,1749.34,88.50,42.00,19.72,350.00,3.00,0.00,30.28,M,10.00,M,CLR,M,M,M,M,M,M,M,M,M,M,M,M,M,M,84.94,KTMT 191955Z AUTO 35003KT 10SM CLR 31/06 A3028 RMK AO2 T03140056,M
INS,2024-07-19 19:55,-115.6733,36.5872,955.00,101.00,46.60,15.98,0.00,0.00,0.00,30.03,1010.70,10.00,M,CLR,M,M,M,M,M,M,M,M,M,M,M,M,M,M,97.27,KINS 191955Z AUTO 00000KT 10SM CLR 38/08 A3003 RMK AO2 SLP107 T03840081 $,M
LSV,2024-07-19 19:55,-115.0343,36.2362,570.00,105.00,48.00,14.95,190.00,3.00,0.00,29.91,1009.50,10.00,M,FEW,M,M,M,19000.00,M,M,M,M,M,M,M,M,M,M,101.60,KLSV 191955Z COR 19003KT 10SM FEW190 41/09 A2991 RMK AO2A LTG DSNT W SLP095 T04050088 $ COR 2001,M
EKO,2024-07-19 19:56,-115.7860,40.8242,1367.00,93.00,41.00,16.48,110.00,5.00,0.00,30.21,1016.20,10.00,M,CLR,M,M,M,M,M,M,M,M,M,M,M,M,M,M,88.85,KEKO 191956Z AUTO 11005KT 10SM CLR 34/05 A3021 RMK AO2 LTG DSNT SE SLP162 T03390050,M
WMC,2024-07-19 19:56,-117.8072,40.9019,1315.00,99.00,32.00,9.60,M,4.00,0.00,30.16,1014.90,10.00,M,CLR,M,M,M,M,M,M,M,M,M,M,M,M,M,M,93.03,KWMC 191956Z AUTO VRB04KT 10SM CLR 37/00 A3016 RMK AO2 SLP149 T03720000,M
HND,2024-07-19 19:56,-115.1344,35.9729,742.79,105.00,57.00,20.82,M,4.00,0.00,30.01,1013.90,10.00,M,CLR,M,M,M,M,M,M,M,M,M,M,M,M,M,M,104.82,KHND 191956Z VRB04KT 10SM CLR 41/14 A3001 RMK AO2 LTG DSNT S SLP139 T04060139,M
TPH,2024-07-19 19:56,-117.0904,38.0505,1654.00,93.00,43.00,17.80,220.00,6.00,0.00,30.24,1014.40,10.00,M,CLR,M,M,M,M,M,M,M,M,M,M,M,M,M,M,89.00,KTPH 191956Z AUTO 22006KT 10SM CLR 34/06 A3024 RMK AO2 SLP144 T03390061,M
LAS,2024-07-19 19:56,-115.1634,36.0719,663.00,108.00,53.00,16.48,0.00,0.00,0.00,29.96,1007.70,10.00,M,FEW,SCT,M,M,12000.00,20000.00,M,M,M,M,M,M,M,M,M,106.30,KLAS 191956Z 00000KT 10SM FEW120 SCT200 42/12 A2996 RMK AO2 PRESFR SLP077 CB DSNT S AND NW-N T04220117 $,M
05U,2024-07-19 20:10,-116.0051,39.6042,1811.23,89.60,42.80,19.64,0.00,0.00,0.00,30.29,M,10.00,18.00,CLR,M,M,M,M,M,M,M,M,M,M,M,M,M,M,85.93,K05U 192010Z AUTO 00000G18KT 10SM CLR 32/06 A3029 RMK A01,M
BVU,2024-07-19 20:15,-114.8611,35.9475,671.00,102.20,51.80,18.72,220.00,21.00,0.00,29.95,M,10.00,M,CLR,M,M,M,M,M,M,M,M,M,M,M,M,M,M,99.80,KBVU 192015Z AUTO 22021KT 10SM CLR 39/11 A2995 RMK AO2,M
CXP,2024-07-19 20:15,-119.7326,39.1923,1431.00,95.00,37.40,13.46,0.00,0.00,0.00,30.20,M,10.00,M,CLR,M,M,M,M,M,M,M,M,M,M,M,M,M,M,90.46,KCXP 192015Z AUTO 00000KT 10SM CLR 35/03 A3020 RMK AO2,M
RTS,2024-07-19 20:15,-119.8764,39.6682,1539.00,89.60,37.40,15.92,M,5.00,0.00,30.24,M,10.00,M,CLR,M,M,M,M,M,M,M,M,M,M,M,M,M,M,85.67,KRTS 192015Z AUTO VRB05KT 10SM CLR 32/03 A3024 RMK AO2,M
MEV,2024-07-19 20:15,-119.7500,38.9963,1441.42,93.20,41.00,16.37,M,3.00,0.00,30.19,M,10.00,M,CLR,M,M,M,M,M,M,M,M,M,M,M,M,M,M,89.03,KMEV 192015Z AUTO VRB03KT 10SM CLR 34/05 A3019 RMK AO2,M
BAM,2024-07-19 20:15,-116.8743,40.5990,1382.36,95.00,44.60,17.78,360.00,7.00,0.00,30.19,M,10.00,M,CLR,M,M,M,M,M,M,M,M,M,M,M,M,M,M,91.06,KBAM 192015Z AUTO 36007KT 10SM CLR 35/07 A3019 RMK AO1,M
HTH,2024-07-19 20:15,-118.6315,38.5448,1282.89,95.00,42.80,16.60,M,4.00,0.00,30.14,M,10.00,15.00,CLR,M,M,M,M,M,M,M,M,M,M,M,M,M,M,90.86,KHTH 192015Z AUTO VRB04G15KT 10SM CLR 35/06 A3014 RMK A01,M
10U,2024-07-19 20:15,-116.1876,41.9532,1637.00,93.20,37.40,14.23,40.00,10.00,0.00,30.24,M,10.00,M,SCT,M,M,M,12000.00,M,M,M,M,M,M,M,M,M,M,88.83,K10U 192015Z AUTO 04010KT 10SM SCT120 34/03 A3024 RMK AO2,M
TMT,2024-07-19 20:15,-117.1971,39.4643,1749.34,90.70,42.30,18.61,0.00,0.00,0.00,30.27,M,10.00,M,CLR,M,M,M,M,M,M,M,M,M,M,M,M,M,M,86.86,KTMT 192015Z AUTO 00000KT 10SM CLR 33/06 A3027 RMK AO2 T03260057,M
10U,2024-07-19 20:30,-116.1876,41.9532,1637.00,91.40,35.60,14.02,30.00,8.00,0.00,30.24,M,10.00,M,FEW,M,M,M,12000.00,M,M,M,M,M,M,M,M,M,M,87.17,K10U 192030Z AUTO 03008KT 10SM FEW120 33/02 A3024 RMK AO2,M
BVU,2024-07-19 20:35,-114.8611,35.9475,671.00,100.40,50.00,18.48,230.00,16.00,0.00,29.95,M,10.00,21.00,CLR,M,M,M,M,M,M,M,M,M,M,M,M,M,M,97.42,KBVU 192035Z AUTO 23016G21KT 10SM CLR 38/10 A2995 RMK AO2,M
CXP,2024-07-19 20:35,-119.7326,39.1923,1431.00,95.00,39.20,14.44,0.00,0.00,0.00,30.19,M,10.00,10.00,CLR,M,M,M,M,M,M,M,M,M,M,M,M,M,M,90.57,KCXP 192035Z AUTO 00000G10KT 10SM CLR 35/04 A3019 RMK AO2,M
HND,2024-07-19 20:35,-115.1344,35.9729,742.79,105.80,55.40,19.19,140.00,14.00,0.00,30.00,M,10.00,20.00,FEW,M,M,M,10000.00,M,M,M,M,M,M,M,M,M,M,104.97,KHND 192035Z 14014G20KT 10SM FEW100 41/13 A3000 RMK AO2 WSHFT 2015 LTG DSNT S,M
BAM,2024-07-19 20:35,-116.8743,40.5990,1382.36,95.00,42.80,16.60,360.00,7.00,0.00,30.18,M,10.00,M,CLR,M,M,M,M,M,M,M,M,M,M,M,M,M,M,90.86,KBAM 192035Z AUTO 36007KT 10SM CLR 35/06 A3018 RMK AO1,M
TMT,2024-07-19 20:35,-117.1971,39.4643,1749.34,88.00,45.50,22.90,200.00,19.00,0.00,30.29,M,10.00,31.00,CLR,M,M,M,M,M,M,M,M,M,M,M,M,M,M,84.77,KTMT 192035Z AUTO 20019G31KT 10SM CLR 31/08 A3029 RMK AO2 T03110075,M
05U,2024-07-19 20:50,-116.0051,39.6042,1811.23,87.80,41.00,19.40,0.00,0.00,0.00,30.28,M,10.00,M,CLR,M,M,M,M,M,M,M,M,M,M,M,M,M,M,84.30,K05U 192050Z AUTO 00000KT 10SM CLR 31/05 A3028 RMK A01,M
DRA,2024-07-19 20:53,-116.0278,36.6206,1009.00,105.00,46.00,13.86,200.00,13.00,0.00,30.02,1010.40,10.00,22.00,FEW,M,M,M,11000.00,M,M,M,M,M,M,M,M,M,M,101.10,KDRA 192053Z AUTO 20013G22KT 10SM FEW110 41/08 A3002 RMK AO2 SLP104 T04060078 58018,M
ELY,2024-07-19 20:53,-114.8453,39.2950,1909.00,81.00,52.00,36.58,0.00,0.00,0.06,30.30,1015.70,10.00,M,CLR,M,M,M,M,M,M,M,VCTS,M,M,M,M,M,M,80.34,KELY 192053Z AUTO 00000KT 10SM VCTS CLR 27/11 A3030 RMK AO2 RAB05E34 SLP157 P0006 60006 T02720111 56013,M
VGT,2024-07-19 20:53,-115.1933,36.2111,667.00,107.00,53.00,16.97,M,M,0.00,29.94,1012.10,10.00,M,CLR,M,M,M,M,M,M,M,M,M,M,M,M,M,M,105.26,KVGT 192053Z 10SM CLR 42/12 A2994 RMK AO2 SLP121 T04170117 56022,M
LOL,2024-07-19 20:53,-118.5701,40.0684,1192.43,98.00,37.00,12.08,M,4.00,0.00,30.12,1014.60,10.00,M,CLR,M,M,M,M,M,M,M,M,M,M,M,M,M,M,92.97,KLOL 192053Z AUTO VRB04KT 10SM CLR 37/03 A3012 RMK AO2 SLP146 T03670028 58016,M
NFL,2024-07-19 20:54,-118.7010,39.4166,1199.00,97.00,42.00,15.14,M,3.00,0.00,30.11,1016.40,10.00,M,FEW,FEW,M,M,9000.00,15000.00,M,M,M,M,M,M,M,M,M,92.68,KNFL 192054Z VRB03KT 10SM FEW090 FEW150 36/06 A3011 RMK AO2 SLP164 TCU DSNT SE-SW T03610056 58017,M
BVU,2024-07-19 20:55,-114.8611,35.9475,671.00,102.20,48.20,16.37,230.00,12.00,0.00,29.95,M,10.00,20.00,CLR,M,M,M,M,M,M,M,M,M,M,M,M,M,M,98.83,KBVU 192055Z AUTO 23012G20KT 10SM CLR 39/09 A2995 RMK AO2,M
CXP,2024-07-19 20:55,-119.7326,39.1923,1431.00,95.00,39.20,14.44,320.00,3.00,0.00,30.19,M,10.00,M,CLR,M,M,M,M,M,M,M,M,M,M,M,M,M,M,90.57,KCXP 192055Z AUTO 32003KT 10SM CLR 35/04 A3019 RMK AO2,M
RNO,2024-07-19 20:55,-119.7711,39.4839,1341.00,98.00,38.00,12.57,M,3.00,0.00,30.16,1014.10,10.00,M,FEW,M,M,M,7000.00,M,M,M,M,M,M,M,M,M,M,93.15,KRNO 192055Z VRB03KT 10SM FEW070 37/03 A3016 RMK AO2 SLP141 T03670033 58019,M
RTS,2024-07-19 20:55,-119.8764,39.6682,1539.00,91.40,37.40,15.05,M,6.00,0.00,30.23,M,9.00,11.00,CLR,M,M,M,M,M,M,M,M,M,M,M,M,M,M,87.23,KRTS 192055Z AUTO VRB06G11KT 9SM CLR 33/03 A3023 RMK AO2,M
MEV,2024-07-19 20:55,-119.7500,38.9963,1441.42,93.20,42.80,17.55,190.00,6.00,0.00,30.18,M,10.00,M,CLR,M,M,M,M,M,M,M,M,M,M,M,M,M,M,89.17,KMEV 192055Z AUTO 19006KT 10SM CLR 34/06 A3018 RMK AO2,M
BAM,2024-07-19 20:55,-116.8743,40.5990,1382.36,96.80,42.80,15.71,10.00,5.00,0.00,30.17,M,10.00,M,CLR,M,M,M,M,M,M,M,M,M,M,M,M,M,M,92.57,KBAM 192055Z AUTO 01005KT 10SM CLR 36/06 A3017 RMK AO1,M
HTH,2024-07-19 20:55,-118.6315,38.5448,1282.89,98.60,35.60,11.23,220.00,10.00,0.00,30.12,M,10.00,17.00,CLR,M,M,M,M,M,M,M,M,M,M,M,M,M,M,93.23,KHTH 192055Z AUTO 22010G17KT 10SM CLR 37/02 A3012 RMK A01,M
10U,2024-07-19 20:55,-116.1876,41.9532,1637.00,89.60,35.60,14.83,360.00,5.00,0.00,30.24,M,10.00,M,FEW,M,M,M,12000.00,M,M,M,M,M,M,M,M,M,M,85.62,K10U 192055Z AUTO 36005KT 10SM FEW120 32/02 A3024 RMK AO2,M
TMT,2024-07-19 20:55,-117.1971,39.4643,1749.34,80.00,47.70,32.20,170.00,21.00,0.00,30.30,M,10.00,31.00,CLR,M,M,M,M,M,M,M,M,M,M,M,M,M,M,79.34,KTMT 192055Z AUTO 17021G31KT 10SM CLR 27/09 A3030 RMK AO2 T02670087,M
INS,2024-07-19 20:55,-115.6733,36.5872,955.00,101.70,45.30,14.90,70.00,8.00,0.00,30.01,1010.00,10.00,M,BKN,M,M,M,14000.00,M,M,M,M,M,M,M,M,M,M,97.71,KINS 192055Z AUTO 07008KT 10SM BKN140 39/07 A3001 RMK AO2 SLP100 T03870074 58017 $,M
LSV,2024-07-19 20:55,-115.0343,36.2362,570.00,107.00,47.70,13.93,200.00,8.00,0.00,29.89,1008.90,10.00,M,CLR,M,M,M,M,M,M,M,M,M,M,M,M,M,M,103.49,KLSV 192055Z AUTO 20008KT 10SM CLR 42/09 A2989 RMK AO2 SLP089 T04170087 57021 $,M
EKO,2024-07-19 20:56,-115.7860,40.8242,1367.00,94.00,41.00,15.97,M,3.00,0.00,30.20,1015.60,10.00,M,CLR,M,M,M,M,M,M,M,M,M,M,M,M,M,M,89.77,KEKO 192056Z AUTO VRB03KT 10SM CLR 34/05 A3020 RMK AO2 LTG DSNT SE SLP156 T03440050 56018,M
WMC,2024-07-19 20:56,-117.8072,40.9019,1315.00,101.00,35.00,10.20,M,4.00,0.00,30.14,1014.20,10.00,M,CLR,M,M,M,M,M,M,M,M,M,M,M,M,M,M,95.17,KWMC 192056Z AUTO VRB04KT 10SM CLR 38/02 A3014 RMK AO2 SLP142 T03830017 58014,M
HND,2024-07-19 20:56,-115.1344,35.9729,742.79,107.00,55.00,18.25,170.00,15.00,0.00,29.99,1013.20,10.00,20.00,CLR,M,M,M,M,M,M,M,M,M,M,M,M,M,M,106.09,KHND 192056Z 17015G20KT 10SM CLR 42/13 A2999 RMK AO2 WSHFT 2015 SLP132 T04170128 58022,M
TPH,2024-07-19 20:56,-117.0904,38.0505,1654.00,93.00,44.00,18.49,270.00,7.00,0.00,30.22,1013.90,10.00,M,FEW,M,M,M,10000.00,M,M,M,M,M,M,M,M,M,M,89.10,KTPH 192056Z AUTO 27007KT 240V310 10SM FEW100 34/07 A3022 RMK AO2 SLP139 T03390067 57018,M
LAS,2024-07-19 20:56,-115.1634,36.0719,663.00,108.00,54.00,17.09,160.00,11.00,0.00,29.94,1006.90,10.00,17.00,FEW,BKN,M,M,12000.00,20000.00,M,M,M,M,M,M,M,M,M,106.72,KLAS 192056Z 16011G17KT 10SM FEW120 BKN200 42/12 A2994 RMK AO2 SLP069 CB DSNT E AND S AND NW T04220122 58025 $,M
BVU,2024-07-19 21:15,-114.8611,35.9475,671.00,102.20,46.40,15.30,250.00,10.00,0.00,29.94,M,10.00,15.00,CLR,M,M,M,M,M,M,M,M,M,M,M,M,M,M,98.43,KBVU 192115Z AUTO 25010G15KT 10SM CLR 39/08 A2994 RMK AO2,M
CXP,2024-07-19 21:15,-119.7326,39.1923,1431.00,95.00,39.20,14.44,M,6.00,0.00,30.18,M,10.00,12.00,CLR,M,M,M,M,M,M,M,M,M,M,M,M,M,M,90.57,KCXP 192115Z AUTO VRB06G12KT 10SM CLR 35/04 A3018 RMK AO2,M
RTS,2024-07-19 21:15,-119.8764,39.6682,1539.00,93.20,35.60,13.25,M,6.00,0.00,30.22,M,10.00,M,CLR,M,M,M,M,M,M,M,M,M,M,M,M,M,M,88.76,KRTS 192115Z AUTO VRB06KT 10SM CLR 34/02 A3022 RMK AO2,M
05U,2024-07-19 21:15,-116.0051,39.6042,1811.23,84.20,42.80,23.33,200.00,24.00,0.00,30.29,M,10.00,30.00,BKN,M,M,M,10000.00,M,M,M,M,M,M,M,M,M,M,81.61,K05U 192115Z AUTO 20024G30KT 10SM BKN100 29/06 A3029 RMK A01,M
MEV,2024-07-19 21:15,-119.7500,38.9963,1441.42,95.00,42.80,16.60,M,6.00,0.00,30.18,M,10.00,12.00,CLR,M,M,M,M,M,M,M,M,M,M,M,M,M,M,90.86,KMEV 192115Z AUTO VRB06G12KT 10SM CLR 35/06 A3018 RMK AO2,M
HTH,2024-07-19 21:15,-118.6315,38.5448,1282.89,98.60,39.20,12.94,M,5.00,0.00,30.12,M,10.00,10.00,CLR,M,M,M,M,M,M,M,M,M,M,M,M,M,M,93.89,KHTH 192115Z AUTO VRB05G10KT 10SM CLR 37/04 A3012 RMK A01,M
BAM,2024-07-19 21:15,-116.8743,40.5990,1382.36,96.80,39.20,13.66,10.00,5.00,0.00,30.17,M,10.00,M,CLR,M,M,M,M,M,M,M,M,M,M,M,M,M,M,92.23,KBAM 192115Z AUTO 01005KT 10SM CLR 36/04 A3017 RMK AO1,M
TMT,2024-07-19 21:15,-117.1971,39.4643,1749.34,79.00,47.00,32.41,210.00,20.00,0.00,30.31,M,10.00,26.00,BKN,M,M,M,12000.00,M,M,M,M,M,M,M,M,M,M,79.00,KTMT 192115Z AUTO 21020G26KT 10SM BKN120 26/08 A3031 RMK AO2 T02620083,M
10U,2024-07-19 21:15,-116.1876,41.9532,1637.00,91.40,37.40,15.05,360.00,6.00,0.00,30.24,M,10.00,M,CLR,M,M,M,M,M,M,M,M,M,M,M,M,M,M,87.23,K10U 192115Z AUTO 36006KT 10SM CLR 33/03 A3024 RMK AO2,M
ELY,2024-07-19 21:16,-114.8453,39.2950,1909.00,83.00,49.00,30.67,0.00,0.00,0.00,30.30,M,10.00,M,CLR,M,M,M,M,M,M,M,M,M,M,M,M,M,M,81.28,KELY 192116Z AUTO 00000KT 10SM CLR 28/09 A3030 RMK AO2 T02830094,M
DRA,2024-07-19 21:19,-116.0278,36.6206,1009.00,104.00,46.00,14.28,240.00,12.00,0.00,30.02,M,10.00,22.00,CLR,M,M,M,M,M,M,M,M,M,M,M,M,M,M,100.12,KDRA 192119Z AUTO 24012G22KT 10SM CLR 40/08 A3002 RMK AO2 WSHFT 2102 T04000078,M
05U,2024-07-19 21:30,-116.0051,39.6042,1811.23,84.20,42.80,23.33,180.00,19.00,0.00,30.31,M,10.00,27.00,BKN,M,M,M,11000.00,M,M,M,M,M,M,M,M,M,M,81.61,K05U 192130Z AUTO 18019G27KT 10SM BKN110 29/06 A3031 RMK A01,M
BVU,2024-07-19 21:35,-114.8611,35.9475,671.00,102.20,44.60,14.29,220.00,5.00,0.00,29.93,M,10.00,12.00,CLR,M,M,M,M,M,M,M,M,M,M,M,M,M,M,98.07,KBVU 192135Z AUTO 22005G12KT 10SM CLR 39/07 A2993 RMK AO2 LTG DSNT E,M
CXP,2024-07-19 21:35,-119.7326,39.1923,1431.00,96.80,41.00,14.66,M,6.00,0.00,30.18,M,10.00,13.00,CLR,M,M,M,M,M,M,M,M,M,M,M,M,M,M,92.39,KCXP 192135Z AUTO VRB06G13KT 10SM CLR 36/05 A3018 RMK AO2,M
RTS,2024-07-19 21:35,-119.8764,39.6682,1539.00,93.20,35.60,13.25,120.00,9.00,0.00,30.21,M,10.00,M,CLR,M,M,M,M,M,M,M,M,M,M,M,M,M,M,88.76,KRTS 192135Z AUTO 12009KT 10SM CLR 34/02 A3021 RMK AO2,M
MEV,2024-07-19 21:35,-119.7500,38.9963,1441.42,95.00,42.80,16.60,250.00,12.00,0.00,30.17,M,10.00,M,CLR,M,M,M,M,M,M,M,M,M,M,M,M,M,M,90.86,KMEV 192135Z AUTO 25012KT 230V290 10SM CLR 35/06 A3017 RMK AO2,M
BAM,2024-07-19 21:35,-116.8743,40.5990,1382.36,98.60,41.00,13.87,360.00,6.00,0.00,30.16,M,10.00,M,CLR,M,M,M,M,M,M,M,M,M,M,M,M,M,M,94.09,KBAM 192135Z AUTO 36006KT 10SM CLR 37/05 A3016 RMK AO1,M
HTH,2024-07-19 21:35,-118.6315,38.5448,1282.89,98.60,39.20,12.94,M,4.00,0.00,30.11,M,10.00,11.00,CLR,M,M,M,M,M,M,M,M,M,M,M,M,M,M,93.89,KHTH 192135Z AUTO VRB04G11KT 10SM CLR 37/04 A3011 RMK A01,M
10U,2024-07-19 21:35,-116.1876,41.9532,1637.00,93.20,33.80,12.34,M,5.00,0.00,30.23,M,10.00,M,CLR,M,M,M,M,M,M,M,M,M,M,M,M,M,M,88.55,K10U 192135Z AUTO VRB05KT 10SM CLR 34/01 A3023 RMK AO2,M
TMT,2024-07-19 21:35,-117.1971,39.4643,1749.34,79.00,47.70,33.28,220.00,16.00,0.00,30.32,M,10.00,25.00,BKN,M,M,M,11000.00,M,M,M,M,M,M,M,M,M,M,79.00,KTMT 192135Z AUTO 22016G25KT 10SM BKN110 26/09 A3032 RMK AO2 T02610087,M
LAS,2024-07-19 21:40,-115.1634,36.0719,663.00,108.00,51.00,15.30,M,3.00,0.00,29.93,M,10.00,M,FEW,BKN,M,M,12000.00,20000.00,M,M,TS,M,M,M,M,M,M,105.54,KLAS 192140Z VRB03KT 10SM TS FEW120CB BKN200 42/11 A2993 RMK AO2 LTG DSNT W TSB40 OCNL LTGICCCCG W-NW TS W-NW MOV N CB DSNT E AND S T04220106 $,M
ELY,2024-07-19 21:41,-114.8453,39.2950,1909.00,79.00,50.00,36.27,300.00,10.00,0.00,30.31,M,10.00,M,FEW,M,M,M,10000.00,M,M,M,VCTS,M,M,M,M,M,M,79.00,KELY 192141Z AUTO 30010KT 10SM VCTS FEW100 26/10 A3031 RMK AO2 LTG DSNT W AND NW T02610100,M
VGT,2024-07-19 21:43,-115.1933,36.2111,667.00,106.00,53.00,17.47,M,6.00,0.00,29.92,M,10.00,18.00,FEW,M,M,M,12000.00,M,M,M,VCTS,M,M,M,M,M,M,104.21,KVGT 192143Z VRB06G18KT 10SM VCTS FEW120 41/12 A2992 RMK AO2 LTG DSNT SW T04110117,M
HND,2024-07-19 21:51,-115.1344,35.9729,742.79,107.60,50.00,14.92,190.00,4.00,0.00,29.97,M,10.00,M,CLR,M,M,M,M,M,M,M,VCTS,M,M,M,M,M,M,104.80,KHND 192151Z 19004KT 10SM VCTS CLR 42/10 A2997 RMK AO2 LTG DSNT NW TSB45,M
P68,2024-07-19 21:53,-116.0056,39.6014,1993.00,82.00,44.00,26.23,190.00,17.00,0.00,30.29,1016.90,M,28.00,M,M,M,M,M,M,M,M,M,M,M,M,38.00,200.00,2024-07-19 21:15,80.21,KP68 192153Z AUTO 19017G28KT 28/07 A3029 RMK AO1 PK WND 20038/2115 SLP169 T02780067,M
DRA,2024-07-19 21:53,-116.0278,36.6206,1009.00,105.00,46.00,13.86,280.00,8.00,0.00,30.01,1009.80,10.00,22.00,FEW,M,M,M,12000.00,M,M,M,M,M,M,M,26.00,260.00,2024-07-19 21:26,101.10,KDRA 192153Z AUTO 28008G22KT 10SM FEW120 41/08 A3001 RMK AO2 PK WND 26026/2126 WSHFT 2102 SLP098 T04060078,M
ELY,2024-07-19 21:53,-114.8453,39.2950,1909.00,80.00,50.00,35.10,300.00,10.00,0.00,30.31,1016.50,10.00,M,FEW,BKN,M,M,10000.00,12000.00,M,M,VCTS,M,M,M,M,M,M,79.55,KELY 192153Z AUTO 30010KT 10SM VCTS FEW100 BKN120 27/10 A3031 RMK AO2 LTG DSNT S-W SLP165 T02670100,M
VGT,2024-07-19 21:53,-115.1933,36.2111,667.00,106.00,53.00,17.47,260.00,16.00,0.00,29.92,1011.30,10.00,22.00,FEW,M,M,M,12000.00,M,M,M,VCTS,M,M,M,M,M,M,104.21,KVGT 192153Z 26016G22KT 10SM VCTS FEW120 41/12 A2992 RMK AO2 LTG DSNT SW SLP113 T04110117,M
LOL,2024-07-19 21:53,-118.5701,40.0684,1192.43,99.00,37.00,11.72,M,M,0.00,30.10,1014.00,10.00,M,CLR,M,M,M,M,M,M,M,M,M,M,M,M,M,M,93.81,KLOL 192153Z AUTO 10SM CLR 37/03 A3010 RMK AO2 SLP140 T03720028,M
NFL,2024-07-19 21:54,-118.7010,39.4166,1199.00,99.00,40.00,13.18,M,4.00,0.00,30.09,1015.80,10.00,M,FEW,FEW,M,M,9000.00,15000.00,M,M,M,M,M,M,M,M,M,94.36,KNFL 192154Z VRB04KT 10SM FEW090 FEW150 37/04 A3009 RMK AO2 SLP158 T03720044,M
BVU,2024-07-19 21:55,-114.8611,35.9475,671.00,102.20,44.60,14.29,230.00,4.00,0.00,29.93,M,10.00,M,CLR,M,M,M,M,M,M,M,M,M,M,M,M,M,M,98.07,KBVU 192155Z AUTO 23004KT 10SM CLR 39/07 A2993 RMK AO2 LTG DSNT E AND NW,M
CXP,2024-07-19 21:55,-119.7326,39.1923,1431.00,96.80,41.00,14.66,280.00,12.00,0.00,30.17,M,7.00,20.00,CLR,M,M,M,M,M,M,M,M,M,M,M,M,M,M,92.39,KCXP 192155Z AUTO 28012G20KT 7SM CLR 36/05 A3017 RMK AO2,M
RNO,2024-07-19 21:55,-119.7711,39.4839,1341.00,98.00,38.00,12.57,M,4.00,0.00,30.13,1013.50,10.00,M,SCT,M,M,M,8000.00,M,M,M,M,M,M,M,M,M,M,93.15,KRNO 192155Z VRB04KT 10SM SCT080 37/03 A3013 RMK AO2 SLP135 T03670033,M
RTS,2024-07-19 21:55,-119.8764,39.6682,1539.00,93.20,35.60,13.25,M,6.00,0.00,30.21,M,10.00,M,FEW,M,M,M,12000.00,M,M,M,M,M,M,M,M,M,M,88.76,KRTS 192155Z AUTO VRB06KT 10SM FEW120 34/02 A3021 RMK AO2,M
05U,2024-07-19 21:55,-116.0051,39.6042,1811.23,82.40,42.80,24.72,180.00,17.00,0.00,30.32,M,10.00,22.00,BKN,M,M,M,11000.00,M,M,M,M,M,M,M,M,M,M,80.39,K05U 192155Z AUTO 18017G22KT 10SM BKN110 28/06 A3032 RMK A01,M
MEV,2024-07-19 21:55,-119.7500,38.9963,1441.42,95.00,42.80,16.60,270.00,8.00,0.00,30.17,M,10.00,15.00,CLR,M,M,M,M,M,M,M,M,M,M,M,M,M,M,90.86,KMEV 192155Z AUTO 27008G15KT 10SM CLR 35/06 A3017 RMK AO2,M
HTH,2024-07-19 21:55,-118.6315,38.5448,1282.89,98.60,37.40,12.05,0.00,0.00,0.00,30.10,M,10.00,M,CLR,M,M,M,M,M,M,M,M,M,M,M,M,M,M,93.54,KHTH 192155Z AUTO 00000KT 10SM CLR 37/03 A3010 RMK A01,M
10U,2024-07-19 21:55,-116.1876,41.9532,1637.00,93.20,33.80,12.34,50.00,6.00,0.00,30.22,M,10.00,M,CLR,M,M,M,M,M,M,M,M,M,M,M,M,M,M,88.55,K10U 192155Z AUTO 05006KT 10SM CLR 34/01 A3022 RMK AO2,M
BAM,2024-07-19 21:55,-116.8743,40.5990,1382.36,96.80,37.40,12.73,330.00,6.00,0.00,30.16,M,10.00,M,CLR,M,M,M,M,M,M,M,M,M,M,M,M,M,M,92.04,KBAM 192155Z AUTO 33006KT 10SM CLR 36/03 A3016 RMK AO1,M
TMT,2024-07-19 21:55,-117.1971,39.4643,1749.34,77.00,49.60,38.17,210.00,18.00,0.00,30.33,M,10.00,25.00,BKN,M,M,M,11000.00,M,M,M,M,M,M,M,M,M,M,77.00,KTMT 192155Z AUTO 21018G25KT 10SM BKN110 25/10 A3033 RMK AO2 T02510098,M
INS,2024-07-19 21:55,-115.6733,36.5872,955.00,102.70,46.20,14.96,120.00,12.00,0.00,30.00,1009.80,10.00,16.00,CLR,M,M,M,M,M,M,M,M,M,M,M,M,M,M,98.88,KINS 192155Z AUTO 12012G16KT 10SM CLR 39/08 A3000 RMK AO2 SLP098 T03930079 $,M
LSV,2024-07-19 21:55,-115.0343,36.2362,570.00,108.00,46.60,12.98,200.00,6.00,0.00,29.86,1007.80,10.00,M,CLR,M,M,M,M,M,M,M,M,M,M,M,M,M,M,104.15,KLSV 192155Z AUTO 20006KT 10SM CLR 42/08 A2986 RMK AO2 LTG DSNT SW SLP078 T04230081 $,M
EKO,2024-07-19 21:56,-115.7860,40.8242,1367.00,97.00,41.00,14.57,200.00,6.00,0.00,30.17,1014.90,10.00,M,CLR,M,M,M,M,M,M,M,M,M,M,M,M,M,M,92.58,KEKO 192156Z AUTO 20006KT 10SM CLR 36/05 A3017 RMK AO2 SLP149 T03610050,M
WMC,2024-07-19 21:56,-117.8072,40.9019,1315.00,102.00,36.00,10.29,320.00,5.00,0.00,30.12,1013.40,10.00,M,CLR,M,M,M,M,M,M,M,M,M,M,M,M,M,M,96.20,KWMC 192156Z AUTO 32005KT 10SM CLR 39/02 A3012 RMK AO2 SLP134 T03890022,M
HND,2024-07-19 21:56,-115.1344,35.9729,742.79,106.00,50.00,15.64,140.00,5.00,0.00,29.97,1012.80,10.00,M,CLR,M,M,M,M,M,M,M,VCTS,M,M,M,M,M,M,103.18,KHND 192156Z 14005KT 10SM VCTS CLR 41/10 A2997 RMK AO2 LTG DSNT NW TSB45 SLP128 T04110100,M
TPH,2024-07-19 21:56,-117.0904,38.0505,1654.00,93.00,41.00,16.48,M,M,0.00,30.20,1013.40,10.00,M,FEW,M,M,M,11000.00,M,M,M,M,M,M,M,M,M,M,88.85,KTPH 192156Z AUTO 10SM FEW110 34/05 A3020 RMK AO2 SLP134 T03390050,M
LAS,2024-07-19 21:56,-115.1634,36.0719,663.00,108.00,53.00,16.48,260.00,15.00,0.00,29.94,1007.00,10.00,19.00,FEW,BKN,M,M,12000.00,20000.00,M,M,TS,M,M,M,31.00,260.00,2024-07-19 21:51,106.30,KLAS 192156Z 26015G19KT 10SM TS FEW120CB BKN200 42/12 A2994 RMK AO2 PK WND 26031/2151 LTG DSNT W TSB40 SLP070 OCNL LTGICCCCG W-NW TS W-NW MOV N CB DSNT ALQDS T04220117 $,M
HND,2024-07-19 22:07,-115.1344,35.9729,742.79,109.40,51.80,15.13,290.00,8.00,0.00,29.97,M,10.00,M,CLR,M,M,M,M,M,M,M,M,M,M,M,M,M,M,107.25,KHND 192207Z 29008KT 10SM CLR 43/11 A2997 RMK AO2 LTG DSNT NW TSE01,M
ELY,2024-07-19 22:11,-114.8453,39.2950,1909.00,77.00,50.00,38.74,210.00,18.00,0.00,30.31,M,10.00,28.00,BKN,M,M,M,11000.00,M,M,M,M,M,M,M,28.00,220.00,2024-07-19 22:08,77.00,KELY 192211Z AUTO 21018G28KT 10SM BKN110 25/10 A3031 RMK AO2 PK WND 22028/2208 LTG DSNT W AND NW T02500100,M
VGT,2024-07-19 22:14,-115.1933,36.2111,667.00,102.00,53.00,19.68,240.00,17.00,0.00,29.91,M,10.00,25.00,CLR,M,M,M,M,M,M,M,M,M,M,M,30.00,250.00,2024-07-19 21:58,99.96,KVGT 192214Z 24017G25KT 10SM CLR 39/12 A2991 RMK AO2 PK WND 25030/2158 T03890117,M
BVU,2024-07-19 22:15,-114.8611,35.9475,671.00,104.00,46.40,14.50,0.00,0.00,0.00,29.92,M,10.00,M,CLR,M,M,M,M,M,M,M,M,M,M,M,M,M,M,100.21,KBVU 192215Z AUTO 00000KT 10SM CLR 40/08 A2992 RMK AO2,M
CXP,2024-07-19 22:15,-119.7326,39.1923,1431.00,95.00,41.00,15.49,280.00,10.00,0.00,30.17,M,10.00,17.00,CLR,M,M,M,M,M,M,M,M,M,M,M,M,M,M,90.70,KCXP 192215Z AUTO 28010G17KT 10SM CLR 35/05 A3017 RMK AO2,M
RTS,2024-07-19 22:15,-119.8764,39.6682,1539.00,95.00,35.60,12.53,M,5.00,0.00,30.20,M,10.00,10.00,FEW,M,M,M,12000.00,M,M,M,M,M,M,M,M,M,M,90.25,KRTS 192215Z AUTO VRB05G10KT 10SM FEW120 35/02 A3020 RMK AO2,M
05U,2024-07-19 22:15,-116.0051,39.6042,1811.23,87.80,42.80,20.79,240.00,14.00,0.00,30.32,M,10.00,M,FEW,M,M,M,11000.00,M,M,M,M,M,M,M,M,M,M,84.40,K05U 192215Z AUTO 24014KT 10SM FEW110 31/06 A3032 RMK A01,M
MEV,2024-07-19 22:15,-119.7500,38.9963,1441.42,96.80,42.80,15.71,270.00,11.00,0.00,30.16,M,10.00,17.00,CLR,M,M,M,M,M,M,M,M,M,M,M,M,M,M,92.57,KMEV 192215Z AUTO 27011G17KT 230V290 10SM CLR 36/06 A3016 RMK AO2,M
HTH,2024-07-19 22:15,-118.6315,38.5448,1282.89,98.60,37.40,12.05,0.00,0.00,0.00,30.09,M,10.00,M,CLR,M,M,M,M,M,M,M,M,M,M,M,M,M,M,93.54,KHTH 192215Z AUTO 00000KT 10SM CLR 37/03 A3009 RMK A01,M
BAM,2024-07-19 22:15,-116.8743,40.5990,1382.36,96.80,39.20,13.66,0.00,0.00,0.00,30.15,M,10.00,M,CLR,M,M,M,M,M,M,M,M,M,M,M,M,M,M,92.23,KBAM 192215Z AUTO 00000KT 10SM CLR 36/04 A3015 RMK AO1,M
TMT,2024-07-19 22:15,-117.1971,39.4643,1749.34,77.00,49.00,37.33,200.00,15.00,0.00,30.34,M,10.00,23.00,OVC,M,M,M,11000.00,M,M,M,M,M,M,M,M,M,M,77.00,KTMT 192215Z AUTO 20015G23KT 10SM OVC110 25/10 A3034 RMK AO2 T02500095,M
10U,2024-07-19 22:15,-116.1876,41.9532,1637.00,93.20,33.80,12.34,30.00,6.00,0.00,30.22,M,10.00,M,CLR,M,M,M,M,M,M,M,M,M,M,M,M,M,M,88.55,K10U 192215Z AUTO 03006KT 10SM CLR 34/01 A3022 RMK AO2,M
ELY,2024-07-19 22:21,-114.8453,39.2950,1909.00,77.00,49.00,37.33,240.00,20.00,0.00,30.32,M,10.00,27.00,SCT,M,M,M,11000.00,M,M,M,M,M,M,M,28.00,220.00,2024-07-19 22:08,77.00,KELY 192221Z AUTO 24020G27KT 10SM SCT110 25/09 A3032 RMK AO2 PK WND 22028/2208 WSHFT 2201 LTG DSNT NW T02500094,M
LSV,2024-07-19 22:31,-115.0343,36.2362,570.00,105.80,46.40,13.75,270.00,15.00,0.00,29.85,1007.60,10.00,M,FEW,FEW,SCT,M,15000.00,18000.00,21000.00,M,M,M,M,M,M,M,M,101.97,KLSV 192231Z AUTO 27015KT 10SM FEW150 FEW180 SCT210 41/08 A2985 RMK AO2 WSHFT 25 SLP076 $,M
BVU,2024-07-19 22:35,-114.8611,35.9475,671.00,105.80,41.00,11.18,180.00,6.00,0.00,29.91,M,10.00,M,CLR,M,M,M,M,M,M,M,M,M,M,M,M,M,M,100.56,KBVU 192235Z AUTO 18006KT 10SM CLR 41/05 A2991 RMK AO2,M
CXP,2024-07-19 22:35,-119.7326,39.1923,1431.00,95.00,41.00,15.49,230.00,10.00,0.00,30.17,M,10.00,19.00,CLR,M,M,M,M,M,M,M,M,M,M,M,M,M,M,90.70,KCXP 192235Z AUTO 23010G19KT 200V270 10SM CLR 35/05 A3017 RMK AO2,M
RTS,2024-07-19 22:35,-119.8764,39.6682,1539.00,93.20,35.60,13.25,M,5.00,0.00,30.20,M,10.00,11.00,CLR,M,M,M,M,M,M,M,M,M,M,M,M,M,M,88.76,KRTS 192235Z AUTO VRB05G11KT 10SM CLR 34/02 A3020 RMK AO2,M
05U,2024-07-19 22:35,-116.0051,39.6042,1811.23,86.00,41.00,20.54,260.00,12.00,0.00,30.31,M,10.00,M,CLR,M,M,M,M,M,M,M,M,M,M,M,M,M,M,82.86,K05U 192235Z AUTO 26012KT 10SM CLR 30/05 A3031 RMK A01,M
MEV,2024-07-19 22:35,-119.7500,38.9963,1441.42,96.80,44.60,16.83,270.00,14.00,0.00,30.16,M,10.00,M,CLR,M,M,M,M,M,M,M,M,M,M,M,M,M,M,92.79,KMEV 192235Z AUTO 27014KT 10SM CLR 36/07 A3016 RMK AO2,M
HTH,2024-07-19 22:35,-118.6315,38.5448,1282.89,98.60,35.60,11.23,300.00,6.00,0.00,30.08,M,10.00,M,CLR,M,M,M,M,M,M,M,M,M,M,M,M,M,M,93.23,KHTH 192235Z AUTO 30006KT 10SM CLR 37/02 A3008 RMK A01,M
10U,2024-07-19 22:35,-116.1876,41.9532,1637.00,93.20,32.00,11.48,M,4.00,0.00,30.21,M,10.00,M,CLR,M,M,M,M,M,M,M,M,M,M,M,M,M,M,88.31,K10U 192235Z AUTO VRB04KT 10SM CLR 34/00 A3021 RMK AO2,M
BAM,2024-07-19 22:35,-116.8743,40.5990,1382.36,96.80,39.20,13.66,360.00,4.00,0.00,30.15,M,10.00,M,CLR,M,M,M,M,M,M,M,M,M,M,M,M,M,M,92.23,KBAM 192235Z AUTO 36004KT 10SM CLR 36/04 A3015 RMK AO1,M
TMT,2024-07-19 22:35,-117.1971,39.4643,1749.34,78.60,48.00,34.10,190.00,17.00,0.00,30.34,M,10.00,20.00,BKN,M,M,M,11000.00,M,M,M,M,M,M,M,M,M,M,78.60,KTMT 192235Z AUTO 19017G20KT 10SM BKN110 26/09 A3034 RMK AO2 T02590089,M
LAS,2024-07-19 22:36,-115.1634,36.0719,663.00,106.00,49.00,15.07,290.00,10.00,0.00,29.91,M,10.00,M,SCT,SCT,BKN,M,12000.00,15000.00,20000.00,M,M,M,M,M,M,M,M,102.88,KLAS 192236Z 29010KT 10SM SCT120 SCT150 BKN200 41/09 A2991 RMK AO2 TSE36 PRESFR TS DSIPTD CB DSNT NE-SE AND NW-N T04110094 $,M
P68,2024-07-19 22:53,-116.0056,39.6014,1993.00,87.00,44.00,22.33,260.00,13.00,0.00,30.29,1016.50,M,21.00,M,M,M,M,M,M,M,M,M,M,M,M,26.00,190.00,2024-07-19 21:56,83.82,KP68 192253Z AUTO 26013G21KT 31/07 A3029 RMK AO1 PK WND 19026/2156 SLP165 T03060067,M
DRA,2024-07-19 22:53,-116.0278,36.6206,1009.00,106.00,45.00,12.96,240.00,12.00,0.00,29.99,1009.30,10.00,19.00,CLR,M,M,M,M,M,M,M,M,M,M,M,M,M,M,101.83,KDRA 192253Z AUTO 24012G19KT 10SM CLR 41/07 A2999 RMK AO2 SLP093 T04110072,M
ELY,2024-07-19 22:53,-114.8453,39.2950,1909.00,74.00,53.00,47.84,M,3.00,T,30.34,1018.50,10.00,M,FEW,FEW,BKN,M,3000.00,3800.00,11000.00,M,-RA,M,M,M,28.00,220.00,2024-07-19 22:08,74.00,KELY 192253Z AUTO VRB03KT 10SM -RA FEW030 FEW038 BKN110 23/12 A3034 RMK AO2 PK WND 22028/2208 WSHFT 2201 RAB46 SLP185 P0000 T02330117,M
VGT,2024-07-19 22:53,-115.1933,36.2111,667.00,103.00,53.00,19.10,260.00,8.00,0.00,29.90,1010.90,10.00,M,CLR,M,M,M,M,M,M,M,M,M,M,M,30.00,250.00,2024-07-19 21:58,101.03,KVGT 192253Z 26008KT 10SM CLR 39/12 A2990 RMK AO2 PK WND 25030/2158 SLP109 T03940117,M
LOL,2024-07-19 22:53,-118.5701,40.0684,1192.43,99.00,39.00,12.68,130.00,8.00,0.00,30.07,1013.60,10.00,M,CLR,M,M,M,M,M,M,M,M,M,M,M,M,M,M,94.19,KLOL 192253Z AUTO 13008KT 10SM CLR 37/04 A3007 RMK AO2 SLP136 T03720039,M
NFL,2024-07-19 22:54,-118.7010,39.4166,1199.00,101.00,38.00,11.48,340.00,7.00,0.00,30.07,1015.10,10.00,M,FEW,FEW,M,M,9000.00,15000.00,M,M,M,M,M,M,M,M,M,95.70,KNFL 192254Z 34007KT 10SM FEW090 FEW150 38/03 A3007 RMK AO2 SLP151 CB DSNT SW T03830033,M
BVU,2024-07-19 22:55,-114.8611,35.9475,671.00,105.80,41.00,11.18,M,6.00,0.00,29.90,M,10.00,M,CLR,M,M,M,M,M,M,M,M,M,M,M,M,M,M,100.56,KBVU 192255Z AUTO VRB06KT 10SM CLR 41/05 A2990 RMK AO2,M
CXP,2024-07-19 22:55,-119.7326,39.1923,1431.00,95.00,42.80,16.60,250.00,11.00,0.00,30.17,M,10.00,M,CLR,M,M,M,M,M,M,M,M,M,M,M,M,M,M,90.86,KCXP 192255Z AUTO 25011KT 10SM CLR 35/06 A3017 RMK AO2,M
RNO,2024-07-19 22:55,-119.7711,39.4839,1341.00,100.00,40.00,12.79,M,3.00,0.00,30.12,1012.80,10.00,M,SCT,M,M,M,10000.00,M,M,M,M,M,M,M,M,M,M,95.26,KRNO 192255Z VRB03KT 10SM SCT100 38/04 A3012 RMK AO2 SLP128 T03780044,M
LSV,2024-07-19 22:55,-115.0343,36.2362,570.00,108.50,46.80,12.89,290.00,10.00,0.00,29.84,1007.10,10.00,M,FEW,FEW,FEW,M,15000.00,18000.00,21000.00,M,M,M,M,M,M,M,M,104.67,KLSV 192255Z AUTO 29010KT 10SM FEW150 FEW180 FEW210 43/08 A2984 RMK AO2 SLP071 T04250082 $,M
RTS,2024-07-19 22:55,-119.8764,39.6682,1539.00,91.40,35.60,14.02,0.00,0.00,0.00,30.19,M,10.00,M,CLR,M,M,M,M,M,M,M,M,M,M,M,M,M,M,87.17,KRTS 192255Z AUTO 00000KT 10SM CLR 33/02 A3019 RMK AO2,M
05U,2024-07-19 22:55,-116.0051,39.6042,1811.23,86.00,44.60,23.59,260.00,17.00,0.00,30.31,M,10.00,22.00,FEW,FEW,M,M,7500.00,9000.00,M,M,M,M,M,M,M,M,M,83.07,K05U 192255Z AUTO 26017G22KT 10SM FEW075 FEW090 30/07 A3031 RMK A01,M
MEV,2024-07-19 22:55,-119.7500,38.9963,1441.42,96.80,42.80,15.71,260.00,13.00,0.00,30.16,M,10.00,18.00,CLR,M,M,M,M,M,M,M,M,M,M,M,M,M,M,92.57,KMEV 192255Z AUTO 26013G18KT 10SM CLR 36/06 A3016 RMK AO2,M
HTH,2024-07-19 22:55,-118.6315,38.5448,1282.89,98.60,39.20,12.94,330.00,13.00,0.00,30.08,M,10.00,M,CLR,M,M,M,M,M,M,M,M,M,M,M,M,M,M,93.89,KHTH 192255Z AUTO 33013KT 10SM CLR 37/04 A3008 RMK A01,M
10U,2024-07-19 22:55,-116.1876,41.9532,1637.00,93.20,33.80,12.34,90.00,6.00,0.00,30.20,M,10.00,M,CLR,M,M,M,M,M,M,M,M,M,M,M,M,M,M,88.55,K10U 192255Z AUTO 09006KT 10SM CLR 34/01 A3020 RMK AO2,M
BAM,2024-07-19 22:55,-116.8743,40.5990,1382.36,96.80,41.00,14.66,290.00,5.00,0.00,30.14,M,10.00,M,CLR,M,M,M,M,M,M,M,M,M,M,M,M,M,M,92.39,KBAM 192255Z AUTO 29005KT 10SM CLR 36/05 A3014 RMK AO1,M
TMT,2024-07-19 22:55,-117.1971,39.4643,1749.34,79.00,48.00,33.66,170.00,16.00,0.00,30.33,M,10.00,M,SCT,M,M,M,11000.00,M,M,M,M,M,M,M,M,M,M,79.00,KTMT 192255Z AUTO 17016KT 10SM SCT110 26/09 A3033 RMK AO2 T02610089,M
INS,2024-07-19 22:55,-115.6733,36.5872,955.00,102.40,46.00,14.98,320.00,3.00,0.00,29.98,1009.10,10.00,M,CLR,M,M,M,M,M,M,M,M,M,M,M,M,M,M,98.54,KINS 192255Z AUTO 32003KT 10SM CLR 39/08 A2998 RMK AO2 SLP091 T03910077 $,M
EKO,2024-07-19 22:56,-115.7860,40.8242,1367.00,98.00,40.00,13.59,360.00,11.00,0.00,30.15,1014.10,10.00,16.00,FEW,M,M,M,12000.00,M,M,M,M,M,M,M,M,M,M,93.42,KEKO 192256Z AUTO 36011G16KT 10SM FEW120 37/04 A3015 RMK AO2 SLP141 T03670044,M
WMC,2024-07-19 22:56,-117.8072,40.9019,1315.00,101.00,36.00,10.61,280.00,8.00,0.00,30.10,1013.60,10.00,M,CLR,M,M,M,M,M,M,M,M,M,M,M,M,M,M,95.34,KWMC 192256Z AUTO 28008KT 10SM CLR 38/02 A3010 RMK AO2 SLP136 T03830022,M
HND,2024-07-19 22:56,-115.1344,35.9729,742.79,107.00,52.00,16.35,220.00,6.00,0.00,29.94,1011.80,10.00,M,CLR,M,M,M,M,M,M,M,M,M,M,M,M,M,M,104.89,KHND 192256Z 22006KT 10SM CLR 42/11 A2994 RMK AO2 TSE01 SLP118 T04170111,M
TPH,2024-07-19 22:56,-117.0904,38.0505,1654.00,94.00,36.00,13.13,350.00,6.00,0.00,30.19,1012.90,10.00,M,CLR,M,M,M,M,M,M,M,M,M,M,M,M,M,M,89.49,KTPH 192256Z AUTO 35006KT 10SM CLR 34/02 A3019 RMK AO2 SLP129 T03440022,M
LAS,2024-07-19 22:56,-115.1634,36.0719,663.00,108.00,50.00,14.75,330.00,12.00,0.00,29.90,1005.60,10.00,M,FEW,SCT,BKN,M,12000.00,15000.00,20000.00,M,M,M,M,M,M,M,M,105.19,KLAS 192256Z 33012KT 10SM FEW120 SCT150 BKN200 42/10 A2990 RMK AO2 TSE36 SLP056 TS DSIPTD CB DSNT NW-NE-SE T04220100 $,M
MEV,2024-07-19 23:10,-119.7500,38.9963,1441.42,95.00,42.80,16.60,270.00,12.00,0.00,30.15,M,10.00,18.00,CLR,M,M,M,M,M,M,M,M,M,M,M,M,M,M,90.86,KMEV 192310Z AUTO 27012G18KT 10SM CLR 35/06 A3015 RMK AO2,M
BVU,2024-07-19 23:15,-114.8611,35.9475,671.00,105.80,42.80,11.98,160.00,5.00,0.00,29.88,M,10.00,11.00,CLR,M,M,M,M,M,M,M,M,M,M,M,M,M,M,101.02,KBVU 192315Z AUTO 16005G11KT 10SM CLR 41/06 A2988 RMK AO2,M
CXP,2024-07-19 23:15,-119.7326,39.1923,1431.00,95.00,42.80,16.60,260.00,10.00,0.00,30.16,M,10.00,16.00,CLR,M,M,M,M,M,M,M,M,M,M,M,M,M,M,90.86,KCXP 192315Z AUTO 26010G16KT 10SM CLR 35/06 A3016 RMK AO2,M
RTS,2024-07-19 23:15,-119.8764,39.6682,1539.00,93.20,35.60,13.25,290.00,8.00,0.00,30.19,M,10.00,13.00,FEW,M,M,M,12000.00,M,M,M,M,M,M,M,M,M,M,88.76,KRTS 192315Z AUTO 29008G13KT 10SM FEW120 34/02 A3019 RMK AO2,M
05U,2024-07-19 23:15,-116.0051,39.6042,1811.23,82.40,46.40,28.36,260.00,12.00,0.00,30.31,M,10.00,24.00,FEW,FEW,M,M,7500.00,9000.00,M,M,M,M,M,M,M,M,M,80.64,K05U 192315Z AUTO 26012G24KT 10SM FEW075 FEW090 28/08 A3031 RMK A01,M
HTH,2024-07-19 23:15,-118.6315,38.5448,1282.89,100.40,35.60,10.63,330.00,12.00,0.00,30.07,M,10.00,M,CLR,M,M,M,M,M,M,M,M,M,M,M,M,M,M,94.76,KHTH 192315Z AUTO 33012KT 10SM CLR 38/02 A3007 RMK A01,M
10U,2024-07-19 23:15,-116.1876,41.9532,1637.00,93.20,32.00,11.48,20.00,5.00,0.00,30.19,M,10.00,M,CLR,M,M,M,M,M,M,M,M,M,M,M,M,M,M,88.31,K10U 192315Z AUTO 02005KT 10SM CLR 34/00 A3019 RMK AO2,M
BAM,2024-07-19 23:15,-116.8743,40.5990,1382.36,98.60,41.00,13.87,360.00,6.00,0.00,30.13,M,10.00,M,CLR,M,M,M,M,M,M,M,M,M,M,M,M,M,M,94.09,KBAM 192315Z AUTO 36006KT 10SM CLR 37/05 A3013 RMK AO1,M
TMT,2024-07-19 23:15,-117.1971,39.4643,1749.34,79.70,46.40,30.97,180.00,11.00,0.00,30.31,M,10.00,14.00,CLR,M,M,M,M,M,M,M,M,M,M,M,M,M,M,79.70,KTMT 192315Z AUTO 18011G14KT 10SM CLR 27/08 A3031 RMK AO2 T02650080,M
BVU,2024-07-19 23:35,-114.8611,35.9475,671.00,105.80,42.80,11.98,0.00,0.00,0.00,29.87,M,10.00,M,CLR,M,M,M,M,M,M,M,M,M,M,M,M,M,M,101.02,KBVU 192335Z AUTO 00000KT 10SM CLR 41/06 A2987 RMK AO2,M
CXP,2024-07-19 23:35,-119.7326,39.1923,1431.00,95.00,42.80,16.60,250.00,10.00,0.00,30.16,M,10.00,20.00,CLR,M,M,M,M,M,M,M,M,M,M,M,M,M,M,90.86,KCXP 192335Z AUTO 25010G20KT 10SM CLR 35/06 A3016 RMK AO2,M
RTS,2024-07-19 23:35,-119.8764,39.6682,1539.00,93.20,37.40,14.23,270.00,14.00,0.00,30.18,M,10.00,M,CLR,M,M,M,M,M,M,M,M,M,M,M,M,M,M,88.83,KRTS 192335Z AUTO 27014KT 10SM CLR 34/03 A3018 RMK AO2,M
05U,2024-07-19 23:35,-116.0051,39.6042,1811.23,84.20,46.40,26.76,250.00,13.00,0.00,30.30,M,10.00,21.00,CLR,M,M,M,M,M,M,M,M,M,M,M,M,M,M,81.87,K05U 192335Z AUTO 25013G21KT 10SM CLR 29/08 A3030 RMK A01,M
BAM,2024-07-19 23:35,-116.8743,40.5990,1382.36,98.60,41.00,13.87,350.00,7.00,0.00,30.13,M,10.00,M,CLR,M,M,M,M,M,M,M,M,M,M,M,M,M,M,94.09,KBAM 192335Z AUTO 35007KT 10SM CLR 37/05 A3013 RMK AO1,M
HTH,2024-07-19 23:35,-118.6315,38.5448,1282.89,96.80,37.40,12.73,0.00,0.00,0.00,30.07,M,10.00,12.00,CLR,M,M,M,M,M,M,M,M,M,M,M,M,M,M,92.04,KHTH 192335Z AUTO 00000G12KT 10SM CLR 36/03 A3007 RMK A01,M
10U,2024-07-19 23:35,-116.1876,41.9532,1637.00,91.40,32.00,12.14,30.00,5.00,0.00,30.19,M,10.00,M,CLR,M,M,M,M,M,M,M,M,M,M,M,M,M,M,86.91,K10U 192335Z AUTO 03005KT 10SM CLR 33/00 A3019 RMK AO2,M
TMT,2024-07-19 23:35,-117.1971,39.4643,1749.34,80.00,46.00,30.20,170.00,10.00,0.00,30.29,M,10.00,16.00,CLR,M,M,M,M,M,M,M,M,M,M,M,M,M,M,79.20,KTMT 192335Z AUTO 17010G16KT 10SM CLR 27/08 A3029 RMK AO2 T02660078,M
P68,2024-07-19 23:53,-116.0056,39.6014,1993.00,83.00,47.00,28.45,270.00,18.00,0.00,30.28,1017.00,M,25.00,M,M,M,M,M,M,M,M,M,M,M,M,28.00,250.00,2024-07-19 23:22,81.09,KP68 192353Z AUTO 27018G25KT 28/08 A3028 RMK AO1 PK WND 25028/2322 SLP170 T02830083 10328 20278 50009,M
DRA,2024-07-19 23:53,-116.0278,36.6206,1009.00,105.00,44.00,12.85,270.00,11.00,0.00,29.97,1008.80,10.00,17.00,CLR,M,M,M,M,M,M,M,M,M,M,M,M,M,M,100.64,KDRA 192353Z AUTO 27011G17KT 10SM CLR 41/07 A2997 RMK AO2 SLP088 T04060067 10417 20372 56016,M
ELY,2024-07-19 23:53,-114.8453,39.2950,1909.00,78.00,46.00,32.26,330.00,13.00,T,30.32,1017.50,10.00,20.00,CLR,M,M,M,M,M,M,M,M,M,M,M,M,M,M,78.00,KELY 192353Z AUTO 33013G20KT 10SM CLR 26/08 A3032 RMK AO2 WSHFT 2338 RAE2258 SLP175 P0000 60006 T02560078 10306 20228 50005,M
VGT,2024-07-19 23:53,-115.1933,36.2111,667.00,106.00,50.00,15.64,0.00,0.00,0.00,29.88,1010.00,10.00,M,CLR,M,M,M,M,M,M,M,M,M,M,M,M,M,M,103.18,KVGT 192353Z 00000KT 10SM CLR 41/10 A2988 RMK AO2 SLP100 T04110100 10428 20378 58020,M
LOL,2024-07-19 23:53,-118.5701,40.0684,1192.43,99.00,39.00,12.68,140.00,9.00,0.00,30.06,1013.00,10.00,M,CLR,M,M,M,M,M,M,M,M,M,M,M,M,M,M,94.19,KLOL 192353Z AUTO 14009KT 10SM CLR 37/04 A3006 RMK AO2 SLP130 T03720039 10378 20317 56018,M
NFL,2024-07-19 23:54,-118.7010,39.4166,1199.00,102.00,36.00,10.29,M,5.00,0.00,30.05,1014.50,10.00,M,FEW,FEW,M,M,9000.00,15000.00,M,M,M,M,M,M,M,M,M,96.20,KNFL 192354Z VRB05KT 10SM FEW090 FEW150 39/02 A3005 RMK AO2 SLP145 CB DSNT SW T03890022 10394 20322 56019,M
BVU,2024-07-19 23:55,-114.8611,35.9475,671.00,107.60,44.60,12.18,190.00,6.00,0.00,29.86,M,10.00,M,CLR,M,M,M,M,M,M,M,M,M,M,M,M,M,M,103.15,KBVU 192355Z AUTO 19006KT 10SM CLR 42/07 A2986 RMK AO2,M
CXP,2024-07-19 23:55,-119.7326,39.1923,1431.00,95.00,41.00,15.49,280.00,8.00,0.00,30.16,M,10.00,16.00,CLR,M,M,M,M,M,M,M,M,M,M,M,M,M,M,90.70,KCXP 192355Z AUTO 28008G16KT 240V310 10SM CLR 35/05 A3016 RMK AO2,M
RNO,2024-07-19 23:55,-119.7711,39.4839,1341.00,99.00,42.00,14.24,250.00,8.00,0.00,30.11,1012.70,10.00,M,SCT,M,M,M,10000.00,M,M,M,M,M,M,M,M,M,M,94.59,KRNO 192355Z 25008KT 10SM SCT100 37/06 A3011 RMK AO2 SLP127 T03720056 10383 20306 56015,M
RTS,2024-07-19 23:55,-119.8764,39.6682,1539.00,93.20,39.20,15.27,250.00,18.00,0.00,30.18,M,10.00,25.00,CLR,M,M,M,M,M,M,M,M,M,M,M,M,M,M,88.92,KRTS 192355Z AUTO 25018G25KT 10SM CLR 34/04 A3018 RMK AO2,M
05U,2024-07-19 23:55,-116.0051,39.6042,1811.23,82.40,46.40,28.36,260.00,14.00,0.00,30.31,M,10.00,22.00,FEW,M,M,M,12000.00,M,M,M,M,M,M,M,M,M,M,80.64,K05U 192355Z AUTO 26014G22KT 10SM FEW120 28/08 A3031 RMK A01,M
BAM,2024-07-19 23:55,-116.8743,40.5990,1382.36,96.80,39.20,13.66,0.00,0.00,0.00,30.12,M,10.00,M,CLR,M,M,M,M,M,M,M,M,M,M,M,M,M,M,92.23,KBAM 192355Z AUTO 00000KT 10SM CLR 36/04 A3012 RMK AO1,M
HTH,2024-07-19 23:55,-118.6315,38.5448,1282.89,95.00,39.20,14.44,110.00,18.00,0.00,30.09,M,10.00,25.00,CLR,M,M,M,M,M,M,M,M,M,M,M,M,M,M,90.57,KHTH 192355Z AUTO 11018G25KT 10SM CLR 35/04 A3009 RMK A01,M
10U,2024-07-19 23:55,-116.1876,41.9532,1637.00,91.40,32.00,12.14,0.00,0.00,0.00,30.19,M,10.00,M,CLR,M,M,M,M,M,M,M,M,M,M,M,M,M,M,86.91,K10U 192355Z AUTO 00000KT 10SM CLR 33/00 A3019 RMK AO2,M
TMT,2024-07-19 23:55,-117.1971,39.4643,1749.34,81.50,45.70,28.44,70.00,8.00,0.00,30.29,M,10.00,M,CLR,M,M,M,M,M,M,M,M,M,M,M,M,M,M,80.03,KTMT 192355Z AUTO 07008KT 350V090 10SM CLR 28/08 A3029 RMK AO2 T02750076 10327 20248,M
INS,2024-07-19 23:55,-115.6733,36.5872,955.00,104.00,41.40,11.98,310.00,4.00,0.00,29.96,1008.30,10.00,M,CLR,M,M,M,M,M,M,M,M,M,M,M,M,M,M,99.06,KINS 192355Z AUTO 31004KT 10SM CLR 40/05 A2996 RMK AO2 SLP083 T04010052 10404 20365 57017 $,M
LSV,2024-07-19 23:55,-115.0343,36.2362,570.00,107.60,46.20,12.94,260.00,5.00,0.00,29.81,1006.10,10.00,M,CLR,M,M,M,M,M,M,M,M,M,M,M,M,M,M,103.65,KLSV 192355Z AUTO 26005KT 10SM CLR 42/08 A2981 RMK AO2 SLP061 T04200079 10430 20386 57023 $,M
EKO,2024-07-19 23:56,-115.7860,40.8242,1367.00,96.00,40.00,14.45,110.00,4.00,0.00,30.14,1014.00,10.00,M,CLR,M,M,M,M,M,M,M,M,M,M,M,M,M,M,91.55,KEKO 192356Z AUTO 11004KT 10SM CLR 36/04 A3014 RMK AO2 SLP140 T03560044 10372 20306 56016,M
WMC,2024-07-19 23:56,-117.8072,40.9019,1315.00,100.00,36.00,10.93,0.00,0.00,0.00,30.09,1013.20,10.00,M,CLR,M,M,M,M,M,M,M,M,M,M,M,M,M,M,94.48,KWMC 192356Z AUTO 00000KT 10SM CLR 38/02 A3009 RMK AO2 SLP132 T03780022 10394 20339 56016,M
HND,2024-07-19 23:56,-115.1344,35.9729,742.79,106.00,52.00,16.84,30.00,7.00,0.00,29.92,1011.00,10.00,M,CLR,M,M,M,M,M,M,M,M,M,M,M,M,M,M,103.85,KHND 192356Z 03007KT 10SM CLR 41/11 A2992 RMK AO2 LTG DSNT SE SLP110 T04110111 10428 20372 58016,M
TPH,2024-07-19 23:56,-117.0904,38.0505,1654.00,88.00,46.00,23.34,70.00,22.00,0.00,30.20,1014.00,10.00,33.00,BKN,M,M,M,12000.00,M,M,M,M,M,M,M,33.00,60.00,2024-07-19 23:47,84.81,KTPH 192356Z AUTO 07022G33KT 10SM BKN120 31/08 A3020 RMK AO2 PK WND 06033/2347 WSHFT 2336 LTG DSNT SE AND S SLP140 T03110078 10356 20300 55006,M
LAS,2024-07-19 23:56,-115.1634,36.0719,663.00,109.00,48.00,13.29,0.00,0.00,0.00,29.88,1004.80,10.00,M,FEW,FEW,SCT,M,12000.00,15000.00,20000.00,M,M,M,M,M,M,M,M,105.52,KLAS 192356Z 00000KT 10SM FEW120 FEW150 SCT200 43/09 A2988 RMK AO2 SLP048 CB DSNT N-E AND S T04280089 10433 20372 58019 $,M
