station,valid,lon,lat,elevation,tmpf,dwpf,relh,drct,sknt,p01i,alti,mslp,vsby,gust,skyc1,skyc2,skyc3,skyc4,skyl1,skyl2,skyl3,skyl4,wxcodes,ice_accretion_1hr,ice_accretion_3hr,ice_accretion_6hr,peak_wind_gust,peak_wind_drct,peak_wind_time,feel,metar,snowdepth
BVU,2023-03-14 00:15,-114.8611,35.9475,671.00,69.80,30.20,22.86,0.00,0.00,0.00,29.95,M,10.00,M,CLR,M,M,M,M,M,M,M,M,M,M,M,M,M,M,69.80,KBVU 140015Z AUTO 00000KT 10SM CLR 21/M01 A2995 RMK AO2,M
RTS,2023-03-14 00:15,-119.8764,39.6682,1539.00,46.40,32.00,57.00,220.00,16.00,0.00,29.96,M,10.00,22.00,FEW,M,M,M,4900.00,M,M,M,M,M,M,M,M,M,M,39.19,KRTS 140015Z AUTO 22016G22KT 10SM FEW049 08/M00 A2996 RMK AO2,M
MEV,2023-03-14 00:15,-119.7500,38.9963,1441.42,51.80,28.40,40.25,200.00,15.00,0.00,29.95,M,10.00,M,FEW,FEW,M,M,8000.00,9000.00,M,M,M,M,M,M,M,M,M,51.80,KMEV 140015Z AUTO 20015KT 10SM FEW080 FEW090 11/M02 A2995 RMK AO2,M
BAM,2023-03-14 00:15,-116.8743,40.5990,1382.36,53.60,32.00,43.61,230.00,12.00,0.00,29.95,M,10.00,17.00,BKN,M,M,M,11000.00,M,M,M,M,M,M,M,M,M,M,53.60,KBAM 140015Z AUTO 23012G17KT 10SM BKN110 12/00 A2995 RMK AO1,M
HTH,2023-03-14 00:15,-118.6315,38.5448,1282.89,59.00,21.20,22.95,230.00,12.00,0.00,29.95,M,10.00,M,CLR,M,M,M,M,M,M,M,M,M,M,M,M,M,M,59.00,KHTH 140015Z AUTO 23012KT 10SM CLR 15/M06 A2995 RMK A01,M
TMT,2023-03-14 00:15,-117.1971,39.4643,1749.34,47.70,27.00,44.27,250.00,7.00,0.00,29.98,M,10.00,M,CLR,M,M,M,M,M,M,M,M,M,M,M,M,M,M,43.92,KTMT 140015Z AUTO 25007KT 10SM CLR 09/M03 A2998 RMK AO2 T00871028,M
HTH,2023-03-14 00:30,-118.6315,38.5448,1282.89,59.00,21.20,22.95,220.00,7.00,0.00,29.95,M,10.00,M,CLR,M,M,M,M,M,M,M,M,M,M,M,M,M,M,59.00,KHTH 140030Z AUTO 22007KT 10SM CLR 15/M06 A2995 RMK A01,M
BVU,2023-03-14 00:35,-114.8611,35.9475,671.00,69.80,28.40,21.24,M,5.00,0.00,29.95,M,10.00,M,CLR,M,M,M,M,M,M,M,M,M,M,M,M,M,M,69.80,KBVU 140035Z AUTO VRB05KT 10SM CLR 21/M02 A2995 RMK AO2,M
RTS,2023-03-14 00:35,-119.8764,39.6682,1539.00,46.40,30.20,53.00,200.00,7.00,0.00,29.95,M,10.00,13.00,SCT,BKN,BKN,M,4000.00,4800.00,6000.00,M,M,M,M,M,M,M,M,42.33,KRTS 140035Z AUTO 20007G13KT 10SM SCT040 BKN048 BKN060 08/M01 A2995 RMK AO2,M
MEV,2023-03-14 00:35,-119.7500,38.9963,1441.42,50.00,26.60,39.95,250.00,13.00,0.00,29.95,M,10.00,20.00,FEW,SCT,M,M,7500.00,8500.00,M,M,M,M,M,M,M,M,M,50.00,KMEV 140035Z AUTO 25013G20KT 10SM FEW075 SCT085 10/M03 A2995 RMK AO2,M
BAM,2023-03-14 00:35,-116.8743,40.5990,1382.36,55.40,32.00,40.84,220.00,10.00,0.00,29.94,M,10.00,M,BKN,M,M,M,10000.00,M,M,M,M,M,M,M,M,M,M,55.40,KBAM 140035Z AUTO 22010KT 10SM BKN100 13/00 A2994 RMK AO1,M
TMT,2023-03-14 00:35,-117.1971,39.4643,1749.34,46.00,27.30,47.78,240.00,6.00,0.00,29.97,M,10.00,M,SCT,M,M,M,9000.00,M,M,M,M,M,M,M,M,M,M,42.39,KTMT 140035Z AUTO 24006KT 10SM SCT090 08/M03 A2997 RMK AO2 T00781026,M
INS,2023-03-14 00:42,-115.6733,36.5872,955.00,66.20,26.60,22.33,150.00,13.00,0.00,29.94,1011.60,10.00,17.00,CLR,M,M,M,M,M,M,M,M,M,M,M,M,M,M,66.20,KINS 140042Z AUTO 15013G17KT 10SM CLR 19/M03 A2994 RMK AO2 WSHFT 41 SLP116 $,M
VGT,2023-03-14 00:53,-115.1933,36.2111,667.00,71.00,32.00,23.52,150.00,10.00,0.00,29.93,1014.10,10.00,M,FEW,M,M,M,9000.00,M,M,M,M,M,M,M,M,M,M,71.10,KVGT 140053Z 15010KT 10SM FEW090 22/00 A2993 RMK AO2 SLP141 T02170000,M
LOL,2023-03-14 00:53,-118.5701,40.0684,1192.43,55.00,28.90,36.54,230.00,17.00,0.00,29.90,1011.90,10.00,M,FEW,OVC,M,M,7000.00,9000.00,M,M,M,M,M,M,M,M,M,55.00,KLOL 140053Z AUTO 23017KT 10SM FEW070 OVC090 13/M02 A2990 RMK AO2 SLP119 T01281017,M
P68,2023-03-14 00:53,-116.0056,39.6014,1993.00,43.00,33.00,67.82,150.00,8.00,0.00,29.99,1014.30,M,M,M,M,M,M,M,M,M,M,M,M,M,M,M,M,M,37.66,KP68 140053Z AUTO 15008KT 06/01 A2999 RMK AO1 SLP143 T00610006,M
DRA,2023-03-14 00:53,-116.0278,36.6206,1009.00,65.00,28.00,24.75,200.00,9.00,0.00,29.95,1012.00,10.00,M,CLR,M,M,M,M,M,M,M,M,M,M,M,M,M,M,64.90,KDRA 140053Z AUTO 20009KT 10SM CLR 18/M02 A2995 RMK AO2 SLP120 T01831022,M
ELY,2023-03-14 00:53,-114.8453,39.2950,1909.00,38.00,32.00,79.08,130.00,3.00,0.00,30.03,1016.80,10.00,M,SCT,BKN,M,M,6500.00,9000.00,M,M,M,M,M,M,M,M,M,35.43,KELY 140053Z AUTO 13003KT 10SM SCT065 BKN090 03/00 A3003 RMK AO2 SLP168 T00330000,M
BVU,2023-03-14 00:55,-114.8611,35.9475,671.00,69.80,30.20,22.86,100.00,5.00,0.00,29.94,M,10.00,M,CLR,M,M,M,M,M,M,M,M,M,M,M,M,M,M,69.80,KBVU 140055Z AUTO 10005KT 10SM CLR 21/M01 A2994 RMK AO2,M
INS,2023-03-14 00:55,-115.6733,36.5872,955.00,66.20,30.40,26.09,120.00,13.00,0.00,29.94,1011.60,10.00,M,CLR,M,M,M,M,M,M,M,M,M,M,M,M,M,M,66.20,KINS 140055Z AUTO 12013KT 10SM CLR 19/M01 A2994 RMK AO2 SLP116 T01901009 $,M
RNO,2023-03-14 00:55,-119.7711,39.4839,1341.00,52.00,30.90,44.24,150.00,9.00,0.00,29.93,1011.80,10.00,M,BKN,BKN,M,M,5500.00,25000.00,M,M,M,M,M,M,M,M,M,52.00,KRNO 140055Z 15009KT 10SM BKN055 BKN250 11/M01 A2993 RMK AO2 SLP118 MTN TOPS OBSCD DSNT SW THRU W T01111006,M
LSV,2023-03-14 00:55,-115.0343,36.2362,570.00,70.30,33.80,25.98,0.00,0.00,0.00,29.91,1011.90,10.00,M,CLR,M,M,M,M,M,M,M,M,M,M,M,M,M,M,70.30,KLSV 140055Z AUTO 00000KT 10SM CLR 21/01 A2991 RMK AO2 SLP119 T02130010 $,M
RTS,2023-03-14 00:55,-119.8764,39.6682,1539.00,46.40,30.20,53.00,230.00,11.00,0.00,29.94,M,10.00,20.00,FEW,SCT,BKN,M,4200.00,4900.00,5500.00,M,M,M,M,M,M,M,M,40.66,KRTS 140055Z AUTO 23011G20KT 10SM FEW042 SCT049 BKN055 08/M01 A2994 RMK AO2,M
MEV,2023-03-14 00:55,-119.7500,38.9963,1441.42,51.80,28.40,40.25,220.00,8.00,0.00,29.95,M,10.00,19.00,SCT,SCT,M,M,7500.00,8500.00,M,M,M,M,M,M,M,M,M,51.80,KMEV 140055Z AUTO 22008G19KT 10SM SCT075 SCT085 11/M02 A2995 RMK AO2,M
BAM,2023-03-14 00:55,-116.8743,40.5990,1382.36,55.40,32.00,40.84,200.00,9.00,0.00,29.93,M,10.00,14.00,SCT,M,M,M,10000.00,M,M,M,M,M,M,M,M,M,M,55.40,KBAM 140055Z AUTO 20009G14KT 10SM SCT100 13/00 A2993 RMK AO1,M
HTH,2023-03-14 00:55,-118.6315,38.5448,1282.89,59.00,21.20,22.95,200.00,10.00,0.00,29.95,M,10.00,M,CLR,M,M,M,M,M,M,M,M,M,M,M,M,M,M,59.00,KHTH 140055Z AUTO 20010KT 10SM CLR 15/M06 A2995 RMK A01,M
TMT,2023-03-14 00:55,-117.1971,39.4643,1749.34,45.50,29.30,52.86,230.00,6.00,0.00,29.97,M,10.00,M,OVC,M,M,M,9000.00,M,M,M,M,M,M,M,M,M,M,41.79,KTMT 140055Z AUTO 23006KT 10SM OVC090 08/M01 A2997 RMK AO2 T00751015,M
HND,2023-03-14 00:56,-115.1344,35.9729,742.79,69.00,28.00,21.40,230.00,8.00,0.00,29.96,1015.20,10.00,M,CLR,M,M,M,M,M,M,M,M,M,M,M,M,M,M,69.10,KHND 140056Z 23008KT 10SM CLR 21/M02 A2996 RMK AO2 SLP152 T02061022,M
TPH,2023-03-14 00:56,-117.0904,38.0505,1654.00,54.00,24.10,31.07,220.00,7.00,0.00,29.98,1013.20,10.00,M,CLR,M,M,M,M,M,M,M,M,M,M,M,M,M,M,54.00,KTPH 140056Z AUTO 22007KT 10SM CLR 12/M04 A2998 RMK AO2 SLP132 T01221044,M
LAS,2023-03-14 00:56,-115.1634,36.0719,663.00,70.00,25.00,18.33,210.00,7.00,0.00,29.94,1012.80,10.00,M,FEW,FEW,BKN,M,9000.00,12000.00,20000.00,M,M,M,M,M,M,M,M,70.00,KLAS 140056Z 21007KT 10SM FEW090 FEW120 BKN200 21/M04 A2994 RMK AO2 SLP128 T02111039,M
EKO,2023-03-14 00:56,-115.7860,40.8242,1367.00,45.00,32.00,60.11,190.00,13.02,M,29.97,1014.90,10.00,18.08,FEW,BKN,BKN,M,5498.00,7500.00,8500.00,M,M,M,M,M,M,M,M,38.22,METAR KEKO 140056Z 19013G18KT 10SM FEW055 BKN075 BKN085 07/00 A2997 RMK AO2 SLP149 T00720000 TSNO FIBI,M
WMC,2023-03-14 00:56,-117.8072,40.9019,1315.00,53.00,32.00,44.42,190.00,8.00,0.00,29.89,1011.00,10.00,M,OVC,M,M,M,7500.00,M,M,M,M,M,M,M,M,M,M,53.10,KWMC 140056Z AUTO 19008KT 10SM OVC075 12/00 A2989 RMK AO2 SLP110 T01170000,M
NFL,2023-03-14 00:56,-118.7010,39.4166,1199.00,58.00,27.00,30.43,240.00,19.00,0.00,29.91,1010.20,10.00,27.00,SCT,SCT,BKN,M,6000.00,10000.00,20000.00,M,M,M,M,M,27.00,240.00,2023-03-13 23:57,57.90,KNFL 140056Z 24019G27KT 10SM SCT060 SCT100 BKN200 14/M03 A2991 RMK AO2 PK WND 24027/2357 SLP102 T01441028,M
INS,2023-03-14 01:00,-115.6733,36.5872,955.00,66.20,30.20,25.88,160.00,13.00,0.00,29.94,1011.60,10.00,M,CLR,M,M,M,M,M,M,M,M,M,M,M,M,M,M,66.20,KINS 140100Z AUTO 16013KT 10SM CLR 19/M01 A2994 RMK AO2 WSHFT 0055 SLP116 $,M
BVU,2023-03-14 01:15,-114.8611,35.9475,671.00,69.80,30.20,22.86,120.00,9.00,0.00,29.94,M,10.00,M,CLR,M,M,M,M,M,M,M,M,M,M,M,M,M,M,69.80,KBVU 140115Z AUTO 12009KT 10SM CLR 21/M01 A2994 RMK AO2,M
RTS,2023-03-14 01:15,-119.8764,39.6682,1539.00,46.40,30.20,53.00,230.00,19.00,0.00,29.95,M,10.00,M,FEW,BKN,BKN,M,4300.00,5000.00,6000.00,M,M,M,M,M,M,M,M,38.48,KRTS 140115Z AUTO 23019KT 10SM FEW043 BKN050 BKN060 08/M01 A2995 RMK AO2,M
MEV,2023-03-14 01:15,-119.7500,38.9963,1441.42,50.00,26.60,39.95,280.00,10.00,0.00,29.95,M,10.00,M,BKN,BKN,M,M,7000.00,8000.00,M,M,M,M,M,M,M,M,M,50.00,KMEV 140115Z AUTO 28010KT 10SM BKN070 BKN080 10/M03 A2995 RMK AO2,M
BAM,2023-03-14 01:15,-116.8743,40.5990,1382.36,53.60,33.80,46.88,210.00,7.00,0.00,29.93,M,10.00,M,CLR,M,M,M,M,M,M,M,M,M,M,M,M,M,M,53.60,KBAM 140115Z AUTO 21007KT 10SM CLR 12/01 A2993 RMK AO1,M
HTH,2023-03-14 01:15,-118.6315,38.5448,1282.89,57.20,21.20,24.49,230.00,8.00,0.00,29.94,M,10.00,M,CLR,M,M,M,M,M,M,M,M,M,M,M,M,M,M,57.20,KHTH 140115Z AUTO 23008KT 10SM CLR 14/M06 A2994 RMK A01,M
TMT,2023-03-14 01:15,-117.1971,39.4643,1749.34,45.30,28.60,51.76,240.00,5.00,0.00,29.97,M,10.00,M,OVC,M,M,M,9000.00,M,M,M,M,M,M,M,M,M,M,42.19,KTMT 140115Z AUTO 24005KT 10SM OVC090 07/M02 A2997 RMK AO2 T00741019,M
BVU,2023-03-14 01:35,-114.8611,35.9475,671.00,69.80,30.20,22.86,120.00,8.00,0.00,29.94,M,10.00,M,CLR,M,M,M,M,M,M,M,M,M,M,M,M,M,M,69.80,KBVU 140135Z AUTO 12008KT 10SM CLR 21/M01 A2994 RMK AO2,M
RTS,2023-03-14 01:35,-119.8764,39.6682,1539.00,46.40,28.40,49.24,220.00,13.00,0.00,29.94,M,10.00,30.00,SCT,M,M,M,4600.00,M,M,M,M,M,M,M,M,M,M,40.02,KRTS 140135Z AUTO 22013G30KT 10SM SCT046 08/M02 A2994 RMK AO2,M
MEV,2023-03-14 01:35,-119.7500,38.9963,1441.42,48.20,28.40,46.02,250.00,9.00,0.00,29.94,M,10.00,M,BKN,BKN,M,M,7000.00,7500.00,M,M,M,M,M,M,M,M,M,43.66,KMEV 140135Z AUTO 25009KT 10SM BKN070 BKN075 09/M02 A2994 RMK AO2,M
BAM,2023-03-14 01:35,-116.8743,40.5990,1382.36,50.00,33.80,53.54,190.00,6.00,0.00,29.93,M,10.00,M,CLR,M,M,M,M,M,M,M,M,M,M,M,M,M,M,50.00,KBAM 140135Z AUTO 19006KT 10SM CLR 10/01 A2993 RMK AO1,M
HTH,2023-03-14 01:35,-118.6315,38.5448,1282.89,55.40,24.80,30.40,220.00,8.00,0.00,29.95,M,10.00,M,CLR,M,M,M,M,M,M,M,M,M,M,M,M,M,M,55.40,KHTH 140135Z AUTO 22008KT 10SM CLR 13/M04 A2995 RMK A01,M
TMT,2023-03-14 01:35,-117.1971,39.4643,1749.34,45.00,28.60,52.35,220.00,5.00,0.00,29.97,M,10.00,M,SCT,BKN,M,M,7500.00,9000.00,M,M,M,M,M,M,M,M,M,41.83,KTMT 140135Z AUTO 22005KT 10SM SCT075 BKN090 07/M02 A2997 RMK AO2 T00721019,M
P68,2023-03-14 01:53,-116.0056,39.6014,1993.00,41.00,32.00,70.08,150.00,6.00,0.00,29.97,1014.30,M,M,M,M,M,M,M,M,M,M,M,M,M,M,M,M,M,36.37,KP68 140153Z AUTO 15006KT 05/00 A2997 RMK AO1 SLP143 T00500000,M
DRA,2023-03-14 01:53,-116.0278,36.6206,1009.00,61.00,30.00,30.80,220.00,11.00,0.00,29.96,1012.50,10.00,M,CLR,M,M,M,M,M,M,M,M,M,M,M,M,M,M,61.00,KDRA 140153Z AUTO 22011KT 10SM CLR 16/M01 A2996 RMK AO2 SLP125 T01611011,M
ELY,2023-03-14 01:53,-114.8453,39.2950,1909.00,34.00,28.00,78.43,170.00,12.00,0.00,30.02,1016.40,10.00,16.00,CLR,M,M,M,M,M,M,M,M,M,M,M,M,M,M,24.55,KELY 140153Z AUTO 17012G16KT 10SM CLR 01/M02 A3002 RMK AO2 SLP164 T00111022,M
VGT,2023-03-14 01:53,-115.1933,36.2111,667.00,70.00,28.90,21.53,180.00,4.00,0.00,29.93,1014.30,10.00,M,CLR,M,M,M,M,M,M,M,M,M,M,M,M,M,M,70.00,KVGT 140153Z 18004KT 10SM CLR 21/M02 A2993 RMK AO2 SLP143 T02111017,M
LOL,2023-03-14 01:53,-118.5701,40.0684,1192.43,52.00,28.90,40.78,230.00,14.00,0.00,29.89,1012.00,10.00,M,CLR,M,M,M,M,M,M,M,M,M,M,M,M,M,M,52.00,KLOL 140153Z AUTO 23014KT 10SM CLR 11/M02 A2989 RMK AO2 SLP120 T01111017,M
BVU,2023-03-14 01:55,-114.8611,35.9475,671.00,68.00,30.20,24.32,110.00,5.00,0.00,29.94,M,10.00,M,FEW,M,M,M,9000.00,M,M,M,M,M,M,M,M,M,M,68.00,KBVU 140155Z AUTO 11005KT 10SM FEW090 20/M01 A2994 RMK AO2,M
INS,2023-03-14 01:55,-115.6733,36.5872,955.00,63.00,30.40,29.07,130.00,8.00,0.00,29.95,1012.30,10.00,M,CLR,M,M,M,M,M,M,M,M,M,M,M,M,M,M,63.10,KINS 140155Z AUTO 13008KT 10SM CLR 17/M01 A2995 RMK AO2 SLP123 T01731009 $,M
LSV,2023-03-14 01:55,-115.0343,36.2362,570.00,68.00,32.70,26.90,0.00,0.00,0.00,29.90,1011.60,10.00,M,CLR,M,M,M,M,M,M,M,M,M,M,M,M,M,M,68.00,KLSV 140155Z AUTO 00000KT 10SM CLR 20/00 A2990 RMK AO2 SLP116 T02000004 $,M
RTS,2023-03-14 01:55,-119.8764,39.6682,1539.00,44.60,28.40,52.72,230.00,13.00,0.00,29.94,M,10.00,19.00,FEW,M,M,M,4500.00,M,M,M,M,M,M,M,M,M,M,37.71,KRTS 140155Z AUTO 23013G19KT 10SM FEW045 07/M02 A2994 RMK AO2,M
MEV,2023-03-14 01:55,-119.7500,38.9963,1441.42,46.40,30.20,53.00,M,6.00,0.00,29.94,M,10.00,13.00,BKN,BKN,M,M,6500.00,7500.00,M,M,M,M,M,M,M,M,M,42.87,KMEV 140155Z AUTO VRB06G13KT 10SM BKN065 BKN075 08/M01 A2994 RMK AO2,M
BAM,2023-03-14 01:55,-116.8743,40.5990,1382.36,48.20,32.00,53.27,190.00,6.00,0.00,29.92,M,10.00,M,CLR,M,M,M,M,M,M,M,M,M,M,M,M,M,M,45.04,KBAM 140155Z AUTO 19006KT 10SM CLR 09/00 A2992 RMK AO1,M
HTH,2023-03-14 01:55,-118.6315,38.5448,1282.89,53.60,24.80,32.46,210.00,12.00,0.00,29.96,M,10.00,M,CLR,M,M,M,M,M,M,M,M,M,M,M,M,M,M,53.60,KHTH 140155Z AUTO 21012KT 10SM CLR 12/M04 A2996 RMK A01,M
TMT,2023-03-14 01:55,-117.1971,39.4643,1749.34,42.30,30.20,61.97,210.00,3.00,0.00,29.97,M,10.00,M,SCT,OVC,M,M,7500.00,9000.00,M,M,M,M,M,M,M,M,M,40.46,KTMT 140155Z AUTO 21003KT 10SM SCT075 OVC090 06/M01 A2997 RMK AO2 T00571010,M
RNO,2023-03-14 01:55,-119.7711,39.4839,1341.00,51.00,28.90,42.16,120.00,4.00,0.00,29.91,1011.40,10.00,M,BKN,BKN,M,M,6500.00,21000.00,M,M,M,M,M,M,M,M,M,51.10,KRNO 140155Z 12004KT 10SM BKN065 BKN210 11/M02 A2991 RMK AO2 SLP114 MTN TOPS OBSCD DSNT SW THRU W T01061017,M
WMC,2023-03-14 01:56,-117.8072,40.9019,1315.00,50.00,32.00,49.81,210.00,9.00,0.00,29.88,1010.80,10.00,M,OVC,M,M,M,8500.00,M,M,M,M,M,M,M,M,M,M,50.00,KWMC 140156Z AUTO 21009KT 10SM OVC085 10/00 A2988 RMK AO2 SLP108 T01000000,M
NFL,2023-03-14 01:56,-118.7010,39.4166,1199.00,54.00,27.00,35.05,230.00,15.00,0.00,29.91,1010.20,10.00,21.00,SCT,SCT,BKN,BKN,7000.00,12000.00,18000.00,20000.00,M,M,M,M,M,M,M,54.00,KNFL 140156Z 23015G21KT 10SM SCT070 SCT120 BKN180 BKN200 12/M03 A2991 RMK AO2 SLP102 T01221028,M
LAS,2023-03-14 01:56,-115.1634,36.0719,663.00,69.00,28.90,22.21,250.00,5.00,0.00,29.95,1013.00,10.00,M,FEW,FEW,BKN,M,9000.00,12000.00,20000.00,M,M,M,M,M,M,M,M,69.10,KLAS 140156Z 25005KT 10SM FEW090 FEW120 BKN200 21/M02 A2995 RMK AO2 SLP130 T02061017,M
EKO,2023-03-14 01:56,-115.7860,40.8242,1367.00,40.00,32.00,72.85,230.00,7.00,M,29.94,1014.40,10.00,M,FEW,SCT,M,M,6000.00,8999.00,M,M,M,M,M,M,M,M,M,34.53,METAR KEKO 140156Z 23007KT 10SM FEW060 SCT090 04/00 A2994 RMK AO2 SLP144 T00440000 TSNO FIBI,M
HND,2023-03-14 01:56,-115.1344,35.9729,742.79,67.00,30.90,25.98,230.00,5.00,0.00,29.97,1015.50,10.00,M,CLR,M,M,M,M,M,M,M,M,M,M,M,M,M,M,66.90,KHND 140156Z 23005KT 10SM CLR 19/M01 A2997 RMK AO2 SLP155 T01941006,M
TPH,2023-03-14 01:56,-117.0904,38.0505,1654.00,51.00,24.10,34.57,220.00,9.00,0.00,29.97,1013.60,10.00,M,CLR,M,M,M,M,M,M,M,M,M,M,M,M,M,M,51.10,KTPH 140156Z AUTO 22009KT 10SM CLR 11/M04 A2997 RMK AO2 SLP136 T01061044,M
BVU,2023-03-14 02:15,-114.8611,35.9475,671.00,68.00,28.40,22.59,0.00,0.00,0.00,29.95,M,10.00,M,BKN,M,M,M,9000.00,M,M,M,M,M,M,M,M,M,M,68.00,KBVU 140215Z AUTO 00000KT 10SM BKN090 20/M02 A2995 RMK AO2,M
RTS,2023-03-14 02:15,-119.8764,39.6682,1539.00,44.60,30.20,56.74,230.00,15.00,0.00,29.94,M,10.00,21.00,BKN,BKN,M,M,3900.00,4800.00,M,M,M,M,M,M,M,M,M,37.11,KRTS 140215Z AUTO 23015G21KT 10SM BKN039 BKN048 07/M01 A2994 RMK AO2,M
MEV,2023-03-14 02:15,-119.7500,38.9963,1441.42,46.40,28.40,49.24,140.00,4.00,0.00,29.93,M,10.00,M,BKN,BKN,M,M,6500.00,7500.00,M,M,M,M,M,M,M,M,M,44.24,KMEV 140215Z AUTO 14004KT 10SM BKN065 BKN075 08/M02 A2993 RMK AO2,M
BAM,2023-03-14 02:15,-116.8743,40.5990,1382.36,44.60,33.80,65.61,140.00,5.00,0.00,29.91,M,10.00,M,SCT,M,M,M,9000.00,M,M,M,M,M,M,M,M,M,M,41.36,KBAM 140215Z AUTO 14005KT 10SM SCT090 07/01 A2991 RMK AO1,M
HTH,2023-03-14 02:15,-118.6315,38.5448,1282.89,53.60,26.60,34.98,210.00,11.00,0.00,29.96,M,10.00,M,CLR,M,M,M,M,M,M,M,M,M,M,M,M,M,M,53.60,KHTH 140215Z AUTO 21011KT 10SM CLR 12/M03 A2996 RMK A01,M
TMT,2023-03-14 02:15,-117.1971,39.4643,1749.34,39.40,31.10,71.91,200.00,4.00,0.00,29.97,M,10.00,M,OVC,M,M,M,9000.00,M,M,M,M,M,M,M,M,M,M,36.06,KTMT 140215Z AUTO 20004KT 10SM OVC090 04/00 A2997 RMK AO2 T00411005,M
BVU,2023-03-14 02:35,-114.8611,35.9475,671.00,66.20,30.20,25.88,0.00,0.00,0.00,29.96,M,10.00,M,BKN,M,M,M,9000.00,M,M,M,M,M,M,M,M,M,M,66.20,KBVU 140235Z AUTO 00000KT 10SM BKN090 19/M01 A2996 RMK AO2,M
RTS,2023-03-14 02:35,-119.8764,39.6682,1539.00,44.60,30.20,56.74,220.00,16.00,0.00,29.93,M,10.00,M,OVC,M,M,M,4000.00,M,M,M,M,M,M,M,M,M,M,36.84,KRTS 140235Z AUTO 22016KT 10SM OVC040 07/M01 A2993 RMK AO2,M
MEV,2023-03-14 02:35,-119.7500,38.9963,1441.42,44.60,30.20,56.74,0.00,0.00,0.00,29.94,M,10.00,M,BKN,BKN,M,M,6500.00,8000.00,M,M,M,M,M,M,M,M,M,44.60,KMEV 140235Z AUTO 00000KT 10SM BKN065 BKN080 07/M01 A2994 RMK AO2,M
BAM,2023-03-14 02:35,-116.8743,40.5990,1382.36,44.60,33.80,65.61,140.00,5.00,0.00,29.92,M,10.00,M,SCT,M,M,M,9000.00,M,M,M,M,M,M,M,M,M,M,41.36,KBAM 140235Z AUTO 14005KT 10SM SCT090 07/01 A2992 RMK AO1,M
HTH,2023-03-14 02:35,-118.6315,38.5448,1282.89,51.80,26.60,37.38,210.00,9.00,0.00,29.95,M,10.00,M,CLR,M,M,M,M,M,M,M,M,M,M,M,M,M,M,51.80,KHTH 140235Z AUTO 21009KT 10SM CLR 11/M03 A2995 RMK A01,M
TMT,2023-03-14 02:35,-117.1971,39.4643,1749.34,38.00,29.80,71.77,180.00,7.00,0.00,29.96,M,10.00,M,BKN,M,M,M,9000.00,M,M,M,M,M,M,M,M,M,M,32.21,KTMT 140235Z AUTO 18007KT 10SM BKN090 03/M01 A2996 RMK AO2 T00341012,M
P68,2023-03-14 02:53,-116.0056,39.6014,1993.00,36.00,30.00,78.60,180.00,7.00,0.00,29.96,1014.60,M,M,M,M,M,M,M,M,M,M,M,M,M,M,M,M,M,29.65,KP68 140253Z AUTO 18007KT 02/M01 A2996 RMK AO1 SLP146 T00221011 58010,M
DRA,2023-03-14 02:53,-116.0278,36.6206,1009.00,60.00,24.10,24.93,190.00,9.00,0.00,29.96,1012.50,10.00,M,CLR,M,M,M,M,M,M,M,M,M,M,M,M,M,M,60.10,KDRA 140253Z AUTO 19009KT 10SM CLR 16/M04 A2996 RMK AO2 SLP125 T01561044 55001,M
ELY,2023-03-14 02:53,-114.8453,39.2950,1909.00,33.00,27.00,78.03,200.00,10.00,0.00,30.02,1016.70,10.00,M,CLR,M,M,M,M,M,M,M,M,M,M,M,M,M,M,24.35,KELY 140253Z AUTO 20010KT 10SM CLR 01/M03 A3002 RMK AO2 SLP167 T00061028 55005,M
VGT,2023-03-14 02:53,-115.1933,36.2111,667.00,66.00,30.00,25.85,140.00,7.00,0.00,29.95,1014.90,10.00,M,CLR,M,M,M,M,M,M,M,M,M,M,M,M,M,M,66.00,KVGT 140253Z AUTO 14007KT 10SM CLR 19/M01 A2995 RMK AO2 SLP149 T01891011 53002,M
LOL,2023-03-14 02:53,-118.5701,40.0684,1192.43,47.00,30.90,53.50,260.00,5.00,0.00,29.89,1012.60,10.00,M,CLR,M,M,M,M,M,M,M,M,M,M,M,M,M,M,44.09,KLOL 140253Z AUTO 26005KT 10SM CLR 08/M01 A2989 RMK AO2 SLP126 T00831006 55003,M
BVU,2023-03-14 02:55,-114.8611,35.9475,671.00,66.20,30.20,25.88,0.00,0.00,0.00,29.96,M,10.00,M,BKN,M,M,M,9000.00,M,M,M,M,M,M,M,M,M,M,66.20,KBVU 140255Z AUTO 00000KT 10SM BKN090 19/M01 A2996 RMK AO2,M
INS,2023-03-14 02:55,-115.6733,36.5872,955.00,61.20,30.20,30.83,240.00,5.00,0.00,29.97,1013.00,10.00,M,FEW,M,M,M,8000.00,M,M,M,M,M,M,M,M,M,M,61.20,KINS 140255Z AUTO 24005KT 10SM FEW080 16/M01 A2997 RMK AO2 SLP130 T01621010 53003 $,M
RNO,2023-03-14 02:55,-119.7711,39.4839,1341.00,50.00,30.90,47.64,M,3.00,0.00,29.92,1011.80,10.00,M,BKN,BKN,M,M,6000.00,22000.00,M,M,M,M,M,M,M,M,M,50.00,KRNO 140255Z VRB03KT 10SM BKN060 BKN220 10/M01 A2992 RMK AO2 SLP118 T01001006 55005,M
LSV,2023-03-14 02:55,-115.0343,36.2362,570.00,64.40,31.50,29.04,0.00,0.00,0.00,29.92,1012.30,10.00,M,CLR,M,M,M,M,M,M,M,M,M,M,M,M,M,M,64.40,KLSV 140255Z AUTO 00000KT 10SM CLR 18/M00 A2992 RMK AO2 SLP123 T01801003 53000 $,M
RTS,2023-03-14 02:55,-119.8764,39.6682,1539.00,44.60,32.00,61.03,230.00,13.00,0.00,29.95,M,10.00,25.00,BKN,BKN,BKN,M,3600.00,4100.00,4800.00,M,M,M,M,M,M,M,M,37.71,KRTS 140255Z AUTO 23013G25KT 10SM BKN036 BKN041 BKN048 07/M00 A2995 RMK AO2,M
MEV,2023-03-14 02:55,-119.7500,38.9963,1441.42,42.80,30.20,60.79,250.00,4.00,0.00,29.96,M,10.00,M,FEW,FEW,M,M,6500.00,7500.00,M,M,M,M,M,M,M,M,M,40.03,KMEV 140255Z AUTO 25004KT 10SM FEW065 FEW075 06/M01 A2996 RMK AO2,M
BAM,2023-03-14 02:55,-116.8743,40.5990,1382.36,42.80,33.80,70.28,150.00,4.00,0.00,29.92,M,10.00,M,SCT,M,M,M,9000.00,M,M,M,M,M,M,M,M,M,M,40.03,KBAM 140255Z AUTO 15004KT 10SM SCT090 06/01 A2992 RMK AO1,M
HTH,2023-03-14 02:55,-118.6315,38.5448,1282.89,50.00,28.40,43.03,210.00,11.00,0.00,29.94,M,10.00,M,CLR,M,M,M,M,M,M,M,M,M,M,M,M,M,M,50.00,KHTH 140255Z AUTO 21011KT 10SM CLR 10/M02 A2994 RMK A01,M
TMT,2023-03-14 02:55,-117.1971,39.4643,1749.34,36.30,29.10,74.87,220.00,3.00,0.00,29.96,M,10.00,M,SCT,M,M,M,8000.00,M,M,M,M,M,M,M,M,M,M,33.60,KTMT 140255Z AUTO 22003KT 10SM SCT080 02/M02 A2996 RMK AO2 T00241016,M
NFL,2023-03-14 02:56,-118.7010,39.4166,1199.00,52.00,26.10,36.34,230.00,13.00,0.00,29.91,1010.20,10.00,M,FEW,BKN,M,M,7000.00,10000.00,M,M,M,M,M,M,M,M,M,52.00,KNFL 140256Z 23013KT 10SM FEW070 BKN100 11/M03 A2991 RMK AO2 SLP102 T01111033 55003,M
HND,2023-03-14 02:56,-115.1344,35.9729,742.79,64.00,30.90,28.74,180.00,3.00,0.00,29.98,1015.90,10.00,M,CLR,M,M,M,M,M,M,M,M,M,M,M,M,M,M,64.00,KHND 140256Z 18003KT 10SM CLR 18/M01 A2998 RMK AO2 SLP159 T01781006 53001,M
TPH,2023-03-14 02:56,-117.0904,38.0505,1654.00,45.00,27.00,49.02,230.00,6.00,0.00,29.99,1014.60,10.00,M,CLR,M,M,M,M,M,M,M,M,M,M,M,M,M,M,41.19,KTPH 140256Z AUTO 23006KT 10SM CLR 07/M03 A2999 RMK AO2 SLP146 T00721028 53002,M
LAS,2023-03-14 02:56,-115.1634,36.0719,663.00,67.00,28.00,23.09,0.00,0.00,0.00,29.96,1013.40,10.00,M,FEW,FEW,SCT,M,9000.00,12000.00,25000.00,M,M,M,M,M,M,M,M,66.90,KLAS 140256Z 00000KT 10SM FEW090 FEW120 SCT250 19/M02 A2996 RMK AO2 SLP134 T01941022 53002,M
EKO,2023-03-14 02:56,-115.7860,40.8242,1367.00,40.00,31.00,69.97,0.00,0.00,M,29.94,1014.40,10.00,M,CLR,M,M,M,M,M,M,M,M,M,M,M,M,M,M,40.00,METAR KEKO 140256Z 00000KT 10SM CLR 04/M01 A2994 RMK AO2 SLP144 T00441006 55008 TSNO FIBI,M
WMC,2023-03-14 02:56,-117.8072,40.9019,1315.00,49.00,32.00,51.89,170.00,10.00,0.00,29.88,1010.70,10.00,M,BKN,OVC,M,M,8000.00,9000.00,M,M,M,M,M,M,M,M,M,44.16,KWMC 140256Z AUTO 17010KT 10SM BKN080 OVC090 09/00 A2988 RMK AO2 SLP107 T00940000 56007,M
BVU,2023-03-14 03:15,-114.8611,35.9475,671.00,64.40,33.80,31.85,0.00,0.00,0.00,29.96,M,10.00,M,BKN,M,M,M,8500.00,M,M,M,M,M,M,M,M,M,M,64.40,KBVU 140315Z AUTO 00000KT 10SM BKN085 18/01 A2996 RMK AO2,M
RTS,2023-03-14 03:15,-119.8764,39.6682,1539.00,42.80,30.20,60.79,230.00,18.00,0.00,29.95,M,10.00,M,FEW,SCT,M,M,3700.00,4800.00,M,M,M,M,M,M,M,M,M,33.97,KRTS 140315Z AUTO 23018KT 10SM FEW037 SCT048 06/M01 A2995 RMK AO2,M
MEV,2023-03-14 03:15,-119.7500,38.9963,1441.42,44.60,30.20,56.74,0.00,0.00,0.00,29.95,M,10.00,M,FEW,BKN,M,M,4900.00,6500.00,M,M,M,M,M,M,M,M,M,44.60,KMEV 140315Z AUTO 00000KT 10SM FEW049 BKN065 07/M01 A2995 RMK AO2,M
BAM,2023-03-14 03:15,-116.8743,40.5990,1382.36,42.80,32.00,65.38,130.00,4.00,0.00,29.92,M,10.00,M,SCT,M,M,M,9000.00,M,M,M,M,M,M,M,M,M,M,40.03,KBAM 140315Z AUTO 13004KT 10SM SCT090 06/00 A2992 RMK AO1,M
HTH,2023-03-14 03:15,-118.6315,38.5448,1282.89,51.80,24.80,34.69,190.00,11.00,0.00,29.96,M,10.00,M,CLR,M,M,M,M,M,M,M,M,M,M,M,M,M,M,51.80,KHTH 140315Z AUTO 19011KT 10SM CLR 11/M04 A2996 RMK A01,M
TMT,2023-03-14 03:15,-117.1971,39.4643,1749.34,38.30,27.70,65.35,210.00,6.00,0.00,29.97,M,10.00,M,CLR,M,M,M,M,M,M,M,M,M,M,M,M,M,M,33.12,KTMT 140315Z AUTO 21006KT 10SM CLR 04/M02 A2997 RMK AO2 T00351024,M
BVU,2023-03-14 03:35,-114.8611,35.9475,671.00,66.20,32.00,27.83,120.00,4.00,0.00,29.97,M,10.00,M,BKN,M,M,M,8500.00,M,M,M,M,M,M,M,M,M,M,66.20,KBVU 140335Z AUTO 12004KT 10SM BKN085 19/M00 A2997 RMK AO2,M
RTS,2023-03-14 03:35,-119.8764,39.6682,1539.00,42.80,32.00,65.38,240.00,13.00,0.00,29.96,M,10.00,M,FEW,BKN,BKN,M,3100.00,4300.00,5000.00,M,M,M,M,M,M,M,M,35.40,KRTS 140335Z AUTO 24013KT 10SM FEW031 BKN043 BKN050 06/M00 A2996 RMK AO2,M
MEV,2023-03-14 03:35,-119.7500,38.9963,1441.42,44.60,30.20,56.74,M,3.00,0.00,29.95,M,10.00,M,FEW,BKN,BKN,M,4900.00,6500.00,7500.00,M,M,M,M,M,M,M,M,43.09,KMEV 140335Z AUTO VRB03KT 10SM FEW049 BKN065 BKN075 07/M01 A2995 RMK AO2,M
BAM,2023-03-14 03:35,-116.8743,40.5990,1382.36,42.80,33.80,70.28,120.00,4.00,0.00,29.92,M,10.00,M,SCT,M,M,M,9000.00,M,M,M,M,M,M,M,M,M,M,40.03,KBAM 140335Z AUTO 12004KT 10SM SCT090 06/01 A2992 RMK AO1,M
HTH,2023-03-14 03:35,-118.6315,38.5448,1282.89,50.00,26.60,39.95,210.00,11.00,0.00,29.96,M,10.00,M,CLR,M,M,M,M,M,M,M,M,M,M,M,M,M,M,50.00,KHTH 140335Z AUTO 21011KT 10SM CLR 10/M03 A2996 RMK A01,M
TMT,2023-03-14 03:35,-117.1971,39.4643,1749.34,36.50,28.40,72.19,220.00,4.00,0.00,29.97,M,10.00,M,CLR,M,M,M,M,M,M,M,M,M,M,M,M,M,M,32.68,KTMT 140335Z AUTO 22004KT 10SM CLR 03/M02 A2997 RMK AO2 T00251020,M
P68,2023-03-14 03:53,-116.0056,39.6014,1993.00,34.00,28.90,81.37,120.00,4.00,0.00,29.97,1014.90,M,M,M,M,M,M,M,M,M,M,M,M,M,M,M,M,M,29.76,KP68 140353Z AUTO 12004KT 01/M02 A2997 RMK AO1 SLP149 T00111017,M
DRA,2023-03-14 03:53,-116.0278,36.6206,1009.00,55.00,25.00,31.11,0.00,0.00,0.00,29.97,1012.70,10.00,M,CLR,M,M,M,M,M,M,M,M,M,M,M,M,M,M,55.00,KDRA 140353Z AUTO 00000KT 10SM CLR 13/M04 A2997 RMK AO2 SLP127 T01281039,M
VGT,2023-03-14 03:53,-115.1933,36.2111,667.00,66.00,32.00,28.03,180.00,4.00,0.00,29.95,1014.90,10.00,M,CLR,M,M,M,M,M,M,M,M,M,M,M,M,M,M,66.00,KVGT 140353Z AUTO 18004KT 10SM CLR 19/00 A2995 RMK AO2 SLP149 T01890000,M
ELY,2023-03-14 03:53,-114.8453,39.2950,1909.00,35.00,28.00,75.06,200.00,13.00,0.00,30.01,1016.20,10.00,M,CLR,M,M,M,M,M,M,M,M,M,M,M,M,M,M,25.54,KELY 140353Z AUTO 20013KT 10SM CLR 02/M02 A3001 RMK AO2 SLP162 T00171022,M
LOL,2023-03-14 03:53,-118.5701,40.0684,1192.43,47.00,28.90,49.32,170.00,9.00,0.00,29.91,1012.60,10.00,M,FEW,M,M,M,10000.00,M,M,M,M,M,M,M,M,M,M,42.04,KLOL 140353Z AUTO 17009KT 10SM FEW100 08/M02 A2991 RMK AO2 SLP126 T00831017,M
BVU,2023-03-14 03:55,-114.8611,35.9475,671.00,64.40,33.80,31.85,120.00,4.00,0.00,29.97,M,10.00,M,CLR,M,M,M,M,M,M,M,M,M,M,M,M,M,M,64.40,KBVU 140355Z AUTO 12004KT 10SM CLR 18/01 A2997 RMK AO2,M
RNO,2023-03-14 03:55,-119.7711,39.4839,1341.00,49.00,30.00,47.85,40.00,5.00,0.00,29.93,1012.00,10.00,M,BKN,BKN,M,M,5500.00,22000.00,M,M,M,M,M,M,M,M,M,46.47,KRNO 140355Z 04005KT 10SM BKN055 BKN220 09/M01 A2993 RMK AO2 SLP120 T00941011,M
RTS,2023-03-14 03:55,-119.8764,39.6682,1539.00,42.80,32.00,65.38,230.00,12.00,0.00,29.96,M,10.00,M,BKN,OVC,M,M,3600.00,4500.00,M,M,M,M,M,M,M,M,M,35.75,KRTS 140355Z AUTO 23012KT 10SM BKN036 OVC045 06/M00 A2996 RMK AO2,M
MEV,2023-03-14 03:55,-119.7500,38.9963,1441.42,42.80,30.20,60.79,0.00,0.00,0.00,29.95,M,10.00,M,FEW,FEW,SCT,M,3800.00,4500.00,5000.00,M,M,M,M,M,M,M,M,42.80,KMEV 140355Z AUTO 00000KT 10SM FEW038 FEW045 SCT050 06/M01 A2995 RMK AO2,M
BAM,2023-03-14 03:55,-116.8743,40.5990,1382.36,42.80,33.80,70.28,0.00,0.00,0.00,29.92,M,10.00,M,CLR,M,M,M,M,M,M,M,M,M,M,M,M,M,M,42.80,KBAM 140355Z AUTO 00000KT 10SM CLR 06/01 A2992 RMK AO1,M
HTH,2023-03-14 03:55,-118.6315,38.5448,1282.89,50.00,26.60,39.95,230.00,16.00,0.00,29.95,M,10.00,M,CLR,M,M,M,M,M,M,M,M,M,M,M,M,M,M,50.00,KHTH 140355Z AUTO 23016KT 10SM CLR 10/M03 A2995 RMK A01,M
INS,2023-03-14 03:55,-115.6733,36.5872,955.00,57.40,22.80,26.01,10.00,4.00,0.00,29.96,1012.50,10.00,M,CLR,M,M,M,M,M,M,M,M,M,M,M,M,M,M,57.40,KINS 140355Z AUTO 01004KT 10SM CLR 14/M05 A2996 RMK AO2 SLP125 T01411051 $,M
LSV,2023-03-14 03:55,-115.0343,36.2362,570.00,64.40,31.50,29.04,140.00,6.00,0.00,29.92,1012.10,10.00,M,CLR,M,M,M,M,M,M,M,M,M,M,M,M,M,M,64.40,KLSV 140355Z AUTO 14006KT 10SM CLR 18/M00 A2992 RMK AO2 SLP121 T01801003 $,M
TMT,2023-03-14 03:55,-117.1971,39.4643,1749.34,35.20,27.50,73.24,260.00,3.00,0.00,29.97,M,10.00,M,CLR,M,M,M,M,M,M,M,M,M,M,M,M,M,M,32.35,KTMT 140355Z AUTO 26003KT 10SM CLR 02/M02 A2997 RMK AO2 T00181025,M
WMC,2023-03-14 03:56,-117.8072,40.9019,1315.00,47.00,32.00,55.94,220.00,7.00,0.00,29.90,1011.40,10.00,M,BKN,M,M,M,9500.00,M,M,M,M,M,M,M,M,M,M,42.94,KWMC 140356Z AUTO 22007KT 10SM BKN095 08/00 A2990 RMK AO2 SLP114 T00830000,M
NFL,2023-03-14 03:56,-118.7010,39.4166,1199.00,49.00,28.90,45.75,220.00,9.00,0.00,29.93,1010.80,10.00,M,SCT,SCT,M,M,7000.00,10000.00,M,M,M,M,M,M,M,M,M,44.53,KNFL 140356Z 22009KT 10SM SCT070 SCT100 09/M02 A2993 RMK AO2 SLP108 T00941017,M
HND,2023-03-14 03:56,-115.1344,35.9729,742.79,61.00,32.00,33.40,160.00,5.00,0.00,29.99,1016.10,10.00,M,CLR,M,M,M,M,M,M,M,M,M,M,M,M,M,M,61.00,KHND 140356Z AUTO 16005KT 10SM CLR 16/00 A2999 RMK AO2 SLP161 T01610000,M
TPH,2023-03-14 03:56,-117.0904,38.0505,1654.00,45.00,27.00,49.02,210.00,8.00,0.00,30.00,1014.30,10.00,M,CLR,M,M,M,M,M,M,M,M,M,M,M,M,M,M,40.13,KTPH 140356Z AUTO 21008KT 10SM CLR 07/M03 A3000 RMK AO2 SLP143 T00721028,M
LAS,2023-03-14 03:56,-115.1634,36.0719,663.00,65.00,28.90,25.68,170.00,3.00,0.00,29.97,1013.70,10.00,M,FEW,FEW,M,M,9000.00,25000.00,M,M,M,M,M,M,M,M,M,64.90,KLAS 140356Z 17003KT 10SM FEW090 FEW250 18/M02 A2997 RMK AO2 SLP137 T01831017,M
EKO,2023-03-14 03:56,-115.7860,40.8242,1367.00,38.00,30.00,72.64,80.00,2.92,M,29.94,1014.10,10.00,M,CLR,M,M,M,M,M,M,M,M,M,M,M,M,M,M,35.66,METAR KEKO 140356Z 08003KT 10SM CLR 03/M01 A2994 RMK AO2 SLP141 T00331011 TSNO FIBI,M
BVU,2023-03-14 04:15,-114.8611,35.9475,671.00,62.60,33.80,33.93,0.00,0.00,0.00,29.97,M,10.00,M,CLR,M,M,M,M,M,M,M,M,M,M,M,M,M,M,62.60,KBVU 140415Z AUTO 00000KT 10SM CLR 17/01 A2997 RMK AO2,M
RTS,2023-03-14 04:15,-119.8764,39.6682,1539.00,42.80,32.00,65.38,250.00,10.00,0.00,29.96,M,10.00,M,FEW,BKN,BKN,M,2000.00,3400.00,4900.00,M,M,M,M,M,M,M,M,36.51,KRTS 140415Z AUTO 25010KT 10SM FEW020 BKN034 BKN049 06/M00 A2996 RMK AO2,M
MEV,2023-03-14 04:15,-119.7500,38.9963,1441.42,42.80,30.20,60.79,130.00,7.00,0.00,29.95,M,10.00,13.00,FEW,SCT,SCT,M,3500.00,4400.00,5000.00,M,M,M,M,M,M,M,M,37.94,KMEV 140415Z AUTO 13007G13KT 10SM FEW035 SCT044 SCT050 06/M01 A2995 RMK AO2,M
BAM,2023-03-14 04:15,-116.8743,40.5990,1382.36,41.00,33.80,75.33,0.00,0.00,0.00,29.93,M,10.00,M,CLR,M,M,M,M,M,M,M,M,M,M,M,M,M,M,41.00,KBAM 140415Z AUTO 00000KT 10SM CLR 05/01 A2993 RMK AO1,M
HTH,2023-03-14 04:15,-118.6315,38.5448,1282.89,50.00,24.80,37.08,230.00,17.00,0.00,29.96,M,10.00,M,CLR,M,M,M,M,M,M,M,M,M,M,M,M,M,M,50.00,KHTH 140415Z AUTO 23017KT 10SM CLR 10/M04 A2996 RMK A01,M
TMT,2023-03-14 04:15,-117.1971,39.4643,1749.34,37.00,27.30,67.92,240.00,9.00,0.00,29.99,M,10.00,M,CLR,M,M,M,M,M,M,M,M,M,M,M,M,M,M,29.61,KTMT 140415Z AUTO 24009KT 10SM CLR 03/M03 A2999 RMK AO2 T00271026,M
BVU,2023-03-14 04:35,-114.8611,35.9475,671.00,62.60,32.00,31.56,0.00,0.00,0.00,29.98,M,10.00,M,CLR,M,M,M,M,M,M,M,M,M,M,M,M,M,M,62.60,KBVU 140435Z AUTO 00000KT 10SM CLR 17/00 A2998 RMK AO2,M
RTS,2023-03-14 04:35,-119.8764,39.6682,1539.00,41.00,32.00,70.08,230.00,8.00,0.00,29.96,M,10.00,M,BKN,BKN,BKN,M,3400.00,4100.00,5000.00,M,M,M,M,M,M,M,M,35.20,KRTS 140435Z AUTO 23008KT 10SM BKN034 BKN041 BKN050 05/00 A2996 RMK AO2,M
MEV,2023-03-14 04:35,-119.7500,38.9963,1441.42,44.60,30.20,56.74,160.00,9.00,0.00,29.96,M,10.00,M,FEW,SCT,BKN,M,3500.00,4300.00,6000.00,M,M,M,M,M,M,M,M,39.18,KMEV 140435Z AUTO 16009KT 10SM FEW035 SCT043 BKN060 07/M01 A2996 RMK AO2,M
BAM,2023-03-14 04:35,-116.8743,40.5990,1382.36,42.80,32.00,65.38,240.00,5.00,0.00,29.93,M,10.00,M,CLR,M,M,M,M,M,M,M,M,M,M,M,M,M,M,39.22,KBAM 140435Z AUTO 24005KT 10SM CLR 06/00 A2993 RMK AO1,M
HTH,2023-03-14 04:35,-118.6315,38.5448,1282.89,50.00,24.80,37.08,220.00,14.00,0.00,29.95,M,10.00,M,CLR,M,M,M,M,M,M,M,M,M,M,M,M,M,M,50.00,KHTH 140435Z AUTO 22014KT 10SM CLR 10/M04 A2995 RMK A01,M
P68,2023-03-14 04:53,-116.0056,39.6014,1993.00,35.00,26.10,69.41,200.00,5.00,0.00,29.97,1014.20,M,M,M,M,M,M,M,M,M,M,M,M,M,M,M,M,M,30.08,KP68 140453Z AUTO 20005KT 02/M03 A2997 RMK AO1 SLP142 T00171033,M
ELY,2023-03-14 04:53,-114.8453,39.2950,1909.00,34.00,28.00,78.43,200.00,13.00,0.00,30.02,1016.50,10.00,M,CLR,M,M,M,M,M,M,M,M,M,M,M,M,M,M,24.13,KELY 140453Z AUTO 20013KT 10SM CLR 01/M02 A3002 RMK AO2 SLP165 T00111022,M
VGT,2023-03-14 04:53,-115.1933,36.2111,667.00,64.00,28.90,26.50,170.00,5.00,0.00,29.97,1015.60,10.00,M,CLR,M,M,M,M,M,M,M,M,M,M,M,M,M,M,64.00,KVGT 140453Z AUTO 17005KT 10SM CLR 18/M02 A2997 RMK AO2 SLP156 T01781017,M
LOL,2023-03-14 04:53,-118.5701,40.0684,1192.43,46.00,30.00,53.37,220.00,9.00,0.00,29.92,1012.80,10.00,M,CLR,M,M,M,M,M,M,M,M,M,M,M,M,M,M,40.92,KLOL 140453Z AUTO 22009KT 10SM CLR 08/M01 A2992 RMK AO2 SLP128 T00781011,M
DRA,2023-03-14 04:53,-116.0278,36.6206,1009.00,56.00,24.10,29.00,M,M,0.00,29.98,1012.80,10.00,M,CLR,M,M,M,M,M,M,M,M,M,M,M,M,M,M,55.90,KDRA 140453Z AUTO 10SM CLR 13/M04 A2998 RMK AO2 SLP128 T01331044,M
BVU,2023-03-14 04:55,-114.8611,35.9475,671.00,59.00,33.80,38.56,10.00,3.00,0.00,29.99,M,10.00,M,CLR,M,M,M,M,M,M,M,M,M,M,M,M,M,M,59.00,KBVU 140455Z AUTO 01003KT 10SM CLR 15/01 A2999 RMK AO2,M
RNO,2023-03-14 04:55,-119.7711,39.4839,1341.00,48.00,30.00,49.49,320.00,6.00,0.00,29.94,1012.10,10.00,M,BKN,BKN,M,M,6000.00,21000.00,M,M,M,M,M,M,M,M,M,44.80,KRNO 140455Z 32006KT 10SM BKN060 BKN210 09/M01 A2994 RMK AO2 SLP121 T00891011,M
RTS,2023-03-14 04:55,-119.8764,39.6682,1539.00,41.00,32.00,70.08,240.00,6.00,0.00,29.97,M,10.00,11.00,SCT,SCT,M,M,3700.00,4400.00,M,M,M,M,M,M,M,M,M,36.37,KRTS 140455Z AUTO 24006G11KT 10SM SCT037 SCT044 05/M00 A2997 RMK AO2,M
MEV,2023-03-14 04:55,-119.7500,38.9963,1441.42,44.60,30.20,56.74,180.00,9.00,0.00,29.96,M,10.00,M,FEW,SCT,BKN,M,4400.00,4900.00,6500.00,M,M,M,M,M,M,M,M,39.18,KMEV 140455Z AUTO 18009KT 10SM FEW044 SCT049 BKN065 07/M01 A2996 RMK AO2,M
BAM,2023-03-14 04:55,-116.8743,40.5990,1382.36,42.80,33.80,70.28,200.00,4.00,0.00,29.93,M,10.00,M,CLR,M,M,M,M,M,M,M,M,M,M,M,M,M,M,40.03,KBAM 140455Z AUTO 20004KT 10SM CLR 06/01 A2993 RMK AO1,M
HTH,2023-03-14 04:55,-118.6315,38.5448,1282.89,50.00,24.80,37.08,160.00,14.00,0.00,29.96,M,10.00,M,CLR,M,M,M,M,M,M,M,M,M,M,M,M,M,M,50.00,KHTH 140455Z AUTO 16014KT 10SM CLR 10/M04 A2996 RMK A01,M
INS,2023-03-14 04:55,-115.6733,36.5872,955.00,55.00,23.20,28.96,110.00,6.00,0.00,29.99,1013.10,10.00,M,CLR,M,M,M,M,M,M,M,M,M,M,M,M,M,M,54.90,KINS 140455Z AUTO 11006KT 10SM CLR 13/M05 A2999 RMK AO2 SLP131 T01271049 $,M
LSV,2023-03-14 04:55,-115.0343,36.2362,570.00,62.40,32.20,32.05,0.00,0.00,0.00,29.94,1012.80,10.00,M,CLR,M,M,M,M,M,M,M,M,M,M,M,M,M,M,62.40,KLSV 140455Z AUTO 00000KT 10SM CLR 17/00 A2994 RMK AO2 SLP128 T01690001 $,M
TMT,2023-03-14 04:55,-117.1971,39.4643,1749.34,37.80,27.00,64.75,240.00,4.00,0.00,29.99,M,10.00,M,CLR,M,M,M,M,M,M,M,M,M,M,M,M,M,M,34.19,KTMT 140455Z AUTO 24004KT 10SM CLR 03/M03 A2999 RMK AO2 T00321028,M
WMC,2023-03-14 04:56,-117.8072,40.9019,1315.00,46.00,32.00,57.87,180.00,9.00,0.00,29.91,1011.60,10.00,M,OVC,M,M,M,9000.00,M,M,M,M,M,M,M,M,M,M,40.92,KWMC 140456Z AUTO 18009KT 10SM OVC090 08/00 A2991 RMK AO2 SLP116 T00780000,M
HND,2023-03-14 04:56,-115.1344,35.9729,742.79,58.00,30.90,35.69,170.00,7.00,0.00,30.01,1016.80,10.00,M,CLR,M,M,M,M,M,M,M,M,M,M,M,M,M,M,57.90,KHND 140456Z AUTO 17007KT 10SM CLR 14/M01 A3001 RMK AO2 SLP168 T01441006,M
TPH,2023-03-14 04:56,-117.0904,38.0505,1654.00,42.00,27.00,54.78,160.00,5.00,0.00,30.01,1014.50,10.00,M,CLR,M,M,M,M,M,M,M,M,M,M,M,M,M,M,38.39,KTPH 140456Z AUTO 16005KT 10SM CLR 06/M03 A3001 RMK AO2 SLP145 T00561028,M
LAS,2023-03-14 04:56,-115.1634,36.0719,663.00,63.00,30.00,28.70,190.00,4.00,0.00,29.99,1014.30,10.00,M,FEW,SCT,M,M,9000.00,25000.00,M,M,M,M,M,M,M,M,M,63.00,KLAS 140456Z 19004KT 10SM FEW090 SCT250 17/M01 A2999 RMK AO2 SLP143 T01721011,M
EKO,2023-03-14 04:56,-115.7860,40.8242,1367.00,35.00,30.00,81.78,100.00,5.05,M,29.95,1014.50,10.00,M,BKN,M,M,M,8999.00,M,M,M,M,M,M,M,M,M,M,29.91,METAR KEKO 140456Z 10005KT 10SM BKN090 02/M01 A2995 RMK AO2 SLP145 T00171011 TSNO FIBI,M
NFL,2023-03-14 04:56,-118.7010,39.4166,1199.00,51.00,28.00,40.63,230.00,13.00,0.00,29.92,1010.60,10.00,17.00,CLR,M,M,M,M,M,M,M,M,M,M,M,M,M,M,51.10,KNFL 140456Z 23013G17KT 10SM CLR 11/M02 A2992 RMK AO2 SLP106 T01061022,M
BVU,2023-03-14 05:15,-114.8611,35.9475,671.00,57.20,33.80,41.13,10.00,4.00,0.00,29.99,M,10.00,M,CLR,M,M,M,M,M,M,M,M,M,M,M,M,M,M,57.20,KBVU 140515Z AUTO 01004KT 10SM CLR 14/01 A2999 RMK AO2,M
RTS,2023-03-14 05:15,-119.8764,39.6682,1539.00,41.00,32.00,70.08,250.00,14.00,0.00,29.96,M,10.00,M,FEW,M,M,M,3700.00,M,M,M,M,M,M,M,M,M,M,32.76,KRTS 140515Z AUTO 25014KT 10SM FEW037 05/M00 A2996 RMK AO2,M
MEV,2023-03-14 05:15,-119.7500,38.9963,1441.42,44.60,30.20,56.74,170.00,11.00,0.00,29.95,M,10.00,18.00,FEW,FEW,BKN,M,3600.00,4900.00,5500.00,M,M,M,M,M,M,M,M,38.39,KMEV 140515Z AUTO 17011G18KT 10SM FEW036 FEW049 BKN055 07/M01 A2995 RMK AO2,M
BAM,2023-03-14 05:15,-116.8743,40.5990,1382.36,42.80,33.80,70.28,230.00,8.00,0.00,29.95,M,10.00,M,CLR,M,M,M,M,M,M,M,M,M,M,M,M,M,M,37.42,KBAM 140515Z AUTO 23008KT 10SM CLR 06/01 A2995 RMK AO1,M
HTH,2023-03-14 05:15,-118.6315,38.5448,1282.89,50.00,26.60,39.95,170.00,10.00,0.00,29.96,M,10.00,M,CLR,M,M,M,M,M,M,M,M,M,M,M,M,M,M,50.00,KHTH 140515Z AUTO 17010KT 10SM CLR 10/M03 A2996 RMK A01,M
TMT,2023-03-14 05:15,-117.1971,39.4643,1749.34,34.20,28.00,77.80,250.00,5.00,0.00,29.99,M,10.00,M,CLR,M,M,M,M,M,M,M,M,M,M,M,M,M,M,29.01,KTMT 140515Z AUTO 25005KT 10SM CLR 01/M02 A2999 RMK AO2 T00121022,M
BVU,2023-03-14 05:35,-114.8611,35.9475,671.00,57.20,30.20,35.57,310.00,3.00,0.00,29.98,M,10.00,M,CLR,M,M,M,M,M,M,M,M,M,M,M,M,M,M,57.20,KBVU 140535Z AUTO 31003KT 10SM CLR 14/M01 A2998 RMK AO2,M
RTS,2023-03-14 05:35,-119.8764,39.6682,1539.00,41.00,32.00,70.08,210.00,12.00,0.00,29.96,M,10.00,M,CLR,M,M,M,M,M,M,M,M,M,M,M,M,M,M,33.46,KRTS 140535Z AUTO 21012KT 10SM CLR 05/00 A2996 RMK AO2,M
MEV,2023-03-14 05:35,-119.7500,38.9963,1441.42,42.80,32.00,65.38,180.00,12.00,0.00,29.95,M,10.00,22.00,BKN,BKN,M,M,6000.00,7000.00,M,M,M,M,M,M,M,M,M,35.75,KMEV 140535Z AUTO 18012G22KT 10SM BKN060 BKN070 06/M00 A2995 RMK AO2,M
BAM,2023-03-14 05:35,-116.8743,40.5990,1382.36,42.80,33.80,70.28,240.00,8.00,0.00,29.94,M,10.00,M,CLR,M,M,M,M,M,M,M,M,M,M,M,M,M,M,37.42,KBAM 140535Z AUTO 24008KT 10SM CLR 06/01 A2994 RMK AO1,M
HTH,2023-03-14 05:35,-118.6315,38.5448,1282.89,50.00,24.80,37.08,150.00,6.00,0.00,29.96,M,10.00,15.00,CLR,M,M,M,M,M,M,M,M,M,M,M,M,M,M,50.00,KHTH 140535Z AUTO 15006G15KT 10SM CLR 10/M04 A2996 RMK A01,M
TMT,2023-03-14 05:35,-117.1971,39.4643,1749.34,34.30,28.40,78.77,0.00,0.00,0.00,29.98,M,10.00,M,CLR,M,M,M,M,M,M,M,M,M,M,M,M,M,M,34.30,KTMT 140535Z AUTO 00000KT 10SM CLR 01/M02 A2998 RMK AO2 T00131020,M
P68,2023-03-14 05:53,-116.0056,39.6014,1993.00,34.00,25.00,69.28,200.00,5.00,0.00,29.97,1013.20,M,M,M,M,M,M,M,M,M,M,M,M,M,M,M,M,M,28.77,KP68 140553Z AUTO 20005KT 01/M04 A2997 RMK AO1 SLP132 T00111039 10083 21006 50003,M
DRA,2023-03-14 05:53,-116.0278,36.6206,1009.00,53.00,26.10,34.90,110.00,9.00,0.00,29.97,1012.40,10.00,M,CLR,M,M,M,M,M,M,M,M,M,M,M,M,M,M,53.10,KDRA 140553Z AUTO 11009KT 10SM CLR 12/M03 A2997 RMK AO2 SLP124 T01171033 10194 20117 50002,M
ELY,2023-03-14 05:53,-114.8453,39.2950,1909.00,36.00,28.00,72.43,200.00,13.00,0.00,30.03,1016.20,10.00,M,FEW,M,M,M,7500.00,M,M,M,M,M,M,M,M,M,M,26.69,KELY 140553Z AUTO 20013KT 10SM FEW075 02/M02 A3003 RMK AO2 SLP162 T00221022 10061 21006 53003,M
VGT,2023-03-14 05:53,-115.1933,36.2111,667.00,62.00,28.90,28.33,190.00,5.00,0.00,29.96,1015.30,10.00,M,CLR,M,M,M,M,M,M,M,M,M,M,M,M,M,M,62.10,KVGT 140553Z AUTO 19005KT 10SM CLR 17/M02 A2996 RMK AO2 SLP153 T01671017 10222 20167 50005,M
LOL,2023-03-14 05:53,-118.5701,40.0684,1192.43,47.00,30.90,53.50,240.00,13.00,0.00,29.91,1012.40,10.00,M,OVC,M,M,M,8000.00,M,M,M,M,M,M,M,M,M,M,40.66,KLOL 140553Z AUTO 24013KT 10SM OVC080 08/M01 A2991 RMK AO2 SLP124 T00831006 10133 20072 50006,M
BVU,2023-03-14 05:55,-114.8611,35.9475,671.00,57.20,30.20,35.57,330.00,3.00,0.00,29.98,M,10.00,M,CLR,M,M,M,M,M,M,M,M,M,M,M,M,M,M,57.20,KBVU 140555Z AUTO 33003KT 10SM CLR 14/M01 A2998 RMK AO2,M
RTS,2023-03-14 05:55,-119.8764,39.6682,1539.00,41.00,32.00,70.08,180.00,11.00,0.00,29.96,M,10.00,M,CLR,M,M,M,M,M,M,M,M,M,M,M,M,M,M,33.84,KRTS 140555Z AUTO 18011KT 10SM CLR 05/M00 A2996 RMK AO2,M
MEV,2023-03-14 05:55,-119.7500,38.9963,1441.42,42.80,32.00,65.38,180.00,12.00,0.00,29.94,M,10.00,M,OVC,M,M,M,6000.00,M,M,M,M,M,M,M,M,M,M,35.75,KMEV 140555Z AUTO 18012KT 10SM OVC060 06/M00 A2994 RMK AO2,M
BAM,2023-03-14 05:55,-116.8743,40.5990,1382.36,42.80,33.80,70.28,240.00,5.00,0.00,29.93,M,10.00,M,CLR,M,M,M,M,M,M,M,M,M,M,M,M,M,M,39.22,KBAM 140555Z AUTO 24005KT 10SM CLR 06/01 A2993 RMK AO1,M
HTH,2023-03-14 05:55,-118.6315,38.5448,1282.89,50.00,24.80,37.08,150.00,10.00,0.00,29.95,M,10.00,M,BKN,M,M,M,9000.00,M,M,M,M,M,M,M,M,M,M,50.00,KHTH 140555Z AUTO 15010KT 10SM BKN090 10/M04 A2995 RMK A01,M
TMT,2023-03-14 05:55,-117.1971,39.4643,1749.34,34.70,28.00,76.27,310.00,3.00,0.00,29.98,M,10.00,M,CLR,M,M,M,M,M,M,M,M,M,M,M,M,M,M,31.78,KTMT 140555Z AUTO 31003KT 10SM CLR 02/M02 A2998 RMK AO2 T00151022 10095 20008,M
INS,2023-03-14 05:55,-115.6733,36.5872,955.00,53.40,24.30,32.03,0.00,0.00,0.00,29.98,1012.80,10.00,M,CLR,M,M,M,M,M,M,M,M,M,M,M,M,M,M,53.40,KINS 140555Z AUTO 00000KT 10SM CLR 12/M04 A2998 RMK AO2 SLP128 T01191043 10197 20118 53003 $,M
LSV,2023-03-14 05:55,-115.0343,36.2362,570.00,59.20,31.50,34.90,0.00,0.00,0.00,29.94,1012.80,10.00,M,CLR,M,M,M,M,M,M,M,M,M,M,M,M,M,M,59.20,KLSV 140555Z AUTO 00000KT 10SM CLR 15/M00 A2994 RMK AO2 SLP128 T01511003 10234 20151 51007 $,M
RNO,2023-03-14 05:55,-119.7711,39.4839,1341.00,47.00,32.00,55.94,350.00,5.00,0.00,29.92,1011.50,10.00,M,BKN,M,M,M,6000.00,M,M,M,M,M,M,M,M,M,M,44.09,KRNO 140555Z 35005KT 10SM BKN060 08/00 A2992 RMK AO2 SLP115 T00830000 10122 20083 58000,M
NFL,2023-03-14 05:56,-118.7010,39.4166,1199.00,50.00,28.90,43.92,210.00,9.00,0.00,29.93,1010.90,10.00,M,SCT,SCT,M,M,6000.00,10000.00,M,M,M,M,M,M,M,M,M,50.00,KNFL 140556Z 21009KT 10SM SCT060 SCT100 10/M02 A2993 RMK AO2 SLP109 T01001017 10156 20083 51007,M
HND,2023-03-14 05:56,-115.1344,35.9729,742.79,57.00,30.00,35.54,180.00,6.00,0.00,30.00,1016.70,10.00,M,CLR,M,M,M,M,M,M,M,M,M,M,M,M,M,M,57.00,KHND 140556Z AUTO 18006KT 10SM CLR 14/M01 A3000 RMK AO2 SLP167 T01391011 10217 20139 50008,M
LAS,2023-03-14 05:56,-115.1634,36.0719,663.00,61.00,28.00,28.38,190.00,5.00,0.00,29.98,1014.10,10.00,M,SCT,M,M,M,25000.00,M,M,M,M,M,M,M,M,M,M,61.00,KLAS 140556Z 19005KT 10SM SCT250 16/M02 A2998 RMK AO2 SLP141 T01611022 10217 20161 50006,M
EKO,2023-03-14 05:56,-115.7860,40.8242,1367.00,36.00,30.00,78.60,0.00,0.00,M,29.95,1014.20,10.00,M,FEW,FEW,M,M,7500.00,9501.00,M,M,M,M,M,M,M,M,M,36.00,METAR KEKO 140556Z 00000KT 10SM FEW075 FEW095 02/M01 A2995 RMK AO2 SLP142 T00221011 10083 20017 53004 TSNO FIBI,M
WMC,2023-03-14 05:56,-117.8072,40.9019,1315.00,47.00,30.90,53.50,190.00,7.00,0.00,29.90,1010.90,10.00,M,OVC,M,M,M,9000.00,M,M,M,M,M,M,M,M,M,M,42.94,KWMC 140556Z AUTO 19007KT 10SM OVC090 08/M01 A2990 RMK AO2 SLP109 T00831006 10122 20072 50007,M
TPH,2023-03-14 05:56,-117.0904,38.0505,1654.00,38.00,27.00,64.49,90.00,3.00,0.00,30.00,1014.20,10.00,M,CLR,M,M,M,M,M,M,M,M,M,M,M,M,M,M,35.43,KTPH 140556Z AUTO 09003KT 10SM CLR 03/M03 A3000 RMK AO2 SLP142 T00331028 10139 20033 50002,M
RTS,2023-03-14 06:15,-119.8764,39.6682,1539.00,42.80,32.00,65.38,0.00,0.00,0.00,29.95,M,10.00,M,FEW,SCT,BKN,M,3000.00,3800.00,5500.00,M,M,M,M,M,M,M,M,42.80,KRTS 140615Z AUTO 00000KT 10SM FEW030 SCT038 BKN055 06/M00 A2995 RMK AO2,M
MEV,2023-03-14 06:15,-119.7500,38.9963,1441.42,42.80,30.20,60.79,180.00,6.00,0.00,29.94,M,10.00,M,BKN,M,M,M,5500.00,M,M,M,M,M,M,M,M,M,M,38.54,KMEV 140615Z AUTO 18006KT 10SM BKN055 06/M01 A2994 RMK AO2,M
BAM,2023-03-14 06:15,-116.8743,40.5990,1382.36,41.00,33.80,75.33,240.00,5.00,0.00,29.93,M,10.00,M,CLR,M,M,M,M,M,M,M,M,M,M,M,M,M,M,37.08,KBAM 140615Z AUTO 24005KT 10SM CLR 05/01 A2993 RMK AO1,M
HTH,2023-03-14 06:15,-118.6315,38.5448,1282.89,50.00,24.80,37.08,160.00,11.00,0.00,29.95,M,10.00,M,BKN,M,M,M,9000.00,M,M,M,M,M,M,M,M,M,M,50.00,KHTH 140615Z AUTO 16011KT 10SM BKN090 10/M04 A2995 RMK A01,M
TMT,2023-03-14 06:15,-117.1971,39.4643,1749.34,34.70,27.90,75.95,290.00,3.00,0.00,29.98,M,10.00,M,CLR,M,M,M,M,M,M,M,M,M,M,M,M,M,M,31.78,KTMT 140615Z AUTO 29003KT 10SM CLR 02/M02 A2998 RMK AO2 T00151023,M
HTH,2023-03-14 06:30,-118.6315,38.5448,1282.89,50.00,23.00,34.39,190.00,9.00,0.00,29.94,M,10.00,M,SCT,M,M,M,9000.00,M,M,M,M,M,M,M,M,M,M,50.00,KHTH 140630Z AUTO 19009KT 10SM SCT090 10/M05 A2994 RMK A01,M
BVU,2023-03-14 06:35,-114.8611,35.9475,671.00,57.20,30.20,35.57,0.00,0.00,0.00,29.98,M,10.00,M,CLR,M,M,M,M,M,M,M,M,M,M,M,M,M,M,57.20,KBVU 140635Z AUTO 00000KT 10SM CLR 14/M01 A2998 RMK AO2,M
RTS,2023-03-14 06:35,-119.8764,39.6682,1539.00,42.80,32.00,65.38,M,6.00,0.00,29.96,M,10.00,M,BKN,OVC,M,M,3100.00,3700.00,M,M,M,M,M,M,M,M,M,38.54,KRTS 140635Z AUTO VRB06KT 10SM BKN031 OVC037 06/M00 A2996 RMK AO2,M
MEV,2023-03-14 06:35,-119.7500,38.9963,1441.42,39.20,30.20,69.88,150.00,6.00,0.00,29.94,M,10.00,M,BKN,M,M,M,6000.00,M,M,M,M,M,M,M,M,M,M,34.20,KMEV 140635Z AUTO 15006KT 10SM BKN060 04/M01 A2994 RMK AO2,M
TMT,2023-03-14 06:35,-117.1971,39.4643,1749.34,33.80,27.50,77.45,0.00,0.00,0.00,29.98,M,10.00,M,CLR,M,M,M,M,M,M,M,M,M,M,M,M,M,M,33.80,KTMT 140635Z AUTO 00000KT 10SM CLR 01/M02 A2998 RMK AO2 T00101025,M
BAM,2023-03-14 06:35,-116.8743,40.5990,1382.36,41.00,33.80,75.33,0.00,0.00,0.00,29.93,M,10.00,M,CLR,M,M,M,M,M,M,M,M,M,M,M,M,M,M,41.00,KBAM 140635Z AUTO 00000KT 10SM CLR 05/01 A2993 RMK AO1,M
P68,2023-03-14 06:53,-116.0056,39.6014,1993.00,30.90,26.10,82.15,200.00,5.00,0.00,29.97,1013.50,M,M,M,M,M,M,M,M,M,M,M,M,M,M,M,M,M,25.09,KP68 140653Z AUTO 20005KT M01/M03 A2997 RMK AO1 SLP135 T10061033,M
DRA,2023-03-14 06:53,-116.0278,36.6206,1009.00,50.00,27.00,40.62,90.00,3.00,0.00,29.96,1012.20,10.00,M,CLR,M,M,M,M,M,M,M,M,M,M,M,M,M,M,50.00,KDRA 140653Z AUTO 09003KT 10SM CLR 10/M03 A2996 RMK AO2 SLP122 T01001028,M
ELY,2023-03-14 06:53,-114.8453,39.2950,1909.00,34.00,27.00,75.26,190.00,9.00,0.00,30.00,1015.20,10.00,M,CLR,M,M,M,M,M,M,M,M,M,M,M,M,M,M,26.00,KELY 140653Z AUTO 19009KT 10SM CLR 01/M03 A3000 RMK AO2 SLP152 T00111028,M
VGT,2023-03-14 06:53,-115.1933,36.2111,667.00,61.00,33.00,34.91,0.00,0.00,0.00,29.96,1015.10,10.00,M,CLR,M,M,M,M,M,M,M,M,M,M,M,M,M,M,61.00,KVGT 140653Z AUTO 00000KT 10SM CLR 16/01 A2996 RMK AO2 SLP151 T01610006,M
LOL,2023-03-14 06:53,-118.5701,40.0684,1192.43,44.00,30.00,57.37,0.00,0.00,0.00,29.91,1012.30,10.00,M,SCT,M,M,M,8500.00,M,M,M,M,M,M,M,M,M,M,44.10,KLOL 140653Z AUTO 00000KT 10SM SCT085 07/M01 A2991 RMK AO2 SLP123 T00671011,M
BVU,2023-03-14 06:55,-114.8611,35.9475,671.00,57.20,30.20,35.57,0.00,0.00,0.00,29.97,M,10.00,M,CLR,M,M,M,M,M,M,M,M,M,M,M,M,M,M,57.20,KBVU 140655Z AUTO 00000KT 10SM CLR 14/M01 A2997 RMK AO2,M
LSV,2023-03-14 06:55,-115.0343,36.2362,570.00,56.30,30.40,37.05,0.00,0.00,0.00,29.94,1012.80,10.00,M,CLR,M,M,M,M,M,M,M,M,M,M,M,M,M,M,56.30,KLSV 140655Z AUTO 00000KT 10SM CLR 14/M01 A2994 RMK AO2 SLP128 T01351009 $,M
RTS,2023-03-14 06:55,-119.8764,39.6682,1539.00,42.80,32.00,65.38,180.00,7.00,0.00,29.95,M,10.00,M,BKN,OVC,M,M,3300.00,3900.00,M,M,M,M,M,M,M,M,M,37.94,KRTS 140655Z AUTO 18007KT 10SM BKN033 OVC039 06/M00 A2995 RMK AO2,M
MEV,2023-03-14 06:55,-119.7500,38.9963,1441.42,42.80,30.20,60.79,120.00,4.00,0.00,29.94,M,10.00,M,OVC,M,M,M,6000.00,M,M,M,M,M,M,M,M,M,M,40.03,KMEV 140655Z AUTO 12004KT 10SM OVC060 06/M01 A2994 RMK AO2,M
BAM,2023-03-14 06:55,-116.8743,40.5990,1382.36,41.00,33.80,75.33,220.00,4.00,0.00,29.93,M,10.00,M,CLR,M,M,M,M,M,M,M,M,M,M,M,M,M,M,37.93,KBAM 140655Z AUTO 22004KT 10SM CLR 05/01 A2993 RMK AO1,M
HTH,2023-03-14 06:55,-118.6315,38.5448,1282.89,46.40,28.40,49.24,150.00,8.00,0.00,29.95,M,10.00,M,CLR,M,M,M,M,M,M,M,M,M,M,M,M,M,M,41.85,KHTH 140655Z AUTO 15008KT 10SM CLR 08/M02 A2995 RMK A01,M
TMT,2023-03-14 06:55,-117.1971,39.4643,1749.34,33.00,27.10,78.35,0.00,0.00,0.00,29.98,M,10.00,M,CLR,M,M,M,M,M,M,M,M,M,M,M,M,M,M,33.10,KTMT 140655Z AUTO 00000KT 10SM CLR 01/M03 A2998 RMK AO2 T00061027,M
RNO,2023-03-14 06:55,-119.7711,39.4839,1341.00,46.00,33.00,60.49,260.00,4.00,0.00,29.93,1011.60,10.00,M,BKN,BKN,M,M,4700.00,6000.00,M,M,M,M,M,M,M,M,M,43.77,KRNO 140655Z 26004KT 10SM BKN047 BKN060 08/01 A2993 RMK AO2 SLP116 T00780006,M
INS,2023-03-14 06:55,-115.6733,36.5872,955.00,49.00,23.40,36.16,310.00,3.00,0.00,29.96,1012.30,10.00,M,CLR,M,M,M,M,M,M,M,M,M,M,M,M,M,M,48.24,KINS 140655Z AUTO 31003KT 10SM CLR 10/M05 A2996 RMK AO2 SLP123 T00951048 $,M
WMC,2023-03-14 06:56,-117.8072,40.9019,1315.00,46.00,30.90,55.36,190.00,9.00,0.00,29.89,1010.40,10.00,M,BKN,M,M,M,7500.00,M,M,M,M,M,M,M,M,M,M,40.92,KWMC 140656Z AUTO 19009KT 10SM BKN075 08/M01 A2989 RMK AO2 SLP104 T00781006,M
NFL,2023-03-14 06:56,-118.7010,39.4166,1199.00,46.00,30.00,53.37,230.00,8.00,0.00,29.93,1010.70,10.00,M,CLR,M,M,M,M,M,M,M,M,M,M,M,M,M,M,41.36,KNFL 140656Z AUTO 23008KT 10SM CLR 08/M01 A2993 RMK AO2 SLP107 T00781011,M
TPH,2023-03-14 06:56,-117.0904,38.0505,1654.00,37.00,28.00,69.63,50.00,3.00,0.00,30.00,1013.90,10.00,M,CLR,M,M,M,M,M,M,M,M,M,M,M,M,M,M,34.40,KTPH 140656Z AUTO 05003KT 10SM CLR 03/M02 A3000 RMK AO2 SLP139 T00281022,M
EKO,2023-03-14 06:56,-115.7860,40.8242,1367.00,34.00,29.00,81.71,90.00,7.00,M,29.93,1013.30,10.00,M,CLR,M,M,M,M,M,M,M,M,M,M,M,M,M,M,27.22,METAR KEKO 140656Z 09007KT 10SM CLR 01/M02 A2993 RMK AO2 SLP133 T00111017 TSNO FIBI,M
HND,2023-03-14 06:56,-115.1344,35.9729,742.79,58.00,34.00,40.43,160.00,7.00,0.00,30.00,1016.40,10.00,M,CLR,M,M,M,M,M,M,M,M,M,M,M,M,M,M,57.90,KHND 140656Z AUTO 16007KT 10SM CLR 14/01 A3000 RMK AO2 SLP164 T01440011 402220100,M
LAS,2023-03-14 06:56,-115.1634,36.0719,663.00,60.00,33.00,36.05,200.00,7.00,0.00,29.97,1013.80,10.00,M,SCT,M,M,M,25000.00,M,M,M,M,M,M,M,M,M,M,60.10,KLAS 140656Z 20007KT 10SM SCT250 16/01 A2997 RMK AO2 SLP138 T01560006,M
BVU,2023-03-14 07:15,-114.8611,35.9475,671.00,55.40,32.00,40.84,0.00,0.00,0.00,29.98,M,10.00,M,CLR,M,M,M,M,M,M,M,M,M,M,M,M,M,M,55.40,KBVU 140715Z AUTO 00000KT 10SM CLR 13/M00 A2998 RMK AO2,M
RTS,2023-03-14 07:15,-119.8764,39.6682,1539.00,42.80,30.20,60.79,210.00,5.00,0.00,29.95,M,10.00,13.00,BKN,OVC,M,M,3800.00,4400.00,M,M,M,M,M,M,M,M,M,39.22,KRTS 140715Z AUTO 21005G13KT 10SM BKN038 OVC044 06/M01 A2995 RMK AO2,M
MEV,2023-03-14 07:15,-119.7500,38.9963,1441.42,41.00,30.20,65.16,0.00,0.00,0.00,29.93,M,10.00,M,OVC,M,M,M,6000.00,M,M,M,M,M,M,M,M,M,M,41.00,KMEV 140715Z AUTO 00000KT 10SM OVC060 05/M01 A2993 RMK AO2,M
BAM,2023-03-14 07:15,-116.8743,40.5990,1382.36,41.00,33.80,75.33,250.00,6.00,0.00,29.93,M,10.00,M,CLR,M,M,M,M,M,M,M,M,M,M,M,M,M,M,36.37,KBAM 140715Z AUTO 25006KT 10SM CLR 05/01 A2993 RMK AO1,M
HTH,2023-03-14 07:15,-118.6315,38.5448,1282.89,48.20,26.60,42.73,140.00,7.00,0.00,29.94,M,10.00,M,CLR,M,M,M,M,M,M,M,M,M,M,M,M,M,M,44.53,KHTH 140715Z AUTO 14007KT 10SM CLR 09/M03 A2994 RMK A01,M
TMT,2023-03-14 07:15,-117.1971,39.4643,1749.34,34.00,26.80,74.65,0.00,0.00,0.00,29.97,M,10.00,M,CLR,M,M,M,M,M,M,M,M,M,M,M,M,M,M,34.00,KTMT 140715Z AUTO 00000KT 10SM CLR 01/M03 A2997 RMK AO2 T00111029,M
BVU,2023-03-14 07:35,-114.8611,35.9475,671.00,57.20,32.00,38.26,0.00,0.00,0.00,29.98,M,10.00,M,CLR,M,M,M,M,M,M,M,M,M,M,M,M,M,M,57.20,KBVU 140735Z AUTO 00000KT 10SM CLR 14/M00 A2998 RMK AO2,M
RTS,2023-03-14 07:35,-119.8764,39.6682,1539.00,42.80,32.00,65.38,170.00,9.00,0.00,29.94,M,10.00,M,OVC,M,M,M,3600.00,M,M,M,M,M,M,M,M,M,M,36.94,KRTS 140735Z AUTO 17009KT 10SM OVC036 06/M00 A2994 RMK AO2,M
MEV,2023-03-14 07:35,-119.7500,38.9963,1441.42,39.20,30.20,69.88,70.00,3.00,0.00,29.92,M,10.00,M,OVC,M,M,M,6000.00,M,M,M,M,M,M,M,M,M,M,36.92,KMEV 140735Z AUTO 07003KT 10SM OVC060 04/M01 A2992 RMK AO2,M
BAM,2023-03-14 07:35,-116.8743,40.5990,1382.36,41.00,33.80,75.33,130.00,3.00,0.00,29.92,M,10.00,M,SCT,M,M,M,12000.00,M,M,M,M,M,M,M,M,M,M,38.98,KBAM 140735Z AUTO 13003KT 10SM SCT120 05/01 A2992 RMK AO1,M
HTH,2023-03-14 07:35,-118.6315,38.5448,1282.89,46.40,26.60,45.73,140.00,9.00,0.00,29.93,M,10.00,M,CLR,M,M,M,M,M,M,M,M,M,M,M,M,M,M,41.42,KHTH 140735Z AUTO 14009KT 10SM CLR 08/M03 A2993 RMK A01,M
TMT,2023-03-14 07:35,-117.1971,39.4643,1749.34,35.00,26.40,70.27,180.00,3.00,0.00,29.96,M,10.00,M,CLR,M,M,M,M,M,M,M,M,M,M,M,M,M,M,32.23,KTMT 140735Z AUTO 18003KT 10SM CLR 02/M03 A2996 RMK AO2 T00171031,M
P68,2023-03-14 07:53,-116.0056,39.6014,1993.00,32.00,25.00,75.07,220.00,6.00,0.00,29.95,1012.90,M,M,M,M,M,M,M,M,M,M,M,M,M,M,M,M,M,25.53,KP68 140753Z AUTO 22006KT 00/M04 A2995 RMK AO1 SLP129 T00001039 400891044,M
DRA,2023-03-14 07:53,-116.0278,36.6206,1009.00,50.00,27.00,40.62,60.00,3.00,0.00,29.96,1012.10,10.00,M,CLR,M,M,M,M,M,M,M,M,M,M,M,M,M,M,50.00,KDRA 140753Z AUTO 06003KT 10SM CLR 10/M03 A2996 RMK AO2 SLP121 T01001028 401940044,M
ELY,2023-03-14 07:53,-114.8453,39.2950,1909.00,30.90,25.00,78.48,190.00,12.00,0.00,30.00,1015.10,10.00,M,CLR,M,M,M,M,M,M,M,M,M,M,M,M,M,M,20.60,KELY 140753Z AUTO 19012KT 10SM CLR M01/M04 A3000 RMK AO2 SLP151 T10061039 400611039,M
LOL,2023-03-14 07:53,-118.5701,40.0684,1192.43,42.00,30.00,61.94,170.00,5.00,0.00,29.90,1012.00,10.00,M,CLR,M,M,M,M,M,M,M,M,M,M,M,M,M,M,38.39,KLOL 140753Z AUTO 17005KT 10SM CLR 06/M01 A2990 RMK AO2 SLP120 T00561011 401500006,M
VGT,2023-03-14 07:53,-115.1933,36.2111,667.00,61.00,35.00,37.81,210.00,8.00,0.00,29.95,1014.70,10.00,M,CLR,M,M,M,M,M,M,M,M,M,M,M,M,M,M,61.00,KVGT 140753Z AUTO 21008KT 10SM CLR 16/02 A2995 RMK AO2 SLP147 T01610017 402220111,M
BVU,2023-03-14 07:55,-114.8611,35.9475,671.00,55.40,32.00,40.84,0.00,0.00,0.00,29.97,M,10.00,M,CLR,M,M,M,M,M,M,M,M,M,M,M,M,M,M,55.40,KBVU 140755Z AUTO 00000KT 10SM CLR 13/M00 A2997 RMK AO2,M
INS,2023-03-14 07:55,-115.6733,36.5872,955.00,46.40,23.40,40.02,0.00,0.00,0.00,29.97,1012.60,10.00,M,CLR,M,M,M,M,M,M,M,M,M,M,M,M,M,M,46.40,KINS 140755Z AUTO 00000KT 10SM CLR 08/M05 A2997 RMK AO2 SLP126 T00801048 402000048 $,M
RTS,2023-03-14 07:55,-119.8764,39.6682,1539.00,42.80,32.00,65.38,180.00,6.00,0.00,29.94,M,10.00,12.00,OVC,M,M,M,3400.00,M,M,M,M,M,M,M,M,M,M,38.54,KRTS 140755Z AUTO 18006G12KT 10SM OVC034 06/M00 A2994 RMK AO2,M
MEV,2023-03-14 07:55,-119.7500,38.9963,1441.42,41.00,30.20,65.16,0.00,0.00,0.00,29.92,M,10.00,M,FEW,OVC,M,M,4600.00,6000.00,M,M,M,M,M,M,M,M,M,41.00,KMEV 140755Z AUTO 00000KT 10SM FEW046 OVC060 05/M01 A2992 RMK AO2,M
BAM,2023-03-14 07:55,-116.8743,40.5990,1382.36,41.00,33.80,75.33,200.00,3.00,0.00,29.92,M,10.00,M,CLR,M,M,M,M,M,M,M,M,M,M,M,M,M,M,38.98,KBAM 140755Z AUTO 20003KT 10SM CLR 05/01 A2992 RMK AO1,M
HTH,2023-03-14 07:55,-118.6315,38.5448,1282.89,42.80,30.20,60.79,0.00,0.00,0.00,29.93,M,10.00,M,CLR,M,M,M,M,M,M,M,M,M,M,M,M,M,M,42.80,KHTH 140755Z AUTO 00000KT 10SM CLR 06/M01 A2993 RMK A01,M
TMT,2023-03-14 07:55,-117.1971,39.4643,1749.34,35.40,26.60,70.02,200.00,4.00,0.00,29.96,M,10.00,M,CLR,M,M,M,M,M,M,M,M,M,M,M,M,M,M,31.39,KTMT 140755Z AUTO 20004KT 10SM CLR 02/M03 A2996 RMK AO2 T00191030 401021016,M
RNO,2023-03-14 07:55,-119.7711,39.4839,1341.00,46.00,33.00,60.49,290.00,3.00,0.00,29.92,1010.90,10.00,M,BKN,BKN,M,M,4200.00,6000.00,M,M,M,M,M,M,M,M,M,44.69,KRNO 140755Z 29003KT 10SM BKN042 BKN060 08/01 A2992 RMK AO2 SLP109 T00780006 401440044,M
LSV,2023-03-14 07:55,-115.0343,36.2362,570.00,60.00,34.20,37.94,200.00,9.00,0.00,29.93,1012.20,10.00,M,CLR,M,M,M,M,M,M,M,M,M,M,M,M,M,M,59.90,KLSV 140755Z AUTO 20009KT 10SM CLR 16/01 A2993 RMK AO2 SLP122 T01550012 402590097 $,M
WMC,2023-03-14 07:56,-117.8072,40.9019,1315.00,45.00,30.00,55.43,210.00,11.00,0.00,29.89,1010.50,10.00,M,CLR,M,M,M,M,M,M,M,M,M,M,M,M,M,M,38.89,KWMC 140756Z AUTO 21011KT 10SM CLR 07/M01 A2989 RMK AO2 SLP105 T00721011 401330044,M
TPH,2023-03-14 07:56,-117.0904,38.0505,1654.00,34.00,27.00,75.26,360.00,4.00,0.00,30.00,1014.20,10.00,M,CLR,M,M,M,M,M,M,M,M,M,M,M,M,M,M,29.76,KTPH 140756Z AUTO 36004KT 10SM CLR 01/M03 A3000 RMK AO2 SLP142 T00111028 401440000,M
LAS,2023-03-14 07:56,-115.1634,36.0719,663.00,61.00,34.00,36.19,200.00,5.00,0.00,29.98,1013.70,10.00,M,BKN,M,M,M,25000.00,M,M,M,M,M,M,M,M,M,M,61.00,KLAS 140756Z 20005KT 10SM BKN250 16/01 A2998 RMK AO2 SLP137 T01610011 402220111,M
EKO,2023-03-14 07:56,-115.7860,40.8242,1367.00,34.00,29.00,81.71,70.00,4.08,M,29.92,1012.60,10.00,M,CLR,M,M,M,M,M,M,M,M,M,M,M,M,M,M,29.67,METAR KEKO 140756Z 07004KT 10SM CLR 01/M02 A2992 RMK AO2 SLP126 T00111017 401000000 TSNO FIBI,M
HND,2023-03-14 07:56,-115.1344,35.9729,742.79,57.00,35.00,43.63,220.00,8.00,0.00,29.99,1016.20,10.00,M,CLR,M,M,M,M,M,M,M,M,M,M,M,M,M,M,57.00,KHND 140756Z AUTO 22008KT 10SM CLR 14/02 A2999 RMK AO2 SLP162 T01390017,M
NFL,2023-03-14 07:56,-118.7010,39.4166,1199.00,42.00,28.90,59.22,130.00,6.00,0.00,29.91,1010.30,10.00,M,CLR,M,M,M,M,M,M,M,M,M,M,M,M,M,M,37.69,KNFL 140756Z AUTO 13006KT 10SM CLR 06/M02 A2991 RMK AO2 SLP103 T00561017 401610006,M
BVU,2023-03-14 08:15,-114.8611,35.9475,671.00,55.40,32.00,40.84,330.00,3.00,0.00,29.98,M,10.00,M,CLR,M,M,M,M,M,M,M,M,M,M,M,M,M,M,55.40,KBVU 140815Z AUTO 33003KT 10SM CLR 13/M00 A2998 RMK AO2,M
RTS,2023-03-14 08:15,-119.8764,39.6682,1539.00,42.80,30.20,60.79,140.00,6.00,0.00,29.93,M,10.00,M,OVC,M,M,M,3400.00,M,M,M,M,M,M,M,M,M,M,38.54,KRTS 140815Z AUTO 14006KT 10SM OVC034 06/M01 A2993 RMK AO2,M
MEV,2023-03-14 08:15,-119.7500,38.9963,1441.42,42.80,30.20,60.79,0.00,0.00,0.00,29.91,M,10.00,M,FEW,SCT,OVC,M,3800.00,5000.00,6000.00,M,M,M,M,M,M,M,M,42.80,KMEV 140815Z AUTO 00000KT 10SM FEW038 SCT050 OVC060 06/M01 A2991 RMK AO2,M
BAM,2023-03-14 08:15,-116.8743,40.5990,1382.36,39.20,33.80,80.79,230.00,5.00,0.00,29.92,M,10.00,M,CLR,M,M,M,M,M,M,M,M,M,M,M,M,M,M,34.95,KBAM 140815Z AUTO 23005KT 10SM CLR 04/01 A2992 RMK AO1,M
HTH,2023-03-14 08:15,-118.6315,38.5448,1282.89,44.60,28.40,52.72,0.00,0.00,0.00,29.92,M,10.00,M,CLR,M,M,M,M,M,M,M,M,M,M,M,M,M,M,44.60,KHTH 140815Z AUTO 00000KT 10SM CLR 07/M02 A2992 RMK A01,M
TMT,2023-03-14 08:15,-117.1971,39.4643,1749.34,32.20,27.10,81.23,0.00,0.00,0.00,29.96,M,10.00,M,CLR,M,M,M,M,M,M,M,M,M,M,M,M,M,M,32.20,KTMT 140815Z AUTO 00000KT 10SM CLR 00/M03 A2996 RMK AO2 T00011027,M
BVU,2023-03-14 08:35,-114.8611,35.9475,671.00,53.60,33.80,46.88,0.00,0.00,0.00,29.98,M,10.00,M,CLR,M,M,M,M,M,M,M,M,M,M,M,M,M,M,53.60,KBVU 140835Z AUTO 00000KT 10SM CLR 12/01 A2998 RMK AO2,M
RTS,2023-03-14 08:35,-119.8764,39.6682,1539.00,42.80,30.20,60.79,200.00,7.00,0.00,29.92,M,10.00,M,BKN,OVC,M,M,3500.00,4600.00,M,M,M,M,M,M,M,M,M,37.94,KRTS 140835Z AUTO 20007KT 10SM BKN035 OVC046 06/M01 A2992 RMK AO2,M
MEV,2023-03-14 08:35,-119.7500,38.9963,1441.42,44.60,30.20,56.74,130.00,4.00,0.00,29.90,M,10.00,M,OVC,M,M,M,6000.00,M,M,M,M,M,M,M,M,M,M,42.13,KMEV 140835Z AUTO 13004KT 10SM OVC060 07/M01 A2990 RMK AO2,M
BAM,2023-03-14 08:35,-116.8743,40.5990,1382.36,37.40,33.80,86.69,0.00,0.00,0.00,29.93,M,10.00,M,SCT,M,M,M,12000.00,M,M,M,M,M,M,M,M,M,M,37.40,KBAM 140835Z AUTO 00000KT 10SM SCT120 03/01 A2993 RMK AO1,M
HTH,2023-03-14 08:35,-118.6315,38.5448,1282.89,44.60,26.60,48.96,0.00,0.00,0.00,29.92,M,10.00,M,CLR,M,M,M,M,M,M,M,M,M,M,M,M,M,M,44.60,KHTH 140835Z AUTO 00000KT 10SM CLR 07/M03 A2992 RMK A01,M
TMT,2023-03-14 08:35,-117.1971,39.4643,1749.34,32.00,27.00,81.55,160.00,4.00,0.00,29.96,M,10.00,M,CLR,M,M,M,M,M,M,M,M,M,M,M,M,M,M,27.42,KTMT 140835Z AUTO 16004KT 10SM CLR 00/M03 A2996 RMK AO2 T00001028,M
P68,2023-03-14 08:53,-116.0056,39.6014,1993.00,28.90,23.00,78.30,170.00,4.00,0.00,29.96,1013.40,M,M,M,M,M,M,M,M,M,M,M,M,M,M,M,M,M,23.80,KP68 140853Z AUTO 17004KT M02/M05 A2996 RMK AO1 SLP134 T10171050 55002,M
DRA,2023-03-14 08:53,-116.0278,36.6206,1009.00,49.00,27.00,42.32,40.00,5.00,0.00,29.96,1011.70,10.00,M,CLR,M,M,M,M,M,M,M,M,M,M,M,M,M,M,46.47,KDRA 140853Z AUTO 04005KT 10SM CLR 09/M03 A2996 RMK AO2 SLP117 T00941028 58003,M
ELY,2023-03-14 08:53,-114.8453,39.2950,1909.00,33.00,26.10,75.18,220.00,9.00,0.00,29.99,1014.70,10.00,M,CLR,M,M,M,M,M,M,M,M,M,M,M,M,M,M,24.88,KELY 140853Z AUTO 22009KT 10SM CLR 01/M03 A2999 RMK AO2 SLP147 T00061033 56010,M
LOL,2023-03-14 08:53,-118.5701,40.0684,1192.43,44.00,30.00,57.37,0.00,0.00,0.00,29.89,1011.20,10.00,M,FEW,M,M,M,8000.00,M,M,M,M,M,M,M,M,M,M,44.10,KLOL 140853Z AUTO 00000KT 10SM FEW080 07/M01 A2989 RMK AO2 SLP112 T00671011 58007,M
VGT,2023-03-14 08:53,-115.1933,36.2111,667.00,60.00,35.00,39.04,200.00,8.00,0.00,29.95,1014.70,10.00,M,CLR,M,M,M,M,M,M,M,M,M,M,M,M,M,M,60.10,KVGT 140853Z AUTO 20008KT 10SM CLR 16/02 A2995 RMK AO2 SLP147 T01560017 56005,M
BVU,2023-03-14 08:55,-114.8611,35.9475,671.00,53.60,33.80,46.88,0.00,0.00,0.00,29.97,M,10.00,M,CLR,M,M,M,M,M,M,M,M,M,M,M,M,M,M,53.60,KBVU 140855Z AUTO 00000KT 10SM CLR 12/01 A2997 RMK AO2,M
INS,2023-03-14 08:55,-115.6733,36.5872,955.00,44.60,23.00,42.14,0.00,0.00,0.00,29.95,1011.90,10.00,M,CLR,M,M,M,M,M,M,M,M,M,M,M,M,M,M,44.60,KINS 140855Z AUTO 00000KT 10SM CLR 07/M05 A2995 RMK AO2 SLP119 T00701050 55006 $,M
RNO,2023-03-14 08:55,-119.7711,39.4839,1341.00,46.00,34.00,62.71,310.00,4.00,T,29.90,1010.20,10.00,M,BKN,BKN,M,M,4100.00,6000.00,M,M,M,M,M,M,M,M,M,43.77,KRNO 140855Z 31004KT 10SM BKN041 BKN060 08/01 A2990 RMK AO2 RAB48E55 SLP102 P0000 60000 T00780011 58006,M
LSV,2023-03-14 08:55,-115.0343,36.2362,570.00,58.60,34.30,39.90,190.00,7.00,0.00,29.93,1012.20,10.00,M,CLR,M,M,M,M,M,M,M,M,M,M,M,M,M,M,58.60,KLSV 140855Z AUTO 19007KT 10SM CLR 15/01 A2993 RMK AO2 SLP122 T01480013 55003 $,M
RTS,2023-03-14 08:55,-119.8764,39.6682,1539.00,42.80,30.20,60.79,220.00,6.00,0.00,29.92,M,10.00,M,BKN,OVC,M,M,3700.00,4500.00,M,M,M,M,M,M,M,M,M,38.54,KRTS 140855Z AUTO 22006KT 10SM BKN037 OVC045 06/M01 A2992 RMK AO2,M
MEV,2023-03-14 08:55,-119.7500,38.9963,1441.42,42.80,30.20,60.79,180.00,6.00,0.00,29.91,M,10.00,M,OVC,M,M,M,6000.00,M,M,M,M,M,M,M,M,M,M,38.54,KMEV 140855Z AUTO 18006KT 10SM OVC060 06/M01 A2991 RMK AO2,M
BAM,2023-03-14 08:55,-116.8743,40.5990,1382.36,39.20,33.80,80.79,120.00,5.00,0.00,29.93,M,10.00,M,SCT,M,M,M,12000.00,M,M,M,M,M,M,M,M,M,M,34.95,KBAM 140855Z AUTO 12005KT 10SM SCT120 04/01 A2993 RMK AO1,M
HTH,2023-03-14 08:55,-118.6315,38.5448,1282.89,44.60,28.40,52.72,220.00,4.00,0.00,29.92,M,10.00,M,CLR,M,M,M,M,M,M,M,M,M,M,M,M,M,M,42.13,KHTH 140855Z AUTO 22004KT 10SM CLR 07/M02 A2992 RMK A01,M
TMT,2023-03-14 08:55,-117.1971,39.4643,1749.34,32.20,26.60,79.57,140.00,4.00,0.00,29.96,M,10.00,M,CLR,M,M,M,M,M,M,M,M,M,M,M,M,M,M,27.65,KTMT 140855Z AUTO 14004KT 10SM CLR 00/M03 A2996 RMK AO2 T00011030,M
NFL,2023-03-14 08:56,-118.7010,39.4166,1199.00,43.00,30.00,59.83,0.00,0.00,0.00,29.90,1009.90,10.00,M,BKN,M,M,M,8000.00,M,M,M,M,M,M,M,M,M,M,43.00,KNFL 140856Z AUTO 00000KT 10SM BKN080 06/M01 A2990 RMK AO2 SLP099 T00611011 58010,M
HND,2023-03-14 08:56,-115.1344,35.9729,742.79,57.00,37.00,47.04,150.00,5.00,0.00,29.99,1016.00,10.00,M,CLR,M,M,M,M,M,M,M,M,M,M,M,M,M,M,57.00,KHND 140856Z AUTO 15005KT 10SM CLR 14/03 A2999 RMK AO2 SLP160 T01390028 57006,M
TPH,2023-03-14 08:56,-117.0904,38.0505,1654.00,34.00,28.00,78.43,40.00,4.00,0.00,29.99,1013.60,10.00,M,CLR,M,M,M,M,M,M,M,M,M,M,M,M,M,M,29.76,KTPH 140856Z AUTO 04004KT 10SM CLR 01/M02 A2999 RMK AO2 SLP136 T00111022 58003,M
EKO,2023-03-14 08:56,-115.7860,40.8242,1367.00,33.00,28.00,81.63,70.00,2.92,M,29.92,1012.90,10.00,M,CLR,M,M,M,M,M,M,M,M,M,M,M,M,M,M,29.95,METAR KEKO 140856Z 07003KT 10SM CLR 01/M02 A2992 RMK AO2 SLP129 T00061022 55009 TSNO FIBI,M
WMC,2023-03-14 08:56,-117.8072,40.9019,1315.00,44.00,30.90,59.50,170.00,10.00,0.00,29.90,1010.90,10.00,M,BKN,M,M,M,12000.00,M,M,M,M,M,M,M,M,M,M,38.14,KWMC 140856Z AUTO 17010KT 10SM BKN120 07/M01 A2990 RMK AO2 SLP109 T00671006 55002,M
LAS,2023-03-14 08:56,-115.1634,36.0719,663.00,58.00,35.00,42.24,180.00,6.00,0.00,29.97,1013.60,10.00,M,BKN,M,M,M,25000.00,M,M,M,M,M,M,M,M,M,M,57.90,KLAS 140856Z 18006KT 10SM BKN250 14/02 A2997 RMK AO2 SLP136 T01440017 58004,M
BVU,2023-03-14 09:15,-114.8611,35.9475,671.00,53.60,33.80,46.88,0.00,0.00,0.00,29.97,M,10.00,M,CLR,M,M,M,M,M,M,M,M,M,M,M,M,M,M,53.60,KBVU 140915Z AUTO 00000KT 10SM CLR 12/01 A2997 RMK AO2,M
RTS,2023-03-14 09:15,-119.8764,39.6682,1539.00,42.80,32.00,65.38,200.00,5.00,0.00,29.91,M,10.00,M,OVC,M,M,M,3700.00,M,M,M,M,M,M,M,M,M,M,39.22,KRTS 140915Z AUTO 20005KT 10SM OVC037 06/M00 A2991 RMK AO2,M
MEV,2023-03-14 09:15,-119.7500,38.9963,1441.42,44.60,30.20,56.74,190.00,8.00,0.00,29.90,M,10.00,M,OVC,M,M,M,6000.00,M,M,M,M,M,M,M,M,M,M,39.63,KMEV 140915Z AUTO 19008KT 10SM OVC060 07/M01 A2990 RMK AO2,M
BAM,2023-03-14 09:15,-116.8743,40.5990,1382.36,41.00,32.00,70.08,0.00,0.00,0.00,29.93,M,10.00,M,CLR,M,M,M,M,M,M,M,M,M,M,M,M,M,M,41.00,KBAM 140915Z AUTO 00000KT 10SM CLR 05/00 A2993 RMK AO1,M
HTH,2023-03-14 09:15,-118.6315,38.5448,1282.89,44.60,30.20,56.74,190.00,4.00,0.00,29.91,M,10.00,M,CLR,M,M,M,M,M,M,M,M,M,M,M,M,M,M,42.13,KHTH 140915Z AUTO 19004KT 10SM CLR 07/M01 A2991 RMK A01,M
TMT,2023-03-14 09:15,-117.1971,39.4643,1749.34,32.70,26.60,77.99,0.00,0.00,0.00,29.96,M,10.00,M,CLR,M,M,M,M,M,M,M,M,M,M,M,M,M,M,32.70,KTMT 140915Z AUTO 00000KT 10SM CLR 00/M03 A2996 RMK AO2 T00041030,M
HTH,2023-03-14 09:30,-118.6315,38.5448,1282.89,44.60,28.40,52.72,140.00,4.00,0.00,29.91,M,10.00,M,CLR,M,M,M,M,M,M,M,M,M,M,M,M,M,M,42.13,KHTH 140930Z AUTO 14004KT 10SM CLR 07/M02 A2991 RMK A01,M
BVU,2023-03-14 09:35,-114.8611,35.9475,671.00,55.40,33.80,43.90,0.00,0.00,0.00,29.96,M,10.00,M,CLR,M,M,M,M,M,M,M,M,M,M,M,M,M,M,55.40,KBVU 140935Z AUTO 00000KT 10SM CLR 13/01 A2996 RMK AO2,M
RTS,2023-03-14 09:35,-119.8764,39.6682,1539.00,42.80,32.00,65.38,280.00,5.00,0.00,29.91,M,10.00,M,OVC,M,M,M,3700.00,M,M,M,M,M,M,M,M,M,M,39.22,KRTS 140935Z AUTO 28005KT 10SM OVC037 06/M00 A2991 RMK AO2,M
MEV,2023-03-14 09:35,-119.7500,38.9963,1441.42,44.60,30.20,56.74,180.00,10.00,0.00,29.90,M,10.00,17.00,OVC,M,M,M,6000.00,M,M,M,M,M,M,M,M,M,M,38.77,KMEV 140935Z AUTO 18010G17KT 10SM OVC060 07/M01 A2990 RMK AO2,M
BAM,2023-03-14 09:35,-116.8743,40.5990,1382.36,42.80,32.00,65.38,0.00,0.00,0.00,29.93,M,10.00,M,CLR,M,M,M,M,M,M,M,M,M,M,M,M,M,M,42.80,KBAM 140935Z AUTO 00000KT 10SM CLR 06/00 A2993 RMK AO1,M
TMT,2023-03-14 09:35,-117.1971,39.4643,1749.34,31.10,27.10,84.92,0.00,0.00,0.00,29.95,M,10.00,M,CLR,M,M,M,M,M,M,M,M,M,M,M,M,M,M,31.10,KTMT 140935Z AUTO 00000KT 10SM CLR 00/M03 A2995 RMK AO2 T10051027,M
P68,2023-03-14 09:53,-116.0056,39.6014,1993.00,32.00,24.10,72.30,160.00,3.00,0.00,29.95,1012.00,M,M,M,M,M,M,M,M,M,M,M,M,M,M,M,M,M,28.69,KP68 140953Z AUTO 16003KT 00/M04 A2995 RMK AO1 SLP120 T00001044,M
VGT,2023-03-14 09:53,-115.1933,36.2111,667.00,59.00,36.00,42.08,130.00,6.00,0.00,29.95,1014.60,10.00,M,CLR,M,M,M,M,M,M,M,M,M,M,M,M,M,M,59.00,KVGT 140953Z AUTO 13006KT 10SM CLR 15/02 A2995 RMK AO2 SLP146 T01500022,M
LOL,2023-03-14 09:53,-118.5701,40.0684,1192.43,43.00,30.00,59.83,0.00,0.00,0.00,29.88,1010.80,10.00,M,SCT,M,M,M,8000.00,M,M,M,M,M,M,M,M,M,M,43.00,KLOL 140953Z AUTO 00000KT 10SM SCT080 06/M01 A2988 RMK AO2 SLP108 T00611011,M
DRA,2023-03-14 09:53,-116.0278,36.6206,1009.00,47.00,28.90,49.32,0.00,0.00,0.00,29.95,1011.60,10.00,M,CLR,M,M,M,M,M,M,M,M,M,M,M,M,M,M,46.90,KDRA 140953Z AUTO 00000KT 10SM CLR 08/M02 A2995 RMK AO2 SLP116 T00831017,M
ELY,2023-03-14 09:53,-114.8453,39.2950,1909.00,35.00,27.00,72.04,200.00,14.00,0.00,29.99,1014.00,10.00,M,CLR,M,M,M,M,M,M,M,M,M,M,M,M,M,M,25.16,KELY 140953Z AUTO 20014KT 10SM CLR 02/M03 A2999 RMK AO2 SLP140 T00171028,M
BVU,2023-03-14 09:55,-114.8611,35.9475,671.00,55.40,33.80,43.90,60.00,5.00,0.00,29.96,M,10.00,M,CLR,M,M,M,M,M,M,M,M,M,M,M,M,M,M,55.40,KBVU 140955Z AUTO 06005KT 10SM CLR 13/01 A2996 RMK AO2,M
LSV,2023-03-14 09:55,-115.0343,36.2362,570.00,57.20,36.00,44.89,230.00,4.00,0.00,29.93,1012.20,10.00,M,CLR,M,M,M,M,M,M,M,M,M,M,M,M,M,M,57.20,KLSV 140955Z AUTO 23004KT 10SM CLR 14/02 A2993 RMK AO2 SLP122 T01400022 $,M
RTS,2023-03-14 09:55,-119.8764,39.6682,1539.00,39.20,32.00,75.16,280.00,6.00,0.00,29.90,M,10.00,M,BKN,OVC,M,M,3800.00,4600.00,M,M,M,M,M,M,M,M,M,34.20,KRTS 140955Z AUTO 28006KT 10SM BKN038 OVC046 04/00 A2990 RMK AO2,M
MEV,2023-03-14 09:55,-119.7500,38.9963,1441.42,44.60,30.20,56.74,190.00,14.00,0.00,29.88,M,10.00,M,BKN,M,M,M,6000.00,M,M,M,M,M,M,M,M,M,M,37.40,KMEV 140955Z AUTO 19014KT 10SM BKN060 07/M01 A2988 RMK AO2,M
BAM,2023-03-14 09:55,-116.8743,40.5990,1382.36,39.20,32.00,75.16,100.00,5.00,0.00,29.92,M,10.00,M,SCT,M,M,M,12000.00,M,M,M,M,M,M,M,M,M,M,34.95,KBAM 140955Z AUTO 10005KT 10SM SCT120 04/00 A2992 RMK AO1,M
HTH,2023-03-14 09:55,-118.6315,38.5448,1282.89,46.40,26.60,45.73,70.00,4.00,0.00,29.90,M,10.00,M,CLR,M,M,M,M,M,M,M,M,M,M,M,M,M,M,44.24,KHTH 140955Z AUTO 07004KT 10SM CLR 08/M03 A2990 RMK A01,M
TMT,2023-03-14 09:55,-117.1971,39.4643,1749.34,30.60,27.30,87.38,0.00,0.00,0.00,29.95,M,10.00,M,CLR,M,M,M,M,M,M,M,M,M,M,M,M,M,M,30.60,KTMT 140955Z AUTO 00000KT 10SM CLR M01/M03 A2995 RMK AO2 T10081026,M
RNO,2023-03-14 09:55,-119.7711,39.4839,1341.00,45.00,35.00,68.05,10.00,4.00,0.00,29.89,1009.80,10.00,M,BKN,BKN,M,M,4400.00,6000.00,M,M,M,M,M,M,M,M,M,42.60,KRNO 140955Z 01004KT 10SM BKN044 BKN060 07/02 A2989 RMK AO2 SLP098 T00720017,M
INS,2023-03-14 09:55,-115.6733,36.5872,955.00,45.00,27.70,50.26,250.00,3.00,0.00,29.95,1011.90,10.00,M,CLR,M,M,M,M,M,M,M,M,M,M,M,M,M,M,43.66,KINS 140955Z AUTO 25003KT 10SM CLR 07/M02 A2995 RMK AO2 SLP119 T00731024 $,M
WMC,2023-03-14 09:56,-117.8072,40.9019,1315.00,43.00,30.90,62.06,160.00,7.00,0.00,29.88,1010.40,10.00,M,SCT,M,M,M,12000.00,M,M,M,M,M,M,M,M,M,M,38.19,KWMC 140956Z AUTO 16007KT 10SM SCT120 06/M01 A2988 RMK AO2 SLP104 T00611006,M
NFL,2023-03-14 09:56,-118.7010,39.4166,1199.00,41.00,30.90,67.03,0.00,0.00,0.00,29.88,1009.30,10.00,M,OVC,M,M,M,8500.00,M,M,M,M,M,M,M,M,M,M,41.00,KNFL 140956Z AUTO 00000KT 10SM OVC085 05/M01 A2988 RMK AO2 SLP093 T00501006,M
TPH,2023-03-14 09:56,-117.0904,38.0505,1654.00,36.00,28.00,72.43,0.00,0.00,0.00,29.97,1012.90,10.00,M,CLR,M,M,M,M,M,M,M,M,M,M,M,M,M,M,36.00,KTPH 140956Z AUTO 00000KT 10SM CLR 02/M02 A2997 RMK AO2 SLP129 T00221022,M
EKO,2023-03-14 09:56,-115.7860,40.8242,1367.00,33.00,29.00,85.04,50.00,2.92,M,29.92,1013.10,10.00,M,FEW,M,M,M,12001.00,M,M,M,M,M,M,M,M,M,M,29.95,METAR KEKO 140956Z 05003KT 10SM FEW120 01/M02 A2992 RMK AO2 SLP131 T00061017 TSNO FIBI,M
LAS,2023-03-14 09:56,-115.1634,36.0719,663.00,59.00,38.00,45.36,190.00,8.00,0.00,29.96,1013.40,10.00,M,BKN,M,M,M,25000.00,M,M,M,M,M,M,M,M,M,M,59.00,KLAS 140956Z 19008KT 10SM BKN250 15/03 A2996 RMK AO2 SLP134 T01500033,M
HND,2023-03-14 09:56,-115.1344,35.9729,742.79,56.00,38.00,50.71,170.00,7.00,0.00,29.98,1015.60,10.00,M,CLR,M,M,M,M,M,M,M,M,M,M,M,M,M,M,55.90,KHND 140956Z AUTO 17007KT 10SM CLR 13/03 A2998 RMK AO2 SLP156 T01330033,M
BVU,2023-03-14 10:15,-114.8611,35.9475,671.00,53.60,33.80,46.88,40.00,4.00,0.00,29.96,M,10.00,M,CLR,M,M,M,M,M,M,M,M,M,M,M,M,M,M,53.60,KBVU 141015Z AUTO 04004KT 10SM CLR 12/01 A2996 RMK AO2,M
RTS,2023-03-14 10:15,-119.8764,39.6682,1539.00,39.20,32.00,75.16,0.00,0.00,0.00,29.88,M,10.00,M,OVC,M,M,M,4300.00,M,M,M,M,M,M,M,M,M,M,39.20,KRTS 141015Z AUTO 00000KT 10SM OVC043 04/00 A2988 RMK AO2,M
MEV,2023-03-14 10:15,-119.7500,38.9963,1441.42,44.60,30.20,56.74,M,6.00,0.00,29.87,M,10.00,15.00,CLR,M,M,M,M,M,M,M,M,M,M,M,M,M,M,40.71,KMEV 141015Z AUTO VRB06G15KT 10SM CLR 07/M01 A2987 RMK AO2,M
BAM,2023-03-14 10:15,-116.8743,40.5990,1382.36,37.40,33.80,86.69,50.00,5.00,0.00,29.91,M,10.00,M,BKN,M,M,M,11000.00,M,M,M,M,M,M,M,M,M,M,32.81,KBAM 141015Z AUTO 05005KT 10SM BKN110 03/01 A2991 RMK AO1,M
HTH,2023-03-14 10:15,-118.6315,38.5448,1282.89,46.40,28.40,49.24,200.00,3.00,0.00,29.89,M,10.00,M,CLR,M,M,M,M,M,M,M,M,M,M,M,M,M,M,45.15,KHTH 141015Z AUTO 20003KT 10SM CLR 08/M02 A2989 RMK A01,M
TMT,2023-03-14 10:15,-117.1971,39.4643,1749.34,30.40,27.30,88.09,0.00,0.00,0.00,29.94,M,10.00,M,CLR,M,M,M,M,M,M,M,M,M,M,M,M,M,M,30.40,KTMT 141015Z AUTO 00000KT 10SM CLR M01/M03 A2994 RMK AO2 T10091026,M
BVU,2023-03-14 10:35,-114.8611,35.9475,671.00,53.60,33.80,46.88,0.00,0.00,0.00,29.96,M,10.00,M,CLR,M,M,M,M,M,M,M,M,M,M,M,M,M,M,53.60,KBVU 141035Z AUTO 00000KT 10SM CLR 12/01 A2996 RMK AO2,M
RTS,2023-03-14 10:35,-119.8764,39.6682,1539.00,39.20,32.00,75.16,70.00,3.00,0.00,29.88,M,10.00,M,OVC,M,M,M,4200.00,M,M,M,M,M,M,M,M,M,M,36.92,KRTS 141035Z AUTO 07003KT 10SM OVC042 04/00 A2988 RMK AO2,M
MEV,2023-03-14 10:35,-119.7500,38.9963,1441.42,42.80,30.20,60.79,220.00,6.00,0.00,29.87,M,10.00,M,CLR,M,M,M,M,M,M,M,M,M,M,M,M,M,M,38.54,KMEV 141035Z AUTO 22006KT 10SM CLR 06/M01 A2987 RMK AO2,M
BAM,2023-03-14 10:35,-116.8743,40.5990,1382.36,39.20,33.80,80.79,60.00,3.00,0.00,29.91,M,10.00,M,OVC,M,M,M,11000.00,M,M,M,M,M,M,M,M,M,M,36.92,KBAM 141035Z AUTO 06003KT 10SM OVC110 04/01 A2991 RMK AO1,M
HTH,2023-03-14 10:35,-118.6315,38.5448,1282.89,48.20,24.80,39.66,160.00,9.00,0.00,29.88,M,10.00,M,CLR,M,M,M,M,M,M,M,M,M,M,M,M,M,M,43.66,KHTH 141035Z AUTO 16009KT 10SM CLR 09/M04 A2988 RMK A01,M
TMT,2023-03-14 10:35,-117.1971,39.4643,1749.34,29.80,28.00,92.90,0.00,0.00,0.00,29.93,M,10.00,M,CLR,M,M,M,M,M,M,M,M,M,M,M,M,M,M,29.80,KTMT 141035Z AUTO 00000KT 10SM CLR M01/M02 A2993 RMK AO2 T10121022,M
P68,2023-03-14 10:53,-116.0056,39.6014,1993.00,30.90,25.00,78.48,180.00,3.00,0.00,29.93,1011.70,M,M,M,M,M,M,M,M,M,M,M,M,M,M,M,M,M,27.43,KP68 141053Z AUTO 18003KT M01/M04 A2993 RMK AO1 SLP117 T10061039,M
DRA,2023-03-14 10:53,-116.0278,36.6206,1009.00,48.00,30.90,51.34,30.00,3.00,0.00,29.94,1011.20,10.00,M,CLR,M,M,M,M,M,M,M,M,M,M,M,M,M,M,46.98,KDRA 141053Z AUTO 03003KT 10SM CLR 09/M01 A2994 RMK AO2 SLP112 T00891006,M
ELY,2023-03-14 10:53,-114.8453,39.2950,1909.00,34.00,26.10,72.52,230.00,10.00,0.00,29.98,1013.80,10.00,M,CLR,M,M,M,M,M,M,M,M,M,M,M,M,M,M,25.48,KELY 141053Z AUTO 23010KT 10SM CLR 01/M03 A2998 RMK AO2 SLP138 T00111033,M
VGT,2023-03-14 10:53,-115.1933,36.2111,667.00,57.00,37.00,47.04,120.00,6.00,0.00,29.94,1014.30,10.00,M,CLR,M,M,M,M,M,M,M,M,M,M,M,M,M,M,57.00,KVGT 141053Z AUTO 12006KT 10SM CLR 14/03 A2994 RMK AO2 SLP143 T01390028,M
LOL,2023-03-14 10:53,-118.5701,40.0684,1192.43,42.00,30.90,64.24,100.00,3.00,0.00,29.85,1009.80,10.00,M,OVC,M,M,M,7500.00,M,M,M,M,M,M,M,M,M,M,40.23,KLOL 141053Z AUTO 10003KT 10SM OVC075 06/M01 A2985 RMK AO2 SLP098 T00561006,M
BVU,2023-03-14 10:55,-114.8611,35.9475,671.00,53.60,35.60,50.36,0.00,0.00,0.00,29.96,M,10.00,M,CLR,M,M,M,M,M,M,M,M,M,M,M,M,M,M,53.60,KBVU 141055Z AUTO 00000KT 10SM CLR 12/02 A2996 RMK AO2,M
RNO,2023-03-14 10:55,-119.7711,39.4839,1341.00,45.00,34.00,65.13,0.00,0.00,0.00,29.85,1008.60,10.00,M,BKN,BKN,OVC,M,4000.00,6000.00,20000.00,M,M,M,M,M,M,M,M,45.00,KRNO 141055Z 00000KT 10SM BKN040 BKN060 OVC200 07/01 A2985 RMK AO2 SLP086 T00720011,M
RTS,2023-03-14 10:55,-119.8764,39.6682,1539.00,39.20,32.00,75.16,40.00,4.00,0.00,29.87,M,10.00,M,OVC,M,M,M,4400.00,M,M,M,M,M,M,M,M,M,M,35.83,KRTS 141055Z AUTO 04004KT 10SM OVC044 04/00 A2987 RMK AO2,M
MEV,2023-03-14 10:55,-119.7500,38.9963,1441.42,42.80,30.20,60.79,210.00,6.00,0.00,29.85,M,10.00,11.00,SCT,M,M,M,6000.00,M,M,M,M,M,M,M,M,M,M,38.54,KMEV 141055Z AUTO 21006G11KT 10SM SCT060 06/M01 A2985 RMK AO2,M
BAM,2023-03-14 10:55,-116.8743,40.5990,1382.36,39.20,32.00,75.16,0.00,0.00,0.00,29.90,M,10.00,M,SCT,OVC,M,M,9500.00,12000.00,M,M,M,M,M,M,M,M,M,39.20,KBAM 141055Z AUTO 00000KT 10SM SCT095 OVC120 04/00 A2990 RMK AO1,M
HTH,2023-03-14 10:55,-118.6315,38.5448,1282.89,48.20,24.80,39.66,150.00,11.00,0.00,29.87,M,10.00,M,FEW,M,M,M,12000.00,M,M,M,M,M,M,M,M,M,M,42.94,KHTH 141055Z AUTO 15011KT 10SM FEW120 09/M04 A2987 RMK A01,M
INS,2023-03-14 10:55,-115.6733,36.5872,955.00,45.00,27.00,49.02,0.00,0.00,0.00,29.95,1011.90,10.00,M,BKN,M,M,M,16000.00,M,M,M,M,M,M,M,M,M,M,45.00,KINS 141055Z AUTO 00000KT 10SM BKN160 07/M03 A2995 RMK AO2 SLP119 T00721028 $,M
TMT,2023-03-14 10:55,-117.1971,39.4643,1749.34,30.20,28.00,91.40,0.00,0.00,0.00,29.93,M,10.00,M,CLR,M,M,M,M,M,M,M,M,M,M,M,M,M,M,30.20,KTMT 141055Z AUTO 00000KT 10SM CLR M01/M02 A2993 RMK AO2 T10101022,M
LSV,2023-03-14 10:55,-115.0343,36.2362,570.00,55.80,36.30,47.79,210.00,4.00,0.00,29.93,1012.20,10.00,M,CLR,M,M,M,M,M,M,M,M,M,M,M,M,M,M,55.80,KLSV 141055Z AUTO 21004KT 10SM CLR 13/02 A2993 RMK AO2 SLP122 T01320024 $,M
WMC,2023-03-14 10:56,-117.8072,40.9019,1315.00,43.00,30.90,62.06,0.00,0.00,0.00,29.86,1009.60,10.00,M,OVC,M,M,M,9000.00,M,M,M,M,M,M,M,M,M,M,43.00,KWMC 141056Z AUTO 00000KT 10SM OVC090 06/M01 A2986 RMK AO2 SLP096 T00611006,M
TPH,2023-03-14 10:56,-117.0904,38.0505,1654.00,37.00,30.00,75.56,0.00,0.00,0.00,29.95,1012.10,10.00,M,CLR,M,M,M,M,M,M,M,M,M,M,M,M,M,M,37.00,KTPH 141056Z AUTO 00000KT 10SM CLR 03/M01 A2995 RMK AO2 SLP121 T00281011,M
EKO,2023-03-14 10:56,-115.7860,40.8242,1367.00,32.00,28.00,84.98,0.00,0.00,M,29.90,1012.50,10.00,M,CLR,M,M,M,M,M,M,M,M,M,M,M,M,M,M,32.00,METAR KEKO 141056Z 00000KT 10SM CLR 00/M02 A2990 RMK AO2 SLP125 T00001022 TSNO FIBI,M
NFL,2023-03-14 10:56,-118.7010,39.4166,1199.00,41.00,33.00,73.25,0.00,0.00,0.00,29.85,1008.50,10.00,M,OVC,M,M,M,8500.00,M,M,M,M,M,M,M,M,M,M,41.00,KNFL 141056Z AUTO 00000KT 10SM OVC085 05/01 A2985 RMK AO2 SLP085 T00500006,M
LAS,2023-03-14 10:56,-115.1634,36.0719,663.00,57.00,38.00,48.73,210.00,3.00,0.00,29.96,1013.10,10.00,M,OVC,M,M,M,24000.00,M,M,M,M,M,M,M,M,M,M,57.00,KLAS 141056Z 21003KT 10SM OVC240 14/03 A2996 RMK AO2 SLP131 T01390033,M
HND,2023-03-14 10:56,-115.1344,35.9729,742.79,56.00,39.00,52.94,200.00,16.00,0.00,29.96,1015.00,10.00,M,CLR,M,M,M,M,M,M,M,M,M,M,M,M,M,M,55.90,KHND 141056Z AUTO 20016KT 10SM CLR 13/04 A2996 RMK AO2 SLP150 T01330039,M
BVU,2023-03-14 11:15,-114.8611,35.9475,671.00,53.60,35.60,50.36,70.00,4.00,0.00,29.96,M,10.00,M,CLR,M,M,M,M,M,M,M,M,M,M,M,M,M,M,53.60,KBVU 141115Z AUTO 07004KT 10SM CLR 12/02 A2996 RMK AO2,M
RTS,2023-03-14 11:15,-119.8764,39.6682,1539.00,39.20,32.00,75.16,330.00,4.00,0.00,29.85,M,10.00,M,OVC,M,M,M,4200.00,M,M,M,M,M,M,M,M,M,M,35.83,KRTS 141115Z AUTO 33004KT 10SM OVC042 04/00 A2985 RMK AO2,M
MEV,2023-03-14 11:15,-119.7500,38.9963,1441.42,44.60,30.20,56.74,180.00,9.00,0.00,29.84,M,10.00,M,FEW,M,M,M,6000.00,M,M,M,M,M,M,M,M,M,M,39.18,KMEV 141115Z AUTO 18009KT 10SM FEW060 07/M01 A2984 RMK AO2,M
BAM,2023-03-14 11:15,-116.8743,40.5990,1382.36,37.40,33.80,86.69,0.00,0.00,0.00,29.89,M,10.00,M,OVC,M,M,M,9500.00,M,M,M,M,M,M,M,M,M,M,37.40,KBAM 141115Z AUTO 00000KT 10SM OVC095 03/01 A2989 RMK AO1,M
HTH,2023-03-14 11:15,-118.6315,38.5448,1282.89,50.00,24.80,37.08,140.00,6.00,0.00,29.86,M,10.00,14.00,CLR,M,M,M,M,M,M,M,M,M,M,M,M,M,M,50.00,KHTH 141115Z AUTO 14006G14KT 10SM CLR 10/M04 A2986 RMK A01,M
TMT,2023-03-14 11:15,-117.1971,39.4643,1749.34,30.40,28.20,91.41,0.00,0.00,0.00,29.92,M,10.00,M,CLR,M,M,M,M,M,M,M,M,M,M,M,M,M,M,30.40,KTMT 141115Z AUTO 00000KT 10SM CLR M01/M02 A2992 RMK AO2 T10091021,M
BVU,2023-03-14 11:35,-114.8611,35.9475,671.00,53.60,35.60,50.36,110.00,4.00,0.00,29.96,M,10.00,M,CLR,M,M,M,M,M,M,M,M,M,M,M,M,M,M,53.60,KBVU 141135Z AUTO 11004KT 10SM CLR 12/02 A2996 RMK AO2,M
RTS,2023-03-14 11:35,-119.8764,39.6682,1539.00,39.20,33.80,80.79,360.00,5.00,0.00,29.84,M,10.00,M,OVC,M,M,M,4200.00,M,M,M,M,M,M,M,M,M,M,34.95,KRTS 141135Z AUTO 36005KT 10SM OVC042 04/01 A2984 RMK AO2,M
MEV,2023-03-14 11:35,-119.7500,38.9963,1441.42,42.80,30.20,60.79,290.00,6.00,0.00,29.83,M,10.00,M,CLR,M,M,M,M,M,M,M,M,M,M,M,M,M,M,38.54,KMEV 141135Z AUTO 29006KT 10SM CLR 06/M01 A2983 RMK AO2,M
BAM,2023-03-14 11:35,-116.8743,40.5990,1382.36,37.40,33.80,86.69,110.00,4.00,0.00,29.89,M,10.00,M,BKN,OVC,M,M,9000.00,11000.00,M,M,M,M,M,M,M,M,M,33.73,KBAM 141135Z AUTO 11004KT 10SM BKN090 OVC110 03/01 A2989 RMK AO1,M
HTH,2023-03-14 11:35,-118.6315,38.5448,1282.89,46.40,26.60,45.73,110.00,5.00,0.00,29.85,M,10.00,M,CLR,M,M,M,M,M,M,M,M,M,M,M,M,M,M,43.50,KHTH 141135Z AUTO 11005KT 10SM CLR 08/M03 A2985 RMK A01,M
TMT,2023-03-14 11:35,-117.1971,39.4643,1749.34,29.30,28.20,95.60,0.00,0.00,0.00,29.91,M,10.00,M,CLR,M,M,M,M,M,M,M,M,M,M,M,M,M,M,29.30,KTMT 141135Z AUTO 00000KT 10SM CLR M01/M02 A2991 RMK AO2 T10151021,M
P68,2023-03-14 11:53,-116.0056,39.6014,1993.00,30.90,25.00,78.48,210.00,3.00,0.00,29.92,1011.10,M,M,M,M,M,M,M,M,M,M,M,M,M,M,M,M,M,27.43,KP68 141153Z AUTO 21003KT M01/M04 A2992 RMK AO1 SLP111 T10061039 10011 21022 58013,M
DRA,2023-03-14 11:53,-116.0278,36.6206,1009.00,48.00,30.90,51.34,0.00,0.00,0.00,29.93,1010.90,10.00,M,CLR,M,M,M,M,M,M,M,M,M,M,M,M,M,M,48.00,KDRA 141153Z AUTO 00000KT 10SM CLR 09/M01 A2993 RMK AO2 SLP109 T00891006 10117 20078 58007,M
ELY,2023-03-14 11:53,-114.8453,39.2950,1909.00,34.00,27.00,75.26,200.00,14.00,0.00,29.97,1013.20,10.00,M,CLR,M,M,M,M,M,M,M,M,M,M,M,M,M,M,23.74,KELY 141153Z AUTO 20014KT 10SM CLR 01/M03 A2997 RMK AO2 SLP132 T00111028 10022 21011 58006,M
LOL,2023-03-14 11:53,-118.5701,40.0684,1192.43,42.00,32.00,67.17,330.00,3.00,0.00,29.83,1009.20,10.00,M,OVC,M,M,M,8000.00,M,M,M,M,M,M,M,M,M,M,40.23,KLOL 141153Z AUTO 33003KT 10SM OVC080 06/00 A2983 RMK AO2 SLP092 7//// T00560000 10089 20044 58019,M
VGT,2023-03-14 11:53,-115.1933,36.2111,667.00,58.00,38.00,47.18,120.00,8.00,0.00,29.93,1014.10,10.00,M,CLR,M,M,M,M,M,M,M,M,M,M,M,M,M,M,57.90,KVGT 141153Z AUTO 12008KT 10SM CLR 14/03 A2993 RMK AO2 SLP141 T01440033 10172 20128 58005,M
BVU,2023-03-14 11:55,-114.8611,35.9475,671.00,55.40,35.60,47.16,150.00,3.00,0.00,29.96,M,10.00,M,CLR,M,M,M,M,M,M,M,M,M,M,M,M,M,M,55.40,KBVU 141155Z AUTO 15003KT 10SM CLR 13/02 A2996 RMK AO2,M
INS,2023-03-14 11:55,-115.6733,36.5872,955.00,45.70,27.10,47.93,0.00,0.00,0.00,29.94,1011.40,10.00,M,BKN,M,M,M,15000.00,M,M,M,M,M,M,M,M,M,M,45.70,KINS 141155Z AUTO 00000KT 10SM BKN150 08/M03 A2994 RMK AO2 SLP114 T00761027 10117 20063 58006 $,M
LSV,2023-03-14 11:55,-115.0343,36.2362,570.00,53.80,35.60,49.99,60.00,5.00,0.00,29.92,1012.00,10.00,M,CLR,M,M,M,M,M,M,M,M,M,M,M,M,M,M,53.80,KLSV 141155Z AUTO 06005KT 10SM CLR 12/02 A2992 RMK AO2 SLP120 T01210020 10155 20120 58004 $,M
RTS,2023-03-14 11:55,-119.8764,39.6682,1539.00,39.20,33.80,80.79,340.00,4.00,0.00,29.84,M,10.00,M,OVC,M,M,M,4300.00,M,M,M,M,M,M,M,M,M,M,35.83,KRTS 141155Z AUTO 34004KT 10SM OVC043 04/01 A2984 RMK AO2,M
MEV,2023-03-14 11:55,-119.7500,38.9963,1441.42,42.80,30.20,60.79,0.00,0.00,0.00,29.82,M,10.00,M,CLR,M,M,M,M,M,M,M,M,M,M,M,M,M,M,42.80,KMEV 141155Z AUTO 00000KT 10SM CLR 06/M01 A2982 RMK AO2,M
BAM,2023-03-14 11:55,-116.8743,40.5990,1382.36,37.40,33.80,86.69,110.00,3.00,0.00,29.89,M,10.00,M,OVC,M,M,M,9000.00,M,M,M,M,M,M,M,M,M,M,34.86,KBAM 141155Z AUTO 11003KT 10SM OVC090 03/01 A2989 RMK AO1,M
HTH,2023-03-14 11:55,-118.6315,38.5448,1282.89,46.40,26.60,45.73,140.00,5.00,0.00,29.84,M,10.00,M,CLR,M,M,M,M,M,M,M,M,M,M,M,M,M,M,43.50,KHTH 141155Z AUTO 14005KT 10SM CLR 08/M03 A2984 RMK A01,M
TMT,2023-03-14 11:55,-117.1971,39.4643,1749.34,30.20,28.00,91.40,0.00,0.00,0.00,29.90,M,10.00,M,CLR,M,M,M,M,M,M,M,M,M,M,M,M,M,M,30.20,KTMT 141155Z AUTO 00000KT 10SM CLR M01/M02 A2990 RMK AO2 T10101022 10020 21015,M
RNO,2023-03-14 11:55,-119.7711,39.4839,1341.00,44.00,34.00,67.41,0.00,0.00,0.00,29.81,1007.60,10.00,M,SCT,BKN,OVC,M,4000.00,6000.00,20000.00,M,M,M,M,M,M,M,M,44.10,KRNO 141155Z 00000KT 10SM SCT040 BKN060 OVC200 07/01 A2981 RMK AO2 SLP076 60000 T00670011 10083 20067 58026,M
NFL,2023-03-14 11:56,-118.7010,39.4166,1199.00,41.00,30.90,67.03,130.00,5.00,0.00,29.83,1007.70,10.00,M,CLR,M,M,M,M,M,M,M,M,M,M,M,M,M,M,37.08,KNFL 141156Z AUTO 13005KT 10SM CLR 05/M01 A2983 RMK AO2 SLP077 7//// T00501006 10100 20044 58022,M
HND,2023-03-14 11:56,-115.1344,35.9729,742.79,57.00,39.00,50.88,190.00,10.00,0.00,29.97,1015.30,10.00,M,CLR,M,M,M,M,M,M,M,M,M,M,M,M,M,M,57.00,KHND 141156Z AUTO 19010KT 10SM CLR 14/04 A2997 RMK AO2 SLP153 T01390039 10144 20128 55005,M
TPH,2023-03-14 11:56,-117.0904,38.0505,1654.00,37.00,30.00,75.56,0.00,0.00,0.00,29.94,1011.30,10.00,M,CLR,M,M,M,M,M,M,M,M,M,M,M,M,M,M,37.00,KTPH 141156Z AUTO 00000KT 10SM CLR 03/M01 A2994 RMK AO2 SLP113 T00281011 10033 20006 57015,M
LAS,2023-03-14 11:56,-115.1634,36.0719,663.00,58.00,39.00,49.26,190.00,6.00,0.00,29.95,1012.90,10.00,M,BKN,OVC,M,M,18000.00,24000.00,M,M,M,M,M,M,M,M,M,57.90,KLAS 141156Z 19006KT 10SM BKN180 OVC240 14/04 A2995 RMK AO2 SLP129 T01440039 10161 20139 58004,M
EKO,2023-03-14 11:56,-115.7860,40.8242,1367.00,31.00,27.00,84.92,70.00,5.05,M,29.90,1012.50,10.00,M,CLR,M,M,M,M,M,M,M,M,M,M,M,M,M,M,25.16,METAR KEKO 141156Z 07005KT 10SM CLR M01/M03 A2990 RMK AO2 SLP125 T10061028 10022 21006 58007 TSNO FIBI,M
WMC,2023-03-14 11:56,-117.8072,40.9019,1315.00,44.00,30.90,59.50,200.00,6.00,0.00,29.84,1008.70,10.00,M,OVC,M,M,M,7000.00,M,M,M,M,M,M,M,M,M,M,40.10,KWMC 141156Z AUTO 20006KT 10SM OVC070 07/M01 A2984 RMK AO2 SLP087 T00671006 10083 20056 58018,M
BVU,2023-03-14 12:15,-114.8611,35.9475,671.00,55.40,35.60,47.16,170.00,5.00,0.00,29.96,M,10.00,M,CLR,M,M,M,M,M,M,M,M,M,M,M,M,M,M,55.40,KBVU 141215Z AUTO 17005KT 10SM CLR 13/02 A2996 RMK AO2,M
RTS,2023-03-14 12:15,-119.8764,39.6682,1539.00,39.20,33.80,80.79,360.00,4.00,0.00,29.83,M,10.00,M,OVC,M,M,M,4200.00,M,M,M,M,M,M,M,M,M,M,35.83,KRTS 141215Z AUTO 36004KT 10SM OVC042 04/01 A2983 RMK AO2,M
MEV,2023-03-14 12:15,-119.7500,38.9963,1441.42,41.00,30.20,65.16,0.00,0.00,0.00,29.81,M,10.00,M,FEW,FEW,M,M,7000.00,8000.00,M,M,M,M,M,M,M,M,M,41.00,KMEV 141215Z AUTO 00000KT 10SM FEW070 FEW080 05/M01 A2981 RMK AO2,M
BAM,2023-03-14 12:15,-116.8743,40.5990,1382.36,37.40,33.80,86.69,70.00,4.00,0.00,29.88,M,10.00,M,OVC,M,M,M,9000.00,M,M,M,M,M,M,M,M,M,M,33.73,KBAM 141215Z AUTO 07004KT 10SM OVC090 03/01 A2988 RMK AO1,M
HTH,2023-03-14 12:15,-118.6315,38.5448,1282.89,44.60,28.40,52.72,0.00,0.00,0.00,29.84,M,10.00,M,CLR,M,M,M,M,M,M,M,M,M,M,M,M,M,M,44.60,KHTH 141215Z AUTO 00000KT 10SM CLR 07/M02 A2984 RMK A01,M
TMT,2023-03-14 12:15,-117.1971,39.4643,1749.34,30.00,28.20,92.91,0.00,0.00,0.00,29.90,M,10.00,M,CLR,M,M,M,M,M,M,M,M,M,M,M,M,M,M,30.00,KTMT 141215Z AUTO 00000KT 10SM CLR M01/M02 A2990 RMK AO2 T10111021,M
BVU,2023-03-14 12:35,-114.8611,35.9475,671.00,57.20,37.40,47.44,0.00,0.00,0.00,29.96,M,10.00,M,CLR,M,M,M,M,M,M,M,M,M,M,M,M,M,M,57.20,KBVU 141235Z AUTO 00000KT 10SM CLR 14/03 A2996 RMK AO2,M
RTS,2023-03-14 12:35,-119.8764,39.6682,1539.00,39.20,33.80,80.79,20.00,6.00,0.00,29.82,M,10.00,M,BKN,OVC,M,M,4200.00,5000.00,M,M,M,M,M,M,M,M,M,34.20,KRTS 141235Z AUTO 02006KT 10SM BKN042 OVC050 04/01 A2982 RMK AO2,M
MEV,2023-03-14 12:35,-119.7500,38.9963,1441.42,42.80,32.00,65.38,M,3.00,0.00,29.80,M,10.00,M,FEW,SCT,SCT,M,6000.00,7500.00,12000.00,M,M,M,M,M,M,M,M,41.03,KMEV 141235Z AUTO VRB03KT 10SM FEW060 SCT075 SCT120 06/M00 A2980 RMK AO2,M
BAM,2023-03-14 12:35,-116.8743,40.5990,1382.36,37.40,33.80,86.69,60.00,3.00,0.00,29.88,M,10.00,M,OVC,M,M,M,9000.00,M,M,M,M,M,M,M,M,M,M,34.86,KBAM 141235Z AUTO 06003KT 10SM OVC090 03/01 A2988 RMK AO1,M
HTH,2023-03-14 12:35,-118.6315,38.5448,1282.89,44.60,28.40,52.72,0.00,0.00,0.00,29.83,M,10.00,M,CLR,M,M,M,M,M,M,M,M,M,M,M,M,M,M,44.60,KHTH 141235Z AUTO 00000KT 10SM CLR 07/M02 A2983 RMK A01,M
TMT,2023-03-14 12:35,-117.1971,39.4643,1749.34,30.20,28.20,92.16,0.00,0.00,0.00,29.89,M,10.00,M,SCT,M,M,M,11000.00,M,M,M,M,M,M,M,M,M,M,30.20,KTMT 141235Z AUTO 00000KT 10SM SCT110 M01/M02 A2989 RMK AO2 T10101021,M
DRA,2023-03-14 12:53,-116.0278,36.6206,1009.00,47.00,32.00,55.94,60.00,4.00,0.00,29.92,1010.90,10.00,M,CLR,M,M,M,M,M,M,M,M,M,M,M,M,M,M,44.82,KDRA 141253Z AUTO 06004KT 10SM CLR 08/00 A2992 RMK AO2 SLP109 T00830000,M
ELY,2023-03-14 12:53,-114.8453,39.2950,1909.00,34.00,27.00,75.26,210.00,9.00,0.00,29.95,1012.90,10.00,M,FEW,M,M,M,12000.00,M,M,M,M,M,M,M,M,M,M,26.00,KELY 141253Z AUTO 21009KT 10SM FEW120 01/M03 A2995 RMK AO2 SLP129 T00111028,M
P68,2023-03-14 12:53,-116.0056,39.6014,1993.00,35.00,27.00,72.04,0.00,0.00,0.00,29.91,1010.90,M,M,M,M,M,M,M,M,M,M,M,M,M,M,M,M,M,35.10,KP68 141253Z AUTO 00000KT 02/M03 A2991 RMK AO1 SLP109 T00171028,M
VGT,2023-03-14 12:53,-115.1933,36.2111,667.00,60.00,39.00,45.53,160.00,8.00,0.00,29.93,1014.00,10.00,M,CLR,M,M,M,M,M,M,M,M,M,M,M,M,M,M,60.10,KVGT 141253Z AUTO 16008KT 10SM CLR 16/04 A2993 RMK AO2 SLP140 T01560039,M
LOL,2023-03-14 12:53,-118.5701,40.0684,1192.43,42.00,32.00,67.17,320.00,4.00,0.00,29.80,1008.40,10.00,M,OVC,M,M,M,8500.00,M,M,M,M,M,M,M,M,M,M,39.21,KLOL 141253Z AUTO 32004KT 10SM OVC085 06/00 A2980 RMK AO2 SLP084 T00560000,M
BVU,2023-03-14 12:55,-114.8611,35.9475,671.00,57.20,37.40,47.44,150.00,4.00,0.00,29.96,M,10.00,M,SCT,M,M,M,12000.00,M,M,M,M,M,M,M,M,M,M,57.20,KBVU 141255Z AUTO 15004KT 10SM SCT120 14/03 A2996 RMK AO2,M
LSV,2023-03-14 12:55,-115.0343,36.2362,570.00,55.20,36.30,48.84,40.00,8.00,0.00,29.92,1012.10,10.00,M,CLR,M,M,M,M,M,M,M,M,M,M,M,M,M,M,55.20,KLSV 141255Z AUTO 04008KT 10SM CLR 13/02 A2992 RMK AO2 SLP121 T01290024 $,M
RTS,2023-03-14 12:55,-119.8764,39.6682,1539.00,39.20,33.80,80.79,360.00,5.00,0.00,29.81,M,10.00,M,BKN,OVC,M,M,4600.00,5500.00,M,M,M,M,M,M,M,M,M,34.95,KRTS 141255Z AUTO 36005KT 10SM BKN046 OVC055 04/01 A2981 RMK AO2,M
MEV,2023-03-14 12:55,-119.7500,38.9963,1441.42,41.00,32.00,70.08,0.00,0.00,0.00,29.80,M,10.00,M,BKN,BKN,BKN,M,7000.00,7500.00,12000.00,M,M,M,M,M,M,M,M,41.00,KMEV 141255Z AUTO 00000KT 10SM BKN070 BKN075 BKN120 05/M00 A2980 RMK AO2,M
BAM,2023-03-14 12:55,-116.8743,40.5990,1382.36,37.40,32.00,80.65,60.00,4.00,0.00,29.87,M,10.00,M,OVC,M,M,M,9000.00,M,M,M,M,M,M,M,M,M,M,33.73,KBAM 141255Z AUTO 06004KT 10SM OVC090 03/00 A2987 RMK AO1,M
HTH,2023-03-14 12:55,-118.6315,38.5448,1282.89,44.60,28.40,52.72,0.00,0.00,0.00,29.82,M,10.00,M,CLR,M,M,M,M,M,M,M,M,M,M,M,M,M,M,44.60,KHTH 141255Z AUTO 00000KT 10SM CLR 07/M02 A2982 RMK A01,M
TMT,2023-03-14 12:55,-117.1971,39.4643,1749.34,30.20,28.40,92.92,0.00,0.00,0.00,29.89,M,10.00,M,BKN,BKN,BKN,M,8000.00,9000.00,12000.00,M,M,M,M,M,M,M,M,30.20,KTMT 141255Z AUTO 00000KT 10SM BKN080 BKN090 BKN120 M01/M02 A2989 RMK AO2 T10101020,M
INS,2023-03-14 12:55,-115.6733,36.5872,955.00,46.00,27.30,47.97,0.00,0.00,0.00,29.93,1011.30,10.00,M,CLR,M,M,M,M,M,M,M,M,M,M,M,M,M,M,45.90,KINS 141255Z AUTO 00000KT 10SM CLR 08/M03 A2993 RMK AO2 SLP113 T00771026 $,M
RNO,2023-03-14 12:55,-119.7711,39.4839,1341.00,44.00,34.00,67.41,90.00,3.00,0.00,29.79,1006.80,10.00,M,BKN,OVC,M,M,6000.00,20000.00,M,M,M,M,M,M,M,M,M,42.52,KRNO 141255Z 09003KT 10SM BKN060 OVC200 07/01 A2979 RMK AO2 SLP068 T00670011,M
TPH,2023-03-14 12:56,-117.0904,38.0505,1654.00,38.00,30.00,72.93,130.00,6.00,0.00,29.92,1011.00,10.00,M,CLR,M,M,M,M,M,M,M,M,M,M,M,M,M,M,32.64,KTPH 141256Z AUTO 13006KT 10SM CLR 03/M01 A2992 RMK AO2 SLP110 T00331011,M
LAS,2023-03-14 12:56,-115.1634,36.0719,663.00,59.00,39.00,47.35,200.00,6.00,0.00,29.95,1012.90,10.00,M,BKN,BKN,M,M,16000.00,22000.00,M,M,M,M,M,M,M,M,M,59.00,KLAS 141256Z 20006KT 10SM BKN160 BKN220 15/04 A2995 RMK AO2 SLP129 T01500039,M
EKO,2023-03-14 12:56,-115.7860,40.8242,1367.00,31.00,27.00,84.92,90.00,5.05,M,29.88,1012.10,10.00,M,CLR,M,M,M,M,M,M,M,M,M,M,M,M,M,M,25.16,METAR KEKO 141256Z 09005KT 10SM CLR M01/M03 A2988 RMK AO2 SLP121 T10061028 TSNO $ FIBI,M
WMC,2023-03-14 12:56,-117.8072,40.9019,1315.00,44.00,30.90,59.50,170.00,5.00,0.00,29.83,1008.60,10.00,M,OVC,M,M,M,6000.00,M,M,M,M,M,M,M,M,M,M,40.77,KWMC 141256Z AUTO 17005KT 10SM OVC060 07/M01 A2983 RMK AO2 SLP086 T00671006,M
NFL,2023-03-14 12:56,-118.7010,39.4166,1199.00,40.00,32.00,73.14,0.00,0.00,0.00,29.80,1006.90,10.00,M,CLR,M,M,M,M,M,M,M,M,M,M,M,M,M,M,39.90,KNFL 141256Z AUTO 00000KT 10SM CLR 04/00 A2980 RMK AO2 SLP069 T00440000,M
HND,2023-03-14 12:56,-115.1344,35.9729,742.79,58.00,41.00,53.24,180.00,8.00,0.00,29.97,1015.30,10.00,M,CLR,M,M,M,M,M,M,M,M,M,M,M,M,M,M,57.90,KHND 141256Z 18008KT 10SM CLR 14/05 A2997 RMK AO2 SLP153 T01440050,M
BVU,2023-03-14 13:15,-114.8611,35.9475,671.00,57.20,39.20,50.91,150.00,5.00,0.00,29.95,M,10.00,M,SCT,M,M,M,12000.00,M,M,M,M,M,M,M,M,M,M,57.20,KBVU 141315Z AUTO 15005KT 10SM SCT120 14/04 A2995 RMK AO2,M
RTS,2023-03-14 13:15,-119.8764,39.6682,1539.00,39.20,33.80,80.79,350.00,5.00,0.00,29.80,M,10.00,M,SCT,OVC,M,M,4300.00,4900.00,M,M,M,M,M,M,M,M,M,34.95,KRTS 141315Z AUTO 35005KT 10SM SCT043 OVC049 04/01 A2980 RMK AO2,M
MEV,2023-03-14 13:15,-119.7500,38.9963,1441.42,39.20,32.00,75.16,0.00,0.00,0.00,29.79,M,10.00,M,SCT,SCT,OVC,M,6500.00,7500.00,11000.00,M,M,M,M,M,M,M,M,39.20,KMEV 141315Z AUTO 00000KT 10SM SCT065 SCT075 OVC110 04/M00 A2979 RMK AO2,M
BAM,2023-03-14 13:15,-116.8743,40.5990,1382.36,39.20,33.80,80.79,50.00,4.00,0.00,29.87,M,10.00,M,OVC,M,M,M,9000.00,M,M,M,M,M,M,M,M,M,M,35.83,KBAM 141315Z AUTO 05004KT 10SM OVC090 04/01 A2987 RMK AO1,M
HTH,2023-03-14 13:15,-118.6315,38.5448,1282.89,42.80,30.20,60.79,0.00,0.00,0.00,29.81,M,10.00,M,CLR,M,M,M,M,M,M,M,M,M,M,M,M,M,M,42.80,KHTH 141315Z AUTO 00000KT 10SM CLR 06/M01 A2981 RMK A01,M
TMT,2023-03-14 13:15,-117.1971,39.4643,1749.34,31.10,29.10,92.19,0.00,0.00,0.00,29.87,M,10.00,M,OVC,M,M,M,8000.00,M,M,M,M,M,M,M,M,M,M,31.10,KTMT 141315Z AUTO 00000KT 10SM OVC080 00/M02 A2987 RMK AO2 T10051016,M
BVU,2023-03-14 13:35,-114.8611,35.9475,671.00,57.20,39.20,50.91,0.00,0.00,0.00,29.96,M,10.00,M,CLR,M,M,M,M,M,M,M,M,M,M,M,M,M,M,57.20,KBVU 141335Z AUTO 00000KT 10SM CLR 14/04 A2996 RMK AO2,M
RTS,2023-03-14 13:35,-119.8764,39.6682,1539.00,39.20,33.80,80.79,360.00,3.00,0.00,29.80,M,10.00,M,BKN,OVC,M,M,4500.00,5000.00,M,M,M,M,M,M,M,M,M,36.92,KRTS 141335Z AUTO 36003KT 10SM BKN045 OVC050 04/01 A2980 RMK AO2,M
MEV,2023-03-14 13:35,-119.7500,38.9963,1441.42,42.80,32.00,65.38,0.00,0.00,0.00,29.78,M,10.00,M,SCT,OVC,M,M,6500.00,11000.00,M,M,M,M,M,M,M,M,M,42.80,KMEV 141335Z AUTO 00000KT 10SM SCT065 OVC110 06/M00 A2978 RMK AO2,M
BAM,2023-03-14 13:35,-116.8743,40.5990,1382.36,41.00,32.00,70.08,40.00,6.00,0.00,29.86,M,10.00,M,OVC,M,M,M,9000.00,M,M,M,M,M,M,M,M,M,M,36.37,KBAM 141335Z AUTO 04006KT 10SM OVC090 05/00 A2986 RMK AO1,M
HTH,2023-03-14 13:35,-118.6315,38.5448,1282.89,44.60,26.60,48.96,0.00,0.00,0.00,29.81,M,10.00,M,CLR,M,M,M,M,M,M,M,M,M,M,M,M,M,M,44.60,KHTH 141335Z AUTO 00000KT 10SM CLR 07/M03 A2981 RMK A01,M
TMT,2023-03-14 13:35,-117.1971,39.4643,1749.34,30.90,29.30,93.70,0.00,0.00,0.00,29.87,M,10.00,M,OVC,M,M,M,8000.00,M,M,M,M,M,M,M,M,M,M,30.90,KTMT 141335Z AUTO 00000KT 10SM OVC080 M01/M01 A2987 RMK AO2 T10061015,M
DRA,2023-03-14 13:53,-116.0278,36.6206,1009.00,48.00,30.00,49.49,130.00,5.00,0.00,29.92,1011.00,10.00,M,SCT,M,M,M,10000.00,M,M,M,M,M,M,M,M,M,M,45.40,KDRA 141353Z AUTO 13005KT 10SM SCT100 09/M01 A2992 RMK AO2 SLP110 T00891011,M
ELY,2023-03-14 13:53,-114.8453,39.2950,1909.00,34.00,28.00,78.43,220.00,13.00,0.00,29.94,1013.30,10.00,M,FEW,M,M,M,12000.00,M,M,M,M,M,M,M,M,M,M,24.13,KELY 141353Z AUTO 22013KT 10SM FEW120 01/M02 A2994 RMK AO2 SLP133 T00111022,M
LOL,2023-03-14 13:53,-118.5701,40.0684,1192.43,41.00,32.00,70.08,50.00,4.00,0.00,29.78,1007.80,10.00,M,OVC,M,M,M,8000.00,M,M,M,M,M,M,M,M,M,M,37.93,KLOL 141353Z AUTO 05004KT 10SM OVC080 05/00 A2978 RMK AO2 SLP078 T00500000,M
P68,2023-03-14 13:53,-116.0056,39.6014,1993.00,38.00,27.00,64.49,0.00,0.00,0.00,29.90,1010.30,M,M,M,M,M,M,M,M,M,M,M,M,M,M,M,M,M,37.90,KP68 141353Z AUTO 00000KT 03/M03 A2990 RMK AO1 SLP103 T00331028,M
VGT,2023-03-14 13:53,-115.1933,36.2111,667.00,60.00,40.00,47.15,160.00,8.00,0.00,29.93,1014.20,10.00,M,CLR,M,M,M,M,M,M,M,M,M,M,M,M,M,M,60.10,KVGT 141353Z 16008KT 10SM CLR 16/04 A2993 RMK AO2 SLP142 T01560044,M
BVU,2023-03-14 13:55,-114.8611,35.9475,671.00,55.40,39.20,54.34,0.00,0.00,0.00,29.96,M,10.00,M,CLR,M,M,M,M,M,M,M,M,M,M,M,M,M,M,55.40,KBVU 141355Z AUTO 00000KT 10SM CLR 13/04 A2996 RMK AO2,M
INS,2023-03-14 13:55,-115.6733,36.5872,955.00,45.70,27.10,47.93,260.00,4.00,0.00,29.93,1011.30,10.00,M,BKN,M,M,M,15000.00,M,M,M,M,M,M,M,M,M,M,43.42,KINS 141355Z AUTO 26004KT 10SM BKN150 08/M03 A2993 RMK AO2 SLP113 T00761027 $,M
RNO,2023-03-14 13:55,-119.7711,39.4839,1341.00,43.00,34.00,70.30,0.00,0.00,0.00,29.77,1006.40,10.00,M,SCT,BKN,OVC,M,4000.00,6000.00,20000.00,M,M,M,M,M,M,M,M,43.00,KRNO 141355Z 00000KT 10SM SCT040 BKN060 OVC200 06/01 A2977 RMK AO2 SLP064 T00610011,M
LSV,2023-03-14 13:55,-115.0343,36.2362,570.00,55.80,35.80,46.85,60.00,7.00,0.00,29.92,1012.10,10.00,M,CLR,M,M,M,M,M,M,M,M,M,M,M,M,M,M,55.80,KLSV 141355Z AUTO 06007KT 10SM CLR 13/02 A2992 RMK AO2 SLP121 T01320021 $,M
RTS,2023-03-14 13:55,-119.8764,39.6682,1539.00,39.20,33.80,80.79,0.00,0.00,0.00,29.79,M,10.00,M,OVC,M,M,M,4700.00,M,M,M,M,M,M,M,M,M,M,39.20,KRTS 141355Z AUTO 00000KT 10SM OVC047 04/01 A2979 RMK AO2,M
MEV,2023-03-14 13:55,-119.7500,38.9963,1441.42,41.00,32.00,70.08,0.00,0.00,0.00,29.77,M,10.00,M,FEW,FEW,OVC,M,5500.00,6500.00,11000.00,M,M,M,M,M,M,M,M,41.00,KMEV 141355Z AUTO 00000KT 10SM FEW055 FEW065 OVC110 05/M00 A2977 RMK AO2,M
BAM,2023-03-14 13:55,-116.8743,40.5990,1382.36,41.00,32.00,70.08,60.00,9.00,0.00,29.85,M,10.00,M,OVC,M,M,M,9000.00,M,M,M,M,M,M,M,M,M,M,34.70,KBAM 141355Z AUTO 06009KT 10SM OVC090 05/00 A2985 RMK AO1,M
HTH,2023-03-14 13:55,-118.6315,38.5448,1282.89,46.40,24.80,42.44,130.00,9.00,0.00,29.80,M,10.00,M,CLR,M,M,M,M,M,M,M,M,M,M,M,M,M,M,41.42,KHTH 141355Z AUTO 13009KT 10SM CLR 08/M04 A2980 RMK A01,M
TMT,2023-03-14 13:55,-117.1971,39.4643,1749.34,31.10,29.30,92.94,0.00,0.00,0.00,29.87,M,10.00,M,BKN,OVC,M,M,8000.00,8500.00,M,M,M,M,M,M,M,M,M,31.10,KTMT 141355Z AUTO 00000KT 10SM BKN080 OVC085 00/M01 A2987 RMK AO2 T10051015,M
NFL,2023-03-14 13:56,-118.7010,39.4166,1199.00,41.00,32.00,70.08,130.00,5.00,0.00,29.78,1006.20,10.00,M,BKN,M,M,M,11000.00,M,M,M,M,M,M,M,M,M,M,37.08,KNFL 141356Z 13005KT 10SM BKN110 05/00 A2978 RMK AO2 SLP062 T00500000,M
EKO,2023-03-14 13:56,-115.7860,40.8242,1367.00,32.00,27.00,81.55,70.00,4.08,M,29.88,1012.60,10.00,M,OVC,M,M,M,8999.00,M,M,M,M,M,M,M,M,M,M,27.33,METAR KEKO 141356Z 07004KT 10SM OVC090 00/M03 A2988 RMK AO2 SLP126 T00001028 TSNO $ FIBI,M
LAS,2023-03-14 13:56,-115.1634,36.0719,663.00,59.00,40.00,49.04,170.00,5.00,0.00,29.95,1013.00,10.00,M,FEW,SCT,BKN,M,8000.00,15000.00,22000.00,M,M,M,M,M,M,M,M,59.00,KLAS 141356Z 17005KT 10SM FEW080 SCT150 BKN220 15/04 A2995 RMK AO2 SLP130 T01500044,M
WMC,2023-03-14 13:56,-117.8072,40.9019,1315.00,44.00,30.90,59.50,0.00,0.00,0.00,29.81,1008.20,10.00,M,SCT,OVC,M,M,6000.00,7500.00,M,M,M,M,M,M,M,M,M,44.10,KWMC 141356Z AUTO 00000KT 10SM SCT060 OVC075 07/M01 A2981 RMK AO2 SLP082 T00671006,M
HND,2023-03-14 13:56,-115.1344,35.9729,742.79,58.00,41.00,53.24,140.00,6.00,0.00,29.98,1015.60,10.00,M,CLR,M,M,M,M,M,M,M,M,M,M,M,M,M,M,57.90,KHND 141356Z 14006KT 10SM CLR 14/05 A2998 RMK AO2 SLP156 T01440050,M
TPH,2023-03-14 13:56,-117.0904,38.0505,1654.00,38.00,30.90,75.64,0.00,0.00,0.00,29.91,1010.90,10.00,M,FEW,M,M,M,12000.00,M,M,M,M,M,M,M,M,M,M,37.90,KTPH 141356Z AUTO 00000KT 10SM FEW120 03/M01 A2991 RMK AO2 SLP109 T00331006,M
BVU,2023-03-14 14:15,-114.8611,35.9475,671.00,57.20,39.20,50.91,0.00,0.00,0.00,29.96,M,10.00,M,FEW,M,M,M,12000.00,M,M,M,M,M,M,M,M,M,M,57.20,KBVU 141415Z AUTO 00000KT 10SM FEW120 14/04 A2996 RMK AO2,M
RTS,2023-03-14 14:15,-119.8764,39.6682,1539.00,37.40,33.80,86.69,0.00,0.00,0.00,29.78,M,10.00,M,BKN,OVC,M,M,4700.00,5500.00,M,M,M,M,M,M,M,M,M,37.40,KRTS 141415Z AUTO 00000KT 10SM BKN047 OVC055 03/01 A2978 RMK AO2,M
MEV,2023-03-14 14:15,-119.7500,38.9963,1441.42,41.00,32.00,70.08,0.00,0.00,0.00,29.77,M,10.00,M,FEW,OVC,M,M,6500.00,10000.00,M,M,M,M,M,M,M,M,M,41.00,KMEV 141415Z AUTO 00000KT 10SM FEW065 OVC100 05/00 A2977 RMK AO2,M
BAM,2023-03-14 14:15,-116.8743,40.5990,1382.36,41.00,32.00,70.08,60.00,9.00,0.00,29.84,M,10.00,M,BKN,OVC,M,M,8000.00,9000.00,M,M,M,M,M,M,M,M,M,34.70,KBAM 141415Z AUTO 06009KT 10SM BKN080 OVC090 05/00 A2984 RMK AO1,M
HTH,2023-03-14 14:15,-118.6315,38.5448,1282.89,48.20,24.80,39.66,0.00,0.00,0.00,29.80,M,10.00,M,CLR,M,M,M,M,M,M,M,M,M,M,M,M,M,M,48.20,KHTH 141415Z AUTO 00000KT 10SM CLR 09/M04 A2980 RMK A01,M
TMT,2023-03-14 14:15,-117.1971,39.4643,1749.34,31.10,29.70,94.47,0.00,0.00,0.00,29.85,M,10.00,M,OVC,M,M,M,7000.00,M,M,M,M,M,M,M,M,M,M,31.10,KTMT 141415Z AUTO 00000KT 10SM OVC070 00/M01 A2985 RMK AO2 T10051013,M
BVU,2023-03-14 14:35,-114.8611,35.9475,671.00,57.20,41.00,54.60,90.00,4.00,0.00,29.97,M,10.00,M,FEW,M,M,M,12000.00,M,M,M,M,M,M,M,M,M,M,57.20,KBVU 141435Z AUTO 09004KT 10SM FEW120 14/05 A2997 RMK AO2,M
RTS,2023-03-14 14:35,-119.8764,39.6682,1539.00,37.40,33.80,86.69,0.00,0.00,0.00,29.78,M,10.00,M,BKN,OVC,M,M,5000.00,5500.00,M,M,M,M,M,M,M,M,M,37.40,KRTS 141435Z AUTO 00000KT 10SM BKN050 OVC055 03/01 A2978 RMK AO2,M
MEV,2023-03-14 14:35,-119.7500,38.9963,1441.42,44.60,33.80,65.61,170.00,10.00,0.00,29.76,M,10.00,M,SCT,M,M,M,9500.00,M,M,M,M,M,M,M,M,M,M,38.77,KMEV 141435Z AUTO 17010KT 10SM SCT095 07/01 A2976 RMK AO2,M
BAM,2023-03-14 14:35,-116.8743,40.5990,1382.36,42.80,32.00,65.38,60.00,12.00,0.00,29.84,M,10.00,M,BKN,OVC,M,M,7000.00,9000.00,M,M,M,M,M,M,M,M,M,35.75,KBAM 141435Z AUTO 06012KT 10SM BKN070 OVC090 06/00 A2984 RMK AO1,M
HTH,2023-03-14 14:35,-118.6315,38.5448,1282.89,48.20,24.80,39.66,70.00,7.00,0.00,29.80,M,10.00,M,CLR,M,M,M,M,M,M,M,M,M,M,M,M,M,M,44.53,KHTH 141435Z AUTO 07007KT 10SM CLR 09/M04 A2980 RMK A01,M
TMT,2023-03-14 14:35,-117.1971,39.4643,1749.34,30.90,29.50,94.47,140.00,3.00,0.00,29.85,M,10.00,M,SCT,M,M,M,8000.00,M,M,M,M,M,M,M,M,M,M,27.43,KTMT 141435Z AUTO 14003KT 10SM SCT080 M01/M01 A2985 RMK AO2 T10061014,M
P68,2023-03-14 14:53,-116.0056,39.6014,1993.00,39.00,28.00,64.37,130.00,3.00,0.00,29.88,1010.00,M,M,M,M,M,M,M,M,M,M,M,M,M,M,M,M,M,36.69,KP68 141453Z AUTO 13003KT 04/M02 A2988 RMK AO1 SLP100 T00391022 58010,M
DRA,2023-03-14 14:53,-116.0278,36.6206,1009.00,50.00,30.90,47.64,M,3.00,0.00,29.92,1010.90,10.00,M,CLR,M,M,M,M,M,M,M,M,M,M,M,M,M,M,50.00,KDRA 141453Z AUTO VRB03KT 10SM CLR 10/M01 A2992 RMK AO2 SLP109 T01001006 56003,M
ELY,2023-03-14 14:53,-114.8453,39.2950,1909.00,36.00,28.90,75.15,210.00,11.00,0.00,29.94,1012.80,10.00,M,OVC,M,M,M,11000.00,M,M,M,M,M,M,M,M,M,M,27.52,KELY 141453Z AUTO 21011KT 10SM OVC110 02/M02 A2994 RMK AO2 SLP128 T00221017 56009,M
VGT,2023-03-14 14:53,-115.1933,36.2111,667.00,61.00,40.00,45.67,180.00,9.00,0.00,29.94,1014.30,10.00,M,SCT,M,M,M,12000.00,M,M,M,M,M,M,M,M,M,M,61.00,KVGT 141453Z 18009KT 10SM SCT120 16/04 A2994 RMK AO2 SLP143 T01610044 53001,M
LOL,2023-03-14 14:53,-118.5701,40.0684,1192.43,39.00,33.00,79.17,200.00,3.00,0.00,29.77,1008.10,10.00,M,OVC,M,M,M,8500.00,M,M,M,M,M,M,M,M,M,M,36.69,KLOL 141453Z AUTO 20003KT 10SM OVC085 04/01 A2977 RMK AO2 SLP081 T00390006 56017,M
BVU,2023-03-14 14:55,-114.8611,35.9475,671.00,59.00,39.20,47.72,130.00,5.00,0.00,29.97,M,10.00,M,CLR,M,M,M,M,M,M,M,M,M,M,M,M,M,M,59.00,KBVU 141455Z AUTO 13005KT 10SM CLR 15/04 A2997 RMK AO2,M
RNO,2023-03-14 14:55,-119.7711,39.4839,1341.00,43.00,34.00,70.30,0.00,0.00,0.00,29.75,1005.80,10.00,M,SCT,SCT,OVC,M,5000.00,9500.00,19000.00,M,M,M,M,M,M,M,M,43.00,KRNO 141455Z 00000KT 10SM SCT050 SCT095 OVC190 06/01 A2975 RMK AO2 SLP058 T00610011 56018,M
RTS,2023-03-14 14:55,-119.8764,39.6682,1539.00,37.40,35.60,93.14,0.00,0.00,0.00,29.76,M,10.00,M,OVC,M,M,M,5000.00,M,M,M,M,M,M,M,M,M,M,37.40,KRTS 141455Z AUTO 00000KT 10SM OVC050 03/02 A2976 RMK AO2,M
MEV,2023-03-14 14:55,-119.7500,38.9963,1441.42,41.00,32.00,70.08,140.00,9.00,0.00,29.76,M,10.00,M,SCT,SCT,M,M,5000.00,5500.00,M,M,M,M,M,M,M,M,M,34.70,KMEV 141455Z AUTO 14009KT 10SM SCT050 SCT055 05/00 A2976 RMK AO2,M
BAM,2023-03-14 14:55,-116.8743,40.5990,1382.36,42.80,32.00,65.38,60.00,9.00,0.00,29.83,M,10.00,M,OVC,M,M,M,7000.00,M,M,M,M,M,M,M,M,M,M,36.94,KBAM 141455Z AUTO 06009KT 10SM OVC070 06/00 A2983 RMK AO1,M
HTH,2023-03-14 14:55,-118.6315,38.5448,1282.89,48.20,26.60,42.73,0.00,0.00,0.00,29.79,M,10.00,M,SCT,M,M,M,8500.00,M,M,M,M,M,M,M,M,M,M,48.20,KHTH 141455Z AUTO 00000KT 10SM SCT085 09/M03 A2979 RMK A01,M
TMT,2023-03-14 14:55,-117.1971,39.4643,1749.34,31.60,30.00,93.72,0.00,0.00,0.00,29.85,M,10.00,M,SCT,SCT,M,M,8000.00,9500.00,M,M,M,M,M,M,M,M,M,31.60,KTMT 141455Z AUTO 00000KT 10SM SCT080 SCT095 00/M01 A2985 RMK AO2 T10021011,M
INS,2023-03-14 14:55,-115.6733,36.5872,955.00,51.60,35.00,53.14,170.00,4.00,0.00,29.92,1010.70,10.00,M,SCT,BKN,M,M,9500.00,12000.00,M,M,M,M,M,M,M,M,M,51.60,KINS 141455Z AUTO 17004KT 10SM SCT095 BKN120 11/02 A2992 RMK AO2 SLP107 T01090017 57004 $,M
LSV,2023-03-14 14:55,-115.0343,36.2362,570.00,56.00,36.70,48.02,0.00,0.00,0.00,29.93,1012.50,10.00,M,CLR,M,M,M,M,M,M,M,M,M,M,M,M,M,M,56.10,KLSV 141455Z AUTO 00000KT 10SM CLR 13/03 A2993 RMK AO2 SLP125 T01340026 53002 $,M
HND,2023-03-14 14:56,-115.1344,35.9729,742.79,59.00,41.00,51.18,190.00,12.00,0.00,29.97,1015.50,10.00,M,FEW,M,M,M,12000.00,M,M,M,M,M,M,M,M,M,M,59.00,KHND 141456Z 19012KT 10SM FEW120 15/05 A2997 RMK AO2 SLP155 T01500050 50001,M
TPH,2023-03-14 14:56,-117.0904,38.0505,1654.00,41.00,30.90,67.03,160.00,7.00,0.00,29.91,1011.30,10.00,M,FEW,M,M,M,10000.00,M,M,M,M,M,M,M,M,M,M,35.75,KTPH 141456Z AUTO 16007KT 10SM FEW100 05/M01 A2991 RMK AO2 SLP113 T00501006 56008,M
EKO,2023-03-14 14:56,-115.7860,40.8242,1367.00,32.00,27.00,81.55,80.00,6.03,M,29.87,1012.20,10.00,M,OVC,M,M,M,8999.00,M,M,M,M,M,M,M,M,M,M,25.51,METAR KEKO 141456Z 08006KT 10SM OVC090 00/M03 A2987 RMK AO2 SLP122 T00001028 56007 TSNO $ FIBI,M
WMC,2023-03-14 14:56,-117.8072,40.9019,1315.00,42.00,32.00,67.17,0.00,0.00,0.00,29.79,1007.50,10.00,M,OVC,M,M,M,8000.00,M,M,M,M,M,M,M,M,M,M,42.10,KWMC 141456Z AUTO 00000KT 10SM OVC080 06/00 A2979 RMK AO2 SLP075 T00560000 58014,M
NFL,2023-03-14 14:56,-118.7010,39.4166,1199.00,42.00,33.00,70.20,200.00,3.00,0.00,29.77,1005.90,10.00,M,BKN,OVC,M,M,9000.00,11000.00,M,M,M,M,M,M,M,M,M,40.23,KNFL 141456Z 20003KT 10SM BKN090 OVC110 06/01 A2977 RMK AO2 SLP059 T00560006 56019,M
LAS,2023-03-14 14:56,-115.1634,36.0719,663.00,60.00,40.00,47.15,190.00,6.00,0.00,29.95,1013.10,10.00,M,FEW,SCT,BKN,M,8000.00,15000.00,22000.00,M,M,M,M,M,M,M,M,60.10,KLAS 141456Z 19006KT 10SM FEW080 SCT150 BKN220 16/04 A2995 RMK AO2 SLP131 T01560044 53000,M
BVU,2023-03-14 15:15,-114.8611,35.9475,671.00,60.80,39.20,44.76,120.00,3.00,0.00,29.97,M,10.00,M,FEW,M,M,M,12000.00,M,M,M,M,M,M,M,M,M,M,60.80,KBVU 141515Z AUTO 12003KT 10SM FEW120 16/04 A2997 RMK AO2,M
RTS,2023-03-14 15:15,-119.8764,39.6682,1539.00,39.20,33.80,80.79,60.00,3.00,0.00,29.76,M,10.00,M,BKN,BKN,M,M,5000.00,5500.00,M,M,M,M,M,M,M,M,M,36.92,KRTS 141515Z AUTO 06003KT 10SM BKN050 BKN055 04/01 A2976 RMK AO2,M
MEV,2023-03-14 15:15,-119.7500,38.9963,1441.42,44.60,33.80,65.61,180.00,14.00,0.00,29.75,M,10.00,24.00,SCT,SCT,M,M,4700.00,5500.00,M,M,M,M,M,M,M,M,M,37.40,KMEV 141515Z AUTO 18014G24KT 10SM SCT047 SCT055 07/01 A2975 RMK AO2,M
BAM,2023-03-14 15:15,-116.8743,40.5990,1382.36,42.80,32.00,65.38,70.00,10.00,0.00,29.82,M,10.00,M,OVC,M,M,M,7000.00,M,M,M,M,M,M,M,M,M,M,36.51,KBAM 141515Z AUTO 07010KT 10SM OVC070 06/00 A2982 RMK AO1,M
HTH,2023-03-14 15:15,-118.6315,38.5448,1282.89,50.00,24.80,37.08,160.00,14.00,0.00,29.78,M,10.00,22.00,BKN,M,M,M,8000.00,M,M,M,M,M,M,M,M,M,M,50.00,KHTH 141515Z AUTO 16014G22KT 10SM BKN080 10/M04 A2978 RMK A01,M
TMT,2023-03-14 15:15,-117.1971,39.4643,1749.34,32.40,30.70,93.36,0.00,0.00,0.00,29.84,M,10.00,M,BKN,OVC,M,M,7000.00,8000.00,M,M,M,M,M,M,M,M,M,32.40,KTMT 141515Z AUTO 00000KT 10SM BKN070 OVC080 00/M01 A2984 RMK AO2 T00021007,M
BVU,2023-03-14 15:35,-114.8611,35.9475,671.00,62.60,39.20,42.00,170.00,7.00,0.00,29.97,M,10.00,M,CLR,M,M,M,M,M,M,M,M,M,M,M,M,M,M,62.60,KBVU 141535Z AUTO 17007KT 10SM CLR 17/04 A2997 RMK AO2,M
RTS,2023-03-14 15:35,-119.8764,39.6682,1539.00,39.20,33.80,80.79,0.00,0.00,0.00,29.75,M,10.00,M,FEW,BKN,M,M,3900.00,5000.00,M,M,M,M,M,M,M,M,M,39.20,KRTS 141535Z AUTO 00000KT 10SM FEW039 BKN050 04/01 A2975 RMK AO2,M
MEV,2023-03-14 15:35,-119.7500,38.9963,1441.42,46.40,33.80,61.28,170.00,15.00,0.00,29.75,M,10.00,21.00,SCT,SCT,M,M,4300.00,5500.00,M,M,M,M,M,M,M,M,M,39.45,KMEV 141535Z AUTO 17015G21KT 10SM SCT043 SCT055 08/01 A2975 RMK AO2,M
BAM,2023-03-14 15:35,-116.8743,40.5990,1382.36,44.60,32.00,61.03,70.00,13.00,0.00,29.81,M,10.00,M,OVC,M,M,M,7000.00,M,M,M,M,M,M,M,M,M,M,37.71,KBAM 141535Z AUTO 07013KT 10SM OVC070 07/00 A2981 RMK AO1,M
HTH,2023-03-14 15:35,-118.6315,38.5448,1282.89,50.00,26.60,39.95,160.00,20.00,0.00,29.77,M,10.00,26.00,OVC,M,M,M,8000.00,M,M,M,M,M,M,M,M,M,M,50.00,KHTH 141535Z AUTO 16020G26KT 10SM OVC080 10/M03 A2977 RMK A01,M
TMT,2023-03-14 15:35,-117.1971,39.4643,1749.34,33.00,30.90,92.25,0.00,0.00,0.00,29.84,M,10.00,M,OVC,M,M,M,7000.00,M,M,M,M,M,M,M,M,M,M,32.90,KTMT 141535Z AUTO 00000KT 10SM OVC070 01/M01 A2984 RMK AO2 T00051006,M
P68,2023-03-14 15:53,-116.0056,39.6014,1993.00,41.00,28.00,59.55,M,6.00,0.00,29.86,1009.30,M,M,M,M,M,M,M,M,M,M,M,M,M,M,M,M,M,36.37,KP68 141553Z AUTO VRB06KT 05/M02 A2986 RMK AO1 SLP093 T00501022,M
ELY,2023-03-14 15:53,-114.8453,39.2950,1909.00,37.00,30.00,75.56,180.00,13.00,0.00,29.92,1011.90,10.00,M,OVC,M,M,M,10000.00,M,M,M,M,M,M,M,M,M,M,27.97,KELY 141553Z AUTO 18013KT 10SM OVC100 03/M01 A2992 RMK AO2 SLP119 T00281011,M
LOL,2023-03-14 15:53,-118.5701,40.0684,1192.43,41.00,34.00,75.94,0.00,0.00,0.00,29.76,1007.50,10.00,M,OVC,M,M,M,7000.00,M,M,M,M,M,M,M,M,M,M,41.00,KLOL 141553Z AUTO 00000KT 10SM OVC070 05/01 A2976 RMK AO2 SLP075 T00500011,M
DRA,2023-03-14 15:53,-116.0278,36.6206,1009.00,56.00,33.00,41.92,M,M,0.00,29.93,1011.00,10.00,M,FEW,M,M,M,6500.00,M,M,M,M,M,M,M,M,M,M,55.90,KDRA 141553Z AUTO 10SM FEW065 13/01 A2993 RMK AO2 SLP110 T01330006,M
VGT,2023-03-14 15:53,-115.1933,36.2111,667.00,62.00,40.00,43.93,180.00,9.00,0.00,29.94,1014.50,10.00,M,CLR,M,M,M,M,M,M,M,M,M,M,M,M,M,M,62.10,KVGT 141553Z 18009KT 10SM CLR 17/04 A2994 RMK AO2 SLP145 T01670044,M
BVU,2023-03-14 15:55,-114.8611,35.9475,671.00,64.40,37.40,36.74,170.00,10.00,0.00,29.96,M,10.00,M,CLR,M,M,M,M,M,M,M,M,M,M,M,M,M,M,64.40,KBVU 141555Z AUTO 17010KT 10SM CLR 18/03 A2996 RMK AO2,M
RTS,2023-03-14 15:55,-119.8764,39.6682,1539.00,39.20,33.80,80.79,0.00,0.00,0.00,29.75,M,9.00,M,SCT,BKN,BKN,M,2600.00,3500.00,4200.00,M,-RA,M,M,M,M,M,M,39.20,KRTS 141555Z AUTO 00000KT 9SM -RA SCT026 BKN035 BKN042 04/01 A2975 RMK AO2,M
MEV,2023-03-14 15:55,-119.7500,38.9963,1441.42,44.60,35.60,70.48,160.00,16.00,0.00,29.73,M,10.00,21.00,FEW,SCT,BKN,M,3200.00,3800.00,4600.00,M,-RA,M,M,M,M,M,M,36.84,KMEV 141555Z AUTO 16016G21KT 10SM -RA FEW032 SCT038 BKN046 07/02 A2973 RMK AO2,M
BAM,2023-03-14 15:55,-116.8743,40.5990,1382.36,44.60,32.00,61.03,70.00,14.00,0.00,29.80,M,10.00,M,BKN,OVC,M,M,8500.00,9000.00,M,M,M,M,M,M,M,M,M,37.40,KBAM 141555Z AUTO 07014KT 10SM BKN085 OVC090 07/00 A2980 RMK AO1,M
HTH,2023-03-14 15:55,-118.6315,38.5448,1282.89,50.00,26.60,39.95,150.00,20.00,0.00,29.76,M,10.00,27.00,OVC,M,M,M,8000.00,M,M,M,M,M,M,M,M,M,M,50.00,KHTH 141555Z AUTO 15020G27KT 10SM OVC080 10/M03 A2976 RMK A01,M
TMT,2023-03-14 15:55,-117.1971,39.4643,1749.34,33.00,30.70,90.77,0.00,0.00,0.00,29.84,M,10.00,M,BKN,OVC,M,M,4900.00,7000.00,M,M,M,M,M,M,M,M,M,33.10,KTMT 141555Z AUTO 00000KT 10SM BKN049 OVC070 01/M01 A2984 RMK AO2 T00061007,M
LSV,2023-03-14 15:55,-115.0343,36.2362,570.00,61.70,40.60,45.78,200.00,6.00,0.00,29.93,1012.40,10.00,M,CLR,M,M,M,M,M,M,M,M,M,M,M,M,M,M,61.70,KLSV 141555Z AUTO 20006KT 10SM CLR 17/05 A2993 RMK AO2 SLP124 T01650048 $,M
INS,2023-03-14 15:55,-115.6733,36.5872,955.00,55.40,36.00,47.91,110.00,13.00,0.00,29.93,1011.10,10.00,M,SCT,M,M,M,9000.00,M,M,M,M,M,M,M,M,M,M,55.40,KINS 141555Z AUTO 11013KT 10SM SCT090 13/02 A2993 RMK AO2 SLP111 T01300022 $,M
RNO,2023-03-14 15:55,-119.7711,39.4839,1341.00,44.00,36.00,72.99,180.00,6.00,T,29.74,1005.20,10.00,M,BKN,OVC,M,M,5000.00,9500.00,M,M,-RA,M,M,M,M,M,M,40.10,KRNO 141555Z 18006KT 10SM -RA BKN050 OVC095 07/02 A2974 RMK AO2 RAB46 SLP052 P0000 T00670022,M
WMC,2023-03-14 15:56,-117.8072,40.9019,1315.00,45.00,30.90,57.50,90.00,8.00,0.00,29.77,1006.90,10.00,M,OVC,M,M,M,7000.00,M,M,M,M,M,M,M,M,M,M,40.13,KWMC 141556Z AUTO 09008KT 10SM OVC070 07/M01 A2977 RMK AO2 SLP069 T00721006,M
NFL,2023-03-14 15:56,-118.7010,39.4166,1199.00,47.00,32.00,55.94,200.00,4.00,0.00,29.75,1005.50,10.00,M,OVC,M,M,M,8000.00,M,M,M,M,M,M,M,M,M,M,44.82,KNFL 141556Z 20004KT 10SM OVC080 08/00 A2975 RMK AO2 SLP055 T00830000,M
TPH,2023-03-14 15:56,-117.0904,38.0505,1654.00,43.00,34.00,70.30,160.00,12.00,0.00,29.91,1011.00,10.00,20.00,FEW,M,M,M,2400.00,M,M,M,M,M,M,M,M,M,M,36.00,KTPH 141556Z AUTO 16012G20KT 10SM FEW024 06/01 A2991 RMK AO2 SLP110 T00610011,M
EKO,2023-03-14 15:56,-115.7860,40.8242,1367.00,37.00,29.00,72.54,100.00,4.08,M,29.86,1011.20,10.00,M,OVC,M,M,M,7500.00,M,M,M,M,M,M,M,M,M,M,33.18,METAR KEKO 141556Z 10004KT 10SM OVC075 03/M02 A2986 RMK AO2 SLP112 T00281017 TSNO $ FIBI,M
HND,2023-03-14 15:56,-115.1344,35.9729,742.79,62.00,38.00,40.62,200.00,15.00,0.00,29.96,1015.20,10.00,M,FEW,M,M,M,11000.00,M,M,M,M,M,M,M,M,M,M,62.10,KHND 141556Z 20015KT 10SM FEW110 17/03 A2996 RMK AO2 SLP152 T01670033,M
LAS,2023-03-14 15:56,-115.1634,36.0719,663.00,62.00,38.00,40.62,200.00,7.00,0.00,29.95,1012.80,10.00,M,FEW,FEW,SCT,BKN,8000.00,11000.00,15000.00,20000.00,M,M,M,M,M,M,M,62.10,KLAS 141556Z 20007KT 10SM FEW080 FEW110 SCT150 BKN200 17/03 A2995 RMK AO2 SLP128 T01670033,M
BVU,2023-03-14 16:15,-114.8611,35.9475,671.00,64.40,37.40,36.74,160.00,11.00,0.00,29.96,M,10.00,M,CLR,M,M,M,M,M,M,M,M,M,M,M,M,M,M,64.40,KBVU 141615Z AUTO 16011KT 10SM CLR 18/03 A2996 RMK AO2,M
RTS,2023-03-14 16:15,-119.8764,39.6682,1539.00,39.20,35.60,86.79,0.00,0.00,0.00,29.74,M,7.00,M,FEW,FEW,M,M,2800.00,3200.00,M,M,-RA,M,M,M,M,M,M,39.20,KRTS 141615Z AUTO 00000KT 7SM -RA FEW028 FEW032 04/02 A2974 RMK AO2,M
MEV,2023-03-14 16:15,-119.7500,38.9963,1441.42,44.60,37.40,75.68,160.00,13.00,0.00,29.73,M,9.00,M,SCT,BKN,BKN,M,3300.00,3900.00,4700.00,M,-RA,M,M,M,M,M,M,37.71,KMEV 141615Z AUTO 16013KT 9SM -RA SCT033 BKN039 BKN047 07/03 A2973 RMK AO2,M
BAM,2023-03-14 16:15,-116.8743,40.5990,1382.36,44.60,33.80,65.61,70.00,15.00,0.00,29.79,M,10.00,M,OVC,M,M,M,7500.00,M,M,M,M,M,M,M,M,M,M,37.11,KBAM 141615Z AUTO 07015KT 10SM OVC075 07/01 A2979 RMK AO1,M
HTH,2023-03-14 16:15,-118.6315,38.5448,1282.89,50.00,26.60,39.95,150.00,23.00,0.00,29.76,M,10.00,33.00,BKN,BKN,M,M,8000.00,9000.00,M,M,M,M,M,M,M,M,M,50.00,KHTH 141615Z AUTO 15023G33KT 10SM BKN080 BKN090 10/M03 A2976 RMK A01,M
TMT,2023-03-14 16:15,-117.1971,39.4643,1749.34,33.80,30.00,85.79,0.00,0.00,0.00,29.83,M,10.00,M,SCT,OVC,M,M,4900.00,6000.00,M,M,M,M,M,M,M,M,M,33.80,KTMT 141615Z AUTO 00000KT 10SM SCT049 OVC060 01/M01 A2983 RMK AO2 T00101011,M
BVU,2023-03-14 16:35,-114.8611,35.9475,671.00,64.40,37.40,36.74,170.00,11.00,0.00,29.96,M,10.00,M,CLR,M,M,M,M,M,M,M,M,M,M,M,M,M,M,64.40,KBVU 141635Z AUTO 17011KT 10SM CLR 18/03 A2996 RMK AO2,M
RTS,2023-03-14 16:35,-119.8764,39.6682,1539.00,39.20,35.60,86.79,0.00,0.00,0.00,29.74,M,4.00,M,FEW,FEW,M,M,2600.00,3100.00,M,M,-RA,M,M,M,M,M,M,39.20,KRTS 141635Z AUTO 00000KT 4SM -RA FEW026 FEW031 04/02 A2974 RMK AO2,M
MEV,2023-03-14 16:35,-119.7500,38.9963,1441.42,44.60,37.40,75.68,160.00,9.00,0.00,29.73,M,7.00,18.00,BKN,BKN,M,M,3400.00,4100.00,M,M,-RA,M,M,M,M,M,M,39.18,KMEV 141635Z AUTO 16009G18KT 7SM -RA BKN034 BKN041 07/03 A2973 RMK AO2,M
BAM,2023-03-14 16:35,-116.8743,40.5990,1382.36,46.40,33.80,61.28,70.00,15.00,0.00,29.79,M,10.00,M,BKN,OVC,M,M,8000.00,9000.00,M,M,M,M,M,M,M,M,M,39.45,KBAM 141635Z AUTO 07015KT 10SM BKN080 OVC090 08/01 A2979 RMK AO1,M
HTH,2023-03-14 16:35,-118.6315,38.5448,1282.89,50.00,28.40,43.03,150.00,25.00,0.00,29.74,M,10.00,34.00,FEW,SCT,M,M,8000.00,9500.00,M,M,M,M,M,M,M,M,M,50.00,KHTH 141635Z AUTO 15025G34KT 10SM FEW080 SCT095 10/M02 A2974 RMK A01,M
TMT,2023-03-14 16:35,-117.1971,39.4643,1749.34,35.00,30.20,82.78,0.00,0.00,0.00,29.83,M,10.00,M,OVC,M,M,M,6000.00,M,M,M,M,M,M,M,M,M,M,34.90,KTMT 141635Z AUTO 00000KT 10SM OVC060 02/M01 A2983 RMK AO2 T00161010,M
TPH,2023-03-14 16:51,-117.0904,38.0505,1654.00,44.60,35.60,70.48,170.00,10.00,0.00,29.90,M,10.00,18.00,BKN,OVC,M,M,2300.00,9000.00,M,M,M,M,M,M,M,M,M,38.77,KTPH 141651Z AUTO 17010G18KT 10SM BKN023 OVC090 07/02 A2990 RMK AO2,M
P68,2023-03-14 16:53,-116.0056,39.6014,1993.00,42.00,28.00,57.08,180.00,12.00,0.00,29.86,1009.10,M,18.00,M,M,M,M,M,M,M,M,M,M,M,M,M,M,M,34.86,KP68 141653Z AUTO 18012G18KT 06/M02 A2986 RMK AO1 SLP091 T00561022,M
VGT,2023-03-14 16:53,-115.1933,36.2111,667.00,63.00,37.00,37.99,190.00,8.00,0.00,29.94,1014.50,10.00,M,BKN,M,M,M,11000.00,M,M,M,M,M,M,M,M,M,M,63.00,KVGT 141653Z 19008KT 10SM BKN110 17/03 A2994 RMK AO2 SLP145 T01720028,M
DRA,2023-03-14 16:53,-116.0278,36.6206,1009.00,57.00,38.00,48.73,190.00,17.00,T,29.93,1010.80,10.00,24.00,OVC,M,M,M,8500.00,M,M,M,-RA,M,M,M,28.00,200.00,2023-03-14 16:30,57.00,KDRA 141653Z AUTO 19017G24KT 10SM -RA OVC085 14/03 A2993 RMK AO2 PK WND 20028/1630 RAB37 SLP108 P0000 T01390033,M
LOL,2023-03-14 16:53,-118.5701,40.0684,1192.43,45.00,35.00,68.05,200.00,3.00,0.00,29.74,1006.50,10.00,M,OVC,M,M,M,6500.00,M,M,M,M,M,M,M,M,M,M,43.55,KLOL 141653Z AUTO 20003KT 10SM OVC065 07/02 A2974 RMK AO2 SLP065 T00720017,M
ELY,2023-03-14 16:53,-114.8453,39.2950,1909.00,40.00,30.00,67.45,160.00,21.00,0.00,29.92,1011.30,10.00,27.00,BKN,M,M,M,10000.00,M,M,M,M,M,M,M,30.00,150.00,2023-03-14 16:41,29.39,KELY 141653Z AUTO 16021G27KT 10SM BKN100 04/M01 A2992 RMK AO2 PK WND 15030/1641 SLP113 T00441011,M
BVU,2023-03-14 16:55,-114.8611,35.9475,671.00,64.40,37.40,36.74,140.00,12.00,0.00,29.96,M,10.00,M,CLR,M,M,M,M,M,M,M,M,M,M,M,M,M,M,64.40,KBVU 141655Z AUTO 14012KT 10SM CLR 18/03 A2996 RMK AO2,M
RTS,2023-03-14 16:55,-119.8764,39.6682,1539.00,39.20,37.40,93.19,0.00,0.00,0.01,29.72,M,5.00,M,FEW,FEW,SCT,M,2300.00,2700.00,3300.00,M,-RA,M,M,M,M,M,M,39.20,KRTS 141655Z AUTO 00000KT 5SM -RA FEW023 FEW027 SCT033 04/03 A2972 RMK AO2 P0001,M
MEV,2023-03-14 16:55,-119.7500,38.9963,1441.42,42.80,39.20,86.99,110.00,9.00,0.01,29.72,M,7.00,14.00,SCT,BKN,M,M,2900.00,3400.00,M,M,-RA,M,M,M,M,M,M,36.94,KMEV 141655Z AUTO 11009G14KT 7SM -RA SCT029 BKN034 06/04 A2972 RMK AO2 P0001,M
BAM,2023-03-14 16:55,-116.8743,40.5990,1382.36,44.60,35.60,70.48,170.00,6.00,0.00,29.80,M,10.00,M,SCT,OVC,M,M,6000.00,8000.00,M,M,M,M,M,M,M,M,M,40.71,KBAM 141655Z AUTO 17006KT 10SM SCT060 OVC080 07/02 A2980 RMK AO1,M
HTH,2023-03-14 16:55,-118.6315,38.5448,1282.89,51.80,28.40,40.25,150.00,23.00,0.00,29.75,M,10.00,31.00,FEW,SCT,M,M,6000.00,9000.00,M,M,M,M,M,M,M,M,M,51.80,KHTH 141655Z AUTO 15023G31KT 10SM FEW060 SCT090 11/M02 A2975 RMK A01,M
TMT,2023-03-14 16:55,-117.1971,39.4643,1749.34,35.40,30.90,83.49,280.00,4.00,0.00,29.83,M,10.00,M,OVC,M,M,M,7000.00,M,M,M,M,M,M,M,M,M,M,31.39,KTMT 141655Z AUTO 28004KT 10SM OVC070 02/M01 A2983 RMK AO2 T00191006,M
LSV,2023-03-14 16:55,-115.0343,36.2362,570.00,63.30,39.70,41.78,120.00,5.00,0.00,29.93,1012.40,10.00,M,FEW,FEW,M,M,10000.00,19000.00,M,M,M,M,M,M,M,M,M,63.30,KLSV 141655Z AUTO 12005KT 10SM FEW100 FEW190 17/04 A2993 RMK AO2 SLP124 T01740043 $,M
RNO,2023-03-14 16:55,-119.7711,39.4839,1341.00,45.00,38.00,76.01,180.00,9.00,0.01,29.71,1004.40,7.00,M,OVC,M,M,M,5000.00,M,M,M,RA,M,M,M,M,M,M,39.68,KRNO 141655Z 18009KT 7SM RA OVC050 07/03 A2971 RMK AO2 SLP044 P0001 T00720033,M
INS,2023-03-14 16:55,-115.6733,36.5872,955.00,56.70,36.00,45.89,110.00,10.00,0.00,29.93,1011.30,10.00,M,FEW,SCT,OVC,M,3500.00,7500.00,9000.00,M,M,M,M,M,M,M,M,56.70,KINS 141655Z AUTO 11010KT 10SM FEW035 SCT075 OVC090 14/02 A2993 RMK AO2 SLP113 T01370023 $,M
LAS,2023-03-14 16:56,-115.1634,36.0719,663.00,63.00,36.00,36.52,200.00,6.00,0.00,29.95,1013.10,10.00,M,FEW,BKN,BKN,BKN,8000.00,10000.00,15000.00,20000.00,M,M,M,M,M,M,M,63.00,KLAS 141656Z 20006KT 10SM FEW080 BKN100 BKN150 BKN200 17/02 A2995 RMK AO2 SLP131 T01720022,M
EKO,2023-03-14 16:56,-115.7860,40.8242,1367.00,41.00,29.00,62.04,40.00,7.00,M,29.83,1010.30,10.00,M,OVC,M,M,M,7998.00,M,M,M,M,M,M,M,M,M,M,35.75,METAR KEKO 141656Z 04007KT 10SM OVC080 05/M02 A2983 RMK AO2 SLP103 T00501017 TSNO FIBI,M
HND,2023-03-14 16:56,-115.1344,35.9729,742.79,64.00,35.00,34.02,210.00,17.00,0.00,29.97,1015.30,10.00,M,OVC,M,M,M,10000.00,M,M,M,M,M,M,M,M,M,M,64.00,KHND 141656Z 21017KT 10SM OVC100 18/02 A2997 RMK AO2 SLP153 T01780017,M
WMC,2023-03-14 16:56,-117.8072,40.9019,1315.00,47.00,33.00,58.47,160.00,5.00,0.00,29.76,1006.40,10.00,M,OVC,M,M,M,6000.00,M,M,M,M,M,M,M,M,M,M,44.09,KWMC 141656Z AUTO 16005KT 10SM OVC060 08/01 A2976 RMK AO2 SLP064 T00830006,M
NFL,2023-03-14 16:56,-118.7010,39.4166,1199.00,49.00,33.00,54.24,150.00,4.00,0.00,29.73,1004.90,10.00,M,SCT,OVC,M,M,5000.00,7000.00,M,M,M,M,M,M,M,M,M,47.16,KNFL 141656Z 15004KT 10SM SCT050 OVC070 09/01 A2973 RMK AO2 SLP049 T00940006,M
TPH,2023-03-14 16:56,-117.0904,38.0505,1654.00,44.00,35.00,70.43,170.00,10.00,0.00,29.89,1010.80,10.00,18.00,BKN,OVC,M,M,2300.00,9000.00,M,M,M,M,M,M,M,M,M,38.14,KTPH 141656Z AUTO 17010G18KT 10SM BKN023 OVC090 07/02 A2989 RMK AO2 SLP108 T00670017,M
TPH,2023-03-14 17:11,-117.0904,38.0505,1654.00,44.00,35.00,70.43,180.00,15.00,0.00,29.90,M,10.00,21.00,SCT,SCT,M,M,2300.00,9500.00,M,M,M,M,M,M,M,M,M,36.47,KTPH 141711Z AUTO 18015G21KT 10SM SCT023 SCT095 07/02 A2990 RMK AO2 T00670017,M
BVU,2023-03-14 17:15,-114.8611,35.9475,671.00,64.40,37.40,36.74,160.00,14.00,0.00,29.97,M,10.00,M,SCT,M,M,M,10000.00,M,M,M,M,M,M,M,M,M,M,64.40,KBVU 141715Z AUTO 16014KT 10SM SCT100 18/03 A2997 RMK AO2,M
RTS,2023-03-14 17:15,-119.8764,39.6682,1539.00,41.00,35.60,80.93,0.00,0.00,0.00,29.71,M,5.00,M,FEW,FEW,FEW,M,2000.00,2600.00,3300.00,M,-RA,M,M,M,M,M,M,41.00,KRTS 141715Z AUTO 00000KT 5SM -RA FEW020 FEW026 FEW033 05/02 A2971 RMK AO2,M
MEV,2023-03-14 17:15,-119.7500,38.9963,1441.42,42.80,37.40,81.07,120.00,8.00,0.00,29.71,M,6.00,18.00,BKN,BKN,M,M,3200.00,4000.00,M,M,-RA HZ,M,M,M,M,M,M,37.42,KMEV 141715Z AUTO 12008G18KT 090V150 6SM -RA HZ BKN032 BKN040 06/03 A2971 RMK AO2,M
BAM,2023-03-14 17:15,-116.8743,40.5990,1382.36,44.60,35.60,70.48,170.00,6.00,0.00,29.80,M,10.00,M,OVC,M,M,M,7000.00,M,M,M,M,M,M,M,M,M,M,40.71,KBAM 141715Z AUTO 17006KT 10SM OVC070 07/02 A2980 RMK AO1,M
HTH,2023-03-14 17:15,-118.6315,38.5448,1282.89,51.80,28.40,40.25,130.00,23.00,0.00,29.76,M,10.00,31.00,BKN,BKN,M,M,5500.00,9000.00,M,M,M,M,M,M,M,M,M,51.80,KHTH 141715Z AUTO 13023G31KT 10SM BKN055 BKN090 11/M02 A2976 RMK A01,M
TMT,2023-03-14 17:15,-117.1971,39.4643,1749.34,35.20,31.60,86.57,0.00,0.00,0.00,29.82,M,10.00,M,SCT,OVC,M,M,5000.00,6000.00,M,M,M,M,M,M,M,M,M,35.20,KTMT 141715Z AUTO 00000KT 10SM SCT050 OVC060 02/00 A2982 RMK AO2 T00181002,M
BVU,2023-03-14 17:35,-114.8611,35.9475,671.00,64.40,37.40,36.74,160.00,10.00,0.00,29.96,M,10.00,17.00,SCT,M,M,M,10000.00,M,M,M,M,M,M,M,M,M,M,64.40,KBVU 141735Z AUTO 16010G17KT 10SM SCT100 18/03 A2996 RMK AO2,M
RTS,2023-03-14 17:35,-119.8764,39.6682,1539.00,41.00,37.40,86.89,160.00,7.00,0.00,29.70,M,4.00,M,SCT,M,M,M,1700.00,M,M,M,-RA,M,M,M,M,M,M,35.75,KRTS 141735Z AUTO 16007KT 4SM -RA SCT017 05/03 A2970 RMK AO2,M
MEV,2023-03-14 17:35,-119.7500,38.9963,1441.42,42.80,37.40,81.07,140.00,10.00,0.00,29.71,M,4.00,17.00,BKN,BKN,M,M,3300.00,4000.00,M,M,-RA HZ,M,M,M,M,M,M,36.51,KMEV 141735Z AUTO 14010G17KT 4SM -RA HZ BKN033 BKN040 06/03 A2971 RMK AO2,M
BAM,2023-03-14 17:35,-116.8743,40.5990,1382.36,44.60,35.60,70.48,180.00,3.00,0.00,29.80,M,10.00,M,OVC,M,M,M,6000.00,M,M,M,M,M,M,M,M,M,M,43.09,KBAM 141735Z AUTO 18003KT 10SM OVC060 07/02 A2980 RMK AO1,M
HTH,2023-03-14 17:35,-118.6315,38.5448,1282.89,51.80,28.40,40.25,130.00,20.00,0.00,29.75,M,10.00,27.00,OVC,M,M,M,5000.00,M,M,M,M,M,M,M,M,M,M,51.80,KHTH 141735Z AUTO 13020G27KT 10SM OVC050 11/M02 A2975 RMK A01,M
TMT,2023-03-14 17:35,-117.1971,39.4643,1749.34,37.20,31.60,79.99,0.00,0.00,0.00,29.81,M,10.00,M,SCT,OVC,M,M,5000.00,6000.00,M,M,M,M,M,M,M,M,M,37.20,KTMT 141735Z AUTO 00000KT 10SM SCT050 OVC060 03/00 A2981 RMK AO2 T00291002,M
ELY,2023-03-14 17:53,-114.8453,39.2950,1909.00,39.00,30.00,69.85,160.00,21.00,0.00,29.90,1010.60,10.00,31.00,OVC,M,M,M,11000.00,M,M,M,M,M,M,M,34.00,170.00,2023-03-14 17:31,28.19,KELY 141753Z AUTO 16021G31KT 10SM OVC110 04/M01 A2990 RMK AO2 PK WND 17034/1731 SLP106 T00391011 10044 20006 56010,M
VGT,2023-03-14 17:53,-115.1933,36.2111,667.00,66.00,36.00,32.88,200.00,13.00,0.00,29.95,1014.80,10.00,M,BKN,OVC,M,M,7500.00,11000.00,M,M,M,M,M,M,M,M,M,66.00,KVGT 141753Z 20013KT 10SM BKN075 OVC110 19/02 A2995 RMK AO2 SLP148 T01890022 10189 20139 53004,M
LOL,2023-03-14 17:53,-118.5701,40.0684,1192.43,46.00,35.00,65.52,310.00,3.00,T,29.73,1006.00,10.00,M,BKN,OVC,M,M,5000.00,6000.00,M,M,-RA,M,M,M,M,M,M,44.69,KLOL 141753Z AUTO 31003KT 10SM -RA BKN050 OVC060 08/02 A2973 RMK AO2 RAB43 SLP060 P0000 60000 T00780017 10083 20039 56014,M
P68,2023-03-14 17:53,-116.0056,39.6014,1993.00,42.00,28.90,59.22,170.00,17.00,0.00,29.84,1008.50,M,25.00,M,M,M,M,M,M,M,M,M,M,M,M,M,M,M,33.31,KP68 141753Z AUTO 17017G25KT 06/M02 A2984 RMK AO1 SLP085 T00561017 10061 21011 58012,M
DRA,2023-03-14 17:53,-116.0278,36.6206,1009.00,56.00,42.00,59.71,200.00,18.00,T,29.94,1011.60,10.00,27.00,OVC,M,M,M,7000.00,M,M,M,-RA,M,M,M,33.00,200.00,2023-03-14 16:59,55.90,KDRA 141753Z AUTO 20018G27KT 10SM -RA OVC070 13/06 A2994 RMK AO2 PK WND 20033/1659 SLP116 P0000 60000 T01330056 10150 20072 53005,M
BVU,2023-03-14 17:55,-114.8611,35.9475,671.00,64.40,37.40,36.74,170.00,12.00,0.00,29.97,M,10.00,M,SCT,M,M,M,8500.00,M,M,M,M,M,M,M,M,M,M,64.40,KBVU 141755Z AUTO 17012KT 10SM SCT085 18/03 A2997 RMK AO2,M
CXP,2023-03-14 17:55,-119.7326,39.1923,1431.00,41.00,37.40,86.89,70.00,8.00,0.04,29.72,M,3.00,M,BKN,M,M,M,2700.00,M,M,M,-RA BR,M,M,M,M,M,M,35.20,KCXP 141755Z AUTO 07008KT 3SM -RA BR BKN027 05/03 A2972 RMK AO2 P0004,M
INS,2023-03-14 17:55,-115.6733,36.5872,955.00,59.00,36.50,42.92,300.00,3.00,0.00,29.96,1012.30,10.00,M,OVC,M,M,M,5500.00,M,M,M,M,M,M,M,M,M,M,59.00,KINS 141755Z AUTO 30003KT 10SM OVC055 15/03 A2996 RMK AO2 SLP123 T01500025 10153 20070 50011 $,M
RTS,2023-03-14 17:55,-119.8764,39.6682,1539.00,41.00,37.40,86.89,150.00,7.00,0.05,29.70,M,4.00,M,BKN,BKN,M,M,1600.00,2300.00,M,M,BR,M,M,M,M,M,M,35.75,KRTS 141755Z AUTO 15007KT 4SM BR BKN016 BKN023 05/03 A2970 RMK AO2 P0005,M
MEV,2023-03-14 17:55,-119.7500,38.9963,1441.42,42.80,37.40,81.07,150.00,17.00,0.06,29.70,M,3.00,22.00,SCT,M,M,M,3200.00,M,M,M,-RA HZ,M,M,M,M,M,M,34.22,KMEV 141755Z AUTO 15017G22KT 3SM -RA HZ SCT032 06/03 A2970 RMK AO2 P0006,M
BAM,2023-03-14 17:55,-116.8743,40.5990,1382.36,46.40,35.60,65.83,160.00,5.00,0.00,29.80,M,10.00,M,OVC,M,M,M,6000.00,M,M,M,M,M,M,M,M,M,M,43.50,KBAM 141755Z AUTO 16005KT 10SM OVC060 08/02 A2980 RMK AO1,M
HTH,2023-03-14 17:55,-118.6315,38.5448,1282.89,51.80,30.20,43.32,130.00,24.00,0.00,29.75,M,10.00,30.00,OVC,M,M,M,5000.00,M,M,M,M,M,M,M,M,M,M,51.80,KHTH 141755Z AUTO 13024G30KT 10SM OVC050 11/M01 A2975 RMK A01,M
TMT,2023-03-14 17:55,-117.1971,39.4643,1749.34,38.30,32.00,77.85,0.00,0.00,0.00,29.81,M,10.00,M,OVC,M,M,M,6000.00,M,M,M,M,M,M,M,M,M,M,38.30,KTMT 141755Z AUTO 00000KT 10SM OVC060 04/00 A2981 RMK AO2 T00350000 10035 21014,M
LSV,2023-03-14 17:55,-115.0343,36.2362,570.00,64.00,38.70,39.21,110.00,6.00,0.00,29.93,1012.40,10.00,M,FEW,SCT,M,M,8000.00,10000.00,M,M,M,M,M,M,M,M,M,64.00,KLSV 141755Z AUTO 11006KT 10SM FEW080 SCT100 18/04 A2993 RMK AO2 SLP124 T01780037 10178 20121 50000 $,M
RNO,2023-03-14 17:55,-119.7711,39.4839,1341.00,44.00,38.00,78.66,140.00,7.00,0.12,29.69,1003.70,7.00,M,FEW,OVC,M,M,2000.00,3500.00,M,M,-RA,M,M,M,M,M,M,39.53,KRNO 141755Z 14007KT 7SM -RA FEW020 OVC035 07/03 A2969 RMK AO2 SLP037 P0012 60013 T00670033 10072 20056 58019,M
HND,2023-03-14 17:56,-115.1344,35.9729,742.79,67.00,39.00,35.86,210.00,14.00,0.00,29.98,1015.70,10.00,M,FEW,SCT,BKN,M,4300.00,5500.00,8000.00,M,M,M,M,M,M,M,M,66.90,KHND 141756Z 21014KT 10SM FEW043 SCT055 BKN080 19/04 A2998 RMK AO2 SLP157 T01940039 10194 20133 53002,M
LAS,2023-03-14 17:56,-115.1634,36.0719,663.00,66.00,36.00,32.88,200.00,9.00,0.00,29.96,1013.30,10.00,16.00,SCT,BKN,OVC,M,8000.00,10000.00,18000.00,M,M,M,M,M,M,M,M,66.00,KLAS 141756Z 20009G16KT 10SM SCT080 BKN100 OVC180 19/02 A2996 RMK AO2 SLP133 VCSH T01890022 10189 20144 53002,M
EKO,2023-03-14 17:56,-115.7860,40.8242,1367.00,44.00,30.00,57.59,50.00,4.08,M,29.82,1009.60,10.00,M,OVC,M,M,M,7998.00,M,M,M,M,M,M,M,M,M,M,41.36,METAR KEKO 141756Z 05004KT 10SM OVC080 07/M01 A2982 RMK AO2 SLP096 T00671011 10067 21011 56015 TSNO FIBI,M
TPH,2023-03-14 17:56,-117.0904,38.0505,1654.00,45.00,35.00,68.05,180.00,16.00,0.00,29.88,1010.60,10.00,M,SCT,M,M,M,12000.00,M,M,M,M,M,M,M,M,M,M,37.36,KTPH 141756Z AUTO 18016KT 10SM SCT120 07/02 A2988 RMK AO2 SLP106 T00720017 10072 20022 58007,M
WMC,2023-03-14 17:56,-117.8072,40.9019,1315.00,47.00,35.00,63.33,M,3.00,T,29.74,1005.70,10.00,M,OVC,M,M,M,4700.00,M,M,M,-RA,M,M,M,M,M,M,45.72,KWMC 141756Z AUTO VRB03KT 10SM -RA OVC047 08/02 A2974 RMK AO2 RAB29 SLP057 P0000 60000 T00830017 10089 20056 58014,M
NFL,2023-03-14 17:56,-118.7010,39.4166,1199.00,51.00,35.00,54.13,140.00,5.00,T,29.70,1004.00,10.00,M,FEW,BKN,OVC,M,5000.00,6500.00,8000.00,M,M,M,M,M,M,M,M,51.10,KNFL 141756Z 14005KT 10SM FEW050 BKN065 OVC080 11/02 A2970 RMK AO2 RAB11E19 SLP040 P0000 60000 T01060017 10106 20044 58019,M
BVU,2023-03-14 18:15,-114.8611,35.9475,671.00,66.20,37.40,34.51,170.00,15.00,0.00,29.97,M,10.00,M,FEW,FEW,M,M,5500.00,8500.00,M,M,M,M,M,M,M,M,M,66.20,KBVU 141815Z AUTO 17015KT 10SM FEW055 FEW085 19/03 A2997 RMK AO2,M
CXP,2023-03-14 18:15,-119.7326,39.1923,1431.00,41.00,37.40,86.89,0.00,0.00,0.00,29.72,M,3.00,M,BKN,M,M,M,2700.00,M,M,M,-RA BR,M,M,M,M,M,M,41.00,KCXP 141815Z AUTO 00000KT 3SM -RA BR BKN027 05/03 A2972 RMK AO2,M
RTS,2023-03-14 18:15,-119.8764,39.6682,1539.00,41.00,39.20,93.24,130.00,9.00,0.00,29.69,M,3.00,M,BKN,OVC,M,M,1100.00,1600.00,M,M,BR,M,M,M,M,M,M,34.70,KRTS 141815Z AUTO 13009KT 3SM BR BKN011 OVC016 05/04 A2969 RMK AO2,M
MEV,2023-03-14 18:15,-119.7500,38.9963,1441.42,42.80,39.20,86.99,150.00,17.00,0.00,29.69,M,3.00,22.00,FEW,FEW,FEW,M,3200.00,4100.00,4700.00,M,-RA HZ,M,M,M,M,M,M,34.22,KMEV 141815Z AUTO 15017G22KT 3SM -RA HZ FEW032 FEW041 FEW047 06/04 A2969 RMK AO2,M
BAM,2023-03-14 18:15,-116.8743,40.5990,1382.36,48.20,35.60,61.52,0.00,0.00,0.00,29.79,M,10.00,M,OVC,M,M,M,5500.00,M,M,M,M,M,M,M,M,M,M,48.20,KBAM 141815Z AUTO 00000KT 10SM OVC055 09/02 A2979 RMK AO1,M
HTH,2023-03-14 18:15,-118.6315,38.5448,1282.89,51.80,30.20,43.32,120.00,20.00,0.00,29.75,M,10.00,30.00,OVC,M,M,M,5000.00,M,M,M,M,M,M,M,M,M,M,51.80,KHTH 141815Z AUTO 12020G30KT 10SM OVC050 11/M01 A2975 RMK A01,M
TMT,2023-03-14 18:15,-117.1971,39.4643,1749.34,38.50,32.00,77.24,270.00,3.00,0.00,29.82,M,10.00,M,SCT,BKN,OVC,M,4000.00,4700.00,6000.00,M,-DZ,M,M,M,M,M,M,36.12,KTMT 141815Z AUTO 27003KT 10SM -DZ SCT040 BKN047 OVC060 04/00 A2982 RMK AO2 T00360000,M
BVU,2023-03-14 18:35,-114.8611,35.9475,671.00,66.20,37.40,34.51,180.00,14.00,0.00,29.97,M,10.00,20.00,FEW,FEW,M,M,6000.00,7500.00,M,M,M,M,M,M,M,M,M,66.20,KBVU 141835Z AUTO 18014G20KT 10SM FEW060 FEW075 19/03 A2997 RMK AO2,M
CXP,2023-03-14 18:35,-119.7326,39.1923,1431.00,42.80,37.40,81.07,M,4.00,0.00,29.70,M,8.00,M,SCT,BKN,BKN,M,2400.00,3100.00,3700.00,M,-RA,M,M,M,M,M,M,40.03,KCXP 141835Z AUTO VRB04KT 8SM -RA SCT024 BKN031 BKN037 06/03 A2970 RMK AO2,M
RTS,2023-03-14 18:35,-119.8764,39.6682,1539.00,41.00,37.40,86.89,120.00,8.00,0.00,29.68,M,4.00,M,BKN,M,M,M,1100.00,M,M,M,-DZ,M,M,M,M,M,M,35.20,KRTS 141835Z AUTO 12008KT 4SM -DZ BKN011 05/03 A2968 RMK AO2,M
MEV,2023-03-14 18:35,-119.7500,38.9963,1441.42,44.60,39.20,81.20,130.00,17.00,0.00,29.68,M,8.00,23.00,SCT,BKN,M,M,4600.00,5500.00,M,M,-RA,M,M,M,M,M,M,36.58,KMEV 141835Z AUTO 13017G23KT 8SM -RA SCT046 BKN055 07/04 A2968 RMK AO2,M
BAM,2023-03-14 18:35,-116.8743,40.5990,1382.36,50.00,35.60,57.52,0.00,0.00,0.00,29.78,M,10.00,M,BKN,OVC,M,M,5000.00,6500.00,M,M,M,M,M,M,M,M,M,50.00,KBAM 141835Z AUTO 00000KT 10SM BKN050 OVC065 10/02 A2978 RMK AO1,M
HTH,2023-03-14 18:35,-118.6315,38.5448,1282.89,51.80,32.00,46.59,110.00,18.00,0.00,29.74,M,10.00,34.00,OVC,M,M,M,4900.00,M,M,M,M,M,M,M,M,M,M,51.80,KHTH 141835Z AUTO 11018G34KT 10SM OVC049 11/M00 A2974 RMK A01,M
TMT,2023-03-14 18:35,-117.1971,39.4643,1749.34,40.30,33.00,75.26,210.00,12.00,0.00,29.81,M,10.00,M,BKN,BKN,OVC,M,3200.00,4000.00,4600.00,M,DZ,M,M,M,M,M,M,32.57,KTMT 141835Z AUTO 21012KT 10SM DZ BKN032 BKN040 OVC046 05/01 A2981 RMK AO2 T00460006,M
INS,2023-03-14 18:42,-115.6733,36.5872,955.00,59.00,37.40,44.47,220.00,14.00,0.00,29.95,1012.10,10.00,M,OVC,M,M,M,6000.00,M,M,M,M,M,M,M,M,M,M,59.00,KINS 141842Z AUTO 22014KT 10SM OVC060 15/03 A2995 RMK AO2 WSHFT 33 SLP121 $,M
INS,2023-03-14 18:44,-115.6733,36.5872,955.00,59.00,37.40,44.47,180.00,10.00,0.00,29.95,1012.10,10.00,18.00,OVC,M,M,M,6000.00,M,M,M,M,M,M,M,M,M,M,59.00,KINS 141844Z AUTO 18010G18KT 10SM OVC060 15/03 A2995 RMK AO2 WSHFT 42 SLP121 $,M
P68,2023-03-14 18:53,-116.0056,39.6014,1993.00,43.00,28.90,57.21,190.00,13.00,0.00,29.83,1008.50,M,21.00,M,M,M,M,M,M,M,M,M,M,M,M,M,M,M,35.66,KP68 141853Z AUTO 19013G21KT 06/M02 A2983 RMK AO1 SLP085 T00611017,M
ELY,2023-03-14 18:53,-114.8453,39.2950,1909.00,39.00,30.00,69.85,160.00,18.00,0.00,29.89,1010.40,10.00,28.00,BKN,OVC,M,M,7000.00,8500.00,M,M,M,M,M,M,30.00,150.00,2023-03-14 18:03,28.96,KELY 141853Z AUTO 16018G28KT 10SM BKN070 OVC085 04/M01 A2989 RMK AO2 PK WND 15030/1803 SLP104 T00391011,M
DRA,2023-03-14 18:53,-116.0278,36.6206,1009.00,55.00,42.00,61.69,200.00,24.00,0.01,29.95,1011.90,10.00,33.00,SCT,OVC,M,M,4400.00,6500.00,M,M,-RA,M,M,M,34.00,210.00,2023-03-14 18:16,55.00,KDRA 141853Z AUTO 20024G33KT 10SM -RA SCT044 OVC065 13/06 A2995 RMK AO2 PK WND 21034/1816 SLP119 P0001 T01280056,M
VGT,2023-03-14 18:53,-115.1933,36.2111,667.00,66.00,40.00,38.32,200.00,12.00,0.00,29.96,1015.10,10.00,M,OVC,M,M,M,7500.00,M,M,M,M,M,M,M,M,M,M,66.00,KVGT 141853Z 20012KT 10SM OVC075 19/04 A2996 RMK AO2 SLP151 T01890044,M
LOL,2023-03-14 18:53,-118.5701,40.0684,1192.43,47.00,37.00,68.27,M,3.00,0.01,29.71,1005.40,10.00,M,OVC,M,M,M,4200.00,M,M,M,-RA,M,M,M,M,M,M,45.72,KLOL 141853Z AUTO VRB03KT 10SM -RA OVC042 08/03 A2971 RMK AO2 SLP054 P0001 T00830028,M
BVU,2023-03-14 18:55,-114.8611,35.9475,671.00,66.20,41.00,39.72,220.00,17.00,0.00,29.97,M,10.00,M,BKN,BKN,M,M,6500.00,7500.00,M,M,M,M,M,M,M,M,M,66.20,KBVU 141855Z AUTO 22017KT 10SM BKN065 BKN075 19/05 A2997 RMK AO2,M
CXP,2023-03-14 18:55,-119.7326,39.1923,1431.00,42.80,39.20,86.99,M,5.00,0.02,29.69,M,9.00,M,FEW,SCT,BKN,M,2100.00,2600.00,3000.00,M,-RA,M,M,M,M,M,M,39.22,KCXP 141855Z AUTO VRB05KT 9SM -RA FEW021 SCT026 BKN030 06/04 A2969 RMK AO2 P0002,M
INS,2023-03-14 18:55,-115.6733,36.5872,955.00,57.60,38.50,48.83,100.00,10.00,0.00,29.96,1012.50,10.00,15.00,OVC,M,M,M,6000.00,M,M,M,M,M,M,M,M,M,M,57.60,KINS 141855Z AUTO 10010G15KT 10SM OVC060 14/04 A2996 RMK AO2 SLP125 T01420036 $,M
RTS,2023-03-14 18:55,-119.8764,39.6682,1539.00,41.00,37.40,86.89,110.00,9.00,0.00,29.66,M,4.00,M,FEW,SCT,M,M,900.00,1300.00,M,M,-DZ,M,M,M,M,M,M,34.70,KRTS 141855Z AUTO 11009KT 4SM -DZ FEW009 SCT013 05/03 A2966 RMK AO2,M
MEV,2023-03-14 18:55,-119.7500,38.9963,1441.42,44.60,39.20,81.20,130.00,18.00,0.01,29.66,M,10.00,27.00,BKN,OVC,M,M,4800.00,5500.00,M,M,-RA,M,M,M,M,M,M,36.34,KMEV 141855Z AUTO 13018G27KT 10SM -RA BKN048 OVC055 07/04 A2966 RMK AO2 P0001,M
BAM,2023-03-14 18:55,-116.8743,40.5990,1382.36,50.00,33.80,53.54,210.00,3.00,0.00,29.77,M,10.00,M,BKN,OVC,M,M,5000.00,6500.00,M,M,M,M,M,M,M,M,M,50.00,KBAM 141855Z AUTO 21003KT 10SM BKN050 OVC065 10/01 A2977 RMK AO1,M
HTH,2023-03-14 18:55,-118.6315,38.5448,1282.89,53.60,33.80,46.88,140.00,23.00,0.00,29.74,M,10.00,31.00,BKN,OVC,M,M,4600.00,5500.00,M,M,M,M,M,M,M,M,M,53.60,KHTH 141855Z AUTO 14023G31KT 10SM BKN046 OVC055 12/01 A2974 RMK A01,M
TMT,2023-03-14 18:55,-117.1971,39.4643,1749.34,38.80,35.00,85.74,250.00,4.00,0.00,29.78,M,10.00,M,SCT,BKN,OVC,M,3300.00,4200.00,7500.00,M,-DZ,M,M,M,M,M,M,35.36,KTMT 141855Z AUTO 25004KT 10SM -DZ SCT033 BKN042 OVC075 04/02 A2978 RMK AO2 T00380016,M
RNO,2023-03-14 18:55,-119.7711,39.4839,1341.00,44.00,39.00,82.12,110.00,8.00,0.06,29.66,1002.60,10.00,M,FEW,OVC,M,M,2100.00,4000.00,M,M,-RA,M,M,M,M,M,M,39.02,KRNO 141855Z 11008KT 090V150 10SM -RA FEW021 OVC040 07/04 A2966 RMK AO2 SLP026 P0006 T00670039,M
LSV,2023-03-14 18:55,-115.0343,36.2362,570.00,65.00,38.80,37.88,200.00,16.00,0.00,29.93,1012.50,10.00,M,SCT,M,M,M,7500.00,M,M,M,M,M,M,M,M,M,M,65.10,KLSV 141855Z AUTO 20016KT 10SM SCT075 18/04 A2993 RMK AO2 SLP125 T01840038 $,M
INS,2023-03-14 18:56,-115.6733,36.5872,955.00,57.20,39.20,50.91,50.00,12.00,0.00,29.96,1012.50,10.00,15.00,OVC,M,M,M,6000.00,M,M,M,M,M,M,M,M,M,M,57.20,KINS 141856Z AUTO 05012G15KT 10SM OVC060 14/04 A2996 RMK AO2 WSHFT 54 SLP125 $,M
NFL,2023-03-14 18:56,-118.7010,39.4166,1199.00,52.00,36.00,54.26,180.00,11.00,T,29.69,1003.60,10.00,M,BKN,OVC,M,M,5000.00,7000.00,M,M,-RA,M,M,M,M,M,M,52.00,KNFL 141856Z 18011KT 10SM -RA BKN050 OVC070 11/02 A2969 RMK AO2 RAB54 SLP036 WR// P0000 T01110022,M
TPH,2023-03-14 18:56,-117.0904,38.0505,1654.00,48.00,36.00,62.97,180.00,15.00,0.00,29.88,1010.20,10.00,M,FEW,BKN,OVC,M,2500.00,3700.00,7000.00,M,M,M,M,M,M,M,M,41.52,KTPH 141856Z AUTO 18015KT 10SM FEW025 BKN037 OVC070 09/02 A2988 RMK AO2 SLP102 T00890022,M
LAS,2023-03-14 18:56,-115.1634,36.0719,663.00,63.00,45.00,51.78,190.00,13.00,T,29.97,1013.70,10.00,24.00,FEW,BKN,OVC,M,5000.00,7000.00,11000.00,M,-RA,M,M,M,M,M,M,63.00,KLAS 141856Z 19013G24KT 10SM -RA FEW050 BKN070 OVC110 17/07 A2997 RMK AO2 RAB54 SLP137 P0000 T01720072,M
EKO,2023-03-14 18:56,-115.7860,40.8242,1367.00,45.00,31.00,57.73,240.00,4.08,M,29.81,1009.10,10.00,M,OVC,M,M,M,6000.00,M,M,M,M,M,M,M,M,M,M,42.53,METAR KEKO 141856Z 24004KT 10SM OVC060 07/M01 A2981 RMK AO2 SLP091 T00721006 TSNO FIBI,M
WMC,2023-03-14 18:56,-117.8072,40.9019,1315.00,50.00,35.00,56.39,170.00,14.00,T,29.71,1004.40,10.00,21.00,BKN,OVC,M,M,4500.00,5500.00,M,M,-RA,M,M,M,M,M,M,50.00,KWMC 141856Z AUTO 17014G21KT 10SM -RA BKN045 OVC055 10/02 A2971 RMK AO2 RAE21B44 SLP044 P0000 T01000017,M
HND,2023-03-14 18:56,-115.1344,35.9729,742.79,61.00,47.00,59.71,220.00,13.00,T,30.00,1016.40,10.00,M,OVC,M,M,M,7000.00,M,M,M,-RA,M,M,M,M,M,M,61.00,KHND 141856Z 22013KT 10SM -RA OVC070 16/08 A3000 RMK AO2 RAB03 SLP164 P0000 T01610083,M
LSV,2023-03-14 19:12,-115.0343,36.2362,570.00,66.20,44.60,45.60,200.00,19.00,0.00,29.94,1012.90,10.00,28.00,SCT,BKN,M,M,5000.00,7500.00,M,M,-RA,M,M,M,M,M,M,66.20,KLSV 141912Z AUTO 20019G28KT 10SM -RA SCT050 BKN075 19/07 A2994 RMK AO2 RAB12 SLP129 $,M
LSV,2023-03-14 19:14,-115.0343,36.2362,570.00,64.40,44.60,48.55,200.00,18.00,0.00,29.94,1012.90,10.00,28.00,OVC,M,M,M,7500.00,M,M,M,-RA,M,M,M,M,M,M,64.40,KLSV 141914Z 20018G28KT 10SM -RA OVC075 18/07 A2994 RMK AO2A RAB12 SLP129 $,M
BVU,2023-03-14 19:15,-114.8611,35.9475,671.00,64.40,42.80,45.32,230.00,13.00,0.00,29.98,M,10.00,M,FEW,BKN,M,M,5000.00,7000.00,M,M,M,M,M,M,M,M,M,64.40,KBVU 141915Z AUTO 23013KT 10SM FEW050 BKN070 18/06 A2998 RMK AO2,M
CXP,2023-03-14 19:15,-119.7326,39.1923,1431.00,42.80,39.20,86.99,0.00,0.00,0.00,29.68,M,9.00,M,FEW,FEW,SCT,M,2000.00,2500.00,3500.00,M,-RA,M,M,M,M,M,M,42.80,KCXP 141915Z AUTO 00000KT 9SM -RA FEW020 FEW025 SCT035 06/04 A2968 RMK AO2,M
RTS,2023-03-14 19:15,-119.8764,39.6682,1539.00,41.00,39.20,93.24,140.00,9.00,0.00,29.65,M,5.00,M,SCT,SCT,BKN,M,1300.00,1800.00,2700.00,M,BR,M,M,M,M,M,M,34.70,KRTS 141915Z AUTO 14009KT 5SM BR SCT013 SCT018 BKN027 05/04 A2965 RMK AO2,M
MEV,2023-03-14 19:15,-119.7500,38.9963,1441.42,46.40,39.20,75.84,130.00,22.00,0.00,29.64,M,10.00,29.00,SCT,BKN,OVC,M,4000.00,4800.00,6000.00,M,M,M,M,M,M,M,M,37.86,KMEV 141915Z AUTO 13022G29KT 10SM SCT040 BKN048 OVC060 08/04 A2964 RMK AO2,M
BAM,2023-03-14 19:15,-116.8743,40.5990,1382.36,51.80,33.80,50.08,210.00,5.00,0.00,29.76,M,10.00,M,OVC,M,M,M,5000.00,M,M,M,M,M,M,M,M,M,M,51.80,KBAM 141915Z AUTO 21005KT 10SM OVC050 11/01 A2976 RMK AO1,M
HTH,2023-03-14 19:15,-118.6315,38.5448,1282.89,53.60,37.40,54.07,140.00,17.00,0.00,29.73,M,10.00,33.00,SCT,OVC,M,M,4400.00,5000.00,M,M,M,M,M,M,M,M,M,53.60,KHTH 141915Z AUTO 14017G33KT 10SM SCT044 OVC050 12/03 A2973 RMK A01,M
TMT,2023-03-14 19:15,-117.1971,39.4643,1749.34,40.00,34.70,80.86,170.00,7.00,0.00,29.78,M,10.00,M,SCT,BKN,OVC,M,4300.00,6500.00,7500.00,M,M,M,M,M,M,M,M,34.65,KTMT 141915Z AUTO 17007KT 10SM SCT043 BKN065 OVC075 05/02 A2978 RMK AO2 T00450015,M
LSV,2023-03-14 19:19,-115.0343,36.2362,570.00,64.40,44.60,48.55,200.00,15.00,0.00,29.94,1012.90,10.00,M,SCT,BKN,M,M,4900.00,7000.00,M,M,-RA,M,M,M,M,M,M,64.40,KLSV 141919Z AUTO 20015KT 10SM -RA SCT049 BKN070 18/07 A2994 RMK AO2 RAB12 SLP129 $,M
BVU,2023-03-14 19:35,-114.8611,35.9475,671.00,64.40,44.60,48.55,230.00,10.00,0.00,29.98,M,10.00,15.00,FEW,SCT,BKN,M,3900.00,4900.00,6500.00,M,M,M,M,M,M,M,M,64.40,KBVU 141935Z AUTO 23010G15KT 10SM FEW039 SCT049 BKN065 18/07 A2998 RMK AO2,M
CXP,2023-03-14 19:35,-119.7326,39.1923,1431.00,46.40,41.00,81.34,0.00,0.00,0.00,29.67,M,10.00,M,SCT,SCT,M,M,4800.00,6000.00,M,M,M,M,M,M,M,M,M,46.40,KCXP 141935Z AUTO 00000KT 10SM SCT048 SCT060 08/05 A2967 RMK AO2,M
RTS,2023-03-14 19:35,-119.8764,39.6682,1539.00,42.80,39.20,86.99,170.00,10.00,0.00,29.64,M,4.00,M,BKN,BKN,BKN,M,1300.00,2700.00,3500.00,M,BR,M,M,M,M,M,M,36.51,KRTS 141935Z AUTO 17010KT 4SM BR BKN013 BKN027 BKN035 06/04 A2964 RMK AO2,M
MEV,2023-03-14 19:35,-119.7500,38.9963,1441.42,48.20,39.20,70.88,130.00,23.00,0.00,29.63,M,10.00,36.00,FEW,BKN,BKN,M,3600.00,4500.00,5500.00,M,M,M,M,M,M,M,M,40.09,KMEV 141935Z AUTO 13023G36KT 10SM FEW036 BKN045 BKN055 09/04 A2963 RMK AO2,M
BAM,2023-03-14 19:35,-116.8743,40.5990,1382.36,51.80,35.60,53.81,220.00,18.00,0.00,29.74,M,10.00,M,SCT,OVC,M,M,4700.00,5000.00,M,M,M,M,M,M,M,M,M,51.80,KBAM 141935Z AUTO 22018KT 10SM SCT047 OVC050 11/02 A2974 RMK AO1,M
HTH,2023-03-14 19:35,-118.6315,38.5448,1282.89,53.60,37.40,54.07,160.00,13.00,0.00,29.72,M,10.00,27.00,FEW,BKN,M,M,4200.00,5500.00,M,M,M,M,M,M,M,M,M,53.60,KHTH 141935Z AUTO 16013G27KT 130V200 10SM FEW042 BKN055 12/03 A2972 RMK A01,M
TMT,2023-03-14 19:35,-117.1971,39.4643,1749.34,41.70,36.00,80.03,170.00,3.00,0.00,29.77,M,10.00,M,SCT,BKN,OVC,M,4500.00,7000.00,8000.00,M,M,M,M,M,M,M,M,39.78,KTMT 141935Z AUTO 17003KT 10SM SCT045 BKN070 OVC080 05/02 A2977 RMK AO2 T00540022,M
LSV,2023-03-14 19:41,-115.0343,36.2362,570.00,60.80,48.20,63.15,200.00,11.00,0.00,29.94,1012.90,10.00,M,FEW,M,M,M,4700.00,M,M,M,M,M,M,M,M,M,M,60.80,KLSV 141941Z 20011KT 10SM FEW047 16/09 A2994 RMK AO2A RAB12E41 SLP129 $,M
VGT,2023-03-14 19:53,-115.1933,36.2111,667.00,63.00,43.00,47.97,210.00,9.00,T,29.96,1015.30,10.00,M,SCT,OVC,M,M,6500.00,9000.00,M,M,-RA,M,M,M,M,M,M,63.00,KVGT 141953Z 21009KT 10SM -RA SCT065 OVC090 17/06 A2996 RMK AO2 RAB14E29B48 SLP153 P0000 T01720061,M
P68,2023-03-14 19:53,-116.0056,39.6014,1993.00,42.00,30.90,64.24,190.00,15.00,0.00,29.83,1008.40,M,M,M,M,M,M,M,M,M,M,M,M,M,M,M,M,M,33.87,KP68 141953Z AUTO 19015KT 06/M01 A2983 RMK AO1 SLP084 T00561006,M
DRA,2023-03-14 19:53,-116.0278,36.6206,1009.00,51.00,45.00,79.54,200.00,14.00,0.04,29.96,1012.60,7.00,26.00,BKN,OVC,M,M,4400.00,5500.00,M,M,RA,M,M,M,30.00,200.00,2023-03-14 18:54,51.10,KDRA 141953Z AUTO 20014G26KT 7SM RA BKN044 OVC055 11/07 A2996 RMK AO2 PK WND 20030/1854 SLP126 P0004 T01060072,M
ELY,2023-03-14 19:53,-114.8453,39.2950,1909.00,38.00,30.90,75.64,170.00,19.00,0.00,29.88,1010.70,10.00,29.00,BKN,OVC,M,M,4800.00,6000.00,M,M,M,M,M,M,29.00,170.00,2023-03-14 19:44,27.24,KELY 141953Z AUTO 17019G29KT 10SM BKN048 OVC060 03/M01 A2988 RMK AO2 PK WND 17029/1944 SLP107 T00331006,M
LOL,2023-03-14 19:53,-118.5701,40.0684,1192.43,49.00,40.00,70.95,170.00,9.00,T,29.68,1004.30,10.00,M,BKN,OVC,M,M,4100.00,4800.00,M,M,-RA,M,M,M,M,M,M,44.53,KLOL 141953Z AUTO 17009KT 10SM -RA BKN041 OVC048 09/04 A2968 RMK AO2 SLP043 P0000 T00940044,M
TPH,2023-03-14 19:54,-117.0904,38.0505,1654.00,46.40,35.60,65.83,180.00,16.00,0.00,29.87,M,10.00,M,OVC,M,M,M,2900.00,M,M,M,M,M,M,M,M,M,M,39.19,KTPH 141954Z AUTO 18016KT 10SM OVC029 08/02 A2987 RMK AO2,M
BVU,2023-03-14 19:55,-114.8611,35.9475,671.00,64.40,41.00,42.28,150.00,10.00,0.00,29.97,M,10.00,M,SCT,BKN,BKN,M,4300.00,5000.00,5500.00,M,M,M,M,M,M,M,M,64.40,KBVU 141955Z AUTO 15010KT 10SM SCT043 BKN050 BKN055 18/05 A2997 RMK AO2,M
CXP,2023-03-14 19:55,-119.7326,39.1923,1431.00,50.00,42.80,76.18,220.00,5.00,0.00,29.66,M,10.00,11.00,SCT,BKN,M,M,4800.00,5500.00,M,M,-RA,M,M,M,M,M,M,50.00,KCXP 141955Z AUTO 22005G11KT 10SM -RA SCT048 BKN055 10/06 A2966 RMK AO2,M
INS,2023-03-14 19:55,-115.6733,36.5872,955.00,55.80,40.80,56.99,20.00,9.00,0.00,29.96,1012.70,10.00,M,FEW,OVC,M,M,4800.00,6000.00,M,M,M,M,M,M,M,M,M,55.80,KINS 141955Z AUTO 02009KT 10SM FEW048 OVC060 13/05 A2996 RMK AO2 SLP127 T01320049 $,M
RTS,2023-03-14 19:55,-119.8764,39.6682,1539.00,44.60,41.00,87.09,M,6.00,0.02,29.63,M,9.00,14.00,SCT,BKN,BKN,M,1300.00,2700.00,3600.00,M,M,M,M,M,M,M,M,40.71,KRTS 141955Z AUTO VRB06G14KT 9SM SCT013 BKN027 BKN036 07/05 A2963 RMK AO2 P0002,M
MEV,2023-03-14 19:55,-119.7500,38.9963,1441.42,50.00,41.00,71.07,160.00,18.00,0.00,29.63,M,10.00,27.00,FEW,SCT,BKN,M,4300.00,5000.00,6000.00,M,M,M,M,M,M,M,M,50.00,KMEV 141955Z AUTO 16018G27KT 10SM FEW043 SCT050 BKN060 10/05 A2963 RMK AO2,M
BAM,2023-03-14 19:55,-116.8743,40.5990,1382.36,50.00,35.60,57.52,220.00,12.00,0.00,29.74,M,10.00,21.00,SCT,OVC,M,M,4400.00,5000.00,M,M,M,M,M,M,M,M,M,50.00,KBAM 141955Z AUTO 22012G21KT 10SM SCT044 OVC050 10/02 A2974 RMK AO1,M
HTH,2023-03-14 19:55,-118.6315,38.5448,1282.89,55.40,35.60,47.16,150.00,14.00,0.00,29.70,M,10.00,24.00,FEW,M,M,M,5500.00,M,M,M,M,M,M,M,M,M,M,55.40,KHTH 141955Z AUTO 15014G24KT 10SM FEW055 13/02 A2970 RMK A01,M
TMT,2023-03-14 19:55,-117.1971,39.4643,1749.34,42.80,36.00,76.71,270.00,3.00,0.00,29.77,M,10.00,M,BKN,OVC,M,M,7000.00,8000.00,M,M,M,M,M,M,M,M,M,41.03,KTMT 141955Z AUTO 27003KT 10SM BKN070 OVC080 06/02 A2977 RMK AO2 T00600022,M
LSV,2023-03-14 19:55,-115.0343,36.2362,570.00,61.00,47.80,61.77,200.00,13.00,T,29.94,1012.90,10.00,M,BKN,M,M,M,7500.00,M,M,M,-SHRA,M,M,M,28.00,210.00,2023-03-14 19:04,61.00,KLSV 141955Z 20013KT 10SM -SHRA BKN075 16/09 A2994 RMK PK WND 21028/04 RAB12 SLP129 P0000 T01610088 $,M
RNO,2023-03-14 19:55,-119.7711,39.4839,1341.00,50.00,42.00,74.15,140.00,13.00,T,29.61,1000.60,10.00,17.00,FEW,BKN,BKN,M,4000.00,5500.00,20000.00,M,M,M,M,M,M,M,M,50.00,KRNO 141955Z 14013G17KT 10SM FEW040 BKN055 BKN200 10/06 A2961 RMK AO2 RAE49 SLP006 P0000 T01000056,M
TPH,2023-03-14 19:56,-117.0904,38.0505,1654.00,48.00,36.00,62.97,170.00,17.00,0.00,29.87,1010.40,10.00,M,OVC,M,M,M,2900.00,M,M,M,M,M,M,M,M,M,M,41.04,KTPH 141956Z AUTO 17017KT 10SM OVC029 09/02 A2987 RMK AO2 SLP104 T00890022,M
LAS,2023-03-14 19:56,-115.1634,36.0719,663.00,60.00,48.00,64.26,210.00,5.00,0.04,29.98,1014.00,10.00,M,FEW,BKN,OVC,M,4500.00,7000.00,11000.00,M,-RA,M,M,M,M,M,M,60.10,KLAS 141956Z 21005KT 10SM -RA FEW045 BKN070 OVC110 16/09 A2998 RMK AO2 SLP140 P0004 T01560089,M
EKO,2023-03-14 19:56,-115.7860,40.8242,1367.00,45.00,32.00,60.11,180.00,12.05,M,29.78,1008.20,10.00,20.99,BKN,OVC,M,M,3799.00,4701.00,M,M,M,M,M,M,M,M,M,38.53,METAR KEKO 141956Z 18012G21KT 10SM BKN038 OVC047 07/00 A2978 RMK AO2 RAB42E53 SLP082 P0000 T00720000 TSNO FIBI,M
WMC,2023-03-14 19:56,-117.8072,40.9019,1315.00,46.00,38.00,73.18,170.00,16.00,0.02,29.69,1004.00,10.00,22.00,BKN,OVC,M,M,3400.00,4600.00,M,M,-RA,M,M,M,M,M,M,38.67,KWMC 141956Z AUTO 17016G22KT 10SM -RA BKN034 OVC046 08/03 A2969 RMK AO2 SLP040 P0002 T00780033,M
NFL,2023-03-14 19:56,-118.7010,39.4166,1199.00,58.00,37.00,45.54,170.00,17.00,T,29.63,1001.90,10.00,24.00,FEW,SCT,BKN,BKN,4000.00,7000.00,10000.00,20000.00,M,M,M,M,28.00,170.00,2023-03-14 19:41,57.90,KNFL 141956Z 17017G24KT 10SM FEW040 SCT070 BKN100 BKN200 14/03 A2963 RMK AO2 PK WND 17028/1941 RAE34 SLP019 P0000 T01440028,M
HND,2023-03-14 19:56,-115.1344,35.9729,742.79,60.00,47.00,61.65,210.00,11.00,T,30.00,1016.60,10.00,M,OVC,M,M,M,6500.00,M,M,M,-RA,M,M,M,M,M,M,60.10,KHND 141956Z 21011KT 10SM -RA OVC065 16/08 A3000 RMK AO2 SLP166 P0000 T01560083,M
INS,2023-03-14 19:59,-115.6733,36.5872,955.00,55.40,41.00,58.27,350.00,12.00,0.00,29.96,1012.70,10.00,M,OVC,M,M,M,5500.00,M,M,M,-DZ,M,M,M,M,M,M,55.40,KINS 141959Z AUTO 35012KT 10SM -DZ OVC055 13/05 A2996 RMK AO2 DZB59 SLP127 $,M
INS,2023-03-14 20:04,-115.6733,36.5872,955.00,55.40,44.60,66.91,40.00,10.00,0.00,29.95,1012.30,10.00,M,OVC,M,M,M,5500.00,M,M,M,-DZ,M,M,M,M,M,M,55.40,KINS 142004Z AUTO 04010KT 10SM -DZ OVC055 13/07 A2995 RMK AO2 WSHFT 1958 DZB1959 SLP123 $,M
LSV,2023-03-14 20:04,-115.0343,36.2362,570.00,60.80,48.20,63.15,220.00,14.00,0.00,29.95,1013.20,10.00,M,CLR,M,M,M,M,M,M,M,M,M,M,M,M,M,M,60.80,KLSV 142004Z AUTO 22014KT 10SM CLR 16/09 A2995 RMK AO2 SHRAE1955 SLP132 $,M
RTS,2023-03-14 20:10,-119.8764,39.6682,1539.00,46.40,42.80,87.19,150.00,11.00,0.00,29.62,M,7.00,M,FEW,BKN,OVC,M,1300.00,2500.00,3200.00,M,-DZ,M,M,M,M,M,M,40.66,KRTS 142010Z AUTO 15011KT 7SM -DZ FEW013 BKN025 OVC032 08/06 A2962 RMK AO2,M
BVU,2023-03-14 20:15,-114.8611,35.9475,671.00,64.40,39.20,39.43,140.00,9.00,0.00,29.97,M,10.00,M,FEW,FEW,BKN,M,4300.00,5000.00,7000.00,M,M,M,M,M,M,M,M,64.40,KBVU 142015Z AUTO 14009KT 10SM FEW043 FEW050 BKN070 18/04 A2997 RMK AO2,M
CXP,2023-03-14 20:15,-119.7326,39.1923,1431.00,51.80,41.00,66.48,M,4.00,0.00,29.65,M,10.00,M,FEW,BKN,OVC,M,4000.00,4700.00,5500.00,M,M,M,M,M,M,M,M,51.80,KCXP 142015Z AUTO VRB04KT 10SM FEW040 BKN047 OVC055 11/05 A2965 RMK AO2,M
MEV,2023-03-14 20:15,-119.7500,38.9963,1441.42,53.60,41.00,62.23,180.00,28.00,0.00,29.61,M,10.00,35.00,FEW,FEW,FEW,M,4900.00,6000.00,7000.00,M,M,M,M,M,M,M,M,53.60,KMEV 142015Z AUTO 18028G35KT 10SM FEW049 FEW060 FEW070 12/05 A2961 RMK AO2,M
BAM,2023-03-14 20:15,-116.8743,40.5990,1382.36,46.40,41.00,81.34,240.00,13.00,0.00,29.74,M,7.00,25.00,OVC,M,M,M,4000.00,M,M,M,M,M,M,M,M,M,M,40.02,KBAM 142015Z AUTO 24013G25KT 7SM OVC040 08/05 A2974 RMK AO1,M
HTH,2023-03-14 20:15,-118.6315,38.5448,1282.89,59.00,35.60,41.42,190.00,22.00,0.00,29.68,M,9.00,33.00,CLR,M,M,M,M,M,M,M,M,M,M,M,M,M,M,59.00,KHTH 142015Z AUTO 19022G33KT 9SM CLR 15/02 A2968 RMK A01,M
TMT,2023-03-14 20:15,-117.1971,39.4643,1749.34,43.20,35.00,72.32,210.00,8.00,0.00,29.77,M,10.00,M,BKN,BKN,OVC,M,4600.00,6000.00,7000.00,M,M,M,M,M,M,M,M,37.91,KTMT 142015Z AUTO 21008KT 10SM BKN046 BKN060 OVC070 06/02 A2977 RMK AO2 T00620016,M
CXP,2023-03-14 20:20,-119.7326,39.1923,1431.00,51.80,41.00,66.48,M,5.00,0.00,29.65,M,10.00,M,BKN,BKN,OVC,M,4300.00,4900.00,5500.00,M,M,M,M,M,M,M,M,51.80,KCXP 142020Z AUTO VRB05KT 10SM BKN043 BKN049 OVC055 11/05 A2965 RMK AO2,M
LSV,2023-03-14 20:32,-115.0343,36.2362,570.00,59.00,48.20,67.33,220.00,9.00,0.00,29.95,1013.30,10.00,M,BKN,OVC,M,M,6000.00,9000.00,M,M,M,M,M,M,M,M,M,59.00,KLSV 142032Z 22009KT 10SM BKN060 OVC090 15/09 A2995 RMK SHRAE1955 SLP133 $,M
BVU,2023-03-14 20:35,-114.8611,35.9475,671.00,64.40,39.20,39.43,160.00,10.00,0.00,29.97,M,10.00,M,FEW,OVC,M,M,5500.00,7000.00,M,M,M,M,M,M,M,M,M,64.40,KBVU 142035Z AUTO 16010KT 10SM FEW055 OVC070 18/04 A2997 RMK AO2,M
RTS,2023-03-14 20:35,-119.8764,39.6682,1539.00,48.20,42.80,81.47,M,6.00,0.00,29.60,M,9.00,13.00,FEW,SCT,SCT,M,2500.00,3200.00,3700.00,M,M,M,M,M,M,M,M,45.04,KRTS 142035Z AUTO VRB06G13KT 9SM FEW025 SCT032 SCT037 09/06 A2960 RMK AO2,M
MEV,2023-03-14 20:35,-119.7500,38.9963,1441.42,55.40,41.00,58.27,200.00,23.00,0.00,29.61,M,10.00,36.00,CLR,M,M,M,M,M,M,M,M,M,M,M,M,M,M,55.40,KMEV 142035Z AUTO 20023G36KT 10SM CLR 13/05 A2961 RMK AO2,M
BAM,2023-03-14 20:35,-116.8743,40.5990,1382.36,46.40,41.00,81.34,180.00,3.00,0.00,29.72,M,10.00,M,OVC,M,M,M,4100.00,M,M,M,M,M,M,M,M,M,M,45.15,KBAM 142035Z AUTO 18003KT 10SM OVC041 08/05 A2972 RMK AO1,M
HTH,2023-03-14 20:35,-118.6315,38.5448,1282.89,59.00,33.80,38.56,190.00,29.00,0.00,29.65,M,7.00,36.00,CLR,M,M,M,M,M,M,M,M,M,M,M,M,M,M,59.00,KHTH 142035Z AUTO 19029G36KT 7SM CLR 15/01 A2965 RMK A01,M
TMT,2023-03-14 20:35,-117.1971,39.4643,1749.34,43.70,34.70,70.38,190.00,11.00,0.00,29.75,M,10.00,19.00,SCT,OVC,M,M,4200.00,4800.00,M,M,-DZ,M,M,M,M,M,M,37.25,KTMT 142035Z AUTO 19011G19KT 10SM -DZ SCT042 OVC048 07/02 A2975 RMK AO2 T00650015,M
ELY,2023-03-14 20:53,-114.8453,39.2950,1909.00,37.00,32.00,81.93,170.00,16.00,T,29.85,1009.70,10.00,28.00,FEW,OVC,M,M,4000.00,5000.00,M,M,-RA,M,M,M,30.00,160.00,2023-03-14 20:39,26.94,KELY 142053Z AUTO 17016G28KT 10SM -RA FEW040 OVC050 03/00 A2985 RMK AO2 PK WND 16030/2039 RAB04 SLP097 P0000 60000 T00280000 58015,M
VGT,2023-03-14 20:53,-115.1933,36.2111,667.00,61.00,43.00,51.48,210.00,17.00,T,29.96,1015.50,10.00,22.00,OVC,M,M,M,8500.00,M,M,M,-RA,M,M,M,M,M,M,61.00,KVGT 142053Z 21017G22KT 10SM -RA OVC085 16/06 A2996 RMK AO2 SLP155 P0000 60000 T01610061 51004,M
DRA,2023-03-14 20:53,-116.0278,36.6206,1009.00,52.00,44.00,74.35,190.00,10.00,0.07,29.93,1011.60,10.00,20.00,BKN,OVC,M,M,4400.00,6000.00,M,M,-RA,M,M,M,29.00,210.00,2023-03-14 20:12,52.00,KDRA 142053Z AUTO 19010G20KT 10SM -RA BKN044 OVC060 11/07 A2993 RMK AO2 PK WND 21029/2012 SLP116 P0007 60012 T01110067 58004,M
P68,2023-03-14 20:53,-116.0056,39.6014,1993.00,42.00,34.00,72.78,160.00,15.00,0.00,29.79,1007.30,M,24.00,M,M,M,M,M,M,M,M,M,M,M,M,M,M,M,33.87,KP68 142053Z AUTO 16015G24KT 06/01 A2979 RMK AO1 SLP073 T00560011 58014,M
LOL,2023-03-14 20:53,-118.5701,40.0684,1192.43,53.00,39.00,58.64,190.00,12.00,T,29.61,1001.70,10.00,M,OVC,M,M,M,6000.00,M,M,M,M,M,M,M,M,M,M,53.10,KLOL 142053Z AUTO 19012KT 10SM OVC060 12/04 A2961 RMK AO2 RAE15 SLP017 P0000 60001 T01170039 58035,M
BVU,2023-03-14 20:55,-114.8611,35.9475,671.00,62.60,42.80,48.28,160.00,7.00,0.00,29.97,M,9.00,13.00,FEW,SCT,OVC,M,4800.00,5500.00,7000.00,M,M,M,M,M,M,M,M,62.60,KBVU 142055Z AUTO 16007G13KT 9SM FEW048 SCT055 OVC070 17/06 A2997 RMK AO2,M
INS,2023-03-14 20:55,-115.6733,36.5872,955.00,52.50,46.20,79.06,10.00,12.00,T,29.93,1012.10,10.00,M,FEW,BKN,OVC,M,2600.00,5500.00,7500.00,M,-RA,M,M,M,M,M,M,52.50,KINS 142055Z AUTO 01012KT 10SM -RA FEW026 BKN055 OVC075 11/08 A2993 RMK AO2 DZB1959E10RAB10 SLP121 P0000 60000 T01140079 58009 $,M
RTS,2023-03-14 20:55,-119.8764,39.6682,1539.00,51.80,41.00,66.48,150.00,10.00,0.00,29.58,M,10.00,32.00,CLR,M,M,M,M,M,M,M,M,M,M,M,M,M,M,51.80,KRTS 142055Z AUTO 15010G32KT 110V170 10SM CLR 11/05 A2958 RMK AO2,M
MEV,2023-03-14 20:55,-119.7500,38.9963,1441.42,57.20,41.00,54.60,200.00,24.00,0.00,29.59,M,10.00,34.00,CLR,M,M,M,M,M,M,M,M,M,M,M,M,M,M,57.20,KMEV 142055Z AUTO 20024G34KT 10SM CLR 14/05 A2959 RMK AO2,M
BAM,2023-03-14 20:55,-116.8743,40.5990,1382.36,46.40,41.00,81.34,160.00,7.00,0.00,29.71,M,10.00,M,BKN,OVC,M,M,3700.00,4500.00,M,M,M,M,M,M,M,M,M,42.33,KBAM 142055Z AUTO 16007KT 10SM BKN037 OVC045 08/05 A2971 RMK AO1,M
HTH,2023-03-14 20:55,-118.6315,38.5448,1282.89,59.00,33.80,38.56,210.00,26.00,0.00,29.63,M,9.00,41.00,CLR,M,M,M,M,M,M,M,M,M,M,M,M,M,M,59.00,KHTH 142055Z AUTO 21026G41KT 9SM CLR 15/01 A2963 RMK A01,M
LSV,2023-03-14 20:55,-115.0343,36.2362,570.00,57.40,48.40,71.85,220.00,8.00,0.00,29.96,1013.80,4.00,M,BKN,OVC,M,M,6000.00,8000.00,M,M,-SHRA,M,M,M,M,M,M,57.40,KLSV 142055Z 22008KT 4SM -SHRA BKN060 OVC080 14/09 A2996 RMK AO2A SHRAB2000 SLP138 60000 T01410091 53009 $,M
RNO,2023-03-14 20:55,-119.7711,39.4839,1341.00,57.00,42.00,57.38,170.00,24.00,0.00,29.54,997.40,10.00,33.00,SCT,SCT,M,M,4000.00,20000.00,M,M,M,M,M,M,37.00,160.00,2023-03-14 20:41,57.00,KRNO 142055Z 17024G33KT 10SM SCT040 SCT200 14/06 A2954 RMK AO2 PK WND 16037/2041 PRESFR SLP974 60006 T01390056 58046,M
TMT,2023-03-14 20:55,-117.1971,39.4643,1749.34,44.60,35.00,68.55,200.00,8.00,0.00,29.73,M,10.00,M,SCT,SCT,M,M,5000.00,8500.00,M,M,M,M,M,M,M,M,M,39.63,KTMT 142055Z AUTO 20008KT 10SM SCT050 SCT085 07/02 A2973 RMK AO2 T00700016,M
NFL,2023-03-14 20:56,-118.7010,39.4166,1199.00,61.00,36.00,39.19,170.00,21.00,0.00,29.59,1000.60,10.00,36.00,FEW,SCT,BKN,BKN,4000.00,7000.00,10000.00,20000.00,M,M,M,M,37.00,160.00,2023-03-14 20:34,61.00,KNFL 142056Z 17021G36KT 10SM FEW040 SCT070 BKN100 BKN200 16/02 A2959 RMK AO2 PK WND 16037/2034 SLP006 60000 T01610022 58034,M
TPH,2023-03-14 20:56,-117.0904,38.0505,1654.00,48.00,39.00,70.85,180.00,22.00,T,29.84,1009.20,10.00,31.00,BKN,BKN,OVC,M,2100.00,2600.00,5000.00,M,M,M,M,M,34.00,170.00,2023-03-14 20:32,40.00,KTPH 142056Z AUTO 18022G31KT 10SM BKN021 BKN026 OVC050 09/04 A2984 RMK AO2 PK WND 17034/2032 RAB36E48 SLP092 P0000 60000 T00890039 58012,M
WMC,2023-03-14 20:56,-117.8072,40.9019,1315.00,46.00,38.00,73.18,160.00,14.00,0.02,29.64,1002.50,10.00,26.00,BKN,BKN,OVC,M,4200.00,4900.00,7000.00,M,M,M,M,M,26.00,150.00,2023-03-14 20:49,39.21,KWMC 142056Z AUTO 16014G26KT 10SM BKN042 BKN049 OVC070 08/03 A2964 RMK AO2 PK WND 15026/2049 RAE39 SLP025 P0002 60004 T00780033 58030,M
HND,2023-03-14 20:56,-115.1344,35.9729,742.79,56.00,48.00,74.72,210.00,14.00,0.03,30.00,1016.70,10.00,M,SCT,OVC,M,M,6000.00,7500.00,M,M,-RA,M,M,M,M,M,M,55.90,KHND 142056Z 21014KT 10SM -RA SCT060 OVC075 13/09 A3000 RMK AO2 SLP167 P0003 60003 T01330089 50005,M
LAS,2023-03-14 20:56,-115.1634,36.0719,663.00,58.00,49.00,71.90,200.00,5.00,0.07,29.98,1014.30,9.00,M,FEW,BKN,OVC,M,4500.00,7000.00,11000.00,M,-RA,M,M,M,M,M,M,57.90,KLAS 142056Z 20005KT 9SM -RA FEW045 BKN070 OVC110 14/09 A2998 RMK AO2 SLP143 P0007 60011 T01440094 51006,M
EKO,2023-03-14 20:56,-115.7860,40.8242,1367.00,43.00,33.00,67.54,190.00,19.05,M,29.75,1007.60,5.00,40.04,BKN,OVC,M,M,3700.00,4799.00,M,M,-RA,M,M,M,40.00,190.00,2023-03-14 20:51,33.97,METAR KEKO 142056Z 19019G40KT 5SM -RA BKN037 OVC048 06/01 A2975 RMK AO2 PK WND 19040/2051 RAB00E19B45 SLP076 P0000 60000 T00610006 58020 TSNO FIBI,M
INS,2023-03-14 21:12,-115.6733,36.5872,955.00,53.60,46.40,76.50,30.00,12.00,0.00,29.92,1011.70,10.00,M,BKN,OVC,M,M,6000.00,7000.00,M,M,M,M,M,M,M,M,M,53.60,KINS 142112Z AUTO 03012KT 10SM BKN060 OVC070 12/08 A2992 RMK AO2 RAE09DZB09E12 SLP117 $,M
EKO,2023-03-14 21:13,-115.7860,40.8242,1367.00,41.00,35.00,79.02,200.00,12.05,M,29.75,M,7.00,25.08,BKN,BKN,OVC,M,2798.00,3599.00,4399.00,M,-RA,M,M,M,32.00,170.00,2023-03-14 21:03,33.44,SPECI KEKO 142113Z 20012G25KT 7SM -RA BKN028 BKN036 OVC044 05/02 A2975 RMK AO2 PK WND 17032/2103 P0001 T00500017 TSNO FIBI,M
BVU,2023-03-14 21:15,-114.8611,35.9475,671.00,59.00,48.20,67.33,190.00,9.00,0.00,29.98,M,6.00,M,OVC,M,M,M,6000.00,M,M,M,-RA,M,M,M,M,M,M,59.00,KBVU 142115Z AUTO 19009KT 6SM -RA OVC060 15/09 A2998 RMK AO2,M
RTS,2023-03-14 21:15,-119.8764,39.6682,1539.00,53.60,39.20,58.02,200.00,26.00,0.00,29.55,M,10.00,38.00,CLR,M,M,M,M,M,M,M,M,M,M,M,M,M,M,53.60,KRTS 142115Z AUTO 20026G38KT 10SM CLR 12/04 A2955 RMK AO2,M
MEV,2023-03-14 21:15,-119.7500,38.9963,1441.42,55.40,41.00,58.27,200.00,26.00,0.00,29.58,M,10.00,36.00,CLR,M,M,M,M,M,M,M,M,M,M,M,M,M,M,55.40,KMEV 142115Z AUTO 20026G36KT 10SM CLR 13/05 A2958 RMK AO2,M
BAM,2023-03-14 21:15,-116.8743,40.5990,1382.36,46.40,41.00,81.34,0.00,0.00,0.00,29.69,M,10.00,M,SCT,BKN,OVC,M,3700.00,4300.00,7000.00,M,M,M,M,M,M,M,M,46.40,KBAM 142115Z AUTO 00000KT 10SM SCT037 BKN043 OVC070 08/05 A2969 RMK AO1,M
HTH,2023-03-14 21:15,-118.6315,38.5448,1282.89,60.80,33.80,36.16,210.00,34.00,0.00,29.61,M,8.00,40.00,CLR,M,M,M,M,M,M,M,M,M,M,M,M,M,M,60.80,KHTH 142115Z AUTO 21034G40KT 8SM CLR 16/01 A2961 RMK A01,M
TMT,2023-03-14 21:15,-117.1971,39.4643,1749.34,45.30,35.60,68.63,210.00,12.00,0.00,29.72,M,10.00,M,SCT,SCT,M,M,6000.00,8500.00,M,M,M,M,M,M,M,M,M,38.93,KTMT 142115Z AUTO 21012KT 10SM SCT060 SCT085 07/02 A2972 RMK AO2 T00740020,M
LSV,2023-03-14 21:23,-115.0343,36.2362,570.00,57.20,51.80,82.12,230.00,9.00,0.00,29.94,1013.10,10.00,M,FEW,M,M,M,6500.00,M,M,M,-RA,M,M,M,M,M,M,57.20,KLSV 142123Z 23009KT 10SM -RA FEW065 14/11 A2994 RMK AO2A SHRAE2055RAB23 SLP131 $,M
LSV,2023-03-14 21:25,-115.0343,36.2362,570.00,57.20,51.80,82.12,240.00,9.00,0.00,29.94,1013.10,10.00,M,BKN,OVC,M,M,6000.00,10000.00,M,M,-RA,M,M,M,M,M,M,57.20,KLSV 142125Z 24009KT 10SM -RA BKN060 OVC100 14/11 A2994 RMK SHRAE2055RAB23 SLP131 $,M
EKO,2023-03-14 21:25,-115.7860,40.8242,1367.00,41.00,35.00,79.02,190.00,14.97,M,29.75,M,8.00,26.05,BKN,OVC,M,M,2998.00,4301.00,M,M,-RA,M,M,M,32.00,170.00,2023-03-14 21:03,32.46,SPECI KEKO 142125Z 19015G26KT 8SM -RA BKN030 OVC043 05/02 A2975 RMK AO2 PK WND 17032/2103 P0001 T00500017 TSNO FIBI,M
HTH,2023-03-14 21:30,-118.6315,38.5448,1282.89,60.80,33.80,36.16,210.00,25.00,0.00,29.62,M,10.00,44.00,CLR,M,M,M,M,M,M,M,M,M,M,M,M,M,M,60.80,KHTH 142130Z AUTO 21025G44KT 10SM CLR 16/01 A2962 RMK A01,M
LSV,2023-03-14 21:31,-115.0343,36.2362,570.00,57.20,53.60,87.74,240.00,7.00,0.00,29.94,1013.10,10.00,M,BKN,OVC,M,M,6000.00,9000.00,M,M,M,M,M,M,M,M,M,57.20,KLSV 142131Z 24007KT 10SM BKN060 OVC090 14/12 A2994 RMK AO2A SHRAE2055RAB23E31 SLP131 $,M
BVU,2023-03-14 21:35,-114.8611,35.9475,671.00,57.20,50.00,76.82,200.00,6.00,0.00,29.97,M,8.00,M,OVC,M,M,M,6500.00,M,M,M,-RA,M,M,M,M,M,M,57.20,KBVU 142135Z AUTO 20006KT 8SM -RA OVC065 14/10 A2997 RMK AO2,M
RTS,2023-03-14 21:35,-119.8764,39.6682,1539.00,53.60,37.40,54.07,220.00,32.00,0.00,29.50,M,10.00,43.00,CLR,M,M,M,M,M,M,M,M,M,M,M,M,M,M,53.60,KRTS 142135Z AUTO 22032G43KT 10SM CLR 12/03 A2950 RMK AO2,M
MEV,2023-03-14 21:35,-119.7500,38.9963,1441.42,55.40,41.00,58.27,190.00,28.00,0.00,29.58,M,10.00,35.00,CLR,M,M,M,M,M,M,M,M,M,M,M,M,M,M,55.40,KMEV 142135Z AUTO 19028G35KT 10SM CLR 13/05 A2958 RMK AO2,M
BAM,2023-03-14 21:35,-116.8743,40.5990,1382.36,48.20,41.00,76.01,210.00,7.00,0.00,29.68,M,10.00,M,SCT,BKN,OVC,M,2400.00,3600.00,4900.00,M,M,M,M,M,M,M,M,44.53,KBAM 142135Z AUTO 21007KT 10SM SCT024 BKN036 OVC049 09/05 A2968 RMK AO1,M
TMT,2023-03-14 21:35,-117.1971,39.4643,1749.34,46.40,35.60,65.83,200.00,17.00,0.00,29.71,M,10.00,22.00,OVC,M,M,M,6000.00,M,M,M,M,M,M,M,M,M,M,38.94,KTMT 142135Z AUTO 20017G22KT 10SM OVC060 08/02 A2971 RMK AO2 T00800020,M
LSV,2023-03-14 21:47,-115.0343,36.2362,570.00,57.20,55.40,93.69,130.00,5.00,0.00,29.94,1013.10,10.00,M,BKN,OVC,M,M,6000.00,10000.00,M,M,-DZ,M,M,M,M,M,M,57.20,KLSV 142147Z 13005KT 10SM -DZ BKN060 OVC100 14/13 A2994 RMK AO2A SHRAE2055RAB23E31DZB47 SLP131 $,M
P68,2023-03-14 21:53,-116.0056,39.6014,1993.00,41.00,34.00,75.94,140.00,14.00,0.00,29.77,1006.50,M,M,M,M,M,M,M,M,M,M,M,M,M,M,M,M,M,32.76,KP68 142153Z AUTO 14014KT 05/01 A2977 RMK AO1 SLP065 T00500011,M
ELY,2023-03-14 21:53,-114.8453,39.2950,1909.00,37.00,32.00,81.93,180.00,18.00,T,29.84,1009.10,10.00,30.00,OVC,M,M,M,4400.00,M,M,M,-RA,M,M,M,30.00,170.00,2023-03-14 21:03,26.33,KELY 142153Z AUTO 18018G30KT 10SM -RA OVC044 03/00 A2984 RMK AO2 PK WND 17030/2103 RAE17B46UPB17E42 SLP091 P0000 T00280000,M
LOL,2023-03-14 21:53,-118.5701,40.0684,1192.43,57.00,37.00,47.04,180.00,21.00,0.00,29.55,999.50,5.00,28.00,SCT,OVC,M,M,3400.00,6500.00,M,M,HZ,M,M,M,28.00,170.00,2023-03-14 21:53,57.00,KLOL 142153Z AUTO 18021G28KT 5SM HZ SCT034 OVC065 14/03 A2955 RMK AO2 PK WND 17028/2153 SLP995 T01390028,M
DRA,2023-03-14 21:53,-116.0278,36.6206,1009.00,55.00,44.00,66.61,190.00,18.00,T,29.90,1010.70,10.00,34.00,OVC,M,M,M,4500.00,M,M,M,M,M,M,M,34.00,180.00,2023-03-14 21:49,55.00,KDRA 142153Z AUTO 19018G34KT 10SM OVC045 13/07 A2990 RMK AO2 PK WND 18034/2149 RAE00 SLP107 P0000 T01280067,M
VGT,2023-03-14 21:53,-115.1933,36.2111,667.00,60.00,47.00,61.65,180.00,10.00,T,29.96,1015.40,10.00,M,SCT,OVC,M,M,6500.00,8000.00,M,M,-RA,M,M,M,M,M,M,60.10,KVGT 142153Z 18010KT 10SM -RA SCT065 OVC080 16/08 A2996 RMK AO2 SLP154 P0000 T01560083,M
BVU,2023-03-14 21:55,-114.8611,35.9475,671.00,57.20,51.80,82.12,190.00,6.00,0.00,29.97,M,9.00,M,OVC,M,M,M,6500.00,M,M,M,-DZ,M,M,M,M,M,M,57.20,KBVU 142155Z AUTO 19006KT 9SM -DZ OVC065 14/11 A2997 RMK AO2,M
INS,2023-03-14 21:55,-115.6733,36.5872,955.00,54.30,43.20,66.02,20.00,9.00,T,29.92,1011.50,10.00,M,SCT,BKN,OVC,M,5000.00,6000.00,7500.00,M,M,M,M,M,M,M,M,54.30,KINS 142155Z AUTO 02009KT 10SM SCT050 BKN060 OVC075 12/06 A2992 RMK AO2 RAE09DZB09E12 SLP115 P0000 T01240062 $,M
LSV,2023-03-14 21:55,-115.0343,36.2362,570.00,57.40,56.80,97.86,150.00,3.00,0.05,29.94,1013.10,10.00,M,BKN,OVC,M,M,6500.00,10000.00,M,M,-RA,M,M,M,M,M,M,57.40,KLSV 142155Z 15003KT 10SM -RA BKN065 OVC100 14/14 A2994 RMK AO2A RAB48 SLP131 P0005 T01410138 $,M
RTS,2023-03-14 21:55,-119.8764,39.6682,1539.00,55.40,37.40,50.64,220.00,36.00,0.00,29.49,M,10.00,49.00,CLR,M,M,M,M,M,M,M,M,M,M,M,M,M,M,55.40,KRTS 142155Z AUTO 22036G49KT 10SM CLR 13/03 A2949 RMK AO2,M
MEV,2023-03-14 21:55,-119.7500,38.9963,1441.42,53.60,41.00,62.23,180.00,22.00,0.00,29.59,M,10.00,33.00,CLR,M,M,M,M,M,M,M,M,M,M,M,M,M,M,53.60,KMEV 142155Z AUTO 18022G33KT 10SM CLR 12/05 A2959 RMK AO2,M
BAM,2023-03-14 21:55,-116.8743,40.5990,1382.36,50.00,39.20,66.27,0.00,0.00,0.00,29.67,M,10.00,M,SCT,BKN,OVC,M,2400.00,3800.00,4700.00,M,M,M,M,M,M,M,M,50.00,KBAM 142155Z AUTO 00000KT 10SM SCT024 BKN038 OVC047 10/04 A2967 RMK AO1,M
HTH,2023-03-14 21:55,-118.6315,38.5448,1282.89,60.80,33.80,36.16,210.00,35.00,0.00,29.59,M,10.00,44.00,CLR,M,M,M,M,M,M,M,M,M,M,M,M,M,M,60.80,KHTH 142155Z AUTO 21035G44KT 10SM CLR 16/01 A2959 RMK A01,M
TMT,2023-03-14 21:55,-117.1971,39.4643,1749.34,47.50,36.00,64.42,200.00,16.00,0.00,29.70,M,10.00,22.00,OVC,M,M,M,6000.00,M,M,M,M,M,M,M,M,M,M,40.62,KTMT 142155Z AUTO 20016G22KT 10SM OVC060 09/02 A2970 RMK AO2 T00860023,M
RNO,2023-03-14 21:55,-119.7711,39.4839,1341.00,60.00,39.00,45.53,190.00,32.00,0.00,29.48,995.10,10.00,40.00,SCT,SCT,M,M,4700.00,20000.00,M,M,M,M,M,M,46.00,190.00,2023-03-14 21:36,60.10,KRNO 142155Z 19032G40KT 10SM SCT047 SCT200 16/04 A2948 RMK AO2 PK WND 19046/2136 SLP951 MTN TOPS OBSCD DSNT SW T01560039,M
NFL,2023-03-14 21:56,-118.7010,39.4166,1199.00,64.00,36.00,35.26,180.00,25.00,0.00,29.55,999.30,10.00,35.00,FEW,SCT,BKN,BKN,4000.00,7000.00,10000.00,25000.00,M,M,M,M,38.00,180.00,2023-03-14 21:33,64.00,KNFL 142156Z 18025G35KT 10SM FEW040 SCT070 BKN100 BKN250 18/02 A2955 RMK AO2 PK WND 18038/2133 SLP993 T01780022,M
WMC,2023-03-14 21:56,-117.8072,40.9019,1315.00,49.00,39.00,68.51,170.00,14.00,T,29.59,1000.60,10.00,23.00,SCT,OVC,M,M,3200.00,5500.00,M,M,-RA,M,M,M,26.00,170.00,2023-03-14 21:11,42.95,KWMC 142156Z AUTO 17014G23KT 10SM -RA SCT032 OVC055 09/04 A2959 RMK AO2 PK WND 17026/2111 RAB2057E30B56 SLP006 P0000 T00940039,M
TPH,2023-03-14 21:56,-117.0904,38.0505,1654.00,47.00,40.00,76.48,180.00,21.00,0.00,29.82,1008.30,10.00,31.00,BKN,OVC,M,M,1700.00,2500.00,M,M,M,M,M,M,35.00,170.00,2023-03-14 21:00,38.73,KTPH 142156Z AUTO 18021G31KT 10SM BKN017 OVC025 08/04 A2982 RMK AO2 PK WND 17035/2100 SLP083 T00830044,M
LAS,2023-03-14 21:56,-115.1634,36.0719,663.00,58.00,49.00,71.90,190.00,7.00,0.01,29.97,1013.90,10.00,M,FEW,BKN,OVC,M,4500.00,7000.00,11000.00,M,-RA,M,M,M,M,M,M,57.90,KLAS 142156Z 19007KT 10SM -RA FEW045 BKN070 OVC110 14/09 A2997 RMK AO2 SLP139 P0001 T01440094,M
EKO,2023-03-14 21:56,-115.7860,40.8242,1367.00,40.00,35.00,82.15,190.00,7.00,M,29.73,1007.20,9.00,26.05,BKN,OVC,M,M,3799.00,5000.00,M,M,-RA,M,M,M,32.00,170.00,2023-03-14 21:03,34.53,METAR KEKO 142156Z 19007G26KT 9SM -RA BKN038 OVC050 04/02 A2973 RMK AO2 PK WND 17032/2103 SLP072 P0003 T00440017 TSNO FIBI,M
BVU,2023-03-14 22:15,-114.8611,35.9475,671.00,57.20,51.80,82.12,220.00,5.00,0.00,29.97,M,10.00,M,OVC,M,M,M,6500.00,M,M,M,M,M,M,M,M,M,M,57.20,KBVU 142215Z AUTO 22005KT 10SM OVC065 14/11 A2997 RMK AO2,M
RTS,2023-03-14 22:15,-119.8764,39.6682,1539.00,53.60,37.40,54.07,210.00,33.00,0.00,29.48,M,10.00,52.00,CLR,M,M,M,M,M,M,M,M,M,M,M,M,M,M,53.60,KRTS 142215Z AUTO 21033G52KT 10SM CLR 12/03 A2948 RMK AO2,M
MEV,2023-03-14 22:15,-119.7500,38.9963,1441.42,53.60,41.00,62.23,170.00,27.00,0.00,29.57,M,10.00,33.00,FEW,FEW,M,M,2700.00,7000.00,M,M,M,M,M,M,M,M,M,53.60,KMEV 142215Z AUTO 17027G33KT 10SM FEW027 FEW070 12/05 A2957 RMK AO2,M
BAM,2023-03-14 22:15,-116.8743,40.5990,1382.36,50.00,39.20,66.27,280.00,4.00,0.00,29.65,M,10.00,M,BKN,BKN,OVC,M,3000.00,4700.00,7000.00,M,M,M,M,M,M,M,M,50.00,KBAM 142215Z AUTO 28004KT 10SM BKN030 BKN047 OVC070 10/04 A2965 RMK AO1,M
HTH,2023-03-14 22:15,-118.6315,38.5448,1282.89,60.80,33.80,36.16,210.00,32.00,0.00,29.60,M,10.00,38.00,CLR,M,M,M,M,M,M,M,M,M,M,M,M,M,M,60.80,KHTH 142215Z AUTO 21032G38KT 10SM CLR 16/01 A2960 RMK A01,M
TMT,2023-03-14 22:15,-117.1971,39.4643,1749.34,50.40,37.40,60.84,210.00,22.00,0.00,29.69,M,10.00,27.00,BKN,BKN,M,M,6000.00,7000.00,M,M,M,M,M,M,M,M,M,50.40,KTMT 142215Z AUTO 21022G27KT 10SM BKN060 BKN070 10/03 A2969 RMK AO2 T01020030,M
INS,2023-03-14 22:19,-115.6733,36.5872,955.00,55.40,42.80,62.46,90.00,9.00,0.00,29.91,1011.20,10.00,M,BKN,OVC,M,M,4800.00,6000.00,M,M,-DZ,M,M,M,M,M,M,55.40,KINS 142219Z AUTO 09009KT 10SM -DZ BKN048 OVC060 13/06 A2991 RMK AO2 DZB19 SLP112 $,M
LSV,2023-03-14 22:19,-115.0343,36.2362,570.00,57.20,57.20,100.00,190.00,8.00,0.00,29.94,1013.10,10.00,M,CLR,M,M,M,M,M,M,M,M,M,M,M,M,M,M,57.20,KLSV 142219Z AUTO 19008KT 10SM CLR 14/14 A2994 RMK AO2 RAE19 SLP131 $,M
BVU,2023-03-14 22:35,-114.8611,35.9475,671.00,57.20,51.80,82.12,190.00,4.00,0.00,29.98,M,10.00,M,OVC,M,M,M,6000.00,M,M,M,M,M,M,M,M,M,M,57.20,KBVU 142235Z AUTO 19004KT 10SM OVC060 14/11 A2998 RMK AO2,M
RTS,2023-03-14 22:35,-119.8764,39.6682,1539.00,53.60,37.40,54.07,210.00,30.00,0.00,29.51,M,10.00,50.00,CLR,M,M,M,M,M,M,M,M,M,M,M,M,M,M,53.60,KRTS 142235Z AUTO 21030G50KT 10SM CLR 12/03 A2951 RMK AO2,M
MEV,2023-03-14 22:35,-119.7500,38.9963,1441.42,51.80,41.00,66.48,170.00,23.00,0.00,29.58,M,10.00,32.00,FEW,M,M,M,6500.00,M,M,M,M,M,M,M,M,M,M,51.80,KMEV 142235Z AUTO 17023G32KT 10SM FEW065 11/05 A2958 RMK AO2,M
BAM,2023-03-14 22:35,-116.8743,40.5990,1382.36,50.00,41.00,71.07,340.00,3.00,0.00,29.63,M,10.00,M,SCT,SCT,OVC,M,3000.00,4800.00,7000.00,M,M,M,M,M,M,M,M,50.00,KBAM 142235Z AUTO 34003KT 10SM SCT030 SCT048 OVC070 10/05 A2963 RMK AO1,M
HTH,2023-03-14 22:35,-118.6315,38.5448,1282.89,60.80,33.80,36.16,210.00,34.00,0.00,29.58,M,10.00,42.00,CLR,M,M,M,M,M,M,M,M,M,M,M,M,M,M,60.80,KHTH 142235Z AUTO 21034G42KT 10SM CLR 16/01 A2958 RMK A01,M
TMT,2023-03-14 22:35,-117.1971,39.4643,1749.34,50.70,37.20,59.70,210.00,19.00,0.00,29.68,M,10.00,30.00,SCT,SCT,M,M,6000.00,7000.00,M,M,M,M,M,M,M,M,M,50.70,KTMT 142235Z AUTO 21019G30KT 10SM SCT060 SCT070 10/03 A2968 RMK AO2 T01040029,M
INS,2023-03-14 22:36,-115.6733,36.5872,955.00,53.60,44.60,71.45,90.00,13.00,0.00,29.91,1011.20,10.00,M,SCT,OVC,M,M,4700.00,6000.00,M,M,M,M,M,M,M,M,M,53.60,KINS 142236Z AUTO 09013KT 10SM SCT047 OVC060 12/07 A2991 RMK AO2 DZB19E36 SLP112 $,M
LSV,2023-03-14 22:42,-115.0343,36.2362,570.00,57.20,57.20,100.00,0.00,0.00,0.00,29.94,1013.10,10.00,M,BKN,OVC,M,M,7000.00,10000.00,M,M,-RA,M,M,M,M,M,M,57.20,KLSV 142242Z 00000KT 10SM -RA BKN070 OVC100 14/14 A2994 RMK RAB SLP131 $,M
LSV,2023-03-14 22:43,-115.0343,36.2362,570.00,57.20,57.20,100.00,0.00,0.00,0.00,29.94,1013.10,10.00,M,CLR,M,M,M,M,M,M,M,M,M,M,M,M,M,M,57.20,KLSV 142243Z AUTO 00000KT 10SM CLR 14/14 A2994 RMK AO2 RAE19 SLP131 $,M
LSV,2023-03-14 22:51,-115.0343,36.2362,570.00,57.20,57.20,100.00,170.00,3.00,0.00,29.93,1012.80,10.00,M,CLR,M,M,M,M,M,M,M,-DZ,M,M,M,M,M,M,57.20,KLSV 142251Z AUTO 17003KT 10SM -DZ CLR 14/14 A2993 RMK AO2 RAE19DZB51 SLP128 $,M
P68,2023-03-14 22:53,-116.0056,39.6014,1993.00,44.00,34.00,67.41,M,M,0.00,29.76,1005.90,M,M,M,M,M,M,M,M,M,M,M,M,M,M,M,M,M,M,KP68 142253Z AUTO 07/01 A2976 RMK AO1 SLP059 T00670011,M
ELY,2023-03-14 22:53,-114.8453,39.2950,1909.00,37.00,33.00,85.64,170.00,22.00,T,29.82,1008.20,10.00,34.00,OVC,M,M,M,4400.00,M,M,M,M,M,M,M,34.00,170.00,2023-03-14 22:52,25.27,KELY 142253Z AUTO 17022G34KT 10SM OVC044 03/01 A2982 RMK AO2 PK WND 17034/2252 RAE25 SLP082 P0000 T00280006,M
LOL,2023-03-14 22:53,-118.5701,40.0684,1192.43,64.00,38.00,38.00,200.00,25.00,0.00,29.51,997.60,5.00,31.00,FEW,BKN,BKN,M,2100.00,7000.00,8500.00,M,HZ,M,M,M,31.00,200.00,2023-03-14 22:52,64.00,KLOL 142253Z AUTO 20025G31KT 5SM HZ FEW021 BKN070 BKN085 18/03 A2951 RMK AO2 PK WND 20031/2252 SLP976 T01780033,M
DRA,2023-03-14 22:53,-116.0278,36.6206,1009.00,56.00,43.00,61.81,190.00,14.00,0.00,29.88,1009.80,10.00,31.00,OVC,M,M,M,4400.00,M,M,M,M,M,M,M,38.00,200.00,2023-03-14 22:14,55.90,KDRA 142253Z AUTO 19014G31KT 10SM OVC044 13/06 A2988 RMK AO2 PK WND 20038/2214 SLP098 T01330061,M
VGT,2023-03-14 22:53,-115.1933,36.2111,667.00,60.00,49.00,66.46,190.00,9.00,0.02,29.95,1015.10,10.00,18.00,OVC,M,M,M,7000.00,M,M,M,-RA,M,M,M,M,M,M,60.10,KVGT 142253Z 19009G18KT 10SM -RA OVC070 16/09 A2995 RMK AO2 SLP151 P0002 T01560094,M
BVU,2023-03-14 22:55,-114.8611,35.9475,671.00,59.00,50.00,72.01,150.00,5.00,0.00,29.97,M,10.00,M,BKN,OVC,M,M,6000.00,7000.00,M,M,M,M,M,M,M,M,M,59.00,KBVU 142255Z AUTO 15005KT 10SM BKN060 OVC070 15/10 A2997 RMK AO2,M
RTS,2023-03-14 22:55,-119.8764,39.6682,1539.00,51.80,37.40,57.77,200.00,27.00,0.00,29.54,M,9.00,41.00,CLR,M,M,M,M,M,M,M,M,M,M,M,M,M,M,51.80,KRTS 142255Z AUTO 20027G41KT 9SM CLR 11/03 A2954 RMK AO2,M
MEV,2023-03-14 22:55,-119.7500,38.9963,1441.42,51.80,41.00,66.48,180.00,21.00,0.00,29.59,M,10.00,26.00,CLR,M,M,M,M,M,M,M,-RA,M,M,M,M,M,M,51.80,KMEV 142255Z AUTO 18021G26KT 10SM -RA CLR 11/05 A2959 RMK AO2,M
BAM,2023-03-14 22:55,-116.8743,40.5990,1382.36,51.80,41.00,66.48,100.00,3.00,0.00,29.62,M,10.00,M,SCT,SCT,OVC,M,2800.00,5000.00,7000.00,M,M,M,M,M,M,M,M,51.80,KBAM 142255Z AUTO 10003KT 10SM SCT028 SCT050 OVC070 11/05 A2962 RMK AO1,M
HTH,2023-03-14 22:55,-118.6315,38.5448,1282.89,60.80,33.80,36.16,220.00,35.00,0.00,29.58,M,10.00,50.00,CLR,M,M,M,M,M,M,M,M,M,M,M,M,M,M,60.80,KHTH 142255Z AUTO 22035G50KT 10SM CLR 16/01 A2958 RMK A01,M
INS,2023-03-14 22:55,-115.6733,36.5872,955.00,54.00,43.70,68.04,100.00,13.00,T,29.91,1011.20,10.00,M,OVC,M,M,M,6000.00,M,M,M,M,M,M,M,M,M,M,54.00,KINS 142255Z AUTO 10013KT 10SM OVC060 12/07 A2991 RMK AO2 DZB19E36 SLP112 P0000 T01220065 $,M
TMT,2023-03-14 22:55,-117.1971,39.4643,1749.34,50.40,35.80,57.12,220.00,22.00,0.00,29.68,M,10.00,30.00,BKN,BKN,M,M,6000.00,7500.00,M,M,M,M,M,M,M,M,M,50.40,KTMT 142255Z AUTO 22022G30KT 10SM BKN060 BKN075 10/02 A2968 RMK AO2 T01020021,M
LSV,2023-03-14 22:55,-115.0343,36.2362,570.00,57.70,57.40,98.93,170.00,3.00,T,29.93,1012.80,10.00,M,FEW,M,M,M,6000.00,M,M,M,-DZ,M,M,M,M,M,M,57.70,KLSV 142255Z AUTO 17003KT 10SM -DZ FEW060 14/14 A2993 RMK AO2 RAE19DZB51 SLP128 P0000 T01430141 $,M
RNO,2023-03-14 22:55,-119.7711,39.4839,1341.00,56.00,41.00,57.23,190.00,19.00,T,29.55,997.90,10.00,33.00,SCT,BKN,M,M,6500.00,20000.00,M,M,-RA,M,M,M,44.00,200.00,2023-03-14 21:58,55.90,KRNO 142255Z 19019G33KT 10SM -RA SCT065 BKN200 13/05 A2955 RMK AO2 PK WND 20044/2158 RAB50 PRESRR SLP979 MTN TOPS OBSCD DSNT SW THRU NW P0000 T01330050,M
WMC,2023-03-14 22:56,-117.8072,40.9019,1315.00,52.00,39.00,61.06,160.00,16.00,T,29.54,998.60,10.00,26.00,OVC,M,M,M,6500.00,M,M,M,M,M,M,M,28.00,180.00,2023-03-14 22:18,52.00,KWMC 142256Z AUTO 16016G26KT 10SM OVC065 11/04 A2954 RMK AO2 PK WND 18028/2218 RAE06 SLP986 P0000 T01110039,M
NFL,2023-03-14 22:56,-118.7010,39.4166,1199.00,62.00,36.00,37.69,180.00,22.00,0.00,29.54,999.20,10.00,35.00,FEW,SCT,BKN,BKN,3000.00,7000.00,10000.00,25000.00,M,M,M,M,37.00,170.00,2023-03-14 21:58,62.10,KNFL 142256Z 18022G35KT 10SM FEW030 SCT070 BKN100 BKN250 17/02 A2954 RMK AO2 PK WND 17037/2158 SLP992 T01670022,M
TPH,2023-03-14 22:56,-117.0904,38.0505,1654.00,47.00,41.00,79.82,180.00,17.00,0.00,29.82,1008.30,10.00,26.00,OVC,M,M,M,1800.00,M,M,M,M,M,M,M,30.00,180.00,2023-03-14 22:13,39.59,KTPH 142256Z AUTO 18017G26KT 10SM OVC018 08/05 A2982 RMK AO2 PK WND 18030/2213 SLP083 T00830050,M
EKO,2023-03-14 22:56,-115.7860,40.8242,1367.00,41.00,36.00,82.22,200.00,6.03,M,29.70,1005.90,10.00,M,FEW,OVC,M,M,3599.00,5000.00,M,M,M,M,M,M,M,M,M,36.35,METAR KEKO 142256Z 20006KT 10SM FEW036 OVC050 05/02 A2970 RMK AO2 RAE13 SLP059 P0000 T00500022 TSNO FIBI,M
LAS,2023-03-14 22:56,-115.1634,36.0719,663.00,59.00,49.00,69.12,170.00,5.00,T,29.96,1013.60,10.00,M,FEW,BKN,OVC,M,4500.00,6000.00,11000.00,M,M,M,M,M,M,M,M,59.00,KLAS 142256Z 17005KT 10SM FEW045 BKN060 OVC110 15/09 A2996 RMK AO2 RAE28 SLP136 P0000 T01500094,M
LSV,2023-03-14 23:00,-115.0343,36.2362,570.00,59.00,57.20,93.74,180.00,5.00,0.00,29.93,1012.80,10.00,M,FEW,M,M,M,6000.00,M,M,M,M,M,M,M,M,M,M,59.00,KLSV 142300Z AUTO 18005KT 10SM FEW060 15/14 A2993 RMK AO2 DZE00 SLP128 $,M
LOL,2023-03-14 23:00,-118.5701,40.0684,1192.43,64.00,38.00,38.00,210.00,31.00,0.00,29.50,M,2.50,39.00,BKN,OVC,M,M,2100.00,7000.00,M,M,HZ,M,M,M,39.00,210.00,2023-03-14 23:00,64.00,KLOL 142300Z AUTO 21031G39KT 2 1/2SM HZ BKN021 OVC070 18/03 A2950 RMK AO2 PK WND 21039/2300 VIS 1 1/2V3 PRESFR T01780033,M
BVU,2023-03-14 23:15,-114.8611,35.9475,671.00,59.00,50.00,72.01,150.00,4.00,0.00,29.97,M,10.00,M,OVC,M,M,M,6000.00,M,M,M,M,M,M,M,M,M,M,59.00,KBVU 142315Z AUTO 15004KT 10SM OVC060 15/10 A2997 RMK AO2,M
RTS,2023-03-14 23:15,-119.8764,39.6682,1539.00,50.00,39.20,66.27,190.00,22.00,0.00,29.55,M,6.00,35.00,FEW,FEW,M,M,2400.00,3700.00,M,M,-RA,M,M,M,M,M,M,50.00,KRTS 142315Z AUTO 19022G35KT 6SM -RA FEW024 FEW037 10/04 A2955 RMK AO2,M
MEV,2023-03-14 23:15,-119.7500,38.9963,1441.42,50.00,39.20,66.27,170.00,19.00,0.00,29.58,M,10.00,27.00,SCT,SCT,M,M,5000.00,6000.00,M,M,-RA,M,M,M,M,M,M,50.00,KMEV 142315Z AUTO 17019G27KT 140V200 10SM -RA SCT050 SCT060 10/04 A2958 RMK AO2,M
BAM,2023-03-14 23:15,-116.8743,40.5990,1382.36,53.60,39.20,58.02,0.00,0.00,0.00,29.61,M,10.00,M,SCT,BKN,OVC,M,5000.00,7000.00,8000.00,M,M,M,M,M,M,M,M,53.60,KBAM 142315Z AUTO 00000KT 10SM SCT050 BKN070 OVC080 12/04 A2961 RMK AO1,M
HTH,2023-03-14 23:15,-118.6315,38.5448,1282.89,60.80,33.80,36.16,220.00,34.00,0.00,29.59,M,10.00,45.00,CLR,M,M,M,M,M,M,M,M,M,M,M,M,M,M,60.80,KHTH 142315Z AUTO 22034G45KT 10SM CLR 16/01 A2959 RMK A01,M
TMT,2023-03-14 23:15,-117.1971,39.4643,1749.34,51.00,35.60,55.63,200.00,25.00,0.00,29.69,M,10.00,31.00,BKN,OVC,M,M,6000.00,7500.00,M,M,M,M,M,M,M,M,M,50.90,KTMT 142315Z AUTO 20025G31KT 10SM BKN060 OVC075 11/02 A2969 RMK AO2 T01050020,M
LOL,2023-03-14 23:16,-118.5701,40.0684,1192.43,64.00,37.00,36.68,210.00,30.00,0.00,29.50,M,6.00,40.00,BKN,M,M,M,1800.00,M,M,M,HZ,M,M,M,40.00,200.00,2023-03-14 23:12,64.00,KLOL 142316Z AUTO 21030G40KT 6SM HZ BKN018 18/03 A2950 RMK AO2 PK WND 20040/2312 T01780028,M
LOL,2023-03-14 23:26,-118.5701,40.0684,1192.43,62.00,37.00,39.21,200.00,22.00,0.00,29.50,M,8.00,37.00,SCT,M,M,M,1700.00,M,M,M,M,M,M,M,40.00,200.00,2023-03-14 23:12,62.10,KLOL 142326Z AUTO 20022G37KT 8SM SCT017 17/03 A2950 RMK AO2 PK WND 20040/2312 T01670028,M
TPH,2023-03-14 23:31,-117.0904,38.0505,1654.00,46.00,41.00,82.58,170.00,20.00,0.00,29.81,M,10.00,28.00,BKN,OVC,M,M,1400.00,2000.00,M,M,M,M,M,M,28.00,190.00,2023-03-14 23:26,37.73,KTPH 142331Z AUTO 17020G28KT 10SM BKN014 OVC020 08/05 A2981 RMK AO2 PK WND 19028/2326 T00780050,M
BVU,2023-03-14 23:35,-114.8611,35.9475,671.00,60.80,48.20,63.15,170.00,12.00,0.00,29.96,M,10.00,M,BKN,BKN,BKN,M,6500.00,7500.00,8500.00,M,M,M,M,M,M,M,M,60.80,KBVU 142335Z AUTO 17012KT 10SM BKN065 BKN075 BKN085 16/09 A2996 RMK AO2,M
RTS,2023-03-14 23:35,-119.8764,39.6682,1539.00,51.80,35.60,53.81,220.00,26.00,0.00,29.54,M,10.00,37.00,CLR,M,M,M,M,M,M,M,M,M,M,M,M,M,M,51.80,KRTS 142335Z AUTO 22026G37KT 10SM CLR 11/02 A2954 RMK AO2,M
MEV,2023-03-14 23:35,-119.7500,38.9963,1441.42,50.00,39.20,66.27,190.00,14.00,0.00,29.61,M,9.00,20.00,SCT,SCT,BKN,M,2800.00,3500.00,4200.00,M,-RA,M,M,M,M,M,M,50.00,KMEV 142335Z AUTO 19014G20KT 9SM -RA SCT028 SCT035 BKN042 10/04 A2961 RMK AO2,M
BAM,2023-03-14 23:35,-116.8743,40.5990,1382.36,53.60,41.00,62.23,60.00,5.00,0.00,29.61,M,10.00,M,SCT,BKN,OVC,M,5500.00,7000.00,8000.00,M,M,M,M,M,M,M,M,53.60,KBAM 142335Z AUTO 06005KT 10SM SCT055 BKN070 OVC080 12/05 A2961 RMK AO1,M
HTH,2023-03-14 23:35,-118.6315,38.5448,1282.89,60.80,33.80,36.16,210.00,36.00,0.00,29.59,M,10.00,43.00,CLR,M,M,M,M,M,M,M,M,M,M,M,M,M,M,60.80,KHTH 142335Z AUTO 21036G43KT 10SM CLR 16/01 A2959 RMK A01,M
TMT,2023-03-14 23:35,-117.1971,39.4643,1749.34,50.00,35.60,57.52,210.00,23.00,0.00,29.68,M,10.00,30.00,BKN,BKN,M,M,6000.00,7500.00,M,M,M,M,M,M,M,M,M,50.00,KTMT 142335Z AUTO 21023G30KT 10SM BKN060 BKN075 10/02 A2968 RMK AO2 T01000020,M
P68,2023-03-14 23:53,-116.0056,39.6014,1993.00,43.00,36.00,76.12,150.00,18.00,0.00,29.74,1005.40,M,27.00,M,M,M,M,M,M,M,M,M,M,M,M,29.00,150.00,2023-03-14 23:41,34.23,KP68 142353Z AUTO 15018G27KT 06/02 A2974 RMK AO1 PK WND 15029/2341 SLP054 T00610022 10067 20050 58013,M
DRA,2023-03-14 23:53,-116.0278,36.6206,1009.00,57.00,43.00,59.40,190.00,17.00,0.00,29.87,1009.20,10.00,31.00,BKN,M,M,M,4200.00,M,M,M,M,M,M,M,32.00,190.00,2023-03-14 23:14,57.00,KDRA 142353Z AUTO 19017G31KT 10SM BKN042 14/06 A2987 RMK AO2 PK WND 19032/2314 SLP092 60012 T01390061 10139 20100 56019,M
VGT,2023-03-14 23:53,-115.1933,36.2111,667.00,61.00,47.00,59.71,150.00,13.00,T,29.92,1014.00,10.00,M,OVC,M,M,M,6000.00,M,M,M,M,M,M,M,M,M,M,61.00,KVGT 142353Z 15013KT 10SM OVC060 16/08 A2992 RMK AO2 RAE13B47E51 SLP140 P0000 60002 T01610083 10194 20156 58015,M
LOL,2023-03-14 23:53,-118.5701,40.0684,1192.43,63.00,35.00,35.24,210.00,32.00,0.00,29.52,997.80,1.25,43.00,FEW,BKN,OVC,M,1000.00,8000.00,10000.00,M,HZ,M,M,M,43.00,220.00,2023-03-14 23:51,63.00,KLOL 142353Z AUTO 21032G43KT 1 1/4SM HZ FEW010 BKN080 OVC100 17/02 A2952 RMK AO2 PK WND 22043/2351 SLP978 60001 T01720017 10178 20078 55029,M
ELY,2023-03-14 23:53,-114.8453,39.2950,1909.00,38.00,32.00,79.08,160.00,26.00,T,29.80,1007.50,10.00,37.00,BKN,OVC,M,M,3600.00,4300.00,M,M,-RA,M,M,M,39.00,160.00,2023-03-14 23:41,25.59,KELY 142353Z AUTO 16026G37KT 10SM -RA BKN036 OVC043 03/00 A2980 RMK AO2 PK WND 16039/2341 RAB27 SLP075 P0000 60000 T00330000 10039 20022 58015,M
BVU,2023-03-14 23:55,-114.8611,35.9475,671.00,60.80,46.40,59.01,180.00,14.00,0.00,29.96,M,10.00,M,BKN,BKN,BKN,M,7000.00,8500.00,11000.00,M,M,M,M,M,M,M,M,60.80,KBVU 142355Z AUTO 18014KT 10SM BKN070 BKN085 BKN110 16/08 A2996 RMK AO2,M
INS,2023-03-14 23:55,-115.6733,36.5872,955.00,55.20,42.80,62.92,120.00,17.00,0.00,29.87,1009.80,10.00,23.00,FEW,OVC,M,M,3800.00,5500.00,M,M,M,M,M,M,27.00,120.00,2023-03-14 23:45,55.20,KINS 142355Z AUTO 12017G23KT 10SM FEW038 OVC055 13/06 A2987 RMK AO2 PK WND 12027/45 SLP098 60000 T01290060 10149 20114 57018 $,M
RTS,2023-03-14 23:55,-119.8764,39.6682,1539.00,50.00,35.60,57.52,210.00,27.00,0.00,29.54,M,10.00,34.00,CLR,M,M,M,M,M,M,M,M,M,M,M,M,M,M,50.00,KRTS 142355Z AUTO 21027G34KT 10SM CLR 10/02 A2954 RMK AO2,M
MEV,2023-03-14 23:55,-119.7500,38.9963,1441.42,48.20,39.20,70.88,210.00,12.00,0.01,29.59,M,8.00,28.00,FEW,SCT,BKN,M,2900.00,3400.00,4200.00,M,-RA,M,M,M,M,M,M,42.62,KMEV 142355Z AUTO 21012G28KT 8SM -RA FEW029 SCT034 BKN042 09/04 A2959 RMK AO2 P0001,M
BAM,2023-03-14 23:55,-116.8743,40.5990,1382.36,55.40,41.00,58.27,240.00,12.00,0.00,29.60,M,10.00,18.00,SCT,OVC,M,M,5000.00,7000.00,M,M,M,M,M,M,M,M,M,55.40,KBAM 142355Z AUTO 24012G18KT 230V290 10SM SCT050 OVC070 13/05 A2960 RMK AO1,M
HTH,2023-03-14 23:55,-118.6315,38.5448,1282.89,59.00,35.60,41.42,220.00,31.00,0.00,29.59,M,10.00,42.00,CLR,M,M,M,M,M,M,M,M,M,M,M,M,M,M,59.00,KHTH 142355Z AUTO 22031G42KT 10SM CLR 15/02 A2959 RMK A01,M
LSV,2023-03-14 23:55,-115.0343,36.2362,570.00,59.20,58.80,98.58,180.00,9.00,T,29.91,1012.10,10.00,M,SCT,SCT,M,M,7000.00,16000.00,M,M,M,M,M,M,M,M,M,59.20,KLSV 142355Z AUTO 18009KT 10SM SCT070 SCT160 15/15 A2991 RMK AO2 DZE00 SLP121 P0000 60000 T01510149 10190 20139 57016 $,M
RNO,2023-03-14 23:55,-119.7711,39.4839,1341.00,54.00,40.00,58.76,180.00,24.00,0.01,29.53,997.60,10.00,32.00,FEW,SCT,BKN,M,4500.00,7000.00,20000.00,M,M,M,M,M,38.00,180.00,2023-03-14 23:10,54.00,KRNO 142355Z 18024G32KT 10SM FEW045 SCT070 BKN200 12/04 A2953 RMK AO2 PK WND 18038/2310 RAE35 SLP976 MTN TOPS OBSCD DSNT SE THRU W P0001 60007 T01220044 10161 20061 56002,M
LOL,2023-03-14 23:55,-118.5701,40.0684,1192.43,62.00,34.00,34.81,220.00,32.00,0.00,29.52,M,0.75,43.00,SCT,BKN,OVC,M,800.00,7500.00,9000.00,M,HZ,M,M,M,40.00,220.00,2023-03-14 23:55,62.10,KLOL 142355Z AUTO 22032G43KT 3/4SM HZ SCT008 BKN075 OVC090 17/01 A2952 RMK AO2 PK WND 22040/2355 T01670011,M
TMT,2023-03-14 23:55,-117.1971,39.4643,1749.34,51.00,36.70,58.10,200.00,17.00,0.00,29.67,M,10.00,27.00,SCT,M,M,M,6000.00,M,M,M,M,M,M,M,M,M,M,50.90,KTMT 142355Z AUTO 20017G27KT 10SM SCT060 11/03 A2967 RMK AO2 T01050026 10111 20035,M
WMC,2023-03-14 23:56,-117.8072,40.9019,1315.00,57.00,39.00,50.88,160.00,22.00,0.00,29.50,996.90,10.00,30.00,OVC,M,M,M,9000.00,M,M,M,M,M,M,M,31.00,160.00,2023-03-14 23:30,57.00,KWMC 142356Z AUTO 16022G30KT 10SM OVC090 14/04 A2950 RMK AO2 PK WND 16031/2330 SLP969 60004 T01390039 10139 20067 56040,M
TPH,2023-03-14 23:56,-117.0904,38.0505,1654.00,45.00,41.00,85.77,170.00,18.00,0.00,29.81,1008.30,10.00,27.00,BKN,OVC,M,M,1200.00,2000.00,M,M,M,M,M,M,29.00,170.00,2023-03-14 23:36,36.86,KTPH 142356Z AUTO 17018G27KT 10SM BKN012 OVC020 07/05 A2981 RMK AO2 PK WND 17029/2336 SLP083 60000 T00720050 10089 20072 56007,M
EKO,2023-03-14 23:56,-115.7860,40.8242,1367.00,43.00,36.00,76.12,220.00,9.91,M,29.69,1005.50,10.00,20.02,OVC,M,M,M,5000.00,M,M,M,M,M,M,M,M,M,M,36.80,METAR KEKO 142356Z 22010G20KT 10SM OVC050 06/02 A2969 RMK AO2 SLP055 60003 T00610022 10083 20044 56020 TSNO FIBI,M
NFL,2023-03-14 23:56,-118.7010,39.4166,1199.00,65.00,34.00,31.55,200.00,21.00,0.00,29.56,999.60,10.00,33.00,SCT,SCT,BKN,BKN,3000.00,7000.00,10000.00,25000.00,M,M,M,M,41.00,210.00,2023-03-14 23:28,64.90,KNFL 142356Z 20021G33KT 10SM SCT030 SCT070 BKN100 BKN250 18/01 A2956 RMK AO2 PK WND 21041/2328 SLP996 60000 T01830011 10189 20106 55010,M
LAS,2023-03-14 23:56,-115.1634,36.0719,663.00,60.00,48.00,64.26,170.00,7.00,0.00,29.92,1012.40,10.00,M,FEW,BKN,OVC,M,4500.00,6000.00,16000.00,M,M,M,M,M,M,M,M,60.10,KLAS 142356Z 17007KT 10SM FEW045 BKN060 OVC160 16/09 A2992 RMK AO2 SLP124 60012 T01560089 10194 20139 58017,M
