station,valid,lon,lat,elevation,tmpf,dwpf,relh,drct,sknt,p01i,alti,mslp,vsby,gust,skyc1,skyc2,skyc3,skyc4,skyl1,skyl2,skyl3,skyl4,wxcodes,ice_accretion_1hr,ice_accretion_3hr,ice_accretion_6hr,peak_wind_gust,peak_wind_drct,peak_wind_time,feel,metar,snowdepth
05U,2023-09-01 00:10,-116.0051,39.6042,1811.23,87.80,19.40,8.06,M,M,0.00,29.88,M,10.00,M,CLR,M,M,M,M,M,M,M,M,M,M,M,M,M,M,83.23,K05U 010010Z AUTO 10SM CLR 31/M07 A2988 RMK A01,M
LSV,2023-09-01 00:12,-115.0343,36.2362,570.00,105.80,44.60,12.84,220.00,21.00,0.00,29.62,1000.10,10.00,29.00,CLR,M,M,M,M,M,M,M,M,M,M,M,M,M,M,101.53,KLSV 010012Z AUTO 22021G29KT 10SM CLR 41/07 A2962 RMK AO2 WSHFT 10 SLP001 $,M
INS,2023-09-01 00:14,-115.6733,36.5872,955.00,98.60,30.20,9.04,200.00,18.00,0.00,29.75,1002.00,10.00,26.00,CLR,M,M,M,M,M,M,M,M,M,M,M,M,M,M,92.46,KINS 010014Z AUTO 20018G26KT 10SM CLR 37/M01 A2975 RMK AO2 WSHFT 10 SLP020 $,M
BVU,2023-09-01 00:15,-114.8611,35.9475,671.00,104.00,44.60,13.54,210.00,13.00,0.00,29.68,M,10.00,20.00,CLR,M,M,M,M,M,M,M,M,M,M,M,M,M,M,99.82,KBVU 010015Z AUTO 21013G20KT 10SM CLR 40/07 A2968 RMK AO2,M
CXP,2023-09-01 00:15,-119.7326,39.1923,1431.00,82.40,32.00,16.17,250.00,12.00,0.00,29.85,M,10.00,22.00,CLR,M,M,M,M,M,M,M,M,M,M,M,M,M,M,80.00,KCXP 010015Z AUTO 25012G22KT 220V280 10SM CLR 28/M00 A2985 RMK AO2,M
RTS,2023-09-01 00:15,-119.8764,39.6682,1539.00,77.00,24.80,14.37,250.00,13.00,0.00,29.87,M,10.00,20.00,CLR,M,M,M,M,M,M,M,M,M,M,M,M,M,M,77.00,KRTS 010015Z AUTO 25013G20KT 10SM CLR 25/M04 A2987 RMK AO2,M
MEV,2023-09-01 00:15,-119.7500,38.9963,1441.42,82.40,32.00,16.17,220.00,11.00,0.00,29.84,M,10.00,M,CLR,M,M,M,M,M,M,M,M,M,M,M,M,M,M,80.00,KMEV 010015Z AUTO 22011KT 10SM CLR 28/M00 A2984 RMK AO2,M
HTH,2023-09-01 00:15,-118.6315,38.5448,1282.89,93.20,5.00,3.60,200.00,17.00,0.00,29.76,M,10.00,M,CLR,M,M,M,M,M,M,M,M,M,M,M,M,M,M,86.60,KHTH 010015Z AUTO 20017KT 10SM CLR 34/M15 A2976 RMK A01,M
BAM,2023-09-01 00:15,-116.8743,40.5990,1382.36,91.40,21.20,7.77,250.00,21.00,0.00,29.76,M,10.00,24.00,CLR,M,M,M,M,M,M,M,M,M,M,M,M,M,M,85.96,KBAM 010015Z AUTO 25021G24KT 10SM CLR 33/M06 A2976 RMK AO1,M
TMT,2023-09-01 00:15,-117.1971,39.4643,1749.34,84.60,20.00,9.16,250.00,17.00,0.00,29.87,M,M,24.00,CLR,M,M,M,M,M,M,M,M,M,M,M,M,M,M,80.99,KTMT 010015Z AUTO 25017G24KT CLR 29/M07 A2987 RMK AO2 T02921067 PWINO,M
10U,2023-09-01 00:20,-116.1876,41.9532,1637.00,86.00,14.00,6.75,220.00,19.00,0.00,29.81,M,10.00,27.00,CLR,M,M,M,M,M,M,M,M,M,M,M,M,M,M,81.71,K10U 010020Z AUTO 22019G27KT 10SM CLR 30/M10 A2981 RMK AO2,M
LOL,2023-09-01 00:24,-118.5701,40.0684,1192.43,88.00,22.00,8.94,270.00,14.00,0.00,29.73,M,10.00,M,CLR,M,M,M,M,M,M,M,M,M,M,M,M,M,M,83.52,KLOL 010024Z AUTO 27014KT 10SM CLR 31/M06 A2973 RMK AO2 WSHFT 0004 T03111056,M
BVU,2023-09-01 00:35,-114.8611,35.9475,671.00,102.20,44.60,14.29,200.00,14.00,0.00,29.68,M,10.00,M,CLR,M,M,M,M,M,M,M,M,M,M,M,M,M,M,98.07,KBVU 010035Z AUTO 20014KT 10SM CLR 39/07 A2968 RMK AO2,M
CXP,2023-09-01 00:35,-119.7326,39.1923,1431.00,80.60,32.00,17.14,260.00,12.00,0.00,29.85,M,10.00,22.00,CLR,M,M,M,M,M,M,M,M,M,M,M,M,M,M,78.82,KCXP 010035Z AUTO 26012G22KT 10SM CLR 27/M00 A2985 RMK AO2,M
RTS,2023-09-01 00:35,-119.8764,39.6682,1539.00,77.00,24.80,14.37,240.00,17.00,0.00,29.87,M,10.00,M,CLR,M,M,M,M,M,M,M,M,M,M,M,M,M,M,77.00,KRTS 010035Z AUTO 24017KT 10SM CLR 25/M04 A2987 RMK AO2,M
05U,2023-09-01 00:35,-116.0051,39.6042,1811.23,87.80,17.60,7.46,M,M,0.00,29.88,M,10.00,M,CLR,M,M,M,M,M,M,M,M,M,M,M,M,M,M,83.14,K05U 010035Z AUTO 10SM CLR 31/M08 A2988 RMK A01,M
MEV,2023-09-01 00:35,-119.7500,38.9963,1441.42,80.60,32.00,17.14,200.00,12.00,0.00,29.84,M,10.00,M,CLR,M,M,M,M,M,M,M,M,M,M,M,M,M,M,78.82,KMEV 010035Z AUTO 20012KT 10SM CLR 27/M00 A2984 RMK AO2,M
HTH,2023-09-01 00:35,-118.6315,38.5448,1282.89,91.40,5.00,3.81,190.00,14.00,0.00,29.76,M,10.00,23.00,CLR,M,M,M,M,M,M,M,M,M,M,M,M,M,M,85.32,KHTH 010035Z AUTO 19014G23KT 10SM CLR 33/M15 A2976 RMK A01,M
BAM,2023-09-01 00:35,-116.8743,40.5990,1382.36,89.60,19.40,7.61,260.00,15.00,0.00,29.76,M,10.00,25.00,CLR,M,M,M,M,M,M,M,M,M,M,M,M,M,M,84.54,KBAM 010035Z AUTO 26015G25KT 10SM CLR 32/M07 A2976 RMK AO1,M
TMT,2023-09-01 00:35,-117.1971,39.4643,1749.34,84.00,23.40,10.78,240.00,15.00,0.00,29.87,M,M,22.00,CLR,M,M,M,M,M,M,M,M,M,M,M,M,M,M,80.77,KTMT 010035Z AUTO 24015G22KT CLR 29/M05 A2987 RMK AO2 T02891048 PWINO,M
10U,2023-09-01 00:40,-116.1876,41.9532,1637.00,84.20,15.80,7.74,240.00,15.00,0.00,29.81,M,10.00,21.00,CLR,M,M,M,M,M,M,M,M,M,M,M,M,M,M,80.51,K10U 010040Z AUTO 24015G21KT 10SM CLR 29/M09 A2981 RMK AO2,M
05U,2023-09-01 00:50,-116.0051,39.6042,1811.23,86.00,19.40,8.53,M,M,0.00,29.88,M,10.00,M,CLR,M,M,M,M,M,M,M,M,M,M,M,M,M,M,81.94,K05U 010050Z AUTO 10SM CLR 30/M07 A2988 RMK A01,M
P68,2023-09-01 00:53,-116.0056,39.6014,1993.00,84.00,16.00,7.86,200.00,14.00,0.00,29.85,1003.60,M,22.00,M,M,M,M,M,M,M,M,M,M,M,M,30.00,210.00,2023-09-01 00:13,80.38,KP68 010053Z AUTO 20014G22KT 29/M09 A2985 RMK AO1 PK WND 21030/0013 SLP036 T02891089,M
DRA,2023-09-01 00:53,-116.0278,36.6206,1009.00,97.00,33.00,10.63,230.00,22.00,0.00,29.76,1002.30,10.00,30.00,CLR,M,M,M,M,M,M,M,M,M,M,M,34.00,220.00,2023-08-31 23:58,91.49,KDRA 010053Z AUTO 23022G30KT 10SM CLR 36/01 A2976 RMK AO2 PK WND 22034/2358 SLP023 T03610006,M
ELY,2023-09-01 00:53,-114.8453,39.2950,1909.00,83.00,29.00,14.04,180.00,17.00,0.00,29.92,1004.70,10.00,37.00,CLR,M,M,M,M,M,M,M,M,M,M,M,38.00,170.00,2023-09-01 00:03,80.37,KELY 010053Z AUTO 18017G37KT 10SM CLR 28/M02 A2992 RMK AO2 PK WND 17038/0003 SLP047 T02831017,M
VGT,2023-09-01 00:53,-115.1933,36.2111,667.00,104.00,46.00,14.28,250.00,14.00,0.00,29.67,1003.30,10.00,21.00,CLR,M,M,M,M,M,M,M,M,M,M,M,27.00,250.00,2023-09-01 00:21,100.12,KVGT 010053Z 25014G21KT 10SM CLR 40/08 A2967 RMK AO2 PK WND 25027/0021 LTG DSNT E-SW SLP033 T04000078,M
LOL,2023-09-01 00:53,-118.5701,40.0684,1192.43,87.00,23.00,9.63,280.00,14.00,0.00,29.72,1002.80,10.00,22.00,CLR,M,M,M,M,M,M,M,M,M,M,M,M,M,M,82.86,KLOL 010053Z AUTO 28014G22KT 10SM CLR 31/M05 A2972 RMK AO2 WSHFT 0004 SLP028 T03061050,M
BVU,2023-09-01 00:55,-114.8611,35.9475,671.00,102.20,48.20,16.37,200.00,18.00,0.00,29.67,M,10.00,M,CLR,M,M,M,M,M,M,M,M,M,M,M,M,M,M,98.83,KBVU 010055Z AUTO 20018KT 10SM CLR 39/09 A2967 RMK AO2 LTG DSNT SW AND W,M
CXP,2023-09-01 00:55,-119.7326,39.1923,1431.00,78.80,32.00,18.18,260.00,8.00,0.00,29.85,M,10.00,21.00,CLR,M,M,M,M,M,M,M,M,M,M,M,M,M,M,78.80,KCXP 010055Z AUTO 26008G21KT 10SM CLR 26/00 A2985 RMK AO2,M
RNO,2023-09-01 00:55,-119.7711,39.4839,1341.00,83.00,31.00,15.23,230.00,8.00,0.00,29.81,1004.30,10.00,16.00,SCT,BKN,M,M,15000.00,20000.00,M,M,M,M,M,M,M,M,M,80.40,KRNO 010055Z 23008G16KT 10SM SCT150 BKN200 28/M01 A2981 RMK AO2 SLP043 T02831006,M
RTS,2023-09-01 00:55,-119.8764,39.6682,1539.00,77.00,28.40,16.67,240.00,11.00,0.00,29.87,M,10.00,19.00,CLR,M,M,M,M,M,M,M,M,M,M,M,M,M,M,77.00,KRTS 010055Z AUTO 24011G19KT 10SM CLR 25/M02 A2987 RMK AO2,M
MEV,2023-09-01 00:55,-119.7500,38.9963,1441.42,78.80,35.60,21.00,200.00,7.00,0.00,29.84,M,10.00,M,CLR,M,M,M,M,M,M,M,M,M,M,M,M,M,M,78.80,KMEV 010055Z AUTO 20007KT 10SM CLR 26/02 A2984 RMK AO2,M
HTH,2023-09-01 00:55,-118.6315,38.5448,1282.89,89.60,3.20,3.71,190.00,18.00,0.00,29.76,M,10.00,M,CLR,M,M,M,M,M,M,M,M,M,M,M,M,M,M,83.99,KHTH 010055Z AUTO 19018KT 10SM CLR 32/M16 A2976 RMK A01,M
BAM,2023-09-01 00:55,-116.8743,40.5990,1382.36,89.60,19.40,7.61,240.00,16.00,0.00,29.76,M,10.00,23.00,CLR,M,M,M,M,M,M,M,M,M,M,M,M,M,M,84.54,KBAM 010055Z AUTO 24016G23KT 10SM CLR 32/M07 A2976 RMK AO1,M
TMT,2023-09-01 00:55,-117.1971,39.4643,1749.34,83.30,21.20,10.05,250.00,9.00,0.00,29.87,M,M,18.00,CLR,M,M,M,M,M,M,M,M,M,M,M,M,M,M,80.16,KTMT 010055Z AUTO 25009G18KT CLR 29/M06 A2987 RMK AO2 T02851060 PWINO,M
10U,2023-09-01 00:55,-116.1876,41.9532,1637.00,84.20,15.80,7.74,230.00,20.00,0.00,29.81,M,10.00,M,CLR,M,M,M,M,M,M,M,M,M,M,M,M,M,M,80.51,K10U 010055Z AUTO 23020KT 10SM CLR 29/M09 A2981 RMK AO2,M
INS,2023-09-01 00:55,-115.6733,36.5872,955.00,97.70,29.30,8.96,180.00,12.00,0.00,29.75,1002.00,10.00,23.00,CLR,M,M,M,M,M,M,M,M,M,M,M,30.00,210.00,2023-09-01 00:01,91.60,KINS 010055Z AUTO 18012G23KT 10SM CLR 37/M01 A2975 RMK AO2 PK WND 21030/01 SLP020 T03651015 $,M
LSV,2023-09-01 00:55,-115.0343,36.2362,570.00,106.00,43.00,12.01,220.00,18.00,0.00,29.62,1000.20,10.00,M,FEW,M,M,M,13000.00,M,M,M,M,M,M,M,29.00,240.00,2023-09-01 00:11,101.25,KLSV 010055Z AUTO 22018KT 10SM FEW130 41/06 A2962 RMK AO2 PK WND 24029/11 LTG DSNT SW SLP002 T04120061 $,M
EKO,2023-09-01 00:56,-115.7860,40.8242,1367.00,88.00,25.00,10.14,280.00,13.00,0.00,29.76,1002.90,10.00,M,CLR,M,M,M,M,M,M,M,M,M,M,M,26.00,290.00,2023-08-31 23:59,83.71,KEKO 010056Z AUTO 28013KT 10SM CLR 31/M04 A2976 RMK AO2 PK WND 29026/2359 SLP029 T03111039,M
WMC,2023-09-01 00:56,-117.8072,40.9019,1315.00,88.00,16.00,6.92,240.00,11.00,0.00,29.74,1003.20,10.00,23.00,CLR,M,M,M,M,M,M,M,M,M,M,M,M,M,M,83.22,KWMC 010056Z AUTO 24011G23KT 10SM CLR 31/M09 A2974 RMK AO2 SLP032 T03111089,M
NFL,2023-09-01 00:56,-118.7010,39.4166,1199.00,89.00,26.00,10.24,260.00,18.00,0.00,29.73,1004.90,10.00,22.00,FEW,SCT,SCT,M,8000.00,12000.00,25000.00,M,M,M,M,M,M,M,M,84.52,KNFL 010056Z 26018G22KT 10SM FEW080 SCT120 SCT250 32/M03 A2973 RMK AO2 SLP049 T03171033,M
HND,2023-09-01 00:56,-115.1344,35.9729,742.79,101.00,49.00,17.49,240.00,14.00,0.00,29.73,1004.70,10.00,M,FEW,M,M,M,12000.00,M,M,M,M,M,M,M,M,M,M,97.79,KHND 010056Z 24014KT 10SM FEW120 38/09 A2973 RMK AO2 LTG DSNT ALQDS SLP047 T03830094,M
TPH,2023-09-01 00:56,-117.0904,38.0505,1654.00,87.00,20.00,8.48,190.00,16.00,0.00,29.87,1004.00,10.00,26.00,CLR,M,M,M,M,M,M,M,M,M,M,M,34.00,190.00,2023-09-01 00:18,82.68,KTPH 010056Z AUTO 19016G26KT 10SM CLR 31/M07 A2987 RMK AO2 PK WND 19034/0018 SLP040 T03061067,M
LAS,2023-09-01 00:56,-115.1634,36.0719,663.00,102.00,47.00,15.74,230.00,13.00,T,29.69,1001.90,10.00,25.00,FEW,SCT,BKN,M,11000.00,17000.00,20000.00,M,-RA,M,M,M,M,M,M,98.36,KLAS 010056Z 23013G25KT 10SM -RA FEW110CB SCT170 BKN200 39/08 A2969 RMK AO2 LTG DSNT ALQDS RAB50 SLP019 VCSH NE-E CB NE AND SE AND SW AND DSNT NE-SE MOV N P0000 T03890083,M
LAS,2023-09-01 01:03,-115.1634,36.0719,663.00,102.00,47.00,15.74,240.00,11.00,T,29.69,M,10.00,17.00,FEW,SCT,BKN,M,11000.00,17000.00,20000.00,M,M,M,M,M,M,M,M,98.36,KLAS 010103Z 24011G17KT 10SM FEW110CB SCT170 BKN200 39/08 A2969 RMK AO2 LTG DSNT ALQDS RAE0059 CB NE AND SE AND SW AND DSNT NE-SE MOV N P0000 T03890083,M
HND,2023-09-01 01:09,-115.1344,35.9729,742.79,100.40,50.00,18.48,210.00,15.00,0.00,29.73,M,10.00,M,FEW,M,M,M,12000.00,M,M,M,VCTS,M,M,M,M,M,M,97.42,KHND 010109Z 21015KT 10SM VCTS FEW120 38/10 A2973 RMK AO2 LTG DSNT ALQDS TSB03,M
BVU,2023-09-01 01:15,-114.8611,35.9475,671.00,100.40,48.20,17.28,200.00,12.00,0.00,29.68,M,10.00,21.00,CLR,M,M,M,M,M,M,M,M,M,M,M,M,M,M,97.00,KBVU 010115Z AUTO 20012G21KT 10SM CLR 38/09 A2968 RMK AO2,M
CXP,2023-09-01 01:15,-119.7326,39.1923,1431.00,78.80,33.80,19.55,250.00,9.00,0.00,29.85,M,10.00,20.00,CLR,M,M,M,M,M,M,M,M,M,M,M,M,M,M,78.80,KCXP 010115Z AUTO 25009G20KT 10SM CLR 26/01 A2985 RMK AO2,M
RTS,2023-09-01 01:15,-119.8764,39.6682,1539.00,75.20,30.20,19.05,230.00,17.00,0.00,29.87,M,10.00,M,CLR,M,M,M,M,M,M,M,M,M,M,M,M,M,M,75.20,KRTS 010115Z AUTO 23017KT 10SM CLR 24/M01 A2987 RMK AO2,M
05U,2023-09-01 01:15,-116.0051,39.6042,1811.23,84.20,19.40,9.04,M,M,0.00,29.88,M,10.00,M,CLR,M,M,M,M,M,M,M,M,M,M,M,M,M,M,80.68,K05U 010115Z AUTO 10SM CLR 29/M07 A2988 RMK A01,M
MEV,2023-09-01 01:15,-119.7500,38.9963,1441.42,75.20,33.80,22.02,210.00,9.00,0.00,29.84,M,10.00,M,CLR,M,M,M,M,M,M,M,M,M,M,M,M,M,M,75.20,KMEV 010115Z AUTO 21009KT 10SM CLR 24/01 A2984 RMK AO2,M
HTH,2023-09-01 01:15,-118.6315,38.5448,1282.89,89.60,1.40,3.41,200.00,15.00,0.00,29.76,M,10.00,22.00,CLR,M,M,M,M,M,M,M,M,M,M,M,M,M,M,83.96,KHTH 010115Z AUTO 20015G22KT 10SM CLR 32/M17 A2976 RMK A01,M
10U,2023-09-01 01:15,-116.1876,41.9532,1637.00,84.20,14.00,7.16,240.00,16.00,0.00,29.80,M,10.00,21.00,CLR,M,M,M,M,M,M,M,M,M,M,M,M,M,M,80.44,K10U 010115Z AUTO 24016G21KT 10SM CLR 29/M10 A2980 RMK AO2,M
BAM,2023-09-01 01:15,-116.8743,40.5990,1382.36,87.80,17.60,7.46,250.00,16.00,0.00,29.76,M,10.00,23.00,CLR,M,M,M,M,M,M,M,M,M,M,M,M,M,M,83.14,KBAM 010115Z AUTO 25016G23KT 10SM CLR 31/M08 A2976 RMK AO1,M
TMT,2023-09-01 01:15,-117.1971,39.4643,1749.34,82.00,17.80,9.06,260.00,10.00,0.00,29.87,M,M,M,CLR,M,M,M,M,M,M,M,M,M,M,M,M,M,M,79.10,KTMT 010115Z AUTO 26010KT CLR 28/M08 A2987 RMK AO2 T02771079 PWINO,M
VGT,2023-09-01 01:17,-115.1933,36.2111,667.00,104.00,46.00,14.28,240.00,12.00,0.00,29.67,M,10.00,23.00,CLR,M,M,M,M,M,M,M,VCTS,M,M,M,M,M,M,100.12,KVGT 010117Z 24012G23KT 10SM VCTS CLR 40/08 A2967 RMK AO2 LTG DSNT ALQDS T04000078,M
LAS,2023-09-01 01:17,-115.1634,36.0719,663.00,96.00,62.00,32.65,200.00,7.00,0.01,29.70,M,10.00,26.00,BKN,BKN,BKN,M,11000.00,17000.00,20000.00,M,-TSRA,M,M,M,26.00,250.00,2023-09-01 01:09,97.03,KLAS 010117Z 20007G26KT 190V250 10SM -TSRA BKN110CB BKN170 BKN200 36/17 A2970 RMK AO2 PK WND 25026/0109 LTG DSNT NE AND S AND SW RAE0059B12 TSB11 OCNL LTGICCG NE AND S-SW TS NE AND S-SW MOV N P0001 T03560167,M
05U,2023-09-01 01:30,-116.0051,39.6042,1811.23,80.60,19.40,10.16,M,M,0.00,29.88,M,10.00,M,CLR,M,M,M,M,M,M,M,M,M,M,M,M,M,M,78.56,K05U 010130Z AUTO 10SM CLR 27/M07 A2988 RMK A01,M
BVU,2023-09-01 01:35,-114.8611,35.9475,671.00,100.40,48.20,17.28,200.00,14.00,0.00,29.69,M,10.00,M,CLR,M,M,M,M,M,M,M,VCTS,M,M,M,M,M,M,97.00,KBVU 010135Z AUTO 20014KT 10SM VCTS CLR 38/09 A2969 RMK AO2 LTG DSNT SW AND W,M
CXP,2023-09-01 01:35,-119.7326,39.1923,1431.00,78.80,33.80,19.55,260.00,8.00,0.00,29.84,M,10.00,19.00,CLR,M,M,M,M,M,M,M,M,M,M,M,M,M,M,78.80,KCXP 010135Z AUTO 26008G19KT 10SM CLR 26/01 A2984 RMK AO2,M
RTS,2023-09-01 01:35,-119.8764,39.6682,1539.00,75.20,32.00,20.49,230.00,13.00,0.00,29.87,M,10.00,20.00,CLR,M,M,M,M,M,M,M,M,M,M,M,M,M,M,75.20,KRTS 010135Z AUTO 23013G20KT 10SM CLR 24/00 A2987 RMK AO2,M
MEV,2023-09-01 01:35,-119.7500,38.9963,1441.42,77.00,33.80,20.74,220.00,6.00,0.00,29.84,M,10.00,M,CLR,M,M,M,M,M,M,M,M,M,M,M,M,M,M,77.00,KMEV 010135Z AUTO 22006KT 10SM CLR 25/01 A2984 RMK AO2,M
HTH,2023-09-01 01:35,-118.6315,38.5448,1282.89,87.80,3.20,3.92,200.00,15.00,0.00,29.76,M,10.00,M,CLR,M,M,M,M,M,M,M,M,M,M,M,M,M,M,82.70,KHTH 010135Z AUTO 20015KT 10SM CLR 31/M16 A2976 RMK A01,M
BAM,2023-09-01 01:35,-116.8743,40.5990,1382.36,86.00,17.60,7.90,240.00,16.00,0.00,29.76,M,10.00,21.00,CLR,M,M,M,M,M,M,M,M,M,M,M,M,M,M,81.85,KBAM 010135Z AUTO 24016G21KT 10SM CLR 30/M08 A2976 RMK AO1,M
TMT,2023-09-01 01:35,-117.1971,39.4643,1749.34,80.20,22.30,11.64,280.00,10.00,0.00,29.87,M,M,M,CLR,M,M,M,M,M,M,M,M,M,M,M,M,M,M,78.35,KTMT 010135Z AUTO 28010KT CLR 27/M05 A2987 RMK AO2 T02681054 PWINO,M
10U,2023-09-01 01:35,-116.1876,41.9532,1637.00,82.40,10.40,6.47,230.00,14.00,0.00,29.80,M,10.00,20.00,FEW,M,M,M,12000.00,M,M,M,M,M,M,M,M,M,M,79.07,K10U 010135Z AUTO 23014G20KT 10SM FEW120 28/M12 A2980 RMK AO2,M
P68,2023-09-01 01:53,-116.0056,39.6014,1993.00,80.00,19.00,10.19,190.00,13.00,0.00,29.85,1003.60,M,20.00,M,M,M,M,M,M,M,M,M,M,M,M,29.00,200.00,2023-09-01 01:04,77.94,KP68 010153Z AUTO 19013G20KT 27/M07 A2985 RMK AO1 PK WND 20029/0104 SLP036 T02671072,M
DRA,2023-09-01 01:53,-116.0278,36.6206,1009.00,94.00,38.00,14.21,230.00,20.00,0.00,29.76,1002.20,10.00,33.00,CLR,M,M,M,M,M,M,M,M,M,M,M,36.00,230.00,2023-09-01 00:59,89.58,KDRA 010153Z AUTO 23020G33KT 10SM CLR 34/03 A2976 RMK AO2 PK WND 23036/0059 SLP022 T03440033,M
ELY,2023-09-01 01:53,-114.8453,39.2950,1909.00,79.00,29.00,15.99,200.00,10.00,0.00,29.93,1004.60,10.00,19.00,CLR,M,M,M,M,M,M,M,M,M,M,M,33.00,190.00,2023-09-01 01:05,79.00,KELY 010153Z AUTO 20010G19KT 10SM CLR 26/M02 A2993 RMK AO2 PK WND 19033/0105 SLP046 T02611017,M
VGT,2023-09-01 01:53,-115.1933,36.2111,667.00,98.00,48.00,18.45,230.00,24.00,0.00,29.68,1003.50,8.00,41.00,FEW,FEW,M,M,8500.00,11000.00,M,M,VCTS,M,M,M,42.00,220.00,2023-09-01 01:42,94.53,KVGT 010153Z 23024G41KT 8SM VCTS FEW085 FEW110 37/09 A2968 RMK AO2 PK WND 22042/0142 LTG DSNT SE AND S SLP035 T03670089,M
LSV,2023-09-01 01:53,-115.0343,36.2362,570.00,98.60,60.80,28.90,210.00,23.00,0.00,29.64,1000.90,9.00,38.00,SCT,M,M,M,14000.00,M,M,M,VCTS -RA,M,M,M,M,M,M,99.39,KLSV 010153Z AUTO 21023G38KT 9SM VCTS -RA SCT140 37/16 A2964 RMK AO2 RAB53 SLP009 $,M
LOL,2023-09-01 01:53,-118.5701,40.0684,1192.43,83.00,26.00,12.41,270.00,12.00,0.00,29.72,1003.20,10.00,M,CLR,M,M,M,M,M,M,M,M,M,M,M,M,M,M,80.27,KLOL 010153Z AUTO 27012KT 10SM CLR 28/M03 A2972 RMK AO2 SLP032 T02831033,M
BVU,2023-09-01 01:55,-114.8611,35.9475,671.00,96.80,50.00,20.62,250.00,22.00,0.00,29.69,M,10.00,28.00,CLR,M,M,M,M,M,M,M,M,M,M,M,M,M,M,93.71,KBVU 010155Z AUTO 25022G28KT 10SM CLR 36/10 A2969 RMK AO2 LTG DSNT SW,M
CXP,2023-09-01 01:55,-119.7326,39.1923,1431.00,77.00,28.40,16.67,220.00,9.00,0.00,29.85,M,10.00,15.00,CLR,M,M,M,M,M,M,M,M,M,M,M,M,M,M,77.00,KCXP 010155Z AUTO 22009G15KT 10SM CLR 25/M02 A2985 RMK AO2,M
RNO,2023-09-01 01:55,-119.7711,39.4839,1341.00,81.00,32.00,16.92,230.00,9.00,0.00,29.81,1004.30,10.00,19.00,BKN,BKN,M,M,13000.00,19000.00,M,M,M,M,M,M,M,M,M,79.07,KRNO 010155Z 23009G19KT 10SM BKN130 BKN190 27/00 A2981 RMK AO2 SLP043 T02720000,M
RTS,2023-09-01 01:55,-119.8764,39.6682,1539.00,75.20,35.60,23.66,230.00,12.00,0.00,29.87,M,10.00,19.00,CLR,M,M,M,M,M,M,M,M,M,M,M,M,M,M,75.20,KRTS 010155Z AUTO 23012G19KT 10SM CLR 24/02 A2987 RMK AO2,M
05U,2023-09-01 01:55,-116.0051,39.6042,1811.23,78.80,19.40,10.78,M,M,0.00,29.87,M,10.00,M,CLR,M,M,M,M,M,M,M,M,M,M,M,M,M,M,78.80,K05U 010155Z AUTO 10SM CLR 26/M07 A2987 RMK A01,M
MEV,2023-09-01 01:55,-119.7500,38.9963,1441.42,75.20,32.00,20.49,190.00,8.00,0.00,29.84,M,10.00,M,CLR,M,M,M,M,M,M,M,M,M,M,M,M,M,M,75.20,KMEV 010155Z AUTO 19008KT 10SM CLR 24/00 A2984 RMK AO2,M
HTH,2023-09-01 01:55,-118.6315,38.5448,1282.89,86.00,6.80,4.90,190.00,14.00,0.00,29.76,M,10.00,21.00,CLR,M,M,M,M,M,M,M,M,M,M,M,M,M,M,81.49,KHTH 010155Z AUTO 19014G21KT 10SM CLR 30/M14 A2976 RMK A01,M
BAM,2023-09-01 01:55,-116.8743,40.5990,1382.36,84.20,15.80,7.74,250.00,10.00,0.00,29.76,M,10.00,M,CLR,M,M,M,M,M,M,M,M,M,M,M,M,M,M,80.51,KBAM 010155Z AUTO 25010KT 10SM CLR 29/M09 A2976 RMK AO1,M
TMT,2023-09-01 01:55,-117.1971,39.4643,1749.34,75.20,24.00,14.75,290.00,7.00,0.00,29.87,M,M,M,CLR,M,M,M,M,M,M,M,M,M,M,M,M,M,M,75.20,KTMT 010155Z AUTO 29007KT CLR 24/M04 A2987 RMK AO2 T02401045 PWINO,M
INS,2023-09-01 01:55,-115.6733,36.5872,955.00,95.40,30.20,9.97,180.00,9.00,0.00,29.75,1002.20,10.00,M,CLR,M,M,M,M,M,M,M,M,M,M,M,30.00,240.00,2023-09-01 01:08,89.80,KINS 010155Z AUTO 18009KT 10SM CLR 35/M01 A2975 RMK AO2 PK WND 24030/08 SLP022 T03521010 $,M
LSV,2023-09-01 01:55,-115.0343,36.2362,570.00,97.00,62.00,31.66,210.00,18.00,T,29.64,1000.90,9.00,38.00,SCT,M,M,M,13000.00,M,M,M,VCTS -RA,M,M,M,38.00,210.00,2023-09-01 01:49,98.18,KLSV 010155Z AUTO 21018G38KT 9SM VCTS -RA SCT130 36/17 A2964 RMK AO2 PK WND 21038/49 RAB53 SLP009 P0000 T03610167 $,M
EKO,2023-09-01 01:56,-115.7860,40.8242,1367.00,83.00,22.00,10.49,270.00,9.00,0.00,29.77,1003.10,10.00,M,CLR,M,M,M,M,M,M,M,M,M,M,M,M,M,M,80.00,KEKO 010156Z AUTO 27009KT 10SM CLR 28/M06 A2977 RMK AO2 SLP031 T02831056,M
WMC,2023-09-01 01:56,-117.8072,40.9019,1315.00,81.00,15.00,8.29,260.00,8.00,0.00,29.73,1002.90,10.00,M,CLR,M,M,M,M,M,M,M,M,M,M,M,M,M,M,78.32,KWMC 010156Z AUTO 26008KT 10SM CLR 27/M09 A2973 RMK AO2 SLP029 T02721094,M
NFL,2023-09-01 01:56,-118.7010,39.4166,1199.00,83.00,32.00,15.85,280.00,12.00,0.00,29.74,1005.00,10.00,18.00,FEW,SCT,BKN,M,8000.00,12000.00,25000.00,M,M,M,M,M,M,M,M,80.41,KNFL 010156Z 28012G18KT 10SM FEW080 SCT120 BKN250 28/00 A2974 RMK AO2 SLP050 T02830000,M
HND,2023-09-01 01:56,-115.1344,35.9729,742.79,95.00,49.00,21.00,210.00,14.00,0.00,29.77,1006.10,10.00,25.00,CLR,M,M,M,M,M,M,M,VCTS,M,M,M,26.00,270.00,2023-09-01 01:36,91.70,KHND 010156Z 21014G25KT 10SM VCTS CLR 35/09 A2977 RMK AO2 PK WND 27026/0136 LTG DSNT N AND S AND SW TSB03 PRESRR SLP061 T03500094,M
TPH,2023-09-01 01:56,-117.0904,38.0505,1654.00,83.00,25.00,11.90,190.00,20.00,0.00,29.86,1004.00,10.00,28.00,CLR,M,M,M,M,M,M,M,M,M,M,M,29.00,180.00,2023-09-01 01:26,80.20,KTPH 010156Z AUTO 19020G28KT 10SM CLR 28/M04 A2986 RMK AO2 PK WND 18029/0126 SLP040 T02831039,M
LAS,2023-09-01 01:56,-115.1634,36.0719,663.00,94.00,48.00,20.86,250.00,20.00,0.01,29.70,1002.60,10.00,30.00,BKN,BKN,BKN,M,11000.00,17000.00,20000.00,M,TS,M,M,M,41.00,230.00,2023-09-01 01:35,90.55,KLAS 010156Z 25020G30KT 10SM TS BKN110CB BKN170 BKN200 34/09 A2970 RMK AO2 PK WND 23041/0135 LTG DSNT ALQDS RAE0059B12E24 TSB11E28B29 SLP026 OCNL LTGICCG NE AND S-SW TS NE AND S-SW MOV N P0001 T03440089,M
LSV,2023-09-01 02:00,-115.0343,36.2362,570.00,93.20,55.40,28.10,210.00,26.00,0.00,29.63,1000.70,10.00,38.00,SCT,M,M,M,14000.00,M,M,M,VCTS,M,M,M,M,M,M,91.35,KLSV 010200Z AUTO 21026G38KT 10SM VCTS SCT140 34/13 A2963 RMK AO2 RAE00 SLP007 $,M
10U,2023-09-01 02:00,-116.1876,41.9532,1637.00,80.60,15.80,8.70,260.00,9.00,0.00,29.81,M,10.00,15.00,FEW,M,M,M,11000.00,M,M,M,M,M,M,M,M,M,M,78.35,K10U 010200Z AUTO 26009G15KT 230V300 10SM FEW110 27/M09 A2981 RMK AO2,M
LAS,2023-09-01 02:01,-115.1634,36.0719,663.00,95.00,46.00,18.76,240.00,17.00,0.00,29.70,M,10.00,30.00,BKN,BKN,BKN,M,11000.00,17000.00,20000.00,M,TS,M,M,M,28.00,250.00,2023-09-01 01:57,91.23,KLAS 010201Z 24017G30KT 10SM TS BKN110CB BKN170 BKN200 35/08 A2970 RMK AO2 PK WND 25028/0157 LTG DSNT ALQDS VCSH ALQDS OCNL LTGICCG NE AND S-SW TS NE AND S-SW MOV N T03500078,M
HND,2023-09-01 02:07,-115.1344,35.9729,742.79,93.20,51.80,24.63,200.00,18.00,0.00,29.77,M,10.00,23.00,FEW,SCT,M,M,7000.00,11000.00,M,M,VCTS,M,M,M,M,M,M,90.45,KHND 010207Z 20018G23KT 10SM VCTS FEW070 SCT110 34/11 A2977 RMK AO2 WSHFT 0147 LTG DSNT ALQDS,M
05U,2023-09-01 02:10,-116.0051,39.6042,1811.23,78.80,19.40,10.78,M,M,0.00,29.87,M,10.00,M,CLR,M,M,M,M,M,M,M,M,M,M,M,M,M,M,78.80,K05U 010210Z AUTO 10SM CLR 26/M07 A2987 RMK A01,M
VGT,2023-09-01 02:14,-115.1933,36.2111,667.00,99.00,46.00,16.60,240.00,19.00,0.00,29.68,M,10.00,31.00,FEW,FEW,M,M,9000.00,11000.00,M,M,M,M,M,M,36.00,230.00,2023-09-01 02:00,95.17,KVGT 010214Z 24019G31KT 10SM FEW090 FEW110 37/08 A2968 RMK AO2 PK WND 23036/0200 LTG DSNT NE-S T03720078,M
BVU,2023-09-01 02:15,-114.8611,35.9475,671.00,96.80,50.00,20.62,250.00,14.00,0.00,29.70,M,10.00,M,CLR,M,M,M,M,M,M,M,M,M,M,M,M,M,M,93.71,KBVU 010215Z AUTO 25014KT 10SM CLR 36/10 A2970 RMK AO2,M
CXP,2023-09-01 02:15,-119.7326,39.1923,1431.00,77.00,30.20,17.94,220.00,7.00,0.00,29.85,M,10.00,15.00,CLR,M,M,M,M,M,M,M,M,M,M,M,M,M,M,77.00,KCXP 010215Z AUTO 22007G15KT 10SM CLR 25/M01 A2985 RMK AO2,M
RTS,2023-09-01 02:15,-119.8764,39.6682,1539.00,73.40,35.60,25.13,250.00,15.00,0.00,29.87,M,10.00,M,CLR,M,M,M,M,M,M,M,M,M,M,M,M,M,M,73.40,KRTS 010215Z AUTO 25015KT 10SM CLR 23/02 A2987 RMK AO2,M
MEV,2023-09-01 02:15,-119.7500,38.9963,1441.42,73.40,32.00,21.76,200.00,10.00,0.00,29.84,M,10.00,M,CLR,M,M,M,M,M,M,M,M,M,M,M,M,M,M,73.40,KMEV 010215Z AUTO 20010KT 10SM CLR 23/00 A2984 RMK AO2,M
HTH,2023-09-01 02:15,-118.6315,38.5448,1282.89,84.20,8.60,5.63,200.00,10.00,0.00,29.77,M,10.00,17.00,CLR,M,M,M,M,M,M,M,M,M,M,M,M,M,M,80.26,KHTH 010215Z AUTO 20010G17KT 10SM CLR 29/M13 A2977 RMK A01,M
BAM,2023-09-01 02:15,-116.8743,40.5990,1382.36,80.60,17.60,9.40,260.00,6.00,0.00,29.76,M,10.00,M,CLR,M,M,M,M,M,M,M,M,M,M,M,M,M,M,78.45,KBAM 010215Z AUTO 26006KT 10SM CLR 27/M08 A2976 RMK AO1,M
TMT,2023-09-01 02:15,-117.1971,39.4643,1749.34,69.40,25.00,18.71,240.00,3.00,0.00,29.87,M,M,M,CLR,M,M,M,M,M,M,M,M,M,M,M,M,M,M,69.40,KTMT 010215Z AUTO 24003KT CLR 21/M04 A2987 RMK AO2 T02081038 PWINO,M
10U,2023-09-01 02:20,-116.1876,41.9532,1637.00,78.80,15.80,9.23,250.00,7.00,0.00,29.80,M,10.00,M,CLR,M,M,M,M,M,M,M,M,M,M,M,M,M,M,78.80,K10U 010220Z AUTO 25007KT 10SM CLR 26/M09 A2980 RMK AO2,M
BVU,2023-09-01 02:35,-114.8611,35.9475,671.00,95.00,50.00,21.79,210.00,16.00,0.00,29.72,M,10.00,25.00,CLR,M,M,M,M,M,M,M,VCTS,M,M,M,M,M,M,91.89,KBVU 010235Z AUTO 21016G25KT 10SM VCTS CLR 35/10 A2972 RMK AO2 LTG DSNT SW,M
CXP,2023-09-01 02:35,-119.7326,39.1923,1431.00,75.20,32.00,20.49,240.00,7.00,0.00,29.85,M,10.00,13.00,CLR,M,M,M,M,M,M,M,M,M,M,M,M,M,M,75.20,KCXP 010235Z AUTO 24007G13KT 10SM CLR 24/M00 A2985 RMK AO2,M
RTS,2023-09-01 02:35,-119.8764,39.6682,1539.00,71.60,37.40,28.68,250.00,12.00,0.00,29.87,M,10.00,M,CLR,M,M,M,M,M,M,M,M,M,M,M,M,M,M,71.60,KRTS 010235Z AUTO 25012KT 10SM CLR 22/03 A2987 RMK AO2,M
05U,2023-09-01 02:35,-116.0051,39.6042,1811.23,75.20,17.60,11.24,M,M,0.00,29.88,M,10.00,M,CLR,M,M,M,M,M,M,M,M,M,M,M,M,M,M,75.20,K05U 010235Z AUTO 10SM CLR 24/M08 A2988 RMK A01,M
MEV,2023-09-01 02:35,-119.7500,38.9963,1441.42,71.60,32.00,23.13,240.00,8.00,0.00,29.84,M,10.00,M,CLR,M,M,M,M,M,M,M,M,M,M,M,M,M,M,71.60,KMEV 010235Z AUTO 24008KT 10SM CLR 22/M00 A2984 RMK AO2,M
HTH,2023-09-01 02:35,-118.6315,38.5448,1282.89,82.40,12.20,7.01,220.00,13.00,0.00,29.77,M,10.00,M,CLR,M,M,M,M,M,M,M,M,M,M,M,M,M,M,79.13,KHTH 010235Z AUTO 22013KT 10SM CLR 28/M11 A2977 RMK A01,M
10U,2023-09-01 02:35,-116.1876,41.9532,1637.00,77.00,15.80,9.79,260.00,6.00,0.00,29.80,M,10.00,M,CLR,M,M,M,M,M,M,M,M,M,M,M,M,M,M,77.00,K10U 010235Z AUTO 26006KT 10SM CLR 25/M09 A2980 RMK AO2,M
BAM,2023-09-01 02:35,-116.8743,40.5990,1382.36,77.00,17.60,10.59,240.00,6.00,0.00,29.77,M,10.00,M,CLR,M,M,M,M,M,M,M,M,M,M,M,M,M,M,77.00,KBAM 010235Z AUTO 24006KT 10SM CLR 25/M08 A2977 RMK AO1,M
TMT,2023-09-01 02:35,-117.1971,39.4643,1749.34,66.20,24.00,20.04,220.00,5.00,0.00,29.87,M,M,M,CLR,M,M,M,M,M,M,M,M,M,M,M,M,M,M,66.20,KTMT 010235Z AUTO 22005KT CLR 19/M04 A2987 RMK AO2 T01901045 PWINO,M
HND,2023-09-01 02:39,-115.1344,35.9729,742.79,89.60,55.40,31.45,210.00,12.00,T,29.75,M,10.00,M,FEW,SCT,BKN,M,4200.00,7500.00,10000.00,M,-RA,M,M,M,31.00,200.00,2023-09-01 02:17,87.78,KHND 010239Z 21012KT 10SM -RA FEW042 SCT075 BKN100 32/13 A2975 RMK AO2 PK WND 20031/0217 WSHFT 0147 LTG DSNT S TSE33RAB12 P0000,M
05U,2023-09-01 02:50,-116.0051,39.6042,1811.23,73.40,19.40,12.90,M,M,0.00,29.88,M,10.00,M,CLR,M,M,M,M,M,M,M,M,M,M,M,M,M,M,73.40,K05U 010250Z AUTO 10SM CLR 23/M07 A2988 RMK A01,M
P68,2023-09-01 02:53,-116.0056,39.6014,1993.00,74.00,19.00,12.43,170.00,10.00,0.00,29.86,1003.40,M,M,M,M,M,M,M,M,M,M,M,M,M,M,M,M,M,74.00,KP68 010253Z AUTO 17010KT 23/M07 A2986 RMK AO1 SLP034 T02331072 53001,M
DRA,2023-09-01 02:53,-116.0278,36.6206,1009.00,91.00,36.00,14.42,220.00,13.00,0.00,29.77,1002.20,10.00,25.00,CLR,M,M,M,M,M,M,M,M,M,M,M,32.00,240.00,2023-09-01 02:02,86.83,KDRA 010253Z AUTO 22013G25KT 10SM CLR 33/02 A2977 RMK AO2 PK WND 24032/0202 SLP022 T03280022 55000,M
ELY,2023-09-01 02:53,-114.8453,39.2950,1909.00,77.00,24.00,13.89,190.00,13.00,0.00,29.94,1004.00,10.00,26.00,CLR,M,M,M,M,M,M,M,M,M,M,M,29.00,190.00,2023-09-01 02:38,77.00,KELY 010253Z AUTO 19013G26KT 10SM CLR 25/M04 A2994 RMK AO2 PK WND 19029/0238 SLP040 T02501044 53002,M
VGT,2023-09-01 02:53,-115.1933,36.2111,667.00,98.00,46.00,17.11,220.00,14.00,0.00,29.70,1004.20,10.00,M,CLR,M,M,M,M,M,M,M,M,M,M,M,36.00,230.00,2023-09-01 02:00,94.18,KVGT 010253Z 22014KT 10SM CLR 37/08 A2970 RMK AO2 PK WND 23036/0200 LTG DSNT S SLP042 T03670078 53008,M
LOL,2023-09-01 02:53,-118.5701,40.0684,1192.43,81.00,29.00,14.98,290.00,11.00,0.00,29.73,1003.20,10.00,M,CLR,M,M,M,M,M,M,M,M,M,M,M,M,M,M,79.00,KLOL 010253Z AUTO 29011KT 10SM CLR 27/M02 A2973 RMK AO2 SLP032 T02721017 53003,M
BVU,2023-09-01 02:55,-114.8611,35.9475,671.00,93.20,50.00,23.04,200.00,13.00,0.00,29.73,M,10.00,M,CLR,M,M,M,M,M,M,M,M,M,M,M,M,M,M,90.10,KBVU 010255Z AUTO 20013KT 10SM CLR 34/10 A2973 RMK AO2 LTG DSNT E,M
CXP,2023-09-01 02:55,-119.7326,39.1923,1431.00,75.20,33.80,22.02,260.00,8.00,0.00,29.86,M,10.00,17.00,CLR,M,M,M,M,M,M,M,M,M,M,M,M,M,M,75.20,KCXP 010255Z AUTO 26008G17KT 230V290 10SM CLR 24/01 A2986 RMK AO2,M
RNO,2023-09-01 02:55,-119.7711,39.4839,1341.00,78.00,31.00,17.93,240.00,11.00,0.00,29.82,1004.60,10.00,18.00,BKN,BKN,M,M,12000.00,17000.00,M,M,M,M,M,M,M,M,M,78.00,KRNO 010255Z 24011G18KT 10SM BKN120 BKN170 26/M01 A2982 RMK AO2 SLP046 T02561006 53002,M
RTS,2023-09-01 02:55,-119.8764,39.6682,1539.00,71.60,35.60,26.71,250.00,11.00,0.00,29.87,M,10.00,M,CLR,M,M,M,M,M,M,M,M,M,M,M,M,M,M,71.60,KRTS 010255Z AUTO 25011KT 10SM CLR 22/02 A2987 RMK AO2,M
MEV,2023-09-01 02:55,-119.7500,38.9963,1441.42,69.80,35.60,28.39,0.00,0.00,0.00,29.84,M,10.00,M,CLR,M,M,M,M,M,M,M,M,M,M,M,M,M,M,69.80,KMEV 010255Z AUTO 00000KT 10SM CLR 21/02 A2984 RMK AO2,M
HTH,2023-09-01 02:55,-118.6315,38.5448,1282.89,82.40,14.00,7.58,210.00,14.00,0.00,29.77,M,10.00,19.00,CLR,M,M,M,M,M,M,M,M,M,M,M,M,M,M,79.20,KHTH 010255Z AUTO 21014G19KT 10SM CLR 28/M10 A2977 RMK A01,M
BAM,2023-09-01 02:55,-116.8743,40.5990,1382.36,73.40,17.60,11.94,220.00,5.00,0.00,29.77,M,10.00,M,CLR,M,M,M,M,M,M,M,M,M,M,M,M,M,M,73.40,KBAM 010255Z AUTO 22005KT 10SM CLR 23/M08 A2977 RMK AO1,M
TMT,2023-09-01 02:55,-117.1971,39.4643,1749.34,62.60,24.00,22.73,250.00,6.00,0.00,29.88,M,M,M,CLR,M,M,M,M,M,M,M,M,M,M,M,M,M,M,62.60,KTMT 010255Z AUTO 25006KT CLR 17/M04 A2988 RMK AO2 T01701045 PWINO,M
10U,2023-09-01 02:55,-116.1876,41.9532,1637.00,71.60,14.00,10.85,250.00,8.00,0.00,29.81,M,10.00,M,CLR,M,M,M,M,M,M,M,M,M,M,M,M,M,M,71.60,K10U 010255Z AUTO 25008KT 10SM CLR 22/M10 A2981 RMK AO2,M
INS,2023-09-01 02:55,-115.6733,36.5872,955.00,92.50,32.50,11.97,180.00,10.00,0.00,29.76,1002.40,10.00,M,CLR,M,M,M,M,M,M,M,M,M,M,M,M,M,M,87.83,KINS 010255Z AUTO 18010KT 10SM CLR 34/00 A2976 RMK AO2 SLP024 T03360003 55000 $,M
LSV,2023-09-01 02:55,-115.0343,36.2362,570.00,96.60,47.50,18.90,190.00,11.00,T,29.65,1001.20,10.00,21.00,FEW,M,M,M,13000.00,M,M,M,M,M,M,M,32.00,210.00,2023-09-01 01:59,93.03,KLSV 010255Z AUTO 19011G21KT 10SM FEW130 36/09 A2965 RMK AO2 PK WND 21032/0159 RAE00 SLP012 P0000 60000 T03590086 53008 $,M
EKO,2023-09-01 02:56,-115.7860,40.8242,1367.00,74.00,25.00,16.01,0.00,0.00,0.00,29.79,1004.20,10.00,M,CLR,M,M,M,M,M,M,M,M,M,M,M,M,M,M,74.00,KEKO 010256Z AUTO 00000KT 10SM CLR 23/M04 A2979 RMK AO2 SLP042 T02331039 53006,M
WMC,2023-09-01 02:56,-117.8072,40.9019,1315.00,73.00,19.00,12.85,240.00,8.00,0.00,29.75,1003.40,10.00,M,CLR,M,M,M,M,M,M,M,M,M,M,M,M,M,M,73.00,KWMC 010256Z AUTO 24008KT 10SM CLR 23/M07 A2975 RMK AO2 SLP034 T02281072 55000,M
NFL,2023-09-01 02:56,-118.7010,39.4166,1199.00,81.00,35.00,19.08,290.00,12.00,0.00,29.75,1005.30,10.00,18.00,FEW,SCT,BKN,M,8000.00,12000.00,25000.00,M,M,M,M,M,M,M,M,79.16,KNFL 010256Z 29012G18KT 10SM FEW080 SCT120 BKN250 27/02 A2975 RMK AO2 SLP053 T02720017 53003,M
HND,2023-09-01 02:56,-115.1344,35.9729,742.79,88.00,57.00,35.05,200.00,16.00,T,29.76,1005.90,10.00,M,FEW,SCT,BKN,M,4800.00,6500.00,10000.00,M,M,M,M,M,31.00,200.00,2023-09-01 02:17,86.71,KHND 010256Z 20016KT 10SM FEW048 SCT065 BKN100 31/14 A2976 RMK AO2 PK WND 20031/0217 WSHFT 0147 LTG DSNT S TSE33RAB12E51 SLP059 P0000 60000 T03110139 50009,M
TPH,2023-09-01 02:56,-117.0904,38.0505,1654.00,80.00,27.00,14.26,190.00,17.00,0.00,29.86,1003.50,10.00,25.00,CLR,M,M,M,M,M,M,M,M,M,M,M,26.00,180.00,2023-09-01 01:57,78.37,KTPH 010256Z AUTO 19017G25KT 10SM CLR 27/M03 A2986 RMK AO2 PK WND 18026/0157 SLP035 T02671028 55005,M
LAS,2023-09-01 02:56,-115.1634,36.0719,663.00,92.00,53.00,26.72,220.00,10.00,T,29.71,1003.10,10.00,16.00,BKN,BKN,BKN,M,11000.00,17000.00,20000.00,M,M,M,M,M,28.00,250.00,2023-09-01 01:57,89.53,KLAS 010256Z 22010G16KT 10SM BKN110 BKN170 BKN200 33/12 A2971 RMK AO2 PK WND 25028/0157 LTG DSNT S RAB22E35 TSE56 SLP031 TS DSIPTD LTG DSNT S P0000 60001 T03330117 53006,M
05U,2023-09-01 03:10,-116.0051,39.6042,1811.23,69.80,19.40,14.57,M,M,0.00,29.89,M,10.00,M,CLR,M,M,M,M,M,M,M,M,M,M,M,M,M,M,69.80,K05U 010310Z AUTO 10SM CLR 21/M07 A2989 RMK A01,M
BVU,2023-09-01 03:15,-114.8611,35.9475,671.00,91.40,51.80,26.05,210.00,11.00,0.00,29.73,M,10.00,16.00,CLR,M,M,M,M,M,M,M,M,M,M,M,M,M,M,88.69,KBVU 010315Z AUTO 21011G16KT 10SM CLR 33/11 A2973 RMK AO2 LTG DSNT SE,M
CXP,2023-09-01 03:15,-119.7326,39.1923,1431.00,73.40,35.60,25.13,250.00,8.00,0.00,29.85,M,10.00,16.00,CLR,M,M,M,M,M,M,M,M,M,M,M,M,M,M,73.40,KCXP 010315Z AUTO 25008G16KT 10SM CLR 23/02 A2985 RMK AO2,M
RTS,2023-09-01 03:15,-119.8764,39.6682,1539.00,69.80,37.40,30.49,250.00,10.00,0.00,29.88,M,10.00,M,CLR,M,M,M,M,M,M,M,M,M,M,M,M,M,M,69.80,KRTS 010315Z AUTO 25010KT 10SM CLR 21/03 A2988 RMK AO2,M
MEV,2023-09-01 03:15,-119.7500,38.9963,1441.42,68.00,33.80,28.11,0.00,0.00,0.00,29.85,M,10.00,M,CLR,M,M,M,M,M,M,M,M,M,M,M,M,M,M,68.00,KMEV 010315Z AUTO 00000KT 10SM CLR 20/01 A2985 RMK AO2,M
HTH,2023-09-01 03:15,-118.6315,38.5448,1282.89,82.40,15.80,8.20,220.00,17.00,0.00,29.77,M,10.00,24.00,CLR,M,M,M,M,M,M,M,M,M,M,M,M,M,M,79.28,KHTH 010315Z AUTO 22017G24KT 10SM CLR 28/M09 A2977 RMK A01,M
10U,2023-09-01 03:15,-116.1876,41.9532,1637.00,73.40,8.60,8.03,240.00,7.00,0.00,29.82,M,10.00,M,CLR,M,M,M,M,M,M,M,M,M,M,M,M,M,M,73.40,K10U 010315Z AUTO 24007KT 10SM CLR 23/M13 A2982 RMK AO2,M
BAM,2023-09-01 03:15,-116.8743,40.5990,1382.36,69.80,17.60,13.49,210.00,7.00,0.00,29.78,M,10.00,M,CLR,M,M,M,M,M,M,M,M,M,M,M,M,M,M,69.80,KBAM 010315Z AUTO 21007KT 10SM CLR 21/M08 A2978 RMK AO1,M
TMT,2023-09-01 03:15,-117.1971,39.4643,1749.34,59.50,31.00,33.84,270.00,6.00,0.00,29.89,M,M,M,CLR,M,M,M,M,M,M,M,M,M,M,M,M,M,M,59.50,KTMT 010315Z AUTO 27006KT CLR 15/00 A2989 RMK AO2 T01531005 PWINO,M
LSV,2023-09-01 03:26,-115.0343,36.2362,570.00,96.80,46.40,18.02,150.00,23.00,0.00,29.66,1001.50,10.00,39.00,CLR,M,M,M,M,M,M,M,M,M,M,M,M,M,M,93.05,KLSV 010326Z AUTO 15023G39KT 10SM CLR 36/08 A2966 RMK AO2 WSHFT 11 SLP015 $,M
LSV,2023-09-01 03:31,-115.0343,36.2362,570.00,96.80,42.80,15.71,160.00,16.00,0.00,29.65,1001.00,10.00,39.00,CLR,M,M,M,M,M,M,M,M,M,M,M,M,M,M,92.57,KLSV 010331Z AUTO 16016G39KT 10SM CLR 36/06 A2965 RMK AO2 WSHFT 27 SLP010 $,M
LSV,2023-09-01 03:33,-115.0343,36.2362,570.00,96.80,44.60,16.83,210.00,16.00,0.00,29.66,1001.40,10.00,39.00,CLR,M,M,M,M,M,M,M,M,M,M,M,M,M,M,92.79,KLSV 010333Z AUTO 21016G39KT 10SM CLR 36/07 A2966 RMK AO2 WSHFT 31 SLP014 $,M
BVU,2023-09-01 03:35,-114.8611,35.9475,671.00,91.40,51.80,26.05,230.00,11.00,0.00,29.74,M,10.00,M,CLR,M,M,M,M,M,M,M,M,M,M,M,M,M,M,88.69,KBVU 010335Z AUTO 23011KT 10SM CLR 33/11 A2974 RMK AO2,M
CXP,2023-09-01 03:35,-119.7326,39.1923,1431.00,73.40,35.60,25.13,240.00,10.00,0.00,29.86,M,10.00,16.00,CLR,M,M,M,M,M,M,M,M,M,M,M,M,M,M,73.40,KCXP 010335Z AUTO 24010G16KT 200V290 10SM CLR 23/02 A2986 RMK AO2,M
RTS,2023-09-01 03:35,-119.8764,39.6682,1539.00,69.80,37.40,30.49,250.00,7.00,0.00,29.88,M,10.00,M,CLR,M,M,M,M,M,M,M,M,M,M,M,M,M,M,69.80,KRTS 010335Z AUTO 25007KT 10SM CLR 21/03 A2988 RMK AO2,M
05U,2023-09-01 03:35,-116.0051,39.6042,1811.23,71.60,17.60,12.69,M,M,0.00,29.91,M,10.00,M,CLR,M,M,M,M,M,M,M,M,M,M,M,M,M,M,71.60,K05U 010335Z AUTO 10SM CLR 22/M08 A2991 RMK A01,M
MEV,2023-09-01 03:35,-119.7500,38.9963,1441.42,66.20,33.80,29.92,0.00,0.00,0.00,29.85,M,10.00,M,FEW,FEW,M,M,4200.00,5500.00,M,M,M,M,M,M,M,M,M,66.20,KMEV 010335Z AUTO 00000KT 10SM FEW042 FEW055 19/01 A2985 RMK AO2,M
HTH,2023-09-01 03:35,-118.6315,38.5448,1282.89,80.60,15.80,8.70,220.00,18.00,0.00,29.77,M,10.00,25.00,CLR,M,M,M,M,M,M,M,M,M,M,M,M,M,M,78.35,KHTH 010335Z AUTO 22018G25KT 10SM CLR 27/M09 A2977 RMK A01,M
BAM,2023-09-01 03:35,-116.8743,40.5990,1382.36,71.60,19.40,13.71,220.00,7.00,0.00,29.78,M,10.00,M,CLR,M,M,M,M,M,M,M,M,M,M,M,M,M,M,71.60,KBAM 010335Z AUTO 22007KT 10SM CLR 22/M07 A2978 RMK AO1,M
TMT,2023-09-01 03:35,-117.1971,39.4643,1749.34,55.80,25.30,30.59,0.00,0.00,0.00,29.90,M,M,M,CLR,M,M,M,M,M,M,M,M,M,M,M,M,M,M,55.80,KTMT 010335Z AUTO 00000KT CLR 13/M04 A2990 RMK AO2 T01321037 PWINO,M
10U,2023-09-01 03:40,-116.1876,41.9532,1637.00,68.00,8.60,9.65,240.00,8.00,0.00,29.83,M,10.00,M,CLR,M,M,M,M,M,M,M,M,M,M,M,M,M,M,68.00,K10U 010340Z AUTO 24008KT 10SM CLR 20/M13 A2983 RMK AO2,M
05U,2023-09-01 03:50,-116.0051,39.6042,1811.23,69.80,17.60,13.49,M,M,0.00,29.91,M,10.00,M,CLR,M,M,M,M,M,M,M,M,M,M,M,M,M,M,69.80,K05U 010350Z AUTO 10SM CLR 21/M08 A2991 RMK A01,M
P68,2023-09-01 03:53,-116.0056,39.6014,1993.00,69.00,18.00,14.11,270.00,4.00,0.00,29.89,1004.00,M,M,M,M,M,M,M,M,M,M,M,M,M,M,M,M,M,69.00,KP68 010353Z AUTO 27004KT 21/M08 A2989 RMK AO1 SLP040 T02061078,M
DRA,2023-09-01 03:53,-116.0278,36.6206,1009.00,90.00,38.00,16.10,200.00,10.00,0.00,29.80,1002.90,10.00,20.00,CLR,M,M,M,M,M,M,M,M,M,M,M,M,M,M,86.03,KDRA 010353Z AUTO 20010G20KT 10SM CLR 32/03 A2980 RMK AO2 SLP029 T03220033,M
ELY,2023-09-01 03:53,-114.8453,39.2950,1909.00,70.00,30.00,22.52,170.00,10.00,0.00,29.95,1003.30,10.00,M,CLR,M,M,M,M,M,M,M,M,M,M,M,26.00,170.00,2023-09-01 03:05,70.00,KELY 010353Z AUTO 17010KT 10SM CLR 21/M01 A2995 RMK AO2 PK WND 17026/0305 SLP033 T02111011,M
VGT,2023-09-01 03:53,-115.1933,36.2111,667.00,94.00,54.00,26.05,220.00,17.00,0.00,29.73,1005.00,10.00,25.00,CLR,M,M,M,M,M,M,M,M,M,M,M,29.00,210.00,2023-09-01 03:43,91.78,KVGT 010353Z 22017G25KT 10SM CLR 34/12 A2973 RMK AO2 PK WND 21029/0343 SLP050 T03440122,M
LOL,2023-09-01 03:53,-118.5701,40.0684,1192.43,77.00,32.00,19.30,290.00,5.00,0.00,29.76,1003.90,10.00,M,CLR,M,M,M,M,M,M,M,M,M,M,M,M,M,M,77.00,KLOL 010353Z AUTO 29005KT 10SM CLR 25/00 A2976 RMK AO2 SLP039 T02500000,M
BVU,2023-09-01 03:55,-114.8611,35.9475,671.00,89.60,53.60,29.45,210.00,10.00,0.00,29.75,M,10.00,17.00,FEW,FEW,SCT,M,4800.00,6500.00,9000.00,M,M,M,M,M,M,M,M,87.36,KBVU 010355Z AUTO 21010G17KT 10SM FEW048 FEW065 SCT090 32/12 A2975 RMK AO2 LTG DSNT SE,M
CXP,2023-09-01 03:55,-119.7326,39.1923,1431.00,73.40,33.80,23.39,230.00,7.00,0.00,29.86,M,10.00,14.00,CLR,M,M,M,M,M,M,M,M,M,M,M,M,M,M,73.40,KCXP 010355Z AUTO 23007G14KT 10SM CLR 23/01 A2986 RMK AO2,M
RNO,2023-09-01 03:55,-119.7711,39.4839,1341.00,76.00,34.00,21.62,230.00,4.00,0.00,29.83,1005.00,10.00,M,SCT,BKN,M,M,12000.00,16000.00,M,M,M,M,M,M,M,M,M,76.00,KRNO 010355Z 23004KT 10SM SCT120 BKN160 24/01 A2983 RMK AO2 SLP050 T02440011,M
RTS,2023-09-01 03:55,-119.8764,39.6682,1539.00,68.00,37.40,32.43,250.00,8.00,0.00,29.89,M,10.00,M,FEW,M,M,M,12000.00,M,M,M,M,M,M,M,M,M,M,68.00,KRTS 010355Z AUTO 25008KT 10SM FEW120 20/03 A2989 RMK AO2,M
MEV,2023-09-01 03:55,-119.7500,38.9963,1441.42,66.20,33.80,29.92,0.00,0.00,0.00,29.86,M,10.00,M,CLR,M,M,M,M,M,M,M,M,M,M,M,M,M,M,66.20,KMEV 010355Z AUTO 00000KT 10SM CLR 19/01 A2986 RMK AO2,M
BAM,2023-09-01 03:55,-116.8743,40.5990,1382.36,68.00,19.40,15.50,240.00,8.00,0.00,29.78,M,10.00,M,CLR,M,M,M,M,M,M,M,M,M,M,M,M,M,M,68.00,KBAM 010355Z AUTO 24008KT 10SM CLR 20/M07 A2978 RMK AO1,M
HTH,2023-09-01 03:55,-118.6315,38.5448,1282.89,80.60,15.80,8.70,210.00,12.00,0.00,29.78,M,10.00,22.00,CLR,M,M,M,M,M,M,M,M,M,M,M,M,M,M,78.35,KHTH 010355Z AUTO 21012G22KT 10SM CLR 27/M09 A2978 RMK A01,M
TMT,2023-09-01 03:55,-117.1971,39.4643,1749.34,52.00,24.00,33.30,170.00,6.00,0.00,29.91,M,M,M,CLR,M,M,M,M,M,M,M,M,M,M,M,M,M,M,52.00,KTMT 010355Z AUTO 17006KT CLR 11/M04 A2991 RMK AO2 T01121045 PWINO,M
INS,2023-09-01 03:55,-115.6733,36.5872,955.00,92.00,32.00,11.91,170.00,8.00,0.00,29.79,1003.40,10.00,M,CLR,M,M,M,M,M,M,M,M,M,M,M,M,M,M,87.38,KINS 010355Z AUTO 17008KT 10SM CLR 33/00 A2979 RMK AO2 SLP034 T03330000 $,M
LSV,2023-09-01 03:55,-115.0343,36.2362,570.00,95.00,52.70,24.08,180.00,12.00,0.00,29.68,1002.10,10.00,M,CLR,M,M,M,M,M,M,M,M,M,M,M,39.00,150.00,2023-09-01 03:24,92.48,KLSV 010355Z AUTO 18012KT 10SM CLR 35/12 A2968 RMK AO2 PK WND 15039/24 SLP021 T03510115 $,M
EKO,2023-09-01 03:56,-115.7860,40.8242,1367.00,72.00,23.00,15.75,0.00,0.00,0.00,29.81,1004.50,10.00,M,CLR,M,M,M,M,M,M,M,M,M,M,M,M,M,M,72.00,KEKO 010356Z AUTO 00000KT 10SM CLR 22/M05 A2981 RMK AO2 SLP045 T02221050,M
WMC,2023-09-01 03:56,-117.8072,40.9019,1315.00,74.00,20.00,12.97,260.00,8.00,0.00,29.77,1003.40,10.00,M,CLR,M,M,M,M,M,M,M,M,M,M,M,M,M,M,74.00,KWMC 010356Z AUTO 26008KT 10SM CLR 23/M07 A2977 RMK AO2 SLP034 T02331067,M
NFL,2023-09-01 03:56,-118.7010,39.4166,1199.00,80.00,34.00,18.94,280.00,14.00,0.00,29.77,1006.10,10.00,22.00,FEW,SCT,BKN,M,8000.00,12000.00,25000.00,M,M,M,M,M,M,M,M,78.59,KNFL 010356Z 28014G22KT 10SM FEW080 SCT120 BKN250 27/01 A2977 RMK AO2 SLP061 T02670011,M
HND,2023-09-01 03:56,-115.1344,35.9729,742.79,89.00,56.00,32.75,210.00,13.00,0.00,29.79,1006.80,10.00,M,CLR,M,M,M,M,M,M,M,M,M,M,M,M,M,M,87.37,KHND 010356Z AUTO 21013KT 10SM CLR 32/13 A2979 RMK AO2 LTG DSNT SE SLP068 T03170133,M
TPH,2023-09-01 03:56,-117.0904,38.0505,1654.00,77.00,29.00,17.08,190.00,11.00,0.00,29.88,1003.90,10.00,M,CLR,M,M,M,M,M,M,M,M,M,M,M,M,M,M,77.00,KTPH 010356Z AUTO 19011KT 10SM CLR 25/M02 A2988 RMK AO2 SLP039 T02501017,M
LAS,2023-09-01 03:56,-115.1634,36.0719,663.00,90.00,55.00,30.61,210.00,11.00,0.00,29.74,1004.00,10.00,23.00,BKN,BKN,M,M,11000.00,20000.00,M,M,M,M,M,M,26.00,220.00,2023-09-01 03:37,88.06,KLAS 010356Z 21011G23KT 10SM BKN110 BKN200 32/13 A2974 RMK AO2 PK WND 22026/0337 LTG DSNT SE SLP040 T03220128,M
10U,2023-09-01 04:00,-116.1876,41.9532,1637.00,64.40,8.60,10.94,250.00,8.00,0.00,29.83,M,10.00,M,CLR,M,M,M,M,M,M,M,M,M,M,M,M,M,M,64.40,K10U 010400Z AUTO 25008KT 10SM CLR 18/M13 A2983 RMK AO2,M
05U,2023-09-01 04:10,-116.0051,39.6042,1811.23,66.20,19.40,16.50,M,M,0.00,29.92,M,10.00,M,CLR,M,M,M,M,M,M,M,M,M,M,M,M,M,M,66.20,K05U 010410Z AUTO 10SM CLR 19/M07 A2992 RMK A01,M
BVU,2023-09-01 04:15,-114.8611,35.9475,671.00,93.20,48.20,21.54,M,5.00,0.00,29.74,M,10.00,14.00,FEW,FEW,FEW,M,4800.00,7500.00,9000.00,M,M,M,M,M,M,M,M,89.80,KBVU 010415Z AUTO VRB05G14KT 10SM FEW048 FEW075 FEW090 34/09 A2974 RMK AO2 LTG DSNT E,M
CXP,2023-09-01 04:15,-119.7326,39.1923,1431.00,73.40,33.80,23.39,250.00,8.00,0.00,29.86,M,10.00,17.00,CLR,M,M,M,M,M,M,M,M,M,M,M,M,M,M,73.40,KCXP 010415Z AUTO 25008G17KT 10SM CLR 23/01 A2986 RMK AO2,M
RTS,2023-09-01 04:15,-119.8764,39.6682,1539.00,68.00,37.40,32.43,270.00,6.00,0.00,29.89,M,10.00,M,BKN,M,M,M,12000.00,M,M,M,M,M,M,M,M,M,M,68.00,KRTS 010415Z AUTO 27006KT 10SM BKN120 20/03 A2989 RMK AO2,M
MEV,2023-09-01 04:15,-119.7500,38.9963,1441.42,66.20,35.60,32.14,0.00,0.00,0.00,29.85,M,10.00,M,CLR,M,M,M,M,M,M,M,M,M,M,M,M,M,M,66.20,KMEV 010415Z AUTO 00000KT 10SM CLR 19/02 A2985 RMK AO2,M
HTH,2023-09-01 04:15,-118.6315,38.5448,1282.89,80.60,12.20,7.43,220.00,18.00,0.00,29.79,M,10.00,24.00,CLR,M,M,M,M,M,M,M,M,M,M,M,M,M,M,78.16,KHTH 010415Z AUTO 22018G24KT 10SM CLR 27/M11 A2979 RMK A01,M
10U,2023-09-01 04:15,-116.1876,41.9532,1637.00,64.40,10.40,11.86,260.00,8.00,0.00,29.83,M,10.00,M,CLR,M,M,M,M,M,M,M,M,M,M,M,M,M,M,64.40,K10U 010415Z AUTO 26008KT 10SM CLR 18/M12 A2983 RMK AO2,M
BAM,2023-09-01 04:15,-116.8743,40.5990,1382.36,66.20,17.60,15.27,250.00,9.00,0.00,29.78,M,10.00,M,CLR,M,M,M,M,M,M,M,M,M,M,M,M,M,M,66.20,KBAM 010415Z AUTO 25009KT 10SM CLR 19/M08 A2978 RMK AO1,M
TMT,2023-09-01 04:15,-117.1971,39.4643,1749.34,52.50,23.00,31.35,190.00,5.00,0.00,29.91,M,M,M,CLR,M,M,M,M,M,M,M,M,M,M,M,M,M,M,52.50,KTMT 010415Z AUTO 19005KT CLR 11/M05 A2991 RMK AO2 T01141050 PWINO,M
05U,2023-09-01 04:30,-116.0051,39.6042,1811.23,62.60,19.40,18.71,M,M,0.00,29.93,M,10.00,M,CLR,M,M,M,M,M,M,M,M,M,M,M,M,M,M,62.60,K05U 010430Z AUTO 10SM CLR 17/M07 A2993 RMK A01,M
BVU,2023-09-01 04:35,-114.8611,35.9475,671.00,91.40,48.20,22.78,170.00,9.00,0.00,29.74,M,10.00,M,CLR,M,M,M,M,M,M,M,M,M,M,M,M,M,M,88.09,KBVU 010435Z AUTO 17009KT 10SM CLR 33/09 A2974 RMK AO2 LTG DSNT NE AND E,M
CXP,2023-09-01 04:35,-119.7326,39.1923,1431.00,71.60,33.80,24.86,200.00,7.00,0.00,29.87,M,10.00,13.00,CLR,M,M,M,M,M,M,M,M,M,M,M,M,M,M,71.60,KCXP 010435Z AUTO 20007G13KT 10SM CLR 22/01 A2987 RMK AO2,M
RTS,2023-09-01 04:35,-119.8764,39.6682,1539.00,66.20,39.20,37.03,280.00,6.00,0.00,29.90,M,10.00,M,OVC,M,M,M,11000.00,M,M,M,M,M,M,M,M,M,M,66.20,KRTS 010435Z AUTO 28006KT 10SM OVC110 19/04 A2990 RMK AO2,M
MEV,2023-09-01 04:35,-119.7500,38.9963,1441.42,66.20,37.40,34.51,180.00,9.00,0.00,29.85,M,10.00,M,FEW,M,M,M,5500.00,M,M,M,M,M,M,M,M,M,M,66.20,KMEV 010435Z AUTO 18009KT 10SM FEW055 19/03 A2985 RMK AO2,M
HTH,2023-09-01 04:35,-118.6315,38.5448,1282.89,78.80,14.00,8.53,220.00,18.00,0.00,29.80,M,10.00,M,M,M,M,M,M,M,M,M,M,M,M,M,M,M,M,78.80,KHTH 010435Z AUTO 22018KT 10SM 26/M10 A2980 RMK A01,M
10U,2023-09-01 04:35,-116.1876,41.9532,1637.00,64.40,14.00,13.90,260.00,6.00,0.00,29.83,M,10.00,M,CLR,M,M,M,M,M,M,M,M,M,M,M,M,M,M,64.40,K10U 010435Z AUTO 26006KT 10SM CLR 18/M10 A2983 RMK AO2,M
BAM,2023-09-01 04:35,-116.8743,40.5990,1382.36,68.00,17.60,14.35,280.00,6.00,0.00,29.79,M,10.00,M,CLR,M,M,M,M,M,M,M,M,M,M,M,M,M,M,68.00,KBAM 010435Z AUTO 28006KT 10SM CLR 20/M08 A2979 RMK AO1,M
TMT,2023-09-01 04:35,-117.1971,39.4643,1749.34,56.30,22.50,26.72,230.00,5.00,0.00,29.92,M,M,M,CLR,M,M,M,M,M,M,M,M,M,M,M,M,M,M,56.30,KTMT 010435Z AUTO 23005KT CLR 14/M05 A2992 RMK AO2 T01351053 PWINO,M
P68,2023-09-01 04:53,-116.0056,39.6014,1993.00,59.00,29.00,31.76,M,4.00,0.00,29.90,1004.90,M,M,M,M,M,M,M,M,M,M,M,M,M,M,M,M,M,59.00,KP68 010453Z AUTO VRB04KT 15/M02 A2990 RMK AO1 SLP049 T01501017,M
DRA,2023-09-01 04:53,-116.0278,36.6206,1009.00,89.00,38.00,16.61,200.00,12.00,0.00,29.80,1002.80,10.00,20.00,CLR,M,M,M,M,M,M,M,M,M,M,M,31.00,210.00,2023-09-01 04:27,85.18,KDRA 010453Z AUTO 20012G20KT 10SM CLR 32/03 A2980 RMK AO2 PK WND 21031/0427 SLP028 T03170033,M
ELY,2023-09-01 04:53,-114.8453,39.2950,1909.00,71.00,31.00,22.67,170.00,14.00,0.00,29.96,1002.50,10.00,21.00,CLR,M,M,M,M,M,M,M,M,M,M,M,M,M,M,71.00,KELY 010453Z AUTO 17014G21KT 10SM CLR 22/M01 A2996 RMK AO2 SLP025 T02171006,M
VGT,2023-09-01 04:53,-115.1933,36.2111,667.00,94.00,51.00,23.33,210.00,11.00,0.00,29.73,1005.20,10.00,M,FEW,FEW,SCT,M,8000.00,10000.00,12000.00,M,M,M,M,M,29.00,210.00,2023-09-01 04:15,91.08,KVGT 010453Z AUTO 21011KT 10SM FEW080 FEW100 SCT120 34/11 A2973 RMK AO2 PK WND 21029/0415 SLP052 T03440106,M
LOL,2023-09-01 04:53,-118.5701,40.0684,1192.43,74.00,32.00,21.33,310.00,5.00,0.00,29.78,1004.20,10.00,M,CLR,M,M,M,M,M,M,M,M,M,M,M,M,M,M,74.00,KLOL 010453Z AUTO 31005KT 10SM CLR 23/00 A2978 RMK AO2 SLP042 T02330000,M
BVU,2023-09-01 04:55,-114.8611,35.9475,671.00,91.40,48.20,22.78,270.00,3.00,0.00,29.75,M,10.00,M,CLR,M,M,M,M,M,M,M,M,M,M,M,M,M,M,88.09,KBVU 010455Z AUTO 27003KT 10SM CLR 33/09 A2975 RMK AO2,M
CXP,2023-09-01 04:55,-119.7326,39.1923,1431.00,71.60,33.80,24.86,M,4.00,0.00,29.86,M,10.00,M,CLR,M,M,M,M,M,M,M,M,M,M,M,M,M,M,71.60,KCXP 010455Z AUTO VRB04KT 10SM CLR 22/01 A2986 RMK AO2,M
RNO,2023-09-01 04:55,-119.7711,39.4839,1341.00,74.00,39.00,28.16,240.00,5.00,0.00,29.84,1005.00,10.00,M,SCT,BKN,M,M,12000.00,17000.00,M,M,M,M,M,M,M,M,M,74.00,KRNO 010455Z 24005KT 10SM SCT120 BKN170 23/04 A2984 RMK AO2 SLP050 T02330039,M
RTS,2023-09-01 04:55,-119.8764,39.6682,1539.00,66.20,39.20,37.03,300.00,4.00,0.00,29.89,M,10.00,M,BKN,M,M,M,12000.00,M,M,M,M,M,M,M,M,M,M,66.20,KRTS 010455Z AUTO 30004KT 10SM BKN120 19/04 A2989 RMK AO2,M
05U,2023-09-01 04:55,-116.0051,39.6042,1811.23,60.80,26.60,26.98,M,M,0.00,29.93,M,10.00,M,CLR,M,M,M,M,M,M,M,M,M,M,M,M,M,M,60.80,K05U 010455Z AUTO 10SM CLR 16/M03 A2993 RMK A01,M
MEV,2023-09-01 04:55,-119.7500,38.9963,1441.42,68.00,35.60,30.20,180.00,10.00,0.00,29.85,M,10.00,18.00,CLR,M,M,M,M,M,M,M,M,M,M,M,M,M,M,68.00,KMEV 010455Z AUTO 18010G18KT 10SM CLR 20/02 A2985 RMK AO2,M
HTH,2023-09-01 04:55,-118.6315,38.5448,1282.89,78.80,15.80,9.23,220.00,17.00,0.00,29.80,M,10.00,22.00,M,M,M,M,M,M,M,M,M,M,M,M,M,M,M,78.80,KHTH 010455Z AUTO 22017G22KT 10SM 26/M09 A2980 RMK A01,M
BAM,2023-09-01 04:55,-116.8743,40.5990,1382.36,64.40,17.60,16.26,30.00,6.00,0.00,29.80,M,10.00,M,CLR,M,M,M,M,M,M,M,M,M,M,M,M,M,M,64.40,KBAM 010455Z AUTO 03006KT 10SM CLR 18/M08 A2980 RMK AO1,M
TMT,2023-09-01 04:55,-117.1971,39.4643,1749.34,57.60,23.50,26.59,230.00,3.00,0.00,29.92,M,M,M,CLR,M,M,M,M,M,M,M,M,M,M,M,M,M,M,57.60,KTMT 010455Z AUTO 23003KT CLR 14/M05 A2992 RMK AO2 T01421047 PWINO,M
10U,2023-09-01 04:55,-116.1876,41.9532,1637.00,59.00,12.20,15.55,170.00,5.00,0.00,29.84,M,10.00,M,CLR,M,M,M,M,M,M,M,M,M,M,M,M,M,M,59.00,K10U 010455Z AUTO 17005KT 10SM CLR 15/M11 A2984 RMK AO2,M
INS,2023-09-01 04:55,-115.6733,36.5872,955.00,90.50,33.00,13.00,180.00,13.00,0.00,29.79,1003.10,10.00,M,CLR,M,M,M,M,M,M,M,M,M,M,M,M,M,M,86.34,KINS 010455Z AUTO 18013KT 10SM CLR 33/01 A2979 RMK AO2 SLP031 T03250005 $,M
LSV,2023-09-01 04:55,-115.0343,36.2362,570.00,93.40,52.00,24.66,180.00,13.00,0.00,29.69,1002.20,10.00,M,SCT,M,M,M,15000.00,M,M,M,M,M,M,M,M,M,M,90.69,KLSV 010455Z AUTO 18013KT 10SM SCT150 34/11 A2969 RMK AO2 SLP022 T03410112 $,M
EKO,2023-09-01 04:56,-115.7860,40.8242,1367.00,67.00,26.00,21.18,60.00,4.00,0.00,29.82,1004.60,10.00,M,CLR,M,M,M,M,M,M,M,M,M,M,M,M,M,M,67.00,KEKO 010456Z AUTO 06004KT 10SM CLR 19/M03 A2982 RMK AO2 SLP046 T01941033,M
WMC,2023-09-01 04:56,-117.8072,40.9019,1315.00,73.00,23.00,15.23,260.00,11.00,0.00,29.78,1003.30,10.00,M,CLR,M,M,M,M,M,M,M,M,M,M,M,M,M,M,73.00,KWMC 010456Z AUTO 26011KT 10SM CLR 23/M05 A2978 RMK AO2 SLP033 T02281050,M
NFL,2023-09-01 04:56,-118.7010,39.4166,1199.00,77.00,37.00,23.55,320.00,6.00,0.00,29.78,1006.30,10.00,M,FEW,SCT,BKN,M,8000.00,12000.00,25000.00,M,M,M,M,M,M,M,M,77.00,KNFL 010456Z 32006KT 10SM FEW080 SCT120 BKN250 25/03 A2978 RMK AO2 SLP063 T02500028,M
HND,2023-09-01 04:56,-115.1344,35.9729,742.79,88.00,54.00,31.43,190.00,17.00,0.00,29.79,1006.90,10.00,M,CLR,M,M,M,M,M,M,M,M,M,M,M,M,M,M,85.98,KHND 010456Z AUTO 19017KT 10SM CLR 31/12 A2979 RMK AO2 SLP069 T03110122,M
TPH,2023-09-01 04:56,-117.0904,38.0505,1654.00,73.00,30.00,20.34,180.00,11.00,0.00,29.89,1004.10,10.00,M,CLR,M,M,M,M,M,M,M,M,M,M,M,M,M,M,73.00,KTPH 010456Z AUTO 18011KT 10SM CLR 23/M01 A2989 RMK AO2 SLP041 T02281011,M
LAS,2023-09-01 04:56,-115.1634,36.0719,663.00,91.00,51.00,25.61,220.00,8.00,0.00,29.75,1004.10,10.00,M,SCT,BKN,M,M,11000.00,19000.00,M,M,M,M,M,M,M,M,M,88.16,KLAS 010456Z 22008KT 10SM SCT110 BKN190 33/11 A2975 RMK AO2 SLP041 T03280106,M
05U,2023-09-01 05:10,-116.0051,39.6042,1811.23,59.00,23.00,24.76,M,M,0.00,29.93,M,10.00,M,CLR,M,M,M,M,M,M,M,M,M,M,M,M,M,M,59.00,K05U 010510Z AUTO 10SM CLR 15/M05 A2993 RMK A01,M
BVU,2023-09-01 05:15,-114.8611,35.9475,671.00,91.40,48.20,22.78,270.00,3.00,0.00,29.75,M,10.00,M,CLR,M,M,M,M,M,M,M,M,M,M,M,M,M,M,88.09,KBVU 010515Z AUTO 27003KT 10SM CLR 33/09 A2975 RMK AO2,M
CXP,2023-09-01 05:15,-119.7326,39.1923,1431.00,68.00,35.60,30.20,190.00,4.00,0.00,29.86,M,10.00,M,CLR,M,M,M,M,M,M,M,M,M,M,M,M,M,M,68.00,KCXP 010515Z AUTO 19004KT 10SM CLR 20/02 A2986 RMK AO2,M
RTS,2023-09-01 05:15,-119.8764,39.6682,1539.00,66.20,39.20,37.03,280.00,3.00,0.00,29.89,M,10.00,M,BKN,M,M,M,11000.00,M,M,M,M,M,M,M,M,M,M,66.20,KRTS 010515Z AUTO 28003KT 10SM BKN110 19/04 A2989 RMK AO2,M
MEV,2023-09-01 05:15,-119.7500,38.9963,1441.42,68.00,33.80,28.11,180.00,13.00,0.00,29.84,M,10.00,18.00,FEW,FEW,M,M,5500.00,7000.00,M,M,M,M,M,M,M,M,M,68.00,KMEV 010515Z AUTO 18013G18KT 10SM FEW055 FEW070 20/01 A2984 RMK AO2,M
HTH,2023-09-01 05:15,-118.6315,38.5448,1282.89,77.00,14.00,9.05,230.00,16.00,0.00,29.80,M,10.00,M,CLR,M,M,M,M,M,M,M,M,M,M,M,M,M,M,77.00,KHTH 010515Z AUTO 23016KT 10SM CLR 25/M10 A2980 RMK A01,M
10U,2023-09-01 05:15,-116.1876,41.9532,1637.00,60.80,17.60,18.46,130.00,3.00,0.00,29.83,M,10.00,11.00,CLR,M,M,M,M,M,M,M,M,M,M,M,M,M,M,60.80,K10U 010515Z AUTO 13003G11KT 10SM CLR 16/M08 A2983 RMK AO2,M
BAM,2023-09-01 05:15,-116.8743,40.5990,1382.36,60.80,19.40,19.94,0.00,0.00,0.00,29.80,M,10.00,M,CLR,M,M,M,M,M,M,M,M,M,M,M,M,M,M,60.80,KBAM 010515Z AUTO 00000KT 10SM CLR 16/M07 A2980 RMK AO1,M
TMT,2023-09-01 05:15,-117.1971,39.4643,1749.34,55.60,22.50,27.41,210.00,9.00,0.00,29.92,M,M,M,CLR,M,M,M,M,M,M,M,M,M,M,M,M,M,M,55.60,KTMT 010515Z AUTO 21009KT CLR 13/M05 A2992 RMK AO2 T01311053 PWINO,M
BVU,2023-09-01 05:35,-114.8611,35.9475,671.00,89.60,48.20,24.11,0.00,0.00,0.00,29.75,M,10.00,M,CLR,M,M,M,M,M,M,M,M,M,M,M,M,M,M,86.44,KBVU 010535Z AUTO 00000KT 10SM CLR 32/09 A2975 RMK AO2,M
CXP,2023-09-01 05:35,-119.7326,39.1923,1431.00,68.00,35.60,30.20,0.00,0.00,0.00,29.86,M,10.00,M,CLR,M,M,M,M,M,M,M,M,M,M,M,M,M,M,68.00,KCXP 010535Z AUTO 00000KT 10SM CLR 20/02 A2986 RMK AO2,M
RTS,2023-09-01 05:35,-119.8764,39.6682,1539.00,64.40,39.20,39.43,280.00,5.00,0.00,29.89,M,10.00,M,OVC,M,M,M,11000.00,M,M,M,M,M,M,M,M,M,M,64.40,KRTS 010535Z AUTO 28005KT 10SM OVC110 18/04 A2989 RMK AO2,M
05U,2023-09-01 05:35,-116.0051,39.6042,1811.23,60.80,23.00,23.23,M,M,0.00,29.93,M,10.00,M,FEW,M,M,M,4900.00,M,M,M,M,M,M,M,M,M,M,60.80,K05U 010535Z AUTO 10SM FEW049 16/M05 A2993 RMK A01,M
MEV,2023-09-01 05:35,-119.7500,38.9963,1441.42,68.00,33.80,28.11,180.00,12.00,0.00,29.84,M,10.00,18.00,FEW,FEW,M,M,5500.00,7000.00,M,M,M,M,M,M,M,M,M,68.00,KMEV 010535Z AUTO 18012G18KT 10SM FEW055 FEW070 20/01 A2984 RMK AO2,M
HTH,2023-09-01 05:35,-118.6315,38.5448,1282.89,78.80,14.00,8.53,220.00,14.00,0.00,29.80,M,10.00,23.00,CLR,M,M,M,M,M,M,M,M,M,M,M,M,M,M,78.80,KHTH 010535Z AUTO 22014G23KT 10SM CLR 26/M10 A2980 RMK A01,M
BAM,2023-09-01 05:35,-116.8743,40.5990,1382.36,60.80,17.60,18.46,150.00,4.00,0.00,29.81,M,10.00,M,CLR,M,M,M,M,M,M,M,M,M,M,M,M,M,M,60.80,KBAM 010535Z AUTO 15004KT 10SM CLR 16/M08 A2981 RMK AO1,M
TMT,2023-09-01 05:35,-117.1971,39.4643,1749.34,57.00,22.00,25.51,210.00,5.00,0.00,29.92,M,M,M,CLR,M,M,M,M,M,M,M,M,M,M,M,M,M,M,57.00,KTMT 010535Z AUTO 21005KT CLR 14/M05 A2992 RMK AO2 T01391055 PWINO,M
10U,2023-09-01 05:40,-116.1876,41.9532,1637.00,60.80,17.60,18.46,130.00,5.00,0.00,29.84,M,10.00,M,CLR,M,M,M,M,M,M,M,M,M,M,M,M,M,M,60.80,K10U 010540Z AUTO 13005KT 10SM CLR 16/M08 A2984 RMK AO2,M
05U,2023-09-01 05:50,-116.0051,39.6042,1811.23,57.20,23.00,26.42,M,M,0.00,29.93,M,10.00,M,FEW,M,M,M,4800.00,M,M,M,M,M,M,M,M,M,M,57.20,K05U 010550Z AUTO 10SM FEW048 14/M05 A2993 RMK A01,M
P68,2023-09-01 05:53,-116.0056,39.6014,1993.00,57.00,27.00,31.43,M,3.00,0.00,29.91,1004.40,M,M,M,M,M,M,M,M,M,M,M,M,M,M,M,M,M,57.00,KP68 010553Z AUTO VRB03KT 14/M03 A2991 RMK AO1 SLP044 T01391028 10311 20139 51014,M
DRA,2023-09-01 05:53,-116.0278,36.6206,1009.00,87.00,32.00,13.94,180.00,15.00,0.00,29.80,1002.80,10.00,26.00,CLR,M,M,M,M,M,M,M,M,M,M,M,26.00,190.00,2023-09-01 05:49,83.43,KDRA 010553Z AUTO 18015G26KT 10SM CLR 31/00 A2980 RMK AO2 PK WND 19026/0549 SLP028 T03060000 10378 20306 51008,M
ELY,2023-09-01 05:53,-114.8453,39.2950,1909.00,70.00,32.00,24.42,170.00,15.00,0.00,29.96,1002.40,10.00,22.00,CLR,M,M,M,M,M,M,M,M,M,M,M,M,M,M,70.00,KELY 010553Z AUTO 17015G22KT 10SM CLR 21/00 A2996 RMK AO2 SLP024 T02110000 10300 20200 51005,M
VGT,2023-09-01 05:53,-115.1933,36.2111,667.00,92.00,52.00,25.76,200.00,8.00,0.00,29.74,1005.10,10.00,M,CLR,M,M,M,M,M,M,M,M,M,M,M,M,M,M,89.31,KVGT 010553Z AUTO 20008KT 10SM CLR 33/11 A2974 RMK AO2 SLP051 T03330111 10411 20333 51010,M
LOL,2023-09-01 05:53,-118.5701,40.0684,1192.43,74.00,34.00,23.11,320.00,4.00,0.00,29.78,1004.30,10.00,M,CLR,M,M,M,M,M,M,M,M,M,M,M,M,M,M,74.00,KLOL 010553Z AUTO 32004KT 10SM CLR 23/01 A2978 RMK AO2 SLP043 T02330011 10317 20222 51016,M
BVU,2023-09-01 05:55,-114.8611,35.9475,671.00,87.80,48.20,25.52,340.00,3.00,0.00,29.75,M,10.00,M,CLR,M,M,M,M,M,M,M,M,M,M,M,M,M,M,84.87,KBVU 010555Z AUTO 34003KT 10SM CLR 31/09 A2975 RMK AO2,M
CXP,2023-09-01 05:55,-119.7326,39.1923,1431.00,66.20,37.40,34.51,0.00,0.00,0.00,29.86,M,10.00,M,CLR,M,M,M,M,M,M,M,M,M,M,M,M,M,M,66.20,KCXP 010555Z AUTO 00000KT 10SM CLR 19/03 A2986 RMK AO2,M
RNO,2023-09-01 05:55,-119.7711,39.4839,1341.00,72.00,39.00,30.12,280.00,5.00,0.00,29.83,1004.30,10.00,M,FEW,BKN,M,M,12000.00,18000.00,M,M,M,M,M,M,M,M,M,72.00,KRNO 010555Z 28005KT 10SM FEW120 BKN180 22/04 A2983 RMK AO2 SLP043 T02220039 10289 20222 50004,M
RTS,2023-09-01 05:55,-119.8764,39.6682,1539.00,62.60,39.20,42.00,300.00,4.00,0.00,29.89,M,10.00,M,OVC,M,M,M,10000.00,M,M,M,M,M,M,M,M,M,M,62.60,KRTS 010555Z AUTO 30004KT 10SM OVC100 17/04 A2989 RMK AO2,M
MEV,2023-09-01 05:55,-119.7500,38.9963,1441.42,68.00,32.00,26.15,180.00,15.00,0.00,29.84,M,10.00,21.00,FEW,M,M,M,5500.00,M,M,M,M,M,M,M,M,M,M,68.00,KMEV 010555Z AUTO 18015G21KT 10SM FEW055 20/00 A2984 RMK AO2,M
BAM,2023-09-01 05:55,-116.8743,40.5990,1382.36,60.80,17.60,18.46,200.00,6.00,0.00,29.82,M,10.00,M,CLR,M,M,M,M,M,M,M,M,M,M,M,M,M,M,60.80,KBAM 010555Z AUTO 20006KT 10SM CLR 16/M08 A2982 RMK AO1,M
HTH,2023-09-01 05:55,-118.6315,38.5448,1282.89,78.80,12.20,7.88,210.00,19.00,0.00,29.80,M,10.00,25.00,CLR,M,M,M,M,M,M,M,M,M,M,M,M,M,M,78.80,KHTH 010555Z AUTO 21019G25KT 10SM CLR 26/M11 A2980 RMK A01,M
TMT,2023-09-01 05:55,-117.1971,39.4643,1749.34,51.30,24.60,35.04,0.00,0.00,0.00,29.93,M,M,M,CLR,M,M,M,M,M,M,M,M,M,M,M,M,M,M,51.30,KTMT 010555Z AUTO 00000KT CLR 11/M04 A2993 RMK AO2 T01071041 10297 20100 PWINO,M
10U,2023-09-01 05:55,-116.1876,41.9532,1637.00,59.00,19.40,21.26,M,3.00,0.00,29.83,M,10.00,M,CLR,M,M,M,M,M,M,M,M,M,M,M,M,M,M,59.00,K10U 010555Z AUTO VRB03KT 10SM CLR 15/M07 A2983 RMK AO2,M
INS,2023-09-01 05:55,-115.6733,36.5872,955.00,89.80,34.00,13.83,170.00,12.00,0.00,29.78,1002.50,10.00,M,CLR,M,M,M,M,M,M,M,M,M,M,M,M,M,M,85.76,KINS 010555Z AUTO 17012KT 10SM CLR 32/01 A2978 RMK AO2 SLP025 T03210012 10369 20318 50008 $,M
LSV,2023-09-01 05:55,-115.0343,36.2362,570.00,91.00,53.20,27.77,150.00,11.00,0.00,29.69,1002.20,10.00,M,BKN,BKN,M,M,16000.00,18000.00,M,M,M,M,M,M,M,M,M,88.60,KLSV 010555Z AUTO 15011KT 10SM BKN160 BKN180 33/12 A2969 RMK AO2 SLP022 60000 T03270118 10417 20327 51012 $,M
EKO,2023-09-01 05:56,-115.7860,40.8242,1367.00,57.00,29.00,34.12,190.00,3.00,0.00,29.83,1005.20,10.00,M,CLR,M,M,M,M,M,M,M,M,M,M,M,M,M,M,57.00,KEKO 010556Z AUTO 19003KT 10SM CLR 14/M02 A2983 RMK AO2 SLP052 T01391017 10328 20139 51011,M
WMC,2023-09-01 05:56,-117.8072,40.9019,1315.00,75.00,27.00,16.82,250.00,9.00,0.00,29.80,1003.60,10.00,M,CLR,M,M,M,M,M,M,M,M,M,M,M,M,M,M,75.00,KWMC 010556Z AUTO 25009KT 10SM CLR 24/M03 A2980 RMK AO2 SLP036 T02391028 10322 20217 53013,M
NFL,2023-09-01 05:56,-118.7010,39.4166,1199.00,75.00,36.00,24.20,50.00,5.00,0.00,29.78,1006.40,10.00,M,FEW,SCT,BKN,M,8000.00,12000.00,25000.00,M,M,M,M,M,M,M,M,75.00,KNFL 010556Z 05005KT 10SM FEW080 SCT120 BKN250 24/02 A2978 RMK AO2 SLP064 T02390022 10328 20239 51011,M
HND,2023-09-01 05:56,-115.1344,35.9729,742.79,87.00,56.00,34.90,200.00,13.00,0.00,29.79,1006.70,10.00,M,CLR,M,M,M,M,M,M,M,M,M,M,M,M,M,M,85.54,KHND 010556Z AUTO 20013KT 10SM CLR 31/13 A2979 RMK AO2 SLP067 60000 T03060133 10394 20300 50011,M
TPH,2023-09-01 05:56,-117.0904,38.0505,1654.00,66.00,32.00,28.03,180.00,7.00,0.00,29.90,1004.20,10.00,M,CLR,M,M,M,M,M,M,M,M,M,M,M,M,M,M,66.00,KTPH 010556Z AUTO 18007KT 10SM CLR 19/00 A2990 RMK AO2 SLP042 T01890000 10317 20189 51009,M
LAS,2023-09-01 05:56,-115.1634,36.0719,663.00,89.00,52.00,28.30,200.00,8.00,0.00,29.75,1004.00,10.00,M,FEW,BKN,M,M,11000.00,19000.00,M,M,M,M,M,M,M,M,M,86.49,KLAS 010556Z 20008KT 10SM FEW110 BKN190 32/11 A2975 RMK AO2 SLP040 60001 T03170111 10406 20311 50010,M
05U,2023-09-01 06:10,-116.0051,39.6042,1811.23,53.60,23.00,30.11,M,M,0.00,29.93,M,10.00,M,CLR,M,M,M,M,M,M,M,M,M,M,M,M,M,M,53.60,K05U 010610Z AUTO 10SM CLR 12/M05 A2993 RMK A01,M
BVU,2023-09-01 06:15,-114.8611,35.9475,671.00,86.00,50.00,28.90,310.00,4.00,0.00,29.75,M,10.00,M,CLR,M,M,M,M,M,M,M,M,M,M,M,M,M,M,83.62,KBVU 010615Z AUTO 31004KT 10SM CLR 30/10 A2975 RMK AO2,M
CXP,2023-09-01 06:15,-119.7326,39.1923,1431.00,66.20,37.40,34.51,0.00,0.00,0.00,29.86,M,10.00,M,CLR,M,M,M,M,M,M,M,M,M,M,M,M,M,M,66.20,KCXP 010615Z AUTO 00000KT 10SM CLR 19/03 A2986 RMK AO2,M
RTS,2023-09-01 06:15,-119.8764,39.6682,1539.00,62.60,39.20,42.00,0.00,0.00,0.00,29.89,M,10.00,M,OVC,M,M,M,10000.00,M,M,M,M,M,M,M,M,M,M,62.60,KRTS 010615Z AUTO 00000KT 10SM OVC100 17/04 A2989 RMK AO2,M
MEV,2023-09-01 06:15,-119.7500,38.9963,1441.42,68.00,32.00,26.15,180.00,16.00,0.00,29.84,M,10.00,21.00,CLR,M,M,M,M,M,M,M,M,M,M,M,M,M,M,68.00,KMEV 010615Z AUTO 18016G21KT 10SM CLR 20/M00 A2984 RMK AO2,M
HTH,2023-09-01 06:15,-118.6315,38.5448,1282.89,78.80,14.00,8.53,200.00,20.00,0.00,29.80,M,10.00,26.00,CLR,M,M,M,M,M,M,M,M,M,M,M,M,M,M,78.80,KHTH 010615Z AUTO 20020G26KT 10SM CLR 26/M10 A2980 RMK A01,M
10U,2023-09-01 06:15,-116.1876,41.9532,1637.00,59.00,17.60,19.68,M,5.00,0.00,29.83,M,10.00,M,CLR,M,M,M,M,M,M,M,M,M,M,M,M,M,M,59.00,K10U 010615Z AUTO VRB05KT 10SM CLR 15/M08 A2983 RMK AO2,M
BAM,2023-09-01 06:15,-116.8743,40.5990,1382.36,60.80,17.60,18.46,210.00,3.00,0.00,29.82,M,10.00,M,CLR,M,M,M,M,M,M,M,M,M,M,M,M,M,M,60.80,KBAM 010615Z AUTO 21003KT 10SM CLR 16/M08 A2982 RMK AO1,M
TMT,2023-09-01 06:15,-117.1971,39.4643,1749.34,52.00,23.00,31.93,0.00,0.00,0.00,29.93,M,M,M,CLR,M,M,M,M,M,M,M,M,M,M,M,M,M,M,52.00,KTMT 010615Z AUTO 00000KT CLR 11/M05 A2993 RMK AO2 T01121050 PWINO,M
05U,2023-09-01 06:30,-116.0051,39.6042,1811.23,53.60,23.00,30.11,M,M,0.00,29.93,M,10.00,M,CLR,M,M,M,M,M,M,M,M,M,M,M,M,M,M,53.60,K05U 010630Z AUTO 10SM CLR 12/M05 A2993 RMK A01,M
BVU,2023-09-01 06:35,-114.8611,35.9475,671.00,86.00,50.00,28.90,0.00,0.00,0.00,29.76,M,10.00,M,CLR,M,M,M,M,M,M,M,M,M,M,M,M,M,M,83.62,KBVU 010635Z AUTO 00000KT 10SM CLR 30/10 A2976 RMK AO2,M
CXP,2023-09-01 06:35,-119.7326,39.1923,1431.00,64.40,35.60,34.22,0.00,0.00,0.00,29.86,M,10.00,M,CLR,M,M,M,M,M,M,M,M,M,M,M,M,M,M,64.40,KCXP 010635Z AUTO 00000KT 10SM CLR 18/02 A2986 RMK AO2,M
RTS,2023-09-01 06:35,-119.8764,39.6682,1539.00,62.60,39.20,42.00,0.00,0.00,0.00,29.89,M,10.00,M,OVC,M,M,M,11000.00,M,M,M,M,M,M,M,M,M,M,62.60,KRTS 010635Z AUTO 00000KT 10SM OVC110 17/04 A2989 RMK AO2,M
MEV,2023-09-01 06:35,-119.7500,38.9963,1441.42,68.00,32.00,26.15,180.00,14.00,0.00,29.84,M,10.00,20.00,CLR,M,M,M,M,M,M,M,M,M,M,M,M,M,M,68.00,KMEV 010635Z AUTO 18014G20KT 10SM CLR 20/M00 A2984 RMK AO2,M
HTH,2023-09-01 06:35,-118.6315,38.5448,1282.89,78.80,10.40,7.28,220.00,20.00,0.00,29.80,M,10.00,28.00,CLR,M,M,M,M,M,M,M,M,M,M,M,M,M,M,78.80,KHTH 010635Z AUTO 22020G28KT 10SM CLR 26/M12 A2980 RMK A01,M
BAM,2023-09-01 06:35,-116.8743,40.5990,1382.36,59.00,19.40,21.26,230.00,4.00,0.00,29.83,M,10.00,M,CLR,M,M,M,M,M,M,M,M,M,M,M,M,M,M,59.00,KBAM 010635Z AUTO 23004KT 10SM CLR 15/M07 A2983 RMK AO1,M
TMT,2023-09-01 06:35,-117.1971,39.4643,1749.34,48.00,27.00,43.77,20.00,3.00,0.00,29.93,M,M,M,CLR,M,M,M,M,M,M,M,M,M,M,M,M,M,M,46.98,KTMT 010635Z AUTO 02003KT CLR 09/M03 A2993 RMK AO2 T00881028 PWINO,M
10U,2023-09-01 06:35,-116.1876,41.9532,1637.00,57.20,19.40,22.68,140.00,6.00,0.00,29.83,M,10.00,M,CLR,M,M,M,M,M,M,M,M,M,M,M,M,M,M,57.20,K10U 010635Z AUTO 14006KT 10SM CLR 14/M07 A2983 RMK AO2,M
05U,2023-09-01 06:50,-116.0051,39.6042,1811.23,53.60,24.80,32.46,M,M,0.00,29.93,M,10.00,M,CLR,M,M,M,M,M,M,M,M,M,M,M,M,M,M,53.60,K05U 010650Z AUTO 10SM CLR 12/M04 A2993 RMK A01,M
P68,2023-09-01 06:53,-116.0056,39.6014,1993.00,55.00,26.00,32.42,0.00,0.00,0.00,29.90,1003.90,M,M,M,M,M,M,M,M,M,M,M,M,M,M,M,M,M,55.00,KP68 010653Z AUTO 00000KT 13/M03 A2990 RMK AO1 SLP039 T01281033,M
DRA,2023-09-01 06:53,-116.0278,36.6206,1009.00,86.00,32.00,14.40,190.00,17.00,0.00,29.80,1002.90,10.00,22.00,CLR,M,M,M,M,M,M,M,M,M,M,M,M,M,M,82.64,KDRA 010653Z AUTO 19017G22KT 10SM CLR 30/00 A2980 RMK AO2 SLP029 T03000000,M
ELY,2023-09-01 06:53,-114.8453,39.2950,1909.00,71.00,32.00,23.60,160.00,14.00,0.00,29.96,1002.30,10.00,M,CLR,M,M,M,M,M,M,M,M,M,M,M,M,M,M,71.00,KELY 010653Z AUTO 16014KT 10SM CLR 22/00 A2996 RMK AO2 SLP023 T02170000,M
VGT,2023-09-01 06:53,-115.1933,36.2111,667.00,91.00,50.00,24.68,200.00,7.00,0.00,29.74,1005.30,10.00,M,CLR,M,M,M,M,M,M,M,M,M,M,M,M,M,M,87.99,KVGT 010653Z AUTO 20007KT 10SM CLR 33/10 A2974 RMK AO2 SLP053 T03280100,M
LOL,2023-09-01 06:53,-118.5701,40.0684,1192.43,68.00,38.00,33.20,130.00,5.00,T,29.79,1004.70,10.00,M,FEW,M,M,M,11000.00,M,M,M,-RA,M,M,M,M,M,M,68.00,KLOL 010653Z AUTO 13005KT 10SM -RA FEW110 20/03 A2979 RMK AO2 RAB50 SLP047 P0000 T02000033,M
BVU,2023-09-01 06:55,-114.8611,35.9475,671.00,87.80,50.00,27.29,0.00,0.00,0.00,29.76,M,10.00,M,CLR,M,M,M,M,M,M,M,M,M,M,M,M,M,M,85.11,KBVU 010655Z AUTO 00000KT 10SM CLR 31/10 A2976 RMK AO2,M
CXP,2023-09-01 06:55,-119.7326,39.1923,1431.00,62.60,35.60,36.45,0.00,0.00,0.00,29.86,M,10.00,M,CLR,M,M,M,M,M,M,M,M,M,M,M,M,M,M,62.60,KCXP 010655Z AUTO 00000KT 10SM CLR 17/02 A2986 RMK AO2,M
RNO,2023-09-01 06:55,-119.7711,39.4839,1341.00,70.00,37.00,29.81,360.00,3.00,0.00,29.83,1004.00,10.00,M,FEW,BKN,M,M,10000.00,18000.00,M,M,M,M,M,M,M,M,M,70.00,KRNO 010655Z 36003KT 10SM FEW100 BKN180 21/03 A2983 RMK AO2 SLP040 T02110028,M
RTS,2023-09-01 06:55,-119.8764,39.6682,1539.00,60.80,39.20,44.76,330.00,3.00,0.00,29.88,M,10.00,M,OVC,M,M,M,11000.00,M,M,M,M,M,M,M,M,M,M,60.80,KRTS 010655Z AUTO 33003KT 10SM OVC110 16/04 A2988 RMK AO2,M
MEV,2023-09-01 06:55,-119.7500,38.9963,1441.42,68.00,32.00,26.15,180.00,13.00,0.00,29.84,M,10.00,22.00,CLR,M,M,M,M,M,M,M,M,M,M,M,M,M,M,68.00,KMEV 010655Z AUTO 18013G22KT 10SM CLR 20/M00 A2984 RMK AO2,M
HTH,2023-09-01 06:55,-118.6315,38.5448,1282.89,78.80,10.40,7.28,230.00,18.00,0.00,29.79,M,10.00,24.00,CLR,M,M,M,M,M,M,M,M,M,M,M,M,M,M,78.80,KHTH 010655Z AUTO 23018G24KT 10SM CLR 26/M12 A2979 RMK A01,M
BAM,2023-09-01 06:55,-116.8743,40.5990,1382.36,59.00,17.60,19.68,220.00,3.00,0.00,29.83,M,10.00,M,CLR,M,M,M,M,M,M,M,M,M,M,M,M,M,M,59.00,KBAM 010655Z AUTO 22003KT 10SM CLR 15/M08 A2983 RMK AO1,M
TMT,2023-09-01 06:55,-117.1971,39.4643,1749.34,48.70,26.40,41.59,0.00,0.00,0.00,29.94,M,M,M,CLR,M,M,M,M,M,M,M,M,M,M,M,M,M,M,48.70,KTMT 010655Z AUTO 00000KT CLR 09/M03 A2994 RMK AO2 T00931031 PWINO,M
INS,2023-09-01 06:55,-115.6733,36.5872,955.00,89.40,37.20,15.90,180.00,15.00,0.00,29.78,1002.30,10.00,M,CLR,M,M,M,M,M,M,M,M,M,M,M,M,M,M,85.49,KINS 010655Z AUTO 18015KT 10SM CLR 32/03 A2978 RMK AO2 SLP023 T03190029 $,M
LSV,2023-09-01 06:55,-115.0343,36.2362,570.00,90.00,52.50,27.93,160.00,9.00,0.00,29.70,1002.70,10.00,M,BKN,BKN,M,M,16000.00,18000.00,M,M,M,M,M,M,M,M,M,87.50,KLSV 010655Z AUTO 16009KT 10SM BKN160 BKN180 32/11 A2970 RMK AO2 SLP027 T03230114 $,M
EKO,2023-09-01 06:56,-115.7860,40.8242,1367.00,56.00,27.00,32.59,0.00,0.00,0.00,29.83,1005.00,10.00,M,CLR,M,M,M,M,M,M,M,M,M,M,M,M,M,M,56.00,KEKO 010656Z AUTO 00000KT 10SM CLR 13/M03 A2983 RMK AO2 SLP050 T01331028,M
WMC,2023-09-01 06:56,-117.8072,40.9019,1315.00,74.00,29.00,18.88,260.00,6.00,0.00,29.80,1003.50,10.00,M,CLR,M,M,M,M,M,M,M,M,M,M,M,M,M,M,74.00,KWMC 010656Z AUTO 26006KT 10SM CLR 23/M02 A2980 RMK AO2 SLP035 T02331017,M
NFL,2023-09-01 06:56,-118.7010,39.4166,1199.00,75.00,34.00,22.35,110.00,6.00,0.00,29.80,1006.80,10.00,M,CLR,M,M,M,M,M,M,M,M,M,M,M,M,M,M,75.00,KNFL 010656Z AUTO 11006KT 10SM CLR 24/01 A2980 RMK AO2 SLP068 T02390011,M
HND,2023-09-01 06:56,-115.1344,35.9729,742.79,87.00,54.00,32.45,190.00,9.00,0.00,29.80,1007.00,10.00,M,CLR,M,M,M,M,M,M,M,M,M,M,M,M,M,M,85.10,KHND 010656Z AUTO 19009KT 10SM CLR 31/12 A2980 RMK AO2 SLP070 T03060122 404110283,M
TPH,2023-09-01 06:56,-117.0904,38.0505,1654.00,68.00,31.00,25.12,180.00,12.00,0.00,29.89,1003.40,10.00,M,CLR,M,M,M,M,M,M,M,M,M,M,M,M,M,M,68.00,KTPH 010656Z AUTO 18012KT 10SM CLR 20/M01 A2989 RMK AO2 SLP034 T02001006,M
LAS,2023-09-01 06:56,-115.1634,36.0719,663.00,88.00,53.00,30.30,160.00,7.00,0.00,29.75,1004.00,10.00,M,FEW,BKN,M,M,11000.00,18000.00,M,M,M,M,M,M,M,M,M,85.78,KLAS 010656Z 16007KT 10SM FEW110 BKN180 31/12 A2975 RMK AO2 SLP040 T03110117,M
10U,2023-09-01 07:00,-116.1876,41.9532,1637.00,55.40,21.20,26.13,140.00,6.00,0.00,29.83,M,10.00,M,CLR,M,M,M,M,M,M,M,M,M,M,M,M,M,M,55.40,K10U 010700Z AUTO 14006KT 10SM CLR 13/M06 A2983 RMK AO2,M
BVU,2023-09-01 07:15,-114.8611,35.9475,671.00,87.80,48.20,25.52,0.00,0.00,0.00,29.76,M,10.00,M,CLR,M,M,M,M,M,M,M,M,M,M,M,M,M,M,84.87,KBVU 010715Z AUTO 00000KT 10SM CLR 31/09 A2976 RMK AO2,M
CXP,2023-09-01 07:15,-119.7326,39.1923,1431.00,62.60,37.40,39.14,0.00,0.00,0.00,29.86,M,10.00,M,CLR,M,M,M,M,M,M,M,M,M,M,M,M,M,M,62.60,KCXP 010715Z AUTO 00000KT 10SM CLR 17/03 A2986 RMK AO2,M
RTS,2023-09-01 07:15,-119.8764,39.6682,1539.00,60.80,37.40,41.71,320.00,4.00,0.00,29.88,M,10.00,M,SCT,M,M,M,11000.00,M,M,M,M,M,M,M,M,M,M,60.80,KRTS 010715Z AUTO 32004KT 10SM SCT110 16/03 A2988 RMK AO2,M
05U,2023-09-01 07:15,-116.0051,39.6042,1811.23,55.40,26.60,32.76,M,M,0.00,29.93,M,10.00,M,CLR,M,M,M,M,M,M,M,M,M,M,M,M,M,M,55.40,K05U 010715Z AUTO 10SM CLR 13/M03 A2993 RMK A01,M
MEV,2023-09-01 07:15,-119.7500,38.9963,1441.42,66.20,32.00,27.83,180.00,13.00,0.00,29.83,M,10.00,M,FEW,FEW,M,M,5000.00,5500.00,M,M,M,M,M,M,M,M,M,66.20,KMEV 010715Z AUTO 18013KT 10SM FEW050 FEW055 19/M00 A2983 RMK AO2,M
HTH,2023-09-01 07:15,-118.6315,38.5448,1282.89,78.80,6.80,6.19,210.00,20.00,0.00,29.79,M,10.00,30.00,CLR,M,M,M,M,M,M,M,M,M,M,M,M,M,M,78.80,KHTH 010715Z AUTO 21020G30KT 10SM CLR 26/M14 A2979 RMK A01,M
BAM,2023-09-01 07:15,-116.8743,40.5990,1382.36,55.40,17.60,22.41,160.00,4.00,0.00,29.83,M,10.00,M,CLR,M,M,M,M,M,M,M,M,M,M,M,M,M,M,55.40,KBAM 010715Z AUTO 16004KT 10SM CLR 13/M08 A2983 RMK AO1,M
TMT,2023-09-01 07:15,-117.1971,39.4643,1749.34,46.00,28.60,50.40,340.00,3.00,0.00,29.94,M,M,M,CLR,M,M,M,M,M,M,M,M,M,M,M,M,M,M,44.69,KTMT 010715Z AUTO 34003KT CLR 08/M02 A2994 RMK AO2 T00781019 PWINO,M
10U,2023-09-01 07:20,-116.1876,41.9532,1637.00,57.20,23.00,26.42,140.00,5.00,0.00,29.84,M,10.00,M,CLR,M,M,M,M,M,M,M,M,M,M,M,M,M,M,57.20,K10U 010720Z AUTO 14005KT 10SM CLR 14/M05 A2984 RMK AO2,M
BVU,2023-09-01 07:35,-114.8611,35.9475,671.00,86.00,50.00,28.90,310.00,4.00,0.00,29.76,M,10.00,M,CLR,M,M,M,M,M,M,M,M,M,M,M,M,M,M,83.62,KBVU 010735Z AUTO 31004KT 10SM CLR 30/10 A2976 RMK AO2 LTG DSNT NE AND SE,M
CXP,2023-09-01 07:35,-119.7326,39.1923,1431.00,60.80,35.60,38.85,0.00,0.00,0.00,29.85,M,10.00,M,CLR,M,M,M,M,M,M,M,M,M,M,M,M,M,M,60.80,KCXP 010735Z AUTO 00000KT 10SM CLR 16/02 A2985 RMK AO2,M
RTS,2023-09-01 07:35,-119.8764,39.6682,1539.00,62.60,37.40,39.14,10.00,3.00,0.00,29.88,M,10.00,M,BKN,M,M,M,12000.00,M,M,M,M,M,M,M,M,M,M,62.60,KRTS 010735Z AUTO 01003KT 10SM BKN120 17/03 A2988 RMK AO2,M
05U,2023-09-01 07:35,-116.0051,39.6042,1811.23,55.40,28.40,35.28,M,M,0.00,29.93,M,10.00,M,CLR,M,M,M,M,M,M,M,M,M,M,M,M,M,M,55.40,K05U 010735Z AUTO 10SM CLR 13/M02 A2993 RMK A01,M
MEV,2023-09-01 07:35,-119.7500,38.9963,1441.42,68.00,32.00,26.15,180.00,15.00,0.00,29.83,M,10.00,M,CLR,M,M,M,M,M,M,M,M,M,M,M,M,M,M,68.00,KMEV 010735Z AUTO 18015KT 10SM CLR 20/M00 A2983 RMK AO2,M
HTH,2023-09-01 07:35,-118.6315,38.5448,1282.89,78.80,6.80,6.19,230.00,22.00,0.00,29.79,M,10.00,28.00,CLR,M,M,M,M,M,M,M,M,M,M,M,M,M,M,78.80,KHTH 010735Z AUTO 23022G28KT 10SM CLR 26/M14 A2979 RMK A01,M
10U,2023-09-01 07:35,-116.1876,41.9532,1637.00,55.40,23.00,28.20,160.00,8.00,0.00,29.85,M,10.00,M,CLR,M,M,M,M,M,M,M,M,M,M,M,M,M,M,55.40,K10U 010735Z AUTO 16008KT 10SM CLR 13/M05 A2985 RMK AO2,M
BAM,2023-09-01 07:35,-116.8743,40.5990,1382.36,55.40,17.60,22.41,160.00,7.00,0.00,29.84,M,10.00,M,CLR,M,M,M,M,M,M,M,M,M,M,M,M,M,M,55.40,KBAM 010735Z AUTO 16007KT 10SM CLR 13/M08 A2984 RMK AO1,M
TMT,2023-09-01 07:35,-117.1971,39.4643,1749.34,45.00,26.40,47.82,0.00,0.00,0.00,29.93,M,M,M,CLR,M,M,M,M,M,M,M,M,M,M,M,M,M,M,45.00,KTMT 010735Z AUTO 00000KT CLR 07/M03 A2993 RMK AO2 T00721031 PWINO,M
LSV,2023-09-01 07:36,-115.0343,36.2362,570.00,91.40,50.00,24.37,160.00,12.00,0.00,29.70,1002.60,10.00,M,SCT,M,M,M,15000.00,M,M,M,-DZ,M,M,M,M,M,M,88.36,KLSV 010736Z AUTO 16012KT 10SM -DZ SCT150 33/10 A2970 RMK AO2 DZB36 SLP026 $,M
LSV,2023-09-01 07:46,-115.0343,36.2362,570.00,91.40,50.00,24.37,160.00,13.00,0.00,29.70,1002.60,10.00,M,SCT,M,M,M,15000.00,M,M,M,M,M,M,M,M,M,M,88.36,KLSV 010746Z AUTO 16013KT 10SM SCT150 33/10 A2970 RMK AO2 DZB36E45RAB45E46 SLP026 $,M
05U,2023-09-01 07:50,-116.0051,39.6042,1811.23,57.20,26.60,30.69,M,M,0.00,29.93,M,10.00,M,CLR,M,M,M,M,M,M,M,M,M,M,M,M,M,M,57.20,K05U 010750Z AUTO 10SM CLR 14/M03 A2993 RMK A01,M
P68,2023-09-01 07:53,-116.0056,39.6014,1993.00,56.00,28.00,33.96,160.00,6.00,0.00,29.91,1003.70,M,M,M,M,M,M,M,M,M,M,M,M,M,M,M,M,M,56.00,KP68 010753Z AUTO 16006KT 13/M02 A2991 RMK AO1 SLP037 T01331022 403170039,M
DRA,2023-09-01 07:53,-116.0278,36.6206,1009.00,84.00,32.00,15.35,180.00,13.00,0.00,29.81,1003.30,10.00,M,CLR,M,M,M,M,M,M,M,M,M,M,M,M,M,M,81.13,KDRA 010753Z AUTO 18013KT 10SM CLR 29/00 A2981 RMK AO2 SLP033 T02890000 403830222,M
ELY,2023-09-01 07:53,-114.8453,39.2950,1909.00,68.00,37.00,31.92,200.00,8.00,0.00,29.97,1002.60,10.00,21.00,CLR,M,M,M,M,M,M,M,M,M,M,M,M,M,M,68.00,KELY 010753Z AUTO 20008G21KT 10SM CLR 20/03 A2997 RMK AO2 SLP026 T02000028 403110033,M
VGT,2023-09-01 07:53,-115.1933,36.2111,667.00,91.00,48.00,22.90,180.00,7.00,0.00,29.75,1005.30,10.00,M,CLR,M,M,M,M,M,M,M,M,M,M,M,M,M,M,87.69,KVGT 010753Z AUTO 18007KT 10SM CLR 33/09 A2975 RMK AO2 SLP053 T03280089 404220272,M
LOL,2023-09-01 07:53,-118.5701,40.0684,1192.43,67.00,49.00,52.37,M,3.00,T,29.79,1004.50,10.00,M,CLR,M,M,M,M,M,M,M,M,M,M,M,M,M,M,67.00,KLOL 010753Z AUTO VRB03KT 10SM CLR 19/09 A2979 RMK AO2 RAE32 SLP045 P0000 T01940094 403220072,M
BVU,2023-09-01 07:55,-114.8611,35.9475,671.00,84.20,53.60,34.97,320.00,4.00,0.00,29.76,M,10.00,M,CLR,M,M,M,M,M,M,M,M,M,M,M,M,M,M,82.76,KBVU 010755Z AUTO 32004KT 10SM CLR 29/12 A2976 RMK AO2,M
CXP,2023-09-01 07:55,-119.7326,39.1923,1431.00,62.60,33.80,33.93,0.00,0.00,0.00,29.85,M,10.00,M,CLR,M,M,M,M,M,M,M,M,M,M,M,M,M,M,62.60,KCXP 010755Z AUTO 00000KT 10SM CLR 17/01 A2985 RMK AO2,M
RNO,2023-09-01 07:55,-119.7711,39.4839,1341.00,67.00,40.00,37.16,220.00,5.00,0.00,29.83,1003.90,10.00,M,FEW,BKN,M,M,10000.00,18000.00,M,M,M,M,M,M,M,M,M,67.00,KRNO 010755Z 22005KT 10SM FEW100 BKN180 19/04 A2983 RMK AO2 SLP039 T01940044 403170128,M
RTS,2023-09-01 07:55,-119.8764,39.6682,1539.00,64.40,35.60,34.22,0.00,0.00,0.00,29.88,M,10.00,M,OVC,M,M,M,11000.00,M,M,M,M,M,M,M,M,M,M,64.40,KRTS 010755Z AUTO 00000KT 10SM OVC110 18/02 A2988 RMK AO2,M
MEV,2023-09-01 07:55,-119.7500,38.9963,1441.42,66.20,32.00,27.83,180.00,11.00,0.00,29.83,M,10.00,18.00,CLR,M,M,M,M,M,M,M,M,M,M,M,M,M,M,66.20,KMEV 010755Z AUTO 18011G18KT 10SM CLR 19/00 A2983 RMK AO2,M
HTH,2023-09-01 07:55,-118.6315,38.5448,1282.89,78.80,6.80,6.19,220.00,22.00,0.00,29.80,M,10.00,30.00,CLR,M,M,M,M,M,M,M,M,M,M,M,M,M,M,78.80,KHTH 010755Z AUTO 22022G30KT 10SM CLR 26/M14 A2980 RMK A01,M
BAM,2023-09-01 07:55,-116.8743,40.5990,1382.36,57.20,19.40,22.68,160.00,6.00,0.00,29.84,M,10.00,M,CLR,M,M,M,M,M,M,M,M,M,M,M,M,M,M,57.20,KBAM 010755Z AUTO 16006KT 10SM CLR 14/M07 A2984 RMK AO1,M
TMT,2023-09-01 07:55,-117.1971,39.4643,1749.34,49.50,27.00,41.38,0.00,0.00,0.00,29.93,M,M,M,CLR,M,M,M,M,M,M,M,M,M,M,M,M,M,M,49.50,KTMT 010755Z AUTO 00000KT CLR 10/M03 A2993 RMK AO2 T00971028 403150002 PWINO,M
10U,2023-09-01 07:55,-116.1876,41.9532,1637.00,57.20,21.20,24.49,150.00,6.00,0.00,29.85,M,10.00,M,CLR,M,M,M,M,M,M,M,M,M,M,M,M,M,M,57.20,K10U 010755Z AUTO 15006KT 10SM CLR 14/M06 A2985 RMK AO2,M
INS,2023-09-01 07:55,-115.6733,36.5872,955.00,89.00,35.20,14.88,170.00,14.00,0.00,29.79,1002.60,10.00,19.00,CLR,M,M,M,M,M,M,M,M,M,M,M,M,M,M,85.11,KINS 010755Z AUTO 17014G19KT 10SM CLR 32/02 A2979 RMK AO2 SLP026 T03160018 403800206 $,M
LSV,2023-09-01 07:55,-115.0343,36.2362,570.00,91.00,48.00,22.90,160.00,12.00,T,29.70,1002.50,10.00,M,SCT,M,M,M,15000.00,M,M,M,M,M,M,M,M,M,M,87.69,KLSV 010755Z AUTO 16012KT 10SM SCT150 33/09 A2970 RMK AO2 DZB36E45RAB45E46 SLP025 P0000 T03280089 404330256 $,M
EKO,2023-09-01 07:56,-115.7860,40.8242,1367.00,56.00,25.00,30.00,320.00,3.00,0.00,29.84,1005.00,10.00,M,CLR,M,M,M,M,M,M,M,M,M,M,M,M,M,M,56.00,KEKO 010756Z AUTO 32003KT 10SM CLR 13/M04 A2984 RMK AO2 SLP050 T01331039 403330056,M
WMC,2023-09-01 07:56,-117.8072,40.9019,1315.00,72.00,29.00,20.20,180.00,7.00,0.00,29.82,1004.00,10.00,M,CLR,M,M,M,M,M,M,M,M,M,M,M,M,M,M,72.00,KWMC 010756Z AUTO 18007KT 10SM CLR 22/M02 A2982 RMK AO2 SLP040 T02221017 403330044,M
NFL,2023-09-01 07:56,-118.7010,39.4166,1199.00,73.00,37.00,26.92,0.00,0.00,0.00,29.79,1006.60,10.00,M,CLR,M,M,M,M,M,M,M,M,M,M,M,M,M,M,73.00,KNFL 010756Z AUTO 00000KT 10SM CLR 23/03 A2979 RMK AO2 SLP066 T02280028 403330100,M
HND,2023-09-01 07:56,-115.1344,35.9729,742.79,88.00,49.00,26.13,180.00,11.00,0.00,29.80,1006.70,10.00,M,CLR,M,M,M,M,M,M,M,M,M,M,M,M,M,M,85.14,KHND 010756Z AUTO 18011KT 10SM CLR 31/09 A2980 RMK AO2 SLP067 T03110094,M
TPH,2023-09-01 07:56,-117.0904,38.0505,1654.00,67.00,29.00,23.97,130.00,4.00,0.00,29.90,1003.50,10.00,M,CLR,M,M,M,M,M,M,M,M,M,M,M,M,M,M,67.00,KTPH 010756Z AUTO 13004KT 10SM CLR 19/M02 A2990 RMK AO2 SLP035 T01941017 403280122,M
LAS,2023-09-01 07:56,-115.1634,36.0719,663.00,88.00,52.00,29.21,180.00,10.00,0.00,29.75,1004.10,10.00,M,OVC,M,M,M,16000.00,M,M,M,M,M,M,M,M,M,M,85.60,KLAS 010756Z 18010KT 10SM OVC160 31/11 A2975 RMK AO2 SLP041 T03110111 404170306,M
BVU,2023-09-01 08:15,-114.8611,35.9475,671.00,86.00,50.00,28.90,320.00,5.00,0.00,29.76,M,10.00,M,CLR,M,M,M,M,M,M,M,M,M,M,M,M,M,M,83.62,KBVU 010815Z AUTO 32005KT 10SM CLR 30/10 A2976 RMK AO2,M
CXP,2023-09-01 08:15,-119.7326,39.1923,1431.00,62.60,33.80,33.93,0.00,0.00,0.00,29.85,M,10.00,M,CLR,M,M,M,M,M,M,M,M,M,M,M,M,M,M,62.60,KCXP 010815Z AUTO 00000KT 10SM CLR 17/01 A2985 RMK AO2,M
RTS,2023-09-01 08:15,-119.8764,39.6682,1539.00,64.40,33.80,31.85,240.00,6.00,0.00,29.87,M,10.00,M,BKN,OVC,M,M,10000.00,12000.00,M,M,M,M,M,M,M,M,M,64.40,KRTS 010815Z AUTO 24006KT 10SM BKN100 OVC120 18/01 A2987 RMK AO2,M
05U,2023-09-01 08:15,-116.0051,39.6042,1811.23,59.00,23.00,24.76,M,M,0.00,29.93,M,10.00,M,CLR,M,M,M,M,M,M,M,M,M,M,M,M,M,M,59.00,K05U 010815Z AUTO 10SM CLR 15/M05 A2993 RMK A01,M
MEV,2023-09-01 08:15,-119.7500,38.9963,1441.42,66.20,32.00,27.83,180.00,13.00,0.00,29.83,M,10.00,19.00,CLR,M,M,M,M,M,M,M,M,M,M,M,M,M,M,66.20,KMEV 010815Z AUTO 18013G19KT 10SM CLR 19/M00 A2983 RMK AO2,M
HTH,2023-09-01 08:15,-118.6315,38.5448,1282.89,78.80,8.60,6.71,230.00,21.00,0.00,29.79,M,10.00,M,CLR,M,M,M,M,M,M,M,M,M,M,M,M,M,M,78.80,KHTH 010815Z AUTO 23021KT 10SM CLR 26/M13 A2979 RMK A01,M
BAM,2023-09-01 08:15,-116.8743,40.5990,1382.36,55.40,19.40,24.21,240.00,4.00,0.00,29.84,M,10.00,M,CLR,M,M,M,M,M,M,M,M,M,M,M,M,M,M,55.40,KBAM 010815Z AUTO 24004KT 10SM CLR 13/M07 A2984 RMK AO1,M
TMT,2023-09-01 08:15,-117.1971,39.4643,1749.34,44.60,26.40,48.56,270.00,4.00,0.00,29.93,M,M,M,CLR,M,M,M,M,M,M,M,M,M,M,M,M,M,M,42.13,KTMT 010815Z AUTO 27004KT CLR 07/M03 A2993 RMK AO2 T00701031 PWINO,M
10U,2023-09-01 08:20,-116.1876,41.9532,1637.00,51.80,19.40,27.62,200.00,7.00,0.00,29.85,M,10.00,M,CLR,M,M,M,M,M,M,M,M,M,M,M,M,M,M,51.80,K10U 010820Z AUTO 20007KT 10SM CLR 11/M07 A2985 RMK AO2,M
05U,2023-09-01 08:30,-116.0051,39.6042,1811.23,57.20,23.00,26.42,M,M,0.00,29.93,M,10.00,M,CLR,M,M,M,M,M,M,M,M,M,M,M,M,M,M,57.20,K05U 010830Z AUTO 10SM CLR 14/M05 A2993 RMK A01,M
BVU,2023-09-01 08:35,-114.8611,35.9475,671.00,84.20,53.60,34.97,0.00,0.00,0.00,29.76,M,10.00,M,CLR,M,M,M,M,M,M,M,M,M,M,M,M,M,M,82.76,KBVU 010835Z AUTO 00000KT 10SM CLR 29/12 A2976 RMK AO2 LTG DSNT S,M
CXP,2023-09-01 08:35,-119.7326,39.1923,1431.00,60.80,33.80,36.16,0.00,0.00,0.00,29.85,M,10.00,M,CLR,M,M,M,M,M,M,M,M,M,M,M,M,M,M,60.80,KCXP 010835Z AUTO 00000KT 10SM CLR 16/01 A2985 RMK AO2,M
RTS,2023-09-01 08:35,-119.8764,39.6682,1539.00,66.20,32.00,27.83,240.00,12.00,0.00,29.86,M,10.00,M,BKN,OVC,M,M,10000.00,12000.00,M,M,M,M,M,M,M,M,M,66.20,KRTS 010835Z AUTO 24012KT 10SM BKN100 OVC120 19/00 A2986 RMK AO2,M
MEV,2023-09-01 08:35,-119.7500,38.9963,1441.42,68.00,32.00,26.15,180.00,18.00,0.00,29.82,M,10.00,25.00,CLR,M,M,M,M,M,M,M,M,M,M,M,M,M,M,68.00,KMEV 010835Z AUTO 18018G25KT 10SM CLR 20/M00 A2982 RMK AO2,M
HTH,2023-09-01 08:35,-118.6315,38.5448,1282.89,78.80,8.60,6.71,230.00,19.00,0.00,29.79,M,10.00,28.00,CLR,M,M,M,M,M,M,M,M,M,M,M,M,M,M,78.80,KHTH 010835Z AUTO 23019G28KT 10SM CLR 26/M13 A2979 RMK A01,M
BAM,2023-09-01 08:35,-116.8743,40.5990,1382.36,57.20,19.40,22.68,150.00,3.00,0.00,29.83,M,10.00,M,CLR,M,M,M,M,M,M,M,M,M,M,M,M,M,M,57.20,KBAM 010835Z AUTO 15003KT 10SM CLR 14/M07 A2983 RMK AO1,M
TMT,2023-09-01 08:35,-117.1971,39.4643,1749.34,42.80,26.00,51.16,0.00,0.00,0.00,29.92,M,M,M,CLR,M,M,M,M,M,M,M,M,M,M,M,M,M,M,42.80,KTMT 010835Z AUTO 00000KT CLR 06/M03 A2992 RMK AO2 T00601033 PWINO,M
10U,2023-09-01 08:40,-116.1876,41.9532,1637.00,53.60,21.20,27.91,170.00,4.00,0.00,29.85,M,10.00,M,CLR,M,M,M,M,M,M,M,M,M,M,M,M,M,M,53.60,K10U 010840Z AUTO 17004KT 10SM CLR 12/M06 A2985 RMK AO2,M
05U,2023-09-01 08:50,-116.0051,39.6042,1811.23,55.40,23.00,28.20,M,M,0.00,29.93,M,10.00,M,CLR,M,M,M,M,M,M,M,M,M,M,M,M,M,M,55.40,K05U 010850Z AUTO 10SM CLR 13/M05 A2993 RMK A01,M
P68,2023-09-01 08:53,-116.0056,39.6014,1993.00,56.00,23.00,27.59,180.00,5.00,0.00,29.91,1003.70,M,M,M,M,M,M,M,M,M,M,M,M,M,M,M,M,M,56.00,KP68 010853Z AUTO 18005KT 13/M05 A2991 RMK AO1 SLP037 T01331050 53000,M
DRA,2023-09-01 08:53,-116.0278,36.6206,1009.00,85.00,36.00,17.44,190.00,13.00,0.00,29.81,1003.10,10.00,22.00,CLR,M,M,M,M,M,M,M,M,M,M,M,M,M,M,81.93,KDRA 010853Z AUTO 19013G22KT 10SM CLR 29/02 A2981 RMK AO2 SLP031 T02940022 50003,M
ELY,2023-09-01 08:53,-114.8453,39.2950,1909.00,60.00,38.00,43.94,220.00,9.00,0.00,29.96,1003.30,10.00,M,CLR,M,M,M,M,M,M,M,M,M,M,M,M,M,M,60.00,KELY 010853Z AUTO 22009KT 10SM CLR 16/03 A2996 RMK AO2 SLP033 T01560033 50001,M
VGT,2023-09-01 08:53,-115.1933,36.2111,667.00,91.00,48.00,22.90,150.00,5.00,0.00,29.74,1005.10,10.00,M,CLR,M,M,M,M,M,M,M,M,M,M,M,M,M,M,87.69,KVGT 010853Z AUTO 15005KT 10SM CLR 33/09 A2974 RMK AO2 SLP051 T03280089 50001,M
LOL,2023-09-01 08:53,-118.5701,40.0684,1192.43,66.00,47.00,50.29,0.00,0.00,0.00,29.78,1003.90,10.00,M,CLR,M,M,M,M,M,M,M,M,M,M,M,M,M,M,66.00,KLOL 010853Z AUTO 00000KT 10SM CLR 19/08 A2978 RMK AO2 SLP039 60000 T01890083 58002,M
BVU,2023-09-01 08:55,-114.8611,35.9475,671.00,82.40,55.40,39.58,10.00,5.00,0.00,29.75,M,10.00,M,CLR,M,M,M,M,M,M,M,M,M,M,M,M,M,M,81.75,KBVU 010855Z AUTO 01005KT 10SM CLR 28/13 A2975 RMK AO2 LTG DSNT E-S,M
CXP,2023-09-01 08:55,-119.7326,39.1923,1431.00,59.00,33.80,38.56,0.00,0.00,0.00,29.85,M,10.00,M,CLR,M,M,M,M,M,M,M,M,M,M,M,M,M,M,59.00,KCXP 010855Z AUTO 00000KT 10SM CLR 15/01 A2985 RMK AO2,M
RNO,2023-09-01 08:55,-119.7711,39.4839,1341.00,65.00,39.00,38.31,0.00,0.00,0.00,29.82,1003.80,10.00,M,SCT,BKN,M,M,10000.00,18000.00,M,M,M,M,M,M,M,M,M,65.00,KRNO 010855Z 00000KT 10SM SCT100 BKN180 18/04 A2982 RMK AO2 SLP038 T01830039 58003,M
RTS,2023-09-01 08:55,-119.8764,39.6682,1539.00,66.20,32.00,27.83,220.00,9.00,0.00,29.86,M,10.00,16.00,BKN,OVC,M,M,9500.00,12000.00,M,M,M,M,M,M,M,M,M,66.20,KRTS 010855Z AUTO 22009G16KT 10SM BKN095 OVC120 19/M00 A2986 RMK AO2,M
MEV,2023-09-01 08:55,-119.7500,38.9963,1441.42,68.00,30.20,24.32,180.00,18.00,0.00,29.82,M,10.00,M,CLR,M,M,M,M,M,M,M,M,M,M,M,M,M,M,68.00,KMEV 010855Z AUTO 18018KT 10SM CLR 20/M01 A2982 RMK AO2,M
HTH,2023-09-01 08:55,-118.6315,38.5448,1282.89,78.80,10.40,7.28,220.00,21.00,0.00,29.79,M,10.00,29.00,CLR,M,M,M,M,M,M,M,M,M,M,M,M,M,M,78.80,KHTH 010855Z AUTO 22021G29KT 10SM CLR 26/M12 A2979 RMK A01,M
BAM,2023-09-01 08:55,-116.8743,40.5990,1382.36,59.00,21.20,22.95,210.00,3.00,0.00,29.83,M,10.00,M,CLR,M,M,M,M,M,M,M,M,M,M,M,M,M,M,59.00,KBAM 010855Z AUTO 21003KT 10SM CLR 15/M06 A2983 RMK AO1,M
TMT,2023-09-01 08:55,-117.1971,39.4643,1749.34,46.20,26.40,45.69,230.00,3.00,0.00,29.92,M,M,M,CLR,M,M,M,M,M,M,M,M,M,M,M,M,M,M,44.92,KTMT 010855Z AUTO 23003KT CLR 08/M03 A2992 RMK AO2 T00791031 PWINO,M
10U,2023-09-01 08:55,-116.1876,41.9532,1637.00,51.80,21.20,29.82,160.00,3.00,0.00,29.85,M,10.00,M,CLR,M,M,M,M,M,M,M,M,M,M,M,M,M,M,51.80,K10U 010855Z AUTO 16003KT 10SM CLR 11/M06 A2985 RMK AO2,M
INS,2023-09-01 08:55,-115.6733,36.5872,955.00,88.50,41.00,18.97,180.00,15.00,0.00,29.79,1002.80,10.00,24.00,BKN,M,M,M,16000.00,M,M,M,M,M,M,M,31.00,200.00,2023-09-01 08:35,84.88,KINS 010855Z AUTO 18015G24KT 10SM BKN160 31/05 A2979 RMK AO2 PK WND 20031/35 SLP028 T03140050 53001 $,M
LSV,2023-09-01 08:55,-115.0343,36.2362,570.00,91.80,45.00,19.94,150.00,11.00,0.00,29.69,1002.10,10.00,M,SCT,M,M,M,14000.00,M,M,M,M,M,M,M,M,M,M,88.08,KLSV 010855Z AUTO 15011KT 10SM SCT140 33/07 A2969 RMK AO2 SLP021 60000 T03320072 50002 $,M
EKO,2023-09-01 08:56,-115.7860,40.8242,1367.00,55.00,27.00,33.79,0.00,0.00,0.00,29.84,1004.80,10.00,M,CLR,M,M,M,M,M,M,M,M,M,M,M,M,M,M,55.00,KEKO 010856Z AUTO 00000KT 10SM CLR 13/M03 A2984 RMK AO2 SLP048 T01281028 51005,M
WMC,2023-09-01 08:56,-117.8072,40.9019,1315.00,68.00,31.00,25.12,220.00,7.00,0.00,29.81,1003.70,10.00,M,FEW,M,M,M,12000.00,M,M,M,M,M,M,M,M,M,M,68.00,KWMC 010856Z AUTO 22007KT 10SM FEW120 20/M01 A2981 RMK AO2 SLP037 T02001006 50003,M
NFL,2023-09-01 08:56,-118.7010,39.4166,1199.00,70.00,40.00,33.52,310.00,3.00,0.00,29.77,1005.90,10.00,M,CLR,M,M,M,M,M,M,M,M,M,M,M,M,M,M,70.00,KNFL 010856Z AUTO 31003KT 10SM CLR 21/04 A2977 RMK AO2 SLP059 T02110044 58005,M
HND,2023-09-01 08:56,-115.1344,35.9729,742.79,89.00,47.00,23.49,190.00,14.00,0.00,29.79,1006.30,10.00,M,CLR,M,M,M,M,M,M,M,M,M,M,M,M,M,M,85.77,KHND 010856Z AUTO 19014KT 10SM CLR 32/08 A2979 RMK AO2 SLP063 T03170083 58002,M
TPH,2023-09-01 08:56,-117.0904,38.0505,1654.00,66.00,27.00,22.86,0.00,0.00,0.00,29.90,1003.60,10.00,M,CLR,M,M,M,M,M,M,M,M,M,M,M,M,M,M,66.00,KTPH 010856Z AUTO 00000KT 10SM CLR 19/M03 A2990 RMK AO2 SLP036 T01891028 53002,M
LAS,2023-09-01 08:56,-115.1634,36.0719,663.00,89.00,48.00,24.39,170.00,8.00,0.00,29.75,1003.80,10.00,M,OVC,M,M,M,15000.00,M,M,M,M,M,M,M,M,M,M,85.89,KLAS 010856Z 17008KT 10SM OVC150 32/09 A2975 RMK AO2 SLP038 T03170089 50000,M
05U,2023-09-01 09:10,-116.0051,39.6042,1811.23,55.40,21.20,26.13,M,M,0.00,29.93,M,10.00,M,CLR,M,M,M,M,M,M,M,M,M,M,M,M,M,M,55.40,K05U 010910Z AUTO 10SM CLR 13/M06 A2993 RMK A01,M
BAM,2023-09-01 09:10,-116.8743,40.5990,1382.36,60.80,21.20,21.53,180.00,3.00,0.00,29.83,M,10.00,M,CLR,M,M,M,M,M,M,M,M,M,M,M,M,M,M,60.80,KBAM 010910Z AUTO 18003KT 10SM CLR 16/M06 A2983 RMK AO1,M
TMT,2023-09-01 09:10,-117.1971,39.4643,1749.34,41.00,26.00,54.84,130.00,4.00,0.00,29.91,M,M,M,CLR,M,M,M,M,M,M,M,M,M,M,M,M,M,M,37.93,KTMT 010910Z AUTO 13004KT CLR 05/M03 A2991 RMK AO2 T00491033 PWINO,M
BVU,2023-09-01 09:15,-114.8611,35.9475,671.00,84.20,53.60,34.97,0.00,0.00,0.00,29.76,M,10.00,M,CLR,M,M,M,M,M,M,M,M,M,M,M,M,M,M,82.76,KBVU 010915Z AUTO 00000KT 10SM CLR 29/12 A2976 RMK AO2 LTG DSNT E-S,M
CXP,2023-09-01 09:15,-119.7326,39.1923,1431.00,59.00,35.60,41.42,0.00,0.00,0.00,29.84,M,10.00,M,CLR,M,M,M,M,M,M,M,M,M,M,M,M,M,M,59.00,KCXP 010915Z AUTO 00000KT 10SM CLR 15/02 A2984 RMK AO2,M
RTS,2023-09-01 09:15,-119.8764,39.6682,1539.00,66.20,32.00,27.83,0.00,0.00,0.00,29.86,M,10.00,M,OVC,M,M,M,9000.00,M,M,M,M,M,M,M,M,M,M,66.20,KRTS 010915Z AUTO 00000KT 10SM OVC090 19/M00 A2986 RMK AO2,M
MEV,2023-09-01 09:15,-119.7500,38.9963,1441.42,68.00,28.40,22.59,180.00,16.00,0.00,29.82,M,10.00,25.00,CLR,M,M,M,M,M,M,M,-RA,M,M,M,M,M,M,68.00,KMEV 010915Z AUTO 18016G25KT 10SM -RA CLR 20/M02 A2982 RMK AO2,M
HTH,2023-09-01 09:15,-118.6315,38.5448,1282.89,78.80,10.40,7.28,230.00,20.00,0.00,29.79,M,10.00,M,CLR,M,M,M,M,M,M,M,M,M,M,M,M,M,M,78.80,KHTH 010915Z AUTO 23020KT 10SM CLR 26/M12 A2979 RMK A01,M
10U,2023-09-01 09:15,-116.1876,41.9532,1637.00,53.60,21.20,27.91,210.00,5.00,0.00,29.86,M,10.00,M,CLR,M,M,M,M,M,M,M,M,M,M,M,M,M,M,53.60,K10U 010915Z AUTO 21005KT 10SM CLR 12/M06 A2986 RMK AO2,M
05U,2023-09-01 09:30,-116.0051,39.6042,1811.23,59.00,21.20,22.95,M,M,0.00,29.93,M,10.00,M,CLR,M,M,M,M,M,M,M,M,M,M,M,M,M,M,59.00,K05U 010930Z AUTO 10SM CLR 15/M06 A2993 RMK A01,M
BVU,2023-09-01 09:35,-114.8611,35.9475,671.00,84.20,55.40,37.35,0.00,0.00,0.00,29.78,M,10.00,M,FEW,FEW,SCT,M,5500.00,7500.00,9500.00,M,M,M,M,M,M,M,M,83.09,KBVU 010935Z AUTO 00000KT 10SM FEW055 FEW075 SCT095 29/13 A2978 RMK AO2 LTG DSNT NE-S,M
CXP,2023-09-01 09:35,-119.7326,39.1923,1431.00,59.00,33.80,38.56,0.00,0.00,0.00,29.84,M,10.00,M,CLR,M,M,M,M,M,M,M,M,M,M,M,M,M,M,59.00,KCXP 010935Z AUTO 00000KT 10SM CLR 15/01 A2984 RMK AO2,M
RTS,2023-09-01 09:35,-119.8764,39.6682,1539.00,66.20,32.00,27.83,220.00,10.00,0.00,29.85,M,10.00,M,OVC,M,M,M,9000.00,M,M,M,M,M,M,M,M,M,M,66.20,KRTS 010935Z AUTO 22010KT 10SM OVC090 19/M00 A2985 RMK AO2,M
MEV,2023-09-01 09:35,-119.7500,38.9963,1441.42,68.00,28.40,22.59,190.00,17.00,0.00,29.82,M,10.00,24.00,CLR,M,M,M,M,M,M,M,M,M,M,M,M,M,M,68.00,KMEV 010935Z AUTO 19017G24KT 10SM CLR 20/M02 A2982 RMK AO2,M
HTH,2023-09-01 09:35,-118.6315,38.5448,1282.89,77.00,10.40,7.72,220.00,19.00,0.00,29.78,M,10.00,25.00,CLR,M,M,M,M,M,M,M,M,M,M,M,M,M,M,77.00,KHTH 010935Z AUTO 22019G25KT 10SM CLR 25/M12 A2978 RMK A01,M
BAM,2023-09-01 09:35,-116.8743,40.5990,1382.36,64.40,23.00,20.46,170.00,3.00,0.00,29.82,M,10.00,M,CLR,M,M,M,M,M,M,M,M,M,M,M,M,M,M,64.40,KBAM 010935Z AUTO 17003KT 10SM CLR 18/M05 A2982 RMK AO1,M
TMT,2023-09-01 09:35,-117.1971,39.4643,1749.34,43.70,27.50,52.59,0.00,0.00,0.00,29.91,M,M,M,CLR,M,M,M,M,M,M,M,M,M,M,M,M,M,M,43.70,KTMT 010935Z AUTO 00000KT CLR 07/M02 A2991 RMK AO2 T00651025 PWINO,M
10U,2023-09-01 09:40,-116.1876,41.9532,1637.00,59.00,21.20,22.95,200.00,8.00,0.00,29.86,M,10.00,M,FEW,FEW,M,M,9500.00,12000.00,M,M,M,M,M,M,M,M,M,59.00,K10U 010940Z AUTO 20008KT 10SM FEW095 FEW120 15/M06 A2986 RMK AO2,M
LSV,2023-09-01 09:45,-115.0343,36.2362,570.00,91.40,44.60,19.89,150.00,12.00,0.00,29.71,1002.80,10.00,M,SCT,M,M,M,14000.00,M,M,M,-DZ,M,M,M,M,M,M,87.68,KLSV 010945Z AUTO 15012KT 10SM -DZ SCT140 33/07 A2971 RMK AO2 DZB45 SLP028 $,M
LSV,2023-09-01 09:46,-115.0343,36.2362,570.00,91.40,44.60,19.89,150.00,13.00,0.00,29.70,1002.50,10.00,M,SCT,M,M,M,14000.00,M,M,M,M,M,M,M,M,M,M,87.68,KLSV 010946Z AUTO 15013KT 10SM SCT140 33/07 A2970 RMK AO2 DZB45E46 SLP025 $,M
05U,2023-09-01 09:50,-116.0051,39.6042,1811.23,53.60,24.80,32.46,M,M,0.00,29.93,M,10.00,M,CLR,M,M,M,M,M,M,M,M,M,M,M,M,M,M,53.60,K05U 010950Z AUTO 10SM CLR 12/M04 A2993 RMK A01,M
P68,2023-09-01 09:53,-116.0056,39.6014,1993.00,53.00,26.00,34.88,180.00,8.00,0.00,29.91,1003.90,M,M,M,M,M,M,M,M,M,M,M,M,M,M,M,M,M,53.00,KP68 010953Z AUTO 18008KT 12/M03 A2991 RMK AO1 SLP039 T01171033,M
DRA,2023-09-01 09:53,-116.0278,36.6206,1009.00,85.00,40.00,20.40,200.00,17.00,0.00,29.80,1002.80,10.00,25.00,CLR,M,M,M,M,M,M,M,M,M,M,M,31.00,200.00,2023-09-01 09:17,82.06,KDRA 010953Z AUTO 20017G25KT 10SM CLR 29/04 A2980 RMK AO2 PK WND 20031/0917 SLP028 T02940044,M
ELY,2023-09-01 09:53,-114.8453,39.2950,1909.00,59.00,38.00,45.53,200.00,9.00,0.00,29.97,1003.60,10.00,M,CLR,M,M,M,M,M,M,M,M,M,M,M,M,M,M,59.00,KELY 010953Z AUTO 20009KT 10SM CLR 15/03 A2997 RMK AO2 SLP036 T01500033,M
VGT,2023-09-01 09:53,-115.1933,36.2111,667.00,90.00,47.00,22.76,130.00,7.00,0.00,29.75,1005.50,10.00,M,CLR,M,M,M,M,M,M,M,M,M,M,M,M,M,M,86.66,KVGT 010953Z AUTO 13007KT 10SM CLR 32/08 A2975 RMK AO2 LTG DSNT E AND SE SLP055 T03220083,M
LOL,2023-09-01 09:53,-118.5701,40.0684,1192.43,65.00,49.00,56.13,0.00,0.00,0.00,29.77,1003.50,10.00,M,CLR,M,M,M,M,M,M,M,M,M,M,M,M,M,M,65.00,KLOL 010953Z AUTO 00000KT 10SM CLR 18/09 A2977 RMK AO2 SLP035 T01830094,M
BVU,2023-09-01 09:55,-114.8611,35.9475,671.00,86.00,53.60,33.01,160.00,10.00,0.00,29.79,M,10.00,20.00,SCT,BKN,OVC,M,5500.00,7500.00,11000.00,M,VCTS,M,M,M,M,M,M,84.18,KBVU 010955Z AUTO 16010G20KT 10SM VCTS SCT055 BKN075 OVC110 30/12 A2979 RMK AO2 LTG DSNT E-SW,M
CXP,2023-09-01 09:55,-119.7326,39.1923,1431.00,59.00,33.80,38.56,340.00,3.00,0.00,29.84,M,10.00,M,CLR,M,M,M,M,M,M,M,M,M,M,M,M,M,M,59.00,KCXP 010955Z AUTO 34003KT 10SM CLR 15/01 A2984 RMK AO2,M
RNO,2023-09-01 09:55,-119.7711,39.4839,1341.00,64.00,38.00,38.15,0.00,0.00,0.00,29.81,1003.40,10.00,M,SCT,BKN,M,M,11000.00,15000.00,M,M,M,M,M,M,M,M,M,64.00,KRNO 010955Z 00000KT 10SM SCT110 BKN150 18/03 A2981 RMK AO2 SLP034 T01780033,M
RTS,2023-09-01 09:55,-119.8764,39.6682,1539.00,66.20,32.00,27.83,210.00,9.00,0.00,29.85,M,10.00,17.00,OVC,M,M,M,9000.00,M,M,M,M,M,M,M,M,M,M,66.20,KRTS 010955Z AUTO 21009G17KT 10SM OVC090 19/00 A2985 RMK AO2,M
MEV,2023-09-01 09:55,-119.7500,38.9963,1441.42,68.00,26.60,20.98,190.00,17.00,0.00,29.82,M,10.00,25.00,CLR,M,M,M,M,M,M,M,M,M,M,M,M,M,M,68.00,KMEV 010955Z AUTO 19017G25KT 10SM CLR 20/M03 A2982 RMK AO2,M
HTH,2023-09-01 09:55,-118.6315,38.5448,1282.89,77.00,10.40,7.72,190.00,12.00,0.00,29.80,M,10.00,M,CLR,M,M,M,M,M,M,M,M,M,M,M,M,M,M,77.00,KHTH 010955Z AUTO 19012KT 10SM CLR 25/M12 A2980 RMK A01,M
BAM,2023-09-01 09:55,-116.8743,40.5990,1382.36,60.80,21.20,21.53,200.00,3.00,0.00,29.83,M,10.00,M,CLR,M,M,M,M,M,M,M,M,M,M,M,M,M,M,60.80,KBAM 010955Z AUTO 20003KT 10SM CLR 16/M06 A2983 RMK AO1,M
TMT,2023-09-01 09:55,-117.1971,39.4643,1749.34,47.00,27.30,46.01,0.00,0.00,0.00,29.92,M,M,M,CLR,M,M,M,M,M,M,M,M,M,M,M,M,M,M,47.00,KTMT 010955Z AUTO 00000KT CLR 08/M03 A2992 RMK AO2 T00841026 PWINO,M
INS,2023-09-01 09:55,-115.6733,36.5872,955.00,87.30,41.00,19.71,170.00,13.00,0.00,29.79,1002.80,10.00,M,FEW,M,M,M,18000.00,M,M,M,M,M,M,M,28.00,210.00,2023-09-01 08:56,83.89,KINS 010955Z AUTO 17013KT 10SM FEW180 31/05 A2979 RMK AO2 PK WND 21028/0856 SLP028 T03070051 $,M
LSV,2023-09-01 09:55,-115.0343,36.2362,570.00,91.80,45.00,19.94,150.00,15.00,T,29.71,1002.80,10.00,M,SCT,M,M,M,14000.00,M,M,M,M,M,M,M,M,M,M,88.08,KLSV 010955Z AUTO 15015KT 10SM SCT140 33/07 A2971 RMK AO2 DZB45E46 SLP028 P0000 T03320072 $,M
EKO,2023-09-01 09:56,-115.7860,40.8242,1367.00,54.00,29.00,38.05,50.00,3.00,0.00,29.84,1004.80,10.00,M,CLR,M,M,M,M,M,M,M,M,M,M,M,M,M,M,54.00,KEKO 010956Z AUTO 05003KT 10SM CLR 12/M02 A2984 RMK AO2 SLP048 T01221017,M
WMC,2023-09-01 09:56,-117.8072,40.9019,1315.00,68.00,30.00,24.12,0.00,0.00,0.00,29.80,1003.20,10.00,M,SCT,M,M,M,12000.00,M,M,M,M,M,M,M,M,M,M,68.00,KWMC 010956Z AUTO 00000KT 10SM SCT120 20/M01 A2980 RMK AO2 SLP032 T02001011,M
NFL,2023-09-01 09:56,-118.7010,39.4166,1199.00,69.00,39.00,33.36,0.00,0.00,0.00,29.77,1006.00,10.00,M,CLR,M,M,M,M,M,M,M,M,M,M,M,M,M,M,69.00,KNFL 010956Z AUTO 00000KT 10SM CLR 21/04 A2977 RMK AO2 SLP060 T02060039,M
HND,2023-09-01 09:56,-115.1344,35.9729,742.79,89.00,46.00,22.61,170.00,8.00,0.00,29.81,1007.20,10.00,M,CLR,M,M,M,M,M,M,M,VCTS,M,M,M,M,M,M,85.67,KHND 010956Z AUTO 17008KT 10SM VCTS CLR 32/08 A2981 RMK AO2 LTG DSNT E-S TSB56 SLP072 T03170078,M
TPH,2023-09-01 09:56,-117.0904,38.0505,1654.00,58.00,32.00,37.18,120.00,5.00,0.00,29.90,1004.50,10.00,M,CLR,M,M,M,M,M,M,M,M,M,M,M,M,M,M,58.00,KTPH 010956Z AUTO 12005KT 10SM CLR 14/00 A2990 RMK AO2 SLP045 T01440000,M
LAS,2023-09-01 09:56,-115.1634,36.0719,663.00,89.00,47.00,23.49,190.00,7.00,0.00,29.76,1004.30,10.00,16.00,FEW,BKN,OVC,M,11000.00,15000.00,18000.00,M,M,M,M,M,M,M,M,85.77,KLAS 010956Z 19007G16KT 10SM FEW110 BKN150 OVC180 32/08 A2976 RMK AO2 LTG DSNT E-S SLP043 T03170083,M
LSV,2023-09-01 10:08,-115.0343,36.2362,570.00,91.40,48.20,22.78,140.00,13.00,0.00,29.72,1003.20,10.00,M,BKN,M,M,M,13000.00,M,M,M,-RA,M,M,M,M,M,M,88.09,KLSV 011008Z AUTO 14013KT 10SM -RA BKN130 33/09 A2972 RMK AO2 RAB08 SLP032 $,M
05U,2023-09-01 10:10,-116.0051,39.6042,1811.23,51.80,26.60,37.38,M,M,0.00,29.93,M,10.00,M,CLR,M,M,M,M,M,M,M,M,M,M,M,M,M,M,51.80,K05U 011010Z AUTO 10SM CLR 11/M03 A2993 RMK A01,M
BVU,2023-09-01 10:15,-114.8611,35.9475,671.00,78.80,66.20,65.33,150.00,26.00,0.00,29.80,M,9.00,M,FEW,SCT,BKN,M,2200.00,5500.00,7500.00,M,VCTS,M,M,M,M,M,M,78.80,KBVU 011015Z AUTO 15026KT 9SM VCTS FEW022 SCT055 BKN075 26/19 A2980 RMK AO2 LTG DSNT ALQDS,M
CXP,2023-09-01 10:15,-119.7326,39.1923,1431.00,59.00,33.80,38.56,330.00,3.00,0.00,29.83,M,10.00,M,CLR,M,M,M,M,M,M,M,M,M,M,M,M,M,M,59.00,KCXP 011015Z AUTO 33003KT 10SM CLR 15/01 A2983 RMK AO2,M
RTS,2023-09-01 10:15,-119.8764,39.6682,1539.00,66.20,32.00,27.83,M,4.00,0.00,29.85,M,10.00,M,OVC,M,M,M,9500.00,M,M,M,M,M,M,M,M,M,M,66.20,KRTS 011015Z AUTO VRB04KT 10SM OVC095 19/M00 A2985 RMK AO2,M
MEV,2023-09-01 10:15,-119.7500,38.9963,1441.42,68.00,26.60,20.98,190.00,17.00,0.00,29.81,M,10.00,24.00,CLR,M,M,M,M,M,M,M,M,M,M,M,M,M,M,68.00,KMEV 011015Z AUTO 19017G24KT 10SM CLR 20/M03 A2981 RMK AO2,M
HTH,2023-09-01 10:15,-118.6315,38.5448,1282.89,75.20,12.20,8.88,190.00,6.00,0.00,29.80,M,10.00,14.00,CLR,M,M,M,M,M,M,M,M,M,M,M,M,M,M,75.20,KHTH 011015Z AUTO 19006G14KT 10SM CLR 24/M11 A2980 RMK A01,M
BAM,2023-09-01 10:15,-116.8743,40.5990,1382.36,59.00,21.20,22.95,80.00,6.00,0.00,29.83,M,10.00,M,CLR,M,M,M,M,M,M,M,M,M,M,M,M,M,M,59.00,KBAM 011015Z AUTO 08006KT 10SM CLR 15/M06 A2983 RMK AO1,M
TMT,2023-09-01 10:15,-117.1971,39.4643,1749.34,46.00,27.00,47.20,140.00,4.00,0.00,29.92,M,M,M,CLR,M,M,M,M,M,M,M,M,M,M,M,M,M,M,43.77,KTMT 011015Z AUTO 14004KT CLR 08/M03 A2992 RMK AO2 T00781028 PWINO,M
10U,2023-09-01 10:20,-116.1876,41.9532,1637.00,60.80,21.20,21.53,200.00,7.00,0.00,29.86,M,10.00,M,CLR,M,M,M,M,M,M,M,M,M,M,M,M,M,M,60.80,K10U 011020Z AUTO 20007KT 10SM CLR 16/M06 A2986 RMK AO2,M
HND,2023-09-01 10:24,-115.1344,35.9729,742.79,87.80,48.20,25.52,180.00,15.00,0.00,29.82,M,10.00,23.00,BKN,M,M,M,10000.00,M,M,M,M,M,M,M,M,M,M,84.87,KHND 011024Z AUTO 18015G23KT 10SM BKN100 31/09 A2982 RMK AO2 LTG DSNT NE-S TSE18,M
LSV,2023-09-01 10:26,-115.0343,36.2362,570.00,89.60,55.40,31.45,90.00,14.00,0.00,29.73,1003.50,10.00,M,BKN,M,M,M,12000.00,M,M,M,M,M,M,M,M,M,M,87.78,KLSV 011026Z AUTO 09014KT 10SM BKN120 32/13 A2973 RMK AO2 LTG DSNT E RAB08E12DZB12E13RAB13E26 SLP035 $,M
05U,2023-09-01 10:30,-116.0051,39.6042,1811.23,48.20,32.00,53.27,M,M,0.00,29.93,M,10.00,M,CLR,M,M,M,M,M,M,M,M,M,M,M,M,M,M,M,K05U 011030Z AUTO 10SM CLR 09/M00 A2993 RMK A01,M
LSV,2023-09-01 10:31,-115.0343,36.2362,570.00,87.80,55.40,33.29,80.00,32.00,0.00,29.71,1002.90,10.00,40.00,BKN,BKN,M,M,11000.00,13000.00,M,M,SQ,M,M,M,M,M,M,86.11,KLSV 011031Z AUTO 08032G40KT 10SM SQ BKN110 BKN130 31/13 A2971 RMK AO2 LTG DSNT E RAB08E12DZB12E13RAB13E26 PRESFR SLP029 $,M
BVU,2023-09-01 10:35,-114.8611,35.9475,671.00,78.80,64.40,61.36,160.00,23.00,0.00,29.84,M,10.00,33.00,FEW,BKN,OVC,M,3700.00,6500.00,9500.00,M,M,M,M,M,M,M,M,78.80,KBVU 011035Z AUTO 16023G33KT 10SM FEW037 BKN065 OVC095 26/18 A2984 RMK AO2 LTG DSNT ALQDS,M
CXP,2023-09-01 10:35,-119.7326,39.1923,1431.00,59.00,32.00,35.87,320.00,5.00,0.00,29.83,M,10.00,M,CLR,M,M,M,M,M,M,M,M,M,M,M,M,M,M,59.00,KCXP 011035Z AUTO 32005KT 10SM CLR 15/00 A2983 RMK AO2,M
RTS,2023-09-01 10:35,-119.8764,39.6682,1539.00,66.20,30.20,25.88,0.00,0.00,0.00,29.84,M,10.00,M,OVC,M,M,M,9500.00,M,M,M,M,M,M,M,M,M,M,66.20,KRTS 011035Z AUTO 00000KT 10SM OVC095 19/M01 A2984 RMK AO2,M
MEV,2023-09-01 10:35,-119.7500,38.9963,1441.42,68.00,26.60,20.98,190.00,19.00,0.00,29.81,M,10.00,29.00,CLR,M,M,M,M,M,M,M,M,M,M,M,M,M,M,68.00,KMEV 011035Z AUTO 19019G29KT 10SM CLR 20/M03 A2981 RMK AO2,M
HTH,2023-09-01 10:35,-118.6315,38.5448,1282.89,75.20,14.00,9.61,140.00,7.00,0.00,29.81,M,10.00,M,CLR,M,M,M,M,M,M,M,M,M,M,M,M,M,M,75.20,KHTH 011035Z AUTO 14007KT 10SM CLR 24/M10 A2981 RMK A01,M
10U,2023-09-01 10:35,-116.1876,41.9532,1637.00,60.80,19.40,19.94,220.00,7.00,0.00,29.86,M,10.00,M,CLR,M,M,M,M,M,M,M,M,M,M,M,M,M,M,60.80,K10U 011035Z AUTO 22007KT 10SM CLR 16/M07 A2986 RMK AO2,M
BAM,2023-09-01 10:35,-116.8743,40.5990,1382.36,59.00,21.20,22.95,140.00,5.00,0.00,29.83,M,10.00,M,CLR,M,M,M,M,M,M,M,M,M,M,M,M,M,M,59.00,KBAM 011035Z AUTO 14005KT 10SM CLR 15/M06 A2983 RMK AO1,M
TMT,2023-09-01 10:35,-117.1971,39.4643,1749.34,44.60,28.00,51.87,160.00,3.00,0.00,29.92,M,M,M,CLR,M,M,M,M,M,M,M,M,M,M,M,M,M,M,43.09,KTMT 011035Z AUTO 16003KT CLR 07/M02 A2992 RMK AO2 T00701023 PWINO,M
05U,2023-09-01 10:50,-116.0051,39.6042,1811.23,46.40,30.20,53.00,M,M,0.00,29.93,M,10.00,M,CLR,M,M,M,M,M,M,M,M,M,M,M,M,M,M,M,K05U 011050Z AUTO 10SM CLR 08/M01 A2993 RMK A01,M
INS,2023-09-01 10:53,-115.6733,36.5872,955.00,87.80,42.80,20.79,170.00,11.00,0.00,29.81,1003.50,10.00,19.00,SCT,BKN,M,M,15000.00,18000.00,M,M,M,M,M,M,M,M,M,84.40,KINS 011053Z AUTO 17011G19KT 10SM SCT150 BKN180 31/06 A2981 RMK AO2 WSHFT 51 SLP035 $,M
P68,2023-09-01 10:53,-116.0056,39.6014,1993.00,48.00,31.00,51.54,M,3.00,0.00,29.90,1004.10,M,M,M,M,M,M,M,M,M,M,M,M,M,M,M,M,M,46.98,KP68 011053Z AUTO VRB03KT 09/M01 A2990 RMK AO1 SLP041 T00891006,M
DRA,2023-09-01 10:53,-116.0278,36.6206,1009.00,84.00,42.00,22.77,210.00,15.00,0.00,29.79,1002.70,10.00,30.00,CLR,M,M,M,M,M,M,M,M,M,M,M,30.00,200.00,2023-09-01 10:41,81.42,KDRA 011053Z AUTO 21015G30KT 10SM CLR 29/06 A2979 RMK AO2 PK WND 20030/1041 SLP027 T02890056,M
ELY,2023-09-01 10:53,-114.8453,39.2950,1909.00,60.00,42.00,51.33,190.00,11.00,0.00,29.96,1003.10,10.00,M,CLR,M,M,M,M,M,M,M,M,M,M,M,M,M,M,60.00,KELY 011053Z AUTO 19011KT 10SM CLR 16/06 A2996 RMK AO2 SLP031 T01560056,M
VGT,2023-09-01 10:53,-115.1933,36.2111,667.00,91.00,46.00,21.24,170.00,15.00,0.00,29.78,1006.40,10.00,M,BKN,M,M,M,11000.00,M,M,M,M,M,M,M,M,M,M,87.45,KVGT 011053Z AUTO 17015KT 10SM BKN110 33/08 A2978 RMK AO2 LTG DSNT SE AND S SLP064 T03280078,M
LOL,2023-09-01 10:53,-118.5701,40.0684,1192.43,63.00,44.00,49.84,60.00,4.00,0.00,29.76,1003.60,10.00,M,CLR,M,M,M,M,M,M,M,M,M,M,M,M,M,M,63.00,KLOL 011053Z AUTO 06004KT 10SM CLR 17/07 A2976 RMK AO2 SLP036 T01720067,M
INS,2023-09-01 10:54,-115.6733,36.5872,955.00,87.80,42.80,20.79,120.00,10.00,0.00,29.81,1003.50,10.00,19.00,SCT,BKN,M,M,15000.00,17000.00,M,M,M,M,M,M,M,M,M,84.40,KINS 011054Z AUTO 12010G19KT 10SM SCT150 BKN170 31/06 A2981 RMK AO2 WSHFT 53 SLP035 $,M
BVU,2023-09-01 10:55,-114.8611,35.9475,671.00,78.80,64.40,61.36,170.00,17.00,0.00,29.88,M,10.00,27.00,FEW,SCT,BKN,M,4400.00,6500.00,7500.00,M,M,M,M,M,M,M,M,78.80,KBVU 011055Z AUTO 17017G27KT 10SM FEW044 SCT065 BKN075 26/18 A2988 RMK AO2 LTG DSNT E AND SW AND NW,M
CXP,2023-09-01 10:55,-119.7326,39.1923,1431.00,60.80,32.00,33.64,280.00,3.00,0.00,29.83,M,10.00,M,CLR,M,M,M,M,M,M,M,M,M,M,M,M,M,M,60.80,KCXP 011055Z AUTO 28003KT 10SM CLR 16/00 A2983 RMK AO2,M
RNO,2023-09-01 10:55,-119.7711,39.4839,1341.00,64.00,39.00,39.67,0.00,0.00,0.00,29.80,1003.00,10.00,M,BKN,BKN,M,M,11000.00,15000.00,M,M,M,M,M,M,M,M,M,64.00,KRNO 011055Z 00000KT 10SM BKN110 BKN150 18/04 A2980 RMK AO2 SLP030 T01780039,M
RTS,2023-09-01 10:55,-119.8764,39.6682,1539.00,66.20,32.00,27.83,110.00,4.00,0.00,29.84,M,10.00,M,OVC,M,M,M,9500.00,M,M,M,M,M,M,M,M,M,M,66.20,KRTS 011055Z AUTO 11004KT 10SM OVC095 19/M00 A2984 RMK AO2,M
MEV,2023-09-01 10:55,-119.7500,38.9963,1441.42,68.00,26.60,20.98,190.00,24.00,0.00,29.80,M,10.00,29.00,CLR,M,M,M,M,M,M,M,M,M,M,M,M,M,M,68.00,KMEV 011055Z AUTO 19024G29KT 10SM CLR 20/M03 A2980 RMK AO2,M
HTH,2023-09-01 10:55,-118.6315,38.5448,1282.89,75.20,14.00,9.61,0.00,0.00,0.00,29.80,M,10.00,M,CLR,M,M,M,M,M,M,M,M,M,M,M,M,M,M,75.20,KHTH 011055Z AUTO 00000KT 10SM CLR 24/M10 A2980 RMK A01,M
BAM,2023-09-01 10:55,-116.8743,40.5990,1382.36,59.00,23.00,24.76,0.00,0.00,0.00,29.83,M,10.00,M,CLR,M,M,M,M,M,M,M,M,M,M,M,M,M,M,59.00,KBAM 011055Z AUTO 00000KT 10SM CLR 15/M05 A2983 RMK AO1,M
TMT,2023-09-01 10:55,-117.1971,39.4643,1749.34,46.00,29.00,51.24,0.00,0.00,0.00,29.91,M,M,M,CLR,M,M,M,M,M,M,M,M,M,M,M,M,M,M,46.00,KTMT 011055Z AUTO 00000KT CLR 08/M02 A2991 RMK AO2 T00771016 PWINO,M
10U,2023-09-01 10:55,-116.1876,41.9532,1637.00,62.60,19.40,18.71,210.00,10.00,0.00,29.86,M,10.00,M,CLR,M,M,M,M,M,M,M,M,M,M,M,M,M,M,62.60,K10U 011055Z AUTO 21010KT 10SM CLR 17/M07 A2986 RMK AO2,M
INS,2023-09-01 10:55,-115.6733,36.5872,955.00,88.00,42.00,20.03,90.00,9.00,0.00,29.81,1003.50,10.00,18.00,BKN,BKN,M,M,15000.00,17000.00,M,M,M,M,M,M,28.00,220.00,2023-09-01 10:48,84.52,KINS 011055Z AUTO 09009G18KT 10SM BKN150 BKN170 31/06 A2981 RMK AO2 PK WND 22028/48 SLP035 T03110055 $,M
LSV,2023-09-01 10:55,-115.0343,36.2362,570.00,82.20,66.00,58.05,120.00,25.00,0.01,29.76,1004.80,10.00,40.00,OVC,M,M,M,11000.00,M,M,M,M,M,M,M,M,M,M,84.35,KLSV 011055Z AUTO 12025G40KT 10SM OVC110 28/19 A2976 RMK AO2 RAB08E12DZB12E13RAB13E26 PRESRR SLP048 P0001 T02790188 $,M
EKO,2023-09-01 10:56,-115.7860,40.8242,1367.00,58.00,28.00,31.59,80.00,3.00,0.00,29.84,1004.20,10.00,M,CLR,M,M,M,M,M,M,M,M,M,M,M,M,M,M,58.00,KEKO 011056Z AUTO 08003KT 10SM CLR 14/M02 A2984 RMK AO2 SLP042 T01441022,M
WMC,2023-09-01 10:56,-117.8072,40.9019,1315.00,66.00,32.00,28.03,70.00,4.00,0.00,29.80,1003.60,10.00,M,CLR,M,M,M,M,M,M,M,M,M,M,M,M,M,M,66.00,KWMC 011056Z AUTO 07004KT 10SM CLR 19/00 A2980 RMK AO2 SLP036 T01890000,M
NFL,2023-09-01 10:56,-118.7010,39.4166,1199.00,66.00,44.00,44.88,0.00,0.00,0.00,29.76,1005.70,10.00,M,CLR,M,M,M,M,M,M,M,M,M,M,M,M,M,M,66.00,KNFL 011056Z AUTO 00000KT 10SM CLR 19/07 A2976 RMK AO2 SLP057 T01890067,M
HND,2023-09-01 10:56,-115.1344,35.9729,742.79,78.00,66.00,66.61,160.00,27.00,T,29.84,1008.80,10.00,34.00,OVC,M,M,M,11000.00,M,M,M,-RA,M,M,M,39.00,150.00,2023-09-01 10:38,78.00,KHND 011056Z AUTO 16027G34KT 10SM -RA OVC110 26/19 A2984 RMK AO2 PK WND 15039/1038 LTG DSNT E-S TSE18RAB48 SLP088 P0000 T02560189,M
TPH,2023-09-01 10:56,-117.0904,38.0505,1654.00,56.00,33.00,41.60,0.00,0.00,0.00,29.91,1004.70,10.00,M,CLR,M,M,M,M,M,M,M,M,M,M,M,M,M,M,56.00,KTPH 011056Z AUTO 00000KT 10SM CLR 13/01 A2991 RMK AO2 SLP047 T01330006,M
LAS,2023-09-01 10:56,-115.1634,36.0719,663.00,80.00,66.00,62.37,170.00,18.00,T,29.79,1005.70,9.00,35.00,FEW,SCT,OVC,M,11000.00,15000.00,18000.00,M,-RA,M,M,M,40.00,170.00,2023-09-01 10:41,82.07,KLAS 011056Z 17018G35KT 9SM -RA FEW110 SCT150 OVC180 27/19 A2979 RMK AO2 PK WND 17040/1041 LTG DSNT SE AND S RAB48 SLP057 P0000 T02670189,M
INS,2023-09-01 11:00,-115.6733,36.5872,955.00,86.00,42.80,22.02,170.00,13.00,0.00,29.80,1003.10,10.00,22.00,BKN,BKN,M,M,15000.00,18000.00,M,M,M,M,M,M,M,M,M,82.95,KINS 011100Z AUTO 17013G22KT 10SM BKN150 BKN180 30/06 A2980 RMK AO2 WSHFT 1059 SLP031 $,M
HND,2023-09-01 11:03,-115.1344,35.9729,742.79,78.80,66.20,65.33,160.00,28.00,T,29.84,M,10.00,37.00,FEW,OVC,M,M,6000.00,11000.00,M,M,VCTS -RA,M,M,M,37.00,160.00,2023-09-01 10:58,78.80,KHND 011103Z AUTO 16028G37KT 10SM VCTS -RA FEW060 OVC110 26/19 A2984 RMK AO2 PK WND 16037/1058 LTG DSNT E AND SE AND NW TSB1057 P0000,M
INS,2023-09-01 11:05,-115.6733,36.5872,955.00,87.80,41.00,19.40,160.00,19.00,0.00,29.80,1003.10,10.00,22.00,BKN,OVC,M,M,15000.00,18000.00,M,M,M,M,M,M,M,M,M,84.30,KINS 011105Z AUTO 16019G22KT 10SM BKN150 OVC180 31/05 A2980 RMK AO2 WSHFT 01 SLP031 $,M
VGT,2023-09-01 11:07,-115.1933,36.2111,667.00,86.00,61.00,43.10,160.00,24.00,0.00,29.80,M,10.00,34.00,FEW,BKN,M,M,6000.00,11000.00,M,M,TS,M,M,M,34.00,160.00,2023-09-01 10:59,86.12,KVGT 011107Z AUTO 16024G34KT 10SM TS FEW060 BKN110 30/16 A2980 RMK AO2 PK WND 16034/1059 LTG DSNT SE AND S TSB01 PRESRR T03000161,M
LAS,2023-09-01 11:07,-115.1634,36.0719,663.00,79.00,66.00,64.45,170.00,22.00,T,29.79,M,10.00,42.00,BKN,M,M,M,11000.00,M,M,M,VCTS,M,M,M,42.00,160.00,2023-09-01 11:01,79.00,KLAS 011107Z 17022G42KT 10SM VCTS BKN110 26/19 A2979 RMK AO2 PK WND 16042/1101 LTG DSNT SE AND S RAE02 TSE01 P0000 T02610189,M
05U,2023-09-01 11:10,-116.0051,39.6042,1811.23,48.20,28.40,46.02,M,M,0.00,29.93,M,10.00,M,CLR,M,M,M,M,M,M,M,M,M,M,M,M,M,M,M,K05U 011110Z AUTO 10SM CLR 09/M02 A2993 RMK A01,M
BVU,2023-09-01 11:15,-114.8611,35.9475,671.00,77.00,66.20,69.33,170.00,7.00,0.00,29.89,M,10.00,M,FEW,SCT,OVC,M,5000.00,6500.00,7500.00,M,VCTS DZ,M,M,M,M,M,M,77.00,KBVU 011115Z AUTO 17007KT 130V200 10SM VCTS DZ FEW050 SCT065 OVC075 25/19 A2989 RMK AO2 LTG DSNT ALQDS,M
CXP,2023-09-01 11:15,-119.7326,39.1923,1431.00,62.60,30.20,29.35,M,3.00,0.00,29.82,M,10.00,M,CLR,M,M,M,M,M,M,M,M,M,M,M,M,M,M,62.60,KCXP 011115Z AUTO VRB03KT 10SM CLR 17/M01 A2982 RMK AO2,M
RTS,2023-09-01 11:15,-119.8764,39.6682,1539.00,66.20,30.20,25.88,M,3.00,0.00,29.83,M,10.00,M,OVC,M,M,M,9500.00,M,M,M,M,M,M,M,M,M,M,66.20,KRTS 011115Z AUTO VRB03KT 10SM OVC095 19/M01 A2983 RMK AO2,M
MEV,2023-09-01 11:15,-119.7500,38.9963,1441.42,68.00,26.60,20.98,190.00,20.00,0.00,29.80,M,10.00,29.00,CLR,M,M,M,M,M,M,M,M,M,M,M,M,M,M,68.00,KMEV 011115Z AUTO 19020G29KT 10SM CLR 20/M03 A2980 RMK AO2,M
HTH,2023-09-01 11:15,-118.6315,38.5448,1282.89,75.20,15.80,10.40,220.00,6.00,0.00,29.79,M,10.00,M,CLR,M,M,M,M,M,M,M,M,M,M,M,M,M,M,75.20,KHTH 011115Z AUTO 22006KT 10SM CLR 24/M09 A2979 RMK A01,M
BAM,2023-09-01 11:15,-116.8743,40.5990,1382.36,60.80,23.00,23.23,0.00,0.00,0.00,29.83,M,10.00,M,CLR,M,M,M,M,M,M,M,M,M,M,M,M,M,M,60.80,KBAM 011115Z AUTO 00000KT 10SM CLR 16/M05 A2983 RMK AO1,M
TMT,2023-09-01 11:15,-117.1971,39.4643,1749.34,43.50,29.50,57.51,0.00,0.00,0.00,29.91,M,M,M,CLR,M,M,M,M,M,M,M,M,M,M,M,M,M,M,43.50,KTMT 011115Z AUTO 00000KT CLR 06/M01 A2991 RMK AO2 T00641014 PWINO,M
HND,2023-09-01 11:18,-115.1344,35.9729,742.79,77.00,66.20,69.33,160.00,28.00,T,29.85,M,10.00,39.00,SCT,M,M,M,11000.00,M,M,M,M,M,M,M,39.00,160.00,2023-09-01 11:13,77.00,KHND 011118Z AUTO 16028G39KT 10SM SCT110 25/19 A2985 RMK AO2 PK WND 16039/1113 LTG DSNT E TSB1057E12RAE16 P0000,M
10U,2023-09-01 11:20,-116.1876,41.9532,1637.00,60.80,21.20,21.53,200.00,6.00,0.00,29.86,M,10.00,M,FEW,SCT,SCT,M,7500.00,8500.00,10000.00,M,M,M,M,M,M,M,M,60.80,K10U 011120Z AUTO 20006KT 10SM FEW075 SCT085 SCT100 16/M06 A2986 RMK AO2,M
VGT,2023-09-01 11:22,-115.1933,36.2111,667.00,84.00,64.00,51.08,150.00,18.00,T,29.82,M,10.00,29.00,OVC,M,M,M,11000.00,M,M,M,-RA,M,M,M,34.00,160.00,2023-09-01 10:59,85.36,KVGT 011122Z AUTO 15018G29KT 10SM -RA OVC110 29/18 A2982 RMK AO2 PK WND 16034/1059 LTG DSNT SE RAB18 TSB01E16 PRESRR P0000 T02890178,M
LAS,2023-09-01 11:22,-115.1634,36.0719,663.00,78.00,66.00,66.61,170.00,20.00,T,29.81,M,10.00,35.00,FEW,BKN,M,M,9000.00,11000.00,M,M,M,M,M,M,42.00,160.00,2023-09-01 11:01,78.00,KLAS 011122Z 17020G35KT 10SM FEW090 BKN110CB 26/19 A2981 RMK AO2 PK WND 16042/1101 LTG DSNT SE RAE02 TSE01 P0000 T02560189,M
05U,2023-09-01 11:30,-116.0051,39.6042,1811.23,50.00,28.40,43.03,M,M,0.00,29.93,M,10.00,M,CLR,M,M,M,M,M,M,M,M,M,M,M,M,M,M,50.00,K05U 011130Z AUTO 10SM CLR 10/M02 A2993 RMK A01,M
BVU,2023-09-01 11:35,-114.8611,35.9475,671.00,73.40,68.00,83.21,170.00,14.00,0.00,29.88,M,2.50,M,FEW,SCT,BKN,M,500.00,2600.00,4800.00,M,VCTS RA,M,M,M,M,M,M,73.40,KBVU 011135Z AUTO 17014KT 2 1/2SM VCTS RA FEW005 SCT026 BKN048 23/20 A2988 RMK AO2 LTG DSNT ALQDS VIS 2V3,M
CXP,2023-09-01 11:35,-119.7326,39.1923,1431.00,64.40,28.40,25.60,M,5.00,0.00,29.82,M,10.00,M,CLR,M,M,M,M,M,M,M,M,M,M,M,M,M,M,64.40,KCXP 011135Z AUTO VRB05KT 10SM CLR 18/M02 A2982 RMK AO2,M
RTS,2023-09-01 11:35,-119.8764,39.6682,1539.00,66.20,30.20,25.88,0.00,0.00,0.00,29.83,M,10.00,M,OVC,M,M,M,10000.00,M,M,M,M,M,M,M,M,M,M,66.20,KRTS 011135Z AUTO 00000KT 10SM OVC100 19/M01 A2983 RMK AO2,M
MEV,2023-09-01 11:35,-119.7500,38.9963,1441.42,68.00,26.60,20.98,190.00,23.00,0.00,29.80,M,10.00,30.00,CLR,M,M,M,M,M,M,M,M,M,M,M,M,M,M,68.00,KMEV 011135Z AUTO 19023G30KT 10SM CLR 20/M03 A2980 RMK AO2,M
HTH,2023-09-01 11:35,-118.6315,38.5448,1282.89,73.40,15.80,11.05,M,6.00,0.00,29.80,M,10.00,11.00,CLR,M,M,M,M,M,M,M,M,M,M,M,M,M,M,73.40,KHTH 011135Z AUTO VRB06G11KT 10SM CLR 23/M09 A2980 RMK A01,M
10U,2023-09-01 11:40,-116.1876,41.9532,1637.00,57.20,21.20,24.49,180.00,5.00,0.00,29.86,M,10.00,M,FEW,SCT,SCT,M,7500.00,10000.00,12000.00,M,M,M,M,M,M,M,M,57.20,K10U 011140Z AUTO 18005KT 10SM FEW075 SCT100 SCT120 14/M06 A2986 RMK AO2,M
05U,2023-09-01 11:50,-116.0051,39.6042,1811.23,53.60,26.60,34.98,M,M,0.00,29.93,M,10.00,M,CLR,M,M,M,M,M,M,M,M,M,M,M,M,M,M,53.60,K05U 011150Z AUTO 10SM CLR 12/M03 A2993 RMK A01,M
HND,2023-09-01 11:52,-115.1344,35.9729,742.79,75.20,64.40,69.14,150.00,24.00,T,29.86,M,10.00,29.00,FEW,SCT,M,M,5000.00,11000.00,M,M,VCTS -RA,M,M,M,39.00,160.00,2023-09-01 11:13,75.20,KHND 011152Z AUTO 15024G29KT 10SM VCTS -RA FEW050 SCT110 24/18 A2986 RMK AO2 PK WND 16039/1113 LTG DSNT E AND SE AND W TSB1057E12B46 P0000,M
P68,2023-09-01 11:53,-116.0056,39.6014,1993.00,57.00,28.00,32.75,0.00,0.00,0.00,29.91,1003.50,M,M,M,M,M,M,M,M,M,M,M,M,M,M,M,M,M,57.00,KP68 011153Z AUTO 00000KT 14/M02 A2991 RMK AO1 SLP035 T01391022 10167 20078 57001,M
DRA,2023-09-01 11:53,-116.0278,36.6206,1009.00,84.00,42.00,22.77,200.00,21.00,0.00,29.80,1002.90,10.00,34.00,CLR,M,M,M,M,M,M,M,M,M,M,M,34.00,200.00,2023-09-01 11:45,81.42,KDRA 011153Z AUTO 20021G34KT 10SM CLR 29/06 A2980 RMK AO2 PK WND 20034/1145 SLP029 T02890056 10306 20289 55003,M
ELY,2023-09-01 11:53,-114.8453,39.2950,1909.00,58.00,43.00,57.30,200.00,10.00,0.00,29.98,1004.10,10.00,M,CLR,M,M,M,M,M,M,M,M,M,M,M,M,M,M,58.00,KELY 011153Z AUTO 20010KT 10SM CLR 14/06 A2998 RMK AO2 SLP041 T01440061 10217 20144 53005,M
VGT,2023-09-01 11:53,-115.1933,36.2111,667.00,82.00,63.00,52.62,150.00,15.00,T,29.85,1009.10,10.00,32.00,SCT,OVC,M,M,9000.00,11000.00,M,M,M,M,M,M,34.00,160.00,2023-09-01 10:59,83.17,KVGT 011153Z AUTO 15015G32KT 10SM SCT090 OVC110 28/17 A2985 RMK AO2 PK WND 16034/1059 LTG DSNT SE-SW RAB18E37 TSB01E16 SLP091 P0000 60000 7//// T02780172 10333 20278 53034,M
LOL,2023-09-01 11:53,-118.5701,40.0684,1192.43,64.00,44.00,48.12,310.00,6.00,0.00,29.76,1003.20,10.00,M,CLR,M,M,M,M,M,M,M,M,M,M,M,M,M,M,64.00,KLOL 011153Z AUTO 31006KT 10SM CLR 18/07 A2976 RMK AO2 SLP032 60000 T01780067 10228 20161 56005,M
BVU,2023-09-01 11:55,-114.8611,35.9475,671.00,73.40,66.20,78.19,190.00,12.00,0.00,29.90,M,5.00,M,SCT,BKN,OVC,M,600.00,2500.00,6500.00,M,TSRA,M,M,M,M,M,M,73.40,KBVU 011155Z AUTO 19012KT 5SM TSRA SCT006 BKN025 OVC065 23/19 A2990 RMK AO2,M
CXP,2023-09-01 11:55,-119.7326,39.1923,1431.00,66.20,28.40,24.04,0.00,0.00,0.00,29.82,M,10.00,M,CLR,M,M,M,M,M,M,M,M,M,M,M,M,M,M,66.20,KCXP 011155Z AUTO 00000KT 10SM CLR 19/M02 A2982 RMK AO2,M
RNO,2023-09-01 11:55,-119.7711,39.4839,1341.00,64.00,39.00,39.67,M,4.00,0.00,29.78,1002.80,10.00,M,BKN,M,M,M,11000.00,M,M,M,M,M,M,M,M,M,M,64.00,KRNO 011155Z VRB04KT 10SM BKN110 18/04 A2978 RMK AO2 SLP028 T01780039 10222 20172 58011,M
RTS,2023-09-01 11:55,-119.8764,39.6682,1539.00,64.40,30.20,27.55,140.00,6.00,0.00,29.83,M,10.00,M,OVC,M,M,M,10000.00,M,M,M,M,M,M,M,M,M,M,64.40,KRTS 011155Z AUTO 14006KT 10SM OVC100 18/M01 A2983 RMK AO2,M
MEV,2023-09-01 11:55,-119.7500,38.9963,1441.42,68.00,28.40,22.59,190.00,21.00,0.00,29.80,M,10.00,29.00,CLR,M,M,M,M,M,M,M,M,M,M,M,M,M,M,68.00,KMEV 011155Z AUTO 19021G29KT 10SM CLR 20/M02 A2980 RMK AO2,M
HTH,2023-09-01 11:55,-118.6315,38.5448,1282.89,75.20,15.80,10.40,220.00,8.00,0.00,29.79,M,10.00,M,CLR,M,M,M,M,M,M,M,M,M,M,M,M,M,M,75.20,KHTH 011155Z AUTO 22008KT 10SM CLR 24/M09 A2979 RMK A01,M
TMT,2023-09-01 11:55,-117.1971,39.4643,1749.34,43.70,31.00,60.66,230.00,5.00,0.00,29.90,M,M,M,CLR,M,M,M,M,M,M,M,M,M,M,M,M,M,M,40.29,KTMT 011155Z AUTO 23005KT CLR 07/M01 A2990 RMK AO2 T00651006 10115 20048 PWINO,M
BAM,2023-09-01 11:55,-116.8743,40.5990,1382.36,59.00,24.80,26.70,20.00,3.00,0.00,29.82,M,10.00,M,CLR,M,M,M,M,M,M,M,M,M,M,M,M,M,M,59.00,KBAM 011155Z AUTO 02003KT 10SM CLR 15/M04 A2982 RMK AO1,M
10U,2023-09-01 11:55,-116.1876,41.9532,1637.00,57.20,21.20,24.49,180.00,6.00,0.00,29.87,M,10.00,M,FEW,M,M,M,12000.00,M,M,M,M,M,M,M,M,M,M,57.20,K10U 011155Z AUTO 18006KT 10SM FEW120 14/M06 A2987 RMK AO2,M
INS,2023-09-01 11:55,-115.6733,36.5872,955.00,79.00,60.30,52.75,90.00,31.00,0.00,29.82,1004.30,8.00,46.00,SCT,OVC,M,M,10000.00,13000.00,M,M,M,M,M,M,46.00,90.00,2023-09-01 11:45,79.00,KINS 011155Z AUTO 09031G46KT 8SM SCT100 OVC130 26/16 A2982 RMK AO2 PK WND 09046/45 SLP043 T02610157 10322 20261 52009 $,M
LSV,2023-09-01 11:55,-115.0343,36.2362,570.00,78.30,66.40,66.88,120.00,14.00,0.00,29.82,1006.90,10.00,26.00,OVC,M,M,M,11000.00,M,M,M,M,M,M,M,33.00,110.00,2023-09-01 11:26,78.30,KLSV 011155Z AUTO 12014G26KT 10SM OVC110 26/19 A2982 RMK AO2 PK WND 11033/26 LTG DSNT S PRESRR SLP069 60001 70001 T02570191 10334 20257 52041 $,M
EKO,2023-09-01 11:56,-115.7860,40.8242,1367.00,51.00,26.00,37.55,90.00,7.00,0.00,29.86,1005.50,10.00,M,CLR,M,M,M,M,M,M,M,M,M,M,M,M,M,M,51.00,KEKO 011156Z AUTO 09007KT 10SM CLR 11/M03 A2986 RMK AO2 SLP055 T01061033 10150 20106 53005,M
WMC,2023-09-01 11:56,-117.8072,40.9019,1315.00,67.00,32.00,27.07,50.00,4.00,0.00,29.81,1003.80,10.00,M,FEW,M,M,M,12000.00,M,M,M,M,M,M,M,M,M,M,67.00,KWMC 011156Z AUTO 05004KT 10SM FEW120 19/00 A2981 RMK AO2 SLP038 T01940000 10239 20183 55000,M
NFL,2023-09-01 11:56,-118.7010,39.4166,1199.00,65.00,46.00,50.14,320.00,3.00,0.00,29.75,1005.40,10.00,M,CLR,M,M,M,M,M,M,M,M,M,M,M,M,M,M,65.00,KNFL 011156Z AUTO 32003KT 10SM CLR 18/08 A2975 RMK AO2 SLP054 T01830078 10256 20183 58005,M
HND,2023-09-01 11:56,-115.1344,35.9729,742.79,76.00,65.00,68.74,160.00,26.00,T,29.86,1009.60,10.00,31.00,FEW,SCT,SCT,M,5000.00,9000.00,11000.00,M,VCTS -RA,M,M,M,39.00,160.00,2023-09-01 11:13,76.00,KHND 011156Z AUTO 16026G31KT 10SM VCTS -RA FEW050 SCT090 SCT110 24/18 A2986 RMK AO2 PK WND 16039/1113 LTG DSNT E AND SE AND W TSB1057E12B46 SLP096 P0000 60000 T02440183 10317 20239 51018,M
TPH,2023-09-01 11:56,-117.0904,38.0505,1654.00,62.00,29.00,28.54,160.00,8.00,0.00,29.90,1004.00,10.00,M,CLR,M,M,M,M,M,M,M,M,M,M,M,M,M,M,62.00,KTPH 011156Z AUTO 16008KT 10SM CLR 17/M02 A2990 RMK AO2 SLP040 T01671017 10200 20117 58000,M
LAS,2023-09-01 11:56,-115.1634,36.0719,663.00,78.00,64.00,62.12,160.00,14.00,T,29.83,1007.10,10.00,31.00,BKN,M,M,M,12000.00,M,M,M,M,M,M,M,42.00,160.00,2023-09-01 11:01,78.00,KLAS 011156Z 16014G31KT 10SM BKN120 26/18 A2983 RMK AO2 PK WND 16042/1101 LTG DSNT ALQDS RAE02 TSE01 SLP071 CB DSNT E-S P0000 60000 70001 T02560178 10322 20256 53028,M
LAS,2023-09-01 12:09,-115.1634,36.0719,663.00,78.00,64.00,62.12,170.00,14.00,0.00,29.85,M,10.00,26.00,BKN,M,M,M,12000.00,M,M,M,TS,M,M,M,26.00,160.00,2023-09-01 12:09,78.00,KLAS 011209Z 17014G26KT 10SM TS BKN120CB 26/18 A2985 RMK AO2 PK WND 16026/1209 LTG DSNT E-SW TSB09 PRESRR OCNL LTGICCG NE TS NE MOV N T02560178,M
05U,2023-09-01 12:10,-116.0051,39.6042,1811.23,53.60,28.40,37.67,M,M,0.00,29.93,M,10.00,M,CLR,M,M,M,M,M,M,M,M,M,M,M,M,M,M,53.60,K05U 011210Z AUTO 10SM CLR 12/M02 A2993 RMK A01,M
BVU,2023-09-01 12:15,-114.8611,35.9475,671.00,73.40,68.00,83.21,80.00,4.00,0.00,29.90,M,10.00,10.00,SCT,SCT,OVC,M,600.00,2200.00,3300.00,M,TS,M,M,M,M,M,M,73.40,KBVU 011215Z AUTO 08004G10KT 10SM TS SCT006 SCT022 OVC033 23/20 A2990 RMK AO2 LTG DSNT ALQDS,M
CXP,2023-09-01 12:15,-119.7326,39.1923,1431.00,64.40,28.40,25.60,200.00,8.00,0.00,29.81,M,10.00,M,CLR,M,M,M,M,M,M,M,M,M,M,M,M,M,M,64.40,KCXP 011215Z AUTO 20008KT 10SM CLR 18/M02 A2981 RMK AO2,M
RTS,2023-09-01 12:15,-119.8764,39.6682,1539.00,66.20,30.20,25.88,0.00,0.00,0.00,29.82,M,10.00,M,OVC,M,M,M,10000.00,M,M,M,M,M,M,M,M,M,M,66.20,KRTS 011215Z AUTO 00000KT 10SM OVC100 19/M01 A2982 RMK AO2,M
MEV,2023-09-01 12:15,-119.7500,38.9963,1441.42,68.00,28.40,22.59,190.00,20.00,0.00,29.80,M,10.00,30.00,CLR,M,M,M,M,M,M,M,M,M,M,M,M,M,M,68.00,KMEV 011215Z AUTO 19020G30KT 10SM CLR 20/M02 A2980 RMK AO2,M
HTH,2023-09-01 12:15,-118.6315,38.5448,1282.89,75.20,14.00,9.61,M,3.00,0.00,29.78,M,10.00,16.00,CLR,M,M,M,M,M,M,M,M,M,M,M,M,M,M,75.20,KHTH 011215Z AUTO VRB03G16KT 10SM CLR 24/M10 A2978 RMK A01,M
10U,2023-09-01 12:15,-116.1876,41.9532,1637.00,57.20,23.00,26.42,270.00,4.00,0.00,29.88,M,10.00,M,CLR,M,M,M,M,M,M,M,M,M,M,M,M,M,M,57.20,K10U 011215Z AUTO 27004KT 10SM CLR 14/M05 A2988 RMK AO2,M
BAM,2023-09-01 12:15,-116.8743,40.5990,1382.36,59.00,28.40,30.98,120.00,7.00,0.00,29.82,M,10.00,M,CLR,M,M,M,M,M,M,M,M,M,M,M,M,M,M,59.00,KBAM 011215Z AUTO 12007KT 10SM CLR 15/M02 A2982 RMK AO1,M
TMT,2023-09-01 12:15,-117.1971,39.4643,1749.34,39.60,29.30,66.32,110.00,5.00,0.00,29.91,M,M,M,CLR,M,M,M,M,M,M,M,M,M,M,M,M,M,M,35.42,KTMT 011215Z AUTO 11005KT CLR 04/M01 A2991 RMK AO2 T00421015 PWINO,M
05U,2023-09-01 12:30,-116.0051,39.6042,1811.23,55.40,26.60,32.76,M,M,0.00,29.93,M,10.00,M,CLR,M,M,M,M,M,M,M,M,M,M,M,M,M,M,55.40,K05U 011230Z AUTO 10SM CLR 13/M03 A2993 RMK A01,M
BVU,2023-09-01 12:35,-114.8611,35.9475,671.00,71.60,68.00,88.43,300.00,11.00,0.00,29.91,M,10.00,M,SCT,BKN,OVC,M,2500.00,2900.00,3400.00,M,TS,M,M,M,M,M,M,71.60,KBVU 011235Z AUTO 30011KT 10SM TS SCT025 BKN029 OVC034 22/20 A2991 RMK AO2 LTG DSNT W-NE,M
CXP,2023-09-01 12:35,-119.7326,39.1923,1431.00,64.40,28.40,25.60,210.00,4.00,0.00,29.81,M,10.00,M,CLR,M,M,M,M,M,M,M,M,M,M,M,M,M,M,64.40,KCXP 011235Z AUTO 21004KT 10SM CLR 18/M02 A2981 RMK AO2,M
RTS,2023-09-01 12:35,-119.8764,39.6682,1539.00,66.20,30.20,25.88,0.00,0.00,0.00,29.82,M,10.00,M,OVC,M,M,M,8500.00,M,M,M,M,M,M,M,M,M,M,66.20,KRTS 011235Z AUTO 00000KT 10SM OVC085 19/M01 A2982 RMK AO2,M
MEV,2023-09-01 12:35,-119.7500,38.9963,1441.42,68.00,26.60,20.98,190.00,24.00,0.00,29.80,M,10.00,M,CLR,M,M,M,M,M,M,M,M,M,M,M,M,M,M,68.00,KMEV 011235Z AUTO 19024KT 10SM CLR 20/M03 A2980 RMK AO2,M
HTH,2023-09-01 12:35,-118.6315,38.5448,1282.89,75.20,15.80,10.40,180.00,6.00,0.00,29.78,M,10.00,M,CLR,M,M,M,M,M,M,M,M,M,M,M,M,M,M,75.20,KHTH 011235Z AUTO 18006KT 10SM CLR 24/M09 A2978 RMK A01,M
BAM,2023-09-01 12:35,-116.8743,40.5990,1382.36,59.00,24.80,26.70,270.00,5.00,0.00,29.84,M,10.00,M,CLR,M,M,M,M,M,M,M,M,M,M,M,M,M,M,59.00,KBAM 011235Z AUTO 27005KT 10SM CLR 15/M04 A2984 RMK AO1,M
TMT,2023-09-01 12:35,-117.1971,39.4643,1749.34,40.30,28.00,61.19,0.00,0.00,0.00,29.90,M,M,M,CLR,M,M,M,M,M,M,M,M,M,M,M,M,M,M,40.30,KTMT 011235Z AUTO 00000KT CLR 05/M02 A2990 RMK AO2 T00461023 PWINO,M
10U,2023-09-01 12:35,-116.1876,41.9532,1637.00,55.40,23.00,28.20,270.00,4.00,0.00,29.88,M,10.00,M,FEW,M,M,M,11000.00,M,M,M,M,M,M,M,M,M,M,55.40,K10U 011235Z AUTO 27004KT 10SM FEW110 13/M05 A2988 RMK AO2,M
LSV,2023-09-01 12:40,-115.0343,36.2362,570.00,78.80,68.00,69.52,90.00,7.00,0.00,29.87,1008.60,10.00,M,FEW,SCT,BKN,BKN,3000.00,3700.00,4900.00,7000.00,M,M,M,M,M,M,M,78.80,KLSV 011240Z AUTO 09007KT 10SM FEW030 SCT037 BKN049 BKN070 OVC110 26/20 A2987 RMK AO2 LTG DSNT NE AND SE AND SW PRESRR SLP086 $,M
HND,2023-09-01 12:43,-115.1344,35.9729,742.79,75.20,62.60,64.91,160.00,22.00,T,29.90,M,10.00,32.00,FEW,BKN,M,M,7500.00,11000.00,M,M,M,M,M,M,35.00,150.00,2023-09-01 11:57,75.20,KHND 011243Z AUTO 16022G32KT 10SM FEW075 BKN110 24/17 A2990 RMK AO2 PK WND 15035/1157 LTG DSNT NE AND E AND W TSE37RAE09 P0000,M
LSV,2023-09-01 12:47,-115.0343,36.2362,570.00,77.00,68.00,73.78,130.00,11.00,0.00,29.87,1008.70,10.00,17.00,FEW,BKN,BKN,OVC,2700.00,3700.00,4900.00,6500.00,-DZ,M,M,M,M,M,M,77.00,KLSV 011247Z AUTO 13011G17KT 10SM -DZ FEW027 BKN037 BKN049 OVC065 25/20 A2987 RMK AO2 LTG DSNT NE-E AND SW DZB47 SLP087 $,M
05U,2023-09-01 12:50,-116.0051,39.6042,1811.23,55.40,24.80,30.40,M,M,0.00,29.93,M,10.00,M,CLR,M,M,M,M,M,M,M,M,M,M,M,M,M,M,55.40,K05U 011250Z AUTO 10SM CLR 13/M04 A2993 RMK A01,M
P68,2023-09-01 12:53,-116.0056,39.6014,1993.00,58.00,26.00,29.09,0.00,0.00,0.00,29.90,1003.70,M,M,M,M,M,M,M,M,M,M,M,M,M,M,M,M,M,58.00,KP68 011253Z AUTO 00000KT 14/M03 A2990 RMK AO1 SLP037 T01441033,M
DRA,2023-09-01 12:53,-116.0278,36.6206,1009.00,84.00,40.00,21.07,180.00,14.00,0.00,29.84,1004.30,10.00,27.00,CLR,M,M,M,M,M,M,M,M,M,M,M,34.00,190.00,2023-09-01 12:07,81.33,KDRA 011253Z AUTO 18014G27KT 10SM CLR 29/04 A2984 RMK AO2 PK WND 19034/1207 SLP043 T02890044,M
ELY,2023-09-01 12:53,-114.8453,39.2950,1909.00,58.00,43.00,57.30,200.00,9.00,0.00,29.98,1004.40,10.00,M,CLR,M,M,M,M,M,M,M,M,M,M,M,M,M,M,58.00,KELY 011253Z AUTO 20009KT 10SM CLR 14/06 A2998 RMK AO2 SLP044 T01440061,M
VGT,2023-09-01 12:53,-115.1933,36.2111,667.00,79.00,65.00,62.25,130.00,16.00,0.00,29.90,1010.90,10.00,M,BKN,BKN,OVC,M,4800.00,5500.00,11000.00,M,VCTS,M,M,M,28.00,130.00,2023-09-01 12:08,79.00,KVGT 011253Z 13016KT 10SM VCTS BKN048 BKN055 OVC110 26/18 A2990 RMK AO2 PK WND 13028/1208 LTG DSNT E-S SLP109 T02610183,M
LOL,2023-09-01 12:53,-118.5701,40.0684,1192.43,60.00,45.00,57.58,0.00,0.00,0.00,29.75,1003.30,10.00,M,SCT,M,M,M,12000.00,M,M,M,M,M,M,M,M,M,M,60.00,KLOL 011253Z AUTO 00000KT 10SM SCT120 16/07 A2975 RMK AO2 SLP033 T01560072,M
BVU,2023-09-01 12:55,-114.8611,35.9475,671.00,75.20,66.20,73.61,160.00,6.00,0.00,29.91,M,10.00,M,FEW,SCT,OVC,M,2500.00,3000.00,5000.00,M,M,M,M,M,M,M,M,75.20,KBVU 011255Z AUTO 16006KT 10SM FEW025 SCT030 OVC050 24/19 A2991 RMK AO2 LTG DSNT NE,M
CXP,2023-09-01 12:55,-119.7326,39.1923,1431.00,64.40,30.20,27.55,210.00,5.00,0.00,29.82,M,10.00,M,CLR,M,M,M,M,M,M,M,M,M,M,M,M,M,M,64.40,KCXP 011255Z AUTO 21005KT 10SM CLR 18/M01 A2982 RMK AO2,M
RNO,2023-09-01 12:55,-119.7711,39.4839,1341.00,70.00,31.00,23.45,250.00,5.00,0.00,29.78,1002.20,10.00,M,BKN,M,M,M,11000.00,M,M,M,M,M,M,M,M,M,M,70.00,KRNO 011255Z 25005KT 10SM BKN110 21/M01 A2978 RMK AO2 SLP022 T02111006,M
RTS,2023-09-01 12:55,-119.8764,39.6682,1539.00,64.40,30.20,27.55,0.00,0.00,0.00,29.82,M,10.00,M,OVC,M,M,M,8500.00,M,M,M,M,M,M,M,M,M,M,64.40,KRTS 011255Z AUTO 00000KT 10SM OVC085 18/M01 A2982 RMK AO2,M
MEV,2023-09-01 12:55,-119.7500,38.9963,1441.42,68.00,26.60,20.98,190.00,19.00,0.00,29.79,M,10.00,29.00,CLR,M,M,M,M,M,M,M,M,M,M,M,M,M,M,68.00,KMEV 011255Z AUTO 19019G29KT 10SM CLR 20/M03 A2979 RMK AO2,M
HTH,2023-09-01 12:55,-118.6315,38.5448,1282.89,75.20,14.00,9.61,170.00,8.00,0.00,29.78,M,10.00,18.00,CLR,M,M,M,M,M,M,M,M,M,M,M,M,M,M,75.20,KHTH 011255Z AUTO 17008G18KT 10SM CLR 24/M10 A2978 RMK A01,M
BAM,2023-09-01 12:55,-116.8743,40.5990,1382.36,57.20,26.60,30.69,350.00,3.00,0.00,29.84,M,10.00,M,CLR,M,M,M,M,M,M,M,M,M,M,M,M,M,M,57.20,KBAM 011255Z AUTO 35003KT 10SM CLR 14/M03 A2984 RMK AO1,M
TMT,2023-09-01 12:55,-117.1971,39.4643,1749.34,40.50,29.70,65.09,290.00,4.00,0.00,29.90,M,M,M,CLR,M,M,M,M,M,M,M,M,M,M,M,M,M,M,37.35,KTMT 011255Z AUTO 29004KT CLR 05/M01 A2990 RMK AO2 T00471013 PWINO,M
INS,2023-09-01 12:55,-115.6733,36.5872,955.00,74.30,62.20,65.95,90.00,39.00,0.00,29.84,1005.10,8.00,44.00,BKN,M,M,M,12000.00,M,M,M,M,M,M,M,46.00,80.00,2023-09-01 12:41,74.30,KINS 011255Z AUTO 09039G44KT 8SM BKN120 24/17 A2984 RMK AO2 PK WND 08046/41 SLP051 T02350168 $,M
LSV,2023-09-01 12:55,-115.0343,36.2362,570.00,76.30,67.30,73.71,110.00,15.00,0.02,29.88,1009.10,9.00,21.00,FEW,BKN,BKN,OVC,2700.00,3900.00,4900.00,6500.00,-RA,M,M,M,M,M,M,76.30,KLSV 011255Z AUTO 11015G21KT 9SM -RA FEW027 BKN039 BKN049 OVC065 25/20 A2988 RMK AO2 LTG DSNT NE-E DZB47E49RAB49 SLP091 P0002 T02460196 $,M
EKO,2023-09-01 12:56,-115.7860,40.8242,1367.00,52.00,25.00,34.72,40.00,3.00,0.00,29.87,1005.90,10.00,M,CLR,M,M,M,M,M,M,M,M,M,M,M,M,M,M,52.00,KEKO 011256Z AUTO 04003KT 10SM CLR 11/M04 A2987 RMK AO2 SLP059 T01111039,M
WMC,2023-09-01 12:56,-117.8072,40.9019,1315.00,64.00,33.00,31.28,350.00,5.00,0.00,29.81,1004.20,10.00,M,CLR,M,M,M,M,M,M,M,M,M,M,M,M,M,M,64.00,KWMC 011256Z AUTO 35005KT 10SM CLR 18/01 A2981 RMK AO2 SLP042 T01780006,M
NFL,2023-09-01 12:56,-118.7010,39.4166,1199.00,65.00,44.00,46.47,0.00,0.00,0.00,29.74,1005.10,10.00,M,CLR,M,M,M,M,M,M,M,M,M,M,M,M,M,M,65.00,KNFL 011256Z AUTO 00000KT 10SM CLR 18/07 A2974 RMK AO2 SLP051 T01830067,M
HND,2023-09-01 12:56,-115.1344,35.9729,742.79,76.00,63.00,64.09,170.00,22.00,T,29.90,1011.00,10.00,30.00,SCT,BKN,M,M,7500.00,11000.00,M,M,TS,M,M,M,35.00,150.00,2023-09-01 11:57,76.00,KHND 011256Z 17022G30KT 10SM TS SCT075 BKN110 24/17 A2990 RMK AO2 PK WND 15035/1157 LTG DSNT NE AND E TSE37B52RAE09 SLP110 P0000 T02440172,M
TPH,2023-09-01 12:56,-117.0904,38.0505,1654.00,59.00,30.00,33.08,110.00,5.00,0.00,29.91,1004.90,10.00,M,CLR,M,M,M,M,M,M,M,M,M,M,M,M,M,M,59.00,KTPH 011256Z AUTO 11005KT 10SM CLR 15/M01 A2991 RMK AO2 SLP049 T01501011,M
LAS,2023-09-01 12:56,-115.1634,36.0719,663.00,77.00,63.00,62.00,180.00,12.00,T,29.90,1009.30,10.00,26.00,FEW,BKN,OVC,M,5000.00,9000.00,11000.00,M,-TSRA,M,M,M,26.00,160.00,2023-09-01 12:09,77.00,KLAS 011256Z 18012G26KT 10SM -TSRA FEW050 BKN090 OVC110CB 25/17 A2990 RMK AO2 PK WND 16026/1209 LTG DSNT NE AND E RAB56 TSB09 SLP093 OCNL LTGICCCCG NE AND S TS NE AND S MOV NE P0000 T02500172,M
10U,2023-09-01 13:00,-116.1876,41.9532,1637.00,55.40,24.80,30.40,0.00,0.00,0.00,29.90,M,10.00,M,SCT,M,M,M,11000.00,M,M,M,M,M,M,M,M,M,M,55.40,K10U 011300Z AUTO 00000KT 10SM SCT110 13/M04 A2990 RMK AO2,M
LAS,2023-09-01 13:04,-115.1634,36.0719,663.00,71.00,68.00,90.25,160.00,8.00,0.04,29.90,M,3.00,25.00,FEW,BKN,OVC,M,5000.00,9000.00,11000.00,M,+TSRA BR,M,M,M,M,M,M,71.00,KLAS 011304Z 16008G25KT 3SM +TSRA BR FEW050 BKN090 OVC110CB 22/20 A2990 RMK AO2 LTG DSNT ALQDS OCNL LTGICCCCG OHD-NE TS OHD-NE MOV NE P0004 T02170200,M
05U,2023-09-01 13:10,-116.0051,39.6042,1811.23,57.20,23.00,26.42,M,M,0.00,29.93,M,10.00,M,CLR,M,M,M,M,M,M,M,M,M,M,M,M,M,M,57.20,K05U 011310Z AUTO 10SM CLR 14/M05 A2993 RMK A01,M
LSV,2023-09-01 13:11,-115.0343,36.2362,570.00,73.40,69.80,88.51,100.00,16.00,0.00,29.87,1008.80,10.00,M,FEW,SCT,SCT,BKN,2600.00,3300.00,4100.00,6000.00,VCTS -RA,M,M,M,M,M,M,73.40,KLSV 011311Z AUTO 10016KT 10SM VCTS -RA FEW026 SCT033 SCT041 BKN060 23/21 A2987 RMK AO2 SLP088 $,M
BVU,2023-09-01 13:15,-114.8611,35.9475,671.00,75.20,64.40,69.14,150.00,14.00,0.00,29.91,M,10.00,M,FEW,BKN,OVC,M,3100.00,5000.00,9500.00,M,VCTS,M,M,M,M,M,M,75.20,KBVU 011315Z AUTO 15014KT 10SM VCTS FEW031 BKN050 OVC095 24/18 A2991 RMK AO2 LTG DSNT NE AND NW,M
CXP,2023-09-01 13:15,-119.7326,39.1923,1431.00,64.40,30.20,27.55,190.00,5.00,0.00,29.82,M,10.00,M,FEW,SCT,M,M,9000.00,11000.00,M,M,M,M,M,M,M,M,M,64.40,KCXP 011315Z AUTO 19005KT 10SM FEW090 SCT110 18/M01 A2982 RMK AO2,M
RTS,2023-09-01 13:15,-119.8764,39.6682,1539.00,66.20,28.40,24.04,0.00,0.00,0.00,29.82,M,10.00,M,OVC,M,M,M,8500.00,M,M,M,M,M,M,M,M,M,M,66.20,KRTS 011315Z AUTO 00000KT 10SM OVC085 19/M02 A2982 RMK AO2,M
MEV,2023-09-01 13:15,-119.7500,38.9963,1441.42,66.20,28.40,24.04,190.00,22.00,0.00,29.79,M,10.00,28.00,CLR,M,M,M,M,M,M,M,M,M,M,M,M,M,M,66.20,KMEV 011315Z AUTO 19022G28KT 10SM CLR 19/M02 A2979 RMK AO2,M
HTH,2023-09-01 13:15,-118.6315,38.5448,1282.89,75.20,15.80,10.40,190.00,6.00,0.00,29.78,M,10.00,13.00,CLR,M,M,M,M,M,M,M,M,M,M,M,M,M,M,75.20,KHTH 011315Z AUTO 19006G13KT 10SM CLR 24/M09 A2978 RMK A01,M
BAM,2023-09-01 13:15,-116.8743,40.5990,1382.36,57.20,28.40,33.05,30.00,3.00,0.00,29.84,M,10.00,M,CLR,M,M,M,M,M,M,M,M,M,M,M,M,M,M,57.20,KBAM 011315Z AUTO 03003KT 10SM CLR 14/M02 A2984 RMK AO1,M
TMT,2023-09-01 13:15,-117.1971,39.4643,1749.34,41.40,29.70,62.86,0.00,0.00,0.00,29.90,M,M,M,CLR,M,M,M,M,M,M,M,M,M,M,M,M,M,M,41.40,KTMT 011315Z AUTO 00000KT CLR 05/M01 A2990 RMK AO2 T00521013 PWINO,M
10U,2023-09-01 13:20,-116.1876,41.9532,1637.00,55.40,26.60,32.76,300.00,5.00,0.00,29.92,M,10.00,M,SCT,M,M,M,12000.00,M,M,M,M,M,M,M,M,M,M,55.40,K10U 011320Z AUTO 30005KT 10SM SCT120 13/M03 A2992 RMK AO2,M
LSV,2023-09-01 13:22,-115.0343,36.2362,570.00,71.60,69.80,94.06,100.00,11.00,0.00,29.89,1009.60,3.00,M,SCT,SCT,BKN,BKN,2900.00,3900.00,4600.00,5500.00,VCTS -RA BR,M,M,M,M,M,M,71.60,KLSV 011322Z AUTO 10011KT 3SM VCTS -RA BR SCT029 SCT039 BKN046 BKN055 22/21 A2989 RMK AO2 SLP096 $,M
LAS,2023-09-01 13:24,-115.1634,36.0719,663.00,74.00,65.00,73.50,170.00,9.00,0.08,29.91,M,10.00,16.00,SCT,BKN,BKN,M,5000.00,9000.00,11000.00,M,-RA,M,M,M,M,M,M,74.00,KLAS 011324Z 17009G16KT 10SM -RA SCT050 BKN090 BKN110 23/18 A2991 RMK AO2 LTG DSNT ALQDS TSE24 TS MOV NE CB DSNT NE AND SW-W P0008 T02330183,M
LSV,2023-09-01 13:29,-115.0343,36.2362,570.00,71.60,71.60,100.00,90.00,8.00,0.00,29.89,1009.60,2.75,M,BKN,BKN,M,M,2900.00,5500.00,M,M,VCTS -RA BR,M,M,M,M,M,M,71.60,KLSV 011329Z AUTO 09008KT 2 3/4SM VCTS -RA BR BKN029 BKN055 22/22 A2989 RMK AO2 VIS 2 3/4V5 CIG 029V046 BKN029 V SCT SLP096 $,M
LSV,2023-09-01 13:30,-115.0343,36.2362,570.00,71.60,71.60,100.00,80.00,8.00,0.00,29.89,1009.60,3.00,M,BKN,BKN,BKN,M,2900.00,5000.00,6000.00,M,VCTS -RA BR,M,M,M,M,M,M,71.60,KLSV 011330Z AUTO 08008KT 3SM VCTS -RA BR BKN029 BKN050 BKN060 22/22 A2989 RMK AO2 CIG 029V046 BKN029 V SCT SLP096 $,M
05U,2023-09-01 13:30,-116.0051,39.6042,1811.23,53.60,24.80,32.46,M,M,0.00,29.94,M,10.00,M,CLR,M,M,M,M,M,M,M,M,M,M,M,M,M,M,53.60,K05U 011330Z AUTO 10SM CLR 12/M04 A2994 RMK A01,M
LSV,2023-09-01 13:32,-115.0343,36.2362,570.00,71.60,69.80,94.06,80.00,8.00,0.00,29.89,1009.60,4.00,M,SCT,BKN,M,M,2900.00,5500.00,M,M,VCTS -RA BR,M,M,M,M,M,M,71.60,KLSV 011332Z AUTO 08008KT 4SM VCTS -RA BR SCT029 BKN055 22/21 A2989 RMK AO2 SLP096 $,M
BVU,2023-09-01 13:35,-114.8611,35.9475,671.00,75.20,64.40,69.14,150.00,9.00,0.00,29.91,M,10.00,M,FEW,SCT,BKN,M,5000.00,6500.00,9500.00,M,M,M,M,M,M,M,M,75.20,KBVU 011335Z AUTO 15009KT 10SM FEW050 SCT065 BKN095 24/18 A2991 RMK AO2,M
CXP,2023-09-01 13:35,-119.7326,39.1923,1431.00,64.40,28.40,25.60,210.00,5.00,0.00,29.82,M,10.00,M,FEW,SCT,M,M,9000.00,11000.00,M,M,M,M,M,M,M,M,M,64.40,KCXP 011335Z AUTO 21005KT 10SM FEW090 SCT110 18/M02 A2982 RMK AO2,M
RTS,2023-09-01 13:35,-119.8764,39.6682,1539.00,64.40,28.40,25.60,330.00,4.00,0.00,29.83,M,10.00,M,OVC,M,M,M,8500.00,M,M,M,M,M,M,M,M,M,M,64.40,KRTS 011335Z AUTO 33004KT 10SM OVC085 18/M02 A2983 RMK AO2,M
MEV,2023-09-01 13:35,-119.7500,38.9963,1441.42,66.20,28.40,24.04,190.00,19.00,0.00,29.80,M,10.00,28.00,CLR,M,M,M,M,M,M,M,M,M,M,M,M,M,M,66.20,KMEV 011335Z AUTO 19019G28KT 10SM CLR 19/M02 A2980 RMK AO2,M
BAM,2023-09-01 13:35,-116.8743,40.5990,1382.36,57.20,26.60,30.69,110.00,6.00,0.00,29.84,M,10.00,M,CLR,M,M,M,M,M,M,M,M,M,M,M,M,M,M,57.20,KBAM 011335Z AUTO 11006KT 10SM CLR 14/M03 A2984 RMK AO1,M
HTH,2023-09-01 13:35,-118.6315,38.5448,1282.89,73.40,17.60,11.94,220.00,7.00,0.00,29.78,M,10.00,M,CLR,M,M,M,M,M,M,M,M,M,M,M,M,M,M,73.40,KHTH 011335Z AUTO 22007KT 10SM CLR 23/M08 A2978 RMK A01,M
TMT,2023-09-01 13:35,-117.1971,39.4643,1749.34,40.50,28.40,61.72,0.00,0.00,0.00,29.90,M,M,M,CLR,M,M,M,M,M,M,M,M,M,M,M,M,M,M,40.50,KTMT 011335Z AUTO 00000KT CLR 05/M02 A2990 RMK AO2 LTG DSNT S T00471020 PWINO,M
10U,2023-09-01 13:40,-116.1876,41.9532,1637.00,59.00,32.00,35.87,300.00,4.00,0.00,29.92,M,10.00,M,FEW,M,M,M,11000.00,M,M,M,M,M,M,M,M,M,M,59.00,K10U 011340Z AUTO 30004KT 10SM FEW110 15/00 A2992 RMK AO2,M
NFL,2023-09-01 13:42,-118.7010,39.4166,1199.00,65.00,46.00,50.14,290.00,3.00,0.00,29.75,M,10.00,M,FEW,BKN,M,M,10000.00,15000.00,M,M,M,M,M,M,M,M,M,65.00,KNFL 011342Z 29003KT 10SM FEW100 BKN150 18/08 A2975 RMK AO2 T01830078,M
LAS,2023-09-01 13:42,-115.1634,36.0719,663.00,73.00,68.00,84.34,80.00,4.00,0.08,29.93,M,10.00,M,SCT,BKN,M,M,5000.00,9000.00,M,M,-TSRA,M,M,M,M,M,M,73.00,KLAS 011342Z 08004KT 10SM -TSRA SCT050 BKN090CB 23/20 A2993 RMK AO2 LTG DSNT NE AND SW AND W TSE24B42 OCNL LTGIC W TS W MOV NE P0008 T02280200,M
VGT,2023-09-01 13:48,-115.1933,36.2111,667.00,73.40,66.20,78.19,140.00,10.00,0.02,29.94,M,6.00,M,BKN,BKN,M,M,4100.00,10000.00,M,M,-TSRA,M,M,M,M,M,M,73.40,KVGT 011348Z 14010KT 6SM -TSRA BKN041 BKN100 23/19 A2994 RMK AO2 LTG DSNT NE AND E AND SW RAB09 TSB42 PRESRR P0002,M
05U,2023-09-01 13:50,-116.0051,39.6042,1811.23,57.20,24.80,28.48,M,M,0.00,29.94,M,10.00,M,CLR,M,M,M,M,M,M,M,M,M,M,M,M,M,M,57.20,K05U 011350Z AUTO 10SM CLR 14/M04 A2994 RMK A01,M
P68,2023-09-01 13:53,-116.0056,39.6014,1993.00,56.00,26.00,31.27,0.00,0.00,0.00,29.92,1004.80,M,M,M,M,M,M,M,M,M,M,M,M,M,M,M,M,M,56.00,KP68 011353Z AUTO 00000KT 13/M03 A2992 RMK AO1 SLP048 T01331033,M
DRA,2023-09-01 13:53,-116.0278,36.6206,1009.00,80.00,48.00,32.57,170.00,22.00,0.00,29.84,1004.90,10.00,30.00,CLR,M,M,M,M,M,M,M,M,M,M,M,30.00,170.00,2023-09-01 13:42,79.37,KDRA 011353Z AUTO 17022G30KT 10SM CLR 27/09 A2984 RMK AO2 PK WND 17030/1342 SLP049 T02670089,M
ELY,2023-09-01 13:53,-114.8453,39.2950,1909.00,64.00,47.00,53.92,170.00,17.00,0.00,29.99,1004.60,10.00,27.00,CLR,M,M,M,M,M,M,M,M,M,M,M,27.00,180.00,2023-09-01 13:52,64.00,KELY 011353Z AUTO 17017G27KT 10SM CLR 18/08 A2999 RMK AO2 PK WND 18027/1352 SLP046 T01780083,M
VGT,2023-09-01 13:53,-115.1933,36.2111,667.00,73.00,68.00,84.34,150.00,15.00,0.09,29.94,1012.80,3.00,M,FEW,BKN,OVC,M,2900.00,4100.00,10000.00,M,+TSRA,M,M,M,M,M,M,73.00,KVGT 011353Z 15015KT 3SM +TSRA FEW029 BKN041 OVC100 23/20 A2994 RMK AO2 LTG DSNT NE AND E AND SW RAB09 TSB42 SLP128 P0009 T02280200,M
LOL,2023-09-01 13:53,-118.5701,40.0684,1192.43,60.00,44.00,55.42,130.00,3.00,0.00,29.76,1003.80,10.00,M,FEW,M,M,M,12000.00,M,M,M,M,M,M,M,M,M,M,60.00,KLOL 011353Z AUTO 13003KT 10SM FEW120 16/07 A2976 RMK AO2 SLP038 T01560067,M
BVU,2023-09-01 13:55,-114.8611,35.9475,671.00,73.40,66.20,78.19,140.00,5.00,0.00,29.92,M,10.00,M,FEW,SCT,SCT,M,6500.00,9500.00,12000.00,M,M,M,M,M,M,M,M,73.40,KBVU 011355Z AUTO 14005KT 10SM FEW065 SCT095 SCT120 23/19 A2992 RMK AO2 LTG DSNT N AND NW,M
CXP,2023-09-01 13:55,-119.7326,39.1923,1431.00,66.20,28.40,24.04,200.00,6.00,0.00,29.82,M,10.00,M,FEW,FEW,M,M,9000.00,11000.00,M,M,M,M,M,M,M,M,M,66.20,KCXP 011355Z AUTO 20006KT 10SM FEW090 FEW110 19/M02 A2982 RMK AO2,M
VGT,2023-09-01 13:55,-115.1933,36.2111,667.00,72.00,68.00,87.24,170.00,15.00,0.03,29.94,M,1.00,M,SCT,BKN,OVC,M,3400.00,4100.00,10000.00,M,+TSRA BR,M,M,M,M,M,M,72.00,KVGT 011355Z 17015KT 1SM +TSRA BR SCT034 BKN041 OVC100 22/20 A2994 RMK AO2 LTG DSNT NE AND E AND SW P0003 T02220200,M
RNO,2023-09-01 13:55,-119.7711,39.4839,1341.00,69.00,29.00,22.37,220.00,5.00,0.00,29.79,1002.80,10.00,M,SCT,BKN,BKN,M,9000.00,12000.00,18000.00,M,M,M,M,M,M,M,M,69.00,KRNO 011355Z 22005KT 10SM SCT090 BKN120 BKN180 21/M02 A2979 RMK AO2 SLP028 T02061017,M
RTS,2023-09-01 13:55,-119.8764,39.6682,1539.00,62.60,30.20,29.35,0.00,0.00,0.00,29.82,M,10.00,M,OVC,M,M,M,8500.00,M,M,M,M,M,M,M,M,M,M,62.60,KRTS 011355Z AUTO 00000KT 10SM OVC085 17/M01 A2982 RMK AO2,M
MEV,2023-09-01 13:55,-119.7500,38.9963,1441.42,66.20,28.40,24.04,190.00,17.00,0.00,29.81,M,10.00,23.00,FEW,M,M,M,9500.00,M,M,M,M,M,M,M,M,M,M,66.20,KMEV 011355Z AUTO 19017G23KT 10SM FEW095 19/M02 A2981 RMK AO2,M
HTH,2023-09-01 13:55,-118.6315,38.5448,1282.89,73.40,15.80,11.05,240.00,9.00,0.00,29.78,M,10.00,M,CLR,M,M,M,M,M,M,M,M,M,M,M,M,M,M,73.40,KHTH 011355Z AUTO 24009KT 10SM CLR 23/M09 A2978 RMK A01,M
BAM,2023-09-01 13:55,-116.8743,40.5990,1382.36,60.80,26.60,26.98,0.00,0.00,0.00,29.85,M,10.00,M,CLR,M,M,M,M,M,M,M,M,M,M,M,M,M,M,60.80,KBAM 011355Z AUTO 00000KT 10SM CLR 16/M03 A2985 RMK AO1,M
TMT,2023-09-01 13:55,-117.1971,39.4643,1749.34,45.50,30.60,55.73,0.00,0.00,0.00,29.90,M,M,M,CLR,M,M,M,M,M,M,M,M,M,M,M,M,M,M,45.50,KTMT 011355Z AUTO 00000KT CLR 08/M01 A2990 RMK AO2 LTG DSNT S T00751008 PWINO,M
10U,2023-09-01 13:55,-116.1876,41.9532,1637.00,57.20,32.00,38.26,360.00,4.00,0.00,29.91,M,10.00,M,CLR,M,M,M,M,M,M,M,M,M,M,M,M,M,M,57.20,K10U 011355Z AUTO 36004KT 10SM CLR 14/00 A2991 RMK AO2,M
INS,2023-09-01 13:55,-115.6733,36.5872,955.00,72.50,63.00,72.08,80.00,33.00,0.00,29.88,1006.60,10.00,38.00,BKN,M,M,M,11000.00,M,M,M,M,M,M,M,43.00,90.00,2023-09-01 12:59,72.50,KINS 011355Z AUTO 08033G38KT 10SM BKN110 23/17 A2988 RMK AO2 PK WND 09043/1259 SLP066 T02250172 $,M
LSV,2023-09-01 13:55,-115.0343,36.2362,570.00,70.70,70.30,98.65,360.00,10.00,0.16,29.90,1010.10,9.00,M,FEW,BKN,OVC,M,3800.00,6000.00,11000.00,M,VCTS -RA,M,M,M,M,M,M,70.70,KLSV 011355Z AUTO 36010KT 9SM VCTS -RA FEW038 BKN060 OVC110 22/21 A2990 RMK AO2 RAE46DZB46E48RAB48 SLP101 P0016 T02150213 $,M
EKO,2023-09-01 13:56,-115.7860,40.8242,1367.00,54.00,28.00,36.52,20.00,7.00,0.00,29.87,1006.00,10.00,M,CLR,M,M,M,M,M,M,M,M,M,M,M,M,M,M,54.00,KEKO 011356Z AUTO 02007KT 10SM CLR 12/M02 A2987 RMK AO2 SLP060 T01221022,M
WMC,2023-09-01 13:56,-117.8072,40.9019,1315.00,66.00,34.00,30.37,30.00,5.00,0.00,29.83,1005.10,10.00,M,CLR,M,M,M,M,M,M,M,M,M,M,M,M,M,M,66.00,KWMC 011356Z AUTO 03005KT 10SM CLR 19/01 A2983 RMK AO2 SLP051 T01890011,M
NFL,2023-09-01 13:56,-118.7010,39.4166,1199.00,65.00,48.00,54.07,320.00,4.00,0.00,29.76,1005.60,9.00,M,FEW,BKN,M,M,10000.00,15000.00,M,M,M,M,M,M,M,M,M,65.00,KNFL 011356Z 32004KT 9SM FEW100 BKN150 18/09 A2976 RMK AO2 SLP056 T01830089,M
HND,2023-09-01 13:56,-115.1344,35.9729,742.79,76.00,62.00,61.87,190.00,7.00,0.00,29.96,1013.10,10.00,M,SCT,BKN,M,M,9500.00,11000.00,M,M,M,M,M,M,27.00,160.00,2023-09-01 12:58,76.00,KHND 011356Z 19007KT 10SM SCT095 BKN110 24/17 A2996 RMK AO2 PK WND 16027/1258 LTG DSNT W-NE TSE52 PRESRR SLP131 T02440167,M
TPH,2023-09-01 13:56,-117.0904,38.0505,1654.00,60.00,26.00,27.08,150.00,6.00,0.00,29.93,1005.60,10.00,M,CLR,M,M,M,M,M,M,M,M,M,M,M,M,M,M,60.00,KTPH 011356Z AUTO 15006KT 10SM CLR 16/M03 A2993 RMK AO2 SLP056 T01561033,M
LAS,2023-09-01 13:56,-115.1634,36.0719,663.00,73.00,68.00,84.34,340.00,6.00,0.11,29.95,1011.60,6.00,M,FEW,SCT,BKN,M,3000.00,5000.00,9000.00,M,TSRA,M,M,M,M,M,M,73.00,KLAS 011356Z 34006KT 6SM TSRA FEW030 SCT050 BKN090CB 23/20 A2995 RMK AO2 LTG DSNT ALQDS TSE24B42 SLP116 OCNL LTGIC W-NW TS W-NW MOV NE P0011 T02280200,M
VGT,2023-09-01 14:03,-115.1933,36.2111,667.00,71.00,67.00,87.19,150.00,12.00,0.10,29.95,M,1.00,M,BKN,OVC,M,M,3800.00,10000.00,M,M,+TSRA BR,M,M,M,M,M,M,71.00,KVGT 011403Z 15012KT 1SM +TSRA BR BKN038 OVC100 22/19 A2995 RMK AO2 WSHFT 1343 LTG DSNT NE AND E P0010 T02170194,M
LSV,2023-09-01 14:03,-115.0343,36.2362,570.00,71.60,69.80,94.06,360.00,9.00,0.00,29.91,1010.60,8.00,M,BKN,OVC,M,M,6000.00,11000.00,M,M,-TSRA,M,M,M,M,M,M,71.60,KLSV 011403Z AUTO 36009KT 8SM -TSRA BKN060 OVC110 22/21 A2991 RMK AO2 TSB03 SLP106 $,M
05U,2023-09-01 14:10,-116.0051,39.6042,1811.23,62.60,26.60,25.32,M,M,0.00,29.95,M,10.00,M,CLR,M,M,M,M,M,M,M,M,M,M,M,M,M,M,62.60,K05U 011410Z AUTO 10SM CLR 17/M03 A2995 RMK A01,M
BVU,2023-09-01 14:15,-114.8611,35.9475,671.00,75.20,64.40,69.14,30.00,5.00,0.00,29.93,M,10.00,M,BKN,M,M,M,11000.00,M,M,M,M,M,M,M,M,M,M,75.20,KBVU 011415Z AUTO 03005KT 10SM BKN110 24/18 A2993 RMK AO2 LTG DSNT NW-NE,M
CXP,2023-09-01 14:15,-119.7326,39.1923,1431.00,66.20,28.40,24.04,210.00,4.00,0.00,29.82,M,10.00,M,CLR,M,M,M,M,M,M,M,M,M,M,M,M,M,M,66.20,KCXP 011415Z AUTO 21004KT 10SM CLR 19/M02 A2982 RMK AO2,M
RTS,2023-09-01 14:15,-119.8764,39.6682,1539.00,64.40,30.20,27.55,250.00,3.00,0.00,29.83,M,10.00,M,OVC,M,M,M,8000.00,M,M,M,M,M,M,M,M,M,M,64.40,KRTS 011415Z AUTO 25003KT 10SM OVC080 18/M01 A2983 RMK AO2,M
MEV,2023-09-01 14:15,-119.7500,38.9963,1441.42,66.20,26.60,22.33,190.00,18.00,0.00,29.81,M,10.00,26.00,FEW,FEW,M,M,9500.00,11000.00,M,M,M,M,M,M,M,M,M,66.20,KMEV 011415Z AUTO 19018G26KT 10SM FEW095 FEW110 19/M03 A2981 RMK AO2,M
BAM,2023-09-01 14:15,-116.8743,40.5990,1382.36,60.80,28.40,29.06,310.00,4.00,0.00,29.84,M,10.00,M,SCT,M,M,M,12000.00,M,M,M,M,M,M,M,M,M,M,60.80,KBAM 011415Z AUTO 31004KT 10SM SCT120 16/M02 A2984 RMK AO1,M
HTH,2023-09-01 14:15,-118.6315,38.5448,1282.89,71.60,15.80,11.74,160.00,5.00,0.00,29.79,M,10.00,M,CLR,M,M,M,M,M,M,M,M,M,M,M,M,M,M,71.60,KHTH 011415Z AUTO 16005KT 10SM CLR 22/M09 A2979 RMK A01,M
10U,2023-09-01 14:15,-116.1876,41.9532,1637.00,59.00,33.80,38.56,0.00,0.00,0.00,29.93,M,10.00,M,CLR,M,M,M,M,M,M,M,M,M,M,M,M,M,M,59.00,K10U 011415Z AUTO 00000KT 10SM CLR 15/01 A2993 RMK AO2,M
TMT,2023-09-01 14:15,-117.1971,39.4643,1749.34,50.50,30.00,45.09,250.00,3.00,0.00,29.90,M,M,M,CLR,M,M,M,M,M,M,M,M,M,M,M,M,M,M,50.50,KTMT 011415Z AUTO 25003KT CLR 10/M01 A2990 RMK AO2 T01031011 PWINO,M
VGT,2023-09-01 14:17,-115.1933,36.2111,667.00,71.00,68.00,90.25,90.00,11.00,0.11,29.93,M,5.00,M,SCT,OVC,M,M,3600.00,11000.00,M,M,-TSRA BR,M,M,M,M,M,M,71.00,KVGT 011417Z 09011KT 5SM -TSRA BR SCT036 OVC110 22/20 A2993 RMK AO2 WSHFT 1343 LTG DSNT NE P0011 T02170200,M
LSV,2023-09-01 14:17,-115.0343,36.2362,570.00,M,M,M,50.00,6.00,0.00,29.92,M,6.00,M,M,M,M,M,M,M,M,M,TS,M,M,M,M,M,M,M,KLSV 011417Z AUTO 05006KT 6SM TS M M A2992 RMK AO2 RAE17 TSB03 SLPNO ALSTG ESTMD RVRNO $,M
LSV,2023-09-01 14:18,-115.0343,36.2362,570.00,M,M,M,40.00,5.00,0.00,29.92,M,6.00,M,M,M,M,M,M,M,M,M,-TSRA,M,M,M,M,M,M,M,KLSV 011418Z AUTO 04005KT 6SM -TSRA M M A2992 RMK AO2 RAE17RAB18 TSB03 SLPNO ALSTG ESTMD RVRNO $,M
LSV,2023-09-01 14:25,-115.0343,36.2362,570.00,69.80,69.80,100.00,10.00,4.00,0.00,29.92,1010.80,10.00,M,BKN,M,M,M,3000.00,M,M,M,-RA,M,M,M,M,M,M,69.80,KLSV 011425Z COR 01004KT 10SM -RA BKN030 21/21 A2992 RMK AO2 RAE17RAB18 TSB03E25 SLP108 $ COR 1444,M
VGT,2023-09-01 14:27,-115.1933,36.2111,667.00,72.00,69.00,90.28,90.00,12.00,0.11,29.92,M,5.00,M,FEW,BKN,OVC,M,4100.00,9000.00,11000.00,M,VCTS -RA BR,M,M,M,M,M,M,72.00,KVGT 011427Z 09012KT 5SM VCTS -RA BR FEW041 BKN090 OVC110 22/21 A2992 RMK AO2 WSHFT 1343 LTG DSNT NE TSE21 P0011 T02220206,M
05U,2023-09-01 14:30,-116.0051,39.6042,1811.23,66.20,26.60,22.33,M,M,0.00,29.95,M,10.00,M,CLR,M,M,M,M,M,M,M,M,M,M,M,M,M,M,66.20,K05U 011430Z AUTO 10SM CLR 19/M03 A2995 RMK A01,M
VGT,2023-09-01 14:34,-115.1933,36.2111,667.00,72.00,68.00,87.24,80.00,12.00,0.11,29.92,M,5.00,M,FEW,OVC,M,M,3500.00,11000.00,M,M,-RA BR,M,M,M,M,M,M,72.00,KVGT 011434Z 08012KT 5SM -RA BR FEW035 OVC110 22/20 A2992 RMK AO2 WSHFT 1343 TSE21 P0011 T02220200,M
BVU,2023-09-01 14:35,-114.8611,35.9475,671.00,75.20,66.20,73.61,40.00,5.00,0.00,29.93,M,10.00,M,SCT,M,M,M,11000.00,M,M,M,M,M,M,M,M,M,M,75.20,KBVU 011435Z AUTO 04005KT 10SM SCT110 24/19 A2993 RMK AO2 LTG DSNT NE,M
CXP,2023-09-01 14:35,-119.7326,39.1923,1431.00,66.20,28.40,24.04,180.00,7.00,0.00,29.82,M,10.00,M,CLR,M,M,M,M,M,M,M,M,M,M,M,M,M,M,66.20,KCXP 011435Z AUTO 18007KT 10SM CLR 19/M02 A2982 RMK AO2,M
RTS,2023-09-01 14:35,-119.8764,39.6682,1539.00,66.20,30.20,25.88,0.00,0.00,0.00,29.83,M,10.00,M,BKN,BKN,M,M,8000.00,8500.00,M,M,M,M,M,M,M,M,M,66.20,KRTS 011435Z AUTO 00000KT 10SM BKN080 BKN085 19/M01 A2983 RMK AO2,M
MEV,2023-09-01 14:35,-119.7500,38.9963,1441.42,68.00,23.00,18.06,190.00,17.00,0.00,29.81,M,10.00,28.00,CLR,M,M,M,M,M,M,M,M,M,M,M,M,M,M,68.00,KMEV 011435Z AUTO 19017G28KT 10SM CLR 20/M05 A2981 RMK AO2,M
HTH,2023-09-01 14:35,-118.6315,38.5448,1282.89,73.40,15.80,11.05,180.00,7.00,0.00,29.79,M,10.00,M,CLR,M,M,M,M,M,M,M,M,M,M,M,M,M,M,73.40,KHTH 011435Z AUTO 18007KT 10SM CLR 23/M09 A2979 RMK A01,M
BAM,2023-09-01 14:35,-116.8743,40.5990,1382.36,68.00,32.00,26.15,350.00,8.00,0.00,29.83,M,10.00,M,CLR,M,M,M,M,M,M,M,M,M,M,M,M,M,M,68.00,KBAM 011435Z AUTO 35008KT 10SM CLR 20/00 A2983 RMK AO1,M
TMT,2023-09-01 14:35,-117.1971,39.4643,1749.34,53.60,32.00,43.61,240.00,3.00,0.00,29.90,M,M,M,CLR,M,M,M,M,M,M,M,M,M,M,M,M,M,M,53.60,KTMT 011435Z AUTO 24003KT CLR 12/00 A2990 RMK AO2 T01201001 PWINO,M
10U,2023-09-01 14:35,-116.1876,41.9532,1637.00,59.00,33.80,38.56,0.00,0.00,0.00,29.93,M,10.00,M,CLR,M,M,M,M,M,M,M,M,M,M,M,M,M,M,59.00,K10U 011435Z AUTO 00000KT 10SM CLR 15/01 A2993 RMK AO2,M
LAS,2023-09-01 14:36,-115.1634,36.0719,663.00,73.00,69.00,87.29,80.00,16.00,T,29.92,M,10.00,M,FEW,SCT,BKN,BKN,3000.00,5000.00,9000.00,20000.00,M,M,M,M,M,M,M,73.00,KLAS 011436Z 08016KT 10SM FEW030 SCT050 BKN090 BKN200 23/21 A2992 RMK AO2 RAE06 TSE36 TS MOV NE P0000 T02280206,M
LSV,2023-09-01 14:45,-115.0343,36.2362,570.00,69.80,69.80,100.00,10.00,13.00,0.00,29.89,1009.80,10.00,M,SCT,SCT,OVC,M,4600.00,6000.00,9000.00,M,-RA,M,M,M,M,M,M,69.80,KLSV 011445Z 01013KT 10SM -RA SCT046 SCT060 OVC090 21/21 A2989 RMK AO2A RAE17RAB18 TSB03E25 PRESFR SLP098 $,M
LSV,2023-09-01 14:50,-115.0343,36.2362,570.00,69.80,69.80,100.00,30.00,15.00,0.00,29.88,1009.40,10.00,M,FEW,BKN,OVC,M,4900.00,8000.00,9000.00,M,M,M,M,M,M,M,M,69.80,KLSV 011450Z 03015KT 10SM FEW049 BKN080 OVC090 21/21 A2988 RMK AO2A RAE17RAB18E50 TSB03E25 SLP094 $,M
05U,2023-09-01 14:50,-116.0051,39.6042,1811.23,68.00,26.60,20.98,M,M,0.00,29.94,M,10.00,M,CLR,M,M,M,M,M,M,M,M,M,M,M,M,M,M,68.00,K05U 011450Z AUTO 10SM CLR 20/M03 A2994 RMK A01,M
P68,2023-09-01 14:53,-116.0056,39.6014,1993.00,67.00,27.00,22.08,120.00,14.00,0.00,29.92,1004.20,M,19.00,M,M,M,M,M,M,M,M,M,M,M,M,M,M,M,67.00,KP68 011453Z AUTO 12014G19KT 19/M03 A2992 RMK AO1 SLP042 T01941028 53004,M
DRA,2023-09-01 14:53,-116.0278,36.6206,1009.00,80.00,49.00,33.81,170.00,18.00,0.00,29.87,1006.00,10.00,30.00,CLR,M,M,M,M,M,M,M,M,M,M,M,35.00,170.00,2023-09-01 14:01,79.46,KDRA 011453Z AUTO 17018G30KT 10SM CLR 27/09 A2987 RMK AO2 PK WND 17035/1401 SLP060 T02670094 51022,M
ELY,2023-09-01 14:53,-114.8453,39.2950,1909.00,65.00,50.00,58.26,170.00,22.00,0.00,30.01,1005.30,10.00,36.00,CLR,M,M,M,M,M,M,M,M,M,M,M,36.00,170.00,2023-09-01 14:49,65.00,KELY 011453Z AUTO 17022G36KT 10SM CLR 18/10 A3001 RMK AO2 PK WND 17036/1449 SLP053 T01830100 53008,M
VGT,2023-09-01 14:53,-115.1933,36.2111,667.00,72.00,67.00,84.28,30.00,5.00,0.11,29.93,1012.40,5.00,M,FEW,SCT,BKN,M,2600.00,6000.00,11000.00,M,HZ,M,M,M,M,M,M,72.00,KVGT 011453Z 03005KT 5SM HZ FEW026 SCT060 BKN110 22/19 A2993 RMK AO2 WSHFT 1343 RAE51 TSE21 SLP124 P0011 60020 T02220194 50010,M
LOL,2023-09-01 14:53,-118.5701,40.0684,1192.43,64.00,43.00,46.32,0.00,0.00,T,29.77,1004.20,10.00,M,FEW,SCT,M,M,5000.00,10000.00,M,M,-RA,M,M,M,M,M,M,64.00,KLOL 011453Z AUTO 00000KT 10SM -RA FEW050 SCT100 18/06 A2977 RMK AO2 RAB52 SLP042 P0000 60000 T01780061 53004,M
BVU,2023-09-01 14:55,-114.8611,35.9475,671.00,75.20,64.40,69.14,50.00,6.00,0.00,29.93,M,10.00,M,FEW,M,M,M,11000.00,M,M,M,M,M,M,M,M,M,M,75.20,KBVU 011455Z AUTO 05006KT 10SM FEW110 24/18 A2993 RMK AO2,M
CXP,2023-09-01 14:55,-119.7326,39.1923,1431.00,66.20,28.40,24.04,190.00,8.00,0.00,29.82,M,10.00,M,CLR,M,M,M,M,M,M,M,M,M,M,M,M,M,M,66.20,KCXP 011455Z AUTO 19008KT 10SM CLR 19/M02 A2982 RMK AO2,M
RNO,2023-09-01 14:55,-119.7711,39.4839,1341.00,71.00,24.00,16.99,150.00,11.00,0.00,29.79,1002.80,10.00,20.00,BKN,BKN,M,M,5000.00,12000.00,M,M,M,M,M,M,M,M,M,71.00,KRNO 011455Z 15011G20KT 10SM BKN050 BKN120 22/M04 A2979 RMK AO2 SLP028 ACSL N T02171044 53002,M
RTS,2023-09-01 14:55,-119.8764,39.6682,1539.00,66.20,32.00,27.83,0.00,0.00,0.00,29.83,M,10.00,M,BKN,BKN,M,M,7500.00,8500.00,M,M,M,M,M,M,M,M,M,66.20,KRTS 011455Z AUTO 00000KT 10SM BKN075 BKN085 19/M00 A2983 RMK AO2,M
MEV,2023-09-01 14:55,-119.7500,38.9963,1441.42,68.00,19.40,15.50,190.00,23.00,0.00,29.80,M,10.00,30.00,CLR,M,M,M,M,M,M,M,M,M,M,M,M,M,M,68.00,KMEV 011455Z AUTO 19023G30KT 10SM CLR 20/M07 A2980 RMK AO2,M
HTH,2023-09-01 14:55,-118.6315,38.5448,1282.89,75.20,15.80,10.40,130.00,8.00,0.00,29.80,M,10.00,M,CLR,M,M,M,M,M,M,M,M,M,M,M,M,M,M,75.20,KHTH 011455Z AUTO 13008KT 10SM CLR 24/M09 A2980 RMK A01,M
BAM,2023-09-01 14:55,-116.8743,40.5990,1382.36,69.80,32.00,24.59,340.00,8.00,0.00,29.84,M,10.00,M,CLR,M,M,M,M,M,M,M,M,M,M,M,M,M,M,69.80,KBAM 011455Z AUTO 34008KT 10SM CLR 21/00 A2984 RMK AO1,M
TMT,2023-09-01 14:55,-117.1971,39.4643,1749.34,57.00,31.00,37.01,0.00,0.00,0.00,29.90,M,M,M,CLR,M,M,M,M,M,M,M,M,M,M,M,M,M,M,57.00,KTMT 011455Z AUTO 00000KT CLR 14/M01 A2990 RMK AO2 T01391006 PWINO,M
INS,2023-09-01 14:55,-115.6733,36.5872,955.00,71.00,63.00,75.84,90.00,32.00,0.00,29.89,1007.20,10.00,37.00,SCT,OVC,M,M,10000.00,12000.00,M,M,M,M,M,M,41.00,90.00,2023-09-01 14:06,71.00,KINS 011455Z AUTO 09032G37KT 10SM SCT100 OVC120 22/17 A2989 RMK AO2 PK WND 09041/06 SLP072 T02170173 52023 $,M
LSV,2023-09-01 14:55,-115.0343,36.2362,570.00,70.70,70.30,98.65,50.00,15.00,0.12,29.88,1009.40,10.00,M,FEW,BKN,BKN,M,4700.00,8500.00,11000.00,M,M,M,M,M,M,M,M,70.70,KLSV 011455Z 05015KT 10SM FEW047 BKN085 BKN110 22/21 A2988 RMK AO2A RAE17RAB18E50 TSB03E25 SLP094 P0012 60028 T02150213 50019 $,M
EKO,2023-09-01 14:56,-115.7860,40.8242,1367.00,57.00,26.00,30.16,100.00,7.00,0.00,29.89,1007.20,10.00,M,CLR,M,M,M,M,M,M,M,M,M,M,M,M,M,M,57.00,KEKO 011456Z AUTO 10007KT 10SM CLR 14/M03 A2989 RMK AO2 SLP072 T01391033 53008,M
WMC,2023-09-01 14:56,-117.8072,40.9019,1315.00,68.00,34.00,28.34,30.00,7.00,0.00,29.83,1005.30,10.00,M,CLR,M,M,M,M,M,M,M,M,M,M,M,M,M,M,68.00,KWMC 011456Z AUTO 03007KT 10SM CLR 20/01 A2983 RMK AO2 SLP053 T02000011 50005,M
NFL,2023-09-01 14:56,-118.7010,39.4166,1199.00,66.00,47.00,50.29,0.00,0.00,0.00,29.77,1005.90,10.00,M,SCT,BKN,BKN,M,8000.00,12000.00,16000.00,M,M,M,M,M,M,M,M,66.00,KNFL 011456Z 00000KT 10SM SCT080 BKN120 BKN160 19/08 A2977 RMK AO2 SLP059 6//// T01890083 53005,M
HND,2023-09-01 14:56,-115.1344,35.9729,742.79,74.00,66.00,76.10,70.00,9.00,0.00,29.95,1013.10,10.00,M,FEW,M,M,M,7000.00,M,M,M,M,M,M,M,M,M,M,74.00,KHND 011456Z 07009KT 10SM FEW070 23/19 A2995 RMK AO2 SLP131 60000 T02330189 50027,M
TPH,2023-09-01 14:56,-117.0904,38.0505,1654.00,67.00,25.00,20.32,150.00,12.00,0.00,29.94,1005.60,10.00,M,CLR,M,M,M,M,M,M,M,M,M,M,M,M,M,M,67.00,KTPH 011456Z AUTO 15012KT 10SM CLR 19/M04 A2994 RMK AO2 SLP056 T01941039 53009,M
LAS,2023-09-01 14:56,-115.1634,36.0719,663.00,74.00,68.00,81.55,90.00,12.00,T,29.92,1010.80,10.00,M,FEW,FEW,SCT,BKN,3000.00,5000.00,9000.00,20000.00,M,M,M,M,M,M,M,74.00,KLAS 011456Z 09012KT 10SM FEW030 FEW050 SCT090 BKN200 23/20 A2992 RMK AO2 RAE06 TSE36 SLP108 TS MOV NE P0000 60011 T02330200 50028,M
10U,2023-09-01 15:00,-116.1876,41.9532,1637.00,59.00,33.80,38.56,0.00,0.00,0.00,29.92,M,10.00,M,CLR,M,M,M,M,M,M,M,M,M,M,M,M,M,M,59.00,K10U 011500Z AUTO 00000KT 10SM CLR 15/01 A2992 RMK AO2,M
05U,2023-09-01 15:10,-116.0051,39.6042,1811.23,69.80,26.60,19.72,M,M,0.00,29.95,M,10.00,M,CLR,M,M,M,M,M,M,M,M,M,M,M,M,M,M,69.80,K05U 011510Z AUTO 10SM CLR 21/M03 A2995 RMK A01,M
BVU,2023-09-01 15:15,-114.8611,35.9475,671.00,75.20,68.00,78.34,50.00,10.00,0.00,29.93,M,10.00,M,FEW,FEW,M,M,6000.00,11000.00,M,M,M,M,M,M,M,M,M,75.20,KBVU 011515Z AUTO 05010KT 10SM FEW060 FEW110 24/20 A2993 RMK AO2,M
CXP,2023-09-01 15:15,-119.7326,39.1923,1431.00,68.00,24.80,19.47,190.00,10.00,0.00,29.83,M,10.00,19.00,FEW,M,M,M,9500.00,M,M,M,M,M,M,M,M,M,M,68.00,KCXP 011515Z AUTO 19010G19KT 10SM FEW095 20/M04 A2983 RMK AO2,M
RTS,2023-09-01 15:15,-119.8764,39.6682,1539.00,66.20,30.20,25.88,0.00,0.00,0.00,29.84,M,10.00,M,OVC,M,M,M,7500.00,M,M,M,M,M,M,M,M,M,M,66.20,KRTS 011515Z AUTO 00000KT 10SM OVC075 19/M01 A2984 RMK AO2,M
MEV,2023-09-01 15:15,-119.7500,38.9963,1441.42,68.00,19.40,15.50,190.00,22.00,0.00,29.81,M,10.00,28.00,CLR,M,M,M,M,M,M,M,M,M,M,M,M,M,M,68.00,KMEV 011515Z AUTO 19022G28KT 10SM CLR 20/M07 A2981 RMK AO2,M
HTH,2023-09-01 15:15,-118.6315,38.5448,1282.89,75.20,17.60,11.24,0.00,0.00,0.00,29.79,M,10.00,M,CLR,M,M,M,M,M,M,M,M,M,M,M,M,M,M,75.20,KHTH 011515Z AUTO 00000KT 10SM CLR 24/M08 A2979 RMK A01,M
BAM,2023-09-01 15:15,-116.8743,40.5990,1382.36,68.00,32.00,26.15,340.00,9.00,0.00,29.85,M,10.00,M,CLR,M,M,M,M,M,M,M,M,M,M,M,M,M,M,68.00,KBAM 011515Z AUTO 34009KT 10SM CLR 20/00 A2985 RMK AO1,M
TMT,2023-09-01 15:15,-117.1971,39.4643,1749.34,56.00,32.00,39.96,0.00,0.00,0.00,29.90,M,M,M,CLR,M,M,M,M,M,M,M,M,M,M,M,M,M,M,56.00,KTMT 011515Z AUTO 00000KT CLR 13/00 A2990 RMK AO2 T01340000 PWINO,M
10U,2023-09-01 15:20,-116.1876,41.9532,1637.00,62.60,33.80,33.93,0.00,0.00,0.00,29.93,M,10.00,M,CLR,M,M,M,M,M,M,M,M,M,M,M,M,M,M,62.60,K10U 011520Z AUTO 00000KT 10SM CLR 17/01 A2993 RMK AO2,M
P68,2023-09-01 15:30,-116.0056,39.6014,1993.00,72.00,26.00,17.85,200.00,17.00,0.00,29.91,M,M,25.00,M,M,M,M,M,M,M,M,M,M,M,M,M,M,M,72.00,KP68 011530Z AUTO 20017G25KT 22/M03 A2991 RMK AO1 WSHFT 1513 T02221033,M
05U,2023-09-01 15:30,-116.0051,39.6042,1811.23,73.40,24.80,16.20,M,M,0.00,29.94,M,10.00,M,CLR,M,M,M,M,M,M,M,M,M,M,M,M,M,M,73.40,K05U 011530Z AUTO 10SM CLR 23/M04 A2994 RMK A01,M
BVU,2023-09-01 15:35,-114.8611,35.9475,671.00,75.20,66.20,73.61,40.00,10.00,0.00,29.93,M,10.00,M,FEW,M,M,M,6000.00,M,M,M,M,M,M,M,M,M,M,75.20,KBVU 011535Z AUTO 04010KT 10SM FEW060 24/19 A2993 RMK AO2,M
CXP,2023-09-01 15:35,-119.7326,39.1923,1431.00,68.00,21.20,16.74,180.00,8.00,0.00,29.83,M,10.00,15.00,BKN,M,M,M,9000.00,M,M,M,M,M,M,M,M,M,M,68.00,KCXP 011535Z AUTO 18008G15KT 10SM BKN090 20/M06 A2983 RMK AO2,M
RTS,2023-09-01 15:35,-119.8764,39.6682,1539.00,66.20,28.40,24.04,M,3.00,0.00,29.84,M,10.00,M,OVC,M,M,M,7500.00,M,M,M,M,M,M,M,M,M,M,66.20,KRTS 011535Z AUTO VRB03KT 10SM OVC075 19/M02 A2984 RMK AO2,M
MEV,2023-09-01 15:35,-119.7500,38.9963,1441.42,68.00,15.80,13.27,190.00,22.00,0.00,29.81,M,10.00,30.00,CLR,M,M,M,M,M,M,M,M,M,M,M,M,M,M,68.00,KMEV 011535Z AUTO 19022G30KT 10SM CLR 20/M09 A2981 RMK AO2,M
BAM,2023-09-01 15:35,-116.8743,40.5990,1382.36,68.00,32.00,26.15,340.00,8.00,0.00,29.85,M,10.00,M,CLR,M,M,M,M,M,M,M,M,M,M,M,M,M,M,68.00,KBAM 011535Z AUTO 34008KT 10SM CLR 20/00 A2985 RMK AO1,M
HTH,2023-09-01 15:35,-118.6315,38.5448,1282.89,75.20,17.60,11.24,90.00,7.00,0.00,29.79,M,10.00,M,CLR,M,M,M,M,M,M,M,M,M,M,M,M,M,M,75.20,KHTH 011535Z AUTO 09007KT 10SM CLR 24/M08 A2979 RMK A01,M
TMT,2023-09-01 15:35,-117.1971,39.4643,1749.34,57.40,32.00,37.99,0.00,0.00,0.00,29.90,M,M,M,CLR,M,M,M,M,M,M,M,M,M,M,M,M,M,M,57.40,KTMT 011535Z AUTO 00000KT CLR 14/00 A2990 RMK AO2 T01410000 PWINO,M
10U,2023-09-01 15:40,-116.1876,41.9532,1637.00,64.40,33.80,31.85,0.00,0.00,0.00,29.93,M,10.00,M,CLR,M,M,M,M,M,M,M,M,M,M,M,M,M,M,64.40,K10U 011540Z AUTO 00000KT 10SM CLR 18/01 A2993 RMK AO2,M
05U,2023-09-01 15:50,-116.0051,39.6042,1811.23,75.20,30.20,19.05,M,M,0.00,29.93,M,10.00,M,CLR,M,M,M,M,M,M,M,M,M,M,M,M,M,M,75.20,K05U 011550Z AUTO 10SM CLR 24/M01 A2993 RMK A01,M
P68,2023-09-01 15:53,-116.0056,39.6014,1993.00,73.00,31.00,21.18,180.00,27.00,0.00,29.90,1003.40,M,36.00,M,M,M,M,M,M,M,M,M,M,M,M,36.00,180.00,2023-09-01 15:53,73.00,KP68 011553Z AUTO 18027G36KT 23/M01 A2990 RMK AO1 PK WND 18036/1553 WSHFT 1513 SLP034 T02281006,M
DRA,2023-09-01 15:53,-116.0278,36.6206,1009.00,79.00,56.00,45.20,110.00,11.00,0.00,29.88,1006.40,10.00,23.00,FEW,M,M,M,11000.00,M,M,M,M,M,M,M,28.00,170.00,2023-09-01 15:12,79.00,KDRA 011553Z AUTO 11011G23KT 10SM FEW110 26/13 A2988 RMK AO2 PK WND 17028/1512 SLP064 T02610133,M
ELY,2023-09-01 15:53,-114.8453,39.2950,1909.00,64.00,52.00,64.97,160.00,24.00,0.00,30.03,1006.90,10.00,38.00,CLR,M,M,M,M,M,M,M,M,M,M,M,38.00,170.00,2023-09-01 15:52,64.00,KELY 011553Z AUTO 16024G38KT 10SM CLR 18/11 A3003 RMK AO2 PK WND 17038/1552 SLP069 T01780111,M
VGT,2023-09-01 15:53,-115.1933,36.2111,667.00,75.00,67.00,76.19,40.00,4.00,0.00,29.94,1012.80,10.00,M,CLR,M,M,M,M,M,M,M,M,M,M,M,M,M,M,75.00,KVGT 011553Z 04004KT 10SM CLR 24/19 A2994 RMK AO2 SLP128 T02390194,M
LOL,2023-09-01 15:53,-118.5701,40.0684,1192.43,68.00,38.00,33.20,50.00,5.00,T,29.76,1003.90,10.00,M,FEW,M,M,M,11000.00,M,M,M,M,M,M,M,M,M,M,68.00,KLOL 011553Z AUTO 05005KT 10SM FEW110 20/03 A2976 RMK AO2 RAE02 SLP039 P0000 T02000033,M
BVU,2023-09-01 15:55,-114.8611,35.9475,671.00,77.00,66.20,69.33,40.00,9.00,0.00,29.93,M,10.00,M,CLR,M,M,M,M,M,M,M,M,M,M,M,M,M,M,77.00,KBVU 011555Z AUTO 04009KT 10SM CLR 25/19 A2993 RMK AO2,M
CXP,2023-09-01 15:55,-119.7326,39.1923,1431.00,69.80,19.40,14.57,180.00,9.00,0.00,29.83,M,10.00,14.00,SCT,BKN,M,M,8500.00,10000.00,M,M,M,M,M,M,M,M,M,69.80,KCXP 011555Z AUTO 18009G14KT 10SM SCT085 BKN100 21/M07 A2983 RMK AO2,M
RNO,2023-09-01 15:55,-119.7711,39.4839,1341.00,72.00,25.00,17.13,160.00,13.00,0.00,29.80,1003.30,10.00,M,BKN,M,M,M,6000.00,M,M,M,M,M,M,M,M,M,M,72.00,KRNO 011555Z 16013KT 10SM BKN060 22/M04 A2980 RMK AO2 SLP033 T02221039,M
RTS,2023-09-01 15:55,-119.8764,39.6682,1539.00,66.20,26.60,22.33,230.00,5.00,0.00,29.84,M,10.00,M,OVC,M,M,M,7500.00,M,M,M,M,M,M,M,M,M,M,66.20,KRTS 011555Z AUTO 23005KT 10SM OVC075 19/M03 A2984 RMK AO2,M
MEV,2023-09-01 15:55,-119.7500,38.9963,1441.42,68.00,17.60,14.35,180.00,18.00,0.00,29.81,M,10.00,26.00,CLR,M,M,M,M,M,M,M,M,M,M,M,M,M,M,68.00,KMEV 011555Z AUTO 18018G26KT 10SM CLR 20/M08 A2981 RMK AO2,M
BAM,2023-09-01 15:55,-116.8743,40.5990,1382.36,69.80,35.60,28.39,340.00,9.00,0.00,29.85,M,10.00,M,CLR,M,M,M,M,M,M,M,M,M,M,M,M,M,M,69.80,KBAM 011555Z AUTO 34009KT 10SM CLR 21/02 A2985 RMK AO1,M
HTH,2023-09-01 15:55,-118.6315,38.5448,1282.89,75.20,17.60,11.24,70.00,10.00,0.00,29.78,M,10.00,M,CLR,M,M,M,M,M,M,M,M,M,M,M,M,M,M,75.20,KHTH 011555Z AUTO 07010KT 10SM CLR 24/M08 A2978 RMK A01,M
TMT,2023-09-01 15:55,-117.1971,39.4643,1749.34,59.00,32.00,35.87,0.00,0.00,0.00,29.91,M,M,M,CLR,M,M,M,M,M,M,M,M,M,M,M,M,M,M,59.00,KTMT 011555Z AUTO 00000KT CLR 15/00 A2991 RMK AO2 LTG DSNT NW T01491001 PWINO,M
10U,2023-09-01 15:55,-116.1876,41.9532,1637.00,66.20,35.60,32.14,10.00,4.00,0.00,29.93,M,10.00,M,CLR,M,M,M,M,M,M,M,M,M,M,M,M,M,M,66.20,K10U 011555Z AUTO 01004KT 10SM CLR 19/02 A2993 RMK AO2,M
INS,2023-09-01 15:55,-115.6733,36.5872,955.00,70.00,61.30,73.89,80.00,28.00,0.00,29.90,1007.70,10.00,33.00,OVC,M,M,M,13000.00,M,M,M,M,M,M,M,36.00,80.00,2023-09-01 14:59,70.00,KINS 011555Z AUTO 08028G33KT 10SM OVC130 21/16 A2990 RMK AO2 PK WND 08036/1459 SLP077 T02110163 $,M
LSV,2023-09-01 15:55,-115.0343,36.2362,570.00,76.30,76.00,99.01,50.00,11.00,0.00,29.90,1010.00,10.00,M,FEW,BKN,BKN,M,11000.00,17000.00,21000.00,M,M,M,M,M,M,M,M,76.30,KLSV 011555Z 05011KT 10SM FEW110 BKN170 BKN210 25/24 A2990 RMK AO2A SLP100 T02460244 $,M
EKO,2023-09-01 15:56,-115.7860,40.8242,1367.00,68.00,27.00,21.33,20.00,6.00,0.00,29.88,1006.10,10.00,M,CLR,M,M,M,M,M,M,M,M,M,M,M,M,M,M,68.00,KEKO 011556Z AUTO 02006KT 10SM CLR 20/M03 A2988 RMK AO2 SLP061 T02001028,M
WMC,2023-09-01 15:56,-117.8072,40.9019,1315.00,71.00,35.00,26.62,40.00,8.00,0.00,29.83,1005.10,10.00,M,CLR,M,M,M,M,M,M,M,M,M,M,M,M,M,M,71.00,KWMC 011556Z AUTO 04008KT 10SM CLR 22/02 A2983 RMK AO2 SLP051 T02170017,M
NFL,2023-09-01 15:56,-118.7010,39.4166,1199.00,69.00,43.00,38.95,360.00,5.00,0.00,29.77,1006.00,10.00,M,FEW,BKN,BKN,M,8000.00,12000.00,16000.00,M,M,M,M,M,M,M,M,69.00,KNFL 011556Z 36005KT 10SM FEW080 BKN120 BKN160 21/06 A2977 RMK AO2 SLP060 T02060061,M
HND,2023-09-01 15:56,-115.1344,35.9729,742.79,81.00,60.00,48.88,80.00,9.00,0.00,29.96,1013.10,10.00,18.00,BKN,M,M,M,11000.00,M,M,M,M,M,M,M,M,M,M,81.60,KHND 011556Z 08009G18KT 020V130 10SM BKN110 27/16 A2996 RMK AO2 SLP131 T02720156,M
TPH,2023-09-01 15:56,-117.0904,38.0505,1654.00,73.00,28.00,18.74,170.00,23.00,0.00,29.93,1005.10,10.00,36.00,CLR,M,M,M,M,M,M,M,M,M,M,M,42.00,170.00,2023-09-01 15:43,73.00,KTPH 011556Z AUTO 17023G36KT 10SM CLR 23/M02 A2993 RMK AO2 PK WND 17042/1543 SLP051 T02281022,M
LAS,2023-09-01 15:56,-115.1634,36.0719,663.00,76.00,66.00,71.18,60.00,10.00,0.00,29.94,1011.30,10.00,M,FEW,FEW,SCT,BKN,3000.00,5000.00,12000.00,20000.00,M,M,M,M,M,M,M,76.00,KLAS 011556Z 06010KT 10SM FEW030 FEW050 SCT120 BKN200 24/19 A2994 RMK AO2 SLP113 T02440189,M
05U,2023-09-01 16:10,-116.0051,39.6042,1811.23,75.20,30.20,19.05,M,M,0.00,29.93,M,10.00,M,CLR,M,M,M,M,M,M,M,M,M,M,M,M,M,M,75.20,K05U 011610Z AUTO 10SM CLR 24/M01 A2993 RMK A01,M
BVU,2023-09-01 16:15,-114.8611,35.9475,671.00,77.00,66.20,69.33,30.00,10.00,0.00,29.93,M,10.00,M,SCT,M,M,M,11000.00,M,M,M,M,M,M,M,M,M,M,77.00,KBVU 011615Z AUTO 03010KT 10SM SCT110 25/19 A2993 RMK AO2,M
CXP,2023-09-01 16:15,-119.7326,39.1923,1431.00,69.80,19.40,14.57,200.00,7.00,0.00,29.83,M,10.00,15.00,SCT,OVC,M,M,8500.00,11000.00,M,M,M,M,M,M,M,M,M,69.80,KCXP 011615Z AUTO 20007G15KT 10SM SCT085 OVC110 21/M07 A2983 RMK AO2,M
RTS,2023-09-01 16:15,-119.8764,39.6682,1539.00,66.20,28.40,24.04,200.00,5.00,0.00,29.84,M,10.00,M,BKN,OVC,M,M,7500.00,8500.00,M,M,M,M,M,M,M,M,M,66.20,KRTS 011615Z AUTO 20005KT 10SM BKN075 OVC085 19/M02 A2984 RMK AO2,M
MEV,2023-09-01 16:15,-119.7500,38.9963,1441.42,68.00,14.00,12.27,190.00,20.00,0.00,29.82,M,10.00,28.00,CLR,M,M,M,M,M,M,M,M,M,M,M,M,M,M,68.00,KMEV 011615Z AUTO 19020G28KT 10SM CLR 20/M10 A2982 RMK AO2,M
HTH,2023-09-01 16:15,-118.6315,38.5448,1282.89,78.80,15.80,9.23,100.00,13.00,0.00,29.78,M,10.00,M,CLR,M,M,M,M,M,M,M,M,M,M,M,M,M,M,78.80,KHTH 011615Z AUTO 10013KT 10SM CLR 26/M09 A2978 RMK A01,M
10U,2023-09-01 16:15,-116.1876,41.9532,1637.00,66.20,35.60,32.14,0.00,0.00,0.00,29.93,M,10.00,M,CLR,M,M,M,M,M,M,M,M,M,M,M,M,M,M,66.20,K10U 011615Z AUTO 00000KT 10SM CLR 19/02 A2993 RMK AO2,M
BAM,2023-09-01 16:15,-116.8743,40.5990,1382.36,71.60,33.80,24.86,340.00,8.00,0.00,29.85,M,10.00,M,CLR,M,M,M,M,M,M,M,M,M,M,M,M,M,M,71.60,KBAM 011615Z AUTO 34008KT 10SM CLR 22/01 A2985 RMK AO1,M
TMT,2023-09-01 16:15,-117.1971,39.4643,1749.34,62.60,32.00,31.56,0.00,0.00,0.00,29.91,M,M,M,CLR,M,M,M,M,M,M,M,M,M,M,M,M,M,M,62.60,KTMT 011615Z AUTO 00000KT CLR 17/00 A2991 RMK AO2 T01701001 PWINO,M
05U,2023-09-01 16:30,-116.0051,39.6042,1811.23,77.00,32.00,19.30,M,M,0.00,29.93,M,10.00,M,CLR,M,M,M,M,M,M,M,M,M,M,M,M,M,M,77.00,K05U 011630Z AUTO 10SM CLR 25/M00 A2993 RMK A01,M
BVU,2023-09-01 16:35,-114.8611,35.9475,671.00,77.00,64.40,65.12,90.00,8.00,0.00,29.94,M,10.00,M,FEW,M,M,M,12000.00,M,M,M,M,M,M,M,M,M,M,77.00,KBVU 011635Z AUTO 09008KT 10SM FEW120 25/18 A2994 RMK AO2,M
CXP,2023-09-01 16:35,-119.7326,39.1923,1431.00,69.80,17.60,13.49,200.00,7.00,0.00,29.84,M,10.00,14.00,FEW,OVC,M,M,8000.00,11000.00,M,M,M,M,M,M,M,M,M,69.80,KCXP 011635Z AUTO 20007G14KT 10SM FEW080 OVC110 21/M08 A2984 RMK AO2,M
RTS,2023-09-01 16:35,-119.8764,39.6682,1539.00,66.20,26.60,22.33,0.00,0.00,0.00,29.85,M,10.00,M,OVC,M,M,M,7500.00,M,M,M,M,M,M,M,M,M,M,66.20,KRTS 011635Z AUTO 00000KT 10SM OVC075 19/M03 A2985 RMK AO2,M
MEV,2023-09-01 16:35,-119.7500,38.9963,1441.42,69.80,15.80,12.48,180.00,18.00,0.00,29.82,M,10.00,27.00,CLR,M,M,M,M,M,M,M,M,M,M,M,M,M,M,69.80,KMEV 011635Z AUTO 18018G27KT 10SM CLR 21/M09 A2982 RMK AO2,M
HTH,2023-09-01 16:35,-118.6315,38.5448,1282.89,80.60,14.00,8.04,90.00,10.00,0.00,29.78,M,10.00,22.00,CLR,M,M,M,M,M,M,M,M,M,M,M,M,M,M,78.25,KHTH 011635Z AUTO 09010G22KT 060V120 10SM CLR 27/M10 A2978 RMK A01,M
BAM,2023-09-01 16:35,-116.8743,40.5990,1382.36,71.60,33.80,24.86,330.00,7.00,0.00,29.86,M,10.00,M,CLR,M,M,M,M,M,M,M,M,M,M,M,M,M,M,71.60,KBAM 011635Z AUTO 33007KT 10SM CLR 22/01 A2986 RMK AO1,M
TMT,2023-09-01 16:35,-117.1971,39.4643,1749.34,65.30,29.00,25.42,0.00,0.00,0.00,29.92,M,M,M,CLR,M,M,M,M,M,M,M,M,M,M,M,M,M,M,65.30,KTMT 011635Z AUTO 00000KT CLR 19/M02 A2992 RMK AO2 T01851017 PWINO,M
10U,2023-09-01 16:40,-116.1876,41.9532,1637.00,66.20,35.60,32.14,50.00,7.00,0.00,29.92,M,10.00,M,CLR,M,M,M,M,M,M,M,M,M,M,M,M,M,M,66.20,K10U 011640Z AUTO 05007KT 10SM CLR 19/02 A2992 RMK AO2,M
05U,2023-09-01 16:50,-116.0051,39.6042,1811.23,77.00,32.00,19.30,M,M,0.00,29.94,M,10.00,M,CLR,M,M,M,M,M,M,M,M,M,M,M,M,M,M,77.00,K05U 011650Z AUTO 10SM CLR 25/00 A2994 RMK A01,M
P68,2023-09-01 16:53,-116.0056,39.6014,1993.00,76.00,33.00,20.77,180.00,23.00,0.00,29.91,1004.50,M,35.00,M,M,M,M,M,M,M,M,M,M,M,M,40.00,200.00,2023-09-01 16:38,76.00,KP68 011653Z AUTO 18023G35KT 24/01 A2991 RMK AO1 PK WND 20040/1638 SLP045 T02440006,M
DRA,2023-09-01 16:53,-116.0278,36.6206,1009.00,79.00,57.00,46.87,140.00,8.00,0.00,29.91,1007.40,10.00,15.00,SCT,M,M,M,10000.00,M,M,M,M,M,M,M,M,M,M,79.00,KDRA 011653Z AUTO 14008G15KT 10SM SCT100 26/14 A2991 RMK AO2 SLP074 T02610139,M
ELY,2023-09-01 16:53,-114.8453,39.2950,1909.00,67.00,52.00,58.53,170.00,24.00,0.00,30.03,1006.50,10.00,39.00,CLR,M,M,M,M,M,M,M,M,M,M,M,40.00,150.00,2023-09-01 16:35,67.00,KELY 011653Z AUTO 17024G39KT 10SM CLR 19/11 A3003 RMK AO2 PK WND 15040/1635 SLP065 T01940111,M
VGT,2023-09-01 16:53,-115.1933,36.2111,667.00,78.00,66.00,66.61,100.00,11.00,T,29.95,1013.20,10.00,M,SCT,BKN,M,M,3000.00,3600.00,M,M,-RA,M,M,M,M,M,M,78.00,KVGT 011653Z 10011KT 10SM -RA SCT030 BKN036 26/19 A2995 RMK AO2 RAB38 SLP132 P0000 T02560189,M
LOL,2023-09-01 16:53,-118.5701,40.0684,1192.43,70.00,39.00,32.24,310.00,5.00,0.00,29.78,1004.50,10.00,M,SCT,M,M,M,12000.00,M,M,M,M,M,M,M,M,M,M,70.00,KLOL 011653Z AUTO 31005KT 10SM SCT120 21/04 A2978 RMK AO2 SLP045 T02110039,M
BVU,2023-09-01 16:55,-114.8611,35.9475,671.00,77.00,64.40,65.12,90.00,7.00,0.00,29.94,M,10.00,M,FEW,BKN,BKN,M,5000.00,6500.00,8000.00,M,M,M,M,M,M,M,M,77.00,KBVU 011655Z AUTO 09007KT 10SM FEW050 BKN065 BKN080 25/18 A2994 RMK AO2,M
CXP,2023-09-01 16:55,-119.7326,39.1923,1431.00,69.80,19.40,14.57,200.00,8.00,0.00,29.84,M,10.00,15.00,FEW,BKN,M,M,8000.00,10000.00,M,M,M,M,M,M,M,M,M,69.80,KCXP 011655Z AUTO 20008G15KT 10SM FEW080 BKN100 21/M07 A2984 RMK AO2,M
RNO,2023-09-01 16:55,-119.7711,39.4839,1341.00,75.00,23.00,14.24,180.00,13.00,0.00,29.80,1003.40,10.00,M,OVC,M,M,M,5000.00,M,M,M,M,M,M,M,M,M,M,75.00,KRNO 011655Z 18013KT 10SM OVC050 24/M05 A2980 RMK AO2 SLP034 T02391050,M
RTS,2023-09-01 16:55,-119.8764,39.6682,1539.00,66.20,30.20,25.88,210.00,6.00,0.00,29.85,M,10.00,M,OVC,M,M,M,7500.00,M,M,M,M,M,M,M,M,M,M,66.20,KRTS 011655Z AUTO 21006KT 10SM OVC075 19/M01 A2985 RMK AO2,M
MEV,2023-09-01 16:55,-119.7500,38.9963,1441.42,69.80,17.60,13.49,180.00,19.00,0.00,29.83,M,10.00,28.00,FEW,M,M,M,11000.00,M,M,M,M,M,M,M,M,M,M,69.80,KMEV 011655Z AUTO 18019G28KT 10SM FEW110 21/M08 A2983 RMK AO2,M
BAM,2023-09-01 16:55,-116.8743,40.5990,1382.36,73.40,35.60,25.13,340.00,8.00,0.00,29.86,M,10.00,M,CLR,M,M,M,M,M,M,M,M,M,M,M,M,M,M,73.40,KBAM 011655Z AUTO 34008KT 10SM CLR 23/02 A2986 RMK AO1,M
HTH,2023-09-01 16:55,-118.6315,38.5448,1282.89,80.60,14.00,8.04,70.00,10.00,0.00,29.78,M,10.00,18.00,CLR,M,M,M,M,M,M,M,M,M,M,M,M,M,M,78.25,KHTH 011655Z AUTO 07010G18KT 050V120 10SM CLR 27/M10 A2978 RMK A01,M
INS,2023-09-01 16:55,-115.6733,36.5872,955.00,73.40,60.40,63.78,80.00,31.00,0.00,29.91,1007.80,10.00,38.00,BKN,OVC,M,M,12000.00,15000.00,M,M,M,M,M,M,39.00,90.00,2023-09-01 16:19,73.40,KINS 011655Z AUTO 08031G38KT 10SM BKN120 OVC150 23/16 A2991 RMK AO2 PK WND 09039/19 SLP078 T02300158 $,M
EKO,2023-09-01 16:56,-115.7860,40.8242,1367.00,75.00,28.00,17.53,60.00,5.00,0.00,29.89,1006.30,10.00,M,CLR,M,M,M,M,M,M,M,M,M,M,M,M,M,M,75.00,KEKO 011656Z AUTO 06005KT 10SM CLR 24/M02 A2989 RMK AO2 SLP063 T02391022,M
WMC,2023-09-01 16:56,-117.8072,40.9019,1315.00,73.00,33.00,22.96,50.00,11.00,0.00,29.83,1005.10,10.00,20.00,CLR,M,M,M,M,M,M,M,M,M,M,M,M,M,M,73.00,KWMC 011656Z AUTO 05011G20KT 10SM CLR 23/01 A2983 RMK AO2 SLP051 T02280006,M
NFL,2023-09-01 16:56,-118.7010,39.4166,1199.00,74.00,39.00,28.16,10.00,4.00,0.00,29.78,1006.30,10.00,M,FEW,BKN,BKN,M,8000.00,12000.00,16000.00,M,M,M,M,M,M,M,M,74.00,KNFL 011656Z 01004KT 10SM FEW080 BKN120 BKN160 23/04 A2978 RMK AO2 SLP063 T02330039,M
HND,2023-09-01 16:56,-115.1344,35.9729,742.79,78.00,64.00,62.12,30.00,8.00,0.00,29.98,1014.00,10.00,M,FEW,SCT,M,M,4400.00,11000.00,M,M,M,M,M,M,M,M,M,78.00,KHND 011656Z 03008KT 10SM FEW044 SCT110 26/18 A2998 RMK AO2 SLP140 T02560178,M
TPH,2023-09-01 16:56,-117.0904,38.0505,1654.00,75.00,39.00,27.23,180.00,27.00,0.00,29.94,1005.90,10.00,38.00,FEW,M,M,M,2100.00,M,M,M,M,M,M,M,42.00,170.00,2023-09-01 16:24,75.00,KTPH 011656Z AUTO 18027G38KT 10SM FEW021 24/04 A2994 RMK AO2 PK WND 17042/1624 SLP059 T02390039,M
LAS,2023-09-01 16:56,-115.1634,36.0719,663.00,77.00,66.00,68.85,80.00,12.00,0.00,29.95,1011.70,10.00,M,FEW,FEW,SCT,BKN,3000.00,5000.00,11000.00,20000.00,M,M,M,M,M,M,M,77.00,KLAS 011656Z 08012KT 10SM FEW030 FEW050 SCT110 BKN200 25/19 A2995 RMK AO2 SLP117 T02500189,M
LSV,2023-09-01 16:57,-115.0343,36.2362,570.00,76.50,76.00,98.35,30.00,12.00,0.00,29.92,1010.80,10.00,M,BKN,BKN,M,M,11000.00,17000.00,M,M,M,M,M,M,M,M,M,76.50,KLSV 011657Z 03012KT 10SM BKN110 BKN170 25/25 A2992 RMK AO2A SLP108 T02470245 $,M
10U,2023-09-01 17:00,-116.1876,41.9532,1637.00,69.80,37.40,30.49,50.00,6.00,0.00,29.93,M,10.00,M,CLR,M,M,M,M,M,M,M,M,M,M,M,M,M,M,69.80,K10U 011700Z AUTO 05006KT 10SM CLR 21/03 A2993 RMK AO2,M
05U,2023-09-01 17:10,-116.0051,39.6042,1811.23,77.00,39.20,25.67,M,M,0.00,29.94,M,10.00,M,CLR,M,M,M,M,M,M,M,M,M,M,M,M,M,M,77.00,K05U 011710Z AUTO 10SM CLR 25/04 A2994 RMK A01,M
BVU,2023-09-01 17:15,-114.8611,35.9475,671.00,78.80,64.40,61.36,110.00,11.00,0.00,29.94,M,10.00,M,BKN,OVC,M,M,5000.00,6500.00,M,M,-DZ,M,M,M,M,M,M,78.80,KBVU 011715Z AUTO 11011KT 10SM -DZ BKN050 OVC065 26/18 A2994 RMK AO2,M
CXP,2023-09-01 17:15,-119.7326,39.1923,1431.00,69.80,21.20,15.73,190.00,13.00,0.00,29.85,M,10.00,M,BKN,OVC,M,M,8500.00,10000.00,M,M,M,M,M,M,M,M,M,69.80,KCXP 011715Z AUTO 19013KT 10SM BKN085 OVC100 21/M06 A2985 RMK AO2,M
RTS,2023-09-01 17:15,-119.8764,39.6682,1539.00,66.20,32.00,27.83,220.00,11.00,0.00,29.85,M,10.00,M,OVC,M,M,M,7500.00,M,M,M,M,M,M,M,M,M,M,66.20,KRTS 011715Z AUTO 22011KT 10SM OVC075 19/00 A2985 RMK AO2,M
MEV,2023-09-01 17:15,-119.7500,38.9963,1441.42,69.80,21.20,15.73,190.00,21.00,0.00,29.84,M,10.00,29.00,SCT,M,M,M,11000.00,M,M,M,M,M,M,M,M,M,M,69.80,KMEV 011715Z AUTO 19021G29KT 10SM SCT110 21/M06 A2984 RMK AO2,M
BAM,2023-09-01 17:15,-116.8743,40.5990,1382.36,73.40,33.80,23.39,330.00,7.00,0.00,29.85,M,10.00,M,CLR,M,M,M,M,M,M,M,M,M,M,M,M,M,M,73.40,KBAM 011715Z AUTO 33007KT 10SM CLR 23/01 A2985 RMK AO1,M
HTH,2023-09-01 17:15,-118.6315,38.5448,1282.89,80.60,12.20,7.43,M,4.00,0.00,29.79,M,10.00,16.00,CLR,M,M,M,M,M,M,M,M,M,M,M,M,M,M,78.16,KHTH 011715Z AUTO VRB04G16KT 10SM CLR 27/M11 A2979 RMK A01,M
TMT,2023-09-01 17:15,-117.1971,39.4643,1749.34,70.50,30.40,22.50,330.00,4.00,0.00,29.92,M,M,M,CLR,M,M,M,M,M,M,M,M,M,M,M,M,M,M,70.50,KTMT 011715Z AUTO 33004KT CLR 21/M01 A2992 RMK AO2 T02141009 PWINO,M
10U,2023-09-01 17:20,-116.1876,41.9532,1637.00,68.00,37.40,32.43,30.00,8.00,0.00,29.94,M,10.00,M,CLR,M,M,M,M,M,M,M,M,M,M,M,M,M,M,68.00,K10U 011720Z AUTO 03008KT 360V070 10SM CLR 20/03 A2994 RMK AO2,M
05U,2023-09-01 17:30,-116.0051,39.6042,1811.23,78.80,37.40,22.54,M,M,0.00,29.95,M,10.00,M,CLR,M,M,M,M,M,M,M,M,M,M,M,M,M,M,78.80,K05U 011730Z AUTO 10SM CLR 26/03 A2995 RMK A01,M
BVU,2023-09-01 17:35,-114.8611,35.9475,671.00,78.80,64.40,61.36,90.00,7.00,0.00,29.94,M,10.00,M,BKN,BKN,OVC,M,5000.00,8500.00,11000.00,M,M,M,M,M,M,M,M,78.80,KBVU 011735Z AUTO 09007KT 10SM BKN050 BKN085 OVC110 26/18 A2994 RMK AO2,M
CXP,2023-09-01 17:35,-119.7326,39.1923,1431.00,71.60,26.60,18.55,190.00,11.00,0.00,29.85,M,10.00,20.00,OVC,M,M,M,8500.00,M,M,M,M,M,M,M,M,M,M,71.60,KCXP 011735Z AUTO 19011G20KT 10SM OVC085 22/M03 A2985 RMK AO2,M
RTS,2023-09-01 17:35,-119.8764,39.6682,1539.00,66.20,33.80,29.92,220.00,11.00,0.00,29.86,M,10.00,M,OVC,M,M,M,7500.00,M,M,M,M,M,M,M,M,M,M,66.20,KRTS 011735Z AUTO 22011KT 10SM OVC075 19/01 A2986 RMK AO2,M
MEV,2023-09-01 17:35,-119.7500,38.9963,1441.42,69.80,24.80,18.30,180.00,22.00,0.00,29.84,M,10.00,29.00,BKN,M,M,M,11000.00,M,M,M,M,M,M,M,M,M,M,69.80,KMEV 011735Z AUTO 18022G29KT 10SM BKN110 21/M04 A2984 RMK AO2,M
BAM,2023-09-01 17:35,-116.8743,40.5990,1382.36,77.00,33.80,20.74,330.00,6.00,0.00,29.85,M,10.00,M,CLR,M,M,M,M,M,M,M,M,M,M,M,M,M,M,77.00,KBAM 011735Z AUTO 33006KT 10SM CLR 25/01 A2985 RMK AO1,M
HTH,2023-09-01 17:35,-118.6315,38.5448,1282.89,82.40,15.80,8.20,230.00,24.00,0.00,29.77,M,10.00,31.00,CLR,M,M,M,M,M,M,M,M,M,M,M,M,M,M,79.28,KHTH 011735Z AUTO 23024G31KT 10SM CLR 28/M09 A2977 RMK A01,M
10U,2023-09-01 17:35,-116.1876,41.9532,1637.00,68.00,35.60,30.20,30.00,9.00,0.00,29.93,M,10.00,M,CLR,M,M,M,M,M,M,M,M,M,M,M,M,M,M,68.00,K10U 011735Z AUTO 03009KT 10SM CLR 20/02 A2993 RMK AO2,M
TMT,2023-09-01 17:35,-117.1971,39.4643,1749.34,71.60,27.70,19.41,0.00,0.00,0.00,29.91,M,M,M,CLR,M,M,M,M,M,M,M,M,M,M,M,M,M,M,71.60,KTMT 011735Z AUTO 00000KT CLR 22/M02 A2991 RMK AO2 T02201024 PWINO,M
05U,2023-09-01 17:50,-116.0051,39.6042,1811.23,78.80,42.80,27.81,M,M,0.00,29.95,M,9.00,M,CLR,M,M,M,M,M,M,M,M,M,M,M,M,M,M,78.80,K05U 011750Z AUTO 9SM CLR 26/06 A2995 RMK A01,M
P68,2023-09-01 17:53,-116.0056,39.6014,1993.00,77.00,43.00,29.74,190.00,24.00,0.00,29.92,1005.10,M,38.00,M,M,M,M,M,M,M,M,M,M,M,M,47.00,180.00,2023-09-01 17:01,77.00,KP68 011753Z AUTO 19024G38KT 25/06 A2992 RMK AO1 PK WND 18047/1701 SLP051 T02500061 10256 20111 55000,M
DRA,2023-09-01 17:53,-116.0278,36.6206,1009.00,83.00,57.00,41.14,M,5.00,0.00,29.90,1007.20,10.00,M,CLR,M,M,M,M,M,M,M,M,M,M,M,M,M,M,82.49,KDRA 011753Z AUTO VRB05KT 10SM CLR 28/14 A2990 RMK AO2 SLP072 T02830139 10294 20256 50010,M
ELY,2023-09-01 17:53,-114.8453,39.2950,1909.00,68.00,52.00,56.55,160.00,27.00,0.00,30.04,1007.00,10.00,39.00,CLR,M,M,M,M,M,M,M,M,M,M,M,42.00,170.00,2023-09-01 17:34,68.00,KELY 011753Z AUTO 16027G39KT 10SM CLR 20/11 A3004 RMK AO2 PK WND 17042/1734 SLP070 T02000111 10211 20144 51010,M
VGT,2023-09-01 17:53,-115.1933,36.2111,667.00,78.00,66.00,66.61,90.00,10.00,T,29.95,1013.10,10.00,M,CLR,M,M,M,M,M,M,M,M,M,M,M,M,M,M,78.00,KVGT 011753Z 09010KT 10SM CLR 26/19 A2995 RMK AO2 LTG DSNT E AND SE RAE01 SLP131 P0000 60020 T02560189 10278 20217 50007,M
LOL,2023-09-01 17:53,-118.5701,40.0684,1192.43,71.00,39.00,31.16,0.00,0.00,0.00,29.79,1004.70,10.00,M,FEW,M,M,M,12000.00,M,M,M,M,M,M,M,M,M,M,71.00,KLOL 011753Z AUTO 00000KT 10SM FEW120 22/04 A2979 RMK AO2 SLP047 60000 T02170039 10217 20150 53004,M
BVU,2023-09-01 17:55,-114.8611,35.9475,671.00,78.80,64.40,61.36,80.00,7.00,0.00,29.94,M,10.00,M,BKN,BKN,BKN,M,5000.00,8500.00,11000.00,M,VCTS,M,M,M,M,M,M,78.80,KBVU 011755Z AUTO 08007KT 10SM VCTS BKN050 BKN085 BKN110 26/18 A2994 RMK AO2 LTG DSNT ALQDS,M
CXP,2023-09-01 17:55,-119.7326,39.1923,1431.00,71.60,28.40,19.98,180.00,13.00,0.00,29.85,M,10.00,23.00,OVC,M,M,M,8500.00,M,M,M,M,M,M,M,M,M,M,71.60,KCXP 011755Z AUTO 18013G23KT 10SM OVC085 22/M02 A2985 RMK AO2,M
RNO,2023-09-01 17:55,-119.7711,39.4839,1341.00,75.00,27.00,16.82,170.00,13.00,0.00,29.81,1003.70,10.00,20.00,OVC,M,M,M,5000.00,M,M,M,M,M,M,M,M,M,M,75.00,KRNO 011755Z 17013G20KT 10SM OVC050 24/M03 A2981 RMK AO2 SLP037 T02391028 10244 20178 51006,M
RTS,2023-09-01 17:55,-119.8764,39.6682,1539.00,66.20,33.80,29.92,230.00,12.00,0.00,29.85,M,10.00,M,OVC,M,M,M,7500.00,M,M,M,M,M,M,M,M,M,M,66.20,KRTS 011755Z AUTO 23012KT 10SM OVC075 19/01 A2985 RMK AO2,M
MEV,2023-09-01 17:55,-119.7500,38.9963,1441.42,69.80,26.60,19.72,170.00,18.00,0.00,29.84,M,10.00,25.00,SCT,BKN,M,M,8000.00,11000.00,M,M,M,M,M,M,M,M,M,69.80,KMEV 011755Z AUTO 17018G25KT 10SM SCT080 BKN110 21/M03 A2984 RMK AO2,M
BAM,2023-09-01 17:55,-116.8743,40.5990,1382.36,77.00,33.80,20.74,350.00,7.00,0.00,29.84,M,10.00,M,CLR,M,M,M,M,M,M,M,M,M,M,M,M,M,M,77.00,KBAM 011755Z AUTO 35007KT 10SM CLR 25/01 A2984 RMK AO1,M
HTH,2023-09-01 17:55,-118.6315,38.5448,1282.89,82.40,15.80,8.20,210.00,24.00,0.00,29.77,M,10.00,36.00,CLR,M,M,M,M,M,M,M,M,M,M,M,M,M,M,79.28,KHTH 011755Z AUTO 21024G36KT 10SM CLR 28/M09 A2977 RMK A01,M
10U,2023-09-01 17:55,-116.1876,41.9532,1637.00,69.80,37.40,30.49,20.00,11.00,0.00,29.93,M,10.00,M,CLR,M,M,M,M,M,M,M,M,M,M,M,M,M,M,69.80,K10U 011755Z AUTO 02011KT 10SM CLR 21/03 A2993 RMK AO2,M
TMT,2023-09-01 17:55,-117.1971,39.4643,1749.34,73.20,29.70,19.96,20.00,3.00,0.00,29.91,M,M,M,CLR,M,M,M,M,M,M,M,M,M,M,M,M,M,M,73.20,KTMT 011755Z AUTO 02003KT CLR 23/M01 A2991 RMK AO2 LTG DSNT NW T02291013 10229 20040 PWINO,M
INS,2023-09-01 17:55,-115.6733,36.5872,955.00,75.40,61.00,60.93,80.00,29.00,0.00,29.90,1007.50,10.00,32.00,BKN,BKN,M,M,12000.00,15000.00,M,M,M,M,M,M,39.00,80.00,2023-09-01 17:11,75.40,KINS 011755Z AUTO 08029G32KT 10SM BKN120 BKN150 24/16 A2990 RMK AO2 PK WND 08039/11 SLP075 T02410161 10260 20207 50004 $,M
LSV,2023-09-01 17:55,-115.0343,36.2362,570.00,78.80,69.80,73.95,10.00,13.00,0.00,29.92,1010.80,10.00,M,BKN,BKN,M,M,5000.00,17000.00,M,M,M,M,M,M,M,M,M,78.80,KLSV 011755Z COR 01013KT 10SM BKN050 BKN170 26/21 A2992 RMK AO2A SLP108 ALSTG ESTMD 60028 10259 20213 51011 $ COR 1806,M
EKO,2023-09-01 17:56,-115.7860,40.8242,1367.00,83.00,30.00,14.62,200.00,15.00,0.00,29.87,1005.80,10.00,27.00,CLR,M,M,M,M,M,M,M,M,M,M,M,27.00,180.00,2023-09-01 17:47,80.39,KEKO 011756Z AUTO 20015G27KT 10SM CLR 28/M01 A2987 RMK AO2 PK WND 18027/1747 SLP058 T02831011 10283 20106 58006,M
WMC,2023-09-01 17:56,-117.8072,40.9019,1315.00,77.00,33.00,20.09,30.00,16.00,0.00,29.80,1003.80,10.00,25.00,CLR,M,M,M,M,M,M,M,M,M,M,M,M,M,M,77.00,KWMC 011756Z AUTO 03016G25KT 10SM CLR 25/01 A2980 RMK AO2 SLP038 T02500006 10261 20172 58008,M
NFL,2023-09-01 17:56,-118.7010,39.4166,1199.00,76.00,41.00,28.47,40.00,5.00,0.00,29.78,1006.30,10.00,M,FEW,BKN,M,M,8000.00,12000.00,M,M,M,M,M,M,M,M,M,76.00,KNFL 011756Z 04005KT 10SM FEW080 BKN120 24/05 A2978 RMK AO2 SLP063 6//// T02440050 10244 20172 51004,M
HND,2023-09-01 17:56,-115.1344,35.9729,742.79,78.00,65.00,64.33,40.00,12.00,0.00,29.97,1013.70,10.00,M,BKN,M,M,M,4100.00,M,M,M,M,M,M,M,M,M,M,78.00,KHND 011756Z 04012KT 10SM BKN041 26/18 A2997 RMK AO2 LTG DSNT E AND SE SLP137 60000 T02560183 10272 20228 50007,M
TPH,2023-09-01 17:56,-117.0904,38.0505,1654.00,77.00,40.00,26.49,180.00,21.00,0.00,29.96,1006.90,10.00,35.00,CLR,M,M,M,M,M,M,M,M,M,M,M,37.00,170.00,2023-09-01 17:22,77.00,KTPH 011756Z AUTO 18021G35KT 10SM CLR 25/04 A2996 RMK AO2 PK WND 17037/1722 SLP069 T02500044 10250 20144 53008,M
LAS,2023-09-01 17:56,-115.1634,36.0719,663.00,77.00,65.00,66.50,60.00,12.00,0.00,29.95,1011.70,10.00,M,SCT,BKN,BKN,M,5000.00,11000.00,20000.00,M,M,M,M,M,M,M,M,77.00,KLAS 011756Z 06012KT 10SM SCT050 BKN110 BKN200 25/18 A2995 RMK AO2 LTG DSNT E AND SE SLP117 CB DSNT E AND SE 60011 T02500183 10261 20217 50008,M
05U,2023-09-01 18:10,-116.0051,39.6042,1811.23,78.80,42.80,27.81,M,M,0.00,29.95,M,10.00,M,CLR,M,M,M,M,M,M,M,M,M,M,M,M,M,M,78.80,K05U 011810Z AUTO 10SM CLR 26/06 A2995 RMK A01,M
BVU,2023-09-01 18:15,-114.8611,35.9475,671.00,77.00,64.40,65.12,120.00,6.00,0.00,29.94,M,10.00,M,BKN,BKN,BKN,M,5000.00,5500.00,8000.00,M,VCTS,M,M,M,M,M,M,77.00,KBVU 011815Z AUTO 12006KT 10SM VCTS BKN050 BKN055 BKN080 25/18 A2994 RMK AO2 LTG DSNT NE,M
CXP,2023-09-01 18:15,-119.7326,39.1923,1431.00,71.60,30.20,21.50,180.00,17.00,0.00,29.85,M,10.00,24.00,OVC,M,M,M,8500.00,M,M,M,M,M,M,M,M,M,M,71.60,KCXP 011815Z AUTO 18017G24KT 10SM OVC085 22/M01 A2985 RMK AO2,M
RTS,2023-09-01 18:15,-119.8764,39.6682,1539.00,66.20,35.60,32.14,230.00,11.00,0.00,29.86,M,10.00,M,OVC,M,M,M,7500.00,M,M,M,M,M,M,M,M,M,M,66.20,KRTS 011815Z AUTO 23011KT 10SM OVC075 19/02 A2986 RMK AO2,M
MEV,2023-09-01 18:15,-119.7500,38.9963,1441.42,69.80,30.20,22.86,170.00,20.00,0.00,29.84,M,10.00,28.00,BKN,BKN,BKN,M,7500.00,8500.00,11000.00,M,M,M,M,M,M,M,M,69.80,KMEV 011815Z AUTO 17020G28KT 10SM BKN075 BKN085 BKN110 21/M01 A2984 RMK AO2,M
HTH,2023-09-01 18:15,-118.6315,38.5448,1282.89,82.40,15.80,8.20,220.00,28.00,0.00,29.77,M,10.00,40.00,CLR,M,M,M,M,M,M,M,M,M,M,M,M,M,M,79.28,KHTH 011815Z AUTO 22028G40KT 10SM CLR 28/M09 A2977 RMK A01,M
10U,2023-09-01 18:15,-116.1876,41.9532,1637.00,71.60,39.20,30.77,30.00,12.00,0.00,29.92,M,10.00,17.00,CLR,M,M,M,M,M,M,M,M,M,M,M,M,M,M,71.60,K10U 011815Z AUTO 03012G17KT 10SM CLR 22/04 A2992 RMK AO2,M
BAM,2023-09-01 18:15,-116.8743,40.5990,1382.36,77.00,33.80,20.74,340.00,6.00,0.00,29.84,M,10.00,M,CLR,M,M,M,M,M,M,M,M,M,M,M,M,M,M,77.00,KBAM 011815Z AUTO 34006KT 10SM CLR 25/01 A2984 RMK AO1,M
TMT,2023-09-01 18:15,-117.1971,39.4643,1749.34,75.20,30.00,18.89,350.00,5.00,0.00,29.90,M,M,M,CLR,M,M,M,M,M,M,M,M,M,M,M,M,M,M,75.20,KTMT 011815Z AUTO 35005KT CLR 24/M01 A2990 RMK AO2 T02401012 PWINO,M
05U,2023-09-01 18:30,-116.0051,39.6042,1811.23,78.80,42.80,27.81,M,M,0.00,29.95,M,10.00,M,CLR,M,M,M,M,M,M,M,M,M,M,M,M,M,M,78.80,K05U 011830Z AUTO 10SM CLR 26/06 A2995 RMK A01,M
BVU,2023-09-01 18:35,-114.8611,35.9475,671.00,77.00,64.40,65.12,70.00,7.00,0.00,29.94,M,10.00,M,SCT,BKN,BKN,M,5000.00,8000.00,11000.00,M,M,M,M,M,M,M,M,77.00,KBVU 011835Z AUTO 07007KT 10SM SCT050 BKN080 BKN110 25/18 A2994 RMK AO2 LTG DSNT NE AND E,M
CXP,2023-09-01 18:35,-119.7326,39.1923,1431.00,69.80,30.20,22.86,180.00,15.00,0.00,29.85,M,10.00,25.00,OVC,M,M,M,8500.00,M,M,M,M,M,M,M,M,M,M,69.80,KCXP 011835Z AUTO 18015G25KT 10SM OVC085 21/M01 A2985 RMK AO2,M
RTS,2023-09-01 18:35,-119.8764,39.6682,1539.00,68.00,35.60,30.20,210.00,11.00,0.00,29.86,M,10.00,M,FEW,FEW,BKN,M,5000.00,6000.00,7500.00,M,M,M,M,M,M,M,M,68.00,KRTS 011835Z AUTO 21011KT 10SM FEW050 FEW060 BKN075 20/02 A2986 RMK AO2,M
MEV,2023-09-01 18:35,-119.7500,38.9963,1441.42,69.80,32.00,24.59,180.00,21.00,0.00,29.84,M,10.00,31.00,BKN,BKN,BKN,M,8000.00,8500.00,11000.00,M,M,M,M,M,M,M,M,69.80,KMEV 011835Z AUTO 18021G31KT 10SM BKN080 BKN085 BKN110 21/00 A2984 RMK AO2,M
BAM,2023-09-01 18:35,-116.8743,40.5990,1382.36,80.60,33.80,18.42,20.00,6.00,0.00,29.84,M,10.00,M,CLR,M,M,M,M,M,M,M,M,M,M,M,M,M,M,78.88,KBAM 011835Z AUTO 02006KT 10SM CLR 27/01 A2984 RMK AO1,M
HTH,2023-09-01 18:35,-118.6315,38.5448,1282.89,86.00,15.80,7.31,220.00,26.00,0.00,29.77,M,10.00,37.00,CLR,M,M,M,M,M,M,M,M,M,M,M,M,M,M,81.78,KHTH 011835Z AUTO 22026G37KT 10SM CLR 30/M09 A2977 RMK A01,M
TMT,2023-09-01 18:35,-117.1971,39.4643,1749.34,75.70,29.50,18.21,310.00,3.00,0.00,29.89,M,M,M,CLR,M,M,M,M,M,M,M,M,M,M,M,M,M,M,75.70,KTMT 011835Z AUTO 31003KT CLR 24/M01 A2989 RMK AO2 T02431014 PWINO,M
10U,2023-09-01 18:35,-116.1876,41.9532,1637.00,73.40,37.40,26.98,70.00,9.00,0.00,29.92,M,10.00,16.00,CLR,M,M,M,M,M,M,M,M,M,M,M,M,M,M,73.40,K10U 011835Z AUTO 07009G16KT 10SM CLR 23/03 A2992 RMK AO2,M
05U,2023-09-01 18:50,-116.0051,39.6042,1811.23,80.60,42.80,26.22,M,M,0.00,29.94,M,10.00,M,CLR,M,M,M,M,M,M,M,M,M,M,M,M,M,M,79.30,K05U 011850Z AUTO 10SM CLR 27/06 A2994 RMK A01,M
P68,2023-09-01 18:53,-116.0056,39.6014,1993.00,80.00,42.00,25.93,190.00,26.00,0.00,29.91,1004.60,M,38.00,M,M,M,M,M,M,M,M,M,M,M,M,42.00,190.00,2023-09-01 17:55,78.92,KP68 011853Z AUTO 19026G38KT 27/06 A2991 RMK AO1 PK WND 19042/1755 SLP046 T02670056,M
DRA,2023-09-01 18:53,-116.0278,36.6206,1009.00,88.00,56.00,33.81,190.00,17.00,0.00,29.88,1006.30,10.00,25.00,CLR,M,M,M,M,M,M,M,M,M,M,M,M,M,M,86.44,KDRA 011853Z AUTO 19017G25KT 10SM CLR 31/13 A2988 RMK AO2 SLP063 T03110133,M
ELY,2023-09-01 18:53,-114.8453,39.2950,1909.00,69.00,51.00,52.66,160.00,27.00,0.00,30.05,1006.90,10.00,40.00,FEW,M,M,M,7000.00,M,M,M,M,M,M,M,40.00,160.00,2023-09-01 18:52,69.00,KELY 011853Z AUTO 16027G40KT 10SM FEW070 21/11 A3005 RMK AO2 PK WND 16040/1852 SLP069 T02060106,M
VGT,2023-09-01 18:53,-115.1933,36.2111,667.00,81.00,67.00,62.49,80.00,13.00,0.00,29.93,1012.70,10.00,18.00,OVC,M,M,M,4700.00,M,M,M,M,M,M,M,M,M,M,83.43,KVGT 011853Z 08013G18KT 10SM OVC047 27/19 A2993 RMK AO2 LTG DSNT E SLP127 T02720194,M
LOL,2023-09-01 18:53,-118.5701,40.0684,1192.43,71.00,41.00,33.68,280.00,3.00,0.00,29.79,1005.20,10.00,M,SCT,M,M,M,12000.00,M,M,M,M,M,M,M,M,M,M,71.00,KLOL 011853Z AUTO 28003KT 10SM SCT120 22/05 A2979 RMK AO2 SLP052 T02170050,M
BVU,2023-09-01 18:55,-114.8611,35.9475,671.00,78.80,64.40,61.36,100.00,6.00,0.00,29.93,M,10.00,M,BKN,BKN,BKN,M,5500.00,8000.00,11000.00,M,M,M,M,M,M,M,M,78.80,KBVU 011855Z AUTO 10006KT 10SM BKN055 BKN080 BKN110 26/18 A2993 RMK AO2 LTG DSNT NE AND S,M
CXP,2023-09-01 18:55,-119.7326,39.1923,1431.00,69.80,32.00,24.59,190.00,13.00,0.00,29.85,M,10.00,24.00,OVC,M,M,M,8500.00,M,M,M,M,M,M,M,M,M,M,69.80,KCXP 011855Z AUTO 19013G24KT 10SM OVC085 21/M00 A2985 RMK AO2,M
RNO,2023-09-01 18:55,-119.7711,39.4839,1341.00,69.00,45.00,42.04,210.00,19.00,T,29.83,1005.00,10.00,24.00,BKN,OVC,M,M,4000.00,10000.00,M,M,-RA,M,M,M,29.00,190.00,2023-09-01 18:29,69.00,KRNO 011855Z 21019G24KT 10SM -RA BKN040 OVC100 21/07 A2983 RMK AO2 PK WND 19029/1829 RAB20 SLP050 P0000 T02060072,M
RTS,2023-09-01 18:55,-119.8764,39.6682,1539.00,66.20,39.20,37.03,170.00,6.00,0.00,29.87,M,9.00,12.00,FEW,FEW,BKN,M,5000.00,6000.00,7000.00,M,-DZ,M,M,M,M,M,M,66.20,KRTS 011855Z AUTO 17006G12KT 9SM -DZ FEW050 FEW060 BKN070 19/04 A2987 RMK AO2,M
MEV,2023-09-01 18:55,-119.7500,38.9963,1441.42,69.80,33.80,26.43,180.00,18.00,0.00,29.85,M,10.00,26.00,BKN,BKN,M,M,7500.00,11000.00,M,M,M,M,M,M,M,M,M,69.80,KMEV 011855Z AUTO 18018G26KT 10SM BKN075 BKN110 21/01 A2985 RMK AO2,M
BAM,2023-09-01 18:55,-116.8743,40.5990,1382.36,80.60,32.00,17.14,260.00,5.00,0.00,29.83,M,10.00,M,CLR,M,M,M,M,M,M,M,M,M,M,M,M,M,M,78.82,KBAM 011855Z AUTO 26005KT 10SM CLR 27/00 A2983 RMK AO1,M
HTH,2023-09-01 18:55,-118.6315,38.5448,1282.89,87.80,15.80,6.90,220.00,33.00,0.00,29.76,M,10.00,43.00,CLR,M,M,M,M,M,M,M,M,M,M,M,M,M,M,83.07,KHTH 011855Z AUTO 22033G43KT 10SM CLR 31/M09 A2976 RMK A01,M
INS,2023-09-01 18:55,-115.6733,36.5872,955.00,78.00,60.60,55.10,90.00,26.00,0.00,29.89,1007.00,10.00,M,CLR,M,M,M,M,M,M,M,M,M,M,M,33.00,90.00,2023-09-01 18:04,78.00,KINS 011855Z AUTO 09026KT 10SM CLR 26/16 A2989 RMK AO2 PK WND 09033/04 SLP070 T02560159 $,M
LSV,2023-09-01 18:55,-115.0343,36.2362,570.00,78.40,68.50,71.67,20.00,17.00,0.00,29.91,1010.50,10.00,M,BKN,BKN,M,M,5000.00,12000.00,M,M,M,M,M,M,M,M,M,78.40,KLSV 011855Z 02017KT 10SM BKN050 BKN120 26/20 A2991 RMK AO2A SLP105 T02580203 $,M
EKO,2023-09-01 18:56,-115.7860,40.8242,1367.00,86.00,32.00,14.40,160.00,22.00,0.00,29.85,1004.80,10.00,37.00,CLR,M,M,M,M,M,M,M,M,M,M,M,37.00,170.00,2023-09-01 18:55,82.64,KEKO 011856Z AUTO 16022G37KT 10SM CLR 30/00 A2985 RMK AO2 PK WND 17037/1855 SLP048 T03000000,M
WMC,2023-09-01 18:56,-117.8072,40.9019,1315.00,79.00,33.00,18.80,10.00,9.00,0.00,29.80,1003.60,10.00,M,CLR,M,M,M,M,M,M,M,M,M,M,M,27.00,50.00,2023-09-01 18:01,79.00,KWMC 011856Z AUTO 01009KT 10SM CLR 26/01 A2980 RMK AO2 PK WND 05027/1801 SLP036 T02610006,M
NFL,2023-09-01 18:56,-118.7010,39.4166,1199.00,77.00,37.00,23.55,360.00,6.00,0.00,29.78,1006.20,10.00,M,FEW,BKN,M,M,8000.00,12000.00,M,M,M,M,M,M,M,M,M,77.00,KNFL 011856Z 36006KT 10SM FEW080 BKN120 25/03 A2978 RMK AO2 SLP062 T02500028,M
HND,2023-09-01 18:56,-115.1344,35.9729,742.79,79.00,64.00,60.11,40.00,10.00,0.00,29.96,1013.30,10.00,M,OVC,M,M,M,4300.00,M,M,M,M,M,M,M,M,M,M,79.00,KHND 011856Z 04010KT 10SM OVC043 26/18 A2996 RMK AO2 SLP133 T02610178,M
TPH,2023-09-01 18:56,-117.0904,38.0505,1654.00,79.00,40.00,24.79,180.00,27.00,0.00,29.94,1005.80,10.00,45.00,CLR,M,M,M,M,M,M,M,M,M,M,M,45.00,190.00,2023-09-01 18:53,79.00,KTPH 011856Z AUTO 18027G45KT 10SM CLR 26/04 A2994 RMK AO2 PK WND 19045/1853 SLP058 T02610044,M
LAS,2023-09-01 18:56,-115.1634,36.0719,663.00,79.00,65.00,62.25,60.00,11.00,0.00,29.94,1011.20,10.00,M,SCT,OVC,M,M,5000.00,11000.00,M,M,M,M,M,M,M,M,M,79.00,KLAS 011856Z 06011KT 10SM SCT050 OVC110 26/18 A2994 RMK AO2 SLP112 T02610183,M
10U,2023-09-01 19:00,-116.1876,41.9532,1637.00,73.40,39.20,28.96,50.00,10.00,0.00,29.91,M,10.00,17.00,CLR,M,M,M,M,M,M,M,M,M,M,M,M,M,M,73.40,K10U 011900Z AUTO 05010G17KT 10SM CLR 23/04 A2991 RMK AO2,M
DRA,2023-09-01 19:08,-116.0278,36.6206,1009.00,89.00,53.00,29.36,210.00,19.00,0.00,29.88,M,10.00,29.00,CLR,M,M,M,M,M,M,M,M,M,M,M,29.00,200.00,2023-09-01 19:08,86.68,KDRA 011908Z AUTO 21019G29KT 10SM CLR 32/12 A2988 RMK AO2 PK WND 20029/1908 WSHFT 1851 T03170117,M
05U,2023-09-01 19:10,-116.0051,39.6042,1811.23,80.60,42.80,26.22,M,M,0.00,29.94,M,10.00,M,CLR,M,M,M,M,M,M,M,M,M,M,M,M,M,M,79.30,K05U 011910Z AUTO 10SM CLR 27/06 A2994 RMK A01,M
BVU,2023-09-01 19:15,-114.8611,35.9475,671.00,80.60,64.40,57.84,90.00,7.00,0.00,29.93,M,10.00,M,BKN,BKN,BKN,M,5500.00,8000.00,11000.00,M,VCTS,M,M,M,M,M,M,82.27,KBVU 011915Z AUTO 09007KT 10SM VCTS BKN055 BKN080 BKN110 27/18 A2993 RMK AO2 LTG DSNT NE,M
CXP,2023-09-01 19:15,-119.7326,39.1923,1431.00,69.80,33.80,26.43,180.00,9.00,0.00,29.86,M,10.00,15.00,OVC,M,M,M,8000.00,M,M,M,M,M,M,M,M,M,M,69.80,KCXP 011915Z AUTO 18009G15KT 150V220 10SM OVC080 21/01 A2986 RMK AO2,M
RTS,2023-09-01 19:15,-119.8764,39.6682,1539.00,66.20,39.20,37.03,200.00,11.00,0.00,29.87,M,10.00,M,FEW,OVC,M,M,4500.00,7000.00,M,M,M,M,M,M,M,M,M,66.20,KRTS 011915Z AUTO 20011KT 10SM FEW045 OVC070 19/04 A2987 RMK AO2,M
MEV,2023-09-01 19:15,-119.7500,38.9963,1441.42,69.80,33.80,26.43,180.00,16.00,0.00,29.85,M,10.00,22.00,BKN,BKN,M,M,7500.00,9500.00,M,M,M,M,M,M,M,M,M,69.80,KMEV 011915Z AUTO 18016G22KT 10SM BKN075 BKN095 21/01 A2985 RMK AO2,M
BAM,2023-09-01 19:15,-116.8743,40.5990,1382.36,82.40,32.00,16.17,0.00,0.00,0.00,29.82,M,10.00,M,CLR,M,M,M,M,M,M,M,M,M,M,M,M,M,M,80.00,KBAM 011915Z AUTO 00000KT 10SM CLR 28/00 A2982 RMK AO1,M
HTH,2023-09-01 19:15,-118.6315,38.5448,1282.89,87.80,17.60,7.46,210.00,30.00,0.00,29.76,M,10.00,40.00,CLR,M,M,M,M,M,M,M,M,M,M,M,M,M,M,83.14,KHTH 011915Z AUTO 21030G40KT 10SM CLR 31/M08 A2976 RMK A01,M
TMT,2023-09-01 19:15,-117.1971,39.4643,1749.34,78.00,30.40,17.50,100.00,4.00,0.00,29.87,M,M,M,CLR,M,M,M,M,M,M,M,M,M,M,M,M,M,M,78.00,KTMT 011915Z AUTO 10004KT CLR 26/M01 A2987 RMK AO2 T02561009 PWINO,M
10U,2023-09-01 19:20,-116.1876,41.9532,1637.00,75.20,39.20,27.26,40.00,15.00,0.00,29.90,M,10.00,24.00,CLR,M,M,M,M,M,M,M,M,M,M,M,M,M,M,75.20,K10U 011920Z AUTO 04015G24KT 10SM CLR 24/04 A2990 RMK AO2,M
05U,2023-09-01 19:30,-116.0051,39.6042,1811.23,82.40,41.00,23.07,M,M,0.00,29.94,M,10.00,M,CLR,M,M,M,M,M,M,M,M,M,M,M,M,M,M,80.29,K05U 011930Z AUTO 10SM CLR 28/05 A2994 RMK A01,M
HND,2023-09-01 19:33,-115.1344,35.9729,742.79,78.80,64.40,61.36,0.00,0.00,T,29.96,M,10.00,M,OVC,M,M,M,4900.00,M,M,M,VCTS -RA,M,M,M,M,M,M,78.80,KHND 011933Z 00000KT 10SM VCTS -RA OVC049 26/18 A2996 RMK AO2 TSB27RAB32 P0000,M
BVU,2023-09-01 19:35,-114.8611,35.9475,671.00,80.60,64.40,57.84,90.00,11.00,0.00,29.93,M,10.00,M,OVC,M,M,M,5500.00,M,M,M,M,M,M,M,M,M,M,82.27,KBVU 011935Z AUTO 09011KT 10SM OVC055 27/18 A2993 RMK AO2 LTG DSNT NE,M
CXP,2023-09-01 19:35,-119.7326,39.1923,1431.00,69.80,35.60,28.39,190.00,11.00,0.00,29.86,M,10.00,25.00,OVC,M,M,M,7500.00,M,M,M,M,M,M,M,M,M,M,69.80,KCXP 011935Z AUTO 19011G25KT 10SM OVC075 21/02 A2986 RMK AO2,M
RTS,2023-09-01 19:35,-119.8764,39.6682,1539.00,66.20,41.00,39.72,200.00,12.00,0.00,29.87,M,10.00,23.00,OVC,M,M,M,6500.00,M,M,M,-RA,M,M,M,M,M,M,66.20,KRTS 011935Z AUTO 20012G23KT 10SM -RA OVC065 19/05 A2987 RMK AO2,M
MEV,2023-09-01 19:35,-119.7500,38.9963,1441.42,69.80,39.20,32.72,190.00,18.00,0.00,29.86,M,10.00,24.00,BKN,BKN,M,M,7000.00,9000.00,M,M,M,M,M,M,M,M,M,69.80,KMEV 011935Z AUTO 19018G24KT 10SM BKN070 BKN090 21/04 A2986 RMK AO2,M
BAM,2023-09-01 19:35,-116.8743,40.5990,1382.36,82.40,30.20,15.03,320.00,3.00,0.00,29.81,M,10.00,M,CLR,M,M,M,M,M,M,M,M,M,M,M,M,M,M,79.97,KBAM 011935Z AUTO 32003KT 10SM CLR 28/M01 A2981 RMK AO1,M
HTH,2023-09-01 19:35,-118.6315,38.5448,1282.89,87.80,17.60,7.46,210.00,28.00,0.00,29.77,M,10.00,37.00,CLR,M,M,M,M,M,M,M,M,M,M,M,M,M,M,83.14,KHTH 011935Z AUTO 21028G37KT 10SM CLR 31/M08 A2977 RMK A01,M
TMT,2023-09-01 19:35,-117.1971,39.4643,1749.34,81.50,28.80,14.62,200.00,13.00,0.00,29.87,M,M,21.00,CLR,M,M,M,M,M,M,M,M,M,M,M,M,M,M,79.33,KTMT 011935Z AUTO 20013G21KT CLR 28/M02 A2987 RMK AO2 T02751018 PWINO,M
10U,2023-09-01 19:40,-116.1876,41.9532,1637.00,77.00,39.20,25.67,60.00,16.00,0.00,29.89,M,10.00,25.00,CLR,M,M,M,M,M,M,M,M,M,M,M,M,M,M,77.00,K10U 011940Z AUTO 06016G25KT 10SM CLR 25/04 A2989 RMK AO2,M
LAS,2023-09-01 19:46,-115.1634,36.0719,663.00,78.00,65.00,64.33,20.00,12.00,T,29.94,M,10.00,20.00,BKN,OVC,M,M,5000.00,11000.00,M,M,-TSRA,M,M,M,M,M,M,78.00,KLAS 011946Z 02012G20KT 10SM -TSRA BKN050CB OVC110 26/18 A2994 RMK AO2 LTG DSNT S AND SW RAB46 TSB46 OCNL LTGIC S TS S MOV NE P0000 T02560183,M
05U,2023-09-01 19:50,-116.0051,39.6042,1811.23,82.40,42.80,24.72,M,M,0.00,29.94,M,10.00,M,CLR,M,M,M,M,M,M,M,M,M,M,M,M,M,M,80.39,K05U 011950Z AUTO 10SM CLR 28/06 A2994 RMK A01,M
RTS,2023-09-01 19:50,-119.8764,39.6682,1539.00,66.20,41.00,39.72,210.00,15.00,0.00,29.88,M,10.00,22.00,BKN,OVC,M,M,6000.00,7000.00,M,M,M,M,M,M,M,M,M,66.20,KRTS 011950Z AUTO 21015G22KT 10SM BKN060 OVC070 19/05 A2988 RMK AO2,M
P68,2023-09-01 19:53,-116.0056,39.6014,1993.00,81.00,43.00,26.08,170.00,25.00,0.00,29.91,1004.10,M,35.00,M,M,M,M,M,M,M,M,M,M,M,M,41.00,190.00,2023-09-01 19:13,79.54,KP68 011953Z AUTO 17025G35KT 27/06 A2991 RMK AO1 PK WND 19041/1913 SLP041 T02720061,M
DRA,2023-09-01 19:53,-116.0278,36.6206,1009.00,91.00,56.00,30.76,180.00,21.00,0.00,29.89,1006.20,10.00,31.00,CLR,M,M,M,M,M,M,M,M,M,M,M,34.00,220.00,2023-09-01 19:10,89.30,KDRA 011953Z AUTO 18021G31KT 10SM CLR 33/13 A2989 RMK AO2 PK WND 22034/1910 WSHFT 1851 SLP062 T03280133,M
ELY,2023-09-01 19:53,-114.8453,39.2950,1909.00,73.00,51.00,45.96,160.00,23.00,0.00,30.03,1006.20,10.00,38.00,FEW,M,M,M,7000.00,M,M,M,M,M,M,M,40.00,160.00,2023-09-01 19:34,73.00,KELY 011953Z AUTO 16023G38KT 10SM FEW070 23/11 A3003 RMK AO2 PK WND 16040/1934 SLP062 T02280106,M
VGT,2023-09-01 19:53,-115.1933,36.2111,667.00,79.00,65.00,62.25,70.00,12.00,0.00,29.94,1012.90,10.00,21.00,OVC,M,M,M,4500.00,M,M,M,M,M,M,M,M,M,M,79.00,KVGT 011953Z 07012G21KT 10SM OVC045 26/18 A2994 RMK AO2 LTG DSNT NE AND S SLP129 T02610183,M
LOL,2023-09-01 19:53,-118.5701,40.0684,1192.43,74.00,39.00,28.16,310.00,4.00,0.00,29.78,1004.60,10.00,M,CLR,M,M,M,M,M,M,M,M,M,M,M,M,M,M,74.00,KLOL 011953Z AUTO 31004KT 10SM CLR 23/04 A2978 RMK AO2 SLP046 T02330039,M
BVU,2023-09-01 19:55,-114.8611,35.9475,671.00,82.40,62.60,51.21,110.00,10.00,0.00,29.93,M,10.00,M,OVC,M,M,M,5500.00,M,M,M,M,M,M,M,M,M,M,83.41,KBVU 011955Z AUTO 11010KT 10SM OVC055 28/17 A2993 RMK AO2,M
CXP,2023-09-01 19:55,-119.7326,39.1923,1431.00,69.80,39.20,32.72,190.00,9.00,0.00,29.87,M,10.00,20.00,OVC,M,M,M,7000.00,M,M,M,M,M,M,M,M,M,M,69.80,KCXP 011955Z AUTO 19009G20KT 160V220 10SM OVC070 21/04 A2987 RMK AO2,M
RNO,2023-09-01 19:55,-119.7711,39.4839,1341.00,65.00,48.00,54.07,210.00,23.00,T,29.84,1005.80,10.00,37.00,BKN,M,M,M,4000.00,M,M,M,-RA,M,M,M,37.00,220.00,2023-09-01 19:50,65.00,KRNO 011955Z 21023G37KT 10SM -RA BKN040 18/09 A2984 RMK AO2 PK WND 22037/1950 SLP058 P0000 T01830089,M
MEV,2023-09-01 19:55,-119.7500,38.9963,1441.42,68.00,39.20,34.80,180.00,24.00,0.00,29.87,M,10.00,32.00,BKN,OVC,M,M,7500.00,8500.00,M,M,M,M,M,M,M,M,M,68.00,KMEV 011955Z AUTO 18024G32KT 10SM BKN075 OVC085 20/04 A2987 RMK AO2,M
BAM,2023-09-01 19:55,-116.8743,40.5990,1382.36,86.00,30.20,13.38,290.00,7.00,0.00,29.81,M,10.00,M,CLR,M,M,M,M,M,M,M,M,M,M,M,M,M,M,82.64,KBAM 011955Z AUTO 29007KT 250V310 10SM CLR 30/M01 A2981 RMK AO1,M
HTH,2023-09-01 19:55,-118.6315,38.5448,1282.89,87.80,15.80,6.90,210.00,29.00,0.00,29.76,M,10.00,44.00,CLR,M,M,M,M,M,M,M,M,M,M,M,M,M,M,83.07,KHTH 011955Z AUTO 21029G44KT 10SM CLR 31/M09 A2976 RMK A01,M
TMT,2023-09-01 19:55,-117.1971,39.4643,1749.34,82.60,29.00,14.22,200.00,18.00,0.00,29.87,M,M,26.00,SCT,M,M,M,12000.00,M,M,M,M,M,M,M,M,M,M,80.09,KTMT 011955Z AUTO 20018G26KT SCT120 28/M02 A2987 RMK AO2 T02811017 PWINO,M
10U,2023-09-01 19:55,-116.1876,41.9532,1637.00,75.20,39.20,27.26,40.00,15.00,0.00,29.89,M,10.00,21.00,CLR,M,M,M,M,M,M,M,M,M,M,M,M,M,M,75.20,K10U 011955Z AUTO 04015G21KT 10SM CLR 24/04 A2989 RMK AO2,M
INS,2023-09-01 19:55,-115.6733,36.5872,955.00,78.00,60.60,55.10,80.00,30.00,0.00,29.90,1007.30,10.00,34.00,SCT,BKN,M,M,10000.00,18000.00,M,M,M,M,M,M,35.00,90.00,2023-09-01 19:21,78.00,KINS 011955Z AUTO 08030G34KT 10SM SCT100 BKN180 26/16 A2990 RMK AO2 PK WND 09035/21 SLP073 T02560159 $,M
LSV,2023-09-01 19:55,-115.0343,36.2362,570.00,80.00,66.00,62.37,10.00,15.00,0.00,29.91,1010.40,10.00,M,SCT,SCT,BKN,BKN,6000.00,13000.00,15000.00,19000.00,M,M,M,M,M,M,M,82.07,KLSV 011955Z 01015KT 10SM SCT060 SCT130 BKN150 BKN190 27/19 A2991 RMK AO2A SLP104 T02660189 $,M
EKO,2023-09-01 19:56,-115.7860,40.8242,1367.00,88.00,33.00,14.06,180.00,20.00,0.00,29.84,1004.30,10.00,34.00,FEW,M,M,M,11000.00,M,M,M,M,M,M,M,35.00,200.00,2023-09-01 19:07,84.25,KEKO 011956Z AUTO 18020G34KT 10SM FEW110 31/01 A2984 RMK AO2 PK WND 20035/1907 SLP043 T03110006,M
WMC,2023-09-01 19:56,-117.8072,40.9019,1315.00,80.00,30.00,16.12,M,M,0.00,29.80,1003.70,10.00,M,CLR,M,M,M,M,M,M,M,M,M,M,M,M,M,M,78.46,KWMC 011956Z AUTO 10SM CLR 27/M01 A2980 RMK AO2 SLP037 T02671011,M
NFL,2023-09-01 19:56,-118.7010,39.4166,1199.00,77.00,35.00,21.76,330.00,8.00,0.00,29.76,1005.80,10.00,M,FEW,BKN,M,M,8000.00,12000.00,M,M,M,M,M,M,M,M,M,77.00,KNFL 011956Z 33008KT 10SM FEW080 BKN120 25/02 A2976 RMK AO2 SLP058 SH DSNT NW T02500017,M
HND,2023-09-01 19:56,-115.1344,35.9729,742.79,76.00,69.00,78.94,320.00,11.00,0.02,29.97,1013.60,10.00,M,BKN,OVC,M,M,4900.00,7000.00,M,M,-TSRA,M,M,M,M,M,M,76.00,KHND 011956Z 32011KT 10SM -TSRA BKN049 OVC070 24/21 A2997 RMK AO2 TSB27RAB32 SLP136 P0002 T02440206,M
TPH,2023-09-01 19:56,-117.0904,38.0505,1654.00,82.00,35.00,18.47,190.00,24.00,0.00,29.94,1005.40,10.00,39.00,CLR,M,M,M,M,M,M,M,M,M,M,M,40.00,170.00,2023-09-01 19:18,79.80,KTPH 011956Z AUTO 19024G39KT 10SM CLR 28/02 A2994 RMK AO2 PK WND 17040/1918 SLP054 T02780017,M
LAS,2023-09-01 19:56,-115.1634,36.0719,663.00,78.00,67.00,68.96,20.00,13.00,T,29.94,1011.50,10.00,M,BKN,OVC,M,M,5000.00,11000.00,M,M,-TSRA,M,M,M,M,M,M,78.00,KLAS 011956Z 02013KT 10SM -TSRA BKN050CB OVC110 26/19 A2994 RMK AO2 RAB46 TSB46 SLP115 OCNL LTGIC S TS S MOV NE P0000 T02560194,M
VGT,2023-09-01 20:00,-115.1933,36.2111,667.00,79.00,65.00,62.25,80.00,14.00,0.00,29.94,M,10.00,M,BKN,BKN,M,M,4700.00,5500.00,M,M,VCTS,M,M,M,M,M,M,79.00,KVGT 012000Z 08014KT 10SM VCTS BKN047 BKN055 26/18 A2994 RMK AO2 LTG DSNT NE AND S AND SW T02610183,M
05U,2023-09-01 20:10,-116.0051,39.6042,1811.23,82.40,42.80,24.72,M,M,0.00,29.94,M,10.00,M,CLR,M,M,M,M,M,M,M,M,M,M,M,M,M,M,80.39,K05U 012010Z AUTO 10SM CLR 28/06 A2994 RMK A01,M
BVU,2023-09-01 20:15,-114.8611,35.9475,671.00,78.80,66.20,65.33,60.00,7.00,0.00,29.93,M,10.00,M,OVC,M,M,M,5500.00,M,M,M,M,M,M,M,M,M,M,78.80,KBVU 012015Z AUTO 06007KT 10SM OVC055 26/19 A2993 RMK AO2 LTG DSNT NE AND W,M
CXP,2023-09-01 20:15,-119.7326,39.1923,1431.00,68.00,39.20,34.80,180.00,15.00,0.00,29.88,M,10.00,24.00,BKN,OVC,M,M,7000.00,8000.00,M,M,M,M,M,M,M,M,M,68.00,KCXP 012015Z AUTO 18015G24KT 10SM BKN070 OVC080 20/04 A2988 RMK AO2,M
LSV,2023-09-01 20:15,-115.0343,36.2362,570.00,78.80,64.40,61.36,10.00,15.00,0.00,29.90,1010.00,10.00,M,FEW,SCT,SCT,BKN,6000.00,14000.00,19000.00,21000.00,-RA,M,M,M,M,M,M,78.80,KLSV 012015Z 01015KT 10SM -RA FEW060 SCT140 SCT190 BKN210 26/18 A2990 RMK AO2A RAB15 SLP100 $,M
RTS,2023-09-01 20:15,-119.8764,39.6682,1539.00,66.20,41.00,39.72,190.00,14.00,0.00,29.89,M,10.00,20.00,BKN,BKN,M,M,6000.00,7000.00,M,M,M,M,M,M,M,M,M,66.20,KRTS 012015Z AUTO 19014G20KT 10SM BKN060 BKN070 19/05 A2989 RMK AO2,M
MEV,2023-09-01 20:15,-119.7500,38.9963,1441.42,68.00,39.20,34.80,190.00,22.00,0.00,29.88,M,10.00,30.00,SCT,BKN,BKN,M,7000.00,8000.00,9000.00,M,M,M,M,M,M,M,M,68.00,KMEV 012015Z AUTO 19022G30KT 10SM SCT070 BKN080 BKN090 20/04 A2988 RMK AO2,M
BAM,2023-09-01 20:15,-116.8743,40.5990,1382.36,86.00,28.40,12.44,210.00,3.00,0.00,29.80,M,10.00,M,CLR,M,M,M,M,M,M,M,M,M,M,M,M,M,M,82.54,KBAM 012015Z AUTO 21003KT 10SM CLR 30/M02 A2980 RMK AO1,M
HTH,2023-09-01 20:15,-118.6315,38.5448,1282.89,87.80,17.60,7.46,210.00,30.00,0.00,29.76,M,10.00,37.00,CLR,M,M,M,M,M,M,M,M,M,M,M,M,M,M,83.14,KHTH 012015Z AUTO 21030G37KT 10SM CLR 31/M08 A2976 RMK A01,M
TMT,2023-09-01 20:15,-117.1971,39.4643,1749.34,83.00,29.00,14.04,200.00,16.00,0.00,29.87,M,M,30.00,CLR,M,M,M,M,M,M,M,M,M,M,M,M,M,M,80.37,KTMT 012015Z AUTO 20016G30KT CLR 28/M02 A2987 RMK AO2 T02841016 PWINO,M
10U,2023-09-01 20:15,-116.1876,41.9532,1637.00,77.00,35.60,22.28,80.00,10.00,0.00,29.89,M,10.00,19.00,CLR,M,M,M,M,M,M,M,M,M,M,M,M,M,M,77.00,K10U 012015Z AUTO 08010G19KT 10SM CLR 25/02 A2989 RMK AO2,M
HND,2023-09-01 20:30,-115.1344,35.9729,742.79,73.40,68.00,83.21,20.00,6.00,0.02,29.96,M,10.00,M,BKN,OVC,M,M,4200.00,5000.00,M,M,VCTS -RA,M,M,M,M,M,M,73.40,KHND 012030Z 02006KT 10SM VCTS -RA BKN042 OVC050 23/20 A2996 RMK AO2 LTG DSNT SW-N TSE25B30 P0002,M
05U,2023-09-01 20:30,-116.0051,39.6042,1811.23,82.40,42.80,24.72,M,M,0.00,29.94,M,10.00,M,FEW,M,M,M,9500.00,M,M,M,M,M,M,M,M,M,M,80.39,K05U 012030Z AUTO 10SM FEW095 28/06 A2994 RMK A01,M
BVU,2023-09-01 20:35,-114.8611,35.9475,671.00,78.80,66.20,65.33,40.00,10.00,0.00,29.92,M,10.00,M,OVC,M,M,M,5500.00,M,M,M,M,M,M,M,M,M,M,78.80,KBVU 012035Z AUTO 04010KT 10SM OVC055 26/19 A2992 RMK AO2,M
CXP,2023-09-01 20:35,-119.7326,39.1923,1431.00,68.00,41.00,37.32,200.00,16.00,0.00,29.88,M,10.00,M,OVC,M,M,M,7000.00,M,M,M,-RA,M,M,M,M,M,M,68.00,KCXP 012035Z AUTO 20016KT 10SM -RA OVC070 20/05 A2988 RMK AO2,M
RTS,2023-09-01 20:35,-119.8764,39.6682,1539.00,66.20,41.00,39.72,190.00,17.00,0.00,29.89,M,10.00,26.00,BKN,OVC,M,M,5500.00,6500.00,M,M,M,M,M,M,M,M,M,66.20,KRTS 012035Z AUTO 19017G26KT 10SM BKN055 OVC065 19/05 A2989 RMK AO2,M
MEV,2023-09-01 20:35,-119.7500,38.9963,1441.42,66.20,39.20,37.03,180.00,17.00,0.00,29.89,M,10.00,27.00,BKN,BKN,BKN,M,6500.00,8000.00,9000.00,M,M,M,M,M,M,M,M,66.20,KMEV 012035Z AUTO 18017G27KT 10SM BKN065 BKN080 BKN090 19/04 A2989 RMK AO2,M
BAM,2023-09-01 20:35,-116.8743,40.5990,1382.36,87.80,28.40,11.74,210.00,3.00,0.00,29.80,M,10.00,M,CLR,M,M,M,M,M,M,M,M,M,M,M,M,M,M,83.84,KBAM 012035Z AUTO 21003KT 10SM CLR 31/M02 A2980 RMK AO1,M
HTH,2023-09-01 20:35,-118.6315,38.5448,1282.89,89.60,17.60,7.05,210.00,24.00,0.00,29.77,M,10.00,34.00,CLR,M,M,M,M,M,M,M,M,M,M,M,M,M,M,84.45,KHTH 012035Z AUTO 21024G34KT 10SM CLR 32/M08 A2977 RMK A01,M
TMT,2023-09-01 20:35,-117.1971,39.4643,1749.34,83.00,28.60,13.81,220.00,15.00,0.00,29.87,M,M,32.00,CLR,M,M,M,M,M,M,M,M,M,M,M,M,M,M,80.37,KTMT 012035Z AUTO 22015G32KT CLR 28/M02 A2987 RMK AO2 T02841019 PWINO,M
10U,2023-09-01 20:40,-116.1876,41.9532,1637.00,77.00,37.40,23.93,60.00,15.00,0.00,29.88,M,10.00,20.00,CLR,M,M,M,M,M,M,M,M,M,M,M,M,M,M,77.00,K10U 012040Z AUTO 06015G20KT 10SM CLR 25/03 A2988 RMK AO2,M
LSV,2023-09-01 20:41,-115.0343,36.2362,570.00,77.00,66.20,69.33,20.00,14.00,0.00,29.90,1010.10,10.00,M,SCT,SCT,SCT,BKN,5000.00,8000.00,10000.00,20000.00,VCTS,M,M,M,M,M,M,77.00,KLSV 012041Z 02014KT 10SM VCTS SCT050 SCT080 SCT100 BKN200 25/19 A2990 RMK AO2A RAB15E36DZB36E41 SLP101 $,M
LSV,2023-09-01 20:45,-115.0343,36.2362,570.00,77.00,66.20,69.33,20.00,15.00,0.00,29.90,1010.10,10.00,M,FEW,SCT,M,M,5000.00,9000.00,M,M,VCTS -DZ,M,M,M,M,M,M,77.00,KLSV 012045Z 02015KT 10SM VCTS -DZ FEW050 SCT090 25/19 A2990 RMK AO2A RAB15E36DZB36E41DZB45 SLP101 $,M
05U,2023-09-01 20:50,-116.0051,39.6042,1811.23,82.40,42.80,24.72,M,M,0.00,29.94,M,10.00,M,SCT,SCT,M,M,8500.00,10000.00,M,M,M,M,M,M,M,M,M,80.39,K05U 012050Z AUTO 10SM SCT085 SCT100 28/06 A2994 RMK A01,M
P68,2023-09-01 20:53,-116.0056,39.6014,1993.00,80.00,43.00,26.94,170.00,24.00,0.00,29.91,1004.50,M,36.00,M,M,M,M,M,M,M,M,M,M,M,M,36.00,170.00,2023-09-01 20:39,78.97,KP68 012053Z AUTO 17024G36KT 27/06 A2991 RMK AO1 PK WND 17036/2039 SLP045 T02670061 55003,M
DRA,2023-09-01 20:53,-116.0278,36.6206,1009.00,90.00,57.00,32.91,190.00,18.00,0.00,29.88,1006.00,10.00,34.00,CLR,M,M,M,M,M,M,M,M,M,M,M,39.00,200.00,2023-09-01 20:00,88.61,KDRA 012053Z AUTO 19018G34KT 10SM CLR 32/14 A2988 RMK AO2 PK WND 20039/2000 SLP060 T03220139 56008,M
ELY,2023-09-01 20:53,-114.8453,39.2950,1909.00,72.00,51.00,47.54,160.00,27.00,0.00,30.05,1007.90,10.00,42.00,BKN,BKN,M,M,7000.00,9000.00,M,M,M,M,M,M,42.00,170.00,2023-09-01 20:49,72.00,KELY 012053Z AUTO 16027G42KT 10SM BKN070 BKN090 22/11 A3005 RMK AO2 PK WND 17042/2049 SLP079 T02220106 53001,M
VGT,2023-09-01 20:53,-115.1933,36.2111,667.00,81.00,65.00,58.30,80.00,16.00,0.00,29.92,1012.20,10.00,M,CLR,M,M,M,M,M,M,M,M,M,M,M,M,M,M,82.82,KVGT 012053Z 08016KT 10SM CLR 27/18 A2992 RMK AO2 LTG DSNT S-W SLP122 T02720183 58008,M
LOL,2023-09-01 20:53,-118.5701,40.0684,1192.43,76.00,32.00,19.95,290.00,6.00,0.00,29.77,1004.20,10.00,M,CLR,M,M,M,M,M,M,M,M,M,M,M,M,M,M,76.00,KLOL 012053Z AUTO 29006KT 10SM CLR 24/00 A2977 RMK AO2 SLP042 T02440000 58006,M
INS,2023-09-01 20:54,-115.6733,36.5872,955.00,78.80,60.80,54.05,70.00,27.00,0.00,29.89,1007.00,10.00,M,FEW,BKN,BKN,M,9500.00,13000.00,15000.00,M,-DZ,M,M,M,M,M,M,78.80,KINS 012054Z AUTO 07027KT 10SM -DZ FEW095 BKN130 BKN150 26/16 A2989 RMK AO2 DZB54 SLP070 $,M
BVU,2023-09-01 20:55,-114.8611,35.9475,671.00,80.60,64.40,57.84,140.00,10.00,0.00,29.91,M,10.00,16.00,OVC,M,M,M,5500.00,M,M,M,M,M,M,M,M,M,M,82.27,KBVU 012055Z AUTO 14010G16KT 10SM OVC055 27/18 A2991 RMK AO2 LTG DSNT W,M
CXP,2023-09-01 20:55,-119.7326,39.1923,1431.00,69.80,41.00,35.09,190.00,14.00,0.00,29.89,M,10.00,27.00,BKN,BKN,OVC,M,7000.00,8000.00,9500.00,M,M,M,M,M,M,M,M,69.80,KCXP 012055Z AUTO 19014G27KT 10SM BKN070 BKN080 OVC095 21/05 A2989 RMK AO2,M
RNO,2023-09-01 20:55,-119.7711,39.4839,1341.00,73.00,45.00,36.70,210.00,24.00,T,29.85,1005.60,10.00,32.00,BKN,M,M,M,3500.00,M,M,M,M,M,M,M,32.00,200.00,2023-09-01 20:51,73.00,KRNO 012055Z 21024G32KT 10SM BKN035 23/07 A2985 RMK AO2 PK WND 20032/2051 RAE29 SLP056 P0000 60000 T02280072 51011,M
RTS,2023-09-01 20:55,-119.8764,39.6682,1539.00,64.40,41.00,42.28,190.00,18.00,0.00,29.89,M,10.00,24.00,OVC,M,M,M,5000.00,M,M,M,M,M,M,M,M,M,M,64.40,KRTS 012055Z AUTO 19018G24KT 10SM OVC050 18/05 A2989 RMK AO2,M
MEV,2023-09-01 20:55,-119.7500,38.9963,1441.42,66.20,41.00,39.72,170.00,22.00,0.00,29.90,M,10.00,31.00,FEW,BKN,BKN,M,6500.00,8000.00,8500.00,M,M,M,M,M,M,M,M,66.20,KMEV 012055Z AUTO 17022G31KT 10SM FEW065 BKN080 BKN085 19/05 A2990 RMK AO2,M
BAM,2023-09-01 20:55,-116.8743,40.5990,1382.36,87.80,28.40,11.74,250.00,7.00,0.00,29.79,M,10.00,15.00,CLR,M,M,M,M,M,M,M,M,M,M,M,M,M,M,83.84,KBAM 012055Z AUTO 25007G15KT 10SM CLR 31/M02 A2979 RMK AO1,M
HTH,2023-09-01 20:55,-118.6315,38.5448,1282.89,89.60,15.80,6.52,220.00,22.00,0.00,29.76,M,10.00,34.00,CLR,M,M,M,M,M,M,M,M,M,M,M,M,M,M,84.37,KHTH 012055Z AUTO 22022G34KT 10SM CLR 32/M09 A2976 RMK A01,M
TMT,2023-09-01 20:55,-117.1971,39.4643,1749.34,83.50,30.00,14.39,210.00,18.00,0.00,29.87,M,M,29.00,SCT,M,M,M,12000.00,M,M,M,M,M,M,M,M,M,M,80.74,KTMT 012055Z AUTO 21018G29KT SCT120 29/M01 A2987 RMK AO2 LTG DSNT NW T02861011 PWINO,M
INS,2023-09-01 20:55,-115.6733,36.5872,955.00,78.00,61.30,56.49,70.00,27.00,T,29.89,1007.00,10.00,32.00,FEW,BKN,BKN,M,9500.00,13000.00,15000.00,M,-DZ,M,M,M,36.00,100.00,2023-09-01 20:20,78.00,KINS 012055Z AUTO 07027G32KT 10SM -DZ FEW095 BKN130 BKN150 26/16 A2989 RMK AO2 PK WND 10036/20 DZB54 SLP070 P0000 60000 T02550163 55005 $,M
LSV,2023-09-01 20:55,-115.0343,36.2362,570.00,77.00,66.00,68.85,20.00,12.00,T,29.90,1010.10,10.00,M,FEW,M,M,M,5000.00,M,M,M,-RA,M,M,M,M,M,M,77.00,KLSV 012055Z 02012KT 10SM -RA FEW050 25/19 A2990 RMK AO2A LTG DSNT S RAB15E36DZB36E41DZB45E47RAB47 SLP101 P0000 60000 T02500189 55004 $,M
EKO,2023-09-01 20:56,-115.7860,40.8242,1367.00,87.00,36.00,16.36,210.00,20.00,0.00,29.82,1003.90,10.00,31.00,BKN,M,M,M,11000.00,M,M,M,M,M,M,M,34.00,180.00,2023-09-01 20:24,83.48,KEKO 012056Z AUTO 21020G31KT 10SM BKN110 31/02 A2982 RMK AO2 PK WND 18034/2024 SLP039 T03060022 56014,M
WMC,2023-09-01 20:56,-117.8072,40.9019,1315.00,81.00,30.00,15.60,M,3.00,0.00,29.80,1003.70,10.00,M,CLR,M,M,M,M,M,M,M,M,M,M,M,M,M,M,79.02,KWMC 012056Z AUTO VRB03KT 10SM CLR 27/M01 A2980 RMK AO2 SLP037 T02721011 56001,M
HND,2023-09-01 20:56,-115.1344,35.9729,742.79,71.00,69.00,93.40,10.00,14.00,0.13,29.95,1013.10,10.00,M,FEW,BKN,OVC,M,1600.00,5000.00,6500.00,M,TSRA,M,M,M,M,M,M,71.00,KHND 012056Z 01014KT 10SM TSRA FEW016 BKN050 OVC065 22/21 A2995 RMK AO2 LTG DSNT SW-N TSE25B30 SLP131 P0013 60015 T02170206 58007,M
TPH,2023-09-01 20:56,-117.0904,38.0505,1654.00,79.00,36.00,21.19,180.00,22.00,0.00,29.94,1005.90,10.00,31.00,FEW,M,M,M,12000.00,M,M,M,M,M,M,M,37.00,160.00,2023-09-01 20:02,79.00,KTPH 012056Z AUTO 18022G31KT 10SM FEW120 26/02 A2994 RMK AO2 PK WND 16037/2002 SLP059 T02610022 55006,M
LAS,2023-09-01 20:56,-115.1634,36.0719,663.00,74.00,69.00,84.40,50.00,10.00,0.12,29.94,1011.30,8.00,M,BKN,OVC,M,M,4700.00,11000.00,M,M,-TSRA,M,M,M,M,M,M,74.00,KLAS 012056Z 05010KT 8SM -TSRA BKN047CB OVC110 23/21 A2994 RMK AO2 LTG DSNT SW AND W SLP113 VIS E 3 OCNL LTGIC E-S TS E-S MOV NE P0012 60012 T02330206 56004,M
NFL,2023-09-01 20:56,-118.7010,39.4166,1199.00,80.00,32.00,17.48,330.00,8.00,0.00,29.77,1006.00,10.00,M,FEW,SCT,BKN,M,7000.00,10000.00,12000.00,M,M,M,M,M,M,M,M,78.52,KNFL 012056Z 33008KT 10SM FEW070 SCT100 BKN120 27/00 A2977 RMK AO2 SLP060 SH DSNT W-NW T02670000 55003,M
10U,2023-09-01 21:00,-116.1876,41.9532,1637.00,80.60,33.80,18.42,120.00,12.00,0.00,29.87,M,10.00,20.00,CLR,M,M,M,M,M,M,M,M,M,M,M,M,M,M,78.88,K10U 012100Z AUTO 12012G20KT 10SM CLR 27/01 A2987 RMK AO2,M
VGT,2023-09-01 21:01,-115.1933,36.2111,667.00,80.00,64.00,58.17,80.00,13.00,0.00,29.93,M,10.00,22.00,CLR,M,M,M,M,M,M,M,VCTS,M,M,M,M,M,M,81.62,KVGT 012101Z 08013G22KT 10SM VCTS CLR 27/18 A2993 RMK AO2 LTG DSNT S-W T02670178,M
INS,2023-09-01 21:03,-115.6733,36.5872,955.00,78.80,60.80,54.05,70.00,29.00,0.00,29.88,1006.60,10.00,32.00,SCT,BKN,M,M,13000.00,15000.00,M,M,M,M,M,M,M,M,M,78.80,KINS 012103Z AUTO 07029G32KT 10SM SCT130 BKN150 26/16 A2988 RMK AO2 DZE03 SLP066 $,M
05U,2023-09-01 21:10,-116.0051,39.6042,1811.23,84.20,44.60,24.99,M,M,0.00,29.94,M,10.00,M,SCT,SCT,M,M,9000.00,12000.00,M,M,M,M,M,M,M,M,M,81.73,K05U 012110Z AUTO 10SM SCT090 SCT120 29/07 A2994 RMK A01,M
HND,2023-09-01 21:12,-115.1344,35.9729,742.79,71.60,69.80,94.06,240.00,8.00,0.10,29.97,M,6.00,M,SCT,BKN,OVC,M,700.00,4400.00,5000.00,M,-TSRA BR,M,M,M,M,M,M,71.60,KHND 012112Z 24008KT 6SM -TSRA BR SCT007 BKN044 OVC050 22/21 A2997 RMK AO2 LTG DSNT SW-N PRESRR P0010,M
LSV,2023-09-01 21:14,-115.0343,36.2362,570.00,75.20,64.40,69.14,10.00,12.00,0.00,29.91,1010.50,5.00,M,FEW,BKN,BKN,M,3400.00,4200.00,10000.00,M,+RA,M,M,M,M,M,M,75.20,KLSV 012114Z 01012KT 5SM +RA FEW034 BKN042 BKN100 24/18 A2991 RMK AO2A LTG DSNT SW SLP105 $,M
BVU,2023-09-01 21:15,-114.8611,35.9475,671.00,82.40,60.80,48.05,140.00,17.00,0.00,29.91,M,10.00,22.00,BKN,OVC,M,M,5500.00,7000.00,M,M,M,M,M,M,M,M,M,82.90,KBVU 012115Z AUTO 14017G22KT 10SM BKN055 OVC070 28/16 A2991 RMK AO2 LTG DSNT W,M
CXP,2023-09-01 21:15,-119.7326,39.1923,1431.00,68.00,42.80,40.00,180.00,15.00,0.00,29.89,M,9.00,24.00,BKN,BKN,M,M,7000.00,8500.00,M,M,-RA,M,M,M,M,M,M,68.00,KCXP 012115Z AUTO 18015G24KT 9SM -RA BKN070 BKN085 20/06 A2989 RMK AO2,M
RTS,2023-09-01 21:15,-119.8764,39.6682,1539.00,64.40,41.00,42.28,200.00,11.00,0.00,29.90,M,10.00,24.00,BKN,OVC,M,M,5000.00,6000.00,M,M,M,M,M,M,M,M,M,64.40,KRTS 012115Z AUTO 20011G24KT 10SM BKN050 OVC060 18/05 A2990 RMK AO2,M
MEV,2023-09-01 21:15,-119.7500,38.9963,1441.42,66.20,41.00,39.72,180.00,20.00,0.00,29.90,M,10.00,31.00,SCT,SCT,M,M,8500.00,10000.00,M,M,M,M,M,M,M,M,M,66.20,KMEV 012115Z AUTO 18020G31KT 10SM SCT085 SCT100 19/05 A2990 RMK AO2,M
BAM,2023-09-01 21:15,-116.8743,40.5990,1382.36,87.80,28.40,11.74,350.00,5.00,0.00,29.77,M,10.00,M,CLR,M,M,M,M,M,M,M,M,M,M,M,M,M,M,83.84,KBAM 012115Z AUTO 35005KT 10SM CLR 31/M02 A2977 RMK AO1,M
HTH,2023-09-01 21:15,-118.6315,38.5448,1282.89,89.60,14.00,6.03,220.00,25.00,0.00,29.76,M,10.00,36.00,CLR,M,M,M,M,M,M,M,M,M,M,M,M,M,M,84.30,KHTH 012115Z AUTO 22025G36KT 10SM CLR 32/M10 A2976 RMK A01,M
10U,2023-09-01 21:15,-116.1876,41.9532,1637.00,80.60,32.00,17.14,130.00,11.00,0.00,29.87,M,10.00,17.00,CLR,M,M,M,M,M,M,M,M,M,M,M,M,M,M,78.82,K10U 012115Z AUTO 13011G17KT 10SM CLR 27/00 A2987 RMK AO2,M
TMT,2023-09-01 21:15,-117.1971,39.4643,1749.34,83.50,28.20,13.37,220.00,18.00,0.00,29.87,M,M,26.00,SCT,M,M,M,12000.00,M,M,M,M,M,M,M,M,M,M,80.73,KTMT 012115Z AUTO 22018G26KT SCT120 29/M02 A2987 RMK AO2 LTG DSNT NW T02861021 PWINO,M
LSV,2023-09-01 21:17,-115.0343,36.2362,570.00,73.40,62.60,68.94,20.00,12.00,0.00,29.92,1010.90,3.00,M,BKN,M,M,M,3500.00,M,M,M,+RA,M,M,M,M,M,M,73.40,KLSV 012117Z 02012KT 3SM +RA BKN035 23/17 A2992 RMK AO2A LTG DSNT SW SLP109 $,M
LSV,2023-09-01 21:19,-115.0343,36.2362,570.00,73.40,62.60,68.94,20.00,13.00,0.00,29.91,1010.60,5.00,M,BKN,M,M,M,3500.00,M,M,M,+RA,M,M,M,M,M,M,73.40,KLSV 012119Z 02013KT 5SM +RA BKN035 23/17 A2991 RMK AO2A VIS 2 3/4V8 LTG DSNT SW SLP106 $,M
LSV,2023-09-01 21:20,-115.0343,36.2362,570.00,73.40,62.60,68.94,20.00,15.00,0.00,29.91,1010.60,5.00,M,BKN,M,M,M,3500.00,M,M,M,+TSRA,M,M,M,M,M,M,73.40,KLSV 012120Z COR 02015KT 5SM +TSRA BKN035 23/17 A2991 RMK AO2A LTG DSNT SW SLP106 $ COR 2123,M
HND,2023-09-01 21:21,-115.1344,35.9729,742.79,71.60,68.00,88.43,350.00,8.00,0.10,29.96,M,10.00,M,SCT,BKN,OVC,M,700.00,2800.00,5000.00,M,-TSRA,M,M,M,M,M,M,71.60,KHND 012121Z 35008KT 10SM -TSRA SCT007 BKN028 OVC050 22/20 A2996 RMK AO2 LTG DSNT ALQDS P0010,M
LAS,2023-09-01 21:23,-115.1634,36.0719,663.00,71.00,70.00,96.65,30.00,12.00,0.36,29.93,M,2.00,M,BKN,BKN,OVC,M,2400.00,4700.00,11000.00,M,-TSRA BR,M,M,M,M,M,M,71.00,KLAS 012123Z 03012KT 2SM -TSRA BR BKN024 BKN047CB OVC110 22/21 A2993 RMK AO2 LTG DSNT ALQDS OCNL LTGICCCCG ALQDS TS ALQDS MOV NE P0036 T02170211,M
LSV,2023-09-01 21:28,-115.0343,36.2362,570.00,71.60,64.40,78.04,30.00,18.00,0.00,29.90,1010.20,4.00,M,BKN,M,M,M,3700.00,M,M,M,-TSRA,M,M,M,M,M,M,71.60,KLSV 012128Z 03018KT 4SM -TSRA BKN037 22/18 A2990 RMK AO2A TSB20 SLP102 $,M
HND,2023-09-01 21:29,-115.1344,35.9729,742.79,71.60,68.00,88.43,20.00,11.00,0.10,29.95,M,10.00,M,SCT,SCT,OVC,M,700.00,4300.00,5500.00,M,VCTS -RA,M,M,M,M,M,M,71.60,KHND 012129Z 02011KT 10SM VCTS -RA SCT007 SCT043 OVC055 22/20 A2995 RMK AO2 LTG DSNT NE AND SW AND W P0010,M
05U,2023-09-01 21:30,-116.0051,39.6042,1811.23,84.20,44.60,24.99,M,M,0.00,29.93,M,10.00,M,CLR,M,M,M,M,M,M,M,M,M,M,M,M,M,M,81.73,K05U 012130Z AUTO 10SM CLR 29/07 A2993 RMK A01,M
LAS,2023-09-01 21:31,-115.1634,36.0719,663.00,71.00,69.00,93.40,40.00,11.00,0.37,29.93,M,9.00,M,SCT,BKN,OVC,M,2100.00,4700.00,11000.00,M,-TSRA,M,M,M,M,M,M,71.00,KLAS 012131Z 04011KT 9SM -TSRA SCT021 BKN047CB OVC110 22/21 A2993 RMK AO2 LTG DSNT SW AND W OCNL LTGICCCCG OHD-S-N-E TS OHD-W-N-E MOV NE P0037 T02170206,M
BVU,2023-09-01 21:35,-114.8611,35.9475,671.00,82.40,62.60,51.21,140.00,16.00,0.00,29.91,M,10.00,M,BKN,OVC,M,M,6000.00,7000.00,M,M,M,M,M,M,M,M,M,83.41,KBVU 012135Z AUTO 14016KT 10SM BKN060 OVC070 28/17 A2991 RMK AO2,M
CXP,2023-09-01 21:35,-119.7326,39.1923,1431.00,66.20,42.80,42.57,190.00,17.00,0.00,29.90,M,8.00,25.00,SCT,BKN,BKN,M,6000.00,7000.00,8000.00,M,-RA,M,M,M,M,M,M,66.20,KCXP 012135Z AUTO 19017G25KT 8SM -RA SCT060 BKN070 BKN080 19/06 A2990 RMK AO2,M
RTS,2023-09-01 21:35,-119.8764,39.6682,1539.00,64.40,41.00,42.28,200.00,17.00,0.00,29.90,M,10.00,22.00,BKN,OVC,M,M,5500.00,7000.00,M,M,M,M,M,M,M,M,M,64.40,KRTS 012135Z AUTO 20017G22KT 10SM BKN055 OVC070 18/05 A2990 RMK AO2,M
MEV,2023-09-01 21:35,-119.7500,38.9963,1441.42,64.40,41.00,42.28,170.00,18.00,0.00,29.90,M,10.00,30.00,FEW,FEW,SCT,M,6500.00,8000.00,9500.00,M,M,M,M,M,M,M,M,64.40,KMEV 012135Z AUTO 17018G30KT 10SM FEW065 FEW080 SCT095 18/05 A2990 RMK AO2,M
HTH,2023-09-01 21:35,-118.6315,38.5448,1282.89,89.60,14.00,6.03,210.00,26.00,0.00,29.75,M,10.00,36.00,CLR,M,M,M,M,M,M,M,M,M,M,M,M,M,M,84.30,KHTH 012135Z AUTO 21026G36KT 10SM CLR 32/M10 A2975 RMK A01,M
BAM,2023-09-01 21:35,-116.8743,40.5990,1382.36,87.80,28.40,11.74,10.00,7.00,0.00,29.77,M,10.00,M,CLR,M,M,M,M,M,M,M,M,M,M,M,M,M,M,83.84,KBAM 012135Z AUTO 01007KT 10SM CLR 31/M02 A2977 RMK AO1,M
TMT,2023-09-01 21:35,-117.1971,39.4643,1749.34,84.00,29.00,13.59,230.00,20.00,0.00,29.87,M,M,34.00,SCT,M,M,M,12000.00,M,M,M,M,M,M,M,M,M,M,81.10,KTMT 012135Z AUTO 23020G34KT SCT120 29/M02 A2987 RMK AO2 T02881017 PWINO,M
10U,2023-09-01 21:35,-116.1876,41.9532,1637.00,78.80,33.80,19.55,80.00,8.00,0.00,29.87,M,10.00,15.00,CLR,M,M,M,M,M,M,M,M,M,M,M,M,M,M,78.80,K10U 012135Z AUTO 08008G15KT 10SM CLR 26/01 A2987 RMK AO2,M
HND,2023-09-01 21:45,-115.1344,35.9729,742.79,71.60,68.00,88.43,50.00,8.00,0.10,29.94,M,10.00,M,FEW,OVC,M,M,900.00,5500.00,M,M,VCTS,M,M,M,M,M,M,71.60,KHND 012145Z 05008KT 10SM VCTS FEW009 OVC055 22/20 A2994 RMK AO2 LTG DSNT W-NE TSE41B45RAE30 P0010,M
INS,2023-09-01 21:46,-115.6733,36.5872,955.00,78.80,64.40,61.36,100.00,26.00,0.00,29.87,1006.50,10.00,32.00,FEW,BKN,BKN,M,10000.00,14000.00,18000.00,M,-DZ,M,M,M,M,M,M,78.80,KINS 012146Z AUTO 10026G32KT 10SM -DZ FEW100 BKN140 BKN180 26/18 A2987 RMK AO2 DZE03DZB46 SLP065 $,M
VGT,2023-09-01 21:49,-115.1933,36.2111,667.00,75.20,68.00,78.34,90.00,10.00,0.01,29.93,M,9.00,M,FEW,SCT,OVC,M,4500.00,5500.00,11000.00,M,-TSRA,M,M,M,M,M,M,75.20,KVGT 012149Z 09010KT 9SM -TSRA FEW045 SCT055 OVC110 24/20 A2993 RMK AO2 LTG DSNT ALQDS RAB23 TSB43 P0001,M
05U,2023-09-01 21:50,-116.0051,39.6042,1811.23,82.40,44.60,26.49,M,M,0.00,29.93,M,10.00,M,FEW,M,M,M,10000.00,M,M,M,M,M,M,M,M,M,M,80.50,K05U 012150Z AUTO 10SM FEW100 28/07 A2993 RMK A01,M
P68,2023-09-01 21:53,-116.0056,39.6014,1993.00,81.00,44.00,27.09,180.00,27.00,0.00,29.89,1004.10,M,39.00,M,M,M,M,M,M,M,M,M,M,M,M,41.00,160.00,2023-09-01 21:13,79.61,KP68 012153Z AUTO 18027G39KT 27/07 A2989 RMK AO1 PK WND 16041/2113 SLP041 T02720067,M
DRA,2023-09-01 21:53,-116.0278,36.6206,1009.00,84.00,56.00,38.42,160.00,14.00,0.00,29.87,1005.90,10.00,23.00,FEW,M,M,M,6000.00,M,M,M,M,M,M,M,31.00,190.00,2023-09-01 21:13,83.05,KDRA 012153Z AUTO 16014G23KT 10SM FEW060 29/13 A2987 RMK AO2 PK WND 19031/2113 WSHFT 2139 SLP059 T02890133,M
ELY,2023-09-01 21:53,-114.8453,39.2950,1909.00,70.00,50.00,49.03,170.00,21.00,0.00,30.04,1007.70,10.00,33.00,BKN,BKN,M,M,7000.00,8500.00,M,M,M,M,M,M,38.00,150.00,2023-09-01 21:28,70.00,KELY 012153Z AUTO 17021G33KT 10SM BKN070 BKN085 21/10 A3004 RMK AO2 PK WND 15038/2128 SLP077 T02110100,M
VGT,2023-09-01 21:53,-115.1933,36.2111,667.00,75.00,68.00,78.86,80.00,10.00,0.01,29.93,1012.80,10.00,M,FEW,SCT,BKN,M,3900.00,5500.00,9000.00,M,-TSRA,M,M,M,M,M,M,75.00,KVGT 012153Z 08010KT 10SM -TSRA FEW039 SCT055 BKN090 24/20 A2993 RMK AO2 LTG DSNT ALQDS RAB23 TSB43 SLP128 P0001 T02390200,M
LOL,2023-09-01 21:53,-118.5701,40.0684,1192.43,76.00,38.00,25.32,280.00,21.00,0.00,29.78,1004.60,9.00,M,CLR,M,M,M,M,M,M,M,M,M,M,M,M,M,M,76.00,KLOL 012153Z AUTO 28021KT 9SM CLR 24/03 A2978 RMK AO2 SLP046 T02440033,M
BVU,2023-09-01 21:55,-114.8611,35.9475,671.00,82.40,62.60,51.21,120.00,14.00,0.00,29.92,M,10.00,22.00,FEW,BKN,OVC,M,4800.00,6000.00,7000.00,M,M,M,M,M,M,M,M,83.41,KBVU 012155Z AUTO 12014G22KT 10SM FEW048 BKN060 OVC070 28/17 A2992 RMK AO2 LTG DSNT W-N,M
CXP,2023-09-01 21:55,-119.7326,39.1923,1431.00,66.20,42.80,42.57,200.00,17.00,0.00,29.90,M,9.00,28.00,FEW,FEW,BKN,M,6000.00,7000.00,8500.00,M,-RA,M,M,M,M,M,M,66.20,KCXP 012155Z AUTO 20017G28KT 9SM -RA FEW060 FEW070 BKN085 19/06 A2990 RMK AO2,M
INS,2023-09-01 21:55,-115.6733,36.5872,955.00,77.00,62.20,60.28,90.00,28.00,T,29.87,1006.50,10.00,M,SCT,BKN,M,M,10000.00,14000.00,M,M,-DZ,M,M,M,37.00,100.00,2023-09-01 21:15,77.00,KINS 012155Z AUTO 09028KT 10SM -DZ SCT100 BKN140 25/17 A2987 RMK AO2 PK WND 10037/15 DZE03DZB46 SLP065 P0000 T02510168 $,M
RNO,2023-09-01 21:55,-119.7711,39.4839,1341.00,70.00,44.00,39.11,200.00,25.00,0.00,29.86,1006.50,10.00,39.00,BKN,M,M,M,4500.00,M,M,M,M,M,M,M,41.00,190.00,2023-09-01 21:12,70.00,KRNO 012155Z 20025G39KT 10SM BKN045 21/07 A2986 RMK AO2 PK WND 19041/2112 SLP065 T02110067,M
RTS,2023-09-01 21:55,-119.8764,39.6682,1539.00,64.40,41.00,42.28,230.00,15.00,0.00,29.91,M,10.00,23.00,BKN,OVC,M,M,5500.00,6500.00,M,M,M,M,M,M,M,M,M,64.40,KRTS 012155Z AUTO 23015G23KT 10SM BKN055 OVC065 18/05 A2991 RMK AO2,M
MEV,2023-09-01 21:55,-119.7500,38.9963,1441.42,64.40,42.80,45.32,180.00,15.00,0.00,29.91,M,10.00,25.00,SCT,BKN,BKN,M,6500.00,8500.00,10000.00,M,M,M,M,M,M,M,M,64.40,KMEV 012155Z AUTO 18015G25KT 10SM SCT065 BKN085 BKN100 18/06 A2991 RMK AO2,M
BAM,2023-09-01 21:55,-116.8743,40.5990,1382.36,87.80,28.40,11.74,10.00,12.00,0.00,29.76,M,10.00,M,CLR,M,M,M,M,M,M,M,M,M,M,M,M,M,M,83.84,KBAM 012155Z AUTO 01012KT 10SM CLR 31/M02 A2976 RMK AO1,M
HTH,2023-09-01 21:55,-118.6315,38.5448,1282.89,89.60,12.20,5.57,210.00,32.00,0.00,29.75,M,10.00,42.00,CLR,M,M,M,M,M,M,M,M,M,M,M,M,M,M,84.23,KHTH 012155Z AUTO 21032G42KT 10SM CLR 32/M11 A2975 RMK A01,M
TMT,2023-09-01 21:55,-117.1971,39.4643,1749.34,84.20,27.50,12.70,220.00,24.00,0.00,29.86,M,M,30.00,CLR,M,M,M,M,M,M,M,M,M,M,M,M,M,M,81.20,KTMT 012155Z AUTO 22024G30KT CLR 29/M02 A2986 RMK AO2 T02901025 PWINO,M
EKO,2023-09-01 21:56,-115.7860,40.8242,1367.00,84.00,36.00,18.01,190.00,18.00,0.00,29.82,1004.20,10.00,31.00,FEW,M,M,M,11000.00,M,M,M,M,M,M,M,33.00,150.00,2023-09-01 21:23,81.20,KEKO 012156Z AUTO 19018G31KT 10SM FEW110 29/02 A2982 RMK AO2 PK WND 15033/2123 LTG DSNT NE AND E SLP042 T02890022,M
WMC,2023-09-01 21:56,-117.8072,40.9019,1315.00,81.00,26.00,13.24,M,5.00,0.00,29.78,1003.30,10.00,M,CLR,M,M,M,M,M,M,M,M,M,M,M,M,M,M,78.94,KWMC 012156Z AUTO VRB05KT 10SM CLR 27/M03 A2978 RMK AO2 SLP033 T02721033,M
NFL,2023-09-01 21:56,-118.7010,39.4166,1199.00,78.00,35.00,21.05,300.00,15.00,0.00,29.78,1006.20,10.00,23.00,FEW,SCT,BKN,M,7000.00,10000.00,12000.00,M,M,M,M,M,M,M,M,78.00,KNFL 012156Z 30015G23KT 10SM FEW070 SCT100 BKN120 26/02 A2978 RMK AO2 SLP062 SH DSNT W-NW T02560017,M
HND,2023-09-01 21:56,-115.1344,35.9729,742.79,71.00,68.00,90.25,20.00,7.00,0.10,29.95,1013.30,10.00,M,OVC,M,M,M,5000.00,M,M,M,VCTS,M,M,M,M,M,M,71.00,KHND 012156Z 02007KT 10SM VCTS OVC050 22/20 A2995 RMK AO2 LTG DSNT W-NE TSE41B45RAE30 SLP133 P0010 T02170200,M
TPH,2023-09-01 21:56,-117.0904,38.0505,1654.00,78.00,37.00,22.79,180.00,22.00,0.00,29.93,1006.60,10.00,34.00,FEW,M,M,M,12000.00,M,M,M,M,M,M,M,34.00,180.00,2023-09-01 21:54,78.00,KTPH 012156Z AUTO 18022G34KT 10SM FEW120 26/03 A2993 RMK AO2 PK WND 18034/2154 SLP066 T02560028,M
LAS,2023-09-01 21:56,-115.1634,36.0719,663.00,72.00,69.00,90.28,30.00,14.00,0.38,29.92,1010.80,10.00,M,FEW,BKN,BKN,OVC,2100.00,5000.00,6000.00,18000.00,-TSRA,M,M,M,M,M,M,72.00,KLAS 012156Z 03014KT 10SM -TSRA FEW021 BKN050CB BKN060 OVC180 22/21 A2992 RMK AO2 LTG DSNT ALQDS SLP108 VIS LWR N-NE AND SW-W OCNL LTGICCCCG SW-NW-NE TS SW-NW-NE MOV NE P0038 T02220206,M
INS,2023-09-01 21:56,-115.6733,36.5872,955.00,77.00,62.60,61.13,90.00,29.00,0.00,29.87,1006.50,10.00,34.00,BKN,BKN,M,M,10000.00,14000.00,M,M,M,M,M,M,M,M,M,77.00,KINS 012156Z AUTO 09029G34KT 10SM BKN100 BKN140 25/17 A2987 RMK AO2 DZE55 SLP065 $,M
DRA,2023-09-01 21:57,-116.0278,36.6206,1009.00,84.00,57.00,39.83,160.00,12.00,0.00,29.86,M,10.00,23.00,FEW,M,M,M,6000.00,M,M,M,M,M,M,M,M,M,M,83.26,KDRA 012157Z AUTO 16012G23KT 10SM FEW060 29/14 A2986 RMK AO2 WSHFT 2140 T02890139,M
LSV,2023-09-01 21:58,-115.0343,36.2362,570.00,71.20,71.00,99.32,20.00,11.00,0.23,29.90,1010.20,10.00,M,SCT,BKN,M,M,4000.00,9000.00,M,M,VCTS -RA,M,M,M,M,M,M,71.20,KLSV 012158Z 02011KT 10SM VCTS -RA SCT040 BKN090 22/22 A2990 RMK RAE2134RAB2136 TSB2120E03 SLP102 P0023 T02180216 $,M
10U,2023-09-01 22:00,-116.1876,41.9532,1637.00,80.60,23.00,11.83,230.00,8.00,0.00,29.87,M,10.00,M,CLR,M,M,M,M,M,M,M,M,M,M,M,M,M,M,78.80,K10U 012200Z AUTO 23008KT 10SM CLR 27/M05 A2987 RMK AO2,M
05U,2023-09-01 22:10,-116.0051,39.6042,1811.23,84.20,44.60,24.99,M,M,0.00,29.92,M,10.00,M,FEW,M,M,M,10000.00,M,M,M,M,M,M,M,M,M,M,81.73,K05U 012210Z AUTO 10SM FEW100 29/07 A2992 RMK A01,M
HND,2023-09-01 22:12,-115.1344,35.9729,742.79,71.60,68.00,88.43,300.00,10.00,0.00,29.97,M,10.00,M,SCT,BKN,OVC,M,800.00,1300.00,5000.00,M,VCTS,M,M,M,M,M,M,71.60,KHND 012212Z 30010KT 10SM VCTS SCT008 BKN013 OVC050 22/20 A2997 RMK AO2 LTG DSNT W-NE PRESRR,M
BVU,2023-09-01 22:15,-114.8611,35.9475,671.00,80.60,64.40,57.84,80.00,12.00,0.00,29.91,M,10.00,18.00,FEW,BKN,OVC,M,4600.00,5500.00,7000.00,M,M,M,M,M,M,M,M,82.27,KBVU 012215Z AUTO 08012G18KT 10SM FEW046 BKN055 OVC070 27/18 A2991 RMK AO2,M
CXP,2023-09-01 22:15,-119.7326,39.1923,1431.00,64.40,46.40,51.98,220.00,10.00,0.00,29.91,M,10.00,20.00,FEW,FEW,SCT,M,4500.00,7500.00,8500.00,M,-RA,M,M,M,M,M,M,64.40,KCXP 012215Z AUTO 22010G20KT 10SM -RA FEW045 FEW075 SCT085 18/08 A2991 RMK AO2,M
RTS,2023-09-01 22:15,-119.8764,39.6682,1539.00,64.40,39.20,39.43,210.00,11.00,0.00,29.91,M,10.00,M,BKN,OVC,M,M,5500.00,6500.00,M,M,M,M,M,M,M,M,M,64.40,KRTS 012215Z AUTO 21011KT 10SM BKN055 OVC065 18/04 A2991 RMK AO2,M
MEV,2023-09-01 22:15,-119.7500,38.9963,1441.42,64.40,41.00,42.28,200.00,10.00,0.00,29.92,M,10.00,18.00,SCT,SCT,BKN,M,6500.00,7500.00,8500.00,M,M,M,M,M,M,M,M,64.40,KMEV 012215Z AUTO 20010G18KT 10SM SCT065 SCT075 BKN085 18/05 A2992 RMK AO2,M
HTH,2023-09-01 22:15,-118.6315,38.5448,1282.89,89.60,12.20,5.57,210.00,28.00,0.00,29.75,M,10.00,38.00,CLR,M,M,M,M,M,M,M,M,M,M,M,M,M,M,84.23,KHTH 012215Z AUTO 21028G38KT 10SM CLR 32/M11 A2975 RMK A01,M
BAM,2023-09-01 22:15,-116.8743,40.5990,1382.36,89.60,26.60,10.30,20.00,3.00,0.00,29.76,M,10.00,M,CLR,M,M,M,M,M,M,M,M,M,M,M,M,M,M,85.02,KBAM 012215Z AUTO 02003KT 10SM CLR 32/M03 A2976 RMK AO1,M
TMT,2023-09-01 22:15,-117.1971,39.4643,1749.34,84.00,28.00,13.04,210.00,19.00,0.00,29.86,M,M,30.00,CLR,M,M,M,M,M,M,M,M,M,M,M,M,M,M,81.10,KTMT 012215Z AUTO 21019G30KT CLR 29/M02 A2986 RMK AO2 T02891023 PWINO,M
10U,2023-09-01 22:20,-116.1876,41.9532,1637.00,78.80,33.80,19.55,120.00,9.00,0.00,29.86,M,10.00,15.00,CLR,M,M,M,M,M,M,M,M,M,M,M,M,M,M,78.80,K10U 012220Z AUTO 12009G15KT 10SM CLR 26/01 A2986 RMK AO2,M
EKO,2023-09-01 22:27,-115.7860,40.8242,1367.00,83.00,38.00,20.13,190.00,20.00,0.00,29.82,M,10.00,30.00,FEW,M,M,M,12000.00,M,M,M,VCTS,M,M,M,30.00,190.00,2023-09-01 22:27,80.56,KEKO 012227Z AUTO 19020G30KT 10SM VCTS FEW120 28/03 A2982 RMK AO2 PK WND 19030/2227 LTG DSNT N AND NE T02830033,M
05U,2023-09-01 22:30,-116.0051,39.6042,1811.23,82.40,42.80,24.72,M,M,0.00,29.92,M,10.00,M,CLR,M,M,M,M,M,M,M,M,M,M,M,M,M,M,80.39,K05U 012230Z AUTO 10SM CLR 28/06 A2992 RMK A01,M
LAS,2023-09-01 22:34,-115.1634,36.0719,663.00,70.00,68.00,93.37,M,4.00,0.20,29.95,M,10.00,M,BKN,BKN,OVC,M,2100.00,3100.00,5000.00,M,-TSRA,M,M,M,M,M,M,70.00,KLAS 012234Z VRB04KT 10SM -TSRA BKN021 BKN031 OVC050 21/20 A2995 RMK AO2 LTG DSNT ALQDS VIS SW-NW-N 2 1/2 OCNL LTGICCCCG OHD-SW-NW-NE TS OHD-SW-NW-NE MOV NE P0020 T02110200,M
BVU,2023-09-01 22:35,-114.8611,35.9475,671.00,80.60,64.40,57.84,120.00,10.00,0.00,29.91,M,6.00,M,BKN,OVC,M,M,6500.00,7500.00,M,M,-RA,M,M,M,M,M,M,82.27,KBVU 012235Z AUTO 12010KT 6SM -RA BKN065 OVC075 27/18 A2991 RMK AO2 LTG DSNT NE AND S AND NW,M
CXP,2023-09-01 22:35,-119.7326,39.1923,1431.00,64.40,44.60,48.55,220.00,8.00,0.00,29.91,M,9.00,21.00,FEW,FEW,M,M,6500.00,8000.00,M,M,-RA,M,M,M,M,M,M,64.40,KCXP 012235Z AUTO 22008G21KT 9SM -RA FEW065 FEW080 18/07 A2991 RMK AO2,M
RTS,2023-09-01 22:35,-119.8764,39.6682,1539.00,64.40,39.20,39.43,210.00,12.00,0.00,29.91,M,10.00,M,SCT,BKN,BKN,M,5500.00,6500.00,8000.00,M,M,M,M,M,M,M,M,64.40,KRTS 012235Z AUTO 21012KT 10SM SCT055 BKN065 BKN080 18/04 A2991 RMK AO2,M
MEV,2023-09-01 22:35,-119.7500,38.9963,1441.42,64.40,41.00,42.28,200.00,13.00,0.00,29.91,M,10.00,20.00,FEW,SCT,BKN,M,6000.00,7500.00,8500.00,M,M,M,M,M,M,M,M,64.40,KMEV 012235Z AUTO 20013G20KT 10SM FEW060 SCT075 BKN085 18/05 A2991 RMK AO2 LTG DSNT NW,M
BAM,2023-09-01 22:35,-116.8743,40.5990,1382.36,89.60,26.60,10.30,240.00,6.00,0.00,29.76,M,10.00,14.00,CLR,M,M,M,M,M,M,M,M,M,M,M,M,M,M,85.02,KBAM 012235Z AUTO 24006G14KT 10SM CLR 32/M03 A2976 RMK AO1,M
HTH,2023-09-01 22:35,-118.6315,38.5448,1282.89,87.80,14.00,6.38,220.00,25.00,0.00,29.75,M,10.00,41.00,CLR,M,M,M,M,M,M,M,M,M,M,M,M,M,M,83.00,KHTH 012235Z AUTO 22025G41KT 10SM CLR 31/M10 A2975 RMK A01,M
TMT,2023-09-01 22:35,-117.1971,39.4643,1749.34,84.20,30.20,14.18,210.00,25.00,0.00,29.86,M,M,30.00,SCT,M,M,M,12000.00,M,M,M,M,M,M,M,M,M,M,81.26,KTMT 012235Z AUTO 21025G30KT SCT120 29/M01 A2986 RMK AO2 T02901010 PWINO,M
10U,2023-09-01 22:35,-116.1876,41.9532,1637.00,77.00,37.40,23.93,90.00,10.00,0.00,29.86,M,10.00,M,CLR,M,M,M,M,M,M,M,M,M,M,M,M,M,M,77.00,K10U 012235Z AUTO 09010KT 10SM CLR 25/03 A2986 RMK AO2,M
EKO,2023-09-01 22:38,-115.7860,40.8242,1367.00,83.00,39.00,20.93,170.00,9.00,0.00,29.82,M,10.00,25.00,SCT,SCT,M,M,10000.00,12000.00,M,M,TS,M,M,M,30.00,190.00,2023-09-01 22:27,80.60,KEKO 012238Z AUTO 17009G25KT 10SM TS SCT100 SCT120 28/04 A2982 RMK AO2 PK WND 19030/2227 LTG DSNT N AND NE AND S TSB32 T02830039,M
VGT,2023-09-01 22:38,-115.1933,36.2111,667.00,73.00,68.00,84.34,200.00,5.00,0.17,29.93,M,1.75,M,BKN,BKN,OVC,M,5000.00,7000.00,9000.00,M,+TSRA,M,M,M,M,M,M,73.00,KVGT 012238Z 20005KT 1 3/4SM +TSRA BKN050 BKN070 OVC090 23/20 A2993 RMK AO2 LTG DSNT NE AND SW P0017 T02280200,M
HND,2023-09-01 22:43,-115.1344,35.9729,742.79,75.20,69.80,83.32,10.00,11.00,0.00,29.95,M,10.00,M,FEW,SCT,BKN,M,1000.00,1600.00,5500.00,M,VCTS,M,M,M,M,M,M,75.20,KHND 012243Z 01011KT 10SM VCTS FEW010 SCT016 BKN055 24/21 A2995 RMK AO2 LTG DSNT W-NE,M
DRA,2023-09-01 22:46,-116.0278,36.6206,1009.00,67.00,61.00,81.05,170.00,27.00,0.03,29.88,M,2.00,44.00,FEW,BKN,OVC,M,4300.00,7500.00,9000.00,M,+RA,M,M,M,44.00,170.00,2023-09-01 22:37,67.00,KDRA 012246Z AUTO 17027G44KT 2SM +RA FEW043 BKN075 OVC090 19/16 A2988 RMK AO2 PK WND 17044/2237 WSHFT 2140 RAB31 P0003 T01940161,M
EKO,2023-09-01 22:48,-115.7860,40.8242,1367.00,83.00,40.00,21.76,180.00,17.00,0.00,29.82,M,10.00,29.00,BKN,M,M,M,11000.00,M,M,M,M,M,M,M,30.00,190.00,2023-09-01 22:27,80.64,KEKO 012248Z AUTO 18017G29KT 10SM BKN110 28/04 A2982 RMK AO2 PK WND 19030/2227 LTG DSNT N AND NE AND S TSB32E47 T02830044,M
LSV,2023-09-01 22:49,-115.0343,36.2362,570.00,73.40,71.60,94.10,20.00,14.00,0.00,29.89,1010.10,10.00,M,FEW,BKN,M,M,5000.00,6000.00,M,M,TS,M,M,M,M,M,M,73.40,KLSV 012249Z 02014KT 10SM TS FEW050 BKN060 23/22 A2989 RMK AO2A RAE04DZB04E16 TSB49 SLP101 $,M
05U,2023-09-01 22:50,-116.0051,39.6042,1811.23,80.60,42.80,26.22,M,M,0.00,29.92,M,10.00,M,CLR,M,M,M,M,M,M,M,M,M,M,M,M,M,M,79.30,K05U 012250Z AUTO 10SM CLR 27/06 A2992 RMK A01,M
P68,2023-09-01 22:53,-116.0056,39.6014,1993.00,80.00,43.00,26.94,180.00,29.00,0.00,29.89,1004.70,M,40.00,M,M,M,M,M,M,M,M,M,M,M,M,41.00,180.00,2023-09-01 22:19,78.97,KP68 012253Z AUTO 18029G40KT 27/06 A2989 RMK AO1 PK WND 18041/2219 SLP047 T02670061,M
DRA,2023-09-01 22:53,-116.0278,36.6206,1009.00,68.00,61.00,78.30,150.00,15.00,0.08,29.89,1007.70,5.00,35.00,FEW,BKN,OVC,M,4100.00,7500.00,10000.00,M,-RA,M,M,M,44.00,170.00,2023-09-01 22:37,68.00,KDRA 012253Z AUTO 15015G35KT 5SM -RA FEW041 BKN075 OVC100 20/16 A2989 RMK AO2 PK WND 17044/2237 WSHFT 2140 RAB31 SLP077 P0008 T02000161,M
ELY,2023-09-01 22:53,-114.8453,39.2950,1909.00,69.00,50.00,50.74,160.00,20.00,0.00,30.03,1007.60,10.00,33.00,SCT,BKN,M,M,7000.00,8000.00,M,M,M,M,M,M,35.00,160.00,2023-09-01 22:25,69.00,KELY 012253Z AUTO 16020G33KT 10SM SCT070 BKN080 21/10 A3003 RMK AO2 PK WND 16035/2225 LTG DSNT S SLP076 T02060100,M
VGT,2023-09-01 22:53,-115.1933,36.2111,667.00,72.00,68.00,87.24,30.00,4.00,0.27,29.92,1012.30,1.75,M,SCT,BKN,OVC,M,5500.00,7000.00,8500.00,M,TSRA BR,M,M,M,M,M,M,72.00,KVGT 012253Z 03004KT 1 3/4SM TSRA BR SCT055 BKN070 OVC085 22/20 A2992 RMK AO2 LTG DSNT NE AND SW AND W SLP123 P0027 T02220200,M
LOL,2023-09-01 22:53,-118.5701,40.0684,1192.43,72.00,41.00,32.56,300.00,18.00,0.00,29.81,1005.90,10.00,M,CLR,M,M,M,M,M,M,M,M,M,M,M,26.00,280.00,2023-09-01 22:13,72.00,KLOL 012253Z AUTO 30018KT 10SM CLR 22/05 A2981 RMK AO2 PK WND 28026/2213 SLP059 T02220050,M
EKO,2023-09-01 22:54,-115.7860,40.8242,1367.00,82.40,39.20,21.51,160.00,14.00,M,29.81,M,10.00,28.96,SCT,M,M,M,11000.00,M,M,M,TS,M,M,M,30.00,190.00,2023-09-01 22:27,80.21,SPECI KEKO 012254Z 16014G29KT 10SM TS SCT110 28/04 A2981 RMK AO2 PK WND 19030/2227 LTG DSNT NE TSB32E47B52 FIBI,M
BVU,2023-09-01 22:55,-114.8611,35.9475,671.00,78.80,64.40,61.36,110.00,8.00,0.00,29.91,M,10.00,M,OVC,M,M,M,6500.00,M,M,M,M,M,M,M,M,M,M,78.80,KBVU 012255Z AUTO 11008KT 10SM OVC065 26/18 A2991 RMK AO2 LTG DSNT SW-NW,M
CXP,2023-09-01 22:55,-119.7326,39.1923,1431.00,62.60,46.40,55.37,250.00,9.00,0.00,29.91,M,10.00,15.00,FEW,M,M,M,9000.00,M,M,M,-RA,M,M,M,M,M,M,62.60,KCXP 012255Z AUTO 25009G15KT 220V280 10SM -RA FEW090 17/08 A2991 RMK AO2,M
INS,2023-09-01 22:55,-115.6733,36.5872,955.00,75.40,61.30,61.58,90.00,28.00,0.00,29.89,1007.20,10.00,34.00,FEW,BKN,M,M,9000.00,13000.00,M,M,VCTS,M,M,M,37.00,100.00,2023-09-01 22:05,75.40,KINS 012255Z AUTO 09028G34KT 10SM VCTS FEW090 BKN130 24/16 A2989 RMK AO2 PK WND 10037/05 DZE2155 SLP072 T02410163 $,M
RNO,2023-09-01 22:55,-119.7711,39.4839,1341.00,67.00,46.00,46.78,190.00,15.00,0.00,29.88,1007.10,10.00,23.00,BKN,M,M,M,6000.00,M,M,M,M,M,M,M,38.00,200.00,2023-09-01 21:56,67.00,KRNO 012255Z 19015G23KT 10SM BKN060 19/08 A2988 RMK AO2 PK WND 20038/2156 SLP071 T01940078,M
RTS,2023-09-01 22:55,-119.8764,39.6682,1539.00,64.40,41.00,42.28,220.00,9.00,0.00,29.91,M,10.00,16.00,BKN,OVC,M,M,5500.00,6500.00,M,M,M,M,M,M,M,M,M,64.40,KRTS 012255Z AUTO 22009G16KT 10SM BKN055 OVC065 18/05 A2991 RMK AO2,M
MEV,2023-09-01 22:55,-119.7500,38.9963,1441.42,64.40,41.00,42.28,190.00,16.00,0.00,29.91,M,10.00,25.00,SCT,BKN,BKN,M,6500.00,8500.00,11000.00,M,M,M,M,M,M,M,M,64.40,KMEV 012255Z AUTO 19016G25KT 10SM SCT065 BKN085 BKN110 18/05 A2991 RMK AO2,M
HTH,2023-09-01 22:55,-118.6315,38.5448,1282.89,87.80,14.00,6.38,210.00,26.00,0.00,29.75,M,10.00,35.00,CLR,M,M,M,M,M,M,M,M,M,M,M,M,M,M,83.00,KHTH 012255Z AUTO 21026G35KT 10SM CLR 31/M10 A2975 RMK A01,M
LSV,2023-09-01 22:55,-115.0343,36.2362,570.00,72.50,72.00,98.32,20.00,18.00,T,29.88,1009.80,10.00,M,FEW,FEW,OVC,M,3600.00,5000.00,6000.00,M,-TSRA,M,M,M,M,M,M,72.50,KLSV 012255Z AUTO 02018KT 10SM -TSRA FEW036 FEW050 OVC060 23/22 A2988 RMK AO2 RAB2149E04DZB04E16RAB52 TSB49 SLP098 P0000 T02250223 $,M
BAM,2023-09-01 22:55,-116.8743,40.5990,1382.36,87.80,30.20,12.64,290.00,5.00,0.00,29.76,M,10.00,17.00,CLR,M,M,M,M,M,M,M,M,M,M,M,M,M,M,84.01,KBAM 012255Z AUTO 29005G17KT 10SM CLR 31/M01 A2976 RMK AO1,M
TMT,2023-09-01 22:55,-117.1971,39.4643,1749.34,83.00,30.00,14.62,190.00,15.00,0.00,29.85,M,M,25.00,SCT,M,M,M,12000.00,M,M,M,M,M,M,M,M,M,M,80.39,KTMT 012255Z AUTO 19015G25KT SCT120 28/M01 A2985 RMK AO2 LTG DSNT NW T02841011 PWINO,M
10U,2023-09-01 22:55,-116.1876,41.9532,1637.00,75.20,37.40,25.40,60.00,14.00,0.00,29.85,M,10.00,19.00,CLR,M,M,M,M,M,M,M,M,M,M,M,M,M,M,75.20,K10U 012255Z AUTO 06014G19KT 10SM CLR 24/03 A2985 RMK AO2,M
EKO,2023-09-01 22:56,-115.7860,40.8242,1367.00,83.00,40.00,21.76,170.00,13.00,0.00,29.81,1003.60,10.00,24.00,SCT,M,M,M,11000.00,M,M,M,TS,M,M,M,30.00,190.00,2023-09-01 22:27,80.64,KEKO 012256Z AUTO 17013G24KT 10SM TS SCT110 28/04 A2981 RMK AO2 PK WND 19030/2227 LTG DSNT NE TSB32E47B52 SLP036 T02830044,M
WMC,2023-09-01 22:56,-117.8072,40.9019,1315.00,76.00,34.00,21.62,270.00,20.00,0.00,29.80,1004.20,5.00,30.00,CLR,M,M,M,M,M,M,M,HZ,M,M,M,30.00,270.00,2023-09-01 22:49,76.00,KWMC 012256Z AUTO 27020G30KT 5SM HZ CLR 24/01 A2980 RMK AO2 PK WND 27030/2249 SLP042 T02440011,M
NFL,2023-09-01 22:56,-118.7010,39.4166,1199.00,75.00,41.00,29.43,310.00,17.00,0.00,29.79,1006.70,10.00,26.00,FEW,SCT,BKN,M,7000.00,10000.00,15000.00,M,M,M,M,M,26.00,300.00,2023-09-01 22:49,75.00,KNFL 012256Z 31017G26KT 10SM FEW070 SCT100 BKN150 24/05 A2979 RMK AO2 PK WND 30026/2249 SLP067 SH DSNT W-NW T02390050,M
HND,2023-09-01 22:56,-115.1344,35.9729,742.79,74.00,69.00,84.40,10.00,9.00,0.00,29.95,1013.50,10.00,M,FEW,BKN,BKN,M,1400.00,5500.00,6500.00,M,M,M,M,M,M,M,M,74.00,KHND 012256Z 01009KT 10SM FEW014 BKN055 BKN065 23/21 A2995 RMK AO2 LTG DSNT ALQDS TSE52 SLP135 T02330206,M
TPH,2023-09-01 22:56,-117.0904,38.0505,1654.00,78.00,38.00,23.70,190.00,23.00,0.00,29.92,1006.50,10.00,33.00,SCT,M,M,M,11000.00,M,M,M,M,M,M,M,36.00,190.00,2023-09-01 22:06,78.00,KTPH 012256Z AUTO 19023G33KT 10SM SCT110 26/03 A2992 RMK AO2 PK WND 19036/2206 SLP065 T02560033,M
LAS,2023-09-01 22:56,-115.1634,36.0719,663.00,72.00,68.00,87.24,20.00,9.00,0.20,29.92,1011.30,10.00,M,FEW,BKN,BKN,M,2500.00,6000.00,12000.00,M,TS,M,M,M,M,M,M,72.00,KLAS 012256Z 02009KT 10SM TS FEW025 BKN060CB BKN120 22/20 A2992 RMK AO2 LTG DSNT ALQDS RAE38 SLP113 VCSH NW-NE AND SE OCNL LTGICCCCG NW-NE TS NW-NE MOV NE P0020 T02220200,M
LSV,2023-09-01 22:56,-115.0343,36.2362,570.00,73.40,71.60,94.10,30.00,18.00,0.00,29.87,1009.50,10.00,M,FEW,FEW,OVC,M,3600.00,5000.00,6000.00,M,-RA,M,M,M,M,M,M,73.40,KLSV 012256Z AUTO 03018KT 10SM -RA FEW036 FEW050 OVC060 23/22 A2987 RMK AO2 TSE56 SLP095 $,M
VGT,2023-09-01 22:57,-115.1933,36.2111,667.00,73.00,68.00,84.34,10.00,4.00,T,29.92,M,4.00,M,BKN,OVC,M,M,6000.00,8500.00,M,M,VCTS -RA,M,M,M,M,M,M,73.00,KVGT 012257Z 01004KT 4SM VCTS -RA BKN060 OVC085 23/20 A2992 RMK AO2 LTG DSNT ALQDS TSE56 P0000 T02280200,M
INS,2023-09-01 22:58,-115.6733,36.5872,955.00,75.20,62.60,64.91,90.00,28.00,0.00,29.89,1007.30,10.00,34.00,FEW,SCT,BKN,M,9000.00,11000.00,13000.00,M,-DZ,M,M,M,M,M,M,75.20,KINS 012258Z AUTO 09028G34KT 10SM -DZ FEW090 SCT110 BKN130 24/17 A2989 RMK AO2 LTG DSNT NW DZB58 SLP073 $,M
INS,2023-09-01 22:59,-115.6733,36.5872,955.00,75.20,62.60,64.91,90.00,28.00,0.00,29.89,1007.30,10.00,34.00,FEW,SCT,BKN,M,9000.00,11000.00,13000.00,M,TS -DZ,M,M,M,M,M,M,75.20,KINS 012259Z AUTO 09028G34KT 10SM TS -DZ FEW090 SCT110 BKN130 24/17 A2989 RMK AO2 DZB58 TSB59 SLP073 $,M
LSV,2023-09-01 23:01,-115.0343,36.2362,570.00,73.40,71.60,94.10,30.00,18.00,0.00,29.87,1009.50,10.00,M,BKN,BKN,M,M,6000.00,9500.00,M,M,M,M,M,M,M,M,M,73.40,KLSV 012301Z AUTO 03018KT 10SM BKN060 BKN095 23/22 A2987 RMK AO2 RAE01 TSE2256 SLP095 $,M
DRA,2023-09-01 23:06,-116.0278,36.6206,1009.00,70.00,61.00,73.11,120.00,10.00,T,29.88,M,10.00,20.00,FEW,SCT,BKN,M,4600.00,7000.00,9500.00,M,M,M,M,M,M,M,M,70.00,KDRA 012306Z AUTO 12010G20KT 10SM FEW046 SCT070 BKN095 21/16 A2988 RMK AO2 WSHFT 2249 RAE2257 P0000 T02110161,M
05U,2023-09-01 23:10,-116.0051,39.6042,1811.23,80.60,44.60,28.08,M,M,0.00,29.92,M,10.00,M,CLR,M,M,M,M,M,M,M,M,M,M,M,M,M,M,79.42,K05U 012310Z AUTO 10SM CLR 27/07 A2992 RMK A01,M
INS,2023-09-01 23:13,-115.6733,36.5872,955.00,73.40,62.60,68.94,100.00,23.00,0.00,29.90,1007.70,10.00,M,FEW,SCT,BKN,OVC,3800.00,8500.00,11000.00,13000.00,VCTS -RA,M,M,M,M,M,M,73.40,KINS 012313Z AUTO 10023KT 10SM VCTS -RA FEW038 SCT085 BKN110 OVC130 23/17 A2990 RMK AO2 DZB2258E00RAB00 TSB2259E13 SLP077 $,M
VGT,2023-09-01 23:13,-115.1933,36.2111,667.00,74.00,68.00,81.55,0.00,0.00,T,29.92,M,10.00,M,FEW,OVC,M,M,4800.00,6000.00,M,M,M,M,M,M,M,M,M,74.00,KVGT 012313Z 00000KT 10SM FEW048 OVC060 23/20 A2992 RMK AO2 LTG DSNT NE AND SW AND W RAE07 TSE2256 P0000 T02330200,M
BVU,2023-09-01 23:15,-114.8611,35.9475,671.00,78.80,62.60,57.60,160.00,6.00,0.00,29.91,M,10.00,M,BKN,OVC,M,M,6500.00,7500.00,M,M,M,M,M,M,M,M,M,78.80,KBVU 012315Z AUTO 16006KT 10SM BKN065 OVC075 26/17 A2991 RMK AO2,M
CXP,2023-09-01 23:15,-119.7326,39.1923,1431.00,62.60,44.60,51.72,240.00,7.00,0.00,29.91,M,10.00,15.00,FEW,BKN,M,M,6500.00,9000.00,M,M,M,M,M,M,M,M,M,62.60,KCXP 012315Z AUTO 24007G15KT 220V280 10SM FEW065 BKN090 17/07 A2991 RMK AO2,M
EKO,2023-09-01 23:15,-115.7860,40.8242,1367.00,85.00,42.00,22.05,170.00,19.00,0.00,29.80,M,10.00,26.00,FEW,M,M,M,7500.00,M,M,M,VCTS,M,M,M,26.00,180.00,2023-09-01 23:15,82.15,KEKO 012315Z AUTO 17019G26KT 10SM VCTS FEW075 29/06 A2980 RMK AO2 PK WND 18026/2315 LTG DSNT NE TSE09 T02940056,M
RTS,2023-09-01 23:15,-119.8764,39.6682,1539.00,64.40,41.00,42.28,240.00,10.00,0.00,29.92,M,10.00,M,BKN,OVC,M,M,5500.00,6500.00,M,M,M,M,M,M,M,M,M,64.40,KRTS 012315Z AUTO 24010KT 10SM BKN055 OVC065 18/05 A2992 RMK AO2,M
MEV,2023-09-01 23:15,-119.7500,38.9963,1441.42,64.40,39.20,39.43,180.00,20.00,0.00,29.91,M,10.00,27.00,FEW,SCT,M,M,6500.00,8500.00,M,M,M,M,M,M,M,M,M,64.40,KMEV 012315Z AUTO 18020G27KT 10SM FEW065 SCT085 18/04 A2991 RMK AO2,M
BAM,2023-09-01 23:15,-116.8743,40.5990,1382.36,86.00,32.00,14.40,330.00,11.00,0.00,29.76,M,10.00,17.00,CLR,M,M,M,M,M,M,M,M,M,M,M,M,M,M,82.64,KBAM 012315Z AUTO 33011G17KT 10SM CLR 30/00 A2976 RMK AO1,M
HTH,2023-09-01 23:15,-118.6315,38.5448,1282.89,87.80,14.00,6.38,220.00,17.00,0.00,29.76,M,10.00,35.00,CLR,M,M,M,M,M,M,M,M,M,M,M,M,M,M,83.00,KHTH 012315Z AUTO 22017G35KT 10SM CLR 31/M10 A2976 RMK A01,M
TMT,2023-09-01 23:15,-117.1971,39.4643,1749.34,81.00,27.70,14.20,190.00,16.00,0.00,29.85,M,M,27.00,CLR,M,M,M,M,M,M,M,M,M,M,M,M,M,M,78.97,KTMT 012315Z AUTO 19016G27KT 160V220 CLR 27/M02 A2985 RMK AO2 LTG DSNT NW T02731024 PWINO,M
10U,2023-09-01 23:20,-116.1876,41.9532,1637.00,75.20,37.40,25.40,60.00,12.00,0.00,29.85,M,10.00,18.00,CLR,M,M,M,M,M,M,M,M,M,M,M,M,M,M,75.20,K10U 012320Z AUTO 06012G18KT 10SM CLR 24/03 A2985 RMK AO2,M
05U,2023-09-01 23:30,-116.0051,39.6042,1811.23,82.40,46.40,28.36,M,M,0.00,29.93,M,10.00,M,FEW,SCT,M,M,9500.00,11000.00,M,M,M,M,M,M,M,M,M,80.64,K05U 012330Z AUTO 10SM FEW095 SCT110 28/08 A2993 RMK A01,M
BVU,2023-09-01 23:35,-114.8611,35.9475,671.00,78.80,62.60,57.60,170.00,4.00,0.00,29.92,M,9.00,M,FEW,BKN,OVC,M,3600.00,7000.00,7500.00,M,M,M,M,M,M,M,M,78.80,KBVU 012335Z AUTO 17004KT 9SM FEW036 BKN070 OVC075 26/17 A2992 RMK AO2 LTG DSNT SW AND W,M
CXP,2023-09-01 23:35,-119.7326,39.1923,1431.00,62.60,42.80,48.28,230.00,8.00,0.00,29.92,M,10.00,14.00,FEW,SCT,BKN,M,6500.00,7500.00,8500.00,M,M,M,M,M,M,M,M,62.60,KCXP 012335Z AUTO 23008G14KT 10SM FEW065 SCT075 BKN085 17/06 A2992 RMK AO2,M
RTS,2023-09-01 23:35,-119.8764,39.6682,1539.00,62.60,42.80,48.28,250.00,18.00,0.00,29.92,M,10.00,M,FEW,SCT,BKN,M,4900.00,5500.00,7000.00,M,M,M,M,M,M,M,M,62.60,KRTS 012335Z AUTO 25018KT 10SM FEW049 SCT055 BKN070 17/06 A2992 RMK AO2,M
MEV,2023-09-01 23:35,-119.7500,38.9963,1441.42,62.60,39.20,42.00,180.00,18.00,0.00,29.91,M,10.00,28.00,BKN,BKN,BKN,M,7000.00,7500.00,8500.00,M,M,M,M,M,M,M,M,62.60,KMEV 012335Z AUTO 18018G28KT 10SM BKN070 BKN075 BKN085 17/04 A2991 RMK AO2,M
BAM,2023-09-01 23:35,-116.8743,40.5990,1382.36,87.80,30.20,12.64,360.00,10.00,0.00,29.76,M,10.00,16.00,CLR,M,M,M,M,M,M,M,M,M,M,M,M,M,M,84.01,KBAM 012335Z AUTO 36010G16KT 10SM CLR 31/M01 A2976 RMK AO1,M
HTH,2023-09-01 23:35,-118.6315,38.5448,1282.89,86.00,14.00,6.75,220.00,24.00,0.00,29.76,M,10.00,42.00,CLR,M,M,M,M,M,M,M,M,M,M,M,M,M,M,81.71,KHTH 012335Z AUTO 22024G42KT 10SM CLR 30/M10 A2976 RMK A01,M
10U,2023-09-01 23:35,-116.1876,41.9532,1637.00,77.00,37.40,23.93,60.00,15.00,0.00,29.85,M,10.00,21.00,CLR,M,M,M,M,M,M,M,M,M,M,M,M,M,M,77.00,K10U 012335Z AUTO 06015G21KT 10SM CLR 25/03 A2985 RMK AO2,M
TMT,2023-09-01 23:35,-117.1971,39.4643,1749.34,82.20,29.30,14.58,220.00,16.00,0.00,29.85,M,M,25.00,CLR,M,M,M,M,M,M,M,M,M,M,M,M,M,M,79.81,KTMT 012335Z AUTO 22016G25KT CLR 28/M01 A2985 RMK AO2 T02791015 PWINO,M
EKO,2023-09-01 23:45,-115.7860,40.8242,1367.00,81.00,41.00,24.14,160.00,16.00,0.00,29.80,M,10.00,32.00,CLR,M,M,M,M,M,M,M,M,M,M,M,35.00,170.00,2023-09-01 23:22,79.43,KEKO 012345Z AUTO 16016G32KT 10SM CLR 27/05 A2980 RMK AO2 PK WND 17035/2322 LTG DSNT NE-SE TSE09 T02720050,M
05U,2023-09-01 23:50,-116.0051,39.6042,1811.23,77.00,48.20,36.22,M,M,0.00,29.94,M,9.00,M,FEW,FEW,M,M,9500.00,11000.00,M,M,M,M,M,M,M,M,M,77.00,K05U 012350Z AUTO 9SM FEW095 FEW110 25/09 A2994 RMK A01,M
P68,2023-09-01 23:53,-116.0056,39.6014,1993.00,75.00,48.00,38.43,160.00,28.00,0.00,29.91,1004.80,M,39.00,M,M,M,M,M,M,M,M,M,M,M,M,41.00,160.00,2023-09-01 23:43,75.00,KP68 012353Z AUTO 16028G39KT 24/09 A2991 RMK AO1 PK WND 16041/2343 SLP048 T02390089 10278 20239 55001,M
DRA,2023-09-01 23:53,-116.0278,36.6206,1009.00,73.00,62.00,68.42,110.00,16.00,T,29.88,1007.10,10.00,30.00,FEW,M,M,M,8000.00,M,M,M,M,M,M,M,30.00,120.00,2023-09-01 23:46,73.00,KDRA 012353Z AUTO 11016G30KT 10SM FEW080 23/17 A2988 RMK AO2 PK WND 12030/2346 WSHFT 2249 RAE2257 SLP071 P0000 60008 T02280167 10328 20194 53001,M
ELY,2023-09-01 23:53,-114.8453,39.2950,1909.00,65.00,49.00,56.13,170.00,20.00,0.00,30.05,1008.90,10.00,37.00,FEW,M,M,M,11000.00,M,M,M,M,M,M,M,37.00,150.00,2023-09-01 23:26,65.00,KELY 012353Z AUTO 17020G37KT 10SM FEW110 18/09 A3005 RMK AO2 PK WND 15037/2326 SLP089 T01830094 10233 20183 53001,M
VGT,2023-09-01 23:53,-115.1933,36.2111,667.00,76.00,68.00,76.27,50.00,3.00,T,29.92,1012.70,10.00,M,OVC,M,M,M,6500.00,M,M,M,M,M,M,M,M,M,M,76.00,KVGT 012353Z 05003KT 10SM OVC065 24/20 A2992 RMK AO2 LTG DSNT SW-NW RAE07 TSE2256 SLP127 P0000 60028 T02440200 10272 20222 55003,M
LOL,2023-09-01 23:53,-118.5701,40.0684,1192.43,71.00,45.00,39.27,270.00,21.00,0.00,29.82,1006.30,9.00,M,CLR,M,M,M,M,M,M,M,M,M,M,M,26.00,270.00,2023-09-01 23:46,71.00,KLOL 012353Z AUTO 27021KT 9SM CLR 22/07 A2982 RMK AO2 PK WND 27026/2346 SLP063 T02170072 10250 20217 51015,M
BVU,2023-09-01 23:55,-114.8611,35.9475,671.00,78.80,62.60,57.60,120.00,10.00,0.00,29.92,M,8.00,M,FEW,SCT,OVC,M,3700.00,7000.00,8500.00,M,-RA,M,M,M,M,M,M,78.80,KBVU 012355Z AUTO 12010KT 8SM -RA FEW037 SCT070 OVC085 26/17 A2992 RMK AO2 LTG DSNT SW-NW,M
CXP,2023-09-01 23:55,-119.7326,39.1923,1431.00,62.60,44.60,51.72,M,5.00,0.00,29.92,M,10.00,14.00,BKN,OVC,M,M,8000.00,9000.00,M,M,M,M,M,M,M,M,M,62.60,KCXP 012355Z AUTO VRB05G14KT 10SM BKN080 OVC090 17/07 A2992 RMK AO2,M
INS,2023-09-01 23:55,-115.6733,36.5872,955.00,71.00,64.20,79.10,80.00,21.00,0.06,29.91,1008.50,10.00,M,FEW,SCT,BKN,OVC,300.00,6000.00,10000.00,12000.00,-DZ,M,M,M,34.00,90.00,2023-09-01 22:58,71.00,KINS 012355Z AUTO 08021KT 10SM -DZ FEW003 SCT060 BKN100 OVC120 22/18 A2991 RMK AO2 PK WND 09034/2258 DZB2258E00RAB00E18DZB18E23RAB23E24DZB24E26RAB26E53DZB53 TSB2259E13 SLP085 P0006 60006 T02170179 10266 20217 53009 $,M
RNO,2023-09-01 23:55,-119.7711,39.4839,1341.00,65.00,45.00,48.28,170.00,14.00,0.00,29.89,1007.70,10.00,M,SCT,BKN,M,M,5500.00,8000.00,M,M,M,M,M,M,M,M,M,65.00,KRNO 012355Z 17014KT 10SM SCT055 BKN080 18/07 A2989 RMK AO2 SLP077 MTN TOPS OBSCD SW THRU W 60000 T01830072 10239 20178 51013,M
RTS,2023-09-01 23:55,-119.8764,39.6682,1539.00,60.80,42.80,51.45,250.00,16.00,0.00,29.93,M,10.00,M,FEW,SCT,SCT,M,4800.00,6000.00,7000.00,M,M,M,M,M,M,M,M,60.80,KRTS 012355Z AUTO 25016KT 10SM FEW048 SCT060 SCT070 16/06 A2993 RMK AO2,M
MEV,2023-09-01 23:55,-119.7500,38.9963,1441.42,62.60,39.20,42.00,180.00,18.00,0.00,29.91,M,10.00,M,BKN,OVC,M,M,7000.00,9000.00,M,M,M,M,M,M,M,M,M,62.60,KMEV 012355Z AUTO 18018KT 10SM BKN070 OVC090 17/04 A2991 RMK AO2,M
BAM,2023-09-01 23:55,-116.8743,40.5990,1382.36,84.20,32.00,15.25,320.00,5.00,0.00,29.76,M,10.00,8.00,CLR,M,M,M,M,M,M,M,M,M,M,M,M,M,M,81.28,KBAM 012355Z AUTO 32005G08KT 10SM CLR 29/00 A2976 RMK AO1,M
HTH,2023-09-01 23:55,-118.6315,38.5448,1282.89,84.20,15.80,7.74,230.00,19.00,0.00,29.77,M,10.00,29.00,CLR,M,M,M,M,M,M,M,M,M,M,M,M,M,M,80.51,KHTH 012355Z AUTO 23019G29KT 10SM CLR 29/M09 A2977 RMK A01,M
TMT,2023-09-01 23:55,-117.1971,39.4643,1749.34,80.20,28.60,15.13,210.00,15.00,0.00,29.86,M,M,23.00,CLR,M,M,M,M,M,M,M,M,M,M,M,M,M,M,78.63,KTMT 012355Z AUTO 21015G23KT CLR 27/M02 A2986 RMK AO2 T02681019 10293 20229 PWINO,M
10U,2023-09-01 23:55,-116.1876,41.9532,1637.00,78.80,37.40,22.54,50.00,14.00,0.00,29.85,M,10.00,22.00,CLR,M,M,M,M,M,M,M,M,M,M,M,M,M,M,78.80,K10U 012355Z AUTO 05014G22KT 10SM CLR 26/03 A2985 RMK AO2,M
LSV,2023-09-01 23:55,-115.0343,36.2362,570.00,73.80,73.40,98.66,30.00,16.00,T,29.88,1009.90,10.00,M,BKN,OVC,M,M,7000.00,8500.00,M,M,M,M,M,M,M,M,M,73.80,KLSV 012355Z AUTO 03016KT 10SM BKN070 OVC085 23/23 A2988 RMK AO2 RAE01 TSE2256 SLP099 P0000 60023 T02320230 10267 20216 58006 $,M
EKO,2023-09-01 23:56,-115.7860,40.8242,1367.00,82.00,44.00,26.23,170.00,21.00,0.00,29.81,1004.10,10.00,29.00,CLR,M,M,M,M,M,M,M,M,M,M,M,35.00,170.00,2023-09-01 23:22,80.21,KEKO 012356Z AUTO 17021G29KT 10SM CLR 28/07 A2981 RMK AO2 PK WND 17035/2322 LTG DSNT NE-SE TSE09 SLP041 T02780067 10322 20272 58004,M
WMC,2023-09-01 23:56,-117.8072,40.9019,1315.00,70.00,40.00,33.52,280.00,20.00,0.00,29.84,1006.00,6.00,32.00,CLR,M,M,M,M,M,M,M,HZ,M,M,M,34.00,280.00,2023-09-01 22:59,70.00,KWMC 012356Z AUTO 28020G32KT 6SM HZ CLR 21/04 A2984 RMK AO2 PK WND 28034/2259 SLP060 T02110044 10278 20211 53013,M
NFL,2023-09-01 23:56,-118.7010,39.4166,1199.00,73.00,45.00,36.70,340.00,15.00,0.00,29.80,1007.00,10.00,M,FEW,SCT,BKN,M,7000.00,10000.00,15000.00,M,M,M,M,M,M,M,M,73.00,KNFL 012356Z 34015KT 10SM FEW070 SCT100 BKN150 23/07 A2980 RMK AO2 SLP070 SH DSNT W-NW T02280072 10267 20228 53010,M
HND,2023-09-01 23:56,-115.1344,35.9729,742.79,75.00,69.00,81.62,50.00,7.00,0.00,29.96,1013.80,10.00,M,FEW,BKN,OVC,M,3800.00,6000.00,9000.00,M,M,M,M,M,M,M,M,75.00,KHND 012356Z 05007KT 10SM FEW038 BKN060 OVC090 24/21 A2996 RMK AO2 LTG DSNT NW SLP138 60025 T02390206 10267 20211 53003,M
TPH,2023-09-01 23:56,-117.0904,38.0505,1654.00,78.00,37.00,22.79,200.00,19.00,0.00,29.91,1005.50,10.00,31.00,CLR,M,M,M,M,M,M,M,M,M,M,M,34.00,180.00,2023-09-01 23:36,78.00,KTPH 012356Z AUTO 20019G31KT 10SM CLR 26/03 A2991 RMK AO2 PK WND 18034/2336 SLP055 T02560028 10278 20250 56009,M
LAS,2023-09-01 23:56,-115.1634,36.0719,663.00,74.00,69.00,84.40,360.00,8.00,0.00,29.93,1011.40,10.00,M,FEW,BKN,BKN,BKN,2500.00,6500.00,12000.00,16000.00,VCTS,M,M,M,M,M,M,74.00,KLAS 012356Z 36008KT 10SM VCTS FEW025 BKN065CB BKN120 BKN160 23/21 A2993 RMK AO2 LTG DSNT W AND NW TSE51 SLP114 VCSH DSNT SE-SW-NW OCNL LTGICCCCG VC NE-SE-SW-NW TS VC NE-SE-SW-NW MOV NE 60070 T02330206 10267 20211 55003 $,M
INS,2023-09-01 23:59,-115.6733,36.5872,955.00,71.60,64.40,78.04,80.00,17.00,0.00,29.92,1008.80,10.00,M,FEW,OVC,M,M,5500.00,11000.00,M,M,M,M,M,M,M,M,M,71.60,KINS 012359Z AUTO 08017KT 10SM FEW055 OVC110 22/18 A2992 RMK AO2 LTG DSNT NE DZE59 SLP088 $,M
