station,valid,lon,lat,elevation,tmpf,dwpf,relh,drct,sknt,p01i,alti,mslp,vsby,gust,skyc1,skyc2,skyc3,skyc4,skyl1,skyl2,skyl3,skyl4,wxcodes,ice_accretion_1hr,ice_accretion_3hr,ice_accretion_6hr,peak_wind_gust,peak_wind_drct,peak_wind_time,feel,metar,snowdepth
TMT,2022-07-17 00:15,-117.1971,39.4643,1749.34,M,M,M,340.00,12.00,0.00,30.14,M,10.00,M,CLR,M,M,M,M,M,M,M,M,M,M,M,M,M,M,M,KTMT 170015Z AUTO 34012KT 10SM CLR A3014 RMK AO2,M
05U,2022-07-17 00:15,-116.0051,39.6042,1811.23,95.00,39.20,14.44,170.00,8.00,0.00,30.18,M,10.00,M,CLR,M,M,M,M,M,M,M,M,M,M,M,M,M,M,90.57,K05U 170015Z AUTO 17008KT 10SM CLR 35/04 A3018 RMK A01,M
MEV,2022-07-17 00:15,-119.7500,38.9963,1441.42,95.00,42.80,16.60,290.00,10.00,0.00,30.05,M,10.00,19.00,CLR,M,M,M,M,M,M,M,M,M,M,M,M,M,M,90.86,KMEV 170015Z AUTO 29010G19KT 10SM CLR 35/06 A3005 RMK AO2,M
CXP,2022-07-17 00:15,-119.7326,39.1923,1431.00,93.20,41.00,16.37,270.00,15.00,0.00,30.07,M,10.00,25.00,CLR,M,M,M,M,M,M,M,M,M,M,M,M,M,M,89.03,KCXP 170015Z AUTO 27015G25KT 10SM CLR 34/05 A3007 RMK AO2,M
HTH,2022-07-17 00:15,-118.6315,38.5448,1282.89,96.80,46.40,18.02,360.00,18.00,0.00,30.00,M,10.00,M,CLR,M,M,M,M,M,M,M,M,M,M,M,M,M,M,93.05,KHTH 170015Z AUTO 36018KT 10SM CLR 36/08 A3000 RMK A01,M
BVU,2022-07-17 00:15,-114.8611,35.9475,671.00,M,M,M,M,M,0.00,M,M,M,M,M,M,M,M,M,M,M,M,M,M,M,M,M,M,M,M,KBVU 170015Z AUTO RMK AO2 PNO PWINO TSNO,M
RTS,2022-07-17 00:15,-119.8764,39.6682,1539.00,91.40,32.00,12.14,240.00,20.00,0.00,30.11,M,10.00,M,CLR,M,M,M,M,M,M,M,M,M,M,M,M,M,M,86.91,KRTS 170015Z AUTO 24020KT 10SM CLR 33/00 A3011 RMK AO2,M
BAM,2022-07-17 00:15,-116.8743,40.5990,1382.36,M,M,M,240.00,10.00,0.00,30.03,M,10.00,14.00,CLR,M,M,M,M,M,M,M,M,M,M,M,M,M,M,M,KBAM 170015Z AUTO 24010G14KT 10SM CLR A3003 RMK AO1,M
LAS,2022-07-17 00:16,-115.1634,36.0719,663.00,98.00,54.00,22.97,250.00,17.00,0.00,29.83,M,10.00,27.00,SCT,BKN,BKN,M,8000.00,11000.00,17000.00,M,M,M,M,M,31.00,240.00,2022-07-16 23:59,96.10,KLAS 170016Z 25017G27KT 10SM SCT080 BKN110 BKN170 37/12 A2983 RMK AO2 PK WND 24031/2359 LTG DSNT W-N TSE16 CB DSNT N AND W-NW VCSH T03670122,M
CXP,2022-07-17 00:35,-119.7326,39.1923,1431.00,93.20,41.00,16.37,280.00,14.00,0.00,30.07,M,10.00,23.00,CLR,M,M,M,M,M,M,M,M,M,M,M,M,M,M,89.03,KCXP 170035Z AUTO 28014G23KT 10SM CLR 34/05 A3007 RMK AO2,M
BVU,2022-07-17 00:35,-114.8611,35.9475,671.00,M,M,M,M,M,0.00,M,M,M,M,M,M,M,M,M,M,M,M,M,M,M,M,M,M,M,M,KBVU 170035Z AUTO RMK AO2 PNO PWINO TSNO,M
05U,2022-07-17 00:35,-116.0051,39.6042,1811.23,95.00,41.00,15.49,0.00,0.00,0.00,30.18,M,10.00,M,CLR,M,M,M,M,M,M,M,M,M,M,M,M,M,M,90.70,K05U 170035Z AUTO 00000KT 10SM CLR 35/05 A3018 RMK A01,M
MEV,2022-07-17 00:35,-119.7500,38.9963,1441.42,93.20,42.80,17.55,290.00,13.00,0.00,30.06,M,10.00,20.00,CLR,M,M,M,M,M,M,M,M,M,M,M,M,M,M,89.17,KMEV 170035Z AUTO 29013G20KT 10SM CLR 34/06 A3006 RMK AO2,M
BAM,2022-07-17 00:35,-116.8743,40.5990,1382.36,M,M,M,250.00,10.00,0.00,30.02,M,10.00,14.00,CLR,M,M,M,M,M,M,M,M,M,M,M,M,M,M,M,KBAM 170035Z AUTO 25010G14KT 10SM CLR A3002 RMK AO1,M
HTH,2022-07-17 00:35,-118.6315,38.5448,1282.89,95.00,46.40,19.04,360.00,14.00,0.00,30.00,M,10.00,20.00,CLR,M,M,M,M,M,M,M,M,M,M,M,M,M,M,91.29,KHTH 170035Z AUTO 36014G20KT 10SM CLR 35/08 A3000 RMK A01,M
TMT,2022-07-17 00:35,-117.1971,39.4643,1749.34,M,M,M,350.00,8.00,0.00,30.13,M,10.00,M,CLR,M,M,M,M,M,M,M,M,M,M,M,M,M,M,M,KTMT 170035Z AUTO 35008KT 10SM CLR A3013 RMK AO2 LTG DSNT W,M
RTS,2022-07-17 00:35,-119.8764,39.6682,1539.00,93.20,33.80,12.34,210.00,15.00,0.00,30.10,M,10.00,M,CLR,M,M,M,M,M,M,M,M,M,M,M,M,M,M,88.55,KRTS 170035Z AUTO 21015KT 10SM CLR 34/01 A3010 RMK AO2,M
VGT,2022-07-17 00:53,-115.1933,36.2111,667.00,102.00,54.00,20.42,260.00,14.00,0.00,29.81,1007.50,10.00,M,CLR,M,M,M,M,M,M,M,M,M,M,M,38.00,220.00,2022-07-16 23:55,100.30,KVGT 170053Z 26014KT 10SM CLR 39/12 A2981 RMK AO2 PK WND 22038/2355 LTG DSNT N AND NW SLP075 T03890122,M
LOL,2022-07-17 00:53,-118.5701,40.0684,1192.43,102.00,32.00,8.77,250.00,11.00,0.00,29.94,1009.30,10.00,M,CLR,M,M,M,M,M,M,M,M,M,M,M,M,M,M,95.57,KLOL 170053Z AUTO 25011KT 10SM CLR 39/00 A2994 RMK AO2 SLP093 T03890000,M
ELY,2022-07-17 00:53,-114.8453,39.2950,1909.00,90.00,41.00,18.10,M,M,0.00,30.18,1011.50,10.00,M,BKN,M,M,M,11000.00,M,M,M,M,M,M,M,M,M,M,86.16,KELY 170053Z AUTO 10SM BKN110 32/05 A3018 RMK AO2 SLP115 T03220050,M
P68,2022-07-17 00:53,-116.0056,39.6014,1993.00,91.00,42.00,18.30,100.00,6.00,0.00,30.14,1012.00,M,M,M,M,M,M,M,M,M,M,M,M,M,M,M,M,M,87.11,KP68 170053Z AUTO 10006KT 33/06 A3014 RMK AO1 SLP120 T03280056,M
DRA,2022-07-17 00:53,-116.0278,36.6206,1009.00,105.00,44.00,12.86,210.00,8.00,0.00,29.90,1006.30,10.00,18.00,CLR,M,M,M,M,M,M,M,M,M,M,M,M,M,M,100.75,KDRA 170053Z AUTO 21008G18KT 10SM CLR 41/07 A2990 RMK AO2 SLP063 T04060067,M
CXP,2022-07-17 00:55,-119.7326,39.1923,1431.00,93.20,41.00,16.37,280.00,15.00,0.00,30.08,M,10.00,22.00,CLR,M,M,M,M,M,M,M,M,M,M,M,M,M,M,89.03,KCXP 170055Z AUTO 28015G22KT 10SM CLR 34/05 A3008 RMK AO2,M
RNO,2022-07-17 00:55,-119.7711,39.4839,1341.00,97.00,42.00,15.20,260.00,16.00,0.00,30.03,1010.10,10.00,25.00,FEW,FEW,M,M,7000.00,11000.00,M,M,M,M,M,M,29.00,290.00,2022-07-17 00:00,92.69,KRNO 170055Z 26016G25KT 230V300 10SM FEW070 FEW110 36/06 A3003 RMK AO2 PK WND 29029/0000 SLP101 T03610056,M
BVU,2022-07-17 00:55,-114.8611,35.9475,671.00,M,M,M,M,M,0.00,M,M,M,M,M,M,M,M,M,M,M,M,M,M,M,M,M,M,M,M,KBVU 170055Z AUTO RMK AO2 PNO PWINO TSNO,M
RTS,2022-07-17 00:55,-119.8764,39.6682,1539.00,91.40,33.80,13.05,230.00,13.00,0.00,30.11,M,10.00,23.00,CLR,M,M,M,M,M,M,M,M,M,M,M,M,M,M,87.13,KRTS 170055Z AUTO 23013G23KT 10SM CLR 33/01 A3011 RMK AO2,M
05U,2022-07-17 00:55,-116.0051,39.6042,1811.23,93.20,41.00,16.37,0.00,0.00,0.00,30.17,M,10.00,M,CLR,M,M,M,M,M,M,M,M,M,M,M,M,M,M,89.03,K05U 170055Z AUTO 00000KT 10SM CLR 34/05 A3017 RMK A01,M
BAM,2022-07-17 00:55,-116.8743,40.5990,1382.36,M,M,M,210.00,8.00,0.00,30.02,M,10.00,M,CLR,M,M,M,M,M,M,M,M,M,M,M,M,M,M,M,KBAM 170055Z AUTO 21008KT 10SM CLR A3002 RMK AO1,M
MEV,2022-07-17 00:55,-119.7500,38.9963,1441.42,93.20,42.80,17.55,270.00,15.00,0.00,30.06,M,10.00,M,CLR,M,M,M,M,M,M,M,M,M,M,M,M,M,M,89.17,KMEV 170055Z AUTO 27015KT 10SM CLR 34/06 A3006 RMK AO2,M
HTH,2022-07-17 00:55,-118.6315,38.5448,1282.89,95.00,44.60,17.78,350.00,13.00,0.00,29.99,M,10.00,M,CLR,M,M,M,M,M,M,M,M,M,M,M,M,M,M,91.06,KHTH 170055Z AUTO 35013KT 10SM CLR 35/07 A2999 RMK A01,M
TMT,2022-07-17 00:55,-117.1971,39.4643,1749.34,M,M,M,30.00,7.00,0.00,30.13,M,10.00,M,CLR,M,M,M,M,M,M,M,M,M,M,M,M,M,M,M,KTMT 170055Z AUTO 03007KT 10SM CLR A3013 RMK AO2,M
TPH,2022-07-17 00:56,-117.0904,38.0505,1654.00,95.00,43.00,16.73,170.00,16.00,0.00,30.08,1009.40,10.00,24.00,FEW,M,M,M,12000.00,M,M,M,M,M,M,M,M,M,M,90.88,KTPH 170056Z AUTO 17016G24KT 120V240 10SM FEW120 35/06 A3008 RMK AO2 SLP094 T03500061,M
NFL,2022-07-17 00:56,-118.7010,39.4166,1199.00,97.00,46.00,17.64,150.00,18.00,0.00,29.98,1012.20,6.00,25.00,CLR,M,M,M,M,M,M,M,HZ,M,M,M,28.00,150.00,2022-07-17 00:41,93.19,KNFL 170056Z AUTO 15018G25KT 6SM HZ CLR 36/08 A2998 RMK AO2 PK WND 15028/0041 WSHFT 0039 SLP122 T03610078,M
WMC,2022-07-17 00:56,-117.8072,40.9019,1315.00,101.00,28.90,8.00,230.00,13.00,0.00,29.98,1009.50,10.00,24.00,FEW,M,M,M,11000.00,M,M,M,M,M,M,M,28.00,250.00,2022-07-17 00:02,94.24,KWMC 170056Z AUTO 23013G24KT 10SM FEW110 38/M02 A2998 RMK AO2 PK WND 25028/0002 SLP095 T03831017 TSNO,M
LAS,2022-07-17 00:56,-115.1634,36.0719,663.00,98.00,56.00,24.61,250.00,12.00,0.00,29.82,1006.70,10.00,M,FEW,BKN,BKN,M,8000.00,11000.00,17000.00,M,M,M,M,M,31.00,240.00,2022-07-16 23:59,96.72,KLAS 170056Z 25012KT 10SM FEW080 BKN110 BKN170 37/13 A2982 RMK AO2 PK WND 24031/2359 LTG DSNT NW TSE16 SLP067 CB DSNT N AND S AND W-NW SH DSNT N AND W-NW T03670133,M
HND,2022-07-17 00:56,-115.1344,35.9729,742.79,M,M,M,M,M,0.00,M,M,M,M,M,M,M,M,M,M,M,M,M,M,M,M,M,M,M,M,KHND 170056Z RMK AO2 SLPNO $,M
EKO,2022-07-17 00:56,-115.7860,40.8242,1367.00,96.00,34.00,11.37,260.00,3.00,0.00,30.06,1011.00,10.00,M,CLR,M,M,M,M,M,M,M,M,M,M,M,M,M,M,90.89,KEKO 170056Z AUTO 26003KT 10SM CLR 36/01 A3006 RMK AO2 SLP110 T03560011,M
LSV,2022-07-17 00:58,-115.0343,36.2362,570.00,105.00,54.30,18.93,230.00,11.00,0.00,29.77,1005.10,10.00,M,CLR,M,M,M,M,M,M,M,M,M,M,M,33.00,240.00,2022-07-17 00:02,103.54,KLSV 170058Z 23011KT 10SM CLR 41/12 A2977 RMK AO2A PK WND 24033/02 LTG DSNT W SLP051 T04050124 $,M
INS,2022-07-17 00:58,-115.6733,36.5872,955.00,103.00,44.60,13.91,210.00,13.00,0.00,29.89,1006.40,10.00,22.00,CLR,M,M,M,M,M,M,M,VCTS,M,M,M,M,M,M,98.95,KINS 170058Z AUTO 21013G22KT 10SM VCTS CLR 40/07 A2989 RMK AO2 SLP064 T03950070 $,M
NFL,2022-07-17 01:03,-118.7010,39.4166,1199.00,95.00,43.00,16.73,140.00,25.00,0.00,29.98,M,2.50,32.00,FEW,M,M,M,900.00,M,M,M,HZ,M,M,M,32.00,150.00,2022-07-17 01:01,90.88,KNFL 170103Z AUTO 14025G32KT 2 1/2SM HZ FEW009 35/06 A2998 RMK AO2 PK WND 15032/0101 T03500061,M
LSV,2022-07-17 01:03,-115.0343,36.2362,570.00,105.80,53.60,17.97,200.00,12.00,0.00,29.78,1005.40,10.00,M,CLR,M,M,M,M,M,M,M,M,M,M,M,M,M,M,104.23,KLSV 170103Z AUTO 20012KT 10SM CLR 41/12 A2978 RMK AO2 WSHFT 0053 LTG DSNT W SLP054 $,M
CXP,2022-07-17 01:10,-119.7326,39.1923,1431.00,91.40,41.00,17.32,270.00,16.00,0.00,30.08,M,10.00,M,CLR,M,M,M,M,M,M,M,M,M,M,M,M,M,M,87.40,KCXP 170110Z AUTO 27016KT 10SM CLR 33/05 A3008 RMK AO2,M
MEV,2022-07-17 01:15,-119.7500,38.9963,1441.42,91.40,42.80,18.56,270.00,14.00,0.00,30.06,M,10.00,19.00,CLR,M,M,M,M,M,M,M,M,M,M,M,M,M,M,87.52,KMEV 170115Z AUTO 27014G19KT 10SM CLR 33/06 A3006 RMK AO2,M
BAM,2022-07-17 01:15,-116.8743,40.5990,1382.36,M,M,M,200.00,6.00,0.00,30.01,M,10.00,M,CLR,M,M,M,M,M,M,M,M,M,M,M,M,M,M,M,KBAM 170115Z AUTO 20006KT 10SM CLR A3001 RMK AO1,M
HTH,2022-07-17 01:15,-118.6315,38.5448,1282.89,93.20,46.40,20.13,350.00,11.00,0.00,29.99,M,10.00,M,CLR,M,M,M,M,M,M,M,M,M,M,M,M,M,M,89.55,KHTH 170115Z AUTO 35011KT 10SM CLR 34/08 A2999 RMK A01,M
RTS,2022-07-17 01:15,-119.8764,39.6682,1539.00,91.40,33.80,13.05,220.00,14.00,0.00,30.12,M,10.00,20.00,CLR,M,M,M,M,M,M,M,M,M,M,M,M,M,M,87.13,KRTS 170115Z AUTO 22014G20KT 10SM CLR 33/01 A3012 RMK AO2,M
05U,2022-07-17 01:15,-116.0051,39.6042,1811.23,93.20,39.20,15.27,0.00,0.00,0.00,30.17,M,10.00,M,CLR,M,M,M,M,M,M,M,M,M,M,M,M,M,M,88.92,K05U 170115Z AUTO 00000KT 10SM CLR 34/04 A3017 RMK A01,M
TMT,2022-07-17 01:15,-117.1971,39.4643,1749.34,M,M,M,330.00,6.00,0.00,30.13,M,10.00,M,CLR,M,M,M,M,M,M,M,M,M,M,M,M,M,M,M,KTMT 170115Z AUTO 33006KT 10SM CLR A3013 RMK AO2,M
BVU,2022-07-17 01:15,-114.8611,35.9475,671.00,M,M,M,M,M,0.00,M,M,M,M,M,M,M,M,M,M,M,M,M,M,M,M,M,M,M,M,KBVU 170115Z AUTO RMK AO2 PNO PWINO TSNO,M
NFL,2022-07-17 01:18,-118.7010,39.4166,1199.00,94.00,45.00,18.68,130.00,24.00,0.00,29.97,M,6.00,33.00,CLR,M,M,M,M,M,M,M,HZ,M,M,M,33.00,140.00,2022-07-17 01:12,90.05,KNFL 170118Z AUTO 13024G33KT 6SM HZ CLR 34/07 A2997 RMK AO2 PK WND 14033/0112 T03440072,M
TPH,2022-07-17 01:24,-117.0904,38.0505,1654.00,94.00,43.00,17.31,140.00,16.00,0.00,30.08,M,10.00,22.00,CLR,M,M,M,M,M,M,M,M,M,M,M,M,M,M,89.84,KTPH 170124Z AUTO 14016G22KT 10SM CLR 34/06 A3008 RMK AO2 WSHFT 0104 T03440061,M
BVU,2022-07-17 01:35,-114.8611,35.9475,671.00,M,M,M,M,M,0.00,M,M,M,M,M,M,M,M,M,M,M,M,M,M,M,M,M,M,M,M,KBVU 170135Z AUTO RMK AO2 PNO PWINO TSNO,M
CXP,2022-07-17 01:35,-119.7326,39.1923,1431.00,91.40,41.00,17.32,280.00,11.00,0.00,30.08,M,10.00,20.00,CLR,M,M,M,M,M,M,M,M,M,M,M,M,M,M,87.40,KCXP 170135Z AUTO 28011G20KT 10SM CLR 33/05 A3008 RMK AO2,M
RTS,2022-07-17 01:35,-119.8764,39.6682,1539.00,89.60,33.80,13.80,230.00,12.00,0.00,30.12,M,10.00,18.00,CLR,M,M,M,M,M,M,M,M,M,M,M,M,M,M,85.59,KRTS 170135Z AUTO 23012G18KT 10SM CLR 32/01 A3012 RMK AO2,M
05U,2022-07-17 01:35,-116.0051,39.6042,1811.23,91.40,37.40,15.05,0.00,0.00,0.00,30.17,M,10.00,M,CLR,M,M,M,M,M,M,M,M,M,M,M,M,M,M,87.23,K05U 170135Z AUTO 00000KT 10SM CLR 33/03 A3017 RMK A01,M
MEV,2022-07-17 01:35,-119.7500,38.9963,1441.42,91.40,41.00,17.32,280.00,12.00,0.00,30.07,M,10.00,19.00,CLR,M,M,M,M,M,M,M,M,M,M,M,M,M,M,87.40,KMEV 170135Z AUTO 28012G19KT 10SM CLR 33/05 A3007 RMK AO2,M
BAM,2022-07-17 01:35,-116.8743,40.5990,1382.36,M,M,M,200.00,9.00,0.00,30.02,M,10.00,M,CLR,M,M,M,M,M,M,M,M,M,M,M,M,M,M,M,KBAM 170135Z AUTO 20009KT 10SM CLR A3002 RMK AO1,M
HTH,2022-07-17 01:35,-118.6315,38.5448,1282.89,93.20,44.60,18.80,350.00,9.00,0.00,30.00,M,10.00,M,CLR,M,M,M,M,M,M,M,M,M,M,M,M,M,M,89.34,KHTH 170135Z AUTO 35009KT 10SM CLR 34/07 A3000 RMK A01,M
TMT,2022-07-17 01:35,-117.1971,39.4643,1749.34,M,M,M,10.00,8.00,0.00,30.14,M,10.00,M,CLR,M,M,M,M,M,M,M,M,M,M,M,M,M,M,M,KTMT 170135Z AUTO 01008KT 10SM CLR A3014 RMK AO2,M
RNO,2022-07-17 01:50,-119.7711,39.4839,1341.00,95.00,42.80,16.60,290.00,15.00,0.00,30.03,M,10.00,21.00,FEW,FEW,FEW,M,7000.00,11000.00,15000.00,M,M,M,M,M,M,M,M,90.86,KRNO 170150Z 29015G21KT 10SM FEW070 FEW110 FEW150 35/06 A3003 RMK AO2 WSHFT 0130 CB DSNT E,M
LOL,2022-07-17 01:53,-118.5701,40.0684,1192.43,100.00,33.00,9.74,280.00,13.00,0.00,29.95,1009.10,10.00,M,CLR,M,M,M,M,M,M,M,M,M,M,M,M,M,M,94.03,KLOL 170153Z AUTO 28013KT 10SM CLR 38/01 A2995 RMK AO2 SLP091 T03780006,M
P68,2022-07-17 01:53,-116.0056,39.6014,1993.00,89.00,39.00,17.22,30.00,5.00,0.00,30.14,1011.30,M,M,M,M,M,M,M,M,M,M,M,M,M,M,M,M,M,85.30,KP68 170153Z AUTO 03005KT 32/04 A3014 RMK AO1 SLP113 T03170039,M
ELY,2022-07-17 01:53,-114.8453,39.2950,1909.00,89.00,39.00,17.22,90.00,8.00,0.00,30.18,1010.40,10.00,M,CLR,M,M,M,M,M,M,M,M,M,M,M,28.00,150.00,2022-07-17 00:56,85.30,KELY 170153Z AUTO 09008KT 10SM CLR 32/04 A3018 RMK AO2 PK WND 15028/0056 SLP104 T03170039,M
DRA,2022-07-17 01:53,-116.0278,36.6206,1009.00,104.00,44.00,13.29,180.00,12.00,0.00,29.90,1006.40,10.00,25.00,CLR,M,M,M,M,M,M,M,M,M,M,M,M,M,M,99.72,KDRA 170153Z AUTO 18012G25KT 10SM CLR 40/07 A2990 RMK AO2 SLP064 T04000067,M
VGT,2022-07-17 01:53,-115.1933,36.2111,667.00,105.00,52.00,17.30,260.00,8.00,0.00,29.80,1007.30,10.00,M,CLR,M,M,M,M,M,M,M,M,M,M,M,M,M,M,102.91,KVGT 170153Z 26008KT 10SM CLR 41/11 A2980 RMK AO2 SLP073 T04060111,M
TPH,2022-07-17 01:53,-117.0904,38.0505,1654.00,93.20,44.60,18.80,140.00,19.00,0.00,30.09,M,10.00,27.00,CLR,M,M,M,M,M,M,M,VCTS,M,M,M,27.00,130.00,2022-07-17 01:28,89.34,KTPH 170153Z AUTO 14019G27KT 10SM VCTS CLR 34/07 A3009 RMK AO2 PK WND 13027/0128 WSHFT 0104,M
BVU,2022-07-17 01:55,-114.8611,35.9475,671.00,M,M,M,M,M,0.00,M,M,M,M,M,M,M,M,M,M,M,M,M,M,M,M,M,M,M,M,KBVU 170155Z AUTO RMK AO2 PNO PWINO TSNO,M
RNO,2022-07-17 01:55,-119.7711,39.4839,1341.00,94.00,42.00,16.72,280.00,13.00,0.00,30.03,1010.40,10.00,M,FEW,FEW,FEW,M,7000.00,11000.00,15000.00,M,M,M,M,M,M,M,M,89.76,KRNO 170155Z 28013KT 10SM FEW070 FEW110 FEW150 34/06 A3003 RMK AO2 WSHFT 0130 SLP104 CB DSNT E T03440056,M
CXP,2022-07-17 01:55,-119.7326,39.1923,1431.00,89.60,41.00,18.33,280.00,13.00,0.00,30.08,M,10.00,20.00,CLR,M,M,M,M,M,M,M,M,M,M,M,M,M,M,85.82,KCXP 170155Z AUTO 28013G20KT 10SM CLR 32/05 A3008 RMK AO2,M
RTS,2022-07-17 01:55,-119.8764,39.6682,1539.00,89.60,33.80,13.80,230.00,11.00,0.00,30.13,M,10.00,17.00,CLR,M,M,M,M,M,M,M,M,M,M,M,M,M,M,85.59,KRTS 170155Z AUTO 23011G17KT 10SM CLR 32/01 A3013 RMK AO2,M
05U,2022-07-17 01:55,-116.0051,39.6042,1811.23,87.80,39.20,18.09,0.00,0.00,0.00,30.17,M,10.00,M,CLR,M,M,M,M,M,M,M,M,M,M,M,M,M,M,84.22,K05U 170155Z AUTO 00000KT 10SM CLR 31/04 A3017 RMK A01,M
MEV,2022-07-17 01:55,-119.7500,38.9963,1441.42,89.60,42.80,19.64,280.00,12.00,0.00,30.07,M,10.00,18.00,CLR,M,M,M,M,M,M,M,M,M,M,M,M,M,M,85.93,KMEV 170155Z AUTO 28012G18KT 10SM CLR 32/06 A3007 RMK AO2,M
BAM,2022-07-17 01:55,-116.8743,40.5990,1382.36,M,M,M,170.00,9.00,0.00,30.01,M,10.00,M,CLR,M,M,M,M,M,M,M,M,M,M,M,M,M,M,M,KBAM 170155Z AUTO 17009KT 10SM CLR A3001 RMK AO1,M
HTH,2022-07-17 01:55,-118.6315,38.5448,1282.89,93.20,44.60,18.80,320.00,5.00,0.00,30.00,M,10.00,M,CLR,M,M,M,M,M,M,M,M,M,M,M,M,M,M,89.34,KHTH 170155Z AUTO 32005KT 10SM CLR 34/07 A3000 RMK A01,M
TMT,2022-07-17 01:55,-117.1971,39.4643,1749.34,87.00,46.20,24.20,350.00,11.00,0.00,30.14,M,10.00,21.00,SCT,M,M,M,12000.00,M,M,M,M,M,M,M,M,M,M,84.08,KTMT 170155Z AUTO 35011G21KT 10SM SCT120 31/08 A3014 RMK AO2 T03060079,M
LAS,2022-07-17 01:56,-115.1634,36.0719,663.00,99.00,58.00,25.74,230.00,8.00,0.00,29.82,1006.50,10.00,M,FEW,SCT,BKN,M,8000.00,11000.00,21000.00,M,M,M,M,M,M,M,M,98.49,KLAS 170156Z 23008KT 10SM FEW080 SCT110 BKN210 37/14 A2982 RMK AO2 SLP065 CB DSNT N AND S T03720144,M
WMC,2022-07-17 01:56,-117.8072,40.9019,1315.00,99.00,30.00,8.86,270.00,11.00,0.00,29.98,1009.40,10.00,M,FEW,M,M,M,11000.00,M,M,M,M,M,M,M,M,M,M,92.77,KWMC 170156Z AUTO 27011KT 10SM FEW110 37/M01 A2998 RMK AO2 SLP094 T03721011 TSNO,M
HND,2022-07-17 01:56,-115.1344,35.9729,742.79,M,M,M,M,M,0.00,M,M,M,M,M,M,M,M,M,M,M,M,M,M,M,M,M,M,M,M,KHND 170156Z RMK AO2 SLPNO $,M
EKO,2022-07-17 01:56,-115.7860,40.8242,1367.00,94.00,37.00,13.71,0.00,0.00,0.00,30.05,1010.70,10.00,M,CLR,M,M,M,M,M,M,M,M,M,M,M,M,M,M,89.44,KEKO 170156Z AUTO 00000KT 10SM CLR 34/03 A3005 RMK AO2 SLP107 T03440028,M
NFL,2022-07-17 01:56,-118.7010,39.4166,1199.00,93.00,44.00,18.56,120.00,15.00,0.00,29.97,1012.00,10.00,20.00,CLR,M,M,M,M,M,M,M,M,M,M,M,33.00,140.00,2022-07-17 01:12,89.11,KNFL 170156Z AUTO 12015G20KT 10SM CLR 34/07 A2997 RMK AO2 PK WND 14033/0112 SLP120 T03390067,M
TPH,2022-07-17 01:56,-117.0904,38.0505,1654.00,93.00,44.00,18.56,140.00,19.00,0.00,30.09,1009.60,10.00,27.00,CLR,M,M,M,M,M,M,M,VCTS,M,M,M,27.00,130.00,2022-07-17 01:28,89.11,KTPH 170156Z AUTO 14019G27KT 10SM VCTS CLR 34/07 A3009 RMK AO2 PK WND 13027/0128 WSHFT 0104 SLP096 T03390067,M
LSV,2022-07-17 01:58,-115.0343,36.2362,570.00,103.00,54.00,19.87,220.00,4.00,0.00,29.78,1005.40,10.00,M,CLR,M,M,M,M,M,M,M,M,M,M,M,M,M,M,101.27,KLSV 170158Z 22004KT 10SM CLR 39/12 A2978 RMK AO2A SLP054 T03940122 $,M
INS,2022-07-17 01:58,-115.6733,36.5872,955.00,100.80,44.60,14.90,220.00,15.00,0.00,29.89,1006.40,10.00,M,FEW,M,M,M,22000.00,M,M,M,M,M,M,M,31.00,200.00,2022-07-17 01:02,96.71,KINS 170158Z AUTO 22015KT 10SM FEW220 38/07 A2989 RMK AO2 PK WND 20031/02 SLP064 T03820070 $,M
TPH,2022-07-17 02:04,-117.0904,38.0505,1654.00,92.00,45.00,19.88,140.00,17.00,0.00,30.10,M,10.00,26.00,FEW,SCT,M,M,6000.00,11000.00,M,M,M,M,M,M,26.00,140.00,2022-07-17 01:58,88.17,KTPH 170204Z AUTO 14017G26KT 10SM FEW060 SCT110 33/07 A3010 RMK AO2 PK WND 14026/0158 T03330072,M
05U,2022-07-17 02:15,-116.0051,39.6042,1811.23,87.80,44.60,22.27,0.00,0.00,0.00,30.17,M,10.00,M,CLR,M,M,M,M,M,M,M,M,M,M,M,M,M,M,84.53,K05U 170215Z AUTO 00000KT 10SM CLR 31/07 A3017 RMK A01,M
CXP,2022-07-17 02:15,-119.7326,39.1923,1431.00,89.60,41.00,18.33,270.00,8.00,0.00,30.09,M,10.00,18.00,CLR,M,M,M,M,M,M,M,M,M,M,M,M,M,M,85.82,KCXP 170215Z AUTO 27008G18KT 10SM CLR 32/05 A3009 RMK AO2,M
BVU,2022-07-17 02:15,-114.8611,35.9475,671.00,M,M,M,M,M,0.00,M,M,M,M,M,M,M,M,M,M,M,M,M,M,M,M,M,M,M,M,KBVU 170215Z AUTO RMK AO2 PNO PWINO TSNO,M
RTS,2022-07-17 02:15,-119.8764,39.6682,1539.00,87.80,33.80,14.61,250.00,9.00,0.00,30.13,M,10.00,16.00,CLR,M,M,M,M,M,M,M,M,M,M,M,M,M,M,84.10,KRTS 170215Z AUTO 25009G16KT 10SM CLR 31/01 A3013 RMK AO2,M
BAM,2022-07-17 02:15,-116.8743,40.5990,1382.36,M,M,M,170.00,11.00,0.00,30.02,M,10.00,14.00,CLR,M,M,M,M,M,M,M,M,M,M,M,M,M,M,M,KBAM 170215Z AUTO 17011G14KT 10SM CLR A3002 RMK AO1,M
MEV,2022-07-17 02:15,-119.7500,38.9963,1441.42,89.60,41.00,18.33,280.00,10.00,0.00,30.07,M,10.00,17.00,CLR,M,M,M,M,M,M,M,M,M,M,M,M,M,M,85.82,KMEV 170215Z AUTO 28010G17KT 10SM CLR 32/05 A3007 RMK AO2,M
HTH,2022-07-17 02:15,-118.6315,38.5448,1282.89,93.20,46.40,20.13,200.00,7.00,0.00,30.01,M,10.00,M,CLR,M,M,M,M,M,M,M,M,M,M,M,M,M,M,89.55,KHTH 170215Z AUTO 20007KT 10SM CLR 34/08 A3001 RMK A01,M
TMT,2022-07-17 02:15,-117.1971,39.4643,1749.34,84.20,46.80,27.16,340.00,12.00,0.00,30.15,M,10.00,15.00,CLR,M,M,M,M,M,M,M,M,M,M,M,M,M,M,81.90,KTMT 170215Z AUTO 34012G15KT 10SM CLR 29/08 A3015 RMK AO2 T02900082,M
TPH,2022-07-17 02:28,-117.0904,38.0505,1654.00,90.00,46.00,21.91,290.00,16.00,0.00,30.11,M,10.00,26.00,BKN,M,M,M,11000.00,M,M,M,M,M,M,M,26.00,180.00,2022-07-17 02:21,86.55,KTPH 170228Z AUTO 29016G26KT 260V320 10SM BKN110 32/08 A3011 RMK AO2 PK WND 18026/0221 WSHFT 0214 LTG DSNT E T03220078,M
CXP,2022-07-17 02:30,-119.7326,39.1923,1431.00,89.60,41.00,18.33,M,5.00,0.00,30.09,M,10.00,13.00,CLR,M,M,M,M,M,M,M,M,M,M,M,M,M,M,85.82,KCXP 170230Z AUTO VRB05G13KT 10SM CLR 32/05 A3009 RMK AO2,M
RTS,2022-07-17 02:35,-119.8764,39.6682,1539.00,86.00,33.80,15.48,280.00,9.00,0.00,30.13,M,10.00,17.00,CLR,M,M,M,M,M,M,M,M,M,M,M,M,M,M,82.66,KRTS 170235Z AUTO 28009G17KT 10SM CLR 30/01 A3013 RMK AO2,M
TMT,2022-07-17 02:35,-117.1971,39.4643,1749.34,83.30,44.00,25.05,360.00,9.00,0.00,30.15,M,10.00,M,CLR,M,M,M,M,M,M,M,M,M,M,M,M,M,M,81.05,KTMT 170235Z AUTO 36009KT 10SM CLR 29/07 A3015 RMK AO2 T02850066,M
BVU,2022-07-17 02:35,-114.8611,35.9475,671.00,M,M,M,M,M,0.00,M,M,M,M,M,M,M,M,M,M,M,M,M,M,M,M,M,M,M,M,KBVU 170235Z AUTO RMK AO2 PNO PWINO TSNO,M
05U,2022-07-17 02:35,-116.0051,39.6042,1811.23,87.80,41.00,19.40,0.00,0.00,0.00,30.17,M,10.00,M,CLR,M,M,M,M,M,M,M,M,M,M,M,M,M,M,84.30,K05U 170235Z AUTO 00000KT 10SM CLR 31/05 A3017 RMK A01,M
MEV,2022-07-17 02:35,-119.7500,38.9963,1441.42,87.80,41.00,19.40,290.00,11.00,0.00,30.08,M,10.00,M,CLR,M,M,M,M,M,M,M,M,M,M,M,M,M,M,84.30,KMEV 170235Z AUTO 29011KT 10SM CLR 31/05 A3008 RMK AO2,M
BAM,2022-07-17 02:35,-116.8743,40.5990,1382.36,M,M,M,180.00,8.00,0.00,30.01,M,10.00,M,CLR,M,M,M,M,M,M,M,M,M,M,M,M,M,M,M,KBAM 170235Z AUTO 18008KT 10SM CLR A3001 RMK AO1,M
HTH,2022-07-17 02:35,-118.6315,38.5448,1282.89,93.20,46.40,20.13,130.00,9.00,0.00,30.01,M,10.00,M,CLR,M,M,M,M,M,M,M,M,M,M,M,M,M,M,89.55,KHTH 170235Z AUTO 13009KT 10SM CLR 34/08 A3001 RMK A01,M
TPH,2022-07-17 02:39,-117.0904,38.0505,1654.00,89.00,44.00,20.97,300.00,11.00,0.00,30.11,M,10.00,M,OVC,M,M,M,11000.00,M,M,M,M,M,M,M,26.00,180.00,2022-07-17 02:21,85.59,KTPH 170239Z AUTO 30011KT 10SM OVC110 32/07 A3011 RMK AO2 PK WND 18026/0221 WSHFT 0219 LTG DSNT E T03170067,M
LOL,2022-07-17 02:53,-118.5701,40.0684,1192.43,97.00,34.00,11.06,270.00,12.00,0.00,29.96,1009.00,10.00,M,CLR,M,M,M,M,M,M,M,M,M,M,M,M,M,M,91.64,KLOL 170253Z AUTO 27012KT 10SM CLR 36/01 A2996 RMK AO2 SLP090 T03610011 53000,M
VGT,2022-07-17 02:53,-115.1933,36.2111,667.00,103.00,52.00,18.47,130.00,5.00,0.00,29.81,1007.50,10.00,M,CLR,M,M,M,M,M,M,M,M,M,M,M,M,M,M,100.60,KVGT 170253Z 13005KT 10SM CLR 39/11 A2981 RMK AO2 SLP075 T03940111 55006,M
DRA,2022-07-17 02:53,-116.0278,36.6206,1009.00,100.00,48.00,17.36,190.00,10.00,0.00,29.90,1006.10,10.00,M,CLR,M,M,M,M,M,M,M,M,M,M,M,M,M,M,96.55,KDRA 170253Z AUTO 19010KT 10SM CLR 38/09 A2990 RMK AO2 SLP061 T03780089 56005,M
ELY,2022-07-17 02:53,-114.8453,39.2950,1909.00,85.00,38.00,18.86,90.00,4.00,0.00,30.18,1009.90,10.00,M,CLR,M,M,M,M,M,M,M,M,M,M,M,M,M,M,81.91,KELY 170253Z AUTO 09004KT 10SM CLR 29/03 A3018 RMK AO2 SLP099 T02940033 55003,M
P68,2022-07-17 02:53,-116.0056,39.6014,1993.00,85.00,42.00,22.20,0.00,0.00,0.00,30.14,1011.00,M,M,M,M,M,M,M,M,M,M,M,M,M,M,M,M,M,82.08,KP68 170253Z AUTO 00000KT 29/06 A3014 RMK AO1 SLP110 T02940056 55007,M
HTH,2022-07-17 02:55,-118.6315,38.5448,1282.89,91.40,48.20,22.78,150.00,10.00,0.00,30.01,M,10.00,M,CLR,M,M,M,M,M,M,M,M,M,M,M,M,M,M,88.09,KHTH 170255Z AUTO 15010KT 10SM CLR 33/09 A3001 RMK A01,M
TMT,2022-07-17 02:55,-117.1971,39.4643,1749.34,M,M,M,350.00,8.00,0.00,30.16,M,10.00,M,CLR,M,M,M,M,M,M,M,M,M,M,M,M,M,M,M,KTMT 170255Z AUTO 35008KT 10SM CLR A3016 RMK AO2,M
RNO,2022-07-17 02:55,-119.7711,39.4839,1341.00,90.00,41.00,18.10,270.00,12.00,0.00,30.04,1010.60,10.00,21.00,FEW,FEW,SCT,M,10000.00,14000.00,18000.00,M,M,M,M,M,M,M,M,86.16,KRNO 170255Z 27012G21KT 10SM FEW100 FEW140 SCT180 32/05 A3004 RMK AO2 SLP106 CB DSNT NE THRU E T03220050 53003,M
BVU,2022-07-17 02:55,-114.8611,35.9475,671.00,M,M,M,M,M,0.00,M,M,M,M,M,M,M,M,M,M,M,M,M,M,M,M,M,M,M,M,KBVU 170255Z AUTO RMK AO2 PNO PWINO TSNO,M
RTS,2022-07-17 02:55,-119.8764,39.6682,1539.00,86.00,32.00,14.40,270.00,14.00,0.00,30.13,M,10.00,M,CLR,M,M,M,M,M,M,M,M,M,M,M,M,M,M,82.64,KRTS 170255Z AUTO 27014KT 10SM CLR 30/M00 A3013 RMK AO2,M
05U,2022-07-17 02:55,-116.0051,39.6042,1811.23,86.00,42.80,22.02,0.00,0.00,0.00,30.17,M,10.00,M,CLR,M,M,M,M,M,M,M,M,M,M,M,M,M,M,82.95,K05U 170255Z AUTO 00000KT 10SM CLR 30/06 A3017 RMK A01,M
MEV,2022-07-17 02:55,-119.7500,38.9963,1441.42,84.20,42.80,23.33,280.00,9.00,0.00,30.08,M,10.00,M,CLR,M,M,M,M,M,M,M,M,M,M,M,M,M,M,81.61,KMEV 170255Z AUTO 28009KT 10SM CLR 29/06 A3008 RMK AO2,M
CXP,2022-07-17 02:55,-119.7326,39.1923,1431.00,87.80,39.20,18.09,280.00,7.00,0.00,30.09,M,10.00,M,CLR,M,M,M,M,M,M,M,M,M,M,M,M,M,M,84.22,KCXP 170255Z AUTO 28007KT 10SM CLR 31/04 A3009 RMK AO2,M
BAM,2022-07-17 02:55,-116.8743,40.5990,1382.36,M,M,M,190.00,8.00,0.00,30.02,M,10.00,M,CLR,M,M,M,M,M,M,M,M,M,M,M,M,M,M,M,KBAM 170255Z AUTO 19008KT 10SM CLR A3002 RMK AO1,M
TPH,2022-07-17 02:56,-117.0904,38.0505,1654.00,88.00,43.00,20.82,270.00,28.00,0.00,30.10,1009.90,5.00,50.00,BKN,M,M,M,11000.00,M,M,M,HZ,M,M,M,50.00,260.00,2022-07-17 02:54,84.58,KTPH 170256Z AUTO 27028G50KT 5SM HZ BKN110 31/06 A3010 RMK AO2 PK WND 26050/0254 WSHFT 0219 LTG DSNT E AND W SLP099 T03110061 52005,M
LAS,2022-07-17 02:56,-115.1634,36.0719,663.00,98.00,58.00,26.46,220.00,6.00,0.00,29.83,1006.70,10.00,M,FEW,SCT,BKN,M,8000.00,14000.00,23000.00,M,M,M,M,M,M,M,M,97.49,KLAS 170256Z 22006KT 10SM FEW080 SCT140 BKN230 37/14 A2983 RMK AO2 SLP067 CB DSNT N AND SW T03670144 55009,M
NFL,2022-07-17 02:56,-118.7010,39.4166,1199.00,96.00,41.00,14.97,310.00,8.00,0.00,29.95,1011.50,10.00,M,FEW,SCT,M,M,7000.00,9500.00,M,M,M,M,M,M,M,M,M,91.73,KNFL 170256Z AUTO 31008KT 10SM FEW070 SCT095 36/05 A2995 RMK AO2 SLP115 T03560050 58002,M
HND,2022-07-17 02:56,-115.1344,35.9729,742.79,M,M,M,M,M,0.00,M,M,M,M,M,M,M,M,M,M,M,M,M,M,M,M,M,M,M,M,KHND 170256Z RMK AO2 SLPNO 6//// PWINO FZRANO $,M
WMC,2022-07-17 02:56,-117.8072,40.9019,1315.00,93.00,35.00,13.07,280.00,6.00,0.00,29.99,1009.20,10.00,M,CLR,M,M,M,M,M,M,M,M,M,M,M,M,M,M,88.56,KWMC 170256Z AUTO 28006KT 10SM CLR 34/02 A2999 RMK AO2 SLP092 T03390017 55003 TSNO,M
EKO,2022-07-17 02:56,-115.7860,40.8242,1367.00,91.00,38.00,15.54,0.00,0.00,0.00,30.06,1010.50,10.00,M,CLR,M,M,M,M,M,M,M,M,M,M,M,M,M,M,86.90,KEKO 170256Z AUTO 00000KT 10SM CLR 33/03 A3006 RMK AO2 SLP105 T03280033 55003,M
INS,2022-07-17 02:58,-115.6733,36.5872,955.00,98.80,43.00,14.89,200.00,10.00,0.00,29.89,1006.20,10.00,M,SCT,M,M,M,19000.00,M,M,M,M,M,M,M,M,M,M,94.52,KINS 170258Z AUTO 20010KT 10SM SCT190 37/06 A2989 RMK AO2 SLP062 T03710061 56004 $,M
LSV,2022-07-17 02:58,-115.0343,36.2362,570.00,101.70,53.00,19.93,180.00,7.00,0.00,29.78,1005.30,10.00,M,CLR,M,M,M,M,M,M,M,M,M,M,M,M,M,M,99.67,KLSV 170258Z AUTO 18007KT 10SM CLR 39/12 A2978 RMK AO2 SLP053 T03870117 55000 $,M
TPH,2022-07-17 03:14,-117.0904,38.0505,1654.00,87.00,43.00,21.42,330.00,14.00,0.00,30.11,M,10.00,22.00,BKN,M,M,M,12000.00,M,M,M,VCTS,M,M,M,46.00,310.00,2022-07-17 02:59,83.84,KTPH 170314Z AUTO 33014G22KT 10SM VCTS BKN120 31/06 A3011 RMK AO2 PK WND 31046/0259 LTG DSNT W T03060061,M
05U,2022-07-17 03:15,-116.0051,39.6042,1811.23,80.60,44.60,28.08,0.00,0.00,0.00,30.17,M,10.00,M,CLR,M,M,M,M,M,M,M,M,M,M,M,M,M,M,79.42,K05U 170315Z AUTO 00000KT 10SM CLR 27/07 A3017 RMK A01,M
RTS,2022-07-17 03:15,-119.8764,39.6682,1539.00,82.40,30.20,15.03,260.00,11.00,0.00,30.13,M,10.00,M,CLR,M,M,M,M,M,M,M,M,M,M,M,M,M,M,79.97,KRTS 170315Z AUTO 26011KT 10SM CLR 28/M01 A3013 RMK AO2,M
CXP,2022-07-17 03:15,-119.7326,39.1923,1431.00,86.00,39.20,19.15,M,3.00,0.00,30.09,M,10.00,M,CLR,M,M,M,M,M,M,M,M,M,M,M,M,M,M,82.79,KCXP 170315Z AUTO VRB03KT 10SM CLR 30/04 A3009 RMK AO2,M
BVU,2022-07-17 03:15,-114.8611,35.9475,671.00,M,M,M,M,M,0.00,M,M,M,M,M,M,M,M,M,M,M,M,M,M,M,M,M,M,M,M,KBVU 170315Z AUTO RMK AO2 PNO PWINO TSNO,M
BAM,2022-07-17 03:15,-116.8743,40.5990,1382.36,M,M,M,220.00,4.00,0.00,30.02,M,10.00,M,CLR,M,M,M,M,M,M,M,M,M,M,M,M,M,M,M,KBAM 170315Z AUTO 22004KT 10SM CLR A3002 RMK AO1,M
HTH,2022-07-17 03:15,-118.6315,38.5448,1282.89,91.40,44.60,19.89,180.00,11.00,0.00,30.02,M,10.00,M,CLR,M,M,M,M,M,M,M,M,M,M,M,M,M,M,87.68,KHTH 170315Z AUTO 18011KT 10SM CLR 33/07 A3002 RMK A01,M
TMT,2022-07-17 03:15,-117.1971,39.4643,1749.34,M,M,M,360.00,5.00,0.00,30.17,M,10.00,M,CLR,M,M,M,M,M,M,M,M,M,M,M,M,M,M,M,KTMT 170315Z AUTO 36005KT 10SM CLR A3017 RMK AO2,M
MEV,2022-07-17 03:15,-119.7500,38.9963,1441.42,82.40,42.80,24.72,260.00,8.00,0.00,30.09,M,10.00,15.00,CLR,M,M,M,M,M,M,M,M,M,M,M,M,M,M,80.39,KMEV 170315Z AUTO 26008G15KT 10SM CLR 28/06 A3009 RMK AO2,M
TPH,2022-07-17 03:29,-117.0904,38.0505,1654.00,85.00,45.00,24.81,340.00,12.00,0.00,30.12,M,10.00,20.00,FEW,M,M,M,12000.00,M,M,M,M,M,M,M,46.00,310.00,2022-07-17 02:59,82.27,KTPH 170329Z AUTO 34012G20KT 10SM FEW120 29/07 A3012 RMK AO2 PK WND 31046/0259 LTG DSNT W T02940072,M
CXP,2022-07-17 03:30,-119.7326,39.1923,1431.00,86.00,39.20,19.15,290.00,6.00,0.00,30.10,M,10.00,12.00,CLR,M,M,M,M,M,M,M,M,M,M,M,M,M,M,82.79,KCXP 170330Z AUTO 29006G12KT 10SM CLR 30/04 A3010 RMK AO2,M
MEV,2022-07-17 03:35,-119.7500,38.9963,1441.42,80.60,42.80,26.22,M,6.00,0.00,30.09,M,10.00,12.00,CLR,M,M,M,M,M,M,M,M,M,M,M,M,M,M,79.30,KMEV 170335Z AUTO VRB06G12KT 10SM CLR 27/06 A3009 RMK AO2,M
05U,2022-07-17 03:35,-116.0051,39.6042,1811.23,78.80,44.60,29.79,0.00,0.00,0.00,30.17,M,10.00,M,CLR,M,M,M,M,M,M,M,M,M,M,M,M,M,M,78.80,K05U 170335Z AUTO 00000KT 10SM CLR 26/07 A3017 RMK A01,M
TMT,2022-07-17 03:35,-117.1971,39.4643,1749.34,M,M,M,0.00,0.00,0.00,30.18,M,10.00,M,CLR,M,M,M,M,M,M,M,M,M,M,M,M,M,M,M,KTMT 170335Z AUTO 00000KT 10SM CLR A3018 RMK AO2,M
BAM,2022-07-17 03:35,-116.8743,40.5990,1382.36,M,M,M,0.00,0.00,0.00,30.02,M,10.00,M,CLR,M,M,M,M,M,M,M,M,M,M,M,M,M,M,M,KBAM 170335Z AUTO 00000KT 10SM CLR A3002 RMK AO1,M
HTH,2022-07-17 03:35,-118.6315,38.5448,1282.89,91.40,44.60,19.89,270.00,12.00,0.00,30.02,M,10.00,M,CLR,M,M,M,M,M,M,M,M,M,M,M,M,M,M,87.68,KHTH 170335Z AUTO 27012KT 10SM CLR 33/07 A3002 RMK A01,M
BVU,2022-07-17 03:35,-114.8611,35.9475,671.00,M,M,M,M,M,0.00,M,M,M,M,M,M,M,M,M,M,M,M,M,M,M,M,M,M,M,M,KBVU 170335Z AUTO RMK AO2 PNO PWINO TSNO,M
RTS,2022-07-17 03:35,-119.8764,39.6682,1539.00,80.60,28.40,14.81,270.00,11.00,0.00,30.14,M,10.00,M,CLR,M,M,M,M,M,M,M,M,M,M,M,M,M,M,78.72,KRTS 170335Z AUTO 27011KT 10SM CLR 27/M02 A3014 RMK AO2,M
ELY,2022-07-17 03:53,-114.8453,39.2950,1909.00,74.00,45.00,35.60,160.00,5.00,0.00,30.20,1011.20,10.00,M,CLR,M,M,M,M,M,M,M,M,M,M,M,M,M,M,73.90,KELY 170353Z AUTO 16005KT 10SM CLR 23/07 A3020 RMK AO2 SLP112 T02330072,M
VGT,2022-07-17 03:53,-115.1933,36.2111,667.00,100.00,54.00,21.68,190.00,7.00,0.00,29.82,1007.90,10.00,M,CLR,M,M,M,M,M,M,M,M,M,M,M,M,M,M,98.14,KVGT 170353Z 19007KT 10SM CLR 38/12 A2982 RMK AO2 SLP079 T03780122,M
DRA,2022-07-17 03:53,-116.0278,36.6206,1009.00,97.00,47.00,18.25,180.00,6.00,0.00,29.91,1006.70,10.00,M,CLR,M,M,M,M,M,M,M,M,M,M,M,M,M,M,93.33,KDRA 170353Z AUTO 18006KT 10SM CLR 36/08 A2991 RMK AO2 SLP067 T03610083,M
P68,2022-07-17 03:53,-116.0056,39.6014,1993.00,74.00,44.00,34.40,160.00,3.00,0.00,30.16,1012.00,M,M,M,M,M,M,M,M,M,M,M,M,M,M,M,M,M,73.90,KP68 170353Z AUTO 16003KT 23/07 A3016 RMK AO1 SLP120 T02330067,M
LOL,2022-07-17 03:53,-118.5701,40.0684,1192.43,92.00,36.00,14.02,270.00,7.00,0.00,29.97,1009.50,10.00,M,CLR,M,M,M,M,M,M,M,M,M,M,M,M,M,M,87.62,KLOL 170353Z AUTO 27007KT 10SM CLR 33/02 A2997 RMK AO2 SLP095 T03330022,M
CXP,2022-07-17 03:55,-119.7326,39.1923,1431.00,84.20,39.20,20.29,M,4.00,0.00,30.10,M,10.00,M,CLR,M,M,M,M,M,M,M,M,M,M,M,M,M,M,81.44,KCXP 170355Z AUTO VRB04KT 10SM CLR 29/04 A3010 RMK AO2,M
TMT,2022-07-17 03:55,-117.1971,39.4643,1749.34,M,M,M,350.00,3.00,0.00,30.18,M,10.00,M,CLR,M,M,M,M,M,M,M,M,M,M,M,M,M,M,M,KTMT 170355Z AUTO 35003KT 10SM CLR A3018 RMK AO2,M
HTH,2022-07-17 03:55,-118.6315,38.5448,1282.89,91.40,42.80,18.56,270.00,16.00,0.00,30.01,M,10.00,21.00,CLR,M,M,M,M,M,M,M,M,M,M,M,M,M,M,87.52,KHTH 170355Z AUTO 27016G21KT 10SM CLR 33/06 A3001 RMK A01,M
BAM,2022-07-17 03:55,-116.8743,40.5990,1382.36,M,M,M,0.00,0.00,0.00,30.03,M,10.00,M,CLR,M,M,M,M,M,M,M,M,M,M,M,M,M,M,M,KBAM 170355Z AUTO 00000KT 10SM CLR A3003 RMK AO1,M
MEV,2022-07-17 03:55,-119.7500,38.9963,1441.42,78.80,42.80,27.81,0.00,0.00,0.00,30.10,M,10.00,M,CLR,M,M,M,M,M,M,M,M,M,M,M,M,M,M,78.80,KMEV 170355Z AUTO 00000KT 10SM CLR 26/06 A3010 RMK AO2,M
05U,2022-07-17 03:55,-116.0051,39.6042,1811.23,73.40,42.80,33.29,0.00,0.00,0.00,30.18,M,10.00,M,CLR,M,M,M,M,M,M,M,M,M,M,M,M,M,M,73.40,K05U 170355Z AUTO 00000KT 10SM CLR 23/06 A3018 RMK A01,M
RTS,2022-07-17 03:55,-119.8764,39.6682,1539.00,78.80,30.20,16.90,290.00,7.00,0.00,30.14,M,10.00,M,CLR,M,M,M,M,M,M,M,M,M,M,M,M,M,M,78.80,KRTS 170355Z AUTO 29007KT 10SM CLR 26/M01 A3014 RMK AO2,M
BVU,2022-07-17 03:55,-114.8611,35.9475,671.00,M,M,M,M,M,0.00,M,M,M,M,M,M,M,M,M,M,M,M,M,M,M,M,M,M,M,M,KBVU 170355Z AUTO RMK AO2 PNO PWINO TSNO,M
RNO,2022-07-17 03:55,-119.7711,39.4839,1341.00,87.00,40.00,19.01,300.00,7.00,0.00,30.06,1011.10,10.00,M,FEW,FEW,SCT,M,11000.00,14000.00,18000.00,M,M,M,M,M,M,M,M,83.68,KRNO 170355Z 30007KT 10SM FEW110 FEW140 SCT180 31/04 A3006 RMK AO2 SLP111 VIRGA DSNT E T03060044,M
NFL,2022-07-17 03:56,-118.7010,39.4166,1199.00,92.00,44.00,19.21,280.00,8.00,0.00,29.97,1012.00,10.00,M,CLR,M,M,M,M,M,M,M,M,M,M,M,M,M,M,88.09,KNFL 170356Z AUTO 28008KT 10SM CLR 33/07 A2997 RMK AO2 SLP120 T03330067,M
HND,2022-07-17 03:56,-115.1344,35.9729,742.79,M,M,M,M,M,0.00,M,M,M,M,M,M,M,M,M,M,M,M,M,M,M,M,M,M,M,M,KHND 170356Z AUTO RMK AO2 SLPNO PWINO FZRANO $,M
TPH,2022-07-17 03:56,-117.0904,38.0505,1654.00,83.00,50.00,31.93,330.00,11.00,0.00,30.13,1011.00,10.00,20.00,CLR,M,M,M,M,M,M,M,M,M,M,M,46.00,310.00,2022-07-17 02:59,81.32,KTPH 170356Z AUTO 33011G20KT 10SM CLR 28/10 A3013 RMK AO2 PK WND 31046/0259 LTG DSNT W SLP110 T02830100,M
LAS,2022-07-17 03:56,-115.1634,36.0719,663.00,97.00,54.00,23.75,220.00,4.00,0.00,29.83,1006.80,10.00,M,FEW,SCT,BKN,M,8000.00,14000.00,23000.00,M,M,M,M,M,M,M,M,94.92,KLAS 170356Z 22004KT 10SM FEW080 SCT140 BKN230 36/12 A2983 RMK AO2 SLP068 T03610122,M
EKO,2022-07-17 03:56,-115.7860,40.8242,1367.00,84.00,41.00,21.90,230.00,4.00,0.00,30.07,1011.30,10.00,M,CLR,M,M,M,M,M,M,M,M,M,M,M,M,M,M,81.37,KEKO 170356Z AUTO 23004KT 10SM CLR 29/05 A3007 RMK AO2 SLP113 T02890050,M
WMC,2022-07-17 03:56,-117.8072,40.9019,1315.00,86.00,37.00,17.57,210.00,3.00,0.00,30.00,1009.60,10.00,M,CLR,M,M,M,M,M,M,M,M,M,M,M,M,M,M,82.72,KWMC 170356Z AUTO 21003KT 10SM CLR 30/03 A3000 RMK AO2 SLP096 T03000028 TSNO,M
LSV,2022-07-17 03:58,-115.0343,36.2362,570.00,100.80,56.00,22.85,190.00,9.00,0.00,29.79,1005.60,10.00,M,CLR,M,M,M,M,M,M,M,M,M,M,M,M,M,M,99.77,KLSV 170358Z AUTO 19009KT 10SM CLR 38/13 A2979 RMK AO2 SLP056 T03820134 $,M
INS,2022-07-17 03:58,-115.6733,36.5872,955.00,95.20,43.50,16.95,70.00,4.00,0.00,29.91,1006.90,10.00,M,CLR,M,M,M,M,M,M,M,M,M,M,M,M,M,M,91.12,KINS 170358Z AUTO 07004KT 10SM CLR 35/06 A2991 RMK AO2 SLP069 T03510064 $,M
TPH,2022-07-17 04:10,-117.0904,38.0505,1654.00,83.00,49.00,30.65,330.00,15.00,0.00,30.14,M,10.00,28.00,CLR,M,M,M,M,M,M,M,VCTS,M,M,M,28.00,320.00,2022-07-17 04:01,81.20,KTPH 170410Z AUTO 33015G28KT 10SM VCTS CLR 28/09 A3014 RMK AO2 PK WND 32028/0401 LTG DSNT W T02830094,M
BVU,2022-07-17 04:15,-114.8611,35.9475,671.00,M,M,M,M,M,0.00,M,M,M,M,M,M,M,M,M,M,M,M,M,M,M,M,M,M,M,M,KBVU 170415Z AUTO RMK AO2 PNO PWINO TSNO,M
CXP,2022-07-17 04:15,-119.7326,39.1923,1431.00,80.60,39.20,22.81,0.00,0.00,0.00,30.11,M,10.00,M,CLR,M,M,M,M,M,M,M,M,M,M,M,M,M,M,79.10,KCXP 170415Z AUTO 00000KT 10SM CLR 27/04 A3011 RMK AO2,M
RTS,2022-07-17 04:15,-119.8764,39.6682,1539.00,78.80,30.20,16.90,290.00,9.00,0.00,30.15,M,10.00,M,CLR,M,M,M,M,M,M,M,M,M,M,M,M,M,M,78.80,KRTS 170415Z AUTO 29009KT 10SM CLR 26/M01 A3015 RMK AO2,M
05U,2022-07-17 04:15,-116.0051,39.6042,1811.23,75.20,42.80,31.34,0.00,0.00,0.00,30.19,M,10.00,M,CLR,M,M,M,M,M,M,M,M,M,M,M,M,M,M,75.20,K05U 170415Z AUTO 00000KT 10SM CLR 24/06 A3019 RMK A01,M
MEV,2022-07-17 04:15,-119.7500,38.9963,1441.42,78.80,42.80,27.81,0.00,0.00,0.00,30.11,M,10.00,M,CLR,M,M,M,M,M,M,M,M,M,M,M,M,M,M,78.80,KMEV 170415Z AUTO 00000KT 10SM CLR 26/06 A3011 RMK AO2,M
BAM,2022-07-17 04:15,-116.8743,40.5990,1382.36,M,M,M,270.00,3.00,0.00,30.03,M,10.00,M,CLR,M,M,M,M,M,M,M,M,M,M,M,M,M,M,M,KBAM 170415Z AUTO 27003KT 10SM CLR A3003 RMK AO1,M
HTH,2022-07-17 04:15,-118.6315,38.5448,1282.89,91.40,42.80,18.56,290.00,11.00,0.00,30.02,M,10.00,17.00,CLR,M,M,M,M,M,M,M,M,M,M,M,M,M,M,87.52,KHTH 170415Z AUTO 29011G17KT 10SM CLR 33/06 A3002 RMK A01,M
TMT,2022-07-17 04:15,-117.1971,39.4643,1749.34,M,M,M,40.00,4.00,0.00,30.18,M,10.00,M,CLR,M,M,M,M,M,M,M,M,M,M,M,M,M,M,M,KTMT 170415Z AUTO 04004KT 10SM CLR A3018 RMK AO2,M
TPH,2022-07-17 04:25,-117.0904,38.0505,1654.00,82.00,48.00,30.51,320.00,16.00,0.00,30.15,M,10.00,23.00,SCT,M,M,M,11000.00,M,M,M,M,M,M,M,28.00,320.00,2022-07-17 04:01,80.53,KTPH 170425Z AUTO 32016G23KT 10SM SCT110 28/09 A3015 RMK AO2 PK WND 32028/0401 T02780089,M
05U,2022-07-17 04:30,-116.0051,39.6042,1811.23,71.60,42.80,35.37,0.00,0.00,0.00,30.19,M,10.00,M,CLR,M,M,M,M,M,M,M,M,M,M,M,M,M,M,71.60,K05U 170430Z AUTO 00000KT 10SM CLR 22/06 A3019 RMK A01,M
TMT,2022-07-17 04:35,-117.1971,39.4643,1749.34,67.60,44.00,42.30,170.00,6.00,0.00,30.19,M,10.00,M,CLR,M,M,M,M,M,M,M,M,M,M,M,M,M,M,67.60,KTMT 170435Z AUTO 17006KT 10SM CLR 20/07 A3019 RMK AO2 T01980066,M
RTS,2022-07-17 04:35,-119.8764,39.6682,1539.00,78.80,32.00,18.18,270.00,11.00,0.00,30.15,M,10.00,M,CLR,M,M,M,M,M,M,M,M,M,M,M,M,M,M,78.80,KRTS 170435Z AUTO 27011KT 10SM CLR 26/00 A3015 RMK AO2,M
CXP,2022-07-17 04:35,-119.7326,39.1923,1431.00,80.60,39.20,22.81,M,4.00,0.00,30.11,M,10.00,M,CLR,M,M,M,M,M,M,M,M,M,M,M,M,M,M,79.10,KCXP 170435Z AUTO VRB04KT 10SM CLR 27/04 A3011 RMK AO2,M
BVU,2022-07-17 04:35,-114.8611,35.9475,671.00,M,M,M,M,M,0.00,M,M,M,M,M,M,M,M,M,M,M,M,M,M,M,M,M,M,M,M,KBVU 170435Z AUTO RMK AO2 PNO PWINO TSNO,M
MEV,2022-07-17 04:35,-119.7500,38.9963,1441.42,77.00,42.80,29.51,0.00,0.00,0.00,30.11,M,10.00,M,CLR,M,M,M,M,M,M,M,M,M,M,M,M,M,M,77.00,KMEV 170435Z AUTO 00000KT 10SM CLR 25/06 A3011 RMK AO2,M
BAM,2022-07-17 04:35,-116.8743,40.5990,1382.36,M,M,M,0.00,0.00,0.00,30.04,M,10.00,M,CLR,M,M,M,M,M,M,M,M,M,M,M,M,M,M,M,KBAM 170435Z AUTO 00000KT 10SM CLR A3004 RMK AO1,M
HTH,2022-07-17 04:35,-118.6315,38.5448,1282.89,89.60,44.60,21.04,0.00,0.00,0.00,30.03,M,10.00,M,CLR,M,M,M,M,M,M,M,M,M,M,M,M,M,M,86.07,KHTH 170435Z AUTO 00000KT 10SM CLR 32/07 A3003 RMK A01,M
MEV,2022-07-17 04:50,-119.7500,38.9963,1441.42,78.80,41.00,25.95,190.00,3.00,0.00,30.11,M,10.00,M,CLR,M,M,M,M,M,M,M,M,M,M,M,M,M,M,78.80,KMEV 170450Z AUTO 19003KT 10SM CLR 26/05 A3011 RMK AO2,M
LOL,2022-07-17 04:53,-118.5701,40.0684,1192.43,91.00,35.00,13.91,300.00,9.00,0.00,29.99,1009.70,10.00,M,CLR,M,M,M,M,M,M,M,M,M,M,M,M,M,M,86.81,KLOL 170453Z AUTO 30009KT 10SM CLR 33/02 A2999 RMK AO2 SLP097 T03280017,M
ELY,2022-07-17 04:53,-114.8453,39.2950,1909.00,68.00,40.00,35.76,220.00,6.00,0.00,30.22,1012.10,10.00,M,CLR,M,M,M,M,M,M,M,M,M,M,M,M,M,M,68.00,KELY 170453Z AUTO 22006KT 10SM CLR 20/04 A3022 RMK AO2 SLP121 T02000044,M
DRA,2022-07-17 04:53,-116.0278,36.6206,1009.00,96.00,47.00,18.76,80.00,5.00,0.00,29.93,1007.10,10.00,M,CLR,M,M,M,M,M,M,M,M,M,M,M,M,M,M,92.44,KDRA 170453Z AUTO 08005KT 10SM CLR 36/08 A2993 RMK AO2 SLP071 T03560083,M
P68,2022-07-17 04:53,-116.0056,39.6014,1993.00,73.00,45.00,36.70,0.00,0.00,0.00,30.17,1012.20,M,M,M,M,M,M,M,M,M,M,M,M,M,M,M,M,M,73.00,KP68 170453Z AUTO 00000KT 23/07 A3017 RMK AO1 SLP122 T02280072,M
VGT,2022-07-17 04:53,-115.1933,36.2111,667.00,100.00,54.00,21.68,220.00,3.00,0.00,29.83,1008.20,10.00,M,CLR,M,M,M,M,M,M,M,M,M,M,M,M,M,M,98.14,KVGT 170453Z AUTO 22003KT 10SM CLR 38/12 A2983 RMK AO2 SLP082 T03780122,M
HTH,2022-07-17 04:55,-118.6315,38.5448,1282.89,87.80,46.40,23.85,230.00,7.00,0.00,30.03,M,10.00,M,CLR,M,M,M,M,M,M,M,M,M,M,M,M,M,M,84.68,KHTH 170455Z AUTO 23007KT 10SM CLR 31/08 A3003 RMK A01,M
BVU,2022-07-17 04:55,-114.8611,35.9475,671.00,M,M,M,M,M,0.00,M,M,M,M,M,M,M,M,M,M,M,M,M,M,M,M,M,M,M,M,KBVU 170455Z AUTO RMK AO2 PNO PWINO TSNO,M
RNO,2022-07-17 04:55,-119.7711,39.4839,1341.00,85.00,40.00,20.39,260.00,6.00,0.00,30.07,1011.50,10.00,M,FEW,FEW,M,M,14000.00,18000.00,M,M,M,M,M,M,M,M,M,81.98,KRNO 170455Z 26006KT 10SM FEW140 FEW180 29/04 A3007 RMK AO2 SLP115 T02940044,M
CXP,2022-07-17 04:55,-119.7326,39.1923,1431.00,80.60,39.20,22.81,0.00,0.00,0.00,30.11,M,10.00,M,CLR,M,M,M,M,M,M,M,M,M,M,M,M,M,M,79.10,KCXP 170455Z AUTO 00000KT 10SM CLR 27/04 A3011 RMK AO2,M
RTS,2022-07-17 04:55,-119.8764,39.6682,1539.00,78.80,33.80,19.55,260.00,11.00,0.00,30.15,M,10.00,M,CLR,M,M,M,M,M,M,M,M,M,M,M,M,M,M,78.80,KRTS 170455Z AUTO 26011KT 10SM CLR 26/01 A3015 RMK AO2,M
05U,2022-07-17 04:55,-116.0051,39.6042,1811.23,71.60,46.40,40.57,0.00,0.00,0.00,30.20,M,10.00,M,CLR,M,M,M,M,M,M,M,M,M,M,M,M,M,M,71.60,K05U 170455Z AUTO 00000KT 10SM CLR 22/08 A3020 RMK A01,M
BAM,2022-07-17 04:55,-116.8743,40.5990,1382.36,M,M,M,0.00,0.00,0.00,30.05,M,10.00,M,CLR,M,M,M,M,M,M,M,M,M,M,M,M,M,M,M,KBAM 170455Z AUTO 00000KT 10SM CLR A3005 RMK AO1,M
TMT,2022-07-17 04:55,-117.1971,39.4643,1749.34,66.40,42.30,41.47,200.00,3.00,0.00,30.20,M,10.00,M,CLR,M,M,M,M,M,M,M,M,M,M,M,M,M,M,66.40,KTMT 170455Z AUTO 20003KT 10SM CLR 19/06 A3020 RMK AO2 LTG DSNT S T01910057,M
HND,2022-07-17 04:56,-115.1344,35.9729,742.79,M,M,M,M,M,0.00,M,M,M,M,M,M,M,M,M,M,M,M,M,M,M,M,M,M,M,M,KHND 170456Z AUTO RMK AO2 SLPNO PWINO FZRANO $,M
NFL,2022-07-17 04:56,-118.7010,39.4166,1199.00,90.00,42.00,18.88,270.00,9.00,0.00,30.00,1013.00,10.00,M,CLR,M,M,M,M,M,M,M,M,M,M,M,M,M,M,86.23,KNFL 170456Z AUTO 27009KT 10SM CLR 32/06 A3000 RMK AO2 SLP130 T03220056,M
WMC,2022-07-17 04:56,-117.8072,40.9019,1315.00,82.00,36.00,19.21,250.00,4.00,0.00,30.02,1010.40,10.00,M,FEW,M,M,M,4300.00,M,M,M,M,M,M,M,M,M,M,79.83,KWMC 170456Z AUTO 25004KT 10SM FEW043 28/02 A3002 RMK AO2 SLP104 T02780022 TSNO,M
LAS,2022-07-17 04:56,-115.1634,36.0719,663.00,95.00,56.00,27.06,200.00,5.00,0.00,29.85,1007.40,10.00,M,FEW,FEW,M,M,14000.00,25000.00,M,M,M,M,M,M,M,M,M,93.38,KLAS 170456Z 20005KT 10SM FEW140 FEW250 35/13 A2985 RMK AO2 SLP074 T03500133,M
TPH,2022-07-17 04:56,-117.0904,38.0505,1654.00,81.00,50.00,33.97,310.00,14.00,0.00,30.16,1011.70,10.00,21.00,BKN,M,M,M,11000.00,M,M,M,VCTS,M,M,M,28.00,320.00,2022-07-17 04:01,80.12,KTPH 170456Z AUTO 31014G21KT 10SM VCTS BKN110 27/10 A3016 RMK AO2 PK WND 32028/0401 SLP117 T02720100,M
EKO,2022-07-17 04:56,-115.7860,40.8242,1367.00,84.00,40.00,20.99,0.00,0.00,0.00,30.08,1011.30,10.00,M,CLR,M,M,M,M,M,M,M,M,M,M,M,M,M,M,81.33,KEKO 170456Z AUTO 00000KT 10SM CLR 29/04 A3008 RMK AO2 SLP113 T02890044,M
INS,2022-07-17 04:58,-115.6733,36.5872,955.00,93.60,43.70,17.94,0.00,0.00,0.00,29.92,1007.20,10.00,M,CLR,M,M,M,M,M,M,M,M,M,M,M,M,M,M,89.63,KINS 170458Z AUTO 00000KT 10SM CLR 34/07 A2992 RMK AO2 SLP072 T03420065 $,M
LSV,2022-07-17 04:58,-115.0343,36.2362,570.00,98.40,54.00,22.84,200.00,7.00,0.00,29.80,1005.80,10.00,M,CLR,M,M,M,M,M,M,M,M,M,M,M,M,M,M,96.45,KLSV 170458Z AUTO 20007KT 10SM CLR 37/12 A2980 RMK AO2 SLP058 T03690123 $,M
RTS,2022-07-17 05:15,-119.8764,39.6682,1539.00,77.00,33.80,20.74,270.00,10.00,0.00,30.15,M,10.00,M,CLR,M,M,M,M,M,M,M,M,M,M,M,M,M,M,77.00,KRTS 170515Z AUTO 27010KT 10SM CLR 25/01 A3015 RMK AO2,M
HTH,2022-07-17 05:15,-118.6315,38.5448,1282.89,86.00,46.40,25.26,0.00,0.00,0.00,30.03,M,10.00,M,CLR,M,M,M,M,M,M,M,M,M,M,M,M,M,M,83.22,KHTH 170515Z AUTO 00000KT 10SM CLR 30/08 A3003 RMK A01,M
BAM,2022-07-17 05:15,-116.8743,40.5990,1382.36,M,M,M,10.00,3.00,0.00,30.05,M,10.00,M,CLR,M,M,M,M,M,M,M,M,M,M,M,M,M,M,M,KBAM 170515Z AUTO 01003KT 10SM CLR A3005 RMK AO1,M
MEV,2022-07-17 05:15,-119.7500,38.9963,1441.42,69.80,44.60,40.29,150.00,5.00,0.00,30.11,M,10.00,M,CLR,M,M,M,M,M,M,M,M,M,M,M,M,M,M,69.80,KMEV 170515Z AUTO 15005KT 10SM CLR 21/07 A3011 RMK AO2,M
05U,2022-07-17 05:15,-116.0051,39.6042,1811.23,69.80,46.40,43.13,0.00,0.00,0.00,30.20,M,10.00,M,CLR,M,M,M,M,M,M,M,M,M,M,M,M,M,M,69.80,K05U 170515Z AUTO 00000KT 10SM CLR 21/08 A3020 RMK A01,M
TMT,2022-07-17 05:15,-117.1971,39.4643,1749.34,68.00,43.00,40.31,270.00,5.00,0.00,30.19,M,10.00,M,SCT,M,M,M,12000.00,M,M,M,M,M,M,M,M,M,M,68.00,KTMT 170515Z AUTO 27005KT 10SM SCT120 20/06 A3019 RMK AO2 T02000061,M
CXP,2022-07-17 05:15,-119.7326,39.1923,1431.00,78.80,39.20,24.19,0.00,0.00,0.00,30.12,M,10.00,M,CLR,M,M,M,M,M,M,M,M,M,M,M,M,M,M,78.80,KCXP 170515Z AUTO 00000KT 10SM CLR 26/04 A3012 RMK AO2,M
BVU,2022-07-17 05:15,-114.8611,35.9475,671.00,M,M,M,M,M,0.00,M,M,M,M,M,M,M,M,M,M,M,M,M,M,M,M,M,M,M,M,KBVU 170515Z AUTO RMK AO2 PNO PWINO TSNO,M
TPH,2022-07-17 05:16,-117.0904,38.0505,1654.00,83.00,47.00,28.43,30.00,9.00,0.00,30.17,M,10.00,M,BKN,M,M,M,11000.00,M,M,M,M,M,M,M,M,M,M,81.01,KTPH 170516Z AUTO 03009KT 10SM BKN110 28/08 A3017 RMK AO2 LTG DSNT NE T02830083,M
05U,2022-07-17 05:35,-116.0051,39.6042,1811.23,68.00,44.60,42.85,0.00,0.00,0.00,30.20,M,10.00,M,CLR,M,M,M,M,M,M,M,M,M,M,M,M,M,M,68.00,K05U 170535Z AUTO 00000KT 10SM CLR 20/07 A3020 RMK A01,M
BAM,2022-07-17 05:35,-116.8743,40.5990,1382.36,M,M,M,300.00,3.00,0.00,30.05,M,10.00,M,CLR,M,M,M,M,M,M,M,M,M,M,M,M,M,M,M,KBAM 170535Z AUTO 30003KT 10SM CLR A3005 RMK AO1,M
HTH,2022-07-17 05:35,-118.6315,38.5448,1282.89,86.00,44.60,23.59,170.00,5.00,0.00,30.04,M,10.00,M,CLR,M,M,M,M,M,M,M,M,M,M,M,M,M,M,83.07,KHTH 170535Z AUTO 17005KT 10SM CLR 30/07 A3004 RMK A01,M
BVU,2022-07-17 05:35,-114.8611,35.9475,671.00,M,M,M,M,M,0.00,M,M,M,M,M,M,M,M,M,M,M,M,M,M,M,M,M,M,M,M,KBVU 170535Z AUTO RMK AO2 PNO PWINO TSNO,M
CXP,2022-07-17 05:35,-119.7326,39.1923,1431.00,75.20,41.00,29.23,110.00,4.00,0.00,30.12,M,10.00,M,CLR,M,M,M,M,M,M,M,M,M,M,M,M,M,M,75.20,KCXP 170535Z AUTO 11004KT 10SM CLR 24/05 A3012 RMK AO2,M
TMT,2022-07-17 05:35,-117.1971,39.4643,1749.34,70.20,49.00,47.09,280.00,6.00,0.00,30.19,M,10.00,M,SCT,M,M,M,12000.00,M,M,M,-RA,M,M,M,M,M,M,70.20,KTMT 170535Z AUTO 28006KT 10SM -RA SCT120 21/10 A3019 RMK AO2 LTG DSNT S T02120095,M
MEV,2022-07-17 05:35,-119.7500,38.9963,1441.42,68.00,44.60,42.85,0.00,0.00,0.00,30.11,M,10.00,M,CLR,M,M,M,M,M,M,M,M,M,M,M,M,M,M,68.00,KMEV 170535Z AUTO 00000KT 10SM CLR 20/07 A3011 RMK AO2,M
RTS,2022-07-17 05:35,-119.8764,39.6682,1539.00,75.20,33.80,22.02,270.00,12.00,0.00,30.16,M,10.00,M,CLR,M,M,M,M,M,M,M,M,M,M,M,M,M,M,75.20,KRTS 170535Z AUTO 27012KT 10SM CLR 24/01 A3016 RMK AO2,M
LOL,2022-07-17 05:53,-118.5701,40.0684,1192.43,87.00,34.00,15.06,250.00,3.00,0.00,30.00,1010.20,10.00,M,CLR,M,M,M,M,M,M,M,M,M,M,M,M,M,M,83.53,KLOL 170553Z AUTO 25003KT 10SM CLR 31/01 A3000 RMK AO2 SLP102 T03060011 10394 20306 51012,M
ELY,2022-07-17 05:53,-114.8453,39.2950,1909.00,65.00,40.00,39.82,150.00,7.00,0.00,30.22,1011.80,10.00,M,CLR,M,M,M,M,M,M,M,M,M,M,M,M,M,M,64.90,KELY 170553Z AUTO 15007KT 10SM CLR 18/04 A3022 RMK AO2 SLP118 T01830044 10344 20183 50010,M
P68,2022-07-17 05:53,-116.0056,39.6014,1993.00,68.00,45.00,43.51,0.00,0.00,0.00,30.17,1012.30,M,M,M,M,M,M,M,M,M,M,M,M,M,M,M,M,M,68.00,KP68 170553Z AUTO 00000KT 20/07 A3017 RMK AO1 SLP123 T02000072 10333 20200 51009,M
DRA,2022-07-17 05:53,-116.0278,36.6206,1009.00,91.00,46.00,21.24,70.00,3.00,0.00,29.93,1007.20,10.00,M,CLR,M,M,M,M,M,M,M,M,M,M,M,M,M,M,87.45,KDRA 170553Z AUTO 07003KT 10SM CLR 33/08 A2993 RMK AO2 SLP072 T03280078 10417 20322 51010,M
VGT,2022-07-17 05:53,-115.1933,36.2111,667.00,96.00,55.00,25.32,140.00,4.00,0.00,29.84,1008.70,10.00,M,CLR,M,M,M,M,M,M,M,M,M,M,M,M,M,M,94.27,KVGT 170553Z AUTO 14004KT 10SM CLR 36/13 A2984 RMK AO2 SLP087 T03560128 10406 20356 53010,M
RNO,2022-07-17 05:55,-119.7711,39.4839,1341.00,83.00,41.00,22.70,0.00,0.00,0.00,30.08,1011.50,10.00,M,FEW,FEW,FEW,M,12000.00,14000.00,18000.00,M,M,M,M,M,M,M,M,80.62,KRNO 170555Z 00000KT 10SM FEW120 FEW140 FEW180 28/05 A3008 RMK AO2 SLP115 T02830050 10372 20283 51012,M
CXP,2022-07-17 05:55,-119.7326,39.1923,1431.00,77.00,41.00,27.53,90.00,5.00,0.00,30.11,M,10.00,M,CLR,M,M,M,M,M,M,M,M,M,M,M,M,M,M,77.00,KCXP 170555Z AUTO 09005KT 10SM CLR 25/05 A3011 RMK AO2,M
MEV,2022-07-17 05:55,-119.7500,38.9963,1441.42,64.40,44.60,48.55,110.00,6.00,0.00,30.11,M,10.00,M,CLR,M,M,M,M,M,M,M,M,M,M,M,M,M,M,64.40,KMEV 170555Z AUTO 11006KT 10SM CLR 18/07 A3011 RMK AO2,M
TMT,2022-07-17 05:55,-117.1971,39.4643,1749.34,72.00,46.40,39.89,230.00,8.00,0.00,30.19,M,10.00,M,BKN,M,M,M,12000.00,M,M,M,M,M,M,M,M,M,M,72.10,KTMT 170555Z AUTO 23008KT 10SM BKN120 22/08 A3019 RMK AO2 T02230080,M
HTH,2022-07-17 05:55,-118.6315,38.5448,1282.89,82.40,44.60,26.49,140.00,6.00,0.00,30.04,M,10.00,M,CLR,M,M,M,M,M,M,M,M,M,M,M,M,M,M,80.50,KHTH 170555Z AUTO 14006KT 10SM CLR 28/07 A3004 RMK A01,M
BAM,2022-07-17 05:55,-116.8743,40.5990,1382.36,M,M,M,320.00,4.00,0.00,30.05,M,10.00,M,CLR,M,M,M,M,M,M,M,M,M,M,M,M,M,M,M,KBAM 170555Z AUTO 32004KT 10SM CLR A3005 RMK AO1,M
05U,2022-07-17 05:55,-116.0051,39.6042,1811.23,69.80,44.60,40.29,0.00,0.00,0.00,30.20,M,10.00,M,CLR,M,M,M,M,M,M,M,M,M,M,M,M,M,M,69.80,K05U 170555Z AUTO 00000KT 10SM CLR 21/07 A3020 RMK A01,M
BVU,2022-07-17 05:55,-114.8611,35.9475,671.00,M,M,M,M,M,0.00,M,M,M,M,M,M,M,M,M,M,M,M,M,M,M,M,M,M,M,M,KBVU 170555Z AUTO RMK AO2 PNO PWINO TSNO,M
RTS,2022-07-17 05:55,-119.8764,39.6682,1539.00,78.80,35.60,21.00,260.00,9.00,0.00,30.15,M,10.00,16.00,CLR,M,M,M,M,M,M,M,M,M,M,M,M,M,M,78.80,KRTS 170555Z AUTO 26009G16KT 10SM CLR 26/02 A3015 RMK AO2,M
LAS,2022-07-17 05:56,-115.1634,36.0719,663.00,94.00,53.00,25.28,210.00,5.00,0.00,29.85,1007.40,10.00,M,FEW,FEW,M,M,14000.00,25000.00,M,M,M,M,M,M,M,M,M,91.45,KLAS 170556Z 21005KT 10SM FEW140 FEW250 34/12 A2985 RMK AO2 SLP074 T03440117 10378 20344 51008,M
HND,2022-07-17 05:56,-115.1344,35.9729,742.79,M,M,M,M,M,0.00,M,M,M,M,M,M,M,M,M,M,M,M,M,M,M,M,M,M,M,M,KHND 170556Z AUTO RMK AO2 SLPNO 6//// PWINO FZRANO $,M
WMC,2022-07-17 05:56,-117.8072,40.9019,1315.00,85.00,37.00,18.20,30.00,3.00,0.00,30.02,1010.10,5.00,M,CLR,M,M,M,M,M,M,M,HZ,M,M,M,M,M,M,81.88,KWMC 170556Z AUTO 03003KT 5SM HZ CLR 29/03 A3002 RMK AO2 SLP101 T02940028 10389 20278 51011 TSNO,M
TPH,2022-07-17 05:56,-117.0904,38.0505,1654.00,84.00,45.00,25.54,50.00,9.00,0.00,30.16,1010.90,10.00,M,SCT,M,M,M,11000.00,M,M,M,M,M,M,M,M,M,M,81.61,KTPH 170556Z AUTO 05009KT 10SM SCT110 29/07 A3016 RMK AO2 SLP109 T02890072 10361 20267 50017,M
EKO,2022-07-17 05:56,-115.7860,40.8242,1367.00,82.00,38.00,20.71,0.00,0.00,0.00,30.08,1011.20,10.00,M,CLR,M,M,M,M,M,M,M,M,M,M,M,M,M,M,79.90,KEKO 170556Z AUTO 00000KT 10SM CLR 28/03 A3008 RMK AO2 SLP112 T02780033 10378 20272 50008,M
NFL,2022-07-17 05:56,-118.7010,39.4166,1199.00,87.00,41.00,19.83,280.00,8.00,0.00,30.00,1013.00,10.00,M,CLR,M,M,M,M,M,M,M,M,M,M,M,M,M,M,83.73,KNFL 170556Z AUTO 28008KT 10SM CLR 31/05 A3000 RMK AO2 SLP130 T03060050 10406 20306 51016,M
INS,2022-07-17 05:58,-115.6733,36.5872,955.00,90.70,46.60,21.93,210.00,5.00,0.00,29.92,1007.10,10.00,M,CLR,M,M,M,M,M,M,M,M,M,M,M,M,M,M,87.25,KINS 170558Z AUTO 21005KT 10SM CLR 33/08 A2992 RMK AO2 SLP071 T03260081 10410 20326 51012 $,M
LSV,2022-07-17 05:58,-115.0343,36.2362,570.00,98.00,55.00,23.88,200.00,8.00,0.00,29.81,1006.10,10.00,M,CLR,M,M,M,M,M,M,M,M,M,M,M,M,M,M,96.16,KLSV 170558Z AUTO 20008KT 10SM CLR 37/13 A2981 RMK AO2 SLP061 T03660127 10452 20366 52011 $,M
RTS,2022-07-17 06:15,-119.8764,39.6682,1539.00,78.80,33.80,19.55,250.00,13.00,0.00,30.14,M,10.00,25.00,CLR,M,M,M,M,M,M,M,M,M,M,M,M,M,M,78.80,KRTS 170615Z AUTO 25013G25KT 210V270 10SM CLR 26/01 A3014 RMK AO2,M
BAM,2022-07-17 06:15,-116.8743,40.5990,1382.36,M,M,M,0.00,0.00,0.00,30.05,M,10.00,M,CLR,M,M,M,M,M,M,M,M,M,M,M,M,M,M,M,KBAM 170615Z AUTO 00000KT 10SM CLR A3005 RMK AO1,M
MEV,2022-07-17 06:15,-119.7500,38.9963,1441.42,64.40,44.60,48.55,110.00,9.00,0.00,30.10,M,10.00,M,CLR,M,M,M,M,M,M,M,M,M,M,M,M,M,M,64.40,KMEV 170615Z AUTO 11009KT 10SM CLR 18/07 A3010 RMK AO2,M
05U,2022-07-17 06:15,-116.0051,39.6042,1811.23,68.00,48.20,49.10,0.00,0.00,0.00,30.20,M,10.00,M,CLR,M,M,M,M,M,M,M,M,M,M,M,M,M,M,68.00,K05U 170615Z AUTO 00000KT 10SM CLR 20/09 A3020 RMK A01,M
CXP,2022-07-17 06:15,-119.7326,39.1923,1431.00,75.20,41.00,29.23,0.00,0.00,0.00,30.11,M,10.00,M,CLR,M,M,M,M,M,M,M,M,M,M,M,M,M,M,75.20,KCXP 170615Z AUTO 00000KT 10SM CLR 24/05 A3011 RMK AO2,M
BVU,2022-07-17 06:15,-114.8611,35.9475,671.00,M,M,M,M,M,0.00,M,M,M,M,M,M,M,M,M,M,M,M,M,M,M,M,M,M,M,M,KBVU 170615Z AUTO RMK AO2 PNO PWINO TSNO,M
HTH,2022-07-17 06:15,-118.6315,38.5448,1282.89,82.40,46.40,28.36,150.00,7.00,0.00,30.03,M,10.00,M,CLR,M,M,M,M,M,M,M,M,M,M,M,M,M,M,80.64,KHTH 170615Z AUTO 15007KT 10SM CLR 28/08 A3003 RMK A01,M
TMT,2022-07-17 06:15,-117.1971,39.4643,1749.34,71.80,46.20,39.99,230.00,8.00,0.00,30.19,M,10.00,M,SCT,M,M,M,12000.00,M,M,M,M,M,M,M,M,M,M,71.80,KTMT 170615Z AUTO 23008KT 10SM SCT120 22/08 A3019 RMK AO2 T02210079,M
HTH,2022-07-17 06:35,-118.6315,38.5448,1282.89,80.60,50.00,34.41,140.00,11.00,0.00,30.04,M,10.00,M,CLR,M,M,M,M,M,M,M,M,M,M,M,M,M,M,79.88,KHTH 170635Z AUTO 14011KT 10SM CLR 27/10 A3004 RMK A01,M
RTS,2022-07-17 06:35,-119.8764,39.6682,1539.00,75.20,33.80,22.02,280.00,10.00,0.00,30.14,M,10.00,17.00,CLR,M,M,M,M,M,M,M,M,M,M,M,M,M,M,75.20,KRTS 170635Z AUTO 28010G17KT 10SM CLR 24/01 A3014 RMK AO2,M
CXP,2022-07-17 06:35,-119.7326,39.1923,1431.00,73.40,42.80,33.29,90.00,3.00,0.00,30.11,M,10.00,M,CLR,M,M,M,M,M,M,M,M,M,M,M,M,M,M,73.40,KCXP 170635Z AUTO 09003KT 10SM CLR 23/06 A3011 RMK AO2,M
TMT,2022-07-17 06:35,-117.1971,39.4643,1749.34,M,M,M,270.00,4.00,0.00,30.18,M,10.00,M,BKN,M,M,M,11000.00,M,M,M,M,M,M,M,M,M,M,M,KTMT 170635Z AUTO 27004KT 10SM BKN110 A3018 RMK AO2,M
BVU,2022-07-17 06:35,-114.8611,35.9475,671.00,M,M,M,M,M,0.00,M,M,M,M,M,M,M,M,M,M,M,M,M,M,M,M,M,M,M,M,KBVU 170635Z AUTO RMK AO2 PNO PWINO TSNO,M
MEV,2022-07-17 06:35,-119.7500,38.9963,1441.42,66.20,44.60,45.60,100.00,7.00,0.00,30.10,M,10.00,M,CLR,M,M,M,M,M,M,M,M,M,M,M,M,M,M,66.20,KMEV 170635Z AUTO 10007KT 10SM CLR 19/07 A3010 RMK AO2,M
05U,2022-07-17 06:35,-116.0051,39.6042,1811.23,66.20,46.40,48.83,100.00,7.00,0.00,30.19,M,10.00,M,CLR,M,M,M,M,M,M,M,M,M,M,M,M,M,M,66.20,K05U 170635Z AUTO 10007KT 10SM CLR 19/08 A3019 RMK A01,M
BAM,2022-07-17 06:35,-116.8743,40.5990,1382.36,M,M,M,0.00,0.00,0.00,30.05,M,10.00,M,CLR,M,M,M,M,M,M,M,M,M,M,M,M,M,M,M,KBAM 170635Z AUTO 00000KT 10SM CLR A3005 RMK AO1,M
VGT,2022-07-17 06:53,-115.1933,36.2111,667.00,95.00,56.00,27.06,0.00,0.00,0.00,29.83,1008.30,10.00,M,CLR,M,M,M,M,M,M,M,M,M,M,M,M,M,M,93.38,KVGT 170653Z AUTO 00000KT 10SM CLR 35/13 A2983 RMK AO2 SLP083 T03500133,M
LOL,2022-07-17 06:53,-118.5701,40.0684,1192.43,83.00,36.00,18.66,60.00,3.00,0.00,30.00,1010.50,10.00,M,CLR,M,M,M,M,M,M,M,M,M,M,M,M,M,M,80.43,KLOL 170653Z AUTO 06003KT 10SM CLR 28/02 A3000 RMK AO2 SLP105 T02830022,M
P68,2022-07-17 06:53,-116.0056,39.6014,1993.00,66.00,45.00,46.62,110.00,7.00,0.00,30.17,1012.10,M,M,M,M,M,M,M,M,M,M,M,M,M,M,M,M,M,66.00,KP68 170653Z AUTO 11007KT 19/07 A3017 RMK AO1 SLP121 T01890072,M
DRA,2022-07-17 06:53,-116.0278,36.6206,1009.00,89.00,49.00,25.14,0.00,0.00,0.00,29.93,1007.20,10.00,M,CLR,M,M,M,M,M,M,M,M,M,M,M,M,M,M,86.09,KDRA 170653Z AUTO 00000KT 10SM CLR 32/09 A2993 RMK AO2 SLP072 T03170094,M
ELY,2022-07-17 06:53,-114.8453,39.2950,1909.00,64.00,38.00,38.00,170.00,11.00,0.00,30.21,1011.30,10.00,M,CLR,M,M,M,M,M,M,M,M,M,M,M,M,M,M,64.00,KELY 170653Z AUTO 17011KT 10SM CLR 18/03 A3021 RMK AO2 SLP113 T01780033,M
CXP,2022-07-17 06:55,-119.7326,39.1923,1431.00,73.40,41.00,31.05,70.00,5.00,0.00,30.11,M,10.00,M,CLR,M,M,M,M,M,M,M,M,M,M,M,M,M,M,73.40,KCXP 170655Z AUTO 07005KT 10SM CLR 23/05 A3011 RMK AO2,M
RNO,2022-07-17 06:55,-119.7711,39.4839,1341.00,78.00,43.00,28.68,0.00,0.00,0.00,30.07,1011.10,10.00,M,FEW,SCT,M,M,12000.00,18000.00,M,M,M,M,M,M,M,M,M,78.10,KRNO 170655Z 00000KT 10SM FEW120 SCT180 26/06 A3007 RMK AO2 SLP111 T02560061,M
RTS,2022-07-17 06:55,-119.8764,39.6682,1539.00,77.00,33.80,20.74,270.00,14.00,0.00,30.13,M,10.00,20.00,CLR,M,M,M,M,M,M,M,M,M,M,M,M,M,M,77.00,KRTS 170655Z AUTO 27014G20KT 10SM CLR 25/01 A3013 RMK AO2,M
05U,2022-07-17 06:55,-116.0051,39.6042,1811.23,66.20,44.60,45.60,0.00,0.00,0.00,30.19,M,10.00,M,CLR,M,M,M,M,M,M,M,M,M,M,M,M,M,M,66.20,K05U 170655Z AUTO 00000KT 10SM CLR 19/07 A3019 RMK A01,M
MEV,2022-07-17 06:55,-119.7500,38.9963,1441.42,68.00,42.80,40.00,80.00,5.00,0.00,30.09,M,10.00,M,CLR,M,M,M,M,M,M,M,M,M,M,M,M,M,M,68.00,KMEV 170655Z AUTO 08005KT 10SM CLR 20/06 A3009 RMK AO2,M
BAM,2022-07-17 06:55,-116.8743,40.5990,1382.36,M,M,M,140.00,4.00,0.00,30.04,M,10.00,M,CLR,M,M,M,M,M,M,M,M,M,M,M,M,M,M,M,KBAM 170655Z AUTO 14004KT 10SM CLR A3004 RMK AO1,M
HTH,2022-07-17 06:55,-118.6315,38.5448,1282.89,80.60,48.20,32.18,130.00,12.00,0.00,30.04,M,10.00,M,CLR,M,M,M,M,M,M,M,M,M,M,M,M,M,M,79.71,KHTH 170655Z AUTO 13012KT 10SM CLR 27/09 A3004 RMK A01,M
TMT,2022-07-17 06:55,-117.1971,39.4643,1749.34,71.60,47.70,42.61,310.00,6.00,0.00,30.18,M,10.00,M,SCT,M,M,M,11000.00,M,M,M,M,M,M,M,M,M,M,71.60,KTMT 170655Z AUTO 31006KT 10SM SCT110 22/09 A3018 RMK AO2 T02200087,M
BVU,2022-07-17 06:55,-114.8611,35.9475,671.00,M,M,M,M,M,0.00,M,M,M,M,M,M,M,M,M,M,M,M,M,M,M,M,M,M,M,M,KBVU 170655Z AUTO RMK AO2 PNO PWINO TSNO,M
TPH,2022-07-17 06:56,-117.0904,38.0505,1654.00,78.00,49.00,35.86,320.00,6.00,0.00,30.13,1010.40,10.00,M,FEW,M,M,M,11000.00,M,M,M,M,M,M,M,M,M,M,78.10,KTPH 170656Z AUTO 32006KT 10SM FEW110 26/09 A3013 RMK AO2 SLP104 T02560094,M
EKO,2022-07-17 06:56,-115.7860,40.8242,1367.00,76.00,41.00,28.56,180.00,4.00,0.00,30.08,1011.10,10.00,M,CLR,M,M,M,M,M,M,M,M,M,M,M,M,M,M,75.90,KEKO 170656Z AUTO 18004KT 10SM CLR 24/05 A3008 RMK AO2 SLP111 T02440050,M
WMC,2022-07-17 06:56,-117.8072,40.9019,1315.00,85.00,34.00,16.16,0.00,0.00,0.00,30.03,1010.10,7.00,M,CLR,M,M,M,M,M,M,M,M,M,M,M,M,M,M,81.82,KWMC 170656Z AUTO 00000KT 7SM CLR 29/01 A3003 RMK AO2 SLP101 T02940011 TSNO,M
HND,2022-07-17 06:56,-115.1344,35.9729,742.79,M,M,M,M,M,0.00,M,M,M,M,M,M,M,M,M,M,M,M,M,M,M,M,M,M,M,M,KHND 170656Z AUTO RMK AO2 SLPNO PWINO FZRANO $,M
NFL,2022-07-17 06:56,-118.7010,39.4166,1199.00,86.00,40.00,19.68,0.00,0.00,0.00,30.01,1013.20,10.00,M,CLR,M,M,M,M,M,M,M,M,M,M,M,M,M,M,82.81,KNFL 170656Z AUTO 00000KT 10SM CLR 30/04 A3001 RMK AO2 SLP132 T03000044,M
LAS,2022-07-17 06:56,-115.1634,36.0719,663.00,93.00,53.00,26.00,210.00,6.00,0.00,29.84,1006.90,10.00,M,FEW,FEW,M,M,14000.00,25000.00,M,M,M,M,M,M,M,M,M,90.54,KLAS 170656Z 21006KT 10SM FEW140 FEW250 34/12 A2984 RMK AO2 SLP069 T03390117,M
INS,2022-07-17 06:58,-115.6733,36.5872,955.00,88.20,43.30,20.93,330.00,3.00,0.00,29.92,1007.20,10.00,M,CLR,M,M,M,M,M,M,M,M,M,M,M,M,M,M,84.76,KINS 170658Z AUTO 33003KT 10SM CLR 31/06 A2992 RMK AO2 SLP072 T03120063 $,M
LSV,2022-07-17 06:58,-115.0343,36.2362,570.00,94.80,55.60,26.94,190.00,7.00,0.00,29.80,1005.70,10.00,M,CLR,M,M,M,M,M,M,M,M,M,M,M,M,M,M,93.07,KLSV 170658Z AUTO 19007KT 10SM CLR 35/13 A2980 RMK AO2 SLP057 T03490131 $,M
TMT,2022-07-17 07:15,-117.1971,39.4643,1749.34,70.30,48.20,45.38,50.00,4.00,0.00,30.17,M,10.00,M,SCT,M,M,M,12000.00,M,M,M,M,M,M,M,M,M,M,70.30,KTMT 170715Z AUTO 05004KT 10SM SCT120 21/09 A3017 RMK AO2 T02130090,M
HTH,2022-07-17 07:15,-118.6315,38.5448,1282.89,82.40,44.60,26.49,180.00,8.00,0.00,30.04,M,10.00,M,CLR,M,M,M,M,M,M,M,M,M,M,M,M,M,M,80.50,KHTH 170715Z AUTO 18008KT 10SM CLR 28/07 A3004 RMK A01,M
BAM,2022-07-17 07:15,-116.8743,40.5990,1382.36,M,M,M,0.00,0.00,0.00,30.04,M,10.00,M,CLR,M,M,M,M,M,M,M,M,M,M,M,M,M,M,M,KBAM 170715Z AUTO 00000KT 10SM CLR A3004 RMK AO1,M
MEV,2022-07-17 07:15,-119.7500,38.9963,1441.42,68.00,42.80,40.00,90.00,7.00,0.00,30.09,M,10.00,M,CLR,M,M,M,M,M,M,M,M,M,M,M,M,M,M,68.00,KMEV 170715Z AUTO 09007KT 10SM CLR 20/06 A3009 RMK AO2,M
05U,2022-07-17 07:15,-116.0051,39.6042,1811.23,66.20,46.40,48.83,0.00,0.00,0.00,30.19,M,10.00,M,CLR,M,M,M,M,M,M,M,M,M,M,M,M,M,M,66.20,K05U 170715Z AUTO 00000KT 10SM CLR 19/08 A3019 RMK A01,M
RTS,2022-07-17 07:15,-119.8764,39.6682,1539.00,77.00,35.60,22.28,260.00,17.00,0.00,30.12,M,10.00,M,CLR,M,M,M,M,M,M,M,M,M,M,M,M,M,M,77.00,KRTS 170715Z AUTO 26017KT 10SM CLR 25/02 A3012 RMK AO2,M
CXP,2022-07-17 07:15,-119.7326,39.1923,1431.00,73.40,41.00,31.05,0.00,0.00,0.00,30.10,M,10.00,M,CLR,M,M,M,M,M,M,M,M,M,M,M,M,M,M,73.40,KCXP 170715Z AUTO 00000KT 10SM CLR 23/05 A3010 RMK AO2,M
BVU,2022-07-17 07:15,-114.8611,35.9475,671.00,M,M,M,M,M,0.00,M,M,M,M,M,M,M,M,M,M,M,M,M,M,M,M,M,M,M,M,KBVU 170715Z AUTO RMK AO2 PNO PWINO TSNO,M
BVU,2022-07-17 07:35,-114.8611,35.9475,671.00,M,M,M,M,M,0.00,M,M,M,M,M,M,M,M,M,M,M,M,M,M,M,M,M,M,M,M,KBVU 170735Z AUTO RMK AO2 PNO PWINO TSNO,M
RTS,2022-07-17 07:35,-119.8764,39.6682,1539.00,73.40,35.60,25.13,270.00,10.00,0.00,30.12,M,10.00,15.00,CLR,M,M,M,M,M,M,M,M,M,M,M,M,M,M,73.40,KRTS 170735Z AUTO 27010G15KT 10SM CLR 23/02 A3012 RMK AO2,M
BAM,2022-07-17 07:35,-116.8743,40.5990,1382.36,M,M,M,290.00,6.00,0.00,30.04,M,10.00,M,CLR,M,M,M,M,M,M,M,M,M,M,M,M,M,M,M,KBAM 170735Z AUTO 29006KT 10SM CLR A3004 RMK AO1,M
MEV,2022-07-17 07:35,-119.7500,38.9963,1441.42,66.20,46.40,48.83,110.00,7.00,0.00,30.09,M,10.00,M,CLR,M,M,M,M,M,M,M,M,M,M,M,M,M,M,66.20,KMEV 170735Z AUTO 11007KT 10SM CLR 19/08 A3009 RMK AO2,M
05U,2022-07-17 07:35,-116.0051,39.6042,1811.23,64.40,46.40,51.98,0.00,0.00,0.00,30.19,M,10.00,M,CLR,M,M,M,M,M,M,M,M,M,M,M,M,M,M,64.40,K05U 170735Z AUTO 00000KT 10SM CLR 18/08 A3019 RMK A01,M
CXP,2022-07-17 07:35,-119.7326,39.1923,1431.00,75.20,41.00,29.23,0.00,0.00,0.00,30.10,M,10.00,M,CLR,M,M,M,M,M,M,M,M,M,M,M,M,M,M,75.20,KCXP 170735Z AUTO 00000KT 10SM CLR 24/05 A3010 RMK AO2,M
TMT,2022-07-17 07:35,-117.1971,39.4643,1749.34,69.00,47.70,46.40,0.00,0.00,0.00,30.16,M,10.00,M,SCT,M,M,M,12000.00,M,M,M,M,M,M,M,M,M,M,69.10,KTMT 170735Z AUTO 00000KT 10SM SCT120 21/09 A3016 RMK AO2 T02060087,M
HTH,2022-07-17 07:35,-118.6315,38.5448,1282.89,82.40,44.60,26.49,220.00,4.00,0.00,30.04,M,10.00,M,CLR,M,M,M,M,M,M,M,M,M,M,M,M,M,M,80.50,KHTH 170735Z AUTO 22004KT 10SM CLR 28/07 A3004 RMK A01,M
LOL,2022-07-17 07:53,-118.5701,40.0684,1192.43,78.00,36.00,21.83,110.00,3.00,0.00,30.00,1010.50,10.00,M,CLR,M,M,M,M,M,M,M,M,M,M,M,M,M,M,78.10,KLOL 170753Z AUTO 11003KT 10SM CLR 26/02 A3000 RMK AO2 SLP105 T02560022 404000128,M
P68,2022-07-17 07:53,-116.0056,39.6014,1993.00,66.00,46.00,48.43,230.00,5.00,0.00,30.17,1011.70,M,M,M,M,M,M,M,M,M,M,M,M,M,M,M,M,M,66.00,KP68 170753Z AUTO 23005KT 19/08 A3017 RMK AO1 SLP117 T01890078 403440106,M
ELY,2022-07-17 07:53,-114.8453,39.2950,1909.00,61.00,36.00,39.19,190.00,7.00,0.00,30.21,1011.50,10.00,M,CLR,M,M,M,M,M,M,M,M,M,M,M,M,M,M,61.00,KELY 170753Z AUTO 19007KT 10SM CLR 16/02 A3021 RMK AO2 SLP115 T01610022 403440094,M
DRA,2022-07-17 07:53,-116.0278,36.6206,1009.00,85.00,47.00,26.66,280.00,8.00,0.00,29.93,1007.10,10.00,M,CLR,M,M,M,M,M,M,M,M,M,M,M,M,M,M,82.42,KDRA 170753Z AUTO 28008KT 10SM CLR 29/08 A2993 RMK AO2 SLP071 T02940083 404170272,M
VGT,2022-07-17 07:53,-115.1933,36.2111,667.00,93.00,53.00,26.00,0.00,0.00,0.00,29.83,1008.00,10.00,M,CLR,M,M,M,M,M,M,M,M,M,M,M,M,M,M,90.54,KVGT 170753Z AUTO 00000KT 10SM CLR 34/12 A2983 RMK AO2 SLP080 T03390117 404440328,M
TMT,2022-07-17 07:55,-117.1971,39.4643,1749.34,67.00,47.50,49.67,0.00,0.00,0.00,30.16,M,10.00,M,CLR,M,M,M,M,M,M,M,M,M,M,M,M,M,M,66.90,KTMT 170755Z AUTO 00000KT 10SM CLR 19/09 A3016 RMK AO2 T01940086,M
HTH,2022-07-17 07:55,-118.6315,38.5448,1282.89,80.60,44.60,28.08,0.00,0.00,0.00,30.04,M,10.00,M,CLR,M,M,M,M,M,M,M,M,M,M,M,M,M,M,79.42,KHTH 170755Z AUTO 00000KT 10SM CLR 27/07 A3004 RMK A01,M
BAM,2022-07-17 07:55,-116.8743,40.5990,1382.36,M,M,M,170.00,3.00,0.00,30.04,M,10.00,M,CLR,M,M,M,M,M,M,M,M,M,M,M,M,M,M,M,KBAM 170755Z AUTO 17003KT 10SM CLR A3004 RMK AO1,M
MEV,2022-07-17 07:55,-119.7500,38.9963,1441.42,68.00,46.40,45.88,110.00,7.00,0.00,30.09,M,10.00,M,CLR,M,M,M,M,M,M,M,M,M,M,M,M,M,M,68.00,KMEV 170755Z AUTO 11007KT 10SM CLR 20/08 A3009 RMK AO2,M
05U,2022-07-17 07:55,-116.0051,39.6042,1811.23,64.40,44.60,48.55,0.00,0.00,0.00,30.19,M,10.00,M,FEW,M,M,M,12000.00,M,M,M,M,M,M,M,M,M,M,64.40,K05U 170755Z AUTO 00000KT 10SM FEW120 18/07 A3019 RMK A01,M
RTS,2022-07-17 07:55,-119.8764,39.6682,1539.00,69.80,35.60,28.39,30.00,9.00,0.00,30.12,M,10.00,M,CLR,M,M,M,M,M,M,M,M,M,M,M,M,M,M,69.80,KRTS 170755Z AUTO 03009KT 10SM CLR 21/02 A3012 RMK AO2,M
CXP,2022-07-17 07:55,-119.7326,39.1923,1431.00,73.40,41.00,31.05,0.00,0.00,0.00,30.10,M,10.00,M,CLR,M,M,M,M,M,M,M,M,M,M,M,M,M,M,73.40,KCXP 170755Z AUTO 00000KT 10SM CLR 23/05 A3010 RMK AO2,M
BVU,2022-07-17 07:55,-114.8611,35.9475,671.00,M,M,M,M,M,0.00,M,M,M,M,M,M,M,M,M,M,M,M,M,M,M,M,M,M,M,M,KBVU 170755Z AUTO RMK AO2 PNO PWINO TSNO,M
RNO,2022-07-17 07:55,-119.7711,39.4839,1341.00,78.00,42.00,27.70,0.00,0.00,0.00,30.06,1010.80,10.00,M,FEW,FEW,M,M,12000.00,18000.00,M,M,M,M,M,M,M,M,M,78.10,KRNO 170755Z 00000KT 10SM FEW120 FEW180 26/06 A3006 RMK AO2 SLP108 T02560056 403830200,M
HND,2022-07-17 07:56,-115.1344,35.9729,742.79,M,M,M,M,M,0.00,M,M,M,M,M,M,M,M,M,M,M,M,M,M,M,M,M,M,M,M,KHND 170756Z AUTO RMK AO2 SLPNO PWINO FZRANO $,M
EKO,2022-07-17 07:56,-115.7860,40.8242,1367.00,75.00,40.00,28.20,100.00,5.00,0.00,30.07,1010.90,10.00,M,CLR,M,M,M,M,M,M,M,M,M,M,M,M,M,M,75.00,KEKO 170756Z AUTO 10005KT 10SM CLR 24/04 A3007 RMK AO2 SLP109 T02390044 403780167,M
WMC,2022-07-17 07:56,-117.8072,40.9019,1315.00,80.00,37.00,21.27,280.00,6.00,0.00,30.03,1010.20,10.00,M,CLR,M,M,M,M,M,M,M,M,M,M,M,M,M,M,78.81,KWMC 170756Z AUTO 28006KT 10SM CLR 27/03 A3003 RMK AO2 SLP102 T02670028 403940144 TSNO,M
TPH,2022-07-17 07:56,-117.0904,38.0505,1654.00,73.00,46.00,38.11,10.00,3.00,0.00,30.13,1010.50,10.00,M,CLR,M,M,M,M,M,M,M,M,M,M,M,M,M,M,73.00,KTPH 170756Z AUTO 01003KT 10SM CLR 23/08 A3013 RMK AO2 SLP105 T02280078 403670178,M
NFL,2022-07-17 07:56,-118.7010,39.4166,1199.00,80.00,40.00,23.82,0.00,0.00,0.00,30.01,1013.20,10.00,M,CLR,M,M,M,M,M,M,M,M,M,M,M,M,M,M,78.93,KNFL 170756Z AUTO 00000KT 10SM CLR 27/04 A3001 RMK AO2 SLP132 T02670044 404060200,M
LAS,2022-07-17 07:56,-115.1634,36.0719,663.00,92.00,53.00,26.90,200.00,3.00,0.00,29.84,1006.80,10.00,M,FEW,FEW,M,M,14000.00,25000.00,M,M,M,M,M,M,M,M,M,89.45,KLAS 170756Z 20003KT 10SM FEW140 FEW250 33/12 A2984 RMK AO2 SLP068 T03330117 404330306,M
INS,2022-07-17 07:58,-115.6733,36.5872,955.00,86.50,46.60,25.04,0.00,0.00,0.00,29.91,1006.90,10.00,M,CLR,M,M,M,M,M,M,M,M,M,M,M,M,M,M,83.63,KINS 170758Z AUTO 00000KT 10SM CLR 30/08 A2991 RMK AO2 SLP069 T03030081 404100253 $,M
LSV,2022-07-17 07:58,-115.0343,36.2362,570.00,94.00,55.00,27.00,220.00,7.00,0.00,29.79,1005.40,10.00,M,CLR,M,M,M,M,M,M,M,M,M,M,M,M,M,M,91.93,KLSV 170758Z AUTO 22007KT 10SM CLR 34/13 A2979 RMK AO2 SLP054 T03440127 404630312 $,M
BVU,2022-07-17 08:15,-114.8611,35.9475,671.00,M,M,M,M,M,0.00,M,M,M,M,M,M,M,M,M,M,M,M,M,M,M,M,M,M,M,M,KBVU 170815Z AUTO RMK AO2 PNO PWINO TSNO,M
CXP,2022-07-17 08:15,-119.7326,39.1923,1431.00,75.20,41.00,29.23,0.00,0.00,0.00,30.10,M,10.00,M,CLR,M,M,M,M,M,M,M,M,M,M,M,M,M,M,75.20,KCXP 170815Z AUTO 00000KT 10SM CLR 24/05 A3010 RMK AO2,M
MEV,2022-07-17 08:15,-119.7500,38.9963,1441.42,68.00,46.40,45.88,90.00,6.00,0.00,30.09,M,10.00,M,CLR,M,M,M,M,M,M,M,M,M,M,M,M,M,M,68.00,KMEV 170815Z AUTO 09006KT 10SM CLR 20/08 A3009 RMK AO2,M
HTH,2022-07-17 08:15,-118.6315,38.5448,1282.89,78.80,44.60,29.79,210.00,3.00,0.00,30.04,M,10.00,M,CLR,M,M,M,M,M,M,M,M,M,M,M,M,M,M,78.80,KHTH 170815Z AUTO 21003KT 10SM CLR 26/07 A3004 RMK A01,M
BAM,2022-07-17 08:15,-116.8743,40.5990,1382.36,M,M,M,0.00,0.00,0.00,30.04,M,10.00,M,CLR,M,M,M,M,M,M,M,M,M,M,M,M,M,M,M,KBAM 170815Z AUTO 00000KT 10SM CLR A3004 RMK AO1,M
RTS,2022-07-17 08:15,-119.8764,39.6682,1539.00,71.60,33.80,24.86,M,5.00,0.00,30.13,M,10.00,10.00,CLR,M,M,M,M,M,M,M,M,M,M,M,M,M,M,71.60,KRTS 170815Z AUTO VRB05G10KT 10SM CLR 22/01 A3013 RMK AO2,M
05U,2022-07-17 08:15,-116.0051,39.6042,1811.23,66.20,44.60,45.60,0.00,0.00,0.00,30.19,M,10.00,M,CLR,M,M,M,M,M,M,M,M,M,M,M,M,M,M,66.20,K05U 170815Z AUTO 00000KT 10SM CLR 19/07 A3019 RMK A01,M
TMT,2022-07-17 08:15,-117.1971,39.4643,1749.34,66.00,46.80,49.91,0.00,0.00,0.00,30.17,M,10.00,M,CLR,M,M,M,M,M,M,M,M,M,M,M,M,M,M,66.00,KTMT 170815Z AUTO 00000KT 10SM CLR 19/08 A3017 RMK AO2 T01890082,M
BVU,2022-07-17 08:35,-114.8611,35.9475,671.00,M,M,M,M,M,0.00,M,M,M,M,M,M,M,M,M,M,M,M,M,M,M,M,M,M,M,M,KBVU 170835Z AUTO RMK AO2 PNO PWINO TSNO,M
MEV,2022-07-17 08:35,-119.7500,38.9963,1441.42,66.20,46.40,48.83,0.00,0.00,0.00,30.09,M,10.00,M,CLR,M,M,M,M,M,M,M,M,M,M,M,M,M,M,66.20,KMEV 170835Z AUTO 00000KT 10SM CLR 19/08 A3009 RMK AO2,M
RTS,2022-07-17 08:35,-119.8764,39.6682,1539.00,71.60,33.80,24.86,340.00,7.00,0.00,30.12,M,10.00,M,CLR,M,M,M,M,M,M,M,M,M,M,M,M,M,M,71.60,KRTS 170835Z AUTO 34007KT 10SM CLR 22/01 A3012 RMK AO2,M
BAM,2022-07-17 08:35,-116.8743,40.5990,1382.36,M,M,M,180.00,5.00,0.00,30.06,M,10.00,M,CLR,M,M,M,M,M,M,M,M,M,M,M,M,M,M,M,KBAM 170835Z AUTO 18005KT 10SM CLR A3006 RMK AO1,M
HTH,2022-07-17 08:35,-118.6315,38.5448,1282.89,78.80,44.60,29.79,M,5.00,0.00,30.04,M,10.00,M,CLR,M,M,M,M,M,M,M,M,M,M,M,M,M,M,78.80,KHTH 170835Z AUTO VRB05KT 10SM CLR 26/07 A3004 RMK A01,M
TMT,2022-07-17 08:35,-117.1971,39.4643,1749.34,65.00,47.80,53.85,280.00,4.00,0.00,30.17,M,10.00,M,CLR,M,M,M,M,M,M,M,M,M,M,M,M,M,M,64.90,KTMT 170835Z AUTO 28004KT 10SM CLR 18/09 A3017 RMK AO2 T01830088,M
CXP,2022-07-17 08:35,-119.7326,39.1923,1431.00,75.20,41.00,29.23,0.00,0.00,0.00,30.10,M,10.00,M,CLR,M,M,M,M,M,M,M,M,M,M,M,M,M,M,75.20,KCXP 170835Z AUTO 00000KT 10SM CLR 24/05 A3010 RMK AO2,M
05U,2022-07-17 08:35,-116.0051,39.6042,1811.23,66.20,46.40,48.83,0.00,0.00,0.00,30.19,M,10.00,M,FEW,M,M,M,12000.00,M,M,M,M,M,M,M,M,M,M,66.20,K05U 170835Z AUTO 00000KT 10SM FEW120 19/08 A3019 RMK A01,M
P68,2022-07-17 08:53,-116.0056,39.6014,1993.00,66.00,45.00,46.62,140.00,5.00,0.00,30.16,1011.20,M,M,M,M,M,M,M,M,M,M,M,M,M,M,M,M,M,66.00,KP68 170853Z AUTO 14005KT 19/07 A3016 RMK AO1 SLP112 T01890072 57004,M
ELY,2022-07-17 08:53,-114.8453,39.2950,1909.00,59.00,35.00,40.61,170.00,9.00,0.00,30.20,1011.40,10.00,M,CLR,M,M,M,M,M,M,M,M,M,M,M,M,M,M,59.00,KELY 170853Z AUTO 17009KT 10SM CLR 15/02 A3020 RMK AO2 SLP114 T01500017 58003,M
VGT,2022-07-17 08:53,-115.1933,36.2111,667.00,92.00,52.00,25.84,130.00,4.00,0.00,29.83,1008.20,10.00,M,CLR,M,M,M,M,M,M,M,M,M,M,M,M,M,M,89.21,KVGT 170853Z AUTO 13004KT 10SM CLR 33/11 A2983 RMK AO2 SLP082 T03330111 55004,M
LOL,2022-07-17 08:53,-118.5701,40.0684,1192.43,77.00,36.00,22.64,0.00,0.00,0.00,30.00,1010.40,10.00,M,FEW,M,M,M,9500.00,M,M,M,M,M,M,M,M,M,M,77.00,KLOL 170853Z AUTO 00000KT 10SM FEW095 25/02 A3000 RMK AO2 SLP104 T02500022 50000,M
DRA,2022-07-17 08:53,-116.0278,36.6206,1009.00,87.00,48.00,25.90,30.00,8.00,0.00,29.92,1006.80,10.00,M,CLR,M,M,M,M,M,M,M,M,M,M,M,M,M,M,84.27,KDRA 170853Z AUTO 03008KT 10SM CLR 31/09 A2992 RMK AO2 SLP068 T03060089 58003,M
MEV,2022-07-17 08:55,-119.7500,38.9963,1441.42,66.20,44.60,45.60,0.00,0.00,0.00,30.09,M,10.00,M,BKN,M,M,M,12000.00,M,M,M,M,M,M,M,M,M,M,66.20,KMEV 170855Z AUTO 00000KT 10SM BKN120 19/07 A3009 RMK AO2,M
RTS,2022-07-17 08:55,-119.8764,39.6682,1539.00,71.60,33.80,24.86,340.00,6.00,0.00,30.12,M,10.00,M,CLR,M,M,M,M,M,M,M,M,M,M,M,M,M,M,71.60,KRTS 170855Z AUTO 34006KT 10SM CLR 22/01 A3012 RMK AO2,M
RNO,2022-07-17 08:55,-119.7711,39.4839,1341.00,73.00,43.00,34.00,210.00,3.00,0.00,30.06,1010.90,10.00,M,SCT,BKN,M,M,12000.00,18000.00,M,M,M,M,M,M,M,M,M,73.00,KRNO 170855Z 21003KT 10SM SCT120 BKN180 23/06 A3006 RMK AO2 SLP109 T02280061 56005,M
TMT,2022-07-17 08:55,-117.1971,39.4643,1749.34,64.80,49.00,56.74,0.00,0.00,0.00,30.17,M,10.00,M,CLR,M,M,M,M,M,M,M,M,M,M,M,M,M,M,64.80,KTMT 170855Z AUTO 00000KT 10SM CLR 18/10 A3017 RMK AO2 T01820095,M
HTH,2022-07-17 08:55,-118.6315,38.5448,1282.89,M,M,M,M,M,0.00,M,M,10.00,M,CLR,M,M,M,M,M,M,M,M,M,M,M,M,M,M,M,KHTH 170855Z AUTO 10SM CLR RMK A01 PNO,M
BAM,2022-07-17 08:55,-116.8743,40.5990,1382.36,M,M,M,300.00,5.00,0.00,30.04,M,10.00,M,CLR,M,M,M,M,M,M,M,M,M,M,M,M,M,M,M,KBAM 170855Z AUTO 30005KT 10SM CLR A3004 RMK AO1,M
05U,2022-07-17 08:55,-116.0051,39.6042,1811.23,66.20,44.60,45.60,0.00,0.00,0.00,30.19,M,10.00,M,CLR,M,M,M,M,M,M,M,M,M,M,M,M,M,M,66.20,K05U 170855Z AUTO 00000KT 10SM CLR 19/07 A3019 RMK A01,M
CXP,2022-07-17 08:55,-119.7326,39.1923,1431.00,73.40,41.00,31.05,0.00,0.00,0.00,30.10,M,10.00,M,CLR,M,M,M,M,M,M,M,M,M,M,M,M,M,M,73.40,KCXP 170855Z AUTO 00000KT 10SM CLR 23/05 A3010 RMK AO2,M
BVU,2022-07-17 08:55,-114.8611,35.9475,671.00,M,M,M,M,M,0.00,M,M,M,M,M,M,M,M,M,M,M,M,M,M,M,M,M,M,M,M,KBVU 170855Z AUTO RMK AO2 PNO PWINO TSNO,M
WMC,2022-07-17 08:56,-117.8072,40.9019,1315.00,79.00,39.00,23.85,270.00,3.00,0.00,30.03,1010.00,10.00,M,CLR,M,M,M,M,M,M,M,M,M,M,M,M,M,M,79.00,KWMC 170856Z AUTO 27003KT 10SM CLR 26/04 A3003 RMK AO2 SLP100 T02610039 50000 TSNO,M
TPH,2022-07-17 08:56,-117.0904,38.0505,1654.00,72.00,52.00,49.33,350.00,4.00,0.00,30.13,1010.20,10.00,M,CLR,M,M,M,M,M,M,M,M,M,M,M,M,M,M,72.00,KTPH 170856Z AUTO 35004KT 10SM CLR 22/11 A3013 RMK AO2 SLP102 T02220111 56008,M
LAS,2022-07-17 08:56,-115.1634,36.0719,663.00,91.00,53.00,27.67,140.00,5.00,0.00,29.83,1006.60,10.00,M,FEW,FEW,M,M,14000.00,25000.00,M,M,M,M,M,M,M,M,M,88.57,KLAS 170856Z 14005KT 10SM FEW140 FEW250 33/12 A2983 RMK AO2 SLP066 T03280117 56006,M
EKO,2022-07-17 08:56,-115.7860,40.8242,1367.00,71.00,39.00,31.05,60.00,4.00,0.00,30.07,1011.00,10.00,M,CLR,M,M,M,M,M,M,M,M,M,M,M,M,M,M,71.10,KEKO 170856Z AUTO 06004KT 10SM CLR 22/04 A3007 RMK AO2 SLP110 T02170039 56003,M
HND,2022-07-17 08:56,-115.1344,35.9729,742.79,M,M,M,M,M,0.00,M,M,M,M,M,M,M,M,M,M,M,M,M,M,M,M,M,M,M,M,KHND 170856Z AUTO RMK AO2 SLPNO 6//// PWINO FZRANO $,M
NFL,2022-07-17 08:56,-118.7010,39.4166,1199.00,79.00,40.00,24.70,0.00,0.00,0.00,30.01,1013.20,10.00,M,CLR,M,M,M,M,M,M,M,M,M,M,M,M,M,M,79.00,KNFL 170856Z AUTO 00000KT 10SM CLR 26/04 A3001 RMK AO2 SLP132 T02610044 51002,M
LSV,2022-07-17 08:58,-115.0343,36.2362,570.00,92.30,54.50,27.97,180.00,4.00,0.00,29.80,1005.70,10.00,M,FEW,M,M,M,19000.00,M,M,M,M,M,M,M,M,M,M,90.19,KLSV 170858Z AUTO 18004KT 10SM FEW190 34/13 A2980 RMK AO2 SLP057 T03350125 55004 $,M
INS,2022-07-17 08:58,-115.6733,36.5872,955.00,82.60,44.20,25.92,0.00,0.00,0.00,29.92,1007.20,10.00,M,CLR,M,M,M,M,M,M,M,M,M,M,M,M,M,M,80.61,KINS 170858Z AUTO 00000KT 10SM CLR 28/07 A2992 RMK AO2 SLP072 T02810068 55002 $,M
RTS,2022-07-17 09:15,-119.8764,39.6682,1539.00,71.60,32.00,23.13,310.00,7.00,0.00,30.12,M,10.00,M,CLR,M,M,M,M,M,M,M,M,M,M,M,M,M,M,71.60,KRTS 170915Z AUTO 31007KT 10SM CLR 22/00 A3012 RMK AO2,M
05U,2022-07-17 09:15,-116.0051,39.6042,1811.23,66.20,46.40,48.83,0.00,0.00,0.00,30.19,M,10.00,M,CLR,M,M,M,M,M,M,M,M,M,M,M,M,M,M,66.20,K05U 170915Z AUTO 00000KT 10SM CLR 19/08 A3019 RMK A01,M
MEV,2022-07-17 09:15,-119.7500,38.9963,1441.42,64.40,46.40,51.98,100.00,3.00,0.00,30.09,M,10.00,M,BKN,M,M,M,12000.00,M,M,M,M,M,M,M,M,M,M,64.40,KMEV 170915Z AUTO 10003KT 10SM BKN120 18/08 A3009 RMK AO2,M
BVU,2022-07-17 09:15,-114.8611,35.9475,671.00,M,M,M,M,M,0.00,M,M,M,M,M,M,M,M,M,M,M,M,M,M,M,M,M,M,M,M,KBVU 170915Z AUTO RMK AO2 PNO PWINO TSNO,M
BAM,2022-07-17 09:15,-116.8743,40.5990,1382.36,M,M,M,290.00,4.00,0.00,30.04,M,10.00,M,CLR,M,M,M,M,M,M,M,M,M,M,M,M,M,M,M,KBAM 170915Z AUTO 29004KT 10SM CLR A3004 RMK AO1,M
CXP,2022-07-17 09:15,-119.7326,39.1923,1431.00,75.20,41.00,29.23,0.00,0.00,0.00,30.10,M,10.00,M,CLR,M,M,M,M,M,M,M,M,M,M,M,M,M,M,75.20,KCXP 170915Z AUTO 00000KT 10SM CLR 24/05 A3010 RMK AO2,M
HTH,2022-07-17 09:15,-118.6315,38.5448,1282.89,75.20,46.40,35.94,0.00,0.00,0.00,30.04,M,10.00,M,M,M,M,M,M,M,M,M,M,M,M,M,M,M,M,75.20,KHTH 170915Z AUTO 00000KT 10SM 24/08 A3004 RMK A01,M
TMT,2022-07-17 09:15,-117.1971,39.4643,1749.34,62.60,48.40,59.70,110.00,4.00,0.00,30.16,M,10.00,M,CLR,M,M,M,M,M,M,M,M,M,M,M,M,M,M,62.60,KTMT 170915Z AUTO 11004KT 10SM CLR 17/09 A3016 RMK AO2 T01700091,M
CXP,2022-07-17 09:35,-119.7326,39.1923,1431.00,73.40,41.00,31.05,0.00,0.00,0.00,30.10,M,10.00,M,FEW,M,M,M,12000.00,M,M,M,M,M,M,M,M,M,M,73.40,KCXP 170935Z AUTO 00000KT 10SM FEW120 23/05 A3010 RMK AO2,M
BVU,2022-07-17 09:35,-114.8611,35.9475,671.00,M,M,M,M,M,0.00,M,M,M,M,M,M,M,M,M,M,M,M,M,M,M,M,M,M,M,M,KBVU 170935Z AUTO RMK AO2 PNO PWINO TSNO,M
RTS,2022-07-17 09:35,-119.8764,39.6682,1539.00,73.40,32.00,21.76,M,5.00,0.00,30.12,M,10.00,10.00,FEW,M,M,M,12000.00,M,M,M,M,M,M,M,M,M,M,73.40,KRTS 170935Z AUTO VRB05G10KT 10SM FEW120 23/00 A3012 RMK AO2,M
05U,2022-07-17 09:35,-116.0051,39.6042,1811.23,62.60,44.60,51.72,0.00,0.00,0.00,30.19,M,10.00,M,CLR,M,M,M,M,M,M,M,M,M,M,M,M,M,M,62.60,K05U 170935Z AUTO 00000KT 10SM CLR 17/07 A3019 RMK A01,M
MEV,2022-07-17 09:35,-119.7500,38.9963,1441.42,64.40,46.40,51.98,0.00,0.00,0.00,30.09,M,10.00,M,BKN,M,M,M,12000.00,M,M,M,M,M,M,M,M,M,M,64.40,KMEV 170935Z AUTO 00000KT 10SM BKN120 18/08 A3009 RMK AO2,M
BAM,2022-07-17 09:35,-116.8743,40.5990,1382.36,M,M,M,270.00,6.00,0.00,30.05,M,10.00,M,CLR,M,M,M,M,M,M,M,M,M,M,M,M,M,M,M,KBAM 170935Z AUTO 27006KT 10SM CLR A3005 RMK AO1,M
HTH,2022-07-17 09:35,-118.6315,38.5448,1282.89,75.20,44.60,33.57,250.00,5.00,0.00,30.04,M,10.00,M,CLR,M,M,M,M,M,M,M,M,M,M,M,M,M,M,75.20,KHTH 170935Z AUTO 25005KT 10SM CLR 24/07 A3004 RMK A01,M
TMT,2022-07-17 09:35,-117.1971,39.4643,1749.34,60.80,46.80,59.91,140.00,5.00,0.00,30.16,M,10.00,M,SCT,M,M,M,12000.00,M,M,M,M,M,M,M,M,M,M,60.80,KTMT 170935Z AUTO 14005KT 10SM SCT120 16/08 A3016 RMK AO2 T01600082,M
VGT,2022-07-17 09:53,-115.1933,36.2111,667.00,91.00,52.00,26.57,80.00,4.00,0.00,29.84,1008.60,10.00,M,CLR,M,M,M,M,M,M,M,M,M,M,M,M,M,M,88.35,KVGT 170953Z AUTO 08004KT 10SM CLR 33/11 A2984 RMK AO2 SLP086 T03280111,M
ELY,2022-07-17 09:53,-114.8453,39.2950,1909.00,57.00,34.00,41.76,180.00,5.00,0.00,30.21,1011.40,10.00,M,CLR,M,M,M,M,M,M,M,M,M,M,M,M,M,M,57.00,KELY 170953Z AUTO 18005KT 10SM CLR 14/01 A3021 RMK AO2 SLP114 T01390011,M
P68,2022-07-17 09:53,-116.0056,39.6014,1993.00,64.00,44.00,48.31,200.00,6.00,0.00,30.16,1011.50,M,M,M,M,M,M,M,M,M,M,M,M,M,M,M,M,M,64.00,KP68 170953Z AUTO 20006KT 18/07 A3016 RMK AO1 SLP115 T01780067,M
LOL,2022-07-17 09:53,-118.5701,40.0684,1192.43,77.00,37.00,23.55,0.00,0.00,0.00,30.00,1010.40,10.00,M,CLR,M,M,M,M,M,M,M,M,M,M,M,M,M,M,77.00,KLOL 170953Z AUTO 00000KT 10SM CLR 25/03 A3000 RMK AO2 SLP104 T02500028,M
DRA,2022-07-17 09:53,-116.0278,36.6206,1009.00,85.00,48.00,27.79,100.00,9.00,0.00,29.92,1006.90,10.00,M,CLR,M,M,M,M,M,M,M,M,M,M,M,M,M,M,82.53,KDRA 170953Z AUTO 10009KT 10SM CLR 29/09 A2992 RMK AO2 SLP069 T02940089,M
05U,2022-07-17 09:55,-116.0051,39.6042,1811.23,62.60,44.60,51.72,0.00,0.00,0.00,30.19,M,10.00,M,CLR,M,M,M,M,M,M,M,M,M,M,M,M,M,M,62.60,K05U 170955Z AUTO 00000KT 10SM CLR 17/07 A3019 RMK A01,M
BVU,2022-07-17 09:55,-114.8611,35.9475,671.00,M,M,M,M,M,0.00,M,M,M,M,M,M,M,M,M,M,M,M,M,M,M,M,M,M,M,M,KBVU 170955Z AUTO RMK AO2 PNO PWINO TSNO,M
CXP,2022-07-17 09:55,-119.7326,39.1923,1431.00,71.60,41.00,33.00,0.00,0.00,0.00,30.09,M,10.00,M,CLR,M,M,M,M,M,M,M,M,M,M,M,M,M,M,71.60,KCXP 170955Z AUTO 00000KT 10SM CLR 22/05 A3009 RMK AO2,M
RNO,2022-07-17 09:55,-119.7711,39.4839,1341.00,74.00,43.00,32.98,0.00,0.00,0.00,30.06,1010.90,10.00,M,SCT,BKN,M,M,13000.00,18000.00,M,M,M,M,M,M,M,M,M,73.90,KRNO 170955Z 00000KT 10SM SCT130 BKN180 23/06 A3006 RMK AO2 SLP109 T02330061,M
RTS,2022-07-17 09:55,-119.8764,39.6682,1539.00,73.40,33.80,23.39,M,7.00,0.00,30.12,M,10.00,M,SCT,M,M,M,12000.00,M,M,M,M,M,M,M,M,M,M,73.40,KRTS 170955Z AUTO VRB07KT 10SM SCT120 23/01 A3012 RMK AO2,M
MEV,2022-07-17 09:55,-119.7500,38.9963,1441.42,62.60,46.40,55.37,0.00,0.00,0.00,30.08,M,10.00,M,FEW,M,M,M,12000.00,M,M,M,M,M,M,M,M,M,M,62.60,KMEV 170955Z AUTO 00000KT 10SM FEW120 17/08 A3008 RMK AO2,M
BAM,2022-07-17 09:55,-116.8743,40.5990,1382.36,M,M,M,150.00,3.00,0.00,30.05,M,10.00,M,CLR,M,M,M,M,M,M,M,M,M,M,M,M,M,M,M,KBAM 170955Z AUTO 15003KT 10SM CLR A3005 RMK AO1,M
HTH,2022-07-17 09:55,-118.6315,38.5448,1282.89,75.20,46.40,35.94,0.00,0.00,0.00,30.04,M,10.00,M,CLR,M,M,M,M,M,M,M,M,M,M,M,M,M,M,75.20,KHTH 170955Z AUTO 00000KT 10SM CLR 24/08 A3004 RMK A01,M
TMT,2022-07-17 09:55,-117.1971,39.4643,1749.34,62.00,47.80,59.83,0.00,0.00,0.00,30.16,M,10.00,M,SCT,M,M,M,12000.00,M,M,M,M,M,M,M,M,M,M,61.90,KTMT 170955Z AUTO 00000KT 10SM SCT120 17/09 A3016 RMK AO2 T01660088,M
HND,2022-07-17 09:56,-115.1344,35.9729,742.79,M,M,M,M,M,0.00,M,M,M,M,M,M,M,M,M,M,M,M,M,M,M,M,M,M,M,M,KHND 170956Z AUTO RMK AO2 SLPNO PWINO FZRANO $,M
LAS,2022-07-17 09:56,-115.1634,36.0719,663.00,93.00,56.00,28.79,190.00,8.00,0.00,29.85,1007.30,10.00,15.00,FEW,SCT,M,M,14000.00,25000.00,M,M,M,M,M,M,M,M,M,91.29,KLAS 170956Z 19008G15KT 10SM FEW140 SCT250 34/13 A2985 RMK AO2 SLP073 T03390133,M
WMC,2022-07-17 09:56,-117.8072,40.9019,1315.00,76.00,40.00,27.37,0.00,0.00,0.00,30.03,1010.40,10.00,M,CLR,M,M,M,M,M,M,M,M,M,M,M,M,M,M,75.90,KWMC 170956Z AUTO 00000KT 10SM CLR 24/04 A3003 RMK AO2 SLP104 T02440044 TSNO,M
NFL,2022-07-17 09:56,-118.7010,39.4166,1199.00,75.00,41.00,29.43,0.00,0.00,0.00,30.01,1013.10,10.00,M,CLR,M,M,M,M,M,M,M,M,M,M,M,M,M,M,75.00,KNFL 170956Z AUTO 00000KT 10SM CLR 24/05 A3001 RMK AO2 SLP131 T02390050,M
TPH,2022-07-17 09:56,-117.0904,38.0505,1654.00,68.00,52.00,56.55,350.00,5.00,0.00,30.13,1010.80,10.00,M,CLR,M,M,M,M,M,M,M,M,M,M,M,M,M,M,68.00,KTPH 170956Z AUTO 35005KT 10SM CLR 20/11 A3013 RMK AO2 SLP108 T02000111,M
EKO,2022-07-17 09:56,-115.7860,40.8242,1367.00,64.00,41.00,42.88,210.00,3.00,0.00,30.09,1011.80,10.00,M,CLR,M,M,M,M,M,M,M,M,M,M,M,M,M,M,64.00,KEKO 170956Z AUTO 21003KT 10SM CLR 18/05 A3009 RMK AO2 SLP118 T01780050,M
INS,2022-07-17 09:58,-115.6733,36.5872,955.00,81.30,44.00,26.93,0.00,0.00,0.00,29.92,1007.40,10.00,M,CLR,M,M,M,M,M,M,M,M,M,M,M,M,M,M,79.79,KINS 170958Z AUTO 00000KT 10SM CLR 27/07 A2992 RMK AO2 SLP074 T02740067 $,M
LSV,2022-07-17 09:58,-115.0343,36.2362,570.00,91.00,54.00,28.79,0.00,0.00,0.00,29.82,1006.50,10.00,M,OVC,M,M,M,16000.00,M,M,M,M,M,M,M,M,M,M,88.71,KLSV 170958Z AUTO 00000KT 10SM OVC160 33/12 A2982 RMK AO2 LTG DSNT E SLP065 T03270123 $,M
05U,2022-07-17 10:10,-116.0051,39.6042,1811.23,62.60,44.60,51.72,200.00,4.00,0.00,30.19,M,10.00,M,CLR,M,M,M,M,M,M,M,M,M,M,M,M,M,M,62.60,K05U 171010Z AUTO 20004KT 10SM CLR 17/07 A3019 RMK A01,M
TMT,2022-07-17 10:15,-117.1971,39.4643,1749.34,62.20,48.40,60.55,0.00,0.00,0.00,30.16,M,10.00,M,SCT,M,M,M,12000.00,M,M,M,M,M,M,M,M,M,M,62.20,KTMT 171015Z AUTO 00000KT 10SM SCT120 17/09 A3016 RMK AO2 T01680091,M
HTH,2022-07-17 10:15,-118.6315,38.5448,1282.89,73.40,46.40,38.18,170.00,3.00,0.00,30.04,M,10.00,M,CLR,M,M,M,M,M,M,M,M,M,M,M,M,M,M,73.40,KHTH 171015Z AUTO 17003KT 10SM CLR 23/08 A3004 RMK A01,M
BAM,2022-07-17 10:15,-116.8743,40.5990,1382.36,M,M,M,0.00,0.00,0.00,30.05,M,10.00,M,CLR,M,M,M,M,M,M,M,M,M,M,M,M,M,M,M,KBAM 171015Z AUTO 00000KT 10SM CLR A3005 RMK AO1,M
MEV,2022-07-17 10:15,-119.7500,38.9963,1441.42,62.60,44.60,51.72,130.00,4.00,0.00,30.08,M,10.00,M,CLR,M,M,M,M,M,M,M,M,M,M,M,M,M,M,62.60,KMEV 171015Z AUTO 13004KT 10SM CLR 17/07 A3008 RMK AO2,M
RTS,2022-07-17 10:15,-119.8764,39.6682,1539.00,75.20,32.00,20.49,0.00,0.00,0.00,30.12,M,10.00,10.00,BKN,M,M,M,12000.00,M,M,M,M,M,M,M,M,M,M,75.20,KRTS 171015Z AUTO 00000G10KT 10SM BKN120 24/00 A3012 RMK AO2,M
BVU,2022-07-17 10:15,-114.8611,35.9475,671.00,M,M,M,M,M,0.00,M,M,M,M,M,M,M,M,M,M,M,M,M,M,M,M,M,M,M,M,KBVU 171015Z AUTO RMK AO2 PNO PWINO TSNO,M
CXP,2022-07-17 10:15,-119.7326,39.1923,1431.00,69.80,41.00,35.09,0.00,0.00,0.00,30.10,M,10.00,M,CLR,M,M,M,M,M,M,M,M,M,M,M,M,M,M,69.80,KCXP 171015Z AUTO 00000KT 10SM CLR 21/05 A3010 RMK AO2,M
BAM,2022-07-17 10:35,-116.8743,40.5990,1382.36,M,M,M,0.00,0.00,0.00,30.05,M,10.00,M,BKN,M,M,M,12000.00,M,M,M,M,M,M,M,M,M,M,M,KBAM 171035Z AUTO 00000KT 10SM BKN120 A3005 RMK AO1,M
05U,2022-07-17 10:35,-116.0051,39.6042,1811.23,62.60,44.60,51.72,180.00,6.00,0.00,30.19,M,10.00,M,CLR,M,M,M,M,M,M,M,M,M,M,M,M,M,M,62.60,K05U 171035Z AUTO 18006KT 10SM CLR 17/07 A3019 RMK A01,M
MEV,2022-07-17 10:35,-119.7500,38.9963,1441.42,60.80,44.60,55.12,220.00,5.00,0.00,30.09,M,10.00,M,CLR,M,M,M,M,M,M,M,M,M,M,M,M,M,M,60.80,KMEV 171035Z AUTO 22005KT 10SM CLR 16/07 A3009 RMK AO2,M
RTS,2022-07-17 10:35,-119.8764,39.6682,1539.00,73.40,32.00,21.76,M,4.00,0.00,30.12,M,10.00,M,BKN,M,M,M,12000.00,M,M,M,M,M,M,M,M,M,M,73.40,KRTS 171035Z AUTO VRB04KT 10SM BKN120 23/00 A3012 RMK AO2,M
CXP,2022-07-17 10:35,-119.7326,39.1923,1431.00,69.80,39.20,32.72,0.00,0.00,0.00,30.09,M,10.00,M,CLR,M,M,M,M,M,M,M,M,M,M,M,M,M,M,69.80,KCXP 171035Z AUTO 00000KT 10SM CLR 21/04 A3009 RMK AO2,M
BVU,2022-07-17 10:35,-114.8611,35.9475,671.00,M,M,M,M,M,0.00,M,M,M,M,M,M,M,M,M,M,M,M,M,M,M,M,M,M,M,M,KBVU 171035Z AUTO RMK AO2 PNO PWINO TSNO,M
TMT,2022-07-17 10:35,-117.1971,39.4643,1749.34,60.40,48.60,65.02,260.00,4.00,0.00,30.17,M,10.00,M,CLR,M,M,M,M,M,M,M,M,M,M,M,M,M,M,60.40,KTMT 171035Z AUTO 26004KT 10SM CLR 16/09 A3017 RMK AO2 T01580092,M
HTH,2022-07-17 10:35,-118.6315,38.5448,1282.89,73.40,46.40,38.18,0.00,0.00,0.00,30.04,M,10.00,M,CLR,M,M,M,M,M,M,M,M,M,M,M,M,M,M,73.40,KHTH 171035Z AUTO 00000KT 10SM CLR 23/08 A3004 RMK A01,M
CXP,2022-07-17 10:50,-119.7326,39.1923,1431.00,69.80,39.20,32.72,0.00,0.00,0.00,30.10,M,10.00,M,CLR,M,M,M,M,M,M,M,M,M,M,M,M,M,M,69.80,KCXP 171050Z AUTO 00000KT 10SM CLR 21/04 A3010 RMK AO2,M
ELY,2022-07-17 10:53,-114.8453,39.2950,1909.00,55.00,34.00,44.90,170.00,4.00,0.00,30.21,1011.90,10.00,M,CLR,M,M,M,M,M,M,M,M,M,M,M,M,M,M,55.00,KELY 171053Z AUTO 17004KT 10SM CLR 13/01 A3021 RMK AO2 SLP119 T01280011,M
DRA,2022-07-17 10:53,-116.0278,36.6206,1009.00,84.00,48.00,28.60,350.00,4.00,0.00,29.92,1006.80,10.00,M,CLR,M,M,M,M,M,M,M,M,M,M,M,M,M,M,81.87,KDRA 171053Z AUTO 35004KT 10SM CLR 29/09 A2992 RMK AO2 SLP068 T02890089,M
VGT,2022-07-17 10:53,-115.1933,36.2111,667.00,93.00,55.00,27.87,0.00,0.00,0.00,29.85,1008.90,10.00,M,CLR,M,M,M,M,M,M,M,M,M,M,M,M,M,M,91.03,KVGT 171053Z AUTO 00000KT 10SM CLR 34/13 A2985 RMK AO2 SLP089 T03390128,M
P68,2022-07-17 10:53,-116.0056,39.6014,1993.00,61.00,44.00,53.69,150.00,7.00,0.00,30.16,1012.20,M,M,M,M,M,M,M,M,M,M,M,M,M,M,M,M,M,61.00,KP68 171053Z AUTO 15007KT 16/07 A3016 RMK AO1 SLP122 T01610067,M
LOL,2022-07-17 10:53,-118.5701,40.0684,1192.43,73.00,38.00,27.89,310.00,3.00,0.00,30.01,1010.70,10.00,M,CLR,M,M,M,M,M,M,M,M,M,M,M,M,M,M,73.00,KLOL 171053Z AUTO 31003KT 10SM CLR 23/03 A3001 RMK AO2 SLP107 T02280033,M
HTH,2022-07-17 10:55,-118.6315,38.5448,1282.89,71.60,46.40,40.57,0.00,0.00,0.00,30.05,M,10.00,M,CLR,M,M,M,M,M,M,M,M,M,M,M,M,M,M,71.60,KHTH 171055Z AUTO 00000KT 10SM CLR 22/08 A3005 RMK A01,M
BAM,2022-07-17 10:55,-116.8743,40.5990,1382.36,M,M,M,130.00,6.00,0.00,30.05,M,10.00,M,SCT,M,M,M,12000.00,M,M,M,M,M,M,M,M,M,M,M,KBAM 171055Z AUTO 13006KT 10SM SCT120 A3005 RMK AO1,M
05U,2022-07-17 10:55,-116.0051,39.6042,1811.23,62.60,44.60,51.72,140.00,3.00,0.00,30.18,M,10.00,M,CLR,M,M,M,M,M,M,M,M,M,M,M,M,M,M,62.60,K05U 171055Z AUTO 14003KT 10SM CLR 17/07 A3018 RMK A01,M
RNO,2022-07-17 10:55,-119.7711,39.4839,1341.00,72.00,45.00,37.96,170.00,3.00,0.00,30.07,1011.10,10.00,M,FEW,SCT,M,M,12000.00,18000.00,M,M,M,M,M,M,M,M,M,72.00,KRNO 171055Z 17003KT 10SM FEW120 SCT180 22/07 A3007 RMK AO2 SLP111 T02220072,M
MEV,2022-07-17 10:55,-119.7500,38.9963,1441.42,59.00,46.40,62.92,0.00,0.00,0.00,30.08,M,10.00,M,CLR,M,M,M,M,M,M,M,M,M,M,M,M,M,M,59.00,KMEV 171055Z AUTO 00000KT 10SM CLR 15/08 A3008 RMK AO2,M
TMT,2022-07-17 10:55,-117.1971,39.4643,1749.34,62.60,48.40,59.70,0.00,0.00,0.00,30.16,M,10.00,M,CLR,M,M,M,M,M,M,M,M,M,M,M,M,M,M,62.60,KTMT 171055Z AUTO 00000KT 10SM CLR 17/09 A3016 RMK AO2 T01700091,M
RTS,2022-07-17 10:55,-119.8764,39.6682,1539.00,73.40,33.80,23.39,0.00,0.00,0.00,30.12,M,10.00,M,BKN,M,M,M,12000.00,M,M,M,M,M,M,M,M,M,M,73.40,KRTS 171055Z AUTO 00000KT 10SM BKN120 23/01 A3012 RMK AO2,M
BVU,2022-07-17 10:55,-114.8611,35.9475,671.00,M,M,M,M,M,0.00,M,M,M,M,M,M,M,M,M,M,M,M,M,M,M,M,M,M,M,M,KBVU 171055Z AUTO RMK AO2 PNO PWINO TSNO,M
EKO,2022-07-17 10:56,-115.7860,40.8242,1367.00,68.00,39.00,34.53,0.00,0.00,0.00,30.08,1011.40,10.00,M,CLR,M,M,M,M,M,M,M,M,M,M,M,M,M,M,68.00,KEKO 171056Z AUTO 00000KT 10SM CLR 20/04 A3008 RMK AO2 SLP114 T02000039,M
HND,2022-07-17 10:56,-115.1344,35.9729,742.79,M,M,M,M,M,0.00,M,M,M,M,M,M,M,M,M,M,M,M,M,M,M,M,M,M,M,M,KHND 171056Z AUTO RMK AO2 SLPNO PWINO FZRANO $,M
LAS,2022-07-17 10:56,-115.1634,36.0719,663.00,93.00,56.00,28.79,190.00,11.00,0.00,29.84,1007.00,10.00,20.00,FEW,SCT,M,M,14000.00,25000.00,M,M,M,M,M,M,M,M,M,91.29,KLAS 171056Z 19011G20KT 10SM FEW140 SCT250 34/13 A2984 RMK AO2 SLP070 T03390133,M
TPH,2022-07-17 10:56,-117.0904,38.0505,1654.00,70.00,47.00,43.66,10.00,5.00,0.00,30.14,1010.50,10.00,M,CLR,M,M,M,M,M,M,M,M,M,M,M,M,M,M,70.00,KTPH 171056Z AUTO 01005KT 10SM CLR 21/08 A3014 RMK AO2 SLP105 T02110083,M
WMC,2022-07-17 10:56,-117.8072,40.9019,1315.00,74.00,40.00,29.26,120.00,4.00,0.00,30.04,1010.50,10.00,M,CLR,M,M,M,M,M,M,M,M,M,M,M,M,M,M,73.90,KWMC 171056Z AUTO 12004KT 10SM CLR 23/04 A3004 RMK AO2 SLP105 T02330044 TSNO,M
NFL,2022-07-17 10:56,-118.7010,39.4166,1199.00,72.00,45.00,37.96,0.00,0.00,0.00,30.01,1013.30,10.00,M,CLR,M,M,M,M,M,M,M,M,M,M,M,M,M,M,72.00,KNFL 171056Z AUTO 00000KT 10SM CLR 22/07 A3001 RMK AO2 SLP133 T02220072,M
LSV,2022-07-17 10:58,-115.0343,36.2362,570.00,95.40,57.00,27.82,170.00,14.00,0.00,29.83,1006.80,10.00,M,FEW,M,M,M,17000.00,M,M,M,M,M,M,M,M,M,M,94.18,KLSV 171058Z AUTO 17014KT 10SM FEW170 35/14 A2983 RMK AO2 LTG DSNT NE SLP068 T03520139 $,M
INS,2022-07-17 10:58,-115.6733,36.5872,955.00,80.80,44.60,27.90,0.00,0.00,0.00,29.92,1007.40,10.00,M,SCT,M,M,M,19000.00,M,M,M,M,M,M,M,M,M,M,79.54,KINS 171058Z AUTO 00000KT 10SM SCT190 27/07 A2992 RMK AO2 SLP074 T02710070 $,M
BAM,2022-07-17 11:15,-116.8743,40.5990,1382.36,M,M,M,160.00,5.00,0.00,30.05,M,10.00,M,CLR,M,M,M,M,M,M,M,M,M,M,M,M,M,M,M,KBAM 171115Z AUTO 16005KT 10SM CLR A3005 RMK AO1,M
05U,2022-07-17 11:15,-116.0051,39.6042,1811.23,60.80,44.60,55.12,0.00,0.00,0.00,30.19,M,10.00,M,CLR,M,M,M,M,M,M,M,M,M,M,M,M,M,M,60.80,K05U 171115Z AUTO 00000KT 10SM CLR 16/07 A3019 RMK A01,M
BVU,2022-07-17 11:15,-114.8611,35.9475,671.00,M,M,M,M,M,0.00,M,M,M,M,M,M,M,M,M,M,M,M,M,M,M,M,M,M,M,M,KBVU 171115Z AUTO RMK AO2 PNO PWINO TSNO,M
RTS,2022-07-17 11:15,-119.8764,39.6682,1539.00,71.60,33.80,24.86,100.00,4.00,0.00,30.12,M,10.00,M,FEW,M,M,M,12000.00,M,M,M,M,M,M,M,M,M,M,71.60,KRTS 171115Z AUTO 10004KT 10SM FEW120 22/01 A3012 RMK AO2,M
CXP,2022-07-17 11:15,-119.7326,39.1923,1431.00,69.80,39.20,32.72,0.00,0.00,0.00,30.09,M,10.00,M,CLR,M,M,M,M,M,M,M,M,M,M,M,M,M,M,69.80,KCXP 171115Z AUTO 00000KT 10SM CLR 21/04 A3009 RMK AO2,M
TMT,2022-07-17 11:15,-117.1971,39.4643,1749.34,63.70,51.40,64.22,0.00,0.00,0.00,30.16,M,10.00,M,CLR,M,M,M,M,M,M,M,M,M,M,M,M,M,M,63.70,KTMT 171115Z AUTO 00000KT 10SM CLR 18/11 A3016 RMK AO2 T01760108,M
HTH,2022-07-17 11:15,-118.6315,38.5448,1282.89,73.40,46.40,38.18,240.00,4.00,0.00,30.04,M,10.00,M,CLR,M,M,M,M,M,M,M,M,M,M,M,M,M,M,73.40,KHTH 171115Z AUTO 24004KT 10SM CLR 23/08 A3004 RMK A01,M
MEV,2022-07-17 11:15,-119.7500,38.9963,1441.42,59.00,46.40,62.92,0.00,0.00,0.00,30.08,M,10.00,M,CLR,M,M,M,M,M,M,M,M,M,M,M,M,M,M,59.00,KMEV 171115Z AUTO 00000KT 10SM CLR 15/08 A3008 RMK AO2,M
MEV,2022-07-17 11:35,-119.7500,38.9963,1441.42,57.20,44.60,62.69,0.00,0.00,0.00,30.08,M,10.00,M,CLR,M,M,M,M,M,M,M,M,M,M,M,M,M,M,57.20,KMEV 171135Z AUTO 00000KT 10SM CLR 14/07 A3008 RMK AO2,M
CXP,2022-07-17 11:35,-119.7326,39.1923,1431.00,68.00,41.00,37.32,0.00,0.00,0.00,30.09,M,10.00,M,CLR,M,M,M,M,M,M,M,M,M,M,M,M,M,M,68.00,KCXP 171135Z AUTO 00000KT 10SM CLR 20/05 A3009 RMK AO2,M
TMT,2022-07-17 11:35,-117.1971,39.4643,1749.34,58.00,47.00,67.21,0.00,0.00,0.00,30.17,M,10.00,M,CLR,M,M,M,M,M,M,M,M,M,M,M,M,M,M,57.90,KTMT 171135Z AUTO 00000KT 10SM CLR 14/08 A3017 RMK AO2 T01440084,M
BVU,2022-07-17 11:35,-114.8611,35.9475,671.00,M,M,M,M,M,0.00,M,M,M,M,M,M,M,M,M,M,M,M,M,M,M,M,M,M,M,M,KBVU 171135Z AUTO RMK AO2 PNO PWINO TSNO,M
BAM,2022-07-17 11:35,-116.8743,40.5990,1382.36,M,M,M,230.00,6.00,0.00,30.05,M,10.00,M,CLR,M,M,M,M,M,M,M,M,M,M,M,M,M,M,M,KBAM 171135Z AUTO 23006KT 10SM CLR A3005 RMK AO1,M
HTH,2022-07-17 11:35,-118.6315,38.5448,1282.89,73.40,46.40,38.18,0.00,0.00,0.00,30.04,M,10.00,M,FEW,M,M,M,12000.00,M,M,M,M,M,M,M,M,M,M,73.40,KHTH 171135Z AUTO 00000KT 10SM FEW120 23/08 A3004 RMK A01,M
RTS,2022-07-17 11:35,-119.8764,39.6682,1539.00,69.80,35.60,28.39,M,4.00,0.00,30.12,M,10.00,M,FEW,M,M,M,12000.00,M,M,M,M,M,M,M,M,M,M,69.80,KRTS 171135Z AUTO VRB04KT 10SM FEW120 21/02 A3012 RMK AO2,M
05U,2022-07-17 11:35,-116.0051,39.6042,1811.23,59.00,44.60,58.77,0.00,0.00,0.00,30.19,M,10.00,M,CLR,M,M,M,M,M,M,M,M,M,M,M,M,M,M,59.00,K05U 171135Z AUTO 00000KT 10SM CLR 15/07 A3019 RMK A01,M
VGT,2022-07-17 11:53,-115.1933,36.2111,667.00,92.00,55.00,28.84,80.00,4.00,0.00,29.87,1009.70,10.00,M,CLR,M,M,M,M,M,M,M,M,M,M,M,M,M,M,89.92,KVGT 171153Z AUTO 08004KT 10SM CLR 33/13 A2987 RMK AO2 LTG DSNT E SLP097 T03330128 10356 20328 53012,M
LOL,2022-07-17 11:53,-118.5701,40.0684,1192.43,68.00,36.00,30.69,170.00,4.00,0.00,30.00,1010.70,10.00,M,CLR,M,M,M,M,M,M,M,M,M,M,M,M,M,M,68.00,KLOL 171153Z AUTO 17004KT 10SM CLR 20/02 A3000 RMK AO2 SLP107 T02000022 10311 20200 50001,M
ELY,2022-07-17 11:53,-114.8453,39.2950,1909.00,55.00,32.00,41.44,160.00,6.00,0.00,30.22,1012.00,10.00,M,CLR,M,M,M,M,M,M,M,M,M,M,M,M,M,M,55.00,KELY 171153Z AUTO 16006KT 10SM CLR 13/00 A3022 RMK AO2 SLP120 T01280000 10183 20128 51003,M
DRA,2022-07-17 11:53,-116.0278,36.6206,1009.00,82.00,47.00,29.28,0.00,0.00,0.00,29.93,1007.20,10.00,M,CLR,M,M,M,M,M,M,M,M,M,M,M,M,M,M,80.43,KDRA 171153Z AUTO 00000KT 10SM CLR 28/08 A2993 RMK AO2 SLP072 T02780083 10328 20278 53003,M
P68,2022-07-17 11:53,-116.0056,39.6014,1993.00,59.00,46.00,61.98,0.00,0.00,0.00,30.17,1012.60,M,M,M,M,M,M,M,M,M,M,M,M,M,M,M,M,M,59.00,KP68 171153Z AUTO 00000KT 15/08 A3017 RMK AO1 SLP126 T01500078 10211 20144 53003,M
HTH,2022-07-17 11:55,-118.6315,38.5448,1282.89,73.40,46.40,38.18,0.00,0.00,0.00,30.05,M,10.00,M,BKN,M,M,M,12000.00,M,M,M,M,M,M,M,M,M,M,73.40,KHTH 171155Z AUTO 00000KT 10SM BKN120 23/08 A3005 RMK A01,M
BAM,2022-07-17 11:55,-116.8743,40.5990,1382.36,M,M,M,230.00,4.00,0.00,30.05,M,10.00,M,CLR,M,M,M,M,M,M,M,M,M,M,M,M,M,M,M,KBAM 171155Z AUTO 23004KT 10SM CLR A3005 RMK AO1,M
MEV,2022-07-17 11:55,-119.7500,38.9963,1441.42,59.00,46.40,62.92,0.00,0.00,0.00,30.08,M,10.00,M,CLR,M,M,M,M,M,M,M,M,M,M,M,M,M,M,59.00,KMEV 171155Z AUTO 00000KT 10SM CLR 15/08 A3008 RMK AO2,M
BVU,2022-07-17 11:55,-114.8611,35.9475,671.00,M,M,M,M,M,0.00,M,M,M,M,M,M,M,M,M,M,M,M,M,M,M,M,M,M,M,M,KBVU 171155Z AUTO RMK AO2 PNO PWINO TSNO,M
05U,2022-07-17 11:55,-116.0051,39.6042,1811.23,59.00,46.40,62.92,0.00,0.00,0.00,30.19,M,10.00,M,CLR,M,M,M,M,M,M,M,M,M,M,M,M,M,M,59.00,K05U 171155Z AUTO 00000KT 10SM CLR 15/08 A3019 RMK A01,M
RTS,2022-07-17 11:55,-119.8764,39.6682,1539.00,69.80,35.60,28.39,120.00,3.00,0.00,30.11,M,10.00,M,SCT,M,M,M,12000.00,M,M,M,M,M,M,M,M,M,M,69.80,KRTS 171155Z AUTO 12003KT 10SM SCT120 21/02 A3011 RMK AO2,M
CXP,2022-07-17 11:55,-119.7326,39.1923,1431.00,68.00,41.00,37.32,0.00,0.00,0.00,30.09,M,10.00,M,CLR,M,M,M,M,M,M,M,M,M,M,M,M,M,M,68.00,KCXP 171155Z AUTO 00000KT 10SM CLR 20/05 A3009 RMK AO2,M
RNO,2022-07-17 11:55,-119.7711,39.4839,1341.00,70.00,45.00,40.63,180.00,4.00,0.00,30.06,1011.00,10.00,M,FEW,SCT,M,M,12000.00,18000.00,M,M,M,M,M,M,M,M,M,70.00,KRNO 171155Z 18004KT 10SM FEW120 SCT180 21/07 A3006 RMK AO2 SLP110 T02110072 10283 20211 58001,M
TMT,2022-07-17 11:55,-117.1971,39.4643,1749.34,55.60,45.30,68.22,140.00,4.00,0.00,30.17,M,10.00,M,CLR,M,M,M,M,M,M,M,M,M,M,M,M,M,M,55.60,KTMT 171155Z AUTO 14004KT 10SM CLR 13/07 A3017 RMK AO2 T01310074 10226 20127,M
HND,2022-07-17 11:56,-115.1344,35.9729,742.79,M,M,M,M,M,0.00,M,M,M,M,M,M,M,M,M,M,M,M,M,M,M,M,M,M,M,M,KHND 171156Z AUTO RMK AO2 SLPNO 6//// 7//// PWINO FZRANO $,M
NFL,2022-07-17 11:56,-118.7010,39.4166,1199.00,67.00,45.00,45.19,170.00,3.00,0.00,30.00,1013.00,10.00,M,CLR,M,M,M,M,M,M,M,M,M,M,M,M,M,M,66.90,KNFL 171156Z AUTO 17003KT 10SM CLR 19/07 A3000 RMK AO2 SLP130 T01940072 10306 20194 58002,M
EKO,2022-07-17 11:56,-115.7860,40.8242,1367.00,64.00,40.00,41.09,0.00,0.00,0.00,30.09,1011.70,10.00,M,CLR,M,M,M,M,M,M,M,M,M,M,M,M,M,M,64.00,KEKO 171156Z AUTO 00000KT 10SM CLR 18/04 A3009 RMK AO2 SLP117 T01780044 10278 20167 51004,M
LAS,2022-07-17 11:56,-115.1634,36.0719,663.00,91.00,56.00,30.65,60.00,5.00,0.00,29.88,1008.60,10.00,M,SCT,BKN,M,M,13000.00,25000.00,M,M,M,M,M,M,M,M,M,89.27,KLAS 171156Z 06005KT 10SM SCT130 BKN250 33/13 A2988 RMK AO2 SLP086 T03280133 10344 20328 53015,M
WMC,2022-07-17 11:56,-117.8072,40.9019,1315.00,74.00,41.00,30.54,0.00,0.00,0.00,30.03,1010.40,10.00,M,CLR,M,M,M,M,M,M,M,M,M,M,M,M,M,M,73.90,KWMC 171156Z AUTO 00000KT 10SM CLR 23/05 A3003 RMK AO2 SLP104 T02330050 10294 20222 50002 TSNO,M
TPH,2022-07-17 11:56,-117.0904,38.0505,1654.00,67.00,49.00,52.35,350.00,6.00,0.00,30.14,1010.90,10.00,M,CLR,M,M,M,M,M,M,M,M,M,M,M,M,M,M,66.90,KTPH 171156Z AUTO 35006KT 10SM CLR 19/09 A3014 RMK AO2 SLP109 T01940094 10289 20194 51002,M
LSV,2022-07-17 11:58,-115.0343,36.2362,570.00,93.70,57.60,29.96,120.00,9.00,0.00,29.85,1007.40,10.00,M,FEW,SCT,M,M,16000.00,19000.00,M,M,M,M,M,M,M,M,M,92.58,KLSV 171158Z AUTO 12009KT 10SM FEW160 SCT190 34/14 A2985 RMK AO2 LTG DSNT NE SLP074 T03430142 10365 20326 52014 $,M
INS,2022-07-17 11:58,-115.6733,36.5872,955.00,82.20,45.00,27.07,40.00,4.00,0.00,29.93,1007.60,10.00,M,FEW,M,M,M,19000.00,M,M,M,M,M,M,M,M,M,M,80.41,KINS 171158Z AUTO 04004KT 10SM FEW190 28/07 A2993 RMK AO2 SLP076 T02790072 10328 20270 53005 $,M
RTS,2022-07-17 12:15,-119.8764,39.6682,1539.00,68.00,33.80,28.11,70.00,3.00,0.00,30.11,M,10.00,M,FEW,M,M,M,12000.00,M,M,M,M,M,M,M,M,M,M,68.00,KRTS 171215Z AUTO 07003KT 10SM FEW120 20/01 A3011 RMK AO2,M
05U,2022-07-17 12:15,-116.0051,39.6042,1811.23,59.00,46.40,62.92,0.00,0.00,0.00,30.19,M,10.00,M,CLR,M,M,M,M,M,M,M,M,M,M,M,M,M,M,59.00,K05U 171215Z AUTO 00000KT 10SM CLR 15/08 A3019 RMK A01,M
MEV,2022-07-17 12:15,-119.7500,38.9963,1441.42,59.00,44.60,58.77,0.00,0.00,0.00,30.08,M,10.00,M,FEW,M,M,M,12000.00,M,M,M,M,M,M,M,M,M,M,59.00,KMEV 171215Z AUTO 00000KT 10SM FEW120 15/07 A3008 RMK AO2,M
BVU,2022-07-17 12:15,-114.8611,35.9475,671.00,M,M,M,M,M,0.00,M,M,M,M,M,M,M,M,M,M,M,M,M,M,M,M,M,M,M,M,KBVU 171215Z AUTO RMK AO2 PNO PWINO TSNO,M
BAM,2022-07-17 12:15,-116.8743,40.5990,1382.36,M,M,M,190.00,5.00,0.00,30.05,M,10.00,M,CLR,M,M,M,M,M,M,M,M,M,M,M,M,M,M,M,KBAM 171215Z AUTO 19005KT 10SM CLR A3005 RMK AO1,M
HTH,2022-07-17 12:15,-118.6315,38.5448,1282.89,71.60,46.40,40.57,0.00,0.00,0.00,30.04,M,10.00,M,SCT,M,M,M,12000.00,M,M,M,M,M,M,M,M,M,M,71.60,KHTH 171215Z AUTO 00000KT 10SM SCT120 22/08 A3004 RMK A01,M
TMT,2022-07-17 12:15,-117.1971,39.4643,1749.34,55.80,45.00,66.96,140.00,3.00,0.00,30.17,M,10.00,M,CLR,M,M,M,M,M,M,M,M,M,M,M,M,M,M,55.80,KTMT 171215Z AUTO 14003KT 10SM CLR 13/07 A3017 RMK AO2 T01320072,M
CXP,2022-07-17 12:15,-119.7326,39.1923,1431.00,66.20,41.00,39.72,0.00,0.00,0.00,30.09,M,10.00,M,CLR,M,M,M,M,M,M,M,M,M,M,M,M,M,M,66.20,KCXP 171215Z AUTO 00000KT 10SM CLR 19/05 A3009 RMK AO2,M
TMT,2022-07-17 12:35,-117.1971,39.4643,1749.34,57.00,46.00,66.34,0.00,0.00,0.00,30.18,M,10.00,M,CLR,M,M,M,M,M,M,M,M,M,M,M,M,M,M,57.00,KTMT 171235Z AUTO 00000KT 10SM CLR 14/08 A3018 RMK AO2 T01390077,M
HTH,2022-07-17 12:35,-118.6315,38.5448,1282.89,69.80,46.40,43.13,0.00,0.00,0.00,30.05,M,10.00,M,FEW,M,M,M,12000.00,M,M,M,M,M,M,M,M,M,M,69.80,KHTH 171235Z AUTO 00000KT 10SM FEW120 21/08 A3005 RMK A01,M
BAM,2022-07-17 12:35,-116.8743,40.5990,1382.36,M,M,M,220.00,4.00,0.00,30.05,M,10.00,M,CLR,M,M,M,M,M,M,M,M,M,M,M,M,M,M,M,KBAM 171235Z AUTO 22004KT 10SM CLR A3005 RMK AO1,M
MEV,2022-07-17 12:35,-119.7500,38.9963,1441.42,59.00,44.60,58.77,0.00,0.00,0.00,30.08,M,10.00,M,CLR,M,M,M,M,M,M,M,M,M,M,M,M,M,M,59.00,KMEV 171235Z AUTO 00000KT 10SM CLR 15/07 A3008 RMK AO2,M
05U,2022-07-17 12:35,-116.0051,39.6042,1811.23,59.00,46.40,62.92,0.00,0.00,0.00,30.19,M,10.00,M,CLR,M,M,M,M,M,M,M,M,M,M,M,M,M,M,59.00,K05U 171235Z AUTO 00000KT 10SM CLR 15/08 A3019 RMK A01,M
RTS,2022-07-17 12:35,-119.8764,39.6682,1539.00,66.20,33.80,29.92,0.00,0.00,0.00,30.12,M,10.00,M,CLR,M,M,M,M,M,M,M,M,M,M,M,M,M,M,66.20,KRTS 171235Z AUTO 00000KT 10SM CLR 19/01 A3012 RMK AO2,M
CXP,2022-07-17 12:35,-119.7326,39.1923,1431.00,68.00,41.00,37.32,0.00,0.00,0.00,30.10,M,10.00,M,FEW,M,M,M,12000.00,M,M,M,M,M,M,M,M,M,M,68.00,KCXP 171235Z AUTO 00000KT 10SM FEW120 20/05 A3010 RMK AO2,M
BVU,2022-07-17 12:35,-114.8611,35.9475,671.00,M,M,M,M,M,0.00,M,M,M,M,M,M,M,M,M,M,M,M,M,M,M,M,M,M,M,M,KBVU 171235Z AUTO RMK AO2 PNO PWINO TSNO,M
VGT,2022-07-17 12:53,-115.1933,36.2111,667.00,92.00,58.00,32.03,120.00,7.00,0.00,29.89,1010.60,10.00,M,CLR,M,M,M,M,M,M,M,M,M,M,M,M,M,M,90.80,KVGT 171253Z 12007KT 10SM CLR 33/14 A2989 RMK AO2 SLP106 T03330144,M
P68,2022-07-17 12:53,-116.0056,39.6014,1993.00,59.00,45.00,59.67,180.00,6.00,0.00,30.17,1012.40,M,M,M,M,M,M,M,M,M,M,M,M,M,M,M,M,M,59.00,KP68 171253Z AUTO 18006KT 15/07 A3017 RMK AO1 SLP124 T01500072,M
LOL,2022-07-17 12:53,-118.5701,40.0684,1192.43,68.00,37.00,31.92,0.00,0.00,0.00,30.01,1011.00,10.00,M,CLR,M,M,M,M,M,M,M,M,M,M,M,M,M,M,68.00,KLOL 171253Z AUTO 00000KT 10SM CLR 20/03 A3001 RMK AO2 SLP110 T02000028,M
ELY,2022-07-17 12:53,-114.8453,39.2950,1909.00,57.00,35.00,43.63,180.00,8.00,0.00,30.22,1012.10,10.00,M,CLR,M,M,M,M,M,M,M,M,M,M,M,M,M,M,57.00,KELY 171253Z AUTO 18008KT 10SM CLR 14/02 A3022 RMK AO2 SLP121 T01390017,M
DRA,2022-07-17 12:53,-116.0278,36.6206,1009.00,84.00,48.00,28.60,130.00,5.00,0.00,29.95,1007.80,10.00,M,CLR,M,M,M,M,M,M,M,M,M,M,M,M,M,M,81.87,KDRA 171253Z AUTO 13005KT 10SM CLR 29/09 A2995 RMK AO2 SLP078 T02890089,M
05U,2022-07-17 12:55,-116.0051,39.6042,1811.23,57.20,44.60,62.69,0.00,0.00,0.00,30.20,M,10.00,M,CLR,M,M,M,M,M,M,M,M,M,M,M,M,M,M,57.20,K05U 171255Z AUTO 00000KT 10SM CLR 14/07 A3020 RMK A01,M
MEV,2022-07-17 12:55,-119.7500,38.9963,1441.42,57.20,44.60,62.69,90.00,4.00,0.00,30.08,M,10.00,M,CLR,M,M,M,M,M,M,M,M,M,M,M,M,M,M,57.20,KMEV 171255Z AUTO 09004KT 10SM CLR 14/07 A3008 RMK AO2,M
BAM,2022-07-17 12:55,-116.8743,40.5990,1382.36,M,M,M,0.00,0.00,0.00,30.06,M,10.00,M,CLR,M,M,M,M,M,M,M,M,M,M,M,M,M,M,M,KBAM 171255Z AUTO 00000KT 10SM CLR A3006 RMK AO1,M
HTH,2022-07-17 12:55,-118.6315,38.5448,1282.89,69.80,46.40,43.13,0.00,0.00,0.00,30.05,M,10.00,M,FEW,M,M,M,12000.00,M,M,M,M,M,M,M,M,M,M,69.80,KHTH 171255Z AUTO 00000KT 10SM FEW120 21/08 A3005 RMK A01,M
TMT,2022-07-17 12:55,-117.1971,39.4643,1749.34,56.00,46.00,69.04,250.00,5.00,0.00,30.18,M,10.00,M,CLR,M,M,M,M,M,M,M,M,M,M,M,M,M,M,55.90,KTMT 171255Z AUTO 25005KT 10SM CLR 13/08 A3018 RMK AO2 T01330077,M
BVU,2022-07-17 12:55,-114.8611,35.9475,671.00,M,M,M,M,M,0.00,M,M,M,M,M,M,M,M,M,M,M,M,M,M,M,M,M,M,M,M,KBVU 171255Z AUTO RMK AO2 PNO PWINO TSNO,M
CXP,2022-07-17 12:55,-119.7326,39.1923,1431.00,66.20,41.00,39.72,330.00,3.00,0.00,30.09,M,10.00,M,CLR,M,M,M,M,M,M,M,M,M,M,M,M,M,M,66.20,KCXP 171255Z AUTO 33003KT 10SM CLR 19/05 A3009 RMK AO2,M
RNO,2022-07-17 12:55,-119.7711,39.4839,1341.00,71.00,46.00,40.65,0.00,0.00,0.00,30.06,1011.20,10.00,M,FEW,FEW,M,M,12000.00,22000.00,M,M,M,M,M,M,M,M,M,71.10,KRNO 171255Z 00000KT 10SM FEW120 FEW220 22/08 A3006 RMK AO2 SLP112 T02170078,M
RTS,2022-07-17 12:55,-119.8764,39.6682,1539.00,66.20,33.80,29.92,0.00,0.00,0.00,30.12,M,10.00,M,FEW,M,M,M,11000.00,M,M,M,M,M,M,M,M,M,M,66.20,KRTS 171255Z AUTO 00000KT 10SM FEW110 19/01 A3012 RMK AO2,M
HND,2022-07-17 12:56,-115.1344,35.9729,742.79,M,M,M,M,M,0.00,M,M,M,M,M,M,M,M,M,M,M,M,M,M,M,M,M,M,M,M,KHND 171256Z AUTO RMK AO2 LTG DSNT SE AND S SLPNO PWINO FZRANO $,M
NFL,2022-07-17 12:56,-118.7010,39.4166,1199.00,65.00,40.00,39.82,160.00,5.00,0.00,30.01,1013.30,10.00,M,CLR,M,M,M,M,M,M,M,M,M,M,M,M,M,M,64.90,KNFL 171256Z AUTO 16005KT 10SM CLR 18/04 A3001 RMK AO2 SLP133 T01830044,M
WMC,2022-07-17 12:56,-117.8072,40.9019,1315.00,67.00,38.00,34.35,0.00,0.00,0.00,30.04,1011.10,10.00,M,CLR,M,M,M,M,M,M,M,M,M,M,M,M,M,M,66.90,KWMC 171256Z AUTO 00000KT 10SM CLR 19/03 A3004 RMK AO2 SLP111 T01940033 TSNO,M
LAS,2022-07-17 12:56,-115.1634,36.0719,663.00,90.00,58.00,33.99,100.00,3.00,0.00,29.90,1009.20,10.00,M,FEW,BKN,BKN,M,9500.00,12000.00,25000.00,M,M,M,M,M,M,M,M,88.89,KLAS 171256Z 10003KT 10SM FEW095 BKN120 BKN250 32/14 A2990 RMK AO2 LTG DSNT SE SLP092 T03220144,M
TPH,2022-07-17 12:56,-117.0904,38.0505,1654.00,68.00,44.00,42.04,360.00,10.00,0.00,30.14,1010.90,10.00,M,CLR,M,M,M,M,M,M,M,M,M,M,M,M,M,M,68.00,KTPH 171256Z AUTO 36010KT 10SM CLR 20/07 A3014 RMK AO2 SLP109 T02000067,M
EKO,2022-07-17 12:56,-115.7860,40.8242,1367.00,66.00,38.00,35.44,90.00,5.00,0.00,30.09,1012.20,10.00,M,CLR,M,M,M,M,M,M,M,M,M,M,M,M,M,M,66.00,KEKO 171256Z AUTO 09005KT 10SM CLR 19/03 A3009 RMK AO2 SLP122 T01890033,M
LSV,2022-07-17 12:58,-115.0343,36.2362,570.00,92.80,58.60,31.93,100.00,7.00,0.00,29.88,1008.70,10.00,M,BKN,BKN,M,M,15000.00,18000.00,M,M,M,M,M,M,M,M,M,91.99,KLSV 171258Z AUTO 10007KT 10SM BKN150 BKN180 34/15 A2988 RMK AO2 LTG DSNT NE SLP087 T03380148 $,M
INS,2022-07-17 12:58,-115.6733,36.5872,955.00,81.30,45.00,27.98,10.00,3.00,0.00,29.94,1008.10,10.00,M,BKN,OVC,M,M,16000.00,19000.00,M,M,M,M,M,M,M,M,M,79.86,KINS 171258Z AUTO 01003KT 10SM BKN160 OVC190 27/07 A2994 RMK AO2 SLP081 T02740073 $,M
BVU,2022-07-17 13:15,-114.8611,35.9475,671.00,M,M,M,M,M,0.00,M,M,M,M,M,M,M,M,M,M,M,M,M,M,M,M,M,M,M,M,KBVU 171315Z AUTO RMK AO2 PNO PWINO TSNO,M
CXP,2022-07-17 13:15,-119.7326,39.1923,1431.00,64.40,42.80,45.32,0.00,0.00,0.00,30.10,M,10.00,M,CLR,M,M,M,M,M,M,M,M,M,M,M,M,M,M,64.40,KCXP 171315Z AUTO 00000KT 10SM CLR 18/06 A3010 RMK AO2,M
RTS,2022-07-17 13:15,-119.8764,39.6682,1539.00,64.40,33.80,31.85,0.00,0.00,0.00,30.12,M,10.00,M,FEW,M,M,M,11000.00,M,M,M,M,M,M,M,M,M,M,64.40,KRTS 171315Z AUTO 00000KT 10SM FEW110 18/01 A3012 RMK AO2,M
05U,2022-07-17 13:15,-116.0051,39.6042,1811.23,60.80,46.40,59.01,0.00,0.00,0.00,30.19,M,10.00,M,CLR,M,M,M,M,M,M,M,M,M,M,M,M,M,M,60.80,K05U 171315Z AUTO 00000KT 10SM CLR 16/08 A3019 RMK A01,M
MEV,2022-07-17 13:15,-119.7500,38.9963,1441.42,57.20,44.60,62.69,0.00,0.00,0.00,30.09,M,10.00,M,CLR,M,M,M,M,M,M,M,M,M,M,M,M,M,M,57.20,KMEV 171315Z AUTO 00000KT 10SM CLR 14/07 A3009 RMK AO2,M
BAM,2022-07-17 13:15,-116.8743,40.5990,1382.36,M,M,M,230.00,3.00,0.00,30.06,M,10.00,M,CLR,M,M,M,M,M,M,M,M,M,M,M,M,M,M,M,KBAM 171315Z AUTO 23003KT 10SM CLR A3006 RMK AO1,M
HTH,2022-07-17 13:15,-118.6315,38.5448,1282.89,71.60,46.40,40.57,220.00,3.00,0.00,30.05,M,10.00,M,CLR,M,M,M,M,M,M,M,M,M,M,M,M,M,M,71.60,KHTH 171315Z AUTO 22003KT 10SM CLR 22/08 A3005 RMK A01,M
TMT,2022-07-17 13:15,-117.1971,39.4643,1749.34,59.20,47.80,65.86,250.00,4.00,0.00,30.18,M,10.00,M,CLR,M,M,M,M,M,M,M,M,M,M,M,M,M,M,59.20,KTMT 171315Z AUTO 25004KT 10SM CLR 15/09 A3018 RMK AO2 T01510088,M
TMT,2022-07-17 13:35,-117.1971,39.4643,1749.34,60.40,49.50,67.24,0.00,0.00,0.00,30.18,M,10.00,M,CLR,M,M,M,M,M,M,M,M,M,M,M,M,M,M,60.40,KTMT 171335Z AUTO 00000KT 10SM CLR 16/10 A3018 RMK AO2 T01580097,M
CXP,2022-07-17 13:35,-119.7326,39.1923,1431.00,64.40,42.80,45.32,0.00,0.00,0.00,30.10,M,10.00,M,CLR,M,M,M,M,M,M,M,M,M,M,M,M,M,M,64.40,KCXP 171335Z AUTO 00000KT 10SM CLR 18/06 A3010 RMK AO2,M
RTS,2022-07-17 13:35,-119.8764,39.6682,1539.00,66.20,33.80,29.92,0.00,0.00,0.00,30.12,M,10.00,M,CLR,M,M,M,M,M,M,M,M,M,M,M,M,M,M,66.20,KRTS 171335Z AUTO 00000KT 10SM CLR 19/01 A3012 RMK AO2,M
05U,2022-07-17 13:35,-116.0051,39.6042,1811.23,62.60,46.40,55.37,0.00,0.00,0.00,30.20,M,10.00,M,CLR,M,M,M,M,M,M,M,M,M,M,M,M,M,M,62.60,K05U 171335Z AUTO 00000KT 10SM CLR 17/08 A3020 RMK A01,M
MEV,2022-07-17 13:35,-119.7500,38.9963,1441.42,60.80,46.40,59.01,0.00,0.00,0.00,30.09,M,10.00,M,CLR,M,M,M,M,M,M,M,M,M,M,M,M,M,M,60.80,KMEV 171335Z AUTO 00000KT 10SM CLR 16/08 A3009 RMK AO2,M
BAM,2022-07-17 13:35,-116.8743,40.5990,1382.36,M,M,M,150.00,6.00,0.00,30.07,M,10.00,M,CLR,M,M,M,M,M,M,M,M,M,M,M,M,M,M,M,KBAM 171335Z AUTO 15006KT 10SM CLR A3007 RMK AO1,M
HTH,2022-07-17 13:35,-118.6315,38.5448,1282.89,73.40,46.40,38.18,230.00,3.00,0.00,30.05,M,10.00,M,CLR,M,M,M,M,M,M,M,M,M,M,M,M,M,M,73.40,KHTH 171335Z AUTO 23003KT 10SM CLR 23/08 A3005 RMK A01,M
BVU,2022-07-17 13:35,-114.8611,35.9475,671.00,M,M,M,M,M,0.00,M,M,M,M,M,M,M,M,M,M,M,M,M,M,M,M,M,M,M,M,KBVU 171335Z AUTO RMK AO2 PNO PWINO TSNO,M
HND,2022-07-17 13:43,-115.1344,35.9729,742.79,M,M,M,M,M,0.00,M,M,M,M,M,M,M,M,M,M,M,M,VCTS,M,M,M,M,M,M,M,KHND 171343Z VCTS RMK AO2 LTG DSNT E-S TSB37 $,M
ELY,2022-07-17 13:53,-114.8453,39.2950,1909.00,66.00,38.00,35.44,200.00,6.00,0.00,30.22,1011.40,10.00,M,CLR,M,M,M,M,M,M,M,M,M,M,M,M,M,M,66.00,KELY 171353Z AUTO 20006KT 10SM CLR 19/03 A3022 RMK AO2 SLP114 T01890033,M
VGT,2022-07-17 13:53,-115.1933,36.2111,667.00,92.00,61.00,35.77,M,3.00,T,29.92,1011.20,10.00,M,FEW,FEW,M,M,5000.00,10000.00,M,M,-RA,M,M,M,M,M,M,92.01,KVGT 171353Z VRB03KT 10SM -RA FEW050 FEW100 33/16 A2992 RMK AO2 LTG DSNT SE AND S RAB48 SLP112 P0000 T03330161,M
P68,2022-07-17 13:53,-116.0056,39.6014,1993.00,68.00,47.00,46.76,190.00,6.00,0.00,30.17,1011.70,M,M,M,M,M,M,M,M,M,M,M,M,M,M,M,M,M,68.00,KP68 171353Z AUTO 19006KT 20/08 A3017 RMK AO1 SLP117 T02000083,M
DRA,2022-07-17 13:53,-116.0278,36.6206,1009.00,82.00,47.00,29.28,70.00,5.00,0.00,29.97,1008.50,10.00,M,CLR,M,M,M,M,M,M,M,M,M,M,M,M,M,M,80.43,KDRA 171353Z AUTO 07005KT 10SM CLR 28/08 A2997 RMK AO2 SLP085 T02780083,M
LOL,2022-07-17 13:53,-118.5701,40.0684,1192.43,70.00,35.00,27.65,230.00,4.00,0.00,30.02,1011.30,10.00,M,CLR,M,M,M,M,M,M,M,M,M,M,M,M,M,M,70.00,KLOL 171353Z AUTO 23004KT 10SM CLR 21/02 A3002 RMK AO2 SLP113 T02110017,M
RNO,2022-07-17 13:55,-119.7711,39.4839,1341.00,72.00,45.00,37.96,190.00,3.00,0.00,30.07,1011.50,10.00,M,FEW,FEW,M,M,12000.00,22000.00,M,M,M,M,M,M,M,M,M,72.00,KRNO 171355Z 19003KT 10SM FEW120 FEW220 22/07 A3007 RMK AO2 SLP115 T02220072,M
RTS,2022-07-17 13:55,-119.8764,39.6682,1539.00,68.00,35.60,30.20,80.00,4.00,0.00,30.12,M,10.00,M,CLR,M,M,M,M,M,M,M,M,M,M,M,M,M,M,68.00,KRTS 171355Z AUTO 08004KT 10SM CLR 20/02 A3012 RMK AO2,M
05U,2022-07-17 13:55,-116.0051,39.6042,1811.23,68.00,46.40,45.88,0.00,0.00,0.00,30.20,M,10.00,M,CLR,M,M,M,M,M,M,M,M,M,M,M,M,M,M,68.00,K05U 171355Z AUTO 00000KT 10SM CLR 20/08 A3020 RMK A01,M
MEV,2022-07-17 13:55,-119.7500,38.9963,1441.42,60.80,46.40,59.01,220.00,4.00,0.00,30.09,M,10.00,M,CLR,M,M,M,M,M,M,M,M,M,M,M,M,M,M,60.80,KMEV 171355Z AUTO 22004KT 10SM CLR 16/08 A3009 RMK AO2,M
BAM,2022-07-17 13:55,-116.8743,40.5990,1382.36,M,M,M,0.00,0.00,0.00,30.07,M,10.00,M,CLR,M,M,M,M,M,M,M,M,M,M,M,M,M,M,M,KBAM 171355Z AUTO 00000KT 10SM CLR A3007 RMK AO1,M
HTH,2022-07-17 13:55,-118.6315,38.5448,1282.89,75.20,46.40,35.94,0.00,0.00,0.00,30.05,M,10.00,M,CLR,M,M,M,M,M,M,M,M,M,M,M,M,M,M,75.20,KHTH 171355Z AUTO 00000KT 10SM CLR 24/08 A3005 RMK A01,M
CXP,2022-07-17 13:55,-119.7326,39.1923,1431.00,68.00,42.80,40.00,0.00,0.00,0.00,30.10,M,10.00,M,CLR,M,M,M,M,M,M,M,M,M,M,M,M,M,M,68.00,KCXP 171355Z AUTO 00000KT 10SM CLR 20/06 A3010 RMK AO2,M
TMT,2022-07-17 13:55,-117.1971,39.4643,1749.34,63.00,50.40,63.20,0.00,0.00,0.00,30.18,M,10.00,M,CLR,M,M,M,M,M,M,M,M,M,M,M,M,M,M,63.10,KTMT 171355Z AUTO 00000KT 10SM CLR 17/10 A3018 RMK AO2 T01730102,M
BVU,2022-07-17 13:55,-114.8611,35.9475,671.00,M,M,M,M,M,0.00,M,M,M,M,M,M,M,M,M,M,M,M,M,M,M,M,M,M,M,M,KBVU 171355Z AUTO RMK AO2 PNO PWINO TSNO,M
HND,2022-07-17 13:56,-115.1344,35.9729,742.79,M,M,M,M,M,0.00,M,M,M,M,M,M,M,M,M,M,M,M,VCTS,M,M,M,M,M,M,M,KHND 171356Z VCTS RMK AO2 LTG DSNT E-SW TSB37 SLPNO $,M
EKO,2022-07-17 13:56,-115.7860,40.8242,1367.00,69.00,37.00,30.74,70.00,5.00,0.00,30.10,1012.20,10.00,M,CLR,M,M,M,M,M,M,M,M,M,M,M,M,M,M,69.10,KEKO 171356Z AUTO 07005KT 10SM CLR 21/03 A3010 RMK AO2 SLP122 T02060028,M
TPH,2022-07-17 13:56,-117.0904,38.0505,1654.00,72.00,43.00,35.16,20.00,9.00,0.00,30.14,1011.00,10.00,M,CLR,M,M,M,M,M,M,M,M,M,M,M,M,M,M,72.00,KTPH 171356Z AUTO 02009KT 10SM CLR 22/06 A3014 RMK AO2 SLP110 T02220061,M
WMC,2022-07-17 13:56,-117.8072,40.9019,1315.00,67.00,38.00,34.35,150.00,6.00,0.00,30.04,1011.40,10.00,M,CLR,M,M,M,M,M,M,M,M,M,M,M,M,M,M,66.90,KWMC 171356Z AUTO 15006KT 10SM CLR 19/03 A3004 RMK AO2 SLP114 T01940033 TSNO,M
NFL,2022-07-17 13:56,-118.7010,39.4166,1199.00,72.00,40.00,31.20,170.00,3.00,0.00,30.02,1013.50,10.00,M,CLR,M,M,M,M,M,M,M,M,M,M,M,M,M,M,72.00,KNFL 171356Z AUTO 17003KT 10SM CLR 22/04 A3002 RMK AO2 SLP135 T02220044,M
LAS,2022-07-17 13:56,-115.1634,36.0719,663.00,92.00,58.00,32.03,300.00,4.00,0.00,29.92,1010.00,10.00,M,FEW,BKN,BKN,M,9500.00,12000.00,25000.00,M,M,M,M,M,M,M,M,90.80,KLAS 171356Z 30004KT 10SM FEW095 BKN120 BKN250 33/14 A2992 RMK AO2 LTG DSNT SE AND S SLP100 T03330144,M
LSV,2022-07-17 13:58,-115.0343,36.2362,570.00,92.00,58.80,32.87,70.00,6.00,0.00,29.89,1009.20,10.00,M,FEW,M,M,M,15000.00,M,M,M,M,M,M,M,M,M,M,91.33,KLSV 171358Z AUTO 07006KT 10SM FEW150 33/15 A2989 RMK AO2 LTG DSNT SE-S SLP092 T03340149 $,M
INS,2022-07-17 13:58,-115.6733,36.5872,955.00,87.40,52.20,29.99,110.00,19.00,0.00,29.95,1008.10,10.00,M,BKN,OVC,M,M,15000.00,19000.00,M,M,M,M,M,M,M,M,M,85.11,KINS 171358Z AUTO 11019KT 10SM BKN150 OVC190 31/11 A2995 RMK AO2 SLP081 T03080112 $,M
HND,2022-07-17 14:04,-115.1344,35.9729,742.79,M,M,M,M,M,0.00,M,M,M,M,M,M,M,M,M,M,M,M,M,M,M,M,M,M,M,M,KHND 171404Z RMK AO2 LTG DSNT E-SW TSE1358 $,M
BVU,2022-07-17 14:15,-114.8611,35.9475,671.00,M,M,M,M,M,0.00,M,M,M,M,M,M,M,M,M,M,M,M,M,M,M,M,M,M,M,M,KBVU 171415Z AUTO RMK AO2 PNO PWINO TSNO,M
TMT,2022-07-17 14:15,-117.1971,39.4643,1749.34,65.30,51.00,59.62,0.00,0.00,0.00,30.18,M,10.00,M,CLR,M,M,M,M,M,M,M,M,M,M,M,M,M,M,65.30,KTMT 171415Z AUTO 00000KT 10SM CLR 19/11 A3018 RMK AO2 T01850105,M
BAM,2022-07-17 14:15,-116.8743,40.5990,1382.36,M,M,M,150.00,3.00,0.00,30.07,M,10.00,M,CLR,M,M,M,M,M,M,M,M,M,M,M,M,M,M,M,KBAM 171415Z AUTO 15003KT 10SM CLR A3007 RMK AO1,M
RTS,2022-07-17 14:15,-119.8764,39.6682,1539.00,69.80,37.40,30.49,90.00,3.00,0.00,30.12,M,10.00,M,CLR,M,M,M,M,M,M,M,M,M,M,M,M,M,M,69.80,KRTS 171415Z AUTO 09003KT 10SM CLR 21/03 A3012 RMK AO2,M
CXP,2022-07-17 14:15,-119.7326,39.1923,1431.00,69.80,44.60,40.29,0.00,0.00,0.00,30.10,M,10.00,M,CLR,M,M,M,M,M,M,M,M,M,M,M,M,M,M,69.80,KCXP 171415Z AUTO 00000KT 10SM CLR 21/07 A3010 RMK AO2,M
MEV,2022-07-17 14:15,-119.7500,38.9963,1441.42,66.20,48.20,52.25,0.00,0.00,0.00,30.09,M,10.00,M,CLR,M,M,M,M,M,M,M,M,M,M,M,M,M,M,66.20,KMEV 171415Z AUTO 00000KT 10SM CLR 19/09 A3009 RMK AO2,M
05U,2022-07-17 14:15,-116.0051,39.6042,1811.23,73.40,46.40,38.18,200.00,6.00,0.00,30.19,M,10.00,M,CLR,M,M,M,M,M,M,M,M,M,M,M,M,M,M,73.40,K05U 171415Z AUTO 20006KT 10SM CLR 23/08 A3019 RMK A01,M
HTH,2022-07-17 14:15,-118.6315,38.5448,1282.89,77.00,46.40,33.85,0.00,0.00,0.00,30.06,M,10.00,M,CLR,M,M,M,M,M,M,M,M,M,M,M,M,M,M,77.00,KHTH 171415Z AUTO 00000KT 10SM CLR 25/08 A3006 RMK A01,M
HND,2022-07-17 14:18,-115.1344,35.9729,742.79,M,M,M,M,M,0.00,M,M,M,M,M,M,M,M,M,M,M,M,VCTS,M,M,M,M,M,M,M,KHND 171418Z VCTS RMK AO2 LTG DSNT ALQDS TSE1358B12 $,M
VGT,2022-07-17 14:19,-115.1933,36.2111,667.00,92.00,62.00,37.19,90.00,3.00,T,29.93,M,10.00,M,FEW,FEW,M,M,6500.00,9500.00,M,M,VCTS,M,M,M,M,M,M,92.52,KVGT 171419Z 09003KT 10SM VCTS FEW065 FEW095 33/17 A2993 RMK AO2 LTG DSNT SE AND S RAE03 P0000 T03330167,M
LAS,2022-07-17 14:25,-115.1634,36.0719,663.00,93.00,56.00,28.79,230.00,8.00,0.00,29.93,M,10.00,M,FEW,BKN,BKN,M,9500.00,12000.00,25000.00,M,VCTS,M,M,M,M,M,M,91.29,KLAS 171425Z 23008KT 10SM VCTS FEW095 BKN120CB BKN250 34/13 A2993 RMK AO2 LTG DSNT ALQDS TSE19 CB VC SE T03390133,M
VGT,2022-07-17 14:34,-115.1933,36.2111,667.00,90.00,66.00,45.25,30.00,6.00,T,29.93,M,9.00,M,FEW,SCT,M,M,5500.00,7000.00,M,M,-RA,M,M,M,M,M,M,92.59,KVGT 171434Z 03006KT 9SM -RA FEW055 SCT070 32/19 A2993 RMK AO2 LTG DSNT SE-SW RAE03B22 P0000 T03220189,M
HTH,2022-07-17 14:35,-118.6315,38.5448,1282.89,78.80,46.40,31.90,0.00,0.00,0.00,30.06,M,10.00,M,CLR,M,M,M,M,M,M,M,M,M,M,M,M,M,M,78.80,KHTH 171435Z AUTO 00000KT 10SM CLR 26/08 A3006 RMK A01,M
BVU,2022-07-17 14:35,-114.8611,35.9475,671.00,M,M,M,M,M,0.00,M,M,M,M,M,M,M,M,M,M,M,M,M,M,M,M,M,M,M,M,KBVU 171435Z AUTO RMK AO2 PNO PWINO TSNO,M
CXP,2022-07-17 14:35,-119.7326,39.1923,1431.00,71.60,42.80,35.37,0.00,0.00,0.00,30.10,M,10.00,M,CLR,M,M,M,M,M,M,M,M,M,M,M,M,M,M,71.60,KCXP 171435Z AUTO 00000KT 10SM CLR 22/06 A3010 RMK AO2,M
RTS,2022-07-17 14:35,-119.8764,39.6682,1539.00,73.40,39.20,28.96,0.00,0.00,0.00,30.12,M,10.00,M,CLR,M,M,M,M,M,M,M,M,M,M,M,M,M,M,73.40,KRTS 171435Z AUTO 00000KT 10SM CLR 23/04 A3012 RMK AO2,M
05U,2022-07-17 14:35,-116.0051,39.6042,1811.23,77.00,48.20,36.22,0.00,0.00,0.00,30.19,M,10.00,M,CLR,M,M,M,M,M,M,M,M,M,M,M,M,M,M,77.00,K05U 171435Z AUTO 00000KT 10SM CLR 25/09 A3019 RMK A01,M
MEV,2022-07-17 14:35,-119.7500,38.9963,1441.42,69.80,48.20,46.16,0.00,0.00,0.00,30.09,M,10.00,M,CLR,M,M,M,M,M,M,M,M,M,M,M,M,M,M,69.80,KMEV 171435Z AUTO 00000KT 10SM CLR 21/09 A3009 RMK AO2,M
BAM,2022-07-17 14:35,-116.8743,40.5990,1382.36,M,M,M,0.00,0.00,0.00,30.07,M,10.00,M,CLR,M,M,M,M,M,M,M,M,M,M,M,M,M,M,M,KBAM 171435Z AUTO 00000KT 10SM CLR A3007 RMK AO1,M
TMT,2022-07-17 14:35,-117.1971,39.4643,1749.34,67.00,48.60,51.41,0.00,0.00,0.00,30.18,M,10.00,M,CLR,M,M,M,M,M,M,M,M,M,M,M,M,M,M,67.10,KTMT 171435Z AUTO 00000KT 10SM CLR 20/09 A3018 RMK AO2 T01950092,M
LAS,2022-07-17 14:36,-115.1634,36.0719,663.00,93.00,54.00,26.87,210.00,9.00,0.00,29.95,M,10.00,15.00,FEW,BKN,BKN,M,9500.00,12000.00,25000.00,M,TS,M,M,M,M,M,M,90.76,KLAS 171436Z 21009G15KT 10SM TS FEW095 BKN120CB BKN250 34/12 A2995 RMK AO2 LTG DSNT S AND SW TSE19B30 TS OHD MOV NW T03390122,M
LSV,2022-07-17 14:48,-115.0343,36.2362,570.00,95.00,59.00,30.26,80.00,5.00,0.00,29.90,1009.40,10.00,M,FEW,SCT,M,M,11000.00,13000.00,M,M,TS,M,M,M,M,M,M,94.51,KLSV 171448Z 08005KT 10SM TS FEW110 SCT130 35/15 A2990 RMK LTG DSNT N AND S-SW TSB35 SLP094 $,M
DRA,2022-07-17 14:53,-116.0278,36.6206,1009.00,85.00,47.00,26.66,220.00,5.00,0.00,29.98,1009.10,10.00,M,CLR,M,M,M,M,M,M,M,M,M,M,M,M,M,M,82.42,KDRA 171453Z AUTO 22005KT 10SM CLR 29/08 A2998 RMK AO2 SLP091 T02940083 52016,M
HND,2022-07-17 14:53,-115.1344,35.9729,742.79,M,M,M,10.00,4.00,0.00,29.86,M,10.00,M,BKN,OVC,M,M,6000.00,8000.00,M,M,M,M,M,M,M,M,M,M,KHND 171453Z 01004KT 10SM BKN060 OVC080 A2986 RMK TEMP AND DP MISSING,M
VGT,2022-07-17 14:53,-115.1933,36.2111,667.00,89.00,68.00,49.88,0.00,0.00,T,29.94,1012.30,10.00,M,FEW,SCT,M,M,5000.00,7000.00,M,M,VCTS,M,M,M,M,M,M,92.90,KVGT 171453Z 00000KT 10SM VCTS FEW050 SCT070 32/20 A2994 RMK AO2 LTG DSNT N AND NE AND S RAE03B22E52 SLP123 P0000 60000 T03170200 53024,M
LOL,2022-07-17 14:53,-118.5701,40.0684,1192.43,78.00,39.00,24.56,160.00,3.00,0.00,30.02,1011.10,10.00,M,CLR,M,M,M,M,M,M,M,M,M,M,M,M,M,M,78.10,KLOL 171453Z AUTO 16003KT 10SM CLR 26/04 A3002 RMK AO2 SLP111 T02560039 51005,M
ELY,2022-07-17 14:53,-114.8453,39.2950,1909.00,76.00,43.00,30.85,190.00,8.00,0.00,30.22,1010.70,10.00,M,CLR,M,M,M,M,M,M,M,M,M,M,M,M,M,M,75.90,KELY 171453Z AUTO 19008KT 10SM CLR 24/06 A3022 RMK AO2 SLP107 T02440061 50001,M
P68,2022-07-17 14:53,-116.0056,39.6014,1993.00,79.00,47.00,32.29,200.00,5.00,0.00,30.16,1011.00,M,M,M,M,M,M,M,M,M,M,M,M,M,M,M,M,M,79.00,KP68 171453Z AUTO 20005KT 26/08 A3016 RMK AO1 SLP110 T02610083 58002,M
HTH,2022-07-17 14:55,-118.6315,38.5448,1282.89,80.60,46.40,30.07,0.00,0.00,0.00,30.06,M,10.00,M,CLR,M,M,M,M,M,M,M,M,M,M,M,M,M,M,79.56,KHTH 171455Z AUTO 00000KT 10SM CLR 27/08 A3006 RMK A01,M
BAM,2022-07-17 14:55,-116.8743,40.5990,1382.36,M,M,M,0.00,0.00,0.00,30.07,M,10.00,M,CLR,M,M,M,M,M,M,M,M,M,M,M,M,M,M,M,KBAM 171455Z AUTO 00000KT 10SM CLR A3007 RMK AO1,M
TMT,2022-07-17 14:55,-117.1971,39.4643,1749.34,70.20,47.80,44.85,0.00,0.00,0.00,30.18,M,10.00,M,CLR,M,M,M,M,M,M,M,M,M,M,M,M,M,M,70.20,KTMT 171455Z AUTO 00000KT 10SM CLR 21/09 A3018 RMK AO2 T02120088,M
BVU,2022-07-17 14:55,-114.8611,35.9475,671.00,M,M,M,M,M,0.00,M,M,M,M,M,M,M,M,M,M,M,M,M,M,M,M,M,M,M,M,KBVU 171455Z AUTO RMK AO2 PNO PWINO TSNO,M
CXP,2022-07-17 14:55,-119.7326,39.1923,1431.00,75.20,44.60,33.57,0.00,0.00,0.00,30.10,M,10.00,M,CLR,M,M,M,M,M,M,M,M,M,M,M,M,M,M,75.20,KCXP 171455Z AUTO 00000KT 10SM CLR 24/07 A3010 RMK AO2,M
RNO,2022-07-17 14:55,-119.7711,39.4839,1341.00,75.00,45.00,34.31,0.00,0.00,0.00,30.07,1011.50,10.00,M,FEW,M,M,M,8000.00,M,M,M,M,M,M,M,M,M,M,75.00,KRNO 171455Z 00000KT 10SM FEW080 24/07 A3007 RMK AO2 SLP115 T02390072 51003,M
RTS,2022-07-17 14:55,-119.8764,39.6682,1539.00,75.20,37.40,25.40,0.00,0.00,0.00,30.12,M,10.00,M,CLR,M,M,M,M,M,M,M,M,M,M,M,M,M,M,75.20,KRTS 171455Z AUTO 00000KT 10SM CLR 24/03 A3012 RMK AO2,M
05U,2022-07-17 14:55,-116.0051,39.6042,1811.23,80.60,46.40,30.07,0.00,0.00,0.00,30.19,M,10.00,M,CLR,M,M,M,M,M,M,M,M,M,M,M,M,M,M,79.56,K05U 171455Z AUTO 00000KT 10SM CLR 27/08 A3019 RMK A01,M
MEV,2022-07-17 14:55,-119.7500,38.9963,1441.42,69.80,48.20,46.16,0.00,0.00,0.00,30.09,M,7.00,M,CLR,M,M,M,M,M,M,M,M,M,M,M,M,M,M,69.80,KMEV 171455Z AUTO 00000KT 7SM CLR 21/09 A3009 RMK AO2,M
LAS,2022-07-17 14:56,-115.1634,36.0719,663.00,91.00,55.00,29.66,220.00,5.00,0.00,29.94,1010.70,10.00,M,FEW,BKN,BKN,M,9500.00,12000.00,25000.00,M,TS,M,M,M,M,M,M,89.03,KLAS 171456Z 22005KT 10SM TS FEW095 BKN120CB BKN250 33/13 A2994 RMK AO2 LTG DSNT N TSE19B30 SLP107 TS SW-W MOV NW T03280128 51020,M
HND,2022-07-17 14:56,-115.1344,35.9729,742.79,M,M,M,M,M,0.00,M,M,M,M,M,M,M,M,M,M,M,M,TS,M,M,M,M,M,M,M,KHND 171456Z TS RMK AO2 LTG DSNT NW TSE1358B12 SLPNO 6//// $,M
EKO,2022-07-17 14:56,-115.7860,40.8242,1367.00,76.00,38.00,25.31,80.00,4.00,0.00,30.10,1012.00,10.00,M,CLR,M,M,M,M,M,M,M,M,M,M,M,M,M,M,75.90,KEKO 171456Z AUTO 08004KT 10SM CLR 24/03 A3010 RMK AO2 SLP120 T02440033 51004,M
WMC,2022-07-17 14:56,-117.8072,40.9019,1315.00,76.00,42.00,29.80,140.00,3.00,0.00,30.05,1011.30,10.00,M,CLR,M,M,M,M,M,M,M,M,M,M,M,M,M,M,75.90,KWMC 171456Z AUTO 14003KT 10SM CLR 24/06 A3005 RMK AO2 SLP113 T02440056 51005 TSNO,M
NFL,2022-07-17 14:56,-118.7010,39.4166,1199.00,79.00,40.00,24.70,230.00,3.00,0.00,30.02,1013.70,10.00,M,CLR,M,M,M,M,M,M,M,M,M,M,M,M,M,M,79.00,KNFL 171456Z AUTO 23003KT 10SM CLR 26/04 A3002 RMK AO2 SLP137 T02610044 51007,M
TPH,2022-07-17 14:56,-117.0904,38.0505,1654.00,79.00,44.00,29.04,10.00,3.00,0.00,30.15,1011.10,10.00,M,CLR,M,M,M,M,M,M,M,M,M,M,M,M,M,M,79.00,KTPH 171456Z AUTO 01003KT 10SM CLR 26/07 A3015 RMK AO2 SLP111 T02610067 53005,M
INS,2022-07-17 14:58,-115.6733,36.5872,955.00,87.60,54.00,31.95,100.00,16.00,0.00,29.97,1008.90,10.00,M,BKN,OVC,M,M,15000.00,17000.00,M,M,M,M,M,M,M,M,M,85.65,KINS 171458Z AUTO 10016KT 10SM BKN150 OVC170 31/12 A2997 RMK AO2 SLP089 T03090123 52011 $,M
LSV,2022-07-17 14:58,-115.0343,36.2362,570.00,94.30,58.00,29.94,80.00,8.00,0.00,29.90,1009.40,10.00,M,FEW,M,M,M,11000.00,M,M,M,TS,M,M,M,M,M,M,93.40,KLSV 171458Z AUTO 08008KT 10SM TS FEW110 35/15 A2990 RMK AO2 TSB48E57TSB57 SLP094 T03460145 52018 $,M
VGT,2022-07-17 15:00,-115.1933,36.2111,667.00,90.00,66.00,45.25,0.00,0.00,0.00,29.94,M,10.00,M,FEW,FEW,M,M,4800.00,7000.00,M,M,TS,M,M,M,M,M,M,92.59,KVGT 171500Z 00000KT 10SM TS FEW048 FEW070 32/19 A2994 RMK AO2 LTG DSNT N TSB1454 T03220189,M
LAS,2022-07-17 15:13,-115.1634,36.0719,663.00,92.00,56.00,29.80,290.00,14.00,0.00,29.90,M,10.00,M,BKN,OVC,M,M,11000.00,25000.00,M,M,VCTS,M,M,M,M,M,M,90.17,KLAS 171513Z 29014KT 10SM VCTS BKN110CB OVC250 33/13 A2990 RMK AO2 LTG DSNT N AND E AND SW TSE07 PRESFR TS MOV NW SH DSNT N T03330133,M
BAM,2022-07-17 15:15,-116.8743,40.5990,1382.36,M,M,M,0.00,0.00,0.00,30.07,M,10.00,M,CLR,M,M,M,M,M,M,M,M,M,M,M,M,M,M,M,KBAM 171515Z AUTO 00000KT 10SM CLR A3007 RMK AO1,M
BVU,2022-07-17 15:15,-114.8611,35.9475,671.00,M,M,M,M,M,0.00,M,M,M,M,M,M,M,M,M,M,M,M,M,M,M,M,M,M,M,M,KBVU 171515Z AUTO RMK AO2 PNO PWINO TSNO,M
CXP,2022-07-17 15:15,-119.7326,39.1923,1431.00,77.00,48.20,36.22,0.00,0.00,0.00,30.10,M,10.00,M,CLR,M,M,M,M,M,M,M,M,M,M,M,M,M,M,77.00,KCXP 171515Z AUTO 00000KT 10SM CLR 25/09 A3010 RMK AO2,M
VGT,2022-07-17 15:15,-115.1933,36.2111,667.00,91.00,64.00,40.90,260.00,12.00,0.00,29.92,M,10.00,M,CLR,M,M,M,M,M,M,M,VCTS,M,M,M,M,M,M,92.52,KVGT 171515Z 26012KT 10SM VCTS CLR 33/18 A2992 RMK AO2 LTG DSNT N AND SE TSB1454E09 T03280178,M
RTS,2022-07-17 15:15,-119.8764,39.6682,1539.00,77.00,37.40,23.93,0.00,0.00,0.00,30.12,M,10.00,M,CLR,M,M,M,M,M,M,M,M,M,M,M,M,M,M,77.00,KRTS 171515Z AUTO 00000KT 10SM CLR 25/03 A3012 RMK AO2,M
05U,2022-07-17 15:15,-116.0051,39.6042,1811.23,82.40,44.60,26.49,0.00,0.00,0.00,30.19,M,10.00,M,CLR,M,M,M,M,M,M,M,M,M,M,M,M,M,M,80.50,K05U 171515Z AUTO 00000KT 10SM CLR 28/07 A3019 RMK A01,M
MEV,2022-07-17 15:15,-119.7500,38.9963,1441.42,73.40,46.40,38.18,0.00,0.00,0.00,30.09,M,10.00,M,CLR,M,M,M,M,M,M,M,M,M,M,M,M,M,M,73.40,KMEV 171515Z AUTO 00000KT 10SM CLR 23/08 A3009 RMK AO2,M
HTH,2022-07-17 15:15,-118.6315,38.5448,1282.89,82.40,46.40,28.36,0.00,0.00,0.00,30.06,M,10.00,M,CLR,M,M,M,M,M,M,M,M,M,M,M,M,M,M,80.64,KHTH 171515Z AUTO 00000KT 10SM CLR 28/08 A3006 RMK A01,M
TMT,2022-07-17 15:15,-117.1971,39.4643,1749.34,72.70,48.00,41.52,0.00,0.00,0.00,30.18,M,10.00,M,CLR,M,M,M,M,M,M,M,M,M,M,M,M,M,M,72.70,KTMT 171515Z AUTO 00000KT 10SM CLR 23/09 A3018 RMK AO2 T02260089,M
HND,2022-07-17 15:17,-115.1344,35.9729,742.79,M,M,M,M,M,0.00,M,M,M,M,M,M,M,M,M,M,M,M,M,M,M,M,M,M,M,M,KHND 171517Z RMK AO2 LTG DSNT E AND SW AND NW TSE11 $,M
INS,2022-07-17 15:18,-115.6733,36.5872,955.00,87.80,53.60,31.17,140.00,11.00,0.00,29.98,1009.30,10.00,17.00,SCT,BKN,OVC,M,12000.00,16000.00,18000.00,M,M,M,M,M,M,M,M,85.72,KINS 171518Z AUTO 14011G17KT 10SM SCT120 BKN160 OVC180 31/12 A2998 RMK AO2 WSHFT 03 LTG DSNT NE-E SLP093 $,M
LSV,2022-07-17 15:21,-115.0343,36.2362,570.00,93.20,57.20,29.99,50.00,3.00,0.00,29.91,1009.80,10.00,M,CLR,M,M,M,M,M,M,M,M,M,M,M,M,M,M,91.91,KLSV 171521Z 05003KT 10SM CLR 34/14 A2991 RMK TSE08 SLP098 $,M
LAS,2022-07-17 15:23,-115.1634,36.0719,663.00,93.00,54.00,26.87,270.00,11.00,0.00,29.92,M,10.00,M,BKN,OVC,M,M,11000.00,25000.00,M,M,M,M,M,M,M,M,M,90.76,KLAS 171523Z 27011KT 10SM BKN110 OVC250 34/12 A2992 RMK AO2 WSHFT 1509 LTG DSNT E AND SW TSE07 TS MOV NW SH DSNT N T03390122,M
INS,2022-07-17 15:24,-115.6733,36.5872,955.00,87.80,55.40,33.29,150.00,4.00,0.00,29.98,1009.30,10.00,17.00,SCT,OVC,M,M,12000.00,16000.00,M,M,TS,M,M,M,M,M,M,86.11,KINS 171524Z AUTO 15004G17KT 10SM TS SCT120 OVC160 31/13 A2998 RMK AO2 TSB24 SLP093 $,M
LSV,2022-07-17 15:27,-115.0343,36.2362,570.00,93.20,57.20,29.99,80.00,10.00,0.00,29.91,1009.80,10.00,M,SCT,M,M,M,12000.00,M,M,M,TS,M,M,M,M,M,M,91.91,KLSV 171527Z 08010KT 10SM TS SCT120CB 34/14 A2991 RMK TSB27 SLP098 $,M
VGT,2022-07-17 15:28,-115.1933,36.2111,667.00,91.00,61.00,36.80,280.00,13.00,T,29.90,M,10.00,M,FEW,SCT,SCT,M,7000.00,9000.00,11000.00,M,-RA,M,M,M,M,M,M,91.06,KVGT 171528Z 28013KT 10SM -RA FEW070 SCT090 SCT110 33/16 A2990 RMK AO2 LTG DSNT N-SE RAB21 TSB1454E09 P0000 T03280161,M
INS,2022-07-17 15:31,-115.6733,36.5872,955.00,86.00,55.40,35.25,140.00,14.00,0.00,29.98,1009.40,10.00,20.00,BKN,OVC,M,M,12000.00,17000.00,M,M,TS,M,M,M,M,M,M,84.54,KINS 171531Z AUTO 14014G20KT 10SM TS BKN120 OVC170 30/13 A2998 RMK AO2 WSHFT 29 TSB24 SLP094 $,M
HTH,2022-07-17 15:35,-118.6315,38.5448,1282.89,84.20,46.40,26.76,360.00,3.00,0.00,30.06,M,10.00,M,CLR,M,M,M,M,M,M,M,M,M,M,M,M,M,M,81.87,KHTH 171535Z AUTO 36003KT 10SM CLR 29/08 A3006 RMK A01,M
BAM,2022-07-17 15:35,-116.8743,40.5990,1382.36,M,M,M,0.00,0.00,0.00,30.07,M,10.00,M,CLR,M,M,M,M,M,M,M,M,M,M,M,M,M,M,M,KBAM 171535Z AUTO 00000KT 10SM CLR A3007 RMK AO1,M
MEV,2022-07-17 15:35,-119.7500,38.9963,1441.42,77.00,46.40,33.85,290.00,4.00,0.00,30.09,M,10.00,M,CLR,M,M,M,M,M,M,M,M,M,M,M,M,M,M,77.00,KMEV 171535Z AUTO 29004KT 10SM CLR 25/08 A3009 RMK AO2,M
05U,2022-07-17 15:35,-116.0051,39.6042,1811.23,84.20,44.60,24.99,0.00,0.00,0.00,30.19,M,10.00,M,CLR,M,M,M,M,M,M,M,M,M,M,M,M,M,M,81.73,K05U 171535Z AUTO 00000KT 10SM CLR 29/07 A3019 RMK A01,M
RTS,2022-07-17 15:35,-119.8764,39.6682,1539.00,78.80,37.40,22.54,150.00,6.00,0.00,30.12,M,10.00,M,CLR,M,M,M,M,M,M,M,M,M,M,M,M,M,M,78.80,KRTS 171535Z AUTO 15006KT 10SM CLR 26/03 A3012 RMK AO2,M
TMT,2022-07-17 15:35,-117.1971,39.4643,1749.34,M,M,M,0.00,0.00,0.00,30.18,M,10.00,M,CLR,M,M,M,M,M,M,M,M,M,M,M,M,M,M,M,KTMT 171535Z AUTO 00000KT 10SM CLR A3018 RMK AO2,M
BVU,2022-07-17 15:35,-114.8611,35.9475,671.00,M,M,M,M,M,0.00,M,M,M,M,M,M,M,M,M,M,M,M,M,M,M,M,M,M,M,M,KBVU 171535Z AUTO RMK AO2 PNO PWINO TSNO,M
CXP,2022-07-17 15:35,-119.7326,39.1923,1431.00,78.80,42.80,27.81,0.00,0.00,0.00,30.10,M,10.00,M,CLR,M,M,M,M,M,M,M,M,M,M,M,M,M,M,78.80,KCXP 171535Z AUTO 00000KT 10SM CLR 26/06 A3010 RMK AO2,M
INS,2022-07-17 15:39,-115.6733,36.5872,955.00,86.00,55.40,35.25,0.00,0.00,0.00,30.00,1010.10,10.00,M,OVC,M,M,M,12000.00,M,M,M,M,M,M,M,M,M,M,84.54,KINS 171539Z AUTO 00000KT 10SM OVC120 30/13 A3000 RMK AO2 TSB24E39 PRESRR SLP101 $,M
LSV,2022-07-17 15:44,-115.0343,36.2362,570.00,93.20,57.20,29.99,M,6.00,0.00,29.90,1009.50,10.00,M,FEW,FEW,SCT,M,5500.00,7000.00,13000.00,M,-TSRA,M,M,M,M,M,M,91.91,KLSV 171544Z VRB06KT 10SM -TSRA FEW055 FEW070 SCT130CB 34/14 A2990 RMK LTG DSNT E RAB44 TSE21TSB27 SLP095 $,M
05U,2022-07-17 15:50,-116.0051,39.6042,1811.23,86.00,44.60,23.59,0.00,0.00,0.00,30.18,M,10.00,M,CLR,M,M,M,M,M,M,M,M,M,M,M,M,M,M,83.07,K05U 171550Z AUTO 00000KT 10SM CLR 30/07 A3018 RMK A01,M
LSV,2022-07-17 15:52,-115.0343,36.2362,570.00,93.20,64.40,38.73,70.00,7.00,0.00,29.91,1009.80,10.00,M,FEW,FEW,SCT,M,4700.00,6000.00,13000.00,M,M,M,M,M,M,M,M,95.20,KLSV 171552Z COR 07007KT 10SM FEW047 FEW060 SCT130 34/18 A2991 RMK LTG DSNT NE-E RAE53 TSE21TSB27E52 SLP098 $ COR 1559,M
LOL,2022-07-17 15:53,-118.5701,40.0684,1192.43,87.00,40.00,19.01,0.00,0.00,0.00,30.02,1010.80,10.00,M,CLR,M,M,M,M,M,M,M,M,M,M,M,M,M,M,83.68,KLOL 171553Z AUTO 00000KT 10SM CLR 31/04 A3002 RMK AO2 SLP108 T03060044,M
VGT,2022-07-17 15:53,-115.1933,36.2111,667.00,92.00,59.00,33.31,40.00,9.00,T,29.93,1011.80,10.00,M,FEW,FEW,SCT,M,7000.00,8500.00,11000.00,M,M,M,M,M,M,M,M,91.20,KVGT 171553Z 04009KT 10SM FEW070 FEW085 SCT110 33/15 A2993 RMK AO2 LTG DSNT NE AND E RAB21E36 TSB1454E09 SLP118 P0000 T03330150,M
P68,2022-07-17 15:53,-116.0056,39.6014,1993.00,83.00,45.00,26.46,M,3.00,0.00,30.15,1011.10,M,M,M,M,M,M,M,M,M,M,M,M,M,M,M,M,M,80.86,KP68 171553Z AUTO VRB03KT 28/07 A3015 RMK AO1 SLP111 T02830072,M
ELY,2022-07-17 15:53,-114.8453,39.2950,1909.00,82.00,44.00,26.33,220.00,4.00,T,30.21,1010.90,10.00,M,FEW,M,M,M,10000.00,M,M,M,M,M,M,M,M,M,M,80.22,KELY 171553Z AUTO 22004KT 10SM FEW100 28/07 A3021 RMK AO2 RAB29E38 SLP109 P0000 T02780067,M
DRA,2022-07-17 15:53,-116.0278,36.6206,1009.00,90.00,51.00,26.52,30.00,5.00,0.00,29.99,1009.30,10.00,M,CLR,M,M,M,M,M,M,M,M,M,M,M,M,M,M,87.24,KDRA 171553Z AUTO 03005KT 10SM CLR 32/11 A2999 RMK AO2 SLP093 T03220106,M
CXP,2022-07-17 15:55,-119.7326,39.1923,1431.00,82.40,42.80,24.72,0.00,0.00,0.00,30.10,M,10.00,M,CLR,M,M,M,M,M,M,M,M,M,M,M,M,M,M,80.39,KCXP 171555Z AUTO 00000KT 10SM CLR 28/06 A3010 RMK AO2,M
HTH,2022-07-17 15:55,-118.6315,38.5448,1282.89,84.20,44.60,24.99,350.00,3.00,0.00,30.06,M,10.00,M,CLR,M,M,M,M,M,M,M,M,M,M,M,M,M,M,81.73,KHTH 171555Z AUTO 35003KT 10SM CLR 29/07 A3006 RMK A01,M
BAM,2022-07-17 15:55,-116.8743,40.5990,1382.36,M,M,M,310.00,5.00,0.00,30.07,M,10.00,M,CLR,M,M,M,M,M,M,M,M,M,M,M,M,M,M,M,KBAM 171555Z AUTO 31005KT 10SM CLR A3007 RMK AO1,M
MEV,2022-07-17 15:55,-119.7500,38.9963,1441.42,80.60,44.60,28.08,0.00,0.00,0.00,30.09,M,10.00,M,CLR,M,M,M,M,M,M,M,M,M,M,M,M,M,M,79.42,KMEV 171555Z AUTO 00000KT 10SM CLR 27/07 A3009 RMK AO2,M
RTS,2022-07-17 15:55,-119.8764,39.6682,1539.00,78.80,35.60,21.00,0.00,0.00,0.00,30.11,M,10.00,M,CLR,M,M,M,M,M,M,M,M,M,M,M,M,M,M,78.80,KRTS 171555Z AUTO 00000KT 10SM CLR 26/02 A3011 RMK AO2,M
RNO,2022-07-17 15:55,-119.7711,39.4839,1341.00,82.00,43.00,25.24,0.00,0.00,0.00,30.06,1011.00,10.00,M,FEW,M,M,M,10000.00,M,M,M,M,M,M,M,M,M,M,80.15,KRNO 171555Z 00000KT 10SM FEW100 28/06 A3006 RMK AO2 SLP110 T02780061,M
TMT,2022-07-17 15:55,-117.1971,39.4643,1749.34,78.00,47.50,34.02,0.00,0.00,0.00,30.17,M,10.00,M,CLR,M,M,M,M,M,M,M,M,M,M,M,M,M,M,78.10,KTMT 171555Z AUTO 00000KT 10SM CLR 26/09 A3017 RMK AO2 T02560086,M
BVU,2022-07-17 15:55,-114.8611,35.9475,671.00,M,M,M,M,M,0.00,M,M,M,M,M,M,M,M,M,M,M,M,M,M,M,M,M,M,M,M,KBVU 171555Z AUTO RMK AO2 PNO PWINO TSNO,M
EKO,2022-07-17 15:56,-115.7860,40.8242,1367.00,83.00,39.00,21.00,0.00,0.00,0.00,30.09,1011.50,10.00,M,CLR,M,M,M,M,M,M,M,M,M,M,M,M,M,M,80.53,KEKO 171556Z AUTO 00000KT 10SM CLR 28/04 A3009 RMK AO2 SLP115 T02830039,M
NFL,2022-07-17 15:56,-118.7010,39.4166,1199.00,85.00,38.00,18.86,300.00,4.00,0.00,30.02,1013.70,10.00,M,CLR,M,M,M,M,M,M,M,M,M,M,M,M,M,M,81.91,KNFL 171556Z AUTO 30004KT 10SM CLR 29/03 A3002 RMK AO2 SLP137 T02940033,M
HND,2022-07-17 15:56,-115.1344,35.9729,742.79,M,M,M,M,M,0.00,M,M,M,M,M,M,M,M,M,M,M,M,M,M,M,M,M,M,M,M,KHND 171556Z RMK AO2 LTG DSNT NE AND E TSE11 SLPNO $,M
WMC,2022-07-17 15:56,-117.8072,40.9019,1315.00,86.00,38.00,18.20,230.00,3.00,0.00,30.05,1011.20,10.00,M,CLR,M,M,M,M,M,M,M,M,M,M,M,M,M,M,82.74,KWMC 171556Z AUTO 23003KT 10SM CLR 30/03 A3005 RMK AO2 SLP112 T03000033 TSNO,M
TPH,2022-07-17 15:56,-117.0904,38.0505,1654.00,83.00,45.00,26.46,130.00,4.00,0.00,30.15,1011.10,10.00,M,CLR,M,M,M,M,M,M,M,M,M,M,M,M,M,M,80.86,KTPH 171556Z AUTO 13004KT 10SM CLR 28/07 A3015 RMK AO2 SLP111 T02830072,M
LAS,2022-07-17 15:56,-115.1634,36.0719,663.00,93.00,56.00,28.79,40.00,5.00,0.00,29.95,1010.90,10.00,M,SCT,BKN,BKN,M,11000.00,15000.00,25000.00,M,M,M,M,M,M,M,M,91.29,KLAS 171556Z 04005KT 10SM SCT110 BKN150 BKN250 34/13 A2995 RMK AO2 WSHFT 1509 LTG DSNT NE AND E TSE07 SLP109 TS MOV NW SH DSNT NE-E T03390133,M
INS,2022-07-17 15:58,-115.6733,36.5872,955.00,87.00,56.70,35.91,120.00,7.00,0.00,30.01,1010.50,5.00,M,FEW,OVC,M,M,8000.00,11000.00,M,M,HZ,M,M,M,29.00,90.00,2022-07-17 15:38,85.63,KINS 171558Z AUTO 12007KT 5SM HZ FEW080 OVC110 31/14 A3001 RMK AO2 PK WND 09029/38 TSB24E39 SLP105 T03050137 $,M
LSV,2022-07-17 15:59,-115.0343,36.2362,570.00,91.60,65.00,41.71,70.00,7.00,T,29.91,1009.80,10.00,M,FEW,FEW,SCT,M,5500.00,7000.00,13000.00,M,M,M,M,M,M,M,M,93.82,KLSV 171559Z 07007KT 10SM FEW055 FEW070 SCT130 33/18 A2991 RMK LTG DSNT NE-E RAB44E52 TSE21TSB27E52 SLP098 P0000 T03310184 $,M
INS,2022-07-17 16:06,-115.6733,36.5872,955.00,86.00,57.20,37.62,100.00,8.00,0.00,30.00,1010.10,8.00,17.00,FEW,OVC,M,M,8000.00,11000.00,M,M,-RA,M,M,M,M,M,M,84.97,KINS 171606Z AUTO 10008G17KT 8SM -RA FEW080 OVC110 30/14 A3000 RMK AO2 RAB06 SLP101 $,M
05U,2022-07-17 16:15,-116.0051,39.6042,1811.23,87.80,44.60,22.27,0.00,0.00,0.00,30.18,M,10.00,M,CLR,M,M,M,M,M,M,M,M,M,M,M,M,M,M,84.53,K05U 171615Z AUTO 00000KT 10SM CLR 31/07 A3018 RMK A01,M
CXP,2022-07-17 16:15,-119.7326,39.1923,1431.00,86.00,42.80,22.02,0.00,0.00,0.00,30.09,M,10.00,M,CLR,M,M,M,M,M,M,M,M,M,M,M,M,M,M,82.95,KCXP 171615Z AUTO 00000KT 10SM CLR 30/06 A3009 RMK AO2,M
BVU,2022-07-17 16:15,-114.8611,35.9475,671.00,M,M,M,M,M,0.00,M,M,M,M,M,M,M,M,M,M,M,M,M,M,M,M,M,M,M,M,KBVU 171615Z AUTO RMK AO2 PNO PWINO TSNO,M
HTH,2022-07-17 16:15,-118.6315,38.5448,1282.89,86.00,44.60,23.59,M,4.00,0.00,30.05,M,10.00,M,CLR,M,M,M,M,M,M,M,M,M,M,M,M,M,M,83.07,KHTH 171615Z AUTO VRB04KT 10SM CLR 30/07 A3005 RMK A01,M
TMT,2022-07-17 16:15,-117.1971,39.4643,1749.34,80.60,48.00,31.94,0.00,0.00,0.00,30.16,M,10.00,M,CLR,M,M,M,M,M,M,M,M,M,M,M,M,M,M,79.69,KTMT 171615Z AUTO 00000KT 10SM CLR 27/09 A3016 RMK AO2 T02700089,M
BAM,2022-07-17 16:15,-116.8743,40.5990,1382.36,M,M,M,330.00,6.00,0.00,30.07,M,10.00,M,CLR,M,M,M,M,M,M,M,M,M,M,M,M,M,M,M,KBAM 171615Z AUTO 33006KT 10SM CLR A3007 RMK AO1,M
MEV,2022-07-17 16:15,-119.7500,38.9963,1441.42,80.60,42.80,26.22,0.00,0.00,0.00,30.08,M,10.00,M,CLR,M,M,M,M,M,M,M,M,M,M,M,M,M,M,79.30,KMEV 171615Z AUTO 00000KT 10SM CLR 27/06 A3008 RMK AO2,M
RTS,2022-07-17 16:15,-119.8764,39.6682,1539.00,80.60,35.60,19.79,M,4.00,0.00,30.11,M,10.00,M,CLR,M,M,M,M,M,M,M,M,M,M,M,M,M,M,78.94,KRTS 171615Z AUTO VRB04KT 10SM CLR 27/02 A3011 RMK AO2,M
INS,2022-07-17 16:16,-115.6733,36.5872,955.00,87.80,53.60,31.17,160.00,4.00,0.00,30.00,1010.10,9.00,M,BKN,BKN,M,M,11000.00,14000.00,M,M,M,M,M,M,M,M,M,85.72,KINS 171616Z AUTO 16004KT 9SM BKN110 BKN140 31/12 A3000 RMK AO2 LTG DSNT S RAB06E16 SLP101 $,M
RTS,2022-07-17 16:35,-119.8764,39.6682,1539.00,84.20,35.60,17.61,M,4.00,0.00,30.11,M,6.00,M,CLR,M,M,M,M,M,M,M,HZ,M,M,M,M,M,M,81.34,KRTS 171635Z AUTO VRB04KT 6SM HZ CLR 29/02 A3011 RMK AO2,M
05U,2022-07-17 16:35,-116.0051,39.6042,1811.23,86.00,44.60,23.59,0.00,0.00,0.00,30.17,M,10.00,M,CLR,M,M,M,M,M,M,M,M,M,M,M,M,M,M,83.07,K05U 171635Z AUTO 00000KT 10SM CLR 30/07 A3017 RMK A01,M
MEV,2022-07-17 16:35,-119.7500,38.9963,1441.42,84.20,44.60,24.99,320.00,6.00,0.00,30.08,M,10.00,M,CLR,M,M,M,M,M,M,M,M,M,M,M,M,M,M,81.73,KMEV 171635Z AUTO 32006KT 10SM CLR 29/07 A3008 RMK AO2,M
BAM,2022-07-17 16:35,-116.8743,40.5990,1382.36,M,M,M,330.00,8.00,0.00,30.06,M,10.00,M,CLR,M,M,M,M,M,M,M,M,M,M,M,M,M,M,M,KBAM 171635Z AUTO 33008KT 10SM CLR A3006 RMK AO1,M
BVU,2022-07-17 16:35,-114.8611,35.9475,671.00,M,M,M,M,M,0.00,M,M,M,M,M,M,M,M,M,M,M,M,M,M,M,M,M,M,M,M,KBVU 171635Z AUTO RMK AO2 PNO PWINO TSNO,M
CXP,2022-07-17 16:35,-119.7326,39.1923,1431.00,87.80,42.80,20.79,120.00,4.00,0.00,30.09,M,10.00,M,CLR,M,M,M,M,M,M,M,M,M,M,M,M,M,M,84.40,KCXP 171635Z AUTO 12004KT 10SM CLR 31/06 A3009 RMK AO2,M
TMT,2022-07-17 16:35,-117.1971,39.4643,1749.34,M,M,M,0.00,0.00,0.00,30.16,M,10.00,M,CLR,M,M,M,M,M,M,M,M,M,M,M,M,M,M,M,KTMT 171635Z AUTO 00000KT 10SM CLR A3016 RMK AO2,M
HTH,2022-07-17 16:35,-118.6315,38.5448,1282.89,86.00,42.80,22.02,M,4.00,0.00,30.05,M,10.00,M,CLR,M,M,M,M,M,M,M,M,M,M,M,M,M,M,82.95,KHTH 171635Z AUTO VRB04KT 10SM CLR 30/06 A3005 RMK A01,M
ELY,2022-07-17 16:53,-114.8453,39.2950,1909.00,88.00,43.00,20.82,170.00,6.00,0.00,30.20,1010.50,10.00,14.00,CLR,M,M,M,M,M,M,M,M,M,M,M,M,M,M,84.58,KELY 171653Z AUTO 17006G14KT 10SM CLR 31/06 A3020 RMK AO2 SLP105 T03110061,M
DRA,2022-07-17 16:53,-116.0278,36.6206,1009.00,90.00,52.00,27.42,170.00,8.00,0.00,30.02,1010.40,10.00,M,BKN,M,M,M,11000.00,M,M,M,M,M,M,M,M,M,M,87.40,KDRA 171653Z AUTO 17008KT 10SM BKN110 32/11 A3002 RMK AO2 SLP104 T03220111,M
LOL,2022-07-17 16:53,-118.5701,40.0684,1192.43,90.00,38.00,16.04,M,3.00,0.00,30.01,1010.40,10.00,M,CLR,M,M,M,M,M,M,M,M,M,M,M,M,M,M,86.03,KLOL 171653Z AUTO VRB03KT 10SM CLR 32/03 A3001 RMK AO2 SLP104 T03220033,M
VGT,2022-07-17 16:53,-115.1933,36.2111,667.00,94.00,56.00,28.00,80.00,5.00,0.00,29.94,1012.00,10.00,M,CLR,M,M,M,M,M,M,M,M,M,M,M,M,M,M,92.22,KVGT 171653Z 08005KT 10SM CLR 34/13 A2994 RMK AO2 LTG DSNT N AND E SLP120 T03440133,M
P68,2022-07-17 16:53,-116.0056,39.6014,1993.00,88.00,45.00,22.47,0.00,0.00,0.00,30.14,1010.30,M,M,M,M,M,M,M,M,M,M,M,M,M,M,M,M,M,84.72,KP68 171653Z AUTO 00000KT 31/07 A3014 RMK AO1 SLP103 T03110072,M
CXP,2022-07-17 16:55,-119.7326,39.1923,1431.00,87.80,42.80,20.79,M,4.00,0.00,30.08,M,10.00,M,CLR,M,M,M,M,M,M,M,M,M,M,M,M,M,M,84.40,KCXP 171655Z AUTO VRB04KT 10SM CLR 31/06 A3008 RMK AO2,M
TMT,2022-07-17 16:55,-117.1971,39.4643,1749.34,M,M,M,330.00,4.00,0.00,30.16,M,10.00,M,CLR,M,M,M,M,M,M,M,M,M,M,M,M,M,M,M,KTMT 171655Z AUTO 33004KT 10SM CLR A3016 RMK AO2,M
HTH,2022-07-17 16:55,-118.6315,38.5448,1282.89,87.80,41.00,19.40,350.00,6.00,0.00,30.05,M,10.00,M,CLR,M,M,M,M,M,M,M,M,M,M,M,M,M,M,84.30,KHTH 171655Z AUTO 35006KT 10SM CLR 31/05 A3005 RMK A01,M
BAM,2022-07-17 16:55,-116.8743,40.5990,1382.36,M,M,M,330.00,8.00,0.00,30.06,M,10.00,M,CLR,M,M,M,M,M,M,M,M,M,M,M,M,M,M,M,KBAM 171655Z AUTO 33008KT 10SM CLR A3006 RMK AO1,M
MEV,2022-07-17 16:55,-119.7500,38.9963,1441.42,87.80,42.80,20.79,0.00,0.00,0.00,30.07,M,10.00,M,CLR,M,M,M,M,M,M,M,M,M,M,M,M,M,M,84.40,KMEV 171655Z AUTO 00000KT 10SM CLR 31/06 A3007 RMK AO2,M
05U,2022-07-17 16:55,-116.0051,39.6042,1811.23,89.60,44.60,21.04,0.00,0.00,0.00,30.17,M,10.00,M,CLR,M,M,M,M,M,M,M,M,M,M,M,M,M,M,86.07,K05U 171655Z AUTO 00000KT 10SM CLR 32/07 A3017 RMK A01,M
RTS,2022-07-17 16:55,-119.8764,39.6682,1539.00,84.20,37.40,18.91,M,4.00,0.00,30.10,M,9.00,M,CLR,M,M,M,M,M,M,M,M,M,M,M,M,M,M,81.38,KRTS 171655Z AUTO VRB04KT 9SM CLR 29/03 A3010 RMK AO2,M
RNO,2022-07-17 16:55,-119.7711,39.4839,1341.00,87.00,43.00,21.42,0.00,0.00,0.00,30.05,1010.40,10.00,M,FEW,M,M,M,10000.00,M,M,M,M,M,M,M,M,M,M,83.84,KRNO 171655Z 00000KT 10SM FEW100 31/06 A3005 RMK AO2 SLP104 T03060061,M
BVU,2022-07-17 16:55,-114.8611,35.9475,671.00,M,M,M,M,M,0.00,M,M,M,M,M,M,M,M,M,M,M,M,M,M,M,M,M,M,M,M,KBVU 171655Z AUTO RMK AO2 PNO PWINO TSNO,M
NFL,2022-07-17 16:56,-118.7010,39.4166,1199.00,90.00,36.00,14.88,340.00,5.00,0.00,30.01,1013.30,10.00,M,CLR,M,M,M,M,M,M,M,M,M,M,M,M,M,M,85.97,KNFL 171656Z AUTO 34005KT 10SM CLR 32/02 A3001 RMK AO2 SLP133 T03220022,M
EKO,2022-07-17 16:56,-115.7860,40.8242,1367.00,89.00,42.00,19.42,210.00,6.00,0.00,30.08,1010.70,10.00,M,CLR,M,M,M,M,M,M,M,M,M,M,M,M,M,M,85.45,KEKO 171656Z AUTO 21006KT 10SM CLR 32/06 A3008 RMK AO2 SLP107 T03170056,M
HND,2022-07-17 16:56,-115.1344,35.9729,742.79,M,M,M,M,M,0.00,M,M,M,M,M,M,M,M,M,M,M,M,M,M,M,M,M,M,M,M,KHND 171656Z RMK AO2 LTG DSNT NE SLPNO $,M
WMC,2022-07-17 16:56,-117.8072,40.9019,1315.00,92.00,30.90,11.43,300.00,8.00,0.00,30.03,1010.60,10.00,M,CLR,M,M,M,M,M,M,M,M,M,M,M,M,M,M,87.17,KWMC 171656Z AUTO 30008KT 10SM CLR 33/M01 A3003 RMK AO2 SLP106 T03331006 TSNO,M
TPH,2022-07-17 16:56,-117.0904,38.0505,1654.00,88.00,46.00,23.34,180.00,6.00,0.00,30.14,1010.50,10.00,M,CLR,M,M,M,M,M,M,M,M,M,M,M,M,M,M,84.81,KTPH 171656Z AUTO 18006KT 10SM CLR 31/08 A3014 RMK AO2 SLP105 T03110078,M
LAS,2022-07-17 16:56,-115.1634,36.0719,663.00,96.00,57.00,27.23,10.00,8.00,0.00,29.94,1010.50,10.00,M,FEW,BKN,BKN,M,11000.00,14000.00,25000.00,M,M,M,M,M,M,M,M,94.94,KLAS 171656Z 01008KT 10SM FEW110 BKN140 BKN250 36/14 A2994 RMK AO2 LTG DSNT N AND NE SLP105 CB DSNT N-NE SH DSNT N-NE T03560139,M
INS,2022-07-17 16:58,-115.6733,36.5872,955.00,92.00,51.00,24.99,110.00,10.00,T,30.00,1010.00,10.00,M,OVC,M,M,M,13000.00,M,M,M,M,M,M,M,M,M,M,89.04,KINS 171658Z AUTO 11010KT 10SM OVC130 33/11 A3000 RMK AO2 LTG DSNT E RAB06E16 SLP100 P0000 T03330106 $,M
LSV,2022-07-17 16:58,-115.0343,36.2362,570.00,90.00,61.00,37.85,40.00,4.00,T,29.90,1009.70,10.00,M,SCT,M,M,M,20000.00,M,M,M,M,M,M,M,M,M,M,90.13,KLSV 171658Z AUTO 04004KT 10SM SCT200 32/16 A2990 RMK AO2 LTG DSNT N SLP097 P0000 T03230161 $,M
HTH,2022-07-17 17:15,-118.6315,38.5448,1282.89,87.80,41.00,19.40,10.00,6.00,0.00,30.04,M,10.00,M,CLR,M,M,M,M,M,M,M,M,M,M,M,M,M,M,84.30,KHTH 171715Z AUTO 01006KT 10SM CLR 31/05 A3004 RMK A01,M
BVU,2022-07-17 17:15,-114.8611,35.9475,671.00,M,M,M,M,M,0.00,M,M,M,M,M,M,M,M,M,M,M,M,M,M,M,M,M,M,M,M,KBVU 171715Z AUTO RMK AO2 PNO PWINO TSNO,M
CXP,2022-07-17 17:15,-119.7326,39.1923,1431.00,91.40,42.80,18.56,180.00,7.00,0.00,30.08,M,10.00,M,CLR,M,M,M,M,M,M,M,M,M,M,M,M,M,M,87.52,KCXP 171715Z AUTO 18007KT 10SM CLR 33/06 A3008 RMK AO2,M
RTS,2022-07-17 17:15,-119.8764,39.6682,1539.00,86.00,39.20,19.15,M,6.00,0.00,30.11,M,10.00,14.00,CLR,M,M,M,M,M,M,M,M,M,M,M,M,M,M,82.79,KRTS 171715Z AUTO VRB06G14KT 10SM CLR 30/04 A3011 RMK AO2,M
05U,2022-07-17 17:15,-116.0051,39.6042,1811.23,91.40,42.80,18.56,0.00,0.00,0.00,30.17,M,10.00,M,CLR,M,M,M,M,M,M,M,M,M,M,M,M,M,M,87.52,K05U 171715Z AUTO 00000KT 10SM CLR 33/06 A3017 RMK A01,M
MEV,2022-07-17 17:15,-119.7500,38.9963,1441.42,87.80,42.80,20.79,M,4.00,0.00,30.07,M,10.00,M,CLR,M,M,M,M,M,M,M,M,M,M,M,M,M,M,84.40,KMEV 171715Z AUTO VRB04KT 10SM CLR 31/06 A3007 RMK AO2,M
BAM,2022-07-17 17:15,-116.8743,40.5990,1382.36,M,M,M,350.00,8.00,0.00,30.05,M,10.00,M,CLR,M,M,M,M,M,M,M,M,M,M,M,M,M,M,M,KBAM 171715Z AUTO 35008KT 10SM CLR A3005 RMK AO1,M
TMT,2022-07-17 17:15,-117.1971,39.4643,1749.34,85.30,45.70,25.15,50.00,5.00,0.00,30.15,M,10.00,M,CLR,M,M,M,M,M,M,M,M,M,M,M,M,M,M,82.62,KTMT 171715Z AUTO 05005KT 10SM CLR 30/08 A3015 RMK AO2 T02960076,M
05U,2022-07-17 17:35,-116.0051,39.6042,1811.23,91.40,42.80,18.56,270.00,5.00,0.00,30.16,M,10.00,M,CLR,M,M,M,M,M,M,M,M,M,M,M,M,M,M,87.52,K05U 171735Z AUTO 27005KT 10SM CLR 33/06 A3016 RMK A01,M
BVU,2022-07-17 17:35,-114.8611,35.9475,671.00,M,M,M,M,M,0.00,M,M,M,M,M,M,M,M,M,M,M,M,M,M,M,M,M,M,M,M,KBVU 171735Z AUTO RMK AO2 PNO PWINO TSNO,M
HTH,2022-07-17 17:35,-118.6315,38.5448,1282.89,89.60,39.20,17.09,10.00,7.00,0.00,30.04,M,10.00,M,CLR,M,M,M,M,M,M,M,M,M,M,M,M,M,M,85.73,KHTH 171735Z AUTO 01007KT 10SM CLR 32/04 A3004 RMK A01,M
CXP,2022-07-17 17:35,-119.7326,39.1923,1431.00,91.40,42.80,18.56,M,6.00,0.00,30.08,M,10.00,M,CLR,M,M,M,M,M,M,M,M,M,M,M,M,M,M,87.52,KCXP 171735Z AUTO VRB06KT 10SM CLR 33/06 A3008 RMK AO2,M
TMT,2022-07-17 17:35,-117.1971,39.4643,1749.34,85.00,44.80,24.62,0.00,0.00,0.00,30.15,M,10.00,M,CLR,M,M,M,M,M,M,M,VCTS,M,M,M,M,M,M,82.25,KTMT 171735Z AUTO 00000KT 10SM VCTS CLR 29/07 A3015 RMK AO2 T02940071,M
RTS,2022-07-17 17:35,-119.8764,39.6682,1539.00,86.00,39.20,19.15,M,4.00,0.00,30.10,M,10.00,14.00,CLR,M,M,M,M,M,M,M,M,M,M,M,M,M,M,82.79,KRTS 171735Z AUTO VRB04G14KT 10SM CLR 30/04 A3010 RMK AO2,M
BAM,2022-07-17 17:35,-116.8743,40.5990,1382.36,M,M,M,310.00,6.00,0.00,30.05,M,10.00,M,CLR,M,M,M,M,M,M,M,M,M,M,M,M,M,M,M,KBAM 171735Z AUTO 31006KT 10SM CLR A3005 RMK AO1,M
MEV,2022-07-17 17:35,-119.7500,38.9963,1441.42,87.80,42.80,20.79,0.00,0.00,0.00,30.07,M,10.00,M,CLR,M,M,M,M,M,M,M,M,M,M,M,M,M,M,84.40,KMEV 171735Z AUTO 00000KT 10SM CLR 31/06 A3007 RMK AO2,M
INS,2022-07-17 17:48,-115.6733,36.5872,955.00,93.20,50.00,23.04,170.00,13.00,0.00,30.02,1010.70,10.00,18.00,OVC,M,M,M,12000.00,M,M,M,M,M,M,M,M,M,M,90.10,KINS 171748Z AUTO 17013G18KT 10SM OVC120 34/10 A3002 RMK AO2 WSHFT 46 LTG DSNT W SLP107 $,M
LOL,2022-07-17 17:53,-118.5701,40.0684,1192.43,95.00,37.00,13.25,200.00,8.00,0.00,30.00,1010.10,10.00,M,CLR,M,M,M,M,M,M,M,M,M,M,M,M,M,M,90.44,KLOL 171753Z AUTO 20008KT 10SM CLR 35/03 A3000 RMK AO2 SLP101 T03500028 10350 20183 58006,M
VGT,2022-07-17 17:53,-115.1933,36.2111,667.00,98.00,54.00,22.97,M,3.00,0.00,29.92,1011.40,10.00,M,CLR,M,M,M,M,M,M,M,M,M,M,M,M,M,M,96.10,KVGT 171753Z VRB03KT 10SM CLR 37/12 A2992 RMK AO2 SLP114 60000 T03670122 10367 20317 58007,M
ELY,2022-07-17 17:53,-114.8453,39.2950,1909.00,89.00,44.00,20.97,210.00,9.00,0.00,30.19,1010.40,10.00,M,BKN,M,M,M,10000.00,M,M,M,M,M,M,M,M,M,M,85.59,KELY 171753Z AUTO 21009KT 10SM BKN100 32/07 A3019 RMK AO2 LTG DSNT W-N SLP104 60000 T03170067 10333 20122 56008,M
DRA,2022-07-17 17:53,-116.0278,36.6206,1009.00,87.00,56.00,34.66,100.00,9.00,T,30.04,1011.60,10.00,M,BKN,M,M,M,12000.00,M,M,M,M,M,M,M,M,M,M,85.61,KDRA 171753Z AUTO 10009KT 10SM BKN120 31/13 A3004 RMK AO2 RAB23E48 SLP116 P0000 60000 T03060133 10328 20267 53020,M
P68,2022-07-17 17:53,-116.0056,39.6014,1993.00,85.00,48.00,27.79,270.00,6.00,0.00,30.13,1010.80,M,M,M,M,M,M,M,M,M,M,M,M,M,M,M,M,M,82.53,KP68 171753Z AUTO 27006KT 29/09 A3013 RMK AO1 SLP108 T02940089 10322 20139 56008,M
RTS,2022-07-17 17:55,-119.8764,39.6682,1539.00,89.60,41.00,18.33,200.00,11.00,0.00,30.10,M,10.00,22.00,CLR,M,M,M,M,M,M,M,M,M,M,M,M,M,M,85.82,KRTS 171755Z AUTO 20011G22KT 170V250 10SM CLR 32/05 A3010 RMK AO2,M
MEV,2022-07-17 17:55,-119.7500,38.9963,1441.42,91.40,41.00,17.32,M,3.00,0.00,30.06,M,10.00,M,CLR,M,M,M,M,M,M,M,M,M,M,M,M,M,M,87.40,KMEV 171755Z AUTO VRB03KT 10SM CLR 33/05 A3006 RMK AO2,M
BAM,2022-07-17 17:55,-116.8743,40.5990,1382.36,M,M,M,40.00,7.00,0.00,30.04,M,10.00,M,CLR,M,M,M,M,M,M,M,M,M,M,M,M,M,M,M,KBAM 171755Z AUTO 04007KT 10SM CLR A3004 RMK AO1,M
HTH,2022-07-17 17:55,-118.6315,38.5448,1282.89,89.60,39.20,17.09,M,6.00,0.00,30.04,M,10.00,M,CLR,M,M,M,M,M,M,M,M,M,M,M,M,M,M,85.73,KHTH 171755Z AUTO VRB06KT 10SM CLR 32/04 A3004 RMK A01,M
BVU,2022-07-17 17:55,-114.8611,35.9475,671.00,M,M,M,M,M,0.00,M,M,M,M,M,M,M,M,M,M,M,M,M,M,M,M,M,M,M,M,KBVU 171755Z AUTO RMK AO2 PNO PWINO TSNO,M
CXP,2022-07-17 17:55,-119.7326,39.1923,1431.00,93.20,42.80,17.55,M,3.00,0.00,30.08,M,10.00,10.00,CLR,M,M,M,M,M,M,M,M,M,M,M,M,M,M,89.17,KCXP 171755Z AUTO VRB03G10KT 10SM CLR 34/06 A3008 RMK AO2,M
TMT,2022-07-17 17:55,-117.1971,39.4643,1749.34,M,M,M,0.00,0.00,0.00,30.15,M,10.00,M,SCT,M,M,M,12000.00,M,M,M,M,M,M,M,M,M,M,M,KTMT 171755Z AUTO 00000KT 10SM SCT120 A3015 RMK AO2,M
RNO,2022-07-17 17:55,-119.7711,39.4839,1341.00,89.00,44.00,20.97,130.00,4.00,0.00,30.04,1010.10,10.00,M,FEW,M,M,M,12000.00,M,M,M,M,M,M,M,M,M,M,85.59,KRNO 171755Z 13004KT 10SM FEW120 32/07 A3004 RMK AO2 SLP101 T03170067 10328 20206 56009,M
05U,2022-07-17 17:55,-116.0051,39.6042,1811.23,84.20,50.00,30.62,0.00,0.00,0.01,30.17,M,8.00,10.00,FEW,SCT,SCT,M,6500.00,10000.00,12000.00,M,M,M,M,M,M,M,M,82.24,K05U 171755Z AUTO 00000G10KT 8SM FEW065 SCT100 SCT120 29/10 A3017 RMK A01 P0001,M
EKO,2022-07-17 17:56,-115.7860,40.8242,1367.00,93.00,36.00,13.55,0.00,0.00,0.00,30.07,1010.30,10.00,M,CLR,M,M,M,M,M,M,M,M,M,M,M,M,M,M,88.59,KEKO 171756Z AUTO 00000KT 10SM CLR 34/02 A3007 RMK AO2 SLP103 T03390022 10339 20167 56010,M
LAS,2022-07-17 17:56,-115.1634,36.0719,663.00,98.00,56.00,24.61,0.00,0.00,0.00,29.93,1010.30,10.00,M,FEW,BKN,BKN,M,11000.00,14000.00,25000.00,M,M,M,M,M,M,M,M,96.72,KLAS 171756Z 00000KT 10SM FEW110 BKN140 BKN250 37/13 A2993 RMK AO2 SLP103 SH DSNT N-NE T03670133 10367 20322 58003,M
TPH,2022-07-17 17:56,-117.0904,38.0505,1654.00,92.00,44.00,19.21,190.00,12.00,0.00,30.13,1009.60,10.00,19.00,CLR,M,M,M,M,M,M,M,M,M,M,M,M,M,M,88.09,KTPH 171756Z AUTO 19012G19KT 10SM CLR 33/07 A3013 RMK AO2 SLP096 T03330067 10333 20194 58006,M
WMC,2022-07-17 17:56,-117.8072,40.9019,1315.00,93.00,30.90,11.04,M,5.00,0.00,30.03,1010.10,10.00,M,CLR,M,M,M,M,M,M,M,M,M,M,M,M,M,M,88.02,KWMC 171756Z AUTO VRB05KT 10SM CLR 34/M01 A3003 RMK AO2 SLP101 T03391006 10344 20189 58006 TSNO,M
HND,2022-07-17 17:56,-115.1344,35.9729,742.79,M,M,M,M,M,0.00,M,M,M,M,M,M,M,M,M,M,M,M,M,M,M,M,M,M,M,M,KHND 171756Z RMK AO2 SLPNO 6//// $,M
NFL,2022-07-17 17:56,-118.7010,39.4166,1199.00,93.00,37.00,14.09,M,3.00,0.00,30.01,1013.10,10.00,M,CLR,M,M,M,M,M,M,M,M,M,M,M,M,M,M,88.63,KNFL 171756Z AUTO VRB03KT 10SM CLR 34/03 A3001 RMK AO2 SLP131 T03390028 10344 20183 58006,M
INS,2022-07-17 17:58,-115.6733,36.5872,955.00,92.30,49.00,22.91,150.00,4.00,0.00,30.02,1010.80,10.00,18.00,OVC,M,M,M,12000.00,M,M,M,M,M,M,M,M,M,M,89.08,KINS 171758Z AUTO 15004G18KT 10SM OVC120 34/10 A3002 RMK AO2 SLP108 60000 T03350095 10339 20271 50016 $,M
LSV,2022-07-17 17:58,-115.0343,36.2362,570.00,99.30,58.30,25.88,280.00,4.00,0.00,29.90,1009.40,10.00,M,FEW,FEW,SCT,M,10000.00,16000.00,21000.00,M,M,M,M,M,M,M,M,99.00,KLSV 171758Z AUTO 28004KT 10SM FEW100 FEW160 SCT210 37/15 A2990 RMK AO2 SLP094 60000 T03740146 10374 20317 58003 $,M
BAM,2022-07-17 18:15,-116.8743,40.5990,1382.36,M,M,M,330.00,3.00,0.00,30.04,M,10.00,M,CLR,M,M,M,M,M,M,M,M,M,M,M,M,M,M,M,KBAM 171815Z AUTO 33003KT 10SM CLR A3004 RMK AO1,M
CXP,2022-07-17 18:15,-119.7326,39.1923,1431.00,93.20,42.80,17.55,M,5.00,0.00,30.07,M,10.00,12.00,CLR,M,M,M,M,M,M,M,M,M,M,M,M,M,M,89.17,KCXP 171815Z AUTO VRB05G12KT 10SM CLR 34/06 A3007 RMK AO2,M
BVU,2022-07-17 18:15,-114.8611,35.9475,671.00,M,M,M,M,M,0.00,M,M,M,M,M,M,M,M,M,M,M,M,M,M,M,M,M,M,M,M,KBVU 171815Z AUTO RMK AO2 PNO PWINO TSNO,M
TMT,2022-07-17 18:15,-117.1971,39.4643,1749.34,M,M,M,150.00,7.00,0.00,30.16,M,10.00,M,SCT,M,M,M,11000.00,M,M,M,M,M,M,M,M,M,M,M,KTMT 171815Z AUTO 15007KT 10SM SCT110 A3016 RMK AO2 LTG DSNT NE,M
05U,2022-07-17 18:15,-116.0051,39.6042,1811.23,77.00,51.80,41.42,180.00,8.00,0.00,30.17,M,6.00,17.00,FEW,FEW,SCT,M,3000.00,4800.00,10000.00,M,HZ,M,M,M,M,M,M,77.00,K05U 171815Z AUTO 18008G17KT 160V220 6SM HZ FEW030 FEW048 SCT100 25/11 A3017 RMK A01,M
HTH,2022-07-17 18:15,-118.6315,38.5448,1282.89,91.40,37.40,15.05,350.00,8.00,0.00,30.03,M,10.00,M,CLR,M,M,M,M,M,M,M,M,M,M,M,M,M,M,87.23,KHTH 171815Z AUTO 35008KT 10SM CLR 33/03 A3003 RMK A01,M
RTS,2022-07-17 18:15,-119.8764,39.6682,1539.00,89.60,41.00,18.33,190.00,13.00,0.00,30.10,M,10.00,18.00,CLR,M,M,M,M,M,M,M,M,M,M,M,M,M,M,85.82,KRTS 171815Z AUTO 19013G18KT 10SM CLR 32/05 A3010 RMK AO2,M
MEV,2022-07-17 18:15,-119.7500,38.9963,1441.42,93.20,42.80,17.55,M,5.00,0.00,30.06,M,10.00,11.00,CLR,M,M,M,M,M,M,M,M,M,M,M,M,M,M,89.17,KMEV 171815Z AUTO VRB05G11KT 10SM CLR 34/06 A3006 RMK AO2,M
NFL,2022-07-17 18:23,-118.7010,39.4166,1199.00,95.00,38.00,13.73,310.00,6.00,0.00,30.00,M,10.00,M,FEW,SCT,M,M,7000.00,14000.00,M,M,M,M,M,M,M,M,M,90.48,KNFL 171823Z 31006KT 10SM FEW070 SCT140 35/03 A3000 RMK AO2 CB DSNT NE-SE T03500033,M
RTS,2022-07-17 18:35,-119.8764,39.6682,1539.00,89.60,41.00,18.33,140.00,11.00,0.00,30.09,M,10.00,19.00,CLR,M,M,M,M,M,M,M,M,M,M,M,M,M,M,85.82,KRTS 171835Z AUTO 14011G19KT 10SM CLR 32/05 A3009 RMK AO2,M
05U,2022-07-17 18:35,-116.0051,39.6042,1811.23,69.80,51.80,52.77,120.00,12.00,0.00,30.18,M,2.00,35.00,FEW,SCT,BKN,M,300.00,4900.00,10000.00,M,HZ,M,M,M,M,M,M,69.80,K05U 171835Z AUTO 12012G35KT 2SM HZ FEW003 SCT049 BKN100 21/11 A3018 RMK A01 VIS 1V5,M
TMT,2022-07-17 18:35,-117.1971,39.4643,1749.34,M,M,M,150.00,7.00,0.00,30.16,M,10.00,M,SCT,M,M,M,10000.00,M,M,M,M,M,M,M,M,M,M,M,KTMT 171835Z AUTO 15007KT 10SM SCT100 A3016 RMK AO2,M
MEV,2022-07-17 18:35,-119.7500,38.9963,1441.42,91.40,42.80,18.56,M,6.00,0.00,30.06,M,10.00,M,CLR,M,M,M,M,M,M,M,M,M,M,M,M,M,M,87.52,KMEV 171835Z AUTO VRB06KT 10SM CLR 33/06 A3006 RMK AO2,M
BAM,2022-07-17 18:35,-116.8743,40.5990,1382.36,M,M,M,100.00,3.00,0.00,30.04,M,10.00,M,CLR,M,M,M,M,M,M,M,M,M,M,M,M,M,M,M,KBAM 171835Z AUTO 10003KT 10SM CLR A3004 RMK AO1,M
CXP,2022-07-17 18:35,-119.7326,39.1923,1431.00,95.00,42.80,16.60,210.00,4.00,0.00,30.08,M,10.00,M,CLR,M,M,M,M,M,M,M,M,M,M,M,M,M,M,90.86,KCXP 171835Z AUTO 21004KT 10SM CLR 35/06 A3008 RMK AO2,M
HTH,2022-07-17 18:35,-118.6315,38.5448,1282.89,91.40,39.20,16.15,0.00,0.00,0.00,30.02,M,10.00,11.00,CLR,M,M,M,M,M,M,M,M,M,M,M,M,M,M,87.30,KHTH 171835Z AUTO 00000G11KT 10SM CLR 33/04 A3002 RMK A01,M
BVU,2022-07-17 18:35,-114.8611,35.9475,671.00,M,M,M,M,M,0.00,M,M,M,M,M,M,M,M,M,M,M,M,M,M,M,M,M,M,M,M,KBVU 171835Z AUTO RMK AO2 PNO PWINO TSNO,M
ELY,2022-07-17 18:43,-114.8453,39.2950,1909.00,87.80,44.60,22.27,230.00,15.00,0.00,30.18,M,10.00,25.00,FEW,SCT,M,M,10000.00,12000.00,M,M,TS,M,M,M,M,M,M,84.53,KELY 171843Z AUTO 23015G25KT 10SM TS FEW100 SCT120 31/07 A3018,M
LOL,2022-07-17 18:53,-118.5701,40.0684,1192.43,96.00,37.00,12.81,M,M,0.00,29.98,1009.60,10.00,M,CLR,M,M,M,M,M,M,M,M,M,M,M,M,M,M,91.39,KLOL 171853Z AUTO 10SM CLR 36/03 A2998 RMK AO2 SLP096 T03560028,M
DRA,2022-07-17 18:53,-116.0278,36.6206,1009.00,92.00,51.00,24.99,M,M,0.00,30.03,1011.10,10.00,M,FEW,BKN,BKN,M,7000.00,9500.00,11000.00,M,M,M,M,M,M,M,M,89.04,KDRA 171853Z AUTO 10SM FEW070 BKN095 BKN110 33/11 A3003 RMK AO2 SLP111 T03330106,M
VGT,2022-07-17 18:53,-115.1933,36.2111,667.00,101.00,53.00,20.42,320.00,4.00,0.00,29.91,1011.20,10.00,M,CLR,M,M,M,M,M,M,M,M,M,M,M,M,M,M,98.82,KVGT 171853Z 32004KT 10SM CLR 38/12 A2991 RMK AO2 SLP112 T03830117,M
ELY,2022-07-17 18:53,-114.8453,39.2950,1909.00,91.00,44.00,19.76,210.00,14.00,0.00,30.17,1009.80,10.00,27.00,FEW,SCT,M,M,8000.00,11000.00,M,M,VCTS,M,M,M,27.00,210.00,2022-07-17 18:53,87.27,KELY 171853Z AUTO 21014G27KT 10SM VCTS FEW080 SCT110 33/07 A3017 RMK AO2 PK WND 21027/1853 LTG DSNT W-NE TSB37E52 SLP098 T03280067,M
P68,2022-07-17 18:53,-116.0056,39.6014,1993.00,75.00,53.00,46.44,220.00,10.00,0.11,30.17,1013.10,M,35.00,M,M,M,M,M,M,M,M,M,M,M,M,35.00,200.00,2022-07-17 18:50,75.00,KP68 171853Z AUTO 22010G35KT 24/12 A3017 RMK AO1 PK WND 20035/1850 SLP131 P0011 T02390117,M
MEV,2022-07-17 18:55,-119.7500,38.9963,1441.42,95.00,41.00,15.49,170.00,8.00,0.00,30.05,M,10.00,16.00,CLR,M,M,M,M,M,M,M,M,M,M,M,M,M,M,90.70,KMEV 171855Z AUTO 17008G16KT 10SM CLR 35/05 A3005 RMK AO2,M
HTH,2022-07-17 18:55,-118.6315,38.5448,1282.89,93.20,39.20,15.27,M,4.00,0.00,30.02,M,10.00,12.00,CLR,M,M,M,M,M,M,M,M,M,M,M,M,M,M,88.92,KHTH 171855Z AUTO VRB04G12KT 10SM CLR 34/04 A3002 RMK A01,M
RNO,2022-07-17 18:55,-119.7711,39.4839,1341.00,97.00,46.00,17.64,250.00,5.00,0.00,30.02,1009.40,10.00,M,FEW,SCT,M,M,7000.00,14000.00,M,M,M,M,M,M,M,M,M,93.19,KRNO 171855Z 25005KT 10SM FEW070 SCT140 36/08 A3002 RMK AO2 SLP094 ACSL OHD T03610078,M
CXP,2022-07-17 18:55,-119.7326,39.1923,1431.00,93.20,42.80,17.55,M,6.00,0.00,30.07,M,10.00,M,FEW,M,M,M,10000.00,M,M,M,M,M,M,M,M,M,M,89.17,KCXP 171855Z AUTO VRB06KT 10SM FEW100 34/06 A3007 RMK AO2,M
BVU,2022-07-17 18:55,-114.8611,35.9475,671.00,M,M,M,M,M,0.00,M,M,M,M,M,M,M,M,M,M,M,M,M,M,M,M,M,M,M,M,KBVU 171855Z AUTO RMK AO2 PNO PWINO TSNO,M
TMT,2022-07-17 18:55,-117.1971,39.4643,1749.34,M,M,M,170.00,9.00,0.00,30.14,M,10.00,M,SCT,M,M,M,10000.00,M,M,M,M,M,M,M,M,M,M,M,KTMT 171855Z AUTO 17009KT 10SM SCT100 A3014 RMK AO2,M
RTS,2022-07-17 18:55,-119.8764,39.6682,1539.00,91.40,41.00,17.32,220.00,9.00,0.00,30.09,M,10.00,22.00,CLR,M,M,M,M,M,M,M,M,M,M,M,M,M,M,87.40,KRTS 171855Z AUTO 22009G22KT 160V250 10SM CLR 33/05 A3009 RMK AO2,M
05U,2022-07-17 18:55,-116.0051,39.6042,1811.23,69.80,51.80,52.77,210.00,7.00,0.16,30.18,M,3.00,27.00,FEW,FEW,SCT,M,300.00,2700.00,10000.00,M,HZ,M,M,M,M,M,M,69.80,K05U 171855Z AUTO 21007G27KT 3SM HZ FEW003 FEW027 SCT100 21/11 A3018 RMK A01 P0016,M
BAM,2022-07-17 18:55,-116.8743,40.5990,1382.36,M,M,M,350.00,6.00,0.00,30.03,M,10.00,M,CLR,M,M,M,M,M,M,M,M,M,M,M,M,M,M,M,KBAM 171855Z AUTO 35006KT 10SM CLR A3003 RMK AO1,M
WMC,2022-07-17 18:56,-117.8072,40.9019,1315.00,98.00,35.00,11.17,270.00,13.00,0.00,30.01,1009.20,10.00,18.00,CLR,M,M,M,M,M,M,M,M,M,M,M,M,M,M,92.73,KWMC 171856Z AUTO 27013G18KT 10SM CLR 37/02 A3001 RMK AO2 SLP092 T03670017 TSNO,M
EKO,2022-07-17 18:56,-115.7860,40.8242,1367.00,96.00,40.00,14.35,230.00,9.00,0.00,30.05,1009.70,10.00,17.00,CLR,M,M,M,M,M,M,M,M,M,M,M,M,M,M,91.64,KEKO 171856Z AUTO 23009G17KT 10SM CLR 36/04 A3005 RMK AO2 SLP097 T03560044,M
NFL,2022-07-17 18:56,-118.7010,39.4166,1199.00,97.00,37.00,12.46,M,3.00,0.00,29.99,1012.80,10.00,M,FEW,SCT,M,M,7000.00,14000.00,M,M,M,M,M,M,M,M,M,92.13,KNFL 171856Z VRB03KT 10SM FEW070 SCT140 36/03 A2999 RMK AO2 SLP128 CB DSNT NE-SE T03610028,M
LAS,2022-07-17 18:56,-115.1634,36.0719,663.00,100.00,54.00,21.68,350.00,9.00,0.00,29.93,1010.00,10.00,M,FEW,SCT,BKN,M,14000.00,20000.00,25000.00,M,M,M,M,M,M,M,M,98.14,KLAS 171856Z 35009KT 10SM FEW140 SCT200 BKN250 38/12 A2993 RMK AO2 SLP100 ACC DSNT E-SE T03780122,M
TPH,2022-07-17 18:56,-117.0904,38.0505,1654.00,92.00,43.00,18.42,220.00,14.00,0.00,30.11,1009.60,10.00,22.00,BKN,M,M,M,10000.00,M,M,M,M,M,M,M,26.00,220.00,2022-07-17 18:41,87.99,KTPH 171856Z AUTO 22014G22KT 10SM BKN100 33/06 A3011 RMK AO2 PK WND 22026/1841 SLP096 T03330061,M
HND,2022-07-17 18:56,-115.1344,35.9729,742.79,M,M,M,M,M,0.00,M,M,M,M,M,M,M,M,M,M,M,M,M,M,M,M,M,M,M,M,KHND 171856Z RMK AO2 SLPNO $,M
LSV,2022-07-17 18:58,-115.0343,36.2362,570.00,109.00,52.70,15.87,0.00,0.00,0.00,29.88,1008.60,10.00,M,CLR,M,M,M,M,M,M,M,M,M,M,M,M,M,M,107.11,KLSV 171858Z AUTO 00000KT 10SM CLR 43/12 A2988 RMK AO2 SLP086 T04270115 $,M
INS,2022-07-17 18:58,-115.6733,36.5872,955.00,94.30,49.50,21.86,270.00,13.00,0.00,30.00,1010.10,10.00,M,FEW,BKN,M,M,13000.00,18000.00,M,M,M,M,M,M,M,M,M,91.09,KINS 171858Z AUTO 27013KT 10SM FEW130 BKN180 35/10 A3000 RMK AO2 SLP101 T03460097 $,M
ELY,2022-07-17 19:14,-114.8453,39.2950,1909.00,93.00,44.00,18.56,220.00,20.00,0.00,30.17,M,2.50,38.00,FEW,M,M,M,400.00,M,M,M,VCTS HZ,M,M,M,38.00,200.00,2022-07-17 19:11,89.11,KELY 171914Z AUTO 22020G38KT 2 1/2SM VCTS HZ FEW004 34/07 A3017 RMK AO2 PK WND 20038/1911 LTG DSNT ALQDS T03390067,M
MEV,2022-07-17 19:15,-119.7500,38.9963,1441.42,96.80,41.00,14.66,190.00,15.00,0.00,30.05,M,10.00,21.00,CLR,M,M,M,M,M,M,M,M,M,M,M,M,M,M,92.39,KMEV 171915Z AUTO 19015G21KT 10SM CLR 36/05 A3005 RMK AO2,M
05U,2022-07-17 19:15,-116.0051,39.6042,1811.23,78.80,55.40,44.52,0.00,0.00,0.00,30.17,M,10.00,M,CLR,M,M,M,M,M,M,M,M,M,M,M,M,M,M,78.80,K05U 171915Z AUTO 00000KT 10SM CLR 26/13 A3017 RMK A01,M
CXP,2022-07-17 19:15,-119.7326,39.1923,1431.00,95.00,42.80,16.60,210.00,7.00,0.00,30.06,M,10.00,16.00,FEW,M,M,M,10000.00,M,M,M,M,M,M,M,M,M,M,90.86,KCXP 171915Z AUTO 21007G16KT 10SM FEW100 35/06 A3006 RMK AO2,M
RTS,2022-07-17 19:15,-119.8764,39.6682,1539.00,93.20,41.00,16.37,230.00,17.00,0.00,30.08,M,10.00,M,CLR,M,M,M,M,M,M,M,M,M,M,M,M,M,M,89.03,KRTS 171915Z AUTO 23017KT 10SM CLR 34/05 A3008 RMK AO2,M
HTH,2022-07-17 19:15,-118.6315,38.5448,1282.89,95.00,39.20,14.44,340.00,7.00,0.00,30.00,M,10.00,M,CLR,M,M,M,M,M,M,M,M,M,M,M,M,M,M,90.57,KHTH 171915Z AUTO 34007KT 10SM CLR 35/04 A3000 RMK A01,M
TMT,2022-07-17 19:15,-117.1971,39.4643,1749.34,M,M,M,200.00,6.00,0.00,30.14,M,10.00,M,CLR,M,M,M,M,M,M,M,M,M,M,M,M,M,M,M,KTMT 171915Z AUTO 20006KT 10SM CLR A3014 RMK AO2,M
BVU,2022-07-17 19:15,-114.8611,35.9475,671.00,M,M,M,M,M,0.00,M,M,M,M,M,M,M,M,M,M,M,M,M,M,M,M,M,M,M,M,KBVU 171915Z AUTO RMK AO2 PNO PWINO TSNO,M
BAM,2022-07-17 19:15,-116.8743,40.5990,1382.36,M,M,M,300.00,9.00,0.00,30.02,M,10.00,M,CLR,M,M,M,M,M,M,M,M,M,M,M,M,M,M,M,KBAM 171915Z AUTO 30009KT 300V010 10SM CLR A3002 RMK AO1,M
ELY,2022-07-17 19:22,-114.8453,39.2950,1909.00,93.00,44.00,18.56,220.00,18.00,0.00,30.17,M,4.00,30.00,FEW,M,M,M,400.00,M,M,M,HZ,M,M,M,38.00,200.00,2022-07-17 19:11,89.11,KELY 171922Z AUTO 22018G30KT 4SM HZ FEW004 34/07 A3017 RMK AO2 PK WND 20038/1911 LTG DSNT W-NE T03390067,M
RNO,2022-07-17 19:27,-119.7711,39.4839,1341.00,98.00,44.00,15.87,180.00,15.00,0.00,30.01,M,10.00,26.00,FEW,SCT,M,M,7000.00,14000.00,M,M,M,M,M,M,26.00,180.00,2022-07-17 19:25,93.99,KRNO 171927Z 18015G26KT 10SM FEW070 SCT140 37/07 A3001 RMK AO2 PK WND 18026/1925 WSHFT 1907 ACSL OHD T03670067,M
ELY,2022-07-17 19:30,-114.8453,39.2950,1909.00,94.00,44.00,18.05,230.00,16.00,0.00,30.17,M,5.00,29.00,FEW,M,M,M,400.00,M,M,M,VCTS HZ,M,M,M,38.00,200.00,2022-07-17 19:11,89.95,KELY 171930Z AUTO 23016G29KT 5SM VCTS HZ FEW004 34/07 A3017 RMK AO2 PK WND 20038/1911 LTG DSNT W-NE T03440067,M
BAM,2022-07-17 19:35,-116.8743,40.5990,1382.36,M,M,M,360.00,6.00,0.00,30.01,M,10.00,M,CLR,M,M,M,M,M,M,M,M,M,M,M,M,M,M,M,KBAM 171935Z AUTO 36006KT 10SM CLR A3001 RMK AO1,M
CXP,2022-07-17 19:35,-119.7326,39.1923,1431.00,93.20,42.80,17.55,240.00,10.00,0.00,30.06,M,10.00,17.00,SCT,M,M,M,10000.00,M,M,M,M,M,M,M,M,M,M,89.17,KCXP 171935Z AUTO 24010G17KT 190V270 10SM SCT100 34/06 A3006 RMK AO2,M
RTS,2022-07-17 19:35,-119.8764,39.6682,1539.00,91.40,41.00,17.32,200.00,13.00,0.00,30.08,M,10.00,21.00,CLR,M,M,M,M,M,M,M,M,M,M,M,M,M,M,87.40,KRTS 171935Z AUTO 20013G21KT 10SM CLR 33/05 A3008 RMK AO2,M
05U,2022-07-17 19:35,-116.0051,39.6042,1811.23,80.60,62.60,54.30,0.00,0.00,0.00,30.17,M,10.00,M,FEW,M,M,M,10000.00,M,M,M,M,M,M,M,M,M,M,81.84,K05U 171935Z AUTO 00000KT 10SM FEW100 27/17 A3017 RMK A01,M
HTH,2022-07-17 19:35,-118.6315,38.5448,1282.89,95.00,39.20,14.44,30.00,7.00,0.00,29.99,M,10.00,M,CLR,M,M,M,M,M,M,M,M,M,M,M,M,M,M,90.57,KHTH 171935Z AUTO 03007KT 10SM CLR 35/04 A2999 RMK A01,M
MEV,2022-07-17 19:35,-119.7500,38.9963,1441.42,96.80,39.20,13.66,200.00,9.00,0.00,30.04,M,10.00,23.00,FEW,M,M,M,11000.00,M,M,M,M,M,M,M,M,M,M,92.23,KMEV 171935Z AUTO 20009G23KT 170V230 10SM FEW110 36/04 A3004 RMK AO2,M
TMT,2022-07-17 19:35,-117.1971,39.4643,1749.34,M,M,M,160.00,9.00,0.00,30.13,M,10.00,M,SCT,M,M,M,12000.00,M,M,M,M,M,M,M,M,M,M,M,KTMT 171935Z AUTO 16009KT 10SM SCT120 A3013 RMK AO2 LTG DSNT S,M
BVU,2022-07-17 19:35,-114.8611,35.9475,671.00,M,M,M,M,M,0.00,M,M,M,M,M,M,M,M,M,M,M,M,M,M,M,M,M,M,M,M,KBVU 171935Z AUTO RMK AO2 PNO PWINO TSNO,M
ELY,2022-07-17 19:45,-114.8453,39.2950,1909.00,95.00,44.60,17.78,190.00,16.00,0.00,30.17,M,9.00,28.00,FEW,M,M,M,10000.00,M,M,M,M,M,M,M,M,M,M,91.06,KELY 171945Z AUTO 19016G28KT 9SM FEW100 35/07 A3017,M
ELY,2022-07-17 19:53,-114.8453,39.2950,1909.00,94.00,44.00,18.05,170.00,13.00,0.00,30.16,1009.40,10.00,30.00,FEW,M,M,M,10000.00,M,M,M,M,M,M,M,38.00,200.00,2022-07-17 19:11,89.95,KELY 171953Z AUTO 17013G30KT 10SM FEW100 34/07 A3016 RMK AO2 PK WND 20038/1911 LTG DSNT N-E SLP094 T03440067,M
VGT,2022-07-17 19:53,-115.1933,36.2111,667.00,105.00,52.00,17.30,350.00,7.00,0.00,29.89,1010.30,10.00,M,CLR,M,M,M,M,M,M,M,M,M,M,M,M,M,M,102.91,KVGT 171953Z 35007KT 10SM CLR 41/11 A2989 RMK AO2 SLP103 T04060111,M
P68,2022-07-17 19:53,-116.0056,39.6014,1993.00,78.00,52.00,40.23,210.00,15.00,0.07,30.15,1012.30,M,25.00,M,M,M,M,M,M,M,M,M,M,M,M,M,M,M,78.10,KP68 171953Z AUTO 21015G25KT 26/11 A3015 RMK AO1 SLP123 P0007 T02560111,M
DRA,2022-07-17 19:53,-116.0278,36.6206,1009.00,91.00,49.00,23.68,M,3.00,0.00,30.02,1010.70,10.00,M,FEW,M,M,M,12000.00,M,M,M,M,M,M,M,M,M,M,87.82,KDRA 171953Z AUTO VRB03KT 10SM FEW120 33/09 A3002 RMK AO2 SLP107 T03280094,M
LOL,2022-07-17 19:53,-118.5701,40.0684,1192.43,97.00,35.00,11.56,210.00,7.00,0.00,29.96,1009.00,10.00,M,CLR,M,M,M,M,M,M,M,M,M,M,M,M,M,M,91.81,KLOL 171953Z AUTO 21007KT 160V230 10SM CLR 36/02 A2996 RMK AO2 SLP090 T03610017,M
HTH,2022-07-17 19:55,-118.6315,38.5448,1282.89,95.00,39.20,14.44,0.00,0.00,0.00,29.98,M,10.00,M,CLR,M,M,M,M,M,M,M,M,M,M,M,M,M,M,90.57,KHTH 171955Z AUTO 00000KT 10SM CLR 35/04 A2998 RMK A01,M
BVU,2022-07-17 19:55,-114.8611,35.9475,671.00,M,M,M,M,M,0.00,M,M,M,M,M,M,M,M,M,M,M,M,M,M,M,M,M,M,M,M,KBVU 171955Z AUTO RMK AO2 PNO PWINO TSNO,M
CXP,2022-07-17 19:55,-119.7326,39.1923,1431.00,95.00,42.80,16.60,240.00,13.00,0.00,30.05,M,10.00,21.00,FEW,M,M,M,10000.00,M,M,M,M,M,M,M,M,M,M,90.86,KCXP 171955Z AUTO 24013G21KT 10SM FEW100 35/06 A3005 RMK AO2,M
RTS,2022-07-17 19:55,-119.8764,39.6682,1539.00,93.20,39.20,15.27,230.00,18.00,0.00,30.07,M,10.00,26.00,CLR,M,M,M,M,M,M,M,M,M,M,M,M,M,M,88.92,KRTS 171955Z AUTO 23018G26KT 10SM CLR 34/04 A3007 RMK AO2,M
05U,2022-07-17 19:55,-116.0051,39.6042,1811.23,78.80,53.60,41.69,210.00,16.00,0.00,30.18,M,9.00,M,FEW,BKN,M,M,5500.00,10000.00,M,M,M,M,M,M,M,M,M,78.80,K05U 171955Z AUTO 21016KT 9SM FEW055 BKN100 26/12 A3018 RMK A01,M
MEV,2022-07-17 19:55,-119.7500,38.9963,1441.42,96.80,42.80,15.71,240.00,11.00,0.00,30.04,M,10.00,17.00,FEW,M,M,M,11000.00,M,M,M,M,M,M,M,M,M,M,92.57,KMEV 171955Z AUTO 24011G17KT 200V270 10SM FEW110 36/06 A3004 RMK AO2,M
BAM,2022-07-17 19:55,-116.8743,40.5990,1382.36,M,M,M,30.00,4.00,0.00,30.00,M,10.00,M,CLR,M,M,M,M,M,M,M,M,M,M,M,M,M,M,M,KBAM 171955Z AUTO 03004KT 10SM CLR A3000 RMK AO1,M
TMT,2022-07-17 19:55,-117.1971,39.4643,1749.34,M,M,M,140.00,10.00,0.00,30.12,M,10.00,15.00,SCT,M,M,M,12000.00,M,M,M,M,M,M,M,M,M,M,M,KTMT 171955Z AUTO 14010G15KT 10SM SCT120 A3012 RMK AO2,M
RNO,2022-07-17 19:55,-119.7711,39.4839,1341.00,98.00,44.00,15.87,200.00,12.00,0.00,30.00,1008.70,10.00,M,SCT,M,M,M,8000.00,M,M,M,M,M,M,M,29.00,180.00,2022-07-17 19:38,93.99,KRNO 171955Z 20012KT 10SM SCT080 37/07 A3000 RMK AO2 PK WND 18029/1938 WSHFT 1907 SLP087 T03670067,M
NFL,2022-07-17 19:56,-118.7010,39.4166,1199.00,98.00,38.00,12.48,260.00,7.00,0.00,29.97,1011.90,10.00,M,FEW,FEW,M,M,8000.00,14000.00,M,M,M,M,M,M,M,M,M,93.22,KNFL 171956Z 26007KT 10SM FEW080 FEW140 37/03 A2997 RMK SLP119 CB DSNT E-S TCU DSNT SE-SW T03670033,M
EKO,2022-07-17 19:56,-115.7860,40.8242,1367.00,99.00,42.00,14.30,200.00,11.00,0.00,30.02,1008.70,10.00,18.00,CLR,M,M,M,M,M,M,M,M,M,M,M,M,M,M,94.60,KEKO 171956Z AUTO 20011G18KT 10SM CLR 37/06 A3002 RMK AO2 SLP087 T03720056,M
HND,2022-07-17 19:56,-115.1344,35.9729,742.79,M,M,M,M,M,0.00,M,M,M,M,M,M,M,M,M,M,M,M,M,M,M,M,M,M,M,M,KHND 171956Z RMK AO2 SLPNO $,M
TPH,2022-07-17 19:56,-117.0904,38.0505,1654.00,95.00,46.00,18.76,190.00,27.00,0.00,30.10,1009.40,10.00,36.00,FEW,M,M,M,10000.00,M,M,M,M,M,M,M,39.00,190.00,2022-07-17 19:44,91.23,KTPH 171956Z AUTO 19027G36KT 10SM FEW100 35/08 A3010 RMK AO2 PK WND 19039/1944 LTG DSNT NE SLP094 T03500078,M
WMC,2022-07-17 19:56,-117.8072,40.9019,1315.00,99.00,36.00,11.27,M,6.00,0.00,29.98,1008.30,10.00,M,CLR,M,M,M,M,M,M,M,M,M,M,M,M,M,M,93.63,KWMC 171956Z AUTO VRB06KT 10SM CLR 37/02 A2998 RMK AO2 SLP083 T03720022 TSNO,M
LAS,2022-07-17 19:56,-115.1634,36.0719,663.00,102.00,53.00,19.75,M,5.00,0.00,29.90,1009.20,10.00,M,FEW,SCT,BKN,M,9000.00,15000.00,23000.00,M,M,M,M,M,M,M,M,100.00,KLAS 171956Z VRB05KT 10SM FEW090 SCT150 BKN230 39/12 A2990 RMK AO2 SLP092 ACC DSNT E-SE T03890117,M
LSV,2022-07-17 19:58,-115.0343,36.2362,570.00,111.00,50.70,13.87,0.00,0.00,0.00,29.86,1007.90,10.00,M,FEW,SCT,SCT,SCT,10000.00,12000.00,14000.00,16000.00,M,M,M,M,M,M,M,108.40,KLSV 171958Z AUTO 00000KT 10SM FEW100 SCT120 SCT140 SCT160 BKN200 44/10 A2986 RMK AO2 SLP079 T04390104 $,M
INS,2022-07-17 19:58,-115.6733,36.5872,955.00,96.00,48.40,19.85,270.00,13.00,0.00,29.99,1009.80,10.00,M,FEW,BKN,M,M,13000.00,17000.00,M,M,M,M,M,M,M,M,M,92.69,KINS 171958Z AUTO 27013KT 10SM FEW130 BKN170 36/09 A2999 RMK AO2 SLP098 T03560091 $,M
ELY,2022-07-17 20:01,-114.8453,39.2950,1909.00,94.00,43.00,17.31,220.00,12.00,0.00,30.16,M,10.00,31.00,FEW,M,M,M,10000.00,M,M,M,M,M,M,M,31.00,200.00,2022-07-17 19:56,89.84,KELY 172001Z AUTO 22012G31KT 10SM FEW100 34/06 A3016 RMK AO2 PK WND 20031/1956 WSHFT 1941 LTG DSNT NE AND E T03440061,M
P68,2022-07-17 20:02,-116.0056,39.6014,1993.00,75.00,54.00,47.99,200.00,13.00,0.00,30.16,M,M,22.00,M,M,M,M,M,M,M,M,M,M,M,M,M,M,M,75.00,KP68 172002Z AUTO 20013G22KT 24/12 A3016 RMK AO1 WSHFT 1945 T02390122,M
RTS,2022-07-17 20:15,-119.8764,39.6682,1539.00,91.40,41.00,17.32,240.00,16.00,0.00,30.07,M,10.00,25.00,CLR,M,M,M,M,M,M,M,M,M,M,M,M,M,M,87.40,KRTS 172015Z AUTO 24016G25KT 10SM CLR 33/05 A3007 RMK AO2,M
05U,2022-07-17 20:15,-116.0051,39.6042,1811.23,77.00,51.80,41.42,240.00,8.00,0.00,30.18,M,10.00,M,FEW,FEW,FEW,M,5500.00,7000.00,11000.00,M,M,M,M,M,M,M,M,77.00,K05U 172015Z AUTO 24008KT 10SM FEW055 FEW070 FEW110 25/11 A3018 RMK A01,M
MEV,2022-07-17 20:15,-119.7500,38.9963,1441.42,96.80,41.00,14.66,220.00,9.00,0.00,30.04,M,10.00,18.00,FEW,M,M,M,11000.00,M,M,M,M,M,M,M,M,M,M,92.39,KMEV 172015Z AUTO 22009G18KT 10SM FEW110 36/05 A3004 RMK AO2,M
TMT,2022-07-17 20:15,-117.1971,39.4643,1749.34,M,M,M,90.00,4.00,0.00,30.11,M,10.00,M,SCT,M,M,M,11000.00,M,M,M,M,M,M,M,M,M,M,M,KTMT 172015Z AUTO 09004KT 10SM SCT110 A3011 RMK AO2 LTG DSNT S,M
BAM,2022-07-17 20:15,-116.8743,40.5990,1382.36,M,M,M,0.00,0.00,0.00,29.99,M,10.00,M,CLR,M,M,M,M,M,M,M,M,M,M,M,M,M,M,M,KBAM 172015Z AUTO 00000KT 10SM CLR A2999 RMK AO1,M
HTH,2022-07-17 20:15,-118.6315,38.5448,1282.89,98.60,37.40,12.05,M,4.00,0.00,29.97,M,10.00,M,CLR,M,M,M,M,M,M,M,M,M,M,M,M,M,M,93.54,KHTH 172015Z AUTO VRB04KT 10SM CLR 37/03 A2997 RMK A01,M
BVU,2022-07-17 20:15,-114.8611,35.9475,671.00,M,M,M,M,M,0.00,M,M,M,M,M,M,M,M,M,M,M,M,M,M,M,M,M,M,M,M,KBVU 172015Z AUTO RMK AO2 PNO PWINO TSNO,M
CXP,2022-07-17 20:15,-119.7326,39.1923,1431.00,95.00,41.00,15.49,240.00,17.00,0.00,30.05,M,10.00,24.00,CLR,M,M,M,M,M,M,M,M,M,M,M,M,M,M,90.70,KCXP 172015Z AUTO 24017G24KT 10SM CLR 35/05 A3005 RMK AO2,M
ELY,2022-07-17 20:17,-114.8453,39.2950,1909.00,93.00,43.00,17.80,190.00,15.00,0.00,30.16,M,8.00,27.00,FEW,SCT,M,M,700.00,11000.00,M,M,VCTS,M,M,M,31.00,200.00,2022-07-17 20:07,89.00,KELY 172017Z AUTO 19015G27KT 8SM VCTS FEW007 SCT110 34/06 A3016 RMK AO2 PK WND 20031/2007 WSHFT 1941 LTG DSNT E AND SE T03390061,M
MEV,2022-07-17 20:35,-119.7500,38.9963,1441.42,96.80,42.80,15.71,230.00,13.00,0.00,30.03,M,10.00,22.00,CLR,M,M,M,M,M,M,M,M,M,M,M,M,M,M,92.57,KMEV 172035Z AUTO 23013G22KT 10SM CLR 36/06 A3003 RMK AO2,M
BVU,2022-07-17 20:35,-114.8611,35.9475,671.00,M,M,M,M,M,0.00,M,M,M,M,M,M,M,M,M,M,M,M,M,M,M,M,M,M,M,M,KBVU 172035Z AUTO RMK AO2 PNO PWINO TSNO,M
CXP,2022-07-17 20:35,-119.7326,39.1923,1431.00,95.00,41.00,15.49,240.00,15.00,0.00,30.04,M,10.00,25.00,CLR,M,M,M,M,M,M,M,M,M,M,M,M,M,M,90.70,KCXP 172035Z AUTO 24015G25KT 10SM CLR 35/05 A3004 RMK AO2,M
RTS,2022-07-17 20:35,-119.8764,39.6682,1539.00,93.20,41.00,16.37,260.00,14.00,0.00,30.07,M,10.00,22.00,CLR,M,M,M,M,M,M,M,M,M,M,M,M,M,M,89.03,KRTS 172035Z AUTO 26014G22KT 230V290 10SM CLR 34/05 A3007 RMK AO2,M
05U,2022-07-17 20:35,-116.0051,39.6042,1811.23,80.60,51.80,36.79,230.00,8.00,0.00,30.17,M,10.00,M,CLR,M,M,M,M,M,M,M,M,M,M,M,M,M,M,80.08,K05U 172035Z AUTO 23008KT 10SM CLR 27/11 A3017 RMK A01,M
BAM,2022-07-17 20:35,-116.8743,40.5990,1382.36,M,M,M,250.00,14.00,0.00,29.98,M,10.00,20.00,CLR,M,M,M,M,M,M,M,M,M,M,M,M,M,M,M,KBAM 172035Z AUTO 25014G20KT 10SM CLR A2998 RMK AO1,M
HTH,2022-07-17 20:35,-118.6315,38.5448,1282.89,100.40,37.40,11.41,120.00,7.00,0.00,29.97,M,10.00,M,CLR,M,M,M,M,M,M,M,M,M,M,M,M,M,M,95.08,KHTH 172035Z AUTO 12007KT 100V160 10SM CLR 38/03 A2997 RMK A01,M
TMT,2022-07-17 20:35,-117.1971,39.4643,1749.34,M,M,M,240.00,7.00,0.00,30.11,M,10.00,M,CLR,M,M,M,M,M,M,M,M,M,M,M,M,M,M,M,KTMT 172035Z AUTO 24007KT 10SM CLR A3011 RMK AO2 LTG DSNT E,M
DRA,2022-07-17 20:53,-116.0278,36.6206,1009.00,97.00,44.00,16.41,30.00,4.00,0.00,29.97,1008.70,10.00,M,FEW,SCT,M,M,7000.00,10000.00,M,M,M,M,M,M,M,M,M,92.92,KDRA 172053Z AUTO 03004KT 10SM FEW070 SCT100 36/07 A2997 RMK AO2 SLP087 T03610067 58023,M
ELY,2022-07-17 20:53,-114.8453,39.2950,1909.00,89.00,45.00,21.70,160.00,7.00,0.00,30.16,1009.90,10.00,17.00,BKN,M,M,M,11000.00,M,M,M,VCTS,M,M,M,31.00,200.00,2022-07-17 20:07,85.66,KELY 172053Z AUTO 16007G17KT 10SM VCTS BKN110 32/07 A3016 RMK AO2 PK WND 20031/2007 WSHFT 1941 LTG DSNT E AND SE SLP099 T03170072 56009,M
VGT,2022-07-17 20:53,-115.1933,36.2111,667.00,105.00,51.00,16.73,M,6.00,0.00,29.86,1009.20,10.00,M,CLR,M,M,M,M,M,M,M,M,M,M,M,M,M,M,102.61,KVGT 172053Z VRB06KT 10SM CLR 41/11 A2986 RMK AO2 SLP092 T04060106 58020,M
LOL,2022-07-17 20:53,-118.5701,40.0684,1192.43,100.00,36.00,10.93,220.00,11.00,0.00,29.93,1008.00,10.00,19.00,CLR,M,M,M,M,M,M,M,M,M,M,M,M,M,M,94.48,KLOL 172053Z AUTO 22011G19KT 10SM CLR 38/02 A2993 RMK AO2 SLP080 T03780022 58020,M
P68,2022-07-17 20:53,-116.0056,39.6014,1993.00,83.00,50.00,31.93,280.00,10.00,0.00,30.14,1011.30,M,15.00,M,M,M,M,M,M,M,M,M,M,M,M,M,M,M,81.32,KP68 172053Z AUTO 28010G15KT 28/10 A3014 RMK AO1 WSHFT 1945 SLP113 60018 T02830100 50002,M
BVU,2022-07-17 20:55,-114.8611,35.9475,671.00,M,M,M,M,M,0.00,M,M,M,M,M,M,M,M,M,M,M,M,M,M,M,M,M,M,M,M,KBVU 172055Z AUTO RMK AO2 PNO PWINO TSNO,M
CXP,2022-07-17 20:55,-119.7326,39.1923,1431.00,95.00,42.80,16.60,250.00,11.00,0.00,30.04,M,10.00,24.00,CLR,M,M,M,M,M,M,M,M,M,M,M,M,M,M,90.86,KCXP 172055Z AUTO 25011G24KT 210V270 10SM CLR 35/06 A3004 RMK AO2,M
05U,2022-07-17 20:55,-116.0051,39.6042,1811.23,82.40,50.00,32.46,270.00,11.00,0.00,30.17,M,10.00,M,SCT,M,M,M,11000.00,M,M,M,M,M,M,M,M,M,M,80.99,K05U 172055Z AUTO 27011KT 10SM SCT110 28/10 A3017 RMK A01,M
MEV,2022-07-17 20:55,-119.7500,38.9963,1441.42,96.80,42.80,15.71,240.00,11.00,0.00,30.03,M,10.00,16.00,CLR,M,M,M,M,M,M,M,M,M,M,M,M,M,M,92.57,KMEV 172055Z AUTO 24011G16KT 10SM CLR 36/06 A3003 RMK AO2,M
BAM,2022-07-17 20:55,-116.8743,40.5990,1382.36,M,M,M,250.00,7.00,0.00,29.97,M,10.00,17.00,CLR,M,M,M,M,M,M,M,M,M,M,M,M,M,M,M,KBAM 172055Z AUTO 25007G17KT 220V290 10SM CLR A2997 RMK AO1,M
HTH,2022-07-17 20:55,-118.6315,38.5448,1282.89,100.40,37.40,11.41,170.00,25.00,0.00,29.96,M,10.00,31.00,CLR,M,M,M,M,M,M,M,M,M,M,M,M,M,M,95.08,KHTH 172055Z AUTO 17025G31KT 10SM CLR 38/03 A2996 RMK A01,M
TMT,2022-07-17 20:55,-117.1971,39.4643,1749.34,M,M,M,250.00,5.00,0.00,30.10,M,10.00,16.00,SCT,M,M,M,12000.00,M,M,M,M,M,M,M,M,M,M,M,KTMT 172055Z AUTO 25005G16KT 10SM SCT120 A3010 RMK AO2,M
RTS,2022-07-17 20:55,-119.8764,39.6682,1539.00,93.20,41.00,16.37,240.00,20.00,0.00,30.06,M,10.00,26.00,CLR,M,M,M,M,M,M,M,M,M,M,M,M,M,M,89.03,KRTS 172055Z AUTO 24020G26KT 10SM CLR 34/05 A3006 RMK AO2,M
RNO,2022-07-17 20:55,-119.7711,39.4839,1341.00,98.00,44.00,15.87,230.00,17.00,0.00,29.99,1008.50,10.00,23.00,SCT,M,M,M,7000.00,M,M,M,M,M,M,M,30.00,180.00,2022-07-17 20:13,93.99,KRNO 172055Z 23017G23KT 10SM SCT070 37/07 A2999 RMK AO2 PK WND 18030/2013 SLP085 T03670067 56014,M
LAS,2022-07-17 20:56,-115.1634,36.0719,663.00,102.00,52.00,18.97,0.00,0.00,0.00,29.87,1008.10,10.00,M,FEW,FEW,BKN,M,9000.00,15000.00,23000.00,M,M,M,M,M,M,M,M,99.65,KLAS 172056Z 00000KT 10SM FEW090 FEW150 BKN230 39/11 A2987 RMK AO2 SLP081 CB DSNT E T03890111 58020,M
WMC,2022-07-17 20:56,-117.8072,40.9019,1315.00,102.00,38.00,11.09,270.00,10.00,0.00,29.95,1007.30,10.00,19.00,FEW,M,M,M,11000.00,M,M,M,M,M,M,M,M,M,M,96.55,KWMC 172056Z AUTO 27010G19KT 10SM FEW110 39/03 A2995 RMK AO2 SLP073 T03890033 58023 TSNO,M
TPH,2022-07-17 20:56,-117.0904,38.0505,1654.00,95.00,45.00,18.06,190.00,17.00,0.00,30.10,1009.10,10.00,32.00,CLR,M,M,M,M,M,M,M,M,M,M,M,38.00,180.00,2022-07-17 20:19,91.10,KTPH 172056Z AUTO 19017G32KT 10SM CLR 35/07 A3010 RMK AO2 PK WND 18038/2019 LTG DSNT NE SLP091 T03500072 56011,M
HND,2022-07-17 20:56,-115.1344,35.9729,742.79,M,M,M,M,M,0.00,M,M,M,M,M,M,M,M,M,M,M,M,M,M,M,M,M,M,M,M,KHND 172056Z RMK AO2 SLPNO 6//// $,M
NFL,2022-07-17 20:56,-118.7010,39.4166,1199.00,101.00,36.00,10.64,M,3.00,0.00,29.93,1010.80,10.00,M,SCT,SCT,M,M,9000.00,14000.00,M,M,M,M,M,M,M,M,M,95.25,KNFL 172056Z VRB03KT 10SM SCT090 SCT140 38/02 A2993 RMK AO2 SLP108 CB DSNT SE AND W TCU DSNT SE-SW T03830022 58023,M
EKO,2022-07-17 20:56,-115.7860,40.8242,1367.00,89.00,46.00,22.54,190.00,23.00,0.00,30.04,1010.40,5.00,41.00,FEW,M,M,M,12000.00,M,M,M,HZ,M,M,M,41.00,190.00,2022-07-17 20:52,85.76,KEKO 172056Z AUTO 19023G41KT 5SM HZ FEW120 32/08 A3004 RMK AO2 PK WND 19041/2052 LTG DSNT SW PRESRR SLP104 T03170078 55008,M
LSV,2022-07-17 20:58,-115.0343,36.2362,570.00,109.60,47.70,12.91,0.00,0.00,0.00,29.83,1006.90,10.00,M,FEW,M,M,M,21000.00,M,M,M,M,M,M,M,M,M,M,105.99,KLSV 172058Z AUTO 00000KT 10SM FEW210 43/09 A2983 RMK AO2 SLP069 T04310087 57021 $,M
INS,2022-07-17 20:58,-115.6733,36.5872,955.00,98.00,45.70,16.97,300.00,9.00,0.00,29.96,1008.80,10.00,M,CLR,M,M,M,M,M,M,M,M,M,M,M,M,M,M,94.03,KINS 172058Z AUTO 30009KT 10SM CLR 37/08 A2996 RMK AO2 SLP088 T03660076 57019 $,M
EKO,2022-07-17 21:07,-115.7860,40.8242,1367.00,79.00,53.00,40.67,190.00,28.00,0.00,30.04,M,3.00,47.00,FEW,FEW,SCT,M,800.00,10000.00,12000.00,M,HZ,M,M,M,47.00,180.00,2022-07-17 21:05,79.00,KEKO 172107Z AUTO 19028G47KT 3SM HZ FEW008 FEW100 SCT120 26/12 A3004 RMK AO2 PK WND 18047/2105 LTG DSNT SW T02610117,M
ELY,2022-07-17 21:11,-114.8453,39.2950,1909.00,92.00,44.00,19.21,230.00,19.00,0.00,30.14,M,4.00,37.00,FEW,FEW,M,M,300.00,12000.00,M,M,HZ,M,M,M,37.00,210.00,2022-07-17 21:09,88.09,KELY 172111Z AUTO 23019G37KT 4SM HZ FEW003 FEW120 33/07 A3014 RMK AO2 PK WND 21037/2109 LTG DSNT NE-S T03330067,M
CXP,2022-07-17 21:15,-119.7326,39.1923,1431.00,95.00,42.80,16.60,270.00,10.00,0.00,30.04,M,10.00,23.00,CLR,M,M,M,M,M,M,M,M,M,M,M,M,M,M,90.86,KCXP 172115Z AUTO 27010G23KT 240V300 10SM CLR 35/06 A3004 RMK AO2,M
BVU,2022-07-17 21:15,-114.8611,35.9475,671.00,M,M,M,M,M,0.00,M,M,M,M,M,M,M,M,M,M,M,M,M,M,M,M,M,M,M,M,KBVU 172115Z AUTO RMK AO2 PNO PWINO TSNO,M
RTS,2022-07-17 21:15,-119.8764,39.6682,1539.00,93.20,41.00,16.37,240.00,19.00,0.00,30.06,M,10.00,24.00,CLR,M,M,M,M,M,M,M,M,M,M,M,M,M,M,89.03,KRTS 172115Z AUTO 24019G24KT 10SM CLR 34/05 A3006 RMK AO2,M
05U,2022-07-17 21:15,-116.0051,39.6042,1811.23,87.80,46.40,23.85,270.00,12.00,0.00,30.16,M,10.00,19.00,FEW,M,M,M,11000.00,M,M,M,M,M,M,M,M,M,M,84.68,K05U 172115Z AUTO 27012G19KT 10SM FEW110 31/08 A3016 RMK A01,M
MEV,2022-07-17 21:15,-119.7500,38.9963,1441.42,96.80,41.00,14.66,240.00,10.00,0.00,30.02,M,10.00,19.00,CLR,M,M,M,M,M,M,M,M,M,M,M,M,M,M,92.39,KMEV 172115Z AUTO 24010G19KT 10SM CLR 36/05 A3002 RMK AO2,M
BAM,2022-07-17 21:15,-116.8743,40.5990,1382.36,M,M,M,260.00,15.00,0.00,29.96,M,10.00,18.00,CLR,M,M,M,M,M,M,M,M,M,M,M,M,M,M,M,KBAM 172115Z AUTO 26015G18KT 10SM CLR A2996 RMK AO1,M
HTH,2022-07-17 21:15,-118.6315,38.5448,1282.89,98.60,33.80,10.45,160.00,20.00,0.00,29.96,M,10.00,M,CLR,M,M,M,M,M,M,M,M,M,M,M,M,M,M,92.94,KHTH 172115Z AUTO 16020KT 10SM CLR 37/01 A2996 RMK A01,M
ELY,2022-07-17 21:15,-114.8453,39.2950,1909.00,91.40,44.60,19.89,230.00,24.00,0.00,30.14,M,4.00,37.00,FEW,FEW,M,M,300.00,12000.00,M,M,VCTS HZ,M,M,M,M,M,M,87.68,KELY 172115Z AUTO 23024G37KT 4SM VCTS HZ FEW003 FEW120 33/07 A3014,M
TMT,2022-07-17 21:15,-117.1971,39.4643,1749.34,M,M,M,260.00,8.00,0.00,30.09,M,10.00,M,SCT,M,M,M,12000.00,M,M,M,M,M,M,M,M,M,M,M,KTMT 172115Z AUTO 26008KT 210V270 10SM SCT120 A3009 RMK AO2 LTG DSNT SE,M
CXP,2022-07-17 21:30,-119.7326,39.1923,1431.00,95.00,41.00,15.49,240.00,10.00,0.00,30.03,M,10.00,24.00,CLR,M,M,M,M,M,M,M,M,M,M,M,M,M,M,90.70,KCXP 172130Z AUTO 24010G24KT 200V270 10SM CLR 35/05 A3003 RMK AO2,M
05U,2022-07-17 21:30,-116.0051,39.6042,1811.23,87.80,44.60,22.27,260.00,5.00,0.00,30.16,M,10.00,13.00,CLR,M,M,M,M,M,M,M,M,M,M,M,M,M,M,84.53,K05U 172130Z AUTO 26005G13KT 10SM CLR 31/07 A3016 RMK A01,M
MEV,2022-07-17 21:35,-119.7500,38.9963,1441.42,95.00,41.00,15.49,260.00,13.00,0.00,30.02,M,10.00,19.00,CLR,M,M,M,M,M,M,M,M,M,M,M,M,M,M,90.70,KMEV 172135Z AUTO 26013G19KT 10SM CLR 35/05 A3002 RMK AO2,M
BAM,2022-07-17 21:35,-116.8743,40.5990,1382.36,M,M,M,270.00,13.00,0.00,29.97,M,10.00,18.00,CLR,M,M,M,M,M,M,M,M,M,M,M,M,M,M,M,KBAM 172135Z AUTO 27013G18KT 10SM CLR A2997 RMK AO1,M
TMT,2022-07-17 21:35,-117.1971,39.4643,1749.34,M,M,M,290.00,6.00,0.00,30.08,M,10.00,18.00,CLR,M,M,M,M,M,M,M,M,M,M,M,M,M,M,M,KTMT 172135Z AUTO 29006G18KT 10SM CLR A3008 RMK AO2,M
RTS,2022-07-17 21:35,-119.8764,39.6682,1539.00,93.20,41.00,16.37,250.00,21.00,0.00,30.05,M,10.00,26.00,CLR,M,M,M,M,M,M,M,M,M,M,M,M,M,M,89.03,KRTS 172135Z AUTO 25021G26KT 10SM CLR 34/05 A3005 RMK AO2,M
HTH,2022-07-17 21:35,-118.6315,38.5448,1282.89,98.60,32.00,9.72,110.00,10.00,0.00,29.94,M,10.00,19.00,CLR,M,M,M,M,M,M,M,M,M,M,M,M,M,M,92.69,KHTH 172135Z AUTO 11010G19KT 10SM CLR 37/00 A2994 RMK A01,M
BVU,2022-07-17 21:35,-114.8611,35.9475,671.00,M,M,M,M,M,0.00,M,M,M,M,M,M,M,M,M,M,M,M,M,M,M,M,M,M,M,M,KBVU 172135Z AUTO RMK AO2 PNO PWINO TSNO,M
ELY,2022-07-17 21:45,-114.8453,39.2950,1909.00,88.00,45.00,22.47,250.00,16.00,0.00,30.15,M,7.00,29.00,FEW,M,M,M,12000.00,M,M,M,TS,M,M,M,37.00,210.00,2022-07-17 21:09,84.72,KELY 172145Z AUTO 25016G29KT 7SM TS FEW120 31/07 A3015 RMK AO2 PK WND 21037/2109 WSHFT 2101 LTG DSNT ALQDS TSB39 T03110072,M
LOL,2022-07-17 21:46,-118.5701,40.0684,1192.43,102.00,35.00,9.93,230.00,8.00,0.00,29.91,M,10.00,M,CLR,M,M,M,M,M,M,M,M,M,M,M,M,M,M,96.04,KLOL 172146Z AUTO 23008KT 10SM CLR 39/02 A2991 RMK AO2 WSHFT 2126 T03890017,M
P68,2022-07-17 21:53,-116.0056,39.6014,1993.00,87.00,43.00,21.42,0.00,0.00,0.00,30.12,1010.40,M,M,M,M,M,M,M,M,M,M,M,M,M,M,M,M,M,83.84,KP68 172153Z AUTO 00000KT 31/06 A3012 RMK AO1 SLP104 T03060061,M
ELY,2022-07-17 21:53,-114.8453,39.2950,1909.00,87.00,41.00,19.83,220.00,32.00,0.00,30.16,1010.60,1.00,47.00,FEW,SCT,M,M,10000.00,12000.00,M,M,TS HZ,M,M,M,47.00,210.00,2022-07-17 21:52,83.73,KELY 172153Z AUTO 22032G47KT 1SM TS HZ FEW100 SCT120 31/05 A3016 RMK AO2 PK WND 21047/2152 WSHFT 2101 LTG DSNT ALQDS TSB39 SLP106 T03060050,M
LOL,2022-07-17 21:53,-118.5701,40.0684,1192.43,102.00,36.00,10.29,190.00,12.00,0.00,29.90,1006.70,10.00,19.00,CLR,M,M,M,M,M,M,M,M,M,M,M,M,M,M,96.20,KLOL 172153Z AUTO 19012G19KT 10SM CLR 39/02 A2990 RMK AO2 WSHFT 2126 SLP067 T03890022,M
VGT,2022-07-17 21:53,-115.1933,36.2111,667.00,107.00,51.00,15.77,180.00,5.00,0.00,29.83,1008.20,10.00,M,CLR,M,M,M,M,M,M,M,M,M,M,M,M,M,M,104.67,KVGT 172153Z 18005KT 10SM CLR 42/11 A2983 RMK AO2 SLP082 T04170106,M
DRA,2022-07-17 21:53,-116.0278,36.6206,1009.00,100.00,43.00,14.36,270.00,6.00,0.00,29.95,1007.90,10.00,M,CLR,M,M,M,M,M,M,M,M,M,M,M,M,M,M,95.68,KDRA 172153Z AUTO 27006KT 10SM CLR 38/06 A2995 RMK AO2 SLP079 T03780061,M
INS,2022-07-17 21:53,-115.6733,36.5872,955.00,100.40,44.60,15.08,10.00,4.00,0.00,29.92,1007.40,10.00,M,CLR,M,M,M,M,M,M,M,M,M,M,M,M,M,M,96.31,KINS 172153Z AUTO 01004KT 10SM CLR 38/07 A2992 RMK AO2 SLP074 $,M
HND,2022-07-17 21:54,-115.1344,35.9729,742.79,M,M,M,M,5.00,0.00,29.97,M,10.00,M,FEW,M,M,M,8000.00,M,M,M,M,M,M,M,M,M,M,M,KHND 172154Z VRB05KT 10SM FEW080 A2997 RMK TEMP AND DP MISSING,M
HTH,2022-07-17 21:55,-118.6315,38.5448,1282.89,98.60,32.00,9.72,M,5.00,0.00,29.94,M,10.00,M,CLR,M,M,M,M,M,M,M,M,M,M,M,M,M,M,92.69,KHTH 172155Z AUTO VRB05KT 10SM CLR 37/00 A2994 RMK A01,M
RTS,2022-07-17 21:55,-119.8764,39.6682,1539.00,93.20,39.20,15.27,250.00,23.00,0.00,30.05,M,10.00,30.00,CLR,M,M,M,M,M,M,M,M,M,M,M,M,M,M,88.92,KRTS 172155Z AUTO 25023G30KT 10SM CLR 34/04 A3005 RMK AO2,M
BAM,2022-07-17 21:55,-116.8743,40.5990,1382.36,M,M,M,170.00,12.00,0.00,29.96,M,10.00,M,CLR,M,M,M,M,M,M,M,M,M,M,M,M,M,M,M,KBAM 172155Z AUTO 17012KT 10SM CLR A2996 RMK AO1,M
MEV,2022-07-17 21:55,-119.7500,38.9963,1441.42,96.80,41.00,14.66,230.00,12.00,0.00,30.01,M,10.00,17.00,FEW,M,M,M,11000.00,M,M,M,M,M,M,M,M,M,M,92.39,KMEV 172155Z AUTO 23012G17KT 10SM FEW110 36/05 A3001 RMK AO2,M
TMT,2022-07-17 21:55,-117.1971,39.4643,1749.34,M,M,M,0.00,0.00,0.00,30.08,M,10.00,M,SCT,M,M,M,12000.00,M,M,M,VCTS,M,M,M,M,M,M,M,KTMT 172155Z AUTO 00000KT 10SM VCTS SCT120 A3008 RMK AO2 LTG DSNT S,M
RNO,2022-07-17 21:55,-119.7711,39.4839,1341.00,100.00,40.00,12.74,210.00,18.00,0.00,29.98,1007.90,10.00,27.00,SCT,M,M,M,7000.00,M,M,M,M,M,M,M,31.00,230.00,2022-07-17 20:57,95.23,KRNO 172155Z 21018G27KT 10SM SCT070 38/04 A2998 RMK AO2 PK WND 23031/2057 SLP079 T03780044,M
BVU,2022-07-17 21:55,-114.8611,35.9475,671.00,M,M,M,M,M,0.00,M,M,M,M,M,M,M,M,M,M,M,M,M,M,M,M,M,M,M,M,KBVU 172155Z AUTO RMK AO2 PNO PWINO TSNO,M
CXP,2022-07-17 21:55,-119.7326,39.1923,1431.00,95.00,42.80,16.60,260.00,15.00,0.00,30.03,M,10.00,23.00,CLR,M,M,M,M,M,M,M,M,M,M,M,M,M,M,90.86,KCXP 172155Z AUTO 26015G23KT 10SM CLR 35/06 A3003 RMK AO2,M
05U,2022-07-17 21:55,-116.0051,39.6042,1811.23,89.60,44.60,21.04,30.00,7.00,0.00,30.15,M,10.00,M,CLR,M,M,M,M,M,M,M,M,M,M,M,M,M,M,86.07,K05U 172155Z AUTO 03007KT 10SM CLR 32/07 A3015 RMK A01,M
NFL,2022-07-17 21:56,-118.7010,39.4166,1199.00,102.00,38.00,11.09,30.00,7.00,0.00,29.91,1010.20,10.00,16.00,SCT,SCT,M,M,9000.00,14000.00,M,M,M,M,M,M,M,M,M,96.55,KNFL 172156Z 03007G16KT 340V050 10SM SCT090 SCT140 39/03 A2991 RMK AO2 SLP102 CB DSNT SE AND NW TCU DSNT SE-SW T03890033,M
TPH,2022-07-17 21:56,-117.0904,38.0505,1654.00,96.00,43.00,16.17,180.00,21.00,0.00,30.08,1008.90,10.00,29.00,CLR,M,M,M,M,M,M,M,M,M,M,M,29.00,180.00,2022-07-17 21:56,91.93,KTPH 172156Z AUTO 18021G29KT 10SM CLR 36/06 A3008 RMK AO2 PK WND 18029/2156 SLP089 T03560061,M
WMC,2022-07-17 21:56,-117.8072,40.9019,1315.00,101.00,40.00,12.40,220.00,8.00,0.00,29.93,1006.80,10.00,28.00,CLR,M,M,M,M,M,M,M,M,M,M,M,28.00,230.00,2022-07-17 21:48,96.01,KWMC 172156Z AUTO 22008G28KT 10SM CLR 38/04 A2993 RMK AO2 PK WND 23028/2148 SLP068 T03830044 TSNO,M
LAS,2022-07-17 21:56,-115.1634,36.0719,663.00,105.00,51.00,16.73,360.00,3.00,0.00,29.84,1006.90,10.00,M,FEW,FEW,SCT,M,9000.00,15000.00,23000.00,M,M,M,M,M,M,M,M,102.61,KLAS 172156Z 36003KT 10SM FEW090 FEW150 SCT230 41/11 A2984 RMK AO2 SLP069 CB DSNT E AND SE ACC DSNT SE-SW T04060106,M
HND,2022-07-17 21:56,-115.1344,35.9729,742.79,M,M,M,M,M,0.00,M,M,M,M,M,M,M,M,M,M,M,M,M,M,M,M,M,M,M,M,KHND 172156Z RMK AO2 SLPNO $,M
EKO,2022-07-17 21:56,-115.7860,40.8242,1367.00,83.00,46.00,27.48,140.00,15.00,T,30.07,1012.10,10.00,36.00,FEW,BKN,OVC,M,4800.00,8500.00,11000.00,M,M,M,M,M,47.00,180.00,2022-07-17 21:05,80.94,KEKO 172156Z AUTO 14015G36KT 10SM FEW048 BKN085 OVC110 28/08 A3007 RMK AO2 PK WND 18047/2105 RAB09E52 SLP121 P0000 T02830078,M
LSV,2022-07-17 21:58,-115.0343,36.2362,570.00,113.00,48.20,11.93,0.00,0.00,0.00,29.80,1005.80,10.00,M,CLR,M,M,M,M,M,M,M,M,M,M,M,M,M,M,109.34,KLSV 172158Z AUTO 00000KT 10SM CLR 45/09 A2980 RMK AO2 SLP058 T04500090 $,M
INS,2022-07-17 21:58,-115.6733,36.5872,955.00,99.70,43.70,14.89,350.00,4.00,0.00,29.92,1007.40,10.00,M,CLR,M,M,M,M,M,M,M,M,M,M,M,M,M,M,95.49,KINS 172158Z AUTO 35004KT 10SM CLR 38/07 A2992 RMK AO2 SLP074 T03760065 $,M
ELY,2022-07-17 22:00,-114.8453,39.2950,1909.00,85.00,39.00,19.69,M,6.00,T,30.16,M,1.00,47.00,FEW,SCT,BKN,M,4900.00,7500.00,11000.00,M,-RA,M,M,M,40.00,210.00,2022-07-17 21:54,81.95,KELY 172200Z AUTO VRB06G47KT 1SM -RA FEW049 SCT075 BKN110 29/04 A3016 RMK AO2 PK WND 21040/2154 LTG DSNT ALQDS RAB2155 TSE2154 P0000 T02940039,M
ELY,2022-07-17 22:03,-114.8453,39.2950,1909.00,86.00,40.00,19.68,M,3.00,T,30.15,M,4.00,40.00,FEW,SCT,BKN,M,4900.00,7500.00,11000.00,M,VCTS -RA,M,M,M,40.00,210.00,2022-07-17 21:54,82.81,KELY 172203Z AUTO VRB03G40KT 4SM VCTS -RA FEW049 SCT075 BKN110 30/04 A3015 RMK AO2 PK WND 21040/2154 LTG DSNT ALQDS RAB2155 TSE2154 P0000 T03000044,M
MEV,2022-07-17 22:15,-119.7500,38.9963,1441.42,96.80,39.20,13.66,240.00,10.00,0.00,30.01,M,10.00,16.00,FEW,M,M,M,12000.00,M,M,M,M,M,M,M,M,M,M,92.23,KMEV 172215Z AUTO 24010G16KT 10SM FEW120 36/04 A3001 RMK AO2,M
BAM,2022-07-17 22:15,-116.8743,40.5990,1382.36,M,M,M,0.00,0.00,0.00,29.96,M,10.00,M,CLR,M,M,M,M,M,M,M,M,M,M,M,M,M,M,M,KBAM 172215Z AUTO 00000KT 10SM CLR A2996 RMK AO1,M
CXP,2022-07-17 22:15,-119.7326,39.1923,1431.00,95.00,41.00,15.49,260.00,18.00,0.00,30.02,M,10.00,23.00,CLR,M,M,M,M,M,M,M,M,M,M,M,M,M,M,90.70,KCXP 172215Z AUTO 26018G23KT 10SM CLR 35/05 A3002 RMK AO2,M
BVU,2022-07-17 22:15,-114.8611,35.9475,671.00,M,M,M,M,M,0.00,M,M,M,M,M,M,M,M,M,M,M,M,M,M,M,M,M,M,M,M,KBVU 172215Z AUTO RMK AO2 PNO PWINO TSNO,M
HTH,2022-07-17 22:15,-118.6315,38.5448,1282.89,98.60,35.60,11.23,90.00,13.00,0.00,29.93,M,10.00,20.00,CLR,M,M,M,M,M,M,M,M,M,M,M,M,M,M,93.23,KHTH 172215Z AUTO 09013G20KT 10SM CLR 37/02 A2993 RMK A01,M
TMT,2022-07-17 22:15,-117.1971,39.4643,1749.34,M,M,M,130.00,12.00,0.00,30.07,M,10.00,M,SCT,M,M,M,12000.00,M,M,M,M,M,M,M,M,M,M,M,KTMT 172215Z AUTO 13012KT 10SM SCT120 A3007 RMK AO2,M
05U,2022-07-17 22:15,-116.0051,39.6042,1811.23,86.00,48.20,27.03,100.00,9.00,0.00,30.16,M,10.00,14.00,BKN,M,M,M,11000.00,M,M,M,M,M,M,M,M,M,M,83.40,K05U 172215Z AUTO 10009G14KT 050V110 10SM BKN110 30/09 A3016 RMK A01,M
RTS,2022-07-17 22:15,-119.8764,39.6682,1539.00,93.20,39.20,15.27,250.00,20.00,0.00,30.05,M,10.00,27.00,CLR,M,M,M,M,M,M,M,M,M,M,M,M,M,M,88.92,KRTS 172215Z AUTO 25020G27KT 10SM CLR 34/04 A3005 RMK AO2,M
WMC,2022-07-17 22:23,-117.8072,40.9019,1315.00,101.00,39.00,11.97,220.00,7.00,0.00,29.92,M,10.00,28.00,FEW,M,M,M,11000.00,M,M,M,M,M,M,M,28.00,210.00,2022-07-17 22:15,95.82,KWMC 172223Z AUTO 22007G28KT 10SM FEW110 38/04 A2992 RMK AO2 PK WND 21028/2215 WSHFT 2203 T03830039 TSNO,M
P68,2022-07-17 22:34,-116.0056,39.6014,1993.00,77.00,54.00,44.90,140.00,14.00,0.00,30.16,M,M,25.00,M,M,M,M,M,M,M,M,M,M,M,M,27.00,130.00,2022-07-17 22:17,77.00,KP68 172234Z AUTO 14014G25KT 25/12 A3016 RMK AO1 PK WND 13027/2217 WSHFT 2217 T02500122,M
RTS,2022-07-17 22:35,-119.8764,39.6682,1539.00,93.20,39.20,15.27,250.00,19.00,0.00,30.05,M,10.00,28.00,CLR,M,M,M,M,M,M,M,M,M,M,M,M,M,M,88.92,KRTS 172235Z AUTO 25019G28KT 10SM CLR 34/04 A3005 RMK AO2,M
HTH,2022-07-17 22:35,-118.6315,38.5448,1282.89,96.80,35.60,11.86,90.00,10.00,0.00,29.93,M,10.00,M,CLR,M,M,M,M,M,M,M,M,M,M,M,M,M,M,91.72,KHTH 172235Z AUTO 09010KT 10SM CLR 36/02 A2993 RMK A01,M
BVU,2022-07-17 22:35,-114.8611,35.9475,671.00,M,M,M,M,M,0.00,M,M,M,M,M,M,M,M,M,M,M,M,M,M,M,M,M,M,M,M,KBVU 172235Z AUTO RMK AO2 PNO PWINO TSNO,M
CXP,2022-07-17 22:35,-119.7326,39.1923,1431.00,95.00,41.00,15.49,250.00,11.00,0.00,30.02,M,10.00,21.00,CLR,M,M,M,M,M,M,M,M,M,M,M,M,M,M,90.70,KCXP 172235Z AUTO 25011G21KT 220V280 10SM CLR 35/05 A3002 RMK AO2,M
BAM,2022-07-17 22:35,-116.8743,40.5990,1382.36,M,M,M,260.00,11.00,0.00,29.95,M,10.00,18.00,CLR,M,M,M,M,M,M,M,M,M,M,M,M,M,M,M,KBAM 172235Z AUTO 26011G18KT 10SM CLR A2995 RMK AO1,M
TMT,2022-07-17 22:35,-117.1971,39.4643,1749.34,M,M,M,160.00,20.00,0.00,30.09,M,10.00,27.00,BKN,M,M,M,12000.00,M,M,M,VCTS,M,M,M,M,M,M,M,KTMT 172235Z AUTO 16020G27KT 10SM VCTS BKN120 A3009 RMK AO2 LTG DSNT SE AND S,M
MEV,2022-07-17 22:35,-119.7500,38.9963,1441.42,96.80,41.00,14.66,250.00,21.00,0.00,30.00,M,10.00,M,CLR,M,M,M,M,M,M,M,M,M,M,M,M,M,M,92.39,KMEV 172235Z AUTO 25021KT 10SM CLR 36/05 A3000 RMK AO2,M
05U,2022-07-17 22:35,-116.0051,39.6042,1811.23,77.00,53.60,44.25,140.00,12.00,0.00,30.19,M,10.00,18.00,FEW,SCT,OVC,M,5500.00,8000.00,10000.00,M,M,M,M,M,M,M,M,77.00,K05U 172235Z AUTO 14012G18KT 10SM FEW055 SCT080 OVC100 25/12 A3019 RMK A01,M
HND,2022-07-17 22:52,-115.1344,35.9729,742.79,M,M,M,320.00,4.00,0.00,29.97,M,10.00,M,FEW,M,M,M,9000.00,M,M,M,M,M,M,M,M,M,M,M,KHND 172252Z 32004KT 10SM FEW090 A2997 RMK SP,M
ELY,2022-07-17 22:53,-114.8453,39.2950,1909.00,84.00,46.00,26.52,310.00,16.00,T,30.18,1011.50,10.00,25.00,OVC,M,M,M,11000.00,M,M,M,M,M,M,M,40.00,210.00,2022-07-17 21:54,81.69,KELY 172253Z AUTO 31016G25KT 10SM OVC110 29/08 A3018 RMK AO2 PK WND 21040/2154 WSHFT 2238 LTG DSNT NE AND E RAB2155E13 TSE2154 SLP115 P0000 T02890078,M
LOL,2022-07-17 22:53,-118.5701,40.0684,1192.43,100.00,38.00,11.78,270.00,6.00,0.00,29.88,1006.30,10.00,19.00,CLR,M,M,M,M,M,M,M,M,M,M,M,30.00,170.00,2022-07-17 22:36,94.83,KLOL 172253Z AUTO 27006G19KT 10SM CLR 38/03 A2988 RMK AO2 PK WND 17030/2236 WSHFT 2232 SLP063 T03780033,M
VGT,2022-07-17 22:53,-115.1933,36.2111,667.00,109.00,51.00,14.92,M,6.00,0.00,29.80,1007.10,10.00,M,CLR,M,M,M,M,M,M,M,M,M,M,M,M,M,M,106.59,KVGT 172253Z VRB06KT 10SM CLR 43/11 A2980 RMK AO2 SLP071 T04280106,M
P68,2022-07-17 22:53,-116.0056,39.6014,1993.00,73.00,54.00,51.33,140.00,15.00,0.00,30.20,1014.90,M,24.00,M,M,M,M,M,M,M,M,M,M,M,M,27.00,130.00,2022-07-17 22:17,73.00,KP68 172253Z AUTO 14015G24KT 23/12 A3020 RMK AO1 PK WND 13027/2217 WSHFT 2217 PRESRR SLP149 T02280122,M
DRA,2022-07-17 22:53,-116.0278,36.6206,1009.00,102.00,43.00,13.52,290.00,9.00,0.00,29.92,1006.90,10.00,M,CLR,M,M,M,M,M,M,M,M,M,M,M,M,M,M,97.60,KDRA 172253Z AUTO 29009KT 10SM CLR 39/06 A2992 RMK AO2 SLP069 T03890061,M
TMT,2022-07-17 22:55,-117.1971,39.4643,1749.34,76.60,52.50,43.07,140.00,17.00,0.00,30.08,M,10.00,32.00,SCT,SCT,OVC,M,3400.00,6000.00,12000.00,M,-RA,M,M,M,M,M,M,76.60,KTMT 172255Z AUTO 14017G32KT 10SM -RA SCT034 SCT060 OVC120 25/11 A3008 RMK AO2 T02480114,M
BVU,2022-07-17 22:55,-114.8611,35.9475,671.00,M,M,M,M,M,0.00,M,M,M,M,M,M,M,M,M,M,M,M,M,M,M,M,M,M,M,M,KBVU 172255Z AUTO RMK AO2 PNO PWINO TSNO,M
RTS,2022-07-17 22:55,-119.8764,39.6682,1539.00,93.20,41.00,16.37,240.00,18.00,0.00,30.05,M,10.00,M,CLR,M,M,M,M,M,M,M,M,M,M,M,M,M,M,89.03,KRTS 172255Z AUTO 24018KT 10SM CLR 34/05 A3005 RMK AO2,M
CXP,2022-07-17 22:55,-119.7326,39.1923,1431.00,95.00,41.00,15.49,240.00,12.00,0.00,30.02,M,10.00,23.00,CLR,M,M,M,M,M,M,M,M,M,M,M,M,M,M,90.70,KCXP 172255Z AUTO 24012G23KT 10SM CLR 35/05 A3002 RMK AO2,M
BAM,2022-07-17 22:55,-116.8743,40.5990,1382.36,M,M,M,230.00,8.00,0.00,29.95,M,10.00,M,CLR,M,M,M,M,M,M,M,M,M,M,M,M,M,M,M,KBAM 172255Z AUTO 23008KT 10SM CLR A2995 RMK AO1,M
05U,2022-07-17 22:55,-116.0051,39.6042,1811.23,71.60,53.60,53.03,140.00,15.00,0.00,30.22,M,7.00,M,FEW,SCT,BKN,M,4200.00,5500.00,7000.00,M,M,M,M,M,M,M,M,71.60,K05U 172255Z AUTO 14015KT 7SM FEW042 SCT055 BKN070 22/12 A3022 RMK A01,M
MEV,2022-07-17 22:55,-119.7500,38.9963,1441.42,96.80,41.00,14.66,250.00,21.00,0.00,30.00,M,10.00,M,CLR,M,M,M,M,M,M,M,M,M,M,M,M,M,M,92.39,KMEV 172255Z AUTO 25021KT 10SM CLR 36/05 A3000 RMK AO2,M
HTH,2022-07-17 22:55,-118.6315,38.5448,1282.89,96.80,35.60,11.86,100.00,9.00,0.00,29.93,M,10.00,M,CLR,M,M,M,M,M,M,M,M,M,M,M,M,M,M,91.72,KHTH 172255Z AUTO 10009KT 10SM CLR 36/02 A2993 RMK A01,M
RNO,2022-07-17 22:55,-119.7711,39.4839,1341.00,99.00,42.00,14.30,210.00,19.00,0.00,29.97,1007.60,10.00,26.00,FEW,FEW,M,M,8000.00,11000.00,M,M,M,M,M,M,29.00,220.00,2022-07-17 22:10,94.60,KRNO 172255Z 21019G26KT 10SM FEW080 FEW110 37/06 A2997 RMK AO2 PK WND 22029/2210 SLP076 T03720056,M
EKO,2022-07-17 22:56,-115.7860,40.8242,1367.00,91.00,42.00,18.30,0.00,0.00,0.00,30.03,1009.90,10.00,M,CLR,M,M,M,M,M,M,M,M,M,M,M,M,M,M,87.11,KEKO 172256Z AUTO 00000KT 10SM CLR 33/06 A3003 RMK AO2 SLP099 T03280056,M
WMC,2022-07-17 22:56,-117.8072,40.9019,1315.00,103.00,37.00,10.42,220.00,12.00,0.00,29.91,1006.00,10.00,22.00,FEW,M,M,M,11000.00,M,M,M,M,M,M,M,28.00,210.00,2022-07-17 22:15,97.16,KWMC 172256Z AUTO 22012G22KT 10SM FEW110 39/03 A2991 RMK AO2 PK WND 21028/2215 WSHFT 2203 SLP060 T03940028 TSNO,M
HND,2022-07-17 22:56,-115.1344,35.9729,742.79,M,M,M,M,M,0.00,M,M,M,M,M,M,M,M,M,M,M,M,M,M,M,M,M,M,M,M,KHND 172256Z RMK AO2 SLPNO $,M
NFL,2022-07-17 22:56,-118.7010,39.4166,1199.00,101.00,38.00,11.47,280.00,7.00,0.00,29.89,1009.70,10.00,M,SCT,SCT,M,M,9000.00,14000.00,M,M,M,M,M,M,M,M,M,95.60,KNFL 172256Z 28007KT 10SM SCT090 SCT140 38/03 A2989 RMK AO2 SLP097 VIRGA VC SE-S TCU DSNT SE-SW AND N SH DSNT N T03830033,M
TPH,2022-07-17 22:56,-117.0904,38.0505,1654.00,94.00,43.00,17.31,180.00,14.00,0.00,30.07,1008.50,10.00,26.00,CLR,M,M,M,M,M,M,M,M,M,M,M,29.00,160.00,2022-07-17 22:17,89.84,KTPH 172256Z AUTO 18014G26KT 10SM CLR 34/06 A3007 RMK AO2 PK WND 16029/2217 SLP085 T03440061,M
LAS,2022-07-17 22:56,-115.1634,36.0719,663.00,107.00,50.00,15.14,M,4.00,0.00,29.81,1005.80,10.00,M,FEW,FEW,SCT,M,9000.00,15000.00,23000.00,M,M,M,M,M,M,M,M,104.29,KLAS 172256Z VRB04KT 10SM FEW090 FEW150 SCT230 42/10 A2981 RMK AO2 SLP058 CB DSNT E AND SE ACC DSNT SE-SW T04170100,M
INS,2022-07-17 22:58,-115.6733,36.5872,955.00,101.00,41.00,12.94,230.00,4.00,0.00,29.90,1006.70,10.00,M,CLR,M,M,M,M,M,M,M,M,M,M,M,M,M,M,96.25,KINS 172258Z AUTO 23004KT 10SM CLR 38/05 A2990 RMK AO2 SLP067 T03830050 $,M
LSV,2022-07-17 22:58,-115.0343,36.2362,570.00,111.40,49.00,12.92,250.00,7.00,0.00,29.77,1004.70,10.00,M,CLR,M,M,M,M,M,M,M,M,M,M,M,M,M,M,108.18,KLSV 172258Z AUTO 25007KT 10SM CLR 44/10 A2977 RMK AO2 SLP047 T04410095 $,M
ELY,2022-07-17 23:00,-114.8453,39.2950,1909.00,84.00,46.00,26.52,340.00,15.00,0.00,30.18,M,10.00,24.00,OVC,M,M,M,10000.00,M,M,M,M,M,M,M,M,M,M,81.69,KELY 172300Z AUTO 34015G24KT 10SM OVC100 29/08 A3018 RMK AO2 WSHFT 2240 LTG DSNT NE T02890078,M
CXP,2022-07-17 23:15,-119.7326,39.1923,1431.00,95.00,41.00,15.49,240.00,12.00,0.00,30.01,M,10.00,23.00,CLR,M,M,M,M,M,M,M,M,M,M,M,M,M,M,90.70,KCXP 172315Z AUTO 24012G23KT 210V270 10SM CLR 35/05 A3001 RMK AO2,M
BVU,2022-07-17 23:15,-114.8611,35.9475,671.00,M,M,M,M,M,0.00,M,M,M,M,M,M,M,M,M,M,M,M,M,M,M,M,M,M,M,M,KBVU 172315Z AUTO RMK AO2 PNO PWINO TSNO,M
RTS,2022-07-17 23:15,-119.8764,39.6682,1539.00,91.40,39.20,16.15,240.00,23.00,0.00,30.04,M,10.00,28.00,CLR,M,M,M,M,M,M,M,M,M,M,M,M,M,M,87.30,KRTS 172315Z AUTO 24023G28KT 10SM CLR 33/04 A3004 RMK AO2,M
05U,2022-07-17 23:15,-116.0051,39.6042,1811.23,69.80,55.40,60.21,150.00,9.00,0.00,30.23,M,5.00,16.00,FEW,FEW,FEW,M,5000.00,6000.00,7500.00,M,HZ,M,M,M,M,M,M,69.80,K05U 172315Z AUTO 15009G16KT 5SM HZ FEW050 FEW060 FEW075 21/13 A3023 RMK A01,M
MEV,2022-07-17 23:15,-119.7500,38.9963,1441.42,96.80,41.00,14.66,250.00,18.00,0.00,30.00,M,10.00,27.00,CLR,M,M,M,M,M,M,M,M,M,M,M,M,M,M,92.39,KMEV 172315Z AUTO 25018G27KT 10SM CLR 36/05 A3000 RMK AO2,M
BAM,2022-07-17 23:15,-116.8743,40.5990,1382.36,M,M,M,170.00,10.00,0.00,29.95,M,10.00,21.00,SCT,SCT,M,M,10000.00,12000.00,M,M,M,M,M,M,M,M,M,M,KBAM 172315Z AUTO 17010G21KT 10SM SCT100 SCT120 A2995 RMK AO1,M
HTH,2022-07-17 23:15,-118.6315,38.5448,1282.89,96.80,35.60,11.86,80.00,4.00,0.00,29.92,M,10.00,10.00,CLR,M,M,M,M,M,M,M,M,M,M,M,M,M,M,91.72,KHTH 172315Z AUTO 08004G10KT 10SM CLR 36/02 A2992 RMK A01,M
TMT,2022-07-17 23:15,-117.1971,39.4643,1749.34,M,M,M,120.00,17.00,0.00,30.09,M,10.00,20.00,SCT,M,M,M,11000.00,M,M,M,M,M,M,M,M,M,M,M,KTMT 172315Z AUTO 12017G20KT 10SM SCT110 A3009 RMK AO2,M
LOL,2022-07-17 23:25,-118.5701,40.0684,1192.43,99.00,41.00,13.70,280.00,23.00,0.00,29.88,M,10.00,32.00,CLR,M,M,M,M,M,M,M,M,M,M,M,34.00,260.00,2022-07-17 23:12,94.47,KLOL 172325Z AUTO 28023G32KT 10SM CLR 37/05 A2988 RMK AO2 PK WND 26034/2312 WSHFT 2305 T03720050,M
TMT,2022-07-17 23:35,-117.1971,39.4643,1749.34,83.70,47.70,28.56,100.00,10.00,0.00,30.11,M,10.00,M,CLR,M,M,M,M,M,M,M,M,M,M,M,M,M,M,81.63,KTMT 172335Z AUTO 10010KT 10SM CLR 29/09 A3011 RMK AO2 T02870087,M
BAM,2022-07-17 23:35,-116.8743,40.5990,1382.36,M,M,M,170.00,8.00,0.00,29.93,M,10.00,M,SCT,M,M,M,12000.00,M,M,M,M,M,M,M,M,M,M,M,KBAM 172335Z AUTO 17008KT 10SM SCT120 A2993 RMK AO1,M
HTH,2022-07-17 23:35,-118.6315,38.5448,1282.89,96.80,35.60,11.86,0.00,0.00,0.00,29.92,M,10.00,M,CLR,M,M,M,M,M,M,M,M,M,M,M,M,M,M,91.72,KHTH 172335Z AUTO 00000KT 10SM CLR 36/02 A2992 RMK A01,M
BVU,2022-07-17 23:35,-114.8611,35.9475,671.00,M,M,M,M,M,0.00,M,M,M,M,M,M,M,M,M,M,M,M,M,M,M,M,M,M,M,M,KBVU 172335Z AUTO RMK AO2 PNO PWINO TSNO,M
CXP,2022-07-17 23:35,-119.7326,39.1923,1431.00,95.00,42.80,16.60,260.00,12.00,0.00,30.01,M,10.00,25.00,CLR,M,M,M,M,M,M,M,M,M,M,M,M,M,M,90.86,KCXP 172335Z AUTO 26012G25KT 10SM CLR 35/06 A3001 RMK AO2,M
RTS,2022-07-17 23:35,-119.8764,39.6682,1539.00,93.20,37.40,14.23,250.00,16.00,0.00,30.04,M,10.00,25.00,CLR,M,M,M,M,M,M,M,M,M,M,M,M,M,M,88.83,KRTS 172335Z AUTO 25016G25KT 10SM CLR 34/03 A3004 RMK AO2,M
05U,2022-07-17 23:35,-116.0051,39.6042,1811.23,69.80,55.40,60.21,100.00,8.00,0.00,30.20,M,10.00,M,CLR,M,M,M,M,M,M,M,M,M,M,M,M,M,M,69.80,K05U 172335Z AUTO 10008KT 10SM CLR 21/13 A3020 RMK A01,M
MEV,2022-07-17 23:35,-119.7500,38.9963,1441.42,96.80,39.20,13.66,220.00,18.00,0.00,30.00,M,10.00,23.00,CLR,M,M,M,M,M,M,M,M,M,M,M,M,M,M,92.23,KMEV 172335Z AUTO 22018G23KT 10SM CLR 36/04 A3000 RMK AO2,M
ELY,2022-07-17 23:41,-114.8453,39.2950,1909.00,80.00,50.00,34.98,30.00,17.00,0.00,30.17,M,10.00,24.00,BKN,M,M,M,11000.00,M,M,M,M,M,M,M,29.00,40.00,2022-07-17 23:25,79.60,KELY 172341Z AUTO 03017G24KT 10SM BKN110 27/10 A3017 RMK AO2 PK WND 04029/2325 WSHFT 2321 LTG DSNT NE T02670100,M
P68,2022-07-17 23:53,-116.0056,39.6014,1993.00,73.00,57.00,57.23,90.00,11.00,0.00,30.15,1013.50,M,M,M,M,M,M,M,M,M,M,M,M,M,M,26.00,160.00,2022-07-17 23:01,73.00,KP68 172353Z AUTO 09011KT 23/14 A3015 RMK AO1 PK WND 16026/2301 SLP135 60018 T02280139 10317 20211 50004,M
LOL,2022-07-17 23:53,-118.5701,40.0684,1192.43,102.00,39.00,11.58,260.00,11.00,0.00,29.87,1006.20,10.00,18.00,CLR,M,M,M,M,M,M,M,M,M,M,M,34.00,260.00,2022-07-17 23:12,96.77,KLOL 172353Z AUTO 26011G18KT 10SM CLR 39/04 A2987 RMK AO2 PK WND 26034/2312 WSHFT 2305 SLP062 T03890039 10400 20344 56008,M
DRA,2022-07-17 23:53,-116.0278,36.6206,1009.00,101.00,43.00,13.98,0.00,0.00,0.00,29.90,1006.20,10.00,M,CLR,M,M,M,M,M,M,M,M,M,M,M,M,M,M,96.55,KDRA 172353Z AUTO 00000KT 10SM CLR 38/06 A2990 RMK AO2 SLP062 T03830061 10394 20306 58022,M
ELY,2022-07-17 23:53,-114.8453,39.2950,1909.00,80.00,48.00,32.46,20.00,16.00,0.00,30.17,1011.70,10.00,24.00,BKN,M,M,M,11000.00,M,M,M,M,M,M,M,29.00,40.00,2022-07-17 23:25,79.42,KELY 172353Z AUTO 02016G24KT 10SM BKN110 27/09 A3017 RMK AO2 PK WND 04029/2325 WSHFT 2321 LTG DSNT SE SLP117 60000 T02670089 10350 20267 50004,M
VGT,2022-07-17 23:53,-115.1933,36.2111,667.00,109.00,51.00,14.92,340.00,3.00,0.00,29.78,1006.40,10.00,M,CLR,M,M,M,M,M,M,M,M,M,M,M,M,M,M,106.59,KVGT 172353Z 34003KT 10SM CLR 43/11 A2978 RMK AO2 SLP064 T04280106 10433 20367 56025,M
HND,2022-07-17 23:54,-115.1344,35.9729,742.79,M,M,M,140.00,6.00,0.00,29.82,M,10.00,M,FEW,M,M,M,9000.00,M,M,M,M,M,M,M,M,M,M,M,KHND 172354Z 14006KT 10SM FEW090 A2982,M
HTH,2022-07-17 23:55,-118.6315,38.5448,1282.89,98.60,35.60,11.23,0.00,0.00,0.00,29.92,M,10.00,M,CLR,M,M,M,M,M,M,M,M,M,M,M,M,M,M,93.23,KHTH 172355Z AUTO 00000KT 10SM CLR 37/02 A2992 RMK A01,M
TMT,2022-07-17 23:55,-117.1971,39.4643,1749.34,M,M,M,0.00,0.00,0.00,30.15,M,10.00,M,BKN,M,M,M,11000.00,M,M,M,-RA,M,M,M,M,M,M,M,KTMT 172355Z AUTO 00000KT 10SM -RA BKN110 A3015 RMK AO2,M
BVU,2022-07-17 23:55,-114.8611,35.9475,671.00,M,M,M,M,M,0.00,M,M,M,M,M,M,M,M,M,M,M,M,M,M,M,M,M,M,M,M,KBVU 172355Z AUTO RMK AO2 PNO PWINO TSNO,M
CXP,2022-07-17 23:55,-119.7326,39.1923,1431.00,93.20,42.80,17.55,240.00,9.00,0.00,30.01,M,10.00,19.00,CLR,M,M,M,M,M,M,M,M,M,M,M,M,M,M,89.17,KCXP 172355Z AUTO 24009G19KT 200V270 10SM CLR 34/06 A3001 RMK AO2,M
RNO,2022-07-17 23:55,-119.7711,39.4839,1341.00,97.00,43.00,15.73,250.00,16.00,0.00,29.96,1007.60,8.00,23.00,FEW,FEW,M,M,8000.00,11000.00,M,M,M,M,M,M,27.00,210.00,2022-07-17 23:09,92.79,KRNO 172355Z 25016G23KT 8SM FEW080 FEW110 36/06 A2996 RMK AO2 PK WND 21027/2309 SLP076 T03610061 10383 20322 56009,M
RTS,2022-07-17 23:55,-119.8764,39.6682,1539.00,91.40,35.60,14.02,250.00,19.00,0.00,30.05,M,10.00,27.00,CLR,M,M,M,M,M,M,M,M,M,M,M,M,M,M,87.17,KRTS 172355Z AUTO 25019G27KT 10SM CLR 33/02 A3005 RMK AO2,M
05U,2022-07-17 23:55,-116.0051,39.6042,1811.23,73.40,57.20,56.88,90.00,9.00,0.01,30.18,M,10.00,M,FEW,M,M,M,12000.00,M,M,M,M,M,M,M,M,M,M,73.40,K05U 172355Z AUTO 09009KT 10SM FEW120 23/14 A3018 RMK A01 P0001,M
MEV,2022-07-17 23:55,-119.7500,38.9963,1441.42,95.00,39.20,14.44,230.00,15.00,0.00,30.00,M,10.00,M,CLR,M,M,M,M,M,M,M,M,M,M,M,M,M,M,90.57,KMEV 172355Z AUTO 23015KT 10SM CLR 35/04 A3000 RMK AO2,M
BAM,2022-07-17 23:55,-116.8743,40.5990,1382.36,M,M,M,130.00,4.00,0.00,29.93,M,10.00,16.00,CLR,M,M,M,M,M,M,M,M,M,M,M,M,M,M,M,KBAM 172355Z AUTO 13004G16KT 10SM CLR A2993 RMK AO1,M
HND,2022-07-17 23:56,-115.1344,35.9729,742.79,M,M,M,M,M,0.00,M,M,M,M,M,M,M,M,M,M,M,M,M,M,M,M,M,M,M,M,KHND 172356Z RMK AO2 SLPNO 6//// $,M
LAS,2022-07-17 23:56,-115.1634,36.0719,663.00,108.00,49.00,14.15,190.00,6.00,0.00,29.78,1004.90,10.00,M,FEW,FEW,M,M,7500.00,23000.00,M,M,M,M,M,M,M,M,M,104.83,KLAS 172356Z 19006KT 10SM FEW075 FEW230 42/09 A2978 RMK AO2 SLP049 CB DSNT E AND SW T04220094 10422 20367 56028,M
EKO,2022-07-17 23:56,-115.7860,40.8242,1367.00,88.00,45.00,22.47,200.00,13.00,0.00,30.03,1010.60,10.00,22.00,FEW,SCT,BKN,M,7000.00,9000.00,11000.00,M,M,M,M,M,M,M,M,84.72,KEKO 172356Z AUTO 20013G22KT 10SM FEW070 SCT090 BKN110 31/07 A3003 RMK AO2 SLP106 60000 T03110072 10372 20256 58003,M
TPH,2022-07-17 23:56,-117.0904,38.0505,1654.00,95.00,39.00,14.33,200.00,14.00,0.00,30.05,1008.20,10.00,22.00,CLR,M,M,M,M,M,M,M,M,M,M,M,31.00,190.00,2022-07-17 23:14,90.55,KTPH 172356Z AUTO 20014G22KT 10SM CLR 35/04 A3005 RMK AO2 PK WND 19031/2314 SLP082 T03500039 10356 20328 56013,M
NFL,2022-07-17 23:56,-118.7010,39.4166,1199.00,100.00,39.00,12.30,310.00,8.00,0.00,29.87,1009.10,10.00,M,SCT,BKN,M,M,9000.00,14000.00,M,M,M,M,M,M,M,M,M,95.05,KNFL 172356Z 31008KT 10SM SCT090 BKN140 38/04 A2987 RMK AO2 SLP091 VIRGA VC SE-S CB DSNT SE TCU DSNT NW T03780039 10400 20339 56017,M
WMC,2022-07-17 23:56,-117.8072,40.9019,1315.00,102.00,35.00,9.93,260.00,16.00,0.00,29.89,1005.40,10.00,26.00,FEW,M,M,M,11000.00,M,M,M,M,M,M,M,26.00,270.00,2022-07-17 23:54,96.04,KWMC 172356Z AUTO 26016G26KT 10SM FEW110 39/02 A2989 RMK AO2 PK WND 27026/2354 SLP054 T03890017 10394 20333 58018 TSNO,M
INS,2022-07-17 23:58,-115.6733,36.5872,955.00,102.00,39.70,11.90,330.00,3.00,0.00,29.87,1005.70,10.00,M,CLR,M,M,M,M,M,M,M,M,M,M,M,M,M,M,96.92,KINS 172358Z AUTO 33003KT 10SM CLR 39/04 A2987 RMK AO2 SLP057 T03890043 10392 20336 57027 $,M
LSV,2022-07-17 23:58,-115.0343,36.2362,570.00,109.80,49.80,13.89,0.00,0.00,0.00,29.74,1003.80,10.00,M,CLR,M,M,M,M,M,M,M,M,M,M,M,M,M,M,106.90,KLSV 172358Z AUTO 00000KT 10SM CLR 43/10 A2974 RMK AO2 SLP038 T04320099 10456 20375 57028 $,M
