station,valid,lon,lat,elevation,tmpf,dwpf,relh,drct,sknt,p01i,alti,mslp,vsby,gust,skyc1,skyc2,skyc3,skyc4,skyl1,skyl2,skyl3,skyl4,wxcodes,ice_accretion_1hr,ice_accretion_3hr,ice_accretion_6hr,peak_wind_gust,peak_wind_drct,peak_wind_time,feel,metar,snowdepth
RTS,2023-08-10 00:04,-119.8764,39.6682,1539.00,82.40,28.40,13.96,230.00,12.00,0.00,30.04,M,10.00,17.00,CLR,M,M,M,M,M,M,M,M,M,M,M,M,M,M,79.94,KRTS 100004Z AUTO 23012G17KT 10SM CLR 28/M02 A3004 RMK AO2,M
05U,2023-08-10 00:10,-116.0051,39.6042,1811.23,87.80,26.60,10.91,M,M,0.00,30.03,M,10.00,M,M,M,M,M,M,M,M,M,M,M,M,M,M,M,M,83.69,K05U 100010Z AUTO 10SM 31/M03 A3003 RMK A01,M
BVU,2023-08-10 00:15,-114.8611,35.9475,671.00,100.40,39.20,12.25,240.00,15.00,0.00,29.80,M,10.00,M,CLR,M,M,M,M,M,M,M,M,M,M,M,M,M,M,95.43,KBVU 100015Z AUTO 24015KT 10SM CLR 38/04 A2980 RMK AO2,M
CXP,2023-08-10 00:15,-119.7326,39.1923,1431.00,84.20,37.40,18.91,270.00,10.00,0.00,30.01,M,10.00,20.00,CLR,M,M,M,M,M,M,M,M,M,M,M,M,M,M,81.38,KCXP 100015Z AUTO 27010G20KT 10SM CLR 29/03 A3001 RMK AO2,M
MEV,2023-08-10 00:15,-119.7500,38.9963,1441.42,84.20,37.40,18.91,270.00,16.00,0.00,30.00,M,10.00,24.00,CLR,M,M,M,M,M,M,M,M,M,M,M,M,M,M,81.38,KMEV 100015Z AUTO 27016G24KT 10SM CLR 29/03 A3000 RMK AO2,M
HTH,2023-08-10 00:15,-118.6315,38.5448,1282.89,91.40,28.40,10.48,330.00,13.00,0.00,29.89,M,10.00,M,CLR,M,M,M,M,M,M,M,M,M,M,M,M,M,M,86.53,KHTH 100015Z AUTO 33013KT 10SM CLR 33/M02 A2989 RMK A01,M
10U,2023-08-10 00:15,-116.1876,41.9532,1637.00,87.80,24.80,10.12,260.00,11.00,0.00,30.00,M,10.00,22.00,CLR,M,M,M,M,M,M,M,M,M,M,M,M,M,M,83.56,K10U 100015Z AUTO 26011G22KT 10SM CLR 31/M04 A3000 RMK AO2,M
BAM,2023-08-10 00:15,-116.8743,40.5990,1382.36,89.60,33.80,13.80,350.00,8.00,0.00,29.94,M,10.00,M,CLR,M,M,M,M,M,M,M,M,M,M,M,M,M,M,85.59,KBAM 100015Z AUTO 35008KT 10SM CLR 32/01 A2994 RMK AO1,M
TMT,2023-08-10 00:15,-117.1971,39.4643,1749.34,88.50,30.00,12.26,250.00,11.00,0.00,30.02,M,M,M,CLR,M,M,M,M,M,M,M,M,M,M,M,M,M,M,84.50,KTMT 100015Z AUTO 25011KT CLR 31/M01 A3002 RMK AO2 T03141012 PWINO,M
RTS,2023-08-10 00:24,-119.8764,39.6682,1539.00,82.40,24.80,12.03,240.00,14.00,0.00,30.04,M,10.00,20.00,CLR,M,M,M,M,M,M,M,M,M,M,M,M,M,M,79.79,KRTS 100024Z AUTO 24014G20KT 10SM CLR 28/M04 A3004 RMK AO2,M
BVU,2023-08-10 00:35,-114.8611,35.9475,671.00,100.40,39.20,12.25,240.00,11.00,0.00,29.79,M,10.00,M,CLR,M,M,M,M,M,M,M,M,M,M,M,M,M,M,95.43,KBVU 100035Z AUTO 24011KT 10SM CLR 38/04 A2979 RMK AO2,M
CXP,2023-08-10 00:35,-119.7326,39.1923,1431.00,84.20,37.40,18.91,260.00,14.00,0.00,30.01,M,10.00,M,CLR,M,M,M,M,M,M,M,M,M,M,M,M,M,M,81.38,KCXP 100035Z AUTO 26014KT 10SM CLR 29/03 A3001 RMK AO2,M
05U,2023-08-10 00:35,-116.0051,39.6042,1811.23,86.00,24.80,10.72,M,M,0.00,30.02,M,10.00,M,M,M,M,M,M,M,M,M,M,M,M,M,M,M,M,82.26,K05U 100035Z AUTO 10SM 30/M04 A3002 RMK A01,M
MEV,2023-08-10 00:35,-119.7500,38.9963,1441.42,84.20,37.40,18.91,260.00,14.00,0.00,30.00,M,10.00,22.00,CLR,M,M,M,M,M,M,M,M,M,M,M,M,M,M,81.38,KMEV 100035Z AUTO 26014G22KT 10SM CLR 29/03 A3000 RMK AO2,M
HTH,2023-08-10 00:35,-118.6315,38.5448,1282.89,91.40,28.40,10.48,320.00,14.00,0.00,29.89,M,10.00,M,CLR,M,M,M,M,M,M,M,M,M,M,M,M,M,M,86.53,KHTH 100035Z AUTO 32014KT 10SM CLR 33/M02 A2989 RMK A01,M
10U,2023-08-10 00:35,-116.1876,41.9532,1637.00,86.00,24.80,10.72,M,M,0.00,29.99,M,10.00,M,CLR,M,M,M,M,M,M,M,M,M,M,M,M,M,M,82.26,K10U 100035Z AUTO 15/37500015G21KT 10SM CLR 30/M04 A2999 RMK AO2,M
BAM,2023-08-10 00:35,-116.8743,40.5990,1382.36,87.80,33.80,14.61,20.00,8.00,0.00,29.93,M,10.00,M,CLR,M,M,M,M,M,M,M,M,M,M,M,M,M,M,84.10,KBAM 100035Z AUTO 02008KT 10SM CLR 31/01 A2993 RMK AO1,M
TMT,2023-08-10 00:35,-117.1971,39.4643,1749.34,86.70,33.40,14.89,310.00,11.00,0.00,30.02,M,M,14.00,CLR,M,M,M,M,M,M,M,M,M,M,M,M,M,M,83.21,KTMT 100035Z AUTO 31011G14KT CLR 30/01 A3002 RMK AO2 T03040008 PWINO,M
RTS,2023-08-10 00:44,-119.8764,39.6682,1539.00,82.40,24.80,12.03,240.00,16.00,0.00,30.04,M,10.00,M,CLR,M,M,M,M,M,M,M,M,M,M,M,M,M,M,79.79,KRTS 100044Z AUTO 24016KT 10SM CLR 28/M04 A3004 RMK AO2,M
05U,2023-08-10 00:50,-116.0051,39.6042,1811.23,86.00,24.80,10.72,M,M,0.00,30.02,M,10.00,M,M,M,M,M,M,M,M,M,M,M,M,M,M,M,M,82.26,K05U 100050Z AUTO 10SM 30/M04 A3002 RMK A01,M
P68,2023-08-10 00:53,-116.0056,39.6014,1993.00,85.00,24.00,10.70,300.00,13.00,0.00,29.99,1007.40,M,22.00,M,M,M,M,M,M,M,M,M,M,M,M,35.00,230.00,2023-08-10 00:20,81.50,KP68 100053Z AUTO 30013G22KT 29/M04 A2999 RMK AO1 PK WND 23035/0020 SLP074 T02941044,M
DRA,2023-08-10 00:53,-116.0278,36.6206,1009.00,95.00,42.00,16.10,210.00,14.00,0.00,29.89,1007.00,10.00,20.00,CLR,M,M,M,M,M,M,M,M,M,M,M,M,M,M,90.79,KDRA 100053Z AUTO 21014G20KT 10SM CLR 35/06 A2989 RMK AO2 SLP070 T03500056,M
ELY,2023-08-10 00:53,-114.8453,39.2950,1909.00,83.00,28.00,13.47,180.00,10.00,0.00,30.05,1008.50,10.00,M,CLR,M,M,M,M,M,M,M,M,M,M,M,M,M,M,80.37,KELY 100053Z AUTO 18010KT 10SM CLR 28/M02 A3005 RMK AO2 SLP085 T02831022,M
VGT,2023-08-10 00:53,-115.1933,36.2111,667.00,100.00,44.00,14.92,230.00,10.00,0.00,29.79,1007.10,10.00,M,CLR,M,M,M,M,M,M,M,M,M,M,M,M,M,M,95.83,KVGT 100053Z 23010KT 10SM CLR 38/07 A2979 RMK AO2 SLP071 T03780067,M
LOL,2023-08-10 00:53,-118.5701,40.0684,1192.43,91.00,26.00,9.62,310.00,7.00,0.00,29.89,1008.50,10.00,16.00,CLR,M,M,M,M,M,M,M,M,M,M,M,M,M,M,86.01,KLOL 100053Z AUTO 31007G16KT 10SM CLR 33/M03 A2989 RMK AO2 SLP085 T03281033,M
BVU,2023-08-10 00:55,-114.8611,35.9475,671.00,98.60,41.00,13.87,230.00,9.00,0.00,29.79,M,10.00,15.00,FEW,M,M,M,9500.00,M,M,M,M,M,M,M,M,M,M,94.09,KBVU 100055Z AUTO 23009G15KT 10SM FEW095 37/05 A2979 RMK AO2,M
CXP,2023-08-10 00:55,-119.7326,39.1923,1431.00,82.40,37.40,20.04,280.00,14.00,0.00,30.01,M,10.00,23.00,CLR,M,M,M,M,M,M,M,M,M,M,M,M,M,M,80.14,KCXP 100055Z AUTO 28014G23KT 10SM CLR 28/03 A3001 RMK AO2,M
RNO,2023-08-10 00:55,-119.7711,39.4839,1341.00,86.00,33.00,14.99,280.00,18.00,0.00,29.97,1009.30,10.00,25.00,FEW,M,M,M,25000.00,M,M,M,M,M,M,M,27.00,290.00,2023-08-10 00:01,82.65,KRNO 100055Z 28018G25KT 10SM FEW250 30/01 A2997 RMK AO2 PK WND 29027/0001 SLP093 T03000006,M
MEV,2023-08-10 00:55,-119.7500,38.9963,1441.42,82.40,35.60,18.67,260.00,16.00,0.00,30.00,M,10.00,22.00,CLR,M,M,M,M,M,M,M,M,M,M,M,M,M,M,80.08,KMEV 100055Z AUTO 26016G22KT 10SM CLR 28/02 A3000 RMK AO2,M
HTH,2023-08-10 00:55,-118.6315,38.5448,1282.89,93.20,32.00,11.48,330.00,15.00,0.00,29.88,M,10.00,M,CLR,M,M,M,M,M,M,M,M,M,M,M,M,M,M,88.31,KHTH 100055Z AUTO 33015KT 10SM CLR 34/M00 A2988 RMK A01,M
BAM,2023-08-10 00:55,-116.8743,40.5990,1382.36,89.60,28.40,11.09,280.00,12.00,0.00,29.93,M,10.00,M,CLR,M,M,M,M,M,M,M,M,M,M,M,M,M,M,85.17,KBAM 100055Z AUTO 28012KT 10SM CLR 32/M02 A2993 RMK AO1,M
TMT,2023-08-10 00:55,-117.1971,39.4643,1749.34,85.00,34.70,16.56,330.00,17.00,0.00,30.02,M,M,22.00,CLR,M,M,M,M,M,M,M,M,M,M,M,M,M,M,81.91,KTMT 100055Z AUTO 33017G22KT CLR 30/02 A3002 RMK AO2 T02950015 PWINO,M
10U,2023-08-10 00:55,-116.1876,41.9532,1637.00,86.00,24.80,10.72,260.00,8.00,0.00,29.99,M,10.00,19.00,CLR,M,M,M,M,M,M,M,M,M,M,M,M,M,M,82.26,K10U 100055Z AUTO 26008G19KT 10SM CLR 30/M04 A2999 RMK AO2,M
INS,2023-08-10 00:55,-115.6733,36.5872,955.00,93.40,33.00,11.87,270.00,12.00,0.00,29.86,1006.50,10.00,M,FEW,M,M,M,11000.00,M,M,M,M,M,M,M,M,M,M,88.59,KINS 100055Z AUTO 27012KT 10SM FEW110 34/01 A2986 RMK AO2 SLP065 T03410006 $,M
LSV,2023-08-10 00:55,-115.0343,36.2362,570.00,100.40,42.40,13.87,200.00,10.00,0.00,29.73,1003.90,10.00,M,SCT,M,M,M,13000.00,M,M,M,M,M,M,M,M,M,M,95.98,KLSV 100055Z AUTO 20010KT 10SM SCT130 38/06 A2973 RMK AO2 SLP039 T03800058 $,M
EKO,2023-08-10 00:56,-115.7860,40.8242,1367.00,87.00,34.00,15.11,300.00,13.00,0.00,29.96,1008.70,10.00,M,CLR,M,M,M,M,M,M,M,M,M,M,M,M,M,M,83.45,KEKO 100056Z AUTO 30013KT 10SM CLR 31/01 A2996 RMK AO2 SLP087 T03060011,M
WMC,2023-08-10 00:56,-117.8072,40.9019,1315.00,91.00,25.00,9.23,250.00,8.00,0.00,29.93,1008.70,10.00,M,CLR,M,M,M,M,M,M,M,M,M,M,M,M,M,M,85.93,KWMC 100056Z AUTO 25008KT 10SM CLR 33/M04 A2993 RMK AO2 SLP087 T03281039,M
NFL,2023-08-10 00:56,-118.7010,39.4166,1199.00,93.00,23.00,7.97,320.00,7.00,0.00,29.89,1009.60,10.00,M,FEW,SCT,SCT,M,8000.00,15000.00,25000.00,M,M,M,M,M,M,M,M,87.27,KNFL 100056Z 32007KT 10SM FEW080 SCT150 SCT250 34/M05 A2989 RMK AO2 SLP096 T03391050,M
HND,2023-08-10 00:56,-115.1344,35.9729,742.79,97.00,49.00,19.74,210.00,18.00,0.00,29.84,1008.80,10.00,23.00,CLR,M,M,M,M,M,M,M,M,M,M,M,M,M,M,93.71,KHND 100056Z 21018G23KT 10SM CLR 36/09 A2984 RMK AO2 SLP088 T03610094,M
TPH,2023-08-10 00:56,-117.0904,38.0505,1654.00,88.00,46.00,23.34,170.00,10.00,0.00,30.00,1007.90,10.00,19.00,CLR,M,M,M,M,M,M,M,M,M,M,M,M,M,M,84.81,KTPH 100056Z AUTO 17010G19KT 10SM CLR 31/08 A3000 RMK AO2 SLP079 T03110078,M
LAS,2023-08-10 00:56,-115.1634,36.0719,663.00,99.00,46.00,16.60,190.00,12.00,0.00,29.79,1005.70,10.00,21.00,FEW,SCT,BKN,M,11000.00,15000.00,20000.00,M,M,M,M,M,M,M,M,95.17,KLAS 100056Z 19012G21KT 10SM FEW110 SCT150 BKN200 37/08 A2979 RMK AO2 SLP057 CB DSNT E-S-SW T03720078,M
RTS,2023-08-10 01:04,-119.8764,39.6682,1539.00,80.60,23.00,11.83,270.00,15.00,0.00,30.05,M,10.00,M,CLR,M,M,M,M,M,M,M,M,M,M,M,M,M,M,78.80,KRTS 100104Z AUTO 27015KT 10SM CLR 27/M05 A3005 RMK AO2,M
BVU,2023-08-10 01:15,-114.8611,35.9475,671.00,98.60,41.00,13.87,250.00,12.00,0.00,29.80,M,10.00,M,CLR,M,M,M,M,M,M,M,M,M,M,M,M,M,M,94.09,KBVU 100115Z AUTO 25012KT 10SM CLR 37/05 A2980 RMK AO2,M
CXP,2023-08-10 01:15,-119.7326,39.1923,1431.00,82.40,35.60,18.67,280.00,12.00,0.00,30.01,M,10.00,20.00,CLR,M,M,M,M,M,M,M,M,M,M,M,M,M,M,80.08,KCXP 100115Z AUTO 28012G20KT 10SM CLR 28/02 A3001 RMK AO2,M
05U,2023-08-10 01:15,-116.0051,39.6042,1811.23,84.20,26.60,12.23,M,M,0.00,30.02,M,10.00,M,M,M,M,M,M,M,M,M,M,M,M,M,M,M,M,81.13,K05U 100115Z AUTO 10SM 29/M03 A3002 RMK A01,M
MEV,2023-08-10 01:15,-119.7500,38.9963,1441.42,82.40,35.60,18.67,270.00,10.00,0.00,30.00,M,10.00,19.00,CLR,M,M,M,M,M,M,M,M,M,M,M,M,M,M,80.08,KMEV 100115Z AUTO 27010G19KT 10SM CLR 28/02 A3000 RMK AO2,M
HTH,2023-08-10 01:15,-118.6315,38.5448,1282.89,91.40,32.00,12.14,330.00,16.00,0.00,29.88,M,10.00,21.00,CLR,M,M,M,M,M,M,M,M,M,M,M,M,M,M,86.91,KHTH 100115Z AUTO 33016G21KT 10SM CLR 33/M00 A2988 RMK A01,M
10U,2023-08-10 01:15,-116.1876,41.9532,1637.00,82.40,21.20,10.34,260.00,11.00,0.00,29.99,M,10.00,17.00,CLR,M,M,M,M,M,M,M,M,M,M,M,M,M,M,79.55,K10U 100115Z AUTO 26011G17KT 10SM CLR 28/M06 A2999 RMK AO2,M
BAM,2023-08-10 01:15,-116.8743,40.5990,1382.36,87.80,26.60,10.91,340.00,7.00,0.00,29.93,M,10.00,M,CLR,M,M,M,M,M,M,M,M,M,M,M,M,M,M,83.69,KBAM 100115Z AUTO 34007KT 10SM CLR 31/M03 A2993 RMK AO1,M
TMT,2023-08-10 01:15,-117.1971,39.4643,1749.34,84.00,32.50,15.66,350.00,16.00,0.00,30.02,M,M,22.00,CLR,M,M,M,M,M,M,M,M,M,M,M,M,M,M,81.14,KTMT 100115Z AUTO 35016G22KT CLR 29/00 A3002 RMK AO2 T02890003 PWINO,M
RTS,2023-08-10 01:24,-119.8764,39.6682,1539.00,78.80,23.00,12.55,270.00,15.00,0.00,30.05,M,10.00,M,CLR,M,M,M,M,M,M,M,M,M,M,M,M,M,M,78.80,KRTS 100124Z AUTO 27015KT 10SM CLR 26/M05 A3005 RMK AO2,M
BVU,2023-08-10 01:35,-114.8611,35.9475,671.00,96.80,42.80,15.71,250.00,16.00,0.00,29.80,M,10.00,M,CLR,M,M,M,M,M,M,M,M,M,M,M,M,M,M,92.57,KBVU 100135Z AUTO 25016KT 10SM CLR 36/06 A2980 RMK AO2,M
CXP,2023-08-10 01:35,-119.7326,39.1923,1431.00,80.60,35.60,19.79,270.00,7.00,0.00,30.02,M,10.00,14.00,CLR,M,M,M,M,M,M,M,M,M,M,M,M,M,M,78.94,KCXP 100135Z AUTO 27007G14KT 240V310 10SM CLR 27/02 A3002 RMK AO2,M
05U,2023-08-10 01:35,-116.0051,39.6042,1811.23,84.20,28.40,13.18,M,M,0.00,30.02,M,10.00,M,M,M,M,M,M,M,M,M,M,M,M,M,M,M,M,81.25,K05U 100135Z AUTO 10SM 29/M02 A3002 RMK A01,M
MEV,2023-08-10 01:35,-119.7500,38.9963,1441.42,80.60,33.80,18.42,280.00,10.00,0.00,30.00,M,10.00,17.00,CLR,M,M,M,M,M,M,M,M,M,M,M,M,M,M,78.88,KMEV 100135Z AUTO 28010G17KT 10SM CLR 27/01 A3000 RMK AO2,M
HTH,2023-08-10 01:35,-118.6315,38.5448,1282.89,91.40,28.40,10.48,340.00,14.00,0.00,29.89,M,10.00,M,CLR,M,M,M,M,M,M,M,M,M,M,M,M,M,M,86.53,KHTH 100135Z AUTO 34014KT 10SM CLR 33/M02 A2989 RMK A01,M
10U,2023-08-10 01:35,-116.1876,41.9532,1637.00,82.40,23.00,11.16,270.00,10.00,0.00,29.99,M,10.00,18.00,CLR,M,M,M,M,M,M,M,M,M,M,M,M,M,M,79.67,K10U 100135Z AUTO 27010G18KT 10SM CLR 28/M05 A2999 RMK AO2,M
BAM,2023-08-10 01:35,-116.8743,40.5990,1382.36,86.00,35.60,16.63,340.00,5.00,0.00,29.94,M,10.00,M,CLR,M,M,M,M,M,M,M,M,M,M,M,M,M,M,82.69,KBAM 100135Z AUTO 34005KT 10SM CLR 30/02 A2994 RMK AO1,M
TMT,2023-08-10 01:35,-117.1971,39.4643,1749.34,83.30,30.60,14.84,350.00,10.00,0.00,30.03,M,M,M,CLR,M,M,M,M,M,M,M,M,M,M,M,M,M,M,80.61,KTMT 100135Z AUTO 35010KT CLR 29/M01 A3003 RMK AO2 T02851008 PWINO,M
RTS,2023-08-10 01:44,-119.8764,39.6682,1539.00,78.80,23.00,12.55,260.00,14.00,0.00,30.05,M,10.00,19.00,CLR,M,M,M,M,M,M,M,M,M,M,M,M,M,M,78.80,KRTS 100144Z AUTO 26014G19KT 10SM CLR 26/M05 A3005 RMK AO2,M
DRA,2023-08-10 01:53,-116.0278,36.6206,1009.00,93.00,41.00,16.48,190.00,15.00,0.00,29.89,1006.80,10.00,22.00,CLR,M,M,M,M,M,M,M,M,M,M,M,M,M,M,88.85,KDRA 100153Z AUTO 19015G22KT 10SM CLR 34/05 A2989 RMK AO2 SLP068 T03390050,M
ELY,2023-08-10 01:53,-114.8453,39.2950,1909.00,80.00,30.00,16.12,190.00,10.00,0.00,30.05,1008.20,10.00,M,CLR,M,M,M,M,M,M,M,M,M,M,M,M,M,M,78.46,KELY 100153Z AUTO 19010KT 10SM CLR 27/M01 A3005 RMK AO2 SLP082 T02671011,M
VGT,2023-08-10 01:53,-115.1933,36.2111,667.00,100.00,40.00,12.79,210.00,10.00,0.00,29.78,1006.80,10.00,M,CLR,M,M,M,M,M,M,M,M,M,M,M,M,M,M,95.26,KVGT 100153Z 21010KT 10SM CLR 38/04 A2978 RMK AO2 SLP068 T03780044,M
LOL,2023-08-10 01:53,-118.5701,40.0684,1192.43,88.00,29.00,11.96,300.00,13.00,0.00,29.90,1008.40,10.00,M,CLR,M,M,M,M,M,M,M,M,M,M,M,M,M,M,84.04,KLOL 100153Z AUTO 30013KT 10SM CLR 31/M02 A2990 RMK AO2 SLP084 T03111017,M
BVU,2023-08-10 01:55,-114.8611,35.9475,671.00,96.80,44.60,16.83,250.00,16.00,0.00,29.80,M,10.00,M,CLR,M,M,M,M,M,M,M,M,M,M,M,M,M,M,92.79,KBVU 100155Z AUTO 25016KT 10SM CLR 36/07 A2980 RMK AO2,M
CXP,2023-08-10 01:55,-119.7326,39.1923,1431.00,80.60,35.60,19.79,290.00,8.00,0.00,30.02,M,10.00,M,FEW,M,M,M,1300.00,M,M,M,M,M,M,M,M,M,M,78.94,KCXP 100155Z AUTO 29008KT 10SM FEW013 27/02 A3002 RMK AO2,M
RNO,2023-08-10 01:55,-119.7711,39.4839,1341.00,84.00,31.00,14.74,270.00,15.00,0.00,29.97,1009.40,10.00,23.00,FEW,M,M,M,25000.00,M,M,M,M,M,M,M,28.00,290.00,2023-08-10 01:03,81.12,KRNO 100155Z 27015G23KT 10SM FEW250 29/M01 A2997 RMK AO2 PK WND 29028/0103 SLP094 T02891006,M
05U,2023-08-10 01:55,-116.0051,39.6042,1811.23,84.20,26.60,12.23,M,M,0.00,30.03,M,9.00,M,M,M,M,M,M,M,M,M,M,M,M,M,M,M,M,81.13,K05U 100155Z AUTO 9SM 29/M03 A3003 RMK A01,M
MEV,2023-08-10 01:55,-119.7500,38.9963,1441.42,80.60,33.80,18.42,260.00,9.00,0.00,30.01,M,10.00,15.00,CLR,M,M,M,M,M,M,M,M,M,M,M,M,M,M,78.88,KMEV 100155Z AUTO 26009G15KT 10SM CLR 27/01 A3001 RMK AO2,M
HTH,2023-08-10 01:55,-118.6315,38.5448,1282.89,91.40,28.40,10.48,350.00,12.00,0.00,29.89,M,10.00,18.00,CLR,M,M,M,M,M,M,M,M,M,M,M,M,M,M,86.53,KHTH 100155Z AUTO 35012G18KT 10SM CLR 33/M02 A2989 RMK A01,M
BAM,2023-08-10 01:55,-116.8743,40.5990,1382.36,84.20,35.60,17.61,350.00,3.00,0.00,29.94,M,10.00,M,CLR,M,M,M,M,M,M,M,M,M,M,M,M,M,M,81.34,KBAM 100155Z AUTO 35003KT 10SM CLR 29/02 A2994 RMK AO1,M
TMT,2023-08-10 01:55,-117.1971,39.4643,1749.34,81.00,28.20,14.50,330.00,12.00,0.00,30.03,M,M,M,CLR,M,M,M,M,M,M,M,M,M,M,M,M,M,M,78.98,KTMT 100155Z AUTO 33012KT CLR 27/M02 A3003 RMK AO2 T02731021 PWINO,M
10U,2023-08-10 01:55,-116.1876,41.9532,1637.00,80.60,24.80,12.76,280.00,10.00,0.00,29.99,M,10.00,17.00,CLR,M,M,M,M,M,M,M,M,M,M,M,M,M,M,78.94,K10U 100155Z AUTO 28010G17KT 10SM CLR 27/M04 A2999 RMK AO2,M
INS,2023-08-10 01:55,-115.6733,36.5872,955.00,92.70,32.50,11.89,0.00,0.00,0.00,29.86,1006.30,10.00,M,CLR,M,M,M,M,M,M,M,M,M,M,M,M,M,M,87.98,KINS 100155Z AUTO 00000KT 10SM CLR 34/00 A2986 RMK AO2 SLP063 T03370003 $,M
LSV,2023-08-10 01:55,-115.0343,36.2362,570.00,98.60,46.20,16.93,160.00,16.00,0.00,29.73,1003.90,10.00,M,FEW,FEW,M,M,13000.00,23000.00,M,M,M,M,M,M,M,M,M,94.80,KLSV 100155Z AUTO 16016KT 10SM FEW130 FEW230 37/08 A2973 RMK AO2 SLP039 T03700079 $,M
EKO,2023-08-10 01:56,-115.7860,40.8242,1367.00,84.00,33.00,15.98,300.00,9.00,0.00,29.95,1008.70,10.00,16.00,CLR,M,M,M,M,M,M,M,M,M,M,M,M,M,M,81.14,KEKO 100156Z AUTO 30009G16KT 10SM CLR 29/01 A2995 RMK AO2 SLP087 T02890006,M
WMC,2023-08-10 01:56,-117.8072,40.9019,1315.00,87.00,25.00,10.47,280.00,12.00,0.00,29.93,1008.60,10.00,19.00,CLR,M,M,M,M,M,M,M,M,M,M,M,M,M,M,82.99,KWMC 100156Z AUTO 28012G19KT 10SM CLR 31/M04 A2993 RMK AO2 SLP086 T03061039,M
NFL,2023-08-10 01:56,-118.7010,39.4166,1199.00,92.00,26.00,9.32,320.00,15.00,0.00,29.89,1009.60,10.00,20.00,FEW,SCT,SCT,M,8000.00,15000.00,25000.00,M,M,M,M,M,M,M,M,86.76,KNFL 100156Z 32015G20KT 10SM FEW080 SCT150 SCT250 33/M03 A2989 RMK AO2 SLP096 T03331033,M
HND,2023-08-10 01:56,-115.1344,35.9729,742.79,94.00,48.00,20.86,210.00,18.00,0.00,29.84,1008.80,10.00,23.00,CLR,M,M,M,M,M,M,M,M,M,M,M,26.00,220.00,2023-08-10 01:10,90.55,KHND 100156Z 21018G23KT 10SM CLR 34/09 A2984 RMK AO2 PK WND 22026/0110 SLP088 T03440089,M
TPH,2023-08-10 01:56,-117.0904,38.0505,1654.00,85.00,43.00,22.91,180.00,18.00,0.00,30.00,1008.10,10.00,25.00,CLR,M,M,M,M,M,M,M,M,M,M,M,26.00,200.00,2023-08-10 01:18,82.21,KTPH 100156Z AUTO 18018G25KT 10SM CLR 29/06 A3000 RMK AO2 PK WND 20026/0118 SLP081 T02940061,M
LAS,2023-08-10 01:56,-115.1634,36.0719,663.00,96.00,45.00,17.51,210.00,11.00,0.00,29.80,1005.90,10.00,23.00,FEW,SCT,BKN,M,11000.00,15000.00,20000.00,M,M,M,M,M,26.00,190.00,2023-08-10 01:40,92.07,KLAS 100156Z 21011G23KT 10SM FEW110 SCT150 BKN200 36/07 A2980 RMK AO2 PK WND 19026/0140 SLP059 CB DSNT E-S-SW T03560072,M
RTS,2023-08-10 02:04,-119.8764,39.6682,1539.00,77.00,28.40,16.67,280.00,11.00,0.00,30.06,M,10.00,17.00,CLR,M,M,M,M,M,M,M,M,M,M,M,M,M,M,77.00,KRTS 100204Z AUTO 28011G17KT 10SM CLR 25/M02 A3006 RMK AO2,M
CXP,2023-08-10 02:10,-119.7326,39.1923,1431.00,78.80,37.40,22.54,290.00,6.00,0.00,30.02,M,10.00,M,CLR,M,M,M,M,M,M,M,M,M,M,M,M,M,M,78.80,KCXP 100210Z AUTO 29006KT 10SM CLR 26/03 A3002 RMK AO2,M
BVU,2023-08-10 02:15,-114.8611,35.9475,671.00,95.00,44.60,17.78,240.00,11.00,0.00,29.80,M,10.00,M,CLR,M,M,M,M,M,M,M,M,M,M,M,M,M,M,91.06,KBVU 100215Z AUTO 24011KT 10SM CLR 35/07 A2980 RMK AO2,M
05U,2023-08-10 02:15,-116.0051,39.6042,1811.23,84.20,28.40,13.18,M,M,0.00,30.04,M,10.00,M,M,M,M,M,M,M,M,M,M,M,M,M,M,M,M,81.25,K05U 100215Z AUTO 10SM 29/M02 A3004 RMK A01,M
MEV,2023-08-10 02:15,-119.7500,38.9963,1441.42,78.80,33.80,19.55,290.00,6.00,0.00,30.01,M,10.00,M,CLR,M,M,M,M,M,M,M,M,M,M,M,M,M,M,78.80,KMEV 100215Z AUTO 29006KT 10SM CLR 26/01 A3001 RMK AO2,M
BAM,2023-08-10 02:15,-116.8743,40.5990,1382.36,80.60,35.60,19.79,340.00,4.00,0.00,29.95,M,10.00,M,CLR,M,M,M,M,M,M,M,M,M,M,M,M,M,M,78.94,KBAM 100215Z AUTO 34004KT 10SM CLR 27/02 A2995 RMK AO1,M
HTH,2023-08-10 02:15,-118.6315,38.5448,1282.89,89.60,24.80,9.56,350.00,16.00,0.00,29.90,M,10.00,M,CLR,M,M,M,M,M,M,M,M,M,M,M,M,M,M,84.88,KHTH 100215Z AUTO 35016KT 10SM CLR 32/M04 A2990 RMK A01,M
TMT,2023-08-10 02:15,-117.1971,39.4643,1749.34,79.70,29.00,15.63,360.00,5.00,0.00,30.03,M,M,M,CLR,M,M,M,M,M,M,M,M,M,M,M,M,M,M,79.70,KTMT 100215Z AUTO 36005KT CLR 27/M02 A3003 RMK AO2 T02651016 PWINO,M
10U,2023-08-10 02:15,-116.1876,41.9532,1637.00,80.60,23.00,11.83,290.00,10.00,0.00,29.99,M,10.00,15.00,CLR,M,M,M,M,M,M,M,M,M,M,M,M,M,M,78.80,K10U 100215Z AUTO 29010G15KT 10SM CLR 27/M05 A2999 RMK AO2,M
RTS,2023-08-10 02:24,-119.8764,39.6682,1539.00,73.40,30.20,20.23,290.00,11.00,0.00,30.06,M,10.00,17.00,CLR,M,M,M,M,M,M,M,M,M,M,M,M,M,M,73.40,KRTS 100224Z AUTO 29011G17KT 10SM CLR 23/M01 A3006 RMK AO2,M
BVU,2023-08-10 02:35,-114.8611,35.9475,671.00,95.00,44.60,17.78,250.00,11.00,0.00,29.80,M,10.00,M,CLR,M,M,M,M,M,M,M,M,M,M,M,M,M,M,91.06,KBVU 100235Z AUTO 25011KT 10SM CLR 35/07 A2980 RMK AO2,M
CXP,2023-08-10 02:35,-119.7326,39.1923,1431.00,78.80,35.60,21.00,290.00,8.00,0.00,30.02,M,10.00,M,FEW,M,M,M,1300.00,M,M,M,M,M,M,M,M,M,M,78.80,KCXP 100235Z AUTO 29008KT 10SM FEW013 26/02 A3002 RMK AO2,M
05U,2023-08-10 02:35,-116.0051,39.6042,1811.23,82.40,26.60,12.97,M,M,0.00,30.03,M,10.00,M,M,M,M,M,M,M,M,M,M,M,M,M,M,M,M,79.92,K05U 100235Z AUTO 10SM 28/M03 A3003 RMK A01,M
MEV,2023-08-10 02:35,-119.7500,38.9963,1441.42,75.20,33.80,22.02,280.00,5.00,0.00,30.01,M,10.00,15.00,CLR,M,M,M,M,M,M,M,M,M,M,M,M,M,M,75.20,KMEV 100235Z AUTO 28005G15KT 10SM CLR 24/01 A3001 RMK AO2,M
HTH,2023-08-10 02:35,-118.6315,38.5448,1282.89,87.80,24.80,10.12,350.00,13.00,0.00,29.91,M,10.00,22.00,CLR,M,M,M,M,M,M,M,M,M,M,M,M,M,M,83.56,KHTH 100235Z AUTO 35013G22KT 10SM CLR 31/M04 A2991 RMK A01,M
BAM,2023-08-10 02:35,-116.8743,40.5990,1382.36,80.60,35.60,19.79,340.00,5.00,0.00,29.95,M,10.00,M,CLR,M,M,M,M,M,M,M,M,M,M,M,M,M,M,78.94,KBAM 100235Z AUTO 34005KT 10SM CLR 27/02 A2995 RMK AO1,M
TMT,2023-08-10 02:35,-117.1971,39.4643,1749.34,78.00,27.50,15.54,360.00,8.00,0.00,30.05,M,M,M,CLR,M,M,M,M,M,M,M,M,M,M,M,M,M,M,78.00,KTMT 100235Z AUTO 36008KT CLR 26/M02 A3005 RMK AO2 T02551025 PWINO,M
RTS,2023-08-10 02:44,-119.8764,39.6682,1539.00,71.60,28.40,19.98,300.00,10.00,0.00,30.07,M,10.00,M,CLR,M,M,M,M,M,M,M,M,M,M,M,M,M,M,71.60,KRTS 100244Z AUTO 30010KT 10SM CLR 22/M02 A3007 RMK AO2,M
P68,2023-08-10 02:53,-116.0056,39.6014,1993.00,79.00,33.00,18.80,350.00,17.00,0.00,30.02,1007.60,M,M,M,M,M,M,M,M,M,M,M,M,M,M,32.00,100.00,2023-08-10 01:54,79.00,KP68 100253Z AUTO 35017KT 26/01 A3002 RMK AO1 PK WND 10032/0154 SLP076 T02610006 53004,M
DRA,2023-08-10 02:53,-116.0278,36.6206,1009.00,90.00,41.00,18.10,200.00,11.00,0.00,29.89,1006.70,10.00,M,CLR,M,M,M,M,M,M,M,M,M,M,M,M,M,M,86.16,KDRA 100253Z AUTO 20011KT 10SM CLR 32/05 A2989 RMK AO2 SLP067 T03220050 56004,M
ELY,2023-08-10 02:53,-114.8453,39.2950,1909.00,70.00,31.00,23.45,170.00,9.00,0.00,30.06,1008.80,10.00,M,CLR,M,M,M,M,M,M,M,M,M,M,M,M,M,M,70.00,KELY 100253Z AUTO 17009KT 10SM CLR 21/M01 A3006 RMK AO2 SLP088 T02111006 53001,M
VGT,2023-08-10 02:53,-115.1933,36.2111,667.00,98.00,44.00,15.86,210.00,15.00,0.00,29.79,1007.10,10.00,20.00,CLR,M,M,M,M,M,M,M,M,M,M,M,M,M,M,93.88,KVGT 100253Z 21015G20KT 10SM CLR 37/07 A2979 RMK AO2 SLP071 T03670067 55003,M
LOL,2023-08-10 02:53,-118.5701,40.0684,1192.43,84.00,29.00,13.59,290.00,11.00,0.00,29.90,1008.50,10.00,M,CLR,M,M,M,M,M,M,M,M,M,M,M,M,M,M,81.10,KLOL 100253Z AUTO 29011KT 10SM CLR 29/M02 A2990 RMK AO2 SLP085 T02891017 53003,M
BVU,2023-08-10 02:55,-114.8611,35.9475,671.00,93.20,44.60,18.80,230.00,10.00,0.00,29.80,M,10.00,M,CLR,M,M,M,M,M,M,M,M,M,M,M,M,M,M,89.34,KBVU 100255Z AUTO 23010KT 10SM CLR 34/07 A2980 RMK AO2,M
CXP,2023-08-10 02:55,-119.7326,39.1923,1431.00,77.00,37.40,23.93,310.00,7.00,0.00,30.03,M,10.00,M,CLR,M,M,M,M,M,M,M,M,M,M,M,M,M,M,77.00,KCXP 100255Z AUTO 31007KT 10SM CLR 25/03 A3003 RMK AO2,M
RNO,2023-08-10 02:55,-119.7711,39.4839,1341.00,80.00,32.00,17.48,280.00,14.00,0.00,29.99,1010.20,10.00,M,FEW,M,M,M,25000.00,M,M,M,M,M,M,M,30.00,280.00,2023-08-10 02:06,78.52,KRNO 100255Z 28014KT 10SM FEW250 27/00 A2999 RMK AO2 PK WND 28030/0206 SLP102 T02670000 53009,M
05U,2023-08-10 02:55,-116.0051,39.6042,1811.23,78.80,32.00,18.18,M,M,0.00,30.05,M,10.00,M,M,M,M,M,M,M,M,M,M,M,M,M,M,M,M,78.80,K05U 100255Z AUTO 10SM 26/00 A3005 RMK A01,M
MEV,2023-08-10 02:55,-119.7500,38.9963,1441.42,75.20,35.60,23.66,290.00,7.00,0.00,30.02,M,10.00,13.00,CLR,M,M,M,M,M,M,M,M,M,M,M,M,M,M,75.20,KMEV 100255Z AUTO 29007G13KT 10SM CLR 24/02 A3002 RMK AO2,M
HTH,2023-08-10 02:55,-118.6315,38.5448,1282.89,87.80,24.80,10.12,350.00,14.00,0.00,29.92,M,10.00,M,CLR,M,M,M,M,M,M,M,M,M,M,M,M,M,M,83.56,KHTH 100255Z AUTO 35014KT 10SM CLR 31/M04 A2992 RMK A01,M
BAM,2023-08-10 02:55,-116.8743,40.5990,1382.36,77.00,35.60,22.28,0.00,0.00,0.00,29.95,M,10.00,M,CLR,M,M,M,M,M,M,M,M,M,M,M,M,M,M,77.00,KBAM 100255Z AUTO 00000KT 10SM CLR 25/02 A2995 RMK AO1,M
TMT,2023-08-10 02:55,-117.1971,39.4643,1749.34,75.20,27.00,16.71,350.00,6.00,0.00,30.05,M,M,M,CLR,M,M,M,M,M,M,M,M,M,M,M,M,M,M,75.20,KTMT 100255Z AUTO 35006KT CLR 24/M03 A3005 RMK AO2 T02401027 PWINO,M
INS,2023-08-10 02:55,-115.6733,36.5872,955.00,90.70,35.00,13.99,210.00,15.00,0.00,29.86,1006.00,10.00,M,CLR,M,M,M,M,M,M,M,M,M,M,M,M,M,M,86.55,KINS 100255Z AUTO 21015KT 10SM CLR 33/02 A2986 RMK AO2 SLP060 T03260016 55005 $,M
LSV,2023-08-10 02:55,-115.0343,36.2362,570.00,96.00,44.00,16.86,160.00,15.00,0.00,29.74,1004.30,10.00,M,FEW,FEW,M,M,19000.00,22000.00,M,M,M,M,M,M,M,M,M,91.95,KLSV 100255Z AUTO 16015KT 10SM FEW190 FEW220 36/07 A2974 RMK AO2 SLP043 T03550067 55002 $,M
EKO,2023-08-10 02:56,-115.7860,40.8242,1367.00,77.00,34.00,20.91,190.00,4.00,0.00,29.97,1009.40,10.00,M,CLR,M,M,M,M,M,M,M,M,M,M,M,M,M,M,77.00,KEKO 100256Z AUTO 19004KT 10SM CLR 25/01 A2997 RMK AO2 SLP094 T02500011 53005,M
WMC,2023-08-10 02:56,-117.8072,40.9019,1315.00,81.00,29.00,14.98,290.00,7.00,0.00,29.93,1008.60,10.00,M,CLR,M,M,M,M,M,M,M,M,M,M,M,M,M,M,79.00,KWMC 100256Z AUTO 29007KT 10SM CLR 27/M02 A2993 RMK AO2 SLP086 T02721017 53001,M
NFL,2023-08-10 02:56,-118.7010,39.4166,1199.00,85.00,30.00,13.71,310.00,7.00,0.00,29.90,1010.10,10.00,M,FEW,SCT,M,M,15000.00,25000.00,M,M,M,M,M,M,M,M,M,81.86,KNFL 100256Z 31007KT 10SM FEW150 SCT250 29/M01 A2990 RMK AO2 SLP101 T02941011 53003,M
HND,2023-08-10 02:56,-115.1344,35.9729,742.79,92.00,47.00,21.38,220.00,16.00,0.00,29.86,1009.20,10.00,M,CLR,M,M,M,M,M,M,M,M,M,M,M,M,M,M,88.49,KHND 100256Z 22016KT 10SM CLR 33/08 A2986 RMK AO2 SLP092 T03330083 53000,M
TPH,2023-08-10 02:56,-117.0904,38.0505,1654.00,81.00,38.00,21.48,180.00,12.00,0.00,30.02,1008.20,10.00,21.00,CLR,M,M,M,M,M,M,M,M,M,M,M,M,M,M,79.28,KTPH 100256Z AUTO 18012G21KT 10SM CLR 27/03 A3002 RMK AO2 SLP082 T02720033 53004,M
LAS,2023-08-10 02:56,-115.1634,36.0719,663.00,95.00,44.00,17.38,200.00,7.00,0.00,29.80,1006.20,10.00,18.00,FEW,SCT,BKN,M,11000.00,15000.00,20000.00,M,M,M,M,M,M,M,M,90.99,KLAS 100256Z 20007G18KT 10SM FEW110 SCT150 BKN200 35/07 A2980 RMK AO2 SLP062 CB DSNT E-S-SW T03500067 55001,M
RTS,2023-08-10 03:04,-119.8764,39.6682,1539.00,69.80,28.40,21.24,290.00,9.00,0.00,30.08,M,10.00,M,CLR,M,M,M,M,M,M,M,M,M,M,M,M,M,M,69.80,KRTS 100304Z AUTO 29009KT 10SM CLR 21/M02 A3008 RMK AO2,M
BVU,2023-08-10 03:15,-114.8611,35.9475,671.00,93.20,44.60,18.80,240.00,13.00,0.00,29.81,M,10.00,M,CLR,M,M,M,M,M,M,M,M,M,M,M,M,M,M,89.34,KBVU 100315Z AUTO 24013KT 10SM CLR 34/07 A2981 RMK AO2,M
CXP,2023-08-10 03:15,-119.7326,39.1923,1431.00,75.20,37.40,25.40,270.00,5.00,0.00,30.04,M,10.00,M,CLR,M,M,M,M,M,M,M,M,M,M,M,M,M,M,75.20,KCXP 100315Z AUTO 27005KT 10SM CLR 24/03 A3004 RMK AO2,M
05U,2023-08-10 03:15,-116.0051,39.6042,1811.23,75.20,35.60,23.66,M,M,0.00,30.06,M,10.00,M,M,M,M,M,M,M,M,M,M,M,M,M,M,M,M,75.20,K05U 100315Z AUTO 10SM 24/02 A3006 RMK A01,M
MEV,2023-08-10 03:15,-119.7500,38.9963,1441.42,73.40,35.60,25.13,300.00,7.00,0.00,30.02,M,10.00,M,CLR,M,M,M,M,M,M,M,M,M,M,M,M,M,M,73.40,KMEV 100315Z AUTO 30007KT 10SM CLR 23/02 A3002 RMK AO2,M
BAM,2023-08-10 03:15,-116.8743,40.5990,1382.36,77.00,33.80,20.74,180.00,4.00,0.00,29.95,M,10.00,M,CLR,M,M,M,M,M,M,M,M,M,M,M,M,M,M,77.00,KBAM 100315Z AUTO 18004KT 10SM CLR 25/01 A2995 RMK AO1,M
HTH,2023-08-10 03:15,-118.6315,38.5448,1282.89,86.00,30.20,13.38,360.00,14.00,0.00,29.93,M,10.00,21.00,CLR,M,M,M,M,M,M,M,M,M,M,M,M,M,M,82.64,KHTH 100315Z AUTO 36014G21KT 10SM CLR 30/M01 A2993 RMK A01,M
TMT,2023-08-10 03:15,-117.1971,39.4643,1749.34,71.60,26.40,18.40,340.00,5.00,0.00,30.06,M,M,M,CLR,M,M,M,M,M,M,M,M,M,M,M,M,M,M,71.60,KTMT 100315Z AUTO 34005KT CLR 22/M03 A3006 RMK AO2 T02201031 PWINO,M
RTS,2023-08-10 03:24,-119.8764,39.6682,1539.00,69.80,30.20,22.86,300.00,10.00,0.00,30.08,M,10.00,M,CLR,M,M,M,M,M,M,M,M,M,M,M,M,M,M,69.80,KRTS 100324Z AUTO 30010KT 10SM CLR 21/M01 A3008 RMK AO2,M
05U,2023-08-10 03:30,-116.0051,39.6042,1811.23,73.40,35.60,25.13,M,M,0.00,30.07,M,10.00,M,M,M,M,M,M,M,M,M,M,M,M,M,M,M,M,73.40,K05U 100330Z AUTO 10SM 23/02 A3007 RMK A01,M
BVU,2023-08-10 03:35,-114.8611,35.9475,671.00,93.20,42.80,17.55,240.00,9.00,0.00,29.82,M,10.00,15.00,CLR,M,M,M,M,M,M,M,M,M,M,M,M,M,M,89.17,KBVU 100335Z AUTO 24009G15KT 10SM CLR 34/06 A2982 RMK AO2,M
CXP,2023-08-10 03:35,-119.7326,39.1923,1431.00,73.40,37.40,26.98,M,4.00,0.00,30.04,M,10.00,M,CLR,M,M,M,M,M,M,M,M,M,M,M,M,M,M,73.40,KCXP 100335Z AUTO VRB04KT 10SM CLR 23/03 A3004 RMK AO2,M
MEV,2023-08-10 03:35,-119.7500,38.9963,1441.42,73.40,35.60,25.13,280.00,7.00,0.00,30.03,M,10.00,M,CLR,M,M,M,M,M,M,M,M,M,M,M,M,M,M,73.40,KMEV 100335Z AUTO 28007KT 10SM CLR 23/02 A3003 RMK AO2,M
BAM,2023-08-10 03:35,-116.8743,40.5990,1382.36,77.00,32.00,19.30,0.00,0.00,0.00,29.96,M,10.00,M,CLR,M,M,M,M,M,M,M,M,M,M,M,M,M,M,77.00,KBAM 100335Z AUTO 00000KT 10SM CLR 25/00 A2996 RMK AO1,M
HTH,2023-08-10 03:35,-118.6315,38.5448,1282.89,84.20,33.80,16.39,340.00,10.00,0.00,29.94,M,10.00,15.00,CLR,M,M,M,M,M,M,M,M,M,M,M,M,M,M,81.30,KHTH 100335Z AUTO 34010G15KT 10SM CLR 29/01 A2994 RMK A01,M
TMT,2023-08-10 03:35,-117.1971,39.4643,1749.34,70.00,26.60,19.59,0.00,0.00,0.00,30.06,M,M,M,CLR,M,M,M,M,M,M,M,M,M,M,M,M,M,M,70.00,KTMT 100335Z AUTO 00000KT CLR 21/M03 A3006 RMK AO2 T02121030 PWINO,M
RTS,2023-08-10 03:44,-119.8764,39.6682,1539.00,68.00,30.20,24.32,300.00,9.00,0.00,30.09,M,10.00,M,CLR,M,M,M,M,M,M,M,M,M,M,M,M,M,M,68.00,KRTS 100344Z AUTO 30009KT 10SM CLR 20/M01 A3009 RMK AO2,M
05U,2023-08-10 03:50,-116.0051,39.6042,1811.23,71.60,35.60,26.71,M,M,0.00,30.07,M,10.00,M,M,M,M,M,M,M,M,M,M,M,M,M,M,M,M,71.60,K05U 100350Z AUTO 10SM 22/02 A3007 RMK A01,M
P68,2023-08-10 03:53,-116.0056,39.6014,1993.00,73.00,36.00,25.88,360.00,7.00,0.00,30.05,1008.80,M,M,M,M,M,M,M,M,M,M,M,M,M,M,M,M,M,73.00,KP68 100353Z AUTO 36007KT 23/02 A3005 RMK AO1 SLP088 T02280022,M
DRA,2023-08-10 03:53,-116.0278,36.6206,1009.00,88.00,44.00,21.63,180.00,11.00,0.00,29.91,1007.30,10.00,M,CLR,M,M,M,M,M,M,M,M,M,M,M,M,M,M,84.65,KDRA 100353Z AUTO 18011KT 10SM CLR 31/07 A2991 RMK AO2 SLP073 T03110067,M
ELY,2023-08-10 03:53,-114.8453,39.2950,1909.00,73.00,29.00,19.53,140.00,12.00,0.00,30.08,1008.00,10.00,25.00,CLR,M,M,M,M,M,M,M,M,M,M,M,M,M,M,73.00,KELY 100353Z AUTO 14012G25KT 10SM CLR 23/M02 A3008 RMK AO2 SLP080 T02281017,M
VGT,2023-08-10 03:53,-115.1933,36.2111,667.00,96.00,45.00,17.51,220.00,11.00,0.00,29.81,1007.80,10.00,24.00,CLR,M,M,M,M,M,M,M,M,M,M,M,M,M,M,92.07,KVGT 100353Z 22011G24KT 10SM CLR 36/07 A2981 RMK AO2 SLP078 T03560072,M
LOL,2023-08-10 03:53,-118.5701,40.0684,1192.43,81.00,32.00,16.92,310.00,13.00,0.00,29.92,1008.80,10.00,M,CLR,M,M,M,M,M,M,M,M,M,M,M,M,M,M,79.07,KLOL 100353Z AUTO 31013KT 10SM CLR 27/00 A2992 RMK AO2 SLP088 T02720000,M
BVU,2023-08-10 03:55,-114.8611,35.9475,671.00,93.20,42.80,17.55,240.00,8.00,0.00,29.82,M,10.00,M,CLR,M,M,M,M,M,M,M,M,M,M,M,M,M,M,89.17,KBVU 100355Z AUTO 24008KT 10SM CLR 34/06 A2982 RMK AO2,M
CXP,2023-08-10 03:55,-119.7326,39.1923,1431.00,73.40,39.20,28.96,0.00,0.00,0.00,30.05,M,10.00,M,CLR,M,M,M,M,M,M,M,M,M,M,M,M,M,M,73.40,KCXP 100355Z AUTO 00000KT 10SM CLR 23/04 A3005 RMK AO2,M
RNO,2023-08-10 03:55,-119.7711,39.4839,1341.00,77.00,31.00,18.53,280.00,15.00,0.00,30.01,1010.80,10.00,20.00,FEW,M,M,M,25000.00,M,M,M,M,M,M,M,28.00,280.00,2023-08-10 03:44,77.00,KRNO 100355Z 28015G20KT 10SM FEW250 25/M01 A3001 RMK AO2 PK WND 28028/0344 SLP108 T02501006,M
MEV,2023-08-10 03:55,-119.7500,38.9963,1441.42,71.60,35.60,26.71,250.00,9.00,0.00,30.04,M,10.00,M,CLR,M,M,M,M,M,M,M,M,M,M,M,M,M,M,71.60,KMEV 100355Z AUTO 25009KT 10SM CLR 22/02 A3004 RMK AO2,M
BAM,2023-08-10 03:55,-116.8743,40.5990,1382.36,77.00,33.80,20.74,310.00,3.00,0.00,29.97,M,10.00,M,CLR,M,M,M,M,M,M,M,M,M,M,M,M,M,M,77.00,KBAM 100355Z AUTO 31003KT 10SM CLR 25/01 A2997 RMK AO1,M
HTH,2023-08-10 03:55,-118.6315,38.5448,1282.89,82.40,35.60,18.67,330.00,7.00,0.00,29.94,M,10.00,M,CLR,M,M,M,M,M,M,M,M,M,M,M,M,M,M,80.08,KHTH 100355Z AUTO 33007KT 10SM CLR 28/02 A2994 RMK A01,M
TMT,2023-08-10 03:55,-117.1971,39.4643,1749.34,62.00,26.00,25.23,110.00,5.00,0.00,30.07,M,M,M,CLR,M,M,M,M,M,M,M,M,M,M,M,M,M,M,62.00,KTMT 100355Z AUTO 11005KT CLR 17/M03 A3007 RMK AO2 T01661033 PWINO,M
INS,2023-08-10 03:55,-115.6733,36.5872,955.00,88.70,36.70,15.94,180.00,13.00,0.00,29.88,1006.50,10.00,M,CLR,M,M,M,M,M,M,M,M,M,M,M,M,M,M,84.89,KINS 100355Z AUTO 18013KT 10SM CLR 32/03 A2988 RMK AO2 SLP065 T03150026 $,M
LSV,2023-08-10 03:55,-115.0343,36.2362,570.00,94.50,44.40,17.92,180.00,14.00,0.00,29.76,1005.00,10.00,M,SCT,M,M,M,20000.00,M,M,M,M,M,M,M,M,M,M,90.55,KLSV 100355Z AUTO 18014KT 10SM SCT200 35/07 A2976 RMK AO2 SLP050 T03470069 $,M
EKO,2023-08-10 03:56,-115.7860,40.8242,1367.00,73.00,35.00,24.87,0.00,0.00,0.00,29.98,1009.60,10.00,M,CLR,M,M,M,M,M,M,M,M,M,M,M,M,M,M,73.00,KEKO 100356Z AUTO 00000KT 10SM CLR 23/02 A2998 RMK AO2 SLP096 T02280017,M
NFL,2023-08-10 03:56,-118.7010,39.4166,1199.00,82.00,30.00,15.10,290.00,10.00,0.00,29.93,1011.00,10.00,M,FEW,M,M,M,25000.00,M,M,M,M,M,M,M,M,M,M,79.69,KNFL 100356Z 29010KT 10SM FEW250 28/M01 A2993 RMK AO2 SLP110 T02781011,M
HND,2023-08-10 03:56,-115.1344,35.9729,742.79,91.00,47.00,22.05,220.00,11.00,0.00,29.87,1009.80,10.00,M,CLR,M,M,M,M,M,M,M,M,M,M,M,M,M,M,87.57,KHND 100356Z AUTO 22011KT 10SM CLR 33/08 A2987 RMK AO2 SLP098 T03280083,M
TPH,2023-08-10 03:56,-117.0904,38.0505,1654.00,77.00,35.00,21.76,190.00,13.00,0.00,30.04,1008.90,10.00,M,CLR,M,M,M,M,M,M,M,M,M,M,M,M,M,M,77.00,KTPH 100356Z AUTO 19013KT 10SM CLR 25/02 A3004 RMK AO2 SLP089 T02500017,M
LAS,2023-08-10 03:56,-115.1634,36.0719,663.00,93.00,46.00,19.95,220.00,11.00,0.00,29.83,1006.90,10.00,M,FEW,SCT,BKN,M,11000.00,15000.00,20000.00,M,M,M,M,M,M,M,M,89.31,KLAS 100356Z 22011KT 10SM FEW110 SCT150 BKN200 34/08 A2983 RMK AO2 SLP069 T03390078,M
RTS,2023-08-10 04:04,-119.8764,39.6682,1539.00,66.20,30.20,25.88,290.00,11.00,0.00,30.10,M,10.00,M,CLR,M,M,M,M,M,M,M,M,M,M,M,M,M,M,66.20,KRTS 100404Z AUTO 29011KT 10SM CLR 19/M01 A3010 RMK AO2,M
05U,2023-08-10 04:10,-116.0051,39.6042,1811.23,71.60,35.60,26.71,M,M,0.00,30.08,M,10.00,M,M,M,M,M,M,M,M,M,M,M,M,M,M,M,M,71.60,K05U 100410Z AUTO 10SM 22/02 A3008 RMK A01,M
BVU,2023-08-10 04:15,-114.8611,35.9475,671.00,91.40,42.80,18.56,240.00,7.00,0.00,29.83,M,10.00,M,CLR,M,M,M,M,M,M,M,M,M,M,M,M,M,M,87.52,KBVU 100415Z AUTO 24007KT 10SM CLR 33/06 A2983 RMK AO2,M
CXP,2023-08-10 04:15,-119.7326,39.1923,1431.00,73.40,39.20,28.96,270.00,8.00,0.00,30.06,M,10.00,M,CLR,M,M,M,M,M,M,M,M,M,M,M,M,M,M,73.40,KCXP 100415Z AUTO 27008KT 10SM CLR 23/04 A3006 RMK AO2,M
MEV,2023-08-10 04:15,-119.7500,38.9963,1441.42,69.80,37.40,30.49,260.00,7.00,0.00,30.04,M,10.00,M,CLR,M,M,M,M,M,M,M,M,M,M,M,M,M,M,69.80,KMEV 100415Z AUTO 26007KT 10SM CLR 21/03 A3004 RMK AO2,M
HTH,2023-08-10 04:15,-118.6315,38.5448,1282.89,80.60,37.40,21.25,350.00,10.00,0.00,29.95,M,10.00,M,CLR,M,M,M,M,M,M,M,M,M,M,M,M,M,M,79.02,KHTH 100415Z AUTO 35010KT 10SM CLR 27/03 A2995 RMK A01,M
BAM,2023-08-10 04:15,-116.8743,40.5990,1382.36,75.20,33.80,22.02,300.00,6.00,0.00,29.97,M,10.00,M,CLR,M,M,M,M,M,M,M,M,M,M,M,M,M,M,75.20,KBAM 100415Z AUTO 30006KT 10SM CLR 24/01 A2997 RMK AO1,M
TMT,2023-08-10 04:15,-117.1971,39.4643,1749.34,60.30,26.20,27.02,140.00,5.00,0.00,30.07,M,M,M,CLR,M,M,M,M,M,M,M,M,M,M,M,M,M,M,60.30,KTMT 100415Z AUTO 14005KT CLR 16/M03 A3007 RMK AO2 T01571032 PWINO,M
RTS,2023-08-10 04:24,-119.8764,39.6682,1539.00,64.40,28.40,25.60,280.00,7.00,0.00,30.10,M,10.00,M,CLR,M,M,M,M,M,M,M,M,M,M,M,M,M,M,64.40,KRTS 100424Z AUTO 28007KT 10SM CLR 18/M02 A3010 RMK AO2,M
05U,2023-08-10 04:30,-116.0051,39.6042,1811.23,68.00,35.60,30.20,M,M,0.00,30.09,M,10.00,M,M,M,M,M,M,M,M,M,M,M,M,M,M,M,M,68.00,K05U 100430Z AUTO 10SM 20/02 A3009 RMK A01,M
BVU,2023-08-10 04:35,-114.8611,35.9475,671.00,91.40,44.60,19.89,230.00,7.00,0.00,29.84,M,10.00,M,CLR,M,M,M,M,M,M,M,M,M,M,M,M,M,M,87.68,KBVU 100435Z AUTO 23007KT 10SM CLR 33/07 A2984 RMK AO2,M
CXP,2023-08-10 04:35,-119.7326,39.1923,1431.00,73.40,37.40,26.98,280.00,8.00,0.00,30.06,M,10.00,M,CLR,M,M,M,M,M,M,M,M,M,M,M,M,M,M,73.40,KCXP 100435Z AUTO 28008KT 10SM CLR 23/03 A3006 RMK AO2,M
MEV,2023-08-10 04:35,-119.7500,38.9963,1441.42,69.80,37.40,30.49,M,3.00,0.00,30.05,M,10.00,10.00,CLR,M,M,M,M,M,M,M,M,M,M,M,M,M,M,69.80,KMEV 100435Z AUTO VRB03G10KT 10SM CLR 21/03 A3005 RMK AO2,M
BAM,2023-08-10 04:35,-116.8743,40.5990,1382.36,71.60,33.80,24.86,320.00,6.00,0.00,29.97,M,10.00,M,CLR,M,M,M,M,M,M,M,M,M,M,M,M,M,M,71.60,KBAM 100435Z AUTO 32006KT 10SM CLR 22/01 A2997 RMK AO1,M
HTH,2023-08-10 04:35,-118.6315,38.5448,1282.89,80.60,35.60,19.79,350.00,11.00,0.00,29.96,M,10.00,M,CLR,M,M,M,M,M,M,M,M,M,M,M,M,M,M,78.94,KHTH 100435Z AUTO 35011KT 10SM CLR 27/02 A2996 RMK A01,M
TMT,2023-08-10 04:35,-117.1971,39.4643,1749.34,59.00,25.50,27.49,190.00,4.00,0.00,30.08,M,M,M,CLR,M,M,M,M,M,M,M,M,M,M,M,M,M,M,59.00,KTMT 100435Z AUTO 19004KT CLR 15/M04 A3008 RMK AO2 T01511036 PWINO,M
RTS,2023-08-10 04:44,-119.8764,39.6682,1539.00,62.60,28.40,27.27,270.00,7.00,0.00,30.11,M,10.00,M,CLR,M,M,M,M,M,M,M,M,M,M,M,M,M,M,62.60,KRTS 100444Z AUTO 27007KT 10SM CLR 17/M02 A3011 RMK AO2,M
P68,2023-08-10 04:53,-116.0056,39.6014,1993.00,66.00,34.00,30.37,170.00,3.00,0.00,30.07,1009.20,M,M,M,M,M,M,M,M,M,M,M,M,M,M,M,M,M,66.00,KP68 100453Z AUTO 17003KT 19/01 A3007 RMK AO1 SLP092 T01890011,M
DRA,2023-08-10 04:53,-116.0278,36.6206,1009.00,87.00,51.00,29.06,200.00,13.00,0.00,29.92,1007.40,10.00,20.00,CLR,M,M,M,M,M,M,M,M,M,M,M,M,M,M,84.58,KDRA 100453Z AUTO 20013G20KT 10SM CLR 31/11 A2992 RMK AO2 SLP074 T03060106,M
ELY,2023-08-10 04:53,-114.8453,39.2950,1909.00,66.00,33.00,29.18,210.00,9.00,0.00,30.10,1009.20,10.00,M,CLR,M,M,M,M,M,M,M,M,M,M,M,M,M,M,66.00,KELY 100453Z AUTO 21009KT 10SM CLR 19/01 A3010 RMK AO2 SLP092 T01890006,M
VGT,2023-08-10 04:53,-115.1933,36.2111,667.00,95.00,50.00,21.79,230.00,13.00,0.00,29.81,1007.90,10.00,M,CLR,M,M,M,M,M,M,M,M,M,M,M,M,M,M,91.89,KVGT 100453Z AUTO 23013KT 10SM CLR 35/10 A2981 RMK AO2 SLP079 T03500100,M
LOL,2023-08-10 04:53,-118.5701,40.0684,1192.43,79.00,33.00,18.80,300.00,10.00,0.00,29.94,1009.40,10.00,M,CLR,M,M,M,M,M,M,M,M,M,M,M,M,M,M,79.00,KLOL 100453Z AUTO 30010KT 10SM CLR 26/01 A2994 RMK AO2 SLP094 T02610006,M
BVU,2023-08-10 04:55,-114.8611,35.9475,671.00,91.40,44.60,19.89,240.00,6.00,0.00,29.84,M,10.00,M,CLR,M,M,M,M,M,M,M,M,M,M,M,M,M,M,87.68,KBVU 100455Z AUTO 24006KT 10SM CLR 33/07 A2984 RMK AO2,M
CXP,2023-08-10 04:55,-119.7326,39.1923,1431.00,71.60,37.40,28.68,280.00,5.00,0.00,30.06,M,10.00,M,CLR,M,M,M,M,M,M,M,M,M,M,M,M,M,M,71.60,KCXP 100455Z AUTO 28005KT 10SM CLR 22/03 A3006 RMK AO2,M
RNO,2023-08-10 04:55,-119.7711,39.4839,1341.00,74.00,33.00,22.20,290.00,12.00,0.00,30.03,1011.20,10.00,M,CLR,M,M,M,M,M,M,M,M,M,M,M,M,M,M,74.00,KRNO 100455Z 29012KT 10SM CLR 23/01 A3003 RMK AO2 SLP112 T02330006,M
05U,2023-08-10 04:55,-116.0051,39.6042,1811.23,64.40,33.80,31.85,M,M,0.00,30.09,M,10.00,M,M,M,M,M,M,M,M,M,M,M,M,M,M,M,M,64.40,K05U 100455Z AUTO 10SM 18/01 A3009 RMK A01,M
MEV,2023-08-10 04:55,-119.7500,38.9963,1441.42,66.20,37.40,34.51,0.00,0.00,0.00,30.05,M,10.00,M,CLR,M,M,M,M,M,M,M,M,M,M,M,M,M,M,66.20,KMEV 100455Z AUTO 00000KT 10SM CLR 19/03 A3005 RMK AO2,M
BAM,2023-08-10 04:55,-116.8743,40.5990,1382.36,73.40,32.00,21.76,330.00,5.00,0.00,29.98,M,10.00,M,CLR,M,M,M,M,M,M,M,M,M,M,M,M,M,M,73.40,KBAM 100455Z AUTO 33005KT 10SM CLR 23/00 A2998 RMK AO1,M
HTH,2023-08-10 04:55,-118.6315,38.5448,1282.89,80.60,33.80,18.42,360.00,11.00,0.00,29.97,M,10.00,M,CLR,M,M,M,M,M,M,M,M,M,M,M,M,M,M,78.88,KHTH 100455Z AUTO 36011KT 10SM CLR 27/01 A2997 RMK A01,M
TMT,2023-08-10 04:55,-117.1971,39.4643,1749.34,60.80,26.20,26.54,250.00,4.00,0.00,30.08,M,M,M,CLR,M,M,M,M,M,M,M,M,M,M,M,M,M,M,60.80,KTMT 100455Z AUTO 25004KT CLR 16/M03 A3008 RMK AO2 T01601032 PWINO,M
INS,2023-08-10 04:55,-115.6733,36.5872,955.00,88.00,43.30,21.06,180.00,16.00,0.00,29.88,1006.30,10.00,M,BKN,M,M,M,21000.00,M,M,M,M,M,M,M,M,M,M,84.60,KINS 100455Z AUTO 18016KT 10SM BKN210 31/06 A2988 RMK AO2 SLP063 T03120063 $,M
LSV,2023-08-10 04:55,-115.0343,36.2362,570.00,93.00,46.00,19.95,170.00,12.00,0.00,29.77,1005.10,10.00,M,CLR,M,M,M,M,M,M,M,M,M,M,M,M,M,M,89.31,KLSV 100455Z AUTO 17012KT 10SM CLR 34/08 A2977 RMK AO2 SLP051 T03390078 $,M
EKO,2023-08-10 04:56,-115.7860,40.8242,1367.00,66.00,38.00,35.58,0.00,0.00,0.00,29.99,1010.10,10.00,M,CLR,M,M,M,M,M,M,M,M,M,M,M,M,M,M,66.00,KEKO 100456Z AUTO 00000KT 10SM CLR 19/03 A2999 RMK AO2 SLP101 T01890033,M
WMC,2023-08-10 04:56,-117.8072,40.9019,1315.00,68.00,26.00,20.47,250.00,8.00,0.00,29.95,1009.20,10.00,M,CLR,M,M,M,M,M,M,M,M,M,M,M,M,M,M,68.00,KWMC 100456Z AUTO 25008KT 10SM CLR 20/M03 A2995 RMK AO2 SLP092 T02001033,M
NFL,2023-08-10 04:56,-118.7010,39.4166,1199.00,74.00,31.00,20.48,320.00,7.00,0.00,29.96,1011.60,10.00,M,FEW,M,M,M,25000.00,M,M,M,M,M,M,M,M,M,M,74.00,KNFL 100456Z 32007KT 10SM FEW250 23/M01 A2996 RMK AO2 SLP116 T02331006,M
HND,2023-08-10 04:56,-115.1344,35.9729,742.79,91.00,50.00,24.68,220.00,10.00,0.00,29.88,1010.00,10.00,M,CLR,M,M,M,M,M,M,M,M,M,M,M,M,M,M,87.99,KHND 100456Z AUTO 22010KT 10SM CLR 33/10 A2988 RMK AO2 SLP100 T03280100,M
TPH,2023-08-10 04:56,-117.0904,38.0505,1654.00,74.00,33.00,22.20,180.00,8.00,0.00,30.06,1009.70,10.00,M,CLR,M,M,M,M,M,M,M,M,M,M,M,M,M,M,74.00,KTPH 100456Z AUTO 18008KT 10SM CLR 23/01 A3006 RMK AO2 SLP097 T02330006,M
LAS,2023-08-10 04:56,-115.1634,36.0719,663.00,93.00,48.00,21.51,210.00,6.00,0.00,29.83,1007.00,10.00,M,FEW,SCT,BKN,M,11000.00,15000.00,18000.00,M,M,M,M,M,M,M,M,89.58,KLAS 100456Z 21006KT 10SM FEW110 SCT150 BKN180 34/09 A2983 RMK AO2 SLP070 T03390089,M
RTS,2023-08-10 05:04,-119.8764,39.6682,1539.00,64.40,30.20,27.55,260.00,9.00,0.00,30.10,M,10.00,M,CLR,M,M,M,M,M,M,M,M,M,M,M,M,M,M,64.40,KRTS 100504Z AUTO 26009KT 10SM CLR 18/M01 A3010 RMK AO2,M
BVU,2023-08-10 05:15,-114.8611,35.9475,671.00,91.40,46.40,21.29,230.00,8.00,0.00,29.83,M,10.00,M,CLR,M,M,M,M,M,M,M,M,M,M,M,M,M,M,87.86,KBVU 100515Z AUTO 23008KT 10SM CLR 33/08 A2983 RMK AO2,M
CXP,2023-08-10 05:15,-119.7326,39.1923,1431.00,69.80,37.40,30.49,0.00,0.00,0.00,30.07,M,10.00,M,CLR,M,M,M,M,M,M,M,M,M,M,M,M,M,M,69.80,KCXP 100515Z AUTO 00000KT 10SM CLR 21/03 A3007 RMK AO2,M
05U,2023-08-10 05:15,-116.0051,39.6042,1811.23,60.80,37.40,41.71,M,M,0.00,30.09,M,10.00,M,M,M,M,M,M,M,M,M,M,M,M,M,M,M,M,60.80,K05U 100515Z AUTO 10SM 16/03 A3009 RMK A01,M
MEV,2023-08-10 05:15,-119.7500,38.9963,1441.42,62.60,37.40,39.14,50.00,4.00,0.00,30.05,M,10.00,M,CLR,M,M,M,M,M,M,M,M,M,M,M,M,M,M,62.60,KMEV 100515Z AUTO 05004KT 10SM CLR 17/03 A3005 RMK AO2,M
BAM,2023-08-10 05:15,-116.8743,40.5990,1382.36,71.60,32.00,23.13,0.00,0.00,0.00,29.98,M,10.00,M,CLR,M,M,M,M,M,M,M,M,M,M,M,M,M,M,71.60,KBAM 100515Z AUTO 00000KT 10SM CLR 22/00 A2998 RMK AO1,M
HTH,2023-08-10 05:15,-118.6315,38.5448,1282.89,80.60,32.00,17.14,350.00,8.00,0.00,29.98,M,10.00,14.00,CLR,M,M,M,M,M,M,M,M,M,M,M,M,M,M,78.82,KHTH 100515Z AUTO 35008G14KT 10SM CLR 27/00 A2998 RMK A01,M
TMT,2023-08-10 05:15,-117.1971,39.4643,1749.34,56.70,27.70,32.70,240.00,4.00,0.00,30.08,M,M,M,CLR,M,M,M,M,M,M,M,M,M,M,M,M,M,M,56.70,KTMT 100515Z AUTO 24004KT CLR 14/M02 A3008 RMK AO2 T01371024 PWINO,M
RTS,2023-08-10 05:24,-119.8764,39.6682,1539.00,64.40,30.20,27.55,300.00,7.00,0.00,30.11,M,10.00,M,CLR,M,M,M,M,M,M,M,M,M,M,M,M,M,M,64.40,KRTS 100524Z AUTO 30007KT 10SM CLR 18/M01 A3011 RMK AO2,M
05U,2023-08-10 05:30,-116.0051,39.6042,1811.23,60.80,35.60,38.85,M,M,0.00,30.09,M,10.00,M,M,M,M,M,M,M,M,M,M,M,M,M,M,M,M,60.80,K05U 100530Z AUTO 10SM 16/02 A3009 RMK A01,M
BVU,2023-08-10 05:35,-114.8611,35.9475,671.00,91.40,46.40,21.29,210.00,8.00,0.00,29.83,M,10.00,M,CLR,M,M,M,M,M,M,M,M,M,M,M,M,M,M,87.86,KBVU 100535Z AUTO 21008KT 10SM CLR 33/08 A2983 RMK AO2,M
CXP,2023-08-10 05:35,-119.7326,39.1923,1431.00,68.00,39.20,34.80,0.00,0.00,0.00,30.07,M,10.00,M,CLR,M,M,M,M,M,M,M,M,M,M,M,M,M,M,68.00,KCXP 100535Z AUTO 00000KT 10SM CLR 20/04 A3007 RMK AO2,M
MEV,2023-08-10 05:35,-119.7500,38.9963,1441.42,59.00,41.00,51.18,50.00,7.00,0.00,30.06,M,10.00,M,CLR,M,M,M,M,M,M,M,M,M,M,M,M,M,M,59.00,KMEV 100535Z AUTO 05007KT 10SM CLR 15/05 A3006 RMK AO2,M
BAM,2023-08-10 05:35,-116.8743,40.5990,1382.36,69.80,32.00,24.59,160.00,4.00,0.00,29.99,M,10.00,M,CLR,M,M,M,M,M,M,M,M,M,M,M,M,M,M,69.80,KBAM 100535Z AUTO 16004KT 10SM CLR 21/00 A2999 RMK AO1,M
HTH,2023-08-10 05:35,-118.6315,38.5448,1282.89,77.00,37.40,23.93,290.00,5.00,0.00,29.98,M,10.00,M,CLR,M,M,M,M,M,M,M,M,M,M,M,M,M,M,77.00,KHTH 100535Z AUTO 29005KT 10SM CLR 25/03 A2998 RMK A01,M
TMT,2023-08-10 05:35,-117.1971,39.4643,1749.34,55.00,27.00,33.79,0.00,0.00,0.00,30.09,M,M,M,CLR,M,M,M,M,M,M,M,M,M,M,M,M,M,M,55.00,KTMT 100535Z AUTO 00000KT CLR 13/M03 A3009 RMK AO2 T01271027 PWINO,M
RTS,2023-08-10 05:44,-119.8764,39.6682,1539.00,60.80,30.20,31.28,0.00,0.00,0.00,30.11,M,10.00,M,CLR,M,M,M,M,M,M,M,M,M,M,M,M,M,M,60.80,KRTS 100544Z AUTO 00000KT 10SM CLR 16/M01 A3011 RMK AO2,M
P68,2023-08-10 05:53,-116.0056,39.6014,1993.00,57.00,36.00,45.22,150.00,6.00,0.00,30.07,1009.80,M,M,M,M,M,M,M,M,M,M,M,M,M,M,M,M,M,57.00,KP68 100553Z AUTO 15006KT 14/02 A3007 RMK AO1 SLP098 T01390022 10306 20133 51015,M
DRA,2023-08-10 05:53,-116.0278,36.6206,1009.00,86.00,51.00,30.00,220.00,11.00,0.00,29.92,1007.40,10.00,18.00,CLR,M,M,M,M,M,M,M,M,M,M,M,M,M,M,83.75,KDRA 100553Z AUTO 22011G18KT 10SM CLR 30/11 A2992 RMK AO2 SLP074 T03000106 10356 20294 51009,M
ELY,2023-08-10 05:53,-114.8453,39.2950,1909.00,68.00,36.00,30.69,230.00,8.00,0.00,30.11,1008.50,10.00,M,CLR,M,M,M,M,M,M,M,M,M,M,M,M,M,M,68.00,KELY 100553Z AUTO 23008KT 10SM CLR 20/02 A3011 RMK AO2 SLP085 T02000022 10300 20189 51014,M
VGT,2023-08-10 05:53,-115.1933,36.2111,667.00,94.00,52.00,24.20,250.00,13.00,0.00,29.81,1007.80,10.00,26.00,CLR,M,M,M,M,M,M,M,M,M,M,M,26.00,250.00,2023-08-10 05:45,91.30,KVGT 100553Z AUTO 25013G26KT 10SM CLR 34/11 A2981 RMK AO2 PK WND 25026/0545 SLP078 T03440111 10389 20344 50008,M
LOL,2023-08-10 05:53,-118.5701,40.0684,1192.43,75.00,34.00,22.35,290.00,10.00,0.00,29.95,1009.70,10.00,M,CLR,M,M,M,M,M,M,M,M,M,M,M,M,M,M,75.00,KLOL 100553Z AUTO 29010KT 10SM CLR 24/01 A2995 RMK AO2 SLP097 T02390011 10333 20239 51014,M
BVU,2023-08-10 05:55,-114.8611,35.9475,671.00,91.40,46.40,21.29,220.00,10.00,0.00,29.84,M,10.00,M,CLR,M,M,M,M,M,M,M,M,M,M,M,M,M,M,87.86,KBVU 100555Z AUTO 22010KT 10SM CLR 33/08 A2984 RMK AO2,M
CXP,2023-08-10 05:55,-119.7326,39.1923,1431.00,66.20,37.40,34.51,0.00,0.00,0.00,30.07,M,10.00,M,CLR,M,M,M,M,M,M,M,M,M,M,M,M,M,M,66.20,KCXP 100555Z AUTO 00000KT 10SM CLR 19/03 A3007 RMK AO2,M
RNO,2023-08-10 05:55,-119.7711,39.4839,1341.00,72.00,32.00,22.82,340.00,7.00,0.00,30.05,1011.70,10.00,16.00,CLR,M,M,M,M,M,M,M,M,M,M,M,M,M,M,72.00,KRNO 100555Z 34007G16KT 10SM CLR 22/00 A3005 RMK AO2 SLP117 T02220000 10317 20222 51017,M
05U,2023-08-10 05:55,-116.0051,39.6042,1811.23,57.20,33.80,41.13,M,M,0.00,30.09,M,10.00,M,M,M,M,M,M,M,M,M,M,M,M,M,M,M,M,57.20,K05U 100555Z AUTO 10SM 14/01 A3009 RMK A01,M
MEV,2023-08-10 05:55,-119.7500,38.9963,1441.42,59.00,41.00,51.18,90.00,6.00,0.00,30.06,M,10.00,M,FEW,M,M,M,4800.00,M,M,M,M,M,M,M,M,M,M,59.00,KMEV 100555Z AUTO 09006KT 10SM FEW048 15/05 A3006 RMK AO2,M
BAM,2023-08-10 05:55,-116.8743,40.5990,1382.36,64.40,30.20,27.55,170.00,7.00,0.00,29.99,M,10.00,M,CLR,M,M,M,M,M,M,M,M,M,M,M,M,M,M,64.40,KBAM 100555Z AUTO 17007KT 10SM CLR 18/M01 A2999 RMK AO1,M
HTH,2023-08-10 05:55,-118.6315,38.5448,1282.89,77.00,33.80,20.74,300.00,8.00,0.00,29.99,M,10.00,M,M,M,M,M,M,M,M,M,M,M,M,M,M,M,M,77.00,KHTH 100555Z AUTO 30008KT 10SM 25/01 A2999 RMK A01,M
TMT,2023-08-10 05:55,-117.1971,39.4643,1749.34,55.00,27.30,34.21,0.00,0.00,0.00,30.10,M,M,M,CLR,M,M,M,M,M,M,M,M,M,M,M,M,M,M,55.00,KTMT 100555Z AUTO 00000KT CLR 13/M03 A3010 RMK AO2 T01281026 10318 20117 PWINO,M
INS,2023-08-10 05:55,-115.6733,36.5872,955.00,88.00,45.70,23.08,170.00,9.00,0.00,29.88,1006.20,10.00,M,OVC,M,M,M,18000.00,M,M,M,M,M,M,M,M,M,M,84.79,KINS 100555Z AUTO 17009KT 10SM OVC180 31/08 A2988 RMK AO2 SLP062 T03120076 10351 20310 50004 $,M
LSV,2023-08-10 05:55,-115.0343,36.2362,570.00,93.20,50.00,23.04,180.00,14.00,0.00,29.77,1005.00,10.00,M,CLR,M,M,M,M,M,M,M,M,M,M,M,M,M,M,90.10,KLSV 100555Z AUTO 18014KT 10SM CLR 34/10 A2977 RMK AO2 SLP050 T03400099 10391 20339 51008 $,M
EKO,2023-08-10 05:56,-115.7860,40.8242,1367.00,62.00,37.00,39.35,140.00,3.00,0.00,30.00,1010.30,10.00,M,CLR,M,M,M,M,M,M,M,M,M,M,M,M,M,M,62.00,KEKO 100556Z AUTO 14003KT 10SM CLR 17/03 A3000 RMK AO2 SLP103 T01670028 10306 20167 51010,M
WMC,2023-08-10 05:56,-117.8072,40.9019,1315.00,67.00,28.00,23.01,260.00,9.00,0.00,29.96,1009.20,10.00,M,CLR,M,M,M,M,M,M,M,M,M,M,M,M,M,M,67.00,KWMC 100556Z AUTO 26009KT 10SM CLR 19/M02 A2996 RMK AO2 SLP092 T01941022 10333 20194 51007,M
NFL,2023-08-10 05:56,-118.7010,39.4166,1199.00,72.00,32.00,22.82,290.00,6.00,0.00,29.97,1012.00,10.00,M,FEW,M,M,M,25000.00,M,M,M,M,M,M,M,M,M,M,72.00,KNFL 100556Z 29006KT 10SM FEW250 22/00 A2997 RMK AO2 SLP120 T02220000 10350 20222 51019,M
HND,2023-08-10 05:56,-115.1344,35.9729,742.79,89.00,53.00,29.36,220.00,11.00,0.00,29.89,1010.20,10.00,M,CLR,M,M,M,M,M,M,M,M,M,M,M,M,M,M,86.68,KHND 100556Z AUTO 22011KT 10SM CLR 32/12 A2989 RMK AO2 SLP102 T03170117 10367 20317 51011,M
TPH,2023-08-10 05:56,-117.0904,38.0505,1654.00,71.00,32.00,23.60,160.00,3.00,0.00,30.07,1009.70,10.00,M,CLR,M,M,M,M,M,M,M,M,M,M,M,M,M,M,71.00,KTPH 100556Z AUTO 16003KT 10SM CLR 22/00 A3007 RMK AO2 SLP097 T02170000 10317 20217 51014,M
LAS,2023-08-10 05:56,-115.1634,36.0719,663.00,92.00,52.00,25.76,230.00,16.00,0.00,29.84,1007.10,10.00,24.00,SCT,OVC,M,M,15000.00,22000.00,M,M,M,M,M,M,M,M,M,89.31,KLAS 100556Z 23016G24KT 10SM SCT150 OVC220 33/11 A2984 RMK AO2 SLP071 T03330111 10383 20333 51010,M
RTS,2023-08-10 06:04,-119.8764,39.6682,1539.00,60.80,32.00,33.64,300.00,5.00,0.00,30.11,M,10.00,M,CLR,M,M,M,M,M,M,M,M,M,M,M,M,M,M,60.80,KRTS 100604Z AUTO 30005KT 10SM CLR 16/M00 A3011 RMK AO2,M
BVU,2023-08-10 06:15,-114.8611,35.9475,671.00,89.60,50.00,25.79,220.00,10.00,0.00,29.84,M,10.00,M,CLR,M,M,M,M,M,M,M,M,M,M,M,M,M,M,86.70,KBVU 100615Z AUTO 22010KT 10SM CLR 32/10 A2984 RMK AO2,M
CXP,2023-08-10 06:15,-119.7326,39.1923,1431.00,62.60,39.20,42.00,0.00,0.00,0.00,30.07,M,10.00,M,CLR,M,M,M,M,M,M,M,M,M,M,M,M,M,M,62.60,KCXP 100615Z AUTO 00000KT 10SM CLR 17/04 A3007 RMK AO2,M
05U,2023-08-10 06:15,-116.0051,39.6042,1811.23,59.00,33.80,38.56,M,M,0.00,30.09,M,10.00,M,M,M,M,M,M,M,M,M,M,M,M,M,M,M,M,59.00,K05U 100615Z AUTO 10SM 15/01 A3009 RMK A01,M
MEV,2023-08-10 06:15,-119.7500,38.9963,1441.42,57.20,39.20,50.91,110.00,8.00,0.00,30.06,M,10.00,M,FEW,M,M,M,4700.00,M,M,M,M,M,M,M,M,M,M,57.20,KMEV 100615Z AUTO 11008KT 10SM FEW047 14/04 A3006 RMK AO2,M
BAM,2023-08-10 06:15,-116.8743,40.5990,1382.36,62.60,30.20,29.35,160.00,7.00,0.00,29.99,M,10.00,M,CLR,M,M,M,M,M,M,M,M,M,M,M,M,M,M,62.60,KBAM 100615Z AUTO 16007KT 10SM CLR 17/M01 A2999 RMK AO1,M
HTH,2023-08-10 06:15,-118.6315,38.5448,1282.89,77.00,28.40,16.67,320.00,8.00,0.00,30.00,M,10.00,M,M,M,M,M,M,M,M,M,M,M,M,M,M,M,M,77.00,KHTH 100615Z AUTO 32008KT 10SM 25/M02 A3000 RMK A01,M
TMT,2023-08-10 06:15,-117.1971,39.4643,1749.34,49.60,24.40,37.01,180.00,6.00,0.00,30.10,M,M,M,CLR,M,M,M,M,M,M,M,M,M,M,M,M,M,M,46.73,KTMT 100615Z AUTO 18006KT CLR 10/M04 A3010 RMK AO2 T00981042 PWINO,M
RTS,2023-08-10 06:24,-119.8764,39.6682,1539.00,57.20,30.20,35.57,290.00,6.00,0.00,30.11,M,10.00,M,CLR,M,M,M,M,M,M,M,M,M,M,M,M,M,M,57.20,KRTS 100624Z AUTO 29006KT 10SM CLR 14/M01 A3011 RMK AO2,M
BVU,2023-08-10 06:35,-114.8611,35.9475,671.00,89.60,48.20,24.11,210.00,10.00,0.00,29.85,M,10.00,M,CLR,M,M,M,M,M,M,M,M,M,M,M,M,M,M,86.44,KBVU 100635Z AUTO 21010KT 10SM CLR 32/09 A2985 RMK AO2,M
CXP,2023-08-10 06:35,-119.7326,39.1923,1431.00,64.40,39.20,39.43,0.00,0.00,0.00,30.08,M,10.00,M,CLR,M,M,M,M,M,M,M,M,M,M,M,M,M,M,64.40,KCXP 100635Z AUTO 00000KT 10SM CLR 18/04 A3008 RMK AO2,M
05U,2023-08-10 06:35,-116.0051,39.6042,1811.23,59.00,33.80,38.56,M,M,0.00,30.10,M,10.00,M,M,M,M,M,M,M,M,M,M,M,M,M,M,M,M,59.00,K05U 100635Z AUTO 10SM 15/01 A3010 RMK A01,M
MEV,2023-08-10 06:35,-119.7500,38.9963,1441.42,55.40,39.20,54.34,90.00,9.00,0.00,30.07,M,10.00,M,CLR,M,M,M,M,M,M,M,M,M,M,M,M,M,M,55.40,KMEV 100635Z AUTO 09009KT 10SM CLR 13/04 A3007 RMK AO2,M
BAM,2023-08-10 06:35,-116.8743,40.5990,1382.36,62.60,30.20,29.35,160.00,5.00,0.00,29.99,M,10.00,M,CLR,M,M,M,M,M,M,M,M,M,M,M,M,M,M,62.60,KBAM 100635Z AUTO 16005KT 10SM CLR 17/M01 A2999 RMK AO1,M
HTH,2023-08-10 06:35,-118.6315,38.5448,1282.89,77.00,37.40,23.93,310.00,12.00,0.00,30.01,M,10.00,M,CLR,M,M,M,M,M,M,M,M,M,M,M,M,M,M,77.00,KHTH 100635Z AUTO 31012KT 10SM CLR 25/03 A3001 RMK A01,M
TMT,2023-08-10 06:35,-117.1971,39.4643,1749.34,51.40,27.50,39.37,140.00,3.00,0.00,30.10,M,M,M,CLR,M,M,M,M,M,M,M,M,M,M,M,M,M,M,51.40,KTMT 100635Z AUTO 14003KT CLR 11/M02 A3010 RMK AO2 T01081025 PWINO,M
RTS,2023-08-10 06:44,-119.8764,39.6682,1539.00,57.20,30.20,35.57,310.00,5.00,0.00,30.11,M,10.00,M,CLR,M,M,M,M,M,M,M,M,M,M,M,M,M,M,57.20,KRTS 100644Z AUTO 31005KT 10SM CLR 14/M01 A3011 RMK AO2,M
05U,2023-08-10 06:50,-116.0051,39.6042,1811.23,55.40,33.80,43.90,M,M,0.00,30.11,M,10.00,M,M,M,M,M,M,M,M,M,M,M,M,M,M,M,M,55.40,K05U 100650Z AUTO 10SM 13/01 A3011 RMK A01,M
P68,2023-08-10 06:53,-116.0056,39.6014,1993.00,56.00,34.00,43.30,170.00,8.00,0.00,30.08,1010.10,M,M,M,M,M,M,M,M,M,M,M,M,M,M,M,M,M,56.00,KP68 100653Z AUTO 17008KT 13/01 A3008 RMK AO1 SLP101 T01330011,M
DRA,2023-08-10 06:53,-116.0278,36.6206,1009.00,85.00,50.00,29.85,230.00,11.00,0.00,29.91,1007.10,10.00,M,CLR,M,M,M,M,M,M,M,M,M,M,M,M,M,M,82.83,KDRA 100653Z AUTO 23011KT 10SM CLR 29/10 A2991 RMK AO2 SLP071 T02940100,M
ELY,2023-08-10 06:53,-114.8453,39.2950,1909.00,66.00,37.00,34.21,210.00,12.00,0.00,30.12,1008.60,10.00,19.00,CLR,M,M,M,M,M,M,M,M,M,M,M,M,M,M,66.00,KELY 100653Z AUTO 21012G19KT 10SM CLR 19/03 A3012 RMK AO2 SLP086 T01890028,M
VGT,2023-08-10 06:53,-115.1933,36.2111,667.00,94.00,52.00,24.20,250.00,13.00,0.00,29.82,1008.10,10.00,M,CLR,M,M,M,M,M,M,M,M,M,M,M,M,M,M,91.30,KVGT 100653Z AUTO 25013KT 10SM CLR 34/11 A2982 RMK AO2 SLP081 T03440111,M
LOL,2023-08-10 06:53,-118.5701,40.0684,1192.43,75.00,34.00,22.35,300.00,15.00,0.00,29.96,1009.70,10.00,21.00,CLR,M,M,M,M,M,M,M,M,M,M,M,M,M,M,75.00,KLOL 100653Z AUTO 30015G21KT 10SM CLR 24/01 A2996 RMK AO2 SLP097 T02390011,M
BVU,2023-08-10 06:55,-114.8611,35.9475,671.00,89.60,51.80,27.56,220.00,14.00,0.00,29.85,M,10.00,19.00,CLR,M,M,M,M,M,M,M,M,M,M,M,M,M,M,87.00,KBVU 100655Z AUTO 22014G19KT 10SM CLR 32/11 A2985 RMK AO2 LTG DSNT SW,M
CXP,2023-08-10 06:55,-119.7326,39.1923,1431.00,62.60,37.40,39.14,0.00,0.00,0.00,30.08,M,10.00,M,CLR,M,M,M,M,M,M,M,M,M,M,M,M,M,M,62.60,KCXP 100655Z AUTO 00000KT 10SM CLR 17/03 A3008 RMK AO2,M
RNO,2023-08-10 06:55,-119.7711,39.4839,1341.00,70.00,35.00,27.54,250.00,3.00,0.00,30.05,1011.80,10.00,M,CLR,M,M,M,M,M,M,M,M,M,M,M,M,M,M,70.00,KRNO 100655Z 25003KT 10SM CLR 21/02 A3005 RMK AO2 SLP118 T02110017,M
MEV,2023-08-10 06:55,-119.7500,38.9963,1441.42,55.40,39.20,54.34,90.00,8.00,0.00,30.07,M,10.00,M,FEW,M,M,M,4700.00,M,M,M,M,M,M,M,M,M,M,55.40,KMEV 100655Z AUTO 09008KT 10SM FEW047 13/04 A3007 RMK AO2,M
BAM,2023-08-10 06:55,-116.8743,40.5990,1382.36,59.00,26.60,28.77,150.00,8.00,0.00,29.99,M,10.00,M,CLR,M,M,M,M,M,M,M,M,M,M,M,M,M,M,59.00,KBAM 100655Z AUTO 15008KT 10SM CLR 15/M03 A2999 RMK AO1,M
HTH,2023-08-10 06:55,-118.6315,38.5448,1282.89,77.00,35.60,22.28,320.00,10.00,0.00,30.02,M,10.00,M,CLR,M,M,M,M,M,M,M,M,M,M,M,M,M,M,77.00,KHTH 100655Z AUTO 32010KT 10SM CLR 25/02 A3002 RMK A01,M
TMT,2023-08-10 06:55,-117.1971,39.4643,1749.34,52.00,27.00,37.72,0.00,0.00,0.00,30.11,M,M,M,CLR,M,M,M,M,M,M,M,M,M,M,M,M,M,M,52.00,KTMT 100655Z AUTO 00000KT CLR 11/M03 A3011 RMK AO2 T01111028 PWINO,M
INS,2023-08-10 06:55,-115.6733,36.5872,955.00,87.40,45.00,22.90,120.00,3.00,0.00,29.89,1006.50,10.00,M,BKN,OVC,M,M,13000.00,15000.00,M,M,M,M,M,M,M,M,M,84.23,KINS 100655Z AUTO 12003KT 10SM BKN130 OVC150 31/07 A2989 RMK AO2 SLP065 T03080073 $,M
LSV,2023-08-10 06:55,-115.0343,36.2362,570.00,92.70,51.60,24.83,190.00,16.00,0.00,29.78,1005.40,10.00,M,FEW,M,M,M,20000.00,M,M,M,M,M,M,M,M,M,M,89.91,KLSV 100655Z AUTO 19016KT 10SM FEW200 34/11 A2978 RMK AO2 SLP054 T03370109 $,M
EKO,2023-08-10 06:56,-115.7860,40.8242,1367.00,60.00,39.00,45.69,0.00,0.00,0.00,30.01,1010.60,10.00,M,CLR,M,M,M,M,M,M,M,M,M,M,M,M,M,M,60.00,KEKO 100656Z AUTO 00000KT 10SM CLR 16/04 A3001 RMK AO2 SLP106 T01560039,M
WMC,2023-08-10 06:56,-117.8072,40.9019,1315.00,69.00,29.00,22.37,260.00,9.00,0.00,29.97,1009.40,10.00,M,CLR,M,M,M,M,M,M,M,M,M,M,M,M,M,M,69.00,KWMC 100656Z AUTO 26009KT 10SM CLR 21/M02 A2997 RMK AO2 SLP094 T02061017,M
NFL,2023-08-10 06:56,-118.7010,39.4166,1199.00,68.00,32.00,26.15,270.00,5.00,0.00,29.99,1012.70,10.00,M,CLR,M,M,M,M,M,M,M,M,M,M,M,M,M,M,68.00,KNFL 100656Z AUTO 27005KT 10SM CLR 20/00 A2999 RMK AO2 SLP127 T02000000,M
HND,2023-08-10 06:56,-115.1344,35.9729,742.79,89.00,54.00,30.45,200.00,13.00,0.00,29.89,1010.00,10.00,M,CLR,M,M,M,M,M,M,M,M,M,M,M,M,M,M,86.89,KHND 100656Z AUTO 20013KT 10SM CLR 32/12 A2989 RMK AO2 LTG DSNT S SLP100 T03170122 403830283,M
TPH,2023-08-10 06:56,-117.0904,38.0505,1654.00,68.00,32.00,26.15,120.00,7.00,0.00,30.07,1009.80,10.00,M,CLR,M,M,M,M,M,M,M,M,M,M,M,M,M,M,68.00,KTPH 100656Z AUTO 12007KT 10SM CLR 20/00 A3007 RMK AO2 SLP098 T02000000,M
LAS,2023-08-10 06:56,-115.1634,36.0719,663.00,91.00,51.00,25.61,230.00,8.00,0.00,29.84,1007.30,10.00,M,OVC,M,M,M,15000.00,M,M,M,M,M,M,M,M,M,M,88.16,KLAS 100656Z 23008KT 10SM OVC150 33/11 A2984 RMK AO2 SLP073 VIRGA DSNT W-N T03280106,M
RTS,2023-08-10 07:04,-119.8764,39.6682,1539.00,57.20,32.00,38.26,290.00,6.00,0.00,30.11,M,10.00,M,CLR,M,M,M,M,M,M,M,M,M,M,M,M,M,M,57.20,KRTS 100704Z AUTO 29006KT 10SM CLR 14/M00 A3011 RMK AO2,M
LAS,2023-08-10 07:08,-115.1634,36.0719,663.00,91.00,51.00,25.61,210.00,7.00,0.00,29.84,M,10.00,M,SCT,OVC,M,M,11000.00,15000.00,M,M,M,M,M,M,M,M,M,88.16,KLAS 100708Z 21007KT 10SM SCT110 OVC150 33/11 A2984 RMK AO2 T03280106,M
05U,2023-08-10 07:10,-116.0051,39.6042,1811.23,57.20,33.80,41.13,M,M,0.00,30.11,M,10.00,M,M,M,M,M,M,M,M,M,M,M,M,M,M,M,M,57.20,K05U 100710Z AUTO 10SM 14/01 A3011 RMK A01,M
BVU,2023-08-10 07:15,-114.8611,35.9475,671.00,89.60,51.80,27.56,230.00,13.00,0.00,29.85,M,10.00,M,CLR,M,M,M,M,M,M,M,M,M,M,M,M,M,M,87.00,KBVU 100715Z AUTO 23013KT 10SM CLR 32/11 A2985 RMK AO2,M
CXP,2023-08-10 07:15,-119.7326,39.1923,1431.00,62.60,37.40,39.14,0.00,0.00,0.00,30.09,M,10.00,M,CLR,M,M,M,M,M,M,M,M,M,M,M,M,M,M,62.60,KCXP 100715Z AUTO 00000KT 10SM CLR 17/03 A3009 RMK AO2,M
MEV,2023-08-10 07:15,-119.7500,38.9963,1441.42,53.60,39.20,58.02,90.00,9.00,0.00,30.07,M,10.00,M,FEW,M,M,M,4800.00,M,M,M,M,M,M,M,M,M,M,53.60,KMEV 100715Z AUTO 09009KT 10SM FEW048 12/04 A3007 RMK AO2,M
HTH,2023-08-10 07:15,-118.6315,38.5448,1282.89,75.20,35.60,23.66,310.00,9.00,0.00,30.02,M,10.00,M,CLR,M,M,M,M,M,M,M,M,M,M,M,M,M,M,75.20,KHTH 100715Z AUTO 31009KT 10SM CLR 24/02 A3002 RMK A01,M
BAM,2023-08-10 07:15,-116.8743,40.5990,1382.36,60.80,28.40,29.06,130.00,9.00,0.00,30.00,M,10.00,M,CLR,M,M,M,M,M,M,M,M,M,M,M,M,M,M,60.80,KBAM 100715Z AUTO 13009KT 10SM CLR 16/M02 A3000 RMK AO1,M
TMT,2023-08-10 07:15,-117.1971,39.4643,1749.34,51.60,28.40,40.55,290.00,5.00,0.00,30.11,M,M,M,CLR,M,M,M,M,M,M,M,M,M,M,M,M,M,M,51.60,KTMT 100715Z AUTO 29005KT CLR 11/M02 A3011 RMK AO2 T01091020 PWINO,M
RTS,2023-08-10 07:24,-119.8764,39.6682,1539.00,55.40,32.00,40.84,290.00,7.00,0.00,30.12,M,10.00,M,CLR,M,M,M,M,M,M,M,M,M,M,M,M,M,M,55.40,KRTS 100724Z AUTO 29007KT 10SM CLR 13/M00 A3012 RMK AO2,M
05U,2023-08-10 07:30,-116.0051,39.6042,1811.23,57.20,33.80,41.13,M,M,0.00,30.11,M,10.00,M,M,M,M,M,M,M,M,M,M,M,M,M,M,M,M,57.20,K05U 100730Z AUTO 10SM 14/01 A3011 RMK A01,M
BVU,2023-08-10 07:35,-114.8611,35.9475,671.00,89.60,50.00,25.79,250.00,6.00,0.00,29.84,M,10.00,12.00,FEW,FEW,M,M,9000.00,11000.00,M,M,M,M,M,M,M,M,M,86.70,KBVU 100735Z AUTO 25006G12KT 10SM FEW090 FEW110 32/10 A2984 RMK AO2,M
CXP,2023-08-10 07:35,-119.7326,39.1923,1431.00,62.60,37.40,39.14,0.00,0.00,0.00,30.09,M,10.00,M,CLR,M,M,M,M,M,M,M,M,M,M,M,M,M,M,62.60,KCXP 100735Z AUTO 00000KT 10SM CLR 17/03 A3009 RMK AO2,M
MEV,2023-08-10 07:35,-119.7500,38.9963,1441.42,55.40,41.00,58.27,80.00,3.00,0.00,30.07,M,10.00,M,CLR,M,M,M,M,M,M,M,M,M,M,M,M,M,M,55.40,KMEV 100735Z AUTO 08003KT 10SM CLR 13/05 A3007 RMK AO2,M
HTH,2023-08-10 07:35,-118.6315,38.5448,1282.89,75.20,33.80,22.02,320.00,11.00,0.00,30.02,M,10.00,M,CLR,M,M,M,M,M,M,M,M,M,M,M,M,M,M,75.20,KHTH 100735Z AUTO 32011KT 10SM CLR 24/01 A3002 RMK A01,M
BAM,2023-08-10 07:35,-116.8743,40.5990,1382.36,59.00,28.40,30.98,180.00,3.00,0.00,30.00,M,10.00,M,CLR,M,M,M,M,M,M,M,M,M,M,M,M,M,M,59.00,KBAM 100735Z AUTO 18003KT 10SM CLR 15/M02 A3000 RMK AO1,M
TMT,2023-08-10 07:35,-117.1971,39.4643,1749.34,49.50,28.80,44.56,0.00,0.00,0.00,30.11,M,M,M,CLR,M,M,M,M,M,M,M,M,M,M,M,M,M,M,49.50,KTMT 100735Z AUTO 00000KT CLR 10/M02 A3011 RMK AO2 T00971018 PWINO,M
RTS,2023-08-10 07:44,-119.8764,39.6682,1539.00,53.60,30.20,40.54,290.00,5.00,0.00,30.12,M,10.00,M,CLR,M,M,M,M,M,M,M,M,M,M,M,M,M,M,53.60,KRTS 100744Z AUTO 29005KT 10SM CLR 12/M01 A3012 RMK AO2,M
P68,2023-08-10 07:53,-116.0056,39.6014,1993.00,57.00,33.00,40.12,180.00,4.00,0.00,30.09,1010.20,M,M,M,M,M,M,M,M,M,M,M,M,M,M,M,M,M,57.00,KP68 100753Z AUTO 18004KT 14/01 A3009 RMK AO1 SLP102 T01390006 403280094,M
DRA,2023-08-10 07:53,-116.0278,36.6206,1009.00,83.00,50.00,31.83,240.00,12.00,0.00,29.91,1007.10,10.00,17.00,CLR,M,M,M,M,M,M,M,M,M,M,M,M,M,M,81.39,KDRA 100753Z AUTO 24012G17KT 10SM CLR 28/10 A2991 RMK AO2 SLP071 T02830100 403560200,M
ELY,2023-08-10 07:53,-114.8453,39.2950,1909.00,64.00,36.00,35.26,190.00,10.00,0.00,30.11,1008.10,10.00,M,CLR,M,M,M,M,M,M,M,M,M,M,M,M,M,M,64.00,KELY 100753Z AUTO 19010KT 10SM CLR 18/02 A3011 RMK AO2 SLP081 T01780022 403110067,M
VGT,2023-08-10 07:53,-115.1933,36.2111,667.00,92.00,52.00,25.76,180.00,10.00,0.00,29.82,1008.10,10.00,16.00,CLR,M,M,M,M,M,M,M,M,M,M,M,M,M,M,89.31,KVGT 100753Z AUTO 18010G16KT 10SM CLR 33/11 A2982 RMK AO2 SLP081 T03330111 403940278,M
LOL,2023-08-10 07:53,-118.5701,40.0684,1192.43,75.00,34.00,22.35,M,6.00,0.00,29.98,1010.30,10.00,M,CLR,M,M,M,M,M,M,M,M,M,M,M,M,M,M,75.00,KLOL 100753Z AUTO VRB06KT 10SM CLR 24/01 A2998 RMK AO2 SLP103 T02390011 403440111,M
BVU,2023-08-10 07:55,-114.8611,35.9475,671.00,89.60,50.00,25.79,190.00,4.00,0.00,29.84,M,10.00,M,FEW,SCT,BKN,M,5500.00,7500.00,11000.00,M,TS,M,M,M,M,M,M,86.70,KBVU 100755Z AUTO 19004KT 10SM TS FEW055 SCT075 BKN110 32/10 A2984 RMK AO2 LTG DSNT SE,M
CXP,2023-08-10 07:55,-119.7326,39.1923,1431.00,59.00,39.20,47.72,0.00,0.00,0.00,30.09,M,10.00,M,CLR,M,M,M,M,M,M,M,M,M,M,M,M,M,M,59.00,KCXP 100755Z AUTO 00000KT 10SM CLR 15/04 A3009 RMK AO2,M
RNO,2023-08-10 07:55,-119.7711,39.4839,1341.00,68.00,34.00,28.34,250.00,4.00,0.00,30.06,1012.10,10.00,M,CLR,M,M,M,M,M,M,M,M,M,M,M,M,M,M,68.00,KRNO 100755Z 25004KT 10SM CLR 20/01 A3006 RMK AO2 SLP121 T02000011 403330156,M
05U,2023-08-10 07:55,-116.0051,39.6042,1811.23,57.20,32.00,38.26,M,M,0.00,30.11,M,10.00,M,M,M,M,M,M,M,M,M,M,M,M,M,M,M,M,57.20,K05U 100755Z AUTO 10SM 14/00 A3011 RMK A01,M
MEV,2023-08-10 07:55,-119.7500,38.9963,1441.42,51.80,39.20,61.99,0.00,0.00,0.00,30.08,M,10.00,M,CLR,M,M,M,M,M,M,M,M,M,M,M,M,M,M,51.80,KMEV 100755Z AUTO 00000KT 10SM CLR 11/04 A3008 RMK AO2,M
BAM,2023-08-10 07:55,-116.8743,40.5990,1382.36,60.80,28.40,29.06,190.00,4.00,0.00,30.00,M,10.00,M,CLR,M,M,M,M,M,M,M,M,M,M,M,M,M,M,60.80,KBAM 100755Z AUTO 19004KT 10SM CLR 16/M02 A3000 RMK AO1,M
HTH,2023-08-10 07:55,-118.6315,38.5448,1282.89,73.40,32.00,21.76,320.00,10.00,0.00,30.03,M,10.00,M,CLR,M,M,M,M,M,M,M,M,M,M,M,M,M,M,73.40,KHTH 100755Z AUTO 32010KT 10SM CLR 23/M00 A3003 RMK A01,M
TMT,2023-08-10 07:55,-117.1971,39.4643,1749.34,45.50,26.00,46.15,0.00,0.00,0.00,30.11,M,M,M,CLR,M,M,M,M,M,M,M,M,M,M,M,M,M,M,45.50,KTMT 100755Z AUTO 00000KT CLR 08/M03 A3011 RMK AO2 T00751034 403200034 PWINO,M
INS,2023-08-10 07:55,-115.6733,36.5872,955.00,85.30,46.40,25.83,10.00,3.00,0.00,29.89,1006.50,10.00,M,BKN,M,M,M,14000.00,M,M,M,M,M,M,M,M,M,M,82.68,KINS 100755Z AUTO 01003KT 10SM BKN140 30/08 A2989 RMK AO2 SLP065 T02960080 403560179 $,M
LSV,2023-08-10 07:55,-115.0343,36.2362,570.00,91.80,50.00,24.07,180.00,12.00,0.00,29.77,1005.00,10.00,M,FEW,FEW,M,M,9000.00,19000.00,M,M,M,M,M,M,M,M,M,88.75,KLSV 100755Z AUTO 18012KT 10SM FEW090 FEW190 33/10 A2977 RMK AO2 LTG DSNT SE SLP050 T03320099 403990277 $,M
EKO,2023-08-10 07:56,-115.7860,40.8242,1367.00,60.00,35.00,39.03,0.00,0.00,0.00,30.02,1010.40,10.00,M,CLR,M,M,M,M,M,M,M,M,M,M,M,M,M,M,60.00,KEKO 100756Z AUTO 00000KT 10SM CLR 16/02 A3002 RMK AO2 SLP104 T01560017 403330094,M
WMC,2023-08-10 07:56,-117.8072,40.9019,1315.00,69.00,32.00,25.27,330.00,5.00,0.00,29.98,1009.50,10.00,M,CLR,M,M,M,M,M,M,M,M,M,M,M,M,M,M,69.00,KWMC 100756Z AUTO 33005KT 10SM CLR 21/00 A2998 RMK AO2 SLP095 T02060000 403390106,M
NFL,2023-08-10 07:56,-118.7010,39.4166,1199.00,63.00,32.00,31.12,60.00,4.00,0.00,30.00,1013.10,10.00,M,CLR,M,M,M,M,M,M,M,M,M,M,M,M,M,M,63.00,KNFL 100756Z AUTO 06004KT 10SM CLR 17/00 A3000 RMK AO2 SLP131 T01720000 403500133,M
HND,2023-08-10 07:56,-115.1344,35.9729,742.79,87.00,54.00,32.45,190.00,11.00,T,29.88,1009.90,10.00,M,CLR,M,M,M,M,M,M,M,M,M,M,M,M,M,M,85.10,KHND 100756Z AUTO 19011KT 10SM CLR 31/12 A2988 RMK AO2 LTG DSNT E AND SE RAB06E16 SLP099 P0000 T03060122,M
TPH,2023-08-10 07:56,-117.0904,38.0505,1654.00,64.00,32.00,30.05,0.00,0.00,0.00,30.07,1010.00,10.00,M,CLR,M,M,M,M,M,M,M,M,M,M,M,M,M,M,64.00,KTPH 100756Z AUTO 00000KT 10SM CLR 18/00 A3007 RMK AO2 SLP100 T01780000 403280139,M
LAS,2023-08-10 07:56,-115.1634,36.0719,663.00,89.00,53.00,29.36,210.00,6.00,0.00,29.84,1007.10,10.00,M,FEW,BKN,OVC,M,11000.00,15000.00,20000.00,M,M,M,M,M,M,M,M,86.68,KLAS 100756Z 21006KT 10SM FEW110 BKN150 OVC200 32/12 A2984 RMK AO2 LTG DSNT SE SLP071 T03170117 403890289,M
RTS,2023-08-10 08:04,-119.8764,39.6682,1539.00,55.40,30.20,37.97,310.00,9.00,0.00,30.11,M,10.00,M,CLR,M,M,M,M,M,M,M,M,M,M,M,M,M,M,55.40,KRTS 100804Z AUTO 31009KT 10SM CLR 13/M01 A3011 RMK AO2,M
05U,2023-08-10 08:10,-116.0051,39.6042,1811.23,53.60,32.00,43.61,M,M,0.00,30.12,M,10.00,M,M,M,M,M,M,M,M,M,M,M,M,M,M,M,M,53.60,K05U 100810Z AUTO 10SM 12/M00 A3012 RMK A01,M
BVU,2023-08-10 08:15,-114.8611,35.9475,671.00,89.60,50.00,25.79,270.00,4.00,0.00,29.83,M,10.00,M,FEW,FEW,FEW,M,7500.00,9500.00,11000.00,M,VCTS,M,M,M,M,M,M,86.70,KBVU 100815Z AUTO 27004KT 10SM VCTS FEW075 FEW095 FEW110 32/10 A2983 RMK AO2 LTG DSNT SE,M
CXP,2023-08-10 08:15,-119.7326,39.1923,1431.00,59.00,39.20,47.72,0.00,0.00,0.00,30.09,M,10.00,M,CLR,M,M,M,M,M,M,M,M,M,M,M,M,M,M,59.00,KCXP 100815Z AUTO 00000KT 10SM CLR 15/04 A3009 RMK AO2,M
MEV,2023-08-10 08:15,-119.7500,38.9963,1441.42,48.20,37.40,66.05,130.00,4.00,0.00,30.08,M,10.00,M,CLR,M,M,M,M,M,M,M,M,M,M,M,M,M,M,46.34,KMEV 100815Z AUTO 13004KT 10SM CLR 09/03 A3008 RMK AO2,M
BAM,2023-08-10 08:15,-116.8743,40.5990,1382.36,59.00,26.60,28.77,180.00,7.00,0.00,30.01,M,10.00,M,CLR,M,M,M,M,M,M,M,M,M,M,M,M,M,M,59.00,KBAM 100815Z AUTO 18007KT 10SM CLR 15/M03 A3001 RMK AO1,M
HTH,2023-08-10 08:15,-118.6315,38.5448,1282.89,71.60,33.80,24.86,320.00,8.00,0.00,30.03,M,10.00,M,CLR,M,M,M,M,M,M,M,M,M,M,M,M,M,M,71.60,KHTH 100815Z AUTO 32008KT 10SM CLR 22/01 A3003 RMK A01,M
TMT,2023-08-10 08:15,-117.1971,39.4643,1749.34,43.50,26.20,50.22,170.00,4.00,0.00,30.11,M,M,M,CLR,M,M,M,M,M,M,M,M,M,M,M,M,M,M,40.85,KTMT 100815Z AUTO 17004KT CLR 06/M03 A3011 RMK AO2 T00641032 PWINO,M
RTS,2023-08-10 08:24,-119.8764,39.6682,1539.00,55.40,30.20,37.97,300.00,7.00,0.00,30.11,M,10.00,M,CLR,M,M,M,M,M,M,M,M,M,M,M,M,M,M,55.40,KRTS 100824Z AUTO 30007KT 10SM CLR 13/M01 A3011 RMK AO2,M
BVU,2023-08-10 08:35,-114.8611,35.9475,671.00,87.80,50.00,27.29,0.00,0.00,0.00,29.84,M,10.00,M,CLR,M,M,M,M,M,M,M,M,M,M,M,M,M,M,85.11,KBVU 100835Z AUTO 00000KT 10SM CLR 31/10 A2984 RMK AO2,M
CXP,2023-08-10 08:35,-119.7326,39.1923,1431.00,59.00,39.20,47.72,0.00,0.00,0.00,30.09,M,10.00,M,CLR,M,M,M,M,M,M,M,M,M,M,M,M,M,M,59.00,KCXP 100835Z AUTO 00000KT 10SM CLR 15/04 A3009 RMK AO2,M
05U,2023-08-10 08:35,-116.0051,39.6042,1811.23,50.00,33.80,53.54,M,M,0.00,30.12,M,10.00,M,M,M,M,M,M,M,M,M,M,M,M,M,M,M,M,50.00,K05U 100835Z AUTO 10SM 10/01 A3012 RMK A01,M
MEV,2023-08-10 08:35,-119.7500,38.9963,1441.42,48.20,35.60,61.52,120.00,7.00,0.00,30.08,M,10.00,M,CLR,M,M,M,M,M,M,M,M,M,M,M,M,M,M,44.53,KMEV 100835Z AUTO 12007KT 10SM CLR 09/02 A3008 RMK AO2,M
BAM,2023-08-10 08:35,-116.8743,40.5990,1382.36,59.00,28.40,30.98,200.00,5.00,0.00,30.01,M,10.00,M,CLR,M,M,M,M,M,M,M,M,M,M,M,M,M,M,59.00,KBAM 100835Z AUTO 20005KT 10SM CLR 15/M02 A3001 RMK AO1,M
HTH,2023-08-10 08:35,-118.6315,38.5448,1282.89,71.60,33.80,24.86,330.00,8.00,0.00,30.03,M,10.00,M,CLR,M,M,M,M,M,M,M,M,M,M,M,M,M,M,71.60,KHTH 100835Z AUTO 33008KT 10SM CLR 22/01 A3003 RMK A01,M
TMT,2023-08-10 08:35,-117.1971,39.4643,1749.34,43.00,26.00,50.77,160.00,4.00,0.00,30.11,M,M,M,CLR,M,M,M,M,M,M,M,M,M,M,M,M,M,M,40.27,KTMT 100835Z AUTO 16004KT CLR 06/M03 A3011 RMK AO2 T00611033 PWINO,M
RTS,2023-08-10 08:44,-119.8764,39.6682,1539.00,53.60,30.20,40.54,340.00,8.00,0.00,30.11,M,10.00,M,CLR,M,M,M,M,M,M,M,M,M,M,M,M,M,M,53.60,KRTS 100844Z AUTO 34008KT 10SM CLR 12/M01 A3011 RMK AO2,M
05U,2023-08-10 08:50,-116.0051,39.6042,1811.23,51.80,32.00,46.59,M,M,0.00,30.12,M,10.00,M,M,M,M,M,M,M,M,M,M,M,M,M,M,M,M,51.80,K05U 100850Z AUTO 10SM 11/00 A3012 RMK A01,M
P68,2023-08-10 08:53,-116.0056,39.6014,1993.00,53.00,32.00,44.58,180.00,6.00,0.00,30.10,1010.70,M,M,M,M,M,M,M,M,M,M,M,M,M,M,M,M,M,53.00,KP68 100853Z AUTO 18006KT 12/00 A3010 RMK AO1 SLP107 T01170000 51008,M
DRA,2023-08-10 08:53,-116.0278,36.6206,1009.00,81.00,51.00,35.25,230.00,8.00,0.00,29.91,1007.30,10.00,M,CLR,M,M,M,M,M,M,M,M,M,M,M,M,M,M,80.22,KDRA 100853Z AUTO 23008KT 10SM CLR 27/11 A2991 RMK AO2 SLP073 T02720106 55002,M
ELY,2023-08-10 08:53,-114.8453,39.2950,1909.00,62.00,34.00,34.93,260.00,5.00,0.00,30.12,1008.70,10.00,M,CLR,M,M,M,M,M,M,M,M,M,M,M,M,M,M,62.00,KELY 100853Z AUTO 26005KT 10SM CLR 17/01 A3012 RMK AO2 SLP087 T01670011 51002,M
VGT,2023-08-10 08:53,-115.1933,36.2111,667.00,91.00,53.00,27.57,180.00,9.00,0.00,29.82,1008.10,10.00,M,CLR,M,M,M,M,M,M,M,M,M,M,M,M,M,M,88.55,KVGT 100853Z AUTO 18009KT 10SM CLR 33/12 A2982 RMK AO2 SLP081 T03280117 51003,M
LOL,2023-08-10 08:53,-118.5701,40.0684,1192.43,62.00,36.00,37.83,140.00,6.00,0.00,30.00,1011.80,10.00,M,CLR,M,M,M,M,M,M,M,M,M,M,M,M,M,M,62.00,KLOL 100853Z AUTO 14006KT 10SM CLR 17/02 A3000 RMK AO2 SLP118 T01670022 53014,M
BVU,2023-08-10 08:55,-114.8611,35.9475,671.00,87.80,50.00,27.29,0.00,0.00,0.00,29.83,M,10.00,M,FEW,M,M,M,10000.00,M,M,M,M,M,M,M,M,M,M,85.11,KBVU 100855Z AUTO 00000KT 10SM FEW100 31/10 A2983 RMK AO2,M
CXP,2023-08-10 08:55,-119.7326,39.1923,1431.00,57.20,39.20,50.91,180.00,4.00,0.00,30.09,M,10.00,M,CLR,M,M,M,M,M,M,M,M,M,M,M,M,M,M,57.20,KCXP 100855Z AUTO 18004KT 10SM CLR 14/04 A3009 RMK AO2,M
RNO,2023-08-10 08:55,-119.7711,39.4839,1341.00,65.00,35.00,32.72,0.00,0.00,0.00,30.07,1012.30,10.00,M,CLR,M,M,M,M,M,M,M,M,M,M,M,M,M,M,65.00,KRNO 100855Z 00000KT 10SM CLR 18/02 A3007 RMK AO2 SLP123 T01830017 52005,M
MEV,2023-08-10 08:55,-119.7500,38.9963,1441.42,50.00,37.40,61.76,100.00,4.00,0.00,30.08,M,10.00,M,CLR,M,M,M,M,M,M,M,M,M,M,M,M,M,M,50.00,KMEV 100855Z AUTO 10004KT 10SM CLR 10/03 A3008 RMK AO2,M
BAM,2023-08-10 08:55,-116.8743,40.5990,1382.36,57.20,28.40,33.05,230.00,5.00,0.00,30.01,M,10.00,M,CLR,M,M,M,M,M,M,M,M,M,M,M,M,M,M,57.20,KBAM 100855Z AUTO 23005KT 10SM CLR 14/M02 A3001 RMK AO1,M
HTH,2023-08-10 08:55,-118.6315,38.5448,1282.89,71.60,39.20,30.77,330.00,8.00,0.00,30.03,M,10.00,M,CLR,M,M,M,M,M,M,M,M,M,M,M,M,M,M,71.60,KHTH 100855Z AUTO 33008KT 10SM CLR 22/04 A3003 RMK A01,M
TMT,2023-08-10 08:55,-117.1971,39.4643,1749.34,43.00,28.00,55.14,160.00,3.00,0.00,30.11,M,M,M,CLR,M,M,M,M,M,M,M,M,M,M,M,M,M,M,41.26,KTMT 100855Z AUTO 16003KT CLR 06/M02 A3011 RMK AO2 T00611023 PWINO,M
INS,2023-08-10 08:55,-115.6733,36.5872,955.00,81.70,41.40,23.96,150.00,3.00,0.00,29.89,1007.00,10.00,M,FEW,M,M,M,13000.00,M,M,M,M,M,M,M,M,M,M,79.87,KINS 100855Z AUTO 15003KT 10SM FEW130 28/05 A2989 RMK AO2 SLP070 T02760052 50004 $,M
LSV,2023-08-10 08:55,-115.0343,36.2362,570.00,89.80,52.30,27.90,180.00,12.00,0.00,29.78,1005.40,10.00,M,BKN,M,M,M,14000.00,M,M,M,M,M,M,M,M,M,M,87.28,KLSV 100855Z AUTO 18012KT 10SM BKN140 32/11 A2978 RMK AO2 SLP054 T03210113 50003 $,M
EKO,2023-08-10 08:56,-115.7860,40.8242,1367.00,54.00,35.00,48.46,0.00,0.00,0.00,30.02,1011.20,10.00,M,CLR,M,M,M,M,M,M,M,M,M,M,M,M,M,M,54.00,KEKO 100856Z AUTO 00000KT 10SM CLR 12/02 A3002 RMK AO2 SLP112 T01220017 51006,M
WMC,2023-08-10 08:56,-117.8072,40.9019,1315.00,64.00,31.00,28.86,340.00,7.00,0.00,29.99,1010.00,10.00,M,CLR,M,M,M,M,M,M,M,M,M,M,M,M,M,M,64.00,KWMC 100856Z AUTO 34007KT 10SM CLR 18/M01 A2999 RMK AO2 SLP100 T01781006 51009,M
NFL,2023-08-10 08:56,-118.7010,39.4166,1199.00,62.00,31.00,30.96,0.00,0.00,0.00,30.01,1013.30,10.00,M,CLR,M,M,M,M,M,M,M,M,M,M,M,M,M,M,62.00,KNFL 100856Z AUTO 00000KT 10SM CLR 17/M01 A3001 RMK AO2 SLP133 T01671006 51013,M
HND,2023-08-10 08:56,-115.1344,35.9729,742.79,87.00,53.00,31.28,200.00,10.00,0.00,29.88,1010.00,10.00,M,FEW,M,M,M,12000.00,M,M,M,M,M,M,M,M,M,M,84.91,KHND 100856Z AUTO 20010KT 10SM FEW120 31/12 A2988 RMK AO2 SLP100 60000 T03060117 56003,M
TPH,2023-08-10 08:56,-117.0904,38.0505,1654.00,61.00,31.00,32.08,320.00,6.00,0.00,30.08,1010.50,10.00,M,CLR,M,M,M,M,M,M,M,M,M,M,M,M,M,M,61.00,KTPH 100856Z AUTO 32006KT 10SM CLR 16/M01 A3008 RMK AO2 SLP105 T01611006 51003,M
LAS,2023-08-10 08:56,-115.1634,36.0719,663.00,89.00,53.00,29.36,200.00,9.00,0.00,29.83,1006.90,10.00,16.00,OVC,M,M,M,14000.00,M,M,M,M,M,M,M,M,M,M,86.68,KLAS 100856Z 20009G16KT 10SM OVC140 32/12 A2983 RMK AO2 SLP069 T03170117 58002,M
RTS,2023-08-10 09:04,-119.8764,39.6682,1539.00,55.40,28.40,35.28,320.00,6.00,0.00,30.11,M,10.00,M,CLR,M,M,M,M,M,M,M,M,M,M,M,M,M,M,55.40,KRTS 100904Z AUTO 32006KT 10SM CLR 13/M02 A3011 RMK AO2,M
05U,2023-08-10 09:10,-116.0051,39.6042,1811.23,53.60,32.00,43.61,M,M,0.00,30.12,M,10.00,M,M,M,M,M,M,M,M,M,M,M,M,M,M,M,M,53.60,K05U 100910Z AUTO 10SM 12/M00 A3012 RMK A01,M
BVU,2023-08-10 09:15,-114.8611,35.9475,671.00,87.80,50.00,27.29,180.00,6.00,0.00,29.83,M,10.00,M,FEW,M,M,M,10000.00,M,M,M,M,M,M,M,M,M,M,85.11,KBVU 100915Z AUTO 18006KT 10SM FEW100 31/10 A2983 RMK AO2,M
CXP,2023-08-10 09:15,-119.7326,39.1923,1431.00,59.00,39.20,47.72,0.00,0.00,0.00,30.09,M,10.00,M,CLR,M,M,M,M,M,M,M,M,M,M,M,M,M,M,59.00,KCXP 100915Z AUTO 00000KT 10SM CLR 15/04 A3009 RMK AO2,M
MEV,2023-08-10 09:15,-119.7500,38.9963,1441.42,51.80,37.40,57.77,M,4.00,0.00,30.08,M,10.00,M,CLR,M,M,M,M,M,M,M,M,M,M,M,M,M,M,51.80,KMEV 100915Z AUTO VRB04KT 10SM CLR 11/03 A3008 RMK AO2,M
BAM,2023-08-10 09:15,-116.8743,40.5990,1382.36,59.00,28.40,30.98,230.00,3.00,0.00,30.01,M,10.00,M,CLR,M,M,M,M,M,M,M,M,M,M,M,M,M,M,59.00,KBAM 100915Z AUTO 23003KT 10SM CLR 15/M02 A3001 RMK AO1,M
HTH,2023-08-10 09:15,-118.6315,38.5448,1282.89,69.80,41.00,35.09,330.00,10.00,0.00,30.02,M,10.00,M,CLR,M,M,M,M,M,M,M,M,M,M,M,M,M,M,69.80,KHTH 100915Z AUTO 33010KT 10SM CLR 21/05 A3002 RMK A01,M
TMT,2023-08-10 09:15,-117.1971,39.4643,1749.34,44.00,28.00,53.07,0.00,0.00,0.00,30.11,M,M,M,CLR,M,M,M,M,M,M,M,M,M,M,M,M,M,M,44.00,KTMT 100915Z AUTO 00000KT CLR 07/M02 A3011 RMK AO2 T00671023 PWINO,M
RTS,2023-08-10 09:24,-119.8764,39.6682,1539.00,55.40,28.40,35.28,350.00,6.00,0.00,30.11,M,10.00,M,CLR,M,M,M,M,M,M,M,M,M,M,M,M,M,M,55.40,KRTS 100924Z AUTO 35006KT 10SM CLR 13/M02 A3011 RMK AO2,M
INS,2023-08-10 09:29,-115.6733,36.5872,955.00,80.60,42.80,26.22,320.00,4.00,0.00,29.89,1007.00,10.00,M,OVC,M,M,M,12000.00,M,M,M,-DZ,M,M,M,M,M,M,79.30,KINS 100929Z AUTO 32004KT 10SM -DZ OVC120 27/06 A2989 RMK AO2 DZB29 SLP070 $,M
BVU,2023-08-10 09:35,-114.8611,35.9475,671.00,86.00,50.00,28.90,0.00,0.00,0.00,29.84,M,10.00,M,CLR,M,M,M,M,M,M,M,M,M,M,M,M,M,M,83.62,KBVU 100935Z AUTO 00000KT 10SM CLR 30/10 A2984 RMK AO2,M
CXP,2023-08-10 09:35,-119.7326,39.1923,1431.00,55.40,39.20,54.34,0.00,0.00,0.00,30.09,M,10.00,M,CLR,M,M,M,M,M,M,M,M,M,M,M,M,M,M,55.40,KCXP 100935Z AUTO 00000KT 10SM CLR 13/04 A3009 RMK AO2,M
05U,2023-08-10 09:35,-116.0051,39.6042,1811.23,55.40,30.20,37.97,M,M,0.00,30.12,M,10.00,M,M,M,M,M,M,M,M,M,M,M,M,M,M,M,M,55.40,K05U 100935Z AUTO 10SM 13/M01 A3012 RMK A01,M
MEV,2023-08-10 09:35,-119.7500,38.9963,1441.42,50.00,37.40,61.76,70.00,5.00,0.00,30.08,M,10.00,M,FEW,FEW,M,M,3900.00,4800.00,M,M,M,M,M,M,M,M,M,50.00,KMEV 100935Z AUTO 07005KT 10SM FEW039 FEW048 10/03 A3008 RMK AO2,M
BAM,2023-08-10 09:35,-116.8743,40.5990,1382.36,60.80,30.20,31.28,240.00,9.00,0.00,30.01,M,10.00,M,CLR,M,M,M,M,M,M,M,M,M,M,M,M,M,M,60.80,KBAM 100935Z AUTO 24009KT 10SM CLR 16/M01 A3001 RMK AO1,M
HTH,2023-08-10 09:35,-118.6315,38.5448,1282.89,68.00,41.00,37.32,310.00,4.00,0.00,30.03,M,10.00,M,CLR,M,M,M,M,M,M,M,M,M,M,M,M,M,M,68.00,KHTH 100935Z AUTO 31004KT 10SM CLR 20/05 A3003 RMK A01,M
TMT,2023-08-10 09:35,-117.1971,39.4643,1749.34,45.00,25.30,45.69,0.00,0.00,0.00,30.11,M,M,M,CLR,M,M,M,M,M,M,M,M,M,M,M,M,M,M,45.00,KTMT 100935Z AUTO 00000KT CLR 07/M04 A3011 RMK AO2 T00731037 PWINO,M
INS,2023-08-10 09:38,-115.6733,36.5872,955.00,78.80,44.60,29.79,360.00,3.00,0.00,29.89,1007.00,10.00,M,OVC,M,M,M,11000.00,M,M,M,M,M,M,M,M,M,M,78.80,KINS 100938Z AUTO 36003KT 10SM OVC110 26/07 A2989 RMK AO2 DZB29E38 SLP070 $,M
RTS,2023-08-10 09:44,-119.8764,39.6682,1539.00,51.80,28.40,40.25,330.00,8.00,0.00,30.11,M,10.00,M,CLR,M,M,M,M,M,M,M,M,M,M,M,M,M,M,51.80,KRTS 100944Z AUTO 33008KT 10SM CLR 11/M02 A3011 RMK AO2,M
05U,2023-08-10 09:50,-116.0051,39.6042,1811.23,51.80,32.00,46.59,M,M,0.00,30.12,M,10.00,M,M,M,M,M,M,M,M,M,M,M,M,M,M,M,M,51.80,K05U 100950Z AUTO 10SM 11/M00 A3012 RMK A01,M
P68,2023-08-10 09:53,-116.0056,39.6014,1993.00,51.00,32.00,47.99,200.00,7.00,0.00,30.10,1010.90,M,M,M,M,M,M,M,M,M,M,M,M,M,M,M,M,M,51.00,KP68 100953Z AUTO 20007KT 11/00 A3010 RMK AO1 SLP109 T01060000,M
DRA,2023-08-10 09:53,-116.0278,36.6206,1009.00,83.00,49.00,30.67,210.00,15.00,0.00,29.90,1006.80,10.00,M,CLR,M,M,M,M,M,M,M,M,M,M,M,M,M,M,81.28,KDRA 100953Z AUTO 21015KT 10SM CLR 28/09 A2990 RMK AO2 SLP068 T02830094,M
ELY,2023-08-10 09:53,-114.8453,39.2950,1909.00,55.00,35.00,46.73,180.00,5.00,0.00,30.12,1009.60,10.00,M,CLR,M,M,M,M,M,M,M,M,M,M,M,M,M,M,55.00,KELY 100953Z AUTO 18005KT 10SM CLR 13/02 A3012 RMK AO2 SLP096 T01280017,M
VGT,2023-08-10 09:53,-115.1933,36.2111,667.00,91.00,51.00,25.61,200.00,9.00,0.00,29.82,1008.10,10.00,M,OVC,M,M,M,12000.00,M,M,M,M,M,M,M,M,M,M,88.16,KVGT 100953Z AUTO 20009KT 10SM OVC120 33/11 A2982 RMK AO2 SLP081 T03280106,M
LOL,2023-08-10 09:53,-118.5701,40.0684,1192.43,59.00,35.00,40.45,0.00,0.00,0.00,30.00,1011.90,10.00,M,CLR,M,M,M,M,M,M,M,M,M,M,M,M,M,M,59.00,KLOL 100953Z AUTO 00000KT 10SM CLR 15/02 A3000 RMK AO2 SLP119 T01500017,M
BVU,2023-08-10 09:55,-114.8611,35.9475,671.00,84.20,53.60,34.97,0.00,0.00,0.00,29.84,M,10.00,M,CLR,M,M,M,M,M,M,M,M,M,M,M,M,M,M,82.76,KBVU 100955Z AUTO 00000KT 10SM CLR 29/12 A2984 RMK AO2,M
CXP,2023-08-10 09:55,-119.7326,39.1923,1431.00,55.40,37.40,50.64,0.00,0.00,0.00,30.09,M,10.00,M,CLR,M,M,M,M,M,M,M,M,M,M,M,M,M,M,55.40,KCXP 100955Z AUTO 00000KT 10SM CLR 13/03 A3009 RMK AO2,M
RNO,2023-08-10 09:55,-119.7711,39.4839,1341.00,63.00,35.00,35.10,0.00,0.00,0.00,30.07,1012.30,10.00,M,CLR,M,M,M,M,M,M,M,M,M,M,M,M,M,M,63.00,KRNO 100955Z 00000KT 10SM CLR 17/02 A3007 RMK AO2 SLP123 T01720017,M
MEV,2023-08-10 09:55,-119.7500,38.9963,1441.42,48.20,37.40,66.05,110.00,5.00,0.00,30.08,M,10.00,M,FEW,FEW,M,M,3900.00,4800.00,M,M,M,M,M,M,M,M,M,45.63,KMEV 100955Z AUTO 11005KT 10SM FEW039 FEW048 09/03 A3008 RMK AO2,M
HTH,2023-08-10 09:55,-118.6315,38.5448,1282.89,68.00,39.20,34.80,260.00,5.00,0.00,30.03,M,10.00,M,CLR,M,M,M,M,M,M,M,M,M,M,M,M,M,M,68.00,KHTH 100955Z AUTO 26005KT 10SM CLR 20/04 A3003 RMK A01,M
BAM,2023-08-10 09:55,-116.8743,40.5990,1382.36,59.00,30.20,33.35,220.00,5.00,0.00,30.01,M,10.00,M,CLR,M,M,M,M,M,M,M,M,M,M,M,M,M,M,59.00,KBAM 100955Z AUTO 22005KT 10SM CLR 15/M01 A3001 RMK AO1,M
TMT,2023-08-10 09:55,-117.1971,39.4643,1749.34,41.50,24.80,51.17,0.00,0.00,0.00,30.12,M,M,M,CLR,M,M,M,M,M,M,M,M,M,M,M,M,M,M,41.50,KTMT 100955Z AUTO 00000KT CLR 05/M04 A3012 RMK AO2 T00531040 PWINO,M
INS,2023-08-10 09:55,-115.6733,36.5872,955.00,80.20,46.00,30.01,0.00,0.00,T,29.89,1007.00,10.00,M,OVC,M,M,M,11000.00,M,M,M,M,M,M,M,M,M,M,79.31,KINS 100955Z AUTO 00000KT 10SM OVC110 27/08 A2989 RMK AO2 DZB29E38 SLP070 P0000 T02680078 $,M
LSV,2023-08-10 09:55,-115.0343,36.2362,570.00,89.00,51.60,27.88,160.00,11.00,0.00,29.78,1005.40,10.00,M,BKN,M,M,M,12000.00,M,M,M,M,M,M,M,M,M,M,86.42,KLSV 100955Z AUTO 16011KT 10SM BKN120 32/11 A2978 RMK AO2 SLP054 T03170109 $,M
EKO,2023-08-10 09:56,-115.7860,40.8242,1367.00,55.00,34.00,44.90,0.00,0.00,0.00,30.03,1011.50,10.00,M,CLR,M,M,M,M,M,M,M,M,M,M,M,M,M,M,55.00,KEKO 100956Z AUTO 00000KT 10SM CLR 13/01 A3003 RMK AO2 SLP115 T01280011,M
WMC,2023-08-10 09:56,-117.8072,40.9019,1315.00,61.00,32.00,33.40,110.00,5.00,0.00,30.00,1010.90,10.00,M,CLR,M,M,M,M,M,M,M,M,M,M,M,M,M,M,61.00,KWMC 100956Z AUTO 11005KT 10SM CLR 16/00 A3000 RMK AO2 SLP109 T01610000,M
NFL,2023-08-10 09:56,-118.7010,39.4166,1199.00,58.00,30.00,34.28,0.00,0.00,0.00,30.01,1013.30,10.00,M,CLR,M,M,M,M,M,M,M,M,M,M,M,M,M,M,58.00,KNFL 100956Z AUTO 00000KT 10SM CLR 14/M01 A3001 RMK AO2 SLP133 T01441011,M
HND,2023-08-10 09:56,-115.1344,35.9729,742.79,86.00,53.00,32.29,200.00,13.00,0.00,29.87,1009.60,10.00,M,BKN,M,M,M,11000.00,M,M,M,M,M,M,M,M,M,M,84.07,KHND 100956Z AUTO 20013KT 10SM BKN110 30/12 A2987 RMK AO2 SLP096 T03000117,M
TPH,2023-08-10 09:56,-117.0904,38.0505,1654.00,60.00,30.00,31.92,340.00,3.00,0.00,30.07,1010.10,10.00,M,CLR,M,M,M,M,M,M,M,M,M,M,M,M,M,M,60.00,KTPH 100956Z AUTO 34003KT 10SM CLR 16/M01 A3007 RMK AO2 SLP101 T01561011,M
LAS,2023-08-10 09:56,-115.1634,36.0719,663.00,89.00,52.00,28.30,200.00,7.00,0.00,29.83,1006.90,10.00,M,FEW,OVC,M,M,12000.00,15000.00,M,M,M,M,M,M,M,M,M,86.49,KLAS 100956Z 20007KT 10SM FEW120 OVC150 32/11 A2983 RMK AO2 SLP069 OVC V BKN T03170111,M
RTS,2023-08-10 10:04,-119.8764,39.6682,1539.00,48.20,26.60,42.73,340.00,8.00,0.00,30.11,M,10.00,M,CLR,M,M,M,M,M,M,M,M,M,M,M,M,M,M,44.07,KRTS 101004Z AUTO 34008KT 10SM CLR 09/M03 A3011 RMK AO2,M
BVU,2023-08-10 10:15,-114.8611,35.9475,671.00,84.20,51.80,32.73,0.00,0.00,0.00,29.84,M,10.00,M,CLR,M,M,M,M,M,M,M,M,M,M,M,M,M,M,82.48,KBVU 101015Z AUTO 00000KT 10SM CLR 29/11 A2984 RMK AO2,M
CXP,2023-08-10 10:15,-119.7326,39.1923,1431.00,55.40,39.20,54.34,0.00,0.00,0.00,30.09,M,10.00,M,CLR,M,M,M,M,M,M,M,M,M,M,M,M,M,M,55.40,KCXP 101015Z AUTO 00000KT 10SM CLR 13/04 A3009 RMK AO2,M
05U,2023-08-10 10:15,-116.0051,39.6042,1811.23,51.80,32.00,46.59,M,M,0.00,30.12,M,10.00,M,M,M,M,M,M,M,M,M,M,M,M,M,M,M,M,51.80,K05U 101015Z AUTO 10SM 11/M00 A3012 RMK A01,M
MEV,2023-08-10 10:15,-119.7500,38.9963,1441.42,50.00,35.60,57.52,0.00,0.00,0.00,30.08,M,10.00,M,CLR,M,M,M,M,M,M,M,M,M,M,M,M,M,M,50.00,KMEV 101015Z AUTO 00000KT 10SM CLR 10/02 A3008 RMK AO2,M
HTH,2023-08-10 10:15,-118.6315,38.5448,1282.89,68.00,37.40,32.43,280.00,7.00,0.00,30.03,M,10.00,M,CLR,M,M,M,M,M,M,M,M,M,M,M,M,M,M,68.00,KHTH 101015Z AUTO 28007KT 10SM CLR 20/03 A3003 RMK A01,M
BAM,2023-08-10 10:15,-116.8743,40.5990,1382.36,57.20,28.40,33.05,0.00,0.00,0.00,30.02,M,10.00,M,CLR,M,M,M,M,M,M,M,M,M,M,M,M,M,M,57.20,KBAM 101015Z AUTO 00000KT 10SM CLR 14/M02 A3002 RMK AO1,M
TMT,2023-08-10 10:15,-117.1971,39.4643,1749.34,43.30,29.00,56.79,240.00,6.00,0.00,30.12,M,M,M,CLR,M,M,M,M,M,M,M,M,M,M,M,M,M,M,39.14,KTMT 101015Z AUTO 24006KT CLR 06/M02 A3012 RMK AO2 T00631016 PWINO,M
RTS,2023-08-10 10:24,-119.8764,39.6682,1539.00,50.00,24.80,37.08,350.00,7.00,0.00,30.11,M,10.00,M,CLR,M,M,M,M,M,M,M,M,M,M,M,M,M,M,50.00,KRTS 101024Z AUTO 35007KT 10SM CLR 10/M04 A3011 RMK AO2,M
BVU,2023-08-10 10:35,-114.8611,35.9475,671.00,84.20,51.80,32.73,0.00,0.00,0.00,29.84,M,10.00,M,CLR,M,M,M,M,M,M,M,M,M,M,M,M,M,M,82.48,KBVU 101035Z AUTO 00000KT 10SM CLR 29/11 A2984 RMK AO2,M
CXP,2023-08-10 10:35,-119.7326,39.1923,1431.00,53.60,39.20,58.02,0.00,0.00,0.00,30.09,M,10.00,M,CLR,M,M,M,M,M,M,M,M,M,M,M,M,M,M,53.60,KCXP 101035Z AUTO 00000KT 10SM CLR 12/04 A3009 RMK AO2,M
05U,2023-08-10 10:35,-116.0051,39.6042,1811.23,50.00,30.20,46.31,M,M,0.00,30.12,M,10.00,M,M,M,M,M,M,M,M,M,M,M,M,M,M,M,M,50.00,K05U 101035Z AUTO 10SM 10/M01 A3012 RMK A01,M
MEV,2023-08-10 10:35,-119.7500,38.9963,1441.42,50.00,35.60,57.52,0.00,0.00,0.00,30.08,M,10.00,M,FEW,FEW,FEW,M,3400.00,4100.00,4700.00,M,M,M,M,M,M,M,M,50.00,KMEV 101035Z AUTO 00000KT 10SM FEW034 FEW041 FEW047 10/02 A3008 RMK AO2,M
BAM,2023-08-10 10:35,-116.8743,40.5990,1382.36,60.80,30.20,31.28,0.00,0.00,0.00,30.02,M,10.00,M,CLR,M,M,M,M,M,M,M,M,M,M,M,M,M,M,60.80,KBAM 101035Z AUTO 00000KT 10SM CLR 16/M01 A3002 RMK AO1,M
HTH,2023-08-10 10:35,-118.6315,38.5448,1282.89,68.00,37.40,32.43,260.00,4.00,0.00,30.03,M,10.00,M,CLR,M,M,M,M,M,M,M,M,M,M,M,M,M,M,68.00,KHTH 101035Z AUTO 26004KT 10SM CLR 20/03 A3003 RMK A01,M
TMT,2023-08-10 10:35,-117.1971,39.4643,1749.34,43.00,26.40,51.62,0.00,0.00,0.00,30.12,M,M,M,CLR,M,M,M,M,M,M,M,M,M,M,M,M,M,M,43.00,KTMT 101035Z AUTO 00000KT CLR 06/M03 A3012 RMK AO2 T00611031 PWINO,M
RTS,2023-08-10 10:44,-119.8764,39.6682,1539.00,50.00,24.80,37.08,360.00,8.00,0.00,30.11,M,10.00,M,CLR,M,M,M,M,M,M,M,M,M,M,M,M,M,M,50.00,KRTS 101044Z AUTO 36008KT 10SM CLR 10/M04 A3011 RMK AO2,M
P68,2023-08-10 10:53,-116.0056,39.6014,1993.00,52.00,31.00,44.42,180.00,5.00,0.00,30.10,1010.80,M,M,M,M,M,M,M,M,M,M,M,M,M,M,M,M,M,52.00,KP68 101053Z AUTO 18005KT 11/M01 A3010 RMK AO1 SLP108 T01111006,M
DRA,2023-08-10 10:53,-116.0278,36.6206,1009.00,82.00,49.00,31.68,230.00,9.00,0.00,29.91,1007.00,10.00,M,BKN,M,M,M,10000.00,M,M,M,M,M,M,M,M,M,M,80.62,KDRA 101053Z AUTO 23009KT 10SM BKN100 28/09 A2991 RMK AO2 SLP070 T02780094,M
ELY,2023-08-10 10:53,-114.8453,39.2950,1909.00,55.00,34.00,44.90,350.00,4.00,0.00,30.13,1009.90,10.00,M,CLR,M,M,M,M,M,M,M,M,M,M,M,M,M,M,55.00,KELY 101053Z AUTO 35004KT 10SM CLR 13/01 A3013 RMK AO2 SLP099 T01280011,M
VGT,2023-08-10 10:53,-115.1933,36.2111,667.00,90.00,52.00,27.42,80.00,6.00,0.00,29.83,1008.50,10.00,M,OVC,M,M,M,11000.00,M,M,M,M,M,M,M,M,M,M,87.40,KVGT 101053Z AUTO 08006KT 10SM OVC110 32/11 A2983 RMK AO2 SLP085 T03220111,M
LOL,2023-08-10 10:53,-118.5701,40.0684,1192.43,55.00,31.00,39.80,0.00,0.00,0.00,30.00,1011.80,10.00,M,CLR,M,M,M,M,M,M,M,M,M,M,M,M,M,M,55.00,KLOL 101053Z AUTO 00000KT 10SM CLR 13/M01 A3000 RMK AO2 SLP118 T01281006,M
BVU,2023-08-10 10:55,-114.8611,35.9475,671.00,82.40,53.60,37.07,0.00,0.00,0.00,29.84,M,10.00,M,CLR,M,M,M,M,M,M,M,M,M,M,M,M,M,M,81.46,KBVU 101055Z AUTO 00000KT 10SM CLR 28/12 A2984 RMK AO2,M
CXP,2023-08-10 10:55,-119.7326,39.1923,1431.00,53.60,39.20,58.02,0.00,0.00,0.00,30.10,M,10.00,M,CLR,M,M,M,M,M,M,M,M,M,M,M,M,M,M,53.60,KCXP 101055Z AUTO 00000KT 10SM CLR 12/04 A3010 RMK AO2,M
RNO,2023-08-10 10:55,-119.7711,39.4839,1341.00,60.00,36.00,40.61,200.00,4.00,0.00,30.07,1012.50,10.00,M,CLR,M,M,M,M,M,M,M,M,M,M,M,M,M,M,60.00,KRNO 101055Z 20004KT 10SM CLR 16/02 A3007 RMK AO2 SLP125 T01560022,M
05U,2023-08-10 10:55,-116.0051,39.6042,1811.23,51.80,30.20,43.32,M,M,0.00,30.12,M,10.00,M,M,M,M,M,M,M,M,M,M,M,M,M,M,M,M,51.80,K05U 101055Z AUTO 10SM 11/M01 A3012 RMK A01,M
MEV,2023-08-10 10:55,-119.7500,38.9963,1441.42,48.20,37.40,66.05,80.00,3.00,0.00,30.08,M,10.00,M,CLR,M,M,M,M,M,M,M,M,M,M,M,M,M,M,47.21,KMEV 101055Z AUTO 08003KT 10SM CLR 09/03 A3008 RMK AO2,M
HTH,2023-08-10 10:55,-118.6315,38.5448,1282.89,66.20,35.60,32.14,0.00,0.00,0.00,30.04,M,10.00,M,CLR,M,M,M,M,M,M,M,M,M,M,M,M,M,M,66.20,KHTH 101055Z AUTO 00000KT 10SM CLR 19/02 A3004 RMK A01,M
BAM,2023-08-10 10:55,-116.8743,40.5990,1382.36,57.20,28.40,33.05,180.00,3.00,0.00,30.02,M,10.00,M,CLR,M,M,M,M,M,M,M,M,M,M,M,M,M,M,57.20,KBAM 101055Z AUTO 18003KT 10SM CLR 14/M02 A3002 RMK AO1,M
TMT,2023-08-10 10:55,-117.1971,39.4643,1749.34,39.00,25.00,56.86,0.00,0.00,0.00,30.12,M,M,M,CLR,M,M,M,M,M,M,M,M,M,M,M,M,M,M,39.00,KTMT 101055Z AUTO 00000KT CLR 04/M04 A3012 RMK AO2 T00381039 PWINO,M
INS,2023-08-10 10:55,-115.6733,36.5872,955.00,79.70,45.50,29.93,0.00,0.00,0.00,29.90,1007.00,10.00,M,SCT,BKN,OVC,M,10000.00,12000.00,16000.00,M,M,M,M,M,M,M,M,79.70,KINS 101055Z AUTO 00000KT 10SM SCT100 BKN120 OVC160 27/08 A2990 RMK AO2 SLP070 T02650075 $,M
LSV,2023-08-10 10:55,-115.0343,36.2362,570.00,88.70,52.30,28.88,160.00,10.00,0.00,29.79,1005.70,10.00,M,BKN,M,M,M,11000.00,M,M,M,M,M,M,M,M,M,M,86.27,KLSV 101055Z AUTO 16010KT 10SM BKN110 32/11 A2979 RMK AO2 SLP057 T03150113 $,M
EKO,2023-08-10 10:56,-115.7860,40.8242,1367.00,55.00,34.00,44.90,90.00,3.00,0.00,30.04,1011.40,10.00,M,CLR,M,M,M,M,M,M,M,M,M,M,M,M,M,M,55.00,KEKO 101056Z AUTO 09003KT 10SM CLR 13/01 A3004 RMK AO2 SLP114 T01280011,M
WMC,2023-08-10 10:56,-117.8072,40.9019,1315.00,53.00,30.00,41.11,260.00,3.00,0.00,30.01,1011.60,10.00,M,CLR,M,M,M,M,M,M,M,M,M,M,M,M,M,M,53.00,KWMC 101056Z AUTO 26003KT 10SM CLR 12/M01 A3001 RMK AO2 SLP116 T01171011,M
NFL,2023-08-10 10:56,-118.7010,39.4166,1199.00,59.00,31.00,34.45,230.00,4.00,0.00,30.01,1013.20,10.00,M,CLR,M,M,M,M,M,M,M,M,M,M,M,M,M,M,59.00,KNFL 101056Z AUTO 23004KT 10SM CLR 15/M01 A3001 RMK AO2 SLP132 T01501006,M
HND,2023-08-10 10:56,-115.1344,35.9729,742.79,85.00,53.00,33.34,200.00,9.00,0.00,29.88,1010.10,10.00,M,FEW,M,M,M,11000.00,M,M,M,M,M,M,M,M,M,M,83.27,KHND 101056Z AUTO 20009KT 10SM FEW110 29/12 A2988 RMK AO2 SLP101 T02940117,M
TPH,2023-08-10 10:56,-117.0904,38.0505,1654.00,60.00,31.00,33.24,0.00,0.00,0.00,30.08,1010.30,10.00,M,CLR,M,M,M,M,M,M,M,M,M,M,M,M,M,M,60.00,KTPH 101056Z AUTO 00000KT 10SM CLR 16/M01 A3008 RMK AO2 SLP103 T01561006,M
LAS,2023-08-10 10:56,-115.1634,36.0719,663.00,87.00,52.00,30.15,190.00,9.00,0.00,29.84,1007.20,10.00,M,SCT,OVC,M,M,11000.00,16000.00,M,M,M,M,M,M,M,M,M,84.73,KLAS 101056Z 19009KT 10SM SCT110 OVC160 31/11 A2984 RMK AO2 SLP072 SHRA DSNT N T03060111,M
RTS,2023-08-10 11:04,-119.8764,39.6682,1539.00,51.80,26.60,37.38,360.00,7.00,0.00,30.11,M,10.00,M,CLR,M,M,M,M,M,M,M,M,M,M,M,M,M,M,51.80,KRTS 101104Z AUTO 36007KT 10SM CLR 11/M03 A3011 RMK AO2,M
BVU,2023-08-10 11:15,-114.8611,35.9475,671.00,80.60,55.40,41.97,0.00,0.00,0.00,29.84,M,10.00,M,CLR,M,M,M,M,M,M,M,M,M,M,M,M,M,M,80.53,KBVU 101115Z AUTO 00000KT 10SM CLR 27/13 A2984 RMK AO2,M
CXP,2023-08-10 11:15,-119.7326,39.1923,1431.00,53.60,39.20,58.02,0.00,0.00,0.00,30.10,M,10.00,M,CLR,M,M,M,M,M,M,M,M,M,M,M,M,M,M,53.60,KCXP 101115Z AUTO 00000KT 10SM CLR 12/04 A3010 RMK AO2,M
05U,2023-08-10 11:15,-116.0051,39.6042,1811.23,50.00,30.20,46.31,M,M,0.00,30.12,M,10.00,M,M,M,M,M,M,M,M,M,M,M,M,M,M,M,M,50.00,K05U 101115Z AUTO 10SM 10/M01 A3012 RMK A01,M
MEV,2023-08-10 11:15,-119.7500,38.9963,1441.42,48.20,37.40,66.05,0.00,0.00,0.00,30.08,M,10.00,M,CLR,M,M,M,M,M,M,M,M,M,M,M,M,M,M,48.20,KMEV 101115Z AUTO 00000KT 10SM CLR 09/03 A3008 RMK AO2,M
BAM,2023-08-10 11:15,-116.8743,40.5990,1382.36,55.40,30.20,37.97,0.00,0.00,0.00,30.03,M,10.00,M,CLR,M,M,M,M,M,M,M,M,M,M,M,M,M,M,55.40,KBAM 101115Z AUTO 00000KT 10SM CLR 13/M01 A3003 RMK AO1,M
HTH,2023-08-10 11:15,-118.6315,38.5448,1282.89,66.20,35.60,32.14,0.00,0.00,0.00,30.04,M,10.00,M,CLR,M,M,M,M,M,M,M,M,M,M,M,M,M,M,66.20,KHTH 101115Z AUTO 00000KT 10SM CLR 19/02 A3004 RMK A01,M
TMT,2023-08-10 11:15,-117.1971,39.4643,1749.34,40.00,26.00,57.01,230.00,3.00,0.00,30.13,M,M,M,CLR,M,M,M,M,M,M,M,M,M,M,M,M,M,M,37.83,KTMT 101115Z AUTO 23003KT CLR 04/M03 A3013 RMK AO2 T00441034 PWINO,M
RTS,2023-08-10 11:24,-119.8764,39.6682,1539.00,51.80,26.60,37.38,360.00,8.00,0.00,30.11,M,10.00,M,CLR,M,M,M,M,M,M,M,M,M,M,M,M,M,M,51.80,KRTS 101124Z AUTO 36008KT 10SM CLR 11/M03 A3011 RMK AO2,M
BVU,2023-08-10 11:35,-114.8611,35.9475,671.00,80.60,59.00,47.79,60.00,5.00,0.00,29.83,M,10.00,M,FEW,SCT,BKN,M,2500.00,6000.00,7500.00,M,M,M,M,M,M,M,M,81.11,KBVU 101135Z AUTO 06005KT 10SM FEW025 SCT060 BKN075 27/15 A2983 RMK AO2,M
CXP,2023-08-10 11:35,-119.7326,39.1923,1431.00,53.60,37.40,54.07,0.00,0.00,0.00,30.10,M,10.00,M,CLR,M,M,M,M,M,M,M,M,M,M,M,M,M,M,53.60,KCXP 101135Z AUTO 00000KT 10SM CLR 12/03 A3010 RMK AO2,M
05U,2023-08-10 11:35,-116.0051,39.6042,1811.23,48.20,30.20,49.53,M,M,0.00,30.13,M,10.00,M,M,M,M,M,M,M,M,M,M,M,M,M,M,M,M,M,K05U 101135Z AUTO 10SM 09/M01 A3013 RMK A01,M
MEV,2023-08-10 11:35,-119.7500,38.9963,1441.42,42.80,33.80,70.28,110.00,3.00,0.00,30.09,M,10.00,M,CLR,M,M,M,M,M,M,M,M,M,M,M,M,M,M,41.03,KMEV 101135Z AUTO 11003KT 10SM CLR 06/01 A3009 RMK AO2,M
BAM,2023-08-10 11:35,-116.8743,40.5990,1382.36,53.60,28.40,37.67,160.00,5.00,0.00,30.03,M,10.00,M,CLR,M,M,M,M,M,M,M,M,M,M,M,M,M,M,53.60,KBAM 101135Z AUTO 16005KT 10SM CLR 12/M02 A3003 RMK AO1,M
HTH,2023-08-10 11:35,-118.6315,38.5448,1282.89,66.20,39.20,37.03,0.00,0.00,0.00,30.04,M,10.00,M,CLR,M,M,M,M,M,M,M,M,M,M,M,M,M,M,66.20,KHTH 101135Z AUTO 00000KT 10SM CLR 19/04 A3004 RMK A01,M
TMT,2023-08-10 11:35,-117.1971,39.4643,1749.34,42.80,26.60,52.45,220.00,6.00,0.00,30.13,M,M,M,CLR,M,M,M,M,M,M,M,M,M,M,M,M,M,M,38.54,KTMT 101135Z AUTO 22006KT CLR 06/M03 A3013 RMK AO2 T00601030 PWINO,M
RTS,2023-08-10 11:44,-119.8764,39.6682,1539.00,53.60,28.40,37.67,10.00,6.00,0.00,30.11,M,10.00,M,CLR,M,M,M,M,M,M,M,M,M,M,M,M,M,M,53.60,KRTS 101144Z AUTO 01006KT 10SM CLR 12/M02 A3011 RMK AO2,M
P68,2023-08-10 11:53,-116.0056,39.6014,1993.00,49.00,32.00,51.70,180.00,6.00,0.00,30.11,1011.30,M,M,M,M,M,M,M,M,M,M,M,M,M,M,M,M,M,46.00,KP68 101153Z AUTO 18006KT 09/00 A3011 RMK AO1 SLP113 T00940000 10161 20089 53002,M
DRA,2023-08-10 11:53,-116.0278,36.6206,1009.00,80.00,50.00,35.10,0.00,0.00,0.00,29.92,1007.30,10.00,M,CLR,M,M,M,M,M,M,M,M,M,M,M,M,M,M,79.55,KDRA 101153Z AUTO 00000KT 10SM CLR 27/10 A2992 RMK AO2 SLP073 T02670100 10300 20267 53002,M
ELY,2023-08-10 11:53,-114.8453,39.2950,1909.00,52.00,34.00,50.12,170.00,6.00,0.00,30.14,1010.40,10.00,M,CLR,M,M,M,M,M,M,M,M,M,M,M,M,M,M,52.00,KELY 101153Z AUTO 17006KT 10SM CLR 11/01 A3014 RMK AO2 SLP104 T01110011 10206 20111 53007,M
VGT,2023-08-10 11:53,-115.1933,36.2111,667.00,88.00,53.00,30.30,140.00,5.00,0.00,29.84,1008.80,10.00,M,CLR,M,M,M,M,M,M,M,M,M,M,M,M,M,M,85.78,KVGT 101153Z AUTO 14005KT 10SM CLR 31/12 A2984 RMK AO2 LTG DSNT NE SLP088 T03110117 10344 20311 53005,M
LOL,2023-08-10 11:53,-118.5701,40.0684,1192.43,56.00,33.00,41.60,60.00,3.00,0.00,30.01,1012.10,10.00,M,CLR,M,M,M,M,M,M,M,M,M,M,M,M,M,M,56.00,KLOL 101153Z AUTO 06003KT 10SM CLR 13/01 A3001 RMK AO2 SLP121 T01330006 10244 20128 53003,M
BVU,2023-08-10 11:55,-114.8611,35.9475,671.00,82.40,55.40,39.58,70.00,4.00,0.00,29.84,M,10.00,M,FEW,FEW,FEW,M,2500.00,4500.00,6000.00,M,M,M,M,M,M,M,M,81.75,KBVU 101155Z AUTO 07004KT 10SM FEW025 FEW045 FEW060 28/13 A2984 RMK AO2,M
CXP,2023-08-10 11:55,-119.7326,39.1923,1431.00,51.80,39.20,61.99,0.00,0.00,0.00,30.10,M,10.00,M,CLR,M,M,M,M,M,M,M,M,M,M,M,M,M,M,51.80,KCXP 101155Z AUTO 00000KT 10SM CLR 11/04 A3010 RMK AO2,M
RNO,2023-08-10 11:55,-119.7711,39.4839,1341.00,57.00,36.00,45.22,0.00,0.00,0.00,30.08,1013.10,10.00,M,CLR,M,M,M,M,M,M,M,M,M,M,M,M,M,M,57.00,KRNO 101155Z 00000KT 10SM CLR 14/02 A3008 RMK AO2 SLP131 T01390022 10228 20139 53003,M
05U,2023-08-10 11:55,-116.0051,39.6042,1811.23,50.00,32.00,49.81,M,M,0.00,30.13,M,10.00,M,M,M,M,M,M,M,M,M,M,M,M,M,M,M,M,50.00,K05U 101155Z AUTO 10SM 10/M00 A3013 RMK A01,M
MEV,2023-08-10 11:55,-119.7500,38.9963,1441.42,42.80,35.60,75.50,120.00,3.00,0.00,30.09,M,10.00,M,CLR,M,M,M,M,M,M,M,M,M,M,M,M,M,M,41.03,KMEV 101155Z AUTO 12003KT 10SM CLR 06/02 A3009 RMK AO2,M
HTH,2023-08-10 11:55,-118.6315,38.5448,1282.89,64.40,37.40,36.74,220.00,3.00,0.00,30.05,M,10.00,M,CLR,M,M,M,M,M,M,M,M,M,M,M,M,M,M,64.40,KHTH 101155Z AUTO 22003KT 10SM CLR 18/03 A3005 RMK A01,M
BAM,2023-08-10 11:55,-116.8743,40.5990,1382.36,51.80,28.40,40.25,170.00,7.00,0.00,30.04,M,10.00,M,CLR,M,M,M,M,M,M,M,M,M,M,M,M,M,M,51.80,KBAM 101155Z AUTO 17007KT 10SM CLR 11/M02 A3004 RMK AO1,M
TMT,2023-08-10 11:55,-117.1971,39.4643,1749.34,43.00,26.40,51.62,220.00,4.00,0.00,30.13,M,M,M,CLR,M,M,M,M,M,M,M,M,M,M,M,M,M,M,40.27,KTMT 101155Z AUTO 22004KT CLR 06/M03 A3013 RMK AO2 T00621031 10129 20037 PWINO,M
INS,2023-08-10 11:55,-115.6733,36.5872,955.00,78.40,46.00,31.84,0.00,0.00,0.00,29.90,1007.00,10.00,M,SCT,BKN,M,M,12000.00,16000.00,M,M,M,M,M,M,M,M,M,78.40,KINS 101155Z AUTO 00000KT 10SM SCT120 BKN160 26/08 A2990 RMK AO2 SLP070 60000 70003 T02580078 10312 20258 52004 $,M
LSV,2023-08-10 11:55,-115.0343,36.2362,570.00,87.80,51.60,28.96,150.00,8.00,0.00,29.80,1006.20,10.00,M,SCT,M,M,M,11000.00,M,M,M,M,M,M,M,M,M,M,85.35,KLSV 101155Z AUTO 15008KT 10SM SCT110 31/11 A2980 RMK AO2 SLP062 T03100109 10340 20309 53007 $,M
EKO,2023-08-10 11:56,-115.7860,40.8242,1367.00,53.00,34.00,48.30,90.00,3.00,0.00,30.05,1012.10,10.00,M,CLR,M,M,M,M,M,M,M,M,M,M,M,M,M,M,53.00,KEKO 101156Z AUTO 09003KT 10SM CLR 12/01 A3005 RMK AO2 SLP121 T01170011 10183 20100 51008,M
WMC,2023-08-10 11:56,-117.8072,40.9019,1315.00,51.00,30.00,44.26,M,M,0.00,30.02,1011.90,10.00,M,CLR,M,M,M,M,M,M,M,M,M,M,M,M,M,M,51.00,KWMC 101156Z AUTO 10SM CLR 11/M01 A3002 RMK AO2 SLP119 T01061011 10222 20106 51010,M
NFL,2023-08-10 11:56,-118.7010,39.4166,1199.00,58.00,33.00,38.70,210.00,4.00,0.00,30.02,1013.50,10.00,M,CLR,M,M,M,M,M,M,M,M,M,M,M,M,M,M,58.00,KNFL 101156Z AUTO 21004KT 10SM CLR 14/01 A3002 RMK AO2 SLP135 T01440006 10222 20133 53002,M
HND,2023-08-10 11:56,-115.1344,35.9729,742.79,84.00,54.00,35.72,190.00,8.00,T,29.89,1010.40,10.00,M,CLR,M,M,M,M,M,M,M,M,M,M,M,M,M,M,82.67,KHND 101156Z AUTO 19008KT 10SM CLR 29/12 A2989 RMK AO2 RAB22E33 SLP104 P0000 60000 T02890122 10317 20289 53003,M
TPH,2023-08-10 11:56,-117.0904,38.0505,1654.00,59.00,34.00,38.87,360.00,6.00,0.00,30.09,1010.90,10.00,M,CLR,M,M,M,M,M,M,M,M,M,M,M,M,M,M,59.00,KTPH 101156Z AUTO 36006KT 10SM CLR 15/01 A3009 RMK AO2 SLP109 T01500011 10217 20128 53003,M
LAS,2023-08-10 11:56,-115.1634,36.0719,663.00,86.00,53.00,32.29,180.00,6.00,0.00,29.84,1007.20,10.00,M,SCT,BKN,M,M,12000.00,16000.00,M,M,M,M,M,M,M,M,M,84.07,KLAS 101156Z 18006KT 10SM SCT120 BKN160 30/12 A2984 RMK AO2 SLP072 ACC DSNT W-N T03000117 10333 20300 53003,M
RTS,2023-08-10 12:04,-119.8764,39.6682,1539.00,53.60,28.40,37.67,350.00,5.00,0.00,30.11,M,10.00,M,CLR,M,M,M,M,M,M,M,M,M,M,M,M,M,M,53.60,KRTS 101204Z AUTO 35005KT 10SM CLR 12/M02 A3011 RMK AO2,M
05U,2023-08-10 12:10,-116.0051,39.6042,1811.23,50.00,30.20,46.31,M,M,0.00,30.13,M,10.00,M,M,M,M,M,M,M,M,M,M,M,M,M,M,M,M,50.00,K05U 101210Z AUTO 10SM 10/M01 A3013 RMK A01,M
BVU,2023-08-10 12:15,-114.8611,35.9475,671.00,82.40,53.60,37.07,0.00,0.00,0.00,29.85,M,10.00,M,CLR,M,M,M,M,M,M,M,M,M,M,M,M,M,M,81.46,KBVU 101215Z AUTO 00000KT 10SM CLR 28/12 A2985 RMK AO2,M
CXP,2023-08-10 12:15,-119.7326,39.1923,1431.00,51.80,37.40,57.77,0.00,0.00,0.00,30.10,M,10.00,M,CLR,M,M,M,M,M,M,M,M,M,M,M,M,M,M,51.80,KCXP 101215Z AUTO 00000KT 10SM CLR 11/03 A3010 RMK AO2,M
MEV,2023-08-10 12:15,-119.7500,38.9963,1441.42,42.80,33.80,70.28,100.00,4.00,0.00,30.09,M,10.00,M,CLR,M,M,M,M,M,M,M,M,M,M,M,M,M,M,40.03,KMEV 101215Z AUTO 10004KT 10SM CLR 06/01 A3009 RMK AO2,M
BAM,2023-08-10 12:15,-116.8743,40.5990,1382.36,53.60,28.40,37.67,200.00,4.00,0.00,30.04,M,10.00,M,CLR,M,M,M,M,M,M,M,M,M,M,M,M,M,M,53.60,KBAM 101215Z AUTO 20004KT 10SM CLR 12/M02 A3004 RMK AO1,M
HTH,2023-08-10 12:15,-118.6315,38.5448,1282.89,64.40,35.60,34.22,220.00,4.00,0.00,30.05,M,10.00,M,CLR,M,M,M,M,M,M,M,M,M,M,M,M,M,M,64.40,KHTH 101215Z AUTO 22004KT 10SM CLR 18/02 A3005 RMK A01,M
TMT,2023-08-10 12:15,-117.1971,39.4643,1749.34,38.30,24.00,56.05,0.00,0.00,0.00,30.13,M,M,M,CLR,M,M,M,M,M,M,M,M,M,M,M,M,M,M,38.30,KTMT 101215Z AUTO 00000KT CLR 04/M04 A3013 RMK AO2 T00351045 PWINO,M
RTS,2023-08-10 12:24,-119.8764,39.6682,1539.00,51.80,28.40,40.25,0.00,0.00,0.00,30.12,M,10.00,M,CLR,M,M,M,M,M,M,M,M,M,M,M,M,M,M,51.80,KRTS 101224Z AUTO 00000KT 10SM CLR 11/M02 A3012 RMK AO2,M
05U,2023-08-10 12:30,-116.0051,39.6042,1811.23,50.00,28.40,43.03,M,M,0.00,30.14,M,10.00,M,M,M,M,M,M,M,M,M,M,M,M,M,M,M,M,50.00,K05U 101230Z AUTO 10SM 10/M02 A3014 RMK A01,M
BVU,2023-08-10 12:35,-114.8611,35.9475,671.00,82.40,57.20,42.25,0.00,0.00,0.00,29.85,M,10.00,M,CLR,M,M,M,M,M,M,M,M,M,M,M,M,M,M,82.08,KBVU 101235Z AUTO 00000KT 10SM CLR 28/14 A2985 RMK AO2 LTG DSNT NE AND E,M
CXP,2023-08-10 12:35,-119.7326,39.1923,1431.00,50.00,39.20,66.27,0.00,0.00,0.00,30.10,M,10.00,M,CLR,M,M,M,M,M,M,M,M,M,M,M,M,M,M,50.00,KCXP 101235Z AUTO 00000KT 10SM CLR 10/04 A3010 RMK AO2,M
MEV,2023-08-10 12:35,-119.7500,38.9963,1441.42,44.60,35.60,70.48,110.00,4.00,0.00,30.09,M,10.00,M,CLR,M,M,M,M,M,M,M,M,M,M,M,M,M,M,42.13,KMEV 101235Z AUTO 11004KT 10SM CLR 07/02 A3009 RMK AO2,M
BAM,2023-08-10 12:35,-116.8743,40.5990,1382.36,50.00,28.40,43.03,200.00,4.00,0.00,30.04,M,10.00,M,CLR,M,M,M,M,M,M,M,M,M,M,M,M,M,M,50.00,KBAM 101235Z AUTO 20004KT 10SM CLR 10/M02 A3004 RMK AO1,M
HTH,2023-08-10 12:35,-118.6315,38.5448,1282.89,64.40,33.80,31.85,250.00,5.00,0.00,30.05,M,10.00,M,CLR,M,M,M,M,M,M,M,M,M,M,M,M,M,M,64.40,KHTH 101235Z AUTO 25005KT 10SM CLR 18/01 A3005 RMK A01,M
TMT,2023-08-10 12:35,-117.1971,39.4643,1749.34,39.00,23.50,53.41,0.00,0.00,0.00,30.14,M,M,M,CLR,M,M,M,M,M,M,M,M,M,M,M,M,M,M,39.00,KTMT 101235Z AUTO 00000KT CLR 04/M05 A3014 RMK AO2 T00391047 PWINO,M
RTS,2023-08-10 12:44,-119.8764,39.6682,1539.00,48.20,26.60,42.73,0.00,0.00,0.00,30.12,M,10.00,M,CLR,M,M,M,M,M,M,M,M,M,M,M,M,M,M,48.20,KRTS 101244Z AUTO 00000KT 10SM CLR 09/M03 A3012 RMK AO2,M
05U,2023-08-10 12:50,-116.0051,39.6042,1811.23,50.00,28.40,43.03,M,M,0.00,30.14,M,10.00,M,M,M,M,M,M,M,M,M,M,M,M,M,M,M,M,50.00,K05U 101250Z AUTO 10SM 10/M02 A3014 RMK A01,M
P68,2023-08-10 12:53,-116.0056,39.6014,1993.00,51.00,30.00,44.26,200.00,9.00,0.00,30.12,1011.70,M,M,M,M,M,M,M,M,M,M,M,M,M,M,M,M,M,51.00,KP68 101253Z AUTO 20009KT 11/M01 A3012 RMK AO1 SLP117 T01061011,M
DRA,2023-08-10 12:53,-116.0278,36.6206,1009.00,79.00,50.00,36.27,0.00,0.00,0.00,29.94,1008.00,10.00,M,CLR,M,M,M,M,M,M,M,M,M,M,M,M,M,M,79.00,KDRA 101253Z AUTO 00000KT 10SM CLR 26/10 A2994 RMK AO2 SLP080 T02610100,M
ELY,2023-08-10 12:53,-114.8453,39.2950,1909.00,50.00,35.00,56.16,160.00,8.00,0.00,30.15,1011.20,10.00,M,CLR,M,M,M,M,M,M,M,M,M,M,M,M,M,M,50.00,KELY 101253Z AUTO 16008KT 10SM CLR 10/02 A3015 RMK AO2 SLP112 T01000017,M
VGT,2023-08-10 12:53,-115.1933,36.2111,667.00,87.00,53.00,31.28,120.00,4.00,0.00,29.85,1009.40,10.00,M,SCT,M,M,M,11000.00,M,M,M,M,M,M,M,M,M,M,84.91,KVGT 101253Z AUTO 12004KT 10SM SCT110 31/12 A2985 RMK AO2 LTG DSNT N SLP094 T03060117,M
LOL,2023-08-10 12:53,-118.5701,40.0684,1192.43,49.00,28.00,43.93,M,3.00,0.00,30.01,1012.80,10.00,M,CLR,M,M,M,M,M,M,M,M,M,M,M,M,M,M,48.12,KLOL 101253Z AUTO VRB03KT 10SM CLR 09/M02 A3001 RMK AO2 SLP128 T00941022,M
BVU,2023-08-10 12:55,-114.8611,35.9475,671.00,80.60,57.20,44.80,0.00,0.00,0.00,29.86,M,10.00,M,CLR,M,M,M,M,M,M,M,M,M,M,M,M,M,M,80.81,KBVU 101255Z AUTO 00000KT 10SM CLR 27/14 A2986 RMK AO2 LTG DSNT NE,M
CXP,2023-08-10 12:55,-119.7326,39.1923,1431.00,51.80,39.20,61.99,0.00,0.00,0.00,30.11,M,10.00,M,CLR,M,M,M,M,M,M,M,M,M,M,M,M,M,M,51.80,KCXP 101255Z AUTO 00000KT 10SM CLR 11/04 A3011 RMK AO2,M
RNO,2023-08-10 12:55,-119.7711,39.4839,1341.00,59.00,33.00,37.34,280.00,5.00,0.00,30.08,1013.30,10.00,M,CLR,M,M,M,M,M,M,M,M,M,M,M,M,M,M,59.00,KRNO 101255Z 28005KT 10SM CLR 15/01 A3008 RMK AO2 SLP133 T01500006,M
MEV,2023-08-10 12:55,-119.7500,38.9963,1441.42,44.60,35.60,70.48,0.00,0.00,0.00,30.10,M,10.00,M,CLR,M,M,M,M,M,M,M,M,M,M,M,M,M,M,44.60,KMEV 101255Z AUTO 00000KT 10SM CLR 07/02 A3010 RMK AO2,M
BAM,2023-08-10 12:55,-116.8743,40.5990,1382.36,50.00,28.40,43.03,180.00,4.00,0.00,30.04,M,10.00,M,CLR,M,M,M,M,M,M,M,M,M,M,M,M,M,M,50.00,KBAM 101255Z AUTO 18004KT 10SM CLR 10/M02 A3004 RMK AO1,M
HTH,2023-08-10 12:55,-118.6315,38.5448,1282.89,62.60,33.80,33.93,250.00,3.00,0.00,30.05,M,10.00,M,CLR,M,M,M,M,M,M,M,M,M,M,M,M,M,M,62.60,KHTH 101255Z AUTO 25003KT 10SM CLR 17/01 A3005 RMK A01,M
TMT,2023-08-10 12:55,-117.1971,39.4643,1749.34,37.80,23.40,55.74,0.00,0.00,0.00,30.14,M,M,M,CLR,M,M,M,M,M,M,M,M,M,M,M,M,M,M,37.80,KTMT 101255Z AUTO 00000KT CLR 03/M05 A3014 RMK AO2 T00321048 PWINO,M
INS,2023-08-10 12:55,-115.6733,36.5872,955.00,79.00,46.80,32.17,230.00,4.00,0.00,29.92,1007.90,10.00,M,OVC,M,M,M,10000.00,M,M,M,M,M,M,M,M,M,M,79.00,KINS 101255Z AUTO 23004KT 10SM OVC100 26/08 A2992 RMK AO2 SLP079 T02620082 $,M
LSV,2023-08-10 12:55,-115.0343,36.2362,570.00,86.00,51.00,30.00,150.00,4.00,0.00,29.81,1006.60,10.00,M,SCT,BKN,M,M,11000.00,13000.00,M,M,M,M,M,M,M,M,M,83.75,KLSV 101255Z AUTO 15004KT 10SM SCT110 BKN130 30/11 A2981 RMK AO2 LTG DSNT NE SLP066 T03000105 $,M
EKO,2023-08-10 12:56,-115.7860,40.8242,1367.00,51.00,36.00,56.31,80.00,3.00,0.00,30.06,1012.80,10.00,M,CLR,M,M,M,M,M,M,M,M,M,M,M,M,M,M,51.00,KEKO 101256Z AUTO 08003KT 10SM CLR 11/02 A3006 RMK AO2 SLP128 T01060022,M
WMC,2023-08-10 12:56,-117.8072,40.9019,1315.00,51.00,31.00,46.09,160.00,5.00,0.00,30.03,1012.30,10.00,M,CLR,M,M,M,M,M,M,M,M,M,M,M,M,M,M,51.00,KWMC 101256Z AUTO 16005KT 10SM CLR 11/M01 A3003 RMK AO2 SLP123 T01061006,M
NFL,2023-08-10 12:56,-118.7010,39.4166,1199.00,51.00,31.00,46.09,0.00,0.00,0.00,30.02,1013.60,10.00,M,CLR,M,M,M,M,M,M,M,M,M,M,M,M,M,M,51.00,KNFL 101256Z AUTO 00000KT 10SM CLR 11/M01 A3002 RMK AO2 SLP136 T01061006,M
HND,2023-08-10 12:56,-115.1344,35.9729,742.79,83.00,56.00,39.68,180.00,9.00,0.00,29.91,1011.00,10.00,M,CLR,M,M,M,M,M,M,M,M,M,M,M,M,M,M,82.29,KHND 101256Z 18009KT 10SM CLR 28/13 A2991 RMK AO2 SLP110 T02830133,M
TPH,2023-08-10 12:56,-117.0904,38.0505,1654.00,56.00,30.00,36.85,10.00,7.00,0.00,30.10,1011.60,10.00,M,CLR,M,M,M,M,M,M,M,M,M,M,M,M,M,M,56.00,KTPH 101256Z AUTO 01007KT 10SM CLR 13/M01 A3010 RMK AO2 SLP116 T01331011,M
LAS,2023-08-10 12:56,-115.1634,36.0719,663.00,85.00,54.00,34.59,180.00,8.00,0.00,29.86,1007.90,10.00,M,FEW,BKN,BKN,M,10000.00,13000.00,18000.00,M,M,M,M,M,M,M,M,83.45,KLAS 101256Z 18008KT 10SM FEW100 BKN130 BKN180 29/12 A2986 RMK AO2 SLP079 CB DSNT NE ACC DSNT ALQDS T02940122,M
RTS,2023-08-10 13:04,-119.8764,39.6682,1539.00,44.60,24.80,45.44,350.00,5.00,0.00,30.12,M,10.00,M,CLR,M,M,M,M,M,M,M,M,M,M,M,M,M,M,41.36,KRTS 101304Z AUTO 35005KT 10SM CLR 07/M04 A3012 RMK AO2,M
BVU,2023-08-10 13:15,-114.8611,35.9475,671.00,80.60,57.20,44.80,0.00,0.00,0.00,29.87,M,10.00,M,CLR,M,M,M,M,M,M,M,M,M,M,M,M,M,M,80.81,KBVU 101315Z AUTO 00000KT 10SM CLR 27/14 A2987 RMK AO2,M
CXP,2023-08-10 13:15,-119.7326,39.1923,1431.00,50.00,39.20,66.27,0.00,0.00,0.00,30.11,M,10.00,M,CLR,M,M,M,M,M,M,M,M,M,M,M,M,M,M,50.00,KCXP 101315Z AUTO 00000KT 10SM CLR 10/04 A3011 RMK AO2,M
05U,2023-08-10 13:15,-116.0051,39.6042,1811.23,51.80,28.40,40.25,M,M,0.00,30.14,M,10.00,M,M,M,M,M,M,M,M,M,M,M,M,M,M,M,M,51.80,K05U 101315Z AUTO 10SM 11/M02 A3014 RMK A01,M
MEV,2023-08-10 13:15,-119.7500,38.9963,1441.42,42.80,33.80,70.28,0.00,0.00,0.00,30.10,M,10.00,M,CLR,M,M,M,M,M,M,M,M,M,M,M,M,M,M,42.80,KMEV 101315Z AUTO 00000KT 10SM CLR 06/01 A3010 RMK AO2,M
BAM,2023-08-10 13:15,-116.8743,40.5990,1382.36,50.00,28.40,43.03,0.00,0.00,0.00,30.05,M,10.00,M,CLR,M,M,M,M,M,M,M,M,M,M,M,M,M,M,50.00,KBAM 101315Z AUTO 00000KT 10SM CLR 10/M02 A3005 RMK AO1,M
HTH,2023-08-10 13:15,-118.6315,38.5448,1282.89,62.60,33.80,33.93,230.00,4.00,0.00,30.06,M,10.00,M,CLR,M,M,M,M,M,M,M,M,M,M,M,M,M,M,62.60,KHTH 101315Z AUTO 23004KT 10SM CLR 17/01 A3006 RMK A01,M
TMT,2023-08-10 13:15,-117.1971,39.4643,1749.34,39.20,24.30,54.80,0.00,0.00,0.00,30.15,M,M,M,CLR,M,M,M,M,M,M,M,M,M,M,M,M,M,M,39.20,KTMT 101315Z AUTO 00000KT CLR 04/M04 A3015 RMK AO2 T00401043 PWINO,M
RTS,2023-08-10 13:24,-119.8764,39.6682,1539.00,48.20,26.60,42.73,340.00,7.00,0.00,30.12,M,10.00,M,CLR,M,M,M,M,M,M,M,M,M,M,M,M,M,M,44.53,KRTS 101324Z AUTO 34007KT 10SM CLR 09/M03 A3012 RMK AO2,M
BVU,2023-08-10 13:35,-114.8611,35.9475,671.00,82.40,55.40,39.58,0.00,0.00,0.00,29.87,M,10.00,M,CLR,M,M,M,M,M,M,M,M,M,M,M,M,M,M,81.75,KBVU 101335Z AUTO 00000KT 10SM CLR 28/13 A2987 RMK AO2,M
CXP,2023-08-10 13:35,-119.7326,39.1923,1431.00,51.80,37.40,57.77,0.00,0.00,0.00,30.12,M,10.00,M,CLR,M,M,M,M,M,M,M,M,M,M,M,M,M,M,51.80,KCXP 101335Z AUTO 00000KT 10SM CLR 11/03 A3012 RMK AO2,M
05U,2023-08-10 13:35,-116.0051,39.6042,1811.23,53.60,30.20,40.54,M,M,0.00,30.15,M,10.00,M,M,M,M,M,M,M,M,M,M,M,M,M,M,M,M,53.60,K05U 101335Z AUTO 10SM 12/M01 A3015 RMK A01,M
MEV,2023-08-10 13:35,-119.7500,38.9963,1441.42,41.00,33.80,75.33,0.00,0.00,0.00,30.10,M,10.00,M,CLR,M,M,M,M,M,M,M,M,M,M,M,M,M,M,41.00,KMEV 101335Z AUTO 00000KT 10SM CLR 05/01 A3010 RMK AO2,M
BAM,2023-08-10 13:35,-116.8743,40.5990,1382.36,51.80,28.40,40.25,190.00,3.00,0.00,30.05,M,10.00,M,CLR,M,M,M,M,M,M,M,M,M,M,M,M,M,M,51.80,KBAM 101335Z AUTO 19003KT 10SM CLR 11/M02 A3005 RMK AO1,M
HTH,2023-08-10 13:35,-118.6315,38.5448,1282.89,62.60,33.80,33.93,210.00,3.00,0.00,30.06,M,10.00,M,CLR,M,M,M,M,M,M,M,M,M,M,M,M,M,M,62.60,KHTH 101335Z AUTO 21003KT 10SM CLR 17/01 A3006 RMK A01,M
TMT,2023-08-10 13:35,-117.1971,39.4643,1749.34,44.00,25.50,47.86,0.00,0.00,0.00,30.15,M,M,M,CLR,M,M,M,M,M,M,M,M,M,M,M,M,M,M,44.00,KTMT 101335Z AUTO 00000KT CLR 07/M04 A3015 RMK AO2 LTG DSNT SE T00661036 PWINO,M
RTS,2023-08-10 13:44,-119.8764,39.6682,1539.00,53.60,26.60,34.98,0.00,0.00,0.00,30.13,M,10.00,M,CLR,M,M,M,M,M,M,M,M,M,M,M,M,M,M,53.60,KRTS 101344Z AUTO 00000KT 10SM CLR 12/M03 A3013 RMK AO2,M
P68,2023-08-10 13:53,-116.0056,39.6014,1993.00,55.00,31.00,39.80,190.00,6.00,0.00,30.13,1011.90,M,M,M,M,M,M,M,M,M,M,M,M,M,M,M,M,M,55.00,KP68 101353Z AUTO 19006KT 13/M01 A3013 RMK AO1 SLP119 T01281006,M
DRA,2023-08-10 13:53,-116.0278,36.6206,1009.00,77.00,50.00,38.74,40.00,4.00,0.00,29.94,1008.60,10.00,M,CLR,M,M,M,M,M,M,M,M,M,M,M,M,M,M,77.00,KDRA 101353Z AUTO 04004KT 10SM CLR 25/10 A2994 RMK AO2 SLP086 T02500100,M
ELY,2023-08-10 13:53,-114.8453,39.2950,1909.00,54.00,37.00,52.45,160.00,7.00,0.00,30.16,1011.40,10.00,M,CLR,M,M,M,M,M,M,M,M,M,M,M,M,M,M,54.00,KELY 101353Z AUTO 16007KT 10SM CLR 12/03 A3016 RMK AO2 SLP114 T01220028,M
VGT,2023-08-10 13:53,-115.1933,36.2111,667.00,88.00,54.00,31.43,140.00,3.00,0.00,29.87,1009.80,10.00,M,FEW,M,M,M,12000.00,M,M,M,M,M,M,M,M,M,M,85.98,KVGT 101353Z 14003KT 10SM FEW120 31/12 A2987 RMK AO2 LTG DSNT N AND NW SLP098 T03110122,M
LOL,2023-08-10 13:53,-118.5701,40.0684,1192.43,55.00,33.00,43.14,0.00,0.00,0.00,30.02,1012.80,10.00,M,CLR,M,M,M,M,M,M,M,M,M,M,M,M,M,M,55.00,KLOL 101353Z AUTO 00000KT 10SM CLR 13/01 A3002 RMK AO2 SLP128 T01280006,M
BVU,2023-08-10 13:55,-114.8611,35.9475,671.00,84.20,57.20,39.86,0.00,0.00,0.00,29.87,M,10.00,M,CLR,M,M,M,M,M,M,M,M,M,M,M,M,M,M,83.47,KBVU 101355Z AUTO 00000KT 10SM CLR 29/14 A2987 RMK AO2 LTG DSNT N AND E,M
CXP,2023-08-10 13:55,-119.7326,39.1923,1431.00,53.60,37.40,54.07,0.00,0.00,0.00,30.12,M,10.00,M,CLR,M,M,M,M,M,M,M,M,M,M,M,M,M,M,53.60,KCXP 101355Z AUTO 00000KT 10SM CLR 12/03 A3012 RMK AO2,M
RNO,2023-08-10 13:55,-119.7711,39.4839,1341.00,58.00,35.00,41.92,0.00,0.00,0.00,30.09,1013.80,10.00,M,CLR,M,M,M,M,M,M,M,M,M,M,M,M,M,M,58.00,KRNO 101355Z 00000KT 10SM CLR 14/02 A3009 RMK AO2 SLP138 T01440017,M
05U,2023-08-10 13:55,-116.0051,39.6042,1811.23,55.40,30.20,37.97,M,M,0.00,30.15,M,10.00,M,M,M,M,M,M,M,M,M,M,M,M,M,M,M,M,55.40,K05U 101355Z AUTO 10SM 13/M01 A3015 RMK A01,M
MEV,2023-08-10 13:55,-119.7500,38.9963,1441.42,44.60,33.80,65.61,130.00,4.00,0.00,30.11,M,10.00,M,CLR,M,M,M,M,M,M,M,M,M,M,M,M,M,M,42.13,KMEV 101355Z AUTO 13004KT 10SM CLR 07/01 A3011 RMK AO2,M
HTH,2023-08-10 13:55,-118.6315,38.5448,1282.89,66.20,33.80,29.92,210.00,4.00,0.00,30.06,M,10.00,M,CLR,M,M,M,M,M,M,M,M,M,M,M,M,M,M,66.20,KHTH 101355Z AUTO 21004KT 10SM CLR 19/01 A3006 RMK A01,M
BAM,2023-08-10 13:55,-116.8743,40.5990,1382.36,53.60,28.40,37.67,0.00,0.00,0.00,30.06,M,10.00,M,CLR,M,M,M,M,M,M,M,M,M,M,M,M,M,M,53.60,KBAM 101355Z AUTO 00000KT 10SM CLR 12/M02 A3006 RMK AO1,M
TMT,2023-08-10 13:55,-117.1971,39.4643,1749.34,47.00,27.70,46.78,0.00,0.00,0.00,30.15,M,M,M,CLR,M,M,M,M,M,M,M,M,M,M,M,M,M,M,47.00,KTMT 101355Z AUTO 00000KT CLR 08/M02 A3015 RMK AO2 T00831024 PWINO,M
INS,2023-08-10 13:55,-115.6733,36.5872,955.00,78.00,46.00,32.26,250.00,3.00,0.00,29.93,1008.20,10.00,M,OVC,M,M,M,10000.00,M,M,M,M,M,M,M,M,M,M,78.00,KINS 101355Z AUTO 25003KT 10SM OVC100 26/08 A2993 RMK AO2 LTG DSNT E SLP082 T02560077 $,M
LSV,2023-08-10 13:55,-115.0343,36.2362,570.00,86.40,53.00,31.88,150.00,5.00,0.00,29.83,1007.30,10.00,M,FEW,M,M,M,11000.00,M,M,M,M,M,M,M,M,M,M,84.40,KLSV 101355Z AUTO 15005KT 10SM FEW110 30/12 A2983 RMK AO2 LTG DSNT NW SLP073 T03020117 $,M
EKO,2023-08-10 13:56,-115.7860,40.8242,1367.00,54.00,35.00,48.46,90.00,4.00,0.00,30.07,1013.20,9.00,M,CLR,M,M,M,M,M,M,M,M,M,M,M,M,M,M,54.00,KEKO 101356Z AUTO 09004KT 9SM CLR 12/02 A3007 RMK AO2 SLP132 T01220017,M
WMC,2023-08-10 13:56,-117.8072,40.9019,1315.00,57.00,32.00,38.54,140.00,3.00,0.00,30.03,1012.40,10.00,M,CLR,M,M,M,M,M,M,M,M,M,M,M,M,M,M,57.00,KWMC 101356Z AUTO 14003KT 10SM CLR 14/00 A3003 RMK AO2 SLP124 T01390000,M
NFL,2023-08-10 13:56,-118.7010,39.4166,1199.00,60.00,34.00,37.50,160.00,4.00,0.00,30.03,1013.90,10.00,M,CLR,M,M,M,M,M,M,M,M,M,M,M,M,M,M,60.00,KNFL 101356Z 16004KT 10SM CLR 16/01 A3003 RMK AO2 SLP139 T01560011,M
HND,2023-08-10 13:56,-115.1344,35.9729,742.79,84.00,56.00,38.42,180.00,6.00,0.00,29.92,1011.40,10.00,M,CLR,M,M,M,M,M,M,M,M,M,M,M,M,M,M,83.05,KHND 101356Z 18006KT 10SM CLR 29/13 A2992 RMK AO2 SLP114 T02890133,M
TPH,2023-08-10 13:56,-117.0904,38.0505,1654.00,59.00,32.00,35.87,360.00,8.00,0.00,30.11,1012.00,10.00,M,CLR,M,M,M,M,M,M,M,M,M,M,M,M,M,M,59.00,KTPH 101356Z AUTO 36008KT 10SM CLR 15/00 A3011 RMK AO2 SLP120 T01500000,M
LAS,2023-08-10 13:56,-115.1634,36.0719,663.00,84.00,56.00,38.42,190.00,10.00,0.00,29.88,1008.60,10.00,M,FEW,BKN,BKN,M,10000.00,13000.00,18000.00,M,M,M,M,M,M,M,M,83.05,KLAS 101356Z 19010KT 10SM FEW100 BKN130 BKN180 29/13 A2988 RMK AO2 LTG DSNT N AND NW SLP086 CB DSNT NW-N ACC OHD T02890133,M
RTS,2023-08-10 14:04,-119.8764,39.6682,1539.00,57.20,28.40,33.05,0.00,0.00,0.00,30.13,M,10.00,M,CLR,M,M,M,M,M,M,M,M,M,M,M,M,M,M,57.20,KRTS 101404Z AUTO 00000KT 10SM CLR 14/M02 A3013 RMK AO2,M
BVU,2023-08-10 14:15,-114.8611,35.9475,671.00,84.20,57.20,39.86,0.00,0.00,0.00,29.88,M,10.00,M,FEW,M,M,M,12000.00,M,M,M,M,M,M,M,M,M,M,83.47,KBVU 101415Z AUTO 00000KT 10SM FEW120 29/14 A2988 RMK AO2,M
CXP,2023-08-10 14:15,-119.7326,39.1923,1431.00,57.20,39.20,50.91,0.00,0.00,0.00,30.12,M,10.00,M,CLR,M,M,M,M,M,M,M,M,M,M,M,M,M,M,57.20,KCXP 101415Z AUTO 00000KT 10SM CLR 14/04 A3012 RMK AO2,M
05U,2023-08-10 14:15,-116.0051,39.6042,1811.23,60.80,32.00,33.64,M,M,0.00,30.16,M,10.00,M,M,M,M,M,M,M,M,M,M,M,M,M,M,M,M,60.80,K05U 101415Z AUTO 10SM 16/M00 A3016 RMK A01,M
MEV,2023-08-10 14:15,-119.7500,38.9963,1441.42,50.00,35.60,57.52,130.00,3.00,0.00,30.11,M,10.00,M,CLR,M,M,M,M,M,M,M,M,M,M,M,M,M,M,50.00,KMEV 101415Z AUTO 13003KT 10SM CLR 10/02 A3011 RMK AO2,M
BAM,2023-08-10 14:15,-116.8743,40.5990,1382.36,59.00,30.20,33.35,0.00,0.00,0.00,30.07,M,10.00,M,CLR,M,M,M,M,M,M,M,M,M,M,M,M,M,M,59.00,KBAM 101415Z AUTO 00000KT 10SM CLR 15/M01 A3007 RMK AO1,M
HTH,2023-08-10 14:15,-118.6315,38.5448,1282.89,68.00,35.60,30.20,220.00,4.00,0.00,30.07,M,10.00,M,CLR,M,M,M,M,M,M,M,M,M,M,M,M,M,M,68.00,KHTH 101415Z AUTO 22004KT 10SM CLR 20/02 A3007 RMK A01,M
TMT,2023-08-10 14:15,-117.1971,39.4643,1749.34,49.00,29.30,46.33,0.00,0.00,0.00,30.15,M,M,M,CLR,M,M,M,M,M,M,M,M,M,M,M,M,M,M,49.00,KTMT 101415Z AUTO 00000KT CLR 10/M01 A3015 RMK AO2 T00951015 PWINO,M
RTS,2023-08-10 14:24,-119.8764,39.6682,1539.00,59.00,28.40,30.98,340.00,4.00,0.00,30.13,M,10.00,M,CLR,M,M,M,M,M,M,M,M,M,M,M,M,M,M,59.00,KRTS 101424Z AUTO 34004KT 10SM CLR 15/M02 A3013 RMK AO2,M
BVU,2023-08-10 14:35,-114.8611,35.9475,671.00,86.00,55.40,35.25,0.00,0.00,0.00,29.88,M,10.00,M,SCT,M,M,M,12000.00,M,M,M,M,M,M,M,M,M,M,84.54,KBVU 101435Z AUTO 00000KT 10SM SCT120 30/13 A2988 RMK AO2 LTG DSNT NE,M
CXP,2023-08-10 14:35,-119.7326,39.1923,1431.00,57.20,39.20,50.91,0.00,0.00,0.00,30.12,M,10.00,M,CLR,M,M,M,M,M,M,M,M,M,M,M,M,M,M,57.20,KCXP 101435Z AUTO 00000KT 10SM CLR 14/04 A3012 RMK AO2,M
05U,2023-08-10 14:35,-116.0051,39.6042,1811.23,64.40,32.00,29.63,M,M,0.00,30.16,M,10.00,M,M,M,M,M,M,M,M,M,M,M,M,M,M,M,M,64.40,K05U 101435Z AUTO 10SM 18/M00 A3016 RMK A01,M
MEV,2023-08-10 14:35,-119.7500,38.9963,1441.42,55.40,35.60,47.16,0.00,0.00,0.00,30.11,M,10.00,M,CLR,M,M,M,M,M,M,M,M,M,M,M,M,M,M,55.40,KMEV 101435Z AUTO 00000KT 10SM CLR 13/02 A3011 RMK AO2,M
HTH,2023-08-10 14:35,-118.6315,38.5448,1282.89,69.80,39.20,32.72,0.00,0.00,0.00,30.07,M,10.00,M,CLR,M,M,M,M,M,M,M,M,M,M,M,M,M,M,69.80,KHTH 101435Z AUTO 00000KT 10SM CLR 21/04 A3007 RMK A01,M
BAM,2023-08-10 14:35,-116.8743,40.5990,1382.36,60.80,32.00,33.64,0.00,0.00,0.00,30.07,M,10.00,M,CLR,M,M,M,M,M,M,M,M,M,M,M,M,M,M,60.80,KBAM 101435Z AUTO 00000KT 10SM CLR 16/00 A3007 RMK AO1,M
TMT,2023-08-10 14:35,-117.1971,39.4643,1749.34,52.00,31.00,44.42,0.00,0.00,0.00,30.15,M,M,M,CLR,M,M,M,M,M,M,M,M,M,M,M,M,M,M,52.00,KTMT 101435Z AUTO 00000KT CLR 11/M01 A3015 RMK AO2 T01121006 PWINO,M
RTS,2023-08-10 14:44,-119.8764,39.6682,1539.00,62.60,30.20,29.35,0.00,0.00,0.00,30.13,M,10.00,M,CLR,M,M,M,M,M,M,M,M,M,M,M,M,M,M,62.60,KRTS 101444Z AUTO 00000KT 10SM CLR 17/M01 A3013 RMK AO2,M
05U,2023-08-10 14:50,-116.0051,39.6042,1811.23,64.40,32.00,29.63,M,M,0.00,30.16,M,10.00,M,M,M,M,M,M,M,M,M,M,M,M,M,M,M,M,64.40,K05U 101450Z AUTO 10SM 18/M00 A3016 RMK A01,M
P68,2023-08-10 14:53,-116.0056,39.6014,1993.00,63.00,33.00,32.40,160.00,5.00,0.00,30.14,1011.80,M,M,M,M,M,M,M,M,M,M,M,M,M,M,M,M,M,63.00,KP68 101453Z AUTO 16005KT 17/01 A3014 RMK AO1 SLP118 T01720006 51008,M
DRA,2023-08-10 14:53,-116.0278,36.6206,1009.00,80.00,50.00,35.10,180.00,3.00,0.00,29.96,1009.30,10.00,M,SCT,M,M,M,9500.00,M,M,M,M,M,M,M,M,M,M,79.55,KDRA 101453Z AUTO 18003KT 10SM SCT095 27/10 A2996 RMK AO2 SLP093 T02670100 53015,M
ELY,2023-08-10 14:53,-114.8453,39.2950,1909.00,66.00,41.00,39.99,180.00,3.00,0.00,30.16,1011.40,10.00,M,CLR,M,M,M,M,M,M,M,M,M,M,M,M,M,M,66.00,KELY 101453Z AUTO 18003KT 10SM CLR 19/05 A3016 RMK AO2 SLP114 T01890050 51006,M
VGT,2023-08-10 14:53,-115.1933,36.2111,667.00,89.00,55.00,31.59,150.00,4.00,0.00,29.88,1010.30,10.00,M,SCT,BKN,M,M,10000.00,12000.00,M,M,VCTS,M,M,M,M,M,M,87.12,KVGT 101453Z 15004KT 10SM VCTS SCT100 BKN120 32/13 A2988 RMK AO2 LTG DSNT N AND W SLP103 T03170128 51014,M
LOL,2023-08-10 14:53,-118.5701,40.0684,1192.43,64.00,35.00,33.89,0.00,0.00,0.00,30.03,1012.90,10.00,M,CLR,M,M,M,M,M,M,M,M,M,M,M,M,M,M,64.00,KLOL 101453Z AUTO 00000KT 10SM CLR 18/02 A3003 RMK AO2 SLP129 T01780017 53006,M
BVU,2023-08-10 14:55,-114.8611,35.9475,671.00,86.00,53.60,33.01,0.00,0.00,0.00,29.89,M,10.00,M,SCT,M,M,M,12000.00,M,M,M,M,M,M,M,M,M,M,84.18,KBVU 101455Z AUTO 00000KT 10SM SCT120 30/12 A2989 RMK AO2 LTG DSNT N AND NW,M
CXP,2023-08-10 14:55,-119.7326,39.1923,1431.00,59.00,39.20,47.72,0.00,0.00,0.00,30.12,M,10.00,M,CLR,M,M,M,M,M,M,M,M,M,M,M,M,M,M,59.00,KCXP 101455Z AUTO 00000KT 10SM CLR 15/04 A3012 RMK AO2,M
RNO,2023-08-10 14:55,-119.7711,39.4839,1341.00,63.00,34.00,33.72,0.00,0.00,0.00,30.09,1013.90,10.00,M,CLR,M,M,M,M,M,M,M,M,M,M,M,M,M,M,63.00,KRNO 101455Z 00000KT 10SM CLR 17/01 A3009 RMK AO2 SLP139 T01720011 51005,M
MEV,2023-08-10 14:55,-119.7500,38.9963,1441.42,57.20,37.40,47.44,0.00,0.00,0.00,30.11,M,10.00,M,CLR,M,M,M,M,M,M,M,M,M,M,M,M,M,M,57.20,KMEV 101455Z AUTO 00000KT 10SM CLR 14/03 A3011 RMK AO2,M
HTH,2023-08-10 14:55,-118.6315,38.5448,1282.89,71.60,41.00,33.00,0.00,0.00,0.00,30.08,M,10.00,M,CLR,M,M,M,M,M,M,M,M,M,M,M,M,M,M,71.60,KHTH 101455Z AUTO 00000KT 10SM CLR 22/05 A3008 RMK A01,M
BAM,2023-08-10 14:55,-116.8743,40.5990,1382.36,64.40,32.00,29.63,0.00,0.00,0.00,30.07,M,10.00,M,CLR,M,M,M,M,M,M,M,M,M,M,M,M,M,M,64.40,KBAM 101455Z AUTO 00000KT 10SM CLR 18/00 A3007 RMK AO1,M
TMT,2023-08-10 14:55,-117.1971,39.4643,1749.34,55.80,31.60,39.60,170.00,3.00,0.00,30.16,M,M,M,CLR,M,M,M,M,M,M,M,M,M,M,M,M,M,M,55.80,KTMT 101455Z AUTO 17003KT CLR 13/00 A3016 RMK AO2 T01321002 PWINO,M
INS,2023-08-10 14:55,-115.6733,36.5872,955.00,80.60,48.00,31.94,190.00,4.00,0.00,29.94,1008.60,10.00,M,BKN,OVC,M,M,11000.00,13000.00,M,M,M,M,M,M,M,M,M,79.69,KINS 101455Z AUTO 19004KT 10SM BKN110 OVC130 27/09 A2994 RMK AO2 LTG DSNT E AND S-SW SLP086 T02700089 52013 $,M
LSV,2023-08-10 14:55,-115.0343,36.2362,570.00,89.60,54.00,29.88,160.00,6.00,0.00,29.84,1007.60,10.00,M,CLR,M,M,M,M,M,M,M,M,M,M,M,M,M,M,87.44,KLSV 101455Z AUTO 16006KT 10SM CLR 32/12 A2984 RMK AO2 LTG DSNT N SLP076 T03200122 52013 $,M
EKO,2023-08-10 14:56,-115.7860,40.8242,1367.00,63.00,34.00,33.72,0.00,0.00,0.00,30.08,1013.30,10.00,M,CLR,M,M,M,M,M,M,M,M,M,M,M,M,M,M,63.00,KEKO 101456Z AUTO 00000KT 10SM CLR 17/01 A3008 RMK AO2 SLP133 T01720011 51010,M
WMC,2023-08-10 14:56,-117.8072,40.9019,1315.00,68.00,33.00,27.23,0.00,0.00,0.00,30.05,1012.50,10.00,M,CLR,M,M,M,M,M,M,M,M,M,M,M,M,M,M,68.00,KWMC 101456Z AUTO 00000KT 10SM CLR 20/01 A3005 RMK AO2 SLP125 T02000006 53008,M
NFL,2023-08-10 14:56,-118.7010,39.4166,1199.00,71.00,30.00,21.77,M,4.00,0.00,30.04,1014.10,10.00,M,CLR,M,M,M,M,M,M,M,M,M,M,M,M,M,M,71.00,KNFL 101456Z VRB04KT 10SM CLR 22/M01 A3004 RMK AO2 SLP141 T02171011 53006,M
HND,2023-08-10 14:56,-115.1344,35.9729,742.79,83.00,59.00,44.20,200.00,11.00,T,29.93,1012.00,10.00,M,FEW,BKN,M,M,8000.00,11000.00,M,M,M,M,M,M,M,M,M,82.94,KHND 101456Z 20011KT 10SM FEW080 BKN110 28/15 A2993 RMK AO2 LTG DSNT S-NW RAB38E53 SLP120 P0000 60000 T02830150 51014,M
TPH,2023-08-10 14:56,-117.0904,38.0505,1654.00,67.00,37.00,33.04,360.00,3.00,0.00,30.12,1012.10,10.00,M,CLR,M,M,M,M,M,M,M,M,M,M,M,M,M,M,67.00,KTPH 101456Z AUTO 36003KT 10SM CLR 19/03 A3012 RMK AO2 SLP121 T01940028 53010,M
LAS,2023-08-10 14:56,-115.1634,36.0719,663.00,84.00,58.00,41.29,160.00,10.00,T,29.89,1009.10,10.00,18.00,BKN,BKN,OVC,M,10000.00,13000.00,18000.00,M,-RA,M,M,M,M,M,M,83.50,KLAS 101456Z 16010G18KT 10SM -RA BKN100 BKN130 OVC180 29/14 A2989 RMK AO2 LTG DSNT S-NW RAB54 SLP091 P0000 60000 T02890144 51016,M
RTS,2023-08-10 15:04,-119.8764,39.6682,1539.00,64.40,32.00,29.63,0.00,0.00,0.00,30.13,M,10.00,M,CLR,M,M,M,M,M,M,M,M,M,M,M,M,M,M,64.40,KRTS 101504Z AUTO 00000KT 10SM CLR 18/M00 A3013 RMK AO2,M
LAS,2023-08-10 15:10,-115.1634,36.0719,663.00,84.00,58.00,41.29,180.00,8.00,T,29.89,M,10.00,M,BKN,BKN,OVC,M,10000.00,13000.00,18000.00,M,-TSRA,M,M,M,M,M,M,83.50,KLAS 101510Z 18008KT 10SM -TSRA BKN100 BKN130 OVC180 29/14 A2989 RMK AO2 LTG DSNT S-NW TSE07B10 OCNL LTGIC W TS W MOV N P0000 T02890144,M
05U,2023-08-10 15:10,-116.0051,39.6042,1811.23,68.00,32.00,26.15,M,M,0.00,30.16,M,10.00,M,M,M,M,M,M,M,M,M,M,M,M,M,M,M,M,68.00,K05U 101510Z AUTO 10SM 20/00 A3016 RMK A01,M
LSV,2023-08-10 15:12,-115.0343,36.2362,570.00,89.60,55.40,31.45,180.00,13.00,0.00,29.85,1007.90,10.00,M,FEW,OVC,M,M,10000.00,15000.00,M,M,TS,M,M,M,M,M,M,87.78,KLSV 101512Z COR AUTO 18013KT 10SM TS FEW100CB OVC150 32/13 A2985 RMK AO2 TSB12 SLP079 $ COR 1516,M
VGT,2023-08-10 15:13,-115.1933,36.2111,667.00,88.00,56.00,33.81,170.00,9.00,0.00,29.90,M,10.00,M,BKN,M,M,M,10000.00,M,M,M,TS,M,M,M,M,M,M,86.44,KVGT 101513Z 17009KT 10SM TS BKN100 31/13 A2990 RMK AO2 LTG DSNT W AND NW TSB07 T03110133,M
BVU,2023-08-10 15:15,-114.8611,35.9475,671.00,86.00,53.60,33.01,160.00,3.00,0.00,29.90,M,10.00,M,FEW,M,M,M,12000.00,M,M,M,M,M,M,M,M,M,M,84.18,KBVU 101515Z AUTO 16003KT 10SM FEW120 30/12 A2990 RMK AO2 LTG DSNT N AND NW,M
CXP,2023-08-10 15:15,-119.7326,39.1923,1431.00,60.80,37.40,41.71,0.00,0.00,0.00,30.12,M,10.00,M,CLR,M,M,M,M,M,M,M,M,M,M,M,M,M,M,60.80,KCXP 101515Z AUTO 00000KT 10SM CLR 16/03 A3012 RMK AO2,M
MEV,2023-08-10 15:15,-119.7500,38.9963,1441.42,59.00,37.40,44.47,0.00,0.00,0.00,30.11,M,10.00,M,CLR,M,M,M,M,M,M,M,M,M,M,M,M,M,M,59.00,KMEV 101515Z AUTO 00000KT 10SM CLR 15/03 A3011 RMK AO2,M
HTH,2023-08-10 15:15,-118.6315,38.5448,1282.89,71.60,37.40,28.68,0.00,0.00,0.00,30.08,M,10.00,M,CLR,M,M,M,M,M,M,M,M,M,M,M,M,M,M,71.60,KHTH 101515Z AUTO 00000KT 10SM CLR 22/03 A3008 RMK A01,M
BAM,2023-08-10 15:15,-116.8743,40.5990,1382.36,69.80,32.00,24.59,0.00,0.00,0.00,30.08,M,10.00,M,CLR,M,M,M,M,M,M,M,M,M,M,M,M,M,M,69.80,KBAM 101515Z AUTO 00000KT 10SM CLR 21/00 A3008 RMK AO1,M
TMT,2023-08-10 15:15,-117.1971,39.4643,1749.34,58.60,31.50,35.66,0.00,0.00,0.00,30.15,M,M,M,CLR,M,M,M,M,M,M,M,M,M,M,M,M,M,M,58.60,KTMT 101515Z AUTO 00000KT CLR 15/00 A3015 RMK AO2 T01481003 PWINO,M
LSV,2023-08-10 15:19,-115.0343,36.2362,570.00,89.60,57.20,33.56,130.00,26.00,0.00,29.85,1007.90,8.00,40.00,SCT,M,M,M,10000.00,M,M,M,TS,M,M,M,M,M,M,88.28,KLSV 101519Z AUTO 13026G40KT 8SM TS SCT100 32/14 A2985 RMK AO2 WSHFT 11 TSB12 SLP079 $,M
LSV,2023-08-10 15:20,-115.0343,36.2362,570.00,89.60,59.00,35.81,120.00,12.00,0.00,29.86,1008.30,6.00,40.00,FEW,SCT,M,M,2700.00,10000.00,M,M,-TSRA,M,M,M,M,M,M,88.86,KLSV 101520Z AUTO 12012G40KT 6SM -TSRA FEW027 SCT100 32/15 A2986 RMK AO2 RAB20 TSB12 SLP083 $,M
RTS,2023-08-10 15:24,-119.8764,39.6682,1539.00,66.20,30.20,25.88,0.00,0.00,0.00,30.13,M,10.00,M,CLR,M,M,M,M,M,M,M,M,M,M,M,M,M,M,66.20,KRTS 101524Z AUTO 00000KT 10SM CLR 19/M01 A3013 RMK AO2,M
BVU,2023-08-10 15:35,-114.8611,35.9475,671.00,87.80,53.60,31.17,180.00,4.00,0.00,29.90,M,10.00,M,SCT,M,M,M,12000.00,M,M,M,M,M,M,M,M,M,M,85.72,KBVU 101535Z AUTO 18004KT 10SM SCT120 31/12 A2990 RMK AO2 LTG DSNT NW,M
CXP,2023-08-10 15:35,-119.7326,39.1923,1431.00,62.60,37.40,39.14,0.00,0.00,0.00,30.12,M,10.00,M,CLR,M,M,M,M,M,M,M,M,M,M,M,M,M,M,62.60,KCXP 101535Z AUTO 00000KT 10SM CLR 17/03 A3012 RMK AO2,M
05U,2023-08-10 15:35,-116.0051,39.6042,1811.23,71.60,32.00,23.13,M,M,0.00,30.16,M,10.00,M,M,M,M,M,M,M,M,M,M,M,M,M,M,M,M,71.60,K05U 101535Z AUTO 10SM 22/M00 A3016 RMK A01,M
MEV,2023-08-10 15:35,-119.7500,38.9963,1441.42,60.80,37.40,41.71,0.00,0.00,0.00,30.11,M,10.00,M,CLR,M,M,M,M,M,M,M,M,M,M,M,M,M,M,60.80,KMEV 101535Z AUTO 00000KT 10SM CLR 16/03 A3011 RMK AO2,M
HTH,2023-08-10 15:35,-118.6315,38.5448,1282.89,73.40,35.60,25.13,0.00,0.00,0.00,30.08,M,10.00,M,CLR,M,M,M,M,M,M,M,M,M,M,M,M,M,M,73.40,KHTH 101535Z AUTO 00000KT 10SM CLR 23/02 A3008 RMK A01,M
BAM,2023-08-10 15:35,-116.8743,40.5990,1382.36,73.40,32.00,21.76,0.00,0.00,0.00,30.07,M,10.00,M,CLR,M,M,M,M,M,M,M,M,M,M,M,M,M,M,73.40,KBAM 101535Z AUTO 00000KT 10SM CLR 23/00 A3007 RMK AO1,M
TMT,2023-08-10 15:35,-117.1971,39.4643,1749.34,62.00,31.00,30.96,0.00,0.00,0.00,30.15,M,M,M,CLR,M,M,M,M,M,M,M,M,M,M,M,M,M,M,62.00,KTMT 101535Z AUTO 00000KT CLR 17/00 A3015 RMK AO2 T01661005 PWINO,M
LAS,2023-08-10 15:36,-115.1634,36.0719,663.00,86.00,56.00,36.03,190.00,10.00,T,29.91,M,10.00,16.00,SCT,BKN,BKN,M,10000.00,13000.00,18000.00,M,M,M,M,M,M,M,M,84.68,KLAS 101536Z 19010G16KT 10SM SCT100 BKN130 BKN180 30/13 A2991 RMK AO2 LTG DSNT W-NE RAE22 TSE07B10 OCNL LTGIC DSNT NW-N P0000 T03000133,M
LSV,2023-08-10 15:38,-115.0343,36.2362,570.00,80.60,62.60,54.30,200.00,4.00,0.00,29.87,1008.90,10.00,M,SCT,M,M,M,10000.00,M,M,M,TS,M,M,M,M,M,M,81.84,KLSV 101538Z AUTO 20004KT 10SM TS SCT100 27/17 A2987 RMK AO2 RAB20E38 TSB12 SLP089 $,M
VGT,2023-08-10 15:39,-115.1933,36.2111,667.00,83.00,63.00,50.94,270.00,8.00,0.05,29.92,M,2.50,M,FEW,SCT,OVC,M,5000.00,7500.00,10000.00,M,-TSRA,M,M,M,M,M,M,84.07,KVGT 101539Z 27008KT 2 1/2SM -TSRA FEW050 SCT075 OVC100 28/17 A2992 RMK AO2 LTG DSNT ALQDS RAB21 TSB07 P0005 T02830172,M
LSV,2023-08-10 15:40,-115.0343,36.2362,570.00,80.60,62.60,54.30,240.00,9.00,0.00,29.87,1008.90,10.00,M,SCT,M,M,M,10000.00,M,M,M,VCTS,M,M,M,M,M,M,81.84,KLSV 101540Z AUTO 24009KT 10SM VCTS SCT100 27/17 A2987 RMK AO2 RAB20E38 TSB12E40 SLP089 $,M
RTS,2023-08-10 15:44,-119.8764,39.6682,1539.00,66.20,28.40,24.04,0.00,0.00,0.00,30.13,M,10.00,M,CLR,M,M,M,M,M,M,M,M,M,M,M,M,M,M,66.20,KRTS 101544Z AUTO 00000KT 10SM CLR 19/M02 A3013 RMK AO2,M
VGT,2023-08-10 15:51,-115.1933,36.2111,667.00,80.60,64.40,57.84,300.00,14.00,0.08,29.93,M,1.50,M,FEW,OVC,M,M,2600.00,9500.00,M,M,-TSRA,M,M,M,M,M,M,82.27,KVGT 101551Z 30014KT 1 1/2SM -TSRA FEW026 OVC095 27/18 A2993 RMK AO2 LTG DSNT NW-E RAB21 TSB07 P0008,M
P68,2023-08-10 15:53,-116.0056,39.6014,1993.00,72.00,30.00,21.04,0.00,0.00,0.00,30.14,1011.50,M,M,M,M,M,M,M,M,M,M,M,M,M,M,M,M,M,72.00,KP68 101553Z AUTO 00000KT 22/M01 A3014 RMK AO1 SLP115 T02221011,M
DRA,2023-08-10 15:53,-116.0278,36.6206,1009.00,75.00,59.00,57.50,240.00,18.00,T,30.01,1011.10,10.00,30.00,SCT,OVC,M,M,8000.00,10000.00,M,M,-RA,M,M,M,30.00,240.00,2023-08-10 15:53,75.00,KDRA 101553Z AUTO 24018G30KT 10SM -RA SCT080 OVC100 24/15 A3001 RMK AO2 PK WND 24030/1553 RAB43 SLP111 P0000 T02390150,M
ELY,2023-08-10 15:53,-114.8453,39.2950,1909.00,73.00,40.00,30.28,210.00,8.00,0.00,30.16,1010.20,10.00,M,CLR,M,M,M,M,M,M,M,M,M,M,M,M,M,M,73.00,KELY 101553Z AUTO 21008KT 10SM CLR 23/04 A3016 RMK AO2 SLP102 T02280044,M
VGT,2023-08-10 15:53,-115.1933,36.2111,667.00,79.00,65.00,62.25,280.00,14.00,0.08,29.93,1012.40,1.50,M,FEW,OVC,M,M,2000.00,9500.00,M,M,-TSRA,M,M,M,M,M,M,79.00,KVGT 101553Z 28014KT 1 1/2SM -TSRA FEW020 OVC095 26/18 A2993 RMK AO2 LTG DSNT NW-E RAB21 TSB07 SLP124 P0008 T02610183,M
LOL,2023-08-10 15:53,-118.5701,40.0684,1192.43,74.00,36.00,25.02,0.00,0.00,0.00,30.03,1012.50,10.00,M,CLR,M,M,M,M,M,M,M,M,M,M,M,M,M,M,74.00,KLOL 101553Z AUTO 00000KT 10SM CLR 23/02 A3003 RMK AO2 SLP125 T02330022,M
BVU,2023-08-10 15:55,-114.8611,35.9475,671.00,87.80,53.60,31.17,200.00,5.00,0.00,29.91,M,10.00,M,FEW,FEW,M,M,6500.00,12000.00,M,M,M,M,M,M,M,M,M,85.72,KBVU 101555Z AUTO 20005KT 10SM FEW065 FEW120 31/12 A2991 RMK AO2 LTG DSNT NE AND NW,M
RNO,2023-08-10 15:55,-119.7711,39.4839,1341.00,69.00,32.00,25.27,0.00,0.00,0.00,30.10,1013.80,10.00,M,CLR,M,M,M,M,M,M,M,M,M,M,M,M,M,M,69.00,KRNO 101555Z 00000KT 10SM CLR 21/00 A3010 RMK AO2 SLP138 T02060000,M
CXP,2023-08-10 15:55,-119.7326,39.1923,1431.00,64.40,37.40,36.74,0.00,0.00,0.00,30.12,M,10.00,M,CLR,M,M,M,M,M,M,M,M,M,M,M,M,M,M,64.40,KCXP 101555Z AUTO 00000KT 10SM CLR 18/03 A3012 RMK AO2,M
05U,2023-08-10 15:55,-116.0051,39.6042,1811.23,75.20,30.20,19.05,M,M,0.00,30.16,M,10.00,M,M,M,M,M,M,M,M,M,M,M,M,M,M,M,M,75.20,K05U 101555Z AUTO 10SM 24/M01 A3016 RMK A01,M
MEV,2023-08-10 15:55,-119.7500,38.9963,1441.42,64.40,39.20,39.43,0.00,0.00,0.00,30.11,M,10.00,M,CLR,M,M,M,M,M,M,M,M,M,M,M,M,M,M,64.40,KMEV 101555Z AUTO 00000KT 10SM CLR 18/04 A3011 RMK AO2,M
BAM,2023-08-10 15:55,-116.8743,40.5990,1382.36,75.20,32.00,20.49,0.00,0.00,0.00,30.07,M,10.00,M,CLR,M,M,M,M,M,M,M,M,M,M,M,M,M,M,75.20,KBAM 101555Z AUTO 00000KT 10SM CLR 24/00 A3007 RMK AO1,M
HTH,2023-08-10 15:55,-118.6315,38.5448,1282.89,73.40,35.60,25.13,320.00,3.00,0.00,30.08,M,10.00,M,CLR,M,M,M,M,M,M,M,M,M,M,M,M,M,M,73.40,KHTH 101555Z AUTO 32003KT 10SM CLR 23/02 A3008 RMK A01,M
TMT,2023-08-10 15:55,-117.1971,39.4643,1749.34,65.00,34.00,31.44,300.00,3.00,0.00,30.15,M,M,M,CLR,M,M,M,M,M,M,M,M,M,M,M,M,M,M,65.00,KTMT 101555Z AUTO 30003KT CLR 18/01 A3015 RMK AO2 T01840011 PWINO,M
INS,2023-08-10 15:55,-115.6733,36.5872,955.00,82.00,50.00,32.88,200.00,6.00,0.00,29.98,1009.90,10.00,M,OVC,M,M,M,8500.00,M,M,M,VCTS,M,M,M,M,M,M,80.73,KINS 101555Z AUTO 20006KT 10SM VCTS OVC085 28/10 A2998 RMK AO2 SLP099 T02780100 $,M
LSV,2023-08-10 15:55,-115.0343,36.2362,570.00,80.40,66.20,61.99,260.00,7.00,0.03,29.88,1009.20,10.00,M,BKN,M,M,M,10000.00,M,M,M,M,M,M,M,40.00,120.00,2023-08-10 15:17,82.54,KLSV 101555Z AUTO 26007KT 10SM BKN100 27/19 A2988 RMK AO2 PK WND 12040/17 LTG DSNT N-NE AND SW-W RAB20E38 TSB12E40 SLP092 P0003 T02690190 $,M
EKO,2023-08-10 15:56,-115.7860,40.8242,1367.00,71.00,35.00,26.62,0.00,0.00,0.00,30.09,1013.10,10.00,M,CLR,M,M,M,M,M,M,M,M,M,M,M,M,M,M,71.00,KEKO 101556Z AUTO 00000KT 10SM CLR 22/02 A3009 RMK AO2 SLP131 T02170017,M
WMC,2023-08-10 15:56,-117.8072,40.9019,1315.00,76.00,35.00,22.49,M,4.00,0.00,30.05,1012.50,10.00,M,CLR,M,M,M,M,M,M,M,M,M,M,M,M,M,M,76.00,KWMC 101556Z AUTO VRB04KT 10SM CLR 24/02 A3005 RMK AO2 SLP125 T02440017,M
NFL,2023-08-10 15:56,-118.7010,39.4166,1199.00,75.00,32.00,20.63,210.00,4.00,0.00,30.04,1014.30,10.00,M,CLR,M,M,M,M,M,M,M,M,M,M,M,M,M,M,75.00,KNFL 101556Z 21004KT 10SM CLR 24/00 A3004 RMK AO2 SLP143 T02390000,M
HND,2023-08-10 15:56,-115.1344,35.9729,742.79,86.00,57.00,37.35,220.00,8.00,0.00,29.95,1012.60,10.00,M,SCT,M,M,M,10000.00,M,M,M,M,M,M,M,M,M,M,84.92,KHND 101556Z 22008KT 10SM SCT100 30/14 A2995 RMK AO2 LTG DSNT NW-NE SLP126 T03000139,M
LAS,2023-08-10 15:56,-115.1634,36.0719,663.00,87.00,56.00,34.90,180.00,6.00,T,29.92,1010.00,10.00,M,SCT,BKN,BKN,M,10000.00,13000.00,18000.00,M,M,M,M,M,M,M,M,85.54,KLAS 101556Z 18006KT 10SM SCT100 BKN130 BKN180 31/13 A2992 RMK AO2 LTG DSNT NW-NE RAE22 TSE07B10 SLP100 TSB10E36 TS MOV N CB DSNT N P0000 T03060133,M
TPH,2023-08-10 15:56,-117.0904,38.0505,1654.00,72.00,36.00,26.77,0.00,0.00,0.00,30.12,1011.80,10.00,M,CLR,M,M,M,M,M,M,M,M,M,M,M,M,M,M,72.00,KTPH 101556Z AUTO 00000KT 10SM CLR 22/02 A3012 RMK AO2 SLP118 T02220022,M
VGT,2023-08-10 16:00,-115.1933,36.2111,667.00,78.00,66.00,66.61,310.00,12.00,T,29.93,M,10.00,M,OVC,M,M,M,9000.00,M,M,M,-TSRA,M,M,M,M,M,M,78.00,KVGT 101600Z 31012KT 10SM -TSRA OVC090 26/19 A2993 RMK AO2 LTG DSNT NW-E P0000 T02560189,M
RTS,2023-08-10 16:04,-119.8764,39.6682,1539.00,68.00,28.40,22.59,0.00,0.00,0.00,30.13,M,10.00,M,CLR,M,M,M,M,M,M,M,M,M,M,M,M,M,M,68.00,KRTS 101604Z AUTO 00000KT 10SM CLR 20/M02 A3013 RMK AO2,M
BVU,2023-08-10 16:15,-114.8611,35.9475,671.00,86.00,59.00,40.14,300.00,3.00,0.00,29.91,M,10.00,M,FEW,FEW,FEW,M,2600.00,4900.00,6000.00,M,-DZ,M,M,M,M,M,M,85.47,KBVU 101615Z AUTO 30003KT 10SM -DZ FEW026 FEW049 FEW060 30/15 A2991 RMK AO2 LTG DSNT N AND NE,M
CXP,2023-08-10 16:15,-119.7326,39.1923,1431.00,66.20,37.40,34.51,0.00,0.00,0.00,30.12,M,10.00,M,CLR,M,M,M,M,M,M,M,M,M,M,M,M,M,M,66.20,KCXP 101615Z AUTO 00000KT 10SM CLR 19/03 A3012 RMK AO2,M
05U,2023-08-10 16:15,-116.0051,39.6042,1811.23,77.00,28.40,16.67,M,M,0.00,30.16,M,10.00,M,M,M,M,M,M,M,M,M,M,M,M,M,M,M,M,77.00,K05U 101615Z AUTO 10SM 25/M02 A3016 RMK A01,M
MEV,2023-08-10 16:15,-119.7500,38.9963,1441.42,66.20,37.40,34.51,160.00,3.00,0.00,30.11,M,10.00,M,CLR,M,M,M,M,M,M,M,M,M,M,M,M,M,M,66.20,KMEV 101615Z AUTO 16003KT 10SM CLR 19/03 A3011 RMK AO2,M
HTH,2023-08-10 16:15,-118.6315,38.5448,1282.89,75.20,33.80,22.02,350.00,4.00,0.00,30.07,M,10.00,M,CLR,M,M,M,M,M,M,M,M,M,M,M,M,M,M,75.20,KHTH 101615Z AUTO 35004KT 10SM CLR 24/01 A3007 RMK A01,M
BAM,2023-08-10 16:15,-116.8743,40.5990,1382.36,77.00,32.00,19.30,0.00,0.00,0.00,30.07,M,10.00,M,CLR,M,M,M,M,M,M,M,M,M,M,M,M,M,M,77.00,KBAM 101615Z AUTO 00000KT 10SM CLR 25/00 A3007 RMK AO1,M
TMT,2023-08-10 16:15,-117.1971,39.4643,1749.34,67.50,36.00,31.22,240.00,3.00,0.00,30.15,M,M,M,CLR,M,M,M,M,M,M,M,M,M,M,M,M,M,M,67.50,KTMT 101615Z AUTO 24003KT CLR 20/02 A3015 RMK AO2 T01970022 PWINO,M
LSV,2023-08-10 16:17,-115.0343,36.2362,570.00,80.60,64.40,57.84,280.00,16.00,0.00,29.91,1010.30,10.00,20.00,OVC,M,M,M,10000.00,M,M,M,-RA,M,M,M,M,M,M,82.27,KLSV 101617Z AUTO 28016G20KT 10SM -RA OVC100 27/18 A2991 RMK AO2 LTG DSNT NE RAB17 PRESRR SLP103 $,M
VGT,2023-08-10 16:20,-115.1933,36.2111,667.00,77.00,66.00,68.85,10.00,9.00,T,29.94,M,10.00,M,FEW,BKN,OVC,M,5500.00,9000.00,11000.00,M,VCTS -RA,M,M,M,M,M,M,77.00,KVGT 101620Z 01009KT 10SM VCTS -RA FEW055 BKN090 OVC110 25/19 A2994 RMK AO2 LTG DSNT N AND NE TSE14 P0000 T02500189,M
LAS,2023-08-10 16:23,-115.1634,36.0719,663.00,81.00,63.00,54.36,300.00,12.00,T,29.93,M,10.00,M,SCT,BKN,BKN,M,10000.00,13000.00,18000.00,M,M,M,M,M,M,M,M,82.28,KLAS 101623Z 30012KT 10SM SCT100 BKN130 BKN180 27/17 A2993 RMK AO2 WSHFT 1603 LTG DSNT N AND NE RAB03E23 CB DSNT N-NE P0000 T02720172,M
RTS,2023-08-10 16:24,-119.8764,39.6682,1539.00,69.80,28.40,21.24,0.00,0.00,0.00,30.13,M,10.00,M,CLR,M,M,M,M,M,M,M,M,M,M,M,M,M,M,69.80,KRTS 101624Z AUTO 00000KT 10SM CLR 21/M02 A3013 RMK AO2,M
LSV,2023-08-10 16:27,-115.0343,36.2362,570.00,78.80,66.20,65.33,320.00,13.00,0.00,29.90,1010.00,9.00,M,FEW,FEW,BKN,M,5500.00,7000.00,10000.00,M,RA,M,M,M,M,M,M,78.80,KLSV 101627Z AUTO 32013KT 9SM RA FEW055 FEW070 BKN100 26/19 A2990 RMK AO2 WSHFT 14 LTG DSNT N-NE RAB17 SLP100 $,M
VGT,2023-08-10 16:29,-115.1933,36.2111,667.00,77.00,67.00,71.28,330.00,12.00,T,29.94,M,10.00,M,FEW,FEW,BKN,M,5500.00,7000.00,10000.00,M,-RA,M,M,M,M,M,M,77.00,KVGT 101629Z 33012KT 10SM -RA FEW055 FEW070 BKN100 25/19 A2994 RMK AO2 LTG DSNT N AND NE TSE14 P0000 T02500194,M
INS,2023-08-10 16:30,-115.6733,36.5872,955.00,82.40,51.80,34.69,140.00,6.00,0.00,30.01,1011.00,10.00,M,OVC,M,M,M,9000.00,M,M,M,-RA,M,M,M,M,M,M,81.20,KINS 101630Z AUTO 14006KT 10SM -RA OVC090 28/11 A3001 RMK AO2 RAB30 SLP110 $,M
05U,2023-08-10 16:30,-116.0051,39.6042,1811.23,78.80,28.40,15.71,M,M,0.00,30.16,M,10.00,M,M,M,M,M,M,M,M,M,M,M,M,M,M,M,M,78.80,K05U 101630Z AUTO 10SM 26/M02 A3016 RMK A01,M
BVU,2023-08-10 16:35,-114.8611,35.9475,671.00,87.80,57.20,35.53,80.00,5.00,0.00,29.92,M,10.00,M,FEW,M,M,M,11000.00,M,M,M,M,M,M,M,M,M,M,86.58,KBVU 101635Z AUTO 08005KT 10SM FEW110 31/14 A2992 RMK AO2 LTG DSNT E,M
CXP,2023-08-10 16:35,-119.7326,39.1923,1431.00,68.00,37.40,32.43,0.00,0.00,0.00,30.12,M,10.00,M,CLR,M,M,M,M,M,M,M,M,M,M,M,M,M,M,68.00,KCXP 101635Z AUTO 00000KT 10SM CLR 20/03 A3012 RMK AO2,M
LSV,2023-08-10 16:35,-115.0343,36.2362,570.00,78.80,66.20,65.33,320.00,15.00,0.00,29.90,1010.00,10.00,M,FEW,SCT,M,M,5500.00,9500.00,M,M,M,M,M,M,M,M,M,78.80,KLSV 101635Z AUTO 32015KT 10SM FEW055 SCT095 26/19 A2990 RMK AO2 RAB17E35 SLP100 $,M
MEV,2023-08-10 16:35,-119.7500,38.9963,1441.42,68.00,39.20,34.80,0.00,0.00,0.00,30.11,M,10.00,M,CLR,M,M,M,M,M,M,M,M,M,M,M,M,M,M,68.00,KMEV 101635Z AUTO 00000KT 10SM CLR 20/04 A3011 RMK AO2,M
BAM,2023-08-10 16:35,-116.8743,40.5990,1382.36,78.80,32.00,18.18,0.00,0.00,0.00,30.07,M,10.00,M,CLR,M,M,M,M,M,M,M,M,M,M,M,M,M,M,78.80,KBAM 101635Z AUTO 00000KT 10SM CLR 26/00 A3007 RMK AO1,M
HTH,2023-08-10 16:35,-118.6315,38.5448,1282.89,75.20,33.80,22.02,320.00,3.00,0.00,30.07,M,10.00,M,CLR,M,M,M,M,M,M,M,M,M,M,M,M,M,M,75.20,KHTH 101635Z AUTO 32003KT 10SM CLR 24/01 A3007 RMK A01,M
TMT,2023-08-10 16:35,-117.1971,39.4643,1749.34,70.50,34.70,26.75,0.00,0.00,0.00,30.15,M,M,M,CLR,M,M,M,M,M,M,M,M,M,M,M,M,M,M,70.50,KTMT 101635Z AUTO 00000KT CLR 21/02 A3015 RMK AO2 T02140015 PWINO,M
RTS,2023-08-10 16:44,-119.8764,39.6682,1539.00,71.60,26.60,18.55,0.00,0.00,0.00,30.13,M,10.00,M,CLR,M,M,M,M,M,M,M,M,M,M,M,M,M,M,71.60,KRTS 101644Z AUTO 00000KT 10SM CLR 22/M03 A3013 RMK AO2,M
P68,2023-08-10 16:53,-116.0056,39.6014,1993.00,78.00,28.00,15.86,330.00,4.00,0.00,30.13,1011.50,M,M,M,M,M,M,M,M,M,M,M,M,M,M,M,M,M,78.00,KP68 101653Z AUTO 33004KT 26/M02 A3013 RMK AO1 SLP115 T02561022,M
DRA,2023-08-10 16:53,-116.0278,36.6206,1009.00,73.00,63.00,70.87,360.00,6.00,T,30.02,1011.90,10.00,M,FEW,SCT,OVC,M,3600.00,7000.00,10000.00,M,-RA,M,M,M,27.00,220.00,2023-08-10 15:54,73.00,KDRA 101653Z AUTO 36006KT 10SM -RA FEW036 SCT070 OVC100 23/17 A3002 RMK AO2 PK WND 22027/1554 RAE1556B26 SLP119 P0000 T02280172,M
ELY,2023-08-10 16:53,-114.8453,39.2950,1909.00,77.00,40.00,26.49,M,3.00,0.00,30.16,1010.30,10.00,M,CLR,M,M,M,M,M,M,M,M,M,M,M,M,M,M,77.00,KELY 101653Z AUTO VRB03KT 10SM CLR 25/04 A3016 RMK AO2 SLP103 T02500044,M
VGT,2023-08-10 16:53,-115.1933,36.2111,667.00,80.00,66.00,62.37,350.00,9.00,T,29.94,1012.70,10.00,M,FEW,M,M,M,11000.00,M,M,M,M,M,M,M,M,M,M,82.07,KVGT 101653Z 35009KT 10SM FEW110 27/19 A2994 RMK AO2 RAE35 TSE14 SLP127 P0000 T02670189,M
LOL,2023-08-10 16:53,-118.5701,40.0684,1192.43,77.00,38.00,24.50,M,3.00,0.00,30.04,1012.80,10.00,M,CLR,M,M,M,M,M,M,M,M,M,M,M,M,M,M,77.00,KLOL 101653Z AUTO VRB03KT 10SM CLR 25/03 A3004 RMK AO2 SLP128 T02500033,M
BVU,2023-08-10 16:55,-114.8611,35.9475,671.00,87.80,53.60,31.17,60.00,3.00,0.00,29.93,M,10.00,M,SCT,M,M,M,11000.00,M,M,M,M,M,M,M,M,M,M,85.72,KBVU 101655Z AUTO 06003KT 10SM SCT110 31/12 A2993 RMK AO2 LTG DSNT N-SE,M
CXP,2023-08-10 16:55,-119.7326,39.1923,1431.00,69.80,35.60,28.39,310.00,3.00,0.00,30.12,M,10.00,M,CLR,M,M,M,M,M,M,M,M,M,M,M,M,M,M,69.80,KCXP 101655Z AUTO 31003KT 10SM CLR 21/02 A3012 RMK AO2,M
RNO,2023-08-10 16:55,-119.7711,39.4839,1341.00,72.00,34.00,24.72,0.00,0.00,0.00,30.09,1013.60,10.00,M,CLR,M,M,M,M,M,M,M,M,M,M,M,M,M,M,72.00,KRNO 101655Z 00000KT 10SM CLR 22/01 A3009 RMK AO2 SLP136 T02220011,M
05U,2023-08-10 16:55,-116.0051,39.6042,1811.23,78.80,28.40,15.71,M,M,0.00,30.16,M,10.00,M,M,M,M,M,M,M,M,M,M,M,M,M,M,M,M,78.80,K05U 101655Z AUTO 10SM 26/M02 A3016 RMK A01,M
MEV,2023-08-10 16:55,-119.7500,38.9963,1441.42,69.80,39.20,32.72,0.00,0.00,0.00,30.10,M,10.00,M,CLR,M,M,M,M,M,M,M,M,M,M,M,M,M,M,69.80,KMEV 101655Z AUTO 00000KT 10SM CLR 21/04 A3010 RMK AO2,M
HTH,2023-08-10 16:55,-118.6315,38.5448,1282.89,77.00,32.00,19.30,M,3.00,0.00,30.07,M,10.00,M,CLR,M,M,M,M,M,M,M,M,M,M,M,M,M,M,77.00,KHTH 101655Z AUTO VRB03KT 10SM CLR 25/00 A3007 RMK A01,M
BAM,2023-08-10 16:55,-116.8743,40.5990,1382.36,80.60,32.00,17.14,0.00,0.00,0.00,30.07,M,10.00,M,CLR,M,M,M,M,M,M,M,M,M,M,M,M,M,M,78.82,KBAM 101655Z AUTO 00000KT 10SM CLR 27/00 A3007 RMK AO1,M
TMT,2023-08-10 16:55,-117.1971,39.4643,1749.34,73.00,34.30,24.19,0.00,0.00,0.00,30.14,M,M,M,CLR,M,M,M,M,M,M,M,M,M,M,M,M,M,M,73.00,KTMT 101655Z AUTO 00000KT CLR 23/01 A3014 RMK AO2 T02280013 PWINO,M
INS,2023-08-10 16:55,-115.6733,36.5872,955.00,73.20,64.40,73.94,80.00,17.00,0.03,30.01,1011.40,9.00,M,OVC,M,M,M,9000.00,M,M,M,-RA,M,M,M,M,M,M,73.20,KINS 101655Z AUTO 08017KT 9SM -RA OVC090 23/18 A3001 RMK AO2 RAB30 SLP114 P0003 T02290180 $,M
LSV,2023-08-10 16:55,-115.0343,36.2362,570.00,78.30,66.70,67.57,330.00,8.00,0.01,29.90,1010.00,10.00,M,FEW,M,M,M,19000.00,M,M,M,M,M,M,M,M,M,M,78.30,KLSV 101655Z AUTO 33008KT 10SM FEW190 26/19 A2990 RMK AO2 LTG DSNT NE RAB17E35 SLP100 P0001 T02570193 $,M
EKO,2023-08-10 16:56,-115.7860,40.8242,1367.00,79.00,35.00,20.37,220.00,7.00,0.00,30.08,1012.80,10.00,M,CLR,M,M,M,M,M,M,M,M,M,M,M,M,M,M,79.00,KEKO 101656Z AUTO 22007KT 10SM CLR 26/02 A3008 RMK AO2 SLP128 T02610017,M
WMC,2023-08-10 16:56,-117.8072,40.9019,1315.00,81.00,37.00,20.65,M,5.00,0.00,30.05,1012.50,10.00,M,CLR,M,M,M,M,M,M,M,M,M,M,M,M,M,M,79.24,KWMC 101656Z AUTO VRB05KT 10SM CLR 27/03 A3005 RMK AO2 SLP125 T02720028,M
NFL,2023-08-10 16:56,-118.7010,39.4166,1199.00,78.00,29.00,16.53,290.00,6.00,0.00,30.05,1014.40,10.00,M,CLR,M,M,M,M,M,M,M,M,M,M,M,M,M,M,78.00,KNFL 101656Z 29006KT 10SM CLR 26/M02 A3005 RMK AO2 SLP144 T02561017,M
HND,2023-08-10 16:56,-115.1344,35.9729,742.79,86.00,60.00,41.60,320.00,8.00,T,29.98,1013.60,10.00,M,CLR,M,M,M,M,M,M,M,M,M,M,M,M,M,M,85.78,KHND 101656Z 32008KT 10SM CLR 30/16 A2998 RMK AO2 RAB1558E11 SLP136 P0000 T03000156,M
TPH,2023-08-10 16:56,-117.0904,38.0505,1654.00,75.00,35.00,23.26,0.00,0.00,0.00,30.13,1012.00,10.00,M,CLR,M,M,M,M,M,M,M,M,M,M,M,M,M,M,75.00,KTPH 101656Z AUTO 00000KT 10SM CLR 24/02 A3013 RMK AO2 SLP120 T02390017,M
LAS,2023-08-10 16:56,-115.1634,36.0719,663.00,82.00,62.00,50.80,340.00,15.00,T,29.94,1011.20,10.00,M,FEW,SCT,BKN,M,10000.00,13000.00,20000.00,M,M,M,M,M,M,M,M,82.89,KLAS 101656Z 34015KT 10SM FEW100 SCT130 BKN200 28/17 A2994 RMK AO2 WSHFT 1603 RAB03E23 SLP112 ACC DSNT NE-E P0000 T02780167,M
RTS,2023-08-10 17:04,-119.8764,39.6682,1539.00,73.40,24.80,16.20,120.00,4.00,0.00,30.13,M,10.00,M,CLR,M,M,M,M,M,M,M,M,M,M,M,M,M,M,73.40,KRTS 101704Z AUTO 12004KT 10SM CLR 23/M04 A3013 RMK AO2,M
BVU,2023-08-10 17:15,-114.8611,35.9475,671.00,87.80,57.20,35.53,360.00,12.00,0.00,29.93,M,10.00,M,SCT,BKN,M,M,9000.00,11000.00,M,M,M,M,M,M,M,M,M,86.58,KBVU 101715Z AUTO 36012KT 10SM SCT090 BKN110 31/14 A2993 RMK AO2,M
CXP,2023-08-10 17:15,-119.7326,39.1923,1431.00,73.40,35.60,25.13,0.00,0.00,0.00,30.11,M,10.00,M,CLR,M,M,M,M,M,M,M,M,M,M,M,M,M,M,73.40,KCXP 101715Z AUTO 00000KT 10SM CLR 23/02 A3011 RMK AO2,M
05U,2023-08-10 17:15,-116.0051,39.6042,1811.23,80.60,28.40,14.81,M,M,0.00,30.16,M,10.00,M,M,M,M,M,M,M,M,M,M,M,M,M,M,M,M,78.72,K05U 101715Z AUTO 10SM 27/M02 A3016 RMK A01,M
MEV,2023-08-10 17:15,-119.7500,38.9963,1441.42,71.60,35.60,26.71,0.00,0.00,0.00,30.10,M,10.00,M,CLR,M,M,M,M,M,M,M,M,M,M,M,M,M,M,71.60,KMEV 101715Z AUTO 00000KT 10SM CLR 22/02 A3010 RMK AO2,M
BAM,2023-08-10 17:15,-116.8743,40.5990,1382.36,80.60,33.80,18.42,0.00,0.00,0.00,30.07,M,10.00,M,CLR,M,M,M,M,M,M,M,M,M,M,M,M,M,M,78.88,KBAM 101715Z AUTO 00000KT 10SM CLR 27/01 A3007 RMK AO1,M
HTH,2023-08-10 17:15,-118.6315,38.5448,1282.89,78.80,30.20,16.90,0.00,0.00,0.00,30.07,M,10.00,M,CLR,M,M,M,M,M,M,M,M,M,M,M,M,M,M,78.80,KHTH 101715Z AUTO 00000KT 10SM CLR 26/M01 A3007 RMK A01,M
INS,2023-08-10 17:19,-115.6733,36.5872,955.00,71.60,66.20,83.09,90.00,11.00,0.00,30.02,1011.80,10.00,M,SCT,BKN,M,M,9000.00,10000.00,M,M,M,M,M,M,M,M,M,71.60,KINS 101719Z AUTO 09011KT 10SM SCT090 BKN100 22/19 A3002 RMK AO2 RAE08DZB08E19 SLP118 $,M
RTS,2023-08-10 17:24,-119.8764,39.6682,1539.00,75.20,21.20,13.11,M,5.00,0.00,30.13,M,10.00,M,CLR,M,M,M,M,M,M,M,M,M,M,M,M,M,M,75.20,KRTS 101724Z AUTO VRB05KT 10SM CLR 24/M06 A3013 RMK AO2,M
BVU,2023-08-10 17:35,-114.8611,35.9475,671.00,87.80,57.20,35.53,340.00,16.00,0.00,29.93,M,10.00,M,BKN,M,M,M,9000.00,M,M,M,M,M,M,M,M,M,M,86.58,KBVU 101735Z AUTO 34016KT 10SM BKN090 31/14 A2993 RMK AO2,M
CXP,2023-08-10 17:35,-119.7326,39.1923,1431.00,75.20,35.60,23.66,0.00,0.00,0.00,30.10,M,10.00,M,CLR,M,M,M,M,M,M,M,M,M,M,M,M,M,M,75.20,KCXP 101735Z AUTO 00000KT 10SM CLR 24/02 A3010 RMK AO2,M
05U,2023-08-10 17:35,-116.0051,39.6042,1811.23,82.40,28.40,13.96,M,M,0.00,30.16,M,10.00,M,M,M,M,M,M,M,M,M,M,M,M,M,M,M,M,79.94,K05U 101735Z AUTO 10SM 28/M02 A3016 RMK A01,M
MEV,2023-08-10 17:35,-119.7500,38.9963,1441.42,73.40,33.80,23.39,0.00,0.00,0.00,30.09,M,9.00,M,CLR,M,M,M,M,M,M,M,M,M,M,M,M,M,M,73.40,KMEV 101735Z AUTO 00000KT 9SM CLR 23/01 A3009 RMK AO2,M
BAM,2023-08-10 17:35,-116.8743,40.5990,1382.36,82.40,35.60,18.67,20.00,4.00,0.00,30.07,M,10.00,M,CLR,M,M,M,M,M,M,M,M,M,M,M,M,M,M,80.08,KBAM 101735Z AUTO 02004KT 10SM CLR 28/02 A3007 RMK AO1,M
HTH,2023-08-10 17:35,-118.6315,38.5448,1282.89,78.80,28.40,15.71,M,4.00,0.00,30.06,M,10.00,M,CLR,M,M,M,M,M,M,M,M,M,M,M,M,M,M,78.80,KHTH 101735Z AUTO VRB04KT 10SM CLR 26/M02 A3006 RMK A01,M
TMT,2023-08-10 17:35,-117.1971,39.4643,1749.34,77.70,34.30,20.68,340.00,3.00,0.00,30.13,M,M,M,CLR,M,M,M,M,M,M,M,M,M,M,M,M,M,M,77.70,KTMT 101735Z AUTO 34003KT CLR 25/01 A3013 RMK AO2 T02540013 PWINO,M
RTS,2023-08-10 17:44,-119.8764,39.6682,1539.00,75.20,21.20,13.11,M,3.00,0.00,30.12,M,10.00,M,CLR,M,M,M,M,M,M,M,M,M,M,M,M,M,M,75.20,KRTS 101744Z AUTO VRB03KT 10SM CLR 24/M06 A3012 RMK AO2,M
05U,2023-08-10 17:50,-116.0051,39.6042,1811.23,82.40,28.40,13.96,M,M,0.00,30.16,M,10.00,M,M,M,M,M,M,M,M,M,M,M,M,M,M,M,M,79.94,K05U 101750Z AUTO 10SM 28/M02 A3016 RMK A01,M
P68,2023-08-10 17:53,-116.0056,39.6014,1993.00,81.00,29.00,14.98,330.00,7.00,0.00,30.13,1011.80,M,M,M,M,M,M,M,M,M,M,M,M,M,M,M,M,M,79.00,KP68 101753Z AUTO 33007KT 27/M02 A3013 RMK AO1 SLP118 T02721017 10278 20094 58003,M
DRA,2023-08-10 17:53,-116.0278,36.6206,1009.00,80.00,58.00,47.02,290.00,3.00,T,30.02,1011.60,10.00,M,OVC,M,M,M,10000.00,M,M,M,M,M,M,M,M,M,M,80.53,KDRA 101753Z AUTO 29003KT 10SM OVC100 27/14 A3002 RMK AO2 RAE1659 SLP116 P0000 60000 T02670144 10272 20222 51018,M
ELY,2023-08-10 17:53,-114.8453,39.2950,1909.00,79.00,38.00,22.93,0.00,0.00,0.00,30.15,1009.90,10.00,M,CLR,M,M,M,M,M,M,M,M,M,M,M,M,M,M,79.00,KELY 101753Z AUTO 00000KT 10SM CLR 26/03 A3015 RMK AO2 SLP099 T02610033 10267 20100 56002,M
VGT,2023-08-10 17:53,-115.1933,36.2111,667.00,86.00,62.00,44.65,0.00,0.00,0.00,29.95,1012.90,10.00,M,FEW,M,M,M,10000.00,M,M,M,M,M,M,M,M,M,M,86.48,KVGT 101753Z 00000KT 10SM FEW100 30/17 A2995 RMK AO2 SLP129 60008 T03000167 10317 20250 53008,M
LOL,2023-08-10 17:53,-118.5701,40.0684,1192.43,81.00,38.00,21.48,M,5.00,0.00,30.03,1012.60,10.00,M,CLR,M,M,M,M,M,M,M,M,M,M,M,M,M,M,79.28,KLOL 101753Z AUTO VRB05KT 10SM CLR 27/03 A3003 RMK AO2 SLP126 T02720033 10278 20083 50001,M
BVU,2023-08-10 17:55,-114.8611,35.9475,671.00,89.60,57.20,33.56,340.00,14.00,0.00,29.94,M,10.00,M,BKN,BKN,M,M,8500.00,10000.00,M,M,M,M,M,M,M,M,M,88.28,KBVU 101755Z AUTO 34014KT 10SM BKN085 BKN100 32/14 A2994 RMK AO2,M
CXP,2023-08-10 17:55,-119.7326,39.1923,1431.00,77.00,30.20,17.94,0.00,0.00,0.00,30.10,M,10.00,M,CLR,M,M,M,M,M,M,M,M,M,M,M,M,M,M,77.00,KCXP 101755Z AUTO 00000KT 10SM CLR 25/M01 A3010 RMK AO2,M
RNO,2023-08-10 17:55,-119.7711,39.4839,1341.00,80.00,33.00,18.20,0.00,0.00,0.00,30.08,1012.80,10.00,M,CLR,M,M,M,M,M,M,M,M,M,M,M,M,M,M,78.56,KRNO 101755Z 00000KT 10SM CLR 27/01 A3008 RMK AO2 SLP128 T02670006 10267 20133 58005,M
MEV,2023-08-10 17:55,-119.7500,38.9963,1441.42,75.20,32.00,20.49,0.00,0.00,0.00,30.09,M,10.00,M,CLR,M,M,M,M,M,M,M,M,M,M,M,M,M,M,75.20,KMEV 101755Z AUTO 00000KT 10SM CLR 24/00 A3009 RMK AO2,M
HTH,2023-08-10 17:55,-118.6315,38.5448,1282.89,80.60,28.40,14.81,M,6.00,0.00,30.06,M,10.00,12.00,CLR,M,M,M,M,M,M,M,M,M,M,M,M,M,M,78.72,KHTH 101755Z AUTO VRB06G12KT 10SM CLR 27/M02 A3006 RMK A01,M
BAM,2023-08-10 17:55,-116.8743,40.5990,1382.36,82.40,35.60,18.67,10.00,5.00,0.00,30.06,M,10.00,M,CLR,M,M,M,M,M,M,M,M,M,M,M,M,M,M,80.08,KBAM 101755Z AUTO 01005KT 10SM CLR 28/02 A3006 RMK AO1,M
TMT,2023-08-10 17:55,-117.1971,39.4643,1749.34,79.50,34.00,19.25,20.00,6.00,0.00,30.13,M,M,M,CLR,M,M,M,M,M,M,M,M,M,M,M,M,M,M,79.50,KTMT 101755Z AUTO 02006KT CLR 26/01 A3013 RMK AO2 T02640011 10264 20022 PWINO,M
INS,2023-08-10 17:55,-115.6733,36.5872,955.00,75.00,62.80,65.80,70.00,10.00,T,30.03,1012.00,10.00,M,FEW,BKN,BKN,M,10000.00,16000.00,21000.00,M,M,M,M,M,M,M,M,75.00,KINS 101755Z AUTO 07010KT 10SM FEW100 BKN160 BKN210 24/17 A3003 RMK AO2 RAE08DZB08E19 SLP120 P0000 60003 T02390171 10283 20213 52025 $,M
LSV,2023-08-10 17:55,-115.0343,36.2362,570.00,88.30,61.50,40.78,10.00,18.00,0.00,29.91,1010.10,10.00,M,FEW,FEW,M,M,16000.00,19000.00,M,M,M,M,M,M,M,M,M,88.52,KLSV 101755Z AUTO 01018KT 10SM FEW160 FEW190 31/16 A2991 RMK AO2 SLP101 60004 T03130164 10325 20253 51023 $,M
EKO,2023-08-10 17:56,-115.7860,40.8242,1367.00,83.00,34.00,17.18,M,4.00,0.00,30.08,1012.60,10.00,M,CLR,M,M,M,M,M,M,M,M,M,M,M,M,M,M,80.45,KEKO 101756Z AUTO VRB04KT 10SM CLR 28/01 A3008 RMK AO2 SLP126 T02830011 10283 20089 58002,M
WMC,2023-08-10 17:56,-117.8072,40.9019,1315.00,84.00,37.00,18.74,290.00,6.00,0.00,30.05,1012.30,10.00,M,CLR,M,M,M,M,M,M,M,M,M,M,M,M,M,M,81.23,KWMC 101756Z AUTO 29006KT 10SM CLR 29/03 A3005 RMK AO2 SLP123 T02890028 10289 20094 58001,M
NFL,2023-08-10 17:56,-118.7010,39.4166,1199.00,82.00,27.00,13.36,0.00,0.00,0.00,30.04,1014.10,10.00,M,CLR,M,M,M,M,M,M,M,M,M,M,M,M,M,M,79.64,KNFL 101756Z 00000KT 10SM CLR 28/M03 A3004 RMK AO2 SLP141 T02781028 10278 20094 50000,M
HND,2023-08-10 17:56,-115.1344,35.9729,742.79,84.00,61.00,45.96,50.00,6.00,0.00,29.99,1014.20,10.00,M,BKN,M,M,M,8000.00,M,M,M,M,M,M,M,M,M,M,84.32,KHND 101756Z 05006KT 10SM BKN080 29/16 A2999 RMK AO2 SLP142 60000 T02890161 10300 20278 51019,M
TPH,2023-08-10 17:56,-117.0904,38.0505,1654.00,79.00,39.00,23.85,M,4.00,0.00,30.13,1012.00,10.00,M,CLR,M,M,M,M,M,M,M,M,M,M,M,M,M,M,79.00,KTPH 101756Z AUTO VRB04KT 10SM CLR 26/04 A3013 RMK AO2 SLP120 T02610039 10261 20128 52002,M
LAS,2023-08-10 17:56,-115.1634,36.0719,663.00,85.00,60.00,42.95,30.00,7.00,0.00,29.96,1011.60,10.00,M,SCT,BKN,BKN,M,10000.00,14000.00,20000.00,M,M,M,M,M,M,M,M,84.89,KLAS 101756Z 03007KT 10SM SCT100 BKN140 BKN200 29/16 A2996 RMK AO2 SLP116 TCU DSNT SE 60000 T02940156 10311 20272 51022,M
RTS,2023-08-10 18:04,-119.8764,39.6682,1539.00,77.00,17.60,10.59,0.00,0.00,0.00,30.12,M,10.00,M,CLR,M,M,M,M,M,M,M,M,M,M,M,M,M,M,77.00,KRTS 101804Z AUTO 00000KT 10SM CLR 25/M08 A3012 RMK AO2,M
BVU,2023-08-10 18:15,-114.8611,35.9475,671.00,84.20,64.40,51.47,340.00,11.00,0.00,29.94,M,3.00,M,FEW,SCT,BKN,M,2800.00,6500.00,8500.00,M,-RA,M,M,M,M,M,M,85.71,KBVU 101815Z AUTO 34011KT 3SM -RA FEW028 SCT065 BKN085 29/18 A2994 RMK AO2,M
CXP,2023-08-10 18:15,-119.7326,39.1923,1431.00,78.80,24.80,13.54,0.00,0.00,0.00,30.09,M,10.00,M,CLR,M,M,M,M,M,M,M,M,M,M,M,M,M,M,78.80,KCXP 101815Z AUTO 00000KT 10SM CLR 26/M04 A3009 RMK AO2,M
05U,2023-08-10 18:15,-116.0051,39.6042,1811.23,84.20,30.20,14.18,M,M,0.00,30.15,M,10.00,M,M,M,M,M,M,M,M,M,M,M,M,M,M,M,M,81.26,K05U 101815Z AUTO 10SM 29/M01 A3015 RMK A01,M
MEV,2023-08-10 18:15,-119.7500,38.9963,1441.42,77.00,28.40,16.67,0.00,0.00,0.00,30.08,M,10.00,M,CLR,M,M,M,M,M,M,M,M,M,M,M,M,M,M,77.00,KMEV 101815Z AUTO 00000KT 10SM CLR 25/M02 A3008 RMK AO2,M
BAM,2023-08-10 18:15,-116.8743,40.5990,1382.36,84.20,35.60,17.61,340.00,5.00,0.00,30.06,M,10.00,M,CLR,M,M,M,M,M,M,M,M,M,M,M,M,M,M,81.34,KBAM 101815Z AUTO 34005KT 10SM CLR 29/02 A3006 RMK AO1,M
HTH,2023-08-10 18:15,-118.6315,38.5448,1282.89,82.40,24.80,12.03,350.00,6.00,0.00,30.05,M,10.00,M,CLR,M,M,M,M,M,M,M,M,M,M,M,M,M,M,79.79,KHTH 101815Z AUTO 35006KT 10SM CLR 28/M04 A3005 RMK A01,M
TMT,2023-08-10 18:15,-117.1971,39.4643,1749.34,80.20,33.40,18.37,360.00,5.00,0.00,30.13,M,M,M,CLR,M,M,M,M,M,M,M,M,M,M,M,M,M,M,78.78,KTMT 101815Z AUTO 36005KT CLR 27/01 A3013 RMK AO2 T02680008 PWINO,M
RTS,2023-08-10 18:24,-119.8764,39.6682,1539.00,78.80,19.40,10.78,M,5.00,0.00,30.11,M,10.00,M,CLR,M,M,M,M,M,M,M,M,M,M,M,M,M,M,78.80,KRTS 101824Z AUTO VRB05KT 10SM CLR 26/M07 A3011 RMK AO2,M
05U,2023-08-10 18:30,-116.0051,39.6042,1811.23,84.20,30.20,14.18,M,M,0.00,30.15,M,10.00,M,M,M,M,M,M,M,M,M,M,M,M,M,M,M,M,81.26,K05U 101830Z AUTO 10SM 29/M01 A3015 RMK A01,M
BVU,2023-08-10 18:35,-114.8611,35.9475,671.00,89.60,59.00,35.81,350.00,12.00,0.00,29.93,M,10.00,M,FEW,FEW,FEW,M,3100.00,3700.00,9000.00,M,M,M,M,M,M,M,M,88.86,KBVU 101835Z AUTO 35012KT 10SM FEW031 FEW037 FEW090 32/15 A2993 RMK AO2,M
CXP,2023-08-10 18:35,-119.7326,39.1923,1431.00,80.60,19.40,10.16,280.00,4.00,0.00,30.09,M,10.00,M,CLR,M,M,M,M,M,M,M,M,M,M,M,M,M,M,78.56,KCXP 101835Z AUTO 28004KT 10SM CLR 27/M07 A3009 RMK AO2,M
MEV,2023-08-10 18:35,-119.7500,38.9963,1441.42,78.80,28.40,15.71,M,3.00,0.00,30.07,M,10.00,M,CLR,M,M,M,M,M,M,M,M,M,M,M,M,M,M,78.80,KMEV 101835Z AUTO VRB03KT 10SM CLR 26/M02 A3007 RMK AO2,M
BAM,2023-08-10 18:35,-116.8743,40.5990,1382.36,86.00,35.60,16.63,360.00,7.00,0.00,30.05,M,10.00,M,CLR,M,M,M,M,M,M,M,M,M,M,M,M,M,M,82.69,KBAM 101835Z AUTO 36007KT 10SM CLR 30/02 A3005 RMK AO1,M
HTH,2023-08-10 18:35,-118.6315,38.5448,1282.89,82.40,21.20,10.34,310.00,5.00,0.00,30.05,M,10.00,M,CLR,M,M,M,M,M,M,M,M,M,M,M,M,M,M,79.55,KHTH 101835Z AUTO 31005KT 10SM CLR 28/M06 A3005 RMK A01,M
TMT,2023-08-10 18:35,-117.1971,39.4643,1749.34,80.80,32.70,17.52,320.00,3.00,0.00,30.12,M,M,M,CLR,M,M,M,M,M,M,M,M,M,M,M,M,M,M,78.97,KTMT 101835Z AUTO 32003KT CLR 27/00 A3012 RMK AO2 T02710004 PWINO,M
RTS,2023-08-10 18:44,-119.8764,39.6682,1539.00,78.80,21.20,11.64,0.00,0.00,0.00,30.11,M,10.00,M,CLR,M,M,M,M,M,M,M,M,M,M,M,M,M,M,78.80,KRTS 101844Z AUTO 00000KT 10SM CLR 26/M06 A3011 RMK AO2,M
P68,2023-08-10 18:53,-116.0056,39.6014,1993.00,81.00,30.00,15.60,M,3.00,0.00,30.11,1011.20,M,M,M,M,M,M,M,M,M,M,M,M,M,M,M,M,M,79.02,KP68 101853Z AUTO VRB03KT 27/M01 A3011 RMK AO1 SLP112 T02721011,M
DRA,2023-08-10 18:53,-116.0278,36.6206,1009.00,86.00,57.00,37.35,140.00,7.00,0.00,30.01,1010.90,10.00,M,CLR,M,M,M,M,M,M,M,M,M,M,M,M,M,M,84.92,KDRA 101853Z AUTO 14007KT 10SM CLR 30/14 A3001 RMK AO2 SLP109 T03000139,M
ELY,2023-08-10 18:53,-114.8453,39.2950,1909.00,82.00,38.00,20.79,0.00,0.00,0.00,30.14,1009.50,10.00,M,CLR,M,M,M,M,M,M,M,M,M,M,M,M,M,M,79.90,KELY 101853Z AUTO 00000KT 10SM CLR 28/03 A3014 RMK AO2 SLP095 T02780033,M
VGT,2023-08-10 18:53,-115.1933,36.2111,667.00,91.00,60.00,35.51,70.00,9.00,0.00,29.94,1012.50,10.00,M,FEW,M,M,M,9500.00,M,M,M,M,M,M,M,M,M,M,90.65,KVGT 101853Z 07009KT 10SM FEW095 33/16 A2994 RMK AO2 SLP125 T03280156,M
LOL,2023-08-10 18:53,-118.5701,40.0684,1192.43,84.00,34.00,16.63,110.00,6.00,0.00,30.02,1011.70,10.00,M,CLR,M,M,M,M,M,M,M,M,M,M,M,M,M,M,81.16,KLOL 101853Z AUTO 11006KT 10SM CLR 29/01 A3002 RMK AO2 SLP117 T02890011,M
BVU,2023-08-10 18:55,-114.8611,35.9475,671.00,91.40,57.20,31.72,30.00,8.00,0.00,29.93,M,10.00,M,FEW,M,M,M,8500.00,M,M,M,M,M,M,M,M,M,M,90.06,KBVU 101855Z AUTO 03008KT 10SM FEW085 33/14 A2993 RMK AO2,M
CXP,2023-08-10 18:55,-119.7326,39.1923,1431.00,82.40,15.80,8.20,290.00,4.00,0.00,30.08,M,10.00,M,CLR,M,M,M,M,M,M,M,M,M,M,M,M,M,M,79.28,KCXP 101855Z AUTO 29004KT 10SM CLR 28/M09 A3008 RMK AO2,M
RNO,2023-08-10 18:55,-119.7711,39.4839,1341.00,82.00,23.00,11.31,M,3.00,0.00,30.06,1012.10,10.00,M,CLR,M,M,M,M,M,M,M,M,M,M,M,M,M,M,79.40,KRNO 101855Z VRB03KT 10SM CLR 28/M05 A3006 RMK AO2 SLP121 T02781050,M
05U,2023-08-10 18:55,-116.0051,39.6042,1811.23,86.00,30.20,13.38,M,M,0.00,30.14,M,10.00,M,M,M,M,M,M,M,M,M,M,M,M,M,M,M,M,82.64,K05U 101855Z AUTO 10SM 30/M01 A3014 RMK A01,M
MEV,2023-08-10 18:55,-119.7500,38.9963,1441.42,80.60,26.60,13.75,0.00,0.00,0.00,30.07,M,10.00,M,CLR,M,M,M,M,M,M,M,M,M,M,M,M,M,M,78.68,KMEV 101855Z AUTO 00000KT 10SM CLR 27/M03 A3007 RMK AO2,M
HTH,2023-08-10 18:55,-118.6315,38.5448,1282.89,84.20,23.00,10.53,350.00,7.00,0.00,30.04,M,10.00,M,CLR,M,M,M,M,M,M,M,M,M,M,M,M,M,M,80.88,KHTH 101855Z AUTO 35007KT 320V020 10SM CLR 29/M05 A3004 RMK A01,M
BAM,2023-08-10 18:55,-116.8743,40.5990,1382.36,86.00,33.80,15.48,10.00,4.00,0.00,30.05,M,10.00,M,CLR,M,M,M,M,M,M,M,M,M,M,M,M,M,M,82.66,KBAM 101855Z AUTO 01004KT 10SM CLR 30/01 A3005 RMK AO1,M
TMT,2023-08-10 18:55,-117.1971,39.4643,1749.34,81.50,33.40,17.61,360.00,6.00,0.00,30.12,M,M,M,CLR,M,M,M,M,M,M,M,M,M,M,M,M,M,M,79.43,KTMT 101855Z AUTO 36006KT CLR 28/01 A3012 RMK AO2 T02750008 PWINO,M
INS,2023-08-10 18:55,-115.6733,36.5872,955.00,80.60,56.00,42.90,70.00,3.00,0.00,30.02,1011.50,10.00,M,FEW,M,M,M,21000.00,M,M,M,M,M,M,M,M,M,M,80.62,KINS 101855Z AUTO 07003KT 10SM FEW210 27/13 A3002 RMK AO2 SLP115 T02700133 $,M
LSV,2023-08-10 18:55,-115.0343,36.2362,570.00,90.50,60.00,36.07,20.00,20.00,0.00,29.91,1010.10,10.00,M,FEW,M,M,M,9000.00,M,M,M,M,M,M,M,M,M,M,90.13,KLSV 101855Z AUTO 02020KT 10SM FEW090 33/16 A2991 RMK AO2 SLP101 T03250155 $,M
EKO,2023-08-10 18:56,-115.7860,40.8242,1367.00,86.00,35.00,16.23,200.00,7.00,0.00,30.06,1012.10,10.00,M,CLR,M,M,M,M,M,M,M,M,M,M,M,M,M,M,82.68,KEKO 101856Z AUTO 20007KT 10SM CLR 30/02 A3006 RMK AO2 SLP121 T03000017,M
WMC,2023-08-10 18:56,-117.8072,40.9019,1315.00,85.00,35.00,16.76,M,3.00,0.00,30.03,1011.70,10.00,M,CLR,M,M,M,M,M,M,M,M,M,M,M,M,M,M,81.91,KWMC 101856Z AUTO VRB03KT 10SM CLR 29/02 A3003 RMK AO2 SLP117 T02940017,M
NFL,2023-08-10 18:56,-118.7010,39.4166,1199.00,85.00,22.00,9.84,M,3.00,0.00,30.02,1013.60,10.00,M,FEW,M,M,M,10000.00,M,M,M,M,M,M,M,M,M,M,81.38,KNFL 101856Z VRB03KT 10SM FEW100 29/M06 A3002 RMK AO2 SLP136 T02941056,M
HND,2023-08-10 18:56,-115.1344,35.9729,742.79,91.00,59.00,34.27,10.00,9.00,0.00,29.98,1013.40,10.00,M,CLR,M,M,M,M,M,M,M,M,M,M,M,M,M,M,90.27,KHND 101856Z 01009KT 10SM CLR 33/15 A2998 RMK AO2 SLP134 T03280150,M
TPH,2023-08-10 18:56,-117.0904,38.0505,1654.00,82.00,41.00,23.37,170.00,9.00,0.00,30.12,1011.60,10.00,16.00,CLR,M,M,M,M,M,M,M,M,M,M,M,M,M,M,80.04,KTPH 101856Z AUTO 17009G16KT 10SM CLR 28/05 A3012 RMK AO2 SLP116 T02780050,M
LAS,2023-08-10 18:56,-115.1634,36.0719,663.00,90.00,58.00,34.11,M,5.00,0.00,29.95,1011.10,10.00,15.00,FEW,SCT,SCT,M,10000.00,14000.00,20000.00,M,M,M,M,M,M,M,M,88.92,KLAS 101856Z VRB05G15KT 10SM FEW100 SCT140 SCT200 32/14 A2995 RMK AO2 SLP111 T03220144,M
BVU,2023-08-10 19:15,-114.8611,35.9475,671.00,91.40,57.20,31.72,20.00,9.00,0.00,29.92,M,10.00,14.00,SCT,M,M,M,9000.00,M,M,M,M,M,M,M,M,M,M,90.06,KBVU 101915Z AUTO 02009G14KT 10SM SCT090 33/14 A2992 RMK AO2,M
CXP,2023-08-10 19:15,-119.7326,39.1923,1431.00,82.40,12.20,7.01,0.00,0.00,0.00,30.07,M,10.00,M,CLR,M,M,M,M,M,M,M,M,M,M,M,M,M,M,79.13,KCXP 101915Z AUTO 00000KT 10SM CLR 28/M11 A3007 RMK AO2,M
05U,2023-08-10 19:15,-116.0051,39.6042,1811.23,84.20,30.20,14.18,M,M,0.00,30.13,M,10.00,M,M,M,M,M,M,M,M,M,M,M,M,M,M,M,M,81.26,K05U 101915Z AUTO 10SM 29/M01 A3013 RMK A01,M
MEV,2023-08-10 19:15,-119.7500,38.9963,1441.42,80.60,23.00,11.83,0.00,0.00,0.00,30.06,M,10.00,M,CLR,M,M,M,M,M,M,M,M,M,M,M,M,M,M,78.80,KMEV 101915Z AUTO 00000KT 10SM CLR 27/M05 A3006 RMK AO2,M
BAM,2023-08-10 19:15,-116.8743,40.5990,1382.36,87.80,33.80,14.61,360.00,9.00,0.00,30.04,M,10.00,M,CLR,M,M,M,M,M,M,M,M,M,M,M,M,M,M,84.10,KBAM 101915Z AUTO 36009KT 10SM CLR 31/01 A3004 RMK AO1,M
HTH,2023-08-10 19:15,-118.6315,38.5448,1282.89,84.20,21.20,9.76,330.00,6.00,0.00,30.03,M,10.00,12.00,CLR,M,M,M,M,M,M,M,M,M,M,M,M,M,M,80.77,KHTH 101915Z AUTO 33006G12KT 10SM CLR 29/M06 A3003 RMK A01,M
TMT,2023-08-10 19:15,-117.1971,39.4643,1749.34,82.00,32.40,16.64,290.00,4.00,0.00,30.10,M,M,M,CLR,M,M,M,M,M,M,M,M,M,M,M,M,M,M,79.73,KTMT 101915Z AUTO 29004KT CLR 28/00 A3010 RMK AO2 T02770002 PWINO,M
05U,2023-08-10 19:30,-116.0051,39.6042,1811.23,86.00,30.20,13.38,M,M,0.00,30.13,M,10.00,M,M,M,M,M,M,M,M,M,M,M,M,M,M,M,M,82.64,K05U 101930Z AUTO 10SM 30/M01 A3013 RMK A01,M
BVU,2023-08-10 19:35,-114.8611,35.9475,671.00,91.40,57.20,31.72,40.00,13.00,0.00,29.92,M,10.00,M,SCT,M,M,M,9000.00,M,M,M,M,M,M,M,M,M,M,90.06,KBVU 101935Z AUTO 04013KT 10SM SCT090 33/14 A2992 RMK AO2,M
CXP,2023-08-10 19:35,-119.7326,39.1923,1431.00,84.20,12.20,6.61,0.00,0.00,0.00,30.07,M,10.00,M,CLR,M,M,M,M,M,M,M,M,M,M,M,M,M,M,80.37,KCXP 101935Z AUTO 00000KT 10SM CLR 29/M11 A3007 RMK AO2,M
RTS,2023-08-10 19:35,-119.8764,39.6682,1539.00,80.60,21.20,10.97,M,4.00,0.00,30.10,M,10.00,10.00,M,M,M,M,M,M,M,M,M,M,M,M,M,M,M,78.68,KRTS 101935Z AUTO VRB04G10KT 10SM 27/M06 A3010 RMK AO2,M
MEV,2023-08-10 19:35,-119.7500,38.9963,1441.42,82.40,21.20,10.34,0.00,0.00,0.00,30.05,M,10.00,M,CLR,M,M,M,M,M,M,M,M,M,M,M,M,M,M,79.55,KMEV 101935Z AUTO 00000KT 10SM CLR 28/M06 A3005 RMK AO2,M
HTH,2023-08-10 19:35,-118.6315,38.5448,1282.89,84.20,21.20,9.76,340.00,7.00,0.00,30.02,M,10.00,M,CLR,M,M,M,M,M,M,M,M,M,M,M,M,M,M,80.77,KHTH 101935Z AUTO 34007KT 320V020 10SM CLR 29/M06 A3002 RMK A01,M
BAM,2023-08-10 19:35,-116.8743,40.5990,1382.36,87.80,33.80,14.61,20.00,7.00,0.00,30.03,M,10.00,M,CLR,M,M,M,M,M,M,M,M,M,M,M,M,M,M,84.10,KBAM 101935Z AUTO 02007KT 10SM CLR 31/01 A3003 RMK AO1,M
TMT,2023-08-10 19:35,-117.1971,39.4643,1749.34,83.00,32.00,15.85,310.00,5.00,0.00,30.10,M,M,M,CLR,M,M,M,M,M,M,M,M,M,M,M,M,M,M,80.41,KTMT 101935Z AUTO 31005KT CLR 28/00 A3010 RMK AO2 T02840001 PWINO,M
LAS,2023-08-10 19:38,-115.1634,36.0719,663.00,93.00,58.00,31.06,20.00,11.00,0.00,29.94,M,10.00,20.00,FEW,SCT,SCT,M,10000.00,14000.00,20000.00,M,M,M,M,M,M,M,M,91.98,KLAS 101938Z 02011G20KT 10SM FEW100 SCT140 SCT200 34/14 A2994 RMK AO2 T03390144,M
P68,2023-08-10 19:53,-116.0056,39.6014,1993.00,86.00,28.00,12.23,M,M,0.00,30.09,1009.90,M,M,M,M,M,M,M,M,M,M,M,M,M,M,M,M,M,82.50,KP68 101953Z AUTO 30/M02 A3009 RMK AO1 SLP099 T03001022,M
DRA,2023-08-10 19:53,-116.0278,36.6206,1009.00,87.00,55.00,33.65,M,3.00,0.00,30.00,1010.40,10.00,M,CLR,M,M,M,M,M,M,M,M,M,M,M,M,M,M,85.31,KDRA 101953Z AUTO VRB03KT 10SM CLR 31/13 A3000 RMK AO2 SLP104 T03060128,M
ELY,2023-08-10 19:53,-114.8453,39.2950,1909.00,83.00,37.00,19.35,M,4.00,0.00,30.13,1008.90,10.00,15.00,BKN,M,M,M,10000.00,M,M,M,M,M,M,M,M,M,M,80.53,KELY 101953Z AUTO VRB04G15KT 10SM BKN100 28/03 A3013 RMK AO2 SLP089 T02830028,M
VGT,2023-08-10 19:53,-115.1933,36.2111,667.00,92.00,60.00,34.42,70.00,17.00,0.00,29.93,1012.10,10.00,M,CLR,M,M,M,M,M,M,M,M,M,M,M,M,M,M,91.69,KVGT 101953Z 07017KT 10SM CLR 33/16 A2993 RMK AO2 SLP121 T03330156,M
LOL,2023-08-10 19:53,-118.5701,40.0684,1192.43,86.00,32.00,14.40,120.00,5.00,0.00,30.00,1011.00,10.00,M,CLR,M,M,M,M,M,M,M,M,M,M,M,M,M,M,82.64,KLOL 101953Z AUTO 12005KT 10SM CLR 30/00 A3000 RMK AO2 SLP110 T03000000,M
BVU,2023-08-10 19:55,-114.8611,35.9475,671.00,91.40,57.20,31.72,40.00,15.00,0.00,29.91,M,10.00,20.00,SCT,M,M,M,9000.00,M,M,M,M,M,M,M,M,M,M,90.06,KBVU 101955Z AUTO 04015G20KT 10SM SCT090 33/14 A2991 RMK AO2,M
CXP,2023-08-10 19:55,-119.7326,39.1923,1431.00,86.00,12.20,6.24,M,4.00,0.00,30.06,M,9.00,M,CLR,M,M,M,M,M,M,M,M,M,M,M,M,M,M,81.64,KCXP 101955Z AUTO VRB04KT 9SM CLR 30/M11 A3006 RMK AO2,M
RNO,2023-08-10 19:55,-119.7711,39.4839,1341.00,86.00,19.00,8.39,M,3.00,0.00,30.04,1011.20,10.00,M,CLR,M,M,M,M,M,M,M,M,M,M,M,M,M,M,81.92,KRNO 101955Z VRB03KT 10SM CLR 30/M07 A3004 RMK AO2 SLP112 T03001072,M
RTS,2023-08-10 19:55,-119.8764,39.6682,1539.00,80.60,21.20,10.97,M,3.00,0.00,30.09,M,10.00,M,CLR,M,M,M,M,M,M,M,M,M,M,M,M,M,M,78.68,KRTS 101955Z AUTO VRB03KT 10SM CLR 27/M06 A3009 RMK AO2,M
05U,2023-08-10 19:55,-116.0051,39.6042,1811.23,86.00,28.40,12.44,M,M,0.00,30.12,M,10.00,M,M,M,M,M,M,M,M,M,M,M,M,M,M,M,M,82.54,K05U 101955Z AUTO 10SM 30/M02 A3012 RMK A01,M
MEV,2023-08-10 19:55,-119.7500,38.9963,1441.42,84.20,17.60,8.37,M,3.00,0.00,30.05,M,8.00,M,CLR,M,M,M,M,M,M,M,M,M,M,M,M,M,M,80.59,KMEV 101955Z AUTO VRB03KT 8SM CLR 29/M08 A3005 RMK AO2,M
HTH,2023-08-10 19:55,-118.6315,38.5448,1282.89,86.00,19.40,8.53,10.00,8.00,0.00,30.01,M,10.00,M,CLR,M,M,M,M,M,M,M,M,M,M,M,M,M,M,81.94,KHTH 101955Z AUTO 01008KT 10SM CLR 30/M07 A3001 RMK A01,M
BAM,2023-08-10 19:55,-116.8743,40.5990,1382.36,89.60,33.80,13.80,30.00,4.00,0.00,30.03,M,10.00,M,CLR,M,M,M,M,M,M,M,M,M,M,M,M,M,M,85.59,KBAM 101955Z AUTO 03004KT 10SM CLR 32/01 A3003 RMK AO1,M
TMT,2023-08-10 19:55,-117.1971,39.4643,1749.34,84.40,32.00,15.15,280.00,7.00,0.00,30.10,M,M,M,CLR,M,M,M,M,M,M,M,M,M,M,M,M,M,M,81.42,KTMT 101955Z AUTO 28007KT CLR 29/00 A3010 RMK AO2 T02910000 PWINO,M
INS,2023-08-10 19:55,-115.6733,36.5872,955.00,85.00,56.50,37.88,360.00,3.00,0.00,30.00,1010.80,10.00,M,CLR,M,M,M,M,M,M,M,M,M,M,M,M,M,M,83.96,KINS 101955Z AUTO 36003KT 10SM CLR 29/14 A3000 RMK AO2 SLP108 T02940136 $,M
LSV,2023-08-10 19:55,-115.0343,36.2362,570.00,90.00,60.00,36.64,20.00,24.00,0.00,29.90,1009.80,10.00,M,CLR,M,M,M,M,M,M,M,M,M,M,M,28.00,10.00,2023-08-10 19:31,89.63,KLSV 101955Z AUTO 02024KT 10SM CLR 32/16 A2990 RMK AO2 PK WND 01028/31 SLP098 T03220156 $,M
EKO,2023-08-10 19:56,-115.7860,40.8242,1367.00,88.00,33.00,14.06,200.00,7.00,0.00,30.05,1011.60,10.00,14.00,CLR,M,M,M,M,M,M,M,M,M,M,M,M,M,M,84.25,KEKO 101956Z AUTO 20007G14KT 170V240 10SM CLR 31/01 A3005 RMK AO2 SLP116 T03110006,M
WMC,2023-08-10 19:56,-117.8072,40.9019,1315.00,88.00,33.00,14.06,M,M,0.00,30.00,1010.40,10.00,M,CLR,M,M,M,M,M,M,M,M,M,M,M,M,M,M,84.25,KWMC 101956Z AUTO 10SM CLR 31/01 A3000 RMK AO2 SLP104 T03110006,M
NFL,2023-08-10 19:56,-118.7010,39.4166,1199.00,87.00,28.00,11.85,M,4.00,0.00,30.00,1012.90,10.00,M,FEW,FEW,M,M,7000.00,10000.00,M,M,M,M,M,M,M,M,M,83.22,KNFL 101956Z VRB04KT 10SM FEW070 FEW100 31/M02 A3000 RMK AO2 SLP129 T03061022,M
HND,2023-08-10 19:56,-115.1344,35.9729,742.79,91.00,58.00,33.06,50.00,7.00,0.00,29.97,1013.00,10.00,M,CLR,M,M,M,M,M,M,M,M,M,M,M,M,M,M,89.92,KHND 101956Z 05007KT 10SM CLR 33/14 A2997 RMK AO2 SLP130 T03280144,M
TPH,2023-08-10 19:56,-117.0904,38.0505,1654.00,83.00,41.00,22.62,180.00,8.00,0.00,30.10,1011.30,10.00,M,CLR,M,M,M,M,M,M,M,M,M,M,M,M,M,M,80.69,KTPH 101956Z AUTO 18008KT 140V210 10SM CLR 28/05 A3010 RMK AO2 SLP113 T02830050,M
LAS,2023-08-10 19:56,-115.1634,36.0719,663.00,92.00,59.00,33.21,20.00,21.00,0.00,29.94,1010.70,10.00,26.00,FEW,SCT,SCT,M,10000.00,14000.00,20000.00,M,M,M,M,M,26.00,20.00,2023-08-10 19:56,91.30,KLAS 101956Z 02021G26KT 10SM FEW100 SCT140 SCT200 33/15 A2994 RMK AO2 PK WND 02026/1956 SLP107 T03330150,M
05U,2023-08-10 20:10,-116.0051,39.6042,1811.23,87.80,30.20,12.64,M,M,0.00,30.11,M,10.00,M,M,M,M,M,M,M,M,M,M,M,M,M,M,M,M,84.01,K05U 102010Z AUTO 10SM 31/M01 A3011 RMK A01,M
HTH,2023-08-10 20:10,-118.6315,38.5448,1282.89,87.80,21.20,8.70,340.00,6.00,0.00,30.01,M,10.00,11.00,CLR,M,M,M,M,M,M,M,M,M,M,M,M,M,M,83.33,KHTH 102010Z AUTO 34006G11KT 10SM CLR 31/M06 A3001 RMK A01,M
BVU,2023-08-10 20:15,-114.8611,35.9475,671.00,89.60,57.20,33.56,40.00,13.00,0.00,29.91,M,10.00,18.00,SCT,M,M,M,9000.00,M,M,M,M,M,M,M,M,M,M,88.28,KBVU 102015Z AUTO 04013G18KT 10SM SCT090 32/14 A2991 RMK AO2,M
CXP,2023-08-10 20:15,-119.7326,39.1923,1431.00,87.80,19.40,8.06,0.00,0.00,0.00,30.05,M,10.00,M,CLR,M,M,M,M,M,M,M,M,M,M,M,M,M,M,83.23,KCXP 102015Z AUTO 00000KT 10SM CLR 31/M07 A3005 RMK AO2,M
RTS,2023-08-10 20:15,-119.8764,39.6682,1539.00,82.40,19.40,9.58,M,4.00,0.00,30.09,M,10.00,M,CLR,M,M,M,M,M,M,M,M,M,M,M,M,M,M,79.45,KRTS 102015Z AUTO VRB04KT 10SM CLR 28/M07 A3009 RMK AO2,M
MEV,2023-08-10 20:15,-119.7500,38.9963,1441.42,84.20,23.00,10.53,M,4.00,0.00,30.04,M,9.00,M,CLR,M,M,M,M,M,M,M,M,M,M,M,M,M,M,80.88,KMEV 102015Z AUTO VRB04KT 9SM CLR 29/M05 A3004 RMK AO2,M
BAM,2023-08-10 20:15,-116.8743,40.5990,1382.36,89.60,32.00,12.84,50.00,6.00,0.00,30.02,M,10.00,M,CLR,M,M,M,M,M,M,M,M,M,M,M,M,M,M,85.54,KBAM 102015Z AUTO 05006KT 10SM CLR 32/00 A3002 RMK AO1,M
TMT,2023-08-10 20:15,-117.1971,39.4643,1749.34,85.00,32.00,14.86,270.00,5.00,0.00,30.10,M,M,M,CLR,M,M,M,M,M,M,M,M,M,M,M,M,M,M,81.87,KTMT 102015Z AUTO 27005KT CLR 30/00 A3010 RMK AO2 T02951001 PWINO,M
05U,2023-08-10 20:30,-116.0051,39.6042,1811.23,89.60,30.20,11.94,M,M,0.00,30.11,M,10.00,M,M,M,M,M,M,M,M,M,M,M,M,M,M,M,M,85.34,K05U 102030Z AUTO 10SM 32/M01 A3011 RMK A01,M
BVU,2023-08-10 20:35,-114.8611,35.9475,671.00,91.40,57.20,31.72,40.00,17.00,0.00,29.90,M,10.00,M,BKN,M,M,M,9000.00,M,M,M,M,M,M,M,M,M,M,90.06,KBVU 102035Z AUTO 04017KT 10SM BKN090 33/14 A2990 RMK AO2,M
CXP,2023-08-10 20:35,-119.7326,39.1923,1431.00,86.00,23.00,9.94,M,3.00,0.00,30.05,M,10.00,10.00,CLR,M,M,M,M,M,M,M,M,M,M,M,M,M,M,82.14,KCXP 102035Z AUTO VRB03G10KT 10SM CLR 30/M05 A3005 RMK AO2,M
RTS,2023-08-10 20:35,-119.8764,39.6682,1539.00,82.40,21.20,10.34,0.00,0.00,0.00,30.09,M,10.00,M,CLR,M,M,M,M,M,M,M,M,M,M,M,M,M,M,79.55,KRTS 102035Z AUTO 00000KT 10SM CLR 28/M06 A3009 RMK AO2,M
MEV,2023-08-10 20:35,-119.7500,38.9963,1441.42,86.00,24.80,10.72,330.00,5.00,0.00,30.04,M,8.00,M,CLR,M,M,M,M,M,M,M,M,M,M,M,M,M,M,82.26,KMEV 102035Z AUTO 33005KT 8SM CLR 30/M04 A3004 RMK AO2,M
HTH,2023-08-10 20:35,-118.6315,38.5448,1282.89,87.80,23.00,9.39,320.00,9.00,0.00,30.00,M,10.00,M,CLR,M,M,M,M,M,M,M,M,M,M,M,M,M,M,83.43,KHTH 102035Z AUTO 32009KT 10SM CLR 31/M05 A3000 RMK A01,M
BAM,2023-08-10 20:35,-116.8743,40.5990,1382.36,89.60,32.00,12.84,250.00,10.00,0.00,30.01,M,10.00,M,CLR,M,M,M,M,M,M,M,M,M,M,M,M,M,M,85.54,KBAM 102035Z AUTO 25010KT 220V280 10SM CLR 32/00 A3001 RMK AO1,M
TMT,2023-08-10 20:35,-117.1971,39.4643,1749.34,85.50,32.00,14.63,240.00,6.00,0.00,30.09,M,M,M,CLR,M,M,M,M,M,M,M,M,M,M,M,M,M,M,82.26,KTMT 102035Z AUTO 24006KT CLR 30/00 A3009 RMK AO2 T02971001 PWINO,M
05U,2023-08-10 20:50,-116.0051,39.6042,1811.23,89.60,30.20,11.94,M,M,0.00,30.10,M,10.00,M,M,M,M,M,M,M,M,M,M,M,M,M,M,M,M,85.34,K05U 102050Z AUTO 10SM 32/M01 A3010 RMK A01,M
P68,2023-08-10 20:53,-116.0056,39.6014,1993.00,86.00,29.00,12.75,M,3.00,0.00,30.07,1009.70,M,M,M,M,M,M,M,M,M,M,M,M,M,M,M,M,M,82.59,KP68 102053Z AUTO VRB03KT 30/M02 A3007 RMK AO1 SLP097 T03001017 56016,M
DRA,2023-08-10 20:53,-116.0278,36.6206,1009.00,90.00,55.00,30.61,80.00,4.00,0.00,29.99,1010.00,10.00,M,FEW,M,M,M,10000.00,M,M,M,M,M,M,M,M,M,M,88.06,KDRA 102053Z AUTO 08004KT 10SM FEW100 32/13 A2999 RMK AO2 SLP100 T03220128 56011,M
ELY,2023-08-10 20:53,-114.8453,39.2950,1909.00,82.00,38.00,20.79,200.00,9.00,0.00,30.12,1008.90,10.00,M,BKN,M,M,M,10000.00,M,M,M,M,M,M,M,M,M,M,79.90,KELY 102053Z AUTO 20009KT 10SM BKN100 28/03 A3012 RMK AO2 LTG DSNT SE-SW SLP089 T02780033 56011,M
VGT,2023-08-10 20:53,-115.1933,36.2111,667.00,94.00,59.00,31.21,70.00,15.00,0.00,29.92,1011.60,10.00,M,CLR,M,M,M,M,M,M,M,M,M,M,M,M,M,M,93.42,KVGT 102053Z 07015KT 10SM CLR 34/15 A2992 RMK AO2 SLP116 T03440150 58011,M
LOL,2023-08-10 20:53,-118.5701,40.0684,1192.43,89.00,31.00,12.57,M,5.00,0.00,29.98,1010.90,10.00,M,CLR,M,M,M,M,M,M,M,M,M,M,M,M,M,M,84.98,KLOL 102053Z AUTO VRB05KT 10SM CLR 32/M01 A2998 RMK AO2 SLP109 T03171006 58017,M
BVU,2023-08-10 20:55,-114.8611,35.9475,671.00,93.20,57.20,29.99,30.00,14.00,0.00,29.90,M,10.00,21.00,SCT,M,M,M,9000.00,M,M,M,M,M,M,M,M,M,M,91.91,KBVU 102055Z AUTO 03014G21KT 10SM SCT090 34/14 A2990 RMK AO2,M
CXP,2023-08-10 20:55,-119.7326,39.1923,1431.00,86.00,24.80,10.72,M,5.00,0.00,30.04,M,10.00,M,CLR,M,M,M,M,M,M,M,M,M,M,M,M,M,M,82.26,KCXP 102055Z AUTO VRB05KT 10SM CLR 30/M04 A3004 RMK AO2,M
RNO,2023-08-10 20:55,-119.7711,39.4839,1341.00,89.00,24.00,9.42,0.00,0.00,0.00,30.02,1010.60,10.00,M,CLR,M,M,M,M,M,M,M,M,M,M,M,M,M,M,84.38,KRNO 102055Z 00000KT 10SM CLR 32/M04 A3002 RMK AO2 SLP106 T03171044 56018,M
RTS,2023-08-10 20:55,-119.8764,39.6682,1539.00,84.20,21.20,9.76,0.00,0.00,0.00,30.08,M,10.00,M,CLR,M,M,M,M,M,M,M,M,M,M,M,M,M,M,80.77,KRTS 102055Z AUTO 00000KT 10SM CLR 29/M06 A3008 RMK AO2,M
MEV,2023-08-10 20:55,-119.7500,38.9963,1441.42,84.20,24.80,11.35,290.00,5.00,0.00,30.03,M,6.00,M,CLR,M,M,M,M,M,M,M,HZ,M,M,M,M,M,M,81.00,KMEV 102055Z AUTO 29005KT 6SM HZ CLR 29/M04 A3003 RMK AO2,M
BAM,2023-08-10 20:55,-116.8743,40.5990,1382.36,93.20,32.00,11.48,320.00,9.00,0.00,30.01,M,10.00,17.00,CLR,M,M,M,M,M,M,M,M,M,M,M,M,M,M,88.31,KBAM 102055Z AUTO 32009G17KT 300V360 10SM CLR 34/00 A3001 RMK AO1,M
HTH,2023-08-10 20:55,-118.6315,38.5448,1282.89,87.80,23.00,9.39,330.00,7.00,0.00,29.99,M,10.00,M,CLR,M,M,M,M,M,M,M,M,M,M,M,M,M,M,83.43,KHTH 102055Z AUTO 33007KT 290V350 10SM CLR 31/M05 A2999 RMK A01,M
TMT,2023-08-10 20:55,-117.1971,39.4643,1749.34,86.50,29.70,12.91,280.00,5.00,0.00,30.09,M,M,M,CLR,M,M,M,M,M,M,M,M,M,M,M,M,M,M,83.01,KTMT 102055Z AUTO 28005KT CLR 30/M01 A3009 RMK AO2 T03031013 PWINO,M
INS,2023-08-10 20:55,-115.6733,36.5872,955.00,85.50,53.80,33.79,220.00,5.00,0.00,29.98,1010.10,10.00,M,FEW,SCT,BKN,BKN,13000.00,16000.00,19000.00,22000.00,M,M,M,M,M,M,M,83.81,KINS 102055Z AUTO 22005KT 10SM FEW130 SCT160 BKN190 BKN220 30/12 A2998 RMK AO2 SLP101 T02970121 57014 $,M
LSV,2023-08-10 20:55,-115.0343,36.2362,570.00,89.80,58.50,34.95,20.00,22.00,0.00,29.88,1009.20,10.00,27.00,FEW,FEW,SCT,SCT,12000.00,16000.00,18000.00,21000.00,M,M,M,M,30.00,10.00,2023-08-10 20:08,88.89,KLSV 102055Z AUTO 02022G27KT 10SM FEW120 FEW160 SCT180 SCT210 32/15 A2988 RMK AO2 PK WND 01030/08 SLP092 T03210147 58009 $,M
EKO,2023-08-10 20:56,-115.7860,40.8242,1367.00,88.00,33.00,14.06,M,6.00,0.00,30.03,1011.30,10.00,M,CLR,M,M,M,M,M,M,M,M,M,M,M,M,M,M,84.25,KEKO 102056Z AUTO VRB06KT 10SM CLR 31/01 A3003 RMK AO2 SLP113 T03110006 58013,M
WMC,2023-08-10 20:56,-117.8072,40.9019,1315.00,91.00,22.00,8.14,260.00,14.00,0.00,30.00,1010.40,10.00,19.00,CLR,M,M,M,M,M,M,M,M,M,M,M,M,M,M,85.72,KWMC 102056Z AUTO 26014G19KT 10SM CLR 33/M06 A3000 RMK AO2 SLP104 T03281056 56014,M
NFL,2023-08-10 20:56,-118.7010,39.4166,1199.00,91.00,27.00,10.02,M,5.00,0.00,29.98,1012.30,10.00,M,FEW,FEW,M,M,7000.00,10000.00,M,M,M,M,M,M,M,M,M,86.10,KNFL 102056Z VRB05KT 10SM FEW070 FEW100 33/M03 A2998 RMK AO2 SLP123 T03281028 58018,M
HND,2023-08-10 20:56,-115.1344,35.9729,742.79,92.00,59.00,33.21,50.00,11.00,0.00,29.95,1012.50,10.00,16.00,FEW,M,M,M,9500.00,M,M,M,M,M,M,M,M,M,M,91.30,KHND 102056Z 05011G16KT 10SM FEW095 33/15 A2995 RMK AO2 SLP125 T03330150 57014,M
TPH,2023-08-10 20:56,-117.0904,38.0505,1654.00,84.00,47.00,27.55,170.00,16.00,0.00,30.09,1011.10,10.00,34.00,CLR,M,M,M,M,M,M,M,M,M,M,M,34.00,170.00,2023-08-10 20:51,81.78,KTPH 102056Z AUTO 17016G34KT 10SM CLR 29/08 A3009 RMK AO2 PK WND 17034/2051 SLP111 T02890083 56011,M
LAS,2023-08-10 20:56,-115.1634,36.0719,663.00,90.00,59.00,35.36,40.00,18.00,0.00,29.93,1010.40,10.00,M,SCT,SCT,BKN,M,10000.00,14000.00,20000.00,M,M,M,M,M,M,M,M,89.26,KLAS 102056Z 04018KT 10SM SCT100 SCT140 BKN200 32/15 A2993 RMK AO2 SLP104 T03220150 56010,M
LAS,2023-08-10 21:07,-115.1634,36.0719,663.00,90.00,59.00,35.36,30.00,18.00,0.00,29.92,M,10.00,M,SCT,SCT,BKN,M,10000.00,14000.00,20000.00,M,M,M,M,M,M,M,M,89.26,KLAS 102107Z 03018KT 10SM SCT100 SCT140 BKN200 32/15 A2992 RMK AO2 T03220150,M
05U,2023-08-10 21:10,-116.0051,39.6042,1811.23,89.60,30.20,11.94,M,M,0.00,30.10,M,10.00,M,M,M,M,M,M,M,M,M,M,M,M,M,M,M,M,85.34,K05U 102110Z AUTO 10SM 32/M01 A3010 RMK A01,M
BVU,2023-08-10 21:15,-114.8611,35.9475,671.00,93.20,57.20,29.99,30.00,14.00,0.00,29.89,M,10.00,20.00,FEW,M,M,M,9000.00,M,M,M,M,M,M,M,M,M,M,91.91,KBVU 102115Z AUTO 03014G20KT 10SM FEW090 34/14 A2989 RMK AO2,M
CXP,2023-08-10 21:15,-119.7326,39.1923,1431.00,87.80,24.80,10.12,330.00,5.00,0.00,30.04,M,10.00,11.00,CLR,M,M,M,M,M,M,M,M,M,M,M,M,M,M,83.56,KCXP 102115Z AUTO 33005G11KT 10SM CLR 31/M04 A3004 RMK AO2,M
RTS,2023-08-10 21:15,-119.8764,39.6682,1539.00,84.20,23.00,10.53,M,4.00,0.00,30.08,M,10.00,10.00,CLR,M,M,M,M,M,M,M,M,M,M,M,M,M,M,80.88,KRTS 102115Z AUTO VRB04G10KT 10SM CLR 29/M05 A3008 RMK AO2,M
MEV,2023-08-10 21:15,-119.7500,38.9963,1441.42,86.00,26.60,11.55,M,3.00,0.00,30.03,M,9.00,M,CLR,M,M,M,M,M,M,M,M,M,M,M,M,M,M,82.39,KMEV 102115Z AUTO VRB03KT 9SM CLR 30/M03 A3003 RMK AO2,M
BAM,2023-08-10 21:15,-116.8743,40.5990,1382.36,91.40,32.00,12.14,350.00,4.00,0.00,30.00,M,10.00,M,CLR,M,M,M,M,M,M,M,M,M,M,M,M,M,M,86.91,KBAM 102115Z AUTO 35004KT 10SM CLR 33/00 A3000 RMK AO1,M
HTH,2023-08-10 21:15,-118.6315,38.5448,1282.89,89.60,23.00,8.87,310.00,8.00,0.00,29.98,M,10.00,M,CLR,M,M,M,M,M,M,M,M,M,M,M,M,M,M,84.75,KHTH 102115Z AUTO 31008KT 10SM CLR 32/M05 A2998 RMK A01,M
TMT,2023-08-10 21:15,-117.1971,39.4643,1749.34,87.00,31.50,13.67,250.00,7.00,0.00,30.08,M,M,M,CLR,M,M,M,M,M,M,M,M,M,M,M,M,M,M,83.43,KTMT 102115Z AUTO 25007KT CLR 31/00 A3008 RMK AO2 T03061003 PWINO,M
BVU,2023-08-10 21:35,-114.8611,35.9475,671.00,93.20,57.20,29.99,20.00,16.00,0.00,29.88,M,10.00,M,FEW,M,M,M,9000.00,M,M,M,M,M,M,M,M,M,M,91.91,KBVU 102135Z AUTO 02016KT 10SM FEW090 34/14 A2988 RMK AO2,M
CXP,2023-08-10 21:35,-119.7326,39.1923,1431.00,87.80,24.80,10.12,320.00,7.00,0.00,30.04,M,10.00,15.00,CLR,M,M,M,M,M,M,M,M,M,M,M,M,M,M,83.56,KCXP 102135Z AUTO 32007G15KT 250V010 10SM CLR 31/M04 A3004 RMK AO2,M
RTS,2023-08-10 21:35,-119.8764,39.6682,1539.00,84.20,23.00,10.53,M,5.00,0.00,30.07,M,10.00,M,CLR,M,M,M,M,M,M,M,M,M,M,M,M,M,M,80.88,KRTS 102135Z AUTO VRB05KT 10SM CLR 29/M05 A3007 RMK AO2,M
05U,2023-08-10 21:35,-116.0051,39.6042,1811.23,87.80,30.20,12.64,M,M,0.00,30.09,M,10.00,M,M,M,M,M,M,M,M,M,M,M,M,M,M,M,M,84.01,K05U 102135Z AUTO 10SM 31/M01 A3009 RMK A01,M
MEV,2023-08-10 21:35,-119.7500,38.9963,1441.42,87.80,30.20,12.64,260.00,8.00,0.00,30.03,M,10.00,17.00,CLR,M,M,M,M,M,M,M,M,M,M,M,M,M,M,84.01,KMEV 102135Z AUTO 26008G17KT 10SM CLR 31/M01 A3003 RMK AO2,M
HTH,2023-08-10 21:35,-118.6315,38.5448,1282.89,89.60,23.00,8.87,320.00,8.00,0.00,29.98,M,10.00,M,CLR,M,M,M,M,M,M,M,M,M,M,M,M,M,M,84.75,KHTH 102135Z AUTO 32008KT 290V350 10SM CLR 32/M05 A2998 RMK A01,M
BAM,2023-08-10 21:35,-116.8743,40.5990,1382.36,91.40,32.00,12.14,350.00,8.00,0.00,30.00,M,10.00,M,CLR,M,M,M,M,M,M,M,M,M,M,M,M,M,M,86.91,KBAM 102135Z AUTO 35008KT 10SM CLR 33/00 A3000 RMK AO1,M
TMT,2023-08-10 21:35,-117.1971,39.4643,1749.34,86.00,32.00,14.40,210.00,4.00,0.00,30.08,M,M,M,CLR,M,M,M,M,M,M,M,M,M,M,M,M,M,M,82.64,KTMT 102135Z AUTO 21004KT CLR 30/00 A3008 RMK AO2 T03010000 PWINO,M
ELY,2023-08-10 21:50,-114.8453,39.2950,1909.00,75.20,51.80,43.97,140.00,27.00,0.00,30.12,M,9.00,41.00,FEW,M,M,M,12000.00,M,M,M,VCTS,M,M,M,41.00,140.00,2023-08-10 21:47,75.20,KELY 102150Z AUTO 14027G41KT 9SM VCTS FEW120 24/11 A3012 RMK AO2 PK WND 14041/2147 WSHFT 2130 LTG DSNT SE-SW,M
P68,2023-08-10 21:53,-116.0056,39.6014,1993.00,88.00,29.00,11.96,210.00,5.00,0.00,30.06,1009.30,M,M,M,M,M,M,M,M,M,M,M,M,M,M,M,M,M,84.04,KP68 102153Z AUTO 21005KT 31/M02 A3006 RMK AO1 SLP093 T03111017,M
DRA,2023-08-10 21:53,-116.0278,36.6206,1009.00,90.00,55.00,30.61,230.00,6.00,0.00,29.96,1009.00,10.00,M,FEW,FEW,M,M,8000.00,10000.00,M,M,M,M,M,M,M,M,M,88.06,KDRA 102153Z AUTO 23006KT 10SM FEW080 FEW100 32/13 A2996 RMK AO2 SLP090 T03220128,M
ELY,2023-08-10 21:53,-114.8453,39.2950,1909.00,74.00,52.00,46.11,150.00,27.00,0.00,30.12,1010.70,9.00,41.00,FEW,M,M,M,12000.00,M,M,M,VCTS,M,M,M,41.00,140.00,2023-08-10 21:47,74.00,KELY 102153Z AUTO 15027G41KT 9SM VCTS FEW120 23/11 A3012 RMK AO2 PK WND 14041/2147 WSHFT 2130 LTG DSNT SE-SW SLP107 T02330111,M
VGT,2023-08-10 21:53,-115.1933,36.2111,667.00,94.00,59.00,31.21,80.00,15.00,0.00,29.89,1010.80,10.00,M,CLR,M,M,M,M,M,M,M,M,M,M,M,M,M,M,93.42,KVGT 102153Z 08015KT 10SM CLR 34/15 A2989 RMK AO2 SLP108 T03440150,M
LOL,2023-08-10 21:53,-118.5701,40.0684,1192.43,90.00,31.00,12.18,M,5.00,0.00,29.96,1010.30,10.00,M,CLR,M,M,M,M,M,M,M,M,M,M,M,M,M,M,85.73,KLOL 102153Z AUTO VRB05KT 10SM CLR 32/M01 A2996 RMK AO2 SLP103 T03221006,M
BVU,2023-08-10 21:55,-114.8611,35.9475,671.00,93.20,57.20,29.99,30.00,15.00,0.00,29.87,M,10.00,M,SCT,M,M,M,9000.00,M,M,M,M,M,M,M,M,M,M,91.91,KBVU 102155Z AUTO 03015KT 10SM SCT090 34/14 A2987 RMK AO2,M
CXP,2023-08-10 21:55,-119.7326,39.1923,1431.00,87.80,26.60,10.91,10.00,8.00,0.00,30.03,M,10.00,14.00,CLR,M,M,M,M,M,M,M,M,M,M,M,M,M,M,83.69,KCXP 102155Z AUTO 01008G14KT 330V030 10SM CLR 31/M03 A3003 RMK AO2,M
RNO,2023-08-10 21:55,-119.7711,39.4839,1341.00,90.00,29.00,11.23,160.00,9.00,0.00,30.00,1009.80,10.00,14.00,FEW,M,M,M,9000.00,M,M,M,M,M,M,M,M,M,M,85.53,KRNO 102155Z 16009G14KT 10SM FEW090 32/M02 A3000 RMK AO2 SLP098 T03221017,M
RTS,2023-08-10 21:55,-119.8764,39.6682,1539.00,84.20,23.00,10.53,320.00,9.00,0.00,30.06,M,10.00,15.00,CLR,M,M,M,M,M,M,M,M,M,M,M,M,M,M,80.88,KRTS 102155Z AUTO 32009G15KT 10SM CLR 29/M05 A3006 RMK AO2,M
05U,2023-08-10 21:55,-116.0051,39.6042,1811.23,89.60,30.20,11.94,M,M,0.00,30.09,M,10.00,M,M,M,M,M,M,M,M,M,M,M,M,M,M,M,M,85.34,K05U 102155Z AUTO 10SM 32/M01 A3009 RMK A01,M
MEV,2023-08-10 21:55,-119.7500,38.9963,1441.42,87.80,33.80,14.61,260.00,11.00,0.00,30.02,M,10.00,M,CLR,M,M,M,M,M,M,M,M,M,M,M,M,M,M,84.10,KMEV 102155Z AUTO 26011KT 10SM CLR 31/01 A3002 RMK AO2,M
BAM,2023-08-10 21:55,-116.8743,40.5990,1382.36,91.40,32.00,12.14,340.00,4.00,0.00,29.99,M,10.00,M,CLR,M,M,M,M,M,M,M,M,M,M,M,M,M,M,86.91,KBAM 102155Z AUTO 34004KT 10SM CLR 33/00 A2999 RMK AO1,M
HTH,2023-08-10 21:55,-118.6315,38.5448,1282.89,89.60,23.00,8.87,300.00,7.00,0.00,29.97,M,10.00,M,CLR,M,M,M,M,M,M,M,M,M,M,M,M,M,M,84.75,KHTH 102155Z AUTO 30007KT 260V330 10SM CLR 32/M05 A2997 RMK A01,M
TMT,2023-08-10 21:55,-117.1971,39.4643,1749.34,87.40,32.00,13.77,240.00,8.00,0.00,30.07,M,M,M,CLR,M,M,M,M,M,M,M,M,M,M,M,M,M,M,83.76,KTMT 102155Z AUTO 24008KT CLR 31/00 A3007 RMK AO2 T03080001 PWINO,M
INS,2023-08-10 21:55,-115.6733,36.5872,955.00,87.40,52.00,29.77,350.00,4.00,0.00,29.95,1009.10,10.00,M,FEW,M,M,M,19000.00,M,M,M,M,M,M,M,M,M,M,85.08,KINS 102155Z AUTO 35004KT 10SM FEW190 31/11 A2995 RMK AO2 SLP091 T03080112 $,M
LSV,2023-08-10 21:55,-115.0343,36.2362,570.00,91.00,60.30,35.89,20.00,21.00,0.00,29.86,1008.50,10.00,M,CLR,M,M,M,M,M,M,M,M,M,M,M,29.00,30.00,2023-08-10 21:39,90.77,KLSV 102155Z AUTO 02021KT 10SM CLR 33/16 A2986 RMK AO2 PK WND 03029/39 SLP085 T03280157 $,M
EKO,2023-08-10 21:56,-115.7860,40.8242,1367.00,90.00,33.00,13.20,200.00,9.00,0.00,30.01,1010.40,10.00,M,CLR,M,M,M,M,M,M,M,M,M,M,M,M,M,M,85.92,KEKO 102156Z AUTO 20009KT 10SM CLR 32/01 A3001 RMK AO2 SLP104 T03220006,M
WMC,2023-08-10 21:56,-117.8072,40.9019,1315.00,93.00,27.00,9.42,270.00,9.00,0.00,29.98,1010.00,10.00,19.00,CLR,M,M,M,M,M,M,M,M,M,M,M,M,M,M,87.60,KWMC 102156Z AUTO 27009G19KT 10SM CLR 34/M03 A2998 RMK AO2 SLP100 T03391028,M
NFL,2023-08-10 21:56,-118.7010,39.4166,1199.00,92.00,29.00,10.55,M,5.00,0.00,29.96,1011.90,10.00,M,FEW,FEW,M,M,7000.00,10000.00,M,M,M,M,M,M,M,M,M,87.04,KNFL 102156Z VRB05KT 10SM FEW070 FEW100 33/M02 A2996 RMK AO2 SLP119 T03331017,M
HND,2023-08-10 21:56,-115.1344,35.9729,742.79,92.00,59.00,33.21,50.00,12.00,0.00,29.92,1011.60,10.00,M,FEW,M,M,M,9000.00,M,M,M,M,M,M,M,M,M,M,91.30,KHND 102156Z 05012KT 10SM FEW090 33/15 A2992 RMK AO2 SLP116 T03330150,M
TPH,2023-08-10 21:56,-117.0904,38.0505,1654.00,82.00,45.00,27.24,170.00,10.00,0.00,30.08,1011.30,10.00,16.00,CLR,M,M,M,M,M,M,M,M,M,M,M,M,M,M,80.28,KTPH 102156Z AUTO 17010G16KT 150V270 10SM CLR 28/07 A3008 RMK AO2 SLP113 T02780072,M
LAS,2023-08-10 21:56,-115.1634,36.0719,663.00,92.00,59.00,33.21,30.00,16.00,0.00,29.90,1009.40,10.00,23.00,SCT,SCT,BKN,M,10000.00,14000.00,20000.00,M,M,M,M,M,M,M,M,91.30,KLAS 102156Z 03016G23KT 10SM SCT100 SCT140 BKN200 33/15 A2990 RMK AO2 SLP094 CB DSNT N AND E T03330150,M
05U,2023-08-10 22:10,-116.0051,39.6042,1811.23,87.80,28.40,11.74,M,M,0.00,30.08,M,10.00,M,M,M,M,M,M,M,M,M,M,M,M,M,M,M,M,83.84,K05U 102210Z AUTO 10SM 31/M02 A3008 RMK A01,M
BVU,2023-08-10 22:15,-114.8611,35.9475,671.00,91.40,57.20,31.72,30.00,14.00,0.00,29.86,M,10.00,22.00,SCT,M,M,M,9000.00,M,M,M,M,M,M,M,M,M,M,90.06,KBVU 102215Z AUTO 03014G22KT 10SM SCT090 33/14 A2986 RMK AO2,M
CXP,2023-08-10 22:15,-119.7326,39.1923,1431.00,87.80,30.20,12.64,210.00,5.00,0.00,30.03,M,10.00,12.00,CLR,M,M,M,M,M,M,M,M,M,M,M,M,M,M,84.01,KCXP 102215Z AUTO 21005G12KT 10SM CLR 31/M01 A3003 RMK AO2,M
RTS,2023-08-10 22:15,-119.8764,39.6682,1539.00,86.00,24.80,10.72,300.00,11.00,0.00,30.06,M,10.00,M,CLR,M,M,M,M,M,M,M,M,M,M,M,M,M,M,82.26,KRTS 102215Z AUTO 30011KT 10SM CLR 30/M04 A3006 RMK AO2,M
MEV,2023-08-10 22:15,-119.7500,38.9963,1441.42,87.80,33.80,14.61,280.00,10.00,0.00,30.02,M,10.00,M,CLR,M,M,M,M,M,M,M,M,M,M,M,M,M,M,84.10,KMEV 102215Z AUTO 28010KT 10SM CLR 31/01 A3002 RMK AO2,M
BAM,2023-08-10 22:15,-116.8743,40.5990,1382.36,93.20,32.00,11.48,320.00,8.00,0.00,29.98,M,10.00,M,CLR,M,M,M,M,M,M,M,M,M,M,M,M,M,M,88.31,KBAM 102215Z AUTO 32008KT 300V020 10SM CLR 34/00 A2998 RMK AO1,M
HTH,2023-08-10 22:15,-118.6315,38.5448,1282.89,89.60,23.00,8.87,M,4.00,0.00,29.95,M,10.00,12.00,CLR,M,M,M,M,M,M,M,M,M,M,M,M,M,M,84.75,KHTH 102215Z AUTO VRB04G12KT 10SM CLR 32/M05 A2995 RMK A01,M
TMT,2023-08-10 22:15,-117.1971,39.4643,1749.34,87.00,32.00,13.94,120.00,3.00,0.00,30.06,M,M,M,CLR,M,M,M,M,M,M,M,M,M,M,M,M,M,M,83.43,KTMT 102215Z AUTO 12003KT CLR 31/00 A3006 RMK AO2 T03050000 PWINO,M
BVU,2023-08-10 22:35,-114.8611,35.9475,671.00,91.40,57.20,31.72,30.00,17.00,0.00,29.86,M,10.00,M,BKN,M,M,M,9500.00,M,M,M,M,M,M,M,M,M,M,90.06,KBVU 102235Z AUTO 03017KT 10SM BKN095 33/14 A2986 RMK AO2,M
CXP,2023-08-10 22:35,-119.7326,39.1923,1431.00,87.80,30.20,12.64,230.00,9.00,0.00,30.02,M,10.00,M,CLR,M,M,M,M,M,M,M,M,M,M,M,M,M,M,84.01,KCXP 102235Z AUTO 23009KT 200V280 10SM CLR 31/M01 A3002 RMK AO2,M
RTS,2023-08-10 22:35,-119.8764,39.6682,1539.00,84.20,26.60,12.23,M,6.00,0.00,30.06,M,10.00,15.00,CLR,M,M,M,M,M,M,M,M,M,M,M,M,M,M,81.13,KRTS 102235Z AUTO VRB06G15KT 10SM CLR 29/M03 A3006 RMK AO2,M
05U,2023-08-10 22:35,-116.0051,39.6042,1811.23,87.80,28.40,11.74,M,M,0.00,30.08,M,10.00,M,M,M,M,M,M,M,M,M,M,M,M,M,M,M,M,83.84,K05U 102235Z AUTO 10SM 31/M02 A3008 RMK A01,M
MEV,2023-08-10 22:35,-119.7500,38.9963,1441.42,87.80,35.60,15.70,290.00,12.00,0.00,30.01,M,10.00,17.00,CLR,M,M,M,M,M,M,M,M,M,M,M,M,M,M,84.12,KMEV 102235Z AUTO 29012G17KT 10SM CLR 31/02 A3001 RMK AO2,M
HTH,2023-08-10 22:35,-118.6315,38.5448,1282.89,91.40,24.80,9.04,330.00,7.00,0.00,29.95,M,10.00,16.00,CLR,M,M,M,M,M,M,M,M,M,M,M,M,M,M,86.21,KHTH 102235Z AUTO 33007G16KT 10SM CLR 33/M04 A2995 RMK A01,M
BAM,2023-08-10 22:35,-116.8743,40.5990,1382.36,91.40,32.00,12.14,10.00,4.00,0.00,29.98,M,10.00,M,CLR,M,M,M,M,M,M,M,M,M,M,M,M,M,M,86.91,KBAM 102235Z AUTO 01004KT 10SM CLR 33/00 A2998 RMK AO1,M
TMT,2023-08-10 22:35,-117.1971,39.4643,1749.34,88.30,32.00,13.38,230.00,5.00,0.00,30.06,M,M,M,CLR,M,M,M,M,M,M,M,M,M,M,M,M,M,M,84.49,KTMT 102235Z AUTO 23005KT CLR 31/00 A3006 RMK AO2 T03130000 PWINO,M
P68,2023-08-10 22:53,-116.0056,39.6014,1993.00,86.00,28.00,12.23,M,3.00,0.00,30.05,1009.10,M,M,M,M,M,M,M,M,M,M,M,M,M,M,M,M,M,82.50,KP68 102253Z AUTO VRB03KT 30/M02 A3005 RMK AO1 SLP091 T03001022,M
DRA,2023-08-10 22:53,-116.0278,36.6206,1009.00,91.00,53.00,27.57,0.00,0.00,0.00,29.93,1007.90,10.00,M,SCT,M,M,M,8500.00,M,M,M,M,M,M,M,M,M,M,88.55,KDRA 102253Z AUTO 00000KT 10SM SCT085 33/12 A2993 RMK AO2 SLP079 T03280117,M
ELY,2023-08-10 22:53,-114.8453,39.2950,1909.00,74.00,52.00,46.11,150.00,15.00,0.00,30.15,1011.50,10.00,34.00,CLR,M,M,M,M,M,M,M,VCTS,M,M,M,43.00,150.00,2023-08-10 21:54,74.00,KELY 102253Z AUTO 15015G34KT 10SM VCTS CLR 23/11 A3015 RMK AO2 PK WND 15043/2154 LTG DSNT SE AND S SLP115 T02330111,M
VGT,2023-08-10 22:53,-115.1933,36.2111,667.00,94.00,60.00,32.34,80.00,14.00,0.00,29.87,1010.10,10.00,M,CLR,M,M,M,M,M,M,M,M,M,M,M,M,M,M,93.84,KVGT 102253Z 08014KT 10SM CLR 34/16 A2987 RMK AO2 SLP101 T03440156,M
LOL,2023-08-10 22:53,-118.5701,40.0684,1192.43,91.00,30.00,11.33,M,5.00,0.00,29.94,1010.00,10.00,M,CLR,M,M,M,M,M,M,M,M,M,M,M,M,M,M,86.38,KLOL 102253Z AUTO VRB05KT 10SM CLR 33/M01 A2994 RMK AO2 SLP100 T03281011,M
BVU,2023-08-10 22:55,-114.8611,35.9475,671.00,93.20,57.20,29.99,30.00,16.00,0.00,29.85,M,10.00,M,SCT,M,M,M,9500.00,M,M,M,M,M,M,M,M,M,M,91.91,KBVU 102255Z AUTO 03016KT 10SM SCT095 34/14 A2985 RMK AO2,M
CXP,2023-08-10 22:55,-119.7326,39.1923,1431.00,87.80,32.00,13.59,250.00,8.00,0.00,30.02,M,10.00,15.00,CLR,M,M,M,M,M,M,M,M,M,M,M,M,M,M,84.08,KCXP 102255Z AUTO 25008G15KT 210V290 10SM CLR 31/00 A3002 RMK AO2,M
RNO,2023-08-10 22:55,-119.7711,39.4839,1341.00,93.00,30.00,10.65,270.00,6.00,0.00,29.98,1009.30,10.00,M,FEW,M,M,M,12000.00,M,M,M,M,M,M,M,M,M,M,87.91,KRNO 102255Z 27006KT 10SM FEW120 34/M01 A2998 RMK AO2 SLP093 T03391011,M
RTS,2023-08-10 22:55,-119.8764,39.6682,1539.00,86.00,28.40,12.44,300.00,12.00,0.00,30.05,M,10.00,17.00,CLR,M,M,M,M,M,M,M,M,M,M,M,M,M,M,82.54,KRTS 102255Z AUTO 30012G17KT 10SM CLR 30/M02 A3005 RMK AO2,M
05U,2023-08-10 22:55,-116.0051,39.6042,1811.23,87.80,30.20,12.64,M,M,0.00,30.07,M,10.00,M,M,M,M,M,M,M,M,M,M,M,M,M,M,M,M,84.01,K05U 102255Z AUTO 10SM 31/M01 A3007 RMK A01,M
MEV,2023-08-10 22:55,-119.7500,38.9963,1441.42,87.80,37.40,16.86,280.00,11.00,0.00,30.01,M,10.00,17.00,CLR,M,M,M,M,M,M,M,M,M,M,M,M,M,M,84.16,KMEV 102255Z AUTO 28011G17KT 10SM CLR 31/03 A3001 RMK AO2,M
HTH,2023-08-10 22:55,-118.6315,38.5448,1282.89,91.40,24.80,9.04,340.00,7.00,0.00,29.94,M,10.00,12.00,CLR,M,M,M,M,M,M,M,M,M,M,M,M,M,M,86.21,KHTH 102255Z AUTO 34007G12KT 10SM CLR 33/M04 A2994 RMK A01,M
BAM,2023-08-10 22:55,-116.8743,40.5990,1382.36,93.20,32.00,11.48,10.00,8.00,0.00,29.98,M,10.00,M,CLR,M,M,M,M,M,M,M,M,M,M,M,M,M,M,88.31,KBAM 102255Z AUTO 01008KT 310V020 10SM CLR 34/00 A2998 RMK AO1,M
TMT,2023-08-10 22:55,-117.1971,39.4643,1749.34,87.60,31.30,13.30,280.00,4.00,0.00,30.05,M,M,M,CLR,M,M,M,M,M,M,M,M,M,M,M,M,M,M,83.91,KTMT 102255Z AUTO 28004KT CLR 31/00 A3005 RMK AO2 T03091004 PWINO,M
INS,2023-08-10 22:55,-115.6733,36.5872,955.00,89.80,52.30,27.90,20.00,7.00,0.00,29.92,1008.00,10.00,M,SCT,M,M,M,10000.00,M,M,M,M,M,M,M,M,M,M,87.28,KINS 102255Z AUTO 02007KT 10SM SCT100 32/11 A2992 RMK AO2 SLP080 T03210113 $,M
LSV,2023-08-10 22:55,-115.0343,36.2362,570.00,93.60,60.00,32.75,20.00,20.00,0.00,29.83,1007.40,10.00,M,CLR,M,M,M,M,M,M,M,M,M,M,M,26.00,10.00,2023-08-10 22:15,93.40,KLSV 102255Z AUTO 02020KT 10SM CLR 34/16 A2983 RMK AO2 PK WND 01026/15 SLP074 T03420156 $,M
EKO,2023-08-10 22:56,-115.7860,40.8242,1367.00,91.00,31.00,11.80,250.00,8.00,0.00,30.00,1010.00,10.00,19.00,CLR,M,M,M,M,M,M,M,M,M,M,M,M,M,M,86.49,KEKO 102256Z AUTO 25008G19KT 10SM CLR 33/M01 A3000 RMK AO2 SLP100 T03281006,M
WMC,2023-08-10 22:56,-117.8072,40.9019,1315.00,93.00,27.00,9.42,210.00,10.00,0.00,29.97,1009.80,10.00,19.00,CLR,M,M,M,M,M,M,M,M,M,M,M,M,M,M,87.60,KWMC 102256Z AUTO 21010G19KT 10SM CLR 34/M03 A2997 RMK AO2 SLP098 T03391028,M
NFL,2023-08-10 22:56,-118.7010,39.4166,1199.00,92.00,30.00,10.99,M,3.00,0.00,29.94,1011.30,10.00,M,FEW,FEW,FEW,M,7000.00,10000.00,20000.00,M,M,M,M,M,M,M,M,87.15,KNFL 102256Z VRB03KT 10SM FEW070 FEW100 FEW200 33/M01 A2994 RMK AO2 SLP113 T03331011,M
HND,2023-08-10 22:56,-115.1344,35.9729,742.79,93.00,60.00,33.36,20.00,11.00,0.00,29.91,1011.10,10.00,21.00,CLR,M,M,M,M,M,M,M,M,M,M,M,M,M,M,92.76,KHND 102256Z 02011G21KT 10SM CLR 34/16 A2991 RMK AO2 SLP111 T03390156,M
TPH,2023-08-10 22:56,-117.0904,38.0505,1654.00,84.00,44.00,24.58,M,3.00,0.00,30.07,1010.60,10.00,17.00,FEW,M,M,M,8500.00,M,M,M,M,M,M,M,M,M,M,81.54,KTPH 102256Z AUTO VRB03G17KT 10SM FEW085 29/07 A3007 RMK AO2 LTG DSNT E SLP106 T02890067,M
LAS,2023-08-10 22:56,-115.1634,36.0719,663.00,92.00,59.00,33.21,10.00,15.00,0.00,29.88,1008.70,10.00,21.00,SCT,SCT,BKN,M,10000.00,14000.00,20000.00,M,M,M,M,M,M,M,M,91.30,KLAS 102256Z 01015G21KT 10SM SCT100 SCT140 BKN200 33/15 A2988 RMK AO2 SLP087 CB DSNT N AND E T03330150,M
BVU,2023-08-10 23:15,-114.8611,35.9475,671.00,91.40,57.20,31.72,30.00,16.00,0.00,29.85,M,10.00,M,BKN,M,M,M,9500.00,M,M,M,M,M,M,M,M,M,M,90.06,KBVU 102315Z AUTO 03016KT 10SM BKN095 33/14 A2985 RMK AO2,M
CXP,2023-08-10 23:15,-119.7326,39.1923,1431.00,87.80,33.80,14.61,300.00,12.00,0.00,30.02,M,10.00,M,CLR,M,M,M,M,M,M,M,M,M,M,M,M,M,M,84.10,KCXP 102315Z AUTO 30012KT 10SM CLR 31/01 A3002 RMK AO2,M
RTS,2023-08-10 23:15,-119.8764,39.6682,1539.00,84.20,28.40,13.18,300.00,10.00,0.00,30.05,M,10.00,19.00,CLR,M,M,M,M,M,M,M,M,M,M,M,M,M,M,81.25,KRTS 102315Z AUTO 30010G19KT 280V350 10SM CLR 29/M02 A3005 RMK AO2,M
05U,2023-08-10 23:15,-116.0051,39.6042,1811.23,91.40,30.20,11.28,M,M,0.00,30.07,M,10.00,M,M,M,M,M,M,M,M,M,M,M,M,M,M,M,M,86.71,K05U 102315Z AUTO 10SM 33/M01 A3007 RMK A01,M
MEV,2023-08-10 23:15,-119.7500,38.9963,1441.42,87.80,37.40,16.86,270.00,10.00,0.00,30.01,M,10.00,16.00,CLR,M,M,M,M,M,M,M,M,M,M,M,M,M,M,84.16,KMEV 102315Z AUTO 27010G16KT 10SM CLR 31/03 A3001 RMK AO2,M
BAM,2023-08-10 23:15,-116.8743,40.5990,1382.36,93.20,32.00,11.48,340.00,9.00,0.00,29.97,M,10.00,M,CLR,M,M,M,M,M,M,M,M,M,M,M,M,M,M,88.31,KBAM 102315Z AUTO 34009KT 10SM CLR 34/00 A2997 RMK AO1,M
HTH,2023-08-10 23:15,-118.6315,38.5448,1282.89,91.40,24.80,9.04,310.00,8.00,0.00,29.93,M,10.00,M,CLR,M,M,M,M,M,M,M,M,M,M,M,M,M,M,86.21,KHTH 102315Z AUTO 31008KT 10SM CLR 33/M04 A2993 RMK A01,M
TMT,2023-08-10 23:15,-117.1971,39.4643,1749.34,88.00,31.50,13.24,310.00,6.00,0.00,30.05,M,M,M,CLR,M,M,M,M,M,M,M,M,M,M,M,M,M,M,84.24,KTMT 102315Z AUTO 31006KT CLR 31/00 A3005 RMK AO2 T03121003 PWINO,M
05U,2023-08-10 23:30,-116.0051,39.6042,1811.23,86.00,32.00,14.40,M,M,0.00,30.07,M,10.00,M,M,M,M,M,M,M,M,M,M,M,M,M,M,M,M,82.64,K05U 102330Z AUTO 10SM 30/M00 A3007 RMK A01,M
BVU,2023-08-10 23:35,-114.8611,35.9475,671.00,91.40,57.20,31.72,20.00,15.00,0.00,29.84,M,10.00,M,BKN,M,M,M,9500.00,M,M,M,M,M,M,M,M,M,M,90.06,KBVU 102335Z AUTO 02015KT 10SM BKN095 33/14 A2984 RMK AO2,M
CXP,2023-08-10 23:35,-119.7326,39.1923,1431.00,87.80,33.80,14.61,290.00,11.00,0.00,30.01,M,10.00,M,CLR,M,M,M,M,M,M,M,M,M,M,M,M,M,M,84.10,KCXP 102335Z AUTO 29011KT 10SM CLR 31/01 A3001 RMK AO2,M
RTS,2023-08-10 23:35,-119.8764,39.6682,1539.00,86.00,30.20,13.38,290.00,11.00,0.00,30.04,M,10.00,M,CLR,M,M,M,M,M,M,M,M,M,M,M,M,M,M,82.64,KRTS 102335Z AUTO 29011KT 10SM CLR 30/M01 A3004 RMK AO2,M
MEV,2023-08-10 23:35,-119.7500,38.9963,1441.42,86.00,39.20,19.15,270.00,11.00,0.00,30.01,M,10.00,20.00,CLR,M,M,M,M,M,M,M,M,M,M,M,M,M,M,82.79,KMEV 102335Z AUTO 27011G20KT 10SM CLR 30/04 A3001 RMK AO2,M
BAM,2023-08-10 23:35,-116.8743,40.5990,1382.36,91.40,33.80,13.05,350.00,10.00,0.00,29.97,M,10.00,M,CLR,M,M,M,M,M,M,M,M,M,M,M,M,M,M,87.13,KBAM 102335Z AUTO 35010KT 10SM CLR 33/01 A2997 RMK AO1,M
HTH,2023-08-10 23:35,-118.6315,38.5448,1282.89,91.40,24.80,9.04,320.00,11.00,0.00,29.93,M,10.00,M,CLR,M,M,M,M,M,M,M,M,M,M,M,M,M,M,86.21,KHTH 102335Z AUTO 32011KT 10SM CLR 33/M04 A2993 RMK A01,M
TMT,2023-08-10 23:35,-117.1971,39.4643,1749.34,87.30,31.00,13.26,300.00,4.00,0.00,30.04,M,M,M,CLR,M,M,M,M,M,M,M,M,M,M,M,M,M,M,83.67,KTMT 102335Z AUTO 30004KT CLR 31/00 A3004 RMK AO2 T03071005 PWINO,M
05U,2023-08-10 23:50,-116.0051,39.6042,1811.23,86.00,30.20,13.38,M,M,0.00,30.07,M,10.00,M,M,M,M,M,M,M,M,M,M,M,M,M,M,M,M,82.64,K05U 102350Z AUTO 10SM 30/M01 A3007 RMK A01,M
P68,2023-08-10 23:53,-116.0056,39.6014,1993.00,85.00,30.00,13.71,0.00,0.00,0.00,30.04,1009.30,M,M,M,M,M,M,M,M,M,M,M,M,M,M,M,M,M,81.86,KP68 102353Z AUTO 00000KT 29/M01 A3004 RMK AO1 SLP093 T02941011 10317 20267 56009,M
DRA,2023-08-10 23:53,-116.0278,36.6206,1009.00,92.00,52.00,25.76,M,5.00,0.00,29.91,1007.40,10.00,15.00,SCT,M,M,M,9000.00,M,M,M,M,M,M,M,M,M,M,89.31,KDRA 102353Z AUTO VRB05G15KT 10SM SCT090 33/11 A2991 RMK AO2 SLP074 T03330111 10344 20267 56023,M
ELY,2023-08-10 23:53,-114.8453,39.2950,1909.00,75.00,46.00,35.64,150.00,20.00,0.00,30.13,1011.20,10.00,28.00,CLR,M,M,M,M,M,M,M,M,M,M,M,30.00,170.00,2023-08-10 23:30,75.00,KELY 102353Z AUTO 15020G28KT 10SM CLR 24/08 A3013 RMK AO2 PK WND 17030/2330 LTG DSNT SE AND S SLP112 T02390078 10294 20233 50002,M
VGT,2023-08-10 23:53,-115.1933,36.2111,667.00,94.00,59.00,31.21,60.00,12.00,0.00,29.85,1009.60,10.00,19.00,CLR,M,M,M,M,M,M,M,M,M,M,M,M,M,M,93.42,KVGT 102353Z 06012G19KT 10SM CLR 34/15 A2985 RMK AO2 SLP096 T03440150 10350 20300 56020,M
LOL,2023-08-10 23:53,-118.5701,40.0684,1192.43,91.00,28.00,10.44,M,3.00,0.00,29.92,1009.20,10.00,M,CLR,M,M,M,M,M,M,M,M,M,M,M,M,M,M,86.19,KLOL 102353Z AUTO VRB03KT 10SM CLR 33/M02 A2992 RMK AO2 SLP092 T03281022 10333 20272 56016,M
BVU,2023-08-10 23:55,-114.8611,35.9475,671.00,93.20,57.20,29.99,30.00,13.00,0.00,29.84,M,10.00,18.00,BKN,M,M,M,9500.00,M,M,M,M,M,M,M,M,M,M,91.91,KBVU 102355Z AUTO 03013G18KT 10SM BKN095 34/14 A2984 RMK AO2,M
CXP,2023-08-10 23:55,-119.7326,39.1923,1431.00,87.80,35.60,15.70,280.00,10.00,0.00,30.01,M,10.00,16.00,CLR,M,M,M,M,M,M,M,M,M,M,M,M,M,M,84.12,KCXP 102355Z AUTO 28010G16KT 10SM CLR 31/02 A3001 RMK AO2,M
RNO,2023-08-10 23:55,-119.7711,39.4839,1341.00,92.00,32.00,11.91,310.00,8.00,0.00,29.97,1009.10,10.00,M,FEW,FEW,M,M,12000.00,25000.00,M,M,M,M,M,M,29.00,290.00,2023-08-10 22:58,87.38,KRNO 102355Z 31008KT 10SM FEW120 FEW250 33/00 A2997 RMK AO2 PK WND 29029/2258 SLP091 T03330000 10344 20261 56016,M
RTS,2023-08-10 23:55,-119.8764,39.6682,1539.00,86.00,30.20,13.38,300.00,13.00,0.00,30.04,M,10.00,M,CLR,M,M,M,M,M,M,M,M,M,M,M,M,M,M,82.64,KRTS 102355Z AUTO 30013KT 10SM CLR 30/M01 A3004 RMK AO2,M
MEV,2023-08-10 23:55,-119.7500,38.9963,1441.42,86.00,41.00,20.54,280.00,13.00,0.00,30.00,M,10.00,M,CLR,M,M,M,M,M,M,M,M,M,M,M,M,M,M,82.86,KMEV 102355Z AUTO 28013KT 10SM CLR 30/05 A3000 RMK AO2,M
BAM,2023-08-10 23:55,-116.8743,40.5990,1382.36,91.40,32.00,12.14,360.00,8.00,0.00,29.96,M,10.00,M,CLR,M,M,M,M,M,M,M,M,M,M,M,M,M,M,86.91,KBAM 102355Z AUTO 36008KT 10SM CLR 33/00 A2996 RMK AO1,M
HTH,2023-08-10 23:55,-118.6315,38.5448,1282.89,93.20,24.80,8.54,330.00,11.00,0.00,29.92,M,10.00,M,CLR,M,M,M,M,M,M,M,M,M,M,M,M,M,M,87.56,KHTH 102355Z AUTO 33011KT 10SM CLR 34/M04 A2992 RMK A01,M
TMT,2023-08-10 23:55,-117.1971,39.4643,1749.34,85.50,30.70,13.88,0.00,0.00,0.00,30.03,M,M,M,CLR,M,M,M,M,M,M,M,M,M,M,M,M,M,M,82.25,KTMT 102355Z AUTO 00000KT CLR 30/M01 A3003 RMK AO2 T02971007 10314 20261 PWINO,M
INS,2023-08-10 23:55,-115.6733,36.5872,955.00,90.00,51.60,27.02,80.00,8.00,0.00,29.91,1007.70,10.00,M,FEW,M,M,M,9500.00,M,M,M,M,M,M,M,M,M,M,87.33,KINS 102355Z AUTO 08008KT 10SM FEW095 32/11 A2991 RMK AO2 SLP077 T03230109 10327 20240 57024 $,M
LSV,2023-08-10 23:55,-115.0343,36.2362,570.00,93.00,59.00,32.19,20.00,17.00,0.00,29.81,1006.70,10.00,M,CLR,M,M,M,M,M,M,M,M,M,M,M,26.00,20.00,2023-08-10 23:06,92.35,KLSV 102355Z AUTO 02017KT 10SM CLR 34/15 A2981 RMK AO2 PK WND 02026/06 SLP067 T03390149 10344 20312 57022 $,M
EKO,2023-08-10 23:56,-115.7860,40.8242,1367.00,91.00,29.00,10.88,M,6.00,0.00,29.99,1009.80,10.00,M,CLR,M,M,M,M,M,M,M,M,M,M,M,M,M,M,86.28,KEKO 102356Z AUTO VRB06KT 10SM CLR 33/M02 A2999 RMK AO2 SLP098 T03281017 10333 20278 56012,M
WMC,2023-08-10 23:56,-117.8072,40.9019,1315.00,94.00,25.00,8.40,250.00,10.00,0.00,29.95,1009.30,10.00,21.00,CLR,M,M,M,M,M,M,M,M,M,M,M,M,M,M,88.18,KWMC 102356Z AUTO 25010G21KT 10SM CLR 34/M04 A2995 RMK AO2 SLP093 T03441039 10344 20283 56015,M
NFL,2023-08-10 23:56,-118.7010,39.4166,1199.00,93.00,31.00,11.09,0.00,0.00,0.00,29.92,1010.70,10.00,M,FEW,FEW,FEW,M,7000.00,10000.00,20000.00,M,M,M,M,M,M,M,M,88.03,KNFL 102356Z 00000KT 10SM FEW070 FEW100 FEW200 34/M01 A2992 RMK AO2 SLP107 T03391006 10344 20272 58017,M
HND,2023-08-10 23:56,-115.1344,35.9729,742.79,92.00,59.00,33.21,10.00,10.00,0.00,29.89,1010.60,10.00,M,CLR,M,M,M,M,M,M,M,M,M,M,M,M,M,M,91.30,KHND 102356Z 01010KT 10SM CLR 33/15 A2989 RMK AO2 SLP106 T03330150 10350 20289 56018,M
TPH,2023-08-10 23:56,-117.0904,38.0505,1654.00,85.00,46.00,25.69,170.00,7.00,0.00,30.05,1010.10,10.00,15.00,FEW,M,M,M,10000.00,M,M,M,M,M,M,M,M,M,M,82.42,KTPH 102356Z AUTO 17007G15KT 120V190 10SM FEW100 29/08 A3005 RMK AO2 LTG DSNT NE AND E SLP101 T02940078 10300 20261 58010,M
LAS,2023-08-10 23:56,-115.1634,36.0719,663.00,94.00,58.00,30.11,50.00,11.00,0.00,29.86,1008.00,10.00,M,FEW,FEW,SCT,M,10000.00,14000.00,22000.00,M,M,M,M,M,M,M,M,93.04,KLAS 102356Z 05011KT 10SM FEW100 FEW140 SCT220 34/14 A2986 RMK AO2 SLP080 CB DSNT N AND E T03440144 10344 20294 56022,M
