station,valid,lon,lat,elevation,tmpf,dwpf,relh,drct,sknt,p01i,alti,mslp,vsby,gust,skyc1,skyc2,skyc3,skyc4,skyl1,skyl2,skyl3,skyl4,wxcodes,ice_accretion_1hr,ice_accretion_3hr,ice_accretion_6hr,peak_wind_gust,peak_wind_drct,peak_wind_time,feel,metar,snowdepth
HND,2023-03-22 00:03,-115.1344,35.9729,742.79,55.40,42.80,62.46,220.00,17.00,T,29.61,M,10.00,M,FEW,BKN,M,M,4700.00,6000.00,M,M,-RA,M,M,M,M,M,M,55.40,KHND 220003Z 22017KT 10SM -RA FEW047 BKN060 13/06 A2961 RMK AO2 WSHFT 2343 P0000,M
TPH,2023-03-22 00:05,-117.0904,38.0505,1654.00,38.00,35.00,89.53,180.00,17.00,0.00,29.50,M,10.00,25.00,FEW,BKN,OVC,M,1800.00,4700.00,6500.00,M,M,M,M,M,M,M,M,27.80,KTPH 220005Z AUTO 18017G25KT 10SM FEW018 BKN047 OVC065 03/02 A2950 RMK AO2 T00330017,M
LSV,2023-03-22 00:07,-115.0343,36.2362,570.00,57.20,46.40,67.12,190.00,17.00,0.00,29.58,1001.00,10.00,26.00,BKN,M,M,M,5500.00,M,M,M,M,M,M,M,M,M,M,57.20,KLSV 220007Z 19017G26KT 10SM BKN055 14/08 A2958 RMK SLP010 $,M
WMC,2023-03-22 00:09,-117.8072,40.9019,1315.00,38.00,28.90,69.73,M,3.00,T,29.52,M,8.00,M,OVC,M,M,M,2700.00,M,M,M,-SN,M,M,M,M,M,M,35.43,KWMC 220009Z AUTO VRB03KT 8SM -SN OVC027 03/M02 A2952 RMK AO2 SNB04 P0000 T00331017,M
RNO,2023-03-22 00:10,-119.7711,39.4839,1341.00,38.00,32.00,79.08,70.00,5.00,0.00,29.49,M,10.00,M,FEW,BKN,OVC,M,1700.00,3600.00,6000.00,M,M,M,M,M,M,M,M,33.40,KRNO 220010Z 07005KT 10SM FEW017 BKN036 OVC060 03/00 A2949 RMK AO2 T00330000 $,M
BVU,2023-03-22 00:15,-114.8611,35.9475,671.00,57.20,44.60,62.69,170.00,20.00,0.00,29.61,M,10.00,34.00,CLR,M,M,M,M,M,M,M,M,M,M,M,M,M,M,57.20,KBVU 220015Z AUTO 17020G34KT 10SM CLR 14/07 A2961 RMK AO2,M
CXP,2023-03-22 00:15,-119.7326,39.1923,1431.00,35.60,32.00,86.59,70.00,8.00,0.00,29.49,M,10.00,M,CLR,M,M,M,M,M,M,M,M,M,M,M,M,M,M,28.55,KCXP 220015Z AUTO 07008KT 10SM CLR 02/M00 A2949 RMK AO2,M
RTS,2023-03-22 00:15,-119.8764,39.6682,1539.00,35.60,30.20,80.51,140.00,8.00,0.00,29.49,M,10.00,M,BKN,M,M,M,1300.00,M,M,M,-SN,M,M,M,M,M,M,28.55,KRTS 220015Z AUTO 14008KT 10SM -SN BKN013 02/M01 A2949 RMK AO2,M
05U,2023-03-22 00:15,-116.0051,39.6042,1811.23,35.60,32.00,86.59,0.00,0.00,0.00,29.52,M,10.00,M,FEW,FEW,FEW,M,1300.00,2100.00,3300.00,M,M,M,M,M,M,M,M,35.60,K05U 220015Z AUTO 00000KT 10SM FEW013 FEW021 FEW033 02/00 A2952 RMK A01,M
MEV,2023-03-22 00:15,-119.7500,38.9963,1441.42,35.60,30.20,80.51,0.00,0.00,0.00,29.48,M,10.00,M,FEW,M,M,M,1600.00,M,M,M,M,M,M,M,M,M,M,35.60,KMEV 220015Z AUTO 00000KT 10SM FEW016 02/M01 A2948 RMK AO2,M
BAM,2023-03-22 00:15,-116.8743,40.5990,1382.36,33.80,33.80,100.00,60.00,9.00,0.00,29.56,M,2.50,M,BKN,OVC,M,M,400.00,1400.00,M,M,M,M,M,M,M,M,M,25.75,KBAM 220015Z AUTO 06009KT 2 1/2SM BKN004 OVC014 01/01 A2956 RMK AO1 VIS 2V5,M
HTH,2023-03-22 00:15,-118.6315,38.5448,1282.89,42.80,35.60,75.50,330.00,14.00,0.00,29.46,M,10.00,M,CLR,M,M,M,M,M,M,M,M,M,M,M,M,M,M,35.08,KHTH 220015Z AUTO 33014KT 10SM CLR 06/02 A2946 RMK A01,M
TMT,2023-03-22 00:15,-117.1971,39.4643,1749.34,36.50,32.20,84.24,210.00,8.00,0.00,29.48,M,10.00,M,SCT,BKN,OVC,M,2000.00,3000.00,3900.00,M,M,M,M,M,M,M,M,29.66,KTMT 220015Z AUTO 21008KT 10SM SCT020 BKN030 OVC039 03/00 A2948 RMK AO2 T00250001,M
ELY,2023-03-22 00:21,-114.8453,39.2950,1909.00,33.00,28.90,84.36,130.00,5.00,T,29.54,M,1.75,M,FEW,BKN,OVC,M,1300.00,2900.00,4900.00,M,-SN BR,M,M,M,M,M,M,27.70,KELY 220021Z AUTO 13005KT 1 3/4SM -SN BR FEW013 BKN029 OVC049 01/M02 A2954 RMK AO2 SNB14 P0000 T00061017,M
LAS,2023-03-22 00:24,-115.1634,36.0719,663.00,57.00,42.00,57.38,200.00,6.00,T,29.60,M,10.00,M,FEW,BKN,BKN,M,3100.00,5000.00,9000.00,M,M,M,M,M,M,M,M,57.00,KLAS 220024Z 20006KT 10SM FEW031 BKN050 BKN090 14/06 A2960 RMK AO2 RAE01 P0000 T01390056,M
ELY,2023-03-22 00:32,-114.8453,39.2950,1909.00,33.00,30.00,88.23,150.00,6.00,T,29.54,M,0.75,M,BKN,OVC,M,M,1700.00,2600.00,M,M,-SN BR,M,M,M,M,M,M,26.86,KELY 220032Z AUTO 15006KT 3/4SM -SN BR BKN017 OVC026 01/M01 A2954 RMK AO2 SNB14 P0000 T00061011,M
BVU,2023-03-22 00:35,-114.8611,35.9475,671.00,55.40,44.60,66.91,160.00,21.00,0.00,29.62,M,10.00,27.00,CLR,M,M,M,M,M,M,M,M,M,M,M,M,M,M,55.40,KBVU 220035Z AUTO 16021G27KT 10SM CLR 13/07 A2962 RMK AO2,M
CXP,2023-03-22 00:35,-119.7326,39.1923,1431.00,37.40,32.00,80.65,90.00,7.00,0.00,29.49,M,10.00,M,FEW,M,M,M,1400.00,M,M,M,M,M,M,M,M,M,M,31.36,KCXP 220035Z AUTO 09007KT 10SM FEW014 03/M00 A2949 RMK AO2,M
RTS,2023-03-22 00:35,-119.8764,39.6682,1539.00,35.60,30.20,80.51,110.00,5.00,0.00,29.48,M,10.00,M,BKN,OVC,M,M,1400.00,2000.00,M,M,M,M,M,M,M,M,M,30.67,KRTS 220035Z AUTO 11005KT 10SM BKN014 OVC020 02/M01 A2948 RMK AO2,M
05U,2023-03-22 00:35,-116.0051,39.6042,1811.23,37.40,32.00,80.65,160.00,6.00,0.00,29.51,M,10.00,M,FEW,FEW,FEW,M,3700.00,4900.00,6000.00,M,M,M,M,M,M,M,M,32.03,K05U 220035Z AUTO 16006KT 10SM FEW037 FEW049 FEW060 03/M00 A2951 RMK A01,M
MEV,2023-03-22 00:35,-119.7500,38.9963,1441.42,35.60,30.20,80.51,0.00,0.00,0.00,29.48,M,10.00,M,SCT,SCT,M,M,1900.00,2300.00,M,M,M,M,M,M,M,M,M,35.60,KMEV 220035Z AUTO 00000KT 10SM SCT019 SCT023 02/M01 A2948 RMK AO2,M
HTH,2023-03-22 00:35,-118.6315,38.5448,1282.89,41.00,33.80,75.33,350.00,15.00,0.00,29.47,M,10.00,M,CLR,M,M,M,M,M,M,M,M,M,M,M,M,M,M,32.45,KHTH 220035Z AUTO 35015KT 10SM CLR 05/01 A2947 RMK A01,M
BAM,2023-03-22 00:35,-116.8743,40.5990,1382.36,33.80,33.80,100.00,60.00,13.00,0.00,29.55,M,4.00,17.00,BKN,OVC,M,M,400.00,1600.00,M,M,M,M,M,M,M,M,M,23.87,KBAM 220035Z AUTO 06013G17KT 4SM BKN004 OVC016 01/01 A2955 RMK AO1,M
TMT,2023-03-22 00:35,-117.1971,39.4643,1749.34,32.40,30.70,93.36,250.00,21.00,0.00,29.49,M,1.25,28.00,SCT,BKN,OVC,M,900.00,1400.00,2800.00,M,-SN,M,M,M,M,M,M,19.39,KTMT 220035Z AUTO 25021G28KT 1 1/4SM -SN SCT009 BKN014 OVC028 00/M01 A2949 RMK AO2 T00021007,M
TPH,2023-03-22 00:42,-117.0904,38.0505,1654.00,38.00,35.00,89.53,190.00,15.00,T,29.50,M,10.00,23.00,SCT,BKN,OVC,M,2000.00,2500.00,3500.00,M,M,M,M,M,27.00,180.00,2023-03-22 00:07,28.43,KTPH 220042Z AUTO 19015G23KT 10SM SCT020 BKN025 OVC035 03/02 A2950 RMK AO2 PK WND 18027/0007 RAB25E36 P0000 T00330017,M
NFL,2023-03-22 00:46,-118.7010,39.4166,1199.00,35.00,34.00,95.71,210.00,5.00,0.00,29.49,M,10.00,M,FEW,BKN,BKN,M,700.00,1800.00,3000.00,M,M,M,M,M,M,M,M,30.08,KNFL 220046Z 21005KT 10SM FEW007 BKN018 BKN030 02/01 A2949 RMK AO2 T00170011,M
ELY,2023-03-22 00:49,-114.8453,39.2950,1909.00,32.00,30.20,92.97,0.00,0.00,0.01,29.54,M,1.50,M,FEW,OVC,M,M,800.00,1700.00,M,M,-SN BR,M,M,M,M,M,M,32.00,KELY 220049Z AUTO 00000KT 1 1/2SM -SN BR FEW008 OVC017 00/M01 A2954 RMK AO2 SNB14 P0001,M
P68,2023-03-22 00:53,-116.0056,39.6014,1993.00,36.00,30.90,81.53,160.00,9.00,0.00,29.50,998.50,M,M,M,M,M,M,M,M,M,M,M,M,M,M,M,M,M,28.49,KP68 220053Z AUTO 16009KT 02/M01 A2950 RMK AO1 SLP985 T00221006,M
ELY,2023-03-22 00:53,-114.8453,39.2950,1909.00,32.00,30.90,95.65,350.00,5.00,0.01,29.54,1001.50,1.75,M,SCT,OVC,M,M,600.00,1500.00,M,M,-SN BR,M,M,M,M,M,M,26.40,KELY 220053Z AUTO 35005KT 1 3/4SM -SN BR SCT006 OVC015 00/M01 A2954 RMK AO2 SNB14 SLP015 P0001 T00001006,M
VGT,2023-03-22 00:53,-115.1933,36.2111,667.00,59.00,36.00,42.08,200.00,16.00,0.01,29.57,1002.30,10.00,24.00,CLR,M,M,M,M,M,M,M,M,M,M,M,35.00,210.00,2023-03-21 23:57,59.00,KVGT 220053Z 20016G24KT 10SM CLR 15/02 A2957 RMK AO2 PK WND 21035/2357 SLP023 P0001 T01500022,M
LOL,2023-03-22 00:53,-118.5701,40.0684,1192.43,39.00,33.00,79.17,210.00,9.00,T,29.52,1000.40,6.00,M,SCT,BKN,OVC,M,2200.00,2600.00,3400.00,M,-RA,M,M,M,M,M,M,32.22,KLOL 220053Z AUTO 21009KT 6SM -RA SCT022 BKN026 OVC034 04/01 A2952 RMK AO2 RAB34 SLP004 P0000 T00390006,M
DRA,2023-03-22 00:53,-116.0278,36.6206,1009.00,51.00,35.00,54.13,190.00,19.00,0.00,29.57,999.50,10.00,28.00,BKN,BKN,M,M,5500.00,7500.00,M,M,M,M,M,M,31.00,190.00,2023-03-22 00:43,51.10,KDRA 220053Z AUTO 19019G28KT 10SM BKN055 BKN075 11/02 A2957 RMK AO2 PK WND 19031/0043 SLP995 T01060017,M
BVU,2023-03-22 00:55,-114.8611,35.9475,671.00,55.40,46.40,71.64,150.00,21.00,0.00,29.62,M,10.00,M,FEW,M,M,M,10000.00,M,M,M,M,M,M,M,M,M,M,55.40,KBVU 220055Z AUTO 15021KT 10SM FEW100 13/08 A2962 RMK AO2,M
CXP,2023-03-22 00:55,-119.7326,39.1923,1431.00,37.40,32.00,80.65,100.00,7.00,0.00,29.49,M,10.00,M,BKN,BKN,M,M,1200.00,1800.00,M,M,M,M,M,M,M,M,M,31.36,KCXP 220055Z AUTO 10007KT 10SM BKN012 BKN018 03/M00 A2949 RMK AO2,M
INS,2023-03-22 00:55,-115.6733,36.5872,955.00,50.00,43.70,78.85,140.00,10.00,0.01,29.56,999.30,10.00,M,FEW,SCT,BKN,M,7000.00,8500.00,11000.00,M,M,M,M,M,M,M,M,50.00,KINS 220055Z AUTO 14010KT 10SM FEW070 SCT085 BKN110 10/07 A2956 RMK AO2 RAE01DZB01E13RAB13E34DZB34E47 SLP993 P0001 T01000065 $,M
RNO,2023-03-22 00:55,-119.7711,39.4839,1341.00,39.00,30.90,72.45,10.00,3.00,0.00,29.49,998.50,10.00,M,FEW,SCT,BKN,M,1600.00,3800.00,14000.00,M,M,M,M,M,M,M,M,36.69,KRNO 220055Z 01003KT 10SM FEW016 SCT038 BKN140 04/M01 A2949 RMK AO2 SLP985 T00391006 $,M
RTS,2023-03-22 00:55,-119.8764,39.6682,1539.00,35.60,28.40,74.80,0.00,0.00,0.00,29.49,M,10.00,M,OVC,M,M,M,1600.00,M,M,M,M,M,M,M,M,M,M,35.60,KRTS 220055Z AUTO 00000KT 10SM OVC016 02/M02 A2949 RMK AO2,M
05U,2023-03-22 00:55,-116.0051,39.6042,1811.23,37.40,32.00,80.65,170.00,8.00,0.00,29.52,M,2.50,M,FEW,SCT,SCT,M,200.00,3700.00,4600.00,M,HZ,M,M,M,M,M,M,30.76,K05U 220055Z AUTO 17008KT 2 1/2SM HZ FEW002 SCT037 SCT046 03/00 A2952 RMK A01,M
MEV,2023-03-22 00:55,-119.7500,38.9963,1441.42,35.60,30.20,80.51,210.00,4.00,0.00,29.49,M,10.00,M,FEW,SCT,M,M,1900.00,2500.00,M,M,M,M,M,M,M,M,M,31.62,KMEV 220055Z AUTO 21004KT 10SM FEW019 SCT025 02/M01 A2949 RMK AO2,M
BAM,2023-03-22 00:55,-116.8743,40.5990,1382.36,33.80,33.80,100.00,60.00,12.00,0.00,29.54,M,10.00,18.00,SCT,OVC,M,M,400.00,2000.00,M,M,M,M,M,M,M,M,M,24.29,KBAM 220055Z AUTO 06012G18KT 10SM SCT004 OVC020 01/01 A2954 RMK AO1,M
HTH,2023-03-22 00:55,-118.6315,38.5448,1282.89,41.00,33.80,75.33,330.00,15.00,0.00,29.47,M,10.00,M,FEW,FEW,M,M,1400.00,2000.00,M,M,M,M,M,M,M,M,M,32.45,KHTH 220055Z AUTO 33015KT 10SM FEW014 FEW020 05/01 A2947 RMK A01,M
TMT,2023-03-22 00:55,-117.1971,39.4643,1749.34,31.80,30.70,95.65,260.00,9.00,0.00,29.50,M,0.75,M,OVC,M,M,M,900.00,M,M,M,-SN,M,M,M,M,M,M,23.27,KTMT 220055Z AUTO 26009KT 3/4SM -SN OVC009 00/M01 A2950 RMK AO2 T10011007,M
LSV,2023-03-22 00:55,-115.0343,36.2362,570.00,58.00,44.60,61.13,170.00,12.00,0.00,29.56,1000.30,10.00,M,BKN,M,M,M,5000.00,M,M,M,M,M,M,M,26.00,180.00,2023-03-22 00:00,57.90,KLSV 220055Z 17012KT 10SM BKN050 14/07 A2956 RMK AO2A PK WND 18026/00 SLP003 T01440070 $,M
EKO,2023-03-22 00:56,-115.7860,40.8242,1367.00,38.00,28.00,67.20,50.00,10.00,0.00,29.53,1001.60,10.00,M,OVC,M,M,M,7000.00,M,M,M,M,M,M,M,M,M,M,30.37,KEKO 220056Z AUTO 05010KT 10SM OVC070 03/M02 A2953 RMK AO2 SLP016 T00331022,M
WMC,2023-03-22 00:56,-117.8072,40.9019,1315.00,36.00,30.00,78.60,40.00,13.00,T,29.52,1000.50,9.00,19.00,OVC,M,M,M,1900.00,M,M,M,-SN,M,M,M,M,M,M,26.69,KWMC 220056Z AUTO 04013G19KT 9SM -SN OVC019 02/M01 A2952 RMK AO2 SNB04 SLP005 P0000 T00221011,M
HND,2023-03-22 00:56,-115.1344,35.9729,742.79,59.00,30.00,33.08,200.00,23.00,T,29.58,1002.90,10.00,27.00,CLR,M,M,M,M,M,M,M,M,M,M,M,29.00,200.00,2023-03-22 00:43,59.00,KHND 220056Z 20023G27KT 10SM CLR 15/M01 A2958 RMK AO2 PK WND 20029/0043 WSHFT 2343 RAE09 SLP029 P0000 T01501011,M
TPH,2023-03-22 00:56,-117.0904,38.0505,1654.00,38.00,34.00,85.69,200.00,17.00,T,29.50,998.30,10.00,24.00,FEW,BKN,OVC,M,2000.00,2500.00,3400.00,M,M,M,M,M,27.00,180.00,2023-03-22 00:07,27.80,KTPH 220056Z AUTO 20017G24KT 10SM FEW020 BKN025 OVC034 03/01 A2950 RMK AO2 PK WND 18027/0007 RAB25E36 SLP983 P0000 T00330011,M
NFL,2023-03-22 00:56,-118.7010,39.4166,1199.00,35.00,33.00,92.32,200.00,3.00,0.00,29.49,997.60,10.00,M,SCT,BKN,M,M,2000.00,3000.00,M,M,M,M,M,M,M,M,M,32.23,KNFL 220056Z 20003KT 10SM SCT020 BKN030 02/01 A2949 RMK AO2 SLP976 T00170006,M
LAS,2023-03-22 00:56,-115.1634,36.0719,663.00,60.00,35.00,39.04,180.00,13.00,T,29.58,1001.00,10.00,22.00,FEW,FEW,SCT,M,3100.00,5000.00,7000.00,M,M,M,M,M,M,M,M,60.10,KLAS 220056Z 18013G22KT 10SM FEW031 FEW050 SCT070 16/02 A2958 RMK AO2 RAE01 SLP010 P0000 T01560017,M
ELY,2023-03-22 01:02,-114.8453,39.2950,1909.00,30.90,30.00,96.41,20.00,5.00,T,29.54,M,1.50,M,BKN,OVC,M,M,600.00,1500.00,M,M,-SN BR,M,M,M,M,M,M,25.09,KELY 220102Z AUTO 02005KT 1 1/2SM -SN BR BKN006 OVC015 M01/M01 A2954 RMK AO2 P0000 T10061011,M
NFL,2023-03-22 01:03,-118.7010,39.4166,1199.00,35.00,33.00,92.32,200.00,5.00,0.00,29.50,M,10.00,M,BKN,OVC,M,M,2000.00,3000.00,M,M,M,M,M,M,M,M,M,30.08,KNFL 220103Z 20005KT 10SM BKN020 OVC030 02/01 A2950 RMK AO2 T00170006,M
ELY,2023-03-22 01:05,-114.8453,39.2950,1909.00,30.90,28.90,92.18,40.00,7.00,T,29.54,M,0.75,M,BKN,OVC,M,M,600.00,1500.00,M,M,-SN BR,M,M,M,M,M,M,23.44,KELY 220105Z AUTO 04007KT 3/4SM -SN BR BKN006 OVC015 M01/M02 A2954 RMK AO2 P0000 T10061017,M
TPH,2023-03-22 01:06,-117.0904,38.0505,1654.00,39.00,33.00,79.17,190.00,14.00,0.00,29.50,M,10.00,24.00,SCT,BKN,OVC,M,2000.00,3900.00,10000.00,M,M,M,M,M,M,M,M,30.19,KTPH 220106Z AUTO 19014G24KT 10SM SCT020 BKN039 OVC100 04/01 A2950 RMK AO2 T00390006,M
LOL,2023-03-22 01:07,-118.5701,40.0684,1192.43,37.00,34.00,88.78,270.00,8.00,0.02,29.52,M,2.50,M,SCT,OVC,M,M,1200.00,2000.00,M,M,RA BR,M,M,M,M,M,M,30.27,KLOL 220107Z AUTO 27008KT 2 1/2SM RA BR SCT012 OVC020 03/01 A2952 RMK AO2 P0002 T00280011,M
BVU,2023-03-22 01:15,-114.8611,35.9475,671.00,55.40,46.40,71.64,140.00,18.00,0.00,29.61,M,10.00,26.00,FEW,M,M,M,10000.00,M,M,M,M,M,M,M,M,M,M,55.40,KBVU 220115Z AUTO 14018G26KT 10SM FEW100 13/08 A2961 RMK AO2,M
CXP,2023-03-22 01:15,-119.7326,39.1923,1431.00,35.60,32.00,86.59,110.00,8.00,0.00,29.51,M,10.00,M,SCT,SCT,SCT,M,1200.00,2000.00,2600.00,M,M,M,M,M,M,M,M,28.55,KCXP 220115Z AUTO 11008KT 10SM SCT012 SCT020 SCT026 02/M00 A2951 RMK AO2,M
RTS,2023-03-22 01:15,-119.8764,39.6682,1539.00,35.60,28.40,74.80,0.00,0.00,0.00,29.49,M,10.00,M,OVC,M,M,M,1700.00,M,M,M,M,M,M,M,M,M,M,35.60,KRTS 220115Z AUTO 00000KT 10SM OVC017 02/M02 A2949 RMK AO2,M
05U,2023-03-22 01:15,-116.0051,39.6042,1811.23,33.80,32.00,93.03,220.00,5.00,0.00,29.53,M,0.75,M,OVC,M,M,M,200.00,M,M,M,BR,M,M,M,M,M,M,28.53,K05U 220115Z AUTO 22005KT 3/4SM BR OVC002 01/00 A2953 RMK A01,M
MEV,2023-03-22 01:15,-119.7500,38.9963,1441.42,35.60,30.20,80.51,260.00,4.00,0.00,29.49,M,10.00,M,SCT,BKN,BKN,M,2200.00,4000.00,5000.00,M,M,M,M,M,M,M,M,31.62,KMEV 220115Z AUTO 26004KT 10SM SCT022 BKN040 BKN050 02/M01 A2949 RMK AO2,M
BAM,2023-03-22 01:15,-116.8743,40.5990,1382.36,33.80,32.00,93.03,60.00,14.00,0.00,29.53,M,10.00,M,SCT,BKN,OVC,M,400.00,4100.00,6500.00,M,M,M,M,M,M,M,M,23.48,KBAM 220115Z AUTO 06014KT 10SM SCT004 BKN041 OVC065 01/00 A2953 RMK AO1,M
HTH,2023-03-22 01:15,-118.6315,38.5448,1282.89,41.00,33.80,75.33,330.00,9.00,0.00,29.48,M,10.00,M,CLR,M,M,M,M,M,M,M,M,M,M,M,M,M,M,34.70,KHTH 220115Z AUTO 33009KT 10SM CLR 05/01 A2948 RMK A01,M
TMT,2023-03-22 01:15,-117.1971,39.4643,1749.34,31.80,30.00,92.97,250.00,6.00,0.00,29.51,M,1.00,M,BKN,OVC,M,M,900.00,1600.00,M,M,-SN,M,M,M,M,M,M,25.29,KTMT 220115Z AUTO 25006KT 1SM -SN BKN009 OVC016 00/M01 A2951 RMK AO2 T10011011,M
LOL,2023-03-22 01:27,-118.5701,40.0684,1192.43,35.00,33.00,92.32,360.00,10.00,0.05,29.48,M,5.00,M,FEW,SCT,OVC,M,700.00,1100.00,1700.00,M,-RA BR,M,M,M,M,M,M,26.86,KLOL 220127Z AUTO 36010KT 5SM -RA BR FEW007 SCT011 OVC017 02/01 A2948 RMK AO2 P0005 T00170006,M
ELY,2023-03-22 01:31,-114.8453,39.2950,1909.00,30.90,30.00,96.41,M,4.00,0.03,29.53,M,0.25,M,OVC,M,M,M,600.00,M,M,M,+SN FZFG,M,M,M,M,M,M,26.14,KELY 220131Z AUTO VRB04KT 1/4SM +SN FZFG OVC006 M01/M01 A2953 RMK AO2 P0003 T10061011,M
BVU,2023-03-22 01:35,-114.8611,35.9475,671.00,55.40,46.40,71.64,130.00,16.00,0.00,29.61,M,10.00,M,CLR,M,M,M,M,M,M,M,M,M,M,M,M,M,M,55.40,KBVU 220135Z AUTO 13016KT 10SM CLR 13/08 A2961 RMK AO2,M
CXP,2023-03-22 01:35,-119.7326,39.1923,1431.00,35.60,32.00,86.59,80.00,8.00,0.00,29.51,M,10.00,M,FEW,M,M,M,7000.00,M,M,M,M,M,M,M,M,M,M,28.55,KCXP 220135Z AUTO 08008KT 10SM FEW070 02/M00 A2951 RMK AO2,M
RTS,2023-03-22 01:35,-119.8764,39.6682,1539.00,35.60,30.20,80.51,100.00,4.00,0.00,29.50,M,10.00,M,OVC,M,M,M,1800.00,M,M,M,M,M,M,M,M,M,M,31.62,KRTS 220135Z AUTO 10004KT 10SM OVC018 02/M01 A2950 RMK AO2,M
05U,2023-03-22 01:35,-116.0051,39.6042,1811.23,33.80,32.00,93.03,M,6.00,0.00,29.53,M,0.25,M,OVC,M,M,M,200.00,M,M,M,FG,M,M,M,M,M,M,27.70,K05U 220135Z AUTO VRB06KT 1/4SM FG OVC002 01/00 A2953 RMK A01,M
MEV,2023-03-22 01:35,-119.7500,38.9963,1441.42,35.60,30.20,80.51,230.00,7.00,0.00,29.49,M,10.00,M,FEW,SCT,BKN,M,2100.00,4200.00,5500.00,M,M,M,M,M,M,M,M,29.17,KMEV 220135Z AUTO 23007KT 10SM FEW021 SCT042 BKN055 02/M01 A2949 RMK AO2,M
BAM,2023-03-22 01:35,-116.8743,40.5990,1382.36,33.80,33.80,100.00,60.00,11.00,0.00,29.53,M,10.00,18.00,SCT,SCT,OVC,M,600.00,3400.00,6500.00,M,M,M,M,M,M,M,M,24.74,KBAM 220135Z AUTO 06011G18KT 10SM SCT006 SCT034 OVC065 01/01 A2953 RMK AO1,M
HTH,2023-03-22 01:35,-118.6315,38.5448,1282.89,39.20,33.80,80.79,330.00,9.00,0.00,29.49,M,10.00,M,CLR,M,M,M,M,M,M,M,M,M,M,M,M,M,M,32.47,KHTH 220135Z AUTO 33009KT 10SM CLR 04/01 A2949 RMK A01,M
TMT,2023-03-22 01:35,-117.1971,39.4643,1749.34,32.00,29.10,88.90,0.00,0.00,0.00,29.51,M,10.00,M,SCT,BKN,OVC,M,1300.00,2900.00,4500.00,M,M,M,M,M,M,M,M,32.00,KTMT 220135Z AUTO 00000KT 10SM SCT013 BKN029 OVC045 00/M02 A2951 RMK AO2 T00001016,M
WMC,2023-03-22 01:36,-117.8072,40.9019,1315.00,36.00,30.00,78.60,50.00,12.00,T,29.51,M,10.00,21.00,OVC,M,M,M,3400.00,M,M,M,M,M,M,M,M,M,M,27.09,KWMC 220136Z AUTO 05012G21KT 10SM OVC034 02/M01 A2951 RMK AO2 SNE22 P0000 T00221011,M
TPH,2023-03-22 01:52,-117.0904,38.0505,1654.00,37.40,33.80,86.69,170.00,13.00,0.00,29.51,M,10.00,M,SCT,BKN,OVC,M,1900.00,2500.00,5000.00,M,M,M,M,M,M,M,M,28.49,KTPH 220152Z AUTO 17013KT 10SM SCT019 BKN025 OVC050 03/01 A2951 RMK AO2,M
P68,2023-03-22 01:53,-116.0056,39.6014,1993.00,32.00,32.00,100.00,230.00,7.00,0.08,29.51,999.40,M,M,M,M,M,M,M,M,M,M,M,M,M,M,M,M,M,24.78,KP68 220153Z AUTO 23007KT 00/00 A2951 RMK AO1 SLP994 P0008 T00000000,M
DRA,2023-03-22 01:53,-116.0278,36.6206,1009.00,49.00,36.00,60.88,180.00,13.00,0.00,29.57,999.60,10.00,21.00,FEW,SCT,BKN,M,4700.00,6500.00,8500.00,M,M,M,M,M,30.00,180.00,2023-03-22 00:56,43.22,KDRA 220153Z AUTO 18013G21KT 10SM FEW047 SCT065 BKN085 09/02 A2957 RMK AO2 PK WND 18030/0056 SLP996 T00940022,M
ELY,2023-03-22 01:53,-114.8453,39.2950,1909.00,30.90,30.00,96.41,60.00,6.00,0.07,29.53,1001.20,0.25,M,VV ,M,M,M,400.00,M,M,M,+SN FZFG,M,M,M,M,M,M,24.21,KELY 220153Z AUTO 06006KT 1/4SM +SN FZFG VV004 M01/M01 A2953 RMK AO2 SLP012 P0007 T10061011,M
LOL,2023-03-22 01:53,-118.5701,40.0684,1192.43,36.00,34.00,92.35,20.00,5.00,0.05,29.50,1000.30,10.00,M,FEW,BKN,OVC,M,1000.00,2100.00,10000.00,M,M,M,M,M,M,M,M,31.15,KLOL 220153Z AUTO 02005KT 10SM FEW010 BKN021 OVC100 02/01 A2950 RMK AO2 RAE46 SLP003 P0005 T00220011,M
VGT,2023-03-22 01:53,-115.1933,36.2111,667.00,58.00,32.00,37.31,200.00,14.00,0.00,29.58,1002.90,10.00,26.00,CLR,M,M,M,M,M,M,M,M,M,M,M,26.00,220.00,2023-03-22 01:06,57.90,KVGT 220153Z 20014G26KT 10SM CLR 14/00 A2958 RMK AO2 PK WND 22026/0106 SLP029 T01440000,M
BVU,2023-03-22 01:55,-114.8611,35.9475,671.00,53.60,48.20,81.87,160.00,6.00,0.00,29.62,M,10.00,12.00,BKN,BKN,BKN,M,2900.00,3600.00,4100.00,M,M,M,M,M,M,M,M,53.60,KBVU 220155Z AUTO 16006G12KT 10SM BKN029 BKN036 BKN041 12/09 A2962 RMK AO2,M
CXP,2023-03-22 01:55,-119.7326,39.1923,1431.00,35.60,30.20,80.51,50.00,5.00,0.00,29.51,M,10.00,M,SCT,SCT,BKN,M,3000.00,3600.00,5500.00,M,M,M,M,M,M,M,M,30.67,KCXP 220155Z AUTO 05005KT 10SM SCT030 SCT036 BKN055 02/M01 A2951 RMK AO2,M
INS,2023-03-22 01:55,-115.6733,36.5872,955.00,50.40,37.80,61.81,50.00,10.00,0.00,29.57,999.60,10.00,M,SCT,M,M,M,7500.00,M,M,M,M,M,M,M,M,M,M,50.40,KINS 220155Z AUTO 05010KT 10SM SCT075 10/03 A2957 RMK AO2 SLP996 T01020032 $,M
RNO,2023-03-22 01:55,-119.7711,39.4839,1341.00,39.00,30.00,69.85,0.00,0.00,0.00,29.50,999.00,10.00,M,BKN,BKN,M,M,3400.00,17000.00,M,M,M,M,M,M,M,M,M,39.00,KRNO 220155Z 00000KT 10SM BKN034 BKN170 04/M01 A2950 RMK AO2 SLP990 T00391011 $,M
RTS,2023-03-22 01:55,-119.8764,39.6682,1539.00,33.80,30.20,86.49,90.00,6.00,0.00,29.50,M,10.00,M,BKN,OVC,M,M,1900.00,2300.00,M,M,M,M,M,M,M,M,M,27.70,KRTS 220155Z AUTO 09006KT 10SM BKN019 OVC023 01/M01 A2950 RMK AO2,M
05U,2023-03-22 01:55,-116.0051,39.6042,1811.23,33.80,33.80,100.00,240.00,5.00,0.00,29.53,M,0.25,M,OVC,M,M,M,200.00,M,M,M,FG,M,M,M,M,M,M,28.53,K05U 220155Z AUTO 24005KT 1/4SM FG OVC002 01/01 A2953 RMK A01,M
MEV,2023-03-22 01:55,-119.7500,38.9963,1441.42,33.80,32.00,93.03,240.00,7.00,0.00,29.49,M,10.00,M,FEW,SCT,BKN,M,3500.00,4200.00,5500.00,M,M,M,M,M,M,M,M,26.97,KMEV 220155Z AUTO 24007KT 10SM FEW035 SCT042 BKN055 01/M00 A2949 RMK AO2,M
BAM,2023-03-22 01:55,-116.8743,40.5990,1382.36,33.80,33.80,100.00,50.00,12.00,0.00,29.53,M,10.00,17.00,SCT,SCT,OVC,M,600.00,4000.00,5000.00,M,M,M,M,M,M,M,M,24.29,KBAM 220155Z AUTO 05012G17KT 10SM SCT006 SCT040 OVC050 01/01 A2953 RMK AO1,M
HTH,2023-03-22 01:55,-118.6315,38.5448,1282.89,39.20,33.80,80.79,330.00,7.00,0.00,29.48,M,10.00,M,CLR,M,M,M,M,M,M,M,M,M,M,M,M,M,M,33.56,KHTH 220155Z AUTO 33007KT 10SM CLR 04/01 A2948 RMK A01,M
TMT,2023-03-22 01:55,-117.1971,39.4643,1749.34,31.10,30.20,96.42,130.00,5.00,0.00,29.51,M,5.00,M,SCT,BKN,OVC,M,2700.00,3300.00,7500.00,M,-SN,M,M,M,M,M,M,25.33,KTMT 220155Z AUTO 13005KT 5SM -SN SCT027 BKN033 OVC075 00/M01 A2951 RMK AO2 T10051010,M
LSV,2023-03-22 01:55,-115.0343,36.2362,570.00,58.00,43.20,57.95,190.00,10.00,0.00,29.57,1000.70,10.00,M,SCT,M,M,M,8000.00,M,M,M,M,M,M,M,M,M,M,57.90,KLSV 220155Z 19010KT 10SM SCT080 14/06 A2957 RMK AO2A SLP007 T01440062 $,M
EKO,2023-03-22 01:56,-115.7860,40.8242,1367.00,36.00,28.00,72.43,20.00,8.00,0.00,29.53,1001.60,10.00,M,OVC,M,M,M,4300.00,M,M,M,M,M,M,M,M,M,M,29.04,KEKO 220156Z AUTO 02008KT 10SM OVC043 02/M02 A2953 RMK AO2 SLP016 T00221022,M
WMC,2023-03-22 01:56,-117.8072,40.9019,1315.00,37.00,28.90,72.24,40.00,14.00,T,29.50,999.70,10.00,22.00,OVC,M,M,M,4400.00,M,M,M,M,M,M,M,M,M,M,27.61,KWMC 220156Z AUTO 04014G22KT 10SM OVC044 03/M02 A2950 RMK AO2 SNE22 SLP997 P0000 T00281017,M
HND,2023-03-22 01:56,-115.1344,35.9729,742.79,55.00,34.00,44.90,200.00,16.00,0.00,29.61,1003.80,10.00,M,CLR,M,M,M,M,M,M,M,M,M,M,M,M,M,M,55.00,KHND 220156Z 20016KT 10SM CLR 13/01 A2961 RMK AO2 SLP038 T01280011,M
LAS,2023-03-22 01:56,-115.1634,36.0719,663.00,57.00,30.90,36.86,200.00,9.00,0.00,29.59,1001.30,10.00,17.00,FEW,FEW,SCT,M,3100.00,5000.00,7000.00,M,M,M,M,M,M,M,M,57.00,KLAS 220156Z 20009G17KT 10SM FEW031 FEW050 SCT070 14/M01 A2959 RMK AO2 SLP013 T01391006,M
NFL,2023-03-22 01:56,-118.7010,39.4166,1199.00,36.00,33.00,89.09,250.00,5.00,0.00,29.50,997.80,10.00,M,SCT,BKN,BKN,M,1000.00,2000.00,8000.00,M,M,M,M,M,M,M,M,31.15,KNFL 220156Z 25005KT 10SM SCT010 BKN020 BKN080 02/01 A2950 RMK AO2 SLP978 T00220006,M
TPH,2023-03-22 01:56,-117.0904,38.0505,1654.00,38.00,34.00,85.69,170.00,15.00,0.00,29.52,998.80,10.00,M,SCT,BKN,OVC,M,1800.00,2500.00,4200.00,M,M,M,M,M,M,M,M,28.43,KTPH 220156Z AUTO 17015KT 10SM SCT018 BKN025 OVC042 03/01 A2952 RMK AO2 SLP988 T00330011,M
ELY,2023-03-22 01:58,-114.8453,39.2950,1909.00,30.90,30.00,96.41,0.00,0.00,0.02,29.55,M,0.50,M,VV ,M,M,M,500.00,M,M,M,SN FZFG,M,M,M,M,M,M,30.90,KELY 220158Z AUTO 00000KT 1/2SM SN FZFG VV005 M01/M01 A2955 RMK AO2 P0002 T10061011,M
LOL,2023-03-22 02:03,-118.5701,40.0684,1192.43,36.00,34.00,92.35,20.00,3.00,0.00,29.51,M,10.00,M,FEW,SCT,OVC,M,1000.00,2100.00,3000.00,M,M,M,M,M,M,M,M,33.26,KLOL 220203Z AUTO 02003KT 10SM FEW010 SCT021 OVC030 02/01 A2951 RMK AO2 T00220011,M
BVU,2023-03-22 02:15,-114.8611,35.9475,671.00,53.60,46.40,76.50,160.00,14.00,0.00,29.63,M,10.00,M,FEW,FEW,FEW,M,2900.00,3800.00,4400.00,M,M,M,M,M,M,M,M,53.60,KBVU 220215Z AUTO 16014KT 10SM FEW029 FEW038 FEW044 12/08 A2963 RMK AO2,M
CXP,2023-03-22 02:15,-119.7326,39.1923,1431.00,35.60,30.20,80.51,80.00,5.00,0.00,29.52,M,10.00,M,FEW,BKN,OVC,M,2600.00,3300.00,5500.00,M,M,M,M,M,M,M,M,30.67,KCXP 220215Z AUTO 08005KT 10SM FEW026 BKN033 OVC055 02/M01 A2952 RMK AO2,M
RTS,2023-03-22 02:15,-119.8764,39.6682,1539.00,33.80,30.20,86.49,70.00,6.00,0.00,29.51,M,10.00,M,BKN,OVC,M,M,1600.00,2300.00,M,M,M,M,M,M,M,M,M,27.70,KRTS 220215Z AUTO 07006KT 10SM BKN016 OVC023 01/M01 A2951 RMK AO2,M
05U,2023-03-22 02:15,-116.0051,39.6042,1811.23,33.80,33.80,100.00,0.00,0.00,0.00,29.53,M,1.00,M,OVC,M,M,M,200.00,M,M,M,BR,M,M,M,M,M,M,33.80,K05U 220215Z AUTO 00000KT 1SM BR OVC002 01/01 A2953 RMK A01,M
MEV,2023-03-22 02:15,-119.7500,38.9963,1441.42,33.80,32.00,93.03,250.00,5.00,0.00,29.49,M,10.00,M,BKN,OVC,M,M,4700.00,6000.00,M,M,M,M,M,M,M,M,M,28.53,KMEV 220215Z AUTO 25005KT 10SM BKN047 OVC060 01/M00 A2949 RMK AO2,M
BAM,2023-03-22 02:15,-116.8743,40.5990,1382.36,33.80,33.80,100.00,40.00,8.00,0.00,29.53,M,10.00,M,SCT,BKN,OVC,M,3600.00,4200.00,4800.00,M,M,M,M,M,M,M,M,26.33,KBAM 220215Z AUTO 04008KT 10SM SCT036 BKN042 OVC048 01/01 A2953 RMK AO1,M
HTH,2023-03-22 02:15,-118.6315,38.5448,1282.89,39.20,33.80,80.79,320.00,9.00,0.00,29.49,M,10.00,M,CLR,M,M,M,M,M,M,M,M,M,M,M,M,M,M,32.47,KHTH 220215Z AUTO 32009KT 10SM CLR 04/01 A2949 RMK A01,M
TMT,2023-03-22 02:15,-117.1971,39.4643,1749.34,30.90,29.80,95.63,0.00,0.00,0.00,29.52,M,10.00,M,SCT,SCT,BKN,M,1600.00,2800.00,9500.00,M,M,M,M,M,M,M,M,30.90,KTMT 220215Z AUTO 00000KT 10SM SCT016 SCT028 BKN095 M01/M01 A2952 RMK AO2 T10061012,M
ELY,2023-03-22 02:23,-114.8453,39.2950,1909.00,32.00,30.90,95.65,170.00,9.00,0.08,29.55,M,M,M,BKN,OVC,M,M,700.00,9000.00,M,M,-SN,M,M,M,M,M,M,23.51,KELY 220223Z AUTO 17009KT -SN BKN007 OVC090 00/M01 A2955 RMK AO2 P0008 T00001006 $,M
TPH,2023-03-22 02:34,-117.0904,38.0505,1654.00,36.00,32.00,85.23,170.00,10.00,0.00,29.52,M,10.00,M,SCT,M,M,M,1700.00,M,M,M,M,M,M,M,M,M,M,27.98,KTPH 220234Z AUTO 17010KT 10SM SCT017 02/00 A2952 RMK AO2 T00220000,M
BVU,2023-03-22 02:35,-114.8611,35.9475,671.00,53.60,46.40,76.50,160.00,12.00,0.00,29.63,M,10.00,M,CLR,M,M,M,M,M,M,M,M,M,M,M,M,M,M,53.60,KBVU 220235Z AUTO 16012KT 10SM CLR 12/08 A2963 RMK AO2,M
CXP,2023-03-22 02:35,-119.7326,39.1923,1431.00,35.60,30.20,80.51,80.00,5.00,0.00,29.52,M,10.00,M,BKN,BKN,OVC,M,1700.00,2600.00,3400.00,M,M,M,M,M,M,M,M,30.67,KCXP 220235Z AUTO 08005KT 10SM BKN017 BKN026 OVC034 02/M01 A2952 RMK AO2,M
RTS,2023-03-22 02:35,-119.8764,39.6682,1539.00,33.80,30.20,86.49,50.00,6.00,0.00,29.51,M,10.00,M,OVC,M,M,M,1600.00,M,M,M,M,M,M,M,M,M,M,27.70,KRTS 220235Z AUTO 05006KT 10SM OVC016 01/M01 A2951 RMK AO2,M
05U,2023-03-22 02:35,-116.0051,39.6042,1811.23,33.80,33.80,100.00,210.00,7.00,0.00,29.54,M,0.75,M,OVC,M,M,M,200.00,M,M,M,BR,M,M,M,M,M,M,26.97,K05U 220235Z AUTO 21007KT 3/4SM BR OVC002 01/01 A2954 RMK A01,M
MEV,2023-03-22 02:35,-119.7500,38.9963,1441.42,33.80,30.20,86.49,310.00,6.00,0.00,29.49,M,10.00,M,FEW,OVC,M,M,4500.00,5500.00,M,M,M,M,M,M,M,M,M,27.70,KMEV 220235Z AUTO 31006KT 10SM FEW045 OVC055 01/M01 A2949 RMK AO2,M
BAM,2023-03-22 02:35,-116.8743,40.5990,1382.36,35.60,32.00,86.59,50.00,11.00,0.00,29.53,M,10.00,15.00,SCT,BKN,OVC,M,4000.00,4700.00,5500.00,M,M,M,M,M,M,M,M,27.02,KBAM 220235Z AUTO 05011G15KT 10SM SCT040 BKN047 OVC055 02/00 A2953 RMK AO1,M
HTH,2023-03-22 02:35,-118.6315,38.5448,1282.89,39.20,33.80,80.79,320.00,8.00,0.00,29.50,M,10.00,M,CLR,M,M,M,M,M,M,M,M,M,M,M,M,M,M,32.98,KHTH 220235Z AUTO 32008KT 10SM CLR 04/01 A2950 RMK A01,M
TMT,2023-03-22 02:35,-117.1971,39.4643,1749.34,30.60,29.70,96.41,0.00,0.00,0.00,29.52,M,10.00,M,SCT,M,M,M,9500.00,M,M,M,M,M,M,M,M,M,M,30.60,KTMT 220235Z AUTO 00000KT 10SM SCT095 M01/M01 A2952 RMK AO2 T10081013,M
LOL,2023-03-22 02:37,-118.5701,40.0684,1192.43,36.00,34.00,92.35,20.00,5.00,0.00,29.52,M,10.00,M,BKN,BKN,OVC,M,1100.00,1800.00,4100.00,M,M,M,M,M,M,M,M,31.15,KLOL 220237Z AUTO 02005KT 10SM BKN011 BKN018 OVC041 02/01 A2952 RMK AO2 T00220011,M
ELY,2023-03-22 02:38,-114.8453,39.2950,1909.00,32.00,28.00,84.98,150.00,16.00,0.09,29.55,M,9.00,23.00,SCT,OVC,M,M,700.00,9000.00,M,M,M,M,M,M,M,M,M,20.42,KELY 220238Z AUTO 15016G23KT 9SM SCT007 OVC090 00/M02 A2955 RMK AO2 SNE33 P0009 T00001022 $,M
WMC,2023-03-22 02:47,-117.8072,40.9019,1315.00,35.00,30.00,81.46,80.00,4.00,T,29.52,M,3.00,M,OVC,M,M,M,2400.00,M,M,M,-SN,M,M,M,26.00,40.00,2023-03-22 01:58,31.04,KWMC 220247Z AUTO 08004KT 3SM -SN OVC024 02/M01 A2952 RMK AO2 PK WND 04026/0158 SNB36 P0000 T00171011,M
P68,2023-03-22 02:53,-116.0056,39.6014,1993.00,32.00,30.90,95.65,120.00,5.00,0.07,29.50,998.60,M,M,M,M,M,M,M,M,M,M,M,M,M,M,M,M,M,26.40,KP68 220253Z AUTO 12005KT 00/M01 A2950 RMK AO1 SLP986 P0007 60015 T00001006 58000,M
ELY,2023-03-22 02:53,-114.8453,39.2950,1909.00,32.00,28.00,84.98,160.00,12.00,0.09,29.55,1001.60,10.00,20.00,FEW,SCT,OVC,M,4500.00,7000.00,8500.00,M,M,M,M,M,M,M,M,22.00,KELY 220253Z AUTO 16012G20KT 10SM FEW045 SCT070 OVC085 00/M02 A2955 RMK AO2 SNE33 SLP016 P0009 60017 T00001022 53002 $,M
VGT,2023-03-22 02:53,-115.1933,36.2111,667.00,56.00,32.00,40.10,190.00,7.00,0.00,29.60,1003.50,10.00,M,FEW,M,M,M,9000.00,M,M,M,M,M,M,M,M,M,M,55.90,KVGT 220253Z AUTO 19007KT 10SM FEW090 13/00 A2960 RMK AO2 SLP035 60001 T01330000 53006,M
LOL,2023-03-22 02:53,-118.5701,40.0684,1192.43,35.00,34.00,95.71,20.00,6.00,0.00,29.52,1000.70,10.00,M,SCT,BKN,M,M,1100.00,3300.00,M,M,M,M,M,M,M,M,M,29.26,KLOL 220253Z AUTO 02006KT 10SM SCT011 BKN033 02/01 A2952 RMK AO2 SLP007 60005 T00170011 51015,M
DRA,2023-03-22 02:53,-116.0278,36.6206,1009.00,49.00,35.00,58.75,200.00,15.00,T,29.58,1000.00,10.00,25.00,FEW,OVC,M,M,4500.00,5500.00,M,M,M,M,M,M,26.00,180.00,2023-03-22 02:43,42.69,KDRA 220253Z AUTO 20015G25KT 10SM FEW045 OVC055 09/02 A2958 RMK AO2 PK WND 18026/0243 RAB39E48 SLP000 P0000 60000 T00940017 51007,M
BVU,2023-03-22 02:55,-114.8611,35.9475,671.00,53.60,44.60,71.45,160.00,8.00,0.00,29.64,M,10.00,13.00,CLR,M,M,M,M,M,M,M,M,M,M,M,M,M,M,53.60,KBVU 220255Z AUTO 16008G13KT 10SM CLR 12/07 A2964 RMK AO2,M
CXP,2023-03-22 02:55,-119.7326,39.1923,1431.00,35.60,30.20,80.51,40.00,8.00,0.00,29.51,M,10.00,M,SCT,BKN,OVC,M,1700.00,3400.00,6000.00,M,M,M,M,M,M,M,M,28.55,KCXP 220255Z AUTO 04008KT 10SM SCT017 BKN034 OVC060 02/M01 A2951 RMK AO2,M
INS,2023-03-22 02:55,-115.6733,36.5872,955.00,50.00,28.40,43.03,190.00,7.00,0.00,29.59,1000.30,10.00,M,SCT,SCT,M,M,10000.00,12000.00,M,M,M,M,M,M,M,M,M,50.00,KINS 220255Z AUTO 19007KT 10SM SCT100 SCT120 10/M02 A2959 RMK AO2 SLP003 60001 T01001020 53006 $,M
RNO,2023-03-22 02:55,-119.7711,39.4839,1341.00,37.00,30.90,78.37,100.00,6.00,0.00,29.50,999.20,10.00,M,BKN,BKN,M,M,4200.00,18000.00,M,M,M,M,M,M,M,M,M,31.55,KRNO 220255Z 10006KT 10SM BKN042 BKN180 03/M01 A2950 RMK AO2 SLP992 T00281006 53003 $,M
RTS,2023-03-22 02:55,-119.8764,39.6682,1539.00,33.80,30.20,86.49,50.00,4.00,0.00,29.51,M,10.00,M,BKN,OVC,M,M,1500.00,2400.00,M,M,M,M,M,M,M,M,M,29.52,KRTS 220255Z AUTO 05004KT 10SM BKN015 OVC024 01/M01 A2951 RMK AO2,M
05U,2023-03-22 02:55,-116.0051,39.6042,1811.23,32.00,32.00,100.00,130.00,3.00,0.00,29.52,M,6.00,M,BKN,BKN,OVC,M,200.00,4200.00,6000.00,M,BR,M,M,M,M,M,M,28.69,K05U 220255Z AUTO 13003KT 6SM BR BKN002 BKN042 OVC060 00/00 A2952 RMK A01,M
MEV,2023-03-22 02:55,-119.7500,38.9963,1441.42,33.80,30.20,86.49,320.00,7.00,0.00,29.50,M,10.00,M,OVC,M,M,M,5000.00,M,M,M,M,M,M,M,M,M,M,26.97,KMEV 220255Z AUTO 32007KT 10SM OVC050 01/M01 A2950 RMK AO2,M
BAM,2023-03-22 02:55,-116.8743,40.5990,1382.36,35.60,32.00,86.59,50.00,12.00,0.00,29.52,M,10.00,16.00,SCT,SCT,OVC,M,3000.00,4100.00,5500.00,M,M,M,M,M,M,M,M,26.58,KBAM 220255Z AUTO 05012G16KT 10SM SCT030 SCT041 OVC055 02/00 A2952 RMK AO1,M
HTH,2023-03-22 02:55,-118.6315,38.5448,1282.89,37.40,33.80,86.69,340.00,6.00,0.00,29.51,M,10.00,M,SCT,SCT,SCT,M,6500.00,7500.00,12000.00,M,M,M,M,M,M,M,M,32.03,KHTH 220255Z AUTO 34006KT 10SM SCT065 SCT075 SCT120 03/01 A2951 RMK A01,M
TMT,2023-03-22 02:55,-117.1971,39.4643,1749.34,30.20,29.70,97.99,0.00,0.00,0.00,29.52,M,10.00,M,CLR,M,M,M,M,M,M,M,M,M,M,M,M,M,M,30.20,KTMT 220255Z AUTO 00000KT 10SM CLR M01/M01 A2952 RMK AO2 T10101013,M
LSV,2023-03-22 02:55,-115.0343,36.2362,570.00,56.50,42.80,60.02,170.00,16.00,0.00,29.58,1001.00,10.00,M,CLR,M,M,M,M,M,M,M,M,M,M,M,M,M,M,56.50,KLSV 220255Z AUTO 17016KT 10SM CLR 14/06 A2958 RMK AO2 SLP010 T01360060 53003 $,M
EKO,2023-03-22 02:56,-115.7860,40.8242,1367.00,37.00,28.00,69.63,40.00,8.00,0.00,29.51,1000.60,10.00,M,FEW,OVC,M,M,7000.00,9500.00,M,M,M,M,M,M,M,M,M,30.27,KEKO 220256Z AUTO 04008KT 10SM FEW070 OVC095 03/M02 A2951 RMK AO2 SLP006 T00281022 56011,M
WMC,2023-03-22 02:56,-117.8072,40.9019,1315.00,34.00,30.90,88.27,90.00,5.00,T,29.52,1000.40,1.75,M,OVC,M,M,M,1600.00,M,M,M,-SN BR,M,M,M,26.00,40.00,2023-03-22 01:58,28.77,KWMC 220256Z AUTO 09005KT 1 3/4SM -SN BR OVC016 01/M01 A2952 RMK AO2 PK WND 04026/0158 SNB36 SLP004 P0000 60000 T00111006 55001,M
NFL,2023-03-22 02:56,-118.7010,39.4166,1199.00,36.00,33.00,89.09,0.00,0.00,0.00,29.51,998.20,10.00,M,SCT,OVC,M,M,800.00,2800.00,M,M,M,M,M,M,M,M,M,36.00,KNFL 220256Z 00000KT 10SM SCT008 OVC028 02/01 A2951 RMK AO2 SLP982 T00220006 51012,M
LAS,2023-03-22 02:56,-115.1634,36.0719,663.00,55.00,33.00,43.31,150.00,6.00,0.00,29.60,1001.90,10.00,M,FEW,SCT,M,M,5000.00,7000.00,M,M,M,M,M,M,M,M,M,55.00,KLAS 220256Z 15006KT 10SM FEW050 SCT070 13/01 A2960 RMK AO2 SLP019 60000 T01280006 55001,M
HND,2023-03-22 02:56,-115.1344,35.9729,742.79,53.00,33.00,46.42,170.00,10.00,0.00,29.62,1004.50,10.00,M,CLR,M,M,M,M,M,M,M,M,M,M,M,M,M,M,53.10,KHND 220256Z 17010KT 10SM CLR 12/01 A2962 RMK AO2 SLP045 60000 T01170006 53006,M
TPH,2023-03-22 02:56,-117.0904,38.0505,1654.00,35.00,33.00,92.32,170.00,7.00,0.00,29.54,1000.10,10.00,M,BKN,M,M,M,3600.00,M,M,M,M,M,M,M,M,M,M,28.56,KTPH 220256Z AUTO 17007KT 10SM BKN036 02/01 A2954 RMK AO2 SLP001 60000 T00170006 53013,M
WMC,2023-03-22 03:01,-117.8072,40.9019,1315.00,34.00,30.00,85.11,100.00,4.00,T,29.53,M,1.25,M,OVC,M,M,M,1400.00,M,M,M,-SN BR,M,M,M,M,M,M,29.76,KWMC 220301Z AUTO 10004KT 1 1/4SM -SN BR OVC014 01/M01 A2953 RMK AO2 P0000 T00111011,M
BVU,2023-03-22 03:15,-114.8611,35.9475,671.00,53.60,44.60,71.45,160.00,8.00,0.00,29.64,M,10.00,M,CLR,M,M,M,M,M,M,M,M,M,M,M,M,M,M,53.60,KBVU 220315Z AUTO 16008KT 10SM CLR 12/07 A2964 RMK AO2,M
CXP,2023-03-22 03:15,-119.7326,39.1923,1431.00,35.60,30.20,80.51,70.00,4.00,0.00,29.52,M,10.00,M,FEW,BKN,OVC,M,2100.00,3200.00,4500.00,M,M,M,M,M,M,M,M,31.62,KCXP 220315Z AUTO 07004KT 10SM FEW021 BKN032 OVC045 02/M01 A2952 RMK AO2,M
RTS,2023-03-22 03:15,-119.8764,39.6682,1539.00,33.80,30.20,86.49,0.00,0.00,0.00,29.52,M,10.00,M,BKN,OVC,M,M,1700.00,2400.00,M,M,M,M,M,M,M,M,M,33.80,KRTS 220315Z AUTO 00000KT 10SM BKN017 OVC024 01/M01 A2952 RMK AO2,M
05U,2023-03-22 03:15,-116.0051,39.6042,1811.23,32.00,32.00,100.00,130.00,6.00,0.00,29.53,M,10.00,M,SCT,SCT,OVC,M,5000.00,6000.00,7000.00,M,M,M,M,M,M,M,M,25.53,K05U 220315Z AUTO 13006KT 10SM SCT050 SCT060 OVC070 00/00 A2953 RMK A01,M
MEV,2023-03-22 03:15,-119.7500,38.9963,1441.42,33.80,32.00,93.03,350.00,4.00,0.00,29.51,M,10.00,M,BKN,OVC,M,M,3400.00,4800.00,M,M,M,M,M,M,M,M,M,29.52,KMEV 220315Z AUTO 35004KT 10SM BKN034 OVC048 01/M00 A2951 RMK AO2,M
BAM,2023-03-22 03:15,-116.8743,40.5990,1382.36,35.60,32.00,86.59,30.00,6.00,0.00,29.52,M,10.00,M,BKN,OVC,M,M,4000.00,5500.00,M,M,M,M,M,M,M,M,M,29.87,KBAM 220315Z AUTO 03006KT 10SM BKN040 OVC055 02/00 A2952 RMK AO1,M
HTH,2023-03-22 03:15,-118.6315,38.5448,1282.89,37.40,33.80,86.69,320.00,7.00,0.00,29.52,M,10.00,M,FEW,BKN,BKN,M,5000.00,6500.00,7500.00,M,M,M,M,M,M,M,M,31.36,KHTH 220315Z AUTO 32007KT 10SM FEW050 BKN065 BKN075 03/01 A2952 RMK A01,M
TMT,2023-03-22 03:15,-117.1971,39.4643,1749.34,28.40,27.70,97.17,0.00,0.00,0.00,29.52,M,10.00,M,CLR,M,M,M,M,M,M,M,M,M,M,M,M,M,M,28.40,KTMT 220315Z AUTO 00000KT 10SM CLR M02/M02 A2952 RMK AO2 T10201024,M
LOL,2023-03-22 03:28,-118.5701,40.0684,1192.43,35.00,33.00,92.32,50.00,6.00,0.00,29.52,M,10.00,M,BKN,BKN,M,M,2500.00,3300.00,M,M,M,M,M,M,M,M,M,29.26,KLOL 220328Z AUTO 05006KT 10SM BKN025 BKN033 02/01 A2952 RMK AO2 T00170006,M
BVU,2023-03-22 03:35,-114.8611,35.9475,671.00,53.60,42.80,66.70,140.00,9.00,0.00,29.64,M,10.00,14.00,FEW,M,M,M,10000.00,M,M,M,M,M,M,M,M,M,M,53.60,KBVU 220335Z AUTO 14009G14KT 10SM FEW100 12/06 A2964 RMK AO2,M
CXP,2023-03-22 03:35,-119.7326,39.1923,1431.00,33.80,30.20,86.49,80.00,5.00,0.00,29.53,M,10.00,M,SCT,BKN,OVC,M,1900.00,3300.00,4000.00,M,M,M,M,M,M,M,M,28.53,KCXP 220335Z AUTO 08005KT 10SM SCT019 BKN033 OVC040 01/M01 A2953 RMK AO2,M
RTS,2023-03-22 03:35,-119.8764,39.6682,1539.00,33.80,28.40,80.36,50.00,4.00,0.00,29.53,M,10.00,M,BKN,OVC,M,M,1800.00,2600.00,M,M,-UP,M,M,M,M,M,M,29.52,KRTS 220335Z AUTO 05004KT 10SM -UP BKN018 OVC026 01/M02 A2953 RMK AO2,M
05U,2023-03-22 03:35,-116.0051,39.6042,1811.23,33.80,32.00,93.03,150.00,9.00,0.00,29.53,M,10.00,M,SCT,BKN,OVC,M,4500.00,5000.00,7500.00,M,M,M,M,M,M,M,M,25.75,K05U 220335Z AUTO 15009KT 10SM SCT045 BKN050 OVC075 01/00 A2953 RMK A01,M
MEV,2023-03-22 03:35,-119.7500,38.9963,1441.42,33.80,30.20,86.49,340.00,3.00,0.00,29.52,M,10.00,M,BKN,OVC,M,M,3500.00,4700.00,M,M,M,M,M,M,M,M,M,30.75,KMEV 220335Z AUTO 34003KT 10SM BKN035 OVC047 01/M01 A2952 RMK AO2,M
BAM,2023-03-22 03:35,-116.8743,40.5990,1382.36,35.60,32.00,86.59,20.00,5.00,0.00,29.52,M,10.00,M,SCT,BKN,OVC,M,4000.00,5000.00,6500.00,M,M,M,M,M,M,M,M,30.67,KBAM 220335Z AUTO 02005KT 10SM SCT040 BKN050 OVC065 02/00 A2952 RMK AO1,M
HTH,2023-03-22 03:35,-118.6315,38.5448,1282.89,37.40,33.80,86.69,320.00,7.00,0.00,29.52,M,10.00,M,FEW,FEW,SCT,M,2300.00,5000.00,7000.00,M,M,M,M,M,M,M,M,31.36,KHTH 220335Z AUTO 32007KT 10SM FEW023 FEW050 SCT070 03/01 A2952 RMK A01,M
TMT,2023-03-22 03:35,-117.1971,39.4643,1749.34,28.60,28.20,98.37,0.00,0.00,0.00,29.51,M,10.00,M,CLR,M,M,M,M,M,M,M,M,M,M,M,M,M,M,28.60,KTMT 220335Z AUTO 00000KT 10SM CLR M02/M02 A2951 RMK AO2 T10191021,M
WMC,2023-03-22 03:37,-117.8072,40.9019,1315.00,33.00,30.00,88.23,90.00,3.00,0.06,29.53,M,1.25,M,OVC,M,M,M,800.00,M,M,M,-SN BR,M,M,M,M,M,M,29.95,KWMC 220337Z AUTO 09003KT 1 1/4SM -SN BR OVC008 01/M01 A2953 RMK AO2 P0006 T00061011,M
WMC,2023-03-22 03:40,-117.8072,40.9019,1315.00,33.00,30.00,88.23,100.00,3.00,0.06,29.53,M,1.50,M,OVC,M,M,M,1000.00,M,M,M,-SN BR,M,M,M,M,M,M,29.95,KWMC 220340Z AUTO 10003KT 1 1/2SM -SN BR OVC010 01/M01 A2953 RMK AO2 P0006 T00061011,M
LOL,2023-03-22 03:49,-118.5701,40.0684,1192.43,35.60,33.80,93.08,80.00,4.00,0.00,29.54,M,10.00,M,FEW,OVC,M,M,700.00,2400.00,M,M,M,M,M,M,M,M,M,31.62,KLOL 220349Z AUTO 08004KT 10SM FEW007 OVC024 02/01 A2954 RMK AO2,M
P68,2023-03-22 03:53,-116.0056,39.6014,1993.00,33.00,30.00,88.23,130.00,7.00,0.01,29.51,998.60,M,M,M,M,M,M,M,M,M,M,M,M,M,M,M,M,M,26.12,KP68 220353Z AUTO 13007KT 01/M01 A2951 RMK AO1 SLP986 P0001 T00061011,M
DRA,2023-03-22 03:53,-116.0278,36.6206,1009.00,44.00,37.00,75.93,210.00,15.00,0.02,29.61,1001.50,8.00,23.00,BKN,OVC,M,M,2800.00,3500.00,M,M,-RA,M,M,M,26.00,210.00,2023-03-22 03:43,36.47,KDRA 220353Z AUTO 21015G23KT 8SM -RA BKN028 OVC035 07/03 A2961 RMK AO2 PK WND 21026/0343 RAB13 SLP015 P0002 T00670028,M
ELY,2023-03-22 03:53,-114.8453,39.2950,1909.00,34.00,26.10,72.52,210.00,9.00,T,29.55,1000.90,9.00,15.00,BKN,BKN,OVC,M,4400.00,5500.00,8000.00,M,-SN,M,M,M,M,M,M,26.00,KELY 220353Z AUTO 21009G15KT 9SM -SN BKN044 BKN055 OVC080 01/M03 A2955 RMK AO2 UPB48E50SNB46E48B50 SLP009 P0000 T00111033 $,M
LOL,2023-03-22 03:53,-118.5701,40.0684,1192.43,35.00,34.00,95.71,80.00,5.00,0.00,29.53,1001.00,10.00,M,FEW,OVC,M,M,700.00,2400.00,M,M,M,M,M,M,M,M,M,30.08,KLOL 220353Z AUTO 08005KT 10SM FEW007 OVC024 02/01 A2953 RMK AO2 SLP010 T00170011,M
VGT,2023-03-22 03:53,-115.1933,36.2111,667.00,55.00,33.00,43.31,170.00,10.00,0.00,29.61,1003.80,10.00,M,BKN,BKN,M,M,7500.00,9500.00,M,M,M,M,M,M,M,M,M,55.00,KVGT 220353Z AUTO 17010KT 10SM BKN075 BKN095 13/01 A2961 RMK AO2 SLP038 T01280006,M
BVU,2023-03-22 03:55,-114.8611,35.9475,671.00,53.60,39.20,58.02,180.00,12.00,0.00,29.64,M,10.00,19.00,BKN,BKN,M,M,9000.00,11000.00,M,M,M,M,M,M,M,M,M,53.60,KBVU 220355Z AUTO 18012G19KT 10SM BKN090 BKN110 12/04 A2964 RMK AO2,M
CXP,2023-03-22 03:55,-119.7326,39.1923,1431.00,35.60,30.20,80.51,70.00,6.00,0.00,29.54,M,10.00,M,FEW,OVC,M,M,1900.00,3800.00,M,M,M,M,M,M,M,M,M,29.87,KCXP 220355Z AUTO 07006KT 10SM FEW019 OVC038 02/M01 A2954 RMK AO2,M
INS,2023-03-22 03:55,-115.6733,36.5872,955.00,47.70,32.70,55.83,240.00,17.00,0.00,29.60,1000.90,10.00,22.00,SCT,BKN,M,M,8000.00,10000.00,M,M,M,M,M,M,M,M,M,40.64,KINS 220355Z AUTO 24017G22KT 10SM SCT080 BKN100 09/00 A2960 RMK AO2 SLP009 T00870004 $,M
RNO,2023-03-22 03:55,-119.7711,39.4839,1341.00,37.00,30.00,75.56,50.00,5.00,0.00,29.53,999.90,10.00,M,BKN,BKN,M,M,3500.00,5000.00,M,M,M,M,M,M,M,M,M,32.33,KRNO 220355Z 05005KT 10SM BKN035 BKN050 03/M01 A2953 RMK AO2 SLP999 T00281011 $,M
RTS,2023-03-22 03:55,-119.8764,39.6682,1539.00,33.80,30.20,86.49,70.00,5.00,0.00,29.54,M,10.00,M,FEW,OVC,M,M,2000.00,2700.00,M,M,M,M,M,M,M,M,M,28.53,KRTS 220355Z AUTO 07005KT 10SM FEW020 OVC027 01/M01 A2954 RMK AO2,M
05U,2023-03-22 03:55,-116.0051,39.6042,1811.23,33.80,32.00,93.03,130.00,4.00,0.00,29.53,M,10.00,M,FEW,OVC,M,M,3900.00,4700.00,M,M,M,M,M,M,M,M,M,29.52,K05U 220355Z AUTO 13004KT 10SM FEW039 OVC047 01/M00 A2953 RMK A01,M
MEV,2023-03-22 03:55,-119.7500,38.9963,1441.42,33.80,30.20,86.49,0.00,0.00,0.00,29.52,M,10.00,M,BKN,OVC,M,M,4200.00,4900.00,M,M,M,M,M,M,M,M,M,33.80,KMEV 220355Z AUTO 00000KT 10SM BKN042 OVC049 01/M01 A2952 RMK AO2,M
BAM,2023-03-22 03:55,-116.8743,40.5990,1382.36,35.60,32.00,86.59,30.00,8.00,0.00,29.52,M,10.00,M,SCT,OVC,M,M,4300.00,5000.00,M,M,M,M,M,M,M,M,M,28.55,KBAM 220355Z AUTO 03008KT 10SM SCT043 OVC050 02/00 A2952 RMK AO1,M
HTH,2023-03-22 03:55,-118.6315,38.5448,1282.89,37.40,33.80,86.69,340.00,8.00,0.00,29.53,M,10.00,M,CLR,M,M,M,M,M,M,M,M,M,M,M,M,M,M,30.76,KHTH 220355Z AUTO 34008KT 10SM CLR 03/01 A2953 RMK A01,M
TMT,2023-03-22 03:55,-117.1971,39.4643,1749.34,27.90,27.30,97.56,0.00,0.00,0.00,29.52,M,10.00,M,CLR,M,M,M,M,M,M,M,M,M,M,M,M,M,M,27.90,KTMT 220355Z AUTO 00000KT 10SM CLR M02/M03 A2952 RMK AO2 T10231026,M
LSV,2023-03-22 03:55,-115.0343,36.2362,570.00,56.00,41.20,57.25,160.00,16.00,0.00,29.59,1001.50,10.00,M,CLR,M,M,M,M,M,M,M,M,M,M,M,M,M,M,56.10,KLSV 220355Z AUTO 16016KT 10SM CLR 13/05 A2959 RMK AO2 SLP015 T01340051 $,M
EKO,2023-03-22 03:56,-115.7860,40.8242,1367.00,36.00,28.90,75.15,70.00,10.00,0.00,29.52,1000.50,10.00,M,OVC,M,M,M,7000.00,M,M,M,M,M,M,M,M,M,M,27.98,KEKO 220356Z AUTO 07010KT 10SM OVC070 02/M02 A2952 RMK AO2 SLP005 T00221017,M
WMC,2023-03-22 03:56,-117.8072,40.9019,1315.00,33.00,30.00,88.23,40.00,3.00,0.07,29.53,1000.50,2.50,M,OVC,M,M,M,1200.00,M,M,M,-SN BR,M,M,M,M,M,M,29.95,KWMC 220356Z AUTO 04003KT 2 1/2SM -SN BR OVC012 01/M01 A2953 RMK AO2 SLP005 P0007 T00061011,M
HND,2023-03-22 03:56,-115.1344,35.9729,742.79,52.00,34.00,50.12,180.00,12.00,0.00,29.63,1004.90,10.00,M,CLR,M,M,M,M,M,M,M,M,M,M,M,M,M,M,52.00,KHND 220356Z AUTO 18012KT 10SM CLR 11/01 A2963 RMK AO2 SLP049 T01110011,M
LAS,2023-03-22 03:56,-115.1634,36.0719,663.00,54.00,30.00,39.63,180.00,9.00,0.00,29.61,1002.20,10.00,17.00,FEW,SCT,M,M,5000.00,7000.00,M,M,M,M,M,M,M,M,M,54.00,KLAS 220356Z 18009G17KT 10SM FEW050 SCT070 12/M01 A2961 RMK AO2 SLP022 T01221011,M
NFL,2023-03-22 03:56,-118.7010,39.4166,1199.00,37.00,35.00,92.76,200.00,4.00,0.00,29.55,999.20,9.00,M,OVC,M,M,M,1600.00,M,M,M,M,M,M,M,M,M,M,33.26,KNFL 220356Z 20004KT 9SM OVC016 03/02 A2955 RMK AO2 SLP992 T00280017,M
TPH,2023-03-22 03:56,-117.0904,38.0505,1654.00,35.00,30.90,84.49,170.00,7.00,0.00,29.54,1000.10,10.00,M,OVC,M,M,M,4600.00,M,M,M,M,M,M,M,M,M,M,28.56,KTPH 220356Z AUTO 17007KT 10SM OVC046 02/M01 A2954 RMK AO2 SLP001 T00171006,M
RNO,2023-03-22 04:08,-119.7711,39.4839,1341.00,37.00,30.00,75.56,50.00,5.00,0.00,29.54,M,10.00,M,BKN,M,M,M,2700.00,M,M,M,M,M,M,M,M,M,M,32.33,KRNO 220408Z 05005KT 10SM BKN027 03/M01 A2954 RMK AO2 T00281011 $,M
NFL,2023-03-22 04:14,-118.7010,39.4166,1199.00,36.00,34.00,92.35,210.00,4.00,0.00,29.55,M,10.00,M,SCT,OVC,M,M,1600.00,3200.00,M,M,M,M,M,M,M,M,M,32.09,KNFL 220414Z 21004KT 10SM SCT016 OVC032 02/01 A2955 RMK AO2 T00220011,M
BVU,2023-03-22 04:15,-114.8611,35.9475,671.00,53.60,39.20,58.02,180.00,15.00,0.00,29.64,M,10.00,21.00,SCT,M,M,M,8500.00,M,M,M,M,M,M,M,M,M,M,53.60,KBVU 220415Z AUTO 18015G21KT 10SM SCT085 12/04 A2964 RMK AO2,M
CXP,2023-03-22 04:15,-119.7326,39.1923,1431.00,35.60,30.20,80.51,90.00,4.00,0.00,29.55,M,10.00,M,BKN,BKN,OVC,M,4000.00,4600.00,5000.00,M,M,M,M,M,M,M,M,31.62,KCXP 220415Z AUTO 09004KT 10SM BKN040 BKN046 OVC050 02/M01 A2955 RMK AO2,M
RTS,2023-03-22 04:15,-119.8764,39.6682,1539.00,33.80,30.20,86.49,100.00,5.00,0.00,29.54,M,10.00,M,OVC,M,M,M,2700.00,M,M,M,M,M,M,M,M,M,M,28.53,KRTS 220415Z AUTO 10005KT 10SM OVC027 01/M01 A2954 RMK AO2,M
05U,2023-03-22 04:15,-116.0051,39.6042,1811.23,33.80,32.00,93.03,M,7.00,0.00,29.54,M,4.00,M,FEW,SCT,BKN,M,200.00,2000.00,2600.00,M,BR,M,M,M,M,M,M,26.97,K05U 220415Z AUTO VRB07KT 190V360 4SM BR FEW002 SCT020 BKN026 01/M00 A2954 RMK A01,M
MEV,2023-03-22 04:15,-119.7500,38.9963,1441.42,33.80,32.00,93.03,20.00,4.00,0.00,29.53,M,10.00,M,OVC,M,M,M,4000.00,M,M,M,M,M,M,M,M,M,M,29.52,KMEV 220415Z AUTO 02004KT 10SM OVC040 01/M00 A2953 RMK AO2,M
BAM,2023-03-22 04:15,-116.8743,40.5990,1382.36,35.60,32.00,86.59,30.00,4.00,0.00,29.53,M,10.00,M,SCT,BKN,OVC,M,3300.00,4900.00,7000.00,M,M,M,M,M,M,M,M,31.62,KBAM 220415Z AUTO 03004KT 10SM SCT033 BKN049 OVC070 02/00 A2953 RMK AO1,M
HTH,2023-03-22 04:15,-118.6315,38.5448,1282.89,37.40,33.80,86.69,300.00,5.00,0.00,29.55,M,10.00,M,FEW,FEW,BKN,M,2100.00,3000.00,6000.00,M,M,M,M,M,M,M,M,32.81,KHTH 220415Z AUTO 30005KT 10SM FEW021 FEW030 BKN060 03/01 A2955 RMK A01,M
TMT,2023-03-22 04:15,-117.1971,39.4643,1749.34,28.40,27.90,97.97,0.00,0.00,0.00,29.53,M,10.00,M,SCT,M,M,M,4700.00,M,M,M,M,M,M,M,M,M,M,28.40,KTMT 220415Z AUTO 00000KT 10SM SCT047 M02/M02 A2953 RMK AO2 T10201023,M
WMC,2023-03-22 04:16,-117.8072,40.9019,1315.00,34.00,30.00,85.11,40.00,4.00,T,29.54,M,2.00,M,FEW,OVC,M,M,600.00,1200.00,M,M,-SN BR,M,M,M,M,M,M,29.76,KWMC 220416Z AUTO 04004KT 2SM -SN BR FEW006 OVC012 01/M01 A2954 RMK AO2 P0000 T00111011,M
DRA,2023-03-22 04:22,-116.0278,36.6206,1009.00,42.00,38.00,84.93,220.00,13.00,0.02,29.62,M,10.00,M,SCT,OVC,M,M,2500.00,3000.00,M,M,-RA,M,M,M,M,M,M,34.51,KDRA 220422Z AUTO 22013KT 10SM -RA SCT025 OVC030 06/03 A2962 RMK AO2 P0002 T00560033,M
ELY,2023-03-22 04:23,-114.8453,39.2950,1909.00,32.00,28.00,84.98,170.00,11.00,T,29.56,M,1.75,M,BKN,OVC,M,M,2800.00,4400.00,M,M,-SN BR,M,M,M,M,M,M,22.47,KELY 220423Z AUTO 17011KT 1 3/4SM -SN BR BKN028 OVC044 00/M02 A2956 RMK AO2 P0000 T00001022 $,M
ELY,2023-03-22 04:33,-114.8453,39.2950,1909.00,32.00,28.90,88.17,160.00,10.00,T,29.56,M,2.50,M,OVC,M,M,M,3100.00,M,M,M,-SN BR,M,M,M,M,M,M,22.97,KELY 220433Z AUTO 16010KT 2 1/2SM -SN BR OVC031 00/M02 A2956 RMK AO2 P0000 T00001017 $,M
EKO,2023-03-22 04:34,-115.7860,40.8242,1367.00,35.00,28.90,77.88,80.00,5.00,T,29.53,M,2.50,M,BKN,OVC,M,M,2700.00,6000.00,M,M,-SN,M,M,M,M,M,M,30.08,KEKO 220434Z AUTO 08005KT 2 1/2SM -SN BKN027 OVC060 02/M02 A2953 RMK AO2 SNB31 P0000 T00171017,M
BVU,2023-03-22 04:35,-114.8611,35.9475,671.00,53.60,39.20,58.02,180.00,14.00,0.00,29.65,M,10.00,20.00,BKN,M,M,M,9500.00,M,M,M,M,M,M,M,M,M,M,53.60,KBVU 220435Z AUTO 18014G20KT 10SM BKN095 12/04 A2965 RMK AO2,M
CXP,2023-03-22 04:35,-119.7326,39.1923,1431.00,35.60,30.20,80.51,0.00,0.00,0.00,29.56,M,10.00,M,FEW,OVC,M,M,4200.00,5000.00,M,M,M,M,M,M,M,M,M,35.60,KCXP 220435Z AUTO 00000KT 10SM FEW042 OVC050 02/M01 A2956 RMK AO2,M
RTS,2023-03-22 04:35,-119.8764,39.6682,1539.00,32.00,30.20,92.97,100.00,5.00,0.00,29.55,M,10.00,M,OVC,M,M,M,3100.00,M,M,M,M,M,M,M,M,M,M,26.40,KRTS 220435Z AUTO 10005KT 10SM OVC031 00/M01 A2955 RMK AO2,M
05U,2023-03-22 04:35,-116.0051,39.6042,1811.23,33.80,32.00,93.03,0.00,0.00,0.00,29.55,M,2.00,M,BKN,BKN,OVC,M,200.00,600.00,2300.00,M,BR,M,M,M,M,M,M,33.80,K05U 220435Z AUTO 00000KT 2SM BR BKN002 BKN006 OVC023 01/00 A2955 RMK A01,M
MEV,2023-03-22 04:35,-119.7500,38.9963,1441.42,33.80,32.00,93.03,350.00,4.00,0.00,29.54,M,10.00,M,SCT,OVC,M,M,3900.00,4600.00,M,M,M,M,M,M,M,M,M,29.52,KMEV 220435Z AUTO 35004KT 10SM SCT039 OVC046 01/00 A2954 RMK AO2,M
BAM,2023-03-22 04:35,-116.8743,40.5990,1382.36,33.80,33.80,100.00,340.00,4.00,0.00,29.54,M,10.00,M,BKN,OVC,M,M,2800.00,3300.00,M,M,M,M,M,M,M,M,M,29.52,KBAM 220435Z AUTO 34004KT 10SM BKN028 OVC033 01/01 A2954 RMK AO1,M
HTH,2023-03-22 04:35,-118.6315,38.5448,1282.89,37.40,33.80,86.69,310.00,7.00,0.00,29.55,M,10.00,M,SCT,BKN,OVC,M,2000.00,6000.00,7000.00,M,M,M,M,M,M,M,M,31.36,KHTH 220435Z AUTO 31007KT 10SM SCT020 BKN060 OVC070 03/01 A2955 RMK A01,M
TMT,2023-03-22 04:35,-117.1971,39.4643,1749.34,28.00,27.50,97.97,300.00,3.00,0.00,29.53,M,10.00,M,SCT,M,M,M,4500.00,M,M,M,M,M,M,M,M,M,M,24.12,KTMT 220435Z AUTO 30003KT 10SM SCT045 M02/M02 A2953 RMK AO2 T10221025,M
WMC,2023-03-22 04:37,-117.8072,40.9019,1315.00,33.00,30.90,91.51,60.00,7.00,0.01,29.54,M,1.75,M,FEW,OVC,M,M,500.00,1500.00,M,M,-SN BR,M,M,M,M,M,M,26.12,KWMC 220437Z AUTO 06007KT 1 3/4SM -SN BR FEW005 OVC015 01/M01 A2954 RMK AO2 P0001 T00061006,M
ELY,2023-03-22 04:41,-114.8453,39.2950,1909.00,32.00,28.90,88.17,180.00,8.00,T,29.56,M,M,M,BKN,BKN,OVC,M,3300.00,7000.00,9000.00,M,M,M,M,M,M,M,M,24.11,KELY 220441Z AUTO 18008KT BKN033 BKN070 OVC090 00/M02 A2956 RMK AO2 SNE41 P0000 T00001017 $,M
EKO,2023-03-22 04:43,-115.7860,40.8242,1367.00,34.00,30.00,85.11,140.00,4.00,T,29.54,M,1.50,M,FEW,OVC,M,M,1400.00,2100.00,M,M,-SN BR,M,M,M,M,M,M,29.76,KEKO 220443Z AUTO 14004KT 1 1/2SM -SN BR FEW014 OVC021 01/M01 A2954 RMK AO2 SNB31 P0000 T00111011,M
WMC,2023-03-22 04:47,-117.8072,40.9019,1315.00,33.00,30.90,91.51,70.00,8.00,0.02,29.53,M,1.25,M,FEW,OVC,M,M,500.00,1500.00,M,M,-SN BR,M,M,M,M,M,M,25.47,KWMC 220447Z AUTO 07008KT 1 1/4SM -SN BR FEW005 OVC015 01/M01 A2953 RMK AO2 P0002 T00061006,M
DRA,2023-03-22 04:51,-116.0278,36.6206,1009.00,42.80,37.40,81.07,190.00,9.00,0.06,29.63,M,7.00,21.00,FEW,OVC,M,M,2100.00,2800.00,M,M,-RA,M,M,M,M,M,M,36.94,KDRA 220451Z AUTO 19009G21KT 7SM -RA FEW021 OVC028 06/03 A2963 RMK AO2 P0006,M
LOL,2023-03-22 04:51,-118.5701,40.0684,1192.43,35.60,33.80,93.08,80.00,3.00,0.00,29.56,M,10.00,M,FEW,OVC,M,M,2500.00,3000.00,M,M,M,M,M,M,M,M,M,32.80,KLOL 220451Z AUTO 08003KT 10SM FEW025 OVC030 02/01 A2956 RMK AO2,M
WMC,2023-03-22 04:52,-117.8072,40.9019,1315.00,33.80,30.20,86.49,80.00,7.00,0.02,29.53,M,2.00,M,FEW,OVC,M,M,1000.00,1700.00,M,M,-SN BR,M,M,M,M,M,M,26.97,KWMC 220452Z AUTO 08007KT 2SM -SN BR FEW010 OVC017 01/M01 A2953 RMK AO2 P0002,M
RNO,2023-03-22 04:52,-119.7711,39.4839,1341.00,37.40,30.20,74.98,50.00,3.00,0.00,29.55,M,10.00,M,BKN,M,M,M,3300.00,M,M,M,M,M,M,M,M,M,M,34.86,KRNO 220452Z 05003KT 10SM BKN033 03/M01 A2955 RMK AO2 $,M
P68,2023-03-22 04:53,-116.0056,39.6014,1993.00,32.00,30.90,95.65,0.00,0.00,0.00,29.53,999.40,M,M,M,M,M,M,M,M,M,M,M,M,M,M,M,M,M,32.00,KP68 220453Z AUTO 00000KT 00/M01 A2953 RMK AO1 SLP994 T00001006,M
ELY,2023-03-22 04:53,-114.8453,39.2950,1909.00,30.90,28.90,92.18,230.00,8.00,T,29.56,1001.00,9.00,M,BKN,OVC,M,M,4600.00,7000.00,M,M,-SN,M,M,M,M,M,M,22.76,KELY 220453Z AUTO 23008KT 9SM -SN BKN046 OVC070 M01/M02 A2956 RMK AO2 SNE41B45 SLP010 P0000 T10061017 $,M
VGT,2023-03-22 04:53,-115.1933,36.2111,667.00,54.00,33.00,44.92,150.00,9.00,0.00,29.62,1004.40,10.00,M,BKN,M,M,M,7500.00,M,M,M,M,M,M,M,M,M,M,54.00,KVGT 220453Z AUTO 15009KT 10SM BKN075 12/01 A2962 RMK AO2 SLP044 T01220006,M
DRA,2023-03-22 04:53,-116.0278,36.6206,1009.00,42.00,38.00,84.93,200.00,10.00,0.06,29.63,1002.00,8.00,M,FEW,OVC,M,M,2100.00,2800.00,M,M,-RA,M,M,M,M,M,M,35.63,KDRA 220453Z AUTO 20010KT 8SM -RA FEW021 OVC028 06/03 A2963 RMK AO2 SLP020 P0006 T00560033,M
LOL,2023-03-22 04:53,-118.5701,40.0684,1192.43,35.00,33.00,92.32,0.00,0.00,0.00,29.56,1001.70,10.00,M,FEW,OVC,M,M,2500.00,3000.00,M,M,M,M,M,M,M,M,M,35.10,KLOL 220453Z AUTO 00000KT 10SM FEW025 OVC030 02/01 A2956 RMK AO2 SLP017 T00170006,M
EKO,2023-03-22 04:54,-115.7860,40.8242,1367.00,33.80,30.20,86.49,0.00,0.00,M,29.54,M,1.25,M,OVC,M,M,M,1200.00,M,M,M,-SN BR,M,M,M,M,M,M,33.80,SPECI KEKO 220454Z 00000KT 1 1/4SM -SN BR OVC012 01/M01 A2954 RMK AO2 SNB31 P0001 FIBI,M
BVU,2023-03-22 04:55,-114.8611,35.9475,671.00,53.60,39.20,58.02,190.00,14.00,0.00,29.66,M,10.00,19.00,SCT,OVC,M,M,8000.00,9500.00,M,M,M,M,M,M,M,M,M,53.60,KBVU 220455Z AUTO 19014G19KT 10SM SCT080 OVC095 12/04 A2966 RMK AO2,M
CXP,2023-03-22 04:55,-119.7326,39.1923,1431.00,35.60,30.20,80.51,110.00,3.00,0.00,29.56,M,10.00,M,FEW,OVC,M,M,4100.00,5500.00,M,M,M,M,M,M,M,M,M,32.80,KCXP 220455Z AUTO 11003KT 10SM FEW041 OVC055 02/M01 A2956 RMK AO2,M
RNO,2023-03-22 04:55,-119.7711,39.4839,1341.00,37.00,30.00,75.56,50.00,3.00,0.00,29.55,1000.30,10.00,M,BKN,M,M,M,3300.00,M,M,M,M,M,M,M,M,M,M,34.40,KRNO 220455Z 05003KT 10SM BKN033 03/M01 A2955 RMK AO2 SLP003 T00281011 $,M
RTS,2023-03-22 04:55,-119.8764,39.6682,1539.00,32.00,30.20,92.97,100.00,6.00,0.00,29.56,M,10.00,M,FEW,BKN,OVC,M,2000.00,3300.00,3900.00,M,M,M,M,M,M,M,M,25.53,KRTS 220455Z AUTO 10006KT 10SM FEW020 BKN033 OVC039 00/M01 A2956 RMK AO2,M
05U,2023-03-22 04:55,-116.0051,39.6042,1811.23,32.00,32.00,100.00,M,M,0.02,29.55,M,6.00,M,SCT,BKN,OVC,M,200.00,2000.00,3600.00,M,BR,M,M,M,M,M,M,M,K05U 220455Z AUTO 6SM BR SCT002 BKN020 OVC036 00/00 A2955 RMK A01 P0002,M
MEV,2023-03-22 04:55,-119.7500,38.9963,1441.42,33.80,32.00,93.03,50.00,4.00,0.00,29.55,M,10.00,M,FEW,OVC,M,M,1600.00,4500.00,M,M,M,M,M,M,M,M,M,29.52,KMEV 220455Z AUTO 05004KT 10SM FEW016 OVC045 01/00 A2955 RMK AO2,M
BAM,2023-03-22 04:55,-116.8743,40.5990,1382.36,33.80,33.80,100.00,360.00,7.00,0.00,29.54,M,10.00,M,SCT,SCT,OVC,M,300.00,2500.00,3100.00,M,M,M,M,M,M,M,M,26.97,KBAM 220455Z AUTO 36007KT 10SM SCT003 SCT025 OVC031 01/01 A2954 RMK AO1,M
HTH,2023-03-22 04:55,-118.6315,38.5448,1282.89,37.40,33.80,86.69,330.00,5.00,0.00,29.56,M,10.00,M,FEW,SCT,BKN,M,2000.00,4600.00,6500.00,M,M,M,M,M,M,M,M,32.81,KHTH 220455Z AUTO 33005KT 10SM FEW020 SCT046 BKN065 03/01 A2956 RMK A01,M
INS,2023-03-22 04:55,-115.6733,36.5872,955.00,44.40,36.00,72.16,260.00,14.00,0.00,29.62,1001.60,10.00,M,FEW,FEW,BKN,OVC,3900.00,4900.00,6500.00,8000.00,M,M,M,M,M,M,M,37.15,KINS 220455Z AUTO 26014KT 10SM FEW039 FEW049 BKN065 OVC080 07/02 A2962 RMK AO2 SLP016 T00690022 $,M
LSV,2023-03-22 04:55,-115.0343,36.2362,570.00,55.60,38.30,52.08,160.00,15.00,0.00,29.60,1001.70,10.00,M,SCT,M,M,M,8000.00,M,M,M,M,M,M,M,M,M,M,55.60,KLSV 220455Z 16015KT 10SM SCT080 13/04 A2960 RMK AO2A SLP017 T01310035 $,M
EKO,2023-03-22 04:56,-115.7860,40.8242,1367.00,33.00,30.90,91.51,0.00,0.00,0.01,29.54,1001.00,1.25,M,OVC,M,M,M,1200.00,M,M,M,-SN BR,M,M,M,M,M,M,33.10,KEKO 220456Z AUTO 00000KT 1 1/4SM -SN BR OVC012 01/M01 A2954 RMK AO2 SNB31 SLP010 P0001 T00061006,M
WMC,2023-03-22 04:56,-117.8072,40.9019,1315.00,33.00,30.90,91.51,80.00,7.00,0.02,29.53,1000.30,3.00,M,SCT,OVC,M,M,1000.00,1900.00,M,M,-SN BR,M,M,M,M,M,M,26.12,KWMC 220456Z AUTO 08007KT 3SM -SN BR SCT010 OVC019 01/M01 A2953 RMK AO2 SLP003 P0002 T00061006,M
NFL,2023-03-22 04:56,-118.7010,39.4166,1199.00,36.00,34.00,92.35,0.00,0.00,0.00,29.55,999.50,10.00,M,SCT,BKN,M,M,1700.00,3100.00,M,M,M,M,M,M,M,M,M,36.00,KNFL 220456Z 00000KT 10SM SCT017 BKN031 02/01 A2955 RMK AO2 SLP995 T00220011,M
TPH,2023-03-22 04:56,-117.0904,38.0505,1654.00,36.00,30.00,78.60,170.00,16.00,T,29.55,1000.20,10.00,M,BKN,OVC,M,M,3200.00,4500.00,M,M,UP,M,M,M,M,M,M,25.63,KTPH 220456Z AUTO 17016KT 10SM UP BKN032 OVC045 02/M01 A2955 RMK AO2 UPB50 SLP002 P0000 T00221011,M
LAS,2023-03-22 04:56,-115.1634,36.0719,663.00,53.00,30.90,42.48,170.00,8.00,0.00,29.62,1002.60,10.00,M,SCT,BKN,M,M,8000.00,16000.00,M,M,M,M,M,M,M,M,M,53.10,KLAS 220456Z 17008KT 10SM SCT080 BKN160 12/M01 A2962 RMK AO2 SLP026 T01171006,M
HND,2023-03-22 04:56,-115.1344,35.9729,742.79,51.00,33.00,49.98,180.00,12.00,0.00,29.65,1005.30,10.00,16.00,SCT,M,M,M,9500.00,M,M,M,M,M,M,M,M,M,M,51.10,KHND 220456Z AUTO 18012G16KT 10SM SCT095 11/01 A2965 RMK AO2 SLP053 T01060006,M
INS,2023-03-22 04:59,-115.6733,36.5872,955.00,44.60,35.60,70.48,270.00,15.00,0.00,29.62,1001.60,10.00,M,FEW,SCT,BKN,OVC,3200.00,4000.00,5500.00,7000.00,-RA,M,M,M,M,M,M,37.11,KINS 220459Z AUTO 27015KT 10SM -RA FEW032 SCT040 BKN055 OVC070 07/02 A2962 RMK AO2 RAB59 SLP016 $,M
WMC,2023-03-22 05:03,-117.8072,40.9019,1315.00,33.00,30.90,91.51,80.00,6.00,T,29.53,M,5.00,M,BKN,OVC,M,M,1100.00,1700.00,M,M,-SN BR,M,M,M,M,M,M,26.86,KWMC 220503Z AUTO 08006KT 5SM -SN BR BKN011 OVC017 01/M01 A2953 RMK AO2 P0000 T00061006,M
EKO,2023-03-22 05:10,-115.7860,40.8242,1367.00,33.00,30.90,91.51,0.00,0.00,0.01,29.54,M,1.50,M,SCT,OVC,M,M,500.00,1300.00,M,M,-SN BR,M,M,M,M,M,M,33.10,KEKO 220510Z AUTO 00000KT 1 1/2SM -SN BR SCT005 OVC013 01/M01 A2954 RMK AO2 P0001 T00061006,M
NFL,2023-03-22 05:10,-118.7010,39.4166,1199.00,35.00,33.00,92.32,290.00,3.00,0.00,29.56,M,10.00,M,SCT,SCT,M,M,800.00,1700.00,M,M,M,M,M,M,M,M,M,32.23,KNFL 220510Z 29003KT 10SM SCT008 SCT017 02/01 A2956 RMK AO2 T00170006,M
EKO,2023-03-22 05:14,-115.7860,40.8242,1367.00,33.00,30.90,91.51,0.00,0.00,0.02,29.54,M,2.50,M,BKN,OVC,M,M,500.00,1300.00,M,M,-SN BR,M,M,M,M,M,M,33.10,KEKO 220514Z AUTO 00000KT 2 1/2SM -SN BR BKN005 OVC013 01/M01 A2954 RMK AO2 P0002 T00061006,M
BVU,2023-03-22 05:15,-114.8611,35.9475,671.00,51.80,39.20,61.99,170.00,16.00,0.00,29.66,M,10.00,22.00,BKN,OVC,M,M,8000.00,9500.00,M,M,M,M,M,M,M,M,M,51.80,KBVU 220515Z AUTO 17016G22KT 10SM BKN080 OVC095 11/04 A2966 RMK AO2,M
CXP,2023-03-22 05:15,-119.7326,39.1923,1431.00,33.80,30.20,86.49,100.00,4.00,0.00,29.57,M,10.00,M,OVC,M,M,M,5500.00,M,M,M,M,M,M,M,M,M,M,29.52,KCXP 220515Z AUTO 10004KT 10SM OVC055 01/M01 A2957 RMK AO2,M
RTS,2023-03-22 05:15,-119.8764,39.6682,1539.00,32.00,30.20,92.97,90.00,6.00,0.00,29.57,M,10.00,M,FEW,OVC,M,M,2000.00,3800.00,M,M,M,M,M,M,M,M,M,25.53,KRTS 220515Z AUTO 09006KT 10SM FEW020 OVC038 00/M01 A2957 RMK AO2,M
05U,2023-03-22 05:15,-116.0051,39.6042,1811.23,32.00,32.00,100.00,0.00,0.00,0.00,29.56,M,10.00,M,OVC,M,M,M,3400.00,M,M,M,M,M,M,M,M,M,M,32.00,K05U 220515Z AUTO 00000KT 10SM OVC034 00/00 A2956 RMK A01,M
MEV,2023-03-22 05:15,-119.7500,38.9963,1441.42,33.80,32.00,93.03,0.00,0.00,0.00,29.55,M,10.00,M,FEW,BKN,OVC,M,1500.00,4200.00,4800.00,M,M,M,M,M,M,M,M,33.80,KMEV 220515Z AUTO 00000KT 10SM FEW015 BKN042 OVC048 01/M00 A2955 RMK AO2,M
BAM,2023-03-22 05:15,-116.8743,40.5990,1382.36,33.80,33.80,100.00,350.00,6.00,0.00,29.55,M,10.00,M,SCT,OVC,M,M,300.00,3000.00,M,M,M,M,M,M,M,M,M,27.70,KBAM 220515Z AUTO 35006KT 10SM SCT003 OVC030 01/01 A2955 RMK AO1,M
HTH,2023-03-22 05:15,-118.6315,38.5448,1282.89,35.60,32.00,86.59,310.00,7.00,0.00,29.55,M,10.00,M,FEW,FEW,SCT,M,2400.00,4000.00,6500.00,M,M,M,M,M,M,M,M,29.17,KHTH 220515Z AUTO 31007KT 10SM FEW024 FEW040 SCT065 02/00 A2955 RMK A01,M
TMT,2023-03-22 05:15,-117.1971,39.4643,1749.34,27.90,27.30,97.56,0.00,0.00,0.00,29.55,M,10.00,M,SCT,SCT,M,M,5000.00,7500.00,M,M,M,M,M,M,M,M,M,27.90,KTMT 220515Z AUTO 00000KT 10SM SCT050 SCT075 M02/M03 A2955 RMK AO2 T10231026,M
ELY,2023-03-22 05:25,-114.8453,39.2950,1909.00,32.00,28.90,88.17,170.00,10.00,T,29.57,M,2.50,M,OVC,M,M,M,2700.00,M,M,M,-SN BR,M,M,M,M,M,M,22.97,KELY 220525Z AUTO 17010KT 2 1/2SM -SN BR OVC027 00/M02 A2957 RMK AO2 P0000 T00001017 $,M
EKO,2023-03-22 05:31,-115.7860,40.8242,1367.00,32.00,30.90,95.65,0.00,0.00,0.02,29.54,M,1.25,M,OVC,M,M,M,500.00,M,M,M,-SN BR,M,M,M,M,M,M,32.00,KEKO 220531Z AUTO 00000KT 1 1/4SM -SN BR OVC005 00/M01 A2954 RMK AO2 P0002 T00001006,M
ELY,2023-03-22 05:34,-114.8453,39.2950,1909.00,32.00,28.90,86.39,180.00,10.00,T,29.56,M,7.00,M,FEW,BKN,OVC,M,2400.00,2900.00,3600.00,M,-SN,M,M,M,M,M,M,22.97,KELY 220534Z AUTO 18010KT 7SM -SN FEW024 BKN029 OVC036 00/M02 A2956 RMK AO2 P0000 T00001017 $,M
BVU,2023-03-22 05:35,-114.8611,35.9475,671.00,51.80,37.40,57.77,170.00,13.00,0.00,29.66,M,10.00,M,BKN,OVC,M,M,7500.00,9500.00,M,M,M,M,M,M,M,M,M,51.80,KBVU 220535Z AUTO 17013KT 10SM BKN075 OVC095 11/03 A2966 RMK AO2,M
CXP,2023-03-22 05:35,-119.7326,39.1923,1431.00,35.60,30.20,80.51,60.00,6.00,0.00,29.57,M,10.00,M,FEW,OVC,M,M,2800.00,5500.00,M,M,M,M,M,M,M,M,M,29.87,KCXP 220535Z AUTO 06006KT 10SM FEW028 OVC055 02/M01 A2957 RMK AO2,M
RTS,2023-03-22 05:35,-119.8764,39.6682,1539.00,32.00,30.20,92.97,80.00,5.00,0.00,29.57,M,10.00,M,BKN,BKN,OVC,M,3700.00,5500.00,6500.00,M,M,M,M,M,M,M,M,26.40,KRTS 220535Z AUTO 08005KT 10SM BKN037 BKN055 OVC065 00/M01 A2957 RMK AO2,M
05U,2023-03-22 05:35,-116.0051,39.6042,1811.23,32.00,32.00,100.00,M,M,0.00,29.57,M,7.00,M,SCT,OVC,M,M,2900.00,3500.00,M,M,M,M,M,M,M,M,M,M,K05U 220535Z AUTO 7SM SCT029 OVC035 M00/00 A2957 RMK A01,M
MEV,2023-03-22 05:35,-119.7500,38.9963,1441.42,33.80,32.00,93.03,0.00,0.00,0.00,29.56,M,10.00,M,SCT,OVC,M,M,4100.00,4800.00,M,M,UP,M,M,M,M,M,M,33.80,KMEV 220535Z AUTO 00000KT 10SM UP SCT041 OVC048 01/M00 A2956 RMK AO2,M
BAM,2023-03-22 05:35,-116.8743,40.5990,1382.36,33.80,33.80,100.00,340.00,3.00,0.00,29.56,M,7.00,M,OVC,M,M,M,300.00,M,M,M,M,M,M,M,M,M,M,30.75,KBAM 220535Z AUTO 34003KT 7SM OVC003 01/01 A2956 RMK AO1,M
HTH,2023-03-22 05:35,-118.6315,38.5448,1282.89,35.60,32.00,86.59,310.00,7.00,0.00,29.55,M,10.00,M,CLR,M,M,M,M,M,M,M,M,M,M,M,M,M,M,29.17,KHTH 220535Z AUTO 31007KT 10SM CLR 02/00 A2955 RMK A01,M
TMT,2023-03-22 05:35,-117.1971,39.4643,1749.34,28.40,27.90,97.97,0.00,0.00,0.00,29.55,M,10.00,M,BKN,BKN,M,M,6000.00,7500.00,M,M,M,M,M,M,M,M,M,28.40,KTMT 220535Z AUTO 00000KT 10SM BKN060 BKN075 M02/M02 A2955 RMK AO2 T10201023,M
INS,2023-03-22 05:49,-115.6733,36.5872,955.00,42.80,37.40,81.07,250.00,13.00,0.00,29.63,1002.20,10.00,M,BKN,OVC,M,M,2300.00,4000.00,M,M,-RA,M,M,M,M,M,M,35.40,KINS 220549Z AUTO 25013KT 10SM -RA BKN023 OVC040 06/03 A2963 RMK AO2 RAB0459 BKN V FEW SLP022 $,M
HTH,2023-03-22 05:50,-118.6315,38.5448,1282.89,35.60,32.00,86.59,310.00,8.00,0.00,29.55,M,10.00,M,CLR,M,M,M,M,M,M,M,M,M,M,M,M,M,M,28.55,KHTH 220550Z AUTO 31008KT 10SM CLR 02/00 A2955 RMK A01,M
P68,2023-03-22 05:53,-116.0056,39.6014,1993.00,32.00,30.00,92.22,10.00,5.00,0.00,29.55,1000.00,M,M,M,M,M,M,M,M,M,M,M,M,M,M,M,M,M,26.40,KP68 220553Z AUTO 01005KT 00/M01 A2955 RMK AO1 SLP000 60016 T00001011 10028 21006 53015,M
DRA,2023-03-22 05:53,-116.0278,36.6206,1009.00,39.00,36.00,88.87,190.00,11.00,0.14,29.65,1003.00,7.00,M,OVC,M,M,M,2100.00,M,M,M,RA,M,M,M,M,M,M,31.31,KDRA 220553Z AUTO 19011KT 7SM RA OVC021 04/02 A2965 RMK AO2 SLP030 P0014 60022 T00390022 10106 20039 53012,M
ELY,2023-03-22 05:53,-114.8453,39.2950,1909.00,32.00,28.00,84.98,150.00,17.00,T,29.57,1000.90,10.00,26.00,OVC,M,M,M,3200.00,M,M,M,M,M,M,M,26.00,150.00,2023-03-22 05:46,20.08,KELY 220553Z AUTO 15017G26KT 10SM OVC032 00/M02 A2957 RMK AO2 PK WND 15026/0546 SNE38 SLP009 P0000 60017 T00001022 10011 21006 53004 $,M
LOL,2023-03-22 05:53,-118.5701,40.0684,1192.43,36.00,34.00,92.35,350.00,4.00,0.00,29.57,1001.50,10.00,M,OVC,M,M,M,3000.00,M,M,M,M,M,M,M,M,M,M,32.09,KLOL 220553Z AUTO 35004KT 10SM OVC030 02/01 A2957 RMK AO2 SLP015 60005 T00220011 10050 20017 51010,M
VGT,2023-03-22 05:53,-115.1933,36.2111,667.00,54.00,35.00,48.65,210.00,13.00,T,29.63,1004.50,10.00,19.00,BKN,OVC,M,M,5000.00,7000.00,M,M,-RA,M,M,M,M,M,M,54.00,KVGT 220553Z AUTO 21013G19KT 10SM -RA BKN050 OVC070 12/02 A2963 RMK AO2 RAB51 SLP045 P0000 60001 T01220017 10150 20117 51010,M
BVU,2023-03-22 05:55,-114.8611,35.9475,671.00,53.60,33.80,46.88,200.00,20.00,0.00,29.65,M,10.00,31.00,OVC,M,M,M,7500.00,M,M,M,M,M,M,M,M,M,M,53.60,KBVU 220555Z AUTO 20020G31KT 10SM OVC075 12/01 A2965 RMK AO2,M
CXP,2023-03-22 05:55,-119.7326,39.1923,1431.00,35.60,30.20,80.51,60.00,7.00,0.00,29.58,M,10.00,M,BKN,OVC,M,M,3000.00,5500.00,M,M,M,M,M,M,M,M,M,29.17,KCXP 220555Z AUTO 06007KT 10SM BKN030 OVC055 02/M01 A2958 RMK AO2,M
RNO,2023-03-22 05:55,-119.7711,39.4839,1341.00,36.00,30.00,78.60,50.00,5.00,0.00,29.57,1001.00,10.00,M,BKN,BKN,M,M,3200.00,5000.00,M,M,M,M,M,M,M,M,M,31.15,KRNO 220555Z 05005KT 10SM BKN032 BKN050 02/M01 A2957 RMK AO2 SLP010 T00221011 10039 20022 51012 $,M
RTS,2023-03-22 05:55,-119.8764,39.6682,1539.00,32.00,30.20,92.97,80.00,6.00,0.00,29.57,M,10.00,M,OVC,M,M,M,6500.00,M,M,M,M,M,M,M,M,M,M,25.53,KRTS 220555Z AUTO 08006KT 10SM OVC065 M00/M01 A2957 RMK AO2,M
05U,2023-03-22 05:55,-116.0051,39.6042,1811.23,32.00,32.00,100.00,0.00,0.00,0.04,29.58,M,10.00,M,FEW,BKN,OVC,M,300.00,3000.00,4600.00,M,M,M,M,M,M,M,M,32.00,K05U 220555Z AUTO 00000KT 10SM FEW003 BKN030 OVC046 00/00 A2958 RMK A01 P0004,M
MEV,2023-03-22 05:55,-119.7500,38.9963,1441.42,33.80,32.00,93.03,0.00,0.00,0.00,29.56,M,10.00,M,FEW,SCT,BKN,M,1500.00,2600.00,3200.00,M,M,M,M,M,M,M,M,33.80,KMEV 220555Z AUTO 00000KT 10SM FEW015 SCT026 BKN032 01/M00 A2956 RMK AO2,M
BAM,2023-03-22 05:55,-116.8743,40.5990,1382.36,33.80,33.80,100.00,350.00,4.00,0.00,29.55,M,7.00,M,OVC,M,M,M,300.00,M,M,M,M,M,M,M,M,M,M,29.52,KBAM 220555Z AUTO 35004KT 7SM OVC003 01/01 A2955 RMK AO1,M
TMT,2023-03-22 05:55,-117.1971,39.4643,1749.34,27.30,26.60,97.15,0.00,0.00,0.00,29.56,M,10.00,M,SCT,SCT,M,M,5500.00,7500.00,M,M,M,M,M,M,M,M,M,27.30,KTMT 220555Z AUTO 00000KT 10SM SCT055 SCT075 M03/M03 A2956 RMK AO2 T10261030 10035 21026,M
LSV,2023-03-22 05:55,-115.0343,36.2362,570.00,55.00,36.70,49.98,160.00,17.00,0.00,29.60,1001.70,10.00,M,FEW,SCT,M,M,7000.00,9000.00,M,M,M,M,M,M,M,M,M,55.00,KLSV 220555Z AUTO 16017KT 10SM FEW070 SCT090 13/03 A2960 RMK AO2 SLP017 T01280026 10151 20126 50004 $,M
INS,2023-03-22 05:55,-115.6733,36.5872,955.00,42.60,38.00,83.97,260.00,11.00,0.01,29.63,1002.20,10.00,M,BKN,OVC,M,M,2300.00,4400.00,M,M,-RA,M,M,M,M,M,M,35.86,KINS 220555Z AUTO 26011KT 10SM -RA BKN023 OVC044 06/03 A2963 RMK AO2 RAB0459 SLP022 P0001 60002 T00590034 10103 20059 53013 $,M
EKO,2023-03-22 05:56,-115.7860,40.8242,1367.00,32.00,30.90,95.65,230.00,3.00,0.04,29.54,1000.90,1.25,M,BKN,OVC,M,M,500.00,1100.00,M,M,-SN BR,M,M,M,M,M,M,28.69,KEKO 220556Z AUTO 23003KT 1 1/4SM -SN BR BKN005 OVC011 00/M01 A2954 RMK AO2 SLP009 P0004 60005 T00001006 10039 20000 51009,M
WMC,2023-03-22 05:56,-117.8072,40.9019,1315.00,34.00,30.90,88.27,50.00,4.00,0.01,29.54,1000.20,7.00,M,OVC,M,M,M,1100.00,M,M,M,-SN,M,M,M,M,M,M,29.76,KWMC 220556Z AUTO 05004KT 7SM -SN OVC011 01/M01 A2954 RMK AO2 SLP002 P0001 60010 T00111006 10028 20006 52006,M
HND,2023-03-22 05:56,-115.1344,35.9729,742.79,52.00,34.00,50.12,200.00,19.00,T,29.63,1004.70,10.00,M,FEW,BKN,BKN,M,6000.00,7000.00,9000.00,M,-RA,M,M,M,27.00,200.00,2023-03-22 05:39,52.00,KHND 220556Z AUTO 20019KT 10SM -RA FEW060 BKN070 BKN090 11/01 A2963 RMK AO2 PK WND 20027/0539 RAB43 SLP047 P0000 60000 T01110011 10150 20106 50003,M
TPH,2023-03-22 05:56,-117.0904,38.0505,1654.00,34.00,32.00,92.29,160.00,11.00,T,29.55,1000.60,9.00,M,SCT,BKN,OVC,M,1200.00,1900.00,3700.00,M,-SN,M,M,M,26.00,170.00,2023-03-22 05:04,24.99,KTPH 220556Z AUTO 16011KT 9SM -SN SCT012 BKN019 OVC037 01/00 A2955 RMK AO2 PK WND 17026/0504 UPE00SNB07 SLP006 P0000 60000 T00110000 10039 20011 53003,M
LAS,2023-03-22 05:56,-115.1634,36.0719,663.00,53.00,36.00,52.11,240.00,17.00,0.00,29.63,1002.50,10.00,27.00,FEW,BKN,OVC,M,5000.00,7000.00,11000.00,M,M,M,M,M,27.00,240.00,2023-03-22 05:55,53.10,KLAS 220556Z 24017G27KT 10SM FEW050 BKN070 OVC110 12/02 A2963 RMK AO2 PK WND 24027/0555 SLP025 MTNS OBSCURED DSNT W 60000 T01170022 10156 20117 51007,M
NFL,2023-03-22 05:56,-118.7010,39.4166,1199.00,36.00,33.00,89.09,320.00,3.00,0.00,29.57,999.90,8.00,M,SCT,M,M,M,3000.00,M,M,M,M,M,M,M,M,M,M,33.26,KNFL 220556Z 32003KT 8SM SCT030 02/01 A2957 RMK AO2 SLP999 T00220006 10028 20011 51017,M
LOL,2023-03-22 06:01,-118.5701,40.0684,1192.43,36.00,34.00,92.35,20.00,5.00,0.00,29.57,M,10.00,M,OVC,M,M,M,2900.00,M,M,M,M,M,M,M,M,M,M,31.15,KLOL 220601Z AUTO 02005KT 10SM OVC029 02/01 A2957 RMK AO2 T00220011,M
TPH,2023-03-22 06:02,-117.0904,38.0505,1654.00,34.00,32.00,92.29,170.00,13.00,T,29.55,M,9.00,M,FEW,BKN,OVC,M,700.00,1100.00,2800.00,M,-SN,M,M,M,M,M,M,24.13,KTPH 220602Z AUTO 17013KT 9SM -SN FEW007 BKN011 OVC028 01/00 A2955 RMK AO2 P0000 T00110000,M
LAS,2023-03-22 06:09,-115.1634,36.0719,663.00,50.00,38.00,62.98,240.00,17.00,T,29.64,M,10.00,24.00,FEW,BKN,OVC,M,4900.00,8000.00,10000.00,M,-RA,M,M,M,M,M,M,50.00,KLAS 220609Z 24017G24KT 10SM -RA FEW049 BKN080 OVC100 10/03 A2964 RMK AO2 WSHFT 0549 RAB0557 P0000 T01000033,M
NFL,2023-03-22 06:12,-118.7010,39.4166,1199.00,36.00,34.00,92.35,310.00,5.00,0.00,29.56,M,8.00,M,BKN,OVC,M,M,1100.00,9000.00,M,M,M,M,M,M,M,M,M,31.15,KNFL 220612Z AUTO 31005KT 8SM BKN011 OVC090 02/01 A2956 RMK AO2 T00220011,M
BVU,2023-03-22 06:15,-114.8611,35.9475,671.00,53.60,33.80,46.88,190.00,23.00,0.00,29.65,M,10.00,29.00,OVC,M,M,M,7500.00,M,M,M,M,M,M,M,M,M,M,53.60,KBVU 220615Z AUTO 19023G29KT 10SM OVC075 12/01 A2965 RMK AO2,M
CXP,2023-03-22 06:15,-119.7326,39.1923,1431.00,35.60,30.20,80.51,40.00,5.00,0.00,29.58,M,10.00,M,BKN,BKN,OVC,M,3200.00,4100.00,6000.00,M,M,M,M,M,M,M,M,30.67,KCXP 220615Z AUTO 04005KT 10SM BKN032 BKN041 OVC060 02/M01 A2958 RMK AO2,M
EKO,2023-03-22 06:15,-115.7860,40.8242,1367.00,32.00,30.90,95.65,240.00,3.00,0.01,29.55,M,1.50,M,FEW,BKN,OVC,M,100.00,1300.00,1900.00,M,-SN BR,M,M,M,M,M,M,28.69,KEKO 220615Z AUTO 24003KT 1 1/2SM -SN BR FEW001 BKN013 OVC019 00/M01 A2955 RMK AO2 P0001 T00001006,M
RTS,2023-03-22 06:15,-119.8764,39.6682,1539.00,32.00,30.20,92.97,0.00,0.00,0.00,29.58,M,10.00,M,FEW,SCT,BKN,M,2600.00,5500.00,7000.00,M,M,M,M,M,M,M,M,32.00,KRTS 220615Z AUTO 00000KT 10SM FEW026 SCT055 BKN070 M00/M01 A2958 RMK AO2,M
05U,2023-03-22 06:15,-116.0051,39.6042,1811.23,30.20,32.00,M,M,M,0.00,29.57,M,10.00,M,SCT,BKN,OVC,M,3100.00,4500.00,6500.00,M,M,M,M,M,M,M,M,M,K05U 220615Z AUTO 10SM SCT031 BKN045 OVC065 M01/M00 A2957 RMK A01,M
MEV,2023-03-22 06:15,-119.7500,38.9963,1441.42,33.80,32.00,93.03,0.00,0.00,0.00,29.57,M,2.00,M,FEW,SCT,BKN,M,400.00,1700.00,2200.00,M,-RA BR,M,M,M,M,M,M,33.80,KMEV 220615Z AUTO 00000KT 2SM -RA BR FEW004 SCT017 BKN022 01/M00 A2957 RMK AO2 VIS 1 1/4V3,M
BAM,2023-03-22 06:15,-116.8743,40.5990,1382.36,33.80,33.80,100.00,0.00,0.00,0.00,29.56,M,5.00,M,OVC,M,M,M,300.00,M,M,M,M,M,M,M,M,M,M,33.80,KBAM 220615Z AUTO 00000KT 5SM OVC003 01/01 A2956 RMK AO1,M
HTH,2023-03-22 06:15,-118.6315,38.5448,1282.89,35.60,32.00,86.59,330.00,10.00,0.00,29.56,M,10.00,M,CLR,M,M,M,M,M,M,M,M,M,M,M,M,M,M,27.48,KHTH 220615Z AUTO 33010KT 10SM CLR 02/00 A2956 RMK A01,M
TMT,2023-03-22 06:15,-117.1971,39.4643,1749.34,27.30,26.60,97.15,0.00,0.00,0.00,29.57,M,10.00,M,SCT,SCT,M,M,5500.00,6500.00,M,M,M,M,M,M,M,M,M,27.30,KTMT 220615Z AUTO 00000KT 10SM SCT055 SCT065 M03/M03 A2957 RMK AO2 T10261030,M
TPH,2023-03-22 06:16,-117.0904,38.0505,1654.00,33.00,32.00,95.67,160.00,6.00,T,29.55,M,2.50,M,OVC,M,M,M,800.00,M,M,M,-SN BR,M,M,M,M,M,M,26.86,KTPH 220616Z AUTO 16006KT 2 1/2SM -SN BR OVC008 01/00 A2955 RMK AO2 P0000 T00060000,M
LSV,2023-03-22 06:19,-115.0343,36.2362,570.00,55.40,37.40,50.64,220.00,12.00,0.00,29.62,1002.40,10.00,M,BKN,BKN,M,M,5500.00,7000.00,M,M,M,M,M,M,M,M,M,55.40,KLSV 220619Z AUTO 22012KT 10SM BKN055 BKN070 13/03 A2962 RMK AO2 WSHFT 06 SLP024 $,M
TPH,2023-03-22 06:28,-117.0904,38.0505,1654.00,33.00,32.00,95.67,160.00,6.00,T,29.55,M,6.00,M,OVC,M,M,M,800.00,M,M,M,-SN BR,M,M,M,M,M,M,26.86,KTPH 220628Z AUTO 16006KT 6SM -SN BR OVC008 01/00 A2955 RMK AO2 P0000 T00060000,M
INS,2023-03-22 06:30,-115.6733,36.5872,955.00,41.00,39.20,93.24,280.00,5.00,0.00,29.64,1002.50,8.00,M,BKN,BKN,OVC,M,400.00,1400.00,2100.00,M,-RA BR,M,M,M,M,M,M,37.08,KINS 220630Z AUTO 28005KT 8SM -RA BR BKN004 BKN014 OVC021 05/04 A2964 RMK AO2 BKN004 V FEW SLP025 $,M
ELY,2023-03-22 06:30,-114.8453,39.2950,1909.00,32.00,28.90,88.17,180.00,5.00,T,29.58,M,1.00,23.00,FEW,BKN,OVC,M,700.00,2500.00,7000.00,M,-SN BR,M,M,M,M,M,M,26.40,KELY 220630Z AUTO 18005G23KT 1SM -SN BR FEW007 BKN025 OVC070 00/M02 A2958 RMK AO2 SNB14 P0000 T00001017 $,M
EKO,2023-03-22 06:33,-115.7860,40.8242,1367.00,32.00,30.90,95.65,0.00,0.00,0.02,29.54,M,0.75,M,SCT,OVC,M,M,200.00,900.00,M,M,-SN BR,M,M,M,M,M,M,32.00,KEKO 220633Z AUTO 00000KT 3/4SM -SN BR SCT002 OVC009 00/M01 A2954 RMK AO2 P0002 T00001006,M
BVU,2023-03-22 06:35,-114.8611,35.9475,671.00,53.60,33.80,46.88,200.00,25.00,0.00,29.65,M,10.00,32.00,FEW,OVC,M,M,5500.00,7000.00,M,M,M,M,M,M,M,M,M,53.60,KBVU 220635Z AUTO 20025G32KT 10SM FEW055 OVC070 12/01 A2965 RMK AO2,M
CXP,2023-03-22 06:35,-119.7326,39.1923,1431.00,35.60,30.20,80.51,0.00,0.00,0.00,29.58,M,10.00,M,BKN,BKN,OVC,M,3000.00,3500.00,6000.00,M,M,M,M,M,M,M,M,35.60,KCXP 220635Z AUTO 00000KT 10SM BKN030 BKN035 OVC060 02/M01 A2958 RMK AO2,M
RTS,2023-03-22 06:35,-119.8764,39.6682,1539.00,32.00,32.00,100.00,140.00,4.00,0.00,29.58,M,10.00,M,FEW,SCT,BKN,M,600.00,1100.00,2600.00,M,M,M,M,M,M,M,M,27.42,KRTS 220635Z AUTO 14004KT 10SM FEW006 SCT011 BKN026 M00/M00 A2958 RMK AO2,M
05U,2023-03-22 06:35,-116.0051,39.6042,1811.23,30.20,30.20,100.00,60.00,4.00,0.00,29.58,M,10.00,M,FEW,OVC,M,M,5500.00,6500.00,M,M,M,M,M,M,M,M,M,25.32,K05U 220635Z AUTO 06004KT 10SM FEW055 OVC065 M01/M01 A2958 RMK A01,M
MEV,2023-03-22 06:35,-119.7500,38.9963,1441.42,33.80,32.00,93.03,0.00,0.00,0.00,29.57,M,3.00,M,FEW,BKN,OVC,M,400.00,1700.00,2700.00,M,-RA BR,M,M,M,M,M,M,33.80,KMEV 220635Z AUTO 00000KT 3SM -RA BR FEW004 BKN017 OVC027 01/M00 A2957 RMK AO2,M
BAM,2023-03-22 06:35,-116.8743,40.5990,1382.36,33.80,33.80,100.00,180.00,4.00,0.00,29.58,M,7.00,M,OVC,M,M,M,300.00,M,M,M,M,M,M,M,M,M,M,29.52,KBAM 220635Z AUTO 18004KT 7SM OVC003 01/01 A2958 RMK AO1,M
HTH,2023-03-22 06:35,-118.6315,38.5448,1282.89,35.60,32.00,86.59,310.00,9.00,0.00,29.57,M,10.00,M,SCT,M,M,M,2200.00,M,M,M,M,M,M,M,M,M,M,27.99,KHTH 220635Z AUTO 31009KT 10SM SCT022 02/M00 A2957 RMK A01,M
TMT,2023-03-22 06:35,-117.1971,39.4643,1749.34,27.50,26.60,96.36,0.00,0.00,0.00,29.56,M,10.00,M,OVC,M,M,M,5500.00,M,M,M,M,M,M,M,M,M,M,27.50,KTMT 220635Z AUTO 00000KT 10SM OVC055 M02/M03 A2956 RMK AO2 T10251030,M
DRA,2023-03-22 06:36,-116.0278,36.6206,1009.00,40.00,35.00,82.80,190.00,14.00,0.08,29.65,M,10.00,23.00,FEW,OVC,M,M,1200.00,3800.00,M,M,M,M,M,M,29.00,190.00,2023-03-22 06:24,31.35,KDRA 220636Z AUTO 19014G23KT 10SM FEW012 OVC038 04/02 A2965 RMK AO2 PK WND 19029/0624 RAE35 P0008 T00440017,M
EKO,2023-03-22 06:46,-115.7860,40.8242,1367.00,32.00,30.90,95.65,0.00,0.00,0.04,29.54,M,1.75,M,SCT,OVC,M,M,200.00,900.00,M,M,-SN BR,M,M,M,M,M,M,32.00,KEKO 220646Z AUTO 00000KT 1 3/4SM -SN BR SCT002 OVC009 00/M01 A2954 RMK AO2 P0004 T00001006,M
NFL,2023-03-22 06:48,-118.7010,39.4166,1199.00,36.00,33.00,89.09,0.00,0.00,0.00,29.57,M,8.00,M,BKN,BKN,OVC,M,800.00,1200.00,2600.00,M,M,M,M,M,M,M,M,36.00,KNFL 220648Z AUTO 00000KT 8SM BKN008 BKN012 OVC026 02/01 A2957 RMK AO2 CIG 007V010 T00220006,M
WMC,2023-03-22 06:49,-117.8072,40.9019,1315.00,33.00,30.90,91.51,140.00,3.00,T,29.56,M,10.00,M,OVC,M,M,M,900.00,M,M,M,M,M,M,M,M,M,M,29.95,KWMC 220649Z AUTO 14003KT 10SM OVC009 01/M01 A2956 RMK AO2 SNE05 CIG 006V010 P0000 T00061006,M
EKO,2023-03-22 06:50,-115.7860,40.8242,1367.00,32.00,30.20,92.97,0.00,0.00,0.04,29.54,M,3.00,M,SCT,OVC,M,M,200.00,900.00,M,M,-SN BR,M,M,M,M,M,M,32.00,KEKO 220650Z AUTO 00000KT 3SM -SN BR SCT002 OVC009 00/M01 A2954 RMK AO2 P0004,M
ELY,2023-03-22 06:51,-114.8453,39.2950,1909.00,30.20,30.20,100.00,340.00,3.00,0.02,29.57,M,2.00,M,FEW,BKN,OVC,M,800.00,1500.00,2100.00,M,-SN BR,M,M,M,M,M,M,26.63,KELY 220651Z AUTO 34003KT 2SM -SN BR FEW008 BKN015 OVC021 M01/M01 A2957 RMK AO2 SNB14 P0002 $,M
LSV,2023-03-22 06:51,-115.0343,36.2362,570.00,53.60,39.20,58.02,230.00,21.00,0.00,29.63,1002.70,10.00,27.00,BKN,M,M,M,5000.00,M,M,M,-RA,M,M,M,M,M,M,53.60,KLSV 220651Z AUTO 23021G27KT 10SM -RA BKN050 12/04 A2963 RMK AO2 RAB51 SLP027 $,M
P68,2023-03-22 06:53,-116.0056,39.6014,1993.00,28.90,27.00,92.49,90.00,7.00,0.00,29.55,999.80,M,M,M,M,M,M,M,M,M,M,M,M,M,M,M,M,M,21.00,KP68 220653Z AUTO 09007KT M02/M03 A2955 RMK AO1 SLP998 T10171028,M
ELY,2023-03-22 06:53,-114.8453,39.2950,1909.00,30.90,30.00,96.41,290.00,3.00,0.02,29.57,1000.70,2.50,M,FEW,OVC,M,M,800.00,1800.00,M,M,-SN BR,M,M,M,M,M,M,27.43,KELY 220653Z AUTO 29003KT 2 1/2SM -SN BR FEW008 OVC018 M01/M01 A2957 RMK AO2 SNB14 SLP007 P0002 T10061011 $,M
DRA,2023-03-22 06:53,-116.0278,36.6206,1009.00,41.00,33.00,73.25,180.00,16.00,0.08,29.64,1002.60,10.00,35.00,BKN,OVC,M,M,3900.00,5000.00,M,M,-RA,M,M,M,35.00,180.00,2023-03-22 06:50,32.15,KDRA 220653Z AUTO 18016G35KT 10SM -RA BKN039 OVC050 05/01 A2964 RMK AO2 PK WND 18035/0650 RAE35B51 SLP026 P0008 T00500006,M
VGT,2023-03-22 06:53,-115.1933,36.2111,667.00,50.00,40.00,68.10,240.00,6.00,0.03,29.66,1005.80,10.00,M,OVC,M,M,M,4000.00,M,M,M,-RA,M,M,M,29.00,210.00,2023-03-22 05:58,50.00,KVGT 220653Z AUTO 24006KT 10SM -RA OVC040 10/04 A2966 RMK AO2 PK WND 21029/0558 SLP058 P0003 T01000044,M
LOL,2023-03-22 06:53,-118.5701,40.0684,1192.43,35.00,33.00,92.32,0.00,0.00,0.00,29.58,1001.80,10.00,M,SCT,OVC,M,M,2000.00,2900.00,M,M,M,M,M,M,M,M,M,35.10,KLOL 220653Z AUTO 00000KT 10SM SCT020 OVC029 02/01 A2958 RMK AO2 SLP018 T00170006,M
BVU,2023-03-22 06:55,-114.8611,35.9475,671.00,53.60,35.60,50.36,200.00,22.00,0.00,29.66,M,10.00,35.00,SCT,BKN,OVC,M,5000.00,6000.00,7000.00,M,M,M,M,M,M,M,M,53.60,KBVU 220655Z AUTO 20022G35KT 10SM SCT050 BKN060 OVC070 12/02 A2966 RMK AO2,M
CXP,2023-03-22 06:55,-119.7326,39.1923,1431.00,33.80,30.20,86.49,0.00,0.00,0.00,29.58,M,10.00,M,SCT,OVC,M,M,3000.00,3600.00,M,M,M,M,M,M,M,M,M,33.80,KCXP 220655Z AUTO 00000KT 10SM SCT030 OVC036 01/M01 A2958 RMK AO2,M
INS,2023-03-22 06:55,-115.6733,36.5872,955.00,41.40,39.20,91.81,280.00,8.00,0.10,29.66,1003.20,10.00,M,BKN,BKN,OVC,M,400.00,1300.00,2000.00,M,-RA,M,M,M,M,M,M,35.69,KINS 220655Z AUTO 28008KT 10SM -RA BKN004 BKN013 OVC020 05/04 A2966 RMK AO2 SLP032 P0010 T00520040 $,M
RNO,2023-03-22 06:55,-119.7711,39.4839,1341.00,36.00,30.00,78.60,40.00,5.00,0.00,29.57,1001.50,10.00,M,BKN,BKN,M,M,3600.00,9500.00,M,M,M,M,M,M,M,M,M,31.15,KRNO 220655Z 04005KT 10SM BKN036 BKN095 02/M01 A2957 RMK AO2 SLP015 T00221011 $,M
RTS,2023-03-22 06:55,-119.8764,39.6682,1539.00,32.00,32.00,100.00,0.00,0.00,0.00,29.58,M,10.00,M,BKN,BKN,OVC,M,900.00,1300.00,2600.00,M,M,M,M,M,M,M,M,32.00,KRTS 220655Z AUTO 00000KT 10SM BKN009 BKN013 OVC026 00/M00 A2958 RMK AO2,M
05U,2023-03-22 06:55,-116.0051,39.6042,1811.23,28.40,28.40,100.00,90.00,5.00,0.01,29.57,M,10.00,M,FEW,SCT,M,M,5000.00,6500.00,M,M,M,M,M,M,M,M,M,22.12,K05U 220655Z AUTO 09005KT 10SM FEW050 SCT065 M02/M02 A2957 RMK A01 P0001,M
MEV,2023-03-22 06:55,-119.7500,38.9963,1441.42,33.80,32.00,93.03,0.00,0.00,0.00,29.57,M,6.00,M,BKN,BKN,OVC,M,1900.00,3800.00,7500.00,M,-RA BR,M,M,M,M,M,M,33.80,KMEV 220655Z AUTO 00000KT 6SM -RA BR BKN019 BKN038 OVC075 01/M00 A2957 RMK AO2,M
BAM,2023-03-22 06:55,-116.8743,40.5990,1382.36,33.80,33.80,100.00,180.00,4.00,0.00,29.58,M,7.00,M,OVC,M,M,M,300.00,M,M,M,M,M,M,M,M,M,M,29.52,KBAM 220655Z AUTO 18004KT 7SM OVC003 01/01 A2958 RMK AO1,M
HTH,2023-03-22 06:55,-118.6315,38.5448,1282.89,35.60,32.00,86.59,310.00,10.00,0.00,29.57,M,10.00,M,SCT,OVC,M,M,2200.00,3000.00,M,M,M,M,M,M,M,M,M,27.48,KHTH 220655Z AUTO 31010KT 10SM SCT022 OVC030 02/00 A2957 RMK A01,M
TMT,2023-03-22 06:55,-117.1971,39.4643,1749.34,27.90,26.60,94.78,0.00,0.00,0.00,29.56,M,10.00,M,SCT,BKN,OVC,M,4800.00,6000.00,7500.00,M,M,M,M,M,M,M,M,27.90,KTMT 220655Z AUTO 00000KT 10SM SCT048 BKN060 OVC075 M02/M03 A2956 RMK AO2 T10231030,M
LSV,2023-03-22 06:55,-115.0343,36.2362,570.00,53.40,39.00,58.00,240.00,17.00,T,29.64,1003.10,10.00,27.00,BKN,M,M,M,5000.00,M,M,M,-RA,M,M,M,27.00,230.00,2023-03-22 06:47,53.40,KLSV 220655Z AUTO 24017G27KT 10SM -RA BKN050 12/04 A2964 RMK AO2 PK WND 23027/47 RAB51 SLP031 P0000 T01190039 $,M
EKO,2023-03-22 06:56,-115.7860,40.8242,1367.00,32.00,30.90,95.65,0.00,0.00,0.04,29.54,1000.60,8.00,M,SCT,BKN,OVC,M,200.00,700.00,1200.00,M,M,M,M,M,M,M,M,32.00,KEKO 220656Z AUTO 00000KT 8SM SCT002 BKN007 OVC012 00/M01 A2954 RMK AO2 SNE55 SLP006 P0004 T00001006,M
NFL,2023-03-22 06:56,-118.7010,39.4166,1199.00,36.00,34.00,92.35,0.00,0.00,0.00,29.57,1000.10,9.00,M,BKN,OVC,M,M,800.00,2600.00,M,M,M,M,M,M,M,M,M,36.00,KNFL 220656Z AUTO 00000KT 9SM BKN008 OVC026 02/01 A2957 RMK AO2 CIG 007V012 SLP001 T00220011,M
HND,2023-03-22 06:56,-115.1344,35.9729,742.79,45.00,40.00,82.19,220.00,13.00,0.04,29.70,1007.40,7.00,M,OVC,M,M,M,3600.00,M,M,M,-RA,M,M,M,M,M,M,38.22,KHND 220656Z AUTO 22013KT 7SM -RA OVC036 07/04 A2970 RMK AO2 SLP074 P0004 T00720044 401500072,M
LAS,2023-03-22 06:56,-115.1634,36.0719,663.00,46.00,38.00,73.18,210.00,14.00,0.01,29.67,1004.30,7.00,23.00,OVC,M,M,M,4300.00,M,M,M,-RA VCFG,M,M,M,30.00,220.00,2023-03-22 06:40,39.21,KLAS 220656Z 21014G23KT 7SM -RA VCFG OVC043 08/03 A2967 RMK AO2 PK WND 22030/0640 WSHFT 0549 RAB0557 SLP043 MTNS OBSCURED DSNT S-W-N P0001 T00780033 $,M
WMC,2023-03-22 06:56,-117.8072,40.9019,1315.00,33.00,30.90,91.51,0.00,0.00,T,29.56,1000.70,8.00,M,OVC,M,M,M,700.00,M,M,M,M,M,M,M,M,M,M,33.10,KWMC 220656Z AUTO 00000KT 8SM OVC007 01/M01 A2956 RMK AO2 SNE05 CIG 004V010 SLP007 P0000 T00061006,M
TPH,2023-03-22 06:56,-117.0904,38.0505,1654.00,33.00,32.00,95.67,180.00,10.00,0.01,29.54,1000.20,1.75,M,OVC,M,M,M,800.00,M,M,M,-SN BR,M,M,M,M,M,M,24.35,KTPH 220656Z AUTO 18010KT 1 3/4SM -SN BR OVC008 01/00 A2954 RMK AO2 VIS 1 1/4V5 SLP002 P0001 T00060000,M
LSV,2023-03-22 06:58,-115.0343,36.2362,570.00,51.80,39.20,61.99,240.00,19.00,0.00,29.64,1003.20,10.00,27.00,BKN,M,M,M,4800.00,M,M,M,-RA,M,M,M,M,M,M,51.80,KLSV 220658Z AUTO 24019G27KT 10SM -RA BKN048 11/04 A2964 RMK AO2 SLP032 $,M
ELY,2023-03-22 07:00,-114.8453,39.2950,1909.00,30.90,28.90,92.92,M,4.00,T,29.57,M,3.00,M,FEW,BKN,OVC,M,1000.00,2000.00,2700.00,M,-SN BR,M,M,M,M,M,M,25.32,KELY 220700Z AUTO VRB04KT 3SM -SN BR FEW010 BKN020 OVC027 M01/M02 A2957 RMK AO2 P0000 T10061017 $,M
LSV,2023-03-22 07:01,-115.0343,36.2362,570.00,51.80,39.20,61.99,240.00,22.00,0.00,29.64,1003.20,10.00,M,BKN,M,M,M,4800.00,M,M,M,M,M,M,M,M,M,M,51.80,KLSV 220701Z AUTO 24022KT 10SM BKN048 11/04 A2964 RMK AO2 RAE01 SLP032 $,M
LSV,2023-03-22 07:02,-115.0343,36.2362,570.00,51.80,39.20,61.99,240.00,22.00,0.00,29.64,1003.20,10.00,M,SCT,M,M,M,4700.00,M,M,M,M,M,M,M,M,M,M,51.80,KLSV 220702Z AUTO 24022KT 10SM SCT047 11/04 A2964 RMK AO2 RAE01 SLP032 $,M
EKO,2023-03-22 07:09,-115.7860,40.8242,1367.00,32.00,30.90,95.65,0.00,0.00,0.00,29.55,M,10.00,M,FEW,OVC,M,M,300.00,1200.00,M,M,M,M,M,M,M,M,M,32.00,KEKO 220709Z AUTO 00000KT 10SM FEW003 OVC012 00/M01 A2955 RMK AO2 T00001006,M
ELY,2023-03-22 07:12,-114.8453,39.2950,1909.00,30.90,28.90,92.18,270.00,5.00,T,29.57,M,2.00,M,FEW,BKN,OVC,M,1500.00,2300.00,4500.00,M,-SN BR,M,M,M,M,M,M,25.09,KELY 220712Z AUTO 27005KT 2SM -SN BR FEW015 BKN023 OVC045 M01/M02 A2957 RMK AO2 P0000 T10061017 $,M
BVU,2023-03-22 07:15,-114.8611,35.9475,671.00,51.80,37.40,57.77,200.00,19.00,0.00,29.68,M,10.00,32.00,FEW,BKN,OVC,M,3100.00,4500.00,5000.00,M,M,M,M,M,M,M,M,51.80,KBVU 220715Z AUTO 20019G32KT 10SM FEW031 BKN045 OVC050 11/03 A2968 RMK AO2,M
CXP,2023-03-22 07:15,-119.7326,39.1923,1431.00,33.80,30.20,86.49,0.00,0.00,0.00,29.59,M,10.00,M,BKN,BKN,OVC,M,3800.00,4600.00,7000.00,M,M,M,M,M,M,M,M,33.80,KCXP 220715Z AUTO 00000KT 10SM BKN038 BKN046 OVC070 01/M01 A2959 RMK AO2,M
INS,2023-03-22 07:15,-115.6733,36.5872,955.00,41.00,37.40,86.89,270.00,10.00,0.00,29.66,1003.20,10.00,M,SCT,SCT,OVC,M,400.00,1100.00,2000.00,M,-RA,M,M,M,M,M,M,34.25,KINS 220715Z AUTO 27010KT 10SM -RA SCT004 SCT011 OVC020 05/03 A2966 RMK AO2 SLP032 $,M
RTS,2023-03-22 07:15,-119.8764,39.6682,1539.00,30.20,30.20,100.00,70.00,3.00,0.00,29.58,M,10.00,M,SCT,BKN,OVC,M,900.00,2700.00,8500.00,M,M,M,M,M,M,M,M,26.63,KRTS 220715Z AUTO 07003KT 10SM SCT009 BKN027 OVC085 M01/M01 A2958 RMK AO2,M
05U,2023-03-22 07:15,-116.0051,39.6042,1811.23,26.60,26.60,100.00,M,M,0.00,29.57,M,10.00,M,CLR,M,M,M,M,M,M,M,M,M,M,M,M,M,M,M,K05U 220715Z AUTO 10SM CLR M03/M03 A2957 RMK A01,M
MEV,2023-03-22 07:15,-119.7500,38.9963,1441.42,32.00,32.00,100.00,0.00,0.00,0.00,29.58,M,7.00,M,FEW,SCT,BKN,M,2100.00,4600.00,5500.00,M,-SN,M,M,M,M,M,M,32.00,KMEV 220715Z AUTO 00000KT 7SM -SN FEW021 SCT046 BKN055 00/M00 A2958 RMK AO2,M
BAM,2023-03-22 07:15,-116.8743,40.5990,1382.36,33.80,33.80,100.00,0.00,0.00,0.00,29.58,M,7.00,M,OVC,M,M,M,600.00,M,M,M,M,M,M,M,M,M,M,33.80,KBAM 220715Z AUTO 00000KT 7SM OVC006 01/01 A2958 RMK AO1,M
HTH,2023-03-22 07:15,-118.6315,38.5448,1282.89,35.60,32.00,86.59,330.00,5.00,0.00,29.58,M,10.00,10.00,BKN,OVC,M,M,3000.00,3700.00,M,M,M,M,M,M,M,M,M,30.67,KHTH 220715Z AUTO 33005G10KT 10SM BKN030 OVC037 02/00 A2958 RMK A01,M
TMT,2023-03-22 07:15,-117.1971,39.4643,1749.34,28.00,27.00,95.97,0.00,0.00,0.00,29.57,M,10.00,M,SCT,BKN,OVC,M,4000.00,4900.00,6000.00,M,-SN,M,M,M,M,M,M,28.00,KTMT 220715Z AUTO 00000KT 10SM -SN SCT040 BKN049 OVC060 M02/M03 A2957 RMK AO2 T10221028,M
TPH,2023-03-22 07:19,-117.0904,38.0505,1654.00,32.00,32.00,100.00,230.00,9.00,0.05,29.54,M,0.75,M,VV ,M,M,M,700.00,M,M,M,-SN BR,M,M,M,M,M,M,23.51,KTPH 220719Z AUTO 23009KT 3/4SM -SN BR VV007 00/00 A2954 RMK AO2 P0005 T00000000,M
INS,2023-03-22 07:20,-115.6733,36.5872,955.00,41.00,37.40,86.89,260.00,10.00,0.00,29.67,1003.60,10.00,M,SCT,BKN,OVC,M,400.00,1400.00,2000.00,M,-RA,M,M,M,M,M,M,34.25,KINS 220720Z AUTO 26010KT 10SM -RA SCT004 BKN014 OVC020 05/03 A2967 RMK AO2 SLP036 $,M
ELY,2023-03-22 07:21,-114.8453,39.2950,1909.00,30.90,28.90,92.18,270.00,7.00,T,29.57,M,1.75,M,FEW,BKN,OVC,M,1900.00,2800.00,5000.00,M,-SN BR,M,M,M,M,M,M,23.44,KELY 220721Z AUTO 27007KT 1 3/4SM -SN BR FEW019 BKN028 OVC050 M01/M02 A2957 RMK AO2 P0000 T10061017 $,M
ELY,2023-03-22 07:24,-114.8453,39.2950,1909.00,30.90,28.90,92.18,280.00,7.00,0.01,29.57,M,2.50,M,FEW,BKN,OVC,M,1600.00,3000.00,5000.00,M,-SN BR,M,M,M,M,M,M,23.44,KELY 220724Z AUTO 28007KT 2 1/2SM -SN BR FEW016 BKN030 OVC050 M01/M02 A2957 RMK AO2 P0001 T10061017 $,M
WMC,2023-03-22 07:24,-117.8072,40.9019,1315.00,33.00,30.90,91.51,200.00,4.00,T,29.56,M,9.00,M,SCT,BKN,OVC,M,500.00,3300.00,4900.00,M,-SN,M,M,M,M,M,M,28.70,KWMC 220724Z AUTO 20004KT 9SM -SN SCT005 BKN033 OVC049 01/M01 A2956 RMK AO2 SNB23 P0000 T00061006,M
INS,2023-03-22 07:25,-115.6733,36.5872,955.00,41.00,37.40,86.89,260.00,15.00,0.00,29.66,1003.20,10.00,18.00,SCT,BKN,OVC,M,400.00,1600.00,2200.00,M,-RA,M,M,M,M,M,M,32.45,KINS 220725Z AUTO 26015G18KT 10SM -RA SCT004 BKN016 OVC022 05/03 A2966 RMK AO2 SLP032 $,M
TPH,2023-03-22 07:27,-117.0904,38.0505,1654.00,32.00,32.00,100.00,230.00,10.00,0.07,29.54,M,0.50,M,VV ,M,M,M,500.00,M,M,M,SN FG,M,M,M,M,M,M,22.97,KTPH 220727Z AUTO 23010KT 1/2SM SN FG VV005 00/00 A2954 RMK AO2 P0007 T00000000,M
05U,2023-03-22 07:30,-116.0051,39.6042,1811.23,26.60,26.60,100.00,M,M,0.00,29.57,M,10.00,M,CLR,M,M,M,M,M,M,M,M,M,M,M,M,M,M,M,K05U 220730Z AUTO 10SM CLR M03/M03 A2957 RMK A01,M
TPH,2023-03-22 07:32,-117.0904,38.0505,1654.00,32.00,32.00,100.00,240.00,12.00,0.09,29.54,M,0.25,M,VV ,M,M,M,400.00,M,M,M,+SN FG,M,M,M,M,M,M,22.00,KTPH 220732Z AUTO 24012KT 1/4SM +SN FG VV004 00/00 A2954 RMK AO2 P0009 T00000000,M
BVU,2023-03-22 07:35,-114.8611,35.9475,671.00,50.00,39.20,66.27,230.00,14.00,0.00,29.69,M,10.00,21.00,FEW,BKN,OVC,M,2900.00,3800.00,4300.00,M,M,M,M,M,M,M,M,50.00,KBVU 220735Z AUTO 23014G21KT 10SM FEW029 BKN038 OVC043 10/04 A2969 RMK AO2,M
CXP,2023-03-22 07:35,-119.7326,39.1923,1431.00,33.80,30.20,86.49,0.00,0.00,0.00,29.59,M,10.00,M,SCT,BKN,BKN,M,2500.00,3900.00,4500.00,M,M,M,M,M,M,M,M,33.80,KCXP 220735Z AUTO 00000KT 10SM SCT025 BKN039 BKN045 01/M01 A2959 RMK AO2,M
ELY,2023-03-22 07:35,-114.8453,39.2950,1909.00,30.00,28.90,95.61,300.00,6.00,0.01,29.56,M,M,M,FEW,BKN,OVC,M,1600.00,3200.00,5500.00,M,-SN,M,M,M,M,M,M,23.12,KELY 220735Z AUTO 30006KT -SN FEW016 BKN032 OVC055 M01/M02 A2956 RMK AO2 P0001 T10111017 $,M
RTS,2023-03-22 07:35,-119.8764,39.6682,1539.00,30.20,30.20,100.00,340.00,4.00,0.00,29.58,M,0.25,M,SCT,OVC,M,M,1700.00,8000.00,M,M,FZFG,M,M,M,M,M,M,25.32,KRTS 220735Z AUTO 34004KT 1/4SM FZFG SCT017 OVC080 M01/M01 A2958 RMK AO2,M
MEV,2023-03-22 07:35,-119.7500,38.9963,1441.42,32.00,30.20,92.97,150.00,3.00,0.00,29.58,M,9.00,M,FEW,BKN,OVC,M,2100.00,4500.00,6000.00,M,M,M,M,M,M,M,M,28.69,KMEV 220735Z AUTO 15003KT 9SM FEW021 BKN045 OVC060 M00/M01 A2958 RMK AO2,M
BAM,2023-03-22 07:35,-116.8743,40.5990,1382.36,33.80,33.80,100.00,130.00,3.00,0.00,29.58,M,10.00,M,SCT,BKN,BKN,M,600.00,1000.00,1800.00,M,M,M,M,M,M,M,M,30.75,KBAM 220735Z AUTO 13003KT 10SM SCT006 BKN010 BKN018 01/01 A2958 RMK AO1,M
HTH,2023-03-22 07:35,-118.6315,38.5448,1282.89,35.60,32.00,86.59,310.00,9.00,0.00,29.58,M,10.00,M,OVC,M,M,M,3600.00,M,M,M,M,M,M,M,M,M,M,27.99,KHTH 220735Z AUTO 31009KT 10SM OVC036 02/00 A2958 RMK A01,M
INS,2023-03-22 07:35,-115.6733,36.5872,955.00,41.00,33.80,75.33,260.00,14.00,0.00,29.66,1003.20,10.00,M,FEW,SCT,SCT,BKN,400.00,1500.00,2200.00,3300.00,-DZ,M,M,M,M,M,M,32.76,KINS 220735Z AUTO 26014KT 10SM -DZ FEW004 SCT015 SCT022 BKN033 BKN044 OVC060 05/01 A2966 RMK AO2 RAE32DZB32 SLP032 $,M
TMT,2023-03-22 07:35,-117.1971,39.4643,1749.34,28.40,27.50,96.37,0.00,0.00,0.00,29.56,M,10.00,M,OVC,M,M,M,3800.00,M,M,M,-SN,M,M,M,M,M,M,28.40,KTMT 220735Z AUTO 00000KT 10SM -SN OVC038 M02/M02 A2956 RMK AO2 T10201025,M
LSV,2023-03-22 07:38,-115.0343,36.2362,570.00,48.20,39.20,70.88,210.00,10.00,0.00,29.68,1004.60,10.00,M,FEW,M,M,M,3300.00,M,M,M,-RA,M,M,M,M,M,M,43.28,KLSV 220738Z AUTO 21010KT 10SM -RA FEW033 09/04 A2968 RMK AO2 RAE01RAB38 PRESRR SLP046 $,M
LOL,2023-03-22 07:38,-118.5701,40.0684,1192.43,34.00,33.00,96.46,340.00,4.00,0.00,29.57,M,9.00,M,FEW,SCT,BKN,M,700.00,2300.00,3100.00,M,M,M,M,M,M,M,M,29.76,KLOL 220738Z AUTO 34004KT 9SM FEW007 SCT023 BKN031 01/01 A2957 RMK AO2 T00110006,M
INS,2023-03-22 07:41,-115.6733,36.5872,955.00,41.00,33.80,75.33,250.00,12.00,0.00,29.66,1003.20,10.00,M,FEW,SCT,SCT,BKN,1500.00,2200.00,3400.00,4500.00,M,M,M,M,M,M,M,33.46,KINS 220741Z AUTO 25012KT 10SM FEW015 SCT022 SCT034 BKN045 OVC055 05/01 A2966 RMK AO2 RAE32DZB32E41 SLP032 $,M
INS,2023-03-22 07:43,-115.6733,36.5872,955.00,41.00,33.80,75.33,250.00,12.00,0.00,29.66,1003.20,10.00,M,FEW,FEW,SCT,BKN,1500.00,2300.00,3400.00,4500.00,-RA,M,M,M,M,M,M,33.46,KINS 220743Z AUTO 25012KT 10SM -RA FEW015 FEW023 SCT034 BKN045 OVC055 05/01 A2966 RMK AO2 RAE32DZB32E41RAB43 SLP032 $,M
LSV,2023-03-22 07:45,-115.0343,36.2362,570.00,48.20,41.00,76.01,220.00,13.00,0.00,29.68,1004.60,10.00,M,FEW,FEW,M,M,2200.00,3400.00,M,M,M,M,M,M,M,M,M,42.32,KLSV 220745Z AUTO 22013KT 10SM FEW022 FEW034 09/05 A2968 RMK AO2 RAE01RAB38E45 SLP046 $,M
TPH,2023-03-22 07:49,-117.0904,38.0505,1654.00,32.00,32.00,100.00,190.00,5.00,0.14,29.54,M,0.50,M,VV ,M,M,M,500.00,M,M,M,SN FG,M,M,M,M,M,M,26.40,KTPH 220749Z AUTO 19005KT 1/2SM SN FG VV005 00/00 A2954 RMK AO2 P0014 T00000000,M
TPH,2023-03-22 07:52,-117.0904,38.0505,1654.00,32.00,30.20,92.97,180.00,4.00,0.15,29.54,M,0.75,M,VV ,M,M,M,1000.00,M,M,M,-SN BR,M,M,M,M,M,M,27.42,KTPH 220752Z AUTO 18004KT 3/4SM -SN BR VV010 00/M01 A2954 RMK AO2 P0015,M
P68,2023-03-22 07:53,-116.0056,39.6014,1993.00,26.10,24.10,92.01,0.00,0.00,0.00,29.54,999.90,M,M,M,M,M,M,M,M,M,M,M,M,M,M,M,M,M,26.10,KP68 220753Z AUTO 00000KT M03/M04 A2954 RMK AO1 SLP999 T10331044 400441044,M
DRA,2023-03-22 07:53,-116.0278,36.6206,1009.00,41.00,32.00,70.08,180.00,16.00,T,29.66,1003.00,10.00,30.00,FEW,SCT,BKN,M,5500.00,7000.00,9000.00,M,M,M,M,M,30.00,210.00,2023-03-22 07:47,32.15,KDRA 220753Z AUTO 18016G30KT 10SM FEW055 SCT070 BKN090 05/00 A2966 RMK AO2 PK WND 21030/0747 RAE03 SLP030 P0000 T00500000 401060039,M
ELY,2023-03-22 07:53,-114.8453,39.2950,1909.00,30.90,28.90,92.18,310.00,4.00,0.01,29.56,1000.30,9.00,M,FEW,OVC,M,M,2700.00,3400.00,M,M,M,M,M,M,M,M,M,26.14,KELY 220753Z AUTO 31004KT 9SM FEW027 OVC034 M01/M02 A2956 RMK AO2 SNE43 SLP003 P0001 T10061017 400221078 $,M
LOL,2023-03-22 07:53,-118.5701,40.0684,1192.43,34.00,33.00,96.46,50.00,4.00,0.00,29.57,1001.80,10.00,M,FEW,M,M,M,2300.00,M,M,M,M,M,M,M,M,M,M,29.76,KLOL 220753Z AUTO 05004KT 10SM FEW023 01/01 A2957 RMK AO2 SLP018 T00110006 400721050,M
VGT,2023-03-22 07:53,-115.1933,36.2111,667.00,47.00,38.00,70.73,200.00,10.00,0.02,29.69,1006.80,10.00,M,OVC,M,M,M,4400.00,M,M,M,-RA,M,M,M,M,M,M,41.65,KVGT 220753Z AUTO 20010KT 10SM -RA OVC044 08/03 A2969 RMK AO2 SLP068 P0002 T00830033 401500083,M
WMC,2023-03-22 07:54,-117.8072,40.9019,1315.00,33.80,30.20,86.49,250.00,4.00,T,29.57,M,10.00,M,FEW,BKN,OVC,M,500.00,1400.00,5500.00,M,M,M,M,M,M,M,M,29.52,KWMC 220754Z AUTO 25004KT 10SM FEW005 BKN014 OVC055 01/M01 A2957 RMK AO2 SNB23E33 P0000,M
TPH,2023-03-22 07:54,-117.0904,38.0505,1654.00,32.00,30.20,92.97,190.00,4.00,0.15,29.54,M,1.00,M,FEW,OVC,M,M,300.00,1200.00,M,M,-SN BR,M,M,M,M,M,M,27.42,KTPH 220754Z AUTO 19004KT 1SM -SN BR FEW003 OVC012 00/M01 A2954 RMK AO2 P0015,M
BVU,2023-03-22 07:55,-114.8611,35.9475,671.00,50.00,41.00,71.07,220.00,15.00,0.00,29.70,M,10.00,M,BKN,OVC,M,M,3800.00,4400.00,M,M,M,M,M,M,M,M,M,50.00,KBVU 220755Z AUTO 22015KT 10SM BKN038 OVC044 10/05 A2970 RMK AO2,M
CXP,2023-03-22 07:55,-119.7326,39.1923,1431.00,32.00,30.20,92.97,0.00,0.00,0.00,29.59,M,10.00,M,FEW,SCT,BKN,M,2600.00,4200.00,6500.00,M,M,M,M,M,M,M,M,32.00,KCXP 220755Z AUTO 00000KT 10SM FEW026 SCT042 BKN065 00/M01 A2959 RMK AO2,M
RNO,2023-03-22 07:55,-119.7711,39.4839,1341.00,35.00,30.00,81.46,360.00,4.00,0.00,29.57,1001.70,10.00,M,FEW,BKN,M,M,3500.00,9500.00,M,M,M,M,M,M,M,M,M,31.04,KRNO 220755Z 36004KT 10SM FEW035 BKN095 02/M01 A2957 RMK AO2 SLP017 T00171011 400391011 $,M
RTS,2023-03-22 07:55,-119.8764,39.6682,1539.00,30.20,30.20,100.00,340.00,4.00,0.00,29.58,M,5.00,M,BKN,OVC,M,M,8000.00,12000.00,M,M,BR,M,M,M,M,M,M,25.32,KRTS 220755Z AUTO 34004KT 5SM BR BKN080 OVC120 M01/M01 A2958 RMK AO2,M
05U,2023-03-22 07:55,-116.0051,39.6042,1811.23,24.80,24.80,100.00,M,M,0.00,29.57,M,10.00,M,SCT,BKN,M,M,7000.00,8000.00,M,M,M,M,M,M,M,M,M,M,K05U 220755Z AUTO 10SM SCT070 BKN080 M04/M04 A2957 RMK A01,M
MEV,2023-03-22 07:55,-119.7500,38.9963,1441.42,32.00,30.20,92.97,160.00,3.00,0.00,29.59,M,9.00,M,FEW,BKN,OVC,M,1000.00,4000.00,4500.00,M,M,M,M,M,M,M,M,28.69,KMEV 220755Z AUTO 16003KT 9SM FEW010 BKN040 OVC045 M00/M01 A2959 RMK AO2,M
BAM,2023-03-22 07:55,-116.8743,40.5990,1382.36,33.80,32.00,93.03,180.00,4.00,0.00,29.58,M,10.00,M,SCT,SCT,BKN,M,600.00,1000.00,1800.00,M,M,M,M,M,M,M,M,29.52,KBAM 220755Z AUTO 18004KT 10SM SCT006 SCT010 BKN018 01/00 A2958 RMK AO1,M
HTH,2023-03-22 07:55,-118.6315,38.5448,1282.89,35.60,32.00,86.59,310.00,12.00,0.00,29.58,M,10.00,M,BKN,M,M,M,3700.00,M,M,M,M,M,M,M,M,M,M,26.58,KHTH 220755Z AUTO 31012KT 10SM BKN037 02/00 A2958 RMK A01,M
TMT,2023-03-22 07:55,-117.1971,39.4643,1749.34,28.80,27.90,96.38,0.00,0.00,0.00,29.56,M,5.00,M,SCT,SCT,OVC,M,1700.00,3400.00,4100.00,M,-SN,M,M,M,M,M,M,28.80,KTMT 220755Z AUTO 00000KT 5SM -SN SCT017 SCT034 OVC041 M02/M02 A2956 RMK AO2 T10181023 400521037,M
LSV,2023-03-22 07:55,-115.0343,36.2362,570.00,47.00,41.00,79.22,230.00,15.00,T,29.68,1004.70,10.00,M,FEW,M,M,M,3400.00,M,M,M,M,M,M,M,M,M,M,40.36,KLSV 220755Z AUTO 23015KT 10SM FEW034 08/05 A2968 RMK AO2 RAE01RAB38E45 SLP047 P0000 T00840050 401540084 $,M
INS,2023-03-22 07:55,-115.6733,36.5872,955.00,40.80,33.80,75.92,260.00,9.00,0.01,29.67,1003.60,10.00,M,FEW,BKN,OVC,M,3700.00,4600.00,5500.00,M,-RA,M,M,M,M,M,M,34.46,KINS 220755Z AUTO 26009KT 10SM -RA FEW037 BKN046 OVC055 05/01 A2967 RMK AO2 RAE32DZB32E41RAB43 SLP036 P0001 T00490010 401100045 $,M
EKO,2023-03-22 07:56,-115.7860,40.8242,1367.00,32.00,30.90,95.65,90.00,3.00,0.00,29.55,1001.10,10.00,M,OVC,M,M,M,1100.00,M,M,M,M,M,M,M,M,M,M,28.69,KEKO 220756Z AUTO 09003KT 10SM OVC011 00/M01 A2955 RMK AO2 SLP011 T00001006 400611056,M
WMC,2023-03-22 07:56,-117.8072,40.9019,1315.00,33.00,30.90,91.51,250.00,4.00,T,29.57,1001.00,10.00,M,FEW,BKN,OVC,M,500.00,1400.00,6000.00,M,M,M,M,M,M,M,M,28.70,KWMC 220756Z AUTO 25004KT 10SM FEW005 BKN014 OVC060 01/M01 A2957 RMK AO2 SNB23E33 SLP010 P0000 T00061006 400831061,M
NFL,2023-03-22 07:56,-118.7010,39.4166,1199.00,36.00,34.00,92.35,300.00,4.00,0.00,29.57,1000.00,9.00,M,BKN,OVC,M,M,700.00,2500.00,M,M,M,M,M,M,M,M,M,32.09,KNFL 220756Z AUTO 30004KT 9SM BKN007 OVC025 02/01 A2957 RMK AO2 SLP000 T00220011 400671011,M
TPH,2023-03-22 07:56,-117.0904,38.0505,1654.00,32.00,30.90,95.65,180.00,5.00,0.15,29.54,999.90,1.25,M,FEW,OVC,M,M,300.00,1400.00,M,M,-SN BR,M,M,M,M,M,M,26.40,KTPH 220756Z AUTO 18005KT 1 1/4SM -SN BR FEW003 OVC014 00/M01 A2954 RMK AO2 SLP999 P0015 T00001006 400500000,M
LSV,2023-03-22 07:56,-115.0343,36.2362,570.00,46.40,41.00,81.34,230.00,13.00,0.00,29.68,1004.70,10.00,M,FEW,M,M,M,3400.00,M,M,M,-RA,M,M,M,M,M,M,40.02,KLSV 220756Z AUTO 23013KT 10SM -RA FEW034 08/05 A2968 RMK AO2 RAB55 SLP047 $,M
LAS,2023-03-22 07:56,-115.1634,36.0719,663.00,45.00,38.00,76.01,240.00,9.00,0.02,29.70,1005.50,8.00,M,OVC,M,M,M,4200.00,M,M,M,-RA VCFG,M,M,M,M,M,M,39.68,KLAS 220756Z 24009KT 8SM -RA VCFG OVC042 07/03 A2970 RMK AO2 SLP055 MTNS OBSCURED DSNT SW-NW P0002 T00720033 401560072 $,M
HND,2023-03-22 07:56,-115.1344,35.9729,742.79,44.00,38.00,78.66,250.00,17.00,0.01,29.72,1007.90,10.00,23.00,BKN,OVC,M,M,4600.00,5500.00,M,M,-RA,M,M,M,M,M,M,35.93,KHND 220756Z AUTO 25017G23KT 10SM -RA BKN046 OVC055 07/03 A2972 RMK AO2 SLP079 P0001 T00670033,M
TPH,2023-03-22 08:00,-117.0904,38.0505,1654.00,32.00,30.90,95.65,180.00,5.00,T,29.54,M,2.00,M,FEW,OVC,M,M,500.00,1600.00,M,M,-SN BR,M,M,M,M,M,M,26.40,KTPH 220800Z AUTO 18005KT 2SM -SN BR FEW005 OVC016 00/M01 A2954 RMK AO2 P0000 T00001006,M
LSV,2023-03-22 08:05,-115.0343,36.2362,570.00,46.40,41.00,81.34,220.00,13.00,0.00,29.68,1004.70,10.00,M,FEW,M,M,M,3400.00,M,M,M,M,M,M,M,M,M,M,40.02,KLSV 220805Z AUTO 22013KT 10SM FEW034 08/05 A2968 RMK AO2 RAB0755E05 SLP047 $,M
05U,2023-03-22 08:10,-116.0051,39.6042,1811.23,24.80,24.80,100.00,0.00,0.00,0.00,29.57,M,10.00,M,BKN,OVC,M,M,7000.00,8000.00,M,M,M,M,M,M,M,M,M,24.80,K05U 220810Z AUTO 00000KT 10SM BKN070 OVC080 M04/M04 A2957 RMK A01,M
BVU,2023-03-22 08:15,-114.8611,35.9475,671.00,48.20,41.00,76.01,230.00,11.00,0.00,29.72,M,10.00,16.00,BKN,OVC,M,M,2700.00,3700.00,M,M,M,M,M,M,M,M,M,42.94,KBVU 220815Z AUTO 23011G16KT 10SM BKN027 OVC037 09/05 A2972 RMK AO2,M
CXP,2023-03-22 08:15,-119.7326,39.1923,1431.00,32.00,30.20,92.97,0.00,0.00,0.00,29.60,M,10.00,M,FEW,OVC,M,M,3900.00,6500.00,M,M,M,M,M,M,M,M,M,32.00,KCXP 220815Z AUTO 00000KT 10SM FEW039 OVC065 00/M01 A2960 RMK AO2,M
RTS,2023-03-22 08:15,-119.8764,39.6682,1539.00,30.20,30.20,100.00,0.00,0.00,0.00,29.59,M,10.00,M,FEW,BKN,BKN,M,8000.00,10000.00,12000.00,M,M,M,M,M,M,M,M,30.20,KRTS 220815Z AUTO 00000KT 10SM FEW080 BKN100 BKN120 M01/M01 A2959 RMK AO2,M
MEV,2023-03-22 08:15,-119.7500,38.9963,1441.42,32.00,30.20,92.97,150.00,4.00,0.00,29.60,M,8.00,M,BKN,BKN,OVC,M,800.00,1400.00,3900.00,M,M,M,M,M,M,M,M,27.42,KMEV 220815Z AUTO 15004KT 8SM BKN008 BKN014 OVC039 M00/M01 A2960 RMK AO2,M
BAM,2023-03-22 08:15,-116.8743,40.5990,1382.36,33.80,32.00,93.03,170.00,4.00,0.00,29.58,M,10.00,M,SCT,M,M,M,1800.00,M,M,M,M,M,M,M,M,M,M,29.52,KBAM 220815Z AUTO 17004KT 10SM SCT018 01/00 A2958 RMK AO1,M
HTH,2023-03-22 08:15,-118.6315,38.5448,1282.89,35.60,32.00,86.59,320.00,11.00,0.00,29.58,M,10.00,M,FEW,SCT,M,M,2800.00,3800.00,M,M,M,M,M,M,M,M,M,27.02,KHTH 220815Z AUTO 32011KT 10SM FEW028 SCT038 02/00 A2958 RMK A01,M
TMT,2023-03-22 08:15,-117.1971,39.4643,1749.34,28.80,28.00,96.77,0.00,0.00,0.00,29.56,M,5.00,M,SCT,BKN,OVC,M,2300.00,3500.00,4300.00,M,-SN,M,M,M,M,M,M,28.80,KTMT 220815Z AUTO 00000KT 5SM -SN SCT023 BKN035 OVC043 M02/M02 A2956 RMK AO2 T10181022,M
WMC,2023-03-22 08:16,-117.8072,40.9019,1315.00,33.00,30.90,91.51,230.00,4.00,0.00,29.57,M,10.00,M,BKN,OVC,M,M,300.00,1000.00,M,M,M,M,M,M,M,M,M,28.70,KWMC 220816Z AUTO 23004KT 10SM BKN003 OVC010 01/M01 A2957 RMK AO2 CIG 003V007 T00061006,M
TPH,2023-03-22 08:24,-117.0904,38.0505,1654.00,32.00,30.90,95.65,190.00,7.00,0.01,29.54,M,1.00,M,SCT,OVC,M,M,800.00,1500.00,M,M,-SN BR,M,M,M,M,M,M,24.78,KTPH 220824Z AUTO 19007KT 1SM -SN BR SCT008 OVC015 00/M01 A2954 RMK AO2 P0001 T00001006,M
NFL,2023-03-22 08:28,-118.7010,39.4166,1199.00,36.00,35.00,96.49,0.00,0.00,0.00,29.58,M,10.00,M,SCT,OVC,M,M,600.00,2600.00,M,M,M,M,M,M,M,M,M,36.00,KNFL 220828Z AUTO 00000KT 10SM SCT006 OVC026 02/02 A2958 RMK AO2 T00220017,M
EKO,2023-03-22 08:29,-115.7860,40.8242,1367.00,32.00,30.00,92.22,0.00,0.00,0.00,29.55,M,10.00,M,SCT,SCT,M,M,1200.00,1700.00,M,M,M,M,M,M,M,M,M,32.00,KEKO 220829Z AUTO 00000KT 10SM SCT012 SCT017 00/M01 A2955 RMK AO2 T00001011,M
05U,2023-03-22 08:30,-116.0051,39.6042,1811.23,24.80,24.80,100.00,M,M,0.00,29.57,M,10.00,M,FEW,SCT,BKN,M,6500.00,7500.00,9000.00,M,M,M,M,M,M,M,M,M,K05U 220830Z AUTO 10SM FEW065 SCT075 BKN090 M04/M04 A2957 RMK A01,M
ELY,2023-03-22 08:31,-114.8453,39.2950,1909.00,30.90,27.00,85.26,M,M,T,29.56,M,5.00,M,SCT,BKN,OVC,M,2000.00,2600.00,6000.00,M,-SN BR,M,M,M,M,M,M,M,KELY 220831Z AUTO 5SM -SN BR SCT020 BKN026 OVC060 M01/M03 A2956 RMK AO2 SNB0754 P0000 T10061028 $,M
LOL,2023-03-22 08:33,-118.5701,40.0684,1192.43,32.00,30.90,95.65,130.00,3.00,0.00,29.59,M,10.00,M,BKN,BKN,M,M,1400.00,2900.00,M,M,M,M,M,M,M,M,M,28.69,KLOL 220833Z AUTO 13003KT 10SM BKN014 BKN029 00/M01 A2959 RMK AO2 T00001006,M
TPH,2023-03-22 08:33,-117.0904,38.0505,1654.00,30.90,30.90,100.00,210.00,11.00,0.01,29.54,M,1.75,M,FEW,OVC,M,M,800.00,1300.00,M,M,-SN BR,M,M,M,M,M,M,21.08,KTPH 220833Z AUTO 21011KT 1 3/4SM -SN BR FEW008 OVC013 M01/M01 A2954 RMK AO2 P0001 T10061006,M
BVU,2023-03-22 08:35,-114.8611,35.9475,671.00,48.20,37.40,66.05,250.00,16.00,0.00,29.72,M,10.00,M,SCT,BKN,OVC,M,2700.00,3300.00,4300.00,M,M,M,M,M,M,M,M,41.53,KBVU 220835Z AUTO 25016KT 10SM SCT027 BKN033 OVC043 09/03 A2972 RMK AO2,M
CXP,2023-03-22 08:35,-119.7326,39.1923,1431.00,32.00,30.20,92.97,0.00,0.00,0.00,29.61,M,10.00,M,FEW,SCT,OVC,M,2200.00,3700.00,6000.00,M,M,M,M,M,M,M,M,32.00,KCXP 220835Z AUTO 00000KT 10SM FEW022 SCT037 OVC060 00/M01 A2961 RMK AO2,M
RTS,2023-03-22 08:35,-119.8764,39.6682,1539.00,30.20,30.20,100.00,360.00,3.00,0.00,29.59,M,10.00,M,OVC,M,M,M,11000.00,M,M,M,M,M,M,M,M,M,M,26.63,KRTS 220835Z AUTO 36003KT 10SM OVC110 M01/M01 A2959 RMK AO2,M
MEV,2023-03-22 08:35,-119.7500,38.9963,1441.42,32.00,32.00,100.00,80.00,3.00,0.00,29.60,M,7.00,M,BKN,BKN,OVC,M,800.00,1400.00,5000.00,M,-SN,M,M,M,M,M,M,28.69,KMEV 220835Z AUTO 08003KT 7SM -SN BKN008 BKN014 OVC050 M00/M00 A2960 RMK AO2,M
BAM,2023-03-22 08:35,-116.8743,40.5990,1382.36,32.00,32.00,100.00,160.00,5.00,0.00,29.58,M,10.00,M,CLR,M,M,M,M,M,M,M,M,M,M,M,M,M,M,26.40,KBAM 220835Z AUTO 16005KT 10SM CLR 00/00 A2958 RMK AO1,M
HTH,2023-03-22 08:35,-118.6315,38.5448,1282.89,35.60,32.00,86.59,300.00,7.00,0.00,29.59,M,10.00,M,FEW,SCT,M,M,2800.00,3700.00,M,M,M,M,M,M,M,M,M,29.17,KHTH 220835Z AUTO 30007KT 10SM FEW028 SCT037 02/00 A2959 RMK A01,M
TMT,2023-03-22 08:35,-117.1971,39.4643,1749.34,28.90,28.40,97.97,0.00,0.00,0.00,29.55,M,4.00,M,BKN,BKN,OVC,M,1800.00,2800.00,3700.00,M,-SN,M,M,M,M,M,M,28.90,KTMT 220835Z AUTO 00000KT 4SM -SN BKN018 BKN028 OVC037 M02/M02 A2955 RMK AO2 T10171020,M
INS,2023-03-22 08:37,-115.6733,36.5872,955.00,41.00,32.00,70.08,190.00,9.00,0.00,29.66,1003.20,10.00,M,FEW,M,M,M,1100.00,M,M,M,M,M,M,M,M,M,M,34.70,KINS 220837Z AUTO 19009KT 10SM FEW011 05/M00 A2966 RMK AO2 RAE0754DZB0754E04RAB04E37 SLP032 $,M
WMC,2023-03-22 08:37,-117.8072,40.9019,1315.00,33.00,30.90,91.51,290.00,5.00,0.00,29.57,M,10.00,M,SCT,BKN,OVC,M,300.00,1900.00,2400.00,M,M,M,M,M,M,M,M,27.70,KWMC 220837Z AUTO 29005KT 10SM SCT003 BKN019 OVC024 01/M01 A2957 RMK AO2 T00061006,M
TPH,2023-03-22 08:40,-117.0904,38.0505,1654.00,30.90,30.90,100.00,210.00,10.00,0.02,29.54,M,2.00,M,FEW,OVC,M,M,900.00,1300.00,M,M,-SN BR,M,M,M,M,M,M,21.59,KTPH 220840Z AUTO 21010KT 2SM -SN BR FEW009 OVC013 M01/M01 A2954 RMK AO2 P0002 T10061006,M
TPH,2023-03-22 08:47,-117.0904,38.0505,1654.00,30.90,30.90,100.00,210.00,8.00,0.02,29.54,M,1.50,M,OVC,M,M,M,1300.00,M,M,M,-SN BR,M,M,M,M,M,M,22.76,KTPH 220847Z AUTO 21008KT 1 1/2SM -SN BR OVC013 M01/M01 A2954 RMK AO2 P0002 T10061006,M
05U,2023-03-22 08:50,-116.0051,39.6042,1811.23,24.80,24.80,100.00,0.00,0.00,0.00,29.57,M,10.00,M,FEW,SCT,BKN,M,4400.00,5500.00,8500.00,M,M,M,M,M,M,M,M,24.80,K05U 220850Z AUTO 00000KT 10SM FEW044 SCT055 BKN085 M04/M04 A2957 RMK A01,M
P68,2023-03-22 08:53,-116.0056,39.6014,1993.00,24.10,23.00,95.49,0.00,0.00,0.00,29.54,1000.00,M,M,M,M,M,M,M,M,M,M,M,M,M,M,M,M,M,24.10,KP68 220853Z AUTO 00000KT M04/M05 A2954 RMK AO1 SLP000 T10441050 57004,M
DRA,2023-03-22 08:53,-116.0278,36.6206,1009.00,41.00,30.90,67.03,190.00,14.00,0.00,29.65,1002.90,10.00,26.00,BKN,BKN,M,M,4200.00,4900.00,M,M,M,M,M,M,30.00,180.00,2023-03-22 08:43,32.76,KDRA 220853Z AUTO 19014G26KT 10SM BKN042 BKN049 05/M01 A2965 RMK AO2 PK WND 18030/0843 SLP029 60008 T00501006 53001,M
ELY,2023-03-22 08:53,-114.8453,39.2950,1909.00,30.90,28.90,92.18,150.00,13.00,0.01,29.55,1000.10,M,24.00,FEW,SCT,OVC,M,1600.00,2300.00,3800.00,M,-SN,M,M,M,M,M,M,20.16,KELY 220853Z AUTO 15013G24KT -SN FEW016 SCT023 OVC038 M01/M02 A2955 RMK AO2 SNB0754 SLP001 P0001 60004 T10061017 56005 $,M
VGT,2023-03-22 08:53,-115.1933,36.2111,667.00,46.00,37.00,70.64,200.00,9.00,T,29.68,1006.60,10.00,M,CLR,M,M,M,M,M,M,M,M,M,M,M,M,M,M,40.92,KVGT 220853Z AUTO 20009KT 10SM CLR 08/03 A2968 RMK AO2 RAE02 SLP066 P0000 60005 T00780028 50016,M
LOL,2023-03-22 08:53,-118.5701,40.0684,1192.43,33.00,32.00,95.67,30.00,3.00,0.00,29.58,1002.40,10.00,M,SCT,OVC,M,M,1400.00,2900.00,M,M,M,M,M,M,M,M,M,29.95,KLOL 220853Z AUTO 03003KT 10SM SCT014 OVC029 01/00 A2958 RMK AO2 SLP024 T00060000 53002,M
TPH,2023-03-22 08:53,-117.0904,38.0505,1654.00,30.20,30.20,100.00,200.00,7.00,0.02,29.54,M,2.00,M,OVC,M,M,M,1500.00,M,M,M,-SN BR,M,M,M,M,M,M,22.59,KTPH 220853Z AUTO 20007KT 2SM -SN BR OVC015 M01/M01 A2954 RMK AO2 P0002,M
BVU,2023-03-22 08:55,-114.8611,35.9475,671.00,48.20,37.40,66.05,230.00,15.00,0.00,29.73,M,10.00,M,SCT,BKN,OVC,M,3500.00,4700.00,5500.00,M,M,M,M,M,M,M,M,41.78,KBVU 220855Z AUTO 23015KT 10SM SCT035 BKN047 OVC055 09/03 A2973 RMK AO2,M
CXP,2023-03-22 08:55,-119.7326,39.1923,1431.00,33.80,30.20,86.49,0.00,0.00,0.00,29.62,M,10.00,M,SCT,BKN,OVC,M,1400.00,4800.00,6000.00,M,M,M,M,M,M,M,M,33.80,KCXP 220855Z AUTO 00000KT 10SM SCT014 BKN048 OVC060 01/M01 A2962 RMK AO2,M
INS,2023-03-22 08:55,-115.6733,36.5872,955.00,40.30,32.00,72.01,0.00,0.00,T,29.66,1003.20,10.00,M,FEW,M,M,M,6000.00,M,M,M,M,M,M,M,26.00,230.00,2023-03-22 08:51,40.30,KINS 220855Z AUTO 00000KT 10SM FEW060 05/00 A2966 RMK AO2 PK WND 23026/51 RAE0754DZB0754E04RAB04E37 SLP032 P0000 60011 T00460000 50009 $,M
RNO,2023-03-22 08:55,-119.7711,39.4839,1341.00,35.00,30.90,84.49,80.00,3.00,0.00,29.60,1002.30,10.00,M,SCT,BKN,M,M,9500.00,14000.00,M,M,M,M,M,M,M,M,M,32.23,KRNO 220855Z 08003KT 10SM SCT095 BKN140 02/M01 A2960 RMK AO2 SLP023 T00171006 53008 $,M
RTS,2023-03-22 08:55,-119.8764,39.6682,1539.00,30.20,30.20,100.00,0.00,0.00,0.00,29.60,M,10.00,M,FEW,OVC,M,M,6000.00,10000.00,M,M,M,M,M,M,M,M,M,30.20,KRTS 220855Z AUTO 00000KT 10SM FEW060 OVC100 M01/M01 A2960 RMK AO2,M
MEV,2023-03-22 08:55,-119.7500,38.9963,1441.42,32.00,30.20,92.97,100.00,5.00,0.00,29.60,M,9.00,M,FEW,SCT,BKN,M,500.00,4200.00,5000.00,M,M,M,M,M,M,M,M,26.40,KMEV 220855Z AUTO 10005KT 9SM FEW005 SCT042 BKN050 M00/M01 A2960 RMK AO2,M
BAM,2023-03-22 08:55,-116.8743,40.5990,1382.36,32.00,32.00,100.00,120.00,4.00,0.00,29.57,M,10.00,M,SCT,M,M,M,800.00,M,M,M,M,M,M,M,M,M,M,27.42,KBAM 220855Z AUTO 12004KT 10SM SCT008 00/00 A2957 RMK AO1,M
HTH,2023-03-22 08:55,-118.6315,38.5448,1282.89,35.60,32.00,86.59,310.00,7.00,0.00,29.59,M,10.00,M,FEW,OVC,M,M,2500.00,4000.00,M,M,M,M,M,M,M,M,M,29.17,KHTH 220855Z AUTO 31007KT 10SM FEW025 OVC040 02/00 A2959 RMK A01,M
TMT,2023-03-22 08:55,-117.1971,39.4643,1749.34,28.90,28.40,97.97,0.00,0.00,0.00,29.55,M,10.00,M,SCT,SCT,OVC,M,1900.00,3400.00,4600.00,M,M,M,M,M,M,M,M,28.90,KTMT 220855Z AUTO 00000KT 10SM SCT019 SCT034 OVC046 M02/M02 A2955 RMK AO2 T10171020,M
LSV,2023-03-22 08:55,-115.0343,36.2362,570.00,46.60,43.20,87.87,180.00,6.00,T,29.66,1004.00,10.00,M,CLR,M,M,M,M,M,M,M,M,M,M,M,M,M,M,43.11,KLSV 220855Z AUTO 18006KT 10SM CLR 08/06 A2966 RMK AO2 RAB0755E05 SLP040 P0000 60000 T00810062 50022 $,M
EKO,2023-03-22 08:56,-115.7860,40.8242,1367.00,30.00,28.90,95.61,0.00,0.00,0.00,29.55,1001.00,10.00,M,CLR,M,M,M,M,M,M,M,M,M,M,M,M,M,M,30.00,KEKO 220856Z AUTO 00000KT 10SM CLR M01/M02 A2955 RMK AO2 SLP010 60004 T10111017 53002,M
WMC,2023-03-22 08:56,-117.8072,40.9019,1315.00,33.00,30.90,91.51,280.00,4.00,0.00,29.58,1001.10,10.00,M,OVC,M,M,M,2400.00,M,M,M,M,M,M,M,M,M,M,28.70,KWMC 220856Z AUTO 28004KT 10SM OVC024 01/M01 A2958 RMK AO2 SLP011 60000 T00061006 51010,M
NFL,2023-03-22 08:56,-118.7010,39.4166,1199.00,36.00,34.00,92.35,0.00,0.00,0.00,29.59,1000.60,9.00,M,FEW,OVC,M,M,1000.00,2500.00,M,M,M,M,M,M,M,M,M,36.00,KNFL 220856Z AUTO 00000KT 9SM FEW010 OVC025 02/01 A2959 RMK AO2 SLP006 T00220011 53007,M
HND,2023-03-22 08:56,-115.1344,35.9729,742.79,45.00,36.00,70.53,240.00,16.00,T,29.72,1007.80,10.00,M,BKN,M,M,M,11000.00,M,M,M,M,M,M,M,M,M,M,37.36,KHND 220856Z AUTO 24016KT 10SM BKN110 07/02 A2972 RMK AO2 RAE31 SLP078 P0000 60005 T00720022 50026,M
TPH,2023-03-22 08:56,-117.0904,38.0505,1654.00,30.90,30.90,100.00,200.00,7.00,0.02,29.54,1000.40,2.50,M,OVC,M,M,M,1500.00,M,M,M,-SN BR,M,M,M,M,M,M,23.44,KTPH 220856Z AUTO 20007KT 2 1/2SM -SN BR OVC015 M01/M01 A2954 RMK AO2 SLP004 P0002 60018 T10061006 55002,M
LAS,2023-03-22 08:56,-115.1634,36.0719,663.00,47.00,33.00,58.47,220.00,13.00,T,29.69,1005.00,10.00,22.00,FEW,M,M,M,11000.00,M,M,M,M,M,M,M,M,M,M,40.66,KLAS 220856Z 22013G22KT 10SM FEW110 08/01 A2969 RMK AO2 RAE08 SLP050 P0000 60003 T00830006 50022 $,M
TPH,2023-03-22 09:03,-117.0904,38.0505,1654.00,30.90,30.00,96.41,200.00,9.00,T,29.55,M,1.75,M,FEW,FEW,OVC,M,500.00,1100.00,1500.00,M,-SN BR,M,M,M,M,M,M,22.15,KTPH 220903Z AUTO 20009KT 1 3/4SM -SN BR FEW005 FEW011 OVC015 M01/M01 A2955 RMK AO2 P0000 T10061011,M
NFL,2023-03-22 09:07,-118.7010,39.4166,1199.00,37.00,35.00,92.76,0.00,0.00,0.00,29.59,M,9.00,M,BKN,OVC,M,M,900.00,2500.00,M,M,M,M,M,M,M,M,M,37.00,KNFL 220907Z AUTO 00000KT 9SM BKN009 OVC025 03/02 A2959 RMK AO2 T00280017,M
INS,2023-03-22 09:10,-115.6733,36.5872,955.00,41.00,28.40,60.54,230.00,15.00,0.00,29.65,1002.90,10.00,28.00,FEW,M,M,M,6000.00,M,M,M,M,M,M,M,M,M,M,32.45,KINS 220910Z AUTO 23015G28KT 10SM FEW060 05/M02 A2965 RMK AO2 WSHFT 05 SLP029 $,M
TPH,2023-03-22 09:10,-117.0904,38.0505,1654.00,30.90,30.00,96.41,200.00,7.00,0.01,29.55,M,1.25,M,FEW,OVC,M,M,800.00,1300.00,M,M,-SN BR,M,M,M,M,M,M,23.44,KTPH 220910Z AUTO 20007KT 1 1/4SM -SN BR FEW008 OVC013 M01/M01 A2955 RMK AO2 P0001 T10061011,M
05U,2023-03-22 09:10,-116.0051,39.6042,1811.23,24.80,24.80,100.00,M,M,0.00,29.57,M,10.00,M,FEW,SCT,BKN,M,4500.00,5000.00,6500.00,M,M,M,M,M,M,M,M,M,K05U 220910Z AUTO 10SM FEW045 SCT050 BKN065 M04/M04 A2957 RMK A01,M
BVU,2023-03-22 09:15,-114.8611,35.9475,671.00,46.40,35.60,65.83,230.00,12.00,0.00,29.71,M,10.00,17.00,BKN,OVC,M,M,5500.00,6500.00,M,M,M,M,M,M,M,M,M,40.33,KBVU 220915Z AUTO 23012G17KT 10SM BKN055 OVC065 08/02 A2971 RMK AO2,M
CXP,2023-03-22 09:15,-119.7326,39.1923,1431.00,32.00,30.20,92.97,0.00,0.00,0.00,29.61,M,10.00,M,SCT,SCT,BKN,M,1400.00,4900.00,6000.00,M,M,M,M,M,M,M,M,32.00,KCXP 220915Z AUTO 00000KT 10SM SCT014 SCT049 BKN060 00/M01 A2961 RMK AO2,M
RTS,2023-03-22 09:15,-119.8764,39.6682,1539.00,30.20,30.20,100.00,0.00,0.00,0.00,29.61,M,10.00,M,BKN,OVC,M,M,7000.00,11000.00,M,M,M,M,M,M,M,M,M,30.20,KRTS 220915Z AUTO 00000KT 10SM BKN070 OVC110 M01/M01 A2961 RMK AO2,M
MEV,2023-03-22 09:15,-119.7500,38.9963,1441.42,30.20,28.40,92.92,0.00,0.00,0.00,29.60,M,9.00,M,BKN,OVC,M,M,5500.00,6500.00,M,M,M,M,M,M,M,M,M,30.20,KMEV 220915Z AUTO 00000KT 9SM BKN055 OVC065 M01/M02 A2960 RMK AO2,M
BAM,2023-03-22 09:15,-116.8743,40.5990,1382.36,32.00,32.00,100.00,130.00,4.00,0.00,29.57,M,10.00,M,BKN,M,M,M,800.00,M,M,M,M,M,M,M,M,M,M,27.42,KBAM 220915Z AUTO 13004KT 10SM BKN008 00/00 A2957 RMK AO1,M
HTH,2023-03-22 09:15,-118.6315,38.5448,1282.89,35.60,32.00,86.59,310.00,5.00,0.00,29.60,M,10.00,M,SCT,BKN,M,M,3600.00,4100.00,M,M,M,M,M,M,M,M,M,30.67,KHTH 220915Z AUTO 31005KT 10SM SCT036 BKN041 02/M00 A2960 RMK A01,M
TMT,2023-03-22 09:15,-117.1971,39.4643,1749.34,29.30,28.80,97.98,0.00,0.00,0.00,29.55,M,10.00,M,SCT,OVC,M,M,300.00,4600.00,M,M,M,M,M,M,M,M,M,29.30,KTMT 220915Z AUTO 00000KT 10SM SCT003 OVC046 M01/M02 A2955 RMK AO2 T10151018,M
INS,2023-03-22 09:21,-115.6733,36.5872,955.00,42.80,26.60,52.45,180.00,11.00,0.00,29.65,1002.90,10.00,23.00,FEW,FEW,SCT,M,5500.00,7000.00,12000.00,M,M,M,M,M,M,M,M,36.11,KINS 220921Z AUTO 18011G23KT 10SM FEW055 FEW070 SCT120 06/M03 A2965 RMK AO2 WSHFT 17 SLP029 $,M
TPH,2023-03-22 09:30,-117.0904,38.0505,1654.00,30.90,30.00,96.41,190.00,10.00,0.02,29.55,M,2.00,M,SCT,OVC,M,M,400.00,1300.00,M,M,-SN BR,M,M,M,M,M,M,21.59,KTPH 220930Z AUTO 19010KT 2SM -SN BR SCT004 OVC013 M01/M01 A2955 RMK AO2 P0002 T10061011,M
05U,2023-03-22 09:30,-116.0051,39.6042,1811.23,26.60,26.60,100.00,M,M,0.00,29.57,M,10.00,M,SCT,BKN,OVC,M,3500.00,5000.00,6500.00,M,M,M,M,M,M,M,M,M,K05U 220930Z AUTO 10SM SCT035 BKN050 OVC065 M03/M03 A2957 RMK A01,M
HTH,2023-03-22 09:30,-118.6315,38.5448,1282.89,35.60,32.00,86.59,310.00,6.00,0.00,29.61,M,10.00,M,BKN,M,M,M,3800.00,M,M,M,M,M,M,M,M,M,M,29.87,KHTH 220930Z AUTO 31006KT 10SM BKN038 02/00 A2961 RMK A01,M
BVU,2023-03-22 09:35,-114.8611,35.9475,671.00,46.40,33.80,61.28,220.00,14.00,0.00,29.72,M,10.00,M,FEW,FEW,SCT,M,5500.00,7500.00,9000.00,M,M,M,M,M,M,M,M,39.72,KBVU 220935Z AUTO 22014KT 10SM FEW055 FEW075 SCT090 08/01 A2972 RMK AO2,M
CXP,2023-03-22 09:35,-119.7326,39.1923,1431.00,32.00,30.20,92.97,0.00,0.00,0.00,29.62,M,10.00,M,CLR,M,M,M,M,M,M,M,M,M,M,M,M,M,M,32.00,KCXP 220935Z AUTO 00000KT 10SM CLR 00/M01 A2962 RMK AO2,M
RTS,2023-03-22 09:35,-119.8764,39.6682,1539.00,28.40,28.40,100.00,300.00,5.00,0.00,29.61,M,10.00,M,BKN,BKN,OVC,M,6500.00,7000.00,11000.00,M,M,M,M,M,M,M,M,22.12,KRTS 220935Z AUTO 30005KT 10SM BKN065 BKN070 OVC110 M02/M02 A2961 RMK AO2,M
MEV,2023-03-22 09:35,-119.7500,38.9963,1441.42,30.20,30.20,100.00,0.00,0.00,0.00,29.61,M,10.00,M,FEW,BKN,BKN,M,1600.00,5500.00,6500.00,M,M,M,M,M,M,M,M,30.20,KMEV 220935Z AUTO 00000KT 10SM FEW016 BKN055 BKN065 M01/M01 A2961 RMK AO2,M
BAM,2023-03-22 09:35,-116.8743,40.5990,1382.36,33.80,32.00,93.03,150.00,3.00,0.00,29.57,M,10.00,M,BKN,M,M,M,800.00,M,M,M,M,M,M,M,M,M,M,30.75,KBAM 220935Z AUTO 15003KT 10SM BKN008 01/00 A2957 RMK AO1,M
TMT,2023-03-22 09:35,-117.1971,39.4643,1749.34,29.30,28.90,98.38,0.00,0.00,0.00,29.55,M,5.00,M,SCT,BKN,OVC,M,300.00,3500.00,4300.00,M,-SN,M,M,M,M,M,M,29.30,KTMT 220935Z AUTO 00000KT 5SM -SN SCT003 BKN035 OVC043 M01/M02 A2955 RMK AO2 T10151017,M
INS,2023-03-22 09:40,-115.6733,36.5872,955.00,42.80,26.60,52.45,170.00,16.00,0.00,29.64,1002.30,10.00,27.00,FEW,FEW,SCT,M,4900.00,6000.00,12000.00,M,M,M,M,M,M,M,M,34.50,KINS 220940Z AUTO 17016G27KT 10SM FEW049 FEW060 SCT120 06/M03 A2964 RMK AO2 WSHFT 37 SLP023 $,M
TPH,2023-03-22 09:40,-117.0904,38.0505,1654.00,30.90,30.00,96.41,190.00,12.00,0.02,29.55,M,2.00,M,SCT,SCT,OVC,M,400.00,900.00,2000.00,M,-SN BR,M,M,M,M,M,M,20.60,KTPH 220940Z AUTO 19012KT 2SM -SN BR SCT004 SCT009 OVC020 M01/M01 A2955 RMK AO2 P0002 T10061011,M
ELY,2023-03-22 09:43,-114.8453,39.2950,1909.00,30.90,28.00,92.92,160.00,9.00,T,29.54,M,2.50,18.00,OVC,M,M,M,3600.00,M,M,M,-SN BR,M,M,M,M,M,M,21.28,KELY 220943Z AUTO 16009G18KT 2 1/2SM -SN BR OVC036 M01/M02 A2954 RMK AO2 P0000 T10061022 $,M
INS,2023-03-22 09:45,-115.6733,36.5872,955.00,42.80,28.40,56.48,190.00,11.00,0.00,29.64,1002.30,10.00,27.00,FEW,FEW,M,M,6000.00,12000.00,M,M,M,M,M,M,M,M,M,36.11,KINS 220945Z AUTO 19011G27KT 10SM FEW060 FEW120 06/M02 A2964 RMK AO2 WSHFT 44 SLP023 $,M
EKO,2023-03-22 09:48,-115.7860,40.8242,1367.00,28.90,27.00,92.49,40.00,3.00,0.00,29.55,M,10.00,M,FEW,M,M,M,200.00,M,M,M,M,M,M,M,M,M,M,25.14,KEKO 220948Z AUTO 04003KT 10SM FEW002 M02/M03 A2955 RMK AO2 T10171028,M
ELY,2023-03-22 09:50,-114.8453,39.2950,1909.00,30.20,28.40,92.92,160.00,9.00,T,29.54,M,7.00,M,OVC,M,M,M,3600.00,M,M,M,-SN,M,M,M,M,M,M,21.28,KELY 220950Z AUTO 16009KT 7SM -SN OVC036 M01/M02 A2954 RMK AO2 P0000 $,M
05U,2023-03-22 09:50,-116.0051,39.6042,1811.23,26.60,26.60,100.00,0.00,0.00,0.00,29.57,M,10.00,M,BKN,BKN,OVC,M,300.00,2200.00,3500.00,M,M,M,M,M,M,M,M,26.60,K05U 220950Z AUTO 00000KT 10SM BKN003 BKN022 OVC035 M03/M03 A2957 RMK A01,M
P68,2023-03-22 09:53,-116.0056,39.6014,1993.00,26.10,25.00,95.53,180.00,3.00,0.00,29.55,1000.00,M,M,M,M,M,M,M,M,M,M,M,M,M,M,M,M,M,21.94,KP68 220953Z AUTO 18003KT M03/M04 A2955 RMK AO1 SLP000 T10331039,M
DRA,2023-03-22 09:53,-116.0278,36.6206,1009.00,41.00,28.90,61.79,210.00,18.00,0.00,29.63,1002.20,10.00,33.00,FEW,M,M,M,4100.00,M,M,M,M,M,M,M,35.00,200.00,2023-03-22 08:55,31.60,KDRA 220953Z AUTO 21018G33KT 10SM FEW041 05/M02 A2963 RMK AO2 PK WND 20035/0855 SLP022 T00501017,M
ELY,2023-03-22 09:53,-114.8453,39.2950,1909.00,30.90,28.00,88.84,170.00,7.00,T,29.54,999.50,8.00,M,OVC,M,M,M,3600.00,M,M,M,-SN,M,M,M,M,M,M,23.44,KELY 220953Z AUTO 17007KT 8SM -SN OVC036 M01/M02 A2954 RMK AO2 SLP995 P0000 T10061022 $,M
LOL,2023-03-22 09:53,-118.5701,40.0684,1192.43,30.90,30.90,100.00,0.00,0.00,0.00,29.60,1003.10,10.00,M,OVC,M,M,M,2900.00,M,M,M,M,M,M,M,M,M,M,30.90,KLOL 220953Z AUTO 00000KT 10SM OVC029 M01/M01 A2960 RMK AO2 SLP031 T10061006,M
NFL,2023-03-22 09:53,-118.7010,39.4166,1199.00,35.60,33.80,93.08,270.00,3.00,0.00,29.60,M,10.00,M,BKN,OVC,M,M,1000.00,2600.00,M,M,M,M,M,M,M,M,M,32.80,KNFL 220953Z AUTO 27003KT 10SM BKN010 OVC026 02/01 A2960 RMK AO2,M
TPH,2023-03-22 09:53,-117.0904,38.0505,1654.00,30.20,30.20,100.00,210.00,12.00,0.02,29.55,M,3.00,M,FEW,SCT,OVC,M,400.00,1700.00,2800.00,M,-SN BR,M,M,M,M,M,M,19.71,KTPH 220953Z AUTO 21012KT 3SM -SN BR FEW004 SCT017 OVC028 M01/M01 A2955 RMK AO2 P0002,M
VGT,2023-03-22 09:53,-115.1933,36.2111,667.00,47.00,33.00,58.47,200.00,15.00,0.00,29.67,1006.00,10.00,25.00,CLR,M,M,M,M,M,M,M,M,M,M,M,M,M,M,40.10,KVGT 220953Z AUTO 20015G25KT 10SM CLR 08/01 A2967 RMK AO2 SLP060 T00830006,M
BVU,2023-03-22 09:55,-114.8611,35.9475,671.00,46.40,33.80,61.28,210.00,16.00,0.00,29.72,M,10.00,21.00,FEW,M,M,M,8000.00,M,M,M,M,M,M,M,M,M,M,39.19,KBVU 220955Z AUTO 21016G21KT 10SM FEW080 08/01 A2972 RMK AO2,M
CXP,2023-03-22 09:55,-119.7326,39.1923,1431.00,32.00,30.20,92.97,0.00,0.00,0.00,29.62,M,10.00,M,SCT,M,M,M,700.00,M,M,M,M,M,M,M,M,M,M,32.00,KCXP 220955Z AUTO 00000KT 10SM SCT007 00/M01 A2962 RMK AO2,M
INS,2023-03-22 09:55,-115.6733,36.5872,955.00,42.80,27.30,53.99,200.00,15.00,0.00,29.63,1001.90,10.00,22.00,CLR,M,M,M,M,M,M,M,M,M,M,M,33.00,210.00,2023-03-22 09:40,34.78,KINS 220955Z AUTO 20015G22KT 10SM CLR 06/M03 A2963 RMK AO2 PK WND 21033/40 SLP019 T00601026 $,M
RNO,2023-03-22 09:55,-119.7711,39.4839,1341.00,34.00,30.00,85.11,10.00,3.00,0.00,29.61,1003.10,10.00,M,FEW,FEW,BKN,M,5000.00,9500.00,14000.00,M,M,M,M,M,M,M,M,30.97,KRNO 220955Z 01003KT 10SM FEW050 FEW095 BKN140 01/M01 A2961 RMK AO2 SLP031 T00111011 $,M
RTS,2023-03-22 09:55,-119.8764,39.6682,1539.00,30.20,30.20,100.00,300.00,7.00,0.00,29.62,M,10.00,M,FEW,OVC,M,M,6500.00,11000.00,M,M,M,M,M,M,M,M,M,22.59,KRTS 220955Z AUTO 30007KT 10SM FEW065 OVC110 M01/M01 A2962 RMK AO2,M
MEV,2023-03-22 09:55,-119.7500,38.9963,1441.42,30.20,28.40,92.92,160.00,4.00,0.00,29.61,M,9.00,M,SCT,BKN,M,M,600.00,1600.00,M,M,M,M,M,M,M,M,M,25.32,KMEV 220955Z AUTO 16004KT 9SM SCT006 BKN016 M01/M02 A2961 RMK AO2,M
BAM,2023-03-22 09:55,-116.8743,40.5990,1382.36,32.00,32.00,100.00,0.00,0.00,0.00,29.57,M,10.00,M,SCT,SCT,M,M,800.00,1200.00,M,M,M,M,M,M,M,M,M,32.00,KBAM 220955Z AUTO 00000KT 10SM SCT008 SCT012 00/00 A2957 RMK AO1,M
HTH,2023-03-22 09:55,-118.6315,38.5448,1282.89,33.80,32.00,93.03,300.00,4.00,0.00,29.61,M,10.00,M,BKN,OVC,M,M,1900.00,3800.00,M,M,M,M,M,M,M,M,M,29.52,KHTH 220955Z AUTO 30004KT 10SM BKN019 OVC038 01/00 A2961 RMK A01,M
TMT,2023-03-22 09:55,-117.1971,39.4643,1749.34,29.80,29.30,97.98,0.00,0.00,0.00,29.56,M,4.00,M,SCT,BKN,OVC,M,500.00,2900.00,3600.00,M,-SN,M,M,M,M,M,M,29.80,KTMT 220955Z AUTO 00000KT 4SM -SN SCT005 BKN029 OVC036 M01/M01 A2956 RMK AO2 T10121015,M
LSV,2023-03-22 09:55,-115.0343,36.2362,570.00,47.30,36.50,65.94,190.00,12.00,0.00,29.66,1004.00,10.00,M,CLR,M,M,M,M,M,M,M,M,M,M,M,M,M,M,41.47,KLSV 220955Z AUTO 19012KT 10SM CLR 09/03 A2966 RMK AO2 SLP040 T00850025 $,M
EKO,2023-03-22 09:56,-115.7860,40.8242,1367.00,30.00,28.00,92.15,130.00,3.00,0.00,29.55,1000.70,10.00,M,FEW,M,M,M,200.00,M,M,M,M,M,M,M,M,M,M,26.40,KEKO 220956Z AUTO 13003KT 10SM FEW002 M01/M02 A2955 RMK AO2 SLP007 T10111022,M
WMC,2023-03-22 09:56,-117.8072,40.9019,1315.00,33.00,30.00,88.23,0.00,0.00,0.00,29.58,1001.20,10.00,M,OVC,M,M,M,1900.00,M,M,M,M,M,M,M,M,M,M,33.10,KWMC 220956Z AUTO 00000KT 10SM OVC019 01/M01 A2958 RMK AO2 SLP012 T00061011,M
NFL,2023-03-22 09:56,-118.7010,39.4166,1199.00,36.00,34.00,92.35,270.00,3.00,0.00,29.60,1001.00,10.00,M,BKN,OVC,M,M,1000.00,2600.00,M,M,M,M,M,M,M,M,M,33.26,KNFL 220956Z AUTO 27003KT 10SM BKN010 OVC026 02/01 A2960 RMK AO2 SLP010 T00220011,M
HND,2023-03-22 09:56,-115.1344,35.9729,742.79,45.00,30.90,57.50,220.00,19.00,0.00,29.72,1008.00,10.00,29.00,CLR,M,M,M,M,M,M,M,M,M,M,M,29.00,220.00,2023-03-22 09:47,36.63,KHND 220956Z AUTO 22019G29KT 10SM CLR 07/M01 A2972 RMK AO2 PK WND 22029/0947 SLP080 T00721006,M
TPH,2023-03-22 09:56,-117.0904,38.0505,1654.00,30.90,30.00,96.41,210.00,10.00,0.02,29.55,1000.40,4.00,M,FEW,FEW,OVC,M,400.00,1700.00,2800.00,M,-SN BR,M,M,M,M,M,M,21.59,KTPH 220956Z AUTO 21010KT 4SM -SN BR FEW004 FEW017 OVC028 M01/M01 A2955 RMK AO2 SLP004 P0002 T10061011,M
LAS,2023-03-22 09:56,-115.1634,36.0719,663.00,46.00,30.90,55.36,210.00,15.00,0.00,29.69,1005.00,10.00,28.00,FEW,M,M,M,12000.00,M,M,M,M,M,M,M,31.00,230.00,2023-03-22 09:37,38.93,KLAS 220956Z 21015G28KT 10SM FEW120 08/M01 A2969 RMK AO2 PK WND 23031/0937 SLP050 T00781006 $,M
WMC,2023-03-22 10:06,-117.8072,40.9019,1315.00,33.00,30.00,88.23,250.00,4.00,0.00,29.58,M,10.00,M,FEW,OVC,M,M,400.00,1800.00,M,M,M,M,M,M,M,M,M,28.70,KWMC 221006Z AUTO 25004KT 10SM FEW004 OVC018 01/M01 A2958 RMK AO2 T00061011,M
LOL,2023-03-22 10:12,-118.5701,40.0684,1192.43,30.00,28.90,95.61,240.00,5.00,0.00,29.60,M,9.00,M,FEW,OVC,M,M,300.00,2900.00,M,M,M,M,M,M,M,M,M,24.02,KLOL 221012Z AUTO 24005KT 9SM FEW003 OVC029 M01/M02 A2960 RMK AO2 T10111017,M
BVU,2023-03-22 10:15,-114.8611,35.9475,671.00,46.40,32.00,57.00,220.00,17.00,0.00,29.72,M,10.00,25.00,CLR,M,M,M,M,M,M,M,M,M,M,M,M,M,M,38.94,KBVU 221015Z AUTO 22017G25KT 10SM CLR 08/M00 A2972 RMK AO2,M
CXP,2023-03-22 10:15,-119.7326,39.1923,1431.00,32.00,30.20,92.97,310.00,3.00,0.00,29.62,M,10.00,M,SCT,M,M,M,700.00,M,M,M,M,M,M,M,M,M,M,28.69,KCXP 221015Z AUTO 31003KT 10SM SCT007 00/M01 A2962 RMK AO2,M
RTS,2023-03-22 10:15,-119.8764,39.6682,1539.00,30.20,28.40,92.92,270.00,4.00,0.00,29.63,M,10.00,M,OVC,M,M,M,11000.00,M,M,M,M,M,M,M,M,M,M,25.32,KRTS 221015Z AUTO 27004KT 10SM OVC110 M01/M02 A2963 RMK AO2,M
TPH,2023-03-22 10:15,-117.0904,38.0505,1654.00,30.90,30.00,96.41,200.00,12.00,T,29.55,M,2.00,M,BKN,OVC,M,M,2000.00,2500.00,M,M,-SN BR,M,M,M,M,M,M,20.60,KTPH 221015Z AUTO 20012KT 2SM -SN BR BKN020 OVC025 M01/M01 A2955 RMK AO2 P0000 T10061011,M
05U,2023-03-22 10:15,-116.0051,39.6042,1811.23,26.60,26.60,100.00,M,M,0.00,29.57,M,10.00,M,SCT,BKN,OVC,M,300.00,1800.00,3300.00,M,M,M,M,M,M,M,M,M,K05U 221015Z AUTO 10SM SCT003 BKN018 OVC033 M03/M03 A2957 RMK A01,M
MEV,2023-03-22 10:15,-119.7500,38.9963,1441.42,30.20,28.40,92.92,140.00,3.00,0.00,29.62,M,8.00,M,BKN,M,M,M,600.00,M,M,M,M,M,M,M,M,M,M,26.63,KMEV 221015Z AUTO 14003KT 8SM BKN006 M01/M02 A2962 RMK AO2,M
BAM,2023-03-22 10:15,-116.8743,40.5990,1382.36,32.00,32.00,100.00,180.00,3.00,0.00,29.58,M,10.00,M,CLR,M,M,M,M,M,M,M,M,M,M,M,M,M,M,28.69,KBAM 221015Z AUTO 18003KT 10SM CLR 00/00 A2958 RMK AO1,M
HTH,2023-03-22 10:15,-118.6315,38.5448,1282.89,33.80,32.00,93.03,0.00,0.00,0.00,29.62,M,10.00,M,SCT,BKN,M,M,1900.00,3800.00,M,M,M,M,M,M,M,M,M,33.80,KHTH 221015Z AUTO 00000KT 10SM SCT019 BKN038 01/M00 A2962 RMK A01,M
TMT,2023-03-22 10:15,-117.1971,39.4643,1749.34,29.80,29.30,97.98,0.00,0.00,0.00,29.56,M,5.00,M,SCT,BKN,OVC,M,2600.00,3000.00,3800.00,M,-SN,M,M,M,M,M,M,29.80,KTMT 221015Z AUTO 00000KT 5SM -SN SCT026 BKN030 OVC038 M01/M01 A2956 RMK AO2 T10121015,M
ELY,2023-03-22 10:17,-114.8453,39.2950,1909.00,30.90,27.00,85.26,230.00,10.00,T,29.54,M,2.00,M,OVC,M,M,M,2600.00,M,M,M,-SN BR,M,M,M,M,M,M,21.59,KELY 221017Z AUTO 23010KT 2SM -SN BR OVC026 M01/M03 A2954 RMK AO2 P0000 T10061028 $,M
ELY,2023-03-22 10:19,-114.8453,39.2950,1909.00,30.90,28.00,88.84,230.00,10.00,T,29.54,M,1.25,M,BKN,OVC,M,M,2400.00,2900.00,M,M,-SN BR,M,M,M,M,M,M,21.59,KELY 221019Z AUTO 23010KT 1 1/4SM -SN BR BKN024 OVC029 M01/M02 A2954 RMK AO2 P0000 T10061022 $,M
TPH,2023-03-22 10:23,-117.0904,38.0505,1654.00,30.90,30.00,96.41,210.00,11.00,T,29.55,M,2.00,M,FEW,OVC,M,M,600.00,1600.00,M,M,-SN BR,M,M,M,M,M,M,21.08,KTPH 221023Z AUTO 21011KT 2SM -SN BR FEW006 OVC016 M01/M01 A2955 RMK AO2 P0000 T10061011,M
WMC,2023-03-22 10:23,-117.8072,40.9019,1315.00,33.00,30.00,88.23,290.00,3.00,0.00,29.58,M,2.50,M,BKN,OVC,M,M,200.00,1600.00,M,M,BR,M,M,M,M,M,M,29.95,KWMC 221023Z AUTO 29003KT 2 1/2SM BR BKN002 OVC016 01/M01 A2958 RMK AO2 T00061011,M
WMC,2023-03-22 10:26,-117.8072,40.9019,1315.00,33.00,30.00,88.23,280.00,3.00,0.00,29.58,M,1.25,M,BKN,OVC,M,M,200.00,1600.00,M,M,BR,M,M,M,M,M,M,29.95,KWMC 221026Z AUTO 28003KT 1 1/4SM BR BKN002 OVC016 01/M01 A2958 RMK AO2 T00061011,M
ELY,2023-03-22 10:29,-114.8453,39.2950,1909.00,30.00,28.00,92.15,220.00,13.00,T,29.55,M,M,M,OVC,M,M,M,1900.00,M,M,M,SN,M,M,M,M,M,M,19.01,KELY 221029Z AUTO 22013KT SN OVC019 M01/M02 A2955 RMK AO2 P0000 T10111022 $,M
TPH,2023-03-22 10:29,-117.0904,38.0505,1654.00,30.90,30.00,96.41,200.00,10.00,T,29.56,M,1.75,M,FEW,FEW,OVC,M,600.00,900.00,1400.00,M,-SN BR,M,M,M,M,M,M,21.59,KTPH 221029Z AUTO 20010KT 1 3/4SM -SN BR FEW006 FEW009 OVC014 M01/M01 A2956 RMK AO2 P0000 T10061011,M
05U,2023-03-22 10:30,-116.0051,39.6042,1811.23,26.60,26.60,100.00,M,M,0.00,29.56,M,4.00,M,FEW,BKN,OVC,M,300.00,2200.00,3300.00,M,BR,M,M,M,M,M,M,M,K05U 221030Z AUTO 4SM BR FEW003 BKN022 OVC033 M03/M03 A2956 RMK A01,M
BVU,2023-03-22 10:35,-114.8611,35.9475,671.00,46.40,32.00,57.00,210.00,17.00,0.00,29.72,M,10.00,24.00,CLR,M,M,M,M,M,M,M,M,M,M,M,M,M,M,38.94,KBVU 221035Z AUTO 21017G24KT 10SM CLR 08/M00 A2972 RMK AO2,M
CXP,2023-03-22 10:35,-119.7326,39.1923,1431.00,32.00,30.20,92.97,140.00,4.00,0.00,29.63,M,10.00,M,SCT,BKN,BKN,M,800.00,1800.00,6000.00,M,M,M,M,M,M,M,M,27.42,KCXP 221035Z AUTO 14004KT 10SM SCT008 BKN018 BKN060 00/M01 A2963 RMK AO2,M
WMC,2023-03-22 10:35,-117.8072,40.9019,1315.00,32.00,30.00,92.22,290.00,6.00,0.00,29.58,M,0.50,M,BKN,OVC,M,M,200.00,1700.00,M,M,FG,M,M,M,M,M,M,25.53,KWMC 221035Z AUTO 29006KT 1/2SM FG BKN002 OVC017 00/M01 A2958 RMK AO2 T00001011,M
RTS,2023-03-22 10:35,-119.8764,39.6682,1539.00,30.20,28.40,92.92,350.00,4.00,0.00,29.63,M,10.00,M,OVC,M,M,M,10000.00,M,M,M,M,M,M,M,M,M,M,25.32,KRTS 221035Z AUTO 35004KT 10SM OVC100 M01/M02 A2963 RMK AO2,M
MEV,2023-03-22 10:35,-119.7500,38.9963,1441.42,32.00,30.20,92.97,120.00,5.00,0.00,29.62,M,9.00,M,OVC,M,M,M,500.00,M,M,M,M,M,M,M,M,M,M,26.40,KMEV 221035Z AUTO 12005KT 9SM OVC005 M00/M01 A2962 RMK AO2,M
BAM,2023-03-22 10:35,-116.8743,40.5990,1382.36,32.00,32.00,100.00,280.00,3.00,0.00,29.58,M,10.00,M,BKN,M,M,M,1300.00,M,M,M,M,M,M,M,M,M,M,28.69,KBAM 221035Z AUTO 28003KT 10SM BKN013 00/00 A2958 RMK AO1,M
HTH,2023-03-22 10:35,-118.6315,38.5448,1282.89,33.80,32.00,93.03,250.00,3.00,0.00,29.62,M,10.00,M,CLR,M,M,M,M,M,M,M,M,M,M,M,M,M,M,30.75,KHTH 221035Z AUTO 25003KT 10SM CLR 01/00 A2962 RMK A01,M
TMT,2023-03-22 10:35,-117.1971,39.4643,1749.34,29.50,29.30,99.19,360.00,4.00,0.00,29.56,M,7.00,M,SCT,OVC,M,M,2800.00,3800.00,M,M,-SN,M,M,M,M,M,M,24.50,KTMT 221035Z AUTO 36004KT 7SM -SN SCT028 OVC038 M01/M01 A2956 RMK AO2 T10141015,M
ELY,2023-03-22 10:43,-114.8453,39.2950,1909.00,30.00,28.00,92.15,180.00,13.00,0.01,29.56,M,1.75,M,OVC,M,M,M,1800.00,M,M,M,-SN BR,M,M,M,M,M,M,19.01,KELY 221043Z AUTO 18013KT 1 3/4SM -SN BR OVC018 M01/M02 A2956 RMK AO2 P0001 T10111022 $,M
EKO,2023-03-22 10:45,-115.7860,40.8242,1367.00,26.10,24.10,92.01,340.00,5.00,0.00,29.54,M,10.00,M,BKN,M,M,M,200.00,M,M,M,M,T,M,M,M,M,M,19.39,KEKO 221045Z AUTO 34005KT 10SM BKN002 M03/M04 A2954 RMK AO2 I1000 T10331044,M
TPH,2023-03-22 10:45,-117.0904,38.0505,1654.00,30.90,30.00,96.41,220.00,15.00,T,29.56,M,1.75,M,FEW,FEW,OVC,M,600.00,1300.00,1800.00,M,-SN BR,M,M,M,M,M,M,19.35,KTPH 221045Z AUTO 22015KT 1 3/4SM -SN BR FEW006 FEW013 OVC018 M01/M01 A2956 RMK AO2 P0000 T10061011,M
WMC,2023-03-22 10:50,-117.8072,40.9019,1315.00,33.80,30.20,86.49,260.00,5.00,0.00,29.58,M,1.50,M,BKN,OVC,M,M,200.00,1900.00,M,M,BR,M,M,M,M,M,M,28.53,KWMC 221050Z AUTO 26005KT 1 1/2SM BR BKN002 OVC019 01/M01 A2958 RMK AO2,M
05U,2023-03-22 10:50,-116.0051,39.6042,1811.23,26.60,26.60,100.00,M,M,0.00,29.56,M,5.00,M,FEW,SCT,BKN,M,200.00,2100.00,3300.00,M,BR,M,M,M,M,M,M,M,K05U 221050Z AUTO 5SM BR FEW002 SCT021 BKN033 M03/M03 A2956 RMK A01,M
WMC,2023-03-22 10:52,-117.8072,40.9019,1315.00,33.80,30.20,86.49,270.00,4.00,0.00,29.58,M,3.00,M,BKN,OVC,M,M,200.00,1900.00,M,M,BR,M,M,M,M,M,M,29.52,KWMC 221052Z AUTO 27004KT 3SM BR BKN002 OVC019 01/M01 A2958 RMK AO2,M
P68,2023-03-22 10:53,-116.0056,39.6014,1993.00,27.00,25.00,92.05,0.00,0.00,0.00,29.53,999.00,M,M,M,M,M,M,M,M,M,M,M,M,M,M,M,M,M,27.00,KP68 221053Z AUTO 00000KT M03/M04 A2953 RMK AO1 SLP990 T10281039,M
DRA,2023-03-22 10:53,-116.0278,36.6206,1009.00,41.00,28.90,61.79,200.00,20.00,0.00,29.65,1002.60,10.00,35.00,FEW,M,M,M,4300.00,M,M,M,M,M,M,M,41.00,200.00,2023-03-22 10:01,31.09,KDRA 221053Z AUTO 20020G35KT 10SM FEW043 05/M02 A2965 RMK AO2 PK WND 20041/1001 SLP026 T00501017,M
ELY,2023-03-22 10:53,-114.8453,39.2950,1909.00,28.90,27.00,92.49,190.00,7.00,0.01,29.56,1000.20,0.75,M,VV ,M,M,M,1400.00,M,M,M,-SN BR,M,M,M,M,M,M,21.00,KELY 221053Z AUTO 19007KT 3/4SM -SN BR VV014 M02/M03 A2956 RMK AO2 SLP002 P0001 T10171028 $,M
VGT,2023-03-22 10:53,-115.1933,36.2111,667.00,48.00,30.90,51.34,220.00,17.00,0.00,29.67,1006.00,10.00,27.00,CLR,M,M,M,M,M,M,M,M,M,M,M,29.00,210.00,2023-03-22 10:03,41.04,KVGT 221053Z AUTO 22017G27KT 10SM CLR 09/M01 A2967 RMK AO2 PK WND 21029/1003 SLP060 T00891006,M
LOL,2023-03-22 10:53,-118.5701,40.0684,1192.43,30.90,30.00,96.41,210.00,5.00,0.00,29.61,1003.70,10.00,M,BKN,OVC,M,M,1700.00,3100.00,M,M,M,M,M,M,M,M,M,25.09,KLOL 221053Z AUTO 21005KT 10SM BKN017 OVC031 M01/M01 A2961 RMK AO2 SLP037 T10061011,M
BVU,2023-03-22 10:55,-114.8611,35.9475,671.00,46.40,30.20,53.00,210.00,15.00,0.00,29.73,M,10.00,21.00,CLR,M,M,M,M,M,M,M,M,M,M,M,M,M,M,39.45,KBVU 221055Z AUTO 21015G21KT 10SM CLR 08/M01 A2973 RMK AO2,M
CXP,2023-03-22 10:55,-119.7326,39.1923,1431.00,32.00,30.20,92.97,230.00,3.00,0.00,29.64,M,10.00,M,FEW,SCT,BKN,M,1800.00,5500.00,7000.00,M,M,M,M,M,M,M,M,28.69,KCXP 221055Z AUTO 23003KT 10SM FEW018 SCT055 BKN070 M00/M01 A2964 RMK AO2,M
RNO,2023-03-22 10:55,-119.7711,39.4839,1341.00,33.00,30.00,88.23,60.00,3.00,0.00,29.63,1003.30,10.00,M,FEW,BKN,M,M,5000.00,14000.00,M,M,M,M,M,M,M,M,M,29.95,KRNO 221055Z 06003KT 10SM FEW050 BKN140 01/M01 A2963 RMK AO2 SLP033 T00061011 $,M
RTS,2023-03-22 10:55,-119.8764,39.6682,1539.00,28.40,26.60,92.86,0.00,0.00,0.00,29.63,M,10.00,M,SCT,M,M,M,10000.00,M,M,M,M,M,M,M,M,M,M,28.40,KRTS 221055Z AUTO 00000KT 10SM SCT100 M02/M03 A2963 RMK AO2,M
MEV,2023-03-22 10:55,-119.7500,38.9963,1441.42,32.00,30.20,92.97,130.00,4.00,0.00,29.63,M,10.00,M,OVC,M,M,M,600.00,M,M,M,M,M,M,M,M,M,M,27.42,KMEV 221055Z AUTO 13004KT 10SM OVC006 M00/M01 A2963 RMK AO2,M
BAM,2023-03-22 10:55,-116.8743,40.5990,1382.36,32.00,32.00,100.00,310.00,4.00,0.00,29.59,M,0.25,M,OVC,M,M,M,100.00,M,M,M,M,M,M,M,M,M,M,27.42,KBAM 221055Z AUTO 31004KT 1/4SM OVC001 00/00 A2959 RMK AO1,M
HTH,2023-03-22 10:55,-118.6315,38.5448,1282.89,33.80,32.00,93.03,230.00,4.00,0.00,29.63,M,10.00,M,CLR,M,M,M,M,M,M,M,M,M,M,M,M,M,M,29.52,KHTH 221055Z AUTO 23004KT 10SM CLR 01/M00 A2963 RMK A01,M
TMT,2023-03-22 10:55,-117.1971,39.4643,1749.34,29.70,29.30,98.38,360.00,5.00,0.00,29.57,M,4.00,M,BKN,BKN,OVC,M,1500.00,2200.00,3800.00,M,-SN,M,M,M,M,M,M,23.66,KTMT 221055Z AUTO 36005KT 4SM -SN BKN015 BKN022 OVC038 M01/M01 A2957 RMK AO2 T10131015,M
INS,2023-03-22 10:55,-115.6733,36.5872,955.00,43.50,25.70,49.19,210.00,23.00,0.00,29.62,1001.80,10.00,33.00,CLR,M,M,M,M,M,M,M,M,M,M,M,38.00,200.00,2023-03-22 10:48,33.77,KINS 221055Z AUTO 21023G33KT 10SM CLR 06/M03 A2962 RMK AO2 PK WND 20038/48 SLP018 T00641035 $,M
LSV,2023-03-22 10:55,-115.0343,36.2362,570.00,47.00,33.00,58.03,170.00,3.00,0.00,29.69,1004.90,10.00,M,CLR,M,M,M,M,M,M,M,M,M,M,M,M,M,M,45.95,KLSV 221055Z AUTO 17003KT 10SM CLR 08/01 A2969 RMK AO2 SLP049 T00840006 $,M
EKO,2023-03-22 10:56,-115.7860,40.8242,1367.00,26.10,24.10,92.01,0.00,0.00,0.00,29.55,1001.40,8.00,M,OVC,M,M,M,200.00,M,M,M,M,T,M,M,M,M,M,26.10,KEKO 221056Z AUTO 00000KT 8SM OVC002 M03/M04 A2955 RMK AO2 SLP014 I1000 T10331044,M
WMC,2023-03-22 10:56,-117.8072,40.9019,1315.00,33.00,30.00,88.23,260.00,5.00,0.00,29.58,1001.80,7.00,M,BKN,OVC,M,M,200.00,1900.00,M,M,M,M,M,M,M,M,M,27.70,KWMC 221056Z AUTO 26005KT 7SM BKN002 OVC019 01/M01 A2958 RMK AO2 SLP018 T00061011,M
NFL,2023-03-22 10:56,-118.7010,39.4166,1199.00,36.00,34.00,92.35,300.00,6.00,0.00,29.62,1001.50,8.00,M,SCT,OVC,M,M,1200.00,2500.00,M,M,M,M,M,M,M,M,M,30.35,KNFL 221056Z AUTO 30006KT 8SM SCT012 OVC025 02/01 A2962 RMK AO2 SLP015 T00220011,M
HND,2023-03-22 10:56,-115.1344,35.9729,742.79,44.00,30.90,59.50,220.00,21.00,0.00,29.71,1007.60,10.00,31.00,CLR,M,M,M,M,M,M,M,M,M,M,M,31.00,230.00,2023-03-22 10:51,34.99,KHND 221056Z AUTO 22021G31KT 10SM CLR 07/M01 A2971 RMK AO2 PK WND 23031/1051 SLP076 T00671006,M
TPH,2023-03-22 10:56,-117.0904,38.0505,1654.00,30.90,30.00,96.41,230.00,14.00,0.01,29.57,1001.00,0.75,M,VV ,M,M,M,1300.00,M,M,M,-SN BR,M,M,M,M,M,M,19.74,KTPH 221056Z AUTO 23014KT 3/4SM -SN BR VV013 M01/M01 A2957 RMK AO2 SLP010 P0001 T10061011,M
LAS,2023-03-22 10:56,-115.1634,36.0719,663.00,46.00,30.00,53.37,220.00,17.00,0.00,29.69,1004.70,10.00,28.00,FEW,M,M,M,10000.00,M,M,M,M,M,M,M,28.00,200.00,2023-03-22 09:58,38.42,KLAS 221056Z 22017G28KT 10SM FEW100 08/M01 A2969 RMK AO2 PK WND 20028/0958 SLP047 T00781011 $,M
EKO,2023-03-22 11:00,-115.7860,40.8242,1367.00,24.10,23.00,95.49,0.00,0.00,0.00,29.55,M,1.75,M,OVC,M,M,M,200.00,M,M,M,BR,M,M,M,M,M,M,24.10,KEKO 221100Z AUTO 00000KT 1 3/4SM BR OVC002 M04/M05 A2955 RMK AO2 T10441050,M
ELY,2023-03-22 11:00,-114.8453,39.2950,1909.00,28.90,28.00,96.38,160.00,4.00,0.01,29.56,M,1.00,M,VV ,M,M,M,1600.00,M,M,M,-SN BR,M,M,M,M,M,M,23.80,KELY 221100Z AUTO 16004KT 1SM -SN BR VV016 M02/M02 A2956 RMK AO2 P0001 T10171022 $,M
LOL,2023-03-22 11:01,-118.5701,40.0684,1192.43,30.90,30.00,96.41,210.00,4.00,0.00,29.61,M,10.00,M,SCT,BKN,BKN,M,1700.00,3100.00,9000.00,M,M,M,M,M,M,M,M,26.14,KLOL 221101Z AUTO 21004KT 10SM SCT017 BKN031 BKN090 M01/M01 A2961 RMK AO2 T10061011,M
ELY,2023-03-22 11:07,-114.8453,39.2950,1909.00,28.90,27.00,92.49,120.00,5.00,0.01,29.55,M,M,M,OVC,M,M,M,1600.00,M,M,M,SN,M,M,M,M,M,M,22.71,KELY 221107Z AUTO 12005KT SN OVC016 M02/M03 A2955 RMK AO2 P0001 T10171028 $,M
EKO,2023-03-22 11:10,-115.7860,40.8242,1367.00,25.00,23.00,91.97,0.00,0.00,0.00,29.55,M,0.50,M,OVC,M,M,M,200.00,M,M,M,FZFG,M,M,M,M,M,M,25.00,KEKO 221110Z AUTO 00000KT 1/2SM FZFG OVC002 M04/M05 A2955 RMK AO2 CIG 001V005 T10391050,M
05U,2023-03-22 11:10,-116.0051,39.6042,1811.23,26.60,26.60,100.00,0.00,0.00,0.00,29.56,M,10.00,M,FEW,SCT,OVC,M,3000.00,4800.00,11000.00,M,M,M,M,M,M,M,M,26.60,K05U 221110Z AUTO 00000KT 10SM FEW030 SCT048 OVC110 M03/M03 A2956 RMK A01,M
WMC,2023-03-22 11:11,-117.8072,40.9019,1315.00,33.00,30.00,88.23,280.00,6.00,0.00,29.59,M,2.50,M,BKN,OVC,M,M,200.00,1600.00,M,M,BR,M,M,M,M,M,M,26.86,KWMC 221111Z AUTO 28006KT 2 1/2SM BR BKN002 OVC016 01/M01 A2959 RMK AO2 T00061011,M
LOL,2023-03-22 11:12,-118.5701,40.0684,1192.43,30.90,30.00,96.41,0.00,0.00,0.00,29.62,M,10.00,M,BKN,BKN,M,M,2700.00,3200.00,M,M,M,M,M,M,M,M,M,30.90,KLOL 221112Z AUTO 00000KT 10SM BKN027 BKN032 M01/M01 A2962 RMK AO2 T10061011,M
BVU,2023-03-22 11:15,-114.8611,35.9475,671.00,46.40,32.00,57.00,200.00,10.00,0.00,29.74,M,10.00,18.00,CLR,M,M,M,M,M,M,M,M,M,M,M,M,M,M,41.03,KBVU 221115Z AUTO 20010G18KT 10SM CLR 08/M00 A2974 RMK AO2,M
CXP,2023-03-22 11:15,-119.7326,39.1923,1431.00,32.00,30.20,92.97,0.00,0.00,0.00,29.64,M,10.00,M,SCT,SCT,BKN,M,600.00,1800.00,7000.00,M,M,M,M,M,M,M,M,32.00,KCXP 221115Z AUTO 00000KT 10SM SCT006 SCT018 BKN070 M00/M01 A2964 RMK AO2,M
ELY,2023-03-22 11:15,-114.8453,39.2950,1909.00,28.90,28.00,96.38,160.00,3.00,0.01,29.56,M,1.50,M,OVC,M,M,M,1400.00,M,M,M,-SN BR,M,M,M,M,M,M,25.14,KELY 221115Z AUTO 16003KT 1 1/2SM -SN BR OVC014 M02/M02 A2956 RMK AO2 P0001 T10171022 $,M
RTS,2023-03-22 11:15,-119.8764,39.6682,1539.00,30.20,26.60,86.28,0.00,0.00,0.00,29.63,M,10.00,M,FEW,M,M,M,10000.00,M,M,M,M,M,M,M,M,M,M,30.20,KRTS 221115Z AUTO 00000KT 10SM FEW100 M01/M03 A2963 RMK AO2,M
TPH,2023-03-22 11:15,-117.0904,38.0505,1654.00,30.90,28.90,92.18,220.00,19.00,0.01,29.57,M,2.00,24.00,BKN,OVC,M,M,1000.00,2500.00,M,M,-SN BR,M,M,M,M,M,M,17.98,KTPH 221115Z AUTO 22019G24KT 2SM -SN BR BKN010 OVC025 M01/M02 A2957 RMK AO2 P0001 T10061017,M
MEV,2023-03-22 11:15,-119.7500,38.9963,1441.42,30.20,30.20,100.00,0.00,0.00,0.00,29.63,M,10.00,M,BKN,BKN,OVC,M,800.00,6500.00,9500.00,M,M,M,M,M,M,M,M,30.20,KMEV 221115Z AUTO 00000KT 10SM BKN008 BKN065 OVC095 M01/M01 A2963 RMK AO2,M
BAM,2023-03-22 11:15,-116.8743,40.5990,1382.36,32.00,32.00,100.00,320.00,3.00,0.00,29.59,M,0.25,M,OVC,M,M,M,100.00,M,M,M,M,M,M,M,M,M,M,28.69,KBAM 221115Z AUTO 32003KT 1/4SM OVC001 00/00 A2959 RMK AO1,M
HTH,2023-03-22 11:15,-118.6315,38.5448,1282.89,33.80,32.00,93.03,220.00,3.00,0.00,29.63,M,10.00,M,FEW,M,M,M,7000.00,M,M,M,M,M,M,M,M,M,M,30.75,KHTH 221115Z AUTO 22003KT 10SM FEW070 01/00 A2963 RMK A01,M
TMT,2023-03-22 11:15,-117.1971,39.4643,1749.34,29.30,29.10,99.19,0.00,0.00,0.01,29.58,M,1.75,M,OVC,M,M,M,1200.00,M,M,M,-SN,M,M,M,M,M,M,29.30,KTMT 221115Z AUTO 00000KT 1 3/4SM -SN OVC012 M01/M02 A2958 RMK AO2 P0001 T10151016,M
WMC,2023-03-22 11:18,-117.8072,40.9019,1315.00,33.00,30.00,88.23,280.00,5.00,0.00,29.59,M,8.00,M,BKN,OVC,M,M,200.00,1600.00,M,M,M,M,M,M,M,M,M,27.70,KWMC 221118Z AUTO 28005KT 8SM BKN002 OVC016 01/M01 A2959 RMK AO2 T00061011,M
ELY,2023-03-22 11:22,-114.8453,39.2950,1909.00,28.90,27.00,92.49,150.00,6.00,0.01,29.56,M,3.00,M,BKN,OVC,M,M,1400.00,9000.00,M,M,-SN BR,M,M,M,M,M,M,21.80,KELY 221122Z AUTO 15006KT 3SM -SN BR BKN014 OVC090 M02/M03 A2956 RMK AO2 P0001 T10171028 $,M
TPH,2023-03-22 11:23,-117.0904,38.0505,1654.00,30.90,28.90,92.18,220.00,14.00,0.01,29.58,M,7.00,23.00,SCT,OVC,M,M,800.00,2500.00,M,M,-SN,M,M,M,M,M,M,19.74,KTPH 221123Z AUTO 22014G23KT 7SM -SN SCT008 OVC025 M01/M02 A2958 RMK AO2 P0001 T10061017,M
WMC,2023-03-22 11:27,-117.8072,40.9019,1315.00,33.00,30.00,88.23,280.00,6.00,0.00,29.59,M,10.00,M,SCT,OVC,M,M,200.00,1500.00,M,M,M,M,M,M,M,M,M,26.86,KWMC 221127Z AUTO 28006KT 10SM SCT002 OVC015 01/M01 A2959 RMK AO2 T00061011,M
05U,2023-03-22 11:30,-116.0051,39.6042,1811.23,26.60,26.60,100.00,M,M,0.00,29.56,M,10.00,M,BKN,BKN,OVC,M,3200.00,4800.00,6500.00,M,M,M,M,M,M,M,M,M,K05U 221130Z AUTO 10SM BKN032 BKN048 OVC065 M03/M03 A2956 RMK A01,M
EKO,2023-03-22 11:31,-115.7860,40.8242,1367.00,24.10,23.00,95.49,0.00,0.00,0.00,29.55,M,2.00,M,OVC,M,M,M,300.00,M,M,M,BR,M,M,M,M,M,M,24.10,KEKO 221131Z AUTO 00000KT 2SM BR OVC003 M04/M05 A2955 RMK AO2 T10441050,M
BVU,2023-03-22 11:35,-114.8611,35.9475,671.00,44.60,33.80,65.61,180.00,8.00,0.00,29.74,M,10.00,M,CLR,M,M,M,M,M,M,M,M,M,M,M,M,M,M,39.63,KBVU 221135Z AUTO 18008KT 10SM CLR 07/01 A2974 RMK AO2,M
CXP,2023-03-22 11:35,-119.7326,39.1923,1431.00,32.00,30.20,92.97,0.00,0.00,0.00,29.65,M,10.00,M,BKN,BKN,M,M,600.00,1900.00,M,M,M,M,M,M,M,M,M,32.00,KCXP 221135Z AUTO 00000KT 10SM BKN006 BKN019 M00/M01 A2965 RMK AO2,M
RTS,2023-03-22 11:35,-119.8764,39.6682,1539.00,28.40,26.60,92.86,0.00,0.00,0.00,29.64,M,10.00,M,SCT,M,M,M,10000.00,M,M,M,M,M,M,M,M,M,M,28.40,KRTS 221135Z AUTO 00000KT 10SM SCT100 M02/M03 A2964 RMK AO2,M
MEV,2023-03-22 11:35,-119.7500,38.9963,1441.42,30.20,28.40,92.92,240.00,4.00,0.00,29.64,M,10.00,M,FEW,BKN,BKN,M,4900.00,6000.00,9500.00,M,M,M,M,M,M,M,M,25.32,KMEV 221135Z AUTO 24004KT 10SM FEW049 BKN060 BKN095 M01/M02 A2964 RMK AO2,M
BAM,2023-03-22 11:35,-116.8743,40.5990,1382.36,32.00,32.00,100.00,0.00,0.00,0.00,29.60,M,0.25,M,OVC,M,M,M,100.00,M,M,M,M,M,M,M,M,M,M,32.00,KBAM 221135Z AUTO 00000KT 1/4SM OVC001 00/00 A2960 RMK AO1,M
HTH,2023-03-22 11:35,-118.6315,38.5448,1282.89,33.80,32.00,93.03,230.00,4.00,0.00,29.64,M,10.00,M,CLR,M,M,M,M,M,M,M,M,M,M,M,M,M,M,29.52,KHTH 221135Z AUTO 23004KT 10SM CLR 01/M00 A2964 RMK A01,M
TMT,2023-03-22 11:35,-117.1971,39.4643,1749.34,29.10,28.40,97.18,0.00,0.00,0.01,29.58,M,7.00,M,SCT,SCT,OVC,M,800.00,1500.00,3900.00,M,-SN,M,M,M,M,M,M,29.10,KTMT 221135Z AUTO 00000KT 7SM -SN SCT008 SCT015 OVC039 M02/M02 A2958 RMK AO2 P0001 T10161020,M
ELY,2023-03-22 11:36,-114.8453,39.2950,1909.00,28.00,27.00,95.97,200.00,5.00,0.01,29.56,M,10.00,M,SCT,SCT,OVC,M,1300.00,4400.00,9000.00,M,M,M,M,M,M,M,M,21.64,KELY 221136Z AUTO 20005KT 10SM SCT013 SCT044 OVC090 M02/M03 A2956 RMK AO2 SNE30 P0001 T10221028 $,M
EKO,2023-03-22 11:40,-115.7860,40.8242,1367.00,24.10,23.00,95.49,180.00,4.00,0.00,29.56,M,8.00,M,OVC,M,M,M,300.00,M,M,M,M,M,M,M,M,M,M,18.19,KEKO 221140Z AUTO 18004KT 8SM OVC003 M04/M05 A2956 RMK AO2 T10441050,M
INS,2023-03-22 11:43,-115.6733,36.5872,955.00,44.60,26.60,48.96,250.00,15.00,0.00,29.65,1002.40,10.00,27.00,CLR,M,M,M,M,M,M,M,M,M,M,M,M,M,M,37.11,KINS 221143Z AUTO 25015G27KT 10SM CLR 07/M03 A2965 RMK AO2 WSHFT 29 SLP024 $,M
05U,2023-03-22 11:50,-116.0051,39.6042,1811.23,26.60,26.60,100.00,M,M,0.00,29.56,M,7.00,M,FEW,SCT,OVC,M,200.00,2100.00,3100.00,M,M,M,M,M,M,M,M,M,K05U 221150Z AUTO 7SM FEW002 SCT021 OVC031 M03/M03 A2956 RMK A01,M
P68,2023-03-22 11:53,-116.0056,39.6014,1993.00,27.00,26.10,96.35,0.00,0.00,0.00,29.54,999.70,M,M,M,M,M,M,M,M,M,M,M,M,M,M,M,M,M,27.00,KP68 221153Z AUTO 00000KT M03/M03 A2954 RMK AO1 SLP997 70017 T10281033 10000 21050 50000,M
DRA,2023-03-22 11:53,-116.0278,36.6206,1009.00,41.00,28.90,61.79,220.00,18.00,0.00,29.67,1003.10,10.00,28.00,FEW,M,M,M,4000.00,M,M,M,M,M,M,M,37.00,210.00,2023-03-22 11:17,31.60,KDRA 221153Z AUTO 22018G28KT 10SM FEW040 05/M02 A2967 RMK AO2 PK WND 21037/1117 SLP031 60008 70048 T00501017 10056 20039 53003,M
ELY,2023-03-22 11:53,-114.8453,39.2950,1909.00,28.00,25.00,88.33,230.00,7.00,0.01,29.55,1000.30,10.00,M,FEW,OVC,M,M,4000.00,10000.00,M,M,M,M,M,M,M,M,M,19.90,KELY 221153Z AUTO 23007KT 10SM FEW040 OVC100 M02/M04 A2955 RMK AO2 SNE30 SLP003 P0001 60006 70024 T10221039 10000 21028 50004 $,M
VGT,2023-03-22 11:53,-115.1933,36.2111,667.00,47.00,30.00,51.58,220.00,19.00,0.00,29.68,1006.40,10.00,27.00,CLR,M,M,M,M,M,M,M,M,M,M,M,33.00,220.00,2023-03-22 11:43,39.14,KVGT 221153Z AUTO 22019G27KT 10SM CLR 08/M01 A2968 RMK AO2 PK WND 22033/1143 SLP064 60005 70018 T00831011 10122 20078 53001,M
LOL,2023-03-22 11:53,-118.5701,40.0684,1192.43,30.90,30.00,96.41,130.00,5.00,0.00,29.64,1004.50,10.00,M,BKN,OVC,M,M,2800.00,8500.00,M,M,M,M,M,M,M,M,M,25.09,KLOL 221153Z AUTO 13005KT 10SM BKN028 OVC085 M01/M01 A2964 RMK AO2 SLP045 70005 T10061011 10022 21011 53017,M
BVU,2023-03-22 11:55,-114.8611,35.9475,671.00,44.60,33.80,65.61,140.00,7.00,0.00,29.76,M,10.00,M,CLR,M,M,M,M,M,M,M,M,M,M,M,M,M,M,40.14,KBVU 221155Z AUTO 14007KT 10SM CLR 07/01 A2976 RMK AO2,M
CXP,2023-03-22 11:55,-119.7326,39.1923,1431.00,32.00,30.20,92.97,0.00,0.00,0.00,29.67,M,10.00,M,OVC,M,M,M,600.00,M,M,M,M,M,M,M,M,M,M,32.00,KCXP 221155Z AUTO 00000KT 10SM OVC006 00/M01 A2967 RMK AO2,M
RNO,2023-03-22 11:55,-119.7711,39.4839,1341.00,32.00,28.90,88.17,60.00,4.00,0.00,29.65,1004.20,10.00,M,SCT,SCT,M,M,5000.00,14000.00,M,M,M,M,M,M,M,M,M,27.42,KRNO 221155Z 06004KT 10SM SCT050 SCT140 00/M02 A2965 RMK AO2 SLP042 70007 T00001017 10022 20000 53016 $,M
RTS,2023-03-22 11:55,-119.8764,39.6682,1539.00,28.40,26.60,92.86,0.00,0.00,0.00,29.65,M,10.00,M,FEW,M,M,M,10000.00,M,M,M,M,M,M,M,M,M,M,28.40,KRTS 221155Z AUTO 00000KT 10SM FEW100 M02/M03 A2965 RMK AO2,M
MEV,2023-03-22 11:55,-119.7500,38.9963,1441.42,30.20,28.40,92.92,0.00,0.00,0.00,29.65,M,10.00,M,BKN,OVC,M,M,6000.00,9500.00,M,M,M,M,M,M,M,M,M,30.20,KMEV 221155Z AUTO 00000KT 10SM BKN060 OVC095 M01/M02 A2965 RMK AO2,M
BAM,2023-03-22 11:55,-116.8743,40.5990,1382.36,32.00,32.00,100.00,0.00,0.00,0.00,29.61,M,0.25,M,OVC,M,M,M,100.00,M,M,M,M,M,M,M,M,M,M,32.00,KBAM 221155Z AUTO 00000KT 1/4SM OVC001 00/00 A2961 RMK AO1,M
HTH,2023-03-22 11:55,-118.6315,38.5448,1282.89,33.80,32.00,93.03,0.00,0.00,0.00,29.65,M,10.00,M,CLR,M,M,M,M,M,M,M,M,M,M,M,M,M,M,33.80,KHTH 221155Z AUTO 00000KT 10SM CLR 01/M00 A2965 RMK A01,M
TMT,2023-03-22 11:55,-117.1971,39.4643,1749.34,29.30,28.90,98.38,240.00,3.00,0.01,29.59,M,4.00,M,BKN,BKN,OVC,M,1000.00,1500.00,3900.00,M,-SN,M,M,M,M,M,M,25.60,KTMT 221155Z AUTO 24003KT 4SM -SN BKN010 BKN015 OVC039 M01/M02 A2959 RMK AO2 P0001 60001 70001 T10151017 11012 21029,M
INS,2023-03-22 11:55,-115.6733,36.5872,955.00,42.00,27.90,56.84,270.00,7.00,0.00,29.66,1003.00,10.00,20.00,CLR,M,M,M,M,M,M,M,M,M,M,M,34.00,210.00,2023-03-22 10:55,37.09,KINS 221155Z AUTO 27007G20KT 10SM CLR 06/M02 A2966 RMK AO2 PK WND 21034/1055 SLP030 60011 70021 T00561023 10066 20045 55000 $,M
LSV,2023-03-22 11:55,-115.0343,36.2362,570.00,45.50,32.40,59.94,160.00,11.00,0.00,29.70,1005.30,10.00,M,CLR,M,M,M,M,M,M,M,M,M,M,M,M,M,M,39.53,KLSV 221155Z AUTO 16011KT 10SM CLR 08/00 A2970 RMK AO2 SLP053 60000 T00750002 10134 20072 53012 $,M
EKO,2023-03-22 11:56,-115.7860,40.8242,1367.00,26.10,24.10,92.01,250.00,3.00,0.00,29.56,1002.00,8.00,M,OVC,M,M,M,300.00,M,M,M,M,T,M,T,M,M,M,21.94,KEKO 221156Z AUTO 25003KT 8SM OVC003 M03/M04 A2956 RMK AO2 SLP020 60004 70009 I1000 I6000 T10331044 10006 21044 53003,M
NFL,2023-03-22 11:56,-118.7010,39.4166,1199.00,35.00,32.00,88.33,280.00,6.00,0.00,29.65,1002.30,10.00,M,SCT,M,M,M,2400.00,M,M,M,M,M,M,M,M,M,M,29.26,KNFL 221156Z AUTO 28006KT 10SM SCT024 02/00 A2965 RMK AO2 SLP023 7//// T00170000 10028 20017 53013,M
HND,2023-03-22 11:56,-115.1344,35.9729,742.79,44.00,32.00,62.21,220.00,15.00,0.00,29.74,1008.50,10.00,23.00,CLR,M,M,M,M,M,M,M,M,M,M,M,31.00,220.00,2023-03-22 11:00,36.47,KHND 221156Z AUTO 22015G23KT 10SM CLR 07/00 A2974 RMK AO2 PK WND 22031/1100 SLP085 60005 70007 T00670000 10111 20067 53007,M
TPH,2023-03-22 11:56,-117.0904,38.0505,1654.00,30.90,28.00,88.84,230.00,13.00,0.01,29.60,1002.30,10.00,M,FEW,BKN,OVC,M,1100.00,2200.00,5500.00,M,M,M,M,M,M,M,M,20.16,KTPH 221156Z AUTO 23013KT 10SM FEW011 BKN022 OVC055 M01/M02 A2960 RMK AO2 SNE43 SLP023 P0001 60022 70026 T10061022 10011 21006 53015,M
LAS,2023-03-22 11:56,-115.1634,36.0719,663.00,46.00,30.00,53.37,220.00,17.00,0.00,29.71,1005.80,10.00,34.00,FEW,M,M,M,10000.00,M,M,M,M,M,M,M,34.00,220.00,2023-03-22 11:47,38.42,KLAS 221156Z 22017G34KT 10SM FEW100 08/M01 A2971 RMK AO2 PK WND 22034/1147 SLP058 60003 70009 T00781011 10111 20072 53006 $,M
WMC,2023-03-22 11:56,-117.8072,40.9019,1315.00,33.00,30.00,88.23,0.00,0.00,0.00,29.60,1002.70,10.00,M,OVC,M,M,M,1500.00,M,M,M,M,M,M,M,M,M,M,33.10,KWMC 221156Z AUTO 00000KT 10SM OVC015 01/M01 A2960 RMK AO2 SLP027 60000 70010 T00061011 10011 20000 53008,M
LOL,2023-03-22 12:00,-118.5701,40.0684,1192.43,30.90,30.00,96.41,130.00,3.00,0.00,29.64,M,10.00,M,BKN,OVC,M,M,3000.00,8500.00,M,M,M,M,M,M,M,M,M,27.43,KLOL 221200Z AUTO 13003KT 10SM BKN030 OVC085 M01/M01 A2964 RMK AO2 T10061011,M
TPH,2023-03-22 12:10,-117.0904,38.0505,1654.00,30.90,28.90,92.18,220.00,9.00,0.00,29.61,M,10.00,M,SCT,BKN,OVC,M,2300.00,3500.00,10000.00,M,M,M,M,M,M,M,M,22.15,KTPH 221210Z AUTO 22009KT 10SM SCT023 BKN035 OVC100 M01/M02 A2961 RMK AO2 T10061017,M
ELY,2023-03-22 12:13,-114.8453,39.2950,1909.00,28.90,26.10,89.12,220.00,6.00,0.00,29.56,M,10.00,M,BKN,OVC,M,M,2400.00,11000.00,M,M,M,M,M,M,M,M,M,21.80,KELY 221213Z AUTO 22006KT 10SM BKN024 OVC110 M02/M03 A2956 RMK AO2 T10171033 $,M
BVU,2023-03-22 12:15,-114.8611,35.9475,671.00,44.60,33.80,65.61,150.00,7.00,0.00,29.77,M,10.00,M,SCT,M,M,M,5500.00,M,M,M,M,M,M,M,M,M,M,40.14,KBVU 221215Z AUTO 15007KT 10SM SCT055 07/01 A2977 RMK AO2,M
CXP,2023-03-22 12:15,-119.7326,39.1923,1431.00,32.00,30.20,92.97,M,4.00,0.00,29.68,M,10.00,M,BKN,BKN,M,M,600.00,9000.00,M,M,M,M,M,M,M,M,M,27.42,KCXP 221215Z AUTO VRB04KT 10SM BKN006 BKN090 M00/M01 A2968 RMK AO2,M
EKO,2023-03-22 12:15,-115.7860,40.8242,1367.00,26.10,24.10,92.01,270.00,3.00,0.00,29.57,M,1.50,M,OVC,M,M,M,200.00,M,M,M,BR,M,M,M,M,M,M,21.94,KEKO 221215Z AUTO 27003KT 1 1/2SM BR OVC002 M03/M04 A2957 RMK AO2 T10331044,M
RTS,2023-03-22 12:15,-119.8764,39.6682,1539.00,28.40,26.60,92.86,260.00,3.00,0.00,29.67,M,10.00,M,CLR,M,M,M,M,M,M,M,M,M,M,M,M,M,M,24.57,KRTS 221215Z AUTO 26003KT 10SM CLR M02/M03 A2967 RMK AO2,M
05U,2023-03-22 12:15,-116.0051,39.6042,1811.23,28.40,28.40,100.00,0.00,0.00,0.00,29.57,M,1.25,M,OVC,M,M,M,200.00,M,M,M,BR,M,M,M,M,M,M,28.40,K05U 221215Z AUTO 00000KT 1 1/4SM BR OVC002 M02/M02 A2957 RMK A01,M
MEV,2023-03-22 12:15,-119.7500,38.9963,1441.42,26.60,26.60,100.00,0.00,0.00,0.00,29.66,M,10.00,M,OVC,M,M,M,6000.00,M,M,M,M,M,M,M,M,M,M,26.60,KMEV 221215Z AUTO 00000KT 10SM OVC060 M03/M03 A2966 RMK AO2,M
BAM,2023-03-22 12:15,-116.8743,40.5990,1382.36,32.00,32.00,100.00,0.00,0.00,0.00,29.61,M,0.25,M,OVC,M,M,M,100.00,M,M,M,M,M,M,M,M,M,M,32.00,KBAM 221215Z AUTO 00000KT 1/4SM OVC001 00/00 A2961 RMK AO1,M
HTH,2023-03-22 12:15,-118.6315,38.5448,1282.89,33.80,32.00,93.03,210.00,6.00,0.00,29.67,M,10.00,M,FEW,M,M,M,1700.00,M,M,M,M,M,M,M,M,M,M,27.70,KHTH 221215Z AUTO 21006KT 10SM FEW017 01/M00 A2967 RMK A01,M
TMT,2023-03-22 12:15,-117.1971,39.4643,1749.34,28.20,27.10,95.58,300.00,5.00,0.00,29.61,M,2.50,M,BKN,BKN,OVC,M,1000.00,1700.00,2200.00,M,-SN,M,M,M,M,M,M,21.88,KTMT 221215Z AUTO 30005KT 2 1/2SM -SN BKN010 BKN017 OVC022 M02/M03 A2961 RMK AO2 T10211027,M
NFL,2023-03-22 12:19,-118.7010,39.4166,1199.00,35.00,32.00,88.33,270.00,3.00,0.00,29.66,M,10.00,M,BKN,BKN,M,M,2700.00,7500.00,M,M,M,M,M,M,M,M,M,32.23,KNFL 221219Z AUTO 27003KT 10SM BKN027 BKN075 02/00 A2966 RMK AO2 T00170000,M
WMC,2023-03-22 12:23,-117.8072,40.9019,1315.00,32.00,30.00,92.22,170.00,8.00,0.00,29.62,M,2.50,M,FEW,BKN,OVC,M,400.00,1800.00,2200.00,M,BR,M,M,M,M,M,M,24.11,KWMC 221223Z AUTO 17008KT 2 1/2SM BR FEW004 BKN018 OVC022 00/M01 A2962 RMK AO2 T00001011,M
EKO,2023-03-22 12:24,-115.7860,40.8242,1367.00,26.10,24.10,92.01,300.00,3.00,0.00,29.57,M,0.75,M,OVC,M,M,M,200.00,M,M,M,BR,M,M,M,M,M,M,21.94,KEKO 221224Z AUTO 30003KT 3/4SM BR OVC002 M03/M04 A2957 RMK AO2 T10331044,M
WMC,2023-03-22 12:25,-117.8072,40.9019,1315.00,32.00,30.00,92.22,170.00,7.00,0.00,29.62,M,1.25,M,FEW,BKN,OVC,M,400.00,1800.00,2900.00,M,BR,M,M,M,M,M,M,24.78,KWMC 221225Z AUTO 17007KT 1 1/4SM BR FEW004 BKN018 OVC029 00/M01 A2962 RMK AO2 T00001011,M
ELY,2023-03-22 12:27,-114.8453,39.2950,1909.00,28.90,26.10,89.12,220.00,6.00,0.00,29.56,M,10.00,M,SCT,OVC,M,M,2400.00,4500.00,M,M,M,M,M,M,M,M,M,21.80,KELY 221227Z AUTO 22006KT 10SM SCT024 OVC045 M02/M03 A2956 RMK AO2 T10171033 $,M
05U,2023-03-22 12:30,-116.0051,39.6042,1811.23,28.40,28.40,100.00,M,M,0.00,29.58,M,1.00,M,OVC,M,M,M,200.00,M,M,M,BR,M,M,M,M,M,M,M,K05U 221230Z AUTO 1SM BR OVC002 M02/M02 A2958 RMK A01,M
WMC,2023-03-22 12:33,-117.8072,40.9019,1315.00,32.00,30.00,92.22,170.00,6.00,0.00,29.62,M,0.50,M,SCT,BKN,OVC,M,500.00,1800.00,2900.00,M,FG,M,M,M,M,M,M,25.53,KWMC 221233Z AUTO 17006KT 1/2SM FG SCT005 BKN018 OVC029 00/M01 A2962 RMK AO2 T00001011,M
EKO,2023-03-22 12:34,-115.7860,40.8242,1367.00,26.10,24.10,92.01,0.00,0.00,0.00,29.57,M,1.25,M,OVC,M,M,M,200.00,M,M,M,BR,M,M,M,M,M,M,26.10,KEKO 221234Z AUTO 00000KT 1 1/4SM BR OVC002 M03/M04 A2957 RMK AO2 T10331044,M
BVU,2023-03-22 12:35,-114.8611,35.9475,671.00,46.40,32.00,57.00,180.00,9.00,0.00,29.78,M,10.00,M,OVC,M,M,M,5000.00,M,M,M,M,M,M,M,M,M,M,41.42,KBVU 221235Z AUTO 18009KT 160V220 10SM OVC050 08/M00 A2978 RMK AO2,M
CXP,2023-03-22 12:35,-119.7326,39.1923,1431.00,32.00,30.20,92.97,0.00,0.00,0.00,29.69,M,10.00,M,BKN,BKN,BKN,M,900.00,6000.00,10000.00,M,M,M,M,M,M,M,M,32.00,KCXP 221235Z AUTO 00000KT 10SM BKN009 BKN060 BKN100 M00/M01 A2969 RMK AO2,M
RTS,2023-03-22 12:35,-119.8764,39.6682,1539.00,26.60,24.80,92.80,300.00,5.00,0.00,29.67,M,10.00,M,CLR,M,M,M,M,M,M,M,M,M,M,M,M,M,M,19.98,KRTS 221235Z AUTO 30005KT 10SM CLR M03/M04 A2967 RMK AO2,M
MEV,2023-03-22 12:35,-119.7500,38.9963,1441.42,28.40,26.60,92.86,0.00,0.00,0.00,29.67,M,10.00,M,SCT,OVC,M,M,300.00,6000.00,M,M,M,M,M,M,M,M,M,28.40,KMEV 221235Z AUTO 00000KT 10SM SCT003 OVC060 M02/M03 A2967 RMK AO2,M
BAM,2023-03-22 12:35,-116.8743,40.5990,1382.36,32.00,32.00,100.00,230.00,3.00,0.00,29.62,M,1.25,M,OVC,M,M,M,300.00,M,M,M,M,M,M,M,M,M,M,28.69,KBAM 221235Z AUTO 23003KT 1 1/4SM OVC003 00/00 A2962 RMK AO1,M
HTH,2023-03-22 12:35,-118.6315,38.5448,1282.89,33.80,32.00,93.03,210.00,5.00,0.00,29.68,M,10.00,M,FEW,M,M,M,1700.00,M,M,M,M,M,M,M,M,M,M,28.53,KHTH 221235Z AUTO 21005KT 10SM FEW017 01/M00 A2968 RMK A01,M
TMT,2023-03-22 12:35,-117.1971,39.4643,1749.34,28.40,27.10,94.80,300.00,4.00,0.00,29.62,M,7.00,M,SCT,BKN,OVC,M,1700.00,2800.00,3500.00,M,-SN,M,M,M,M,M,M,23.22,KTMT 221235Z AUTO 30004KT 7SM -SN SCT017 BKN028 OVC035 M02/M03 A2962 RMK AO2 T10201027,M
TPH,2023-03-22 12:39,-117.0904,38.0505,1654.00,30.00,28.00,92.15,220.00,10.00,0.00,29.63,M,10.00,M,BKN,BKN,OVC,M,2500.00,3400.00,11000.00,M,M,M,M,M,M,M,M,20.46,KTPH 221239Z AUTO 22010KT 10SM BKN025 BKN034 OVC110 M01/M02 A2963 RMK AO2 T10111022,M
WMC,2023-03-22 12:40,-117.8072,40.9019,1315.00,32.00,30.00,92.22,200.00,6.00,0.00,29.62,M,0.50,M,BKN,BKN,OVC,M,300.00,1700.00,2900.00,M,FG,M,M,M,M,M,M,25.53,KWMC 221240Z AUTO 20006KT 1/2SM FG BKN003 BKN017 OVC029 00/M01 A2962 RMK AO2 T00001011,M
WMC,2023-03-22 12:45,-117.8072,40.9019,1315.00,32.00,30.00,92.22,180.00,7.00,0.00,29.62,M,1.50,M,BKN,BKN,OVC,M,300.00,1700.00,2900.00,M,BR,M,M,M,M,M,M,24.78,KWMC 221245Z AUTO 18007KT 1 1/2SM BR BKN003 BKN017 OVC029 00/M01 A2962 RMK AO2 T00001011,M
TPH,2023-03-22 12:46,-117.0904,38.0505,1654.00,30.00,27.00,88.44,220.00,10.00,0.00,29.64,M,10.00,M,SCT,BKN,OVC,M,2300.00,3400.00,11000.00,M,M,M,M,M,M,M,M,20.46,KTPH 221246Z AUTO 22010KT 10SM SCT023 BKN034 OVC110 M01/M03 A2964 RMK AO2 T10111028,M
EKO,2023-03-22 12:48,-115.7860,40.8242,1367.00,26.10,25.00,95.53,0.00,0.00,0.00,29.57,M,0.50,M,VV ,M,M,M,200.00,M,M,M,FZFG,T,M,M,M,M,M,26.10,KEKO 221248Z AUTO 00000KT 1/2SM FZFG VV002 M03/M04 A2957 RMK AO2 I1000 T10331039,M
WMC,2023-03-22 12:48,-117.8072,40.9019,1315.00,32.00,28.90,88.17,170.00,8.00,0.00,29.62,M,3.00,M,BKN,OVC,M,M,300.00,3100.00,M,M,BR,M,M,M,M,M,M,24.11,KWMC 221248Z AUTO 17008KT 3SM BR BKN003 OVC031 00/M02 A2962 RMK AO2 T00001017,M
05U,2023-03-22 12:50,-116.0051,39.6042,1811.23,28.40,28.40,100.00,0.00,0.00,0.00,29.59,M,0.75,M,OVC,M,M,M,200.00,M,M,M,BR,M,M,M,M,M,M,28.40,K05U 221250Z AUTO 00000KT 3/4SM BR OVC002 M02/M02 A2959 RMK A01,M
HTH,2023-03-22 12:50,-118.6315,38.5448,1282.89,33.80,30.20,86.49,0.00,0.00,0.00,29.69,M,10.00,M,FEW,M,M,M,2600.00,M,M,M,M,M,M,M,M,M,M,33.80,KHTH 221250Z AUTO 00000KT 10SM FEW026 01/M01 A2969 RMK A01,M
ELY,2023-03-22 12:51,-114.8453,39.2950,1909.00,28.40,24.80,86.18,170.00,6.00,T,29.56,M,M,M,SCT,BKN,OVC,M,1500.00,2200.00,4100.00,M,-SN,M,M,M,M,M,M,21.19,KELY 221251Z AUTO 17006KT -SN SCT015 BKN022 OVC041 M02/M04 A2956 RMK AO2 SNB50 P0000 $,M
NFL,2023-03-22 12:51,-118.7010,39.4166,1199.00,35.60,32.00,86.59,270.00,4.00,0.00,29.67,M,10.00,M,FEW,SCT,M,M,2400.00,2900.00,M,M,M,M,M,M,M,M,M,31.62,KNFL 221251Z AUTO 27004KT 10SM FEW024 SCT029 02/00 A2967 RMK AO2,M
EKO,2023-03-22 12:52,-115.7860,40.8242,1367.00,26.60,24.80,92.80,0.00,0.00,0.00,29.57,M,0.25,M,VV ,M,M,M,100.00,M,M,M,FZFG,T,M,M,M,M,M,26.60,KEKO 221252Z AUTO 00000KT 1/4SM FZFG VV001 M03/M04 A2957 RMK AO2 I1000,M
P68,2023-03-22 12:53,-116.0056,39.6014,1993.00,28.00,26.10,92.46,0.00,0.00,0.04,29.56,1000.30,M,M,M,M,M,M,M,M,M,M,M,M,M,M,M,M,M,28.00,KP68 221253Z AUTO 00000KT M02/M03 A2956 RMK AO1 SLP003 P0004 T10221033,M
DRA,2023-03-22 12:53,-116.0278,36.6206,1009.00,41.00,28.90,61.79,240.00,9.00,0.00,29.70,1004.20,10.00,20.00,FEW,M,M,M,4100.00,M,M,M,M,M,M,M,33.00,210.00,2023-03-22 12:01,34.70,KDRA 221253Z AUTO 24009G20KT 200V270 10SM FEW041 05/M02 A2970 RMK AO2 PK WND 21033/1201 SLP042 T00501017,M
ELY,2023-03-22 12:53,-114.8453,39.2950,1909.00,28.90,25.00,85.14,170.00,6.00,T,29.56,1000.70,M,M,SCT,BKN,OVC,M,1500.00,2200.00,4100.00,M,-SN,M,M,M,M,M,M,21.80,KELY 221253Z AUTO 17006KT -SN SCT015 BKN022 OVC041 M02/M04 A2956 RMK AO2 SNB50 SLP007 P0000 T10171039 $,M
VGT,2023-03-22 12:53,-115.1933,36.2111,667.00,48.00,28.90,47.32,210.00,12.00,0.00,29.71,1007.40,10.00,27.00,CLR,M,M,M,M,M,M,M,M,M,M,M,33.00,230.00,2023-03-22 12:25,42.37,KVGT 221253Z 21012G27KT 10SM CLR 09/M02 A2971 RMK AO2 PK WND 23033/1225 SLP074 T00891017,M
LOL,2023-03-22 12:53,-118.5701,40.0684,1192.43,32.00,30.90,95.65,0.00,0.00,0.00,29.66,1005.40,10.00,M,OVC,M,M,M,9000.00,M,M,M,M,M,M,M,M,M,M,32.00,KLOL 221253Z AUTO 00000KT 10SM OVC090 00/M01 A2966 RMK AO2 SLP054 T00001006,M
BVU,2023-03-22 12:55,-114.8611,35.9475,671.00,46.40,32.00,57.00,150.00,8.00,0.00,29.79,M,10.00,M,OVC,M,M,M,5000.00,M,M,M,M,M,M,M,M,M,M,41.85,KBVU 221255Z AUTO 15008KT 10SM OVC050 08/M00 A2979 RMK AO2,M
CXP,2023-03-22 12:55,-119.7326,39.1923,1431.00,30.20,28.40,92.92,0.00,0.00,0.00,29.69,M,10.00,M,SCT,SCT,BKN,M,900.00,1200.00,5000.00,M,M,M,M,M,M,M,M,30.20,KCXP 221255Z AUTO 00000KT 10SM SCT009 SCT012 BKN050 M01/M02 A2969 RMK AO2,M
INS,2023-03-22 12:55,-115.6733,36.5872,955.00,41.00,27.00,57.15,30.00,6.00,0.00,29.69,1004.00,10.00,M,CLR,M,M,M,M,M,M,M,M,M,M,M,M,M,M,36.37,KINS 221255Z AUTO 03006KT 10SM CLR 05/M03 A2969 RMK AO2 SLP040 T00501028 $,M
RNO,2023-03-22 12:55,-119.7711,39.4839,1341.00,30.90,27.00,85.26,0.00,0.00,0.00,29.68,1005.30,10.00,M,FEW,SCT,M,M,5000.00,14000.00,M,M,M,M,M,M,M,M,M,30.90,KRNO 221255Z 00000KT 10SM FEW050 SCT140 M01/M03 A2968 RMK AO2 SLP053 T10061028 $,M
RTS,2023-03-22 12:55,-119.8764,39.6682,1539.00,26.60,24.80,92.80,240.00,3.00,0.00,29.68,M,10.00,M,FEW,M,M,M,10000.00,M,M,M,M,M,M,M,M,M,M,22.52,KRTS 221255Z AUTO 24003KT 10SM FEW100 M03/M04 A2968 RMK AO2,M
MEV,2023-03-22 12:55,-119.7500,38.9963,1441.42,26.60,24.80,92.80,0.00,0.00,0.00,29.68,M,10.00,M,SCT,BKN,OVC,M,400.00,5500.00,6500.00,M,M,M,M,M,M,M,M,26.60,KMEV 221255Z AUTO 00000KT 10SM SCT004 BKN055 OVC065 M03/M04 A2968 RMK AO2,M
BAM,2023-03-22 12:55,-116.8743,40.5990,1382.36,32.00,32.00,100.00,250.00,3.00,0.00,29.63,M,7.00,M,OVC,M,M,M,300.00,M,M,M,M,M,M,M,M,M,M,28.69,KBAM 221255Z AUTO 25003KT 7SM OVC003 00/00 A2963 RMK AO1,M
TMT,2023-03-22 12:55,-117.1971,39.4643,1749.34,28.40,27.10,94.80,0.00,0.00,0.00,29.63,M,3.00,M,BKN,BKN,OVC,M,1900.00,2600.00,3700.00,M,-SN,M,M,M,M,M,M,28.40,KTMT 221255Z AUTO 00000KT 3SM -SN BKN019 BKN026 OVC037 M02/M03 A2963 RMK AO2 T10201027,M
LSV,2023-03-22 12:55,-115.0343,36.2362,570.00,47.30,33.00,57.13,170.00,15.00,0.00,29.74,1006.50,10.00,M,BKN,M,M,M,6000.00,M,M,M,M,M,M,M,M,M,M,40.61,KLSV 221255Z AUTO 17015KT 10SM BKN060 09/01 A2974 RMK AO2 SLP065 T00850005 $,M
EKO,2023-03-22 12:56,-115.7860,40.8242,1367.00,26.10,25.00,95.53,0.00,0.00,0.00,29.57,1002.50,0.25,M,VV ,M,M,M,100.00,M,M,M,FZFG,T,M,M,M,M,M,26.10,KEKO 221256Z AUTO 00000KT 1/4SM FZFG VV001 M03/M04 A2957 RMK AO2 SLP025 I1000 T10331039,M
WMC,2023-03-22 12:56,-117.8072,40.9019,1315.00,32.00,28.90,88.17,190.00,4.00,0.00,29.63,1003.90,10.00,M,BKN,BKN,OVC,M,300.00,2400.00,3100.00,M,M,M,M,M,M,M,M,27.42,KWMC 221256Z AUTO 19004KT 10SM BKN003 BKN024 OVC031 00/M02 A2963 RMK AO2 SLP039 T00001017,M
NFL,2023-03-22 12:56,-118.7010,39.4166,1199.00,34.00,32.00,92.29,270.00,4.00,0.00,29.67,1003.10,10.00,M,FEW,M,M,M,2900.00,M,M,M,M,M,M,M,M,M,M,29.76,KNFL 221256Z AUTO 27004KT 10SM FEW029 01/00 A2967 RMK AO2 SLP031 T00110000,M
HND,2023-03-22 12:56,-115.1344,35.9729,742.79,45.00,30.90,57.50,240.00,21.00,0.00,29.78,1009.60,10.00,27.00,CLR,M,M,M,M,M,M,M,M,M,M,M,27.00,240.00,2023-03-22 12:55,36.19,KHND 221256Z 24021G27KT 10SM CLR 07/M01 A2978 RMK AO2 PK WND 24027/1255 SLP096 T00721006,M
TPH,2023-03-22 12:56,-117.0904,38.0505,1654.00,28.90,27.00,92.49,220.00,11.00,0.00,29.64,1003.90,10.00,M,FEW,SCT,BKN,M,2500.00,3500.00,11000.00,M,M,M,M,M,M,M,M,18.55,KTPH 221256Z AUTO 22011KT 10SM FEW025 SCT035 BKN110 M02/M03 A2964 RMK AO2 SLP039 T10171028,M
LAS,2023-03-22 12:56,-115.1634,36.0719,663.00,46.00,30.00,53.37,220.00,17.00,0.00,29.73,1006.30,10.00,30.00,FEW,M,M,M,10000.00,M,M,M,M,M,M,M,30.00,210.00,2023-03-22 12:56,38.42,KLAS 221256Z 22017G30KT 10SM FEW100 08/M01 A2973 RMK AO2 PK WND 21030/1256 SLP063 T00781011 $,M
WMC,2023-03-22 13:09,-117.8072,40.9019,1315.00,32.00,30.00,92.22,170.00,3.00,0.00,29.63,M,10.00,M,FEW,BKN,OVC,M,300.00,2200.00,3100.00,M,M,M,M,M,M,M,M,28.69,KWMC 221309Z AUTO 17003KT 10SM FEW003 BKN022 OVC031 00/M01 A2963 RMK AO2 T00001011,M
05U,2023-03-22 13:10,-116.0051,39.6042,1811.23,28.40,28.40,100.00,0.00,0.00,0.00,29.59,M,1.00,M,OVC,M,M,M,200.00,M,M,M,BR,M,M,M,M,M,M,28.40,K05U 221310Z AUTO 00000KT 1SM BR OVC002 M02/M02 A2959 RMK A01,M
BVU,2023-03-22 13:15,-114.8611,35.9475,671.00,46.40,32.00,57.00,140.00,10.00,0.00,29.80,M,10.00,M,OVC,M,M,M,5000.00,M,M,M,M,M,M,M,M,M,M,41.03,KBVU 221315Z AUTO 14010KT 10SM OVC050 08/M00 A2980 RMK AO2,M
CXP,2023-03-22 13:15,-119.7326,39.1923,1431.00,32.00,30.20,92.97,0.00,0.00,0.00,29.70,M,10.00,M,BKN,OVC,M,M,1000.00,5500.00,M,M,M,M,M,M,M,M,M,32.00,KCXP 221315Z AUTO 00000KT 10SM BKN010 OVC055 M00/M01 A2970 RMK AO2,M
RTS,2023-03-22 13:15,-119.8764,39.6682,1539.00,28.40,26.60,92.86,220.00,5.00,0.00,29.69,M,10.00,M,SCT,BKN,M,M,4700.00,10000.00,M,M,M,M,M,M,M,M,M,22.12,KRTS 221315Z AUTO 22005KT 10SM SCT047 BKN100 M02/M03 A2969 RMK AO2,M
MEV,2023-03-22 13:15,-119.7500,38.9963,1441.42,24.80,24.80,100.00,130.00,3.00,0.00,29.69,M,10.00,M,FEW,BKN,OVC,M,4700.00,6000.00,6500.00,M,M,M,M,M,M,M,M,20.46,KMEV 221315Z AUTO 13003KT 10SM FEW047 BKN060 OVC065 M04/M04 A2969 RMK AO2,M
BAM,2023-03-22 13:15,-116.8743,40.5990,1382.36,32.00,32.00,100.00,270.00,4.00,0.00,29.63,M,1.75,M,OVC,M,M,M,300.00,M,M,M,M,M,M,M,M,M,M,27.42,KBAM 221315Z AUTO 27004KT 1 3/4SM OVC003 00/00 A2963 RMK AO1,M
HTH,2023-03-22 13:15,-118.6315,38.5448,1282.89,33.80,28.40,80.36,210.00,3.00,0.00,29.70,M,10.00,M,BKN,M,M,M,2300.00,M,M,M,M,M,M,M,M,M,M,30.75,KHTH 221315Z AUTO 21003KT 10SM BKN023 01/M02 A2970 RMK A01,M
TMT,2023-03-22 13:15,-117.1971,39.4643,1749.34,28.40,27.90,97.97,0.00,0.00,0.01,29.64,M,1.50,M,OVC,M,M,M,1200.00,M,M,M,-SN,M,M,M,M,M,M,28.40,KTMT 221315Z AUTO 00000KT 1 1/2SM -SN OVC012 M02/M02 A2964 RMK AO2 P0001 T10201023,M
05U,2023-03-22 13:30,-116.0051,39.6042,1811.23,28.40,28.40,100.00,0.00,0.00,0.00,29.60,M,0.50,M,OVC,M,M,M,200.00,M,M,M,FZFG,M,M,M,M,M,M,28.40,K05U 221330Z AUTO 00000KT 1/2SM FZFG OVC002 M02/M02 A2960 RMK A01,M
BVU,2023-03-22 13:35,-114.8611,35.9475,671.00,46.40,33.80,61.28,130.00,11.00,0.00,29.80,M,10.00,M,BKN,OVC,M,M,5000.00,6000.00,M,M,M,M,M,M,M,M,M,40.66,KBVU 221335Z AUTO 13011KT 10SM BKN050 OVC060 08/01 A2980 RMK AO2,M
CXP,2023-03-22 13:35,-119.7326,39.1923,1431.00,30.20,28.40,92.92,180.00,3.00,0.00,29.71,M,10.00,M,BKN,BKN,OVC,M,1000.00,4100.00,5500.00,M,M,M,M,M,M,M,M,26.63,KCXP 221335Z AUTO 18003KT 10SM BKN010 BKN041 OVC055 M01/M02 A2971 RMK AO2,M
RTS,2023-03-22 13:35,-119.8764,39.6682,1539.00,30.20,26.60,86.28,240.00,5.00,0.00,29.70,M,10.00,M,OVC,M,M,M,4800.00,M,M,M,M,M,M,M,M,M,M,24.26,KRTS 221335Z AUTO 24005KT 10SM OVC048 M01/M03 A2970 RMK AO2,M
MEV,2023-03-22 13:35,-119.7500,38.9963,1441.42,26.60,24.80,92.80,110.00,4.00,0.00,29.70,M,10.00,M,BKN,OVC,M,M,5500.00,6500.00,M,M,M,M,M,M,M,M,M,21.11,KMEV 221335Z AUTO 11004KT 10SM BKN055 OVC065 M03/M04 A2970 RMK AO2,M
BAM,2023-03-22 13:35,-116.8743,40.5990,1382.36,32.00,32.00,100.00,270.00,5.00,0.00,29.64,M,3.00,M,OVC,M,M,M,300.00,M,M,M,M,M,M,M,M,M,M,26.40,KBAM 221335Z AUTO 27005KT 3SM OVC003 00/00 A2964 RMK AO1,M
HTH,2023-03-22 13:35,-118.6315,38.5448,1282.89,33.80,30.20,86.49,240.00,3.00,0.00,29.72,M,10.00,M,SCT,M,M,M,2300.00,M,M,M,M,M,M,M,M,M,M,30.75,KHTH 221335Z AUTO 24003KT 10SM SCT023 01/M01 A2972 RMK A01,M
TMT,2023-03-22 13:35,-117.1971,39.4643,1749.34,28.40,27.90,97.97,0.00,0.00,0.04,29.65,M,0.50,M,OVC,M,M,M,600.00,M,M,M,+SN,M,M,M,M,M,M,28.40,KTMT 221335Z AUTO 00000KT 1/2SM +SN OVC006 M02/M02 A2965 RMK AO2 P0004 T10201023,M
ELY,2023-03-22 13:37,-114.8453,39.2950,1909.00,28.00,24.10,85.08,160.00,9.00,0.01,29.58,M,9.00,M,FEW,BKN,OVC,M,1500.00,5000.00,7000.00,M,M,M,M,M,M,M,M,18.54,KELY 221337Z AUTO 16009KT 9SM FEW015 BKN050 OVC070 M02/M04 A2958 RMK AO2 SNE30 P0001 T10221044 $,M
NFL,2023-03-22 13:44,-118.7010,39.4166,1199.00,33.00,30.90,91.51,0.00,0.00,0.00,29.70,M,10.00,M,SCT,BKN,BKN,M,5000.00,8000.00,11000.00,M,M,M,M,M,M,M,M,33.10,KNFL 221344Z 00000KT 10SM SCT050 BKN080 BKN110 01/M01 A2970 RMK AO2 T00061006,M
05U,2023-03-22 13:50,-116.0051,39.6042,1811.23,30.20,30.20,100.00,200.00,3.00,0.00,29.61,M,0.25,M,OVC,M,M,M,200.00,M,M,M,FZFG,M,M,M,M,M,M,26.63,K05U 221350Z AUTO 20003KT 1/4SM FZFG OVC002 M01/M01 A2961 RMK A01,M
P68,2023-03-22 13:53,-116.0056,39.6014,1993.00,28.90,28.00,96.38,210.00,5.00,0.09,29.59,1001.60,M,M,M,M,M,M,M,M,M,M,M,M,M,M,M,M,M,22.71,KP68 221353Z AUTO 21005KT M02/M02 A2959 RMK AO1 SLP016 P0009 T10171022,M
DRA,2023-03-22 13:53,-116.0278,36.6206,1009.00,41.00,28.00,59.55,190.00,29.00,0.00,29.71,1004.70,10.00,41.00,CLR,M,M,M,M,M,M,M,M,M,M,M,41.00,200.00,2023-03-22 13:52,29.25,KDRA 221353Z AUTO 19029G41KT 10SM CLR 05/M02 A2971 RMK AO2 PK WND 20041/1352 SLP047 T00501022,M
ELY,2023-03-22 13:53,-114.8453,39.2950,1909.00,28.00,24.10,85.08,160.00,11.00,0.01,29.58,1001.70,6.00,M,FEW,BKN,OVC,M,2500.00,3900.00,7000.00,M,-SN BR,M,M,M,M,M,M,17.41,KELY 221353Z AUTO 16011KT 6SM -SN BR FEW025 BKN039 OVC070 M02/M04 A2958 RMK AO2 SNE30B50 SLP017 P0001 T10221044 $,M
VGT,2023-03-22 13:53,-115.1933,36.2111,667.00,46.00,30.90,55.36,190.00,13.00,0.00,29.75,1008.90,10.00,27.00,CLR,M,M,M,M,M,M,M,M,M,M,M,27.00,190.00,2023-03-22 13:53,39.50,KVGT 221353Z 19013G27KT 10SM CLR 08/M01 A2975 RMK AO2 PK WND 19027/1353 SLP089 T00781006,M
LOL,2023-03-22 13:53,-118.5701,40.0684,1192.43,30.90,30.00,96.41,80.00,5.00,T,29.69,1006.90,10.00,M,OVC,M,M,M,10000.00,M,M,M,M,M,M,M,M,M,M,25.09,KLOL 221353Z AUTO 08005KT 10SM OVC100 M01/M01 A2969 RMK AO2 UPB14E22SNB13E14B22E23 SLP069 P0000 T10061011,M
BVU,2023-03-22 13:55,-114.8611,35.9475,671.00,46.40,32.00,57.00,150.00,8.00,0.00,29.81,M,10.00,14.00,OVC,M,M,M,5000.00,M,M,M,M,M,M,M,M,M,M,41.85,KBVU 221355Z AUTO 15008G14KT 10SM OVC050 08/00 A2981 RMK AO2,M
CXP,2023-03-22 13:55,-119.7326,39.1923,1431.00,30.20,28.40,92.92,0.00,0.00,0.00,29.72,M,9.00,M,FEW,BKN,OVC,M,4200.00,5000.00,5500.00,M,M,M,M,M,M,M,M,30.20,KCXP 221355Z AUTO 00000KT 9SM FEW042 BKN050 OVC055 M01/M02 A2972 RMK AO2,M
RTS,2023-03-22 13:55,-119.8764,39.6682,1539.00,30.20,26.60,86.28,250.00,4.00,0.00,29.72,M,10.00,M,OVC,M,M,M,4700.00,M,M,M,M,M,M,M,M,M,M,25.32,KRTS 221355Z AUTO 25004KT 10SM OVC047 M01/M03 A2972 RMK AO2,M
MEV,2023-03-22 13:55,-119.7500,38.9963,1441.42,26.60,24.80,92.80,100.00,4.00,0.00,29.72,M,10.00,M,BKN,OVC,M,M,5000.00,6500.00,M,M,M,M,M,M,M,M,M,21.11,KMEV 221355Z AUTO 10004KT 10SM BKN050 OVC065 M03/M04 A2972 RMK AO2,M
BAM,2023-03-22 13:55,-116.8743,40.5990,1382.36,32.00,32.00,100.00,260.00,4.00,0.00,29.65,M,3.00,M,BKN,OVC,M,M,300.00,2700.00,M,M,M,M,M,M,M,M,M,27.42,KBAM 221355Z AUTO 26004KT 3SM BKN003 OVC027 00/00 A2965 RMK AO1,M
HTH,2023-03-22 13:55,-118.6315,38.5448,1282.89,32.00,30.20,92.97,0.00,0.00,0.00,29.73,M,10.00,M,FEW,M,M,M,2300.00,M,M,M,M,M,M,M,M,M,M,32.00,KHTH 221355Z AUTO 00000KT 10SM FEW023 00/M01 A2973 RMK A01,M
TMT,2023-03-22 13:55,-117.1971,39.4643,1749.34,28.40,27.90,97.97,0.00,0.00,0.07,29.66,M,0.75,M,OVC,M,M,M,400.00,M,M,M,SN,M,M,M,M,M,M,28.40,KTMT 221355Z AUTO 00000KT 3/4SM SN OVC004 M02/M02 A2966 RMK AO2 P0007 T10201023,M
RNO,2023-03-22 13:55,-119.7711,39.4839,1341.00,30.00,27.00,88.44,0.00,0.00,0.00,29.72,1006.50,10.00,M,SCT,SCT,M,M,5000.00,14000.00,M,M,M,M,M,M,M,M,M,30.00,KRNO 221355Z COR 00000KT 10SM SCT050 SCT140 M01/M03 A2972 RMK AO2 SLP065 T10111028 $,M
INS,2023-03-22 13:55,-115.6733,36.5872,955.00,41.40,26.40,54.90,160.00,3.00,0.00,29.72,1005.10,10.00,M,CLR,M,M,M,M,M,M,M,M,M,M,M,M,M,M,39.43,KINS 221355Z AUTO 16003KT 10SM CLR 05/M03 A2972 RMK AO2 SLP051 T00521031 $,M
LSV,2023-03-22 13:55,-115.0343,36.2362,570.00,47.80,32.00,54.07,170.00,18.00,0.00,29.74,1006.50,10.00,24.00,CLR,M,M,M,M,M,M,M,M,M,M,M,M,M,M,40.55,KLSV 221355Z AUTO 17018G24KT 10SM CLR 09/00 A2974 RMK AO2 SLP065 T00880000 $,M
EKO,2023-03-22 13:56,-115.7860,40.8242,1367.00,27.00,26.10,96.35,260.00,3.00,0.00,29.60,1003.60,0.25,M,VV ,M,M,M,100.00,M,M,M,FZFG,0.03,M,M,M,M,M,22.97,KEKO 221356Z AUTO 26003KT 1/4SM FZFG VV001 M03/M03 A2960 RMK AO2 SLP036 I1003 T10281033,M
NFL,2023-03-22 13:56,-118.7010,39.4166,1199.00,32.00,30.00,92.22,0.00,0.00,0.00,29.71,1004.20,10.00,M,SCT,BKN,BKN,M,5000.00,8000.00,11000.00,M,M,M,M,M,M,M,M,32.00,KNFL 221356Z 00000KT 10SM SCT050 BKN080 BKN110 00/M01 A2971 RMK AO2 SLP042 T00001011,M
HND,2023-03-22 13:56,-115.1344,35.9729,742.79,44.00,30.90,59.50,210.00,21.00,0.00,29.77,1009.60,10.00,27.00,FEW,M,M,M,5000.00,M,M,M,M,M,M,M,27.00,220.00,2023-03-22 13:53,34.99,KHND 221356Z 21021G27KT 10SM FEW050 07/M01 A2977 RMK AO2 PK WND 22027/1353 SLP096 T00671006,M
TPH,2023-03-22 13:56,-117.0904,38.0505,1654.00,28.00,25.00,88.33,220.00,9.00,0.00,29.68,1005.60,10.00,M,SCT,M,M,M,3800.00,M,M,M,M,M,M,M,M,M,M,18.54,KTPH 221356Z AUTO 22009KT 10SM SCT038 M02/M04 A2968 RMK AO2 SLP056 T10221039,M
LAS,2023-03-22 13:56,-115.1634,36.0719,663.00,46.00,30.00,53.37,210.00,14.00,0.00,29.75,1006.70,10.00,26.00,FEW,SCT,SCT,M,5000.00,10000.00,20000.00,M,M,M,M,M,34.00,220.00,2023-03-22 13:18,39.21,KLAS 221356Z 21014G26KT 10SM FEW050 SCT100 SCT200 08/M01 A2975 RMK AO2 PK WND 22034/1318 SLP067 T00781011 $,M
WMC,2023-03-22 13:56,-117.8072,40.9019,1315.00,33.00,30.00,88.23,270.00,6.00,0.00,29.65,1004.50,10.00,M,SCT,OVC,M,M,1400.00,2100.00,M,M,M,M,M,M,M,M,M,26.86,KWMC 221356Z AUTO 27006KT 10SM SCT014 OVC021 01/M01 A2965 RMK AO2 SLP045 T00061011,M
05U,2023-03-22 14:10,-116.0051,39.6042,1811.23,30.20,30.20,100.00,190.00,4.00,0.00,29.62,M,1.25,M,BKN,OVC,M,M,200.00,900.00,M,M,BR,M,M,M,M,M,M,25.32,K05U 221410Z AUTO 19004KT 1 1/4SM BR BKN002 OVC009 M01/M01 A2962 RMK A01,M
BVU,2023-03-22 14:15,-114.8611,35.9475,671.00,46.40,32.00,57.00,140.00,13.00,0.00,29.81,M,10.00,M,OVC,M,M,M,5000.00,M,M,M,M,M,M,M,M,M,M,40.02,KBVU 221415Z AUTO 14013KT 10SM OVC050 08/00 A2981 RMK AO2,M
CXP,2023-03-22 14:15,-119.7326,39.1923,1431.00,30.20,28.40,92.92,0.00,0.00,0.00,29.74,M,9.00,M,BKN,M,M,M,5500.00,M,M,M,M,M,M,M,M,M,M,30.20,KCXP 221415Z AUTO 00000KT 9SM BKN055 M01/M02 A2974 RMK AO2,M
RTS,2023-03-22 14:15,-119.8764,39.6682,1539.00,30.20,26.60,86.28,0.00,0.00,0.00,29.73,M,10.00,M,OVC,M,M,M,4700.00,M,M,M,M,M,M,M,M,M,M,30.20,KRTS 221415Z AUTO 00000KT 10SM OVC047 M01/M03 A2973 RMK AO2,M
BAM,2023-03-22 14:15,-116.8743,40.5990,1382.36,32.00,32.00,100.00,0.00,0.00,0.00,29.66,M,7.00,M,SCT,BKN,OVC,M,300.00,2700.00,3400.00,M,M,M,M,M,M,M,M,32.00,KBAM 221415Z AUTO 00000KT 7SM SCT003 BKN027 OVC034 00/00 A2966 RMK AO1,M
TMT,2023-03-22 14:15,-117.1971,39.4643,1749.34,28.40,27.90,97.97,0.00,0.00,0.02,29.67,M,0.50,M,OVC,M,M,M,800.00,M,M,M,-SN,M,M,M,M,M,M,28.40,KTMT 221415Z AUTO 00000KT 1/2SM -SN OVC008 M02/M02 A2967 RMK AO2 P0002 T10201023,M
EKO,2023-03-22 14:17,-115.7860,40.8242,1367.00,28.00,27.00,95.97,290.00,3.00,0.00,29.61,M,0.25,M,VV ,M,M,M,200.00,M,M,M,FZFG,0.01,M,M,M,M,M,24.12,KEKO 221417Z AUTO 29003KT 1/4SM FZFG VV002 M02/M03 A2961 RMK AO2 I1001 T10221028,M
EKO,2023-03-22 14:30,-115.7860,40.8242,1367.00,28.00,27.00,95.97,290.00,3.00,0.00,29.62,M,0.50,M,VV ,M,M,M,300.00,M,M,M,FZFG,0.01,M,M,M,M,M,24.12,KEKO 221430Z AUTO 29003KT 1/2SM FZFG VV003 M02/M03 A2962 RMK AO2 I1001 T10221028,M
05U,2023-03-22 14:30,-116.0051,39.6042,1811.23,30.20,30.20,100.00,230.00,5.00,0.00,29.63,M,0.50,M,BKN,OVC,M,M,300.00,800.00,M,M,BR,M,M,M,M,M,M,24.26,K05U 221430Z AUTO 23005KT 1/2SM BR BKN003 OVC008 M01/M01 A2963 RMK A01,M
BVU,2023-03-22 14:35,-114.8611,35.9475,671.00,46.40,32.00,57.00,160.00,11.00,0.00,29.83,M,10.00,M,BKN,BKN,M,M,5500.00,6500.00,M,M,M,M,M,M,M,M,M,40.66,KBVU 221435Z AUTO 16011KT 10SM BKN055 BKN065 08/M00 A2983 RMK AO2,M
CXP,2023-03-22 14:35,-119.7326,39.1923,1431.00,30.20,28.40,92.92,0.00,0.00,0.00,29.75,M,10.00,M,FEW,M,M,M,6000.00,M,M,M,M,M,M,M,M,M,M,30.20,KCXP 221435Z AUTO 00000KT 10SM FEW060 M01/M02 A2975 RMK AO2,M
RTS,2023-03-22 14:35,-119.8764,39.6682,1539.00,30.20,26.60,86.28,240.00,4.00,0.00,29.74,M,10.00,M,OVC,M,M,M,4400.00,M,M,M,M,M,M,M,M,M,M,25.32,KRTS 221435Z AUTO 24004KT 10SM OVC044 M01/M03 A2974 RMK AO2,M
MEV,2023-03-22 14:35,-119.7500,38.9963,1441.42,26.60,24.80,92.80,110.00,5.00,0.00,29.74,M,10.00,M,SCT,SCT,BKN,M,500.00,5000.00,11000.00,M,M,M,M,M,M,M,M,19.98,KMEV 221435Z AUTO 11005KT 10SM SCT005 SCT050 BKN110 M03/M04 A2974 RMK AO2,M
BAM,2023-03-22 14:35,-116.8743,40.5990,1382.36,32.00,32.00,100.00,100.00,3.00,0.00,29.67,M,4.00,M,SCT,SCT,OVC,M,600.00,2700.00,3600.00,M,M,M,M,M,M,M,M,28.69,KBAM 221435Z AUTO 10003KT 4SM SCT006 SCT027 OVC036 00/00 A2967 RMK AO1,M
HTH,2023-03-22 14:35,-118.6315,38.5448,1282.89,33.80,30.20,86.49,0.00,0.00,0.00,29.75,M,10.00,M,SCT,M,M,M,11000.00,M,M,M,M,M,M,M,M,M,M,33.80,KHTH 221435Z AUTO 00000KT 10SM SCT110 01/M01 A2975 RMK A01,M
TMT,2023-03-22 14:35,-117.1971,39.4643,1749.34,28.40,27.90,97.97,230.00,3.00,0.04,29.68,M,0.50,M,OVC,M,M,M,800.00,M,M,M,SN,M,M,M,M,M,M,24.57,KTMT 221435Z AUTO 23003KT 1/2SM SN OVC008 M02/M02 A2968 RMK AO2 P0004 T10201023,M
EKO,2023-03-22 14:37,-115.7860,40.8242,1367.00,28.00,27.00,95.97,260.00,3.00,0.00,29.62,M,2.00,M,OVC,M,M,M,300.00,M,M,M,BR,0.01,M,M,M,M,M,24.12,KEKO 221437Z AUTO 26003KT 2SM BR OVC003 M02/M03 A2962 RMK AO2 I1001 T10221028,M
05U,2023-03-22 14:50,-116.0051,39.6042,1811.23,30.20,30.20,100.00,230.00,6.00,0.00,29.65,M,1.00,M,BKN,BKN,BKN,M,300.00,800.00,2300.00,M,BR,M,M,M,M,M,M,23.36,K05U 221450Z AUTO 23006KT 1SM BR BKN003 BKN008 BKN023 M01/M01 A2965 RMK A01,M
DRA,2023-03-22 14:53,-116.0278,36.6206,1009.00,43.00,28.00,55.14,210.00,15.00,0.00,29.78,1007.10,10.00,26.00,FEW,M,M,M,4300.00,M,M,M,M,M,M,M,39.00,210.00,2023-03-22 13:59,35.04,KDRA 221453Z AUTO 21015G26KT 10SM FEW043 06/M02 A2978 RMK AO2 PK WND 21039/1359 SLP071 T00611022 53036,M
ELY,2023-03-22 14:53,-114.8453,39.2950,1909.00,28.00,24.10,85.08,170.00,13.00,T,29.61,1002.60,10.00,M,OVC,M,M,M,6000.00,M,M,M,M,M,M,M,M,M,M,16.44,KELY 221453Z AUTO 17013KT 10SM OVC060 M02/M04 A2961 RMK AO2 SNE20 SLP026 P0000 60001 T10221044 53012 $,M
P68,2023-03-22 14:53,-116.0056,39.6014,1993.00,28.90,28.00,96.38,220.00,7.00,0.03,29.62,1002.80,M,M,M,M,M,M,M,M,M,M,M,M,M,M,M,M,M,21.00,KP68 221453Z AUTO 22007KT M02/M02 A2962 RMK AO1 SLP028 P0003 60016 T10171022 53025,M
VGT,2023-03-22 14:53,-115.1933,36.2111,667.00,50.00,28.90,43.92,210.00,20.00,0.00,29.76,1009.00,10.00,30.00,CLR,M,M,M,M,M,M,M,M,M,M,M,32.00,210.00,2023-03-22 14:43,50.00,KVGT 221453Z 21020G30KT 10SM CLR 10/M02 A2976 RMK AO2 PK WND 21032/1443 SLP090 T01001017 51024,M
LOL,2023-03-22 14:53,-118.5701,40.0684,1192.43,32.00,30.90,95.65,0.00,0.00,0.00,29.73,1008.20,7.00,M,BKN,OVC,M,M,4200.00,5000.00,M,M,M,M,M,M,M,M,M,32.00,KLOL 221453Z AUTO 00000KT 7SM BKN042 OVC050 00/M01 A2973 RMK AO2 SLP082 60000 T00001006 53028,M
TPH,2023-03-22 14:53,-117.0904,38.0505,1654.00,26.60,24.80,92.80,240.00,5.00,0.00,29.73,M,10.00,M,BKN,BKN,M,M,2400.00,12000.00,M,M,M,M,M,M,M,M,M,19.98,KTPH 221453Z AUTO 24005KT 10SM BKN024 BKN120 M03/M04 A2973 RMK AO2,M
EKO,2023-03-22 14:54,-115.7860,40.8242,1367.00,26.60,26.60,100.00,0.00,0.00,0.00,29.63,M,1.75,M,OVC,M,M,M,200.00,M,M,M,BR,0.01,M,M,M,M,M,26.60,KEKO 221454Z AUTO 00000KT 1 3/4SM BR OVC002 M03/M03 A2963 RMK AO2 I1001,M
BVU,2023-03-22 14:55,-114.8611,35.9475,671.00,48.20,32.00,53.27,160.00,16.00,0.00,29.82,M,10.00,M,FEW,FEW,M,M,5000.00,6000.00,M,M,M,M,M,M,M,M,M,41.53,KBVU 221455Z AUTO 16016KT 10SM FEW050 FEW060 09/M00 A2982 RMK AO2,M
CXP,2023-03-22 14:55,-119.7326,39.1923,1431.00,30.20,30.20,100.00,0.00,0.00,0.00,29.76,M,10.00,M,CLR,M,M,M,M,M,M,M,M,M,M,M,M,M,M,30.20,KCXP 221455Z AUTO 00000KT 10SM CLR M01/M01 A2976 RMK AO2,M
RNO,2023-03-22 14:55,-119.7711,39.4839,1341.00,32.00,28.90,88.17,50.00,3.00,0.00,29.75,1007.70,10.00,M,SCT,BKN,M,M,5000.00,11000.00,M,M,M,M,M,M,M,M,M,28.69,KRNO 221455Z 05003KT 10SM SCT050 BKN110 00/M02 A2975 RMK AO2 SLP077 T00001017 53030,M
RTS,2023-03-22 14:55,-119.8764,39.6682,1539.00,30.20,28.40,92.92,0.00,0.00,0.00,29.75,M,10.00,M,OVC,M,M,M,4300.00,M,M,M,M,M,M,M,M,M,M,30.20,KRTS 221455Z AUTO 00000KT 10SM OVC043 M01/M02 A2975 RMK AO2,M
MEV,2023-03-22 14:55,-119.7500,38.9963,1441.42,28.40,26.60,92.86,110.00,4.00,0.00,29.75,M,10.00,M,SCT,BKN,BKN,M,500.00,5500.00,12000.00,M,M,M,M,M,M,M,M,23.22,KMEV 221455Z AUTO 11004KT 10SM SCT005 BKN055 BKN120 M02/M03 A2975 RMK AO2,M
BAM,2023-03-22 14:55,-116.8743,40.5990,1382.36,32.00,32.00,100.00,0.00,0.00,0.00,29.68,M,10.00,M,SCT,BKN,OVC,M,600.00,3700.00,4500.00,M,M,M,M,M,M,M,M,32.00,KBAM 221455Z AUTO 00000KT 10SM SCT006 BKN037 OVC045 00/00 A2968 RMK AO1,M
HTH,2023-03-22 14:55,-118.6315,38.5448,1282.89,33.80,30.20,86.49,0.00,0.00,0.00,29.76,M,10.00,M,CLR,M,M,M,M,M,M,M,M,M,M,M,M,M,M,33.80,KHTH 221455Z AUTO 00000KT 10SM CLR 01/M01 A2976 RMK A01,M
TMT,2023-03-22 14:55,-117.1971,39.4643,1749.34,28.40,27.90,97.97,240.00,3.00,0.06,29.70,M,0.75,M,OVC,M,M,M,1000.00,M,M,M,-SN,M,M,M,M,M,M,24.57,KTMT 221455Z AUTO 24003KT 3/4SM -SN OVC010 M02/M02 A2970 RMK AO2 P0006 60015 T10201023,M
INS,2023-03-22 14:55,-115.6733,36.5872,955.00,42.60,28.00,55.99,40.00,4.00,0.00,29.77,1006.80,10.00,M,CLR,M,M,M,M,M,M,M,M,M,M,M,M,M,M,39.80,KINS 221455Z AUTO 04004KT 10SM CLR 06/M02 A2977 RMK AO2 SLP068 T00591022 52034 $,M
LSV,2023-03-22 14:55,-115.0343,36.2362,570.00,49.50,32.00,50.74,170.00,19.00,0.00,29.76,1007.20,10.00,27.00,CLR,M,M,M,M,M,M,M,M,M,M,M,28.00,160.00,2023-03-22 14:40,42.58,KLSV 221455Z AUTO 17019G27KT 10SM CLR 10/00 A2976 RMK AO2 PK WND 16028/40 SLP072 T00970000 51018 $,M
EKO,2023-03-22 14:56,-115.7860,40.8242,1367.00,28.00,27.00,95.97,0.00,0.00,0.00,29.63,1004.40,2.00,M,OVC,M,M,M,200.00,M,M,M,BR,0.01,0.04,M,M,M,M,28.00,KEKO 221456Z AUTO 00000KT 2SM BR OVC002 M02/M03 A2963 RMK AO2 SLP044 I1001 I3004 T10221028 51019,M
WMC,2023-03-22 14:56,-117.8072,40.9019,1315.00,34.00,30.00,85.11,30.00,4.00,T,29.68,1005.70,6.00,M,BKN,OVC,M,M,2000.00,2700.00,M,M,-SN BR,M,M,M,M,M,M,29.76,KWMC 221456Z AUTO 03004KT 6SM -SN BR BKN020 OVC027 01/M01 A2968 RMK AO2 SNB23 SLP057 P0000 60000 T00111011 53023,M
NFL,2023-03-22 14:56,-118.7010,39.4166,1199.00,33.00,32.00,95.67,0.00,0.00,0.00,29.75,1005.30,8.00,M,FEW,SCT,BKN,BKN,3000.00,5000.00,10000.00,15000.00,M,M,M,M,M,M,M,33.10,KNFL 221456Z 00000KT 8SM FEW030 SCT050 BKN100 BKN150 BKN200 01/00 A2975 RMK AO2 SLP053 T00060000 53023,M
HND,2023-03-22 14:56,-115.1344,35.9729,742.79,46.00,30.90,55.36,220.00,28.00,0.00,29.77,1009.60,10.00,36.00,CLR,M,M,M,M,M,M,M,M,M,M,M,36.00,210.00,2023-03-22 14:56,36.26,KHND 221456Z 22028G36KT 10SM CLR 08/M01 A2977 RMK AO2 PK WND 21036/1456 SLP096 T00781006 51010,M
TPH,2023-03-22 14:56,-117.0904,38.0505,1654.00,28.00,25.00,88.33,240.00,6.00,0.00,29.73,1007.40,10.00,M,BKN,M,M,M,2400.00,M,M,M,M,M,M,M,M,M,M,20.71,KTPH 221456Z AUTO 24006KT 10SM BKN024 M02/M04 A2973 RMK AO2 SLP074 T10221039 51025,M
LAS,2023-03-22 14:56,-115.1634,36.0719,663.00,48.00,30.00,49.49,M,4.00,0.00,29.81,1008.90,10.00,M,FEW,FEW,SCT,M,6000.00,10000.00,20000.00,M,M,M,M,M,28.00,190.00,2023-03-22 14:05,46.10,KLAS 221456Z VRB04KT 10SM FEW060 FEW100 SCT200 09/M01 A2981 RMK AO2 PK WND 19028/1405 SLP089 T00891011 53030 $,M
EKO,2023-03-22 15:07,-115.7860,40.8242,1367.00,28.00,27.00,95.97,0.00,0.00,0.00,29.64,M,6.00,M,BKN,OVC,M,M,200.00,2300.00,M,M,BR,M,M,M,M,M,M,28.00,KEKO 221507Z AUTO 00000KT 6SM BR BKN002 OVC023 M02/M03 A2964 RMK AO2 T10221028,M
05U,2023-03-22 15:10,-116.0051,39.6042,1811.23,30.20,30.20,100.00,0.00,0.00,0.00,29.66,M,7.00,M,CLR,M,M,M,M,M,M,M,M,M,M,M,M,M,M,30.20,K05U 221510Z AUTO 00000KT 7SM CLR M01/M01 A2966 RMK A01,M
BVU,2023-03-22 15:15,-114.8611,35.9475,671.00,50.00,32.00,49.81,180.00,11.00,0.00,29.85,M,10.00,18.00,FEW,FEW,M,M,6000.00,7000.00,M,M,M,M,M,M,M,M,M,50.00,KBVU 221515Z AUTO 18011G18KT 10SM FEW060 FEW070 10/M00 A2985 RMK AO2,M
CXP,2023-03-22 15:15,-119.7326,39.1923,1431.00,32.00,30.20,92.97,0.00,0.00,0.00,29.77,M,10.00,M,FEW,M,M,M,6000.00,M,M,M,M,M,M,M,M,M,M,32.00,KCXP 221515Z AUTO 00000KT 10SM FEW060 M00/M01 A2977 RMK AO2,M
RTS,2023-03-22 15:15,-119.8764,39.6682,1539.00,32.00,28.40,86.39,0.00,0.00,0.00,29.76,M,10.00,M,OVC,M,M,M,4400.00,M,M,M,M,M,M,M,M,M,M,32.00,KRTS 221515Z AUTO 00000KT 10SM OVC044 M00/M02 A2976 RMK AO2,M
MEV,2023-03-22 15:15,-119.7500,38.9963,1441.42,30.20,28.40,92.92,0.00,0.00,0.00,29.76,M,10.00,M,FEW,SCT,M,M,5500.00,12000.00,M,M,M,M,M,M,M,M,M,30.20,KMEV 221515Z AUTO 00000KT 10SM FEW055 SCT120 M01/M02 A2976 RMK AO2,M
BAM,2023-03-22 15:15,-116.8743,40.5990,1382.36,32.00,32.00,100.00,0.00,0.00,0.00,29.69,M,10.00,M,BKN,OVC,M,M,3700.00,4700.00,M,M,M,M,M,M,M,M,M,32.00,KBAM 221515Z AUTO 00000KT 10SM BKN037 OVC047 00/00 A2969 RMK AO1,M
HTH,2023-03-22 15:15,-118.6315,38.5448,1282.89,33.80,30.20,86.49,110.00,4.00,0.00,29.78,M,10.00,M,CLR,M,M,M,M,M,M,M,M,M,M,M,M,M,M,29.52,KHTH 221515Z AUTO 11004KT 10SM CLR 01/M01 A2978 RMK A01,M
TMT,2023-03-22 15:15,-117.1971,39.4643,1749.34,28.90,28.20,97.17,0.00,0.00,0.01,29.72,M,1.00,M,OVC,M,M,M,1200.00,M,M,M,-SN,M,M,M,M,M,M,28.90,KTMT 221515Z AUTO 00000KT 1SM -SN OVC012 M02/M02 A2972 RMK AO2 P0001 T10171021,M
EKO,2023-03-22 15:27,-115.7860,40.8242,1367.00,28.90,28.90,100.00,0.00,0.00,0.00,29.65,M,10.00,M,SCT,SCT,OVC,M,200.00,1200.00,2000.00,M,M,M,M,M,M,M,M,28.90,KEKO 221527Z AUTO 00000KT 10SM SCT002 SCT012 OVC020 M02/M02 A2965 RMK AO2 T10171017,M
05U,2023-03-22 15:30,-116.0051,39.6042,1811.23,30.20,28.40,92.92,280.00,6.00,0.00,29.67,M,10.00,M,CLR,M,M,M,M,M,M,M,M,M,M,M,M,M,M,23.36,K05U 221530Z AUTO 28006KT 10SM CLR M01/M02 A2967 RMK A01,M
BVU,2023-03-22 15:35,-114.8611,35.9475,671.00,50.00,32.00,49.81,200.00,16.00,0.00,29.85,M,10.00,M,SCT,SCT,M,M,6000.00,7000.00,M,M,M,M,M,M,M,M,M,50.00,KBVU 221535Z AUTO 20016KT 10SM SCT060 SCT070 10/M00 A2985 RMK AO2,M
CXP,2023-03-22 15:35,-119.7326,39.1923,1431.00,32.00,30.20,92.97,0.00,0.00,0.00,29.78,M,10.00,M,FEW,M,M,M,11000.00,M,M,M,M,M,M,M,M,M,M,32.00,KCXP 221535Z AUTO 00000KT 10SM FEW110 00/M01 A2978 RMK AO2,M
RTS,2023-03-22 15:35,-119.8764,39.6682,1539.00,32.00,28.40,86.39,0.00,0.00,0.00,29.77,M,10.00,M,OVC,M,M,M,4500.00,M,M,M,M,M,M,M,M,M,M,32.00,KRTS 221535Z AUTO 00000KT 10SM OVC045 M00/M02 A2977 RMK AO2,M
MEV,2023-03-22 15:35,-119.7500,38.9963,1441.42,30.20,28.40,92.92,0.00,0.00,0.00,29.77,M,10.00,M,CLR,M,M,M,M,M,M,M,M,M,M,M,M,M,M,30.20,KMEV 221535Z AUTO 00000KT 10SM CLR M01/M02 A2977 RMK AO2,M
BAM,2023-03-22 15:35,-116.8743,40.5990,1382.36,33.80,32.00,93.03,230.00,4.00,0.00,29.69,M,10.00,M,OVC,M,M,M,3900.00,M,M,M,M,M,M,M,M,M,M,29.52,KBAM 221535Z AUTO 23004KT 10SM OVC039 01/00 A2969 RMK AO1,M
HTH,2023-03-22 15:35,-118.6315,38.5448,1282.89,35.60,30.20,80.51,0.00,0.00,0.00,29.79,M,10.00,M,CLR,M,M,M,M,M,M,M,M,M,M,M,M,M,M,35.60,KHTH 221535Z AUTO 00000KT 10SM CLR 02/M01 A2979 RMK A01,M
TMT,2023-03-22 15:35,-117.1971,39.4643,1749.34,29.10,28.40,97.18,0.00,0.00,0.01,29.73,M,1.75,M,SCT,BKN,OVC,M,1400.00,2100.00,2700.00,M,-SN,M,M,M,M,M,M,29.10,KTMT 221535Z AUTO 00000KT 1 3/4SM -SN SCT014 BKN021 OVC027 M02/M02 A2973 RMK AO2 P0001 T10161020,M
05U,2023-03-22 15:50,-116.0051,39.6042,1811.23,32.00,28.40,86.39,280.00,8.00,0.00,29.69,M,7.00,M,CLR,M,M,M,M,M,M,M,M,M,M,M,M,M,M,24.11,K05U 221550Z AUTO 28008KT 7SM CLR M00/M02 A2969 RMK A01,M
P68,2023-03-22 15:53,-116.0056,39.6014,1993.00,30.90,26.10,82.15,280.00,10.00,0.01,29.66,1003.90,M,21.00,M,M,M,M,M,M,M,M,M,M,M,M,M,M,M,21.59,KP68 221553Z AUTO 28010G21KT M01/M03 A2966 RMK AO1 SLP039 P0001 T10061033,M
DRA,2023-03-22 15:53,-116.0278,36.6206,1009.00,45.00,30.00,55.43,230.00,14.00,0.00,29.83,1008.60,10.00,24.00,BKN,M,M,M,4600.00,M,M,M,M,M,M,M,31.00,200.00,2023-03-22 15:05,37.92,KDRA 221553Z AUTO 23014G24KT 10SM BKN046 07/M01 A2983 RMK AO2 PK WND 20031/1505 SLP086 T00721011,M
ELY,2023-03-22 15:53,-114.8453,39.2950,1909.00,28.00,24.10,85.08,170.00,13.00,0.00,29.65,1003.70,10.00,M,BKN,OVC,M,M,4200.00,5000.00,M,M,M,M,M,M,M,M,M,16.44,KELY 221553Z AUTO 17013KT 10SM BKN042 OVC050 M02/M04 A2965 RMK AO2 SLP037 T10221044,M
LOL,2023-03-22 15:53,-118.5701,40.0684,1192.43,36.00,32.00,85.23,250.00,8.00,T,29.77,1009.20,8.00,M,SCT,BKN,OVC,M,2500.00,3000.00,7000.00,M,-SN,M,M,M,M,M,M,29.04,KLOL 221553Z AUTO 25008KT 230V290 8SM -SN SCT025 BKN030 OVC070 02/00 A2977 RMK AO2 UPB13E17B41E45SNB01E13B45 SLP092 P0000 T00220000,M
VGT,2023-03-22 15:53,-115.1933,36.2111,667.00,53.00,27.00,36.22,210.00,17.00,0.00,29.80,1010.20,10.00,22.00,CLR,M,M,M,M,M,M,M,M,M,M,M,32.00,210.00,2023-03-22 14:56,53.10,KVGT 221553Z 21017G22KT 10SM CLR 12/M03 A2980 RMK AO2 PK WND 21032/1456 SLP102 T01171028,M
BVU,2023-03-22 15:55,-114.8611,35.9475,671.00,51.80,30.20,43.32,220.00,19.00,0.00,29.85,M,10.00,26.00,CLR,M,M,M,M,M,M,M,M,M,M,M,M,M,M,51.80,KBVU 221555Z AUTO 22019G26KT 10SM CLR 11/M01 A2985 RMK AO2,M
CXP,2023-03-22 15:55,-119.7326,39.1923,1431.00,33.80,30.20,86.49,0.00,0.00,0.00,29.79,M,10.00,M,FEW,SCT,M,M,800.00,11000.00,M,M,M,M,M,M,M,M,M,33.80,KCXP 221555Z AUTO 00000KT 10SM FEW008 SCT110 01/M01 A2979 RMK AO2,M
RTS,2023-03-22 15:55,-119.8764,39.6682,1539.00,33.80,28.40,80.36,0.00,0.00,0.00,29.78,M,10.00,M,BKN,M,M,M,4400.00,M,M,M,M,M,M,M,M,M,M,33.80,KRTS 221555Z AUTO 00000KT 10SM BKN044 01/M02 A2978 RMK AO2,M
MEV,2023-03-22 15:55,-119.7500,38.9963,1441.42,32.00,28.40,86.39,0.00,0.00,0.00,29.78,M,10.00,M,CLR,M,M,M,M,M,M,M,M,M,M,M,M,M,M,32.00,KMEV 221555Z AUTO 00000KT 10SM CLR M00/M02 A2978 RMK AO2,M
BAM,2023-03-22 15:55,-116.8743,40.5990,1382.36,33.80,32.00,93.03,240.00,9.00,0.00,29.71,M,10.00,M,OVC,M,M,M,3900.00,M,M,M,M,M,M,M,M,M,M,25.75,KBAM 221555Z AUTO 24009KT 10SM OVC039 01/00 A2971 RMK AO1,M
HTH,2023-03-22 15:55,-118.6315,38.5448,1282.89,37.40,30.20,74.98,0.00,0.00,0.00,29.80,M,10.00,M,CLR,M,M,M,M,M,M,M,M,M,M,M,M,M,M,37.40,KHTH 221555Z AUTO 00000KT 10SM CLR 03/M01 A2980 RMK A01,M
TMT,2023-03-22 15:55,-117.1971,39.4643,1749.34,29.30,28.40,96.39,190.00,3.00,0.01,29.74,M,4.00,M,SCT,OVC,M,M,2200.00,3100.00,M,M,-SN,M,M,M,M,M,M,25.60,KTMT 221555Z AUTO 19003KT 4SM -SN SCT022 OVC031 M01/M02 A2974 RMK AO2 P0001 T10151020,M
LSV,2023-03-22 15:55,-115.0343,36.2362,570.00,52.30,32.70,47.05,180.00,17.00,0.00,29.80,1008.60,10.00,22.00,CLR,M,M,M,M,M,M,M,M,M,M,M,26.00,190.00,2023-03-22 15:13,52.30,KLSV 221555Z AUTO 18017G22KT 10SM CLR 11/00 A2980 RMK AO2 PK WND 19026/13 SLP086 T01130004 $,M
INS,2023-03-22 15:55,-115.6733,36.5872,955.00,47.50,25.50,41.91,250.00,15.00,0.00,29.80,1007.60,10.00,20.00,FEW,M,M,M,18000.00,M,M,M,M,M,M,M,M,M,M,40.87,KINS 221555Z AUTO 25015G20KT 10SM FEW180 09/M04 A2980 RMK AO2 SLP076 T00861036 $,M
RNO,2023-03-22 15:55,-119.7711,39.4839,1341.00,35.00,30.90,84.49,0.00,0.00,0.00,29.79,1008.80,10.00,M,FEW,BKN,BKN,M,3500.00,11000.00,19000.00,M,M,M,M,M,M,M,M,35.10,KRNO 221555Z 00000KT 10SM FEW035 BKN110 BKN190 02/M01 A2979 RMK AO2 SLP088 T00171006,M
EKO,2023-03-22 15:56,-115.7860,40.8242,1367.00,30.90,28.90,92.18,220.00,7.00,T,29.67,1005.40,6.00,M,SCT,BKN,OVC,M,800.00,2400.00,3000.00,M,-SN BR,M,M,M,M,M,M,23.44,KEKO 221556Z AUTO 22007KT 6SM -SN BR SCT008 BKN024 OVC030 M01/M02 A2967 RMK AO2 SNB55 SLP054 P0000 T10061017,M
WMC,2023-03-22 15:56,-117.8072,40.9019,1315.00,35.00,30.90,84.49,240.00,12.00,T,29.71,1006.80,9.00,18.00,OVC,M,M,M,1800.00,M,M,M,M,M,M,M,M,M,M,25.95,KWMC 221556Z AUTO 24012G18KT 9SM OVC018 02/M01 A2971 RMK AO2 SNE56 SLP068 P0000 T00171006,M
HND,2023-03-22 15:56,-115.1344,35.9729,742.79,48.00,30.90,51.34,230.00,13.00,0.00,29.86,1012.70,10.00,21.00,FEW,M,M,M,4300.00,M,M,M,M,M,M,M,35.00,220.00,2023-03-22 14:57,42.07,KHND 221556Z 23013G21KT 10SM FEW043 09/M01 A2986 RMK AO2 PK WND 22035/1457 SLP127 T00891006,M
TPH,2023-03-22 15:56,-117.0904,38.0505,1654.00,30.00,26.10,85.21,0.00,0.00,0.00,29.77,1008.80,10.00,M,BKN,M,M,M,2000.00,M,M,M,M,M,M,M,M,M,M,30.00,KTPH 221556Z AUTO 00000KT 10SM BKN020 M01/M03 A2977 RMK AO2 SLP088 T10111033,M
LAS,2023-03-22 15:56,-115.1634,36.0719,663.00,50.00,28.90,43.92,220.00,10.00,0.00,29.84,1009.90,10.00,25.00,FEW,FEW,M,M,6000.00,10000.00,M,M,M,M,M,M,M,M,M,50.00,KLAS 221556Z 22010G25KT 10SM FEW060 FEW100 10/M02 A2984 RMK AO2 SLP099 T01001017,M
NFL,2023-03-22 15:56,-118.7010,39.4166,1199.00,38.00,34.00,85.69,M,3.00,0.00,29.78,1006.40,10.00,M,FEW,SCT,BKN,BKN,3000.00,5000.00,9000.00,15000.00,M,M,M,M,M,M,M,35.43,KNFL 221556Z VRB03KT 10SM FEW030 SCT050 BKN090 BKN150 BKN180 03/01 A2978 RMK AO2 SLP064 T00330011,M
TPH,2023-03-22 16:09,-117.0904,38.0505,1654.00,28.90,27.00,92.49,0.00,0.00,0.00,29.78,M,10.00,M,SCT,M,M,M,2000.00,M,M,M,M,M,M,M,M,M,M,28.90,KTPH 221609Z AUTO 00000KT 10SM SCT020 M02/M03 A2978 RMK AO2 T10171028,M
05U,2023-03-22 16:10,-116.0051,39.6042,1811.23,32.00,28.40,86.39,280.00,12.00,0.00,29.70,M,6.00,M,CLR,M,M,M,M,M,M,M,BR,M,M,M,M,M,M,22.00,K05U 221610Z AUTO 28012KT 6SM BR CLR M00/M02 A2970 RMK A01,M
BVU,2023-03-22 16:15,-114.8611,35.9475,671.00,51.80,30.20,43.32,210.00,15.00,0.00,29.87,M,10.00,20.00,CLR,M,M,M,M,M,M,M,M,M,M,M,M,M,M,51.80,KBVU 221615Z AUTO 21015G20KT 10SM CLR 11/M01 A2987 RMK AO2,M
CXP,2023-03-22 16:15,-119.7326,39.1923,1431.00,35.60,30.20,80.51,0.00,0.00,0.00,29.80,M,10.00,M,FEW,SCT,SCT,M,900.00,5000.00,12000.00,M,M,M,M,M,M,M,M,35.60,KCXP 221615Z AUTO 00000KT 10SM FEW009 SCT050 SCT120 02/M01 A2980 RMK AO2,M
RTS,2023-03-22 16:15,-119.8764,39.6682,1539.00,33.80,28.40,80.36,M,5.00,0.00,29.79,M,10.00,M,BKN,M,M,M,4300.00,M,M,M,M,M,M,M,M,M,M,28.53,KRTS 221615Z AUTO VRB05KT 10SM BKN043 01/M02 A2979 RMK AO2,M
MEV,2023-03-22 16:15,-119.7500,38.9963,1441.42,33.80,28.40,80.36,0.00,0.00,0.00,29.79,M,10.00,M,CLR,M,M,M,M,M,M,M,M,M,M,M,M,M,M,33.80,KMEV 221615Z AUTO 00000KT 10SM CLR 01/M02 A2979 RMK AO2,M
BAM,2023-03-22 16:15,-116.8743,40.5990,1382.36,33.80,32.00,93.03,240.00,11.00,0.00,29.71,M,10.00,M,SCT,OVC,M,M,3900.00,4500.00,M,M,M,M,M,M,M,M,M,24.74,KBAM 221615Z AUTO 24011KT 10SM SCT039 OVC045 01/00 A2971 RMK AO1,M
HTH,2023-03-22 16:15,-118.6315,38.5448,1282.89,37.40,32.00,80.65,0.00,0.00,0.00,29.81,M,10.00,M,CLR,M,M,M,M,M,M,M,M,M,M,M,M,M,M,37.40,KHTH 221615Z AUTO 00000KT 10SM CLR 03/M00 A2981 RMK A01,M
TMT,2023-03-22 16:15,-117.1971,39.4643,1749.34,30.00,28.90,95.61,200.00,4.00,0.00,29.76,M,4.00,M,SCT,BKN,OVC,M,2000.00,2800.00,3300.00,M,-SN,M,M,M,M,M,M,25.08,KTMT 221615Z AUTO 20004KT 4SM -SN SCT020 BKN028 OVC033 M01/M02 A2976 RMK AO2 T10111017,M
INS,2023-03-22 16:18,-115.6733,36.5872,955.00,48.20,24.80,39.66,210.00,13.00,0.00,29.81,1008.20,10.00,M,CLR,M,M,M,M,M,M,M,M,M,M,M,M,M,M,42.32,KINS 221618Z AUTO 21013KT 10SM CLR 09/M04 A2981 RMK AO2 WSHFT 03 SLP082 $,M
EKO,2023-03-22 16:30,-115.7860,40.8242,1367.00,30.90,30.00,96.41,230.00,7.00,T,29.68,M,10.00,M,SCT,BKN,OVC,M,2500.00,3300.00,5000.00,M,M,M,M,M,M,M,M,23.44,KEKO 221630Z AUTO 23007KT 10SM SCT025 BKN033 OVC050 M01/M01 A2968 RMK AO2 SNE04 P0000 T10061011,M
05U,2023-03-22 16:30,-116.0051,39.6042,1811.23,32.00,28.40,86.39,280.00,12.00,0.00,29.71,M,6.00,M,CLR,M,M,M,M,M,M,M,BR,M,M,M,M,M,M,22.00,K05U 221630Z AUTO 28012KT 6SM BR CLR 00/M02 A2971 RMK A01,M
HTH,2023-03-22 16:30,-118.6315,38.5448,1282.89,37.40,32.00,80.65,0.00,0.00,0.00,29.82,M,10.00,M,CLR,M,M,M,M,M,M,M,M,M,M,M,M,M,M,37.40,KHTH 221630Z AUTO 00000KT 10SM CLR 03/M00 A2982 RMK A01,M
BVU,2023-03-22 16:35,-114.8611,35.9475,671.00,53.60,28.40,37.67,210.00,15.00,0.00,29.89,M,10.00,M,FEW,M,M,M,6500.00,M,M,M,M,M,M,M,M,M,M,53.60,KBVU 221635Z AUTO 21015KT 10SM FEW065 12/M02 A2989 RMK AO2,M
CXP,2023-03-22 16:35,-119.7326,39.1923,1431.00,37.40,30.20,74.98,0.00,0.00,0.00,29.81,M,10.00,M,FEW,M,M,M,5000.00,M,M,M,M,M,M,M,M,M,M,37.40,KCXP 221635Z AUTO 00000KT 10SM FEW050 03/M01 A2981 RMK AO2,M
RTS,2023-03-22 16:35,-119.8764,39.6682,1539.00,35.60,26.60,69.46,M,4.00,0.00,29.80,M,10.00,M,SCT,SCT,M,M,4500.00,11000.00,M,M,M,M,M,M,M,M,M,31.62,KRTS 221635Z AUTO VRB04KT 10SM SCT045 SCT110 02/M03 A2980 RMK AO2,M
MEV,2023-03-22 16:35,-119.7500,38.9963,1441.42,33.80,30.20,86.49,0.00,0.00,0.00,29.80,M,10.00,M,CLR,M,M,M,M,M,M,M,M,M,M,M,M,M,M,33.80,KMEV 221635Z AUTO 00000KT 10SM CLR 01/M01 A2980 RMK AO2,M
BAM,2023-03-22 16:35,-116.8743,40.5990,1382.36,35.60,33.80,93.08,240.00,13.00,0.00,29.72,M,10.00,M,OVC,M,M,M,4700.00,M,M,M,M,M,M,M,M,M,M,26.18,KBAM 221635Z AUTO 24013KT 10SM OVC047 02/01 A2972 RMK AO1,M
TMT,2023-03-22 16:35,-117.1971,39.4643,1749.34,30.60,29.10,94.08,200.00,7.00,0.00,29.77,M,10.00,M,SCT,BKN,OVC,M,2200.00,3000.00,4100.00,M,M,M,M,M,M,M,M,23.07,KTMT 221635Z AUTO 20007KT 10SM SCT022 BKN030 OVC041 M01/M02 A2977 RMK AO2 T10081016,M
TPH,2023-03-22 16:39,-117.0904,38.0505,1654.00,32.00,28.00,84.98,0.00,0.00,0.00,29.81,M,10.00,M,BKN,M,M,M,1700.00,M,M,M,M,M,M,M,M,M,M,32.00,KTPH 221639Z AUTO 00000KT 10SM BKN017 00/M02 A2981 RMK AO2 T00001022,M
EKO,2023-03-22 16:43,-115.7860,40.8242,1367.00,30.90,30.00,96.41,220.00,7.00,T,29.68,M,10.00,M,FEW,BKN,OVC,M,1800.00,2400.00,3800.00,M,M,M,M,M,M,M,M,23.44,KEKO 221643Z AUTO 22007KT 10SM FEW018 BKN024 OVC038 M01/M01 A2968 RMK AO2 SNE04 P0000 T10061011,M
05U,2023-03-22 16:50,-116.0051,39.6042,1811.23,32.00,28.40,86.39,270.00,10.00,0.00,29.73,M,6.00,15.00,CLR,M,M,M,M,M,M,M,HZ,M,M,M,M,M,M,22.97,K05U 221650Z AUTO 27010G15KT 6SM HZ CLR 00/M02 A2973 RMK A01,M
P68,2023-03-22 16:53,-116.0056,39.6014,1993.00,32.00,27.00,81.55,260.00,14.00,0.00,29.70,1005.40,M,20.00,M,M,M,M,M,M,M,M,M,M,M,M,27.00,270.00,2023-03-22 16:33,21.16,KP68 221653Z AUTO 26014G20KT 00/M03 A2970 RMK AO1 PK WND 27027/1633 SLP054 T00001028,M
DRA,2023-03-22 16:53,-116.0278,36.6206,1009.00,47.00,30.00,51.58,220.00,18.00,0.00,29.86,1009.80,10.00,29.00,CLR,M,M,M,M,M,M,M,M,M,M,M,31.00,210.00,2023-03-22 16:37,39.36,KDRA 221653Z AUTO 22018G29KT 10SM CLR 08/M01 A2986 RMK AO2 PK WND 21031/1637 SLP098 T00831011,M
ELY,2023-03-22 16:53,-114.8453,39.2950,1909.00,28.90,25.00,85.14,170.00,11.00,T,29.68,1005.20,4.00,M,BKN,BKN,OVC,M,2800.00,3600.00,4500.00,M,-SN BR,M,M,M,M,M,M,18.55,KELY 221653Z AUTO 17011KT 4SM -SN BR BKN028 BKN036 OVC045 M02/M04 A2968 RMK AO2 SNB47 SLP052 P0000 T10171039,M
VGT,2023-03-22 16:53,-115.1933,36.2111,667.00,54.00,28.90,37.89,300.00,10.00,0.00,29.85,1012.00,10.00,M,CLR,M,M,M,M,M,M,M,M,M,M,M,26.00,230.00,2023-03-22 16:14,54.00,KVGT 221653Z 30010KT 10SM CLR 12/M02 A2985 RMK AO2 PK WND 23026/1614 SLP120 T01221017,M
LOL,2023-03-22 16:53,-118.5701,40.0684,1192.43,39.00,33.00,79.17,240.00,10.00,T,29.80,1009.80,10.00,M,FEW,OVC,M,M,5000.00,7000.00,M,M,M,M,M,M,M,M,M,31.75,KLOL 221653Z AUTO 24010KT 10SM FEW050 OVC070 04/01 A2980 RMK AO2 RAB1557E13SNE1557 SLP098 P0000 T00390006,M
BVU,2023-03-22 16:55,-114.8611,35.9475,671.00,53.60,26.60,34.98,200.00,15.00,0.00,29.91,M,10.00,21.00,SCT,SCT,M,M,6000.00,7000.00,M,M,M,M,M,M,M,M,M,53.60,KBVU 221655Z AUTO 20015G21KT 10SM SCT060 SCT070 12/M03 A2991 RMK AO2,M
CXP,2023-03-22 16:55,-119.7326,39.1923,1431.00,39.20,28.40,64.93,0.00,0.00,0.00,29.81,M,10.00,M,FEW,M,M,M,12000.00,M,M,M,M,M,M,M,M,M,M,39.20,KCXP 221655Z AUTO 00000KT 10SM FEW120 04/M02 A2981 RMK AO2,M
RNO,2023-03-22 16:55,-119.7711,39.4839,1341.00,38.00,30.90,75.64,0.00,0.00,0.00,29.81,1009.20,10.00,M,FEW,BKN,BKN,M,3500.00,11000.00,20000.00,M,M,M,M,M,M,M,M,37.90,KRNO 221655Z 00000KT 10SM FEW035 BKN110 BKN200 03/M01 A2981 RMK AO2 SLP092 T00331006,M
RTS,2023-03-22 16:55,-119.8764,39.6682,1539.00,37.40,24.80,60.04,320.00,4.00,0.00,29.80,M,10.00,M,SCT,SCT,M,M,4400.00,11000.00,M,M,M,M,M,M,M,M,M,33.73,KRTS 221655Z AUTO 32004KT 10SM SCT044 SCT110 03/M04 A2980 RMK AO2,M
MEV,2023-03-22 16:55,-119.7500,38.9963,1441.42,35.60,30.20,80.51,0.00,0.00,0.00,29.80,M,10.00,M,CLR,M,M,M,M,M,M,M,M,M,M,M,M,M,M,35.60,KMEV 221655Z AUTO 00000KT 10SM CLR 02/M01 A2980 RMK AO2,M
BAM,2023-03-22 16:55,-116.8743,40.5990,1382.36,37.40,33.80,86.69,240.00,12.00,0.00,29.73,M,10.00,M,SCT,OVC,M,M,4000.00,4700.00,M,M,M,M,M,M,M,M,M,28.87,KBAM 221655Z AUTO 24012KT 10SM SCT040 OVC047 03/01 A2973 RMK AO1,M
HTH,2023-03-22 16:55,-118.6315,38.5448,1282.89,39.20,32.00,75.16,360.00,4.00,0.00,29.82,M,10.00,M,FEW,M,M,M,1600.00,M,M,M,M,M,M,M,M,M,M,35.83,KHTH 221655Z AUTO 36004KT 10SM FEW016 04/M00 A2982 RMK A01,M
TMT,2023-03-22 16:55,-117.1971,39.4643,1749.34,31.10,28.90,91.44,220.00,7.00,0.00,29.78,M,10.00,M,BKN,OVC,M,M,2800.00,3300.00,M,M,M,M,M,M,M,M,M,23.68,KTMT 221655Z AUTO 22007KT 10SM BKN028 OVC033 00/M02 A2978 RMK AO2 T10051017,M
LSV,2023-03-22 16:55,-115.0343,36.2362,570.00,54.30,33.00,44.07,180.00,14.00,0.00,29.84,1009.80,10.00,M,CLR,M,M,M,M,M,M,M,M,M,M,M,26.00,170.00,2023-03-22 16:27,54.30,KLSV 221655Z AUTO 18014KT 10SM CLR 12/01 A2984 RMK AO2 PK WND 17026/27 SLP098 T01240005 $,M
EKO,2023-03-22 16:56,-115.7860,40.8242,1367.00,32.00,30.00,92.22,220.00,6.00,T,29.69,1006.50,7.00,M,FEW,BKN,OVC,M,1800.00,2200.00,2800.00,M,M,M,M,M,M,M,M,25.53,KEKO 221656Z AUTO 22006KT 7SM FEW018 BKN022 OVC028 00/M01 A2969 RMK AO2 SNE04 SLP065 P0000 T00001011,M
WMC,2023-03-22 16:56,-117.8072,40.9019,1315.00,36.00,32.00,85.23,230.00,7.00,0.00,29.74,1007.80,10.00,M,OVC,M,M,M,2000.00,M,M,M,M,M,M,M,M,M,M,29.65,KWMC 221656Z AUTO 23007KT 10SM OVC020 02/00 A2974 RMK AO2 SLP078 T00220000,M
TPH,2023-03-22 16:56,-117.0904,38.0505,1654.00,33.00,28.00,81.30,0.00,0.00,0.00,29.82,1009.70,10.00,M,BKN,BKN,M,M,1700.00,3400.00,M,M,M,M,M,M,M,M,M,33.10,KTPH 221656Z AUTO 00000KT 10SM BKN017 BKN034 01/M02 A2982 RMK AO2 SLP097 T00061022,M
LAS,2023-03-22 16:56,-115.1634,36.0719,663.00,53.00,26.10,34.90,230.00,10.00,0.00,29.87,1010.90,10.00,23.00,FEW,FEW,M,M,6000.00,10000.00,M,M,M,M,M,M,26.00,240.00,2023-03-22 16:32,53.10,KLAS 221656Z 23010G23KT 10SM FEW060 FEW100 12/M03 A2987 RMK AO2 PK WND 24026/1632 SLP109 T01171033,M
HND,2023-03-22 16:56,-115.1344,35.9729,742.79,51.00,30.90,45.73,230.00,17.00,0.00,29.90,1013.90,10.00,24.00,CLR,M,M,M,M,M,M,M,M,M,M,M,31.00,220.00,2023-03-22 16:02,51.10,KHND 221656Z 23017G24KT 10SM CLR 11/M01 A2990 RMK AO2 PK WND 22031/1602 SLP139 T01061006,M
NFL,2023-03-22 16:56,-118.7010,39.4166,1199.00,42.00,33.00,70.20,310.00,4.00,0.00,29.81,1007.10,10.00,M,FEW,SCT,BKN,BKN,1000.00,4000.00,9000.00,13000.00,M,M,M,M,M,M,M,39.21,KNFL 221656Z 31004KT 10SM FEW010 SCT040 BKN090 BKN130 BKN200 06/01 A2981 RMK AO2 SLP071 T00560006,M
ELY,2023-03-22 17:03,-114.8453,39.2950,1909.00,28.90,25.00,85.14,170.00,12.00,T,29.69,M,2.00,M,BKN,BKN,OVC,M,2300.00,2800.00,3400.00,M,-SN BR,M,M,M,M,M,M,18.06,KELY 221703Z AUTO 17012KT 2SM -SN BR BKN023 BKN028 OVC034 M02/M04 A2969 RMK AO2 P0000 T10171039,M
TPH,2023-03-22 17:04,-117.0904,38.0505,1654.00,32.00,28.00,84.98,0.00,0.00,0.00,29.82,M,10.00,M,SCT,BKN,M,M,1700.00,3500.00,M,M,M,M,M,M,M,M,M,32.00,KTPH 221704Z AUTO 00000KT 10SM SCT017 BKN035 00/M02 A2982 RMK AO2 T00001022,M
05U,2023-03-22 17:10,-116.0051,39.6042,1811.23,33.80,30.20,86.49,270.00,11.00,0.00,29.74,M,10.00,M,SCT,M,M,M,5500.00,M,M,M,M,M,M,M,M,M,M,24.74,K05U 221710Z AUTO 27011KT 10SM SCT055 01/M01 A2974 RMK A01,M
ELY,2023-03-22 17:12,-114.8453,39.2950,1909.00,28.90,26.10,89.12,160.00,12.00,T,29.69,M,1.75,M,BKN,OVC,M,M,2000.00,2600.00,M,M,-SN BR,M,M,M,M,M,M,18.06,KELY 221712Z AUTO 16012KT 1 3/4SM -SN BR BKN020 OVC026 M02/M03 A2969 RMK AO2 P0000 T10171033,M
CXP,2023-03-22 17:15,-119.7326,39.1923,1431.00,39.20,28.40,64.93,0.00,0.00,0.00,29.82,M,10.00,M,FEW,M,M,M,12000.00,M,M,M,M,M,M,M,M,M,M,39.20,KCXP 221715Z AUTO 00000KT 10SM FEW120 04/M02 A2982 RMK AO2,M
RTS,2023-03-22 17:15,-119.8764,39.6682,1539.00,37.40,24.80,60.04,M,4.00,0.00,29.81,M,10.00,10.00,FEW,FEW,M,M,3300.00,4300.00,M,M,M,M,M,M,M,M,M,33.73,KRTS 221715Z AUTO VRB04G10KT 10SM FEW033 FEW043 03/M04 A2981 RMK AO2,M
MEV,2023-03-22 17:15,-119.7500,38.9963,1441.42,35.60,30.20,80.51,0.00,0.00,0.00,29.81,M,10.00,M,CLR,M,M,M,M,M,M,M,M,M,M,M,M,M,M,35.60,KMEV 221715Z AUTO 00000KT 10SM CLR 02/M01 A2981 RMK AO2,M
BAM,2023-03-22 17:15,-116.8743,40.5990,1382.36,37.40,33.80,86.69,240.00,12.00,0.00,29.74,M,10.00,M,OVC,M,M,M,4700.00,M,M,M,M,M,M,M,M,M,M,28.87,KBAM 221715Z AUTO 24012KT 10SM OVC047 03/01 A2974 RMK AO1,M
HTH,2023-03-22 17:15,-118.6315,38.5448,1282.89,39.20,30.20,69.88,340.00,6.00,0.00,29.83,M,10.00,M,FEW,M,M,M,1600.00,M,M,M,M,M,M,M,M,M,M,34.20,KHTH 221715Z AUTO 34006KT 10SM FEW016 04/M01 A2983 RMK A01,M
TMT,2023-03-22 17:15,-117.1971,39.4643,1749.34,32.00,29.10,88.90,220.00,6.00,0.00,29.79,M,10.00,M,BKN,OVC,M,M,2600.00,3200.00,M,M,M,M,M,M,M,M,M,25.53,KTMT 221715Z AUTO 22006KT 10SM BKN026 OVC032 00/M02 A2979 RMK AO2 T00001016,M
ELY,2023-03-22 17:30,-114.8453,39.2950,1909.00,30.00,26.10,86.28,160.00,9.00,T,29.70,M,3.00,16.00,BKN,OVC,M,M,2400.00,3600.00,M,M,-SN BR,M,M,M,M,M,M,21.28,KELY 221730Z AUTO 16009G16KT 3SM -SN BR BKN024 OVC036 M01/M03 A2970 RMK AO2 P0000 T10111033,M
05U,2023-03-22 17:30,-116.0051,39.6042,1811.23,33.80,30.20,86.49,270.00,8.00,0.00,29.76,M,9.00,M,BKN,BKN,M,M,5000.00,7000.00,M,M,M,M,M,M,M,M,M,26.33,K05U 221730Z AUTO 27008KT 9SM BKN050 BKN070 01/M01 A2976 RMK A01,M
BVU,2023-03-22 17:35,-114.8611,35.9475,671.00,55.40,24.80,30.40,220.00,15.00,0.00,29.91,M,10.00,21.00,FEW,M,M,M,6000.00,M,M,M,M,M,M,M,M,M,M,55.40,KBVU 221735Z AUTO 22015G21KT 10SM FEW060 13/M04 A2991 RMK AO2,M
CXP,2023-03-22 17:35,-119.7326,39.1923,1431.00,41.00,28.40,60.54,M,4.00,0.00,29.82,M,10.00,M,SCT,M,M,M,5000.00,M,M,M,M,M,M,M,M,M,M,37.93,KCXP 221735Z AUTO VRB04KT 10SM SCT050 05/M02 A2982 RMK AO2,M
RTS,2023-03-22 17:35,-119.8764,39.6682,1539.00,37.40,26.60,64.70,310.00,8.00,0.00,29.82,M,10.00,M,SCT,BKN,BKN,M,3100.00,3900.00,9500.00,M,M,M,M,M,M,M,M,30.76,KRTS 221735Z AUTO 31008KT 10SM SCT031 BKN039 BKN095 03/M03 A2982 RMK AO2,M
MEV,2023-03-22 17:35,-119.7500,38.9963,1441.42,37.40,32.00,80.65,220.00,3.00,0.00,29.81,M,10.00,M,CLR,M,M,M,M,M,M,M,M,M,M,M,M,M,M,34.86,KMEV 221735Z AUTO 22003KT 10SM CLR 03/00 A2981 RMK AO2,M
BAM,2023-03-22 17:35,-116.8743,40.5990,1382.36,37.40,33.80,86.69,240.00,13.00,0.00,29.75,M,10.00,17.00,OVC,M,M,M,4700.00,M,M,M,M,M,M,M,M,M,M,28.49,KBAM 221735Z AUTO 24013G17KT 10SM OVC047 03/01 A2975 RMK AO1,M
HTH,2023-03-22 17:35,-118.6315,38.5448,1282.89,41.00,32.00,70.08,M,4.00,0.00,29.84,M,10.00,M,CLR,M,M,M,M,M,M,M,M,M,M,M,M,M,M,37.93,KHTH 221735Z AUTO VRB04KT 10SM CLR 05/00 A2984 RMK A01,M
TMT,2023-03-22 17:35,-117.1971,39.4643,1749.34,32.00,29.50,90.36,220.00,8.00,0.00,29.80,M,10.00,M,SCT,OVC,M,M,2100.00,3000.00,M,M,M,M,M,M,M,M,M,24.11,KTMT 221735Z AUTO 22008KT 10SM SCT021 OVC030 00/M01 A2980 RMK AO2 T00001014,M
VGT,2023-03-22 17:45,-115.1933,36.2111,667.00,57.00,25.00,28.93,220.00,10.00,0.00,29.88,M,10.00,M,CLR,M,M,M,M,M,M,M,M,M,M,M,M,M,M,57.00,KVGT 221745Z 22010KT 10SM CLR 14/M04 A2988 RMK AO2 WSHFT 1725 T01391039,M
ELY,2023-03-22 17:47,-114.8453,39.2950,1909.00,30.20,26.60,86.28,170.00,9.00,T,29.72,M,1.75,M,BKN,OVC,M,M,2800.00,3700.00,M,M,-SN BR,M,M,M,M,M,M,21.28,KELY 221747Z AUTO 17009KT 1 3/4SM -SN BR BKN028 OVC037 M01/M03 A2972 RMK AO2 P0000,M
ELY,2023-03-22 17:48,-114.8453,39.2950,1909.00,30.00,27.00,88.44,170.00,10.00,T,29.72,1005.90,1.75,M,BKN,OVC,M,M,2800.00,3700.00,M,M,-SN BR,M,M,M,M,M,M,20.46,KELY 221748Z AUTO 17010KT 1 3/4SM -SN BR BKN028 OVC037 M01/M03 A2972 RMK AO2 SLP059 P0000 60001 T10111028 11011 21028 51031,M
05U,2023-03-22 17:50,-116.0051,39.6042,1811.23,33.80,30.20,86.49,260.00,11.00,0.00,29.77,M,5.00,M,FEW,FEW,M,M,5500.00,7000.00,M,M,HZ,M,M,M,M,M,M,24.74,K05U 221750Z AUTO 26011KT 5SM HZ FEW055 FEW070 01/M01 A2977 RMK A01,M
P68,2023-03-22 17:53,-116.0056,39.6014,1993.00,32.00,28.90,88.17,260.00,11.00,0.00,29.75,1006.90,M,M,M,M,M,M,M,M,M,M,M,M,M,M,M,M,M,22.47,KP68 221753Z AUTO 26011KT 00/M02 A2975 RMK AO1 SLP069 60017 T00001017 10006 21028 53035,M
DRA,2023-03-22 17:53,-116.0278,36.6206,1009.00,47.00,28.90,49.32,210.00,17.00,0.00,29.90,1011.30,10.00,26.00,BKN,M,M,M,4500.00,M,M,M,M,M,M,M,32.00,190.00,2023-03-22 17:20,39.59,KDRA 221753Z AUTO 21017G26KT 10SM BKN045 08/M02 A2990 RMK AO2 PK WND 19032/1720 SLP113 T00831017 10089 20044 51035,M
LOL,2023-03-22 17:53,-118.5701,40.0684,1192.43,43.00,34.00,70.30,250.00,8.00,0.00,29.82,1010.10,10.00,M,OVC,M,M,M,8000.00,M,M,M,M,M,M,M,M,M,M,37.66,KLOL 221753Z AUTO 25008KT 10SM OVC080 06/01 A2982 RMK AO2 SLP101 60000 T00610011 10061 21006 51025,M
VGT,2023-03-22 17:53,-115.1933,36.2111,667.00,56.00,25.00,30.10,220.00,11.00,0.00,29.88,1013.00,10.00,M,CLR,M,M,M,M,M,M,M,M,M,M,M,M,M,M,55.90,KVGT 221753Z 22011KT 10SM CLR 13/M04 A2988 RMK AO2 WSHFT 1725 SLP130 T01331039 10139 20078 51039,M
BVU,2023-03-22 17:55,-114.8611,35.9475,671.00,55.40,23.00,28.20,240.00,18.00,0.00,29.93,M,10.00,25.00,CLR,M,M,M,M,M,M,M,M,M,M,M,M,M,M,55.40,KBVU 221755Z AUTO 24018G25KT 10SM CLR 13/M05 A2993 RMK AO2,M
CXP,2023-03-22 17:55,-119.7326,39.1923,1431.00,42.80,28.40,56.48,190.00,4.00,0.00,29.83,M,10.00,M,BKN,M,M,M,5000.00,M,M,M,M,M,M,M,M,M,M,40.03,KCXP 221755Z AUTO 19004KT 10SM BKN050 06/M02 A2983 RMK AO2,M
RTS,2023-03-22 17:55,-119.8764,39.6682,1539.00,39.20,24.80,55.95,280.00,9.00,0.00,29.83,M,10.00,M,FEW,BKN,OVC,M,3200.00,4300.00,9500.00,M,M,M,M,M,M,M,M,32.47,KRTS 221755Z AUTO 28009KT 10SM FEW032 BKN043 OVC095 04/M04 A2983 RMK AO2,M
MEV,2023-03-22 17:55,-119.7500,38.9963,1441.42,39.20,30.20,69.88,0.00,0.00,0.00,29.82,M,10.00,M,CLR,M,M,M,M,M,M,M,M,M,M,M,M,M,M,39.20,KMEV 221755Z AUTO 00000KT 10SM CLR 04/M01 A2982 RMK AO2,M
BAM,2023-03-22 17:55,-116.8743,40.5990,1382.36,37.40,33.80,86.69,240.00,12.00,0.00,29.76,M,10.00,17.00,OVC,M,M,M,4700.00,M,M,M,M,M,M,M,M,M,M,28.87,KBAM 221755Z AUTO 24012G17KT 10SM OVC047 03/01 A2976 RMK AO1,M
HTH,2023-03-22 17:55,-118.6315,38.5448,1282.89,41.00,30.20,65.16,0.00,0.00,0.00,29.84,M,10.00,M,FEW,M,M,M,2000.00,M,M,M,M,M,M,M,M,M,M,41.00,KHTH 221755Z AUTO 00000KT 10SM FEW020 05/M01 A2984 RMK A01,M
LSV,2023-03-22 17:55,-115.0343,36.2362,570.00,58.30,27.90,31.13,200.00,17.00,0.00,29.87,1010.70,10.00,23.00,CLR,M,M,M,M,M,M,M,M,M,M,M,27.00,180.00,2023-03-22 17:28,58.30,KLSV 221755Z AUTO 20017G23KT 10SM CLR 15/M02 A2987 RMK AO2 PK WND 18027/28 SLP107 T01461023 10146 20076 52035 $,M
TMT,2023-03-22 17:55,-117.1971,39.4643,1749.34,32.20,29.70,90.37,210.00,8.00,0.00,29.81,M,10.00,M,SCT,BKN,OVC,M,2100.00,2900.00,6000.00,M,M,M,M,M,M,M,M,24.36,KTMT 221755Z AUTO 21008KT 10SM SCT021 BKN029 OVC060 00/M01 A2981 RMK AO2 60016 T00011013 10001 21022,M
ELY,2023-03-22 17:55,-114.8453,39.2950,1909.00,30.00,27.00,88.44,170.00,8.00,0.01,29.72,M,0.75,M,BKN,OVC,M,M,2200.00,3700.00,M,M,-SN BR,M,M,M,M,M,M,21.65,KELY 221755Z AUTO 17008KT 3/4SM -SN BR BKN022 OVC037 M01/M03 A2972 RMK AO2 P0001 T10111028,M
ELY,2023-03-22 17:55,-114.8453,39.2950,1909.00,M,M,M,170.00,8.00,0.01,29.72,M,0.75,M,BKN,OVC,M,M,2200.00,3700.00,M,M,-SN BR,M,M,M,M,M,M,M,KELY 221755Z AUTO 17008KT 1SM -SN BR BKN022 OVC037 M01/M03 A2972 RMK P0001 T10101030 MADISHF,M
INS,2023-03-22 17:55,-115.6733,36.5872,955.00,50.50,21.00,31.02,260.00,17.00,0.00,29.87,1010.20,10.00,23.00,CLR,M,M,M,M,M,M,M,M,M,M,M,M,M,M,50.50,KINS 221755Z AUTO 26017G23KT 10SM CLR 10/M06 A2987 RMK AO2 SLP102 T01031061 10103 20043 52031 $,M
RNO,2023-03-22 17:55,-119.7711,39.4839,1341.00,44.00,28.90,54.85,0.00,0.00,0.00,29.83,1009.50,10.00,M,FEW,SCT,BKN,M,4000.00,9500.00,20000.00,M,M,M,M,M,M,M,M,44.10,KRNO 221755Z 00000KT 10SM FEW040 SCT095 BKN200 07/M02 A2983 RMK AO2 SLP095 T00671017 10067 21011 51023,M
EKO,2023-03-22 17:56,-115.7860,40.8242,1367.00,32.00,30.00,92.22,220.00,9.00,0.00,29.72,1007.70,9.00,M,BKN,OVC,M,M,1700.00,2300.00,M,M,M,M,M,0.04,M,M,M,23.51,KEKO 221756Z AUTO 22009KT 9SM BKN017 OVC023 00/M01 A2972 RMK AO2 SLP077 60000 I6004 T00001011 10000 21039 51025,M
NFL,2023-03-22 17:56,-118.7010,39.4166,1199.00,43.00,28.90,57.21,0.00,0.00,0.00,29.83,1007.70,10.00,M,FEW,SCT,BKN,BKN,3000.00,4500.00,10000.00,18000.00,M,M,M,M,M,M,M,43.00,KNFL 221756Z 00000KT 10SM FEW030 SCT045 BKN100 BKN180 06/M02 A2983 RMK AO2 SLP077 T00611017 10067 20000 51024,M
HND,2023-03-22 17:56,-115.1344,35.9729,742.79,53.00,28.00,37.74,210.00,15.00,0.00,29.93,1014.80,10.00,22.00,CLR,M,M,M,M,M,M,M,M,M,M,M,27.00,210.00,2023-03-22 17:19,53.10,KHND 221756Z 21015G22KT 10SM CLR 12/M02 A2993 RMK AO2 PK WND 21027/1719 SLP148 T01171022 10117 20067 51050,M
TPH,2023-03-22 17:56,-117.0904,38.0505,1654.00,34.00,28.90,81.37,210.00,6.00,0.00,29.85,1011.30,10.00,M,FEW,M,M,M,4100.00,M,M,M,M,M,M,M,M,M,M,27.94,KTPH 221756Z AUTO 21006KT 10SM FEW041 01/M02 A2985 RMK AO2 SLP113 T00111017 10011 21039 51035,M
LAS,2023-03-22 17:56,-115.1634,36.0719,663.00,54.00,27.00,35.05,220.00,13.00,0.00,29.90,1011.90,10.00,23.00,FEW,FEW,M,M,6000.00,10000.00,M,M,M,M,M,M,M,M,M,54.00,KLAS 221756Z 22013G23KT 10SM FEW060 FEW100 12/M03 A2990 RMK AO2 SLP119 T01221028 10122 20078 53030,M
WMC,2023-03-22 17:56,-117.8072,40.9019,1315.00,38.00,34.00,85.69,260.00,12.00,T,29.77,1008.50,10.00,20.00,BKN,OVC,M,M,2600.00,3600.00,M,M,-RA,M,M,M,M,M,M,29.51,KWMC 221756Z AUTO 26012G20KT 10SM -RA BKN026 OVC036 03/01 A2977 RMK AO2 RAB41 SLP085 P0000 60000 T00330011 10033 20000 51026,M
ELY,2023-03-22 18:10,-114.8453,39.2950,1909.00,30.00,27.00,86.28,160.00,8.00,0.01,29.73,M,1.25,M,OVC,M,M,M,1800.00,M,M,M,-SN BR,M,M,M,M,M,M,21.90,KELY 221810Z AUTO 16008KT 1 1/4SM -SN BR OVC018 M01/M03 A2973 RMK AO2 P0001 T10111028,M
05U,2023-03-22 18:10,-116.0051,39.6042,1811.23,35.60,30.20,80.51,250.00,7.00,0.00,29.78,M,8.00,M,FEW,M,M,M,3700.00,M,M,M,M,M,M,M,M,M,M,29.17,K05U 221810Z AUTO 25007KT 8SM FEW037 02/M01 A2978 RMK A01,M
LSV,2023-03-22 18:10,-115.0343,36.2362,570.00,59.00,26.60,28.77,230.00,15.00,0.00,29.87,1010.70,10.00,20.00,CLR,M,M,M,M,M,M,M,M,M,M,M,M,M,M,59.00,KLSV 221810Z AUTO 23015G20KT 10SM CLR 15/M03 A2987 RMK AO2 WSHFT 1758 SLP107 $,M
BVU,2023-03-22 18:15,-114.8611,35.9475,671.00,55.40,24.80,30.40,220.00,13.00,0.00,29.94,M,10.00,M,FEW,FEW,M,M,7000.00,8000.00,M,M,M,M,M,M,M,M,M,55.40,KBVU 221815Z AUTO 22013KT 10SM FEW070 FEW080 13/M04 A2994 RMK AO2,M
CXP,2023-03-22 18:15,-119.7326,39.1923,1431.00,42.80,26.60,52.45,M,3.00,0.00,29.84,M,10.00,M,FEW,BKN,OVC,M,3700.00,4600.00,5500.00,M,M,M,M,M,M,M,M,41.03,KCXP 221815Z AUTO VRB03KT 10SM FEW037 BKN046 OVC055 06/M03 A2984 RMK AO2,M
RTS,2023-03-22 18:15,-119.8764,39.6682,1539.00,39.20,24.80,55.95,250.00,5.00,0.00,29.83,M,10.00,12.00,OVC,M,M,M,4200.00,M,M,M,M,M,M,M,M,M,M,34.95,KRTS 221815Z AUTO 25005G12KT 10SM OVC042 04/M04 A2983 RMK AO2,M
MEV,2023-03-22 18:15,-119.7500,38.9963,1441.42,41.00,30.20,65.16,M,4.00,0.00,29.82,M,10.00,M,BKN,M,M,M,5500.00,M,M,M,M,M,M,M,M,M,M,37.93,KMEV 221815Z AUTO VRB04KT 10SM BKN055 05/M01 A2982 RMK AO2,M
BAM,2023-03-22 18:15,-116.8743,40.5990,1382.36,39.20,33.80,80.79,250.00,11.00,0.00,29.76,M,10.00,M,SCT,OVC,M,M,1400.00,4900.00,M,M,M,M,M,M,M,M,M,31.57,KBAM 221815Z AUTO 25011KT 10SM SCT014 OVC049 04/01 A2976 RMK AO1,M
HTH,2023-03-22 18:15,-118.6315,38.5448,1282.89,42.80,30.20,60.79,350.00,4.00,0.00,29.85,M,10.00,M,CLR,M,M,M,M,M,M,M,M,M,M,M,M,M,M,40.03,KHTH 221815Z AUTO 35004KT 10SM CLR 06/M01 A2985 RMK A01,M
TMT,2023-03-22 18:15,-117.1971,39.4643,1749.34,32.70,30.20,90.39,200.00,4.00,0.00,29.81,M,10.00,M,SCT,BKN,BKN,M,2400.00,2900.00,3300.00,M,M,M,M,M,M,M,M,28.24,KTMT 221815Z AUTO 20004KT 10SM SCT024 BKN029 BKN033 00/M01 A2981 RMK AO2 T00041010,M
05U,2023-03-22 18:30,-116.0051,39.6042,1811.23,37.40,30.20,74.98,260.00,5.00,0.00,29.79,M,5.00,M,SCT,SCT,BKN,M,2700.00,3200.00,3900.00,M,HZ,M,M,M,M,M,M,32.81,K05U 221830Z AUTO 26005KT 5SM HZ SCT027 SCT032 BKN039 03/M01 A2979 RMK A01,M
BVU,2023-03-22 18:35,-114.8611,35.9475,671.00,57.20,24.80,28.48,210.00,14.00,0.00,29.94,M,10.00,20.00,FEW,FEW,M,M,7000.00,8000.00,M,M,M,M,M,M,M,M,M,57.20,KBVU 221835Z AUTO 21014G20KT 10SM FEW070 FEW080 14/M04 A2994 RMK AO2,M
CXP,2023-03-22 18:35,-119.7326,39.1923,1431.00,42.80,28.40,56.48,290.00,5.00,0.00,29.84,M,10.00,M,BKN,BKN,OVC,M,3400.00,4100.00,5000.00,M,M,M,M,M,M,M,M,39.22,KCXP 221835Z AUTO 29005KT 10SM BKN034 BKN041 OVC050 06/M02 A2984 RMK AO2,M
RTS,2023-03-22 18:35,-119.8764,39.6682,1539.00,39.20,24.80,55.95,330.00,6.00,0.00,29.84,M,10.00,11.00,SCT,OVC,M,M,3500.00,4400.00,M,M,M,M,M,M,M,M,M,34.20,KRTS 221835Z AUTO 33006G11KT 10SM SCT035 OVC044 04/M04 A2984 RMK AO2,M
MEV,2023-03-22 18:35,-119.7500,38.9963,1441.42,42.80,28.40,56.48,150.00,3.00,0.00,29.83,M,10.00,M,OVC,M,M,M,6000.00,M,M,M,M,M,M,M,M,M,M,41.03,KMEV 221835Z AUTO 15003KT 10SM OVC060 06/M02 A2983 RMK AO2,M
BAM,2023-03-22 18:35,-116.8743,40.5990,1382.36,41.00,33.80,75.33,250.00,16.00,0.00,29.77,M,10.00,21.00,SCT,BKN,OVC,M,1500.00,4200.00,4900.00,M,M,M,M,M,M,M,M,32.15,KBAM 221835Z AUTO 25016G21KT 10SM SCT015 BKN042 OVC049 05/01 A2977 RMK AO1,M
HTH,2023-03-22 18:35,-118.6315,38.5448,1282.89,42.80,30.20,60.79,330.00,6.00,0.00,29.85,M,10.00,M,CLR,M,M,M,M,M,M,M,M,M,M,M,M,M,M,38.54,KHTH 221835Z AUTO 33006KT 10SM CLR 06/M01 A2985 RMK A01,M
TMT,2023-03-22 18:35,-117.1971,39.4643,1749.34,34.70,29.50,81.09,200.00,7.00,0.00,29.82,M,10.00,M,SCT,SCT,SCT,M,2600.00,3000.00,6500.00,M,M,M,M,M,M,M,M,28.07,KTMT 221835Z AUTO 20007KT 10SM SCT026 SCT030 SCT065 02/M01 A2982 RMK AO2 T00151014,M
ELY,2023-03-22 18:36,-114.8453,39.2950,1909.00,30.90,28.00,88.84,140.00,12.00,0.02,29.74,M,2.00,M,BKN,BKN,OVC,M,2000.00,2700.00,3600.00,M,-SN BR,M,M,M,M,M,M,20.60,KELY 221836Z AUTO 14012KT 2SM -SN BR BKN020 BKN027 OVC036 M01/M02 A2974 RMK AO2 P0002 T10061022,M
ELY,2023-03-22 18:45,-114.8453,39.2950,1909.00,32.00,28.00,84.98,150.00,8.00,0.02,29.75,M,9.00,17.00,SCT,BKN,OVC,M,1800.00,3300.00,4300.00,M,-SN,M,M,M,M,M,M,24.11,KELY 221845Z AUTO 15008G17KT 9SM -SN SCT018 BKN033 OVC043 00/M02 A2975 RMK AO2 P0002 T00001022,M
INS,2023-03-22 18:48,-115.6733,36.5872,955.00,51.80,15.80,23.65,290.00,10.00,0.00,29.90,1011.30,10.00,18.00,CLR,M,M,M,M,M,M,M,M,M,M,M,M,M,M,51.80,KINS 221848Z AUTO 29010G18KT 10SM CLR 11/M09 A2990 RMK AO2 WSHFT 38 SLP113 $,M
WMC,2023-03-22 18:49,-117.8072,40.9019,1315.00,40.00,35.00,82.80,240.00,13.00,0.01,29.79,M,10.00,20.00,SCT,BKN,OVC,M,1900.00,3400.00,4900.00,M,M,M,M,M,M,M,M,31.69,KWMC 221849Z AUTO 24013G20KT 10SM SCT019 BKN034 OVC049 04/02 A2979 RMK AO2 RAE46 P0001 T00440017,M
05U,2023-03-22 18:50,-116.0051,39.6042,1811.23,37.40,30.20,74.98,260.00,5.00,0.00,29.80,M,8.00,M,SCT,BKN,BKN,M,2700.00,3200.00,3900.00,M,M,M,M,M,M,M,M,32.81,K05U 221850Z AUTO 26005KT 8SM SCT027 BKN032 BKN039 03/M01 A2980 RMK A01,M
P68,2023-03-22 18:53,-116.0056,39.6014,1993.00,34.00,30.00,85.11,260.00,4.00,0.00,29.78,1008.10,M,M,M,M,M,M,M,M,M,M,M,M,M,M,M,M,M,29.76,KP68 221853Z AUTO 26004KT 01/M01 A2978 RMK AO1 SLP081 T00111011,M
DRA,2023-03-22 18:53,-116.0278,36.6206,1009.00,48.00,30.00,49.49,210.00,18.00,0.00,29.92,1011.90,10.00,25.00,BKN,BKN,M,M,4800.00,5500.00,M,M,M,M,M,M,31.00,200.00,2023-03-22 17:59,40.81,KDRA 221853Z AUTO 21018G25KT 10SM BKN048 BKN055 09/M01 A2992 RMK AO2 PK WND 20031/1759 SLP119 T00891011,M
ELY,2023-03-22 18:53,-114.8453,39.2950,1909.00,33.00,28.90,84.36,140.00,9.00,0.02,29.75,1007.10,10.00,M,FEW,BKN,OVC,M,1800.00,3700.00,4600.00,M,M,M,M,M,M,M,M,24.88,KELY 221853Z AUTO 14009KT 10SM FEW018 BKN037 OVC046 01/M02 A2975 RMK AO2 SNE47 SLP071 P0002 T00061017,M
VGT,2023-03-22 18:53,-115.1933,36.2111,667.00,58.00,17.10,20.03,220.00,17.00,0.00,29.89,1013.50,10.00,23.00,CLR,M,M,M,M,M,M,M,M,M,M,M,26.00,230.00,2023-03-22 18:31,57.90,KVGT 221853Z 22017G23KT 10SM CLR 14/M08 A2989 RMK AO2 PK WND 23026/1831 SLP135 T01441083,M
LOL,2023-03-22 18:53,-118.5701,40.0684,1192.43,45.00,30.90,57.50,240.00,7.00,0.00,29.83,1010.50,10.00,M,FEW,M,M,M,3900.00,M,M,M,M,M,M,M,M,M,M,40.63,KLOL 221853Z AUTO 24007KT 10SM FEW039 07/M01 A2983 RMK AO2 SLP105 T00721006,M
BVU,2023-03-22 18:55,-114.8611,35.9475,671.00,57.20,23.00,26.42,230.00,14.00,0.00,29.95,M,10.00,22.00,CLR,M,M,M,M,M,M,M,M,M,M,M,M,M,M,57.20,KBVU 221855Z AUTO 23014G22KT 10SM CLR 14/M05 A2995 RMK AO2,M
CXP,2023-03-22 18:55,-119.7326,39.1923,1431.00,42.80,26.60,52.45,M,4.00,0.00,29.85,M,10.00,M,FEW,FEW,BKN,M,3400.00,4500.00,5500.00,M,M,M,M,M,M,M,M,40.03,KCXP 221855Z AUTO VRB04KT 10SM FEW034 FEW045 BKN055 06/M03 A2985 RMK AO2,M
INS,2023-03-22 18:55,-115.6733,36.5872,955.00,52.20,18.30,25.96,280.00,10.00,0.00,29.90,1011.30,10.00,18.00,CLR,M,M,M,M,M,M,M,M,M,M,M,M,M,M,52.20,KINS 221855Z AUTO 28010G18KT 10SM CLR 11/M08 A2990 RMK AO2 SLP113 T01121076 $,M
RNO,2023-03-22 18:55,-119.7711,39.4839,1341.00,47.00,28.00,47.54,0.00,0.00,0.00,29.84,1009.60,10.00,M,FEW,BKN,BKN,M,4000.00,10000.00,20000.00,M,M,M,M,M,M,M,M,46.90,KRNO 221855Z 00000KT 10SM FEW040 BKN100 BKN200 08/M02 A2984 RMK AO2 SLP096 T00831022,M
RTS,2023-03-22 18:55,-119.8764,39.6682,1539.00,39.20,24.80,55.95,310.00,6.00,0.00,29.85,M,10.00,12.00,SCT,OVC,M,M,3500.00,4400.00,M,M,M,M,M,M,M,M,M,34.20,KRTS 221855Z AUTO 31006G12KT 10SM SCT035 OVC044 04/M04 A2985 RMK AO2,M
MEV,2023-03-22 18:55,-119.7500,38.9963,1441.42,42.80,24.80,48.67,110.00,5.00,0.00,29.84,M,10.00,M,OVC,M,M,M,6000.00,M,M,M,M,M,M,M,M,M,M,39.22,KMEV 221855Z AUTO 11005KT 10SM OVC060 06/M04 A2984 RMK AO2,M
BAM,2023-03-22 18:55,-116.8743,40.5990,1382.36,41.00,33.80,75.33,240.00,15.00,0.00,29.78,M,10.00,20.00,SCT,BKN,OVC,M,3900.00,4700.00,5500.00,M,M,M,M,M,M,M,M,32.45,KBAM 221855Z AUTO 24015G20KT 10SM SCT039 BKN047 OVC055 05/01 A2978 RMK AO1,M
HTH,2023-03-22 18:55,-118.6315,38.5448,1282.89,42.80,28.40,56.48,10.00,7.00,0.00,29.86,M,10.00,M,CLR,M,M,M,M,M,M,M,M,M,M,M,M,M,M,37.94,KHTH 221855Z AUTO 01007KT 10SM CLR 06/M02 A2986 RMK A01,M
LSV,2023-03-22 18:55,-115.0343,36.2362,570.00,60.60,25.50,25.97,210.00,17.00,0.00,29.88,1011.10,10.00,M,CLR,M,M,M,M,M,M,M,M,M,M,M,M,M,M,60.60,KLSV 221855Z AUTO 21017KT 10SM CLR 16/M04 A2988 RMK AO2 SLP111 T01591036 $,M
TMT,2023-03-22 18:55,-117.1971,39.4643,1749.34,35.00,29.10,79.15,210.00,4.00,0.00,29.83,M,7.00,M,SCT,BKN,M,M,3300.00,4000.00,M,M,M,M,M,M,M,M,M,30.81,KTMT 221855Z AUTO 21004KT 7SM SCT033 BKN040 02/M02 A2983 RMK AO2 T00161016,M
EKO,2023-03-22 18:56,-115.7860,40.8242,1367.00,35.00,30.90,84.49,220.00,13.00,0.00,29.74,1008.10,10.00,M,FEW,OVC,M,M,1800.00,2800.00,M,M,M,M,M,M,M,M,M,25.54,KEKO 221856Z AUTO 22013KT 10SM FEW018 OVC028 02/M01 A2974 RMK AO2 SLP081 T00171006,M
HND,2023-03-22 18:56,-115.1344,35.9729,742.79,55.00,28.00,35.21,220.00,18.00,0.00,29.94,1015.50,10.00,24.00,FEW,M,M,M,5500.00,M,M,M,M,M,M,M,M,M,M,55.00,KHND 221856Z 22018G24KT 10SM FEW055 13/M02 A2994 RMK AO2 SLP155 T01281022,M
TPH,2023-03-22 18:56,-117.0904,38.0505,1654.00,35.00,30.00,81.46,210.00,11.00,0.00,29.88,1012.10,10.00,M,FEW,M,M,M,3000.00,M,M,M,M,M,M,M,M,M,M,26.38,KTPH 221856Z AUTO 21011KT 10SM FEW030 02/M01 A2988 RMK AO2 SLP121 T00171011,M
LAS,2023-03-22 18:56,-115.1634,36.0719,663.00,57.00,26.10,30.28,220.00,8.00,0.00,29.92,1012.70,10.00,M,FEW,M,M,M,6000.00,M,M,M,M,M,M,M,M,M,M,57.00,KLAS 221856Z 22008KT 10SM FEW060 14/M03 A2992 RMK AO2 SLP127 T01391033,M
WMC,2023-03-22 18:56,-117.8072,40.9019,1315.00,40.00,35.00,82.80,250.00,13.00,0.01,29.80,1009.20,10.00,19.00,BKN,BKN,OVC,M,1700.00,3000.00,4900.00,M,-RA,M,M,M,M,M,M,31.69,KWMC 221856Z AUTO 25013G19KT 10SM -RA BKN017 BKN030 OVC049 04/02 A2980 RMK AO2 RAE46B50 SLP092 P0001 T00440017,M
NFL,2023-03-22 18:56,-118.7010,39.4166,1199.00,44.00,33.00,65.02,180.00,4.00,0.00,29.84,1008.30,10.00,M,FEW,SCT,BKN,M,3000.00,4000.00,10000.00,M,M,M,M,M,M,M,M,41.55,KNFL 221856Z 18004KT 10SM FEW030 SCT040 BKN100 07/01 A2984 RMK AO2 SLP083 T00670006,M
WMC,2023-03-22 19:05,-117.8072,40.9019,1315.00,42.00,35.00,76.04,260.00,13.00,T,29.80,M,10.00,20.00,SCT,BKN,OVC,M,1700.00,3000.00,4100.00,M,-RA,M,M,M,M,M,M,34.51,KWMC 221905Z AUTO 26013G20KT 10SM -RA SCT017 BKN030 OVC041 06/02 A2980 RMK AO2 P0000 T00560017,M
05U,2023-03-22 19:10,-116.0051,39.6042,1811.23,37.40,30.20,74.98,0.00,0.00,0.00,29.81,M,7.00,M,BKN,BKN,OVC,M,2600.00,3500.00,4900.00,M,M,M,M,M,M,M,M,37.40,K05U 221910Z AUTO 00000KT 7SM BKN026 BKN035 OVC049 03/M01 A2981 RMK A01,M
BVU,2023-03-22 19:15,-114.8611,35.9475,671.00,59.00,23.00,24.76,220.00,14.00,0.00,29.95,M,10.00,20.00,CLR,M,M,M,M,M,M,M,M,M,M,M,M,M,M,59.00,KBVU 221915Z AUTO 22014G20KT 10SM CLR 15/M05 A2995 RMK AO2,M
CXP,2023-03-22 19:15,-119.7326,39.1923,1431.00,42.80,24.80,48.67,0.00,0.00,0.00,29.85,M,10.00,M,FEW,SCT,OVC,M,3800.00,4600.00,5500.00,M,M,M,M,M,M,M,M,42.80,KCXP 221915Z AUTO 00000KT 10SM FEW038 SCT046 OVC055 06/M04 A2985 RMK AO2,M
RTS,2023-03-22 19:15,-119.8764,39.6682,1539.00,42.80,26.60,52.45,270.00,6.00,0.00,29.85,M,10.00,M,BKN,BKN,BKN,M,3600.00,4500.00,5000.00,M,M,M,M,M,M,M,M,38.54,KRTS 221915Z AUTO 27006KT 10SM BKN036 BKN045 BKN050 06/M03 A2985 RMK AO2,M
MEV,2023-03-22 19:15,-119.7500,38.9963,1441.42,44.60,24.80,45.44,M,4.00,0.00,29.84,M,10.00,M,SCT,OVC,M,M,6000.00,7000.00,M,M,M,M,M,M,M,M,M,42.13,KMEV 221915Z AUTO VRB04KT 10SM SCT060 OVC070 07/M04 A2984 RMK AO2,M
BAM,2023-03-22 19:15,-116.8743,40.5990,1382.36,42.80,33.80,70.28,250.00,15.00,0.00,29.79,M,10.00,20.00,BKN,OVC,M,M,5000.00,5500.00,M,M,M,M,M,M,M,M,M,34.78,KBAM 221915Z AUTO 25015G20KT 10SM BKN050 OVC055 06/01 A2979 RMK AO1,M
HTH,2023-03-22 19:15,-118.6315,38.5448,1282.89,44.60,28.40,52.72,310.00,5.00,0.00,29.86,M,10.00,M,CLR,M,M,M,M,M,M,M,M,M,M,M,M,M,M,41.36,KHTH 221915Z AUTO 31005KT 10SM CLR 07/M02 A2986 RMK A01,M
TMT,2023-03-22 19:15,-117.1971,39.4643,1749.34,35.20,27.10,72.05,0.00,0.00,0.00,29.84,M,10.00,M,SCT,BKN,OVC,M,3000.00,3900.00,4600.00,M,M,M,M,M,M,M,M,35.20,KTMT 221915Z AUTO 00000KT 10SM SCT030 BKN039 OVC046 02/M03 A2984 RMK AO2 T00181027,M
INS,2023-03-22 19:29,-115.6733,36.5872,955.00,53.60,19.40,25.85,250.00,10.00,0.00,29.90,1011.30,10.00,M,CLR,M,M,M,M,M,M,M,M,M,M,M,M,M,M,53.60,KINS 221929Z AUTO 25010KT 10SM CLR 12/M07 A2990 RMK AO2 WSHFT 26 SLP113 $,M
05U,2023-03-22 19:30,-116.0051,39.6042,1811.23,39.20,28.40,64.93,260.00,5.00,0.00,29.81,M,10.00,M,FEW,BKN,OVC,M,2500.00,3200.00,6000.00,M,M,M,M,M,M,M,M,34.95,K05U 221930Z AUTO 26005KT 10SM FEW025 BKN032 OVC060 04/M02 A2981 RMK A01,M
WMC,2023-03-22 19:31,-117.8072,40.9019,1315.00,42.00,34.00,72.78,260.00,10.00,T,29.80,M,10.00,20.00,SCT,BKN,OVC,M,2100.00,2900.00,3900.00,M,M,M,M,M,M,M,M,35.63,KWMC 221931Z AUTO 26010G20KT 10SM SCT021 BKN029 OVC039 06/01 A2980 RMK AO2 RAE06 P0000 T00560011,M
BVU,2023-03-22 19:35,-114.8611,35.9475,671.00,59.00,21.20,22.95,240.00,16.00,0.00,29.95,M,10.00,M,FEW,M,M,M,7000.00,M,M,M,M,M,M,M,M,M,M,59.00,KBVU 221935Z AUTO 24016KT 10SM FEW070 15/M06 A2995 RMK AO2,M
CXP,2023-03-22 19:35,-119.7326,39.1923,1431.00,44.60,24.80,45.44,0.00,0.00,0.00,29.86,M,10.00,M,SCT,BKN,OVC,M,4100.00,4700.00,6000.00,M,M,M,M,M,M,M,M,44.60,KCXP 221935Z AUTO 00000KT 10SM SCT041 BKN047 OVC060 07/M04 A2986 RMK AO2,M
RTS,2023-03-22 19:35,-119.8764,39.6682,1539.00,42.80,24.80,48.67,290.00,8.00,0.00,29.85,M,10.00,M,FEW,SCT,SCT,M,3800.00,4400.00,5000.00,M,M,M,M,M,M,M,M,37.42,KRTS 221935Z AUTO 29008KT 10SM FEW038 SCT044 SCT050 06/M04 A2985 RMK AO2,M
MEV,2023-03-22 19:35,-119.7500,38.9963,1441.42,44.60,24.80,45.44,0.00,0.00,0.00,29.84,M,10.00,M,FEW,OVC,M,M,4900.00,6500.00,M,M,M,M,M,M,M,M,M,44.60,KMEV 221935Z AUTO 00000KT 10SM FEW049 OVC065 07/M04 A2984 RMK AO2,M
BAM,2023-03-22 19:35,-116.8743,40.5990,1382.36,42.80,33.80,70.28,240.00,15.00,0.00,29.80,M,10.00,20.00,BKN,OVC,M,M,4500.00,5000.00,M,M,M,M,M,M,M,M,M,34.78,KBAM 221935Z AUTO 24015G20KT 10SM BKN045 OVC050 06/01 A2980 RMK AO1,M
HTH,2023-03-22 19:35,-118.6315,38.5448,1282.89,44.60,26.60,48.96,0.00,0.00,0.00,29.86,M,10.00,M,CLR,M,M,M,M,M,M,M,M,M,M,M,M,M,M,44.60,KHTH 221935Z AUTO 00000KT 10SM CLR 07/M03 A2986 RMK A01,M
TMT,2023-03-22 19:35,-117.1971,39.4643,1749.34,36.00,27.00,69.51,300.00,3.00,0.00,29.84,M,10.00,M,SCT,OVC,M,M,3400.00,4300.00,M,M,M,M,M,M,M,M,M,33.26,KTMT 221935Z AUTO 30003KT 10SM SCT034 OVC043 02/M03 A2984 RMK AO2 T00221028,M
WMC,2023-03-22 19:40,-117.8072,40.9019,1315.00,43.00,35.00,73.45,270.00,13.00,T,29.81,M,10.00,M,SCT,BKN,OVC,M,2300.00,3300.00,4400.00,M,M,M,M,M,M,M,M,35.66,KWMC 221940Z AUTO 27013KT 10SM SCT023 BKN033 OVC044 06/02 A2981 RMK AO2 RAE06 P0000 T00610017,M
HTH,2023-03-22 19:50,-118.6315,38.5448,1282.89,44.60,26.60,48.96,360.00,7.00,0.00,29.86,M,10.00,M,CLR,M,M,M,M,M,M,M,M,M,M,M,M,M,M,40.14,KHTH 221950Z AUTO 36007KT 10SM CLR 07/M03 A2986 RMK A01,M
05U,2023-03-22 19:50,-116.0051,39.6042,1811.23,35.60,28.40,74.80,300.00,7.00,0.00,29.83,M,2.00,M,FEW,SCT,BKN,M,300.00,2700.00,3200.00,M,HZ,M,M,M,M,M,M,29.17,K05U 221950Z AUTO 30007KT 2SM HZ FEW003 SCT027 BKN032 02/M02 A2983 RMK A01,M
P68,2023-03-22 19:53,-116.0056,39.6014,1993.00,34.00,28.90,81.37,300.00,8.00,0.00,29.81,1009.50,M,M,M,M,M,M,M,M,M,M,M,M,M,M,M,M,M,26.58,KP68 221953Z AUTO 30008KT 01/M02 A2981 RMK AO1 SLP095 T00111017,M
DRA,2023-03-22 19:53,-116.0278,36.6206,1009.00,50.00,30.00,45.93,210.00,12.00,0.00,29.93,1012.10,10.00,27.00,OVC,M,M,M,5500.00,M,M,M,M,M,M,M,28.00,200.00,2023-03-22 19:25,50.00,KDRA 221953Z AUTO 21012G27KT 10SM OVC055 10/M01 A2993 RMK AO2 PK WND 20028/1925 SLP121 T01001011,M
ELY,2023-03-22 19:53,-114.8453,39.2950,1909.00,36.00,28.90,75.15,270.00,11.00,0.00,29.78,1007.60,10.00,16.00,SCT,BKN,BKN,M,3700.00,5000.00,8500.00,M,M,M,M,M,M,M,M,27.52,KELY 221953Z AUTO 27011G16KT 10SM SCT037 BKN050 BKN085 02/M02 A2978 RMK AO2 SLP076 T00221017,M
VGT,2023-03-22 19:53,-115.1933,36.2111,667.00,60.00,18.00,19.25,230.00,13.00,0.00,29.90,1014.00,10.00,22.00,CLR,M,M,M,M,M,M,M,M,M,M,M,27.00,220.00,2023-03-22 19:09,60.10,KVGT 221953Z 23013G22KT 10SM CLR 16/M08 A2990 RMK AO2 PK WND 22027/1909 SLP140 T01561078,M
LOL,2023-03-22 19:53,-118.5701,40.0684,1192.43,46.00,30.00,53.37,290.00,9.00,0.00,29.83,1010.70,10.00,M,BKN,BKN,BKN,M,4600.00,6000.00,11000.00,M,M,M,M,M,M,M,M,40.92,KLOL 221953Z AUTO 29009KT 10SM BKN046 BKN060 BKN110 08/M01 A2983 RMK AO2 SLP107 T00781011,M
BVU,2023-03-22 19:55,-114.8611,35.9475,671.00,59.00,21.20,22.95,220.00,15.00,0.00,29.95,M,10.00,21.00,CLR,M,M,M,M,M,M,M,M,M,M,M,M,M,M,59.00,KBVU 221955Z AUTO 22015G21KT 10SM CLR 15/M06 A2995 RMK AO2,M
CXP,2023-03-22 19:55,-119.7326,39.1923,1431.00,44.60,23.00,42.14,0.00,0.00,0.00,29.86,M,10.00,M,FEW,FEW,OVC,M,4200.00,5000.00,6000.00,M,M,M,M,M,M,M,M,44.60,KCXP 221955Z AUTO 00000KT 10SM FEW042 FEW050 OVC060 07/M05 A2986 RMK AO2,M
RNO,2023-03-22 19:55,-119.7711,39.4839,1341.00,49.00,25.00,38.95,M,5.00,0.00,29.85,1009.80,10.00,M,FEW,BKN,BKN,M,4500.00,9500.00,20000.00,M,M,M,M,M,M,M,M,46.47,KRNO 221955Z VRB05KT 10SM FEW045 BKN095 BKN200 09/M04 A2985 RMK AO2 SLP098 T00941039,M
RTS,2023-03-22 19:55,-119.8764,39.6682,1539.00,42.80,24.80,48.67,290.00,7.00,0.00,29.85,M,10.00,14.00,FEW,FEW,M,M,4900.00,5500.00,M,M,M,M,M,M,M,M,M,37.94,KRTS 221955Z AUTO 29007G14KT 240V320 10SM FEW049 FEW055 06/M04 A2985 RMK AO2,M
MEV,2023-03-22 19:55,-119.7500,38.9963,1441.42,42.80,23.00,45.14,330.00,5.00,0.00,29.84,M,10.00,M,BKN,BKN,OVC,M,5000.00,6000.00,7000.00,M,M,M,M,M,M,M,M,39.22,KMEV 221955Z AUTO 33005KT 10SM BKN050 BKN060 OVC070 06/M05 A2984 RMK AO2,M
BAM,2023-03-22 19:55,-116.8743,40.5990,1382.36,44.60,33.80,65.61,230.00,14.00,0.00,29.80,M,10.00,19.00,SCT,OVC,M,M,4500.00,6000.00,M,M,M,M,M,M,M,M,M,37.40,KBAM 221955Z AUTO 23014G19KT 10SM SCT045 OVC060 07/01 A2980 RMK AO1,M
INS,2023-03-22 19:55,-115.6733,36.5872,955.00,53.60,15.60,21.94,280.00,9.00,0.00,29.90,1011.30,10.00,16.00,CLR,M,M,M,M,M,M,M,M,M,M,M,M,M,M,53.60,KINS 221955Z AUTO 28009G16KT 10SM CLR 12/M09 A2990 RMK AO2 SLP113 T01201091 $,M
TMT,2023-03-22 19:55,-117.1971,39.4643,1749.34,36.30,26.10,66.18,280.00,4.00,0.00,29.84,M,10.00,M,SCT,BKN,OVC,M,3400.00,4100.00,4900.00,M,M,M,M,M,M,M,M,32.44,KTMT 221955Z AUTO 28004KT 10SM SCT034 BKN041 OVC049 02/M03 A2984 RMK AO2 T00241033,M
LSV,2023-03-22 19:55,-115.0343,36.2362,570.00,62.20,21.70,20.92,200.00,21.00,0.00,29.89,1011.50,10.00,25.00,CLR,M,M,M,M,M,M,M,M,M,M,M,M,M,M,62.20,KLSV 221955Z AUTO 20021G25KT 10SM CLR 17/M06 A2989 RMK AO2 SLP115 T01681057 $,M
EKO,2023-03-22 19:56,-115.7860,40.8242,1367.00,36.00,32.00,85.23,230.00,8.00,T,29.77,1009.10,10.00,M,FEW,OVC,M,M,1500.00,2600.00,M,M,M,M,M,M,M,M,M,29.04,KEKO 221956Z AUTO 23008KT 10SM FEW015 OVC026 02/00 A2977 RMK AO2 SNB1859E27 SLP091 P0000 T00220000,M
NFL,2023-03-22 19:56,-118.7010,39.4166,1199.00,45.00,32.00,60.11,M,5.00,0.00,29.85,1008.50,10.00,M,FEW,BKN,BKN,BKN,3000.00,5000.00,12000.00,20000.00,M,M,M,M,M,M,M,41.83,KNFL 221956Z VRB05KT 10SM FEW030 BKN050 BKN120 BKN200 07/00 A2985 RMK AO2 SLP085 T00720000,M
HND,2023-03-22 19:56,-115.1344,35.9729,742.79,56.00,26.10,31.51,210.00,17.00,0.00,29.95,1015.70,10.00,25.00,CLR,M,M,M,M,M,M,M,M,M,M,M,M,M,M,55.90,KHND 221956Z 21017G25KT 10SM CLR 13/M03 A2995 RMK AO2 SLP157 T01331033,M
TPH,2023-03-22 19:56,-117.0904,38.0505,1654.00,38.00,30.90,75.64,190.00,10.00,0.00,29.89,1012.30,10.00,M,CLR,M,M,M,M,M,M,M,M,M,M,M,M,M,M,30.37,KTPH 221956Z AUTO 19010KT 10SM CLR 03/M01 A2989 RMK AO2 SLP123 T00331006,M
LAS,2023-03-22 19:56,-115.1634,36.0719,663.00,57.00,24.10,27.86,220.00,10.00,0.00,29.93,1013.00,10.00,21.00,FEW,M,M,M,6000.00,M,M,M,M,M,M,M,M,M,M,57.00,KLAS 221956Z 22010G21KT 10SM FEW060 14/M04 A2993 RMK AO2 SLP130 T01391044,M
WMC,2023-03-22 19:56,-117.8072,40.9019,1315.00,42.00,33.00,70.20,260.00,10.00,T,29.81,1009.60,10.00,M,FEW,BKN,OVC,M,2200.00,3200.00,4200.00,M,M,M,M,M,M,M,M,35.63,KWMC 221956Z AUTO 26010KT 10SM FEW022 BKN032 OVC042 06/01 A2981 RMK AO2 RAE06 SLP096 P0000 T00560006,M
WMC,2023-03-22 20:06,-117.8072,40.9019,1315.00,42.00,33.00,70.20,260.00,9.00,0.00,29.81,M,10.00,M,BKN,OVC,M,M,2700.00,4200.00,M,M,M,M,M,M,M,M,M,36.07,KWMC 222006Z AUTO 26009KT 10SM BKN027 OVC042 06/01 A2981 RMK AO2 T00560006,M
05U,2023-03-22 20:10,-116.0051,39.6042,1811.23,37.40,28.40,69.67,330.00,5.00,0.00,29.83,M,5.00,11.00,FEW,FEW,SCT,M,300.00,2700.00,3200.00,M,HZ,M,M,M,M,M,M,32.81,K05U 222010Z AUTO 33005G11KT 5SM HZ FEW003 FEW027 SCT032 03/M02 A2983 RMK A01,M
BVU,2023-03-22 20:15,-114.8611,35.9475,671.00,59.00,17.60,19.68,240.00,20.00,0.00,29.95,M,10.00,26.00,CLR,M,M,M,M,M,M,M,M,M,M,M,M,M,M,59.00,KBVU 222015Z AUTO 24020G26KT 10SM CLR 15/M08 A2995 RMK AO2,M
CXP,2023-03-22 20:15,-119.7326,39.1923,1431.00,42.80,24.80,48.67,0.00,0.00,0.00,29.86,M,6.00,M,FEW,BKN,M,M,4600.00,5500.00,M,M,-RA HZ,M,M,M,M,M,M,42.80,KCXP 222015Z AUTO 00000KT 6SM -RA HZ FEW046 BKN055 06/M04 A2986 RMK AO2,M
RTS,2023-03-22 20:15,-119.8764,39.6682,1539.00,44.60,24.80,45.44,M,6.00,0.00,29.85,M,10.00,12.00,BKN,BKN,BKN,M,4800.00,5500.00,6500.00,M,M,M,M,M,M,M,M,40.71,KRTS 222015Z AUTO VRB06G12KT 10SM BKN048 BKN055 BKN065 07/M04 A2985 RMK AO2,M
MEV,2023-03-22 20:15,-119.7500,38.9963,1441.42,44.60,24.80,45.44,300.00,5.00,0.00,29.84,M,10.00,M,SCT,BKN,OVC,M,4900.00,5500.00,7000.00,M,M,M,M,M,M,M,M,41.36,KMEV 222015Z AUTO 30005KT 10SM SCT049 BKN055 OVC070 07/M04 A2984 RMK AO2,M
BAM,2023-03-22 20:15,-116.8743,40.5990,1382.36,44.60,33.80,65.61,250.00,13.00,0.00,29.80,M,10.00,19.00,BKN,OVC,M,M,4900.00,6000.00,M,M,M,M,M,M,M,M,M,37.71,KBAM 222015Z AUTO 25013G19KT 10SM BKN049 OVC060 07/01 A2980 RMK AO1,M
HTH,2023-03-22 20:15,-118.6315,38.5448,1282.89,46.40,24.80,42.44,350.00,7.00,0.00,29.86,M,10.00,M,CLR,M,M,M,M,M,M,M,M,M,M,M,M,M,M,42.33,KHTH 222015Z AUTO 35007KT 10SM CLR 08/M04 A2986 RMK A01,M
TMT,2023-03-22 20:15,-117.1971,39.4643,1749.34,35.60,26.40,68.89,260.00,4.00,0.00,29.85,M,10.00,M,BKN,OVC,M,M,3800.00,4500.00,M,M,M,M,M,M,M,M,M,31.62,KTMT 222015Z AUTO 26004KT 10SM BKN038 OVC045 02/M03 A2985 RMK AO2 T00201031,M
EKO,2023-03-22 20:22,-115.7860,40.8242,1367.00,37.00,32.00,81.93,230.00,8.00,0.00,29.78,M,10.00,M,BKN,BKN,OVC,M,1400.00,2300.00,3100.00,M,M,M,M,M,M,M,M,30.27,KEKO 222022Z AUTO 23008KT 10SM BKN014 BKN023 OVC031 03/00 A2978 RMK AO2 T00280000,M
05U,2023-03-22 20:30,-116.0051,39.6042,1811.23,M,M,M,320.00,6.00,0.00,29.83,M,10.00,14.00,FEW,SCT,BKN,M,3700.00,4600.00,5000.00,M,M,M,M,M,M,M,M,M,K05U 222030Z AUTO 32006G14KT 10SM FEW037 SCT046 BKN050 A2983 RMK A01,M
BVU,2023-03-22 20:35,-114.8611,35.9475,671.00,59.00,21.20,22.95,240.00,16.00,0.00,29.95,M,10.00,24.00,CLR,M,M,M,M,M,M,M,M,M,M,M,M,M,M,59.00,KBVU 222035Z AUTO 24016G24KT 10SM CLR 15/M06 A2995 RMK AO2,M
CXP,2023-03-22 20:35,-119.7326,39.1923,1431.00,46.40,24.80,42.44,190.00,4.00,0.00,29.86,M,10.00,M,FEW,BKN,BKN,M,4900.00,6000.00,7000.00,M,M,M,M,M,M,M,M,44.24,KCXP 222035Z AUTO 19004KT 10SM FEW049 BKN060 BKN070 08/M04 A2986 RMK AO2,M
RTS,2023-03-22 20:35,-119.8764,39.6682,1539.00,44.60,23.00,42.14,270.00,11.00,0.00,29.85,M,10.00,M,BKN,OVC,M,M,4900.00,6000.00,M,M,M,M,M,M,M,M,M,38.39,KRTS 222035Z AUTO 27011KT 10SM BKN049 OVC060 07/M05 A2985 RMK AO2,M
MEV,2023-03-22 20:35,-119.7500,38.9963,1441.42,44.60,24.80,45.44,M,5.00,0.00,29.85,M,10.00,M,FEW,FEW,OVC,M,5000.00,6000.00,7500.00,M,M,M,M,M,M,M,M,41.36,KMEV 222035Z AUTO VRB05KT 10SM FEW050 FEW060 OVC075 07/M04 A2985 RMK AO2,M
BAM,2023-03-22 20:35,-116.8743,40.5990,1382.36,46.40,33.80,61.28,240.00,12.00,0.00,29.81,M,10.00,16.00,OVC,M,M,M,4900.00,M,M,M,M,M,M,M,M,M,M,40.33,KBAM 222035Z AUTO 24012G16KT 10SM OVC049 08/01 A2981 RMK AO1,M
HTH,2023-03-22 20:35,-118.6315,38.5448,1282.89,46.40,26.60,45.73,10.00,5.00,0.00,29.86,M,10.00,M,CLR,M,M,M,M,M,M,M,M,M,M,M,M,M,M,43.50,KHTH 222035Z AUTO 01005KT 10SM CLR 08/M03 A2986 RMK A01,M
TMT,2023-03-22 20:35,-117.1971,39.4643,1749.34,36.00,27.90,71.85,330.00,7.00,0.00,29.85,M,10.00,M,SCT,OVC,M,M,2800.00,3900.00,M,M,M,M,M,M,M,M,M,29.78,KTMT 222035Z AUTO 33007KT 10SM SCT028 OVC039 02/M02 A2985 RMK AO2 T00231023,M
EKO,2023-03-22 20:38,-115.7860,40.8242,1367.00,36.00,30.90,81.53,250.00,8.00,T,29.78,M,8.00,M,FEW,BKN,OVC,M,1400.00,2600.00,3000.00,M,-SN,M,M,M,M,M,M,29.04,KEKO 222038Z AUTO 25008KT 8SM -SN FEW014 BKN026 OVC030 02/M01 A2978 RMK AO2 SNB24 P0000 T00221006,M
05U,2023-03-22 20:50,-116.0051,39.6042,1811.23,39.20,26.60,60.29,M,6.00,0.00,29.84,M,10.00,M,BKN,BKN,OVC,M,3400.00,4200.00,5500.00,M,M,M,M,M,M,M,M,34.20,K05U 222050Z AUTO VRB06KT 10SM BKN034 BKN042 OVC055 04/M03 A2984 RMK A01,M
DRA,2023-03-22 20:53,-116.0278,36.6206,1009.00,51.00,28.90,42.16,220.00,16.00,0.00,29.93,1012.20,10.00,25.00,SCT,OVC,M,M,5000.00,6000.00,M,M,M,M,M,M,27.00,200.00,2023-03-22 20:12,51.10,KDRA 222053Z AUTO 22016G25KT 10SM SCT050 OVC060 11/M02 A2993 RMK AO2 PK WND 20027/2012 SLP122 T01061017 51011,M
ELY,2023-03-22 20:53,-114.8453,39.2950,1909.00,38.00,26.10,62.14,290.00,10.00,0.00,29.80,1007.90,10.00,M,SCT,M,M,M,5000.00,M,M,M,M,M,M,M,M,M,M,30.37,KELY 222053Z AUTO 29010KT 10SM SCT050 03/M03 A2980 RMK AO2 SLP079 60002 T00331033 51023,M
VGT,2023-03-22 20:53,-115.1933,36.2111,667.00,61.00,21.90,22.02,240.00,16.00,0.00,29.91,1014.10,10.00,31.00,CLR,M,M,M,M,M,M,M,M,M,M,M,33.00,230.00,2023-03-22 20:36,61.00,KVGT 222053Z 24016G31KT 10SM CLR 16/M06 A2991 RMK AO2 PK WND 23033/2036 SLP141 T01611056 51009,M
P68,2023-03-22 20:53,-116.0056,39.6014,1993.00,38.00,28.00,67.20,250.00,9.00,0.01,29.81,1009.40,M,M,M,M,M,M,M,M,M,M,M,M,M,M,M,M,M,30.85,KP68 222053Z AUTO 25009KT 210V280 03/M02 A2981 RMK AO1 SLP094 P0001 60001 T00331022 51018,M
LOL,2023-03-22 20:53,-118.5701,40.0684,1192.43,47.00,25.00,41.99,250.00,10.00,0.00,29.83,1010.70,10.00,M,BKN,M,M,M,6000.00,M,M,M,M,M,M,M,M,M,M,41.65,KLOL 222053Z AUTO 25010KT 10SM BKN060 08/M04 A2983 RMK AO2 SLP107 T00831039 51005,M
EKO,2023-03-22 20:54,-115.7860,40.8242,1367.00,37.40,32.00,80.65,250.00,9.00,T,29.79,M,8.00,M,FEW,SCT,OVC,M,2300.00,3000.00,4100.00,M,-SN,M,M,M,M,M,M,30.23,KEKO 222054Z AUTO 25009KT 8SM -SN FEW023 SCT030 OVC041 03/00 A2979 RMK AO2 SNB24 P0000,M
BVU,2023-03-22 20:55,-114.8611,35.9475,671.00,60.80,21.20,21.53,240.00,17.00,0.00,29.95,M,10.00,27.00,CLR,M,M,M,M,M,M,M,M,M,M,M,M,M,M,60.80,KBVU 222055Z AUTO 24017G27KT 10SM CLR 16/M06 A2995 RMK AO2,M
CXP,2023-03-22 20:55,-119.7326,39.1923,1431.00,46.40,21.20,36.48,210.00,4.00,0.00,29.86,M,10.00,M,OVC,M,M,M,6500.00,M,M,M,M,M,M,M,M,M,M,44.24,KCXP 222055Z AUTO 21004KT 10SM OVC065 08/M06 A2986 RMK AO2,M
RNO,2023-03-22 20:55,-119.7711,39.4839,1341.00,49.00,21.00,32.93,250.00,5.00,0.00,29.84,1009.50,10.00,M,BKN,M,M,M,6000.00,M,M,M,M,M,M,M,M,M,M,46.47,KRNO 222055Z 25005KT 10SM BKN060 09/M06 A2984 RMK AO2 SLP095 T00941061 50003,M
RTS,2023-03-22 20:55,-119.8764,39.6682,1539.00,44.60,26.60,48.96,300.00,12.00,0.00,29.85,M,10.00,M,BKN,BKN,M,M,5000.00,5500.00,M,M,M,M,M,M,M,M,M,38.04,KRTS 222055Z AUTO 30012KT 10SM BKN050 BKN055 07/M03 A2985 RMK AO2,M
MEV,2023-03-22 20:55,-119.7500,38.9963,1441.42,44.60,24.80,45.44,0.00,0.00,0.00,29.85,M,10.00,M,BKN,BKN,M,M,5000.00,7000.00,M,M,M,M,M,M,M,M,M,44.60,KMEV 222055Z AUTO 00000KT 10SM BKN050 BKN070 07/M04 A2985 RMK AO2,M
BAM,2023-03-22 20:55,-116.8743,40.5990,1382.36,44.60,33.80,65.61,240.00,12.00,0.00,29.81,M,10.00,18.00,OVC,M,M,M,4900.00,M,M,M,M,M,M,M,M,M,M,38.04,KBAM 222055Z AUTO 24012G18KT 10SM OVC049 07/01 A2981 RMK AO1,M
HTH,2023-03-22 20:55,-118.6315,38.5448,1282.89,48.20,24.80,39.66,0.00,0.00,0.00,29.86,M,10.00,M,CLR,M,M,M,M,M,M,M,M,M,M,M,M,M,M,48.20,KHTH 222055Z AUTO 00000KT 10SM CLR 09/M04 A2986 RMK A01,M
TMT,2023-03-22 20:55,-117.1971,39.4643,1749.34,35.80,28.20,73.61,230.00,4.00,0.00,29.86,M,10.00,M,SCT,OVC,M,M,2500.00,3500.00,M,M,M,M,M,M,M,M,M,31.86,KTMT 222055Z AUTO 23004KT 10SM SCT025 OVC035 02/M02 A2986 RMK AO2 T00211021,M
INS,2023-03-22 20:55,-115.6733,36.5872,955.00,55.00,14.50,19.94,260.00,16.00,0.00,29.90,1011.00,10.00,24.00,CLR,M,M,M,M,M,M,M,M,M,M,M,M,M,M,54.90,KINS 222055Z AUTO 26016G24KT 10SM CLR 13/M10 A2990 RMK AO2 SLP110 T01271097 51009 $,M
LSV,2023-03-22 20:55,-115.0343,36.2362,570.00,63.00,21.40,20.02,220.00,22.00,0.00,29.88,1011.20,10.00,27.00,CLR,M,M,M,M,M,M,M,M,M,M,M,30.00,210.00,2023-03-22 20:24,63.10,KLSV 222055Z AUTO 22022G27KT 10SM CLR 17/M06 A2988 RMK AO2 PK WND 21030/24 SLP112 T01731059 50006 $,M
EKO,2023-03-22 20:56,-115.7860,40.8242,1367.00,37.00,32.00,81.93,260.00,9.00,T,29.79,1009.60,8.00,M,FEW,BKN,OVC,M,1600.00,3500.00,4300.00,M,-SN,M,M,M,M,M,M,29.73,KEKO 222056Z AUTO 26009KT 8SM -SN FEW016 BKN035 OVC043 03/00 A2979 RMK AO2 SNB24 SLP096 P0000 60000 T00280000 51013,M
TPH,2023-03-22 20:56,-117.0904,38.0505,1654.00,41.00,28.90,61.79,200.00,14.00,0.00,29.89,1012.10,10.00,M,CLR,M,M,M,M,M,M,M,M,M,M,M,M,M,M,32.76,KTPH 222056Z AUTO 20014KT 10SM CLR 05/M02 A2989 RMK AO2 SLP121 T00501017 50010,M
LAS,2023-03-22 20:56,-115.1634,36.0719,663.00,60.00,23.00,23.81,250.00,18.00,0.00,29.93,1013.00,10.00,30.00,FEW,M,M,M,6000.00,M,M,M,M,M,M,M,30.00,250.00,2023-03-22 20:52,60.10,KLAS 222056Z 25018G30KT 10SM FEW060 16/M05 A2993 RMK AO2 PK WND 25030/2052 SLP130 T01561050 51010,M
WMC,2023-03-22 20:56,-117.8072,40.9019,1315.00,37.00,33.00,85.64,360.00,7.00,0.06,29.82,1010.30,5.00,M,FEW,BKN,OVC,M,1400.00,2900.00,3500.00,M,-SN BR,M,M,M,M,M,M,30.87,KWMC 222056Z AUTO 36007KT 5SM -SN BR FEW014 BKN029 OVC035 03/01 A2982 RMK AO2 RAB19E54SNB54 SLP103 P0006 60007 T00280006 51014,M
NFL,2023-03-22 20:56,-118.7010,39.4166,1199.00,47.00,28.90,49.32,M,5.00,0.00,29.85,1008.40,10.00,M,FEW,BKN,BKN,BKN,3000.00,5000.00,10000.00,20000.00,M,M,M,M,M,M,M,44.09,KNFL 222056Z VRB05KT 10SM FEW030 BKN050 BKN100 BKN200 08/M02 A2985 RMK AO2 SLP084 T00831017 50007,M
HND,2023-03-22 20:56,-115.1344,35.9729,742.79,58.00,26.10,29.32,250.00,17.00,0.00,29.96,1015.90,10.00,23.00,CLR,M,M,M,M,M,M,M,M,M,M,M,29.00,210.00,2023-03-22 20:14,57.90,KHND 222056Z 25017G23KT 10SM CLR 14/M03 A2996 RMK AO2 PK WND 21029/2014 SLP159 T01441033 51009,M
INS,2023-03-22 21:05,-115.6733,36.5872,955.00,55.40,17.60,22.41,230.00,13.00,0.00,29.91,1011.40,10.00,25.00,CLR,M,M,M,M,M,M,M,M,M,M,M,M,M,M,55.40,KINS 222105Z AUTO 23013G25KT 10SM CLR 13/M08 A2991 RMK AO2 WSHFT 2056 SLP114 $,M
WMC,2023-03-22 21:14,-117.8072,40.9019,1315.00,40.00,35.00,82.80,0.00,0.00,0.01,29.81,M,10.00,M,BKN,OVC,M,M,3400.00,4500.00,M,M,M,M,M,M,M,M,M,39.90,KWMC 222114Z AUTO 00000KT 10SM BKN034 OVC045 04/02 A2981 RMK AO2 RAB04E14SNE04 P0001 T00440017,M
BVU,2023-03-22 21:15,-114.8611,35.9475,671.00,60.80,21.20,21.53,230.00,19.00,0.00,29.95,M,10.00,30.00,CLR,M,M,M,M,M,M,M,M,M,M,M,M,M,M,60.80,KBVU 222115Z AUTO 23019G30KT 10SM CLR 16/M06 A2995 RMK AO2,M
CXP,2023-03-22 21:15,-119.7326,39.1923,1431.00,44.60,24.80,45.44,160.00,9.00,0.00,29.86,M,10.00,M,SCT,SCT,BKN,M,7000.00,7500.00,8500.00,M,M,M,M,M,M,M,M,39.18,KCXP 222115Z AUTO 16009KT 10SM SCT070 SCT075 BKN085 07/M04 A2986 RMK AO2,M
RTS,2023-03-22 21:15,-119.8764,39.6682,1539.00,44.60,26.60,48.96,250.00,13.00,0.00,29.86,M,10.00,19.00,BKN,BKN,BKN,M,4400.00,5000.00,6000.00,M,M,M,M,M,M,M,M,37.71,KRTS 222115Z AUTO 25013G19KT 10SM BKN044 BKN050 BKN060 07/M03 A2986 RMK AO2,M
05U,2023-03-22 21:15,-116.0051,39.6042,1811.23,M,M,M,250.00,12.00,0.00,29.85,M,9.00,17.00,BKN,BKN,OVC,M,3500.00,4200.00,5500.00,M,M,M,M,M,M,M,M,M,K05U 222115Z AUTO 25012G17KT 9SM BKN035 BKN042 OVC055 A2985 RMK A01,M
MEV,2023-03-22 21:15,-119.7500,38.9963,1441.42,44.60,26.60,48.96,310.00,8.00,0.00,29.85,M,10.00,M,OVC,M,M,M,5000.00,M,M,M,M,M,M,M,M,M,M,39.63,KMEV 222115Z AUTO 31008KT 280V020 10SM OVC050 07/M03 A2985 RMK AO2,M
BAM,2023-03-22 21:15,-116.8743,40.5990,1382.36,44.60,33.80,65.61,240.00,9.00,0.00,29.81,M,10.00,14.00,SCT,BKN,OVC,M,3600.00,4800.00,5000.00,M,M,M,M,M,M,M,M,39.18,KBAM 222115Z AUTO 24009G14KT 10SM SCT036 BKN048 OVC050 07/01 A2981 RMK AO1,M
HTH,2023-03-22 21:15,-118.6315,38.5448,1282.89,48.20,24.80,39.66,360.00,5.00,0.00,29.85,M,10.00,M,CLR,M,M,M,M,M,M,M,M,M,M,M,M,M,M,45.63,KHTH 222115Z AUTO 36005KT 10SM CLR 09/M04 A2985 RMK A01,M
TMT,2023-03-22 21:15,-117.1971,39.4643,1749.34,34.50,27.10,74.08,260.00,12.00,0.00,29.87,M,5.00,M,SCT,BKN,OVC,M,2300.00,3500.00,4200.00,M,-SN,M,M,M,M,M,M,25.18,KTMT 222115Z AUTO 26012KT 5SM -SN SCT023 BKN035 OVC042 01/M03 A2987 RMK AO2 T00141027,M
EKO,2023-03-22 21:16,-115.7860,40.8242,1367.00,36.00,32.00,85.23,270.00,11.00,T,29.79,M,2.50,M,SCT,BKN,OVC,M,2200.00,3800.00,4900.00,M,-SN BR,M,M,M,M,M,M,27.52,KEKO 222116Z AUTO 27011KT 2 1/2SM -SN BR SCT022 BKN038 OVC049 02/00 A2979 RMK AO2 P0000 T00220000,M
ELY,2023-03-22 21:20,-114.8453,39.2950,1909.00,34.00,27.00,75.26,280.00,17.00,T,29.82,M,1.75,25.00,FEW,SCT,BKN,M,1400.00,3300.00,5500.00,M,-SN,M,M,M,M,M,M,22.70,KELY 222120Z AUTO 28017G25KT 1 3/4SM -SN FEW014 SCT033 BKN055 01/M03 A2982 RMK AO2 SNB18 P0000 T00111028,M
EKO,2023-03-22 21:23,-115.7860,40.8242,1367.00,37.00,33.00,85.64,250.00,15.00,T,29.79,M,7.00,19.00,FEW,BKN,OVC,M,2800.00,3800.00,5500.00,M,-SN,M,M,M,M,M,M,27.26,KEKO 222123Z AUTO 25015G19KT 7SM -SN FEW028 BKN038 OVC055 03/01 A2979 RMK AO2 P0000 T00280006,M
ELY,2023-03-22 21:24,-114.8453,39.2950,1909.00,32.00,27.00,81.55,280.00,17.00,T,29.83,M,0.75,25.00,SCT,BKN,BKN,M,1200.00,3300.00,5500.00,M,-SN,M,M,M,M,M,M,20.08,KELY 222124Z AUTO 28017G25KT 3/4SM -SN SCT012 BKN033 BKN055 00/M03 A2983 RMK AO2 SNB18 P0000 T00001028,M
05U,2023-03-22 21:30,-116.0051,39.6042,1811.23,37.40,24.80,60.04,260.00,11.00,0.00,29.85,M,7.00,M,BKN,BKN,BKN,M,3600.00,4300.00,5500.00,M,M,M,M,M,M,M,M,29.29,K05U 222130Z AUTO 26011KT 7SM BKN036 BKN043 BKN055 03/M04 A2985 RMK A01,M
ELY,2023-03-22 21:33,-114.8453,39.2950,1909.00,30.90,28.00,88.84,270.00,7.00,T,29.83,M,0.50,24.00,BKN,BKN,BKN,M,1600.00,3100.00,6000.00,M,SN FZFG,M,M,M,M,M,M,23.44,KELY 222133Z AUTO 27007G24KT 1/2SM SN FZFG BKN016 BKN031 BKN060 M01/M02 A2983 RMK AO2 SNB18 P0000 T10061022,M
BVU,2023-03-22 21:35,-114.8611,35.9475,671.00,60.80,19.40,19.94,220.00,21.00,0.00,29.95,M,10.00,26.00,CLR,M,M,M,M,M,M,M,M,M,M,M,M,M,M,60.80,KBVU 222135Z AUTO 22021G26KT 10SM CLR 16/M07 A2995 RMK AO2,M
CXP,2023-03-22 21:35,-119.7326,39.1923,1431.00,48.20,23.00,36.78,160.00,11.00,0.00,29.86,M,10.00,M,FEW,SCT,M,M,7500.00,9000.00,M,M,M,M,M,M,M,M,M,42.94,KCXP 222135Z AUTO 16011KT 10SM FEW075 SCT090 09/M05 A2986 RMK AO2,M
RTS,2023-03-22 21:35,-119.8764,39.6682,1539.00,41.00,26.60,56.22,240.00,13.00,0.00,29.86,M,6.00,18.00,FEW,SCT,BKN,M,2200.00,4300.00,7000.00,M,HZ,M,M,M,M,M,M,33.10,KRTS 222135Z AUTO 24013G18KT 6SM HZ FEW022 SCT043 BKN070 05/M03 A2986 RMK AO2,M
MEV,2023-03-22 21:35,-119.7500,38.9963,1441.42,46.40,28.40,49.24,30.00,8.00,0.00,29.85,M,10.00,M,BKN,OVC,M,M,5000.00,6000.00,M,M,M,M,M,M,M,M,M,41.85,KMEV 222135Z AUTO 03008KT 10SM BKN050 OVC060 08/M02 A2985 RMK AO2,M
BAM,2023-03-22 21:35,-116.8743,40.5990,1382.36,44.60,33.80,65.61,260.00,12.00,0.00,29.82,M,10.00,16.00,BKN,BKN,OVC,M,3000.00,4100.00,6000.00,M,M,M,M,M,M,M,M,38.04,KBAM 222135Z AUTO 26012G16KT 10SM BKN030 BKN041 OVC060 07/01 A2982 RMK AO1,M
HTH,2023-03-22 21:35,-118.6315,38.5448,1282.89,48.20,24.80,39.66,M,5.00,0.00,29.85,M,10.00,M,CLR,M,M,M,M,M,M,M,M,M,M,M,M,M,M,45.63,KHTH 222135Z AUTO VRB05KT 10SM CLR 09/M04 A2985 RMK A01,M
TMT,2023-03-22 21:35,-117.1971,39.4643,1749.34,32.70,27.70,81.61,0.00,0.00,0.00,29.87,M,2.50,M,SCT,BKN,OVC,M,1300.00,2400.00,3700.00,M,-SN,M,M,M,M,M,M,32.70,KTMT 222135Z AUTO 00000KT 2 1/2SM -SN SCT013 BKN024 OVC037 00/M02 A2987 RMK AO2 VIS 1 1/4V5 T00041024,M
WMC,2023-03-22 21:38,-117.8072,40.9019,1315.00,37.00,33.00,85.64,340.00,10.00,0.03,29.82,M,3.00,M,BKN,BKN,OVC,M,2700.00,3600.00,4500.00,M,+RA BR,M,M,M,M,M,M,29.24,KWMC 222138Z AUTO 34010KT 3SM +RA BR BKN027 BKN036 OVC045 03/01 A2982 RMK AO2 RAB04E14B30SNE04 P0003 T00280006,M
ELY,2023-03-22 21:41,-114.8453,39.2950,1909.00,30.90,28.00,88.84,250.00,7.00,T,29.83,M,1.50,M,BKN,BKN,OVC,M,2400.00,3100.00,6500.00,M,-SN BR,M,M,M,M,M,M,23.44,KELY 222141Z AUTO 25007KT 1 1/2SM -SN BR BKN024 BKN031 OVC065 M01/M02 A2983 RMK AO2 VIS 1/2V5 SNB18 P0000 T10061022,M
ELY,2023-03-22 21:48,-114.8453,39.2950,1909.00,32.00,28.40,86.39,230.00,6.00,T,29.83,M,3.00,M,BKN,BKN,M,M,2400.00,6500.00,M,M,-SN BR,M,M,M,M,M,M,25.53,KELY 222148Z AUTO 23006KT 3SM -SN BR BKN024 BKN065 00/M02 A2983 RMK AO2 SNB18 P0000,M
P68,2023-03-22 21:53,-116.0056,39.6014,1993.00,37.00,26.10,64.38,270.00,12.00,0.00,29.82,1009.60,M,M,M,M,M,M,M,M,M,M,M,M,M,M,M,M,M,28.37,KP68 222153Z AUTO 27012KT 03/M03 A2982 RMK AO1 SLP096 T00281033,M
DRA,2023-03-22 21:53,-116.0278,36.6206,1009.00,52.00,30.00,42.65,210.00,15.00,0.00,29.92,1011.90,10.00,25.00,SCT,M,M,M,6000.00,M,M,M,M,M,M,M,28.00,220.00,2023-03-22 21:10,52.00,KDRA 222153Z AUTO 21015G25KT 10SM SCT060 11/M01 A2992 RMK AO2 PK WND 22028/2110 SLP119 T01111011,M
ELY,2023-03-22 21:53,-114.8453,39.2950,1909.00,34.00,28.00,78.43,240.00,7.00,T,29.83,1009.50,9.00,M,SCT,SCT,M,M,2400.00,6000.00,M,M,M,M,M,M,M,M,M,27.22,KELY 222153Z AUTO 24007KT 9SM SCT024 SCT060 01/M02 A2983 RMK AO2 SNB18E51 SLP095 P0000 T00111022,M
VGT,2023-03-22 21:53,-115.1933,36.2111,667.00,61.00,24.10,24.15,230.00,21.00,0.00,29.90,1014.00,10.00,30.00,CLR,M,M,M,M,M,M,M,M,M,M,M,31.00,230.00,2023-03-22 20:54,61.00,KVGT 222153Z 23021G30KT 10SM CLR 16/M04 A2990 RMK AO2 PK WND 23031/2054 SLP140 T01611044,M
LOL,2023-03-22 21:53,-118.5701,40.0684,1192.43,49.00,26.10,40.77,290.00,12.00,0.00,29.83,1010.70,10.00,M,BKN,OVC,M,M,5500.00,8000.00,M,M,M,M,M,M,M,M,M,43.51,KLOL 222153Z AUTO 29012KT 10SM BKN055 OVC080 09/M03 A2983 RMK AO2 SLP107 T00941033,M
BVU,2023-03-22 21:55,-114.8611,35.9475,671.00,60.80,19.40,19.94,220.00,16.00,0.00,29.95,M,10.00,24.00,CLR,M,M,M,M,M,M,M,M,M,M,M,M,M,M,60.80,KBVU 222155Z AUTO 22016G24KT 10SM CLR 16/M07 A2995 RMK AO2,M
CXP,2023-03-22 21:55,-119.7326,39.1923,1431.00,46.40,24.80,42.44,160.00,8.00,0.00,29.86,M,10.00,M,CLR,M,M,M,M,M,M,M,M,M,M,M,M,M,M,41.85,KCXP 222155Z AUTO 16008KT 10SM CLR 08/M04 A2986 RMK AO2,M
RNO,2023-03-22 21:55,-119.7711,39.4839,1341.00,49.00,24.10,37.52,170.00,6.00,0.00,29.84,1009.70,10.00,M,BKN,M,M,M,6000.00,M,M,M,M,M,M,M,M,M,M,45.88,KRNO 222155Z 17006KT 10SM BKN060 09/M04 A2984 RMK AO2 SLP097 SH VC SE AND DSNT S AND W T00941044,M
RTS,2023-03-22 21:55,-119.8764,39.6682,1539.00,39.20,24.80,55.95,90.00,9.00,0.00,29.86,M,4.00,M,FEW,SCT,BKN,M,1600.00,2800.00,3500.00,M,HZ,M,M,M,M,M,M,32.47,KRTS 222155Z AUTO 09009KT 050V110 4SM HZ FEW016 SCT028 BKN035 04/M04 A2986 RMK AO2,M
05U,2023-03-22 21:55,-116.0051,39.6042,1811.23,39.20,24.80,55.95,270.00,11.00,0.03,29.85,M,10.00,M,SCT,SCT,BKN,M,3800.00,4700.00,5500.00,M,M,M,M,M,M,M,M,31.57,K05U 222155Z AUTO 27011KT 10SM SCT038 SCT047 BKN055 04/M04 A2985 RMK A01 P0003,M
MEV,2023-03-22 21:55,-119.7500,38.9963,1441.42,44.60,28.40,52.72,40.00,11.00,0.00,29.85,M,10.00,M,SCT,BKN,BKN,M,5000.00,6000.00,6500.00,M,M,M,M,M,M,M,M,38.39,KMEV 222155Z AUTO 04011KT 10SM SCT050 BKN060 BKN065 07/M02 A2985 RMK AO2,M
BAM,2023-03-22 21:55,-116.8743,40.5990,1382.36,46.40,33.80,61.28,250.00,12.00,0.00,29.82,M,10.00,M,SCT,BKN,OVC,M,3000.00,4900.00,6000.00,M,M,M,M,M,M,M,M,40.33,KBAM 222155Z AUTO 25012KT 10SM SCT030 BKN049 OVC060 08/01 A2982 RMK AO1,M
HTH,2023-03-22 21:55,-118.6315,38.5448,1282.89,48.20,23.00,36.78,320.00,4.00,0.00,29.85,M,10.00,M,CLR,M,M,M,M,M,M,M,M,M,M,M,M,M,M,46.34,KHTH 222155Z AUTO 32004KT 10SM CLR 09/M05 A2985 RMK A01,M
TMT,2023-03-22 21:55,-117.1971,39.4643,1749.34,32.20,28.80,87.11,150.00,3.00,0.00,29.87,M,1.00,M,OVC,M,M,M,1300.00,M,M,M,-SN,M,M,M,M,M,M,28.92,KTMT 222155Z AUTO 15003KT 1SM -SN OVC013 00/M02 A2987 RMK AO2 T00011018,M
LSV,2023-03-22 21:55,-115.0343,36.2362,570.00,63.30,24.80,22.93,220.00,15.00,0.00,29.89,1011.50,10.00,24.00,CLR,M,M,M,M,M,M,M,M,M,M,M,M,M,M,63.30,KLSV 222155Z AUTO 22015G24KT 10SM CLR 17/M04 A2989 RMK AO2 SLP115 T01741040 $,M
INS,2023-03-22 21:55,-115.6733,36.5872,955.00,55.40,19.20,24.00,270.00,17.00,0.00,29.91,1011.20,10.00,24.00,CLR,M,M,M,M,M,M,M,M,M,M,M,M,M,M,55.40,KINS 222155Z AUTO 27017G24KT 10SM CLR 13/M07 A2991 RMK AO2 SLP112 T01301071 $,M
EKO,2023-03-22 21:56,-115.7860,40.8242,1367.00,36.00,32.00,85.23,260.00,11.00,T,29.80,1010.20,6.00,22.00,SCT,BKN,OVC,M,2700.00,3500.00,4700.00,M,-SN BR,M,M,M,M,M,M,27.52,KEKO 222156Z AUTO 26011G22KT 6SM -SN BR SCT027 BKN035 OVC047 02/00 A2980 RMK AO2 SLP102 P0000 T00220000,M
HND,2023-03-22 21:56,-115.1344,35.9729,742.79,57.00,25.00,28.93,230.00,14.00,0.00,29.96,1016.00,10.00,22.00,BKN,OVC,M,M,7000.00,8000.00,M,M,M,M,M,M,M,M,M,57.00,KHND 222156Z 23014G22KT 10SM BKN070 OVC080 14/M04 A2996 RMK AO2 SLP160 T01391039,M
LAS,2023-03-22 21:56,-115.1634,36.0719,663.00,59.00,24.10,25.93,240.00,17.00,0.00,29.93,1013.00,10.00,28.00,FEW,FEW,M,M,6000.00,22000.00,M,M,M,M,M,M,29.00,260.00,2023-03-22 21:07,59.00,KLAS 222156Z 24017G28KT 10SM FEW060 FEW220 15/M04 A2993 RMK AO2 PK WND 26029/2107 SLP130 T01501044,M
WMC,2023-03-22 21:56,-117.8072,40.9019,1315.00,39.00,35.00,85.76,10.00,7.00,0.07,29.83,1010.40,10.00,M,BKN,OVC,M,M,2700.00,3400.00,M,M,-RA,M,M,M,M,M,M,33.31,KWMC 222156Z AUTO 01007KT 10SM -RA BKN027 OVC034 04/02 A2983 RMK AO2 RAB04E14B30SNE04 SLP104 P0007 T00390017,M
NFL,2023-03-22 21:56,-118.7010,39.4166,1199.00,49.00,30.00,47.85,350.00,7.00,T,29.85,1008.30,10.00,M,SCT,BKN,BKN,BKN,3000.00,5000.00,10000.00,25000.00,M,M,M,M,M,M,M,45.38,KNFL 222156Z 35007KT 10SM SCT030 BKN050 BKN100 BKN250 09/M01 A2985 RMK AO2 RAB40E51 SLP083 SH VC ALQDS P0000 T00941011,M
TPH,2023-03-22 21:56,-117.0904,38.0505,1654.00,44.00,26.10,48.88,200.00,12.00,0.00,29.88,1011.40,10.00,M,CLR,M,M,M,M,M,M,M,M,M,M,M,M,M,M,37.40,KTPH 222156Z AUTO 20012KT 10SM CLR 07/M03 A2988 RMK AO2 SLP114 T00671033,M
05U,2023-03-22 22:10,-116.0051,39.6042,1811.23,39.20,24.80,55.95,260.00,9.00,0.00,29.86,M,10.00,14.00,FEW,BKN,BKN,M,4500.00,5500.00,6500.00,M,M,M,M,M,M,M,M,32.47,K05U 222210Z AUTO 26009G14KT 10SM FEW045 BKN055 BKN065 04/M04 A2986 RMK A01,M
BVU,2023-03-22 22:15,-114.8611,35.9475,671.00,60.80,21.20,21.53,240.00,16.00,0.00,29.95,M,10.00,25.00,CLR,M,M,M,M,M,M,M,M,M,M,M,M,M,M,60.80,KBVU 222215Z AUTO 24016G25KT 10SM CLR 16/M06 A2995 RMK AO2,M
CXP,2023-03-22 22:15,-119.7326,39.1923,1431.00,50.00,24.80,37.08,M,6.00,0.00,29.86,M,10.00,13.00,CLR,M,M,M,M,M,M,M,M,M,M,M,M,M,M,50.00,KCXP 222215Z AUTO VRB06G13KT 10SM CLR 10/M04 A2986 RMK AO2,M
RTS,2023-03-22 22:15,-119.8764,39.6682,1539.00,37.40,28.40,69.67,200.00,4.00,0.00,29.88,M,3.00,13.00,FEW,SCT,BKN,M,300.00,2600.00,3200.00,M,-SN,M,M,M,M,M,M,33.73,KRTS 222215Z AUTO 20004G13KT 3SM -SN FEW003 SCT026 BKN032 03/M02 A2988 RMK AO2,M
MEV,2023-03-22 22:15,-119.7500,38.9963,1441.42,42.80,30.20,60.79,50.00,11.00,0.00,29.85,M,10.00,M,BKN,BKN,BKN,M,5500.00,6500.00,7000.00,M,M,M,M,M,M,M,M,36.11,KMEV 222215Z AUTO 05011KT 10SM BKN055 BKN065 BKN070 06/M01 A2985 RMK AO2,M
HTH,2023-03-22 22:15,-118.6315,38.5448,1282.89,50.00,24.80,37.08,340.00,7.00,0.00,29.85,M,10.00,M,CLR,M,M,M,M,M,M,M,M,M,M,M,M,M,M,50.00,KHTH 222215Z AUTO 34007KT 10SM CLR 10/M04 A2985 RMK A01,M
TMT,2023-03-22 22:15,-117.1971,39.4643,1749.34,36.50,28.40,72.19,180.00,4.00,0.00,29.87,M,10.00,M,SCT,BKN,OVC,M,1200.00,5000.00,10000.00,M,M,M,M,M,M,M,M,32.68,KTMT 222215Z AUTO 18004KT 10SM SCT012 BKN050 OVC100 03/M02 A2987 RMK AO2 T00251020,M
WMC,2023-03-22 22:16,-117.8072,40.9019,1315.00,41.00,36.00,82.22,300.00,12.00,0.01,29.84,M,10.00,M,FEW,BKN,OVC,M,1700.00,3400.00,5000.00,M,M,M,M,M,M,M,M,33.46,KWMC 222216Z AUTO 30012KT 10SM FEW017 BKN034 OVC050 05/02 A2984 RMK AO2 RAE12 P0001 T00500022,M
BAM,2023-03-22 22:20,-116.8743,40.5990,1382.36,46.40,32.00,57.00,250.00,10.00,0.00,29.83,M,10.00,M,SCT,BKN,OVC,M,4400.00,5000.00,7500.00,M,M,M,M,M,M,M,M,41.03,KBAM 222220Z AUTO 25010KT 10SM SCT044 BKN050 OVC075 08/00 A2983 RMK AO1,M
EKO,2023-03-22 22:30,-115.7860,40.8242,1367.00,39.00,34.00,82.08,210.00,12.00,T,29.81,M,10.00,M,FEW,BKN,OVC,M,2000.00,2700.00,7000.00,M,M,M,M,M,M,M,M,30.91,KEKO 222230Z AUTO 21012KT 10SM FEW020 BKN027 OVC070 04/01 A2981 RMK AO2 SNE01 P0000 T00390011,M
05U,2023-03-22 22:30,-116.0051,39.6042,1811.23,39.20,24.80,55.95,260.00,11.00,0.00,29.86,M,10.00,M,BKN,BKN,M,M,6000.00,7000.00,M,M,M,M,M,M,M,M,M,31.57,K05U 222230Z AUTO 26011KT 10SM BKN060 BKN070 04/M04 A2986 RMK A01,M
BVU,2023-03-22 22:35,-114.8611,35.9475,671.00,59.00,21.20,22.95,230.00,17.00,0.00,29.95,M,10.00,25.00,CLR,M,M,M,M,M,M,M,M,M,M,M,M,M,M,59.00,KBVU 222235Z AUTO 23017G25KT 10SM CLR 15/M06 A2995 RMK AO2,M
CXP,2023-03-22 22:35,-119.7326,39.1923,1431.00,46.40,23.00,39.36,0.00,0.00,0.00,29.86,M,10.00,M,FEW,M,M,M,7000.00,M,M,M,M,M,M,M,M,M,M,46.40,KCXP 222235Z AUTO 00000KT 10SM FEW070 08/M05 A2986 RMK AO2,M
RTS,2023-03-22 22:35,-119.8764,39.6682,1539.00,41.00,30.20,65.16,280.00,14.00,0.00,29.88,M,10.00,M,FEW,SCT,BKN,M,3100.00,4100.00,4900.00,M,-RA,M,M,M,M,M,M,32.76,KRTS 222235Z AUTO 28014KT 10SM -RA FEW031 SCT041 BKN049 05/M01 A2988 RMK AO2,M
MEV,2023-03-22 22:35,-119.7500,38.9963,1441.42,44.60,28.40,52.72,60.00,9.00,0.00,29.85,M,10.00,M,BKN,BKN,BKN,M,6000.00,7000.00,7500.00,M,M,M,M,M,M,M,M,39.18,KMEV 222235Z AUTO 06009KT 10SM BKN060 BKN070 BKN075 07/M02 A2985 RMK AO2,M
BAM,2023-03-22 22:35,-116.8743,40.5990,1382.36,44.60,35.60,70.48,340.00,11.00,0.00,29.84,M,10.00,14.00,SCT,BKN,OVC,M,1900.00,3400.00,5500.00,M,M,M,M,M,M,M,M,38.39,KBAM 222235Z AUTO 34011G14KT 10SM SCT019 BKN034 OVC055 07/02 A2984 RMK AO1,M
HTH,2023-03-22 22:35,-118.6315,38.5448,1282.89,50.00,24.80,37.08,320.00,9.00,0.00,29.85,M,10.00,M,CLR,M,M,M,M,M,M,M,M,M,M,M,M,M,M,50.00,KHTH 222235Z AUTO 32009KT 10SM CLR 10/M04 A2985 RMK A01,M
TMT,2023-03-22 22:35,-117.1971,39.4643,1749.34,35.60,29.30,77.61,350.00,4.00,0.00,29.88,M,10.00,M,SCT,BKN,OVC,M,2500.00,3100.00,10000.00,M,M,M,M,M,M,M,M,31.62,KTMT 222235Z AUTO 35004KT 10SM SCT025 BKN031 OVC100 02/M01 A2988 RMK AO2 T00201015,M
RNO,2023-03-22 22:45,-119.7711,39.4839,1341.00,45.00,30.00,55.43,90.00,7.00,T,29.87,M,10.00,M,BKN,M,M,M,5000.00,M,M,M,M,M,M,M,M,M,M,40.63,KRNO 222245Z 09007KT 10SM BKN050 07/M01 A2987 RMK AO2 RAB10E22B40E44 GS LGT P0000 T00721011,M
05U,2023-03-22 22:50,-116.0051,39.6042,1811.23,39.20,24.80,55.95,270.00,8.00,0.00,29.87,M,10.00,M,SCT,BKN,M,M,5500.00,7000.00,M,M,M,M,M,M,M,M,M,32.98,K05U 222250Z AUTO 27008KT 10SM SCT055 BKN070 04/M04 A2987 RMK A01,M
P68,2023-03-22 22:53,-116.0056,39.6014,1993.00,37.00,26.10,64.38,260.00,7.00,0.00,29.84,1010.30,M,M,M,M,M,M,M,M,M,M,M,M,M,M,M,M,M,30.87,KP68 222253Z AUTO 26007KT 03/M03 A2984 RMK AO1 SLP103 T00281033,M
DRA,2023-03-22 22:53,-116.0278,36.6206,1009.00,51.00,28.90,42.16,190.00,14.00,0.00,29.92,1012.00,10.00,21.00,BKN,M,M,M,6000.00,M,M,M,M,M,M,M,M,M,M,51.10,KDRA 222253Z AUTO 19014G21KT 10SM BKN060 11/M02 A2992 RMK AO2 SLP120 T01061017,M
ELY,2023-03-22 22:53,-114.8453,39.2950,1909.00,35.00,30.00,81.46,350.00,5.00,T,29.85,1010.40,9.00,M,FEW,BKN,OVC,M,2400.00,3400.00,6000.00,M,-SN,M,M,M,M,M,M,30.08,KELY 222253Z AUTO 35005KT 9SM -SN FEW024 BKN034 OVC060 02/M01 A2985 RMK AO2 SNB38 SLP104 P0000 T00171011,M
VGT,2023-03-22 22:53,-115.1933,36.2111,667.00,61.00,25.00,25.07,230.00,17.00,0.00,29.91,1014.10,10.00,27.00,CLR,M,M,M,M,M,M,M,M,M,M,M,30.00,210.00,2023-03-22 22:04,61.00,KVGT 222253Z 23017G27KT 10SM CLR 16/M04 A2991 RMK AO2 PK WND 21030/2204 SLP141 T01611039,M
LOL,2023-03-22 22:53,-118.5701,40.0684,1192.43,48.00,27.00,43.77,190.00,12.00,0.00,29.84,1010.90,10.00,M,FEW,SCT,SCT,M,6000.00,7000.00,10000.00,M,M,M,M,M,M,M,M,42.37,KLOL 222253Z AUTO 19012KT 10SM FEW060 SCT070 SCT100 09/M03 A2984 RMK AO2 SLP109 T00891028,M
BVU,2023-03-22 22:55,-114.8611,35.9475,671.00,59.00,23.00,24.76,210.00,16.00,0.00,29.94,M,10.00,M,CLR,M,M,M,M,M,M,M,M,M,M,M,M,M,M,59.00,KBVU 222255Z AUTO 21016KT 10SM CLR 15/M05 A2994 RMK AO2,M
CXP,2023-03-22 22:55,-119.7326,39.1923,1431.00,48.20,23.00,36.78,M,5.00,0.00,29.87,M,10.00,11.00,BKN,BKN,BKN,M,5500.00,6500.00,9000.00,M,M,M,M,M,M,M,M,45.63,KCXP 222255Z AUTO VRB05G11KT 10SM BKN055 BKN065 BKN090 09/M05 A2987 RMK AO2,M
RNO,2023-03-22 22:55,-119.7711,39.4839,1341.00,43.00,32.00,64.88,70.00,9.00,T,29.88,1011.50,10.00,M,BKN,M,M,M,4700.00,M,M,M,M,M,M,M,M,M,M,37.19,KRNO 222255Z 07009KT 10SM BKN047 06/00 A2988 RMK AO2 RAB10E22B40E44 SLP115 GS LGT P0000 T00610000,M
RTS,2023-03-22 22:55,-119.8764,39.6682,1539.00,41.00,26.60,56.22,250.00,12.00,0.00,29.88,M,10.00,M,FEW,BKN,BKN,M,4900.00,6000.00,7000.00,M,M,M,M,M,M,M,M,33.46,KRTS 222255Z AUTO 25012KT 10SM FEW049 BKN060 BKN070 05/M03 A2988 RMK AO2,M
MEV,2023-03-22 22:55,-119.7500,38.9963,1441.42,44.60,28.40,52.72,80.00,9.00,0.00,29.86,M,10.00,M,BKN,OVC,M,M,6000.00,7000.00,M,M,M,M,M,M,M,M,M,39.18,KMEV 222255Z AUTO 08009KT 10SM BKN060 OVC070 07/M02 A2986 RMK AO2,M
BAM,2023-03-22 22:55,-116.8743,40.5990,1382.36,44.60,33.80,65.61,310.00,9.00,0.00,29.84,M,10.00,14.00,SCT,BKN,OVC,M,2100.00,3400.00,4400.00,M,M,M,M,M,M,M,M,39.18,KBAM 222255Z AUTO 31009G14KT 10SM SCT021 BKN034 OVC044 07/01 A2984 RMK AO1,M
HTH,2023-03-22 22:55,-118.6315,38.5448,1282.89,50.00,23.00,34.39,330.00,8.00,0.00,29.85,M,10.00,M,CLR,M,M,M,M,M,M,M,M,M,M,M,M,M,M,50.00,KHTH 222255Z AUTO 33008KT 10SM CLR 10/M05 A2985 RMK A01,M
TMT,2023-03-22 22:55,-117.1971,39.4643,1749.34,34.50,27.50,75.31,240.00,3.00,0.00,29.89,M,2.50,9.00,SCT,BKN,OVC,M,1700.00,2700.00,3200.00,M,-SN,M,M,M,M,M,M,31.55,KTMT 222255Z AUTO 24003G09KT 2 1/2SM -SN SCT017 BKN027 OVC032 01/M02 A2989 RMK AO2 VIS 1 1/2V5 T00141025,M
INS,2023-03-22 22:55,-115.6733,36.5872,955.00,53.80,19.80,26.10,230.00,12.00,0.00,29.92,1011.70,10.00,24.00,FEW,SCT,M,M,16000.00,18000.00,M,M,M,M,M,M,M,M,M,53.80,KINS 222255Z AUTO 23012G24KT 10SM FEW160 SCT180 12/M07 A2992 RMK AO2 SLP117 T01211068 $,M
LSV,2023-03-22 22:55,-115.0343,36.2362,570.00,64.00,25.30,22.92,230.00,19.00,0.00,29.89,1011.50,10.00,24.00,CLR,M,M,M,M,M,M,M,M,M,M,M,26.00,220.00,2023-03-22 21:59,63.90,KLSV 222255Z AUTO 23019G24KT 10SM CLR 18/M04 A2989 RMK AO2 PK WND 22026/2159 SLP115 T01771037 $,M
WMC,2023-03-22 22:56,-117.8072,40.9019,1315.00,44.00,34.00,67.41,290.00,4.00,0.01,29.84,1010.60,10.00,15.00,FEW,FEW,OVC,M,2800.00,6000.00,9000.00,M,M,M,M,M,M,M,M,41.55,KWMC 222256Z AUTO 29004G15KT 10SM FEW028 FEW060 OVC090 07/01 A2984 RMK AO2 RAE12 SLP106 P0001 T00670011,M
NFL,2023-03-22 22:56,-118.7010,39.4166,1199.00,48.00,28.00,45.61,M,5.00,0.00,29.85,1008.50,10.00,M,SCT,BKN,BKN,BKN,3000.00,5000.00,10000.00,25000.00,M,M,M,M,M,M,M,45.40,KNFL 222256Z VRB05KT 10SM SCT030 BKN050 BKN100 BKN250 09/M02 A2985 RMK AO2 SLP085 SH VC ALQDS T00891022,M
HND,2023-03-22 22:56,-115.1344,35.9729,742.79,57.00,28.00,32.75,230.00,13.00,0.00,29.96,1016.00,10.00,M,BKN,BKN,M,M,7500.00,9000.00,M,M,M,M,M,M,M,M,M,57.00,KHND 222256Z 23013KT 10SM BKN075 BKN090 14/M02 A2996 RMK AO2 SLP160 T01391022,M
TPH,2023-03-22 22:56,-117.0904,38.0505,1654.00,45.00,28.00,51.08,210.00,11.00,0.00,29.88,1011.50,10.00,18.00,SCT,M,M,M,4500.00,M,M,M,M,M,M,M,M,M,M,38.89,KTPH 222256Z AUTO 21011G18KT 10SM SCT045 07/M02 A2988 RMK AO2 SLP115 T00721022,M
LAS,2023-03-22 22:56,-115.1634,36.0719,663.00,59.00,26.10,28.18,250.00,14.00,0.00,29.94,1013.20,10.00,20.00,FEW,FEW,M,M,6000.00,22000.00,M,M,M,M,M,M,35.00,250.00,2023-03-22 22:05,59.00,KLAS 222256Z 25014G20KT 10SM FEW060 FEW220 15/M03 A2994 RMK AO2 PK WND 25035/2205 SLP132 T01501033,M
EKO,2023-03-22 22:56,-115.7860,40.8242,1367.00,37.00,33.00,85.64,210.00,11.00,T,29.82,1011.10,10.00,M,FEW,BKN,OVC,M,1000.00,2100.00,4700.00,M,UP,M,M,M,M,M,M,28.79,KEKO 222256Z AUTO 21011KT 10SM UP FEW010 BKN021 OVC047 03/01 A2982 RMK AO2 UPB56SNE01 SLP111 P0000 T00280006,M
05U,2023-03-22 23:10,-116.0051,39.6042,1811.23,41.00,24.80,52.17,260.00,8.00,0.00,29.87,M,10.00,M,FEW,SCT,BKN,M,4000.00,7000.00,8000.00,M,M,M,M,M,M,M,M,35.20,K05U 222310Z AUTO 26008KT 10SM FEW040 SCT070 BKN080 05/M04 A2987 RMK A01,M
RNO,2023-03-22 23:12,-119.7711,39.4839,1341.00,41.00,32.00,70.08,110.00,8.00,0.01,29.88,M,6.00,M,BKN,M,M,M,4700.00,M,M,M,-RA,M,M,M,M,M,M,35.20,KRNO 222312Z 11008KT 6SM -RA BKN047 05/00 A2988 RMK AO2 RAB12 P0001 T00500000,M
BVU,2023-03-22 23:15,-114.8611,35.9475,671.00,59.00,23.00,24.76,220.00,16.00,0.00,29.95,M,10.00,22.00,CLR,M,M,M,M,M,M,M,M,M,M,M,M,M,M,59.00,KBVU 222315Z AUTO 22016G22KT 10SM CLR 15/M05 A2995 RMK AO2,M
CXP,2023-03-22 23:15,-119.7326,39.1923,1431.00,48.20,21.20,34.09,180.00,5.00,0.00,29.87,M,10.00,12.00,OVC,M,M,M,5500.00,M,M,M,M,M,M,M,M,M,M,45.63,KCXP 222315Z AUTO 18005G12KT 10SM OVC055 09/M06 A2987 RMK AO2,M
RTS,2023-03-22 23:15,-119.8764,39.6682,1539.00,41.00,28.40,60.54,240.00,12.00,0.00,29.88,M,10.00,19.00,FEW,FEW,M,M,6000.00,7000.00,M,M,M,M,M,M,M,M,M,33.46,KRTS 222315Z AUTO 24012G19KT 10SM FEW060 FEW070 05/M02 A2988 RMK AO2,M
MEV,2023-03-22 23:15,-119.7500,38.9963,1441.42,44.60,28.40,52.72,90.00,10.00,0.00,29.87,M,10.00,M,BKN,OVC,M,M,6500.00,8000.00,M,M,M,M,M,M,M,M,M,38.77,KMEV 222315Z AUTO 09010KT 10SM BKN065 OVC080 07/M02 A2987 RMK AO2,M
BAM,2023-03-22 23:15,-116.8743,40.5990,1382.36,44.60,33.80,65.61,300.00,8.00,0.00,29.85,M,10.00,M,SCT,BKN,OVC,M,3000.00,3600.00,4400.00,M,M,M,M,M,M,M,M,39.63,KBAM 222315Z AUTO 30008KT 10SM SCT030 BKN036 OVC044 07/01 A2985 RMK AO1,M
HTH,2023-03-22 23:15,-118.6315,38.5448,1282.89,50.00,21.20,31.87,330.00,7.00,0.00,29.85,M,10.00,M,CLR,M,M,M,M,M,M,M,M,M,M,M,M,M,M,50.00,KHTH 222315Z AUTO 33007KT 10SM CLR 10/M06 A2985 RMK A01,M
TMT,2023-03-22 23:15,-117.1971,39.4643,1749.34,35.80,25.70,66.39,0.00,0.00,0.00,29.89,M,10.00,M,SCT,SCT,BKN,M,1700.00,2500.00,7000.00,M,M,M,M,M,M,M,M,35.80,KTMT 222315Z AUTO 00000KT 10SM SCT017 SCT025 BKN070 02/M03 A2989 RMK AO2 T00211035,M
INS,2023-03-22 23:17,-115.6733,36.5872,955.00,55.40,19.40,24.21,270.00,11.00,0.00,29.92,1011.50,10.00,M,FEW,M,M,M,17000.00,M,M,M,M,M,M,M,M,M,M,55.40,KINS 222317Z AUTO 27011KT 10SM FEW170 13/M07 A2992 RMK AO2 WSHFT 14 SLP115 $,M
05U,2023-03-22 23:30,-116.0051,39.6042,1811.23,41.00,23.00,48.39,270.00,12.00,0.00,29.88,M,10.00,M,FEW,FEW,M,M,4100.00,8000.00,M,M,M,M,M,M,M,M,M,33.46,K05U 222330Z AUTO 27012KT 10SM FEW041 FEW080 05/M05 A2988 RMK A01,M
EKO,2023-03-22 23:31,-115.7860,40.8242,1367.00,38.00,33.00,82.66,220.00,9.00,T,29.83,M,10.00,M,BKN,OVC,M,M,1300.00,1900.00,M,M,-RA,M,M,M,M,M,M,30.85,KEKO 222331Z AUTO 22009KT 10SM -RA BKN013 OVC019 03/01 A2983 RMK AO2 UPE2258RAB08SNB2258E10 P0000 T00330006,M
BVU,2023-03-22 23:35,-114.8611,35.9475,671.00,59.00,24.80,26.70,250.00,16.00,0.00,29.95,M,10.00,M,CLR,M,M,M,M,M,M,M,M,M,M,M,M,M,M,59.00,KBVU 222335Z AUTO 25016KT 10SM CLR 15/M04 A2995 RMK AO2,M
CXP,2023-03-22 23:35,-119.7326,39.1923,1431.00,50.00,21.20,31.87,280.00,11.00,0.00,29.87,M,10.00,M,SCT,SCT,BKN,M,6000.00,8000.00,12000.00,M,M,M,M,M,M,M,M,50.00,KCXP 222335Z AUTO 28011KT 10SM SCT060 SCT080 BKN120 10/M06 A2987 RMK AO2,M
RTS,2023-03-22 23:35,-119.8764,39.6682,1539.00,39.20,30.20,69.88,220.00,17.00,0.00,29.89,M,10.00,M,FEW,M,M,M,7000.00,M,M,M,M,M,M,M,M,M,M,29.51,KRTS 222335Z AUTO 22017KT 10SM FEW070 04/M01 A2989 RMK AO2,M
MEV,2023-03-22 23:35,-119.7500,38.9963,1441.42,44.60,28.40,52.72,120.00,9.00,0.00,29.87,M,10.00,M,FEW,SCT,BKN,M,4600.00,5500.00,6500.00,M,M,M,M,M,M,M,M,39.18,KMEV 222335Z AUTO 12009KT 10SM FEW046 SCT055 BKN065 07/M02 A2987 RMK AO2,M
BAM,2023-03-22 23:35,-116.8743,40.5990,1382.36,44.60,32.00,61.03,340.00,9.00,0.00,29.86,M,10.00,M,OVC,M,M,M,3000.00,M,M,M,M,M,M,M,M,M,M,39.18,KBAM 222335Z AUTO 34009KT 10SM OVC030 07/00 A2986 RMK AO1,M
HTH,2023-03-22 23:35,-118.6315,38.5448,1282.89,50.00,19.40,29.52,310.00,9.00,0.00,29.86,M,10.00,M,CLR,M,M,M,M,M,M,M,M,M,M,M,M,M,M,50.00,KHTH 222335Z AUTO 31009KT 10SM CLR 10/M07 A2986 RMK A01,M
TMT,2023-03-22 23:35,-117.1971,39.4643,1749.34,35.80,27.00,70.06,0.00,0.00,0.00,29.89,M,10.00,M,SCT,SCT,BKN,M,3100.00,3800.00,4500.00,M,M,M,M,M,M,M,M,35.80,KTMT 222335Z AUTO 00000KT 10SM SCT031 SCT038 BKN045 02/M03 A2989 RMK AO2 T00211028,M
EKO,2023-03-22 23:40,-115.7860,40.8242,1367.00,38.00,33.00,82.66,230.00,8.00,T,29.83,M,10.00,M,SCT,BKN,OVC,M,1300.00,2100.00,2900.00,M,M,M,M,M,M,M,M,31.38,KEKO 222340Z AUTO 23008KT 10SM SCT013 BKN021 OVC029 03/01 A2983 RMK AO2 UPE2258RAB08E36SNB2258E10 P0000 T00330006,M
05U,2023-03-22 23:50,-116.0051,39.6042,1811.23,41.00,23.00,48.39,250.00,11.00,0.00,29.88,M,10.00,M,CLR,M,M,M,M,M,M,M,M,M,M,M,M,M,M,33.84,K05U 222350Z AUTO 25011KT 10SM CLR 05/M05 A2988 RMK A01,M
P68,2023-03-22 23:53,-116.0056,39.6014,1993.00,39.00,24.10,54.77,250.00,14.00,0.00,29.86,1010.60,M,20.00,M,M,M,M,M,M,M,M,M,M,M,M,M,M,M,30.19,KP68 222353Z AUTO 25014G20KT 04/M04 A2986 RMK AO1 SLP106 60001 T00391044 10039 20000 53013,M
DRA,2023-03-22 23:53,-116.0278,36.6206,1009.00,50.00,30.00,45.93,200.00,14.00,0.00,29.94,1012.40,10.00,M,SCT,BKN,OVC,M,5000.00,7000.00,8000.00,M,M,M,M,M,27.00,220.00,2023-03-22 23:25,50.00,KDRA 222353Z AUTO 20014KT 10SM SCT050 BKN070 OVC080 10/M01 A2994 RMK AO2 PK WND 22027/2325 SLP124 T01001011 10117 20083 53001,M
ELY,2023-03-22 23:53,-114.8453,39.2950,1909.00,35.00,25.00,66.31,210.00,6.00,T,29.87,1011.10,10.00,M,FEW,FEW,SCT,M,4900.00,6000.00,7500.00,M,M,M,M,M,M,M,M,29.26,KELY 222353Z AUTO 21006KT 10SM FEW049 FEW060 SCT075 02/M04 A2987 RMK AO2 SNE2256 SLP111 P0000 60002 T00171039 10033 21006 51018,M
VGT,2023-03-22 23:53,-115.1933,36.2111,667.00,58.00,27.00,30.43,240.00,19.00,0.00,29.92,1014.50,10.00,27.00,CLR,M,M,M,M,M,M,M,M,M,M,M,28.00,260.00,2023-03-22 22:55,57.90,KVGT 222353Z 24019G27KT 10SM CLR 14/M03 A2992 RMK AO2 PK WND 26028/2255 SLP145 T01441028 10167 20133 53002,M
LOL,2023-03-22 23:53,-118.5701,40.0684,1192.43,46.00,30.00,53.37,210.00,12.00,T,29.85,1011.60,10.00,M,SCT,OVC,M,M,6000.00,8000.00,M,M,-RA,M,M,M,M,M,M,39.82,KLOL 222353Z AUTO 21012KT 10SM -RA SCT060 OVC080 08/M01 A2985 RMK AO2 RAB45 SLP116 P0000 60000 T00781011 10106 20056 53006,M
BVU,2023-03-22 23:55,-114.8611,35.9475,671.00,57.20,23.00,26.42,220.00,14.00,0.00,29.95,M,10.00,19.00,CLR,M,M,M,M,M,M,M,M,M,M,M,M,M,M,57.20,KBVU 222355Z AUTO 22014G19KT 10SM CLR 14/M05 A2995 RMK AO2,M
CXP,2023-03-22 23:55,-119.7326,39.1923,1431.00,48.20,21.20,34.09,250.00,7.00,0.00,29.88,M,10.00,15.00,FEW,BKN,BKN,M,6000.00,7500.00,9500.00,M,M,M,M,M,M,M,M,44.53,KCXP 222355Z AUTO 25007G15KT 230V290 10SM FEW060 BKN075 BKN095 09/M06 A2988 RMK AO2,M
RNO,2023-03-22 23:55,-119.7711,39.4839,1341.00,43.00,36.00,76.12,80.00,8.00,0.02,29.89,1011.90,10.00,M,SCT,BKN,M,M,4300.00,5500.00,M,M,-RA,M,M,M,M,M,M,37.66,KRNO 222355Z 08008KT 10SM -RA SCT043 BKN055 06/02 A2989 RMK AO2 RAB12 SLP119 P0002 60002 T00610022 10106 20050 53015,M
RTS,2023-03-22 23:55,-119.8764,39.6682,1539.00,37.40,28.40,69.67,180.00,10.00,0.00,29.90,M,3.00,17.00,FEW,FEW,SCT,M,1200.00,2400.00,5500.00,M,-RA,M,M,M,M,M,M,29.74,KRTS 222355Z AUTO 18010G17KT 3SM -RA FEW012 FEW024 SCT055 03/M02 A2990 RMK AO2,M
MEV,2023-03-22 23:55,-119.7500,38.9963,1441.42,44.60,26.60,48.96,80.00,7.00,0.00,29.87,M,10.00,M,BKN,BKN,BKN,M,4800.00,5500.00,6500.00,M,M,M,M,M,M,M,M,40.14,KMEV 222355Z AUTO 08007KT 10SM BKN048 BKN055 BKN065 07/M03 A2987 RMK AO2,M
BAM,2023-03-22 23:55,-116.8743,40.5990,1382.36,42.80,33.80,70.28,330.00,9.00,0.00,29.87,M,10.00,M,SCT,BKN,OVC,M,3000.00,4500.00,7000.00,M,M,M,M,M,M,M,M,36.94,KBAM 222355Z AUTO 33009KT 10SM SCT030 BKN045 OVC070 06/01 A2987 RMK AO1,M
HTH,2023-03-22 23:55,-118.6315,38.5448,1282.89,50.00,19.40,29.52,340.00,9.00,0.00,29.86,M,10.00,M,CLR,M,M,M,M,M,M,M,M,M,M,M,M,M,M,50.00,KHTH 222355Z AUTO 34009KT 10SM CLR 10/M07 A2986 RMK A01,M
TMT,2023-03-22 23:55,-117.1971,39.4643,1749.34,36.70,28.00,70.45,270.00,7.00,0.00,29.89,M,10.00,M,BKN,OVC,M,M,3100.00,3800.00,M,M,M,M,M,M,M,M,M,30.51,KTMT 222355Z AUTO 27007KT 10SM BKN031 OVC038 03/M02 A2989 RMK AO2 T00261022 10031 20000,M
LSV,2023-03-22 23:55,-115.0343,36.2362,570.00,60.60,28.20,29.03,220.00,21.00,0.00,29.90,1012.00,10.00,M,FEW,M,M,M,18000.00,M,M,M,M,M,M,M,26.00,230.00,2023-03-22 23:54,60.60,KLSV 222355Z AUTO 22021KT 10SM FEW180 16/M02 A2990 RMK AO2 PK WND 23026/54 SLP120 T01591021 10177 20147 52005 $,M
INS,2023-03-22 23:55,-115.6733,36.5872,955.00,53.00,24.80,33.07,270.00,16.00,0.00,29.92,1011.70,10.00,M,SCT,M,M,M,8000.00,M,M,M,M,M,M,M,M,M,M,53.10,KINS 222355Z AUTO 27016KT 10SM SCT080 12/M04 A2992 RMK AO2 SLP117 T01171040 10132 20104 52007 $,M
WMC,2023-03-22 23:56,-117.8072,40.9019,1315.00,44.00,34.00,67.41,350.00,6.00,0.00,29.86,1011.20,10.00,M,FEW,OVC,M,M,3400.00,6500.00,M,M,M,M,M,M,M,M,M,40.10,KWMC 222356Z AUTO 35006KT 10SM FEW034 OVC065 07/01 A2986 RMK AO2 SLP112 60015 T00670011 10078 20022 53014,M
NFL,2023-03-22 23:56,-118.7010,39.4166,1199.00,50.00,27.00,40.62,M,5.00,0.00,29.86,1008.80,10.00,M,FEW,SCT,BKN,BKN,3000.00,5000.00,10000.00,25000.00,M,M,M,M,M,M,M,50.00,KNFL 222356Z VRB05KT 10SM FEW030 SCT050 BKN100 BKN250 10/M03 A2986 RMK AO2 SLP088 SH VC ALQDS 60000 T01001028 10106 20061 53004,M
HND,2023-03-22 23:56,-115.1344,35.9729,742.79,56.00,27.00,32.71,210.00,16.00,0.00,29.96,1016.20,10.00,19.00,FEW,M,M,M,9000.00,M,M,M,M,M,M,M,M,M,M,55.90,KHND 222356Z 21016G19KT 10SM FEW090 13/M03 A2996 RMK AO2 SLP162 T01331028 10150 20117 52001,M
TPH,2023-03-22 23:56,-117.0904,38.0505,1654.00,44.00,23.00,42.95,210.00,12.00,0.00,29.89,1011.70,10.00,M,SCT,SCT,BKN,M,5000.00,6000.00,7000.00,M,M,M,M,M,M,M,M,37.40,KTPH 222356Z AUTO 21012KT 10SM SCT050 SCT060 BKN070 07/M05 A2989 RMK AO2 SLP117 T00671050 10072 20011 53001,M
LAS,2023-03-22 23:56,-115.1634,36.0719,663.00,57.00,27.00,31.43,230.00,9.00,0.00,29.94,1013.40,10.00,19.00,FEW,FEW,SCT,BKN,7000.00,9500.00,12000.00,22000.00,M,M,M,M,M,M,M,57.00,KLAS 222356Z 23009G19KT 10SM FEW070 FEW095 SCT120 BKN220 14/M03 A2994 RMK AO2 SLP134 T01391028 10156 20122 53002,M
EKO,2023-03-22 23:56,-115.7860,40.8242,1367.00,38.00,33.00,82.66,230.00,10.00,T,29.83,1011.70,10.00,M,FEW,SCT,OVC,M,1300.00,2200.00,3300.00,M,M,M,M,M,M,M,M,30.37,KEKO 222356Z AUTO 23010KT 10SM FEW013 SCT022 OVC033 03/01 A2983 RMK AO2 UPE2258RAB08E36B45E54SNB2258E10 SLP117 P0000 60000 T00330006 10050 20000 53013,M
