station,valid,lon,lat,elevation,tmpf,dwpf,relh,drct,sknt,p01i,alti,mslp,vsby,gust,skyc1,skyc2,skyc3,skyc4,skyl1,skyl2,skyl3,skyl4,wxcodes,ice_accretion_1hr,ice_accretion_3hr,ice_accretion_6hr,peak_wind_gust,peak_wind_drct,peak_wind_time,feel,metar,snowdepth
INS,2021-10-12 00:00,-115.6733,36.5872,955.00,48.20,41.00,76.01,330.00,22.00,0.00,29.54,998.60,7.00,31.00,FEW,M,M,M,3700.00,M,M,M,-RA,M,M,M,M,M,M,40.27,KINS 120000Z AUTO 33022G31KT 7SM -RA FEW037 09/05 A2954 RMK AO2 RAE2359RAB2359E2359RAB2359 SLP986 $,M
CXP,2021-10-12 00:10,-119.7326,39.1923,1431.00,37.40,24.80,60.04,30.00,11.00,0.00,29.95,M,2.00,27.00,FEW,SCT,BKN,M,2700.00,4700.00,8000.00,M,-RA,M,M,M,M,M,M,29.29,KCXP 120010Z AUTO 03011G27KT 2SM -RA FEW027 SCT047 BKN080 03/M04 A2995 RMK AO2,M
RTS,2021-10-12 00:15,-119.8764,39.6682,1539.00,37.40,17.60,44.25,350.00,16.00,0.00,29.96,M,10.00,M,FEW,FEW,SCT,M,2500.00,4400.00,9000.00,M,M,M,M,M,M,M,M,27.46,KRTS 120015Z AUTO 35016KT 10SM FEW025 FEW044 SCT090 03/M08 A2996 RMK AO2,M
05U,2021-10-12 00:15,-116.0051,39.6042,1811.23,32.00,24.80,74.44,340.00,15.00,0.00,29.80,M,10.00,21.00,BKN,BKN,OVC,M,2300.00,2900.00,4400.00,M,M,M,M,M,M,M,M,20.78,K05U 120015Z AUTO 34015G21KT 10SM BKN023 BKN029 OVC044 M00/M04 A2980 RMK A01,M
BAM,2021-10-12 00:15,-116.8743,40.5990,1382.36,41.00,30.20,65.16,360.00,9.00,0.00,29.86,M,10.00,14.00,SCT,SCT,OVC,M,5000.00,6000.00,7000.00,M,M,M,M,M,M,M,M,34.70,KBAM 120015Z AUTO 36009G14KT 10SM SCT050 SCT060 OVC070 05/M01 A2986 RMK AO1,M
MEV,2021-10-12 00:15,-119.7500,38.9963,1441.42,41.00,17.60,38.45,10.00,17.00,0.00,29.92,M,9.00,24.00,FEW,SCT,BKN,M,3400.00,4200.00,5500.00,M,-RA,M,M,M,M,M,M,31.87,KMEV 120015Z AUTO 01017G24KT 9SM -RA FEW034 SCT042 BKN055 05/M08 A2992 RMK AO2,M
BVU,2021-10-12 00:15,-114.8611,35.9475,671.00,68.00,6.80,8.90,240.00,27.00,0.00,29.40,M,3.00,37.00,CLR,M,M,M,M,M,M,M,HZ,M,M,M,M,M,M,68.00,KBVU 120015Z AUTO 24027G37KT 3SM HZ CLR 20/M14 A2940 RMK AO2,M
TMT,2021-10-12 00:15,-117.1971,39.4643,1749.34,30.20,28.00,91.40,340.00,9.00,0.00,29.86,M,3.00,M,SCT,BKN,OVC,M,900.00,1600.00,3300.00,M,-SN,M,M,M,M,M,M,21.28,KTMT 120015Z AUTO 34009KT 3SM -SN SCT009 BKN016 OVC033 M01/M02 A2986 RMK AO2 T10101022,M
HTH,2021-10-12 00:15,-118.6315,38.5448,1282.89,39.20,24.80,55.95,330.00,19.00,0.00,29.89,M,10.00,27.00,FEW,FEW,FEW,M,4200.00,5000.00,7000.00,M,M,M,M,M,M,M,M,28.96,KHTH 120015Z AUTO 33019G27KT 10SM FEW042 FEW050 FEW070 04/M04 A2989 RMK A01,M
INS,2021-10-12 00:20,-115.6733,36.5872,955.00,48.20,39.20,70.88,340.00,23.00,0.00,29.55,999.40,10.00,31.00,BKN,M,M,M,3800.00,M,M,M,-RA,M,M,M,M,M,M,40.09,KINS 120020Z AUTO 34023G31KT 10SM -RA BKN038 09/04 A2955 RMK AO2 RAE2359RAB2359E2359RAB2359 SLP994 $,M
ELY,2021-10-12 00:27,-114.8453,39.2950,1909.00,28.90,28.90,100.00,10.00,15.00,0.02,29.72,M,0.50,M,FEW,OVC,M,M,400.00,1000.00,M,M,-SN FZFG,M,M,M,M,M,M,16.76,KELY 120027Z AUTO 01015KT 1/2SM -SN FZFG FEW004 OVC010 M02/M02 A2972 RMK AO2 P0002 T10171017 $,M
DRA,2021-10-12 00:28,-116.0278,36.6206,1009.00,45.00,37.00,73.37,360.00,25.00,0.04,29.60,M,5.00,35.00,BKN,OVC,M,M,2800.00,3400.00,M,M,RA,M,M,M,37.00,350.00,2021-10-12 00:14,35.41,KDRA 120028Z AUTO 36025G35KT 5SM RA BKN028 OVC034 07/03 A2960 RMK AO2 PK WND 35037/0014 P0004 T00720028 $,M
VGT,2021-10-12 00:29,-115.1933,36.2111,667.00,64.00,36.00,35.26,310.00,23.00,0.00,29.41,M,10.00,38.00,BKN,M,M,M,3800.00,M,M,M,DU,M,M,M,38.00,310.00,2021-10-12 00:26,64.00,KVGT 120029Z 31023G38KT 10SM DU BKN038 18/02 A2941 RMK AO2 PK WND 31038/0026 WSHFT 0009 T01780022,M
CXP,2021-10-12 00:30,-119.7326,39.1923,1431.00,41.00,23.00,48.39,20.00,15.00,0.00,29.96,M,8.00,22.00,FEW,SCT,SCT,M,3000.00,4200.00,8000.00,M,M,M,M,M,M,M,M,32.45,KCXP 120030Z AUTO 02015G22KT 8SM FEW030 SCT042 SCT080 05/M05 A2996 RMK AO2,M
BAM,2021-10-12 00:35,-116.8743,40.5990,1382.36,41.00,30.20,65.16,360.00,5.00,0.00,29.86,M,10.00,M,SCT,SCT,BKN,M,4600.00,7000.00,8500.00,M,M,M,M,M,M,M,M,37.08,KBAM 120035Z AUTO 36005KT 10SM SCT046 SCT070 BKN085 05/M01 A2986 RMK AO1,M
MEV,2021-10-12 00:35,-119.7500,38.9963,1441.42,37.40,23.00,55.68,20.00,18.00,0.00,29.94,M,7.00,24.00,FEW,SCT,BKN,M,300.00,3500.00,6000.00,M,-RA,M,M,M,M,M,M,26.86,KMEV 120035Z AUTO 02018G24KT 7SM -RA FEW003 SCT035 BKN060 03/M05 A2994 RMK AO2,M
BVU,2021-10-12 00:35,-114.8611,35.9475,671.00,66.20,8.60,10.27,240.00,26.00,0.00,29.40,M,4.00,36.00,CLR,M,M,M,M,M,M,M,HZ,M,M,M,M,M,M,66.20,KBVU 120035Z AUTO 24026G36KT 4SM HZ CLR 19/M13 A2940 RMK AO2,M
HTH,2021-10-12 00:35,-118.6315,38.5448,1282.89,37.40,24.80,60.04,310.00,17.00,0.00,29.90,M,10.00,23.00,CLR,M,M,M,M,M,M,M,M,M,M,M,M,M,M,27.15,KHTH 120035Z AUTO 31017G23KT 10SM CLR 03/M04 A2990 RMK A01,M
05U,2021-10-12 00:35,-116.0051,39.6042,1811.23,32.00,24.80,74.44,340.00,12.00,0.00,29.81,M,10.00,M,BKN,BKN,OVC,M,2500.00,4000.00,5500.00,M,M,M,M,M,M,M,M,22.00,K05U 120035Z AUTO 34012KT 10SM BKN025 BKN040 OVC055 M00/M04 A2981 RMK A01,M
RTS,2021-10-12 00:35,-119.8764,39.6682,1539.00,37.40,19.40,47.80,360.00,15.00,0.00,29.96,M,10.00,20.00,CLR,M,M,M,M,M,M,M,M,M,M,M,M,M,M,27.78,KRTS 120035Z AUTO 36015G20KT 10SM CLR 03/M07 A2996 RMK AO2,M
TMT,2021-10-12 00:35,-117.1971,39.4643,1749.34,28.90,27.70,95.20,20.00,5.00,0.00,29.87,M,1.75,M,SCT,BKN,OVC,M,900.00,1500.00,2400.00,M,-SN,M,M,M,M,M,M,22.71,KTMT 120035Z AUTO 02005KT 1 3/4SM -SN SCT009 BKN015 OVC024 M02/M02 A2987 RMK AO2 VIS 1V5 T10171024,M
INS,2021-10-12 00:38,-115.6733,36.5872,955.00,46.40,37.40,70.68,320.00,16.00,0.00,29.59,1000.60,10.00,30.00,BKN,OVC,M,M,3100.00,3800.00,M,M,-RA,M,M,M,M,M,M,39.19,KINS 120038Z AUTO 32016G30KT 10SM -RA BKN031 OVC038 08/03 A2959 RMK AO2 RAE2359RAB2359E2359RAB2359 PRESRR SLP006 $,M
ELY,2021-10-12 00:40,-114.8453,39.2950,1909.00,28.90,28.90,100.00,10.00,14.00,0.02,29.71,M,1.00,M,VV ,M,M,M,1500.00,M,M,M,-SN BR,M,M,M,M,M,M,17.17,KELY 120040Z AUTO 01014KT 1SM -SN BR VV015 M02/M02 A2971 RMK AO2 P0002 T10171017 $,M
HND,2021-10-12 00:41,-115.1344,35.9729,742.79,62.60,19.40,18.71,260.00,20.00,0.00,29.45,M,2.00,30.00,BKN,M,M,M,2600.00,M,M,M,HZ,M,M,M,36.00,220.00,2021-10-12 00:10,62.60,KHND 120041Z 26020G30KT 2SM HZ BKN026 17/M07 A2945 RMK AO2 PK WND 22036/0010,M
INS,2021-10-12 00:43,-115.6733,36.5872,955.00,46.40,37.40,70.68,320.00,14.00,0.00,29.59,1000.60,10.00,25.00,BKN,OVC,M,M,2900.00,3800.00,M,M,RA,M,M,M,M,M,M,39.72,KINS 120043Z AUTO 32014G25KT 10SM RA BKN029 OVC038 08/03 A2959 RMK AO2 RAE2359RAB2359E2359RAB2359 SLP006 $,M
CXP,2021-10-12 00:50,-119.7326,39.1923,1431.00,39.20,19.40,44.55,350.00,10.00,0.00,29.95,M,10.00,20.00,FEW,FEW,M,M,3100.00,4300.00,M,M,M,M,M,M,M,M,M,32.00,KCXP 120050Z AUTO 35010G20KT 10SM FEW031 FEW043 04/M07 A2995 RMK AO2,M
LOL,2021-10-12 00:53,-118.5701,40.0684,1192.43,45.00,17.10,32.28,360.00,19.00,0.00,29.90,1012.40,10.00,27.00,CLR,M,M,M,M,M,M,M,M,M,M,M,29.00,360.00,2021-10-12 00:18,36.63,KLOL 120053Z AUTO 36019G27KT 10SM CLR 07/M08 A2990 RMK AO2 PK WND 36029/0018 SLP124 T00721083,M
DRA,2021-10-12 00:53,-116.0278,36.6206,1009.00,45.00,37.00,73.37,10.00,18.00,0.09,29.62,1001.30,7.00,25.00,OVC,M,M,M,2500.00,M,M,M,RA,M,M,M,40.00,360.00,2021-10-12 00:29,36.86,KDRA 120053Z AUTO 01018G25KT 7SM RA OVC025 07/03 A2962 RMK AO2 PK WND 36040/0029 SLP013 P0009 T00720028 $,M
P68,2021-10-12 00:53,-116.0056,39.6014,1993.00,30.90,24.10,75.59,350.00,13.00,0.00,29.79,1008.40,M,M,M,M,M,M,M,M,M,M,M,M,M,M,M,M,M,20.16,KP68 120053Z AUTO 35013KT M01/M04 A2979 RMK AO1 SLP084 T10061044,M
VGT,2021-10-12 00:53,-115.1933,36.2111,667.00,60.00,38.00,43.61,310.00,32.00,T,29.41,996.70,10.00,47.00,FEW,FEW,M,M,4900.00,9000.00,M,M,-RA DU,M,M,M,47.00,320.00,2021-10-12 00:47,60.10,KVGT 120053Z 31032G47KT 10SM -RA DU FEW049 FEW090 16/03 A2941 RMK AO2 PK WND 32047/0047 WSHFT 0009 RAB35 SLP967 P0000 T01560033,M
ELY,2021-10-12 00:53,-114.8453,39.2950,1909.00,28.90,28.90,100.00,20.00,14.00,0.02,29.71,1005.30,1.25,M,FEW,OVC,M,M,300.00,1800.00,M,M,-SN BR,M,M,M,M,M,M,17.17,KELY 120053Z AUTO 02014KT 1 1/4SM -SN BR FEW003 OVC018 M02/M02 A2971 RMK AO2 SLP053 P0002 T10171017 $,M
BAM,2021-10-12 00:55,-116.8743,40.5990,1382.36,41.00,30.20,65.16,20.00,3.00,0.00,29.86,M,10.00,M,SCT,SCT,BKN,M,4500.00,7500.00,8500.00,M,M,M,M,M,M,M,M,38.98,KBAM 120055Z AUTO 02003KT 10SM SCT045 SCT075 BKN085 05/M01 A2986 RMK AO1,M
RTS,2021-10-12 00:55,-119.8764,39.6682,1539.00,39.20,14.00,35.26,360.00,14.00,0.00,29.96,M,10.00,21.00,CLR,M,M,M,M,M,M,M,M,M,M,M,M,M,M,30.44,KRTS 120055Z AUTO 36014G21KT 10SM CLR 04/M10 A2996 RMK AO2,M
HTH,2021-10-12 00:55,-118.6315,38.5448,1282.89,37.40,28.40,69.67,330.00,24.00,0.00,29.91,M,10.00,31.00,FEW,FEW,SCT,M,3500.00,4000.00,6500.00,M,M,M,M,M,M,M,M,25.34,KHTH 120055Z AUTO 33024G31KT 10SM FEW035 FEW040 SCT065 03/M02 A2991 RMK A01,M
BVU,2021-10-12 00:55,-114.8611,35.9475,671.00,66.20,12.20,12.06,270.00,21.00,0.00,29.40,M,4.00,35.00,FEW,M,M,M,12000.00,M,M,M,HZ,M,M,M,M,M,M,66.20,KBVU 120055Z AUTO 27021G35KT 4SM HZ FEW120 19/M11 A2940 RMK AO2,M
TMT,2021-10-12 00:55,-117.1971,39.4643,1749.34,30.00,28.40,93.68,0.00,0.00,0.00,29.87,M,7.00,M,SCT,BKN,OVC,M,900.00,2500.00,3500.00,M,-SN,M,M,M,M,M,M,30.00,KTMT 120055Z AUTO 00000KT 7SM -SN SCT009 BKN025 OVC035 M01/M02 A2987 RMK AO2 T10111020,M
RNO,2021-10-12 00:55,-119.7711,39.4839,1341.00,41.00,21.00,44.47,340.00,10.00,T,29.95,1013.70,10.00,M,BKN,BKN,M,M,6000.00,8500.00,M,M,M,M,M,M,M,M,M,34.25,KRNO 120055Z 34010KT 10SM BKN060 BKN085 05/M06 A2995 RMK AO2 RAE22 SLP137 SH VC N THRU SE P0000 T00501061 $,M
05U,2021-10-12 00:55,-116.0051,39.6042,1811.23,32.00,23.00,69.04,340.00,10.00,0.00,29.82,M,10.00,16.00,FEW,OVC,M,M,2400.00,4800.00,M,M,M,M,M,M,M,M,M,22.97,K05U 120055Z AUTO 34010G16KT 10SM FEW024 OVC048 M00/M05 A2982 RMK A01,M
MEV,2021-10-12 00:55,-119.7500,38.9963,1441.42,37.40,23.00,55.68,10.00,20.00,0.00,29.94,M,10.00,30.00,FEW,SCT,SCT,M,2900.00,4900.00,6000.00,M,M,M,M,M,M,M,M,26.31,KMEV 120055Z AUTO 01020G30KT 10SM FEW029 SCT049 SCT060 03/M05 A2994 RMK AO2,M
WMC,2021-10-12 00:56,-117.8072,40.9019,1315.00,42.00,23.00,46.37,350.00,18.00,0.00,29.89,1012.00,10.00,28.00,SCT,OVC,M,M,7000.00,9500.00,M,M,M,M,M,M,30.00,360.00,2021-10-12 00:36,33.04,KWMC 120056Z AUTO 35018G28KT 10SM SCT070 OVC095 06/M05 A2989 RMK AO2 PK WND 36030/0036 SLP120 T00561050 TSNO,M
HND,2021-10-12 00:56,-115.1344,35.9729,742.79,62.00,21.00,20.38,260.00,10.00,0.00,29.46,998.10,2.00,21.00,OVC,M,M,M,2600.00,M,M,M,HZ,M,M,M,36.00,220.00,2021-10-12 00:10,62.10,KHND 120056Z 26010G21KT 2SM HZ OVC026 17/M06 A2946 RMK AO2 PK WND 22036/0010 SLP981 T01671061,M
NFL,2021-10-12 00:56,-118.7010,39.4166,1199.00,42.00,28.00,57.08,350.00,14.00,0.00,29.91,1010.10,10.00,18.00,FEW,SCT,M,M,5000.00,7500.00,M,M,M,M,M,M,M,M,M,34.18,KNFL 120056Z AUTO 35014G18KT 10SM FEW050 SCT075 06/M02 A2991 RMK AO2 SLP101 T00561022,M
TPH,2021-10-12 00:56,-117.0904,38.0505,1654.00,39.00,19.00,44.14,360.00,28.00,0.00,29.74,1007.00,10.00,34.00,FEW,M,M,M,12000.00,M,M,M,M,M,M,M,36.00,20.00,2021-10-12 00:11,26.69,KTPH 120056Z AUTO 36028G34KT 10SM FEW120 04/M07 A2974 RMK AO2 PK WND 02036/0011 SLP070 T00391072,M
EKO,2021-10-12 00:56,-115.7860,40.8242,1367.00,39.00,24.10,54.77,360.00,8.00,0.00,29.80,1009.00,10.00,M,BKN,OVC,M,M,3900.00,5000.00,M,M,M,M,M,M,M,M,M,32.74,KEKO 120056Z AUTO 36008KT 10SM BKN039 OVC050 04/M04 A2980 RMK AO2 SLP090 T00391044,M
LAS,2021-10-12 00:56,-115.1634,36.0719,663.00,63.00,24.10,22.50,320.00,13.00,0.00,29.45,995.80,5.00,22.00,FEW,SCT,BKN,M,3000.00,12000.00,25000.00,M,BLDU,M,M,M,38.00,260.00,2021-10-12 00:11,63.00,KLAS 120056Z 32013G22KT 5SM BLDU FEW030 SCT120 BKN250 17/M04 A2945 RMK AO2 PK WND 26038/0011 SLP958 VIS HIR N T01721044 $,M
LSV,2021-10-12 00:58,-115.0343,36.2362,570.00,58.60,39.60,49.17,290.00,33.00,0.01,29.40,994.70,8.00,43.00,CLR,M,M,M,M,M,M,M,M,M,M,M,43.00,280.00,2021-10-12 00:03,58.60,KLSV 120058Z 29033G43KT 8SM CLR 15/04 A2940 RMK PK WND 28043/03 SLP947 P0001 T01480042 $,M
INS,2021-10-12 00:58,-115.6733,36.5872,955.00,44.80,37.40,75.10,310.00,15.00,0.01,29.61,1001.50,10.00,M,OVC,M,M,M,2600.00,M,M,M,RA,M,M,M,31.00,340.00,2021-10-12 00:19,37.37,KINS 120058Z AUTO 31015KT 10SM RA OVC026 07/03 A2961 RMK AO2 PK WND 34031/19 RAE2359RAB2359E2359RAB2359 PRESRR SLP015 P0001 T00710030 $,M
ELY,2021-10-12 01:05,-114.8453,39.2950,1909.00,28.90,28.90,100.00,20.00,15.00,T,29.71,M,0.50,M,FEW,OVC,M,M,300.00,1800.00,M,M,SN FZFG,M,M,M,M,M,M,16.76,KELY 120105Z AUTO 02015KT 1/2SM SN FZFG FEW003 OVC018 M02/M02 A2971 RMK AO2 P0000 T10171017 $,M
CXP,2021-10-12 01:10,-119.7326,39.1923,1431.00,39.20,19.40,44.55,360.00,8.00,0.00,29.96,M,10.00,16.00,FEW,M,M,M,1600.00,M,M,M,M,M,M,M,M,M,M,32.98,KCXP 120110Z AUTO 36008G16KT 10SM FEW016 04/M07 A2996 RMK AO2,M
RTS,2021-10-12 01:15,-119.8764,39.6682,1539.00,39.20,12.20,32.58,360.00,17.00,0.00,29.96,M,10.00,23.00,FEW,SCT,M,M,8000.00,9000.00,M,M,M,M,M,M,M,M,M,29.51,KRTS 120115Z AUTO 36017G23KT 10SM FEW080 SCT090 04/M11 A2996 RMK AO2,M
05U,2021-10-12 01:15,-116.0051,39.6042,1811.23,32.00,24.80,74.44,340.00,9.00,0.00,29.82,M,10.00,M,OVC,M,M,M,4700.00,M,M,M,M,M,M,M,M,M,M,23.51,K05U 120115Z AUTO 34009KT 10SM OVC047 M00/M04 A2982 RMK A01,M
MEV,2021-10-12 01:15,-119.7500,38.9963,1441.42,37.40,21.20,51.61,340.00,15.00,0.00,29.94,M,10.00,21.00,FEW,SCT,SCT,M,3900.00,4500.00,5000.00,M,M,M,M,M,M,M,M,27.78,KMEV 120115Z AUTO 34015G21KT 10SM FEW039 SCT045 SCT050 03/M06 A2994 RMK AO2,M
BAM,2021-10-12 01:15,-116.8743,40.5990,1382.36,39.20,30.20,69.88,360.00,3.00,0.00,29.86,M,10.00,M,SCT,BKN,BKN,M,4300.00,5500.00,6500.00,M,M,M,M,M,M,M,M,36.92,KBAM 120115Z AUTO 36003KT 10SM SCT043 BKN055 BKN065 04/M01 A2986 RMK AO1,M
HTH,2021-10-12 01:15,-118.6315,38.5448,1282.89,37.40,24.80,60.04,330.00,15.00,0.00,29.91,M,10.00,25.00,SCT,SCT,SCT,M,3400.00,5000.00,6500.00,M,M,M,M,M,M,M,M,27.78,KHTH 120115Z AUTO 33015G25KT 10SM SCT034 SCT050 SCT065 03/M04 A2991 RMK A01,M
TMT,2021-10-12 01:15,-117.1971,39.4643,1749.34,29.10,27.30,92.88,20.00,7.00,0.00,29.87,M,1.00,20.00,BKN,OVC,M,M,900.00,1700.00,M,M,-SN,M,M,M,M,M,M,21.24,KTMT 120115Z AUTO 02007G20KT 1SM -SN BKN009 OVC017 M02/M03 A2987 RMK AO2 T10161026,M
BVU,2021-10-12 01:15,-114.8611,35.9475,671.00,64.40,15.80,15.04,280.00,25.00,0.00,29.42,M,2.50,34.00,SCT,SCT,BKN,M,2000.00,2500.00,12000.00,M,HZ,M,M,M,M,M,M,64.40,KBVU 120115Z AUTO 28025G34KT 2 1/2SM HZ SCT020 SCT025 BKN120 18/M09 A2942 RMK AO2,M
ELY,2021-10-12 01:16,-114.8453,39.2950,1909.00,28.90,28.90,100.00,20.00,14.00,T,29.71,M,1.00,M,FEW,OVC,M,M,300.00,1400.00,M,M,-SN BR,M,M,M,M,M,M,17.17,KELY 120116Z AUTO 02014KT 1SM -SN BR FEW003 OVC014 M02/M02 A2971 RMK AO2 P0000 T10171017 $,M
RNO,2021-10-12 01:17,-119.7711,39.4839,1341.00,40.00,25.00,54.90,40.00,13.00,T,29.96,M,8.00,26.00,BKN,OVC,M,M,5500.00,7500.00,M,M,GS,M,M,M,26.00,10.00,2021-10-12 01:10,31.69,KRNO 120117Z 04013G26KT 8SM GS BKN055 OVC075 04/M04 A2996 RMK AO2 PK WND 01026/0110 WSHFT 0102 RAB13E16GSB16 GS LGT P0000 T00441039 $,M
HND,2021-10-12 01:19,-115.1344,35.9729,742.79,62.60,26.60,25.32,280.00,15.00,0.00,29.46,M,3.00,M,SCT,OVC,M,M,2800.00,3200.00,M,M,HZ,M,M,M,M,M,M,62.60,KHND 120119Z 28015KT 3SM HZ SCT028 OVC032 17/M03 A2946 RMK AO2,M
CXP,2021-10-12 01:30,-119.7326,39.1923,1431.00,37.40,23.00,55.68,20.00,15.00,0.00,29.97,M,3.00,21.00,FEW,SCT,BKN,M,600.00,1700.00,3700.00,M,-UP,M,M,M,M,M,M,27.78,KCXP 120130Z AUTO 02015G21KT 3SM -UP FEW006 SCT017 BKN037 03/M05 A2997 RMK AO2,M
RNO,2021-10-12 01:31,-119.7711,39.4839,1341.00,39.00,24.10,54.77,30.00,14.00,T,29.96,M,6.00,22.00,BKN,BKN,M,M,7000.00,9000.00,M,M,-GSRA,M,M,M,26.00,10.00,2021-10-12 01:10,30.19,KRNO 120131Z 03014G22KT 6SM -GSRA BKN070 BKN090 04/M04 A2996 RMK AO2 PK WND 01026/0110 WSHFT 0102 RAB13E16B31GSB16 GS LGT P0000 T00391044 $,M
MEV,2021-10-12 01:35,-119.7500,38.9963,1441.42,37.40,21.20,51.61,330.00,13.00,0.00,29.95,M,10.00,M,SCT,BKN,M,M,4100.00,4900.00,M,M,M,M,M,M,M,M,M,28.49,KMEV 120135Z AUTO 33013KT 10SM SCT041 BKN049 03/M06 A2995 RMK AO2,M
BVU,2021-10-12 01:35,-114.8611,35.9475,671.00,62.60,32.00,31.56,310.00,22.00,0.00,29.42,M,4.00,33.00,FEW,SCT,BKN,M,2100.00,6500.00,7500.00,M,HZ,M,M,M,M,M,M,62.60,KBVU 120135Z AUTO 31022G33KT 4SM HZ FEW021 SCT065 BKN075 17/M00 A2942 RMK AO2,M
RTS,2021-10-12 01:35,-119.8764,39.6682,1539.00,37.40,14.00,37.84,350.00,17.00,0.00,29.96,M,10.00,24.00,FEW,SCT,BKN,M,5000.00,6500.00,9000.00,M,M,M,M,M,M,M,M,27.15,KRTS 120135Z AUTO 35017G24KT 10SM FEW050 SCT065 BKN090 03/M10 A2996 RMK AO2,M
05U,2021-10-12 01:35,-116.0051,39.6042,1811.23,32.00,24.80,74.44,350.00,9.00,0.00,29.81,M,10.00,M,OVC,M,M,M,4500.00,M,M,M,M,M,M,M,M,M,M,23.51,K05U 120135Z AUTO 35009KT 10SM OVC045 M00/M04 A2981 RMK A01,M
BAM,2021-10-12 01:35,-116.8743,40.5990,1382.36,41.00,30.20,65.16,350.00,5.00,0.00,29.87,M,10.00,M,SCT,BKN,OVC,M,4100.00,5500.00,6500.00,M,M,M,M,M,M,M,M,37.08,KBAM 120135Z AUTO 35005KT 10SM SCT041 BKN055 OVC065 05/M01 A2987 RMK AO1,M
HTH,2021-10-12 01:35,-118.6315,38.5448,1282.89,37.40,26.60,64.70,350.00,21.00,0.00,29.91,M,10.00,M,BKN,BKN,OVC,M,3600.00,4100.00,7500.00,M,M,M,M,M,M,M,M,26.06,KHTH 120135Z AUTO 35021KT 10SM BKN036 BKN041 OVC075 03/M03 A2991 RMK A01,M
TMT,2021-10-12 01:35,-117.1971,39.4643,1749.34,29.30,27.50,92.89,350.00,7.00,0.00,29.86,M,7.00,M,SCT,BKN,OVC,M,1000.00,2900.00,3800.00,M,-SN,M,M,M,M,M,M,21.49,KTMT 120135Z AUTO 35007KT 7SM -SN SCT010 BKN029 OVC038 M01/M02 A2986 RMK AO2 T10151025,M
ELY,2021-10-12 01:39,-114.8453,39.2950,1909.00,28.90,28.90,100.00,10.00,13.00,0.01,29.72,M,1.50,M,FEW,OVC,M,M,400.00,1500.00,M,M,-SN BR,M,M,M,M,M,M,17.60,KELY 120139Z AUTO 01013KT 1 1/2SM -SN BR FEW004 OVC015 M02/M02 A2972 RMK AO2 P0001 T10171017 $,M
INS,2021-10-12 01:44,-115.6733,36.5872,955.00,42.80,35.60,75.50,330.00,19.00,0.00,29.65,1002.90,5.00,25.00,OVC,M,M,M,2400.00,M,M,M,+RA,M,M,M,M,M,M,33.72,KINS 120144Z AUTO 33019G25KT 5SM +RA OVC024 06/02 A2965 RMK AO2 SLP029 $,M
RNO,2021-10-12 01:46,-119.7711,39.4839,1341.00,39.00,23.00,52.30,30.00,6.00,T,29.96,M,10.00,M,BKN,BKN,M,M,7500.00,9000.00,M,M,M,M,M,M,26.00,10.00,2021-10-12 01:10,33.96,KRNO 120146Z 03006KT 10SM BKN075 BKN090 04/M05 A2996 RMK AO2 PK WND 01026/0110 WSHFT 0102 RAB13E16B31E41GSB16E41 VIRGA AND SH ALQDS P0000 T00391050 $,M
INS,2021-10-12 01:49,-115.6733,36.5872,955.00,41.00,35.60,80.93,330.00,15.00,0.00,29.65,1003.10,4.00,25.00,OVC,M,M,M,2400.00,M,M,M,+RA,M,M,M,M,M,M,32.45,KINS 120149Z AUTO 33015G25KT 4SM +RA OVC024 05/02 A2965 RMK AO2 SLP031 $,M
CXP,2021-10-12 01:50,-119.7326,39.1923,1431.00,35.60,26.60,69.46,340.00,9.00,0.00,29.96,M,2.00,23.00,SCT,BKN,OVC,M,400.00,2500.00,5000.00,M,-UP,M,M,M,M,M,M,27.99,KCXP 120150Z AUTO 34009G23KT 2SM -UP SCT004 BKN025 OVC050 02/M03 A2996 RMK AO2,M
LOL,2021-10-12 01:53,-118.5701,40.0684,1192.43,42.00,21.00,42.62,350.00,20.00,0.00,29.92,1013.60,10.00,M,SCT,M,M,M,6500.00,M,M,M,M,M,M,M,27.00,360.00,2021-10-12 01:42,32.55,KLOL 120153Z AUTO 35020KT 10SM SCT065 06/M06 A2992 RMK AO2 PK WND 36027/0142 SLP136 T00561061,M
P68,2021-10-12 01:53,-116.0056,39.6014,1993.00,30.90,24.10,75.59,350.00,13.00,0.00,29.79,1008.10,M,25.00,M,M,M,M,M,M,M,M,M,M,M,M,M,M,M,20.16,KP68 120153Z AUTO 35013G25KT M01/M04 A2979 RMK AO1 SLP081 T10061044,M
DRA,2021-10-12 01:53,-116.0278,36.6206,1009.00,44.00,35.00,70.43,360.00,14.00,0.07,29.63,1002.30,10.00,29.00,BKN,OVC,M,M,2600.00,3700.00,M,M,-RA,M,M,M,33.00,10.00,2021-10-12 01:10,36.76,KDRA 120153Z AUTO 36014G29KT 10SM -RA BKN026 OVC037 07/02 A2963 RMK AO2 PK WND 01033/0110 SLP023 P0007 T00670017 $,M
VGT,2021-10-12 01:53,-115.1933,36.2111,667.00,55.00,35.00,46.91,310.00,33.00,T,29.42,997.10,10.00,44.00,CLR,M,M,M,M,M,M,M,-RA DU,M,M,M,45.00,300.00,2021-10-12 01:34,55.00,KVGT 120153Z 31033G44KT 10SM -RA DU CLR 13/02 A2942 RMK AO2 PK WND 30045/0134 SLP971 P0000 T01280017,M
ELY,2021-10-12 01:53,-114.8453,39.2950,1909.00,28.90,28.90,100.00,10.00,11.00,0.01,29.73,1006.00,2.00,M,SCT,OVC,M,M,400.00,1700.00,M,M,-SN BR,M,M,M,M,M,M,18.55,KELY 120153Z AUTO 01011KT 2SM -SN BR SCT004 OVC017 M02/M02 A2973 RMK AO2 SLP060 P0001 T10171017 $,M
05U,2021-10-12 01:55,-116.0051,39.6042,1811.23,32.00,24.80,74.44,340.00,12.00,0.00,29.81,M,10.00,M,OVC,M,M,M,4700.00,M,M,M,M,M,M,M,M,M,M,22.00,K05U 120155Z AUTO 34012KT 10SM OVC047 M00/M04 A2981 RMK A01,M
BVU,2021-10-12 01:55,-114.8611,35.9475,671.00,57.20,35.60,44.19,340.00,27.00,0.00,29.45,M,10.00,32.00,FEW,SCT,OVC,M,3100.00,7500.00,11000.00,M,M,M,M,M,M,M,M,57.20,KBVU 120155Z AUTO 34027G32KT 10SM FEW031 SCT075 OVC110 14/02 A2945 RMK AO2,M
HTH,2021-10-12 01:55,-118.6315,38.5448,1282.89,35.60,26.60,69.46,350.00,16.00,0.00,29.91,M,10.00,M,SCT,BKN,OVC,M,2700.00,3600.00,7000.00,M,M,M,M,M,M,M,M,25.11,KHTH 120155Z AUTO 35016KT 10SM SCT027 BKN036 OVC070 02/M03 A2991 RMK A01,M
BAM,2021-10-12 01:55,-116.8743,40.5990,1382.36,41.00,30.20,65.16,340.00,7.00,0.00,29.87,M,10.00,M,BKN,OVC,M,M,5000.00,6500.00,M,M,M,M,M,M,M,M,M,35.75,KBAM 120155Z AUTO 34007KT 10SM BKN050 OVC065 05/M01 A2987 RMK AO1,M
RNO,2021-10-12 01:55,-119.7711,39.4839,1341.00,39.00,21.90,49.93,340.00,14.00,T,29.96,1014.50,10.00,20.00,BKN,BKN,M,M,7500.00,9000.00,M,M,M,M,M,M,26.00,10.00,2021-10-12 01:10,30.19,KRNO 120155Z 34014G20KT 10SM BKN075 BKN090 04/M06 A2996 RMK AO2 PK WND 01026/0110 WSHFT 0102 RAB13E16B31E41GSB16E41 SLP145 VIRGA AND SH ALQDS P0000 T00391056 $,M
TMT,2021-10-12 01:55,-117.1971,39.4643,1749.34,29.10,27.50,93.65,350.00,4.00,0.00,29.87,M,10.00,M,OVC,M,M,M,3000.00,M,M,M,M,M,M,M,M,M,M,24.03,KTMT 120155Z AUTO 35004KT 10SM OVC030 M02/M02 A2987 RMK AO2 T10161025,M
MEV,2021-10-12 01:55,-119.7500,38.9963,1441.42,33.80,28.40,80.36,20.00,20.00,0.00,29.97,M,1.25,26.00,BKN,BKN,OVC,M,500.00,1500.00,3900.00,M,-SN HZ,M,M,M,M,M,M,21.53,KMEV 120155Z AUTO 02020G26KT 1 1/4SM -SN HZ BKN005 BKN015 OVC039 01/M02 A2997 RMK AO2 VIS 1/2V5,M
RTS,2021-10-12 01:55,-119.8764,39.6682,1539.00,37.40,14.00,37.84,360.00,20.00,0.00,29.96,M,10.00,M,FEW,SCT,SCT,M,4600.00,5500.00,7500.00,M,M,M,M,M,M,M,M,26.31,KRTS 120155Z AUTO 36020KT 10SM FEW046 SCT055 SCT075 03/M10 A2996 RMK AO2,M
WMC,2021-10-12 01:56,-117.8072,40.9019,1315.00,39.00,27.00,61.78,340.00,11.00,0.00,29.91,1012.90,10.00,24.00,OVC,M,M,M,7000.00,M,M,M,M,M,M,M,30.00,350.00,2021-10-12 01:02,31.31,KWMC 120156Z AUTO 34011G24KT 10SM OVC070 04/M03 A2991 RMK AO2 PK WND 35030/0102 SLP129 T00391028 TSNO,M
TPH,2021-10-12 01:56,-117.0904,38.0505,1654.00,37.00,17.10,43.99,360.00,19.00,0.00,29.75,1007.30,10.00,M,CLR,M,M,M,M,M,M,M,M,M,M,M,34.00,360.00,2021-10-12 00:58,26.05,KTPH 120156Z AUTO 36019KT 10SM CLR 03/M08 A2975 RMK AO2 PK WND 36034/0058 SLP073 T00281083,M
EKO,2021-10-12 01:56,-115.7860,40.8242,1367.00,38.00,24.10,57.18,M,3.00,0.00,29.81,1010.20,10.00,M,FEW,BKN,BKN,M,4200.00,4900.00,7500.00,M,M,M,M,M,M,M,M,35.43,KEKO 120156Z AUTO VRB03KT 10SM FEW042 BKN049 BKN075 03/M04 A2981 RMK AO2 SLP102 T00331044,M
NFL,2021-10-12 01:56,-118.7010,39.4166,1199.00,39.00,26.10,59.52,360.00,7.00,0.00,29.91,1010.30,10.00,M,BKN,M,M,M,6500.00,M,M,M,M,M,M,M,M,M,M,33.31,KNFL 120156Z AUTO 36007KT 10SM BKN065 04/M03 A2991 RMK AO2 SLP103 T00391033,M
HND,2021-10-12 01:56,-115.1344,35.9729,742.79,57.00,34.00,41.76,350.00,18.00,0.00,29.46,998.40,10.00,21.00,SCT,M,M,M,3600.00,M,M,M,M,M,M,M,M,M,M,57.00,KHND 120156Z 35018G21KT 10SM SCT036 14/01 A2946 RMK AO2 SLP984 T01390011,M
LAS,2021-10-12 01:56,-115.1634,36.0719,663.00,57.00,32.00,38.54,320.00,21.00,0.00,29.43,995.30,10.00,38.00,BKN,BKN,M,M,4500.00,25000.00,M,M,M,M,M,M,38.00,340.00,2021-10-12 01:53,57.00,KLAS 120156Z 32021G38KT 10SM BKN045 BKN250 14/00 A2943 RMK AO2 PK WND 34038/0153 SLP953 T01390000 $,M
LSV,2021-10-12 01:57,-115.0343,36.2362,570.00,52.50,37.20,55.86,300.00,41.00,0.02,29.42,995.50,3.00,53.00,BKN,M,M,M,12000.00,M,M,M,BLDU,M,M,M,M,M,M,52.50,KLSV 120157Z 30041G53KT 3SM BLDU BKN120 11/03 A2942 RMK SLP955 P0002 T01140029 $,M
INS,2021-10-12 01:58,-115.6733,36.5872,955.00,41.20,36.00,81.91,330.00,15.00,T,29.65,1003.10,4.00,24.00,OVC,M,M,M,2200.00,M,M,M,+RA,M,M,M,M,M,M,32.71,KINS 120158Z AUTO 33015G24KT 4SM +RA OVC022 05/02 A2965 RMK AO2 SLP031 P0000 T00510023 $,M
CXP,2021-10-12 02:10,-119.7326,39.1923,1431.00,35.60,23.00,59.79,360.00,9.00,0.00,29.96,M,10.00,15.00,FEW,SCT,BKN,M,400.00,3200.00,10000.00,M,M,M,M,M,M,M,M,27.99,KCXP 120210Z AUTO 36009G15KT 10SM FEW004 SCT032 BKN100 02/M05 A2996 RMK AO2,M
TMT,2021-10-12 02:15,-117.1971,39.4643,1749.34,29.30,26.80,90.25,330.00,6.00,0.00,29.87,M,10.00,M,BKN,OVC,M,M,2500.00,3100.00,M,M,M,M,M,M,M,M,M,22.28,KTMT 120215Z AUTO 33006KT 10SM BKN025 OVC031 M01/M03 A2987 RMK AO2 T10151029,M
BVU,2021-10-12 02:15,-114.8611,35.9475,671.00,55.40,33.80,43.90,330.00,23.00,0.00,29.46,M,10.00,31.00,BKN,BKN,OVC,M,4400.00,7000.00,12000.00,M,M,M,M,M,M,M,M,55.40,KBVU 120215Z AUTO 33023G31KT 10SM BKN044 BKN070 OVC120 13/01 A2946 RMK AO2,M
HTH,2021-10-12 02:15,-118.6315,38.5448,1282.89,35.60,26.60,69.46,350.00,14.00,0.00,29.92,M,10.00,M,SCT,BKN,OVC,M,2900.00,4000.00,6500.00,M,M,M,M,M,M,M,M,25.80,KHTH 120215Z AUTO 35014KT 10SM SCT029 BKN040 OVC065 02/M03 A2992 RMK A01,M
RTS,2021-10-12 02:15,-119.8764,39.6682,1539.00,37.40,14.00,37.84,350.00,19.00,0.00,29.97,M,10.00,25.00,CLR,M,M,M,M,M,M,M,M,M,M,M,M,M,M,26.58,KRTS 120215Z AUTO 35019G25KT 10SM CLR 03/M10 A2997 RMK AO2,M
05U,2021-10-12 02:15,-116.0051,39.6042,1811.23,32.00,24.80,74.44,350.00,10.00,0.00,29.82,M,10.00,M,BKN,OVC,M,M,4500.00,5000.00,M,M,M,M,M,M,M,M,M,22.97,K05U 120215Z AUTO 35010KT 10SM BKN045 OVC050 M00/M04 A2982 RMK A01,M
MEV,2021-10-12 02:15,-119.7500,38.9963,1441.42,33.80,26.60,74.63,360.00,14.00,0.00,29.96,M,8.00,22.00,SCT,BKN,OVC,M,600.00,2600.00,9500.00,M,-RA,M,M,M,M,M,M,23.48,KMEV 120215Z AUTO 36014G22KT 8SM -RA SCT006 BKN026 OVC095 01/M03 A2996 RMK AO2,M
BAM,2021-10-12 02:15,-116.8743,40.5990,1382.36,39.20,30.20,69.88,340.00,9.00,0.00,29.88,M,10.00,M,BKN,OVC,M,M,4600.00,6500.00,M,M,M,M,M,M,M,M,M,32.47,KBAM 120215Z AUTO 34009KT 10SM BKN046 OVC065 04/M01 A2988 RMK AO1,M
INS,2021-10-12 02:18,-115.6733,36.5872,955.00,41.00,35.60,80.93,310.00,13.00,0.00,29.65,1003.30,5.00,M,OVC,M,M,M,1900.00,M,M,M,+RA,M,M,M,M,M,M,33.10,KINS 120218Z AUTO 31013KT 5SM +RA OVC019 05/02 A2965 RMK AO2 SLP033 $,M
INS,2021-10-12 02:19,-115.6733,36.5872,955.00,41.00,35.60,80.93,300.00,12.00,0.00,29.66,1003.70,5.00,M,OVC,M,M,M,1900.00,M,M,M,+RA,M,M,M,M,M,M,33.46,KINS 120219Z AUTO 30012KT 5SM +RA OVC019 05/02 A2966 RMK AO2 WSHFT 15 SLP037 $,M
ELY,2021-10-12 02:20,-114.8453,39.2950,1909.00,28.90,28.90,100.00,10.00,15.00,T,29.72,M,1.75,M,FEW,OVC,M,M,500.00,2400.00,M,M,-SN BR,M,M,M,M,M,M,16.76,KELY 120220Z AUTO 01015KT 1 3/4SM -SN BR FEW005 OVC024 M02/M02 A2972 RMK AO2 P0000 T10171017 $,M
DRA,2021-10-12 02:25,-116.0278,36.6206,1009.00,42.00,36.00,78.80,30.00,20.00,0.01,29.65,M,6.00,32.00,SCT,OVC,M,M,2200.00,3100.00,M,M,-RA,M,M,M,34.00,350.00,2021-10-12 01:55,32.55,KDRA 120225Z AUTO 03020G32KT 6SM -RA SCT022 OVC031 06/02 A2965 RMK AO2 PK WND 35034/0155 P0001 T00560022 $,M
ELY,2021-10-12 02:28,-114.8453,39.2950,1909.00,28.90,28.90,100.00,10.00,16.00,T,29.72,M,2.50,24.00,FEW,BKN,OVC,M,700.00,2600.00,3500.00,M,-SN BR,M,M,M,M,M,M,16.38,KELY 120228Z AUTO 01016G24KT 2 1/2SM -SN BR FEW007 BKN026 OVC035 M02/M02 A2972 RMK AO2 P0000 T10171017 $,M
DRA,2021-10-12 02:30,-116.0278,36.6206,1009.00,41.00,36.00,82.22,40.00,20.00,0.01,29.65,M,5.00,32.00,BKN,OVC,M,M,2000.00,3100.00,M,M,-RA,M,M,M,34.00,350.00,2021-10-12 01:55,31.09,KDRA 120230Z AUTO 04020G32KT 5SM -RA BKN020 OVC031 05/02 A2965 RMK AO2 PK WND 35034/0155 P0001 T00500022 $,M
CXP,2021-10-12 02:30,-119.7326,39.1923,1431.00,37.40,23.00,55.68,350.00,11.00,0.00,29.97,M,10.00,16.00,FEW,SCT,SCT,M,2700.00,3800.00,5000.00,M,M,M,M,M,M,M,M,29.29,KCXP 120230Z AUTO 35011G16KT 10SM FEW027 SCT038 SCT050 03/M05 A2997 RMK AO2,M
ELY,2021-10-12 02:33,-114.8453,39.2950,1909.00,28.90,28.90,100.00,10.00,16.00,T,29.72,M,3.00,25.00,FEW,OVC,M,M,700.00,3200.00,M,M,-SN BR,M,M,M,M,M,M,16.38,KELY 120233Z AUTO 01016G25KT 3SM -SN BR FEW007 OVC032 M02/M02 A2972 RMK AO2 P0000 T10171017 $,M
INS,2021-10-12 02:34,-115.6733,36.5872,955.00,41.00,35.60,80.93,330.00,15.00,0.00,29.66,1003.40,4.00,M,OVC,M,M,M,1700.00,M,M,M,+RA,M,M,M,M,M,M,32.45,KINS 120234Z AUTO 33015KT 4SM +RA OVC017 05/02 A2966 RMK AO2 SLP034 $,M
BVU,2021-10-12 02:35,-114.8611,35.9475,671.00,53.60,33.80,46.88,320.00,25.00,0.00,29.46,M,10.00,35.00,SCT,BKN,OVC,M,4300.00,5000.00,11000.00,M,M,M,M,M,M,M,M,53.60,KBVU 120235Z AUTO 32025G35KT 10SM SCT043 BKN050 OVC110 12/01 A2946 RMK AO2,M
TMT,2021-10-12 02:35,-117.1971,39.4643,1749.34,29.30,27.00,90.99,350.00,5.00,0.00,29.87,M,10.00,M,BKN,OVC,M,M,2100.00,2600.00,M,M,M,M,M,M,M,M,M,23.19,KTMT 120235Z AUTO 35005KT 10SM BKN021 OVC026 M01/M03 A2987 RMK AO2 T10151028,M
HTH,2021-10-12 02:35,-118.6315,38.5448,1282.89,35.60,26.60,69.46,10.00,12.00,0.00,29.92,M,10.00,M,FEW,SCT,BKN,M,2800.00,5000.00,6000.00,M,M,M,M,M,M,M,M,26.58,KHTH 120235Z AUTO 01012KT 10SM FEW028 SCT050 BKN060 02/M03 A2992 RMK A01,M
BAM,2021-10-12 02:35,-116.8743,40.5990,1382.36,37.40,30.20,74.98,340.00,9.00,0.00,29.88,M,10.00,M,SCT,OVC,M,M,4600.00,5500.00,M,M,M,M,M,M,M,M,M,30.23,KBAM 120235Z AUTO 34009KT 10SM SCT046 OVC055 03/M01 A2988 RMK AO1,M
MEV,2021-10-12 02:35,-119.7500,38.9963,1441.42,33.80,26.60,74.63,330.00,9.00,0.00,29.95,M,10.00,15.00,FEW,SCT,BKN,M,1200.00,5000.00,6000.00,M,M,M,M,M,M,M,M,25.75,KMEV 120235Z AUTO 33009G15KT 10SM FEW012 SCT050 BKN060 01/M03 A2995 RMK AO2,M
05U,2021-10-12 02:35,-116.0051,39.6042,1811.23,30.20,24.80,80.07,350.00,9.00,0.00,29.81,M,10.00,M,BKN,OVC,M,M,4600.00,5000.00,M,M,M,M,M,M,M,M,M,21.28,K05U 120235Z AUTO 35009KT 10SM BKN046 OVC050 M01/M04 A2981 RMK A01,M
RTS,2021-10-12 02:35,-119.8764,39.6682,1539.00,35.60,14.00,40.63,360.00,18.00,0.00,29.97,M,10.00,25.00,CLR,M,M,M,M,M,M,M,M,M,M,M,M,M,M,24.49,KRTS 120235Z AUTO 36018G25KT 10SM CLR 02/M10 A2997 RMK AO2,M
INS,2021-10-12 02:39,-115.6733,36.5872,955.00,41.00,35.60,80.93,340.00,11.00,0.00,29.66,1003.40,5.00,M,OVC,M,M,M,1700.00,M,M,M,+RA,M,M,M,M,M,M,33.84,KINS 120239Z AUTO 34011KT 5SM +RA OVC017 05/02 A2966 RMK AO2 SLP034 $,M
CXP,2021-10-12 02:50,-119.7326,39.1923,1431.00,37.40,21.20,51.61,40.00,15.00,0.00,29.96,M,10.00,M,FEW,SCT,BKN,M,2700.00,3400.00,4000.00,M,M,M,M,M,M,M,M,27.78,KCXP 120250Z AUTO 04015KT 10SM FEW027 SCT034 BKN040 03/M06 A2996 RMK AO2,M
ELY,2021-10-12 02:53,-114.8453,39.2950,1909.00,28.00,28.00,100.00,10.00,15.00,T,29.72,1005.10,4.00,M,FEW,FEW,OVC,M,700.00,2300.00,3600.00,M,-SN BR,M,M,M,M,M,M,15.59,KELY 120253Z AUTO 01015KT 4SM -SN BR FEW007 FEW023 OVC036 M02/M02 A2972 RMK AO2 SLP051 P0000 60003 T10221022 50005 $,M
VGT,2021-10-12 02:53,-115.1933,36.2111,667.00,51.00,35.00,54.13,310.00,40.00,T,29.43,997.60,10.00,54.00,CLR,M,M,M,M,M,M,M,-RA DU,M,M,M,54.00,320.00,2021-10-12 02:46,51.10,KVGT 120253Z 31040G54KT 10SM -RA DU CLR 11/02 A2943 RMK AO2 PK WND 32054/0246 SLP976 P0000 60000 T01060017 51021,M
LOL,2021-10-12 02:53,-118.5701,40.0684,1192.43,40.00,24.10,52.88,350.00,15.00,0.00,29.94,1014.10,10.00,M,BKN,BKN,M,M,7000.00,9000.00,M,M,M,M,M,M,31.00,360.00,2021-10-12 02:11,31.02,KLOL 120253Z AUTO 35015KT 10SM BKN070 BKN090 04/M04 A2994 RMK AO2 PK WND 36031/0211 SLP141 T00441044 53013,M
P68,2021-10-12 02:53,-116.0056,39.6014,1993.00,30.00,24.10,78.40,340.00,10.00,0.00,29.78,1007.90,M,M,M,M,M,M,M,M,M,M,M,M,M,M,M,M,M,20.46,KP68 120253Z AUTO 34010KT M01/M04 A2978 RMK AO1 SLP079 T10111044 50001,M
DRA,2021-10-12 02:53,-116.0278,36.6206,1009.00,41.00,35.00,79.34,20.00,22.00,0.04,29.64,1002.30,5.00,33.00,OVC,M,M,M,1900.00,M,M,M,-RA,M,M,M,34.00,350.00,2021-10-12 01:55,30.63,KDRA 120253Z AUTO 02022G33KT 5SM -RA OVC019 05/02 A2964 RMK AO2 PK WND 35034/0155 SLP023 P0004 60020 T00500017 51033 $,M
MEV,2021-10-12 02:55,-119.7500,38.9963,1441.42,32.00,26.60,80.22,320.00,9.00,0.00,29.96,M,10.00,M,FEW,SCT,BKN,M,2900.00,3600.00,4300.00,M,M,M,M,M,M,M,M,23.51,KMEV 120255Z AUTO 32009KT 10SM FEW029 SCT036 BKN043 00/M03 A2996 RMK AO2,M
BAM,2021-10-12 02:55,-116.8743,40.5990,1382.36,37.40,30.20,74.98,330.00,8.00,0.00,29.89,M,10.00,15.00,SCT,BKN,OVC,M,4900.00,6000.00,8000.00,M,M,M,M,M,M,M,M,30.76,KBAM 120255Z AUTO 33008G15KT 10SM SCT049 BKN060 OVC080 03/M01 A2989 RMK AO1,M
HTH,2021-10-12 02:55,-118.6315,38.5448,1282.89,35.60,26.60,69.46,360.00,12.00,0.00,29.92,M,10.00,M,FEW,FEW,SCT,M,3000.00,3700.00,5000.00,M,M,M,M,M,M,M,M,26.58,KHTH 120255Z AUTO 36012KT 10SM FEW030 FEW037 SCT050 02/M03 A2992 RMK A01,M
TMT,2021-10-12 02:55,-117.1971,39.4643,1749.34,28.90,27.70,95.20,340.00,9.00,0.00,29.87,M,2.50,M,SCT,BKN,OVC,M,500.00,1200.00,1900.00,M,-SN,M,M,M,M,M,M,19.66,KTMT 120255Z AUTO 34009KT 2 1/2SM -SN SCT005 BKN012 OVC019 M02/M02 A2987 RMK AO2 VIS 1V5 T10171024,M
RTS,2021-10-12 02:55,-119.8764,39.6682,1539.00,35.60,14.00,40.63,350.00,13.00,0.00,29.98,M,10.00,M,CLR,M,M,M,M,M,M,M,M,M,M,M,M,M,M,26.18,KRTS 120255Z AUTO 35013KT 10SM CLR 02/M10 A2998 RMK AO2,M
RNO,2021-10-12 02:55,-119.7711,39.4839,1341.00,39.00,19.90,45.87,30.00,11.00,0.00,29.97,1015.00,10.00,19.00,SCT,BKN,M,M,7500.00,10000.00,M,M,M,M,M,M,M,M,M,31.31,KRNO 120255Z 03011G19KT 10SM SCT075 BKN100 04/M07 A2997 RMK AO2 SLP150 SH N THRU E THRU S 60000 T00391067 53008 $,M
BVU,2021-10-12 02:55,-114.8611,35.9475,671.00,53.60,33.80,46.88,330.00,19.00,0.00,29.50,M,10.00,32.00,SCT,BKN,OVC,M,4500.00,6000.00,11000.00,M,M,M,M,M,M,M,M,53.60,KBVU 120255Z AUTO 33019G32KT 10SM SCT045 BKN060 OVC110 12/01 A2950 RMK AO2,M
05U,2021-10-12 02:55,-116.0051,39.6042,1811.23,30.20,24.80,80.07,350.00,10.00,0.00,29.81,M,10.00,M,OVC,M,M,M,4900.00,M,M,M,M,M,M,M,M,M,M,20.71,K05U 120255Z AUTO 35010KT 10SM OVC049 M01/M04 A2981 RMK A01,M
NFL,2021-10-12 02:56,-118.7010,39.4166,1199.00,38.00,28.90,69.73,340.00,6.00,0.00,29.92,1010.50,10.00,M,BKN,BKN,M,M,7000.00,9000.00,M,M,M,M,M,M,M,M,M,32.64,KNFL 120256Z AUTO 34006KT 10SM BKN070 BKN090 03/M02 A2992 RMK AO2 SLP105 T00331017 53005,M
HND,2021-10-12 02:56,-115.1344,35.9729,742.79,55.00,30.90,39.63,340.00,19.00,0.00,29.49,999.00,10.00,26.00,SCT,BKN,M,M,6000.00,7000.00,M,M,M,M,M,M,27.00,350.00,2021-10-12 02:34,55.00,KHND 120256Z 34019G26KT 10SM SCT060 BKN070 13/M01 A2949 RMK AO2 PK WND 35027/0234 SLP990 T01281006 51026,M
EKO,2021-10-12 02:56,-115.7860,40.8242,1367.00,38.00,24.10,57.18,0.00,0.00,0.00,29.81,1009.80,10.00,M,BKN,BKN,OVC,M,4000.00,7000.00,9000.00,M,M,M,M,M,M,M,M,37.90,KEKO 120256Z AUTO 00000KT 10SM BKN040 BKN070 OVC090 03/M04 A2981 RMK AO2 SLP098 T00331044 50004,M
WMC,2021-10-12 02:56,-117.8072,40.9019,1315.00,38.00,26.10,62.14,340.00,9.00,0.00,29.92,1013.50,10.00,M,BKN,OVC,M,M,7000.00,8500.00,M,M,M,M,M,M,M,M,M,30.85,KWMC 120256Z AUTO 34009KT 10SM BKN070 OVC085 03/M03 A2992 RMK AO2 SLP135 T00331033 51016 TSNO,M
TPH,2021-10-12 02:56,-117.0904,38.0505,1654.00,35.00,19.90,53.49,350.00,23.00,0.00,29.75,1006.70,10.00,31.00,CLR,M,M,M,M,M,M,M,M,M,M,M,34.00,360.00,2021-10-12 02:42,22.48,KTPH 120256Z AUTO 35023G31KT 10SM CLR 02/M07 A2975 RMK AO2 PK WND 36034/0242 SLP067 T00171067 51012,M
LAS,2021-10-12 02:56,-115.1634,36.0719,663.00,53.00,32.00,44.42,340.00,24.00,0.00,29.46,996.30,10.00,42.00,BKN,BKN,BKN,M,4500.00,8000.00,25000.00,M,M,M,M,M,43.00,320.00,2021-10-12 02:35,53.10,KLAS 120256Z 34024G42KT 10SM BKN045 BKN080 BKN250 12/00 A2946 RMK AO2 PK WND 32043/0235 SLP963 T01170000 51018 $,M
INS,2021-10-12 02:58,-115.6733,36.5872,955.00,40.00,34.70,80.86,350.00,15.00,T,29.66,1003.20,7.00,22.00,OVC,M,M,M,1700.00,M,M,M,+RA,M,M,M,M,M,M,31.28,KINS 120258Z AUTO 35015G22KT 7SM +RA OVC017 05/02 A2966 RMK AO2 SLP032 P0000 60001 T00450015 51040 $,M
LSV,2021-10-12 02:58,-115.0343,36.2362,570.00,48.20,37.00,65.02,290.00,35.00,0.02,29.43,995.80,10.00,47.00,CLR,M,M,M,M,M,M,M,M,M,M,M,59.00,300.00,2021-10-12 02:36,38.31,KLSV 120258Z 29035G47KT 10SM CLR 09/03 A2943 RMK PK WND 30059/36 SLP958 P0002 60002 T00900028 52012 $,M
ELY,2021-10-12 03:02,-114.8453,39.2950,1909.00,28.00,28.00,100.00,10.00,15.00,T,29.72,M,2.00,M,FEW,OVC,M,M,2300.00,2800.00,M,M,-SN BR,M,M,M,M,M,M,15.59,KELY 120302Z AUTO 01015KT 2SM -SN BR FEW023 OVC028 M02/M02 A2972 RMK AO2 P0000 T10221022 $,M
ELY,2021-10-12 03:10,-114.8453,39.2950,1909.00,28.00,28.00,100.00,10.00,14.00,T,29.72,M,1.50,M,OVC,M,M,M,2200.00,M,M,M,-SN BR,M,M,M,M,M,M,16.01,KELY 120310Z AUTO 01014KT 1 1/2SM -SN BR OVC022 M02/M02 A2972 RMK AO2 P0000 T10221022 $,M
CXP,2021-10-12 03:10,-119.7326,39.1923,1431.00,35.60,24.80,64.46,20.00,10.00,0.00,29.99,M,4.00,23.00,FEW,SCT,BKN,M,1000.00,2700.00,3400.00,M,-UP,M,M,M,M,M,M,27.48,KCXP 120310Z AUTO 02010G23KT 4SM -UP FEW010 SCT027 BKN034 02/M04 A2999 RMK AO2,M
HTH,2021-10-12 03:15,-118.6315,38.5448,1282.89,37.40,26.60,64.70,360.00,12.00,0.00,29.92,M,10.00,M,BKN,BKN,BKN,M,6000.00,6500.00,9000.00,M,M,M,M,M,M,M,M,28.87,KHTH 120315Z AUTO 36012KT 10SM BKN060 BKN065 BKN090 03/M03 A2992 RMK A01,M
RTS,2021-10-12 03:15,-119.8764,39.6682,1539.00,35.60,15.80,43.95,340.00,12.00,0.00,29.98,M,10.00,M,CLR,M,M,M,M,M,M,M,M,M,M,M,M,M,M,26.58,KRTS 120315Z AUTO 34012KT 10SM CLR 02/M09 A2998 RMK AO2,M
MEV,2021-10-12 03:15,-119.7500,38.9963,1441.42,33.80,26.60,74.63,320.00,8.00,0.00,29.96,M,10.00,M,FEW,OVC,M,M,4000.00,5500.00,M,M,M,M,M,M,M,M,M,26.33,KMEV 120315Z AUTO 32008KT 10SM FEW040 OVC055 01/M03 A2996 RMK AO2,M
TMT,2021-10-12 03:15,-117.1971,39.4643,1749.34,28.40,27.50,96.37,350.00,7.00,0.00,29.87,M,1.25,10.00,SCT,BKN,OVC,M,600.00,1100.00,1600.00,M,-SN,M,M,M,M,M,M,20.39,KTMT 120315Z AUTO 35007G10KT 1 1/4SM -SN SCT006 BKN011 OVC016 M02/M02 A2987 RMK AO2 T10201025,M
BVU,2021-10-12 03:15,-114.8611,35.9475,671.00,51.80,33.80,50.08,320.00,24.00,0.00,29.48,M,10.00,37.00,SCT,BKN,OVC,M,4600.00,5500.00,7500.00,M,M,M,M,M,M,M,M,51.80,KBVU 120315Z AUTO 32024G37KT 10SM SCT046 BKN055 OVC075 11/01 A2948 RMK AO2,M
BAM,2021-10-12 03:15,-116.8743,40.5990,1382.36,37.40,30.20,74.98,350.00,6.00,0.00,29.89,M,10.00,M,SCT,BKN,OVC,M,5500.00,6500.00,9000.00,M,M,M,M,M,M,M,M,32.03,KBAM 120315Z AUTO 35006KT 10SM SCT055 BKN065 OVC090 03/M01 A2989 RMK AO1,M
05U,2021-10-12 03:15,-116.0051,39.6042,1811.23,30.20,24.80,80.07,350.00,10.00,0.00,29.80,M,10.00,M,FEW,BKN,OVC,M,3600.00,4900.00,5500.00,M,M,M,M,M,M,M,M,20.71,K05U 120315Z AUTO 35010KT 10SM FEW036 BKN049 OVC055 M01/M04 A2980 RMK A01,M
ELY,2021-10-12 03:21,-114.8453,39.2950,1909.00,28.00,28.00,100.00,360.00,12.00,0.01,29.73,M,1.25,20.00,OVC,M,M,M,1800.00,M,M,M,-SN BR,M,M,M,M,M,M,16.91,KELY 120321Z AUTO 36012G20KT 1 1/4SM -SN BR OVC018 M02/M02 A2973 RMK AO2 P0001 T10221022 $,M
CXP,2021-10-12 03:30,-119.7326,39.1923,1431.00,35.60,23.00,59.79,20.00,12.00,0.00,29.98,M,9.00,M,FEW,SCT,BKN,M,500.00,2500.00,3500.00,M,M,M,M,M,M,M,M,26.58,KCXP 120330Z AUTO 02012KT 9SM FEW005 SCT025 BKN035 02/M05 A2998 RMK AO2,M
BVU,2021-10-12 03:35,-114.8611,35.9475,671.00,50.00,33.80,53.54,320.00,31.00,0.00,29.45,M,10.00,38.00,FEW,SCT,BKN,M,4500.00,6000.00,7000.00,M,M,M,M,M,M,M,M,50.00,KBVU 120335Z AUTO 32031G38KT 10SM FEW045 SCT060 BKN070 10/01 A2945 RMK AO2,M
RTS,2021-10-12 03:35,-119.8764,39.6682,1539.00,33.80,15.80,47.22,350.00,8.00,0.00,29.99,M,10.00,14.00,CLR,M,M,M,M,M,M,M,M,M,M,M,M,M,M,26.33,KRTS 120335Z AUTO 35008G14KT 10SM CLR 01/M09 A2999 RMK AO2,M
05U,2021-10-12 03:35,-116.0051,39.6042,1811.23,30.20,24.80,80.07,360.00,4.00,0.00,29.80,M,10.00,M,SCT,BKN,OVC,M,3400.00,4100.00,5000.00,M,M,M,M,M,M,M,M,25.32,K05U 120335Z AUTO 36004KT 10SM SCT034 BKN041 OVC050 M01/M04 A2980 RMK A01,M
MEV,2021-10-12 03:35,-119.7500,38.9963,1441.42,33.80,24.80,69.25,360.00,14.00,0.00,29.97,M,9.00,20.00,FEW,SCT,BKN,M,700.00,2700.00,5500.00,M,M,M,M,M,M,M,M,23.48,KMEV 120335Z AUTO 36014G20KT 9SM FEW007 SCT027 BKN055 01/M04 A2997 RMK AO2,M
TMT,2021-10-12 03:35,-117.1971,39.4643,1749.34,28.80,27.30,94.03,350.00,5.00,0.00,29.87,M,5.00,M,SCT,BKN,OVC,M,600.00,1600.00,2700.00,M,-SN,M,M,M,M,M,M,22.59,KTMT 120335Z AUTO 35005KT 5SM -SN SCT006 BKN016 OVC027 M02/M03 A2987 RMK AO2 T10181026,M
BAM,2021-10-12 03:35,-116.8743,40.5990,1382.36,37.40,30.20,74.98,360.00,4.00,0.00,29.88,M,10.00,M,SCT,OVC,M,M,5000.00,5500.00,M,M,M,M,M,M,M,M,M,33.73,KBAM 120335Z AUTO 36004KT 10SM SCT050 OVC055 03/M01 A2988 RMK AO1,M
HTH,2021-10-12 03:35,-118.6315,38.5448,1282.89,37.40,26.60,64.70,350.00,14.00,0.00,29.92,M,10.00,M,SCT,BKN,BKN,M,6000.00,7000.00,9000.00,M,M,M,M,M,M,M,M,28.12,KHTH 120335Z AUTO 35014KT 10SM SCT060 BKN070 BKN090 03/M03 A2992 RMK A01,M
DRA,2021-10-12 03:37,-116.0278,36.6206,1009.00,43.00,33.00,67.82,20.00,22.00,0.02,29.62,M,10.00,32.00,OVC,M,M,M,3200.00,M,M,M,-RA,M,M,M,35.00,20.00,2021-10-12 03:27,33.31,KDRA 120337Z AUTO 02022G32KT 10SM -RA OVC032 06/01 A2962 RMK AO2 PK WND 02035/0327 P0002 T00610006 $,M
INS,2021-10-12 03:38,-115.6733,36.5872,955.00,39.20,33.80,80.79,320.00,14.00,0.00,29.65,1002.60,10.00,18.00,FEW,OVC,M,M,1700.00,2500.00,M,M,-RA,M,M,M,M,M,M,30.44,KINS 120338Z AUTO 32014G18KT 10SM -RA FEW017 OVC025 04/01 A2965 RMK AO2 CIG 019V025 SLP026 $,M
ELY,2021-10-12 03:43,-114.8453,39.2950,1909.00,28.00,28.00,100.00,10.00,17.00,0.01,29.71,M,1.50,25.00,OVC,M,M,M,1700.00,M,M,M,-SN BR,M,M,M,M,M,M,14.83,KELY 120343Z AUTO 01017G25KT 1 1/2SM -SN BR OVC017 M02/M02 A2971 RMK AO2 P0001 T10221022 $,M
ELY,2021-10-12 03:49,-114.8453,39.2950,1909.00,28.40,28.40,100.00,20.00,18.00,0.01,29.71,M,2.00,M,FEW,OVC,M,M,900.00,1700.00,M,M,-SN BR,M,M,M,M,M,M,15.01,KELY 120349Z AUTO 02018KT 2SM -SN BR FEW009 OVC017 M02/M02 A2971 RMK AO2 P0001 $,M
CXP,2021-10-12 03:50,-119.7326,39.1923,1431.00,37.40,21.20,51.61,20.00,10.00,0.00,29.97,M,10.00,16.00,SCT,BKN,OVC,M,4600.00,5500.00,11000.00,M,M,M,M,M,M,M,M,29.74,KCXP 120350Z AUTO 02010G16KT 10SM SCT046 BKN055 OVC110 03/M06 A2997 RMK AO2,M
DRA,2021-10-12 03:53,-116.0278,36.6206,1009.00,43.00,32.00,64.88,10.00,28.00,0.02,29.62,1000.60,10.00,39.00,OVC,M,M,M,3600.00,M,M,M,M,M,M,M,39.00,10.00,2021-10-12 03:52,32.16,KDRA 120353Z AUTO 01028G39KT 10SM OVC036 06/00 A2962 RMK AO2 PK WND 01039/0352 RAE38 SLP006 P0002 T00610000 $,M
LOL,2021-10-12 03:53,-118.5701,40.0684,1192.43,39.00,25.00,56.86,350.00,10.00,0.00,29.93,1014.20,10.00,M,OVC,M,M,M,7500.00,M,M,M,M,M,M,M,M,M,M,31.75,KLOL 120353Z AUTO 35010KT 10SM OVC075 04/M04 A2993 RMK AO2 SLP142 T00391039,M
ELY,2021-10-12 03:53,-114.8453,39.2950,1909.00,28.00,28.00,100.00,10.00,16.00,0.01,29.71,1004.10,2.00,25.00,FEW,OVC,M,M,900.00,1700.00,M,M,-SN BR,M,M,M,M,M,M,15.20,KELY 120353Z AUTO 01016G25KT 2SM -SN BR FEW009 OVC017 M02/M02 A2971 RMK AO2 SLP041 P0001 T10221022 $,M
VGT,2021-10-12 03:53,-115.1933,36.2111,667.00,50.00,34.00,53.97,320.00,30.00,T,29.46,998.50,10.00,46.00,OVC,M,M,M,8500.00,M,M,M,-RA DU,M,M,M,54.00,320.00,2021-10-12 03:08,50.00,KVGT 120353Z 32030G46KT 10SM -RA DU OVC085 10/01 A2946 RMK AO2 PK WND 32054/0308 SLP985 P0000 T01000011,M
P68,2021-10-12 03:53,-116.0056,39.6014,1993.00,30.90,25.00,78.48,350.00,10.00,0.00,29.78,1008.00,M,M,M,M,M,M,M,M,M,M,M,M,M,M,M,M,M,21.59,KP68 120353Z AUTO 35010KT M01/M04 A2978 RMK AO1 SLP080 T10061039,M
BAM,2021-10-12 03:55,-116.8743,40.5990,1382.36,37.40,30.20,74.98,0.00,0.00,0.00,29.88,M,10.00,M,SCT,OVC,M,M,5000.00,9000.00,M,M,M,M,M,M,M,M,M,37.40,KBAM 120355Z AUTO 00000KT 10SM SCT050 OVC090 03/M01 A2988 RMK AO1,M
BVU,2021-10-12 03:55,-114.8611,35.9475,671.00,50.00,33.80,53.54,330.00,26.00,0.00,29.47,M,10.00,36.00,FEW,SCT,OVC,M,3900.00,5500.00,10000.00,M,M,M,M,M,M,M,M,50.00,KBVU 120355Z AUTO 33026G36KT 10SM FEW039 SCT055 OVC100 10/01 A2947 RMK AO2,M
TMT,2021-10-12 03:55,-117.1971,39.4643,1749.34,28.90,27.70,95.20,10.00,6.00,0.00,29.87,M,2.00,M,BKN,OVC,M,M,900.00,1400.00,M,M,-SN,M,M,M,M,M,M,21.80,KTMT 120355Z AUTO 01006KT 2SM -SN BKN009 OVC014 M02/M02 A2987 RMK AO2 T10171024,M
HTH,2021-10-12 03:55,-118.6315,38.5448,1282.89,37.40,26.60,64.70,350.00,15.00,0.00,29.91,M,10.00,M,SCT,OVC,M,M,5500.00,6500.00,M,M,M,M,M,M,M,M,M,27.78,KHTH 120355Z AUTO 35015KT 10SM SCT055 OVC065 03/M03 A2991 RMK A01,M
RTS,2021-10-12 03:55,-119.8764,39.6682,1539.00,33.80,15.80,47.22,340.00,8.00,0.00,29.99,M,10.00,M,CLR,M,M,M,M,M,M,M,M,M,M,M,M,M,M,26.33,KRTS 120355Z AUTO 34008KT 10SM CLR 01/M09 A2999 RMK AO2,M
05U,2021-10-12 03:55,-116.0051,39.6042,1811.23,32.00,24.80,74.44,350.00,8.00,0.00,29.80,M,10.00,M,BKN,OVC,M,M,3200.00,4200.00,M,M,M,M,M,M,M,M,M,24.11,K05U 120355Z AUTO 35008KT 10SM BKN032 OVC042 M00/M04 A2980 RMK A01,M
RNO,2021-10-12 03:55,-119.7711,39.4839,1341.00,39.00,18.00,42.28,330.00,10.00,0.00,29.97,1014.80,10.00,M,SCT,M,M,M,6500.00,M,M,M,M,M,M,M,M,M,M,31.75,KRNO 120355Z 33010KT 10SM SCT065 04/M08 A2997 RMK AO2 SLP148 T00391078 $,M
MEV,2021-10-12 03:55,-119.7500,38.9963,1441.42,32.00,26.60,80.22,330.00,12.00,0.00,29.96,M,10.00,M,FEW,BKN,OVC,M,2800.00,5500.00,7000.00,M,M,M,M,M,M,M,M,22.00,KMEV 120355Z AUTO 33012KT 10SM FEW028 BKN055 OVC070 00/M03 A2996 RMK AO2,M
LAS,2021-10-12 03:56,-115.1634,36.0719,663.00,51.00,33.00,49.98,330.00,27.00,0.00,29.48,997.00,10.00,39.00,BKN,BKN,BKN,M,4500.00,8000.00,25000.00,M,M,M,M,M,46.00,340.00,2021-10-12 03:31,51.10,KLAS 120356Z 33027G39KT 10SM BKN045 BKN080 BKN250 11/01 A2948 RMK AO2 PK WND 34046/0331 SLP970 T01060006 $,M
HND,2021-10-12 03:56,-115.1344,35.9729,742.79,50.00,32.00,49.81,330.00,17.00,0.00,29.52,1000.00,10.00,33.00,BKN,BKN,OVC,M,5500.00,7500.00,9500.00,M,M,M,M,M,33.00,330.00,2021-10-12 03:50,50.00,KHND 120356Z 33017G33KT 10SM BKN055 BKN075 OVC095 10/00 A2952 RMK AO2 PK WND 33033/0350 SLP000 T01000000,M
INS,2021-10-12 03:56,-115.6733,36.5872,955.00,41.00,35.60,80.93,260.00,12.00,0.00,29.64,1002.10,10.00,M,SCT,M,M,M,2100.00,M,M,M,-RA,M,M,M,M,M,M,33.46,KINS 120356Z AUTO 26012KT 10SM -RA SCT021 05/02 A2964 RMK AO2 WSHFT 43 SLP021 $,M
WMC,2021-10-12 03:56,-117.8072,40.9019,1315.00,38.00,24.10,57.18,330.00,11.00,0.00,29.92,1013.70,10.00,M,OVC,M,M,M,7000.00,M,M,M,M,M,M,M,M,M,M,29.92,KWMC 120356Z AUTO 33011KT 10SM OVC070 03/M04 A2992 RMK AO2 SLP137 T00331044 TSNO,M
NFL,2021-10-12 03:56,-118.7010,39.4166,1199.00,38.00,26.10,62.14,360.00,8.00,0.00,29.93,1010.70,10.00,M,BKN,BKN,M,M,8000.00,9000.00,M,M,M,M,M,M,M,M,M,31.38,KNFL 120356Z AUTO 36008KT 10SM BKN080 BKN090 03/M03 A2993 RMK AO2 SLP107 T00331033,M
TPH,2021-10-12 03:56,-117.0904,38.0505,1654.00,35.00,19.90,53.49,350.00,27.00,0.00,29.76,1006.60,10.00,37.00,CLR,M,M,M,M,M,M,M,M,M,M,M,38.00,350.00,2021-10-12 03:23,21.57,KTPH 120356Z AUTO 35027G37KT 10SM CLR 02/M07 A2976 RMK AO2 PK WND 35038/0323 SLP066 T00171067,M
EKO,2021-10-12 03:56,-115.7860,40.8242,1367.00,38.00,19.90,47.89,M,6.00,0.00,29.80,1009.80,10.00,15.00,FEW,FEW,OVC,M,4100.00,4900.00,7000.00,M,M,M,M,M,M,M,M,32.64,KEKO 120356Z AUTO VRB06G15KT 10SM FEW041 FEW049 OVC070 03/M07 A2980 RMK AO2 SLP098 T00331067,M
LSV,2021-10-12 03:58,-115.0343,36.2362,570.00,47.80,36.30,64.20,300.00,28.00,0.00,29.49,997.70,10.00,41.00,BKN,M,M,M,7000.00,M,M,M,M,M,M,M,44.00,300.00,2021-10-12 03:26,38.72,KLSV 120358Z 30028G41KT 10SM BKN070 09/02 A2949 RMK PK WND 30044/0326 SLP977 T00880024 $,M
INS,2021-10-12 03:58,-115.6733,36.5872,955.00,40.30,35.20,81.85,250.00,12.00,T,29.64,1002.10,10.00,M,SCT,M,M,M,2100.00,M,M,M,-RA,M,M,M,M,M,M,32.57,KINS 120358Z AUTO 25012KT 10SM -RA SCT021 05/02 A2964 RMK AO2 SLP021 P0000 T00460018 $,M
ELY,2021-10-12 04:02,-114.8453,39.2950,1909.00,28.00,28.00,100.00,10.00,14.00,0.01,29.72,M,1.25,24.00,SCT,OVC,M,M,700.00,1700.00,M,M,-SN BR,M,M,M,M,M,M,16.01,KELY 120402Z AUTO 01014G24KT 1 1/4SM -SN BR SCT007 OVC017 M02/M02 A2972 RMK AO2 P0001 T10221022 $,M
INS,2021-10-12 04:07,-115.6733,36.5872,955.00,39.20,35.60,86.79,260.00,13.00,0.00,29.64,1002.30,10.00,M,FEW,SCT,M,M,1200.00,2400.00,M,M,-RA,M,M,M,M,M,M,30.79,KINS 120407Z AUTO 26013KT 10SM -RA FEW012 SCT024 04/02 A2964 RMK AO2 SLP023 $,M
CXP,2021-10-12 04:10,-119.7326,39.1923,1431.00,37.40,21.20,51.61,20.00,11.00,0.00,29.98,M,10.00,M,FEW,BKN,OVC,M,3600.00,4300.00,5500.00,M,M,M,M,M,M,M,M,29.29,KCXP 120410Z AUTO 02011KT 10SM FEW036 BKN043 OVC055 03/M06 A2998 RMK AO2,M
ELY,2021-10-12 04:12,-114.8453,39.2950,1909.00,28.00,28.00,100.00,10.00,16.00,0.01,29.71,M,1.50,22.00,BKN,OVC,M,M,700.00,1500.00,M,M,-SN BR,M,M,M,M,M,M,15.20,KELY 120412Z AUTO 01016G22KT 1 1/2SM -SN BR BKN007 OVC015 M02/M02 A2971 RMK AO2 P0001 T10221022 $,M
INS,2021-10-12 04:12,-115.6733,36.5872,955.00,39.20,35.60,86.79,260.00,14.00,0.00,29.64,1002.10,10.00,M,FEW,BKN,M,M,1600.00,2500.00,M,M,-RA,M,M,M,M,M,M,30.44,KINS 120412Z AUTO 26014KT 10SM -RA FEW016 BKN025 04/02 A2964 RMK AO2 SLP021 $,M
TMT,2021-10-12 04:15,-117.1971,39.4643,1749.34,28.80,28.00,96.77,340.00,5.00,0.00,29.87,M,1.75,M,BKN,OVC,M,M,600.00,1200.00,M,M,-SN,M,M,M,M,M,M,22.59,KTMT 120415Z AUTO 34005KT 1 3/4SM -SN BKN006 OVC012 M02/M02 A2987 RMK AO2 T10181022,M
05U,2021-10-12 04:15,-116.0051,39.6042,1811.23,32.00,24.80,74.44,350.00,9.00,0.00,29.80,M,10.00,M,OVC,M,M,M,3000.00,M,M,M,M,M,M,M,M,M,M,23.51,K05U 120415Z AUTO 35009KT 10SM OVC030 M00/M04 A2980 RMK A01,M
RTS,2021-10-12 04:15,-119.8764,39.6682,1539.00,32.00,15.80,50.75,330.00,10.00,0.00,29.99,M,10.00,M,CLR,M,M,M,M,M,M,M,M,M,M,M,M,M,M,22.97,KRTS 120415Z AUTO 33010KT 10SM CLR 00/M09 A2999 RMK AO2,M
BVU,2021-10-12 04:15,-114.8611,35.9475,671.00,48.20,33.80,57.26,330.00,30.00,0.00,29.48,M,10.00,37.00,FEW,FEW,OVC,M,4100.00,6500.00,9000.00,M,M,M,M,M,M,M,M,38.98,KBVU 120415Z AUTO 33030G37KT 10SM FEW041 FEW065 OVC090 09/01 A2948 RMK AO2,M
BAM,2021-10-12 04:15,-116.8743,40.5990,1382.36,37.40,28.40,69.67,0.00,0.00,0.00,29.88,M,10.00,M,OVC,M,M,M,9000.00,M,M,M,M,M,M,M,M,M,M,37.40,KBAM 120415Z AUTO 00000KT 10SM OVC090 03/M02 A2988 RMK AO1,M
HTH,2021-10-12 04:15,-118.6315,38.5448,1282.89,37.40,24.80,60.04,360.00,15.00,0.00,29.91,M,10.00,20.00,FEW,SCT,BKN,M,2200.00,5500.00,6500.00,M,M,M,M,M,M,M,M,27.78,KHTH 120415Z AUTO 36015G20KT 10SM FEW022 SCT055 BKN065 03/M04 A2991 RMK A01,M
MEV,2021-10-12 04:15,-119.7500,38.9963,1441.42,32.00,26.60,80.22,320.00,12.00,0.00,29.96,M,10.00,M,BKN,OVC,M,M,5500.00,6500.00,M,M,M,M,M,M,M,M,M,22.00,KMEV 120415Z AUTO 32012KT 10SM BKN055 OVC065 00/M03 A2996 RMK AO2,M
INS,2021-10-12 04:22,-115.6733,36.5872,955.00,41.00,35.60,80.93,270.00,14.00,0.00,29.64,1002.10,10.00,M,FEW,BKN,M,M,1300.00,2300.00,M,M,RA,M,M,M,M,M,M,32.76,KINS 120422Z AUTO 27014KT 10SM RA FEW013 BKN023 05/02 A2964 RMK AO2 SLP021 $,M
ELY,2021-10-12 04:25,-114.8453,39.2950,1909.00,28.00,28.00,100.00,360.00,14.00,0.01,29.71,M,3.00,23.00,BKN,OVC,M,M,700.00,1400.00,M,M,-SN BR,M,M,M,M,M,M,16.01,KELY 120425Z AUTO 36014G23KT 3SM -SN BR BKN007 OVC014 M02/M02 A2971 RMK AO2 P0001 T10221022 $,M
CXP,2021-10-12 04:30,-119.7326,39.1923,1431.00,37.40,21.20,51.61,360.00,8.00,0.00,29.98,M,10.00,17.00,FEW,BKN,OVC,M,2600.00,4500.00,7500.00,M,M,M,M,M,M,M,M,30.76,KCXP 120430Z AUTO 36008G17KT 10SM FEW026 BKN045 OVC075 03/M06 A2998 RMK AO2,M
TMT,2021-10-12 04:35,-117.1971,39.4643,1749.34,28.90,27.30,93.64,340.00,5.00,0.00,29.86,M,10.00,M,SCT,SCT,OVC,M,600.00,1200.00,2200.00,M,-SN,M,M,M,M,M,M,22.71,KTMT 120435Z AUTO 34005KT 10SM -SN SCT006 SCT012 OVC022 M02/M03 A2986 RMK AO2 T10171026,M
HTH,2021-10-12 04:35,-118.6315,38.5448,1282.89,37.40,26.60,64.70,350.00,14.00,0.00,29.91,M,10.00,19.00,FEW,BKN,OVC,M,3100.00,6000.00,7000.00,M,M,M,M,M,M,M,M,28.12,KHTH 120435Z AUTO 35014G19KT 10SM FEW031 BKN060 OVC070 03/M03 A2991 RMK A01,M
05U,2021-10-12 04:35,-116.0051,39.6042,1811.23,32.00,24.80,74.44,340.00,8.00,0.00,29.81,M,10.00,M,OVC,M,M,M,2800.00,M,M,M,M,M,M,M,M,M,M,24.11,K05U 120435Z AUTO 34008KT 10SM OVC028 M00/M04 A2981 RMK A01,M
RTS,2021-10-12 04:35,-119.8764,39.6682,1539.00,32.00,15.80,50.75,330.00,10.00,0.00,30.00,M,10.00,M,CLR,M,M,M,M,M,M,M,M,M,M,M,M,M,M,22.97,KRTS 120435Z AUTO 33010KT 10SM CLR 00/M09 A3000 RMK AO2,M
BVU,2021-10-12 04:35,-114.8611,35.9475,671.00,50.00,33.80,53.54,320.00,24.00,0.00,29.47,M,10.00,37.00,BKN,OVC,M,M,8000.00,9000.00,M,M,M,M,M,M,M,M,M,50.00,KBVU 120435Z AUTO 32024G37KT 10SM BKN080 OVC090 10/01 A2947 RMK AO2,M
MEV,2021-10-12 04:35,-119.7500,38.9963,1441.42,33.80,24.80,69.25,330.00,11.00,0.00,29.97,M,10.00,M,SCT,BKN,OVC,M,5000.00,6500.00,7500.00,M,M,M,M,M,M,M,M,24.74,KMEV 120435Z AUTO 33011KT 10SM SCT050 BKN065 OVC075 01/M04 A2997 RMK AO2,M
BAM,2021-10-12 04:35,-116.8743,40.5990,1382.36,37.40,28.40,69.67,0.00,0.00,0.00,29.88,M,10.00,M,SCT,OVC,M,M,7000.00,9000.00,M,M,M,M,M,M,M,M,M,37.40,KBAM 120435Z AUTO 00000KT 10SM SCT070 OVC090 03/M02 A2988 RMK AO1,M
CXP,2021-10-12 04:50,-119.7326,39.1923,1431.00,37.40,21.20,51.61,340.00,12.00,0.00,29.98,M,10.00,M,FEW,SCT,OVC,M,3800.00,5000.00,7000.00,M,M,M,M,M,M,M,M,28.87,KCXP 120450Z AUTO 34012KT 10SM FEW038 SCT050 OVC070 03/M06 A2998 RMK AO2,M
INS,2021-10-12 04:52,-115.6733,36.5872,955.00,41.00,33.80,75.33,270.00,14.00,0.00,29.64,1001.80,8.00,M,FEW,OVC,M,M,1400.00,1900.00,M,M,RA,M,M,M,M,M,M,32.76,KINS 120452Z AUTO 27014KT 8SM RA FEW014 OVC019 05/01 A2964 RMK AO2 CIG 019V023 SLP018 $,M
ELY,2021-10-12 04:53,-114.8453,39.2950,1909.00,28.00,28.00,100.00,360.00,13.00,0.01,29.70,1003.20,10.00,M,BKN,BKN,OVC,M,600.00,2700.00,3900.00,M,M,M,M,M,M,M,M,16.44,KELY 120453Z AUTO 36013KT 10SM BKN006 BKN027 OVC039 M02/M02 A2970 RMK AO2 SNE40 SLP032 P0001 T10221022 $,M
VGT,2021-10-12 04:53,-115.1933,36.2111,667.00,49.00,36.00,60.88,320.00,28.00,T,29.49,999.00,7.00,40.00,BKN,OVC,M,M,5000.00,7500.00,M,M,RA DU,M,M,M,47.00,320.00,2021-10-12 04:09,40.23,KVGT 120453Z AUTO 32028G40KT 7SM RA DU BKN050 OVC075 09/02 A2949 RMK AO2 PK WND 32047/0409 SLP990 P0000 T00940022,M
LOL,2021-10-12 04:53,-118.5701,40.0684,1192.43,40.00,21.00,46.41,340.00,19.00,0.00,29.93,1013.90,10.00,24.00,FEW,M,M,M,7500.00,M,M,M,M,M,M,M,M,M,M,29.88,KLOL 120453Z AUTO 34019G24KT 10SM FEW075 04/M06 A2993 RMK AO2 SLP139 T00441061,M
P68,2021-10-12 04:53,-116.0056,39.6014,1993.00,30.90,24.10,75.59,340.00,8.00,0.00,29.78,1008.10,M,M,M,M,M,M,M,M,M,M,M,M,M,M,M,M,M,22.76,KP68 120453Z AUTO 34008KT M01/M04 A2978 RMK AO1 SLP081 T10061044,M
DRA,2021-10-12 04:53,-116.0278,36.6206,1009.00,45.00,30.00,55.43,360.00,11.00,T,29.62,1000.50,10.00,21.00,OVC,M,M,M,7000.00,M,M,M,M,M,M,M,44.00,20.00,2021-10-12 03:59,38.89,KDRA 120453Z AUTO 36011G21KT 10SM OVC070 07/M01 A2962 RMK AO2 PK WND 02044/0359 RAB00E18 SLP005 P0000 T00721011 $,M
BAM,2021-10-12 04:55,-116.8743,40.5990,1382.36,35.60,28.40,74.80,320.00,5.00,0.00,29.87,M,10.00,M,SCT,OVC,M,M,7000.00,9000.00,M,M,M,M,M,M,M,M,M,30.67,KBAM 120455Z AUTO 32005KT 10SM SCT070 OVC090 02/M02 A2987 RMK AO1,M
BVU,2021-10-12 04:55,-114.8611,35.9475,671.00,48.20,33.80,57.26,320.00,25.00,0.00,29.49,M,10.00,35.00,SCT,OVC,M,M,8000.00,9000.00,M,M,M,M,M,M,M,M,M,39.75,KBVU 120455Z AUTO 32025G35KT 10SM SCT080 OVC090 09/01 A2949 RMK AO2,M
RNO,2021-10-12 04:55,-119.7711,39.4839,1341.00,38.00,18.00,44.14,340.00,14.00,0.00,29.98,1015.30,10.00,M,FEW,SCT,SCT,M,3500.00,7000.00,12000.00,M,M,M,M,M,M,M,M,28.77,KRNO 120455Z 34014KT 10SM FEW035 SCT070 SCT120 03/M08 A2998 RMK AO2 SLP153 T00331078 $,M
RTS,2021-10-12 04:55,-119.8764,39.6682,1539.00,32.00,15.80,50.75,330.00,10.00,0.00,30.00,M,10.00,M,CLR,M,M,M,M,M,M,M,M,M,M,M,M,M,M,22.97,KRTS 120455Z AUTO 33010KT 10SM CLR M00/M09 A3000 RMK AO2,M
05U,2021-10-12 04:55,-116.0051,39.6042,1811.23,32.00,24.80,74.44,350.00,10.00,0.00,29.81,M,10.00,M,BKN,OVC,M,M,3100.00,4600.00,M,M,M,M,M,M,M,M,M,22.97,K05U 120455Z AUTO 35010KT 10SM BKN031 OVC046 M00/M04 A2981 RMK A01,M
MEV,2021-10-12 04:55,-119.7500,38.9963,1441.42,35.60,23.00,59.79,330.00,11.00,0.00,29.96,M,10.00,M,FEW,SCT,BKN,M,4500.00,5000.00,6500.00,M,M,M,M,M,M,M,M,27.02,KMEV 120455Z AUTO 33011KT 10SM FEW045 SCT050 BKN065 02/M05 A2996 RMK AO2,M
TMT,2021-10-12 04:55,-117.1971,39.4643,1749.34,29.30,27.10,91.37,340.00,5.00,0.00,29.86,M,5.00,M,OVC,M,M,M,2200.00,M,M,M,-SN,M,M,M,M,M,M,23.19,KTMT 120455Z AUTO 34005KT 5SM -SN OVC022 M01/M03 A2986 RMK AO2 T10151027,M
HTH,2021-10-12 04:55,-118.6315,38.5448,1282.89,37.40,24.80,60.04,350.00,18.00,0.00,29.91,M,10.00,M,FEW,SCT,OVC,M,3500.00,5500.00,7000.00,M,M,M,M,M,M,M,M,26.86,KHTH 120455Z AUTO 35018KT 10SM FEW035 SCT055 OVC070 03/M04 A2991 RMK A01,M
NFL,2021-10-12 04:56,-118.7010,39.4166,1199.00,39.00,25.00,56.86,360.00,10.00,0.00,29.93,1010.70,10.00,M,BKN,OVC,M,M,7000.00,9500.00,M,M,M,M,M,M,M,M,M,31.75,KNFL 120456Z AUTO 36010KT 10SM BKN070 OVC095 04/M04 A2993 RMK AO2 SLP107 T00391039,M
WMC,2021-10-12 04:56,-117.8072,40.9019,1315.00,36.00,21.90,56.18,330.00,11.00,0.00,29.92,1013.60,10.00,M,BKN,M,M,M,6500.00,M,M,M,M,M,M,M,26.00,350.00,2021-10-12 04:22,27.52,KWMC 120456Z AUTO 33011KT 10SM BKN065 02/M06 A2992 RMK AO2 PK WND 35026/0422 SLP136 T00221056 TSNO,M
LAS,2021-10-12 04:56,-115.1634,36.0719,663.00,52.00,30.90,44.24,340.00,23.00,0.00,29.50,997.40,10.00,38.00,FEW,BKN,OVC,M,4500.00,7500.00,22000.00,M,M,M,M,M,42.00,340.00,2021-10-12 03:58,52.00,KLAS 120456Z 34023G38KT 10SM FEW045 BKN075 OVC220 11/M01 A2950 RMK AO2 PK WND 34042/0358 SLP974 TOPS OF MTNS OBSCURED DSNT SW-NW T01111006 $,M
TPH,2021-10-12 04:56,-117.0904,38.0505,1654.00,35.00,21.00,56.05,350.00,25.00,0.00,29.77,1006.70,10.00,32.00,CLR,M,M,M,M,M,M,M,M,M,M,M,35.00,340.00,2021-10-12 04:17,22.01,KTPH 120456Z AUTO 35025G32KT 10SM CLR 02/M06 A2977 RMK AO2 PK WND 34035/0417 SLP067 T00171061,M
HND,2021-10-12 04:56,-115.1344,35.9729,742.79,51.00,30.90,45.73,340.00,15.00,T,29.54,1000.70,10.00,20.00,OVC,M,M,M,5500.00,M,M,M,-RA,M,M,M,29.00,340.00,2021-10-12 04:15,51.10,KHND 120456Z AUTO 34015G20KT 10SM -RA OVC055 11/M01 A2954 RMK AO2 PK WND 34029/0415 RAB37 SLP007 P0000 T01061006,M
EKO,2021-10-12 04:56,-115.7860,40.8242,1367.00,37.00,18.00,45.73,350.00,21.00,0.00,29.78,1008.90,10.00,32.00,BKN,M,M,M,6500.00,M,M,M,M,M,M,M,32.00,350.00,2021-10-12 04:56,25.52,KEKO 120456Z AUTO 35021G32KT 10SM BKN065 03/M08 A2978 RMK AO2 PK WND 35032/0456 SLP089 T00281078,M
LSV,2021-10-12 04:58,-115.0343,36.2362,570.00,48.60,36.00,61.81,300.00,28.00,0.00,29.50,997.80,10.00,42.00,BKN,M,M,M,6000.00,M,M,M,M,M,M,M,47.00,310.00,2021-10-12 04:43,39.82,KLSV 120458Z COR 30028G42KT 10SM BKN060 09/02 A2950 RMK PK WND 31047/0443 SLP978 T00920023 10230 20084 52028 $ COR 0559,M
INS,2021-10-12 04:58,-115.6733,36.5872,955.00,40.60,34.00,77.12,260.00,13.00,T,29.64,1001.80,10.00,M,FEW,OVC,M,M,1400.00,1900.00,M,M,-RA,M,M,M,M,M,M,32.59,KINS 120458Z AUTO 26013KT 10SM -RA FEW014 OVC019 05/01 A2964 RMK AO2 SLP018 P0000 T00480011 $,M
INS,2021-10-12 05:08,-115.6733,36.5872,955.00,41.00,33.80,75.33,240.00,14.00,0.00,29.64,1001.60,10.00,M,OVC,M,M,M,2000.00,M,M,M,-RA,M,M,M,M,M,M,32.76,KINS 120508Z AUTO 24014KT 10SM -RA OVC020 05/01 A2964 RMK AO2 SLP016 $,M
CXP,2021-10-12 05:10,-119.7326,39.1923,1431.00,37.40,19.40,47.80,340.00,14.00,0.00,29.98,M,10.00,M,FEW,SCT,OVC,M,3100.00,6500.00,7500.00,M,M,M,M,M,M,M,M,28.12,KCXP 120510Z AUTO 34014KT 10SM FEW031 SCT065 OVC075 03/M07 A2998 RMK AO2,M
INS,2021-10-12 05:13,-115.6733,36.5872,955.00,41.00,33.80,75.33,250.00,11.00,0.00,29.64,1001.60,10.00,M,OVC,M,M,M,1800.00,M,M,M,-RA,M,M,M,M,M,M,33.84,KINS 120513Z AUTO 25011KT 10SM -RA OVC018 05/01 A2964 RMK AO2 SLP016 $,M
BVU,2021-10-12 05:15,-114.8611,35.9475,671.00,50.00,33.80,53.54,320.00,24.00,0.00,29.50,M,10.00,34.00,FEW,OVC,M,M,5500.00,10000.00,M,M,M,M,M,M,M,M,M,50.00,KBVU 120515Z AUTO 32024G34KT 10SM FEW055 OVC100 10/01 A2950 RMK AO2,M
TMT,2021-10-12 05:15,-117.1971,39.4643,1749.34,29.30,27.00,90.99,360.00,6.00,0.00,29.87,M,10.00,M,SCT,OVC,M,M,2000.00,2600.00,M,M,-SN,M,M,M,M,M,M,22.28,KTMT 120515Z AUTO 36006KT 10SM -SN SCT020 OVC026 M01/M03 A2987 RMK AO2 T10151028,M
BAM,2021-10-12 05:15,-116.8743,40.5990,1382.36,35.60,26.60,69.46,0.00,0.00,0.00,29.88,M,10.00,M,OVC,M,M,M,9000.00,M,M,M,M,M,M,M,M,M,M,35.60,KBAM 120515Z AUTO 00000KT 10SM OVC090 02/M03 A2988 RMK AO1,M
HTH,2021-10-12 05:15,-118.6315,38.5448,1282.89,37.40,24.80,60.04,340.00,19.00,0.00,29.91,M,10.00,M,FEW,SCT,BKN,M,3000.00,4300.00,5500.00,M,M,M,M,M,M,M,M,26.58,KHTH 120515Z AUTO 34019KT 10SM FEW030 SCT043 BKN055 03/M04 A2991 RMK A01,M
MEV,2021-10-12 05:15,-119.7500,38.9963,1441.42,35.60,23.00,59.79,340.00,8.00,0.00,29.97,M,10.00,M,FEW,SCT,BKN,M,3500.00,4700.00,5500.00,M,M,M,M,M,M,M,M,28.55,KMEV 120515Z AUTO 34008KT 10SM FEW035 SCT047 BKN055 02/M05 A2997 RMK AO2,M
05U,2021-10-12 05:15,-116.0051,39.6042,1811.23,32.00,24.80,74.44,350.00,8.00,0.00,29.81,M,10.00,16.00,BKN,BKN,OVC,M,3100.00,3800.00,4500.00,M,M,M,M,M,M,M,M,24.11,K05U 120515Z AUTO 35008G16KT 10SM BKN031 BKN038 OVC045 M00/M04 A2981 RMK A01,M
RTS,2021-10-12 05:15,-119.8764,39.6682,1539.00,32.00,15.80,50.75,330.00,12.00,0.00,30.00,M,10.00,M,CLR,M,M,M,M,M,M,M,M,M,M,M,M,M,M,22.00,KRTS 120515Z AUTO 33012KT 10SM CLR 00/M09 A3000 RMK AO2,M
CXP,2021-10-12 05:30,-119.7326,39.1923,1431.00,37.40,19.40,47.80,340.00,13.00,0.00,29.98,M,10.00,18.00,BKN,BKN,OVC,M,2800.00,6500.00,7500.00,M,M,M,M,M,M,M,M,28.49,KCXP 120530Z AUTO 34013G18KT 10SM BKN028 BKN065 OVC075 03/M07 A2998 RMK AO2,M
TMT,2021-10-12 05:35,-117.1971,39.4643,1749.34,29.30,27.00,90.99,360.00,5.00,0.00,29.87,M,10.00,M,OVC,M,M,M,3000.00,M,M,M,M,M,M,M,M,M,M,23.19,KTMT 120535Z AUTO 36005KT 10SM OVC030 M01/M03 A2987 RMK AO2 T10151028,M
RTS,2021-10-12 05:35,-119.8764,39.6682,1539.00,32.00,15.80,50.75,340.00,9.00,0.00,30.01,M,10.00,15.00,CLR,M,M,M,M,M,M,M,M,M,M,M,M,M,M,23.51,KRTS 120535Z AUTO 34009G15KT 10SM CLR M00/M09 A3001 RMK AO2,M
BAM,2021-10-12 05:35,-116.8743,40.5990,1382.36,35.60,26.60,69.46,110.00,6.00,0.00,29.89,M,10.00,M,BKN,BKN,OVC,M,6500.00,7500.00,10000.00,M,M,M,M,M,M,M,M,29.87,KBAM 120535Z AUTO 11006KT 10SM BKN065 BKN075 OVC100 02/M03 A2989 RMK AO1,M
MEV,2021-10-12 05:35,-119.7500,38.9963,1441.42,35.60,23.00,59.79,340.00,8.00,0.00,29.97,M,10.00,M,SCT,BKN,OVC,M,4000.00,5000.00,7000.00,M,M,M,M,M,M,M,M,28.55,KMEV 120535Z AUTO 34008KT 10SM SCT040 BKN050 OVC070 02/M05 A2997 RMK AO2,M
05U,2021-10-12 05:35,-116.0051,39.6042,1811.23,32.00,24.80,74.44,350.00,10.00,0.00,29.80,M,10.00,17.00,OVC,M,M,M,3000.00,M,M,M,M,M,M,M,M,M,M,22.97,K05U 120535Z AUTO 35010G17KT 10SM OVC030 M00/M04 A2980 RMK A01,M
BVU,2021-10-12 05:35,-114.8611,35.9475,671.00,50.00,33.80,53.54,330.00,24.00,0.00,29.50,M,10.00,35.00,BKN,BKN,OVC,M,6000.00,8500.00,11000.00,M,M,M,M,M,M,M,M,50.00,KBVU 120535Z AUTO 33024G35KT 10SM BKN060 BKN085 OVC110 10/01 A2950 RMK AO2,M
HTH,2021-10-12 05:35,-118.6315,38.5448,1282.89,37.40,23.00,55.68,340.00,19.00,0.00,29.91,M,10.00,26.00,FEW,SCT,OVC,M,3200.00,4200.00,5500.00,M,M,M,M,M,M,M,M,26.58,KHTH 120535Z AUTO 34019G26KT 10SM FEW032 SCT042 OVC055 03/M05 A2991 RMK A01,M
ELY,2021-10-12 05:41,-114.8453,39.2950,1909.00,28.00,27.00,95.97,360.00,16.00,T,29.70,M,8.00,23.00,SCT,BKN,OVC,M,500.00,3900.00,8000.00,M,-SN,M,M,M,M,M,M,15.20,KELY 120541Z AUTO 36016G23KT 8SM -SN SCT005 BKN039 OVC080 M02/M03 A2970 RMK AO2 SNB14 P0000 T10221028 $,M
CXP,2021-10-12 05:50,-119.7326,39.1923,1431.00,35.60,19.40,51.33,350.00,15.00,0.00,29.97,M,10.00,M,BKN,OVC,M,M,2600.00,3000.00,M,M,M,M,M,M,M,M,M,25.45,KCXP 120550Z AUTO 35015KT 10SM BKN026 OVC030 02/M07 A2997 RMK AO2,M
ELY,2021-10-12 05:53,-114.8453,39.2950,1909.00,27.00,27.00,100.00,10.00,13.00,T,29.70,1003.20,10.00,M,SCT,BKN,OVC,M,800.00,3700.00,8000.00,M,M,M,M,M,M,M,M,15.16,KELY 120553Z AUTO 01013KT 10SM SCT008 BKN037 OVC080 M03/M03 A2970 RMK AO2 SNB14E42 SLP032 P0000 60005 T10281028 11017 21028 56005 $,M
DRA,2021-10-12 05:53,-116.0278,36.6206,1009.00,45.00,28.90,53.00,0.00,0.00,0.00,29.63,1000.60,10.00,M,FEW,OVC,M,M,4100.00,4800.00,M,M,M,M,M,M,27.00,10.00,2021-10-12 05:11,45.00,KDRA 120553Z AUTO 00000KT 10SM FEW041 OVC048 07/M02 A2963 RMK AO2 PK WND 01027/0511 SLP006 60022 T00721017 10089 20050 55004 $,M
INS,2021-10-12 05:53,-115.6733,36.5872,955.00,41.00,33.80,75.33,330.00,14.00,0.00,29.64,1001.40,9.00,25.00,OVC,M,M,M,2100.00,M,M,M,RA,M,M,M,M,M,M,32.76,KINS 120553Z AUTO 33014G25KT 9SM RA OVC021 05/01 A2964 RMK AO2 SLP014 $,M
P68,2021-10-12 05:53,-116.0056,39.6014,1993.00,30.90,24.10,75.59,350.00,11.00,0.00,29.77,1007.70,M,M,M,M,M,M,M,M,M,M,M,M,M,M,M,M,M,21.08,KP68 120553Z AUTO 35011KT M01/M04 A2977 RMK AO1 SLP077 T10061044 10000 21011 58003,M
VGT,2021-10-12 05:53,-115.1933,36.2111,667.00,50.00,35.00,56.39,320.00,21.00,T,29.51,999.80,10.00,34.00,BKN,OVC,M,M,4600.00,6000.00,M,M,DU,M,M,M,42.00,300.00,2021-10-12 05:02,50.00,KVGT 120553Z AUTO 32021G34KT 10SM DU BKN046 OVC060 10/02 A2951 RMK AO2 PK WND 30042/0502 RAE48 SLP998 P0000 60000 T01000017 10206 20094 51025,M
LOL,2021-10-12 05:53,-118.5701,40.0684,1192.43,39.00,18.00,42.28,340.00,20.00,0.00,29.94,1014.10,10.00,28.00,CLR,M,M,M,M,M,M,M,M,M,M,M,29.00,340.00,2021-10-12 05:40,28.44,KLOL 120553Z AUTO 34020G28KT 10SM CLR 04/M08 A2994 RMK AO2 PK WND 34029/0540 SLP141 T00391078 10078 20039 53001,M
05U,2021-10-12 05:55,-116.0051,39.6042,1811.23,32.00,24.80,74.44,360.00,13.00,0.00,29.80,M,10.00,M,OVC,M,M,M,2900.00,M,M,M,M,M,M,M,M,M,M,21.57,K05U 120555Z AUTO 36013KT 10SM OVC029 M00/M04 A2980 RMK A01,M
BVU,2021-10-12 05:55,-114.8611,35.9475,671.00,48.20,33.80,57.26,320.00,27.00,0.00,29.50,M,10.00,37.00,OVC,M,M,M,6000.00,M,M,M,M,M,M,M,M,M,M,39.42,KBVU 120555Z AUTO 32027G37KT 10SM OVC060 09/01 A2950 RMK AO2,M
TMT,2021-10-12 05:55,-117.1971,39.4643,1749.34,29.10,26.40,89.49,350.00,5.00,0.00,29.87,M,10.00,M,BKN,OVC,M,M,3000.00,3800.00,M,M,M,M,M,M,M,M,M,22.95,KTMT 120555Z AUTO 35005KT 10SM BKN030 OVC038 M02/M03 A2987 RMK AO2 T10161031 11008 21020,M
HTH,2021-10-12 05:55,-118.6315,38.5448,1282.89,37.40,23.00,55.68,350.00,18.00,0.00,29.92,M,10.00,24.00,SCT,M,M,M,5500.00,M,M,M,M,M,M,M,M,M,M,26.86,KHTH 120555Z AUTO 35018G24KT 10SM SCT055 03/M05 A2992 RMK A01,M
RNO,2021-10-12 05:55,-119.7711,39.4839,1341.00,37.00,18.00,45.73,330.00,9.00,0.00,29.99,1015.30,10.00,M,BKN,M,M,M,6500.00,M,M,M,M,M,M,M,M,M,M,29.73,KRNO 120555Z 33009KT 10SM BKN065 03/M08 A2999 RMK AO2 SLP153 60000 T00281078 10056 20028 53007 $,M
BAM,2021-10-12 05:55,-116.8743,40.5990,1382.36,35.60,26.60,69.46,70.00,6.00,0.00,29.90,M,10.00,16.00,OVC,M,M,M,6500.00,M,M,M,M,M,M,M,M,M,M,29.87,KBAM 120555Z AUTO 07006G16KT 10SM OVC065 02/M03 A2990 RMK AO1,M
RTS,2021-10-12 05:55,-119.8764,39.6682,1539.00,30.20,15.80,54.59,350.00,5.00,0.00,30.01,M,10.00,M,BKN,M,M,M,7000.00,M,M,M,M,M,M,M,M,M,M,24.26,KRTS 120555Z AUTO 35005KT 10SM BKN070 M01/M09 A3001 RMK AO2,M
MEV,2021-10-12 05:55,-119.7500,38.9963,1441.42,35.60,19.40,51.33,350.00,14.00,0.00,29.96,M,10.00,22.00,FEW,SCT,BKN,M,2700.00,3900.00,4900.00,M,M,M,M,M,M,M,M,25.80,KMEV 120555Z AUTO 35014G22KT 10SM FEW027 SCT039 BKN049 02/M07 A2996 RMK AO2,M
LAS,2021-10-12 05:56,-115.1634,36.0719,663.00,50.00,34.00,53.97,350.00,21.00,T,29.54,998.80,10.00,33.00,FEW,OVC,M,M,3800.00,5000.00,M,M,-RA,M,M,M,43.00,360.00,2021-10-12 04:59,50.00,KLAS 120556Z 35021G33KT 10SM -RA FEW038 OVC050 10/01 A2954 RMK AO2 PK WND 36043/0459 RAB22 SLP988 TOPS OF MTNS OBSCURED DSNT SW-NW P0000 60000 T01000011 10194 20094 53025 $,M
NFL,2021-10-12 05:56,-118.7010,39.4166,1199.00,37.00,26.10,64.38,350.00,6.00,0.00,29.94,1011.00,10.00,M,OVC,M,M,M,7000.00,M,M,M,M,M,M,M,M,M,M,31.55,KNFL 120556Z AUTO 35006KT 10SM OVC070 03/M03 A2994 RMK AO2 SLP110 T00281033 10056 20022 53005,M
EKO,2021-10-12 05:56,-115.7860,40.8242,1367.00,36.00,18.00,47.58,360.00,21.00,0.00,29.80,1009.50,10.00,35.00,BKN,BKN,M,M,6000.00,7500.00,M,M,M,M,M,M,39.00,360.00,2021-10-12 05:05,24.19,KEKO 120556Z AUTO 36021G35KT 10SM BKN060 BKN075 02/M08 A2980 RMK AO2 PK WND 36039/0505 SLP095 T00221078 10039 20022 55004,M
WMC,2021-10-12 05:56,-117.8072,40.9019,1315.00,36.00,19.00,49.66,350.00,18.00,0.00,29.93,1013.40,10.00,25.00,FEW,M,M,M,6500.00,M,M,M,M,M,M,M,M,M,M,25.01,KWMC 120556Z AUTO 35018G25KT 10SM FEW065 02/M07 A2993 RMK AO2 SLP134 T00221072 10067 20017 53001 TSNO,M
HND,2021-10-12 05:56,-115.1344,35.9729,742.79,49.00,34.00,56.23,330.00,19.00,T,29.55,1001.10,10.00,25.00,BKN,OVC,M,M,3400.00,4100.00,M,M,-RA,M,M,M,31.00,330.00,2021-10-12 05:18,41.79,KHND 120556Z AUTO 33019G25KT 10SM -RA BKN034 OVC041 09/01 A2955 RMK AO2 PK WND 33031/0518 SLP011 P0000 60000 T00940011 10194 20089 51021,M
TPH,2021-10-12 05:56,-117.0904,38.0505,1654.00,35.00,19.00,51.47,350.00,23.00,0.00,29.75,1006.00,10.00,30.00,CLR,M,M,M,M,M,M,M,M,M,M,M,30.00,350.00,2021-10-12 05:01,22.48,KTPH 120556Z AUTO 35023G30KT 10SM CLR 02/M07 A2975 RMK AO2 PK WND 35030/0501 SLP060 T00171072 10056 20011 58001,M
LSV,2021-10-12 05:57,-115.0343,36.2362,570.00,46.60,38.50,73.24,290.00,29.00,0.00,29.51,999.80,10.00,38.00,FEW,M,M,M,6000.00,M,M,M,M,M,M,M,45.00,300.00,2021-10-12 05:06,36.93,KLSV 120557Z 29029G38KT 10SM FEW060 08/04 A2951 RMK PK WND 30045/06 SLP998 T00810036 10210 20080 51025 $,M
INS,2021-10-12 05:58,-115.6733,36.5872,955.00,41.50,33.60,73.30,330.00,12.00,T,29.64,1001.40,9.00,M,OVC,M,M,M,2300.00,M,M,M,RA,M,M,M,26.00,330.00,2021-10-12 05:47,34.09,KINS 120558Z AUTO 33012KT 9SM RA OVC023 05/01 A2964 RMK AO2 PK WND 33026/47 SLP014 P0000 60001 T00530009 10093 20042 56008 $,M
LSV,2021-10-12 05:59,-115.0343,36.2362,570.00,46.80,38.30,72.12,300.00,25.00,0.09,29.52,998.50,10.00,39.00,CLR,M,M,M,M,M,M,M,-RA,M,M,M,39.00,300.00,2021-10-12 05:10,37.85,KLSV 120559Z 30025G39KT 10SM -RA CLR 08/04 A2952 RMK PK WND 30039/10 RAB0557 SLP985 P0009 T00820035 $,M
INS,2021-10-12 06:02,-115.6733,36.5872,955.00,41.00,33.80,75.33,290.00,11.00,0.00,29.64,1001.40,10.00,M,OVC,M,M,M,2100.00,M,M,M,RA,M,M,M,M,M,M,33.84,KINS 120602Z AUTO 29011KT 10SM RA OVC021 05/01 A2964 RMK AO2 WSHFT 0553 SLP014 $,M
ELY,2021-10-12 06:02,-114.8453,39.2950,1909.00,27.00,27.00,100.00,10.00,12.00,0.00,29.70,M,10.00,M,BKN,OVC,M,M,800.00,3900.00,M,M,M,M,M,M,M,M,M,15.64,KELY 120602Z AUTO 01012KT 10SM BKN008 OVC039 M03/M03 A2970 RMK AO2 T10281028 $,M
INS,2021-10-12 06:07,-115.6733,36.5872,955.00,42.80,33.80,70.28,270.00,13.00,0.00,29.63,1001.10,10.00,M,OVC,M,M,M,1700.00,M,M,M,-RA,M,M,M,M,M,M,35.40,KINS 120607Z AUTO 27013KT 10SM -RA OVC017 06/01 A2963 RMK AO2 CIG 017V023 SLP011 $,M
LAS,2021-10-12 06:07,-115.1634,36.0719,663.00,51.00,34.00,51.81,340.00,13.00,T,29.54,M,10.00,27.00,FEW,OVC,M,M,3800.00,5000.00,M,M,M,M,M,M,27.00,350.00,2021-10-12 05:58,51.10,KLAS 120607Z 34013G27KT 10SM FEW038 OVC050 11/01 A2954 RMK AO2 PK WND 35027/0558 RAE02 MIDFIELD WND 310/19G29KT P0000 T01060011 $,M
CXP,2021-10-12 06:10,-119.7326,39.1923,1431.00,35.60,17.60,47.51,350.00,14.00,0.00,29.97,M,10.00,21.00,BKN,BKN,BKN,M,2300.00,2700.00,3200.00,M,M,M,M,M,M,M,M,25.80,KCXP 120610Z AUTO 35014G21KT 10SM BKN023 BKN027 BKN032 02/M08 A2997 RMK AO2,M
HTH,2021-10-12 06:15,-118.6315,38.5448,1282.89,37.40,24.80,60.04,350.00,15.00,0.00,29.93,M,10.00,M,FEW,M,M,M,10000.00,M,M,M,M,M,M,M,M,M,M,27.78,KHTH 120615Z AUTO 35015KT 10SM FEW100 03/M04 A2993 RMK A01,M
BAM,2021-10-12 06:15,-116.8743,40.5990,1382.36,37.40,24.80,60.04,0.00,0.00,0.00,29.89,M,10.00,M,SCT,OVC,M,M,3800.00,5500.00,M,M,M,M,M,M,M,M,M,37.40,KBAM 120615Z AUTO 00000KT 10SM SCT038 OVC055 03/M04 A2989 RMK AO1,M
BVU,2021-10-12 06:15,-114.8611,35.9475,671.00,46.40,37.40,70.68,320.00,25.00,0.00,29.51,M,9.00,32.00,BKN,OVC,M,M,5000.00,6000.00,M,M,-RA,M,M,M,M,M,M,37.31,KBVU 120615Z AUTO 32025G32KT 9SM -RA BKN050 OVC060 08/03 A2951 RMK AO2,M
RTS,2021-10-12 06:15,-119.8764,39.6682,1539.00,30.20,15.80,54.59,330.00,5.00,0.00,30.01,M,10.00,M,BKN,M,M,M,7000.00,M,M,M,M,M,M,M,M,M,M,24.26,KRTS 120615Z AUTO 33005KT 10SM BKN070 M01/M09 A3001 RMK AO2,M
05U,2021-10-12 06:15,-116.0051,39.6042,1811.23,32.00,24.80,74.44,360.00,12.00,0.00,29.79,M,9.00,17.00,OVC,M,M,M,2800.00,M,M,M,M,M,M,M,M,M,M,22.00,K05U 120615Z AUTO 36012G17KT 9SM OVC028 M00/M04 A2979 RMK A01,M
MEV,2021-10-12 06:15,-119.7500,38.9963,1441.42,35.60,17.60,47.51,360.00,18.00,0.00,29.96,M,10.00,M,SCT,BKN,OVC,M,4200.00,4800.00,7500.00,M,M,M,M,M,M,M,M,24.49,KMEV 120615Z AUTO 36018KT 10SM SCT042 BKN048 OVC075 02/M08 A2996 RMK AO2,M
TMT,2021-10-12 06:15,-117.1971,39.4643,1749.34,28.40,26.40,92.09,0.00,0.00,0.00,29.87,M,10.00,M,BKN,OVC,M,M,3200.00,3900.00,M,M,M,M,M,M,M,M,M,28.40,KTMT 120615Z AUTO 00000KT 10SM BKN032 OVC039 M02/M03 A2987 RMK AO2 T10201031,M
INS,2021-10-12 06:27,-115.6733,36.5872,955.00,42.80,33.80,70.28,280.00,13.00,0.00,29.63,1000.90,10.00,20.00,OVC,M,M,M,2000.00,M,M,M,-RA,M,M,M,M,M,M,35.40,KINS 120627Z AUTO 28013G20KT 10SM -RA OVC020 06/01 A2963 RMK AO2 SLP009 $,M
INS,2021-10-12 06:30,-115.6733,36.5872,955.00,42.80,33.80,70.28,250.00,13.00,0.00,29.63,1000.90,10.00,19.00,OVC,M,M,M,2000.00,M,M,M,-RA,M,M,M,M,M,M,35.40,KINS 120630Z AUTO 25013G19KT 10SM -RA OVC020 06/01 A2963 RMK AO2 WSHFT 17 SLP009 $,M
CXP,2021-10-12 06:30,-119.7326,39.1923,1431.00,35.60,17.60,47.51,350.00,17.00,0.00,29.98,M,10.00,24.00,SCT,SCT,M,M,1900.00,2500.00,M,M,M,M,M,M,M,M,M,24.79,KCXP 120630Z AUTO 35017G24KT 10SM SCT019 SCT025 02/M08 A2998 RMK AO2,M
MEV,2021-10-12 06:35,-119.7500,38.9963,1441.42,35.60,17.60,47.51,360.00,18.00,0.00,29.97,M,10.00,26.00,FEW,SCT,BKN,M,3600.00,4500.00,5000.00,M,M,M,M,M,M,M,M,24.49,KMEV 120635Z AUTO 36018G26KT 10SM FEW036 SCT045 BKN050 02/M08 A2997 RMK AO2,M
BAM,2021-10-12 06:35,-116.8743,40.5990,1382.36,37.40,24.80,60.04,320.00,10.00,0.00,29.89,M,10.00,15.00,OVC,M,M,M,5500.00,M,M,M,M,M,M,M,M,M,M,29.74,KBAM 120635Z AUTO 32010G15KT 10SM OVC055 03/M04 A2989 RMK AO1,M
HTH,2021-10-12 06:35,-118.6315,38.5448,1282.89,37.40,24.80,60.04,350.00,16.00,0.00,29.93,M,10.00,23.00,FEW,BKN,BKN,M,3700.00,4200.00,4900.00,M,M,M,M,M,M,M,M,27.46,KHTH 120635Z AUTO 35016G23KT 10SM FEW037 BKN042 BKN049 03/M04 A2993 RMK A01,M
TMT,2021-10-12 06:35,-117.1971,39.4643,1749.34,27.50,25.70,92.83,190.00,3.00,0.00,29.87,M,10.00,M,BKN,OVC,M,M,3400.00,4400.00,M,M,M,M,M,M,M,M,M,23.54,KTMT 120635Z AUTO 19003KT 10SM BKN034 OVC044 M02/M03 A2987 RMK AO2 T10251035,M
BVU,2021-10-12 06:35,-114.8611,35.9475,671.00,46.40,37.40,70.68,320.00,19.00,0.00,29.52,M,4.00,30.00,SCT,OVC,M,M,1500.00,5000.00,M,M,RA,M,M,M,M,M,M,38.48,KBVU 120635Z AUTO 32019G30KT 4SM RA SCT015 OVC050 08/03 A2952 RMK AO2,M
RTS,2021-10-12 06:35,-119.8764,39.6682,1539.00,30.20,15.80,54.59,330.00,11.00,0.00,30.01,M,10.00,M,CLR,M,M,M,M,M,M,M,M,M,M,M,M,M,M,20.19,KRTS 120635Z AUTO 33011KT 10SM CLR M01/M09 A3001 RMK AO2,M
05U,2021-10-12 06:35,-116.0051,39.6042,1811.23,30.20,24.80,80.07,10.00,10.00,0.00,29.79,M,8.00,M,SCT,OVC,M,M,2500.00,3600.00,M,M,M,M,M,M,M,M,M,20.71,K05U 120635Z AUTO 01010KT 8SM SCT025 OVC036 M01/M04 A2979 RMK A01,M
DRA,2021-10-12 06:45,-116.0278,36.6206,1009.00,46.00,26.10,45.47,360.00,15.00,0.00,29.63,M,10.00,25.00,OVC,M,M,M,6000.00,M,M,M,M,M,M,M,M,M,M,38.93,KDRA 120645Z AUTO 36015G25KT 10SM OVC060 08/M03 A2963 RMK AO2 WSHFT 0628 T00781033 $,M
CXP,2021-10-12 06:50,-119.7326,39.1923,1431.00,35.60,17.60,47.51,340.00,15.00,0.00,29.97,M,10.00,22.00,FEW,M,M,M,2000.00,M,M,M,M,M,M,M,M,M,M,25.45,KCXP 120650Z AUTO 34015G22KT 10SM FEW020 02/M08 A2997 RMK AO2,M
LOL,2021-10-12 06:53,-118.5701,40.0684,1192.43,38.00,18.00,44.14,350.00,16.00,0.00,29.94,1014.40,10.00,22.00,CLR,M,M,M,M,M,M,M,M,M,M,M,26.00,350.00,2021-10-12 06:01,28.11,KLOL 120653Z AUTO 35016G22KT 10SM CLR 03/M08 A2994 RMK AO2 PK WND 35026/0601 SLP144 T00331078,M
DRA,2021-10-12 06:53,-116.0278,36.6206,1009.00,46.00,27.00,47.20,10.00,12.00,0.00,29.63,1000.40,10.00,M,OVC,M,M,M,6000.00,M,M,M,M,M,M,M,M,M,M,39.82,KDRA 120653Z AUTO 01012KT 10SM OVC060 08/M03 A2963 RMK AO2 WSHFT 0628 SLP004 T00781028 $,M
P68,2021-10-12 06:53,-116.0056,39.6014,1993.00,30.00,24.10,78.40,350.00,9.00,0.00,29.77,1008.00,M,18.00,M,M,M,M,M,M,M,M,M,M,M,M,M,M,M,21.03,KP68 120653Z AUTO 35009G18KT M01/M04 A2977 RMK AO1 SLP080 T10111044,M
ELY,2021-10-12 06:53,-114.8453,39.2950,1909.00,27.00,27.00,100.00,20.00,17.00,0.00,29.68,1002.90,10.00,23.00,BKN,OVC,M,M,700.00,4700.00,M,M,M,M,M,M,M,M,M,13.52,KELY 120653Z AUTO 02017G23KT 10SM BKN007 OVC047 M03/M03 A2968 RMK AO2 SLP029 T10281028 $,M
VGT,2021-10-12 06:53,-115.1933,36.2111,667.00,50.00,34.00,53.97,320.00,24.00,T,29.51,999.60,10.00,30.00,OVC,M,M,M,10000.00,M,M,M,DU,M,M,M,37.00,320.00,2021-10-12 06:27,50.00,KVGT 120653Z AUTO 32024G30KT 10SM DU OVC100 10/01 A2951 RMK AO2 PK WND 32037/0627 RAB0555E0557B16E50 SLP996 P0000 T01000011,M
RTS,2021-10-12 06:55,-119.8764,39.6682,1539.00,30.20,15.80,54.59,20.00,6.00,0.00,30.01,M,10.00,11.00,CLR,M,M,M,M,M,M,M,M,M,M,M,M,M,M,23.36,KRTS 120655Z AUTO 02006G11KT 10SM CLR M01/M09 A3001 RMK AO2,M
RNO,2021-10-12 06:55,-119.7711,39.4839,1341.00,36.00,17.10,45.77,320.00,7.00,0.00,29.99,1015.30,10.00,M,SCT,M,M,M,6500.00,M,M,M,M,M,M,M,M,M,M,29.65,KRNO 120655Z 32007KT 10SM SCT065 02/M08 A2999 RMK AO2 SLP153 T00221083 $,M
BVU,2021-10-12 06:55,-114.8611,35.9475,671.00,46.40,35.60,65.83,320.00,23.00,0.00,29.52,M,10.00,31.00,SCT,BKN,OVC,M,1500.00,2000.00,5500.00,M,-DZ,M,M,M,M,M,M,37.67,KBVU 120655Z AUTO 32023G31KT 10SM -DZ SCT015 BKN020 OVC055 08/02 A2952 RMK AO2,M
05U,2021-10-12 06:55,-116.0051,39.6042,1811.23,30.20,23.00,74.26,360.00,9.00,0.00,29.80,M,10.00,14.00,BKN,OVC,M,M,3700.00,5500.00,M,M,M,M,M,M,M,M,M,21.28,K05U 120655Z AUTO 36009G14KT 10SM BKN037 OVC055 M01/M05 A2980 RMK A01,M
MEV,2021-10-12 06:55,-119.7500,38.9963,1441.42,35.60,17.60,47.51,350.00,19.00,0.00,29.97,M,10.00,26.00,BKN,BKN,OVC,M,3600.00,4100.00,4700.00,M,M,M,M,M,M,M,M,24.20,KMEV 120655Z AUTO 35019G26KT 10SM BKN036 BKN041 OVC047 02/M08 A2997 RMK AO2,M
BAM,2021-10-12 06:55,-116.8743,40.5990,1382.36,35.60,24.80,64.46,350.00,11.00,0.00,29.89,M,10.00,17.00,SCT,BKN,BKN,M,5500.00,7500.00,9000.00,M,M,M,M,M,M,M,M,27.02,KBAM 120655Z AUTO 35011G17KT 10SM SCT055 BKN075 BKN090 02/M04 A2989 RMK AO1,M
HTH,2021-10-12 06:55,-118.6315,38.5448,1282.89,35.60,24.80,64.46,360.00,16.00,0.00,29.93,M,10.00,M,FEW,SCT,BKN,M,3700.00,4200.00,4800.00,M,M,M,M,M,M,M,M,25.11,KHTH 120655Z AUTO 36016KT 10SM FEW037 SCT042 BKN048 02/M04 A2993 RMK A01,M
TMT,2021-10-12 06:55,-117.1971,39.4643,1749.34,28.20,26.20,92.09,0.00,0.00,0.00,29.87,M,10.00,M,OVC,M,M,M,3600.00,M,M,M,M,M,M,M,M,M,M,28.20,KTMT 120655Z AUTO 00000KT 10SM OVC036 M02/M03 A2987 RMK AO2 T10211032,M
WMC,2021-10-12 06:56,-117.8072,40.9019,1315.00,35.00,19.00,51.47,350.00,19.00,0.00,29.93,1013.70,10.00,28.00,CLR,M,M,M,M,M,M,M,M,M,M,M,32.00,350.00,2021-10-12 06:20,23.54,KWMC 120656Z AUTO 35019G28KT 10SM CLR 02/M07 A2993 RMK AO2 PK WND 35032/0620 SLP137 T00171072 TSNO,M
TPH,2021-10-12 06:56,-117.0904,38.0505,1654.00,32.00,23.00,69.04,330.00,18.00,0.00,29.74,1006.50,10.00,24.00,CLR,M,M,M,M,M,M,M,M,M,M,M,30.00,350.00,2021-10-12 06:13,19.75,KTPH 120656Z AUTO 33018G24KT 10SM CLR 00/M05 A2974 RMK AO2 PK WND 35030/0613 SLP065 T00001050,M
HND,2021-10-12 06:56,-115.1344,35.9729,742.79,48.00,35.00,60.76,340.00,9.00,T,29.56,1001.30,10.00,M,OVC,M,M,M,5500.00,M,M,M,-RA,M,M,M,M,M,M,43.41,KHND 120656Z AUTO 34009KT 10SM -RA OVC055 09/02 A2956 RMK AO2 SLP013 P0000 T00890017 402440089,M
EKO,2021-10-12 06:56,-115.7860,40.8242,1367.00,36.00,19.00,49.66,40.00,12.00,0.00,29.79,1009.60,10.00,26.00,FEW,OVC,M,M,5000.00,7000.00,M,M,M,M,M,M,39.00,350.00,2021-10-12 06:08,27.09,KEKO 120656Z AUTO 04012G26KT 10SM FEW050 OVC070 02/M07 A2979 RMK AO2 PK WND 35039/0608 SLP096 T00221072,M
LAS,2021-10-12 06:56,-115.1634,36.0719,663.00,51.00,30.00,44.09,330.00,15.00,T,29.53,998.70,10.00,21.00,FEW,OVC,M,M,4200.00,6000.00,M,M,M,M,M,M,32.00,330.00,2021-10-12 06:19,51.10,KLAS 120656Z 33015G21KT 10SM FEW042 OVC060 11/M01 A2953 RMK AO2 PK WND 33032/0619 RAE02 SLP987 VCSH TOPS OF MTNS OBSCURED DSNT SW-NW P0000 T01061011 $,M
NFL,2021-10-12 06:56,-118.7010,39.4166,1199.00,37.00,21.00,51.99,340.00,12.00,0.00,29.94,1011.00,10.00,19.00,OVC,M,M,M,7000.00,M,M,M,M,M,M,M,M,M,M,28.37,KNFL 120656Z AUTO 34012G19KT 10SM OVC070 03/M06 A2994 RMK AO2 SLP110 T00281061,M
INS,2021-10-12 06:58,-115.6733,36.5872,955.00,42.30,32.50,68.01,290.00,14.00,T,29.63,1000.90,10.00,M,BKN,OVC,M,M,2200.00,3100.00,M,M,-RA,M,M,M,M,M,M,34.44,KINS 120658Z AUTO 29014KT 10SM -RA BKN022 OVC031 06/00 A2963 RMK AO2 BKN V OVC SLP009 P0000 T00570003 $,M
CXP,2021-10-12 07:10,-119.7326,39.1923,1431.00,35.60,17.60,47.51,340.00,13.00,0.00,29.98,M,10.00,21.00,CLR,M,M,M,M,M,M,M,M,M,M,M,M,M,M,26.18,KCXP 120710Z AUTO 34013G21KT 10SM CLR 02/M08 A2998 RMK AO2,M
ELY,2021-10-12 07:14,-114.8453,39.2950,1909.00,26.60,26.60,100.00,20.00,17.00,0.00,29.67,M,10.00,26.00,SCT,SCT,OVC,M,600.00,1000.00,4100.00,M,M,M,M,M,M,M,M,13.00,KELY 120714Z AUTO 02017G26KT 10SM SCT006 SCT010 OVC041 M03/M03 A2967,M
HTH,2021-10-12 07:15,-118.6315,38.5448,1282.89,37.40,23.00,55.68,350.00,17.00,0.00,29.93,M,10.00,24.00,FEW,SCT,BKN,M,2600.00,3500.00,4200.00,M,M,M,M,M,M,M,M,27.15,KHTH 120715Z AUTO 35017G24KT 10SM FEW026 SCT035 BKN042 03/M05 A2993 RMK A01,M
RTS,2021-10-12 07:15,-119.8764,39.6682,1539.00,30.20,15.80,54.59,350.00,9.00,0.00,30.01,M,10.00,M,CLR,M,M,M,M,M,M,M,M,M,M,M,M,M,M,21.28,KRTS 120715Z AUTO 35009KT 10SM CLR M01/M09 A3001 RMK AO2,M
BVU,2021-10-12 07:15,-114.8611,35.9475,671.00,48.20,33.80,57.26,320.00,26.00,0.00,29.52,M,10.00,33.00,BKN,OVC,M,M,5000.00,6000.00,M,M,M,M,M,M,M,M,M,39.58,KBVU 120715Z AUTO 32026G33KT 10SM BKN050 OVC060 09/01 A2952 RMK AO2,M
05U,2021-10-12 07:15,-116.0051,39.6042,1811.23,30.20,23.00,74.26,350.00,10.00,0.00,29.79,M,10.00,M,BKN,BKN,OVC,M,2900.00,4000.00,5500.00,M,M,M,M,M,M,M,M,20.71,K05U 120715Z AUTO 35010KT 10SM BKN029 BKN040 OVC055 M01/M05 A2979 RMK A01,M
MEV,2021-10-12 07:15,-119.7500,38.9963,1441.42,35.60,15.80,43.95,360.00,15.00,0.00,29.97,M,10.00,26.00,FEW,OVC,M,M,3500.00,4700.00,M,M,M,M,M,M,M,M,M,25.45,KMEV 120715Z AUTO 36015G26KT 10SM FEW035 OVC047 02/M09 A2997 RMK AO2,M
BAM,2021-10-12 07:15,-116.8743,40.5990,1382.36,35.60,26.60,69.46,330.00,13.00,0.00,29.88,M,10.00,18.00,SCT,SCT,BKN,M,5500.00,7500.00,9000.00,M,M,M,M,M,M,M,M,26.18,KBAM 120715Z AUTO 33013G18KT 10SM SCT055 SCT075 BKN090 02/M03 A2988 RMK AO1,M
TMT,2021-10-12 07:15,-117.1971,39.4643,1749.34,28.20,25.20,88.34,0.00,0.00,0.00,29.87,M,10.00,M,BKN,OVC,M,M,4100.00,4800.00,M,M,M,M,M,M,M,M,M,28.20,KTMT 120715Z AUTO 00000KT 10SM BKN041 OVC048 M02/M04 A2987 RMK AO2 T10211038,M
INS,2021-10-12 07:23,-115.6733,36.5872,955.00,42.80,33.80,70.28,290.00,17.00,0.00,29.63,1000.90,10.00,M,SCT,SCT,OVC,M,2200.00,2800.00,3200.00,M,-DZ,M,M,M,M,M,M,34.22,KINS 120723Z AUTO 29017KT 10SM -DZ SCT022 SCT028 OVC032 06/01 A2963 RMK AO2 RAE22DZB22 SLP009 $,M
INS,2021-10-12 07:28,-115.6733,36.5872,955.00,42.80,32.00,65.38,290.00,19.00,0.00,29.63,1000.90,10.00,M,SCT,BKN,OVC,M,2200.00,2800.00,3400.00,M,-DZ,M,M,M,M,M,M,33.72,KINS 120728Z AUTO 29019KT 10SM -DZ SCT022 BKN028 OVC034 06/00 A2963 RMK AO2 RAE22DZB22 CIG 023V032 BKN V SCT SLP009 $,M
CXP,2021-10-12 07:30,-119.7326,39.1923,1431.00,35.60,17.60,47.51,340.00,18.00,0.00,29.97,M,10.00,24.00,CLR,M,M,M,M,M,M,M,M,M,M,M,M,M,M,24.49,KCXP 120730Z AUTO 34018G24KT 10SM CLR 02/M08 A2997 RMK AO2,M
05U,2021-10-12 07:35,-116.0051,39.6042,1811.23,30.20,23.00,74.26,340.00,9.00,0.00,29.79,M,10.00,M,OVC,M,M,M,3200.00,M,M,M,M,M,M,M,M,M,M,21.28,K05U 120735Z AUTO 34009KT 10SM OVC032 M01/M05 A2979 RMK A01,M
RTS,2021-10-12 07:35,-119.8764,39.6682,1539.00,30.20,15.80,54.59,330.00,12.00,0.00,30.01,M,10.00,M,CLR,M,M,M,M,M,M,M,M,M,M,M,M,M,M,19.71,KRTS 120735Z AUTO 33012KT 10SM CLR M01/M09 A3001 RMK AO2,M
HTH,2021-10-12 07:35,-118.6315,38.5448,1282.89,35.60,23.00,59.79,350.00,14.00,0.00,29.93,M,10.00,20.00,FEW,SCT,OVC,M,2600.00,3600.00,4500.00,M,M,M,M,M,M,M,M,25.80,KHTH 120735Z AUTO 35014G20KT 10SM FEW026 SCT036 OVC045 02/M05 A2993 RMK A01,M
TMT,2021-10-12 07:35,-117.1971,39.4643,1749.34,28.40,23.50,81.62,0.00,0.00,0.00,29.87,M,10.00,M,OVC,M,M,M,4600.00,M,M,M,M,M,M,M,M,M,M,28.40,KTMT 120735Z AUTO 00000KT 10SM OVC046 M02/M05 A2987 RMK AO2 T10201047,M
MEV,2021-10-12 07:35,-119.7500,38.9963,1441.42,35.60,15.80,43.95,360.00,19.00,0.00,29.97,M,10.00,M,OVC,M,M,M,4600.00,M,M,M,M,M,M,M,M,M,M,24.20,KMEV 120735Z AUTO 36019KT 10SM OVC046 02/M09 A2997 RMK AO2,M
BAM,2021-10-12 07:35,-116.8743,40.5990,1382.36,35.60,26.60,69.46,330.00,14.00,0.00,29.89,M,10.00,18.00,SCT,SCT,BKN,M,5500.00,7000.00,8000.00,M,M,M,M,M,M,M,M,25.80,KBAM 120735Z AUTO 33014G18KT 10SM SCT055 SCT070 BKN080 02/M03 A2989 RMK AO1,M
BVU,2021-10-12 07:35,-114.8611,35.9475,671.00,48.20,33.80,57.26,330.00,22.00,0.00,29.53,M,10.00,29.00,OVC,M,M,M,5000.00,M,M,M,M,M,M,M,M,M,M,40.27,KBVU 120735Z AUTO 33022G29KT 10SM OVC050 09/01 A2953 RMK AO2,M
ELY,2021-10-12 07:40,-114.8453,39.2950,1909.00,28.40,28.40,100.00,20.00,16.00,0.00,29.68,M,10.00,M,BKN,OVC,M,M,900.00,4000.00,M,M,M,M,M,M,M,M,M,15.73,KELY 120740Z AUTO 02016KT 10SM BKN009 OVC040 M02/M02 A2968,M
INS,2021-10-12 07:48,-115.6733,36.5872,955.00,41.00,32.00,70.08,300.00,17.00,0.00,29.64,1001.20,10.00,24.00,BKN,BKN,OVC,M,1800.00,2500.00,3400.00,M,-RA,M,M,M,M,M,M,31.87,KINS 120748Z AUTO 30017G24KT 10SM -RA BKN018 BKN025 OVC034 05/00 A2964 RMK AO2 RAE22DZB22E30RAB30 CIG 018V026 BKN018 V SCT SLP012 $,M
CXP,2021-10-12 07:50,-119.7326,39.1923,1431.00,35.60,15.80,43.95,340.00,18.00,0.00,29.98,M,10.00,24.00,CLR,M,M,M,M,M,M,M,M,M,M,M,M,M,M,24.49,KCXP 120750Z AUTO 34018G24KT 10SM CLR 02/M09 A2998 RMK AO2,M
P68,2021-10-12 07:53,-116.0056,39.6014,1993.00,30.00,21.90,71.48,340.00,11.00,0.00,29.76,1007.90,M,M,M,M,M,M,M,M,M,M,M,M,M,M,M,M,M,19.94,KP68 120753Z AUTO 34011KT M01/M06 A2976 RMK AO1 SLP079 T10111056 400221033,M
ELY,2021-10-12 07:53,-114.8453,39.2950,1909.00,28.00,28.00,100.00,20.00,16.00,0.00,29.68,1003.90,10.00,M,OVC,M,M,M,800.00,M,M,M,M,M,M,M,26.00,20.00,2021-10-12 07:14,15.20,KELY 120753Z AUTO 02016KT 10SM OVC008 M02/M02 A2968 RMK AO2 PK WND 02026/0714 SLP039 T10221022 401061028 $,M
LOL,2021-10-12 07:53,-118.5701,40.0684,1192.43,37.00,18.00,45.73,350.00,15.00,0.00,29.95,1014.50,10.00,M,CLR,M,M,M,M,M,M,M,M,M,M,M,M,M,M,27.26,KLOL 120753Z AUTO 35015KT 10SM CLR 03/M08 A2995 RMK AO2 SLP145 T00281078 401000028,M
INS,2021-10-12 07:53,-115.6733,36.5872,955.00,41.00,32.00,70.08,290.00,17.00,0.00,29.64,1001.20,10.00,M,BKN,OVC,M,M,2000.00,2600.00,M,M,-RA,M,M,M,M,M,M,31.87,KINS 120753Z AUTO 29017KT 10SM -RA BKN020 OVC026 05/00 A2964 RMK AO2 RAE22DZB22E30RAB30 CIG 018V025 SLP012 $,M
DRA,2021-10-12 07:53,-116.0278,36.6206,1009.00,47.00,26.10,43.95,10.00,14.00,0.00,29.63,1000.30,10.00,M,OVC,M,M,M,5500.00,M,M,M,M,M,M,M,29.00,10.00,2021-10-12 07:10,40.37,KDRA 120753Z AUTO 01014KT 10SM OVC055 08/M03 A2963 RMK AO2 PK WND 01029/0710 SLP003 T00831033 402220050 $,M
VGT,2021-10-12 07:53,-115.1933,36.2111,667.00,49.00,33.00,54.24,320.00,24.00,T,29.51,999.90,10.00,32.00,BKN,BKN,OVC,M,7000.00,9000.00,12000.00,M,DU,M,M,M,38.00,320.00,2021-10-12 07:40,40.86,KVGT 120753Z AUTO 32024G32KT 10SM DU BKN070 BKN090 OVC120 09/01 A2951 RMK AO2 PK WND 32038/0740 RAB08E52 SLP999 P0000 T00940006 402560094,M
HTH,2021-10-12 07:55,-118.6315,38.5448,1282.89,37.40,21.20,51.61,350.00,18.00,0.00,29.93,M,10.00,24.00,OVC,M,M,M,4700.00,M,M,M,M,M,M,M,M,M,M,26.86,KHTH 120755Z AUTO 35018G24KT 10SM OVC047 03/M06 A2993 RMK A01,M
TMT,2021-10-12 07:55,-117.1971,39.4643,1749.34,27.50,22.80,82.24,350.00,4.00,0.00,29.87,M,10.00,M,SCT,OVC,M,M,4500.00,5000.00,M,M,M,M,M,M,M,M,M,22.17,KTMT 120755Z AUTO 35004KT 10SM SCT045 OVC050 M02/M05 A2987 RMK AO2 T10251051 400401027,M
BVU,2021-10-12 07:55,-114.8611,35.9475,671.00,48.20,33.80,57.26,320.00,26.00,0.00,29.53,M,10.00,32.00,OVC,M,M,M,5500.00,M,M,M,M,M,M,M,M,M,M,39.58,KBVU 120755Z AUTO 32026G32KT 10SM OVC055 09/01 A2953 RMK AO2,M
RNO,2021-10-12 07:55,-119.7711,39.4839,1341.00,35.00,17.10,47.43,300.00,10.00,0.00,30.00,1015.40,10.00,M,SCT,M,M,M,6500.00,M,M,M,M,M,M,M,M,M,M,26.86,KRNO 120755Z 30010KT 10SM SCT065 02/M08 A3000 RMK AO2 SLP154 T00171083 401220006 $,M
RTS,2021-10-12 07:55,-119.8764,39.6682,1539.00,30.20,15.80,54.59,330.00,13.00,0.00,30.01,M,10.00,M,CLR,M,M,M,M,M,M,M,M,M,M,M,M,M,M,19.26,KRTS 120755Z AUTO 33013KT 10SM CLR M01/M09 A3001 RMK AO2,M
05U,2021-10-12 07:55,-116.0051,39.6042,1811.23,30.20,21.20,68.83,340.00,12.00,0.00,29.79,M,10.00,18.00,OVC,M,M,M,3200.00,M,M,M,M,M,M,M,M,M,M,19.71,K05U 120755Z AUTO 34012G18KT 10SM OVC032 M01/M06 A2979 RMK A01,M
MEV,2021-10-12 07:55,-119.7500,38.9963,1441.42,33.80,15.80,47.22,350.00,16.00,0.00,29.98,M,10.00,M,OVC,M,M,M,4600.00,M,M,M,M,M,M,M,M,M,M,22.76,KMEV 120755Z AUTO 35016KT 10SM OVC046 01/M09 A2998 RMK AO2,M
BAM,2021-10-12 07:55,-116.8743,40.5990,1382.36,35.60,24.80,64.46,320.00,15.00,0.00,29.88,M,10.00,20.00,BKN,BKN,M,M,7000.00,8000.00,M,M,M,M,M,M,M,M,M,25.45,KBAM 120755Z AUTO 32015G20KT 10SM BKN070 BKN080 02/M04 A2988 RMK AO1,M
LAS,2021-10-12 07:56,-115.1634,36.0719,663.00,51.00,28.90,42.16,320.00,18.00,0.00,29.55,999.10,10.00,25.00,FEW,BKN,OVC,M,5500.00,7500.00,9500.00,M,M,M,M,M,33.00,320.00,2021-10-12 07:19,51.10,KLAS 120756Z 32018G25KT 10SM FEW055 BKN075 OVC095 11/M02 A2955 RMK AO2 PK WND 32033/0719 SLP991 VIRGA DSNT S-SW TOPS OF MTNS OBSCURED DSNT W T01061017 402500094 $,M
EKO,2021-10-12 07:56,-115.7860,40.8242,1367.00,35.00,19.90,53.49,0.00,0.00,0.00,29.79,1009.30,10.00,M,OVC,M,M,M,6000.00,M,M,M,M,M,M,M,M,M,M,35.10,KEKO 120756Z AUTO 00000KT 10SM OVC060 02/M07 A2979 RMK AO2 SLP093 T00171067 400610006,M
WMC,2021-10-12 07:56,-117.8072,40.9019,1315.00,34.00,18.00,51.52,340.00,15.00,0.00,29.93,1013.80,10.00,27.00,CLR,M,M,M,M,M,M,M,M,M,M,M,33.00,340.00,2021-10-12 07:09,23.37,KWMC 120756Z AUTO 34015G27KT 10SM CLR 01/M08 A2993 RMK AO2 PK WND 34033/0709 SLP138 T00111078 400720011 TSNO,M
NFL,2021-10-12 07:56,-118.7010,39.4166,1199.00,37.00,21.00,51.99,350.00,17.00,0.00,29.94,1011.10,10.00,M,CLR,M,M,M,M,M,M,M,M,M,M,M,M,M,M,26.63,KNFL 120756Z AUTO 35017KT 10SM CLR 03/M06 A2994 RMK AO2 SLP111 T00281061 400940011,M
TPH,2021-10-12 07:56,-117.0904,38.0505,1654.00,34.00,21.00,58.56,340.00,18.00,0.00,29.75,1006.40,10.00,28.00,CLR,M,M,M,M,M,M,M,M,M,M,M,34.00,350.00,2021-10-12 07:42,22.38,KTPH 120756Z AUTO 34018G28KT 10SM CLR 01/M06 A2975 RMK AO2 PK WND 35034/0742 SLP064 T00111061 400941011,M
HND,2021-10-12 07:56,-115.1344,35.9729,742.79,50.00,30.90,47.64,330.00,14.00,T,29.56,1001.40,10.00,23.00,OVC,M,M,M,7000.00,M,M,M,M,M,M,M,M,M,M,50.00,KHND 120756Z AUTO 33014G23KT 10SM OVC070 10/M01 A2956 RMK AO2 RAE22 SLP014 P0000 T01001006,M
INS,2021-10-12 07:58,-115.6733,36.5872,955.00,41.40,32.40,70.12,300.00,18.00,T,29.65,1001.60,10.00,25.00,OVC,M,M,M,2000.00,M,M,M,-RA,M,M,M,26.00,310.00,2021-10-12 07:48,32.12,KINS 120758Z AUTO 30018G25KT 10SM -RA OVC020 05/00 A2965 RMK AO2 PK WND 31026/48 RAE22DZB22E30RAB30 OVC V BKN SLP016 P0000 T00520002 402180042 $,M
LSV,2021-10-12 07:58,-115.0343,36.2362,570.00,46.80,38.00,71.00,310.00,20.00,0.03,29.54,999.20,10.00,38.00,BKN,M,M,M,6000.00,M,M,M,-DZ,M,M,M,46.00,300.00,2021-10-12 07:57,38.80,KLSV 120758Z 31020G38KT 10SM -DZ BKN060 08/03 A2954 RMK A02A PK WND 30046/0757 RAB0703E0716DZB08 SLP992 P0003 60015 T00820033 53008 $,M
INS,2021-10-12 08:08,-115.6733,36.5872,955.00,41.00,33.80,75.33,260.00,14.00,0.00,29.65,1001.60,10.00,23.00,OVC,M,M,M,2000.00,M,M,M,-RA,M,M,M,M,M,M,32.76,KINS 120808Z AUTO 26014G23KT 10SM -RA OVC020 05/01 A2965 RMK AO2 WSHFT 0755 SLP016 $,M
CXP,2021-10-12 08:10,-119.7326,39.1923,1431.00,33.80,15.80,47.22,340.00,18.00,0.00,29.99,M,10.00,25.00,CLR,M,M,M,M,M,M,M,M,M,M,M,M,M,M,22.12,KCXP 120810Z AUTO 34018G25KT 10SM CLR 01/M09 A2999 RMK AO2,M
05U,2021-10-12 08:15,-116.0051,39.6042,1811.23,30.20,21.20,68.83,340.00,12.00,0.00,29.80,M,10.00,M,OVC,M,M,M,3200.00,M,M,M,M,M,M,M,M,M,M,19.71,K05U 120815Z AUTO 34012KT 10SM OVC032 M01/M06 A2980 RMK A01,M
RTS,2021-10-12 08:15,-119.8764,39.6682,1539.00,30.20,14.00,50.47,330.00,13.00,0.00,30.02,M,10.00,M,CLR,M,M,M,M,M,M,M,M,M,M,M,M,M,M,19.26,KRTS 120815Z AUTO 33013KT 10SM CLR M01/M10 A3002 RMK AO2,M
BVU,2021-10-12 08:15,-114.8611,35.9475,671.00,48.20,33.80,57.26,330.00,17.00,0.00,29.56,M,10.00,26.00,SCT,SCT,OVC,M,6000.00,7000.00,7500.00,M,M,M,M,M,M,M,M,41.30,KBVU 120815Z AUTO 33017G26KT 10SM SCT060 SCT070 OVC075 09/01 A2956 RMK AO2,M
TMT,2021-10-12 08:15,-117.1971,39.4643,1749.34,25.50,21.20,83.49,0.00,0.00,0.00,29.87,M,10.00,M,OVC,M,M,M,5000.00,M,M,M,M,M,M,M,M,M,M,25.50,KTMT 120815Z AUTO 00000KT 10SM OVC050 M04/M06 A2987 RMK AO2 T10361060,M
HTH,2021-10-12 08:15,-118.6315,38.5448,1282.89,35.60,19.40,51.33,350.00,18.00,0.00,29.94,M,10.00,24.00,SCT,SCT,M,M,4900.00,6000.00,M,M,M,M,M,M,M,M,M,24.49,KHTH 120815Z AUTO 35018G24KT 10SM SCT049 SCT060 02/M07 A2994 RMK A01,M
BAM,2021-10-12 08:15,-116.8743,40.5990,1382.36,33.80,24.80,69.25,330.00,14.00,0.00,29.89,M,10.00,19.00,OVC,M,M,M,6000.00,M,M,M,M,M,M,M,M,M,M,23.48,KBAM 120815Z AUTO 33014G19KT 10SM OVC060 01/M04 A2989 RMK AO1,M
MEV,2021-10-12 08:15,-119.7500,38.9963,1441.42,33.80,15.80,47.22,360.00,15.00,0.00,29.98,M,10.00,M,FEW,OVC,M,M,3700.00,4300.00,M,M,M,M,M,M,M,M,M,23.11,KMEV 120815Z AUTO 36015KT 10SM FEW037 OVC043 01/M09 A2998 RMK AO2,M
ELY,2021-10-12 08:30,-114.8453,39.2950,1909.00,28.40,28.40,100.00,10.00,16.00,0.00,29.67,M,10.00,26.00,SCT,OVC,M,M,1000.00,3700.00,M,M,M,M,M,M,M,M,M,15.73,KELY 120830Z AUTO 01016G26KT 10SM SCT010 OVC037 M02/M02 A2967,M
CXP,2021-10-12 08:30,-119.7326,39.1923,1431.00,33.80,15.80,47.22,340.00,15.00,0.00,29.98,M,10.00,23.00,CLR,M,M,M,M,M,M,M,M,M,M,M,M,M,M,23.11,KCXP 120830Z AUTO 34015G23KT 10SM CLR 01/M09 A2998 RMK AO2,M
INS,2021-10-12 08:34,-115.6733,36.5872,955.00,39.20,35.60,86.79,260.00,14.00,0.00,29.66,1001.90,10.00,M,FEW,OVC,M,M,1300.00,2200.00,M,M,-RA,M,M,M,M,M,M,30.44,KINS 120834Z AUTO 26014KT 10SM -RA FEW013 OVC022 04/02 A2966 RMK AO2 SLP019 $,M
TMT,2021-10-12 08:35,-117.1971,39.4643,1749.34,26.20,21.60,82.49,0.00,0.00,0.00,29.88,M,10.00,M,SCT,OVC,M,M,4700.00,5000.00,M,M,M,M,M,M,M,M,M,26.20,KTMT 120835Z AUTO 00000KT 10SM SCT047 OVC050 M03/M06 A2988 RMK AO2 T10321058,M
BVU,2021-10-12 08:35,-114.8611,35.9475,671.00,46.40,33.80,61.28,320.00,17.00,0.00,29.58,M,10.00,23.00,SCT,BKN,OVC,M,4900.00,6000.00,7500.00,M,M,M,M,M,M,M,M,38.94,KBVU 120835Z AUTO 32017G23KT 10SM SCT049 BKN060 OVC075 08/01 A2958 RMK AO2,M
HTH,2021-10-12 08:35,-118.6315,38.5448,1282.89,35.60,21.20,55.41,350.00,20.00,0.00,29.94,M,10.00,M,CLR,M,M,M,M,M,M,M,M,M,M,M,M,M,M,23.92,KHTH 120835Z AUTO 35020KT 10SM CLR 02/M06 A2994 RMK A01,M
05U,2021-10-12 08:35,-116.0051,39.6042,1811.23,30.20,21.20,68.83,330.00,11.00,0.00,29.80,M,10.00,16.00,OVC,M,M,M,3200.00,M,M,M,M,M,M,M,M,M,M,20.19,K05U 120835Z AUTO 33011G16KT 10SM OVC032 M01/M06 A2980 RMK A01,M
RTS,2021-10-12 08:35,-119.8764,39.6682,1539.00,30.20,14.00,50.47,330.00,11.00,0.00,30.02,M,10.00,M,CLR,M,M,M,M,M,M,M,M,M,M,M,M,M,M,20.19,KRTS 120835Z AUTO 33011KT 10SM CLR M01/M10 A3002 RMK AO2,M
BAM,2021-10-12 08:35,-116.8743,40.5990,1382.36,33.80,24.80,69.25,320.00,13.00,0.00,29.89,M,10.00,21.00,OVC,M,M,M,6000.00,M,M,M,M,M,M,M,M,M,M,23.87,KBAM 120835Z AUTO 32013G21KT 10SM OVC060 01/M04 A2989 RMK AO1,M
MEV,2021-10-12 08:35,-119.7500,38.9963,1441.42,33.80,15.80,47.22,360.00,15.00,0.00,29.98,M,10.00,M,BKN,OVC,M,M,4000.00,4600.00,M,M,M,M,M,M,M,M,M,23.11,KMEV 120835Z AUTO 36015KT 10SM BKN040 OVC046 01/M09 A2998 RMK AO2,M
ELY,2021-10-12 08:40,-114.8453,39.2950,1909.00,28.00,28.00,100.00,10.00,17.00,0.00,29.67,M,10.00,27.00,BKN,OVC,M,M,1000.00,3700.00,M,M,M,M,M,M,27.00,10.00,2021-10-12 08:07,14.83,KELY 120840Z AUTO 01017G27KT 10SM BKN010 OVC037 M02/M02 A2967 RMK AO2 PK WND 01027/0807 T10221022 $,M
CXP,2021-10-12 08:50,-119.7326,39.1923,1431.00,33.80,15.80,47.22,340.00,14.00,0.00,29.99,M,10.00,20.00,CLR,M,M,M,M,M,M,M,M,M,M,M,M,M,M,23.48,KCXP 120850Z AUTO 34014G20KT 10SM CLR 01/M09 A2999 RMK AO2,M
ELY,2021-10-12 08:53,-114.8453,39.2950,1909.00,28.00,27.00,95.97,10.00,17.00,0.00,29.67,1004.20,10.00,M,BKN,OVC,M,M,1100.00,3500.00,M,M,M,M,M,M,27.00,10.00,2021-10-12 08:07,14.83,KELY 120853Z AUTO 01017KT 10SM BKN011 OVC035 M02/M03 A2967 RMK AO2 PK WND 01027/0807 SLP042 T10221028 56008 $,M
P68,2021-10-12 08:53,-116.0056,39.6014,1993.00,28.90,21.90,74.76,340.00,13.00,0.00,29.78,1008.60,M,21.00,M,M,M,M,M,M,M,M,M,M,M,M,M,M,M,17.60,KP68 120853Z AUTO 34013G21KT M02/M06 A2978 RMK AO1 SLP086 T10171056 53003,M
VGT,2021-10-12 08:53,-115.1933,36.2111,667.00,48.00,35.00,60.76,320.00,24.00,T,29.53,1000.40,10.00,39.00,SCT,BKN,OVC,M,6000.00,7000.00,11000.00,M,-RA DU,M,M,M,42.00,330.00,2021-10-12 08:38,39.64,KVGT 120853Z AUTO 32024G39KT 10SM -RA DU SCT060 BKN070 OVC110 09/02 A2953 RMK AO2 PK WND 33042/0838 RAB19 SLP004 P0000 60000 T00890017 53006,M
DRA,2021-10-12 08:53,-116.0278,36.6206,1009.00,45.00,27.00,49.02,0.00,0.00,0.00,29.64,1000.80,10.00,M,OVC,M,M,M,6000.00,M,M,M,M,M,M,M,M,M,M,45.00,KDRA 120853Z AUTO 00000KT 10SM OVC060 07/M03 A2964 RMK AO2 SLP008 T00721028 53002 $,M
LOL,2021-10-12 08:53,-118.5701,40.0684,1192.43,35.00,18.00,49.31,330.00,14.00,0.00,29.96,1015.10,10.00,20.00,CLR,M,M,M,M,M,M,M,M,M,M,M,M,M,M,25.16,KLOL 120853Z AUTO 33014G20KT 10SM CLR 02/M08 A2996 RMK AO2 SLP151 T00171078 53006,M
INS,2021-10-12 08:54,-115.6733,36.5872,955.00,41.00,33.80,75.33,270.00,11.00,0.00,29.66,1001.90,10.00,M,OVC,M,M,M,1700.00,M,M,M,-RA,M,M,M,M,M,M,33.84,KINS 120854Z AUTO 27011KT 10SM -RA OVC017 05/01 A2966 RMK AO2 CIG 014V021 SLP019 $,M
BVU,2021-10-12 08:55,-114.8611,35.9475,671.00,46.40,35.60,65.83,320.00,15.00,0.00,29.58,M,10.00,28.00,BKN,BKN,OVC,M,4400.00,6000.00,8500.00,M,M,M,M,M,M,M,M,39.45,KBVU 120855Z AUTO 32015G28KT 10SM BKN044 BKN060 OVC085 08/02 A2958 RMK AO2,M
RNO,2021-10-12 08:55,-119.7711,39.4839,1341.00,35.00,16.00,45.22,300.00,8.00,0.00,30.01,1015.90,10.00,M,SCT,M,M,M,5500.00,M,M,M,M,M,M,M,M,M,M,27.93,KRNO 120855Z 30008KT 10SM SCT055 02/M09 A3001 RMK AO2 SLP159 T00171089 53005 $,M
BAM,2021-10-12 08:55,-116.8743,40.5990,1382.36,33.80,24.80,69.25,330.00,15.00,0.00,29.89,M,10.00,20.00,OVC,M,M,M,6000.00,M,M,M,M,M,M,M,M,M,M,23.11,KBAM 120855Z AUTO 33015G20KT 10SM OVC060 01/M04 A2989 RMK AO1,M
HTH,2021-10-12 08:55,-118.6315,38.5448,1282.89,35.60,21.20,55.41,350.00,19.00,0.00,29.94,M,10.00,27.00,SCT,M,M,M,5500.00,M,M,M,M,M,M,M,M,M,M,24.20,KHTH 120855Z AUTO 35019G27KT 10SM SCT055 02/M06 A2994 RMK A01,M
05U,2021-10-12 08:55,-116.0051,39.6042,1811.23,30.20,21.20,68.83,340.00,12.00,0.00,29.81,M,10.00,19.00,OVC,M,M,M,3100.00,M,M,M,M,M,M,M,M,M,M,19.71,K05U 120855Z AUTO 34012G19KT 10SM OVC031 M01/M06 A2981 RMK A01,M
INS,2021-10-12 08:55,-115.6733,36.5872,955.00,41.00,33.80,75.33,280.00,12.00,0.00,29.66,1001.90,10.00,M,OVC,M,M,M,1400.00,M,M,M,-RA,M,M,M,M,M,M,33.46,KINS 120855Z AUTO 28012KT 10SM -RA OVC014 05/01 A2966 RMK AO2 CIG 014V021 SLP019 $,M
RTS,2021-10-12 08:55,-119.8764,39.6682,1539.00,30.20,14.00,50.47,320.00,11.00,0.00,30.02,M,10.00,16.00,CLR,M,M,M,M,M,M,M,M,M,M,M,M,M,M,20.19,KRTS 120855Z AUTO 32011G16KT 10SM CLR M01/M10 A3002 RMK AO2,M
MEV,2021-10-12 08:55,-119.7500,38.9963,1441.42,33.80,15.80,47.22,350.00,12.00,0.00,30.00,M,10.00,22.00,BKN,OVC,M,M,3800.00,4400.00,M,M,M,M,M,M,M,M,M,24.29,KMEV 120855Z AUTO 35012G22KT 10SM BKN038 OVC044 01/M09 A3000 RMK AO2,M
TMT,2021-10-12 08:55,-117.1971,39.4643,1749.34,25.70,21.70,84.57,40.00,3.00,0.00,29.89,M,10.00,M,SCT,OVC,M,M,3800.00,5000.00,M,M,M,M,M,M,M,M,M,21.49,KTMT 120855Z AUTO 04003KT 10SM SCT038 OVC050 M03/M06 A2989 RMK AO2 T10351057,M
EKO,2021-10-12 08:56,-115.7860,40.8242,1367.00,35.00,19.00,51.47,10.00,14.00,0.00,29.81,1009.80,10.00,26.00,OVC,M,M,M,5000.00,M,M,M,M,M,M,M,31.00,360.00,2021-10-12 08:20,25.16,KEKO 120856Z AUTO 01014G26KT 10SM OVC050 02/M07 A2981 RMK AO2 PK WND 36031/0820 SLP098 T00171072 53004,M
LAS,2021-10-12 08:56,-115.1634,36.0719,663.00,50.00,30.00,45.93,330.00,14.00,0.00,29.57,1000.10,10.00,22.00,OVC,M,M,M,6000.00,M,M,M,M,M,M,M,36.00,340.00,2021-10-12 08:16,50.00,KLAS 120856Z 33014G22KT 10SM OVC060 10/M01 A2957 RMK AO2 PK WND 34036/0816 SLP001 SHRA DSNT SW-NW CIG LWR DSNT W-NW 60000 T01001011 53012 $,M
WMC,2021-10-12 08:56,-117.8072,40.9019,1315.00,33.00,19.00,55.75,330.00,14.00,0.00,29.94,1014.10,10.00,29.00,CLR,M,M,M,M,M,M,M,M,M,M,M,34.00,340.00,2021-10-12 08:43,22.58,KWMC 120856Z AUTO 33014G29KT 10SM CLR 01/M07 A2994 RMK AO2 PK WND 34034/0843 SLP141 T00061072 53004 TSNO,M
NFL,2021-10-12 08:56,-118.7010,39.4166,1199.00,35.00,21.00,56.05,330.00,12.00,0.00,29.96,1011.60,10.00,M,CLR,M,M,M,M,M,M,M,M,M,M,M,M,M,M,25.95,KNFL 120856Z AUTO 33012KT 10SM CLR 02/M06 A2996 RMK AO2 SLP116 T00171061 53006,M
TPH,2021-10-12 08:56,-117.0904,38.0505,1654.00,33.00,23.00,66.06,330.00,17.00,0.00,29.76,1007.30,10.00,M,BKN,M,M,M,11000.00,M,M,M,M,M,M,M,M,M,M,21.52,KTPH 120856Z AUTO 33017KT 10SM BKN110 01/M05 A2976 RMK AO2 SLP073 T00061050 53004,M
HND,2021-10-12 08:56,-115.1344,35.9729,742.79,50.00,30.00,45.93,360.00,14.00,0.00,29.59,1002.20,10.00,M,OVC,M,M,M,6000.00,M,M,M,M,M,M,M,M,M,M,50.00,KHND 120856Z AUTO 36014KT 10SM OVC060 10/M01 A2959 RMK AO2 SLP022 60000 T01001011 53010,M
INS,2021-10-12 08:58,-115.6733,36.5872,955.00,40.30,35.00,80.88,270.00,12.00,0.01,29.67,1002.30,10.00,M,OVC,M,M,M,1400.00,M,M,M,-RA,M,M,M,26.00,290.00,2021-10-12 07:57,32.57,KINS 120858Z AUTO 27012KT 10SM -RA OVC014 05/02 A2967 RMK AO2 PK WND 29026/0757 CIG 014V021 SLP023 P0001 60001 T00460016 53009 $,M
LSV,2021-10-12 08:58,-115.0343,36.2362,570.00,46.40,37.20,70.13,300.00,24.00,0.03,29.55,999.50,10.00,39.00,FEW,M,M,M,7500.00,M,M,M,M,M,M,M,43.00,310.00,2021-10-12 08:09,37.49,KLSV 120858Z 30024G39KT 10SM FEW075 08/03 A2955 RMK AO2A PK WND 31043/09 DZE0758DZB08E37 SLP995 P0003 60011 T00800029 50013 $,M
CXP,2021-10-12 09:10,-119.7326,39.1923,1431.00,33.80,15.80,47.22,350.00,9.00,0.00,30.00,M,10.00,17.00,CLR,M,M,M,M,M,M,M,M,M,M,M,M,M,M,25.75,KCXP 120910Z AUTO 35009G17KT 10SM CLR 01/M09 A3000 RMK AO2,M
ELY,2021-10-12 09:10,-114.8453,39.2950,1909.00,28.00,27.00,95.97,10.00,16.00,0.00,29.68,M,10.00,23.00,FEW,BKN,OVC,M,1100.00,2700.00,3500.00,M,M,M,M,M,M,M,M,15.20,KELY 120910Z AUTO 01016G23KT 10SM FEW011 BKN027 OVC035 M02/M03 A2968 RMK AO2 T10221028 $,M
HTH,2021-10-12 09:15,-118.6315,38.5448,1282.89,35.60,19.40,51.33,340.00,16.00,0.00,29.95,M,10.00,25.00,BKN,OVC,M,M,5500.00,6500.00,M,M,M,M,M,M,M,M,M,25.11,KHTH 120915Z AUTO 34016G25KT 10SM BKN055 OVC065 02/M07 A2995 RMK A01,M
RTS,2021-10-12 09:15,-119.8764,39.6682,1539.00,30.20,14.00,50.47,320.00,12.00,0.00,30.02,M,10.00,M,CLR,M,M,M,M,M,M,M,M,M,M,M,M,M,M,19.71,KRTS 120915Z AUTO 32012KT 10SM CLR M01/M10 A3002 RMK AO2,M
TMT,2021-10-12 09:15,-117.1971,39.4643,1749.34,26.40,21.70,82.16,0.00,0.00,0.00,29.89,M,10.00,M,BKN,BKN,OVC,M,3600.00,4400.00,5000.00,M,M,M,M,M,M,M,M,26.40,KTMT 120915Z AUTO 00000KT 10SM BKN036 BKN044 OVC050 M03/M06 A2989 RMK AO2 T10311057,M
BAM,2021-10-12 09:15,-116.8743,40.5990,1382.36,33.80,23.00,64.23,320.00,13.00,0.00,29.90,M,10.00,19.00,OVC,M,M,M,6000.00,M,M,M,M,M,M,M,M,M,M,23.87,KBAM 120915Z AUTO 32013G19KT 10SM OVC060 01/M05 A2990 RMK AO1,M
MEV,2021-10-12 09:15,-119.7500,38.9963,1441.42,33.80,15.80,47.22,360.00,13.00,0.00,29.99,M,10.00,M,FEW,BKN,OVC,M,3700.00,4300.00,5500.00,M,M,M,M,M,M,M,M,23.87,KMEV 120915Z AUTO 36013KT 10SM FEW037 BKN043 OVC055 01/M09 A2999 RMK AO2,M
05U,2021-10-12 09:15,-116.0051,39.6042,1811.23,28.40,21.20,74.08,330.00,14.00,0.00,29.80,M,6.00,22.00,OVC,M,M,M,3000.00,M,M,M,HZ,M,M,M,M,M,M,16.52,K05U 120915Z AUTO 33014G22KT 6SM HZ OVC030 M02/M06 A2980 RMK A01,M
BVU,2021-10-12 09:15,-114.8611,35.9475,671.00,44.60,35.60,70.48,330.00,16.00,0.00,29.60,M,10.00,23.00,SCT,OVC,M,M,3800.00,4400.00,M,M,M,M,M,M,M,M,M,36.84,KBVU 120915Z AUTO 33016G23KT 10SM SCT038 OVC044 07/02 A2960 RMK AO2,M
INS,2021-10-12 09:18,-115.6733,36.5872,955.00,41.00,35.60,80.93,270.00,12.00,0.00,29.67,1002.30,10.00,M,OVC,M,M,M,1500.00,M,M,M,-RA,M,M,M,M,M,M,33.46,KINS 120918Z AUTO 27012KT 10SM -RA OVC015 05/02 A2967 RMK AO2 SLP023 $,M
CXP,2021-10-12 09:30,-119.7326,39.1923,1431.00,32.00,15.80,50.75,360.00,7.00,0.00,30.00,M,10.00,M,CLR,M,M,M,M,M,M,M,M,M,M,M,M,M,M,24.78,KCXP 120930Z AUTO 36007KT 10SM CLR 00/M09 A3000 RMK AO2,M
BAM,2021-10-12 09:35,-116.8743,40.5990,1382.36,33.80,23.00,64.23,340.00,8.00,0.00,29.91,M,10.00,16.00,OVC,M,M,M,5000.00,M,M,M,M,M,M,M,M,M,M,26.33,KBAM 120935Z AUTO 34008G16KT 10SM OVC050 01/M05 A2991 RMK AO1,M
HTH,2021-10-12 09:35,-118.6315,38.5448,1282.89,35.60,19.40,51.33,350.00,16.00,0.00,29.96,M,10.00,22.00,SCT,BKN,OVC,M,6000.00,7000.00,8000.00,M,M,M,M,M,M,M,M,25.11,KHTH 120935Z AUTO 35016G22KT 10SM SCT060 BKN070 OVC080 02/M07 A2996 RMK A01,M
BVU,2021-10-12 09:35,-114.8611,35.9475,671.00,42.80,37.40,81.07,320.00,16.00,0.00,29.60,M,4.00,26.00,BKN,BKN,OVC,M,1700.00,2900.00,3900.00,M,RA,M,M,M,M,M,M,34.50,KBVU 120935Z AUTO 32016G26KT 4SM RA BKN017 BKN029 OVC039 06/03 A2960 RMK AO2,M
MEV,2021-10-12 09:35,-119.7500,38.9963,1441.42,33.80,15.80,47.22,350.00,12.00,0.00,30.00,M,10.00,19.00,FEW,SCT,OVC,M,3700.00,4300.00,5000.00,M,M,M,M,M,M,M,M,24.29,KMEV 120935Z AUTO 35012G19KT 10SM FEW037 SCT043 OVC050 01/M09 A3000 RMK AO2,M
RTS,2021-10-12 09:35,-119.8764,39.6682,1539.00,30.20,14.00,50.47,330.00,12.00,0.00,30.01,M,10.00,19.00,CLR,M,M,M,M,M,M,M,M,M,M,M,M,M,M,19.71,KRTS 120935Z AUTO 33012G19KT 10SM CLR M01/M10 A3001 RMK AO2,M
05U,2021-10-12 09:35,-116.0051,39.6042,1811.23,28.40,21.20,74.08,340.00,14.00,0.00,29.81,M,10.00,M,BKN,OVC,M,M,2700.00,3200.00,M,M,M,M,M,M,M,M,M,16.52,K05U 120935Z AUTO 34014KT 10SM BKN027 OVC032 M02/M06 A2981 RMK A01,M
TMT,2021-10-12 09:35,-117.1971,39.4643,1749.34,27.50,22.30,80.52,0.00,0.00,0.00,29.89,M,10.00,M,OVC,M,M,M,4000.00,M,M,M,M,M,M,M,M,M,M,27.50,KTMT 120935Z AUTO 00000KT 10SM OVC040 M02/M05 A2989 RMK AO2 T10251054,M
CXP,2021-10-12 09:50,-119.7326,39.1923,1431.00,32.00,14.00,46.92,350.00,11.00,0.00,30.00,M,10.00,19.00,CLR,M,M,M,M,M,M,M,M,M,M,M,M,M,M,22.47,KCXP 120950Z AUTO 35011G19KT 10SM CLR 00/M10 A3000 RMK AO2,M
P68,2021-10-12 09:53,-116.0056,39.6014,1993.00,28.00,21.00,74.67,330.00,15.00,0.00,29.79,1008.80,M,22.00,M,M,M,M,M,M,M,M,M,M,M,M,M,M,M,15.59,KP68 120953Z AUTO 33015G22KT M02/M06 A2979 RMK AO1 SLP088 T10221061,M
LOL,2021-10-12 09:53,-118.5701,40.0684,1192.43,35.00,17.10,47.43,330.00,16.00,0.00,29.97,1015.80,10.00,21.00,CLR,M,M,M,M,M,M,M,M,M,M,M,M,M,M,24.46,KLOL 120953Z AUTO 33016G21KT 10SM CLR 02/M08 A2997 RMK AO2 SLP158 T00171083,M
ELY,2021-10-12 09:53,-114.8453,39.2950,1909.00,28.00,27.00,95.97,10.00,15.00,0.00,29.67,1004.90,10.00,M,FEW,OVC,M,M,1200.00,2400.00,M,M,M,M,M,M,M,M,M,15.59,KELY 120953Z AUTO 01015KT 10SM FEW012 OVC024 M02/M03 A2967 RMK AO2 SLP049 T10221028 $,M
DRA,2021-10-12 09:53,-116.0278,36.6206,1009.00,44.00,30.90,59.50,50.00,3.00,0.00,29.66,1001.70,10.00,M,OVC,M,M,M,6000.00,M,M,M,M,M,M,M,M,M,M,42.52,KDRA 120953Z AUTO 05003KT 10SM OVC060 07/M01 A2966 RMK AO2 SLP017 T00671006 $,M
VGT,2021-10-12 09:53,-115.1933,36.2111,667.00,49.00,33.00,54.24,320.00,30.00,T,29.55,1001.00,10.00,40.00,OVC,M,M,M,7000.00,M,M,M,-RA DU,M,M,M,40.00,330.00,2021-10-12 09:53,39.94,KVGT 120953Z AUTO 32030G40KT 10SM -RA DU OVC070 09/01 A2955 RMK AO2 PK WND 33040/0953 SLP010 P0000 T00940006,M
HTH,2021-10-12 09:55,-118.6315,38.5448,1282.89,35.60,19.40,51.33,360.00,14.00,0.00,29.97,M,10.00,M,BKN,OVC,M,M,7000.00,8000.00,M,M,M,M,M,M,M,M,M,25.80,KHTH 120955Z AUTO 36014KT 10SM BKN070 OVC080 02/M07 A2997 RMK A01,M
RNO,2021-10-12 09:55,-119.7711,39.4839,1341.00,35.00,15.10,43.49,310.00,9.00,0.00,30.01,1016.10,10.00,M,SCT,M,M,M,5000.00,M,M,M,M,M,M,M,M,M,M,27.37,KRNO 120955Z 31009KT 10SM SCT050 02/M09 A3001 RMK AO2 SLP161 T00171094 $,M
BVU,2021-10-12 09:55,-114.8611,35.9475,671.00,44.60,37.40,75.68,310.00,20.00,0.00,29.60,M,5.00,28.00,OVC,M,M,M,1700.00,M,M,M,-RA,M,M,M,M,M,M,35.87,KBVU 120955Z AUTO 31020G28KT 5SM -RA OVC017 07/03 A2960 RMK AO2,M
RTS,2021-10-12 09:55,-119.8764,39.6682,1539.00,28.40,14.00,54.31,350.00,11.00,0.00,30.01,M,10.00,M,CLR,M,M,M,M,M,M,M,M,M,M,M,M,M,M,17.92,KRTS 120955Z AUTO 35011KT 10SM CLR M02/M10 A3001 RMK AO2,M
BAM,2021-10-12 09:55,-116.8743,40.5990,1382.36,33.80,23.00,64.23,320.00,8.00,0.00,29.92,M,10.00,M,OVC,M,M,M,5000.00,M,M,M,M,M,M,M,M,M,M,26.33,KBAM 120955Z AUTO 32008KT 10SM OVC050 01/M05 A2992 RMK AO1,M
TMT,2021-10-12 09:55,-117.1971,39.4643,1749.34,27.90,22.10,78.55,0.00,0.00,0.00,29.89,M,10.00,M,OVC,M,M,M,4000.00,M,M,M,M,M,M,M,M,M,M,27.90,KTMT 120955Z AUTO 00000KT 10SM OVC040 M02/M05 A2989 RMK AO2 T10231055,M
05U,2021-10-12 09:55,-116.0051,39.6042,1811.23,28.40,21.20,74.08,330.00,13.00,0.00,29.81,M,10.00,20.00,OVC,M,M,M,2600.00,M,M,M,M,M,M,M,M,M,M,16.96,K05U 120955Z AUTO 33013G20KT 10SM OVC026 M02/M06 A2981 RMK A01,M
MEV,2021-10-12 09:55,-119.7500,38.9963,1441.42,32.00,15.80,50.75,350.00,13.00,0.00,29.99,M,10.00,M,SCT,BKN,M,M,3700.00,5000.00,M,M,M,M,M,M,M,M,M,21.57,KMEV 120955Z AUTO 35013KT 10SM SCT037 BKN050 00/M09 A2999 RMK AO2,M
WMC,2021-10-12 09:56,-117.8072,40.9019,1315.00,32.00,19.00,58.27,330.00,14.00,0.00,29.94,1014.40,10.00,24.00,BKN,M,M,M,6500.00,M,M,M,M,M,M,M,27.00,340.00,2021-10-12 09:35,21.16,KWMC 120956Z AUTO 33014G24KT 10SM BKN065 00/M07 A2994 RMK AO2 PK WND 34027/0935 SLP144 T00001072 TSNO,M
EKO,2021-10-12 09:56,-115.7860,40.8242,1367.00,35.00,19.00,51.47,10.00,10.00,0.00,29.82,1010.20,10.00,18.00,OVC,M,M,M,4800.00,M,M,M,M,M,M,M,26.00,20.00,2021-10-12 09:20,26.86,KEKO 120956Z AUTO 01010G18KT 10SM OVC048 02/M07 A2982 RMK AO2 PK WND 02026/0920 SLP102 T00171072,M
TPH,2021-10-12 09:56,-117.0904,38.0505,1654.00,35.00,18.00,49.31,350.00,22.00,0.00,29.77,1006.90,10.00,32.00,OVC,M,M,M,8000.00,M,M,M,M,M,M,M,32.00,340.00,2021-10-12 09:51,22.73,KTPH 120956Z AUTO 35022G32KT 10SM OVC080 02/M08 A2977 RMK AO2 PK WND 34032/0951 SLP069 T00171078,M
LAS,2021-10-12 09:56,-115.1634,36.0719,663.00,51.00,28.90,42.16,340.00,15.00,0.00,29.59,1000.80,10.00,25.00,OVC,M,M,M,5500.00,M,M,M,M,M,M,M,28.00,350.00,2021-10-12 09:09,51.10,KLAS 120956Z 34015G25KT 10SM OVC055 11/M02 A2959 RMK AO2 PK WND 35028/0909 SLP008 SHRA DSNT NW CIG LWR DSNT W-NW T01061017 $,M
NFL,2021-10-12 09:56,-118.7010,39.4166,1199.00,34.00,21.00,58.56,330.00,11.00,0.00,29.97,1012.00,10.00,M,CLR,M,M,M,M,M,M,M,M,M,M,M,M,M,M,24.99,KNFL 120956Z AUTO 33011KT 10SM CLR 01/M06 A2997 RMK AO2 SLP120 T00111061,M
HND,2021-10-12 09:56,-115.1344,35.9729,742.79,50.00,28.90,43.92,350.00,16.00,0.00,29.60,1002.80,10.00,22.00,OVC,M,M,M,6500.00,M,M,M,M,M,M,M,M,M,M,50.00,KHND 120956Z AUTO 35016G22KT 10SM OVC065 10/M02 A2960 RMK AO2 SLP028 T01001017,M
INS,2021-10-12 09:58,-115.6733,36.5872,955.00,40.50,34.70,79.61,250.00,12.00,T,29.67,1002.30,10.00,M,OVC,M,M,M,1700.00,M,M,M,-RA,M,M,M,M,M,M,32.82,KINS 120958Z AUTO 25012KT 10SM -RA OVC017 05/02 A2967 RMK AO2 SLP023 P0000 T00470015 $,M
LSV,2021-10-12 09:58,-115.0343,36.2362,570.00,46.00,36.30,68.97,300.00,28.00,0.00,29.57,1000.20,10.00,37.00,SCT,M,M,M,8000.00,M,M,M,M,M,M,M,37.00,300.00,2021-10-12 09:53,36.13,KLSV 120958Z 30028G37KT 10SM SCT080 08/02 A2957 RMK AO2A PK WND 30037/53 SLP002 T00770024 $,M
CXP,2021-10-12 10:10,-119.7326,39.1923,1431.00,32.00,14.00,46.92,340.00,13.00,0.00,29.99,M,10.00,21.00,CLR,M,M,M,M,M,M,M,M,M,M,M,M,M,M,21.57,KCXP 121010Z AUTO 34013G21KT 10SM CLR 00/M10 A2999 RMK AO2,M
BAM,2021-10-12 10:15,-116.8743,40.5990,1382.36,33.80,23.00,64.23,340.00,6.00,0.00,29.92,M,10.00,M,OVC,M,M,M,5000.00,M,M,M,M,M,M,M,M,M,M,27.70,KBAM 121015Z AUTO 34006KT 10SM OVC050 01/M05 A2992 RMK AO1,M
TMT,2021-10-12 10:15,-117.1971,39.4643,1749.34,25.70,21.90,85.29,0.00,0.00,0.00,29.90,M,10.00,M,OVC,M,M,M,4200.00,M,M,M,M,M,M,M,M,M,M,25.70,KTMT 121015Z AUTO 00000KT 10SM OVC042 M03/M06 A2990 RMK AO2 T10351056,M
HTH,2021-10-12 10:15,-118.6315,38.5448,1282.89,33.80,19.40,55.14,360.00,11.00,0.00,29.98,M,10.00,M,BKN,M,M,M,7000.00,M,M,M,M,M,M,M,M,M,M,24.74,KHTH 121015Z AUTO 36011KT 10SM BKN070 01/M07 A2998 RMK A01,M
RTS,2021-10-12 10:15,-119.8764,39.6682,1539.00,30.20,12.20,46.62,340.00,10.00,0.00,30.02,M,10.00,16.00,CLR,M,M,M,M,M,M,M,M,M,M,M,M,M,M,20.71,KRTS 121015Z AUTO 34010G16KT 10SM CLR M01/M11 A3002 RMK AO2,M
BVU,2021-10-12 10:15,-114.8611,35.9475,671.00,44.60,37.40,75.68,330.00,17.00,0.00,29.61,M,7.00,25.00,BKN,OVC,M,M,1700.00,2600.00,M,M,-RA,M,M,M,M,M,M,36.58,KBVU 121015Z AUTO 33017G25KT 7SM -RA BKN017 OVC026 07/03 A2961 RMK AO2,M
05U,2021-10-12 10:15,-116.0051,39.6042,1811.23,28.40,21.20,74.08,330.00,12.00,0.00,29.82,M,10.00,20.00,OVC,M,M,M,2600.00,M,M,M,M,M,M,M,M,M,M,17.42,K05U 121015Z AUTO 33012G20KT 10SM OVC026 M02/M06 A2982 RMK A01,M
MEV,2021-10-12 10:15,-119.7500,38.9963,1441.42,32.00,14.00,46.92,10.00,13.00,0.00,30.00,M,10.00,18.00,CLR,M,M,M,M,M,M,M,M,M,M,M,M,M,M,21.57,KMEV 121015Z AUTO 01013G18KT 10SM CLR M00/M10 A3000 RMK AO2,M
INS,2021-10-12 10:23,-115.6733,36.5872,955.00,42.80,33.80,70.28,300.00,8.00,0.00,29.68,1002.60,10.00,M,SCT,BKN,M,M,1700.00,2500.00,M,M,-DZ,M,M,M,M,M,M,37.42,KINS 121023Z AUTO 30008KT 10SM -DZ SCT017 BKN025 06/01 A2968 RMK AO2 RAE04DZB04 CIG 017V025 SLP026 $,M
CXP,2021-10-12 10:30,-119.7326,39.1923,1431.00,32.00,14.00,46.92,340.00,12.00,0.00,30.00,M,10.00,M,CLR,M,M,M,M,M,M,M,M,M,M,M,M,M,M,22.00,KCXP 121030Z AUTO 34012KT 10SM CLR 00/M10 A3000 RMK AO2,M
HTH,2021-10-12 10:35,-118.6315,38.5448,1282.89,33.80,19.40,55.14,360.00,13.00,0.00,29.98,M,10.00,M,FEW,FEW,M,M,5500.00,7500.00,M,M,M,M,M,M,M,M,M,23.87,KHTH 121035Z AUTO 36013KT 10SM FEW055 FEW075 01/M07 A2998 RMK A01,M
TMT,2021-10-12 10:35,-117.1971,39.4643,1749.34,25.70,23.00,89.34,230.00,3.00,0.00,29.91,M,10.00,M,BKN,OVC,M,M,3300.00,4200.00,M,M,M,M,M,M,M,M,M,21.49,KTMT 121035Z AUTO 23003KT 10SM BKN033 OVC042 M03/M05 A2991 RMK AO2 T10351050,M
BVU,2021-10-12 10:35,-114.8611,35.9475,671.00,44.60,37.40,75.68,320.00,18.00,0.00,29.61,M,10.00,26.00,SCT,SCT,OVC,M,1800.00,2600.00,7500.00,M,-RA,M,M,M,M,M,M,36.34,KBVU 121035Z AUTO 32018G26KT 10SM -RA SCT018 SCT026 OVC075 07/03 A2961 RMK AO2,M
05U,2021-10-12 10:35,-116.0051,39.6042,1811.23,28.40,21.20,74.08,330.00,12.00,0.00,29.82,M,10.00,23.00,OVC,M,M,M,2500.00,M,M,M,M,M,M,M,M,M,M,17.42,K05U 121035Z AUTO 33012G23KT 10SM OVC025 M02/M06 A2982 RMK A01,M
RTS,2021-10-12 10:35,-119.8764,39.6682,1539.00,28.40,12.20,50.17,340.00,12.00,0.00,30.02,M,10.00,M,CLR,M,M,M,M,M,M,M,M,M,M,M,M,M,M,17.42,KRTS 121035Z AUTO 34012KT 10SM CLR M02/M11 A3002 RMK AO2,M
BAM,2021-10-12 10:35,-116.8743,40.5990,1382.36,33.80,24.80,69.25,340.00,11.00,0.00,29.93,M,10.00,M,OVC,M,M,M,5000.00,M,M,M,M,M,M,M,M,M,M,24.74,KBAM 121035Z AUTO 34011KT 10SM OVC050 01/M04 A2993 RMK AO1,M
MEV,2021-10-12 10:35,-119.7500,38.9963,1441.42,32.00,14.00,46.92,10.00,12.00,0.00,30.00,M,10.00,M,CLR,M,M,M,M,M,M,M,M,M,M,M,M,M,M,22.00,KMEV 121035Z AUTO 01012KT 10SM CLR M00/M10 A3000 RMK AO2,M
CXP,2021-10-12 10:50,-119.7326,39.1923,1431.00,32.00,14.00,46.92,350.00,12.00,0.00,29.99,M,10.00,17.00,CLR,M,M,M,M,M,M,M,M,M,M,M,M,M,M,22.00,KCXP 121050Z AUTO 35012G17KT 10SM CLR M00/M10 A2999 RMK AO2,M
P68,2021-10-12 10:53,-116.0056,39.6014,1993.00,28.00,19.90,71.25,330.00,12.00,0.00,29.80,1009.20,M,M,M,M,M,M,M,M,M,M,M,M,M,M,M,M,M,16.91,KP68 121053Z AUTO 33012KT M02/M07 A2980 RMK AO1 SLP092 T10221067,M
LOL,2021-10-12 10:53,-118.5701,40.0684,1192.43,34.00,17.10,49.55,330.00,15.00,0.00,29.98,1016.30,10.00,M,CLR,M,M,M,M,M,M,M,M,M,M,M,M,M,M,23.37,KLOL 121053Z AUTO 33015KT 10SM CLR 01/M08 A2998 RMK AO2 SLP163 T00111083,M
VGT,2021-10-12 10:53,-115.1933,36.2111,667.00,49.00,34.00,56.23,320.00,27.00,T,29.58,1002.40,10.00,41.00,OVC,M,M,M,9000.00,M,M,M,-RA DU,M,M,M,41.00,320.00,2021-10-12 10:52,40.38,KVGT 121053Z AUTO 32027G41KT 10SM -RA DU OVC090 09/01 A2958 RMK AO2 PK WND 32041/1052 SLP024 P0000 T00940011,M
ELY,2021-10-12 10:53,-114.8453,39.2950,1909.00,28.00,27.00,95.97,20.00,14.00,0.00,29.68,1005.40,10.00,21.00,OVC,M,M,M,2100.00,M,M,M,M,M,M,M,M,M,M,16.01,KELY 121053Z AUTO 02014G21KT 10SM OVC021 M02/M03 A2968 RMK AO2 SLP054 T10221028 $,M
DRA,2021-10-12 10:53,-116.0278,36.6206,1009.00,43.00,32.00,64.88,140.00,8.00,0.00,29.68,1003.20,10.00,M,OVC,M,M,M,6500.00,M,M,M,M,M,M,M,M,M,M,37.66,KDRA 121053Z AUTO 14008KT 10SM OVC065 06/00 A2968 RMK AO2 SLP032 T00610000 $,M
MEV,2021-10-12 10:55,-119.7500,38.9963,1441.42,30.20,14.00,50.47,10.00,10.00,0.00,30.00,M,10.00,M,SCT,M,M,M,4300.00,M,M,M,M,M,M,M,M,M,M,20.71,KMEV 121055Z AUTO 01010KT 10SM SCT043 M01/M10 A3000 RMK AO2,M
BVU,2021-10-12 10:55,-114.8611,35.9475,671.00,44.60,37.40,75.68,320.00,21.00,0.00,29.62,M,9.00,M,FEW,BKN,OVC,M,1600.00,7000.00,7500.00,M,-RA,M,M,M,M,M,M,35.66,KBVU 121055Z AUTO 32021KT 9SM -RA FEW016 BKN070 OVC075 07/03 A2962 RMK AO2,M
RTS,2021-10-12 10:55,-119.8764,39.6682,1539.00,28.40,12.20,50.17,270.00,6.00,0.00,30.02,M,10.00,M,CLR,M,M,M,M,M,M,M,M,M,M,M,M,M,M,21.19,KRTS 121055Z AUTO 27006KT 10SM CLR M02/M11 A3002 RMK AO2,M
05U,2021-10-12 10:55,-116.0051,39.6042,1811.23,28.40,19.40,68.61,330.00,12.00,0.00,29.82,M,10.00,M,OVC,M,M,M,2500.00,M,M,M,M,M,M,M,M,M,M,17.42,K05U 121055Z AUTO 33012KT 10SM OVC025 M02/M07 A2982 RMK A01,M
BAM,2021-10-12 10:55,-116.8743,40.5990,1382.36,32.00,24.80,74.44,330.00,14.00,0.00,29.92,M,10.00,17.00,OVC,M,M,M,5000.00,M,M,M,M,M,M,M,M,M,M,21.16,KBAM 121055Z AUTO 33014G17KT 10SM OVC050 00/M04 A2992 RMK AO1,M
TMT,2021-10-12 10:55,-117.1971,39.4643,1749.34,27.50,21.60,78.18,360.00,4.00,0.00,29.91,M,10.00,M,OVC,M,M,M,3500.00,M,M,M,M,M,M,M,M,M,M,22.17,KTMT 121055Z AUTO 36004KT 10SM OVC035 M02/M06 A2991 RMK AO2 T10251058,M
HTH,2021-10-12 10:55,-118.6315,38.5448,1282.89,33.80,19.40,55.14,360.00,13.00,0.00,29.99,M,10.00,M,SCT,M,M,M,6000.00,M,M,M,M,M,M,M,M,M,M,23.87,KHTH 121055Z AUTO 36013KT 10SM SCT060 01/M07 A2999 RMK A01,M
RNO,2021-10-12 10:55,-119.7711,39.4839,1341.00,33.00,15.10,47.10,310.00,7.00,0.00,30.01,1016.00,10.00,M,FEW,M,M,M,5000.00,M,M,M,M,M,M,M,M,M,M,26.12,KRNO 121055Z 31007KT 10SM FEW050 01/M09 A3001 RMK AO2 SLP160 T00061094 $,M
INS,2021-10-12 10:55,-115.6733,36.5872,955.00,42.80,32.00,65.38,330.00,7.00,0.00,29.68,1002.80,10.00,M,SCT,M,M,M,1900.00,M,M,M,M,M,M,M,M,M,M,37.94,KINS 121055Z AUTO 33007KT 10SM SCT019 06/M00 A2968 RMK AO2 RAE04DZB04E27RAB27E51DZB51E55DZB55 SLP028 $,M
LAS,2021-10-12 10:56,-115.1634,36.0719,663.00,51.00,30.00,44.09,330.00,20.00,0.00,29.63,1002.00,10.00,30.00,OVC,M,M,M,7500.00,M,M,M,M,M,M,M,30.00,320.00,2021-10-12 10:49,51.10,KLAS 121056Z 33020G30KT 10SM OVC075 11/M01 A2963 RMK AO2 PK WND 32030/1049 SLP020 VIRGA DSNT W-N T01061011 $,M
EKO,2021-10-12 10:56,-115.7860,40.8242,1367.00,35.00,19.00,51.47,20.00,17.00,0.00,29.82,1010.40,10.00,26.00,OVC,M,M,M,4800.00,M,M,M,M,M,M,M,27.00,10.00,2021-10-12 10:42,24.14,KEKO 121056Z AUTO 02017G26KT 10SM OVC048 02/M07 A2982 RMK AO2 PK WND 01027/1042 SLP104 T00171072,M
NFL,2021-10-12 10:56,-118.7010,39.4166,1199.00,32.00,21.00,63.45,340.00,7.00,0.00,29.98,1012.40,10.00,M,CLR,M,M,M,M,M,M,M,M,M,M,M,M,M,M,24.78,KNFL 121056Z AUTO 34007KT 10SM CLR 00/M06 A2998 RMK AO2 SLP124 T00001061,M
WMC,2021-10-12 10:56,-117.8072,40.9019,1315.00,32.00,18.00,55.82,350.00,11.00,0.00,29.95,1014.60,10.00,21.00,CLR,M,M,M,M,M,M,M,M,M,M,M,M,M,M,22.47,KWMC 121056Z AUTO 35011G21KT 10SM CLR 00/M08 A2995 RMK AO2 SLP146 T00001078 TSNO,M
HND,2021-10-12 10:56,-115.1344,35.9729,742.79,50.00,28.00,42.33,320.00,7.00,0.00,29.64,1004.10,10.00,M,OVC,M,M,M,6500.00,M,M,M,M,M,M,M,M,M,M,50.00,KHND 121056Z AUTO 32007KT 10SM OVC065 10/M02 A2964 RMK AO2 SLP041 T01001022,M
TPH,2021-10-12 10:56,-117.0904,38.0505,1654.00,34.00,19.00,53.77,320.00,8.00,0.00,29.79,1008.00,10.00,20.00,OVC,M,M,M,8000.00,M,M,M,M,M,M,M,32.00,350.00,2021-10-12 10:14,26.58,KTPH 121056Z AUTO 32008G20KT 290V020 10SM OVC080 01/M07 A2979 RMK AO2 PK WND 35032/1014 SLP080 T00111072,M
LSV,2021-10-12 10:58,-115.0343,36.2362,570.00,46.20,36.70,69.28,300.00,26.00,0.00,29.59,1000.90,10.00,36.00,SCT,M,M,M,9000.00,M,M,M,M,M,M,M,38.00,310.00,2021-10-12 10:03,36.87,KLSV 121058Z 30026G36KT 10SM SCT090 08/03 A2959 RMK AO2A PK WND 31038/03 SLP009 T00790026 $,M
INS,2021-10-12 10:58,-115.6733,36.5872,955.00,42.80,31.80,64.86,340.00,6.00,T,29.68,1002.80,10.00,M,SCT,M,M,M,1900.00,M,M,M,M,M,M,M,M,M,M,38.54,KINS 121058Z AUTO 34006KT 10SM SCT019 06/M00 A2968 RMK AO2 RAE04DZB04E27RAB27E51DZB51E55DZB55E55 SLP028 P0000 T00601001 $,M
INS,2021-10-12 11:01,-115.6733,36.5872,955.00,42.80,32.00,65.38,330.00,7.00,0.00,29.68,1002.80,10.00,M,SCT,M,M,M,1400.00,M,M,M,M,M,M,M,M,M,M,37.94,KINS 121101Z AUTO 33007KT 10SM SCT014 06/M00 A2968 RMK AO2 SLP028 $,M
CXP,2021-10-12 11:10,-119.7326,39.1923,1431.00,32.00,14.00,46.92,350.00,11.00,0.00,30.00,M,10.00,20.00,CLR,M,M,M,M,M,M,M,M,M,M,M,M,M,M,22.47,KCXP 121110Z AUTO 35011G20KT 10SM CLR M00/M10 A3000 RMK AO2,M
MEV,2021-10-12 11:15,-119.7500,38.9963,1441.42,30.20,14.00,50.47,340.00,11.00,0.00,30.00,M,10.00,M,FEW,M,M,M,4300.00,M,M,M,M,M,M,M,M,M,M,20.19,KMEV 121115Z AUTO 34011KT 10SM FEW043 M01/M10 A3000 RMK AO2,M
HTH,2021-10-12 11:15,-118.6315,38.5448,1282.89,33.80,19.40,55.14,360.00,13.00,0.00,29.99,M,10.00,M,BKN,M,M,M,6000.00,M,M,M,M,M,M,M,M,M,M,23.87,KHTH 121115Z AUTO 36013KT 10SM BKN060 01/M07 A2999 RMK A01,M
RTS,2021-10-12 11:15,-119.8764,39.6682,1539.00,28.40,14.00,54.31,320.00,11.00,0.00,30.02,M,10.00,M,CLR,M,M,M,M,M,M,M,M,M,M,M,M,M,M,17.92,KRTS 121115Z AUTO 32011KT 10SM CLR M02/M10 A3002 RMK AO2,M
TMT,2021-10-12 11:15,-117.1971,39.4643,1749.34,27.50,21.70,78.51,0.00,0.00,0.00,29.92,M,10.00,M,SCT,OVC,M,M,3400.00,4000.00,M,M,M,M,M,M,M,M,M,27.50,KTMT 121115Z AUTO 00000KT 10SM SCT034 OVC040 M02/M06 A2992 RMK AO2 T10251057,M
05U,2021-10-12 11:15,-116.0051,39.6042,1811.23,28.40,19.40,68.61,330.00,14.00,0.00,29.82,M,10.00,M,OVC,M,M,M,2600.00,M,M,M,M,M,M,M,M,M,M,16.52,K05U 121115Z AUTO 33014KT 10SM OVC026 M02/M07 A2982 RMK A01,M
BAM,2021-10-12 11:15,-116.8743,40.5990,1382.36,32.00,23.00,69.04,320.00,15.00,0.00,29.92,M,10.00,M,OVC,M,M,M,5000.00,M,M,M,M,M,M,M,M,M,M,20.78,KBAM 121115Z AUTO 32015KT 10SM OVC050 00/M05 A2992 RMK AO1,M
BVU,2021-10-12 11:15,-114.8611,35.9475,671.00,46.40,35.60,65.83,320.00,22.00,0.00,29.63,M,10.00,29.00,FEW,OVC,M,M,1700.00,7000.00,M,M,M,M,M,M,M,M,M,37.86,KBVU 121115Z AUTO 32022G29KT 10SM FEW017 OVC070 08/02 A2963 RMK AO2,M
CXP,2021-10-12 11:30,-119.7326,39.1923,1431.00,32.00,14.00,46.92,M,3.00,0.00,30.01,M,10.00,M,CLR,M,M,M,M,M,M,M,M,M,M,M,M,M,M,28.69,KCXP 121130Z AUTO VRB03KT 10SM CLR M00/M10 A3001 RMK AO2,M
INS,2021-10-12 11:31,-115.6733,36.5872,955.00,42.80,32.00,65.38,270.00,6.00,0.00,29.69,1003.80,10.00,M,BKN,M,M,M,6500.00,M,M,M,M,M,M,M,M,M,M,38.54,KINS 121131Z AUTO 27006KT 10SM BKN065 06/00 A2969 RMK AO2 SLP038 $,M
TMT,2021-10-12 11:35,-117.1971,39.4643,1749.34,27.50,21.70,78.51,340.00,3.00,0.00,29.92,M,10.00,M,SCT,OVC,M,M,3400.00,4000.00,M,M,M,M,M,M,M,M,M,23.54,KTMT 121135Z AUTO 34003KT 10SM SCT034 OVC040 M02/M06 A2992 RMK AO2 T10251057,M
HTH,2021-10-12 11:35,-118.6315,38.5448,1282.89,33.80,19.40,55.14,350.00,14.00,0.00,30.00,M,10.00,19.00,BKN,OVC,M,M,6000.00,7000.00,M,M,M,M,M,M,M,M,M,23.48,KHTH 121135Z AUTO 35014G19KT 10SM BKN060 OVC070 01/M07 A3000 RMK A01,M
MEV,2021-10-12 11:35,-119.7500,38.9963,1441.42,26.60,14.00,58.49,110.00,5.00,0.00,30.01,M,6.00,M,CLR,M,M,M,M,M,M,M,HZ,M,M,M,M,M,M,19.98,KMEV 121135Z AUTO 11005KT 6SM HZ CLR M03/M10 A3001 RMK AO2,M
BAM,2021-10-12 11:35,-116.8743,40.5990,1382.36,32.00,24.80,74.44,320.00,13.00,0.00,29.93,M,10.00,M,BKN,BKN,M,M,5000.00,7000.00,M,M,M,M,M,M,M,M,M,21.57,KBAM 121135Z AUTO 32013KT 10SM BKN050 BKN070 00/M04 A2993 RMK AO1,M
BVU,2021-10-12 11:35,-114.8611,35.9475,671.00,46.40,33.80,61.28,310.00,25.00,0.00,29.64,M,10.00,31.00,BKN,OVC,M,M,2600.00,7500.00,M,M,M,M,M,M,M,M,M,37.31,KBVU 121135Z AUTO 31025G31KT 10SM BKN026 OVC075 08/01 A2964 RMK AO2,M
RTS,2021-10-12 11:35,-119.8764,39.6682,1539.00,28.40,14.00,54.31,340.00,10.00,0.00,30.02,M,10.00,16.00,CLR,M,M,M,M,M,M,M,M,M,M,M,M,M,M,18.45,KRTS 121135Z AUTO 34010G16KT 10SM CLR M02/M10 A3002 RMK AO2,M
05U,2021-10-12 11:35,-116.0051,39.6042,1811.23,28.40,19.40,68.61,330.00,11.00,0.00,29.83,M,10.00,17.00,SCT,SCT,OVC,M,2600.00,3300.00,4100.00,M,M,M,M,M,M,M,M,17.92,K05U 121135Z AUTO 33011G17KT 10SM SCT026 SCT033 OVC041 M02/M07 A2983 RMK A01,M
INS,2021-10-12 11:38,-115.6733,36.5872,955.00,42.80,33.80,70.28,250.00,7.00,0.00,29.69,1004.00,10.00,M,BKN,M,M,M,7000.00,M,M,M,-DZ,M,M,M,M,M,M,37.94,KINS 121138Z AUTO 25007KT 10SM -DZ BKN070 06/01 A2969 RMK AO2 DZB38 SLP040 $,M
CXP,2021-10-12 11:50,-119.7326,39.1923,1431.00,32.00,14.00,46.92,0.00,0.00,0.00,30.02,M,10.00,M,FEW,FEW,M,M,4700.00,6000.00,M,M,M,M,M,M,M,M,M,32.00,KCXP 121150Z AUTO 00000KT 10SM FEW047 FEW060 00/M10 A3002 RMK AO2,M
ELY,2021-10-12 11:53,-114.8453,39.2950,1909.00,28.00,27.00,95.97,10.00,18.00,0.00,29.69,1005.90,10.00,M,OVC,M,M,M,2400.00,M,M,M,M,M,M,M,26.00,20.00,2021-10-12 11:36,14.48,KELY 121153Z AUTO 01018KT 10SM OVC024 M02/M03 A2969 RMK AO2 PK WND 02026/1136 SLP059 70015 T10221028 11022 21028 53006 $,M
LOL,2021-10-12 11:53,-118.5701,40.0684,1192.43,34.00,17.10,49.55,340.00,13.00,0.00,30.00,1016.40,10.00,M,CLR,M,M,M,M,M,M,M,M,M,M,M,M,M,M,24.13,KLOL 121153Z AUTO 34013KT 10SM CLR 01/M08 A3000 RMK AO2 SLP164 T00111083 10039 20011 51012,M
DRA,2021-10-12 11:53,-116.0278,36.6206,1009.00,44.00,27.00,50.73,310.00,5.00,0.00,29.69,1004.00,10.00,M,OVC,M,M,M,7000.00,M,M,M,M,M,M,M,M,M,M,40.77,KDRA 121153Z AUTO 31005KT 10SM OVC070 07/M03 A2969 RMK AO2 SLP040 70023 T00671028 10083 20061 52018 $,M
P68,2021-10-12 11:53,-116.0056,39.6014,1993.00,28.00,19.90,71.25,330.00,13.00,0.00,29.81,1009.60,M,20.00,M,M,M,M,M,M,M,M,M,M,M,M,M,M,M,16.44,KP68 121153Z AUTO 33013G20KT M02/M07 A2981 RMK AO1 SLP096 70008 T10221067 11006 21022 53008,M
VGT,2021-10-12 11:53,-115.1933,36.2111,667.00,48.00,34.00,58.16,310.00,24.00,T,29.61,1003.60,10.00,35.00,OVC,M,M,M,10000.00,M,M,M,-RA DU,M,M,M,41.00,320.00,2021-10-12 11:35,39.64,KVGT 121153Z AUTO 31024G35KT 10SM -RA DU OVC100 09/01 A2961 RMK AO2 PK WND 32041/1135 SLP036 P0000 60000 T00890011 10100 20083 53027,M
INS,2021-10-12 11:53,-115.6733,36.5872,955.00,42.80,33.80,70.28,230.00,7.00,0.00,29.70,1004.40,10.00,M,SCT,M,M,M,7000.00,M,M,M,-DZ,M,M,M,M,M,M,37.94,KINS 121153Z AUTO 23007KT 10SM -DZ SCT070 06/01 A2970 RMK AO2 DZB38 SLP044 $,M
INS,2021-10-12 11:54,-115.6733,36.5872,955.00,42.80,33.80,70.28,240.00,7.00,0.00,29.70,1004.40,10.00,M,SCT,M,M,M,7000.00,M,M,M,M,M,M,M,M,M,M,37.94,KINS 121154Z AUTO 24007KT 10SM SCT070 06/01 A2970 RMK AO2 DZB38E54DZB54 SLP044 $,M
RNO,2021-10-12 11:55,-119.7711,39.4839,1341.00,32.00,16.00,51.20,300.00,8.00,0.00,30.03,1017.00,10.00,M,FEW,M,M,M,4800.00,M,M,M,M,M,M,M,M,M,M,24.11,KRNO 121155Z 30008KT 10SM FEW048 00/M09 A3003 RMK AO2 SLP170 70003 T00001089 10028 20000 53005 $,M
BVU,2021-10-12 11:55,-114.8611,35.9475,671.00,46.40,33.80,61.28,320.00,19.00,0.00,29.66,M,10.00,27.00,BKN,OVC,M,M,2700.00,3300.00,M,M,M,M,M,M,M,M,M,38.48,KBVU 121155Z AUTO 32019G27KT 10SM BKN027 OVC033 08/01 A2966 RMK AO2,M
RTS,2021-10-12 11:55,-119.8764,39.6682,1539.00,28.40,14.00,54.31,350.00,13.00,0.00,30.03,M,10.00,M,CLR,M,M,M,M,M,M,M,M,M,M,M,M,M,M,16.96,KRTS 121155Z AUTO 35013KT 10SM CLR M02/M10 A3003 RMK AO2,M
05U,2021-10-12 11:55,-116.0051,39.6042,1811.23,28.40,19.40,68.61,330.00,12.00,0.00,29.84,M,10.00,M,SCT,SCT,OVC,M,2500.00,3300.00,3900.00,M,M,M,M,M,M,M,M,17.42,K05U 121155Z AUTO 33012KT 10SM SCT025 SCT033 OVC039 M02/M07 A2984 RMK A01,M
MEV,2021-10-12 11:55,-119.7500,38.9963,1441.42,24.80,14.00,63.03,100.00,4.00,0.00,30.02,M,2.50,M,SCT,M,M,M,300.00,M,M,M,HZ,M,M,M,M,M,M,19.01,KMEV 121155Z AUTO 10004KT 2 1/2SM HZ SCT003 M04/M10 A3002 RMK AO2,M
BAM,2021-10-12 11:55,-116.8743,40.5990,1382.36,33.80,23.00,64.23,320.00,10.00,0.00,29.95,M,10.00,M,SCT,BKN,M,M,5000.00,6500.00,M,M,M,M,M,M,M,M,M,25.23,KBAM 121155Z AUTO 32010KT 10SM SCT050 BKN065 01/M05 A2995 RMK AO1,M
HTH,2021-10-12 11:55,-118.6315,38.5448,1282.89,33.80,19.40,55.14,350.00,12.00,0.00,30.01,M,10.00,21.00,OVC,M,M,M,6500.00,M,M,M,M,M,M,M,M,M,M,24.29,KHTH 121155Z AUTO 35012G21KT 10SM OVC065 01/M07 A3001 RMK A01,M
TMT,2021-10-12 11:55,-117.1971,39.4643,1749.34,27.50,21.60,78.18,0.00,0.00,0.00,29.93,M,10.00,M,SCT,OVC,M,M,3400.00,4000.00,M,M,M,M,M,M,M,M,M,27.50,KTMT 121155Z AUTO 00000KT 10SM SCT034 OVC040 M02/M06 A2993 RMK AO2 70012 T10251058 11017 21038,M
EKO,2021-10-12 11:56,-115.7860,40.8242,1367.00,34.00,19.00,53.77,20.00,15.00,0.00,29.84,1011.10,10.00,23.00,BKN,OVC,M,M,5000.00,8000.00,M,M,M,M,M,M,M,M,M,23.37,KEKO 121156Z AUTO 02015G23KT 10SM BKN050 OVC080 01/M07 A2984 RMK AO2 SLP111 70012 T00111072 10028 20011 53010,M
LAS,2021-10-12 11:56,-115.1634,36.0719,663.00,50.00,30.00,45.93,340.00,16.00,0.00,29.65,1003.00,10.00,29.00,BKN,OVC,M,M,7500.00,9500.00,M,M,M,M,M,M,32.00,320.00,2021-10-12 11:41,50.00,KLAS 121156Z 34016G29KT 10SM BKN075 OVC095 10/M01 A2965 RMK AO2 PK WND 32032/1141 SLP030 VIRGA DSNT S-W 60000 T01001011 10106 20100 53025 $,M
NFL,2021-10-12 11:56,-118.7010,39.4166,1199.00,32.00,19.90,60.55,10.00,7.00,0.00,30.01,1013.10,10.00,M,CLR,M,M,M,M,M,M,M,M,M,M,M,M,M,M,24.78,KNFL 121156Z AUTO 01007KT 10SM CLR 00/M07 A3001 RMK AO2 SLP131 70016 T00001067 10033 21006 53015,M
HND,2021-10-12 11:56,-115.1344,35.9729,742.79,50.00,28.00,42.33,330.00,11.00,0.00,29.67,1005.30,10.00,M,OVC,M,M,M,6000.00,M,M,M,M,M,M,M,M,M,M,50.00,KHND 121156Z AUTO 33011KT 10SM OVC060 10/M02 A2967 RMK AO2 SLP053 60000 T01001022 10100 20089 53026,M
WMC,2021-10-12 11:56,-117.8072,40.9019,1315.00,30.90,18.00,58.36,340.00,10.00,0.00,29.97,1015.00,10.00,M,CLR,M,M,M,M,M,M,M,M,M,M,M,M,M,M,21.59,KWMC 121156Z AUTO 34010KT 10SM CLR M01/M08 A2997 RMK AO2 SLP150 T10061078 10028 21006 53008 TSNO,M
TPH,2021-10-12 11:56,-117.0904,38.0505,1654.00,32.00,18.00,55.82,330.00,17.00,0.00,29.80,1008.80,10.00,22.00,CLR,M,M,M,M,M,M,M,M,M,M,M,M,M,M,20.08,KTPH 121156Z AUTO 33017G22KT 10SM CLR 00/M08 A2980 RMK AO2 SLP088 T00001078 10017 20000 53010,M
INS,2021-10-12 11:58,-115.6733,36.5872,955.00,42.80,34.00,70.85,240.00,7.00,T,29.70,1004.40,10.00,M,SCT,M,M,M,7000.00,M,M,M,M,M,M,M,M,M,M,37.94,KINS 121158Z AUTO 24007KT 10SM SCT070 06/01 A2970 RMK AO2 DZB38E54DZB54E54 SLP044 P0000 60001 70011 T00600011 10062 20044 53010 $,M
LSV,2021-10-12 11:58,-115.0343,36.2362,570.00,47.00,36.70,66.96,290.00,20.00,0.00,29.63,1002.40,10.00,30.00,CLR,M,M,M,M,M,M,M,M,M,M,M,37.00,300.00,2021-10-12 10:59,39.19,KLSV 121158Z 29020G30KT 10SM CLR 08/03 A2963 RMK AO2A PK WND 30037/1059 SLP024 60011 70022 T00840026 10086 20076 52025 $,M
CXP,2021-10-12 12:10,-119.7326,39.1923,1431.00,32.00,14.00,46.92,330.00,8.00,0.00,30.03,M,10.00,M,FEW,FEW,M,M,4700.00,6000.00,M,M,M,M,M,M,M,M,M,24.11,KCXP 121210Z AUTO 33008KT 10SM FEW047 FEW060 M00/M10 A3003 RMK AO2,M
MEV,2021-10-12 12:15,-119.7500,38.9963,1441.42,21.20,12.20,67.73,130.00,6.00,0.00,30.03,M,8.00,M,SCT,SCT,M,M,300.00,4800.00,M,M,M,M,M,M,M,M,M,12.52,KMEV 121215Z AUTO 13006KT 8SM SCT003 SCT048 M06/M11 A3003 RMK AO2,M
TMT,2021-10-12 12:15,-117.1971,39.4643,1749.34,27.00,21.90,80.83,340.00,3.00,0.00,29.93,M,10.00,M,BKN,OVC,M,M,3200.00,4000.00,M,M,M,M,M,M,M,M,M,22.97,KTMT 121215Z AUTO 34003KT 10SM BKN032 OVC040 M03/M06 A2993 RMK AO2 T10281056,M
BAM,2021-10-12 12:15,-116.8743,40.5990,1382.36,32.00,23.00,69.04,320.00,10.00,0.00,29.95,M,10.00,M,BKN,OVC,M,M,5000.00,6500.00,M,M,M,M,M,M,M,M,M,22.97,KBAM 121215Z AUTO 32010KT 10SM BKN050 OVC065 00/M05 A2995 RMK AO1,M
HTH,2021-10-12 12:15,-118.6315,38.5448,1282.89,33.80,17.60,51.04,350.00,14.00,0.00,30.01,M,10.00,M,BKN,OVC,M,M,6000.00,7000.00,M,M,M,M,M,M,M,M,M,23.48,KHTH 121215Z AUTO 35014KT 10SM BKN060 OVC070 01/M08 A3001 RMK A01,M
BVU,2021-10-12 12:15,-114.8611,35.9475,671.00,46.40,33.80,61.28,310.00,15.00,0.00,29.66,M,10.00,24.00,OVC,M,M,M,3400.00,M,M,M,M,M,M,M,M,M,M,39.45,KBVU 121215Z AUTO 31015G24KT 10SM OVC034 08/01 A2966 RMK AO2,M
RTS,2021-10-12 12:15,-119.8764,39.6682,1539.00,28.40,14.00,54.31,340.00,11.00,0.00,30.03,M,10.00,19.00,CLR,M,M,M,M,M,M,M,M,M,M,M,M,M,M,17.92,KRTS 121215Z AUTO 34011G19KT 10SM CLR M02/M10 A3003 RMK AO2,M
05U,2021-10-12 12:15,-116.0051,39.6042,1811.23,28.40,19.40,68.61,330.00,12.00,0.00,29.84,M,10.00,20.00,OVC,M,M,M,2500.00,M,M,M,M,M,M,M,M,M,M,17.42,K05U 121215Z AUTO 33012G20KT 10SM OVC025 M02/M07 A2984 RMK A01,M
CXP,2021-10-12 12:30,-119.7326,39.1923,1431.00,32.00,14.00,46.92,340.00,8.00,0.00,30.04,M,10.00,M,CLR,M,M,M,M,M,M,M,M,M,M,M,M,M,M,24.11,KCXP 121230Z AUTO 34008KT 10SM CLR M00/M10 A3004 RMK AO2,M
TMT,2021-10-12 12:35,-117.1971,39.4643,1749.34,27.30,21.20,77.50,0.00,0.00,0.00,29.93,M,10.00,M,OVC,M,M,M,3200.00,M,M,M,M,M,M,M,M,M,M,27.30,KTMT 121235Z AUTO 00000KT 10SM OVC032 M03/M06 A2993 RMK AO2 T10261060,M
BVU,2021-10-12 12:35,-114.8611,35.9475,671.00,46.40,33.80,61.28,320.00,20.00,0.00,29.67,M,10.00,27.00,SCT,BKN,OVC,M,3600.00,4200.00,7500.00,M,M,M,M,M,M,M,M,38.26,KBVU 121235Z AUTO 32020G27KT 10SM SCT036 BKN042 OVC075 08/01 A2967 RMK AO2,M
RTS,2021-10-12 12:35,-119.8764,39.6682,1539.00,26.60,12.20,54.03,320.00,5.00,0.00,30.04,M,10.00,11.00,CLR,M,M,M,M,M,M,M,M,M,M,M,M,M,M,19.98,KRTS 121235Z AUTO 32005G11KT 10SM CLR M03/M11 A3004 RMK AO2,M
05U,2021-10-12 12:35,-116.0051,39.6042,1811.23,28.40,19.40,68.61,330.00,16.00,0.00,29.85,M,10.00,23.00,OVC,M,M,M,2600.00,M,M,M,M,M,M,M,M,M,M,15.73,K05U 121235Z AUTO 33016G23KT 10SM OVC026 M02/M07 A2985 RMK A01,M
MEV,2021-10-12 12:35,-119.7500,38.9963,1441.42,19.40,14.00,79.16,100.00,5.00,0.00,30.03,M,5.00,M,FEW,FEW,SCT,M,200.00,4800.00,5500.00,M,HZ,M,M,M,M,M,M,11.43,KMEV 121235Z AUTO 10005KT 5SM HZ FEW002 FEW048 SCT055 M07/M10 A3003 RMK AO2,M
BAM,2021-10-12 12:35,-116.8743,40.5990,1382.36,32.00,23.00,69.04,330.00,8.00,0.00,29.95,M,10.00,M,SCT,OVC,M,M,4500.00,5000.00,M,M,M,M,M,M,M,M,M,24.11,KBAM 121235Z AUTO 33008KT 10SM SCT045 OVC050 00/M05 A2995 RMK AO1,M
HTH,2021-10-12 12:35,-118.6315,38.5448,1282.89,32.00,17.60,54.87,360.00,15.00,0.00,30.02,M,10.00,M,OVC,M,M,M,6000.00,M,M,M,M,M,M,M,M,M,M,20.78,KHTH 121235Z AUTO 36015KT 10SM OVC060 00/M08 A3002 RMK A01,M
CXP,2021-10-12 12:50,-119.7326,39.1923,1431.00,28.40,15.80,58.75,0.00,0.00,0.00,30.05,M,10.00,M,CLR,M,M,M,M,M,M,M,M,M,M,M,M,M,M,28.40,KCXP 121250Z AUTO 00000KT 10SM CLR M02/M09 A3005 RMK AO2,M
VGT,2021-10-12 12:53,-115.1933,36.2111,667.00,48.00,34.00,58.16,330.00,18.00,T,29.65,1005.10,10.00,27.00,FEW,M,M,M,11000.00,M,M,M,DU,M,M,M,33.00,330.00,2021-10-12 11:58,40.81,KVGT 121253Z AUTO 33018G27KT 10SM DU FEW110 09/01 A2965 RMK AO2 PK WND 33033/1158 RAE09 SLP051 P0000 T00890011,M
ELY,2021-10-12 12:53,-114.8453,39.2950,1909.00,28.90,27.00,92.49,10.00,17.00,0.00,29.70,1006.30,10.00,25.00,OVC,M,M,M,2300.00,M,M,M,M,M,M,M,31.00,360.00,2021-10-12 12:14,16.01,KELY 121253Z AUTO 01017G25KT 10SM OVC023 M02/M03 A2970 RMK AO2 PK WND 36031/1214 SLP063 T10171028 $,M
DRA,2021-10-12 12:53,-116.0278,36.6206,1009.00,44.00,27.00,50.73,330.00,5.00,0.00,29.73,1005.30,10.00,M,OVC,M,M,M,8000.00,M,M,M,M,M,M,M,M,M,M,40.77,KDRA 121253Z AUTO 33005KT 10SM OVC080 07/M03 A2973 RMK AO2 SLP053 T00671028 $,M
P68,2021-10-12 12:53,-116.0056,39.6014,1993.00,28.00,19.90,71.25,330.00,15.00,0.00,29.83,1010.50,M,23.00,M,M,M,M,M,M,M,M,M,M,M,M,M,M,M,15.59,KP68 121253Z AUTO 33015G23KT M02/M07 A2983 RMK AO1 SLP105 T10221067,M
LOL,2021-10-12 12:53,-118.5701,40.0684,1192.43,30.90,17.10,56.14,0.00,0.00,0.00,30.01,1017.30,10.00,M,CLR,M,M,M,M,M,M,M,M,M,M,M,M,M,M,30.90,KLOL 121253Z AUTO 00000KT 10SM CLR M01/M08 A3001 RMK AO2 SLP173 T10061083,M
05U,2021-10-12 12:55,-116.0051,39.6042,1811.23,28.40,19.40,68.61,330.00,15.00,0.00,29.86,M,10.00,M,OVC,M,M,M,2600.00,M,M,M,M,M,M,M,M,M,M,16.11,K05U 121255Z AUTO 33015KT 10SM OVC026 M02/M07 A2986 RMK A01,M
TMT,2021-10-12 12:55,-117.1971,39.4643,1749.34,27.30,21.60,78.83,0.00,0.00,0.00,29.93,M,10.00,M,BKN,OVC,M,M,3200.00,4000.00,M,M,M,M,M,M,M,M,M,27.30,KTMT 121255Z AUTO 00000KT 10SM BKN032 OVC040 M03/M06 A2993 RMK AO2 T10261058,M
BVU,2021-10-12 12:55,-114.8611,35.9475,671.00,48.20,32.00,53.27,320.00,19.00,0.00,29.69,M,10.00,26.00,FEW,FEW,OVC,M,3600.00,4300.00,7500.00,M,M,M,M,M,M,M,M,40.86,KBVU 121255Z AUTO 32019G26KT 10SM FEW036 FEW043 OVC075 09/00 A2969 RMK AO2,M
RNO,2021-10-12 12:55,-119.7711,39.4839,1341.00,30.90,16.00,53.53,190.00,3.00,0.00,30.05,1018.10,10.00,M,SCT,M,M,M,5000.00,M,M,M,M,M,M,M,M,M,M,27.43,KRNO 121255Z 19003KT 10SM SCT050 M01/M09 A3005 RMK AO2 SLP181 T10061089 $,M
RTS,2021-10-12 12:55,-119.8764,39.6682,1539.00,26.60,12.20,54.03,320.00,4.00,0.00,30.05,M,10.00,M,CLR,M,M,M,M,M,M,M,M,M,M,M,M,M,M,21.11,KRTS 121255Z AUTO 32004KT 10SM CLR M03/M11 A3005 RMK AO2,M
BAM,2021-10-12 12:55,-116.8743,40.5990,1382.36,32.00,23.00,69.04,340.00,4.00,0.00,29.95,M,10.00,M,OVC,M,M,M,5000.00,M,M,M,M,M,M,M,M,M,M,27.42,KBAM 121255Z AUTO 34004KT 10SM OVC050 00/M05 A2995 RMK AO1,M
HTH,2021-10-12 12:55,-118.6315,38.5448,1282.89,32.00,17.60,54.87,360.00,14.00,0.00,30.02,M,10.00,M,OVC,M,M,M,6000.00,M,M,M,M,M,M,M,M,M,M,21.16,KHTH 121255Z AUTO 36014KT 10SM OVC060 00/M08 A3002 RMK A01,M
MEV,2021-10-12 12:55,-119.7500,38.9963,1441.42,19.40,12.20,73.13,0.00,0.00,0.00,30.04,M,10.00,M,SCT,SCT,M,M,5000.00,5500.00,M,M,M,M,M,M,M,M,M,19.40,KMEV 121255Z AUTO 00000KT 10SM SCT050 SCT055 M07/M11 A3004 RMK AO2,M
EKO,2021-10-12 12:56,-115.7860,40.8242,1367.00,34.00,19.00,53.77,330.00,10.00,0.00,29.86,1011.60,10.00,17.00,FEW,OVC,M,M,5000.00,8000.00,M,M,M,M,M,M,M,M,M,25.48,KEKO 121256Z AUTO 33010G17KT 10SM FEW050 OVC080 01/M07 A2986 RMK AO2 SLP116 T00111072,M
HND,2021-10-12 12:56,-115.1344,35.9729,742.79,50.00,26.10,39.14,320.00,3.00,0.00,29.69,1006.30,10.00,M,OVC,M,M,M,9000.00,M,M,M,M,M,M,M,M,M,M,50.00,KHND 121256Z 32003KT 10SM OVC090 10/M03 A2969 RMK AO2 SLP063 T01001033,M
WMC,2021-10-12 12:56,-117.8072,40.9019,1315.00,28.90,18.00,63.31,0.00,0.00,0.00,29.98,1015.80,10.00,M,CLR,M,M,M,M,M,M,M,M,M,M,M,M,M,M,28.90,KWMC 121256Z AUTO 00000KT 10SM CLR M02/M08 A2998 RMK AO2 SLP158 T10171078 TSNO,M
TPH,2021-10-12 12:56,-117.0904,38.0505,1654.00,30.00,19.00,63.18,320.00,22.00,0.00,29.82,1009.90,10.00,29.00,CLR,M,M,M,M,M,M,M,M,M,M,M,29.00,320.00,2021-10-12 12:16,15.90,KTPH 121256Z AUTO 32022G29KT 10SM CLR M01/M07 A2982 RMK AO2 PK WND 32029/1216 SLP099 T10111072,M
NFL,2021-10-12 12:56,-118.7010,39.4166,1199.00,30.90,21.00,66.34,290.00,3.00,0.00,30.02,1013.60,10.00,M,SCT,M,M,M,6000.00,M,M,M,M,M,M,M,M,M,M,27.43,KNFL 121256Z AUTO 29003KT 10SM SCT060 M01/M06 A3002 RMK AO2 SLP136 T10061061,M
LAS,2021-10-12 12:56,-115.1634,36.0719,663.00,50.00,28.90,43.92,330.00,14.00,0.00,29.68,1004.10,10.00,22.00,FEW,BKN,M,M,6500.00,9500.00,M,M,M,M,M,M,32.00,340.00,2021-10-12 12:05,50.00,KLAS 121256Z 33014G22KT 10SM FEW065 BKN095 10/M02 A2968 RMK AO2 PK WND 34032/1205 SLP041 VIRGA DSNT NE-E T01001017 $,M
LSV,2021-10-12 12:58,-115.0343,36.2362,570.00,48.60,36.00,61.81,320.00,5.00,0.00,29.67,1004.10,10.00,M,BKN,M,M,M,11000.00,M,M,M,M,M,M,M,28.00,290.00,2021-10-12 12:02,46.11,KLSV 121258Z AUTO 32005KT 10SM BKN110 09/02 A2967 RMK AO2 PK WND 29028/02 SLP041 T00920023 $,M
INS,2021-10-12 12:58,-115.6733,36.5872,955.00,43.30,34.50,70.90,260.00,11.00,0.00,29.72,1005.30,10.00,M,CLR,M,M,M,M,M,M,M,M,M,M,M,M,M,M,36.75,KINS 121258Z AUTO 26011KT 10SM CLR 06/01 A2972 RMK AO2 SLP053 T00630014 $,M
CXP,2021-10-12 13:10,-119.7326,39.1923,1431.00,28.40,15.80,58.75,340.00,7.00,0.00,30.05,M,10.00,M,FEW,M,M,M,5000.00,M,M,M,M,M,M,M,M,M,M,20.39,KCXP 121310Z AUTO 34007KT 10SM FEW050 M02/M09 A3005 RMK AO2,M
05U,2021-10-12 13:15,-116.0051,39.6042,1811.23,28.40,19.40,68.61,340.00,12.00,0.00,29.87,M,10.00,18.00,OVC,M,M,M,2600.00,M,M,M,M,M,M,M,M,M,M,17.42,K05U 121315Z AUTO 34012G18KT 10SM OVC026 M02/M07 A2987 RMK A01,M
MEV,2021-10-12 13:15,-119.7500,38.9963,1441.42,17.60,12.20,79.00,110.00,4.00,0.00,30.04,M,10.00,M,FEW,FEW,M,M,5000.00,6000.00,M,M,M,M,M,M,M,M,M,10.60,KMEV 121315Z AUTO 11004KT 10SM FEW050 FEW060 M08/M11 A3004 RMK AO2,M
BAM,2021-10-12 13:15,-116.8743,40.5990,1382.36,32.00,23.00,69.04,310.00,8.00,0.00,29.95,M,10.00,M,BKN,M,M,M,5000.00,M,M,M,M,M,M,M,M,M,M,24.11,KBAM 121315Z AUTO 31008KT 10SM BKN050 00/M05 A2995 RMK AO1,M
HTH,2021-10-12 13:15,-118.6315,38.5448,1282.89,32.00,17.60,54.87,10.00,15.00,0.00,30.03,M,10.00,M,BKN,OVC,M,M,5000.00,5500.00,M,M,M,M,M,M,M,M,M,20.78,KHTH 121315Z AUTO 01015KT 10SM BKN050 OVC055 00/M08 A3003 RMK A01,M
TMT,2021-10-12 13:15,-117.1971,39.4643,1749.34,27.30,21.60,78.83,0.00,0.00,0.00,29.95,M,10.00,M,OVC,M,M,M,2800.00,M,M,M,M,M,M,M,M,M,M,27.30,KTMT 121315Z AUTO 00000KT 10SM OVC028 M03/M06 A2995 RMK AO2 T10261058,M
BVU,2021-10-12 13:15,-114.8611,35.9475,671.00,48.20,32.00,53.27,320.00,16.00,0.00,29.69,M,10.00,25.00,OVC,M,M,M,7500.00,M,M,M,M,M,M,M,M,M,M,41.53,KBVU 121315Z AUTO 32016G25KT 10SM OVC075 09/00 A2969 RMK AO2,M
RTS,2021-10-12 13:15,-119.8764,39.6682,1539.00,26.60,14.00,58.49,340.00,10.00,0.00,30.05,M,10.00,M,CLR,M,M,M,M,M,M,M,M,M,M,M,M,M,M,16.20,KRTS 121315Z AUTO 34010KT 10SM CLR M03/M10 A3005 RMK AO2,M
CXP,2021-10-12 13:30,-119.7326,39.1923,1431.00,28.40,14.00,54.31,0.00,0.00,0.00,30.06,M,10.00,M,SCT,M,M,M,5500.00,M,M,M,M,M,M,M,M,M,M,28.40,KCXP 121330Z AUTO 00000KT 10SM SCT055 M02/M10 A3006 RMK AO2,M
BVU,2021-10-12 13:35,-114.8611,35.9475,671.00,48.20,32.00,53.27,320.00,17.00,0.00,29.70,M,10.00,25.00,OVC,M,M,M,7500.00,M,M,M,M,M,M,M,M,M,M,41.30,KBVU 121335Z AUTO 32017G25KT 10SM OVC075 09/M00 A2970 RMK AO2,M
05U,2021-10-12 13:35,-116.0051,39.6042,1811.23,28.40,19.40,68.61,340.00,12.00,0.00,29.87,M,10.00,18.00,OVC,M,M,M,2500.00,M,M,M,M,M,M,M,M,M,M,17.42,K05U 121335Z AUTO 34012G18KT 10SM OVC025 M02/M07 A2987 RMK A01,M
HTH,2021-10-12 13:35,-118.6315,38.5448,1282.89,32.00,17.60,54.87,10.00,14.00,0.00,30.03,M,10.00,M,BKN,OVC,M,M,5000.00,6000.00,M,M,M,M,M,M,M,M,M,21.16,KHTH 121335Z AUTO 01014KT 10SM BKN050 OVC060 M00/M08 A3003 RMK A01,M
TMT,2021-10-12 13:35,-117.1971,39.4643,1749.34,27.50,20.80,75.57,0.00,0.00,0.00,29.95,M,10.00,M,OVC,M,M,M,2800.00,M,M,M,M,M,M,M,M,M,M,27.50,KTMT 121335Z AUTO 00000KT 10SM OVC028 M02/M06 A2995 RMK AO2 T10251062,M
MEV,2021-10-12 13:35,-119.7500,38.9963,1441.42,15.80,12.20,85.40,110.00,6.00,0.00,30.05,M,10.00,M,FEW,SCT,M,M,4500.00,5500.00,M,M,M,M,M,M,M,M,M,6.02,KMEV 121335Z AUTO 11006KT 10SM FEW045 SCT055 M09/M11 A3005 RMK AO2,M
RTS,2021-10-12 13:35,-119.8764,39.6682,1539.00,24.80,12.20,58.22,300.00,6.00,0.00,30.05,M,10.00,M,CLR,M,M,M,M,M,M,M,M,M,M,M,M,M,M,16.86,KRTS 121335Z AUTO 30006KT 10SM CLR M04/M11 A3005 RMK AO2,M
BAM,2021-10-12 13:35,-116.8743,40.5990,1382.36,32.00,23.00,69.04,320.00,10.00,0.00,29.95,M,10.00,14.00,SCT,M,M,M,6000.00,M,M,M,M,M,M,M,M,M,M,22.97,KBAM 121335Z AUTO 32010G14KT 10SM SCT060 00/M05 A2995 RMK AO1,M
LSV,2021-10-12 13:40,-115.0343,36.2362,570.00,48.20,33.80,57.26,310.00,22.00,0.00,29.68,M,10.00,27.00,BKN,M,M,M,7500.00,M,M,M,M,M,M,M,M,M,M,40.27,KLSV 121340Z 31022G27KT 10SM BKN075 09/01 A2968,M
CXP,2021-10-12 13:50,-119.7326,39.1923,1431.00,30.20,14.00,50.47,10.00,4.00,0.00,30.06,M,10.00,11.00,BKN,M,M,M,5000.00,M,M,M,M,M,M,M,M,M,M,25.32,KCXP 121350Z AUTO 01004G11KT 10SM BKN050 M01/M10 A3006 RMK AO2,M
DRA,2021-10-12 13:53,-116.0278,36.6206,1009.00,43.00,25.00,48.70,310.00,8.00,0.00,29.75,1006.20,10.00,M,BKN,M,M,M,11000.00,M,M,M,M,M,M,M,M,M,M,37.66,KDRA 121353Z AUTO 31008KT 10SM BKN110 06/M04 A2975 RMK AO2 SLP062 T00611039 $,M
P68,2021-10-12 13:53,-116.0056,39.6014,1993.00,27.00,19.90,74.25,330.00,13.00,0.00,29.85,1011.40,M,M,M,M,M,M,M,M,M,M,M,M,M,M,M,M,M,15.16,KP68 121353Z AUTO 33013KT M03/M07 A2985 RMK AO1 SLP114 T10281067,M
ELY,2021-10-12 13:53,-114.8453,39.2950,1909.00,28.00,26.10,92.46,360.00,16.00,0.00,29.74,1007.50,10.00,27.00,OVC,M,M,M,2400.00,M,M,M,M,M,M,M,28.00,360.00,2021-10-12 13:20,15.20,KELY 121353Z AUTO 36016G27KT 10SM OVC024 M02/M03 A2974 RMK AO2 PK WND 36028/1320 SLP075 T10221033 $,M
LOL,2021-10-12 13:53,-118.5701,40.0684,1192.43,28.90,16.00,58.06,90.00,5.00,0.00,30.03,1018.10,10.00,M,CLR,M,M,M,M,M,M,M,M,M,M,M,M,M,M,22.71,KLOL 121353Z AUTO 09005KT 10SM CLR M02/M09 A3003 RMK AO2 SLP181 T10171089,M
VGT,2021-10-12 13:53,-115.1933,36.2111,667.00,49.00,33.00,54.24,340.00,13.00,0.00,29.68,1006.50,10.00,M,CLR,M,M,M,M,M,M,M,DU,M,M,M,29.00,320.00,2021-10-12 13:00,43.22,KVGT 121353Z 34013KT 10SM DU CLR 09/01 A2968 RMK AO2 PK WND 32029/1300 SLP065 T00940006,M
HTH,2021-10-12 13:55,-118.6315,38.5448,1282.89,32.00,17.60,54.87,10.00,13.00,0.00,30.04,M,10.00,M,BKN,BKN,BKN,M,5000.00,5500.00,6500.00,M,M,M,M,M,M,M,M,21.57,KHTH 121355Z AUTO 01013KT 10SM BKN050 BKN055 BKN065 M00/M08 A3004 RMK A01,M
TMT,2021-10-12 13:55,-117.1971,39.4643,1749.34,27.30,21.40,78.16,0.00,0.00,0.00,29.95,M,10.00,M,OVC,M,M,M,2800.00,M,M,M,M,M,M,M,M,M,M,27.30,KTMT 121355Z AUTO 00000KT 10SM OVC028 M03/M06 A2995 RMK AO2 T10261059,M
RNO,2021-10-12 13:55,-119.7711,39.4839,1341.00,32.00,15.10,49.23,300.00,5.00,0.00,30.06,1018.40,10.00,M,SCT,M,M,M,5000.00,M,M,M,M,M,M,M,M,M,M,26.40,KRNO 121355Z 30005KT 10SM SCT050 00/M09 A3006 RMK AO2 SLP184 T00001094 $,M
RTS,2021-10-12 13:55,-119.8764,39.6682,1539.00,23.00,12.20,62.78,330.00,8.00,0.00,30.06,M,10.00,M,CLR,M,M,M,M,M,M,M,M,M,M,M,M,M,M,13.03,KRTS 121355Z AUTO 33008KT 10SM CLR M05/M11 A3006 RMK AO2,M
05U,2021-10-12 13:55,-116.0051,39.6042,1811.23,28.40,19.40,68.61,330.00,12.00,0.00,29.88,M,10.00,18.00,OVC,M,M,M,2500.00,M,M,M,M,M,M,M,M,M,M,17.42,K05U 121355Z AUTO 33012G18KT 10SM OVC025 M02/M07 A2988 RMK A01,M
MEV,2021-10-12 13:55,-119.7500,38.9963,1441.42,17.60,12.20,79.00,120.00,6.00,0.00,30.06,M,4.00,M,BKN,M,M,M,5500.00,M,M,M,HZ,M,M,M,M,M,M,8.19,KMEV 121355Z AUTO 12006KT 4SM HZ BKN055 M08/M11 A3006 RMK AO2,M
BAM,2021-10-12 13:55,-116.8743,40.5990,1382.36,32.00,23.00,69.04,360.00,3.00,0.00,29.96,M,10.00,M,SCT,M,M,M,6000.00,M,M,M,M,M,M,M,M,M,M,28.69,KBAM 121355Z AUTO 36003KT 10SM SCT060 00/M05 A2996 RMK AO1,M
BVU,2021-10-12 13:55,-114.8611,35.9475,671.00,48.20,32.00,53.27,320.00,19.00,0.00,29.71,M,10.00,27.00,OVC,M,M,M,7500.00,M,M,M,M,M,M,M,M,M,M,40.86,KBVU 121355Z AUTO 32019G27KT 10SM OVC075 09/M00 A2971 RMK AO2,M
LAS,2021-10-12 13:56,-115.1634,36.0719,663.00,50.00,28.00,42.33,330.00,13.00,0.00,29.71,1005.30,10.00,20.00,FEW,BKN,BKN,M,6500.00,9500.00,15000.00,M,M,M,M,M,29.00,350.00,2021-10-12 13:21,50.00,KLAS 121356Z 33013G20KT 10SM FEW065 BKN095 BKN150 10/M02 A2971 RMK AO2 PK WND 35029/1321 SLP053 ACSL DSNT W T01001022 $,M
EKO,2021-10-12 13:56,-115.7860,40.8242,1367.00,33.00,18.00,53.40,310.00,6.00,0.00,29.87,1012.20,10.00,M,OVC,M,M,M,9000.00,M,M,M,M,M,M,M,M,M,M,26.86,KEKO 121356Z AUTO 31006KT 10SM OVC090 01/M08 A2987 RMK AO2 SLP122 T00061078,M
HND,2021-10-12 13:56,-115.1344,35.9729,742.79,49.00,28.90,45.75,350.00,14.00,0.00,29.72,1007.70,10.00,M,OVC,M,M,M,7500.00,M,M,M,M,M,M,M,M,M,M,42.95,KHND 121356Z 35014KT 10SM OVC075 09/M02 A2972 RMK AO2 SLP077 T00941017,M
TPH,2021-10-12 13:56,-117.0904,38.0505,1654.00,28.90,19.00,66.08,330.00,20.00,0.00,29.86,1011.70,10.00,28.00,CLR,M,M,M,M,M,M,M,M,M,M,M,32.00,320.00,2021-10-12 13:10,15.02,KTPH 121356Z AUTO 33020G28KT 10SM CLR M02/M07 A2986 RMK AO2 PK WND 32032/1310 SLP117 T10171072,M
WMC,2021-10-12 13:56,-117.8072,40.9019,1315.00,28.00,18.00,65.69,290.00,8.00,0.00,30.00,1016.80,10.00,M,CLR,M,M,M,M,M,M,M,M,M,M,M,M,M,M,19.19,KWMC 121356Z AUTO 29008KT 10SM CLR M02/M08 A3000 RMK AO2 SLP168 T10221078 TSNO,M
NFL,2021-10-12 13:56,-118.7010,39.4166,1199.00,30.00,21.90,71.48,300.00,4.00,0.00,30.03,1014.00,10.00,M,CLR,M,M,M,M,M,M,M,M,M,M,M,M,M,M,25.08,KNFL 121356Z AUTO 30004KT 10SM CLR M01/M06 A3003 RMK AO2 SLP140 T10111056,M
LSV,2021-10-12 13:58,-115.0343,36.2362,570.00,50.40,31.50,48.09,310.00,17.00,0.00,29.69,1004.90,10.00,25.00,OVC,M,M,M,7000.00,M,M,M,M,M,M,M,29.00,300.00,2021-10-12 13:41,50.40,KLSV 121358Z AUTO 31017G25KT 10SM OVC070 10/M00 A2969 RMK AO2 PK WND 30029/41 SLP049 T01021003 $,M
INS,2021-10-12 13:58,-115.6733,36.5872,955.00,43.70,31.50,61.90,260.00,11.00,0.00,29.75,1006.60,10.00,M,SCT,M,M,M,9000.00,M,M,M,M,M,M,M,M,M,M,37.25,KINS 121358Z AUTO 26011KT 10SM SCT090 07/M00 A2975 RMK AO2 SLP066 T00651003 $,M
CXP,2021-10-12 14:10,-119.7326,39.1923,1431.00,28.40,15.80,58.75,0.00,0.00,0.00,30.07,M,10.00,M,FEW,M,M,M,5000.00,M,M,M,M,M,M,M,M,M,M,28.40,KCXP 121410Z AUTO 00000KT 10SM FEW050 M02/M09 A3007 RMK AO2,M
05U,2021-10-12 14:15,-116.0051,39.6042,1811.23,28.40,19.40,68.61,330.00,13.00,0.00,29.89,M,10.00,M,OVC,M,M,M,2600.00,M,M,M,M,M,M,M,M,M,M,16.96,K05U 121415Z AUTO 33013KT 10SM OVC026 M02/M07 A2989 RMK A01,M
HTH,2021-10-12 14:15,-118.6315,38.5448,1282.89,32.00,17.60,54.87,360.00,14.00,0.00,30.04,M,10.00,M,FEW,FEW,M,M,5500.00,6500.00,M,M,M,M,M,M,M,M,M,21.16,KHTH 121415Z AUTO 36014KT 10SM FEW055 FEW065 00/M08 A3004 RMK A01,M
BAM,2021-10-12 14:15,-116.8743,40.5990,1382.36,32.00,23.00,69.04,30.00,3.00,0.00,29.97,M,10.00,M,SCT,M,M,M,6000.00,M,M,M,M,M,M,M,M,M,M,28.69,KBAM 121415Z AUTO 03003KT 10SM SCT060 00/M05 A2997 RMK AO1,M
MEV,2021-10-12 14:15,-119.7500,38.9963,1441.42,15.80,10.40,78.84,100.00,7.00,0.00,30.06,M,10.00,M,FEW,FEW,M,M,5000.00,5500.00,M,M,M,M,M,M,M,M,M,5.03,KMEV 121415Z AUTO 10007KT 10SM FEW050 FEW055 M09/M12 A3006 RMK AO2,M
BVU,2021-10-12 14:15,-114.8611,35.9475,671.00,48.20,32.00,53.27,320.00,14.00,0.00,29.72,M,10.00,21.00,BKN,BKN,M,M,7500.00,8500.00,M,M,M,M,M,M,M,M,M,42.04,KBVU 121415Z AUTO 32014G21KT 10SM BKN075 BKN085 09/M00 A2972 RMK AO2,M
RTS,2021-10-12 14:15,-119.8764,39.6682,1539.00,23.00,12.20,62.78,300.00,6.00,0.00,30.06,M,10.00,M,CLR,M,M,M,M,M,M,M,M,M,M,M,M,M,M,14.69,KRTS 121415Z AUTO 30006KT 10SM CLR M05/M11 A3006 RMK AO2,M
TMT,2021-10-12 14:15,-117.1971,39.4643,1749.34,27.10,21.70,79.81,300.00,3.00,0.00,29.96,M,10.00,M,BKN,OVC,M,M,3000.00,3800.00,M,M,M,M,M,M,M,M,M,23.09,KTMT 121415Z AUTO 30003KT 10SM BKN030 OVC038 M03/M06 A2996 RMK AO2 T10271057,M
INS,2021-10-12 14:28,-115.6733,36.5872,955.00,44.60,30.20,56.74,260.00,12.00,0.00,29.76,1006.90,10.00,M,BKN,M,M,M,7500.00,M,M,M,M,M,M,M,M,M,M,38.04,KINS 121428Z AUTO 26012KT 10SM BKN075 07/M01 A2976 RMK AO2 SLP069 $,M
CXP,2021-10-12 14:30,-119.7326,39.1923,1431.00,24.80,15.80,68.18,80.00,4.00,0.00,30.07,M,10.00,M,CLR,M,M,M,M,M,M,M,M,M,M,M,M,M,M,19.01,KCXP 121430Z AUTO 08004KT 10SM CLR M04/M09 A3007 RMK AO2,M
NFL,2021-10-12 14:32,-118.7010,39.4166,1199.00,30.90,21.00,66.34,300.00,7.00,0.00,30.04,M,10.00,M,FEW,M,M,M,10000.00,M,M,M,M,M,M,M,M,M,M,23.44,KNFL 121432Z 30007KT 10SM FEW100 M01/M06 A3004 RMK AO2 T10061061,M
INS,2021-10-12 14:33,-115.6733,36.5872,955.00,44.60,30.20,56.74,250.00,12.00,0.00,29.77,1007.20,10.00,M,SCT,M,M,M,7500.00,M,M,M,M,M,M,M,M,M,M,38.04,KINS 121433Z AUTO 25012KT 10SM SCT075 07/M01 A2977 RMK AO2 SLP072 $,M
MEV,2021-10-12 14:35,-119.7500,38.9963,1441.42,15.80,12.20,85.40,90.00,5.00,0.00,30.06,M,10.00,M,CLR,M,M,M,M,M,M,M,M,M,M,M,M,M,M,7.16,KMEV 121435Z AUTO 09005KT 10SM CLR M09/M11 A3006 RMK AO2,M
BVU,2021-10-12 14:35,-114.8611,35.9475,671.00,48.20,30.20,49.53,330.00,13.00,0.00,29.73,M,10.00,19.00,BKN,OVC,M,M,7000.00,8000.00,M,M,M,M,M,M,M,M,M,42.32,KBVU 121435Z AUTO 33013G19KT 10SM BKN070 OVC080 09/M01 A2973 RMK AO2,M
RTS,2021-10-12 14:35,-119.8764,39.6682,1539.00,24.80,14.00,63.03,350.00,7.00,0.00,30.06,M,10.00,M,CLR,M,M,M,M,M,M,M,M,M,M,M,M,M,M,16.00,KRTS 121435Z AUTO 35007KT 10SM CLR M04/M10 A3006 RMK AO2,M
05U,2021-10-12 14:35,-116.0051,39.6042,1811.23,28.40,19.40,68.61,340.00,12.00,0.00,29.89,M,10.00,18.00,OVC,M,M,M,2700.00,M,M,M,M,M,M,M,M,M,M,17.42,K05U 121435Z AUTO 34012G18KT 10SM OVC027 M02/M07 A2989 RMK A01,M
HTH,2021-10-12 14:35,-118.6315,38.5448,1282.89,32.00,17.60,54.87,10.00,14.00,0.00,30.05,M,10.00,M,SCT,M,M,M,4800.00,M,M,M,M,M,M,M,M,M,M,21.16,KHTH 121435Z AUTO 01014KT 10SM SCT048 00/M08 A3005 RMK A01,M
TMT,2021-10-12 14:35,-117.1971,39.4643,1749.34,27.10,21.90,80.49,310.00,3.00,0.00,29.97,M,10.00,M,BKN,OVC,M,M,3000.00,3800.00,M,M,M,M,M,M,M,M,M,23.09,KTMT 121435Z AUTO 31003KT 10SM BKN030 OVC038 M03/M06 A2997 RMK AO2 T10271056,M
BAM,2021-10-12 14:35,-116.8743,40.5990,1382.36,30.20,23.00,74.26,0.00,0.00,0.00,29.98,M,10.00,M,SCT,M,M,M,6000.00,M,M,M,M,M,M,M,M,M,M,30.20,KBAM 121435Z AUTO 00000KT 10SM SCT060 M01/M05 A2998 RMK AO1,M
INS,2021-10-12 14:38,-115.6733,36.5872,955.00,44.60,30.20,56.74,250.00,12.00,0.00,29.77,1007.20,10.00,M,BKN,M,M,M,7500.00,M,M,M,M,M,M,M,M,M,M,38.04,KINS 121438Z AUTO 25012KT 10SM BKN075 07/M01 A2977 RMK AO2 SLP072 $,M
CXP,2021-10-12 14:50,-119.7326,39.1923,1431.00,28.40,15.80,58.75,60.00,4.00,0.00,30.07,M,10.00,M,CLR,M,M,M,M,M,M,M,M,M,M,M,M,M,M,23.22,KCXP 121450Z AUTO 06004KT 10SM CLR M02/M09 A3007 RMK AO2,M
P68,2021-10-12 14:53,-116.0056,39.6014,1993.00,27.00,19.00,71.45,330.00,13.00,0.00,29.88,1012.30,M,20.00,M,M,M,M,M,M,M,M,M,M,M,M,M,M,M,15.16,KP68 121453Z AUTO 33013G20KT M03/M07 A2988 RMK AO1 SLP123 T10281072 53019,M
VGT,2021-10-12 14:53,-115.1933,36.2111,667.00,52.00,30.90,44.24,320.00,16.00,0.00,29.71,1007.60,10.00,22.00,BKN,M,M,M,10000.00,M,M,M,DU,M,M,M,M,M,M,52.00,KVGT 121453Z 32016G22KT 10SM DU BKN100 11/M01 A2971 RMK AO2 SLP076 60000 T01111006 51031,M
DRA,2021-10-12 14:53,-116.0278,36.6206,1009.00,42.00,27.00,54.78,280.00,4.00,0.00,29.79,1007.60,10.00,M,CLR,M,M,M,M,M,M,M,M,M,M,M,M,M,M,39.21,KDRA 121453Z AUTO 28004KT 10SM CLR 06/M03 A2979 RMK AO2 SLP076 T00561028 53028 $,M
LOL,2021-10-12 14:53,-118.5701,40.0684,1192.43,33.00,18.00,53.40,40.00,6.00,0.00,30.04,1018.30,10.00,M,CLR,M,M,M,M,M,M,M,M,M,M,M,M,M,M,26.86,KLOL 121453Z AUTO 04006KT 10SM CLR 01/M08 A3004 RMK AO2 SLP183 T00061078 51013,M
ELY,2021-10-12 14:53,-114.8453,39.2950,1909.00,28.00,26.10,92.46,20.00,17.00,0.00,29.76,1008.70,10.00,M,OVC,M,M,M,2600.00,M,M,M,M,M,M,M,30.00,360.00,2021-10-12 14:20,14.83,KELY 121453Z AUTO 02017KT 10SM OVC026 M02/M03 A2976 RMK AO2 PK WND 36030/1420 SLP087 T10221033 53020 $,M
05U,2021-10-12 14:55,-116.0051,39.6042,1811.23,28.40,19.40,68.61,330.00,14.00,0.00,29.90,M,10.00,M,OVC,M,M,M,2800.00,M,M,M,M,M,M,M,M,M,M,16.52,K05U 121455Z AUTO 33014KT 10SM OVC028 M02/M07 A2990 RMK A01,M
RTS,2021-10-12 14:55,-119.8764,39.6682,1539.00,28.40,14.00,54.31,360.00,7.00,0.00,30.06,M,10.00,M,CLR,M,M,M,M,M,M,M,M,M,M,M,M,M,M,20.39,KRTS 121455Z AUTO 36007KT 10SM CLR M02/M10 A3006 RMK AO2,M
RNO,2021-10-12 14:55,-119.7711,39.4839,1341.00,33.00,16.00,48.98,0.00,0.00,0.00,30.07,1018.60,10.00,M,FEW,M,M,M,5000.00,M,M,M,M,M,M,M,M,M,M,33.10,KRNO 121455Z 00000KT 10SM FEW050 01/M09 A3007 RMK AO2 SLP186 CLDS TPG MTNS DSNT SW T00061089 51012,M
BVU,2021-10-12 14:55,-114.8611,35.9475,671.00,50.00,30.20,46.31,320.00,12.00,0.00,29.75,M,10.00,M,OVC,M,M,M,6500.00,M,M,M,M,M,M,M,M,M,M,50.00,KBVU 121455Z AUTO 32012KT 10SM OVC065 10/M01 A2975 RMK AO2,M
TMT,2021-10-12 14:55,-117.1971,39.4643,1749.34,27.90,21.60,76.90,310.00,4.00,0.00,29.98,M,10.00,M,OVC,M,M,M,3000.00,M,M,M,M,M,M,M,M,M,M,22.63,KTMT 121455Z AUTO 31004KT 10SM OVC030 M02/M06 A2998 RMK AO2 T10231058,M
HTH,2021-10-12 14:55,-118.6315,38.5448,1282.89,33.80,17.60,51.04,10.00,11.00,0.00,30.05,M,10.00,M,FEW,FEW,M,M,4800.00,6000.00,M,M,M,M,M,M,M,M,M,24.74,KHTH 121455Z AUTO 01011KT 10SM FEW048 FEW060 01/M08 A3005 RMK A01,M
BAM,2021-10-12 14:55,-116.8743,40.5990,1382.36,32.00,23.00,69.04,310.00,8.00,0.00,29.98,M,10.00,M,OVC,M,M,M,6000.00,M,M,M,M,M,M,M,M,M,M,24.11,KBAM 121455Z AUTO 31008KT 10SM OVC060 00/M05 A2998 RMK AO1,M
MEV,2021-10-12 14:55,-119.7500,38.9963,1441.42,19.40,15.80,85.63,90.00,3.00,0.00,30.07,M,10.00,M,CLR,M,M,M,M,M,M,M,M,M,M,M,M,M,M,14.28,KMEV 121455Z AUTO 09003KT 10SM CLR M07/M09 A3007 RMK AO2,M
EKO,2021-10-12 14:56,-115.7860,40.8242,1367.00,33.00,18.00,53.40,330.00,8.00,0.00,29.89,1012.70,10.00,M,SCT,M,M,M,9000.00,M,M,M,M,M,M,M,M,M,M,25.47,KEKO 121456Z AUTO 33008KT 10SM SCT090 01/M08 A2989 RMK AO2 SLP127 T00061078 51012,M
LAS,2021-10-12 14:56,-115.1634,36.0719,663.00,51.00,28.00,40.63,330.00,12.00,0.00,29.75,1006.80,10.00,M,FEW,BKN,BKN,M,6500.00,8500.00,15000.00,M,M,M,M,M,M,M,M,51.10,KLAS 121456Z 33012KT 10SM FEW065 BKN085 BKN150 11/M02 A2975 RMK AO2 SLP068 T01061022 53030 $,M
TPH,2021-10-12 14:56,-117.0904,38.0505,1654.00,30.00,18.00,60.53,330.00,21.00,0.00,29.88,1012.60,10.00,28.00,CLR,M,M,M,M,M,M,M,M,M,M,M,32.00,320.00,2021-10-12 14:13,16.19,KTPH 121456Z AUTO 33021G28KT 10SM CLR M01/M08 A2988 RMK AO2 PK WND 32032/1413 SLP126 T10111078 53024,M
WMC,2021-10-12 14:56,-117.8072,40.9019,1315.00,32.00,19.90,60.55,310.00,9.00,0.00,30.01,1016.90,10.00,M,CLR,M,M,M,M,M,M,M,M,M,M,M,M,M,M,23.51,KWMC 121456Z AUTO 31009KT 10SM CLR 00/M07 A3001 RMK AO2 SLP169 T00001067 51012 TSNO,M
HND,2021-10-12 14:56,-115.1344,35.9729,742.79,51.00,25.00,35.89,340.00,11.00,0.00,29.76,1009.10,10.00,18.00,BKN,M,M,M,7500.00,M,M,M,M,M,M,M,M,M,M,51.10,KHND 121456Z 34011G18KT 10SM BKN075 11/M04 A2976 RMK AO2 SLP091 T01061039 53030,M
NFL,2021-10-12 14:56,-118.7010,39.4166,1199.00,32.00,21.00,63.45,320.00,7.00,0.00,30.05,1014.40,10.00,M,FEW,M,M,M,8000.00,M,M,M,M,M,M,M,M,M,M,24.78,KNFL 121456Z 32007KT 10SM FEW080 00/M06 A3005 RMK AO2 SLP144 T00001061 51013,M
INS,2021-10-12 14:58,-115.6733,36.5872,955.00,44.00,28.80,55.04,250.00,13.00,0.00,29.78,1007.60,10.00,M,BKN,M,M,M,7000.00,M,M,M,M,M,M,M,M,M,M,36.81,KINS 121458Z AUTO 25013KT 10SM BKN070 07/M02 A2978 RMK AO2 SLP076 T00661018 52026 $,M
LSV,2021-10-12 14:58,-115.0343,36.2362,570.00,48.40,36.70,63.77,50.00,3.00,0.00,29.73,1006.50,10.00,M,FEW,M,M,M,10000.00,M,M,M,M,M,M,M,M,M,M,47.44,KLSV 121458Z AUTO 05003KT 10SM FEW100 09/03 A2973 RMK AO2 SLP065 T00910026 52034 $,M
CXP,2021-10-12 15:10,-119.7326,39.1923,1431.00,30.20,15.80,54.59,110.00,4.00,0.00,30.08,M,10.00,M,CLR,M,M,M,M,M,M,M,M,M,M,M,M,M,M,25.32,KCXP 121510Z AUTO 11004KT 10SM CLR M01/M09 A3008 RMK AO2,M
TMT,2021-10-12 15:15,-117.1971,39.4643,1749.34,28.00,22.60,79.89,0.00,0.00,0.00,29.98,M,10.00,M,OVC,M,M,M,2800.00,M,M,M,M,M,M,M,M,M,M,28.00,KTMT 121515Z AUTO 00000KT 10SM OVC028 M02/M05 A2998 RMK AO2 T10221052,M
BVU,2021-10-12 15:15,-114.8611,35.9475,671.00,50.00,30.20,46.31,320.00,12.00,0.00,29.76,M,10.00,M,OVC,M,M,M,6500.00,M,M,M,M,M,M,M,M,M,M,50.00,KBVU 121515Z AUTO 32012KT 10SM OVC065 10/M01 A2976 RMK AO2,M
HTH,2021-10-12 15:15,-118.6315,38.5448,1282.89,33.80,17.60,51.04,20.00,11.00,0.00,30.06,M,10.00,M,FEW,FEW,M,M,4400.00,6000.00,M,M,M,M,M,M,M,M,M,24.74,KHTH 121515Z AUTO 02011KT 10SM FEW044 FEW060 01/M08 A3006 RMK A01,M
BAM,2021-10-12 15:15,-116.8743,40.5990,1382.36,33.80,23.00,64.23,320.00,8.00,0.00,29.99,M,10.00,M,SCT,M,M,M,6000.00,M,M,M,M,M,M,M,M,M,M,26.33,KBAM 121515Z AUTO 32008KT 10SM SCT060 01/M05 A2999 RMK AO1,M
05U,2021-10-12 15:15,-116.0051,39.6042,1811.23,28.40,19.40,68.61,330.00,15.00,0.00,29.92,M,10.00,M,OVC,M,M,M,2900.00,M,M,M,M,M,M,M,M,M,M,16.11,K05U 121515Z AUTO 33015KT 10SM OVC029 M02/M07 A2992 RMK A01,M
RTS,2021-10-12 15:15,-119.8764,39.6682,1539.00,30.20,14.00,50.47,350.00,5.00,0.00,30.07,M,10.00,M,CLR,M,M,M,M,M,M,M,M,M,M,M,M,M,M,24.26,KRTS 121515Z AUTO 35005KT 10SM CLR M01/M10 A3007 RMK AO2,M
MEV,2021-10-12 15:15,-119.7500,38.9963,1441.42,24.80,17.60,73.70,0.00,0.00,0.00,30.07,M,10.00,M,CLR,M,M,M,M,M,M,M,M,M,M,M,M,M,M,24.80,KMEV 121515Z AUTO 00000KT 10SM CLR M04/M08 A3007 RMK AO2,M
CXP,2021-10-12 15:30,-119.7326,39.1923,1431.00,30.20,15.80,54.59,0.00,0.00,0.00,30.09,M,10.00,M,CLR,M,M,M,M,M,M,M,M,M,M,M,M,M,M,30.20,KCXP 121530Z AUTO 00000KT 10SM CLR M01/M09 A3009 RMK AO2,M
INS,2021-10-12 15:33,-115.6733,36.5872,955.00,44.60,28.40,52.72,260.00,14.00,0.00,29.81,1008.60,10.00,M,SCT,M,M,M,7000.00,M,M,M,M,M,M,M,M,M,M,37.40,KINS 121533Z AUTO 26014KT 10SM SCT070 07/M02 A2981 RMK AO2 SLP086 $,M
BAM,2021-10-12 15:35,-116.8743,40.5990,1382.36,33.80,23.00,64.23,330.00,8.00,0.00,30.00,M,10.00,M,CLR,M,M,M,M,M,M,M,M,M,M,M,M,M,M,26.33,KBAM 121535Z AUTO 33008KT 10SM CLR 01/M05 A3000 RMK AO1,M
MEV,2021-10-12 15:35,-119.7500,38.9963,1441.42,28.40,17.60,63.51,0.00,0.00,0.00,30.08,M,5.00,M,CLR,M,M,M,M,M,M,M,HZ,M,M,M,M,M,M,28.40,KMEV 121535Z AUTO 00000KT 5SM HZ CLR M02/M08 A3008 RMK AO2,M
HTH,2021-10-12 15:35,-118.6315,38.5448,1282.89,35.60,17.60,47.51,10.00,11.00,0.00,30.07,M,10.00,19.00,FEW,M,M,M,4500.00,M,M,M,M,M,M,M,M,M,M,27.02,KHTH 121535Z AUTO 01011G19KT 10SM FEW045 02/M08 A3007 RMK A01,M
05U,2021-10-12 15:35,-116.0051,39.6042,1811.23,28.40,19.40,68.61,340.00,12.00,0.00,29.92,M,10.00,18.00,OVC,M,M,M,3000.00,M,M,M,M,M,M,M,M,M,M,17.42,K05U 121535Z AUTO 34012G18KT 10SM OVC030 M02/M07 A2992 RMK A01,M
RTS,2021-10-12 15:35,-119.8764,39.6682,1539.00,30.20,14.00,50.47,340.00,8.00,0.00,30.08,M,10.00,M,CLR,M,M,M,M,M,M,M,M,M,M,M,M,M,M,21.90,KRTS 121535Z AUTO 34008KT 10SM CLR M01/M10 A3008 RMK AO2,M
TMT,2021-10-12 15:35,-117.1971,39.4643,1749.34,28.60,21.40,74.10,0.00,0.00,0.00,29.99,M,10.00,M,BKN,OVC,M,M,2800.00,4100.00,M,M,M,M,M,M,M,M,M,28.60,KTMT 121535Z AUTO 00000KT 10SM BKN028 OVC041 M02/M06 A2999 RMK AO2 T10191059,M
BVU,2021-10-12 15:35,-114.8611,35.9475,671.00,50.00,30.20,46.31,320.00,12.00,0.00,29.77,M,10.00,19.00,BKN,OVC,M,M,7000.00,8000.00,M,M,M,M,M,M,M,M,M,50.00,KBVU 121535Z AUTO 32012G19KT 10SM BKN070 OVC080 10/M01 A2977 RMK AO2,M
CXP,2021-10-12 15:50,-119.7326,39.1923,1431.00,33.80,15.80,47.22,0.00,0.00,0.00,30.09,M,10.00,M,CLR,M,M,M,M,M,M,M,M,M,M,M,M,M,M,33.80,KCXP 121550Z AUTO 00000KT 10SM CLR 01/M09 A3009 RMK AO2,M
P68,2021-10-12 15:53,-116.0056,39.6014,1993.00,28.00,19.00,68.57,330.00,13.00,0.00,29.90,1012.80,M,21.00,M,M,M,M,M,M,M,M,M,M,M,M,M,M,M,16.44,KP68 121553Z AUTO 33013G21KT M02/M07 A2990 RMK AO1 SLP128 T10221072,M
DRA,2021-10-12 15:53,-116.0278,36.6206,1009.00,48.00,24.10,38.80,310.00,6.00,0.00,29.82,1008.20,10.00,M,CLR,M,M,M,M,M,M,M,M,M,M,M,M,M,M,44.80,KDRA 121553Z AUTO 31006KT 10SM CLR 09/M04 A2982 RMK AO2 SLP082 T00891044,M
ELY,2021-10-12 15:53,-114.8453,39.2950,1909.00,28.90,26.10,89.12,10.00,18.00,0.00,29.78,1008.90,10.00,26.00,OVC,M,M,M,2500.00,M,M,M,M,M,M,M,28.00,10.00,2021-10-12 15:23,15.67,KELY 121553Z AUTO 01018G26KT 10SM OVC025 M02/M03 A2978 RMK AO2 PK WND 01028/1523 SLP089 T10171033,M
LOL,2021-10-12 15:53,-118.5701,40.0684,1192.43,38.00,18.00,44.14,60.00,3.00,0.00,30.06,1018.70,10.00,M,CLR,M,M,M,M,M,M,M,M,M,M,M,M,M,M,35.43,KLOL 121553Z AUTO 06003KT 10SM CLR 03/M08 A3006 RMK AO2 SLP187 T00331078,M
VGT,2021-10-12 15:53,-115.1933,36.2111,667.00,54.00,26.10,33.77,320.00,18.00,0.00,29.75,1008.80,10.00,26.00,OVC,M,M,M,9000.00,M,M,M,DU,M,M,M,29.00,320.00,2021-10-12 15:38,54.00,KVGT 121553Z 32018G26KT 10SM DU OVC090 12/M03 A2975 RMK AO2 PK WND 32029/1538 SLP088 T01221033,M
HTH,2021-10-12 15:55,-118.6315,38.5448,1282.89,35.60,17.60,47.51,10.00,13.00,0.00,30.07,M,10.00,M,FEW,M,M,M,4500.00,M,M,M,M,M,M,M,M,M,M,26.18,KHTH 121555Z AUTO 01013KT 10SM FEW045 02/M08 A3007 RMK A01,M
TMT,2021-10-12 15:55,-117.1971,39.4643,1749.34,28.90,21.90,74.76,350.00,3.00,0.00,29.99,M,10.00,M,BKN,OVC,M,M,3000.00,4100.00,M,M,M,M,M,M,M,M,M,25.14,KTMT 121555Z AUTO 35003KT 10SM BKN030 OVC041 M02/M06 A2999 RMK AO2 T10171056,M
RTS,2021-10-12 15:55,-119.8764,39.6682,1539.00,32.00,14.00,46.92,350.00,9.00,0.00,30.08,M,10.00,M,CLR,M,M,M,M,M,M,M,M,M,M,M,M,M,M,23.51,KRTS 121555Z AUTO 35009KT 10SM CLR M00/M10 A3008 RMK AO2,M
BVU,2021-10-12 15:55,-114.8611,35.9475,671.00,51.80,28.40,40.25,320.00,15.00,0.00,29.78,M,10.00,M,BKN,OVC,M,M,7000.00,8000.00,M,M,M,M,M,M,M,M,M,51.80,KBVU 121555Z AUTO 32015KT 10SM BKN070 OVC080 11/M02 A2978 RMK AO2,M
RNO,2021-10-12 15:55,-119.7711,39.4839,1341.00,35.00,16.00,45.22,340.00,4.00,0.00,30.08,1018.80,10.00,M,FEW,M,M,M,5000.00,M,M,M,M,M,M,M,M,M,M,31.04,KRNO 121555Z 34004KT 10SM FEW050 02/M09 A3008 RMK AO2 SLP188 CLDS TPG MTNS DSNT SW T00171089,M
MEV,2021-10-12 15:55,-119.7500,38.9963,1441.42,32.00,17.60,54.87,0.00,0.00,0.00,30.08,M,8.00,M,CLR,M,M,M,M,M,M,M,M,M,M,M,M,M,M,32.00,KMEV 121555Z AUTO 00000KT 8SM CLR M00/M08 A3008 RMK AO2,M
05U,2021-10-12 15:55,-116.0051,39.6042,1811.23,28.40,19.40,68.61,340.00,11.00,0.00,29.93,M,10.00,18.00,OVC,M,M,M,3000.00,M,M,M,M,M,M,M,M,M,M,17.92,K05U 121555Z AUTO 34011G18KT 10SM OVC030 M02/M07 A2993 RMK A01,M
BAM,2021-10-12 15:55,-116.8743,40.5990,1382.36,33.80,23.00,64.23,310.00,7.00,0.00,30.00,M,10.00,M,SCT,M,M,M,5500.00,M,M,M,M,M,M,M,M,M,M,26.97,KBAM 121555Z AUTO 31007KT 10SM SCT055 01/M05 A3000 RMK AO1,M
NFL,2021-10-12 15:56,-118.7010,39.4166,1199.00,36.00,19.90,51.61,320.00,8.00,0.00,30.07,1014.90,10.00,M,FEW,M,M,M,8000.00,M,M,M,M,M,M,M,M,M,M,29.04,KNFL 121556Z 32008KT 10SM FEW080 02/M07 A3007 RMK AO2 SLP149 T00221067,M
TPH,2021-10-12 15:56,-117.0904,38.0505,1654.00,34.00,18.00,51.52,330.00,24.00,0.00,29.91,1013.10,10.00,31.00,FEW,M,M,M,10000.00,M,M,M,M,M,M,M,31.00,330.00,2021-10-12 15:15,20.76,KTPH 121556Z AUTO 33024G31KT 10SM FEW100 01/M08 A2991 RMK AO2 PK WND 33031/1515 SLP131 T00111078,M
WMC,2021-10-12 15:56,-117.8072,40.9019,1315.00,36.00,19.00,49.66,310.00,9.00,0.00,30.02,1017.10,10.00,M,CLR,M,M,M,M,M,M,M,M,M,M,M,M,M,M,28.49,KWMC 121556Z AUTO 31009KT 10SM CLR 02/M07 A3002 RMK AO2 SLP171 T00221072 TSNO,M
LAS,2021-10-12 15:56,-115.1634,36.0719,663.00,55.00,23.00,28.61,330.00,11.00,0.00,29.78,1007.70,10.00,28.00,FEW,BKN,M,M,6500.00,10000.00,M,M,M,M,M,M,28.00,320.00,2021-10-12 15:52,55.00,KLAS 121556Z 33011G28KT 10SM FEW065 BKN100 13/M05 A2978 RMK AO2 PK WND 32028/1552 SLP077 T01281050,M
HND,2021-10-12 15:56,-115.1344,35.9729,742.79,52.00,25.00,34.72,280.00,4.00,0.00,29.80,1010.40,10.00,M,OVC,M,M,M,7000.00,M,M,M,M,M,M,M,M,M,M,52.00,KHND 121556Z 28004KT 10SM OVC070 11/M04 A2980 RMK AO2 SLP104 T01111039,M
EKO,2021-10-12 15:56,-115.7860,40.8242,1367.00,36.00,18.00,47.58,340.00,14.00,0.00,29.90,1013.10,10.00,M,CLR,M,M,M,M,M,M,M,M,M,M,M,M,M,M,26.32,KEKO 121556Z AUTO 34014KT 10SM CLR 02/M08 A2990 RMK AO2 SLP131 T00221078,M
INS,2021-10-12 15:58,-115.6733,36.5872,955.00,46.80,29.70,51.15,260.00,12.00,0.00,29.82,1009.00,10.00,M,CLR,M,M,M,M,M,M,M,M,M,M,M,M,M,M,40.84,KINS 121558Z AUTO 26012KT 10SM CLR 08/M01 A2982 RMK AO2 SLP090 T00821013 $,M
LSV,2021-10-12 15:58,-115.0343,36.2362,570.00,53.40,31.50,43.05,300.00,11.00,0.00,29.76,1007.40,10.00,16.00,BKN,M,M,M,8000.00,M,M,M,M,M,M,M,M,M,M,53.40,KLSV 121558Z AUTO 30011G16KT 10SM BKN080 12/M00 A2976 RMK AO2 SLP074 T01191003 $,M
CXP,2021-10-12 16:10,-119.7326,39.1923,1431.00,35.60,15.80,43.95,0.00,0.00,0.00,30.09,M,10.00,M,CLR,M,M,M,M,M,M,M,M,M,M,M,M,M,M,35.60,KCXP 121610Z AUTO 00000KT 10SM CLR 02/M09 A3009 RMK AO2,M
BVU,2021-10-12 16:15,-114.8611,35.9475,671.00,51.80,26.60,37.38,330.00,18.00,0.00,29.78,M,10.00,27.00,OVC,M,M,M,7500.00,M,M,M,M,M,M,M,M,M,M,51.80,KBVU 121615Z AUTO 33018G27KT 10SM OVC075 11/M03 A2978 RMK AO2,M
MEV,2021-10-12 16:15,-119.7500,38.9963,1441.42,33.80,15.80,47.22,0.00,0.00,0.00,30.08,M,10.00,M,CLR,M,M,M,M,M,M,M,M,M,M,M,M,M,M,33.80,KMEV 121615Z AUTO 00000KT 10SM CLR 01/M09 A3008 RMK AO2,M
TMT,2021-10-12 16:15,-117.1971,39.4643,1749.34,29.50,22.10,73.57,340.00,7.00,0.00,30.00,M,10.00,M,OVC,M,M,M,2800.00,M,M,M,M,M,M,M,M,M,M,21.73,KTMT 121615Z AUTO 34007KT 10SM OVC028 M01/M05 A3000 RMK AO2 T10141055,M
HTH,2021-10-12 16:15,-118.6315,38.5448,1282.89,37.40,17.60,44.25,360.00,15.00,0.00,30.07,M,10.00,M,CLR,M,M,M,M,M,M,M,M,M,M,M,M,M,M,27.78,KHTH 121615Z AUTO 36015KT 10SM CLR 03/M08 A3007 RMK A01,M
05U,2021-10-12 16:15,-116.0051,39.6042,1811.23,30.20,19.40,63.75,340.00,14.00,0.00,29.93,M,10.00,M,OVC,M,M,M,3000.00,M,M,M,M,M,M,M,M,M,M,18.84,K05U 121615Z AUTO 34014KT 10SM OVC030 M01/M07 A2993 RMK A01,M
RTS,2021-10-12 16:15,-119.8764,39.6682,1539.00,32.00,14.00,46.92,350.00,7.00,0.00,30.08,M,10.00,M,CLR,M,M,M,M,M,M,M,M,M,M,M,M,M,M,24.78,KRTS 121615Z AUTO 35007KT 10SM CLR 00/M10 A3008 RMK AO2,M
BAM,2021-10-12 16:15,-116.8743,40.5990,1382.36,35.60,23.00,59.79,330.00,6.00,0.00,30.00,M,10.00,M,BKN,M,M,M,5000.00,M,M,M,M,M,M,M,M,M,M,29.87,KBAM 121615Z AUTO 33006KT 10SM BKN050 02/M05 A3000 RMK AO1,M
CXP,2021-10-12 16:30,-119.7326,39.1923,1431.00,37.40,15.80,40.93,0.00,0.00,0.00,30.09,M,10.00,M,CLR,M,M,M,M,M,M,M,M,M,M,M,M,M,M,37.40,KCXP 121630Z AUTO 00000KT 10SM CLR 03/M09 A3009 RMK AO2,M
BAM,2021-10-12 16:35,-116.8743,40.5990,1382.36,35.60,23.00,59.79,350.00,5.00,0.00,30.00,M,10.00,M,SCT,M,M,M,5000.00,M,M,M,M,M,M,M,M,M,M,30.67,KBAM 121635Z AUTO 35005KT 10SM SCT050 02/M05 A3000 RMK AO1,M
HTH,2021-10-12 16:35,-118.6315,38.5448,1282.89,37.40,17.60,44.25,360.00,18.00,0.00,30.07,M,10.00,M,CLR,M,M,M,M,M,M,M,M,M,M,M,M,M,M,26.86,KHTH 121635Z AUTO 36018KT 10SM CLR 03/M08 A3007 RMK A01,M
RTS,2021-10-12 16:35,-119.8764,39.6682,1539.00,33.80,14.00,43.65,360.00,7.00,0.00,30.08,M,10.00,M,CLR,M,M,M,M,M,M,M,M,M,M,M,M,M,M,26.97,KRTS 121635Z AUTO 36007KT 10SM CLR 01/M10 A3008 RMK AO2,M
MEV,2021-10-12 16:35,-119.7500,38.9963,1441.42,35.60,15.80,43.95,0.00,0.00,0.00,30.08,M,10.00,M,CLR,M,M,M,M,M,M,M,M,M,M,M,M,M,M,35.60,KMEV 121635Z AUTO 00000KT 10SM CLR 02/M09 A3008 RMK AO2,M
TMT,2021-10-12 16:35,-117.1971,39.4643,1749.34,29.30,21.60,72.62,340.00,7.00,0.00,30.01,M,10.00,M,BKN,OVC,M,M,2800.00,3400.00,M,M,M,M,M,M,M,M,M,21.49,KTMT 121635Z AUTO 34007KT 10SM BKN028 OVC034 M01/M06 A3001 RMK AO2 T10151058,M
05U,2021-10-12 16:35,-116.0051,39.6042,1811.23,30.20,19.40,63.75,350.00,8.00,0.00,29.94,M,10.00,14.00,OVC,M,M,M,3000.00,M,M,M,M,M,M,M,M,M,M,21.90,K05U 121635Z AUTO 35008G14KT 10SM OVC030 M01/M07 A2994 RMK A01,M
BVU,2021-10-12 16:35,-114.8611,35.9475,671.00,53.60,24.80,32.46,320.00,20.00,0.00,29.79,M,10.00,28.00,BKN,OVC,M,M,8000.00,10000.00,M,M,M,M,M,M,M,M,M,53.60,KBVU 121635Z AUTO 32020G28KT 10SM BKN080 OVC100 12/M04 A2979 RMK AO2,M
CXP,2021-10-12 16:50,-119.7326,39.1923,1431.00,39.20,15.80,38.15,M,3.00,0.00,30.09,M,10.00,M,CLR,M,M,M,M,M,M,M,M,M,M,M,M,M,M,36.92,KCXP 121650Z AUTO VRB03KT 10SM CLR 04/M09 A3009 RMK AO2,M
LOL,2021-10-12 16:53,-118.5701,40.0684,1192.43,41.00,18.00,39.12,0.00,0.00,0.00,30.06,1018.30,10.00,M,CLR,M,M,M,M,M,M,M,M,M,M,M,M,M,M,41.00,KLOL 121653Z AUTO 00000KT 10SM CLR 05/M08 A3006 RMK AO2 SLP183 T00501078,M
ELY,2021-10-12 16:53,-114.8453,39.2950,1909.00,30.00,26.10,85.21,10.00,15.00,0.00,29.80,1009.70,10.00,M,OVC,M,M,M,2600.00,M,M,M,M,M,M,M,26.00,360.00,2021-10-12 15:55,18.19,KELY 121653Z AUTO 01015KT 10SM OVC026 M01/M03 A2980 RMK AO2 PK WND 36026/1555 SLP097 T10111033,M
DRA,2021-10-12 16:53,-116.0278,36.6206,1009.00,51.00,23.00,33.01,320.00,7.00,0.00,29.84,1008.70,10.00,M,CLR,M,M,M,M,M,M,M,M,M,M,M,M,M,M,51.10,KDRA 121653Z AUTO 32007KT 10SM CLR 11/M05 A2984 RMK AO2 SLP087 T01061050,M
P68,2021-10-12 16:53,-116.0056,39.6014,1993.00,30.00,19.90,65.66,350.00,13.00,0.00,29.92,1013.10,M,19.00,M,M,M,M,M,M,M,M,M,M,M,M,M,M,M,19.01,KP68 121653Z AUTO 35013G19KT M01/M07 A2992 RMK AO1 SLP131 T10111067,M
VGT,2021-10-12 16:53,-115.1933,36.2111,667.00,57.00,25.00,28.93,330.00,16.00,T,29.76,1009.20,10.00,30.00,CLR,M,M,M,M,M,M,M,DU,M,M,M,33.00,320.00,2021-10-12 16:14,57.00,KVGT 121653Z 33016G30KT 10SM DU CLR 14/M04 A2976 RMK AO2 PK WND 32033/1614 RAB21E32 SLP092 P0000 T01391039,M
RNO,2021-10-12 16:55,-119.7711,39.4839,1341.00,38.00,16.00,40.49,330.00,3.00,0.00,30.08,1018.70,10.00,M,FEW,M,M,M,5000.00,M,M,M,M,M,M,M,M,M,M,35.43,KRNO 121655Z 33003KT 10SM FEW050 03/M09 A3008 RMK AO2 SLP187 T00331089,M
HTH,2021-10-12 16:55,-118.6315,38.5448,1282.89,39.20,17.60,41.24,360.00,15.00,0.00,30.08,M,10.00,M,CLR,M,M,M,M,M,M,M,M,M,M,M,M,M,M,30.11,KHTH 121655Z AUTO 36015KT 10SM CLR 04/M08 A3008 RMK A01,M
RTS,2021-10-12 16:55,-119.8764,39.6682,1539.00,33.80,14.00,43.65,M,4.00,0.00,30.08,M,10.00,M,CLR,M,M,M,M,M,M,M,M,M,M,M,M,M,M,29.52,KRTS 121655Z AUTO VRB04KT 10SM CLR 01/M10 A3008 RMK AO2,M
BAM,2021-10-12 16:55,-116.8743,40.5990,1382.36,35.60,23.00,59.79,0.00,0.00,0.00,30.01,M,10.00,M,CLR,M,M,M,M,M,M,M,M,M,M,M,M,M,M,35.60,KBAM 121655Z AUTO 00000KT 10SM CLR 02/M05 A3001 RMK AO1,M
MEV,2021-10-12 16:55,-119.7500,38.9963,1441.42,35.60,15.80,43.95,0.00,0.00,0.00,30.08,M,10.00,M,CLR,M,M,M,M,M,M,M,M,M,M,M,M,M,M,35.60,KMEV 121655Z AUTO 00000KT 10SM CLR 02/M09 A3008 RMK AO2,M
BVU,2021-10-12 16:55,-114.8611,35.9475,671.00,55.40,24.80,30.40,320.00,20.00,0.00,29.80,M,10.00,M,OVC,M,M,M,9000.00,M,M,M,M,M,M,M,M,M,M,55.40,KBVU 121655Z AUTO 32020KT 10SM OVC090 13/M04 A2980 RMK AO2,M
TMT,2021-10-12 16:55,-117.1971,39.4643,1749.34,28.90,21.20,72.58,330.00,9.00,0.00,30.01,M,10.00,M,BKN,M,M,M,3400.00,M,M,M,M,M,M,M,M,M,M,19.66,KTMT 121655Z AUTO 33009KT 10SM BKN034 M02/M06 A3001 RMK AO2 T10171060,M
05U,2021-10-12 16:55,-116.0051,39.6042,1811.23,30.20,19.40,63.75,350.00,13.00,0.00,29.94,M,10.00,M,OVC,M,M,M,3100.00,M,M,M,M,M,M,M,M,M,M,19.26,K05U 121655Z AUTO 35013KT 10SM OVC031 M01/M07 A2994 RMK A01,M
TPH,2021-10-12 16:56,-117.0904,38.0505,1654.00,38.00,18.00,44.14,330.00,21.00,0.00,29.92,1013.10,10.00,27.00,CLR,M,M,M,M,M,M,M,M,M,M,M,32.00,320.00,2021-10-12 16:06,26.72,KTPH 121656Z AUTO 33021G27KT 10SM CLR 03/M08 A2992 RMK AO2 PK WND 32032/1606 SLP131 T00331078,M
HND,2021-10-12 16:56,-115.1344,35.9729,742.79,56.00,23.00,27.69,330.00,15.00,0.00,29.81,1010.60,10.00,23.00,SCT,M,M,M,7500.00,M,M,M,M,M,M,M,M,M,M,55.90,KHND 121656Z 33015G23KT 10SM SCT075 13/M05 A2981 RMK AO2 SLP106 T01331050,M
WMC,2021-10-12 16:56,-117.8072,40.9019,1315.00,40.00,19.00,42.62,330.00,10.00,0.00,30.02,1017.00,10.00,19.00,CLR,M,M,M,M,M,M,M,M,M,M,M,M,M,M,32.87,KWMC 121656Z AUTO 33010G19KT 10SM CLR 04/M07 A3002 RMK AO2 SLP170 T00441072 TSNO,M
EKO,2021-10-12 16:56,-115.7860,40.8242,1367.00,39.00,19.00,44.14,330.00,13.00,0.00,29.91,1013.00,10.00,19.00,CLR,M,M,M,M,M,M,M,M,M,M,M,M,M,M,30.54,KEKO 121656Z AUTO 33013G19KT 10SM CLR 04/M07 A2991 RMK AO2 SLP130 T00391072,M
NFL,2021-10-12 16:56,-118.7010,39.4166,1199.00,39.00,19.90,45.87,340.00,7.00,0.00,30.07,1015.10,10.00,M,FEW,M,M,M,8000.00,M,M,M,M,M,M,M,M,M,M,33.31,KNFL 121656Z 34007KT 10SM FEW080 04/M07 A3007 RMK AO2 SLP151 T00391067,M
LAS,2021-10-12 16:56,-115.1634,36.0719,663.00,57.00,23.00,26.61,340.00,17.00,0.00,29.80,1008.30,10.00,24.00,FEW,FEW,M,M,6500.00,10000.00,M,M,M,M,M,M,29.00,320.00,2021-10-12 16:38,57.00,KLAS 121656Z 34017G24KT 10SM FEW065 FEW100 14/M05 A2980 RMK AO2 PK WND 32029/1638 SLP083 T01391050,M
INS,2021-10-12 16:58,-115.6733,36.5872,955.00,49.30,27.10,41.86,260.00,11.00,0.00,29.84,1009.40,10.00,M,CLR,M,M,M,M,M,M,M,M,M,M,M,M,M,M,44.33,KINS 121658Z AUTO 26011KT 10SM CLR 10/M03 A2984 RMK AO2 SLP094 T00961027 $,M
LSV,2021-10-12 16:58,-115.0343,36.2362,570.00,56.70,29.30,34.92,300.00,17.00,0.00,29.78,1007.90,10.00,27.00,FEW,M,M,M,10000.00,M,M,M,M,M,M,M,27.00,300.00,2021-10-12 16:53,56.70,KLSV 121658Z AUTO 30017G27KT 10SM FEW100 14/M01 A2978 RMK AO2 PK WND 30027/53 SLP079 T01371015 $,M
CXP,2021-10-12 17:10,-119.7326,39.1923,1431.00,37.40,15.80,40.93,0.00,0.00,0.00,30.08,M,10.00,M,CLR,M,M,M,M,M,M,M,M,M,M,M,M,M,M,37.40,KCXP 121710Z AUTO 00000KT 10SM CLR 03/M09 A3008 RMK AO2,M
RTS,2021-10-12 17:15,-119.8764,39.6682,1539.00,35.60,14.00,40.63,0.00,0.00,0.00,30.08,M,10.00,M,CLR,M,M,M,M,M,M,M,M,M,M,M,M,M,M,35.60,KRTS 121715Z AUTO 00000KT 10SM CLR 02/M10 A3008 RMK AO2,M
TMT,2021-10-12 17:15,-117.1971,39.4643,1749.34,30.20,21.60,70.01,360.00,7.00,0.00,30.01,M,10.00,M,SCT,BKN,M,M,3200.00,3900.00,M,M,M,M,M,M,M,M,M,22.59,KTMT 121715Z AUTO 36007KT 10SM SCT032 BKN039 M01/M06 A3001 RMK AO2 T10101058,M
MEV,2021-10-12 17:15,-119.7500,38.9963,1441.42,37.40,15.80,40.93,0.00,0.00,0.00,30.07,M,10.00,M,CLR,M,M,M,M,M,M,M,M,M,M,M,M,M,M,37.40,KMEV 121715Z AUTO 00000KT 10SM CLR 03/M09 A3007 RMK AO2,M
BVU,2021-10-12 17:15,-114.8611,35.9475,671.00,55.40,24.80,30.40,310.00,15.00,0.00,29.81,M,10.00,24.00,BKN,M,M,M,9000.00,M,M,M,M,M,M,M,M,M,M,55.40,KBVU 121715Z AUTO 31015G24KT 10SM BKN090 13/M04 A2981 RMK AO2,M
05U,2021-10-12 17:15,-116.0051,39.6042,1811.23,32.00,19.40,59.27,350.00,9.00,0.00,29.95,M,10.00,15.00,OVC,M,M,M,3300.00,M,M,M,M,M,M,M,M,M,M,23.51,K05U 121715Z AUTO 35009G15KT 10SM OVC033 M00/M07 A2995 RMK A01,M
HTH,2021-10-12 17:15,-118.6315,38.5448,1282.89,39.20,17.60,41.24,10.00,11.00,0.00,30.08,M,10.00,18.00,CLR,M,M,M,M,M,M,M,M,M,M,M,M,M,M,31.57,KHTH 121715Z AUTO 01011G18KT 10SM CLR 04/M08 A3008 RMK A01,M
BAM,2021-10-12 17:15,-116.8743,40.5990,1382.36,37.40,23.00,55.68,0.00,0.00,0.00,30.01,M,10.00,M,CLR,M,M,M,M,M,M,M,M,M,M,M,M,M,M,37.40,KBAM 121715Z AUTO 00000KT 10SM CLR 03/M05 A3001 RMK AO1,M
CXP,2021-10-12 17:30,-119.7326,39.1923,1431.00,39.20,15.80,38.15,50.00,4.00,0.00,30.09,M,10.00,10.00,CLR,M,M,M,M,M,M,M,M,M,M,M,M,M,M,35.83,KCXP 121730Z AUTO 05004G10KT 10SM CLR 04/M09 A3009 RMK AO2,M
BVU,2021-10-12 17:35,-114.8611,35.9475,671.00,57.20,24.80,28.48,310.00,15.00,0.00,29.82,M,10.00,24.00,SCT,SCT,M,M,7000.00,10000.00,M,M,M,M,M,M,M,M,M,57.20,KBVU 121735Z AUTO 31015G24KT 10SM SCT070 SCT100 14/M04 A2982 RMK AO2,M
TMT,2021-10-12 17:35,-117.1971,39.4643,1749.34,31.10,21.60,67.50,300.00,3.00,0.00,30.02,M,10.00,M,OVC,M,M,M,3500.00,M,M,M,M,M,M,M,M,M,M,27.66,KTMT 121735Z AUTO 30003KT 10SM OVC035 00/M06 A3002 RMK AO2 T10051058,M
HTH,2021-10-12 17:35,-118.6315,38.5448,1282.89,39.20,17.60,41.24,360.00,16.00,0.00,30.08,M,10.00,M,CLR,M,M,M,M,M,M,M,M,M,M,M,M,M,M,29.80,KHTH 121735Z AUTO 36016KT 10SM CLR 04/M08 A3008 RMK A01,M
MEV,2021-10-12 17:35,-119.7500,38.9963,1441.42,37.40,15.80,40.93,M,3.00,0.00,30.07,M,10.00,M,CLR,M,M,M,M,M,M,M,M,M,M,M,M,M,M,34.86,KMEV 121735Z AUTO VRB03KT 10SM CLR 03/M09 A3007 RMK AO2,M
05U,2021-10-12 17:35,-116.0051,39.6042,1811.23,32.00,19.40,59.27,350.00,10.00,0.00,29.95,M,10.00,17.00,BKN,OVC,M,M,3300.00,3800.00,M,M,M,M,M,M,M,M,M,22.97,K05U 121735Z AUTO 35010G17KT 10SM BKN033 OVC038 00/M07 A2995 RMK A01,M
RTS,2021-10-12 17:35,-119.8764,39.6682,1539.00,35.60,14.00,40.63,M,6.00,0.00,30.08,M,10.00,M,CLR,M,M,M,M,M,M,M,M,M,M,M,M,M,M,29.87,KRTS 121735Z AUTO VRB06KT 10SM CLR 02/M10 A3008 RMK AO2,M
BAM,2021-10-12 17:35,-116.8743,40.5990,1382.36,37.40,23.00,55.68,0.00,0.00,0.00,30.01,M,10.00,M,CLR,M,M,M,M,M,M,M,M,M,M,M,M,M,M,37.40,KBAM 121735Z AUTO 00000KT 10SM CLR 03/M05 A3001 RMK AO1,M
CXP,2021-10-12 17:50,-119.7326,39.1923,1431.00,41.00,15.80,35.57,0.00,0.00,0.00,30.09,M,10.00,M,FEW,M,M,M,4700.00,M,M,M,M,M,M,M,M,M,M,41.00,KCXP 121750Z AUTO 00000KT 10SM FEW047 05/M09 A3009 RMK AO2,M
VGT,2021-10-12 17:53,-115.1933,36.2111,667.00,58.00,25.00,28.01,320.00,21.00,T,29.78,1009.70,10.00,34.00,CLR,M,M,M,M,M,M,M,-RA DU,M,M,M,34.00,310.00,2021-10-12 17:48,57.90,KVGT 121753Z 32021G34KT 10SM -RA DU CLR 14/M04 A2978 RMK AO2 PK WND 31034/1748 RAB03E10B52 SLP097 P0000 60000 T01441039 10150 20089 51022,M
DRA,2021-10-12 17:53,-116.0278,36.6206,1009.00,53.00,23.00,30.67,320.00,11.00,0.00,29.85,1008.90,10.00,17.00,CLR,M,M,M,M,M,M,M,M,M,M,M,M,M,M,53.10,KDRA 121753Z AUTO 32011G17KT 10SM CLR 12/M05 A2985 RMK AO2 SLP089 T01171050 10117 20044 51018,M
LOL,2021-10-12 17:53,-118.5701,40.0684,1192.43,44.00,17.10,33.40,70.00,6.00,0.00,30.06,1018.40,10.00,M,CLR,M,M,M,M,M,M,M,M,M,M,M,M,M,M,40.10,KLOL 121753Z AUTO 07006KT 10SM CLR 07/M08 A3006 RMK AO2 SLP184 T00671083 10072 21028 51006,M
P68,2021-10-12 17:53,-116.0056,39.6014,1993.00,33.00,21.00,60.71,350.00,12.00,0.00,29.93,1013.30,M,M,M,M,M,M,M,M,M,M,M,M,M,M,M,M,M,23.40,KP68 121753Z AUTO 35012KT 01/M06 A2993 RMK AO1 SLP133 T00061061 10006 21028 51014,M
ELY,2021-10-12 17:53,-114.8453,39.2950,1909.00,30.90,26.10,82.15,10.00,13.00,0.00,29.83,1010.70,10.00,M,BKN,OVC,M,M,2700.00,3300.00,M,M,M,M,M,M,M,M,M,20.16,KELY 121753Z AUTO 01013KT 10SM BKN027 OVC033 M01/M03 A2983 RMK AO2 SLP107 T10061033 11006 21022 53018,M
LSV,2021-10-12 17:53,-115.0343,36.2362,570.00,59.00,28.40,30.98,270.00,16.00,0.00,29.79,1008.20,10.00,22.00,CLR,M,M,M,M,M,M,M,M,M,M,M,M,M,M,59.00,KLSV 121753Z AUTO 27016G22KT 10SM CLR 15/M02 A2979 RMK AO2 WSHFT 49 SLP082 $,M
MEV,2021-10-12 17:55,-119.7500,38.9963,1441.42,37.40,15.80,40.93,0.00,0.00,0.00,30.08,M,10.00,M,CLR,M,M,M,M,M,M,M,M,M,M,M,M,M,M,37.40,KMEV 121755Z AUTO 00000KT 10SM CLR 03/M09 A3008 RMK AO2,M
RTS,2021-10-12 17:55,-119.8764,39.6682,1539.00,37.40,14.00,37.84,M,4.00,0.00,30.09,M,10.00,M,CLR,M,M,M,M,M,M,M,M,M,M,M,M,M,M,33.73,KRTS 121755Z AUTO VRB04KT 10SM CLR 03/M10 A3009 RMK AO2,M
05U,2021-10-12 17:55,-116.0051,39.6042,1811.23,33.80,19.40,55.14,360.00,11.00,0.00,29.96,M,10.00,M,FEW,OVC,M,M,3000.00,4100.00,M,M,M,M,M,M,M,M,M,24.74,K05U 121755Z AUTO 36011KT 10SM FEW030 OVC041 01/M07 A2996 RMK A01,M
TMT,2021-10-12 17:55,-117.1971,39.4643,1749.34,31.50,22.30,68.41,340.00,8.00,0.00,30.02,M,10.00,M,OVC,M,M,M,3300.00,M,M,M,M,M,M,M,M,M,M,23.50,KTMT 121755Z AUTO 34008KT 10SM OVC033 00/M05 A3002 RMK AO2 T10031054 11001 21030,M
HTH,2021-10-12 17:55,-118.6315,38.5448,1282.89,41.00,19.40,41.54,10.00,13.00,0.00,30.08,M,10.00,M,CLR,M,M,M,M,M,M,M,M,M,M,M,M,M,M,33.10,KHTH 121755Z AUTO 01013KT 10SM CLR 05/M07 A3008 RMK A01,M
LSV,2021-10-12 17:55,-115.0343,36.2362,570.00,59.00,26.60,28.77,300.00,18.00,0.00,29.79,1008.20,10.00,23.00,CLR,M,M,M,M,M,M,M,M,M,M,M,M,M,M,59.00,KLSV 121755Z AUTO 30018G23KT 10SM CLR 15/M03 A2979 RMK AO2 WSHFT 53 SLP082 $,M
BAM,2021-10-12 17:55,-116.8743,40.5990,1382.36,39.20,23.00,51.89,0.00,0.00,0.00,30.01,M,10.00,M,SCT,M,M,M,4100.00,M,M,M,M,M,M,M,M,M,M,39.20,KBAM 121755Z AUTO 00000KT 10SM SCT041 04/M05 A3001 RMK AO1,M
RNO,2021-10-12 17:55,-119.7711,39.4839,1341.00,40.00,17.10,39.27,M,4.00,0.00,30.09,1018.70,10.00,M,FEW,M,M,M,5000.00,M,M,M,M,M,M,M,M,M,M,36.65,KRNO 121755Z VRB04KT 10SM FEW050 04/M08 A3009 RMK AO2 SLP187 T00441083 10044 21011 51005,M
BVU,2021-10-12 17:55,-114.8611,35.9475,671.00,57.20,24.80,28.48,310.00,13.00,0.00,29.82,M,10.00,19.00,SCT,M,M,M,7000.00,M,M,M,M,M,M,M,M,M,M,57.20,KBVU 121755Z AUTO 31013G19KT 10SM SCT070 14/M04 A2982 RMK AO2,M
EKO,2021-10-12 17:56,-115.7860,40.8242,1367.00,39.00,19.90,45.87,310.00,10.00,0.00,29.92,1013.60,10.00,M,SCT,M,M,M,4100.00,M,M,M,M,M,M,M,M,M,M,31.75,KEKO 121756Z AUTO 31010KT 10SM SCT041 04/M07 A2992 RMK AO2 SLP136 T00391067 10050 20000 53011,M
LAS,2021-10-12 17:56,-115.1634,36.0719,663.00,59.00,23.00,24.76,330.00,16.00,0.00,29.81,1008.80,10.00,31.00,FEW,FEW,M,M,6500.00,10000.00,M,M,M,M,M,M,31.00,320.00,2021-10-12 17:52,59.00,KLAS 121756Z 33016G31KT 10SM FEW065 FEW100 15/M05 A2981 RMK AO2 PK WND 32031/1752 SLP088 T01501050 10156 20094 51020,M
NFL,2021-10-12 17:56,-118.7010,39.4166,1199.00,42.00,19.90,40.67,330.00,7.00,0.00,30.07,1015.10,10.00,M,FEW,M,M,M,8000.00,M,M,M,M,M,M,M,M,M,M,37.09,KNFL 121756Z 33007KT 10SM FEW080 06/M07 A3007 RMK AO2 SLP151 T00561067 10056 21017 51007,M
WMC,2021-10-12 17:56,-117.8072,40.9019,1315.00,43.00,18.00,36.22,340.00,15.00,0.00,30.02,1016.70,10.00,22.00,CLR,M,M,M,M,M,M,M,M,M,M,M,M,M,M,35.04,KWMC 121756Z AUTO 34015G22KT 10SM CLR 06/M08 A3002 RMK AO2 SLP167 T00611078 10061 21022 51006 TSNO,M
HND,2021-10-12 17:56,-115.1344,35.9729,742.79,59.00,23.00,24.76,330.00,15.00,0.00,29.83,1011.30,10.00,20.00,CLR,M,M,M,M,M,M,M,M,M,M,M,M,M,M,59.00,KHND 121756Z 33015G20KT 10SM CLR 15/M05 A2983 RMK AO2 SLP113 T01501050 10150 20089 51021,M
TPH,2021-10-12 17:56,-117.0904,38.0505,1654.00,40.00,18.00,40.82,330.00,19.00,0.00,29.94,1013.40,10.00,29.00,CLR,M,M,M,M,M,M,M,M,M,M,M,29.00,320.00,2021-10-12 17:48,29.88,KTPH 121756Z AUTO 33019G29KT 10SM CLR 04/M08 A2994 RMK AO2 PK WND 32029/1748 SLP134 T00441078 10044 21017 51016,M
LSV,2021-10-12 17:58,-115.0343,36.2362,570.00,59.50,27.30,29.09,290.00,18.00,0.00,29.80,1008.60,10.00,23.00,CLR,M,M,M,M,M,M,M,M,M,M,M,28.00,310.00,2021-10-12 17:13,59.50,KLSV 121758Z AUTO 29018G23KT 10SM CLR 15/M03 A2980 RMK AO2 PK WND 31028/13 SLP086 T01531026 10153 20084 52021 $,M
INS,2021-10-12 17:58,-115.6733,36.5872,955.00,51.30,26.60,38.07,290.00,6.00,0.00,29.85,1009.50,10.00,M,CLR,M,M,M,M,M,M,M,M,M,M,M,M,M,M,51.30,KINS 121758Z AUTO 29006KT 10SM CLR 11/M03 A2985 RMK AO2 SLP095 T01071030 10107 20060 52021 $,M
RTS,2021-10-12 18:15,-119.8764,39.6682,1539.00,37.40,12.20,34.96,M,4.00,0.00,30.09,M,10.00,M,CLR,M,M,M,M,M,M,M,M,M,M,M,M,M,M,33.73,KRTS 121815Z AUTO VRB04KT 10SM CLR 03/M11 A3009 RMK AO2,M
05U,2021-10-12 18:15,-116.0051,39.6042,1811.23,35.60,21.20,55.41,330.00,13.00,0.00,29.96,M,10.00,M,FEW,OVC,M,M,2700.00,4400.00,M,M,M,M,M,M,M,M,M,26.18,K05U 121815Z AUTO 33013KT 10SM FEW027 OVC044 02/M06 A2996 RMK A01,M
MEV,2021-10-12 18:15,-119.7500,38.9963,1441.42,41.00,15.80,35.57,M,5.00,0.00,30.08,M,9.00,M,CLR,M,M,M,M,M,M,M,M,M,M,M,M,M,M,37.08,KMEV 121815Z AUTO VRB05KT 9SM CLR 05/M09 A3008 RMK AO2,M
TMT,2021-10-12 18:15,-117.1971,39.4643,1749.34,31.30,21.60,66.95,330.00,7.00,0.00,30.02,M,10.00,M,OVC,M,M,M,3500.00,M,M,M,M,M,M,M,M,M,M,23.93,KTMT 121815Z AUTO 33007KT 10SM OVC035 00/M06 A3002 RMK AO2 T10041058,M
BAM,2021-10-12 18:15,-116.8743,40.5990,1382.36,39.20,23.00,51.89,10.00,6.00,0.00,30.02,M,10.00,M,SCT,M,M,M,3900.00,M,M,M,M,M,M,M,M,M,M,34.20,KBAM 121815Z AUTO 01006KT 10SM SCT039 04/M05 A3002 RMK AO1,M
HTH,2021-10-12 18:15,-118.6315,38.5448,1282.89,41.00,19.40,41.54,10.00,13.00,0.00,30.08,M,10.00,21.00,CLR,M,M,M,M,M,M,M,M,M,M,M,M,M,M,33.10,KHTH 121815Z AUTO 01013G21KT 10SM CLR 05/M07 A3008 RMK A01,M
CXP,2021-10-12 18:15,-119.7326,39.1923,1431.00,39.20,15.80,38.15,0.00,0.00,0.00,30.10,M,10.00,M,SCT,M,M,M,4900.00,M,M,M,M,M,M,M,M,M,M,39.20,KCXP 121815Z AUTO 00000KT 10SM SCT049 04/M09 A3010 RMK AO2,M
BVU,2021-10-12 18:15,-114.8611,35.9475,671.00,59.00,24.80,26.70,310.00,12.00,0.00,29.83,M,10.00,19.00,CLR,M,M,M,M,M,M,M,M,M,M,M,M,M,M,59.00,KBVU 121815Z AUTO 31012G19KT 10SM CLR 15/M04 A2983 RMK AO2,M
BAM,2021-10-12 18:35,-116.8743,40.5990,1382.36,41.00,26.60,56.22,10.00,11.00,0.00,30.01,M,10.00,M,SCT,M,M,M,3900.00,M,M,M,M,M,M,M,M,M,M,33.84,KBAM 121835Z AUTO 01011KT 320V030 10SM SCT039 05/M03 A3001 RMK AO1,M
TMT,2021-10-12 18:35,-117.1971,39.4643,1749.34,32.00,22.30,67.04,330.00,8.00,0.00,30.03,M,10.00,M,OVC,M,M,M,3500.00,M,M,M,M,M,M,M,M,M,M,24.11,KTMT 121835Z AUTO 33008KT 10SM OVC035 00/M05 A3003 RMK AO2 T00001054,M
RTS,2021-10-12 18:35,-119.8764,39.6682,1539.00,39.20,12.20,32.58,M,4.00,0.00,30.09,M,10.00,M,CLR,M,M,M,M,M,M,M,M,M,M,M,M,M,M,35.83,KRTS 121835Z AUTO VRB04KT 10SM CLR 04/M11 A3009 RMK AO2,M
BVU,2021-10-12 18:35,-114.8611,35.9475,671.00,59.00,24.80,26.70,310.00,14.00,0.00,29.83,M,10.00,M,CLR,M,M,M,M,M,M,M,M,M,M,M,M,M,M,59.00,KBVU 121835Z AUTO 31014KT 10SM CLR 15/M04 A2983 RMK AO2,M
CXP,2021-10-12 18:35,-119.7326,39.1923,1431.00,41.00,15.80,35.57,M,3.00,0.00,30.10,M,10.00,M,BKN,M,M,M,4900.00,M,M,M,M,M,M,M,M,M,M,38.98,KCXP 121835Z AUTO VRB03KT 10SM BKN049 05/M09 A3010 RMK AO2,M
05U,2021-10-12 18:35,-116.0051,39.6042,1811.23,35.60,19.40,51.33,350.00,10.00,0.00,29.96,M,10.00,16.00,SCT,OVC,M,M,2800.00,4600.00,M,M,M,M,M,M,M,M,M,27.48,K05U 121835Z AUTO 35010G16KT 10SM SCT028 OVC046 02/M07 A2996 RMK A01,M
HTH,2021-10-12 18:35,-118.6315,38.5448,1282.89,41.00,19.40,41.54,360.00,13.00,0.00,30.08,M,10.00,18.00,CLR,M,M,M,M,M,M,M,M,M,M,M,M,M,M,33.10,KHTH 121835Z AUTO 36013G18KT 10SM CLR 05/M07 A3008 RMK A01,M
MEV,2021-10-12 18:35,-119.7500,38.9963,1441.42,41.00,15.80,35.57,290.00,5.00,0.00,30.09,M,10.00,12.00,BKN,M,M,M,4900.00,M,M,M,M,M,M,M,M,M,M,37.08,KMEV 121835Z AUTO 29005G12KT 10SM BKN049 05/M09 A3009 RMK AO2,M
LSV,2021-10-12 18:42,-115.0343,36.2362,570.00,60.80,28.40,29.06,300.00,11.00,0.00,29.81,1008.90,10.00,M,CLR,M,M,M,M,M,M,M,M,M,M,M,M,M,M,60.80,KLSV 121842Z AUTO 30011KT 10SM CLR 16/M02 A2981 RMK AO2 WSHFT 37 SLP089 $,M
P68,2021-10-12 18:53,-116.0056,39.6014,1993.00,35.00,21.00,56.05,350.00,12.00,0.00,29.95,1013.60,M,20.00,M,M,M,M,M,M,M,M,M,M,M,M,M,M,M,25.95,KP68 121853Z AUTO 35012G20KT 02/M06 A2995 RMK AO1 SLP136 T00171061,M
DRA,2021-10-12 18:53,-116.0278,36.6206,1009.00,56.00,21.90,26.43,40.00,10.00,0.00,29.85,1008.80,10.00,M,CLR,M,M,M,M,M,M,M,M,M,M,M,M,M,M,55.90,KDRA 121853Z AUTO 04010KT 10SM CLR 13/M06 A2985 RMK AO2 SLP088 T01331056,M
VGT,2021-10-12 18:53,-115.1933,36.2111,667.00,61.00,26.10,26.25,320.00,17.00,T,29.80,1010.40,10.00,28.00,CLR,M,M,M,M,M,M,M,DU,M,M,M,32.00,310.00,2021-10-12 17:57,61.00,KVGT 121853Z 32017G28KT 10SM DU CLR 16/M03 A2980 RMK AO2 PK WND 31032/1757 RAE02 SLP104 P0000 T01611033,M
LOL,2021-10-12 18:53,-118.5701,40.0684,1192.43,45.00,17.10,32.28,0.00,0.00,0.00,30.06,1018.20,10.00,M,CLR,M,M,M,M,M,M,M,M,M,M,M,M,M,M,45.00,KLOL 121853Z AUTO 00000KT 10SM CLR 07/M08 A3006 RMK AO2 SLP182 T00721083,M
ELY,2021-10-12 18:53,-114.8453,39.2950,1909.00,33.00,26.10,75.18,360.00,10.00,0.00,29.85,1011.10,10.00,M,OVC,M,M,M,2600.00,M,M,M,M,M,M,M,M,M,M,24.35,KELY 121853Z AUTO 36010KT 10SM OVC026 01/M03 A2985 RMK AO2 SLP111 T00061033,M
BVU,2021-10-12 18:55,-114.8611,35.9475,671.00,59.00,24.80,26.70,310.00,8.00,0.00,29.83,M,10.00,20.00,CLR,M,M,M,M,M,M,M,M,M,M,M,M,M,M,59.00,KBVU 121855Z AUTO 31008G20KT 10SM CLR 15/M04 A2983 RMK AO2,M
MEV,2021-10-12 18:55,-119.7500,38.9963,1441.42,39.20,15.80,38.15,M,4.00,0.00,30.09,M,10.00,M,FEW,M,M,M,4900.00,M,M,M,M,M,M,M,M,M,M,35.83,KMEV 121855Z AUTO VRB04KT 10SM FEW049 04/M09 A3009 RMK AO2,M
HTH,2021-10-12 18:55,-118.6315,38.5448,1282.89,42.80,19.40,38.75,340.00,10.00,0.00,30.08,M,10.00,18.00,CLR,M,M,M,M,M,M,M,M,M,M,M,M,M,M,36.51,KHTH 121855Z AUTO 34010G18KT 10SM CLR 06/M07 A3008 RMK A01,M
BAM,2021-10-12 18:55,-116.8743,40.5990,1382.36,42.80,24.80,48.67,340.00,4.00,0.00,30.02,M,10.00,M,SCT,M,M,M,4300.00,M,M,M,M,M,M,M,M,M,M,40.03,KBAM 121855Z AUTO 34004KT 10SM SCT043 06/M04 A3002 RMK AO1,M
TMT,2021-10-12 18:55,-117.1971,39.4643,1749.34,32.00,22.60,67.89,340.00,6.00,0.00,30.03,M,10.00,M,OVC,M,M,M,3500.00,M,M,M,M,M,M,M,M,M,M,25.53,KTMT 121855Z AUTO 34006KT 10SM OVC035 00/M05 A3003 RMK AO2 T00001052,M
05U,2021-10-12 18:55,-116.0051,39.6042,1811.23,35.60,19.40,51.33,360.00,14.00,0.00,29.97,M,10.00,M,BKN,OVC,M,M,3000.00,4600.00,M,M,M,M,M,M,M,M,M,25.80,K05U 121855Z AUTO 36014KT 10SM BKN030 OVC046 02/M07 A2997 RMK A01,M
CXP,2021-10-12 18:55,-119.7326,39.1923,1431.00,44.60,15.80,30.98,M,6.00,0.00,30.10,M,10.00,M,FEW,FEW,M,M,4900.00,6000.00,M,M,M,M,M,M,M,M,M,40.71,KCXP 121855Z AUTO VRB06KT 10SM FEW049 FEW060 07/M09 A3010 RMK AO2,M
RNO,2021-10-12 18:55,-119.7711,39.4839,1341.00,42.00,15.10,33.07,120.00,4.00,0.00,30.09,1018.90,10.00,M,FEW,M,M,M,5000.00,M,M,M,M,M,M,M,M,M,M,39.21,KRNO 121855Z 12004KT 10SM FEW050 06/M09 A3009 RMK AO2 SLP189 T00561094,M
RTS,2021-10-12 18:55,-119.8764,39.6682,1539.00,39.20,14.00,35.26,M,4.00,0.00,30.08,M,10.00,M,CLR,M,M,M,M,M,M,M,M,M,M,M,M,M,M,35.83,KRTS 121855Z AUTO VRB04KT 10SM CLR 04/M10 A3008 RMK AO2,M
HND,2021-10-12 18:56,-115.1344,35.9729,742.79,60.00,24.10,24.93,350.00,15.00,0.00,29.84,1011.80,10.00,M,CLR,M,M,M,M,M,M,M,M,M,M,M,M,M,M,60.10,KHND 121856Z 35015KT 10SM CLR 16/M04 A2984 RMK AO2 SLP118 T01561044,M
WMC,2021-10-12 18:56,-117.8072,40.9019,1315.00,44.00,17.10,33.40,330.00,12.00,0.00,30.03,1017.00,10.00,22.00,CLR,M,M,M,M,M,M,M,M,M,M,M,M,M,M,37.40,KWMC 121856Z AUTO 33012G22KT 10SM CLR 07/M08 A3003 RMK AO2 SLP170 T00671083 TSNO,M
NFL,2021-10-12 18:56,-118.7010,39.4166,1199.00,44.00,21.00,39.47,340.00,12.00,0.00,30.08,1015.20,10.00,M,FEW,M,M,M,7000.00,M,M,M,M,M,M,M,M,M,M,37.40,KNFL 121856Z 34012KT 10SM FEW070 07/M06 A3008 RMK AO2 SLP152 T00671061,M
EKO,2021-10-12 18:56,-115.7860,40.8242,1367.00,41.00,19.90,42.44,270.00,5.00,0.00,29.93,1013.70,10.00,M,OVC,M,M,M,4200.00,M,M,M,M,M,M,M,M,M,M,37.08,KEKO 121856Z AUTO 27005KT 10SM OVC042 05/M07 A2993 RMK AO2 SLP137 T00501067,M
TPH,2021-10-12 18:56,-117.0904,38.0505,1654.00,43.00,18.00,36.22,320.00,19.00,0.00,29.94,1013.50,10.00,25.00,CLR,M,M,M,M,M,M,M,M,M,M,M,34.00,330.00,2021-10-12 18:45,33.98,KTPH 121856Z AUTO 32019G25KT 10SM CLR 06/M08 A2994 RMK AO2 PK WND 33034/1845 SLP135 T00611078,M
LAS,2021-10-12 18:56,-115.1634,36.0719,663.00,61.00,24.10,24.15,320.00,20.00,0.00,29.83,1009.20,10.00,27.00,FEW,FEW,M,M,6500.00,10000.00,M,M,M,M,M,M,29.00,330.00,2021-10-12 18:46,61.00,KLAS 121856Z 32020G27KT 10SM FEW065 FEW100 16/M04 A2983 RMK AO2 PK WND 33029/1846 SLP092 T01611044,M
INS,2021-10-12 18:58,-115.6733,36.5872,955.00,53.20,27.00,36.09,300.00,8.00,0.00,29.86,1009.70,10.00,M,CLR,M,M,M,M,M,M,M,M,M,M,M,M,M,M,53.20,KINS 121858Z AUTO 30008KT 10SM CLR 12/M03 A2986 RMK AO2 SLP097 T01181028 $,M
LSV,2021-10-12 18:58,-115.0343,36.2362,570.00,61.70,27.30,26.90,300.00,18.00,0.00,29.81,1008.80,10.00,25.00,CLR,M,M,M,M,M,M,M,M,M,M,M,M,M,M,61.70,KLSV 121858Z AUTO 30018G25KT 10SM CLR 17/M03 A2981 RMK AO2 SLP088 T01651026 $,M
BVU,2021-10-12 19:15,-114.8611,35.9475,671.00,59.00,24.80,26.70,310.00,7.00,0.00,29.84,M,10.00,15.00,CLR,M,M,M,M,M,M,M,M,M,M,M,M,M,M,59.00,KBVU 121915Z AUTO 31007G15KT 10SM CLR 15/M04 A2984 RMK AO2,M
CXP,2021-10-12 19:15,-119.7326,39.1923,1431.00,42.80,15.80,33.18,M,4.00,0.00,30.09,M,9.00,M,CLR,M,M,M,M,M,M,M,M,M,M,M,M,M,M,40.03,KCXP 121915Z AUTO VRB04KT 9SM CLR 06/M09 A3009 RMK AO2,M
RTS,2021-10-12 19:15,-119.8764,39.6682,1539.00,41.00,14.00,32.88,100.00,9.00,0.00,30.07,M,10.00,14.00,CLR,M,M,M,M,M,M,M,M,M,M,M,M,M,M,34.70,KRTS 121915Z AUTO 10009G14KT 10SM CLR 05/M10 A3007 RMK AO2,M
05U,2021-10-12 19:15,-116.0051,39.6042,1811.23,37.40,19.40,47.80,330.00,11.00,0.00,29.97,M,10.00,18.00,BKN,BKN,BKN,M,3200.00,3800.00,4600.00,M,M,M,M,M,M,M,M,29.29,K05U 121915Z AUTO 33011G18KT 10SM BKN032 BKN038 BKN046 03/M07 A2997 RMK A01,M
BAM,2021-10-12 19:15,-116.8743,40.5990,1382.36,42.80,24.80,48.67,330.00,9.00,0.00,30.02,M,10.00,17.00,BKN,M,M,M,4500.00,M,M,M,M,M,M,M,M,M,M,36.94,KBAM 121915Z AUTO 33009G17KT 10SM BKN045 06/M04 A3002 RMK AO1,M
HTH,2021-10-12 19:15,-118.6315,38.5448,1282.89,42.80,19.40,38.75,340.00,11.00,0.00,30.08,M,10.00,17.00,CLR,M,M,M,M,M,M,M,M,M,M,M,M,M,M,36.11,KHTH 121915Z AUTO 34011G17KT 10SM CLR 06/M07 A3008 RMK A01,M
TMT,2021-10-12 19:15,-117.1971,39.4643,1749.34,32.00,21.70,65.36,330.00,4.00,0.00,30.03,M,10.00,M,SCT,BKN,M,M,3000.00,3700.00,M,M,M,M,M,M,M,M,M,27.42,KTMT 121915Z AUTO 33004KT 10SM SCT030 BKN037 00/M06 A3003 RMK AO2 T00001057,M
MEV,2021-10-12 19:15,-119.7500,38.9963,1441.42,42.80,15.80,33.18,0.00,0.00,0.00,30.08,M,10.00,M,CLR,M,M,M,M,M,M,M,M,M,M,M,M,M,M,42.80,KMEV 121915Z AUTO 00000KT 10SM CLR 06/M09 A3008 RMK AO2,M
INS,2021-10-12 19:18,-115.6733,36.5872,955.00,53.60,28.40,37.67,290.00,7.00,0.00,29.86,1009.70,10.00,M,BKN,M,M,M,6500.00,M,M,M,M,M,M,M,M,M,M,53.60,KINS 121918Z AUTO 29007KT 10SM BKN065 12/M02 A2986 RMK AO2 SLP097 $,M
LSV,2021-10-12 19:22,-115.0343,36.2362,570.00,62.60,26.60,25.32,270.00,15.00,0.00,29.81,1008.80,10.00,24.00,CLR,M,M,M,M,M,M,M,M,M,M,M,M,M,M,62.60,KLSV 121922Z AUTO 27015G24KT 10SM CLR 17/M03 A2981 RMK AO2 WSHFT 19 SLP088 $,M
INS,2021-10-12 19:23,-115.6733,36.5872,955.00,55.40,26.60,32.76,300.00,11.00,0.00,29.86,1009.70,10.00,M,SCT,M,M,M,6500.00,M,M,M,M,M,M,M,M,M,M,55.40,KINS 121923Z AUTO 30011KT 10SM SCT065 13/M03 A2986 RMK AO2 SLP097 $,M
LSV,2021-10-12 19:27,-115.0343,36.2362,570.00,62.60,28.40,27.27,290.00,14.00,0.00,29.82,1009.10,10.00,24.00,CLR,M,M,M,M,M,M,M,M,M,M,M,M,M,M,62.60,KLSV 121927Z AUTO 29014G24KT 10SM CLR 17/M02 A2982 RMK AO2 WSHFT 25 SLP091 $,M
ELY,2021-10-12 19:34,-114.8453,39.2950,1909.00,34.00,26.10,72.52,10.00,9.00,0.00,29.86,M,10.00,M,OVC,M,M,M,3100.00,M,M,M,M,M,M,M,M,M,M,26.00,KELY 121934Z AUTO 01009KT 10SM OVC031 01/M03 A2986 RMK AO2 T00111033,M
TMT,2021-10-12 19:35,-117.1971,39.4643,1749.34,34.00,22.60,62.65,350.00,8.00,0.00,30.03,M,10.00,M,SCT,BKN,M,M,3400.00,4000.00,M,M,M,M,M,M,M,M,M,26.58,KTMT 121935Z AUTO 35008KT 10SM SCT034 BKN040 01/M05 A3003 RMK AO2 T00111052,M
BAM,2021-10-12 19:35,-116.8743,40.5990,1382.36,42.80,24.80,48.67,20.00,8.00,0.00,30.02,M,10.00,16.00,BKN,M,M,M,4800.00,M,M,M,M,M,M,M,M,M,M,37.42,KBAM 121935Z AUTO 02008G16KT 330V040 10SM BKN048 06/M04 A3002 RMK AO1,M
BVU,2021-10-12 19:35,-114.8611,35.9475,671.00,60.80,24.80,25.04,280.00,10.00,0.00,29.84,M,10.00,M,CLR,M,M,M,M,M,M,M,M,M,M,M,M,M,M,60.80,KBVU 121935Z AUTO 28010KT 10SM CLR 16/M04 A2984 RMK AO2,M
HTH,2021-10-12 19:35,-118.6315,38.5448,1282.89,42.80,19.40,38.75,340.00,14.00,0.00,30.08,M,10.00,M,CLR,M,M,M,M,M,M,M,M,M,M,M,M,M,M,35.08,KHTH 121935Z AUTO 34014KT 10SM CLR 06/M07 A3008 RMK A01,M
CXP,2021-10-12 19:35,-119.7326,39.1923,1431.00,42.80,14.00,30.68,M,3.00,0.00,30.08,M,10.00,M,CLR,M,M,M,M,M,M,M,M,M,M,M,M,M,M,41.03,KCXP 121935Z AUTO VRB03KT 10SM CLR 06/M10 A3008 RMK AO2,M
RTS,2021-10-12 19:35,-119.8764,39.6682,1539.00,41.00,12.20,30.38,70.00,6.00,0.00,30.08,M,10.00,11.00,CLR,M,M,M,M,M,M,M,M,M,M,M,M,M,M,36.37,KRTS 121935Z AUTO 07006G11KT 10SM CLR 05/M11 A3008 RMK AO2,M
05U,2021-10-12 19:35,-116.0051,39.6042,1811.23,35.60,19.40,51.33,350.00,12.00,0.00,29.97,M,10.00,18.00,BKN,BKN,M,M,3300.00,4400.00,M,M,M,M,M,M,M,M,M,26.58,K05U 121935Z AUTO 35012G18KT 10SM BKN033 BKN044 02/M07 A2997 RMK A01,M
MEV,2021-10-12 19:35,-119.7500,38.9963,1441.42,42.80,15.80,33.18,M,3.00,0.00,30.07,M,10.00,M,CLR,M,M,M,M,M,M,M,M,M,M,M,M,M,M,41.03,KMEV 121935Z AUTO VRB03KT 10SM CLR 06/M09 A3007 RMK AO2,M
VGT,2021-10-12 19:53,-115.1933,36.2111,667.00,63.00,25.00,23.36,330.00,18.00,0.00,29.81,1010.60,10.00,26.00,CLR,M,M,M,M,M,M,M,DU,M,M,M,30.00,310.00,2021-10-12 19:07,63.00,KVGT 121953Z 33018G26KT 10SM DU CLR 17/M04 A2981 RMK AO2 PK WND 31030/1907 SLP106 T01721039,M
ELY,2021-10-12 19:53,-114.8453,39.2950,1909.00,34.00,27.00,75.26,20.00,9.00,0.00,29.86,1011.10,10.00,M,OVC,M,M,M,3100.00,M,M,M,M,M,M,M,M,M,M,26.00,KELY 121953Z AUTO 02009KT 10SM OVC031 01/M03 A2986 RMK AO2 SLP111 T00111028,M
P68,2021-10-12 19:53,-116.0056,39.6014,1993.00,37.00,21.00,51.99,340.00,12.00,0.00,29.95,1013.50,M,21.00,M,M,M,M,M,M,M,M,M,M,M,M,M,M,M,28.37,KP68 121953Z AUTO 34012G21KT 03/M06 A2995 RMK AO1 SLP135 T00281061,M
DRA,2021-10-12 19:53,-116.0278,36.6206,1009.00,59.00,21.90,23.64,40.00,9.00,0.00,29.84,1008.40,10.00,21.00,CLR,M,M,M,M,M,M,M,M,M,M,M,M,M,M,59.00,KDRA 121953Z AUTO 04009G21KT 10SM CLR 15/M06 A2984 RMK AO2 SLP084 T01501056,M
LOL,2021-10-12 19:53,-118.5701,40.0684,1192.43,50.00,12.00,21.40,360.00,9.00,0.00,30.04,1017.40,10.00,16.00,CLR,M,M,M,M,M,M,M,M,M,M,M,M,M,M,50.00,KLOL 121953Z AUTO 36009G16KT 10SM CLR 10/M11 A3004 RMK AO2 SLP174 T01001111,M
BAM,2021-10-12 19:55,-116.8743,40.5990,1382.36,42.80,23.00,45.14,340.00,12.00,0.00,30.02,M,10.00,22.00,BKN,M,M,M,4800.00,M,M,M,M,M,M,M,M,M,M,35.75,KBAM 121955Z AUTO 34012G22KT 10SM BKN048 06/M05 A3002 RMK AO1,M
05U,2021-10-12 19:55,-116.0051,39.6042,1811.23,37.40,19.40,47.80,360.00,12.00,0.00,29.97,M,10.00,20.00,BKN,BKN,M,M,3300.00,4400.00,M,M,M,M,M,M,M,M,M,28.87,K05U 121955Z AUTO 36012G20KT 10SM BKN033 BKN044 03/M07 A2997 RMK A01,M
HTH,2021-10-12 19:55,-118.6315,38.5448,1282.89,42.80,19.40,38.75,360.00,8.00,0.00,30.08,M,10.00,16.00,CLR,M,M,M,M,M,M,M,M,M,M,M,M,M,M,37.42,KHTH 121955Z AUTO 36008G16KT 10SM CLR 06/M07 A3008 RMK A01,M
CXP,2021-10-12 19:55,-119.7326,39.1923,1431.00,42.80,14.00,30.68,M,4.00,0.00,30.07,M,10.00,M,CLR,M,M,M,M,M,M,M,M,M,M,M,M,M,M,40.03,KCXP 121955Z AUTO VRB04KT 10SM CLR 06/M10 A3007 RMK AO2,M
BVU,2021-10-12 19:55,-114.8611,35.9475,671.00,60.80,24.80,25.04,320.00,6.00,0.00,29.84,M,10.00,12.00,CLR,M,M,M,M,M,M,M,M,M,M,M,M,M,M,60.80,KBVU 121955Z AUTO 32006G12KT 10SM CLR 16/M04 A2984 RMK AO2,M
RTS,2021-10-12 19:55,-119.8764,39.6682,1539.00,41.00,14.00,32.88,M,4.00,0.00,30.07,M,10.00,M,CLR,M,M,M,M,M,M,M,M,M,M,M,M,M,M,37.93,KRTS 121955Z AUTO VRB04KT 10SM CLR 05/M10 A3007 RMK AO2,M
RNO,2021-10-12 19:55,-119.7711,39.4839,1341.00,44.00,16.00,31.85,M,5.00,0.00,30.06,1017.70,10.00,M,FEW,FEW,M,M,5000.00,20000.00,M,M,M,M,M,M,M,M,M,40.77,KRNO 121955Z VRB05KT 10SM FEW050 FEW200 07/M09 A3006 RMK AO2 SLP177 T00671089,M
MEV,2021-10-12 19:55,-119.7500,38.9963,1441.42,44.60,15.80,30.98,250.00,7.00,0.00,30.06,M,10.00,M,CLR,M,M,M,M,M,M,M,M,M,M,M,M,M,M,40.14,KMEV 121955Z AUTO 25007KT 10SM CLR 07/M09 A3006 RMK AO2,M
TMT,2021-10-12 19:55,-117.1971,39.4643,1749.34,34.00,23.50,65.07,340.00,8.00,0.00,30.03,M,10.00,M,SCT,BKN,M,M,3600.00,4200.00,M,M,M,M,M,M,M,M,M,26.58,KTMT 121955Z AUTO 34008KT 10SM SCT036 BKN042 01/M05 A3003 RMK AO2 T00111047,M
WMC,2021-10-12 19:56,-117.8072,40.9019,1315.00,47.00,18.00,31.22,310.00,11.00,0.00,30.02,1016.50,10.00,15.00,CLR,M,M,M,M,M,M,M,M,M,M,M,M,M,M,41.30,KWMC 121956Z AUTO 31011G15KT 10SM CLR 08/M08 A3002 RMK AO2 SLP165 T00831078 TSNO,M
HND,2021-10-12 19:56,-115.1344,35.9729,742.79,61.00,25.00,25.07,10.00,11.00,0.00,29.85,1011.80,10.00,M,CLR,M,M,M,M,M,M,M,M,M,M,M,M,M,M,61.00,KHND 121956Z 01011KT 10SM CLR 16/M04 A2985 RMK AO2 SLP118 T01611039,M
TPH,2021-10-12 19:56,-117.0904,38.0505,1654.00,44.00,18.00,34.72,320.00,21.00,0.00,29.93,1013.00,10.00,32.00,CLR,M,M,M,M,M,M,M,M,M,M,M,32.00,320.00,2021-10-12 19:46,34.99,KTPH 121956Z AUTO 32021G32KT 10SM CLR 07/M08 A2993 RMK AO2 PK WND 32032/1946 SLP130 T00671078,M
LAS,2021-10-12 19:56,-115.1634,36.0719,663.00,61.00,24.10,24.15,360.00,17.00,0.00,29.83,1009.50,10.00,27.00,FEW,M,M,M,9000.00,M,M,M,M,M,M,M,28.00,320.00,2021-10-12 19:03,61.00,KLAS 121956Z 36017G27KT 10SM FEW090 16/M04 A2983 RMK AO2 PK WND 32028/1903 SLP095 T01611044,M
EKO,2021-10-12 19:56,-115.7860,40.8242,1367.00,41.00,19.90,42.44,270.00,15.00,0.00,29.94,1014.00,10.00,20.00,BKN,M,M,M,4300.00,M,M,M,M,M,M,M,M,M,M,32.45,KEKO 121956Z AUTO 27015G20KT 10SM BKN043 05/M07 A2994 RMK AO2 SLP140 T00501067,M
NFL,2021-10-12 19:56,-118.7010,39.4166,1199.00,46.00,21.00,36.72,20.00,5.00,0.00,30.06,1014.80,10.00,M,SCT,M,M,M,7000.00,M,M,M,M,M,M,M,M,M,M,43.02,KNFL 121956Z 02005KT 10SM SCT070 08/M06 A3006 RMK AO2 SLP148 T00781061,M
INS,2021-10-12 19:58,-115.6733,36.5872,955.00,55.40,28.20,34.99,270.00,6.00,0.00,29.85,1009.30,10.00,M,CLR,M,M,M,M,M,M,M,M,M,M,M,M,M,M,55.40,KINS 121958Z AUTO 27006KT 10SM CLR 13/M02 A2985 RMK AO2 SLP093 T01301021 $,M
LSV,2021-10-12 19:58,-115.0343,36.2362,570.00,62.40,27.10,26.03,260.00,8.00,0.00,29.82,1009.10,10.00,18.00,CLR,M,M,M,M,M,M,M,M,M,M,M,M,M,M,62.40,KLSV 121958Z AUTO 26008G18KT 10SM CLR 17/M03 A2982 RMK AO2 SLP091 T01691027 $,M
05U,2021-10-12 20:15,-116.0051,39.6042,1811.23,39.20,17.60,41.24,360.00,15.00,0.00,29.97,M,10.00,M,SCT,SCT,M,M,3400.00,4100.00,M,M,M,M,M,M,M,M,M,30.11,K05U 122015Z AUTO 36015KT 10SM SCT034 SCT041 04/M08 A2997 RMK A01,M
BVU,2021-10-12 20:15,-114.8611,35.9475,671.00,60.80,24.80,25.04,320.00,5.00,0.00,29.84,M,10.00,11.00,CLR,M,M,M,M,M,M,M,M,M,M,M,M,M,M,60.80,KBVU 122015Z AUTO 32005G11KT 10SM CLR 16/M04 A2984 RMK AO2,M
RTS,2021-10-12 20:15,-119.8764,39.6682,1539.00,42.80,12.20,28.34,50.00,7.00,0.00,30.07,M,10.00,M,CLR,M,M,M,M,M,M,M,M,M,M,M,M,M,M,37.94,KRTS 122015Z AUTO 05007KT 10SM CLR 06/M11 A3007 RMK AO2,M
MEV,2021-10-12 20:15,-119.7500,38.9963,1441.42,44.60,15.80,30.98,200.00,7.00,0.00,30.05,M,10.00,M,CLR,M,M,M,M,M,M,M,M,M,M,M,M,M,M,40.14,KMEV 122015Z AUTO 20007KT 10SM CLR 07/M09 A3005 RMK AO2,M
CXP,2021-10-12 20:15,-119.7326,39.1923,1431.00,44.60,14.00,28.64,310.00,6.00,0.00,30.07,M,10.00,M,CLR,M,M,M,M,M,M,M,M,M,M,M,M,M,M,40.71,KCXP 122015Z AUTO 31006KT 10SM CLR 07/M10 A3007 RMK AO2,M
BAM,2021-10-12 20:15,-116.8743,40.5990,1382.36,44.60,24.80,45.44,330.00,14.00,0.00,30.01,M,10.00,19.00,BKN,M,M,M,5000.00,M,M,M,M,M,M,M,M,M,M,37.40,KBAM 122015Z AUTO 33014G19KT 10SM BKN050 07/M04 A3001 RMK AO1,M
TMT,2021-10-12 20:15,-117.1971,39.4643,1749.34,35.00,22.60,60.45,330.00,3.00,0.00,30.03,M,10.00,M,BKN,M,M,M,3700.00,M,M,M,M,M,M,M,M,M,M,32.00,KTMT 122015Z AUTO 33003KT 10SM BKN037 02/M05 A3003 RMK AO2 T00161052,M
HTH,2021-10-12 20:15,-118.6315,38.5448,1282.89,42.80,19.40,38.75,350.00,7.00,0.00,30.07,M,10.00,17.00,CLR,M,M,M,M,M,M,M,M,M,M,M,M,M,M,37.94,KHTH 122015Z AUTO 35007G17KT 10SM CLR 06/M07 A3007 RMK A01,M
ELY,2021-10-12 20:19,-114.8453,39.2950,1909.00,34.00,26.10,72.52,10.00,8.00,0.00,29.86,M,10.00,M,OVC,M,M,M,2900.00,M,M,M,M,M,M,M,M,M,M,26.58,KELY 122019Z AUTO 01008KT 10SM OVC029 01/M03 A2986 RMK AO2 T00111033,M
LSV,2021-10-12 20:25,-115.0343,36.2362,570.00,64.40,26.60,23.77,300.00,13.00,0.00,29.82,1009.10,10.00,17.00,CLR,M,M,M,M,M,M,M,M,M,M,M,M,M,M,64.40,KLSV 122025Z AUTO 30013G17KT 10SM CLR 18/M03 A2982 RMK AO2 WSHFT 22 SLP091 $,M
05U,2021-10-12 20:35,-116.0051,39.6042,1811.23,39.20,17.60,41.24,340.00,13.00,0.00,29.98,M,10.00,19.00,FEW,M,M,M,3700.00,M,M,M,M,M,M,M,M,M,M,30.79,K05U 122035Z AUTO 34013G19KT 10SM FEW037 04/M08 A2998 RMK A01,M
BVU,2021-10-12 20:35,-114.8611,35.9475,671.00,60.80,24.80,25.04,360.00,7.00,0.00,29.84,M,10.00,18.00,CLR,M,M,M,M,M,M,M,M,M,M,M,M,M,M,60.80,KBVU 122035Z AUTO 36007G18KT 10SM CLR 16/M04 A2984 RMK AO2,M
HTH,2021-10-12 20:35,-118.6315,38.5448,1282.89,44.60,19.40,36.18,330.00,10.00,0.00,30.07,M,10.00,18.00,CLR,M,M,M,M,M,M,M,M,M,M,M,M,M,M,38.77,KHTH 122035Z AUTO 33010G18KT 10SM CLR 07/M07 A3007 RMK A01,M
TMT,2021-10-12 20:35,-117.1971,39.4643,1749.34,35.60,22.80,59.29,350.00,10.00,0.00,30.03,M,10.00,15.00,SCT,BKN,M,M,3900.00,4600.00,M,M,M,M,M,M,M,M,M,27.48,KTMT 122035Z AUTO 35010G15KT 10SM SCT039 BKN046 02/M05 A3003 RMK AO2 T00201051,M
BAM,2021-10-12 20:35,-116.8743,40.5990,1382.36,44.60,23.00,42.14,330.00,15.00,0.00,30.01,M,10.00,18.00,SCT,M,M,M,5000.00,M,M,M,M,M,M,M,M,M,M,37.11,KBAM 122035Z AUTO 33015G18KT 10SM SCT050 07/M05 A3001 RMK AO1,M
MEV,2021-10-12 20:35,-119.7500,38.9963,1441.42,44.60,15.80,30.98,210.00,6.00,0.00,30.05,M,10.00,M,CLR,M,M,M,M,M,M,M,M,M,M,M,M,M,M,40.71,KMEV 122035Z AUTO 21006KT 10SM CLR 07/M09 A3005 RMK AO2,M
CXP,2021-10-12 20:35,-119.7326,39.1923,1431.00,46.40,14.00,26.75,M,4.00,0.00,30.07,M,10.00,M,CLR,M,M,M,M,M,M,M,M,M,M,M,M,M,M,44.24,KCXP 122035Z AUTO VRB04KT 10SM CLR 08/M10 A3007 RMK AO2,M
RTS,2021-10-12 20:35,-119.8764,39.6682,1539.00,42.80,12.20,28.34,0.00,0.00,0.00,30.06,M,10.00,M,CLR,M,M,M,M,M,M,M,M,M,M,M,M,M,M,42.80,KRTS 122035Z AUTO 00000KT 10SM CLR 06/M11 A3006 RMK AO2,M
LSV,2021-10-12 20:51,-115.0343,36.2362,570.00,64.40,26.60,23.77,310.00,12.00,0.00,29.81,1008.80,10.00,19.00,CLR,M,M,M,M,M,M,M,M,M,M,M,M,M,M,64.40,KLSV 122051Z AUTO 31012G19KT 10SM CLR 18/M03 A2981 RMK AO2 WSHFT 50 SLP088 $,M
VGT,2021-10-12 20:53,-115.1933,36.2111,667.00,64.00,26.10,23.61,310.00,13.00,0.00,29.81,1010.80,10.00,22.00,CLR,M,M,M,M,M,M,M,DU,M,M,M,29.00,310.00,2021-10-12 20:07,64.00,KVGT 122053Z 31013G22KT 10SM DU CLR 18/M03 A2981 RMK AO2 PK WND 31029/2007 SLP108 60000 T01781033 51010,M
ELY,2021-10-12 20:53,-114.8453,39.2950,1909.00,34.00,26.10,72.52,330.00,10.00,0.00,29.88,1011.70,10.00,M,OVC,M,M,M,2600.00,M,M,M,M,M,M,M,M,M,M,25.48,KELY 122053Z AUTO 33010KT 10SM OVC026 01/M03 A2988 RMK AO2 SLP117 T00111033 51014,M
LOL,2021-10-12 20:53,-118.5701,40.0684,1192.43,50.00,10.90,20.38,40.00,7.00,0.00,30.03,1017.00,10.00,M,CLR,M,M,M,M,M,M,M,M,M,M,M,M,M,M,50.00,KLOL 122053Z AUTO 04007KT 10SM CLR 10/M12 A3003 RMK AO2 SLP170 T01001117 58010,M
P68,2021-10-12 20:53,-116.0056,39.6014,1993.00,40.00,19.90,44.29,350.00,15.00,0.00,29.95,1013.50,M,22.00,M,M,M,M,M,M,M,M,M,M,M,M,M,M,M,31.02,KP68 122053Z AUTO 35015G22KT 04/M07 A2995 RMK AO1 SLP135 T00441067 51007,M
DRA,2021-10-12 20:53,-116.0278,36.6206,1009.00,60.00,21.00,21.88,360.00,7.00,0.00,29.84,1008.40,10.00,M,CLR,M,M,M,M,M,M,M,M,M,M,M,M,M,M,60.10,KDRA 122053Z AUTO 36007KT 10SM CLR 16/M06 A2984 RMK AO2 SLP084 T01561061 58001,M
HTH,2021-10-12 20:55,-118.6315,38.5448,1282.89,44.60,19.40,36.18,320.00,11.00,0.00,30.06,M,10.00,M,CLR,M,M,M,M,M,M,M,M,M,M,M,M,M,M,38.39,KHTH 122055Z AUTO 32011KT 10SM CLR 07/M07 A3006 RMK A01,M
CXP,2021-10-12 20:55,-119.7326,39.1923,1431.00,46.40,12.20,24.71,280.00,5.00,0.00,30.06,M,10.00,10.00,CLR,M,M,M,M,M,M,M,M,M,M,M,M,M,M,43.50,KCXP 122055Z AUTO 28005G10KT 10SM CLR 08/M11 A3006 RMK AO2,M
TMT,2021-10-12 20:55,-117.1971,39.4643,1749.34,36.50,23.70,59.41,10.00,8.00,0.00,30.03,M,10.00,M,SCT,M,M,M,4600.00,M,M,M,M,M,M,M,M,M,M,29.66,KTMT 122055Z AUTO 01008KT 10SM SCT046 03/M05 A3003 RMK AO2 T00251046,M
RNO,2021-10-12 20:55,-119.7711,39.4839,1341.00,48.00,12.90,23.99,330.00,5.00,0.00,30.06,1017.10,10.00,M,FEW,FEW,M,M,5000.00,20000.00,M,M,M,M,M,M,M,M,M,45.40,KRNO 122055Z 33005KT 10SM FEW050 FEW200 09/M11 A3006 RMK AO2 SLP171 T00891106 58009,M
RTS,2021-10-12 20:55,-119.8764,39.6682,1539.00,42.80,10.40,26.16,M,5.00,0.00,30.06,M,10.00,M,CLR,M,M,M,M,M,M,M,M,M,M,M,M,M,M,39.22,KRTS 122055Z AUTO VRB05KT 10SM CLR 06/M12 A3006 RMK AO2,M
05U,2021-10-12 20:55,-116.0051,39.6042,1811.23,41.00,19.40,41.54,340.00,12.00,0.00,29.98,M,10.00,17.00,FEW,M,M,M,3800.00,M,M,M,M,M,M,M,M,M,M,33.46,K05U 122055Z AUTO 34012G17KT 10SM FEW038 05/M07 A2998 RMK A01,M
MEV,2021-10-12 20:55,-119.7500,38.9963,1441.42,46.40,14.00,26.75,190.00,9.00,0.00,30.05,M,10.00,M,CLR,M,M,M,M,M,M,M,M,M,M,M,M,M,M,41.42,KMEV 122055Z AUTO 19009KT 10SM CLR 08/M10 A3005 RMK AO2,M
BAM,2021-10-12 20:55,-116.8743,40.5990,1382.36,46.40,23.00,39.36,350.00,14.00,0.00,30.00,M,10.00,20.00,CLR,M,M,M,M,M,M,M,M,M,M,M,M,M,M,39.72,KBAM 122055Z AUTO 35014G20KT 10SM CLR 08/M05 A3000 RMK AO1,M
BVU,2021-10-12 20:55,-114.8611,35.9475,671.00,62.60,24.80,23.50,300.00,8.00,0.00,29.84,M,10.00,18.00,CLR,M,M,M,M,M,M,M,M,M,M,M,M,M,M,62.60,KBVU 122055Z AUTO 30008G18KT 10SM CLR 17/M04 A2984 RMK AO2,M
EKO,2021-10-12 20:56,-115.7860,40.8242,1367.00,44.00,19.00,36.25,290.00,11.00,0.00,29.94,1013.90,10.00,16.00,CLR,M,M,M,M,M,M,M,M,M,M,M,M,M,M,37.76,KEKO 122056Z AUTO 29011G16KT 10SM CLR 07/M07 A2994 RMK AO2 SLP139 T00671072 52005,M
NFL,2021-10-12 20:56,-118.7010,39.4166,1199.00,47.00,19.90,33.87,50.00,7.00,0.00,30.05,1014.50,10.00,M,SCT,SCT,M,M,7000.00,12000.00,M,M,M,M,M,M,M,M,M,42.94,KNFL 122056Z 05007KT 10SM SCT070 SCT120 08/M07 A3005 RMK AO2 SLP145 T00831067 58006,M
HND,2021-10-12 20:56,-115.1344,35.9729,742.79,61.00,24.10,24.15,M,5.00,0.00,29.86,1012.10,10.00,M,CLR,M,M,M,M,M,M,M,M,M,M,M,M,M,M,61.00,KHND 122056Z VRB05KT 10SM CLR 16/M04 A2986 RMK AO2 SLP121 T01611044 51008,M
TPH,2021-10-12 20:56,-117.0904,38.0505,1654.00,46.00,18.00,32.30,330.00,20.00,0.00,29.93,1012.70,10.00,28.00,CLR,M,M,M,M,M,M,M,M,M,M,M,32.00,310.00,2021-10-12 20:19,37.73,KTPH 122056Z AUTO 33020G28KT 10SM CLR 08/M08 A2993 RMK AO2 PK WND 31032/2019 SLP127 T00781078 58003,M
WMC,2021-10-12 20:56,-117.8072,40.9019,1315.00,48.00,17.10,28.82,320.00,7.00,0.00,30.01,1016.10,10.00,M,CLR,M,M,M,M,M,M,M,M,M,M,M,M,M,M,44.28,KWMC 122056Z AUTO 32007KT 280V360 10SM CLR 09/M08 A3001 RMK AO2 SLP161 T00891083 58004 TSNO,M
LAS,2021-10-12 20:56,-115.1634,36.0719,663.00,63.00,24.10,22.50,360.00,18.00,0.00,29.84,1009.50,10.00,23.00,FEW,M,M,M,9000.00,M,M,M,M,M,M,M,M,M,M,63.00,KLAS 122056Z 36018G23KT 10SM FEW090 17/M04 A2984 RMK AO2 SLP095 T01721044 51008,M
INS,2021-10-12 20:58,-115.6733,36.5872,955.00,56.70,26.40,31.00,240.00,3.00,0.00,29.86,1009.70,10.00,M,FEW,M,M,M,7500.00,M,M,M,M,M,M,M,M,M,M,56.70,KINS 122058Z AUTO 24003KT 10SM FEW075 14/M03 A2986 RMK AO2 SLP097 T01371031 50001 $,M
LSV,2021-10-12 20:58,-115.0343,36.2362,570.00,65.00,27.30,24.04,340.00,6.00,0.00,29.82,1009.10,10.00,19.00,CLR,M,M,M,M,M,M,M,M,M,M,M,M,M,M,64.90,KLSV 122058Z AUTO 34006G19KT 10SM CLR 18/M03 A2982 RMK AO2 SLP091 T01831026 50007 $,M
TMT,2021-10-12 21:15,-117.1971,39.4643,1749.34,36.00,23.50,60.09,340.00,9.00,0.00,30.03,M,10.00,M,SCT,M,M,M,4100.00,M,M,M,M,M,M,M,M,M,M,28.49,KTMT 122115Z AUTO 34009KT 10SM SCT041 02/M05 A3003 RMK AO2 T00221047,M
BVU,2021-10-12 21:15,-114.8611,35.9475,671.00,62.60,24.80,23.50,280.00,11.00,0.00,29.85,M,10.00,20.00,CLR,M,M,M,M,M,M,M,M,M,M,M,M,M,M,62.60,KBVU 122115Z AUTO 28011G20KT 10SM CLR 17/M04 A2985 RMK AO2,M
HTH,2021-10-12 21:15,-118.6315,38.5448,1282.89,44.60,19.40,36.18,330.00,11.00,0.00,30.06,M,10.00,17.00,CLR,M,M,M,M,M,M,M,M,M,M,M,M,M,M,38.39,KHTH 122115Z AUTO 33011G17KT 10SM CLR 07/M07 A3006 RMK A01,M
RTS,2021-10-12 21:15,-119.8764,39.6682,1539.00,44.60,10.40,24.42,0.00,0.00,0.00,30.06,M,10.00,M,CLR,M,M,M,M,M,M,M,M,M,M,M,M,M,M,44.60,KRTS 122115Z AUTO 00000KT 10SM CLR 07/M12 A3006 RMK AO2,M
CXP,2021-10-12 21:15,-119.7326,39.1923,1431.00,46.40,12.20,24.71,M,5.00,0.00,30.06,M,10.00,13.00,CLR,M,M,M,M,M,M,M,M,M,M,M,M,M,M,43.50,KCXP 122115Z AUTO VRB05G13KT 10SM CLR 08/M11 A3006 RMK AO2,M
05U,2021-10-12 21:15,-116.0051,39.6042,1811.23,39.20,17.60,41.24,360.00,14.00,0.00,29.98,M,10.00,M,FEW,M,M,M,3900.00,M,M,M,M,M,M,M,M,M,M,30.44,K05U 122115Z AUTO 36014KT 10SM FEW039 04/M08 A2998 RMK A01,M
MEV,2021-10-12 21:15,-119.7500,38.9963,1441.42,46.40,14.00,26.75,130.00,5.00,0.00,30.05,M,10.00,M,CLR,M,M,M,M,M,M,M,M,M,M,M,M,M,M,43.50,KMEV 122115Z AUTO 13005KT 10SM CLR 08/M10 A3005 RMK AO2,M
BAM,2021-10-12 21:15,-116.8743,40.5990,1382.36,46.40,24.80,42.44,300.00,9.00,0.00,30.01,M,10.00,22.00,SCT,M,M,M,5500.00,M,M,M,M,M,M,M,M,M,M,41.42,KBAM 122115Z AUTO 30009G22KT 280V350 10SM SCT055 08/M04 A3001 RMK AO1,M
LSV,2021-10-12 21:18,-115.0343,36.2362,570.00,64.40,26.60,23.77,330.00,11.00,0.00,29.81,1008.80,10.00,18.00,CLR,M,M,M,M,M,M,M,M,M,M,M,M,M,M,64.40,KLSV 122118Z AUTO 33011G18KT 10SM CLR 18/M03 A2981 RMK AO2 WSHFT 16 SLP088 $,M
LSV,2021-10-12 21:19,-115.0343,36.2362,570.00,64.40,26.60,23.77,10.00,11.00,0.00,29.82,1009.10,10.00,18.00,CLR,M,M,M,M,M,M,M,M,M,M,M,M,M,M,64.40,KLSV 122119Z AUTO 01011G18KT 10SM CLR 18/M03 A2982 RMK AO2 WSHFT 18 SLP091 $,M
BAM,2021-10-12 21:35,-116.8743,40.5990,1382.36,46.40,23.00,39.36,320.00,12.00,0.00,30.01,M,10.00,17.00,SCT,M,M,M,5500.00,M,M,M,M,M,M,M,M,M,M,40.33,KBAM 122135Z AUTO 32012G17KT 10SM SCT055 08/M05 A3001 RMK AO1,M
TMT,2021-10-12 21:35,-117.1971,39.4643,1749.34,35.00,22.10,59.19,330.00,10.00,0.00,30.03,M,10.00,M,SCT,SCT,M,M,3700.00,4300.00,M,M,M,M,M,M,M,M,M,26.60,KTMT 122135Z AUTO 33010KT 10SM SCT037 SCT043 02/M05 A3003 RMK AO2 T00161055,M
CXP,2021-10-12 21:35,-119.7326,39.1923,1431.00,46.40,14.00,26.75,M,3.00,0.00,30.06,M,10.00,M,CLR,M,M,M,M,M,M,M,M,M,M,M,M,M,M,45.15,KCXP 122135Z AUTO VRB03KT 10SM CLR 08/M10 A3006 RMK AO2,M
05U,2021-10-12 21:35,-116.0051,39.6042,1811.23,41.00,17.60,38.45,340.00,15.00,0.00,29.98,M,10.00,M,FEW,M,M,M,4200.00,M,M,M,M,M,M,M,M,M,M,32.45,K05U 122135Z AUTO 34015KT 10SM FEW042 05/M08 A2998 RMK A01,M
MEV,2021-10-12 21:35,-119.7500,38.9963,1441.42,48.20,14.00,24.99,210.00,9.00,0.00,30.05,M,10.00,M,CLR,M,M,M,M,M,M,M,M,M,M,M,M,M,M,43.66,KMEV 122135Z AUTO 21009KT 10SM CLR 09/M10 A3005 RMK AO2,M
HTH,2021-10-12 21:35,-118.6315,38.5448,1282.89,46.40,19.40,33.79,350.00,10.00,0.00,30.06,M,10.00,15.00,CLR,M,M,M,M,M,M,M,M,M,M,M,M,M,M,41.03,KHTH 122135Z AUTO 35010G15KT 10SM CLR 08/M07 A3006 RMK A01,M
BVU,2021-10-12 21:35,-114.8611,35.9475,671.00,62.60,24.80,23.50,350.00,8.00,0.00,29.85,M,10.00,15.00,CLR,M,M,M,M,M,M,M,M,M,M,M,M,M,M,62.60,KBVU 122135Z AUTO 35008G15KT 260V010 10SM CLR 17/M04 A2985 RMK AO2,M
RTS,2021-10-12 21:35,-119.8764,39.6682,1539.00,44.60,12.20,26.45,0.00,0.00,0.00,30.05,M,10.00,M,CLR,M,M,M,M,M,M,M,M,M,M,M,M,M,M,44.60,KRTS 122135Z AUTO 00000KT 10SM CLR 07/M11 A3005 RMK AO2,M
LOL,2021-10-12 21:53,-118.5701,40.0684,1192.43,51.00,10.90,19.56,20.00,5.00,0.00,30.02,1016.80,10.00,M,CLR,M,M,M,M,M,M,M,M,M,M,M,M,M,M,51.10,KLOL 122153Z AUTO 02005KT 10SM CLR 11/M12 A3002 RMK AO2 SLP168 T01061117,M
ELY,2021-10-12 21:53,-114.8453,39.2950,1909.00,34.00,26.10,72.52,330.00,11.00,0.00,29.90,1012.50,10.00,M,OVC,M,M,M,3100.00,M,M,M,M,M,M,M,M,M,M,24.99,KELY 122153Z AUTO 33011KT 10SM OVC031 01/M03 A2990 RMK AO2 SLP125 T00111033,M
P68,2021-10-12 21:53,-116.0056,39.6014,1993.00,40.00,19.00,42.62,340.00,11.00,0.00,29.96,1014.00,M,21.00,M,M,M,M,M,M,M,M,M,M,M,M,M,M,M,32.45,KP68 122153Z AUTO 34011G21KT 04/M07 A2996 RMK AO1 SLP140 T00441072,M
VGT,2021-10-12 21:53,-115.1933,36.2111,667.00,65.00,26.10,22.88,330.00,15.00,0.00,29.83,1011.10,10.00,21.00,CLR,M,M,M,M,M,M,M,DU,M,M,M,M,M,M,64.90,KVGT 122153Z 33015G21KT 10SM DU CLR 18/M03 A2983 RMK AO2 SLP111 T01831033,M
DRA,2021-10-12 21:53,-116.0278,36.6206,1009.00,61.00,21.90,22.02,270.00,8.00,0.00,29.85,1008.50,10.00,M,CLR,M,M,M,M,M,M,M,M,M,M,M,M,M,M,61.00,KDRA 122153Z AUTO 27008KT 10SM CLR 16/M06 A2985 RMK AO2 SLP085 T01611056,M
MEV,2021-10-12 21:55,-119.7500,38.9963,1441.42,46.40,12.20,24.71,160.00,4.00,0.00,30.05,M,10.00,10.00,CLR,M,M,M,M,M,M,M,M,M,M,M,M,M,M,44.24,KMEV 122155Z AUTO 16004G10KT 10SM CLR 08/M11 A3005 RMK AO2,M
RNO,2021-10-12 21:55,-119.7711,39.4839,1341.00,49.00,14.00,24.35,360.00,6.00,0.00,30.05,1016.90,10.00,M,FEW,SCT,M,M,5000.00,20000.00,M,M,M,M,M,M,M,M,M,45.88,KRNO 122155Z 36006KT 10SM FEW050 SCT200 09/M10 A3005 RMK AO2 SLP169 T00941100,M
TMT,2021-10-12 21:55,-117.1971,39.4643,1749.34,35.20,25.00,66.04,230.00,8.00,0.00,30.04,M,10.00,M,BKN,M,M,M,3700.00,M,M,M,M,M,M,M,M,M,M,28.05,KTMT 122155Z AUTO 23008KT 10SM BKN037 02/M04 A3004 RMK AO2 T00181039,M
BVU,2021-10-12 21:55,-114.8611,35.9475,671.00,62.60,23.00,21.79,350.00,4.00,0.00,29.86,M,10.00,10.00,CLR,M,M,M,M,M,M,M,M,M,M,M,M,M,M,62.60,KBVU 122155Z AUTO 35004G10KT 10SM CLR 17/M05 A2986 RMK AO2,M
BAM,2021-10-12 21:55,-116.8743,40.5990,1382.36,46.40,21.20,36.48,320.00,12.00,0.00,30.01,M,10.00,M,SCT,M,M,M,5500.00,M,M,M,M,M,M,M,M,M,M,40.33,KBAM 122155Z AUTO 32012KT 10SM SCT055 08/M06 A3001 RMK AO1,M
CXP,2021-10-12 21:55,-119.7326,39.1923,1431.00,48.20,14.00,24.99,240.00,5.00,0.00,30.05,M,10.00,M,CLR,M,M,M,M,M,M,M,M,M,M,M,M,M,M,45.63,KCXP 122155Z AUTO 24005KT 10SM CLR 09/M10 A3005 RMK AO2,M
RTS,2021-10-12 21:55,-119.8764,39.6682,1539.00,46.40,8.60,21.04,330.00,8.00,0.00,30.06,M,10.00,M,CLR,M,M,M,M,M,M,M,M,M,M,M,M,M,M,41.85,KRTS 122155Z AUTO 33008KT 290V360 10SM CLR 08/M13 A3006 RMK AO2,M
05U,2021-10-12 21:55,-116.0051,39.6042,1811.23,41.00,17.60,38.45,350.00,14.00,0.00,29.99,M,10.00,20.00,FEW,M,M,M,4200.00,M,M,M,M,M,M,M,M,M,M,32.76,K05U 122155Z AUTO 35014G20KT 10SM FEW042 05/M08 A2999 RMK A01,M
HTH,2021-10-12 21:55,-118.6315,38.5448,1282.89,46.40,17.60,31.28,330.00,9.00,0.00,30.06,M,10.00,17.00,CLR,M,M,M,M,M,M,M,M,M,M,M,M,M,M,41.42,KHTH 122155Z AUTO 33009G17KT 10SM CLR 08/M08 A3006 RMK A01,M
EKO,2021-10-12 21:56,-115.7860,40.8242,1367.00,44.00,19.00,36.25,320.00,11.00,0.00,29.95,1014.10,10.00,M,FEW,M,M,M,4700.00,M,M,M,M,M,M,M,M,M,M,37.76,KEKO 122156Z AUTO 32011KT 10SM FEW047 07/M07 A2995 RMK AO2 SLP141 T00671072,M
WMC,2021-10-12 21:56,-117.8072,40.9019,1315.00,49.00,16.00,26.57,350.00,8.00,0.00,30.00,1015.90,10.00,M,CLR,M,M,M,M,M,M,M,M,M,M,M,M,M,M,44.93,KWMC 122156Z AUTO 35008KT 10SM CLR 09/M09 A3000 RMK AO2 SLP159 T00941089 TSNO,M
NFL,2021-10-12 21:56,-118.7010,39.4166,1199.00,48.00,19.00,31.27,M,3.00,0.00,30.04,1014.30,10.00,M,SCT,SCT,M,M,7000.00,12000.00,M,M,M,M,M,M,M,M,M,46.98,KNFL 122156Z VRB03KT 10SM SCT070 SCT120 09/M07 A3004 RMK AO2 SLP143 T00891072,M
LAS,2021-10-12 21:56,-115.1634,36.0719,663.00,64.00,24.10,21.73,30.00,8.00,0.00,29.85,1009.80,10.00,M,FEW,M,M,M,9000.00,M,M,M,M,M,M,M,M,M,M,64.00,KLAS 122156Z 03008KT 10SM FEW090 18/M04 A2985 RMK AO2 SLP098 T01781044,M
HND,2021-10-12 21:56,-115.1344,35.9729,742.79,63.00,25.00,23.36,360.00,7.00,0.00,29.87,1012.50,10.00,M,CLR,M,M,M,M,M,M,M,M,M,M,M,M,M,M,63.00,KHND 122156Z 36007KT 10SM CLR 17/M04 A2987 RMK AO2 SLP125 T01721039,M
TPH,2021-10-12 21:56,-117.0904,38.0505,1654.00,47.00,19.00,32.59,310.00,24.00,0.00,29.94,1012.70,10.00,32.00,CLR,M,M,M,M,M,M,M,M,M,M,M,33.00,320.00,2021-10-12 21:18,38.16,KTPH 122156Z AUTO 31024G32KT 10SM CLR 08/M07 A2994 RMK AO2 PK WND 32033/2118 SLP127 T00831072,M
LSV,2021-10-12 21:58,-115.0343,36.2362,570.00,64.00,27.50,25.02,350.00,4.00,0.00,29.84,1009.80,10.00,M,CLR,M,M,M,M,M,M,M,M,M,M,M,M,M,M,64.00,KLSV 122158Z AUTO 35004KT 10SM CLR 18/M02 A2984 RMK AO2 SLP098 T01781025 $,M
INS,2021-10-12 21:58,-115.6733,36.5872,955.00,58.00,24.30,27.01,350.00,3.00,0.00,29.86,1009.40,10.00,M,CLR,M,M,M,M,M,M,M,M,M,M,M,M,M,M,58.10,KINS 122158Z AUTO 35003KT 10SM CLR 15/M04 A2986 RMK AO2 SLP094 T01451043 $,M
RTS,2021-10-12 22:15,-119.8764,39.6682,1539.00,44.60,8.60,22.53,330.00,6.00,0.00,30.06,M,10.00,11.00,CLR,M,M,M,M,M,M,M,M,M,M,M,M,M,M,40.71,KRTS 122215Z AUTO 33006G11KT 10SM CLR 07/M13 A3006 RMK AO2,M
MEV,2021-10-12 22:15,-119.7500,38.9963,1441.42,48.20,12.20,23.09,230.00,6.00,0.00,30.05,M,10.00,11.00,CLR,M,M,M,M,M,M,M,M,M,M,M,M,M,M,45.04,KMEV 122215Z AUTO 23006G11KT 10SM CLR 09/M11 A3005 RMK AO2,M
BAM,2021-10-12 22:15,-116.8743,40.5990,1382.36,46.40,21.20,36.48,320.00,9.00,0.00,30.01,M,10.00,17.00,CLR,M,M,M,M,M,M,M,M,M,M,M,M,M,M,41.42,KBAM 122215Z AUTO 32009G17KT 10SM CLR 08/M06 A3001 RMK AO1,M
BVU,2021-10-12 22:15,-114.8611,35.9475,671.00,62.60,23.00,21.79,M,6.00,0.00,29.86,M,10.00,14.00,CLR,M,M,M,M,M,M,M,M,M,M,M,M,M,M,62.60,KBVU 122215Z AUTO VRB06G14KT 10SM CLR 17/M05 A2986 RMK AO2,M
CXP,2021-10-12 22:15,-119.7326,39.1923,1431.00,50.00,14.00,23.37,M,5.00,0.00,30.06,M,10.00,M,CLR,M,M,M,M,M,M,M,M,M,M,M,M,M,M,50.00,KCXP 122215Z AUTO VRB05KT 10SM CLR 10/M10 A3006 RMK AO2,M
TMT,2021-10-12 22:15,-117.1971,39.4643,1749.34,35.00,23.50,62.28,220.00,4.00,0.00,30.04,M,10.00,M,SCT,OVC,M,M,3100.00,3700.00,M,M,M,M,M,M,M,M,M,31.04,KTMT 122215Z AUTO 22004KT 10SM SCT031 OVC037 02/M05 A3004 RMK AO2 T00171047,M
HTH,2021-10-12 22:15,-118.6315,38.5448,1282.89,46.40,19.40,33.79,320.00,9.00,0.00,30.06,M,10.00,M,CLR,M,M,M,M,M,M,M,M,M,M,M,M,M,M,41.42,KHTH 122215Z AUTO 32009KT 290V350 10SM CLR 08/M07 A3006 RMK A01,M
05U,2021-10-12 22:15,-116.0051,39.6042,1811.23,42.80,17.60,35.87,360.00,14.00,0.00,29.99,M,10.00,M,FEW,M,M,M,4300.00,M,M,M,M,M,M,M,M,M,M,35.08,K05U 122215Z AUTO 36014KT 10SM FEW043 06/M08 A2999 RMK A01,M
CXP,2021-10-12 22:35,-119.7326,39.1923,1431.00,51.80,14.00,21.86,330.00,6.00,0.00,30.06,M,10.00,M,CLR,M,M,M,M,M,M,M,M,M,M,M,M,M,M,51.80,KCXP 122235Z AUTO 33006KT 10SM CLR 11/M10 A3006 RMK AO2,M
TMT,2021-10-12 22:35,-117.1971,39.4643,1749.34,35.80,24.30,62.63,230.00,5.00,0.00,30.03,M,10.00,M,BKN,M,M,M,3700.00,M,M,M,M,M,M,M,M,M,M,30.91,KTMT 122235Z AUTO 23005KT 10SM BKN037 02/M04 A3003 RMK AO2 T00211043,M
MEV,2021-10-12 22:35,-119.7500,38.9963,1441.42,48.20,12.20,23.09,230.00,4.00,0.00,30.05,M,10.00,M,CLR,M,M,M,M,M,M,M,M,M,M,M,M,M,M,46.34,KMEV 122235Z AUTO 23004KT 10SM CLR 09/M11 A3005 RMK AO2,M
05U,2021-10-12 22:35,-116.0051,39.6042,1811.23,42.80,15.80,33.18,350.00,11.00,0.00,30.00,M,10.00,17.00,CLR,M,M,M,M,M,M,M,M,M,M,M,M,M,M,36.11,K05U 122235Z AUTO 35011G17KT 10SM CLR 06/M09 A3000 RMK A01,M
RTS,2021-10-12 22:35,-119.8764,39.6682,1539.00,46.40,5.00,17.87,M,5.00,0.00,30.06,M,10.00,M,CLR,M,M,M,M,M,M,M,M,M,M,M,M,M,M,43.50,KRTS 122235Z AUTO VRB05KT 10SM CLR 08/M15 A3006 RMK AO2,M
BVU,2021-10-12 22:35,-114.8611,35.9475,671.00,62.60,23.00,21.79,M,5.00,0.00,29.86,M,10.00,M,CLR,M,M,M,M,M,M,M,M,M,M,M,M,M,M,62.60,KBVU 122235Z AUTO VRB05KT 10SM CLR 17/M05 A2986 RMK AO2,M
HTH,2021-10-12 22:35,-118.6315,38.5448,1282.89,46.40,17.60,31.28,360.00,13.00,0.00,30.05,M,10.00,M,CLR,M,M,M,M,M,M,M,M,M,M,M,M,M,M,40.02,KHTH 122235Z AUTO 36013KT 10SM CLR 08/M08 A3005 RMK A01,M
BAM,2021-10-12 22:35,-116.8743,40.5990,1382.36,46.40,21.20,36.48,300.00,10.00,0.00,30.01,M,10.00,16.00,CLR,M,M,M,M,M,M,M,M,M,M,M,M,M,M,41.03,KBAM 122235Z AUTO 30010G16KT 10SM CLR 08/M06 A3001 RMK AO1,M
P68,2021-10-12 22:53,-116.0056,39.6014,1993.00,41.00,19.00,40.83,350.00,13.00,0.00,29.98,1014.30,M,21.00,M,M,M,M,M,M,M,M,M,M,M,M,M,M,M,33.10,KP68 122253Z AUTO 35013G21KT 05/M07 A2998 RMK AO1 SLP143 T00501072,M
VGT,2021-10-12 22:53,-115.1933,36.2111,667.00,65.00,26.10,22.88,360.00,11.00,0.00,29.84,1011.40,10.00,M,CLR,M,M,M,M,M,M,M,DU,M,M,M,M,M,M,64.90,KVGT 122253Z 36011KT 10SM DU CLR 18/M03 A2984 RMK AO2 SLP114 T01831033,M
LOL,2021-10-12 22:53,-118.5701,40.0684,1192.43,52.00,8.10,16.69,M,6.00,0.00,30.03,1017.00,10.00,M,CLR,M,M,M,M,M,M,M,M,M,M,M,M,M,M,52.00,KLOL 122253Z AUTO VRB06KT 10SM CLR 11/M13 A3003 RMK AO2 SLP170 T01111133,M
ELY,2021-10-12 22:53,-114.8453,39.2950,1909.00,34.00,26.10,72.52,330.00,13.00,0.00,29.92,1013.30,10.00,M,OVC,M,M,M,3100.00,M,M,M,M,M,M,M,M,M,M,24.13,KELY 122253Z AUTO 33013KT 10SM OVC031 01/M03 A2992 RMK AO2 SLP133 T00111033,M
DRA,2021-10-12 22:53,-116.0278,36.6206,1009.00,61.00,21.00,21.19,M,M,0.00,29.86,1009.00,10.00,M,CLR,M,M,M,M,M,M,M,M,M,M,M,M,M,M,61.00,KDRA 122253Z AUTO 10SM CLR 16/M06 A2986 RMK AO2 SLP090 T01611061,M
RNO,2021-10-12 22:55,-119.7711,39.4839,1341.00,48.00,14.00,25.18,0.00,0.00,0.00,30.05,1017.00,10.00,M,FEW,SCT,M,M,5500.00,22000.00,M,M,M,M,M,M,M,M,M,48.00,KRNO 122255Z 00000KT 10SM FEW055 SCT220 09/M10 A3005 RMK AO2 SLP170 T00891100,M
BVU,2021-10-12 22:55,-114.8611,35.9475,671.00,62.60,23.00,21.79,M,5.00,0.00,29.86,M,10.00,13.00,CLR,M,M,M,M,M,M,M,M,M,M,M,M,M,M,62.60,KBVU 122255Z AUTO VRB05G13KT 10SM CLR 17/M05 A2986 RMK AO2,M
CXP,2021-10-12 22:55,-119.7326,39.1923,1431.00,50.00,14.00,23.37,M,3.00,0.00,30.05,M,10.00,M,CLR,M,M,M,M,M,M,M,M,M,M,M,M,M,M,50.00,KCXP 122255Z AUTO VRB03KT 10SM CLR 10/M10 A3005 RMK AO2,M
HTH,2021-10-12 22:55,-118.6315,38.5448,1282.89,48.20,17.60,29.23,340.00,8.00,0.00,30.06,M,10.00,16.00,CLR,M,M,M,M,M,M,M,M,M,M,M,M,M,M,44.07,KHTH 122255Z AUTO 34008G16KT 10SM CLR 09/M08 A3006 RMK A01,M
BAM,2021-10-12 22:55,-116.8743,40.5990,1382.36,46.40,21.20,36.48,320.00,11.00,0.00,30.01,M,10.00,19.00,CLR,M,M,M,M,M,M,M,M,M,M,M,M,M,M,40.66,KBAM 122255Z AUTO 32011G19KT 10SM CLR 08/M06 A3001 RMK AO1,M
TMT,2021-10-12 22:55,-117.1971,39.4643,1749.34,36.30,24.10,60.90,220.00,5.00,0.00,30.04,M,10.00,M,SCT,OVC,M,M,3500.00,4100.00,M,M,M,M,M,M,M,M,M,31.50,KTMT 122255Z AUTO 22005KT 10SM SCT035 OVC041 02/M04 A3004 RMK AO2 T00241044,M
MEV,2021-10-12 22:55,-119.7500,38.9963,1441.42,48.20,12.20,23.09,M,5.00,0.00,30.05,M,10.00,M,CLR,M,M,M,M,M,M,M,M,M,M,M,M,M,M,45.63,KMEV 122255Z AUTO VRB05KT 10SM CLR 09/M11 A3005 RMK AO2,M
05U,2021-10-12 22:55,-116.0051,39.6042,1811.23,41.00,15.80,35.57,360.00,13.00,0.00,30.00,M,10.00,19.00,CLR,M,M,M,M,M,M,M,M,M,M,M,M,M,M,33.10,K05U 122255Z AUTO 36013G19KT 10SM CLR 05/M09 A3000 RMK A01,M
RTS,2021-10-12 22:55,-119.8764,39.6682,1539.00,46.40,6.80,19.40,M,6.00,0.00,30.06,M,10.00,11.00,CLR,M,M,M,M,M,M,M,M,M,M,M,M,M,M,42.87,KRTS 122255Z AUTO VRB06G11KT 10SM CLR 08/M14 A3006 RMK AO2,M
WMC,2021-10-12 22:56,-117.8072,40.9019,1315.00,50.00,12.90,22.27,300.00,6.00,0.00,30.01,1016.10,10.00,M,CLR,M,M,M,M,M,M,M,M,M,M,M,M,M,M,50.00,KWMC 122256Z AUTO 30006KT 10SM CLR 10/M11 A3001 RMK AO2 SLP161 T01001106 TSNO,M
NFL,2021-10-12 22:56,-118.7010,39.4166,1199.00,50.00,16.00,25.50,360.00,6.00,0.00,30.05,1014.40,10.00,M,FEW,SCT,M,M,6000.00,20000.00,M,M,M,M,M,M,M,M,M,50.00,KNFL 122256Z 36006KT 10SM FEW060 SCT200 10/M09 A3005 RMK AO2 SLP144 T01001089,M
HND,2021-10-12 22:56,-115.1344,35.9729,742.79,63.00,25.00,23.36,270.00,4.00,0.00,29.88,1012.70,10.00,M,CLR,M,M,M,M,M,M,M,M,M,M,M,M,M,M,63.00,KHND 122256Z 27004KT 10SM CLR 17/M04 A2988 RMK AO2 SLP127 T01721039,M
TPH,2021-10-12 22:56,-117.0904,38.0505,1654.00,46.00,19.00,33.72,310.00,22.00,0.00,29.95,1013.30,10.00,34.00,CLR,M,M,M,M,M,M,M,M,M,M,M,35.00,320.00,2021-10-12 22:10,37.33,KTPH 122256Z AUTO 31022G34KT 10SM CLR 08/M07 A2995 RMK AO2 PK WND 32035/2210 SLP133 T00781072,M
LAS,2021-10-12 22:56,-115.1634,36.0719,663.00,64.00,24.10,21.73,340.00,9.00,0.00,29.85,1010.00,10.00,17.00,FEW,M,M,M,9000.00,M,M,M,M,M,M,M,M,M,M,64.00,KLAS 122256Z 34009G17KT 10SM FEW090 18/M04 A2985 RMK AO2 SLP100 T01781044,M
EKO,2021-10-12 22:56,-115.7860,40.8242,1367.00,44.00,19.00,36.25,300.00,14.00,0.00,29.97,1014.60,10.00,M,SCT,M,M,M,4700.00,M,M,M,M,M,M,M,M,M,M,36.76,KEKO 122256Z AUTO 30014KT 10SM SCT047 07/M07 A2997 RMK AO2 SLP146 T00671072,M
LSV,2021-10-12 22:58,-115.0343,36.2362,570.00,65.00,28.20,24.95,20.00,4.00,0.00,29.84,1009.80,10.00,M,FEW,M,M,M,8500.00,M,M,M,M,M,M,M,M,M,M,64.90,KLSV 122258Z AUTO 02004KT 10SM FEW085 18/M02 A2984 RMK AO2 SLP098 T01831021 $,M
INS,2021-10-12 22:58,-115.6733,36.5872,955.00,58.80,23.00,24.94,0.00,0.00,0.00,29.87,1009.60,10.00,M,CLR,M,M,M,M,M,M,M,M,M,M,M,M,M,M,58.80,KINS 122258Z AUTO 00000KT 10SM CLR 15/M05 A2987 RMK AO2 SLP096 T01491050 $,M
TMT,2021-10-12 23:15,-117.1971,39.4643,1749.34,36.00,22.30,56.91,0.00,0.00,0.00,30.05,M,10.00,M,BKN,M,M,M,4100.00,M,M,M,M,M,M,M,M,M,M,36.10,KTMT 122315Z AUTO 00000KT 10SM BKN041 02/M05 A3005 RMK AO2 T00231054,M
RTS,2021-10-12 23:15,-119.8764,39.6682,1539.00,46.40,6.80,19.40,M,4.00,0.00,30.05,M,10.00,11.00,CLR,M,M,M,M,M,M,M,M,M,M,M,M,M,M,44.24,KRTS 122315Z AUTO VRB04G11KT 10SM CLR 08/M14 A3005 RMK AO2,M
05U,2021-10-12 23:15,-116.0051,39.6042,1811.23,41.00,17.60,38.45,360.00,13.00,0.00,30.00,M,10.00,M,CLR,M,M,M,M,M,M,M,M,M,M,M,M,M,M,33.10,K05U 122315Z AUTO 36013KT 10SM CLR 05/M08 A3000 RMK A01,M
HTH,2021-10-12 23:15,-118.6315,38.5448,1282.89,46.40,17.60,31.28,340.00,8.00,0.00,30.06,M,10.00,14.00,CLR,M,M,M,M,M,M,M,M,M,M,M,M,M,M,41.85,KHTH 122315Z AUTO 34008G14KT 10SM CLR 08/M08 A3006 RMK A01,M
BAM,2021-10-12 23:15,-116.8743,40.5990,1382.36,46.40,19.40,33.79,330.00,9.00,0.00,30.01,M,10.00,M,CLR,M,M,M,M,M,M,M,M,M,M,M,M,M,M,41.42,KBAM 122315Z AUTO 33009KT 10SM CLR 08/M07 A3001 RMK AO1,M
MEV,2021-10-12 23:15,-119.7500,38.9963,1441.42,48.20,10.40,21.31,260.00,7.00,0.00,30.05,M,10.00,M,CLR,M,M,M,M,M,M,M,M,M,M,M,M,M,M,44.53,KMEV 122315Z AUTO 26007KT 10SM CLR 09/M12 A3005 RMK AO2,M
CXP,2021-10-12 23:15,-119.7326,39.1923,1431.00,51.80,10.40,18.64,310.00,7.00,0.00,30.06,M,10.00,12.00,CLR,M,M,M,M,M,M,M,M,M,M,M,M,M,M,51.80,KCXP 122315Z AUTO 31007G12KT 10SM CLR 11/M12 A3006 RMK AO2,M
BVU,2021-10-12 23:15,-114.8611,35.9475,671.00,62.60,23.00,21.79,M,5.00,0.00,29.87,M,10.00,15.00,CLR,M,M,M,M,M,M,M,M,M,M,M,M,M,M,62.60,KBVU 122315Z AUTO VRB05G15KT 10SM CLR 17/M05 A2987 RMK AO2,M
05U,2021-10-12 23:35,-116.0051,39.6042,1811.23,41.00,15.80,35.57,350.00,14.00,0.00,30.01,M,10.00,19.00,CLR,M,M,M,M,M,M,M,M,M,M,M,M,M,M,32.76,K05U 122335Z AUTO 35014G19KT 10SM CLR 05/M09 A3001 RMK A01,M
RTS,2021-10-12 23:35,-119.8764,39.6682,1539.00,46.40,8.60,21.04,M,4.00,0.00,30.05,M,10.00,14.00,CLR,M,M,M,M,M,M,M,M,M,M,M,M,M,M,44.24,KRTS 122335Z AUTO VRB04G14KT 10SM CLR 08/M13 A3005 RMK AO2,M
BVU,2021-10-12 23:35,-114.8611,35.9475,671.00,64.40,23.00,20.46,M,6.00,0.00,29.87,M,10.00,M,CLR,M,M,M,M,M,M,M,M,M,M,M,M,M,M,64.40,KBVU 122335Z AUTO VRB06KT 10SM CLR 18/M05 A2987 RMK AO2,M
MEV,2021-10-12 23:35,-119.7500,38.9963,1441.42,48.20,10.40,21.31,0.00,0.00,0.00,30.05,M,10.00,M,CLR,M,M,M,M,M,M,M,M,M,M,M,M,M,M,48.20,KMEV 122335Z AUTO 00000KT 10SM CLR 09/M12 A3005 RMK AO2,M
CXP,2021-10-12 23:35,-119.7326,39.1923,1431.00,51.80,3.20,13.45,300.00,9.00,0.00,30.05,M,10.00,M,CLR,M,M,M,M,M,M,M,M,M,M,M,M,M,M,51.80,KCXP 122335Z AUTO 30009KT 10SM CLR 11/M16 A3005 RMK AO2,M
TMT,2021-10-12 23:35,-117.1971,39.4643,1749.34,35.60,23.70,61.57,180.00,3.00,0.00,30.05,M,10.00,M,SCT,M,M,M,4100.00,M,M,M,M,M,M,M,M,M,M,32.80,KTMT 122335Z AUTO 18003KT 10SM SCT041 02/M05 A3005 RMK AO2 T00201046,M
HTH,2021-10-12 23:35,-118.6315,38.5448,1282.89,46.40,15.80,28.93,350.00,8.00,0.00,30.07,M,10.00,M,CLR,M,M,M,M,M,M,M,M,M,M,M,M,M,M,41.85,KHTH 122335Z AUTO 35008KT 10SM CLR 08/M09 A3007 RMK A01,M
BAM,2021-10-12 23:35,-116.8743,40.5990,1382.36,46.40,19.40,33.79,330.00,7.00,0.00,30.02,M,10.00,M,CLR,M,M,M,M,M,M,M,M,M,M,M,M,M,M,42.33,KBAM 122335Z AUTO 33007KT 10SM CLR 08/M07 A3002 RMK AO1,M
LOL,2021-10-12 23:53,-118.5701,40.0684,1192.43,52.00,10.00,18.18,150.00,5.00,0.00,30.02,1016.80,10.00,M,CLR,M,M,M,M,M,M,M,M,M,M,M,M,M,M,52.00,KLOL 122353Z AUTO 15005KT 10SM CLR 11/M12 A3002 RMK AO2 SLP168 T01111122 10122 20067 57002,M
P68,2021-10-12 23:53,-116.0056,39.6014,1993.00,39.00,18.00,42.28,360.00,12.00,0.00,29.99,1015.10,M,21.00,M,M,M,M,M,M,M,M,M,M,M,M,M,M,M,30.91,KP68 122353Z AUTO 36012G21KT 04/M08 A2999 RMK AO1 SLP151 T00391078 10050 20006 53011,M
VGT,2021-10-12 23:53,-115.1933,36.2111,667.00,65.00,26.10,22.88,300.00,9.00,0.00,29.85,1011.80,10.00,M,CLR,M,M,M,M,M,M,M,DU,M,M,M,M,M,M,64.90,KVGT 122353Z 30009KT 10SM DU CLR 18/M03 A2985 RMK AO2 SLP118 60000 T01831033 10189 20150 51010,M
ELY,2021-10-12 23:53,-114.8453,39.2950,1909.00,34.00,25.00,69.28,330.00,11.00,0.00,29.94,1013.90,10.00,18.00,OVC,M,M,M,3200.00,M,M,M,M,M,M,M,M,M,M,24.99,KELY 122353Z AUTO 33011G18KT 10SM OVC032 01/M04 A2994 RMK AO2 SLP139 T00111039 10017 20006 51018,M
DRA,2021-10-12 23:53,-116.0278,36.6206,1009.00,61.00,21.90,22.02,M,5.00,0.00,29.87,1009.40,10.00,M,CLR,M,M,M,M,M,M,M,M,M,M,M,M,M,M,61.00,KDRA 122353Z AUTO VRB05KT 10SM CLR 16/M06 A2987 RMK AO2 SLP094 T01611056 10167 20117 53009,M
RTS,2021-10-12 23:55,-119.8764,39.6682,1539.00,46.40,6.80,19.40,330.00,8.00,0.00,30.05,M,10.00,14.00,CLR,M,M,M,M,M,M,M,M,M,M,M,M,M,M,41.85,KRTS 122355Z AUTO 33008G14KT 10SM CLR 08/M14 A3005 RMK AO2,M
RNO,2021-10-12 23:55,-119.7711,39.4839,1341.00,49.00,12.90,23.20,110.00,5.00,0.00,30.04,1016.80,10.00,M,FEW,M,M,M,22000.00,M,M,M,M,M,M,M,M,M,M,46.47,KRNO 122355Z 11005KT 10SM FEW220 09/M11 A3004 RMK AO2 SLP168 T00941106 10100 20039 57004,M
05U,2021-10-12 23:55,-116.0051,39.6042,1811.23,41.00,15.80,35.57,360.00,13.00,0.00,30.01,M,10.00,M,CLR,M,M,M,M,M,M,M,M,M,M,M,M,M,M,33.10,K05U 122355Z AUTO 36013KT 10SM CLR 05/M09 A3001 RMK A01,M
MEV,2021-10-12 23:55,-119.7500,38.9963,1441.42,48.20,12.20,23.09,250.00,6.00,0.00,30.05,M,10.00,M,CLR,M,M,M,M,M,M,M,M,M,M,M,M,M,M,45.04,KMEV 122355Z AUTO 25006KT 10SM CLR 09/M11 A3005 RMK AO2,M
BAM,2021-10-12 23:55,-116.8743,40.5990,1382.36,46.40,19.40,33.79,290.00,7.00,0.00,30.03,M,10.00,M,CLR,M,M,M,M,M,M,M,M,M,M,M,M,M,M,42.33,KBAM 122355Z AUTO 29007KT 10SM CLR 08/M07 A3003 RMK AO1,M
HTH,2021-10-12 23:55,-118.6315,38.5448,1282.89,46.40,15.80,28.93,350.00,6.00,0.00,30.07,M,10.00,15.00,CLR,M,M,M,M,M,M,M,M,M,M,M,M,M,M,42.87,KHTH 122355Z AUTO 35006G15KT 10SM CLR 08/M09 A3007 RMK A01,M
BVU,2021-10-12 23:55,-114.8611,35.9475,671.00,62.60,23.00,21.79,350.00,6.00,0.00,29.88,M,10.00,M,CLR,M,M,M,M,M,M,M,M,M,M,M,M,M,M,62.60,KBVU 122355Z AUTO 35006KT 10SM CLR 17/M05 A2988 RMK AO2,M
TMT,2021-10-12 23:55,-117.1971,39.4643,1749.34,36.30,23.20,58.64,0.00,0.00,0.00,30.06,M,10.00,M,BKN,M,M,M,4500.00,M,M,M,M,M,M,M,M,M,M,36.30,KTMT 122355Z AUTO 00000KT 10SM BKN045 02/M05 A3006 RMK AO2 T00241049 10027 21004,M
CXP,2021-10-12 23:55,-119.7326,39.1923,1431.00,51.80,5.00,14.61,300.00,10.00,0.00,30.05,M,10.00,M,CLR,M,M,M,M,M,M,M,M,M,M,M,M,M,M,51.80,KCXP 122355Z AUTO 30010KT 10SM CLR 11/M15 A3005 RMK AO2,M
EKO,2021-10-12 23:56,-115.7860,40.8242,1367.00,43.00,19.00,37.81,290.00,8.00,0.00,29.98,1015.40,10.00,17.00,CLR,M,M,M,M,M,M,M,M,M,M,M,M,M,M,37.66,KEKO 122356Z AUTO 29008G17KT 10SM CLR 06/M07 A2998 RMK AO2 SLP154 T00611072 10067 20039 53011,M
NFL,2021-10-12 23:56,-118.7010,39.4166,1199.00,50.00,16.00,25.50,50.00,4.00,0.00,30.05,1014.50,M,M,CLR,M,M,M,M,M,M,M,M,M,M,M,M,M,M,50.00,KNFL 122356Z AUTO 05004KT CLR 10/M09 A3005 RMK AO2 SLP145 T01001089 10100 20044 55000 $,M
HND,2021-10-12 23:56,-115.1344,35.9729,742.79,63.00,25.00,23.36,340.00,7.00,0.00,29.89,1013.10,10.00,M,CLR,M,M,M,M,M,M,M,M,M,M,M,M,M,M,63.00,KHND 122356Z 34007KT 10SM CLR 17/M04 A2989 RMK AO2 SLP131 T01721039 10178 20144 51010,M
WMC,2021-10-12 23:56,-117.8072,40.9019,1315.00,50.00,10.00,19.58,330.00,7.00,0.00,30.01,1016.20,10.00,M,CLR,M,M,M,M,M,M,M,M,M,M,M,M,M,M,50.00,KWMC 122356Z AUTO 33007KT 10SM CLR 10/M12 A3001 RMK AO2 SLP162 T01001122 10100 20061 53001 TSNO,M
TPH,2021-10-12 23:56,-117.0904,38.0505,1654.00,45.00,19.00,35.02,320.00,28.00,0.00,29.96,1013.90,10.00,35.00,CLR,M,M,M,M,M,M,M,M,M,M,M,36.00,310.00,2021-10-12 23:06,34.90,KTPH 122356Z AUTO 32028G35KT 10SM CLR 07/M07 A2996 RMK AO2 PK WND 31036/2306 SLP139 T00721072 10089 20044 53007,M
LAS,2021-10-12 23:56,-115.1634,36.0719,663.00,64.00,25.00,22.56,340.00,4.00,0.00,29.87,1010.60,10.00,M,FEW,M,M,M,9000.00,M,M,M,M,M,M,M,M,M,M,64.00,KLAS 122356Z 34004KT 10SM FEW090 18/M04 A2987 RMK AO2 SLP106 T01781039 10183 20144 53010,M
LSV,2021-10-12 23:58,-115.0343,36.2362,570.00,64.40,27.90,25.08,10.00,6.00,0.00,29.86,1010.50,10.00,M,CLR,M,M,M,M,M,M,M,M,M,M,M,M,M,M,64.40,KLSV 122358Z 01006KT 10SM CLR 18/M02 A2986 RMK AO2A SLP105 T01801023 10193 20154 52012 $,M
INS,2021-10-12 23:58,-115.6733,36.5872,955.00,59.50,23.70,25.05,0.00,0.00,0.00,29.88,1009.90,10.00,M,CLR,M,M,M,M,M,M,M,M,M,M,M,M,M,M,59.50,KINS 122358Z AUTO 00000KT 10SM CLR 15/M05 A2988 RMK AO2 SLP099 T01531046 10154 20107 53008 $,M
