station,valid,lon,lat,elevation,tmpf,dwpf,relh,drct,sknt,p01i,alti,mslp,vsby,gust,skyc1,skyc2,skyc3,skyc4,skyl1,skyl2,skyl3,skyl4,wxcodes,ice_accretion_1hr,ice_accretion_3hr,ice_accretion_6hr,peak_wind_gust,peak_wind_drct,peak_wind_time,feel,metar,snowdepth
BVU,2024-09-09 00:15,-114.8611,35.9475,671.00,98.60,42.80,14.87,220.00,9.00,0.00,29.83,M,10.00,M,CLR,M,M,M,M,M,M,M,VCTS,M,M,M,M,M,M,94.30,KBVU 090015Z AUTO 22009KT 10SM VCTS CLR 37/06 A2983 RMK AO2 LTG DSNT SW AND W,M
BAM,2024-09-09 00:15,-116.8743,40.5990,1382.36,91.40,32.00,12.14,250.00,16.00,0.00,30.00,M,10.00,21.00,CLR,M,M,M,M,M,M,M,M,M,M,M,M,M,M,86.91,KBAM 090015Z AUTO 25016G21KT 10SM CLR 33/00 A3000 RMK AO1,M
TMT,2024-09-09 00:15,-117.1971,39.4643,1749.34,87.40,32.00,13.77,230.00,6.00,0.00,30.08,M,10.00,9.00,CLR,M,M,M,M,M,M,M,M,M,M,M,M,M,M,83.76,KTMT 090015Z AUTO 23006G09KT 10SM CLR 31/00 A3008 RMK AO2 T03080000,M
BVU,2024-09-09 00:35,-114.8611,35.9475,671.00,98.60,44.60,15.93,230.00,5.00,0.00,29.83,M,10.00,M,CLR,M,M,M,M,M,M,M,M,M,M,M,M,M,M,94.55,KBVU 090035Z AUTO 23005KT 10SM CLR 37/07 A2983 RMK AO2 LTG DSNT SE AND SW,M
BAM,2024-09-09 00:35,-116.8743,40.5990,1382.36,91.40,32.00,12.14,260.00,11.00,0.00,30.00,M,10.00,18.00,CLR,M,M,M,M,M,M,M,M,M,M,M,M,M,M,86.91,KBAM 090035Z AUTO 26011G18KT 10SM CLR 33/00 A3000 RMK AO1,M
TMT,2024-09-09 00:35,-117.1971,39.4643,1749.34,86.40,31.50,13.93,270.00,5.00,0.00,30.08,M,10.00,M,CLR,M,M,M,M,M,M,M,M,M,M,M,M,M,M,82.95,KTMT 090035Z AUTO 27005KT 10SM CLR 30/00 A3008 RMK AO2 T03021003,M
P68,2024-09-09 00:53,-116.0056,39.6014,1993.00,76.00,39.00,26.34,160.00,11.00,0.00,30.14,1013.10,M,25.00,M,M,M,M,M,M,M,M,M,M,M,M,M,M,M,76.00,KP68 090053Z AUTO 16011G25KT 24/04 A3014 RMK AO1 SLP131 T02440039,M
DRA,2024-09-09 00:53,-116.0278,36.6206,1009.00,94.00,46.00,19.34,120.00,16.00,0.00,29.92,1007.70,10.00,23.00,CLR,M,M,M,M,M,M,M,M,M,M,M,30.00,130.00,2024-09-08 23:59,90.27,KDRA 090053Z AUTO 12016G23KT 10SM CLR 34/08 A2992 RMK AO2 PK WND 13030/2359 SLP077 T03440078,M
ELY,2024-09-09 00:53,-114.8453,39.2950,1909.00,65.00,49.00,56.13,70.00,8.00,T,30.22,1015.70,10.00,M,SCT,M,M,M,9000.00,M,M,M,M,M,M,M,M,M,M,65.00,KELY 090053Z AUTO 07008KT 10SM SCT090 18/09 A3022 RMK AO2 RAB39E48 SLP157 P0000 T01830094,M
VGT,2024-09-09 00:53,-115.1933,36.2111,667.00,99.00,44.00,15.38,300.00,8.00,0.00,29.84,1009.00,10.00,M,CLR,M,M,M,M,M,M,M,M,M,M,M,M,M,M,94.85,KVGT 090053Z 30008KT 10SM CLR 37/07 A2984 RMK AO2 SLP090 T03720067,M
LOL,2024-09-09 00:53,-118.5701,40.0684,1192.43,90.00,30.00,11.70,270.00,16.00,0.00,29.93,1010.20,10.00,M,CLR,M,M,M,M,M,M,M,M,M,M,M,M,M,M,85.63,KLOL 090053Z AUTO 27016KT 10SM CLR 32/M01 A2993 RMK AO2 SLP102 T03221011,M
BVU,2024-09-09 00:55,-114.8611,35.9475,671.00,98.60,42.80,14.87,M,5.00,0.00,29.84,M,10.00,M,CLR,M,M,M,M,M,M,M,M,M,M,M,M,M,M,94.30,KBVU 090055Z AUTO VRB05KT 10SM CLR 37/06 A2984 RMK AO2,M
INS,2024-09-09 00:55,-115.6733,36.5872,955.00,M,M,M,200.00,12.00,0.00,M,M,10.00,M,M,M,M,M,M,M,M,M,M,M,M,M,26.00,180.00,2024-09-09 00:09,M,KINS 090055Z AUTO 20012KT 10SM M M M RMK AO2 PK WND 18026/09 SLPNO RVRNO TSNO $,M
RNO,2024-09-09 00:55,-119.7711,39.4839,1341.00,87.00,29.00,12.35,280.00,14.00,0.00,30.01,1011.00,10.00,22.00,SCT,M,M,M,5000.00,M,M,M,M,M,M,M,M,M,M,83.31,KRNO 090055Z 28014G22KT 10SM SCT050 31/M02 A3001 RMK AO2 SLP110 FU SCT050 FU PLUME S T03061017,M
LSV,2024-09-09 00:55,-115.0343,36.2362,570.00,99.50,40.00,12.99,300.00,7.00,0.00,29.78,1005.30,10.00,M,CLR,M,M,M,M,M,M,M,M,M,M,M,M,M,M,94.83,KLSV 090055Z AUTO 30007KT 10SM CLR 38/04 A2978 RMK AO2 SLP053 T03750044 $,M
BAM,2024-09-09 00:55,-116.8743,40.5990,1382.36,89.60,32.00,12.84,260.00,10.00,0.00,29.99,M,10.00,20.00,CLR,M,M,M,M,M,M,M,M,M,M,M,M,M,M,85.54,KBAM 090055Z AUTO 26010G20KT 10SM CLR 32/00 A2999 RMK AO1,M
TMT,2024-09-09 00:55,-117.1971,39.4643,1749.34,86.00,32.00,14.40,300.00,4.00,0.00,30.08,M,10.00,M,CLR,M,M,M,M,M,M,M,M,M,M,M,M,M,M,82.64,KTMT 090055Z AUTO 30004KT 10SM CLR 30/00 A3008 RMK AO2 T02991001,M
EKO,2024-09-09 00:56,-115.7860,40.8242,1367.00,88.00,32.00,13.51,250.00,13.00,0.00,30.02,1010.50,10.00,M,CLR,M,M,M,M,M,M,M,M,M,M,M,M,M,M,84.24,KEKO 090056Z AUTO 25013KT 10SM CLR 31/00 A3002 RMK AO2 SLP105 T03110000,M
WMC,2024-09-09 00:56,-117.8072,40.9019,1315.00,89.00,30.00,12.07,270.00,8.00,0.00,29.97,1010.50,10.00,M,CLR,M,M,M,M,M,M,M,M,M,M,M,M,M,M,84.88,KWMC 090056Z AUTO 27008KT 10SM CLR 32/M01 A2997 RMK AO2 SLP105 T03171011,M
HND,2024-09-09 00:56,-115.1344,35.9729,742.79,93.00,53.00,25.90,230.00,13.00,0.00,29.90,1010.90,10.00,M,CLR,M,M,M,M,M,M,M,M,M,M,M,M,M,M,90.52,KHND 090056Z 23013KT 10SM CLR 34/12 A2990 RMK AO2 LTG DSNT SW SLP109 T03390117,M
TPH,2024-09-09 00:56,-117.0904,38.0505,1654.00,87.00,30.00,12.86,190.00,11.00,0.00,30.04,1009.10,10.00,M,CLR,M,M,M,M,M,M,M,M,M,M,M,M,M,M,83.40,KTPH 090056Z AUTO 19011KT 10SM CLR 31/M01 A3004 RMK AO2 SLP091 T03061011,M
LAS,2024-09-09 00:56,-115.1634,36.0719,663.00,96.00,48.00,19.61,200.00,9.00,0.00,29.86,1008.20,10.00,15.00,FEW,FEW,SCT,BKN,8500.00,10000.00,12000.00,16000.00,M,M,M,M,M,M,M,92.52,KLAS 090056Z 20009G15KT 10SM FEW085 FEW100 SCT120 BKN160 BKN220 36/09 A2986 RMK AO2 SLP082 CB DSNT NE-SE AND SW SH DSNT S-SW AND NW T03560089 $,M
NFL,2024-09-09 00:57,-118.7010,39.4166,1199.00,93.00,34.00,12.51,280.00,11.00,0.00,29.94,1011.20,10.00,M,CLR,M,M,M,M,M,M,M,M,M,M,M,M,M,M,88.42,KNFL 090057Z 28011KT 10SM CLR 34/01 A2994 RMK AO2 SLP112 T03390011,M
BVU,2024-09-09 01:15,-114.8611,35.9475,671.00,98.60,44.60,15.93,310.00,6.00,0.00,29.84,M,10.00,M,CLR,M,M,M,M,M,M,M,M,M,M,M,M,M,M,94.55,KBVU 090115Z AUTO 31006KT 10SM CLR 37/07 A2984 RMK AO2 LTG DSNT E,M
BAM,2024-09-09 01:15,-116.8743,40.5990,1382.36,89.60,32.00,12.84,250.00,10.00,0.00,29.99,M,10.00,M,CLR,M,M,M,M,M,M,M,M,M,M,M,M,M,M,85.54,KBAM 090115Z AUTO 25010KT 10SM CLR 32/00 A2999 RMK AO1,M
TMT,2024-09-09 01:15,-117.1971,39.4643,1749.34,84.40,31.60,14.91,320.00,9.00,0.00,30.08,M,10.00,M,CLR,M,M,M,M,M,M,M,M,M,M,M,M,M,M,81.42,KTMT 090115Z AUTO 32009KT 10SM CLR 29/00 A3008 RMK AO2 T02911002,M
INS,2024-09-09 01:18,-115.6733,36.5872,955.00,84.20,35.60,17.61,170.00,17.00,0.00,29.92,M,10.00,M,BKN,M,M,M,13000.00,M,M,M,M,M,M,M,M,M,M,81.34,KINS 090118Z 17017KT 10SM BKN130 29/02 A2992,M
BAM,2024-09-09 01:35,-116.8743,40.5990,1382.36,89.60,32.00,12.84,280.00,8.00,0.00,29.99,M,10.00,M,CLR,M,M,M,M,M,M,M,M,M,M,M,M,M,M,85.54,KBAM 090135Z AUTO 28008KT 10SM CLR 32/00 A2999 RMK AO1,M
TMT,2024-09-09 01:35,-117.1971,39.4643,1749.34,82.80,31.30,15.51,320.00,8.00,0.00,30.09,M,10.00,M,CLR,M,M,M,M,M,M,M,M,M,M,M,M,M,M,80.26,KTMT 090135Z AUTO 32008KT 10SM CLR 28/00 A3009 RMK AO2 T02821004,M
BVU,2024-09-09 01:35,-114.8611,35.9475,671.00,96.80,44.60,16.83,200.00,7.00,0.00,29.84,M,10.00,M,CLR,M,M,M,M,M,M,M,M,M,M,M,M,M,M,92.79,KBVU 090135Z AUTO 20007KT 10SM CLR 36/07 A2984 RMK AO2 LTG DSNT E,M
P68,2024-09-09 01:53,-116.0056,39.6014,1993.00,74.00,39.00,28.16,140.00,8.00,0.00,30.13,1012.70,M,23.00,M,M,M,M,M,M,M,M,M,M,M,M,M,M,M,74.00,KP68 090153Z AUTO 14008G23KT 23/04 A3013 RMK AO1 SLP127 T02330039,M
DRA,2024-09-09 01:53,-116.0278,36.6206,1009.00,92.00,45.00,19.82,100.00,11.00,0.00,29.91,1007.80,10.00,M,CLR,M,M,M,M,M,M,M,M,M,M,M,M,M,M,88.27,KDRA 090153Z AUTO 10011KT 10SM CLR 33/07 A2991 RMK AO2 SLP078 T03330072,M
ELY,2024-09-09 01:53,-114.8453,39.2950,1909.00,63.00,49.00,60.20,190.00,9.00,0.00,30.19,1014.90,10.00,M,CLR,M,M,M,M,M,M,M,M,M,M,M,M,M,M,63.00,KELY 090153Z AUTO 19009KT 10SM CLR 17/09 A3019 RMK AO2 SLP149 T01720094,M
VGT,2024-09-09 01:53,-115.1933,36.2111,667.00,98.00,43.00,15.26,180.00,10.00,0.00,29.84,1009.30,10.00,M,CLR,M,M,M,M,M,M,M,M,M,M,M,M,M,M,93.75,KVGT 090153Z 18010KT 10SM CLR 37/06 A2984 RMK AO2 SLP093 T03670061,M
LOL,2024-09-09 01:53,-118.5701,40.0684,1192.43,86.00,25.00,10.81,290.00,11.00,0.00,29.94,1010.80,10.00,M,CLR,M,M,M,M,M,M,M,M,M,M,M,M,M,M,82.27,KLOL 090153Z AUTO 29011KT 10SM CLR 30/M04 A2994 RMK AO2 SLP108 T03001039,M
BVU,2024-09-09 01:55,-114.8611,35.9475,671.00,95.00,44.60,17.78,230.00,10.00,0.00,29.85,M,10.00,M,CLR,M,M,M,M,M,M,M,M,M,M,M,M,M,M,91.06,KBVU 090155Z AUTO 23010KT 10SM CLR 35/07 A2985 RMK AO2,M
INS,2024-09-09 01:55,-115.6733,36.5872,955.00,M,M,M,170.00,10.00,0.00,M,M,10.00,M,M,M,M,M,M,M,M,M,M,M,M,M,M,M,M,M,KINS 090155Z AUTO 17010KT 10SM M M M RMK AO2 SLPNO RVRNO TSNO $,M
RNO,2024-09-09 01:55,-119.7711,39.4839,1341.00,83.00,31.00,15.23,270.00,13.00,0.00,30.02,1011.50,10.00,M,FEW,M,M,M,5000.00,M,M,M,M,M,M,M,M,M,M,80.40,KRNO 090155Z 27013KT 10SM FEW050 28/M01 A3002 RMK AO2 SLP115 FU FEW050 FU PLUME S T02831006,M
BAM,2024-09-09 01:55,-116.8743,40.5990,1382.36,86.00,32.00,14.40,270.00,6.00,0.00,30.00,M,10.00,M,CLR,M,M,M,M,M,M,M,M,M,M,M,M,M,M,82.64,KBAM 090155Z AUTO 27006KT 10SM CLR 30/00 A3000 RMK AO1,M
TMT,2024-09-09 01:55,-117.1971,39.4643,1749.34,81.00,31.00,16.25,320.00,6.00,0.00,30.09,M,10.00,M,CLR,M,M,M,M,M,M,M,M,M,M,M,M,M,M,79.04,KTMT 090155Z AUTO 32006KT 10SM CLR 27/00 A3009 RMK AO2 T02721005,M
LSV,2024-09-09 01:55,-115.0343,36.2362,570.00,97.00,40.00,14.01,210.00,8.00,0.00,29.79,1005.70,10.00,M,CLR,M,M,M,M,M,M,M,M,M,M,M,M,M,M,92.49,KLSV 090155Z AUTO 21008KT 10SM CLR 36/04 A2979 RMK AO2 SLP057 T03620044 $,M
EKO,2024-09-09 01:56,-115.7860,40.8242,1367.00,84.00,31.00,14.74,290.00,6.00,0.00,30.02,1011.30,10.00,M,CLR,M,M,M,M,M,M,M,M,M,M,M,M,M,M,81.12,KEKO 090156Z AUTO 29006KT 10SM CLR 29/M01 A3002 RMK AO2 SLP113 T02891006,M
WMC,2024-09-09 01:56,-117.8072,40.9019,1315.00,82.00,29.00,14.50,290.00,7.00,0.00,29.98,1011.40,10.00,M,CLR,M,M,M,M,M,M,M,M,M,M,M,M,M,M,79.67,KWMC 090156Z AUTO 29007KT 10SM CLR 28/M02 A2998 RMK AO2 SLP114 T02781017,M
HND,2024-09-09 01:56,-115.1344,35.9729,742.79,93.00,43.00,17.80,220.00,15.00,0.00,29.90,1010.90,10.00,M,CLR,M,M,M,M,M,M,M,M,M,M,M,M,M,M,89.00,KHND 090156Z 22015KT 10SM CLR 34/06 A2990 RMK AO2 SLP109 T03390061,M
TPH,2024-09-09 01:56,-117.0904,38.0505,1654.00,85.00,30.00,13.71,180.00,10.00,0.00,30.05,1009.60,10.00,M,CLR,M,M,M,M,M,M,M,M,M,M,M,M,M,M,81.86,KTPH 090156Z AUTO 18010KT 10SM CLR 29/M01 A3005 RMK AO2 SLP096 T02941011,M
LAS,2024-09-09 01:56,-115.1634,36.0719,663.00,95.00,44.00,17.38,210.00,5.00,0.00,29.87,1008.50,10.00,15.00,FEW,FEW,BKN,BKN,10000.00,12000.00,16000.00,22000.00,M,M,M,M,M,M,M,90.99,KLAS 090156Z 21005G15KT 10SM FEW100 FEW120 BKN160 BKN220 35/07 A2987 RMK AO2 SLP085 SH DSNT S-SW T03500067 $,M
NFL,2024-09-09 01:57,-118.7010,39.4166,1199.00,88.00,33.00,14.06,280.00,10.00,0.00,29.95,1011.50,10.00,M,CLR,M,M,M,M,M,M,M,M,M,M,M,M,M,M,84.25,KNFL 090157Z 28010KT 10SM CLR 31/01 A2995 RMK AO2 SLP115 T03110006,M
INS,2024-09-09 01:59,-115.6733,36.5872,955.00,84.20,35.60,17.61,160.00,7.00,0.00,29.91,1008.30,10.00,M,BKN,M,M,M,13000.00,M,M,M,M,M,M,M,M,M,M,81.34,KINS 090159Z 16007KT 10SM BKN130 29/02 A2991 RMK SLP083,M
BVU,2024-09-09 02:15,-114.8611,35.9475,671.00,93.20,44.60,18.80,230.00,3.00,0.00,29.85,M,10.00,M,CLR,M,M,M,M,M,M,M,M,M,M,M,M,M,M,89.34,KBVU 090215Z AUTO 23003KT 10SM CLR 34/07 A2985 RMK AO2 LTG DSNT NE AND SE,M
BAM,2024-09-09 02:15,-116.8743,40.5990,1382.36,82.40,32.00,16.17,260.00,6.00,0.00,30.00,M,10.00,M,CLR,M,M,M,M,M,M,M,M,M,M,M,M,M,M,80.00,KBAM 090215Z AUTO 26006KT 10SM CLR 28/00 A3000 RMK AO1,M
TMT,2024-09-09 02:15,-117.1971,39.4643,1749.34,78.00,31.30,18.15,360.00,5.00,0.00,30.10,M,10.00,M,CLR,M,M,M,M,M,M,M,M,M,M,M,M,M,M,78.00,KTMT 090215Z AUTO 36005KT 10SM CLR 26/00 A3010 RMK AO2 T02551004,M
BVU,2024-09-09 02:35,-114.8611,35.9475,671.00,93.20,44.60,18.80,210.00,7.00,0.00,29.86,M,10.00,M,CLR,M,M,M,M,M,M,M,M,M,M,M,M,M,M,89.34,KBVU 090235Z AUTO 21007KT 10SM CLR 34/07 A2986 RMK AO2,M
BAM,2024-09-09 02:35,-116.8743,40.5990,1382.36,78.80,32.00,18.18,280.00,7.00,0.00,30.00,M,10.00,M,CLR,M,M,M,M,M,M,M,M,M,M,M,M,M,M,78.80,KBAM 090235Z AUTO 28007KT 10SM CLR 26/00 A3000 RMK AO1,M
TMT,2024-09-09 02:35,-117.1971,39.4643,1749.34,73.80,31.30,20.87,40.00,6.00,0.00,30.11,M,10.00,M,CLR,M,M,M,M,M,M,M,M,M,M,M,M,M,M,73.80,KTMT 090235Z AUTO 04006KT 10SM CLR 23/00 A3011 RMK AO2 T02321004,M
P68,2024-09-09 02:53,-116.0056,39.6014,1993.00,69.00,39.00,33.36,150.00,4.00,0.00,30.14,1012.80,M,M,M,M,M,M,M,M,M,M,M,M,M,M,M,M,M,69.00,KP68 090253Z AUTO 15004KT 21/04 A3014 RMK AO1 SLP128 T02060039 51010,M
DRA,2024-09-09 02:53,-116.0278,36.6206,1009.00,91.00,41.00,17.54,120.00,9.00,0.00,29.93,1007.90,10.00,M,CLR,M,M,M,M,M,M,M,M,M,M,M,M,M,M,87.04,KDRA 090253Z AUTO 12009KT 10SM CLR 33/05 A2993 RMK AO2 SLP079 T03280050 53001,M
ELY,2024-09-09 02:53,-114.8453,39.2950,1909.00,64.00,47.00,53.92,220.00,3.00,0.00,30.21,1014.20,10.00,M,BKN,M,M,M,11000.00,M,M,M,M,M,M,M,M,M,M,64.00,KELY 090253Z AUTO 22003KT 10SM BKN110 18/08 A3021 RMK AO2 SLP142 60000 T01780083 55007,M
VGT,2024-09-09 02:53,-115.1933,36.2111,667.00,96.00,46.00,18.19,220.00,7.00,0.00,29.86,1009.80,10.00,M,CLR,M,M,M,M,M,M,M,M,M,M,M,M,M,M,92.21,KVGT 090253Z 22007KT 10SM CLR 36/08 A2986 RMK AO2 SLP098 T03560078 53006,M
LOL,2024-09-09 02:53,-118.5701,40.0684,1192.43,77.00,24.00,13.89,310.00,8.00,0.00,29.97,1011.50,10.00,M,CLR,M,M,M,M,M,M,M,M,M,M,M,M,M,M,77.00,KLOL 090253Z AUTO 31008KT 10SM CLR 25/M04 A2997 RMK AO2 SLP115 T02501044 53007,M
BVU,2024-09-09 02:55,-114.8611,35.9475,671.00,91.40,41.00,17.32,0.00,0.00,0.00,29.87,M,10.00,M,CLR,M,M,M,M,M,M,M,M,M,M,M,M,M,M,87.40,KBVU 090255Z AUTO 00000KT 10SM CLR 33/05 A2987 RMK AO2,M
INS,2024-09-09 02:55,-115.6733,36.5872,955.00,M,M,M,70.00,7.00,0.00,M,M,10.00,M,M,M,M,M,M,M,M,M,M,M,M,M,M,M,M,M,KINS 090255Z AUTO 07007KT 10SM M M M RMK AO2 SLPNO RVRNO TSNO $,M
RNO,2024-09-09 02:55,-119.7711,39.4839,1341.00,79.00,31.00,17.35,310.00,8.00,0.00,30.04,1012.10,10.00,M,CLR,M,M,M,M,M,M,M,M,M,M,M,M,M,M,79.00,KRNO 090255Z 31008KT 10SM CLR 26/M01 A3004 RMK AO2 SLP121 FU ALF DSNT N THRU E THRU S FU PLUME S T02611006 53008,M
BAM,2024-09-09 02:55,-116.8743,40.5990,1382.36,75.20,32.00,20.49,290.00,6.00,0.00,30.01,M,10.00,M,CLR,M,M,M,M,M,M,M,M,M,M,M,M,M,M,75.20,KBAM 090255Z AUTO 29006KT 10SM CLR 24/00 A3001 RMK AO1,M
TMT,2024-09-09 02:55,-117.1971,39.4643,1749.34,73.40,32.00,21.76,40.00,7.00,0.00,30.12,M,10.00,M,CLR,M,M,M,M,M,M,M,M,M,M,M,M,M,M,73.40,KTMT 090255Z AUTO 04007KT 10SM CLR 23/00 A3012 RMK AO2 T02301001,M
LSV,2024-09-09 02:55,-115.0343,36.2362,570.00,94.50,39.60,14.90,210.00,6.00,0.00,29.81,1006.40,10.00,M,CLR,M,M,M,M,M,M,M,M,M,M,M,M,M,M,90.13,KLSV 090255Z AUTO 21006KT 10SM CLR 35/04 A2981 RMK AO2 SLP064 T03470042 53011 $,M
EKO,2024-09-09 02:56,-115.7860,40.8242,1367.00,76.00,33.00,20.77,210.00,6.00,0.00,30.05,1012.20,10.00,M,CLR,M,M,M,M,M,M,M,M,M,M,M,M,M,M,76.00,KEKO 090256Z AUTO 21006KT 10SM CLR 24/01 A3005 RMK AO2 SLP122 T02440006 53010,M
WMC,2024-09-09 02:56,-117.8072,40.9019,1315.00,71.00,28.00,20.06,240.00,6.00,0.00,30.00,1012.00,10.00,M,CLR,M,M,M,M,M,M,M,M,M,M,M,M,M,M,71.00,KWMC 090256Z AUTO 24006KT 10SM CLR 22/M02 A3000 RMK AO2 SLP120 T02171022 53008,M
HND,2024-09-09 02:56,-115.1344,35.9729,742.79,89.00,45.00,21.77,170.00,6.00,0.00,29.92,1011.70,10.00,M,CLR,M,M,M,M,M,M,M,M,M,M,M,M,M,M,85.58,KHND 090256Z 17006KT 10SM CLR 32/07 A2992 RMK AO2 SLP117 T03170072 53009,M
TPH,2024-09-09 02:56,-117.0904,38.0505,1654.00,80.00,30.00,16.12,220.00,5.00,0.00,30.07,1010.20,10.00,M,CLR,M,M,M,M,M,M,M,M,M,M,M,M,M,M,78.46,KTPH 090256Z AUTO 22005KT 10SM CLR 27/M01 A3007 RMK AO2 SLP102 T02671011 53006,M
LAS,2024-09-09 02:56,-115.1634,36.0719,663.00,94.00,41.00,15.97,200.00,7.00,0.00,29.88,1008.90,10.00,M,FEW,SCT,BKN,M,10000.00,12000.00,20000.00,M,M,M,M,M,M,M,M,89.77,KLAS 090256Z 20007KT 10SM FEW100 SCT120 BKN200 34/05 A2988 RMK AO2 SLP089 T03440050 $,M
NFL,2024-09-09 02:57,-118.7010,39.4166,1199.00,81.00,33.00,17.61,300.00,7.00,0.00,29.97,1012.10,10.00,M,CLR,M,M,M,M,M,M,M,M,M,M,M,M,M,M,79.10,KNFL 090257Z AUTO 30007KT 10SM CLR 27/01 A2997 RMK AO2 SLP121 T02720006 53011,M
INS,2024-09-09 02:58,-115.6733,36.5872,955.00,84.20,41.00,21.76,90.00,13.00,0.00,29.93,1008.90,10.00,M,BKN,M,M,M,13000.00,M,M,M,M,M,M,M,M,M,M,81.52,KINS 090258Z 09013KT 10SM BKN130 29/05 A2993 RMK SLP089,M
BVU,2024-09-09 03:15,-114.8611,35.9475,671.00,93.20,41.00,16.37,110.00,13.00,0.00,29.89,M,10.00,M,CLR,M,M,M,M,M,M,M,M,M,M,M,M,M,M,89.03,KBVU 090315Z AUTO 11013KT 10SM CLR 34/05 A2989 RMK AO2,M
BAM,2024-09-09 03:15,-116.8743,40.5990,1382.36,73.40,32.00,21.76,310.00,6.00,0.00,30.02,M,10.00,M,CLR,M,M,M,M,M,M,M,M,M,M,M,M,M,M,73.40,KBAM 090315Z AUTO 31006KT 10SM CLR 23/00 A3002 RMK AO1,M
TMT,2024-09-09 03:15,-117.1971,39.4643,1749.34,72.70,32.00,22.28,360.00,5.00,0.00,30.13,M,10.00,M,CLR,M,M,M,M,M,M,M,M,M,M,M,M,M,M,72.70,KTMT 090315Z AUTO 36005KT 10SM CLR 23/00 A3013 RMK AO2 T02261001,M
BAM,2024-09-09 03:35,-116.8743,40.5990,1382.36,69.80,30.20,22.86,70.00,6.00,0.00,30.04,M,10.00,M,CLR,M,M,M,M,M,M,M,M,M,M,M,M,M,M,69.80,KBAM 090335Z AUTO 07006KT 10SM CLR 21/M01 A3004 RMK AO1,M
TMT,2024-09-09 03:35,-117.1971,39.4643,1749.34,70.70,31.50,23.37,80.00,3.00,0.00,30.14,M,10.00,M,CLR,M,M,M,M,M,M,M,M,M,M,M,M,M,M,70.70,KTMT 090335Z AUTO 08003KT 10SM CLR 22/00 A3014 RMK AO2 T02151003,M
BVU,2024-09-09 03:35,-114.8611,35.9475,671.00,91.40,46.40,21.29,120.00,14.00,0.00,29.90,M,10.00,M,CLR,M,M,M,M,M,M,M,M,M,M,M,M,M,M,87.86,KBVU 090335Z AUTO 12014KT 10SM CLR 33/08 A2990 RMK AO2,M
P68,2024-09-09 03:53,-116.0056,39.6014,1993.00,68.00,37.00,31.92,0.00,0.00,0.00,30.15,1013.20,M,M,M,M,M,M,M,M,M,M,M,M,M,M,M,M,M,68.00,KP68 090353Z AUTO 00000KT 20/03 A3015 RMK AO1 SLP132 T02000028,M
DRA,2024-09-09 03:53,-116.0278,36.6206,1009.00,89.00,42.00,19.41,0.00,0.00,0.00,29.95,1008.20,10.00,M,CLR,M,M,M,M,M,M,M,M,M,M,M,M,M,M,85.36,KDRA 090353Z AUTO 00000KT 10SM CLR 32/06 A2995 RMK AO2 SLP082 T03170056,M
ELY,2024-09-09 03:53,-114.8453,39.2950,1909.00,62.00,47.00,57.85,160.00,5.00,0.00,30.23,1013.70,10.00,M,FEW,M,M,M,11000.00,M,M,M,M,M,M,M,M,M,M,62.00,KELY 090353Z AUTO 16005KT 10SM FEW110 17/08 A3023 RMK AO2 SLP137 T01670083,M
VGT,2024-09-09 03:53,-115.1933,36.2111,667.00,95.00,42.00,16.10,190.00,8.00,0.00,29.88,1010.50,10.00,M,CLR,M,M,M,M,M,M,M,M,M,M,M,M,M,M,90.79,KVGT 090353Z AUTO 19008KT 10SM CLR 35/06 A2988 RMK AO2 SLP105 T03500056,M
LOL,2024-09-09 03:53,-118.5701,40.0684,1192.43,73.00,23.00,15.23,310.00,4.00,0.00,30.01,1012.40,10.00,M,CLR,M,M,M,M,M,M,M,M,M,M,M,M,M,M,73.00,KLOL 090353Z AUTO 31004KT 10SM CLR 23/M05 A3001 RMK AO2 SLP124 T02281050,M
LSV,2024-09-09 03:55,-115.0343,36.2362,570.00,92.50,36.30,13.92,190.00,7.00,0.00,29.84,1007.40,10.00,M,CLR,M,M,M,M,M,M,M,M,M,M,M,M,M,M,88.16,KLSV 090355Z AUTO 19007KT 10SM CLR 34/02 A2984 RMK AO2 SLP074 T03360024 $,M
BVU,2024-09-09 03:55,-114.8611,35.9475,671.00,91.40,46.40,21.29,120.00,8.00,0.00,29.90,M,10.00,M,CLR,M,M,M,M,M,M,M,M,M,M,M,M,M,M,87.86,KBVU 090355Z AUTO 12008KT 10SM CLR 33/08 A2990 RMK AO2,M
INS,2024-09-09 03:55,-115.6733,36.5872,955.00,M,M,M,170.00,6.00,0.00,M,M,10.00,M,M,M,M,M,M,M,M,M,M,M,M,M,M,M,M,M,KINS 090355Z AUTO 17006KT 10SM M M M RMK AO2 SLPNO RVRNO TSNO $,M
RNO,2024-09-09 03:55,-119.7711,39.4839,1341.00,77.00,31.00,18.53,280.00,9.00,0.00,30.06,1012.80,10.00,M,CLR,M,M,M,M,M,M,M,M,M,M,M,M,M,M,77.00,KRNO 090355Z 28009KT 10SM CLR 25/M01 A3006 RMK AO2 SLP128 FU S T02501006,M
BAM,2024-09-09 03:55,-116.8743,40.5990,1382.36,71.60,30.20,21.50,140.00,4.00,0.00,30.04,M,10.00,M,CLR,M,M,M,M,M,M,M,M,M,M,M,M,M,M,71.60,KBAM 090355Z AUTO 14004KT 10SM CLR 22/M01 A3004 RMK AO1,M
TMT,2024-09-09 03:55,-117.1971,39.4643,1749.34,67.50,30.70,25.25,0.00,0.00,0.00,30.15,M,10.00,M,CLR,M,M,M,M,M,M,M,M,M,M,M,M,M,M,67.50,KTMT 090355Z AUTO 00000KT 10SM CLR 20/M01 A3015 RMK AO2 T01971007,M
EKO,2024-09-09 03:56,-115.7860,40.8242,1367.00,77.00,38.00,24.50,140.00,7.00,0.00,30.07,1012.50,10.00,16.00,CLR,M,M,M,M,M,M,M,M,M,M,M,M,M,M,77.00,KEKO 090356Z AUTO 14007G16KT 10SM CLR 25/03 A3007 RMK AO2 SLP125 T02500033,M
WMC,2024-09-09 03:56,-117.8072,40.9019,1315.00,66.00,29.00,24.81,130.00,3.00,0.00,30.02,1012.30,10.00,M,CLR,M,M,M,M,M,M,M,M,M,M,M,M,M,M,66.00,KWMC 090356Z AUTO 13003KT 10SM CLR 19/M02 A3002 RMK AO2 SLP123 T01891017,M
HND,2024-09-09 03:56,-115.1344,35.9729,742.79,88.00,45.00,22.47,140.00,10.00,0.00,29.95,1012.50,10.00,14.00,CLR,M,M,M,M,M,M,M,M,M,M,M,M,M,M,84.72,KHND 090356Z AUTO 14010G14KT 10SM CLR 31/07 A2995 RMK AO2 SLP125 T03110072,M
TPH,2024-09-09 03:56,-117.0904,38.0505,1654.00,79.00,33.00,18.80,240.00,9.00,0.00,30.10,1010.50,10.00,M,CLR,M,M,M,M,M,M,M,M,M,M,M,M,M,M,79.00,KTPH 090356Z AUTO 24009KT 10SM CLR 26/01 A3010 RMK AO2 SLP105 T02610006,M
LAS,2024-09-09 03:56,-115.1634,36.0719,663.00,92.00,42.00,17.67,0.00,0.00,0.00,29.91,1009.70,10.00,M,FEW,SCT,M,M,12000.00,20000.00,M,M,M,M,M,M,M,M,M,88.01,KLAS 090356Z 00000KT 10SM FEW120 SCT200 33/06 A2991 RMK AO2 SLP097 T03330056 $,M
NFL,2024-09-09 03:57,-118.7010,39.4166,1199.00,75.00,32.00,20.63,350.00,5.00,0.00,30.01,1013.20,9.00,M,CLR,M,M,M,M,M,M,M,M,M,M,M,M,M,M,75.00,KNFL 090357Z AUTO 35005KT 9SM CLR 24/00 A3001 RMK AO2 SLP132 T02390000,M
INS,2024-09-09 03:58,-115.6733,36.5872,955.00,82.40,42.80,24.72,170.00,5.00,0.00,29.95,1009.20,10.00,M,BKN,M,M,M,14000.00,M,M,M,M,M,M,M,M,M,M,80.39,KINS 090358Z 17005KT 10SM BKN140 28/06 A2995 RMK SLP092,M
BAM,2024-09-09 04:15,-116.8743,40.5990,1382.36,69.80,30.20,22.86,170.00,4.00,0.00,30.06,M,10.00,M,CLR,M,M,M,M,M,M,M,M,M,M,M,M,M,M,69.80,KBAM 090415Z AUTO 17004KT 10SM CLR 21/M01 A3006 RMK AO1,M
BVU,2024-09-09 04:15,-114.8611,35.9475,671.00,91.40,44.60,19.89,110.00,7.00,0.00,29.91,M,10.00,12.00,CLR,M,M,M,M,M,M,M,M,M,M,M,M,M,M,87.68,KBVU 090415Z AUTO 11007G12KT 10SM CLR 33/07 A2991 RMK AO2,M
TMT,2024-09-09 04:15,-117.1971,39.4643,1749.34,61.50,30.00,30.26,0.00,0.00,0.00,30.16,M,10.00,M,CLR,M,M,M,M,M,M,M,M,M,M,M,M,M,M,61.50,KTMT 090415Z AUTO 00000KT 10SM CLR 16/M01 A3016 RMK AO2 T01641011,M
BVU,2024-09-09 04:35,-114.8611,35.9475,671.00,89.60,44.60,21.04,120.00,5.00,0.00,29.91,M,10.00,M,CLR,M,M,M,M,M,M,M,M,M,M,M,M,M,M,86.07,KBVU 090435Z AUTO 12005KT 10SM CLR 32/07 A2991 RMK AO2,M
BAM,2024-09-09 04:35,-116.8743,40.5990,1382.36,66.20,30.20,25.88,0.00,0.00,0.00,30.07,M,10.00,M,CLR,M,M,M,M,M,M,M,M,M,M,M,M,M,M,66.20,KBAM 090435Z AUTO 00000KT 10SM CLR 19/M01 A3007 RMK AO1,M
TMT,2024-09-09 04:35,-117.1971,39.4643,1749.34,61.30,31.00,31.74,0.00,0.00,0.00,30.16,M,10.00,M,CLR,M,M,M,M,M,M,M,M,M,M,M,M,M,M,61.30,KTMT 090435Z AUTO 00000KT 10SM CLR 16/00 A3016 RMK AO2 T01631005,M
P68,2024-09-09 04:53,-116.0056,39.6014,1993.00,63.00,38.00,39.51,0.00,0.00,0.00,30.17,1013.10,M,M,M,M,M,M,M,M,M,M,M,M,M,M,M,M,M,63.00,KP68 090453Z AUTO 00000KT 17/03 A3017 RMK AO1 SLP131 T01720033,M
DRA,2024-09-09 04:53,-116.0278,36.6206,1009.00,84.00,41.00,21.90,350.00,3.00,0.00,29.96,1008.70,10.00,M,CLR,M,M,M,M,M,M,M,M,M,M,M,M,M,M,81.37,KDRA 090453Z AUTO 35003KT 10SM CLR 29/05 A2996 RMK AO2 SLP087 T02890050,M
ELY,2024-09-09 04:53,-114.8453,39.2950,1909.00,63.00,45.00,51.78,180.00,7.00,0.00,30.23,1013.20,10.00,M,FEW,M,M,M,12000.00,M,M,M,M,M,M,M,M,M,M,63.00,KELY 090453Z AUTO 18007KT 10SM FEW120 17/07 A3023 RMK AO2 SLP132 T01720072,M
VGT,2024-09-09 04:53,-115.1933,36.2111,667.00,93.00,43.00,17.80,130.00,8.00,0.00,29.90,1011.10,10.00,M,CLR,M,M,M,M,M,M,M,M,M,M,M,M,M,M,89.00,KVGT 090453Z AUTO 13008KT 10SM CLR 34/06 A2990 RMK AO2 SLP111 T03390061,M
LOL,2024-09-09 04:53,-118.5701,40.0684,1192.43,76.00,24.00,14.36,310.00,9.00,0.00,30.03,1012.70,10.00,M,CLR,M,M,M,M,M,M,M,M,M,M,M,M,M,M,76.00,KLOL 090453Z AUTO 31009KT 10SM CLR 24/M04 A3003 RMK AO2 SLP127 T02441044,M
BVU,2024-09-09 04:55,-114.8611,35.9475,671.00,89.60,44.60,21.04,M,5.00,0.00,29.91,M,10.00,M,CLR,M,M,M,M,M,M,M,M,M,M,M,M,M,M,86.07,KBVU 090455Z AUTO VRB05KT 10SM CLR 32/07 A2991 RMK AO2,M
INS,2024-09-09 04:55,-115.6733,36.5872,955.00,M,M,M,80.00,3.00,0.00,M,M,10.00,M,M,M,M,M,M,M,M,M,M,M,M,M,M,M,M,M,KINS 090455Z AUTO 08003KT 10SM M M M RMK AO2 SLPNO RVRNO TSNO $,M
RNO,2024-09-09 04:55,-119.7711,39.4839,1341.00,74.00,32.00,21.33,M,4.00,0.00,30.09,1013.60,10.00,M,CLR,M,M,M,M,M,M,M,M,M,M,M,M,M,M,74.00,KRNO 090455Z VRB04KT 10SM CLR 23/00 A3009 RMK AO2 SLP136 FU S T02330000,M
LSV,2024-09-09 04:55,-115.0343,36.2362,570.00,92.00,42.30,17.87,0.00,0.00,0.00,29.86,1008.10,10.00,M,CLR,M,M,M,M,M,M,M,M,M,M,M,M,M,M,88.03,KLSV 090455Z AUTO 00000KT 10SM CLR 33/06 A2986 RMK AO2 SLP081 T03330057 $,M
BAM,2024-09-09 04:55,-116.8743,40.5990,1382.36,64.40,28.40,25.60,0.00,0.00,0.00,30.07,M,10.00,M,CLR,M,M,M,M,M,M,M,M,M,M,M,M,M,M,64.40,KBAM 090455Z AUTO 00000KT 10SM CLR 18/M02 A3007 RMK AO1,M
TMT,2024-09-09 04:55,-117.1971,39.4643,1749.34,59.50,30.00,32.49,320.00,4.00,0.00,30.17,M,10.00,M,CLR,M,M,M,M,M,M,M,M,M,M,M,M,M,M,59.50,KTMT 090455Z AUTO 32004KT 10SM CLR 15/M01 A3017 RMK AO2 T01531011,M
EKO,2024-09-09 04:56,-115.7860,40.8242,1367.00,71.00,36.00,27.69,260.00,5.00,0.00,30.09,1013.00,10.00,M,CLR,M,M,M,M,M,M,M,M,M,M,M,M,M,M,71.00,KEKO 090456Z AUTO 26005KT 10SM CLR 22/02 A3009 RMK AO2 SLP130 T02170022,M
WMC,2024-09-09 04:56,-117.8072,40.9019,1315.00,64.00,29.00,26.60,0.00,0.00,0.00,30.04,1012.40,10.00,M,CLR,M,M,M,M,M,M,M,M,M,M,M,M,M,M,64.00,KWMC 090456Z AUTO 00000KT 10SM CLR 18/M02 A3004 RMK AO2 SLP124 T01781017,M
HND,2024-09-09 04:56,-115.1344,35.9729,742.79,89.00,47.00,23.49,160.00,12.00,0.00,29.95,1012.20,10.00,M,CLR,M,M,M,M,M,M,M,M,M,M,M,M,M,M,85.77,KHND 090456Z AUTO 16012KT 10SM CLR 32/08 A2995 RMK AO2 SLP122 T03170083,M
TPH,2024-09-09 04:56,-117.0904,38.0505,1654.00,80.00,32.00,17.48,260.00,4.00,0.00,30.12,1010.70,10.00,M,CLR,M,M,M,M,M,M,M,M,M,M,M,M,M,M,78.52,KTPH 090456Z AUTO 26004KT 10SM CLR 27/00 A3012 RMK AO2 SLP107 T02670000,M
LAS,2024-09-09 04:56,-115.1634,36.0719,663.00,91.00,46.00,21.24,130.00,3.00,0.00,29.92,1010.10,10.00,M,FEW,BKN,M,M,12000.00,17000.00,M,M,M,M,M,M,M,M,M,87.45,KLAS 090456Z 13003KT 10SM FEW120 BKN170 33/08 A2992 RMK AO2 SLP101 T03280078 $,M
NFL,2024-09-09 04:57,-118.7010,39.4166,1199.00,71.00,31.00,22.67,0.00,0.00,0.00,30.03,1013.90,10.00,M,CLR,M,M,M,M,M,M,M,M,M,M,M,M,M,M,71.00,KNFL 090457Z AUTO 00000KT 10SM CLR 22/M01 A3003 RMK AO2 SLP139 T02171006,M
INS,2024-09-09 04:58,-115.6733,36.5872,955.00,82.40,41.00,23.07,M,3.00,0.00,29.96,1009.20,10.00,M,BKN,M,M,M,14000.00,M,M,M,M,M,M,M,M,M,M,80.29,KINS 090458Z VRB03KT 10SM BKN140 28/05 A2996 RMK SLP092,M
BAM,2024-09-09 05:15,-116.8743,40.5990,1382.36,62.60,28.40,27.27,140.00,3.00,0.00,30.07,M,10.00,M,CLR,M,M,M,M,M,M,M,M,M,M,M,M,M,M,62.60,KBAM 090515Z AUTO 14003KT 10SM CLR 17/M02 A3007 RMK AO1,M
TMT,2024-09-09 05:15,-117.1971,39.4643,1749.34,57.40,30.00,35.03,330.00,5.00,0.00,30.17,M,10.00,M,CLR,M,M,M,M,M,M,M,M,M,M,M,M,M,M,57.40,KTMT 090515Z AUTO 33005KT 10SM CLR 14/M01 A3017 RMK AO2 T01411012,M
BVU,2024-09-09 05:15,-114.8611,35.9475,671.00,89.60,44.60,21.04,80.00,4.00,0.00,29.91,M,10.00,M,CLR,M,M,M,M,M,M,M,M,M,M,M,M,M,M,86.07,KBVU 090515Z AUTO 08004KT 10SM CLR 32/07 A2991 RMK AO2,M
BVU,2024-09-09 05:35,-114.8611,35.9475,671.00,84.20,46.40,26.76,0.00,0.00,0.00,29.91,M,10.00,M,CLR,M,M,M,M,M,M,M,M,M,M,M,M,M,M,81.87,KBVU 090535Z AUTO 00000KT 10SM CLR 29/08 A2991 RMK AO2,M
BAM,2024-09-09 05:35,-116.8743,40.5990,1382.36,62.60,28.40,27.27,130.00,3.00,0.00,30.08,M,10.00,M,CLR,M,M,M,M,M,M,M,M,M,M,M,M,M,M,62.60,KBAM 090535Z AUTO 13003KT 10SM CLR 17/M02 A3008 RMK AO1,M
TMT,2024-09-09 05:35,-117.1971,39.4643,1749.34,56.50,30.00,36.19,310.00,7.00,0.00,30.18,M,10.00,M,CLR,M,M,M,M,M,M,M,M,M,M,M,M,M,M,56.50,KTMT 090535Z AUTO 31007KT 10SM CLR 14/M01 A3018 RMK AO2 T01361012,M
P68,2024-09-09 05:53,-116.0056,39.6014,1993.00,67.00,40.00,37.16,90.00,6.00,0.00,30.17,1012.40,M,M,M,M,M,M,M,M,M,M,M,M,M,M,M,M,M,67.00,KP68 090553Z AUTO 09006KT 19/04 A3017 RMK AO1 SLP124 T01940044 10261 20172 50009,M
DRA,2024-09-09 05:53,-116.0278,36.6206,1009.00,82.00,42.00,24.29,0.00,0.00,0.00,29.97,1009.00,10.00,M,CLR,M,M,M,M,M,M,M,M,M,M,M,M,M,M,80.09,KDRA 090553Z AUTO 00000KT 10SM CLR 28/06 A2997 RMK AO2 SLP090 T02780056 10361 20272 51013,M
ELY,2024-09-09 05:53,-114.8453,39.2950,1909.00,59.00,44.00,57.44,180.00,11.00,0.00,30.23,1013.70,10.00,M,CLR,M,M,M,M,M,M,M,M,M,M,M,M,M,M,59.00,KELY 090553Z AUTO 18011KT 10SM CLR 15/07 A3023 RMK AO2 SLP137 60000 T01500067 10189 20150 51007,M
VGT,2024-09-09 05:53,-115.1933,36.2111,667.00,89.00,48.00,24.39,90.00,4.00,0.00,29.92,1011.70,10.00,M,CLR,M,M,M,M,M,M,M,M,M,M,M,M,M,M,85.89,KVGT 090553Z AUTO 09004KT 10SM CLR 32/09 A2992 RMK AO2 SLP117 T03170089 10378 20317 51017,M
LOL,2024-09-09 05:53,-118.5701,40.0684,1192.43,75.00,24.00,14.85,0.00,0.00,0.00,30.05,1013.00,10.00,M,CLR,M,M,M,M,M,M,M,M,M,M,M,M,M,M,75.00,KLOL 090553Z AUTO 00000KT 10SM CLR 24/M04 A3005 RMK AO2 SLP130 T02391044 10333 20211 51025,M
BVU,2024-09-09 05:55,-114.8611,35.9475,671.00,84.20,44.60,24.99,270.00,3.00,0.00,29.91,M,10.00,M,CLR,M,M,M,M,M,M,M,M,M,M,M,M,M,M,81.73,KBVU 090555Z AUTO 27003KT 10SM CLR 29/07 A2991 RMK AO2,M
INS,2024-09-09 05:55,-115.6733,36.5872,955.00,M,M,M,200.00,6.00,0.00,M,M,10.00,M,M,M,M,M,M,M,M,M,M,M,M,M,M,M,M,M,KINS 090555Z AUTO 20006KT 10SM M M M RMK AO2 SLPNO RVRNO TSNO $,M
RNO,2024-09-09 05:55,-119.7711,39.4839,1341.00,74.00,32.00,21.33,320.00,6.00,0.00,30.11,1013.60,10.00,M,CLR,M,M,M,M,M,M,M,M,M,M,M,M,M,M,74.00,KRNO 090555Z 32006KT 10SM CLR 23/00 A3011 RMK AO2 SLP136 FU S T02330000 10317 20222 51019,M
LSV,2024-09-09 05:55,-115.0343,36.2362,570.00,90.30,42.40,18.92,310.00,7.00,0.00,29.86,1008.00,10.00,M,CLR,M,M,M,M,M,M,M,M,M,M,M,M,M,M,86.51,KLSV 090555Z AUTO 31007KT 10SM CLR 32/06 A2986 RMK AO2 SLP080 T03240058 10379 20324 51016 $,M
BAM,2024-09-09 05:55,-116.8743,40.5990,1382.36,60.80,28.40,29.06,130.00,6.00,0.00,30.08,M,10.00,M,CLR,M,M,M,M,M,M,M,M,M,M,M,M,M,M,60.80,KBAM 090555Z AUTO 13006KT 10SM CLR 16/M02 A3008 RMK AO1,M
TMT,2024-09-09 05:55,-117.1971,39.4643,1749.34,54.70,29.50,37.85,280.00,4.00,0.00,30.18,M,10.00,M,CLR,M,M,M,M,M,M,M,M,M,M,M,M,M,M,54.70,KTMT 090555Z AUTO 28004KT 10SM CLR 13/M01 A3018 RMK AO2 T01261014 10310 20122,M
EKO,2024-09-09 05:56,-115.7860,40.8242,1367.00,68.00,35.00,29.49,300.00,3.00,0.00,30.10,1012.80,10.00,M,CLR,M,M,M,M,M,M,M,M,M,M,M,M,M,M,68.00,KEKO 090556Z AUTO 30003KT 10SM CLR 20/02 A3010 RMK AO2 SLP128 T02000017 10322 20200 51015,M
WMC,2024-09-09 05:56,-117.8072,40.9019,1315.00,60.00,28.00,29.41,360.00,4.00,0.00,30.05,1012.80,10.00,M,CLR,M,M,M,M,M,M,M,M,M,M,M,M,M,M,60.00,KWMC 090556Z AUTO 36004KT 10SM CLR 16/M02 A3005 RMK AO2 SLP128 T01561022 10328 20133 51015,M
HND,2024-09-09 05:56,-115.1344,35.9729,742.79,87.00,48.00,25.98,220.00,5.00,0.00,29.96,1012.60,10.00,M,CLR,M,M,M,M,M,M,M,M,M,M,M,M,M,M,84.18,KHND 090556Z AUTO 22005KT 10SM CLR 31/09 A2996 RMK AO2 SLP126 T03060089 10344 20306 51012,M
TPH,2024-09-09 05:56,-117.0904,38.0505,1654.00,78.00,31.00,17.93,260.00,10.00,0.00,30.13,1010.80,10.00,17.00,SCT,M,M,M,12000.00,M,M,M,M,M,M,M,M,M,M,78.00,KTPH 090556Z AUTO 26010G17KT 10SM SCT120 26/M01 A3013 RMK AO2 SLP108 T02561006 10322 20250 51016,M
LAS,2024-09-09 05:56,-115.1634,36.0719,663.00,90.00,45.00,21.10,240.00,3.00,0.00,29.93,1010.30,10.00,M,FEW,FEW,M,M,2000.00,17000.00,M,M,M,M,M,M,M,M,M,86.45,KLAS 090556Z 24003KT 10SM FEW020 FEW170 32/07 A2993 RMK AO2 SLP103 FU FEW020 FU OBSCURES MTNS DSNT SW-NW T03220072 10367 20322 51015 $,M
NFL,2024-09-09 05:57,-118.7010,39.4166,1199.00,66.00,32.00,28.03,350.00,3.00,0.00,30.05,1014.40,9.00,M,CLR,M,M,M,M,M,M,M,M,M,M,M,M,M,M,66.00,KNFL 090557Z AUTO 35003KT 9SM CLR 19/00 A3005 RMK AO2 SLP144 T01890000 10344 20189 51023,M
INS,2024-09-09 05:59,-115.6733,36.5872,955.00,80.60,41.00,24.46,200.00,6.00,0.00,29.96,M,10.00,M,BKN,M,M,M,14000.00,M,M,M,M,M,M,M,M,M,M,79.20,KINS 090559Z 20006KT 10SM BKN140 27/05 A2996 RMK SLPNO,M
BVU,2024-09-09 06:15,-114.8611,35.9475,671.00,86.00,44.60,23.59,0.00,0.00,0.00,29.91,M,10.00,M,CLR,M,M,M,M,M,M,M,M,M,M,M,M,M,M,83.07,KBVU 090615Z AUTO 00000KT 10SM CLR 30/07 A2991 RMK AO2,M
BAM,2024-09-09 06:15,-116.8743,40.5990,1382.36,59.00,28.40,30.98,220.00,3.00,0.00,30.08,M,10.00,M,CLR,M,M,M,M,M,M,M,M,M,M,M,M,M,M,59.00,KBAM 090615Z AUTO 22003KT 10SM CLR 15/M02 A3008 RMK AO1,M
TMT,2024-09-09 06:15,-117.1971,39.4643,1749.34,48.60,25.00,39.39,160.00,4.00,0.00,30.18,M,10.00,M,CLR,M,M,M,M,M,M,M,M,M,M,M,M,M,M,46.80,KTMT 090615Z AUTO 16004KT 10SM CLR 09/M04 A3018 RMK AO2 T00921038,M
BVU,2024-09-09 06:35,-114.8611,35.9475,671.00,86.00,42.80,22.02,240.00,4.00,0.00,29.90,M,10.00,M,CLR,M,M,M,M,M,M,M,M,M,M,M,M,M,M,82.95,KBVU 090635Z AUTO 24004KT 10SM CLR 30/06 A2990 RMK AO2,M
BAM,2024-09-09 06:35,-116.8743,40.5990,1382.36,60.80,28.40,29.06,0.00,0.00,0.00,30.08,M,10.00,M,CLR,M,M,M,M,M,M,M,M,M,M,M,M,M,M,60.80,KBAM 090635Z AUTO 00000KT 10SM CLR 16/M02 A3008 RMK AO1,M
TMT,2024-09-09 06:35,-117.1971,39.4643,1749.34,48.70,29.70,47.63,180.00,6.00,0.00,30.18,M,10.00,M,CLR,M,M,M,M,M,M,M,M,M,M,M,M,M,M,45.64,KTMT 090635Z AUTO 18006KT 10SM CLR 09/M01 A3018 RMK AO2 T00931013,M
P68,2024-09-09 06:53,-116.0056,39.6014,1993.00,64.00,37.00,36.68,290.00,3.00,0.00,30.17,1012.40,M,M,M,M,M,M,M,M,M,M,M,M,M,M,M,M,M,64.00,KP68 090653Z AUTO 29003KT 18/03 A3017 RMK AO1 SLP124 T01780028,M
DRA,2024-09-09 06:53,-116.0278,36.6206,1009.00,83.00,42.00,23.51,100.00,5.00,0.00,29.97,1008.90,10.00,M,CLR,M,M,M,M,M,M,M,M,M,M,M,M,M,M,80.74,KDRA 090653Z AUTO 10005KT 10SM CLR 28/06 A2997 RMK AO2 SLP089 T02830056,M
ELY,2024-09-09 06:53,-114.8453,39.2950,1909.00,63.00,43.00,47.97,150.00,10.00,0.00,30.24,1012.90,10.00,M,FEW,M,M,M,12000.00,M,M,M,M,M,M,M,M,M,M,63.00,KELY 090653Z AUTO 15010KT 10SM FEW120 17/06 A3024 RMK AO2 SLP129 T01720061,M
VGT,2024-09-09 06:53,-115.1933,36.2111,667.00,87.00,48.00,25.98,330.00,4.00,0.00,29.91,1011.50,10.00,M,CLR,M,M,M,M,M,M,M,M,M,M,M,M,M,M,84.18,KVGT 090653Z AUTO 33004KT 10SM CLR 31/09 A2991 RMK AO2 SLP115 T03060089,M
LOL,2024-09-09 06:53,-118.5701,40.0684,1192.43,66.00,25.00,21.04,80.00,3.00,0.00,30.06,1013.70,10.00,M,CLR,M,M,M,M,M,M,M,M,M,M,M,M,M,M,66.00,KLOL 090653Z AUTO 08003KT 10SM CLR 19/M04 A3006 RMK AO2 SLP137 T01891039,M
BVU,2024-09-09 06:55,-114.8611,35.9475,671.00,84.20,44.60,24.99,260.00,3.00,0.00,29.90,M,10.00,M,CLR,M,M,M,M,M,M,M,M,M,M,M,M,M,M,81.73,KBVU 090655Z AUTO 26003KT 10SM CLR 29/07 A2990 RMK AO2,M
INS,2024-09-09 06:55,-115.6733,36.5872,955.00,M,M,M,250.00,5.00,0.00,M,M,10.00,M,M,M,M,M,M,M,M,M,M,M,M,M,M,M,M,M,KINS 090655Z AUTO 25005KT 10SM M M M RMK AO2 SLPNO RVRNO TSNO $,M
RNO,2024-09-09 06:55,-119.7711,39.4839,1341.00,70.00,32.00,24.42,30.00,3.00,0.00,30.11,1013.60,10.00,M,CLR,M,M,M,M,M,M,M,M,M,M,M,M,M,M,70.00,KRNO 090655Z 03003KT 10SM CLR 21/00 A3011 RMK AO2 SLP136 FU SE THRU S T02110000,M
BAM,2024-09-09 06:55,-116.8743,40.5990,1382.36,60.80,28.40,29.06,0.00,0.00,0.00,30.09,M,10.00,M,CLR,M,M,M,M,M,M,M,M,M,M,M,M,M,M,60.80,KBAM 090655Z AUTO 00000KT 10SM CLR 16/M02 A3009 RMK AO1,M
TMT,2024-09-09 06:55,-117.1971,39.4643,1749.34,49.00,26.00,40.45,170.00,5.00,0.00,30.19,M,10.00,M,CLR,M,M,M,M,M,M,M,M,M,M,M,M,M,M,46.58,KTMT 090655Z AUTO 17005KT 10SM CLR 10/M03 A3019 RMK AO2 T00951034,M
LSV,2024-09-09 06:55,-115.0343,36.2362,570.00,88.00,43.00,20.82,0.00,0.00,0.00,29.86,1008.00,10.00,M,CLR,M,M,M,M,M,M,M,M,M,M,M,M,M,M,84.58,KLSV 090655Z AUTO 00000KT 10SM CLR 31/06 A2986 RMK AO2 SLP080 T03110062 $,M
EKO,2024-09-09 06:56,-115.7860,40.8242,1367.00,66.00,37.00,34.21,90.00,3.00,0.00,30.11,1013.00,10.00,M,CLR,M,M,M,M,M,M,M,M,M,M,M,M,M,M,66.00,KEKO 090656Z AUTO 09003KT 10SM CLR 19/03 A3011 RMK AO2 SLP130 T01890028,M
WMC,2024-09-09 06:56,-117.8072,40.9019,1315.00,71.00,22.00,15.62,0.00,0.00,0.00,30.07,1012.50,10.00,M,CLR,M,M,M,M,M,M,M,M,M,M,M,M,M,M,71.00,KWMC 090656Z AUTO 00000KT 10SM CLR 22/M06 A3007 RMK AO2 SLP125 T02171056,M
HND,2024-09-09 06:56,-115.1344,35.9729,742.79,87.00,47.00,25.02,220.00,3.00,0.00,29.95,1012.50,10.00,M,CLR,M,M,M,M,M,M,M,M,M,M,M,M,M,M,84.08,KHND 090656Z AUTO 22003KT 10SM CLR 31/08 A2995 RMK AO2 SLP125 T03060083 403890250,M
TPH,2024-09-09 06:56,-117.0904,38.0505,1654.00,77.00,33.00,20.09,70.00,4.00,0.00,30.14,1010.90,10.00,M,SCT,M,M,M,12000.00,M,M,M,M,M,M,M,M,M,M,77.00,KTPH 090656Z AUTO 07004KT 10SM SCT120 25/01 A3014 RMK AO2 SLP109 T02500006,M
LAS,2024-09-09 06:56,-115.1634,36.0719,663.00,89.00,46.00,22.61,230.00,4.00,0.00,29.92,1010.20,10.00,M,FEW,FEW,M,M,2000.00,16000.00,M,M,M,M,M,M,M,M,M,85.67,KLAS 090656Z 23004KT 10SM FEW020 FEW160 32/08 A2992 RMK AO2 SLP102 FU FEW020 FU OBSCURES MTNS DSNT NW-N T03170078 $,M
INS,2024-09-09 06:57,-115.6733,36.5872,955.00,80.60,44.60,28.08,250.00,5.00,0.00,29.96,M,10.00,M,FEW,M,M,M,14000.00,M,M,M,M,M,M,M,M,M,M,79.42,KINS 090657Z 25005KT 10SM FEW140 27/07 A2996 RMK SLPNO,M
NFL,2024-09-09 06:57,-118.7010,39.4166,1199.00,65.00,31.00,27.87,320.00,3.00,0.00,30.06,1014.70,10.00,M,CLR,M,M,M,M,M,M,M,M,M,M,M,M,M,M,65.00,KNFL 090657Z AUTO 32003KT 10SM CLR 18/M01 A3006 RMK AO2 SLP147 T01831006,M
BVU,2024-09-09 07:15,-114.8611,35.9475,671.00,84.20,44.60,24.99,0.00,0.00,0.00,29.90,M,10.00,M,CLR,M,M,M,M,M,M,M,M,M,M,M,M,M,M,81.73,KBVU 090715Z AUTO 00000KT 10SM CLR 29/07 A2990 RMK AO2,M
BAM,2024-09-09 07:15,-116.8743,40.5990,1382.36,59.00,28.40,30.98,0.00,0.00,0.00,30.09,M,10.00,M,CLR,M,M,M,M,M,M,M,M,M,M,M,M,M,M,59.00,KBAM 090715Z AUTO 00000KT 10SM CLR 15/M02 A3009 RMK AO1,M
TMT,2024-09-09 07:15,-117.1971,39.4643,1749.34,50.50,25.30,37.16,250.00,4.00,0.00,30.19,M,10.00,M,CLR,M,M,M,M,M,M,M,M,M,M,M,M,M,M,50.50,KTMT 090715Z AUTO 25004KT 10SM CLR 10/M04 A3019 RMK AO2 T01031037,M
BVU,2024-09-09 07:35,-114.8611,35.9475,671.00,82.40,46.40,28.36,0.00,0.00,0.00,29.91,M,10.00,M,CLR,M,M,M,M,M,M,M,M,M,M,M,M,M,M,80.64,KBVU 090735Z AUTO 00000KT 10SM CLR 28/08 A2991 RMK AO2,M
BAM,2024-09-09 07:35,-116.8743,40.5990,1382.36,59.00,28.40,30.98,140.00,4.00,0.00,30.09,M,10.00,M,CLR,M,M,M,M,M,M,M,M,M,M,M,M,M,M,59.00,KBAM 090735Z AUTO 14004KT 10SM CLR 15/M02 A3009 RMK AO1,M
TMT,2024-09-09 07:35,-117.1971,39.4643,1749.34,50.00,32.00,49.81,240.00,3.00,0.00,30.19,M,10.00,M,CLR,M,M,M,M,M,M,M,M,M,M,M,M,M,M,50.00,KTMT 090735Z AUTO 24003KT 10SM CLR 10/00 A3019 RMK AO2 T00990000,M
LOL,2024-09-09 07:53,-118.5701,40.0684,1192.43,56.00,25.00,30.00,40.00,3.00,0.00,30.06,1014.30,10.00,M,CLR,M,M,M,M,M,M,M,M,M,M,M,M,M,M,56.00,KLOL 090753Z AUTO 04003KT 10SM CLR 13/M04 A3006 RMK AO2 SLP143 T01331039 403440078,M
P68,2024-09-09 07:53,-116.0056,39.6014,1993.00,62.00,37.00,39.35,170.00,3.00,0.00,30.18,1012.90,M,M,M,M,M,M,M,M,M,M,M,M,M,M,M,M,M,62.00,KP68 090753Z AUTO 17003KT 17/03 A3018 RMK AO1 SLP129 T01670028 402940117,M
DRA,2024-09-09 07:53,-116.0278,36.6206,1009.00,83.00,43.00,24.44,0.00,0.00,0.00,29.98,1009.10,10.00,M,CLR,M,M,M,M,M,M,M,M,M,M,M,M,M,M,80.79,KDRA 090753Z AUTO 00000KT 10SM CLR 28/06 A2998 RMK AO2 SLP091 T02830061 403890222,M
ELY,2024-09-09 07:53,-114.8453,39.2950,1909.00,57.00,43.00,59.40,170.00,10.00,T,30.24,1013.60,10.00,M,OVC,M,M,M,12000.00,M,M,M,M,M,M,M,M,M,M,57.00,KELY 090753Z AUTO 17010KT 10SM OVC120 14/06 A3024 RMK AO2 RAB08E13 SLP136 P0000 T01390061 403060106,M
VGT,2024-09-09 07:53,-115.1933,36.2111,667.00,87.00,48.00,25.98,0.00,0.00,0.00,29.91,1011.40,10.00,M,CLR,M,M,M,M,M,M,M,M,M,M,M,M,M,M,84.18,KVGT 090753Z AUTO 00000KT 10SM CLR 31/09 A2991 RMK AO2 SLP114 T03060089 403940267,M
RNO,2024-09-09 07:55,-119.7711,39.4839,1341.00,65.00,35.00,32.72,0.00,0.00,0.00,30.13,1014.50,10.00,M,CLR,M,M,M,M,M,M,M,M,M,M,M,M,M,M,65.00,KRNO 090755Z 00000KT 10SM CLR 18/02 A3013 RMK AO2 SLP145 FU SE THRU S T01830017 403330139,M
BAM,2024-09-09 07:55,-116.8743,40.5990,1382.36,59.00,30.20,33.35,180.00,4.00,0.00,30.10,M,10.00,M,CLR,M,M,M,M,M,M,M,M,M,M,M,M,M,M,59.00,KBAM 090755Z AUTO 18004KT 10SM CLR 15/M01 A3010 RMK AO1,M
TMT,2024-09-09 07:55,-117.1971,39.4643,1749.34,49.30,31.00,49.10,230.00,4.00,0.00,30.20,M,10.00,M,CLR,M,M,M,M,M,M,M,M,M,M,M,M,M,M,47.62,KTMT 090755Z AUTO 23004KT 10SM CLR 10/00 A3020 RMK AO2 T00961005 403190061,M
BVU,2024-09-09 07:55,-114.8611,35.9475,671.00,82.40,44.60,26.49,270.00,4.00,0.00,29.91,M,10.00,M,CLR,M,M,M,M,M,M,M,M,M,M,M,M,M,M,80.50,KBVU 090755Z AUTO 27004KT 10SM CLR 28/07 A2991 RMK AO2,M
INS,2024-09-09 07:55,-115.6733,36.5872,955.00,M,M,M,310.00,3.00,0.00,M,M,10.00,M,M,M,M,M,M,M,M,M,M,M,M,M,M,M,M,M,KINS 090755Z AUTO 31003KT 10SM M M M RMK AO2 SLPNO 403650196 RVRNO TSNO $,M
LSV,2024-09-09 07:55,-115.0343,36.2362,570.00,83.70,42.00,22.99,50.00,4.00,0.00,29.86,1008.10,10.00,M,CLR,M,M,M,M,M,M,M,M,M,M,M,M,M,M,81.21,KLSV 090755Z AUTO 05004KT 10SM CLR 29/06 A2986 RMK AO2 SLP081 T02870055 403930265 $,M
WMC,2024-09-09 07:56,-117.8072,40.9019,1315.00,58.00,24.00,26.77,0.00,0.00,0.00,30.08,1013.70,10.00,M,CLR,M,M,M,M,M,M,M,M,M,M,M,M,M,M,58.00,KWMC 090756Z AUTO 00000KT 10SM CLR 14/M04 A3008 RMK AO2 SLP137 T01441044 403390083,M
HND,2024-09-09 07:56,-115.1344,35.9729,742.79,83.00,45.00,26.37,230.00,9.00,0.00,29.96,1012.80,10.00,M,CLR,M,M,M,M,M,M,M,M,M,M,M,M,M,M,80.93,KHND 090756Z AUTO 23009KT 10SM CLR 28/07 A2996 RMK AO2 SLP128 T02830072,M
TPH,2024-09-09 07:56,-117.0904,38.0505,1654.00,74.00,30.00,19.67,260.00,6.00,0.00,30.15,1011.30,10.00,M,CLR,M,M,M,M,M,M,M,M,M,M,M,M,M,M,74.00,KTPH 090756Z AUTO 26006KT 10SM CLR 23/M01 A3015 RMK AO2 SLP113 T02331011 403330161,M
LAS,2024-09-09 07:56,-115.1634,36.0719,663.00,86.00,44.00,23.05,200.00,3.00,0.00,29.93,1010.30,10.00,M,FEW,M,M,M,16000.00,M,M,M,M,M,M,M,M,M,M,83.03,KLAS 090756Z 20003KT 10SM FEW160 30/07 A2993 RMK AO2 SLP103 T03000067 403940267 $,M
EKO,2024-09-09 07:56,-115.7860,40.8242,1367.00,64.00,37.00,36.68,30.00,4.00,0.00,30.11,1013.40,10.00,M,CLR,M,M,M,M,M,M,M,M,M,M,M,M,M,M,64.00,KEKO 090756Z AUTO 03004KT 10SM CLR 18/03 A3011 RMK AO2 SLP134 T01780028 403330111,M
NFL,2024-09-09 07:57,-118.7010,39.4166,1199.00,67.00,31.00,26.00,330.00,5.00,0.00,30.07,1015.20,10.00,M,CLR,M,M,M,M,M,M,M,M,M,M,M,M,M,M,67.00,KNFL 090757Z AUTO 33005KT 10SM CLR 19/M01 A3007 RMK AO2 SLP152 T01941006 403560117,M
INS,2024-09-09 07:59,-115.6733,36.5872,955.00,77.00,48.20,36.22,310.00,3.00,0.00,29.97,M,10.00,M,CLR,M,M,M,M,M,M,M,M,M,M,M,M,M,M,77.00,KINS 090759Z 31003KT 10SM CLR 25/09 A2997 RMK SLPNO,M
BVU,2024-09-09 08:15,-114.8611,35.9475,671.00,82.40,44.60,26.49,0.00,0.00,0.00,29.91,M,10.00,M,CLR,M,M,M,M,M,M,M,M,M,M,M,M,M,M,80.50,KBVU 090815Z AUTO 00000KT 10SM CLR 28/07 A2991 RMK AO2,M
BAM,2024-09-09 08:15,-116.8743,40.5990,1382.36,59.00,28.40,30.98,210.00,6.00,0.00,30.10,M,10.00,M,CLR,M,M,M,M,M,M,M,M,M,M,M,M,M,M,59.00,KBAM 090815Z AUTO 21006KT 10SM CLR 15/M02 A3010 RMK AO1,M
TMT,2024-09-09 08:15,-117.1971,39.4643,1749.34,44.60,27.00,49.77,0.00,0.00,0.00,30.20,M,10.00,M,CLR,M,M,M,M,M,M,M,M,M,M,M,M,M,M,44.60,KTMT 090815Z AUTO 00000KT 10SM CLR 07/M03 A3020 RMK AO2 T00701027,M
BVU,2024-09-09 08:35,-114.8611,35.9475,671.00,78.80,50.00,36.51,0.00,0.00,0.00,29.91,M,10.00,M,CLR,M,M,M,M,M,M,M,M,M,M,M,M,M,M,78.80,KBVU 090835Z AUTO 00000KT 10SM CLR 26/10 A2991 RMK AO2,M
BAM,2024-09-09 08:35,-116.8743,40.5990,1382.36,53.60,26.60,34.98,150.00,4.00,0.00,30.10,M,10.00,M,CLR,M,M,M,M,M,M,M,M,M,M,M,M,M,M,53.60,KBAM 090835Z AUTO 15004KT 10SM CLR 12/M03 A3010 RMK AO1,M
TMT,2024-09-09 08:35,-117.1971,39.4643,1749.34,47.30,28.20,47.21,0.00,0.00,0.00,30.20,M,10.00,M,CLR,M,M,M,M,M,M,M,M,M,M,M,M,M,M,47.30,KTMT 090835Z AUTO 00000KT 10SM CLR 09/M02 A3020 RMK AO2 T00851021,M
P68,2024-09-09 08:53,-116.0056,39.6014,1993.00,55.00,36.00,48.62,M,3.00,0.00,30.18,1014.10,M,M,M,M,M,M,M,M,M,M,M,M,M,M,M,M,M,55.00,KP68 090853Z AUTO VRB03KT 13/02 A3018 RMK AO1 SLP141 T01280022 53004,M
DRA,2024-09-09 08:53,-116.0278,36.6206,1009.00,78.00,42.00,27.69,0.00,0.00,0.00,29.98,1009.30,10.00,M,CLR,M,M,M,M,M,M,M,M,M,M,M,M,M,M,78.00,KDRA 090853Z AUTO 00000KT 10SM CLR 26/06 A2998 RMK AO2 SLP093 T02560056 53004,M
ELY,2024-09-09 08:53,-114.8453,39.2950,1909.00,59.00,41.00,51.18,200.00,11.00,0.00,30.23,1013.50,10.00,M,BKN,M,M,M,11000.00,M,M,M,M,M,M,M,M,M,M,59.00,KELY 090853Z AUTO 20011KT 10SM BKN110 15/05 A3023 RMK AO2 SLP135 60000 T01500050 50000,M
VGT,2024-09-09 08:53,-115.1933,36.2111,667.00,85.00,48.00,27.70,290.00,3.00,0.00,29.91,1011.30,10.00,M,CLR,M,M,M,M,M,M,M,M,M,M,M,M,M,M,82.61,KVGT 090853Z AUTO 29003KT 10SM CLR 29/09 A2991 RMK AO2 SLP113 T02940089 56002,M
LOL,2024-09-09 08:53,-118.5701,40.0684,1192.43,53.00,29.00,39.47,0.00,0.00,0.00,30.07,1014.70,10.00,M,CLR,M,M,M,M,M,M,M,M,M,M,M,M,M,M,53.00,KLOL 090853Z AUTO 00000KT 10SM CLR 12/M02 A3007 RMK AO2 SLP147 T01171017 52008,M
BVU,2024-09-09 08:55,-114.8611,35.9475,671.00,80.60,44.60,28.08,310.00,6.00,0.00,29.91,M,10.00,M,CLR,M,M,M,M,M,M,M,M,M,M,M,M,M,M,79.42,KBVU 090855Z AUTO 31006KT 10SM CLR 27/07 A2991 RMK AO2,M
INS,2024-09-09 08:55,-115.6733,36.5872,955.00,M,M,M,330.00,4.00,0.00,M,M,10.00,M,M,M,M,M,M,M,M,M,M,M,M,M,M,M,M,M,KINS 090855Z AUTO 33004KT 10SM M M M RMK AO2 SLPNO RVRNO TSNO $,M
RNO,2024-09-09 08:55,-119.7711,39.4839,1341.00,62.00,35.00,36.35,190.00,4.00,0.00,30.14,1014.70,10.00,M,CLR,M,M,M,M,M,M,M,M,M,M,M,M,M,M,62.00,KRNO 090855Z 19004KT 10SM CLR 17/02 A3014 RMK AO2 SLP147 FU S T01670017 51009,M
BAM,2024-09-09 08:55,-116.8743,40.5990,1382.36,53.60,26.60,34.98,0.00,0.00,0.00,30.10,M,10.00,M,CLR,M,M,M,M,M,M,M,M,M,M,M,M,M,M,53.60,KBAM 090855Z AUTO 00000KT 10SM CLR 12/M03 A3010 RMK AO1,M
TMT,2024-09-09 08:55,-117.1971,39.4643,1749.34,46.60,30.00,52.17,260.00,3.00,0.00,30.20,M,10.00,M,CLR,M,M,M,M,M,M,M,M,M,M,M,M,M,M,45.38,KTMT 090855Z AUTO 26003KT 10SM CLR 08/M01 A3020 RMK AO2 T00811012,M
LSV,2024-09-09 08:55,-115.0343,36.2362,570.00,82.60,42.00,23.82,60.00,5.00,0.00,29.86,1008.00,10.00,M,CLR,M,M,M,M,M,M,M,M,M,M,M,M,M,M,80.47,KLSV 090855Z AUTO 06005KT 10SM CLR 28/06 A2986 RMK AO2 SLP080 T02810056 55000 $,M
EKO,2024-09-09 08:56,-115.7860,40.8242,1367.00,57.00,36.00,45.22,0.00,0.00,0.00,30.12,1014.00,10.00,M,CLR,M,M,M,M,M,M,M,M,M,M,M,M,M,M,57.00,KEKO 090856Z AUTO 00000KT 10SM CLR 14/02 A3012 RMK AO2 SLP140 T01390022 51006,M
WMC,2024-09-09 08:56,-117.8072,40.9019,1315.00,54.00,24.00,30.94,0.00,0.00,0.00,30.08,1013.80,10.00,M,CLR,M,M,M,M,M,M,M,M,M,M,M,M,M,M,54.00,KWMC 090856Z AUTO 00000KT 10SM CLR 12/M04 A3008 RMK AO2 SLP138 T01221044 50008,M
HND,2024-09-09 08:56,-115.1344,35.9729,742.79,78.00,46.00,32.26,180.00,7.00,0.00,29.96,1012.90,10.00,M,CLR,M,M,M,M,M,M,M,M,M,M,M,M,M,M,78.00,KHND 090856Z AUTO 18007KT 10SM CLR 26/08 A2996 RMK AO2 SLP129 T02560078 53002,M
TPH,2024-09-09 08:56,-117.0904,38.0505,1654.00,70.00,29.00,21.62,0.00,0.00,0.00,30.15,1011.80,10.00,M,CLR,M,M,M,M,M,M,M,M,M,M,M,M,M,M,70.00,KTPH 090856Z AUTO 00000KT 10SM CLR 21/M02 A3015 RMK AO2 SLP118 T02111017 51007,M
LAS,2024-09-09 08:56,-115.1634,36.0719,663.00,83.00,45.00,26.37,180.00,3.00,0.00,29.93,1010.30,10.00,M,FEW,M,M,M,18000.00,M,M,M,M,M,M,M,M,M,M,80.93,KLAS 090856Z 18003KT 10SM FEW180 28/07 A2993 RMK AO2 SLP103 T02830072 53000 $,M
INS,2024-09-09 08:57,-115.6733,36.5872,955.00,77.00,44.60,31.62,330.00,4.00,0.00,29.98,M,10.00,M,CLR,M,M,M,M,M,M,M,M,M,M,M,M,M,M,77.00,KINS 090857Z 33004KT 10SM CLR 25/07 A2998 RMK SLPNO,M
NFL,2024-09-09 08:57,-118.7010,39.4166,1199.00,61.00,30.00,30.80,270.00,3.00,0.00,30.08,1015.30,10.00,M,CLR,M,M,M,M,M,M,M,M,M,M,M,M,M,M,61.00,KNFL 090857Z AUTO 27003KT 10SM CLR 16/M01 A3008 RMK AO2 SLP153 T01611011 51008,M
BVU,2024-09-09 09:15,-114.8611,35.9475,671.00,80.60,48.20,32.18,330.00,4.00,0.00,29.91,M,10.00,M,CLR,M,M,M,M,M,M,M,M,M,M,M,M,M,M,79.71,KBVU 090915Z AUTO 33004KT 10SM CLR 27/09 A2991 RMK AO2,M
BAM,2024-09-09 09:15,-116.8743,40.5990,1382.36,53.60,28.40,37.67,0.00,0.00,0.00,30.11,M,10.00,M,CLR,M,M,M,M,M,M,M,M,M,M,M,M,M,M,53.60,KBAM 090915Z AUTO 00000KT 10SM CLR 12/M02 A3011 RMK AO1,M
TMT,2024-09-09 09:15,-117.1971,39.4643,1749.34,46.00,31.00,55.58,240.00,5.00,0.00,30.20,M,10.00,M,CLR,M,M,M,M,M,M,M,M,M,M,M,M,M,M,43.02,KTMT 090915Z AUTO 24005KT 10SM CLR 08/M01 A3020 RMK AO2 T00781006,M
BVU,2024-09-09 09:35,-114.8611,35.9475,671.00,80.60,46.40,30.07,320.00,3.00,0.00,29.92,M,10.00,M,CLR,M,M,M,M,M,M,M,M,M,M,M,M,M,M,79.56,KBVU 090935Z AUTO 32003KT 10SM CLR 27/08 A2992 RMK AO2,M
BAM,2024-09-09 09:35,-116.8743,40.5990,1382.36,55.40,28.40,35.28,250.00,3.00,0.00,30.11,M,10.00,M,CLR,M,M,M,M,M,M,M,M,M,M,M,M,M,M,55.40,KBAM 090935Z AUTO 25003KT 10SM CLR 13/M02 A3011 RMK AO1,M
TMT,2024-09-09 09:35,-117.1971,39.4643,1749.34,47.30,29.00,48.78,0.00,0.00,0.00,30.20,M,10.00,M,CLR,M,M,M,M,M,M,M,M,M,M,M,M,M,M,47.30,KTMT 090935Z AUTO 00000KT 10SM CLR 09/M02 A3020 RMK AO2 T00851017,M
P68,2024-09-09 09:53,-116.0056,39.6014,1993.00,54.00,36.00,50.42,200.00,6.00,0.00,30.18,1013.90,M,M,M,M,M,M,M,M,M,M,M,M,M,M,M,M,M,54.00,KP68 090953Z AUTO 20006KT 12/02 A3018 RMK AO1 SLP139 T01220022,M
DRA,2024-09-09 09:53,-116.0278,36.6206,1009.00,77.00,42.00,28.62,M,3.00,0.00,29.98,1009.30,10.00,M,CLR,M,M,M,M,M,M,M,M,M,M,M,M,M,M,77.00,KDRA 090953Z AUTO VRB03KT 10SM CLR 25/06 A2998 RMK AO2 SLP093 T02500056,M
ELY,2024-09-09 09:53,-114.8453,39.2950,1909.00,61.00,41.00,47.66,190.00,11.00,0.00,30.23,1013.20,10.00,M,CLR,M,M,M,M,M,M,M,M,M,M,M,M,M,M,61.00,KELY 090953Z AUTO 19011KT 10SM CLR 16/05 A3023 RMK AO2 SLP132 T01610050,M
VGT,2024-09-09 09:53,-115.1933,36.2111,667.00,83.00,48.00,29.54,0.00,0.00,0.00,29.91,1011.50,10.00,M,CLR,M,M,M,M,M,M,M,M,M,M,M,M,M,M,81.18,KVGT 090953Z AUTO 00000KT 10SM CLR 28/09 A2991 RMK AO2 SLP115 T02830089,M
LOL,2024-09-09 09:53,-118.5701,40.0684,1192.43,57.00,28.00,32.75,300.00,6.00,0.00,30.07,1014.30,10.00,M,CLR,M,M,M,M,M,M,M,M,M,M,M,M,M,M,57.00,KLOL 090953Z AUTO 30006KT 10SM CLR 14/M02 A3007 RMK AO2 SLP143 T01391022,M
BVU,2024-09-09 09:55,-114.8611,35.9475,671.00,78.80,50.00,36.51,0.00,0.00,0.00,29.92,M,10.00,M,CLR,M,M,M,M,M,M,M,M,M,M,M,M,M,M,78.80,KBVU 090955Z AUTO 00000KT 10SM CLR 26/10 A2992 RMK AO2,M
INS,2024-09-09 09:55,-115.6733,36.5872,955.00,M,M,M,280.00,4.00,0.00,M,M,10.00,M,M,M,M,M,M,M,M,M,M,M,M,M,M,M,M,M,KINS 090955Z AUTO 28004KT 10SM M M M RMK AO2 SLPNO RVRNO TSNO $,M
RNO,2024-09-09 09:55,-119.7711,39.4839,1341.00,59.00,36.00,42.08,170.00,4.00,0.00,30.14,1014.80,10.00,M,CLR,M,M,M,M,M,M,M,M,M,M,M,M,M,M,59.00,KRNO 090955Z 17004KT 10SM CLR 15/02 A3014 RMK AO2 SLP148 FU S T01500022,M
BAM,2024-09-09 09:55,-116.8743,40.5990,1382.36,53.60,30.20,40.54,220.00,7.00,0.00,30.11,M,10.00,M,CLR,M,M,M,M,M,M,M,M,M,M,M,M,M,M,53.60,KBAM 090955Z AUTO 22007KT 10SM CLR 12/M01 A3011 RMK AO1,M
TMT,2024-09-09 09:55,-117.1971,39.4643,1749.34,42.00,25.70,52.11,0.00,0.00,0.00,30.20,M,10.00,M,CLR,M,M,M,M,M,M,M,M,M,M,M,M,M,M,42.00,KTMT 090955Z AUTO 00000KT 10SM CLR 06/M03 A3020 RMK AO2 T00551035,M
LSV,2024-09-09 09:55,-115.0343,36.2362,570.00,82.20,42.80,24.89,40.00,4.00,0.00,29.87,1008.30,10.00,M,CLR,M,M,M,M,M,M,M,M,M,M,M,M,M,M,80.26,KLSV 090955Z AUTO 04004KT 10SM CLR 28/06 A2987 RMK AO2 SLP083 T02790060 $,M
EKO,2024-09-09 09:56,-115.7860,40.8242,1367.00,55.00,35.00,46.73,140.00,3.00,0.00,30.12,1014.20,10.00,M,CLR,M,M,M,M,M,M,M,M,M,M,M,M,M,M,55.00,KEKO 090956Z AUTO 14003KT 10SM CLR 13/02 A3012 RMK AO2 SLP142 T01280017,M
WMC,2024-09-09 09:56,-117.8072,40.9019,1315.00,53.00,23.00,30.78,0.00,0.00,0.00,30.08,1013.80,10.00,M,CLR,M,M,M,M,M,M,M,M,M,M,M,M,M,M,53.00,KWMC 090956Z AUTO 00000KT 10SM CLR 12/M05 A3008 RMK AO2 SLP138 T01171050,M
HND,2024-09-09 09:56,-115.1344,35.9729,742.79,81.00,47.00,30.36,170.00,7.00,0.00,29.96,1012.60,10.00,M,CLR,M,M,M,M,M,M,M,M,M,M,M,M,M,M,79.84,KHND 090956Z AUTO 17007KT 10SM CLR 27/08 A2996 RMK AO2 SLP126 T02720083,M
TPH,2024-09-09 09:56,-117.0904,38.0505,1654.00,69.00,29.00,22.37,330.00,3.00,0.00,30.15,1011.80,10.00,M,CLR,M,M,M,M,M,M,M,M,M,M,M,M,M,M,69.00,KTPH 090956Z AUTO 33003KT 10SM CLR 21/M02 A3015 RMK AO2 SLP118 T02061017,M
LAS,2024-09-09 09:56,-115.1634,36.0719,663.00,85.00,45.00,24.73,220.00,3.00,0.00,29.93,1010.10,10.00,M,FEW,M,M,M,18000.00,M,M,M,M,M,M,M,M,M,M,82.34,KLAS 090956Z 22003KT 10SM FEW180 29/07 A2993 RMK AO2 SLP101 T02940072 $,M
INS,2024-09-09 09:57,-115.6733,36.5872,955.00,73.40,41.00,31.05,280.00,4.00,0.00,29.98,M,10.00,M,CLR,M,M,M,M,M,M,M,M,M,M,M,M,M,M,73.40,KINS 090957Z 28004KT 10SM CLR 23/05 A2998 RMK SLPNO,M
NFL,2024-09-09 09:57,-118.7010,39.4166,1199.00,64.00,32.00,30.05,270.00,6.00,0.00,30.07,1015.20,10.00,M,CLR,M,M,M,M,M,M,M,M,M,M,M,M,M,M,64.00,KNFL 090957Z AUTO 27006KT 10SM CLR 18/00 A3007 RMK AO2 SLP152 T01780000,M
BVU,2024-09-09 10:15,-114.8611,35.9475,671.00,77.00,48.20,36.22,350.00,3.00,0.00,29.92,M,10.00,M,CLR,M,M,M,M,M,M,M,M,M,M,M,M,M,M,77.00,KBVU 091015Z AUTO 35003KT 10SM CLR 25/09 A2992 RMK AO2,M
BAM,2024-09-09 10:15,-116.8743,40.5990,1382.36,53.60,28.40,37.67,170.00,7.00,0.00,30.11,M,10.00,M,CLR,M,M,M,M,M,M,M,M,M,M,M,M,M,M,53.60,KBAM 091015Z AUTO 17007KT 10SM CLR 12/M02 A3011 RMK AO1,M
TMT,2024-09-09 10:15,-117.1971,39.4643,1749.34,39.40,23.70,53.02,0.00,0.00,0.00,30.20,M,10.00,M,CLR,M,M,M,M,M,M,M,M,M,M,M,M,M,M,39.40,KTMT 091015Z AUTO 00000KT 10SM CLR 04/M05 A3020 RMK AO2 T00411046,M
BVU,2024-09-09 10:35,-114.8611,35.9475,671.00,77.00,48.20,36.22,340.00,4.00,0.00,29.91,M,10.00,M,CLR,M,M,M,M,M,M,M,M,M,M,M,M,M,M,77.00,KBVU 091035Z AUTO 34004KT 10SM CLR 25/09 A2991 RMK AO2,M
BAM,2024-09-09 10:35,-116.8743,40.5990,1382.36,53.60,28.40,37.67,190.00,5.00,0.00,30.11,M,10.00,M,CLR,M,M,M,M,M,M,M,M,M,M,M,M,M,M,53.60,KBAM 091035Z AUTO 19005KT 10SM CLR 12/M02 A3011 RMK AO1,M
TMT,2024-09-09 10:35,-117.1971,39.4643,1749.34,43.00,26.60,52.05,0.00,0.00,0.00,30.20,M,10.00,M,CLR,M,M,M,M,M,M,M,M,M,M,M,M,M,M,43.00,KTMT 091035Z AUTO 00000KT 10SM CLR 06/M03 A3020 RMK AO2 T00611030,M
P68,2024-09-09 10:53,-116.0056,39.6014,1993.00,55.00,36.00,48.62,210.00,8.00,0.00,30.18,1013.70,M,M,M,M,M,M,M,M,M,M,M,M,M,M,M,M,M,55.00,KP68 091053Z AUTO 21008KT 13/02 A3018 RMK AO1 SLP137 T01280022,M
DRA,2024-09-09 10:53,-116.0278,36.6206,1009.00,79.00,44.00,28.93,M,3.00,0.00,29.99,1009.50,10.00,M,CLR,M,M,M,M,M,M,M,M,M,M,M,M,M,M,79.00,KDRA 091053Z AUTO VRB03KT 10SM CLR 26/07 A2999 RMK AO2 SLP095 T02610067,M
ELY,2024-09-09 10:53,-114.8453,39.2950,1909.00,54.00,41.00,61.32,180.00,7.00,0.00,30.22,1014.50,10.00,M,FEW,M,M,M,12000.00,M,M,M,M,M,M,M,M,M,M,54.00,KELY 091053Z AUTO 18007KT 10SM FEW120 12/05 A3022 RMK AO2 SLP145 T01220050,M
VGT,2024-09-09 10:53,-115.1933,36.2111,667.00,81.00,49.00,32.73,10.00,4.00,0.00,29.92,1011.80,10.00,M,CLR,M,M,M,M,M,M,M,M,M,M,M,M,M,M,80.02,KVGT 091053Z AUTO 01004KT 10SM CLR 27/09 A2992 RMK AO2 SLP118 T02720094,M
LOL,2024-09-09 10:53,-118.5701,40.0684,1192.43,49.00,27.00,42.16,140.00,7.00,0.00,30.08,1014.90,10.00,M,CLR,M,M,M,M,M,M,M,M,M,M,M,M,M,M,45.50,KLOL 091053Z AUTO 14007KT 10SM CLR 09/M03 A3008 RMK AO2 SLP149 T00941028,M
BVU,2024-09-09 10:55,-114.8611,35.9475,671.00,77.00,48.20,36.22,330.00,4.00,0.00,29.92,M,10.00,M,CLR,M,M,M,M,M,M,M,M,M,M,M,M,M,M,77.00,KBVU 091055Z AUTO 33004KT 10SM CLR 25/09 A2992 RMK AO2,M
INS,2024-09-09 10:55,-115.6733,36.5872,955.00,M,M,M,250.00,4.00,0.00,M,M,10.00,M,M,M,M,M,M,M,M,M,M,M,M,M,M,M,M,M,KINS 091055Z AUTO 25004KT 10SM M M M RMK AO2 SLPNO RVRNO TSNO $,M
RNO,2024-09-09 10:55,-119.7711,39.4839,1341.00,61.00,33.00,34.77,260.00,4.00,0.00,30.14,1014.80,10.00,M,CLR,M,M,M,M,M,M,M,M,M,M,M,M,M,M,61.00,KRNO 091055Z 26004KT 10SM CLR 16/01 A3014 RMK AO2 SLP148 FU S T01610006,M
BAM,2024-09-09 10:55,-116.8743,40.5990,1382.36,53.60,28.40,37.67,190.00,6.00,0.00,30.11,M,10.00,M,CLR,M,M,M,M,M,M,M,M,M,M,M,M,M,M,53.60,KBAM 091055Z AUTO 19006KT 10SM CLR 12/M02 A3011 RMK AO1,M
TMT,2024-09-09 10:55,-117.1971,39.4643,1749.34,40.30,24.80,53.61,0.00,0.00,0.00,30.20,M,10.00,M,CLR,M,M,M,M,M,M,M,M,M,M,M,M,M,M,40.30,KTMT 091055Z AUTO 00000KT 10SM CLR 05/M04 A3020 RMK AO2 T00461040,M
LSV,2024-09-09 10:55,-115.0343,36.2362,570.00,80.00,42.00,25.93,50.00,4.00,0.00,29.87,1008.40,10.00,M,CLR,M,M,M,M,M,M,M,M,M,M,M,M,M,M,78.92,KLSV 091055Z AUTO 05004KT 10SM CLR 27/06 A2987 RMK AO2 SLP084 T02670056 $,M
EKO,2024-09-09 10:56,-115.7860,40.8242,1367.00,58.00,37.00,45.38,80.00,3.00,0.00,30.13,1014.50,10.00,M,CLR,M,M,M,M,M,M,M,M,M,M,M,M,M,M,58.00,KEKO 091056Z AUTO 08003KT 10SM CLR 14/03 A3013 RMK AO2 SLP145 T01440028,M
WMC,2024-09-09 10:56,-117.8072,40.9019,1315.00,55.00,26.00,32.42,0.00,0.00,0.00,30.09,1013.90,10.00,M,CLR,M,M,M,M,M,M,M,M,M,M,M,M,M,M,55.00,KWMC 091056Z AUTO 00000KT 10SM CLR 13/M03 A3009 RMK AO2 SLP139 T01281033,M
HND,2024-09-09 10:56,-115.1344,35.9729,742.79,80.00,46.00,30.20,210.00,10.00,0.00,29.96,1012.90,10.00,M,CLR,M,M,M,M,M,M,M,M,M,M,M,M,M,M,79.20,KHND 091056Z AUTO 21010KT 10SM CLR 27/08 A2996 RMK AO2 SLP129 T02670078,M
TPH,2024-09-09 10:56,-117.0904,38.0505,1654.00,60.00,28.00,29.41,0.00,0.00,0.00,30.16,1012.80,10.00,M,CLR,M,M,M,M,M,M,M,M,M,M,M,M,M,M,60.00,KTPH 091056Z AUTO 00000KT 10SM CLR 16/M02 A3016 RMK AO2 SLP128 T01561022,M
LAS,2024-09-09 10:56,-115.1634,36.0719,663.00,83.00,46.00,27.39,0.00,0.00,0.00,29.93,1010.50,10.00,M,FEW,M,M,M,18000.00,M,M,M,M,M,M,M,M,M,M,81.00,KLAS 091056Z 00000KT 10SM FEW180 28/08 A2993 RMK AO2 SLP105 T02830078 $,M
NFL,2024-09-09 10:57,-118.7010,39.4166,1199.00,59.00,32.00,35.87,270.00,4.00,0.00,30.07,1015.20,10.00,M,CLR,M,M,M,M,M,M,M,M,M,M,M,M,M,M,59.00,KNFL 091057Z AUTO 27004KT 10SM CLR 15/00 A3007 RMK AO2 SLP152 T01500000,M
INS,2024-09-09 10:59,-115.6733,36.5872,955.00,71.60,42.80,35.37,250.00,4.00,0.00,29.98,M,10.00,M,CLR,M,M,M,M,M,M,M,M,M,M,M,M,M,M,71.60,KINS 091059Z 25004KT 10SM CLR 22/06 A2998 RMK SLPNO,M
BVU,2024-09-09 11:15,-114.8611,35.9475,671.00,78.80,48.20,34.13,350.00,3.00,0.00,29.92,M,10.00,M,CLR,M,M,M,M,M,M,M,M,M,M,M,M,M,M,78.80,KBVU 091115Z AUTO 35003KT 10SM CLR 26/09 A2992 RMK AO2,M
BAM,2024-09-09 11:15,-116.8743,40.5990,1382.36,55.40,28.40,35.28,160.00,3.00,0.00,30.11,M,10.00,M,CLR,M,M,M,M,M,M,M,M,M,M,M,M,M,M,55.40,KBAM 091115Z AUTO 16003KT 10SM CLR 13/M02 A3011 RMK AO1,M
TMT,2024-09-09 11:15,-117.1971,39.4643,1749.34,42.00,26.20,53.20,0.00,0.00,0.00,30.20,M,10.00,M,CLR,M,M,M,M,M,M,M,M,M,M,M,M,M,M,42.00,KTMT 091115Z AUTO 00000KT 10SM CLR 06/M03 A3020 RMK AO2 T00561032,M
BVU,2024-09-09 11:35,-114.8611,35.9475,671.00,78.80,48.20,34.13,330.00,4.00,0.00,29.92,M,10.00,M,CLR,M,M,M,M,M,M,M,M,M,M,M,M,M,M,78.80,KBVU 091135Z AUTO 33004KT 10SM CLR 26/09 A2992 RMK AO2,M
BAM,2024-09-09 11:35,-116.8743,40.5990,1382.36,50.00,26.60,39.95,110.00,3.00,0.00,30.11,M,10.00,M,CLR,M,M,M,M,M,M,M,M,M,M,M,M,M,M,50.00,KBAM 091135Z AUTO 11003KT 10SM CLR 10/M03 A3011 RMK AO1,M
TMT,2024-09-09 11:35,-117.1971,39.4643,1749.34,43.00,26.40,51.62,0.00,0.00,0.00,30.20,M,10.00,M,CLR,M,M,M,M,M,M,M,M,M,M,M,M,M,M,43.00,KTMT 091135Z AUTO 00000KT 10SM CLR 06/M03 A3020 RMK AO2 T00611031,M
P68,2024-09-09 11:53,-116.0056,39.6014,1993.00,51.00,34.00,52.00,170.00,5.00,0.00,30.18,1014.70,M,M,M,M,M,M,M,M,M,M,M,M,M,M,M,M,M,51.00,KP68 091153Z AUTO 17005KT 11/01 A3018 RMK AO1 SLP147 70002 T01060011 10244 20106 55000,M
DRA,2024-09-09 11:53,-116.0278,36.6206,1009.00,75.00,42.00,30.59,340.00,4.00,0.00,29.99,1010.10,10.00,M,CLR,M,M,M,M,M,M,M,M,M,M,M,M,M,M,75.00,KDRA 091153Z AUTO 34004KT 10SM CLR 24/06 A2999 RMK AO2 SLP101 T02390056 10300 20233 53002,M
ELY,2024-09-09 11:53,-114.8453,39.2950,1909.00,50.00,40.00,68.37,140.00,7.00,0.00,30.23,1016.40,10.00,M,CLR,M,M,M,M,M,M,M,M,M,M,M,M,M,M,50.00,KELY 091153Z AUTO 14007KT 10SM CLR 10/04 A3023 RMK AO2 SLP164 60000 70008 T01000044 10222 20100 55002,M
VGT,2024-09-09 11:53,-115.1933,36.2111,667.00,81.00,49.00,32.73,300.00,4.00,0.00,29.93,1012.10,10.00,M,CLR,M,M,M,M,M,M,M,M,M,M,M,M,M,M,80.02,KVGT 091153Z AUTO 30004KT 10SM CLR 27/09 A2993 RMK AO2 SLP121 T02720094 10317 20267 53005,M
LOL,2024-09-09 11:53,-118.5701,40.0684,1192.43,51.00,31.00,46.09,30.00,4.00,0.00,30.08,1015.00,10.00,M,CLR,M,M,M,M,M,M,M,M,M,M,M,M,M,M,51.00,KLOL 091153Z AUTO 03004KT 10SM CLR 11/M01 A3008 RMK AO2 SLP150 T01061006 10244 20089 53003,M
BAM,2024-09-09 11:55,-116.8743,40.5990,1382.36,50.00,28.40,43.03,70.00,3.00,0.00,30.11,M,10.00,M,CLR,M,M,M,M,M,M,M,M,M,M,M,M,M,M,50.00,KBAM 091155Z AUTO 07003KT 10SM CLR 10/M02 A3011 RMK AO1,M
TMT,2024-09-09 11:55,-117.1971,39.4643,1749.34,44.00,27.00,50.93,0.00,0.00,0.00,30.21,M,10.00,M,CLR,M,M,M,M,M,M,M,M,M,M,M,M,M,M,44.00,KTMT 091155Z AUTO 00000KT 10SM CLR 07/M03 A3021 RMK AO2 T00671028 10134 20041,M
BVU,2024-09-09 11:55,-114.8611,35.9475,671.00,77.00,48.20,36.22,330.00,4.00,0.00,29.92,M,10.00,M,CLR,M,M,M,M,M,M,M,M,M,M,M,M,M,M,77.00,KBVU 091155Z AUTO 33004KT 10SM CLR 25/09 A2992 RMK AO2 LTG DSNT SE,M
INS,2024-09-09 11:55,-115.6733,36.5872,955.00,M,M,M,240.00,3.00,0.00,M,M,10.00,M,M,M,M,M,M,M,M,M,M,M,M,M,M,M,M,M,KINS 091155Z AUTO 24003KT 10SM M M M RMK AO2 SLPNO RVRNO TSNO $,M
RNO,2024-09-09 11:55,-119.7711,39.4839,1341.00,60.00,33.00,36.03,290.00,3.00,0.00,30.14,1015.00,10.00,M,CLR,M,M,M,M,M,M,M,M,M,M,M,M,M,M,60.00,KRNO 091155Z 29003KT 10SM CLR 16/01 A3014 RMK AO2 SLP150 FU S T01560006 10233 20150 51000,M
LSV,2024-09-09 11:55,-115.0343,36.2362,570.00,79.50,42.60,26.97,60.00,8.00,0.00,29.88,1008.80,10.00,M,CLR,M,M,M,M,M,M,M,M,M,M,M,M,M,M,79.50,KLSV 091155Z AUTO 06008KT 10SM CLR 26/06 A2988 RMK AO2 SLP088 T02640059 10328 20264 53005 $,M
EKO,2024-09-09 11:56,-115.7860,40.8242,1367.00,58.00,36.00,43.62,30.00,3.00,0.00,30.14,1014.60,10.00,M,CLR,M,M,M,M,M,M,M,M,M,M,M,M,M,M,58.00,KEKO 091156Z AUTO 03003KT 10SM CLR 14/02 A3014 RMK AO2 SLP146 T01440022 10206 20111 51005,M
WMC,2024-09-09 11:56,-117.8072,40.9019,1315.00,50.00,26.00,38.97,120.00,5.00,0.00,30.09,1014.20,10.00,M,CLR,M,M,M,M,M,M,M,M,M,M,M,M,M,M,50.00,KWMC 091156Z AUTO 12005KT 10SM CLR 10/M03 A3009 RMK AO2 SLP142 T01001033 10222 20094 51002,M
HND,2024-09-09 11:56,-115.1344,35.9729,742.79,77.00,48.00,35.95,210.00,7.00,0.00,29.97,1013.40,10.00,M,CLR,M,M,M,M,M,M,M,M,M,M,M,M,M,M,77.00,KHND 091156Z AUTO 21007KT 10SM CLR 25/09 A2997 RMK AO2 SLP134 70002 T02500089 10306 20250 53002,M
TPH,2024-09-09 11:56,-117.0904,38.0505,1654.00,58.00,30.00,34.28,340.00,6.00,0.00,30.16,1013.50,10.00,M,CLR,M,M,M,M,M,M,M,M,M,M,M,M,M,M,58.00,KTPH 091156Z AUTO 34006KT 10SM CLR 14/M01 A3016 RMK AO2 SLP135 T01441011 10267 20144 53003,M
LAS,2024-09-09 11:56,-115.1634,36.0719,663.00,82.00,47.00,29.39,0.00,0.00,0.00,29.94,1010.90,10.00,M,CLR,M,M,M,M,M,M,M,M,M,M,M,M,M,M,80.44,KLAS 091156Z 00000KT 10SM CLR 28/08 A2994 RMK AO2 SLP109 T02780083 10322 20278 53004 $,M
NFL,2024-09-09 11:57,-118.7010,39.4166,1199.00,56.00,35.00,45.06,230.00,4.00,0.00,30.08,1015.30,10.00,M,CLR,M,M,M,M,M,M,M,M,M,M,M,M,M,M,56.00,KNFL 091157Z AUTO 23004KT 10SM CLR 13/02 A3008 RMK AO2 SLP153 T01330017 10206 20122 53000,M
INS,2024-09-09 11:58,-115.6733,36.5872,955.00,71.60,42.80,35.37,240.00,3.00,0.00,29.99,M,10.00,M,CLR,M,M,M,M,M,M,M,M,M,M,M,M,M,M,71.60,KINS 091158Z 24003KT 10SM CLR 22/06 A2999 RMK SLPNO,M
BVU,2024-09-09 12:15,-114.8611,35.9475,671.00,77.00,48.20,36.22,0.00,0.00,0.00,29.92,M,10.00,M,CLR,M,M,M,M,M,M,M,M,M,M,M,M,M,M,77.00,KBVU 091215Z AUTO 00000KT 10SM CLR 25/09 A2992 RMK AO2 LTG DSNT SE,M
BAM,2024-09-09 12:15,-116.8743,40.5990,1382.36,50.00,30.20,46.31,80.00,4.00,0.00,30.11,M,10.00,M,CLR,M,M,M,M,M,M,M,M,M,M,M,M,M,M,50.00,KBAM 091215Z AUTO 08004KT 10SM CLR 10/M01 A3011 RMK AO1,M
TMT,2024-09-09 12:15,-117.1971,39.4643,1749.34,39.60,25.70,57.19,0.00,0.00,0.00,30.21,M,10.00,M,CLR,M,M,M,M,M,M,M,M,M,M,M,M,M,M,39.60,KTMT 091215Z AUTO 00000KT 10SM CLR 04/M03 A3021 RMK AO2 T00421035,M
BVU,2024-09-09 12:35,-114.8611,35.9475,671.00,78.80,48.20,34.13,0.00,0.00,0.00,29.93,M,10.00,M,CLR,M,M,M,M,M,M,M,M,M,M,M,M,M,M,78.80,KBVU 091235Z AUTO 00000KT 10SM CLR 26/09 A2993 RMK AO2,M
BAM,2024-09-09 12:35,-116.8743,40.5990,1382.36,50.00,30.20,46.31,0.00,0.00,0.00,30.11,M,10.00,M,CLR,M,M,M,M,M,M,M,M,M,M,M,M,M,M,50.00,KBAM 091235Z AUTO 00000KT 10SM CLR 10/M01 A3011 RMK AO1,M
TMT,2024-09-09 12:35,-117.1971,39.4643,1749.34,41.00,25.30,53.27,210.00,5.00,0.00,30.21,M,10.00,M,CLR,M,M,M,M,M,M,M,M,M,M,M,M,M,M,37.08,KTMT 091235Z AUTO 21005KT 10SM CLR 05/M04 A3021 RMK AO2 T00501037,M
P68,2024-09-09 12:53,-116.0056,39.6014,1993.00,46.00,33.00,60.25,240.00,3.00,0.00,30.19,1015.90,M,M,M,M,M,M,M,M,M,M,M,M,M,M,M,M,M,44.69,KP68 091253Z AUTO 24003KT 08/01 A3019 RMK AO1 SLP159 T00780006,M
DRA,2024-09-09 12:53,-116.0278,36.6206,1009.00,74.00,42.00,31.63,150.00,3.00,0.00,30.00,1010.60,10.00,M,CLR,M,M,M,M,M,M,M,M,M,M,M,M,M,M,74.00,KDRA 091253Z AUTO 15003KT 10SM CLR 23/06 A3000 RMK AO2 SLP106 T02330056,M
ELY,2024-09-09 12:53,-114.8453,39.2950,1909.00,49.00,39.00,68.25,M,5.00,0.00,30.24,1016.70,10.00,M,CLR,M,M,M,M,M,M,M,M,M,M,M,M,M,M,46.58,KELY 091253Z AUTO VRB05KT 10SM CLR 09/04 A3024 RMK AO2 SLP167 T00940039,M
VGT,2024-09-09 12:53,-115.1933,36.2111,667.00,80.00,48.00,32.57,290.00,5.00,0.00,29.94,1012.50,10.00,M,CLR,M,M,M,M,M,M,M,M,M,M,M,M,M,M,79.37,KVGT 091253Z 29005KT 10SM CLR 27/09 A2994 RMK AO2 SLP125 T02670089,M
LOL,2024-09-09 12:53,-118.5701,40.0684,1192.43,51.00,31.00,46.09,0.00,0.00,0.00,30.09,1015.20,10.00,M,CLR,M,M,M,M,M,M,M,M,M,M,M,M,M,M,51.00,KLOL 091253Z AUTO 00000KT 10SM CLR 11/M01 A3009 RMK AO2 SLP152 T01061006,M
BVU,2024-09-09 12:55,-114.8611,35.9475,671.00,78.80,48.20,34.13,0.00,0.00,0.00,29.93,M,10.00,M,CLR,M,M,M,M,M,M,M,M,M,M,M,M,M,M,78.80,KBVU 091255Z AUTO 00000KT 10SM CLR 26/09 A2993 RMK AO2,M
INS,2024-09-09 12:55,-115.6733,36.5872,955.00,M,M,M,0.00,0.00,0.00,M,M,10.00,M,M,M,M,M,M,M,M,M,M,M,M,M,M,M,M,M,KINS 091255Z AUTO 00000KT 10SM M M M RMK AO2 SLPNO RVRNO TSNO $,M
RNO,2024-09-09 12:55,-119.7711,39.4839,1341.00,55.00,37.00,50.58,0.00,0.00,0.00,30.15,1015.80,10.00,M,CLR,M,M,M,M,M,M,M,M,M,M,M,M,M,M,55.00,KRNO 091255Z 00000KT 10SM CLR 13/03 A3015 RMK AO2 SLP158 FU DSNT S T01280028,M
BAM,2024-09-09 12:55,-116.8743,40.5990,1382.36,50.00,30.20,46.31,120.00,3.00,0.00,30.12,M,10.00,M,CLR,M,M,M,M,M,M,M,M,M,M,M,M,M,M,50.00,KBAM 091255Z AUTO 12003KT 10SM CLR 10/M01 A3012 RMK AO1,M
TMT,2024-09-09 12:55,-117.1971,39.4643,1749.34,36.30,22.60,57.18,0.00,0.00,0.00,30.22,M,10.00,M,CLR,M,M,M,M,M,M,M,M,M,M,M,M,M,M,36.30,KTMT 091255Z AUTO 00000KT 10SM CLR 02/M05 A3022 RMK AO2 T00241052,M
LSV,2024-09-09 12:55,-115.0343,36.2362,570.00,81.00,43.00,26.08,50.00,7.00,0.00,29.89,1009.20,10.00,M,CLR,M,M,M,M,M,M,M,M,M,M,M,M,M,M,79.54,KLSV 091255Z AUTO 05007KT 10SM CLR 27/06 A2989 RMK AO2 SLP092 T02730061 $,M
EKO,2024-09-09 12:56,-115.7860,40.8242,1367.00,55.00,36.00,48.62,50.00,5.00,0.00,30.14,1015.00,10.00,M,CLR,M,M,M,M,M,M,M,M,M,M,M,M,M,M,55.00,KEKO 091256Z AUTO 05005KT 10SM CLR 13/02 A3014 RMK AO2 SLP150 T01280022,M
WMC,2024-09-09 12:56,-117.8072,40.9019,1315.00,49.00,26.00,40.45,150.00,7.00,0.00,30.09,1014.60,10.00,M,CLR,M,M,M,M,M,M,M,M,M,M,M,M,M,M,45.50,KWMC 091256Z AUTO 15007KT 10SM CLR 09/M03 A3009 RMK AO2 SLP146 T00941033,M
HND,2024-09-09 12:56,-115.1344,35.9729,742.79,76.00,48.00,37.17,0.00,0.00,0.00,29.99,1014.10,10.00,M,CLR,M,M,M,M,M,M,M,M,M,M,M,M,M,M,76.00,KHND 091256Z 00000KT 10SM CLR 24/09 A2999 RMK AO2 SLP141 T02440089,M
TPH,2024-09-09 12:56,-117.0904,38.0505,1654.00,58.00,27.00,30.32,350.00,7.00,0.00,30.17,1013.80,10.00,M,CLR,M,M,M,M,M,M,M,M,M,M,M,M,M,M,58.00,KTPH 091256Z AUTO 35007KT 10SM CLR 14/M03 A3017 RMK AO2 SLP138 T01441028,M
LAS,2024-09-09 12:56,-115.1634,36.0719,663.00,81.00,47.00,30.36,250.00,3.00,0.00,29.95,1011.40,10.00,M,FEW,M,M,M,12000.00,M,M,M,M,M,M,M,M,M,M,79.84,KLAS 091256Z 25003KT 10SM FEW120 27/08 A2995 RMK AO2 SLP114 T02720083 $,M
NFL,2024-09-09 12:57,-118.7010,39.4166,1199.00,55.00,33.00,43.14,150.00,5.00,0.00,30.08,1015.40,10.00,M,CLR,M,M,M,M,M,M,M,M,M,M,M,M,M,M,55.00,KNFL 091257Z AUTO 15005KT 10SM CLR 13/01 A3008 RMK AO2 SLP154 T01280006,M
INS,2024-09-09 12:58,-115.6733,36.5872,955.00,69.80,41.00,35.09,0.00,0.00,0.00,30.00,M,10.00,M,CLR,M,M,M,M,M,M,M,M,M,M,M,M,M,M,69.80,KINS 091258Z 00000KT 10SM CLR 21/05 A3000 RMK SLPNO,M
BVU,2024-09-09 13:15,-114.8611,35.9475,671.00,75.20,48.20,38.46,340.00,3.00,0.00,29.94,M,10.00,M,CLR,M,M,M,M,M,M,M,M,M,M,M,M,M,M,75.20,KBVU 091315Z AUTO 34003KT 10SM CLR 24/09 A2994 RMK AO2,M
BAM,2024-09-09 13:15,-116.8743,40.5990,1382.36,46.40,28.40,49.24,100.00,3.00,0.00,30.12,M,10.00,M,CLR,M,M,M,M,M,M,M,M,M,M,M,M,M,M,45.15,KBAM 091315Z AUTO 10003KT 10SM CLR 08/M02 A3012 RMK AO1,M
TMT,2024-09-09 13:15,-117.1971,39.4643,1749.34,39.20,24.60,55.49,0.00,0.00,0.00,30.22,M,10.00,M,CLR,M,M,M,M,M,M,M,M,M,M,M,M,M,M,39.20,KTMT 091315Z AUTO 00000KT 10SM CLR 04/M04 A3022 RMK AO2 T00401041,M
BVU,2024-09-09 13:35,-114.8611,35.9475,671.00,77.00,46.40,33.85,320.00,3.00,0.00,29.94,M,10.00,M,CLR,M,M,M,M,M,M,M,M,M,M,M,M,M,M,77.00,KBVU 091335Z AUTO 32003KT 10SM CLR 25/08 A2994 RMK AO2,M
BAM,2024-09-09 13:35,-116.8743,40.5990,1382.36,46.40,28.40,49.24,0.00,0.00,0.00,30.13,M,10.00,M,CLR,M,M,M,M,M,M,M,M,M,M,M,M,M,M,46.40,KBAM 091335Z AUTO 00000KT 10SM CLR 08/M02 A3013 RMK AO1,M
TMT,2024-09-09 13:35,-117.1971,39.4643,1749.34,40.00,24.40,53.34,0.00,0.00,0.00,30.22,M,10.00,M,CLR,M,M,M,M,M,M,M,M,M,M,M,M,M,M,40.00,KTMT 091335Z AUTO 00000KT 10SM CLR 05/M04 A3022 RMK AO2 T00451042,M
NFL,2024-09-09 13:39,-118.7010,39.4166,1199.00,55.00,32.00,41.44,140.00,7.00,0.00,30.10,M,10.00,M,SCT,SCT,M,M,5000.00,12000.00,M,M,M,M,M,M,M,M,M,55.00,KNFL 091339Z 14007KT 10SM SCT050 SCT120 13/00 A3010 RMK AO2 FU SCT050 HZ ALQDS T01280000,M
P68,2024-09-09 13:53,-116.0056,39.6014,1993.00,52.00,36.00,54.26,200.00,6.00,0.00,30.20,1015.90,M,M,M,M,M,M,M,M,M,M,M,M,M,M,M,M,M,52.00,KP68 091353Z AUTO 20006KT 11/02 A3020 RMK AO1 SLP159 T01110022,M
DRA,2024-09-09 13:53,-116.0278,36.6206,1009.00,74.00,42.00,31.63,M,3.00,0.00,30.02,1011.40,10.00,M,CLR,M,M,M,M,M,M,M,M,M,M,M,M,M,M,74.00,KDRA 091353Z AUTO VRB03KT 10SM CLR 23/06 A3002 RMK AO2 SLP114 T02330056,M
ELY,2024-09-09 13:53,-114.8453,39.2950,1909.00,48.00,39.00,70.85,0.00,0.00,0.00,30.25,1017.50,10.00,M,CLR,M,M,M,M,M,M,M,M,M,M,M,M,M,M,48.00,KELY 091353Z AUTO 00000KT 10SM CLR 09/04 A3025 RMK AO2 SLP175 T00890039,M
VGT,2024-09-09 13:53,-115.1933,36.2111,667.00,80.00,48.00,32.57,0.00,0.00,0.00,29.96,1013.30,10.00,M,CLR,M,M,M,M,M,M,M,M,M,M,M,M,M,M,79.37,KVGT 091353Z 00000KT 10SM CLR 27/09 A2996 RMK AO2 SLP133 T02670089,M
LOL,2024-09-09 13:53,-118.5701,40.0684,1192.43,51.00,28.00,40.78,0.00,0.00,0.00,30.10,1016.00,10.00,M,CLR,M,M,M,M,M,M,M,M,M,M,M,M,M,M,51.00,KLOL 091353Z AUTO 00000KT 10SM CLR 11/M02 A3010 RMK AO2 SLP160 T01061022,M
BVU,2024-09-09 13:55,-114.8611,35.9475,671.00,77.00,48.20,36.22,0.00,0.00,0.00,29.95,M,10.00,M,CLR,M,M,M,M,M,M,M,M,M,M,M,M,M,M,77.00,KBVU 091355Z AUTO 00000KT 10SM CLR 25/09 A2995 RMK AO2,M
INS,2024-09-09 13:55,-115.6733,36.5872,955.00,M,M,M,90.00,3.00,0.00,M,M,10.00,M,M,M,M,M,M,M,M,M,M,M,M,M,M,M,M,M,KINS 091355Z AUTO 09003KT 10SM M M M RMK AO2 SLPNO RVRNO TSNO $,M
RNO,2024-09-09 13:55,-119.7711,39.4839,1341.00,54.00,36.00,50.42,190.00,3.00,0.00,30.16,1016.40,10.00,M,CLR,M,M,M,M,M,M,M,M,M,M,M,M,M,M,54.00,KRNO 091355Z 19003KT 10SM CLR 12/02 A3016 RMK AO2 SLP164 FU ALF NE THRU OHD THRU S T01220022,M
BAM,2024-09-09 13:55,-116.8743,40.5990,1382.36,46.40,26.60,45.73,0.00,0.00,0.00,30.13,M,10.00,M,CLR,M,M,M,M,M,M,M,M,M,M,M,M,M,M,46.40,KBAM 091355Z AUTO 00000KT 10SM CLR 08/M03 A3013 RMK AO1,M
TMT,2024-09-09 13:55,-117.1971,39.4643,1749.34,39.40,24.00,53.69,0.00,0.00,0.00,30.22,M,10.00,M,CLR,M,M,M,M,M,M,M,M,M,M,M,M,M,M,39.40,KTMT 091355Z AUTO 00000KT 10SM CLR 04/M04 A3022 RMK AO2 T00411044,M
LSV,2024-09-09 13:55,-115.0343,36.2362,570.00,82.00,41.70,24.01,330.00,3.00,0.00,29.91,1009.80,10.00,M,CLR,M,M,M,M,M,M,M,M,M,M,M,M,M,M,80.07,KLSV 091355Z AUTO 33003KT 10SM CLR 28/05 A2991 RMK AO2 SLP098 T02780054 $,M
EKO,2024-09-09 13:56,-115.7860,40.8242,1367.00,51.00,35.00,54.12,0.00,0.00,0.00,30.16,1016.30,10.00,M,CLR,M,M,M,M,M,M,M,M,M,M,M,M,M,M,51.00,KEKO 091356Z AUTO 00000KT 10SM CLR 11/02 A3016 RMK AO2 SLP163 T01060017,M
WMC,2024-09-09 13:56,-117.8072,40.9019,1315.00,51.00,26.00,37.55,110.00,6.00,0.00,30.10,1015.40,10.00,M,CLR,M,M,M,M,M,M,M,M,M,M,M,M,M,M,51.00,KWMC 091356Z AUTO 11006KT 10SM CLR 11/M03 A3010 RMK AO2 SLP154 T01061033,M
HND,2024-09-09 13:56,-115.1344,35.9729,742.79,75.00,49.00,39.90,180.00,4.00,0.00,30.00,1014.80,10.00,M,CLR,M,M,M,M,M,M,M,M,M,M,M,M,M,M,75.00,KHND 091356Z 18004KT 10SM CLR 24/09 A3000 RMK AO2 SLP148 T02390094,M
TPH,2024-09-09 13:56,-117.0904,38.0505,1654.00,58.00,34.00,40.28,330.00,7.00,0.00,30.19,1014.70,10.00,M,CLR,M,M,M,M,M,M,M,M,M,M,M,M,M,M,58.00,KTPH 091356Z AUTO 33007KT 10SM CLR 14/01 A3019 RMK AO2 SLP147 T01440011,M
LAS,2024-09-09 13:56,-115.1634,36.0719,663.00,81.00,47.00,30.36,260.00,4.00,0.00,29.97,1012.20,10.00,M,FEW,FEW,M,M,12000.00,25000.00,M,M,M,M,M,M,M,M,M,79.84,KLAS 091356Z 26004KT 10SM FEW120 FEW250 27/08 A2997 RMK AO2 SLP122 T02720083 $,M
NFL,2024-09-09 13:57,-118.7010,39.4166,1199.00,56.00,32.00,39.96,150.00,6.00,0.00,30.10,1016.10,10.00,M,SCT,SCT,M,M,5000.00,12000.00,M,M,M,M,M,M,M,M,M,56.00,KNFL 091357Z 15006KT 10SM SCT050 SCT120 13/00 A3010 RMK AO2 SLP161 FU SCT050 HZ ALQDS T01330000,M
INS,2024-09-09 13:58,-115.6733,36.5872,955.00,75.20,46.40,35.94,90.00,3.00,0.00,30.01,M,10.00,M,CLR,M,M,M,M,M,M,M,M,M,M,M,M,M,M,75.20,KINS 091358Z 09003KT 10SM CLR 24/08 A3001 RMK SLPNO,M
05U,2024-09-09 14:10,-116.0051,39.6042,1811.23,53.60,33.80,46.88,0.00,0.00,0.00,30.23,M,10.00,M,CLR,M,M,M,M,M,M,M,M,M,M,M,M,M,M,53.60,K05U 091410Z AUTO 00000KT 10SM CLR 12/01 A3023 RMK A01,M
BVU,2024-09-09 14:15,-114.8611,35.9475,671.00,78.80,46.40,31.90,0.00,0.00,0.00,29.95,M,10.00,M,CLR,M,M,M,M,M,M,M,M,M,M,M,M,M,M,78.80,KBVU 091415Z AUTO 00000KT 10SM CLR 26/08 A2995 RMK AO2,M
CXP,2024-09-09 14:15,-119.7326,39.1923,1431.00,50.00,35.60,57.52,0.00,0.00,0.00,30.19,M,10.00,M,CLR,M,M,M,M,M,M,M,M,M,M,M,M,M,M,50.00,KCXP 091415Z AUTO 00000KT 10SM CLR 10/02 A3019 RMK AO2,M
RTS,2024-09-09 14:15,-119.8764,39.6682,1539.00,46.40,26.60,45.73,10.00,4.00,0.00,30.19,M,10.00,M,CLR,M,M,M,M,M,M,M,M,M,M,M,M,M,M,44.24,KRTS 091415Z AUTO 01004KT 10SM CLR 08/M03 A3019 RMK AO2,M
MEV,2024-09-09 14:15,-119.7500,38.9963,1441.42,44.60,30.20,56.74,0.00,0.00,0.00,30.18,M,10.00,M,CLR,M,M,M,M,M,M,M,M,M,M,M,M,M,M,44.60,KMEV 091415Z AUTO 00000KT 10SM CLR 07/M01 A3018 RMK AO2,M
BAM,2024-09-09 14:15,-116.8743,40.5990,1382.36,51.80,30.20,43.32,0.00,0.00,0.00,30.14,M,10.00,M,CLR,M,M,M,M,M,M,M,M,M,M,M,M,M,M,51.80,KBAM 091415Z AUTO 00000KT 10SM CLR 11/M01 A3014 RMK AO1,M
TMT,2024-09-09 14:15,-117.1971,39.4643,1749.34,40.60,26.00,55.69,0.00,0.00,0.00,30.24,M,10.00,M,CLR,M,M,M,M,M,M,M,M,M,M,M,M,M,M,40.60,KTMT 091415Z AUTO 00000KT 10SM CLR 05/M03 A3024 RMK AO2 T00481033,M
05U,2024-09-09 14:30,-116.0051,39.6042,1811.23,57.20,35.60,44.19,0.00,0.00,0.00,30.24,M,10.00,M,CLR,M,M,M,M,M,M,M,M,M,M,M,M,M,M,57.20,K05U 091430Z AUTO 00000KT 10SM CLR 14/02 A3024 RMK A01,M
CXP,2024-09-09 14:35,-119.7326,39.1923,1431.00,53.60,37.40,54.07,0.00,0.00,0.00,30.19,M,9.00,M,CLR,M,M,M,M,M,M,M,M,M,M,M,M,M,M,53.60,KCXP 091435Z AUTO 00000KT 9SM CLR 12/03 A3019 RMK AO2,M
RTS,2024-09-09 14:35,-119.8764,39.6682,1539.00,51.80,28.40,40.25,330.00,4.00,0.00,30.20,M,10.00,M,CLR,M,M,M,M,M,M,M,M,M,M,M,M,M,M,51.80,KRTS 091435Z AUTO 33004KT 10SM CLR 11/M02 A3020 RMK AO2,M
MEV,2024-09-09 14:35,-119.7500,38.9963,1441.42,50.00,33.80,53.54,0.00,0.00,0.00,30.18,M,10.00,M,CLR,M,M,M,M,M,M,M,M,M,M,M,M,M,M,50.00,KMEV 091435Z AUTO 00000KT 10SM CLR 10/01 A3018 RMK AO2,M
BAM,2024-09-09 14:35,-116.8743,40.5990,1382.36,57.20,32.00,38.26,0.00,0.00,0.00,30.14,M,10.00,M,CLR,M,M,M,M,M,M,M,M,M,M,M,M,M,M,57.20,KBAM 091435Z AUTO 00000KT 10SM CLR 14/00 A3014 RMK AO1,M
HTH,2024-09-09 14:35,-118.6315,38.5448,1282.89,66.20,33.80,29.92,0.00,0.00,0.00,30.14,M,10.00,M,CLR,M,M,M,M,M,M,M,M,M,M,M,M,M,M,66.20,KHTH 091435Z AUTO 00000KT 10SM CLR 19/01 A3014 RMK A01,M
TMT,2024-09-09 14:35,-117.1971,39.4643,1749.34,45.00,28.00,51.08,0.00,0.00,0.00,30.24,M,10.00,M,CLR,M,M,M,M,M,M,M,M,M,M,M,M,M,M,45.00,KTMT 091435Z AUTO 00000KT 10SM CLR 07/M02 A3024 RMK AO2 T00721023,M
10U,2024-09-09 14:35,-116.1876,41.9532,1637.00,57.20,28.40,33.05,160.00,5.00,0.00,30.17,M,10.00,M,CLR,M,M,M,M,M,M,M,M,M,M,M,M,M,M,57.20,K10U 091435Z AUTO 16005KT 10SM CLR 14/M02 A3017 RMK AO2,M
BVU,2024-09-09 14:35,-114.8611,35.9475,671.00,77.00,50.00,38.74,0.00,0.00,0.00,29.96,M,10.00,M,CLR,M,M,M,M,M,M,M,M,M,M,M,M,M,M,77.00,KBVU 091435Z AUTO 00000KT 10SM CLR 25/10 A2996 RMK AO2,M
05U,2024-09-09 14:50,-116.0051,39.6042,1811.23,60.80,37.40,41.71,0.00,0.00,0.00,30.24,M,10.00,M,CLR,M,M,M,M,M,M,M,M,M,M,M,M,M,M,60.80,K05U 091450Z AUTO 00000KT 10SM CLR 16/03 A3024 RMK A01,M
P68,2024-09-09 14:53,-116.0056,39.6014,1993.00,61.00,38.00,42.40,230.00,3.00,0.00,30.21,1015.80,M,M,M,M,M,M,M,M,M,M,M,M,M,M,M,M,M,61.00,KP68 091453Z AUTO 23003KT 16/03 A3021 RMK AO1 SLP158 T01610033 53009,M
DRA,2024-09-09 14:53,-116.0278,36.6206,1009.00,81.00,43.00,26.08,0.00,0.00,0.00,30.03,1011.60,10.00,M,CLR,M,M,M,M,M,M,M,M,M,M,M,M,M,M,79.54,KDRA 091453Z AUTO 00000KT 10SM CLR 27/06 A3003 RMK AO2 SLP116 T02720061 53013,M
ELY,2024-09-09 14:53,-114.8453,39.2950,1909.00,58.00,42.00,55.14,0.00,0.00,0.00,30.26,1016.40,10.00,M,CLR,M,M,M,M,M,M,M,M,M,M,M,M,M,M,58.00,KELY 091453Z AUTO 00000KT 10SM CLR 14/06 A3026 RMK AO2 SLP164 T01440056 52008,M
VGT,2024-09-09 14:53,-115.1933,36.2111,667.00,84.00,49.00,29.69,0.00,0.00,0.00,29.97,1013.40,10.00,M,CLR,M,M,M,M,M,M,M,M,M,M,M,M,M,M,81.98,KVGT 091453Z 00000KT 10SM CLR 29/09 A2997 RMK AO2 SLP134 T02890094 51013,M
LOL,2024-09-09 14:53,-118.5701,40.0684,1192.43,57.00,34.00,41.76,0.00,0.00,0.00,30.11,1016.70,10.00,M,CLR,M,M,M,M,M,M,M,M,M,M,M,M,M,M,57.00,KLOL 091453Z AUTO 00000KT 10SM CLR 14/01 A3011 RMK AO2 SLP167 T01390011 53009,M
BVU,2024-09-09 14:55,-114.8611,35.9475,671.00,80.60,46.40,30.07,220.00,3.00,0.00,29.96,M,10.00,M,CLR,M,M,M,M,M,M,M,M,M,M,M,M,M,M,79.56,KBVU 091455Z AUTO 22003KT 10SM CLR 27/08 A2996 RMK AO2,M
INS,2024-09-09 14:55,-115.6733,36.5872,955.00,M,M,M,0.00,0.00,0.00,M,M,10.00,M,M,M,M,M,M,M,M,M,M,M,M,M,M,M,M,M,KINS 091455Z AUTO 00000KT 10SM M M M RMK AO2 SLPNO RVRNO TSNO $,M
RNO,2024-09-09 14:55,-119.7711,39.4839,1341.00,59.00,36.00,42.08,0.00,0.00,0.00,30.17,1016.80,10.00,M,CLR,M,M,M,M,M,M,M,M,M,M,M,M,M,M,59.00,KRNO 091455Z 00000KT 10SM CLR 15/02 A3017 RMK AO2 SLP168 FU ALF NE THRU SE THRU SW T01500022 53009,M
CXP,2024-09-09 14:55,-119.7326,39.1923,1431.00,57.20,37.40,47.44,0.00,0.00,0.00,30.20,M,10.00,M,CLR,M,M,M,M,M,M,M,M,M,M,M,M,M,M,57.20,KCXP 091455Z AUTO 00000KT 10SM CLR 14/03 A3020 RMK AO2,M
RTS,2024-09-09 14:55,-119.8764,39.6682,1539.00,55.40,30.20,37.97,330.00,3.00,0.00,30.20,M,10.00,M,CLR,M,M,M,M,M,M,M,M,M,M,M,M,M,M,55.40,KRTS 091455Z AUTO 33003KT 10SM CLR 13/M01 A3020 RMK AO2,M
MEV,2024-09-09 14:55,-119.7500,38.9963,1441.42,53.60,33.80,46.88,0.00,0.00,0.00,30.18,M,10.00,M,CLR,M,M,M,M,M,M,M,M,M,M,M,M,M,M,53.60,KMEV 091455Z AUTO 00000KT 10SM CLR 12/01 A3018 RMK AO2,M
BAM,2024-09-09 14:55,-116.8743,40.5990,1382.36,59.00,30.20,33.35,0.00,0.00,0.00,30.15,M,10.00,M,CLR,M,M,M,M,M,M,M,M,M,M,M,M,M,M,59.00,KBAM 091455Z AUTO 00000KT 10SM CLR 15/M01 A3015 RMK AO1,M
HTH,2024-09-09 14:55,-118.6315,38.5448,1282.89,68.00,35.60,30.20,270.00,3.00,0.00,30.15,M,10.00,M,CLR,M,M,M,M,M,M,M,M,M,M,M,M,M,M,68.00,KHTH 091455Z AUTO 27003KT 10SM CLR 20/02 A3015 RMK A01,M
TMT,2024-09-09 14:55,-117.1971,39.4643,1749.34,48.60,29.00,46.46,0.00,0.00,0.00,30.24,M,10.00,M,CLR,M,M,M,M,M,M,M,M,M,M,M,M,M,M,48.60,KTMT 091455Z AUTO 00000KT 10SM CLR 09/M02 A3024 RMK AO2 T00921016,M
10U,2024-09-09 14:55,-116.1876,41.9532,1637.00,60.80,28.40,29.06,150.00,5.00,0.00,30.18,M,10.00,M,CLR,M,M,M,M,M,M,M,M,M,M,M,M,M,M,60.80,K10U 091455Z AUTO 15005KT 10SM CLR 16/M02 A3018 RMK AO2,M
LSV,2024-09-09 14:55,-115.0343,36.2362,570.00,84.70,42.80,22.96,0.00,0.00,0.00,29.92,1010.20,10.00,M,CLR,M,M,M,M,M,M,M,M,M,M,M,M,M,M,81.97,KLSV 091455Z AUTO 00000KT 10SM CLR 29/06 A2992 RMK AO2 SLP102 T02930060 52013 $,M
EKO,2024-09-09 14:56,-115.7860,40.8242,1367.00,58.00,36.00,43.62,0.00,0.00,0.00,30.17,1017.00,10.00,M,CLR,M,M,M,M,M,M,M,M,M,M,M,M,M,M,58.00,KEKO 091456Z AUTO 00000KT 10SM CLR 14/02 A3017 RMK AO2 SLP170 T01440022 53011,M
WMC,2024-09-09 14:56,-117.8072,40.9019,1315.00,60.00,27.00,28.23,210.00,3.00,0.00,30.12,1016.00,10.00,M,CLR,M,M,M,M,M,M,M,M,M,M,M,M,M,M,60.00,KWMC 091456Z AUTO 21003KT 10SM CLR 16/M03 A3012 RMK AO2 SLP160 T01561028 53009,M
HND,2024-09-09 14:56,-115.1344,35.9729,742.79,81.00,50.00,33.97,140.00,4.00,0.00,30.01,1015.00,10.00,M,CLR,M,M,M,M,M,M,M,M,M,M,M,M,M,M,80.12,KHND 091456Z 14004KT 10SM CLR 27/10 A3001 RMK AO2 SLP150 T02720100 51015,M
TPH,2024-09-09 14:56,-117.0904,38.0505,1654.00,65.00,37.00,35.42,360.00,8.00,0.00,30.20,1014.80,10.00,M,CLR,M,M,M,M,M,M,M,M,M,M,M,M,M,M,65.00,KTPH 091456Z AUTO 36008KT 10SM CLR 18/03 A3020 RMK AO2 SLP148 T01830028 53010,M
LAS,2024-09-09 14:56,-115.1634,36.0719,663.00,85.00,47.00,26.67,0.00,0.00,0.00,29.98,1012.30,10.00,M,FEW,FEW,SCT,M,12000.00,18000.00,25000.00,M,M,M,M,M,M,M,M,82.51,KLAS 091456Z 00000KT 10SM FEW120 FEW180 SCT250 29/08 A2998 RMK AO2 SLP123 T02940083 $,M
NFL,2024-09-09 14:57,-118.7010,39.4166,1199.00,65.00,33.00,30.21,180.00,3.00,0.00,30.11,1016.40,10.00,M,FEW,FEW,M,M,20000.00,25000.00,M,M,M,M,M,M,M,M,M,65.00,KNFL 091457Z 18003KT 10SM FEW200 FEW250 18/01 A3011 RMK AO2 SLP164 T01830006 53010,M
INS,2024-09-09 14:59,-115.6733,36.5872,955.00,86.00,51.80,30.90,0.00,0.00,0.00,30.00,M,10.00,M,FEW,M,M,M,14000.00,M,M,M,M,M,M,M,M,M,M,83.87,KINS 091459Z 00000KT 10SM FEW140 30/11 A3000 RMK SLPNO,M
05U,2024-09-09 15:10,-116.0051,39.6042,1811.23,64.40,37.40,36.74,0.00,0.00,0.00,30.24,M,10.00,M,CLR,M,M,M,M,M,M,M,M,M,M,M,M,M,M,64.40,K05U 091510Z AUTO 00000KT 10SM CLR 18/03 A3024 RMK A01,M
BVU,2024-09-09 15:15,-114.8611,35.9475,671.00,80.60,46.40,30.07,0.00,0.00,0.00,29.97,M,10.00,M,CLR,M,M,M,M,M,M,M,M,M,M,M,M,M,M,79.56,KBVU 091515Z AUTO 00000KT 10SM CLR 27/08 A2997 RMK AO2,M
CXP,2024-09-09 15:15,-119.7326,39.1923,1431.00,59.00,35.60,41.42,0.00,0.00,0.00,30.19,M,10.00,M,CLR,M,M,M,M,M,M,M,M,M,M,M,M,M,M,59.00,KCXP 091515Z AUTO 00000KT 10SM CLR 15/02 A3019 RMK AO2,M
RTS,2024-09-09 15:15,-119.8764,39.6682,1539.00,60.80,30.20,31.28,0.00,0.00,0.00,30.20,M,10.00,M,CLR,M,M,M,M,M,M,M,M,M,M,M,M,M,M,60.80,KRTS 091515Z AUTO 00000KT 10SM CLR 16/M01 A3020 RMK AO2,M
MEV,2024-09-09 15:15,-119.7500,38.9963,1441.42,57.20,32.00,38.26,0.00,0.00,0.00,30.18,M,9.00,M,CLR,M,M,M,M,M,M,M,M,M,M,M,M,M,M,57.20,KMEV 091515Z AUTO 00000KT 9SM CLR 14/00 A3018 RMK AO2,M
BAM,2024-09-09 15:15,-116.8743,40.5990,1382.36,60.80,30.20,31.28,0.00,0.00,0.00,30.15,M,10.00,M,CLR,M,M,M,M,M,M,M,M,M,M,M,M,M,M,60.80,KBAM 091515Z AUTO 00000KT 10SM CLR 16/M01 A3015 RMK AO1,M
HTH,2024-09-09 15:15,-118.6315,38.5448,1282.89,M,M,M,310.00,4.00,0.00,30.15,M,M,M,M,M,M,M,M,M,M,M,M,M,M,M,M,M,M,M,KHTH 091515Z AUTO 31004KT A3015 RMK A01,M
TMT,2024-09-09 15:15,-117.1971,39.4643,1749.34,53.20,30.20,41.14,0.00,0.00,0.00,30.24,M,10.00,M,CLR,M,M,M,M,M,M,M,M,M,M,M,M,M,M,53.20,KTMT 091515Z AUTO 00000KT 10SM CLR 12/M01 A3024 RMK AO2 T01181010,M
10U,2024-09-09 15:15,-116.1876,41.9532,1637.00,66.20,28.40,24.04,140.00,7.00,0.00,30.17,M,10.00,M,CLR,M,M,M,M,M,M,M,M,M,M,M,M,M,M,66.20,K10U 091515Z AUTO 14007KT 10SM CLR 19/M02 A3017 RMK AO2,M
05U,2024-09-09 15:30,-116.0051,39.6042,1811.23,68.00,37.40,32.43,0.00,0.00,0.00,30.24,M,10.00,M,CLR,M,M,M,M,M,M,M,M,M,M,M,M,M,M,68.00,K05U 091530Z AUTO 00000KT 10SM CLR 20/03 A3024 RMK A01,M
CXP,2024-09-09 15:35,-119.7326,39.1923,1431.00,62.60,35.60,36.45,0.00,0.00,0.00,30.19,M,10.00,M,CLR,M,M,M,M,M,M,M,M,M,M,M,M,M,M,62.60,KCXP 091535Z AUTO 00000KT 10SM CLR 17/02 A3019 RMK AO2,M
RTS,2024-09-09 15:35,-119.8764,39.6682,1539.00,60.80,33.80,36.16,150.00,4.00,0.00,30.20,M,10.00,M,CLR,M,M,M,M,M,M,M,M,M,M,M,M,M,M,60.80,KRTS 091535Z AUTO 15004KT 10SM CLR 16/01 A3020 RMK AO2,M
MEV,2024-09-09 15:35,-119.7500,38.9963,1441.42,59.00,33.80,38.56,0.00,0.00,0.00,30.18,M,10.00,M,CLR,M,M,M,M,M,M,M,M,M,M,M,M,M,M,59.00,KMEV 091535Z AUTO 00000KT 10SM CLR 15/01 A3018 RMK AO2,M
BAM,2024-09-09 15:35,-116.8743,40.5990,1382.36,64.40,30.20,27.55,0.00,0.00,0.00,30.15,M,10.00,M,CLR,M,M,M,M,M,M,M,M,M,M,M,M,M,M,64.40,KBAM 091535Z AUTO 00000KT 10SM CLR 18/M01 A3015 RMK AO1,M
HTH,2024-09-09 15:35,-118.6315,38.5448,1282.89,69.80,35.60,28.39,320.00,4.00,0.00,30.15,M,10.00,M,M,M,M,M,M,M,M,M,M,M,M,M,M,M,M,69.80,KHTH 091535Z AUTO 32004KT 10SM 21/02 A3015 RMK A01,M
TMT,2024-09-09 15:35,-117.1971,39.4643,1749.34,58.00,32.00,37.18,0.00,0.00,0.00,30.24,M,10.00,M,CLR,M,M,M,M,M,M,M,M,M,M,M,M,M,M,58.00,KTMT 091535Z AUTO 00000KT 10SM CLR 15/00 A3024 RMK AO2 T01450000,M
10U,2024-09-09 15:35,-116.1876,41.9532,1637.00,69.80,26.60,19.72,130.00,6.00,0.00,30.17,M,10.00,M,CLR,M,M,M,M,M,M,M,M,M,M,M,M,M,M,69.80,K10U 091535Z AUTO 13006KT 10SM CLR 21/M03 A3017 RMK AO2,M
BVU,2024-09-09 15:35,-114.8611,35.9475,671.00,82.40,44.60,26.49,0.00,0.00,0.00,29.97,M,10.00,M,CLR,M,M,M,M,M,M,M,M,M,M,M,M,M,M,80.50,KBVU 091535Z AUTO 00000KT 10SM CLR 28/07 A2997 RMK AO2,M
05U,2024-09-09 15:50,-116.0051,39.6042,1811.23,68.00,35.60,30.20,0.00,0.00,0.00,30.24,M,10.00,M,CLR,M,M,M,M,M,M,M,M,M,M,M,M,M,M,68.00,K05U 091550Z AUTO 00000KT 10SM CLR 20/02 A3024 RMK A01,M
P68,2024-09-09 15:53,-116.0056,39.6014,1993.00,71.00,37.00,28.81,30.00,3.00,0.00,30.21,1014.50,M,M,M,M,M,M,M,M,M,M,M,M,M,M,M,M,M,71.00,KP68 091553Z AUTO 03003KT 22/03 A3021 RMK AO1 SLP145 T02170028,M
DRA,2024-09-09 15:53,-116.0278,36.6206,1009.00,84.00,45.00,25.54,0.00,0.00,0.00,30.04,1011.60,10.00,M,CLR,M,M,M,M,M,M,M,M,M,M,M,M,M,M,81.61,KDRA 091553Z AUTO 00000KT 10SM CLR 29/07 A3004 RMK AO2 SLP116 T02890072,M
ELY,2024-09-09 15:53,-114.8453,39.2950,1909.00,72.00,42.00,33.84,210.00,8.00,0.00,30.25,1014.80,10.00,M,CLR,M,M,M,M,M,M,M,M,M,M,M,M,M,M,72.00,KELY 091553Z AUTO 21008KT 10SM CLR 22/06 A3025 RMK AO2 SLP148 T02220056,M
VGT,2024-09-09 15:53,-115.1933,36.2111,667.00,88.00,47.00,24.24,150.00,3.00,0.00,29.97,1013.50,10.00,M,CLR,M,M,M,M,M,M,M,M,M,M,M,M,M,M,84.91,KVGT 091553Z 15003KT 10SM CLR 31/08 A2997 RMK AO2 SLP135 T03110083,M
LOL,2024-09-09 15:53,-118.5701,40.0684,1192.43,68.00,31.00,25.12,0.00,0.00,0.00,30.12,1016.30,10.00,M,CLR,M,M,M,M,M,M,M,M,M,M,M,M,M,M,68.00,KLOL 091553Z AUTO 00000KT 10SM CLR 20/M01 A3012 RMK AO2 SLP163 T02001006,M
BVU,2024-09-09 15:55,-114.8611,35.9475,671.00,84.20,44.60,24.99,0.00,0.00,0.00,29.97,M,10.00,M,CLR,M,M,M,M,M,M,M,M,M,M,M,M,M,M,81.73,KBVU 091555Z AUTO 00000KT 10SM CLR 29/07 A2997 RMK AO2,M
RNO,2024-09-09 15:55,-119.7711,39.4839,1341.00,63.00,35.00,35.10,0.00,0.00,0.00,30.16,1016.60,10.00,M,FEW,M,M,M,25000.00,M,M,M,M,M,M,M,M,M,M,63.00,KRNO 091555Z 00000KT 10SM FEW250 17/02 A3016 RMK AO2 SLP166 FU ALF E THRU SW T01720017,M
CXP,2024-09-09 15:55,-119.7326,39.1923,1431.00,64.40,32.00,29.63,0.00,0.00,0.00,30.19,M,10.00,M,CLR,M,M,M,M,M,M,M,M,M,M,M,M,M,M,64.40,KCXP 091555Z AUTO 00000KT 10SM CLR 18/00 A3019 RMK AO2,M
RTS,2024-09-09 15:55,-119.8764,39.6682,1539.00,62.60,33.80,33.93,0.00,0.00,0.00,30.20,M,10.00,M,CLR,M,M,M,M,M,M,M,M,M,M,M,M,M,M,62.60,KRTS 091555Z AUTO 00000KT 10SM CLR 17/01 A3020 RMK AO2,M
MEV,2024-09-09 15:55,-119.7500,38.9963,1441.42,62.60,33.80,33.93,0.00,0.00,0.00,30.18,M,10.00,M,CLR,M,M,M,M,M,M,M,M,M,M,M,M,M,M,62.60,KMEV 091555Z AUTO 00000KT 10SM CLR 17/01 A3018 RMK AO2,M
BAM,2024-09-09 15:55,-116.8743,40.5990,1382.36,68.00,32.00,26.15,240.00,3.00,0.00,30.15,M,10.00,M,CLR,M,M,M,M,M,M,M,M,M,M,M,M,M,M,68.00,KBAM 091555Z AUTO 24003KT 10SM CLR 20/00 A3015 RMK AO1,M
HTH,2024-09-09 15:55,-118.6315,38.5448,1282.89,69.80,37.40,30.49,0.00,0.00,0.00,30.15,M,10.00,M,CLR,M,M,M,M,M,M,M,M,M,M,M,M,M,M,69.80,KHTH 091555Z AUTO 00000KT 10SM CLR 21/03 A3015 RMK A01,M
TMT,2024-09-09 15:55,-117.1971,39.4643,1749.34,62.00,32.00,32.24,210.00,4.00,0.00,30.24,M,10.00,M,CLR,M,M,M,M,M,M,M,M,M,M,M,M,M,M,62.00,KTMT 091555Z AUTO 21004KT 10SM CLR 17/00 A3024 RMK AO2 T01660001,M
10U,2024-09-09 15:55,-116.1876,41.9532,1637.00,71.60,24.80,17.22,160.00,6.00,0.00,30.17,M,10.00,M,CLR,M,M,M,M,M,M,M,M,M,M,M,M,M,M,71.60,K10U 091555Z AUTO 16006KT 10SM CLR 22/M04 A3017 RMK AO2,M
LSV,2024-09-09 15:55,-115.0343,36.2362,570.00,87.60,42.80,20.92,0.00,0.00,0.00,29.92,1010.20,10.00,M,FEW,M,M,M,12000.00,M,M,M,M,M,M,M,M,M,M,84.23,KLSV 091555Z COR 00000KT 10SM FEW120 31/06 A2992 RMK AO2 SLP102 T03090060 $ COR 1641,M
EKO,2024-09-09 15:56,-115.7860,40.8242,1367.00,65.00,37.00,35.42,90.00,4.00,0.00,30.17,1016.20,10.00,M,CLR,M,M,M,M,M,M,M,M,M,M,M,M,M,M,65.00,KEKO 091556Z AUTO 09004KT 10SM CLR 18/03 A3017 RMK AO2 SLP162 T01830028,M
WMC,2024-09-09 15:56,-117.8072,40.9019,1315.00,73.00,24.00,15.88,0.00,0.00,0.00,30.12,1015.70,10.00,M,CLR,M,M,M,M,M,M,M,M,M,M,M,M,M,M,73.00,KWMC 091556Z AUTO 00000KT 10SM CLR 23/M04 A3012 RMK AO2 SLP157 T02281044,M
HND,2024-09-09 15:56,-115.1344,35.9729,742.79,86.00,48.00,26.82,0.00,0.00,0.00,30.02,1014.90,10.00,M,CLR,M,M,M,M,M,M,M,M,M,M,M,M,M,M,83.38,KHND 091556Z 00000KT 10SM CLR 30/09 A3002 RMK AO2 SLP149 T03000089,M
TPH,2024-09-09 15:56,-117.0904,38.0505,1654.00,75.00,38.00,26.18,20.00,4.00,0.00,30.20,1014.10,10.00,M,CLR,M,M,M,M,M,M,M,M,M,M,M,M,M,M,75.00,KTPH 091556Z AUTO 02004KT 10SM CLR 24/03 A3020 RMK AO2 SLP141 T02390033,M
LAS,2024-09-09 15:56,-115.1634,36.0719,663.00,89.00,46.00,22.61,0.00,0.00,0.00,29.99,1012.40,10.00,M,FEW,FEW,SCT,M,12000.00,18000.00,25000.00,M,M,M,M,M,M,M,M,85.67,KLAS 091556Z 00000KT 10SM FEW120 FEW180 SCT250 32/08 A2999 RMK AO2 SLP124 T03170078 $,M
NFL,2024-09-09 15:57,-118.7010,39.4166,1199.00,73.00,34.00,23.90,0.00,0.00,0.00,30.12,1016.50,10.00,M,SCT,SCT,M,M,20000.00,24000.00,M,M,M,M,M,M,M,M,M,73.00,KNFL 091557Z 00000KT 10SM SCT200 SCT240 23/01 A3012 RMK AO2 SLP165 T02280011,M
INS,2024-09-09 15:59,-115.6733,36.5872,955.00,82.40,50.00,32.46,0.00,0.00,0.00,30.00,M,10.00,M,FEW,M,M,M,14000.00,M,M,M,M,M,M,M,M,M,M,80.99,KINS 091559Z 00000KT 10SM FEW140 28/10 A3000 SLPNO,M
05U,2024-09-09 16:10,-116.0051,39.6042,1811.23,71.60,37.40,28.68,0.00,0.00,0.00,30.24,M,10.00,M,CLR,M,M,M,M,M,M,M,M,M,M,M,M,M,M,71.60,K05U 091610Z AUTO 00000KT 10SM CLR 22/03 A3024 RMK A01,M
BVU,2024-09-09 16:15,-114.8611,35.9475,671.00,86.00,46.40,25.26,M,3.00,0.00,29.97,M,10.00,M,CLR,M,M,M,M,M,M,M,M,M,M,M,M,M,M,83.22,KBVU 091615Z AUTO VRB03KT 10SM CLR 30/08 A2997 RMK AO2,M
CXP,2024-09-09 16:15,-119.7326,39.1923,1431.00,68.00,33.80,28.11,0.00,0.00,0.00,30.19,M,10.00,M,CLR,M,M,M,M,M,M,M,M,M,M,M,M,M,M,68.00,KCXP 091615Z AUTO 00000KT 10SM CLR 20/01 A3019 RMK AO2,M
RTS,2024-09-09 16:15,-119.8764,39.6682,1539.00,66.20,32.00,27.83,0.00,0.00,0.00,30.20,M,10.00,M,CLR,M,M,M,M,M,M,M,M,M,M,M,M,M,M,66.20,KRTS 091615Z AUTO 00000KT 10SM CLR 19/M00 A3020 RMK AO2,M
MEV,2024-09-09 16:15,-119.7500,38.9963,1441.42,66.20,33.80,29.92,0.00,0.00,0.00,30.17,M,10.00,M,CLR,M,M,M,M,M,M,M,M,M,M,M,M,M,M,66.20,KMEV 091615Z AUTO 00000KT 10SM CLR 19/01 A3017 RMK AO2,M
BAM,2024-09-09 16:15,-116.8743,40.5990,1382.36,69.80,32.00,24.59,0.00,0.00,0.00,30.15,M,10.00,M,CLR,M,M,M,M,M,M,M,M,M,M,M,M,M,M,69.80,KBAM 091615Z AUTO 00000KT 10SM CLR 21/00 A3015 RMK AO1,M
HTH,2024-09-09 16:15,-118.6315,38.5448,1282.89,71.60,35.60,26.71,0.00,0.00,0.00,30.15,M,10.00,M,CLR,M,M,M,M,M,M,M,M,M,M,M,M,M,M,71.60,KHTH 091615Z AUTO 00000KT 10SM CLR 22/02 A3015 RMK A01,M
TMT,2024-09-09 16:15,-117.1971,39.4643,1749.34,63.30,32.40,31.30,0.00,0.00,0.00,30.24,M,10.00,M,CLR,M,M,M,M,M,M,M,M,M,M,M,M,M,M,63.30,KTMT 091615Z AUTO 00000KT 10SM CLR 17/00 A3024 RMK AO2 T01740002,M
10U,2024-09-09 16:15,-116.1876,41.9532,1637.00,75.20,23.00,14.15,190.00,6.00,0.00,30.17,M,10.00,M,CLR,M,M,M,M,M,M,M,M,M,M,M,M,M,M,75.20,K10U 091615Z AUTO 19006KT 10SM CLR 24/M05 A3017 RMK AO2,M
05U,2024-09-09 16:30,-116.0051,39.6042,1811.23,73.40,37.40,26.98,0.00,0.00,0.00,30.24,M,10.00,M,CLR,M,M,M,M,M,M,M,M,M,M,M,M,M,M,73.40,K05U 091630Z AUTO 00000KT 10SM CLR 23/03 A3024 RMK A01,M
BVU,2024-09-09 16:35,-114.8611,35.9475,671.00,89.60,44.60,21.04,0.00,0.00,0.00,29.97,M,10.00,M,CLR,M,M,M,M,M,M,M,M,M,M,M,M,M,M,86.07,KBVU 091635Z AUTO 00000KT 10SM CLR 32/07 A2997 RMK AO2,M
10U,2024-09-09 16:35,-116.1876,41.9532,1637.00,77.00,21.20,12.35,M,5.00,0.00,30.17,M,10.00,M,CLR,M,M,M,M,M,M,M,M,M,M,M,M,M,M,77.00,K10U 091635Z AUTO VRB05KT 10SM CLR 25/M06 A3017 RMK AO2,M
CXP,2024-09-09 16:35,-119.7326,39.1923,1431.00,68.00,33.80,28.11,0.00,0.00,0.00,30.19,M,10.00,M,CLR,M,M,M,M,M,M,M,M,M,M,M,M,M,M,68.00,KCXP 091635Z AUTO 00000KT 10SM CLR 20/01 A3019 RMK AO2,M
RTS,2024-09-09 16:35,-119.8764,39.6682,1539.00,69.80,32.00,24.59,0.00,0.00,0.00,30.20,M,10.00,M,CLR,M,M,M,M,M,M,M,M,M,M,M,M,M,M,69.80,KRTS 091635Z AUTO 00000KT 10SM CLR 21/M00 A3020 RMK AO2,M
MEV,2024-09-09 16:35,-119.7500,38.9963,1441.42,68.00,33.80,28.11,0.00,0.00,0.00,30.17,M,10.00,M,CLR,M,M,M,M,M,M,M,M,M,M,M,M,M,M,68.00,KMEV 091635Z AUTO 00000KT 10SM CLR 20/01 A3017 RMK AO2,M
BAM,2024-09-09 16:35,-116.8743,40.5990,1382.36,71.60,32.00,23.13,0.00,0.00,0.00,30.15,M,10.00,M,CLR,M,M,M,M,M,M,M,M,M,M,M,M,M,M,71.60,KBAM 091635Z AUTO 00000KT 10SM CLR 22/00 A3015 RMK AO1,M
HTH,2024-09-09 16:35,-118.6315,38.5448,1282.89,73.40,32.00,21.76,350.00,4.00,0.00,30.16,M,10.00,M,CLR,M,M,M,M,M,M,M,M,M,M,M,M,M,M,73.40,KHTH 091635Z AUTO 35004KT 10SM CLR 23/00 A3016 RMK A01,M
TMT,2024-09-09 16:35,-117.1971,39.4643,1749.34,66.00,32.00,28.03,0.00,0.00,0.00,30.24,M,10.00,M,CLR,M,M,M,M,M,M,M,M,M,M,M,M,M,M,66.00,KTMT 091635Z AUTO 00000KT 10SM CLR 19/00 A3024 RMK AO2 T01890000,M
05U,2024-09-09 16:50,-116.0051,39.6042,1811.23,75.20,37.40,25.40,0.00,0.00,0.00,30.24,M,10.00,M,CLR,M,M,M,M,M,M,M,M,M,M,M,M,M,M,75.20,K05U 091650Z AUTO 00000KT 10SM CLR 24/03 A3024 RMK A01,M
P68,2024-09-09 16:53,-116.0056,39.6014,1993.00,76.00,39.00,26.34,10.00,3.00,0.00,30.21,1014.50,M,M,M,M,M,M,M,M,M,M,M,M,M,M,M,M,M,76.00,KP68 091653Z AUTO 01003KT 24/04 A3021 RMK AO1 SLP145 T02440039,M
DRA,2024-09-09 16:53,-116.0278,36.6206,1009.00,90.00,44.00,20.31,0.00,0.00,0.00,30.04,1011.80,10.00,M,CLR,M,M,M,M,M,M,M,M,M,M,M,M,M,M,86.37,KDRA 091653Z AUTO 00000KT 10SM CLR 32/07 A3004 RMK AO2 SLP118 T03220067,M
ELY,2024-09-09 16:53,-114.8453,39.2950,1909.00,77.00,42.00,28.62,200.00,7.00,0.00,30.25,1014.00,10.00,M,CLR,M,M,M,M,M,M,M,M,M,M,M,M,M,M,77.00,KELY 091653Z AUTO 20007KT 10SM CLR 25/06 A3025 RMK AO2 SLP140 T02500056,M
VGT,2024-09-09 16:53,-115.1933,36.2111,667.00,92.00,47.00,21.38,M,4.00,0.00,29.98,1013.70,10.00,M,CLR,M,M,M,M,M,M,M,M,M,M,M,M,M,M,88.49,KVGT 091653Z VRB04KT 10SM CLR 33/08 A2998 RMK AO2 SLP137 T03330083,M
LOL,2024-09-09 16:53,-118.5701,40.0684,1192.43,77.00,35.00,21.76,0.00,0.00,0.00,30.12,1015.60,10.00,M,CLR,M,M,M,M,M,M,M,M,M,M,M,M,M,M,77.00,KLOL 091653Z AUTO 00000KT 10SM CLR 25/02 A3012 RMK AO2 SLP156 T02500017,M
BVU,2024-09-09 16:55,-114.8611,35.9475,671.00,91.40,44.60,19.89,90.00,4.00,0.00,29.97,M,10.00,M,CLR,M,M,M,M,M,M,M,M,M,M,M,M,M,M,87.68,KBVU 091655Z AUTO 09004KT 10SM CLR 33/07 A2997 RMK AO2,M
RNO,2024-09-09 16:55,-119.7711,39.4839,1341.00,68.00,34.00,28.34,0.00,0.00,0.00,30.16,1016.40,10.00,M,SCT,M,M,M,25000.00,M,M,M,M,M,M,M,M,M,M,68.00,KRNO 091655Z 00000KT 10SM SCT250 20/01 A3016 RMK AO2 SLP164 FU S THRU SW T02000011,M
CXP,2024-09-09 16:55,-119.7326,39.1923,1431.00,71.60,33.80,24.86,M,3.00,0.00,30.19,M,10.00,M,CLR,M,M,M,M,M,M,M,M,M,M,M,M,M,M,71.60,KCXP 091655Z AUTO VRB03KT 10SM CLR 22/01 A3019 RMK AO2,M
RTS,2024-09-09 16:55,-119.8764,39.6682,1539.00,69.80,30.20,22.86,120.00,4.00,0.00,30.20,M,10.00,M,CLR,M,M,M,M,M,M,M,M,M,M,M,M,M,M,69.80,KRTS 091655Z AUTO 12004KT 10SM CLR 21/M01 A3020 RMK AO2,M
MEV,2024-09-09 16:55,-119.7500,38.9963,1441.42,69.80,35.60,28.39,0.00,0.00,0.00,30.17,M,10.00,M,CLR,M,M,M,M,M,M,M,M,M,M,M,M,M,M,69.80,KMEV 091655Z AUTO 00000KT 10SM CLR 21/02 A3017 RMK AO2,M
BAM,2024-09-09 16:55,-116.8743,40.5990,1382.36,75.20,32.00,20.49,0.00,0.00,0.00,30.15,M,10.00,M,CLR,M,M,M,M,M,M,M,M,M,M,M,M,M,M,75.20,KBAM 091655Z AUTO 00000KT 10SM CLR 24/00 A3015 RMK AO1,M
HTH,2024-09-09 16:55,-118.6315,38.5448,1282.89,75.20,32.00,20.49,0.00,0.00,0.00,30.15,M,10.00,M,CLR,M,M,M,M,M,M,M,M,M,M,M,M,M,M,75.20,KHTH 091655Z AUTO 00000KT 10SM CLR 24/00 A3015 RMK A01,M
TMT,2024-09-09 16:55,-117.1971,39.4643,1749.34,69.40,31.00,23.94,0.00,0.00,0.00,30.23,M,10.00,M,CLR,M,M,M,M,M,M,M,M,M,M,M,M,M,M,69.40,KTMT 091655Z AUTO 00000KT 10SM CLR 21/00 A3023 RMK AO2 T02081005,M
10U,2024-09-09 16:55,-116.1876,41.9532,1637.00,78.80,21.20,11.64,210.00,10.00,0.00,30.18,M,10.00,M,CLR,M,M,M,M,M,M,M,M,M,M,M,M,M,M,78.80,K10U 091655Z AUTO 21010KT 10SM CLR 26/M06 A3018 RMK AO2,M
LSV,2024-09-09 16:55,-115.0343,36.2362,570.00,92.00,42.40,17.94,0.00,0.00,0.00,29.93,1010.40,10.00,M,FEW,M,M,M,17000.00,M,M,M,M,M,M,M,M,M,M,88.04,KLSV 091655Z COR 00000KT 10SM FEW170 33/06 A2993 RMK AO2 SLP104 T03340058 $ COR 1704,M
EKO,2024-09-09 16:56,-115.7860,40.8242,1367.00,73.00,38.00,28.00,0.00,0.00,0.00,30.17,1015.90,10.00,M,CLR,M,M,M,M,M,M,M,M,M,M,M,M,M,M,73.00,KEKO 091656Z AUTO 00000KT 10SM CLR 23/03 A3017 RMK AO2 SLP159 T02280033,M
WMC,2024-09-09 16:56,-117.8072,40.9019,1315.00,82.00,26.00,12.81,0.00,0.00,0.00,30.13,1015.50,10.00,M,CLR,M,M,M,M,M,M,M,M,M,M,M,M,M,M,79.61,KWMC 091656Z AUTO 00000KT 10SM CLR 28/M03 A3013 RMK AO2 SLP155 T02781033,M
HND,2024-09-09 16:56,-115.1344,35.9729,742.79,89.00,48.00,24.39,0.00,0.00,0.00,30.02,1014.90,10.00,M,CLR,M,M,M,M,M,M,M,M,M,M,M,M,M,M,85.89,KHND 091656Z 00000KT 10SM CLR 32/09 A3002 RMK AO2 SLP149 T03170089,M
TPH,2024-09-09 16:56,-117.0904,38.0505,1654.00,78.00,37.00,22.79,0.00,0.00,0.00,30.20,1014.00,10.00,M,CLR,M,M,M,M,M,M,M,M,M,M,M,M,M,M,78.00,KTPH 091656Z AUTO 00000KT 10SM CLR 26/03 A3020 RMK AO2 SLP140 T02560028,M
LAS,2024-09-09 16:56,-115.1634,36.0719,663.00,91.00,47.00,22.05,80.00,3.00,0.00,29.99,1012.60,10.00,M,FEW,FEW,M,M,12000.00,18000.00,M,M,M,M,M,M,M,M,M,87.57,KLAS 091656Z 08003KT 10SM FEW120 FEW180 33/08 A2999 RMK AO2 SLP126 T03280083 $,M
NFL,2024-09-09 16:57,-118.7010,39.4166,1199.00,78.00,34.00,20.23,0.00,0.00,0.00,30.12,1016.60,10.00,M,SCT,BKN,M,M,20000.00,25000.00,M,M,M,M,M,M,M,M,M,78.00,KNFL 091657Z 00000KT 10SM SCT200 BKN250 26/01 A3012 RMK AO2 SLP166 CONTRAILS ALQDS T02560011,M
INS,2024-09-09 16:59,-115.6733,36.5872,955.00,89.60,51.80,27.56,270.00,2.00,0.00,29.92,M,10.00,M,FEW,M,M,M,14000.00,M,M,M,M,M,M,M,M,M,M,87.00,KINS 091659Z COR 27002KT 10SM FEW140 32/11 A2992 SLPNO,M
05U,2024-09-09 17:10,-116.0051,39.6042,1811.23,77.00,37.40,23.93,0.00,0.00,0.00,30.24,M,10.00,M,CLR,M,M,M,M,M,M,M,M,M,M,M,M,M,M,77.00,K05U 091710Z AUTO 00000KT 10SM CLR 25/03 A3024 RMK A01,M
HTH,2024-09-09 17:10,-118.6315,38.5448,1282.89,75.20,33.80,22.02,0.00,0.00,0.00,30.15,M,10.00,M,CLR,M,M,M,M,M,M,M,M,M,M,M,M,M,M,75.20,KHTH 091710Z AUTO 00000KT 10SM CLR 24/01 A3015 RMK A01,M
MEV,2024-09-09 17:15,-119.7500,38.9963,1441.42,71.60,37.40,28.68,0.00,0.00,0.00,30.17,M,10.00,M,CLR,M,M,M,M,M,M,M,M,M,M,M,M,M,M,71.60,KMEV 091715Z AUTO 00000KT 10SM CLR 22/03 A3017 RMK AO2,M
BAM,2024-09-09 17:15,-116.8743,40.5990,1382.36,78.80,32.00,18.18,240.00,3.00,0.00,30.15,M,10.00,M,CLR,M,M,M,M,M,M,M,M,M,M,M,M,M,M,78.80,KBAM 091715Z AUTO 24003KT 10SM CLR 26/00 A3015 RMK AO1,M
TMT,2024-09-09 17:15,-117.1971,39.4643,1749.34,73.40,31.60,21.41,200.00,3.00,0.00,30.24,M,10.00,M,CLR,M,M,M,M,M,M,M,M,M,M,M,M,M,M,73.40,KTMT 091715Z AUTO 20003KT 10SM CLR 23/00 A3024 RMK AO2 T02301002,M
10U,2024-09-09 17:15,-116.1876,41.9532,1637.00,78.80,19.40,10.78,200.00,9.00,0.00,30.18,M,10.00,M,CLR,M,M,M,M,M,M,M,M,M,M,M,M,M,M,78.80,K10U 091715Z AUTO 20009KT 10SM CLR 26/M07 A3018 RMK AO2,M
BVU,2024-09-09 17:15,-114.8611,35.9475,671.00,93.20,42.80,17.55,90.00,4.00,0.00,29.97,M,10.00,M,CLR,M,M,M,M,M,M,M,M,M,M,M,M,M,M,89.17,KBVU 091715Z AUTO 09004KT 10SM CLR 34/06 A2997 RMK AO2,M
CXP,2024-09-09 17:15,-119.7326,39.1923,1431.00,73.40,33.80,23.39,0.00,0.00,0.00,30.18,M,10.00,M,CLR,M,M,M,M,M,M,M,M,M,M,M,M,M,M,73.40,KCXP 091715Z AUTO 00000KT 10SM CLR 23/01 A3018 RMK AO2,M
RTS,2024-09-09 17:15,-119.8764,39.6682,1539.00,73.40,30.20,20.23,80.00,5.00,0.00,30.20,M,10.00,M,CLR,M,M,M,M,M,M,M,M,M,M,M,M,M,M,73.40,KRTS 091715Z AUTO 08005KT 10SM CLR 23/M01 A3020 RMK AO2,M
05U,2024-09-09 17:30,-116.0051,39.6042,1811.23,77.00,37.40,23.93,0.00,0.00,0.00,30.23,M,10.00,M,CLR,M,M,M,M,M,M,M,M,M,M,M,M,M,M,77.00,K05U 091730Z AUTO 00000KT 10SM CLR 25/03 A3023 RMK A01,M
BVU,2024-09-09 17:35,-114.8611,35.9475,671.00,95.00,42.80,16.60,M,4.00,0.00,29.97,M,10.00,M,CLR,M,M,M,M,M,M,M,M,M,M,M,M,M,M,90.86,KBVU 091735Z AUTO VRB04KT 10SM CLR 35/06 A2997 RMK AO2,M
CXP,2024-09-09 17:35,-119.7326,39.1923,1431.00,75.20,33.80,22.02,0.00,0.00,0.00,30.18,M,10.00,M,CLR,M,M,M,M,M,M,M,M,M,M,M,M,M,M,75.20,KCXP 091735Z AUTO 00000KT 10SM CLR 24/01 A3018 RMK AO2,M
RTS,2024-09-09 17:35,-119.8764,39.6682,1539.00,75.20,30.20,19.05,130.00,5.00,0.00,30.19,M,10.00,M,CLR,M,M,M,M,M,M,M,M,M,M,M,M,M,M,75.20,KRTS 091735Z AUTO 13005KT 10SM CLR 24/M01 A3019 RMK AO2,M
MEV,2024-09-09 17:35,-119.7500,38.9963,1441.42,75.20,33.80,22.02,0.00,0.00,0.00,30.16,M,10.00,M,CLR,M,M,M,M,M,M,M,M,M,M,M,M,M,M,75.20,KMEV 091735Z AUTO 00000KT 10SM CLR 24/01 A3016 RMK AO2,M
BAM,2024-09-09 17:35,-116.8743,40.5990,1382.36,80.60,32.00,17.14,0.00,0.00,0.00,30.15,M,10.00,M,CLR,M,M,M,M,M,M,M,M,M,M,M,M,M,M,78.82,KBAM 091735Z AUTO 00000KT 10SM CLR 27/00 A3015 RMK AO1,M
HTH,2024-09-09 17:35,-118.6315,38.5448,1282.89,77.00,32.00,19.30,0.00,0.00,0.00,30.15,M,10.00,M,CLR,M,M,M,M,M,M,M,M,M,M,M,M,M,M,77.00,KHTH 091735Z AUTO 00000KT 10SM CLR 25/M00 A3015 RMK A01,M
TMT,2024-09-09 17:35,-117.1971,39.4643,1749.34,75.00,28.60,17.96,0.00,0.00,0.00,30.23,M,10.00,M,CLR,M,M,M,M,M,M,M,M,M,M,M,M,M,M,75.00,KTMT 091735Z AUTO 00000KT 10SM CLR 24/M02 A3023 RMK AO2 T02381019,M
10U,2024-09-09 17:35,-116.1876,41.9532,1637.00,78.80,19.40,10.78,210.00,10.00,0.00,30.17,M,10.00,M,CLR,M,M,M,M,M,M,M,M,M,M,M,M,M,M,78.80,K10U 091735Z AUTO 21010KT 10SM CLR 26/M07 A3017 RMK AO2,M
05U,2024-09-09 17:50,-116.0051,39.6042,1811.23,78.80,37.40,22.54,0.00,0.00,0.00,30.23,M,10.00,M,CLR,M,M,M,M,M,M,M,M,M,M,M,M,M,M,78.80,K05U 091750Z AUTO 00000KT 10SM CLR 26/03 A3023 RMK A01,M
P68,2024-09-09 17:53,-116.0056,39.6014,1993.00,80.00,39.00,23.08,100.00,5.00,0.00,30.20,1013.40,M,M,M,M,M,M,M,M,M,M,M,M,M,M,M,M,M,78.78,KP68 091753Z AUTO 10005KT 27/04 A3020 RMK AO1 SLP134 T02670039 10267 20072 58005,M
DRA,2024-09-09 17:53,-116.0278,36.6206,1009.00,92.00,44.00,19.08,0.00,0.00,0.00,30.04,1011.50,10.00,M,CLR,M,M,M,M,M,M,M,M,M,M,M,M,M,M,88.17,KDRA 091753Z AUTO 00000KT 10SM CLR 33/07 A3004 RMK AO2 SLP115 T03330067 10344 20217 50001,M
ELY,2024-09-09 17:53,-114.8453,39.2950,1909.00,79.00,40.00,24.79,160.00,6.00,0.00,30.24,1013.90,10.00,M,CLR,M,M,M,M,M,M,M,M,M,M,M,M,M,M,79.00,KELY 091753Z AUTO 16006KT 10SM CLR 26/04 A3024 RMK AO2 SLP139 T02610044 10267 20089 58005,M
VGT,2024-09-09 17:53,-115.1933,36.2111,667.00,94.00,47.00,20.09,120.00,5.00,0.00,29.97,1013.40,10.00,M,CLR,M,M,M,M,M,M,M,M,M,M,M,M,M,M,90.40,KVGT 091753Z 12005KT 10SM CLR 34/08 A2997 RMK AO2 LTG DSNT N SLP134 T03440083 10350 20261 50001,M
LOL,2024-09-09 17:53,-118.5701,40.0684,1192.43,81.00,34.00,18.33,M,4.00,0.00,30.12,1015.40,10.00,M,CLR,M,M,M,M,M,M,M,M,M,M,M,M,M,M,79.13,KLOL 091753Z AUTO VRB04KT 10SM CLR 27/01 A3012 RMK AO2 SLP154 T02720011 10272 20094 50000,M
BVU,2024-09-09 17:55,-114.8611,35.9475,671.00,96.80,42.80,15.71,M,6.00,0.00,29.96,M,10.00,M,CLR,M,M,M,M,M,M,M,M,M,M,M,M,M,M,92.57,KBVU 091755Z AUTO VRB06KT 10SM CLR 36/06 A2996 RMK AO2,M
RNO,2024-09-09 17:55,-119.7711,39.4839,1341.00,74.00,33.00,22.20,M,3.00,0.00,30.15,1015.70,10.00,M,BKN,M,M,M,25000.00,M,M,M,M,M,M,M,M,M,M,74.00,KRNO 091755Z VRB03KT 10SM BKN250 23/01 A3015 RMK AO2 SLP157 FU S THRU SW T02330006 10239 20122 58004,M
CXP,2024-09-09 17:55,-119.7326,39.1923,1431.00,78.80,33.80,19.55,0.00,0.00,0.00,30.18,M,2.50,M,CLR,M,M,M,M,M,M,M,HZ,M,M,M,M,M,M,78.80,KCXP 091755Z AUTO 00000KT 2 1/2SM HZ CLR 26/01 A3018 RMK AO2,M
RTS,2024-09-09 17:55,-119.8764,39.6682,1539.00,75.20,32.00,20.49,0.00,0.00,0.00,30.19,M,10.00,M,CLR,M,M,M,M,M,M,M,M,M,M,M,M,M,M,75.20,KRTS 091755Z AUTO 00000KT 10SM CLR 24/M00 A3019 RMK AO2,M
MEV,2024-09-09 17:55,-119.7500,38.9963,1441.42,77.00,33.80,20.74,M,3.00,0.00,30.16,M,9.00,M,CLR,M,M,M,M,M,M,M,M,M,M,M,M,M,M,77.00,KMEV 091755Z AUTO VRB03KT 9SM CLR 25/01 A3016 RMK AO2,M
BAM,2024-09-09 17:55,-116.8743,40.5990,1382.36,80.60,30.20,15.94,10.00,3.00,0.00,30.15,M,10.00,M,CLR,M,M,M,M,M,M,M,M,M,M,M,M,M,M,78.77,KBAM 091755Z AUTO 01003KT 10SM CLR 27/M01 A3015 RMK AO1,M
HTH,2024-09-09 17:55,-118.6315,38.5448,1282.89,78.80,32.00,18.18,0.00,0.00,0.00,30.14,M,10.00,M,CLR,M,M,M,M,M,M,M,M,M,M,M,M,M,M,78.80,KHTH 091755Z AUTO 00000KT 10SM CLR 26/M00 A3014 RMK A01,M
TMT,2024-09-09 17:55,-117.1971,39.4643,1749.34,78.00,29.50,16.87,70.00,4.00,0.00,30.22,M,10.00,M,CLR,M,M,M,M,M,M,M,M,M,M,M,M,M,M,78.00,KTMT 091755Z AUTO 07004KT 10SM CLR 26/M01 A3022 RMK AO2 T02551014 10255 20022,M
10U,2024-09-09 17:55,-116.1876,41.9532,1637.00,80.60,17.60,9.40,210.00,10.00,0.00,30.17,M,10.00,M,CLR,M,M,M,M,M,M,M,M,M,M,M,M,M,M,78.45,K10U 091755Z AUTO 21010KT 10SM CLR 27/M08 A3017 RMK AO2,M
LSV,2024-09-09 17:55,-115.0343,36.2362,570.00,96.40,41.00,14.84,160.00,5.00,0.00,29.92,1010.00,10.00,M,FEW,FEW,M,M,12000.00,18000.00,M,M,M,M,M,M,M,M,M,92.01,KLSV 091755Z COR 16005KT 10SM FEW120 FEW180 36/05 A2992 RMK AO2 SLP100 T03580051 10358 20266 50000 $ COR 1844,M
EKO,2024-09-09 17:56,-115.7860,40.8242,1367.00,80.00,32.00,17.48,M,5.00,0.00,30.15,1015.20,10.00,M,CLR,M,M,M,M,M,M,M,M,M,M,M,M,M,M,78.52,KEKO 091756Z AUTO VRB05KT 10SM CLR 27/00 A3015 RMK AO2 SLP152 T02670000 10267 20094 58006,M
WMC,2024-09-09 17:56,-117.8072,40.9019,1315.00,85.00,28.00,12.63,M,6.00,0.00,30.12,1015.30,10.00,M,CLR,M,M,M,M,M,M,M,M,M,M,M,M,M,M,81.80,KWMC 091756Z AUTO VRB06KT 10SM CLR 29/M02 A3012 RMK AO2 SLP153 T02941022 10294 20083 50002,M
HND,2024-09-09 17:56,-115.1344,35.9729,742.79,94.00,49.00,21.65,M,4.00,0.00,30.01,1014.50,10.00,M,CLR,M,M,M,M,M,M,M,M,M,M,M,M,M,M,90.71,KHND 091756Z VRB04KT 10SM CLR 34/09 A3001 RMK AO2 SLP145 T03440094 10350 20239 58001,M
TPH,2024-09-09 17:56,-117.0904,38.0505,1654.00,82.00,33.00,17.05,M,4.00,0.00,30.20,1013.50,10.00,M,CLR,M,M,M,M,M,M,M,M,M,M,M,M,M,M,79.75,KTPH 091756Z AUTO VRB04KT 10SM CLR 28/01 A3020 RMK AO2 SLP135 T02780006 10278 20133 50001 $,M
LAS,2024-09-09 17:56,-115.1634,36.0719,663.00,94.00,47.00,20.09,90.00,5.00,0.00,29.98,1012.20,10.00,M,FEW,FEW,M,M,12000.00,18000.00,M,M,M,M,M,M,M,M,M,90.40,KLAS 091756Z 09005KT 10SM FEW120 FEW180 34/08 A2998 RMK AO2 SLP122 CB DSNT NW AND N T03440083 10344 20272 50000 $,M
NFL,2024-09-09 17:57,-118.7010,39.4166,1199.00,83.00,33.00,16.50,0.00,0.00,0.00,30.12,1016.50,10.00,M,SCT,BKN,M,M,20000.00,25000.00,M,M,M,M,M,M,M,M,M,80.43,KNFL 091757Z COR 00000KT 10SM SCT200 BKN250 28/01 A3012 RMK AO2 SLP165 CONTRAILS ALQDS T02830006 10283 20111 50001,M
INS,2024-09-09 17:58,-115.6733,36.5872,955.00,96.80,51.80,22.04,230.00,3.00,0.00,29.96,M,10.00,M,SCT,M,M,M,14000.00,M,M,M,M,M,M,M,M,M,M,94.12,KINS 091758Z 23003KT 10SM SCT140 36/11 A2996 SLPNO,M
05U,2024-09-09 18:10,-116.0051,39.6042,1811.23,80.60,37.40,21.25,0.00,0.00,0.00,30.22,M,10.00,M,CLR,M,M,M,M,M,M,M,M,M,M,M,M,M,M,79.02,K05U 091810Z AUTO 00000KT 10SM CLR 27/03 A3022 RMK A01,M
BAM,2024-09-09 18:15,-116.8743,40.5990,1382.36,82.40,28.40,13.96,40.00,3.00,0.00,30.15,M,10.00,M,CLR,M,M,M,M,M,M,M,M,M,M,M,M,M,M,79.94,KBAM 091815Z AUTO 04003KT 10SM CLR 28/M02 A3015 RMK AO1,M
HTH,2024-09-09 18:15,-118.6315,38.5448,1282.89,80.60,30.20,15.94,330.00,6.00,0.00,30.14,M,10.00,M,CLR,M,M,M,M,M,M,M,M,M,M,M,M,M,M,78.77,KHTH 091815Z AUTO 33006KT 10SM CLR 27/M01 A3014 RMK A01,M
TMT,2024-09-09 18:15,-117.1971,39.4643,1749.34,78.60,29.50,16.54,0.00,0.00,0.00,30.22,M,10.00,M,CLR,M,M,M,M,M,M,M,M,M,M,M,M,M,M,78.60,KTMT 091815Z AUTO 00000KT 10SM CLR 26/M01 A3022 RMK AO2 T02591014,M
10U,2024-09-09 18:15,-116.1876,41.9532,1637.00,82.40,19.40,9.58,250.00,10.00,0.00,30.17,M,10.00,M,CLR,M,M,M,M,M,M,M,M,M,M,M,M,M,M,79.45,K10U 091815Z AUTO 25010KT 10SM CLR 28/M07 A3017 RMK AO2,M
BVU,2024-09-09 18:15,-114.8611,35.9475,671.00,98.60,42.80,14.87,M,5.00,0.00,29.96,M,10.00,11.00,CLR,M,M,M,M,M,M,M,M,M,M,M,M,M,M,94.30,KBVU 091815Z AUTO VRB05G11KT 10SM CLR 37/06 A2996 RMK AO2,M
CXP,2024-09-09 18:15,-119.7326,39.1923,1431.00,82.40,33.80,17.38,160.00,4.00,0.00,30.17,M,10.00,M,CLR,M,M,M,M,M,M,M,M,M,M,M,M,M,M,80.03,KCXP 091815Z AUTO 16004KT 10SM CLR 28/01 A3017 RMK AO2,M
RTS,2024-09-09 18:15,-119.8764,39.6682,1539.00,77.00,32.00,19.30,M,4.00,0.00,30.19,M,10.00,M,CLR,M,M,M,M,M,M,M,M,M,M,M,M,M,M,77.00,KRTS 091815Z AUTO VRB04KT 10SM CLR 25/M00 A3019 RMK AO2,M
MEV,2024-09-09 18:15,-119.7500,38.9963,1441.42,80.60,33.80,18.42,310.00,4.00,0.00,30.15,M,7.00,M,CLR,M,M,M,M,M,M,M,M,M,M,M,M,M,M,78.88,KMEV 091815Z AUTO 31004KT 7SM CLR 27/01 A3015 RMK AO2,M
05U,2024-09-09 18:30,-116.0051,39.6042,1811.23,80.60,37.40,21.25,0.00,0.00,0.00,30.22,M,10.00,M,CLR,M,M,M,M,M,M,M,M,M,M,M,M,M,M,79.02,K05U 091830Z AUTO 00000KT 10SM CLR 27/03 A3022 RMK A01,M
BVU,2024-09-09 18:35,-114.8611,35.9475,671.00,98.60,42.80,14.87,0.00,0.00,0.00,29.94,M,10.00,10.00,CLR,M,M,M,M,M,M,M,M,M,M,M,M,M,M,94.30,KBVU 091835Z AUTO 00000G10KT 10SM CLR 37/06 A2994 RMK AO2,M
CXP,2024-09-09 18:35,-119.7326,39.1923,1431.00,82.40,32.00,16.17,M,4.00,0.00,30.16,M,10.00,M,CLR,M,M,M,M,M,M,M,M,M,M,M,M,M,M,80.00,KCXP 091835Z AUTO VRB04KT 10SM CLR 28/00 A3016 RMK AO2,M
RTS,2024-09-09 18:35,-119.8764,39.6682,1539.00,78.80,30.20,16.90,M,4.00,0.00,30.18,M,10.00,13.00,CLR,M,M,M,M,M,M,M,M,M,M,M,M,M,M,78.80,KRTS 091835Z AUTO VRB04G13KT 10SM CLR 26/M01 A3018 RMK AO2,M
MEV,2024-09-09 18:35,-119.7500,38.9963,1441.42,80.60,33.80,18.42,0.00,0.00,0.00,30.15,M,9.00,M,CLR,M,M,M,M,M,M,M,M,M,M,M,M,M,M,78.88,KMEV 091835Z AUTO 00000KT 9SM CLR 27/01 A3015 RMK AO2,M
BAM,2024-09-09 18:35,-116.8743,40.5990,1382.36,84.20,28.40,13.18,300.00,3.00,0.00,30.14,M,10.00,M,CLR,M,M,M,M,M,M,M,M,M,M,M,M,M,M,81.25,KBAM 091835Z AUTO 30003KT 10SM CLR 29/M02 A3014 RMK AO1,M
HTH,2024-09-09 18:35,-118.6315,38.5448,1282.89,82.40,30.20,15.03,340.00,7.00,0.00,30.13,M,10.00,M,CLR,M,M,M,M,M,M,M,M,M,M,M,M,M,M,79.97,KHTH 091835Z AUTO 34007KT 10SM CLR 28/M01 A3013 RMK A01,M
TMT,2024-09-09 18:35,-117.1971,39.4643,1749.34,79.00,30.60,17.07,320.00,3.00,0.00,30.22,M,10.00,M,CLR,M,M,M,M,M,M,M,M,M,M,M,M,M,M,79.00,KTMT 091835Z AUTO 32003KT 10SM CLR 26/M01 A3022 RMK AO2 T02611008,M
10U,2024-09-09 18:35,-116.1876,41.9532,1637.00,82.40,19.40,9.58,200.00,12.00,0.00,30.16,M,10.00,M,CLR,M,M,M,M,M,M,M,M,M,M,M,M,M,M,79.45,K10U 091835Z AUTO 20012KT 10SM CLR 28/M07 A3016 RMK AO2,M
05U,2024-09-09 18:50,-116.0051,39.6042,1811.23,82.40,39.20,21.51,0.00,0.00,0.00,30.21,M,10.00,M,CLR,M,M,M,M,M,M,M,M,M,M,M,M,M,M,80.21,K05U 091850Z AUTO 00000KT 10SM CLR 28/04 A3021 RMK A01,M
P68,2024-09-09 18:53,-116.0056,39.6014,1993.00,82.00,39.00,21.62,M,4.00,0.00,30.18,1012.90,M,M,M,M,M,M,M,M,M,M,M,M,M,M,M,M,M,79.94,KP68 091853Z AUTO VRB04KT 28/04 A3018 RMK AO1 SLP129 T02780039,M
DRA,2024-09-09 18:53,-116.0278,36.6206,1009.00,96.00,45.00,17.51,210.00,4.00,0.00,30.02,1010.80,10.00,M,CLR,M,M,M,M,M,M,M,M,M,M,M,M,M,M,92.07,KDRA 091853Z AUTO 21004KT 10SM CLR 36/07 A3002 RMK AO2 SLP108 T03560072,M
ELY,2024-09-09 18:53,-114.8453,39.2950,1909.00,82.00,38.00,20.79,220.00,8.00,0.00,30.23,1012.50,10.00,16.00,CLR,M,M,M,M,M,M,M,M,M,M,M,M,M,M,79.90,KELY 091853Z AUTO 22008G16KT 10SM CLR 28/03 A3023 RMK AO2 SLP125 T02780033,M
VGT,2024-09-09 18:53,-115.1933,36.2111,667.00,98.00,47.00,17.77,90.00,6.00,0.00,29.95,1012.80,10.00,M,CLR,M,M,M,M,M,M,M,M,M,M,M,M,M,M,94.34,KVGT 091853Z 09006KT 10SM CLR 37/08 A2995 RMK AO2 LTG DSNT N SLP128 T03670083,M
LOL,2024-09-09 18:53,-118.5701,40.0684,1192.43,85.00,31.00,14.28,210.00,7.00,0.00,30.10,1015.10,10.00,M,CLR,M,M,M,M,M,M,M,M,M,M,M,M,M,M,81.87,KLOL 091853Z AUTO 21007KT 10SM CLR 29/M01 A3010 RMK AO2 SLP151 T02941006,M
BVU,2024-09-09 18:55,-114.8611,35.9475,671.00,98.60,42.80,14.87,120.00,10.00,0.00,29.94,M,10.00,M,CLR,M,M,M,M,M,M,M,M,M,M,M,M,M,M,94.30,KBVU 091855Z AUTO 12010KT 10SM CLR 37/06 A2994 RMK AO2,M
INS,2024-09-09 18:55,-115.6733,36.5872,955.00,95.00,50.00,21.79,250.00,8.00,0.00,30.00,M,10.00,M,BKN,M,M,M,13000.00,M,M,M,M,M,M,M,M,M,M,91.89,KINS 091855Z 25008KT 10SM BKN130 35/10 A3000 RMK SLPNO,M
RNO,2024-09-09 18:55,-119.7711,39.4839,1341.00,81.00,35.00,19.08,70.00,4.00,0.00,30.13,1014.60,10.00,M,FEW,BKN,M,M,4000.00,25000.00,M,M,M,M,M,M,M,M,M,79.16,KRNO 091855Z 07004KT 10SM FEW040 BKN250 27/02 A3013 RMK AO2 SLP146 FU FEW040 FU PLUME SW T02720017,M
CXP,2024-09-09 18:55,-119.7326,39.1923,1431.00,82.40,32.00,16.17,M,6.00,0.00,30.15,M,10.00,11.00,CLR,M,M,M,M,M,M,M,M,M,M,M,M,M,M,80.00,KCXP 091855Z AUTO VRB06G11KT 10SM CLR 28/00 A3015 RMK AO2,M
RTS,2024-09-09 18:55,-119.8764,39.6682,1539.00,80.60,30.20,15.94,190.00,9.00,0.00,30.18,M,10.00,17.00,CLR,M,M,M,M,M,M,M,M,M,M,M,M,M,M,78.77,KRTS 091855Z AUTO 19009G17KT 10SM CLR 27/M01 A3018 RMK AO2,M
MEV,2024-09-09 18:55,-119.7500,38.9963,1441.42,82.40,32.00,16.17,210.00,6.00,0.00,30.14,M,8.00,M,CLR,M,M,M,M,M,M,M,M,M,M,M,M,M,M,80.00,KMEV 091855Z AUTO 21006KT 8SM CLR 28/00 A3014 RMK AO2,M
BAM,2024-09-09 18:55,-116.8743,40.5990,1382.36,84.20,28.40,13.18,0.00,0.00,0.00,30.13,M,10.00,M,CLR,M,M,M,M,M,M,M,M,M,M,M,M,M,M,81.25,KBAM 091855Z AUTO 00000KT 10SM CLR 29/M02 A3013 RMK AO1,M
HTH,2024-09-09 18:55,-118.6315,38.5448,1282.89,82.40,30.20,15.03,360.00,9.00,0.00,30.12,M,10.00,M,CLR,M,M,M,M,M,M,M,M,M,M,M,M,M,M,79.97,KHTH 091855Z AUTO 36009KT 10SM CLR 28/M01 A3012 RMK A01,M
TMT,2024-09-09 18:55,-117.1971,39.4643,1749.34,80.00,31.60,17.20,120.00,4.00,0.00,30.21,M,10.00,M,CLR,M,M,M,M,M,M,M,M,M,M,M,M,M,M,78.51,KTMT 091855Z AUTO 12004KT 10SM CLR 27/00 A3021 RMK AO2 T02671002,M
10U,2024-09-09 18:55,-116.1876,41.9532,1637.00,84.20,19.40,9.04,250.00,7.00,0.00,30.16,M,10.00,16.00,CLR,M,M,M,M,M,M,M,M,M,M,M,M,M,M,80.68,K10U 091855Z AUTO 25007G16KT 230V310 10SM CLR 29/M07 A3016 RMK AO2,M
LSV,2024-09-09 18:55,-115.0343,36.2362,570.00,99.00,41.50,13.97,180.00,5.00,0.00,29.90,1009.40,10.00,M,FEW,FEW,M,M,12000.00,18000.00,M,M,M,M,M,M,M,M,M,94.53,KLSV 091855Z COR 18005KT 10SM FEW120 FEW180 37/05 A2990 RMK AO2 SLP094 T03730053 $ COR 1918,M
EKO,2024-09-09 18:56,-115.7860,40.8242,1367.00,86.00,28.00,12.23,180.00,7.00,0.00,30.14,1014.20,10.00,M,CLR,M,M,M,M,M,M,M,M,M,M,M,M,M,M,82.50,KEKO 091856Z AUTO 18007KT 10SM CLR 30/M02 A3014 RMK AO2 SLP142 T03001022,M
WMC,2024-09-09 18:56,-117.8072,40.9019,1315.00,87.00,29.00,12.35,220.00,13.00,0.00,30.10,1013.90,10.00,21.00,CLR,M,M,M,M,M,M,M,M,M,M,M,M,M,M,83.31,KWMC 091856Z AUTO 22013G21KT 10SM CLR 31/M02 A3010 RMK AO2 SLP139 T03061017,M
HND,2024-09-09 18:56,-115.1344,35.9729,742.79,97.00,49.00,19.74,M,3.00,0.00,29.99,1013.70,10.00,M,CLR,M,M,M,M,M,M,M,M,M,M,M,M,M,M,93.71,KHND 091856Z VRB03KT 10SM CLR 36/09 A2999 RMK AO2 SLP137 T03610094,M
TPH,2024-09-09 18:56,-117.0904,38.0505,1654.00,84.00,33.00,15.98,140.00,8.00,0.00,30.18,1012.80,10.00,M,CLR,M,M,M,M,M,M,M,M,M,M,M,M,M,M,81.14,KTPH 091856Z AUTO 14008KT 10SM CLR 29/01 A3018 RMK AO2 SLP128 T02890006 $,M
LAS,2024-09-09 18:56,-115.1634,36.0719,663.00,96.00,47.00,18.89,40.00,5.00,0.00,29.96,1011.50,10.00,M,FEW,FEW,SCT,M,12000.00,18000.00,25000.00,M,M,M,M,M,M,M,M,92.36,KLAS 091856Z 04005KT 10SM FEW120 FEW180 SCT250 36/08 A2996 RMK AO2 SLP115 CB DSNT N AND NE T03560083 $,M
NFL,2024-09-09 18:57,-118.7010,39.4166,1199.00,85.00,33.00,15.47,300.00,5.00,0.00,30.10,1016.00,10.00,M,FEW,BKN,M,M,8000.00,22000.00,M,M,M,M,M,M,M,M,M,81.88,KNFL 091857Z 30005KT 10SM FEW080 BKN220 29/01 A3010 RMK AO2 SLP160 CONTRAILS ALQDS T02940006,M
05U,2024-09-09 19:10,-116.0051,39.6042,1811.23,82.40,33.80,17.38,200.00,5.00,0.00,30.20,M,10.00,M,FEW,M,M,M,11000.00,M,M,M,M,M,M,M,M,M,M,80.03,K05U 091910Z AUTO 20005KT 10SM FEW110 28/01 A3020 RMK A01,M
BVU,2024-09-09 19:15,-114.8611,35.9475,671.00,100.40,42.80,14.08,130.00,7.00,0.00,29.93,M,10.00,M,CLR,M,M,M,M,M,M,M,M,M,M,M,M,M,M,96.04,KBVU 091915Z AUTO 13007KT 090V180 10SM CLR 38/06 A2993 RMK AO2,M
CXP,2024-09-09 19:15,-119.7326,39.1923,1431.00,84.20,32.00,15.25,170.00,7.00,0.00,30.15,M,10.00,M,CLR,M,M,M,M,M,M,M,M,M,M,M,M,M,M,81.28,KCXP 091915Z AUTO 17007KT 140V220 10SM CLR 29/M00 A3015 RMK AO2,M
RTS,2024-09-09 19:15,-119.8764,39.6682,1539.00,82.40,30.20,15.03,230.00,12.00,0.00,30.17,M,10.00,17.00,CLR,M,M,M,M,M,M,M,M,M,M,M,M,M,M,79.97,KRTS 091915Z AUTO 23012G17KT 10SM CLR 28/M01 A3017 RMK AO2,M
MEV,2024-09-09 19:15,-119.7500,38.9963,1441.42,82.40,32.00,16.17,0.00,0.00,0.00,30.14,M,7.00,M,CLR,M,M,M,M,M,M,M,M,M,M,M,M,M,M,80.00,KMEV 091915Z AUTO 00000KT 7SM CLR 28/00 A3014 RMK AO2,M
BAM,2024-09-09 19:15,-116.8743,40.5990,1382.36,86.00,28.40,12.44,0.00,0.00,0.00,30.12,M,10.00,M,CLR,M,M,M,M,M,M,M,M,M,M,M,M,M,M,82.54,KBAM 091915Z AUTO 00000KT 10SM CLR 30/M02 A3012 RMK AO1,M
HTH,2024-09-09 19:15,-118.6315,38.5448,1282.89,84.20,28.40,13.18,340.00,7.00,0.00,30.11,M,10.00,M,CLR,M,M,M,M,M,M,M,M,M,M,M,M,M,M,81.25,KHTH 091915Z AUTO 34007KT 10SM CLR 29/M02 A3011 RMK A01,M
TMT,2024-09-09 19:15,-117.1971,39.4643,1749.34,80.00,32.00,17.48,0.00,0.00,0.00,30.20,M,10.00,M,CLR,M,M,M,M,M,M,M,M,M,M,M,M,M,M,78.52,KTMT 091915Z AUTO 00000KT 10SM CLR 27/00 A3020 RMK AO2 T02671001,M
10U,2024-09-09 19:15,-116.1876,41.9532,1637.00,86.00,21.20,9.21,200.00,13.00,0.00,30.15,M,10.00,18.00,CLR,M,M,M,M,M,M,M,M,M,M,M,M,M,M,82.04,K10U 091915Z AUTO 20013G18KT 180V240 10SM CLR 30/M06 A3015 RMK AO2,M
05U,2024-09-09 19:30,-116.0051,39.6042,1811.23,82.40,33.80,17.38,0.00,0.00,0.00,30.19,M,10.00,M,FEW,M,M,M,12000.00,M,M,M,M,M,M,M,M,M,M,80.03,K05U 091930Z AUTO 00000KT 10SM FEW120 28/01 A3019 RMK A01,M
BVU,2024-09-09 19:35,-114.8611,35.9475,671.00,102.20,42.80,13.34,120.00,10.00,0.00,29.92,M,10.00,M,CLR,M,M,M,M,M,M,M,M,M,M,M,M,M,M,97.76,KBVU 091935Z AUTO 12010KT 10SM CLR 39/06 A2992 RMK AO2,M
CXP,2024-09-09 19:35,-119.7326,39.1923,1431.00,86.00,32.00,14.40,M,3.00,0.00,30.14,M,10.00,10.00,CLR,M,M,M,M,M,M,M,M,M,M,M,M,M,M,82.64,KCXP 091935Z AUTO VRB03G10KT 10SM CLR 30/M00 A3014 RMK AO2,M
RTS,2024-09-09 19:35,-119.8764,39.6682,1539.00,82.40,28.40,13.96,180.00,7.00,0.00,30.16,M,10.00,14.00,CLR,M,M,M,M,M,M,M,M,M,M,M,M,M,M,79.94,KRTS 091935Z AUTO 18007G14KT 150V240 10SM CLR 28/M02 A3016 RMK AO2,M
MEV,2024-09-09 19:35,-119.7500,38.9963,1441.42,84.20,30.20,14.18,M,5.00,0.00,30.13,M,10.00,M,CLR,M,M,M,M,M,M,M,M,M,M,M,M,M,M,81.26,KMEV 091935Z AUTO VRB05KT 10SM CLR 29/M01 A3013 RMK AO2,M
BAM,2024-09-09 19:35,-116.8743,40.5990,1382.36,86.00,28.40,12.44,300.00,3.00,0.00,30.12,M,10.00,M,CLR,M,M,M,M,M,M,M,M,M,M,M,M,M,M,82.54,KBAM 091935Z AUTO 30003KT 10SM CLR 30/M02 A3012 RMK AO1,M
HTH,2024-09-09 19:35,-118.6315,38.5448,1282.89,84.20,28.40,13.18,350.00,7.00,0.00,30.10,M,10.00,M,CLR,M,M,M,M,M,M,M,M,M,M,M,M,M,M,81.25,KHTH 091935Z AUTO 35007KT 10SM CLR 29/M02 A3010 RMK A01,M
TMT,2024-09-09 19:35,-117.1971,39.4643,1749.34,81.70,31.30,16.08,210.00,4.00,0.00,30.19,M,10.00,M,CLR,M,M,M,M,M,M,M,M,M,M,M,M,M,M,79.51,KTMT 091935Z AUTO 21004KT 10SM CLR 28/00 A3019 RMK AO2 T02761004,M
10U,2024-09-09 19:35,-116.1876,41.9532,1637.00,86.00,23.00,9.94,230.00,12.00,0.00,30.14,M,10.00,22.00,CLR,M,M,M,M,M,M,M,M,M,M,M,M,M,M,82.14,K10U 091935Z AUTO 23012G22KT 10SM CLR 30/M05 A3014 RMK AO2,M
05U,2024-09-09 19:50,-116.0051,39.6042,1811.23,82.40,33.80,17.38,0.00,0.00,0.00,30.18,M,10.00,M,SCT,M,M,M,11000.00,M,M,M,M,M,M,M,M,M,M,80.03,K05U 091950Z AUTO 00000KT 10SM SCT110 28/01 A3018 RMK A01,M
P68,2024-09-09 19:53,-116.0056,39.6014,1993.00,83.00,33.00,16.50,0.00,0.00,0.00,30.15,1012.00,M,M,M,M,M,M,M,M,M,M,M,M,M,M,M,M,M,80.43,KP68 091953Z AUTO 00000KT 28/01 A3015 RMK AO1 SLP120 T02830006,M
DRA,2024-09-09 19:53,-116.0278,36.6206,1009.00,100.00,42.00,13.82,230.00,10.00,0.00,29.99,1009.60,10.00,18.00,CLR,M,M,M,M,M,M,M,M,M,M,M,M,M,M,95.54,KDRA 091953Z AUTO 23010G18KT 190V280 10SM CLR 38/06 A2999 RMK AO2 SLP096 T03780056,M
ELY,2024-09-09 19:53,-114.8453,39.2950,1909.00,83.00,37.00,19.35,250.00,13.00,0.00,30.20,1012.40,10.00,25.00,FEW,M,M,M,10000.00,M,M,M,M,M,M,M,M,M,M,80.53,KELY 091953Z AUTO 25013G25KT 210V270 10SM FEW100 28/03 A3020 RMK AO2 LTG DSNT NE AND E SLP124 T02830028,M
VGT,2024-09-09 19:53,-115.1933,36.2111,667.00,100.00,47.00,16.72,130.00,6.00,0.00,29.92,1011.70,10.00,M,CLR,M,M,M,M,M,M,M,M,M,M,M,M,M,M,96.35,KVGT 091953Z 13006KT 10SM CLR 38/08 A2992 RMK AO2 LTG DSNT N SLP117 T03780083,M
LOL,2024-09-09 19:53,-118.5701,40.0684,1192.43,85.00,31.00,14.28,0.00,0.00,0.00,30.07,1014.80,10.00,M,CLR,M,M,M,M,M,M,M,M,M,M,M,M,M,M,81.87,KLOL 091953Z AUTO 00000KT 10SM CLR 29/M01 A3007 RMK AO2 SLP148 T02941006,M
BVU,2024-09-09 19:55,-114.8611,35.9475,671.00,102.20,41.00,12.44,280.00,7.00,0.00,29.91,M,10.00,13.00,CLR,M,M,M,M,M,M,M,M,M,M,M,M,M,M,97.39,KBVU 091955Z AUTO 28007G13KT 10SM CLR 39/05 A2991 RMK AO2,M
INS,2024-09-09 19:55,-115.6733,36.5872,955.00,96.80,48.20,19.28,30.00,4.00,0.00,29.98,M,10.00,M,BKN,M,M,M,13000.00,M,M,M,M,M,M,M,M,M,M,93.36,KINS 091955Z 03004KT 10SM BKN130 36/09 A2998 RMK SLPNO,M
RNO,2024-09-09 19:55,-119.7711,39.4839,1341.00,85.00,35.00,16.76,60.00,6.00,0.00,30.11,1014.00,10.00,M,FEW,BKN,M,M,4000.00,25000.00,M,M,M,M,M,M,M,M,M,81.91,KRNO 091955Z 06006KT 10SM FEW040 BKN250 29/02 A3011 RMK AO2 SLP140 FU FEW040 FU PLUME SW T02940017,M
CXP,2024-09-09 19:55,-119.7326,39.1923,1431.00,87.80,32.00,13.59,200.00,4.00,0.00,30.14,M,10.00,11.00,CLR,M,M,M,M,M,M,M,M,M,M,M,M,M,M,84.08,KCXP 091955Z AUTO 20004G11KT 10SM CLR 31/M00 A3014 RMK AO2,M
RTS,2024-09-09 19:55,-119.8764,39.6682,1539.00,82.40,30.20,15.03,170.00,10.00,0.00,30.15,M,10.00,M,CLR,M,M,M,M,M,M,M,M,M,M,M,M,M,M,79.97,KRTS 091955Z AUTO 17010KT 10SM CLR 28/M01 A3015 RMK AO2,M
MEV,2024-09-09 19:55,-119.7500,38.9963,1441.42,84.20,30.20,14.18,0.00,0.00,0.00,30.12,M,9.00,10.00,CLR,M,M,M,M,M,M,M,M,M,M,M,M,M,M,81.26,KMEV 091955Z AUTO 00000G10KT 9SM CLR 29/M01 A3012 RMK AO2,M
BAM,2024-09-09 19:55,-116.8743,40.5990,1382.36,87.80,28.40,11.74,200.00,4.00,0.00,30.11,M,10.00,M,CLR,M,M,M,M,M,M,M,M,M,M,M,M,M,M,83.84,KBAM 091955Z AUTO 20004KT 10SM CLR 31/M02 A3011 RMK AO1,M
HTH,2024-09-09 19:55,-118.6315,38.5448,1282.89,84.20,28.40,13.18,M,5.00,0.00,30.09,M,10.00,10.00,CLR,M,M,M,M,M,M,M,M,M,M,M,M,M,M,81.25,KHTH 091955Z AUTO VRB05G10KT 10SM CLR 29/M02 A3009 RMK A01,M
TMT,2024-09-09 19:55,-117.1971,39.4643,1749.34,83.50,32.00,15.60,250.00,3.00,0.00,30.18,M,10.00,M,CLR,M,M,M,M,M,M,M,M,M,M,M,M,M,M,80.77,KTMT 091955Z AUTO 25003KT 10SM CLR 29/00 A3018 RMK AO2 T02860001,M
10U,2024-09-09 19:55,-116.1876,41.9532,1637.00,86.00,23.00,9.94,250.00,13.00,0.00,30.14,M,10.00,21.00,CLR,M,M,M,M,M,M,M,M,M,M,M,M,M,M,82.14,K10U 091955Z AUTO 25013G21KT 10SM CLR 30/M05 A3014 RMK AO2,M
LSV,2024-09-09 19:55,-115.0343,36.2362,570.00,101.30,39.20,11.92,160.00,4.00,0.00,29.87,1008.30,10.00,M,CLR,M,M,M,M,M,M,M,M,M,M,M,M,M,M,96.21,KLSV 091955Z AUTO 16004KT 10SM CLR 39/04 A2987 RMK AO2 SLP083 T03850040 $,M
EKO,2024-09-09 19:56,-115.7860,40.8242,1367.00,88.00,29.00,11.96,220.00,9.00,0.00,30.11,1013.40,10.00,M,CLR,M,M,M,M,M,M,M,M,M,M,M,M,M,M,84.04,KEKO 091956Z AUTO 22009KT 10SM CLR 31/M02 A3011 RMK AO2 SLP134 T03111017,M
WMC,2024-09-09 19:56,-117.8072,40.9019,1315.00,89.00,30.00,12.07,250.00,9.00,0.00,30.08,1013.90,10.00,18.00,CLR,M,M,M,M,M,M,M,M,M,M,M,M,M,M,84.88,KWMC 091956Z AUTO 25009G18KT 10SM CLR 32/M01 A3008 RMK AO2 SLP139 T03171011,M
HND,2024-09-09 19:56,-115.1344,35.9729,742.79,101.00,46.00,15.62,M,4.00,0.00,29.96,1012.50,10.00,14.00,CLR,M,M,M,M,M,M,M,M,M,M,M,M,M,M,97.16,KHND 091956Z VRB04G14KT 10SM CLR 38/08 A2996 RMK AO2 SLP125 T03830078,M
TPH,2024-09-09 19:56,-117.0904,38.0505,1654.00,86.00,31.00,13.83,190.00,4.00,0.00,30.16,1012.20,10.00,18.00,CLR,M,M,M,M,M,M,M,M,M,M,M,M,M,M,82.64,KTPH 091956Z AUTO 19004G18KT 10SM CLR 30/M01 A3016 RMK AO2 SLP122 T03001006 $,M
LAS,2024-09-09 19:56,-115.1634,36.0719,663.00,101.00,46.00,15.62,50.00,7.00,0.00,29.93,1010.30,10.00,M,FEW,FEW,SCT,M,12000.00,18000.00,25000.00,M,M,M,M,M,M,M,M,97.16,KLAS 091956Z 05007KT 10SM FEW120 FEW180 SCT250 38/08 A2993 RMK AO2 SLP103 CB DSNT N T03830078 $,M
NFL,2024-09-09 19:57,-118.7010,39.4166,1199.00,87.00,33.00,14.52,0.00,0.00,0.00,30.08,1015.20,10.00,M,FEW,BKN,M,M,7000.00,24000.00,M,M,M,M,M,M,M,M,M,83.44,KNFL 091957Z 00000KT 10SM FEW070 BKN240 31/01 A3008 RMK AO2 SLP152 FU FEW070 CONTRAILS ALQDS T03060006,M
05U,2024-09-09 20:10,-116.0051,39.6042,1811.23,82.40,33.80,17.38,0.00,0.00,0.00,30.18,M,10.00,11.00,BKN,M,M,M,11000.00,M,M,M,M,M,M,M,M,M,M,80.03,K05U 092010Z AUTO 00000G11KT 10SM BKN110 28/01 A3018 RMK A01,M
BVU,2024-09-09 20:15,-114.8611,35.9475,671.00,102.20,41.00,12.44,160.00,5.00,0.00,29.90,M,10.00,M,FEW,M,M,M,12000.00,M,M,M,M,M,M,M,M,M,M,97.39,KBVU 092015Z AUTO 16005KT 10SM FEW120 39/05 A2990 RMK AO2,M
CXP,2024-09-09 20:15,-119.7326,39.1923,1431.00,86.00,30.20,13.38,260.00,6.00,0.00,30.13,M,10.00,M,CLR,M,M,M,M,M,M,M,M,M,M,M,M,M,M,82.64,KCXP 092015Z AUTO 26006KT 10SM CLR 30/M01 A3013 RMK AO2,M
RTS,2024-09-09 20:15,-119.8764,39.6682,1539.00,84.20,28.40,13.18,180.00,10.00,0.00,30.14,M,10.00,18.00,CLR,M,M,M,M,M,M,M,M,M,M,M,M,M,M,81.25,KRTS 092015Z AUTO 18010G18KT 10SM CLR 29/M02 A3014 RMK AO2,M
MEV,2024-09-09 20:15,-119.7500,38.9963,1441.42,86.00,32.00,14.40,220.00,5.00,0.00,30.11,M,6.00,M,CLR,M,M,M,M,M,M,M,HZ,M,M,M,M,M,M,82.64,KMEV 092015Z AUTO 22005KT 6SM HZ CLR 30/00 A3011 RMK AO2,M
BAM,2024-09-09 20:15,-116.8743,40.5990,1382.36,87.80,28.40,11.74,0.00,0.00,0.00,30.10,M,10.00,M,CLR,M,M,M,M,M,M,M,M,M,M,M,M,M,M,83.84,KBAM 092015Z AUTO 00000KT 10SM CLR 31/M02 A3010 RMK AO1,M
HTH,2024-09-09 20:15,-118.6315,38.5448,1282.89,86.00,28.40,12.44,330.00,8.00,0.00,30.08,M,10.00,M,CLR,M,M,M,M,M,M,M,M,M,M,M,M,M,M,82.54,KHTH 092015Z AUTO 33008KT 10SM CLR 30/M02 A3008 RMK A01,M
TMT,2024-09-09 20:15,-117.1971,39.4643,1749.34,83.70,31.30,15.07,240.00,3.00,0.00,30.18,M,10.00,M,CLR,M,M,M,M,M,M,M,M,M,M,M,M,M,M,80.90,KTMT 092015Z AUTO 24003KT 10SM CLR 29/00 A3018 RMK AO2 T02871004,M
10U,2024-09-09 20:15,-116.1876,41.9532,1637.00,86.00,23.00,9.94,220.00,11.00,0.00,30.14,M,10.00,19.00,CLR,M,M,M,M,M,M,M,M,M,M,M,M,M,M,82.14,K10U 092015Z AUTO 22011G19KT 10SM CLR 30/M05 A3014 RMK AO2,M
05U,2024-09-09 20:30,-116.0051,39.6042,1811.23,84.20,33.80,16.39,0.00,0.00,0.00,30.17,M,10.00,11.00,BKN,M,M,M,11000.00,M,M,M,M,M,M,M,M,M,M,81.30,K05U 092030Z AUTO 00000G11KT 10SM BKN110 29/01 A3017 RMK A01,M
BVU,2024-09-09 20:35,-114.8611,35.9475,671.00,102.20,41.00,12.44,180.00,11.00,0.00,29.89,M,10.00,18.00,CLR,M,M,M,M,M,M,M,M,M,M,M,M,M,M,97.39,KBVU 092035Z AUTO 18011G18KT 10SM CLR 39/05 A2989 RMK AO2,M
CXP,2024-09-09 20:35,-119.7326,39.1923,1431.00,87.80,30.20,12.64,250.00,6.00,0.00,30.13,M,10.00,M,CLR,M,M,M,M,M,M,M,M,M,M,M,M,M,M,84.01,KCXP 092035Z AUTO 25006KT 10SM CLR 31/M01 A3013 RMK AO2,M
RTS,2024-09-09 20:35,-119.8764,39.6682,1539.00,82.40,30.20,15.03,0.00,0.00,0.00,30.14,M,10.00,15.00,CLR,M,M,M,M,M,M,M,M,M,M,M,M,M,M,79.97,KRTS 092035Z AUTO 00000G15KT 10SM CLR 28/M01 A3014 RMK AO2,M
MEV,2024-09-09 20:35,-119.7500,38.9963,1441.42,86.00,32.00,14.40,0.00,0.00,0.00,30.11,M,8.00,M,CLR,M,M,M,M,M,M,M,M,M,M,M,M,M,M,82.64,KMEV 092035Z AUTO 00000KT 8SM CLR 30/00 A3011 RMK AO2,M
BAM,2024-09-09 20:35,-116.8743,40.5990,1382.36,87.80,28.40,11.74,300.00,3.00,0.00,30.09,M,10.00,M,CLR,M,M,M,M,M,M,M,M,M,M,M,M,M,M,83.84,KBAM 092035Z AUTO 30003KT 10SM CLR 31/M02 A3009 RMK AO1,M
HTH,2024-09-09 20:35,-118.6315,38.5448,1282.89,87.80,26.60,10.91,0.00,0.00,0.00,30.08,M,10.00,M,CLR,M,M,M,M,M,M,M,M,M,M,M,M,M,M,83.69,KHTH 092035Z AUTO 00000KT 10SM CLR 31/M03 A3008 RMK A01,M
TMT,2024-09-09 20:35,-117.1971,39.4643,1749.34,83.50,31.00,14.98,210.00,7.00,0.00,30.17,M,10.00,M,CLR,M,M,M,M,M,M,M,M,M,M,M,M,M,M,80.76,KTMT 092035Z AUTO 21007KT 10SM CLR 29/M01 A3017 RMK AO2 T02861006,M
10U,2024-09-09 20:35,-116.1876,41.9532,1637.00,86.00,23.00,9.94,210.00,14.00,0.00,30.13,M,10.00,19.00,CLR,M,M,M,M,M,M,M,M,M,M,M,M,M,M,82.14,K10U 092035Z AUTO 21014G19KT 10SM CLR 30/M05 A3013 RMK AO2,M
05U,2024-09-09 20:50,-116.0051,39.6042,1811.23,86.00,32.00,14.40,M,4.00,0.00,30.16,M,10.00,M,BKN,M,M,M,11000.00,M,M,M,M,M,M,M,M,M,M,82.64,K05U 092050Z AUTO VRB04KT 10SM BKN110 30/00 A3016 RMK A01,M
P68,2024-09-09 20:53,-116.0056,39.6014,1993.00,86.00,33.00,14.99,M,M,0.00,30.13,1011.70,M,M,M,M,M,M,M,M,M,M,M,M,M,M,M,M,M,82.65,KP68 092053Z AUTO 30/01 A3013 RMK AO1 SLP117 T03000006 56018,M
DRA,2024-09-09 20:53,-116.0278,36.6206,1009.00,100.00,39.00,12.30,210.00,9.00,0.00,29.98,1009.30,10.00,16.00,CLR,M,M,M,M,M,M,M,M,M,M,M,M,M,M,95.05,KDRA 092053Z AUTO 21009G16KT 10SM CLR 38/04 A2998 RMK AO2 SLP093 T03780039 58018,M
ELY,2024-09-09 20:53,-114.8453,39.2950,1909.00,79.00,33.00,18.80,300.00,10.00,0.00,30.20,1012.60,10.00,23.00,FEW,SCT,M,M,10000.00,12000.00,M,M,M,M,M,M,39.00,200.00,2024-09-09 20:32,79.00,KELY 092053Z AUTO 30010G23KT 10SM FEW100 SCT120 26/01 A3020 RMK AO2 PK WND 20039/2032 SLP126 T02610006 56010,M
VGT,2024-09-09 20:53,-115.1933,36.2111,667.00,103.00,46.00,14.71,150.00,7.00,0.00,29.89,1010.50,10.00,M,CLR,M,M,M,M,M,M,M,M,M,M,M,M,M,M,99.14,KVGT 092053Z 15007KT 10SM CLR 39/08 A2989 RMK AO2 SLP105 T03940078 58026,M
LOL,2024-09-09 20:53,-118.5701,40.0684,1192.43,89.00,30.00,12.07,190.00,11.00,0.00,30.05,1013.90,10.00,M,CLR,M,M,M,M,M,M,M,M,M,M,M,M,M,M,84.88,KLOL 092053Z AUTO 19011KT 10SM CLR 32/M01 A3005 RMK AO2 SLP139 T03171011 58020,M
CXP,2024-09-09 20:55,-119.7326,39.1923,1431.00,87.80,30.20,12.64,250.00,7.00,0.00,30.12,M,9.00,17.00,CLR,M,M,M,M,M,M,M,M,M,M,M,M,M,M,84.01,KCXP 092055Z AUTO 25007G17KT 9SM CLR 31/M01 A3012 RMK AO2,M
LSV,2024-09-09 20:55,-115.0343,36.2362,570.00,102.00,39.70,11.90,0.00,0.00,0.00,29.84,1007.30,10.00,M,CLR,M,M,M,M,M,M,M,M,M,M,M,M,M,M,96.92,KLSV 092055Z AUTO 00000KT 10SM CLR 39/04 A2984 RMK AO2 SLP073 T03890043 57025 $,M
RTS,2024-09-09 20:55,-119.8764,39.6682,1539.00,84.20,30.20,14.18,250.00,10.00,0.00,30.14,M,10.00,M,CLR,M,M,M,M,M,M,M,M,M,M,M,M,M,M,81.26,KRTS 092055Z AUTO 25010KT 10SM CLR 29/M01 A3014 RMK AO2,M
MEV,2024-09-09 20:55,-119.7500,38.9963,1441.42,86.00,32.00,14.40,M,5.00,0.00,30.10,M,8.00,M,CLR,M,M,M,M,M,M,M,M,M,M,M,M,M,M,82.64,KMEV 092055Z AUTO VRB05KT 8SM CLR 30/M00 A3010 RMK AO2,M
BAM,2024-09-09 20:55,-116.8743,40.5990,1382.36,89.60,28.40,11.09,190.00,5.00,0.00,30.08,M,10.00,M,CLR,M,M,M,M,M,M,M,M,M,M,M,M,M,M,85.17,KBAM 092055Z AUTO 19005KT 10SM CLR 32/M02 A3008 RMK AO1,M
HTH,2024-09-09 20:55,-118.6315,38.5448,1282.89,87.80,26.60,10.91,M,4.00,0.00,30.07,M,10.00,10.00,CLR,M,M,M,M,M,M,M,M,M,M,M,M,M,M,83.69,KHTH 092055Z AUTO VRB04G10KT 10SM CLR 31/M03 A3007 RMK A01,M
TMT,2024-09-09 20:55,-117.1971,39.4643,1749.34,85.00,30.60,14.05,290.00,9.00,0.00,30.16,M,10.00,M,CLR,M,M,M,M,M,M,M,M,M,M,M,M,M,M,81.86,KTMT 092055Z AUTO 29009KT 10SM CLR 30/M01 A3016 RMK AO2 T02951008,M
10U,2024-09-09 20:55,-116.1876,41.9532,1637.00,86.00,23.00,9.94,230.00,11.00,0.00,30.13,M,10.00,22.00,CLR,M,M,M,M,M,M,M,M,M,M,M,M,M,M,82.14,K10U 092055Z AUTO 23011G22KT 10SM CLR 30/M05 A3013 RMK AO2,M
BVU,2024-09-09 20:55,-114.8611,35.9475,671.00,104.00,39.20,11.00,160.00,15.00,0.00,29.89,M,10.00,M,CLR,M,M,M,M,M,M,M,M,M,M,M,M,M,M,98.56,KBVU 092055Z AUTO 16015KT 10SM CLR 40/04 A2989 RMK AO2,M
RNO,2024-09-09 20:55,-119.7711,39.4839,1341.00,86.00,33.00,14.99,M,6.00,0.00,30.09,1013.30,10.00,M,BKN,M,M,M,25000.00,M,M,M,M,M,M,M,M,M,M,82.65,KRNO 092055Z VRB06KT 10SM BKN250 30/01 A3009 RMK AO2 SLP133 FU E THRU SW T03000006 58020,M
EKO,2024-09-09 20:56,-115.7860,40.8242,1367.00,89.00,31.00,12.57,M,M,0.00,30.09,1013.10,10.00,M,CLR,M,M,M,M,M,M,M,M,M,M,M,M,M,M,84.98,KEKO 092056Z AUTO 10SM CLR 32/M01 A3009 RMK AO2 SLP131 T03171006 58019,M
WMC,2024-09-09 20:56,-117.8072,40.9019,1315.00,90.00,30.00,11.70,260.00,14.00,0.00,30.07,1013.50,10.00,23.00,CLR,M,M,M,M,M,M,M,M,M,M,M,M,M,M,85.63,KWMC 092056Z AUTO 26014G23KT 10SM CLR 32/M01 A3007 RMK AO2 SLP135 T03221011 57017,M
HND,2024-09-09 20:56,-115.1344,35.9729,742.79,103.00,47.00,15.28,290.00,11.00,0.00,29.93,1011.80,10.00,15.00,CLR,M,M,M,M,M,M,M,M,M,M,M,M,M,M,99.35,KHND 092056Z 29011G15KT 10SM CLR 39/08 A2993 RMK AO2 SLP118 T03940083 58025,M
TPH,2024-09-09 20:56,-117.0904,38.0505,1654.00,89.00,28.00,11.12,200.00,12.00,0.00,30.14,1011.40,10.00,27.00,CLR,M,M,M,M,M,M,M,M,M,M,M,28.00,210.00,2024-09-09 20:50,84.69,KTPH 092056Z AUTO 20012G27KT 10SM CLR 32/M02 A3014 RMK AO2 PK WND 21028/2050 SLP114 T03171022 58018 $,M
LAS,2024-09-09 20:56,-115.1634,36.0719,663.00,101.00,45.00,15.04,300.00,9.00,0.00,29.90,1009.30,10.00,M,FEW,FEW,SCT,M,12000.00,18000.00,25000.00,M,M,M,M,M,M,M,M,96.97,KLAS 092056Z 30009KT 10SM FEW120 FEW180 SCT250 38/07 A2990 RMK AO2 SLP093 T03830072 58026 $,M
NFL,2024-09-09 20:57,-118.7010,39.4166,1199.00,89.00,32.00,13.09,340.00,4.00,0.00,30.05,1014.60,10.00,M,FEW,BKN,M,M,7000.00,24000.00,M,M,M,M,M,M,M,M,M,85.07,KNFL 092057Z 34004KT 10SM FEW070 BKN240 32/00 A3005 RMK AO2 SLP146 FU FEW070 T03170000 58019,M
INS,2024-09-09 21:08,-115.6733,36.5872,955.00,98.60,32.00,9.72,170.00,4.00,0.00,29.96,M,10.00,M,SCT,M,M,M,14000.00,M,M,M,M,M,M,M,M,M,M,92.69,KINS 092108Z COR 17004KT 10SM SCT140 37/M00 A2996 RMK SLPNO,M
05U,2024-09-09 21:10,-116.0051,39.6042,1811.23,84.20,30.20,14.18,0.00,0.00,0.00,30.15,M,10.00,13.00,SCT,M,M,M,12000.00,M,M,M,M,M,M,M,M,M,M,81.26,K05U 092110Z AUTO 00000G13KT 10SM SCT120 29/M01 A3015 RMK A01,M
BVU,2024-09-09 21:15,-114.8611,35.9475,671.00,100.40,39.20,12.25,M,7.00,0.00,29.88,M,10.00,16.00,CLR,M,M,M,M,M,M,M,M,M,M,M,M,M,M,95.43,KBVU 092115Z AUTO VRB07G16KT 10SM CLR 38/04 A2988 RMK AO2,M
CXP,2024-09-09 21:15,-119.7326,39.1923,1431.00,87.80,30.20,12.64,270.00,8.00,0.00,30.11,M,10.00,14.00,CLR,M,M,M,M,M,M,M,M,M,M,M,M,M,M,84.01,KCXP 092115Z AUTO 27008G14KT 230V290 10SM CLR 31/M01 A3011 RMK AO2,M
RTS,2024-09-09 21:15,-119.8764,39.6682,1539.00,86.00,26.60,11.55,240.00,8.00,0.00,30.13,M,10.00,14.00,CLR,M,M,M,M,M,M,M,M,M,M,M,M,M,M,82.39,KRTS 092115Z AUTO 24008G14KT 210V270 10SM CLR 30/M03 A3013 RMK AO2,M
MEV,2024-09-09 21:15,-119.7500,38.9963,1441.42,87.80,32.00,13.59,330.00,6.00,0.00,30.09,M,9.00,12.00,CLR,M,M,M,M,M,M,M,M,M,M,M,M,M,M,84.08,KMEV 092115Z AUTO 33006G12KT 9SM CLR 31/00 A3009 RMK AO2,M
BAM,2024-09-09 21:15,-116.8743,40.5990,1382.36,91.40,30.20,11.28,270.00,7.00,0.00,30.08,M,10.00,M,CLR,M,M,M,M,M,M,M,M,M,M,M,M,M,M,86.71,KBAM 092115Z AUTO 27007KT 10SM CLR 33/M01 A3008 RMK AO1,M
HTH,2024-09-09 21:15,-118.6315,38.5448,1282.89,87.80,26.60,10.91,320.00,6.00,0.00,30.05,M,10.00,M,CLR,M,M,M,M,M,M,M,M,M,M,M,M,M,M,83.69,KHTH 092115Z AUTO 32006KT 10SM CLR 31/M03 A3005 RMK A01,M
TMT,2024-09-09 21:15,-117.1971,39.4643,1749.34,86.00,30.40,13.49,270.00,10.00,0.00,30.16,M,10.00,18.00,CLR,M,M,M,M,M,M,M,M,M,M,M,M,M,M,82.64,KTMT 092115Z AUTO 27010G18KT 10SM CLR 30/M01 A3016 RMK AO2 T02991009,M
10U,2024-09-09 21:15,-116.1876,41.9532,1637.00,86.00,24.80,10.72,240.00,11.00,0.00,30.12,M,10.00,19.00,CLR,M,M,M,M,M,M,M,M,M,M,M,M,M,M,82.26,K10U 092115Z AUTO 24011G19KT 10SM CLR 30/M04 A3012 RMK AO2,M
LAS,2024-09-09 21:25,-115.1634,36.0719,663.00,101.00,39.00,11.94,210.00,16.00,0.00,29.89,M,10.00,31.00,FEW,FEW,SCT,M,12000.00,18000.00,25000.00,M,M,M,M,M,31.00,190.00,2024-09-09 21:22,95.90,KLAS 092125Z 21016G31KT 10SM FEW120 FEW180 SCT250 38/04 A2989 RMK AO2 PK WND 19031/2122 T03830039 $,M
05U,2024-09-09 21:30,-116.0051,39.6042,1811.23,87.80,30.20,12.64,250.00,16.00,0.00,30.14,M,10.00,M,CLR,M,M,M,M,M,M,M,M,M,M,M,M,M,M,84.01,K05U 092130Z AUTO 25016KT 10SM CLR 31/M01 A3014 RMK A01,M
BVU,2024-09-09 21:35,-114.8611,35.9475,671.00,102.20,37.40,10.81,260.00,7.00,0.00,29.87,M,10.00,M,CLR,M,M,M,M,M,M,M,M,M,M,M,M,M,M,96.63,KBVU 092135Z AUTO 26007KT 230V290 10SM CLR 39/03 A2987 RMK AO2,M
CXP,2024-09-09 21:35,-119.7326,39.1923,1431.00,87.80,30.20,12.64,M,5.00,0.00,30.10,M,9.00,11.00,CLR,M,M,M,M,M,M,M,M,M,M,M,M,M,M,84.01,KCXP 092135Z AUTO VRB05G11KT 9SM CLR 31/M01 A3010 RMK AO2,M
RTS,2024-09-09 21:35,-119.8764,39.6682,1539.00,86.00,26.60,11.55,280.00,9.00,0.00,30.12,M,10.00,15.00,CLR,M,M,M,M,M,M,M,M,M,M,M,M,M,M,82.39,KRTS 092135Z AUTO 28009G15KT 10SM CLR 30/M03 A3012 RMK AO2,M
MEV,2024-09-09 21:35,-119.7500,38.9963,1441.42,87.80,30.20,12.64,270.00,5.00,0.00,30.09,M,7.00,M,CLR,M,M,M,M,M,M,M,M,M,M,M,M,M,M,84.01,KMEV 092135Z AUTO 27005KT 7SM CLR 31/M01 A3009 RMK AO2,M
BAM,2024-09-09 21:35,-116.8743,40.5990,1382.36,91.40,30.20,11.28,250.00,10.00,0.00,30.07,M,10.00,M,CLR,M,M,M,M,M,M,M,M,M,M,M,M,M,M,86.71,KBAM 092135Z AUTO 25010KT 230V290 10SM CLR 33/M01 A3007 RMK AO1,M
HTH,2024-09-09 21:35,-118.6315,38.5448,1282.89,89.60,26.60,10.30,320.00,7.00,0.00,30.04,M,10.00,M,CLR,M,M,M,M,M,M,M,M,M,M,M,M,M,M,85.02,KHTH 092135Z AUTO 32007KT 290V350 10SM CLR 32/M03 A3004 RMK A01,M
TMT,2024-09-09 21:35,-117.1971,39.4643,1749.34,85.50,29.70,13.33,250.00,12.00,0.00,30.15,M,10.00,15.00,CLR,M,M,M,M,M,M,M,M,M,M,M,M,M,M,82.25,KTMT 092135Z AUTO 25012G15KT 10SM CLR 30/M01 A3015 RMK AO2 T02971013,M
10U,2024-09-09 21:35,-116.1876,41.9532,1637.00,86.00,24.80,10.72,250.00,12.00,0.00,30.12,M,10.00,20.00,CLR,M,M,M,M,M,M,M,M,M,M,M,M,M,M,82.26,K10U 092135Z AUTO 25012G20KT 10SM CLR 30/M04 A3012 RMK AO2,M
05U,2024-09-09 21:50,-116.0051,39.6042,1811.23,86.00,28.40,12.44,250.00,5.00,0.00,30.14,M,10.00,14.00,CLR,M,M,M,M,M,M,M,M,M,M,M,M,M,M,82.54,K05U 092150Z AUTO 25005G14KT 10SM CLR 30/M02 A3014 RMK A01,M
P68,2024-09-09 21:53,-116.0056,39.6014,1993.00,86.00,30.00,13.28,270.00,7.00,0.00,30.11,1011.20,M,M,M,M,M,M,M,M,M,M,M,M,M,M,M,M,M,82.64,KP68 092153Z AUTO 27007KT 30/M01 A3011 RMK AO1 SLP112 T03001011,M
DRA,2024-09-09 21:53,-116.0278,36.6206,1009.00,101.00,36.00,10.61,200.00,14.00,0.00,29.96,1008.70,10.00,22.00,CLR,M,M,M,M,M,M,M,M,M,M,M,27.00,210.00,2024-09-09 21:39,95.34,KDRA 092153Z AUTO 20014G22KT 10SM CLR 38/02 A2996 RMK AO2 PK WND 21027/2139 SLP087 T03830022,M
ELY,2024-09-09 21:53,-114.8453,39.2950,1909.00,84.00,36.00,18.01,220.00,5.00,0.00,30.17,1010.50,10.00,M,CLR,M,M,M,M,M,M,M,M,M,M,M,M,M,M,81.20,KELY 092153Z AUTO 22005KT 10SM CLR 29/02 A3017 RMK AO2 SLP105 T02890022 $,M
VGT,2024-09-09 21:53,-115.1933,36.2111,667.00,103.00,44.00,13.64,170.00,5.00,0.00,29.86,1009.80,10.00,22.00,CLR,M,M,M,M,M,M,M,M,M,M,M,M,M,M,98.74,KVGT 092153Z 17005G22KT 10SM CLR 39/07 A2986 RMK AO2 SLP098 T03940067,M
LOL,2024-09-09 21:53,-118.5701,40.0684,1192.43,91.00,29.00,10.88,220.00,12.00,0.00,30.03,1012.80,10.00,22.00,CLR,M,M,M,M,M,M,M,M,M,M,M,M,M,M,86.28,KLOL 092153Z AUTO 22012G22KT 10SM CLR 33/M02 A3003 RMK AO2 SLP128 T03281017,M
BVU,2024-09-09 21:55,-114.8611,35.9475,671.00,104.00,39.20,11.00,150.00,15.00,0.00,29.87,M,10.00,M,CLR,M,M,M,M,M,M,M,M,M,M,M,M,M,M,98.56,KBVU 092155Z AUTO 15015KT 10SM CLR 40/04 A2987 RMK AO2,M
INS,2024-09-09 21:55,-115.6733,36.5872,955.00,97.50,34.00,10.89,150.00,4.00,0.00,29.94,M,10.00,M,FEW,M,M,M,14000.00,M,M,M,M,M,M,M,M,M,M,92.05,KINS 092155Z AUTO 15004KT 10SM FEW140 36/01 A2994 RMK AO2 SLPNO T03640012 $,M
RNO,2024-09-09 21:55,-119.7711,39.4839,1341.00,88.00,34.00,14.64,M,5.00,0.00,30.06,1012.40,10.00,M,FEW,BKN,M,M,3000.00,25000.00,M,M,M,M,M,M,M,M,M,84.26,KRNO 092155Z VRB05KT 10SM FEW030 BKN250 31/01 A3006 RMK AO2 SLP124 FU FEW030 FU PLUME SW T03110011,M
CXP,2024-09-09 21:55,-119.7326,39.1923,1431.00,89.60,30.20,11.94,M,6.00,0.00,30.10,M,10.00,16.00,CLR,M,M,M,M,M,M,M,M,M,M,M,M,M,M,85.34,KCXP 092155Z AUTO VRB06G16KT 10SM CLR 32/M01 A3010 RMK AO2,M
RTS,2024-09-09 21:55,-119.8764,39.6682,1539.00,84.20,24.80,11.35,M,4.00,0.00,30.12,M,10.00,12.00,CLR,M,M,M,M,M,M,M,M,M,M,M,M,M,M,81.00,KRTS 092155Z AUTO VRB04G12KT 10SM CLR 29/M04 A3012 RMK AO2,M
MEV,2024-09-09 21:55,-119.7500,38.9963,1441.42,87.80,32.00,13.59,290.00,5.00,0.00,30.08,M,9.00,M,CLR,M,M,M,M,M,M,M,M,M,M,M,M,M,M,84.08,KMEV 092155Z AUTO 29005KT 9SM CLR 31/M00 A3008 RMK AO2,M
BAM,2024-09-09 21:55,-116.8743,40.5990,1382.36,91.40,30.20,11.28,310.00,5.00,0.00,30.06,M,10.00,M,CLR,M,M,M,M,M,M,M,M,M,M,M,M,M,M,86.71,KBAM 092155Z AUTO 31005KT 10SM CLR 33/M01 A3006 RMK AO1,M
HTH,2024-09-09 21:55,-118.6315,38.5448,1282.89,89.60,24.80,9.56,320.00,9.00,0.00,30.03,M,10.00,M,CLR,M,M,M,M,M,M,M,M,M,M,M,M,M,M,84.88,KHTH 092155Z AUTO 32009KT 10SM CLR 32/M04 A3003 RMK A01,M
TMT,2024-09-09 21:55,-117.1971,39.4643,1749.34,86.00,29.50,13.01,240.00,10.00,0.00,30.14,M,10.00,16.00,CLR,M,M,M,M,M,M,M,M,M,M,M,M,M,M,82.63,KTMT 092155Z AUTO 24010G16KT 10SM CLR 30/M01 A3014 RMK AO2 T03011014,M
10U,2024-09-09 21:55,-116.1876,41.9532,1637.00,86.00,24.80,10.72,240.00,12.00,0.00,30.11,M,10.00,20.00,CLR,M,M,M,M,M,M,M,M,M,M,M,M,M,M,82.26,K10U 092155Z AUTO 24012G20KT 210V270 10SM CLR 30/M04 A3011 RMK AO2,M
LSV,2024-09-09 21:55,-115.0343,36.2362,570.00,103.60,36.30,9.93,250.00,5.00,0.00,29.82,1006.60,10.00,M,CLR,M,M,M,M,M,M,M,M,M,M,M,M,M,M,97.63,KLSV 092155Z AUTO 25005KT 10SM CLR 40/02 A2982 RMK AO2 SLP066 T03980024 $,M
EKO,2024-09-09 21:56,-115.7860,40.8242,1367.00,91.00,32.00,12.29,230.00,10.00,0.00,30.07,1012.40,10.00,19.00,CLR,M,M,M,M,M,M,M,M,M,M,M,M,M,M,86.61,KEKO 092156Z AUTO 23010G19KT 10SM CLR 33/00 A3007 RMK AO2 SLP124 T03280000,M
WMC,2024-09-09 21:56,-117.8072,40.9019,1315.00,91.00,30.00,11.33,240.00,10.00,0.00,30.04,1012.70,10.00,19.00,CLR,M,M,M,M,M,M,M,M,M,M,M,26.00,240.00,2024-09-09 21:19,86.38,KWMC 092156Z AUTO 24010G19KT 10SM CLR 33/M01 A3004 RMK AO2 PK WND 24026/2119 SLP127 T03281011,M
HND,2024-09-09 21:56,-115.1344,35.9729,742.79,97.00,51.00,21.27,20.00,7.00,T,29.92,1011.50,10.00,M,FEW,SCT,SCT,M,4200.00,7500.00,9000.00,M,-RA,M,M,M,M,M,M,94.14,KHND 092156Z 02007KT 10SM -RA FEW042 SCT075 SCT090 36/11 A2992 RMK AO2 RAB55 SLP115 P0000 T03610106,M
TPH,2024-09-09 21:56,-117.0904,38.0505,1654.00,89.00,27.00,10.67,230.00,15.00,0.00,30.11,1010.60,10.00,30.00,CLR,M,M,M,M,M,M,M,M,M,M,M,30.00,210.00,2024-09-09 21:48,84.60,KTPH 092156Z AUTO 23015G30KT 10SM CLR 32/M03 A3011 RMK AO2 PK WND 21030/2148 SLP106 T03171028 $,M
LAS,2024-09-09 21:56,-115.1634,36.0719,663.00,99.00,48.00,17.90,110.00,8.00,T,29.90,1009.20,10.00,14.00,FEW,FEW,SCT,M,12000.00,18000.00,25000.00,M,-RA,M,M,M,39.00,180.00,2024-09-09 21:27,95.54,KLAS 092156Z 11008G14KT 10SM -RA FEW120TCU FEW180 SCT250 37/09 A2990 RMK AO2 PK WND 18039/2127 RAB53 SLP092 TCU OHD-N-E P0000 T03720089 $,M
NFL,2024-09-09 21:57,-118.7010,39.4166,1199.00,91.00,31.00,11.80,300.00,7.00,0.00,30.03,1013.90,10.00,M,FEW,FEW,BKN,M,7000.00,10000.00,24000.00,M,M,M,M,M,M,M,M,86.49,KNFL 092157Z 30007KT 10SM FEW070 FEW100 BKN240 33/M01 A3003 RMK AO2 SLP139 FU FEW100 T03281006,M
05U,2024-09-09 22:10,-116.0051,39.6042,1811.23,86.00,30.20,13.38,0.00,0.00,0.00,30.14,M,10.00,12.00,CLR,M,M,M,M,M,M,M,M,M,M,M,M,M,M,82.64,K05U 092210Z AUTO 00000G12KT 10SM CLR 30/M01 A3014 RMK A01,M
BVU,2024-09-09 22:15,-114.8611,35.9475,671.00,102.20,39.20,11.60,220.00,6.00,0.00,29.86,M,10.00,17.00,CLR,M,M,M,M,M,M,M,M,M,M,M,M,M,M,96.99,KBVU 092215Z AUTO 22006G17KT 10SM CLR 39/04 A2986 RMK AO2,M
CXP,2024-09-09 22:15,-119.7326,39.1923,1431.00,87.80,30.20,12.64,M,4.00,0.00,30.09,M,10.00,14.00,CLR,M,M,M,M,M,M,M,M,M,M,M,M,M,M,84.01,KCXP 092215Z AUTO VRB04G14KT 10SM CLR 31/M01 A3009 RMK AO2,M
BAM,2024-09-09 22:15,-116.8743,40.5990,1382.36,91.40,30.20,11.28,270.00,10.00,0.00,30.05,M,10.00,14.00,CLR,M,M,M,M,M,M,M,M,M,M,M,M,M,M,86.71,KBAM 092215Z AUTO 27010G14KT 10SM CLR 33/M01 A3005 RMK AO1,M
HTH,2024-09-09 22:15,-118.6315,38.5448,1282.89,91.40,24.80,9.04,340.00,9.00,0.00,30.03,M,10.00,15.00,CLR,M,M,M,M,M,M,M,M,M,M,M,M,M,M,86.21,KHTH 092215Z AUTO 34009G15KT 10SM CLR 33/M04 A3003 RMK A01,M
10U,2024-09-09 22:15,-116.1876,41.9532,1637.00,87.80,24.80,10.12,220.00,14.00,0.00,30.10,M,10.00,21.00,CLR,M,M,M,M,M,M,M,M,M,M,M,M,M,M,83.56,K10U 092215Z AUTO 22014G21KT 10SM CLR 31/M04 A3010 RMK AO2,M
TMT,2024-09-09 22:15,-117.1971,39.4643,1749.34,86.00,29.50,13.01,230.00,9.00,0.00,30.13,M,10.00,M,CLR,M,M,M,M,M,M,M,M,M,M,M,M,M,M,82.63,KTMT 092215Z AUTO 23009KT 10SM CLR 30/M01 A3013 RMK AO2 T03001014,M
05U,2024-09-09 22:30,-116.0051,39.6042,1811.23,87.80,28.40,11.74,250.00,12.00,0.00,30.13,M,10.00,M,FEW,M,M,M,12000.00,M,M,M,M,M,M,M,M,M,M,83.84,K05U 092230Z AUTO 25012KT 10SM FEW120 31/M02 A3013 RMK A01,M
LSV,2024-09-09 22:31,-115.0343,36.2362,570.00,102.20,41.00,12.44,170.00,17.00,0.00,29.81,1006.30,10.00,M,FEW,BKN,M,M,11000.00,15000.00,M,M,-RA,M,M,M,M,M,M,97.39,KLSV 092231Z AUTO 17017KT 10SM -RA FEW110 BKN150 39/05 A2981 RMK AO2 RAB31 SLP063 $,M
LSV,2024-09-09 22:33,-115.0343,36.2362,570.00,102.20,44.60,14.29,160.00,20.00,0.00,29.81,1006.30,10.00,M,FEW,BKN,M,M,11000.00,15000.00,M,M,-RA,M,M,M,M,M,M,98.07,KLSV 092233Z AUTO 16020KT 10SM -RA FEW110 BKN150 39/07 A2981 RMK AO2 WSHFT 22 RAB31 SLP063 $,M
BVU,2024-09-09 22:35,-114.8611,35.9475,671.00,102.20,39.20,11.60,220.00,12.00,0.00,29.85,M,10.00,M,CLR,M,M,M,M,M,M,M,M,M,M,M,M,M,M,96.99,KBVU 092235Z AUTO 22012KT 10SM CLR 39/04 A2985 RMK AO2,M
CXP,2024-09-09 22:35,-119.7326,39.1923,1431.00,87.80,30.20,12.64,280.00,14.00,0.00,30.08,M,10.00,M,CLR,M,M,M,M,M,M,M,M,M,M,M,M,M,M,84.01,KCXP 092235Z AUTO 28014KT 10SM CLR 31/M01 A3008 RMK AO2,M
RTS,2024-09-09 22:35,-119.8764,39.6682,1539.00,84.20,24.80,11.35,M,5.00,0.00,30.11,M,10.00,15.00,CLR,M,M,M,M,M,M,M,M,M,M,M,M,M,M,81.00,KRTS 092235Z AUTO VRB05G15KT 10SM CLR 29/M04 A3011 RMK AO2,M
MEV,2024-09-09 22:35,-119.7500,38.9963,1441.42,87.80,32.00,13.59,260.00,9.00,0.00,30.06,M,9.00,21.00,CLR,M,M,M,M,M,M,M,M,M,M,M,M,M,M,84.08,KMEV 092235Z AUTO 26009G21KT 9SM CLR 31/M00 A3006 RMK AO2,M
BAM,2024-09-09 22:35,-116.8743,40.5990,1382.36,91.40,30.20,11.28,230.00,11.00,0.00,30.05,M,10.00,M,CLR,M,M,M,M,M,M,M,M,M,M,M,M,M,M,86.71,KBAM 092235Z AUTO 23011KT 10SM CLR 33/M01 A3005 RMK AO1,M
HTH,2024-09-09 22:35,-118.6315,38.5448,1282.89,91.40,23.00,8.38,330.00,8.00,0.00,30.02,M,10.00,M,CLR,M,M,M,M,M,M,M,M,M,M,M,M,M,M,86.08,KHTH 092235Z AUTO 33008KT 10SM CLR 33/M05 A3002 RMK A01,M
TMT,2024-09-09 22:35,-117.1971,39.4643,1749.34,86.00,29.70,13.11,250.00,11.00,0.00,30.13,M,10.00,21.00,CLR,M,M,M,M,M,M,M,M,M,M,M,M,M,M,82.63,KTMT 092235Z AUTO 25011G21KT 10SM CLR 30/M01 A3013 RMK AO2 T03001013,M
10U,2024-09-09 22:35,-116.1876,41.9532,1637.00,86.00,24.80,10.72,270.00,14.00,0.00,30.10,M,10.00,M,CLR,M,M,M,M,M,M,M,M,M,M,M,M,M,M,82.26,K10U 092235Z AUTO 27014KT 10SM CLR 30/M04 A3010 RMK AO2,M
LSV,2024-09-09 22:43,-115.0343,36.2362,570.00,100.40,41.00,13.14,160.00,13.00,0.00,29.80,1006.10,10.00,M,CLR,M,M,M,M,M,M,M,M,M,M,M,M,M,M,95.79,KLSV 092243Z AUTO 16013KT 10SM CLR 38/05 A2980 RMK AO2 RAB31E43 SLP061 $,M
CXP,2024-09-09 22:50,-119.7326,39.1923,1431.00,87.80,32.00,13.59,290.00,17.00,0.00,30.08,M,10.00,M,CLR,M,M,M,M,M,M,M,M,M,M,M,M,M,M,84.08,KCXP 092250Z AUTO 29017KT 10SM CLR 31/M00 A3008 RMK AO2,M
05U,2024-09-09 22:50,-116.0051,39.6042,1811.23,87.80,28.40,11.74,250.00,8.00,0.00,30.13,M,10.00,13.00,CLR,M,M,M,M,M,M,M,M,M,M,M,M,M,M,83.84,K05U 092250Z AUTO 25008G13KT 10SM CLR 31/M02 A3013 RMK A01,M
P68,2024-09-09 22:53,-116.0056,39.6014,1993.00,88.00,29.00,11.96,240.00,9.00,0.00,30.10,1010.30,M,16.00,M,M,M,M,M,M,M,M,M,M,M,M,M,M,M,84.04,KP68 092253Z AUTO 24009G16KT 220V280 31/M02 A3010 RMK AO1 SLP103 T03111017,M
DRA,2024-09-09 22:53,-116.0278,36.6206,1009.00,102.00,35.00,9.89,250.00,11.00,0.00,29.94,1007.90,10.00,24.00,CLR,M,M,M,M,M,M,M,M,M,M,M,26.00,250.00,2024-09-09 22:28,96.03,KDRA 092253Z AUTO 25011G24KT 10SM CLR 39/02 A2994 RMK AO2 PK WND 25026/2228 SLP079 T03890017,M
ELY,2024-09-09 22:53,-114.8453,39.2950,1909.00,83.00,32.00,15.85,220.00,10.00,0.00,30.15,1010.90,10.00,19.00,CLR,M,M,M,M,M,M,M,M,M,M,M,M,M,M,80.41,KELY 092253Z AUTO 22010G19KT 10SM CLR 28/00 A3015 RMK AO2 SLP109 T02830000 $,M
VGT,2024-09-09 22:53,-115.1933,36.2111,667.00,102.00,42.00,13.01,160.00,6.00,0.00,29.85,1009.30,10.00,M,CLR,M,M,M,M,M,M,M,M,M,M,M,M,M,M,97.45,KVGT 092253Z 16006KT 10SM CLR 39/06 A2985 RMK AO2 SLP093 T03890056,M
LOL,2024-09-09 22:53,-118.5701,40.0684,1192.43,89.00,29.00,11.59,M,M,0.00,30.00,1012.60,10.00,M,CLR,M,M,M,M,M,M,M,M,M,M,M,M,M,M,84.78,KLOL 092253Z AUTO 10SM CLR 32/M02 A3000 RMK AO2 SLP126 T03171017,M
BVU,2024-09-09 22:55,-114.8611,35.9475,671.00,102.20,39.20,11.60,220.00,8.00,0.00,29.85,M,10.00,13.00,CLR,M,M,M,M,M,M,M,M,M,M,M,M,M,M,96.99,KBVU 092255Z AUTO 22008G13KT 150V260 10SM CLR 39/04 A2985 RMK AO2,M
RNO,2024-09-09 22:55,-119.7711,39.4839,1341.00,90.00,32.00,12.68,210.00,7.00,0.00,30.04,1011.40,10.00,M,FEW,BKN,M,M,4000.00,25000.00,M,M,M,M,M,M,M,M,M,85.84,KRNO 092255Z 21007KT 10SM FEW040 BKN250 32/00 A3004 RMK AO2 SLP114 FU FEW040 FU PLUME SW T03220000,M
RTS,2024-09-09 22:55,-119.8764,39.6682,1539.00,86.00,26.60,11.55,230.00,13.00,0.00,30.10,M,10.00,19.00,CLR,M,M,M,M,M,M,M,M,M,M,M,M,M,M,82.39,KRTS 092255Z AUTO 23013G19KT 10SM CLR 30/M03 A3010 RMK AO2,M
MEV,2024-09-09 22:55,-119.7500,38.9963,1441.42,87.80,32.00,13.59,280.00,14.00,0.00,30.06,M,10.00,19.00,CLR,M,M,M,M,M,M,M,M,M,M,M,M,M,M,84.08,KMEV 092255Z AUTO 28014G19KT 10SM CLR 31/M00 A3006 RMK AO2,M
BAM,2024-09-09 22:55,-116.8743,40.5990,1382.36,91.40,30.20,11.28,260.00,8.00,0.00,30.04,M,10.00,M,CLR,M,M,M,M,M,M,M,M,M,M,M,M,M,M,86.71,KBAM 092255Z AUTO 26008KT 10SM CLR 33/M01 A3004 RMK AO1,M
HTH,2024-09-09 22:55,-118.6315,38.5448,1282.89,91.40,23.00,8.38,360.00,8.00,0.00,30.01,M,10.00,13.00,CLR,M,M,M,M,M,M,M,M,M,M,M,M,M,M,86.08,KHTH 092255Z AUTO 36008G13KT 330V030 10SM CLR 33/M05 A3001 RMK A01,M
TMT,2024-09-09 22:55,-117.1971,39.4643,1749.34,86.00,29.00,12.75,250.00,10.00,0.00,30.12,M,10.00,M,CLR,M,M,M,M,M,M,M,M,M,M,M,M,M,M,82.59,KTMT 092255Z AUTO 25010KT 10SM CLR 30/M02 A3012 RMK AO2 T02991016,M
10U,2024-09-09 22:55,-116.1876,41.9532,1637.00,86.00,24.80,10.72,250.00,15.00,0.00,30.09,M,10.00,20.00,CLR,M,M,M,M,M,M,M,M,M,M,M,M,M,M,82.26,K10U 092255Z AUTO 25015G20KT 10SM CLR 30/M04 A3009 RMK AO2,M
INS,2024-09-09 22:55,-115.6733,36.5872,955.00,98.80,32.70,9.94,210.00,11.00,0.00,29.92,M,10.00,18.00,BKN,M,M,M,13000.00,M,M,M,M,M,M,M,M,M,M,92.95,KINS 092255Z AUTO 21011G18KT 10SM BKN130 37/00 A2992 RMK AO2 SLPNO T03710004 $,M
LSV,2024-09-09 22:55,-115.0343,36.2362,570.00,103.00,35.80,9.91,170.00,6.00,T,29.80,1006.00,10.00,M,CLR,M,M,M,M,M,M,M,M,M,M,M,M,M,M,97.03,KLSV 092255Z AUTO 17006KT 10SM CLR 39/02 A2980 RMK AO2 RAB31E43 SLP060 P0000 T03940021 $,M
EKO,2024-09-09 22:56,-115.7860,40.8242,1367.00,90.00,29.00,11.23,280.00,10.00,0.00,30.06,1011.70,10.00,M,CLR,M,M,M,M,M,M,M,M,M,M,M,M,M,M,85.53,KEKO 092256Z AUTO 28010KT 10SM CLR 32/M02 A3006 RMK AO2 SLP117 T03221017,M
WMC,2024-09-09 22:56,-117.8072,40.9019,1315.00,91.00,30.00,11.33,260.00,9.00,0.00,30.02,1011.90,10.00,17.00,CLR,M,M,M,M,M,M,M,M,M,M,M,M,M,M,86.38,KWMC 092256Z AUTO 26009G17KT 220V290 10SM CLR 33/M01 A3002 RMK AO2 SLP119 T03281011,M
HND,2024-09-09 22:56,-115.1344,35.9729,742.79,98.00,45.00,16.47,M,3.00,T,29.91,1010.90,10.00,M,CLR,M,M,M,M,M,M,M,M,M,M,M,M,M,M,94.02,KHND 092256Z VRB03KT 10SM CLR 37/07 A2991 RMK AO2 RAE05 SLP109 P0000 T03670072,M
TPH,2024-09-09 22:56,-117.0904,38.0505,1654.00,91.00,26.00,9.62,230.00,14.00,0.00,30.09,1010.60,10.00,22.00,CLR,M,M,M,M,M,M,M,M,M,M,M,M,M,M,86.01,KTPH 092256Z AUTO 23014G22KT 10SM CLR 33/M03 A3009 RMK AO2 SLP106 T03281033 $,M
LAS,2024-09-09 22:56,-115.1634,36.0719,663.00,100.00,44.00,14.92,120.00,6.00,T,29.87,1008.30,10.00,M,SCT,SCT,SCT,M,12000.00,18000.00,25000.00,M,M,M,M,M,M,M,M,95.83,KLAS 092256Z 12006KT 10SM SCT120 SCT180 SCT250 38/07 A2987 RMK AO2 RAE06 SLP083 P0000 T03780067 $,M
NFL,2024-09-09 22:57,-118.7010,39.4166,1199.00,91.00,31.00,11.80,M,4.00,0.00,30.00,1013.10,10.00,M,FEW,BKN,M,M,10000.00,24000.00,M,M,M,M,M,M,M,M,M,86.49,KNFL 092257Z VRB04KT 10SM FEW100 BKN240 33/M01 A3000 RMK AO2 SLP131 FU FEW100 T03281006,M
05U,2024-09-09 23:10,-116.0051,39.6042,1811.23,86.00,28.40,12.44,0.00,0.00,0.00,30.12,M,10.00,12.00,CLR,M,M,M,M,M,M,M,M,M,M,M,M,M,M,82.54,K05U 092310Z AUTO 00000G12KT 10SM CLR 30/M02 A3012 RMK A01,M
BVU,2024-09-09 23:15,-114.8611,35.9475,671.00,100.40,39.20,12.25,M,4.00,0.00,29.85,M,10.00,15.00,CLR,M,M,M,M,M,M,M,M,M,M,M,M,M,M,95.43,KBVU 092315Z AUTO VRB04G15KT 10SM CLR 38/04 A2985 RMK AO2,M
CXP,2024-09-09 23:15,-119.7326,39.1923,1431.00,87.80,32.00,13.59,270.00,12.00,0.00,30.07,M,10.00,19.00,CLR,M,M,M,M,M,M,M,M,M,M,M,M,M,M,84.08,KCXP 092315Z AUTO 27012G19KT 10SM CLR 31/M00 A3007 RMK AO2,M
RTS,2024-09-09 23:15,-119.8764,39.6682,1539.00,86.00,26.60,11.55,230.00,11.00,0.00,30.10,M,10.00,21.00,CLR,M,M,M,M,M,M,M,M,M,M,M,M,M,M,82.39,KRTS 092315Z AUTO 23011G21KT 10SM CLR 30/M03 A3010 RMK AO2,M
MEV,2024-09-09 23:15,-119.7500,38.9963,1441.42,87.80,32.00,13.59,290.00,14.00,0.00,30.06,M,10.00,M,CLR,M,M,M,M,M,M,M,M,M,M,M,M,M,M,84.08,KMEV 092315Z AUTO 29014KT 10SM CLR 31/M00 A3006 RMK AO2,M
BAM,2024-09-09 23:15,-116.8743,40.5990,1382.36,91.40,30.20,11.28,210.00,6.00,0.00,30.04,M,10.00,M,CLR,M,M,M,M,M,M,M,M,M,M,M,M,M,M,86.71,KBAM 092315Z AUTO 21006KT 10SM CLR 33/M01 A3004 RMK AO1,M
HTH,2024-09-09 23:15,-118.6315,38.5448,1282.89,91.40,23.00,8.38,320.00,12.00,0.00,30.01,M,10.00,M,CLR,M,M,M,M,M,M,M,M,M,M,M,M,M,M,86.08,KHTH 092315Z AUTO 32012KT 10SM CLR 33/M05 A3001 RMK A01,M
TMT,2024-09-09 23:15,-117.1971,39.4643,1749.34,86.00,29.00,12.75,210.00,9.00,0.00,30.12,M,10.00,16.00,CLR,M,M,M,M,M,M,M,M,M,M,M,M,M,M,82.59,KTMT 092315Z AUTO 21009G16KT 10SM CLR 30/M02 A3012 RMK AO2 T03001016,M
10U,2024-09-09 23:15,-116.1876,41.9532,1637.00,86.00,24.80,10.72,240.00,11.00,0.00,30.09,M,10.00,20.00,CLR,M,M,M,M,M,M,M,M,M,M,M,M,M,M,82.26,K10U 092315Z AUTO 24011G20KT 200V280 10SM CLR 30/M04 A3009 RMK AO2,M
05U,2024-09-09 23:30,-116.0051,39.6042,1811.23,84.20,26.60,12.23,0.00,0.00,0.00,30.12,M,10.00,M,CLR,M,M,M,M,M,M,M,M,M,M,M,M,M,M,81.13,K05U 092330Z AUTO 00000KT 10SM CLR 29/M03 A3012 RMK A01,M
BVU,2024-09-09 23:35,-114.8611,35.9475,671.00,102.20,37.40,10.81,180.00,5.00,0.00,29.84,M,10.00,12.00,CLR,M,M,M,M,M,M,M,M,M,M,M,M,M,M,96.63,KBVU 092335Z AUTO 18005G12KT 10SM CLR 39/03 A2984 RMK AO2,M
CXP,2024-09-09 23:35,-119.7326,39.1923,1431.00,87.80,32.00,13.59,280.00,16.00,0.00,30.07,M,10.00,25.00,CLR,M,M,M,M,M,M,M,M,M,M,M,M,M,M,84.08,KCXP 092335Z AUTO 28016G25KT 10SM CLR 31/00 A3007 RMK AO2,M
RTS,2024-09-09 23:35,-119.8764,39.6682,1539.00,86.00,26.60,11.55,220.00,15.00,0.00,30.09,M,10.00,M,CLR,M,M,M,M,M,M,M,M,M,M,M,M,M,M,82.39,KRTS 092335Z AUTO 22015KT 10SM CLR 30/M03 A3009 RMK AO2,M
BAM,2024-09-09 23:35,-116.8743,40.5990,1382.36,91.40,30.20,11.28,270.00,12.00,0.00,30.03,M,10.00,19.00,CLR,M,M,M,M,M,M,M,M,M,M,M,M,M,M,86.71,KBAM 092335Z AUTO 27012G19KT 10SM CLR 33/M01 A3003 RMK AO1,M
TMT,2024-09-09 23:35,-117.1971,39.4643,1749.34,86.00,29.30,12.90,280.00,8.00,0.00,30.12,M,10.00,14.00,CLR,M,M,M,M,M,M,M,M,M,M,M,M,M,M,82.62,KTMT 092335Z AUTO 28008G14KT 10SM CLR 30/M01 A3012 RMK AO2 T03011015,M
10U,2024-09-09 23:35,-116.1876,41.9532,1637.00,86.00,24.80,10.72,250.00,13.00,0.00,30.08,M,10.00,21.00,CLR,M,M,M,M,M,M,M,M,M,M,M,M,M,M,82.26,K10U 092335Z AUTO 25013G21KT 230V290 10SM CLR 30/M04 A3008 RMK AO2,M
HTH,2024-09-09 23:35,-118.6315,38.5448,1282.89,91.40,23.00,8.38,320.00,12.00,0.00,30.00,M,10.00,M,CLR,M,M,M,M,M,M,M,M,M,M,M,M,M,M,86.08,KHTH 092335Z AUTO 32012KT 10SM CLR 33/M05 A3000 RMK A01,M
MEV,2024-09-09 23:35,-119.7500,38.9963,1441.42,87.80,32.00,13.59,280.00,11.00,0.00,30.05,M,10.00,16.00,CLR,M,M,M,M,M,M,M,M,M,M,M,M,M,M,84.08,KMEV 092335Z AUTO 28011G16KT 10SM CLR 31/00 A3005 RMK AO2,M
05U,2024-09-09 23:50,-116.0051,39.6042,1811.23,86.00,26.60,11.55,240.00,9.00,0.00,30.11,M,10.00,M,CLR,M,M,M,M,M,M,M,M,M,M,M,M,M,M,82.39,K05U 092350Z AUTO 24009KT 10SM CLR 30/M03 A3011 RMK A01,M
P68,2024-09-09 23:53,-116.0056,39.6014,1993.00,86.00,28.00,12.23,240.00,10.00,0.00,30.09,1010.40,M,14.00,M,M,M,M,M,M,M,M,M,M,M,M,M,M,M,82.50,KP68 092353Z AUTO 24010G14KT 30/M02 A3009 RMK AO1 SLP104 T03001022 10317 20267 56013,M
DRA,2024-09-09 23:53,-116.0278,36.6206,1009.00,100.00,33.00,9.70,220.00,12.00,0.00,29.93,1007.70,10.00,24.00,CLR,M,M,M,M,M,M,M,M,M,M,M,M,M,M,94.01,KDRA 092353Z AUTO 22012G24KT 10SM CLR 38/01 A2993 RMK AO2 SLP077 T03780006 10389 20333 56015,M
ELY,2024-09-09 23:53,-114.8453,39.2950,1909.00,82.00,31.00,15.73,220.00,12.00,0.00,30.14,1011.30,10.00,19.00,FEW,M,M,M,12000.00,M,M,M,M,M,M,M,M,M,M,79.71,KELY 092353Z AUTO 22012G19KT 10SM FEW120 28/M01 A3014 RMK AO2 SLP113 T02781006 10300 20256 56017 $,M
VGT,2024-09-09 23:53,-115.1933,36.2111,667.00,101.00,43.00,13.94,130.00,9.00,0.00,29.83,1008.80,10.00,M,CLR,M,M,M,M,M,M,M,M,M,M,M,M,M,M,96.64,KVGT 092353Z 13009KT 10SM CLR 38/06 A2983 RMK AO2 SLP088 T03830061 10406 20328 56017,M
LOL,2024-09-09 23:53,-118.5701,40.0684,1192.43,89.00,29.00,11.59,M,M,0.00,29.99,1011.90,10.00,M,CLR,M,M,M,M,M,M,M,M,M,M,M,M,M,M,84.78,KLOL 092353Z AUTO 10SM CLR 32/M02 A2999 RMK AO2 SLP119 T03171017 10328 20272 56019,M
BVU,2024-09-09 23:55,-114.8611,35.9475,671.00,102.20,37.40,10.81,210.00,9.00,0.00,29.84,M,10.00,14.00,CLR,M,M,M,M,M,M,M,M,M,M,M,M,M,M,96.63,KBVU 092355Z AUTO 21009G14KT 10SM CLR 39/03 A2984 RMK AO2,M
INS,2024-09-09 23:55,-115.6733,36.5872,955.00,100.00,21.20,5.96,230.00,11.00,0.00,29.91,M,10.00,M,FEW,M,M,M,14000.00,M,M,M,M,M,M,M,M,M,M,92.77,KINS 092355Z AUTO 23011KT 10SM FEW140 38/M06 A2991 RMK AO2 SLPNO T03781060 10381 20359 57017 $,M
RNO,2024-09-09 23:55,-119.7711,39.4839,1341.00,90.00,32.00,12.68,230.00,4.00,0.00,30.03,1011.10,10.00,21.00,FEW,BKN,M,M,4000.00,25000.00,M,M,M,M,M,M,M,M,M,85.84,KRNO 092355Z 23004G21KT 10SM FEW040 BKN250 32/00 A3003 RMK AO2 SLP111 FU FEW040 FU PLUME SW T03220000 10322 20233 56018,M
CXP,2024-09-09 23:55,-119.7326,39.1923,1431.00,86.00,32.00,14.40,260.00,13.00,0.00,30.07,M,10.00,20.00,CLR,M,M,M,M,M,M,M,M,M,M,M,M,M,M,82.64,KCXP 092355Z AUTO 26013G20KT 10SM CLR 30/00 A3007 RMK AO2,M
RTS,2024-09-09 23:55,-119.8764,39.6682,1539.00,86.00,26.60,11.55,220.00,11.00,0.00,30.09,M,10.00,M,CLR,M,M,M,M,M,M,M,M,M,M,M,M,M,M,82.39,KRTS 092355Z AUTO 22011KT 10SM CLR 30/M03 A3009 RMK AO2,M
BAM,2024-09-09 23:55,-116.8743,40.5990,1382.36,91.40,28.40,10.48,240.00,10.00,0.00,30.03,M,10.00,15.00,CLR,M,M,M,M,M,M,M,M,M,M,M,M,M,M,86.53,KBAM 092355Z AUTO 24010G15KT 10SM CLR 33/M02 A3003 RMK AO1,M
TMT,2024-09-09 23:55,-117.1971,39.4643,1749.34,85.00,29.00,13.16,290.00,6.00,0.00,30.12,M,10.00,M,CLR,M,M,M,M,M,M,M,M,M,M,M,M,M,M,81.86,KTMT 092355Z AUTO 29006KT 10SM CLR 30/M02 A3012 RMK AO2 T02951016 10307 20254,M
10U,2024-09-09 23:55,-116.1876,41.9532,1637.00,86.00,24.80,10.72,240.00,12.00,0.00,30.08,M,10.00,20.00,CLR,M,M,M,M,M,M,M,M,M,M,M,M,M,M,82.26,K10U 092355Z AUTO 24012G20KT 10SM CLR 30/M04 A3008 RMK AO2,M
LSV,2024-09-09 23:55,-115.0343,36.2362,570.00,103.50,36.00,9.84,180.00,6.00,0.00,29.78,1005.30,10.00,M,FEW,FEW,M,M,12000.00,18000.00,M,M,M,M,M,M,M,M,M,97.49,KLSV 092355Z AUTO 18006KT 10SM FEW120 FEW180 40/02 A2978 RMK AO2 SLP053 60000 T03970023 10403 20356 57019 $,M
EKO,2024-09-09 23:56,-115.7860,40.8242,1367.00,89.00,27.00,10.67,320.00,10.00,0.00,30.04,1011.20,10.00,20.00,CLR,M,M,M,M,M,M,M,M,M,M,M,M,M,M,84.60,KEKO 092356Z AUTO 32010G20KT 10SM CLR 32/M03 A3004 RMK AO2 SLP112 T03171028 10328 20267 56014,M
WMC,2024-09-09 23:56,-117.8072,40.9019,1315.00,90.00,29.00,11.23,270.00,10.00,0.00,30.01,1011.80,10.00,19.00,CLR,M,M,M,M,M,M,M,M,M,M,M,M,M,M,85.53,KWMC 092356Z AUTO 27010G19KT 10SM CLR 32/M02 A3001 RMK AO2 SLP118 T03221017 10333 20294 56017,M
HND,2024-09-09 23:56,-115.1344,35.9729,742.79,100.00,45.00,15.50,0.00,0.00,0.00,29.89,1010.30,10.00,M,CLR,M,M,M,M,M,M,M,M,M,M,M,M,M,M,95.99,KHND 092356Z 00000KT 10SM CLR 38/07 A2989 RMK AO2 SLP103 60000 T03780072 10400 20344 58014,M
TPH,2024-09-09 23:56,-117.0904,38.0505,1654.00,89.00,24.00,9.42,160.00,8.00,0.00,30.08,1010.80,10.00,M,CLR,M,M,M,M,M,M,M,M,M,M,M,M,M,M,84.38,KTPH 092356Z AUTO 16008KT 10SM CLR 32/M04 A3008 RMK AO2 SLP108 T03171044 10328 20272 56016 $,M
LAS,2024-09-09 23:56,-115.1634,36.0719,663.00,101.00,43.00,13.94,150.00,4.00,0.00,29.85,1007.70,10.00,M,FEW,SCT,SCT,M,12000.00,18000.00,25000.00,M,M,M,M,M,M,M,M,96.64,KLAS 092356Z 15004KT 10SM FEW120 SCT180 SCT250 38/06 A2985 RMK AO2 SLP077 60000 T03830061 10389 20339 58016 $,M
NFL,2024-09-09 23:57,-118.7010,39.4166,1199.00,93.00,32.00,11.55,340.00,5.00,0.00,29.99,1012.60,10.00,M,FEW,BKN,M,M,10000.00,24000.00,M,M,M,M,M,M,M,M,M,88.15,KNFL 092357Z 34005KT 10SM FEW100 BKN240 34/00 A2999 RMK AO2 SLP126 FU FEW100 T03390000 10339 20283 56020,M
