station,valid,lon,lat,elevation,tmpf,dwpf,relh,drct,sknt,p01i,alti,mslp,vsby,gust,skyc1,skyc2,skyc3,skyc4,skyl1,skyl2,skyl3,skyl4,wxcodes,ice_accretion_1hr,ice_accretion_3hr,ice_accretion_6hr,peak_wind_gust,peak_wind_drct,peak_wind_time,feel,metar,snowdepth
BVU,2022-07-30 00:15,-114.8611,35.9475,671.00,M,M,M,M,M,0.00,M,M,M,M,M,M,M,M,M,M,M,M,M,M,M,M,M,M,M,M,KBVU 300015Z AUTO RMK AO2 PNO PWINO TSNO,M
CXP,2022-07-30 00:15,-119.7326,39.1923,1431.00,98.60,30.20,9.04,50.00,8.00,0.00,30.04,M,10.00,M,CLR,M,M,M,M,M,M,M,M,M,M,M,M,M,M,92.46,KCXP 300015Z AUTO 05008KT 10SM CLR 37/M01 A3004 RMK AO2,M
RTS,2022-07-30 00:15,-119.8764,39.6682,1539.00,95.00,26.60,8.71,70.00,5.00,0.00,30.08,M,10.00,10.00,CLR,M,M,M,M,M,M,M,M,M,M,M,M,M,M,89.08,KRTS 300015Z AUTO 07005G10KT 10SM CLR 35/M03 A3008 RMK AO2,M
MEV,2022-07-30 00:15,-119.7500,38.9963,1441.42,98.60,30.20,9.04,40.00,8.00,0.00,30.02,M,10.00,16.00,CLR,M,M,M,M,M,M,M,M,M,M,M,M,M,M,92.46,KMEV 300015Z AUTO 04008G16KT 360V070 10SM CLR 37/M01 A3002 RMK AO2,M
BAM,2022-07-30 00:15,-116.8743,40.5990,1382.36,98.60,33.80,10.45,70.00,6.00,0.00,30.01,M,10.00,M,CLR,M,M,M,M,M,M,M,M,M,M,M,M,M,M,92.94,KBAM 300015Z AUTO 07006KT 10SM CLR 37/01 A3001 RMK AO1,M
HTH,2022-07-30 00:15,-118.6315,38.5448,1282.89,100.40,24.80,6.85,330.00,14.00,0.00,29.95,M,10.00,M,CLR,M,M,M,M,M,M,M,M,M,M,M,M,M,M,93.40,KHTH 300015Z AUTO 33014KT 10SM CLR 38/M04 A2995 RMK A01,M
TMT,2022-07-30 00:15,-117.1971,39.4643,1749.34,M,M,M,360.00,9.00,0.00,30.11,M,10.00,16.00,CLR,M,M,M,M,M,M,M,M,M,M,M,M,M,M,M,KTMT 300015Z AUTO 36009G16KT 10SM CLR A3011 RMK AO2,M
TMT,2022-07-30 00:35,-117.1971,39.4643,1749.34,M,M,M,30.00,8.00,0.00,30.11,M,10.00,M,CLR,M,M,M,M,M,M,M,M,M,M,M,M,M,M,M,KTMT 300035Z AUTO 03008KT 10SM CLR A3011 RMK AO2,M
BVU,2022-07-30 00:35,-114.8611,35.9475,671.00,M,M,M,M,M,0.00,M,M,M,M,M,M,M,M,M,M,M,M,M,M,M,M,M,M,M,M,KBVU 300035Z AUTO RMK AO2 PNO PWINO TSNO,M
HTH,2022-07-30 00:35,-118.6315,38.5448,1282.89,100.40,26.60,7.39,320.00,13.00,0.00,29.95,M,10.00,19.00,CLR,M,M,M,M,M,M,M,M,M,M,M,M,M,M,93.57,KHTH 300035Z AUTO 32013G19KT 10SM CLR 38/M03 A2995 RMK A01,M
BAM,2022-07-30 00:35,-116.8743,40.5990,1382.36,100.40,30.20,8.56,20.00,12.00,0.00,30.01,M,10.00,17.00,CLR,M,M,M,M,M,M,M,M,M,M,M,M,M,M,93.98,KBAM 300035Z AUTO 02012G17KT 10SM CLR 38/M01 A3001 RMK AO1,M
MEV,2022-07-30 00:35,-119.7500,38.9963,1441.42,96.80,30.20,9.55,40.00,12.00,0.00,30.02,M,10.00,17.00,CLR,M,M,M,M,M,M,M,M,M,M,M,M,M,M,90.96,KMEV 300035Z AUTO 04012G17KT 10SM CLR 36/M01 A3002 RMK AO2,M
RTS,2022-07-30 00:35,-119.8764,39.6682,1539.00,95.00,26.60,8.71,60.00,10.00,0.00,30.08,M,10.00,M,CLR,M,M,M,M,M,M,M,M,M,M,M,M,M,M,89.08,KRTS 300035Z AUTO 06010KT 10SM CLR 35/M03 A3008 RMK AO2,M
CXP,2022-07-30 00:35,-119.7326,39.1923,1431.00,96.80,30.20,9.55,30.00,7.00,0.00,30.04,M,10.00,M,CLR,M,M,M,M,M,M,M,M,M,M,M,M,M,M,90.96,KCXP 300035Z AUTO 03007KT 10SM CLR 36/M01 A3004 RMK AO2,M
CXP,2022-07-30 00:50,-119.7326,39.1923,1431.00,96.80,30.20,9.55,M,5.00,0.00,30.04,M,10.00,M,CLR,M,M,M,M,M,M,M,M,M,M,M,M,M,M,90.96,KCXP 300050Z AUTO VRB05KT 10SM CLR 36/M01 A3004 RMK AO2,M
DRA,2022-07-30 00:53,-116.0278,36.6206,1009.00,99.00,51.00,20.09,230.00,5.00,0.00,29.90,1006.80,10.00,16.00,FEW,M,M,M,10000.00,M,M,M,M,M,M,M,M,M,M,96.24,KDRA 300053Z AUTO 23005G16KT 10SM FEW100 37/11 A2990 RMK AO2 SLP068 T03720106,M
LOL,2022-07-30 00:53,-118.5701,40.0684,1192.43,100.00,30.00,8.59,50.00,9.00,0.00,29.93,1008.60,10.00,M,CLR,M,M,M,M,M,M,M,M,M,M,M,M,M,M,93.61,KLOL 300053Z AUTO 05009KT 10SM CLR 38/M01 A2993 RMK AO2 SLP086 T03781011,M
ELY,2022-07-30 00:53,-114.8453,39.2950,1909.00,83.00,41.00,22.70,250.00,4.00,0.00,30.17,1011.20,10.00,M,FEW,M,M,M,10000.00,M,M,M,M,M,M,M,M,M,M,80.62,KELY 300053Z AUTO 25004KT 10SM FEW100 28/05 A3017 RMK AO2 SLP112 T02830050,M
VGT,2022-07-30 00:53,-115.1933,36.2111,667.00,97.00,61.00,30.56,110.00,7.00,0.00,29.84,1009.30,10.00,M,CLR,M,M,M,M,M,M,M,M,M,M,M,M,M,M,97.66,KVGT 300053Z 11007KT 10SM CLR 36/16 A2984 RMK AO2 LTG DSNT N SLP093 T03610161,M
P68,2022-07-30 00:53,-116.0056,39.6014,1993.00,90.00,30.90,12.13,10.00,13.00,0.00,30.11,1010.60,M,18.00,M,M,M,M,M,M,M,M,M,M,M,M,M,M,M,85.72,KP68 300053Z AUTO 01013G18KT 32/M01 A3011 RMK AO1 SLP106 T03221006,M
BVU,2022-07-30 00:55,-114.8611,35.9475,671.00,M,M,M,M,M,0.00,M,M,M,M,M,M,M,M,M,M,M,M,M,M,M,M,M,M,M,M,KBVU 300055Z AUTO RMK AO2 PNO PWINO TSNO,M
RNO,2022-07-30 00:55,-119.7711,39.4839,1341.00,99.00,36.00,11.27,280.00,4.00,0.00,30.00,1008.90,10.00,M,FEW,FEW,M,M,17000.00,20000.00,M,M,M,M,M,M,M,M,M,93.63,KRNO 300055Z 28004KT 10SM FEW170 FEW200 37/02 A3000 RMK AO2 SLP089 TCU DSNT NW THRU N T03720022,M
RTS,2022-07-30 00:55,-119.8764,39.6682,1539.00,95.00,26.60,8.71,10.00,6.00,0.00,30.07,M,10.00,M,CLR,M,M,M,M,M,M,M,M,M,M,M,M,M,M,89.08,KRTS 300055Z AUTO 01006KT 10SM CLR 35/M03 A3007 RMK AO2,M
MEV,2022-07-30 00:55,-119.7500,38.9963,1441.42,95.00,30.20,10.09,40.00,8.00,0.00,30.02,M,10.00,M,CLR,M,M,M,M,M,M,M,M,M,M,M,M,M,M,89.48,KMEV 300055Z AUTO 04008KT 10SM CLR 35/M01 A3002 RMK AO2,M
BAM,2022-07-30 00:55,-116.8743,40.5990,1382.36,100.40,32.00,9.21,30.00,14.00,0.00,30.01,M,10.00,M,CLR,M,M,M,M,M,M,M,M,M,M,M,M,M,M,94.21,KBAM 300055Z AUTO 03014KT 10SM CLR 38/00 A3001 RMK AO1,M
HTH,2022-07-30 00:55,-118.6315,38.5448,1282.89,100.40,26.60,7.39,320.00,16.00,0.00,29.95,M,10.00,M,CLR,M,M,M,M,M,M,M,M,M,M,M,M,M,M,93.57,KHTH 300055Z AUTO 32016KT 10SM CLR 38/M03 A2995 RMK A01,M
TMT,2022-07-30 00:55,-117.1971,39.4643,1749.34,M,M,M,50.00,11.00,0.00,30.11,M,10.00,16.00,CLR,M,M,M,M,M,M,M,M,M,M,M,M,M,M,M,KTMT 300055Z AUTO 05011G16KT 10SM CLR A3011 RMK AO2,M
EKO,2022-07-30 00:56,-115.7860,40.8242,1367.00,94.00,35.00,12.71,0.00,0.00,0.00,30.03,1010.30,10.00,M,CLR,M,M,M,M,M,M,M,M,M,M,M,M,M,M,89.29,KEKO 300056Z AUTO 00000KT 10SM CLR 34/02 A3003 RMK AO2 SLP103 T03440017,M
NFL,2022-07-30 00:56,-118.7010,39.4166,1199.00,103.00,28.90,7.53,20.00,7.00,0.00,29.93,1010.80,10.00,M,SCT,SCT,M,M,10000.00,15000.00,M,M,M,M,M,M,M,M,M,95.93,KNFL 300056Z 02007KT 10SM SCT100 SCT150 39/M02 A2993 RMK AO2 SLP108 T03941017,M
LAS,2022-07-30 00:56,-115.1634,36.0719,663.00,98.00,61.00,29.55,130.00,7.00,0.00,29.85,1007.90,10.00,M,FEW,FEW,SCT,M,12000.00,18000.00,22000.00,M,M,M,M,M,M,M,M,98.92,KLAS 300056Z 13007KT 10SM FEW120 FEW180 SCT220 37/16 A2985 RMK AO2 SLP079 ACC OHD CB DSNT ALQDS T03670161,M
HND,2022-07-30 00:56,-115.1344,35.9729,742.79,98.00,61.00,29.55,M,4.00,0.00,29.89,1010.60,10.00,M,CLR,M,M,M,M,M,M,M,M,M,M,M,M,M,M,98.92,KHND 300056Z VRB04KT 10SM CLR 37/16 A2989 RMK AO2 SLP106 T03670161,M
WMC,2022-07-30 00:56,-117.8072,40.9019,1315.00,101.00,28.00,7.71,360.00,14.00,0.00,29.99,1009.50,10.00,M,CLR,M,M,M,M,M,M,M,M,M,M,M,M,M,M,94.14,KWMC 300056Z AUTO 36014KT 10SM CLR 38/M02 A2999 RMK AO2 SLP095 T03831022,M
TPH,2022-07-30 00:56,-117.0904,38.0505,1654.00,89.00,42.00,19.42,180.00,21.00,0.00,30.07,1009.40,10.00,27.00,CLR,M,M,M,M,M,M,M,M,M,M,M,27.00,180.00,2022-07-30 00:56,85.45,KTPH 300056Z AUTO 18021G27KT 10SM CLR 32/06 A3007 RMK AO2 PK WND 18027/0056 SLP094 T03170056,M
INS,2022-07-30 00:58,-115.6733,36.5872,955.00,96.80,54.00,23.90,100.00,11.00,0.00,29.89,1007.00,10.00,M,CLR,M,M,M,M,M,M,M,M,M,M,M,M,M,M,94.71,KINS 300058Z AUTO 10011KT 10SM CLR 36/12 A2989 RMK AO2 SLP070 T03600122,M
LSV,2022-07-30 00:58,-115.0343,36.2362,570.00,97.70,60.00,28.77,120.00,5.00,0.00,29.82,1007.20,10.00,M,FEW,SCT,M,M,10000.00,15000.00,M,M,M,M,M,M,M,M,M,97.92,KLSV 300058Z 12005KT 10SM FEW100 SCT150 37/16 A2982 RMK AO2A SLP072 T03650155 $,M
HTH,2022-07-30 01:15,-118.6315,38.5448,1282.89,100.40,26.60,7.39,320.00,16.00,0.00,29.95,M,10.00,M,CLR,M,M,M,M,M,M,M,M,M,M,M,M,M,M,93.57,KHTH 300115Z AUTO 32016KT 10SM CLR 38/M03 A2995 RMK A01,M
BVU,2022-07-30 01:15,-114.8611,35.9475,671.00,M,M,M,M,M,0.00,M,M,M,M,M,M,M,M,M,M,M,M,M,M,M,M,M,M,M,M,KBVU 300115Z AUTO RMK AO2 PNO PWINO TSNO,M
BAM,2022-07-30 01:15,-116.8743,40.5990,1382.36,98.60,30.20,9.04,360.00,9.00,0.00,30.01,M,10.00,14.00,CLR,M,M,M,M,M,M,M,M,M,M,M,M,M,M,92.46,KBAM 300115Z AUTO 36009G14KT 10SM CLR 37/M01 A3001 RMK AO1,M
MEV,2022-07-30 01:15,-119.7500,38.9963,1441.42,95.00,30.20,10.09,360.00,8.00,0.00,30.02,M,10.00,M,CLR,M,M,M,M,M,M,M,M,M,M,M,M,M,M,89.48,KMEV 300115Z AUTO 36008KT 10SM CLR 35/M01 A3002 RMK AO2,M
RTS,2022-07-30 01:15,-119.8764,39.6682,1539.00,93.20,26.60,9.21,350.00,5.00,0.00,30.07,M,10.00,10.00,CLR,M,M,M,M,M,M,M,M,M,M,M,M,M,M,87.72,KRTS 300115Z AUTO 35005G10KT 10SM CLR 34/M03 A3007 RMK AO2,M
CXP,2022-07-30 01:15,-119.7326,39.1923,1431.00,96.80,32.00,10.27,90.00,7.00,0.00,30.03,M,10.00,M,CLR,M,M,M,M,M,M,M,M,M,M,M,M,M,M,91.19,KCXP 300115Z AUTO 09007KT 10SM CLR 36/M00 A3003 RMK AO2,M
TMT,2022-07-30 01:15,-117.1971,39.4643,1749.34,M,M,M,40.00,13.00,0.00,30.11,M,10.00,18.00,CLR,M,M,M,M,M,M,M,M,M,M,M,M,M,M,M,KTMT 300115Z AUTO 04013G18KT 10SM CLR A3011 RMK AO2,M
TMT,2022-07-30 01:35,-117.1971,39.4643,1749.34,M,M,M,40.00,11.00,0.00,30.11,M,10.00,16.00,CLR,M,M,M,M,M,M,M,M,M,M,M,M,M,M,M,KTMT 300135Z AUTO 04011G16KT 10SM CLR A3011 RMK AO2,M
BVU,2022-07-30 01:35,-114.8611,35.9475,671.00,M,M,M,M,M,0.00,M,M,M,M,M,M,M,M,M,M,M,M,M,M,M,M,M,M,M,M,KBVU 300135Z AUTO RMK AO2 PNO PWINO TSNO,M
CXP,2022-07-30 01:35,-119.7326,39.1923,1431.00,96.80,32.00,10.27,M,4.00,0.00,30.03,M,10.00,M,CLR,M,M,M,M,M,M,M,M,M,M,M,M,M,M,91.19,KCXP 300135Z AUTO VRB04KT 10SM CLR 36/M00 A3003 RMK AO2,M
RTS,2022-07-30 01:35,-119.8764,39.6682,1539.00,91.40,26.60,9.74,30.00,7.00,0.00,30.07,M,10.00,M,CLR,M,M,M,M,M,M,M,M,M,M,M,M,M,M,86.36,KRTS 300135Z AUTO 03007KT 10SM CLR 33/M03 A3007 RMK AO2,M
MEV,2022-07-30 01:35,-119.7500,38.9963,1441.42,96.80,30.20,9.55,360.00,14.00,0.00,30.02,M,10.00,M,CLR,M,M,M,M,M,M,M,M,M,M,M,M,M,M,90.96,KMEV 300135Z AUTO 36014KT 10SM CLR 36/M01 A3002 RMK AO2,M
BAM,2022-07-30 01:35,-116.8743,40.5990,1382.36,98.60,30.20,9.04,360.00,9.00,0.00,30.01,M,10.00,M,CLR,M,M,M,M,M,M,M,M,M,M,M,M,M,M,92.46,KBAM 300135Z AUTO 36009KT 10SM CLR 37/M01 A3001 RMK AO1,M
HTH,2022-07-30 01:35,-118.6315,38.5448,1282.89,100.40,26.60,7.39,320.00,14.00,0.00,29.95,M,10.00,M,CLR,M,M,M,M,M,M,M,M,M,M,M,M,M,M,93.57,KHTH 300135Z AUTO 32014KT 10SM CLR 38/M03 A2995 RMK A01,M
LOL,2022-07-30 01:53,-118.5701,40.0684,1192.43,99.00,30.90,9.19,50.00,8.00,0.00,29.93,1008.50,10.00,M,CLR,M,M,M,M,M,M,M,M,M,M,M,M,M,M,92.88,KLOL 300153Z AUTO 05008KT 10SM CLR 37/M01 A2993 RMK AO2 SLP085 T03721006,M
P68,2022-07-30 01:53,-116.0056,39.6014,1993.00,84.00,41.00,21.90,70.00,8.00,0.00,30.13,1011.10,M,M,M,M,M,M,M,M,M,M,M,M,M,M,M,M,M,81.37,KP68 300153Z AUTO 07008KT 29/05 A3013 RMK AO1 SLP111 T02890050,M
ELY,2022-07-30 01:53,-114.8453,39.2950,1909.00,78.00,50.00,37.36,350.00,4.00,T,30.19,1012.00,10.00,M,FEW,M,M,M,10000.00,M,M,M,M,M,M,M,M,M,M,78.10,KELY 300153Z AUTO 35004KT 10SM FEW100 26/10 A3019 RMK AO2 RAB17E37 SLP120 P0000 T02560100,M
VGT,2022-07-30 01:53,-115.1933,36.2111,667.00,97.00,62.00,31.77,110.00,9.00,0.00,29.83,1009.10,10.00,M,CLR,M,M,M,M,M,M,M,M,M,M,M,M,M,M,98.24,KVGT 300153Z 11009KT 10SM CLR 36/17 A2983 RMK AO2 SLP091 T03610167,M
DRA,2022-07-30 01:53,-116.0278,36.6206,1009.00,97.00,47.00,18.25,M,M,0.00,29.91,1007.40,10.00,M,OVC,M,M,M,10000.00,M,M,M,M,M,M,M,M,M,M,93.33,KDRA 300153Z AUTO 10SM OVC100 36/08 A2991 RMK AO2 SLP074 T03610083,M
BVU,2022-07-30 01:55,-114.8611,35.9475,671.00,M,M,M,M,M,0.00,M,M,M,M,M,M,M,M,M,M,M,M,M,M,M,M,M,M,M,M,KBVU 300155Z AUTO RMK AO2 PNO PWINO TSNO,M
RTS,2022-07-30 01:55,-119.8764,39.6682,1539.00,91.40,26.60,9.74,40.00,5.00,0.00,30.07,M,10.00,M,CLR,M,M,M,M,M,M,M,M,M,M,M,M,M,M,86.36,KRTS 300155Z AUTO 04005KT 10SM CLR 33/M03 A3007 RMK AO2,M
MEV,2022-07-30 01:55,-119.7500,38.9963,1441.42,95.00,32.00,10.85,350.00,9.00,0.00,30.02,M,10.00,M,CLR,M,M,M,M,M,M,M,M,M,M,M,M,M,M,89.71,KMEV 300155Z AUTO 35009KT 10SM CLR 35/M00 A3002 RMK AO2,M
BAM,2022-07-30 01:55,-116.8743,40.5990,1382.36,96.80,30.20,9.55,360.00,8.00,0.00,30.01,M,10.00,M,CLR,M,M,M,M,M,M,M,M,M,M,M,M,M,M,90.96,KBAM 300155Z AUTO 36008KT 10SM CLR 36/M01 A3001 RMK AO1,M
HTH,2022-07-30 01:55,-118.6315,38.5448,1282.89,98.60,28.40,8.40,330.00,14.00,0.00,29.95,M,10.00,19.00,CLR,M,M,M,M,M,M,M,M,M,M,M,M,M,M,92.25,KHTH 300155Z AUTO 33014G19KT 10SM CLR 37/M02 A2995 RMK A01,M
TMT,2022-07-30 01:55,-117.1971,39.4643,1749.34,M,M,M,40.00,12.00,0.00,30.11,M,10.00,15.00,CLR,M,M,M,M,M,M,M,M,M,M,M,M,M,M,M,KTMT 300155Z AUTO 04012G15KT 10SM CLR A3011 RMK AO2,M
RNO,2022-07-30 01:55,-119.7711,39.4839,1341.00,99.00,34.00,10.41,40.00,7.00,0.00,29.99,1008.60,10.00,M,FEW,FEW,M,M,15000.00,20000.00,M,M,M,M,M,M,M,M,M,93.31,KRNO 300155Z 04007KT 10SM FEW150 FEW200 37/01 A2999 RMK AO2 SLP086 T03720011,M
CXP,2022-07-30 01:55,-119.7326,39.1923,1431.00,96.80,28.40,8.87,50.00,7.00,0.00,30.03,M,10.00,M,CLR,M,M,M,M,M,M,M,M,M,M,M,M,M,M,90.75,KCXP 300155Z AUTO 05007KT 10SM CLR 36/M02 A3003 RMK AO2,M
HND,2022-07-30 01:56,-115.1344,35.9729,742.79,96.00,63.00,33.71,160.00,12.00,0.00,29.89,1010.60,10.00,M,CLR,M,M,M,M,M,M,M,M,M,M,M,M,M,M,97.70,KHND 300156Z 16012KT 10SM CLR 36/17 A2989 RMK AO2 SLP106 T03560172,M
LAS,2022-07-30 01:56,-115.1634,36.0719,663.00,97.00,61.00,30.56,110.00,9.00,0.00,29.84,1007.80,10.00,M,SCT,SCT,BKN,M,12000.00,18000.00,22000.00,M,M,M,M,M,M,M,M,97.66,KLAS 300156Z 11009KT 10SM SCT120CB SCT180 BKN220 36/16 A2984 RMK AO2 SLP078 CB N-NE AND DSNT ALQDS ACC OHD-E T03610161,M
EKO,2022-07-30 01:56,-115.7860,40.8242,1367.00,94.00,38.00,14.20,M,5.00,0.00,30.04,1010.10,10.00,M,CLR,M,M,M,M,M,M,M,M,M,M,M,M,M,M,89.48,KEKO 300156Z AUTO VRB05KT 10SM CLR 34/03 A3004 RMK AO2 SLP101 T03440033,M
NFL,2022-07-30 01:56,-118.7010,39.4166,1199.00,101.00,30.90,8.67,20.00,5.00,0.00,29.93,1010.80,10.00,M,FEW,SCT,M,M,10000.00,14000.00,M,M,M,M,M,M,M,M,M,94.49,KNFL 300156Z 02005KT 10SM FEW100 SCT140 38/M01 A2993 RMK AO2 SLP108 T03831006,M
TPH,2022-07-30 01:56,-117.0904,38.0505,1654.00,85.00,43.00,22.98,190.00,11.00,0.00,30.09,1010.40,10.00,20.00,CLR,M,M,M,M,M,M,M,M,M,M,M,29.00,180.00,2022-07-30 00:59,82.13,KTPH 300156Z AUTO 19011G20KT 10SM CLR 29/06 A3009 RMK AO2 PK WND 18029/0059 SLP104 T02940061,M
WMC,2022-07-30 01:56,-117.8072,40.9019,1315.00,99.00,28.00,8.16,360.00,9.00,0.00,29.99,1009.30,10.00,M,CLR,M,M,M,M,M,M,M,M,M,M,M,M,M,M,92.54,KWMC 300156Z AUTO 36009KT 10SM CLR 37/M02 A2999 RMK AO2 SLP093 T03721022,M
INS,2022-07-30 01:58,-115.6733,36.5872,955.00,93.40,56.30,28.85,110.00,11.00,0.00,29.91,1007.70,10.00,M,BKN,M,M,M,10000.00,M,M,M,M,M,M,M,M,M,M,91.83,KINS 300158Z AUTO 11011KT 10SM BKN100 34/14 A2991 RMK AO2 SLP077 T03410135,M
LSV,2022-07-30 01:58,-115.0343,36.2362,570.00,97.00,63.00,32.80,100.00,9.00,0.00,29.82,1007.20,10.00,M,FEW,M,M,M,11000.00,M,M,M,M,M,M,M,M,M,M,98.74,KLSV 300158Z AUTO 10009KT 10SM FEW110 36/17 A2982 RMK AO2 SLP072 T03610172 $,M
INS,2022-07-30 02:02,-115.6733,36.5872,955.00,93.20,55.40,28.10,80.00,16.00,0.00,29.92,1008.00,10.00,22.00,BKN,M,M,M,10000.00,M,M,M,M,M,M,M,M,M,M,91.35,KINS 300202Z AUTO 08016G22KT 10SM BKN100 34/13 A2992 RMK AO2 WSHFT 0154 SLP080,M
BVU,2022-07-30 02:15,-114.8611,35.9475,671.00,M,M,M,M,M,0.00,M,M,M,M,M,M,M,M,M,M,M,M,M,M,M,M,M,M,M,M,KBVU 300215Z AUTO RMK AO2 PNO PWINO TSNO,M
RTS,2022-07-30 02:15,-119.8764,39.6682,1539.00,89.60,26.60,10.30,30.00,5.00,0.00,30.08,M,10.00,M,CLR,M,M,M,M,M,M,M,M,M,M,M,M,M,M,85.02,KRTS 300215Z AUTO 03005KT 10SM CLR 32/M03 A3008 RMK AO2,M
MEV,2022-07-30 02:15,-119.7500,38.9963,1441.42,93.20,32.00,11.48,350.00,5.00,0.00,30.02,M,10.00,M,CLR,M,M,M,M,M,M,M,M,M,M,M,M,M,M,88.31,KMEV 300215Z AUTO 35005KT 10SM CLR 34/M00 A3002 RMK AO2,M
BAM,2022-07-30 02:15,-116.8743,40.5990,1382.36,95.00,32.00,10.85,360.00,8.00,0.00,30.01,M,10.00,M,CLR,M,M,M,M,M,M,M,M,M,M,M,M,M,M,89.71,KBAM 300215Z AUTO 36008KT 10SM CLR 35/00 A3001 RMK AO1,M
HTH,2022-07-30 02:15,-118.6315,38.5448,1282.89,98.60,32.00,9.72,330.00,12.00,0.00,29.95,M,10.00,M,CLR,M,M,M,M,M,M,M,M,M,M,M,M,M,M,92.69,KHTH 300215Z AUTO 33012KT 10SM CLR 37/M00 A2995 RMK A01,M
TMT,2022-07-30 02:15,-117.1971,39.4643,1749.34,M,M,M,10.00,9.00,0.00,30.12,M,10.00,M,CLR,M,M,M,M,M,M,M,M,M,M,M,M,M,M,M,KTMT 300215Z AUTO 01009KT 10SM CLR A3012 RMK AO2,M
CXP,2022-07-30 02:15,-119.7326,39.1923,1431.00,96.80,28.40,8.87,20.00,7.00,0.00,30.03,M,10.00,M,CLR,M,M,M,M,M,M,M,M,M,M,M,M,M,M,90.75,KCXP 300215Z AUTO 02007KT 10SM CLR 36/M02 A3003 RMK AO2,M
VGT,2022-07-30 02:16,-115.1933,36.2111,667.00,97.00,63.00,32.80,90.00,11.00,0.00,29.85,M,10.00,M,CLR,M,M,M,M,M,M,M,VCTS,M,M,M,M,M,M,98.74,KVGT 300216Z 09011KT 10SM VCTS CLR 36/17 A2985 RMK AO2 LTG DSNT N AND NE T03610172,M
LSV,2022-07-30 02:16,-115.0343,36.2362,570.00,96.80,62.60,32.54,50.00,11.00,0.00,29.84,1007.90,10.00,M,BKN,M,M,M,1000.00,M,M,M,TS,M,M,M,M,M,M,98.28,KLSV 300216Z COR 05011KT 10SM TS BKN010CB 36/17 A2984 RMK AO2 TSB16 PRESRR SLP079 $ COR 0242,M
DRA,2022-07-30 02:19,-116.0278,36.6206,1009.00,90.00,56.00,31.62,190.00,10.00,0.00,29.94,M,10.00,M,BKN,M,M,M,10000.00,M,M,M,M,M,M,M,M,M,M,88.29,KDRA 300219Z AUTO 19010KT 10SM BKN100 32/13 A2994 RMK AO2 WSHFT 0202 T03220133,M
LSV,2022-07-30 02:21,-115.0343,36.2362,570.00,96.80,62.60,32.54,10.00,29.00,0.00,29.86,1008.60,10.00,37.00,BKN,M,M,M,1000.00,M,M,M,TS,M,M,M,M,M,M,98.28,KLSV 300221Z 01029G37KT 10SM TS BKN010CB 36/17 A2986 RMK AO2A WSHFT 15 TSB16 PRESRR SLP086 $,M
LAS,2022-07-30 02:31,-115.1634,36.0719,663.00,96.00,62.00,32.66,120.00,9.00,0.00,29.85,M,10.00,M,SCT,SCT,BKN,M,12000.00,18000.00,22000.00,M,TS,M,M,M,M,M,M,97.20,KLAS 300231Z 12009KT 10SM TS SCT120CB SCT180 BKN220 36/17 A2985 RMK AO2 LTG DSNT N AND NE TSB31 OCNL LTGICCCCG N-NE TS N-NE MOV S VCSH N-NE CB DSNT ALQDS ACC OHD-E T03560167,M
MEV,2022-07-30 02:35,-119.7500,38.9963,1441.42,93.20,33.80,12.34,350.00,5.00,0.00,30.02,M,10.00,M,CLR,M,M,M,M,M,M,M,M,M,M,M,M,M,M,88.55,KMEV 300235Z AUTO 35005KT 10SM CLR 34/01 A3002 RMK AO2,M
LSV,2022-07-30 02:35,-115.0343,36.2362,570.00,89.60,68.00,49.10,20.00,31.00,0.00,29.88,1009.50,4.00,47.00,BKN,M,M,M,1000.00,M,M,M,+TSRA,M,M,M,M,M,M,93.47,KLSV 300235Z COR AUTO 02031G47KT 4SM +TSRA BKN010CB 32/20 A2988 RMK AO2A RAB35 TSB16 PRESRR SLP095 $ COR 0247,M
TMT,2022-07-30 02:35,-117.1971,39.4643,1749.34,M,M,M,40.00,6.00,0.00,30.12,M,10.00,M,CLR,M,M,M,M,M,M,M,M,M,M,M,M,M,M,M,KTMT 300235Z AUTO 04006KT 10SM CLR A3012 RMK AO2,M
HTH,2022-07-30 02:35,-118.6315,38.5448,1282.89,95.00,37.40,13.46,330.00,12.00,0.00,29.96,M,10.00,18.00,CLR,M,M,M,M,M,M,M,M,M,M,M,M,M,M,90.46,KHTH 300235Z AUTO 33012G18KT 10SM CLR 35/03 A2996 RMK A01,M
BAM,2022-07-30 02:35,-116.8743,40.5990,1382.36,95.00,30.20,10.09,10.00,9.00,0.00,30.02,M,10.00,14.00,CLR,M,M,M,M,M,M,M,M,M,M,M,M,M,M,89.48,KBAM 300235Z AUTO 01009G14KT 10SM CLR 35/M01 A3002 RMK AO1,M
BVU,2022-07-30 02:35,-114.8611,35.9475,671.00,M,M,M,M,M,0.00,M,M,M,M,M,M,M,M,M,M,M,M,M,M,M,M,M,M,M,M,KBVU 300235Z AUTO RMK AO2 PNO PWINO TSNO,M
CXP,2022-07-30 02:35,-119.7326,39.1923,1431.00,95.00,33.80,11.67,330.00,5.00,0.00,30.04,M,10.00,M,CLR,M,M,M,M,M,M,M,M,M,M,M,M,M,M,89.97,KCXP 300235Z AUTO 33005KT 10SM CLR 35/01 A3004 RMK AO2,M
RTS,2022-07-30 02:35,-119.8764,39.6682,1539.00,86.00,28.40,12.44,330.00,4.00,0.00,30.08,M,10.00,M,CLR,M,M,M,M,M,M,M,M,M,M,M,M,M,M,82.54,KRTS 300235Z AUTO 33004KT 10SM CLR 30/M02 A3008 RMK AO2,M
LSV,2022-07-30 02:48,-115.0343,36.2362,570.00,78.80,69.80,73.95,20.00,33.00,0.00,29.89,1010.10,5.00,39.00,FEW,SCT,BKN,M,3000.00,8500.00,10000.00,M,TS HZ,M,M,M,M,M,M,78.80,KLSV 300248Z 02033G39KT 5SM TS HZ FEW030CB SCT085 BKN100 26/21 A2989 RMK AO2A RAB35E45 TSB16 SLP101 $,M
VGT,2022-07-30 02:50,-115.1933,36.2111,667.00,87.80,62.60,43.07,40.00,25.00,0.00,29.88,M,10.00,37.00,SCT,BKN,M,M,9000.00,11000.00,M,M,M,M,M,M,45.00,60.00,2022-07-30 02:35,88.48,KVGT 300250Z 04025G37KT 10SM SCT090 BKN110 31/17 A2988 RMK AO2 PK WND 06045/0235 LTG DSNT NE AND E AND SW,M
LOL,2022-07-30 02:53,-118.5701,40.0684,1192.43,94.00,33.00,11.74,40.00,6.00,0.00,29.94,1008.30,10.00,M,CLR,M,M,M,M,M,M,M,M,M,M,M,M,M,M,89.00,KLOL 300253Z AUTO 04006KT 10SM CLR 34/01 A2994 RMK AO2 SLP083 T03440006 55001,M
DRA,2022-07-30 02:53,-116.0278,36.6206,1009.00,88.00,56.00,33.68,100.00,11.00,0.00,29.95,1008.80,10.00,M,FEW,M,M,M,11000.00,M,M,M,M,M,M,M,28.00,130.00,2022-07-30 02:36,86.42,KDRA 300253Z AUTO 10011KT 10SM FEW110 31/13 A2995 RMK AO2 PK WND 13028/0236 WSHFT 0202 SLP088 T03110133 53013,M
VGT,2022-07-30 02:53,-115.1933,36.2111,667.00,88.00,62.00,42.05,40.00,23.00,0.00,29.89,1011.20,10.00,35.00,SCT,M,M,M,9000.00,M,M,M,M,M,M,M,45.00,60.00,2022-07-30 02:35,88.47,KVGT 300253Z 04023G35KT 10SM SCT090 31/17 A2989 RMK AO2 PK WND 06045/0235 LTG DSNT ALQDS PRESRR SLP112 T03110167 53016,M
ELY,2022-07-30 02:53,-114.8453,39.2950,1909.00,76.00,42.00,29.80,10.00,9.00,0.00,30.19,1011.70,10.00,M,CLR,M,M,M,M,M,M,M,M,M,M,M,M,M,M,75.90,KELY 300253Z AUTO 01009KT 10SM CLR 24/06 A3019 RMK AO2 SLP117 60000 T02440056 53006,M
P68,2022-07-30 02:53,-116.0056,39.6014,1993.00,79.00,40.00,24.70,100.00,6.00,0.00,30.14,1011.00,M,M,M,M,M,M,M,M,M,M,M,M,M,M,M,M,M,79.00,KP68 300253Z AUTO 10006KT 26/04 A3014 RMK AO1 SLP110 T02610044 53005,M
HTH,2022-07-30 02:55,-118.6315,38.5448,1282.89,93.20,41.00,16.37,330.00,11.00,0.00,29.96,M,10.00,16.00,CLR,M,M,M,M,M,M,M,M,M,M,M,M,M,M,89.03,KHTH 300255Z AUTO 33011G16KT 10SM CLR 34/05 A2996 RMK A01,M
CXP,2022-07-30 02:55,-119.7326,39.1923,1431.00,91.40,35.60,14.02,330.00,7.00,0.00,30.04,M,10.00,M,CLR,M,M,M,M,M,M,M,M,M,M,M,M,M,M,87.17,KCXP 300255Z AUTO 33007KT 10SM CLR 33/02 A3004 RMK AO2,M
TMT,2022-07-30 02:55,-117.1971,39.4643,1749.34,M,M,M,70.00,7.00,0.00,30.13,M,10.00,M,CLR,M,M,M,M,M,M,M,M,M,M,M,M,M,M,M,KTMT 300255Z AUTO 07007KT 10SM CLR A3013 RMK AO2,M
BVU,2022-07-30 02:55,-114.8611,35.9475,671.00,M,M,M,M,M,0.00,M,M,M,M,M,M,M,M,M,M,M,M,M,M,M,M,M,M,M,M,KBVU 300255Z AUTO RMK AO2 PNO PWINO TSNO,M
RNO,2022-07-30 02:55,-119.7711,39.4839,1341.00,96.00,35.00,11.88,330.00,6.00,0.00,30.00,1008.90,10.00,M,FEW,FEW,M,M,14000.00,20000.00,M,M,M,M,M,M,M,M,M,91.07,KRNO 300255Z 33006KT 10SM FEW140 FEW200 36/02 A3000 RMK AO2 SLP089 T03560017 55002,M
RTS,2022-07-30 02:55,-119.8764,39.6682,1539.00,84.20,30.20,14.18,340.00,5.00,0.00,30.09,M,10.00,M,CLR,M,M,M,M,M,M,M,M,M,M,M,M,M,M,81.26,KRTS 300255Z AUTO 34005KT 10SM CLR 29/M01 A3009 RMK AO2,M
MEV,2022-07-30 02:55,-119.7500,38.9963,1441.42,89.60,35.60,14.83,330.00,6.00,0.00,30.03,M,10.00,M,CLR,M,M,M,M,M,M,M,M,M,M,M,M,M,M,85.62,KMEV 300255Z AUTO 33006KT 10SM CLR 32/02 A3003 RMK AO2,M
BAM,2022-07-30 02:55,-116.8743,40.5990,1382.36,89.60,30.20,11.94,30.00,7.00,0.00,30.03,M,10.00,M,CLR,M,M,M,M,M,M,M,M,M,M,M,M,M,M,85.34,KBAM 300255Z AUTO 03007KT 10SM CLR 32/M01 A3003 RMK AO1,M
EKO,2022-07-30 02:56,-115.7860,40.8242,1367.00,88.00,40.00,18.47,40.00,8.00,0.00,30.07,1011.20,10.00,M,CLR,M,M,M,M,M,M,M,M,M,M,M,M,M,M,84.41,KEKO 300256Z AUTO 04008KT 10SM CLR 31/04 A3007 RMK AO2 SLP112 T03110044 53005,M
LAS,2022-07-30 02:56,-115.1634,36.0719,663.00,88.00,62.00,42.05,30.00,27.00,0.00,29.89,1009.70,10.00,38.00,BKN,BKN,BKN,M,12000.00,18000.00,22000.00,M,TS,M,M,M,38.00,50.00,2022-07-30 02:52,88.47,KLAS 300256Z 03027G38KT 10SM TS BKN120CB BKN180 BKN220 31/17 A2989 RMK AO2 PK WND 05038/0252 LTG DSNT W-NE TSB31 SLP097 OCNL LTGICCCCG N-E TS N-E MOV S VCSH N-NE CB DSNT ALQDS T03110167 53013,M
WMC,2022-07-30 02:56,-117.8072,40.9019,1315.00,93.00,28.90,10.18,30.00,8.00,0.00,30.00,1009.60,10.00,M,CLR,M,M,M,M,M,M,M,M,M,M,M,M,M,M,87.79,KWMC 300256Z AUTO 03008KT 10SM CLR 34/M02 A3000 RMK AO2 SLP096 T03391017 53002,M
TPH,2022-07-30 02:56,-117.0904,38.0505,1654.00,81.00,45.00,28.15,230.00,9.00,0.00,30.11,1010.50,10.00,M,CLR,M,M,M,M,M,M,M,M,M,M,M,M,M,M,79.68,KTPH 300256Z AUTO 23009KT 10SM CLR 27/07 A3011 RMK AO2 SLP105 T02720072 53012,M
HND,2022-07-30 02:56,-115.1344,35.9729,742.79,94.00,63.00,36.08,140.00,12.00,0.00,29.91,1011.20,10.00,M,OVC,M,M,M,11000.00,M,M,M,M,M,M,M,M,M,M,95.19,KHND 300256Z 14012KT 10SM OVC110 34/17 A2991 RMK AO2 LTG DSNT W-NE SLP112 T03440172 53004,M
NFL,2022-07-30 02:56,-118.7010,39.4166,1199.00,91.00,37.00,15.00,350.00,4.00,0.00,29.94,1011.10,10.00,M,FEW,SCT,M,M,11000.00,16000.00,M,M,M,M,M,M,M,M,M,86.86,KNFL 300256Z 35004KT 10SM FEW110 SCT160 33/03 A2994 RMK AO2 SLP111 T03280028 53000,M
INS,2022-07-30 02:58,-115.6733,36.5872,955.00,86.70,54.00,32.88,100.00,5.00,0.00,29.95,1009.40,10.00,M,CLR,M,M,M,M,M,M,M,VCTS,M,M,M,28.00,80.00,2022-07-30 02:06,84.87,KINS 300258Z AUTO 10005KT 10SM VCTS CLR 30/12 A2995 RMK AO2 PK WND 08028/06 SLP094 T03040123 53018,M
LSV,2022-07-30 02:58,-115.0343,36.2362,570.00,76.80,70.20,80.09,30.00,30.00,0.10,29.90,1010.40,10.00,39.00,FEW,BKN,M,M,3000.00,9000.00,M,M,TS,M,M,M,47.00,10.00,2022-07-30 02:27,76.80,KLSV 300258Z 03030G39KT 10SM TS FEW030CB BKN090 25/21 A2990 RMK AO2A PK WND 01047/27 RAB35E45 TSB16 SLP104 P0010 60010 T02490212 53024 $,M
LAS,2022-07-30 03:04,-115.1634,36.0719,663.00,84.00,64.00,51.08,40.00,25.00,0.00,29.91,M,10.00,35.00,BKN,BKN,BKN,M,12000.00,18000.00,22000.00,M,TS,M,M,M,35.00,30.00,2022-07-30 03:00,85.36,KLAS 300304Z 04025G35KT 10SM TS BKN120CB BKN180 BKN220 29/18 A2991 RMK AO2 PK WND 03035/0300 WSHFT 0244 LTG DSNT W-NE PRESRR OCNL LTGICCCCG N-E TS N-E MOV S VCSH N-NE CB DSNT ALQDS T02890178,M
LSV,2022-07-30 03:05,-115.0343,36.2362,570.00,77.00,71.60,83.44,20.00,25.00,0.00,29.90,1010.40,10.00,35.00,FEW,SCT,BKN,M,2800.00,5500.00,11000.00,M,-TSRA,M,M,M,M,M,M,77.00,KLSV 300305Z 02025G35KT 10SM -TSRA FEW028CB SCT055 BKN110 25/22 A2990 RMK AO2A RAB05 SLP104 $,M
VGT,2022-07-30 03:07,-115.1933,36.2111,667.00,87.00,61.00,41.62,50.00,20.00,0.00,29.90,M,10.00,33.00,SCT,M,M,M,9000.00,M,M,M,VCTS,M,M,M,33.00,30.00,2022-07-30 02:58,87.15,KVGT 300307Z 05020G33KT 10SM VCTS SCT090 31/16 A2990 RMK AO2 PK WND 03033/0258 LTG DSNT ALQDS T03060161,M
HND,2022-07-30 03:07,-115.1344,35.9729,742.79,91.40,64.40,40.96,110.00,9.00,T,29.92,M,10.00,M,FEW,OVC,M,M,2300.00,11000.00,M,M,VCTS -RA,M,M,M,M,M,M,93.19,KHND 300307Z AUTO 11009KT 10SM VCTS -RA FEW023 OVC110 33/18 A2992 RMK AO2 LTG DSNT W-NE TSB01RAB00 PRESRR P0000,M
CXP,2022-07-30 03:10,-119.7326,39.1923,1431.00,89.60,35.60,14.83,340.00,7.00,0.00,30.04,M,10.00,M,CLR,M,M,M,M,M,M,M,M,M,M,M,M,M,M,85.62,KCXP 300310Z AUTO 34007KT 10SM CLR 32/02 A3004 RMK AO2,M
VGT,2022-07-30 03:14,-115.1933,36.2111,667.00,87.00,61.00,41.62,60.00,22.00,0.00,29.91,M,10.00,33.00,SCT,M,M,M,9000.00,M,M,M,TS,M,M,M,33.00,30.00,2022-07-30 02:58,87.15,KVGT 300314Z 06022G33KT 10SM TS SCT090 31/16 A2991 RMK AO2 PK WND 03033/0258 LTG DSNT E AND W AND NW TSB08 T03060161,M
BAM,2022-07-30 03:15,-116.8743,40.5990,1382.36,87.80,28.40,11.74,30.00,7.00,0.00,30.03,M,10.00,M,CLR,M,M,M,M,M,M,M,M,M,M,M,M,M,M,83.84,KBAM 300315Z AUTO 03007KT 10SM CLR 31/M02 A3003 RMK AO1,M
MEV,2022-07-30 03:15,-119.7500,38.9963,1441.42,86.00,37.40,17.85,350.00,6.00,0.00,30.03,M,10.00,M,CLR,M,M,M,M,M,M,M,M,M,M,M,M,M,M,82.73,KMEV 300315Z AUTO 35006KT 10SM CLR 30/03 A3003 RMK AO2,M
RTS,2022-07-30 03:15,-119.8764,39.6682,1539.00,86.00,30.20,13.38,330.00,3.00,0.00,30.09,M,10.00,M,CLR,M,M,M,M,M,M,M,M,M,M,M,M,M,M,82.64,KRTS 300315Z AUTO 33003KT 10SM CLR 30/M01 A3009 RMK AO2,M
TMT,2022-07-30 03:15,-117.1971,39.4643,1749.34,M,M,M,70.00,6.00,0.00,30.14,M,10.00,M,CLR,M,M,M,M,M,M,M,M,M,M,M,M,M,M,M,KTMT 300315Z AUTO 07006KT 10SM CLR A3014 RMK AO2,M
HTH,2022-07-30 03:15,-118.6315,38.5448,1282.89,91.40,46.40,21.29,320.00,10.00,0.00,29.97,M,10.00,M,CLR,M,M,M,M,M,M,M,M,M,M,M,M,M,M,87.86,KHTH 300315Z AUTO 32010KT 10SM CLR 33/08 A2997 RMK A01,M
BVU,2022-07-30 03:15,-114.8611,35.9475,671.00,M,M,M,M,M,0.00,M,M,M,M,M,M,M,M,M,M,M,M,M,M,M,M,M,M,M,M,KBVU 300315Z AUTO RMK AO2 PNO PWINO TSNO,M
HND,2022-07-30 03:19,-115.1344,35.9729,742.79,86.00,66.20,51.72,20.00,21.00,T,29.95,M,10.00,26.00,FEW,BKN,OVC,M,7000.00,9000.00,11000.00,M,VCTS,M,M,M,26.00,30.00,2022-07-30 03:17,88.39,KHND 300319Z AUTO 02021G26KT 10SM VCTS FEW070 BKN090 OVC110 30/19 A2995 RMK AO2 PK WND 03026/0317 LTG DSNT N AND NE TSB01E16B19RAB00E14 PRESRR P0000,M
VGT,2022-07-30 03:29,-115.1933,36.2111,667.00,86.00,62.00,44.81,80.00,21.00,0.00,29.92,M,10.00,28.00,SCT,M,M,M,9000.00,M,M,M,VCTS,M,M,M,33.00,30.00,2022-07-30 02:58,86.52,KVGT 300329Z 08021G28KT 10SM VCTS SCT090 30/17 A2992 RMK AO2 PK WND 03033/0258 LTG DSNT ALQDS TSB08E23 T03000167,M
HND,2022-07-30 03:30,-115.1344,35.9729,742.79,82.40,68.00,61.81,30.00,15.00,T,29.97,M,10.00,M,SCT,OVC,M,M,7000.00,9000.00,M,M,TS,M,M,M,26.00,30.00,2022-07-30 03:17,85.38,KHND 300330Z AUTO 03015KT 10SM TS SCT070 OVC090 28/20 A2997 RMK AO2 PK WND 03026/0317 WSHFT 0310 LTG DSNT NE TSB01E16B19RAB00E14 PRESRR P0000,M
HTH,2022-07-30 03:35,-118.6315,38.5448,1282.89,89.60,48.20,24.11,320.00,8.00,0.00,29.97,M,10.00,M,CLR,M,M,M,M,M,M,M,M,M,M,M,M,M,M,86.44,KHTH 300335Z AUTO 32008KT 10SM CLR 32/09 A2997 RMK A01,M
BAM,2022-07-30 03:35,-116.8743,40.5990,1382.36,86.00,28.40,12.44,30.00,7.00,0.00,30.04,M,10.00,M,CLR,M,M,M,M,M,M,M,M,M,M,M,M,M,M,82.54,KBAM 300335Z AUTO 03007KT 10SM CLR 30/M02 A3004 RMK AO1,M
MEV,2022-07-30 03:35,-119.7500,38.9963,1441.42,84.20,35.60,17.61,330.00,8.00,0.00,30.04,M,10.00,M,CLR,M,M,M,M,M,M,M,M,M,M,M,M,M,M,81.34,KMEV 300335Z AUTO 33008KT 10SM CLR 29/02 A3004 RMK AO2,M
RTS,2022-07-30 03:35,-119.8764,39.6682,1539.00,78.80,30.20,16.90,300.00,6.00,0.00,30.09,M,10.00,M,CLR,M,M,M,M,M,M,M,M,M,M,M,M,M,M,78.80,KRTS 300335Z AUTO 30006KT 10SM CLR 26/M01 A3009 RMK AO2,M
CXP,2022-07-30 03:35,-119.7326,39.1923,1431.00,87.80,33.80,14.61,340.00,6.00,0.00,30.05,M,10.00,M,CLR,M,M,M,M,M,M,M,M,M,M,M,M,M,M,84.10,KCXP 300335Z AUTO 34006KT 10SM CLR 31/01 A3005 RMK AO2,M
TMT,2022-07-30 03:35,-117.1971,39.4643,1749.34,M,M,M,80.00,6.00,0.00,30.14,M,10.00,M,CLR,M,M,M,M,M,M,M,M,M,M,M,M,M,M,M,KTMT 300335Z AUTO 08006KT 10SM CLR A3014 RMK AO2,M
BVU,2022-07-30 03:35,-114.8611,35.9475,671.00,M,M,M,M,M,0.00,M,M,M,M,M,M,M,M,M,M,M,M,M,M,M,M,M,M,M,M,KBVU 300335Z AUTO RMK AO2 PNO PWINO TSNO,M
LSV,2022-07-30 03:36,-115.0343,36.2362,570.00,77.00,77.00,100.00,70.00,17.00,0.00,29.92,1011.10,10.00,M,BKN,M,M,M,5500.00,M,M,M,-RA,M,M,M,M,M,M,77.00,KLSV 300336Z 07017KT 10SM -RA BKN055 25/25 A2992 RMK AO2A LTG DSNT N AND S RAB05 TSE36 SLP111 $,M
VGT,2022-07-30 03:40,-115.1933,36.2111,667.00,86.00,62.00,44.81,80.00,15.00,T,29.92,M,10.00,28.00,BKN,M,M,M,8000.00,M,M,M,-RA,M,M,M,33.00,30.00,2022-07-30 02:58,86.52,KVGT 300340Z 08015G28KT 10SM -RA BKN080 30/17 A2992 RMK AO2 PK WND 03033/0258 LTG DSNT S-NW RAB38 TSB08E23 P0000 T03000167,M
VGT,2022-07-30 03:49,-115.1933,36.2111,667.00,84.20,62.60,48.32,80.00,14.00,T,29.92,M,10.00,26.00,FEW,BKN,M,M,8000.00,12000.00,M,M,VCTS,M,M,M,33.00,30.00,2022-07-30 02:58,85.03,KVGT 300349Z 08014G26KT 10SM VCTS FEW080 BKN120 29/17 A2992 RMK AO2 PK WND 03033/0258 LTG DSNT S-NW RAB38E48 TSB08E23 P0000,M
LOL,2022-07-30 03:53,-118.5701,40.0684,1192.43,85.00,33.00,15.59,30.00,7.00,0.00,29.96,1009.00,10.00,M,CLR,M,M,M,M,M,M,M,M,M,M,M,M,M,M,81.81,KLOL 300353Z AUTO 03007KT 10SM CLR 29/01 A2996 RMK AO2 SLP090 T02940006,M
ELY,2022-07-30 03:53,-114.8453,39.2950,1909.00,72.00,43.00,35.16,70.00,3.00,0.00,30.21,1011.90,10.00,M,CLR,M,M,M,M,M,M,M,M,M,M,M,M,M,M,72.00,KELY 300353Z AUTO 07003KT 10SM CLR 22/06 A3021 RMK AO2 SLP119 T02220061,M
VGT,2022-07-30 03:53,-115.1933,36.2111,667.00,83.00,64.00,52.93,70.00,14.00,T,29.92,1012.60,10.00,21.00,FEW,BKN,M,M,8000.00,11000.00,M,M,VCTS,M,M,M,33.00,30.00,2022-07-30 02:58,84.32,KVGT 300353Z 07014G21KT 10SM VCTS FEW080 BKN110 28/18 A2992 RMK AO2 PK WND 03033/0258 LTG DSNT S-NW RAB38E48 TSB08E23 SLP126 P0000 T02830178,M
DRA,2022-07-30 03:53,-116.0278,36.6206,1009.00,85.00,55.00,35.99,110.00,16.00,0.00,29.95,1008.80,10.00,M,CLR,M,M,M,M,M,M,M,M,M,M,M,28.00,100.00,2022-07-30 03:27,83.56,KDRA 300353Z AUTO 11016KT 10SM CLR 29/13 A2995 RMK AO2 PK WND 10028/0327 SLP088 T02940128,M
P68,2022-07-30 03:53,-116.0056,39.6014,1993.00,77.00,38.00,24.40,140.00,8.00,0.00,30.16,1011.60,M,M,M,M,M,M,M,M,M,M,M,M,M,M,M,M,M,77.00,KP68 300353Z AUTO 14008KT 25/03 A3016 RMK AO1 SLP116 T02500033,M
BVU,2022-07-30 03:55,-114.8611,35.9475,671.00,M,M,M,M,M,0.00,M,M,M,M,M,M,M,M,M,M,M,M,M,M,M,M,M,M,M,M,KBVU 300355Z AUTO RMK AO2 PNO PWINO TSNO,M
TMT,2022-07-30 03:55,-117.1971,39.4643,1749.34,M,M,M,90.00,7.00,0.00,30.15,M,10.00,M,CLR,M,M,M,M,M,M,M,M,M,M,M,M,M,M,M,KTMT 300355Z AUTO 09007KT 10SM CLR A3015 RMK AO2,M
HTH,2022-07-30 03:55,-118.6315,38.5448,1282.89,89.60,46.40,22.53,330.00,10.00,0.00,29.98,M,10.00,M,CLR,M,M,M,M,M,M,M,M,M,M,M,M,M,M,86.24,KHTH 300355Z AUTO 33010KT 10SM CLR 32/08 A2998 RMK A01,M
BAM,2022-07-30 03:55,-116.8743,40.5990,1382.36,86.00,28.40,12.44,20.00,8.00,0.00,30.04,M,10.00,M,CLR,M,M,M,M,M,M,M,M,M,M,M,M,M,M,82.54,KBAM 300355Z AUTO 02008KT 10SM CLR 30/M02 A3004 RMK AO1,M
MEV,2022-07-30 03:55,-119.7500,38.9963,1441.42,82.40,39.20,21.51,330.00,3.00,0.00,30.04,M,10.00,M,CLR,M,M,M,M,M,M,M,M,M,M,M,M,M,M,80.21,KMEV 300355Z AUTO 33003KT 10SM CLR 28/04 A3004 RMK AO2,M
RTS,2022-07-30 03:55,-119.8764,39.6682,1539.00,82.40,28.40,13.96,310.00,6.00,0.00,30.10,M,10.00,M,CLR,M,M,M,M,M,M,M,M,M,M,M,M,M,M,79.94,KRTS 300355Z AUTO 31006KT 10SM CLR 28/M02 A3010 RMK AO2,M
CXP,2022-07-30 03:55,-119.7326,39.1923,1431.00,86.00,32.00,14.40,330.00,6.00,0.00,30.05,M,10.00,M,CLR,M,M,M,M,M,M,M,M,M,M,M,M,M,M,82.64,KCXP 300355Z AUTO 33006KT 10SM CLR 30/00 A3005 RMK AO2,M
RNO,2022-07-30 03:55,-119.7711,39.4839,1341.00,92.00,39.00,15.77,290.00,10.00,0.00,30.01,1009.10,10.00,M,FEW,FEW,M,M,12000.00,20000.00,M,M,M,M,M,M,M,M,M,87.74,KRNO 300355Z 29010KT 10SM FEW120 FEW200 33/04 A3001 RMK AO2 SLP091 T03330039,M
TPH,2022-07-30 03:56,-117.0904,38.0505,1654.00,78.00,44.00,29.91,0.00,0.00,0.00,30.12,1011.10,10.00,M,CLR,M,M,M,M,M,M,M,M,M,M,M,M,M,M,78.10,KTPH 300356Z AUTO 00000KT 10SM CLR 26/07 A3012 RMK AO2 SLP111 T02560067,M
EKO,2022-07-30 03:56,-115.7860,40.8242,1367.00,83.00,40.00,21.75,30.00,7.00,0.00,30.10,1012.10,10.00,M,CLR,M,M,M,M,M,M,M,M,M,M,M,M,M,M,80.57,KEKO 300356Z AUTO 03007KT 10SM CLR 28/04 A3010 RMK AO2 SLP121 T02830044,M
NFL,2022-07-30 03:56,-118.7010,39.4166,1199.00,84.00,37.00,18.74,20.00,5.00,0.00,29.95,1011.30,10.00,M,SCT,SCT,M,M,12000.00,18000.00,M,M,M,M,M,M,M,M,M,81.23,KNFL 300356Z 02005KT 10SM SCT120 SCT180 29/03 A2995 RMK AO2 SLP113 T02890028,M
WMC,2022-07-30 03:56,-117.8072,40.9019,1315.00,87.00,30.00,12.82,60.00,6.00,0.00,30.02,1010.00,10.00,M,CLR,M,M,M,M,M,M,M,M,M,M,M,M,M,M,83.48,KWMC 300356Z AUTO 06006KT 10SM CLR 31/M01 A3002 RMK AO2 SLP100 T03061011,M
HND,2022-07-30 03:56,-115.1344,35.9729,742.79,78.00,70.00,76.19,70.00,8.00,0.03,29.99,1014.50,10.00,M,FEW,BKN,OVC,M,4800.00,8000.00,11000.00,M,-TSRA,M,M,M,26.00,30.00,2022-07-30 03:17,78.10,KHND 300356Z AUTO 07008KT 10SM -TSRA FEW048 BKN080 OVC110 26/21 A2999 RMK AO2 PK WND 03026/0317 WSHFT 0310 LTG DSNT ALQDS TSB01E16B19RAB00E14B31 SLP145 P0003 T02560211,M
LAS,2022-07-30 03:56,-115.1634,36.0719,663.00,80.00,67.00,64.14,40.00,8.00,0.03,29.93,1011.20,10.00,21.00,BKN,BKN,BKN,M,12000.00,18000.00,22000.00,M,-TSRA,M,M,M,35.00,30.00,2022-07-30 03:00,82.40,KLAS 300356Z 04008G21KT 10SM -TSRA BKN120CB BKN180 BKN220 27/19 A2993 RMK AO2 PK WND 03035/0300 WSHFT 0244 LTG DSNT ALQDS RAB06 SLP112 OCNL LTGICCCCG OHD-ALQDS TS OHD-ALQDS MOV S P0003 T02670194,M
LSV,2022-07-30 03:58,-115.0343,36.2362,570.00,77.20,77.20,100.00,60.00,15.00,0.03,29.90,1010.30,10.00,M,FEW,M,M,M,6000.00,M,M,M,-RA,M,M,M,32.00,30.00,2022-07-30 03:11,77.20,KLSV 300358Z 06015KT 10SM -RA FEW060 25/25 A2990 RMK AO2A PK WND 03032/11 LTG DSNT NE AND S RAB05 TSE36 SLP103 P0003 T02510251 $,M
INS,2022-07-30 03:58,-115.6733,36.5872,955.00,85.30,53.00,32.90,100.00,3.00,0.00,29.96,1009.70,10.00,M,SCT,BKN,M,M,18000.00,20000.00,M,M,M,M,M,M,M,M,M,83.49,KINS 300358Z AUTO 10003KT 10SM SCT180 BKN200 30/12 A2996 RMK AO2 SLP097 T02960116,M
BAM,2022-07-30 04:15,-116.8743,40.5990,1382.36,80.60,28.40,14.81,70.00,4.00,0.00,30.05,M,10.00,M,CLR,M,M,M,M,M,M,M,M,M,M,M,M,M,M,78.72,KBAM 300415Z AUTO 07004KT 10SM CLR 27/M02 A3005 RMK AO1,M
TMT,2022-07-30 04:15,-117.1971,39.4643,1749.34,M,M,M,60.00,3.00,0.00,30.15,M,10.00,M,CLR,M,M,M,M,M,M,M,M,M,M,M,M,M,M,M,KTMT 300415Z AUTO 06003KT 10SM CLR A3015 RMK AO2,M
HTH,2022-07-30 04:15,-118.6315,38.5448,1282.89,87.80,50.00,27.29,320.00,7.00,0.00,29.99,M,10.00,M,CLR,M,M,M,M,M,M,M,M,M,M,M,M,M,M,85.11,KHTH 300415Z AUTO 32007KT 10SM CLR 31/10 A2999 RMK A01,M
MEV,2022-07-30 04:15,-119.7500,38.9963,1441.42,71.60,42.80,35.37,120.00,4.00,0.00,30.05,M,10.00,M,CLR,M,M,M,M,M,M,M,M,M,M,M,M,M,M,71.60,KMEV 300415Z AUTO 12004KT 10SM CLR 22/06 A3005 RMK AO2,M
BVU,2022-07-30 04:15,-114.8611,35.9475,671.00,M,M,M,M,M,0.00,M,M,M,M,M,M,M,M,M,M,M,M,M,M,M,M,M,M,M,M,KBVU 300415Z AUTO RMK AO2 PNO PWINO TSNO,M
CXP,2022-07-30 04:15,-119.7326,39.1923,1431.00,87.80,32.00,13.59,320.00,9.00,0.00,30.06,M,10.00,M,CLR,M,M,M,M,M,M,M,M,M,M,M,M,M,M,84.08,KCXP 300415Z AUTO 32009KT 10SM CLR 31/00 A3006 RMK AO2,M
RTS,2022-07-30 04:15,-119.8764,39.6682,1539.00,80.60,28.40,14.81,340.00,6.00,0.00,30.10,M,10.00,M,CLR,M,M,M,M,M,M,M,M,M,M,M,M,M,M,78.72,KRTS 300415Z AUTO 34006KT 10SM CLR 27/M02 A3010 RMK AO2,M
LAS,2022-07-30 04:17,-115.1634,36.0719,663.00,78.00,68.00,71.14,250.00,10.00,T,29.98,M,10.00,M,BKN,BKN,BKN,M,12000.00,18000.00,22000.00,M,TS,M,M,M,M,M,M,78.10,KLAS 300417Z 25010KT 10SM TS BKN120CB BKN180 BKN220 26/20 A2998 RMK AO2 LTG DSNT ALQDS RAE01 PRESRR OCNL LTGICCCCG OHD-ALQDS TS OHD-ALQDS MOV S P0000 T02560200,M
TMT,2022-07-30 04:35,-117.1971,39.4643,1749.34,M,M,M,330.00,6.00,0.00,30.16,M,10.00,M,CLR,M,M,M,M,M,M,M,M,M,M,M,M,M,M,M,KTMT 300435Z AUTO 33006KT 10SM CLR A3016 RMK AO2,M
RTS,2022-07-30 04:35,-119.8764,39.6682,1539.00,77.00,28.40,16.67,310.00,7.00,0.00,30.11,M,10.00,M,CLR,M,M,M,M,M,M,M,M,M,M,M,M,M,M,77.00,KRTS 300435Z AUTO 31007KT 10SM CLR 25/M02 A3011 RMK AO2,M
LAS,2022-07-30 04:35,-115.1634,36.0719,663.00,79.00,68.00,69.07,M,4.00,T,30.00,M,10.00,M,FEW,BKN,OVC,M,8000.00,11000.00,20000.00,M,-RA,M,M,M,M,M,M,79.00,KLAS 300435Z VRB04KT 10SM -RA FEW080 BKN110 OVC200 26/20 A3000 RMK AO2 LTG DSNT S-W RAE01B29 TSE35 TS MOV S OCNL LTGIC DSNT S-W P0000 T02610200,M
MEV,2022-07-30 04:35,-119.7500,38.9963,1441.42,82.40,42.80,24.72,0.00,0.00,0.00,30.06,M,10.00,M,CLR,M,M,M,M,M,M,M,M,M,M,M,M,M,M,80.39,KMEV 300435Z AUTO 00000KT 10SM CLR 28/06 A3006 RMK AO2,M
BAM,2022-07-30 04:35,-116.8743,40.5990,1382.36,75.20,28.40,17.70,80.00,4.00,0.00,30.06,M,10.00,M,CLR,M,M,M,M,M,M,M,M,M,M,M,M,M,M,75.20,KBAM 300435Z AUTO 08004KT 10SM CLR 24/M02 A3006 RMK AO1,M
HTH,2022-07-30 04:35,-118.6315,38.5448,1282.89,89.60,46.40,22.53,320.00,9.00,0.00,29.99,M,10.00,M,CLR,M,M,M,M,M,M,M,M,M,M,M,M,M,M,86.24,KHTH 300435Z AUTO 32009KT 10SM CLR 32/08 A2999 RMK A01,M
VGT,2022-07-30 04:35,-115.1933,36.2111,667.00,86.00,62.00,44.81,240.00,9.00,0.00,29.96,M,10.00,M,BKN,M,M,M,9000.00,M,M,M,M,M,M,M,M,M,M,86.52,KVGT 300435Z AUTO 24009KT 10SM BKN090 30/17 A2996 RMK AO2 LTG DSNT S AND SW T03000167,M
CXP,2022-07-30 04:35,-119.7326,39.1923,1431.00,86.00,32.00,14.40,330.00,6.00,0.00,30.07,M,10.00,M,CLR,M,M,M,M,M,M,M,M,M,M,M,M,M,M,82.64,KCXP 300435Z AUTO 33006KT 10SM CLR 30/00 A3007 RMK AO2,M
BVU,2022-07-30 04:35,-114.8611,35.9475,671.00,M,M,M,M,M,0.00,M,M,M,M,M,M,M,M,M,M,M,M,M,M,M,M,M,M,M,M,KBVU 300435Z AUTO RMK AO2 PNO PWINO TSNO,M
HND,2022-07-30 04:40,-115.1344,35.9729,742.79,77.00,71.60,83.44,240.00,7.00,0.01,30.03,M,10.00,M,SCT,BKN,OVC,M,6500.00,8000.00,10000.00,M,RA,M,M,M,M,M,M,77.00,KHND 300440Z AUTO 24007KT 10SM RA SCT065 BKN080 OVC100 25/22 A3003 RMK AO2 LTG DSNT ALQDS TSE34 P0001,M
INS,2022-07-30 04:51,-115.6733,36.5872,955.00,86.00,53.60,33.01,120.00,7.00,0.00,30.00,1010.90,10.00,M,OVC,M,M,M,18000.00,M,M,M,M,M,M,M,M,M,M,84.18,KINS 300451Z AUTO 12007KT 10SM OVC180 30/12 A3000 RMK AO2 SLP109,M
P68,2022-07-30 04:53,-116.0056,39.6014,1993.00,71.00,41.00,33.57,150.00,7.00,0.00,30.17,1012.10,M,M,M,M,M,M,M,M,M,M,M,M,M,M,M,M,M,71.10,KP68 300453Z AUTO 15007KT 22/05 A3017 RMK AO1 SLP121 T02170050,M
LOL,2022-07-30 04:53,-118.5701,40.0684,1192.43,84.00,30.00,14.16,20.00,8.00,0.00,29.97,1009.40,10.00,M,CLR,M,M,M,M,M,M,M,M,M,M,M,M,M,M,81.11,KLOL 300453Z AUTO 02008KT 10SM CLR 29/M01 A2997 RMK AO2 SLP094 T02891011,M
ELY,2022-07-30 04:53,-114.8453,39.2950,1909.00,63.00,45.00,51.78,180.00,6.00,0.00,30.23,1012.80,10.00,M,CLR,M,M,M,M,M,M,M,M,M,M,M,M,M,M,63.00,KELY 300453Z AUTO 18006KT 10SM CLR 17/07 A3023 RMK AO2 SLP128 T01720072,M
DRA,2022-07-30 04:53,-116.0278,36.6206,1009.00,86.00,55.00,34.74,120.00,12.00,0.00,29.98,1009.70,10.00,M,CLR,M,M,M,M,M,M,M,M,M,M,M,M,M,M,84.46,KDRA 300453Z AUTO 12012KT 10SM CLR 30/13 A2998 RMK AO2 SLP097 T03000128,M
VGT,2022-07-30 04:53,-115.1933,36.2111,667.00,84.00,65.00,52.71,140.00,15.00,0.00,30.00,1015.20,10.00,21.00,SCT,M,M,M,9500.00,M,M,M,M,M,M,M,M,M,M,85.72,KVGT 300453Z AUTO 14015G21KT 10SM SCT095 29/18 A3000 RMK AO2 LTG DSNT S AND SW PRESRR SLP152 T02890183,M
MEV,2022-07-30 04:55,-119.7500,38.9963,1441.42,75.20,42.80,31.34,0.00,0.00,0.00,30.06,M,10.00,M,CLR,M,M,M,M,M,M,M,M,M,M,M,M,M,M,75.20,KMEV 300455Z AUTO 00000KT 10SM CLR 24/06 A3006 RMK AO2,M
CXP,2022-07-30 04:55,-119.7326,39.1923,1431.00,84.20,39.20,20.29,0.00,0.00,0.00,30.07,M,10.00,M,CLR,M,M,M,M,M,M,M,M,M,M,M,M,M,M,81.44,KCXP 300455Z AUTO 00000KT 10SM CLR 29/04 A3007 RMK AO2,M
TMT,2022-07-30 04:55,-117.1971,39.4643,1749.34,68.70,30.90,24.42,350.00,7.00,0.00,30.16,M,10.00,M,CLR,M,M,M,M,M,M,M,M,M,M,M,M,M,M,68.70,KTMT 300455Z AUTO 35007KT 10SM CLR 20/M01 A3016 RMK AO2 T02041006,M
RTS,2022-07-30 04:55,-119.8764,39.6682,1539.00,78.80,28.40,15.71,310.00,7.00,0.00,30.11,M,10.00,M,CLR,M,M,M,M,M,M,M,M,M,M,M,M,M,M,78.80,KRTS 300455Z AUTO 31007KT 10SM CLR 26/M02 A3011 RMK AO2,M
HTH,2022-07-30 04:55,-118.6315,38.5448,1282.89,89.60,33.80,13.80,330.00,8.00,0.00,30.00,M,10.00,M,CLR,M,M,M,M,M,M,M,M,M,M,M,M,M,M,85.59,KHTH 300455Z AUTO 33008KT 10SM CLR 32/01 A3000 RMK A01,M
BAM,2022-07-30 04:55,-116.8743,40.5990,1382.36,73.40,28.40,18.80,80.00,3.00,0.00,30.07,M,10.00,M,CLR,M,M,M,M,M,M,M,M,M,M,M,M,M,M,73.40,KBAM 300455Z AUTO 08003KT 10SM CLR 23/M02 A3007 RMK AO1,M
BVU,2022-07-30 04:55,-114.8611,35.9475,671.00,M,M,M,M,M,0.00,M,M,M,M,M,M,M,M,M,M,M,M,M,M,M,M,M,M,M,M,KBVU 300455Z AUTO RMK AO2 PNO PWINO TSNO,M
RNO,2022-07-30 04:55,-119.7711,39.4839,1341.00,91.00,38.00,15.54,300.00,8.00,0.00,30.04,1009.60,10.00,M,FEW,M,M,M,16000.00,M,M,M,M,M,M,M,M,M,M,86.90,KRNO 300455Z 30008KT 10SM FEW160 33/03 A3004 RMK AO2 SLP096 T03280033,M
EKO,2022-07-30 04:56,-115.7860,40.8242,1367.00,77.00,41.00,27.53,80.00,4.00,0.00,30.11,1012.80,10.00,M,CLR,M,M,M,M,M,M,M,M,M,M,M,M,M,M,77.00,KEKO 300456Z AUTO 08004KT 10SM CLR 25/05 A3011 RMK AO2 SLP128 T02500050,M
LAS,2022-07-30 04:56,-115.1634,36.0719,663.00,80.00,67.00,64.14,140.00,7.00,T,30.02,1014.20,10.00,M,FEW,BKN,OVC,M,8000.00,11000.00,20000.00,M,M,M,M,M,M,M,M,82.40,KLAS 300456Z 14007KT 110V170 10SM FEW080 BKN110 OVC200 27/19 A3002 RMK AO2 LTG DSNT S-W RAE01B29E56 TSE35 SLP142 TS MOV S OCNL LTGIC DSNT S-W P0000 T02670194,M
HND,2022-07-30 04:56,-115.1344,35.9729,742.79,77.00,69.00,76.62,0.00,0.00,0.03,30.04,1016.30,10.00,M,FEW,SCT,BKN,M,3000.00,9500.00,11000.00,M,-RA,M,M,M,M,M,M,77.00,KHND 300456Z AUTO 00000KT 10SM -RA FEW030 SCT095 BKN110 25/21 A3004 RMK AO2 LTG DSNT S-W TSE34 SLP163 P0003 T02500206,M
TPH,2022-07-30 04:56,-117.0904,38.0505,1654.00,76.00,46.00,34.58,140.00,6.00,0.00,30.15,1011.90,10.00,M,CLR,M,M,M,M,M,M,M,M,M,M,M,M,M,M,75.90,KTPH 300456Z AUTO 14006KT 10SM CLR 24/08 A3015 RMK AO2 SLP119 T02440078,M
NFL,2022-07-30 04:56,-118.7010,39.4166,1199.00,82.00,35.00,18.54,360.00,5.00,0.00,29.97,1012.00,10.00,M,SCT,SCT,M,M,12000.00,18000.00,M,M,M,M,M,M,M,M,M,79.80,KNFL 300456Z 36005KT 10SM SCT120 SCT180 28/02 A2997 RMK AO2 SLP120 T02780017,M
WMC,2022-07-30 04:56,-117.8072,40.9019,1315.00,86.00,28.00,12.23,70.00,9.00,0.00,30.03,1010.30,10.00,M,CLR,M,M,M,M,M,M,M,M,M,M,M,M,M,M,82.50,KWMC 300456Z AUTO 07009KT 10SM CLR 30/M02 A3003 RMK AO2 SLP103 T03001022,M
INS,2022-07-30 04:58,-115.6733,36.5872,955.00,85.50,54.70,34.92,80.00,12.00,0.00,30.00,1010.80,10.00,M,OVC,M,M,M,18000.00,M,M,M,M,M,M,M,M,M,M,83.98,KINS 300458Z AUTO 08012KT 10SM OVC180 30/13 A3000 RMK AO2 SLP108 T02970126,M
LSV,2022-07-30 04:58,-115.0343,36.2362,570.00,78.00,71.00,79.10,120.00,7.00,T,29.98,1013.00,10.00,M,BKN,M,M,M,10000.00,M,M,M,M,M,M,M,30.00,90.00,2022-07-30 04:20,78.10,KLSV 300458Z 12007KT 10SM BKN100 26/22 A2998 RMK AO2A PK WND 09030/20 RAB0305RAE0450 PRESRR SLP130 P0000 T02560217 $,M
TMT,2022-07-30 05:15,-117.1971,39.4643,1749.34,M,M,M,0.00,0.00,0.00,30.17,M,10.00,M,CLR,M,M,M,M,M,M,M,M,M,M,M,M,M,M,M,KTMT 300515Z AUTO 00000KT 10SM CLR A3017 RMK AO2,M
BVU,2022-07-30 05:15,-114.8611,35.9475,671.00,M,M,M,M,M,0.00,M,M,M,M,M,M,M,M,M,M,M,M,M,M,M,M,M,M,M,M,KBVU 300515Z AUTO RMK AO2 PNO PWINO TSNO,M
CXP,2022-07-30 05:15,-119.7326,39.1923,1431.00,80.60,37.40,21.25,0.00,0.00,0.00,30.07,M,10.00,M,CLR,M,M,M,M,M,M,M,M,M,M,M,M,M,M,79.02,KCXP 300515Z AUTO 00000KT 10SM CLR 27/03 A3007 RMK AO2,M
RTS,2022-07-30 05:15,-119.8764,39.6682,1539.00,73.40,28.40,18.80,320.00,6.00,0.00,30.12,M,10.00,M,CLR,M,M,M,M,M,M,M,M,M,M,M,M,M,M,73.40,KRTS 300515Z AUTO 32006KT 10SM CLR 23/M02 A3012 RMK AO2,M
MEV,2022-07-30 05:15,-119.7500,38.9963,1441.42,71.60,42.80,35.37,120.00,5.00,0.00,30.06,M,10.00,M,CLR,M,M,M,M,M,M,M,M,M,M,M,M,M,M,71.60,KMEV 300515Z AUTO 12005KT 10SM CLR 22/06 A3006 RMK AO2,M
BAM,2022-07-30 05:15,-116.8743,40.5990,1382.36,80.60,28.40,14.81,290.00,5.00,0.00,30.08,M,10.00,M,CLR,M,M,M,M,M,M,M,M,M,M,M,M,M,M,78.72,KBAM 300515Z AUTO 29005KT 10SM CLR 27/M02 A3008 RMK AO1,M
HTH,2022-07-30 05:15,-118.6315,38.5448,1282.89,89.60,35.60,14.83,330.00,8.00,0.00,30.00,M,10.00,M,CLR,M,M,M,M,M,M,M,M,M,M,M,M,M,M,85.62,KHTH 300515Z AUTO 33008KT 10SM CLR 32/02 A3000 RMK A01,M
HTH,2022-07-30 05:35,-118.6315,38.5448,1282.89,87.80,37.40,16.86,M,4.00,0.00,30.02,M,10.00,M,CLR,M,M,M,M,M,M,M,M,M,M,M,M,M,M,84.16,KHTH 300535Z AUTO VRB04KT 10SM CLR 31/03 A3002 RMK A01,M
MEV,2022-07-30 05:35,-119.7500,38.9963,1441.42,69.80,37.40,30.49,100.00,8.00,0.00,30.07,M,10.00,M,CLR,M,M,M,M,M,M,M,M,M,M,M,M,M,M,69.80,KMEV 300535Z AUTO 10008KT 10SM CLR 21/03 A3007 RMK AO2,M
TMT,2022-07-30 05:35,-117.1971,39.4643,1749.34,M,M,M,60.00,5.00,0.00,30.18,M,10.00,M,CLR,M,M,M,M,M,M,M,M,M,M,M,M,M,M,M,KTMT 300535Z AUTO 06005KT 10SM CLR A3018 RMK AO2,M
RTS,2022-07-30 05:35,-119.8764,39.6682,1539.00,73.40,28.40,18.80,330.00,6.00,0.00,30.12,M,10.00,M,CLR,M,M,M,M,M,M,M,M,M,M,M,M,M,M,73.40,KRTS 300535Z AUTO 33006KT 10SM CLR 23/M02 A3012 RMK AO2,M
CXP,2022-07-30 05:35,-119.7326,39.1923,1431.00,80.60,37.40,21.25,130.00,4.00,0.00,30.08,M,10.00,M,CLR,M,M,M,M,M,M,M,M,M,M,M,M,M,M,79.02,KCXP 300535Z AUTO 13004KT 10SM CLR 27/03 A3008 RMK AO2,M
BAM,2022-07-30 05:35,-116.8743,40.5990,1382.36,82.40,30.20,15.03,30.00,4.00,0.00,30.08,M,10.00,M,CLR,M,M,M,M,M,M,M,M,M,M,M,M,M,M,79.97,KBAM 300535Z AUTO 03004KT 10SM CLR 28/M01 A3008 RMK AO1,M
BVU,2022-07-30 05:35,-114.8611,35.9475,671.00,M,M,M,M,M,0.00,M,M,M,M,M,M,M,M,M,M,M,M,M,M,M,M,M,M,M,M,KBVU 300535Z AUTO RMK AO2 PNO PWINO TSNO,M
CXP,2022-07-30 05:50,-119.7326,39.1923,1431.00,80.60,35.60,19.79,0.00,0.00,0.00,30.08,M,10.00,M,CLR,M,M,M,M,M,M,M,M,M,M,M,M,M,M,78.94,KCXP 300550Z AUTO 00000KT 10SM CLR 27/02 A3008 RMK AO2,M
ELY,2022-07-30 05:53,-114.8453,39.2950,1909.00,60.00,45.00,57.37,190.00,9.00,0.00,30.24,1013.20,10.00,M,CLR,M,M,M,M,M,M,M,M,M,M,M,M,M,M,60.10,KELY 300553Z AUTO 19009KT 10SM CLR 16/07 A3024 RMK AO2 SLP132 60000 T01560072 10300 20156 51013,M
VGT,2022-07-30 05:53,-115.1933,36.2111,667.00,80.00,65.00,59.83,200.00,8.00,0.00,30.01,1015.40,10.00,M,CLR,M,M,M,M,M,M,M,M,M,M,M,M,M,M,81.91,KVGT 300553Z AUTO 20008KT 10SM CLR 27/18 A3001 RMK AO2 SLP154 60000 T02670183 10367 20261 51028,M
LOL,2022-07-30 05:53,-118.5701,40.0684,1192.43,79.00,28.90,15.93,20.00,7.00,0.00,29.98,1009.70,10.00,M,CLR,M,M,M,M,M,M,M,M,M,M,M,M,M,M,79.00,KLOL 300553Z AUTO 02007KT 10SM CLR 26/M02 A2998 RMK AO2 SLP097 T02611017 10394 20256 51012,M
P68,2022-07-30 05:53,-116.0056,39.6014,1993.00,73.00,38.00,27.89,160.00,5.00,0.00,30.18,1012.00,M,M,M,M,M,M,M,M,M,M,M,M,M,M,M,M,M,73.00,KP68 300553Z AUTO 16005KT 23/03 A3018 RMK AO1 SLP120 T02280033 10333 20206 51013,M
DRA,2022-07-30 05:53,-116.0278,36.6206,1009.00,85.00,54.00,34.70,M,3.00,0.00,30.01,1010.60,10.00,M,CLR,M,M,M,M,M,M,M,M,M,M,M,M,M,M,83.37,KDRA 300553Z AUTO VRB03KT 10SM CLR 29/12 A3001 RMK AO2 SLP106 T02940122 10383 20294 53020,M
BVU,2022-07-30 05:55,-114.8611,35.9475,671.00,M,M,M,M,M,0.00,M,M,M,M,M,M,M,M,M,M,M,M,M,M,M,M,M,M,M,M,KBVU 300555Z AUTO RMK AO2 PNO PWINO TSNO,M
RNO,2022-07-30 05:55,-119.7711,39.4839,1341.00,88.00,39.00,17.83,300.00,4.00,0.00,30.05,1010.00,10.00,M,FEW,M,M,M,18000.00,M,M,M,M,M,M,M,M,M,M,84.38,KRNO 300555Z 30004KT 10SM FEW180 31/04 A3005 RMK AO2 SLP100 T03110039 10378 20311 53014,M
TMT,2022-07-30 05:55,-117.1971,39.4643,1749.34,M,M,M,20.00,5.00,0.00,30.18,M,10.00,M,CLR,M,M,M,M,M,M,M,M,M,M,M,M,M,M,M,KTMT 300555Z AUTO 02005KT 10SM CLR A3018 RMK AO2,M
HTH,2022-07-30 05:55,-118.6315,38.5448,1282.89,91.40,32.00,12.14,0.00,0.00,0.00,30.01,M,10.00,M,FEW,SCT,M,M,6500.00,11000.00,M,M,M,M,M,M,M,M,M,86.91,KHTH 300555Z AUTO 00000KT 10SM FEW065 SCT110 33/M00 A3001 RMK A01,M
BAM,2022-07-30 05:55,-116.8743,40.5990,1382.36,80.60,30.20,15.94,70.00,6.00,0.00,30.07,M,10.00,M,CLR,M,M,M,M,M,M,M,M,M,M,M,M,M,M,78.77,KBAM 300555Z AUTO 07006KT 10SM CLR 27/M01 A3007 RMK AO1,M
MEV,2022-07-30 05:55,-119.7500,38.9963,1441.42,68.00,39.20,34.80,160.00,7.00,0.00,30.07,M,10.00,M,FEW,FEW,M,M,3600.00,4300.00,M,M,M,M,M,M,M,M,M,68.00,KMEV 300555Z AUTO 16007KT 10SM FEW036 FEW043 20/04 A3007 RMK AO2,M
RTS,2022-07-30 05:55,-119.8764,39.6682,1539.00,73.40,28.40,18.80,340.00,5.00,0.00,30.12,M,10.00,M,CLR,M,M,M,M,M,M,M,M,M,M,M,M,M,M,73.40,KRTS 300555Z AUTO 34005KT 10SM CLR 23/M02 A3012 RMK AO2,M
LAS,2022-07-30 05:56,-115.1634,36.0719,663.00,78.00,67.00,68.49,250.00,3.00,0.00,30.01,1013.70,10.00,M,BKN,BKN,M,M,11000.00,20000.00,M,M,M,M,M,M,M,M,M,78.10,KLAS 300556Z 25003KT 10SM BKN110 BKN200 26/19 A3001 RMK AO2 SLP137 60003 T02560194 10372 20250 50037,M
HND,2022-07-30 05:56,-115.1344,35.9729,742.79,78.00,70.00,76.19,190.00,8.00,T,30.05,1016.40,10.00,M,FEW,OVC,M,M,7500.00,11000.00,M,M,-RA,M,M,M,M,M,M,78.10,KHND 300556Z AUTO 19008KT 10SM -RA FEW075 OVC110 26/21 A3005 RMK AO2 LTG DSNT S RAE00B38 SLP164 P0000 60006 T02560211 10372 20244 51046,M
NFL,2022-07-30 05:56,-118.7010,39.4166,1199.00,78.00,36.00,21.83,30.00,6.00,0.00,29.97,1012.00,10.00,M,FEW,M,M,M,14000.00,M,M,M,M,M,M,M,M,M,M,78.10,KNFL 300556Z 03006KT 10SM FEW140 26/02 A2997 RMK AO2 SLP120 T02560022 10406 20256 51008,M
TPH,2022-07-30 05:56,-117.0904,38.0505,1654.00,72.00,48.00,42.51,0.00,0.00,0.00,30.16,1012.20,10.00,M,CLR,M,M,M,M,M,M,M,M,M,M,M,M,M,M,72.00,KTPH 300556Z AUTO 00000KT 10SM CLR 22/09 A3016 RMK AO2 SLP122 T02220089 10344 20217 51017,M
WMC,2022-07-30 05:56,-117.8072,40.9019,1315.00,84.00,27.00,12.52,50.00,9.00,0.00,30.04,1010.50,10.00,M,CLR,M,M,M,M,M,M,M,M,M,M,M,M,M,M,81.03,KWMC 300556Z AUTO 05009KT 10SM CLR 29/M03 A3004 RMK AO2 SLP105 T02891028 10389 20289 51012,M
EKO,2022-07-30 05:56,-115.7860,40.8242,1367.00,77.00,40.00,26.38,80.00,7.00,0.00,30.12,1012.70,10.00,M,CLR,M,M,M,M,M,M,M,M,M,M,M,M,M,M,77.00,KEKO 300556Z AUTO 08007KT 10SM CLR 25/04 A3012 RMK AO2 SLP127 T02500044 10350 20244 51017,M
LSV,2022-07-30 05:58,-115.0343,36.2362,570.00,78.40,74.50,87.84,210.00,7.00,0.00,29.99,1013.10,10.00,M,BKN,M,M,M,13000.00,M,M,M,M,M,M,M,M,M,M,78.40,KLSV 300558Z 21007KT 10SM BKN130 26/24 A2999 RMK AO2A SLP131 60013 T02580236 10374 20246 53029 $,M
INS,2022-07-30 05:58,-115.6733,36.5872,955.00,84.70,55.00,36.09,120.00,14.00,0.00,30.01,1010.90,10.00,M,BKN,M,M,M,19000.00,M,M,M,M,M,M,M,26.00,130.00,2022-07-30 05:49,83.38,KINS 300558Z AUTO 12014KT 10SM BKN190 29/13 A3001 RMK AO2 PK WND 13026/49 SLP109 T02930127 10361 20292 52017,M
CXP,2022-07-30 06:10,-119.7326,39.1923,1431.00,82.40,35.60,18.67,250.00,4.00,0.00,30.08,M,10.00,M,CLR,M,M,M,M,M,M,M,M,M,M,M,M,M,M,80.08,KCXP 300610Z AUTO 25004KT 10SM CLR 28/02 A3008 RMK AO2,M
RTS,2022-07-30 06:15,-119.8764,39.6682,1539.00,73.40,28.40,18.80,330.00,4.00,0.00,30.12,M,10.00,M,CLR,M,M,M,M,M,M,M,M,M,M,M,M,M,M,73.40,KRTS 300615Z AUTO 33004KT 10SM CLR 23/M02 A3012 RMK AO2,M
HTH,2022-07-30 06:15,-118.6315,38.5448,1282.89,89.60,37.40,15.92,240.00,6.00,0.00,30.01,M,10.00,M,FEW,M,M,M,11000.00,M,M,M,M,M,M,M,M,M,M,85.67,KHTH 300615Z AUTO 24006KT 10SM FEW110 32/03 A3001 RMK A01,M
BAM,2022-07-30 06:15,-116.8743,40.5990,1382.36,80.60,32.00,17.14,70.00,12.00,0.00,30.07,M,10.00,M,CLR,M,M,M,M,M,M,M,M,M,M,M,M,M,M,78.82,KBAM 300615Z AUTO 07012KT 10SM CLR 27/00 A3007 RMK AO1,M
BVU,2022-07-30 06:15,-114.8611,35.9475,671.00,M,M,M,M,M,0.00,M,M,M,M,M,M,M,M,M,M,M,M,M,M,M,M,M,M,M,M,KBVU 300615Z AUTO RMK AO2 PNO PWINO TSNO,M
TMT,2022-07-30 06:15,-117.1971,39.4643,1749.34,66.20,31.60,27.39,10.00,7.00,0.00,30.18,M,10.00,M,CLR,M,M,M,M,M,M,M,M,M,M,M,M,M,M,66.20,KTMT 300615Z AUTO 01007KT 10SM CLR 19/00 A3018 RMK AO2 T01901002,M
MEV,2022-07-30 06:15,-119.7500,38.9963,1441.42,68.00,41.00,37.32,170.00,8.00,0.00,30.08,M,10.00,M,FEW,SCT,M,M,3600.00,4300.00,M,M,M,M,M,M,M,M,M,68.00,KMEV 300615Z AUTO 17008KT 10SM FEW036 SCT043 20/05 A3008 RMK AO2,M
CXP,2022-07-30 06:30,-119.7326,39.1923,1431.00,80.60,37.40,21.25,120.00,4.00,0.00,30.09,M,10.00,M,CLR,M,M,M,M,M,M,M,M,M,M,M,M,M,M,79.02,KCXP 300630Z AUTO 12004KT 10SM CLR 27/03 A3009 RMK AO2,M
HTH,2022-07-30 06:35,-118.6315,38.5448,1282.89,89.60,37.40,15.92,170.00,3.00,0.00,30.02,M,10.00,M,CLR,M,M,M,M,M,M,M,M,M,M,M,M,M,M,85.67,KHTH 300635Z AUTO 17003KT 10SM CLR 32/03 A3002 RMK A01,M
TMT,2022-07-30 06:35,-117.1971,39.4643,1749.34,M,M,M,10.00,6.00,0.00,30.19,M,10.00,M,CLR,M,M,M,M,M,M,M,M,M,M,M,M,M,M,M,KTMT 300635Z AUTO 01006KT 10SM CLR A3019 RMK AO2,M
BAM,2022-07-30 06:35,-116.8743,40.5990,1382.36,82.40,35.60,18.67,70.00,10.00,0.00,30.08,M,10.00,M,CLR,M,M,M,M,M,M,M,M,M,M,M,M,M,M,80.08,KBAM 300635Z AUTO 07010KT 10SM CLR 28/02 A3008 RMK AO1,M
MEV,2022-07-30 06:35,-119.7500,38.9963,1441.42,68.00,41.00,37.32,140.00,5.00,0.00,30.08,M,10.00,M,FEW,SCT,SCT,M,3000.00,3800.00,4500.00,M,M,M,M,M,M,M,M,68.00,KMEV 300635Z AUTO 14005KT 10SM FEW030 SCT038 SCT045 20/05 A3008 RMK AO2,M
RTS,2022-07-30 06:35,-119.8764,39.6682,1539.00,75.20,28.40,17.70,0.00,0.00,0.00,30.12,M,10.00,M,CLR,M,M,M,M,M,M,M,M,M,M,M,M,M,M,75.20,KRTS 300635Z AUTO 00000KT 10SM CLR 24/M02 A3012 RMK AO2,M
BVU,2022-07-30 06:35,-114.8611,35.9475,671.00,M,M,M,M,M,0.00,M,M,M,M,M,M,M,M,M,M,M,M,M,M,M,M,M,M,M,M,KBVU 300635Z AUTO RMK AO2 PNO PWINO TSNO,M
CXP,2022-07-30 06:50,-119.7326,39.1923,1431.00,77.00,37.40,23.93,0.00,0.00,0.00,30.09,M,10.00,M,CLR,M,M,M,M,M,M,M,M,M,M,M,M,M,M,77.00,KCXP 300650Z AUTO 00000KT 10SM CLR 25/03 A3009 RMK AO2,M
LOL,2022-07-30 06:53,-118.5701,40.0684,1192.43,69.00,33.00,26.32,170.00,6.00,0.00,30.00,1010.60,10.00,M,CLR,M,M,M,M,M,M,M,M,M,M,M,M,M,M,69.10,KLOL 300653Z AUTO 17006KT 10SM CLR 21/01 A3000 RMK AO2 SLP106 T02060006,M
P68,2022-07-30 06:53,-116.0056,39.6014,1993.00,67.00,38.00,34.35,170.00,6.00,0.00,30.19,1012.60,M,M,M,M,M,M,M,M,M,M,M,M,M,M,M,M,M,66.90,KP68 300653Z AUTO 17006KT 19/03 A3019 RMK AO1 SLP126 T01940033,M
ELY,2022-07-30 06:53,-114.8453,39.2950,1909.00,57.00,45.00,64.12,0.00,0.00,0.00,30.25,1013.50,10.00,M,CLR,M,M,M,M,M,M,M,M,M,M,M,M,M,M,57.00,KELY 300653Z AUTO 00000KT 10SM CLR 14/07 A3025 RMK AO2 SLP135 T01390072 403330128,M
DRA,2022-07-30 06:53,-116.0278,36.6206,1009.00,83.00,55.00,38.38,200.00,3.00,0.00,30.02,1010.90,10.00,M,CLR,M,M,M,M,M,M,M,M,M,M,M,M,M,M,82.03,KDRA 300653Z AUTO 20003KT 10SM CLR 28/13 A3002 RMK AO2 SLP109 T02830128,M
VGT,2022-07-30 06:53,-115.1933,36.2111,667.00,82.00,64.00,54.50,120.00,6.00,0.00,30.00,1014.80,10.00,M,CLR,M,M,M,M,M,M,M,M,M,M,M,M,M,M,83.47,KVGT 300653Z AUTO 12006KT 10SM CLR 28/18 A3000 RMK AO2 SLP148 T02780178,M
MEV,2022-07-30 06:55,-119.7500,38.9963,1441.42,64.40,37.40,36.74,120.00,7.00,0.00,30.09,M,10.00,M,FEW,M,M,M,4100.00,M,M,M,M,M,M,M,M,M,M,64.40,KMEV 300655Z AUTO 12007KT 10SM FEW041 18/03 A3009 RMK AO2,M
TMT,2022-07-30 06:55,-117.1971,39.4643,1749.34,M,M,M,360.00,7.00,0.00,30.19,M,10.00,M,CLR,M,M,M,M,M,M,M,M,M,M,M,M,M,M,M,KTMT 300655Z AUTO 36007KT 10SM CLR A3019 RMK AO2,M
BAM,2022-07-30 06:55,-116.8743,40.5990,1382.36,80.60,35.60,19.79,60.00,9.00,0.00,30.08,M,10.00,M,CLR,M,M,M,M,M,M,M,M,M,M,M,M,M,M,78.94,KBAM 300655Z AUTO 06009KT 10SM CLR 27/02 A3008 RMK AO1,M
RNO,2022-07-30 06:55,-119.7711,39.4839,1341.00,85.00,40.00,20.39,0.00,0.00,0.00,30.06,1010.50,10.00,M,FEW,FEW,M,M,12000.00,17000.00,M,M,M,M,M,M,M,M,M,81.98,KRNO 300655Z 00000KT 10SM FEW120 FEW170 29/04 A3006 RMK AO2 SLP105 T02940044,M
HTH,2022-07-30 06:55,-118.6315,38.5448,1282.89,87.80,35.60,15.70,240.00,4.00,0.00,30.01,M,10.00,M,FEW,M,M,M,11000.00,M,M,M,M,M,M,M,M,M,M,84.12,KHTH 300655Z AUTO 24004KT 10SM FEW110 31/02 A3001 RMK A01,M
BVU,2022-07-30 06:55,-114.8611,35.9475,671.00,M,M,M,M,M,0.00,M,M,M,M,M,M,M,M,M,M,M,M,M,M,M,M,M,M,M,M,KBVU 300655Z AUTO RMK AO2 PNO PWINO TSNO,M
RTS,2022-07-30 06:55,-119.8764,39.6682,1539.00,77.00,30.20,17.94,0.00,0.00,0.00,30.13,M,10.00,M,CLR,M,M,M,M,M,M,M,M,M,M,M,M,M,M,77.00,KRTS 300655Z AUTO 00000KT 10SM CLR 25/M01 A3013 RMK AO2,M
EKO,2022-07-30 06:56,-115.7860,40.8242,1367.00,71.00,42.00,35.02,0.00,0.00,0.00,30.14,1013.30,10.00,M,CLR,M,M,M,M,M,M,M,M,M,M,M,M,M,M,71.10,KEKO 300656Z AUTO 00000KT 10SM CLR 22/06 A3014 RMK AO2 SLP133 T02170056,M
LAS,2022-07-30 06:56,-115.1634,36.0719,663.00,79.00,67.00,66.49,160.00,4.00,0.00,30.01,1013.60,10.00,M,BKN,BKN,M,M,11000.00,20000.00,M,M,M,M,M,M,M,M,M,79.00,KLAS 300656Z 16004KT 10SM BKN110 BKN200 26/19 A3001 RMK AO2 SLP136 T02610194,M
NFL,2022-07-30 06:56,-118.7010,39.4166,1199.00,79.00,35.00,20.45,0.00,0.00,0.00,29.99,1012.50,10.00,M,FEW,M,M,M,15000.00,M,M,M,M,M,M,M,M,M,M,79.00,KNFL 300656Z 00000KT 10SM FEW150 26/02 A2999 RMK AO2 SLP125 T02610017,M
TPH,2022-07-30 06:56,-117.0904,38.0505,1654.00,68.00,49.00,50.40,300.00,5.00,0.00,30.17,1012.60,10.00,M,CLR,M,M,M,M,M,M,M,M,M,M,M,M,M,M,68.00,KTPH 300656Z AUTO 30005KT 10SM CLR 20/09 A3017 RMK AO2 SLP126 T02000094,M
HND,2022-07-30 06:56,-115.1344,35.9729,742.79,77.00,70.00,79.02,180.00,5.00,T,30.04,1016.20,10.00,M,BKN,M,M,M,8500.00,M,M,M,-RA,M,M,M,M,M,M,77.00,KHND 300656Z AUTO 18005KT 10SM -RA BKN085 25/21 A3004 RMK AO2 SLP162 P0000 T02500211 403720233,M
WMC,2022-07-30 06:56,-117.8072,40.9019,1315.00,81.00,27.00,13.80,50.00,8.00,0.00,30.04,1010.60,10.00,M,CLR,M,M,M,M,M,M,M,M,M,M,M,M,M,M,78.96,KWMC 300656Z AUTO 05008KT 10SM CLR 27/M03 A3004 RMK AO2 SLP106 T02721028,M
LSV,2022-07-30 06:58,-115.0343,36.2362,570.00,77.50,77.50,100.00,0.00,0.00,0.00,29.99,1013.20,10.00,M,BKN,M,M,M,16000.00,M,M,M,M,M,M,M,M,M,M,77.50,KLSV 300658Z 00000KT 10SM BKN160 25/25 A2999 RMK AO2A SLP132 T02530253 $,M
INS,2022-07-30 06:58,-115.6733,36.5872,955.00,82.40,54.00,37.75,110.00,16.00,0.00,30.01,1010.90,10.00,M,CLR,M,M,M,M,M,M,M,M,M,M,M,M,M,M,81.53,KINS 300658Z AUTO 11016KT 10SM CLR 28/12 A3001 RMK AO2 SLP109 T02800123,M
CXP,2022-07-30 07:10,-119.7326,39.1923,1431.00,75.20,37.40,25.40,M,5.00,0.00,30.10,M,10.00,M,CLR,M,M,M,M,M,M,M,M,M,M,M,M,M,M,75.20,KCXP 300710Z AUTO VRB05KT 10SM CLR 24/03 A3010 RMK AO2,M
MEV,2022-07-30 07:15,-119.7500,38.9963,1441.42,64.40,39.20,39.43,110.00,9.00,0.00,30.09,M,10.00,M,CLR,M,M,M,M,M,M,M,M,M,M,M,M,M,M,64.40,KMEV 300715Z AUTO 11009KT 10SM CLR 18/04 A3009 RMK AO2,M
TMT,2022-07-30 07:15,-117.1971,39.4643,1749.34,M,M,M,10.00,5.00,0.00,30.19,M,10.00,M,CLR,M,M,M,M,M,M,M,M,M,M,M,M,M,M,M,KTMT 300715Z AUTO 01005KT 10SM CLR A3019 RMK AO2,M
HTH,2022-07-30 07:15,-118.6315,38.5448,1282.89,87.80,33.80,14.61,0.00,0.00,0.00,30.01,M,10.00,M,CLR,M,M,M,M,M,M,M,M,M,M,M,M,M,M,84.10,KHTH 300715Z AUTO 00000KT 10SM CLR 31/01 A3001 RMK A01,M
BAM,2022-07-30 07:15,-116.8743,40.5990,1382.36,77.00,37.40,23.93,80.00,4.00,0.00,30.08,M,10.00,M,CLR,M,M,M,M,M,M,M,M,M,M,M,M,M,M,77.00,KBAM 300715Z AUTO 08004KT 10SM CLR 25/03 A3008 RMK AO1,M
RTS,2022-07-30 07:15,-119.8764,39.6682,1539.00,77.00,30.20,17.94,0.00,0.00,0.00,30.13,M,10.00,M,CLR,M,M,M,M,M,M,M,M,M,M,M,M,M,M,77.00,KRTS 300715Z AUTO 00000KT 10SM CLR 25/M01 A3013 RMK AO2,M
BVU,2022-07-30 07:15,-114.8611,35.9475,671.00,M,M,M,M,M,0.00,M,M,M,M,M,M,M,M,M,M,M,M,M,M,M,M,M,M,M,M,KBVU 300715Z AUTO RMK AO2 PNO PWINO TSNO,M
CXP,2022-07-30 07:30,-119.7326,39.1923,1431.00,78.80,35.60,21.00,0.00,0.00,0.00,30.09,M,10.00,M,CLR,M,M,M,M,M,M,M,M,M,M,M,M,M,M,78.80,KCXP 300730Z AUTO 00000KT 10SM CLR 26/02 A3009 RMK AO2,M
BVU,2022-07-30 07:35,-114.8611,35.9475,671.00,M,M,M,M,M,0.00,M,M,M,M,M,M,M,M,M,M,M,M,M,M,M,M,M,M,M,M,KBVU 300735Z AUTO RMK AO2 PNO PWINO TSNO,M
RTS,2022-07-30 07:35,-119.8764,39.6682,1539.00,69.80,28.40,21.24,340.00,5.00,0.00,30.13,M,10.00,M,CLR,M,M,M,M,M,M,M,M,M,M,M,M,M,M,69.80,KRTS 300735Z AUTO 34005KT 10SM CLR 21/M02 A3013 RMK AO2,M
HTH,2022-07-30 07:35,-118.6315,38.5448,1282.89,84.20,35.60,17.61,100.00,3.00,0.00,30.01,M,10.00,M,CLR,M,M,M,M,M,M,M,M,M,M,M,M,M,M,81.34,KHTH 300735Z AUTO 10003KT 10SM CLR 29/02 A3001 RMK A01,M
MEV,2022-07-30 07:35,-119.7500,38.9963,1441.42,62.60,35.60,36.45,0.00,0.00,0.00,30.09,M,10.00,M,CLR,M,M,M,M,M,M,M,M,M,M,M,M,M,M,62.60,KMEV 300735Z AUTO 00000KT 10SM CLR 17/02 A3009 RMK AO2,M
BAM,2022-07-30 07:35,-116.8743,40.5990,1382.36,73.40,35.60,25.13,70.00,6.00,0.00,30.08,M,10.00,M,CLR,M,M,M,M,M,M,M,M,M,M,M,M,M,M,73.40,KBAM 300735Z AUTO 07006KT 10SM CLR 23/02 A3008 RMK AO1,M
TMT,2022-07-30 07:35,-117.1971,39.4643,1749.34,63.70,29.80,27.78,190.00,4.00,0.00,30.19,M,10.00,M,CLR,M,M,M,M,M,M,M,M,M,M,M,M,M,M,63.70,KTMT 300735Z AUTO 19004KT 10SM CLR 18/M01 A3019 RMK AO2 T01761012,M
CXP,2022-07-30 07:50,-119.7326,39.1923,1431.00,77.00,37.40,23.93,0.00,0.00,0.00,30.10,M,10.00,M,CLR,M,M,M,M,M,M,M,M,M,M,M,M,M,M,77.00,KCXP 300750Z AUTO 00000KT 10SM CLR 25/03 A3010 RMK AO2,M
P68,2022-07-30 07:53,-116.0056,39.6014,1993.00,64.00,37.00,36.68,180.00,7.00,0.00,30.20,1012.90,M,M,M,M,M,M,M,M,M,M,M,M,M,M,M,M,M,64.00,KP68 300753Z AUTO 18007KT 18/03 A3020 RMK AO1 SLP129 T01780028 403500117,M
LOL,2022-07-30 07:53,-118.5701,40.0684,1192.43,69.00,28.90,22.21,320.00,5.00,0.00,30.00,1010.70,10.00,M,CLR,M,M,M,M,M,M,M,M,M,M,M,M,M,M,69.10,KLOL 300753Z AUTO 32005KT 10SM CLR 21/M02 A3000 RMK AO2 SLP107 T02061017 404060167,M
ELY,2022-07-30 07:53,-114.8453,39.2950,1909.00,58.00,46.00,64.47,160.00,7.00,0.00,30.25,1013.40,10.00,M,CLR,M,M,M,M,M,M,M,M,M,M,M,M,M,M,57.90,KELY 300753Z AUTO 16007KT 10SM CLR 14/08 A3025 RMK AO2 SLP134 T01440078,M
VGT,2022-07-30 07:53,-115.1933,36.2111,667.00,80.00,65.00,59.83,90.00,6.00,0.00,29.99,1014.60,10.00,M,CLR,M,M,M,M,M,M,M,M,M,M,M,M,M,M,81.91,KVGT 300753Z AUTO 09006KT 10SM CLR 27/18 A2999 RMK AO2 SLP146 T02670183 403670244,M
DRA,2022-07-30 07:53,-116.0278,36.6206,1009.00,79.00,61.00,54.08,270.00,4.00,0.00,30.03,1011.40,10.00,M,CLR,M,M,M,M,M,M,M,M,M,M,M,M,M,M,79.00,KDRA 300753Z AUTO 27004KT 10SM CLR 26/16 A3003 RMK AO2 SLP114 T02610161 403890233,M
RNO,2022-07-30 07:55,-119.7711,39.4839,1341.00,82.00,41.00,23.37,270.00,5.00,0.00,30.06,1010.40,10.00,M,FEW,M,M,M,20000.00,M,M,M,M,M,M,M,M,M,M,80.04,KRNO 300755Z 27005KT 10SM FEW200 28/05 A3006 RMK AO2 SLP104 T02780050 404000194,M
BAM,2022-07-30 07:55,-116.8743,40.5990,1382.36,71.60,35.60,26.71,0.00,0.00,0.00,30.09,M,10.00,M,CLR,M,M,M,M,M,M,M,M,M,M,M,M,M,M,71.60,KBAM 300755Z AUTO 00000KT 10SM CLR 22/02 A3009 RMK AO1,M
MEV,2022-07-30 07:55,-119.7500,38.9963,1441.42,62.60,37.40,39.14,0.00,0.00,0.00,30.09,M,10.00,M,FEW,M,M,M,5000.00,M,M,M,M,M,M,M,M,M,M,62.60,KMEV 300755Z AUTO 00000KT 10SM FEW050 17/03 A3009 RMK AO2,M
HTH,2022-07-30 07:55,-118.6315,38.5448,1282.89,84.20,33.80,16.39,130.00,6.00,0.00,30.01,M,10.00,M,CLR,M,M,M,M,M,M,M,M,M,M,M,M,M,M,81.30,KHTH 300755Z AUTO 13006KT 10SM CLR 29/01 A3001 RMK A01,M
TMT,2022-07-30 07:55,-117.1971,39.4643,1749.34,M,M,M,200.00,6.00,0.00,30.19,M,10.00,M,CLR,M,M,M,M,M,M,M,M,M,M,M,M,M,M,M,KTMT 300755Z AUTO 20006KT 10SM CLR A3019 RMK AO2,M
BVU,2022-07-30 07:55,-114.8611,35.9475,671.00,M,M,M,M,M,0.00,M,M,M,M,M,M,M,M,M,M,M,M,M,M,M,M,M,M,M,M,KBVU 300755Z AUTO RMK AO2 PNO PWINO TSNO,M
RTS,2022-07-30 07:55,-119.8764,39.6682,1539.00,69.80,48.20,46.16,140.00,4.00,0.00,30.13,M,10.00,M,CLR,M,M,M,M,M,M,M,M,M,M,M,M,M,M,69.80,KRTS 300755Z AUTO 14004KT 10SM CLR 21/09 A3013 RMK AO2,M
LAS,2022-07-30 07:56,-115.1634,36.0719,663.00,80.00,68.00,66.62,180.00,3.00,0.00,30.00,1013.20,10.00,M,BKN,BKN,M,M,14000.00,20000.00,M,M,M,M,M,M,M,M,M,82.70,KLAS 300756Z 18003KT 10SM BKN140 BKN200 27/20 A3000 RMK AO2 SLP132 T02670200 403720239,M
WMC,2022-07-30 07:56,-117.8072,40.9019,1315.00,81.00,28.00,14.38,70.00,7.00,0.00,30.05,1010.80,10.00,M,CLR,M,M,M,M,M,M,M,M,M,M,M,M,M,M,78.98,KWMC 300756Z AUTO 07007KT 10SM CLR 27/M02 A3005 RMK AO2 SLP108 T02721022 404000167,M
TPH,2022-07-30 07:56,-117.0904,38.0505,1654.00,69.00,46.00,43.52,30.00,3.00,0.00,30.18,1012.80,10.00,M,CLR,M,M,M,M,M,M,M,M,M,M,M,M,M,M,69.10,KTPH 300756Z AUTO 03003KT 10SM CLR 21/08 A3018 RMK AO2 SLP128 T02060078 403560189,M
HND,2022-07-30 07:56,-115.1344,35.9729,742.79,76.00,69.00,79.47,200.00,4.00,0.01,30.03,1015.80,10.00,M,FEW,SCT,BKN,M,5500.00,7000.00,9000.00,M,-RA,M,M,M,M,M,M,75.90,KHND 300756Z AUTO 20004KT 10SM -RA FEW055 SCT070 BKN090 24/21 A3003 RMK AO2 SLP158 P0001 T02440206,M
EKO,2022-07-30 07:56,-115.7860,40.8242,1367.00,61.00,43.00,51.48,220.00,3.00,0.00,30.14,1015.10,10.00,M,CLR,M,M,M,M,M,M,M,M,M,M,M,M,M,M,61.00,KEKO 300756Z AUTO 22003KT 10SM CLR 16/06 A3014 RMK AO2 SLP151 T01610061 403560139,M
NFL,2022-07-30 07:56,-118.7010,39.4166,1199.00,74.00,36.00,25.11,280.00,4.00,0.00,29.99,1012.70,10.00,M,CLR,M,M,M,M,M,M,M,M,M,M,M,M,M,M,73.90,KNFL 300756Z AUTO 28004KT 10SM CLR 23/02 A2999 RMK AO2 SLP127 T02330022 404060172,M
LSV,2022-07-30 07:58,-115.0343,36.2362,570.00,78.00,78.00,100.00,70.00,3.00,0.00,29.98,1012.70,10.00,M,CLR,M,M,M,M,M,M,M,M,M,M,M,M,M,M,78.10,KLSV 300758Z AUTO 07003KT 10SM CLR 26/26 A2998 RMK AO2 SLP127 T02560256 403840241 $,M
INS,2022-07-30 07:58,-115.6733,36.5872,955.00,80.00,57.40,45.86,110.00,13.00,0.00,30.02,1011.10,10.00,M,CLR,M,M,M,M,M,M,M,M,M,M,M,M,M,M,80.50,KINS 300758Z AUTO 11013KT 10SM CLR 27/14 A3002 RMK AO2 SLP111 T02670141 403620222,M
CXP,2022-07-30 08:10,-119.7326,39.1923,1431.00,73.40,37.40,26.98,0.00,0.00,0.00,30.10,M,10.00,M,CLR,M,M,M,M,M,M,M,M,M,M,M,M,M,M,73.40,KCXP 300810Z AUTO 00000KT 10SM CLR 23/03 A3010 RMK AO2,M
MEV,2022-07-30 08:15,-119.7500,38.9963,1441.42,64.40,37.40,36.74,0.00,0.00,0.00,30.09,M,10.00,M,CLR,M,M,M,M,M,M,M,M,M,M,M,M,M,M,64.40,KMEV 300815Z AUTO 00000KT 10SM CLR 18/03 A3009 RMK AO2,M
BVU,2022-07-30 08:15,-114.8611,35.9475,671.00,M,M,M,M,M,0.00,M,M,M,M,M,M,M,M,M,M,M,M,M,M,M,M,M,M,M,M,KBVU 300815Z AUTO RMK AO2 PNO PWINO TSNO,M
RTS,2022-07-30 08:15,-119.8764,39.6682,1539.00,75.20,39.20,27.26,0.00,0.00,0.00,30.13,M,10.00,M,CLR,M,M,M,M,M,M,M,M,M,M,M,M,M,M,75.20,KRTS 300815Z AUTO 00000KT 10SM CLR 24/04 A3013 RMK AO2,M
BAM,2022-07-30 08:15,-116.8743,40.5990,1382.36,71.60,37.40,28.68,40.00,4.00,0.00,30.09,M,10.00,M,CLR,M,M,M,M,M,M,M,M,M,M,M,M,M,M,71.60,KBAM 300815Z AUTO 04004KT 10SM CLR 22/03 A3009 RMK AO1,M
HTH,2022-07-30 08:15,-118.6315,38.5448,1282.89,86.00,35.60,16.63,0.00,0.00,0.00,30.02,M,10.00,M,CLR,M,M,M,M,M,M,M,M,M,M,M,M,M,M,82.69,KHTH 300815Z AUTO 00000KT 10SM CLR 30/02 A3002 RMK A01,M
TMT,2022-07-30 08:15,-117.1971,39.4643,1749.34,57.60,30.90,36.08,250.00,6.00,0.00,30.19,M,10.00,M,CLR,M,M,M,M,M,M,M,M,M,M,M,M,M,M,57.60,KTMT 300815Z AUTO 25006KT 10SM CLR 14/M01 A3019 RMK AO2 T01421006,M
CXP,2022-07-30 08:30,-119.7326,39.1923,1431.00,71.60,37.40,28.68,0.00,0.00,0.00,30.10,M,10.00,M,CLR,M,M,M,M,M,M,M,M,M,M,M,M,M,M,71.60,KCXP 300830Z AUTO 00000KT 10SM CLR 22/03 A3010 RMK AO2,M
TMT,2022-07-30 08:35,-117.1971,39.4643,1749.34,M,M,M,230.00,5.00,0.00,30.20,M,10.00,M,CLR,M,M,M,M,M,M,M,M,M,M,M,M,M,M,M,KTMT 300835Z AUTO 23005KT 10SM CLR A3020 RMK AO2,M
HTH,2022-07-30 08:35,-118.6315,38.5448,1282.89,84.20,33.80,16.39,0.00,0.00,0.00,30.03,M,10.00,M,CLR,M,M,M,M,M,M,M,M,M,M,M,M,M,M,81.30,KHTH 300835Z AUTO 00000KT 10SM CLR 29/01 A3003 RMK A01,M
MEV,2022-07-30 08:35,-119.7500,38.9963,1441.42,60.80,37.40,41.71,0.00,0.00,0.00,30.09,M,10.00,M,CLR,M,M,M,M,M,M,M,M,M,M,M,M,M,M,60.80,KMEV 300835Z AUTO 00000KT 10SM CLR 16/03 A3009 RMK AO2,M
RTS,2022-07-30 08:35,-119.8764,39.6682,1539.00,71.60,33.80,24.86,340.00,6.00,0.00,30.13,M,10.00,M,CLR,M,M,M,M,M,M,M,M,M,M,M,M,M,M,71.60,KRTS 300835Z AUTO 34006KT 10SM CLR 22/01 A3013 RMK AO2,M
BAM,2022-07-30 08:35,-116.8743,40.5990,1382.36,77.00,39.20,25.67,100.00,5.00,0.00,30.09,M,10.00,M,CLR,M,M,M,M,M,M,M,M,M,M,M,M,M,M,77.00,KBAM 300835Z AUTO 10005KT 10SM CLR 25/04 A3009 RMK AO1,M
BVU,2022-07-30 08:35,-114.8611,35.9475,671.00,M,M,M,M,M,0.00,M,M,M,M,M,M,M,M,M,M,M,M,M,M,M,M,M,M,M,M,KBVU 300835Z AUTO RMK AO2 PNO PWINO TSNO,M
CXP,2022-07-30 08:50,-119.7326,39.1923,1431.00,71.60,37.40,28.68,0.00,0.00,0.00,30.10,M,10.00,M,CLR,M,M,M,M,M,M,M,M,M,M,M,M,M,M,71.60,KCXP 300850Z AUTO 00000KT 10SM CLR 22/03 A3010 RMK AO2,M
VGT,2022-07-30 08:53,-115.1933,36.2111,667.00,80.00,66.00,62.17,100.00,6.00,0.00,29.98,1014.00,10.00,M,CLR,M,M,M,M,M,M,M,M,M,M,M,M,M,M,82.17,KVGT 300853Z AUTO 10006KT 10SM CLR 27/19 A2998 RMK AO2 SLP140 T02670189 58010,M
DRA,2022-07-30 08:53,-116.0278,36.6206,1009.00,79.00,60.00,52.38,310.00,5.00,0.00,30.02,1010.90,10.00,M,CLR,M,M,M,M,M,M,M,M,M,M,M,M,M,M,79.00,KDRA 300853Z AUTO 31005KT 10SM CLR 26/16 A3002 RMK AO2 SLP109 T02610156 50004,M
LOL,2022-07-30 08:53,-118.5701,40.0684,1192.43,73.00,28.90,19.45,280.00,3.00,0.00,30.00,1010.50,10.00,M,CLR,M,M,M,M,M,M,M,M,M,M,M,M,M,M,73.00,KLOL 300853Z AUTO 28003KT 10SM CLR 23/M02 A3000 RMK AO2 SLP105 T02281017 51006,M
ELY,2022-07-30 08:53,-114.8453,39.2950,1909.00,54.00,45.00,71.50,170.00,10.00,0.00,30.25,1013.90,10.00,M,CLR,M,M,M,M,M,M,M,M,M,M,M,M,M,M,54.00,KELY 300853Z AUTO 17010KT 10SM CLR 12/07 A3025 RMK AO2 SLP139 T01220072 51005,M
P68,2022-07-30 08:53,-116.0056,39.6014,1993.00,63.00,39.00,41.09,150.00,4.00,0.00,30.20,1012.80,M,M,M,M,M,M,M,M,M,M,M,M,M,M,M,M,M,63.00,KP68 300853Z AUTO 15004KT 17/04 A3020 RMK AO1 SLP128 T01720039 51005,M
TMT,2022-07-30 08:55,-117.1971,39.4643,1749.34,57.20,30.00,35.29,220.00,7.00,0.00,30.20,M,10.00,M,CLR,M,M,M,M,M,M,M,M,M,M,M,M,M,M,57.20,KTMT 300855Z AUTO 22007KT 10SM CLR 14/M01 A3020 RMK AO2 T01401011,M
BVU,2022-07-30 08:55,-114.8611,35.9475,671.00,M,M,M,M,M,0.00,M,M,M,M,M,M,M,M,M,M,M,M,M,M,M,M,M,M,M,M,KBVU 300855Z AUTO RMK AO2 PNO PWINO TSNO,M
RTS,2022-07-30 08:55,-119.8764,39.6682,1539.00,69.80,32.00,24.59,360.00,5.00,0.00,30.13,M,10.00,M,CLR,M,M,M,M,M,M,M,M,M,M,M,M,M,M,69.80,KRTS 300855Z AUTO 36005KT 10SM CLR 21/00 A3013 RMK AO2,M
MEV,2022-07-30 08:55,-119.7500,38.9963,1441.42,60.80,35.60,38.85,0.00,0.00,0.00,30.09,M,10.00,M,FEW,M,M,M,4900.00,M,M,M,M,M,M,M,M,M,M,60.80,KMEV 300855Z AUTO 00000KT 10SM FEW049 16/02 A3009 RMK AO2,M
BAM,2022-07-30 08:55,-116.8743,40.5990,1382.36,73.40,37.40,26.98,0.00,0.00,0.00,30.09,M,10.00,M,CLR,M,M,M,M,M,M,M,M,M,M,M,M,M,M,73.40,KBAM 300855Z AUTO 00000KT 10SM CLR 23/03 A3009 RMK AO1,M
HTH,2022-07-30 08:55,-118.6315,38.5448,1282.89,82.40,33.80,17.38,210.00,4.00,0.00,30.03,M,10.00,M,CLR,M,M,M,M,M,M,M,M,M,M,M,M,M,M,80.03,KHTH 300855Z AUTO 21004KT 10SM CLR 28/01 A3003 RMK A01,M
RNO,2022-07-30 08:55,-119.7711,39.4839,1341.00,81.00,40.00,23.13,250.00,5.00,0.00,30.06,1010.50,10.00,M,CLR,M,M,M,M,M,M,M,M,M,M,M,M,M,M,79.37,KRNO 300855Z 25005KT 10SM CLR 27/04 A3006 RMK AO2 SLP105 T02720044 51005,M
TPH,2022-07-30 08:56,-117.0904,38.0505,1654.00,65.00,42.00,43.36,30.00,3.00,0.00,30.18,1014.00,10.00,M,CLR,M,M,M,M,M,M,M,M,M,M,M,M,M,M,64.90,KTPH 300856Z AUTO 03003KT 10SM CLR 18/06 A3018 RMK AO2 SLP140 T01830056 50006,M
WMC,2022-07-30 08:56,-117.8072,40.9019,1315.00,74.00,30.90,20.47,100.00,7.00,0.00,30.06,1011.20,10.00,M,CLR,M,M,M,M,M,M,M,M,M,M,M,M,M,M,73.90,KWMC 300856Z AUTO 10007KT 10SM CLR 23/M01 A3006 RMK AO2 SLP112 T02331006 52004,M
EKO,2022-07-30 08:56,-115.7860,40.8242,1367.00,63.00,43.00,47.97,0.00,0.00,0.00,30.14,1014.90,10.00,M,CLR,M,M,M,M,M,M,M,M,M,M,M,M,M,M,63.00,KEKO 300856Z AUTO 00000KT 10SM CLR 17/06 A3014 RMK AO2 SLP149 T01720061 51005,M
LAS,2022-07-30 08:56,-115.1634,36.0719,663.00,79.00,68.00,69.07,0.00,0.00,0.00,29.98,1012.60,10.00,M,BKN,BKN,M,M,14000.00,20000.00,M,M,M,M,M,M,M,M,M,79.00,KLAS 300856Z 00000KT 10SM BKN140 BKN200 26/20 A2998 RMK AO2 SLP126 T02610200 58007,M
NFL,2022-07-30 08:56,-118.7010,39.4166,1199.00,68.00,41.00,37.32,170.00,5.00,0.00,30.00,1012.90,10.00,M,CLR,M,M,M,M,M,M,M,M,M,M,M,M,M,M,68.00,KNFL 300856Z AUTO 17005KT 10SM CLR 20/05 A3000 RMK AO2 SLP129 T02000050 51009,M
HND,2022-07-30 08:56,-115.1344,35.9729,742.79,77.00,69.00,76.62,190.00,5.00,T,30.02,1015.20,10.00,M,CLR,M,M,M,M,M,M,M,M,M,M,M,M,M,M,77.00,KHND 300856Z AUTO 19005KT 10SM CLR 25/21 A3002 RMK AO2 RAE15 SLP152 P0000 60001 T02500206 58009,M
INS,2022-07-30 08:58,-115.6733,36.5872,955.00,79.20,57.70,47.75,110.00,9.00,0.00,30.01,1010.90,10.00,M,CLR,M,M,M,M,M,M,M,M,M,M,M,M,M,M,79.20,KINS 300858Z AUTO 11009KT 10SM CLR 26/14 A3001 RMK AO2 SLP109 T02620143 50001,M
LSV,2022-07-30 09:00,-115.0343,36.2362,570.00,78.80,78.80,100.00,0.00,0.00,0.00,29.98,M,10.00,M,BKN,M,M,M,20000.00,M,M,M,M,M,M,M,M,M,M,78.80,KLSV 300900Z 00000KT 10SM BKN200 26/26 A2998 RMK SLPNO WND DATA ESTMD $,M
CXP,2022-07-30 09:10,-119.7326,39.1923,1431.00,71.60,37.40,28.68,0.00,0.00,0.00,30.10,M,10.00,M,CLR,M,M,M,M,M,M,M,M,M,M,M,M,M,M,71.60,KCXP 300910Z AUTO 00000KT 10SM CLR 22/03 A3010 RMK AO2,M
HTH,2022-07-30 09:15,-118.6315,38.5448,1282.89,82.40,33.80,17.38,190.00,5.00,0.00,30.03,M,10.00,M,CLR,M,M,M,M,M,M,M,M,M,M,M,M,M,M,80.03,KHTH 300915Z AUTO 19005KT 10SM CLR 28/01 A3003 RMK A01,M
RTS,2022-07-30 09:15,-119.8764,39.6682,1539.00,68.00,32.00,26.15,340.00,9.00,0.00,30.12,M,10.00,M,CLR,M,M,M,M,M,M,M,M,M,M,M,M,M,M,68.00,KRTS 300915Z AUTO 34009KT 10SM CLR 20/M00 A3012 RMK AO2,M
BVU,2022-07-30 09:15,-114.8611,35.9475,671.00,M,M,M,M,M,0.00,M,M,M,M,M,M,M,M,M,M,M,M,M,M,M,M,M,M,M,M,KBVU 300915Z AUTO RMK AO2 PNO PWINO TSNO,M
TMT,2022-07-30 09:15,-117.1971,39.4643,1749.34,57.00,28.90,33.98,210.00,4.00,0.00,30.20,M,10.00,M,CLR,M,M,M,M,M,M,M,M,M,M,M,M,M,M,57.00,KTMT 300915Z AUTO 21004KT 10SM CLR 14/M02 A3020 RMK AO2 T01391017,M
MEV,2022-07-30 09:15,-119.7500,38.9963,1441.42,55.40,39.20,54.34,0.00,0.00,0.00,30.09,M,10.00,M,CLR,M,M,M,M,M,M,M,M,M,M,M,M,M,M,55.40,KMEV 300915Z AUTO 00000KT 10SM CLR 13/04 A3009 RMK AO2,M
BAM,2022-07-30 09:15,-116.8743,40.5990,1382.36,73.40,39.20,28.96,0.00,0.00,0.00,30.09,M,10.00,M,CLR,M,M,M,M,M,M,M,M,M,M,M,M,M,M,73.40,KBAM 300915Z AUTO 00000KT 10SM CLR 23/04 A3009 RMK AO1,M
CXP,2022-07-30 09:30,-119.7326,39.1923,1431.00,69.80,37.40,30.49,320.00,3.00,0.00,30.10,M,10.00,M,CLR,M,M,M,M,M,M,M,M,M,M,M,M,M,M,69.80,KCXP 300930Z AUTO 32003KT 10SM CLR 21/03 A3010 RMK AO2,M
RTS,2022-07-30 09:35,-119.8764,39.6682,1539.00,69.80,32.00,24.59,330.00,7.00,0.00,30.12,M,10.00,M,CLR,M,M,M,M,M,M,M,M,M,M,M,M,M,M,69.80,KRTS 300935Z AUTO 33007KT 10SM CLR 21/00 A3012 RMK AO2,M
TMT,2022-07-30 09:35,-117.1971,39.4643,1749.34,M,M,M,240.00,4.00,0.00,30.20,M,10.00,M,CLR,M,M,M,M,M,M,M,M,M,M,M,M,M,M,M,KTMT 300935Z AUTO 24004KT 10SM CLR A3020 RMK AO2,M
BVU,2022-07-30 09:35,-114.8611,35.9475,671.00,M,M,M,M,M,0.00,M,M,M,M,M,M,M,M,M,M,M,M,M,M,M,M,M,M,M,M,KBVU 300935Z AUTO RMK AO2 PNO PWINO TSNO,M
HTH,2022-07-30 09:35,-118.6315,38.5448,1282.89,82.40,33.80,17.38,240.00,4.00,0.00,30.02,M,10.00,M,CLR,M,M,M,M,M,M,M,M,M,M,M,M,M,M,80.03,KHTH 300935Z AUTO 24004KT 10SM CLR 28/01 A3002 RMK A01,M
BAM,2022-07-30 09:35,-116.8743,40.5990,1382.36,69.80,37.40,30.49,0.00,0.00,0.00,30.09,M,10.00,M,CLR,M,M,M,M,M,M,M,M,M,M,M,M,M,M,69.80,KBAM 300935Z AUTO 00000KT 10SM CLR 21/03 A3009 RMK AO1,M
MEV,2022-07-30 09:35,-119.7500,38.9963,1441.42,55.40,41.00,58.27,0.00,0.00,0.00,30.09,M,10.00,M,CLR,M,M,M,M,M,M,M,M,M,M,M,M,M,M,55.40,KMEV 300935Z AUTO 00000KT 10SM CLR 13/05 A3009 RMK AO2,M
CXP,2022-07-30 09:50,-119.7326,39.1923,1431.00,68.00,39.20,34.80,0.00,0.00,0.00,30.10,M,10.00,M,CLR,M,M,M,M,M,M,M,M,M,M,M,M,M,M,68.00,KCXP 300950Z AUTO 00000KT 10SM CLR 20/04 A3010 RMK AO2,M
DRA,2022-07-30 09:53,-116.0278,36.6206,1009.00,76.00,60.00,58.04,0.00,0.00,0.00,30.02,1011.10,10.00,M,CLR,M,M,M,M,M,M,M,M,M,M,M,M,M,M,75.90,KDRA 300953Z AUTO 00000KT 10SM CLR 24/16 A3002 RMK AO2 SLP111 T02440156,M
LOL,2022-07-30 09:53,-118.5701,40.0684,1192.43,68.00,30.00,24.12,0.00,0.00,0.00,30.01,1011.00,10.00,M,CLR,M,M,M,M,M,M,M,M,M,M,M,M,M,M,68.00,KLOL 300953Z AUTO 00000KT 10SM CLR 20/M01 A3001 RMK AO2 SLP110 T02001011,M
VGT,2022-07-30 09:53,-115.1933,36.2111,667.00,79.00,66.00,64.45,100.00,4.00,0.00,29.97,1013.80,10.00,M,CLR,M,M,M,M,M,M,M,M,M,M,M,M,M,M,79.00,KVGT 300953Z AUTO 10004KT 10SM CLR 26/19 A2997 RMK AO2 SLP138 T02610189,M
ELY,2022-07-30 09:53,-114.8453,39.2950,1909.00,54.00,44.00,69.09,170.00,10.00,0.00,30.25,1015.40,10.00,M,CLR,M,M,M,M,M,M,M,M,M,M,M,M,M,M,54.00,KELY 300953Z AUTO 17010KT 10SM CLR 12/07 A3025 RMK AO2 SLP154 T01220067,M
P68,2022-07-30 09:53,-116.0056,39.6014,1993.00,58.00,38.00,47.18,160.00,5.00,0.00,30.20,1013.30,M,M,M,M,M,M,M,M,M,M,M,M,M,M,M,M,M,57.90,KP68 300953Z AUTO 16005KT 14/03 A3020 RMK AO1 SLP133 T01440033,M
MEV,2022-07-30 09:55,-119.7500,38.9963,1441.42,55.40,39.20,54.34,110.00,5.00,0.00,30.09,M,10.00,M,CLR,M,M,M,M,M,M,M,M,M,M,M,M,M,M,55.40,KMEV 300955Z AUTO 11005KT 10SM CLR 13/04 A3009 RMK AO2,M
RTS,2022-07-30 09:55,-119.8764,39.6682,1539.00,71.60,35.60,26.71,0.00,0.00,0.00,30.13,M,10.00,M,CLR,M,M,M,M,M,M,M,M,M,M,M,M,M,M,71.60,KRTS 300955Z AUTO 00000KT 10SM CLR 22/02 A3013 RMK AO2,M
RNO,2022-07-30 09:55,-119.7711,39.4839,1341.00,78.00,41.00,26.55,280.00,3.00,0.00,30.07,1010.80,10.00,M,CLR,M,M,M,M,M,M,M,M,M,M,M,M,M,M,78.10,KRNO 300955Z 28003KT 10SM CLR 26/05 A3007 RMK AO2 SLP108 T02560050,M
BAM,2022-07-30 09:55,-116.8743,40.5990,1382.36,71.60,37.40,28.68,0.00,0.00,0.00,30.09,M,10.00,M,CLR,M,M,M,M,M,M,M,M,M,M,M,M,M,M,71.60,KBAM 300955Z AUTO 00000KT 10SM CLR 22/03 A3009 RMK AO1,M
HTH,2022-07-30 09:55,-118.6315,38.5448,1282.89,80.60,33.80,18.42,130.00,6.00,0.00,30.03,M,10.00,M,CLR,M,M,M,M,M,M,M,M,M,M,M,M,M,M,78.88,KHTH 300955Z AUTO 13006KT 10SM CLR 27/01 A3003 RMK A01,M
TMT,2022-07-30 09:55,-117.1971,39.4643,1749.34,53.00,31.10,42.83,220.00,5.00,0.00,30.20,M,10.00,M,CLR,M,M,M,M,M,M,M,M,M,M,M,M,M,M,53.10,KTMT 300955Z AUTO 22005KT 10SM CLR 12/00 A3020 RMK AO2 T01171005,M
BVU,2022-07-30 09:55,-114.8611,35.9475,671.00,M,M,M,M,M,0.00,M,M,M,M,M,M,M,M,M,M,M,M,M,M,M,M,M,M,M,M,KBVU 300955Z AUTO RMK AO2 PNO PWINO TSNO,M
HND,2022-07-30 09:56,-115.1344,35.9729,742.79,76.00,69.00,79.47,220.00,6.00,0.00,30.01,1015.00,10.00,M,CLR,M,M,M,M,M,M,M,M,M,M,M,M,M,M,75.90,KHND 300956Z AUTO 22006KT 10SM CLR 24/21 A3001 RMK AO2 SLP150 T02440206,M
NFL,2022-07-30 09:56,-118.7010,39.4166,1199.00,67.00,41.00,38.76,200.00,5.00,0.00,30.01,1013.30,10.00,M,CLR,M,M,M,M,M,M,M,M,M,M,M,M,M,M,66.90,KNFL 300956Z AUTO 20005KT 10SM CLR 19/05 A3001 RMK AO2 SLP133 T01940050,M
TPH,2022-07-30 09:56,-117.0904,38.0505,1654.00,65.00,42.00,43.36,20.00,6.00,0.00,30.19,1013.80,10.00,M,CLR,M,M,M,M,M,M,M,M,M,M,M,M,M,M,64.90,KTPH 300956Z AUTO 02006KT 10SM CLR 18/06 A3019 RMK AO2 SLP138 T01830056,M
WMC,2022-07-30 09:56,-117.8072,40.9019,1315.00,76.00,33.00,20.92,70.00,10.00,0.00,30.06,1011.40,10.00,M,CLR,M,M,M,M,M,M,M,M,M,M,M,M,M,M,75.90,KWMC 300956Z AUTO 07010KT 10SM CLR 24/01 A3006 RMK AO2 SLP114 T02440006,M
LAS,2022-07-30 09:56,-115.1634,36.0719,663.00,78.00,68.00,71.14,170.00,5.00,0.00,29.98,1012.40,10.00,M,SCT,BKN,M,M,14000.00,20000.00,M,M,M,M,M,M,M,M,M,78.10,KLAS 300956Z 17005KT 10SM SCT140 BKN200 26/20 A2998 RMK AO2 SLP124 T02560200,M
EKO,2022-07-30 09:56,-115.7860,40.8242,1367.00,63.00,39.00,41.09,60.00,4.00,0.00,30.14,1014.50,10.00,M,CLR,M,M,M,M,M,M,M,M,M,M,M,M,M,M,63.00,KEKO 300956Z AUTO 06004KT 10SM CLR 17/04 A3014 RMK AO2 SLP145 T01720039,M
INS,2022-07-30 09:58,-115.6733,36.5872,955.00,76.50,60.60,57.91,90.00,13.00,0.00,30.02,1011.30,10.00,M,CLR,M,M,M,M,M,M,M,M,M,M,M,M,M,M,76.50,KINS 300958Z AUTO 09013KT 10SM CLR 25/16 A3002 RMK AO2 SLP113 T02470159,M
LSV,2022-07-30 09:58,-115.0343,36.2362,570.00,76.80,76.80,100.00,60.00,6.00,0.00,29.96,1012.00,10.00,M,CLR,M,M,M,M,M,M,M,M,M,M,M,M,M,M,76.80,KLSV 300958Z AUTO 06006KT 10SM CLR 25/25 A2996 RMK AO2 SLP120 T02490249 $,M
CXP,2022-07-30 10:10,-119.7326,39.1923,1431.00,66.20,37.40,34.51,0.00,0.00,0.00,30.10,M,10.00,M,CLR,M,M,M,M,M,M,M,M,M,M,M,M,M,M,66.20,KCXP 301010Z AUTO 00000KT 10SM CLR 19/03 A3010 RMK AO2,M
RTS,2022-07-30 10:15,-119.8764,39.6682,1539.00,69.80,37.40,30.49,0.00,0.00,0.00,30.13,M,10.00,M,CLR,M,M,M,M,M,M,M,M,M,M,M,M,M,M,69.80,KRTS 301015Z AUTO 00000KT 10SM CLR 21/03 A3013 RMK AO2,M
BVU,2022-07-30 10:15,-114.8611,35.9475,671.00,M,M,M,M,M,0.00,M,M,M,M,M,M,M,M,M,M,M,M,M,M,M,M,M,M,M,M,KBVU 301015Z AUTO RMK AO2 PNO PWINO TSNO,M
TMT,2022-07-30 10:15,-117.1971,39.4643,1749.34,52.30,30.70,43.40,0.00,0.00,0.00,30.20,M,10.00,M,CLR,M,M,M,M,M,M,M,M,M,M,M,M,M,M,52.30,KTMT 301015Z AUTO 00000KT 10SM CLR 11/M01 A3020 RMK AO2 T01131007,M
HTH,2022-07-30 10:15,-118.6315,38.5448,1282.89,78.80,32.00,18.18,150.00,10.00,0.00,30.04,M,10.00,M,CLR,M,M,M,M,M,M,M,M,M,M,M,M,M,M,78.80,KHTH 301015Z AUTO 15010KT 10SM CLR 26/00 A3004 RMK A01,M
BAM,2022-07-30 10:15,-116.8743,40.5990,1382.36,69.80,39.20,32.72,340.00,5.00,0.00,30.10,M,10.00,M,CLR,M,M,M,M,M,M,M,M,M,M,M,M,M,M,69.80,KBAM 301015Z AUTO 34005KT 10SM CLR 21/04 A3010 RMK AO1,M
MEV,2022-07-30 10:15,-119.7500,38.9963,1441.42,57.20,39.20,50.91,80.00,6.00,0.00,30.09,M,10.00,M,CLR,M,M,M,M,M,M,M,M,M,M,M,M,M,M,57.20,KMEV 301015Z AUTO 08006KT 10SM CLR 14/04 A3009 RMK AO2,M
CXP,2022-07-30 10:30,-119.7326,39.1923,1431.00,64.40,41.00,42.28,90.00,4.00,0.00,30.11,M,10.00,M,CLR,M,M,M,M,M,M,M,M,M,M,M,M,M,M,64.40,KCXP 301030Z AUTO 09004KT 10SM CLR 18/05 A3011 RMK AO2,M
BVU,2022-07-30 10:35,-114.8611,35.9475,671.00,M,M,M,M,M,0.00,M,M,M,M,M,M,M,M,M,M,M,M,M,M,M,M,M,M,M,M,KBVU 301035Z AUTO RMK AO2 PNO PWINO TSNO,M
RTS,2022-07-30 10:35,-119.8764,39.6682,1539.00,64.40,32.00,29.63,330.00,4.00,0.00,30.14,M,10.00,M,CLR,M,M,M,M,M,M,M,M,M,M,M,M,M,M,64.40,KRTS 301035Z AUTO 33004KT 10SM CLR 18/M00 A3014 RMK AO2,M
MEV,2022-07-30 10:35,-119.7500,38.9963,1441.42,55.40,39.20,54.34,120.00,5.00,0.00,30.10,M,10.00,M,CLR,M,M,M,M,M,M,M,M,M,M,M,M,M,M,55.40,KMEV 301035Z AUTO 12005KT 10SM CLR 13/04 A3010 RMK AO2,M
BAM,2022-07-30 10:35,-116.8743,40.5990,1382.36,69.80,39.20,32.72,10.00,5.00,0.00,30.10,M,10.00,M,CLR,M,M,M,M,M,M,M,M,M,M,M,M,M,M,69.80,KBAM 301035Z AUTO 01005KT 10SM CLR 21/04 A3010 RMK AO1,M
HTH,2022-07-30 10:35,-118.6315,38.5448,1282.89,80.60,35.60,19.79,130.00,9.00,0.00,30.04,M,10.00,M,CLR,M,M,M,M,M,M,M,M,M,M,M,M,M,M,78.94,KHTH 301035Z AUTO 13009KT 10SM CLR 27/02 A3004 RMK A01,M
TMT,2022-07-30 10:35,-117.1971,39.4643,1749.34,52.20,30.20,42.68,260.00,3.00,0.00,30.21,M,10.00,M,CLR,M,M,M,M,M,M,M,M,M,M,M,M,M,M,52.20,KTMT 301035Z AUTO 26003KT 10SM CLR 11/M01 A3021 RMK AO2 T01121010,M
CXP,2022-07-30 10:50,-119.7326,39.1923,1431.00,64.40,41.00,42.28,0.00,0.00,0.00,30.11,M,10.00,M,CLR,M,M,M,M,M,M,M,M,M,M,M,M,M,M,64.40,KCXP 301050Z AUTO 00000KT 10SM CLR 18/05 A3011 RMK AO2,M
VGT,2022-07-30 10:53,-115.1933,36.2111,667.00,79.00,67.00,66.49,90.00,6.00,0.00,29.97,1013.90,10.00,M,CLR,M,M,M,M,M,M,M,M,M,M,M,M,M,M,79.00,KVGT 301053Z AUTO 09006KT 10SM CLR 26/19 A2997 RMK AO2 SLP139 T02610194,M
LOL,2022-07-30 10:53,-118.5701,40.0684,1192.43,65.00,30.00,26.85,170.00,3.00,0.00,30.02,1011.30,10.00,M,CLR,M,M,M,M,M,M,M,M,M,M,M,M,M,M,64.90,KLOL 301053Z AUTO 17003KT 10SM CLR 18/M01 A3002 RMK AO2 SLP113 T01831011,M
ELY,2022-07-30 10:53,-114.8453,39.2950,1909.00,54.00,44.00,69.09,170.00,7.00,0.00,30.25,1015.40,10.00,M,CLR,M,M,M,M,M,M,M,M,M,M,M,M,M,M,54.00,KELY 301053Z AUTO 17007KT 10SM CLR 12/07 A3025 RMK AO2 SLP154 T01220067,M
DRA,2022-07-30 10:53,-116.0278,36.6206,1009.00,76.00,60.00,58.04,270.00,4.00,0.00,30.03,1011.20,10.00,M,CLR,M,M,M,M,M,M,M,M,M,M,M,M,M,M,75.90,KDRA 301053Z AUTO 27004KT 10SM CLR 24/16 A3003 RMK AO2 SLP112 T02440156,M
P68,2022-07-30 10:53,-116.0056,39.6014,1993.00,61.00,39.00,44.10,170.00,5.00,0.00,30.20,1013.10,M,M,M,M,M,M,M,M,M,M,M,M,M,M,M,M,M,61.00,KP68 301053Z AUTO 17005KT 16/04 A3020 RMK AO1 SLP131 T01610039,M
TMT,2022-07-30 10:55,-117.1971,39.4643,1749.34,49.00,28.80,45.23,0.00,0.00,0.00,30.21,M,10.00,M,CLR,M,M,M,M,M,M,M,M,M,M,M,M,M,M,49.10,KTMT 301055Z AUTO 00000KT 10SM CLR 10/M02 A3021 RMK AO2 T00951018,M
BVU,2022-07-30 10:55,-114.8611,35.9475,671.00,M,M,M,M,M,0.00,M,M,M,M,M,M,M,M,M,M,M,M,M,M,M,M,M,M,M,M,KBVU 301055Z AUTO RMK AO2 PNO PWINO TSNO,M
RNO,2022-07-30 10:55,-119.7711,39.4839,1341.00,74.00,43.00,32.98,0.00,0.00,0.00,30.07,1011.20,10.00,M,CLR,M,M,M,M,M,M,M,M,M,M,M,M,M,M,73.90,KRNO 301055Z 00000KT 10SM CLR 23/06 A3007 RMK AO2 SLP112 T02330061,M
RTS,2022-07-30 10:55,-119.8764,39.6682,1539.00,64.40,30.20,27.55,350.00,5.00,0.00,30.13,M,10.00,M,CLR,M,M,M,M,M,M,M,M,M,M,M,M,M,M,64.40,KRTS 301055Z AUTO 35005KT 10SM CLR 18/M01 A3013 RMK AO2,M
MEV,2022-07-30 10:55,-119.7500,38.9963,1441.42,55.40,37.40,50.64,0.00,0.00,0.00,30.10,M,10.00,M,CLR,M,M,M,M,M,M,M,M,M,M,M,M,M,M,55.40,KMEV 301055Z AUTO 00000KT 10SM CLR 13/03 A3010 RMK AO2,M
BAM,2022-07-30 10:55,-116.8743,40.5990,1382.36,68.00,39.20,34.80,40.00,6.00,0.00,30.10,M,10.00,M,CLR,M,M,M,M,M,M,M,M,M,M,M,M,M,M,68.00,KBAM 301055Z AUTO 04006KT 10SM CLR 20/04 A3010 RMK AO1,M
HTH,2022-07-30 10:55,-118.6315,38.5448,1282.89,78.80,35.60,21.00,140.00,6.00,0.00,30.04,M,10.00,M,CLR,M,M,M,M,M,M,M,M,M,M,M,M,M,M,78.80,KHTH 301055Z AUTO 14006KT 10SM CLR 26/02 A3004 RMK A01,M
HND,2022-07-30 10:56,-115.1344,35.9729,742.79,75.00,70.00,84.46,0.00,0.00,0.00,30.02,1015.10,10.00,M,CLR,M,M,M,M,M,M,M,M,M,M,M,M,M,M,75.00,KHND 301056Z AUTO 00000KT 10SM CLR 24/21 A3002 RMK AO2 SLP151 T02390211,M
TPH,2022-07-30 10:56,-117.0904,38.0505,1654.00,63.00,41.00,44.41,360.00,8.00,0.00,30.19,1013.80,10.00,M,CLR,M,M,M,M,M,M,M,M,M,M,M,M,M,M,63.00,KTPH 301056Z AUTO 36008KT 10SM CLR 17/05 A3019 RMK AO2 SLP138 T01720050,M
LAS,2022-07-30 10:56,-115.1634,36.0719,663.00,76.00,68.00,76.53,110.00,4.00,0.00,29.98,1012.60,10.00,M,SCT,BKN,M,M,14000.00,20000.00,M,M,M,M,M,M,M,M,M,75.90,KLAS 301056Z 11004KT 10SM SCT140 BKN200 24/20 A2998 RMK AO2 SLP126 T02440200,M
NFL,2022-07-30 10:56,-118.7010,39.4166,1199.00,67.00,38.00,34.35,320.00,3.00,0.00,30.01,1013.20,10.00,M,CLR,M,M,M,M,M,M,M,M,M,M,M,M,M,M,66.90,KNFL 301056Z AUTO 32003KT 10SM CLR 19/03 A3001 RMK AO2 SLP132 T01940033,M
WMC,2022-07-30 10:56,-117.8072,40.9019,1315.00,77.00,33.00,20.17,50.00,9.00,0.00,30.07,1011.50,10.00,M,CLR,M,M,M,M,M,M,M,M,M,M,M,M,M,M,77.00,KWMC 301056Z AUTO 05009KT 10SM CLR 25/01 A3007 RMK AO2 SLP115 T02500006,M
EKO,2022-07-30 10:56,-115.7860,40.8242,1367.00,61.00,38.00,42.24,50.00,5.00,0.00,30.15,1014.80,10.00,M,CLR,M,M,M,M,M,M,M,M,M,M,M,M,M,M,61.00,KEKO 301056Z AUTO 05005KT 10SM CLR 16/03 A3015 RMK AO2 SLP148 T01610033,M
LSV,2022-07-30 10:58,-115.0343,36.2362,570.00,77.00,77.00,100.00,50.00,8.00,0.00,29.96,1011.90,10.00,M,CLR,M,M,M,M,M,M,M,M,M,M,M,M,M,M,77.00,KLSV 301058Z AUTO 05008KT 10SM CLR 25/25 A2996 RMK AO2 SLP119 T02500250 $,M
INS,2022-07-30 10:58,-115.6733,36.5872,955.00,75.00,61.50,62.85,100.00,8.00,0.00,30.03,1011.60,10.00,M,CLR,M,M,M,M,M,M,M,M,M,M,M,M,M,M,75.00,KINS 301058Z AUTO 10008KT 10SM CLR 24/16 A3003 RMK AO2 SLP116 T02390164,M
CXP,2022-07-30 11:10,-119.7326,39.1923,1431.00,62.60,41.00,45.04,0.00,0.00,0.00,30.11,M,10.00,M,CLR,M,M,M,M,M,M,M,M,M,M,M,M,M,M,62.60,KCXP 301110Z AUTO 00000KT 10SM CLR 17/05 A3011 RMK AO2,M
TMT,2022-07-30 11:15,-117.1971,39.4643,1749.34,47.30,27.30,45.50,0.00,0.00,0.00,30.21,M,10.00,M,CLR,M,M,M,M,M,M,M,M,M,M,M,M,M,M,47.30,KTMT 301115Z AUTO 00000KT 10SM CLR 09/M03 A3021 RMK AO2 T00851026,M
BVU,2022-07-30 11:15,-114.8611,35.9475,671.00,M,M,M,M,M,0.00,M,M,M,M,M,M,M,M,M,M,M,M,M,M,M,M,M,M,M,M,KBVU 301115Z AUTO RMK AO2 PNO PWINO TSNO,M
BAM,2022-07-30 11:15,-116.8743,40.5990,1382.36,66.20,37.40,34.51,0.00,0.00,0.00,30.11,M,10.00,M,CLR,M,M,M,M,M,M,M,M,M,M,M,M,M,M,66.20,KBAM 301115Z AUTO 00000KT 10SM CLR 19/03 A3011 RMK AO1,M
HTH,2022-07-30 11:15,-118.6315,38.5448,1282.89,78.80,37.40,22.54,160.00,9.00,0.00,30.04,M,10.00,M,CLR,M,M,M,M,M,M,M,M,M,M,M,M,M,M,78.80,KHTH 301115Z AUTO 16009KT 10SM CLR 26/03 A3004 RMK A01,M
RTS,2022-07-30 11:15,-119.8764,39.6682,1539.00,62.60,30.20,29.35,340.00,5.00,0.00,30.13,M,10.00,M,CLR,M,M,M,M,M,M,M,M,M,M,M,M,M,M,62.60,KRTS 301115Z AUTO 34005KT 10SM CLR 17/M01 A3013 RMK AO2,M
MEV,2022-07-30 11:15,-119.7500,38.9963,1441.42,57.20,37.40,47.44,120.00,5.00,0.00,30.10,M,10.00,M,CLR,M,M,M,M,M,M,M,M,M,M,M,M,M,M,57.20,KMEV 301115Z AUTO 12005KT 10SM CLR 14/03 A3010 RMK AO2,M
CXP,2022-07-30 11:30,-119.7326,39.1923,1431.00,64.40,41.00,42.28,340.00,3.00,0.00,30.11,M,10.00,M,CLR,M,M,M,M,M,M,M,M,M,M,M,M,M,M,64.40,KCXP 301130Z AUTO 34003KT 10SM CLR 18/05 A3011 RMK AO2,M
HTH,2022-07-30 11:35,-118.6315,38.5448,1282.89,78.80,39.20,24.19,150.00,9.00,0.00,30.04,M,10.00,M,M,M,M,M,M,M,M,M,M,M,M,M,M,M,M,78.80,KHTH 301135Z AUTO 15009KT 10SM 26/04 A3004 RMK A01,M
RTS,2022-07-30 11:35,-119.8764,39.6682,1539.00,60.80,30.20,31.28,340.00,7.00,0.00,30.13,M,10.00,M,CLR,M,M,M,M,M,M,M,M,M,M,M,M,M,M,60.80,KRTS 301135Z AUTO 34007KT 10SM CLR 16/M01 A3013 RMK AO2,M
MEV,2022-07-30 11:35,-119.7500,38.9963,1441.42,55.40,35.60,47.16,110.00,6.00,0.00,30.10,M,10.00,M,CLR,M,M,M,M,M,M,M,M,M,M,M,M,M,M,55.40,KMEV 301135Z AUTO 11006KT 10SM CLR 13/02 A3010 RMK AO2,M
TMT,2022-07-30 11:35,-117.1971,39.4643,1749.34,44.80,26.10,47.59,180.00,4.00,0.00,30.21,M,10.00,M,CLR,M,M,M,M,M,M,M,M,M,M,M,M,M,M,42.37,KTMT 301135Z AUTO 18004KT 10SM CLR 07/M03 A3021 RMK AO2 T00711033,M
BVU,2022-07-30 11:35,-114.8611,35.9475,671.00,M,M,M,M,M,0.00,M,M,M,M,M,M,M,M,M,M,M,M,M,M,M,M,M,M,M,M,KBVU 301135Z AUTO RMK AO2 PNO PWINO TSNO,M
BAM,2022-07-30 11:35,-116.8743,40.5990,1382.36,64.40,37.40,36.74,320.00,4.00,0.00,30.11,M,10.00,M,CLR,M,M,M,M,M,M,M,M,M,M,M,M,M,M,64.40,KBAM 301135Z AUTO 32004KT 10SM CLR 18/03 A3011 RMK AO1,M
CXP,2022-07-30 11:50,-119.7326,39.1923,1431.00,62.60,41.00,45.04,190.00,3.00,0.00,30.11,M,10.00,M,CLR,M,M,M,M,M,M,M,M,M,M,M,M,M,M,62.60,KCXP 301150Z AUTO 19003KT 10SM CLR 17/05 A3011 RMK AO2,M
DRA,2022-07-30 11:53,-116.0278,36.6206,1009.00,75.00,60.00,59.81,100.00,5.00,0.00,30.03,1011.30,10.00,M,CLR,M,M,M,M,M,M,M,M,M,M,M,M,M,M,75.00,KDRA 301153Z AUTO 10005KT 10SM CLR 24/16 A3003 RMK AO2 SLP113 T02390156 10294 20233 53003,M
LOL,2022-07-30 11:53,-118.5701,40.0684,1192.43,63.00,28.90,27.44,0.00,0.00,0.00,30.03,1011.90,10.00,M,CLR,M,M,M,M,M,M,M,M,M,M,M,M,M,M,63.00,KLOL 301153Z AUTO 00000KT 10SM CLR 17/M02 A3003 RMK AO2 SLP119 T01721017 10267 20167 53008,M
VGT,2022-07-30 11:53,-115.1933,36.2111,667.00,78.00,67.00,68.49,110.00,3.00,0.00,29.99,1014.40,10.00,M,CLR,M,M,M,M,M,M,M,M,M,M,M,M,M,M,78.10,KVGT 301153Z AUTO 11003KT 10SM CLR 26/19 A2999 RMK AO2 SLP144 7//// T02560194 10278 20256 53005,M
P68,2022-07-30 11:53,-116.0056,39.6014,1993.00,57.00,38.00,48.73,140.00,3.00,0.00,30.21,1013.60,M,M,M,M,M,M,M,M,M,M,M,M,M,M,M,M,M,57.00,KP68 301153Z AUTO 14003KT 14/03 A3021 RMK AO1 SLP136 T01390033 10228 20122 53001,M
ELY,2022-07-30 11:53,-114.8453,39.2950,1909.00,52.00,44.00,74.35,190.00,7.00,0.00,30.26,1014.70,10.00,M,CLR,M,M,M,M,M,M,M,M,M,M,M,M,M,M,52.00,KELY 301153Z AUTO 19007KT 10SM CLR 11/07 A3026 RMK AO2 SLP147 70002 T01110067 10167 20106 53000,M
RNO,2022-07-30 11:55,-119.7711,39.4839,1341.00,73.00,43.00,34.00,240.00,3.00,0.00,30.08,1011.60,10.00,M,SCT,M,M,M,14000.00,M,M,M,M,M,M,M,M,M,M,73.00,KRNO 301155Z 24003KT 10SM SCT140 23/06 A3008 RMK AO2 SLP116 T02280061 10311 20217 51004,M
RTS,2022-07-30 11:55,-119.8764,39.6682,1539.00,68.00,33.80,28.11,340.00,5.00,0.00,30.13,M,10.00,M,CLR,M,M,M,M,M,M,M,M,M,M,M,M,M,M,68.00,KRTS 301155Z AUTO 34005KT 10SM CLR 20/01 A3013 RMK AO2,M
BVU,2022-07-30 11:55,-114.8611,35.9475,671.00,M,M,M,M,M,0.00,M,M,M,M,M,M,M,M,M,M,M,M,M,M,M,M,M,M,M,M,KBVU 301155Z AUTO RMK AO2 PNO PWINO TSNO,M
MEV,2022-07-30 11:55,-119.7500,38.9963,1441.42,53.60,35.60,50.36,0.00,0.00,0.00,30.10,M,10.00,M,CLR,M,M,M,M,M,M,M,M,M,M,M,M,M,M,53.60,KMEV 301155Z AUTO 00000KT 10SM CLR 12/02 A3010 RMK AO2,M
BAM,2022-07-30 11:55,-116.8743,40.5990,1382.36,64.40,35.60,34.22,360.00,3.00,0.00,30.12,M,10.00,M,CLR,M,M,M,M,M,M,M,M,M,M,M,M,M,M,64.40,KBAM 301155Z AUTO 36003KT 10SM CLR 18/02 A3012 RMK AO1,M
HTH,2022-07-30 11:55,-118.6315,38.5448,1282.89,77.00,37.40,23.93,140.00,10.00,0.00,30.05,M,10.00,M,M,M,M,M,M,M,M,M,M,M,M,M,M,M,M,77.00,KHTH 301155Z AUTO 14010KT 10SM 25/03 A3005 RMK A01,M
TMT,2022-07-30 11:55,-117.1971,39.4643,1749.34,46.60,28.00,48.08,0.00,0.00,0.00,30.21,M,10.00,M,CLR,M,M,M,M,M,M,M,M,M,M,M,M,M,M,46.60,KTMT 301155Z AUTO 00000KT 10SM CLR 08/M02 A3021 RMK AO2 T00811022,M
NFL,2022-07-30 11:56,-118.7010,39.4166,1199.00,66.00,39.00,37.00,140.00,3.00,0.00,30.02,1013.70,10.00,M,CLR,M,M,M,M,M,M,M,M,M,M,M,M,M,M,66.00,KNFL 301156Z AUTO 14003KT 10SM CLR 19/04 A3002 RMK AO2 SLP137 T01890039 10267 20183 53008,M
TPH,2022-07-30 11:56,-117.0904,38.0505,1654.00,64.00,41.00,42.88,10.00,10.00,0.00,30.19,1013.40,10.00,M,CLR,M,M,M,M,M,M,M,M,M,M,M,M,M,M,64.00,KTPH 301156Z AUTO 01010KT 10SM CLR 18/05 A3019 RMK AO2 SLP134 70005 T01780050 10239 20167 51002,M
WMC,2022-07-30 11:56,-117.8072,40.9019,1315.00,59.00,33.00,37.49,150.00,6.00,0.00,30.08,1012.80,10.00,M,CLR,M,M,M,M,M,M,M,M,M,M,M,M,M,M,59.00,KWMC 301156Z AUTO 15006KT 10SM CLR 15/01 A3008 RMK AO2 SLP128 T01500006 10289 20150 53007,M
HND,2022-07-30 11:56,-115.1344,35.9729,742.79,75.00,69.00,81.90,0.00,0.00,0.00,30.03,1015.50,10.00,M,CLR,M,M,M,M,M,M,M,M,M,M,M,M,M,M,75.00,KHND 301156Z AUTO 00000KT 10SM CLR 24/21 A3003 RMK AO2 SLP155 60001 70007 T02390206 10256 20239 53003,M
LAS,2022-07-30 11:56,-115.1634,36.0719,663.00,76.00,67.00,73.68,0.00,0.00,0.00,30.00,1013.00,10.00,M,SCT,BKN,M,M,14000.00,20000.00,M,M,M,M,M,M,M,M,M,75.90,KLAS 301156Z 00000KT 10SM SCT140 BKN200 24/19 A3000 RMK AO2 SLP130 70003 T02440194 10267 20244 53004,M
EKO,2022-07-30 11:56,-115.7860,40.8242,1367.00,53.00,40.00,60.73,220.00,4.00,0.00,30.16,1015.50,10.00,M,CLR,M,M,M,M,M,M,M,M,M,M,M,M,M,M,53.10,KEKO 301156Z AUTO 22004KT 10SM CLR 12/04 A3016 RMK AO2 SLP155 70008 T01170044 10250 20117 53007,M
INS,2022-07-30 11:58,-115.6733,36.5872,955.00,74.30,61.30,63.89,120.00,4.00,0.00,30.04,1012.00,10.00,M,CLR,M,M,M,M,M,M,M,M,M,M,M,M,M,M,74.30,KINS 301158Z AUTO 12004KT 10SM CLR 24/16 A3004 RMK AO2 SLP120 T02350163 10291 20235 52007,M
LSV,2022-07-30 11:58,-115.0343,36.2362,570.00,77.00,77.00,100.00,60.00,4.00,0.00,29.96,M,10.00,M,CLR,M,M,M,M,M,M,M,M,M,M,M,M,M,M,77.00,KLSV 301158Z 06004KT 10SM CLR 25/25 A2996 RMK AO2A SLPNO WND DATA ESTMD 70013 10261 20248 $,M
CXP,2022-07-30 12:10,-119.7326,39.1923,1431.00,62.60,41.00,45.04,0.00,0.00,0.00,30.11,M,10.00,M,CLR,M,M,M,M,M,M,M,M,M,M,M,M,M,M,62.60,KCXP 301210Z AUTO 00000KT 10SM CLR 17/05 A3011 RMK AO2,M
BVU,2022-07-30 12:15,-114.8611,35.9475,671.00,M,M,M,M,M,0.00,M,M,M,M,M,M,M,M,M,M,M,M,M,M,M,M,M,M,M,M,KBVU 301215Z AUTO RMK AO2 PNO PWINO TSNO,M
RTS,2022-07-30 12:15,-119.8764,39.6682,1539.00,66.20,33.80,29.92,330.00,4.00,0.00,30.14,M,10.00,M,CLR,M,M,M,M,M,M,M,M,M,M,M,M,M,M,66.20,KRTS 301215Z AUTO 33004KT 10SM CLR 19/01 A3014 RMK AO2,M
MEV,2022-07-30 12:15,-119.7500,38.9963,1441.42,51.80,35.60,53.81,120.00,5.00,0.00,30.11,M,10.00,M,CLR,M,M,M,M,M,M,M,M,M,M,M,M,M,M,51.80,KMEV 301215Z AUTO 12005KT 10SM CLR 11/02 A3011 RMK AO2,M
BAM,2022-07-30 12:15,-116.8743,40.5990,1382.36,62.60,35.60,36.45,20.00,3.00,0.00,30.12,M,10.00,M,CLR,M,M,M,M,M,M,M,M,M,M,M,M,M,M,62.60,KBAM 301215Z AUTO 02003KT 10SM CLR 17/02 A3012 RMK AO1,M
HTH,2022-07-30 12:15,-118.6315,38.5448,1282.89,78.80,41.00,25.95,150.00,11.00,0.00,30.05,M,10.00,M,M,M,M,M,M,M,M,M,M,M,M,M,M,M,M,78.80,KHTH 301215Z AUTO 15011KT 10SM 26/05 A3005 RMK A01,M
TMT,2022-07-30 12:15,-117.1971,39.4643,1749.34,44.40,28.00,52.26,150.00,3.00,0.00,30.21,M,10.00,M,CLR,M,M,M,M,M,M,M,M,M,M,M,M,M,M,42.86,KTMT 301215Z AUTO 15003KT 10SM CLR 07/M02 A3021 RMK AO2 T00691022,M
CXP,2022-07-30 12:30,-119.7326,39.1923,1431.00,60.80,39.20,44.76,0.00,0.00,0.00,30.12,M,10.00,M,CLR,M,M,M,M,M,M,M,M,M,M,M,M,M,M,60.80,KCXP 301230Z AUTO 00000KT 10SM CLR 16/04 A3012 RMK AO2,M
BVU,2022-07-30 12:35,-114.8611,35.9475,671.00,M,M,M,M,M,0.00,M,M,M,M,M,M,M,M,M,M,M,M,M,M,M,M,M,M,M,M,KBVU 301235Z AUTO RMK AO2 PNO PWINO TSNO,M
RTS,2022-07-30 12:35,-119.8764,39.6682,1539.00,68.00,33.80,28.11,0.00,0.00,0.00,30.14,M,10.00,M,CLR,M,M,M,M,M,M,M,M,M,M,M,M,M,M,68.00,KRTS 301235Z AUTO 00000KT 10SM CLR 20/01 A3014 RMK AO2,M
TMT,2022-07-30 12:35,-117.1971,39.4643,1749.34,45.00,28.60,52.35,0.00,0.00,0.00,30.22,M,10.00,M,CLR,M,M,M,M,M,M,M,M,M,M,M,M,M,M,45.00,KTMT 301235Z AUTO 00000KT 10SM CLR 07/M02 A3022 RMK AO2 T00721019,M
BAM,2022-07-30 12:35,-116.8743,40.5990,1382.36,60.80,33.80,36.16,0.00,0.00,0.00,30.13,M,10.00,M,CLR,M,M,M,M,M,M,M,M,M,M,M,M,M,M,60.80,KBAM 301235Z AUTO 00000KT 10SM CLR 16/01 A3013 RMK AO1,M
HTH,2022-07-30 12:35,-118.6315,38.5448,1282.89,78.80,39.20,24.19,140.00,8.00,0.00,30.05,M,10.00,M,M,M,M,M,M,M,M,M,M,M,M,M,M,M,M,78.80,KHTH 301235Z AUTO 14008KT 10SM 26/04 A3005 RMK A01,M
MEV,2022-07-30 12:35,-119.7500,38.9963,1441.42,53.60,39.20,58.02,90.00,3.00,0.00,30.11,M,10.00,M,CLR,M,M,M,M,M,M,M,M,M,M,M,M,M,M,53.60,KMEV 301235Z AUTO 09003KT 10SM CLR 12/04 A3011 RMK AO2,M
CXP,2022-07-30 12:50,-119.7326,39.1923,1431.00,62.60,41.00,45.04,310.00,3.00,0.00,30.13,M,10.00,M,CLR,M,M,M,M,M,M,M,M,M,M,M,M,M,M,62.60,KCXP 301250Z AUTO 31003KT 10SM CLR 17/05 A3013 RMK AO2,M
VGT,2022-07-30 12:53,-115.1933,36.2111,667.00,79.00,68.00,69.07,210.00,3.00,0.00,30.00,1014.80,10.00,M,CLR,M,M,M,M,M,M,M,M,M,M,M,M,M,M,79.00,KVGT 301253Z 21003KT 10SM CLR 26/20 A3000 RMK AO2 SLP148 T02610200,M
P68,2022-07-30 12:53,-116.0056,39.6014,1993.00,55.00,38.00,52.40,230.00,5.00,0.00,30.22,1014.60,M,M,M,M,M,M,M,M,M,M,M,M,M,M,M,M,M,55.00,KP68 301253Z AUTO 23005KT 13/03 A3022 RMK AO1 SLP146 T01280033,M
ELY,2022-07-30 12:53,-114.8453,39.2950,1909.00,50.00,43.00,76.76,180.00,12.00,0.00,30.27,1015.40,10.00,M,CLR,M,M,M,M,M,M,M,M,M,M,M,M,M,M,50.00,KELY 301253Z AUTO 18012KT 10SM CLR 10/06 A3027 RMK AO2 SLP154 T01000061,M
DRA,2022-07-30 12:53,-116.0278,36.6206,1009.00,76.00,60.00,58.04,100.00,4.00,0.00,30.06,1012.10,10.00,M,CLR,M,M,M,M,M,M,M,M,M,M,M,M,M,M,75.90,KDRA 301253Z AUTO 10004KT 10SM CLR 24/16 A3006 RMK AO2 SLP121 T02440156,M
LOL,2022-07-30 12:53,-118.5701,40.0684,1192.43,62.00,28.90,28.33,120.00,3.00,0.00,30.04,1012.60,10.00,M,CLR,M,M,M,M,M,M,M,M,M,M,M,M,M,M,62.10,KLOL 301253Z AUTO 12003KT 10SM CLR 17/M02 A3004 RMK AO2 SLP126 T01671017,M
RNO,2022-07-30 12:55,-119.7711,39.4839,1341.00,71.00,43.00,36.25,0.00,0.00,0.00,30.09,1012.10,10.00,M,FEW,BKN,M,M,12000.00,14000.00,M,M,M,M,M,M,M,M,M,71.10,KRNO 301255Z 00000KT 10SM FEW120 BKN140 22/06 A3009 RMK AO2 SLP121 VIRGA T02170061,M
BVU,2022-07-30 12:55,-114.8611,35.9475,671.00,M,M,M,M,M,0.00,M,M,M,M,M,M,M,M,M,M,M,M,M,M,M,M,M,M,M,M,KBVU 301255Z AUTO RMK AO2 PNO PWINO TSNO,M
RTS,2022-07-30 12:55,-119.8764,39.6682,1539.00,64.40,33.80,31.85,0.00,0.00,0.00,30.14,M,10.00,M,CLR,M,M,M,M,M,M,M,M,M,M,M,M,M,M,64.40,KRTS 301255Z AUTO 00000KT 10SM CLR 18/01 A3014 RMK AO2,M
MEV,2022-07-30 12:55,-119.7500,38.9963,1441.42,55.40,39.20,54.34,0.00,0.00,0.00,30.12,M,10.00,M,CLR,M,M,M,M,M,M,M,M,M,M,M,M,M,M,55.40,KMEV 301255Z AUTO 00000KT 10SM CLR 13/04 A3012 RMK AO2,M
BAM,2022-07-30 12:55,-116.8743,40.5990,1382.36,59.00,33.80,38.56,320.00,3.00,0.00,30.14,M,10.00,M,CLR,M,M,M,M,M,M,M,M,M,M,M,M,M,M,59.00,KBAM 301255Z AUTO 32003KT 10SM CLR 15/01 A3014 RMK AO1,M
HTH,2022-07-30 12:55,-118.6315,38.5448,1282.89,75.20,37.40,25.40,0.00,0.00,0.00,30.06,M,10.00,M,CLR,M,M,M,M,M,M,M,M,M,M,M,M,M,M,75.20,KHTH 301255Z AUTO 00000KT 10SM CLR 24/03 A3006 RMK A01,M
TMT,2022-07-30 12:55,-117.1971,39.4643,1749.34,44.40,27.90,52.05,0.00,0.00,0.00,30.22,M,10.00,M,CLR,M,M,M,M,M,M,M,M,M,M,M,M,M,M,44.40,KTMT 301255Z AUTO 00000KT 10SM CLR 07/M02 A3022 RMK AO2 T00691023,M
LAS,2022-07-30 12:56,-115.1634,36.0719,663.00,77.00,67.00,71.03,0.00,0.00,0.00,30.01,1013.40,10.00,M,SCT,BKN,M,M,14000.00,20000.00,M,M,M,M,M,M,M,M,M,77.00,KLAS 301256Z 00000KT 10SM SCT140 BKN200 25/19 A3001 RMK AO2 SLP134 T02500194,M
TPH,2022-07-30 12:56,-117.0904,38.0505,1654.00,62.00,40.00,43.93,350.00,8.00,0.00,30.20,1014.50,10.00,M,CLR,M,M,M,M,M,M,M,M,M,M,M,M,M,M,62.10,KTPH 301256Z AUTO 35008KT 10SM CLR 17/04 A3020 RMK AO2 SLP145 T01670044,M
EKO,2022-07-30 12:56,-115.7860,40.8242,1367.00,56.00,40.00,54.83,100.00,4.00,0.00,30.18,1015.80,10.00,M,CLR,M,M,M,M,M,M,M,M,M,M,M,M,M,M,55.90,KEKO 301256Z AUTO 10004KT 10SM CLR 13/04 A3018 RMK AO2 SLP158 T01330044,M
NFL,2022-07-30 12:56,-118.7010,39.4166,1199.00,68.00,36.00,30.69,160.00,4.00,0.00,30.03,1013.90,10.00,M,CLR,M,M,M,M,M,M,M,M,M,M,M,M,M,M,68.00,KNFL 301256Z AUTO 16004KT 10SM CLR 20/02 A3003 RMK AO2 SLP139 T02000022,M
WMC,2022-07-30 12:56,-117.8072,40.9019,1315.00,60.00,32.00,34.49,100.00,3.00,0.00,30.10,1013.40,10.00,M,CLR,M,M,M,M,M,M,M,M,M,M,M,M,M,M,60.10,KWMC 301256Z AUTO 10003KT 10SM CLR 16/00 A3010 RMK AO2 SLP134 T01560000,M
HND,2022-07-30 12:56,-115.1344,35.9729,742.79,75.00,69.00,81.90,320.00,3.00,0.00,30.04,1015.90,10.00,M,CLR,M,M,M,M,M,M,M,M,M,M,M,M,M,M,75.00,KHND 301256Z AUTO 32003KT 10SM CLR 24/21 A3004 RMK AO2 SLP159 T02390206,M
INS,2022-07-30 12:58,-115.6733,36.5872,955.00,73.20,62.00,68.20,100.00,9.00,0.00,30.06,1012.70,10.00,M,CLR,M,M,M,M,M,M,M,M,M,M,M,M,M,M,73.20,KINS 301258Z AUTO 10009KT 10SM CLR 23/17 A3006 RMK AO2 SLP127 T02290167,M
LSV,2022-07-30 12:58,-115.0343,36.2362,570.00,77.00,68.00,73.78,70.00,5.00,0.00,30.01,1011.50,10.00,M,CLR,M,M,M,M,M,M,M,M,M,M,M,M,M,M,77.00,KLSV 301258Z 07005KT 10SM CLR 25/20 A3001 RMK AO2A SLP115 WND DATA ESTMD $,M
LSV,2022-07-30 13:09,-115.0343,36.2362,570.00,75.20,75.20,100.00,80.00,5.00,0.00,29.99,1013.10,10.00,M,SCT,M,M,M,14000.00,M,M,M,M,M,M,M,M,M,M,75.20,KLSV 301309Z 08005KT 10SM SCT140 24/24 A2999 RMK SLP131 $,M
CXP,2022-07-30 13:10,-119.7326,39.1923,1431.00,62.60,39.20,42.00,0.00,0.00,0.00,30.14,M,10.00,M,CLR,M,M,M,M,M,M,M,M,M,M,M,M,M,M,62.60,KCXP 301310Z AUTO 00000KT 10SM CLR 17/04 A3014 RMK AO2,M
MEV,2022-07-30 13:15,-119.7500,38.9963,1441.42,53.60,37.40,54.07,0.00,0.00,0.00,30.13,M,10.00,M,CLR,M,M,M,M,M,M,M,M,M,M,M,M,M,M,53.60,KMEV 301315Z AUTO 00000KT 10SM CLR 12/03 A3013 RMK AO2,M
BVU,2022-07-30 13:15,-114.8611,35.9475,671.00,M,M,M,M,M,0.00,M,M,M,M,M,M,M,M,M,M,M,M,M,M,M,M,M,M,M,M,KBVU 301315Z AUTO RMK AO2 PNO PWINO TSNO,M
TMT,2022-07-30 13:15,-117.1971,39.4643,1749.34,46.20,29.10,51.06,0.00,0.00,0.00,30.24,M,5.00,M,CLR,M,M,M,M,M,M,M,HZ,M,M,M,M,M,M,46.20,KTMT 301315Z AUTO 00000KT 5SM HZ CLR 08/M02 A3024 RMK AO2 T00791016,M
HTH,2022-07-30 13:15,-118.6315,38.5448,1282.89,73.40,35.60,25.13,140.00,5.00,0.00,30.07,M,10.00,M,CLR,M,M,M,M,M,M,M,M,M,M,M,M,M,M,73.40,KHTH 301315Z AUTO 14005KT 10SM CLR 23/02 A3007 RMK A01,M
BAM,2022-07-30 13:15,-116.8743,40.5990,1382.36,60.80,35.60,38.85,280.00,4.00,0.00,30.13,M,10.00,M,CLR,M,M,M,M,M,M,M,M,M,M,M,M,M,M,60.80,KBAM 301315Z AUTO 28004KT 10SM CLR 16/02 A3013 RMK AO1,M
RTS,2022-07-30 13:15,-119.8764,39.6682,1539.00,62.60,33.80,33.93,0.00,0.00,0.00,30.15,M,10.00,M,CLR,M,M,M,M,M,M,M,M,M,M,M,M,M,M,62.60,KRTS 301315Z AUTO 00000KT 10SM CLR 17/01 A3015 RMK AO2,M
CXP,2022-07-30 13:30,-119.7326,39.1923,1431.00,64.40,39.20,39.43,0.00,0.00,0.00,30.14,M,10.00,M,CLR,M,M,M,M,M,M,M,M,M,M,M,M,M,M,64.40,KCXP 301330Z AUTO 00000KT 10SM CLR 18/04 A3014 RMK AO2,M
RTS,2022-07-30 13:35,-119.8764,39.6682,1539.00,64.40,33.80,31.85,0.00,0.00,0.00,30.15,M,10.00,M,CLR,M,M,M,M,M,M,M,M,M,M,M,M,M,M,64.40,KRTS 301335Z AUTO 00000KT 10SM CLR 18/01 A3015 RMK AO2,M
MEV,2022-07-30 13:35,-119.7500,38.9963,1441.42,53.60,39.20,58.02,0.00,0.00,0.00,30.13,M,10.00,M,CLR,M,M,M,M,M,M,M,M,M,M,M,M,M,M,53.60,KMEV 301335Z AUTO 00000KT 10SM CLR 12/04 A3013 RMK AO2,M
HTH,2022-07-30 13:35,-118.6315,38.5448,1282.89,75.20,35.60,23.66,140.00,8.00,0.00,30.07,M,10.00,M,CLR,M,M,M,M,M,M,M,M,M,M,M,M,M,M,75.20,KHTH 301335Z AUTO 14008KT 10SM CLR 24/02 A3007 RMK A01,M
TMT,2022-07-30 13:35,-117.1971,39.4643,1749.34,46.60,29.10,50.29,110.00,3.00,0.00,30.24,M,10.00,M,CLR,M,M,M,M,M,M,M,M,M,M,M,M,M,M,45.38,KTMT 301335Z AUTO 11003KT 10SM CLR 08/M02 A3024 RMK AO2 T00811016,M
BVU,2022-07-30 13:35,-114.8611,35.9475,671.00,M,M,M,M,M,0.00,M,M,M,M,M,M,M,M,M,M,M,M,M,M,M,M,M,M,M,M,KBVU 301335Z AUTO RMK AO2 PNO PWINO TSNO,M
BAM,2022-07-30 13:35,-116.8743,40.5990,1382.36,62.60,35.60,36.45,270.00,3.00,0.00,30.14,M,10.00,M,CLR,M,M,M,M,M,M,M,M,M,M,M,M,M,M,62.60,KBAM 301335Z AUTO 27003KT 10SM CLR 17/02 A3014 RMK AO1,M
CXP,2022-07-30 13:50,-119.7326,39.1923,1431.00,66.20,41.00,39.72,0.00,0.00,0.00,30.15,M,10.00,M,CLR,M,M,M,M,M,M,M,M,M,M,M,M,M,M,66.20,KCXP 301350Z AUTO 00000KT 10SM CLR 19/05 A3015 RMK AO2,M
DRA,2022-07-30 13:53,-116.0278,36.6206,1009.00,77.00,62.00,60.06,80.00,7.00,0.00,30.07,1012.80,10.00,M,CLR,M,M,M,M,M,M,M,M,M,M,M,M,M,M,77.00,KDRA 301353Z AUTO 08007KT 10SM CLR 25/17 A3007 RMK AO2 SLP128 T02500167,M
P68,2022-07-30 13:53,-116.0056,39.6014,1993.00,61.00,40.00,45.67,0.00,0.00,0.00,30.23,1014.90,M,M,M,M,M,M,M,M,M,M,M,M,M,M,M,M,M,61.00,KP68 301353Z AUTO 00000KT 16/04 A3023 RMK AO1 SLP149 T01610044,M
ELY,2022-07-30 13:53,-114.8453,39.2950,1909.00,55.00,45.00,68.93,180.00,5.00,0.00,30.28,1015.80,10.00,M,CLR,M,M,M,M,M,M,M,M,M,M,M,M,M,M,55.00,KELY 301353Z AUTO 18005KT 10SM CLR 13/07 A3028 RMK AO2 SLP158 T01280072,M
LOL,2022-07-30 13:53,-118.5701,40.0684,1192.43,70.00,30.00,22.52,M,3.00,0.00,30.06,1012.70,10.00,M,CLR,M,M,M,M,M,M,M,M,M,M,M,M,M,M,70.00,KLOL 301353Z AUTO VRB03KT 10SM CLR 21/M01 A3006 RMK AO2 SLP127 T02111011,M
VGT,2022-07-30 13:53,-115.1933,36.2111,667.00,80.00,68.00,66.62,220.00,3.00,0.00,30.01,1015.10,10.00,M,CLR,M,M,M,M,M,M,M,M,M,M,M,M,M,M,82.70,KVGT 301353Z 22003KT 10SM CLR 27/20 A3001 RMK AO2 SLP151 T02670200,M
TMT,2022-07-30 13:55,-117.1971,39.4643,1749.34,50.20,30.40,46.34,0.00,0.00,0.00,30.24,M,10.00,M,CLR,M,M,M,M,M,M,M,M,M,M,M,M,M,M,50.20,KTMT 301355Z AUTO 00000KT 10SM CLR 10/M01 A3024 RMK AO2 T01011009,M
BVU,2022-07-30 13:55,-114.8611,35.9475,671.00,M,M,M,M,M,0.00,M,M,M,M,M,M,M,M,M,M,M,M,M,M,M,M,M,M,M,M,KBVU 301355Z AUTO RMK AO2 PNO PWINO TSNO,M
HTH,2022-07-30 13:55,-118.6315,38.5448,1282.89,78.80,39.20,24.19,130.00,7.00,0.00,30.07,M,10.00,M,CLR,M,M,M,M,M,M,M,M,M,M,M,M,M,M,78.80,KHTH 301355Z AUTO 13007KT 10SM CLR 26/04 A3007 RMK A01,M
MEV,2022-07-30 13:55,-119.7500,38.9963,1441.42,55.40,41.00,58.27,80.00,4.00,0.00,30.14,M,10.00,M,CLR,M,M,M,M,M,M,M,M,M,M,M,M,M,M,55.40,KMEV 301355Z AUTO 08004KT 10SM CLR 13/05 A3014 RMK AO2,M
RTS,2022-07-30 13:55,-119.8764,39.6682,1539.00,68.00,37.40,32.43,0.00,0.00,0.00,30.16,M,10.00,M,CLR,M,M,M,M,M,M,M,M,M,M,M,M,M,M,68.00,KRTS 301355Z AUTO 00000KT 10SM CLR 20/03 A3016 RMK AO2,M
BAM,2022-07-30 13:55,-116.8743,40.5990,1382.36,64.40,37.40,36.74,0.00,0.00,0.00,30.15,M,10.00,M,CLR,M,M,M,M,M,M,M,M,M,M,M,M,M,M,64.40,KBAM 301355Z AUTO 00000KT 10SM CLR 18/03 A3015 RMK AO1,M
RNO,2022-07-30 13:55,-119.7711,39.4839,1341.00,72.00,43.00,35.16,170.00,3.00,0.00,30.10,1012.40,10.00,M,SCT,BKN,M,M,12000.00,14000.00,M,M,M,M,M,M,M,M,M,72.00,KRNO 301355Z 17003KT 10SM SCT120 BKN140 22/06 A3010 RMK AO2 SLP124 VIRGA ACC ALQDS T02220061,M
NFL,2022-07-30 13:56,-118.7010,39.4166,1199.00,73.00,33.00,23.06,180.00,4.00,0.00,30.05,1014.50,9.00,M,CLR,M,M,M,M,M,M,M,M,M,M,M,M,M,M,73.00,KNFL 301356Z AUTO 18004KT 9SM CLR 23/01 A3005 RMK AO2 SLP145 T02280006,M
EKO,2022-07-30 13:56,-115.7860,40.8242,1367.00,62.00,39.00,42.41,80.00,4.00,0.00,30.19,1015.80,10.00,M,CLR,M,M,M,M,M,M,M,M,M,M,M,M,M,M,62.10,KEKO 301356Z AUTO 08004KT 10SM CLR 17/04 A3019 RMK AO2 SLP158 T01670039,M
HND,2022-07-30 13:56,-115.1344,35.9729,742.79,77.00,68.00,73.78,0.00,0.00,0.00,30.06,1016.50,10.00,M,CLR,M,M,M,M,M,M,M,M,M,M,M,M,M,M,77.00,KHND 301356Z 00000KT 10SM CLR 25/20 A3006 RMK AO2 SLP165 T02500200,M
WMC,2022-07-30 13:56,-117.8072,40.9019,1315.00,64.00,32.00,30.05,0.00,0.00,0.00,30.11,1013.90,10.00,M,CLR,M,M,M,M,M,M,M,M,M,M,M,M,M,M,64.00,KWMC 301356Z AUTO 00000KT 10SM CLR 18/00 A3011 RMK AO2 SLP139 T01780000,M
LAS,2022-07-30 13:56,-115.1634,36.0719,663.00,79.00,67.00,66.49,0.00,0.00,0.00,30.02,1013.80,10.00,M,SCT,BKN,M,M,14000.00,20000.00,M,M,M,M,M,M,M,M,M,79.00,KLAS 301356Z 00000KT 10SM SCT140 BKN200 26/19 A3002 RMK AO2 SLP138 T02610194,M
TPH,2022-07-30 13:56,-117.0904,38.0505,1654.00,66.00,42.00,41.73,10.00,7.00,0.00,30.22,1014.90,10.00,M,CLR,M,M,M,M,M,M,M,M,M,M,M,M,M,M,66.00,KTPH 301356Z AUTO 01007KT 10SM CLR 19/06 A3022 RMK AO2 SLP149 T01890056,M
INS,2022-07-30 13:58,-115.6733,36.5872,955.00,74.00,64.00,70.96,90.00,7.00,0.00,30.07,1013.20,10.00,M,CLR,M,M,M,M,M,M,M,M,M,M,M,M,M,M,73.90,KINS 301358Z AUTO 09007KT 10SM CLR 23/18 A3007 RMK AO2 SLP132 T02330177,M
LSV,2022-07-30 13:58,-115.0343,36.2362,570.00,78.00,78.00,100.00,60.00,6.00,0.00,30.00,1013.40,10.00,M,CLR,M,M,M,M,M,M,M,M,M,M,M,M,M,M,78.10,KLSV 301358Z AUTO 06006KT 10SM CLR 26/26 A3000 RMK AO2 SLP134 T02560256 $,M
CXP,2022-07-30 14:10,-119.7326,39.1923,1431.00,66.20,41.00,39.72,0.00,0.00,0.00,30.15,M,10.00,M,CLR,M,M,M,M,M,M,M,M,M,M,M,M,M,M,66.20,KCXP 301410Z AUTO 00000KT 10SM CLR 19/05 A3015 RMK AO2,M
TMT,2022-07-30 14:15,-117.1971,39.4643,1749.34,55.00,32.20,41.92,0.00,0.00,0.00,30.24,M,10.00,M,CLR,M,M,M,M,M,M,M,M,M,M,M,M,M,M,54.90,KTMT 301415Z AUTO 00000KT 10SM CLR 13/00 A3024 RMK AO2 T01270001,M
BAM,2022-07-30 14:15,-116.8743,40.5990,1382.36,66.20,37.40,34.51,0.00,0.00,0.00,30.15,M,10.00,M,CLR,M,M,M,M,M,M,M,M,M,M,M,M,M,M,66.20,KBAM 301415Z AUTO 00000KT 10SM CLR 19/03 A3015 RMK AO1,M
HTH,2022-07-30 14:15,-118.6315,38.5448,1282.89,80.60,39.20,22.81,140.00,7.00,0.00,30.08,M,10.00,M,CLR,M,M,M,M,M,M,M,M,M,M,M,M,M,M,79.10,KHTH 301415Z AUTO 14007KT 10SM CLR 27/04 A3008 RMK A01,M
BVU,2022-07-30 14:15,-114.8611,35.9475,671.00,M,M,M,M,M,0.00,M,M,M,M,M,M,M,M,M,M,M,M,M,M,M,M,M,M,M,M,KBVU 301415Z AUTO RMK AO2 PNO PWINO TSNO,M
MEV,2022-07-30 14:15,-119.7500,38.9963,1441.42,57.20,42.80,58.52,0.00,0.00,0.00,30.14,M,10.00,M,CLR,M,M,M,M,M,M,M,M,M,M,M,M,M,M,57.20,KMEV 301415Z AUTO 00000KT 10SM CLR 14/06 A3014 RMK AO2,M
RTS,2022-07-30 14:15,-119.8764,39.6682,1539.00,71.60,35.60,26.71,0.00,0.00,0.00,30.16,M,10.00,M,CLR,M,M,M,M,M,M,M,M,M,M,M,M,M,M,71.60,KRTS 301415Z AUTO 00000KT 10SM CLR 22/02 A3016 RMK AO2,M
CXP,2022-07-30 14:30,-119.7326,39.1923,1431.00,68.00,41.00,37.32,0.00,0.00,0.00,30.15,M,10.00,M,CLR,M,M,M,M,M,M,M,M,M,M,M,M,M,M,68.00,KCXP 301430Z AUTO 00000KT 10SM CLR 20/05 A3015 RMK AO2,M
HTH,2022-07-30 14:35,-118.6315,38.5448,1282.89,82.40,42.80,24.72,0.00,0.00,0.00,30.09,M,10.00,M,CLR,M,M,M,M,M,M,M,M,M,M,M,M,M,M,80.39,KHTH 301435Z AUTO 00000KT 10SM CLR 28/06 A3009 RMK A01,M
BAM,2022-07-30 14:35,-116.8743,40.5990,1382.36,69.80,37.40,30.49,0.00,0.00,0.00,30.15,M,10.00,M,CLR,M,M,M,M,M,M,M,M,M,M,M,M,M,M,69.80,KBAM 301435Z AUTO 00000KT 10SM CLR 21/03 A3015 RMK AO1,M
TMT,2022-07-30 14:35,-117.1971,39.4643,1749.34,M,M,M,0.00,0.00,0.00,30.25,M,10.00,M,CLR,M,M,M,M,M,M,M,M,M,M,M,M,M,M,M,KTMT 301435Z AUTO 00000KT 10SM CLR A3025 RMK AO2,M
BVU,2022-07-30 14:35,-114.8611,35.9475,671.00,M,M,M,M,M,0.00,M,M,M,M,M,M,M,M,M,M,M,M,M,M,M,M,M,M,M,M,KBVU 301435Z AUTO RMK AO2 PNO PWINO TSNO,M
RTS,2022-07-30 14:35,-119.8764,39.6682,1539.00,73.40,35.60,25.13,0.00,0.00,0.00,30.16,M,10.00,M,CLR,M,M,M,M,M,M,M,M,M,M,M,M,M,M,73.40,KRTS 301435Z AUTO 00000KT 10SM CLR 23/02 A3016 RMK AO2,M
MEV,2022-07-30 14:35,-119.7500,38.9963,1441.42,66.20,39.20,37.03,0.00,0.00,0.00,30.14,M,10.00,M,CLR,M,M,M,M,M,M,M,M,M,M,M,M,M,M,66.20,KMEV 301435Z AUTO 00000KT 10SM CLR 19/04 A3014 RMK AO2,M
CXP,2022-07-30 14:50,-119.7326,39.1923,1431.00,69.80,41.00,35.09,0.00,0.00,0.00,30.15,M,10.00,M,FEW,M,M,M,1400.00,M,M,M,M,M,M,M,M,M,M,69.80,KCXP 301450Z AUTO 00000KT 10SM FEW014 21/05 A3015 RMK AO2,M
VGT,2022-07-30 14:53,-115.1933,36.2111,667.00,83.00,65.00,54.62,130.00,4.00,0.00,30.02,1015.60,10.00,M,CLR,M,M,M,M,M,M,M,M,M,M,M,M,M,M,84.64,KVGT 301453Z 13004KT 10SM CLR 28/18 A3002 RMK AO2 SLP156 T02830183 51008,M
P68,2022-07-30 14:53,-116.0056,39.6014,1993.00,69.00,40.00,34.43,0.00,0.00,0.00,30.24,1015.00,M,M,M,M,M,M,M,M,M,M,M,M,M,M,M,M,M,69.10,KP68 301453Z AUTO 00000KT 21/04 A3024 RMK AO1 SLP150 T02060044 51010,M
DRA,2022-07-30 14:53,-116.0278,36.6206,1009.00,80.00,59.00,48.58,40.00,6.00,0.00,30.08,1013.50,10.00,M,CLR,M,M,M,M,M,M,M,M,M,M,M,M,M,M,80.76,KDRA 301453Z AUTO 04006KT 10SM CLR 27/15 A3008 RMK AO2 SLP135 T02670150 51016,M
ELY,2022-07-30 14:53,-114.8453,39.2950,1909.00,67.00,46.00,46.94,170.00,5.00,0.00,30.28,1014.70,10.00,M,CLR,M,M,M,M,M,M,M,M,M,M,M,M,M,M,66.90,KELY 301453Z AUTO 17005KT 10SM CLR 19/08 A3028 RMK AO2 SLP147 T01940078 51007,M
LOL,2022-07-30 14:53,-118.5701,40.0684,1192.43,84.00,30.00,14.16,30.00,10.00,0.00,30.07,1012.60,10.00,M,CLR,M,M,M,M,M,M,M,M,M,M,M,M,M,M,81.11,KLOL 301453Z AUTO 03010KT 10SM CLR 29/M01 A3007 RMK AO2 SLP126 T02891011 51012,M
HTH,2022-07-30 14:55,-118.6315,38.5448,1282.89,78.80,35.60,21.00,290.00,5.00,0.00,30.09,M,10.00,M,CLR,M,M,M,M,M,M,M,M,M,M,M,M,M,M,78.80,KHTH 301455Z AUTO 29005KT 10SM CLR 26/02 A3009 RMK A01,M
BAM,2022-07-30 14:55,-116.8743,40.5990,1382.36,71.60,41.00,33.00,10.00,3.00,0.00,30.15,M,10.00,M,CLR,M,M,M,M,M,M,M,M,M,M,M,M,M,M,71.60,KBAM 301455Z AUTO 01003KT 10SM CLR 22/05 A3015 RMK AO1,M
MEV,2022-07-30 14:55,-119.7500,38.9963,1441.42,69.80,37.40,30.49,0.00,0.00,0.00,30.15,M,10.00,M,CLR,M,M,M,M,M,M,M,M,M,M,M,M,M,M,69.80,KMEV 301455Z AUTO 00000KT 10SM CLR 21/03 A3015 RMK AO2,M
RTS,2022-07-30 14:55,-119.8764,39.6682,1539.00,73.40,37.40,26.98,0.00,0.00,0.00,30.17,M,10.00,M,CLR,M,M,M,M,M,M,M,M,M,M,M,M,M,M,73.40,KRTS 301455Z AUTO 00000KT 10SM CLR 23/03 A3017 RMK AO2,M
BVU,2022-07-30 14:55,-114.8611,35.9475,671.00,M,M,M,M,M,0.00,M,M,M,M,M,M,M,M,M,M,M,M,M,M,M,M,M,M,M,M,KBVU 301455Z AUTO RMK AO2 PNO PWINO TSNO,M
RNO,2022-07-30 14:55,-119.7711,39.4839,1341.00,78.00,44.00,29.91,0.00,0.00,0.00,30.11,1012.60,10.00,M,SCT,SCT,BKN,M,10000.00,12000.00,14000.00,M,M,M,M,M,M,M,M,78.10,KRNO 301455Z 00000KT 10SM SCT100 SCT120 BKN140 26/07 A3011 RMK AO2 SLP126 ACC ALQDS T02560067 51010,M
TMT,2022-07-30 14:55,-117.1971,39.4643,1749.34,M,M,M,0.00,0.00,0.00,30.25,M,10.00,M,CLR,M,M,M,M,M,M,M,M,M,M,M,M,M,M,M,KTMT 301455Z AUTO 00000KT 10SM CLR A3025 RMK AO2,M
NFL,2022-07-30 14:56,-118.7010,39.4166,1199.00,81.00,28.00,14.38,140.00,3.00,0.00,30.06,1014.90,10.00,M,CLR,M,M,M,M,M,M,M,M,M,M,M,M,M,M,78.98,KNFL 301456Z AUTO 14003KT 10SM CLR 27/M02 A3006 RMK AO2 SLP149 T02721022 53012,M
WMC,2022-07-30 14:56,-117.8072,40.9019,1315.00,73.00,35.00,24.97,0.00,0.00,0.00,30.12,1014.10,10.00,M,CLR,M,M,M,M,M,M,M,M,M,M,M,M,M,M,73.00,KWMC 301456Z AUTO 00000KT 10SM CLR 23/02 A3012 RMK AO2 SLP141 T02280017 51012,M
HND,2022-07-30 14:56,-115.1344,35.9729,742.79,81.00,67.00,62.28,0.00,0.00,0.00,30.07,1016.60,10.00,M,CLR,M,M,M,M,M,M,M,M,M,M,M,M,M,M,83.40,KHND 301456Z 00000KT 10SM CLR 27/19 A3007 RMK AO2 SLP166 T02720194 51010,M
LAS,2022-07-30 14:56,-115.1634,36.0719,663.00,80.00,66.00,62.17,0.00,0.00,0.00,30.03,1014.40,10.00,M,FEW,BKN,M,M,14000.00,20000.00,M,M,M,M,M,M,M,M,M,82.17,KLAS 301456Z 00000KT 10SM FEW140 BKN200 27/19 A3003 RMK AO2 SLP144 T02670189 51010,M
TPH,2022-07-30 14:56,-117.0904,38.0505,1654.00,74.00,48.00,39.87,0.00,0.00,0.00,30.23,1015.00,10.00,M,CLR,M,M,M,M,M,M,M,M,M,M,M,M,M,M,73.90,KTPH 301456Z AUTO 00000KT 10SM CLR 23/09 A3023 RMK AO2 SLP150 T02330089 53012,M
EKO,2022-07-30 14:56,-115.7860,40.8242,1367.00,68.00,40.00,35.76,M,3.00,0.00,30.19,1016.00,10.00,M,CLR,M,M,M,M,M,M,M,M,M,M,M,M,M,M,68.00,KEKO 301456Z AUTO VRB03KT 10SM CLR 20/04 A3019 RMK AO2 SLP160 T02000044 51009,M
INS,2022-07-30 14:58,-115.6733,36.5872,955.00,77.50,61.50,57.84,110.00,5.00,0.00,30.08,1013.70,10.00,M,CLR,M,M,M,M,M,M,M,M,M,M,M,M,M,M,77.50,KINS 301458Z AUTO 11005KT 10SM CLR 25/16 A3008 RMK AO2 SLP137 T02530164 52014,M
LSV,2022-07-30 14:58,-115.0343,36.2362,570.00,82.00,82.00,100.00,0.00,0.00,0.00,30.01,1014.20,10.00,M,CLR,M,M,M,M,M,M,M,M,M,M,M,M,M,M,96.04,KLSV 301458Z AUTO 00000KT 10SM CLR 28/28 A3001 RMK AO2 SLP142 T02780278 $,M
CXP,2022-07-30 15:10,-119.7326,39.1923,1431.00,73.40,41.00,31.05,0.00,0.00,0.00,30.16,M,10.00,M,CLR,M,M,M,M,M,M,M,M,M,M,M,M,M,M,73.40,KCXP 301510Z AUTO 00000KT 10SM CLR 23/05 A3016 RMK AO2,M
NFL,2022-07-30 15:14,-118.7010,39.4166,1199.00,83.00,28.90,14.02,0.00,0.00,0.00,30.07,M,10.00,M,FEW,M,M,M,14000.00,M,M,M,M,M,M,M,M,M,M,80.30,KNFL 301514Z 00000KT 10SM FEW140 28/M02 A3007 RMK AO2 ACC DSNT W-NW T02831017,M
TMT,2022-07-30 15:15,-117.1971,39.4643,1749.34,M,M,M,120.00,3.00,0.00,30.25,M,10.00,M,CLR,M,M,M,M,M,M,M,M,M,M,M,M,M,M,M,KTMT 301515Z AUTO 12003KT 10SM CLR A3025 RMK AO2,M
BAM,2022-07-30 15:15,-116.8743,40.5990,1382.36,75.20,41.00,29.23,60.00,3.00,0.00,30.15,M,10.00,M,CLR,M,M,M,M,M,M,M,M,M,M,M,M,M,M,75.20,KBAM 301515Z AUTO 06003KT 10SM CLR 24/05 A3015 RMK AO1,M
HTH,2022-07-30 15:15,-118.6315,38.5448,1282.89,82.40,39.20,21.51,300.00,5.00,0.00,30.10,M,10.00,M,CLR,M,M,M,M,M,M,M,M,M,M,M,M,M,M,80.21,KHTH 301515Z AUTO 30005KT 10SM CLR 28/04 A3010 RMK A01,M
BVU,2022-07-30 15:15,-114.8611,35.9475,671.00,M,M,M,M,M,0.00,M,M,M,M,M,M,M,M,M,M,M,M,M,M,M,M,M,M,M,M,KBVU 301515Z AUTO RMK AO2 PNO PWINO TSNO,M
MEV,2022-07-30 15:15,-119.7500,38.9963,1441.42,71.60,37.40,28.68,0.00,0.00,0.00,30.15,M,10.00,M,CLR,M,M,M,M,M,M,M,M,M,M,M,M,M,M,71.60,KMEV 301515Z AUTO 00000KT 10SM CLR 22/03 A3015 RMK AO2,M
RTS,2022-07-30 15:15,-119.8764,39.6682,1539.00,73.40,37.40,26.98,0.00,0.00,0.00,30.17,M,10.00,M,CLR,M,M,M,M,M,M,M,M,M,M,M,M,M,M,73.40,KRTS 301515Z AUTO 00000KT 10SM CLR 23/03 A3017 RMK AO2,M
CXP,2022-07-30 15:30,-119.7326,39.1923,1431.00,75.20,41.00,29.23,0.00,0.00,0.00,30.16,M,10.00,M,CLR,M,M,M,M,M,M,M,M,M,M,M,M,M,M,75.20,KCXP 301530Z AUTO 00000KT 10SM CLR 24/05 A3016 RMK AO2,M
TMT,2022-07-30 15:35,-117.1971,39.4643,1749.34,M,M,M,0.00,0.00,0.00,30.25,M,10.00,M,CLR,M,M,M,M,M,M,M,M,M,M,M,M,M,M,M,KTMT 301535Z AUTO 00000KT 10SM CLR A3025 RMK AO2,M
BAM,2022-07-30 15:35,-116.8743,40.5990,1382.36,80.60,41.00,24.46,60.00,4.00,0.00,30.15,M,10.00,M,CLR,M,M,M,M,M,M,M,M,M,M,M,M,M,M,79.20,KBAM 301535Z AUTO 06004KT 10SM CLR 27/05 A3015 RMK AO1,M
HTH,2022-07-30 15:35,-118.6315,38.5448,1282.89,84.20,41.00,21.76,0.00,0.00,0.00,30.10,M,10.00,M,CLR,M,M,M,M,M,M,M,M,M,M,M,M,M,M,81.52,KHTH 301535Z AUTO 00000KT 10SM CLR 29/05 A3010 RMK A01,M
BVU,2022-07-30 15:35,-114.8611,35.9475,671.00,M,M,M,M,M,0.00,M,M,M,M,M,M,M,M,M,M,M,M,M,M,M,M,M,M,M,M,KBVU 301535Z AUTO RMK AO2 PNO PWINO TSNO,M
RTS,2022-07-30 15:35,-119.8764,39.6682,1539.00,75.20,39.20,27.26,0.00,0.00,0.00,30.17,M,10.00,M,CLR,M,M,M,M,M,M,M,M,M,M,M,M,M,M,75.20,KRTS 301535Z AUTO 00000KT 10SM CLR 24/04 A3017 RMK AO2,M
MEV,2022-07-30 15:35,-119.7500,38.9963,1441.42,71.60,42.80,35.37,310.00,3.00,0.00,30.15,M,10.00,M,CLR,M,M,M,M,M,M,M,M,M,M,M,M,M,M,71.60,KMEV 301535Z AUTO 31003KT 10SM CLR 22/06 A3015 RMK AO2,M
CXP,2022-07-30 15:50,-119.7326,39.1923,1431.00,77.00,39.20,25.67,0.00,0.00,0.00,30.16,M,10.00,M,CLR,M,M,M,M,M,M,M,M,M,M,M,M,M,M,77.00,KCXP 301550Z AUTO 00000KT 10SM CLR 25/04 A3016 RMK AO2,M
VGT,2022-07-30 15:53,-115.1933,36.2111,667.00,84.00,64.00,51.08,160.00,7.00,0.00,30.03,1016.00,10.00,M,CLR,M,M,M,M,M,M,M,M,M,M,M,M,M,M,85.36,KVGT 301553Z 16007KT 10SM CLR 29/18 A3003 RMK AO2 SLP160 T02890178,M
P68,2022-07-30 15:53,-116.0056,39.6014,1993.00,77.00,39.00,25.47,0.00,0.00,0.00,30.25,1014.70,M,M,M,M,M,M,M,M,M,M,M,M,M,M,M,M,M,77.00,KP68 301553Z AUTO 00000KT 25/04 A3025 RMK AO1 SLP147 T02500039,M
ELY,2022-07-30 15:53,-114.8453,39.2950,1909.00,73.00,46.00,38.11,M,4.00,0.00,30.28,1014.40,10.00,M,CLR,M,M,M,M,M,M,M,M,M,M,M,M,M,M,73.00,KELY 301553Z AUTO VRB04KT 10SM CLR 23/08 A3028 RMK AO2 SLP144 T02280078,M
LOL,2022-07-30 15:53,-118.5701,40.0684,1192.43,88.00,33.00,14.12,30.00,9.00,0.00,30.08,1013.10,10.00,M,CLR,M,M,M,M,M,M,M,M,M,M,M,M,M,M,84.25,KLOL 301553Z AUTO 03009KT 10SM CLR 31/01 A3008 RMK AO2 SLP131 T03110006,M
DRA,2022-07-30 15:53,-116.0278,36.6206,1009.00,85.00,58.00,39.97,M,3.00,0.00,30.08,1013.30,10.00,M,CLR,M,M,M,M,M,M,M,M,M,M,M,M,M,M,84.21,KDRA 301553Z AUTO VRB03KT 10SM CLR 29/14 A3008 RMK AO2 SLP133 T02940144,M
HTH,2022-07-30 15:55,-118.6315,38.5448,1282.89,86.00,42.80,22.02,310.00,3.00,0.00,30.10,M,10.00,M,CLR,M,M,M,M,M,M,M,M,M,M,M,M,M,M,82.95,KHTH 301555Z AUTO 31003KT 10SM CLR 30/06 A3010 RMK A01,M
BVU,2022-07-30 15:55,-114.8611,35.9475,671.00,M,M,M,M,M,0.00,M,M,M,M,M,M,M,M,M,M,M,M,M,M,M,M,M,M,M,M,KBVU 301555Z AUTO RMK AO2 PNO PWINO TSNO,M
RTS,2022-07-30 15:55,-119.8764,39.6682,1539.00,75.20,39.20,27.26,0.00,0.00,0.00,30.18,M,10.00,M,CLR,M,M,M,M,M,M,M,M,M,M,M,M,M,M,75.20,KRTS 301555Z AUTO 00000KT 10SM CLR 24/04 A3018 RMK AO2,M
BAM,2022-07-30 15:55,-116.8743,40.5990,1382.36,82.40,39.20,21.51,0.00,0.00,0.00,30.15,M,10.00,M,CLR,M,M,M,M,M,M,M,M,M,M,M,M,M,M,80.21,KBAM 301555Z AUTO 00000KT 10SM CLR 28/04 A3015 RMK AO1,M
TMT,2022-07-30 15:55,-117.1971,39.4643,1749.34,M,M,M,0.00,0.00,0.00,30.26,M,10.00,M,CLR,M,M,M,M,M,M,M,M,M,M,M,M,M,M,M,KTMT 301555Z AUTO 00000KT 10SM CLR A3026 RMK AO2,M
MEV,2022-07-30 15:55,-119.7500,38.9963,1441.42,73.40,42.80,33.29,0.00,0.00,0.00,30.15,M,10.00,M,CLR,M,M,M,M,M,M,M,M,M,M,M,M,M,M,73.40,KMEV 301555Z AUTO 00000KT 10SM CLR 23/06 A3015 RMK AO2,M
RNO,2022-07-30 15:55,-119.7711,39.4839,1341.00,82.00,45.00,27.24,M,3.00,0.00,30.12,1012.80,10.00,M,SCT,SCT,M,M,10000.00,14000.00,M,M,M,M,M,M,M,M,M,80.28,KRNO 301555Z VRB03KT 10SM SCT100 SCT140 28/07 A3012 RMK AO2 SLP128 T02780072,M
EKO,2022-07-30 15:56,-115.7860,40.8242,1367.00,76.00,40.00,27.37,0.00,0.00,0.00,30.19,1015.60,10.00,M,CLR,M,M,M,M,M,M,M,M,M,M,M,M,M,M,75.90,KEKO 301556Z AUTO 00000KT 10SM CLR 24/04 A3019 RMK AO2 SLP156 T02440044,M
WMC,2022-07-30 15:56,-117.8072,40.9019,1315.00,85.00,34.00,16.16,60.00,7.00,0.00,30.12,1013.70,10.00,M,CLR,M,M,M,M,M,M,M,M,M,M,M,M,M,M,81.82,KWMC 301556Z AUTO 06007KT 10SM CLR 29/01 A3012 RMK AO2 SLP137 T02940011,M
NFL,2022-07-30 15:56,-118.7010,39.4166,1199.00,87.00,32.00,13.90,0.00,0.00,0.00,30.07,1015.10,10.00,M,FEW,M,M,M,14000.00,M,M,M,M,M,M,M,M,M,M,83.51,KNFL 301556Z 00000KT 10SM FEW140 31/00 A3007 RMK AO2 SLP151 ACC DSNT NW T03060000,M
HND,2022-07-30 15:56,-115.1344,35.9729,742.79,81.00,66.00,60.37,0.00,0.00,0.00,30.08,1017.60,10.00,M,CLR,M,M,M,M,M,M,M,M,M,M,M,M,M,M,83.11,KHND 301556Z 00000KT 10SM CLR 27/19 A3008 RMK AO2 SLP176 T02720189,M
TPH,2022-07-30 15:56,-117.0904,38.0505,1654.00,76.00,50.00,40.19,0.00,0.00,0.00,30.23,1015.30,10.00,M,CLR,M,M,M,M,M,M,M,M,M,M,M,M,M,M,75.90,KTPH 301556Z AUTO 00000KT 10SM CLR 24/10 A3023 RMK AO2 SLP153 T02440100,M
LAS,2022-07-30 15:56,-115.1634,36.0719,663.00,82.00,64.00,54.50,90.00,6.00,0.00,30.04,1015.00,10.00,M,FEW,BKN,M,M,14000.00,20000.00,M,M,M,M,M,M,M,M,M,83.47,KLAS 301556Z 09006KT 10SM FEW140 BKN200 28/18 A3004 RMK AO2 SLP150 T02780178,M
INS,2022-07-30 15:58,-115.6733,36.5872,955.00,79.50,59.70,50.79,140.00,3.00,0.00,30.08,1013.70,10.00,M,SCT,M,M,M,15000.00,M,M,M,M,M,M,M,M,M,M,79.50,KINS 301558Z AUTO 14003KT 10SM SCT150 26/15 A3008 RMK AO2 SLP137 T02640154,M
LSV,2022-07-30 15:58,-115.0343,36.2362,570.00,85.50,71.00,61.77,90.00,3.00,0.00,30.02,1014.40,10.00,M,CLR,M,M,M,M,M,M,M,M,M,M,M,M,M,M,90.76,KLSV 301558Z AUTO 09003KT 10SM CLR 30/22 A3002 RMK AO2 SLP144 T02970216 $,M
CXP,2022-07-30 16:10,-119.7326,39.1923,1431.00,78.80,39.20,24.19,0.00,0.00,0.00,30.16,M,10.00,M,CLR,M,M,M,M,M,M,M,M,M,M,M,M,M,M,78.80,KCXP 301610Z AUTO 00000KT 10SM CLR 26/04 A3016 RMK AO2,M
MEV,2022-07-30 16:15,-119.7500,38.9963,1441.42,77.00,41.00,27.53,0.00,0.00,0.00,30.15,M,10.00,M,CLR,M,M,M,M,M,M,M,M,M,M,M,M,M,M,77.00,KMEV 301615Z AUTO 00000KT 10SM CLR 25/05 A3015 RMK AO2,M
TMT,2022-07-30 16:15,-117.1971,39.4643,1749.34,M,M,M,0.00,0.00,0.00,30.25,M,10.00,M,CLR,M,M,M,M,M,M,M,M,M,M,M,M,M,M,M,KTMT 301615Z AUTO 00000KT 10SM CLR A3025 RMK AO2,M
HTH,2022-07-30 16:15,-118.6315,38.5448,1282.89,87.80,42.80,20.79,0.00,0.00,0.00,30.10,M,10.00,M,CLR,M,M,M,M,M,M,M,M,M,M,M,M,M,M,84.40,KHTH 301615Z AUTO 00000KT 10SM CLR 31/06 A3010 RMK A01,M
BAM,2022-07-30 16:15,-116.8743,40.5990,1382.36,84.20,39.20,20.29,0.00,0.00,0.00,30.16,M,10.00,M,CLR,M,M,M,M,M,M,M,M,M,M,M,M,M,M,81.44,KBAM 301615Z AUTO 00000KT 10SM CLR 29/04 A3016 RMK AO1,M
BVU,2022-07-30 16:15,-114.8611,35.9475,671.00,M,M,M,M,M,0.00,M,M,M,M,M,M,M,M,M,M,M,M,M,M,M,M,M,M,M,M,KBVU 301615Z AUTO RMK AO2 PNO PWINO TSNO,M
RTS,2022-07-30 16:15,-119.8764,39.6682,1539.00,77.00,37.40,23.93,0.00,0.00,0.00,30.17,M,10.00,M,CLR,M,M,M,M,M,M,M,M,M,M,M,M,M,M,77.00,KRTS 301615Z AUTO 00000KT 10SM CLR 25/03 A3017 RMK AO2,M
CXP,2022-07-30 16:30,-119.7326,39.1923,1431.00,80.60,39.20,22.81,0.00,0.00,0.00,30.16,M,10.00,M,CLR,M,M,M,M,M,M,M,M,M,M,M,M,M,M,79.10,KCXP 301630Z AUTO 00000KT 10SM CLR 27/04 A3016 RMK AO2,M
MEV,2022-07-30 16:35,-119.7500,38.9963,1441.42,80.60,37.40,21.25,M,5.00,0.00,30.14,M,10.00,M,CLR,M,M,M,M,M,M,M,M,M,M,M,M,M,M,79.02,KMEV 301635Z AUTO VRB05KT 10SM CLR 27/03 A3014 RMK AO2,M
BVU,2022-07-30 16:35,-114.8611,35.9475,671.00,M,M,M,M,M,0.00,M,M,M,M,M,M,M,M,M,M,M,M,M,M,M,M,M,M,M,M,KBVU 301635Z AUTO RMK AO2 PNO PWINO TSNO,M
RTS,2022-07-30 16:35,-119.8764,39.6682,1539.00,80.60,37.40,21.25,0.00,0.00,0.00,30.17,M,10.00,M,CLR,M,M,M,M,M,M,M,M,M,M,M,M,M,M,79.02,KRTS 301635Z AUTO 00000KT 10SM CLR 27/03 A3017 RMK AO2,M
BAM,2022-07-30 16:35,-116.8743,40.5990,1382.36,86.00,41.00,20.54,340.00,6.00,0.00,30.15,M,10.00,M,CLR,M,M,M,M,M,M,M,M,M,M,M,M,M,M,82.86,KBAM 301635Z AUTO 34006KT 10SM CLR 30/05 A3015 RMK AO1,M
HTH,2022-07-30 16:35,-118.6315,38.5448,1282.89,89.60,42.80,19.64,0.00,0.00,0.00,30.09,M,10.00,M,CLR,M,M,M,M,M,M,M,M,M,M,M,M,M,M,85.93,KHTH 301635Z AUTO 00000KT 10SM CLR 32/06 A3009 RMK A01,M
TMT,2022-07-30 16:35,-117.1971,39.4643,1749.34,M,M,M,0.00,0.00,0.00,30.25,M,10.00,M,CLR,M,M,M,M,M,M,M,M,M,M,M,M,M,M,M,KTMT 301635Z AUTO 00000KT 10SM CLR A3025 RMK AO2,M
CXP,2022-07-30 16:50,-119.7326,39.1923,1431.00,84.20,39.20,20.29,0.00,0.00,0.00,30.15,M,10.00,M,CLR,M,M,M,M,M,M,M,M,M,M,M,M,M,M,81.44,KCXP 301650Z AUTO 00000KT 10SM CLR 29/04 A3015 RMK AO2,M
P68,2022-07-30 16:53,-116.0056,39.6014,1993.00,79.00,41.00,25.78,90.00,5.00,0.00,30.24,1014.90,M,M,M,M,M,M,M,M,M,M,M,M,M,M,M,M,M,79.00,KP68 301653Z AUTO 09005KT 26/05 A3024 RMK AO1 SLP149 T02610050,M
LOL,2022-07-30 16:53,-118.5701,40.0684,1192.43,93.00,35.00,13.07,50.00,7.00,0.00,30.07,1012.80,10.00,M,CLR,M,M,M,M,M,M,M,M,M,M,M,M,M,M,88.56,KLOL 301653Z AUTO 05007KT 10SM CLR 34/02 A3007 RMK AO2 SLP128 T03390017,M
ELY,2022-07-30 16:53,-114.8453,39.2950,1909.00,79.00,47.00,32.29,90.00,3.00,0.00,30.27,1014.30,10.00,M,CLR,M,M,M,M,M,M,M,M,M,M,M,M,M,M,79.00,KELY 301653Z AUTO 09003KT 10SM CLR 26/08 A3027 RMK AO2 SLP143 T02610083,M
VGT,2022-07-30 16:53,-115.1933,36.2111,667.00,85.00,64.00,49.62,130.00,6.00,0.00,30.04,1016.20,10.00,M,CLR,M,M,M,M,M,M,M,M,M,M,M,M,M,M,86.23,KVGT 301653Z 13006KT 10SM CLR 29/18 A3004 RMK AO2 SLP162 T02940178,M
DRA,2022-07-30 16:53,-116.0278,36.6206,1009.00,86.00,59.00,40.14,120.00,10.00,0.00,30.08,1013.10,10.00,M,CLR,M,M,M,M,M,M,M,M,M,M,M,M,M,M,85.47,KDRA 301653Z AUTO 12010KT 10SM CLR 30/15 A3008 RMK AO2 SLP131 T03000150,M
HTH,2022-07-30 16:55,-118.6315,38.5448,1282.89,89.60,42.80,19.64,0.00,0.00,0.00,30.09,M,10.00,M,CLR,M,M,M,M,M,M,M,M,M,M,M,M,M,M,85.93,KHTH 301655Z AUTO 00000KT 10SM CLR 32/06 A3009 RMK A01,M
TMT,2022-07-30 16:55,-117.1971,39.4643,1749.34,M,M,M,0.00,0.00,0.00,30.25,M,10.00,M,CLR,M,M,M,M,M,M,M,M,M,M,M,M,M,M,M,KTMT 301655Z AUTO 00000KT 10SM CLR A3025 RMK AO2,M
BVU,2022-07-30 16:55,-114.8611,35.9475,671.00,M,M,M,M,M,0.00,M,M,M,M,M,M,M,M,M,M,M,M,M,M,M,M,M,M,M,M,KBVU 301655Z AUTO RMK AO2 PNO PWINO TSNO,M
RTS,2022-07-30 16:55,-119.8764,39.6682,1539.00,82.40,35.60,18.67,0.00,0.00,0.00,30.17,M,10.00,M,CLR,M,M,M,M,M,M,M,M,M,M,M,M,M,M,80.08,KRTS 301655Z AUTO 00000KT 10SM CLR 28/02 A3017 RMK AO2,M
MEV,2022-07-30 16:55,-119.7500,38.9963,1441.42,82.40,39.20,21.51,0.00,0.00,0.00,30.14,M,10.00,M,CLR,M,M,M,M,M,M,M,M,M,M,M,M,M,M,80.21,KMEV 301655Z AUTO 00000KT 10SM CLR 28/04 A3014 RMK AO2,M
BAM,2022-07-30 16:55,-116.8743,40.5990,1382.36,87.80,41.00,19.40,340.00,5.00,0.00,30.15,M,10.00,M,CLR,M,M,M,M,M,M,M,M,M,M,M,M,M,M,84.30,KBAM 301655Z AUTO 34005KT 10SM CLR 31/05 A3015 RMK AO1,M
RNO,2022-07-30 16:55,-119.7711,39.4839,1341.00,85.00,43.00,22.98,0.00,0.00,0.00,30.11,1012.50,10.00,M,SCT,SCT,M,M,10000.00,14000.00,M,M,M,M,M,M,M,M,M,82.13,KRNO 301655Z 00000KT 10SM SCT100 SCT140 29/06 A3011 RMK AO2 SLP125 T02940061,M
NFL,2022-07-30 16:56,-118.7010,39.4166,1199.00,91.00,28.00,10.44,M,3.00,0.00,30.07,1015.10,10.00,M,FEW,FEW,M,M,10000.00,14000.00,M,M,M,M,M,M,M,M,M,86.19,KNFL 301656Z VRB03KT 10SM FEW100 FEW140 33/M02 A3007 RMK AO2 SLP151 T03281022,M
EKO,2022-07-30 16:56,-115.7860,40.8242,1367.00,82.00,40.00,22.39,0.00,0.00,0.00,30.18,1015.30,10.00,M,CLR,M,M,M,M,M,M,M,M,M,M,M,M,M,M,79.98,KEKO 301656Z AUTO 00000KT 10SM CLR 28/04 A3018 RMK AO2 SLP153 T02780044,M
LAS,2022-07-30 16:56,-115.1634,36.0719,663.00,86.00,63.00,46.25,70.00,5.00,0.00,30.05,1015.00,10.00,M,FEW,FEW,BKN,M,9000.00,14000.00,20000.00,M,M,M,M,M,M,M,M,86.88,KLAS 301656Z 07005KT 10SM FEW090 FEW140 BKN200 30/17 A3005 RMK AO2 SLP150 T03000172,M
HND,2022-07-30 16:56,-115.1344,35.9729,742.79,82.00,64.00,54.50,0.00,0.00,0.00,30.08,1017.70,10.00,M,CLR,M,M,M,M,M,M,M,M,M,M,M,M,M,M,83.47,KHND 301656Z 00000KT 10SM CLR 28/18 A3008 RMK AO2 SLP177 T02780178,M
TPH,2022-07-30 16:56,-117.0904,38.0505,1654.00,80.00,51.00,36.44,200.00,7.00,0.00,30.22,1014.70,10.00,M,CLR,M,M,M,M,M,M,M,M,M,M,M,M,M,M,79.72,KTPH 301656Z AUTO 20007KT 10SM CLR 27/11 A3022 RMK AO2 SLP147 T02670106,M
WMC,2022-07-30 16:56,-117.8072,40.9019,1315.00,92.00,35.00,13.53,60.00,8.00,0.00,30.12,1013.30,10.00,M,CLR,M,M,M,M,M,M,M,M,M,M,M,M,M,M,87.60,KWMC 301656Z AUTO 06008KT 10SM CLR 33/02 A3012 RMK AO2 SLP133 T03330017,M
LSV,2022-07-30 16:58,-115.0343,36.2362,570.00,87.30,68.50,53.73,90.00,5.00,0.00,30.02,1014.40,10.00,M,FEW,M,M,M,18000.00,M,M,M,M,M,M,M,M,M,M,91.20,KLSV 301658Z AUTO 09005KT 10SM FEW180 31/20 A3002 RMK AO2 SLP144 T03070203 $,M
INS,2022-07-30 16:58,-115.6733,36.5872,955.00,84.70,57.70,39.94,70.00,6.00,0.00,30.08,1013.50,10.00,M,OVC,M,M,M,14000.00,M,M,M,M,M,M,M,M,M,M,84.00,KINS 301658Z AUTO 07006KT 10SM OVC140 29/14 A3008 RMK AO2 SLP135 T02930143,M
CXP,2022-07-30 17:10,-119.7326,39.1923,1431.00,86.00,39.20,19.15,180.00,3.00,0.00,30.15,M,10.00,M,CLR,M,M,M,M,M,M,M,M,M,M,M,M,M,M,82.79,KCXP 301710Z AUTO 18003KT 10SM CLR 30/04 A3015 RMK AO2,M
BVU,2022-07-30 17:15,-114.8611,35.9475,671.00,M,M,M,M,M,0.00,M,M,M,M,M,M,M,M,M,M,M,M,M,M,M,M,M,M,M,M,KBVU 301715Z AUTO RMK AO2 PNO PWINO TSNO,M
TMT,2022-07-30 17:15,-117.1971,39.4643,1749.34,M,M,M,10.00,3.00,0.00,30.24,M,10.00,M,CLR,M,M,M,M,M,M,M,M,M,M,M,M,M,M,M,KTMT 301715Z AUTO 01003KT 10SM CLR A3024 RMK AO2,M
BAM,2022-07-30 17:15,-116.8743,40.5990,1382.36,89.60,39.20,17.09,340.00,4.00,0.00,30.15,M,10.00,M,CLR,M,M,M,M,M,M,M,M,M,M,M,M,M,M,85.73,KBAM 301715Z AUTO 34004KT 10SM CLR 32/04 A3015 RMK AO1,M
HTH,2022-07-30 17:15,-118.6315,38.5448,1282.89,91.40,42.80,18.56,M,4.00,0.00,30.10,M,10.00,M,CLR,M,M,M,M,M,M,M,M,M,M,M,M,M,M,87.52,KHTH 301715Z AUTO VRB04KT 10SM CLR 33/06 A3010 RMK A01,M
MEV,2022-07-30 17:15,-119.7500,38.9963,1441.42,86.00,39.20,19.15,0.00,0.00,0.00,30.14,M,3.00,M,CLR,M,M,M,M,M,M,M,HZ,M,M,M,M,M,M,82.79,KMEV 301715Z AUTO 00000KT 3SM HZ CLR 30/04 A3014 RMK AO2,M
RTS,2022-07-30 17:15,-119.8764,39.6682,1539.00,84.20,35.60,17.61,190.00,3.00,0.00,30.17,M,10.00,M,CLR,M,M,M,M,M,M,M,M,M,M,M,M,M,M,81.34,KRTS 301715Z AUTO 19003KT 10SM CLR 29/02 A3017 RMK AO2,M
CXP,2022-07-30 17:30,-119.7326,39.1923,1431.00,86.00,37.40,17.85,0.00,0.00,0.00,30.15,M,10.00,M,CLR,M,M,M,M,M,M,M,M,M,M,M,M,M,M,82.73,KCXP 301730Z AUTO 00000KT 10SM CLR 30/03 A3015 RMK AO2,M
TMT,2022-07-30 17:35,-117.1971,39.4643,1749.34,M,M,M,360.00,5.00,0.00,30.24,M,10.00,M,CLR,M,M,M,M,M,M,M,M,M,M,M,M,M,M,M,KTMT 301735Z AUTO 36005KT 10SM CLR A3024 RMK AO2,M
HTH,2022-07-30 17:35,-118.6315,38.5448,1282.89,91.40,44.60,19.89,350.00,8.00,0.00,30.10,M,10.00,M,CLR,M,M,M,M,M,M,M,M,M,M,M,M,M,M,87.68,KHTH 301735Z AUTO 35008KT 320V030 10SM CLR 33/07 A3010 RMK A01,M
MEV,2022-07-30 17:35,-119.7500,38.9963,1441.42,87.80,37.40,16.86,300.00,4.00,0.00,30.14,M,9.00,M,CLR,M,M,M,M,M,M,M,M,M,M,M,M,M,M,84.16,KMEV 301735Z AUTO 30004KT 9SM CLR 31/03 A3014 RMK AO2,M
RTS,2022-07-30 17:35,-119.8764,39.6682,1539.00,87.80,32.00,13.59,150.00,6.00,0.00,30.17,M,10.00,M,CLR,M,M,M,M,M,M,M,M,M,M,M,M,M,M,84.08,KRTS 301735Z AUTO 15006KT 10SM CLR 31/00 A3017 RMK AO2,M
BAM,2022-07-30 17:35,-116.8743,40.5990,1382.36,91.40,39.20,16.15,0.00,0.00,0.00,30.15,M,10.00,M,CLR,M,M,M,M,M,M,M,M,M,M,M,M,M,M,87.30,KBAM 301735Z AUTO 00000KT 10SM CLR 33/04 A3015 RMK AO1,M
BVU,2022-07-30 17:35,-114.8611,35.9475,671.00,M,M,M,M,M,0.00,M,M,M,M,M,M,M,M,M,M,M,M,M,M,M,M,M,M,M,M,KBVU 301735Z AUTO RMK AO2 PNO PWINO TSNO,M
CXP,2022-07-30 17:50,-119.7326,39.1923,1431.00,89.60,35.60,14.83,M,3.00,0.00,30.15,M,10.00,M,CLR,M,M,M,M,M,M,M,M,M,M,M,M,M,M,85.62,KCXP 301750Z AUTO VRB03KT 10SM CLR 32/02 A3015 RMK AO2,M
LOL,2022-07-30 17:53,-118.5701,40.0684,1192.43,96.00,35.00,11.88,M,3.00,0.00,30.06,1012.60,10.00,M,CLR,M,M,M,M,M,M,M,M,M,M,M,M,M,M,91.07,KLOL 301753Z AUTO VRB03KT 10SM CLR 36/02 A3006 RMK AO2 SLP126 T03560017 10361 20139 58000,M
DRA,2022-07-30 17:53,-116.0278,36.6206,1009.00,89.00,56.00,32.53,120.00,7.00,0.00,30.08,1013.00,10.00,M,CLR,M,M,M,M,M,M,M,M,M,M,M,M,M,M,87.44,KDRA 301753Z AUTO 12007KT 10SM CLR 32/13 A3008 RMK AO2 SLP130 T03170133 10322 20228 55001,M
ELY,2022-07-30 17:53,-114.8453,39.2950,1909.00,85.00,43.00,22.98,300.00,5.00,0.00,30.26,1013.60,10.00,M,CLR,M,M,M,M,M,M,M,M,M,M,M,M,M,M,82.13,KELY 301753Z AUTO 30005KT 10SM CLR 29/06 A3026 RMK AO2 SLP136 T02940061 10294 20100 58007,M
P68,2022-07-30 17:53,-116.0056,39.6014,1993.00,86.00,38.00,18.20,30.00,7.00,0.00,30.23,1013.80,M,M,M,M,M,M,M,M,M,M,M,M,M,M,M,M,M,82.74,KP68 301753Z AUTO 03007KT 30/03 A3023 RMK AO1 SLP138 T03000033 10300 20117 58002,M
VGT,2022-07-30 17:53,-115.1933,36.2111,667.00,88.00,61.00,40.44,110.00,6.00,0.00,30.04,1016.40,10.00,M,CLR,M,M,M,M,M,M,M,M,M,M,M,M,M,M,88.02,KVGT 301753Z 11006KT 10SM CLR 31/16 A3004 RMK AO2 SLP164 T03110161 10311 20256 51007,M
RTS,2022-07-30 17:55,-119.8764,39.6682,1539.00,89.60,32.00,12.84,M,4.00,0.00,30.17,M,10.00,M,CLR,M,M,M,M,M,M,M,M,M,M,M,M,M,M,85.54,KRTS 301755Z AUTO VRB04KT 10SM CLR 32/M00 A3017 RMK AO2,M
TMT,2022-07-30 17:55,-117.1971,39.4643,1749.34,M,M,M,350.00,5.00,0.00,30.24,M,10.00,M,CLR,M,M,M,M,M,M,M,M,M,M,M,M,M,M,M,KTMT 301755Z AUTO 35005KT 10SM CLR A3024 RMK AO2,M
HTH,2022-07-30 17:55,-118.6315,38.5448,1282.89,91.40,42.80,18.56,320.00,4.00,0.00,30.10,M,10.00,10.00,CLR,M,M,M,M,M,M,M,M,M,M,M,M,M,M,87.52,KHTH 301755Z AUTO 32004G10KT 10SM CLR 33/06 A3010 RMK A01,M
BAM,2022-07-30 17:55,-116.8743,40.5990,1382.36,93.20,37.40,14.23,0.00,0.00,0.00,30.15,M,10.00,M,CLR,M,M,M,M,M,M,M,M,M,M,M,M,M,M,88.83,KBAM 301755Z AUTO 00000KT 10SM CLR 34/03 A3015 RMK AO1,M
MEV,2022-07-30 17:55,-119.7500,38.9963,1441.42,89.60,37.40,15.92,300.00,5.00,0.00,30.13,M,10.00,M,CLR,M,M,M,M,M,M,M,M,M,M,M,M,M,M,85.67,KMEV 301755Z AUTO 30005KT 10SM CLR 32/03 A3013 RMK AO2,M
BVU,2022-07-30 17:55,-114.8611,35.9475,671.00,M,M,M,M,M,0.00,M,M,M,M,M,M,M,M,M,M,M,M,M,M,M,M,M,M,M,M,KBVU 301755Z AUTO RMK AO2 PNO PWINO TSNO,M
RNO,2022-07-30 17:55,-119.7711,39.4839,1341.00,93.00,39.00,15.24,M,3.00,0.00,30.10,1011.80,10.00,M,SCT,SCT,M,M,10000.00,16000.00,M,M,M,M,M,M,M,M,M,88.73,KRNO 301755Z VRB03KT 10SM SCT100 SCT160 34/04 A3010 RMK AO2 SLP118 T03390039 10339 20211 58003,M
HND,2022-07-30 17:56,-115.1344,35.9729,742.79,85.00,64.00,49.62,M,3.00,0.00,30.08,1017.70,10.00,M,CLR,M,M,M,M,M,M,M,M,M,M,M,M,M,M,86.23,KHND 301756Z VRB03KT 10SM CLR 29/18 A3008 RMK AO2 SLP177 T02940178 10294 20239 51006,M
NFL,2022-07-30 17:56,-118.7010,39.4166,1199.00,95.00,30.00,10.01,0.00,0.00,0.00,30.07,1015.10,10.00,M,FEW,FEW,M,M,10000.00,14000.00,M,M,M,M,M,M,M,M,M,89.45,KNFL 301756Z 00000KT 10SM FEW100 FEW140 35/M01 A3007 RMK AO2 SLP151 T03501011 10356 20189 51002,M
EKO,2022-07-30 17:56,-115.7860,40.8242,1367.00,89.00,39.00,17.22,0.00,0.00,0.00,30.18,1014.70,10.00,M,CLR,M,M,M,M,M,M,M,M,M,M,M,M,M,M,85.30,KEKO 301756Z AUTO 00000KT 10SM CLR 32/04 A3018 RMK AO2 SLP147 T03170039 10322 20106 58006,M
LAS,2022-07-30 17:56,-115.1634,36.0719,663.00,85.00,62.00,46.42,M,3.00,0.00,30.05,1015.10,10.00,M,FEW,FEW,BKN,M,9000.00,14000.00,20000.00,M,M,M,M,M,M,M,M,85.49,KLAS 301756Z VRB03KT 10SM FEW090 FEW140 BKN200 29/17 A3005 RMK AO2 SLP151 T02940167 10306 20244 51006,M
WMC,2022-07-30 17:56,-117.8072,40.9019,1315.00,97.00,32.00,10.21,50.00,8.00,0.00,30.11,1013.00,10.00,M,CLR,M,M,M,M,M,M,M,M,M,M,M,M,M,M,91.35,KWMC 301756Z AUTO 05008KT 10SM CLR 36/00 A3011 RMK AO2 SLP130 T03610000 10361 20133 58002,M
TPH,2022-07-30 17:56,-117.0904,38.0505,1654.00,84.00,52.00,33.19,200.00,7.00,0.00,30.21,1014.40,10.00,M,CLR,M,M,M,M,M,M,M,M,M,M,M,M,M,M,82.36,KTPH 301756Z AUTO 20007KT 10SM CLR 29/11 A3021 RMK AO2 SLP144 T02890111 10289 20161 58005,M
INS,2022-07-30 17:58,-115.6733,36.5872,955.00,86.40,56.00,35.70,100.00,6.00,0.00,30.08,1013.30,10.00,M,BKN,M,M,M,16000.00,M,M,M,M,M,M,M,M,M,M,85.05,KINS 301758Z AUTO 10006KT 10SM BKN160 30/13 A3008 RMK AO2 SLP133 T03020134 10302 20227 58002,M
LSV,2022-07-30 17:58,-115.0343,36.2362,570.00,89.00,67.30,48.69,90.00,5.00,0.00,30.02,1014.20,10.00,M,FEW,SCT,M,M,16000.00,18000.00,M,M,M,M,M,M,M,M,M,92.42,KLSV 301758Z AUTO 09005KT 10SM FEW160 SCT180 32/20 A3002 RMK AO2 SLP142 T03170196 10317 20242 52005 $,M
CXP,2022-07-30 18:10,-119.7326,39.1923,1431.00,93.20,35.60,13.25,M,4.00,0.00,30.14,M,10.00,M,CLR,M,M,M,M,M,M,M,M,M,M,M,M,M,M,88.76,KCXP 301810Z AUTO VRB04KT 10SM CLR 34/02 A3014 RMK AO2,M
TMT,2022-07-30 18:15,-117.1971,39.4643,1749.34,M,M,M,350.00,5.00,0.00,30.24,M,10.00,M,CLR,M,M,M,M,M,M,M,M,M,M,M,M,M,M,M,KTMT 301815Z AUTO 35005KT 10SM CLR A3024 RMK AO2,M
HTH,2022-07-30 18:15,-118.6315,38.5448,1282.89,93.20,42.80,17.55,M,5.00,0.00,30.09,M,10.00,M,CLR,M,M,M,M,M,M,M,M,M,M,M,M,M,M,89.17,KHTH 301815Z AUTO VRB05KT 10SM CLR 34/06 A3009 RMK A01,M
BAM,2022-07-30 18:15,-116.8743,40.5990,1382.36,95.00,33.80,11.67,20.00,4.00,0.00,30.14,M,10.00,M,CLR,M,M,M,M,M,M,M,M,M,M,M,M,M,M,89.97,KBAM 301815Z AUTO 02004KT 10SM CLR 35/01 A3014 RMK AO1,M
MEV,2022-07-30 18:15,-119.7500,38.9963,1441.42,91.40,37.40,15.05,M,3.00,0.00,30.13,M,10.00,M,CLR,M,M,M,M,M,M,M,M,M,M,M,M,M,M,87.23,KMEV 301815Z AUTO VRB03KT 10SM CLR 33/03 A3013 RMK AO2,M
RTS,2022-07-30 18:15,-119.8764,39.6682,1539.00,91.40,30.20,11.28,160.00,6.00,0.00,30.17,M,10.00,M,CLR,M,M,M,M,M,M,M,M,M,M,M,M,M,M,86.71,KRTS 301815Z AUTO 16006KT 10SM CLR 33/M01 A3017 RMK AO2,M
BVU,2022-07-30 18:15,-114.8611,35.9475,671.00,M,M,M,M,M,0.00,M,M,M,M,M,M,M,M,M,M,M,M,M,M,M,M,M,M,M,M,KBVU 301815Z AUTO RMK AO2 PNO PWINO TSNO,M
CXP,2022-07-30 18:30,-119.7326,39.1923,1431.00,95.00,35.60,12.53,80.00,11.00,0.00,30.13,M,10.00,M,CLR,M,M,M,M,M,M,M,M,M,M,M,M,M,M,90.25,KCXP 301830Z AUTO 08011KT 10SM CLR 35/02 A3013 RMK AO2,M
BVU,2022-07-30 18:35,-114.8611,35.9475,671.00,M,M,M,M,M,0.00,M,M,M,M,M,M,M,M,M,M,M,M,M,M,M,M,M,M,M,M,KBVU 301835Z AUTO RMK AO2 PNO PWINO TSNO,M
RTS,2022-07-30 18:35,-119.8764,39.6682,1539.00,93.20,30.20,10.67,120.00,8.00,0.00,30.16,M,10.00,M,CLR,M,M,M,M,M,M,M,M,M,M,M,M,M,M,88.09,KRTS 301835Z AUTO 12008KT 10SM CLR 34/M01 A3016 RMK AO2,M
MEV,2022-07-30 18:35,-119.7500,38.9963,1441.42,93.20,37.40,14.23,320.00,8.00,0.00,30.12,M,10.00,M,CLR,M,M,M,M,M,M,M,M,M,M,M,M,M,M,88.83,KMEV 301835Z AUTO 32008KT 10SM CLR 34/03 A3012 RMK AO2,M
BAM,2022-07-30 18:35,-116.8743,40.5990,1382.36,96.80,33.80,11.04,80.00,3.00,0.00,30.13,M,10.00,M,CLR,M,M,M,M,M,M,M,M,M,M,M,M,M,M,91.44,KBAM 301835Z AUTO 08003KT 10SM CLR 36/01 A3013 RMK AO1,M
HTH,2022-07-30 18:35,-118.6315,38.5448,1282.89,93.20,42.80,17.55,40.00,5.00,0.00,30.09,M,10.00,M,CLR,M,M,M,M,M,M,M,M,M,M,M,M,M,M,89.17,KHTH 301835Z AUTO 04005KT 10SM CLR 34/06 A3009 RMK A01,M
TMT,2022-07-30 18:35,-117.1971,39.4643,1749.34,M,M,M,10.00,13.00,0.00,30.22,M,10.00,16.00,CLR,M,M,M,M,M,M,M,M,M,M,M,M,M,M,M,KTMT 301835Z AUTO 01013G16KT 10SM CLR A3022 RMK AO2,M
CXP,2022-07-30 18:50,-119.7326,39.1923,1431.00,95.00,35.60,12.53,50.00,8.00,0.00,30.13,M,10.00,15.00,CLR,M,M,M,M,M,M,M,M,M,M,M,M,M,M,90.25,KCXP 301850Z AUTO 05008G15KT 10SM CLR 35/02 A3013 RMK AO2,M
ELY,2022-07-30 18:53,-114.8453,39.2950,1909.00,88.00,37.00,16.49,30.00,11.00,0.00,30.24,1013.10,10.00,17.00,CLR,M,M,M,M,M,M,M,M,M,M,M,M,M,M,84.32,KELY 301853Z AUTO 03011G17KT 10SM CLR 31/03 A3024 RMK AO2 SLP131 T03110028,M
DRA,2022-07-30 18:53,-116.0278,36.6206,1009.00,90.00,56.00,31.62,M,4.00,0.00,30.07,1012.50,10.00,M,CLR,M,M,M,M,M,M,M,M,M,M,M,M,M,M,88.29,KDRA 301853Z AUTO VRB04KT 10SM CLR 32/13 A3007 RMK AO2 SLP125 T03220133,M
P68,2022-07-30 18:53,-116.0056,39.6014,1993.00,90.00,28.90,11.18,30.00,9.00,0.00,30.22,1013.40,M,16.00,M,M,M,M,M,M,M,M,M,M,M,M,M,M,M,85.52,KP68 301853Z AUTO 03009G16KT 32/M02 A3022 RMK AO1 SLP134 T03221017,M
VGT,2022-07-30 18:53,-115.1933,36.2111,667.00,88.00,62.00,42.05,M,5.00,0.00,30.02,1015.60,10.00,M,CLR,M,M,M,M,M,M,M,M,M,M,M,M,M,M,88.47,KVGT 301853Z VRB05KT 10SM CLR 31/17 A3002 RMK AO2 SLP156 T03110167,M
LOL,2022-07-30 18:53,-118.5701,40.0684,1192.43,99.00,30.90,9.19,M,3.00,0.00,30.05,1012.50,10.00,M,CLR,M,M,M,M,M,M,M,M,M,M,M,M,M,M,92.88,KLOL 301853Z AUTO VRB03KT 10SM CLR 37/M01 A3005 RMK AO2 SLP125 T03721006,M
BVU,2022-07-30 18:55,-114.8611,35.9475,671.00,M,M,M,M,M,0.00,M,M,M,M,M,M,M,M,M,M,M,M,M,M,M,M,M,M,M,M,KBVU 301855Z AUTO RMK AO2 PNO PWINO TSNO,M
BAM,2022-07-30 18:55,-116.8743,40.5990,1382.36,98.60,32.00,9.72,20.00,6.00,0.00,30.13,M,10.00,14.00,CLR,M,M,M,M,M,M,M,M,M,M,M,M,M,M,92.69,KBAM 301855Z AUTO 02006G14KT 10SM CLR 37/00 A3013 RMK AO1,M
RTS,2022-07-30 18:55,-119.8764,39.6682,1539.00,93.20,32.00,11.48,140.00,8.00,0.00,30.16,M,10.00,M,CLR,M,M,M,M,M,M,M,M,M,M,M,M,M,M,88.31,KRTS 301855Z AUTO 14008KT 090V170 10SM CLR 34/M00 A3016 RMK AO2,M
HTH,2022-07-30 18:55,-118.6315,38.5448,1282.89,95.00,42.80,16.60,360.00,6.00,0.00,30.08,M,10.00,M,CLR,M,M,M,M,M,M,M,M,M,M,M,M,M,M,90.86,KHTH 301855Z AUTO 36006KT 10SM CLR 35/06 A3008 RMK A01,M
TMT,2022-07-30 18:55,-117.1971,39.4643,1749.34,M,M,M,130.00,5.00,0.00,30.22,M,10.00,M,CLR,M,M,M,M,M,M,M,M,M,M,M,M,M,M,M,KTMT 301855Z AUTO 13005KT 10SM CLR A3022 RMK AO2,M
MEV,2022-07-30 18:55,-119.7500,38.9963,1441.42,93.20,35.60,13.25,M,4.00,0.00,30.12,M,10.00,10.00,CLR,M,M,M,M,M,M,M,M,M,M,M,M,M,M,88.76,KMEV 301855Z AUTO VRB04G10KT 10SM CLR 34/02 A3012 RMK AO2,M
RNO,2022-07-30 18:55,-119.7711,39.4839,1341.00,97.00,39.00,13.48,0.00,0.00,0.00,30.09,1011.20,10.00,M,FEW,FEW,M,M,10000.00,16000.00,M,M,M,M,M,M,M,M,M,92.40,KRNO 301855Z 00000KT 10SM FEW100 FEW160 36/04 A3009 RMK AO2 SLP112 T03610039,M
EKO,2022-07-30 18:56,-115.7860,40.8242,1367.00,94.00,33.00,11.74,80.00,6.00,0.00,30.15,1013.90,10.00,15.00,CLR,M,M,M,M,M,M,M,M,M,M,M,M,M,M,89.00,KEKO 301856Z AUTO 08006G15KT 10SM CLR 34/01 A3015 RMK AO2 SLP139 T03440006,M
NFL,2022-07-30 18:56,-118.7010,39.4166,1199.00,98.00,30.90,9.44,M,4.00,0.00,30.06,1014.60,10.00,M,FEW,M,M,M,10000.00,M,M,M,M,M,M,M,M,M,M,92.13,KNFL 301856Z VRB04KT 10SM FEW100 37/M01 A3006 RMK AO2 SLP146 TCU DSNT SW T03671006,M
HND,2022-07-30 18:56,-115.1344,35.9729,742.79,89.00,62.00,40.61,M,4.00,0.00,30.06,1016.80,10.00,M,CLR,M,M,M,M,M,M,M,M,M,M,M,M,M,M,89.58,KHND 301856Z VRB04KT 10SM CLR 32/17 A3006 RMK AO2 SLP168 T03170167,M
WMC,2022-07-30 18:56,-117.8072,40.9019,1315.00,99.00,30.90,9.19,30.00,11.00,0.00,30.10,1012.60,10.00,21.00,CLR,M,M,M,M,M,M,M,M,M,M,M,M,M,M,92.88,KWMC 301856Z AUTO 03011G21KT 10SM CLR 37/M01 A3010 RMK AO2 SLP126 T03721006,M
TPH,2022-07-30 18:56,-117.0904,38.0505,1654.00,87.00,48.00,25.90,M,5.00,0.00,30.20,1013.80,10.00,M,CLR,M,M,M,M,M,M,M,M,M,M,M,M,M,M,84.27,KTPH 301856Z AUTO VRB05KT 10SM CLR 31/09 A3020 RMK AO2 SLP138 T03060089,M
LAS,2022-07-30 18:56,-115.1634,36.0719,663.00,88.00,61.00,40.44,M,M,0.00,30.03,1014.30,10.00,M,FEW,SCT,BKN,BKN,9000.00,14000.00,17000.00,22000.00,M,M,M,M,M,M,M,88.02,KLAS 301856Z 10SM FEW090 SCT140 BKN170 BKN220 31/16 A3003 RMK AO2 SLP143 ACC DSNT N AND SE-SW AND W-NW TCU DSNT S T03110161,M
LSV,2022-07-30 18:58,-115.0343,36.2362,570.00,91.00,65.00,42.63,0.00,0.00,0.00,30.00,1013.60,10.00,M,SCT,SCT,M,M,16000.00,20000.00,M,M,M,M,M,M,M,M,M,93.04,KLSV 301858Z AUTO 00000KT 10SM SCT160 SCT200 33/18 A3000 RMK AO2 SLP136 T03270184 $,M
INS,2022-07-30 18:58,-115.6733,36.5872,955.00,90.00,54.50,29.96,90.00,10.00,0.00,30.06,1012.70,10.00,17.00,CLR,M,M,M,M,M,M,M,M,M,M,M,M,M,M,88.03,KINS 301858Z AUTO 09010G17KT 10SM CLR 32/13 A3006 RMK AO2 SLP127 T03230125,M
LAS,2022-07-30 19:02,-115.1634,36.0719,663.00,89.00,61.00,39.06,M,5.00,0.00,30.03,M,10.00,M,FEW,SCT,BKN,BKN,9000.00,14000.00,17000.00,22000.00,M,M,M,M,M,M,M,89.11,KLAS 301902Z VRB05KT 10SM FEW090 SCT140 BKN170 BKN220 32/16 A3003 RMK AO2 ACC DSNT N AND SE-SW AND W-NW TCU DSNT S T03170161,M
CXP,2022-07-30 19:10,-119.7326,39.1923,1431.00,96.80,33.80,11.04,40.00,6.00,0.00,30.12,M,10.00,14.00,CLR,M,M,M,M,M,M,M,M,M,M,M,M,M,M,91.44,KCXP 301910Z AUTO 04006G14KT 10SM CLR 36/01 A3012 RMK AO2,M
BVU,2022-07-30 19:15,-114.8611,35.9475,671.00,M,M,M,M,M,0.00,M,M,M,M,M,M,M,M,M,M,M,M,M,M,M,M,M,M,M,M,KBVU 301915Z AUTO RMK AO2 PNO PWINO TSNO,M
TMT,2022-07-30 19:15,-117.1971,39.4643,1749.34,M,M,M,130.00,5.00,0.00,30.22,M,10.00,M,CLR,M,M,M,M,M,M,M,M,M,M,M,M,M,M,M,KTMT 301915Z AUTO 13005KT 10SM CLR A3022 RMK AO2,M
HTH,2022-07-30 19:15,-118.6315,38.5448,1282.89,96.80,41.00,14.66,350.00,10.00,0.00,30.08,M,10.00,M,CLR,M,M,M,M,M,M,M,M,M,M,M,M,M,M,92.39,KHTH 301915Z AUTO 35010KT 10SM CLR 36/05 A3008 RMK A01,M
BAM,2022-07-30 19:15,-116.8743,40.5990,1382.36,98.60,32.00,9.72,360.00,14.00,0.00,30.12,M,10.00,17.00,CLR,M,M,M,M,M,M,M,M,M,M,M,M,M,M,92.69,KBAM 301915Z AUTO 36014G17KT 350V070 10SM CLR 37/00 A3012 RMK AO1,M
MEV,2022-07-30 19:15,-119.7500,38.9963,1441.42,95.00,35.60,12.53,M,5.00,0.00,30.11,M,10.00,11.00,CLR,M,M,M,M,M,M,M,M,M,M,M,M,M,M,90.25,KMEV 301915Z AUTO VRB05G11KT 10SM CLR 35/02 A3011 RMK AO2,M
RTS,2022-07-30 19:15,-119.8764,39.6682,1539.00,95.00,32.00,10.85,90.00,7.00,0.00,30.15,M,10.00,14.00,CLR,M,M,M,M,M,M,M,M,M,M,M,M,M,M,89.71,KRTS 301915Z AUTO 09007G14KT 070V140 10SM CLR 35/M00 A3015 RMK AO2,M
CXP,2022-07-30 19:30,-119.7326,39.1923,1431.00,96.80,33.80,11.04,70.00,12.00,0.00,30.12,M,10.00,M,CLR,M,M,M,M,M,M,M,M,M,M,M,M,M,M,91.44,KCXP 301930Z AUTO 07012KT 050V110 10SM CLR 36/01 A3012 RMK AO2,M
HTH,2022-07-30 19:35,-118.6315,38.5448,1282.89,96.80,41.00,14.66,M,5.00,0.00,30.07,M,10.00,11.00,CLR,M,M,M,M,M,M,M,M,M,M,M,M,M,M,92.39,KHTH 301935Z AUTO VRB05G11KT 10SM CLR 36/05 A3007 RMK A01,M
BAM,2022-07-30 19:35,-116.8743,40.5990,1382.36,96.80,32.00,10.27,10.00,11.00,0.00,30.12,M,10.00,14.00,CLR,M,M,M,M,M,M,M,M,M,M,M,M,M,M,91.19,KBAM 301935Z AUTO 01011G14KT 10SM CLR 36/00 A3012 RMK AO1,M
TMT,2022-07-30 19:35,-117.1971,39.4643,1749.34,M,M,M,60.00,6.00,0.00,30.21,M,10.00,16.00,CLR,M,M,M,M,M,M,M,M,M,M,M,M,M,M,M,KTMT 301935Z AUTO 06006G16KT 10SM CLR A3021 RMK AO2,M
BVU,2022-07-30 19:35,-114.8611,35.9475,671.00,M,M,M,M,M,0.00,M,M,M,M,M,M,M,M,M,M,M,M,M,M,M,M,M,M,M,M,KBVU 301935Z AUTO RMK AO2 PNO PWINO TSNO,M
RTS,2022-07-30 19:35,-119.8764,39.6682,1539.00,95.00,26.60,8.71,150.00,13.00,0.00,30.14,M,10.00,M,CLR,M,M,M,M,M,M,M,M,M,M,M,M,M,M,89.08,KRTS 301935Z AUTO 15013KT 10SM CLR 35/M03 A3014 RMK AO2,M
MEV,2022-07-30 19:35,-119.7500,38.9963,1441.42,M,M,M,M,M,0.00,M,M,M,M,M,M,M,M,M,M,M,M,M,M,M,M,M,M,M,M,KMEV 301935Z AUTO RMK AO2 PNO PWINO TSNO,M
CXP,2022-07-30 19:50,-119.7326,39.1923,1431.00,96.80,32.00,10.27,50.00,7.00,0.00,30.11,M,10.00,15.00,CLR,M,M,M,M,M,M,M,M,M,M,M,M,M,M,91.19,KCXP 301950Z AUTO 05007G15KT 010V090 10SM CLR 36/00 A3011 RMK AO2,M
DRA,2022-07-30 19:53,-116.0278,36.6206,1009.00,93.00,53.00,26.00,0.00,0.00,0.00,30.04,1011.80,10.00,M,CLR,M,M,M,M,M,M,M,M,M,M,M,M,M,M,90.54,KDRA 301953Z AUTO 00000KT 10SM CLR 34/12 A3004 RMK AO2 SLP118 T03390117,M
P68,2022-07-30 19:53,-116.0056,39.6014,1993.00,90.00,28.90,11.18,M,4.00,0.00,30.20,1013.10,M,M,M,M,M,M,M,M,M,M,M,M,M,M,M,M,M,85.52,KP68 301953Z AUTO VRB04KT 32/M02 A3020 RMK AO1 SLP131 T03221017,M
LOL,2022-07-30 19:53,-118.5701,40.0684,1192.43,101.00,28.00,7.71,120.00,10.00,0.00,30.03,1011.90,10.00,M,CLR,M,M,M,M,M,M,M,M,M,M,M,M,M,M,94.14,KLOL 301953Z AUTO 12010KT 10SM CLR 38/M02 A3003 RMK AO2 SLP119 T03831022,M
VGT,2022-07-30 19:53,-115.1933,36.2111,667.00,93.00,60.00,33.48,M,M,0.00,29.99,1014.50,10.00,M,CLR,M,M,M,M,M,M,M,M,M,M,M,M,M,M,92.80,KVGT 301953Z 10SM CLR 34/16 A2999 RMK AO2 SLP145 T03390156,M
ELY,2022-07-30 19:53,-114.8453,39.2950,1909.00,90.00,38.00,16.04,60.00,9.00,0.00,30.23,1012.40,10.00,16.00,SCT,M,M,M,11000.00,M,M,M,M,M,M,M,M,M,M,86.03,KELY 301953Z AUTO 06009G16KT 020V090 10SM SCT110 32/03 A3023 RMK AO2 SLP124 T03220033,M
MEV,2022-07-30 19:55,-119.7500,38.9963,1441.42,M,M,M,M,M,0.00,M,M,M,M,M,M,M,M,M,M,M,M,M,M,M,M,M,M,M,M,KMEV 301955Z AUTO RMK AO2 PNO PWINO TSNO,M
TMT,2022-07-30 19:55,-117.1971,39.4643,1749.34,91.00,31.30,11.99,20.00,9.00,0.00,30.21,M,10.00,18.00,CLR,M,M,M,M,M,M,M,M,M,M,M,M,M,M,86.45,KTMT 301955Z AUTO 02009G18KT 330V040 10SM CLR 33/00 A3021 RMK AO2 T03271004,M
RNO,2022-07-30 19:55,-119.7711,39.4839,1341.00,99.00,39.00,12.68,90.00,8.00,0.00,30.07,1010.60,10.00,M,SCT,SCT,M,M,10000.00,14000.00,M,M,M,M,M,M,M,M,M,94.19,KRNO 301955Z 09008KT 10SM SCT100 SCT140 37/04 A3007 RMK AO2 SLP106 T03720039,M
HTH,2022-07-30 19:55,-118.6315,38.5448,1282.89,96.80,41.00,14.66,310.00,5.00,0.00,30.07,M,10.00,13.00,CLR,M,M,M,M,M,M,M,M,M,M,M,M,M,M,92.39,KHTH 301955Z AUTO 31005G13KT 10SM CLR 36/05 A3007 RMK A01,M
BVU,2022-07-30 19:55,-114.8611,35.9475,671.00,M,M,M,M,M,0.00,M,M,M,M,M,M,M,M,M,M,M,M,M,M,M,M,M,M,M,M,KBVU 301955Z AUTO RMK AO2 PNO PWINO TSNO,M
RTS,2022-07-30 19:55,-119.8764,39.6682,1539.00,96.80,26.60,8.24,190.00,10.00,0.00,30.14,M,10.00,15.00,CLR,M,M,M,M,M,M,M,M,M,M,M,M,M,M,90.57,KRTS 301955Z AUTO 19010G15KT 100V220 10SM CLR 36/M03 A3014 RMK AO2,M
BAM,2022-07-30 19:55,-116.8743,40.5990,1382.36,98.60,30.20,9.04,10.00,3.00,0.00,30.11,M,10.00,14.00,CLR,M,M,M,M,M,M,M,M,M,M,M,M,M,M,92.46,KBAM 301955Z AUTO 01003G14KT 10SM CLR 37/M01 A3011 RMK AO1,M
NFL,2022-07-30 19:56,-118.7010,39.4166,1199.00,103.00,24.10,6.17,10.00,10.00,0.00,30.03,1013.90,10.00,M,FEW,M,M,M,10000.00,M,M,M,M,M,M,M,M,M,M,95.43,KNFL 301956Z 01010KT 10SM FEW100 39/M04 A3003 RMK AO2 SLP139 TCU DSNT SE-SW T03941044,M
LAS,2022-07-30 19:56,-115.1634,36.0719,663.00,88.00,60.00,39.17,80.00,7.00,0.00,30.01,1013.50,10.00,M,FEW,SCT,BKN,BKN,9000.00,14000.00,17000.00,22000.00,M,M,M,M,M,M,M,87.69,KLAS 301956Z 08007KT 10SM FEW090 SCT140 BKN170 BKN220 31/16 A3001 RMK AO2 SLP135 ACC DSNT N AND S-SW AND W CB DSNT E-SE AND S-SW T03110156,M
WMC,2022-07-30 19:56,-117.8072,40.9019,1315.00,99.00,30.00,8.86,10.00,6.00,0.00,30.09,1012.20,10.00,M,CLR,M,M,M,M,M,M,M,M,M,M,M,M,M,M,92.77,KWMC 301956Z AUTO 01006KT 10SM CLR 37/M01 A3009 RMK AO2 SLP122 T03721011,M
EKO,2022-07-30 19:56,-115.7860,40.8242,1367.00,95.00,34.00,11.76,40.00,13.00,0.00,30.14,1014.00,10.00,17.00,CLR,M,M,M,M,M,M,M,M,M,M,M,M,M,M,90.00,KEKO 301956Z AUTO 04013G17KT 10SM CLR 35/01 A3014 RMK AO2 SLP140 T03500011,M
TPH,2022-07-30 19:56,-117.0904,38.0505,1654.00,90.00,44.00,20.39,220.00,4.00,0.00,30.17,1012.60,10.00,M,CLR,M,M,M,M,M,M,M,M,M,M,M,M,M,M,86.38,KTPH 301956Z AUTO 22004KT 10SM CLR 32/07 A3017 RMK AO2 LTG DSNT NE SLP126 T03220067,M
HND,2022-07-30 19:56,-115.1344,35.9729,742.79,90.00,64.00,42.20,50.00,9.00,0.00,30.04,1015.90,10.00,M,CLR,M,M,M,M,M,M,M,M,M,M,M,M,M,M,91.44,KHND 301956Z 05009KT 10SM CLR 32/18 A3004 RMK AO2 SLP159 T03220178,M
INS,2022-07-30 19:58,-115.6733,36.5872,955.00,92.30,52.30,25.80,60.00,8.00,0.00,30.03,1011.60,10.00,M,CLR,M,M,M,M,M,M,M,M,M,M,M,M,M,M,89.67,KINS 301958Z AUTO 06008KT 10SM CLR 34/11 A3003 RMK AO2 SLP116 T03350113,M
LSV,2022-07-30 19:58,-115.0343,36.2362,570.00,95.70,64.40,35.85,60.00,4.00,0.00,29.97,1012.40,10.00,M,FEW,SCT,M,M,7000.00,18000.00,M,M,M,M,M,M,M,M,M,98.08,KLSV 301958Z COR AUTO 06004KT 10SM FEW070 SCT180 35/18 A2997 RMK AO2 SLP124 T03540180 $ COR 2003,M
CXP,2022-07-30 20:10,-119.7326,39.1923,1431.00,98.60,32.00,9.72,70.00,12.00,0.00,30.11,M,10.00,17.00,CLR,M,M,M,M,M,M,M,M,M,M,M,M,M,M,92.69,KCXP 302010Z AUTO 07012G17KT 10SM CLR 37/M00 A3011 RMK AO2,M
HTH,2022-07-30 20:15,-118.6315,38.5448,1282.89,96.80,39.20,13.66,280.00,4.00,0.00,30.06,M,10.00,13.00,CLR,M,M,M,M,M,M,M,M,M,M,M,M,M,M,92.23,KHTH 302015Z AUTO 28004G13KT 10SM CLR 36/04 A3006 RMK A01,M
RTS,2022-07-30 20:15,-119.8764,39.6682,1539.00,96.80,26.60,8.24,110.00,5.00,0.00,30.14,M,10.00,16.00,CLR,M,M,M,M,M,M,M,M,M,M,M,M,M,M,90.57,KRTS 302015Z AUTO 11005G16KT 10SM CLR 36/M03 A3014 RMK AO2,M
TMT,2022-07-30 20:15,-117.1971,39.4643,1749.34,M,M,M,40.00,9.00,0.00,30.20,M,10.00,20.00,CLR,M,M,M,M,M,M,M,M,M,M,M,M,M,M,M,KTMT 302015Z AUTO 04009G20KT 350V060 10SM CLR A3020 RMK AO2,M
BAM,2022-07-30 20:15,-116.8743,40.5990,1382.36,100.40,28.40,7.95,70.00,6.00,0.00,30.11,M,10.00,16.00,CLR,M,M,M,M,M,M,M,M,M,M,M,M,M,M,93.77,KBAM 302015Z AUTO 07006G16KT 10SM CLR 38/M02 A3011 RMK AO1,M
MEV,2022-07-30 20:15,-119.7500,38.9963,1441.42,96.80,33.80,11.04,300.00,7.00,0.00,30.09,M,10.00,M,M,M,M,M,M,M,M,M,M,M,M,M,M,M,M,91.44,KMEV 302015Z AUTO 30007KT 10SM 36/01 A3009 RMK AO2,M
BVU,2022-07-30 20:15,-114.8611,35.9475,671.00,M,M,M,M,M,0.00,M,M,M,M,M,M,M,M,M,M,M,M,M,M,M,M,M,M,M,M,KBVU 302015Z AUTO RMK AO2 PNO PWINO TSNO,M
TPH,2022-07-30 20:27,-117.0904,38.0505,1654.00,91.00,38.00,15.54,M,M,0.00,30.16,M,10.00,M,CLR,M,M,M,M,M,M,M,VCTS,M,M,M,M,M,M,86.90,KTPH 302027Z AUTO 10SM VCTS CLR 33/03 A3016 RMK AO2 T03280033,M
CXP,2022-07-30 20:30,-119.7326,39.1923,1431.00,98.60,32.00,9.72,30.00,11.00,0.00,30.10,M,10.00,M,CLR,M,M,M,M,M,M,M,M,M,M,M,M,M,M,92.69,KCXP 302030Z AUTO 03011KT 360V060 10SM CLR 37/M00 A3010 RMK AO2,M
MEV,2022-07-30 20:35,-119.7500,38.9963,1441.42,M,M,M,M,M,0.00,M,M,M,M,M,M,M,M,M,M,M,M,M,M,M,M,M,M,M,M,KMEV 302035Z AUTO RMK AO2 PNO PWINO TSNO,M
TMT,2022-07-30 20:35,-117.1971,39.4643,1749.34,M,M,M,200.00,3.00,0.00,30.19,M,10.00,16.00,CLR,M,M,M,M,M,M,M,M,M,M,M,M,M,M,M,KTMT 302035Z AUTO 20003G16KT 10SM CLR A3019 RMK AO2,M
HTH,2022-07-30 20:35,-118.6315,38.5448,1282.89,98.60,35.60,11.23,270.00,10.00,0.00,30.05,M,10.00,M,CLR,M,M,M,M,M,M,M,M,M,M,M,M,M,M,93.23,KHTH 302035Z AUTO 27010KT 10SM CLR 37/02 A3005 RMK A01,M
BAM,2022-07-30 20:35,-116.8743,40.5990,1382.36,100.40,28.40,7.95,30.00,6.00,0.00,30.10,M,10.00,M,CLR,M,M,M,M,M,M,M,M,M,M,M,M,M,M,93.77,KBAM 302035Z AUTO 03006KT 10SM CLR 38/M02 A3010 RMK AO1,M
RTS,2022-07-30 20:35,-119.8764,39.6682,1539.00,96.80,26.60,8.24,140.00,12.00,0.00,30.13,M,10.00,M,CLR,M,M,M,M,M,M,M,M,M,M,M,M,M,M,90.57,KRTS 302035Z AUTO 14012KT 10SM CLR 36/M03 A3013 RMK AO2,M
BVU,2022-07-30 20:35,-114.8611,35.9475,671.00,M,M,M,M,M,0.00,M,M,M,M,M,M,M,M,M,M,M,M,M,M,M,M,M,M,M,M,KBVU 302035Z AUTO RMK AO2 PNO PWINO TSNO,M
TPH,2022-07-30 20:42,-117.0904,38.0505,1654.00,92.00,39.00,15.77,M,M,0.00,30.16,M,10.00,M,FEW,M,M,M,11000.00,M,M,M,M,M,M,M,M,M,M,87.74,KTPH 302042Z AUTO 10SM FEW110 33/04 A3016 RMK AO2 T03330039,M
CXP,2022-07-30 20:50,-119.7326,39.1923,1431.00,98.60,30.20,9.04,50.00,11.00,0.00,30.09,M,10.00,17.00,CLR,M,M,M,M,M,M,M,M,M,M,M,M,M,M,92.46,KCXP 302050Z AUTO 05011G17KT 360V070 10SM CLR 37/M01 A3009 RMK AO2,M
DRA,2022-07-30 20:53,-116.0278,36.6206,1009.00,97.00,52.00,22.07,M,4.00,0.00,30.01,1010.50,10.00,M,CLR,M,M,M,M,M,M,M,M,M,M,M,M,M,M,94.38,KDRA 302053Z AUTO VRB04KT 10SM CLR 36/11 A3001 RMK AO2 SLP105 T03610111 58022,M
ELY,2022-07-30 20:53,-114.8453,39.2950,1909.00,89.00,36.00,15.31,M,5.00,0.00,30.21,1012.30,10.00,M,CLR,M,M,M,M,M,M,M,M,M,M,M,M,M,M,85.21,KELY 302053Z AUTO VRB05KT 10SM CLR 32/02 A3021 RMK AO2 SLP123 T03170022 58013,M
P68,2022-07-30 20:53,-116.0056,39.6014,1993.00,91.00,28.00,10.44,M,5.00,0.00,30.18,1012.50,M,M,M,M,M,M,M,M,M,M,M,M,M,M,M,M,M,86.19,KP68 302053Z AUTO VRB05KT 33/M02 A3018 RMK AO1 SLP125 T03281022 57014,M
LOL,2022-07-30 20:53,-118.5701,40.0684,1192.43,103.00,28.00,7.26,340.00,8.00,0.00,30.01,1010.80,10.00,M,CLR,M,M,M,M,M,M,M,M,M,M,M,M,M,M,95.83,KLOL 302053Z AUTO 34008KT 10SM CLR 39/M02 A3001 RMK AO2 SLP108 T03941022 58016,M
VGT,2022-07-30 20:53,-115.1933,36.2111,667.00,93.00,59.00,32.19,100.00,7.00,0.00,29.97,1013.80,10.00,M,CLR,M,M,M,M,M,M,M,M,M,M,M,M,M,M,92.35,KVGT 302053Z 10007KT 10SM CLR 34/15 A2997 RMK AO2 SLP138 T03390150 56022,M
HTH,2022-07-30 20:55,-118.6315,38.5448,1282.89,98.60,33.80,10.45,320.00,7.00,0.00,30.04,M,10.00,M,CLR,M,M,M,M,M,M,M,M,M,M,M,M,M,M,92.94,KHTH 302055Z AUTO 32007KT 280V340 10SM CLR 37/01 A3004 RMK A01,M
BVU,2022-07-30 20:55,-114.8611,35.9475,671.00,M,M,M,M,M,0.00,M,M,M,M,M,M,M,M,M,M,M,M,M,M,M,M,M,M,M,M,KBVU 302055Z AUTO RMK AO2 PNO PWINO TSNO,M
TMT,2022-07-30 20:55,-117.1971,39.4643,1749.34,M,M,M,10.00,13.00,0.00,30.19,M,10.00,20.00,CLR,M,M,M,M,M,M,M,M,M,M,M,M,M,M,M,KTMT 302055Z AUTO 01013G20KT 10SM CLR A3019 RMK AO2 LTG DSNT SE,M
RTS,2022-07-30 20:55,-119.8764,39.6682,1539.00,96.80,26.60,8.24,140.00,9.00,0.00,30.13,M,10.00,M,CLR,M,M,M,M,M,M,M,M,M,M,M,M,M,M,90.57,KRTS 302055Z AUTO 14009KT 110V170 10SM CLR 36/M03 A3013 RMK AO2,M
RNO,2022-07-30 20:55,-119.7711,39.4839,1341.00,102.00,37.00,10.71,80.00,10.00,0.00,30.06,1010.20,10.00,M,SCT,BKN,M,M,8000.00,14000.00,M,M,M,M,M,M,M,M,M,96.38,KRNO 302055Z 08010KT 10SM SCT080 BKN140 39/03 A3006 RMK AO2 SLP102 T03890028 56014,M
MEV,2022-07-30 20:55,-119.7500,38.9963,1441.42,M,M,M,M,M,0.00,M,M,M,M,M,M,M,M,M,M,M,M,M,M,M,M,M,M,M,M,KMEV 302055Z AUTO RMK AO2 PNO PWINO TSNO,M
BAM,2022-07-30 20:55,-116.8743,40.5990,1382.36,100.40,28.40,7.95,340.00,9.00,0.00,30.09,M,10.00,14.00,CLR,M,M,M,M,M,M,M,M,M,M,M,M,M,M,93.77,KBAM 302055Z AUTO 34009G14KT 310V010 10SM CLR 38/M02 A3009 RMK AO1,M
WMC,2022-07-30 20:56,-117.8072,40.9019,1315.00,102.00,26.10,6.89,M,6.00,0.00,30.07,1011.80,10.00,19.00,CLR,M,M,M,M,M,M,M,M,M,M,M,M,M,M,94.87,KWMC 302056Z AUTO VRB06G19KT 10SM CLR 39/M03 A3007 RMK AO2 SLP118 T03891033 58012,M
LAS,2022-07-30 20:56,-115.1634,36.0719,663.00,90.00,60.00,36.77,100.00,7.00,0.00,29.99,1012.80,10.00,M,FEW,SCT,BKN,BKN,9000.00,14000.00,17000.00,22000.00,M,M,M,M,M,M,M,89.66,KLAS 302056Z 10007KT 10SM FEW090 SCT140 BKN170 BKN220 32/16 A2999 RMK AO2 SLP128 CB DSNT E-S-SW TCU DSNT N T03220156 56019,M
NFL,2022-07-30 20:56,-118.7010,39.4166,1199.00,104.00,21.00,5.24,40.00,9.00,0.00,30.01,1013.40,10.00,16.00,SCT,SCT,M,M,10000.00,15000.00,M,M,M,M,M,M,M,M,M,96.08,KNFL 302056Z COR 04009G16KT 10SM SCT100 SCT150 40/M06 A3001 RMK AO2 SLP134 TCU DSNT SW T04001061 57017,M
HND,2022-07-30 20:56,-115.1344,35.9729,742.79,92.00,63.00,38.39,M,6.00,0.00,30.02,1015.10,10.00,M,CLR,M,M,M,M,M,M,M,M,M,M,M,M,M,M,92.97,KHND 302056Z VRB06KT 10SM CLR 33/17 A3002 RMK AO2 SLP151 T03330172 56021,M
EKO,2022-07-30 20:56,-115.7860,40.8242,1367.00,94.00,35.00,12.71,M,3.00,0.00,30.12,1013.20,10.00,M,CLR,M,M,M,M,M,M,M,M,M,M,M,M,M,M,89.29,KEKO 302056Z AUTO VRB03KT 10SM CLR 34/02 A3012 RMK AO2 SLP132 T03440017 56017,M
TPH,2022-07-30 20:56,-117.0904,38.0505,1654.00,93.00,41.00,16.48,M,M,0.00,30.16,1012.40,10.00,M,BKN,M,M,M,11000.00,M,M,M,M,M,M,M,M,M,M,88.85,KTPH 302056Z AUTO 10SM BKN110 34/05 A3016 RMK AO2 SLP124 T03390050 56016,M
LSV,2022-07-30 20:58,-115.0343,36.2362,570.00,96.00,60.40,30.75,0.00,0.00,0.00,29.95,M,10.00,M,FEW,BKN,M,M,7000.00,18000.00,M,M,M,M,M,M,M,M,M,96.35,KLSV 302058Z COR AUTO 00000KT 10SM FEW070 BKN180 36/16 A2995 RMK AO2 SLPNO T03560158 57023 $ COR 2100,M
INS,2022-07-30 20:58,-115.6733,36.5872,955.00,93.00,53.00,26.00,360.00,5.00,0.00,30.00,1010.60,10.00,M,CLR,M,M,M,M,M,M,M,M,M,M,M,M,M,M,90.54,KINS 302058Z AUTO 36005KT 10SM CLR 34/12 A3000 RMK AO2 SLP106 T03390117 57022,M
CXP,2022-07-30 21:10,-119.7326,39.1923,1431.00,100.40,30.20,8.56,50.00,12.00,0.00,30.09,M,10.00,18.00,CLR,M,M,M,M,M,M,M,M,M,M,M,M,M,M,93.98,KCXP 302110Z AUTO 05012G18KT 10SM CLR 38/M01 A3009 RMK AO2,M
RTS,2022-07-30 21:15,-119.8764,39.6682,1539.00,96.80,26.60,8.24,120.00,7.00,0.00,30.13,M,10.00,16.00,CLR,M,M,M,M,M,M,M,M,M,M,M,M,M,M,90.57,KRTS 302115Z AUTO 12007G16KT 10SM CLR 36/M03 A3013 RMK AO2,M
MEV,2022-07-30 21:15,-119.7500,38.9963,1441.42,95.00,32.00,10.85,110.00,4.00,0.00,30.08,M,10.00,10.00,M,M,M,M,M,M,M,M,M,M,M,M,M,M,M,89.71,KMEV 302115Z AUTO 11004G10KT 10SM 35/00 A3008 RMK AO2,M
HTH,2022-07-30 21:15,-118.6315,38.5448,1282.89,98.60,33.80,10.45,M,4.00,0.00,30.04,M,10.00,11.00,CLR,M,M,M,M,M,M,M,M,M,M,M,M,M,M,92.94,KHTH 302115Z AUTO VRB04G11KT 10SM CLR 37/01 A3004 RMK A01,M
TMT,2022-07-30 21:15,-117.1971,39.4643,1749.34,M,M,M,350.00,12.00,0.00,30.18,M,10.00,17.00,CLR,M,M,M,M,M,M,M,M,M,M,M,M,M,M,M,KTMT 302115Z AUTO 35012G17KT 10SM CLR A3018 RMK AO2,M
BAM,2022-07-30 21:15,-116.8743,40.5990,1382.36,100.40,28.40,7.95,330.00,6.00,0.00,30.09,M,10.00,14.00,CLR,M,M,M,M,M,M,M,M,M,M,M,M,M,M,93.77,KBAM 302115Z AUTO 33006G14KT 10SM CLR 38/M02 A3009 RMK AO1,M
BVU,2022-07-30 21:15,-114.8611,35.9475,671.00,M,M,M,M,M,0.00,M,M,M,M,M,M,M,M,M,M,M,M,M,M,M,M,M,M,M,M,KBVU 302115Z AUTO RMK AO2 PNO PWINO TSNO,M
CXP,2022-07-30 21:30,-119.7326,39.1923,1431.00,100.40,30.20,8.56,10.00,12.00,0.00,30.08,M,10.00,18.00,CLR,M,M,M,M,M,M,M,M,M,M,M,M,M,M,93.98,KCXP 302130Z AUTO 01012G18KT 10SM CLR 38/M01 A3008 RMK AO2,M
RTS,2022-07-30 21:35,-119.8764,39.6682,1539.00,95.00,26.60,8.71,90.00,3.00,0.00,30.12,M,10.00,12.00,CLR,M,M,M,M,M,M,M,M,M,M,M,M,M,M,89.08,KRTS 302135Z AUTO 09003G12KT 10SM CLR 35/M03 A3012 RMK AO2,M
BAM,2022-07-30 21:35,-116.8743,40.5990,1382.36,102.20,30.20,8.11,50.00,10.00,0.00,30.08,M,10.00,18.00,CLR,M,M,M,M,M,M,M,M,M,M,M,M,M,M,95.50,KBAM 302135Z AUTO 05010G18KT 10SM CLR 39/M01 A3008 RMK AO1,M
HTH,2022-07-30 21:35,-118.6315,38.5448,1282.89,100.40,32.00,9.21,M,6.00,0.00,30.03,M,10.00,13.00,CLR,M,M,M,M,M,M,M,M,M,M,M,M,M,M,94.21,KHTH 302135Z AUTO VRB06G13KT 10SM CLR 38/M00 A3003 RMK A01,M
TMT,2022-07-30 21:35,-117.1971,39.4643,1749.34,M,M,M,330.00,15.00,0.00,30.18,M,10.00,20.00,CLR,M,M,M,M,M,M,M,M,M,M,M,M,M,M,M,KTMT 302135Z AUTO 33015G20KT 10SM CLR A3018 RMK AO2,M
BVU,2022-07-30 21:35,-114.8611,35.9475,671.00,M,M,M,M,M,0.00,M,M,M,M,M,M,M,M,M,M,M,M,M,M,M,M,M,M,M,M,KBVU 302135Z AUTO RMK AO2 PNO PWINO TSNO,M
MEV,2022-07-30 21:35,-119.7500,38.9963,1441.42,96.80,30.20,9.55,M,5.00,0.00,30.08,M,10.00,10.00,CLR,M,M,M,M,M,M,M,M,M,M,M,M,M,M,90.96,KMEV 302135Z AUTO VRB05G10KT 10SM CLR 36/M01 A3008 RMK AO2,M
CXP,2022-07-30 21:50,-119.7326,39.1923,1431.00,100.40,32.00,9.21,0.00,0.00,0.00,30.08,M,10.00,16.00,CLR,M,M,M,M,M,M,M,M,M,M,M,M,M,M,94.21,KCXP 302150Z AUTO 00000G16KT 10SM CLR 38/M00 A3008 RMK AO2,M
P68,2022-07-30 21:53,-116.0056,39.6014,1993.00,93.00,26.10,9.07,M,4.00,0.00,30.16,1012.00,M,M,M,M,M,M,M,M,M,M,M,M,M,M,M,M,M,87.52,KP68 302153Z AUTO VRB04KT 34/M03 A3016 RMK AO1 SLP120 T03391033,M
VGT,2022-07-30 21:53,-115.1933,36.2111,667.00,93.00,57.00,29.96,130.00,8.00,0.00,29.95,1013.40,10.00,M,CLR,M,M,M,M,M,M,M,M,M,M,M,M,M,M,91.64,KVGT 302153Z 13008KT 10SM CLR 34/14 A2995 RMK AO2 SLP134 T03390139,M
DRA,2022-07-30 21:53,-116.0278,36.6206,1009.00,98.00,49.00,19.02,M,M,0.00,29.99,1010.10,10.00,M,CLR,M,M,M,M,M,M,M,M,M,M,M,M,M,M,94.81,KDRA 302153Z AUTO 10SM CLR 37/09 A2999 RMK AO2 SLP101 T03670094,M
LOL,2022-07-30 21:53,-118.5701,40.0684,1192.43,102.00,26.10,6.89,0.00,0.00,0.00,30.00,1010.50,10.00,M,CLR,M,M,M,M,M,M,M,M,M,M,M,M,M,M,94.87,KLOL 302153Z AUTO 00000KT 10SM CLR 39/M03 A3000 RMK AO2 SLP105 T03891033,M
ELY,2022-07-30 21:53,-114.8453,39.2950,1909.00,92.00,34.00,12.95,340.00,9.00,0.00,30.19,1011.40,10.00,18.00,FEW,M,M,M,12000.00,M,M,M,M,M,M,M,M,M,M,87.56,KELY 302153Z AUTO 34009G18KT 300V010 10SM FEW120 33/01 A3019 RMK AO2 SLP114 T03330011,M
TMT,2022-07-30 21:55,-117.1971,39.4643,1749.34,M,M,M,340.00,7.00,0.00,30.17,M,10.00,22.00,CLR,M,M,M,M,M,M,M,M,M,M,M,M,M,M,M,KTMT 302155Z AUTO 34007G22KT 10SM CLR A3017 RMK AO2,M
RTS,2022-07-30 21:55,-119.8764,39.6682,1539.00,95.00,26.60,8.71,100.00,7.00,0.00,30.12,M,10.00,M,CLR,M,M,M,M,M,M,M,M,M,M,M,M,M,M,89.08,KRTS 302155Z AUTO 10007KT 10SM CLR 35/M03 A3012 RMK AO2,M
MEV,2022-07-30 21:55,-119.7500,38.9963,1441.42,95.00,30.20,10.09,110.00,4.00,0.00,30.07,M,10.00,M,CLR,M,M,M,M,M,M,M,M,M,M,M,M,M,M,89.48,KMEV 302155Z AUTO 11004KT 10SM CLR 35/M01 A3007 RMK AO2,M
RNO,2022-07-30 21:55,-119.7711,39.4839,1341.00,100.00,36.00,10.93,M,5.00,0.00,30.04,1010.00,10.00,M,SCT,BKN,M,M,8000.00,14000.00,M,M,M,M,M,M,M,M,M,94.48,KRNO 302155Z VRB05KT 10SM SCT080 BKN140 38/02 A3004 RMK AO2 SLP100 TCU S-W MOV W T03780022,M
HTH,2022-07-30 21:55,-118.6315,38.5448,1282.89,102.20,30.20,8.11,330.00,11.00,0.00,30.02,M,10.00,M,CLR,M,M,M,M,M,M,M,M,M,M,M,M,M,M,95.50,KHTH 302155Z AUTO 33011KT 310V020 10SM CLR 39/M01 A3002 RMK A01,M
BAM,2022-07-30 21:55,-116.8743,40.5990,1382.36,102.20,28.40,7.53,40.00,14.00,0.00,30.07,M,10.00,19.00,CLR,M,M,M,M,M,M,M,M,M,M,M,M,M,M,95.28,KBAM 302155Z AUTO 04014G19KT 10SM CLR 39/M02 A3007 RMK AO1,M
BVU,2022-07-30 21:55,-114.8611,35.9475,671.00,M,M,M,M,M,0.00,M,M,M,M,M,M,M,M,M,M,M,M,M,M,M,M,M,M,M,M,KBVU 302155Z AUTO RMK AO2 PNO PWINO TSNO,M
NFL,2022-07-30 21:56,-118.7010,39.4166,1199.00,104.00,23.00,5.71,40.00,11.00,0.00,30.01,1013.10,10.00,14.00,SCT,SCT,M,M,10000.00,15000.00,M,M,M,M,M,M,29.00,10.00,2022-07-30 20:59,96.25,KNFL 302156Z 04011G14KT 350V070 10SM SCT100 SCT150 40/M05 A3001 RMK AO2 PK WND 01029/2059 SLP131 T04001050,M
LAS,2022-07-30 21:56,-115.1634,36.0719,663.00,93.00,60.00,33.48,80.00,7.00,0.00,29.97,1012.00,10.00,M,FEW,SCT,BKN,M,9500.00,14000.00,22000.00,M,M,M,M,M,M,M,M,92.80,KLAS 302156Z 08007KT 10SM FEW095 SCT140 BKN220 34/16 A2997 RMK AO2 SLP120 CB DSNT SW AND NW TCU DSNT N T03390156,M
EKO,2022-07-30 21:56,-115.7860,40.8242,1367.00,95.00,34.00,11.76,0.00,0.00,0.00,30.10,1012.50,10.00,M,CLR,M,M,M,M,M,M,M,M,M,M,M,M,M,M,90.00,KEKO 302156Z AUTO 00000KT 10SM CLR 35/01 A3010 RMK AO2 SLP125 T03500011,M
HND,2022-07-30 21:56,-115.1344,35.9729,742.79,93.00,61.00,34.57,360.00,6.00,0.00,30.00,1014.30,10.00,M,CLR,M,M,M,M,M,M,M,M,M,M,M,M,M,M,93.20,KHND 302156Z 36006KT 10SM CLR 34/16 A3000 RMK AO2 SLP143 T03390161,M
TPH,2022-07-30 21:56,-117.0904,38.0505,1654.00,89.00,40.00,17.84,250.00,7.00,0.00,30.14,1012.20,10.00,M,CLR,M,M,M,M,M,M,M,M,M,M,M,29.00,300.00,2022-07-30 20:57,85.34,KTPH 302156Z AUTO 25007KT 10SM CLR 32/04 A3014 RMK AO2 PK WND 30029/2057 LTG DSNT SE SLP122 T03170044,M
WMC,2022-07-30 21:56,-117.8072,40.9019,1315.00,103.00,26.10,6.71,M,M,0.00,30.05,1011.00,10.00,M,CLR,M,M,M,M,M,M,M,M,M,M,M,M,M,M,95.62,KWMC 302156Z AUTO 10SM CLR 39/M03 A3005 RMK AO2 SLP110 T03941033,M
INS,2022-07-30 21:58,-115.6733,36.5872,955.00,94.80,51.30,23.01,60.00,9.00,0.00,29.99,1010.20,10.00,M,CLR,M,M,M,M,M,M,M,M,M,M,M,M,M,M,91.95,KINS 302158Z AUTO 06009KT 10SM CLR 35/11 A2999 RMK AO2 SLP102 T03490107,M
LSV,2022-07-30 21:58,-115.0343,36.2362,570.00,93.40,60.00,32.83,100.00,4.00,0.00,29.94,1011.50,10.00,M,FEW,BKN,M,M,9000.00,18000.00,M,M,M,M,M,M,M,M,M,93.15,KLSV 302158Z 10004KT 10SM FEW090 BKN180 34/16 A2994 RMK AO2A SLP115 T03410155 $,M
CXP,2022-07-30 22:10,-119.7326,39.1923,1431.00,100.40,32.00,9.21,0.00,0.00,0.00,30.07,M,10.00,11.00,CLR,M,M,M,M,M,M,M,M,M,M,M,M,M,M,94.21,KCXP 302210Z AUTO 00000G11KT 10SM CLR 38/M00 A3007 RMK AO2,M
BVU,2022-07-30 22:15,-114.8611,35.9475,671.00,M,M,M,M,M,0.00,M,M,M,M,M,M,M,M,M,M,M,M,M,M,M,M,M,M,M,M,KBVU 302215Z AUTO RMK AO2 PNO PWINO TSNO,M
RTS,2022-07-30 22:15,-119.8764,39.6682,1539.00,95.00,26.60,8.71,140.00,6.00,0.00,30.12,M,10.00,13.00,CLR,M,M,M,M,M,M,M,M,M,M,M,M,M,M,89.08,KRTS 302215Z AUTO 14006G13KT 10SM CLR 35/M03 A3012 RMK AO2,M
TMT,2022-07-30 22:15,-117.1971,39.4643,1749.34,M,M,M,40.00,11.00,0.00,30.16,M,10.00,14.00,CLR,M,M,M,M,M,M,M,M,M,M,M,M,M,M,M,KTMT 302215Z AUTO 04011G14KT 10SM CLR A3016 RMK AO2,M
MEV,2022-07-30 22:15,-119.7500,38.9963,1441.42,96.80,30.20,9.55,0.00,0.00,0.00,30.06,M,10.00,M,CLR,M,M,M,M,M,M,M,M,M,M,M,M,M,M,90.96,KMEV 302215Z AUTO 00000KT 10SM CLR 36/M01 A3006 RMK AO2,M
HTH,2022-07-30 22:15,-118.6315,38.5448,1282.89,102.20,28.40,7.53,310.00,5.00,0.00,30.01,M,10.00,16.00,CLR,M,M,M,M,M,M,M,M,M,M,M,M,M,M,95.28,KHTH 302215Z AUTO 31005G16KT 10SM CLR 39/M02 A3001 RMK A01,M
BAM,2022-07-30 22:15,-116.8743,40.5990,1382.36,102.20,28.40,7.53,60.00,14.00,0.00,30.06,M,10.00,20.00,CLR,M,M,M,M,M,M,M,M,M,M,M,M,M,M,95.28,KBAM 302215Z AUTO 06014G20KT 10SM CLR 39/M02 A3006 RMK AO1,M
CXP,2022-07-30 22:30,-119.7326,39.1923,1431.00,100.40,30.20,8.56,90.00,10.00,0.00,30.07,M,10.00,17.00,CLR,M,M,M,M,M,M,M,M,M,M,M,M,M,M,93.98,KCXP 302230Z AUTO 09010G17KT 10SM CLR 38/M01 A3007 RMK AO2,M
TMT,2022-07-30 22:35,-117.1971,39.4643,1749.34,M,M,M,360.00,11.00,0.00,30.16,M,10.00,17.00,CLR,M,M,M,M,M,M,M,M,M,M,M,M,M,M,M,KTMT 302235Z AUTO 36011G17KT 10SM CLR A3016 RMK AO2,M
HTH,2022-07-30 22:35,-118.6315,38.5448,1282.89,100.40,26.60,7.39,300.00,10.00,0.00,30.00,M,10.00,M,CLR,M,M,M,M,M,M,M,M,M,M,M,M,M,M,93.57,KHTH 302235Z AUTO 30010KT 10SM CLR 38/M03 A3000 RMK A01,M
BAM,2022-07-30 22:35,-116.8743,40.5990,1382.36,100.40,30.20,8.56,40.00,10.00,0.00,30.06,M,10.00,18.00,CLR,M,M,M,M,M,M,M,M,M,M,M,M,M,M,93.98,KBAM 302235Z AUTO 04010G18KT 020V090 10SM CLR 38/M01 A3006 RMK AO1,M
MEV,2022-07-30 22:35,-119.7500,38.9963,1441.42,95.00,32.00,10.85,0.00,0.00,0.00,30.06,M,10.00,M,CLR,M,M,M,M,M,M,M,M,M,M,M,M,M,M,89.71,KMEV 302235Z AUTO 00000KT 10SM CLR 35/M00 A3006 RMK AO2,M
RTS,2022-07-30 22:35,-119.8764,39.6682,1539.00,95.00,26.60,8.71,170.00,8.00,0.00,30.11,M,10.00,M,CLR,M,M,M,M,M,M,M,M,M,M,M,M,M,M,89.08,KRTS 302235Z AUTO 17008KT 10SM CLR 35/M03 A3011 RMK AO2,M
BVU,2022-07-30 22:35,-114.8611,35.9475,671.00,M,M,M,M,M,0.00,M,M,M,M,M,M,M,M,M,M,M,M,M,M,M,M,M,M,M,M,KBVU 302235Z AUTO RMK AO2 PNO PWINO TSNO,M
CXP,2022-07-30 22:50,-119.7326,39.1923,1431.00,96.80,30.20,9.55,70.00,7.00,0.00,30.07,M,10.00,18.00,CLR,M,M,M,M,M,M,M,M,M,M,M,M,M,M,90.96,KCXP 302250Z AUTO 07007G18KT 10SM CLR 36/M01 A3007 RMK AO2,M
ELY,2022-07-30 22:53,-114.8453,39.2950,1909.00,90.00,34.00,13.74,40.00,6.00,0.00,30.18,1011.20,10.00,M,CLR,M,M,M,M,M,M,M,M,M,M,M,M,M,M,85.93,KELY 302253Z AUTO 04006KT 10SM CLR 32/01 A3018 RMK AO2 SLP112 T03220011,M
P68,2022-07-30 22:53,-116.0056,39.6014,1993.00,94.00,25.00,8.43,340.00,9.00,0.00,30.15,1011.00,M,15.00,M,M,M,M,M,M,M,M,M,M,M,M,M,M,M,88.10,KP68 302253Z AUTO 34009G15KT 34/M04 A3015 RMK AO1 SLP110 T03441039,M
VGT,2022-07-30 22:53,-115.1933,36.2111,667.00,95.00,57.00,28.16,120.00,8.00,0.00,29.94,1012.60,10.00,M,CLR,M,M,M,M,M,M,M,M,M,M,M,M,M,M,93.75,KVGT 302253Z 12008KT 10SM CLR 35/14 A2994 RMK AO2 SLP126 T03500139,M
DRA,2022-07-30 22:53,-116.0278,36.6206,1009.00,98.00,54.00,22.97,210.00,11.00,0.00,29.97,1009.10,10.00,20.00,CLR,M,M,M,M,M,M,M,M,M,M,M,M,M,M,96.10,KDRA 302253Z AUTO 21011G20KT 180V250 10SM CLR 37/12 A2997 RMK AO2 SLP091 T03670122,M
LOL,2022-07-30 22:53,-118.5701,40.0684,1192.43,104.00,27.00,6.74,50.00,7.00,0.00,29.98,1010.00,10.00,M,CLR,M,M,M,M,M,M,M,M,M,M,M,M,M,M,96.64,KLOL 302253Z AUTO 05007KT 10SM CLR 40/M03 A2998 RMK AO2 SLP100 T04001028,M
MEV,2022-07-30 22:55,-119.7500,38.9963,1441.42,95.00,32.00,10.85,0.00,0.00,0.00,30.06,M,10.00,M,CLR,M,M,M,M,M,M,M,M,M,M,M,M,M,M,89.71,KMEV 302255Z AUTO 00000KT 10SM CLR 35/M00 A3006 RMK AO2,M
HTH,2022-07-30 22:55,-118.6315,38.5448,1282.89,100.40,26.60,7.39,290.00,5.00,0.00,29.99,M,10.00,14.00,CLR,M,M,M,M,M,M,M,M,M,M,M,M,M,M,93.57,KHTH 302255Z AUTO 29005G14KT 10SM CLR 38/M03 A2999 RMK A01,M
BVU,2022-07-30 22:55,-114.8611,35.9475,671.00,M,M,M,M,M,0.00,M,M,M,M,M,M,M,M,M,M,M,M,M,M,M,M,M,M,M,M,KBVU 302255Z AUTO RMK AO2 PNO PWINO TSNO,M
RTS,2022-07-30 22:55,-119.8764,39.6682,1539.00,95.00,26.60,8.71,170.00,7.00,0.00,30.11,M,10.00,M,CLR,M,M,M,M,M,M,M,M,M,M,M,M,M,M,89.08,KRTS 302255Z AUTO 17007KT 10SM CLR 35/M03 A3011 RMK AO2,M
BAM,2022-07-30 22:55,-116.8743,40.5990,1382.36,98.60,30.20,9.04,350.00,8.00,0.00,30.05,M,10.00,M,CLR,M,M,M,M,M,M,M,M,M,M,M,M,M,M,92.46,KBAM 302255Z AUTO 35008KT 10SM CLR 37/M01 A3005 RMK AO1,M
RNO,2022-07-30 22:55,-119.7711,39.4839,1341.00,99.00,35.00,10.87,M,3.00,0.00,30.03,1009.70,10.00,M,FEW,BKN,BKN,M,8000.00,15000.00,17000.00,M,M,M,M,M,M,M,M,93.48,KRNO 302255Z VRB03KT 10SM FEW080 BKN150 BKN170 37/02 A3003 RMK AO2 SLP097 VIRGA DSNT W T03720017,M
TMT,2022-07-30 22:55,-117.1971,39.4643,1749.34,M,M,M,50.00,5.00,0.00,30.15,M,10.00,20.00,CLR,M,M,M,M,M,M,M,M,M,M,M,M,M,M,M,KTMT 302255Z AUTO 05005G20KT 10SM CLR A3015 RMK AO2,M
NFL,2022-07-30 22:56,-118.7010,39.4166,1199.00,103.00,21.90,5.63,M,3.00,0.00,29.98,1012.40,10.00,M,SCT,SCT,M,M,10000.00,15000.00,M,M,M,M,M,M,M,M,M,95.24,KNFL 302256Z VRB03KT 10SM SCT100 SCT150 39/M06 A2998 RMK AO2 SLP124 T03941056,M
LAS,2022-07-30 22:56,-115.1634,36.0719,663.00,94.00,58.00,30.10,80.00,7.00,0.00,29.94,1011.20,10.00,M,FEW,BKN,BKN,M,9500.00,14000.00,22000.00,M,M,M,M,M,M,M,M,92.90,KLAS 302256Z 08007KT 10SM FEW095 BKN140 BKN220 34/14 A2994 RMK AO2 SLP112 CB DSNT NE TCU DSNT N AND SE T03440144,M
TPH,2022-07-30 22:56,-117.0904,38.0505,1654.00,90.00,37.00,15.48,140.00,6.00,0.00,30.12,1011.60,10.00,M,CLR,M,M,M,M,M,M,M,M,M,M,M,M,M,M,86.00,KTPH 302256Z AUTO 14006KT 10SM CLR 32/03 A3012 RMK AO2 SLP116 T03220028,M
EKO,2022-07-30 22:56,-115.7860,40.8242,1367.00,94.00,34.00,12.17,M,3.00,0.00,30.08,1012.00,10.00,M,CLR,M,M,M,M,M,M,M,M,M,M,M,M,M,M,89.13,KEKO 302256Z AUTO VRB03KT 10SM CLR 34/01 A3008 RMK AO2 SLP120 T03440011,M
WMC,2022-07-30 22:56,-117.8072,40.9019,1315.00,102.00,27.00,7.16,40.00,6.00,0.00,30.04,1010.40,10.00,15.00,CLR,M,M,M,M,M,M,M,M,M,M,M,M,M,M,94.96,KWMC 302256Z AUTO 04006G15KT 10SM CLR 39/M03 A3004 RMK AO2 SLP104 T03891028,M
HND,2022-07-30 22:56,-115.1344,35.9729,742.79,95.00,61.00,32.50,20.00,10.00,0.00,29.98,1013.60,10.00,M,CLR,M,M,M,M,M,M,M,M,M,M,M,M,M,M,95.40,KHND 302256Z 02010KT 10SM CLR 35/16 A2998 RMK AO2 SLP136 T03500161,M
INS,2022-07-30 22:58,-115.6733,36.5872,955.00,95.40,52.70,23.79,100.00,14.00,0.00,29.96,1009.40,10.00,21.00,CLR,M,M,M,M,M,M,M,M,M,M,M,M,M,M,92.89,KINS 302258Z AUTO 10014G21KT 10SM CLR 35/12 A2996 RMK AO2 SLP094 T03520115,M
LSV,2022-07-30 22:58,-115.0343,36.2362,570.00,94.00,57.70,29.88,110.00,4.00,0.00,29.92,1010.70,10.00,M,FEW,SCT,BKN,M,9000.00,17000.00,19000.00,M,M,M,M,M,M,M,M,92.82,KLSV 302258Z 11004KT 10SM FEW090 SCT170 BKN190 34/14 A2992 RMK AO2A SLP107 T03440143 $,M
CXP,2022-07-30 23:10,-119.7326,39.1923,1431.00,96.80,30.20,9.55,130.00,5.00,0.00,30.06,M,10.00,M,CLR,M,M,M,M,M,M,M,M,M,M,M,M,M,M,90.96,KCXP 302310Z AUTO 13005KT 10SM CLR 36/M01 A3006 RMK AO2,M
TMT,2022-07-30 23:15,-117.1971,39.4643,1749.34,95.00,28.40,9.38,340.00,13.00,0.00,30.15,M,10.00,23.00,CLR,M,M,M,M,M,M,M,M,M,M,M,M,M,M,89.27,KTMT 302315Z AUTO 34013G23KT 320V020 10SM CLR 35/M02 A3015 RMK AO2 T03501020,M
BVU,2022-07-30 23:15,-114.8611,35.9475,671.00,M,M,M,M,M,0.00,M,M,M,M,M,M,M,M,M,M,M,M,M,M,M,M,M,M,M,M,KBVU 302315Z AUTO RMK AO2 PNO PWINO TSNO,M
RTS,2022-07-30 23:15,-119.8764,39.6682,1539.00,93.20,26.60,9.21,200.00,5.00,0.00,30.11,M,10.00,M,CLR,M,M,M,M,M,M,M,M,M,M,M,M,M,M,87.72,KRTS 302315Z AUTO 20005KT 10SM CLR 34/M03 A3011 RMK AO2,M
MEV,2022-07-30 23:15,-119.7500,38.9963,1441.42,98.60,30.20,9.04,0.00,0.00,0.00,30.05,M,10.00,M,CLR,M,M,M,M,M,M,M,M,M,M,M,M,M,M,92.46,KMEV 302315Z AUTO 00000KT 10SM CLR 37/M01 A3005 RMK AO2,M
BAM,2022-07-30 23:15,-116.8743,40.5990,1382.36,100.40,28.40,7.95,40.00,5.00,0.00,30.05,M,10.00,M,CLR,M,M,M,M,M,M,M,M,M,M,M,M,M,M,93.77,KBAM 302315Z AUTO 04005KT 010V080 10SM CLR 38/M02 A3005 RMK AO1,M
HTH,2022-07-30 23:15,-118.6315,38.5448,1282.89,102.20,24.80,6.49,310.00,12.00,0.00,29.99,M,10.00,22.00,CLR,M,M,M,M,M,M,M,M,M,M,M,M,M,M,94.91,KHTH 302315Z AUTO 31012G22KT 10SM CLR 39/M04 A2999 RMK A01,M
CXP,2022-07-30 23:30,-119.7326,39.1923,1431.00,96.80,28.40,8.87,80.00,8.00,0.00,30.06,M,10.00,M,CLR,M,M,M,M,M,M,M,M,M,M,M,M,M,M,90.75,KCXP 302330Z AUTO 08008KT 10SM CLR 36/M02 A3006 RMK AO2,M
BVU,2022-07-30 23:35,-114.8611,35.9475,671.00,M,M,M,M,M,0.00,M,M,M,M,M,M,M,M,M,M,M,M,M,M,M,M,M,M,M,M,KBVU 302335Z AUTO RMK AO2 PNO PWINO TSNO,M
MEV,2022-07-30 23:35,-119.7500,38.9963,1441.42,96.80,35.60,11.86,280.00,10.00,0.00,30.06,M,10.00,M,CLR,M,M,M,M,M,M,M,M,M,M,M,M,M,M,91.72,KMEV 302335Z AUTO 28010KT 10SM CLR 36/02 A3006 RMK AO2,M
TMT,2022-07-30 23:35,-117.1971,39.4643,1749.34,M,M,M,330.00,11.00,0.00,30.15,M,10.00,18.00,CLR,M,M,M,M,M,M,M,M,M,M,M,M,M,M,M,KTMT 302335Z AUTO 33011G18KT 10SM CLR A3015 RMK AO2,M
RTS,2022-07-30 23:35,-119.8764,39.6682,1539.00,95.00,24.80,8.08,0.00,0.00,0.00,30.11,M,10.00,M,CLR,M,M,M,M,M,M,M,M,M,M,M,M,M,M,88.91,KRTS 302335Z AUTO 00000KT 10SM CLR 35/M04 A3011 RMK AO2,M
BAM,2022-07-30 23:35,-116.8743,40.5990,1382.36,100.40,28.40,7.95,10.00,11.00,0.00,30.04,M,10.00,19.00,CLR,M,M,M,M,M,M,M,M,M,M,M,M,M,M,93.77,KBAM 302335Z AUTO 01011G19KT 10SM CLR 38/M02 A3004 RMK AO1,M
HTH,2022-07-30 23:35,-118.6315,38.5448,1282.89,100.40,23.00,6.36,330.00,12.00,0.00,29.98,M,10.00,18.00,CLR,M,M,M,M,M,M,M,M,M,M,M,M,M,M,93.25,KHTH 302335Z AUTO 33012G18KT 10SM CLR 38/M05 A2998 RMK A01,M
CXP,2022-07-30 23:50,-119.7326,39.1923,1431.00,96.80,28.40,8.87,50.00,5.00,0.00,30.06,M,10.00,M,CLR,M,M,M,M,M,M,M,M,M,M,M,M,M,M,90.75,KCXP 302350Z AUTO 05005KT 10SM CLR 36/M02 A3006 RMK AO2,M
VGT,2022-07-30 23:53,-115.1933,36.2111,667.00,96.00,56.00,26.16,130.00,6.00,0.00,29.92,1012.10,10.00,M,CLR,M,M,M,M,M,M,M,M,M,M,M,M,M,M,94.55,KVGT 302353Z 13006KT 10SM CLR 36/13 A2992 RMK AO2 SLP121 T03560133 10356 20311 56016,M
P68,2022-07-30 23:53,-116.0056,39.6014,1993.00,93.00,25.00,8.67,340.00,8.00,0.00,30.14,1011.30,M,16.00,M,M,M,M,M,M,M,M,M,M,M,M,M,M,M,87.43,KP68 302353Z AUTO 34008G16KT 34/M04 A3014 RMK AO1 SLP113 T03391039 10350 20300 56013,M
DRA,2022-07-30 23:53,-116.0278,36.6206,1009.00,99.00,55.00,23.18,200.00,13.00,0.00,29.96,1008.80,10.00,21.00,SCT,M,M,M,9000.00,M,M,M,M,M,M,M,M,M,M,97.39,KDRA 302353Z AUTO 20013G21KT 10SM SCT090 37/13 A2996 RMK AO2 SLP088 T03720128 10378 20317 56016,M
ELY,2022-07-30 23:53,-114.8453,39.2950,1909.00,91.00,34.00,13.32,70.00,6.00,0.00,30.17,1010.90,10.00,M,CLR,M,M,M,M,M,M,M,M,M,M,M,M,M,M,86.79,KELY 302353Z AUTO 07006KT 10SM CLR 33/01 A3017 RMK AO2 SLP109 T03280011 10339 20294 56010,M
LOL,2022-07-30 23:53,-118.5701,40.0684,1192.43,103.00,27.00,6.97,20.00,9.00,0.00,29.97,1009.90,10.00,18.00,CLR,M,M,M,M,M,M,M,M,M,M,M,M,M,M,95.72,KLOL 302353Z AUTO 02009G18KT 10SM CLR 39/M03 A2997 RMK AO2 SLP099 T03941028 10406 20356 56013,M
RTS,2022-07-30 23:55,-119.8764,39.6682,1539.00,95.00,28.40,9.38,280.00,5.00,0.00,30.10,M,10.00,M,CLR,M,M,M,M,M,M,M,M,M,M,M,M,M,M,89.27,KRTS 302355Z AUTO 28005KT 10SM CLR 35/M02 A3010 RMK AO2,M
MEV,2022-07-30 23:55,-119.7500,38.9963,1441.42,91.40,50.00,24.37,290.00,9.00,0.00,30.06,M,10.00,19.00,CLR,M,M,M,M,M,M,M,M,M,M,M,M,M,M,88.36,KMEV 302355Z AUTO 29009G19KT 10SM CLR 33/10 A3006 RMK AO2,M
BAM,2022-07-30 23:55,-116.8743,40.5990,1382.36,100.40,28.40,7.95,10.00,10.00,0.00,30.04,M,10.00,20.00,CLR,M,M,M,M,M,M,M,M,M,M,M,M,M,M,93.77,KBAM 302355Z AUTO 01010G20KT 10SM CLR 38/M02 A3004 RMK AO1,M
HTH,2022-07-30 23:55,-118.6315,38.5448,1282.89,102.20,21.20,5.58,320.00,13.00,0.00,29.98,M,10.00,20.00,CLR,M,M,M,M,M,M,M,M,M,M,M,M,M,M,94.60,KHTH 302355Z AUTO 32013G20KT 10SM CLR 39/M06 A2998 RMK A01,M
TMT,2022-07-30 23:55,-117.1971,39.4643,1749.34,M,M,M,340.00,10.00,0.00,30.15,M,10.00,16.00,CLR,M,M,M,M,M,M,M,M,M,M,M,M,M,M,M,KTMT 302355Z AUTO 34010G16KT 10SM CLR A3015 RMK AO2,M
RNO,2022-07-30 23:55,-119.7711,39.4839,1341.00,99.00,38.00,12.15,280.00,10.00,0.00,30.02,1009.40,10.00,M,FEW,BKN,BKN,M,8000.00,15000.00,19000.00,M,M,M,M,M,M,M,M,93.98,KRNO 302355Z 28010KT 10SM FEW080 BKN150 BKN190 37/03 A3002 RMK AO2 SLP094 VIRGA DSNT S THRU SW T03720033 10394 20339 56012,M
BVU,2022-07-30 23:55,-114.8611,35.9475,671.00,M,M,M,M,M,0.00,M,M,M,M,M,M,M,M,M,M,M,M,M,M,M,M,M,M,M,M,KBVU 302355Z AUTO RMK AO2 PNO PWINO TSNO,M
HND,2022-07-30 23:56,-115.1344,35.9729,742.79,95.00,59.00,30.26,110.00,8.00,0.00,29.96,1013.20,10.00,M,CLR,M,M,M,M,M,M,M,M,M,M,M,M,M,M,94.51,KHND 302356Z 11008KT 10SM CLR 35/15 A2996 RMK AO2 SLP132 T03500150 10361 20294 56018,M
EKO,2022-07-30 23:56,-115.7860,40.8242,1367.00,96.00,30.90,10.04,60.00,12.00,0.00,30.08,1012.20,10.00,18.00,CLR,M,M,M,M,M,M,M,M,M,M,M,M,M,M,90.46,KEKO 302356Z AUTO 06012G18KT 10SM CLR 36/M01 A3008 RMK AO2 SLP122 T03561006 10361 20317 56013,M
LAS,2022-07-30 23:56,-115.1634,36.0719,663.00,95.00,58.00,29.09,90.00,7.00,0.00,29.93,1010.70,10.00,M,FEW,SCT,BKN,M,9500.00,14000.00,22000.00,M,M,M,M,M,M,M,M,94.08,KLAS 302356Z 09007KT 10SM FEW095 SCT140 BKN220 35/14 A2993 RMK AO2 SLP107 CB DSNT NW-N-NE T03500144 10350 20300 56019,M
NFL,2022-07-30 23:56,-118.7010,39.4166,1199.00,105.00,23.00,5.52,330.00,8.00,0.00,29.97,1011.90,10.00,16.00,SCT,SCT,M,M,10000.00,18000.00,M,M,M,M,M,M,M,M,M,97.16,KNFL 302356Z 33008G16KT 10SM SCT100 SCT180 41/M05 A2997 RMK AO2 SLP119 T04061050 10411 20344 58015,M
WMC,2022-07-30 23:56,-117.8072,40.9019,1315.00,103.00,28.00,7.26,40.00,9.00,0.00,30.02,1010.90,10.00,18.00,CLR,M,M,M,M,M,M,M,M,M,M,M,M,M,M,95.83,KWMC 302356Z AUTO 04009G18KT 10SM CLR 39/M02 A3002 RMK AO2 SLP109 T03941022 10400 20356 56015,M
TPH,2022-07-30 23:56,-117.0904,38.0505,1654.00,91.00,42.00,18.30,180.00,15.00,0.00,30.12,1011.20,10.00,24.00,CLR,M,M,M,M,M,M,M,M,M,M,M,M,M,M,87.11,KTPH 302356Z AUTO 18015G24KT 10SM CLR 33/06 A3012 RMK AO2 SLP112 T03280056 10344 20289 56012,M
LSV,2022-07-30 23:58,-115.0343,36.2362,570.00,95.50,57.20,27.93,100.00,5.00,0.00,29.90,M,10.00,M,SCT,BKN,M,M,15000.00,22000.00,M,M,M,M,M,M,M,M,M,94.36,KLSV 302358Z 10005KT 10SM SCT150 BKN220 35/14 A2990 RMK AO2A SLPNO T03530140 10360 20314 57017 $,M
INS,2022-07-30 23:58,-115.6733,36.5872,955.00,95.50,53.00,23.89,110.00,13.00,0.00,29.95,1009.00,10.00,19.00,CLR,M,M,M,M,M,M,M,M,M,M,M,M,M,M,93.04,KINS 302358Z AUTO 11013G19KT 10SM CLR 35/12 A2995 RMK AO2 SLP090 T03530116 10356 20304 57016,M
