station,valid,lon,lat,elevation,tmpf,dwpf,relh,drct,sknt,p01i,alti,mslp,vsby,gust,skyc1,skyc2,skyc3,skyc4,skyl1,skyl2,skyl3,skyl4,wxcodes,ice_accretion_1hr,ice_accretion_3hr,ice_accretion_6hr,peak_wind_gust,peak_wind_drct,peak_wind_time,feel,metar,snowdepth
ELY,2023-03-30 00:00,-114.8453,39.2950,1909.00,28.90,26.10,89.12,310.00,8.00,T,29.67,M,1.00,M,BKN,OVC,M,M,800.00,1600.00,M,M,-SN BR,M,M,M,M,M,M,20.29,KELY 300000Z AUTO 31008KT 1SM -SN BR BKN008 OVC016 M02/M03 A2967 RMK AO2 P0000 T10171033 $,M
RNO,2023-03-30 00:04,-119.7711,39.4839,1341.00,38.00,32.00,79.08,10.00,9.00,T,29.72,M,9.00,M,FEW,SCT,BKN,M,2700.00,4000.00,7500.00,M,M,M,M,M,M,M,M,30.85,KRNO 300004Z 01009KT 9SM FEW027 SCT040 BKN075 03/00 A2972 RMK AO2 SNE04 P0000 T00330000,M
BVU,2023-03-30 00:15,-114.8611,35.9475,671.00,57.20,39.20,50.91,240.00,15.00,0.00,29.72,M,10.00,21.00,BKN,BKN,BKN,M,5000.00,6500.00,9000.00,M,M,M,M,M,M,M,M,57.20,KBVU 300015Z AUTO 24015G21KT 10SM BKN050 BKN065 BKN090 14/04 A2972 RMK AO2,M
CXP,2023-03-30 00:15,-119.7326,39.1923,1431.00,37.40,23.00,55.68,0.00,0.00,0.00,29.72,M,10.00,M,FEW,M,M,M,7000.00,M,M,M,M,M,M,M,M,M,M,37.40,KCXP 300015Z AUTO 00000KT 10SM FEW070 03/M05 A2972 RMK AO2,M
ELY,2023-03-30 00:15,-114.8453,39.2950,1909.00,28.00,26.10,92.46,300.00,8.00,T,29.67,M,0.75,M,VV ,M,M,M,800.00,M,M,M,-SN BR,M,M,M,M,M,M,19.19,KELY 300015Z AUTO 30008KT 3/4SM -SN BR VV008 M02/M03 A2967 RMK AO2 P0000 T10221033 $,M
RTS,2023-03-30 00:15,-119.8764,39.6682,1539.00,30.20,28.40,92.92,0.00,0.00,0.00,29.74,M,0.25,M,OVC,M,M,M,200.00,M,M,M,-SN,M,M,M,M,M,M,30.20,KRTS 300015Z AUTO 00000KT M1/4SM -SN OVC002 M01/M02 A2974 RMK AO2,M
05U,2023-03-30 00:15,-116.0051,39.6042,1811.23,30.20,23.00,74.26,M,6.00,0.00,29.71,M,10.00,M,FEW,FEW,M,M,7500.00,9000.00,M,M,M,M,M,M,M,M,M,23.36,K05U 300015Z AUTO VRB06KT 10SM FEW075 FEW090 M01/M05 A2971 RMK A01,M
MEV,2023-03-30 00:15,-119.7500,38.9963,1441.42,39.20,23.00,51.89,350.00,8.00,0.00,29.69,M,10.00,M,CLR,M,M,M,M,M,M,M,M,M,M,M,M,M,M,32.98,KMEV 300015Z AUTO 35008KT 10SM CLR 04/M05 A2969 RMK AO2,M
HTH,2023-03-30 00:15,-118.6315,38.5448,1282.89,44.60,21.20,39.06,310.00,17.00,0.00,29.68,M,10.00,M,FEW,M,M,M,8500.00,M,M,M,M,M,M,M,M,M,M,36.58,KHTH 300015Z AUTO 31017KT 10SM FEW085 07/M06 A2968 RMK A01,M
BAM,2023-03-30 00:15,-116.8743,40.5990,1382.36,39.20,30.20,69.88,110.00,4.00,0.00,29.73,M,10.00,M,SCT,M,M,M,4000.00,M,M,M,M,M,M,M,M,M,M,35.83,KBAM 300015Z AUTO 11004KT 10SM SCT040 04/M01 A2973 RMK AO1,M
TMT,2023-03-30 00:15,-117.1971,39.4643,1749.34,33.60,21.60,61.03,0.00,0.00,0.00,29.70,M,10.00,M,SCT,BKN,OVC,M,4600.00,6000.00,7000.00,M,M,M,M,M,M,M,M,33.60,KTMT 300015Z AUTO 00000KT 10SM SCT046 BKN060 OVC070 01/M06 A2970 RMK AO2 T00091058,M
05U,2023-03-30 00:30,-116.0051,39.6042,1811.23,30.20,23.00,74.26,M,4.00,0.00,29.71,M,10.00,M,FEW,FEW,M,M,8000.00,9000.00,M,M,M,M,M,M,M,M,M,25.32,K05U 300030Z AUTO VRB04KT 10SM FEW080 FEW090 M01/M05 A2971 RMK A01,M
ELY,2023-03-30 00:33,-114.8453,39.2950,1909.00,27.00,25.00,92.05,300.00,9.00,0.02,29.67,M,0.25,M,VV ,M,M,M,800.00,M,M,M,+SN FZFG,M,M,M,M,M,M,17.30,KELY 300033Z AUTO 30009KT 1/4SM +SN FZFG VV008 M03/M04 A2967 RMK AO2 P0002 T10281039 $,M
LSV,2023-03-30 00:33,-115.0343,36.2362,570.00,59.00,37.40,44.47,240.00,16.00,0.00,29.69,1004.40,10.00,M,FEW,M,M,M,7500.00,M,M,M,-RA,M,M,M,M,M,M,59.00,KLSV 300033Z AUTO 24016KT 10SM -RA FEW075 15/03 A2969 RMK AO2 RAB33 SLP044 $,M
BVU,2023-03-30 00:35,-114.8611,35.9475,671.00,55.40,37.40,50.64,240.00,18.00,0.00,29.73,M,10.00,26.00,BKN,OVC,M,M,5000.00,6000.00,M,M,M,M,M,M,M,M,M,55.40,KBVU 300035Z AUTO 24018G26KT 10SM BKN050 OVC060 13/03 A2973 RMK AO2,M
CXP,2023-03-30 00:35,-119.7326,39.1923,1431.00,37.40,23.00,55.68,300.00,5.00,0.00,29.72,M,10.00,M,SCT,M,M,M,6500.00,M,M,M,M,M,M,M,M,M,M,32.81,KCXP 300035Z AUTO 30005KT 10SM SCT065 03/M05 A2972 RMK AO2,M
RTS,2023-03-30 00:35,-119.8764,39.6682,1539.00,30.20,28.40,92.92,40.00,8.00,0.00,29.73,M,0.25,M,OVC,M,M,M,200.00,M,M,M,SN,M,M,M,M,M,M,21.90,KRTS 300035Z AUTO 04008KT M1/4SM SN OVC002 M01/M02 A2973 RMK AO2,M
MEV,2023-03-30 00:35,-119.7500,38.9963,1441.42,39.20,24.80,55.95,350.00,11.00,0.00,29.69,M,10.00,M,FEW,M,M,M,10000.00,M,M,M,M,M,M,M,M,M,M,31.57,KMEV 300035Z AUTO 35011KT 10SM FEW100 04/M04 A2969 RMK AO2,M
BAM,2023-03-30 00:35,-116.8743,40.5990,1382.36,39.20,28.40,64.93,0.00,0.00,0.00,29.73,M,10.00,M,CLR,M,M,M,M,M,M,M,M,M,M,M,M,M,M,39.20,KBAM 300035Z AUTO 00000KT 10SM CLR 04/M02 A2973 RMK AO1,M
HTH,2023-03-30 00:35,-118.6315,38.5448,1282.89,44.60,19.40,36.18,330.00,17.00,0.00,29.67,M,10.00,M,FEW,M,M,M,8500.00,M,M,M,M,M,M,M,M,M,M,36.58,KHTH 300035Z AUTO 33017KT 10SM FEW085 07/M07 A2967 RMK A01,M
TMT,2023-03-30 00:35,-117.1971,39.4643,1749.34,33.80,23.20,64.77,220.00,5.00,0.00,29.70,M,10.00,M,SCT,BKN,OVC,M,4700.00,6000.00,8000.00,M,M,M,M,M,M,M,M,28.53,KTMT 300035Z AUTO 22005KT 10SM SCT047 BKN060 OVC080 01/M05 A2970 RMK AO2 T00101049,M
LSV,2023-03-30 00:41,-115.0343,36.2362,570.00,57.20,39.20,50.91,240.00,15.00,0.00,29.69,1004.40,10.00,M,FEW,SCT,M,M,8000.00,12000.00,M,M,M,M,M,M,M,M,M,57.20,KLSV 300041Z AUTO 24015KT 10SM FEW080 SCT120 14/04 A2969 RMK AO2 RAB33E41 SLP044 $,M
05U,2023-03-30 00:50,-116.0051,39.6042,1811.23,30.20,23.00,74.26,40.00,3.00,0.00,29.70,M,10.00,M,CLR,M,M,M,M,M,M,M,M,M,M,M,M,M,M,26.63,K05U 300050Z AUTO 04003KT 10SM CLR M01/M05 A2970 RMK A01,M
ELY,2023-03-30 00:51,-114.8453,39.2950,1909.00,26.60,24.80,92.80,320.00,11.00,0.04,29.68,M,0.50,M,VV ,M,M,M,1000.00,M,M,M,-SN FZFG,M,M,M,M,M,M,15.64,KELY 300051Z AUTO 32011KT 1/2SM -SN FZFG VV010 M03/M04 A2968 RMK AO2 P0004 $,M
P68,2023-03-30 00:53,-116.0056,39.6014,1993.00,28.90,23.00,78.30,100.00,4.00,0.00,29.67,1003.90,M,M,M,M,M,M,M,M,M,M,M,M,M,M,M,M,M,23.80,KP68 300053Z AUTO 10004KT M02/M05 A2967 RMK AO1 SLP039 T10171050,M
DRA,2023-03-30 00:53,-116.0278,36.6206,1009.00,52.00,24.10,33.44,200.00,15.00,0.00,29.67,1002.50,10.00,23.00,CLR,M,M,M,M,M,M,M,M,M,M,M,33.00,210.00,2023-03-30 00:42,52.00,KDRA 300053Z AUTO 20015G23KT 10SM CLR 11/M04 A2967 RMK AO2 PK WND 21033/0042 SLP025 T01111044,M
ELY,2023-03-30 00:53,-114.8453,39.2950,1909.00,27.00,24.10,88.65,330.00,11.00,0.04,29.68,1004.20,0.50,M,VV ,M,M,M,1000.00,M,M,M,-SN FZFG,M,M,M,M,M,M,16.15,KELY 300053Z AUTO 33011KT 1/2SM -SN FZFG VV010 M03/M04 A2968 RMK AO2 SLP042 P0004 T10281044 $,M
VGT,2023-03-30 00:53,-115.1933,36.2111,667.00,55.00,37.00,50.58,210.00,10.00,0.01,29.71,1007.10,10.00,M,SCT,SCT,OVC,M,5000.00,7000.00,9500.00,M,M,M,M,M,28.00,250.00,2023-03-30 00:16,55.00,KVGT 300053Z 21010KT 10SM SCT050 SCT070 OVC095 13/03 A2971 RMK AO2 PK WND 25028/0016 RAE51 SLP071 P0001 T01280028,M
LOL,2023-03-30 00:53,-118.5701,40.0684,1192.43,42.00,23.00,46.37,90.00,4.00,0.00,29.71,1006.70,10.00,M,CLR,M,M,M,M,M,M,M,M,M,M,M,M,M,M,39.21,KLOL 300053Z AUTO 09004KT 10SM CLR 06/M05 A2971 RMK AO2 SLP067 T00561050,M
BVU,2023-03-30 00:55,-114.8611,35.9475,671.00,55.40,35.60,47.16,230.00,21.00,0.00,29.73,M,10.00,26.00,OVC,M,M,M,5000.00,M,M,M,M,M,M,M,M,M,M,55.40,KBVU 300055Z AUTO 23021G26KT 10SM OVC050 13/02 A2973 RMK AO2,M
CXP,2023-03-30 00:55,-119.7326,39.1923,1431.00,37.40,24.80,60.04,290.00,9.00,0.00,29.72,M,10.00,M,FEW,SCT,M,M,5000.00,6500.00,M,M,M,M,M,M,M,M,M,30.23,KCXP 300055Z AUTO 29009KT 10SM FEW050 SCT065 03/M04 A2972 RMK AO2,M
INS,2023-03-30 00:55,-115.6733,36.5872,955.00,53.00,18.10,24.90,230.00,21.00,0.00,29.68,1002.80,10.00,27.00,CLR,M,M,M,M,M,M,M,M,M,M,M,31.00,220.00,2023-03-30 00:41,53.10,KINS 300055Z AUTO 23021G27KT 10SM CLR 12/M08 A2968 RMK AO2 PK WND 22031/41 SLP028 T01171077 $,M
RNO,2023-03-30 00:55,-119.7711,39.4839,1341.00,36.00,30.00,78.60,360.00,11.00,T,29.72,1006.80,10.00,M,FEW,SCT,BKN,M,2400.00,4500.00,6000.00,M,M,M,M,M,M,M,M,27.52,KRNO 300055Z 36011KT 10SM FEW024 SCT045 BKN060 02/M01 A2972 RMK AO2 SNE04 SLP068 P0000 T00221011,M
RTS,2023-03-30 00:55,-119.8764,39.6682,1539.00,30.20,28.40,92.92,50.00,7.00,0.12,29.73,M,0.25,M,OVC,M,M,M,200.00,M,M,M,-SN,M,M,M,M,M,M,22.59,KRTS 300055Z AUTO 05007KT 1/4SM -SN OVC002 M01/M02 A2973 RMK AO2 P0012,M
MEV,2023-03-30 00:55,-119.7500,38.9963,1441.42,37.40,26.60,64.70,340.00,9.00,0.00,29.69,M,10.00,M,CLR,M,M,M,M,M,M,M,M,M,M,M,M,M,M,30.23,KMEV 300055Z AUTO 34009KT 10SM CLR 03/M03 A2969 RMK AO2,M
BAM,2023-03-30 00:55,-116.8743,40.5990,1382.36,41.00,24.80,52.17,350.00,5.00,0.00,29.73,M,10.00,M,CLR,M,M,M,M,M,M,M,M,M,M,M,M,M,M,37.08,KBAM 300055Z AUTO 35005KT 10SM CLR 05/M04 A2973 RMK AO1,M
HTH,2023-03-30 00:55,-118.6315,38.5448,1282.89,44.60,19.40,36.18,330.00,16.00,0.00,29.67,M,10.00,M,CLR,M,M,M,M,M,M,M,M,M,M,M,M,M,M,36.84,KHTH 300055Z AUTO 33016KT 10SM CLR 07/M07 A2967 RMK A01,M
TMT,2023-03-30 00:55,-117.1971,39.4643,1749.34,33.00,23.90,68.60,170.00,3.00,0.00,29.70,M,10.00,M,SCT,BKN,OVC,M,4400.00,5000.00,8000.00,M,M,M,M,M,M,M,M,29.95,KTMT 300055Z AUTO 17003KT 10SM SCT044 BKN050 OVC080 01/M04 A2970 RMK AO2 T00061045,M
LSV,2023-03-30 00:55,-115.0343,36.2362,570.00,58.00,37.00,45.04,240.00,14.00,T,29.69,1004.40,10.00,M,FEW,FEW,M,M,8500.00,12000.00,M,M,M,M,M,M,26.00,240.00,2023-03-29 23:57,58.10,KLSV 300055Z AUTO 24014KT 10SM FEW085 FEW120 15/03 A2969 RMK AO2 PK WND 24026/2357 RAB33E41 SLP044 P0000 T01450027 $,M
EKO,2023-03-30 00:56,-115.7860,40.8242,1367.00,36.00,19.90,51.61,260.00,6.00,0.00,29.69,1005.20,10.00,M,OVC,M,M,M,10000.00,M,M,M,M,M,M,M,M,M,M,30.35,KEKO 300056Z AUTO 26006KT 10SM OVC100 02/M07 A2969 RMK AO2 SLP052 T00221067,M
WMC,2023-03-30 00:56,-117.8072,40.9019,1315.00,38.00,24.10,57.18,180.00,5.00,0.00,29.71,1006.70,10.00,M,CLR,M,M,M,M,M,M,M,M,M,M,M,M,M,M,33.40,KWMC 300056Z AUTO 18005KT 10SM CLR 03/M04 A2971 RMK AO2 SLP067 T00331044,M
NFL,2023-03-30 00:56,-118.7010,39.4166,1199.00,44.00,23.00,42.95,20.00,5.00,0.00,29.70,1003.80,10.00,M,SCT,BKN,BKN,BKN,3000.00,5000.00,10000.00,25000.00,M,M,M,M,M,M,M,40.77,KNFL 300056Z 02005KT 10SM SCT030 BKN050 BKN100 BKN250 07/M05 A2970 RMK AO2 SLP038 CB DSNT SW SH DSNT ALQDS T00671050,M
HND,2023-03-30 00:56,-115.1344,35.9729,742.79,52.00,39.00,61.06,220.00,12.00,T,29.76,1008.80,10.00,20.00,FEW,BKN,BKN,M,3100.00,4800.00,6000.00,M,-RA,M,M,M,M,M,M,52.00,KHND 300056Z 22012G20KT 10SM -RA FEW031 BKN048 BKN060 11/04 A2976 RMK AO2 SLP088 P0000 T01110039,M
TPH,2023-03-30 00:56,-117.0904,38.0505,1654.00,32.00,28.90,88.17,360.00,14.00,T,29.70,1005.50,10.00,20.00,BKN,OVC,M,M,3200.00,4500.00,M,M,M,M,M,M,M,M,M,21.16,KTPH 300056Z AUTO 36014G20KT 10SM BKN032 OVC045 00/M02 A2970 RMK AO2 SNB02E40 SLP055 P0000 T00001017,M
LAS,2023-03-30 00:56,-115.1634,36.0719,663.00,55.00,38.00,52.40,200.00,13.00,T,29.72,1005.40,10.00,20.00,SCT,BKN,BKN,M,4600.00,8000.00,16000.00,M,M,M,M,M,M,M,M,55.00,KLAS 300056Z 20013G20KT 160V230 10SM SCT046 BKN080 BKN160 13/03 A2972 RMK AO2 RAE33 SLP054 VCSH P0000 T01280033,M
TPH,2023-03-30 01:05,-117.0904,38.0505,1654.00,32.00,28.00,84.98,10.00,12.00,T,29.71,M,3.00,M,OVC,M,M,M,2600.00,M,M,M,-SN BR,M,M,M,M,M,M,22.00,KTPH 300105Z AUTO 01012KT 3SM -SN BR OVC026 00/M02 A2971 RMK AO2 SNB0058 P0000 T00001022,M
ELY,2023-03-30 01:08,-114.8453,39.2950,1909.00,27.00,24.10,88.65,20.00,4.00,T,29.68,M,1.00,M,VV ,M,M,M,1500.00,M,M,M,-SN BR,M,M,M,M,M,M,21.58,KELY 300108Z AUTO 02004KT 1SM -SN BR VV015 M03/M04 A2968 RMK AO2 P0000 T10281044 $,M
05U,2023-03-30 01:10,-116.0051,39.6042,1811.23,30.20,23.00,74.26,M,3.00,0.00,29.71,M,10.00,M,CLR,M,M,M,M,M,M,M,M,M,M,M,M,M,M,26.63,K05U 300110Z AUTO VRB03KT 10SM CLR M01/M05 A2971 RMK A01,M
ELY,2023-03-30 01:13,-114.8453,39.2950,1909.00,27.00,24.10,88.65,10.00,3.00,T,29.68,M,0.25,M,VV ,M,M,M,1300.00,M,M,M,SN FZFG,M,M,M,M,M,M,22.97,KELY 300113Z AUTO 01003KT 1/4SM SN FZFG VV013 M03/M04 A2968 RMK AO2 P0000 T10281044 $,M
BVU,2023-03-30 01:15,-114.8611,35.9475,671.00,55.40,35.60,47.16,230.00,17.00,0.00,29.73,M,10.00,24.00,OVC,M,M,M,6000.00,M,M,M,M,M,M,M,M,M,M,55.40,KBVU 300115Z AUTO 23017G24KT 10SM OVC060 13/02 A2973 RMK AO2,M
CXP,2023-03-30 01:15,-119.7326,39.1923,1431.00,37.40,26.60,64.70,320.00,7.00,0.00,29.72,M,10.00,M,FEW,FEW,M,M,5000.00,6000.00,M,M,M,M,M,M,M,M,M,31.36,KCXP 300115Z AUTO 32007KT 10SM FEW050 FEW060 03/M03 A2972 RMK AO2,M
RTS,2023-03-30 01:15,-119.8764,39.6682,1539.00,30.20,28.40,92.92,0.00,0.00,0.00,29.74,M,6.00,M,SCT,SCT,M,M,500.00,1400.00,M,M,-SN,M,M,M,M,M,M,30.20,KRTS 300115Z AUTO 00000KT 6SM -SN SCT005 SCT014 M01/M02 A2974 RMK AO2,M
MEV,2023-03-30 01:15,-119.7500,38.9963,1441.42,37.40,24.80,60.04,360.00,11.00,0.00,29.70,M,10.00,M,CLR,M,M,M,M,M,M,M,M,M,M,M,M,M,M,29.29,KMEV 300115Z AUTO 36011KT 10SM CLR 03/M04 A2970 RMK AO2,M
BAM,2023-03-30 01:15,-116.8743,40.5990,1382.36,41.00,24.80,52.17,350.00,5.00,0.00,29.72,M,10.00,M,CLR,M,M,M,M,M,M,M,M,M,M,M,M,M,M,37.08,KBAM 300115Z AUTO 35005KT 10SM CLR 05/M04 A2972 RMK AO1,M
HTH,2023-03-30 01:15,-118.6315,38.5448,1282.89,42.80,21.20,41.84,320.00,13.00,0.00,29.68,M,10.00,21.00,CLR,M,M,M,M,M,M,M,M,M,M,M,M,M,M,35.40,KHTH 300115Z AUTO 32013G21KT 10SM CLR 06/M06 A2968 RMK A01,M
TMT,2023-03-30 01:15,-117.1971,39.4643,1749.34,33.00,21.00,60.71,0.00,0.00,0.00,29.70,M,10.00,M,BKN,BKN,BKN,M,4000.00,4800.00,5000.00,M,M,M,M,M,M,M,M,33.10,KTMT 300115Z AUTO 00000KT 10SM BKN040 BKN048 BKN050 01/M06 A2970 RMK AO2 T00061061,M
TPH,2023-03-30 01:21,-117.0904,38.0505,1654.00,32.00,28.00,84.98,10.00,13.00,T,29.71,M,1.50,M,OVC,M,M,M,1800.00,M,M,M,-SN BR,M,M,M,M,M,M,21.57,KTPH 300121Z AUTO 01013KT 1 1/2SM -SN BR OVC018 00/M02 A2971 RMK AO2 SNB0058 P0000 T00001022,M
TPH,2023-03-30 01:26,-117.0904,38.0505,1654.00,30.90,28.00,88.84,20.00,14.00,T,29.71,M,0.75,M,VV ,M,M,M,1400.00,M,M,M,-SN BR,M,M,M,M,M,M,19.74,KTPH 300126Z AUTO 02014KT 3/4SM -SN BR VV014 M01/M02 A2971 RMK AO2 SNB0058 P0000 T10061022,M
ELY,2023-03-30 01:29,-114.8453,39.2950,1909.00,27.00,25.00,92.05,30.00,6.00,0.04,29.67,M,0.25,M,BKN,OVC,M,M,800.00,1400.00,M,M,SN FZFG,M,M,M,M,M,M,19.51,KELY 300129Z AUTO 03006KT 1/4SM SN FZFG BKN008 OVC014 M03/M04 A2967 RMK AO2 P0004 T10281039 $,M
05U,2023-03-30 01:30,-116.0051,39.6042,1811.23,28.40,23.00,79.92,M,5.00,0.00,29.71,M,10.00,M,CLR,M,M,M,M,M,M,M,M,M,M,M,M,M,M,22.12,K05U 300130Z AUTO VRB05KT 10SM CLR M02/M05 A2971 RMK A01,M
BVU,2023-03-30 01:35,-114.8611,35.9475,671.00,53.60,35.60,50.36,230.00,13.00,0.00,29.73,M,10.00,M,OVC,M,M,M,6000.00,M,M,M,M,M,M,M,M,M,M,53.60,KBVU 300135Z AUTO 23013KT 10SM OVC060 12/02 A2973 RMK AO2,M
CXP,2023-03-30 01:35,-119.7326,39.1923,1431.00,35.60,24.80,64.46,340.00,8.00,0.00,29.73,M,10.00,M,CLR,M,M,M,M,M,M,M,M,M,M,M,M,M,M,28.55,KCXP 300135Z AUTO 34008KT 10SM CLR 02/M04 A2973 RMK AO2,M
RTS,2023-03-30 01:35,-119.8764,39.6682,1539.00,28.40,26.60,92.86,0.00,0.00,0.00,29.74,M,10.00,M,FEW,SCT,SCT,M,600.00,1600.00,4600.00,M,M,M,M,M,M,M,M,28.40,KRTS 300135Z AUTO 00000KT 10SM FEW006 SCT016 SCT046 M02/M03 A2974 RMK AO2,M
MEV,2023-03-30 01:35,-119.7500,38.9963,1441.42,37.40,24.80,60.04,360.00,11.00,0.00,29.70,M,10.00,M,FEW,M,M,M,6500.00,M,M,M,M,M,M,M,M,M,M,29.29,KMEV 300135Z AUTO 36011KT 10SM FEW065 03/M04 A2970 RMK AO2,M
BAM,2023-03-30 01:35,-116.8743,40.5990,1382.36,39.20,26.60,60.29,350.00,3.00,0.00,29.72,M,10.00,M,CLR,M,M,M,M,M,M,M,M,M,M,M,M,M,M,36.92,KBAM 300135Z AUTO 35003KT 10SM CLR 04/M03 A2972 RMK AO1,M
HTH,2023-03-30 01:35,-118.6315,38.5448,1282.89,42.80,17.60,35.87,330.00,13.00,0.00,29.68,M,10.00,20.00,CLR,M,M,M,M,M,M,M,M,M,M,M,M,M,M,35.40,KHTH 300135Z AUTO 33013G20KT 10SM CLR 06/M08 A2968 RMK A01,M
TMT,2023-03-30 01:35,-117.1971,39.4643,1749.34,33.40,21.20,60.49,40.00,4.00,0.00,29.70,M,10.00,M,BKN,OVC,M,M,4500.00,5000.00,M,M,M,M,M,M,M,M,M,29.06,KTMT 300135Z AUTO 04004KT 10SM BKN045 OVC050 01/M06 A2970 RMK AO2 T00081060,M
ELY,2023-03-30 01:40,-114.8453,39.2950,1909.00,27.00,24.10,88.65,40.00,11.00,0.04,29.67,M,0.50,M,VV ,M,M,M,1100.00,M,M,M,-SN FZFG,M,M,M,M,M,M,16.15,KELY 300140Z AUTO 04011KT 1/2SM -SN FZFG VV011 M03/M04 A2967 RMK AO2 P0004 T10281044 $,M
05U,2023-03-30 01:50,-116.0051,39.6042,1811.23,26.60,23.00,86.07,0.00,0.00,0.00,29.71,M,10.00,M,CLR,M,M,M,M,M,M,M,M,M,M,M,M,M,M,26.60,K05U 300150Z AUTO 00000KT 10SM CLR M03/M05 A2971 RMK A01,M
P68,2023-03-30 01:53,-116.0056,39.6014,1993.00,25.00,21.90,87.81,250.00,3.00,0.00,29.68,1004.70,M,M,M,M,M,M,M,M,M,M,M,M,M,M,M,M,M,20.69,KP68 300153Z AUTO 25003KT M04/M06 A2968 RMK AO1 SLP047 T10391056,M
DRA,2023-03-30 01:53,-116.0278,36.6206,1009.00,50.00,24.10,36.01,190.00,14.00,0.00,29.68,1002.80,10.00,19.00,SCT,M,M,M,7000.00,M,M,M,M,M,M,M,26.00,210.00,2023-03-30 01:06,50.00,KDRA 300153Z AUTO 19014G19KT 10SM SCT070 10/M04 A2968 RMK AO2 PK WND 21026/0106 SLP028 T01001044,M
ELY,2023-03-30 01:53,-114.8453,39.2950,1909.00,26.10,24.10,92.01,40.00,11.00,0.05,29.66,1003.90,0.50,M,BKN,OVC,M,M,1300.00,1800.00,M,M,SN FZFG,M,M,M,M,M,M,15.01,KELY 300153Z AUTO 04011KT 1/2SM SN FZFG BKN013 OVC018 M03/M04 A2966 RMK AO2 SLP039 P0005 T10331044 $,M
LOL,2023-03-30 01:53,-118.5701,40.0684,1192.43,41.00,24.10,50.67,190.00,3.00,0.00,29.71,1006.90,10.00,M,OVC,M,M,M,11000.00,M,M,M,M,M,M,M,M,M,M,38.98,KLOL 300153Z AUTO 19003KT 10SM OVC110 05/M04 A2971 RMK AO2 SLP069 T00501044,M
TPH,2023-03-30 01:53,-117.0904,38.0505,1654.00,30.20,28.40,92.92,30.00,15.00,0.01,29.70,M,1.00,M,VV ,M,M,M,2000.00,M,M,M,-SN BR,M,M,M,M,M,M,18.45,KTPH 300153Z AUTO 03015KT 1SM -SN BR VV020 M01/M02 A2970 RMK AO2 SNB0058 P0001,M
VGT,2023-03-30 01:53,-115.1933,36.2111,667.00,56.00,34.00,43.46,200.00,10.00,T,29.69,1006.30,10.00,M,OVC,M,M,M,10000.00,M,M,M,M,M,M,M,M,M,M,55.90,KVGT 300153Z 20010KT 10SM OVC100 13/01 A2969 RMK AO2 RAB14E24 SLP063 P0000 T01330011,M
TPH,2023-03-30 01:54,-117.0904,38.0505,1654.00,30.00,28.90,95.61,30.00,15.00,0.01,29.70,1005.60,1.00,M,VV ,M,M,M,2000.00,M,M,M,-SN BR,M,M,M,M,M,M,18.19,KTPH 300154Z AUTO 03015KT 1SM -SN BR VV020 M01/M02 A2970 RMK AO2 SNB0058 SLP056 P0001 T10111017,M
BVU,2023-03-30 01:55,-114.8611,35.9475,671.00,53.60,33.80,46.88,240.00,16.00,0.00,29.72,M,10.00,23.00,SCT,M,M,M,6000.00,M,M,M,M,M,M,M,M,M,M,53.60,KBVU 300155Z AUTO 24016G23KT 10SM SCT060 12/01 A2972 RMK AO2,M
CXP,2023-03-30 01:55,-119.7326,39.1923,1431.00,35.60,28.40,74.80,60.00,7.00,0.00,29.73,M,10.00,M,FEW,SCT,SCT,M,1600.00,2000.00,2800.00,M,M,M,M,M,M,M,M,29.17,KCXP 300155Z AUTO 06007KT 020V080 10SM FEW016 SCT020 SCT028 02/M02 A2973 RMK AO2,M
INS,2023-03-30 01:55,-115.6733,36.5872,955.00,50.70,18.90,28.16,250.00,17.00,0.00,29.67,1002.70,10.00,29.00,CLR,M,M,M,M,M,M,M,M,M,M,M,29.00,240.00,2023-03-30 01:48,50.70,KINS 300155Z AUTO 25017G29KT 10SM CLR 10/M07 A2967 RMK AO2 PK WND 24029/48 SLP027 T01041073 $,M
LSV,2023-03-30 01:55,-115.0343,36.2362,570.00,56.30,31.60,38.89,190.00,18.00,0.00,29.67,1003.90,10.00,M,OVC,M,M,M,9000.00,M,M,M,M,M,M,M,M,M,M,56.30,KLSV 300155Z AUTO 19018KT 10SM OVC090 14/M00 A2967 RMK AO2 SLP039 T01351002 $,M
RTS,2023-03-30 01:55,-119.8764,39.6682,1539.00,28.40,26.60,92.86,350.00,4.00,0.08,29.74,M,10.00,M,FEW,SCT,M,M,1800.00,5000.00,M,M,M,M,M,M,M,M,M,23.22,KRTS 300155Z AUTO 35004KT 10SM FEW018 SCT050 M02/M03 A2974 RMK AO2 P0008,M
MEV,2023-03-30 01:55,-119.7500,38.9963,1441.42,37.40,24.80,60.04,10.00,11.00,0.00,29.70,M,10.00,M,SCT,BKN,M,M,5000.00,5500.00,M,M,M,M,M,M,M,M,M,29.29,KMEV 300155Z AUTO 01011KT 10SM SCT050 BKN055 03/M04 A2970 RMK AO2,M
BAM,2023-03-30 01:55,-116.8743,40.5990,1382.36,39.20,26.60,60.29,350.00,7.00,0.00,29.72,M,10.00,M,CLR,M,M,M,M,M,M,M,M,M,M,M,M,M,M,33.56,KBAM 300155Z AUTO 35007KT 10SM CLR 04/M03 A2972 RMK AO1,M
HTH,2023-03-30 01:55,-118.6315,38.5448,1282.89,42.80,17.60,35.87,320.00,11.00,0.00,29.69,M,10.00,17.00,SCT,M,M,M,9500.00,M,M,M,M,M,M,M,M,M,M,36.11,KHTH 300155Z AUTO 32011G17KT 10SM SCT095 06/M08 A2969 RMK A01,M
TMT,2023-03-30 01:55,-117.1971,39.4643,1749.34,33.40,19.20,55.55,300.00,3.00,0.00,29.70,M,10.00,M,BKN,BKN,M,M,4500.00,5000.00,M,M,M,M,M,M,M,M,M,30.29,KTMT 300155Z AUTO 30003KT 10SM BKN045 BKN050 01/M07 A2970 RMK AO2 T00081071,M
RNO,2023-03-30 01:55,-119.7711,39.4839,1341.00,35.00,28.90,77.88,50.00,3.00,0.00,29.74,1007.40,10.00,M,FEW,BKN,BKN,M,1800.00,5500.00,8000.00,M,M,M,M,M,M,M,M,32.23,KRNO 300155Z 05003KT 10SM FEW018 BKN055 BKN080 02/M02 A2974 RMK AO2 SLP074 T00171017,M
EKO,2023-03-30 01:56,-115.7860,40.8242,1367.00,33.00,21.00,60.71,260.00,3.00,0.00,29.69,1005.70,10.00,M,FEW,M,M,M,12000.00,M,M,M,M,M,M,M,M,M,M,29.95,KEKO 300156Z AUTO 26003KT 10SM FEW120 01/M06 A2969 RMK AO2 SLP057 T00061061,M
NFL,2023-03-30 01:56,-118.7010,39.4166,1199.00,43.00,23.00,44.80,360.00,6.00,0.00,29.70,1004.00,10.00,M,SCT,BKN,BKN,BKN,3000.00,5000.00,10000.00,25000.00,M,M,M,M,M,M,M,38.78,KNFL 300156Z 36006KT 10SM SCT030 BKN050 BKN100 BKN250 06/M05 A2970 RMK AO2 SLP040 CB DSNT SW SH DSNT ALQDS T00611050,M
HND,2023-03-30 01:56,-115.1344,35.9729,742.79,51.00,36.00,56.10,170.00,12.00,T,29.74,1008.20,10.00,M,FEW,SCT,OVC,M,5500.00,8000.00,10000.00,M,M,M,M,M,30.00,200.00,2023-03-30 01:18,51.10,KHND 300156Z 17012KT 10SM FEW055 SCT080 OVC100 11/02 A2974 RMK AO2 PK WND 20030/0118 RAE54 SLP082 P0000 T01060022,M
LAS,2023-03-30 01:56,-115.1634,36.0719,663.00,54.00,35.00,48.65,200.00,10.00,0.00,29.71,1005.10,10.00,21.00,SCT,BKN,BKN,M,4600.00,9000.00,16000.00,M,M,M,M,M,M,M,M,54.00,KLAS 300156Z 20010G21KT 10SM SCT046 BKN090 BKN160 12/02 A2971 RMK AO2 SLP051 VIRGA ALQDS T01220017,M
WMC,2023-03-30 01:56,-117.8072,40.9019,1315.00,33.00,24.10,69.17,160.00,5.00,0.00,29.71,1007.10,10.00,M,CLR,M,M,M,M,M,M,M,M,M,M,M,M,M,M,27.70,KWMC 300156Z AUTO 16005KT 10SM CLR 01/M04 A2971 RMK AO2 SLP071 T00061044,M
CXP,2023-03-30 02:10,-119.7326,39.1923,1431.00,33.80,28.40,80.36,60.00,5.00,0.00,29.74,M,10.00,M,FEW,SCT,BKN,M,1800.00,2300.00,2700.00,M,M,M,M,M,M,M,M,28.53,KCXP 300210Z AUTO 06005KT 10SM FEW018 SCT023 BKN027 01/M02 A2974 RMK AO2,M
BVU,2023-03-30 02:15,-114.8611,35.9475,671.00,53.60,32.00,43.61,230.00,14.00,0.00,29.71,M,10.00,20.00,CLR,M,M,M,M,M,M,M,M,M,M,M,M,M,M,53.60,KBVU 300215Z AUTO 23014G20KT 10SM CLR 12/M00 A2971 RMK AO2,M
RTS,2023-03-30 02:15,-119.8764,39.6682,1539.00,26.60,24.80,92.80,360.00,4.00,0.00,29.74,M,10.00,M,BKN,M,M,M,5000.00,M,M,M,M,M,M,M,M,M,M,21.11,KRTS 300215Z AUTO 36004KT 10SM BKN050 M03/M04 A2974 RMK AO2,M
05U,2023-03-30 02:15,-116.0051,39.6042,1811.23,24.80,21.20,85.96,360.00,5.00,0.00,29.70,M,10.00,M,BKN,M,M,M,7000.00,M,M,M,M,M,M,M,M,M,M,17.84,K05U 300215Z AUTO 36005KT 10SM BKN070 M04/M06 A2970 RMK A01,M
MEV,2023-03-30 02:15,-119.7500,38.9963,1441.42,37.40,26.60,64.70,360.00,13.00,0.00,29.71,M,10.00,M,SCT,OVC,M,M,4100.00,5000.00,M,M,M,M,M,M,M,M,M,28.49,KMEV 300215Z AUTO 36013KT 10SM SCT041 OVC050 03/M03 A2971 RMK AO2,M
BAM,2023-03-30 02:15,-116.8743,40.5990,1382.36,37.40,26.60,64.70,0.00,0.00,0.00,29.72,M,10.00,M,CLR,M,M,M,M,M,M,M,M,M,M,M,M,M,M,37.40,KBAM 300215Z AUTO 00000KT 10SM CLR 03/M03 A2972 RMK AO1,M
HTH,2023-03-30 02:15,-118.6315,38.5448,1282.89,42.80,17.60,35.87,330.00,11.00,0.00,29.69,M,10.00,M,BKN,BKN,M,M,10000.00,12000.00,M,M,M,M,M,M,M,M,M,36.11,KHTH 300215Z AUTO 33011KT 10SM BKN100 BKN120 06/M08 A2969 RMK A01,M
TMT,2023-03-30 02:15,-117.1971,39.4643,1749.34,31.60,21.90,66.99,240.00,3.00,0.00,29.70,M,10.00,M,SCT,M,M,M,4300.00,M,M,M,M,M,M,M,M,M,M,28.23,KTMT 300215Z AUTO 24003KT 10SM SCT043 00/M06 A2970 RMK AO2 T10021056,M
TPH,2023-03-30 02:16,-117.0904,38.0505,1654.00,30.00,28.00,92.15,40.00,15.00,T,29.68,M,4.00,M,BKN,BKN,OVC,M,1900.00,6500.00,8000.00,M,-SN BR,M,M,M,M,M,M,18.19,KTPH 300216Z AUTO 04015KT 4SM -SN BR BKN019 BKN065 OVC080 M01/M02 A2968 RMK AO2 P0000 T10111022,M
RNO,2023-03-30 02:18,-119.7711,39.4839,1341.00,35.00,28.00,75.06,360.00,8.00,T,29.74,M,2.00,M,FEW,OVC,M,M,2000.00,3200.00,M,M,-SN,M,M,M,M,M,M,27.93,KRNO 300218Z 36008KT 2SM -SN FEW020 OVC032 02/M02 A2974 RMK AO2 SFC VIS 2 1/2 SNB17 P0000 T00171022,M
ELY,2023-03-30 02:23,-114.8453,39.2950,1909.00,26.10,23.00,87.87,30.00,9.00,0.02,29.67,M,1.00,M,BKN,OVC,M,M,1300.00,2300.00,M,M,-SN BR,M,M,M,M,M,M,16.18,KELY 300223Z AUTO 03009KT 1SM -SN BR BKN013 OVC023 M03/M05 A2967 RMK AO2 P0002 T10331050 $,M
RNO,2023-03-30 02:25,-119.7711,39.4839,1341.00,35.00,28.00,75.06,350.00,7.00,T,29.74,M,1.50,M,OVC,M,M,M,2000.00,M,M,M,-SN,M,M,M,M,M,M,28.56,KRNO 300225Z 35007KT 1 1/2SM -SN OVC020 02/M02 A2974 RMK AO2 TWR VIS 2 SNB17 P0000 T00171022,M
TPH,2023-03-30 02:29,-117.0904,38.0505,1654.00,30.00,28.00,92.15,40.00,12.00,T,29.68,M,10.00,M,BKN,BKN,OVC,M,4100.00,6500.00,8000.00,M,M,M,M,M,M,M,M,19.46,KTPH 300229Z AUTO 04012KT 10SM BKN041 BKN065 OVC080 M01/M02 A2968 RMK AO2 SNE23 P0000 T10111022,M
ELY,2023-03-30 02:32,-114.8453,39.2950,1909.00,25.00,23.00,91.97,360.00,7.00,0.02,29.66,M,1.75,M,SCT,OVC,M,M,1300.00,2100.00,M,M,-SN BR,M,M,M,M,M,M,16.25,KELY 300232Z AUTO 36007KT 1 3/4SM -SN BR SCT013 OVC021 M04/M05 A2966 RMK AO2 P0002 T10391050 $,M
BVU,2023-03-30 02:35,-114.8611,35.9475,671.00,51.80,32.00,46.59,210.00,11.00,0.00,29.71,M,10.00,17.00,BKN,M,M,M,10000.00,M,M,M,M,M,M,M,M,M,M,51.80,KBVU 300235Z AUTO 21011G17KT 10SM BKN100 11/M00 A2971 RMK AO2,M
CXP,2023-03-30 02:35,-119.7326,39.1923,1431.00,33.80,28.40,80.36,80.00,3.00,0.00,29.74,M,10.00,M,FEW,BKN,OVC,M,2200.00,5500.00,7000.00,M,M,M,M,M,M,M,M,30.75,KCXP 300235Z AUTO 08003KT 10SM FEW022 BKN055 OVC070 01/M02 A2974 RMK AO2,M
RNO,2023-03-30 02:35,-119.7711,39.4839,1341.00,34.00,28.00,78.43,320.00,4.00,T,29.75,M,2.00,M,OVC,M,M,M,2000.00,M,M,M,-SN,M,M,M,M,M,M,29.76,KRNO 300235Z 32004KT 2SM -SN OVC020 01/M02 A2975 RMK AO2 SNB17 P0000 T00111022,M
RTS,2023-03-30 02:35,-119.8764,39.6682,1539.00,26.60,24.80,92.80,320.00,6.00,0.00,29.74,M,10.00,M,FEW,BKN,M,M,5000.00,10000.00,M,M,M,M,M,M,M,M,M,19.03,KRTS 300235Z AUTO 32006KT 10SM FEW050 BKN100 M03/M04 A2974 RMK AO2,M
05U,2023-03-30 02:35,-116.0051,39.6042,1811.23,23.00,19.40,85.85,10.00,6.00,0.00,29.71,M,10.00,M,FEW,FEW,OVC,M,2900.00,3400.00,7000.00,M,M,M,M,M,M,M,M,14.69,K05U 300235Z AUTO 01006KT 10SM FEW029 FEW034 OVC070 M05/M07 A2971 RMK A01,M
MEV,2023-03-30 02:35,-119.7500,38.9963,1441.42,35.60,26.60,69.46,350.00,11.00,0.00,29.72,M,10.00,M,BKN,BKN,OVC,M,3500.00,4100.00,4600.00,M,M,M,M,M,M,M,M,27.02,KMEV 300235Z AUTO 35011KT 10SM BKN035 BKN041 OVC046 02/M03 A2972 RMK AO2,M
BAM,2023-03-30 02:35,-116.8743,40.5990,1382.36,37.40,26.60,64.70,0.00,0.00,0.00,29.72,M,10.00,M,CLR,M,M,M,M,M,M,M,M,M,M,M,M,M,M,37.40,KBAM 300235Z AUTO 00000KT 10SM CLR 03/M03 A2972 RMK AO1,M
HTH,2023-03-30 02:35,-118.6315,38.5448,1282.89,42.80,21.20,41.84,340.00,16.00,0.00,29.69,M,10.00,M,BKN,OVC,M,M,8000.00,9500.00,M,M,M,M,M,M,M,M,M,34.50,KHTH 300235Z AUTO 34016KT 10SM BKN080 OVC095 06/M06 A2969 RMK A01,M
TMT,2023-03-30 02:35,-117.1971,39.4643,1749.34,30.00,22.60,73.62,240.00,4.00,0.00,29.70,M,10.00,M,CLR,M,M,M,M,M,M,M,M,M,M,M,M,M,M,25.08,KTMT 300235Z AUTO 24004KT 10SM CLR M01/M05 A2970 RMK AO2 T10111052,M
ELY,2023-03-30 02:39,-114.8453,39.2950,1909.00,25.00,24.10,96.31,300.00,5.00,0.02,29.67,M,3.00,M,FEW,OVC,M,M,1000.00,2100.00,M,M,-SN BR,M,M,M,M,M,M,18.08,KELY 300239Z AUTO 30005KT 3SM -SN BR FEW010 OVC021 M04/M04 A2967 RMK AO2 P0002 T10391044 $,M
ELY,2023-03-30 02:45,-114.8453,39.2950,1909.00,26.10,24.10,92.01,M,3.00,0.02,29.68,M,4.00,M,BKN,OVC,M,M,700.00,2100.00,M,M,-SN BR,M,M,M,M,M,M,21.94,KELY 300245Z AUTO VRB03KT 4SM -SN BR BKN007 OVC021 M03/M04 A2968 RMK AO2 P0002 T10331044 $,M
P68,2023-03-30 02:53,-116.0056,39.6014,1993.00,21.90,19.00,88.40,170.00,5.00,0.00,29.68,1005.00,M,M,M,M,M,M,M,M,M,M,M,M,M,M,M,M,M,14.40,KP68 300253Z AUTO 17005KT M06/M07 A2968 RMK AO1 SLP050 T10561072 50001,M
DRA,2023-03-30 02:53,-116.0278,36.6206,1009.00,48.00,24.10,38.80,190.00,13.00,0.00,29.68,1003.10,10.00,24.00,FEW,M,M,M,7000.00,M,M,M,M,M,M,M,M,M,M,42.07,KDRA 300253Z AUTO 19013G24KT 10SM FEW070 09/M04 A2968 RMK AO2 SLP031 T00891044 55000,M
ELY,2023-03-30 02:53,-114.8453,39.2950,1909.00,26.10,23.00,87.87,0.00,0.00,0.03,29.67,1004.60,3.00,M,BKN,OVC,M,M,800.00,2100.00,M,M,-SN BR,M,M,M,M,M,M,26.10,KELY 300253Z AUTO 00000KT 3SM -SN BR BKN008 OVC021 M03/M05 A2967 RMK AO2 SLP046 P0003 60012 T10331050 51004 $,M
VGT,2023-03-30 02:53,-115.1933,36.2111,667.00,54.00,30.00,39.63,220.00,15.00,0.00,29.67,1005.60,10.00,21.00,CLR,M,M,M,M,M,M,M,M,M,M,M,M,M,M,54.00,KVGT 300253Z AUTO 22015G21KT 10SM CLR 12/M01 A2967 RMK AO2 SLP056 60001 T01221011 58015,M
LOL,2023-03-30 02:53,-118.5701,40.0684,1192.43,38.00,27.00,64.49,200.00,5.00,0.00,29.71,1007.70,10.00,M,CLR,M,M,M,M,M,M,M,M,M,M,M,M,M,M,33.40,KLOL 300253Z AUTO 20005KT 10SM CLR 03/M03 A2971 RMK AO2 SLP077 T00331028 53000,M
BVU,2023-03-30 02:55,-114.8611,35.9475,671.00,51.80,28.40,40.25,230.00,6.00,0.00,29.71,M,10.00,M,SCT,M,M,M,10000.00,M,M,M,M,M,M,M,M,M,M,51.80,KBVU 300255Z AUTO 23006KT 10SM SCT100 11/M02 A2971 RMK AO2,M
CXP,2023-03-30 02:55,-119.7326,39.1923,1431.00,33.80,28.40,80.36,0.00,0.00,0.00,29.74,M,10.00,M,FEW,SCT,OVC,M,2900.00,4900.00,6000.00,M,M,M,M,M,M,M,M,33.80,KCXP 300255Z AUTO 00000KT 10SM FEW029 SCT049 OVC060 01/M02 A2974 RMK AO2,M
INS,2023-03-30 02:55,-115.6733,36.5872,955.00,49.30,17.60,28.05,240.00,14.00,0.00,29.67,1002.70,10.00,26.00,CLR,M,M,M,M,M,M,M,M,M,M,M,26.00,270.00,2023-03-30 02:30,43.46,KINS 300255Z AUTO 24014G26KT 10SM CLR 10/M08 A2967 RMK AO2 PK WND 27026/30 SLP027 T00961080 56010 $,M
RNO,2023-03-30 02:55,-119.7711,39.4839,1341.00,34.00,28.90,81.37,0.00,0.00,0.01,29.75,1007.80,2.00,M,OVC,M,M,M,2000.00,M,M,M,-SN,M,M,M,M,M,M,34.00,KRNO 300255Z 00000KT 2SM -SN OVC020 01/M02 A2975 RMK AO2 SNB17 SLP078 P0001 60001 T00111017 53007,M
RTS,2023-03-30 02:55,-119.8764,39.6682,1539.00,26.60,24.80,92.80,320.00,3.00,0.00,29.75,M,10.00,M,FEW,BKN,OVC,M,6000.00,7000.00,10000.00,M,M,M,M,M,M,M,M,22.52,KRTS 300255Z AUTO 32003KT 10SM FEW060 BKN070 OVC100 M03/M04 A2975 RMK AO2,M
05U,2023-03-30 02:55,-116.0051,39.6042,1811.23,21.20,19.40,92.63,M,4.00,0.00,29.71,M,10.00,M,SCT,BKN,OVC,M,2900.00,3600.00,9000.00,M,M,M,M,M,M,M,M,14.81,K05U 300255Z AUTO VRB04KT 10SM SCT029 BKN036 OVC090 M06/M07 A2971 RMK A01,M
MEV,2023-03-30 02:55,-119.7500,38.9963,1441.42,33.80,28.40,80.36,10.00,7.00,0.00,29.72,M,1.00,12.00,BKN,BKN,OVC,M,400.00,2400.00,3300.00,M,-SN HZ,M,M,M,M,M,M,26.97,KMEV 300255Z AUTO 01007G12KT 1SM -SN HZ BKN004 BKN024 OVC033 01/M02 A2972 RMK AO2,M
BAM,2023-03-30 02:55,-116.8743,40.5990,1382.36,35.60,26.60,69.46,0.00,0.00,0.00,29.72,M,10.00,M,CLR,M,M,M,M,M,M,M,M,M,M,M,M,M,M,35.60,KBAM 300255Z AUTO 00000KT 10SM CLR 02/M03 A2972 RMK AO1,M
HTH,2023-03-30 02:55,-118.6315,38.5448,1282.89,41.00,23.00,48.39,350.00,14.00,0.00,29.70,M,10.00,M,OVC,M,M,M,8000.00,M,M,M,M,M,M,M,M,M,M,32.76,KHTH 300255Z AUTO 35014KT 10SM OVC080 05/M05 A2970 RMK A01,M
TMT,2023-03-30 02:55,-117.1971,39.4643,1749.34,29.80,22.80,74.85,220.00,3.00,0.00,29.70,M,10.00,M,CLR,M,M,M,M,M,M,M,M,M,M,M,M,M,M,26.17,KTMT 300255Z AUTO 22003KT 10SM CLR M01/M05 A2970 RMK AO2 T10121051,M
LSV,2023-03-30 02:55,-115.0343,36.2362,570.00,54.00,33.80,46.03,180.00,13.00,0.00,29.67,1004.00,10.00,M,CLR,M,M,M,M,M,M,M,M,M,M,M,M,M,M,54.10,KLSV 300255Z AUTO 18013KT 10SM CLR 12/01 A2967 RMK AO2 SLP040 60000 T01230010 58008 $,M
EKO,2023-03-30 02:56,-115.7860,40.8242,1367.00,30.00,23.00,74.87,290.00,3.00,0.00,29.69,1007.00,10.00,M,CLR,M,M,M,M,M,M,M,M,M,M,M,M,M,M,26.40,KEKO 300256Z AUTO 29003KT 10SM CLR M01/M05 A2969 RMK AO2 SLP070 T10111050 55003,M
WMC,2023-03-30 02:56,-117.8072,40.9019,1315.00,28.90,23.00,78.30,170.00,5.00,0.00,29.71,1007.80,10.00,M,CLR,M,M,M,M,M,M,M,M,M,M,M,M,M,M,22.71,KWMC 300256Z AUTO 17005KT 10SM CLR M02/M05 A2971 RMK AO2 SLP078 T10171050 55003,M
NFL,2023-03-30 02:56,-118.7010,39.4166,1199.00,40.00,30.90,69.96,340.00,7.00,0.00,29.71,1004.30,10.00,M,SCT,BKN,OVC,M,3000.00,5000.00,10000.00,M,M,M,M,M,M,M,M,34.41,KNFL 300256Z 34007KT 10SM SCT030 BKN050 OVC100 04/M01 A2971 RMK AO2 SLP043 SH VC W-NW T00441006 53003,M
HND,2023-03-30 02:56,-115.1344,35.9729,742.79,50.00,32.00,49.81,190.00,10.00,0.00,29.72,1007.70,10.00,M,CLR,M,M,M,M,M,M,M,M,M,M,M,M,M,M,50.00,KHND 300256Z 19010KT 10SM CLR 10/00 A2972 RMK AO2 SLP077 60000 T01000000 58007,M
TPH,2023-03-30 02:56,-117.0904,38.0505,1654.00,30.90,27.00,85.26,340.00,6.00,T,29.70,1005.60,9.00,M,OVC,M,M,M,4500.00,M,M,M,-SN,M,M,M,M,M,M,24.21,KTPH 300256Z AUTO 34006KT 9SM -SN OVC045 M01/M03 A2970 RMK AO2 SNE23B48 SLP056 P0000 60001 T10061028 51003,M
LAS,2023-03-30 02:56,-115.1634,36.0719,663.00,53.00,32.00,44.42,200.00,8.00,0.00,29.69,1004.70,10.00,M,FEW,SCT,M,M,9000.00,16000.00,M,M,M,M,M,M,M,M,M,53.10,KLAS 300256Z 20008KT 10SM FEW090 SCT160 12/00 A2969 RMK AO2 SLP047 60000 T01170000 58009,M
ELY,2023-03-30 03:03,-114.8453,39.2950,1909.00,26.10,23.00,87.87,0.00,0.00,T,29.68,M,1.75,M,BKN,OVC,M,M,800.00,2100.00,M,M,-SN BR,M,M,M,M,M,M,26.10,KELY 300303Z AUTO 00000KT 1 3/4SM -SN BR BKN008 OVC021 M03/M05 A2968 RMK AO2 P0000 T10331050 $,M
ELY,2023-03-30 03:12,-114.8453,39.2950,1909.00,26.10,23.00,87.87,290.00,5.00,T,29.68,M,1.25,M,BKN,OVC,M,M,800.00,1900.00,M,M,-SN BR,M,M,M,M,M,M,19.39,KELY 300312Z AUTO 29005KT 1 1/4SM -SN BR BKN008 OVC019 M03/M05 A2968 RMK AO2 P0000 T10331050 $,M
RNO,2023-03-30 03:13,-119.7711,39.4839,1341.00,33.00,28.90,84.36,330.00,4.00,T,29.75,M,1.50,M,OVC,M,M,M,1800.00,M,M,M,-SN,M,M,M,M,M,M,28.70,KRNO 300313Z 33004KT 1 1/2SM -SN OVC018 01/M02 A2975 RMK AO2 TWR VIS 2 P0000 T00061017,M
BVU,2023-03-30 03:15,-114.8611,35.9475,671.00,51.80,30.20,43.32,60.00,4.00,0.00,29.72,M,10.00,M,CLR,M,M,M,M,M,M,M,M,M,M,M,M,M,M,51.80,KBVU 300315Z AUTO 06004KT 10SM CLR 11/M01 A2972 RMK AO2,M
CXP,2023-03-30 03:15,-119.7326,39.1923,1431.00,33.80,28.40,80.36,0.00,0.00,0.00,29.74,M,10.00,M,SCT,OVC,M,M,3300.00,5500.00,M,M,M,M,M,M,M,M,M,33.80,KCXP 300315Z AUTO 00000KT 10SM SCT033 OVC055 01/M02 A2974 RMK AO2,M
RNO,2023-03-30 03:15,-119.7711,39.4839,1341.00,33.00,28.90,84.36,330.00,6.00,T,29.76,M,1.00,M,OVC,M,M,M,1500.00,M,M,M,-SN,M,M,M,M,M,M,26.86,KRNO 300315Z 33006KT 1SM -SN OVC015 01/M02 A2976 RMK AO2 P0000 T00061017 RVRNO,M
RTS,2023-03-30 03:15,-119.8764,39.6682,1539.00,26.60,24.80,92.80,0.00,0.00,0.00,29.76,M,10.00,M,FEW,BKN,OVC,M,4000.00,5000.00,6500.00,M,-SN,M,M,M,M,M,M,26.60,KRTS 300315Z AUTO 00000KT 10SM -SN FEW040 BKN050 OVC065 M03/M04 A2976 RMK AO2,M
05U,2023-03-30 03:15,-116.0051,39.6042,1811.23,21.20,17.60,85.74,M,M,0.00,29.70,M,10.00,M,FEW,SCT,OVC,M,2900.00,7500.00,8500.00,M,M,M,M,M,M,M,M,M,K05U 300315Z AUTO 10SM FEW029 SCT075 OVC085 M06/M08 A2970 RMK A01,M
MEV,2023-03-30 03:15,-119.7500,38.9963,1441.42,32.00,30.20,92.97,360.00,4.00,0.00,29.73,M,0.75,M,OVC,M,M,M,300.00,M,M,M,-SN BR,M,M,M,M,M,M,27.42,KMEV 300315Z AUTO 36004KT 3/4SM -SN BR OVC003 00/M01 A2973 RMK AO2,M
BAM,2023-03-30 03:15,-116.8743,40.5990,1382.36,33.80,28.40,80.36,160.00,3.00,0.00,29.72,M,10.00,M,CLR,M,M,M,M,M,M,M,M,M,M,M,M,M,M,30.75,KBAM 300315Z AUTO 16003KT 10SM CLR 01/M02 A2972 RMK AO1,M
HTH,2023-03-30 03:15,-118.6315,38.5448,1282.89,41.00,23.00,48.39,340.00,13.00,0.00,29.70,M,10.00,M,BKN,OVC,M,M,7500.00,8000.00,M,M,M,M,M,M,M,M,M,33.10,KHTH 300315Z AUTO 34013KT 10SM BKN075 OVC080 05/M05 A2970 RMK A01,M
TMT,2023-03-30 03:15,-117.1971,39.4643,1749.34,27.30,22.80,82.92,210.00,4.00,0.00,29.70,M,10.00,M,CLR,M,M,M,M,M,M,M,M,M,M,M,M,M,M,21.93,KTMT 300315Z AUTO 21004KT 10SM CLR M03/M05 A2970 RMK AO2 T10261051,M
ELY,2023-03-30 03:28,-114.8453,39.2950,1909.00,25.00,23.00,91.97,310.00,5.00,0.01,29.69,M,0.50,M,VV ,M,M,M,700.00,M,M,M,SN FZFG,M,M,M,M,M,M,18.08,KELY 300328Z AUTO 31005KT 1/2SM SN FZFG VV007 M04/M05 A2969 RMK AO2 P0001 T10391050 $,M
BVU,2023-03-30 03:35,-114.8611,35.9475,671.00,51.80,30.20,43.32,110.00,7.00,0.00,29.71,M,10.00,M,CLR,M,M,M,M,M,M,M,M,M,M,M,M,M,M,51.80,KBVU 300335Z AUTO 11007KT 10SM CLR 11/M01 A2971 RMK AO2,M
CXP,2023-03-30 03:35,-119.7326,39.1923,1431.00,33.80,28.40,80.36,0.00,0.00,0.00,29.75,M,10.00,M,BKN,BKN,OVC,M,3500.00,4400.00,5500.00,M,M,M,M,M,M,M,M,33.80,KCXP 300335Z AUTO 00000KT 10SM BKN035 BKN044 OVC055 01/M02 A2975 RMK AO2,M
RTS,2023-03-30 03:35,-119.8764,39.6682,1539.00,26.60,24.80,92.80,0.00,0.00,0.00,29.76,M,9.00,M,BKN,BKN,OVC,M,2500.00,3200.00,5000.00,M,-SN,M,M,M,M,M,M,26.60,KRTS 300335Z AUTO 00000KT 9SM -SN BKN025 BKN032 OVC050 M03/M04 A2976 RMK AO2,M
05U,2023-03-30 03:35,-116.0051,39.6042,1811.23,19.40,17.60,92.57,50.00,7.00,0.00,29.71,M,10.00,M,OVC,M,M,M,9000.00,M,M,M,M,M,M,M,M,M,M,9.42,K05U 300335Z AUTO 05007KT 010V130 10SM OVC090 M07/M08 A2971 RMK A01,M
MEV,2023-03-30 03:35,-119.7500,38.9963,1441.42,32.00,30.20,92.97,20.00,7.00,0.00,29.74,M,1.00,M,OVC,M,M,M,300.00,M,M,M,-SN BR,M,M,M,M,M,M,24.78,KMEV 300335Z AUTO 02007KT 1SM -SN BR OVC003 M00/M01 A2974 RMK AO2,M
BAM,2023-03-30 03:35,-116.8743,40.5990,1382.36,32.00,28.40,86.39,120.00,4.00,0.00,29.73,M,10.00,M,CLR,M,M,M,M,M,M,M,M,M,M,M,M,M,M,27.42,KBAM 300335Z AUTO 12004KT 10SM CLR 00/M02 A2973 RMK AO1,M
HTH,2023-03-30 03:35,-118.6315,38.5448,1282.89,41.00,23.00,48.39,330.00,12.00,0.00,29.71,M,10.00,M,OVC,M,M,M,7000.00,M,M,M,M,M,M,M,M,M,M,33.46,KHTH 300335Z AUTO 33012KT 10SM OVC070 05/M05 A2971 RMK A01,M
TMT,2023-03-30 03:35,-117.1971,39.4643,1749.34,26.20,22.30,84.96,0.00,0.00,0.00,29.71,M,10.00,M,CLR,M,M,M,M,M,M,M,M,M,M,M,M,M,M,26.20,KTMT 300335Z AUTO 00000KT 10SM CLR M03/M05 A2971 RMK AO2 T10321054,M
RNO,2023-03-30 03:36,-119.7711,39.4839,1341.00,32.00,28.90,88.17,360.00,9.00,0.02,29.76,M,1.75,M,OVC,M,M,M,1300.00,M,M,M,-SN,M,M,M,M,M,M,23.51,KRNO 300336Z 36009KT 1 3/4SM -SN OVC013 00/M02 A2976 RMK AO2 SFC VIS 2 P0002 T00001017,M
ELY,2023-03-30 03:44,-114.8453,39.2950,1909.00,25.00,23.00,91.97,320.00,5.00,0.03,29.69,M,1.00,M,FEW,OVC,M,M,700.00,1300.00,M,M,-SN BR,M,M,M,M,M,M,18.08,KELY 300344Z AUTO 32005KT 1SM -SN BR FEW007 OVC013 M04/M05 A2969 RMK AO2 P0003 T10391050 $,M
ELY,2023-03-30 03:47,-114.8453,39.2950,1909.00,24.80,23.00,92.74,310.00,5.00,0.03,29.69,M,1.50,M,OVC,M,M,M,1800.00,M,M,M,-SN BR,M,M,M,M,M,M,17.84,KELY 300347Z AUTO 31005KT 1 1/2SM -SN BR OVC018 M04/M05 A2969 RMK AO2 P0003 $,M
P68,2023-03-30 03:53,-116.0056,39.6014,1993.00,21.00,18.00,87.97,M,3.00,0.00,29.69,1006.40,M,M,M,M,M,M,M,M,M,M,M,M,M,M,M,M,M,16.11,KP68 300353Z AUTO VRB03KT M06/M08 A2969 RMK AO1 SLP064 T10611078,M
ELY,2023-03-30 03:53,-114.8453,39.2950,1909.00,25.00,21.90,87.81,320.00,5.00,0.03,29.69,1004.70,3.00,M,OVC,M,M,M,2900.00,M,M,M,-SN BR,M,M,M,M,M,M,18.08,KELY 300353Z AUTO 32005KT 3SM -SN BR OVC029 M04/M06 A2969 RMK AO2 SLP047 P0003 T10391056 $,M
VGT,2023-03-30 03:53,-115.1933,36.2111,667.00,55.00,21.90,27.31,230.00,15.00,0.00,29.67,1005.80,10.00,24.00,CLR,M,M,M,M,M,M,M,M,M,M,M,M,M,M,55.00,KVGT 300353Z AUTO 23015G24KT 10SM CLR 13/M06 A2967 RMK AO2 SLP058 T01281056,M
LOL,2023-03-30 03:53,-118.5701,40.0684,1192.43,33.00,27.00,78.03,220.00,5.00,0.00,29.73,1008.20,10.00,M,CLR,M,M,M,M,M,M,M,M,M,M,M,M,M,M,27.70,KLOL 300353Z AUTO 22005KT 10SM CLR 01/M03 A2973 RMK AO2 SLP082 T00061028,M
DRA,2023-03-30 03:53,-116.0278,36.6206,1009.00,47.00,24.10,40.44,200.00,14.00,0.00,29.68,1003.10,10.00,24.00,CLR,M,M,M,M,M,M,M,M,M,M,M,27.00,200.00,2023-03-30 03:37,40.37,KDRA 300353Z AUTO 20014G24KT 10SM CLR 08/M04 A2968 RMK AO2 PK WND 20027/0337 SLP031 T00831044,M
BVU,2023-03-30 03:55,-114.8611,35.9475,671.00,53.60,28.40,37.67,M,3.00,0.00,29.72,M,10.00,14.00,CLR,M,M,M,M,M,M,M,M,M,M,M,M,M,M,53.60,KBVU 300355Z AUTO VRB03G14KT 10SM CLR 12/M02 A2972 RMK AO2,M
CXP,2023-03-30 03:55,-119.7326,39.1923,1431.00,33.80,26.60,74.63,0.00,0.00,0.00,29.76,M,10.00,M,OVC,M,M,M,3500.00,M,M,M,M,M,M,M,M,M,M,33.80,KCXP 300355Z AUTO 00000KT 10SM OVC035 01/M03 A2976 RMK AO2,M
INS,2023-03-30 03:55,-115.6733,36.5872,955.00,48.00,16.50,28.08,270.00,14.00,0.00,29.67,1002.70,10.00,24.00,CLR,M,M,M,M,M,M,M,M,M,M,M,28.00,250.00,2023-03-30 03:12,41.79,KINS 300355Z AUTO 27014G24KT 10SM CLR 09/M09 A2967 RMK AO2 PK WND 25028/12 SLP027 T00891086 $,M
RNO,2023-03-30 03:55,-119.7711,39.4839,1341.00,32.00,30.00,92.22,360.00,7.00,0.03,29.77,1008.20,1.75,M,BKN,OVC,M,M,1300.00,2400.00,M,M,-SN,M,M,M,M,M,M,24.78,KRNO 300355Z 36007KT 1 3/4SM -SN BKN013 OVC024 00/M01 A2977 RMK AO2 SFC VIS 2 SLP082 SNINCR 1/1 P0003 T00001011,M
LSV,2023-03-30 03:55,-115.0343,36.2362,570.00,53.20,29.50,39.99,230.00,7.00,0.00,29.67,1003.90,10.00,M,CLR,M,M,M,M,M,M,M,M,M,M,M,M,M,M,53.20,KLSV 300355Z AUTO 23007KT 10SM CLR 12/M01 A2967 RMK AO2 SLP039 T01181014 $,M
RTS,2023-03-30 03:55,-119.8764,39.6682,1539.00,28.40,26.60,92.86,0.00,0.00,0.00,29.77,M,2.00,M,FEW,BKN,M,M,300.00,2400.00,M,M,-SN,M,M,M,M,M,M,28.40,KRTS 300355Z AUTO 00000KT 2SM -SN FEW003 BKN024 M02/M03 A2977 RMK AO2,M
05U,2023-03-30 03:55,-116.0051,39.6042,1811.23,21.20,17.60,85.74,M,4.00,0.00,29.71,M,10.00,M,SCT,M,M,M,9000.00,M,M,M,M,M,M,M,M,M,M,14.81,K05U 300355Z AUTO VRB04KT 10SM SCT090 M06/M08 A2971 RMK A01,M
MEV,2023-03-30 03:55,-119.7500,38.9963,1441.42,32.00,30.20,92.97,360.00,6.00,0.00,29.74,M,6.00,M,SCT,BKN,OVC,M,300.00,3600.00,4400.00,M,-SN BR,M,M,M,M,M,M,25.53,KMEV 300355Z AUTO 36006KT 6SM -SN BR SCT003 BKN036 OVC044 M00/M01 A2974 RMK AO2,M
BAM,2023-03-30 03:55,-116.8743,40.5990,1382.36,32.00,30.20,92.97,120.00,4.00,0.00,29.73,M,10.00,M,CLR,M,M,M,M,M,M,M,M,M,M,M,M,M,M,27.42,KBAM 300355Z AUTO 12004KT 10SM CLR 00/M01 A2973 RMK AO1,M
HTH,2023-03-30 03:55,-118.6315,38.5448,1282.89,41.00,23.00,48.39,330.00,13.00,0.00,29.72,M,10.00,M,BKN,OVC,M,M,6000.00,7000.00,M,M,M,M,M,M,M,M,M,33.10,KHTH 300355Z AUTO 33013KT 10SM BKN060 OVC070 05/M05 A2972 RMK A01,M
TMT,2023-03-30 03:55,-117.1971,39.4643,1749.34,25.70,21.90,85.29,0.00,0.00,0.00,29.71,M,10.00,M,CLR,M,M,M,M,M,M,M,M,M,M,M,M,M,M,25.70,KTMT 300355Z AUTO 00000KT 10SM CLR M03/M06 A2971 RMK AO2 T10351056,M
EKO,2023-03-30 03:56,-115.7860,40.8242,1367.00,30.90,21.00,66.34,0.00,0.00,0.00,29.70,1006.60,10.00,M,CLR,M,M,M,M,M,M,M,M,M,M,M,M,M,M,30.90,KEKO 300356Z AUTO 00000KT 10SM CLR M01/M06 A2970 RMK AO2 SLP066 T10061061,M
WMC,2023-03-30 03:56,-117.8072,40.9019,1315.00,26.10,19.90,77.06,170.00,6.00,0.00,29.72,1008.30,10.00,M,CLR,M,M,M,M,M,M,M,M,M,M,M,M,M,M,18.42,KWMC 300356Z AUTO 17006KT 10SM CLR M03/M07 A2972 RMK AO2 SLP083 T10331067,M
TPH,2023-03-30 03:56,-117.0904,38.0505,1654.00,30.00,27.00,88.44,360.00,8.00,T,29.71,1006.40,10.00,M,FEW,OVC,M,M,5500.00,8000.00,M,M,M,M,M,M,M,M,M,21.65,KTPH 300356Z AUTO 36008KT 10SM FEW055 OVC080 M01/M03 A2971 RMK AO2 SNE03 SLP064 P0000 T10111028,M
LAS,2023-03-30 03:56,-115.1634,36.0719,663.00,52.00,27.00,37.72,200.00,10.00,0.00,29.69,1004.40,10.00,18.00,CLR,M,M,M,M,M,M,M,M,M,M,M,M,M,M,52.00,KLAS 300356Z 20010G18KT 10SM CLR 11/M03 A2969 RMK AO2 SLP044 T01111028,M
NFL,2023-03-30 03:56,-118.7010,39.4166,1199.00,38.00,30.00,72.93,330.00,5.00,0.00,29.72,1004.50,10.00,M,SCT,BKN,OVC,M,3000.00,5000.00,10000.00,M,M,M,M,M,M,M,M,33.40,KNFL 300356Z 33005KT 10SM SCT030 BKN050 OVC100 03/M01 A2972 RMK AO2 SLP045 T00331011,M
HND,2023-03-30 03:56,-115.1344,35.9729,742.79,49.00,33.00,54.24,240.00,6.00,0.00,29.74,1008.00,10.00,M,CLR,M,M,M,M,M,M,M,M,M,M,M,M,M,M,45.88,KHND 300356Z AUTO 24006KT 10SM CLR 09/01 A2974 RMK AO2 SLP080 T00940006,M
ELY,2023-03-30 04:01,-114.8453,39.2950,1909.00,24.10,21.90,91.17,0.00,0.00,T,29.70,M,6.00,M,OVC,M,M,M,3300.00,M,M,M,-SN BR,M,M,M,M,M,M,24.10,KELY 300401Z AUTO 00000KT 6SM -SN BR OVC033 M04/M06 A2970 RMK AO2 P0000 T10441056 $,M
ELY,2023-03-30 04:07,-114.8453,39.2950,1909.00,25.00,21.90,87.81,30.00,3.00,T,29.70,M,2.50,M,OVC,M,M,M,2900.00,M,M,M,-SN BR,M,M,M,M,M,M,20.69,KELY 300407Z AUTO 03003KT 2 1/2SM -SN BR OVC029 M04/M06 A2970 RMK AO2 P0000 T10391056 $,M
ELY,2023-03-30 04:12,-114.8453,39.2950,1909.00,25.00,21.90,87.81,0.00,0.00,T,29.70,M,1.25,M,OVC,M,M,M,2700.00,M,M,M,-SN BR,M,M,M,M,M,M,25.00,KELY 300412Z AUTO 00000KT 1 1/4SM -SN BR OVC027 M04/M06 A2970 RMK AO2 P0000 T10391056 $,M
RNO,2023-03-30 04:12,-119.7711,39.4839,1341.00,32.00,30.00,92.22,10.00,3.00,T,29.77,M,2.50,M,BKN,OVC,M,M,1000.00,3200.00,M,M,-SN,M,M,M,M,M,M,28.69,KRNO 300412Z 01003KT 2 1/2SM -SN BKN010 OVC032 00/M01 A2977 RMK AO2 SFC VIS 3 P0000 T00001011,M
BVU,2023-03-30 04:15,-114.8611,35.9475,671.00,51.80,28.40,40.25,180.00,8.00,0.00,29.72,M,10.00,M,CLR,M,M,M,M,M,M,M,M,M,M,M,M,M,M,51.80,KBVU 300415Z AUTO 18008KT 10SM CLR 11/M02 A2972 RMK AO2,M
CXP,2023-03-30 04:15,-119.7326,39.1923,1431.00,33.80,28.40,80.36,0.00,0.00,0.00,29.77,M,4.00,M,BKN,OVC,M,M,2800.00,3500.00,M,M,-SN HZ,M,M,M,M,M,M,33.80,KCXP 300415Z AUTO 00000KT 4SM -SN HZ BKN028 OVC035 01/M02 A2977 RMK AO2,M
RTS,2023-03-30 04:15,-119.8764,39.6682,1539.00,28.40,26.60,92.86,0.00,0.00,0.00,29.77,M,1.25,M,OVC,M,M,M,200.00,M,M,M,-SN,M,M,M,M,M,M,28.40,KRTS 300415Z AUTO 00000KT 1 1/4SM -SN OVC002 M02/M03 A2977 RMK AO2,M
05U,2023-03-30 04:15,-116.0051,39.6042,1811.23,15.80,14.00,92.44,0.00,0.00,0.00,29.72,M,10.00,M,SCT,M,M,M,12000.00,M,M,M,M,M,M,M,M,M,M,15.80,K05U 300415Z AUTO 00000KT 10SM SCT120 M09/M10 A2972 RMK A01,M
MEV,2023-03-30 04:15,-119.7500,38.9963,1441.42,32.00,30.20,92.97,10.00,7.00,0.00,29.75,M,7.00,M,SCT,BKN,OVC,M,600.00,4400.00,6000.00,M,-SN,M,M,M,M,M,M,24.78,KMEV 300415Z AUTO 01007KT 7SM -SN SCT006 BKN044 OVC060 M00/M01 A2975 RMK AO2,M
BAM,2023-03-30 04:15,-116.8743,40.5990,1382.36,32.00,28.40,86.39,130.00,3.00,0.00,29.73,M,10.00,M,CLR,M,M,M,M,M,M,M,M,M,M,M,M,M,M,28.69,KBAM 300415Z AUTO 13003KT 10SM CLR 00/M02 A2973 RMK AO1,M
HTH,2023-03-30 04:15,-118.6315,38.5448,1282.89,41.00,23.00,48.39,330.00,12.00,0.00,29.73,M,10.00,M,SCT,OVC,M,M,4500.00,5500.00,M,M,M,M,M,M,M,M,M,33.46,KHTH 300415Z AUTO 33012KT 10SM SCT045 OVC055 05/M05 A2973 RMK A01,M
TMT,2023-03-30 04:15,-117.1971,39.4643,1749.34,25.30,21.00,83.48,170.00,3.00,0.00,29.72,M,10.00,M,CLR,M,M,M,M,M,M,M,M,M,M,M,M,M,M,21.03,KTMT 300415Z AUTO 17003KT 10SM CLR M04/M06 A2972 RMK AO2 T10371061,M
ELY,2023-03-30 04:29,-114.8453,39.2950,1909.00,25.00,21.90,85.96,290.00,3.00,0.01,29.70,M,0.75,M,VV ,M,M,M,1300.00,M,M,M,-SN BR,M,M,M,M,M,M,20.46,KELY 300429Z AUTO 29003KT 3/4SM -SN BR VV013 M04/M06 A2970 RMK AO2 P0001 T10391056 $,M
BVU,2023-03-30 04:35,-114.8611,35.9475,671.00,51.80,28.40,40.25,190.00,9.00,0.00,29.72,M,10.00,M,CLR,M,M,M,M,M,M,M,M,M,M,M,M,M,M,51.80,KBVU 300435Z AUTO 19009KT 10SM CLR 11/M02 A2972 RMK AO2,M
CXP,2023-03-30 04:35,-119.7326,39.1923,1431.00,32.00,30.20,92.97,0.00,0.00,0.00,29.77,M,1.00,M,BKN,OVC,M,M,300.00,2700.00,M,M,-SN BR,M,M,M,M,M,M,32.00,KCXP 300435Z AUTO 00000KT 1SM -SN BR BKN003 OVC027 00/M01 A2977 RMK AO2,M
RTS,2023-03-30 04:35,-119.8764,39.6682,1539.00,28.40,26.60,92.86,0.00,0.00,0.00,29.78,M,1.25,M,OVC,M,M,M,200.00,M,M,M,-SN,M,M,M,M,M,M,28.40,KRTS 300435Z AUTO 00000KT 1 1/4SM -SN OVC002 M02/M03 A2978 RMK AO2,M
05U,2023-03-30 04:35,-116.0051,39.6042,1811.23,15.80,14.00,92.44,0.00,0.00,0.00,29.73,M,10.00,M,BKN,M,M,M,12000.00,M,M,M,M,M,M,M,M,M,M,15.80,K05U 300435Z AUTO 00000KT 10SM BKN120 M09/M10 A2973 RMK A01,M
MEV,2023-03-30 04:35,-119.7500,38.9963,1441.42,32.00,30.20,92.97,360.00,8.00,0.00,29.75,M,9.00,M,FEW,SCT,BKN,M,600.00,3600.00,4400.00,M,-SN,M,M,M,M,M,M,24.11,KMEV 300435Z AUTO 36008KT 9SM -SN FEW006 SCT036 BKN044 M00/M01 A2975 RMK AO2,M
BAM,2023-03-30 04:35,-116.8743,40.5990,1382.36,32.00,28.40,86.39,140.00,4.00,0.00,29.74,M,10.00,M,CLR,M,M,M,M,M,M,M,M,M,M,M,M,M,M,27.42,KBAM 300435Z AUTO 14004KT 10SM CLR 00/M02 A2974 RMK AO1,M
HTH,2023-03-30 04:35,-118.6315,38.5448,1282.89,41.00,21.20,44.85,310.00,13.00,0.00,29.74,M,10.00,M,BKN,OVC,M,M,3700.00,4500.00,M,M,M,M,M,M,M,M,M,33.10,KHTH 300435Z AUTO 31013KT 10SM BKN037 OVC045 05/M06 A2974 RMK A01,M
TMT,2023-03-30 04:35,-117.1971,39.4643,1749.34,24.80,20.50,83.44,220.00,3.00,0.00,29.73,M,10.00,M,CLR,M,M,M,M,M,M,M,M,M,M,M,M,M,M,20.46,KTMT 300435Z AUTO 22003KT 10SM CLR M04/M06 A2973 RMK AO2 T10401064,M
RNO,2023-03-30 04:48,-119.7711,39.4839,1341.00,32.00,30.00,92.22,350.00,5.00,T,29.78,M,2.50,M,SCT,BKN,OVC,M,1200.00,3600.00,4500.00,M,-SN,M,M,M,M,M,M,26.40,KRNO 300448Z 35005KT 2 1/2SM -SN SCT012 BKN036 OVC045 00/M01 A2978 RMK AO2 SFC VIS 3 P0000 T00001011,M
ELY,2023-03-30 04:50,-114.8453,39.2950,1909.00,24.80,23.00,92.74,0.00,0.00,0.03,29.71,M,1.00,M,VV ,M,M,M,1300.00,M,M,M,-SN BR,M,M,M,M,M,M,24.80,KELY 300450Z AUTO 00000KT 1SM -SN BR VV013 M04/M05 A2971 RMK AO2 P0003 $,M
P68,2023-03-30 04:53,-116.0056,39.6014,1993.00,14.00,12.00,91.57,150.00,3.00,0.00,29.71,1008.10,M,M,M,M,M,M,M,M,M,M,M,M,M,M,M,M,M,8.11,KP68 300453Z AUTO 15003KT M10/M11 A2971 RMK AO1 SLP081 T11001111,M
DRA,2023-03-30 04:53,-116.0278,36.6206,1009.00,47.00,21.90,36.87,200.00,17.00,0.00,29.66,1002.80,10.00,33.00,CLR,M,M,M,M,M,M,M,M,M,M,M,33.00,220.00,2023-03-30 04:46,39.59,KDRA 300453Z AUTO 20017G33KT 10SM CLR 08/M06 A2966 RMK AO2 PK WND 22033/0446 SLP028 T00831056,M
ELY,2023-03-30 04:53,-114.8453,39.2950,1909.00,24.10,23.00,95.49,0.00,0.00,0.03,29.71,1006.00,1.25,M,OVC,M,M,M,1300.00,M,M,M,-SN BR,M,M,M,M,M,M,24.10,KELY 300453Z AUTO 00000KT 1 1/4SM -SN BR OVC013 M04/M05 A2971 RMK AO2 SLP060 P0003 T10441050 $,M
LOL,2023-03-30 04:53,-118.5701,40.0684,1192.43,34.00,27.00,75.26,300.00,7.00,0.00,29.73,1008.50,10.00,M,CLR,M,M,M,M,M,M,M,M,M,M,M,M,M,M,27.22,KLOL 300453Z AUTO 30007KT 10SM CLR 01/M03 A2973 RMK AO2 SLP085 T00111028,M
VGT,2023-03-30 04:53,-115.1933,36.2111,667.00,53.00,21.90,29.28,M,5.00,0.00,29.69,1006.20,10.00,M,CLR,M,M,M,M,M,M,M,M,M,M,M,M,M,M,53.10,KVGT 300453Z AUTO VRB05KT 10SM CLR 12/M06 A2969 RMK AO2 SLP062 T01171056,M
BVU,2023-03-30 04:55,-114.8611,35.9475,671.00,50.00,28.40,43.03,220.00,7.00,0.00,29.71,M,10.00,M,CLR,M,M,M,M,M,M,M,M,M,M,M,M,M,M,50.00,KBVU 300455Z AUTO 22007KT 10SM CLR 10/M02 A2971 RMK AO2,M
CXP,2023-03-30 04:55,-119.7326,39.1923,1431.00,32.00,30.20,92.97,190.00,4.00,0.00,29.78,M,1.25,M,BKN,BKN,OVC,M,300.00,1100.00,2400.00,M,-SN BR,M,M,M,M,M,M,27.42,KCXP 300455Z AUTO 19004KT 1 1/4SM -SN BR BKN003 BKN011 OVC024 00/M01 A2978 RMK AO2,M
RNO,2023-03-30 04:55,-119.7711,39.4839,1341.00,32.00,30.00,92.22,340.00,4.00,T,29.78,1008.50,3.00,M,SCT,BKN,OVC,M,1200.00,3600.00,4500.00,M,-SN,M,M,M,M,M,M,27.42,KRNO 300455Z 34004KT 3SM -SN SCT012 BKN036 OVC045 00/M01 A2978 RMK AO2 SLP085 P0000 T00001011,M
LSV,2023-03-30 04:55,-115.0343,36.2362,570.00,50.70,26.60,38.93,160.00,6.00,0.00,29.68,1004.30,10.00,M,CLR,M,M,M,M,M,M,M,M,M,M,M,M,M,M,50.70,KLSV 300455Z AUTO 16006KT 10SM CLR 10/M03 A2968 RMK AO2 SLP043 T01041030 $,M
RTS,2023-03-30 04:55,-119.8764,39.6682,1539.00,28.40,28.40,100.00,0.00,0.00,0.02,29.78,M,1.25,M,OVC,M,M,M,200.00,M,M,M,-SN,M,M,M,M,M,M,28.40,KRTS 300455Z AUTO 00000KT 1 1/4SM -SN OVC002 M02/M02 A2978 RMK AO2 P0002,M
05U,2023-03-30 04:55,-116.0051,39.6042,1811.23,14.00,12.20,92.38,10.00,3.00,0.00,29.73,M,10.00,M,SCT,M,M,M,12000.00,M,M,M,M,M,M,M,M,M,M,8.11,K05U 300455Z AUTO 01003KT 10SM SCT120 M10/M11 A2973 RMK A01,M
MEV,2023-03-30 04:55,-119.7500,38.9963,1441.42,32.00,30.20,92.97,360.00,9.00,0.00,29.76,M,10.00,M,FEW,OVC,M,M,2200.00,4000.00,M,M,M,M,M,M,M,M,M,23.51,KMEV 300455Z AUTO 36009KT 10SM FEW022 OVC040 M00/M01 A2976 RMK AO2,M
BAM,2023-03-30 04:55,-116.8743,40.5990,1382.36,32.00,28.40,86.39,140.00,3.00,0.00,29.74,M,10.00,M,CLR,M,M,M,M,M,M,M,M,M,M,M,M,M,M,28.69,KBAM 300455Z AUTO 14003KT 10SM CLR 00/M02 A2974 RMK AO1,M
HTH,2023-03-30 04:55,-118.6315,38.5448,1282.89,39.20,23.00,51.89,300.00,9.00,0.00,29.74,M,10.00,21.00,FEW,SCT,BKN,M,1900.00,2400.00,3200.00,M,M,M,M,M,M,M,M,32.47,KHTH 300455Z AUTO 30009G21KT 10SM FEW019 SCT024 BKN032 04/M05 A2974 RMK A01,M
TMT,2023-03-30 04:55,-117.1971,39.4643,1749.34,23.00,20.30,89.21,170.00,3.00,0.00,29.73,M,10.00,M,CLR,M,M,M,M,M,M,M,M,M,M,M,M,M,M,18.40,KTMT 300455Z AUTO 17003KT 10SM CLR M05/M06 A2973 RMK AO2 T10501065,M
INS,2023-03-30 04:55,-115.6733,36.5872,955.00,49.00,12.70,22.99,210.00,21.00,0.00,29.65,1002.00,10.00,M,CLR,M,M,M,M,M,M,M,M,M,M,M,26.00,220.00,2023-03-30 04:37,41.39,KINS 300455Z AUTO 21021KT 10SM CLR 09/M11 A2965 RMK AO2 PK WND 22026/37 SLP020 T00941107 $,M
EKO,2023-03-30 04:56,-115.7860,40.8242,1367.00,28.90,21.00,71.96,0.00,0.00,0.00,29.70,1007.30,10.00,M,CLR,M,M,M,M,M,M,M,M,M,M,M,M,M,M,28.90,KEKO 300456Z AUTO 00000KT 10SM CLR M02/M06 A2970 RMK AO2 SLP073 T10171061,M
WMC,2023-03-30 04:56,-117.8072,40.9019,1315.00,27.00,19.90,74.25,170.00,8.00,0.00,29.73,1008.40,10.00,M,CLR,M,M,M,M,M,M,M,M,M,M,M,M,M,M,17.95,KWMC 300456Z AUTO 17008KT 10SM CLR M03/M07 A2973 RMK AO2 SLP084 T10281067,M
NFL,2023-03-30 04:56,-118.7010,39.4166,1199.00,35.00,28.00,75.06,310.00,4.00,0.00,29.74,1005.10,10.00,M,SCT,BKN,OVC,M,3000.00,5000.00,10000.00,M,M,M,M,M,M,M,M,31.04,KNFL 300456Z 31004KT 10SM SCT030 BKN050 OVC100 02/M02 A2974 RMK AO2 SLP051 T00171022,M
TPH,2023-03-30 04:56,-117.0904,38.0505,1654.00,28.90,26.10,89.12,20.00,10.00,0.00,29.72,1006.90,10.00,M,BKN,M,M,M,10000.00,M,M,M,M,M,M,M,M,M,M,19.08,KTPH 300456Z AUTO 02010KT 10SM BKN100 M02/M03 A2972 RMK AO2 SLP069 T10171033,M
HND,2023-03-30 04:56,-115.1344,35.9729,742.79,49.00,30.90,49.63,190.00,10.00,0.00,29.72,1007.40,10.00,M,CLR,M,M,M,M,M,M,M,M,M,M,M,M,M,M,44.16,KHND 300456Z AUTO 19010KT 10SM CLR 09/M01 A2972 RMK AO2 SLP074 T00941006,M
LAS,2023-03-30 04:56,-115.1634,36.0719,663.00,51.00,27.00,38.99,200.00,9.00,0.00,29.69,1004.70,10.00,16.00,CLR,M,M,M,M,M,M,M,M,M,M,M,M,M,M,51.10,KLAS 300456Z 20009G16KT 10SM CLR 11/M03 A2969 RMK AO2 SLP047 T01061028,M
ELY,2023-03-30 05:05,-114.8453,39.2950,1909.00,24.10,23.00,95.49,170.00,3.00,T,29.71,M,1.25,M,OVC,M,M,M,1500.00,M,M,M,-SN BR,M,M,M,M,M,M,19.66,KELY 300505Z AUTO 17003KT 1 1/4SM -SN BR OVC015 M04/M05 A2971 RMK AO2 P0000 T10441050 $,M
BVU,2023-03-30 05:15,-114.8611,35.9475,671.00,50.00,28.40,43.03,220.00,7.00,0.00,29.71,M,10.00,M,CLR,M,M,M,M,M,M,M,M,M,M,M,M,M,M,50.00,KBVU 300515Z AUTO 22007KT 10SM CLR 10/M02 A2971 RMK AO2,M
CXP,2023-03-30 05:15,-119.7326,39.1923,1431.00,32.00,30.20,92.97,140.00,3.00,0.00,29.78,M,1.50,M,BKN,OVC,M,M,400.00,1300.00,M,M,-SN BR,M,M,M,M,M,M,28.69,KCXP 300515Z AUTO 14003KT 1 1/2SM -SN BR BKN004 OVC013 00/M01 A2978 RMK AO2 VIS 1V2,M
RTS,2023-03-30 05:15,-119.8764,39.6682,1539.00,28.40,28.40,100.00,0.00,0.00,0.00,29.78,M,2.50,M,BKN,BKN,OVC,M,200.00,2200.00,2900.00,M,-SN,M,M,M,M,M,M,28.40,KRTS 300515Z AUTO 00000KT 2 1/2SM -SN BKN002 BKN022 OVC029 M02/M02 A2978 RMK AO2,M
05U,2023-03-30 05:15,-116.0051,39.6042,1811.23,14.00,12.20,92.38,M,4.00,0.00,29.73,M,10.00,M,SCT,M,M,M,12000.00,M,M,M,M,M,M,M,M,M,M,6.40,K05U 300515Z AUTO VRB04KT 10SM SCT120 M10/M11 A2973 RMK A01,M
MEV,2023-03-30 05:15,-119.7500,38.9963,1441.42,32.00,30.20,92.97,10.00,8.00,0.00,29.76,M,10.00,M,BKN,BKN,OVC,M,4100.00,4800.00,6000.00,M,M,M,M,M,M,M,M,24.11,KMEV 300515Z AUTO 01008KT 10SM BKN041 BKN048 OVC060 M00/M01 A2976 RMK AO2,M
BAM,2023-03-30 05:15,-116.8743,40.5990,1382.36,32.00,28.40,86.39,110.00,4.00,0.00,29.74,M,10.00,M,CLR,M,M,M,M,M,M,M,M,M,M,M,M,M,M,27.42,KBAM 300515Z AUTO 11004KT 10SM CLR 00/M02 A2974 RMK AO1,M
HTH,2023-03-30 05:15,-118.6315,38.5448,1282.89,37.40,24.80,60.04,300.00,13.00,0.00,29.74,M,10.00,M,FEW,BKN,BKN,M,1800.00,2400.00,2900.00,M,M,M,M,M,M,M,M,28.49,KHTH 300515Z AUTO 30013KT 10SM FEW018 BKN024 BKN029 03/M04 A2974 RMK A01,M
TMT,2023-03-30 05:15,-117.1971,39.4643,1749.34,22.10,19.40,89.17,160.00,5.00,0.00,29.73,M,10.00,M,CLR,M,M,M,M,M,M,M,M,M,M,M,M,M,M,14.64,KTMT 300515Z AUTO 16005KT 10SM CLR M05/M07 A2973 RMK AO2 T10551070,M
RNO,2023-03-30 05:23,-119.7711,39.4839,1341.00,32.00,30.00,92.22,340.00,3.00,T,29.78,M,4.00,M,FEW,BKN,OVC,M,1000.00,3200.00,4000.00,M,-SN,M,M,M,M,M,M,28.69,KRNO 300523Z 34003KT 4SM -SN FEW010 BKN032 OVC040 00/M01 A2978 RMK AO2 P0000 T00001011,M
BVU,2023-03-30 05:35,-114.8611,35.9475,671.00,48.20,28.40,46.02,290.00,4.00,0.00,29.70,M,10.00,M,CLR,M,M,M,M,M,M,M,M,M,M,M,M,M,M,46.34,KBVU 300535Z AUTO 29004KT 10SM CLR 09/M02 A2970 RMK AO2,M
CXP,2023-03-30 05:35,-119.7326,39.1923,1431.00,32.00,30.20,92.97,0.00,0.00,0.00,29.78,M,0.75,M,OVC,M,M,M,300.00,M,M,M,-SN BR,M,M,M,M,M,M,32.00,KCXP 300535Z AUTO 00000KT 3/4SM -SN BR OVC003 M00/M01 A2978 RMK AO2,M
RTS,2023-03-30 05:35,-119.8764,39.6682,1539.00,28.40,28.40,100.00,0.00,0.00,0.00,29.78,M,3.00,M,BKN,BKN,M,M,2700.00,5500.00,M,M,-SN,M,M,M,M,M,M,28.40,KRTS 300535Z AUTO 00000KT 3SM -SN BKN027 BKN055 M02/M02 A2978 RMK AO2,M
05U,2023-03-30 05:35,-116.0051,39.6042,1811.23,14.00,10.40,85.28,M,M,0.00,29.73,M,10.00,M,SCT,M,M,M,12000.00,M,M,M,M,M,M,M,M,M,M,M,K05U 300535Z AUTO 10SM SCT120 M10/M12 A2973 RMK A01,M
MEV,2023-03-30 05:35,-119.7500,38.9963,1441.42,32.00,30.20,92.97,360.00,9.00,0.00,29.76,M,10.00,14.00,BKN,BKN,OVC,M,3900.00,4800.00,6000.00,M,M,M,M,M,M,M,M,23.51,KMEV 300535Z AUTO 36009G14KT 10SM BKN039 BKN048 OVC060 M00/M01 A2976 RMK AO2,M
BAM,2023-03-30 05:35,-116.8743,40.5990,1382.36,32.00,28.40,86.39,0.00,0.00,0.00,29.74,M,10.00,M,CLR,M,M,M,M,M,M,M,M,M,M,M,M,M,M,32.00,KBAM 300535Z AUTO 00000KT 10SM CLR 00/M02 A2974 RMK AO1,M
HTH,2023-03-30 05:35,-118.6315,38.5448,1282.89,37.40,24.80,60.04,300.00,10.00,0.00,29.75,M,10.00,M,FEW,FEW,OVC,M,1700.00,2400.00,7000.00,M,M,M,M,M,M,M,M,29.74,KHTH 300535Z AUTO 30010KT 10SM FEW017 FEW024 OVC070 03/M04 A2975 RMK A01,M
TMT,2023-03-30 05:35,-117.1971,39.4643,1749.34,21.20,19.00,91.05,170.00,4.00,0.00,29.73,M,10.00,M,CLR,M,M,M,M,M,M,M,M,M,M,M,M,M,M,14.81,KTMT 300535Z AUTO 17004KT 10SM CLR M06/M07 A2973 RMK AO2 T10601072,M
RNO,2023-03-30 05:43,-119.7711,39.4839,1341.00,33.00,30.00,88.23,330.00,4.00,T,29.78,M,4.00,M,FEW,BKN,M,M,1200.00,2700.00,M,M,-SN,M,M,M,M,M,M,28.70,KRNO 300543Z 33004KT 4SM -SN FEW012 BKN027 01/M01 A2978 RMK AO2 P0000 T00061011,M
ELY,2023-03-30 05:45,-114.8453,39.2950,1909.00,24.10,21.90,91.17,140.00,6.00,0.01,29.70,M,1.75,M,OVC,M,M,M,2100.00,M,M,M,-SN BR,M,M,M,M,M,M,16.02,KELY 300545Z AUTO 14006KT 1 3/4SM -SN BR OVC021 M04/M06 A2970 RMK AO2 P0001 T10441056 $,M
P68,2023-03-30 05:53,-116.0056,39.6014,1993.00,12.90,10.90,91.52,190.00,7.00,0.00,29.71,1008.50,M,M,M,M,M,M,M,M,M,M,M,M,M,M,M,M,M,1.50,KP68 300553Z AUTO 19007KT M11/M12 A2971 RMK AO1 SLP085 T11061117 11017 21106 51008,M
DRA,2023-03-30 05:53,-116.0278,36.6206,1009.00,46.00,21.90,38.15,230.00,16.00,0.00,29.66,1002.80,10.00,28.00,CLR,M,M,M,M,M,M,M,M,M,M,M,28.00,240.00,2023-03-30 05:53,38.67,KDRA 300553Z AUTO 23016G28KT 10SM CLR 08/M06 A2966 RMK AO2 PK WND 24028/0553 SLP028 T00781056 10117 20078 56006,M
ELY,2023-03-30 05:53,-114.8453,39.2950,1909.00,24.10,21.90,91.17,150.00,8.00,0.01,29.69,1005.90,2.00,M,OVC,M,M,M,2800.00,M,M,M,-SN BR,M,M,M,M,M,M,14.38,KELY 300553Z AUTO 15008KT 2SM -SN BR OVC028 M04/M06 A2969 RMK AO2 SLP059 P0001 60019 T10441056 11017 21044 50001 $,M
LOL,2023-03-30 05:53,-118.5701,40.0684,1192.43,33.00,26.10,75.18,0.00,0.00,0.00,29.74,1008.50,10.00,M,CLR,M,M,M,M,M,M,M,M,M,M,M,M,M,M,33.10,KLOL 300553Z AUTO 00000KT 10SM CLR 01/M03 A2974 RMK AO2 SLP085 T00061033 10061 21006 51007,M
VGT,2023-03-30 05:53,-115.1933,36.2111,667.00,51.00,23.00,33.01,150.00,14.00,0.00,29.67,1005.70,10.00,M,CLR,M,M,M,M,M,M,M,M,M,M,M,M,M,M,51.10,KVGT 300553Z AUTO 15014KT 10SM CLR 11/M05 A2967 RMK AO2 SLP057 60001 T01061050 10139 20106 50002,M
BVU,2023-03-30 05:55,-114.8611,35.9475,671.00,48.20,28.40,46.02,310.00,6.00,0.00,29.70,M,10.00,M,CLR,M,M,M,M,M,M,M,M,M,M,M,M,M,M,45.04,KBVU 300555Z AUTO 31006KT 10SM CLR 09/M02 A2970 RMK AO2,M
CXP,2023-03-30 05:55,-119.7326,39.1923,1431.00,32.00,30.20,92.97,0.00,0.00,0.04,29.78,M,0.50,M,OVC,M,M,M,300.00,M,M,M,-SN FZFG,M,M,M,M,M,M,32.00,KCXP 300555Z AUTO 00000KT 1/2SM -SN FZFG OVC003 M00/M01 A2978 RMK AO2 P0004,M
INS,2023-03-30 05:55,-115.6733,36.5872,955.00,47.70,8.60,20.04,120.00,13.00,0.00,29.66,1002.50,10.00,M,CLR,M,M,M,M,M,M,M,M,M,M,M,27.00,210.00,2023-03-30 04:55,41.68,KINS 300555Z AUTO 12013KT 10SM CLR 09/M13 A2966 RMK AO2 PK WND 21027/0455 SLP025 T00871130 10125 20077 58003 $,M
RTS,2023-03-30 05:55,-119.8764,39.6682,1539.00,28.40,28.40,100.00,0.00,0.00,0.01,29.78,M,3.00,M,SCT,BKN,BKN,M,2200.00,5000.00,7500.00,M,-SN,M,M,M,M,M,M,28.40,KRTS 300555Z AUTO 00000KT 3SM -SN SCT022 BKN050 BKN075 M02/M02 A2978 RMK AO2 P0001,M
05U,2023-03-30 05:55,-116.0051,39.6042,1811.23,14.00,12.20,92.38,190.00,7.00,0.00,29.73,M,10.00,M,FEW,M,M,M,12000.00,M,M,M,M,M,M,M,M,M,M,2.84,K05U 300555Z AUTO 19007KT 10SM FEW120 M10/M11 A2973 RMK A01,M
MEV,2023-03-30 05:55,-119.7500,38.9963,1441.42,32.00,30.20,92.97,360.00,9.00,0.00,29.76,M,10.00,M,OVC,M,M,M,3900.00,M,M,M,M,M,M,M,M,M,M,23.51,KMEV 300555Z AUTO 36009KT 10SM OVC039 M00/M01 A2976 RMK AO2,M
BAM,2023-03-30 05:55,-116.8743,40.5990,1382.36,30.20,28.40,92.92,0.00,0.00,0.00,29.75,M,10.00,M,CLR,M,M,M,M,M,M,M,M,M,M,M,M,M,M,30.20,KBAM 300555Z AUTO 00000KT 10SM CLR M01/M02 A2975 RMK AO1,M
HTH,2023-03-30 05:55,-118.6315,38.5448,1282.89,37.40,24.80,60.04,310.00,13.00,0.00,29.75,M,10.00,M,OVC,M,M,M,7000.00,M,M,M,M,M,M,M,M,M,M,28.49,KHTH 300555Z AUTO 31013KT 10SM OVC070 03/M04 A2975 RMK A01,M
TMT,2023-03-30 05:55,-117.1971,39.4643,1749.34,22.80,19.00,85.11,180.00,3.00,0.00,29.73,M,10.00,M,CLR,M,M,M,M,M,M,M,M,M,M,M,M,M,M,18.17,KTMT 300555Z AUTO 18003KT 10SM CLR M05/M07 A2973 RMK AO2 T10511072 10015 21060,M
LSV,2023-03-30 05:55,-115.0343,36.2362,570.00,50.50,28.20,41.89,190.00,10.00,0.00,29.66,1003.50,10.00,M,CLR,M,M,M,M,M,M,M,M,M,M,M,M,M,M,50.50,KLSV 300555Z AUTO 19010KT 10SM CLR 10/M02 A2966 RMK AO2 SLP035 60000 T01031021 10153 20100 58002 $,M
RNO,2023-03-30 05:55,-119.7711,39.4839,1341.00,33.00,30.00,88.23,340.00,4.00,T,29.78,1008.10,4.00,M,FEW,OVC,M,M,1100.00,2900.00,M,M,-SN,M,M,M,M,M,M,28.70,KRNO 300555Z 34004KT 4SM -SN FEW011 OVC029 01/M01 A2978 RMK AO2 SLP081 4/001 P0000 60004 T00061011 10033 20000 50009,1
EKO,2023-03-30 05:56,-115.7860,40.8242,1367.00,27.00,19.90,74.25,0.00,0.00,0.00,29.71,1008.10,10.00,M,CLR,M,M,M,M,M,M,M,M,M,M,M,M,M,M,27.00,KEKO 300556Z AUTO 00000KT 10SM CLR M03/M07 A2971 RMK AO2 SLP081 T10281067 10028 21033 53005,M
WMC,2023-03-30 05:56,-117.8072,40.9019,1315.00,24.10,17.10,74.27,0.00,0.00,0.00,29.73,1008.40,10.00,M,CLR,M,M,M,M,M,M,M,M,M,M,M,M,M,M,24.10,KWMC 300556Z AUTO 00000KT 10SM CLR M04/M08 A2973 RMK AO2 SLP084 T10441083 10039 21044 51007,M
NFL,2023-03-30 05:56,-118.7010,39.4166,1199.00,34.00,28.90,81.37,M,5.00,0.00,29.75,1005.30,10.00,M,FEW,FEW,M,M,10000.00,25000.00,M,M,M,M,M,M,M,M,M,28.77,KNFL 300556Z VRB05KT 10SM FEW100 FEW250 01/M02 A2975 RMK AO2 SLP053 T00111017 10078 20011 51010,M
HND,2023-03-30 05:56,-115.1344,35.9729,742.79,48.00,28.00,45.61,210.00,11.00,0.00,29.71,1006.80,10.00,M,CLR,M,M,M,M,M,M,M,M,M,M,M,M,M,M,42.69,KHND 300556Z AUTO 21011KT 10SM CLR 09/M02 A2971 RMK AO2 SLP068 60000 T00891022 10122 20089 58005,M
TPH,2023-03-30 05:56,-117.0904,38.0505,1654.00,27.00,25.00,92.05,10.00,7.00,0.00,29.71,1007.20,10.00,M,SCT,M,M,M,10000.00,M,M,M,M,M,M,M,M,M,M,18.68,KTPH 300556Z AUTO 01007KT 10SM SCT100 M03/M04 A2971 RMK AO2 SLP072 60001 T10281039 10011 21028 50004,M
LAS,2023-03-30 05:56,-115.1634,36.0719,663.00,51.00,24.10,34.57,230.00,6.00,0.00,29.69,1004.30,10.00,15.00,CLR,M,M,M,M,M,M,M,M,M,M,M,M,M,M,51.10,KLAS 300556Z 23006G15KT 10SM CLR 11/M04 A2969 RMK AO2 SLP043 60000 T01061044 10128 20106 56002,M
ELY,2023-03-30 06:05,-114.8453,39.2950,1909.00,23.00,21.00,91.90,170.00,8.00,T,29.69,M,6.00,M,BKN,OVC,M,M,2600.00,8000.00,M,M,-SN BR,M,M,M,M,M,M,13.03,KELY 300605Z AUTO 17008KT 6SM -SN BR BKN026 OVC080 M05/M06 A2969 RMK AO2 P0000 T10501061 $,M
RNO,2023-03-30 06:11,-119.7711,39.4839,1341.00,33.00,28.90,84.36,330.00,4.00,T,29.78,M,9.00,M,SCT,BKN,BKN,M,1000.00,2300.00,4300.00,M,M,M,M,M,M,M,M,28.70,KRNO 300611Z 33004KT 9SM SCT010 BKN023 BKN043 01/M02 A2978 RMK AO2 SNE11 P0000 T00061017,M
ELY,2023-03-30 06:13,-114.8453,39.2950,1909.00,23.00,21.00,91.90,230.00,8.00,T,29.70,M,9.00,M,SCT,SCT,OVC,M,3600.00,6500.00,8000.00,M,M,M,M,M,M,M,M,13.03,KELY 300613Z AUTO 23008KT 9SM SCT036 SCT065 OVC080 M05/M06 A2970 RMK AO2 SNE08 P0000 T10501061 $,M
BVU,2023-03-30 06:15,-114.8611,35.9475,671.00,46.40,30.20,53.00,290.00,6.00,0.00,29.70,M,10.00,M,CLR,M,M,M,M,M,M,M,M,M,M,M,M,M,M,42.87,KBVU 300615Z AUTO 29006KT 10SM CLR 08/M01 A2970 RMK AO2,M
CXP,2023-03-30 06:15,-119.7326,39.1923,1431.00,30.20,30.20,100.00,340.00,4.00,0.00,29.78,M,0.50,M,OVC,M,M,M,300.00,M,M,M,-SN BR,M,M,M,M,M,M,25.32,KCXP 300615Z AUTO 34004KT 1/2SM -SN BR OVC003 M01/M01 A2978 RMK AO2,M
RTS,2023-03-30 06:15,-119.8764,39.6682,1539.00,28.40,28.40,100.00,0.00,0.00,0.00,29.77,M,1.75,M,BKN,BKN,OVC,M,2200.00,3400.00,4800.00,M,-SN,M,M,M,M,M,M,28.40,KRTS 300615Z AUTO 00000KT 1 3/4SM -SN BKN022 BKN034 OVC048 M02/M02 A2977 RMK AO2 VIS 1V5,M
05U,2023-03-30 06:15,-116.0051,39.6042,1811.23,14.00,12.20,92.38,M,6.00,0.00,29.73,M,10.00,M,FEW,M,M,M,12000.00,M,M,M,M,M,M,M,M,M,M,3.85,K05U 300615Z AUTO VRB06KT 10SM FEW120 M10/M11 A2973 RMK A01,M
MEV,2023-03-30 06:15,-119.7500,38.9963,1441.42,32.00,30.20,92.97,360.00,8.00,0.00,29.76,M,10.00,M,OVC,M,M,M,4100.00,M,M,M,M,M,M,M,M,M,M,24.11,KMEV 300615Z AUTO 36008KT 10SM OVC041 M00/M01 A2976 RMK AO2,M
BAM,2023-03-30 06:15,-116.8743,40.5990,1382.36,30.20,28.40,92.92,0.00,0.00,0.00,29.75,M,10.00,M,CLR,M,M,M,M,M,M,M,M,M,M,M,M,M,M,30.20,KBAM 300615Z AUTO 00000KT 10SM CLR M01/M02 A2975 RMK AO1,M
HTH,2023-03-30 06:15,-118.6315,38.5448,1282.89,37.40,24.80,60.04,330.00,11.00,0.00,29.74,M,10.00,M,BKN,OVC,M,M,6000.00,7000.00,M,M,M,M,M,M,M,M,M,29.29,KHTH 300615Z AUTO 33011KT 10SM BKN060 OVC070 03/M04 A2974 RMK A01,M
TMT,2023-03-30 06:15,-117.1971,39.4643,1749.34,20.80,18.50,90.65,140.00,3.00,0.00,29.73,M,10.00,M,CLR,M,M,M,M,M,M,M,M,M,M,M,M,M,M,15.88,KTMT 300615Z AUTO 14003KT 10SM CLR M06/M07 A2973 RMK AO2 T10621075,M
BVU,2023-03-30 06:35,-114.8611,35.9475,671.00,48.20,30.20,49.53,230.00,6.00,0.00,29.70,M,10.00,12.00,CLR,M,M,M,M,M,M,M,M,M,M,M,M,M,M,45.04,KBVU 300635Z AUTO 23006G12KT 10SM CLR 09/M01 A2970 RMK AO2,M
CXP,2023-03-30 06:35,-119.7326,39.1923,1431.00,30.20,30.20,100.00,320.00,5.00,0.00,29.78,M,1.00,M,OVC,M,M,M,300.00,M,M,M,-SN BR,M,M,M,M,M,M,24.26,KCXP 300635Z AUTO 32005KT 1SM -SN BR OVC003 M01/M01 A2978 RMK AO2,M
RTS,2023-03-30 06:35,-119.8764,39.6682,1539.00,26.60,26.60,100.00,0.00,0.00,0.00,29.77,M,1.75,M,SCT,BKN,OVC,M,300.00,4900.00,10000.00,M,-SN,M,M,M,M,M,M,26.60,KRTS 300635Z AUTO 00000KT 1 3/4SM -SN SCT003 BKN049 OVC100 M03/M03 A2977 RMK AO2,M
05U,2023-03-30 06:35,-116.0051,39.6042,1811.23,12.20,10.40,92.32,M,5.00,0.00,29.74,M,10.00,M,CLR,M,M,M,M,M,M,M,M,M,M,M,M,M,M,2.88,K05U 300635Z AUTO VRB05KT 10SM CLR M11/M12 A2974 RMK A01,M
MEV,2023-03-30 06:35,-119.7500,38.9963,1441.42,32.00,28.40,86.39,10.00,9.00,0.00,29.76,M,10.00,M,BKN,OVC,M,M,3200.00,4500.00,M,M,M,M,M,M,M,M,M,23.51,KMEV 300635Z AUTO 01009KT 10SM BKN032 OVC045 M00/M02 A2976 RMK AO2,M
BAM,2023-03-30 06:35,-116.8743,40.5990,1382.36,30.20,26.60,86.28,150.00,4.00,0.00,29.75,M,10.00,M,CLR,M,M,M,M,M,M,M,M,M,M,M,M,M,M,25.32,KBAM 300635Z AUTO 15004KT 10SM CLR M01/M03 A2975 RMK AO1,M
HTH,2023-03-30 06:35,-118.6315,38.5448,1282.89,37.40,24.80,60.04,330.00,10.00,0.00,29.75,M,10.00,M,OVC,M,M,M,6000.00,M,M,M,M,M,M,M,M,M,M,29.74,KHTH 300635Z AUTO 33010KT 10SM OVC060 03/M04 A2975 RMK A01,M
TMT,2023-03-30 06:35,-117.1971,39.4643,1749.34,20.30,18.00,90.63,0.00,0.00,0.00,29.73,M,10.00,M,CLR,M,M,M,M,M,M,M,M,M,M,M,M,M,M,20.30,KTMT 300635Z AUTO 00000KT 10SM CLR M06/M08 A2973 RMK AO2 T10651078,M
P68,2023-03-30 06:53,-116.0056,39.6014,1993.00,10.00,7.00,87.37,170.00,3.00,0.00,29.72,1009.40,M,M,M,M,M,M,M,M,M,M,M,M,M,M,M,M,M,3.54,KP68 300653Z AUTO 17003KT M12/M14 A2972 RMK AO1 SLP094 T11221139,M
DRA,2023-03-30 06:53,-116.0278,36.6206,1009.00,46.00,21.00,36.72,200.00,20.00,0.00,29.64,1002.20,10.00,33.00,CLR,M,M,M,M,M,M,M,M,M,M,M,34.00,200.00,2023-03-30 06:42,37.73,KDRA 300653Z AUTO 20020G33KT 10SM CLR 08/M06 A2964 RMK AO2 PK WND 20034/0642 SLP022 T00781061,M
ELY,2023-03-30 06:53,-114.8453,39.2950,1909.00,21.90,19.90,91.86,310.00,8.00,T,29.69,1005.70,9.00,M,BKN,OVC,M,M,4900.00,7000.00,M,M,M,M,M,M,M,M,M,11.67,KELY 300653Z AUTO 31008KT 9SM BKN049 OVC070 M06/M07 A2969 RMK AO2 SNE08B39E50 SLP057 P0000 T10561067 $,M
VGT,2023-03-30 06:53,-115.1933,36.2111,667.00,52.00,21.90,30.49,190.00,13.00,0.00,29.66,1005.20,10.00,M,CLR,M,M,M,M,M,M,M,M,M,M,M,M,M,M,52.00,KVGT 300653Z AUTO 19013KT 10SM CLR 11/M06 A2966 RMK AO2 SLP052 T01111056,M
LOL,2023-03-30 06:53,-118.5701,40.0684,1192.43,30.00,25.00,81.40,0.00,0.00,0.00,29.74,1008.50,10.00,M,CLR,M,M,M,M,M,M,M,M,M,M,M,M,M,M,30.00,KLOL 300653Z AUTO 00000KT 10SM CLR M01/M04 A2974 RMK AO2 SLP085 T10111039,M
BVU,2023-03-30 06:55,-114.8611,35.9475,671.00,48.20,30.20,49.53,230.00,7.00,0.00,29.70,M,10.00,M,CLR,M,M,M,M,M,M,M,M,M,M,M,M,M,M,44.53,KBVU 300655Z AUTO 23007KT 10SM CLR 09/M01 A2970 RMK AO2,M
CXP,2023-03-30 06:55,-119.7326,39.1923,1431.00,32.00,28.40,86.39,330.00,6.00,0.02,29.78,M,1.50,M,BKN,OVC,M,M,300.00,5500.00,M,M,-SN BR,M,M,M,M,M,M,25.53,KCXP 300655Z AUTO 33006KT 1 1/2SM -SN BR BKN003 OVC055 M00/M02 A2978 RMK AO2 P0002,M
INS,2023-03-30 06:55,-115.6733,36.5872,955.00,43.70,15.10,31.10,60.00,4.00,0.00,29.67,1002.90,10.00,M,CLR,M,M,M,M,M,M,M,M,M,M,M,M,M,M,41.08,KINS 300655Z AUTO 06004KT 10SM CLR 07/M09 A2967 RMK AO2 SLP029 T00651094 $,M
RNO,2023-03-30 06:55,-119.7711,39.4839,1341.00,32.00,30.00,92.22,0.00,0.00,T,29.78,1008.20,10.00,M,SCT,SCT,BKN,M,1000.00,4000.00,20000.00,M,M,M,M,M,M,M,M,32.00,KRNO 300655Z 00000KT 10SM SCT010 SCT040 BKN200 00/M01 A2978 RMK AO2 SNE11 SLP082 P0000 T00001011,M
LSV,2023-03-30 06:55,-115.0343,36.2362,570.00,49.50,26.80,41.04,200.00,11.00,0.00,29.65,1003.10,10.00,M,FEW,M,M,M,20000.00,M,M,M,M,M,M,M,M,M,M,44.58,KLSV 300655Z AUTO 20011KT 10SM FEW200 10/M03 A2965 RMK AO2 SLP031 T00971029 $,M
RTS,2023-03-30 06:55,-119.8764,39.6682,1539.00,21.20,19.40,92.63,340.00,5.00,0.00,29.77,M,0.25,M,BKN,BKN,OVC,M,100.00,5000.00,10000.00,M,-SN,M,M,M,M,M,M,13.57,KRTS 300655Z AUTO 34005KT M1/4SM -SN BKN001 BKN050 OVC100 M06/M07 A2977 RMK AO2,M
05U,2023-03-30 06:55,-116.0051,39.6042,1811.23,10.40,6.80,85.05,0.00,0.00,0.00,29.74,M,10.00,M,CLR,M,M,M,M,M,M,M,M,M,M,M,M,M,M,10.40,K05U 300655Z AUTO 00000KT 10SM CLR M12/M14 A2974 RMK A01,M
MEV,2023-03-30 06:55,-119.7500,38.9963,1441.42,32.00,28.40,86.39,10.00,10.00,0.00,29.76,M,8.00,16.00,FEW,BKN,OVC,M,2400.00,3100.00,3900.00,M,UP,M,M,M,M,M,M,22.97,KMEV 300655Z AUTO 01010G16KT 8SM UP FEW024 BKN031 OVC039 M00/M02 A2976 RMK AO2,M
BAM,2023-03-30 06:55,-116.8743,40.5990,1382.36,30.20,24.80,80.07,150.00,5.00,0.00,29.75,M,10.00,M,CLR,M,M,M,M,M,M,M,M,M,M,M,M,M,M,24.26,KBAM 300655Z AUTO 15005KT 10SM CLR M01/M04 A2975 RMK AO1,M
HTH,2023-03-30 06:55,-118.6315,38.5448,1282.89,37.40,24.80,60.04,340.00,9.00,0.00,29.75,M,10.00,M,OVC,M,M,M,6000.00,M,M,M,M,M,M,M,M,M,M,30.23,KHTH 300655Z AUTO 34009KT 10SM OVC060 03/M04 A2975 RMK A01,M
TMT,2023-03-30 06:55,-117.1971,39.4643,1749.34,19.40,17.60,92.57,0.00,0.00,0.00,29.73,M,10.00,M,CLR,M,M,M,M,M,M,M,M,M,M,M,M,M,M,19.40,KTMT 300655Z AUTO 00000KT 10SM CLR M07/M08 A2973 RMK AO2 T10701080,M
EKO,2023-03-30 06:56,-115.7860,40.8242,1367.00,26.10,21.00,80.75,0.00,0.00,0.00,29.72,1008.10,10.00,M,CLR,M,M,M,M,M,M,M,M,M,M,M,M,M,M,26.10,KEKO 300656Z AUTO 00000KT 10SM CLR M03/M06 A2972 RMK AO2 SLP081 T10331061,M
WMC,2023-03-30 06:56,-117.8072,40.9019,1315.00,23.00,18.00,80.85,170.00,5.00,0.00,29.74,1008.50,10.00,M,OVC,M,M,M,7000.00,M,M,M,M,M,M,M,M,M,M,15.71,KWMC 300656Z AUTO 17005KT 10SM OVC070 M05/M08 A2974 RMK AO2 SLP085 T10501078,M
NFL,2023-03-30 06:56,-118.7010,39.4166,1199.00,32.00,28.00,84.98,220.00,5.00,0.00,29.74,1005.20,10.00,M,CLR,M,M,M,M,M,M,M,M,M,M,M,M,M,M,26.40,KNFL 300656Z AUTO 22005KT 10SM CLR 00/M02 A2974 RMK AO2 SLP052 T00001022,M
HND,2023-03-30 06:56,-115.1344,35.9729,742.79,48.00,26.10,42.17,220.00,12.00,0.00,29.71,1006.80,10.00,M,CLR,M,M,M,M,M,M,M,M,M,M,M,M,M,M,42.37,KHND 300656Z AUTO 22012KT 10SM CLR 09/M03 A2971 RMK AO2 SLP068 T00891033 402060083,M
TPH,2023-03-30 06:56,-117.0904,38.0505,1654.00,27.00,24.10,88.65,10.00,8.00,0.00,29.71,1006.90,10.00,M,SCT,OVC,M,M,8000.00,10000.00,M,M,M,M,M,M,M,M,M,17.95,KTPH 300656Z AUTO 01008KT 10SM SCT080 OVC100 M03/M04 A2971 RMK AO2 SLP069 T10281044,M
LAS,2023-03-30 06:56,-115.1634,36.0719,663.00,50.00,21.00,31.60,200.00,7.00,0.00,29.67,1003.80,10.00,M,FEW,M,M,M,20000.00,M,M,M,M,M,M,M,M,M,M,50.00,KLAS 300656Z 20007KT 10SM FEW200 10/M06 A2967 RMK AO2 SLP038 T01001061,M
BVU,2023-03-30 07:15,-114.8611,35.9475,671.00,48.20,28.40,46.02,230.00,5.00,0.00,29.71,M,10.00,M,CLR,M,M,M,M,M,M,M,M,M,M,M,M,M,M,45.63,KBVU 300715Z AUTO 23005KT 10SM CLR 09/M02 A2971 RMK AO2,M
CXP,2023-03-30 07:15,-119.7326,39.1923,1431.00,32.00,28.40,86.39,320.00,5.00,0.00,29.78,M,9.00,M,FEW,BKN,OVC,M,3200.00,5500.00,6500.00,M,UP,M,M,M,M,M,M,26.40,KCXP 300715Z AUTO 32005KT 9SM UP FEW032 BKN055 OVC065 M00/M02 A2978 RMK AO2,M
RTS,2023-03-30 07:15,-119.8764,39.6682,1539.00,21.20,21.20,100.00,350.00,4.00,0.00,29.77,M,0.25,M,OVC,M,M,M,100.00,M,M,M,-SN,M,M,M,M,M,M,14.81,KRTS 300715Z AUTO 35004KT M1/4SM -SN OVC001 M06/M06 A2977 RMK AO2,M
05U,2023-03-30 07:15,-116.0051,39.6042,1811.23,10.40,6.80,85.05,M,4.00,0.00,29.74,M,10.00,M,FEW,M,M,M,12000.00,M,M,M,M,M,M,M,M,M,M,2.20,K05U 300715Z AUTO VRB04KT 10SM FEW120 M12/M14 A2974 RMK A01,M
MEV,2023-03-30 07:15,-119.7500,38.9963,1441.42,32.00,28.40,86.39,40.00,5.00,0.00,29.77,M,2.50,10.00,FEW,SCT,BKN,M,300.00,1100.00,1900.00,M,-SN BR,M,M,M,M,M,M,26.40,KMEV 300715Z AUTO 04005G10KT 2 1/2SM -SN BR FEW003 SCT011 BKN019 M00/M02 A2977 RMK AO2,M
BAM,2023-03-30 07:15,-116.8743,40.5990,1382.36,30.20,24.80,80.07,150.00,4.00,0.00,29.76,M,10.00,M,CLR,M,M,M,M,M,M,M,M,M,M,M,M,M,M,25.32,KBAM 300715Z AUTO 15004KT 10SM CLR M01/M04 A2976 RMK AO1,M
HTH,2023-03-30 07:15,-118.6315,38.5448,1282.89,37.40,24.80,60.04,340.00,9.00,0.00,29.76,M,10.00,M,OVC,M,M,M,6000.00,M,M,M,M,M,M,M,M,M,M,30.23,KHTH 300715Z AUTO 34009KT 10SM OVC060 03/M04 A2976 RMK A01,M
TMT,2023-03-30 07:15,-117.1971,39.4643,1749.34,19.80,16.70,87.53,0.00,0.00,0.00,29.74,M,10.00,M,CLR,M,M,M,M,M,M,M,M,M,M,M,M,M,M,19.80,KTMT 300715Z AUTO 00000KT 10SM CLR M07/M08 A2974 RMK AO2 T10681085,M
RNO,2023-03-30 07:28,-119.7711,39.4839,1341.00,32.00,28.90,88.17,0.00,0.00,0.00,29.77,M,10.00,M,FEW,BKN,M,M,600.00,20000.00,M,M,M,M,M,M,M,M,M,32.00,KRNO 300728Z 00000KT 10SM FEW006 BKN200 00/M02 A2977 RMK AO2 T00001017,M
BVU,2023-03-30 07:35,-114.8611,35.9475,671.00,48.20,24.80,39.66,240.00,13.00,0.00,29.71,M,10.00,M,CLR,M,M,M,M,M,M,M,M,M,M,M,M,M,M,42.32,KBVU 300735Z AUTO 24013KT 10SM CLR 09/M04 A2971 RMK AO2,M
CXP,2023-03-30 07:35,-119.7326,39.1923,1431.00,32.00,26.60,80.22,320.00,7.00,0.00,29.78,M,10.00,M,FEW,FEW,OVC,M,3200.00,5500.00,7000.00,M,M,M,M,M,M,M,M,24.78,KCXP 300735Z AUTO 32007KT 10SM FEW032 FEW055 OVC070 M00/M03 A2978 RMK AO2,M
RTS,2023-03-30 07:35,-119.8764,39.6682,1539.00,23.00,21.20,92.69,360.00,6.00,0.00,29.77,M,0.75,M,VV ,M,M,M,500.00,M,M,M,-SN,M,M,M,M,M,M,14.69,KRTS 300735Z AUTO 36006KT 3/4SM -SN VV005 M05/M06 A2977 RMK AO2,M
05U,2023-03-30 07:35,-116.0051,39.6042,1811.23,8.60,6.80,92.19,M,6.00,0.00,29.74,M,10.00,M,CLR,M,M,M,M,M,M,M,M,M,M,M,M,M,M,-2.65,K05U 300735Z AUTO VRB06KT 10SM CLR M13/M14 A2974 RMK A01,M
MEV,2023-03-30 07:35,-119.7500,38.9963,1441.42,30.20,30.20,100.00,0.00,0.00,0.00,29.77,M,1.50,M,BKN,BKN,OVC,M,300.00,700.00,1200.00,M,-SN BR,M,M,M,M,M,M,30.20,KMEV 300735Z AUTO 00000KT 1 1/2SM -SN BR BKN003 BKN007 OVC012 M01/M01 A2977 RMK AO2,M
BAM,2023-03-30 07:35,-116.8743,40.5990,1382.36,30.20,24.80,80.07,140.00,4.00,0.00,29.76,M,10.00,M,CLR,M,M,M,M,M,M,M,M,M,M,M,M,M,M,25.32,KBAM 300735Z AUTO 14004KT 10SM CLR M01/M04 A2976 RMK AO1,M
HTH,2023-03-30 07:35,-118.6315,38.5448,1282.89,37.40,24.80,60.04,330.00,9.00,0.00,29.76,M,10.00,M,FEW,OVC,M,M,5500.00,6500.00,M,M,M,M,M,M,M,M,M,30.23,KHTH 300735Z AUTO 33009KT 10SM FEW055 OVC065 03/M04 A2976 RMK A01,M
TMT,2023-03-30 07:35,-117.1971,39.4643,1749.34,18.30,16.30,91.73,200.00,3.00,0.00,29.74,M,10.00,M,CLR,M,M,M,M,M,M,M,M,M,M,M,M,M,M,13.03,KTMT 300735Z AUTO 20003KT 10SM CLR M08/M09 A2974 RMK AO2 T10761087,M
P68,2023-03-30 07:53,-116.0056,39.6014,1993.00,9.00,7.00,91.37,190.00,7.00,0.00,29.72,1009.50,M,M,M,M,M,M,M,M,M,M,M,M,M,M,M,M,M,-3.26,KP68 300753Z AUTO 19007KT M13/M14 A2972 RMK AO1 SLP095 T11281139 400561133,M
DRA,2023-03-30 07:53,-116.0278,36.6206,1009.00,45.00,21.90,39.62,180.00,16.00,0.00,29.68,1003.40,10.00,30.00,CLR,M,M,M,M,M,M,M,M,M,M,M,36.00,190.00,2023-03-30 07:09,37.36,KDRA 300753Z AUTO 18016G30KT 10SM CLR 07/M06 A2968 RMK AO2 PK WND 19036/0709 SLP034 T00721056 401330072,M
ELY,2023-03-30 07:53,-114.8453,39.2950,1909.00,16.00,14.00,91.64,190.00,5.00,0.00,29.69,1006.80,10.00,M,CLR,M,M,M,M,M,M,M,M,M,M,M,M,M,M,7.39,KELY 300753Z AUTO 19005KT 10SM CLR M09/M10 A2969 RMK AO2 SLP068 T10891100 400441089 $,M
VGT,2023-03-30 07:53,-115.1933,36.2111,667.00,51.00,21.90,31.52,200.00,12.00,0.00,29.67,1005.50,10.00,M,CLR,M,M,M,M,M,M,M,M,M,M,M,M,M,M,51.10,KVGT 300753Z AUTO 20012KT 10SM CLR 11/M06 A2967 RMK AO2 SLP055 T01061056 401940100,M
LOL,2023-03-30 07:53,-118.5701,40.0684,1192.43,30.00,26.10,85.21,0.00,0.00,0.00,29.75,1008.40,10.00,M,CLR,M,M,M,M,M,M,M,M,M,M,M,M,M,M,30.00,KLOL 300753Z AUTO 00000KT 10SM CLR M01/M03 A2975 RMK AO2 SLP084 T10111033 400721028,M
BVU,2023-03-30 07:55,-114.8611,35.9475,671.00,48.20,24.80,39.66,250.00,13.00,0.00,29.71,M,10.00,M,CLR,M,M,M,M,M,M,M,M,M,M,M,M,M,M,42.32,KBVU 300755Z AUTO 25013KT 10SM CLR 09/M04 A2971 RMK AO2,M
CXP,2023-03-30 07:55,-119.7326,39.1923,1431.00,30.20,26.60,86.28,0.00,0.00,0.00,29.78,M,10.00,M,OVC,M,M,M,7000.00,M,M,M,M,M,M,M,M,M,M,30.20,KCXP 300755Z AUTO 00000KT 10SM OVC070 M01/M03 A2978 RMK AO2,M
INS,2023-03-30 07:55,-115.6733,36.5872,955.00,39.60,15.40,36.91,80.00,8.00,0.00,29.68,1003.70,10.00,M,FEW,M,M,M,18000.00,M,M,M,M,M,M,M,M,M,M,33.48,KINS 300755Z AUTO 08008KT 10SM FEW180 04/M09 A2968 RMK AO2 SLP037 T00421092 401450042 $,M
RNO,2023-03-30 07:55,-119.7711,39.4839,1341.00,32.00,30.00,92.22,0.00,0.00,0.00,29.77,1007.90,10.00,M,BKN,BKN,M,M,600.00,20000.00,M,M,M,M,M,M,M,M,M,32.00,KRNO 300755Z 00000KT 10SM BKN006 BKN200 00/M01 A2977 RMK AO2 SLP079 T00001011 400721017,M
LSV,2023-03-30 07:55,-115.0343,36.2362,570.00,49.80,23.90,35.98,190.00,16.00,0.00,29.65,1003.10,10.00,M,CLR,M,M,M,M,M,M,M,M,M,M,M,M,M,M,43.62,KLSV 300755Z AUTO 19016KT 10SM CLR 10/M04 A2965 RMK AO2 SLP031 T00991045 402140094 $,M
RTS,2023-03-30 07:55,-119.8764,39.6682,1539.00,21.20,21.20,100.00,360.00,5.00,0.00,29.77,M,10.00,M,CLR,M,M,M,M,M,M,M,M,M,M,M,M,M,M,13.57,KRTS 300755Z AUTO 36005KT 10SM CLR M06/M06 A2977 RMK AO2,M
05U,2023-03-30 07:55,-116.0051,39.6042,1811.23,10.40,6.80,85.05,M,6.00,0.00,29.74,M,10.00,M,CLR,M,M,M,M,M,M,M,M,M,M,M,M,M,M,-0.48,K05U 300755Z AUTO VRB06KT 10SM CLR M12/M14 A2974 RMK A01,M
MEV,2023-03-30 07:55,-119.7500,38.9963,1441.42,30.20,30.20,100.00,80.00,4.00,0.00,29.77,M,1.00,M,OVC,M,M,M,300.00,M,M,M,-SN BR,M,M,M,M,M,M,25.32,KMEV 300755Z AUTO 08004KT 1SM -SN BR OVC003 M01/M01 A2977 RMK AO2,M
BAM,2023-03-30 07:55,-116.8743,40.5990,1382.36,30.20,23.00,74.26,130.00,6.00,0.00,29.75,M,10.00,M,CLR,M,M,M,M,M,M,M,M,M,M,M,M,M,M,23.36,KBAM 300755Z AUTO 13006KT 10SM CLR M01/M05 A2975 RMK AO1,M
HTH,2023-03-30 07:55,-118.6315,38.5448,1282.89,37.40,24.80,60.04,340.00,8.00,0.00,29.76,M,10.00,M,BKN,OVC,M,M,5000.00,7000.00,M,M,M,M,M,M,M,M,M,30.76,KHTH 300755Z AUTO 34008KT 10SM BKN050 OVC070 03/M04 A2976 RMK A01,M
TMT,2023-03-30 07:55,-117.1971,39.4643,1749.34,19.40,17.10,90.59,90.00,3.00,0.00,29.74,M,10.00,M,CLR,M,M,M,M,M,M,M,M,M,M,M,M,M,M,14.28,KTMT 300755Z AUTO 09003KT 10SM CLR M07/M08 A2974 RMK AO2 T10701083 400551076,M
EKO,2023-03-30 07:56,-115.7860,40.8242,1367.00,24.10,21.00,87.76,0.00,0.00,0.00,29.73,1008.40,10.00,M,CLR,M,M,M,M,M,M,M,M,M,M,M,M,M,M,24.10,KEKO 300756Z AUTO 00000KT 10SM CLR M04/M06 A2973 RMK AO2 SLP084 T10441061 400721044,M
WMC,2023-03-30 07:56,-117.8072,40.9019,1315.00,21.00,17.10,84.62,160.00,7.00,0.00,29.75,1008.80,10.00,M,BKN,M,M,M,6500.00,M,M,M,M,M,M,M,M,M,M,11.37,KWMC 300756Z AUTO 16007KT 10SM BKN065 M06/M08 A2975 RMK AO2 SLP088 T10611083 400441061,M
NFL,2023-03-30 07:56,-118.7010,39.4166,1199.00,30.90,28.00,88.84,210.00,3.00,0.00,29.75,1005.40,10.00,M,CLR,M,M,M,M,M,M,M,M,M,M,M,M,M,M,27.43,KNFL 300756Z AUTO 21003KT 10SM CLR M01/M02 A2975 RMK AO2 SLP054 T10061022 400831011,M
TPH,2023-03-30 07:56,-117.0904,38.0505,1654.00,25.00,21.90,87.81,20.00,11.00,0.00,29.72,1007.80,10.00,M,FEW,OVC,M,M,8000.00,10000.00,M,M,M,M,M,M,M,M,M,13.62,KTPH 300756Z AUTO 02011KT 10SM FEW080 OVC100 M04/M06 A2972 RMK AO2 SLP078 T10391056 400671039,M
LAS,2023-03-30 07:56,-115.1634,36.0719,663.00,48.00,23.00,37.06,220.00,8.00,0.00,29.69,1004.60,10.00,17.00,SCT,M,M,M,20000.00,M,M,M,M,M,M,M,M,M,M,43.82,KLAS 300756Z 22008G17KT 10SM SCT200 09/M05 A2969 RMK AO2 SLP046 T00891050 401890089,M
05U,2023-03-30 08:10,-116.0051,39.6042,1811.23,10.40,6.80,85.05,M,5.00,0.00,29.75,M,10.00,M,CLR,M,M,M,M,M,M,M,M,M,M,M,M,M,M,0.74,K05U 300810Z AUTO VRB05KT 10SM CLR M12/M14 A2975 RMK A01,M
BVU,2023-03-30 08:15,-114.8611,35.9475,671.00,48.20,23.00,36.78,240.00,14.00,0.00,29.71,M,10.00,20.00,CLR,M,M,M,M,M,M,M,M,M,M,M,M,M,M,42.04,KBVU 300815Z AUTO 24014G20KT 10SM CLR 09/M05 A2971 RMK AO2,M
CXP,2023-03-30 08:15,-119.7326,39.1923,1431.00,30.20,28.40,92.92,0.00,0.00,0.00,29.78,M,10.00,M,OVC,M,M,M,7500.00,M,M,M,M,M,M,M,M,M,M,30.20,KCXP 300815Z AUTO 00000KT 10SM OVC075 M01/M02 A2978 RMK AO2,M
RTS,2023-03-30 08:15,-119.8764,39.6682,1539.00,21.20,19.40,92.63,0.00,0.00,0.00,29.78,M,10.00,M,CLR,M,M,M,M,M,M,M,M,M,M,M,M,M,M,21.20,KRTS 300815Z AUTO 00000KT 10SM CLR M06/M07 A2978 RMK AO2,M
MEV,2023-03-30 08:15,-119.7500,38.9963,1441.42,30.20,30.20,100.00,0.00,0.00,0.00,29.77,M,0.50,M,OVC,M,M,M,300.00,M,M,M,-SN BR,M,M,M,M,M,M,30.20,KMEV 300815Z AUTO 00000KT 1/2SM -SN BR OVC003 M01/M01 A2977 RMK AO2,M
BAM,2023-03-30 08:15,-116.8743,40.5990,1382.36,28.40,24.80,86.18,80.00,4.00,0.00,29.76,M,10.00,M,CLR,M,M,M,M,M,M,M,M,M,M,M,M,M,M,23.22,KBAM 300815Z AUTO 08004KT 10SM CLR M02/M04 A2976 RMK AO1,M
HTH,2023-03-30 08:15,-118.6315,38.5448,1282.89,37.40,24.80,60.04,330.00,7.00,0.00,29.76,M,10.00,M,SCT,BKN,OVC,M,5000.00,5500.00,7000.00,M,M,M,M,M,M,M,M,31.36,KHTH 300815Z AUTO 33007KT 10SM SCT050 BKN055 OVC070 03/M04 A2976 RMK A01,M
TMT,2023-03-30 08:15,-117.1971,39.4643,1749.34,17.40,14.90,89.72,0.00,0.00,0.00,29.74,M,10.00,M,CLR,M,M,M,M,M,M,M,M,M,M,M,M,M,M,17.40,KTMT 300815Z AUTO 00000KT 10SM CLR M08/M09 A2974 RMK AO2 T10811095,M
BVU,2023-03-30 08:35,-114.8611,35.9475,671.00,46.40,24.80,42.44,220.00,11.00,0.00,29.71,M,10.00,17.00,CLR,M,M,M,M,M,M,M,M,M,M,M,M,M,M,40.66,KBVU 300835Z AUTO 22011G17KT 10SM CLR 08/M04 A2971 RMK AO2,M
CXP,2023-03-30 08:35,-119.7326,39.1923,1431.00,28.40,26.60,92.86,0.00,0.00,0.00,29.78,M,10.00,M,OVC,M,M,M,7000.00,M,M,M,M,M,M,M,M,M,M,28.40,KCXP 300835Z AUTO 00000KT 10SM OVC070 M02/M03 A2978 RMK AO2,M
RTS,2023-03-30 08:35,-119.8764,39.6682,1539.00,21.20,19.40,92.63,20.00,7.00,0.00,29.78,M,10.00,M,CLR,M,M,M,M,M,M,M,M,M,M,M,M,M,M,11.61,KRTS 300835Z AUTO 02007KT 10SM CLR M06/M07 A2978 RMK AO2,M
05U,2023-03-30 08:35,-116.0051,39.6042,1811.23,8.60,5.00,84.93,M,5.00,0.00,29.74,M,10.00,M,CLR,M,M,M,M,M,M,M,M,M,M,M,M,M,M,-1.39,K05U 300835Z AUTO VRB05KT 10SM CLR M13/M15 A2974 RMK A01,M
MEV,2023-03-30 08:35,-119.7500,38.9963,1441.42,30.20,30.20,100.00,0.00,0.00,0.00,29.77,M,1.25,M,BKN,OVC,M,M,300.00,1200.00,M,M,-SN BR,M,M,M,M,M,M,30.20,KMEV 300835Z AUTO 00000KT 1 1/4SM -SN BR BKN003 OVC012 M01/M01 A2977 RMK AO2,M
BAM,2023-03-30 08:35,-116.8743,40.5990,1382.36,28.40,24.80,86.18,60.00,3.00,0.00,29.76,M,10.00,M,CLR,M,M,M,M,M,M,M,M,M,M,M,M,M,M,24.57,KBAM 300835Z AUTO 06003KT 10SM CLR M02/M04 A2976 RMK AO1,M
HTH,2023-03-30 08:35,-118.6315,38.5448,1282.89,37.40,24.80,60.04,340.00,6.00,0.00,29.76,M,10.00,M,FEW,BKN,OVC,M,4900.00,5500.00,6500.00,M,M,M,M,M,M,M,M,32.03,KHTH 300835Z AUTO 34006KT 10SM FEW049 BKN055 OVC065 03/M04 A2976 RMK A01,M
TMT,2023-03-30 08:35,-117.1971,39.4643,1749.34,18.50,15.80,88.99,0.00,0.00,0.00,29.74,M,10.00,M,CLR,M,M,M,M,M,M,M,M,M,M,M,M,M,M,18.50,KTMT 300835Z AUTO 00000KT 10SM CLR M07/M09 A2974 RMK AO2 T10751090,M
P68,2023-03-30 08:53,-116.0056,39.6014,1993.00,7.00,5.00,91.29,190.00,5.00,0.00,29.72,1009.70,M,M,M,M,M,M,M,M,M,M,M,M,M,M,M,M,M,-3.29,KP68 300853Z AUTO 19005KT M14/M15 A2972 RMK AO1 SLP097 T11391150 50002,M
DRA,2023-03-30 08:53,-116.0278,36.6206,1009.00,44.00,23.00,42.95,250.00,7.00,0.00,29.69,1003.70,10.00,M,CLR,M,M,M,M,M,M,M,M,M,M,M,M,M,M,39.53,KDRA 300853Z AUTO 25007KT 170V300 10SM CLR 07/M05 A2969 RMK AO2 SLP037 T00671050 53008,M
ELY,2023-03-30 08:53,-114.8453,39.2950,1909.00,10.90,9.00,91.86,160.00,6.00,0.00,29.68,1007.10,10.00,M,CLR,M,M,M,M,M,M,M,M,T,T,M,M,M,M,0.12,KELY 300853Z AUTO 16006KT 10SM CLR M12/M13 A2968 RMK AO2 SLP071 60000 I1000 I3000 T11171128 58003 $,M
VGT,2023-03-30 08:53,-115.1933,36.2111,667.00,50.00,23.00,34.39,200.00,9.00,0.00,29.66,1005.50,10.00,M,CLR,M,M,M,M,M,M,M,M,M,M,M,M,M,M,50.00,KVGT 300853Z AUTO 20009KT 10SM CLR 10/M05 A2966 RMK AO2 SLP055 T01001050 56004,M
LOL,2023-03-30 08:53,-118.5701,40.0684,1192.43,25.00,23.00,91.97,100.00,5.00,0.00,29.76,1009.10,10.00,M,CLR,M,M,M,M,M,M,M,M,M,M,M,M,M,M,18.08,KLOL 300853Z AUTO 10005KT 10SM CLR M04/M05 A2976 RMK AO2 SLP091 T10391050 53007,M
BVU,2023-03-30 08:55,-114.8611,35.9475,671.00,44.60,24.80,45.44,240.00,7.00,0.00,29.70,M,10.00,M,CLR,M,M,M,M,M,M,M,M,M,M,M,M,M,M,40.14,KBVU 300855Z AUTO 24007KT 10SM CLR 07/M04 A2970 RMK AO2,M
CXP,2023-03-30 08:55,-119.7326,39.1923,1431.00,28.40,26.60,92.86,0.00,0.00,0.00,29.78,M,10.00,M,OVC,M,M,M,7000.00,M,M,M,M,M,M,M,M,M,M,28.40,KCXP 300855Z AUTO 00000KT 10SM OVC070 M02/M03 A2978 RMK AO2,M
INS,2023-03-30 08:55,-115.6733,36.5872,955.00,38.00,19.60,46.91,360.00,3.00,0.00,29.69,1004.20,10.00,M,CLR,M,M,M,M,M,M,M,M,M,M,M,M,M,M,35.66,KINS 300855Z AUTO 36003KT 10SM CLR 03/M07 A2969 RMK AO2 SLP042 T00341069 53009 $,M
RNO,2023-03-30 08:55,-119.7711,39.4839,1341.00,30.90,28.00,88.84,350.00,8.00,0.00,29.78,1008.20,10.00,M,BKN,OVC,M,M,1100.00,20000.00,M,M,M,M,M,M,M,M,M,22.76,KRNO 300855Z 35008KT 10SM BKN011 OVC200 M01/M02 A2978 RMK AO2 SLP082 60000 T10061022 53000,M
LSV,2023-03-30 08:55,-115.0343,36.2362,570.00,48.70,23.00,36.10,190.00,8.00,0.00,29.66,1003.50,10.00,M,CLR,M,M,M,M,M,M,M,M,M,M,M,M,M,M,44.68,KLSV 300855Z AUTO 19008KT 10SM CLR 09/M05 A2966 RMK AO2 SLP035 T00931050 55001 $,M
RTS,2023-03-30 08:55,-119.8764,39.6682,1539.00,23.00,21.20,92.69,350.00,6.00,0.00,29.78,M,10.00,M,CLR,M,M,M,M,M,M,M,M,M,M,M,M,M,M,14.69,KRTS 300855Z AUTO 35006KT 10SM CLR M05/M06 A2978 RMK AO2,M
05U,2023-03-30 08:55,-116.0051,39.6042,1811.23,6.80,3.20,84.80,M,5.00,0.00,29.74,M,10.00,M,CLR,M,M,M,M,M,M,M,M,M,M,M,M,M,M,-3.53,K05U 300855Z AUTO VRB05KT 10SM CLR M14/M16 A2974 RMK A01,M
MEV,2023-03-30 08:55,-119.7500,38.9963,1441.42,30.20,30.20,100.00,0.00,0.00,0.01,29.77,M,2.50,M,OVC,M,M,M,1300.00,M,M,M,-SN BR,M,M,M,M,M,M,30.20,KMEV 300855Z AUTO 00000KT 2 1/2SM -SN BR OVC013 M01/M01 A2977 RMK AO2 P0001,M
BAM,2023-03-30 08:55,-116.8743,40.5990,1382.36,28.40,24.80,86.18,90.00,3.00,0.00,29.76,M,10.00,M,CLR,M,M,M,M,M,M,M,M,M,M,M,M,M,M,24.57,KBAM 300855Z AUTO 09003KT 10SM CLR M02/M04 A2976 RMK AO1,M
HTH,2023-03-30 08:55,-118.6315,38.5448,1282.89,35.60,24.80,64.46,360.00,5.00,0.00,29.76,M,10.00,M,OVC,M,M,M,5000.00,M,M,M,M,M,M,M,M,M,M,30.67,KHTH 300855Z AUTO 36005KT 10SM OVC050 02/M04 A2976 RMK A01,M
TMT,2023-03-30 08:55,-117.1971,39.4643,1749.34,18.30,16.30,91.73,0.00,0.00,0.00,29.74,M,10.00,M,CLR,M,M,M,M,M,M,M,M,M,M,M,M,M,M,18.30,KTMT 300855Z AUTO 00000KT 10SM CLR M08/M09 A2974 RMK AO2 T10761087,M
EKO,2023-03-30 08:56,-115.7860,40.8242,1367.00,25.00,21.00,84.53,0.00,0.00,0.00,29.72,1008.10,10.00,M,OVC,M,M,M,7500.00,M,M,M,M,M,M,M,M,M,M,25.00,KEKO 300856Z AUTO 00000KT 10SM OVC075 M04/M06 A2972 RMK AO2 SLP081 T10391061 50003,M
WMC,2023-03-30 08:56,-117.8072,40.9019,1315.00,21.00,16.00,80.69,0.00,0.00,0.00,29.75,1009.00,10.00,M,SCT,M,M,M,6000.00,M,M,M,M,M,M,M,M,M,M,21.00,KWMC 300856Z AUTO 00000KT 10SM SCT060 M06/M09 A2975 RMK AO2 SLP090 T10611089 51005,M
NFL,2023-03-30 08:56,-118.7010,39.4166,1199.00,30.00,27.00,88.44,0.00,0.00,0.00,29.76,1005.60,10.00,M,CLR,M,M,M,M,M,M,M,M,M,M,M,M,M,M,30.00,KNFL 300856Z AUTO 00000KT 10SM CLR M01/M03 A2976 RMK AO2 SLP056 T10111028 53003,M
TPH,2023-03-30 08:56,-117.0904,38.0505,1654.00,24.10,19.90,83.75,360.00,11.00,0.00,29.72,1007.70,10.00,M,CLR,M,M,M,M,M,M,M,M,M,M,M,M,M,M,12.48,KTPH 300856Z AUTO 36011KT 10SM CLR M04/M07 A2972 RMK AO2 SLP077 T10441067 52002,M
LAS,2023-03-30 08:56,-115.1634,36.0719,663.00,48.00,23.00,37.06,200.00,9.00,0.00,29.68,1004.30,10.00,M,BKN,M,M,M,19000.00,M,M,M,M,M,M,M,M,M,M,43.41,KLAS 300856Z 20009KT 10SM BKN190 09/M05 A2968 RMK AO2 SLP043 T00891050 56003,M
BVU,2023-03-30 09:15,-114.8611,35.9475,671.00,46.40,24.80,42.44,230.00,14.00,0.00,29.70,M,10.00,M,CLR,M,M,M,M,M,M,M,M,M,M,M,M,M,M,39.72,KBVU 300915Z AUTO 23014KT 10SM CLR 08/M04 A2970 RMK AO2,M
CXP,2023-03-30 09:15,-119.7326,39.1923,1431.00,26.60,24.80,92.80,0.00,0.00,0.00,29.77,M,10.00,M,BKN,OVC,M,M,7500.00,8500.00,M,M,M,M,M,M,M,M,M,26.60,KCXP 300915Z AUTO 00000KT 10SM BKN075 OVC085 M03/M04 A2977 RMK AO2,M
RTS,2023-03-30 09:15,-119.8764,39.6682,1539.00,21.20,19.40,92.63,0.00,0.00,0.00,29.78,M,10.00,M,CLR,M,M,M,M,M,M,M,M,M,M,M,M,M,M,21.20,KRTS 300915Z AUTO 00000KT 10SM CLR M06/M07 A2978 RMK AO2,M
05U,2023-03-30 09:15,-116.0051,39.6042,1811.23,5.00,1.40,84.68,M,4.00,0.00,29.73,M,10.00,M,CLR,M,M,M,M,M,M,M,M,M,M,M,M,M,M,-4.11,K05U 300915Z AUTO VRB04KT 10SM CLR M15/M17 A2973 RMK A01,M
MEV,2023-03-30 09:15,-119.7500,38.9963,1441.42,30.20,30.20,100.00,210.00,4.00,0.00,29.76,M,7.00,M,BKN,OVC,M,M,1500.00,1900.00,M,M,-SN,M,M,M,M,M,M,25.32,KMEV 300915Z AUTO 21004KT 7SM -SN BKN015 OVC019 M01/M01 A2976 RMK AO2,M
BAM,2023-03-30 09:15,-116.8743,40.5990,1382.36,26.60,23.00,86.07,0.00,0.00,0.00,29.75,M,10.00,M,SCT,M,M,M,6500.00,M,M,M,M,M,M,M,M,M,M,26.60,KBAM 300915Z AUTO 00000KT 10SM SCT065 M03/M05 A2975 RMK AO1,M
HTH,2023-03-30 09:15,-118.6315,38.5448,1282.89,35.60,24.80,64.46,350.00,6.00,0.00,29.75,M,10.00,M,OVC,M,M,M,6000.00,M,M,M,M,M,M,M,M,M,M,29.87,KHTH 300915Z AUTO 35006KT 10SM OVC060 02/M04 A2975 RMK A01,M
TMT,2023-03-30 09:15,-117.1971,39.4643,1749.34,18.50,16.20,90.55,140.00,4.00,0.00,29.74,M,10.00,M,CLR,M,M,M,M,M,M,M,M,M,M,M,M,M,M,11.66,KTMT 300915Z AUTO 14004KT 10SM CLR M07/M09 A2974 RMK AO2 T10751088,M
BVU,2023-03-30 09:35,-114.8611,35.9475,671.00,44.60,24.80,45.44,210.00,9.00,0.00,29.70,M,10.00,15.00,CLR,M,M,M,M,M,M,M,M,M,M,M,M,M,M,39.18,KBVU 300935Z AUTO 21009G15KT 10SM CLR 07/M04 A2970 RMK AO2,M
CXP,2023-03-30 09:35,-119.7326,39.1923,1431.00,26.60,26.60,100.00,0.00,0.00,0.00,29.77,M,10.00,M,OVC,M,M,M,8000.00,M,M,M,M,M,M,M,M,M,M,26.60,KCXP 300935Z AUTO 00000KT 10SM OVC080 M03/M03 A2977 RMK AO2,M
RTS,2023-03-30 09:35,-119.8764,39.6682,1539.00,21.20,19.40,92.63,0.00,0.00,0.00,29.78,M,10.00,M,CLR,M,M,M,M,M,M,M,M,M,M,M,M,M,M,21.20,KRTS 300935Z AUTO 00000KT 10SM CLR M06/M07 A2978 RMK AO2,M
05U,2023-03-30 09:35,-116.0051,39.6042,1811.23,3.20,-2.20,77.67,M,4.00,0.00,29.73,M,10.00,M,CLR,M,M,M,M,M,M,M,M,M,M,M,M,M,M,-6.21,K05U 300935Z AUTO VRB04KT 10SM CLR M16/M19 A2973 RMK A01,M
MEV,2023-03-30 09:35,-119.7500,38.9963,1441.42,30.20,28.40,92.92,210.00,4.00,0.00,29.76,M,9.00,M,SCT,BKN,OVC,M,1600.00,6000.00,7000.00,M,UP,M,M,M,M,M,M,25.32,KMEV 300935Z AUTO 21004KT 9SM UP SCT016 BKN060 OVC070 M01/M02 A2976 RMK AO2,M
BAM,2023-03-30 09:35,-116.8743,40.5990,1382.36,26.60,23.00,86.07,0.00,0.00,0.00,29.75,M,10.00,M,SCT,M,M,M,6500.00,M,M,M,M,M,M,M,M,M,M,26.60,KBAM 300935Z AUTO 00000KT 10SM SCT065 M03/M05 A2975 RMK AO1,M
HTH,2023-03-30 09:35,-118.6315,38.5448,1282.89,35.60,26.60,69.46,270.00,5.00,0.00,29.75,M,10.00,M,OVC,M,M,M,5500.00,M,M,M,M,M,M,M,M,M,M,30.67,KHTH 300935Z AUTO 27005KT 10SM OVC055 02/M03 A2975 RMK A01,M
TMT,2023-03-30 09:35,-117.1971,39.4643,1749.34,18.30,16.30,91.73,160.00,3.00,0.00,29.74,M,10.00,M,CLR,M,M,M,M,M,M,M,M,M,M,M,M,M,M,13.03,KTMT 300935Z AUTO 16003KT 10SM CLR M08/M09 A2974 RMK AO2 T10761087,M
P68,2023-03-30 09:53,-116.0056,39.6014,1993.00,5.00,1.90,86.68,200.00,7.00,0.00,29.70,1009.20,M,M,M,M,M,M,M,M,M,M,M,M,M,M,M,M,M,-8.13,KP68 300953Z AUTO 20007KT M15/M17 A2970 RMK AO1 SLP092 T11501167,M
DRA,2023-03-30 09:53,-116.0278,36.6206,1009.00,43.00,23.00,44.80,250.00,7.00,0.00,29.68,1003.70,10.00,M,CLR,M,M,M,M,M,M,M,M,M,M,M,M,M,M,38.19,KDRA 300953Z AUTO 25007KT 10SM CLR 06/M05 A2968 RMK AO2 SLP037 T00611050,M
VGT,2023-03-30 09:53,-115.1933,36.2111,667.00,48.00,23.00,37.06,0.00,0.00,0.00,29.66,1005.70,10.00,M,CLR,M,M,M,M,M,M,M,M,M,M,M,M,M,M,48.00,KVGT 300953Z AUTO 00000KT 10SM CLR 09/M05 A2966 RMK AO2 SLP057 T00891050,M
LOL,2023-03-30 09:53,-118.5701,40.0684,1192.43,26.10,24.10,92.01,320.00,6.00,0.00,29.75,1008.60,10.00,M,CLR,M,M,M,M,M,M,M,M,M,M,M,M,M,M,18.42,KLOL 300953Z AUTO 32006KT 10SM CLR M03/M04 A2975 RMK AO2 SLP086 T10331044,M
ELY,2023-03-30 09:53,-114.8453,39.2950,1909.00,8.10,6.00,91.34,200.00,7.00,0.00,29.68,1008.80,10.00,M,CLR,M,M,M,M,M,M,M,M,T,M,M,M,M,M,-4.35,KELY 300953Z AUTO 20007KT 10SM CLR M13/M14 A2968 RMK AO2 SLP088 I1000 T11331144 $,M
BVU,2023-03-30 09:55,-114.8611,35.9475,671.00,44.60,26.60,48.96,220.00,11.00,0.00,29.70,M,10.00,17.00,CLR,M,M,M,M,M,M,M,M,M,M,M,M,M,M,38.39,KBVU 300955Z AUTO 22011G17KT 10SM CLR 07/M03 A2970 RMK AO2,M
CXP,2023-03-30 09:55,-119.7326,39.1923,1431.00,28.40,26.60,92.86,0.00,0.00,0.00,29.77,M,10.00,M,BKN,OVC,M,M,8000.00,10000.00,M,M,M,M,M,M,M,M,M,28.40,KCXP 300955Z AUTO 00000KT 10SM BKN080 OVC100 M02/M03 A2977 RMK AO2,M
INS,2023-03-30 09:55,-115.6733,36.5872,955.00,40.80,21.20,45.19,0.00,0.00,0.00,29.69,1004.00,10.00,M,BKN,M,M,M,17000.00,M,M,M,M,M,M,M,M,M,M,40.80,KINS 300955Z AUTO 00000KT 10SM BKN170 05/M06 A2969 RMK AO2 SLP040 T00491060 $,M
RNO,2023-03-30 09:55,-119.7711,39.4839,1341.00,30.00,28.00,92.15,340.00,4.00,0.00,29.78,1008.40,10.00,M,BKN,OVC,M,M,500.00,1300.00,M,M,M,M,M,M,M,M,M,25.08,KRNO 300955Z 34004KT 10SM BKN005 OVC013 M01/M02 A2978 RMK AO2 SLP084 T10111022,M
LSV,2023-03-30 09:55,-115.0343,36.2362,570.00,46.00,24.10,42.00,0.00,0.00,0.00,29.66,1003.60,10.00,M,CLR,M,M,M,M,M,M,M,M,M,M,M,M,M,M,45.90,KLSV 300955Z AUTO 00000KT 10SM CLR 08/M04 A2966 RMK AO2 SLP036 T00771044 $,M
RTS,2023-03-30 09:55,-119.8764,39.6682,1539.00,17.60,15.80,92.50,10.00,5.00,0.00,29.78,M,10.00,M,CLR,M,M,M,M,M,M,M,M,M,M,M,M,M,M,9.29,KRTS 300955Z AUTO 01005KT 10SM CLR M08/M09 A2978 RMK AO2,M
05U,2023-03-30 09:55,-116.0051,39.6042,1811.23,5.00,1.40,84.68,250.00,7.00,0.00,29.73,M,10.00,M,CLR,M,M,M,M,M,M,M,M,M,M,M,M,M,M,-8.13,K05U 300955Z AUTO 25007KT 200V360 10SM CLR M15/M17 A2973 RMK A01,M
MEV,2023-03-30 09:55,-119.7500,38.9963,1441.42,30.20,28.40,92.92,0.00,0.00,0.00,29.76,M,10.00,M,OVC,M,M,M,7000.00,M,M,M,M,M,M,M,M,M,M,30.20,KMEV 300955Z AUTO 00000KT 10SM OVC070 M01/M02 A2976 RMK AO2,M
BAM,2023-03-30 09:55,-116.8743,40.5990,1382.36,26.60,23.00,86.07,0.00,0.00,0.00,29.75,M,10.00,M,CLR,M,M,M,M,M,M,M,M,M,M,M,M,M,M,26.60,KBAM 300955Z AUTO 00000KT 10SM CLR M03/M05 A2975 RMK AO1,M
HTH,2023-03-30 09:55,-118.6315,38.5448,1282.89,33.80,26.60,74.63,260.00,4.00,0.00,29.75,M,10.00,M,BKN,M,M,M,5500.00,M,M,M,M,M,M,M,M,M,M,29.52,KHTH 300955Z AUTO 26004KT 10SM BKN055 01/M03 A2975 RMK A01,M
TMT,2023-03-30 09:55,-117.1971,39.4643,1749.34,19.00,16.50,89.79,0.00,0.00,0.00,29.74,M,10.00,M,CLR,M,M,M,M,M,M,M,M,M,M,M,M,M,M,19.00,KTMT 300955Z AUTO 00000KT 10SM CLR M07/M09 A2974 RMK AO2 T10721086,M
EKO,2023-03-30 09:56,-115.7860,40.8242,1367.00,24.10,19.00,80.59,0.00,0.00,0.00,29.71,1007.60,10.00,M,CLR,M,M,M,M,M,M,M,M,M,M,M,M,M,M,24.10,KEKO 300956Z AUTO 00000KT 10SM CLR M04/M07 A2971 RMK AO2 SLP076 T10441072,M
WMC,2023-03-30 09:56,-117.8072,40.9019,1315.00,19.90,16.00,84.55,140.00,6.00,0.00,29.75,1009.00,10.00,M,CLR,M,M,M,M,M,M,M,M,M,M,M,M,M,M,10.96,KWMC 300956Z AUTO 14006KT 10SM CLR M07/M09 A2975 RMK AO2 SLP090 T10671089,M
NFL,2023-03-30 09:56,-118.7010,39.4166,1199.00,30.00,26.10,85.21,0.00,0.00,0.00,29.75,1005.50,10.00,M,CLR,M,M,M,M,M,M,M,M,M,M,M,M,M,M,30.00,KNFL 300956Z AUTO 00000KT 10SM CLR M01/M03 A2975 RMK AO2 SLP055 T10111033,M
TPH,2023-03-30 09:56,-117.0904,38.0505,1654.00,21.00,17.10,84.62,360.00,11.00,0.00,29.71,1007.90,10.00,M,CLR,M,M,M,M,M,M,M,M,M,M,M,M,M,M,8.57,KTPH 300956Z AUTO 36011KT 10SM CLR M06/M08 A2971 RMK AO2 SLP079 T10611083,M
LAS,2023-03-30 09:56,-115.1634,36.0719,663.00,47.00,25.00,41.99,200.00,13.00,0.00,29.66,1003.80,10.00,18.00,BKN,M,M,M,19000.00,M,M,M,M,M,M,M,M,M,M,40.66,KLAS 300956Z 20013G18KT 10SM BKN190 08/M04 A2966 RMK AO2 SLP038 T00831039,M
BVU,2023-03-30 10:15,-114.8611,35.9475,671.00,46.40,26.60,45.73,230.00,14.00,0.00,29.70,M,10.00,21.00,CLR,M,M,M,M,M,M,M,M,M,M,M,M,M,M,39.72,KBVU 301015Z AUTO 23014G21KT 10SM CLR 08/M03 A2970 RMK AO2,M
CXP,2023-03-30 10:15,-119.7326,39.1923,1431.00,28.40,26.60,92.86,310.00,5.00,0.00,29.78,M,10.00,M,BKN,OVC,M,M,8000.00,10000.00,M,M,M,M,M,M,M,M,M,22.12,KCXP 301015Z AUTO 31005KT 10SM BKN080 OVC100 M02/M03 A2978 RMK AO2,M
RTS,2023-03-30 10:15,-119.8764,39.6682,1539.00,21.20,19.40,92.63,0.00,0.00,0.00,29.78,M,10.00,M,CLR,M,M,M,M,M,M,M,M,M,M,M,M,M,M,21.20,KRTS 301015Z AUTO 00000KT 10SM CLR M06/M07 A2978 RMK AO2,M
05U,2023-03-30 10:15,-116.0051,39.6042,1811.23,6.80,3.20,84.80,130.00,7.00,0.00,29.72,M,10.00,M,CLR,M,M,M,M,M,M,M,M,M,M,M,M,M,M,-5.94,K05U 301015Z AUTO 13007KT 060V190 10SM CLR M14/M16 A2972 RMK A01,M
MEV,2023-03-30 10:15,-119.7500,38.9963,1441.42,28.40,28.40,100.00,0.00,0.00,0.00,29.76,M,10.00,M,OVC,M,M,M,7000.00,M,M,M,M,M,M,M,M,M,M,28.40,KMEV 301015Z AUTO 00000KT 10SM OVC070 M02/M02 A2976 RMK AO2,M
BAM,2023-03-30 10:15,-116.8743,40.5990,1382.36,26.60,24.80,92.80,0.00,0.00,0.00,29.75,M,10.00,M,CLR,M,M,M,M,M,M,M,M,M,M,M,M,M,M,26.60,KBAM 301015Z AUTO 00000KT 10SM CLR M03/M04 A2975 RMK AO1,M
HTH,2023-03-30 10:15,-118.6315,38.5448,1282.89,33.80,26.60,74.63,280.00,4.00,0.00,29.75,M,10.00,M,FEW,M,M,M,5000.00,M,M,M,M,M,M,M,M,M,M,29.52,KHTH 301015Z AUTO 28004KT 10SM FEW050 01/M03 A2975 RMK A01,M
TMT,2023-03-30 10:15,-117.1971,39.4643,1749.34,18.50,16.20,90.55,0.00,0.00,0.00,29.74,M,10.00,M,CLR,M,M,M,M,M,M,M,M,M,M,M,M,M,M,18.50,KTMT 301015Z AUTO 00000KT 10SM CLR M07/M09 A2974 RMK AO2 T10751088,M
BVU,2023-03-30 10:35,-114.8611,35.9475,671.00,44.60,26.60,48.96,220.00,13.00,0.00,29.70,M,10.00,M,CLR,M,M,M,M,M,M,M,M,M,M,M,M,M,M,37.71,KBVU 301035Z AUTO 22013KT 10SM CLR 07/M03 A2970 RMK AO2,M
CXP,2023-03-30 10:35,-119.7326,39.1923,1431.00,30.20,26.60,86.28,290.00,4.00,0.00,29.77,M,10.00,M,OVC,M,M,M,8500.00,M,M,M,M,M,M,M,M,M,M,25.32,KCXP 301035Z AUTO 29004KT 10SM OVC085 M01/M03 A2977 RMK AO2,M
RTS,2023-03-30 10:35,-119.8764,39.6682,1539.00,17.60,15.80,92.50,360.00,5.00,0.00,29.79,M,10.00,M,CLR,M,M,M,M,M,M,M,M,M,M,M,M,M,M,9.29,KRTS 301035Z AUTO 36005KT 10SM CLR M08/M09 A2979 RMK AO2,M
05U,2023-03-30 10:35,-116.0051,39.6042,1811.23,6.80,3.20,84.80,M,6.00,0.00,29.72,M,10.00,M,CLR,M,M,M,M,M,M,M,M,M,M,M,M,M,M,-4.82,K05U 301035Z AUTO VRB06KT 10SM CLR M14/M16 A2972 RMK A01,M
MEV,2023-03-30 10:35,-119.7500,38.9963,1441.42,28.40,28.40,100.00,80.00,4.00,0.00,29.76,M,10.00,M,BKN,OVC,M,M,500.00,7000.00,M,M,M,M,M,M,M,M,M,23.22,KMEV 301035Z AUTO 08004KT 10SM BKN005 OVC070 M02/M02 A2976 RMK AO2,M
BAM,2023-03-30 10:35,-116.8743,40.5990,1382.36,24.80,23.00,92.74,80.00,5.00,0.00,29.75,M,10.00,M,CLR,M,M,M,M,M,M,M,M,M,M,M,M,M,M,17.84,KBAM 301035Z AUTO 08005KT 10SM CLR M04/M05 A2975 RMK AO1,M
HTH,2023-03-30 10:35,-118.6315,38.5448,1282.89,33.80,26.60,74.63,300.00,6.00,0.00,29.75,M,10.00,M,CLR,M,M,M,M,M,M,M,M,M,M,M,M,M,M,27.70,KHTH 301035Z AUTO 30006KT 10SM CLR 01/M03 A2975 RMK A01,M
TMT,2023-03-30 10:35,-117.1971,39.4643,1749.34,19.00,15.80,87.11,0.00,0.00,0.00,29.73,M,10.00,M,CLR,M,M,M,M,M,M,M,M,M,M,M,M,M,M,19.00,KTMT 301035Z AUTO 00000KT 10SM CLR M07/M09 A2973 RMK AO2 T10721090,M
RTS,2023-03-30 10:45,-119.8764,39.6682,1539.00,17.60,15.80,92.50,10.00,4.00,0.00,29.79,M,10.00,M,CLR,M,M,M,M,M,M,M,M,M,M,M,M,M,M,10.60,KRTS 301045Z AUTO 01004KT 10SM CLR M08/M09 A2979 RMK AO2,M
DRA,2023-03-30 10:53,-116.0278,36.6206,1009.00,41.00,27.00,57.15,230.00,13.00,0.00,29.69,1003.80,10.00,19.00,OVC,M,M,M,11000.00,M,M,M,M,M,M,M,M,M,M,33.10,KDRA 301053Z AUTO 23013G19KT 10SM OVC110 05/M03 A2969 RMK AO2 SLP038 T00501028,M
ELY,2023-03-30 10:53,-114.8453,39.2950,1909.00,10.00,8.10,91.82,180.00,9.00,0.00,29.68,1008.80,10.00,M,CLR,M,M,M,M,M,M,M,M,M,M,M,M,M,M,-3.84,KELY 301053Z AUTO 18009KT 10SM CLR M12/M13 A2968 RMK AO2 SLP088 T11221133 $,M
LOL,2023-03-30 10:53,-118.5701,40.0684,1192.43,21.90,19.90,91.86,200.00,4.00,0.00,29.76,1009.30,10.00,M,CLR,M,M,M,M,M,M,M,M,M,M,M,M,M,M,15.63,KLOL 301053Z AUTO 20004KT 10SM CLR M06/M07 A2976 RMK AO2 SLP093 T10561067,M
P68,2023-03-30 10:53,-116.0056,39.6014,1993.00,8.10,6.00,91.34,210.00,8.00,0.00,29.70,1008.70,M,M,M,M,M,M,M,M,M,M,M,M,M,M,M,M,M,-5.33,KP68 301053Z AUTO 21008KT M13/M14 A2970 RMK AO1 SLP087 T11331144,M
VGT,2023-03-30 10:53,-115.1933,36.2111,667.00,47.00,24.10,40.44,330.00,4.00,0.00,29.68,1006.30,10.00,M,CLR,M,M,M,M,M,M,M,M,M,M,M,M,M,M,44.82,KVGT 301053Z AUTO 33004KT 10SM CLR 08/M04 A2968 RMK AO2 SLP063 T00831044,M
BVU,2023-03-30 10:55,-114.8611,35.9475,671.00,44.60,26.60,48.96,270.00,9.00,0.00,29.71,M,10.00,M,CLR,M,M,M,M,M,M,M,M,M,M,M,M,M,M,39.18,KBVU 301055Z AUTO 27009KT 10SM CLR 07/M03 A2971 RMK AO2,M
CXP,2023-03-30 10:55,-119.7326,39.1923,1431.00,30.20,24.80,80.07,320.00,10.00,0.00,29.77,M,10.00,M,BKN,OVC,M,M,8500.00,11000.00,M,M,M,M,M,M,M,M,M,20.71,KCXP 301055Z AUTO 32010KT 10SM BKN085 OVC110 M01/M04 A2977 RMK AO2,M
INS,2023-03-30 10:55,-115.6733,36.5872,955.00,38.50,21.00,49.01,10.00,3.00,0.00,29.69,1004.20,10.00,M,FEW,M,M,M,17000.00,M,M,M,M,M,M,M,M,M,M,36.12,KINS 301055Z AUTO 01003KT 10SM FEW170 04/M06 A2969 RMK AO2 SLP042 T00361061 $,M
RNO,2023-03-30 10:55,-119.7711,39.4839,1341.00,30.00,26.10,85.21,300.00,4.00,0.00,29.79,1009.50,10.00,M,SCT,BKN,OVC,M,500.00,2000.00,20000.00,M,M,M,M,M,M,M,M,25.08,KRNO 301055Z 30004KT 10SM SCT005 BKN020 OVC200 M01/M03 A2979 RMK AO2 SLP095 T10111033,M
LSV,2023-03-30 10:55,-115.0343,36.2362,570.00,46.00,25.70,44.90,150.00,9.00,0.00,29.65,1003.40,10.00,M,CLR,M,M,M,M,M,M,M,M,M,M,M,M,M,M,40.80,KLSV 301055Z AUTO 15009KT 10SM CLR 08/M03 A2965 RMK AO2 SLP034 T00771035 $,M
HTH,2023-03-30 10:55,-118.6315,38.5448,1282.89,32.00,26.60,80.22,290.00,5.00,0.00,29.75,M,10.00,M,CLR,M,M,M,M,M,M,M,M,M,M,M,M,M,M,26.40,KHTH 301055Z AUTO 29005KT 10SM CLR 00/M03 A2975 RMK A01,M
05U,2023-03-30 10:55,-116.0051,39.6042,1811.23,6.80,3.20,84.80,M,6.00,0.00,29.72,M,10.00,M,CLR,M,M,M,M,M,M,M,M,M,M,M,M,M,M,-4.82,K05U 301055Z AUTO VRB06KT 10SM CLR M14/M16 A2972 RMK A01,M
MEV,2023-03-30 10:55,-119.7500,38.9963,1441.42,28.40,28.40,100.00,70.00,4.00,0.00,29.76,M,10.00,M,BKN,OVC,M,M,500.00,5500.00,M,M,M,M,M,M,M,M,M,23.22,KMEV 301055Z AUTO 07004KT 10SM BKN005 OVC055 M02/M02 A2976 RMK AO2,M
BAM,2023-03-30 10:55,-116.8743,40.5990,1382.36,26.60,23.00,86.07,0.00,0.00,0.00,29.75,M,10.00,M,CLR,M,M,M,M,M,M,M,M,M,M,M,M,M,M,26.60,KBAM 301055Z AUTO 00000KT 10SM CLR M03/M05 A2975 RMK AO1,M
TMT,2023-03-30 10:55,-117.1971,39.4643,1749.34,16.50,14.50,91.66,0.00,0.00,0.00,29.73,M,10.00,M,CLR,M,M,M,M,M,M,M,M,M,M,M,M,M,M,16.50,KTMT 301055Z AUTO 00000KT 10SM CLR M09/M10 A2973 RMK AO2 T10861097,M
EKO,2023-03-30 10:56,-115.7860,40.8242,1367.00,23.00,19.90,87.70,240.00,5.00,0.00,29.71,1007.90,10.00,M,FEW,OVC,M,M,4200.00,6000.00,M,M,M,M,M,M,M,M,M,15.71,KEKO 301056Z AUTO 24005KT 10SM FEW042 OVC060 M05/M07 A2971 RMK AO2 SLP079 T10501067,M
WMC,2023-03-30 10:56,-117.8072,40.9019,1315.00,19.00,12.90,76.72,120.00,5.00,0.00,29.75,1009.00,10.00,M,CLR,M,M,M,M,M,M,M,M,M,M,M,M,M,M,10.96,KWMC 301056Z AUTO 12005KT 10SM CLR M07/M11 A2975 RMK AO2 SLP090 T10721106,M
NFL,2023-03-30 10:56,-118.7010,39.4166,1199.00,30.00,25.00,81.40,0.00,0.00,0.00,29.76,1005.60,10.00,M,CLR,M,M,M,M,M,M,M,M,M,M,M,M,M,M,30.00,KNFL 301056Z AUTO 00000KT 10SM CLR M01/M04 A2976 RMK AO2 SLP056 T10111039,M
TPH,2023-03-30 10:56,-117.0904,38.0505,1654.00,19.90,15.10,81.30,360.00,9.00,0.00,29.71,1007.90,10.00,M,CLR,M,M,M,M,M,M,M,M,M,M,M,M,M,M,8.47,KTPH 301056Z AUTO 36009KT 10SM CLR M07/M09 A2971 RMK AO2 SLP079 T10671094,M
LAS,2023-03-30 10:56,-115.1634,36.0719,663.00,46.00,26.10,45.47,200.00,8.00,0.00,29.68,1004.70,10.00,M,BKN,M,M,M,18000.00,M,M,M,M,M,M,M,M,M,M,41.36,KLAS 301056Z 20008KT 10SM BKN180 08/M03 A2968 RMK AO2 SLP047 T00781033,M
BVU,2023-03-30 11:15,-114.8611,35.9475,671.00,44.60,26.60,48.96,230.00,11.00,0.00,29.70,M,10.00,M,CLR,M,M,M,M,M,M,M,M,M,M,M,M,M,M,38.39,KBVU 301115Z AUTO 23011KT 10SM CLR 07/M03 A2970 RMK AO2,M
CXP,2023-03-30 11:15,-119.7326,39.1923,1431.00,30.20,24.80,80.07,320.00,7.00,0.00,29.78,M,10.00,M,OVC,M,M,M,9500.00,M,M,M,M,M,M,M,M,M,M,22.59,KCXP 301115Z AUTO 32007KT 10SM OVC095 M01/M04 A2978 RMK AO2,M
RTS,2023-03-30 11:15,-119.8764,39.6682,1539.00,19.40,17.60,92.57,350.00,6.00,0.00,29.79,M,10.00,M,FEW,BKN,BKN,M,1600.00,5000.00,6500.00,M,M,M,M,M,M,M,M,10.36,KRTS 301115Z AUTO 35006KT 10SM FEW016 BKN050 BKN065 M07/M08 A2979 RMK AO2,M
05U,2023-03-30 11:15,-116.0051,39.6042,1811.23,6.80,5.00,92.12,M,5.00,0.00,29.72,M,10.00,M,CLR,M,M,M,M,M,M,M,M,M,M,M,M,M,M,-3.53,K05U 301115Z AUTO VRB05KT 10SM CLR M14/M15 A2972 RMK A01,M
MEV,2023-03-30 11:15,-119.7500,38.9963,1441.42,26.60,26.60,100.00,60.00,5.00,0.00,29.76,M,10.00,M,BKN,OVC,M,M,600.00,5500.00,M,M,M,M,M,M,M,M,M,19.98,KMEV 301115Z AUTO 06005KT 10SM BKN006 OVC055 M03/M03 A2976 RMK AO2,M
BAM,2023-03-30 11:15,-116.8743,40.5990,1382.36,26.60,23.00,86.07,60.00,3.00,0.00,29.75,M,10.00,M,CLR,M,M,M,M,M,M,M,M,M,M,M,M,M,M,22.52,KBAM 301115Z AUTO 06003KT 10SM CLR M03/M05 A2975 RMK AO1,M
HTH,2023-03-30 11:15,-118.6315,38.5448,1282.89,32.00,26.60,80.22,300.00,8.00,0.00,29.75,M,10.00,M,CLR,M,M,M,M,M,M,M,M,M,M,M,M,M,M,24.11,KHTH 301115Z AUTO 30008KT 10SM CLR 00/M03 A2975 RMK A01,M
TMT,2023-03-30 11:15,-117.1971,39.4643,1749.34,15.80,13.80,91.64,0.00,0.00,0.00,29.74,M,10.00,M,CLR,M,M,M,M,M,M,M,M,M,M,M,M,M,M,15.80,KTMT 301115Z AUTO 00000KT 10SM CLR M09/M10 A2974 RMK AO2 T10901101,M
BVU,2023-03-30 11:35,-114.8611,35.9475,671.00,44.60,26.60,48.96,240.00,14.00,0.00,29.70,M,10.00,M,CLR,M,M,M,M,M,M,M,M,M,M,M,M,M,M,37.40,KBVU 301135Z AUTO 24014KT 10SM CLR 07/M03 A2970 RMK AO2,M
CXP,2023-03-30 11:35,-119.7326,39.1923,1431.00,30.20,26.60,86.28,340.00,6.00,0.00,29.78,M,10.00,M,BKN,OVC,M,M,6500.00,9000.00,M,M,M,M,M,M,M,M,M,23.36,KCXP 301135Z AUTO 34006KT 10SM BKN065 OVC090 M01/M03 A2978 RMK AO2,M
RTS,2023-03-30 11:35,-119.8764,39.6682,1539.00,19.40,17.60,92.57,350.00,6.00,0.00,29.79,M,10.00,M,OVC,M,M,M,5500.00,M,M,M,M,M,M,M,M,M,M,10.36,KRTS 301135Z AUTO 35006KT 10SM OVC055 M07/M08 A2979 RMK AO2,M
05U,2023-03-30 11:35,-116.0051,39.6042,1811.23,6.80,5.00,92.12,M,5.00,0.00,29.72,M,10.00,M,CLR,M,M,M,M,M,M,M,M,M,M,M,M,M,M,-3.53,K05U 301135Z AUTO VRB05KT 10SM CLR M14/M15 A2972 RMK A01,M
MEV,2023-03-30 11:35,-119.7500,38.9963,1441.42,28.40,28.40,100.00,20.00,6.00,0.00,29.77,M,10.00,M,SCT,BKN,OVC,M,600.00,1400.00,4400.00,M,M,M,M,M,M,M,M,21.19,KMEV 301135Z AUTO 02006KT 10SM SCT006 BKN014 OVC044 M02/M02 A2977 RMK AO2,M
BAM,2023-03-30 11:35,-116.8743,40.5990,1382.36,24.80,21.20,85.96,100.00,3.00,0.00,29.75,M,10.00,M,CLR,M,M,M,M,M,M,M,M,M,M,M,M,M,M,20.46,KBAM 301135Z AUTO 10003KT 10SM CLR M04/M06 A2975 RMK AO1,M
HTH,2023-03-30 11:35,-118.6315,38.5448,1282.89,32.00,26.60,80.22,300.00,7.00,0.00,29.76,M,10.00,M,CLR,M,M,M,M,M,M,M,M,M,M,M,M,M,M,24.78,KHTH 301135Z AUTO 30007KT 10SM CLR 00/M03 A2976 RMK A01,M
TMT,2023-03-30 11:35,-117.1971,39.4643,1749.34,14.90,12.90,91.60,130.00,3.00,0.00,29.74,M,10.00,M,CLR,M,M,M,M,M,M,M,M,M,M,M,M,M,M,9.14,KTMT 301135Z AUTO 13003KT 10SM CLR M09/M11 A2974 RMK AO2 T10951106,M
RNO,2023-03-30 11:48,-119.7711,39.4839,1341.00,30.90,26.10,82.15,10.00,3.00,0.00,29.79,M,10.00,M,SCT,BKN,BKN,M,2200.00,6000.00,20000.00,M,M,M,M,M,M,M,M,27.43,KRNO 301148Z 01003KT 10SM SCT022 BKN060 BKN200 M01/M03 A2979 RMK AO2 T10061033,M
P68,2023-03-30 11:53,-116.0056,39.6014,1993.00,5.00,3.00,91.21,190.00,8.00,0.00,29.70,1009.40,M,M,M,M,M,M,M,M,M,M,M,M,M,M,M,M,M,-9.15,KP68 301153Z AUTO 19008KT M15/M16 A2970 RMK AO1 SLP094 70068 T11501161 11094 21161 55004,M
DRA,2023-03-30 11:53,-116.0278,36.6206,1009.00,40.00,27.00,59.65,230.00,15.00,0.00,29.69,1003.80,10.00,22.00,SCT,M,M,M,10000.00,M,M,M,M,M,M,M,M,M,M,31.02,KDRA 301153Z AUTO 23015G22KT 10SM SCT100 04/M03 A2969 RMK AO2 SLP038 70005 T00441028 10083 20039 53001,M
VGT,2023-03-30 11:53,-115.1933,36.2111,667.00,45.00,24.10,43.46,300.00,4.00,0.00,29.69,1006.90,10.00,M,CLR,M,M,M,M,M,M,M,M,M,M,M,M,M,M,42.60,KVGT 301153Z AUTO 30004KT 10SM CLR 07/M04 A2969 RMK AO2 SLP069 70001 T00721044 10111 20072 53009,M
LOL,2023-03-30 11:53,-118.5701,40.0684,1192.43,24.10,21.00,87.76,110.00,3.00,0.00,29.76,1009.50,10.00,M,CLR,M,M,M,M,M,M,M,M,M,M,M,M,M,M,19.66,KLOL 301153Z AUTO 11003KT 10SM CLR M04/M06 A2976 RMK AO2 SLP095 T10441061 10006 21056 53001,M
ELY,2023-03-30 11:53,-114.8453,39.2950,1909.00,9.00,6.00,87.71,180.00,7.00,0.00,29.67,1008.50,10.00,M,CLR,M,M,M,M,M,M,M,M,T,M,T,M,M,M,-3.26,KELY 301153Z AUTO 18007KT 10SM CLR M13/M14 A2967 RMK AO2 SLP085 60000 70040 I1000 I6000 T11281144 11044 21144 58002 $,M
BVU,2023-03-30 11:55,-114.8611,35.9475,671.00,44.60,26.60,48.96,230.00,14.00,0.00,29.71,M,10.00,M,CLR,M,M,M,M,M,M,M,M,M,M,M,M,M,M,37.40,KBVU 301155Z AUTO 23014KT 10SM CLR 07/M03 A2971 RMK AO2,M
CXP,2023-03-30 11:55,-119.7326,39.1923,1431.00,30.20,26.60,86.28,330.00,5.00,0.00,29.78,M,10.00,12.00,SCT,OVC,M,M,4900.00,6000.00,M,M,M,M,M,M,M,M,M,24.26,KCXP 301155Z AUTO 33005G12KT 10SM SCT049 OVC060 M01/M03 A2978 RMK AO2,M
INS,2023-03-30 11:55,-115.6733,36.5872,955.00,37.80,22.10,52.78,340.00,4.00,0.00,29.70,1004.40,10.00,M,FEW,M,M,M,19000.00,M,M,M,M,M,M,M,M,M,M,34.19,KINS 301155Z AUTO 34004KT 10SM FEW190 03/M05 A2970 RMK AO2 SLP044 T00321055 10095 20029 53002 $,M
RNO,2023-03-30 11:55,-119.7711,39.4839,1341.00,30.90,26.10,82.15,10.00,4.00,0.00,29.80,1009.40,10.00,M,SCT,BKN,BKN,M,2200.00,6000.00,20000.00,M,M,M,M,M,M,M,M,26.14,KRNO 301155Z 01004KT 10SM SCT022 BKN060 BKN200 M01/M03 A2980 RMK AO2 SLP094 60000 70009 T10061033 10006 21011 53005,M
LSV,2023-03-30 11:55,-115.0343,36.2362,570.00,44.60,25.20,46.20,0.00,0.00,0.00,29.67,1004.20,10.00,M,CLR,M,M,M,M,M,M,M,M,M,M,M,M,M,M,44.60,KLSV 301155Z AUTO 00000KT 10SM CLR 07/M04 A2967 RMK AO2 SLP042 T00701038 10103 20070 50004 $,M
RTS,2023-03-30 11:55,-119.8764,39.6682,1539.00,21.20,19.40,92.63,330.00,5.00,0.00,29.79,M,10.00,M,OVC,M,M,M,5500.00,M,M,M,M,M,M,M,M,M,M,13.57,KRTS 301155Z AUTO 33005KT 10SM OVC055 M06/M07 A2979 RMK AO2,M
05U,2023-03-30 11:55,-116.0051,39.6042,1811.23,5.00,1.40,84.68,M,5.00,0.00,29.73,M,10.00,M,CLR,M,M,M,M,M,M,M,M,M,M,M,M,M,M,-5.67,K05U 301155Z AUTO VRB05KT 10SM CLR M15/M17 A2973 RMK A01,M
MEV,2023-03-30 11:55,-119.7500,38.9963,1441.42,30.20,28.40,92.92,10.00,8.00,0.00,29.77,M,10.00,M,FEW,SCT,OVC,M,1400.00,4500.00,5500.00,M,M,M,M,M,M,M,M,21.90,KMEV 301155Z AUTO 01008KT 10SM FEW014 SCT045 OVC055 M01/M02 A2977 RMK AO2,M
BAM,2023-03-30 11:55,-116.8743,40.5990,1382.36,24.80,21.20,85.96,50.00,3.00,0.00,29.75,M,10.00,M,CLR,M,M,M,M,M,M,M,M,M,M,M,M,M,M,20.46,KBAM 301155Z AUTO 05003KT 10SM CLR M04/M06 A2975 RMK AO1,M
HTH,2023-03-30 11:55,-118.6315,38.5448,1282.89,32.00,26.60,80.22,300.00,6.00,0.00,29.76,M,10.00,M,SCT,M,M,M,10000.00,M,M,M,M,M,M,M,M,M,M,25.53,KHTH 301155Z AUTO 30006KT 10SM SCT100 00/M03 A2976 RMK A01,M
TMT,2023-03-30 11:55,-117.1971,39.4643,1749.34,14.90,12.90,91.60,120.00,4.00,0.00,29.74,M,10.00,M,CLR,M,M,M,M,M,M,M,M,M,M,M,M,M,M,7.45,KTMT 301155Z AUTO 12004KT 10SM CLR M09/M11 A2974 RMK AO2 70019 T10951106 11060 21095,M
EKO,2023-03-30 11:56,-115.7860,40.8242,1367.00,24.10,19.90,83.75,250.00,4.00,0.00,29.71,1007.40,10.00,M,OVC,M,M,M,5000.00,M,M,M,M,M,M,M,M,M,M,18.19,KEKO 301156Z AUTO 25004KT 10SM OVC050 M04/M07 A2971 RMK AO2 SLP074 70002 T10441067 11022 21050 56005,M
WMC,2023-03-30 11:56,-117.8072,40.9019,1315.00,15.10,10.00,79.84,0.00,0.00,0.00,29.74,1009.00,10.00,M,CLR,M,M,M,M,M,M,M,M,M,M,M,M,M,M,15.10,KWMC 301156Z AUTO 00000KT 10SM CLR M09/M12 A2974 RMK AO2 SLP090 T10941122 11044 21094 58003,M
NFL,2023-03-30 11:56,-118.7010,39.4166,1199.00,30.00,26.10,85.21,190.00,3.00,0.00,29.76,1005.70,10.00,M,CLR,M,M,M,M,M,M,M,M,M,M,M,M,M,M,26.40,KNFL 301156Z AUTO 19003KT 10SM CLR M01/M03 A2976 RMK AO2 SLP057 T10111033 10011 21022 53001,M
TPH,2023-03-30 11:56,-117.0904,38.0505,1654.00,19.00,15.10,84.49,360.00,11.00,0.00,29.71,1007.90,10.00,M,CLR,M,M,M,M,M,M,M,M,M,M,M,M,M,M,6.04,KTPH 301156Z AUTO 36011KT 10SM CLR M07/M09 A2971 RMK AO2 SLP079 70022 T10721094 11017 21072 56004,M
LAS,2023-03-30 11:56,-115.1634,36.0719,663.00,46.00,25.00,43.44,230.00,8.00,0.00,29.70,1005.40,10.00,M,BKN,M,M,M,18000.00,M,M,M,M,M,M,M,M,M,M,41.36,KLAS 301156Z 23008KT 10SM BKN180 08/M04 A2970 RMK AO2 SLP054 T00781039 10106 20072 53007,M
ELY,2023-03-30 12:12,-114.8453,39.2950,1909.00,6.00,4.00,90.42,180.00,4.00,0.00,29.67,M,2.00,M,SCT,M,M,M,100.00,M,M,M,BR,M,M,M,M,M,M,-2.82,KELY 301212Z AUTO 18004KT 2SM BR SCT001 M14/M16 A2967 RMK AO2 T11441156 $,M
ELY,2023-03-30 12:14,-114.8453,39.2950,1909.00,6.00,4.00,90.42,180.00,5.00,0.00,29.67,M,1.25,M,SCT,M,M,M,100.00,M,M,M,BR,M,M,M,M,M,M,-4.36,KELY 301214Z AUTO 18005KT 1 1/4SM BR SCT001 M14/M16 A2967 RMK AO2 T11441156 $,M
BVU,2023-03-30 12:15,-114.8611,35.9475,671.00,44.60,26.60,48.96,240.00,10.00,0.00,29.71,M,10.00,15.00,CLR,M,M,M,M,M,M,M,M,M,M,M,M,M,M,38.77,KBVU 301215Z AUTO 24010G15KT 10SM CLR 07/M03 A2971 RMK AO2,M
CXP,2023-03-30 12:15,-119.7326,39.1923,1431.00,30.20,26.60,86.28,330.00,7.00,0.00,29.79,M,10.00,M,BKN,OVC,M,M,4800.00,6500.00,M,M,M,M,M,M,M,M,M,22.59,KCXP 301215Z AUTO 33007KT 10SM BKN048 OVC065 M01/M03 A2979 RMK AO2,M
RTS,2023-03-30 12:15,-119.8764,39.6682,1539.00,21.20,21.20,100.00,340.00,5.00,0.00,29.79,M,10.00,M,OVC,M,M,M,5500.00,M,M,M,M,M,M,M,M,M,M,13.57,KRTS 301215Z AUTO 34005KT 10SM OVC055 M06/M06 A2979 RMK AO2,M
05U,2023-03-30 12:15,-116.0051,39.6042,1811.23,5.00,1.40,84.68,M,3.00,0.00,29.73,M,10.00,M,FEW,M,M,M,200.00,M,M,M,M,M,M,M,M,M,M,-2.18,K05U 301215Z AUTO VRB03KT 10SM FEW002 M15/M17 A2973 RMK A01,M
MEV,2023-03-30 12:15,-119.7500,38.9963,1441.42,30.20,26.60,86.28,20.00,8.00,0.00,29.78,M,10.00,M,FEW,OVC,M,M,2200.00,5500.00,M,M,M,M,M,M,M,M,M,21.90,KMEV 301215Z AUTO 02008KT 10SM FEW022 OVC055 M01/M03 A2978 RMK AO2,M
BAM,2023-03-30 12:15,-116.8743,40.5990,1382.36,23.00,21.20,92.69,130.00,5.00,0.00,29.74,M,10.00,M,CLR,M,M,M,M,M,M,M,M,M,M,M,M,M,M,15.71,KBAM 301215Z AUTO 13005KT 10SM CLR M05/M06 A2974 RMK AO1,M
HTH,2023-03-30 12:15,-118.6315,38.5448,1282.89,32.00,26.60,80.22,330.00,6.00,0.00,29.77,M,10.00,M,OVC,M,M,M,10000.00,M,M,M,M,M,M,M,M,M,M,25.53,KHTH 301215Z AUTO 33006KT 10SM OVC100 00/M03 A2977 RMK A01,M
TMT,2023-03-30 12:15,-117.1971,39.4643,1749.34,14.50,12.20,90.38,140.00,4.00,0.00,29.74,M,10.00,M,CLR,M,M,M,M,M,M,M,M,M,M,M,M,M,M,6.98,KTMT 301215Z AUTO 14004KT 10SM CLR M10/M11 A2974 RMK AO2 T10971110,M
ELY,2023-03-30 12:21,-114.8453,39.2950,1909.00,5.00,3.00,91.21,180.00,8.00,0.00,29.67,M,1.00,M,VV ,M,M,M,100.00,M,M,M,BR,M,M,M,M,M,M,-9.15,KELY 301221Z AUTO 18008KT 1SM BR VV001 M15/M16 A2967 RMK AO2 T11501161 $,M
ELY,2023-03-30 12:26,-114.8453,39.2950,1909.00,4.00,1.90,91.16,190.00,6.00,0.00,29.67,M,2.50,M,SCT,M,M,M,100.00,M,M,M,BR,M,M,M,M,M,M,-8.31,KELY 301226Z AUTO 19006KT 2 1/2SM BR SCT001 M16/M17 A2967 RMK AO2 T11561167 $,M
ELY,2023-03-30 12:29,-114.8453,39.2950,1909.00,3.00,1.00,91.13,200.00,5.00,0.00,29.68,M,4.00,M,BKN,M,M,M,100.00,M,M,M,BR,M,M,M,M,M,M,-8.05,KELY 301229Z AUTO 20005KT 4SM BR BKN001 M16/M17 A2968 RMK AO2 T11611172 $,M
ELY,2023-03-30 12:34,-114.8453,39.2950,1909.00,3.00,1.00,91.13,190.00,7.00,0.00,29.68,M,1.75,M,BKN,M,M,M,100.00,M,M,M,BR,M,M,M,M,M,M,-10.57,KELY 301234Z AUTO 19007KT 1 3/4SM BR BKN001 M16/M17 A2968 RMK AO2 T11611172 $,M
BVU,2023-03-30 12:35,-114.8611,35.9475,671.00,42.80,26.60,52.45,250.00,7.00,0.00,29.71,M,10.00,M,CLR,M,M,M,M,M,M,M,M,M,M,M,M,M,M,37.94,KBVU 301235Z AUTO 25007KT 10SM CLR 06/M03 A2971 RMK AO2,M
CXP,2023-03-30 12:35,-119.7326,39.1923,1431.00,30.20,26.60,86.28,340.00,6.00,0.00,29.80,M,10.00,M,BKN,OVC,M,M,4600.00,6500.00,M,M,M,M,M,M,M,M,M,23.36,KCXP 301235Z AUTO 34006KT 10SM BKN046 OVC065 M01/M03 A2980 RMK AO2,M
RTS,2023-03-30 12:35,-119.8764,39.6682,1539.00,21.20,19.40,92.63,340.00,5.00,0.00,29.79,M,10.00,M,FEW,OVC,M,M,4600.00,5500.00,M,M,M,M,M,M,M,M,M,13.57,KRTS 301235Z AUTO 34005KT 10SM FEW046 OVC055 M06/M07 A2979 RMK AO2,M
05U,2023-03-30 12:35,-116.0051,39.6042,1811.23,3.20,-0.40,84.56,0.00,0.00,0.00,29.72,M,0.25,M,OVC,M,M,M,200.00,M,M,M,FZFG,M,M,M,M,M,M,3.20,K05U 301235Z AUTO 00000KT 1/4SM FZFG OVC002 M16/M18 A2972 RMK A01,M
MEV,2023-03-30 12:35,-119.7500,38.9963,1441.42,30.20,26.60,86.28,10.00,8.00,0.00,29.78,M,8.00,M,SCT,OVC,M,M,2500.00,6000.00,M,M,-SN,M,M,M,M,M,M,21.90,KMEV 301235Z AUTO 01008KT 8SM -SN SCT025 OVC060 M01/M03 A2978 RMK AO2,M
BAM,2023-03-30 12:35,-116.8743,40.5990,1382.36,23.00,21.20,92.69,140.00,4.00,0.00,29.74,M,10.00,M,CLR,M,M,M,M,M,M,M,M,M,M,M,M,M,M,16.91,KBAM 301235Z AUTO 14004KT 10SM CLR M05/M06 A2974 RMK AO1,M
HTH,2023-03-30 12:35,-118.6315,38.5448,1282.89,32.00,28.40,86.39,320.00,6.00,0.00,29.77,M,10.00,M,BKN,OVC,M,M,8000.00,9000.00,M,M,M,M,M,M,M,M,M,25.53,KHTH 301235Z AUTO 32006KT 10SM BKN080 OVC090 M00/M02 A2977 RMK A01,M
TMT,2023-03-30 12:35,-117.1971,39.4643,1749.34,14.90,12.60,90.40,0.00,0.00,0.00,29.74,M,10.00,M,CLR,M,M,M,M,M,M,M,M,M,M,M,M,M,M,14.90,KTMT 301235Z AUTO 00000KT 10SM CLR M09/M11 A2974 RMK AO2 T10951108,M
ELY,2023-03-30 12:41,-114.8453,39.2950,1909.00,3.00,1.00,91.13,190.00,7.00,0.00,29.68,M,3.00,M,SCT,M,M,M,100.00,M,M,M,BR,M,M,M,M,M,M,-10.57,KELY 301241Z AUTO 19007KT 3SM BR SCT001 M16/M17 A2968 RMK AO2 T11611172 $,M
RNO,2023-03-30 12:41,-119.7711,39.4839,1341.00,30.90,26.10,82.15,10.00,3.00,T,29.80,M,10.00,M,FEW,BKN,BKN,M,5500.00,7000.00,20000.00,M,-SN,M,M,M,M,M,M,27.43,KRNO 301241Z 01003KT 10SM -SN FEW055 BKN070 BKN200 M01/M03 A2980 RMK AO2 SNB26 P0000 T10061033,M
ELY,2023-03-30 12:50,-114.8453,39.2950,1909.00,3.20,1.40,91.99,180.00,9.00,0.00,29.68,M,2.00,M,BKN,M,M,M,100.00,M,M,M,BR,M,M,M,M,M,M,-12.30,KELY 301250Z AUTO 18009KT 2SM BR BKN001 M16/M17 A2968 RMK AO2 $,M
P68,2023-03-30 12:53,-116.0056,39.6014,1993.00,5.00,3.00,91.21,210.00,9.00,0.00,29.70,1009.40,M,M,M,M,M,M,M,M,M,M,M,M,M,M,M,M,M,-10.06,KP68 301253Z AUTO 21009KT M15/M16 A2970 RMK AO1 SLP094 T11501161,M
DRA,2023-03-30 12:53,-116.0278,36.6206,1009.00,38.00,27.00,64.49,240.00,9.00,0.00,29.71,1004.60,10.00,M,CLR,M,M,M,M,M,M,M,M,M,M,M,M,M,M,30.85,KDRA 301253Z AUTO 24009KT 10SM CLR 03/M03 A2971 RMK AO2 SLP046 T00331028,M
ELY,2023-03-30 12:53,-114.8453,39.2950,1909.00,4.00,1.00,87.42,180.00,9.00,0.00,29.68,1009.50,1.75,M,BKN,M,M,M,100.00,M,M,M,BR,M,M,M,M,M,M,-11.43,KELY 301253Z AUTO 18009KT 1 3/4SM BR BKN001 M16/M17 A2968 RMK AO2 SLP095 T11561172 $,M
VGT,2023-03-30 12:53,-115.1933,36.2111,667.00,43.00,24.10,46.91,0.00,0.00,0.00,29.70,1007.30,10.00,M,CLR,M,M,M,M,M,M,M,M,M,M,M,M,M,M,43.00,KVGT 301253Z 00000KT 10SM CLR 06/M04 A2970 RMK AO2 SLP073 T00611044,M
LOL,2023-03-30 12:53,-118.5701,40.0684,1192.43,21.00,19.00,91.83,300.00,4.00,0.00,29.76,1009.50,10.00,M,CLR,M,M,M,M,M,M,M,M,M,M,M,M,M,M,14.57,KLOL 301253Z AUTO 30004KT 10SM CLR M06/M07 A2976 RMK AO2 SLP095 T10611072,M
BVU,2023-03-30 12:55,-114.8611,35.9475,671.00,46.40,26.60,45.73,220.00,11.00,0.00,29.72,M,10.00,20.00,CLR,M,M,M,M,M,M,M,M,M,M,M,M,M,M,40.66,KBVU 301255Z AUTO 22011G20KT 10SM CLR 08/M03 A2972 RMK AO2,M
CXP,2023-03-30 12:55,-119.7326,39.1923,1431.00,30.20,26.60,86.28,320.00,7.00,0.00,29.79,M,10.00,13.00,SCT,BKN,OVC,M,3300.00,3800.00,4500.00,M,UP,M,M,M,M,M,M,22.59,KCXP 301255Z AUTO 32007G13KT 10SM UP SCT033 BKN038 OVC045 M01/M03 A2979 RMK AO2,M
INS,2023-03-30 12:55,-115.6733,36.5872,955.00,38.00,22.30,53.01,0.00,0.00,0.00,29.71,1004.90,10.00,M,FEW,M,M,M,18000.00,M,M,M,M,M,M,M,M,M,M,37.90,KINS 301255Z AUTO 00000KT 10SM FEW180 03/M05 A2971 RMK AO2 SLP049 T00331054 $,M
RNO,2023-03-30 12:55,-119.7711,39.4839,1341.00,30.00,25.00,81.40,0.00,0.00,T,29.80,1009.80,9.00,M,FEW,BKN,BKN,M,4500.00,7000.00,20000.00,M,-SN,M,M,M,M,M,M,30.00,KRNO 301255Z 00000KT 9SM -SN FEW045 BKN070 BKN200 M01/M04 A2980 RMK AO2 SNB26 SLP098 P0000 T10111039,M
LSV,2023-03-30 12:55,-115.0343,36.2362,570.00,41.70,23.50,48.09,0.00,0.00,0.00,29.68,1004.70,10.00,M,CLR,M,M,M,M,M,M,M,M,M,M,M,M,M,M,41.70,KLSV 301255Z AUTO 00000KT 10SM CLR 05/M05 A2968 RMK AO2 SLP047 T00541047 $,M
RTS,2023-03-30 12:55,-119.8764,39.6682,1539.00,21.20,19.40,92.63,340.00,5.00,0.00,29.79,M,10.00,M,FEW,BKN,OVC,M,4000.00,4800.00,5500.00,M,M,M,M,M,M,M,M,13.57,KRTS 301255Z AUTO 34005KT 10SM FEW040 BKN048 OVC055 M06/M07 A2979 RMK AO2,M
05U,2023-03-30 12:55,-116.0051,39.6042,1811.23,3.20,-0.40,84.56,M,4.00,0.00,29.72,M,10.00,M,BKN,M,M,M,200.00,M,M,M,M,M,M,M,M,M,M,-6.21,K05U 301255Z AUTO VRB04KT 10SM BKN002 M16/M18 A2972 RMK A01,M
MEV,2023-03-30 12:55,-119.7500,38.9963,1441.42,30.20,26.60,86.28,350.00,9.00,0.00,29.78,M,9.00,M,FEW,FEW,OVC,M,2500.00,4300.00,6000.00,M,-SN,M,M,M,M,M,M,21.28,KMEV 301255Z AUTO 35009KT 9SM -SN FEW025 FEW043 OVC060 M01/M03 A2978 RMK AO2,M
BAM,2023-03-30 12:55,-116.8743,40.5990,1382.36,23.00,21.20,92.69,0.00,0.00,0.00,29.75,M,10.00,M,CLR,M,M,M,M,M,M,M,M,M,M,M,M,M,M,23.00,KBAM 301255Z AUTO 00000KT 10SM CLR M05/M06 A2975 RMK AO1,M
HTH,2023-03-30 12:55,-118.6315,38.5448,1282.89,30.20,28.40,92.92,290.00,5.00,0.00,29.78,M,10.00,M,FEW,SCT,BKN,M,4100.00,5500.00,9000.00,M,M,M,M,M,M,M,M,24.26,KHTH 301255Z AUTO 29005KT 10SM FEW041 SCT055 BKN090 M01/M02 A2978 RMK A01,M
TMT,2023-03-30 12:55,-117.1971,39.4643,1749.34,14.90,12.40,89.60,0.00,0.00,0.00,29.74,M,10.00,M,CLR,M,M,M,M,M,M,M,M,M,M,M,M,M,M,14.90,KTMT 301255Z AUTO 00000KT 10SM CLR M09/M11 A2974 RMK AO2 T10951109,M
EKO,2023-03-30 12:56,-115.7860,40.8242,1367.00,23.00,19.00,84.39,240.00,5.00,0.00,29.70,1007.60,10.00,M,CLR,M,M,M,M,M,M,M,M,M,M,M,M,M,M,15.71,KEKO 301256Z AUTO 24005KT 10SM CLR M05/M07 A2970 RMK AO2 SLP076 T10501072,M
WMC,2023-03-30 12:56,-117.8072,40.9019,1315.00,15.10,10.90,83.11,130.00,3.00,0.00,29.75,1009.30,10.00,M,CLR,M,M,M,M,M,M,M,M,T,M,M,M,M,M,9.37,KWMC 301256Z AUTO 13003KT 10SM CLR M09/M12 A2975 RMK AO2 SLP093 I1000 T10941117,M
TPH,2023-03-30 12:56,-117.0904,38.0505,1654.00,18.00,14.00,84.05,340.00,6.00,0.00,29.71,1008.40,10.00,M,CLR,M,M,M,M,M,M,M,M,M,M,M,M,M,M,8.67,KTPH 301256Z AUTO 34006KT 10SM CLR M08/M10 A2971 RMK AO2 SLP084 T10781100,M
LAS,2023-03-30 12:56,-115.1634,36.0719,663.00,47.00,25.00,41.99,220.00,10.00,0.00,29.71,1005.60,10.00,M,FEW,SCT,M,M,7000.00,18000.00,M,M,M,M,M,M,M,M,M,41.65,KLAS 301256Z 22010KT 10SM FEW070 SCT180 08/M04 A2971 RMK AO2 SLP056 T00831039,M
NFL,2023-03-30 12:56,-118.7010,39.4166,1199.00,28.00,25.00,88.33,0.00,0.00,0.00,29.77,1006.00,10.00,M,CLR,M,M,M,M,M,M,M,M,M,M,M,M,M,M,28.00,KNFL 301256Z AUTO 00000KT 10SM CLR M02/M04 A2977 RMK AO2 SLP060 T10221039,M
ELY,2023-03-30 12:57,-114.8453,39.2950,1909.00,4.00,1.00,87.42,170.00,12.00,0.00,29.68,M,3.00,M,BKN,M,M,M,100.00,M,M,M,BR,M,M,M,M,M,M,-13.76,KELY 301257Z AUTO 17012KT 3SM BR BKN001 M16/M17 A2968 RMK AO2 T11561172 $,M
ELY,2023-03-30 13:04,-114.8453,39.2950,1909.00,4.00,1.90,91.16,180.00,9.00,0.00,29.67,M,9.00,M,FEW,M,M,M,100.00,M,M,M,M,M,M,M,M,M,M,-11.43,KELY 301304Z AUTO 18009KT 9SM FEW001 M16/M17 A2967 RMK AO2 T11561167 $,M
ELY,2023-03-30 13:14,-114.8453,39.2950,1909.00,6.00,4.00,90.42,180.00,8.00,0.00,29.68,M,2.50,M,BKN,M,M,M,100.00,M,M,M,BR,M,M,M,M,M,M,-7.79,KELY 301314Z AUTO 18008KT 2 1/2SM BR BKN001 M14/M16 A2968 RMK AO2 T11441156 $,M
BVU,2023-03-30 13:15,-114.8611,35.9475,671.00,44.60,26.60,48.96,200.00,8.00,0.00,29.73,M,10.00,M,CLR,M,M,M,M,M,M,M,M,M,M,M,M,M,M,39.63,KBVU 301315Z AUTO 20008KT 10SM CLR 07/M03 A2973 RMK AO2,M
CXP,2023-03-30 13:15,-119.7326,39.1923,1431.00,30.20,26.60,86.28,310.00,9.00,0.00,29.80,M,10.00,M,SCT,BKN,OVC,M,3400.00,4800.00,5500.00,M,UP,M,M,M,M,M,M,21.28,KCXP 301315Z AUTO 31009KT 10SM UP SCT034 BKN048 OVC055 M01/M03 A2980 RMK AO2,M
RTS,2023-03-30 13:15,-119.8764,39.6682,1539.00,19.40,17.60,92.57,350.00,5.00,0.00,29.79,M,10.00,M,SCT,OVC,M,M,4300.00,5000.00,M,M,M,M,M,M,M,M,M,11.43,KRTS 301315Z AUTO 35005KT 10SM SCT043 OVC050 M07/M08 A2979 RMK AO2,M
05U,2023-03-30 13:15,-116.0051,39.6042,1811.23,1.40,-2.20,84.43,M,3.00,0.00,29.73,M,10.00,M,CLR,M,M,M,M,M,M,M,M,M,M,M,M,M,M,-6.29,K05U 301315Z AUTO VRB03KT 10SM CLR M17/M19 A2973 RMK A01,M
MEV,2023-03-30 13:15,-119.7500,38.9963,1441.42,30.20,26.60,86.28,310.00,6.00,0.00,29.78,M,10.00,M,BKN,BKN,OVC,M,4100.00,4800.00,6500.00,M,M,M,M,M,M,M,M,23.36,KMEV 301315Z AUTO 31006KT 10SM BKN041 BKN048 OVC065 M01/M03 A2978 RMK AO2,M
BAM,2023-03-30 13:15,-116.8743,40.5990,1382.36,23.00,19.40,85.85,0.00,0.00,0.00,29.74,M,10.00,M,CLR,M,M,M,M,M,M,M,M,M,M,M,M,M,M,23.00,KBAM 301315Z AUTO 00000KT 10SM CLR M05/M07 A2974 RMK AO1,M
HTH,2023-03-30 13:15,-118.6315,38.5448,1282.89,32.00,28.40,86.39,290.00,4.00,0.00,29.78,M,10.00,M,FEW,BKN,OVC,M,4100.00,4800.00,6000.00,M,M,M,M,M,M,M,M,27.42,KHTH 301315Z AUTO 29004KT 10SM FEW041 BKN048 OVC060 M00/M02 A2978 RMK A01,M
TMT,2023-03-30 13:15,-117.1971,39.4643,1749.34,15.10,12.60,89.61,0.00,0.00,0.00,29.74,M,10.00,M,CLR,M,M,M,M,M,M,M,M,M,M,M,M,M,M,15.10,KTMT 301315Z AUTO 00000KT 10SM CLR M09/M11 A2974 RMK AO2 T10941108,M
ELY,2023-03-30 13:18,-114.8453,39.2950,1909.00,6.00,4.00,90.42,170.00,11.00,0.00,29.68,M,3.00,M,SCT,M,M,M,100.00,M,M,M,BR,M,M,M,M,M,M,-10.26,KELY 301318Z AUTO 17011KT 3SM BR SCT001 M14/M16 A2968 RMK AO2 T11441156 $,M
BVU,2023-03-30 13:35,-114.8611,35.9475,671.00,44.60,26.60,48.96,220.00,8.00,0.00,29.74,M,10.00,16.00,CLR,M,M,M,M,M,M,M,M,M,M,M,M,M,M,39.63,KBVU 301335Z AUTO 22008G16KT 10SM CLR 07/M03 A2974 RMK AO2,M
CXP,2023-03-30 13:35,-119.7326,39.1923,1431.00,28.40,24.80,86.18,0.00,0.00,0.00,29.80,M,10.00,M,SCT,BKN,OVC,M,4000.00,4800.00,5500.00,M,M,M,M,M,M,M,M,28.40,KCXP 301335Z AUTO 00000KT 10SM SCT040 BKN048 OVC055 M02/M04 A2980 RMK AO2,M
RTS,2023-03-30 13:35,-119.8764,39.6682,1539.00,15.80,14.00,92.44,20.00,4.00,0.00,29.79,M,10.00,M,SCT,SCT,M,M,4400.00,5000.00,M,M,M,M,M,M,M,M,M,8.50,KRTS 301335Z AUTO 02004KT 10SM SCT044 SCT050 M09/M10 A2979 RMK AO2,M
05U,2023-03-30 13:35,-116.0051,39.6042,1811.23,3.20,-0.40,84.56,M,5.00,0.00,29.73,M,10.00,M,CLR,M,M,M,M,M,M,M,M,M,M,M,M,M,M,-7.81,K05U 301335Z AUTO VRB05KT 10SM CLR M16/M18 A2973 RMK A01,M
MEV,2023-03-30 13:35,-119.7500,38.9963,1441.42,28.40,26.60,92.86,330.00,7.00,0.00,29.79,M,10.00,M,FEW,BKN,OVC,M,2700.00,4100.00,4800.00,M,M,M,M,M,M,M,M,20.39,KMEV 301335Z AUTO 33007KT 10SM FEW027 BKN041 OVC048 M02/M03 A2979 RMK AO2,M
BAM,2023-03-30 13:35,-116.8743,40.5990,1382.36,23.00,21.20,92.69,0.00,0.00,0.00,29.75,M,10.00,M,CLR,M,M,M,M,M,M,M,M,M,M,M,M,M,M,23.00,KBAM 301335Z AUTO 00000KT 10SM CLR M05/M06 A2975 RMK AO1,M
HTH,2023-03-30 13:35,-118.6315,38.5448,1282.89,32.00,28.40,86.39,290.00,5.00,0.00,29.79,M,10.00,M,SCT,BKN,M,M,4900.00,6000.00,M,M,M,M,M,M,M,M,M,26.40,KHTH 301335Z AUTO 29005KT 10SM SCT049 BKN060 M00/M02 A2979 RMK A01,M
RNO,2023-03-30 13:43,-119.7711,39.4839,1341.00,28.90,25.00,85.14,0.00,0.00,T,29.80,M,9.00,M,FEW,SCT,BKN,BKN,1000.00,4500.00,7000.00,20000.00,M,M,M,M,M,M,M,28.90,KRNO 301343Z 00000KT 9SM FEW010 SCT045 BKN070 BKN200 M02/M04 A2980 RMK AO2 SNE43 P0000 T10171039,M
NFL,2023-03-30 13:44,-118.7010,39.4166,1199.00,28.90,26.10,89.12,240.00,5.00,0.00,29.78,M,10.00,M,FEW,BKN,BKN,M,5000.00,8000.00,20000.00,M,M,M,M,M,M,M,M,22.71,KNFL 301344Z 24005KT 10SM FEW050 BKN080 BKN200 M02/M03 A2978 RMK AO2 T10171033,M
P68,2023-03-30 13:53,-116.0056,39.6014,1993.00,5.00,1.90,86.68,200.00,9.00,0.00,29.71,1010.20,M,M,M,M,M,M,M,M,M,M,M,M,M,M,M,M,M,-10.06,KP68 301353Z AUTO 20009KT M15/M17 A2971 RMK AO1 SLP102 T11501167,M
DRA,2023-03-30 13:53,-116.0278,36.6206,1009.00,39.00,27.00,61.78,M,3.00,0.00,29.72,1005.20,10.00,M,FEW,SCT,M,M,7500.00,12000.00,M,M,M,M,M,M,M,M,M,36.69,KDRA 301353Z AUTO VRB03KT 10SM FEW075 SCT120 04/M03 A2972 RMK AO2 SLP052 T00391028,M
ELY,2023-03-30 13:53,-114.8453,39.2950,1909.00,5.00,3.00,91.21,170.00,11.00,0.00,29.68,1009.70,4.00,M,CLR,M,M,M,M,M,M,M,BR,T,M,M,M,M,M,-11.65,KELY 301353Z AUTO 17011KT 4SM BR CLR M15/M16 A2968 RMK AO2 SLP097 I1000 T11501161 $,M
VGT,2023-03-30 13:53,-115.1933,36.2111,667.00,44.00,24.10,44.98,0.00,0.00,0.00,29.71,1007.70,10.00,M,CLR,M,M,M,M,M,M,M,M,M,M,M,M,M,M,44.10,KVGT 301353Z 00000KT 10SM CLR 07/M04 A2971 RMK AO2 SLP077 T00671044,M
LOL,2023-03-30 13:53,-118.5701,40.0684,1192.43,21.90,19.90,91.86,0.00,0.00,0.00,29.78,1009.90,10.00,M,CLR,M,M,M,M,M,M,M,M,T,M,M,M,M,M,21.90,KLOL 301353Z AUTO 00000KT 10SM CLR M06/M07 A2978 RMK AO2 SLP099 I1000 T10561067,M
BVU,2023-03-30 13:55,-114.8611,35.9475,671.00,44.60,28.40,52.72,210.00,8.00,0.00,29.75,M,10.00,M,BKN,M,M,M,7000.00,M,M,M,M,M,M,M,M,M,M,39.63,KBVU 301355Z AUTO 21008KT 10SM BKN070 07/M02 A2975 RMK AO2,M
CXP,2023-03-30 13:55,-119.7326,39.1923,1431.00,28.40,26.60,92.86,320.00,8.00,0.00,29.80,M,10.00,M,SCT,BKN,OVC,M,3700.00,4400.00,6000.00,M,M,M,M,M,M,M,M,19.68,KCXP 301355Z AUTO 32008KT 10SM SCT037 BKN044 OVC060 M02/M03 A2980 RMK AO2,M
RNO,2023-03-30 13:55,-119.7711,39.4839,1341.00,30.00,25.00,81.40,0.00,0.00,T,29.80,1009.80,10.00,M,FEW,SCT,BKN,BKN,1000.00,4500.00,7000.00,20000.00,M,M,M,M,M,M,M,30.00,KRNO 301355Z 00000KT 10SM FEW010 SCT045 BKN070 BKN200 M01/M04 A2980 RMK AO2 SNE43 SLP098 P0000 T10111039,M
RTS,2023-03-30 13:55,-119.8764,39.6682,1539.00,17.60,15.80,92.50,0.00,0.00,0.00,29.80,M,10.00,M,CLR,M,M,M,M,M,M,M,M,M,M,M,M,M,M,17.60,KRTS 301355Z AUTO 00000KT 10SM CLR M08/M09 A2980 RMK AO2,M
05U,2023-03-30 13:55,-116.0051,39.6042,1811.23,5.00,1.40,84.68,M,4.00,0.00,29.73,M,10.00,M,CLR,M,M,M,M,M,M,M,M,M,M,M,M,M,M,-4.11,K05U 301355Z AUTO VRB04KT 10SM CLR M15/M17 A2973 RMK A01,M
MEV,2023-03-30 13:55,-119.7500,38.9963,1441.42,28.40,26.60,92.86,330.00,6.00,0.00,29.79,M,10.00,M,FEW,FEW,OVC,M,2100.00,2800.00,4900.00,M,M,M,M,M,M,M,M,21.19,KMEV 301355Z AUTO 33006KT 10SM FEW021 FEW028 OVC049 M02/M03 A2979 RMK AO2,M
BAM,2023-03-30 13:55,-116.8743,40.5990,1382.36,23.00,21.20,92.69,0.00,0.00,0.00,29.75,M,10.00,M,CLR,M,M,M,M,M,M,M,M,M,M,M,M,M,M,23.00,KBAM 301355Z AUTO 00000KT 10SM CLR M05/M06 A2975 RMK AO1,M
HTH,2023-03-30 13:55,-118.6315,38.5448,1282.89,32.00,28.40,86.39,290.00,5.00,0.00,29.79,M,10.00,M,FEW,M,M,M,6000.00,M,M,M,M,M,M,M,M,M,M,26.40,KHTH 301355Z AUTO 29005KT 10SM FEW060 M00/M02 A2979 RMK A01,M
INS,2023-03-30 13:55,-115.6733,36.5872,955.00,33.40,22.30,63.37,300.00,4.00,0.00,29.72,1005.50,10.00,M,CLR,M,M,M,M,M,M,M,M,M,M,M,M,M,M,29.06,KINS 301355Z AUTO 30004KT 10SM CLR 01/M05 A2972 RMK AO2 SLP055 T00081054 $,M
LSV,2023-03-30 13:55,-115.0343,36.2362,570.00,43.30,27.30,52.96,240.00,4.00,0.00,29.71,1005.70,10.00,M,CLR,M,M,M,M,M,M,M,M,M,M,M,M,M,M,40.62,KLSV 301355Z AUTO 24004KT 10SM CLR 06/M03 A2971 RMK AO2 SLP057 T00631026 $,M
EKO,2023-03-30 13:56,-115.7860,40.8242,1367.00,23.00,19.00,84.39,270.00,3.00,0.00,29.71,1008.30,10.00,M,CLR,M,M,M,M,M,M,M,M,M,M,M,M,M,M,18.40,KEKO 301356Z AUTO 27003KT 10SM CLR M05/M07 A2971 RMK AO2 SLP083 T10501072,M
WMC,2023-03-30 13:56,-117.8072,40.9019,1315.00,12.90,8.10,80.74,240.00,3.00,0.00,29.76,1010.50,10.00,M,CLR,M,M,M,M,M,M,M,M,M,M,M,M,M,M,6.85,KWMC 301356Z AUTO 24003KT 10SM CLR M11/M13 A2976 RMK AO2 SLP105 T11061133,M
NFL,2023-03-30 13:56,-118.7010,39.4166,1199.00,30.00,26.10,85.21,230.00,5.00,0.00,29.79,1006.50,10.00,M,FEW,SCT,BKN,M,5000.00,8000.00,20000.00,M,M,M,M,M,M,M,M,24.02,KNFL 301356Z 23005KT 10SM FEW050 SCT080 BKN200 M01/M03 A2979 RMK AO2 SLP065 T10111033,M
TPH,2023-03-30 13:56,-117.0904,38.0505,1654.00,19.00,14.00,80.52,360.00,14.00,0.00,29.73,1009.00,10.00,M,CLR,M,M,M,M,M,M,M,M,M,M,M,M,M,M,4.41,KTPH 301356Z AUTO 36014KT 10SM CLR M07/M10 A2973 RMK AO2 SLP090 T10721100,M
LAS,2023-03-30 13:56,-115.1634,36.0719,663.00,46.00,26.10,45.47,200.00,6.00,0.00,29.73,1006.30,10.00,M,FEW,FEW,SCT,M,5000.00,9000.00,16000.00,M,M,M,M,M,M,M,M,42.39,KLAS 301356Z 20006KT 10SM FEW050 FEW090 SCT160 08/M03 A2973 RMK AO2 SLP063 T00781033,M
BVU,2023-03-30 14:15,-114.8611,35.9475,671.00,44.60,28.40,52.72,210.00,11.00,0.00,29.76,M,10.00,M,BKN,OVC,M,M,7000.00,8500.00,M,M,M,M,M,M,M,M,M,38.39,KBVU 301415Z AUTO 21011KT 10SM BKN070 OVC085 07/M02 A2976 RMK AO2,M
CXP,2023-03-30 14:15,-119.7326,39.1923,1431.00,30.20,24.80,80.07,320.00,9.00,0.00,29.81,M,10.00,M,FEW,OVC,M,M,4500.00,6000.00,M,M,M,M,M,M,M,M,M,21.28,KCXP 301415Z AUTO 32009KT 10SM FEW045 OVC060 M01/M04 A2981 RMK AO2,M
RTS,2023-03-30 14:15,-119.8764,39.6682,1539.00,19.40,17.60,92.57,90.00,4.00,0.00,29.81,M,0.25,M,VV ,M,M,M,0.00,M,M,M,FZFG,M,M,M,M,M,M,12.71,KRTS 301415Z AUTO 09004KT M1/4SM FZFG VV000 M07/M08 A2981 RMK AO2,M
05U,2023-03-30 14:15,-116.0051,39.6042,1811.23,5.00,1.40,84.68,M,4.00,0.00,29.74,M,10.00,M,CLR,M,M,M,M,M,M,M,M,M,M,M,M,M,M,-4.11,K05U 301415Z AUTO VRB04KT 10SM CLR M15/M17 A2974 RMK A01,M
MEV,2023-03-30 14:15,-119.7500,38.9963,1441.42,30.20,26.60,86.28,330.00,6.00,0.00,29.80,M,10.00,M,FEW,OVC,M,M,3300.00,4800.00,M,M,M,M,M,M,M,M,M,23.36,KMEV 301415Z AUTO 33006KT 10SM FEW033 OVC048 M01/M03 A2980 RMK AO2,M
BAM,2023-03-30 14:15,-116.8743,40.5990,1382.36,26.60,23.00,86.07,80.00,3.00,0.00,29.75,M,10.00,M,CLR,M,M,M,M,M,M,M,M,M,M,M,M,M,M,22.52,KBAM 301415Z AUTO 08003KT 10SM CLR M03/M05 A2975 RMK AO1,M
HTH,2023-03-30 14:15,-118.6315,38.5448,1282.89,32.00,28.40,86.39,270.00,6.00,0.00,29.80,M,10.00,M,BKN,M,M,M,6500.00,M,M,M,M,M,M,M,M,M,M,25.53,KHTH 301415Z AUTO 27006KT 10SM BKN065 00/M02 A2980 RMK A01,M
BVU,2023-03-30 14:35,-114.8611,35.9475,671.00,44.60,28.40,52.72,210.00,12.00,0.00,29.76,M,10.00,M,SCT,OVC,M,M,7000.00,8500.00,M,M,M,M,M,M,M,M,M,38.04,KBVU 301435Z AUTO 21012KT 10SM SCT070 OVC085 07/M02 A2976 RMK AO2,M
CXP,2023-03-30 14:35,-119.7326,39.1923,1431.00,28.40,23.00,79.92,90.00,3.00,0.00,29.81,M,10.00,M,OVC,M,M,M,6000.00,M,M,M,M,M,M,M,M,M,M,24.57,KCXP 301435Z AUTO 09003KT 10SM OVC060 M02/M05 A2981 RMK AO2,M
RTS,2023-03-30 14:35,-119.8764,39.6682,1539.00,17.60,14.00,85.51,0.00,0.00,0.00,29.82,M,10.00,M,CLR,M,M,M,M,M,M,M,M,M,M,M,M,M,M,17.60,KRTS 301435Z AUTO 00000KT 10SM CLR M08/M10 A2982 RMK AO2,M
05U,2023-03-30 14:35,-116.0051,39.6042,1811.23,8.60,5.00,84.93,M,4.00,0.00,29.74,M,9.00,M,CLR,M,M,M,M,M,M,M,M,M,M,M,M,M,M,0.09,K05U 301435Z AUTO VRB04KT 9SM CLR M13/M15 A2974 RMK A01,M
MEV,2023-03-30 14:35,-119.7500,38.9963,1441.42,30.20,26.60,86.28,10.00,3.00,0.00,29.80,M,10.00,M,OVC,M,M,M,4900.00,M,M,M,M,M,M,M,M,M,M,26.63,KMEV 301435Z AUTO 01003KT 10SM OVC049 M01/M03 A2980 RMK AO2,M
BAM,2023-03-30 14:35,-116.8743,40.5990,1382.36,28.40,23.00,79.92,0.00,0.00,0.00,29.76,M,10.00,M,CLR,M,M,M,M,M,M,M,M,M,M,M,M,M,M,28.40,KBAM 301435Z AUTO 00000KT 10SM CLR M02/M05 A2976 RMK AO1,M
HTH,2023-03-30 14:35,-118.6315,38.5448,1282.89,33.80,28.40,80.36,300.00,4.00,0.00,29.80,M,10.00,M,BKN,OVC,M,M,6000.00,7000.00,M,M,M,M,M,M,M,M,M,29.52,KHTH 301435Z AUTO 30004KT 10SM BKN060 OVC070 01/M02 A2980 RMK A01,M
P68,2023-03-30 14:53,-116.0056,39.6014,1993.00,7.00,5.00,91.29,220.00,9.00,0.00,29.72,1010.60,M,M,M,M,M,M,M,M,M,M,M,M,M,M,M,M,M,-7.57,KP68 301453Z AUTO 22009KT M14/M15 A2972 RMK AO1 SLP106 T11391150 53004,M
DRA,2023-03-30 14:53,-116.0278,36.6206,1009.00,41.00,28.00,59.55,250.00,8.00,0.00,29.75,1006.00,10.00,M,OVC,M,M,M,10000.00,M,M,M,M,M,M,M,M,M,M,35.20,KDRA 301453Z AUTO 25008KT 10SM OVC100 05/M02 A2975 RMK AO2 SLP060 T00501022 53018,M
ELY,2023-03-30 14:53,-114.8453,39.2950,1909.00,9.00,9.00,100.00,180.00,9.00,0.00,29.69,1009.40,10.00,M,CLR,M,M,M,M,M,M,M,M,0.01,0.01,M,M,M,M,-5.09,KELY 301453Z AUTO 18009KT 10SM CLR M13/M13 A2969 RMK AO2 SLP094 I1001 I3001 T11281128 53006 $,M
LOL,2023-03-30 14:53,-118.5701,40.0684,1192.43,27.00,25.00,92.05,240.00,3.00,0.00,29.79,1010.30,10.00,M,CLR,M,M,M,M,M,M,M,M,M,T,M,M,M,M,22.97,KLOL 301453Z AUTO 24003KT 10SM CLR M03/M04 A2979 RMK AO2 SLP103 I3000 T10281039 53007,M
VGT,2023-03-30 14:53,-115.1933,36.2111,667.00,47.00,25.00,41.99,0.00,0.00,0.00,29.74,1008.50,10.00,M,CLR,M,M,M,M,M,M,M,M,M,M,M,M,M,M,46.90,KVGT 301453Z 00000KT 10SM CLR 08/M04 A2974 RMK AO2 SLP085 T00831039 53015,M
BVU,2023-03-30 14:55,-114.8611,35.9475,671.00,44.60,28.40,52.72,220.00,10.00,0.00,29.77,M,10.00,M,BKN,OVC,M,M,7500.00,8500.00,M,M,M,M,M,M,M,M,M,38.77,KBVU 301455Z AUTO 22010KT 10SM BKN075 OVC085 07/M02 A2977 RMK AO2,M
CXP,2023-03-30 14:55,-119.7326,39.1923,1431.00,28.40,24.80,86.18,0.00,0.00,0.00,29.82,M,10.00,M,OVC,M,M,M,6500.00,M,M,M,M,M,M,M,M,M,M,28.40,KCXP 301455Z AUTO 00000KT 10SM OVC065 M02/M04 A2982 RMK AO2,M
RNO,2023-03-30 14:55,-119.7711,39.4839,1341.00,30.00,26.10,85.21,10.00,4.00,0.00,29.83,1010.80,10.00,M,FEW,FEW,M,M,8500.00,20000.00,M,M,M,M,M,M,M,M,M,25.08,KRNO 301455Z 01004KT 10SM FEW085 FEW200 M01/M03 A2983 RMK AO2 SLP108 60000 T10111033 53009,M
RTS,2023-03-30 14:55,-119.8764,39.6682,1539.00,17.60,15.80,92.50,0.00,0.00,0.00,29.82,M,10.00,M,CLR,M,M,M,M,M,M,M,M,M,M,M,M,M,M,17.60,KRTS 301455Z AUTO 00000KT 10SM CLR M08/M09 A2982 RMK AO2,M
05U,2023-03-30 14:55,-116.0051,39.6042,1811.23,8.60,5.00,84.93,M,5.00,0.00,29.74,M,3.00,M,CLR,M,M,M,M,M,M,M,BR,M,M,M,M,M,M,-1.39,K05U 301455Z AUTO VRB05KT 3SM BR CLR M13/M15 A2974 RMK A01,M
MEV,2023-03-30 14:55,-119.7500,38.9963,1441.42,30.20,26.60,86.28,110.00,4.00,0.00,29.81,M,10.00,M,FEW,OVC,M,M,4400.00,5000.00,M,M,M,M,M,M,M,M,M,25.32,KMEV 301455Z AUTO 11004KT 10SM FEW044 OVC050 M01/M03 A2981 RMK AO2,M
BAM,2023-03-30 14:55,-116.8743,40.5990,1382.36,30.20,24.80,80.07,0.00,0.00,0.00,29.76,M,10.00,M,CLR,M,M,M,M,M,M,M,M,M,M,M,M,M,M,30.20,KBAM 301455Z AUTO 00000KT 10SM CLR M01/M04 A2976 RMK AO1,M
HTH,2023-03-30 14:55,-118.6315,38.5448,1282.89,35.60,28.40,74.80,300.00,8.00,0.00,29.81,M,10.00,M,OVC,M,M,M,6500.00,M,M,M,M,M,M,M,M,M,M,28.55,KHTH 301455Z AUTO 30008KT 10SM OVC065 02/M02 A2981 RMK A01,M
INS,2023-03-30 14:55,-115.6733,36.5872,955.00,41.50,26.10,54.01,280.00,10.00,0.00,29.74,1006.00,10.00,M,BKN,BKN,OVC,M,5500.00,7500.00,9000.00,M,M,M,M,M,M,M,M,34.88,KINS 301455Z AUTO 28010KT 10SM BKN055 BKN075 OVC090 05/M03 A2974 RMK AO2 SLP060 T00531033 52014 $,M
LSV,2023-03-30 14:55,-115.0343,36.2362,570.00,47.00,29.80,51.17,190.00,9.00,0.00,29.72,1006.10,10.00,M,CLR,M,M,M,M,M,M,M,M,M,M,M,M,M,M,42.04,KLSV 301455Z AUTO 19009KT 10SM CLR 08/M01 A2972 RMK AO2 SLP061 T00831012 52017 $,M
EKO,2023-03-30 14:56,-115.7860,40.8242,1367.00,26.10,21.90,83.89,200.00,3.00,0.00,29.72,1008.60,10.00,M,OVC,M,M,M,4800.00,M,M,M,M,M,M,M,M,M,M,21.94,KEKO 301456Z AUTO 20003KT 10SM OVC048 M03/M06 A2972 RMK AO2 SLP086 T10331056 53004,M
WMC,2023-03-30 14:56,-117.8072,40.9019,1315.00,21.90,19.00,88.40,0.00,0.00,0.00,29.77,1010.50,10.00,M,CLR,M,M,M,M,M,M,M,M,M,T,M,M,M,M,21.90,KWMC 301456Z AUTO 00000KT 10SM CLR M06/M07 A2977 RMK AO2 SLP105 I3000 T10561072 53010,M
NFL,2023-03-30 14:56,-118.7010,39.4166,1199.00,34.00,28.90,81.37,270.00,5.00,0.00,29.80,1006.90,10.00,M,FEW,SCT,SCT,M,5000.00,8000.00,18000.00,M,M,M,M,M,M,M,M,28.77,KNFL 301456Z 27005KT 10SM FEW050 SCT080 SCT180 01/M02 A2980 RMK AO2 SLP069 T00111017 53012,M
TPH,2023-03-30 14:56,-117.0904,38.0505,1654.00,21.00,12.90,70.45,10.00,13.00,0.00,29.75,1009.60,10.00,M,CLR,M,M,M,M,M,M,M,M,M,M,M,M,M,M,7.48,KTPH 301456Z AUTO 01013KT 10SM CLR M06/M11 A2975 RMK AO2 SLP096 T10611106 53014,M
LAS,2023-03-30 14:56,-115.1634,36.0719,663.00,46.00,28.00,49.18,180.00,7.00,0.00,29.75,1007.00,10.00,M,FEW,FEW,SCT,M,5000.00,9000.00,16000.00,M,M,M,M,M,M,M,M,41.84,KLAS 301456Z 18007KT 10SM FEW050 FEW090 SCT160 08/M02 A2975 RMK AO2 SLP070 T00781022 53015,M
BVU,2023-03-30 15:15,-114.8611,35.9475,671.00,46.40,28.40,49.24,220.00,11.00,0.00,29.77,M,10.00,M,SCT,BKN,M,M,7000.00,8000.00,M,M,M,M,M,M,M,M,M,40.66,KBVU 301515Z AUTO 22011KT 10SM SCT070 BKN080 08/M02 A2977 RMK AO2,M
CXP,2023-03-30 15:15,-119.7326,39.1923,1431.00,28.40,24.80,86.18,90.00,4.00,0.00,29.83,M,10.00,M,BKN,OVC,M,M,5500.00,6500.00,M,M,M,M,M,M,M,M,M,23.22,KCXP 301515Z AUTO 09004KT 10SM BKN055 OVC065 M02/M04 A2983 RMK AO2,M
RTS,2023-03-30 15:15,-119.8764,39.6682,1539.00,19.40,17.60,92.57,0.00,0.00,0.00,29.82,M,1.50,M,CLR,M,M,M,M,M,M,M,BR,M,M,M,M,M,M,19.40,KRTS 301515Z AUTO 00000KT 1 1/2SM BR CLR M07/M08 A2982 RMK AO2,M
05U,2023-03-30 15:15,-116.0051,39.6042,1811.23,12.20,8.60,85.17,M,5.00,0.00,29.74,M,8.00,M,CLR,M,M,M,M,M,M,M,M,M,M,M,M,M,M,2.88,K05U 301515Z AUTO VRB05KT 8SM CLR M11/M13 A2974 RMK A01,M
MEV,2023-03-30 15:15,-119.7500,38.9963,1441.42,30.20,26.60,86.28,130.00,4.00,0.00,29.82,M,10.00,M,OVC,M,M,M,5000.00,M,M,M,M,M,M,M,M,M,M,25.32,KMEV 301515Z AUTO 13004KT 10SM OVC050 M01/M03 A2982 RMK AO2,M
BAM,2023-03-30 15:15,-116.8743,40.5990,1382.36,30.20,26.60,86.28,0.00,0.00,0.00,29.76,M,10.00,M,CLR,M,M,M,M,M,M,M,M,M,M,M,M,M,M,30.20,KBAM 301515Z AUTO 00000KT 10SM CLR M01/M03 A2976 RMK AO1,M
HTH,2023-03-30 15:15,-118.6315,38.5448,1282.89,35.60,28.40,74.80,320.00,9.00,0.00,29.81,M,10.00,M,BKN,OVC,M,M,6500.00,7500.00,M,M,M,M,M,M,M,M,M,27.99,KHTH 301515Z AUTO 32009KT 10SM BKN065 OVC075 02/M02 A2981 RMK A01,M
TMT,2023-03-30 15:15,-117.1971,39.4643,1749.34,23.70,19.20,82.66,220.00,6.00,0.00,29.76,M,10.00,M,CLR,M,M,M,M,M,M,M,M,M,M,M,M,M,M,15.53,KTMT 301515Z AUTO 22006KT 10SM CLR M05/M07 A2976 RMK AO2 T10461071,M
BVU,2023-03-30 15:35,-114.8611,35.9475,671.00,48.20,28.40,46.02,220.00,15.00,0.00,29.78,M,10.00,M,SCT,M,M,M,8000.00,M,M,M,M,M,M,M,M,M,M,41.78,KBVU 301535Z AUTO 22015KT 10SM SCT080 09/M02 A2978 RMK AO2,M
CXP,2023-03-30 15:35,-119.7326,39.1923,1431.00,30.20,26.60,86.28,0.00,0.00,0.00,29.84,M,10.00,M,FEW,SCT,M,M,5000.00,5500.00,M,M,M,M,M,M,M,M,M,30.20,KCXP 301535Z AUTO 00000KT 10SM FEW050 SCT055 M01/M03 A2984 RMK AO2,M
RTS,2023-03-30 15:35,-119.8764,39.6682,1539.00,21.20,19.40,92.63,0.00,0.00,0.00,29.83,M,9.00,M,CLR,M,M,M,M,M,M,M,M,M,M,M,M,M,M,21.20,KRTS 301535Z AUTO 00000KT 9SM CLR M06/M07 A2983 RMK AO2,M
05U,2023-03-30 15:35,-116.0051,39.6042,1811.23,12.20,8.60,85.17,230.00,7.00,0.00,29.74,M,5.00,M,CLR,M,M,M,M,M,M,M,BR,M,M,M,M,M,M,0.64,K05U 301535Z AUTO 23007KT 220V290 5SM BR CLR M11/M13 A2974 RMK A01,M
MEV,2023-03-30 15:35,-119.7500,38.9963,1441.42,30.20,26.60,86.28,90.00,5.00,0.00,29.83,M,10.00,M,BKN,BKN,M,M,4800.00,5500.00,M,M,M,M,M,M,M,M,M,24.26,KMEV 301535Z AUTO 09005KT 10SM BKN048 BKN055 M01/M03 A2983 RMK AO2,M
BAM,2023-03-30 15:35,-116.8743,40.5990,1382.36,32.00,26.60,80.22,0.00,0.00,0.00,29.77,M,10.00,M,CLR,M,M,M,M,M,M,M,M,M,M,M,M,M,M,32.00,KBAM 301535Z AUTO 00000KT 10SM CLR 00/M03 A2977 RMK AO1,M
HTH,2023-03-30 15:35,-118.6315,38.5448,1282.89,37.40,26.60,64.70,320.00,6.00,0.00,29.82,M,10.00,M,SCT,BKN,M,M,6000.00,7000.00,M,M,M,M,M,M,M,M,M,32.03,KHTH 301535Z AUTO 32006KT 10SM SCT060 BKN070 03/M03 A2982 RMK A01,M
TMT,2023-03-30 15:35,-117.1971,39.4643,1749.34,25.50,21.00,82.79,220.00,6.00,0.00,29.76,M,10.00,M,CLR,M,M,M,M,M,M,M,M,M,M,M,M,M,M,17.70,KTMT 301535Z AUTO 22006KT 10SM CLR M04/M06 A2976 RMK AO2 T10361061,M
P68,2023-03-30 15:53,-116.0056,39.6014,1993.00,10.90,9.00,91.86,210.00,6.00,0.00,29.72,1010.40,M,M,M,M,M,M,M,M,M,M,M,M,M,M,M,M,M,0.12,KP68 301553Z AUTO 21006KT M12/M13 A2972 RMK AO1 SLP104 T11171128,M
DRA,2023-03-30 15:53,-116.0278,36.6206,1009.00,43.00,28.90,57.21,240.00,13.00,0.00,29.77,1006.70,10.00,18.00,FEW,BKN,OVC,M,6000.00,8000.00,10000.00,M,M,M,M,M,M,M,M,35.66,KDRA 301553Z AUTO 24013G18KT 10SM FEW060 BKN080 OVC100 06/M02 A2977 RMK AO2 SLP067 T00611017,M
ELY,2023-03-30 15:53,-114.8453,39.2950,1909.00,10.90,10.00,96.07,180.00,12.00,0.00,29.70,1009.60,10.00,M,CLR,M,M,M,M,M,M,M,M,M,M,M,M,M,M,-4.85,KELY 301553Z AUTO 18012KT 10SM CLR M12/M12 A2970 RMK AO2 SLP096 T11171122,M
LOL,2023-03-30 15:53,-118.5701,40.0684,1192.43,33.00,28.00,81.30,0.00,0.00,0.00,29.80,1010.80,10.00,M,CLR,M,M,M,M,M,M,M,M,M,M,M,M,M,M,33.10,KLOL 301553Z AUTO 00000KT 10SM CLR 01/M02 A2980 RMK AO2 SLP108 T00061022,M
VGT,2023-03-30 15:53,-115.1933,36.2111,667.00,51.00,25.00,35.89,0.00,0.00,0.00,29.75,1008.90,10.00,M,BKN,M,M,M,11000.00,M,M,M,M,M,M,M,M,M,M,51.10,KVGT 301553Z 00000KT 10SM BKN110 11/M04 A2975 RMK AO2 SLP089 T01061039,M
BVU,2023-03-30 15:55,-114.8611,35.9475,671.00,48.20,30.20,49.53,210.00,15.00,0.00,29.78,M,10.00,M,CLR,M,M,M,M,M,M,M,M,M,M,M,M,M,M,41.78,KBVU 301555Z AUTO 21015KT 10SM CLR 09/M01 A2978 RMK AO2,M
CXP,2023-03-30 15:55,-119.7326,39.1923,1431.00,30.20,26.60,86.28,0.00,0.00,0.00,29.84,M,10.00,M,CLR,M,M,M,M,M,M,M,M,M,M,M,M,M,M,30.20,KCXP 301555Z AUTO 00000KT 10SM CLR M01/M03 A2984 RMK AO2,M
RNO,2023-03-30 15:55,-119.7711,39.4839,1341.00,33.00,27.00,78.03,M,3.00,0.00,29.84,1011.20,10.00,M,FEW,FEW,M,M,3000.00,8500.00,M,M,M,M,M,M,M,M,M,29.95,KRNO 301555Z VRB03KT 10SM FEW030 FEW085 01/M03 A2984 RMK AO2 SLP112 T00061028,M
RTS,2023-03-30 15:55,-119.8764,39.6682,1539.00,23.00,21.20,92.69,0.00,0.00,0.00,29.83,M,2.00,M,CLR,M,M,M,M,M,M,M,BR,M,M,M,M,M,M,23.00,KRTS 301555Z AUTO 00000KT 2SM BR CLR M05/M06 A2983 RMK AO2 VIS 3/4V5,M
05U,2023-03-30 15:55,-116.0051,39.6042,1811.23,14.00,8.60,78.68,M,5.00,0.00,29.75,M,5.00,M,CLR,M,M,M,M,M,M,M,BR,M,M,M,M,M,M,5.02,K05U 301555Z AUTO VRB05KT 5SM BR CLR M10/M13 A2975 RMK A01,M
MEV,2023-03-30 15:55,-119.7500,38.9963,1441.42,30.20,28.40,92.92,110.00,5.00,0.00,29.83,M,10.00,M,FEW,M,M,M,5000.00,M,M,M,M,M,M,M,M,M,M,24.26,KMEV 301555Z AUTO 11005KT 10SM FEW050 M01/M02 A2983 RMK AO2,M
BAM,2023-03-30 15:55,-116.8743,40.5990,1382.36,32.00,26.60,80.22,0.00,0.00,0.00,29.77,M,10.00,M,SCT,M,M,M,4700.00,M,M,M,M,M,M,M,M,M,M,32.00,KBAM 301555Z AUTO 00000KT 10SM SCT047 00/M03 A2977 RMK AO1,M
HTH,2023-03-30 15:55,-118.6315,38.5448,1282.89,37.40,26.60,64.70,320.00,4.00,0.00,29.82,M,10.00,10.00,CLR,M,M,M,M,M,M,M,M,M,M,M,M,M,M,33.73,KHTH 301555Z AUTO 32004G10KT 10SM CLR 03/M03 A2982 RMK A01,M
INS,2023-03-30 15:55,-115.6733,36.5872,955.00,44.00,26.40,49.87,350.00,11.00,0.00,29.76,1006.40,10.00,M,OVC,M,M,M,6000.00,M,M,M,M,M,M,M,M,M,M,37.50,KINS 301555Z AUTO 35011KT 10SM OVC060 07/M03 A2976 RMK AO2 SLP064 T00661031 $,M
LSV,2023-03-30 15:55,-115.0343,36.2362,570.00,49.60,30.70,47.96,220.00,5.00,0.00,29.74,1006.60,10.00,M,CLR,M,M,M,M,M,M,M,M,M,M,M,M,M,M,47.30,KLSV 301555Z AUTO 22005KT 10SM CLR 10/M01 A2974 RMK AO2 SLP066 T00981007 $,M
EKO,2023-03-30 15:56,-115.7860,40.8242,1367.00,28.90,21.00,71.96,230.00,9.00,0.00,29.72,1008.30,10.00,M,OVC,M,M,M,6000.00,M,M,M,M,M,M,M,M,M,M,19.66,KEKO 301556Z AUTO 23009KT 10SM OVC060 M02/M06 A2972 RMK AO2 SLP083 T10171061,M
WMC,2023-03-30 15:56,-117.8072,40.9019,1315.00,30.00,21.90,71.48,0.00,0.00,0.00,29.78,1010.30,10.00,M,CLR,M,M,M,M,M,M,M,M,M,M,M,M,M,M,30.00,KWMC 301556Z AUTO 00000KT 10SM CLR M01/M06 A2978 RMK AO2 SLP103 T10111056,M
NFL,2023-03-30 15:56,-118.7010,39.4166,1199.00,38.00,28.90,69.73,270.00,7.00,0.00,29.81,1007.20,10.00,M,FEW,SCT,SCT,M,5000.00,10000.00,20000.00,M,M,M,M,M,M,M,M,31.97,KNFL 301556Z COR 27007KT 10SM FEW050 SCT100 SCT200 03/M02 A2981 RMK AO2 SLP072 T00331017,M
TPH,2023-03-30 15:56,-117.0904,38.0505,1654.00,26.10,19.00,74.16,20.00,9.00,0.00,29.77,1009.60,10.00,M,CLR,M,M,M,M,M,M,M,M,M,M,M,M,M,M,16.18,KTPH 301556Z AUTO 02009KT 10SM CLR M03/M07 A2977 RMK AO2 SLP096 T10331072,M
LAS,2023-03-30 15:56,-115.1634,36.0719,663.00,51.00,27.00,38.99,M,4.00,0.00,29.76,1007.30,10.00,M,FEW,SCT,BKN,M,5000.00,10000.00,16000.00,M,M,M,M,M,M,M,M,51.10,KLAS 301556Z VRB04KT 10SM FEW050 SCT100 BKN160 11/M03 A2976 RMK AO2 SLP073 T01061028,M
BVU,2023-03-30 16:15,-114.8611,35.9475,671.00,48.20,30.20,49.53,210.00,12.00,0.00,29.79,M,10.00,M,CLR,M,M,M,M,M,M,M,M,M,M,M,M,M,M,42.62,KBVU 301615Z AUTO 21012KT 10SM CLR 09/M01 A2979 RMK AO2,M
CXP,2023-03-30 16:15,-119.7326,39.1923,1431.00,32.00,26.60,80.22,90.00,3.00,0.00,29.84,M,10.00,M,CLR,M,M,M,M,M,M,M,M,M,M,M,M,M,M,28.69,KCXP 301615Z AUTO 09003KT 10SM CLR 00/M03 A2984 RMK AO2,M
RTS,2023-03-30 16:15,-119.8764,39.6682,1539.00,24.80,23.00,92.74,100.00,3.00,0.00,29.83,M,9.00,M,CLR,M,M,M,M,M,M,M,M,M,M,M,M,M,M,20.46,KRTS 301615Z AUTO 10003KT 9SM CLR M04/M05 A2983 RMK AO2,M
05U,2023-03-30 16:15,-116.0051,39.6042,1811.23,17.60,14.00,85.51,M,4.00,0.00,29.75,M,9.00,M,CLR,M,M,M,M,M,M,M,M,M,M,M,M,M,M,10.60,K05U 301615Z AUTO VRB04KT 9SM CLR M08/M10 A2975 RMK A01,M
MEV,2023-03-30 16:15,-119.7500,38.9963,1441.42,32.00,28.40,86.39,140.00,4.00,0.00,29.84,M,10.00,M,CLR,M,M,M,M,M,M,M,M,M,M,M,M,M,M,27.42,KMEV 301615Z AUTO 14004KT 10SM CLR M00/M02 A2984 RMK AO2,M
BAM,2023-03-30 16:15,-116.8743,40.5990,1382.36,33.80,28.40,80.36,0.00,0.00,0.00,29.77,M,10.00,M,SCT,M,M,M,4700.00,M,M,M,M,M,M,M,M,M,M,33.80,KBAM 301615Z AUTO 00000KT 10SM SCT047 01/M02 A2977 RMK AO1,M
HTH,2023-03-30 16:15,-118.6315,38.5448,1282.89,37.40,26.60,64.70,310.00,7.00,0.00,29.83,M,10.00,M,CLR,M,M,M,M,M,M,M,M,M,M,M,M,M,M,31.36,KHTH 301615Z AUTO 31007KT 10SM CLR 03/M03 A2983 RMK A01,M
LSV,2023-03-30 16:20,-115.0343,36.2362,570.00,53.60,30.20,40.54,200.00,9.00,0.00,29.74,1006.60,10.00,M,BKN,M,M,M,10000.00,M,M,M,M,M,M,M,M,M,M,53.60,KLSV 301620Z 20009KT 10SM BKN100 12/M01 A2974 RMK SLP066 $,M
BVU,2023-03-30 16:35,-114.8611,35.9475,671.00,50.00,30.20,46.31,200.00,12.00,0.00,29.79,M,10.00,19.00,CLR,M,M,M,M,M,M,M,M,M,M,M,M,M,M,50.00,KBVU 301635Z AUTO 20012G19KT 10SM CLR 10/M01 A2979 RMK AO2,M
CXP,2023-03-30 16:35,-119.7326,39.1923,1431.00,33.80,26.60,74.63,0.00,0.00,0.00,29.85,M,10.00,M,CLR,M,M,M,M,M,M,M,M,M,M,M,M,M,M,33.80,KCXP 301635Z AUTO 00000KT 10SM CLR 01/M03 A2985 RMK AO2,M
RTS,2023-03-30 16:35,-119.8764,39.6682,1539.00,24.80,24.80,100.00,0.00,0.00,0.00,29.84,M,10.00,M,CLR,M,M,M,M,M,M,M,M,M,M,M,M,M,M,24.80,KRTS 301635Z AUTO 00000KT 10SM CLR M04/M04 A2984 RMK AO2,M
05U,2023-03-30 16:35,-116.0051,39.6042,1811.23,35.60,30.20,80.51,M,3.00,0.00,29.76,M,10.00,M,CLR,M,M,M,M,M,M,M,M,M,M,M,M,M,M,32.80,K05U 301635Z AUTO VRB03KT 10SM CLR 02/M01 A2976 RMK A01,M
MEV,2023-03-30 16:35,-119.7500,38.9963,1441.42,33.80,28.40,80.36,0.00,0.00,0.00,29.84,M,10.00,M,FEW,M,M,M,1100.00,M,M,M,M,M,M,M,M,M,M,33.80,KMEV 301635Z AUTO 00000KT 10SM FEW011 01/M02 A2984 RMK AO2,M
BAM,2023-03-30 16:35,-116.8743,40.5990,1382.36,33.80,26.60,74.63,0.00,0.00,0.00,29.78,M,10.00,M,CLR,M,M,M,M,M,M,M,M,M,M,M,M,M,M,33.80,KBAM 301635Z AUTO 00000KT 10SM CLR 01/M03 A2978 RMK AO1,M
HTH,2023-03-30 16:35,-118.6315,38.5448,1282.89,39.20,26.60,60.29,330.00,5.00,0.00,29.83,M,10.00,M,CLR,M,M,M,M,M,M,M,M,M,M,M,M,M,M,34.95,KHTH 301635Z AUTO 33005KT 10SM CLR 04/M03 A2983 RMK A01,M
P68,2023-03-30 16:53,-116.0056,39.6014,1993.00,19.00,17.10,92.15,0.00,0.00,0.00,29.74,1010.60,M,M,M,M,M,M,M,M,M,M,M,M,M,M,M,M,M,19.00,KP68 301653Z AUTO 00000KT M07/M08 A2974 RMK AO1 SLP106 T10721083,M
DRA,2023-03-30 16:53,-116.0278,36.6206,1009.00,45.00,28.90,53.00,220.00,12.00,0.00,29.79,1007.30,10.00,21.00,FEW,BKN,BKN,M,3900.00,5500.00,7000.00,M,M,M,M,M,M,M,M,38.55,KDRA 301653Z AUTO 22012G21KT 10SM FEW039 BKN055 BKN070 07/M02 A2979 RMK AO2 SLP073 T00721017,M
ELY,2023-03-30 16:53,-114.8453,39.2950,1909.00,14.00,12.00,91.57,180.00,11.00,0.00,29.72,1010.00,10.00,M,CLR,M,M,M,M,M,M,M,M,M,M,M,M,M,M,-0.28,KELY 301653Z AUTO 18011KT 10SM CLR M10/M11 A2972 RMK AO2 SLP100 T11001111,M
VGT,2023-03-30 16:53,-115.1933,36.2111,667.00,54.00,25.00,32.26,300.00,9.00,0.00,29.77,1009.50,10.00,M,FEW,M,M,M,10000.00,M,M,M,M,M,M,M,M,M,M,54.00,KVGT 301653Z 30009KT 10SM FEW100 12/M04 A2977 RMK AO2 SLP095 T01221039,M
LOL,2023-03-30 16:53,-118.5701,40.0684,1192.43,38.00,25.00,59.36,0.00,0.00,0.00,29.81,1010.60,10.00,M,CLR,M,M,M,M,M,M,M,M,M,M,M,M,M,M,37.90,KLOL 301653Z AUTO 00000KT 10SM CLR 03/M04 A2981 RMK AO2 SLP106 T00331039,M
BVU,2023-03-30 16:55,-114.8611,35.9475,671.00,50.00,28.40,43.03,200.00,11.00,0.00,29.80,M,10.00,M,CLR,M,M,M,M,M,M,M,M,M,M,M,M,M,M,50.00,KBVU 301655Z AUTO 20011KT 10SM CLR 10/M02 A2980 RMK AO2,M
CXP,2023-03-30 16:55,-119.7326,39.1923,1431.00,35.60,26.60,69.46,0.00,0.00,0.00,29.85,M,10.00,M,CLR,M,M,M,M,M,M,M,M,M,M,M,M,M,M,35.60,KCXP 301655Z AUTO 00000KT 10SM CLR 02/M03 A2985 RMK AO2,M
RNO,2023-03-30 16:55,-119.7711,39.4839,1341.00,37.00,26.10,64.38,0.00,0.00,0.00,29.85,1010.90,10.00,M,FEW,FEW,M,M,1500.00,8000.00,M,M,M,M,M,M,M,M,M,37.00,KRNO 301655Z 00000KT 10SM FEW015 FEW080 03/M03 A2985 RMK AO2 SLP109 T00281033,M
RTS,2023-03-30 16:55,-119.8764,39.6682,1539.00,26.60,26.60,100.00,130.00,5.00,0.00,29.84,M,9.00,M,CLR,M,M,M,M,M,M,M,M,M,M,M,M,M,M,19.98,KRTS 301655Z AUTO 13005KT 9SM CLR M03/M03 A2984 RMK AO2,M
05U,2023-03-30 16:55,-116.0051,39.6042,1811.23,23.00,17.60,79.47,M,4.00,0.00,29.77,M,10.00,M,CLR,M,M,M,M,M,M,M,M,M,M,M,M,M,M,16.91,K05U 301655Z AUTO VRB04KT 10SM CLR M05/M08 A2977 RMK A01,M
MEV,2023-03-30 16:55,-119.7500,38.9963,1441.42,33.80,28.40,80.36,0.00,0.00,0.00,29.85,M,10.00,M,FEW,M,M,M,1100.00,M,M,M,M,M,M,M,M,M,M,33.80,KMEV 301655Z AUTO 00000KT 10SM FEW011 01/M02 A2985 RMK AO2,M
BAM,2023-03-30 16:55,-116.8743,40.5990,1382.36,35.60,26.60,69.46,0.00,0.00,0.00,29.78,M,10.00,M,CLR,M,M,M,M,M,M,M,M,M,M,M,M,M,M,35.60,KBAM 301655Z AUTO 00000KT 10SM CLR 02/M03 A2978 RMK AO1,M
HTH,2023-03-30 16:55,-118.6315,38.5448,1282.89,39.20,24.80,55.95,320.00,5.00,0.00,29.84,M,10.00,11.00,CLR,M,M,M,M,M,M,M,M,M,M,M,M,M,M,34.95,KHTH 301655Z AUTO 32005G11KT 10SM CLR 04/M04 A2984 RMK A01,M
INS,2023-03-30 16:55,-115.6733,36.5872,955.00,48.00,24.80,39.95,320.00,14.00,0.00,29.78,1006.90,10.00,M,BKN,OVC,M,M,3400.00,5000.00,M,M,M,M,M,M,M,M,M,41.79,KINS 301655Z AUTO 32014KT 10SM BKN034 OVC050 09/M04 A2978 RMK AO2 SLP069 T00891040 $,M
LSV,2023-03-30 16:55,-115.0343,36.2362,570.00,54.50,29.50,38.13,160.00,9.00,0.00,29.76,1007.20,10.00,M,BKN,M,M,M,10000.00,M,M,M,M,M,M,M,M,M,M,54.50,KLSV 301655Z 16009KT 10SM BKN100 13/M01 A2976 RMK AO2A SLP072 T01251014 $,M
EKO,2023-03-30 16:56,-115.7860,40.8242,1367.00,34.00,24.10,66.72,230.00,8.00,0.00,29.73,1008.20,10.00,M,FEW,M,M,M,6000.00,M,M,M,M,M,M,M,M,M,M,26.58,KEKO 301656Z AUTO 23008KT 10SM FEW060 01/M04 A2973 RMK AO2 SLP082 T00111044,M
WMC,2023-03-30 16:56,-117.8072,40.9019,1315.00,33.00,23.00,66.06,220.00,3.00,0.00,29.79,1010.30,10.00,M,CLR,M,M,M,M,M,M,M,M,M,M,M,M,M,M,29.95,KWMC 301656Z AUTO 22003KT 10SM CLR 01/M05 A2979 RMK AO2 SLP103 T00061050,M
NFL,2023-03-30 16:56,-118.7010,39.4166,1199.00,41.00,26.10,55.07,270.00,6.00,0.00,29.82,1007.40,10.00,M,FEW,SCT,SCT,M,5000.00,10000.00,20000.00,M,M,M,M,M,M,M,M,36.37,KNFL 301656Z 27006KT 10SM FEW050 SCT100 SCT200 05/M03 A2982 RMK AO2 SLP074 T00501033,M
HND,2023-03-30 16:56,-115.1344,35.9729,742.79,51.00,30.00,44.09,210.00,16.00,0.00,29.80,1010.60,10.00,M,CLR,M,M,M,M,M,M,M,M,M,M,M,M,M,M,51.10,KHND 301656Z 21016KT 10SM CLR 11/M01 A2980 RMK AO2 SLP106 T01061011,M
TPH,2023-03-30 16:56,-117.0904,38.0505,1654.00,28.90,21.90,74.76,360.00,9.00,0.00,29.78,1010.00,10.00,M,CLR,M,M,M,M,M,M,M,M,M,M,M,M,M,M,19.66,KTPH 301656Z AUTO 36009KT 10SM CLR M02/M06 A2978 RMK AO2 SLP100 T10171056,M
LAS,2023-03-30 16:56,-115.1634,36.0719,663.00,52.00,24.10,33.44,250.00,7.00,0.00,29.79,1008.20,10.00,17.00,FEW,SCT,BKN,M,5000.00,9000.00,16000.00,M,M,M,M,M,M,M,M,52.00,KLAS 301656Z 25007G17KT 10SM FEW050 SCT090 BKN160 11/M04 A2979 RMK AO2 SLP082 T01111044,M
BVU,2023-03-30 17:15,-114.8611,35.9475,671.00,50.00,28.40,43.03,210.00,10.00,0.00,29.81,M,10.00,M,FEW,M,M,M,12000.00,M,M,M,M,M,M,M,M,M,M,50.00,KBVU 301715Z AUTO 21010KT 10SM FEW120 10/M02 A2981 RMK AO2,M
CXP,2023-03-30 17:15,-119.7326,39.1923,1431.00,35.60,28.40,74.80,0.00,0.00,0.00,29.85,M,10.00,M,CLR,M,M,M,M,M,M,M,M,M,M,M,M,M,M,35.60,KCXP 301715Z AUTO 00000KT 10SM CLR 02/M02 A2985 RMK AO2,M
RTS,2023-03-30 17:15,-119.8764,39.6682,1539.00,28.40,26.60,92.86,0.00,0.00,0.00,29.85,M,9.00,M,CLR,M,M,M,M,M,M,M,-UP,M,M,M,M,M,M,28.40,KRTS 301715Z AUTO 00000KT 9SM -UP CLR M02/M03 A2985 RMK AO2,M
05U,2023-03-30 17:15,-116.0051,39.6042,1811.23,23.00,17.60,79.47,0.00,0.00,0.00,29.78,M,10.00,M,CLR,M,M,M,M,M,M,M,M,M,M,M,M,M,M,23.00,K05U 301715Z AUTO 00000KT 10SM CLR M05/M08 A2978 RMK A01,M
MEV,2023-03-30 17:15,-119.7500,38.9963,1441.42,35.60,30.20,80.51,120.00,5.00,0.00,29.85,M,10.00,M,CLR,M,M,M,M,M,M,M,M,M,M,M,M,M,M,30.67,KMEV 301715Z AUTO 12005KT 10SM CLR 02/M01 A2985 RMK AO2,M
BAM,2023-03-30 17:15,-116.8743,40.5990,1382.36,35.60,26.60,69.46,0.00,0.00,0.00,29.78,M,10.00,M,CLR,M,M,M,M,M,M,M,M,M,M,M,M,M,M,35.60,KBAM 301715Z AUTO 00000KT 10SM CLR 02/M03 A2978 RMK AO1,M
HTH,2023-03-30 17:15,-118.6315,38.5448,1282.89,39.20,24.80,55.95,310.00,6.00,0.00,29.84,M,10.00,M,SCT,SCT,M,M,6000.00,7000.00,M,M,M,M,M,M,M,M,M,34.20,KHTH 301715Z AUTO 31006KT 10SM SCT060 SCT070 04/M04 A2984 RMK A01,M
BVU,2023-03-30 17:35,-114.8611,35.9475,671.00,51.80,28.40,40.25,190.00,8.00,0.00,29.82,M,10.00,M,CLR,M,M,M,M,M,M,M,M,M,M,M,M,M,M,51.80,KBVU 301735Z AUTO 19008KT 10SM CLR 11/M02 A2982 RMK AO2,M
CXP,2023-03-30 17:35,-119.7326,39.1923,1431.00,37.40,30.20,74.98,150.00,4.00,0.00,29.85,M,10.00,M,CLR,M,M,M,M,M,M,M,M,M,M,M,M,M,M,33.73,KCXP 301735Z AUTO 15004KT 10SM CLR 03/M01 A2985 RMK AO2,M
RTS,2023-03-30 17:35,-119.8764,39.6682,1539.00,28.40,28.40,100.00,0.00,0.00,0.00,29.85,M,10.00,M,CLR,M,M,M,M,M,M,M,-UP,M,M,M,M,M,M,28.40,KRTS 301735Z AUTO 00000KT 10SM -UP CLR M02/M02 A2985 RMK AO2,M
05U,2023-03-30 17:35,-116.0051,39.6042,1811.23,26.60,19.40,73.89,0.00,0.00,0.00,29.78,M,10.00,M,CLR,M,M,M,M,M,M,M,M,M,M,M,M,M,M,26.60,K05U 301735Z AUTO 00000KT 10SM CLR M03/M07 A2978 RMK A01,M
MEV,2023-03-30 17:35,-119.7500,38.9963,1441.42,35.60,30.20,80.51,140.00,5.00,0.00,29.85,M,10.00,M,CLR,M,M,M,M,M,M,M,M,M,M,M,M,M,M,30.67,KMEV 301735Z AUTO 14005KT 10SM CLR 02/M01 A2985 RMK AO2,M
BAM,2023-03-30 17:35,-116.8743,40.5990,1382.36,37.40,26.60,64.70,180.00,3.00,0.00,29.78,M,10.00,M,CLR,M,M,M,M,M,M,M,M,M,M,M,M,M,M,34.86,KBAM 301735Z AUTO 18003KT 10SM CLR 03/M03 A2978 RMK AO1,M
HTH,2023-03-30 17:35,-118.6315,38.5448,1282.89,41.00,24.80,52.17,M,6.00,0.00,29.84,M,10.00,M,FEW,M,M,M,6000.00,M,M,M,M,M,M,M,M,M,M,36.37,KHTH 301735Z AUTO VRB06KT 10SM FEW060 05/M04 A2984 RMK A01,M
TMT,2023-03-30 17:35,-117.1971,39.4643,1749.34,34.00,19.60,55.17,210.00,6.00,0.00,29.78,M,10.00,M,SCT,SCT,SCT,M,3800.00,4600.00,4900.00,M,M,M,M,M,M,M,M,27.94,KTMT 301735Z AUTO 21006KT 10SM SCT038 SCT046 SCT049 01/M07 A2978 RMK AO2 T00111069,M
P68,2023-03-30 17:53,-116.0056,39.6014,1993.00,21.90,18.00,84.68,0.00,0.00,0.00,29.76,1011.40,M,M,M,M,M,M,M,M,M,M,M,M,M,M,M,M,M,21.90,KP68 301753Z AUTO 00000KT M06/M08 A2976 RMK AO1 SLP114 T10561078 11056 21172 53014,M
DRA,2023-03-30 17:53,-116.0278,36.6206,1009.00,47.00,28.90,49.32,220.00,15.00,0.00,29.81,1008.00,10.00,25.00,BKN,M,M,M,4100.00,M,M,M,M,M,M,M,M,M,M,40.10,KDRA 301753Z AUTO 22015G25KT 10SM BKN041 08/M02 A2981 RMK AO2 SLP080 T00831017 10089 20033 53020,M
ELY,2023-03-30 17:53,-114.8453,39.2950,1909.00,19.00,16.00,87.87,170.00,9.00,0.00,29.74,1009.80,10.00,M,CLR,M,M,M,M,M,M,M,M,M,M,0.01,M,M,M,7.35,KELY 301753Z AUTO 17009KT 10SM CLR M07/M09 A2974 RMK AO2 SLP098 I6001 T10721089 11072 21167 53013,M
LOL,2023-03-30 17:53,-118.5701,40.0684,1192.43,41.00,26.10,55.07,0.00,0.00,0.00,29.82,1010.80,10.00,M,CLR,M,M,M,M,M,M,M,M,M,M,T,M,M,M,41.00,KLOL 301753Z AUTO 00000KT 10SM CLR 05/M03 A2982 RMK AO2 SLP108 I6000 T00501033 10050 21061 51011,M
VGT,2023-03-30 17:53,-115.1933,36.2111,667.00,56.00,25.00,30.10,M,M,0.00,29.79,1010.20,10.00,M,CLR,M,M,M,M,M,M,M,M,M,M,M,M,M,M,55.90,KVGT 301753Z 10SM CLR 13/M04 A2979 RMK AO2 SLP102 T01331039 10139 20056 53018,M
BVU,2023-03-30 17:55,-114.8611,35.9475,671.00,51.80,26.60,37.38,190.00,8.00,0.00,29.82,M,10.00,M,CLR,M,M,M,M,M,M,M,M,M,M,M,M,M,M,51.80,KBVU 301755Z AUTO 19008KT 10SM CLR 11/M03 A2982 RMK AO2,M
CXP,2023-03-30 17:55,-119.7326,39.1923,1431.00,39.20,28.40,64.93,M,3.00,0.00,29.86,M,10.00,M,CLR,M,M,M,M,M,M,M,M,M,M,M,M,M,M,36.92,KCXP 301755Z AUTO VRB03KT 10SM CLR 04/M02 A2986 RMK AO2,M
RNO,2023-03-30 17:55,-119.7711,39.4839,1341.00,39.00,28.00,64.37,100.00,4.00,0.00,29.86,1011.20,10.00,M,SCT,M,M,M,2000.00,M,M,M,M,M,M,M,M,M,M,35.59,KRNO 301755Z 10004KT 10SM SCT020 04/M02 A2986 RMK AO2 SLP112 60000 T00391022 10039 21017 51009,M
LSV,2023-03-30 17:55,-115.0343,36.2362,570.00,57.20,25.20,28.96,170.00,6.00,0.00,29.77,1007.50,10.00,M,BKN,M,M,M,7000.00,M,M,M,M,M,M,M,M,M,M,57.20,KLSV 301755Z 17006KT 10SM BKN070 14/M04 A2977 RMK AO2A SLP075 T01401038 10143 20047 52018 $,M
RTS,2023-03-30 17:55,-119.8764,39.6682,1539.00,30.20,28.40,92.92,120.00,3.00,0.00,29.86,M,9.00,M,CLR,M,M,M,M,M,M,M,-UP,M,M,M,M,M,M,26.63,KRTS 301755Z AUTO 12003KT 9SM -UP CLR M01/M02 A2986 RMK AO2,M
05U,2023-03-30 17:55,-116.0051,39.6042,1811.23,26.60,19.40,73.89,0.00,0.00,0.01,29.79,M,10.00,M,FEW,M,M,M,5000.00,M,M,M,M,M,M,M,M,M,M,26.60,K05U 301755Z AUTO 00000KT 10SM FEW050 M03/M07 A2979 RMK A01 P0001,M
MEV,2023-03-30 17:55,-119.7500,38.9963,1441.42,37.40,28.40,69.67,150.00,5.00,0.00,29.85,M,10.00,M,CLR,M,M,M,M,M,M,M,M,M,M,M,M,M,M,32.81,KMEV 301755Z AUTO 15005KT 10SM CLR 03/M02 A2985 RMK AO2,M
BAM,2023-03-30 17:55,-116.8743,40.5990,1382.36,39.20,26.60,60.29,0.00,0.00,0.00,29.79,M,10.00,M,SCT,SCT,M,M,4500.00,4900.00,M,M,M,M,M,M,M,M,M,39.20,KBAM 301755Z AUTO 00000KT 10SM SCT045 SCT049 04/M03 A2979 RMK AO1,M
HTH,2023-03-30 17:55,-118.6315,38.5448,1282.89,41.00,24.80,52.17,M,4.00,0.00,29.85,M,10.00,12.00,FEW,FEW,M,M,3400.00,6000.00,M,M,M,M,M,M,M,M,M,37.93,KHTH 301755Z AUTO VRB04G12KT 10SM FEW034 FEW060 05/M04 A2985 RMK A01,M
TMT,2023-03-30 17:55,-117.1971,39.4643,1749.34,33.60,18.70,53.94,280.00,3.00,0.00,29.79,M,10.00,M,SCT,BKN,BKN,M,4000.00,4900.00,6000.00,M,M,M,M,M,M,M,M,30.52,KTMT 301755Z AUTO 28003KT 10SM SCT040 BKN049 BKN060 01/M07 A2979 RMK AO2 T00091074 10013 21106,M
INS,2023-03-30 17:55,-115.6733,36.5872,955.00,48.70,24.80,38.92,310.00,13.00,0.00,29.80,1007.60,10.00,18.00,SCT,BKN,M,M,4700.00,6500.00,M,M,M,M,M,M,M,M,M,42.96,KINS 301755Z AUTO 31013G18KT 10SM SCT047 BKN065 09/M04 A2980 RMK AO2 SLP076 T00931040 10093 20005 52018 $,M
EKO,2023-03-30 17:56,-115.7860,40.8242,1367.00,36.00,23.00,58.85,250.00,14.00,0.00,29.74,1008.50,10.00,21.00,FEW,M,M,M,5000.00,M,M,M,M,M,M,M,M,M,M,26.32,KEKO 301756Z AUTO 25014G21KT 10SM FEW050 02/M05 A2974 RMK AO2 SLP085 T00221050 10022 21061 53006,M
WMC,2023-03-30 17:56,-117.8072,40.9019,1315.00,37.00,23.00,56.57,230.00,4.00,0.00,29.79,1010.10,10.00,M,CLR,M,M,M,M,M,M,M,M,M,M,T,M,M,M,33.26,KWMC 301756Z AUTO 23004KT 10SM CLR 03/M05 A2979 RMK AO2 SLP101 I6000 T00281050 10028 21111 51005,M
NFL,2023-03-30 17:56,-118.7010,39.4166,1199.00,44.00,26.10,48.88,240.00,6.00,0.00,29.84,1008.00,10.00,M,SCT,BKN,M,M,5000.00,20000.00,M,M,M,M,M,M,M,M,M,40.10,KNFL 301756Z 24006KT 10SM SCT050 BKN200 07/M03 A2984 RMK AO2 SLP080 T00671033 10067 21028 53011,M
HND,2023-03-30 17:56,-115.1344,35.9729,742.79,51.00,30.00,44.09,210.00,16.00,0.00,29.82,1011.30,10.00,M,FEW,M,M,M,12000.00,M,M,M,M,M,M,M,M,M,M,51.10,KHND 301756Z 21016KT 10SM FEW120 11/M01 A2982 RMK AO2 SLP113 T01061011 10117 20050 53016,M
TPH,2023-03-30 17:56,-117.0904,38.0505,1654.00,34.00,26.10,72.52,M,3.00,0.00,29.81,1010.40,10.00,M,CLR,M,M,M,M,M,M,M,M,M,M,M,M,M,M,30.97,KTPH 301756Z AUTO VRB03KT 10SM CLR 01/M03 A2981 RMK AO2 SLP104 T00111033 10011 21078 53016,M
LAS,2023-03-30 17:56,-115.1634,36.0719,663.00,53.00,23.00,30.67,M,3.00,0.00,29.80,1008.50,10.00,M,FEW,SCT,BKN,M,5000.00,9000.00,18000.00,M,M,M,M,M,M,M,M,53.10,KLAS 301756Z VRB03KT 10SM FEW050 SCT090 BKN180 12/M05 A2980 RMK AO2 SLP085 T01171050 10122 20072 51016,M
BVU,2023-03-30 18:15,-114.8611,35.9475,671.00,51.80,26.60,37.38,210.00,7.00,0.00,29.83,M,10.00,12.00,CLR,M,M,M,M,M,M,M,M,M,M,M,M,M,M,51.80,KBVU 301815Z AUTO 21007G12KT 10SM CLR 11/M03 A2983 RMK AO2,M
CXP,2023-03-30 18:15,-119.7326,39.1923,1431.00,41.00,30.20,65.16,M,3.00,0.00,29.86,M,10.00,M,FEW,M,M,M,5500.00,M,M,M,M,M,M,M,M,M,M,38.98,KCXP 301815Z AUTO VRB03KT 10SM FEW055 05/M01 A2986 RMK AO2,M
RTS,2023-03-30 18:15,-119.8764,39.6682,1539.00,32.00,28.40,86.39,140.00,3.00,0.00,29.87,M,10.00,M,CLR,M,M,M,M,M,M,M,M,M,M,M,M,M,M,28.69,KRTS 301815Z AUTO 14003KT 10SM CLR M00/M02 A2987 RMK AO2,M
05U,2023-03-30 18:15,-116.0051,39.6042,1811.23,32.00,19.40,59.27,0.00,0.00,0.00,29.80,M,10.00,M,FEW,SCT,M,M,4100.00,4900.00,M,M,M,M,M,M,M,M,M,32.00,K05U 301815Z AUTO 00000KT 10SM FEW041 SCT049 M00/M07 A2980 RMK A01,M
MEV,2023-03-30 18:15,-119.7500,38.9963,1441.42,37.40,28.40,69.67,0.00,0.00,0.00,29.86,M,10.00,M,FEW,M,M,M,2100.00,M,M,M,M,M,M,M,M,M,M,37.40,KMEV 301815Z AUTO 00000KT 10SM FEW021 03/M02 A2986 RMK AO2,M
BAM,2023-03-30 18:15,-116.8743,40.5990,1382.36,41.00,26.60,56.22,280.00,4.00,0.00,29.79,M,10.00,M,SCT,BKN,M,M,4700.00,5000.00,M,M,M,M,M,M,M,M,M,37.93,KBAM 301815Z AUTO 28004KT 10SM SCT047 BKN050 05/M03 A2979 RMK AO1,M
HTH,2023-03-30 18:15,-118.6315,38.5448,1282.89,42.80,23.00,45.14,M,5.00,0.00,29.85,M,10.00,M,FEW,M,M,M,6500.00,M,M,M,M,M,M,M,M,M,M,39.22,KHTH 301815Z AUTO VRB05KT 10SM FEW065 06/M05 A2985 RMK A01,M
TMT,2023-03-30 18:15,-117.1971,39.4643,1749.34,34.70,16.90,47.78,320.00,7.00,0.00,29.80,M,10.00,M,SCT,BKN,OVC,M,4200.00,4900.00,5500.00,M,M,M,M,M,M,M,M,28.07,KTMT 301815Z AUTO 32007KT 10SM SCT042 BKN049 OVC055 02/M08 A2980 RMK AO2 T00151084,M
BVU,2023-03-30 18:35,-114.8611,35.9475,671.00,53.60,26.60,34.98,210.00,7.00,0.00,29.83,M,10.00,14.00,CLR,M,M,M,M,M,M,M,M,M,M,M,M,M,M,53.60,KBVU 301835Z AUTO 21007G14KT 10SM CLR 12/M03 A2983 RMK AO2,M
CXP,2023-03-30 18:35,-119.7326,39.1923,1431.00,41.00,30.20,65.16,150.00,7.00,0.00,29.87,M,10.00,M,FEW,SCT,M,M,2700.00,5500.00,M,M,M,M,M,M,M,M,M,35.75,KCXP 301835Z AUTO 15007KT 110V190 10SM FEW027 SCT055 05/M01 A2987 RMK AO2,M
RTS,2023-03-30 18:35,-119.8764,39.6682,1539.00,32.00,26.60,80.22,140.00,5.00,0.00,29.86,M,10.00,M,CLR,M,M,M,M,M,M,M,M,M,M,M,M,M,M,26.40,KRTS 301835Z AUTO 14005KT 10SM CLR 00/M03 A2986 RMK AO2,M
05U,2023-03-30 18:35,-116.0051,39.6042,1811.23,33.80,19.40,55.14,0.00,0.00,0.00,29.80,M,10.00,M,FEW,FEW,FEW,M,4000.00,4800.00,5500.00,M,M,M,M,M,M,M,M,33.80,K05U 301835Z AUTO 00000KT 10SM FEW040 FEW048 FEW055 01/M07 A2980 RMK A01,M
MEV,2023-03-30 18:35,-119.7500,38.9963,1441.42,39.20,30.20,69.88,110.00,5.00,0.00,29.86,M,10.00,11.00,FEW,M,M,M,2200.00,M,M,M,M,M,M,M,M,M,M,34.95,KMEV 301835Z AUTO 11005G11KT 10SM FEW022 04/M01 A2986 RMK AO2,M
BAM,2023-03-30 18:35,-116.8743,40.5990,1382.36,41.00,28.40,60.54,280.00,5.00,0.00,29.79,M,10.00,M,SCT,BKN,M,M,4400.00,5000.00,M,M,M,M,M,M,M,M,M,37.08,KBAM 301835Z AUTO 28005KT 10SM SCT044 BKN050 05/M02 A2979 RMK AO1,M
HTH,2023-03-30 18:35,-118.6315,38.5448,1282.89,42.80,23.00,45.14,M,4.00,0.00,29.86,M,10.00,M,SCT,M,M,M,6000.00,M,M,M,M,M,M,M,M,M,M,40.03,KHTH 301835Z AUTO VRB04KT 10SM SCT060 06/M05 A2986 RMK A01,M
TMT,2023-03-30 18:35,-117.1971,39.4643,1749.34,35.20,18.30,49.75,320.00,7.00,0.00,29.80,M,10.00,M,BKN,OVC,M,M,4700.00,5500.00,M,M,M,M,M,M,M,M,M,28.68,KTMT 301835Z AUTO 32007KT 10SM BKN047 OVC055 02/M08 A2980 RMK AO2 T00181076,M
P68,2023-03-30 18:53,-116.0056,39.6014,1993.00,28.00,21.00,74.67,0.00,0.00,0.00,29.78,1011.60,M,M,M,M,M,M,M,M,M,M,M,M,M,M,M,M,M,28.00,KP68 301853Z AUTO 00000KT M02/M06 A2978 RMK AO1 SLP116 T10221061,M
DRA,2023-03-30 18:53,-116.0278,36.6206,1009.00,49.00,30.00,47.85,250.00,11.00,0.00,29.82,1008.30,10.00,19.00,FEW,FEW,M,M,3500.00,4900.00,M,M,M,M,M,M,27.00,220.00,2023-03-30 17:58,43.82,KDRA 301853Z AUTO 25011G19KT 10SM FEW035 FEW049 09/M01 A2982 RMK AO2 PK WND 22027/1758 SLP083 T00941011,M
ELY,2023-03-30 18:53,-114.8453,39.2950,1909.00,25.00,21.00,84.53,180.00,6.00,0.00,29.75,1009.70,10.00,M,CLR,M,M,M,M,M,M,M,M,M,M,M,M,M,M,17.10,KELY 301853Z AUTO 18006KT 10SM CLR M04/M06 A2975 RMK AO2 SLP097 T10391061,M
VGT,2023-03-30 18:53,-115.1933,36.2111,667.00,55.00,26.10,32.56,M,M,0.00,29.81,1010.60,10.00,M,OVC,M,M,M,6000.00,M,M,M,M,M,M,M,M,M,M,55.00,KVGT 301853Z 10SM OVC060 13/M03 A2981 RMK AO2 SLP106 T01281033,M
LOL,2023-03-30 18:53,-118.5701,40.0684,1192.43,45.00,25.00,45.12,M,M,0.00,29.82,1010.50,10.00,M,BKN,M,M,M,5500.00,M,M,M,M,M,M,M,M,M,M,M,KLOL 301853Z AUTO 10SM BKN055 07/M04 A2982 RMK AO2 SLP105 T00721039,M
BVU,2023-03-30 18:55,-114.8611,35.9475,671.00,55.40,26.60,32.76,200.00,10.00,0.00,29.83,M,10.00,16.00,FEW,M,M,M,5500.00,M,M,M,M,M,M,M,M,M,M,55.40,KBVU 301855Z AUTO 20010G16KT 160V220 10SM FEW055 13/M03 A2983 RMK AO2,M
CXP,2023-03-30 18:55,-119.7326,39.1923,1431.00,42.80,28.40,56.48,140.00,7.00,0.00,29.87,M,10.00,M,FEW,SCT,BKN,M,2700.00,3300.00,4800.00,M,M,M,M,M,M,M,M,37.94,KCXP 301855Z AUTO 14007KT 10SM FEW027 SCT033 BKN048 06/M02 A2987 RMK AO2,M
INS,2023-03-30 18:55,-115.6733,36.5872,955.00,49.80,23.90,35.98,330.00,13.00,0.00,29.80,1007.80,10.00,17.00,BKN,M,M,M,5000.00,M,M,M,M,M,M,M,M,M,M,44.37,KINS 301855Z AUTO 33013G17KT 10SM BKN050 10/M04 A2980 RMK AO2 SLP078 T00991045 $,M
RNO,2023-03-30 18:55,-119.7711,39.4839,1341.00,42.00,27.00,54.78,40.00,6.00,0.00,29.86,1011.00,10.00,M,SCT,M,M,M,2600.00,M,M,M,M,M,M,M,M,M,M,37.69,KRNO 301855Z 04006KT 10SM SCT026 06/M03 A2986 RMK AO2 SLP110 T00561028,M
RTS,2023-03-30 18:55,-119.8764,39.6682,1539.00,33.80,26.60,74.63,140.00,4.00,0.00,29.86,M,10.00,M,CLR,M,M,M,M,M,M,M,M,M,M,M,M,M,M,29.52,KRTS 301855Z AUTO 14004KT 10SM CLR 01/M03 A2986 RMK AO2,M
05U,2023-03-30 18:55,-116.0051,39.6042,1811.23,33.80,19.40,55.14,0.00,0.00,0.05,29.80,M,10.00,M,FEW,M,M,M,4300.00,M,M,M,M,M,M,M,M,M,M,33.80,K05U 301855Z AUTO 00000KT 10SM FEW043 01/M07 A2980 RMK A01 P0005,M
MEV,2023-03-30 18:55,-119.7500,38.9963,1441.42,39.20,26.60,60.29,140.00,6.00,0.00,29.87,M,10.00,M,SCT,M,M,M,2600.00,M,M,M,M,M,M,M,M,M,M,34.20,KMEV 301855Z AUTO 14006KT 10SM SCT026 04/M03 A2987 RMK AO2,M
BAM,2023-03-30 18:55,-116.8743,40.5990,1382.36,42.80,28.40,56.48,270.00,6.00,0.00,29.79,M,10.00,M,SCT,BKN,M,M,4300.00,5000.00,M,M,M,M,M,M,M,M,M,38.54,KBAM 301855Z AUTO 27006KT 10SM SCT043 BKN050 06/M02 A2979 RMK AO1,M
HTH,2023-03-30 18:55,-118.6315,38.5448,1282.89,42.80,19.40,38.75,M,4.00,0.00,29.86,M,10.00,10.00,FEW,M,M,M,6000.00,M,M,M,M,M,M,M,M,M,M,40.03,KHTH 301855Z AUTO VRB04G10KT 10SM FEW060 06/M07 A2986 RMK A01,M
LSV,2023-03-30 18:55,-115.0343,36.2362,570.00,57.70,25.70,29.04,170.00,7.00,0.00,29.78,1007.90,10.00,M,FEW,SCT,BKN,M,9500.00,16000.00,20000.00,M,M,M,M,M,M,M,M,57.70,KLSV 301855Z 17007KT 10SM FEW095 SCT160 BKN200 14/M03 A2978 RMK AO2A SLP079 T01431035 $,M
TMT,2023-03-30 18:55,-117.1971,39.4643,1749.34,35.00,16.50,46.21,300.00,5.00,0.00,29.81,M,10.00,M,BKN,OVC,M,M,5000.00,5500.00,M,M,M,M,M,M,M,M,M,30.08,KTMT 301855Z AUTO 30005KT 10SM BKN050 OVC055 02/M09 A2981 RMK AO2 T00171086,M
EKO,2023-03-30 18:56,-115.7860,40.8242,1367.00,39.00,23.00,52.30,260.00,12.00,0.00,29.75,1008.40,10.00,23.00,FEW,BKN,M,M,3300.00,5000.00,M,M,M,M,M,M,M,M,M,30.91,KEKO 301856Z AUTO 26012G23KT 10SM FEW033 BKN050 04/M05 A2975 RMK AO2 SLP084 T00391050,M
WMC,2023-03-30 18:56,-117.8072,40.9019,1315.00,39.00,25.00,56.86,180.00,8.00,0.00,29.79,1010.10,10.00,M,CLR,M,M,M,M,M,M,M,M,M,M,M,M,M,M,32.74,KWMC 301856Z AUTO 18008KT 10SM CLR 04/M04 A2979 RMK AO2 SLP101 T00391039,M
NFL,2023-03-30 18:56,-118.7010,39.4166,1199.00,46.00,24.10,41.84,260.00,5.00,0.00,29.84,1008.10,10.00,M,FEW,BKN,BKN,M,4900.00,6500.00,7500.00,M,M,M,M,M,M,M,M,43.02,KNFL 301856Z 26005KT 10SM FEW049 BKN065 BKN075 08/M04 A2984 RMK AO2 SLP081 T00781044,M
HND,2023-03-30 18:56,-115.1344,35.9729,742.79,55.00,30.00,38.21,210.00,16.00,0.00,29.83,1011.40,10.00,22.00,SCT,BKN,M,M,9000.00,11000.00,M,M,M,M,M,M,M,M,M,55.00,KHND 301856Z 21016G22KT 10SM SCT090 BKN110 13/M01 A2983 RMK AO2 SLP114 T01281011,M
TPH,2023-03-30 18:56,-117.0904,38.0505,1654.00,39.00,26.10,59.52,290.00,8.00,0.00,29.82,1010.40,10.00,M,FEW,M,M,M,3900.00,M,M,M,M,M,M,M,M,M,M,32.74,KTPH 301856Z AUTO 29008KT 10SM FEW039 04/M03 A2982 RMK AO2 SLP104 T00391033,M
LAS,2023-03-30 18:56,-115.1634,36.0719,663.00,57.00,25.00,28.93,220.00,10.00,0.00,29.81,1008.60,10.00,17.00,SCT,SCT,BKN,M,5000.00,9000.00,18000.00,M,M,M,M,M,M,M,M,57.00,KLAS 301856Z 22010G17KT 10SM SCT050 SCT090 BKN180 14/M04 A2981 RMK AO2 SLP086 VCSH NW T01391039,M
BVU,2023-03-30 19:15,-114.8611,35.9475,671.00,55.40,24.80,30.40,230.00,10.00,0.00,29.82,M,10.00,M,BKN,M,M,M,5500.00,M,M,M,M,M,M,M,M,M,M,55.40,KBVU 301915Z AUTO 23010KT 10SM BKN055 13/M04 A2982 RMK AO2,M
CXP,2023-03-30 19:15,-119.7326,39.1923,1431.00,44.60,30.20,56.74,M,5.00,0.00,29.86,M,10.00,11.00,BKN,BKN,OVC,M,3500.00,4400.00,5000.00,M,M,M,M,M,M,M,M,41.36,KCXP 301915Z AUTO VRB05G11KT 10SM BKN035 BKN044 OVC050 07/M01 A2986 RMK AO2,M
RTS,2023-03-30 19:15,-119.8764,39.6682,1539.00,33.80,26.60,74.63,120.00,5.00,0.00,29.86,M,10.00,M,CLR,M,M,M,M,M,M,M,M,M,M,M,M,M,M,28.53,KRTS 301915Z AUTO 12005KT 10SM CLR 01/M03 A2986 RMK AO2,M
05U,2023-03-30 19:15,-116.0051,39.6042,1811.23,33.80,19.40,55.14,0.00,0.00,0.00,29.81,M,10.00,M,FEW,FEW,M,M,4700.00,5500.00,M,M,M,M,M,M,M,M,M,33.80,K05U 301915Z AUTO 00000KT 10SM FEW047 FEW055 01/M07 A2981 RMK A01,M
MEV,2023-03-30 19:15,-119.7500,38.9963,1441.42,41.00,28.40,60.54,180.00,5.00,0.00,29.86,M,10.00,12.00,SCT,SCT,M,M,2800.00,4600.00,M,M,M,M,M,M,M,M,M,37.08,KMEV 301915Z AUTO 18005G12KT 10SM SCT028 SCT046 05/M02 A2986 RMK AO2,M
BAM,2023-03-30 19:15,-116.8743,40.5990,1382.36,44.60,26.60,48.96,300.00,13.00,0.00,29.79,M,10.00,18.00,SCT,M,M,M,5000.00,M,M,M,M,M,M,M,M,M,M,37.71,KBAM 301915Z AUTO 30013G18KT 10SM SCT050 07/M03 A2979 RMK AO1,M
HTH,2023-03-30 19:15,-118.6315,38.5448,1282.89,44.60,19.40,36.18,320.00,5.00,0.00,29.86,M,10.00,11.00,CLR,M,M,M,M,M,M,M,M,M,M,M,M,M,M,41.36,KHTH 301915Z AUTO 32005G11KT 10SM CLR 07/M07 A2986 RMK A01,M
TMT,2023-03-30 19:15,-117.1971,39.4643,1749.34,35.40,16.30,45.27,320.00,8.00,0.00,29.81,M,10.00,M,OVC,M,M,M,5000.00,M,M,M,M,M,M,M,M,M,M,28.30,KTMT 301915Z AUTO 32008KT 10SM OVC050 02/M09 A2981 RMK AO2 T00191087,M
INS,2023-03-30 19:16,-115.6733,36.5872,955.00,50.00,23.00,34.39,280.00,14.00,0.00,29.80,1007.80,10.00,18.00,OVC,M,M,M,5000.00,M,M,M,M,M,M,M,M,M,M,50.00,KINS 301916Z AUTO 28014G18KT 10SM OVC050 10/M05 A2980 RMK AO2 WSHFT 06 SLP078 $,M
INS,2023-03-30 19:25,-115.6733,36.5872,955.00,51.80,23.00,32.17,320.00,11.00,0.00,29.81,1007.90,10.00,M,OVC,M,M,M,5000.00,M,M,M,M,M,M,M,M,M,M,51.80,KINS 301925Z AUTO 32011KT 10SM OVC050 11/M05 A2981 RMK AO2 WSHFT 16 SLP079 $,M
BVU,2023-03-30 19:35,-114.8611,35.9475,671.00,55.40,26.60,32.76,220.00,13.00,0.00,29.82,M,10.00,M,BKN,OVC,M,M,6000.00,7000.00,M,M,M,M,M,M,M,M,M,55.40,KBVU 301935Z AUTO 22013KT 10SM BKN060 OVC070 13/M03 A2982 RMK AO2,M
CXP,2023-03-30 19:35,-119.7326,39.1923,1431.00,44.60,28.40,52.72,160.00,9.00,0.00,29.86,M,10.00,M,BKN,OVC,M,M,4200.00,5000.00,M,M,M,M,M,M,M,M,M,39.18,KCXP 301935Z AUTO 16009KT 130V200 10SM BKN042 OVC050 07/M02 A2986 RMK AO2,M
RTS,2023-03-30 19:35,-119.8764,39.6682,1539.00,35.60,26.60,69.46,100.00,4.00,0.00,29.86,M,10.00,M,FEW,M,M,M,3400.00,M,M,M,M,M,M,M,M,M,M,31.62,KRTS 301935Z AUTO 10004KT 10SM FEW034 02/M03 A2986 RMK AO2,M
05U,2023-03-30 19:35,-116.0051,39.6042,1811.23,M,M,M,M,5.00,0.00,29.81,M,10.00,M,FEW,SCT,M,M,4300.00,6000.00,M,M,M,M,M,M,M,M,M,M,K05U 301935Z AUTO VRB05KT 10SM FEW043 SCT060 A2981 RMK A01,M
MEV,2023-03-30 19:35,-119.7500,38.9963,1441.42,41.00,28.40,60.54,190.00,6.00,0.00,29.86,M,10.00,M,FEW,FEW,M,M,3200.00,4400.00,M,M,M,M,M,M,M,M,M,36.37,KMEV 301935Z AUTO 19006KT 10SM FEW032 FEW044 05/M02 A2986 RMK AO2,M
BAM,2023-03-30 19:35,-116.8743,40.5990,1382.36,44.60,26.60,48.96,300.00,11.00,0.00,29.79,M,10.00,20.00,CLR,M,M,M,M,M,M,M,M,M,M,M,M,M,M,38.39,KBAM 301935Z AUTO 30011G20KT 10SM CLR 07/M03 A2979 RMK AO1,M
HTH,2023-03-30 19:35,-118.6315,38.5448,1282.89,44.60,19.40,36.18,M,5.00,0.00,29.86,M,10.00,M,BKN,M,M,M,7000.00,M,M,M,M,M,M,M,M,M,M,41.36,KHTH 301935Z AUTO VRB05KT 10SM BKN070 07/M07 A2986 RMK A01,M
TMT,2023-03-30 19:35,-117.1971,39.4643,1749.34,36.50,11.70,35.43,290.00,5.00,0.00,29.81,M,10.00,M,BKN,OVC,M,M,5000.00,7000.00,M,M,M,M,M,M,M,M,M,31.74,KTMT 301935Z AUTO 29005KT 10SM BKN050 OVC070 03/M11 A2981 RMK AO2 T00251113,M
INS,2023-03-30 19:41,-115.6733,36.5872,955.00,51.80,23.00,32.17,270.00,12.00,0.00,29.81,1007.90,10.00,19.00,BKN,M,M,M,5000.00,M,M,M,M,M,M,M,M,M,M,51.80,KINS 301941Z AUTO 27012G19KT 10SM BKN050 11/M05 A2981 RMK AO2 WSHFT 36 SLP079 $,M
P68,2023-03-30 19:53,-116.0056,39.6014,1993.00,30.90,19.90,63.31,220.00,6.00,0.00,29.78,1011.40,M,M,M,M,M,M,M,M,M,M,M,M,M,M,M,M,M,24.21,KP68 301953Z AUTO 22006KT M01/M07 A2978 RMK AO1 SLP114 T10061067,M
DRA,2023-03-30 19:53,-116.0278,36.6206,1009.00,50.00,30.00,45.93,220.00,11.00,0.00,29.83,1008.50,10.00,22.00,CLR,M,M,M,M,M,M,M,M,M,M,M,M,M,M,50.00,KDRA 301953Z AUTO 22011G22KT 10SM CLR 10/M01 A2983 RMK AO2 SLP085 T01001011,M
ELY,2023-03-30 19:53,-114.8453,39.2950,1909.00,33.00,19.90,57.93,330.00,7.00,0.00,29.76,1009.70,10.00,M,SCT,OVC,M,M,4300.00,5500.00,M,M,M,M,M,M,M,M,M,26.12,KELY 301953Z AUTO 33007KT 10SM SCT043 OVC055 01/M07 A2976 RMK AO2 SLP097 T00061067,M
VGT,2023-03-30 19:53,-115.1933,36.2111,667.00,52.00,28.00,39.30,290.00,16.00,T,29.83,1011.50,10.00,19.00,SCT,OVC,M,M,5500.00,7000.00,M,M,M,M,M,M,M,M,M,52.00,KVGT 301953Z 29016G19KT 10SM SCT055 OVC070 11/M02 A2983 RMK AO2 RAB33E44 SLP115 P0000 T01111022,M
LOL,2023-03-30 19:53,-118.5701,40.0684,1192.43,47.00,21.90,36.87,280.00,10.00,0.00,29.82,1010.30,10.00,M,FEW,M,M,M,6000.00,M,M,M,M,M,M,M,M,M,M,41.65,KLOL 301953Z AUTO 28010KT 10SM FEW060 08/M06 A2982 RMK AO2 SLP103 T00831056,M
BVU,2023-03-30 19:55,-114.8611,35.9475,671.00,57.20,24.80,28.48,260.00,4.00,0.00,29.82,M,10.00,16.00,SCT,SCT,M,M,6500.00,7500.00,M,M,M,M,M,M,M,M,M,57.20,KBVU 301955Z AUTO 26004G16KT 10SM SCT065 SCT075 14/M04 A2982 RMK AO2,M
CXP,2023-03-30 19:55,-119.7326,39.1923,1431.00,44.60,26.60,48.96,150.00,8.00,0.00,29.86,M,10.00,M,OVC,M,M,M,4000.00,M,M,M,M,M,M,M,M,M,M,39.63,KCXP 301955Z AUTO 15008KT 10SM OVC040 07/M03 A2986 RMK AO2,M
RNO,2023-03-30 19:55,-119.7711,39.4839,1341.00,47.00,26.10,43.95,350.00,5.00,0.00,29.86,1010.50,10.00,M,SCT,SCT,M,M,3500.00,25000.00,M,M,M,M,M,M,M,M,M,44.09,KRNO 301955Z 35005KT 10SM SCT035 SCT250 08/M03 A2986 RMK AO2 SLP105 T00831033,M
RTS,2023-03-30 19:55,-119.8764,39.6682,1539.00,37.40,26.60,64.70,140.00,4.00,0.00,29.86,M,10.00,M,FEW,M,M,M,3400.00,M,M,M,M,M,M,M,M,M,M,33.73,KRTS 301955Z AUTO 14004KT 10SM FEW034 03/M03 A2986 RMK AO2,M
05U,2023-03-30 19:55,-116.0051,39.6042,1811.23,33.80,19.40,55.14,M,6.00,0.07,29.81,M,10.00,M,FEW,SCT,M,M,4200.00,6000.00,M,M,M,M,M,M,M,M,M,27.70,K05U 301955Z AUTO VRB06KT 10SM FEW042 SCT060 01/M07 A2981 RMK A01 P0007,M
MEV,2023-03-30 19:55,-119.7500,38.9963,1441.42,42.80,26.60,52.45,130.00,4.00,0.00,29.85,M,10.00,10.00,FEW,FEW,M,M,3300.00,4100.00,M,M,M,M,M,M,M,M,M,40.03,KMEV 301955Z AUTO 13004G10KT 10SM FEW033 FEW041 06/M03 A2985 RMK AO2,M
BAM,2023-03-30 19:55,-116.8743,40.5990,1382.36,44.60,23.00,42.14,300.00,12.00,0.00,29.79,M,10.00,18.00,CLR,M,M,M,M,M,M,M,M,M,M,M,M,M,M,38.04,KBAM 301955Z AUTO 30012G18KT 10SM CLR 07/M05 A2979 RMK AO1,M
HTH,2023-03-30 19:55,-118.6315,38.5448,1282.89,46.40,19.40,33.79,M,5.00,0.00,29.85,M,10.00,10.00,FEW,FEW,M,M,7500.00,8500.00,M,M,M,M,M,M,M,M,M,43.50,KHTH 301955Z AUTO VRB05G10KT 10SM FEW075 FEW085 08/M07 A2985 RMK A01,M
TMT,2023-03-30 19:55,-117.1971,39.4643,1749.34,37.20,16.30,42.16,290.00,8.00,0.00,29.81,M,10.00,M,BKN,OVC,M,M,5000.00,7000.00,M,M,M,M,M,M,M,M,M,30.52,KTMT 301955Z AUTO 29008KT 10SM BKN050 OVC070 03/M09 A2981 RMK AO2 T00291087,M
LSV,2023-03-30 19:55,-115.0343,36.2362,570.00,55.60,29.10,36.04,250.00,10.00,0.00,29.79,1008.30,10.00,M,SCT,BKN,M,M,6000.00,8000.00,M,M,M,M,M,M,M,M,M,55.60,KLSV 301955Z AUTO 25010KT 10SM SCT060 BKN080 13/M02 A2979 RMK AO2 SLP083 T01311016 $,M
INS,2023-03-30 19:55,-115.6733,36.5872,955.00,53.00,23.00,30.89,280.00,14.00,0.00,29.81,1008.20,10.00,M,BKN,M,M,M,5000.00,M,M,M,M,M,M,M,M,M,M,52.90,KINS 301955Z AUTO 28014KT 10SM BKN050 12/M05 A2981 RMK AO2 SLP082 T01161050 $,M
EKO,2023-03-30 19:56,-115.7860,40.8242,1367.00,39.00,21.90,49.93,270.00,17.00,0.00,29.75,1008.70,10.00,22.00,SCT,BKN,BKN,M,3500.00,4600.00,7000.00,M,M,M,M,M,M,M,M,29.25,KEKO 301956Z AUTO 27017G22KT 10SM SCT035 BKN046 BKN070 04/M06 A2975 RMK AO2 SLP087 T00391056,M
WMC,2023-03-30 19:56,-117.8072,40.9019,1315.00,41.00,24.10,50.67,M,5.00,0.00,29.79,1010.10,10.00,M,SCT,OVC,M,M,4700.00,5500.00,M,M,M,M,M,M,M,M,M,37.08,KWMC 301956Z AUTO VRB05KT 10SM SCT047 OVC055 05/M04 A2979 RMK AO2 SLP101 T00501044,M
NFL,2023-03-30 19:56,-118.7010,39.4166,1199.00,48.00,21.00,34.05,260.00,8.00,0.00,29.83,1007.80,10.00,M,BKN,BKN,M,M,5000.00,20000.00,M,M,M,M,M,M,M,M,M,43.82,KNFL 301956Z 26008KT 10SM BKN050 BKN200 09/M06 A2983 RMK AO2 SLP078 T00891061,M
TPH,2023-03-30 19:56,-117.0904,38.0505,1654.00,41.00,24.10,50.67,350.00,11.00,0.00,29.82,1010.40,10.00,15.00,FEW,M,M,M,4700.00,M,M,M,M,M,M,M,M,M,M,33.84,KTPH 301956Z AUTO 35011G15KT 300V010 10SM FEW047 05/M04 A2982 RMK AO2 SLP104 T00501044,M
LAS,2023-03-30 19:56,-115.1634,36.0719,663.00,53.00,28.00,37.74,320.00,16.00,T,29.82,1009.50,10.00,25.00,BKN,BKN,M,M,6000.00,10000.00,M,M,-RA,M,M,M,M,M,M,53.10,KLAS 301956Z 32016G25KT 10SM -RA BKN060 BKN100 12/M02 A2982 RMK AO2 RAB55 SLP095 P0000 T01171022,M
HND,2023-03-30 19:56,-115.1344,35.9729,742.79,56.00,28.00,34.08,240.00,12.00,0.00,29.84,1011.80,10.00,21.00,CLR,M,M,M,M,M,M,M,M,M,M,M,M,M,M,55.90,KHND 301956Z 24012G21KT 10SM CLR 13/M02 A2984 RMK AO2 SLP118 T01331022,M
LSV,2023-03-30 20:05,-115.0343,36.2362,570.00,M,M,M,270.00,13.00,0.00,29.80,1008.60,10.00,17.00,BKN,M,M,M,6000.00,M,M,M,M,M,M,M,M,M,M,M,KLSV 302005Z 27013G17KT 10SM BKN060 170 14/M02 A2980 RMK SLP086 $,M
BVU,2023-03-30 20:15,-114.8611,35.9475,671.00,57.20,24.80,28.48,230.00,12.00,0.00,29.82,M,10.00,M,FEW,SCT,SCT,M,6500.00,7500.00,9500.00,M,M,M,M,M,M,M,M,57.20,KBVU 302015Z AUTO 23012KT 10SM FEW065 SCT075 SCT095 14/M04 A2982 RMK AO2,M
CXP,2023-03-30 20:15,-119.7326,39.1923,1431.00,48.20,26.60,42.73,200.00,9.00,0.00,29.85,M,10.00,M,SCT,BKN,OVC,M,4000.00,4800.00,6500.00,M,M,M,M,M,M,M,M,43.66,KCXP 302015Z AUTO 20009KT 10SM SCT040 BKN048 OVC065 09/M03 A2985 RMK AO2,M
RTS,2023-03-30 20:15,-119.8764,39.6682,1539.00,41.00,24.80,52.17,250.00,9.00,0.00,29.86,M,10.00,M,FEW,FEW,M,M,3800.00,4500.00,M,M,M,M,M,M,M,M,M,34.70,KRTS 302015Z AUTO 25009KT 10SM FEW038 FEW045 05/M04 A2986 RMK AO2,M
05U,2023-03-30 20:15,-116.0051,39.6042,1811.23,M,M,M,240.00,9.00,0.00,29.80,M,10.00,M,CLR,M,M,M,M,M,M,M,M,M,M,M,M,M,M,M,K05U 302015Z AUTO 24009KT 230V290 10SM CLR A2980 RMK A01,M
MEV,2023-03-30 20:15,-119.7500,38.9963,1441.42,42.80,26.60,52.45,M,4.00,0.00,29.85,M,10.00,12.00,SCT,SCT,M,M,4100.00,5000.00,M,M,M,M,M,M,M,M,M,40.03,KMEV 302015Z AUTO VRB04G12KT 10SM SCT041 SCT050 06/M03 A2985 RMK AO2,M
BAM,2023-03-30 20:15,-116.8743,40.5990,1382.36,44.60,23.00,42.14,290.00,15.00,0.00,29.79,M,10.00,21.00,SCT,M,M,M,6000.00,M,M,M,M,M,M,M,M,M,M,37.11,KBAM 302015Z AUTO 29015G21KT 10SM SCT060 07/M05 A2979 RMK AO1,M
HTH,2023-03-30 20:15,-118.6315,38.5448,1282.89,46.40,19.40,33.79,330.00,10.00,0.00,29.85,M,10.00,15.00,CLR,M,M,M,M,M,M,M,M,M,M,M,M,M,M,41.03,KHTH 302015Z AUTO 33010G15KT 10SM CLR 08/M07 A2985 RMK A01,M
TMT,2023-03-30 20:15,-117.1971,39.4643,1749.34,38.00,16.00,40.49,300.00,8.00,0.00,29.81,M,10.00,15.00,SCT,SCT,M,M,6000.00,7000.00,M,M,M,M,M,M,M,M,M,31.38,KTMT 302015Z AUTO 30008G15KT 10SM SCT060 SCT070 03/M09 A2981 RMK AO2 T00331089,M
BVU,2023-03-30 20:35,-114.8611,35.9475,671.00,55.40,24.80,30.40,250.00,12.00,0.00,29.82,M,10.00,M,BKN,BKN,BKN,M,6500.00,7500.00,9000.00,M,M,M,M,M,M,M,M,55.40,KBVU 302035Z AUTO 25012KT 10SM BKN065 BKN075 BKN090 13/M04 A2982 RMK AO2,M
CXP,2023-03-30 20:35,-119.7326,39.1923,1431.00,46.40,24.80,42.44,200.00,7.00,0.00,29.85,M,10.00,17.00,BKN,BKN,BKN,M,4800.00,6000.00,7500.00,M,M,M,M,M,M,M,M,42.33,KCXP 302035Z AUTO 20007G17KT 170V240 10SM BKN048 BKN060 BKN075 08/M04 A2985 RMK AO2,M
RTS,2023-03-30 20:35,-119.8764,39.6682,1539.00,41.00,24.80,52.17,290.00,7.00,0.00,29.85,M,10.00,13.00,FEW,FEW,M,M,4800.00,5500.00,M,M,M,M,M,M,M,M,M,35.75,KRTS 302035Z AUTO 29007G13KT 10SM FEW048 FEW055 05/M04 A2985 RMK AO2,M
05U,2023-03-30 20:35,-116.0051,39.6042,1811.23,37.40,19.40,47.80,240.00,8.00,0.00,29.80,M,10.00,M,FEW,FEW,SCT,M,4300.00,5000.00,6000.00,M,M,M,M,M,M,M,M,30.76,K05U 302035Z AUTO 24008KT 220V300 10SM FEW043 FEW050 SCT060 03/M07 A2980 RMK A01,M
MEV,2023-03-30 20:35,-119.7500,38.9963,1441.42,42.80,24.80,48.67,M,6.00,0.00,29.85,M,10.00,M,BKN,BKN,M,M,4300.00,5000.00,M,M,M,M,M,M,M,M,M,38.54,KMEV 302035Z AUTO VRB06KT 10SM BKN043 BKN050 06/M04 A2985 RMK AO2,M
HTH,2023-03-30 20:35,-118.6315,38.5448,1282.89,48.20,19.40,31.57,10.00,7.00,0.00,29.85,M,10.00,13.00,CLR,M,M,M,M,M,M,M,M,M,M,M,M,M,M,44.53,KHTH 302035Z AUTO 01007G13KT 340V040 10SM CLR 09/M07 A2985 RMK A01,M
TMT,2023-03-30 20:35,-117.1971,39.4643,1749.34,39.00,16.70,39.98,300.00,11.00,0.00,29.81,M,10.00,16.00,SCT,SCT,M,M,6000.00,7000.00,M,M,M,M,M,M,M,M,M,31.31,KTMT 302035Z AUTO 30011G16KT 10SM SCT060 SCT070 04/M08 A2981 RMK AO2 T00391085,M
BAM,2023-03-30 20:40,-116.8743,40.5990,1382.36,44.60,23.00,42.14,310.00,14.00,0.00,29.79,M,10.00,20.00,SCT,M,M,M,6000.00,M,M,M,M,M,M,M,M,M,M,37.40,KBAM 302040Z AUTO 31014G20KT 10SM SCT060 07/M05 A2979 RMK AO1,M
05U,2023-03-30 20:50,-116.0051,39.6042,1811.23,M,M,M,250.00,7.00,0.00,29.80,M,10.00,M,BKN,M,M,M,7000.00,M,M,M,M,M,M,M,M,M,M,M,K05U 302050Z AUTO 25007KT 10SM BKN070 A2980 RMK A01,M
INS,2023-03-30 20:52,-115.6733,36.5872,955.00,53.60,23.00,30.11,310.00,10.00,0.00,29.81,1008.20,10.00,18.00,BKN,BKN,M,M,6000.00,19000.00,M,M,M,M,M,M,M,M,M,53.60,KINS 302052Z AUTO 31010G18KT 10SM BKN060 BKN190 12/M05 A2981 RMK AO2 WSHFT 50 SLP082 $,M
P68,2023-03-30 20:53,-116.0056,39.6014,1993.00,34.00,19.90,55.88,230.00,7.00,0.00,29.78,1011.20,M,M,M,M,M,M,M,M,M,M,M,M,M,M,M,M,M,27.22,KP68 302053Z AUTO 23007KT 01/M07 A2978 RMK AO1 SLP112 T00111067 51005,M
DRA,2023-03-30 20:53,-116.0278,36.6206,1009.00,50.00,28.90,43.92,230.00,13.00,0.00,29.83,1008.60,10.00,20.00,CLR,M,M,M,M,M,M,M,M,M,M,M,M,M,M,50.00,KDRA 302053Z AUTO 23013G20KT 10SM CLR 10/M02 A2983 RMK AO2 SLP086 T01001017 51005,M
ELY,2023-03-30 20:53,-114.8453,39.2950,1909.00,34.00,18.00,51.52,310.00,10.00,0.00,29.78,1010.90,10.00,M,BKN,OVC,M,M,5000.00,6000.00,M,M,M,M,M,M,M,M,M,25.48,KELY 302053Z AUTO 31010KT 10SM BKN050 OVC060 01/M08 A2978 RMK AO2 SLP109 T00111078 53011,M
VGT,2023-03-30 20:53,-115.1933,36.2111,667.00,52.00,28.00,39.30,200.00,11.00,T,29.83,1011.70,10.00,M,BKN,OVC,M,M,5500.00,7000.00,M,M,M,M,M,M,M,M,M,52.00,KVGT 302053Z 20011KT 10SM BKN055 OVC070 11/M02 A2983 RMK AO2 LTG DSNT E RAB09E18 SLP117 P0000 60000 T01111022 51012,M
LOL,2023-03-30 20:53,-118.5701,40.0684,1192.43,48.00,21.00,34.05,260.00,8.00,0.00,29.81,1010.40,10.00,M,FEW,M,M,M,7000.00,M,M,M,M,M,M,M,M,M,M,43.82,KLOL 302053Z AUTO 26008KT 10SM FEW070 09/M06 A2981 RMK AO2 SLP104 T00891061 58003,M
BVU,2023-03-30 20:55,-114.8611,35.9475,671.00,57.20,24.80,28.48,260.00,12.00,0.00,29.82,M,10.00,18.00,BKN,BKN,BKN,M,6500.00,7500.00,11000.00,M,M,M,M,M,M,M,M,57.20,KBVU 302055Z AUTO 26012G18KT 10SM BKN065 BKN075 BKN110 14/M04 A2982 RMK AO2,M
CXP,2023-03-30 20:55,-119.7326,39.1923,1431.00,46.40,23.00,39.36,M,12.00,0.00,29.85,M,10.00,20.00,SCT,BKN,OVC,M,4800.00,5500.00,7000.00,M,M,M,M,M,M,M,M,40.33,KCXP 302055Z AUTO VRB12G20KT 10SM SCT048 BKN055 OVC070 08/M05 A2985 RMK AO2,M
RNO,2023-03-30 20:55,-119.7711,39.4839,1341.00,50.00,17.10,26.74,270.00,12.00,0.00,29.84,1009.80,10.00,M,SCT,SCT,M,M,5500.00,25000.00,M,M,M,M,M,M,M,M,M,50.00,KRNO 302055Z 27012KT 10SM SCT055 SCT250 10/M08 A2984 RMK AO2 SLP098 T01001083 58005,M
RTS,2023-03-30 20:55,-119.8764,39.6682,1539.00,42.80,15.80,33.18,280.00,11.00,0.00,29.85,M,10.00,17.00,FEW,M,M,M,5000.00,M,M,M,M,M,M,M,M,M,M,36.11,KRTS 302055Z AUTO 28011G17KT 10SM FEW050 06/M09 A2985 RMK AO2,M
MEV,2023-03-30 20:55,-119.7500,38.9963,1441.42,44.60,24.80,45.44,150.00,8.00,0.00,29.85,M,10.00,M,SCT,BKN,BKN,M,4300.00,5000.00,7500.00,M,M,M,M,M,M,M,M,39.63,KMEV 302055Z AUTO 15008KT 100V180 10SM SCT043 BKN050 BKN075 07/M04 A2985 RMK AO2,M
BAM,2023-03-30 20:55,-116.8743,40.5990,1382.36,44.60,21.20,39.06,300.00,18.00,0.00,29.80,M,10.00,24.00,CLR,M,M,M,M,M,M,M,M,M,M,M,M,M,M,36.34,KBAM 302055Z AUTO 30018G24KT 10SM CLR 07/M06 A2980 RMK AO1,M
HTH,2023-03-30 20:55,-118.6315,38.5448,1282.89,48.20,17.60,29.23,280.00,8.00,0.00,29.85,M,10.00,M,CLR,M,M,M,M,M,M,M,M,M,M,M,M,M,M,44.07,KHTH 302055Z AUTO 28008KT 260V320 10SM CLR 09/M08 A2985 RMK A01,M
LSV,2023-03-30 20:55,-115.0343,36.2362,570.00,56.30,26.80,31.97,240.00,13.00,0.00,29.81,1008.90,10.00,M,FEW,FEW,M,M,7000.00,20000.00,M,M,M,M,M,M,M,M,M,56.30,KLSV 302055Z AUTO 24013KT 10SM FEW070 FEW200 14/M03 A2981 RMK AO2 LTG DSNT NE SLP089 T01351029 52011 $,M
INS,2023-03-30 20:55,-115.6733,36.5872,955.00,53.20,21.70,28.92,310.00,10.00,0.00,29.81,1008.20,10.00,18.00,BKN,BKN,M,M,6000.00,20000.00,M,M,M,M,M,M,26.00,260.00,2023-03-30 20:04,53.20,KINS 302055Z AUTO 31010G18KT 10SM BKN060 BKN200 12/M06 A2981 RMK AO2 PK WND 26026/04 SLP082 T01181057 53003 $,M
TMT,2023-03-30 20:55,-117.1971,39.4643,1749.34,38.00,17.80,43.42,320.00,7.00,0.00,29.81,M,10.00,M,SCT,SCT,M,M,6000.00,7000.00,M,M,M,M,M,M,M,M,M,32.21,KTMT 302055Z AUTO 32007KT 10SM SCT060 SCT070 03/M08 A2981 RMK AO2 T00341079,M
EKO,2023-03-30 20:56,-115.7860,40.8242,1367.00,39.00,19.90,45.87,270.00,15.00,0.00,29.75,1008.80,10.00,27.00,FEW,OVC,M,M,4800.00,6000.00,M,M,M,M,M,M,29.00,240.00,2023-03-30 20:21,29.85,KEKO 302056Z AUTO 27015G27KT 10SM FEW048 OVC060 04/M07 A2975 RMK AO2 PK WND 24029/2021 SLP088 T00391067 51003,M
WMC,2023-03-30 20:56,-117.8072,40.9019,1315.00,45.00,23.00,41.50,260.00,14.00,0.00,29.79,1009.80,10.00,M,FEW,BKN,M,M,6000.00,7500.00,M,M,M,M,M,M,M,M,M,37.92,KWMC 302056Z AUTO 26014KT 10SM FEW060 BKN075 07/M05 A2979 RMK AO2 SLP098 T00721050 53000,M
NFL,2023-03-30 20:56,-118.7010,39.4166,1199.00,48.00,21.00,34.05,240.00,6.00,0.00,29.83,1007.70,10.00,M,BKN,BKN,M,M,5000.00,20000.00,M,M,M,M,M,M,M,M,M,44.80,KNFL 302056Z 24006KT 10SM BKN050 BKN200 09/M06 A2983 RMK AO2 SLP077 T00891061 58003,M
HND,2023-03-30 20:56,-115.1344,35.9729,742.79,53.00,28.00,37.74,320.00,15.00,0.00,29.85,1012.40,10.00,M,SCT,BKN,OVC,M,6000.00,7500.00,11000.00,M,M,M,M,M,M,M,M,53.10,KHND 302056Z 32015KT 10SM SCT060 BKN075 OVC110 12/M02 A2985 RMK AO2 LTG DSNT NE SLP124 T01171022 53009,M
LAS,2023-03-30 20:56,-115.1634,36.0719,663.00,52.00,27.00,37.72,340.00,7.00,T,29.85,1010.40,10.00,M,BKN,OVC,M,M,7000.00,8500.00,M,M,M,M,M,M,M,M,M,52.00,KLAS 302056Z 34007KT 10SM BKN070 OVC085 11/M03 A2985 RMK AO2 LTG DSNT E RAE11B44E53 SLP104 P0000 60000 T01111028 53015,M
TPH,2023-03-30 20:56,-117.0904,38.0505,1654.00,42.00,21.90,44.27,10.00,5.00,0.00,29.81,1010.20,10.00,M,FEW,SCT,M,M,5500.00,7000.00,M,M,M,M,M,M,M,M,M,38.39,KTPH 302056Z AUTO 01005KT 10SM FEW055 SCT070 06/M06 A2981 RMK AO2 SLP102 T00561056 50002,M
INS,2023-03-30 21:01,-115.6733,36.5872,955.00,53.60,23.00,30.11,340.00,15.00,0.00,29.81,1008.20,10.00,18.00,SCT,BKN,OVC,M,6000.00,8000.00,19000.00,M,M,M,M,M,M,M,M,53.60,KINS 302101Z AUTO 34015G18KT 10SM SCT060 BKN080 OVC190 12/M05 A2981 RMK AO2 WSHFT 2056 SLP082 $,M
HND,2023-03-30 21:06,-115.1344,35.9729,742.79,51.80,28.40,40.25,340.00,10.00,0.00,29.85,M,10.00,M,SCT,BKN,OVC,M,6000.00,7500.00,10000.00,M,M,M,M,M,M,M,M,51.80,KHND 302106Z 34010KT 10SM SCT060 BKN075 OVC100 11/M02 A2985 RMK AO2 WSHFT 2046,M
BVU,2023-03-30 21:15,-114.8611,35.9475,671.00,57.20,23.00,26.42,220.00,9.00,0.00,29.82,M,10.00,14.00,SCT,SCT,BKN,M,7000.00,7500.00,9000.00,M,M,M,M,M,M,M,M,57.20,KBVU 302115Z AUTO 22009G14KT 10SM SCT070 SCT075 BKN090 14/M05 A2982 RMK AO2,M
CXP,2023-03-30 21:15,-119.7326,39.1923,1431.00,48.20,15.80,27.04,300.00,7.00,0.00,29.86,M,10.00,12.00,FEW,SCT,BKN,M,5000.00,6500.00,8500.00,M,M,M,M,M,M,M,M,44.53,KCXP 302115Z AUTO 30007G12KT 220V310 10SM FEW050 SCT065 BKN085 09/M09 A2986 RMK AO2,M
RTS,2023-03-30 21:15,-119.8764,39.6682,1539.00,42.80,23.00,45.14,290.00,12.00,0.00,29.85,M,10.00,18.00,CLR,M,M,M,M,M,M,M,M,M,M,M,M,M,M,35.75,KRTS 302115Z AUTO 29012G18KT 10SM CLR 06/M05 A2985 RMK AO2,M
05U,2023-03-30 21:15,-116.0051,39.6042,1811.23,M,M,M,250.00,10.00,0.00,29.81,M,10.00,M,CLR,M,M,M,M,M,M,M,M,M,M,M,M,M,M,M,K05U 302115Z AUTO 25010KT 10SM CLR A2981 RMK A01,M
MEV,2023-03-30 21:15,-119.7500,38.9963,1441.42,44.60,21.20,39.06,140.00,3.00,0.00,29.85,M,10.00,M,SCT,SCT,BKN,M,5500.00,6500.00,8000.00,M,M,M,M,M,M,M,M,43.09,KMEV 302115Z AUTO 14003KT 10SM SCT055 SCT065 BKN080 07/M06 A2985 RMK AO2,M
BAM,2023-03-30 21:15,-116.8743,40.5990,1382.36,44.60,21.20,39.06,290.00,16.00,0.00,29.80,M,10.00,23.00,SCT,M,M,M,6500.00,M,M,M,M,M,M,M,M,M,M,36.84,KBAM 302115Z AUTO 29016G23KT 10SM SCT065 07/M06 A2980 RMK AO1,M
HTH,2023-03-30 21:15,-118.6315,38.5448,1282.89,48.20,17.60,29.23,320.00,7.00,0.00,29.85,M,10.00,M,FEW,M,M,M,8000.00,M,M,M,M,M,M,M,M,M,M,44.53,KHTH 302115Z AUTO 32007KT 10SM FEW080 09/M08 A2985 RMK A01,M
TMT,2023-03-30 21:15,-117.1971,39.4643,1749.34,38.30,18.90,45.17,270.00,8.00,0.00,29.81,M,10.00,M,SCT,BKN,M,M,6000.00,7000.00,M,M,M,M,M,M,M,M,M,31.87,KTMT 302115Z AUTO 27008KT 10SM SCT060 BKN070 04/M07 A2981 RMK AO2 T00351073,M
INS,2023-03-30 21:17,-115.6733,36.5872,955.00,51.80,23.00,32.17,330.00,17.00,0.00,29.81,1008.20,10.00,23.00,FEW,FEW,SCT,BKN,1000.00,1800.00,4900.00,6000.00,-RA,M,M,M,M,M,M,51.80,KINS 302117Z AUTO 33017G23KT 10SM -RA FEW010 FEW018 SCT049 BKN060 OVC075 11/M05 A2981 RMK AO2 RAB17 SLP082 $,M
INS,2023-03-30 21:29,-115.6733,36.5872,955.00,50.00,24.80,37.08,290.00,14.00,0.00,29.82,1008.70,10.00,M,FEW,SCT,BKN,BKN,1400.00,4900.00,6000.00,7000.00,-RA,M,M,M,M,M,M,50.00,KINS 302129Z AUTO 29014KT 10SM -RA FEW014 SCT049 BKN060 BKN070 OVC090 10/M04 A2982 RMK AO2 WSHFT 16 RAB17 SLP087 $,M
BVU,2023-03-30 21:35,-114.8611,35.9475,671.00,55.40,26.60,32.76,320.00,15.00,0.00,29.83,M,10.00,M,BKN,BKN,BKN,M,7000.00,9000.00,11000.00,M,M,M,M,M,M,M,M,55.40,KBVU 302135Z AUTO 32015KT 10SM BKN070 BKN090 BKN110 13/M03 A2983 RMK AO2,M
CXP,2023-03-30 21:35,-119.7326,39.1923,1431.00,48.20,15.80,27.04,260.00,11.00,0.00,29.86,M,10.00,18.00,SCT,SCT,M,M,7000.00,8500.00,M,M,M,M,M,M,M,M,M,42.94,KCXP 302135Z AUTO 26011G18KT 220V280 10SM SCT070 SCT085 09/M09 A2986 RMK AO2,M
RTS,2023-03-30 21:35,-119.8764,39.6682,1539.00,42.80,23.00,45.14,270.00,12.00,0.00,29.85,M,10.00,20.00,FEW,M,M,M,4900.00,M,M,M,M,M,M,M,M,M,M,35.75,KRTS 302135Z AUTO 27012G20KT 10SM FEW049 06/M05 A2985 RMK AO2,M
05U,2023-03-30 21:35,-116.0051,39.6042,1811.23,M,M,M,250.00,8.00,0.00,29.80,M,10.00,M,CLR,M,M,M,M,M,M,M,M,M,M,M,M,M,M,M,K05U 302135Z AUTO 25008KT 10SM CLR A2980 RMK A01,M
MEV,2023-03-30 21:35,-119.7500,38.9963,1441.42,48.20,19.40,31.57,270.00,11.00,0.00,29.85,M,10.00,M,SCT,BKN,BKN,M,6000.00,7000.00,8000.00,M,M,M,M,M,M,M,M,42.94,KMEV 302135Z AUTO 27011KT 10SM SCT060 BKN070 BKN080 09/M07 A2985 RMK AO2,M
BAM,2023-03-30 21:35,-116.8743,40.5990,1382.36,46.40,23.00,39.36,290.00,13.00,0.00,29.80,M,10.00,22.00,SCT,M,M,M,6500.00,M,M,M,M,M,M,M,M,M,M,40.02,KBAM 302135Z AUTO 29013G22KT 10SM SCT065 08/M05 A2980 RMK AO1,M
HTH,2023-03-30 21:35,-118.6315,38.5448,1282.89,48.20,19.40,31.57,310.00,14.00,0.00,29.85,M,10.00,M,FEW,M,M,M,8500.00,M,M,M,M,M,M,M,M,M,M,42.04,KHTH 302135Z AUTO 31014KT 10SM FEW085 09/M07 A2985 RMK A01,M
TMT,2023-03-30 21:35,-117.1971,39.4643,1749.34,38.30,19.00,45.36,320.00,9.00,0.00,29.81,M,10.00,M,BKN,BKN,BKN,M,6000.00,7000.00,8000.00,M,M,M,M,M,M,M,M,31.35,KTMT 302135Z AUTO 32009KT 10SM BKN060 BKN070 BKN080 04/M07 A2981 RMK AO2 T00351072,M
INS,2023-03-30 21:48,-115.6733,36.5872,955.00,46.40,30.20,53.00,270.00,13.00,0.00,29.82,1009.00,10.00,M,BKN,OVC,M,M,6000.00,9000.00,M,M,M,M,M,M,M,M,M,40.02,KINS 302148Z AUTO 27013KT 10SM BKN060 OVC090 08/M01 A2982 RMK AO2 RAB17E48 SLP090 $,M
05U,2023-03-30 21:50,-116.0051,39.6042,1811.23,M,M,M,250.00,8.00,0.00,29.80,M,10.00,M,CLR,M,M,M,M,M,M,M,M,M,M,M,M,M,M,M,K05U 302150Z AUTO 25008KT 10SM CLR A2980 RMK A01,M
LSV,2023-03-30 21:51,-115.0343,36.2362,570.00,57.20,26.60,30.69,240.00,7.00,0.00,29.81,1009.00,10.00,M,BKN,M,M,M,10000.00,M,M,M,M,M,M,M,M,M,M,57.20,KLSV 302151Z 24007KT 10SM BKN100 14/M03 A2981 RMK SLP090 $,M
DRA,2023-03-30 21:53,-116.0278,36.6206,1009.00,48.00,30.00,49.49,260.00,13.00,0.00,29.85,1009.30,10.00,M,FEW,SCT,OVC,M,3900.00,4600.00,6000.00,M,M,M,M,M,M,M,M,42.07,KDRA 302153Z AUTO 26013KT 10SM FEW039 SCT046 OVC060 09/M01 A2985 RMK AO2 SLP093 T00891011,M
ELY,2023-03-30 21:53,-114.8453,39.2950,1909.00,34.00,19.00,53.77,260.00,12.00,0.00,29.78,1011.70,10.00,M,FEW,BKN,M,M,4600.00,6000.00,M,M,M,M,M,M,M,M,M,24.55,KELY 302153Z AUTO 26012KT 10SM FEW046 BKN060 01/M07 A2978 RMK AO2 SLP117 T00111072,M
VGT,2023-03-30 21:53,-115.1933,36.2111,667.00,54.00,27.00,35.05,250.00,10.00,0.00,29.83,1011.50,10.00,M,SCT,M,M,M,10000.00,M,M,M,M,M,M,M,M,M,M,54.00,KVGT 302153Z 25010KT 10SM SCT100 12/M03 A2983 RMK AO2 SLP115 T01221028,M
LOL,2023-03-30 21:53,-118.5701,40.0684,1192.43,49.00,16.00,26.57,300.00,10.00,0.00,29.81,1010.20,10.00,M,FEW,FEW,M,M,8000.00,9000.00,M,M,M,M,M,M,M,M,M,44.16,KLOL 302153Z AUTO 30010KT 10SM FEW080 FEW090 09/M09 A2981 RMK AO2 SLP102 T00941089,M
P68,2023-03-30 21:53,-116.0056,39.6014,1993.00,35.00,23.00,60.99,250.00,6.00,0.00,29.79,1011.50,M,M,M,M,M,M,M,M,M,M,M,M,M,M,M,M,M,29.26,KP68 302153Z AUTO 25006KT 02/M05 A2979 RMK AO1 SLP115 T00171050,M
BVU,2023-03-30 21:55,-114.8611,35.9475,671.00,53.60,28.40,37.67,330.00,13.00,0.00,29.84,M,10.00,18.00,BKN,OVC,M,M,7000.00,9000.00,M,M,M,M,M,M,M,M,M,53.60,KBVU 302155Z AUTO 33013G18KT 10SM BKN070 OVC090 12/M02 A2984 RMK AO2 LTG DSNT NE AND W,M
CXP,2023-03-30 21:55,-119.7326,39.1923,1431.00,48.20,17.60,29.23,230.00,8.00,0.00,29.86,M,10.00,16.00,SCT,SCT,M,M,6500.00,9000.00,M,M,M,M,M,M,M,M,M,44.07,KCXP 302155Z AUTO 23008G16KT 200V260 10SM SCT065 SCT090 09/M08 A2986 RMK AO2,M
INS,2023-03-30 21:55,-115.6733,36.5872,955.00,46.80,30.60,53.06,260.00,12.00,T,29.82,1008.70,10.00,M,FEW,SCT,OVC,M,4600.00,6500.00,9000.00,M,M,M,M,M,M,M,M,40.84,KINS 302155Z AUTO 26012KT 10SM FEW046 SCT065 OVC090 08/M01 A2982 RMK AO2 RAB17E48 SLP087 P0000 T00821008 $,M
RTS,2023-03-30 21:55,-119.8764,39.6682,1539.00,44.60,24.80,45.44,270.00,11.00,0.00,29.85,M,10.00,18.00,CLR,M,M,M,M,M,M,M,M,M,M,M,M,M,M,38.39,KRTS 302155Z AUTO 27011G18KT 10SM CLR 07/M04 A2985 RMK AO2,M
MEV,2023-03-30 21:55,-119.7500,38.9963,1441.42,48.20,19.40,31.57,280.00,11.00,0.00,29.85,M,10.00,17.00,FEW,M,M,M,6000.00,M,M,M,M,M,M,M,M,M,M,42.94,KMEV 302155Z AUTO 28011G17KT 250V310 10SM FEW060 09/M07 A2985 RMK AO2,M
BAM,2023-03-30 21:55,-116.8743,40.5990,1382.36,46.40,23.00,39.36,260.00,14.00,0.00,29.80,M,10.00,20.00,CLR,M,M,M,M,M,M,M,M,M,M,M,M,M,M,39.72,KBAM 302155Z AUTO 26014G20KT 10SM CLR 08/M05 A2980 RMK AO1,M
HTH,2023-03-30 21:55,-118.6315,38.5448,1282.89,48.20,19.40,31.57,290.00,5.00,0.00,29.85,M,10.00,12.00,SCT,SCT,SCT,M,6000.00,8000.00,9000.00,M,M,M,M,M,M,M,M,45.63,KHTH 302155Z AUTO 29005G12KT 10SM SCT060 SCT080 SCT090 09/M07 A2985 RMK A01,M
TMT,2023-03-30 21:55,-117.1971,39.4643,1749.34,39.20,22.80,51.46,240.00,15.00,0.00,29.81,M,10.00,M,SCT,BKN,BKN,M,4300.00,6000.00,7000.00,M,M,M,M,M,M,M,M,30.11,KTMT 302155Z AUTO 24015KT 10SM SCT043 BKN060 BKN070 04/M05 A2981 RMK AO2 T00401051,M
LSV,2023-03-30 21:55,-115.0343,36.2362,570.00,57.60,26.40,30.01,250.00,7.00,0.00,29.81,1009.00,10.00,M,BKN,M,M,M,10000.00,M,M,M,M,M,M,M,M,M,M,57.60,KLSV 302155Z 25007KT 10SM BKN100 14/M03 A2981 RMK AO2A SLP090 T01421031 $,M
RNO,2023-03-30 21:55,-119.7711,39.4839,1341.00,51.00,19.00,27.86,260.00,14.00,0.00,29.84,1009.60,10.00,18.00,SCT,SCT,M,M,7500.00,25000.00,M,M,M,M,M,M,M,M,M,51.10,KRNO 302155Z 26014G18KT 10SM SCT075 SCT250 11/M07 A2984 RMK AO2 SLP096 T01061072,M
EKO,2023-03-30 21:56,-115.7860,40.8242,1367.00,39.00,23.00,52.30,270.00,16.00,0.00,29.77,1009.40,10.00,21.00,SCT,BKN,OVC,M,4300.00,5500.00,7500.00,M,M,M,M,M,M,M,M,29.54,KEKO 302156Z AUTO 27016G21KT 10SM SCT043 BKN055 OVC075 04/M05 A2977 RMK AO2 SLP094 T00391050,M
WMC,2023-03-30 21:56,-117.8072,40.9019,1315.00,45.00,21.90,39.62,270.00,11.00,0.00,29.79,1009.80,10.00,18.00,SCT,BKN,M,M,7000.00,8500.00,M,M,M,M,M,M,M,M,M,38.89,KWMC 302156Z AUTO 27011G18KT 10SM SCT070 BKN085 07/M06 A2979 RMK AO2 SLP098 T00721056,M
NFL,2023-03-30 21:56,-118.7010,39.4166,1199.00,50.00,12.00,21.40,230.00,7.00,0.00,29.82,1007.50,10.00,17.00,BKN,BKN,M,M,5000.00,20000.00,M,M,M,M,M,M,M,M,M,50.00,KNFL 302156Z 23007G17KT 10SM BKN050 BKN200 10/M11 A2982 RMK AO2 SLP075 T01001111,M
HND,2023-03-30 21:56,-115.1344,35.9729,742.79,53.00,28.90,39.16,M,5.00,0.00,29.85,1012.60,10.00,M,FEW,BKN,M,M,5500.00,10000.00,M,M,M,M,M,M,M,M,M,53.10,KHND 302156Z VRB05KT 10SM FEW055 BKN100 12/M02 A2985 RMK AO2 WSHFT 2046 SLP126 T01171017,M
TPH,2023-03-30 21:56,-117.0904,38.0505,1654.00,45.00,21.00,38.14,320.00,14.00,0.00,29.81,1010.00,10.00,21.00,CLR,M,M,M,M,M,M,M,M,M,M,M,M,M,M,37.92,KTPH 302156Z AUTO 32014G21KT 10SM CLR 07/M06 A2981 RMK AO2 SLP100 T00721061,M
LAS,2023-03-30 21:56,-115.1634,36.0719,663.00,53.00,25.00,33.34,M,M,0.00,29.84,1010.10,10.00,M,SCT,BKN,BKN,M,7000.00,11000.00,17000.00,M,M,M,M,M,M,M,M,53.10,KLAS 302156Z 10SM SCT070 BKN110 BKN170 12/M04 A2984 RMK AO2 SLP101 VCSH ALQDS T01171039,M
LAS,2023-03-30 21:59,-115.1634,36.0719,663.00,54.00,26.10,33.77,270.00,4.00,0.00,29.84,M,10.00,M,SCT,BKN,BKN,M,7000.00,11000.00,17000.00,M,M,M,M,M,M,M,M,54.00,KLAS 302159Z 27004KT 10SM SCT070 BKN110 BKN170 12/M03 A2984 RMK AO2 VCSH ALQDS T01221033,M
05U,2023-03-30 22:10,-116.0051,39.6042,1811.23,M,M,M,270.00,5.00,0.00,29.81,M,10.00,M,FEW,M,M,M,6000.00,M,M,M,M,M,M,M,M,M,M,M,K05U 302210Z AUTO 27005KT 10SM FEW060 A2981 RMK A01,M
BVU,2023-03-30 22:15,-114.8611,35.9475,671.00,53.60,30.20,40.54,50.00,7.00,0.00,29.84,M,10.00,13.00,SCT,BKN,M,M,7000.00,8000.00,M,M,M,M,M,M,M,M,M,53.60,KBVU 302215Z AUTO 05007G13KT 10SM SCT070 BKN080 12/M01 A2984 RMK AO2,M
CXP,2023-03-30 22:15,-119.7326,39.1923,1431.00,48.20,15.80,27.04,260.00,8.00,0.00,29.86,M,10.00,17.00,FEW,FEW,M,M,6000.00,7000.00,M,M,M,M,M,M,M,M,M,44.07,KCXP 302215Z AUTO 26008G17KT 10SM FEW060 FEW070 09/M09 A2986 RMK AO2,M
RTS,2023-03-30 22:15,-119.8764,39.6682,1539.00,44.60,24.80,45.44,310.00,12.00,0.00,29.85,M,10.00,20.00,FEW,FEW,FEW,M,5000.00,6000.00,7000.00,M,M,M,M,M,M,M,M,38.04,KRTS 302215Z AUTO 31012G20KT 10SM FEW050 FEW060 FEW070 07/M04 A2985 RMK AO2,M
MEV,2023-03-30 22:15,-119.7500,38.9963,1441.42,50.00,19.40,29.52,280.00,15.00,0.00,29.85,M,10.00,20.00,CLR,M,M,M,M,M,M,M,M,M,M,M,M,M,M,50.00,KMEV 302215Z AUTO 28015G20KT 10SM CLR 10/M07 A2985 RMK AO2,M
BAM,2023-03-30 22:15,-116.8743,40.5990,1382.36,44.60,23.00,42.14,270.00,15.00,0.00,29.80,M,10.00,20.00,SCT,SCT,M,M,6000.00,8000.00,M,M,M,M,M,M,M,M,M,37.11,KBAM 302215Z AUTO 27015G20KT 10SM SCT060 SCT080 07/M05 A2980 RMK AO1,M
HTH,2023-03-30 22:15,-118.6315,38.5448,1282.89,48.20,17.60,29.23,10.00,7.00,0.00,29.85,M,10.00,M,FEW,FEW,M,M,6000.00,7500.00,M,M,M,M,M,M,M,M,M,44.53,KHTH 302215Z AUTO 01007KT 10SM FEW060 FEW075 09/M08 A2985 RMK A01,M
TMT,2023-03-30 22:15,-117.1971,39.4643,1749.34,39.70,23.00,50.89,250.00,9.00,0.00,29.81,M,10.00,21.00,BKN,OVC,M,M,4700.00,5500.00,M,M,M,M,M,M,M,M,M,33.09,KTMT 302215Z AUTO 25009G21KT 10SM BKN047 OVC055 04/M05 A2981 RMK AO2 T00431050,M
BVU,2023-03-30 22:35,-114.8611,35.9475,671.00,53.60,30.20,40.54,50.00,11.00,0.00,29.84,M,10.00,M,FEW,SCT,M,M,7000.00,8000.00,M,M,TS,M,M,M,M,M,M,53.60,KBVU 302235Z AUTO 05011KT 10SM TS FEW070 SCT080 12/M01 A2984 RMK AO2 LTG DSNT NE,M
CXP,2023-03-30 22:35,-119.7326,39.1923,1431.00,48.20,17.60,29.23,250.00,11.00,0.00,29.86,M,10.00,16.00,CLR,M,M,M,M,M,M,M,M,M,M,M,M,M,M,42.94,KCXP 302235Z AUTO 25011G16KT 220V280 10SM CLR 09/M08 A2986 RMK AO2,M
RTS,2023-03-30 22:35,-119.8764,39.6682,1539.00,42.80,19.40,38.75,260.00,12.00,0.00,29.86,M,10.00,21.00,SCT,BKN,BKN,M,5500.00,7000.00,8000.00,M,M,M,M,M,M,M,M,35.75,KRTS 302235Z AUTO 26012G21KT 10SM SCT055 BKN070 BKN080 06/M07 A2986 RMK AO2,M
05U,2023-03-30 22:35,-116.0051,39.6042,1811.23,39.20,21.20,48.10,240.00,8.00,0.00,29.80,M,10.00,M,CLR,M,M,M,M,M,M,M,M,M,M,M,M,M,M,32.98,K05U 302235Z AUTO 24008KT 10SM CLR 04/M06 A2980 RMK A01,M
MEV,2023-03-30 22:35,-119.7500,38.9963,1441.42,48.20,17.60,29.23,260.00,14.00,0.00,29.86,M,10.00,M,CLR,M,M,M,M,M,M,M,M,M,M,M,M,M,M,42.04,KMEV 302235Z AUTO 26014KT 10SM CLR 09/M08 A2986 RMK AO2,M
BAM,2023-03-30 22:35,-116.8743,40.5990,1382.36,44.60,23.00,42.14,280.00,11.00,0.00,29.80,M,10.00,17.00,SCT,BKN,OVC,M,6000.00,7000.00,8000.00,M,M,M,M,M,M,M,M,38.39,KBAM 302235Z AUTO 28011G17KT 10SM SCT060 BKN070 OVC080 07/M05 A2980 RMK AO1,M
HTH,2023-03-30 22:35,-118.6315,38.5448,1282.89,48.20,15.80,27.04,M,3.00,0.00,29.85,M,10.00,M,CLR,M,M,M,M,M,M,M,M,M,M,M,M,M,M,47.21,KHTH 302235Z AUTO VRB03KT 10SM CLR 09/M09 A2985 RMK A01,M
TMT,2023-03-30 22:35,-117.1971,39.4643,1749.34,39.20,23.20,52.33,250.00,8.00,0.00,29.81,M,10.00,M,BKN,OVC,M,M,4900.00,5500.00,M,M,M,M,M,M,M,M,M,32.98,KTMT 302235Z AUTO 25008KT 10SM BKN049 OVC055 04/M05 A2981 RMK AO2 T00401049,M
LSV,2023-03-30 22:43,-115.0343,36.2362,570.00,57.20,28.40,33.05,310.00,18.00,0.00,29.85,1010.40,10.00,23.00,FEW,BKN,M,M,4500.00,6500.00,M,M,-RA,M,M,M,M,M,M,57.20,KLSV 302243Z 31018G23KT 10SM -RA FEW045 BKN065 14/M02 A2985 RMK AO2A RAB43 SLP104 $,M
LSV,2023-03-30 22:44,-115.0343,36.2362,570.00,57.20,30.20,35.57,330.00,21.00,0.00,29.85,1010.40,10.00,29.00,FEW,BKN,M,M,4500.00,6500.00,M,M,-RA,M,M,M,M,M,M,57.20,KLSV 302244Z 33021G29KT 10SM -RA FEW045 BKN065 14/M01 A2985 RMK AO2A WSHFT 34 RAB43 SLP104 $,M
05U,2023-03-30 22:50,-116.0051,39.6042,1811.23,M,M,M,250.00,9.00,0.00,29.80,M,10.00,M,SCT,SCT,M,M,5000.00,6000.00,M,M,M,M,M,M,M,M,M,M,K05U 302250Z AUTO 25009KT 10SM SCT050 SCT060 A2980 RMK A01,M
P68,2023-03-30 22:53,-116.0056,39.6014,1993.00,37.00,21.00,51.99,250.00,9.00,0.00,29.78,1010.50,M,M,M,M,M,M,M,M,M,M,M,M,M,M,M,M,M,29.73,KP68 302253Z AUTO 25009KT 03/M06 A2978 RMK AO1 SLP105 T00281061,M
ELY,2023-03-30 22:53,-114.8453,39.2950,1909.00,34.00,16.00,47.25,270.00,7.00,0.00,29.79,1011.40,10.00,15.00,BKN,OVC,M,M,5500.00,7000.00,M,M,M,M,M,M,M,M,M,27.22,KELY 302253Z AUTO 27007G15KT 10SM BKN055 OVC070 01/M09 A2979 RMK AO2 SLP114 T00111089,M
VGT,2023-03-30 22:53,-115.1933,36.2111,667.00,49.00,34.00,56.23,260.00,16.00,T,29.87,1013.50,10.00,23.00,BKN,BKN,OVC,M,4100.00,6000.00,7000.00,M,-RA,M,M,M,28.00,240.00,2023-03-30 22:14,42.45,KVGT 302253Z 26016G23KT 10SM -RA BKN041 BKN060 OVC070 09/01 A2987 RMK AO2 PK WND 24028/2214 LTG DSNT SE RAB33 SLP135 P0000 T00940011,M
LOL,2023-03-30 22:53,-118.5701,40.0684,1192.43,50.00,17.10,26.74,280.00,7.00,0.00,29.82,1010.70,10.00,20.00,CLR,M,M,M,M,M,M,M,M,M,M,M,M,M,M,50.00,KLOL 302253Z AUTO 28007G20KT 260V320 10SM CLR 10/M08 A2982 RMK AO2 SLP107 T01001083,M
DRA,2023-03-30 22:53,-116.0278,36.6206,1009.00,44.00,28.90,54.85,190.00,16.00,T,29.85,1009.60,10.00,M,FEW,M,M,M,12000.00,M,M,M,M,M,M,M,M,M,M,36.19,KDRA 302253Z AUTO 19016KT 10SM FEW120 07/M02 A2985 RMK AO2 RAB01E12 SLP096 P0000 T00671017,M
BVU,2023-03-30 22:55,-114.8611,35.9475,671.00,53.60,30.20,40.54,10.00,10.00,0.00,29.84,M,10.00,M,SCT,SCT,M,M,7000.00,9000.00,M,M,M,M,M,M,M,M,M,53.60,KBVU 302255Z AUTO 01010KT 10SM SCT070 SCT090 12/M01 A2984 RMK AO2,M
CXP,2023-03-30 22:55,-119.7326,39.1923,1431.00,48.20,17.60,29.23,270.00,14.00,0.00,29.86,M,10.00,21.00,FEW,M,M,M,7000.00,M,M,M,M,M,M,M,M,M,M,42.04,KCXP 302255Z AUTO 27014G21KT 10SM FEW070 09/M08 A2986 RMK AO2,M
RNO,2023-03-30 22:55,-119.7711,39.4839,1341.00,50.00,19.90,30.16,280.00,14.00,0.00,29.84,1010.00,10.00,18.00,SCT,BKN,BKN,M,6500.00,10000.00,25000.00,M,M,M,M,M,M,M,M,50.00,KRNO 302255Z 28014G18KT 240V310 10SM SCT065 BKN100 BKN250 10/M07 A2984 RMK AO2 SLP100 T01001067,M
RTS,2023-03-30 22:55,-119.8764,39.6682,1539.00,42.80,21.20,41.84,270.00,15.00,0.00,29.86,M,10.00,24.00,BKN,BKN,BKN,M,5500.00,7000.00,8000.00,M,M,M,M,M,M,M,M,34.78,KRTS 302255Z AUTO 27015G24KT 10SM BKN055 BKN070 BKN080 06/M06 A2986 RMK AO2,M
MEV,2023-03-30 22:55,-119.7500,38.9963,1441.42,48.20,15.80,27.04,270.00,16.00,0.00,29.86,M,10.00,M,CLR,M,M,M,M,M,M,M,M,M,M,M,M,M,M,41.53,KMEV 302255Z AUTO 27016KT 10SM CLR 09/M09 A2986 RMK AO2,M
BAM,2023-03-30 22:55,-116.8743,40.5990,1382.36,44.60,23.00,42.14,300.00,15.00,0.00,29.80,M,10.00,20.00,SCT,SCT,BKN,M,6000.00,7000.00,8000.00,M,M,M,M,M,M,M,M,37.11,KBAM 302255Z AUTO 30015G20KT 10SM SCT060 SCT070 BKN080 07/M05 A2980 RMK AO1,M
HTH,2023-03-30 22:55,-118.6315,38.5448,1282.89,50.00,15.80,25.28,360.00,8.00,0.00,29.84,M,10.00,M,CLR,M,M,M,M,M,M,M,M,M,M,M,M,M,M,50.00,KHTH 302255Z AUTO 36008KT 320V020 10SM CLR 10/M09 A2984 RMK A01,M
TMT,2023-03-30 22:55,-117.1971,39.4643,1749.34,40.30,19.60,43.05,290.00,6.00,0.00,29.81,M,10.00,14.00,SCT,SCT,SCT,M,4700.00,5500.00,6500.00,M,M,M,M,M,M,M,M,35.53,KTMT 302255Z AUTO 29006G14KT 10SM SCT047 SCT055 SCT065 05/M07 A2981 RMK AO2 T00461069,M
INS,2023-03-30 22:55,-115.6733,36.5872,955.00,50.00,27.10,40.79,280.00,17.00,0.00,29.82,1008.70,10.00,M,BKN,OVC,M,M,14000.00,16000.00,M,M,M,M,M,M,M,M,M,50.00,KINS 302255Z AUTO 28017KT 10SM BKN140 OVC160 10/M03 A2982 RMK AO2 SLP087 T01001027 $,M
LSV,2023-03-30 22:55,-115.0343,36.2362,570.00,51.30,37.40,58.85,350.00,16.00,T,29.87,1011.30,5.00,30.00,FEW,SCT,M,M,4800.00,6500.00,M,M,RA,M,M,M,30.00,330.00,2023-03-30 22:44,51.30,KLSV 302255Z AUTO 35016G30KT 5SM RA FEW048 SCT065 11/03 A2987 RMK AO2 PK WND 33030/44 RAB43 PRESRR SLP113 P0000 T01070030 $,M
WMC,2023-03-30 22:56,-117.8072,40.9019,1315.00,46.00,23.00,39.96,260.00,13.00,0.00,29.79,1009.90,10.00,M,BKN,M,M,M,8000.00,M,M,M,M,M,M,M,M,M,M,39.50,KWMC 302256Z AUTO 26013KT 10SM BKN080 08/M05 A2979 RMK AO2 SLP099 T00781050,M
NFL,2023-03-30 22:56,-118.7010,39.4166,1199.00,52.00,10.90,18.92,270.00,15.00,0.00,29.82,1007.60,10.00,25.00,BKN,BKN,BKN,M,5000.00,10000.00,25000.00,M,M,M,M,M,M,M,M,52.00,KNFL 302256Z 27015G25KT 10SM BKN050 BKN100 BKN250 11/M12 A2982 RMK AO2 SLP076 T01111117,M
HND,2023-03-30 22:56,-115.1344,35.9729,742.79,48.00,30.90,51.34,300.00,20.00,T,29.88,1013.80,10.00,28.00,FEW,BKN,OVC,M,6000.00,7000.00,9000.00,M,M,M,M,M,28.00,290.00,2023-03-30 22:53,40.39,KHND 302256Z 30020G28KT 10SM FEW060 BKN070 OVC090 09/M01 A2988 RMK AO2 PK WND 29028/2253 LTG DSNT E AND SE RAB10E41 SLP138 P0000 T00891006,M
TPH,2023-03-30 22:56,-117.0904,38.0505,1654.00,44.00,19.00,36.25,320.00,19.00,0.00,29.82,1010.50,10.00,25.00,FEW,M,M,M,7500.00,M,M,M,M,M,M,M,26.00,320.00,2023-03-30 22:46,35.44,KTPH 302256Z AUTO 32019G25KT 10SM FEW075 07/M07 A2982 RMK AO2 PK WND 32026/2246 SLP105 T00671072,M
LAS,2023-03-30 22:56,-115.1634,36.0719,663.00,49.00,32.00,51.89,260.00,23.00,0.00,29.87,1011.20,10.00,31.00,SCT,BKN,BKN,M,7000.00,11000.00,17000.00,M,M,M,M,M,31.00,270.00,2023-03-30 22:45,41.03,KLAS 302256Z 26023G31KT 10SM SCT070 BKN110 BKN170 09/00 A2987 RMK AO2 PK WND 27031/2245 LTG DSNT SE SLP112 VCSH ALQDS T00940000,M
LSV,2023-03-30 23:12,-115.0343,36.2362,570.00,48.20,35.60,61.52,40.00,7.00,0.00,29.87,1011.30,7.00,M,FEW,M,M,M,4600.00,M,M,M,M,M,M,M,M,M,M,44.53,KLSV 302312Z AUTO 04007KT 7SM FEW046 09/02 A2987 RMK AO2 RAE12 SLP113 $,M
BVU,2023-03-30 23:15,-114.8611,35.9475,671.00,55.40,26.60,32.76,320.00,14.00,0.00,29.85,M,10.00,M,FEW,BKN,BKN,M,6000.00,7500.00,9000.00,M,M,M,M,M,M,M,M,55.40,KBVU 302315Z AUTO 32014KT 10SM FEW060 BKN075 BKN090 13/M03 A2985 RMK AO2 LTG DSNT E AND SW,M
CXP,2023-03-30 23:15,-119.7326,39.1923,1431.00,46.40,19.40,33.79,240.00,12.00,0.00,29.87,M,10.00,22.00,CLR,M,M,M,M,M,M,M,M,M,M,M,M,M,M,40.33,KCXP 302315Z AUTO 24012G22KT 210V270 10SM CLR 08/M07 A2987 RMK AO2,M
RTS,2023-03-30 23:15,-119.8764,39.6682,1539.00,42.80,21.20,41.84,280.00,17.00,0.00,29.86,M,10.00,25.00,FEW,SCT,SCT,M,5500.00,6500.00,7500.00,M,M,M,M,M,M,M,M,34.22,KRTS 302315Z AUTO 28017G25KT 10SM FEW055 SCT065 SCT075 06/M06 A2986 RMK AO2,M
05U,2023-03-30 23:15,-116.0051,39.6042,1811.23,M,M,M,M,7.00,0.00,29.80,M,10.00,12.00,FEW,SCT,M,M,5000.00,6000.00,M,M,M,M,M,M,M,M,M,M,K05U 302315Z AUTO VRB07G12KT 10SM FEW050 SCT060 A2980 RMK A01,M
MEV,2023-03-30 23:15,-119.7500,38.9963,1441.42,46.40,17.60,31.28,280.00,14.00,0.00,29.87,M,10.00,20.00,CLR,M,M,M,M,M,M,M,M,M,M,M,M,M,M,39.72,KMEV 302315Z AUTO 28014G20KT 10SM CLR 08/M08 A2987 RMK AO2,M
BAM,2023-03-30 23:15,-116.8743,40.5990,1382.36,44.60,23.00,42.14,290.00,12.00,0.00,29.80,M,10.00,17.00,SCT,OVC,M,M,6500.00,8500.00,M,M,M,M,M,M,M,M,M,38.04,KBAM 302315Z AUTO 29012G17KT 10SM SCT065 OVC085 07/M05 A2980 RMK AO1,M
HTH,2023-03-30 23:15,-118.6315,38.5448,1282.89,48.20,14.00,24.99,340.00,7.00,0.00,29.84,M,10.00,M,SCT,M,M,M,9000.00,M,M,M,M,M,M,M,M,M,M,44.53,KHTH 302315Z AUTO 34007KT 10SM SCT090 09/M10 A2984 RMK A01,M
TMT,2023-03-30 23:15,-117.1971,39.4643,1749.34,38.80,22.10,50.75,240.00,11.00,0.00,29.82,M,10.00,M,SCT,SCT,M,M,5500.00,6500.00,M,M,M,M,M,M,M,M,M,31.06,KTMT 302315Z AUTO 24011KT 10SM SCT055 SCT065 04/M05 A2982 RMK AO2 LTG DSNT S T00381055,M
EKO,2023-03-30 23:29,-115.7860,40.8242,1367.00,35.00,25.00,66.31,270.00,14.00,T,29.78,M,1.75,25.00,SCT,BKN,OVC,M,2100.00,7000.00,9000.00,M,-SN,M,M,M,M,M,M,25.16,KEKO 302329Z AUTO 27014G25KT 1 3/4SM -SN SCT021 BKN070 OVC090 02/M04 A2978 RMK AO2 SNB2221B27 P0000 T00171039,M
BVU,2023-03-30 23:35,-114.8611,35.9475,671.00,51.80,30.20,43.32,310.00,20.00,0.00,29.86,M,10.00,27.00,OVC,M,M,M,7500.00,M,M,M,M,M,M,M,M,M,M,51.80,KBVU 302335Z AUTO 31020G27KT 10SM OVC075 11/M01 A2986 RMK AO2,M
CXP,2023-03-30 23:35,-119.7326,39.1923,1431.00,46.40,17.60,31.28,250.00,11.00,0.00,29.87,M,10.00,19.00,CLR,M,M,M,M,M,M,M,M,M,M,M,M,M,M,40.66,KCXP 302335Z AUTO 25011G19KT 10SM CLR 08/M08 A2987 RMK AO2,M
RTS,2023-03-30 23:35,-119.8764,39.6682,1539.00,44.60,21.20,39.06,280.00,17.00,0.00,29.87,M,10.00,26.00,BKN,BKN,M,M,6000.00,7500.00,M,M,M,M,M,M,M,M,M,36.58,KRTS 302335Z AUTO 28017G26KT 10SM BKN060 BKN075 07/M06 A2987 RMK AO2,M
05U,2023-03-30 23:35,-116.0051,39.6042,1811.23,M,M,M,280.00,8.00,0.00,29.81,M,10.00,M,CLR,M,M,M,M,M,M,M,M,M,M,M,M,M,M,M,K05U 302335Z AUTO 28008KT 240V320 10SM CLR A2981 RMK A01,M
MEV,2023-03-30 23:35,-119.7500,38.9963,1441.42,46.40,19.40,33.79,260.00,15.00,0.00,29.87,M,10.00,21.00,CLR,M,M,M,M,M,M,M,M,M,M,M,M,M,M,39.45,KMEV 302335Z AUTO 26015G21KT 10SM CLR 08/M07 A2987 RMK AO2,M
BAM,2023-03-30 23:35,-116.8743,40.5990,1382.36,44.60,24.80,45.44,290.00,14.00,0.00,29.81,M,10.00,M,SCT,SCT,OVC,M,5500.00,6500.00,7500.00,M,M,M,M,M,M,M,M,37.40,KBAM 302335Z AUTO 29014KT 10SM SCT055 SCT065 OVC075 07/M04 A2981 RMK AO1,M
HTH,2023-03-30 23:35,-118.6315,38.5448,1282.89,50.00,14.00,23.37,340.00,6.00,0.00,29.84,M,10.00,13.00,FEW,M,M,M,9000.00,M,M,M,M,M,M,M,M,M,M,50.00,KHTH 302335Z AUTO 34006G13KT 10SM FEW090 10/M10 A2984 RMK A01,M
TMT,2023-03-30 23:35,-117.1971,39.4643,1749.34,40.30,19.80,43.42,290.00,10.00,0.00,29.82,M,10.00,M,BKN,BKN,M,M,5500.00,7000.00,M,M,M,M,M,M,M,M,M,33.38,KTMT 302335Z AUTO 29010KT 10SM BKN055 BKN070 05/M07 A2982 RMK AO2 T00461068,M
EKO,2023-03-30 23:41,-115.7860,40.8242,1367.00,34.00,27.00,75.26,280.00,10.00,T,29.78,M,2.00,19.00,BKN,BKN,OVC,M,2200.00,3100.00,9000.00,M,-SN,M,M,M,M,M,M,25.48,KEKO 302341Z AUTO 28010G19KT 2SM -SN BKN022 BKN031 OVC090 01/M03 A2978 RMK AO2 VIS 1 1/4V5 SNB2221B27 P0000 T00111028,M
05U,2023-03-30 23:50,-116.0051,39.6042,1811.23,M,M,M,250.00,12.00,0.00,29.81,M,10.00,M,FEW,M,M,M,6000.00,M,M,M,M,M,M,M,M,M,M,M,K05U 302350Z AUTO 25012KT 10SM FEW060 A2981 RMK A01,M
DRA,2023-03-30 23:53,-116.0278,36.6206,1009.00,46.00,28.00,49.18,220.00,7.00,0.00,29.85,1009.70,10.00,M,SCT,M,M,M,9500.00,M,M,M,M,M,M,M,M,M,M,41.84,KDRA 302353Z AUTO 22007KT 10SM SCT095 08/M02 A2985 RMK AO2 SLP097 60000 T00781022 10117 20067 51006,M
ELY,2023-03-30 23:53,-114.8453,39.2950,1909.00,34.00,17.10,49.55,260.00,9.00,0.00,29.78,1011.40,10.00,M,BKN,M,M,M,6500.00,M,M,M,M,M,M,M,M,M,M,26.00,KELY 302353Z AUTO 26009KT 10SM BKN065 01/M08 A2978 RMK AO2 SLP114 T00111083 10017 21072 50001,M
LOL,2023-03-30 23:53,-118.5701,40.0684,1192.43,49.00,19.00,30.24,290.00,10.00,0.00,29.82,1010.50,10.00,M,BKN,M,M,M,10000.00,M,M,M,M,M,M,M,M,M,M,44.16,KLOL 302353Z AUTO 29010KT 10SM BKN100 09/M07 A2982 RMK AO2 SLP105 T00941072 10106 20050 53001,M
P68,2023-03-30 23:53,-116.0056,39.6014,1993.00,35.00,21.00,56.05,250.00,11.00,0.00,29.79,1011.50,M,M,M,M,M,M,M,M,M,M,M,M,M,M,M,M,M,26.38,KP68 302353Z AUTO 25011KT 02/M06 A2979 RMK AO1 SLP115 T00171061 10033 21056 53001,M
VGT,2023-03-30 23:53,-115.1933,36.2111,667.00,49.00,33.00,54.24,220.00,7.00,T,29.87,1013.40,10.00,M,SCT,BKN,BKN,M,7500.00,10000.00,12000.00,M,M,M,M,M,M,M,M,45.38,KVGT 302353Z 22007KT 10SM SCT075 BKN100 BKN120 09/01 A2987 RMK AO2 RAE13 SLP134 P0000 60000 T00940006 10139 20089 53012,M
EKO,2023-03-30 23:54,-115.7860,40.8242,1367.00,33.80,28.40,80.36,260.00,13.02,M,29.79,M,1.00,M,BKN,BKN,OVC,M,2099.00,3198.00,4101.00,M,-SN,M,M,M,M,M,M,23.86,SPECI KEKO 302354Z 26013KT 1SM -SN BKN021 BKN032 OVC041 01/M02 A2979 RMK AO2 SNB2221B27 P0000 FIBI,M
BVU,2023-03-30 23:55,-114.8611,35.9475,671.00,50.00,30.20,46.31,320.00,21.00,0.00,29.86,M,10.00,29.00,FEW,BKN,BKN,M,6500.00,7500.00,8500.00,M,M,M,M,M,M,M,M,50.00,KBVU 302355Z AUTO 32021G29KT 10SM FEW065 BKN075 BKN085 10/M01 A2986 RMK AO2,M
CXP,2023-03-30 23:55,-119.7326,39.1923,1431.00,46.40,17.60,31.28,270.00,8.00,0.00,29.88,M,10.00,17.00,CLR,M,M,M,M,M,M,M,M,M,M,M,M,M,M,41.85,KCXP 302355Z AUTO 27008G17KT 250V310 10SM CLR 08/M08 A2988 RMK AO2,M
RNO,2023-03-30 23:55,-119.7711,39.4839,1341.00,48.00,16.00,27.48,270.00,15.00,0.00,29.86,1010.60,10.00,22.00,BKN,BKN,M,M,7000.00,25000.00,M,M,M,M,M,M,M,M,M,41.52,KRNO 302355Z 27015G22KT 10SM BKN070 BKN250 09/M09 A2986 RMK AO2 SLP106 VIRGA SE T00891089 10111 20033 53006,M
RTS,2023-03-30 23:55,-119.8764,39.6682,1539.00,42.80,19.40,38.75,270.00,17.00,0.00,29.88,M,10.00,M,SCT,SCT,M,M,6500.00,7500.00,M,M,M,M,M,M,M,M,M,34.22,KRTS 302355Z AUTO 27017KT 10SM SCT065 SCT075 06/M07 A2988 RMK AO2,M
MEV,2023-03-30 23:55,-119.7500,38.9963,1441.42,46.40,17.60,31.28,290.00,12.00,0.00,29.88,M,10.00,18.00,CLR,M,M,M,M,M,M,M,M,M,M,M,M,M,M,40.33,KMEV 302355Z AUTO 29012G18KT 10SM CLR 08/M08 A2988 RMK AO2,M
BAM,2023-03-30 23:55,-116.8743,40.5990,1382.36,44.60,23.00,42.14,270.00,15.00,0.00,29.81,M,10.00,19.00,SCT,SCT,M,M,8500.00,12000.00,M,M,M,M,M,M,M,M,M,37.11,KBAM 302355Z AUTO 27015G19KT 10SM SCT085 SCT120 07/M05 A2981 RMK AO1,M
HTH,2023-03-30 23:55,-118.6315,38.5448,1282.89,50.00,12.20,21.59,350.00,10.00,0.00,29.84,M,10.00,M,CLR,M,M,M,M,M,M,M,M,M,M,M,M,M,M,50.00,KHTH 302355Z AUTO 35010KT 10SM CLR 10/M11 A2984 RMK A01,M
TMT,2023-03-30 23:55,-117.1971,39.4643,1749.34,40.00,17.60,39.82,300.00,12.00,0.00,29.82,M,10.00,19.00,SCT,SCT,M,M,5500.00,7000.00,M,M,M,M,M,M,M,M,M,32.31,KTMT 302355Z AUTO 30012G19KT 10SM SCT055 SCT070 05/M08 A2982 RMK AO2 T00451080 10049 20012,M
LSV,2023-03-30 23:55,-115.0343,36.2362,570.00,47.00,38.50,71.87,0.00,0.00,T,29.86,1011.10,10.00,M,CLR,M,M,M,M,M,M,M,M,M,M,M,M,M,M,47.10,KLSV 302355Z AUTO 00000KT 10SM CLR 08/04 A2986 RMK AO2 RAE12 SLP111 P0000 60000 T00840036 10159 20079 50017 $,M
EKO,2023-03-30 23:56,-115.7860,40.8242,1367.00,33.00,28.00,81.30,260.00,14.00,T,29.79,1010.90,1.00,M,BKN,BKN,OVC,M,2100.00,3200.00,4300.00,M,-SN,M,M,M,M,M,M,22.58,KEKO 302356Z AUTO 26014KT 1SM -SN BKN021 BKN032 OVC043 01/M02 A2979 RMK AO2 SNB2221B27 SLP109 P0000 6//// T00061022 10050 20006,M
WMC,2023-03-30 23:56,-117.8072,40.9019,1315.00,46.00,21.90,38.15,270.00,13.00,0.00,29.79,1010.20,10.00,20.00,SCT,BKN,BKN,M,6500.00,8000.00,12000.00,M,M,M,M,M,M,M,M,39.50,KWMC 302356Z AUTO 27013G20KT 10SM SCT065 BKN080 BKN120 08/M06 A2979 RMK AO2 SLP102 T00781056 10083 20022 54000,M
NFL,2023-03-30 23:56,-118.7010,39.4166,1199.00,51.00,14.00,22.43,290.00,15.00,0.00,29.82,1007.50,10.00,20.00,BKN,BKN,BKN,M,5000.00,10000.00,25000.00,M,M,M,M,M,M,M,M,51.10,KNFL 302356Z 29015G20KT 10SM BKN050 BKN100 BKN250 11/M10 A2982 RMK AO2 SLP075 T01061100 10111 20067 56002,M
HND,2023-03-30 23:56,-115.1344,35.9729,742.79,47.00,32.00,55.94,320.00,11.00,T,29.90,1014.80,10.00,M,FEW,BKN,OVC,M,4200.00,6000.00,8500.00,M,M,M,M,M,M,M,M,41.30,KHND 302356Z 32011KT 10SM FEW042 BKN060 OVC085 08/00 A2990 RMK AO2 RAB41E52 SLP148 P0000 60000 T00830000 10139 20083 53018,M
LAS,2023-03-30 23:56,-115.1634,36.0719,663.00,47.00,32.00,55.94,M,4.00,0.01,29.88,1011.70,10.00,M,BKN,BKN,BKN,M,4000.00,7000.00,20000.00,M,-RA,M,M,M,33.00,260.00,2023-03-30 22:58,44.82,KLAS 302356Z VRB04KT 10SM -RA BKN040 BKN070 BKN200 08/00 A2988 RMK AO2 PK WND 26033/2258 RAB05 SLP117 VCSH NE-SE P0001 60001 T00830000 10139 20078 53010,M
TPH,2023-03-30 23:56,-117.0904,38.0505,1654.00,44.00,21.00,39.47,340.00,14.00,T,29.83,1010.80,10.00,M,CLR,M,M,M,M,M,M,M,M,M,M,M,26.00,310.00,2023-03-30 23:01,36.76,KTPH 302356Z AUTO 34014KT 10SM CLR 07/M06 A2983 RMK AO2 PK WND 31026/2301 RAB19E28 SLP108 P0000 60000 T00671061 10078 20011 53003,M
