station,valid,lon,lat,elevation,tmpf,dwpf,relh,drct,sknt,p01i,alti,mslp,vsby,gust,skyc1,skyc2,skyc3,skyc4,skyl1,skyl2,skyl3,skyl4,wxcodes,ice_accretion_1hr,ice_accretion_3hr,ice_accretion_6hr,peak_wind_gust,peak_wind_drct,peak_wind_time,feel,metar,snowdepth
05U,2023-05-16 00:10,-116.0051,39.6042,1811.23,73.40,30.20,20.23,300.00,8.00,0.00,30.24,M,10.00,13.00,CLR,M,M,M,M,M,M,M,M,M,M,M,M,M,M,73.40,K05U 160010Z AUTO 30008G13KT 220V360 10SM CLR 23/M01 A3024 RMK A01,M
BVU,2023-05-16 00:15,-114.8611,35.9475,671.00,95.00,28.40,9.38,180.00,10.00,0.00,29.98,M,10.00,M,CLR,M,M,M,M,M,M,M,M,M,M,M,M,M,M,89.27,KBVU 160015Z AUTO 18010KT 10SM CLR 35/M02 A2998 RMK AO2,M
CXP,2023-05-16 00:15,-119.7326,39.1923,1431.00,77.00,30.20,17.94,260.00,14.00,0.00,30.21,M,10.00,21.00,CLR,M,M,M,M,M,M,M,M,M,M,M,M,M,M,77.00,KCXP 160015Z AUTO 26014G21KT 10SM CLR 25/M01 A3021 RMK AO2,M
RTS,2023-05-16 00:15,-119.8764,39.6682,1539.00,73.40,28.40,18.80,260.00,15.00,0.00,30.23,M,10.00,M,CLR,M,M,M,M,M,M,M,M,M,M,M,M,M,M,73.40,KRTS 160015Z AUTO 26015KT 10SM CLR 23/M02 A3023 RMK AO2,M
MEV,2023-05-16 00:15,-119.7500,38.9963,1441.42,75.20,28.40,17.70,240.00,7.00,0.00,30.20,M,10.00,M,CLR,M,M,M,M,M,M,M,M,M,M,M,M,M,M,75.20,KMEV 160015Z AUTO 24007KT 10SM CLR 24/M02 A3020 RMK AO2,M
BAM,2023-05-16 00:15,-116.8743,40.5990,1382.36,77.00,41.00,27.53,0.00,0.00,0.00,30.17,M,10.00,M,OVC,M,M,M,10000.00,M,M,M,M,M,M,M,M,M,M,77.00,KBAM 160015Z AUTO 00000KT 10SM OVC100 25/05 A3017 RMK AO1,M
HTH,2023-05-16 00:15,-118.6315,38.5448,1282.89,82.40,21.20,10.34,240.00,14.00,0.00,30.14,M,10.00,20.00,CLR,M,M,M,M,M,M,M,M,M,M,M,M,M,M,79.55,KHTH 160015Z AUTO 24014G20KT 10SM CLR 28/M06 A3014 RMK A01,M
TMT,2023-05-16 00:15,-117.1971,39.4643,1749.34,71.60,30.90,22.12,260.00,7.00,0.00,30.24,M,10.00,M,SCT,M,M,M,10000.00,M,M,M,M,M,M,M,M,M,M,71.60,KTMT 160015Z AUTO 26007KT 10SM SCT100 22/M01 A3024 RMK AO2 T02201006,M
05U,2023-05-16 00:30,-116.0051,39.6042,1811.23,73.40,28.40,18.80,280.00,8.00,0.00,30.24,M,10.00,M,CLR,M,M,M,M,M,M,M,M,M,M,M,M,M,M,73.40,K05U 160030Z AUTO 28008KT 220V360 10SM CLR 23/M02 A3024 RMK A01,M
BVU,2023-05-16 00:35,-114.8611,35.9475,671.00,93.20,30.20,10.67,210.00,5.00,0.00,29.98,M,10.00,M,CLR,M,M,M,M,M,M,M,M,M,M,M,M,M,M,88.09,KBVU 160035Z AUTO 21005KT 10SM CLR 34/M01 A2998 RMK AO2,M
CXP,2023-05-16 00:35,-119.7326,39.1923,1431.00,75.20,32.00,20.49,260.00,12.00,0.00,30.21,M,10.00,19.00,CLR,M,M,M,M,M,M,M,M,M,M,M,M,M,M,75.20,KCXP 160035Z AUTO 26012G19KT 240V300 10SM CLR 24/M00 A3021 RMK AO2,M
RTS,2023-05-16 00:35,-119.8764,39.6682,1539.00,73.40,28.40,18.80,260.00,9.00,0.00,30.23,M,10.00,19.00,CLR,M,M,M,M,M,M,M,M,M,M,M,M,M,M,73.40,KRTS 160035Z AUTO 26009G19KT 10SM CLR 23/M02 A3023 RMK AO2,M
MEV,2023-05-16 00:35,-119.7500,38.9963,1441.42,73.40,32.00,21.76,230.00,10.00,0.00,30.20,M,10.00,M,CLR,M,M,M,M,M,M,M,M,M,M,M,M,M,M,73.40,KMEV 160035Z AUTO 23010KT 10SM CLR 23/00 A3020 RMK AO2,M
BAM,2023-05-16 00:35,-116.8743,40.5990,1382.36,78.80,39.20,24.19,10.00,3.00,0.00,30.17,M,10.00,M,SCT,M,M,M,10000.00,M,M,M,M,M,M,M,M,M,M,78.80,KBAM 160035Z AUTO 01003KT 10SM SCT100 26/04 A3017 RMK AO1,M
HTH,2023-05-16 00:35,-118.6315,38.5448,1282.89,82.40,21.20,10.34,260.00,17.00,0.00,30.14,M,10.00,M,CLR,M,M,M,M,M,M,M,M,M,M,M,M,M,M,79.55,KHTH 160035Z AUTO 26017KT 10SM CLR 28/M06 A3014 RMK A01,M
TMT,2023-05-16 00:35,-117.1971,39.4643,1749.34,71.80,31.80,22.79,260.00,7.00,0.00,30.23,M,10.00,M,CLR,M,M,M,M,M,M,M,M,M,M,M,M,M,M,71.80,KTMT 160035Z AUTO 26007KT 10SM CLR 22/00 A3023 RMK AO2 T02211001,M
05U,2023-05-16 00:50,-116.0051,39.6042,1811.23,71.60,28.40,19.98,330.00,8.00,0.00,30.24,M,10.00,M,CLR,M,M,M,M,M,M,M,M,M,M,M,M,M,M,71.60,K05U 160050Z AUTO 33008KT 220V010 10SM CLR 22/M02 A3024 RMK A01,M
CXP,2023-05-16 00:50,-119.7326,39.1923,1431.00,75.20,33.80,22.02,280.00,13.00,0.00,30.22,M,10.00,M,CLR,M,M,M,M,M,M,M,M,M,M,M,M,M,M,75.20,KCXP 160050Z AUTO 28013KT 10SM CLR 24/01 A3022 RMK AO2,M
P68,2023-05-16 00:53,-116.0056,39.6014,1993.00,72.00,27.00,18.61,200.00,8.00,0.00,30.21,1017.30,M,M,M,M,M,M,M,M,M,M,M,M,M,M,M,M,M,72.00,KP68 160053Z AUTO 20008KT 22/M03 A3021 RMK AO1 SLP173 T02221028,M
DRA,2023-05-16 00:53,-116.0278,36.6206,1009.00,88.00,24.10,9.77,240.00,9.00,0.00,30.05,1013.30,10.00,M,CLR,M,M,M,M,M,M,M,M,M,M,M,M,M,M,83.65,KDRA 160053Z AUTO 24009KT 10SM CLR 31/M04 A3005 RMK AO2 SLP133 T03111044,M
ELY,2023-05-16 00:53,-114.8453,39.2950,1909.00,70.00,34.00,26.46,180.00,12.00,0.00,30.27,1018.30,10.00,20.00,CLR,M,M,M,M,M,M,M,M,M,M,M,M,M,M,70.00,KELY 160053Z AUTO 18012G20KT 10SM CLR 21/01 A3027 RMK AO2 SLP183 T02110011,M
LOL,2023-05-16 00:53,-118.5701,40.0684,1192.43,79.00,30.90,17.28,160.00,6.00,0.00,30.11,1017.20,10.00,M,FEW,M,M,M,12000.00,M,M,M,M,M,M,M,M,M,M,79.00,KLOL 160053Z AUTO 16006KT 10SM FEW120 26/M01 A3011 RMK AO2 SLP172 T02611006,M
VGT,2023-05-16 00:53,-115.1933,36.2111,667.00,94.00,33.00,11.74,160.00,6.00,0.00,29.98,1014.30,10.00,M,CLR,M,M,M,M,M,M,M,M,M,M,M,M,M,M,89.00,KVGT 160053Z 16006KT 10SM CLR 34/01 A2998 RMK AO2 SLP143 T03440006,M
BVU,2023-05-16 00:55,-114.8611,35.9475,671.00,93.20,30.20,10.67,M,3.00,0.00,29.98,M,10.00,12.00,CLR,M,M,M,M,M,M,M,M,M,M,M,M,M,M,88.09,KBVU 160055Z AUTO VRB03G12KT 10SM CLR 34/M01 A2998 RMK AO2,M
RTS,2023-05-16 00:55,-119.8764,39.6682,1539.00,71.60,28.40,19.98,260.00,15.00,0.00,30.23,M,10.00,M,CLR,M,M,M,M,M,M,M,M,M,M,M,M,M,M,71.60,KRTS 160055Z AUTO 26015KT 10SM CLR 22/M02 A3023 RMK AO2,M
MEV,2023-05-16 00:55,-119.7500,38.9963,1441.42,75.20,32.00,20.49,220.00,12.00,0.00,30.20,M,10.00,M,CLR,M,M,M,M,M,M,M,M,M,M,M,M,M,M,75.20,KMEV 160055Z AUTO 22012KT 10SM CLR 24/M00 A3020 RMK AO2,M
BAM,2023-05-16 00:55,-116.8743,40.5990,1382.36,78.80,41.00,25.95,290.00,5.00,0.00,30.17,M,10.00,M,CLR,M,M,M,M,M,M,M,M,M,M,M,M,M,M,78.80,KBAM 160055Z AUTO 29005KT 10SM CLR 26/05 A3017 RMK AO1,M
HTH,2023-05-16 00:55,-118.6315,38.5448,1282.89,82.40,21.20,10.34,230.00,14.00,0.00,30.14,M,10.00,M,CLR,M,M,M,M,M,M,M,M,M,M,M,M,M,M,79.55,KHTH 160055Z AUTO 23014KT 10SM CLR 28/M06 A3014 RMK A01,M
TMT,2023-05-16 00:55,-117.1971,39.4643,1749.34,72.50,31.60,22.07,230.00,8.00,0.00,30.23,M,10.00,M,SCT,M,M,M,11000.00,M,M,M,M,M,M,M,M,M,M,72.50,KTMT 160055Z AUTO 23008KT 10SM SCT110 23/00 A3023 RMK AO2 T02251002,M
INS,2023-05-16 00:55,-115.6733,36.5872,955.00,88.50,22.50,8.99,350.00,4.00,0.00,30.03,1012.80,10.00,M,OVC,M,M,M,14000.00,M,M,M,M,M,M,M,M,M,M,83.91,KINS 160055Z AUTO 35004KT 10SM OVC140 31/M05 A3003 RMK AO2 SLP128 T03141053 $,M
LSV,2023-05-16 00:55,-115.0343,36.2362,570.00,96.00,28.00,8.97,0.00,0.00,0.00,29.94,1011.50,10.00,M,CLR,M,M,M,M,M,M,M,M,M,M,M,M,M,M,89.96,KLSV 160055Z AUTO 00000KT 10SM CLR 36/M02 A2994 RMK AO2 SLP115 T03551022 $,M
RNO,2023-05-16 00:55,-119.7711,39.4839,1341.00,78.00,33.00,19.45,220.00,13.00,0.00,30.18,1017.90,10.00,22.00,FEW,M,M,M,10000.00,M,M,M,M,M,M,M,M,M,M,78.10,KRNO 160055Z 22013G22KT 10SM FEW100 26/01 A3018 RMK AO2 SLP179 T02560006,M
EKO,2023-05-16 00:56,-115.7860,40.8242,1367.00,71.00,43.00,36.25,90.00,7.00,0.00,30.20,1019.00,10.00,M,CLR,M,M,M,M,M,M,M,M,M,M,M,M,M,M,71.10,KEKO 160056Z AUTO 09007KT 10SM CLR 22/06 A3020 RMK AO2 SLP190 T02170061,M
WMC,2023-05-16 00:56,-117.8072,40.9019,1315.00,79.00,32.00,18.06,220.00,7.00,0.00,30.13,1017.30,10.00,M,SCT,M,M,M,10000.00,M,M,M,M,M,M,M,M,M,M,79.00,KWMC 160056Z AUTO 22007KT 10SM SCT100 26/00 A3013 RMK AO2 SLP173 T02610000,M
TPH,2023-05-16 00:56,-117.0904,38.0505,1654.00,M,M,M,M,M,0.00,30.20,M,M,M,M,M,M,M,M,M,M,M,M,M,M,M,M,M,M,M,KTPH 160056Z AUTO A3020 RMK AO2 SLPNO PWINO $,M
LAS,2023-05-16 00:56,-115.1634,36.0719,663.00,94.00,28.00,9.54,320.00,4.00,0.00,29.98,1012.70,10.00,M,FEW,SCT,BKN,M,9000.00,13000.00,22000.00,M,M,M,M,M,M,M,M,88.39,KLAS 160056Z 32004KT 10SM FEW090 SCT130 BKN220 34/M02 A2998 RMK AO2 SLP127 T03441022 $,M
HND,2023-05-16 00:56,-115.1344,35.9729,742.79,94.00,35.00,12.71,110.00,6.00,0.00,30.02,1015.40,10.00,M,CLR,M,M,M,M,M,M,M,M,M,M,M,M,M,M,89.29,KHND 160056Z 11006KT 10SM CLR 34/02 A3002 RMK AO2 SLP154 T03440017,M
05U,2023-05-16 01:10,-116.0051,39.6042,1811.23,71.60,26.60,18.55,300.00,11.00,0.00,30.24,M,10.00,16.00,CLR,M,M,M,M,M,M,M,M,M,M,M,M,M,M,71.60,K05U 160110Z AUTO 30011G16KT 240V360 10SM CLR 22/M03 A3024 RMK A01,M
BVU,2023-05-16 01:15,-114.8611,35.9475,671.00,95.00,30.20,10.09,260.00,6.00,0.00,29.97,M,10.00,M,CLR,M,M,M,M,M,M,M,M,M,M,M,M,M,M,89.48,KBVU 160115Z AUTO 26006KT 10SM CLR 35/M01 A2997 RMK AO2,M
CXP,2023-05-16 01:15,-119.7326,39.1923,1431.00,73.40,33.80,23.39,270.00,11.00,0.00,30.21,M,10.00,21.00,CLR,M,M,M,M,M,M,M,M,M,M,M,M,M,M,73.40,KCXP 160115Z AUTO 27011G21KT 10SM CLR 23/01 A3021 RMK AO2,M
RTS,2023-05-16 01:15,-119.8764,39.6682,1539.00,71.60,30.20,21.50,280.00,9.00,0.00,30.23,M,10.00,M,CLR,M,M,M,M,M,M,M,M,M,M,M,M,M,M,71.60,KRTS 160115Z AUTO 28009KT 10SM CLR 22/M01 A3023 RMK AO2,M
MEV,2023-05-16 01:15,-119.7500,38.9963,1441.42,73.40,32.00,21.76,230.00,9.00,0.00,30.21,M,10.00,M,CLR,M,M,M,M,M,M,M,M,M,M,M,M,M,M,73.40,KMEV 160115Z AUTO 23009KT 10SM CLR 23/00 A3021 RMK AO2,M
BAM,2023-05-16 01:15,-116.8743,40.5990,1382.36,78.80,33.80,19.55,260.00,10.00,0.00,30.17,M,10.00,16.00,CLR,M,M,M,M,M,M,M,M,M,M,M,M,M,M,78.80,KBAM 160115Z AUTO 26010G16KT 10SM CLR 26/01 A3017 RMK AO1,M
HTH,2023-05-16 01:15,-118.6315,38.5448,1282.89,80.60,21.20,10.97,250.00,15.00,0.00,30.14,M,10.00,M,CLR,M,M,M,M,M,M,M,M,M,M,M,M,M,M,78.68,KHTH 160115Z AUTO 25015KT 10SM CLR 27/M06 A3014 RMK A01,M
TMT,2023-05-16 01:15,-117.1971,39.4643,1749.34,72.30,33.60,24.08,240.00,10.00,0.00,30.23,M,10.00,M,BKN,M,M,M,11000.00,M,M,M,M,M,M,M,M,M,M,72.30,KTMT 160115Z AUTO 24010KT 10SM BKN110 22/01 A3023 RMK AO2 T02240009,M
05U,2023-05-16 01:30,-116.0051,39.6042,1811.23,71.60,26.60,18.55,270.00,7.00,0.00,30.24,M,10.00,M,CLR,M,M,M,M,M,M,M,M,M,M,M,M,M,M,71.60,K05U 160130Z AUTO 27007KT 230V350 10SM CLR 22/M03 A3024 RMK A01,M
BVU,2023-05-16 01:35,-114.8611,35.9475,671.00,93.20,30.20,10.67,M,3.00,0.00,29.97,M,10.00,M,CLR,M,M,M,M,M,M,M,M,M,M,M,M,M,M,88.09,KBVU 160135Z AUTO VRB03KT 10SM CLR 34/M01 A2997 RMK AO2,M
CXP,2023-05-16 01:35,-119.7326,39.1923,1431.00,73.40,33.80,23.39,280.00,11.00,0.00,30.22,M,10.00,19.00,CLR,M,M,M,M,M,M,M,M,M,M,M,M,M,M,73.40,KCXP 160135Z AUTO 28011G19KT 10SM CLR 23/01 A3022 RMK AO2,M
RTS,2023-05-16 01:35,-119.8764,39.6682,1539.00,71.60,28.40,19.98,240.00,13.00,0.00,30.23,M,10.00,M,CLR,M,M,M,M,M,M,M,M,M,M,M,M,M,M,71.60,KRTS 160135Z AUTO 24013KT 10SM CLR 22/M02 A3023 RMK AO2,M
MEV,2023-05-16 01:35,-119.7500,38.9963,1441.42,71.60,37.40,28.68,280.00,9.00,0.00,30.21,M,10.00,M,CLR,M,M,M,M,M,M,M,M,M,M,M,M,M,M,71.60,KMEV 160135Z AUTO 28009KT 10SM CLR 22/03 A3021 RMK AO2,M
BAM,2023-05-16 01:35,-116.8743,40.5990,1382.36,78.80,32.00,18.18,290.00,12.00,0.00,30.17,M,10.00,M,CLR,M,M,M,M,M,M,M,M,M,M,M,M,M,M,78.80,KBAM 160135Z AUTO 29012KT 10SM CLR 26/00 A3017 RMK AO1,M
HTH,2023-05-16 01:35,-118.6315,38.5448,1282.89,80.60,21.20,10.97,240.00,10.00,0.00,30.15,M,10.00,18.00,CLR,M,M,M,M,M,M,M,M,M,M,M,M,M,M,78.68,KHTH 160135Z AUTO 24010G18KT 10SM CLR 27/M06 A3015 RMK A01,M
TMT,2023-05-16 01:35,-117.1971,39.4643,1749.34,72.00,32.50,23.20,260.00,8.00,0.00,30.24,M,10.00,M,SCT,M,M,M,12000.00,M,M,M,M,M,M,M,M,M,M,72.10,KTMT 160135Z AUTO 26008KT 10SM SCT120 22/00 A3024 RMK AO2 T02230003,M
05U,2023-05-16 01:50,-116.0051,39.6042,1811.23,69.80,26.60,19.72,310.00,7.00,0.00,30.24,M,10.00,M,CLR,M,M,M,M,M,M,M,M,M,M,M,M,M,M,69.80,K05U 160150Z AUTO 31007KT 230V010 10SM CLR 21/M03 A3024 RMK A01,M
P68,2023-05-16 01:53,-116.0056,39.6014,1993.00,70.00,27.00,19.92,240.00,9.00,0.00,30.22,1017.40,M,M,M,M,M,M,M,M,M,M,M,M,M,M,M,M,M,70.00,KP68 160153Z AUTO 24009KT 21/M03 A3022 RMK AO1 SLP174 T02111028,M
DRA,2023-05-16 01:53,-116.0278,36.6206,1009.00,87.00,25.00,10.43,220.00,7.00,0.00,30.05,1013.10,10.00,M,CLR,M,M,M,M,M,M,M,M,M,M,M,M,M,M,83.06,KDRA 160153Z AUTO 22007KT 10SM CLR 31/M04 A3005 RMK AO2 SLP131 T03061039,M
ELY,2023-05-16 01:53,-114.8453,39.2950,1909.00,69.00,34.00,27.29,180.00,6.00,0.00,30.26,1018.00,10.00,M,CLR,M,M,M,M,M,M,M,M,M,M,M,M,M,M,69.10,KELY 160153Z AUTO 18006KT 10SM CLR 21/01 A3026 RMK AO2 SLP180 T02060011,M
LOL,2023-05-16 01:53,-118.5701,40.0684,1192.43,80.00,28.00,14.81,270.00,11.00,0.00,30.11,1016.80,10.00,M,CLR,M,M,M,M,M,M,M,M,M,M,M,M,M,M,78.51,KLOL 160153Z AUTO 27011KT 10SM CLR 27/M02 A3011 RMK AO2 SLP168 T02671022,M
VGT,2023-05-16 01:53,-115.1933,36.2111,667.00,94.00,33.00,11.74,140.00,4.00,0.00,29.97,1014.10,10.00,M,CLR,M,M,M,M,M,M,M,M,M,M,M,M,M,M,89.00,KVGT 160153Z 14004KT 10SM CLR 34/01 A2997 RMK AO2 SLP141 T03440006,M
BVU,2023-05-16 01:55,-114.8611,35.9475,671.00,93.20,28.40,9.91,0.00,0.00,0.00,29.97,M,10.00,M,CLR,M,M,M,M,M,M,M,M,M,M,M,M,M,M,87.89,KBVU 160155Z AUTO 00000KT 10SM CLR 34/M02 A2997 RMK AO2,M
CXP,2023-05-16 01:55,-119.7326,39.1923,1431.00,73.40,33.80,23.39,280.00,12.00,0.00,30.22,M,10.00,18.00,CLR,M,M,M,M,M,M,M,M,M,M,M,M,M,M,73.40,KCXP 160155Z AUTO 28012G18KT 10SM CLR 23/01 A3022 RMK AO2,M
RTS,2023-05-16 01:55,-119.8764,39.6682,1539.00,69.80,30.20,22.86,280.00,11.00,0.00,30.23,M,10.00,M,CLR,M,M,M,M,M,M,M,M,M,M,M,M,M,M,69.80,KRTS 160155Z AUTO 28011KT 10SM CLR 21/M01 A3023 RMK AO2,M
MEV,2023-05-16 01:55,-119.7500,38.9963,1441.42,69.80,39.20,32.72,240.00,9.00,0.00,30.21,M,10.00,M,CLR,M,M,M,M,M,M,M,M,M,M,M,M,M,M,69.80,KMEV 160155Z AUTO 24009KT 10SM CLR 21/04 A3021 RMK AO2,M
BAM,2023-05-16 01:55,-116.8743,40.5990,1382.36,78.80,32.00,18.18,260.00,6.00,0.00,30.17,M,10.00,M,CLR,M,M,M,M,M,M,M,M,M,M,M,M,M,M,78.80,KBAM 160155Z AUTO 26006KT 10SM CLR 26/00 A3017 RMK AO1,M
HTH,2023-05-16 01:55,-118.6315,38.5448,1282.89,78.80,21.20,11.64,250.00,11.00,0.00,30.15,M,10.00,18.00,CLR,M,M,M,M,M,M,M,M,M,M,M,M,M,M,78.80,KHTH 160155Z AUTO 25011G18KT 10SM CLR 26/M06 A3015 RMK A01,M
TMT,2023-05-16 01:55,-117.1971,39.4643,1749.34,69.00,35.40,28.85,310.00,5.00,0.00,30.24,M,10.00,M,BKN,M,M,M,11000.00,M,M,M,M,M,M,M,M,M,M,69.10,KTMT 160155Z AUTO 31005KT 10SM BKN110 21/02 A3024 RMK AO2 T02060019,M
INS,2023-05-16 01:55,-115.6733,36.5872,955.00,88.00,19.20,7.94,220.00,9.00,0.00,30.03,1012.60,10.00,M,CLR,M,M,M,M,M,M,M,M,M,M,M,M,M,M,83.36,KINS 160155Z AUTO 22009KT 10SM CLR 31/M07 A3003 RMK AO2 SLP126 T03111071 $,M
LSV,2023-05-16 01:55,-115.0343,36.2362,570.00,93.60,28.80,9.95,30.00,3.00,0.00,29.93,1011.10,10.00,M,FEW,M,M,M,16000.00,M,M,M,M,M,M,M,M,M,M,88.24,KLSV 160155Z AUTO 03003KT 10SM FEW160 34/M02 A2993 RMK AO2 SLP111 T03421018 $,M
RNO,2023-05-16 01:55,-119.7711,39.4839,1341.00,76.00,30.90,19.14,250.00,13.00,0.00,30.18,1017.80,10.00,M,FEW,M,M,M,9500.00,M,M,M,M,M,M,M,M,M,M,75.90,KRNO 160155Z 25013KT 10SM FEW095 24/M01 A3018 RMK AO2 SLP178 T02441006,M
HND,2023-05-16 01:56,-115.1344,35.9729,742.79,92.00,34.00,12.95,0.00,0.00,0.00,30.02,1015.30,10.00,M,CLR,M,M,M,M,M,M,M,M,M,M,M,M,M,M,87.56,KHND 160156Z 00000KT 10SM CLR 33/01 A3002 RMK AO2 SLP153 T03330011,M
TPH,2023-05-16 01:56,-117.0904,38.0505,1654.00,M,M,M,M,M,0.00,30.20,M,M,M,M,M,M,M,M,M,M,M,M,M,M,M,M,M,M,M,KTPH 160156Z AUTO A3020 RMK AO2 SLPNO PWINO $,M
LAS,2023-05-16 01:56,-115.1634,36.0719,663.00,93.00,30.00,10.65,180.00,3.00,0.00,29.98,1012.60,10.00,M,FEW,FEW,BKN,M,9000.00,13000.00,22000.00,M,M,M,M,M,M,M,M,87.91,KLAS 160156Z 18003KT 10SM FEW090 FEW130 BKN220 34/M01 A2998 RMK AO2 SLP126 T03391011 $,M
NFL,2023-05-16 01:56,-118.7010,39.4166,1199.00,81.00,28.90,14.92,300.00,13.00,0.00,30.12,1016.50,10.00,M,SCT,SCT,M,M,6000.00,12000.00,M,M,M,M,M,M,M,M,M,78.99,KNFL 160156Z 30013KT 10SM SCT060 SCT120 27/M02 A3012 RMK SLP165 T02721017,M
EKO,2023-05-16 01:56,-115.7860,40.8242,1367.00,66.00,47.00,50.10,220.00,9.00,0.00,30.22,1020.30,10.00,M,FEW,SCT,BKN,M,7000.00,8500.00,11000.00,M,M,M,M,M,M,M,M,66.00,KEKO 160156Z AUTO 22009KT 10SM FEW070 SCT085 BKN110 19/08 A3022 RMK AO2 SLP203 T01890083,M
WMC,2023-05-16 01:56,-117.8072,40.9019,1315.00,72.00,35.00,25.83,230.00,6.00,0.00,30.13,1017.50,10.00,M,CLR,M,M,M,M,M,M,M,M,M,M,M,M,M,M,72.00,KWMC 160156Z AUTO 23006KT 10SM CLR 22/02 A3013 RMK AO2 SLP175 T02220017,M
05U,2023-05-16 02:10,-116.0051,39.6042,1811.23,68.00,28.40,22.59,270.00,10.00,0.00,30.25,M,10.00,16.00,FEW,M,M,M,12000.00,M,M,M,M,M,M,M,M,M,M,68.00,K05U 160210Z AUTO 27010G16KT 230V350 10SM FEW120 20/M02 A3025 RMK A01,M
BVU,2023-05-16 02:15,-114.8611,35.9475,671.00,93.20,30.20,10.67,0.00,0.00,0.00,29.98,M,10.00,M,CLR,M,M,M,M,M,M,M,M,M,M,M,M,M,M,88.09,KBVU 160215Z AUTO 00000KT 10SM CLR 34/M01 A2998 RMK AO2,M
CXP,2023-05-16 02:15,-119.7326,39.1923,1431.00,71.60,32.00,23.13,280.00,14.00,0.00,30.22,M,10.00,20.00,CLR,M,M,M,M,M,M,M,M,M,M,M,M,M,M,71.60,KCXP 160215Z AUTO 28014G20KT 10SM CLR 22/M00 A3022 RMK AO2,M
RTS,2023-05-16 02:15,-119.8764,39.6682,1539.00,69.80,28.40,21.24,270.00,9.00,0.00,30.24,M,10.00,M,CLR,M,M,M,M,M,M,M,M,M,M,M,M,M,M,69.80,KRTS 160215Z AUTO 27009KT 10SM CLR 21/M02 A3024 RMK AO2,M
MEV,2023-05-16 02:15,-119.7500,38.9963,1441.42,68.00,37.40,32.43,250.00,9.00,0.00,30.22,M,10.00,M,CLR,M,M,M,M,M,M,M,M,M,M,M,M,M,M,68.00,KMEV 160215Z AUTO 25009KT 10SM CLR 20/03 A3022 RMK AO2,M
BAM,2023-05-16 02:15,-116.8743,40.5990,1382.36,77.00,32.00,19.30,270.00,6.00,0.00,30.17,M,10.00,M,CLR,M,M,M,M,M,M,M,M,M,M,M,M,M,M,77.00,KBAM 160215Z AUTO 27006KT 10SM CLR 25/00 A3017 RMK AO1,M
HTH,2023-05-16 02:15,-118.6315,38.5448,1282.89,78.80,23.00,12.55,230.00,9.00,0.00,30.15,M,10.00,16.00,CLR,M,M,M,M,M,M,M,M,M,M,M,M,M,M,78.80,KHTH 160215Z AUTO 23009G16KT 10SM CLR 26/M05 A3015 RMK A01,M
TMT,2023-05-16 02:15,-117.1971,39.4643,1749.34,67.50,37.00,32.35,270.00,3.00,0.00,30.25,M,10.00,M,OVC,M,M,M,11000.00,M,M,M,M,M,M,M,M,M,M,67.50,KTMT 160215Z AUTO 27003KT 10SM OVC110 20/03 A3025 RMK AO2 T01970027,M
05U,2023-05-16 02:30,-116.0051,39.6042,1811.23,69.80,24.80,18.30,330.00,9.00,0.00,30.25,M,10.00,18.00,FEW,M,M,M,12000.00,M,M,M,M,M,M,M,M,M,M,69.80,K05U 160230Z AUTO 33009G18KT 290V010 10SM FEW120 21/M04 A3025 RMK A01,M
BVU,2023-05-16 02:35,-114.8611,35.9475,671.00,91.40,30.20,11.28,0.00,0.00,0.00,29.98,M,10.00,M,CLR,M,M,M,M,M,M,M,M,M,M,M,M,M,M,86.71,KBVU 160235Z AUTO 00000KT 10SM CLR 33/M01 A2998 RMK AO2,M
CXP,2023-05-16 02:35,-119.7326,39.1923,1431.00,69.80,32.00,24.59,280.00,12.00,0.00,30.22,M,10.00,M,CLR,M,M,M,M,M,M,M,M,M,M,M,M,M,M,69.80,KCXP 160235Z AUTO 28012KT 10SM CLR 21/M00 A3022 RMK AO2,M
RTS,2023-05-16 02:35,-119.8764,39.6682,1539.00,68.00,30.20,24.32,260.00,12.00,0.00,30.25,M,10.00,17.00,CLR,M,M,M,M,M,M,M,M,M,M,M,M,M,M,68.00,KRTS 160235Z AUTO 26012G17KT 10SM CLR 20/M01 A3025 RMK AO2,M
MEV,2023-05-16 02:35,-119.7500,38.9963,1441.42,66.20,39.20,37.03,260.00,7.00,0.00,30.22,M,10.00,M,CLR,M,M,M,M,M,M,M,M,M,M,M,M,M,M,66.20,KMEV 160235Z AUTO 26007KT 10SM CLR 19/04 A3022 RMK AO2,M
BAM,2023-05-16 02:35,-116.8743,40.5990,1382.36,75.20,32.00,20.49,290.00,4.00,0.00,30.17,M,10.00,M,CLR,M,M,M,M,M,M,M,M,M,M,M,M,M,M,75.20,KBAM 160235Z AUTO 29004KT 10SM CLR 24/00 A3017 RMK AO1,M
HTH,2023-05-16 02:35,-118.6315,38.5448,1282.89,77.00,23.00,13.32,210.00,8.00,0.00,30.16,M,10.00,M,CLR,M,M,M,M,M,M,M,M,M,M,M,M,M,M,77.00,KHTH 160235Z AUTO 21008KT 10SM CLR 25/M05 A3016 RMK A01,M
TMT,2023-05-16 02:35,-117.1971,39.4643,1749.34,66.60,35.60,31.70,280.00,15.00,0.00,30.26,M,10.00,21.00,OVC,M,M,M,11000.00,M,M,M,M,M,M,M,M,M,M,66.60,KTMT 160235Z AUTO 28015G21KT 10SM OVC110 19/02 A3026 RMK AO2 T01920020,M
05U,2023-05-16 02:50,-116.0051,39.6042,1811.23,68.00,26.60,20.98,M,3.00,0.00,30.26,M,10.00,M,FEW,M,M,M,11000.00,M,M,M,M,M,M,M,M,M,M,68.00,K05U 160250Z AUTO VRB03KT 10SM FEW110 20/M03 A3026 RMK A01,M
P68,2023-05-16 02:53,-116.0056,39.6014,1993.00,67.00,27.00,22.15,310.00,7.00,0.00,30.24,1017.60,M,M,M,M,M,M,M,M,M,M,M,M,M,M,M,M,M,66.90,KP68 160253Z AUTO 31007KT 19/M03 A3024 RMK AO1 SLP176 T01941028 53004,M
DRA,2023-05-16 02:53,-116.0278,36.6206,1009.00,81.00,24.10,12.23,M,3.00,0.00,30.06,1013.50,10.00,M,CLR,M,M,M,M,M,M,M,M,M,M,M,M,M,M,78.83,KDRA 160253Z AUTO VRB03KT 10SM CLR 27/M04 A3006 RMK AO2 SLP135 T02721044 55002,M
VGT,2023-05-16 02:53,-115.1933,36.2111,667.00,93.00,32.00,11.55,0.00,0.00,0.00,29.98,1014.20,10.00,M,CLR,M,M,M,M,M,M,M,M,M,M,M,M,M,M,88.15,KVGT 160253Z 00000KT 10SM CLR 34/00 A2998 RMK AO2 SLP142 T03390000 55004,M
LOL,2023-05-16 02:53,-118.5701,40.0684,1192.43,75.00,30.90,19.73,280.00,11.00,0.00,30.12,1017.30,10.00,M,CLR,M,M,M,M,M,M,M,M,M,M,M,M,M,M,75.00,KLOL 160253Z AUTO 28011KT 10SM CLR 24/M01 A3012 RMK AO2 SLP173 T02391006 53000,M
ELY,2023-05-16 02:53,-114.8453,39.2950,1909.00,59.00,38.00,45.36,170.00,6.00,0.00,30.27,1019.10,10.00,M,CLR,M,M,M,M,M,M,M,M,M,M,M,M,M,M,59.00,KELY 160253Z AUTO 17006KT 10SM CLR 15/03 A3027 RMK AO2 SLP191 T01500033 55003,M
BVU,2023-05-16 02:55,-114.8611,35.9475,671.00,91.40,30.20,11.28,60.00,5.00,0.00,29.98,M,10.00,M,CLR,M,M,M,M,M,M,M,M,M,M,M,M,M,M,86.71,KBVU 160255Z AUTO 06005KT 10SM CLR 33/M01 A2998 RMK AO2,M
CXP,2023-05-16 02:55,-119.7326,39.1923,1431.00,69.80,32.00,24.59,290.00,10.00,0.00,30.23,M,10.00,16.00,FEW,FEW,M,M,1400.00,2000.00,M,M,M,M,M,M,M,M,M,69.80,KCXP 160255Z AUTO 29010G16KT 10SM FEW014 FEW020 21/M00 A3023 RMK AO2,M
RNO,2023-05-16 02:55,-119.7711,39.4839,1341.00,73.00,30.00,20.34,270.00,9.00,0.00,30.20,1018.40,10.00,M,CLR,M,M,M,M,M,M,M,M,M,M,M,M,M,M,73.00,KRNO 160255Z 27009KT 10SM CLR 23/M01 A3020 RMK AO2 SLP184 T02281011 53006,M
RTS,2023-05-16 02:55,-119.8764,39.6682,1539.00,64.40,32.00,29.63,270.00,8.00,0.00,30.25,M,10.00,M,CLR,M,M,M,M,M,M,M,M,M,M,M,M,M,M,64.40,KRTS 160255Z AUTO 27008KT 10SM CLR 18/00 A3025 RMK AO2,M
MEV,2023-05-16 02:55,-119.7500,38.9963,1441.42,66.20,35.60,32.14,280.00,7.00,0.00,30.22,M,10.00,M,CLR,M,M,M,M,M,M,M,M,M,M,M,M,M,M,66.20,KMEV 160255Z AUTO 28007KT 10SM CLR 19/02 A3022 RMK AO2,M
BAM,2023-05-16 02:55,-116.8743,40.5990,1382.36,71.60,33.80,24.86,290.00,5.00,0.00,30.19,M,10.00,M,CLR,M,M,M,M,M,M,M,M,M,M,M,M,M,M,71.60,KBAM 160255Z AUTO 29005KT 10SM CLR 22/01 A3019 RMK AO1,M
HTH,2023-05-16 02:55,-118.6315,38.5448,1282.89,75.20,24.80,15.25,220.00,8.00,0.00,30.16,M,10.00,M,CLR,M,M,M,M,M,M,M,M,M,M,M,M,M,M,75.20,KHTH 160255Z AUTO 22008KT 10SM CLR 24/M04 A3016 RMK A01,M
TMT,2023-05-16 02:55,-117.1971,39.4643,1749.34,64.80,37.00,35.67,310.00,15.00,0.00,30.27,M,10.00,21.00,OVC,M,M,M,11000.00,M,M,M,M,M,M,M,M,M,M,64.80,KTMT 160255Z AUTO 31015G21KT 10SM OVC110 18/03 A3027 RMK AO2 T01820028,M
INS,2023-05-16 02:55,-115.6733,36.5872,955.00,82.60,20.50,9.98,0.00,0.00,0.00,30.05,1013.30,10.00,M,SCT,M,M,M,15000.00,M,M,M,M,M,M,M,M,M,M,79.65,KINS 160255Z AUTO 00000KT 10SM SCT150 28/M06 A3005 RMK AO2 SLP133 T02811064 55000 $,M
LSV,2023-05-16 02:55,-115.0343,36.2362,570.00,90.00,28.60,11.01,30.00,4.00,0.00,29.94,1011.50,10.00,M,CLR,M,M,M,M,M,M,M,M,M,M,M,M,M,M,85.56,KLSV 160255Z AUTO 03004KT 10SM CLR 32/M02 A2994 RMK AO2 SLP115 T03231019 55004 $,M
WMC,2023-05-16 02:56,-117.8072,40.9019,1315.00,66.00,36.00,32.88,290.00,5.00,0.00,30.15,1017.80,10.00,M,CLR,M,M,M,M,M,M,M,M,M,M,M,M,M,M,66.00,KWMC 160256Z AUTO 29005KT 10SM CLR 19/02 A3015 RMK AO2 SLP178 T01890022 53000,M
TPH,2023-05-16 02:56,-117.0904,38.0505,1654.00,M,M,M,M,M,0.00,30.21,M,M,M,M,M,M,M,M,M,M,M,M,M,M,M,M,M,M,M,KTPH 160256Z AUTO A3021 RMK AO2 SLPNO 55000 PWINO $,M
LAS,2023-05-16 02:56,-115.1634,36.0719,663.00,92.00,32.00,11.95,0.00,0.00,0.00,29.98,1012.70,10.00,M,FEW,FEW,SCT,M,9000.00,13000.00,22000.00,M,M,M,M,M,M,M,M,87.30,KLAS 160256Z 00000KT 10SM FEW090 FEW130 SCT220 33/00 A2998 RMK AO2 SLP127 T03330000 55003 $,M
NFL,2023-05-16 02:56,-118.7010,39.4166,1199.00,76.00,30.90,19.14,280.00,9.00,0.00,30.14,1017.10,10.00,M,FEW,FEW,M,M,6000.00,12000.00,M,M,M,M,M,M,M,M,M,75.90,KNFL 160256Z 28009KT 10SM FEW060 FEW120 24/M01 A3014 RMK SLP171 T02441006 53007,M
EKO,2023-05-16 02:56,-115.7860,40.8242,1367.00,63.00,47.00,55.64,80.00,3.00,0.01,30.22,1020.30,10.00,M,FEW,FEW,SCT,M,5000.00,7000.00,10000.00,M,M,M,M,M,M,M,M,63.00,KEKO 160256Z AUTO 08003KT 10SM FEW050 FEW070 SCT100 17/08 A3022 RMK AO2 RAB0157E42 SLP203 P0001 60001 T01720083 53005,M
HND,2023-05-16 02:56,-115.1344,35.9729,742.79,90.00,35.00,14.36,220.00,3.00,0.00,30.03,1015.50,10.00,M,CLR,M,M,M,M,M,M,M,M,M,M,M,M,M,M,85.95,KHND 160256Z 22003KT 10SM CLR 32/02 A3003 RMK AO2 SLP155 T03220017 53001,M
05U,2023-05-16 03:10,-116.0051,39.6042,1811.23,64.40,32.00,29.63,20.00,8.00,0.00,30.27,M,10.00,M,CLR,M,M,M,M,M,M,M,M,M,M,M,M,M,M,64.40,K05U 160310Z AUTO 02008KT 10SM CLR 18/M00 A3027 RMK A01,M
BVU,2023-05-16 03:15,-114.8611,35.9475,671.00,89.60,33.80,13.80,50.00,5.00,0.00,29.99,M,10.00,M,SCT,M,M,M,12000.00,M,M,M,M,M,M,M,M,M,M,85.59,KBVU 160315Z AUTO 05005KT 10SM SCT120 32/01 A2999 RMK AO2,M
CXP,2023-05-16 03:15,-119.7326,39.1923,1431.00,68.00,30.20,24.32,290.00,9.00,0.00,30.24,M,10.00,15.00,CLR,M,M,M,M,M,M,M,M,M,M,M,M,M,M,68.00,KCXP 160315Z AUTO 29009G15KT 10SM CLR 20/M01 A3024 RMK AO2,M
RTS,2023-05-16 03:15,-119.8764,39.6682,1539.00,62.60,32.00,31.56,270.00,9.00,0.00,30.26,M,10.00,M,CLR,M,M,M,M,M,M,M,M,M,M,M,M,M,M,62.60,KRTS 160315Z AUTO 27009KT 10SM CLR 17/M00 A3026 RMK AO2,M
MEV,2023-05-16 03:15,-119.7500,38.9963,1441.42,62.60,37.40,39.14,210.00,4.00,0.00,30.23,M,10.00,M,CLR,M,M,M,M,M,M,M,M,M,M,M,M,M,M,62.60,KMEV 160315Z AUTO 21004KT 10SM CLR 17/03 A3023 RMK AO2,M
BAM,2023-05-16 03:15,-116.8743,40.5990,1382.36,69.80,33.80,26.43,270.00,4.00,0.00,30.19,M,10.00,M,SCT,M,M,M,12000.00,M,M,M,M,M,M,M,M,M,M,69.80,KBAM 160315Z AUTO 27004KT 10SM SCT120 21/01 A3019 RMK AO1,M
HTH,2023-05-16 03:15,-118.6315,38.5448,1282.89,75.20,24.80,15.25,M,4.00,0.00,30.17,M,10.00,M,CLR,M,M,M,M,M,M,M,M,M,M,M,M,M,M,75.20,KHTH 160315Z AUTO VRB04KT 10SM CLR 24/M04 A3017 RMK A01,M
TMT,2023-05-16 03:15,-117.1971,39.4643,1749.34,62.80,38.00,39.63,40.00,9.00,0.00,30.28,M,10.00,M,BKN,M,M,M,11000.00,M,M,M,M,M,M,M,M,M,M,62.80,KTMT 160315Z AUTO 04009KT 10SM BKN110 17/03 A3028 RMK AO2 T01710033,M
05U,2023-05-16 03:30,-116.0051,39.6042,1811.23,62.60,32.00,31.56,10.00,4.00,0.00,30.28,M,10.00,M,FEW,SCT,M,M,8500.00,12000.00,M,M,M,M,M,M,M,M,M,62.60,K05U 160330Z AUTO 01004KT 10SM FEW085 SCT120 17/00 A3028 RMK A01,M
BVU,2023-05-16 03:35,-114.8611,35.9475,671.00,89.60,39.20,17.09,140.00,7.00,0.00,30.00,M,10.00,M,SCT,SCT,M,M,10000.00,12000.00,M,M,M,M,M,M,M,M,M,85.73,KBVU 160335Z AUTO 14007KT 10SM SCT100 SCT120 32/04 A3000 RMK AO2,M
CXP,2023-05-16 03:35,-119.7326,39.1923,1431.00,66.20,30.20,25.88,300.00,6.00,0.00,30.24,M,10.00,M,CLR,M,M,M,M,M,M,M,M,M,M,M,M,M,M,66.20,KCXP 160335Z AUTO 30006KT 10SM CLR 19/M01 A3024 RMK AO2,M
RTS,2023-05-16 03:35,-119.8764,39.6682,1539.00,59.00,32.00,35.87,250.00,6.00,0.00,30.26,M,10.00,M,CLR,M,M,M,M,M,M,M,M,M,M,M,M,M,M,59.00,KRTS 160335Z AUTO 25006KT 10SM CLR 15/M00 A3026 RMK AO2,M
MEV,2023-05-16 03:35,-119.7500,38.9963,1441.42,64.40,35.60,34.22,270.00,5.00,0.00,30.23,M,10.00,M,CLR,M,M,M,M,M,M,M,M,M,M,M,M,M,M,64.40,KMEV 160335Z AUTO 27005KT 10SM CLR 18/02 A3023 RMK AO2,M
BAM,2023-05-16 03:35,-116.8743,40.5990,1382.36,66.20,35.60,32.14,270.00,4.00,0.00,30.19,M,10.00,M,CLR,M,M,M,M,M,M,M,M,M,M,M,M,M,M,66.20,KBAM 160335Z AUTO 27004KT 10SM CLR 19/02 A3019 RMK AO1,M
HTH,2023-05-16 03:35,-118.6315,38.5448,1282.89,73.40,26.60,17.46,200.00,6.00,0.00,30.18,M,10.00,M,CLR,M,M,M,M,M,M,M,M,M,M,M,M,M,M,73.40,KHTH 160335Z AUTO 20006KT 10SM CLR 23/M03 A3018 RMK A01,M
TMT,2023-05-16 03:35,-117.1971,39.4643,1749.34,63.30,36.00,36.28,20.00,7.00,0.00,30.29,M,10.00,M,BKN,M,M,M,11000.00,M,M,M,M,M,M,M,M,M,M,63.30,KTMT 160335Z AUTO 02007KT 10SM BKN110 17/02 A3029 RMK AO2 T01740023,M
05U,2023-05-16 03:50,-116.0051,39.6042,1811.23,60.80,33.80,36.16,M,5.00,0.00,30.29,M,10.00,M,BKN,M,M,M,11000.00,M,M,M,M,M,M,M,M,M,M,60.80,K05U 160350Z AUTO VRB05KT 10SM BKN110 16/01 A3029 RMK A01,M
DRA,2023-05-16 03:53,-116.0278,36.6206,1009.00,74.00,24.10,15.47,90.00,5.00,0.00,30.07,1014.00,10.00,M,CLR,M,M,M,M,M,M,M,M,M,M,M,M,M,M,73.90,KDRA 160353Z AUTO 09005KT 10SM CLR 23/M04 A3007 RMK AO2 SLP140 T02331044,M
ELY,2023-05-16 03:53,-114.8453,39.2950,1909.00,56.00,37.00,48.95,190.00,11.00,0.00,30.29,1019.00,10.00,M,CLR,M,M,M,M,M,M,M,M,M,M,M,M,M,M,55.90,KELY 160353Z AUTO 19011KT 10SM CLR 13/03 A3029 RMK AO2 SLP190 T01330028,M
LOL,2023-05-16 03:53,-118.5701,40.0684,1192.43,69.00,32.00,25.18,290.00,7.00,0.00,30.15,1018.30,10.00,M,CLR,M,M,M,M,M,M,M,M,M,M,M,M,M,M,69.10,KLOL 160353Z AUTO 29007KT 10SM CLR 21/00 A3015 RMK AO2 SLP183 T02060000,M
P68,2023-05-16 03:53,-116.0056,39.6014,1993.00,61.00,35.00,37.81,100.00,4.00,0.00,30.27,1018.80,M,M,M,M,M,M,M,M,M,M,M,M,M,M,M,M,M,61.00,KP68 160353Z AUTO 10004KT 16/02 A3027 RMK AO1 SLP188 T01610017,M
VGT,2023-05-16 03:53,-115.1933,36.2111,667.00,92.00,33.00,12.49,0.00,0.00,0.00,30.00,1014.70,10.00,M,CLR,M,M,M,M,M,M,M,M,M,M,M,M,M,M,87.44,KVGT 160353Z 00000KT 10SM CLR 33/01 A3000 RMK AO2 SLP147 T03330006,M
BVU,2023-05-16 03:55,-114.8611,35.9475,671.00,89.60,37.40,15.92,140.00,8.00,0.00,30.01,M,10.00,M,SCT,M,M,M,12000.00,M,M,M,M,M,M,M,M,M,M,85.67,KBVU 160355Z AUTO 14008KT 10SM SCT120 32/03 A3001 RMK AO2,M
CXP,2023-05-16 03:55,-119.7326,39.1923,1431.00,64.40,30.20,27.55,0.00,0.00,0.00,30.25,M,10.00,M,CLR,M,M,M,M,M,M,M,M,M,M,M,M,M,M,64.40,KCXP 160355Z AUTO 00000KT 10SM CLR 18/M01 A3025 RMK AO2,M
RNO,2023-05-16 03:55,-119.7711,39.4839,1341.00,70.00,30.00,22.52,260.00,7.00,0.00,30.22,1019.10,10.00,M,CLR,M,M,M,M,M,M,M,M,M,M,M,M,M,M,70.00,KRNO 160355Z 26007KT 10SM CLR 21/M01 A3022 RMK AO2 SLP191 T02111011,M
RTS,2023-05-16 03:55,-119.8764,39.6682,1539.00,59.00,32.00,35.87,250.00,5.00,0.00,30.27,M,10.00,M,CLR,M,M,M,M,M,M,M,M,M,M,M,M,M,M,59.00,KRTS 160355Z AUTO 25005KT 10SM CLR 15/M00 A3027 RMK AO2,M
MEV,2023-05-16 03:55,-119.7500,38.9963,1441.42,62.60,33.80,33.93,260.00,5.00,0.00,30.24,M,10.00,M,CLR,M,M,M,M,M,M,M,M,M,M,M,M,M,M,62.60,KMEV 160355Z AUTO 26005KT 10SM CLR 17/01 A3024 RMK AO2,M
BAM,2023-05-16 03:55,-116.8743,40.5990,1382.36,60.80,35.60,38.85,120.00,5.00,0.00,30.20,M,10.00,M,CLR,M,M,M,M,M,M,M,M,M,M,M,M,M,M,60.80,KBAM 160355Z AUTO 12005KT 10SM CLR 16/02 A3020 RMK AO1,M
HTH,2023-05-16 03:55,-118.6315,38.5448,1282.89,73.40,24.80,16.20,250.00,9.00,0.00,30.18,M,10.00,M,CLR,M,M,M,M,M,M,M,M,M,M,M,M,M,M,73.40,KHTH 160355Z AUTO 25009KT 10SM CLR 23/M04 A3018 RMK A01,M
TMT,2023-05-16 03:55,-117.1971,39.4643,1749.34,61.00,37.00,40.77,60.00,6.00,0.00,30.29,M,10.00,M,OVC,M,M,M,12000.00,M,M,M,M,M,M,M,M,M,M,61.00,KTMT 160355Z AUTO 06006KT 10SM OVC120 16/03 A3029 RMK AO2 T01610028,M
INS,2023-05-16 03:55,-115.6733,36.5872,955.00,78.60,23.70,13.01,0.00,0.00,0.00,30.07,1013.90,10.00,M,CLR,M,M,M,M,M,M,M,M,M,M,M,M,M,M,78.60,KINS 160355Z AUTO 00000KT 10SM CLR 26/M05 A3007 RMK AO2 SLP139 T02591046 $,M
LSV,2023-05-16 03:55,-115.0343,36.2362,570.00,86.20,29.50,12.93,40.00,6.00,0.00,29.95,1011.70,10.00,M,SCT,M,M,M,16000.00,M,M,M,M,M,M,M,M,M,M,82.78,KLSV 160355Z AUTO 04006KT 10SM SCT160 30/M01 A2995 RMK AO2 SLP117 T03011014 $,M
EKO,2023-05-16 03:56,-115.7860,40.8242,1367.00,59.00,50.00,72.01,60.00,5.00,0.00,30.24,1020.50,10.00,M,FEW,M,M,M,11000.00,M,M,M,M,M,M,M,M,M,M,59.00,KEKO 160356Z AUTO 06005KT 10SM FEW110 15/10 A3024 RMK AO2 SLP205 T01500100,M
WMC,2023-05-16 03:56,-117.8072,40.9019,1315.00,57.00,37.00,47.04,140.00,5.00,0.00,30.17,1018.80,10.00,M,CLR,M,M,M,M,M,M,M,M,M,M,M,M,M,M,57.00,KWMC 160356Z AUTO 14005KT 10SM CLR 14/03 A3017 RMK AO2 SLP188 T01390028,M
HND,2023-05-16 03:56,-115.1344,35.9729,742.79,87.00,43.00,21.42,160.00,10.00,0.00,30.04,1016.00,10.00,M,CLR,M,M,M,M,M,M,M,M,M,M,M,M,M,M,83.84,KHND 160356Z AUTO 16010KT 10SM CLR 31/06 A3004 RMK AO2 SLP160 T03060061,M
TPH,2023-05-16 03:56,-117.0904,38.0505,1654.00,M,M,M,M,M,0.00,30.23,M,M,M,M,M,M,M,M,M,M,M,M,M,M,M,M,M,M,M,KTPH 160356Z AUTO A3023 RMK AO2 SLPNO PWINO $,M
LAS,2023-05-16 03:56,-115.1634,36.0719,663.00,90.00,33.00,13.26,110.00,5.00,0.00,30.00,1013.20,10.00,M,FEW,SCT,M,M,13000.00,22000.00,M,M,M,M,M,M,M,M,M,85.92,KLAS 160356Z 11005KT 10SM FEW130 SCT220 32/01 A3000 RMK AO2 SLP132 T03220006 $,M
NFL,2023-05-16 03:56,-118.7010,39.4166,1199.00,71.00,33.00,24.59,280.00,6.00,0.00,30.17,1018.10,10.00,M,FEW,FEW,M,M,6000.00,12000.00,M,M,M,M,M,M,M,M,M,71.10,KNFL 160356Z 28006KT 10SM FEW060 FEW120 22/01 A3017 RMK SLP181 T02170006,M
05U,2023-05-16 04:10,-116.0051,39.6042,1811.23,60.80,35.60,38.85,0.00,0.00,0.00,30.30,M,10.00,M,SCT,OVC,M,M,8500.00,11000.00,M,M,M,M,M,M,M,M,M,60.80,K05U 160410Z AUTO 00000KT 10SM SCT085 OVC110 16/02 A3030 RMK A01,M
BVU,2023-05-16 04:15,-114.8611,35.9475,671.00,87.80,37.40,16.86,120.00,6.00,0.00,30.02,M,10.00,M,FEW,M,M,M,12000.00,M,M,M,M,M,M,M,M,M,M,84.16,KBVU 160415Z AUTO 12006KT 10SM FEW120 31/03 A3002 RMK AO2,M
CXP,2023-05-16 04:15,-119.7326,39.1923,1431.00,64.40,30.20,27.55,0.00,0.00,0.00,30.25,M,10.00,M,CLR,M,M,M,M,M,M,M,M,M,M,M,M,M,M,64.40,KCXP 160415Z AUTO 00000KT 10SM CLR 18/M01 A3025 RMK AO2,M
RTS,2023-05-16 04:15,-119.8764,39.6682,1539.00,59.00,33.80,38.56,0.00,0.00,0.00,30.28,M,10.00,M,CLR,M,M,M,M,M,M,M,M,M,M,M,M,M,M,59.00,KRTS 160415Z AUTO 00000KT 10SM CLR 15/01 A3028 RMK AO2,M
MEV,2023-05-16 04:15,-119.7500,38.9963,1441.42,60.80,33.80,36.16,280.00,4.00,0.00,30.25,M,10.00,M,FEW,FEW,M,M,5000.00,8000.00,M,M,M,M,M,M,M,M,M,60.80,KMEV 160415Z AUTO 28004KT 10SM FEW050 FEW080 16/01 A3025 RMK AO2,M
BAM,2023-05-16 04:15,-116.8743,40.5990,1382.36,60.80,37.40,41.71,150.00,4.00,0.00,30.21,M,10.00,M,CLR,M,M,M,M,M,M,M,M,M,M,M,M,M,M,60.80,KBAM 160415Z AUTO 15004KT 10SM CLR 16/03 A3021 RMK AO1,M
HTH,2023-05-16 04:15,-118.6315,38.5448,1282.89,71.60,26.60,18.55,260.00,9.00,0.00,30.19,M,10.00,15.00,CLR,M,M,M,M,M,M,M,M,M,M,M,M,M,M,71.60,KHTH 160415Z AUTO 26009G15KT 10SM CLR 22/M03 A3019 RMK A01,M
TMT,2023-05-16 04:15,-117.1971,39.4643,1749.34,56.30,37.80,49.79,130.00,6.00,0.00,30.29,M,10.00,M,BKN,M,M,M,12000.00,M,M,M,M,M,M,M,M,M,M,56.30,KTMT 160415Z AUTO 13006KT 10SM BKN120 14/03 A3029 RMK AO2 T01350032,M
05U,2023-05-16 04:30,-116.0051,39.6042,1811.23,57.20,37.40,47.44,360.00,4.00,0.00,30.31,M,10.00,M,SCT,BKN,M,M,8500.00,12000.00,M,M,M,M,M,M,M,M,M,57.20,K05U 160430Z AUTO 36004KT 10SM SCT085 BKN120 14/03 A3031 RMK A01,M
TMT,2023-05-16 04:30,-117.1971,39.4643,1749.34,53.00,38.50,57.50,140.00,7.00,0.00,30.29,M,10.00,M,SCT,M,M,M,12000.00,M,M,M,M,M,M,M,M,M,M,53.10,KTMT 160430Z AUTO 14007KT 10SM SCT120 12/04 A3029 RMK AO2 T01170036,M
BVU,2023-05-16 04:35,-114.8611,35.9475,671.00,86.00,37.40,17.85,230.00,6.00,0.00,30.02,M,10.00,M,CLR,M,M,M,M,M,M,M,M,M,M,M,M,M,M,82.73,KBVU 160435Z AUTO 23006KT 10SM CLR 30/03 A3002 RMK AO2,M
CXP,2023-05-16 04:35,-119.7326,39.1923,1431.00,64.40,30.20,27.55,0.00,0.00,0.00,30.26,M,10.00,M,CLR,M,M,M,M,M,M,M,M,M,M,M,M,M,M,64.40,KCXP 160435Z AUTO 00000KT 10SM CLR 18/M01 A3026 RMK AO2,M
RTS,2023-05-16 04:35,-119.8764,39.6682,1539.00,53.60,35.60,50.36,310.00,5.00,0.00,30.28,M,10.00,M,CLR,M,M,M,M,M,M,M,M,M,M,M,M,M,M,53.60,KRTS 160435Z AUTO 31005KT 10SM CLR 12/02 A3028 RMK AO2,M
MEV,2023-05-16 04:35,-119.7500,38.9963,1441.42,51.80,39.20,61.99,120.00,3.00,0.00,30.25,M,10.00,M,FEW,M,M,M,7000.00,M,M,M,M,M,M,M,M,M,M,51.80,KMEV 160435Z AUTO 12003KT 10SM FEW070 11/04 A3025 RMK AO2,M
BAM,2023-05-16 04:35,-116.8743,40.5990,1382.36,60.80,37.40,41.71,160.00,3.00,0.00,30.22,M,10.00,M,BKN,M,M,M,12000.00,M,M,M,M,M,M,M,M,M,M,60.80,KBAM 160435Z AUTO 16003KT 10SM BKN120 16/03 A3022 RMK AO1,M
HTH,2023-05-16 04:35,-118.6315,38.5448,1282.89,71.60,26.60,18.55,260.00,9.00,0.00,30.20,M,10.00,M,CLR,M,M,M,M,M,M,M,M,M,M,M,M,M,M,71.60,KHTH 160435Z AUTO 26009KT 10SM CLR 22/M03 A3020 RMK A01,M
05U,2023-05-16 04:50,-116.0051,39.6042,1811.23,55.40,39.20,54.34,M,3.00,0.00,30.32,M,10.00,M,SCT,OVC,M,M,9500.00,11000.00,M,M,M,M,M,M,M,M,M,55.40,K05U 160450Z AUTO VRB03KT 10SM SCT095 OVC110 13/04 A3032 RMK A01,M
DRA,2023-05-16 04:53,-116.0278,36.6206,1009.00,72.00,25.00,17.13,90.00,6.00,0.00,30.09,1014.40,10.00,M,CLR,M,M,M,M,M,M,M,M,M,M,M,M,M,M,72.00,KDRA 160453Z AUTO 09006KT 10SM CLR 22/M04 A3009 RMK AO2 SLP144 T02221039,M
VGT,2023-05-16 04:53,-115.1933,36.2111,667.00,88.00,36.00,15.85,290.00,4.00,0.00,30.01,1015.30,10.00,M,CLR,M,M,M,M,M,M,M,M,M,M,M,M,M,M,84.29,KVGT 160453Z AUTO 29004KT 10SM CLR 31/02 A3001 RMK AO2 SLP153 T03110022,M
LOL,2023-05-16 04:53,-118.5701,40.0684,1192.43,64.00,30.90,28.74,0.00,0.00,0.00,30.18,1019.40,10.00,M,CLR,M,M,M,M,M,M,M,M,M,M,M,M,M,M,64.00,KLOL 160453Z AUTO 00000KT 10SM CLR 18/M01 A3018 RMK AO2 SLP194 T01781006,M
P68,2023-05-16 04:53,-116.0056,39.6014,1993.00,56.00,39.00,52.94,80.00,3.00,0.00,30.29,1019.50,M,M,M,M,M,M,M,M,M,M,M,M,M,M,M,M,M,55.90,KP68 160453Z AUTO 08003KT 13/04 A3029 RMK AO1 SLP195 T01330039,M
ELY,2023-05-16 04:53,-114.8453,39.2950,1909.00,53.00,36.00,52.11,210.00,9.00,0.00,30.30,1019.30,10.00,M,CLR,M,M,M,M,M,M,M,M,M,M,M,M,M,M,53.10,KELY 160453Z AUTO 21009KT 10SM CLR 12/02 A3030 RMK AO2 SLP193 T01170022,M
BVU,2023-05-16 04:55,-114.8611,35.9475,671.00,87.80,37.40,16.86,220.00,3.00,0.00,30.02,M,10.00,M,CLR,M,M,M,M,M,M,M,M,M,M,M,M,M,M,84.16,KBVU 160455Z AUTO 22003KT 10SM CLR 31/03 A3002 RMK AO2,M
CXP,2023-05-16 04:55,-119.7326,39.1923,1431.00,62.60,30.20,29.35,0.00,0.00,0.00,30.27,M,10.00,M,CLR,M,M,M,M,M,M,M,M,M,M,M,M,M,M,62.60,KCXP 160455Z AUTO 00000KT 10SM CLR 17/M01 A3027 RMK AO2,M
RNO,2023-05-16 04:55,-119.7711,39.4839,1341.00,67.00,30.90,25.98,270.00,3.00,0.00,30.24,1019.60,10.00,M,CLR,M,M,M,M,M,M,M,M,M,M,M,M,M,M,66.90,KRNO 160455Z 27003KT 10SM CLR 19/M01 A3024 RMK AO2 SLP196 T01941006,M
RTS,2023-05-16 04:55,-119.8764,39.6682,1539.00,51.80,37.40,57.77,350.00,4.00,0.00,30.28,M,10.00,M,CLR,M,M,M,M,M,M,M,M,M,M,M,M,M,M,51.80,KRTS 160455Z AUTO 35004KT 10SM CLR 11/03 A3028 RMK AO2,M
MEV,2023-05-16 04:55,-119.7500,38.9963,1441.42,50.00,39.20,66.27,120.00,7.00,0.00,30.26,M,10.00,M,FEW,SCT,SCT,M,3500.00,4400.00,7000.00,M,M,M,M,M,M,M,M,50.00,KMEV 160455Z AUTO 12007KT 10SM FEW035 SCT044 SCT070 10/04 A3026 RMK AO2,M
BAM,2023-05-16 04:55,-116.8743,40.5990,1382.36,60.80,37.40,41.71,190.00,3.00,0.00,30.22,M,10.00,M,SCT,M,M,M,12000.00,M,M,M,M,M,M,M,M,M,M,60.80,KBAM 160455Z AUTO 19003KT 10SM SCT120 16/03 A3022 RMK AO1,M
HTH,2023-05-16 04:55,-118.6315,38.5448,1282.89,69.80,28.40,21.24,360.00,7.00,0.00,30.21,M,10.00,18.00,CLR,M,M,M,M,M,M,M,M,M,M,M,M,M,M,69.80,KHTH 160455Z AUTO 36007G18KT 10SM CLR 21/M02 A3021 RMK A01,M
TMT,2023-05-16 04:55,-117.1971,39.4643,1749.34,53.00,38.50,57.93,0.00,0.00,0.00,30.30,M,10.00,M,CLR,M,M,M,M,M,M,M,M,M,M,M,M,M,M,52.90,KTMT 160455Z AUTO 00000KT 10SM CLR 12/04 A3030 RMK AO2 T01160036,M
INS,2023-05-16 04:55,-115.6733,36.5872,955.00,75.00,22.60,14.00,260.00,8.00,0.00,30.08,1014.20,10.00,M,BKN,M,M,M,14000.00,M,M,M,M,M,M,M,M,M,M,75.00,KINS 160455Z AUTO 26008KT 10SM BKN140 24/M05 A3008 RMK AO2 SLP142 T02391052 $,M
LSV,2023-05-16 04:55,-115.0343,36.2362,570.00,84.60,30.00,13.89,50.00,5.00,0.00,29.97,1012.40,10.00,M,BKN,OVC,M,M,14000.00,16000.00,M,M,M,M,M,M,M,M,M,81.56,KLSV 160455Z AUTO 05005KT 10SM BKN140 OVC160 29/M01 A2997 RMK AO2 SLP124 T02921011 $,M
EKO,2023-05-16 04:56,-115.7860,40.8242,1367.00,58.00,48.00,69.52,20.00,4.00,0.00,30.26,1021.10,10.00,M,CLR,M,M,M,M,M,M,M,M,M,M,M,M,M,M,57.90,KEKO 160456Z AUTO 02004KT 10SM CLR 14/09 A3026 RMK AO2 SLP211 T01440089,M
WMC,2023-05-16 04:56,-117.8072,40.9019,1315.00,59.00,36.00,42.08,0.00,0.00,0.00,30.20,1019.30,10.00,M,CLR,M,M,M,M,M,M,M,M,M,M,M,M,M,M,59.00,KWMC 160456Z AUTO 00000KT 10SM CLR 15/02 A3020 RMK AO2 SLP193 T01500022,M
TPH,2023-05-16 04:56,-117.0904,38.0505,1654.00,M,M,M,M,M,0.00,30.25,M,M,M,M,M,M,M,M,M,M,M,M,M,M,M,M,M,M,M,KTPH 160456Z AUTO A3025 RMK AO2 SLPNO PWINO $,M
NFL,2023-05-16 04:56,-118.7010,39.4166,1199.00,68.00,34.00,28.34,290.00,6.00,0.00,30.19,1018.70,10.00,M,FEW,FEW,M,M,6000.00,12000.00,M,M,M,M,M,M,M,M,M,68.00,KNFL 160456Z 29006KT 10SM FEW060 FEW120 20/01 A3019 RMK SLP187 T02000011,M
HND,2023-05-16 04:56,-115.1344,35.9729,742.79,86.00,42.00,21.43,150.00,8.00,0.00,30.06,1016.50,10.00,M,CLR,M,M,M,M,M,M,M,M,M,M,M,M,M,M,82.92,KHND 160456Z AUTO 15008KT 10SM CLR 30/06 A3006 RMK AO2 SLP165 T03000056,M
LAS,2023-05-16 04:56,-115.1634,36.0719,663.00,88.00,42.00,20.11,190.00,5.00,0.00,30.02,1013.70,10.00,M,FEW,BKN,M,M,13000.00,16000.00,M,M,M,M,M,M,M,M,M,84.52,KLAS 160456Z 19005KT 10SM FEW130 BKN160 31/06 A3002 RMK AO2 SLP137 T03110056 $,M
05U,2023-05-16 05:10,-116.0051,39.6042,1811.23,55.40,37.40,50.64,10.00,4.00,0.00,30.32,M,10.00,M,SCT,SCT,M,M,10000.00,12000.00,M,M,M,M,M,M,M,M,M,55.40,K05U 160510Z AUTO 01004KT 10SM SCT100 SCT120 13/03 A3032 RMK A01,M
BVU,2023-05-16 05:15,-114.8611,35.9475,671.00,86.00,39.20,19.15,240.00,5.00,0.00,30.02,M,10.00,M,CLR,M,M,M,M,M,M,M,M,M,M,M,M,M,M,82.79,KBVU 160515Z AUTO 24005KT 10SM CLR 30/04 A3002 RMK AO2,M
CXP,2023-05-16 05:15,-119.7326,39.1923,1431.00,60.80,32.00,33.64,110.00,4.00,0.00,30.27,M,10.00,M,CLR,M,M,M,M,M,M,M,M,M,M,M,M,M,M,60.80,KCXP 160515Z AUTO 11004KT 10SM CLR 16/00 A3027 RMK AO2,M
RTS,2023-05-16 05:15,-119.8764,39.6682,1539.00,51.80,37.40,57.77,340.00,5.00,0.00,30.28,M,10.00,M,CLR,M,M,M,M,M,M,M,M,M,M,M,M,M,M,51.80,KRTS 160515Z AUTO 34005KT 10SM CLR 11/03 A3028 RMK AO2,M
MEV,2023-05-16 05:15,-119.7500,38.9963,1441.42,50.00,39.20,66.27,110.00,6.00,0.00,30.26,M,10.00,M,FEW,SCT,BKN,M,4400.00,5000.00,6000.00,M,M,M,M,M,M,M,M,50.00,KMEV 160515Z AUTO 11006KT 10SM FEW044 SCT050 BKN060 10/04 A3026 RMK AO2,M
BAM,2023-05-16 05:15,-116.8743,40.5990,1382.36,59.00,41.00,51.18,170.00,4.00,0.00,30.22,M,10.00,M,SCT,M,M,M,12000.00,M,M,M,M,M,M,M,M,M,M,59.00,KBAM 160515Z AUTO 17004KT 10SM SCT120 15/05 A3022 RMK AO1,M
HTH,2023-05-16 05:15,-118.6315,38.5448,1282.89,68.00,30.20,24.32,80.00,8.00,0.00,30.22,M,10.00,14.00,CLR,M,M,M,M,M,M,M,M,M,M,M,M,M,M,68.00,KHTH 160515Z AUTO 08008G14KT 10SM CLR 20/M01 A3022 RMK A01,M
TMT,2023-05-16 05:15,-117.1971,39.4643,1749.34,52.20,38.50,59.44,270.00,4.00,0.00,30.30,M,10.00,M,CLR,M,M,M,M,M,M,M,M,M,M,M,M,M,M,52.20,KTMT 160515Z AUTO 27004KT 10SM CLR 11/04 A3030 RMK AO2 T01120036,M
05U,2023-05-16 05:30,-116.0051,39.6042,1811.23,53.60,37.40,54.07,M,5.00,0.00,30.32,M,10.00,M,CLR,M,M,M,M,M,M,M,M,M,M,M,M,M,M,53.60,K05U 160530Z AUTO VRB05KT 10SM CLR 12/03 A3032 RMK A01,M
BVU,2023-05-16 05:35,-114.8611,35.9475,671.00,84.20,39.20,20.29,0.00,0.00,0.00,30.02,M,10.00,M,CLR,M,M,M,M,M,M,M,M,M,M,M,M,M,M,81.44,KBVU 160535Z AUTO 00000KT 10SM CLR 29/04 A3002 RMK AO2,M
CXP,2023-05-16 05:35,-119.7326,39.1923,1431.00,59.00,32.00,35.87,100.00,4.00,0.00,30.27,M,10.00,M,CLR,M,M,M,M,M,M,M,M,M,M,M,M,M,M,59.00,KCXP 160535Z AUTO 10004KT 10SM CLR 15/M00 A3027 RMK AO2,M
RTS,2023-05-16 05:35,-119.8764,39.6682,1539.00,53.60,33.80,46.88,0.00,0.00,0.00,30.28,M,10.00,M,CLR,M,M,M,M,M,M,M,M,M,M,M,M,M,M,53.60,KRTS 160535Z AUTO 00000KT 10SM CLR 12/01 A3028 RMK AO2,M
MEV,2023-05-16 05:35,-119.7500,38.9963,1441.42,48.20,39.20,70.88,100.00,8.00,0.00,30.26,M,10.00,M,FEW,SCT,BKN,M,3700.00,5000.00,6000.00,M,M,M,M,M,M,M,M,44.07,KMEV 160535Z AUTO 10008KT 10SM FEW037 SCT050 BKN060 09/04 A3026 RMK AO2,M
BAM,2023-05-16 05:35,-116.8743,40.5990,1382.36,60.80,41.00,48.00,140.00,3.00,0.00,30.22,M,10.00,M,BKN,M,M,M,12000.00,M,M,M,M,M,M,M,M,M,M,60.80,KBAM 160535Z AUTO 14003KT 10SM BKN120 16/05 A3022 RMK AO1,M
HTH,2023-05-16 05:35,-118.6315,38.5448,1282.89,69.80,28.40,21.24,70.00,4.00,0.00,30.22,M,10.00,15.00,CLR,M,M,M,M,M,M,M,M,M,M,M,M,M,M,69.80,KHTH 160535Z AUTO 07004G15KT 10SM CLR 21/M02 A3022 RMK A01,M
TMT,2023-05-16 05:35,-117.1971,39.4643,1749.34,50.20,38.80,64.76,290.00,3.00,0.00,30.30,M,10.00,M,CLR,M,M,M,M,M,M,M,M,M,M,M,M,M,M,50.20,KTMT 160535Z AUTO 29003KT 10SM CLR 10/04 A3030 RMK AO2 T01010038,M
05U,2023-05-16 05:50,-116.0051,39.6042,1811.23,55.40,37.40,50.64,10.00,3.00,0.00,30.32,M,10.00,M,SCT,M,M,M,12000.00,M,M,M,M,M,M,M,M,M,M,55.40,K05U 160550Z AUTO 01003KT 10SM SCT120 13/03 A3032 RMK A01,M
DRA,2023-05-16 05:53,-116.0278,36.6206,1009.00,70.00,25.00,18.33,M,3.00,0.00,30.09,1014.20,10.00,M,CLR,M,M,M,M,M,M,M,M,M,M,M,M,M,M,70.00,KDRA 160553Z AUTO VRB03KT 10SM CLR 21/M04 A3009 RMK AO2 SLP142 T02111039 10322 20206 50008,M
VGT,2023-05-16 05:53,-115.1933,36.2111,667.00,87.00,37.00,16.97,40.00,4.00,0.00,30.01,1015.30,10.00,M,CLR,M,M,M,M,M,M,M,M,M,M,M,M,M,M,83.59,KVGT 160553Z AUTO 04004KT 10SM CLR 31/03 A3001 RMK AO2 SLP153 T03060028 10361 20300 51011,M
LOL,2023-05-16 05:53,-118.5701,40.0684,1192.43,66.00,30.00,25.85,M,5.00,0.00,30.19,1019.10,10.00,M,CLR,M,M,M,M,M,M,M,M,M,M,M,M,M,M,66.00,KLOL 160553Z AUTO VRB05KT 10SM CLR 19/M01 A3019 RMK AO2 SLP191 T01891011 10272 20172 51020,M
P68,2023-05-16 05:53,-116.0056,39.6014,1993.00,55.00,38.00,52.40,160.00,3.00,0.00,30.30,1019.40,M,M,M,M,M,M,M,M,M,M,M,M,M,M,M,M,M,55.00,KP68 160553Z AUTO 16003KT 13/03 A3030 RMK AO1 SLP194 T01280033 10233 20111 51018,M
ELY,2023-05-16 05:53,-114.8453,39.2950,1909.00,49.00,38.00,65.62,190.00,10.00,0.00,30.30,1019.20,10.00,M,CLR,M,M,M,M,M,M,M,M,M,M,M,M,M,M,44.16,KELY 160553Z AUTO 19010KT 10SM CLR 09/03 A3030 RMK AO2 SLP192 T00940033 10222 20094 50007,M
BVU,2023-05-16 05:55,-114.8611,35.9475,671.00,84.20,44.60,24.99,80.00,5.00,0.00,30.03,M,10.00,M,BKN,M,M,M,12000.00,M,M,M,M,M,M,M,M,M,M,81.73,KBVU 160555Z AUTO 08005KT 10SM BKN120 29/07 A3003 RMK AO2,M
CXP,2023-05-16 05:55,-119.7326,39.1923,1431.00,59.00,32.00,35.87,0.00,0.00,0.00,30.26,M,10.00,M,CLR,M,M,M,M,M,M,M,M,M,M,M,M,M,M,59.00,KCXP 160555Z AUTO 00000KT 10SM CLR 15/M00 A3026 RMK AO2,M
RNO,2023-05-16 05:55,-119.7711,39.4839,1341.00,65.00,30.90,27.85,280.00,5.00,0.00,30.23,1019.30,10.00,M,CLR,M,M,M,M,M,M,M,M,M,M,M,M,M,M,64.90,KRNO 160555Z 28005KT 10SM CLR 18/M01 A3023 RMK AO2 SLP193 T01831006 10261 20183 50012,M
RTS,2023-05-16 05:55,-119.8764,39.6682,1539.00,48.20,37.40,66.05,320.00,7.00,0.00,30.28,M,10.00,M,CLR,M,M,M,M,M,M,M,M,M,M,M,M,M,M,44.53,KRTS 160555Z AUTO 32007KT 10SM CLR 09/03 A3028 RMK AO2,M
MEV,2023-05-16 05:55,-119.7500,38.9963,1441.42,50.00,39.20,66.27,M,4.00,0.00,30.26,M,10.00,M,FEW,SCT,BKN,M,3900.00,4500.00,7000.00,M,M,M,M,M,M,M,M,50.00,KMEV 160555Z AUTO VRB04KT 10SM FEW039 SCT045 BKN070 10/04 A3026 RMK AO2,M
BAM,2023-05-16 05:55,-116.8743,40.5990,1382.36,59.00,41.00,51.18,0.00,0.00,0.00,30.22,M,10.00,M,SCT,M,M,M,12000.00,M,M,M,M,M,M,M,M,M,M,59.00,KBAM 160555Z AUTO 00000KT 10SM SCT120 15/05 A3022 RMK AO1,M
HTH,2023-05-16 05:55,-118.6315,38.5448,1282.89,68.00,30.20,24.32,200.00,4.00,0.00,30.22,M,10.00,M,CLR,M,M,M,M,M,M,M,M,M,M,M,M,M,M,68.00,KHTH 160555Z AUTO 20004KT 10SM CLR 20/M01 A3022 RMK A01,M
TMT,2023-05-16 05:55,-117.1971,39.4643,1749.34,45.70,36.00,68.68,180.00,5.00,0.00,30.30,M,10.00,M,SCT,M,M,M,12000.00,M,M,M,M,M,M,M,M,M,M,42.67,KTMT 160555Z AUTO 18005KT 10SM SCT120 08/02 A3030 RMK AO2 T00760022 10230 20076,M
INS,2023-05-16 05:55,-115.6733,36.5872,955.00,73.00,22.50,14.96,270.00,9.00,0.00,30.08,1014.00,10.00,M,SCT,M,M,M,13000.00,M,M,M,M,M,M,M,M,M,M,72.90,KINS 160555Z AUTO 27009KT 10SM SCT130 23/M05 A3008 RMK AO2 SLP140 T02271053 10321 20224 51011 $,M
LSV,2023-05-16 05:55,-115.0343,36.2362,570.00,87.00,37.00,16.90,250.00,4.00,0.00,29.97,1012.20,10.00,M,BKN,M,M,M,14000.00,M,M,M,M,M,M,M,M,M,M,83.58,KLSV 160555Z AUTO 25004KT 10SM BKN140 31/03 A2997 RMK AO2 SLP122 T03060027 10361 20292 52011 $,M
EKO,2023-05-16 05:56,-115.7860,40.8242,1367.00,53.00,48.00,82.76,70.00,3.00,0.00,30.26,1021.40,10.00,M,CLR,M,M,M,M,M,M,M,M,M,M,M,M,M,M,53.10,KEKO 160556Z AUTO 07003KT 10SM CLR 12/09 A3026 RMK AO2 SLP214 60001 T01170089 10228 20106 51012,M
WMC,2023-05-16 05:56,-117.8072,40.9019,1315.00,51.00,36.00,56.10,170.00,5.00,0.00,30.21,1020.10,10.00,M,CLR,M,M,M,M,M,M,M,M,M,M,M,M,M,M,51.10,KWMC 160556Z AUTO 17005KT 10SM CLR 11/02 A3021 RMK AO2 SLP201 T01060022 10267 20100 51018,M
NFL,2023-05-16 05:56,-118.7010,39.4166,1199.00,64.00,34.00,32.56,230.00,4.00,0.00,30.20,1018.90,10.00,M,FEW,FEW,M,M,6000.00,12000.00,M,M,M,M,M,M,M,M,M,64.00,KNFL 160556Z 23004KT 10SM FEW060 FEW120 18/01 A3020 RMK SLP189 T01780011 10294 20178 51018,M
HND,2023-05-16 05:56,-115.1344,35.9729,742.79,86.00,41.00,20.54,160.00,7.00,0.00,30.05,1016.30,10.00,M,CLR,M,M,M,M,M,M,M,M,M,M,M,M,M,M,82.86,KHND 160556Z AUTO 16007KT 10SM CLR 30/05 A3005 RMK AO2 SLP163 T03000050 10350 20300 50009,M
TPH,2023-05-16 05:56,-117.0904,38.0505,1654.00,M,M,M,M,M,0.00,30.25,M,M,M,M,M,M,M,M,M,M,M,M,M,M,M,M,M,M,M,KTPH 160556Z AUTO A3025 RMK AO2 SLPNO 51012 PWINO $,M
LAS,2023-05-16 05:56,-115.1634,36.0719,663.00,87.00,39.00,18.35,220.00,4.00,0.00,30.01,1013.60,10.00,M,FEW,BKN,M,M,13000.00,17000.00,M,M,M,M,M,M,M,M,M,83.65,KLAS 160556Z 22004KT 10SM FEW130 BKN170 31/04 A3001 RMK AO2 SLP136 T03060039 10356 20306 50009 $,M
05U,2023-05-16 06:10,-116.0051,39.6042,1811.23,51.80,39.20,61.99,10.00,5.00,0.00,30.32,M,10.00,M,FEW,M,M,M,12000.00,M,M,M,M,M,M,M,M,M,M,51.80,K05U 160610Z AUTO 01005KT 10SM FEW120 11/04 A3032 RMK A01,M
BVU,2023-05-16 06:15,-114.8611,35.9475,671.00,84.20,42.80,23.33,0.00,0.00,0.00,30.02,M,10.00,M,BKN,M,M,M,12000.00,M,M,M,M,M,M,M,M,M,M,81.61,KBVU 160615Z AUTO 00000KT 10SM BKN120 29/06 A3002 RMK AO2,M
CXP,2023-05-16 06:15,-119.7326,39.1923,1431.00,55.40,32.00,40.84,0.00,0.00,0.00,30.27,M,10.00,M,CLR,M,M,M,M,M,M,M,M,M,M,M,M,M,M,55.40,KCXP 160615Z AUTO 00000KT 10SM CLR 13/00 A3027 RMK AO2,M
RTS,2023-05-16 06:15,-119.8764,39.6682,1539.00,48.20,37.40,66.05,M,4.00,0.00,30.28,M,10.00,M,CLR,M,M,M,M,M,M,M,M,M,M,M,M,M,M,46.34,KRTS 160615Z AUTO VRB04KT 10SM CLR 09/03 A3028 RMK AO2,M
MEV,2023-05-16 06:15,-119.7500,38.9963,1441.42,50.00,39.20,66.27,170.00,6.00,0.00,30.26,M,10.00,M,FEW,FEW,BKN,M,3500.00,4200.00,6000.00,M,M,M,M,M,M,M,M,50.00,KMEV 160615Z AUTO 17006KT 10SM FEW035 FEW042 BKN060 10/04 A3026 RMK AO2,M
BAM,2023-05-16 06:15,-116.8743,40.5990,1382.36,57.20,41.00,54.60,140.00,4.00,0.00,30.22,M,10.00,M,SCT,M,M,M,12000.00,M,M,M,M,M,M,M,M,M,M,57.20,KBAM 160615Z AUTO 14004KT 10SM SCT120 14/05 A3022 RMK AO1,M
HTH,2023-05-16 06:15,-118.6315,38.5448,1282.89,64.40,32.00,29.63,220.00,5.00,0.00,30.22,M,10.00,M,CLR,M,M,M,M,M,M,M,M,M,M,M,M,M,M,64.40,KHTH 160615Z AUTO 22005KT 10SM CLR 18/00 A3022 RMK A01,M
TMT,2023-05-16 06:15,-117.1971,39.4643,1749.34,45.30,36.00,69.73,180.00,3.00,0.00,30.31,M,10.00,M,BKN,M,M,M,12000.00,M,M,M,M,M,M,M,M,M,M,43.89,KTMT 160615Z AUTO 18003KT 10SM BKN120 07/02 A3031 RMK AO2 LTG DSNT N T00740022,M
05U,2023-05-16 06:30,-116.0051,39.6042,1811.23,50.00,37.40,61.76,0.00,0.00,0.00,30.32,M,10.00,M,SCT,M,M,M,11000.00,M,M,M,M,M,M,M,M,M,M,50.00,K05U 160630Z AUTO 00000KT 10SM SCT110 10/03 A3032 RMK A01,M
BVU,2023-05-16 06:35,-114.8611,35.9475,671.00,86.00,39.20,19.15,100.00,5.00,0.00,30.02,M,10.00,M,FEW,M,M,M,12000.00,M,M,M,M,M,M,M,M,M,M,82.79,KBVU 160635Z AUTO 10005KT 10SM FEW120 30/04 A3002 RMK AO2,M
CXP,2023-05-16 06:35,-119.7326,39.1923,1431.00,53.60,32.00,43.61,0.00,0.00,0.00,30.27,M,10.00,M,CLR,M,M,M,M,M,M,M,M,M,M,M,M,M,M,53.60,KCXP 160635Z AUTO 00000KT 10SM CLR 12/M00 A3027 RMK AO2,M
RTS,2023-05-16 06:35,-119.8764,39.6682,1539.00,46.40,35.60,65.83,360.00,5.00,0.00,30.27,M,10.00,M,CLR,M,M,M,M,M,M,M,M,M,M,M,M,M,M,43.50,KRTS 160635Z AUTO 36005KT 10SM CLR 08/02 A3027 RMK AO2,M
MEV,2023-05-16 06:35,-119.7500,38.9963,1441.42,50.00,37.40,61.76,130.00,8.00,0.00,30.26,M,10.00,M,FEW,SCT,BKN,M,3500.00,4300.00,5500.00,M,M,M,M,M,M,M,M,50.00,KMEV 160635Z AUTO 13008KT 10SM FEW035 SCT043 BKN055 10/03 A3026 RMK AO2,M
BAM,2023-05-16 06:35,-116.8743,40.5990,1382.36,55.40,41.00,58.27,130.00,3.00,0.00,30.23,M,10.00,M,SCT,M,M,M,11000.00,M,M,M,M,M,M,M,M,M,M,55.40,KBAM 160635Z AUTO 13003KT 10SM SCT110 13/05 A3023 RMK AO1,M
HTH,2023-05-16 06:35,-118.6315,38.5448,1282.89,62.60,33.80,33.93,220.00,6.00,0.00,30.22,M,10.00,M,CLR,M,M,M,M,M,M,M,M,M,M,M,M,M,M,62.60,KHTH 160635Z AUTO 22006KT 10SM CLR 17/01 A3022 RMK A01,M
TMT,2023-05-16 06:35,-117.1971,39.4643,1749.34,47.00,37.00,68.01,240.00,7.00,0.00,30.31,M,10.00,M,SCT,M,M,M,12000.00,M,M,M,M,M,M,M,M,M,M,42.94,KTMT 160635Z AUTO 24007KT 10SM SCT120 08/03 A3031 RMK AO2 T00830027,M
05U,2023-05-16 06:50,-116.0051,39.6042,1811.23,50.00,39.20,66.27,10.00,4.00,0.00,30.32,M,10.00,M,BKN,M,M,M,11000.00,M,M,M,M,M,M,M,M,M,M,50.00,K05U 160650Z AUTO 01004KT 10SM BKN110 10/04 A3032 RMK A01,M
P68,2023-05-16 06:53,-116.0056,39.6014,1993.00,50.00,39.00,65.75,250.00,4.00,0.00,30.29,1019.50,M,M,M,M,M,M,M,M,M,M,M,M,M,M,M,M,M,50.00,KP68 160653Z AUTO 25004KT 10/04 A3029 RMK AO1 SLP195 T01000039,M
DRA,2023-05-16 06:53,-116.0278,36.6206,1009.00,69.00,25.00,18.91,50.00,4.00,0.00,30.08,1014.20,10.00,M,CLR,M,M,M,M,M,M,M,M,M,M,M,M,M,M,69.10,KDRA 160653Z AUTO 05004KT 10SM CLR 21/M04 A3008 RMK AO2 SLP142 T02061039,M
ELY,2023-05-16 06:53,-114.8453,39.2950,1909.00,45.00,36.00,70.53,0.00,0.00,0.00,30.31,1019.70,10.00,M,CLR,M,M,M,M,M,M,M,M,M,M,M,M,M,M,45.00,KELY 160653Z AUTO 00000KT 10SM CLR 07/02 A3031 RMK AO2 SLP197 T00720022,M
VGT,2023-05-16 06:53,-115.1933,36.2111,667.00,85.00,37.00,18.20,20.00,5.00,0.00,30.01,1015.20,10.00,M,CLR,M,M,M,M,M,M,M,M,M,M,M,M,M,M,81.88,KVGT 160653Z AUTO 02005KT 10SM CLR 29/03 A3001 RMK AO2 SLP152 T02940028,M
LOL,2023-05-16 06:53,-118.5701,40.0684,1192.43,62.00,30.90,30.73,70.00,3.00,0.00,30.20,1019.60,10.00,M,CLR,M,M,M,M,M,M,M,M,M,M,M,M,M,M,62.10,KLOL 160653Z AUTO 07003KT 10SM CLR 17/M01 A3020 RMK AO2 SLP196 T01671006,M
BVU,2023-05-16 06:55,-114.8611,35.9475,671.00,86.00,39.20,19.15,110.00,7.00,0.00,30.02,M,10.00,M,CLR,M,M,M,M,M,M,M,M,M,M,M,M,M,M,82.79,KBVU 160655Z AUTO 11007KT 10SM CLR 30/04 A3002 RMK AO2,M
CXP,2023-05-16 06:55,-119.7326,39.1923,1431.00,53.60,30.20,40.54,0.00,0.00,0.00,30.27,M,10.00,M,CLR,M,M,M,M,M,M,M,M,M,M,M,M,M,M,53.60,KCXP 160655Z AUTO 00000KT 10SM CLR 12/M01 A3027 RMK AO2,M
RNO,2023-05-16 06:55,-119.7711,39.4839,1341.00,63.00,30.90,29.77,0.00,0.00,0.00,30.24,1018.90,10.00,M,CLR,M,M,M,M,M,M,M,M,M,M,M,M,M,M,63.00,KRNO 160655Z 00000KT 10SM CLR 17/M01 A3024 RMK AO2 SLP189 T01721006,M
RTS,2023-05-16 06:55,-119.8764,39.6682,1539.00,50.00,33.80,53.54,340.00,5.00,0.00,30.27,M,10.00,M,CLR,M,M,M,M,M,M,M,M,M,M,M,M,M,M,50.00,KRTS 160655Z AUTO 34005KT 10SM CLR 10/01 A3027 RMK AO2,M
MEV,2023-05-16 06:55,-119.7500,38.9963,1441.42,48.20,37.40,66.05,110.00,7.00,0.00,30.26,M,10.00,M,FEW,SCT,BKN,M,3700.00,4900.00,6000.00,M,M,M,M,M,M,M,M,44.53,KMEV 160655Z AUTO 11007KT 10SM FEW037 SCT049 BKN060 09/03 A3026 RMK AO2,M
BAM,2023-05-16 06:55,-116.8743,40.5990,1382.36,59.00,41.00,51.18,0.00,0.00,0.00,30.22,M,10.00,M,OVC,M,M,M,11000.00,M,M,M,M,M,M,M,M,M,M,59.00,KBAM 160655Z AUTO 00000KT 10SM OVC110 15/05 A3022 RMK AO1,M
HTH,2023-05-16 06:55,-118.6315,38.5448,1282.89,62.60,33.80,33.93,230.00,5.00,0.00,30.22,M,10.00,M,CLR,M,M,M,M,M,M,M,M,M,M,M,M,M,M,62.60,KHTH 160655Z AUTO 23005KT 10SM CLR 17/01 A3022 RMK A01,M
INS,2023-05-16 06:55,-115.6733,36.5872,955.00,68.00,22.80,17.91,270.00,4.00,0.00,30.08,1014.00,10.00,M,CLR,M,M,M,M,M,M,M,M,M,M,M,M,M,M,68.00,KINS 160655Z AUTO 27004KT 10SM CLR 20/M05 A3008 RMK AO2 SLP140 T02001051 $,M
LSV,2023-05-16 06:55,-115.0343,36.2362,570.00,84.60,37.80,18.97,30.00,3.00,0.00,29.97,1012.30,10.00,M,BKN,M,M,M,14000.00,M,M,M,M,M,M,M,M,M,M,81.68,KLSV 160655Z AUTO 03003KT 10SM BKN140 29/03 A2997 RMK AO2 SLP123 T02920032 $,M
TMT,2023-05-16 06:55,-117.1971,39.4643,1749.34,47.30,38.00,70.22,230.00,5.00,0.00,30.31,M,10.00,M,CLR,M,M,M,M,M,M,M,M,M,M,M,M,M,M,44.57,KTMT 160655Z AUTO 23005KT 10SM CLR 09/03 A3031 RMK AO2 T00850034,M
EKO,2023-05-16 06:56,-115.7860,40.8242,1367.00,55.00,48.00,77.21,70.00,4.00,0.00,30.26,1020.60,10.00,M,CLR,M,M,M,M,M,M,M,M,M,M,M,M,M,M,55.00,KEKO 160656Z AUTO 07004KT 10SM CLR 13/09 A3026 RMK AO2 SLP206 T01280089,M
WMC,2023-05-16 06:56,-117.8072,40.9019,1315.00,54.00,37.00,52.45,0.00,0.00,0.00,30.22,1019.70,10.00,M,CLR,M,M,M,M,M,M,M,M,M,M,M,M,M,M,54.00,KWMC 160656Z AUTO 00000KT 10SM CLR 12/03 A3022 RMK AO2 SLP197 T01220028,M
TPH,2023-05-16 06:56,-117.0904,38.0505,1654.00,M,M,M,M,M,0.00,30.25,M,M,M,M,M,M,M,M,M,M,M,M,M,M,M,M,M,M,M,KTPH 160656Z AUTO A3025 RMK AO2 SLPNO PWINO $,M
NFL,2023-05-16 06:56,-118.7010,39.4166,1199.00,54.00,35.00,48.65,80.00,5.00,0.00,30.20,1019.00,10.00,M,FEW,FEW,M,M,6000.00,12000.00,M,M,M,M,M,M,M,M,M,54.00,KNFL 160656Z 08005KT 10SM FEW060 FEW120 12/01 A3020 RMK SLP190 T01220017,M
LAS,2023-05-16 06:56,-115.1634,36.0719,663.00,84.00,35.00,17.38,100.00,6.00,0.00,30.02,1013.70,10.00,M,BKN,BKN,M,M,14000.00,18000.00,M,M,M,M,M,M,M,M,M,81.18,KLAS 160656Z 10006KT 10SM BKN140 BKN180 29/02 A3002 RMK AO2 SLP137 T02890017 $,M
HND,2023-05-16 06:56,-115.1344,35.9729,742.79,85.00,40.00,20.39,170.00,9.00,0.00,30.05,1016.30,10.00,M,CLR,M,M,M,M,M,M,M,M,M,M,M,M,M,M,81.98,KHND 160656Z AUTO 17009KT 10SM CLR 29/04 A3005 RMK AO2 SLP163 T02940044 403500183,M
05U,2023-05-16 07:10,-116.0051,39.6042,1811.23,50.00,39.20,66.27,0.00,0.00,0.00,30.32,M,10.00,M,OVC,M,M,M,11000.00,M,M,M,M,M,M,M,M,M,M,50.00,K05U 160710Z AUTO 00000KT 10SM OVC110 10/04 A3032 RMK A01,M
BVU,2023-05-16 07:15,-114.8611,35.9475,671.00,86.00,39.20,19.15,110.00,7.00,0.00,30.02,M,10.00,M,CLR,M,M,M,M,M,M,M,M,M,M,M,M,M,M,82.79,KBVU 160715Z AUTO 11007KT 10SM CLR 30/04 A3002 RMK AO2,M
CXP,2023-05-16 07:15,-119.7326,39.1923,1431.00,53.60,30.20,40.54,0.00,0.00,0.00,30.27,M,10.00,M,CLR,M,M,M,M,M,M,M,M,M,M,M,M,M,M,53.60,KCXP 160715Z AUTO 00000KT 10SM CLR 12/M01 A3027 RMK AO2,M
RTS,2023-05-16 07:15,-119.8764,39.6682,1539.00,48.20,35.60,61.52,350.00,7.00,0.00,30.27,M,10.00,M,CLR,M,M,M,M,M,M,M,M,M,M,M,M,M,M,44.53,KRTS 160715Z AUTO 35007KT 10SM CLR 09/02 A3027 RMK AO2,M
MEV,2023-05-16 07:15,-119.7500,38.9963,1441.42,48.20,39.20,70.88,110.00,7.00,0.00,30.26,M,10.00,M,FEW,BKN,BKN,M,4500.00,5500.00,6500.00,M,M,M,M,M,M,M,M,44.53,KMEV 160715Z AUTO 11007KT 10SM FEW045 BKN055 BKN065 09/04 A3026 RMK AO2,M
BAM,2023-05-16 07:15,-116.8743,40.5990,1382.36,55.40,41.00,58.27,220.00,3.00,0.00,30.23,M,10.00,M,OVC,M,M,M,12000.00,M,M,M,M,M,M,M,M,M,M,55.40,KBAM 160715Z AUTO 22003KT 10SM OVC120 13/05 A3023 RMK AO1,M
HTH,2023-05-16 07:15,-118.6315,38.5448,1282.89,60.80,35.60,38.85,230.00,6.00,0.00,30.22,M,10.00,M,CLR,M,M,M,M,M,M,M,M,M,M,M,M,M,M,60.80,KHTH 160715Z AUTO 23006KT 10SM CLR 16/02 A3022 RMK A01,M
TMT,2023-05-16 07:15,-117.1971,39.4643,1749.34,44.40,37.60,76.86,140.00,6.00,0.00,30.31,M,10.00,M,CLR,M,M,M,M,M,M,M,M,M,M,M,M,M,M,40.46,KTMT 160715Z AUTO 14006KT 10SM CLR 07/03 A3031 RMK AO2 T00690031,M
05U,2023-05-16 07:30,-116.0051,39.6042,1811.23,51.80,39.20,61.99,360.00,4.00,0.00,30.31,M,10.00,M,OVC,M,M,M,11000.00,M,M,M,M,M,M,M,M,M,M,51.80,K05U 160730Z AUTO 36004KT 10SM OVC110 11/04 A3031 RMK A01,M
BVU,2023-05-16 07:35,-114.8611,35.9475,671.00,86.00,39.20,19.15,100.00,5.00,0.00,30.01,M,10.00,M,FEW,M,M,M,12000.00,M,M,M,M,M,M,M,M,M,M,82.79,KBVU 160735Z AUTO 10005KT 10SM FEW120 30/04 A3001 RMK AO2,M
CXP,2023-05-16 07:35,-119.7326,39.1923,1431.00,51.80,32.00,46.59,290.00,4.00,0.00,30.27,M,10.00,M,CLR,M,M,M,M,M,M,M,M,M,M,M,M,M,M,51.80,KCXP 160735Z AUTO 29004KT 10SM CLR 11/00 A3027 RMK AO2,M
RTS,2023-05-16 07:35,-119.8764,39.6682,1539.00,46.40,35.60,65.83,340.00,8.00,0.00,30.27,M,10.00,M,CLR,M,M,M,M,M,M,M,M,M,M,M,M,M,M,41.85,KRTS 160735Z AUTO 34008KT 10SM CLR 08/02 A3027 RMK AO2,M
MEV,2023-05-16 07:35,-119.7500,38.9963,1441.42,46.40,39.20,75.84,100.00,4.00,0.00,30.26,M,10.00,M,FEW,BKN,BKN,M,4200.00,5000.00,6500.00,M,M,M,M,M,M,M,M,44.24,KMEV 160735Z AUTO 10004KT 10SM FEW042 BKN050 BKN065 08/04 A3026 RMK AO2,M
BAM,2023-05-16 07:35,-116.8743,40.5990,1382.36,57.20,44.60,62.69,30.00,4.00,0.00,30.23,M,10.00,M,OVC,M,M,M,12000.00,M,M,M,M,M,M,M,M,M,M,57.20,KBAM 160735Z AUTO 03004KT 10SM OVC120 14/07 A3023 RMK AO1,M
HTH,2023-05-16 07:35,-118.6315,38.5448,1282.89,59.00,37.40,44.47,220.00,6.00,0.00,30.22,M,10.00,M,CLR,M,M,M,M,M,M,M,M,M,M,M,M,M,M,59.00,KHTH 160735Z AUTO 22006KT 10SM CLR 15/03 A3022 RMK A01,M
TMT,2023-05-16 07:35,-117.1971,39.4643,1749.34,45.50,36.70,71.14,180.00,6.00,0.00,30.31,M,10.00,M,CLR,M,M,M,M,M,M,M,M,M,M,M,M,M,M,41.79,KTMT 160735Z AUTO 18006KT 10SM CLR 08/03 A3031 RMK AO2 T00750026,M
05U,2023-05-16 07:50,-116.0051,39.6042,1811.23,50.00,39.20,66.27,M,M,0.00,30.31,M,10.00,M,BKN,M,M,M,11000.00,M,M,M,M,M,M,M,M,M,M,50.00,K05U 160750Z AUTO 10SM BKN110 10/04 A3031 RMK A01,M
DRA,2023-05-16 07:53,-116.0278,36.6206,1009.00,67.00,24.10,19.64,100.00,3.00,0.00,30.08,1013.90,10.00,M,CLR,M,M,M,M,M,M,M,M,M,M,M,M,M,M,66.90,KDRA 160753Z AUTO 10003KT 10SM CLR 19/M04 A3008 RMK AO2 SLP139 T01941044 403330167,M
ELY,2023-05-16 07:53,-114.8453,39.2950,1909.00,44.00,36.00,72.99,170.00,9.00,0.00,30.31,1019.20,10.00,M,CLR,M,M,M,M,M,M,M,M,M,M,M,M,M,M,38.56,KELY 160753Z AUTO 17009KT 10SM CLR 07/02 A3031 RMK AO2 SLP192 T00670022 402280050,M
VGT,2023-05-16 07:53,-115.1933,36.2111,667.00,83.00,36.00,18.66,20.00,5.00,0.00,30.01,1015.10,10.00,M,CLR,M,M,M,M,M,M,M,M,M,M,M,M,M,M,80.43,KVGT 160753Z AUTO 02005KT 10SM CLR 28/02 A3001 RMK AO2 SLP151 T02830022 403610217,M
LOL,2023-05-16 07:53,-118.5701,40.0684,1192.43,54.00,33.00,44.92,40.00,4.00,0.00,30.20,1019.70,10.00,M,CLR,M,M,M,M,M,M,M,M,M,M,M,M,M,M,54.00,KLOL 160753Z AUTO 04004KT 10SM CLR 12/01 A3020 RMK AO2 SLP197 T01220006 402780056,M
P68,2023-05-16 07:53,-116.0056,39.6014,1993.00,51.00,40.00,65.38,210.00,4.00,0.00,30.29,1018.70,M,M,M,M,M,M,M,M,M,M,M,M,M,M,M,M,M,51.10,KP68 160753Z AUTO 21004KT 11/04 A3029 RMK AO1 SLP187 T01060044 402500056,M
BVU,2023-05-16 07:55,-114.8611,35.9475,671.00,80.60,44.60,28.08,70.00,3.00,0.00,30.01,M,10.00,M,CLR,M,M,M,M,M,M,M,M,M,M,M,M,M,M,79.42,KBVU 160755Z AUTO 07003KT 10SM CLR 27/07 A3001 RMK AO2,M
CXP,2023-05-16 07:55,-119.7326,39.1923,1431.00,51.80,32.00,46.59,0.00,0.00,0.00,30.27,M,10.00,M,CLR,M,M,M,M,M,M,M,M,M,M,M,M,M,M,51.80,KCXP 160755Z AUTO 00000KT 10SM CLR 11/00 A3027 RMK AO2,M
RNO,2023-05-16 07:55,-119.7711,39.4839,1341.00,60.00,32.00,34.49,0.00,0.00,0.00,30.24,1019.20,10.00,M,CLR,M,M,M,M,M,M,M,M,M,M,M,M,M,M,60.10,KRNO 160755Z 00000KT 10SM CLR 16/00 A3024 RMK AO2 SLP192 T01560000 402780100,M
RTS,2023-05-16 07:55,-119.8764,39.6682,1539.00,46.40,35.60,65.83,340.00,7.00,0.00,30.27,M,10.00,M,CLR,M,M,M,M,M,M,M,M,M,M,M,M,M,M,42.33,KRTS 160755Z AUTO 34007KT 10SM CLR 08/02 A3027 RMK AO2,M
MEV,2023-05-16 07:55,-119.7500,38.9963,1441.42,44.60,37.40,75.68,110.00,4.00,0.00,30.26,M,10.00,M,SCT,BKN,M,M,5000.00,6000.00,M,M,M,M,M,M,M,M,M,42.13,KMEV 160755Z AUTO 11004KT 10SM SCT050 BKN060 07/03 A3026 RMK AO2,M
BAM,2023-05-16 07:55,-116.8743,40.5990,1382.36,55.40,42.80,62.46,70.00,3.00,0.00,30.23,M,10.00,M,SCT,M,M,M,12000.00,M,M,M,M,M,M,M,M,M,M,55.40,KBAM 160755Z AUTO 07003KT 10SM SCT120 13/06 A3023 RMK AO1,M
HTH,2023-05-16 07:55,-118.6315,38.5448,1282.89,60.80,37.40,41.71,0.00,0.00,0.00,30.22,M,10.00,M,CLR,M,M,M,M,M,M,M,M,M,M,M,M,M,M,60.80,KHTH 160755Z AUTO 00000KT 10SM CLR 16/03 A3022 RMK A01,M
TMT,2023-05-16 07:55,-117.1971,39.4643,1749.34,46.40,36.70,68.76,240.00,3.00,0.00,30.31,M,10.00,M,CLR,M,M,M,M,M,M,M,M,M,M,M,M,M,M,45.15,KTMT 160755Z AUTO 24003KT 10SM CLR 08/03 A3031 RMK AO2 T00800026 402500023,M
INS,2023-05-16 07:55,-115.6733,36.5872,955.00,67.60,22.60,18.00,0.00,0.00,0.00,30.08,1014.20,10.00,M,CLR,M,M,M,M,M,M,M,M,M,M,M,M,M,M,67.60,KINS 160755Z AUTO 00000KT 10SM CLR 20/M05 A3008 RMK AO2 SLP142 T01981052 403230131 $,M
LSV,2023-05-16 07:55,-115.0343,36.2362,570.00,83.50,38.00,19.88,0.00,0.00,0.00,29.97,1012.20,10.00,M,FEW,M,M,M,15000.00,M,M,M,M,M,M,M,M,M,M,80.91,KLSV 160755Z AUTO 00000KT 10SM FEW150 29/03 A2997 RMK AO2 SLP122 T02860034 403760213 $,M
TPH,2023-05-16 07:56,-117.0904,38.0505,1654.00,M,M,M,M,M,0.00,30.25,M,M,M,M,M,M,M,M,M,M,M,M,M,M,M,M,M,M,M,KTPH 160756Z AUTO A3025 RMK AO2 SLPNO PWINO $,M
LAS,2023-05-16 07:56,-115.1634,36.0719,663.00,85.00,39.00,19.69,210.00,4.00,0.00,30.01,1013.50,10.00,M,BKN,BKN,M,M,14000.00,18000.00,M,M,M,M,M,M,M,M,M,81.95,KLAS 160756Z 21004KT 10SM BKN140 BKN180 29/04 A3001 RMK AO2 SLP135 T02940039 403560117 $,M
EKO,2023-05-16 07:56,-115.7860,40.8242,1367.00,55.00,47.00,74.08,40.00,5.00,0.00,30.25,1020.10,10.00,M,FEW,M,M,M,12000.00,M,M,M,M,M,M,M,M,M,M,55.00,KEKO 160756Z AUTO 04005KT 10SM FEW120 13/08 A3025 RMK AO2 SLP201 T01280083 402390089,M
HND,2023-05-16 07:56,-115.1344,35.9729,742.79,84.00,40.00,20.99,190.00,4.00,0.00,30.05,1016.00,10.00,M,CLR,M,M,M,M,M,M,M,M,M,M,M,M,M,M,81.33,KHND 160756Z AUTO 19004KT 10SM CLR 29/04 A3005 RMK AO2 SLP160 T02890044,M
WMC,2023-05-16 07:56,-117.8072,40.9019,1315.00,58.00,40.00,51.02,30.00,4.00,0.00,30.23,1019.60,10.00,M,BKN,M,M,M,12000.00,M,M,M,M,M,M,M,M,M,M,57.90,KWMC 160756Z AUTO 03004KT 10SM BKN120 14/04 A3023 RMK AO2 SLP196 T01440044 402720067,M
05U,2023-05-16 08:10,-116.0051,39.6042,1811.23,50.00,41.00,71.07,360.00,4.00,0.00,30.31,M,10.00,M,BKN,M,M,M,11000.00,M,M,M,M,M,M,M,M,M,M,50.00,K05U 160810Z AUTO 36004KT 10SM BKN110 10/05 A3031 RMK A01,M
BVU,2023-05-16 08:15,-114.8611,35.9475,671.00,78.80,46.40,31.90,0.00,0.00,0.00,30.01,M,10.00,M,CLR,M,M,M,M,M,M,M,M,M,M,M,M,M,M,78.80,KBVU 160815Z AUTO 00000KT 10SM CLR 26/08 A3001 RMK AO2,M
CXP,2023-05-16 08:15,-119.7326,39.1923,1431.00,50.00,33.80,53.54,0.00,0.00,0.00,30.28,M,10.00,M,CLR,M,M,M,M,M,M,M,M,M,M,M,M,M,M,50.00,KCXP 160815Z AUTO 00000KT 10SM CLR 10/01 A3028 RMK AO2,M
RTS,2023-05-16 08:15,-119.8764,39.6682,1539.00,50.00,33.80,53.54,0.00,0.00,0.00,30.28,M,10.00,M,CLR,M,M,M,M,M,M,M,M,M,M,M,M,M,M,50.00,KRTS 160815Z AUTO 00000KT 10SM CLR 10/01 A3028 RMK AO2,M
MEV,2023-05-16 08:15,-119.7500,38.9963,1441.42,42.80,37.40,81.07,120.00,5.00,0.00,30.26,M,10.00,M,FEW,BKN,M,M,5000.00,6000.00,M,M,M,M,M,M,M,M,M,39.22,KMEV 160815Z AUTO 12005KT 10SM FEW050 BKN060 06/03 A3026 RMK AO2,M
BAM,2023-05-16 08:15,-116.8743,40.5990,1382.36,53.60,42.80,66.70,30.00,4.00,0.00,30.24,M,10.00,M,CLR,M,M,M,M,M,M,M,M,M,M,M,M,M,M,53.60,KBAM 160815Z AUTO 03004KT 10SM CLR 12/06 A3024 RMK AO1,M
HTH,2023-05-16 08:15,-118.6315,38.5448,1282.89,57.20,37.40,47.44,130.00,3.00,0.00,30.23,M,10.00,M,CLR,M,M,M,M,M,M,M,M,M,M,M,M,M,M,57.20,KHTH 160815Z AUTO 13003KT 10SM CLR 14/03 A3023 RMK A01,M
TMT,2023-05-16 08:15,-117.1971,39.4643,1749.34,43.20,36.30,76.44,350.00,3.00,0.00,30.32,M,10.00,M,CLR,M,M,M,M,M,M,M,M,M,M,M,M,M,M,41.49,KTMT 160815Z AUTO 35003KT 10SM CLR 06/02 A3032 RMK AO2 T00620024,M
05U,2023-05-16 08:30,-116.0051,39.6042,1811.23,50.00,41.00,71.07,360.00,4.00,0.00,30.31,M,10.00,M,OVC,M,M,M,10000.00,M,M,M,M,M,M,M,M,M,M,50.00,K05U 160830Z AUTO 36004KT 10SM OVC100 10/05 A3031 RMK A01,M
BVU,2023-05-16 08:35,-114.8611,35.9475,671.00,78.80,44.60,29.79,30.00,4.00,0.00,30.01,M,10.00,M,SCT,M,M,M,12000.00,M,M,M,M,M,M,M,M,M,M,78.80,KBVU 160835Z AUTO 03004KT 10SM SCT120 26/07 A3001 RMK AO2,M
CXP,2023-05-16 08:35,-119.7326,39.1923,1431.00,50.00,33.80,53.54,0.00,0.00,0.00,30.27,M,10.00,M,CLR,M,M,M,M,M,M,M,M,M,M,M,M,M,M,50.00,KCXP 160835Z AUTO 00000KT 10SM CLR 10/01 A3027 RMK AO2,M
RTS,2023-05-16 08:35,-119.8764,39.6682,1539.00,50.00,33.80,53.54,0.00,0.00,0.00,30.28,M,10.00,M,CLR,M,M,M,M,M,M,M,M,M,M,M,M,M,M,50.00,KRTS 160835Z AUTO 00000KT 10SM CLR 10/01 A3028 RMK AO2,M
MEV,2023-05-16 08:35,-119.7500,38.9963,1441.42,42.80,37.40,81.07,130.00,4.00,0.00,30.26,M,10.00,M,FEW,SCT,SCT,M,4300.00,5500.00,6500.00,M,M,M,M,M,M,M,M,40.03,KMEV 160835Z AUTO 13004KT 10SM FEW043 SCT055 SCT065 06/03 A3026 RMK AO2,M
BAM,2023-05-16 08:35,-116.8743,40.5990,1382.36,51.80,41.00,66.48,120.00,3.00,0.00,30.25,M,10.00,M,CLR,M,M,M,M,M,M,M,M,M,M,M,M,M,M,51.80,KBAM 160835Z AUTO 12003KT 10SM CLR 11/05 A3025 RMK AO1,M
HTH,2023-05-16 08:35,-118.6315,38.5448,1282.89,59.00,37.40,44.47,140.00,6.00,0.00,30.23,M,10.00,M,CLR,M,M,M,M,M,M,M,M,M,M,M,M,M,M,59.00,KHTH 160835Z AUTO 14006KT 10SM CLR 15/03 A3023 RMK A01,M
TMT,2023-05-16 08:35,-117.1971,39.4643,1749.34,42.00,36.50,81.00,270.00,5.00,0.00,30.32,M,10.00,M,CLR,M,M,M,M,M,M,M,M,M,M,M,M,M,M,38.15,KTMT 160835Z AUTO 27005KT 10SM CLR 06/03 A3032 RMK AO2 T00550025,M
05U,2023-05-16 08:50,-116.0051,39.6042,1811.23,50.00,41.00,71.07,10.00,4.00,0.00,30.31,M,10.00,M,OVC,M,M,M,10000.00,M,M,M,M,M,M,M,M,M,M,50.00,K05U 160850Z AUTO 01004KT 10SM OVC100 10/05 A3031 RMK A01,M
DRA,2023-05-16 08:53,-116.0278,36.6206,1009.00,66.00,26.10,22.02,M,3.00,0.00,30.08,1014.00,10.00,M,CLR,M,M,M,M,M,M,M,M,M,M,M,M,M,M,66.00,KDRA 160853Z AUTO VRB03KT 10SM CLR 19/M03 A3008 RMK AO2 SLP140 T01891033 55001,M
VGT,2023-05-16 08:53,-115.1933,36.2111,667.00,82.00,37.00,19.99,330.00,6.00,0.00,30.00,1014.90,10.00,M,CLR,M,M,M,M,M,M,M,M,M,M,M,M,M,M,79.86,KVGT 160853Z AUTO 33006KT 10SM CLR 28/03 A3000 RMK AO2 SLP149 T02780028 57003,M
LOL,2023-05-16 08:53,-118.5701,40.0684,1192.43,55.00,30.00,38.21,0.00,0.00,0.00,30.20,1019.60,10.00,M,CLR,M,M,M,M,M,M,M,M,M,M,M,M,M,M,55.00,KLOL 160853Z AUTO 00000KT 10SM CLR 13/M01 A3020 RMK AO2 SLP196 T01281011 51003,M
P68,2023-05-16 08:53,-116.0056,39.6014,1993.00,50.00,40.00,68.10,170.00,4.00,0.00,30.28,1018.60,M,M,M,M,M,M,M,M,M,M,M,M,M,M,M,M,M,50.00,KP68 160853Z AUTO 17004KT 10/04 A3028 RMK AO1 SLP186 T01000044 56005,M
ELY,2023-05-16 08:53,-114.8453,39.2950,1909.00,41.00,35.00,79.34,190.00,5.00,0.00,30.31,1019.80,10.00,M,CLR,M,M,M,M,M,M,M,M,M,M,M,M,M,M,37.08,KELY 160853Z AUTO 19005KT 10SM CLR 05/02 A3031 RMK AO2 SLP198 T00500017 51004,M
BVU,2023-05-16 08:55,-114.8611,35.9475,671.00,77.00,46.40,33.85,50.00,4.00,0.00,30.01,M,10.00,M,FEW,M,M,M,12000.00,M,M,M,M,M,M,M,M,M,M,77.00,KBVU 160855Z AUTO 05004KT 10SM FEW120 25/08 A3001 RMK AO2,M
CXP,2023-05-16 08:55,-119.7326,39.1923,1431.00,48.20,33.80,57.26,0.00,0.00,0.00,30.27,M,10.00,M,CLR,M,M,M,M,M,M,M,M,M,M,M,M,M,M,48.20,KCXP 160855Z AUTO 00000KT 10SM CLR 09/01 A3027 RMK AO2,M
RNO,2023-05-16 08:55,-119.7711,39.4839,1341.00,57.00,32.00,38.54,260.00,4.00,0.00,30.24,1019.40,10.00,M,CLR,M,M,M,M,M,M,M,M,M,M,M,M,M,M,57.00,KRNO 160855Z 26004KT 10SM CLR 14/00 A3024 RMK AO2 SLP194 T01390000 53003,M
RTS,2023-05-16 08:55,-119.8764,39.6682,1539.00,46.40,35.60,65.83,70.00,6.00,0.00,30.28,M,10.00,M,CLR,M,M,M,M,M,M,M,M,M,M,M,M,M,M,42.87,KRTS 160855Z AUTO 07006KT 10SM CLR 08/02 A3028 RMK AO2,M
MEV,2023-05-16 08:55,-119.7500,38.9963,1441.42,39.20,35.60,86.79,110.00,6.00,0.00,30.26,M,10.00,M,FEW,BKN,BKN,M,4800.00,6000.00,6500.00,M,M,M,M,M,M,M,M,34.20,KMEV 160855Z AUTO 11006KT 10SM FEW048 BKN060 BKN065 04/02 A3026 RMK AO2,M
BAM,2023-05-16 08:55,-116.8743,40.5990,1382.36,50.00,39.20,66.27,170.00,3.00,0.00,30.25,M,10.00,M,CLR,M,M,M,M,M,M,M,M,M,M,M,M,M,M,50.00,KBAM 160855Z AUTO 17003KT 10SM CLR 10/04 A3025 RMK AO1,M
HTH,2023-05-16 08:55,-118.6315,38.5448,1282.89,59.00,35.60,41.42,0.00,0.00,0.00,30.23,M,10.00,M,CLR,M,M,M,M,M,M,M,M,M,M,M,M,M,M,59.00,KHTH 160855Z AUTO 00000KT 10SM CLR 15/02 A3023 RMK A01,M
TMT,2023-05-16 08:55,-117.1971,39.4643,1749.34,42.40,35.60,76.67,0.00,0.00,0.00,30.32,M,10.00,M,CLR,M,M,M,M,M,M,M,M,M,M,M,M,M,M,42.40,KTMT 160855Z AUTO 00000KT 10SM CLR 06/02 A3032 RMK AO2 T00580020,M
INS,2023-05-16 08:55,-115.6733,36.5872,955.00,66.20,23.90,19.96,0.00,0.00,0.00,30.08,1014.20,10.00,M,OVC,M,M,M,13000.00,M,M,M,M,M,M,M,M,M,M,66.20,KINS 160855Z AUTO 00000KT 10SM OVC130 19/M04 A3008 RMK AO2 SLP142 T01901045 55000 $,M
LSV,2023-05-16 08:55,-115.0343,36.2362,570.00,82.40,39.70,21.93,350.00,3.00,0.00,29.96,1011.90,10.00,M,OVC,M,M,M,13000.00,M,M,M,M,M,M,M,M,M,M,80.23,KLSV 160855Z AUTO 35003KT 10SM OVC130 28/04 A2996 RMK AO2 SLP119 T02800043 56003 $,M
HND,2023-05-16 08:56,-115.1344,35.9729,742.79,80.00,41.00,24.86,190.00,4.00,0.00,30.04,1016.00,10.00,M,CLR,M,M,M,M,M,M,M,M,M,M,M,M,M,M,78.98,KHND 160856Z AUTO 19004KT 10SM CLR 27/05 A3004 RMK AO2 SLP160 T02670050 58003,M
TPH,2023-05-16 08:56,-117.0904,38.0505,1654.00,M,M,M,M,M,0.00,30.24,M,M,M,M,M,M,M,M,M,M,M,M,M,M,M,M,M,M,M,KTPH 160856Z AUTO A3024 RMK AO2 SLPNO 58003 PWINO $,M
NFL,2023-05-16 08:56,-118.7010,39.4166,1199.00,55.00,36.00,48.62,220.00,3.00,0.00,30.20,1019.00,10.00,M,CLR,M,M,M,M,M,M,M,M,M,M,M,M,M,M,55.00,KNFL 160856Z AUTO 22003KT 10SM CLR 13/02 A3020 RMK AO2 SLP190 T01280022 50000,M
EKO,2023-05-16 08:56,-115.7860,40.8242,1367.00,51.00,46.00,82.62,0.00,0.00,0.00,30.26,1021.60,10.00,M,CLR,M,M,M,M,M,M,M,M,M,M,M,M,M,M,51.10,KEKO 160856Z AUTO 00000KT 10SM CLR 11/08 A3026 RMK AO2 SLP216 T01060078 55001,M
LAS,2023-05-16 08:56,-115.1634,36.0719,663.00,83.00,41.00,22.70,0.00,0.00,0.00,30.01,1013.50,10.00,M,BKN,BKN,M,M,14000.00,18000.00,M,M,M,M,M,M,M,M,M,80.62,KLAS 160856Z 00000KT 10SM BKN140 BKN180 28/05 A3001 RMK AO2 SLP135 T02830050 58001 $,M
WMC,2023-05-16 08:56,-117.8072,40.9019,1315.00,60.00,40.00,47.15,50.00,5.00,0.00,30.22,1019.30,10.00,M,CLR,M,M,M,M,M,M,M,M,M,M,M,M,M,M,60.10,KWMC 160856Z AUTO 05005KT 10SM CLR 16/04 A3022 RMK AO2 SLP193 T01560044 50004,M
05U,2023-05-16 09:10,-116.0051,39.6042,1811.23,48.20,39.20,70.88,M,M,0.00,30.31,M,10.00,M,BKN,M,M,M,10000.00,M,M,M,M,M,M,M,M,M,M,M,K05U 160910Z AUTO 10SM BKN100 09/04 A3031 RMK A01,M
BVU,2023-05-16 09:15,-114.8611,35.9475,671.00,78.80,46.40,31.90,0.00,0.00,0.00,30.01,M,10.00,M,CLR,M,M,M,M,M,M,M,M,M,M,M,M,M,M,78.80,KBVU 160915Z AUTO 00000KT 10SM CLR 26/08 A3001 RMK AO2,M
CXP,2023-05-16 09:15,-119.7326,39.1923,1431.00,48.20,33.80,57.26,0.00,0.00,0.00,30.28,M,10.00,M,CLR,M,M,M,M,M,M,M,M,M,M,M,M,M,M,48.20,KCXP 160915Z AUTO 00000KT 10SM CLR 09/01 A3028 RMK AO2,M
RTS,2023-05-16 09:15,-119.8764,39.6682,1539.00,44.60,35.60,70.48,320.00,5.00,0.00,30.28,M,10.00,M,CLR,M,M,M,M,M,M,M,M,M,M,M,M,M,M,41.36,KRTS 160915Z AUTO 32005KT 10SM CLR 07/02 A3028 RMK AO2,M
MEV,2023-05-16 09:15,-119.7500,38.9963,1441.42,41.00,35.60,80.93,110.00,5.00,0.00,30.26,M,10.00,M,FEW,SCT,BKN,M,4700.00,6000.00,7000.00,M,M,M,M,M,M,M,M,37.08,KMEV 160915Z AUTO 11005KT 10SM FEW047 SCT060 BKN070 05/02 A3026 RMK AO2,M
BAM,2023-05-16 09:15,-116.8743,40.5990,1382.36,48.20,37.40,66.05,130.00,4.00,0.00,30.24,M,10.00,M,CLR,M,M,M,M,M,M,M,M,M,M,M,M,M,M,46.34,KBAM 160915Z AUTO 13004KT 10SM CLR 09/03 A3024 RMK AO1,M
HTH,2023-05-16 09:15,-118.6315,38.5448,1282.89,60.80,35.60,38.85,0.00,0.00,0.00,30.23,M,10.00,M,CLR,M,M,M,M,M,M,M,M,M,M,M,M,M,M,60.80,KHTH 160915Z AUTO 00000KT 10SM CLR 16/02 A3023 RMK A01,M
TMT,2023-05-16 09:15,-117.1971,39.4643,1749.34,43.00,35.80,75.52,0.00,0.00,0.00,30.32,M,10.00,M,CLR,M,M,M,M,M,M,M,M,M,M,M,M,M,M,43.00,KTMT 160915Z AUTO 00000KT 10SM CLR 06/02 A3032 RMK AO2 T00610021,M
05U,2023-05-16 09:30,-116.0051,39.6042,1811.23,46.40,39.20,75.84,360.00,5.00,0.00,30.31,M,10.00,M,FEW,M,M,M,10000.00,M,M,M,M,M,M,M,M,M,M,43.50,K05U 160930Z AUTO 36005KT 10SM FEW100 08/04 A3031 RMK A01,M
BVU,2023-05-16 09:35,-114.8611,35.9475,671.00,77.00,46.40,33.85,70.00,3.00,0.00,30.01,M,10.00,M,FEW,M,M,M,12000.00,M,M,M,M,M,M,M,M,M,M,77.00,KBVU 160935Z AUTO 07003KT 10SM FEW120 25/08 A3001 RMK AO2,M
CXP,2023-05-16 09:35,-119.7326,39.1923,1431.00,46.40,33.80,61.28,0.00,0.00,0.00,30.28,M,10.00,M,CLR,M,M,M,M,M,M,M,M,M,M,M,M,M,M,46.40,KCXP 160935Z AUTO 00000KT 10SM CLR 08/01 A3028 RMK AO2,M
RTS,2023-05-16 09:35,-119.8764,39.6682,1539.00,44.60,35.60,70.48,340.00,5.00,0.00,30.28,M,10.00,M,CLR,M,M,M,M,M,M,M,M,M,M,M,M,M,M,41.36,KRTS 160935Z AUTO 34005KT 10SM CLR 07/02 A3028 RMK AO2,M
MEV,2023-05-16 09:35,-119.7500,38.9963,1441.42,42.80,35.60,75.50,0.00,0.00,0.00,30.26,M,10.00,M,FEW,SCT,BKN,M,3500.00,4900.00,6500.00,M,M,M,M,M,M,M,M,42.80,KMEV 160935Z AUTO 00000KT 10SM FEW035 SCT049 BKN065 06/02 A3026 RMK AO2,M
BAM,2023-05-16 09:35,-116.8743,40.5990,1382.36,46.40,37.40,70.68,150.00,6.00,0.00,30.24,M,10.00,M,CLR,M,M,M,M,M,M,M,M,M,M,M,M,M,M,42.87,KBAM 160935Z AUTO 15006KT 10SM CLR 08/03 A3024 RMK AO1,M
HTH,2023-05-16 09:35,-118.6315,38.5448,1282.89,57.20,37.40,47.44,0.00,0.00,0.00,30.23,M,10.00,M,CLR,M,M,M,M,M,M,M,M,M,M,M,M,M,M,57.20,KHTH 160935Z AUTO 00000KT 10SM CLR 14/03 A3023 RMK A01,M
TMT,2023-05-16 09:35,-117.1971,39.4643,1749.34,36.70,32.40,84.25,0.00,0.00,0.00,30.32,M,10.00,M,CLR,M,M,M,M,M,M,M,M,M,M,M,M,M,M,36.70,KTMT 160935Z AUTO 00000KT 10SM CLR 03/00 A3032 RMK AO2 T00260002,M
05U,2023-05-16 09:50,-116.0051,39.6042,1811.23,46.40,39.20,75.84,360.00,6.00,0.00,30.31,M,10.00,M,CLR,M,M,M,M,M,M,M,M,M,M,M,M,M,M,42.87,K05U 160950Z AUTO 36006KT 10SM CLR 08/04 A3031 RMK A01,M
CXP,2023-05-16 09:50,-119.7326,39.1923,1431.00,46.40,33.80,61.28,0.00,0.00,0.00,30.27,M,10.00,M,CLR,M,M,M,M,M,M,M,M,M,M,M,M,M,M,46.40,KCXP 160950Z AUTO 00000KT 10SM CLR 08/01 A3027 RMK AO2,M
DRA,2023-05-16 09:53,-116.0278,36.6206,1009.00,67.00,26.10,21.35,140.00,4.00,0.00,30.08,1013.90,10.00,M,CLR,M,M,M,M,M,M,M,M,M,M,M,M,M,M,66.90,KDRA 160953Z AUTO 14004KT 10SM CLR 19/M03 A3008 RMK AO2 SLP139 T01941033,M
ELY,2023-05-16 09:53,-114.8453,39.2950,1909.00,41.00,36.00,82.22,180.00,7.00,0.00,30.31,1019.80,10.00,M,BKN,M,M,M,12000.00,M,M,M,M,M,M,M,M,M,M,35.75,KELY 160953Z AUTO 18007KT 10SM BKN120 05/02 A3031 RMK AO2 SLP198 T00500022,M
VGT,2023-05-16 09:53,-115.1933,36.2111,667.00,81.00,37.00,20.65,320.00,6.00,0.00,30.00,1014.80,10.00,M,CLR,M,M,M,M,M,M,M,M,M,M,M,M,M,M,79.24,KVGT 160953Z AUTO 32006KT 10SM CLR 27/03 A3000 RMK AO2 SLP148 T02720028,M
LOL,2023-05-16 09:53,-118.5701,40.0684,1192.43,47.00,32.00,55.94,160.00,5.00,0.00,30.20,1020.30,10.00,M,CLR,M,M,M,M,M,M,M,M,M,M,M,M,M,M,44.09,KLOL 160953Z AUTO 16005KT 10SM CLR 08/00 A3020 RMK AO2 SLP203 T00830000,M
P68,2023-05-16 09:53,-116.0056,39.6014,1993.00,48.00,38.00,67.87,180.00,7.00,0.00,30.28,1018.50,M,M,M,M,M,M,M,M,M,M,M,M,M,M,M,M,M,44.28,KP68 160953Z AUTO 18007KT 09/03 A3028 RMK AO1 SLP185 T00890033,M
BVU,2023-05-16 09:55,-114.8611,35.9475,671.00,78.80,46.40,31.90,90.00,4.00,0.00,30.01,M,10.00,M,SCT,M,M,M,12000.00,M,M,M,M,M,M,M,M,M,M,78.80,KBVU 160955Z AUTO 09004KT 10SM SCT120 26/08 A3001 RMK AO2,M
RNO,2023-05-16 09:55,-119.7711,39.4839,1341.00,55.00,30.90,39.63,0.00,0.00,0.00,30.24,1019.60,10.00,M,CLR,M,M,M,M,M,M,M,M,M,M,M,M,M,M,55.00,KRNO 160955Z 00000KT 10SM CLR 13/M01 A3024 RMK AO2 SLP196 T01281006,M
RTS,2023-05-16 09:55,-119.8764,39.6682,1539.00,44.60,35.60,70.48,330.00,4.00,0.00,30.27,M,10.00,M,CLR,M,M,M,M,M,M,M,M,M,M,M,M,M,M,42.13,KRTS 160955Z AUTO 33004KT 10SM CLR 07/02 A3027 RMK AO2,M
MEV,2023-05-16 09:55,-119.7500,38.9963,1441.42,42.80,35.60,75.50,0.00,0.00,0.00,30.26,M,10.00,M,FEW,BKN,BKN,M,4300.00,5000.00,6000.00,M,M,M,M,M,M,M,M,42.80,KMEV 160955Z AUTO 00000KT 10SM FEW043 BKN050 BKN060 06/02 A3026 RMK AO2,M
BAM,2023-05-16 09:55,-116.8743,40.5990,1382.36,46.40,37.40,70.68,180.00,4.00,0.00,30.25,M,10.00,M,CLR,M,M,M,M,M,M,M,M,M,M,M,M,M,M,44.24,KBAM 160955Z AUTO 18004KT 10SM CLR 08/03 A3025 RMK AO1,M
HTH,2023-05-16 09:55,-118.6315,38.5448,1282.89,59.00,39.20,47.72,0.00,0.00,0.00,30.23,M,10.00,M,CLR,M,M,M,M,M,M,M,M,M,M,M,M,M,M,59.00,KHTH 160955Z AUTO 00000KT 10SM CLR 15/04 A3023 RMK A01,M
INS,2023-05-16 09:55,-115.6733,36.5872,955.00,63.30,23.70,21.90,290.00,3.00,0.00,30.08,1014.40,10.00,M,SCT,M,M,M,14000.00,M,M,M,M,M,M,M,M,M,M,63.30,KINS 160955Z AUTO 29003KT 10SM SCT140 17/M05 A3008 RMK AO2 SLP144 T01741046 $,M
TMT,2023-05-16 09:55,-117.1971,39.4643,1749.34,37.40,33.00,83.62,160.00,3.00,0.00,30.32,M,10.00,M,CLR,M,M,M,M,M,M,M,M,M,M,M,M,M,M,34.86,KTMT 160955Z AUTO 16003KT 10SM CLR 03/01 A3032 RMK AO2 T00300005,M
LSV,2023-05-16 09:55,-115.0343,36.2362,570.00,80.00,40.00,23.98,0.00,0.00,0.00,29.96,1011.90,10.00,M,BKN,M,M,M,16000.00,M,M,M,M,M,M,M,M,M,M,79.90,KLSV 160955Z AUTO 00000KT 10SM BKN160 27/04 A2996 RMK AO2 SLP119 T02660044 $,M
WMC,2023-05-16 09:56,-117.8072,40.9019,1315.00,49.00,39.00,68.51,0.00,0.00,0.00,30.22,1020.00,10.00,M,CLR,M,M,M,M,M,M,M,M,M,M,M,M,M,M,48.90,KWMC 160956Z AUTO 00000KT 10SM CLR 09/04 A3022 RMK AO2 SLP200 T00940039,M
HND,2023-05-16 09:56,-115.1344,35.9729,742.79,80.00,39.00,23.00,230.00,4.00,0.00,30.05,1016.00,10.00,M,CLR,M,M,M,M,M,M,M,M,M,M,M,M,M,M,78.89,KHND 160956Z AUTO 23004KT 10SM CLR 27/04 A3005 RMK AO2 SLP160 T02670039,M
TPH,2023-05-16 09:56,-117.0904,38.0505,1654.00,M,M,M,M,M,0.00,30.25,M,M,M,M,M,M,M,M,M,M,M,M,M,M,M,M,M,M,M,KTPH 160956Z AUTO A3025 RMK AO2 SLPNO PWINO $,M
NFL,2023-05-16 09:56,-118.7010,39.4166,1199.00,57.00,36.00,45.22,160.00,3.00,0.00,30.20,1018.90,10.00,M,CLR,M,M,M,M,M,M,M,M,M,M,M,M,M,M,57.00,KNFL 160956Z AUTO 16003KT 10SM CLR 14/02 A3020 RMK AO2 SLP189 T01390022,M
EKO,2023-05-16 09:56,-115.7860,40.8242,1367.00,48.00,44.00,86.28,0.00,0.00,0.00,30.26,1021.80,10.00,M,CLR,M,M,M,M,M,M,M,M,M,M,M,M,M,M,48.00,KEKO 160956Z AUTO 00000KT 10SM CLR 09/07 A3026 RMK AO2 SLP218 T00890067,M
LAS,2023-05-16 09:56,-115.1634,36.0719,663.00,82.00,40.00,22.39,300.00,4.00,0.00,30.00,1013.20,10.00,M,OVC,M,M,M,13000.00,M,M,M,M,M,M,M,M,M,M,79.98,KLAS 160956Z 30004KT 10SM OVC130 28/04 A3000 RMK AO2 SLP132 T02780044 $,M
05U,2023-05-16 10:10,-116.0051,39.6042,1811.23,44.60,37.40,75.68,0.00,0.00,0.00,30.31,M,10.00,M,CLR,M,M,M,M,M,M,M,M,M,M,M,M,M,M,44.60,K05U 161010Z AUTO 00000KT 10SM CLR 07/03 A3031 RMK A01,M
BVU,2023-05-16 10:15,-114.8611,35.9475,671.00,80.60,41.00,24.46,0.00,0.00,0.00,30.00,M,10.00,M,BKN,M,M,M,11000.00,M,M,M,M,M,M,M,M,M,M,79.20,KBVU 161015Z AUTO 00000KT 10SM BKN110 27/05 A3000 RMK AO2,M
CXP,2023-05-16 10:15,-119.7326,39.1923,1431.00,46.40,33.80,61.28,0.00,0.00,0.00,30.26,M,10.00,M,CLR,M,M,M,M,M,M,M,M,M,M,M,M,M,M,46.40,KCXP 161015Z AUTO 00000KT 10SM CLR 08/01 A3026 RMK AO2,M
RTS,2023-05-16 10:15,-119.8764,39.6682,1539.00,41.00,33.80,75.33,350.00,8.00,0.00,30.27,M,10.00,M,CLR,M,M,M,M,M,M,M,M,M,M,M,M,M,M,35.20,KRTS 161015Z AUTO 35008KT 10SM CLR 05/01 A3027 RMK AO2,M
MEV,2023-05-16 10:15,-119.7500,38.9963,1441.42,39.20,35.60,86.79,100.00,6.00,0.00,30.26,M,10.00,M,SCT,OVC,M,M,4800.00,6000.00,M,M,M,M,M,M,M,M,M,34.20,KMEV 161015Z AUTO 10006KT 10SM SCT048 OVC060 04/02 A3026 RMK AO2,M
BAM,2023-05-16 10:15,-116.8743,40.5990,1382.36,48.20,35.60,61.52,230.00,4.00,0.00,30.25,M,10.00,M,CLR,M,M,M,M,M,M,M,M,M,M,M,M,M,M,46.34,KBAM 161015Z AUTO 23004KT 10SM CLR 09/02 A3025 RMK AO1,M
HTH,2023-05-16 10:15,-118.6315,38.5448,1282.89,57.20,39.20,50.91,190.00,3.00,0.00,30.23,M,10.00,M,CLR,M,M,M,M,M,M,M,M,M,M,M,M,M,M,57.20,KHTH 161015Z AUTO 19003KT 10SM CLR 14/04 A3023 RMK A01,M
TMT,2023-05-16 10:15,-117.1971,39.4643,1749.34,37.80,33.00,82.98,0.00,0.00,0.00,30.32,M,10.00,M,SCT,M,M,M,11000.00,M,M,M,M,M,M,M,M,M,M,37.80,KTMT 161015Z AUTO 00000KT 10SM SCT110 03/01 A3032 RMK AO2 T00320006,M
05U,2023-05-16 10:30,-116.0051,39.6042,1811.23,42.80,37.40,81.07,360.00,5.00,0.00,30.31,M,10.00,M,CLR,M,M,M,M,M,M,M,M,M,M,M,M,M,M,39.22,K05U 161030Z AUTO 36005KT 10SM CLR 06/03 A3031 RMK A01,M
BVU,2023-05-16 10:35,-114.8611,35.9475,671.00,80.60,41.00,24.46,0.00,0.00,0.00,30.01,M,10.00,M,SCT,SCT,OVC,M,7500.00,9000.00,11000.00,M,M,M,M,M,M,M,M,79.20,KBVU 161035Z AUTO 00000KT 10SM SCT075 SCT090 OVC110 27/05 A3001 RMK AO2,M
CXP,2023-05-16 10:35,-119.7326,39.1923,1431.00,44.60,35.60,70.48,0.00,0.00,0.00,30.27,M,10.00,M,CLR,M,M,M,M,M,M,M,M,M,M,M,M,M,M,44.60,KCXP 161035Z AUTO 00000KT 10SM CLR 07/02 A3027 RMK AO2,M
RTS,2023-05-16 10:35,-119.8764,39.6682,1539.00,41.00,33.80,75.33,10.00,4.00,0.00,30.27,M,10.00,M,CLR,M,M,M,M,M,M,M,M,M,M,M,M,M,M,37.93,KRTS 161035Z AUTO 01004KT 10SM CLR 05/01 A3027 RMK AO2,M
MEV,2023-05-16 10:35,-119.7500,38.9963,1441.42,39.20,33.80,80.79,130.00,6.00,0.00,30.26,M,10.00,M,BKN,BKN,M,M,4900.00,6000.00,M,M,M,M,M,M,M,M,M,34.20,KMEV 161035Z AUTO 13006KT 10SM BKN049 BKN060 04/01 A3026 RMK AO2,M
BAM,2023-05-16 10:35,-116.8743,40.5990,1382.36,46.40,35.60,65.83,240.00,4.00,0.00,30.25,M,10.00,M,CLR,M,M,M,M,M,M,M,M,M,M,M,M,M,M,44.24,KBAM 161035Z AUTO 24004KT 10SM CLR 08/02 A3025 RMK AO1,M
HTH,2023-05-16 10:35,-118.6315,38.5448,1282.89,57.20,37.40,47.44,180.00,4.00,0.00,30.23,M,10.00,M,CLR,M,M,M,M,M,M,M,M,M,M,M,M,M,M,57.20,KHTH 161035Z AUTO 18004KT 10SM CLR 14/03 A3023 RMK A01,M
TMT,2023-05-16 10:35,-117.1971,39.4643,1749.34,38.30,34.00,84.36,0.00,0.00,0.00,30.32,M,10.00,M,BKN,M,M,M,11000.00,M,M,M,M,M,M,M,M,M,M,38.30,KTMT 161035Z AUTO 00000KT 10SM BKN110 04/01 A3032 RMK AO2 T00350011,M
05U,2023-05-16 10:50,-116.0051,39.6042,1811.23,44.60,37.40,75.68,360.00,6.00,0.00,30.31,M,10.00,M,CLR,M,M,M,M,M,M,M,M,M,M,M,M,M,M,40.71,K05U 161050Z AUTO 36006KT 10SM CLR 07/03 A3031 RMK A01,M
P68,2023-05-16 10:53,-116.0056,39.6014,1993.00,45.00,37.00,73.37,200.00,8.00,0.00,30.28,1019.10,M,M,M,M,M,M,M,M,M,M,M,M,M,M,M,M,M,40.13,KP68 161053Z AUTO 20008KT 07/03 A3028 RMK AO1 SLP191 T00720028,M
DRA,2023-05-16 10:53,-116.0278,36.6206,1009.00,63.00,26.10,24.46,0.00,0.00,0.00,30.08,1014.20,10.00,M,CLR,M,M,M,M,M,M,M,M,M,M,M,M,M,M,63.00,KDRA 161053Z AUTO 00000KT 10SM CLR 17/M03 A3008 RMK AO2 SLP142 T01721033,M
VGT,2023-05-16 10:53,-115.1933,36.2111,667.00,80.00,39.00,23.00,10.00,5.00,0.00,30.00,1015.00,10.00,M,CLR,M,M,M,M,M,M,M,M,M,M,M,M,M,M,78.89,KVGT 161053Z AUTO 01005KT 10SM CLR 27/04 A3000 RMK AO2 SLP150 T02670039,M
LOL,2023-05-16 10:53,-118.5701,40.0684,1192.43,50.00,32.00,49.81,0.00,0.00,0.00,30.20,1020.00,10.00,M,CLR,M,M,M,M,M,M,M,M,M,M,M,M,M,M,50.00,KLOL 161053Z AUTO 00000KT 10SM CLR 10/00 A3020 RMK AO2 SLP200 T01000000,M
ELY,2023-05-16 10:53,-114.8453,39.2950,1909.00,39.00,35.00,85.76,200.00,7.00,0.00,30.32,1020.20,10.00,M,CLR,M,M,M,M,M,M,M,M,M,M,M,M,M,M,33.31,KELY 161053Z AUTO 20007KT 10SM CLR 04/02 A3032 RMK AO2 SLP202 T00390017,M
BVU,2023-05-16 10:55,-114.8611,35.9475,671.00,80.60,42.80,26.22,0.00,0.00,0.00,30.01,M,10.00,M,FEW,FEW,BKN,M,7500.00,9000.00,11000.00,M,M,M,M,M,M,M,M,79.30,KBVU 161055Z AUTO 00000KT 10SM FEW075 FEW090 BKN110 27/06 A3001 RMK AO2,M
CXP,2023-05-16 10:55,-119.7326,39.1923,1431.00,46.40,35.60,65.83,0.00,0.00,0.00,30.27,M,10.00,M,CLR,M,M,M,M,M,M,M,M,M,M,M,M,M,M,46.40,KCXP 161055Z AUTO 00000KT 10SM CLR 08/02 A3027 RMK AO2,M
RNO,2023-05-16 10:55,-119.7711,39.4839,1341.00,52.00,30.90,44.24,0.00,0.00,0.00,30.25,1019.90,10.00,M,CLR,M,M,M,M,M,M,M,M,M,M,M,M,M,M,52.00,KRNO 161055Z 00000KT 10SM CLR 11/M01 A3025 RMK AO2 SLP199 T01111006,M
RTS,2023-05-16 10:55,-119.8764,39.6682,1539.00,42.80,33.80,70.28,340.00,4.00,0.00,30.27,M,10.00,M,CLR,M,M,M,M,M,M,M,M,M,M,M,M,M,M,40.03,KRTS 161055Z AUTO 34004KT 10SM CLR 06/01 A3027 RMK AO2,M
MEV,2023-05-16 10:55,-119.7500,38.9963,1441.42,37.40,33.80,86.69,0.00,0.00,0.00,30.26,M,10.00,M,SCT,BKN,M,M,4900.00,5500.00,M,M,M,M,M,M,M,M,M,37.40,KMEV 161055Z AUTO 00000KT 10SM SCT049 BKN055 03/01 A3026 RMK AO2,M
BAM,2023-05-16 10:55,-116.8743,40.5990,1382.36,46.40,37.40,70.68,250.00,4.00,0.00,30.24,M,10.00,M,CLR,M,M,M,M,M,M,M,M,M,M,M,M,M,M,44.24,KBAM 161055Z AUTO 25004KT 10SM CLR 08/03 A3024 RMK AO1,M
HTH,2023-05-16 10:55,-118.6315,38.5448,1282.89,57.20,37.40,47.44,0.00,0.00,0.00,30.23,M,10.00,M,CLR,M,M,M,M,M,M,M,M,M,M,M,M,M,M,57.20,KHTH 161055Z AUTO 00000KT 10SM CLR 14/03 A3023 RMK A01,M
TMT,2023-05-16 10:55,-117.1971,39.4643,1749.34,38.80,34.70,85.06,0.00,0.00,0.00,30.32,M,10.00,M,BKN,M,M,M,11000.00,M,M,M,M,M,M,M,M,M,M,38.80,KTMT 161055Z AUTO 00000KT 10SM BKN110 04/02 A3032 RMK AO2 T00380015,M
INS,2023-05-16 10:55,-115.6733,36.5872,955.00,62.20,23.90,22.95,0.00,0.00,0.00,30.08,1014.40,10.00,M,OVC,M,M,M,14000.00,M,M,M,M,M,M,M,M,M,M,62.20,KINS 161055Z AUTO 00000KT 10SM OVC140 17/M04 A3008 RMK AO2 SLP144 T01681045 $,M
LSV,2023-05-16 10:55,-115.0343,36.2362,570.00,78.00,39.20,24.92,10.00,5.00,0.00,29.97,1012.30,10.00,M,BKN,M,M,M,16000.00,M,M,M,M,M,M,M,M,M,M,77.90,KLSV 161055Z AUTO 01005KT 10SM BKN160 26/04 A2997 RMK AO2 SLP123 T02550040 $,M
EKO,2023-05-16 10:56,-115.7860,40.8242,1367.00,46.00,43.00,89.20,0.00,0.00,0.00,30.26,1021.80,10.00,M,CLR,M,M,M,M,M,M,M,M,M,M,M,M,M,M,46.00,KEKO 161056Z AUTO 00000KT 10SM CLR 08/06 A3026 RMK AO2 SLP218 T00780061,M
WMC,2023-05-16 10:56,-117.8072,40.9019,1315.00,46.00,37.00,70.64,170.00,4.00,0.00,30.22,1020.00,10.00,M,CLR,M,M,M,M,M,M,M,M,M,M,M,M,M,M,43.77,KWMC 161056Z AUTO 17004KT 10SM CLR 08/03 A3022 RMK AO2 SLP200 T00780028,M
HND,2023-05-16 10:56,-115.1344,35.9729,742.79,78.00,39.00,24.56,140.00,4.00,0.00,30.05,1016.10,10.00,M,CLR,M,M,M,M,M,M,M,M,M,M,M,M,M,M,78.10,KHND 161056Z AUTO 14004KT 10SM CLR 26/04 A3005 RMK AO2 SLP161 T02560039,M
TPH,2023-05-16 10:56,-117.0904,38.0505,1654.00,M,M,M,M,M,0.00,30.25,M,M,M,M,M,M,M,M,M,M,M,M,M,M,M,M,M,M,M,KTPH 161056Z AUTO A3025 RMK AO2 SLPNO PWINO $,M
LAS,2023-05-16 10:56,-115.1634,36.0719,663.00,80.00,39.00,23.00,M,5.00,0.00,30.01,1013.50,10.00,M,SCT,BKN,M,M,14000.00,25000.00,M,M,M,M,M,M,M,M,M,78.89,KLAS 161056Z VRB05KT 10SM SCT140 BKN250 27/04 A3001 RMK AO2 SLP135 T02670039 $,M
NFL,2023-05-16 10:56,-118.7010,39.4166,1199.00,55.00,38.00,52.40,170.00,4.00,0.00,30.20,1019.00,10.00,M,CLR,M,M,M,M,M,M,M,M,M,M,M,M,M,M,55.00,KNFL 161056Z AUTO 17004KT 10SM CLR 13/03 A3020 RMK AO2 SLP190 T01280033,M
05U,2023-05-16 11:10,-116.0051,39.6042,1811.23,44.60,37.40,75.68,360.00,8.00,0.00,30.31,M,10.00,M,CLR,M,M,M,M,M,M,M,M,M,M,M,M,M,M,39.63,K05U 161110Z AUTO 36008KT 10SM CLR 07/03 A3031 RMK A01,M
BVU,2023-05-16 11:15,-114.8611,35.9475,671.00,77.00,44.60,31.62,10.00,6.00,0.00,30.01,M,10.00,M,BKN,M,M,M,11000.00,M,M,M,M,M,M,M,M,M,M,77.00,KBVU 161115Z AUTO 01006KT 10SM BKN110 25/07 A3001 RMK AO2,M
CXP,2023-05-16 11:15,-119.7326,39.1923,1431.00,46.40,33.80,61.28,290.00,4.00,0.00,30.27,M,10.00,M,CLR,M,M,M,M,M,M,M,M,M,M,M,M,M,M,44.24,KCXP 161115Z AUTO 29004KT 10SM CLR 08/01 A3027 RMK AO2,M
RTS,2023-05-16 11:15,-119.8764,39.6682,1539.00,41.00,35.60,80.93,360.00,6.00,0.00,30.27,M,10.00,M,CLR,M,M,M,M,M,M,M,M,M,M,M,M,M,M,36.37,KRTS 161115Z AUTO 36006KT 10SM CLR 05/02 A3027 RMK AO2,M
MEV,2023-05-16 11:15,-119.7500,38.9963,1441.42,39.20,35.60,86.79,0.00,0.00,0.00,30.26,M,10.00,M,SCT,SCT,M,M,4900.00,6000.00,M,M,M,M,M,M,M,M,M,39.20,KMEV 161115Z AUTO 00000KT 10SM SCT049 SCT060 04/02 A3026 RMK AO2,M
BAM,2023-05-16 11:15,-116.8743,40.5990,1382.36,46.40,37.40,70.68,140.00,4.00,0.00,30.25,M,10.00,M,CLR,M,M,M,M,M,M,M,M,M,M,M,M,M,M,44.24,KBAM 161115Z AUTO 14004KT 10SM CLR 08/03 A3025 RMK AO1,M
HTH,2023-05-16 11:15,-118.6315,38.5448,1282.89,57.20,37.40,47.44,0.00,0.00,0.00,30.23,M,10.00,M,CLR,M,M,M,M,M,M,M,M,M,M,M,M,M,M,57.20,KHTH 161115Z AUTO 00000KT 10SM CLR 14/03 A3023 RMK A01,M
TMT,2023-05-16 11:15,-117.1971,39.4643,1749.34,38.30,33.40,82.36,220.00,3.00,0.00,30.32,M,10.00,M,OVC,M,M,M,11000.00,M,M,M,M,M,M,M,M,M,M,35.89,KTMT 161115Z AUTO 22003KT 10SM OVC110 04/01 A3032 RMK AO2 T00350008,M
05U,2023-05-16 11:30,-116.0051,39.6042,1811.23,46.40,37.40,70.68,360.00,8.00,0.00,30.31,M,10.00,M,CLR,M,M,M,M,M,M,M,M,M,M,M,M,M,M,41.85,K05U 161130Z AUTO 36008KT 10SM CLR 08/03 A3031 RMK A01,M
BVU,2023-05-16 11:35,-114.8611,35.9475,671.00,78.80,42.80,27.81,50.00,5.00,0.00,30.02,M,10.00,M,BKN,M,M,M,11000.00,M,M,M,M,M,M,M,M,M,M,78.80,KBVU 161135Z AUTO 05005KT 10SM BKN110 26/06 A3002 RMK AO2,M
CXP,2023-05-16 11:35,-119.7326,39.1923,1431.00,48.20,33.80,57.26,300.00,4.00,0.00,30.27,M,10.00,M,CLR,M,M,M,M,M,M,M,M,M,M,M,M,M,M,46.34,KCXP 161135Z AUTO 30004KT 10SM CLR 09/01 A3027 RMK AO2,M
RTS,2023-05-16 11:35,-119.8764,39.6682,1539.00,41.00,33.80,75.33,360.00,5.00,0.00,30.26,M,10.00,M,CLR,M,M,M,M,M,M,M,M,M,M,M,M,M,M,37.08,KRTS 161135Z AUTO 36005KT 10SM CLR 05/01 A3026 RMK AO2,M
MEV,2023-05-16 11:35,-119.7500,38.9963,1441.42,37.40,33.80,86.69,0.00,0.00,0.00,30.26,M,10.00,M,SCT,BKN,BKN,M,4800.00,6000.00,8000.00,M,M,M,M,M,M,M,M,37.40,KMEV 161135Z AUTO 00000KT 10SM SCT048 BKN060 BKN080 03/01 A3026 RMK AO2,M
BAM,2023-05-16 11:35,-116.8743,40.5990,1382.36,42.80,35.60,75.50,160.00,4.00,0.00,30.24,M,10.00,M,CLR,M,M,M,M,M,M,M,M,M,M,M,M,M,M,40.03,KBAM 161135Z AUTO 16004KT 10SM CLR 06/02 A3024 RMK AO1,M
HTH,2023-05-16 11:35,-118.6315,38.5448,1282.89,55.40,39.20,54.34,0.00,0.00,0.00,30.23,M,10.00,M,CLR,M,M,M,M,M,M,M,M,M,M,M,M,M,M,55.40,KHTH 161135Z AUTO 00000KT 10SM CLR 13/04 A3023 RMK A01,M
TMT,2023-05-16 11:35,-117.1971,39.4643,1749.34,35.20,32.00,87.98,140.00,4.00,0.00,30.32,M,10.00,M,SCT,M,M,M,11000.00,M,M,M,M,M,M,M,M,M,M,31.16,KTMT 161135Z AUTO 14004KT 10SM SCT110 02/00 A3032 RMK AO2 T00180000,M
05U,2023-05-16 11:50,-116.0051,39.6042,1811.23,44.60,37.40,75.68,360.00,6.00,0.00,30.31,M,10.00,M,CLR,M,M,M,M,M,M,M,M,M,M,M,M,M,M,40.71,K05U 161150Z AUTO 36006KT 10SM CLR 07/03 A3031 RMK A01,M
P68,2023-05-16 11:53,-116.0056,39.6014,1993.00,45.00,37.00,73.37,180.00,5.00,0.00,30.28,1019.60,M,M,M,M,M,M,M,M,M,M,M,M,M,M,M,M,M,41.83,KP68 161153Z AUTO 18005KT 07/03 A3028 RMK AO1 SLP196 T00720028 10128 20061 53001,M
DRA,2023-05-16 11:53,-116.0278,36.6206,1009.00,59.00,26.10,28.18,300.00,4.00,0.00,30.09,1014.60,10.00,M,CLR,M,M,M,M,M,M,M,M,M,M,M,M,M,M,59.00,KDRA 161153Z AUTO 30004KT 10SM CLR 15/M03 A3009 RMK AO2 SLP146 T01501033 10228 20150 53001,M
VGT,2023-05-16 11:53,-115.1933,36.2111,667.00,77.00,36.00,22.64,330.00,4.00,0.00,30.01,1015.20,10.00,M,CLR,M,M,M,M,M,M,M,M,M,M,M,M,M,M,77.00,KVGT 161153Z AUTO 33004KT 10SM CLR 25/02 A3001 RMK AO2 SLP152 T02500022 10306 20250 53002,M
LOL,2023-05-16 11:53,-118.5701,40.0684,1192.43,46.00,32.00,57.87,0.00,0.00,0.00,30.20,1020.40,10.00,M,CLR,M,M,M,M,M,M,M,M,M,M,M,M,M,M,46.00,KLOL 161153Z AUTO 00000KT 10SM CLR 08/00 A3020 RMK AO2 SLP204 T00780000 10183 20078 52001,M
ELY,2023-05-16 11:53,-114.8453,39.2950,1909.00,40.00,35.00,82.80,190.00,8.00,0.00,30.32,1019.90,10.00,M,FEW,M,M,M,12000.00,M,M,M,M,M,M,M,M,M,M,33.84,KELY 161153Z AUTO 19008KT 10SM FEW120 04/02 A3032 RMK AO2 SLP199 T00440017 10100 20039 50001,M
BVU,2023-05-16 11:55,-114.8611,35.9475,671.00,78.80,42.80,27.81,250.00,3.00,0.00,30.02,M,10.00,M,FEW,SCT,BKN,M,5000.00,6500.00,8000.00,M,-DZ,M,M,M,M,M,M,78.80,KBVU 161155Z AUTO 25003KT 10SM -DZ FEW050 SCT065 BKN080 26/06 A3002 RMK AO2,M
CXP,2023-05-16 11:55,-119.7326,39.1923,1431.00,44.60,33.80,65.61,0.00,0.00,0.00,30.27,M,10.00,M,CLR,M,M,M,M,M,M,M,M,M,M,M,M,M,M,44.60,KCXP 161155Z AUTO 00000KT 10SM CLR 07/01 A3027 RMK AO2,M
RNO,2023-05-16 11:55,-119.7711,39.4839,1341.00,52.00,32.00,46.25,250.00,5.00,0.00,30.24,1020.00,10.00,M,CLR,M,M,M,M,M,M,M,M,M,M,M,M,M,M,52.00,KRNO 161155Z 25005KT 10SM CLR 11/00 A3024 RMK AO2 SLP200 T01110000 10183 20111 58001,M
RTS,2023-05-16 11:55,-119.8764,39.6682,1539.00,46.40,32.00,57.00,0.00,0.00,0.00,30.27,M,10.00,M,CLR,M,M,M,M,M,M,M,M,M,M,M,M,M,M,46.40,KRTS 161155Z AUTO 00000KT 10SM CLR 08/00 A3027 RMK AO2,M
MEV,2023-05-16 11:55,-119.7500,38.9963,1441.42,35.60,33.80,93.08,0.00,0.00,0.00,30.26,M,10.00,M,SCT,BKN,BKN,M,5000.00,6000.00,8000.00,M,M,M,M,M,M,M,M,35.60,KMEV 161155Z AUTO 00000KT 10SM SCT050 BKN060 BKN080 02/01 A3026 RMK AO2,M
BAM,2023-05-16 11:55,-116.8743,40.5990,1382.36,42.80,35.60,75.50,230.00,5.00,0.00,30.25,M,10.00,M,CLR,M,M,M,M,M,M,M,M,M,M,M,M,M,M,39.22,KBAM 161155Z AUTO 23005KT 10SM CLR 06/02 A3025 RMK AO1,M
HTH,2023-05-16 11:55,-118.6315,38.5448,1282.89,53.60,39.20,58.02,210.00,5.00,0.00,30.23,M,10.00,M,CLR,M,M,M,M,M,M,M,M,M,M,M,M,M,M,53.60,KHTH 161155Z AUTO 21005KT 10SM CLR 12/04 A3023 RMK A01,M
TMT,2023-05-16 11:55,-117.1971,39.4643,1749.34,35.20,32.00,87.98,0.00,0.00,0.00,30.32,M,10.00,M,CLR,M,M,M,M,M,M,M,M,M,M,M,M,M,M,35.20,KTMT 161155Z AUTO 00000KT 10SM CLR 02/00 A3032 RMK AO2 T00180000 10091 20011,M
INS,2023-05-16 11:55,-115.6733,36.5872,955.00,64.20,23.40,20.95,0.00,0.00,0.00,30.08,1014.20,10.00,M,OVC,M,M,M,12000.00,M,M,M,M,M,M,M,M,M,M,64.20,KINS 161155Z AUTO 00000KT 10SM OVC120 18/M05 A3008 RMK AO2 SLP142 T01791048 10227 20162 55000 $,M
LSV,2023-05-16 11:55,-115.0343,36.2362,570.00,78.60,37.80,23.05,40.00,11.00,0.00,29.98,1012.70,10.00,M,SCT,M,M,M,15000.00,M,M,M,M,M,M,M,M,M,M,78.60,KLSV 161155Z AUTO 04011KT 10SM SCT150 26/03 A2998 RMK AO2 SLP127 T02590032 10306 20253 53005 $,M
HND,2023-05-16 11:56,-115.1344,35.9729,742.79,75.00,39.00,27.23,60.00,4.00,0.00,30.06,1016.40,10.00,M,CLR,M,M,M,M,M,M,M,M,M,M,M,M,M,M,75.00,KHND 161156Z AUTO 06004KT 10SM CLR 24/04 A3006 RMK AO2 SLP164 T02390039 10300 20239 53004,M
TPH,2023-05-16 11:56,-117.0904,38.0505,1654.00,M,M,M,M,M,0.00,30.25,M,M,M,M,M,M,M,M,M,M,M,M,M,M,M,M,M,M,M,KTPH 161156Z AUTO A3025 RMK AO2 SLPNO 51003 PWINO $,M
WMC,2023-05-16 11:56,-117.8072,40.9019,1315.00,43.00,35.00,73.45,140.00,6.00,0.00,30.23,1020.70,10.00,M,CLR,M,M,M,M,M,M,M,M,M,M,M,M,M,M,38.78,KWMC 161156Z AUTO 14006KT 10SM CLR 06/02 A3023 RMK AO2 SLP207 T00610017 10161 20061 53001,M
NFL,2023-05-16 11:56,-118.7010,39.4166,1199.00,52.00,38.00,58.48,200.00,6.00,0.00,30.20,1018.90,10.00,M,CLR,M,M,M,M,M,M,M,M,M,M,M,M,M,M,52.00,KNFL 161156Z AUTO 20006KT 10SM CLR 11/03 A3020 RMK AO2 SLP189 T01110033 10178 20111 56001,M
LAS,2023-05-16 11:56,-115.1634,36.0719,663.00,79.00,40.00,24.70,230.00,3.00,0.00,30.01,1013.70,10.00,M,FEW,BKN,M,M,14000.00,24000.00,M,M,M,M,M,M,M,M,M,79.00,KLAS 161156Z 23003KT 10SM FEW140 BKN240 26/04 A3001 RMK AO2 SLP137 T02610044 10306 20261 53001 $,M
EKO,2023-05-16 11:56,-115.7860,40.8242,1367.00,44.00,42.00,92.62,0.00,0.00,0.00,30.27,1022.00,10.00,M,CLR,M,M,M,M,M,M,M,M,M,M,M,M,M,M,44.10,KEKO 161156Z AUTO 00000KT 10SM CLR 07/06 A3027 RMK AO2 SLP220 70012 T00670056 10133 20067 53003,M
CXP,2023-05-16 12:10,-119.7326,39.1923,1431.00,42.80,35.60,75.50,0.00,0.00,0.00,30.27,M,10.00,M,CLR,M,M,M,M,M,M,M,M,M,M,M,M,M,M,42.80,KCXP 161210Z AUTO 00000KT 10SM CLR 06/02 A3027 RMK AO2,M
05U,2023-05-16 12:10,-116.0051,39.6042,1811.23,42.80,35.60,75.50,0.00,0.00,0.00,30.32,M,10.00,M,CLR,M,M,M,M,M,M,M,M,M,M,M,M,M,M,42.80,K05U 161210Z AUTO 00000KT 10SM CLR 06/02 A3032 RMK A01,M
BVU,2023-05-16 12:15,-114.8611,35.9475,671.00,80.60,48.20,32.18,30.00,10.00,0.00,30.02,M,8.00,24.00,FEW,SCT,BKN,M,1800.00,3900.00,7500.00,M,-DZ,M,M,M,M,M,M,79.71,KBVU 161215Z AUTO 03010G24KT 8SM -DZ FEW018 SCT039 BKN075 27/09 A3002 RMK AO2,M
RTS,2023-05-16 12:15,-119.8764,39.6682,1539.00,42.80,33.80,70.28,0.00,0.00,0.00,30.27,M,10.00,M,CLR,M,M,M,M,M,M,M,M,M,M,M,M,M,M,42.80,KRTS 161215Z AUTO 00000KT 10SM CLR 06/01 A3027 RMK AO2,M
MEV,2023-05-16 12:15,-119.7500,38.9963,1441.42,37.40,33.80,86.69,130.00,5.00,0.00,30.26,M,10.00,M,FEW,SCT,M,M,5000.00,5500.00,M,M,M,M,M,M,M,M,M,32.81,KMEV 161215Z AUTO 13005KT 10SM FEW050 SCT055 03/01 A3026 RMK AO2,M
BAM,2023-05-16 12:15,-116.8743,40.5990,1382.36,41.00,33.80,75.33,0.00,0.00,0.00,30.25,M,10.00,M,CLR,M,M,M,M,M,M,M,M,M,M,M,M,M,M,41.00,KBAM 161215Z AUTO 00000KT 10SM CLR 05/01 A3025 RMK AO1,M
HTH,2023-05-16 12:15,-118.6315,38.5448,1282.89,55.40,37.40,50.64,220.00,4.00,0.00,30.23,M,10.00,M,CLR,M,M,M,M,M,M,M,M,M,M,M,M,M,M,55.40,KHTH 161215Z AUTO 22004KT 10SM CLR 13/03 A3023 RMK A01,M
TMT,2023-05-16 12:15,-117.1971,39.4643,1749.34,38.00,33.00,82.66,0.00,0.00,0.00,30.32,M,10.00,M,CLR,M,M,M,M,M,M,M,M,M,M,M,M,M,M,37.90,KTMT 161215Z AUTO 00000KT 10SM CLR 03/01 A3032 RMK AO2 T00330006,M
05U,2023-05-16 12:30,-116.0051,39.6042,1811.23,42.80,37.40,81.07,360.00,6.00,0.00,30.32,M,10.00,M,CLR,M,M,M,M,M,M,M,M,M,M,M,M,M,M,38.54,K05U 161230Z AUTO 36006KT 10SM CLR 06/03 A3032 RMK A01,M
BVU,2023-05-16 12:35,-114.8611,35.9475,671.00,80.60,44.60,28.08,90.00,6.00,0.00,30.02,M,10.00,11.00,FEW,FEW,M,M,2200.00,3900.00,M,M,M,M,M,M,M,M,M,79.42,KBVU 161235Z AUTO 09006G11KT 10SM FEW022 FEW039 27/07 A3002 RMK AO2,M
CXP,2023-05-16 12:35,-119.7326,39.1923,1431.00,42.80,33.80,70.28,0.00,0.00,0.00,30.28,M,10.00,M,CLR,M,M,M,M,M,M,M,M,M,M,M,M,M,M,42.80,KCXP 161235Z AUTO 00000KT 10SM CLR 06/01 A3028 RMK AO2,M
RTS,2023-05-16 12:35,-119.8764,39.6682,1539.00,37.40,32.00,80.65,0.00,0.00,0.00,30.28,M,10.00,M,CLR,M,M,M,M,M,M,M,M,M,M,M,M,M,M,37.40,KRTS 161235Z AUTO 00000KT 10SM CLR 03/00 A3028 RMK AO2,M
MEV,2023-05-16 12:35,-119.7500,38.9963,1441.42,37.40,33.80,86.69,120.00,4.00,0.00,30.26,M,10.00,M,CLR,M,M,M,M,M,M,M,M,M,M,M,M,M,M,33.73,KMEV 161235Z AUTO 12004KT 10SM CLR 03/01 A3026 RMK AO2,M
BAM,2023-05-16 12:35,-116.8743,40.5990,1382.36,42.80,35.60,75.50,0.00,0.00,0.00,30.26,M,10.00,M,CLR,M,M,M,M,M,M,M,M,M,M,M,M,M,M,42.80,KBAM 161235Z AUTO 00000KT 10SM CLR 06/02 A3026 RMK AO1,M
HTH,2023-05-16 12:35,-118.6315,38.5448,1282.89,53.60,41.00,62.23,170.00,3.00,0.00,30.23,M,10.00,M,CLR,M,M,M,M,M,M,M,M,M,M,M,M,M,M,53.60,KHTH 161235Z AUTO 17003KT 10SM CLR 12/05 A3023 RMK A01,M
TMT,2023-05-16 12:35,-117.1971,39.4643,1749.34,36.00,31.60,83.54,0.00,0.00,0.00,30.33,M,10.00,M,CLR,M,M,M,M,M,M,M,M,M,M,M,M,M,M,36.10,KTMT 161235Z AUTO 00000KT 10SM CLR 02/00 A3033 RMK AO2 T00231002,M
05U,2023-05-16 12:50,-116.0051,39.6042,1811.23,42.80,37.40,81.07,360.00,4.00,0.00,30.32,M,10.00,M,CLR,M,M,M,M,M,M,M,M,M,M,M,M,M,M,40.03,K05U 161250Z AUTO 36004KT 10SM CLR 06/03 A3032 RMK A01,M
P68,2023-05-16 12:53,-116.0056,39.6014,1993.00,44.00,37.00,75.93,180.00,6.00,0.00,30.30,1020.30,M,M,M,M,M,M,M,M,M,M,M,M,M,M,M,M,M,40.10,KP68 161253Z AUTO 18006KT 07/03 A3030 RMK AO1 SLP203 T00670028,M
DRA,2023-05-16 12:53,-116.0278,36.6206,1009.00,62.00,28.00,27.30,110.00,5.00,0.00,30.09,1014.70,10.00,M,CLR,M,M,M,M,M,M,M,M,M,M,M,M,M,M,62.10,KDRA 161253Z AUTO 11005KT 10SM CLR 17/M02 A3009 RMK AO2 SLP147 T01671022,M
ELY,2023-05-16 12:53,-114.8453,39.2950,1909.00,39.00,34.00,82.08,190.00,7.00,0.00,30.33,1020.50,10.00,M,CLR,M,M,M,M,M,M,M,M,M,M,M,M,M,M,33.31,KELY 161253Z AUTO 19007KT 10SM CLR 04/01 A3033 RMK AO2 SLP205 T00390011,M
VGT,2023-05-16 12:53,-115.1933,36.2111,667.00,78.00,37.00,22.71,280.00,3.00,0.00,30.03,1015.90,10.00,M,CLR,M,M,M,M,M,M,M,M,M,M,M,M,M,M,78.10,KVGT 161253Z 28003KT 10SM CLR 26/03 A3003 RMK AO2 SLP159 T02560028,M
LOL,2023-05-16 12:53,-118.5701,40.0684,1192.43,43.00,30.90,62.06,130.00,3.00,0.00,30.20,1020.50,10.00,M,CLR,M,M,M,M,M,M,M,M,M,M,M,M,M,M,41.26,KLOL 161253Z AUTO 13003KT 10SM CLR 06/M01 A3020 RMK AO2 SLP205 T00611006,M
BVU,2023-05-16 12:55,-114.8611,35.9475,671.00,80.60,44.60,28.08,80.00,5.00,0.00,30.03,M,10.00,M,CLR,M,M,M,M,M,M,M,M,M,M,M,M,M,M,79.42,KBVU 161255Z AUTO 08005KT 10SM CLR 27/07 A3003 RMK AO2,M
CXP,2023-05-16 12:55,-119.7326,39.1923,1431.00,44.60,35.60,70.48,0.00,0.00,0.00,30.28,M,10.00,M,CLR,M,M,M,M,M,M,M,M,M,M,M,M,M,M,44.60,KCXP 161255Z AUTO 00000KT 10SM CLR 07/02 A3028 RMK AO2,M
RTS,2023-05-16 12:55,-119.8764,39.6682,1539.00,37.40,33.80,86.69,10.00,5.00,0.00,30.27,M,10.00,M,CLR,M,M,M,M,M,M,M,M,M,M,M,M,M,M,32.81,KRTS 161255Z AUTO 01005KT 10SM CLR 03/01 A3027 RMK AO2,M
MEV,2023-05-16 12:55,-119.7500,38.9963,1441.42,39.20,33.80,80.79,0.00,0.00,0.00,30.27,M,10.00,M,CLR,M,M,M,M,M,M,M,M,M,M,M,M,M,M,39.20,KMEV 161255Z AUTO 00000KT 10SM CLR 04/01 A3027 RMK AO2,M
BAM,2023-05-16 12:55,-116.8743,40.5990,1382.36,44.60,35.60,70.48,0.00,0.00,0.00,30.26,M,10.00,M,CLR,M,M,M,M,M,M,M,M,M,M,M,M,M,M,44.60,KBAM 161255Z AUTO 00000KT 10SM CLR 07/02 A3026 RMK AO1,M
HTH,2023-05-16 12:55,-118.6315,38.5448,1282.89,51.80,39.20,61.99,0.00,0.00,0.00,30.23,M,10.00,M,CLR,M,M,M,M,M,M,M,M,M,M,M,M,M,M,51.80,KHTH 161255Z AUTO 00000KT 10SM CLR 11/04 A3023 RMK A01,M
TMT,2023-05-16 12:55,-117.1971,39.4643,1749.34,36.50,32.00,83.56,0.00,0.00,0.00,30.33,M,10.00,M,CLR,M,M,M,M,M,M,M,M,M,M,M,M,M,M,36.50,KTMT 161255Z AUTO 00000KT 10SM CLR 03/00 A3033 RMK AO2 T00250000,M
INS,2023-05-16 12:55,-115.6733,36.5872,955.00,65.00,26.20,22.98,190.00,3.00,0.00,30.09,1014.50,10.00,M,OVC,M,M,M,12000.00,M,M,M,M,M,M,M,M,M,M,64.90,KINS 161255Z AUTO 19003KT 10SM OVC120 18/M03 A3009 RMK AO2 SLP145 T01831032 $,M
LSV,2023-05-16 12:55,-115.0343,36.2362,570.00,79.20,35.80,20.89,50.00,6.00,0.00,29.99,1013.00,10.00,M,BKN,M,M,M,14000.00,M,M,M,M,M,M,M,M,M,M,79.20,KLSV 161255Z 05006KT 10SM BKN140 26/02 A2999 RMK AO2A SLP130 T02620021 $,M
RNO,2023-05-16 12:55,-119.7711,39.4839,1341.00,50.00,35.00,56.39,260.00,3.00,0.00,30.25,1020.50,10.00,M,FEW,M,M,M,15000.00,M,M,M,M,M,M,M,M,M,M,50.00,KRNO 161255Z 26003KT 10SM FEW150 10/02 A3025 RMK AO2 SLP205 T01000017,M
EKO,2023-05-16 12:56,-115.7860,40.8242,1367.00,45.00,43.00,92.65,70.00,3.00,0.00,30.28,1022.30,10.00,M,CLR,M,M,M,M,M,M,M,M,M,M,M,M,M,M,43.55,KEKO 161256Z AUTO 07003KT 10SM CLR 07/06 A3028 RMK AO2 SLP223 T00720061,M
NFL,2023-05-16 12:56,-118.7010,39.4166,1199.00,51.00,37.00,58.36,0.00,0.00,0.00,30.20,1019.10,10.00,M,CLR,M,M,M,M,M,M,M,M,M,M,M,M,M,M,51.10,KNFL 161256Z AUTO 00000KT 10SM CLR 11/03 A3020 RMK AO2 SLP191 T01060028,M
TPH,2023-05-16 12:56,-117.0904,38.0505,1654.00,M,M,M,M,M,0.00,30.26,M,M,M,M,M,M,M,M,M,M,M,M,M,M,M,M,M,M,M,KTPH 161256Z AUTO A3026 RMK AO2 SLPNO PWINO $,M
LAS,2023-05-16 12:56,-115.1634,36.0719,663.00,77.00,37.00,23.55,230.00,5.00,0.00,30.03,1014.30,10.00,M,BKN,M,M,M,14000.00,M,M,M,M,M,M,M,M,M,M,77.00,KLAS 161256Z 23005KT 10SM BKN140 25/03 A3003 RMK AO2 SLP143 VIRGA DSNT E T02500028 $,M
WMC,2023-05-16 12:56,-117.8072,40.9019,1315.00,44.00,35.00,70.43,160.00,5.00,0.00,30.23,1020.60,10.00,M,CLR,M,M,M,M,M,M,M,M,M,M,M,M,M,M,40.77,KWMC 161256Z AUTO 16005KT 10SM CLR 07/02 A3023 RMK AO2 SLP206 T00670017,M
HND,2023-05-16 12:56,-115.1344,35.9729,742.79,76.00,40.00,27.37,210.00,4.00,0.00,30.07,1016.80,10.00,M,CLR,M,M,M,M,M,M,M,M,M,M,M,M,M,M,75.90,KHND 161256Z 21004KT 10SM CLR 24/04 A3007 RMK AO2 SLP168 T02440044,M
05U,2023-05-16 13:10,-116.0051,39.6042,1811.23,46.40,37.40,70.68,360.00,6.00,0.00,30.33,M,10.00,M,CLR,M,M,M,M,M,M,M,M,M,M,M,M,M,M,42.87,K05U 161310Z AUTO 36006KT 10SM CLR 08/03 A3033 RMK A01,M
BVU,2023-05-16 13:15,-114.8611,35.9475,671.00,77.00,46.40,33.85,0.00,0.00,0.00,30.04,M,10.00,M,CLR,M,M,M,M,M,M,M,M,M,M,M,M,M,M,77.00,KBVU 161315Z AUTO 00000KT 10SM CLR 25/08 A3004 RMK AO2,M
CXP,2023-05-16 13:15,-119.7326,39.1923,1431.00,42.80,33.80,70.28,0.00,0.00,0.00,30.28,M,10.00,M,CLR,M,M,M,M,M,M,M,M,M,M,M,M,M,M,42.80,KCXP 161315Z AUTO 00000KT 10SM CLR 06/01 A3028 RMK AO2,M
RTS,2023-05-16 13:15,-119.8764,39.6682,1539.00,41.00,33.80,75.33,10.00,5.00,0.00,30.28,M,10.00,M,CLR,M,M,M,M,M,M,M,M,M,M,M,M,M,M,37.08,KRTS 161315Z AUTO 01005KT 10SM CLR 05/01 A3028 RMK AO2,M
MEV,2023-05-16 13:15,-119.7500,38.9963,1441.42,39.20,33.80,80.79,0.00,0.00,0.00,30.27,M,10.00,M,CLR,M,M,M,M,M,M,M,M,M,M,M,M,M,M,39.20,KMEV 161315Z AUTO 00000KT 10SM CLR 04/01 A3027 RMK AO2,M
BAM,2023-05-16 13:15,-116.8743,40.5990,1382.36,42.80,35.60,75.50,0.00,0.00,0.00,30.27,M,10.00,M,CLR,M,M,M,M,M,M,M,M,M,M,M,M,M,M,42.80,KBAM 161315Z AUTO 00000KT 10SM CLR 06/02 A3027 RMK AO1,M
HTH,2023-05-16 13:15,-118.6315,38.5448,1282.89,53.60,37.40,54.07,0.00,0.00,0.00,30.24,M,10.00,M,CLR,M,M,M,M,M,M,M,M,M,M,M,M,M,M,53.60,KHTH 161315Z AUTO 00000KT 10SM CLR 12/03 A3024 RMK A01,M
TMT,2023-05-16 13:15,-117.1971,39.4643,1749.34,34.70,32.00,89.75,0.00,0.00,0.00,30.33,M,10.00,M,CLR,M,M,M,M,M,M,M,M,M,M,M,M,M,M,34.70,KTMT 161315Z AUTO 00000KT 10SM CLR 02/00 A3033 RMK AO2 T00150000,M
05U,2023-05-16 13:30,-116.0051,39.6042,1811.23,48.20,39.20,70.88,M,4.00,0.00,30.33,M,10.00,M,CLR,M,M,M,M,M,M,M,M,M,M,M,M,M,M,46.34,K05U 161330Z AUTO VRB04KT 10SM CLR 09/04 A3033 RMK A01,M
BVU,2023-05-16 13:35,-114.8611,35.9475,671.00,75.20,48.20,38.46,360.00,5.00,0.00,30.04,M,10.00,M,CLR,M,M,M,M,M,M,M,M,M,M,M,M,M,M,75.20,KBVU 161335Z AUTO 36005KT 10SM CLR 24/09 A3004 RMK AO2,M
CXP,2023-05-16 13:35,-119.7326,39.1923,1431.00,46.40,33.80,61.28,0.00,0.00,0.00,30.29,M,10.00,M,FEW,M,M,M,1500.00,M,M,M,M,M,M,M,M,M,M,46.40,KCXP 161335Z AUTO 00000KT 10SM FEW015 08/01 A3029 RMK AO2,M
RTS,2023-05-16 13:35,-119.8764,39.6682,1539.00,44.60,37.40,75.68,0.00,0.00,0.00,30.28,M,10.00,M,CLR,M,M,M,M,M,M,M,M,M,M,M,M,M,M,44.60,KRTS 161335Z AUTO 00000KT 10SM CLR 07/03 A3028 RMK AO2,M
MEV,2023-05-16 13:35,-119.7500,38.9963,1441.42,39.20,35.60,86.79,0.00,0.00,0.00,30.27,M,10.00,M,CLR,M,M,M,M,M,M,M,M,M,M,M,M,M,M,39.20,KMEV 161335Z AUTO 00000KT 10SM CLR 04/02 A3027 RMK AO2,M
BAM,2023-05-16 13:35,-116.8743,40.5990,1382.36,46.40,37.40,70.68,0.00,0.00,0.00,30.27,M,10.00,M,CLR,M,M,M,M,M,M,M,M,M,M,M,M,M,M,46.40,KBAM 161335Z AUTO 00000KT 10SM CLR 08/03 A3027 RMK AO1,M
HTH,2023-05-16 13:35,-118.6315,38.5448,1282.89,55.40,37.40,50.64,180.00,3.00,0.00,30.24,M,10.00,M,CLR,M,M,M,M,M,M,M,M,M,M,M,M,M,M,55.40,KHTH 161335Z AUTO 18003KT 10SM CLR 13/03 A3024 RMK A01,M
TMT,2023-05-16 13:35,-117.1971,39.4643,1749.34,39.00,34.20,82.74,0.00,0.00,0.00,30.33,M,10.00,M,CLR,M,M,M,M,M,M,M,M,M,M,M,M,M,M,39.00,KTMT 161335Z AUTO 00000KT 10SM CLR 04/01 A3033 RMK AO2 T00390012,M
05U,2023-05-16 13:50,-116.0051,39.6042,1811.23,51.80,39.20,61.99,M,4.00,0.00,30.33,M,10.00,M,FEW,M,M,M,12000.00,M,M,M,M,M,M,M,M,M,M,51.80,K05U 161350Z AUTO VRB04KT 10SM FEW120 11/04 A3033 RMK A01,M
DRA,2023-05-16 13:53,-116.0278,36.6206,1009.00,65.00,28.00,24.75,140.00,4.00,0.00,30.10,1015.00,10.00,M,FEW,M,M,M,12000.00,M,M,M,M,M,M,M,M,M,M,64.90,KDRA 161353Z AUTO 14004KT 10SM FEW120 18/M02 A3010 RMK AO2 SLP150 T01831022,M
VGT,2023-05-16 13:53,-115.1933,36.2111,667.00,78.00,39.00,24.56,340.00,4.00,0.00,30.04,1016.40,10.00,M,CLR,M,M,M,M,M,M,M,M,M,M,M,M,M,M,78.10,KVGT 161353Z 34004KT 10SM CLR 26/04 A3004 RMK AO2 SLP164 T02560039,M
LOL,2023-05-16 13:53,-118.5701,40.0684,1192.43,50.00,34.00,53.97,0.00,0.00,0.00,30.21,1020.40,10.00,M,CLR,M,M,M,M,M,M,M,M,M,M,M,M,M,M,50.00,KLOL 161353Z AUTO 00000KT 10SM CLR 10/01 A3021 RMK AO2 SLP204 T01000011,M
P68,2023-05-16 13:53,-116.0056,39.6014,1993.00,52.00,40.00,63.24,210.00,3.00,0.00,30.30,1019.90,M,M,M,M,M,M,M,M,M,M,M,M,M,M,M,M,M,52.00,KP68 161353Z AUTO 21003KT 11/04 A3030 RMK AO1 SLP199 T01110044,M
ELY,2023-05-16 13:53,-114.8453,39.2950,1909.00,44.00,38.00,78.66,190.00,4.00,0.00,30.34,1020.40,10.00,M,FEW,M,M,M,11000.00,M,M,M,M,M,M,M,M,M,M,41.55,KELY 161353Z AUTO 19004KT 10SM FEW110 07/03 A3034 RMK AO2 SLP204 T00670033,M
BVU,2023-05-16 13:55,-114.8611,35.9475,671.00,77.00,48.20,36.22,70.00,6.00,0.00,30.04,M,10.00,M,CLR,M,M,M,M,M,M,M,M,M,M,M,M,M,M,77.00,KBVU 161355Z AUTO 07006KT 10SM CLR 25/09 A3004 RMK AO2,M
CXP,2023-05-16 13:55,-119.7326,39.1923,1431.00,48.20,35.60,61.52,0.00,0.00,0.00,30.29,M,10.00,M,CLR,M,M,M,M,M,M,M,M,M,M,M,M,M,M,48.20,KCXP 161355Z AUTO 00000KT 10SM CLR 09/02 A3029 RMK AO2,M
RTS,2023-05-16 13:55,-119.8764,39.6682,1539.00,46.40,37.40,70.68,0.00,0.00,0.00,30.28,M,10.00,M,CLR,M,M,M,M,M,M,M,M,M,M,M,M,M,M,46.40,KRTS 161355Z AUTO 00000KT 10SM CLR 08/03 A3028 RMK AO2,M
MEV,2023-05-16 13:55,-119.7500,38.9963,1441.42,42.80,37.40,81.07,0.00,0.00,0.00,30.28,M,10.00,M,CLR,M,M,M,M,M,M,M,M,M,M,M,M,M,M,42.80,KMEV 161355Z AUTO 00000KT 10SM CLR 06/03 A3028 RMK AO2,M
BAM,2023-05-16 13:55,-116.8743,40.5990,1382.36,48.20,37.40,66.05,0.00,0.00,0.00,30.27,M,10.00,M,CLR,M,M,M,M,M,M,M,M,M,M,M,M,M,M,48.20,KBAM 161355Z AUTO 00000KT 10SM CLR 09/03 A3027 RMK AO1,M
HTH,2023-05-16 13:55,-118.6315,38.5448,1282.89,59.00,41.00,51.18,220.00,3.00,0.00,30.24,M,10.00,M,CLR,M,M,M,M,M,M,M,M,M,M,M,M,M,M,59.00,KHTH 161355Z AUTO 22003KT 10SM CLR 15/05 A3024 RMK A01,M
TMT,2023-05-16 13:55,-117.1971,39.4643,1749.34,42.00,35.60,78.16,0.00,0.00,0.00,30.33,M,10.00,M,CLR,M,M,M,M,M,M,M,M,M,M,M,M,M,M,41.90,KTMT 161355Z AUTO 00000KT 10SM CLR 06/02 A3033 RMK AO2 T00550020,M
INS,2023-05-16 13:55,-115.6733,36.5872,955.00,65.80,24.80,21.01,220.00,3.00,0.00,30.11,1015.20,10.00,M,OVC,M,M,M,11000.00,M,M,M,M,M,M,M,M,M,M,65.80,KINS 161355Z AUTO 22003KT 10SM OVC110 19/M04 A3011 RMK AO2 SLP152 T01881040 $,M
LSV,2023-05-16 13:55,-115.0343,36.2362,570.00,79.50,36.00,20.93,60.00,9.00,0.00,30.01,1013.80,10.00,M,FEW,SCT,M,M,13000.00,16000.00,M,M,M,M,M,M,M,M,M,79.50,KLSV 161355Z AUTO 06009KT 10SM FEW130 SCT160 26/02 A3001 RMK AO2 SLP138 T02640023 $,M
RNO,2023-05-16 13:55,-119.7711,39.4839,1341.00,53.00,32.00,44.42,280.00,5.00,0.00,30.26,1020.50,10.00,M,FEW,M,M,M,15000.00,M,M,M,M,M,M,M,M,M,M,53.10,KRNO 161355Z 28005KT 10SM FEW150 12/00 A3026 RMK AO2 SLP205 T01170000,M
HND,2023-05-16 13:56,-115.1344,35.9729,742.79,76.00,41.00,28.56,200.00,4.00,0.00,30.08,1017.40,10.00,M,CLR,M,M,M,M,M,M,M,M,M,M,M,M,M,M,75.90,KHND 161356Z 20004KT 10SM CLR 24/05 A3008 RMK AO2 SLP174 T02440050,M
TPH,2023-05-16 13:56,-117.0904,38.0505,1654.00,M,M,M,M,M,0.00,30.27,M,M,M,M,M,M,M,M,M,M,M,M,M,M,M,M,M,M,M,KTPH 161356Z AUTO A3027 RMK AO2 SLPNO PWINO $,M
LAS,2023-05-16 13:56,-115.1634,36.0719,663.00,79.00,39.00,23.85,330.00,3.00,0.00,30.06,1015.10,10.00,M,BKN,M,M,M,14000.00,M,M,M,M,M,M,M,M,M,M,79.00,KLAS 161356Z 33003KT 10SM BKN140 26/04 A3006 RMK AO2 SLP151 T02610039 $,M
EKO,2023-05-16 13:56,-115.7860,40.8242,1367.00,50.00,44.00,80.06,0.00,0.00,0.00,30.29,1022.60,10.00,M,FEW,M,M,M,12000.00,M,M,M,M,M,M,M,M,M,M,50.00,KEKO 161356Z AUTO 00000KT 10SM FEW120 10/07 A3029 RMK AO2 SLP226 T01000067,M
WMC,2023-05-16 13:56,-117.8072,40.9019,1315.00,52.00,38.00,58.48,150.00,4.00,0.00,30.24,1020.80,10.00,M,CLR,M,M,M,M,M,M,M,M,M,M,M,M,M,M,52.00,KWMC 161356Z AUTO 15004KT 10SM CLR 11/03 A3024 RMK AO2 SLP208 T01110033,M
NFL,2023-05-16 13:56,-118.7010,39.4166,1199.00,58.00,38.00,47.18,0.00,0.00,0.00,30.21,1019.40,10.00,M,CLR,M,M,M,M,M,M,M,M,M,M,M,M,M,M,57.90,KNFL 161356Z AUTO 00000KT 10SM CLR 14/03 A3021 RMK AO2 SLP194 T01440033,M
INS,2023-05-16 14:07,-115.6733,36.5872,955.00,64.40,26.60,23.77,40.00,8.00,0.00,30.11,1015.40,10.00,M,OVC,M,M,M,11000.00,M,M,M,-RA,M,M,M,M,M,M,64.40,KINS 161407Z AUTO 04008KT 10SM -RA OVC110 18/M03 A3011 RMK AO2 RAB07 SLP154 $,M
05U,2023-05-16 14:10,-116.0051,39.6042,1811.23,53.60,41.00,62.23,0.00,0.00,0.00,30.34,M,10.00,M,FEW,M,M,M,12000.00,M,M,M,M,M,M,M,M,M,M,53.60,K05U 161410Z AUTO 00000KT 10SM FEW120 12/05 A3034 RMK A01,M
BVU,2023-05-16 14:15,-114.8611,35.9475,671.00,78.80,48.20,34.13,70.00,3.00,0.00,30.05,M,10.00,M,CLR,M,M,M,M,M,M,M,M,M,M,M,M,M,M,78.80,KBVU 161415Z AUTO 07003KT 10SM CLR 26/09 A3005 RMK AO2,M
CXP,2023-05-16 14:15,-119.7326,39.1923,1431.00,50.00,37.40,61.76,0.00,0.00,0.00,30.29,M,10.00,M,CLR,M,M,M,M,M,M,M,M,M,M,M,M,M,M,50.00,KCXP 161415Z AUTO 00000KT 10SM CLR 10/03 A3029 RMK AO2,M
RTS,2023-05-16 14:15,-119.8764,39.6682,1539.00,48.20,37.40,66.05,0.00,0.00,0.00,30.28,M,10.00,M,CLR,M,M,M,M,M,M,M,M,M,M,M,M,M,M,48.20,KRTS 161415Z AUTO 00000KT 10SM CLR 09/03 A3028 RMK AO2,M
MEV,2023-05-16 14:15,-119.7500,38.9963,1441.42,46.40,37.40,70.68,0.00,0.00,0.00,30.28,M,10.00,M,CLR,M,M,M,M,M,M,M,M,M,M,M,M,M,M,46.40,KMEV 161415Z AUTO 00000KT 10SM CLR 08/03 A3028 RMK AO2,M
BAM,2023-05-16 14:15,-116.8743,40.5990,1382.36,50.00,39.20,66.27,0.00,0.00,0.00,30.27,M,10.00,M,CLR,M,M,M,M,M,M,M,M,M,M,M,M,M,M,50.00,KBAM 161415Z AUTO 00000KT 10SM CLR 10/04 A3027 RMK AO1,M
HTH,2023-05-16 14:15,-118.6315,38.5448,1282.89,60.80,39.20,44.76,0.00,0.00,0.00,30.25,M,10.00,M,CLR,M,M,M,M,M,M,M,M,M,M,M,M,M,M,60.80,KHTH 161415Z AUTO 00000KT 10SM CLR 16/04 A3025 RMK A01,M
TMT,2023-05-16 14:15,-117.1971,39.4643,1749.34,46.60,36.70,68.24,210.00,3.00,0.00,30.33,M,10.00,M,CLR,M,M,M,M,M,M,M,M,M,M,M,M,M,M,45.38,KTMT 161415Z AUTO 21003KT 10SM CLR 08/03 A3033 RMK AO2 T00810026,M
INS,2023-05-16 14:20,-115.6733,36.5872,955.00,64.40,37.40,36.74,340.00,3.00,0.00,30.12,1015.70,10.00,M,FEW,OVC,M,M,4500.00,11000.00,M,M,M,M,M,M,M,M,M,64.40,KINS 161420Z AUTO 34003KT 10SM FEW045 OVC110 18/03 A3012 RMK AO2 RAB07E20 SLP157 $,M
05U,2023-05-16 14:30,-116.0051,39.6042,1811.23,59.00,41.00,51.18,0.00,0.00,0.00,30.34,M,10.00,M,CLR,M,M,M,M,M,M,M,M,M,M,M,M,M,M,59.00,K05U 161430Z AUTO 00000KT 10SM CLR 15/05 A3034 RMK A01,M
BVU,2023-05-16 14:35,-114.8611,35.9475,671.00,82.40,46.40,28.36,20.00,5.00,0.00,30.05,M,10.00,M,CLR,M,M,M,M,M,M,M,M,M,M,M,M,M,M,80.64,KBVU 161435Z AUTO 02005KT 10SM CLR 28/08 A3005 RMK AO2,M
CXP,2023-05-16 14:35,-119.7326,39.1923,1431.00,53.60,35.60,50.36,0.00,0.00,0.00,30.29,M,10.00,M,CLR,M,M,M,M,M,M,M,M,M,M,M,M,M,M,53.60,KCXP 161435Z AUTO 00000KT 10SM CLR 12/02 A3029 RMK AO2,M
RTS,2023-05-16 14:35,-119.8764,39.6682,1539.00,48.20,37.40,66.05,0.00,0.00,0.00,30.29,M,10.00,M,CLR,M,M,M,M,M,M,M,M,M,M,M,M,M,M,48.20,KRTS 161435Z AUTO 00000KT 10SM CLR 09/03 A3029 RMK AO2,M
MEV,2023-05-16 14:35,-119.7500,38.9963,1441.42,50.00,35.60,57.52,0.00,0.00,0.00,30.28,M,10.00,M,CLR,M,M,M,M,M,M,M,M,M,M,M,M,M,M,50.00,KMEV 161435Z AUTO 00000KT 10SM CLR 10/02 A3028 RMK AO2,M
BAM,2023-05-16 14:35,-116.8743,40.5990,1382.36,53.60,39.20,58.02,0.00,0.00,0.00,30.27,M,2.50,M,CLR,M,M,M,M,M,M,M,M,M,M,M,M,M,M,53.60,KBAM 161435Z AUTO 00000KT 2 1/2SM CLR 12/04 A3027 RMK AO1 VIS 1/4V5,M
HTH,2023-05-16 14:35,-118.6315,38.5448,1282.89,60.80,37.40,41.71,310.00,4.00,0.00,30.25,M,10.00,M,CLR,M,M,M,M,M,M,M,M,M,M,M,M,M,M,60.80,KHTH 161435Z AUTO 31004KT 10SM CLR 16/03 A3025 RMK A01,M
TMT,2023-05-16 14:35,-117.1971,39.4643,1749.34,47.80,37.00,66.00,180.00,4.00,0.00,30.33,M,10.00,M,CLR,M,M,M,M,M,M,M,M,M,M,M,M,M,M,45.87,KTMT 161435Z AUTO 18004KT 10SM CLR 09/03 A3033 RMK AO2 T00880028,M
05U,2023-05-16 14:50,-116.0051,39.6042,1811.23,60.80,39.20,44.76,360.00,3.00,0.00,30.34,M,10.00,M,CLR,M,M,M,M,M,M,M,M,M,M,M,M,M,M,60.80,K05U 161450Z AUTO 36003KT 10SM CLR 16/04 A3034 RMK A01,M
ELY,2023-05-16 14:53,-114.8453,39.2950,1909.00,52.00,39.00,61.06,190.00,7.00,0.00,30.35,1020.90,10.00,M,FEW,M,M,M,11000.00,M,M,M,M,M,M,M,M,M,M,52.00,KELY 161453Z AUTO 19007KT 10SM FEW110 11/04 A3035 RMK AO2 SLP209 T01110039 51008,M
VGT,2023-05-16 14:53,-115.1933,36.2111,667.00,82.00,41.00,23.37,330.00,3.00,0.00,30.06,1016.80,10.00,M,CLR,M,M,M,M,M,M,M,M,M,M,M,M,M,M,80.04,KVGT 161453Z 33003KT 10SM CLR 28/05 A3006 RMK AO2 SLP168 T02780050 51015,M
LOL,2023-05-16 14:53,-118.5701,40.0684,1192.43,57.00,36.00,45.22,0.00,0.00,0.00,30.22,1020.50,10.00,M,CLR,M,M,M,M,M,M,M,M,M,M,M,M,M,M,57.00,KLOL 161453Z AUTO 00000KT 10SM CLR 14/02 A3022 RMK AO2 SLP205 T01390022 53005,M
P68,2023-05-16 14:53,-116.0056,39.6014,1993.00,59.00,40.00,49.04,350.00,3.00,0.00,30.31,1019.50,M,M,M,M,M,M,M,M,M,M,M,M,M,M,M,M,M,59.00,KP68 161453Z AUTO 35003KT 15/04 A3031 RMK AO1 SLP195 T01500044 51007,M
BVU,2023-05-16 14:55,-114.8611,35.9475,671.00,84.20,44.60,24.99,0.00,0.00,0.00,30.05,M,10.00,M,CLR,M,M,M,M,M,M,M,M,M,M,M,M,M,M,81.73,KBVU 161455Z AUTO 00000KT 10SM CLR 29/07 A3005 RMK AO2,M
CXP,2023-05-16 14:55,-119.7326,39.1923,1431.00,55.40,35.60,47.16,0.00,0.00,0.00,30.29,M,10.00,M,CLR,M,M,M,M,M,M,M,M,M,M,M,M,M,M,55.40,KCXP 161455Z AUTO 00000KT 10SM CLR 13/02 A3029 RMK AO2,M
RNO,2023-05-16 14:55,-119.7711,39.4839,1341.00,58.00,32.00,37.31,290.00,4.00,0.00,30.26,1020.40,10.00,M,CLR,M,M,M,M,M,M,M,M,M,M,M,M,M,M,57.90,KRNO 161455Z 29004KT 10SM CLR 14/00 A3026 RMK AO2 SLP204 T01440000 51004,M
RTS,2023-05-16 14:55,-119.8764,39.6682,1539.00,51.80,37.40,57.77,0.00,0.00,0.00,30.28,M,10.00,M,CLR,M,M,M,M,M,M,M,M,M,M,M,M,M,M,51.80,KRTS 161455Z AUTO 00000KT 10SM CLR 11/03 A3028 RMK AO2,M
MEV,2023-05-16 14:55,-119.7500,38.9963,1441.42,51.80,35.60,53.81,0.00,0.00,0.00,30.28,M,10.00,M,CLR,M,M,M,M,M,M,M,M,M,M,M,M,M,M,51.80,KMEV 161455Z AUTO 00000KT 10SM CLR 11/02 A3028 RMK AO2,M
BAM,2023-05-16 14:55,-116.8743,40.5990,1382.36,57.20,41.00,54.60,0.00,0.00,0.00,30.27,M,10.00,M,CLR,M,M,M,M,M,M,M,M,M,M,M,M,M,M,57.20,KBAM 161455Z AUTO 00000KT 10SM CLR 14/05 A3027 RMK AO1,M
HTH,2023-05-16 14:55,-118.6315,38.5448,1282.89,59.00,37.40,44.47,330.00,4.00,0.00,30.25,M,10.00,M,CLR,M,M,M,M,M,M,M,M,M,M,M,M,M,M,59.00,KHTH 161455Z AUTO 33004KT 10SM CLR 15/03 A3025 RMK A01,M
TMT,2023-05-16 14:55,-117.1971,39.4643,1749.34,50.00,37.80,62.73,210.00,3.00,0.00,30.33,M,10.00,M,CLR,M,M,M,M,M,M,M,M,M,M,M,M,M,M,50.00,KTMT 161455Z AUTO 21003KT 10SM CLR 10/03 A3033 RMK AO2 T01000032,M
INS,2023-05-16 14:55,-115.6733,36.5872,955.00,67.50,32.40,27.04,0.00,0.00,T,30.12,1015.70,10.00,M,BKN,OVC,M,M,12000.00,15000.00,M,M,M,M,M,M,M,M,M,67.50,KINS 161455Z AUTO 00000KT 10SM BKN120 OVC150 20/00 A3012 RMK AO2 RAB07E20 SLP157 P0000 60000 T01970002 52012 $,M
LSV,2023-05-16 14:55,-115.0343,36.2362,570.00,83.50,38.00,19.88,10.00,8.00,0.00,30.02,1014.00,10.00,M,BKN,M,M,M,14000.00,M,M,M,M,M,M,M,M,M,M,80.91,KLSV 161455Z 01008KT 10SM BKN140 29/03 A3002 RMK AO2A SLP140 T02860034 52013 $,M
EKO,2023-05-16 14:56,-115.7860,40.8242,1367.00,56.00,45.00,66.72,0.00,0.00,0.00,30.29,1022.50,10.00,M,CLR,M,M,M,M,M,M,M,M,M,M,M,M,M,M,55.90,KEKO 161456Z AUTO 00000KT 10SM CLR 13/07 A3029 RMK AO2 SLP225 T01330072 51007,M
TPH,2023-05-16 14:56,-117.0904,38.0505,1654.00,M,M,M,M,M,0.00,30.27,M,M,M,M,M,M,M,M,M,M,M,M,M,M,M,M,M,M,M,KTPH 161456Z AUTO A3027 RMK AO2 SLPNO 51006 PWINO $,M
HND,2023-05-16 14:56,-115.1344,35.9729,742.79,82.00,40.00,22.39,320.00,3.00,0.00,30.10,1017.80,10.00,M,CLR,M,M,M,M,M,M,M,M,M,M,M,M,M,M,79.98,KHND 161456Z 32003KT 10SM CLR 28/04 A3010 RMK AO2 SLP178 T02780044 53013,M
NFL,2023-05-16 14:56,-118.7010,39.4166,1199.00,63.00,42.00,46.34,180.00,5.00,0.00,30.22,1019.60,10.00,M,FEW,FEW,M,M,6000.00,20000.00,M,M,M,M,M,M,M,M,M,63.00,KNFL 161456Z 18005KT 10SM FEW060 FEW200 17/06 A3022 RMK SLP196 T01720056 51007,M
WMC,2023-05-16 14:56,-117.8072,40.9019,1315.00,62.00,44.00,51.64,60.00,8.00,0.00,30.24,1020.60,10.00,M,CLR,M,M,M,M,M,M,M,M,M,M,M,M,M,M,62.10,KWMC 161456Z AUTO 06008KT 10SM CLR 17/07 A3024 RMK AO2 SLP206 T01670067 51004,M
LAS,2023-05-16 14:56,-115.1634,36.0719,663.00,83.00,38.00,20.11,360.00,8.00,0.00,30.06,1015.20,10.00,M,SCT,M,M,M,14000.00,M,M,M,M,M,M,M,M,M,M,80.49,KLAS 161456Z 36008KT 10SM SCT140 28/03 A3006 RMK AO2 SLP152 T02830033 51015 $,M
05U,2023-05-16 15:10,-116.0051,39.6042,1811.23,62.60,39.20,42.00,0.00,0.00,0.00,30.34,M,10.00,M,CLR,M,M,M,M,M,M,M,M,M,M,M,M,M,M,62.60,K05U 161510Z AUTO 00000KT 10SM CLR 17/04 A3034 RMK A01,M
BVU,2023-05-16 15:15,-114.8611,35.9475,671.00,86.00,42.80,22.02,70.00,4.00,0.00,30.05,M,10.00,M,CLR,M,M,M,M,M,M,M,M,M,M,M,M,M,M,82.95,KBVU 161515Z AUTO 07004KT 10SM CLR 30/06 A3005 RMK AO2,M
CXP,2023-05-16 15:15,-119.7326,39.1923,1431.00,55.40,33.80,43.90,0.00,0.00,0.00,30.29,M,10.00,M,CLR,M,M,M,M,M,M,M,M,M,M,M,M,M,M,55.40,KCXP 161515Z AUTO 00000KT 10SM CLR 13/01 A3029 RMK AO2,M
RTS,2023-05-16 15:15,-119.8764,39.6682,1539.00,55.40,39.20,54.34,0.00,0.00,0.00,30.28,M,10.00,M,CLR,M,M,M,M,M,M,M,M,M,M,M,M,M,M,55.40,KRTS 161515Z AUTO 00000KT 10SM CLR 13/04 A3028 RMK AO2,M
MEV,2023-05-16 15:15,-119.7500,38.9963,1441.42,55.40,32.00,40.84,0.00,0.00,0.00,30.28,M,10.00,M,CLR,M,M,M,M,M,M,M,M,M,M,M,M,M,M,55.40,KMEV 161515Z AUTO 00000KT 10SM CLR 13/00 A3028 RMK AO2,M
BAM,2023-05-16 15:15,-116.8743,40.5990,1382.36,60.80,42.80,51.45,0.00,0.00,0.00,30.27,M,10.00,M,CLR,M,M,M,M,M,M,M,M,M,M,M,M,M,M,60.80,KBAM 161515Z AUTO 00000KT 10SM CLR 16/06 A3027 RMK AO1,M
HTH,2023-05-16 15:15,-118.6315,38.5448,1282.89,60.80,37.40,41.71,330.00,4.00,0.00,30.25,M,10.00,M,CLR,M,M,M,M,M,M,M,M,M,M,M,M,M,M,60.80,KHTH 161515Z AUTO 33004KT 10SM CLR 16/03 A3025 RMK A01,M
TMT,2023-05-16 15:15,-117.1971,39.4643,1749.34,53.20,37.40,54.87,0.00,0.00,0.00,30.32,M,10.00,M,CLR,M,M,M,M,M,M,M,M,M,M,M,M,M,M,53.20,KTMT 161515Z AUTO 00000KT 10SM CLR 12/03 A3032 RMK AO2 T01180030,M
05U,2023-05-16 15:30,-116.0051,39.6042,1811.23,64.40,39.20,39.43,10.00,3.00,0.00,30.34,M,10.00,M,CLR,M,M,M,M,M,M,M,M,M,M,M,M,M,M,64.40,K05U 161530Z AUTO 01003KT 10SM CLR 18/04 A3034 RMK A01,M
BVU,2023-05-16 15:35,-114.8611,35.9475,671.00,86.00,42.80,22.02,10.00,4.00,0.00,30.04,M,10.00,M,CLR,M,M,M,M,M,M,M,M,M,M,M,M,M,M,82.95,KBVU 161535Z AUTO 01004KT 10SM CLR 30/06 A3004 RMK AO2,M
CXP,2023-05-16 15:35,-119.7326,39.1923,1431.00,57.20,33.80,41.13,0.00,0.00,0.00,30.28,M,10.00,M,CLR,M,M,M,M,M,M,M,M,M,M,M,M,M,M,57.20,KCXP 161535Z AUTO 00000KT 10SM CLR 14/01 A3028 RMK AO2,M
RTS,2023-05-16 15:35,-119.8764,39.6682,1539.00,57.20,33.80,41.13,0.00,0.00,0.00,30.28,M,10.00,M,CLR,M,M,M,M,M,M,M,M,M,M,M,M,M,M,57.20,KRTS 161535Z AUTO 00000KT 10SM CLR 14/01 A3028 RMK AO2,M
MEV,2023-05-16 15:35,-119.7500,38.9963,1441.42,57.20,35.60,44.19,0.00,0.00,0.00,30.27,M,10.00,M,CLR,M,M,M,M,M,M,M,M,M,M,M,M,M,M,57.20,KMEV 161535Z AUTO 00000KT 10SM CLR 14/02 A3027 RMK AO2,M
BAM,2023-05-16 15:35,-116.8743,40.5990,1382.36,62.60,42.80,48.28,0.00,0.00,0.00,30.27,M,10.00,M,CLR,M,M,M,M,M,M,M,M,M,M,M,M,M,M,62.60,KBAM 161535Z AUTO 00000KT 10SM CLR 17/06 A3027 RMK AO1,M
HTH,2023-05-16 15:35,-118.6315,38.5448,1282.89,62.60,35.60,36.45,320.00,5.00,0.00,30.25,M,10.00,M,CLR,M,M,M,M,M,M,M,M,M,M,M,M,M,M,62.60,KHTH 161535Z AUTO 32005KT 10SM CLR 17/02 A3025 RMK A01,M
TMT,2023-05-16 15:35,-117.1971,39.4643,1749.34,55.00,39.60,56.20,270.00,3.00,0.00,30.32,M,10.00,M,CLR,M,M,M,M,M,M,M,M,M,M,M,M,M,M,54.90,KTMT 161535Z AUTO 27003KT 10SM CLR 13/04 A3032 RMK AO2 T01270042,M
05U,2023-05-16 15:50,-116.0051,39.6042,1811.23,64.40,39.20,39.43,0.00,0.00,0.00,30.33,M,10.00,M,CLR,M,M,M,M,M,M,M,M,M,M,M,M,M,M,64.40,K05U 161550Z AUTO 00000KT 10SM CLR 18/04 A3033 RMK A01,M
P68,2023-05-16 15:53,-116.0056,39.6014,1993.00,63.00,39.00,41.09,0.00,0.00,0.00,30.30,1019.60,M,M,M,M,M,M,M,M,M,M,M,M,M,M,M,M,M,63.00,KP68 161553Z AUTO 00000KT 17/04 A3030 RMK AO1 SLP196 T01720039,M
ELY,2023-05-16 15:53,-114.8453,39.2950,1909.00,57.00,39.00,50.88,180.00,6.00,0.00,30.33,1020.10,10.00,M,CLR,M,M,M,M,M,M,M,M,M,M,M,M,M,M,57.00,KELY 161553Z AUTO 18006KT 10SM CLR 14/04 A3033 RMK AO2 SLP201 T01390039,M
VGT,2023-05-16 15:53,-115.1933,36.2111,667.00,88.00,41.00,19.28,40.00,4.00,0.00,30.05,1016.20,10.00,M,CLR,M,M,M,M,M,M,M,M,M,M,M,M,M,M,84.46,KVGT 161553Z 04004KT 10SM CLR 31/05 A3005 RMK AO2 SLP162 T03110050,M
LOL,2023-05-16 15:53,-118.5701,40.0684,1192.43,65.00,33.00,30.44,0.00,0.00,0.00,30.21,1020.10,10.00,M,CLR,M,M,M,M,M,M,M,M,M,M,M,M,M,M,64.90,KLOL 161553Z AUTO 00000KT 10SM CLR 18/01 A3021 RMK AO2 SLP201 T01830006,M
BVU,2023-05-16 15:55,-114.8611,35.9475,671.00,87.80,42.80,20.79,40.00,5.00,0.00,30.04,M,10.00,M,CLR,M,M,M,M,M,M,M,M,M,M,M,M,M,M,84.40,KBVU 161555Z AUTO 04005KT 10SM CLR 31/06 A3004 RMK AO2,M
CXP,2023-05-16 15:55,-119.7326,39.1923,1431.00,59.00,33.80,38.56,0.00,0.00,0.00,30.28,M,10.00,M,CLR,M,M,M,M,M,M,M,M,M,M,M,M,M,M,59.00,KCXP 161555Z AUTO 00000KT 10SM CLR 15/01 A3028 RMK AO2,M
RTS,2023-05-16 15:55,-119.8764,39.6682,1539.00,59.00,35.60,41.42,0.00,0.00,0.00,30.27,M,10.00,M,CLR,M,M,M,M,M,M,M,M,M,M,M,M,M,M,59.00,KRTS 161555Z AUTO 00000KT 10SM CLR 15/02 A3027 RMK AO2,M
MEV,2023-05-16 15:55,-119.7500,38.9963,1441.42,57.20,35.60,44.19,M,3.00,0.00,30.27,M,10.00,M,CLR,M,M,M,M,M,M,M,M,M,M,M,M,M,M,57.20,KMEV 161555Z AUTO VRB03KT 10SM CLR 14/02 A3027 RMK AO2,M
BAM,2023-05-16 15:55,-116.8743,40.5990,1382.36,64.40,42.80,45.32,50.00,3.00,0.00,30.26,M,10.00,M,CLR,M,M,M,M,M,M,M,M,M,M,M,M,M,M,64.40,KBAM 161555Z AUTO 05003KT 10SM CLR 18/06 A3026 RMK AO1,M
HTH,2023-05-16 15:55,-118.6315,38.5448,1282.89,64.40,35.60,34.22,330.00,4.00,0.00,30.24,M,10.00,M,M,M,M,M,M,M,M,M,M,M,M,M,M,M,M,64.40,KHTH 161555Z AUTO 33004KT 10SM 18/02 A3024 RMK A01,M
TMT,2023-05-16 15:55,-117.1971,39.4643,1749.34,56.70,39.20,51.84,0.00,0.00,0.00,30.32,M,10.00,M,CLR,M,M,M,M,M,M,M,M,M,M,M,M,M,M,56.70,KTMT 161555Z AUTO 00000KT 10SM CLR 14/04 A3032 RMK AO2 T01370040,M
INS,2023-05-16 15:55,-115.6733,36.5872,955.00,75.20,31.30,19.92,0.00,0.00,0.00,30.12,1015.60,10.00,M,CLR,M,M,M,M,M,M,M,M,M,M,M,M,M,M,75.20,KINS 161555Z AUTO 00000KT 10SM CLR 24/M00 A3012 RMK AO2 SLP156 T02401004 $,M
LSV,2023-05-16 15:55,-115.0343,36.2362,570.00,88.70,38.30,16.97,10.00,10.00,0.00,30.01,1013.70,10.00,M,CLR,M,M,M,M,M,M,M,M,M,M,M,M,M,M,84.94,KLSV 161555Z AUTO 01010KT 10SM CLR 32/04 A3001 RMK AO2 SLP137 T03150035 $,M
RNO,2023-05-16 15:55,-119.7711,39.4839,1341.00,61.00,33.00,34.91,0.00,0.00,0.00,30.25,1020.10,10.00,M,CLR,M,M,M,M,M,M,M,M,M,M,M,M,M,M,61.00,KRNO 161555Z 00000KT 10SM CLR 16/01 A3025 RMK AO2 SLP201 T01610006,M
EKO,2023-05-16 15:56,-115.7860,40.8242,1367.00,60.00,46.00,59.59,0.00,0.00,0.00,30.29,1022.20,10.00,M,CLR,M,M,M,M,M,M,M,M,M,M,M,M,M,M,60.10,KEKO 161556Z AUTO 00000KT 10SM CLR 16/08 A3029 RMK AO2 SLP222 T01560078,M
HND,2023-05-16 15:56,-115.1344,35.9729,742.79,85.00,41.00,21.28,20.00,4.00,0.00,30.09,1017.70,10.00,M,CLR,M,M,M,M,M,M,M,M,M,M,M,M,M,M,82.03,KHND 161556Z 02004KT 10SM CLR 29/05 A3009 RMK AO2 SLP177 T02940050,M
TPH,2023-05-16 15:56,-117.0904,38.0505,1654.00,M,M,M,M,M,0.00,30.27,M,M,M,M,M,M,M,M,M,M,M,M,M,M,M,M,M,M,M,KTPH 161556Z AUTO A3027 RMK AO2 SLPNO PWINO $,M
NFL,2023-05-16 15:56,-118.7010,39.4166,1199.00,68.00,35.00,29.61,M,3.00,0.00,30.21,1019.30,10.00,M,CLR,M,M,M,M,M,M,M,M,M,M,M,M,M,M,68.00,KNFL 161556Z VRB03KT 10SM CLR 20/02 A3021 RMK AO2 SLP193 T02000017,M
LAS,2023-05-16 15:56,-115.1634,36.0719,663.00,86.00,40.00,19.68,10.00,7.00,0.00,30.06,1015.10,10.00,M,FEW,SCT,M,M,14000.00,25000.00,M,M,M,M,M,M,M,M,M,82.81,KLAS 161556Z 01007KT 10SM FEW140 SCT250 30/04 A3006 RMK AO2 SLP151 T03000044,M
WMC,2023-05-16 15:56,-117.8072,40.9019,1315.00,67.00,44.00,43.67,50.00,8.00,0.00,30.23,1020.70,10.00,M,CLR,M,M,M,M,M,M,M,M,M,M,M,M,M,M,66.90,KWMC 161556Z AUTO 05008KT 10SM CLR 19/07 A3023 RMK AO2 SLP207 T01940067,M
05U,2023-05-16 16:10,-116.0051,39.6042,1811.23,66.20,39.20,37.03,0.00,0.00,0.00,30.33,M,10.00,M,CLR,M,M,M,M,M,M,M,M,M,M,M,M,M,M,66.20,K05U 161610Z AUTO 00000KT 10SM CLR 19/04 A3033 RMK A01,M
BVU,2023-05-16 16:15,-114.8611,35.9475,671.00,87.80,41.00,19.40,40.00,6.00,0.00,30.04,M,10.00,M,CLR,M,M,M,M,M,M,M,M,M,M,M,M,M,M,84.30,KBVU 161615Z AUTO 04006KT 10SM CLR 31/05 A3004 RMK AO2,M
CXP,2023-05-16 16:15,-119.7326,39.1923,1431.00,60.80,33.80,36.16,0.00,0.00,0.00,30.28,M,10.00,M,CLR,M,M,M,M,M,M,M,M,M,M,M,M,M,M,60.80,KCXP 161615Z AUTO 00000KT 10SM CLR 16/01 A3028 RMK AO2,M
RTS,2023-05-16 16:15,-119.8764,39.6682,1539.00,62.60,35.60,36.45,0.00,0.00,0.00,30.27,M,10.00,M,CLR,M,M,M,M,M,M,M,M,M,M,M,M,M,M,62.60,KRTS 161615Z AUTO 00000KT 10SM CLR 17/02 A3027 RMK AO2,M
MEV,2023-05-16 16:15,-119.7500,38.9963,1441.42,59.00,35.60,41.42,0.00,0.00,0.00,30.26,M,10.00,M,CLR,M,M,M,M,M,M,M,M,M,M,M,M,M,M,59.00,KMEV 161615Z AUTO 00000KT 10SM CLR 15/02 A3026 RMK AO2,M
BAM,2023-05-16 16:15,-116.8743,40.5990,1382.36,66.20,42.80,42.57,40.00,3.00,0.00,30.26,M,10.00,M,CLR,M,M,M,M,M,M,M,M,M,M,M,M,M,M,66.20,KBAM 161615Z AUTO 04003KT 10SM CLR 19/06 A3026 RMK AO1,M
HTH,2023-05-16 16:15,-118.6315,38.5448,1282.89,66.20,35.60,32.14,330.00,4.00,0.00,30.24,M,10.00,M,CLR,M,M,M,M,M,M,M,M,M,M,M,M,M,M,66.20,KHTH 161615Z AUTO 33004KT 10SM CLR 19/02 A3024 RMK A01,M
05U,2023-05-16 16:30,-116.0051,39.6042,1811.23,68.00,37.40,32.43,10.00,4.00,0.00,30.33,M,10.00,M,CLR,M,M,M,M,M,M,M,M,M,M,M,M,M,M,68.00,K05U 161630Z AUTO 01004KT 10SM CLR 20/03 A3033 RMK A01,M
HTH,2023-05-16 16:30,-118.6315,38.5448,1282.89,66.20,39.20,37.03,310.00,5.00,0.00,30.24,M,10.00,M,CLR,M,M,M,M,M,M,M,M,M,M,M,M,M,M,66.20,KHTH 161630Z AUTO 31005KT 10SM CLR 19/04 A3024 RMK A01,M
BVU,2023-05-16 16:35,-114.8611,35.9475,671.00,89.60,41.00,18.33,40.00,4.00,0.00,30.04,M,10.00,M,CLR,M,M,M,M,M,M,M,M,M,M,M,M,M,M,85.82,KBVU 161635Z AUTO 04004KT 10SM CLR 32/05 A3004 RMK AO2,M
CXP,2023-05-16 16:35,-119.7326,39.1923,1431.00,62.60,33.80,33.93,0.00,0.00,0.00,30.27,M,10.00,M,CLR,M,M,M,M,M,M,M,M,M,M,M,M,M,M,62.60,KCXP 161635Z AUTO 00000KT 10SM CLR 17/01 A3027 RMK AO2,M
RTS,2023-05-16 16:35,-119.8764,39.6682,1539.00,64.40,33.80,31.85,M,3.00,0.00,30.27,M,10.00,M,CLR,M,M,M,M,M,M,M,M,M,M,M,M,M,M,64.40,KRTS 161635Z AUTO VRB03KT 10SM CLR 18/01 A3027 RMK AO2,M
MEV,2023-05-16 16:35,-119.7500,38.9963,1441.42,60.80,37.40,41.71,0.00,0.00,0.00,30.26,M,10.00,M,CLR,M,M,M,M,M,M,M,M,M,M,M,M,M,M,60.80,KMEV 161635Z AUTO 00000KT 10SM CLR 16/03 A3026 RMK AO2,M
BAM,2023-05-16 16:35,-116.8743,40.5990,1382.36,68.00,42.80,40.00,0.00,0.00,0.00,30.26,M,10.00,M,CLR,M,M,M,M,M,M,M,M,M,M,M,M,M,M,68.00,KBAM 161635Z AUTO 00000KT 10SM CLR 20/06 A3026 RMK AO1,M
TMT,2023-05-16 16:35,-117.1971,39.4643,1749.34,62.20,36.00,37.56,0.00,0.00,0.00,30.31,M,10.00,M,CLR,M,M,M,M,M,M,M,M,M,M,M,M,M,M,62.20,KTMT 161635Z AUTO 00000KT 10SM CLR 17/02 A3031 RMK AO2 T01680022,M
05U,2023-05-16 16:50,-116.0051,39.6042,1811.23,69.80,37.40,30.49,10.00,6.00,0.00,30.32,M,10.00,M,CLR,M,M,M,M,M,M,M,M,M,M,M,M,M,M,69.80,K05U 161650Z AUTO 01006KT 10SM CLR 21/03 A3032 RMK A01,M
P68,2023-05-16 16:53,-116.0056,39.6014,1993.00,68.00,38.00,33.07,M,M,0.00,30.29,1019.10,M,M,M,M,M,M,M,M,M,M,M,M,M,M,M,M,M,68.00,KP68 161653Z AUTO 20/03 A3029 RMK AO1 SLP191 T02000033,M
ELY,2023-05-16 16:53,-114.8453,39.2950,1909.00,61.00,35.00,37.81,0.00,0.00,0.00,30.32,1019.80,10.00,M,CLR,M,M,M,M,M,M,M,M,M,M,M,M,M,M,61.00,KELY 161653Z AUTO 00000KT 10SM CLR 16/02 A3032 RMK AO2 SLP198 T01610017,M
VGT,2023-05-16 16:53,-115.1933,36.2111,667.00,90.00,42.00,18.88,80.00,4.00,0.00,30.05,1016.20,10.00,M,CLR,M,M,M,M,M,M,M,M,M,M,M,M,M,M,86.23,KVGT 161653Z 08004KT 10SM CLR 32/06 A3005 RMK AO2 SLP162 T03220056,M
LOL,2023-05-16 16:53,-118.5701,40.0684,1192.43,71.00,35.00,26.63,0.00,0.00,0.00,30.20,1019.70,10.00,M,CLR,M,M,M,M,M,M,M,M,M,M,M,M,M,M,71.10,KLOL 161653Z AUTO 00000KT 10SM CLR 22/02 A3020 RMK AO2 SLP197 T02170017,M
BVU,2023-05-16 16:55,-114.8611,35.9475,671.00,89.60,41.00,18.33,10.00,4.00,0.00,30.04,M,10.00,M,CLR,M,M,M,M,M,M,M,M,M,M,M,M,M,M,85.82,KBVU 161655Z AUTO 01004KT 10SM CLR 32/05 A3004 RMK AO2,M
CXP,2023-05-16 16:55,-119.7326,39.1923,1431.00,64.40,32.00,29.63,0.00,0.00,0.00,30.26,M,10.00,M,CLR,M,M,M,M,M,M,M,M,M,M,M,M,M,M,64.40,KCXP 161655Z AUTO 00000KT 10SM CLR 18/00 A3026 RMK AO2,M
RTS,2023-05-16 16:55,-119.8764,39.6682,1539.00,66.20,33.80,29.92,100.00,5.00,0.00,30.26,M,10.00,M,CLR,M,M,M,M,M,M,M,M,M,M,M,M,M,M,66.20,KRTS 161655Z AUTO 10005KT 10SM CLR 19/01 A3026 RMK AO2,M
MEV,2023-05-16 16:55,-119.7500,38.9963,1441.42,62.60,35.60,36.45,0.00,0.00,0.00,30.25,M,10.00,M,CLR,M,M,M,M,M,M,M,M,M,M,M,M,M,M,62.60,KMEV 161655Z AUTO 00000KT 10SM CLR 17/02 A3025 RMK AO2,M
BAM,2023-05-16 16:55,-116.8743,40.5990,1382.36,69.80,42.80,37.61,10.00,5.00,0.00,30.26,M,10.00,M,CLR,M,M,M,M,M,M,M,M,M,M,M,M,M,M,69.80,KBAM 161655Z AUTO 01005KT 10SM CLR 21/06 A3026 RMK AO1,M
HTH,2023-05-16 16:55,-118.6315,38.5448,1282.89,68.00,39.20,34.80,20.00,5.00,0.00,30.23,M,10.00,M,CLR,M,M,M,M,M,M,M,M,M,M,M,M,M,M,68.00,KHTH 161655Z AUTO 02005KT 10SM CLR 20/04 A3023 RMK A01,M
TMT,2023-05-16 16:55,-117.1971,39.4643,1749.34,63.50,34.00,33.14,0.00,0.00,0.00,30.30,M,10.00,M,CLR,M,M,M,M,M,M,M,M,M,M,M,M,M,M,63.50,KTMT 161655Z AUTO 00000KT 10SM CLR 18/01 A3030 RMK AO2 T01750011,M
INS,2023-05-16 16:55,-115.6733,36.5872,955.00,76.00,26.60,15.95,0.00,0.00,0.00,30.11,1015.20,10.00,M,SCT,M,M,M,15000.00,M,M,M,M,M,M,M,M,M,M,76.10,KINS 161655Z AUTO 00000KT 10SM SCT150 25/M03 A3011 RMK AO2 SLP152 T02451030 $,M
LSV,2023-05-16 16:55,-115.0343,36.2362,570.00,91.80,40.60,16.84,0.00,0.00,0.00,30.00,1013.30,10.00,M,CLR,M,M,M,M,M,M,M,M,M,M,M,M,M,M,87.74,KLSV 161655Z AUTO 00000KT 10SM CLR 33/05 A3000 RMK AO2 SLP133 T03320048 $,M
RNO,2023-05-16 16:55,-119.7711,39.4839,1341.00,66.00,33.00,29.29,0.00,0.00,0.00,30.23,1019.30,10.00,M,CLR,M,M,M,M,M,M,M,M,M,M,M,M,M,M,66.00,KRNO 161655Z 00000KT 10SM CLR 19/01 A3023 RMK AO2 SLP193 T01890006,M
EKO,2023-05-16 16:56,-115.7860,40.8242,1367.00,66.00,46.00,48.43,0.00,0.00,0.00,30.26,1021.00,10.00,M,CLR,M,M,M,M,M,M,M,M,M,M,M,M,M,M,66.00,KEKO 161656Z AUTO 00000KT 10SM CLR 19/08 A3026 RMK AO2 SLP210 T01890078,M
WMC,2023-05-16 16:56,-117.8072,40.9019,1315.00,72.00,43.00,35.16,70.00,6.00,0.00,30.22,1019.80,10.00,M,CLR,M,M,M,M,M,M,M,M,M,M,M,M,M,M,72.00,KWMC 161656Z AUTO 07006KT 10SM CLR 22/06 A3022 RMK AO2 SLP198 T02220061,M
NFL,2023-05-16 16:56,-118.7010,39.4166,1199.00,72.00,36.00,26.77,0.00,0.00,0.00,30.20,1019.10,10.00,M,FEW,SCT,M,M,7000.00,20000.00,M,M,M,M,M,M,M,M,M,72.00,KNFL 161656Z 00000KT 10SM FEW070 SCT200 22/02 A3020 RMK AO2 SLP191 T02220022,M
HND,2023-05-16 16:56,-115.1344,35.9729,742.79,87.00,43.00,21.42,M,3.00,0.00,30.09,1017.30,10.00,M,CLR,M,M,M,M,M,M,M,M,M,M,M,M,M,M,83.84,KHND 161656Z VRB03KT 10SM CLR 31/06 A3009 RMK AO2 SLP173 T03060061,M
TPH,2023-05-16 16:56,-117.0904,38.0505,1654.00,M,M,M,M,M,0.00,30.26,M,M,M,M,M,M,M,M,M,M,M,M,M,M,M,M,M,M,M,KTPH 161656Z AUTO A3026 RMK AO2 SLPNO PWINO $,M
LAS,2023-05-16 16:56,-115.1634,36.0719,663.00,90.00,41.00,18.10,M,4.00,0.00,30.06,1014.90,10.00,M,FEW,FEW,SCT,M,11000.00,14000.00,25000.00,M,M,M,M,M,M,M,M,86.16,KLAS 161656Z VRB04KT 10SM FEW110 FEW140 SCT250 32/05 A3006 RMK AO2 SLP149 TCU DSNT W-NW T03220050,M
05U,2023-05-16 17:10,-116.0051,39.6042,1811.23,69.80,37.40,30.49,10.00,5.00,0.00,30.31,M,10.00,M,CLR,M,M,M,M,M,M,M,M,M,M,M,M,M,M,69.80,K05U 161710Z AUTO 01005KT 10SM CLR 21/03 A3031 RMK A01,M
BVU,2023-05-16 17:15,-114.8611,35.9475,671.00,89.60,39.20,17.09,10.00,6.00,0.00,30.04,M,10.00,M,CLR,M,M,M,M,M,M,M,M,M,M,M,M,M,M,85.73,KBVU 161715Z AUTO 01006KT 10SM CLR 32/04 A3004 RMK AO2,M
CXP,2023-05-16 17:15,-119.7326,39.1923,1431.00,68.00,32.00,26.15,220.00,3.00,0.00,30.26,M,10.00,M,CLR,M,M,M,M,M,M,M,M,M,M,M,M,M,M,68.00,KCXP 161715Z AUTO 22003KT 10SM CLR 20/M00 A3026 RMK AO2,M
RTS,2023-05-16 17:15,-119.8764,39.6682,1539.00,68.00,32.00,26.15,120.00,7.00,0.00,30.26,M,10.00,M,CLR,M,M,M,M,M,M,M,M,M,M,M,M,M,M,68.00,KRTS 161715Z AUTO 12007KT 100V160 10SM CLR 20/M00 A3026 RMK AO2,M
MEV,2023-05-16 17:15,-119.7500,38.9963,1441.42,64.40,32.00,29.63,0.00,0.00,0.00,30.24,M,10.00,M,CLR,M,M,M,M,M,M,M,M,M,M,M,M,M,M,64.40,KMEV 161715Z AUTO 00000KT 10SM CLR 18/00 A3024 RMK AO2,M
BAM,2023-05-16 17:15,-116.8743,40.5990,1382.36,71.60,41.00,33.00,360.00,4.00,0.00,30.25,M,10.00,M,CLR,M,M,M,M,M,M,M,M,M,M,M,M,M,M,71.60,KBAM 161715Z AUTO 36004KT 10SM CLR 22/05 A3025 RMK AO1,M
HTH,2023-05-16 17:15,-118.6315,38.5448,1282.89,69.80,37.40,30.49,20.00,5.00,0.00,30.22,M,10.00,M,CLR,M,M,M,M,M,M,M,M,M,M,M,M,M,M,69.80,KHTH 161715Z AUTO 02005KT 10SM CLR 21/03 A3022 RMK A01,M
TMT,2023-05-16 17:15,-117.1971,39.4643,1749.34,66.40,35.80,32.17,310.00,4.00,0.00,30.29,M,10.00,M,CLR,M,M,M,M,M,M,M,M,M,M,M,M,M,M,66.40,KTMT 161715Z AUTO 31004KT 10SM CLR 19/02 A3029 RMK AO2 T01910021,M
05U,2023-05-16 17:30,-116.0051,39.6042,1811.23,71.60,35.60,26.71,20.00,5.00,0.00,30.31,M,10.00,M,CLR,M,M,M,M,M,M,M,M,M,M,M,M,M,M,71.60,K05U 161730Z AUTO 02005KT 10SM CLR 22/02 A3031 RMK A01,M
BVU,2023-05-16 17:35,-114.8611,35.9475,671.00,91.40,39.20,16.15,0.00,0.00,0.00,30.03,M,10.00,M,CLR,M,M,M,M,M,M,M,M,M,M,M,M,M,M,87.30,KBVU 161735Z AUTO 00000KT 10SM CLR 33/04 A3003 RMK AO2,M
CXP,2023-05-16 17:35,-119.7326,39.1923,1431.00,68.00,30.20,24.32,0.00,0.00,0.00,30.25,M,10.00,M,CLR,M,M,M,M,M,M,M,M,M,M,M,M,M,M,68.00,KCXP 161735Z AUTO 00000KT 10SM CLR 20/M01 A3025 RMK AO2,M
RTS,2023-05-16 17:35,-119.8764,39.6682,1539.00,69.80,28.40,21.24,130.00,9.00,0.00,30.25,M,10.00,M,CLR,M,M,M,M,M,M,M,M,M,M,M,M,M,M,69.80,KRTS 161735Z AUTO 13009KT 10SM CLR 21/M02 A3025 RMK AO2,M
MEV,2023-05-16 17:35,-119.7500,38.9963,1441.42,66.20,33.80,29.92,0.00,0.00,0.00,30.24,M,10.00,M,CLR,M,M,M,M,M,M,M,M,M,M,M,M,M,M,66.20,KMEV 161735Z AUTO 00000KT 10SM CLR 19/01 A3024 RMK AO2,M
BAM,2023-05-16 17:35,-116.8743,40.5990,1382.36,71.60,41.00,33.00,0.00,0.00,0.00,30.24,M,10.00,M,CLR,M,M,M,M,M,M,M,M,M,M,M,M,M,M,71.60,KBAM 161735Z AUTO 00000KT 10SM CLR 22/05 A3024 RMK AO1,M
HTH,2023-05-16 17:35,-118.6315,38.5448,1282.89,71.60,35.60,26.71,M,4.00,0.00,30.22,M,10.00,M,CLR,M,M,M,M,M,M,M,M,M,M,M,M,M,M,71.60,KHTH 161735Z AUTO VRB04KT 10SM CLR 22/02 A3022 RMK A01,M
TMT,2023-05-16 17:35,-117.1971,39.4643,1749.34,66.70,35.40,31.34,330.00,4.00,0.00,30.29,M,10.00,M,CLR,M,M,M,M,M,M,M,M,M,M,M,M,M,M,66.70,KTMT 161735Z AUTO 33004KT 10SM CLR 19/02 A3029 RMK AO2 T01930019,M
05U,2023-05-16 17:50,-116.0051,39.6042,1811.23,71.60,37.40,28.68,M,4.00,0.00,30.31,M,10.00,M,CLR,M,M,M,M,M,M,M,M,M,M,M,M,M,M,71.60,K05U 161750Z AUTO VRB04KT 10SM CLR 22/03 A3031 RMK A01,M
LOL,2023-05-16 17:53,-118.5701,40.0684,1192.43,75.00,35.00,23.35,M,3.00,0.00,30.19,1018.90,10.00,M,CLR,M,M,M,M,M,M,M,M,M,M,M,M,M,M,75.00,KLOL 161753Z AUTO VRB03KT 10SM CLR 24/02 A3019 RMK AO2 SLP189 T02390017 10239 20061 58008,M
P68,2023-05-16 17:53,-116.0056,39.6014,1993.00,71.00,38.00,29.74,M,M,0.00,30.28,1018.40,M,M,M,M,M,M,M,M,M,M,M,M,M,M,M,M,M,71.10,KP68 161753Z AUTO 22/03 A3028 RMK AO1 SLP184 T02170033 10217 20061 58009,M
VGT,2023-05-16 17:53,-115.1933,36.2111,667.00,92.00,42.00,17.79,120.00,6.00,0.00,30.03,1015.70,10.00,M,CLR,M,M,M,M,M,M,M,M,M,M,M,M,M,M,87.92,KVGT 161753Z 12006KT 10SM CLR 33/06 A3003 RMK AO2 LTG DSNT W SLP157 T03330056 10333 20244 58008,M
CXP,2023-05-16 17:55,-119.7326,39.1923,1431.00,71.60,30.20,21.50,0.00,0.00,0.00,30.24,M,10.00,M,CLR,M,M,M,M,M,M,M,M,M,M,M,M,M,M,71.60,KCXP 161755Z AUTO 00000KT 10SM CLR 22/M01 A3024 RMK AO2,M
RNO,2023-05-16 17:55,-119.7711,39.4839,1341.00,73.00,32.00,22.06,M,3.00,0.00,30.21,1018.30,10.00,M,CLR,M,M,M,M,M,M,M,M,M,M,M,M,M,M,73.00,KRNO 161755Z VRB03KT 10SM CLR 23/00 A3021 RMK AO2 SLP183 T02280000 10233 20094 58014,M
RTS,2023-05-16 17:55,-119.8764,39.6682,1539.00,71.60,24.80,17.22,140.00,12.00,0.00,30.25,M,10.00,M,CLR,M,M,M,M,M,M,M,M,M,M,M,M,M,M,71.60,KRTS 161755Z AUTO 14012KT 10SM CLR 22/M04 A3025 RMK AO2,M
MEV,2023-05-16 17:55,-119.7500,38.9963,1441.42,68.00,35.60,30.20,0.00,0.00,0.00,30.23,M,10.00,M,CLR,M,M,M,M,M,M,M,M,M,M,M,M,M,M,68.00,KMEV 161755Z AUTO 00000KT 10SM CLR 20/02 A3023 RMK AO2,M
BAM,2023-05-16 17:55,-116.8743,40.5990,1382.36,73.40,41.00,31.05,350.00,3.00,0.00,30.24,M,10.00,M,CLR,M,M,M,M,M,M,M,M,M,M,M,M,M,M,73.40,KBAM 161755Z AUTO 35003KT 10SM CLR 23/05 A3024 RMK AO1,M
HTH,2023-05-16 17:55,-118.6315,38.5448,1282.89,73.40,33.80,23.39,0.00,0.00,0.00,30.21,M,10.00,M,CLR,M,M,M,M,M,M,M,M,M,M,M,M,M,M,73.40,KHTH 161755Z AUTO 00000KT 10SM CLR 23/01 A3021 RMK A01,M
INS,2023-05-16 17:55,-115.6733,36.5872,955.00,82.60,34.70,17.90,0.00,0.00,0.00,30.10,1014.90,10.00,M,BKN,M,M,M,11000.00,M,M,M,M,M,M,M,M,M,M,80.19,KINS 161755Z AUTO 00000KT 10SM BKN110 28/02 A3010 RMK AO2 SLP149 60000 T02810015 10282 20171 57008 $,M
LSV,2023-05-16 17:55,-115.0343,36.2362,570.00,94.60,39.70,14.91,70.00,6.00,0.00,29.99,1012.80,10.00,M,CLR,M,M,M,M,M,M,M,M,M,M,M,M,M,M,90.23,KLSV 161755Z AUTO 07006KT 10SM CLR 35/04 A2999 RMK AO2 LTG DSNT S SLP128 T03480043 10348 20260 57010 $,M
TMT,2023-05-16 17:55,-117.1971,39.4643,1749.34,69.00,36.50,30.14,0.00,0.00,0.00,30.29,M,10.00,M,CLR,M,M,M,M,M,M,M,M,M,M,M,M,M,M,69.10,KTMT 161755Z AUTO 00000KT 10SM CLR 21/03 A3029 RMK AO2 LTG DSNT S T02060025 10206 20015,M
WMC,2023-05-16 17:56,-117.8072,40.9019,1315.00,76.00,37.00,24.43,M,4.00,0.00,30.21,1019.50,10.00,M,CLR,M,M,M,M,M,M,M,M,M,M,M,M,M,M,75.90,KWMC 161756Z AUTO VRB04KT 10SM CLR 24/03 A3021 RMK AO2 SLP195 T02440028 10244 20056 58009,M
HND,2023-05-16 17:56,-115.1344,35.9729,742.79,90.00,43.00,19.55,M,4.00,0.00,30.07,1016.70,10.00,M,CLR,M,M,M,M,M,M,M,M,M,M,M,M,M,M,86.29,KHND 161756Z VRB04KT 10SM CLR 32/06 A3007 RMK AO2 SLP167 T03220061 10328 20228 58008,M
TPH,2023-05-16 17:56,-117.0904,38.0505,1654.00,M,M,M,M,M,0.00,30.25,M,M,M,M,M,M,M,M,M,M,M,M,M,M,M,M,M,M,M,KTPH 161756Z AUTO A3025 RMK AO2 SLPNO 58006 PWINO $,M
LAS,2023-05-16 17:56,-115.1634,36.0719,663.00,91.00,41.00,17.54,M,5.00,0.00,30.04,1014.40,10.00,M,FEW,FEW,M,M,11000.00,25000.00,M,M,M,M,M,M,M,M,M,87.04,KLAS 161756Z VRB05KT 10SM FEW110 FEW250 33/05 A3004 RMK AO2 LTG DSNT NW SLP144 CB DSNT NW TCU DSNT S T03280050 10328 20250 58006,M
NFL,2023-05-16 17:56,-118.7010,39.4166,1199.00,76.00,34.00,21.69,220.00,4.00,0.00,30.19,1018.60,10.00,M,SCT,SCT,M,M,15000.00,22000.00,M,M,M,M,M,M,M,M,M,75.90,KNFL 161756Z 22004KT 10SM SCT150 SCT220 24/01 A3019 RMK SLP186 T02440011 10250 20089 58009,M
EKO,2023-05-16 17:56,-115.7860,40.8242,1367.00,71.00,42.00,35.02,M,3.00,0.00,30.25,1020.40,10.00,M,CLR,M,M,M,M,M,M,M,M,M,M,M,M,M,M,71.10,KEKO 161756Z AUTO VRB03KT 10SM CLR 22/06 A3025 RMK AO2 SLP204 T02170056 10217 20067 58014,M
05U,2023-05-16 18:10,-116.0051,39.6042,1811.23,73.40,37.40,26.98,110.00,3.00,0.00,30.30,M,10.00,M,CLR,M,M,M,M,M,M,M,M,M,M,M,M,M,M,73.40,K05U 161810Z AUTO 11003KT 10SM CLR 23/03 A3030 RMK A01,M
BVU,2023-05-16 18:15,-114.8611,35.9475,671.00,93.20,39.20,15.27,70.00,9.00,0.00,30.02,M,10.00,15.00,CLR,M,M,M,M,M,M,M,M,M,M,M,M,M,M,88.92,KBVU 161815Z AUTO 07009G15KT 10SM CLR 34/04 A3002 RMK AO2,M
CXP,2023-05-16 18:15,-119.7326,39.1923,1431.00,73.40,30.20,20.23,0.00,0.00,0.00,30.24,M,10.00,M,CLR,M,M,M,M,M,M,M,M,M,M,M,M,M,M,73.40,KCXP 161815Z AUTO 00000KT 10SM CLR 23/M01 A3024 RMK AO2,M
RTS,2023-05-16 18:15,-119.8764,39.6682,1539.00,71.60,24.80,17.22,140.00,12.00,0.00,30.24,M,10.00,M,CLR,M,M,M,M,M,M,M,M,M,M,M,M,M,M,71.60,KRTS 161815Z AUTO 14012KT 10SM CLR 22/M04 A3024 RMK AO2,M
MEV,2023-05-16 18:15,-119.7500,38.9963,1441.42,69.80,35.60,28.39,M,3.00,0.00,30.23,M,10.00,M,CLR,M,M,M,M,M,M,M,M,M,M,M,M,M,M,69.80,KMEV 161815Z AUTO VRB03KT 10SM CLR 21/02 A3023 RMK AO2,M
BAM,2023-05-16 18:15,-116.8743,40.5990,1382.36,73.40,41.00,31.05,0.00,0.00,0.00,30.24,M,10.00,M,CLR,M,M,M,M,M,M,M,M,M,M,M,M,M,M,73.40,KBAM 161815Z AUTO 00000KT 10SM CLR 23/05 A3024 RMK AO1,M
HTH,2023-05-16 18:15,-118.6315,38.5448,1282.89,75.20,32.00,20.49,M,5.00,0.00,30.21,M,10.00,M,CLR,M,M,M,M,M,M,M,M,M,M,M,M,M,M,75.20,KHTH 161815Z AUTO VRB05KT 10SM CLR 24/00 A3021 RMK A01,M
TMT,2023-05-16 18:15,-117.1971,39.4643,1749.34,71.80,37.00,27.93,80.00,5.00,0.00,30.28,M,10.00,M,CLR,M,M,M,M,M,M,M,M,M,M,M,M,M,M,71.80,KTMT 161815Z AUTO 08005KT 10SM CLR 22/03 A3028 RMK AO2 T02210027,M
05U,2023-05-16 18:30,-116.0051,39.6042,1811.23,75.20,37.40,25.40,0.00,0.00,0.00,30.29,M,10.00,M,CLR,M,M,M,M,M,M,M,M,M,M,M,M,M,M,75.20,K05U 161830Z AUTO 00000KT 10SM CLR 24/03 A3029 RMK A01,M
BVU,2023-05-16 18:35,-114.8611,35.9475,671.00,91.40,39.20,16.15,20.00,7.00,0.00,30.01,M,10.00,M,CLR,M,M,M,M,M,M,M,M,M,M,M,M,M,M,87.30,KBVU 161835Z AUTO 02007KT 10SM CLR 33/04 A3001 RMK AO2,M
CXP,2023-05-16 18:35,-119.7326,39.1923,1431.00,75.20,30.20,19.05,120.00,5.00,0.00,30.23,M,10.00,M,CLR,M,M,M,M,M,M,M,M,M,M,M,M,M,M,75.20,KCXP 161835Z AUTO 12005KT 10SM CLR 24/M01 A3023 RMK AO2,M
RTS,2023-05-16 18:35,-119.8764,39.6682,1539.00,73.40,24.80,16.20,150.00,11.00,0.00,30.24,M,10.00,17.00,CLR,M,M,M,M,M,M,M,M,M,M,M,M,M,M,73.40,KRTS 161835Z AUTO 15011G17KT 10SM CLR 23/M04 A3024 RMK AO2,M
MEV,2023-05-16 18:35,-119.7500,38.9963,1441.42,71.60,33.80,24.86,0.00,0.00,0.00,30.22,M,10.00,M,CLR,M,M,M,M,M,M,M,M,M,M,M,M,M,M,71.60,KMEV 161835Z AUTO 00000KT 10SM CLR 22/01 A3022 RMK AO2,M
BAM,2023-05-16 18:35,-116.8743,40.5990,1382.36,77.00,41.00,27.53,30.00,5.00,0.00,30.23,M,10.00,M,CLR,M,M,M,M,M,M,M,M,M,M,M,M,M,M,77.00,KBAM 161835Z AUTO 03005KT 10SM CLR 25/05 A3023 RMK AO1,M
HTH,2023-05-16 18:35,-118.6315,38.5448,1282.89,77.00,32.00,19.30,340.00,7.00,0.00,30.20,M,10.00,M,CLR,M,M,M,M,M,M,M,M,M,M,M,M,M,M,77.00,KHTH 161835Z AUTO 34007KT 10SM CLR 25/00 A3020 RMK A01,M
TMT,2023-05-16 18:35,-117.1971,39.4643,1749.34,71.00,35.00,26.63,110.00,5.00,0.00,30.28,M,10.00,M,CLR,M,M,M,M,M,M,M,M,M,M,M,M,M,M,71.10,KTMT 161835Z AUTO 11005KT 10SM CLR 22/02 A3028 RMK AO2 T02170017,M
INS,2023-05-16 18:49,-115.6733,36.5872,955.00,78.80,39.20,24.19,110.00,10.00,0.00,30.11,1015.60,5.00,35.00,FEW,FEW,SCT,BKN,2400.00,5500.00,7500.00,9500.00,-RA,M,M,M,M,M,M,78.80,KINS 161849Z AUTO 11010G35KT 5SM -RA FEW024 FEW055 SCT075 BKN095 OVC110 26/04 A3011 RMK AO2 RAB49 SLP156 $,M
05U,2023-05-16 18:50,-116.0051,39.6042,1811.23,75.20,37.40,25.40,110.00,5.00,0.00,30.29,M,10.00,M,CLR,M,M,M,M,M,M,M,M,M,M,M,M,M,M,75.20,K05U 161850Z AUTO 11005KT 10SM CLR 24/03 A3029 RMK A01,M
P68,2023-05-16 18:53,-116.0056,39.6014,1993.00,72.00,36.00,26.77,80.00,5.00,0.00,30.25,1018.10,M,M,M,M,M,M,M,M,M,M,M,M,M,M,M,M,M,72.00,KP68 161853Z AUTO 08005KT 22/02 A3025 RMK AO1 SLP181 T02220022,M
LOL,2023-05-16 18:53,-118.5701,40.0684,1192.43,78.00,32.00,18.61,M,4.00,0.00,30.17,1018.40,10.00,M,CLR,M,M,M,M,M,M,M,M,M,M,M,M,M,M,78.10,KLOL 161853Z AUTO VRB04KT 10SM CLR 26/00 A3017 RMK AO2 SLP184 T02560000,M
VGT,2023-05-16 18:53,-115.1933,36.2111,667.00,92.00,41.00,17.05,M,3.00,0.00,30.01,1015.00,10.00,M,CLR,M,M,M,M,M,M,M,M,M,M,M,M,M,M,87.85,KVGT 161853Z VRB03KT 10SM CLR 33/05 A3001 RMK AO2 LTG DSNT N AND SW SLP150 T03330050,M
DRA,2023-05-16 18:53,-116.0278,36.6206,1009.00,89.00,35.00,14.77,50.00,3.00,0.00,30.09,1014.10,10.00,M,CLR,M,M,M,M,M,M,M,M,M,M,M,M,M,M,85.19,KDRA 161853Z AUTO 05003KT 10SM CLR 32/02 A3009 RMK AO2 SLP141 T03170017,M
ELY,2023-05-16 18:53,-114.8453,39.2950,1909.00,69.00,38.00,31.85,M,3.00,0.00,30.29,1018.80,10.00,M,CLR,M,M,M,M,M,M,M,M,M,M,M,M,M,M,69.10,KELY 161853Z AUTO VRB03KT 10SM CLR 21/03 A3029 RMK AO2 SLP188 T02060033,M
BVU,2023-05-16 18:55,-114.8611,35.9475,671.00,93.20,39.20,15.27,40.00,7.00,0.00,30.00,M,10.00,M,CLR,M,M,M,M,M,M,M,M,M,M,M,M,M,M,88.92,KBVU 161855Z AUTO 04007KT 330V070 10SM CLR 34/04 A3000 RMK AO2 LTG DSNT SW,M
CXP,2023-05-16 18:55,-119.7326,39.1923,1431.00,77.00,28.40,16.67,M,4.00,0.00,30.22,M,10.00,M,CLR,M,M,M,M,M,M,M,M,M,M,M,M,M,M,77.00,KCXP 161855Z AUTO VRB04KT 10SM CLR 25/M02 A3022 RMK AO2,M
RNO,2023-05-16 18:55,-119.7711,39.4839,1341.00,77.00,32.00,19.30,M,4.00,0.00,30.19,1017.40,10.00,M,FEW,M,M,M,20000.00,M,M,M,M,M,M,M,M,M,M,77.00,KRNO 161855Z VRB04KT 10SM FEW200 25/00 A3019 RMK AO2 SLP174 T02500000,M
RTS,2023-05-16 18:55,-119.8764,39.6682,1539.00,73.40,26.60,17.46,120.00,10.00,0.00,30.23,M,10.00,16.00,CLR,M,M,M,M,M,M,M,M,M,M,M,M,M,M,73.40,KRTS 161855Z AUTO 12010G16KT 10SM CLR 23/M03 A3023 RMK AO2,M
MEV,2023-05-16 18:55,-119.7500,38.9963,1441.42,73.40,32.00,21.76,0.00,0.00,0.00,30.21,M,10.00,M,CLR,M,M,M,M,M,M,M,M,M,M,M,M,M,M,73.40,KMEV 161855Z AUTO 00000KT 10SM CLR 23/00 A3021 RMK AO2,M
BAM,2023-05-16 18:55,-116.8743,40.5990,1382.36,77.00,37.40,23.93,320.00,3.00,0.00,30.22,M,10.00,M,CLR,M,M,M,M,M,M,M,M,M,M,M,M,M,M,77.00,KBAM 161855Z AUTO 32003KT 10SM CLR 25/03 A3022 RMK AO1,M
HTH,2023-05-16 18:55,-118.6315,38.5448,1282.89,77.00,32.00,19.30,330.00,6.00,0.00,30.19,M,10.00,M,CLR,M,M,M,M,M,M,M,M,M,M,M,M,M,M,77.00,KHTH 161855Z AUTO 33006KT 10SM CLR 25/00 A3019 RMK A01,M
INS,2023-05-16 18:55,-115.6733,36.5872,955.00,77.20,45.00,31.89,110.00,14.00,0.01,30.11,1015.70,5.00,M,FEW,FEW,BKN,OVC,600.00,2400.00,8000.00,10000.00,RA,M,M,M,35.00,180.00,2023-05-16 18:39,77.20,KINS 161855Z AUTO 11014KT 5SM RA FEW006 FEW024 BKN080 OVC100 25/07 A3011 RMK AO2 PK WND 18035/39 RAB49 SLP157 P0001 T02510072 $,M
LSV,2023-05-16 18:55,-115.0343,36.2362,570.00,96.00,39.20,13.96,70.00,7.00,0.00,29.97,1012.10,10.00,M,CLR,M,M,M,M,M,M,M,M,M,M,M,M,M,M,91.58,KLSV 161855Z AUTO 07007KT 10SM CLR 36/04 A2997 RMK AO2 SLP121 T03560040 $,M
TMT,2023-05-16 18:55,-117.1971,39.4643,1749.34,72.70,35.00,25.23,110.00,4.00,0.00,30.27,M,10.00,M,CLR,M,M,M,M,M,M,M,M,M,M,M,M,M,M,72.70,KTMT 161855Z AUTO 11004KT 10SM CLR 23/02 A3027 RMK AO2 T02260017,M
EKO,2023-05-16 18:56,-115.7860,40.8242,1367.00,73.00,46.00,38.11,M,3.00,0.00,30.23,1019.60,10.00,M,CLR,M,M,M,M,M,M,M,M,M,M,M,M,M,M,73.00,KEKO 161856Z AUTO VRB03KT 10SM CLR 23/08 A3023 RMK AO2 SLP196 T02280078,M
HND,2023-05-16 18:56,-115.1344,35.9729,742.79,89.00,43.00,20.11,0.00,0.00,0.00,30.05,1016.20,10.00,M,CLR,M,M,M,M,M,M,M,M,M,M,M,M,M,M,85.51,KHND 161856Z 00000KT 10SM CLR 32/06 A3005 RMK AO2 LTG DSNT SW AND W SLP162 T03170061,M
TPH,2023-05-16 18:56,-117.0904,38.0505,1654.00,M,M,M,M,M,0.00,30.23,M,M,M,M,M,M,M,M,M,M,M,M,M,M,M,M,M,M,M,KTPH 161856Z AUTO A3023 RMK AO2 SLPNO PWINO $,M
LAS,2023-05-16 18:56,-115.1634,36.0719,663.00,91.00,30.90,11.76,M,3.00,0.00,30.02,1013.80,10.00,M,FEW,SCT,M,M,11000.00,25000.00,M,M,M,M,M,M,M,M,M,86.48,KLAS 161856Z VRB03KT 10SM FEW110 SCT250 33/M01 A3002 RMK AO2 LTG DSNT SW-N SLP138 CB DSNT S AND DSNT W TCU DSNT ALQDS T03281006,M
NFL,2023-05-16 18:56,-118.7010,39.4166,1199.00,79.00,32.00,18.06,270.00,4.00,0.00,30.17,1018.10,10.00,M,SCT,SCT,M,M,7000.00,22000.00,M,M,M,M,M,M,M,M,M,79.00,KNFL 161856Z 27004KT 10SM SCT070 SCT220 26/00 A3017 RMK SLP181 T02610000,M
WMC,2023-05-16 18:56,-117.8072,40.9019,1315.00,79.00,35.00,20.45,280.00,8.00,0.00,30.19,1018.60,10.00,14.00,CLR,M,M,M,M,M,M,M,M,M,M,M,M,M,M,79.00,KWMC 161856Z AUTO 28008G14KT 240V320 10SM CLR 26/02 A3019 RMK AO2 SLP186 T02610017,M
INS,2023-05-16 19:06,-115.6733,36.5872,955.00,77.00,44.60,31.62,140.00,14.00,0.00,30.09,1014.90,10.00,M,FEW,BKN,BKN,OVC,400.00,7000.00,9000.00,13000.00,-RA,M,M,M,M,M,M,77.00,KINS 161906Z AUTO 14014KT 10SM -RA FEW004 BKN070 BKN090 OVC130 25/07 A3009 RMK AO2 WSHFT 1852 PRESFR SLP149 $,M
05U,2023-05-16 19:10,-116.0051,39.6042,1811.23,77.00,35.60,22.28,M,6.00,0.00,30.27,M,10.00,M,CLR,M,M,M,M,M,M,M,M,M,M,M,M,M,M,77.00,K05U 161910Z AUTO VRB06KT 10SM CLR 25/02 A3027 RMK A01,M
INS,2023-05-16 19:13,-115.6733,36.5872,955.00,78.80,42.80,27.81,150.00,12.00,0.00,30.09,1014.70,10.00,M,FEW,SCT,BKN,BKN,500.00,7000.00,13000.00,16000.00,M,M,M,M,M,M,M,78.80,KINS 161913Z AUTO 15012KT 10SM FEW005 SCT070 BKN130 BKN160 26/06 A3009 RMK AO2 RAE13 SLP147 $,M
BVU,2023-05-16 19:15,-114.8611,35.9475,671.00,91.40,39.20,16.15,M,4.00,0.00,30.00,M,10.00,12.00,CLR,M,M,M,M,M,M,M,M,M,M,M,M,M,M,87.30,KBVU 161915Z AUTO VRB04G12KT 10SM CLR 33/04 A3000 RMK AO2,M
CXP,2023-05-16 19:15,-119.7326,39.1923,1431.00,77.00,28.40,16.67,M,4.00,0.00,30.22,M,10.00,M,CLR,M,M,M,M,M,M,M,M,M,M,M,M,M,M,77.00,KCXP 161915Z AUTO VRB04KT 10SM CLR 25/M02 A3022 RMK AO2,M
RTS,2023-05-16 19:15,-119.8764,39.6682,1539.00,73.40,26.60,17.46,210.00,7.00,0.00,30.23,M,10.00,M,CLR,M,M,M,M,M,M,M,M,M,M,M,M,M,M,73.40,KRTS 161915Z AUTO 21007KT 180V240 10SM CLR 23/M03 A3023 RMK AO2,M
MEV,2023-05-16 19:15,-119.7500,38.9963,1441.42,75.20,28.40,17.70,M,5.00,0.00,30.21,M,10.00,M,CLR,M,M,M,M,M,M,M,M,M,M,M,M,M,M,75.20,KMEV 161915Z AUTO VRB05KT 10SM CLR 24/M02 A3021 RMK AO2,M
BAM,2023-05-16 19:15,-116.8743,40.5990,1382.36,77.00,37.40,23.93,130.00,3.00,0.00,30.21,M,10.00,M,CLR,M,M,M,M,M,M,M,M,M,M,M,M,M,M,77.00,KBAM 161915Z AUTO 13003KT 10SM CLR 25/03 A3021 RMK AO1,M
HTH,2023-05-16 19:15,-118.6315,38.5448,1282.89,77.00,32.00,19.30,M,5.00,0.00,30.18,M,10.00,M,CLR,M,M,M,M,M,M,M,M,M,M,M,M,M,M,77.00,KHTH 161915Z AUTO VRB05KT 10SM CLR 25/M00 A3018 RMK A01,M
TMT,2023-05-16 19:15,-117.1971,39.4643,1749.34,73.00,31.30,21.44,310.00,4.00,0.00,30.26,M,10.00,M,CLR,M,M,M,M,M,M,M,M,M,M,M,M,M,M,73.00,KTMT 161915Z AUTO 31004KT 10SM CLR 23/00 A3026 RMK AO2 T02281004,M
05U,2023-05-16 19:30,-116.0051,39.6042,1811.23,77.00,32.00,19.30,M,9.00,0.00,30.26,M,10.00,15.00,CLR,M,M,M,M,M,M,M,M,M,M,M,M,M,M,77.00,K05U 161930Z AUTO VRB09G15KT 220V010 10SM CLR 25/00 A3026 RMK A01,M
BVU,2023-05-16 19:35,-114.8611,35.9475,671.00,93.20,39.20,15.27,10.00,5.00,0.00,29.99,M,10.00,11.00,CLR,M,M,M,M,M,M,M,M,M,M,M,M,M,M,88.92,KBVU 161935Z AUTO 01005G11KT 10SM CLR 34/04 A2999 RMK AO2,M
CXP,2023-05-16 19:35,-119.7326,39.1923,1431.00,78.80,26.60,14.59,M,5.00,0.00,30.21,M,10.00,M,CLR,M,M,M,M,M,M,M,M,M,M,M,M,M,M,78.80,KCXP 161935Z AUTO VRB05KT 10SM CLR 26/M03 A3021 RMK AO2,M
RTS,2023-05-16 19:35,-119.8764,39.6682,1539.00,75.20,26.60,16.43,220.00,7.00,0.00,30.22,M,10.00,15.00,CLR,M,M,M,M,M,M,M,M,M,M,M,M,M,M,75.20,KRTS 161935Z AUTO 22007G15KT 10SM CLR 24/M03 A3022 RMK AO2,M
MEV,2023-05-16 19:35,-119.7500,38.9963,1441.42,77.00,28.40,16.67,M,5.00,0.00,30.20,M,10.00,M,CLR,M,M,M,M,M,M,M,M,M,M,M,M,M,M,77.00,KMEV 161935Z AUTO VRB05KT 10SM CLR 25/M02 A3020 RMK AO2,M
BAM,2023-05-16 19:35,-116.8743,40.5990,1382.36,78.80,37.40,22.54,30.00,4.00,0.00,30.21,M,10.00,M,CLR,M,M,M,M,M,M,M,M,M,M,M,M,M,M,78.80,KBAM 161935Z AUTO 03004KT 10SM CLR 26/03 A3021 RMK AO1,M
HTH,2023-05-16 19:35,-118.6315,38.5448,1282.89,77.00,30.20,17.94,M,4.00,0.00,30.17,M,10.00,M,CLR,M,M,M,M,M,M,M,M,M,M,M,M,M,M,77.00,KHTH 161935Z AUTO VRB04KT 10SM CLR 25/M01 A3017 RMK A01,M
TMT,2023-05-16 19:35,-117.1971,39.4643,1749.34,74.30,30.40,19.79,260.00,4.00,0.00,30.26,M,10.00,M,CLR,M,M,M,M,M,M,M,M,M,M,M,M,M,M,74.30,KTMT 161935Z AUTO 26004KT 10SM CLR 24/M01 A3026 RMK AO2 T02351009,M
05U,2023-05-16 19:50,-116.0051,39.6042,1811.23,77.00,32.00,19.30,M,4.00,0.00,30.26,M,10.00,12.00,CLR,M,M,M,M,M,M,M,M,M,M,M,M,M,M,77.00,K05U 161950Z AUTO VRB04G12KT 10SM CLR 25/00 A3026 RMK A01,M
P68,2023-05-16 19:53,-116.0056,39.6014,1993.00,74.00,32.00,21.40,0.00,0.00,0.00,30.23,1016.60,M,M,M,M,M,M,M,M,M,M,M,M,M,M,M,M,M,73.90,KP68 161953Z AUTO 00000KT 23/00 A3023 RMK AO1 SLP166 T02330000,M
DRA,2023-05-16 19:53,-116.0278,36.6206,1009.00,88.00,37.00,16.49,110.00,19.00,0.00,30.07,1013.80,10.00,25.00,FEW,M,M,M,11000.00,M,M,M,M,M,M,M,34.00,110.00,2023-05-16 19:29,84.32,KDRA 161953Z AUTO 11019G25KT 10SM FEW110 31/03 A3007 RMK AO2 PK WND 11034/1929 SLP138 T03110028,M
VGT,2023-05-16 19:53,-115.1933,36.2111,667.00,94.00,41.00,16.02,330.00,7.00,0.00,30.00,1014.60,10.00,M,CLR,M,M,M,M,M,M,M,M,M,M,M,M,M,M,89.68,KVGT 161953Z 33007KT 10SM CLR 34/05 A3000 RMK AO2 LTG DSNT N AND S SLP146 T03440050,M
LOL,2023-05-16 19:53,-118.5701,40.0684,1192.43,80.00,28.90,15.36,200.00,7.00,0.00,30.15,1017.80,10.00,M,CLR,M,M,M,M,M,M,M,M,M,M,M,M,M,M,78.53,KLOL 161953Z AUTO 20007KT 170V250 10SM CLR 27/M02 A3015 RMK AO2 SLP178 T02671017,M
ELY,2023-05-16 19:53,-114.8453,39.2950,1909.00,72.00,33.00,23.85,100.00,5.00,0.00,30.26,1017.20,10.00,M,SCT,M,M,M,10000.00,M,M,M,M,M,M,M,M,M,M,72.00,KELY 161953Z AUTO 10005KT 10SM SCT100 22/01 A3026 RMK AO2 SLP172 T02220006,M
BVU,2023-05-16 19:55,-114.8611,35.9475,671.00,93.20,39.20,15.27,M,3.00,0.00,29.99,M,10.00,M,BKN,M,M,M,11000.00,M,M,M,M,M,M,M,M,M,M,88.92,KBVU 161955Z AUTO VRB03KT 10SM BKN110 34/04 A2999 RMK AO2,M
CXP,2023-05-16 19:55,-119.7326,39.1923,1431.00,78.80,24.80,13.54,M,6.00,0.00,30.20,M,10.00,13.00,CLR,M,M,M,M,M,M,M,M,M,M,M,M,M,M,78.80,KCXP 161955Z AUTO VRB06G13KT 10SM CLR 26/M04 A3020 RMK AO2,M
RNO,2023-05-16 19:55,-119.7711,39.4839,1341.00,82.00,27.00,13.36,290.00,9.00,0.00,30.16,1016.40,10.00,M,FEW,FEW,M,M,8000.00,20000.00,M,M,M,M,M,M,M,M,M,79.64,KRNO 161955Z 29009KT 10SM FEW080 FEW200 28/M03 A3016 RMK AO2 SLP164 T02781028,M
RTS,2023-05-16 19:55,-119.8764,39.6682,1539.00,77.00,24.80,14.37,230.00,11.00,0.00,30.22,M,10.00,M,CLR,M,M,M,M,M,M,M,M,M,M,M,M,M,M,77.00,KRTS 161955Z AUTO 23011KT 10SM CLR 25/M04 A3022 RMK AO2,M
MEV,2023-05-16 19:55,-119.7500,38.9963,1441.42,77.00,28.40,16.67,M,4.00,0.00,30.19,M,10.00,M,CLR,M,M,M,M,M,M,M,M,M,M,M,M,M,M,77.00,KMEV 161955Z AUTO VRB04KT 10SM CLR 25/M02 A3019 RMK AO2,M
BAM,2023-05-16 19:55,-116.8743,40.5990,1382.36,80.60,37.40,21.25,330.00,4.00,0.00,30.19,M,10.00,M,CLR,M,M,M,M,M,M,M,M,M,M,M,M,M,M,79.02,KBAM 161955Z AUTO 33004KT 10SM CLR 27/03 A3019 RMK AO1,M
HTH,2023-05-16 19:55,-118.6315,38.5448,1282.89,78.80,28.40,15.71,300.00,5.00,0.00,30.16,M,10.00,M,CLR,M,M,M,M,M,M,M,M,M,M,M,M,M,M,78.80,KHTH 161955Z AUTO 30005KT 10SM CLR 26/M02 A3016 RMK A01,M
TMT,2023-05-16 19:55,-117.1971,39.4643,1749.34,74.70,32.00,20.83,270.00,8.00,0.00,30.25,M,10.00,M,CLR,M,M,M,M,M,M,M,M,M,M,M,M,M,M,74.70,KTMT 161955Z AUTO 27008KT 10SM CLR 24/00 A3025 RMK AO2 T02370000,M
INS,2023-05-16 19:55,-115.6733,36.5872,955.00,85.80,36.00,17.00,150.00,12.00,T,30.07,1013.90,10.00,M,BKN,M,M,M,18000.00,M,M,M,M,M,M,M,M,M,M,82.54,KINS 161955Z AUTO 15012KT 10SM BKN180 30/02 A3007 RMK AO2 RAE13 SLP139 P0000 T02990022 $,M
LSV,2023-05-16 19:55,-115.0343,36.2362,570.00,100.00,38.30,11.97,260.00,8.00,0.00,29.95,1011.50,10.00,M,FEW,SCT,SCT,M,14000.00,17000.00,20000.00,M,M,M,M,M,M,M,M,94.90,KLSV 161955Z AUTO 26008KT 10SM FEW140 SCT170 SCT200 38/04 A2995 RMK AO2 SLP115 T03780035 $,M
WMC,2023-05-16 19:56,-117.8072,40.9019,1315.00,81.00,30.90,16.18,260.00,16.00,0.00,30.16,1017.20,10.00,21.00,CLR,M,M,M,M,M,M,M,M,M,M,M,M,M,M,79.04,KWMC 161956Z AUTO 26016G21KT 10SM CLR 27/M01 A3016 RMK AO2 SLP172 T02721006,M
TPH,2023-05-16 19:56,-117.0904,38.0505,1654.00,M,M,M,M,M,0.00,30.21,M,M,M,M,M,M,M,M,M,M,M,M,M,M,M,M,M,M,M,KTPH 161956Z AUTO A3021 RMK AO2 SLPNO PWINO $,M
NFL,2023-05-16 19:56,-118.7010,39.4166,1199.00,83.00,28.90,14.02,190.00,7.00,0.00,30.14,1017.30,10.00,M,SCT,SCT,M,M,7000.00,22000.00,M,M,M,M,M,M,M,M,M,80.30,KNFL 161956Z 19007KT 10SM SCT070 SCT220 28/M02 A3014 RMK SLP173 T02831017,M
EKO,2023-05-16 19:56,-115.7860,40.8242,1367.00,77.00,40.00,26.38,210.00,7.00,0.00,30.21,1018.20,10.00,M,CLR,M,M,M,M,M,M,M,M,M,M,M,M,M,M,77.00,KEKO 161956Z AUTO 21007KT 10SM CLR 25/04 A3021 RMK AO2 SLP182 T02500044,M
LAS,2023-05-16 19:56,-115.1634,36.0719,663.00,91.00,42.00,18.30,210.00,13.00,0.00,30.01,1013.40,9.00,23.00,SCT,BKN,M,M,9500.00,25000.00,M,M,M,M,M,M,M,M,M,87.11,KLAS 161956Z 21013G23KT 9SM SCT095 BKN250 33/06 A3001 RMK AO2 LTG DSNT N AND SE SLP134 SH DSNT SW-W TCU DSNT ALQDS T03280056,M
HND,2023-05-16 19:56,-115.1344,35.9729,742.79,87.00,44.00,22.34,220.00,18.00,0.00,30.04,1016.00,10.00,25.00,FEW,M,M,M,11000.00,M,M,M,VCTS,M,M,M,26.00,230.00,2023-05-16 19:49,83.91,KHND 161956Z 22018G25KT 10SM VCTS FEW110 31/07 A3004 RMK AO2 PK WND 23026/1949 TSB50 SLP160 T03060067,M
LAS,2023-05-16 20:05,-115.1634,36.0719,663.00,91.00,41.00,17.54,220.00,13.00,0.00,30.01,M,10.00,23.00,FEW,BKN,BKN,M,2900.00,9500.00,25000.00,M,M,M,M,M,M,M,M,87.04,KLAS 162005Z 22013G23KT 10SM FEW029 BKN095 BKN250 33/05 A3001 RMK AO2 WSHFT 1945 LTG DSNT SW-N TCU DSNT ALQDS T03280050,M
05U,2023-05-16 20:10,-116.0051,39.6042,1811.23,77.00,32.00,19.30,280.00,11.00,0.00,30.25,M,10.00,M,CLR,M,M,M,M,M,M,M,M,M,M,M,M,M,M,77.00,K05U 162010Z AUTO 28011KT 10SM CLR 25/M00 A3025 RMK A01,M
HND,2023-05-16 20:11,-115.1344,35.9729,742.79,87.80,42.80,20.79,220.00,15.00,0.00,30.05,M,10.00,M,CLR,M,M,M,M,M,M,M,M,M,M,M,M,M,M,84.40,KHND 162011Z 22015KT 10SM CLR 31/06 A3005 RMK AO2 LTG DSNT W TSE05,M
BVU,2023-05-16 20:15,-114.8611,35.9475,671.00,93.20,39.20,15.27,270.00,8.00,0.00,29.97,M,10.00,M,BKN,M,M,M,11000.00,M,M,M,M,M,M,M,M,M,M,88.92,KBVU 162015Z AUTO 27008KT 230V300 10SM BKN110 34/04 A2997 RMK AO2 LTG DSNT W,M
CXP,2023-05-16 20:15,-119.7326,39.1923,1431.00,78.80,26.60,14.59,240.00,8.00,0.00,30.20,M,10.00,19.00,CLR,M,M,M,M,M,M,M,M,M,M,M,M,M,M,78.80,KCXP 162015Z AUTO 24008G19KT 10SM CLR 26/M03 A3020 RMK AO2,M
RTS,2023-05-16 20:15,-119.8764,39.6682,1539.00,77.00,26.60,15.48,250.00,12.00,0.00,30.21,M,10.00,23.00,CLR,M,M,M,M,M,M,M,M,M,M,M,M,M,M,77.00,KRTS 162015Z AUTO 25012G23KT 10SM CLR 25/M03 A3021 RMK AO2,M
MEV,2023-05-16 20:15,-119.7500,38.9963,1441.42,77.00,30.20,17.94,M,4.00,0.00,30.19,M,10.00,M,CLR,M,M,M,M,M,M,M,M,M,M,M,M,M,M,77.00,KMEV 162015Z AUTO VRB04KT 10SM CLR 25/M01 A3019 RMK AO2,M
BAM,2023-05-16 20:15,-116.8743,40.5990,1382.36,80.60,32.00,17.14,250.00,6.00,0.00,30.18,M,10.00,M,CLR,M,M,M,M,M,M,M,M,M,M,M,M,M,M,78.82,KBAM 162015Z AUTO 25006KT 10SM CLR 27/00 A3018 RMK AO1,M
HTH,2023-05-16 20:15,-118.6315,38.5448,1282.89,80.60,28.40,14.81,M,4.00,0.00,30.15,M,10.00,11.00,CLR,M,M,M,M,M,M,M,M,M,M,M,M,M,M,78.72,KHTH 162015Z AUTO VRB04G11KT 10SM CLR 27/M02 A3015 RMK A01,M
TMT,2023-05-16 20:15,-117.1971,39.4643,1749.34,75.70,32.20,20.31,230.00,3.00,0.00,30.24,M,10.00,M,SCT,M,M,M,10000.00,M,M,M,M,M,M,M,M,M,M,75.70,KTMT 162015Z AUTO 23003KT 10SM SCT100 24/00 A3024 RMK AO2 LTG DSNT N T02430001,M
RNO,2023-05-16 20:21,-119.7711,39.4839,1341.00,83.00,26.10,12.50,210.00,15.00,0.00,30.16,M,10.00,20.00,FEW,FEW,M,M,8000.00,20000.00,M,M,M,M,M,M,M,M,M,80.21,KRNO 162021Z 21015G20KT 10SM FEW080 FEW200 28/M03 A3016 RMK AO2 WSHFT 2005 T02831033,M
LAS,2023-05-16 20:22,-115.1634,36.0719,663.00,88.00,42.00,20.11,280.00,30.00,0.00,30.02,M,3.00,41.00,FEW,BKN,BKN,M,2900.00,9500.00,25000.00,M,HZ,M,M,M,41.00,280.00,2023-05-16 20:20,84.52,KLAS 162022Z 28030G41KT 3SM HZ FEW029 BKN095 BKN250 31/06 A3002 RMK AO2 PK WND 28041/2020 WSHFT 2002 LTG DSNT W TCU DSNT ALQDS T03110056,M
LAS,2023-05-16 20:25,-115.1634,36.0719,663.00,88.00,42.00,20.11,270.00,33.00,0.00,30.02,M,6.00,42.00,FEW,BKN,BKN,M,2900.00,9500.00,25000.00,M,BLDU,M,M,M,42.00,270.00,2023-05-16 20:24,84.52,KLAS 162025Z 27033G42KT 6SM BLDU FEW029 BKN095 BKN250 31/06 A3002 RMK AO2 PK WND 27042/2024 WSHFT 2002 LTG DSNT W SW DSNT W-NW TCU DSNT ALQDS T03110056,M
LAS,2023-05-16 20:28,-115.1634,36.0719,663.00,88.00,43.00,20.82,270.00,27.00,0.00,30.02,M,8.00,42.00,FEW,BKN,BKN,M,2900.00,9500.00,25000.00,M,M,M,M,M,42.00,270.00,2023-05-16 20:24,84.58,KLAS 162028Z 27027G42KT 8SM FEW029 BKN095 BKN250 31/06 A3002 RMK AO2 PK WND 27042/2024 WSHFT 2002 LTG DSNT W SW DSNT W-NW TCU DSNT ALQDS BLDU S-W T03110061,M
05U,2023-05-16 20:30,-116.0051,39.6042,1811.23,75.20,30.20,19.05,240.00,8.00,0.00,30.24,M,10.00,M,CLR,M,M,M,M,M,M,M,M,M,M,M,M,M,M,75.20,K05U 162030Z AUTO 24008KT 230V010 10SM CLR 24/M01 A3024 RMK A01,M
BVU,2023-05-16 20:35,-114.8611,35.9475,671.00,93.20,39.20,15.27,310.00,13.00,0.00,29.97,M,10.00,M,FEW,M,M,M,11000.00,M,M,M,M,M,M,M,M,M,M,88.92,KBVU 162035Z AUTO 31013KT 10SM FEW110 34/04 A2997 RMK AO2,M
CXP,2023-05-16 20:35,-119.7326,39.1923,1431.00,80.60,26.60,13.75,270.00,12.00,0.00,30.19,M,10.00,M,CLR,M,M,M,M,M,M,M,M,M,M,M,M,M,M,78.68,KCXP 162035Z AUTO 27012KT 10SM CLR 27/M03 A3019 RMK AO2,M
RTS,2023-05-16 20:35,-119.8764,39.6682,1539.00,75.20,26.60,16.43,250.00,11.00,0.00,30.20,M,10.00,21.00,CLR,M,M,M,M,M,M,M,M,M,M,M,M,M,M,75.20,KRTS 162035Z AUTO 25011G21KT 210V270 10SM CLR 24/M03 A3020 RMK AO2,M
MEV,2023-05-16 20:35,-119.7500,38.9963,1441.42,78.80,30.20,16.90,M,6.00,0.00,30.18,M,10.00,M,CLR,M,M,M,M,M,M,M,M,M,M,M,M,M,M,78.80,KMEV 162035Z AUTO VRB06KT 10SM CLR 26/M01 A3018 RMK AO2,M
BAM,2023-05-16 20:35,-116.8743,40.5990,1382.36,82.40,32.00,16.17,250.00,8.00,0.00,30.17,M,10.00,M,CLR,M,M,M,M,M,M,M,M,M,M,M,M,M,M,80.00,KBAM 162035Z AUTO 25008KT 10SM CLR 28/00 A3017 RMK AO1,M
HTH,2023-05-16 20:35,-118.6315,38.5448,1282.89,80.60,26.60,13.75,330.00,8.00,0.00,30.14,M,10.00,M,CLR,M,M,M,M,M,M,M,M,M,M,M,M,M,M,78.68,KHTH 162035Z AUTO 33008KT 300V360 10SM CLR 27/M03 A3014 RMK A01,M
TMT,2023-05-16 20:35,-117.1971,39.4643,1749.34,77.00,32.20,19.45,220.00,12.00,0.00,30.23,M,10.00,18.00,SCT,M,M,M,10000.00,M,M,M,M,M,M,M,M,M,M,77.00,KTMT 162035Z AUTO 22012G18KT 10SM SCT100 25/00 A3023 RMK AO2 T02500001,M
HND,2023-05-16 20:38,-115.1344,35.9729,742.79,87.80,42.80,20.79,300.00,19.00,0.00,30.05,M,10.00,24.00,CLR,M,M,M,M,M,M,M,M,M,M,M,M,M,M,84.40,KHND 162038Z 30019G24KT 10SM CLR 31/06 A3005 RMK AO2 WSHFT 2018 TSE05,M
ELY,2023-05-16 20:48,-114.8453,39.2950,1909.00,73.40,35.60,25.13,40.00,17.00,0.00,30.25,M,10.00,25.00,BKN,M,M,M,10000.00,M,M,M,M,M,M,M,M,M,M,73.40,KELY 162048Z AUTO 04017G25KT 10SM BKN100 23/02 A3025 RMK AO2 WSHFT 2028,M
05U,2023-05-16 20:50,-116.0051,39.6042,1811.23,75.20,30.20,19.05,290.00,11.00,0.00,30.24,M,10.00,16.00,FEW,M,M,M,10000.00,M,M,M,M,M,M,M,M,M,M,75.20,K05U 162050Z AUTO 29011G16KT 10SM FEW100 24/M01 A3024 RMK A01,M
DRA,2023-05-16 20:53,-116.0278,36.6206,1009.00,86.00,36.00,16.89,270.00,4.00,0.00,30.05,1013.10,10.00,M,FEW,M,M,M,12000.00,M,M,M,M,M,M,M,M,M,M,82.70,KDRA 162053Z AUTO 27004KT 10SM FEW120 30/02 A3005 RMK AO2 SLP131 T03000022 58017,M
ELY,2023-05-16 20:53,-114.8453,39.2950,1909.00,73.00,36.00,25.88,40.00,16.00,0.00,30.25,1017.10,10.00,M,SCT,M,M,M,10000.00,M,M,M,M,M,M,M,M,M,M,73.00,KELY 162053Z AUTO 04016KT 10SM SCT100 23/02 A3025 RMK AO2 WSHFT 2028 SLP171 T02280022 55013,M
LOL,2023-05-16 20:53,-118.5701,40.0684,1192.43,81.00,28.00,14.38,190.00,7.00,0.00,30.12,1016.80,10.00,20.00,CLR,M,M,M,M,M,M,M,M,M,M,M,M,M,M,78.98,KLOL 162053Z AUTO 19007G20KT 150V240 10SM CLR 27/M02 A3012 RMK AO2 SLP168 T02721022 58022,M
VGT,2023-05-16 20:53,-115.1933,36.2111,667.00,90.00,42.00,18.88,260.00,17.00,0.00,30.00,1014.90,10.00,25.00,CLR,M,M,M,M,M,M,M,M,M,M,M,M,M,M,86.23,KVGT 162053Z 26017G25KT 10SM CLR 32/06 A3000 RMK AO2 LTG DSNT SE AND W SLP149 T03220056 56011,M
BVU,2023-05-16 20:55,-114.8611,35.9475,671.00,93.20,41.00,16.37,320.00,14.00,0.00,29.97,M,10.00,22.00,CLR,M,M,M,M,M,M,M,M,M,M,M,M,M,M,89.03,KBVU 162055Z AUTO 32014G22KT 10SM CLR 34/05 A2997 RMK AO2,M
CXP,2023-05-16 20:55,-119.7326,39.1923,1431.00,80.60,26.60,13.75,M,4.00,0.00,30.18,M,10.00,17.00,CLR,M,M,M,M,M,M,M,M,M,M,M,M,M,M,78.68,KCXP 162055Z AUTO VRB04G17KT 10SM CLR 27/M03 A3018 RMK AO2,M
RNO,2023-05-16 20:55,-119.7711,39.4839,1341.00,84.00,27.00,12.52,200.00,13.00,0.00,30.14,1015.70,10.00,21.00,FEW,FEW,M,M,8000.00,20000.00,M,M,M,M,M,M,M,M,M,81.03,KRNO 162055Z 20013G21KT 10SM FEW080 FEW200 29/M03 A3014 RMK AO2 WSHFT 2005 SLP157 T02891028 56021,M
RTS,2023-05-16 20:55,-119.8764,39.6682,1539.00,77.00,24.80,14.37,240.00,12.00,0.00,30.20,M,10.00,21.00,CLR,M,M,M,M,M,M,M,M,M,M,M,M,M,M,77.00,KRTS 162055Z AUTO 24012G21KT 10SM CLR 25/M04 A3020 RMK AO2,M
MEV,2023-05-16 20:55,-119.7500,38.9963,1441.42,78.80,30.20,16.90,M,4.00,0.00,30.17,M,10.00,13.00,CLR,M,M,M,M,M,M,M,M,M,M,M,M,M,M,78.80,KMEV 162055Z AUTO VRB04G13KT 10SM CLR 26/M01 A3017 RMK AO2,M
BAM,2023-05-16 20:55,-116.8743,40.5990,1382.36,82.40,32.00,16.17,230.00,10.00,0.00,30.17,M,10.00,17.00,CLR,M,M,M,M,M,M,M,M,M,M,M,M,M,M,80.00,KBAM 162055Z AUTO 23010G17KT 200V270 10SM CLR 28/00 A3017 RMK AO1,M
HTH,2023-05-16 20:55,-118.6315,38.5448,1282.89,80.60,28.40,14.81,10.00,6.00,0.00,30.13,M,10.00,M,CLR,M,M,M,M,M,M,M,M,M,M,M,M,M,M,78.72,KHTH 162055Z AUTO 01006KT 10SM CLR 27/M02 A3013 RMK A01,M
TMT,2023-05-16 20:55,-117.1971,39.4643,1749.34,74.50,30.90,20.06,230.00,8.00,0.00,30.22,M,10.00,M,BKN,M,M,M,10000.00,M,M,M,M,M,M,M,M,M,M,74.50,KTMT 162055Z AUTO 23008KT 10SM BKN100 24/M01 A3022 RMK AO2 T02361006,M
INS,2023-05-16 20:55,-115.6733,36.5872,955.00,83.70,37.00,18.92,160.00,13.00,0.00,30.05,1013.30,10.00,M,SCT,BKN,M,M,15000.00,19000.00,M,M,M,M,M,M,M,M,M,81.01,KINS 162055Z AUTO 16013KT 10SM SCT150 BKN190 29/03 A3005 RMK AO2 LTG DSNT SE SLP133 60001 T02870028 58013 $,M
LSV,2023-05-16 20:55,-115.0343,36.2362,570.00,93.40,38.80,14.94,240.00,19.00,0.00,29.95,1011.60,10.00,25.00,BKN,M,M,M,11000.00,M,M,M,M,M,M,M,M,M,M,89.08,KLSV 162055Z AUTO 24019G25KT 10SM BKN110 34/04 A2995 RMK AO2 LTG DSNT SE AND SW SLP116 T03410038 55013 $,M
EKO,2023-05-16 20:56,-115.7860,40.8242,1367.00,78.00,39.00,24.56,260.00,13.00,0.00,30.18,1017.40,10.00,19.00,CLR,M,M,M,M,M,M,M,M,M,M,M,M,M,M,78.10,KEKO 162056Z AUTO 26013G19KT 10SM CLR 26/04 A3018 RMK AO2 SLP174 T02560039 58021,M
NFL,2023-05-16 20:56,-118.7010,39.4166,1199.00,84.00,30.00,14.16,M,3.00,0.00,30.12,1016.40,10.00,M,SCT,SCT,M,M,6000.00,22000.00,M,M,M,M,M,M,M,M,M,81.11,KNFL 162056Z VRB03KT 10SM SCT060 SCT220 29/M01 A3012 RMK AO2 SLP164 T02891011 58022,M
TPH,2023-05-16 20:56,-117.0904,38.0505,1654.00,M,M,M,M,M,0.00,30.18,M,M,M,M,M,M,M,M,M,M,M,M,M,M,M,M,M,M,M,KTPH 162056Z AUTO A3018 RMK AO2 SLPNO 58020 PWINO $,M
LAS,2023-05-16 20:56,-115.1634,36.0719,663.00,88.00,43.00,20.82,280.00,23.00,0.00,30.01,1013.50,10.00,34.00,FEW,BKN,BKN,M,2900.00,9500.00,25000.00,M,M,M,M,M,42.00,270.00,2023-05-16 20:24,84.58,KLAS 162056Z 28023G34KT 10SM FEW029 BKN095 BKN250 31/06 A3001 RMK AO2 PK WND 27042/2024 WSHFT 2002 LTG DSNT E AND W SLP135 SW DSNT W-NW TCU DSNT ALQDS BLDU S-W T03110061 55010,M
WMC,2023-05-16 20:56,-117.8072,40.9019,1315.00,82.00,33.00,17.12,280.00,13.00,0.00,30.14,1016.10,10.00,20.00,CLR,M,M,M,M,M,M,M,M,M,M,M,M,M,M,79.75,KWMC 162056Z AUTO 28013G20KT 10SM CLR 28/01 A3014 RMK AO2 SLP161 T02780006 58021,M
HND,2023-05-16 20:56,-115.1344,35.9729,742.79,89.00,42.00,19.42,290.00,20.00,0.00,30.03,1015.60,10.00,25.00,CLR,M,M,M,M,M,M,M,M,M,M,M,M,M,M,85.45,KHND 162056Z 29020G25KT 10SM CLR 32/06 A3003 RMK AO2 WSHFT 2018 LTG DSNT NE AND NW TSE05 SLP156 T03170056 56012,M
05U,2023-05-16 21:10,-116.0051,39.6042,1811.23,73.40,30.20,20.23,300.00,19.00,0.00,30.24,M,10.00,27.00,FEW,M,M,M,11000.00,M,M,M,M,M,M,M,M,M,M,73.40,K05U 162110Z AUTO 30019G27KT 240V350 10SM FEW110 23/M01 A3024 RMK A01,M
CXP,2023-05-16 21:15,-119.7326,39.1923,1431.00,80.60,26.60,13.75,260.00,7.00,0.00,30.18,M,10.00,16.00,CLR,M,M,M,M,M,M,M,M,M,M,M,M,M,M,78.68,KCXP 162115Z AUTO 26007G16KT 220V280 10SM CLR 27/M03 A3018 RMK AO2,M
RTS,2023-05-16 21:15,-119.8764,39.6682,1539.00,77.00,24.80,14.37,210.00,10.00,0.00,30.19,M,10.00,20.00,CLR,M,M,M,M,M,M,M,M,M,M,M,M,M,M,77.00,KRTS 162115Z AUTO 21010G20KT 10SM CLR 25/M04 A3019 RMK AO2,M
MEV,2023-05-16 21:15,-119.7500,38.9963,1441.42,78.80,30.20,16.90,290.00,7.00,0.00,30.17,M,10.00,13.00,CLR,M,M,M,M,M,M,M,M,M,M,M,M,M,M,78.80,KMEV 162115Z AUTO 29007G13KT 240V310 10SM CLR 26/M01 A3017 RMK AO2,M
BAM,2023-05-16 21:15,-116.8743,40.5990,1382.36,80.60,32.00,17.14,270.00,8.00,0.00,30.15,M,10.00,M,CLR,M,M,M,M,M,M,M,M,M,M,M,M,M,M,78.82,KBAM 162115Z AUTO 27008KT 10SM CLR 27/00 A3015 RMK AO1,M
HTH,2023-05-16 21:15,-118.6315,38.5448,1282.89,82.40,28.40,13.96,330.00,10.00,0.00,30.12,M,10.00,M,CLR,M,M,M,M,M,M,M,M,M,M,M,M,M,M,79.94,KHTH 162115Z AUTO 33010KT 10SM CLR 28/M02 A3012 RMK A01,M
TMT,2023-05-16 21:15,-117.1971,39.4643,1749.34,78.40,31.30,17.91,290.00,11.00,0.00,30.22,M,10.00,18.00,SCT,M,M,M,10000.00,M,M,M,M,M,M,M,M,M,M,78.40,KTMT 162115Z AUTO 29011G18KT 10SM SCT100 26/00 A3022 RMK AO2 T02581004,M
05U,2023-05-16 21:30,-116.0051,39.6042,1811.23,69.80,30.20,22.86,360.00,3.00,0.00,30.25,M,10.00,M,FEW,M,M,M,11000.00,M,M,M,M,M,M,M,M,M,M,69.80,K05U 162130Z AUTO 36003KT 10SM FEW110 21/M01 A3025 RMK A01,M
CXP,2023-05-16 21:35,-119.7326,39.1923,1431.00,80.60,26.60,13.75,270.00,14.00,0.00,30.18,M,10.00,21.00,CLR,M,M,M,M,M,M,M,M,M,M,M,M,M,M,78.68,KCXP 162135Z AUTO 27014G21KT 10SM CLR 27/M03 A3018 RMK AO2,M
RTS,2023-05-16 21:35,-119.8764,39.6682,1539.00,77.00,26.60,15.48,250.00,19.00,0.00,30.19,M,10.00,M,CLR,M,M,M,M,M,M,M,M,M,M,M,M,M,M,77.00,KRTS 162135Z AUTO 25019KT 10SM CLR 25/M03 A3019 RMK AO2,M
MEV,2023-05-16 21:35,-119.7500,38.9963,1441.42,78.80,32.00,18.18,300.00,10.00,0.00,30.16,M,10.00,16.00,CLR,M,M,M,M,M,M,M,M,M,M,M,M,M,M,78.80,KMEV 162135Z AUTO 30010G16KT 280V350 10SM CLR 26/M00 A3016 RMK AO2,M
BAM,2023-05-16 21:35,-116.8743,40.5990,1382.36,84.20,32.00,15.25,240.00,9.00,0.00,30.15,M,10.00,34.00,CLR,M,M,M,M,M,M,M,M,M,M,M,M,M,M,81.28,KBAM 162135Z AUTO 24009G34KT 10SM CLR 29/00 A3015 RMK AO1,M
HTH,2023-05-16 21:35,-118.6315,38.5448,1282.89,82.40,26.60,12.97,340.00,6.00,0.00,30.11,M,10.00,M,CLR,M,M,M,M,M,M,M,M,M,M,M,M,M,M,79.92,KHTH 162135Z AUTO 34006KT 10SM CLR 28/M03 A3011 RMK A01,M
TMT,2023-05-16 21:35,-117.1971,39.4643,1749.34,75.40,30.00,18.77,270.00,5.00,0.00,30.21,M,10.00,M,SCT,M,M,M,11000.00,M,M,M,M,M,M,M,M,M,M,75.40,KTMT 162135Z AUTO 27005KT 10SM SCT110 24/M01 A3021 RMK AO2 T02411011,M
ELY,2023-05-16 21:38,-114.8453,39.2950,1909.00,67.00,36.00,31.87,280.00,14.00,T,30.26,M,10.00,21.00,OVC,M,M,M,8500.00,M,M,M,-RA,M,M,M,M,M,M,66.90,KELY 162138Z AUTO 28014G21KT 10SM -RA OVC085 19/02 A3026 RMK AO2 WSHFT 2118 RAB31 P0000 T01940022,M
INS,2023-05-16 21:43,-115.6733,36.5872,955.00,87.80,33.80,14.61,150.00,14.00,0.00,30.04,1013.00,10.00,18.00,FEW,SCT,M,M,15000.00,19000.00,M,M,M,M,M,M,M,M,M,84.10,KINS 162143Z AUTO 15014G18KT 10SM FEW150 SCT190 31/01 A3004 RMK AO2 WSHFT 42 SLP130 $,M
05U,2023-05-16 21:50,-116.0051,39.6042,1811.23,71.60,33.80,24.86,360.00,15.00,0.00,30.24,M,10.00,M,CLR,M,M,M,M,M,M,M,M,M,M,M,M,M,M,71.60,K05U 162150Z AUTO 36015KT 10SM CLR 22/01 A3024 RMK A01,M
P68,2023-05-16 21:53,-116.0056,39.6014,1993.00,71.00,34.00,25.49,170.00,17.00,0.00,30.21,1016.70,M,21.00,M,M,M,M,M,M,M,M,M,M,M,M,40.00,240.00,2023-05-16 21:13,71.10,KP68 162153Z AUTO 17017G21KT 22/01 A3021 RMK AO1 PK WND 24040/2113 SLP167 T02170011,M
LOL,2023-05-16 21:53,-118.5701,40.0684,1192.43,83.00,28.00,13.52,M,4.00,0.00,30.09,1016.30,10.00,16.00,CLR,M,M,M,M,M,M,M,M,M,M,M,M,M,M,80.29,KLOL 162153Z AUTO VRB04G16KT 10SM CLR 28/M02 A3009 RMK AO2 SLP163 T02831022,M
VGT,2023-05-16 21:53,-115.1933,36.2111,667.00,93.00,38.00,14.60,290.00,13.00,0.00,29.97,1013.70,10.00,M,CLR,M,M,M,M,M,M,M,M,M,M,M,28.00,280.00,2023-05-16 21:28,88.67,KVGT 162153Z 29013KT 10SM CLR 34/03 A2997 RMK AO2 PK WND 28028/2128 LTG DSNT SE SLP137 T03390033,M
DRA,2023-05-16 21:53,-116.0278,36.6206,1009.00,87.00,35.00,15.74,M,M,0.00,30.03,1012.50,10.00,M,BKN,M,M,M,11000.00,M,M,M,M,M,M,M,M,M,M,83.55,KDRA 162153Z AUTO 10SM BKN110 31/02 A3003 RMK AO2 SLP125 T03060017,M
ELY,2023-05-16 21:53,-114.8453,39.2950,1909.00,65.00,44.00,46.81,60.00,11.00,0.02,30.27,1018.90,7.00,16.00,FEW,BKN,OVC,M,3500.00,7500.00,9000.00,M,-RA,M,M,M,M,M,M,64.90,KELY 162153Z AUTO 06011G16KT 7SM -RA FEW035 BKN075 OVC090 18/07 A3027 RMK AO2 WSHFT 2127 RAB31 SLP189 P0002 T01830067,M
CXP,2023-05-16 21:55,-119.7326,39.1923,1431.00,80.60,26.60,13.75,260.00,13.00,0.00,30.17,M,10.00,18.00,CLR,M,M,M,M,M,M,M,M,M,M,M,M,M,M,78.68,KCXP 162155Z AUTO 26013G18KT 10SM CLR 27/M03 A3017 RMK AO2,M
RNO,2023-05-16 21:55,-119.7711,39.4839,1341.00,83.00,27.00,12.97,250.00,9.00,0.00,30.13,1015.30,10.00,16.00,FEW,FEW,M,M,9000.00,20000.00,M,M,M,M,M,M,M,M,M,80.28,KRNO 162155Z 25009G16KT 10SM FEW090 FEW200 28/M03 A3013 RMK AO2 SLP153 T02831028,M
RTS,2023-05-16 21:55,-119.8764,39.6682,1539.00,77.00,24.80,14.37,250.00,14.00,0.00,30.18,M,10.00,23.00,CLR,M,M,M,M,M,M,M,M,M,M,M,M,M,M,77.00,KRTS 162155Z AUTO 25014G23KT 10SM CLR 25/M04 A3018 RMK AO2,M
MEV,2023-05-16 21:55,-119.7500,38.9963,1441.42,78.80,30.20,16.90,270.00,8.00,0.00,30.16,M,10.00,15.00,CLR,M,M,M,M,M,M,M,M,M,M,M,M,M,M,78.80,KMEV 162155Z AUTO 27008G15KT 250V310 10SM CLR 26/M01 A3016 RMK AO2,M
BAM,2023-05-16 21:55,-116.8743,40.5990,1382.36,84.20,30.20,14.18,260.00,12.00,0.00,30.14,M,10.00,19.00,CLR,M,M,M,M,M,M,M,M,M,M,M,M,M,M,81.26,KBAM 162155Z AUTO 26012G19KT 10SM CLR 29/M01 A3014 RMK AO1,M
HTH,2023-05-16 21:55,-118.6315,38.5448,1282.89,82.40,28.40,13.96,300.00,6.00,0.00,30.10,M,10.00,12.00,CLR,M,M,M,M,M,M,M,M,M,M,M,M,M,M,79.94,KHTH 162155Z AUTO 30006G12KT 10SM CLR 28/M02 A3010 RMK A01,M
TMT,2023-05-16 21:55,-117.1971,39.4643,1749.34,76.00,30.40,18.64,270.00,12.00,0.00,30.20,M,10.00,M,OVC,M,M,M,11000.00,M,M,M,M,M,M,M,M,M,M,76.10,KTMT 162155Z AUTO 27012KT 10SM OVC110 25/M01 A3020 RMK AO2 T02451009,M
INS,2023-05-16 21:55,-115.6733,36.5872,955.00,87.30,32.20,13.92,120.00,8.00,0.00,30.03,1012.60,10.00,M,FEW,FEW,M,M,17000.00,19000.00,M,M,M,M,M,M,M,M,M,83.68,KINS 162155Z AUTO 12008KT 10SM FEW170 FEW190 31/00 A3003 RMK AO2 SLP126 T03070001 $,M
LSV,2023-05-16 21:55,-115.0343,36.2362,570.00,95.50,37.00,12.99,230.00,18.00,0.00,29.92,1010.60,10.00,23.00,FEW,FEW,FEW,SCT,9500.00,12000.00,14000.00,17000.00,M,M,M,M,29.00,240.00,2023-05-16 21:15,90.88,KLSV 162155Z AUTO 23018G23KT 10SM FEW095 FEW120 FEW140 SCT170 BKN200 35/03 A2992 RMK AO2 PK WND 24029/15 SLP106 T03530027 $,M
EKO,2023-05-16 21:56,-115.7860,40.8242,1367.00,79.00,37.00,22.05,230.00,8.00,0.00,30.15,1016.50,10.00,17.00,FEW,M,M,M,10000.00,M,M,M,M,M,M,M,M,M,M,79.00,KEKO 162156Z AUTO 23008G17KT 10SM FEW100 26/03 A3015 RMK AO2 SLP165 T02610028,M
WMC,2023-05-16 21:56,-117.8072,40.9019,1315.00,82.00,30.00,15.10,270.00,9.00,0.00,30.12,1016.00,10.00,M,CLR,M,M,M,M,M,M,M,M,M,M,M,M,M,M,79.69,KWMC 162156Z AUTO 27009KT 10SM CLR 28/M01 A3012 RMK AO2 SLP160 T02781011,M
NFL,2023-05-16 21:56,-118.7010,39.4166,1199.00,86.00,28.90,12.69,M,4.00,0.00,30.09,1015.60,10.00,M,SCT,SCT,M,M,6000.00,22000.00,M,M,M,M,M,M,M,M,M,82.58,KNFL 162156Z VRB04KT 10SM SCT060 SCT220 30/M02 A3009 RMK AO2 SLP156 T03001017,M
TPH,2023-05-16 21:56,-117.0904,38.0505,1654.00,M,M,M,M,M,0.00,30.16,M,M,M,M,M,M,M,M,M,M,M,M,M,M,M,M,M,M,M,KTPH 162156Z AUTO A3016 RMK AO2 SLPNO PWINO $,M
HND,2023-05-16 21:56,-115.1344,35.9729,742.79,92.00,40.00,16.34,310.00,14.00,0.00,30.01,1014.90,10.00,M,CLR,M,M,M,M,M,M,M,M,M,M,M,M,M,M,87.78,KHND 162156Z 31014KT 10SM CLR 33/04 A3001 RMK AO2 LTG DSNT SE SLP149 T03330044,M
LAS,2023-05-16 21:56,-115.1634,36.0719,663.00,92.00,38.00,15.11,290.00,14.00,0.00,29.98,1012.40,10.00,M,FEW,SCT,BKN,M,11000.00,18000.00,25000.00,M,M,M,M,M,35.00,290.00,2023-05-16 21:06,87.69,KLAS 162156Z 29014KT 10SM FEW110 SCT180 BKN250 33/03 A2998 RMK AO2 PK WND 29035/2106 LTG DSNT SE SLP124 CB DSNT NE-SE T03330033,M
05U,2023-05-16 22:10,-116.0051,39.6042,1811.23,69.80,35.60,28.39,10.00,16.00,0.00,30.24,M,10.00,M,CLR,M,M,M,M,M,M,M,M,M,M,M,M,M,M,69.80,K05U 162210Z AUTO 01016KT 10SM CLR 21/02 A3024 RMK A01,M
BVU,2023-05-16 22:15,-114.8611,35.9475,671.00,91.40,37.40,15.05,320.00,17.00,0.00,29.95,M,10.00,23.00,CLR,M,M,M,M,M,M,M,M,M,M,M,M,M,M,87.23,KBVU 162215Z AUTO 32017G23KT 10SM CLR 33/03 A2995 RMK AO2 LTG DSNT E AND SE,M
CXP,2023-05-16 22:15,-119.7326,39.1923,1431.00,78.80,26.60,14.59,280.00,16.00,0.00,30.16,M,10.00,23.00,CLR,M,M,M,M,M,M,M,M,M,M,M,M,M,M,78.80,KCXP 162215Z AUTO 28016G23KT 10SM CLR 26/M03 A3016 RMK AO2,M
RTS,2023-05-16 22:15,-119.8764,39.6682,1539.00,77.00,24.80,14.37,260.00,18.00,0.00,30.18,M,10.00,24.00,CLR,M,M,M,M,M,M,M,M,M,M,M,M,M,M,77.00,KRTS 162215Z AUTO 26018G24KT 10SM CLR 25/M04 A3018 RMK AO2,M
MEV,2023-05-16 22:15,-119.7500,38.9963,1441.42,80.60,32.00,17.14,300.00,10.00,0.00,30.15,M,10.00,M,CLR,M,M,M,M,M,M,M,M,M,M,M,M,M,M,78.82,KMEV 162215Z AUTO 30010KT 10SM CLR 27/M00 A3015 RMK AO2,M
BAM,2023-05-16 22:15,-116.8743,40.5990,1382.36,84.20,30.20,14.18,270.00,14.00,0.00,30.13,M,10.00,22.00,CLR,M,M,M,M,M,M,M,M,M,M,M,M,M,M,81.26,KBAM 162215Z AUTO 27014G22KT 10SM CLR 29/M01 A3013 RMK AO1,M
HTH,2023-05-16 22:15,-118.6315,38.5448,1282.89,82.40,26.60,12.97,M,5.00,0.00,30.09,M,10.00,M,CLR,M,M,M,M,M,M,M,M,M,M,M,M,M,M,79.92,KHTH 162215Z AUTO VRB05KT 10SM CLR 28/M03 A3009 RMK A01,M
TMT,2023-05-16 22:15,-117.1971,39.4643,1749.34,77.00,29.30,17.29,270.00,8.00,0.00,30.19,M,10.00,14.00,BKN,M,M,M,11000.00,M,M,M,M,M,M,M,M,M,M,77.00,KTMT 162215Z AUTO 27008G14KT 10SM BKN110 25/M01 A3019 RMK AO2 LTG DSNT N T02501015,M
05U,2023-05-16 22:30,-116.0051,39.6042,1811.23,71.60,39.20,30.77,40.00,13.00,0.00,30.24,M,10.00,18.00,CLR,M,M,M,M,M,M,M,M,M,M,M,M,M,M,71.60,K05U 162230Z AUTO 04013G18KT 010V080 10SM CLR 22/04 A3024 RMK A01,M
BVU,2023-05-16 22:35,-114.8611,35.9475,671.00,91.40,35.60,14.02,310.00,14.00,0.00,29.94,M,10.00,M,CLR,M,M,M,M,M,M,M,M,M,M,M,M,M,M,87.17,KBVU 162235Z AUTO 31014KT 10SM CLR 33/02 A2994 RMK AO2,M
CXP,2023-05-16 22:35,-119.7326,39.1923,1431.00,78.80,26.60,14.59,280.00,17.00,0.00,30.15,M,10.00,M,CLR,M,M,M,M,M,M,M,M,M,M,M,M,M,M,78.80,KCXP 162235Z AUTO 28017KT 10SM CLR 26/M03 A3015 RMK AO2,M
RTS,2023-05-16 22:35,-119.8764,39.6682,1539.00,77.00,23.00,13.32,230.00,17.00,0.00,30.17,M,10.00,26.00,CLR,M,M,M,M,M,M,M,M,M,M,M,M,M,M,77.00,KRTS 162235Z AUTO 23017G26KT 10SM CLR 25/M05 A3017 RMK AO2,M
MEV,2023-05-16 22:35,-119.7500,38.9963,1441.42,78.80,32.00,18.18,290.00,8.00,0.00,30.14,M,10.00,17.00,CLR,M,M,M,M,M,M,M,M,M,M,M,M,M,M,78.80,KMEV 162235Z AUTO 29008G17KT 250V310 10SM CLR 26/M00 A3014 RMK AO2,M
BAM,2023-05-16 22:35,-116.8743,40.5990,1382.36,82.40,30.20,15.03,270.00,8.00,0.00,30.12,M,10.00,11.00,SCT,M,M,M,12000.00,M,M,M,M,M,M,M,M,M,M,79.97,KBAM 162235Z AUTO 27008G11KT 10SM SCT120 28/M01 A3012 RMK AO1,M
HTH,2023-05-16 22:35,-118.6315,38.5448,1282.89,82.40,26.60,12.97,320.00,8.00,0.00,30.08,M,10.00,M,CLR,M,M,M,M,M,M,M,M,M,M,M,M,M,M,79.92,KHTH 162235Z AUTO 32008KT 10SM CLR 28/M03 A3008 RMK A01,M
TMT,2023-05-16 22:35,-117.1971,39.4643,1749.34,75.60,28.90,17.83,270.00,9.00,0.00,30.19,M,10.00,M,SCT,M,M,M,11000.00,M,M,M,M,M,M,M,M,M,M,75.60,KTMT 162235Z AUTO 27009KT 10SM SCT110 24/M02 A3019 RMK AO2 LTG DSNT N T02421017,M
05U,2023-05-16 22:50,-116.0051,39.6042,1811.23,69.80,37.40,30.49,60.00,9.00,0.00,30.24,M,10.00,M,BKN,M,M,M,9500.00,M,M,M,M,M,M,M,M,M,M,69.80,K05U 162250Z AUTO 06009KT 010V100 10SM BKN095 21/03 A3024 RMK A01,M
LOL,2023-05-16 22:53,-118.5701,40.0684,1192.43,85.00,28.90,13.15,180.00,9.00,0.00,30.06,1014.80,10.00,17.00,CLR,M,M,M,M,M,M,M,M,M,M,M,M,M,M,81.78,KLOL 162253Z AUTO 18009G17KT 10SM CLR 29/M02 A3006 RMK AO2 SLP148 T02941017,M
DRA,2023-05-16 22:53,-116.0278,36.6206,1009.00,91.00,35.00,13.91,200.00,12.00,0.00,30.00,1011.40,10.00,19.00,FEW,M,M,M,12000.00,M,M,M,M,M,M,M,M,M,M,86.81,KDRA 162253Z AUTO 20012G19KT 10SM FEW120 33/02 A3000 RMK AO2 SLP114 T03280017,M
P68,2023-05-16 22:53,-116.0056,39.6014,1993.00,69.00,38.00,31.85,100.00,8.00,0.00,30.22,1017.60,M,M,M,M,M,M,M,M,M,M,M,M,M,M,M,M,M,69.10,KP68 162253Z AUTO 10008KT 21/03 A3022 RMK AO1 SLP176 T02060033,M
VGT,2023-05-16 22:53,-115.1933,36.2111,667.00,92.00,38.00,15.11,M,5.00,0.00,29.93,1012.70,10.00,M,CLR,M,M,M,M,M,M,M,M,M,M,M,M,M,M,87.69,KVGT 162253Z VRB05KT 10SM CLR 33/03 A2993 RMK AO2 SLP127 T03330033,M
BVU,2023-05-16 22:55,-114.8611,35.9475,671.00,91.40,35.60,14.02,300.00,12.00,0.00,29.94,M,10.00,M,CLR,M,M,M,M,M,M,M,M,M,M,M,M,M,M,87.17,KBVU 162255Z AUTO 30012KT 10SM CLR 33/02 A2994 RMK AO2,M
CXP,2023-05-16 22:55,-119.7326,39.1923,1431.00,78.80,26.60,14.59,270.00,16.00,0.00,30.15,M,10.00,M,CLR,M,M,M,M,M,M,M,M,M,M,M,M,M,M,78.80,KCXP 162255Z AUTO 27016KT 10SM CLR 26/M03 A3015 RMK AO2,M
INS,2023-05-16 22:55,-115.6733,36.5872,955.00,86.40,31.50,13.93,240.00,8.00,0.00,30.00,1011.80,10.00,M,FEW,M,M,M,12000.00,M,M,M,M,M,M,M,M,M,M,82.95,KINS 162255Z AUTO 24008KT 10SM FEW120 30/M00 A3000 RMK AO2 SLP118 T03021003 $,M
RNO,2023-05-16 22:55,-119.7711,39.4839,1341.00,84.00,28.00,13.04,270.00,9.00,0.00,30.10,1014.80,10.00,M,FEW,FEW,M,M,12000.00,20000.00,M,M,M,M,M,M,M,M,M,81.10,KRNO 162255Z 27009KT 10SM FEW120 FEW200 29/M02 A3010 RMK AO2 SLP148 T02891022,M
RTS,2023-05-16 22:55,-119.8764,39.6682,1539.00,77.00,24.80,14.37,230.00,16.00,0.00,30.16,M,10.00,23.00,CLR,M,M,M,M,M,M,M,M,M,M,M,M,M,M,77.00,KRTS 162255Z AUTO 23016G23KT 10SM CLR 25/M04 A3016 RMK AO2,M
MEV,2023-05-16 22:55,-119.7500,38.9963,1441.42,78.80,32.00,18.18,290.00,12.00,0.00,30.14,M,10.00,M,CLR,M,M,M,M,M,M,M,M,M,M,M,M,M,M,78.80,KMEV 162255Z AUTO 29012KT 10SM CLR 26/M00 A3014 RMK AO2,M
BAM,2023-05-16 22:55,-116.8743,40.5990,1382.36,82.40,30.20,15.03,280.00,12.00,0.00,30.11,M,10.00,16.00,SCT,M,M,M,12000.00,M,M,M,M,M,M,M,M,M,M,79.97,KBAM 162255Z AUTO 28012G16KT 10SM SCT120 28/M01 A3011 RMK AO1,M
HTH,2023-05-16 22:55,-118.6315,38.5448,1282.89,82.40,28.40,13.96,320.00,9.00,0.00,30.08,M,10.00,M,CLR,M,M,M,M,M,M,M,M,M,M,M,M,M,M,79.94,KHTH 162255Z AUTO 32009KT 10SM CLR 28/M02 A3008 RMK A01,M
TMT,2023-05-16 22:55,-117.1971,39.4643,1749.34,75.60,29.30,18.12,300.00,6.00,0.00,30.18,M,10.00,M,SCT,M,M,M,12000.00,M,M,M,M,M,M,M,M,M,M,75.60,KTMT 162255Z AUTO 30006KT 10SM SCT120 24/M01 A3018 RMK AO2 T02421015,M
LSV,2023-05-16 22:55,-115.0343,36.2362,570.00,95.00,36.30,12.89,260.00,9.00,0.00,29.89,1009.70,10.00,M,FEW,FEW,M,M,18000.00,20000.00,M,M,M,M,M,M,M,M,M,90.37,KLSV 162255Z AUTO 26009KT 10SM FEW180 FEW200 35/02 A2989 RMK AO2 SLP097 T03500024 $,M
WMC,2023-05-16 22:56,-117.8072,40.9019,1315.00,83.00,27.00,12.97,270.00,11.00,0.00,30.09,1015.20,10.00,21.00,CLR,M,M,M,M,M,M,M,M,M,M,M,M,M,M,80.28,KWMC 162256Z AUTO 27011G21KT 10SM CLR 28/M03 A3009 RMK AO2 SLP152 T02831028,M
NFL,2023-05-16 22:56,-118.7010,39.4166,1199.00,85.00,30.00,13.75,M,5.00,0.00,30.06,1014.80,10.00,M,SCT,SCT,M,M,6000.00,25000.00,M,M,M,M,M,M,M,M,M,81.79,KNFL 162256Z VRB05KT 10SM SCT060 SCT250 29/M01 A3006 RMK AO2 SLP148 T02941011,M
HND,2023-05-16 22:56,-115.1344,35.9729,742.79,92.00,41.00,17.05,290.00,12.00,0.00,29.98,1013.70,10.00,M,CLR,M,M,M,M,M,M,M,M,M,M,M,M,M,M,87.85,KHND 162256Z 29012KT 10SM CLR 33/05 A2998 RMK AO2 SLP137 T03330050,M
TPH,2023-05-16 22:56,-117.0904,38.0505,1654.00,M,M,M,M,M,0.00,30.13,M,M,M,M,M,M,M,M,M,M,M,M,M,M,M,M,M,M,M,KTPH 162256Z AUTO A3013 RMK AO2 SLPNO PWINO $,M
INS,2023-05-16 22:56,-115.6733,36.5872,955.00,86.00,32.00,14.40,310.00,12.00,0.00,30.00,1011.80,10.00,M,FEW,M,M,M,13000.00,M,M,M,M,M,M,M,M,M,M,82.64,KINS 162256Z AUTO 31012KT 10SM FEW130 30/M00 A3000 RMK AO2 WSHFT 55 SLP118 $,M
LAS,2023-05-16 22:56,-115.1634,36.0719,663.00,93.00,38.00,14.60,290.00,9.00,0.00,29.94,1011.20,10.00,M,SCT,SCT,BKN,M,11000.00,18000.00,25000.00,M,M,M,M,M,M,M,M,88.67,KLAS 162256Z 29009KT 10SM SCT110 SCT180 BKN250 34/03 A2994 RMK AO2 SLP112 CB DSNT N AND E-SE T03390033,M
EKO,2023-05-16 22:56,-115.7860,40.8242,1367.00,80.00,35.00,19.72,280.00,10.00,0.00,30.12,1015.90,10.00,17.00,CLR,M,M,M,M,M,M,M,M,M,M,M,M,M,M,78.74,KEKO 162256Z AUTO 28010G17KT 10SM CLR 27/02 A3012 RMK AO2 SLP159 T02670017,M
05U,2023-05-16 23:10,-116.0051,39.6042,1811.23,71.60,35.60,26.71,60.00,9.00,0.00,30.22,M,10.00,M,SCT,M,M,M,9500.00,M,M,M,M,M,M,M,M,M,M,71.60,K05U 162310Z AUTO 06009KT 020V090 10SM SCT095 22/02 A3022 RMK A01,M
BVU,2023-05-16 23:15,-114.8611,35.9475,671.00,91.40,35.60,14.02,300.00,8.00,0.00,29.94,M,10.00,M,CLR,M,M,M,M,M,M,M,M,M,M,M,M,M,M,87.17,KBVU 162315Z AUTO 30008KT 280V350 10SM CLR 33/02 A2994 RMK AO2,M
CXP,2023-05-16 23:15,-119.7326,39.1923,1431.00,80.60,28.40,14.81,280.00,14.00,0.00,30.14,M,10.00,M,CLR,M,M,M,M,M,M,M,M,M,M,M,M,M,M,78.72,KCXP 162315Z AUTO 28014KT 10SM CLR 27/M02 A3014 RMK AO2,M
RTS,2023-05-16 23:15,-119.8764,39.6682,1539.00,77.00,24.80,14.37,230.00,12.00,0.00,30.16,M,10.00,25.00,CLR,M,M,M,M,M,M,M,M,M,M,M,M,M,M,77.00,KRTS 162315Z AUTO 23012G25KT 10SM CLR 25/M04 A3016 RMK AO2,M
MEV,2023-05-16 23:15,-119.7500,38.9963,1441.42,78.80,32.00,18.18,270.00,12.00,0.00,30.13,M,10.00,M,CLR,M,M,M,M,M,M,M,M,M,M,M,M,M,M,78.80,KMEV 162315Z AUTO 27012KT 10SM CLR 26/M00 A3013 RMK AO2,M
BAM,2023-05-16 23:15,-116.8743,40.5990,1382.36,82.40,28.40,13.96,0.00,0.00,0.00,30.10,M,10.00,M,CLR,M,M,M,M,M,M,M,M,M,M,M,M,M,M,79.94,KBAM 162315Z AUTO 00000KT 10SM CLR 28/M02 A3010 RMK AO1,M
HTH,2023-05-16 23:15,-118.6315,38.5448,1282.89,82.40,26.60,12.97,320.00,7.00,0.00,30.07,M,10.00,M,CLR,M,M,M,M,M,M,M,M,M,M,M,M,M,M,79.92,KHTH 162315Z AUTO 32007KT 10SM CLR 28/M03 A3007 RMK A01,M
TMT,2023-05-16 23:15,-117.1971,39.4643,1749.34,74.80,29.50,18.76,320.00,7.00,0.00,30.16,M,10.00,M,BKN,M,M,M,11000.00,M,M,M,M,M,M,M,M,M,M,74.80,KTMT 162315Z AUTO 32007KT 10SM BKN110 24/M01 A3016 RMK AO2 T02381014,M
05U,2023-05-16 23:30,-116.0051,39.6042,1811.23,73.40,35.60,25.13,30.00,8.00,0.00,30.22,M,10.00,M,CLR,M,M,M,M,M,M,M,M,M,M,M,M,M,M,73.40,K05U 162330Z AUTO 03008KT 10SM CLR 23/02 A3022 RMK A01,M
DRA,2023-05-16 23:34,-116.0278,36.6206,1009.00,91.00,37.00,15.00,230.00,13.00,0.00,29.98,M,10.00,25.00,SCT,M,M,M,12000.00,M,M,M,M,M,M,M,M,M,M,86.86,KDRA 162334Z AUTO 23013G25KT 10SM SCT120 33/03 A2998 RMK AO2 WSHFT 2317 T03280028,M
BVU,2023-05-16 23:35,-114.8611,35.9475,671.00,91.40,37.40,15.05,10.00,7.00,0.00,29.93,M,10.00,M,CLR,M,M,M,M,M,M,M,M,M,M,M,M,M,M,87.23,KBVU 162335Z AUTO 01007KT 10SM CLR 33/03 A2993 RMK AO2,M
CXP,2023-05-16 23:35,-119.7326,39.1923,1431.00,78.80,28.40,15.71,250.00,11.00,0.00,30.14,M,10.00,M,CLR,M,M,M,M,M,M,M,M,M,M,M,M,M,M,78.80,KCXP 162335Z AUTO 25011KT 10SM CLR 26/M02 A3014 RMK AO2,M
RTS,2023-05-16 23:35,-119.8764,39.6682,1539.00,77.00,24.80,14.37,240.00,12.00,0.00,30.15,M,10.00,22.00,CLR,M,M,M,M,M,M,M,M,M,M,M,M,M,M,77.00,KRTS 162335Z AUTO 24012G22KT 10SM CLR 25/M04 A3015 RMK AO2,M
MEV,2023-05-16 23:35,-119.7500,38.9963,1441.42,78.80,32.00,18.18,280.00,10.00,0.00,30.12,M,10.00,15.00,CLR,M,M,M,M,M,M,M,M,M,M,M,M,M,M,78.80,KMEV 162335Z AUTO 28010G15KT 10SM CLR 26/M00 A3012 RMK AO2,M
BAM,2023-05-16 23:35,-116.8743,40.5990,1382.36,82.40,30.20,15.03,240.00,8.00,0.00,30.09,M,10.00,M,CLR,M,M,M,M,M,M,M,M,M,M,M,M,M,M,79.97,KBAM 162335Z AUTO 24008KT 10SM CLR 28/M01 A3009 RMK AO1,M
HTH,2023-05-16 23:35,-118.6315,38.5448,1282.89,80.60,26.60,13.75,320.00,7.00,0.00,30.06,M,10.00,M,CLR,M,M,M,M,M,M,M,M,M,M,M,M,M,M,78.68,KHTH 162335Z AUTO 32007KT 10SM CLR 27/M03 A3006 RMK A01,M
TMT,2023-05-16 23:35,-117.1971,39.4643,1749.34,75.00,29.50,18.64,340.00,7.00,0.00,30.16,M,10.00,M,OVC,M,M,M,11000.00,M,M,M,M,M,M,M,M,M,M,75.00,KTMT 162335Z AUTO 34007KT 10SM OVC110 24/M01 A3016 RMK AO2 T02391014,M
05U,2023-05-16 23:50,-116.0051,39.6042,1811.23,75.20,35.60,23.66,M,6.00,0.00,30.21,M,10.00,11.00,CLR,M,M,M,M,M,M,M,M,M,M,M,M,M,M,75.20,K05U 162350Z AUTO VRB06G11KT 10SM CLR 24/02 A3021 RMK A01,M
DRA,2023-05-16 23:53,-116.0278,36.6206,1009.00,90.00,37.00,15.48,250.00,10.00,0.00,29.98,1010.80,10.00,20.00,FEW,M,M,M,12000.00,M,M,M,M,M,M,M,M,M,M,86.00,KDRA 162353Z AUTO 25010G20KT 10SM FEW120 32/03 A2998 RMK AO2 WSHFT 2317 SLP108 T03220028 10333 20294 58021,M
LOL,2023-05-16 23:53,-118.5701,40.0684,1192.43,81.00,28.00,14.38,200.00,4.00,0.00,30.03,1014.50,10.00,M,CLR,M,M,M,M,M,M,M,M,M,M,M,M,M,M,78.98,KLOL 162353Z AUTO 20004KT 10SM CLR 27/M02 A3003 RMK AO2 SLP145 T02721022 10294 20233 57026,M
P68,2023-05-16 23:53,-116.0056,39.6014,1993.00,73.00,35.00,24.97,110.00,8.00,0.00,30.18,1015.80,M,M,M,M,M,M,M,M,M,M,M,M,M,M,M,M,M,73.00,KP68 162353Z AUTO 11008KT 23/02 A3018 RMK AO1 SLP158 T02280017 10244 20206 58011,M
VGT,2023-05-16 23:53,-115.1933,36.2111,667.00,92.00,40.00,16.34,140.00,5.00,0.00,29.92,1012.30,10.00,M,CLR,M,M,M,M,M,M,M,M,M,M,M,M,M,M,87.78,KVGT 162353Z 14005KT 10SM CLR 33/04 A2992 RMK AO2 SLP123 T03330044 10350 20322 56024,M
BVU,2023-05-16 23:55,-114.8611,35.9475,671.00,87.80,44.60,22.27,110.00,18.00,0.00,29.93,M,10.00,M,CLR,M,M,M,M,M,M,M,M,M,M,M,M,M,M,84.53,KBVU 162355Z AUTO 11018KT 10SM CLR 31/07 A2993 RMK AO2,M
CXP,2023-05-16 23:55,-119.7326,39.1923,1431.00,78.80,28.40,15.71,230.00,10.00,0.00,30.13,M,10.00,18.00,CLR,M,M,M,M,M,M,M,M,M,M,M,M,M,M,78.80,KCXP 162355Z AUTO 23010G18KT 10SM CLR 26/M02 A3013 RMK AO2,M
RNO,2023-05-16 23:55,-119.7711,39.4839,1341.00,83.00,28.00,13.52,240.00,13.00,0.00,30.09,1014.10,10.00,M,FEW,FEW,M,M,11000.00,20000.00,M,M,M,M,M,M,M,M,M,80.29,KRNO 162355Z 24013KT 10SM FEW110 FEW200 28/M02 A3009 RMK AO2 SLP141 T02831022 10294 20222 58017,M
RTS,2023-05-16 23:55,-119.8764,39.6682,1539.00,77.00,24.80,14.37,240.00,15.00,0.00,30.15,M,10.00,21.00,CLR,M,M,M,M,M,M,M,M,M,M,M,M,M,M,77.00,KRTS 162355Z AUTO 24015G21KT 10SM CLR 25/M04 A3015 RMK AO2,M
MEV,2023-05-16 23:55,-119.7500,38.9963,1441.42,78.80,32.00,18.18,280.00,12.00,0.00,30.12,M,10.00,M,CLR,M,M,M,M,M,M,M,M,M,M,M,M,M,M,78.80,KMEV 162355Z AUTO 28012KT 240V300 10SM CLR 26/00 A3012 RMK AO2,M
BAM,2023-05-16 23:55,-116.8743,40.5990,1382.36,84.20,30.20,14.18,240.00,9.00,0.00,30.09,M,10.00,M,SCT,M,M,M,12000.00,M,M,M,M,M,M,M,M,M,M,81.26,KBAM 162355Z AUTO 24009KT 10SM SCT120 29/M01 A3009 RMK AO1,M
HTH,2023-05-16 23:55,-118.6315,38.5448,1282.89,80.60,24.80,12.76,280.00,6.00,0.00,30.06,M,10.00,M,CLR,M,M,M,M,M,M,M,M,M,M,M,M,M,M,78.94,KHTH 162355Z AUTO 28006KT 10SM CLR 27/M04 A3006 RMK A01,M
TMT,2023-05-16 23:55,-117.1971,39.4643,1749.34,75.60,30.00,18.64,310.00,8.00,0.00,30.16,M,10.00,M,BKN,M,M,M,11000.00,M,M,M,M,M,M,M,M,M,M,75.60,KTMT 162355Z AUTO 31008KT 10SM BKN110 24/M01 A3016 RMK AO2 T02421011 10260 20208,M
INS,2023-05-16 23:55,-115.6733,36.5872,955.00,87.00,32.00,13.90,70.00,3.00,0.00,29.98,1010.90,10.00,M,FEW,SCT,M,M,18000.00,20000.00,M,M,M,M,M,M,M,M,M,83.51,KINS 162355Z AUTO 07003KT 10SM FEW180 SCT200 31/00 A2998 RMK AO2 SLP109 60001 T03060000 10310 20247 57023 $,M
LSV,2023-05-16 23:55,-115.0343,36.2362,570.00,94.80,34.30,11.98,240.00,8.00,0.00,29.88,1009.20,10.00,M,SCT,BKN,M,M,18000.00,20000.00,M,M,M,M,M,M,M,M,M,89.88,KLSV 162355Z AUTO 24008KT 10SM SCT180 BKN200 35/01 A2988 RMK AO2 SLP092 T03490013 10379 20338 57022 $,M
EKO,2023-05-16 23:56,-115.7860,40.8242,1367.00,78.00,34.00,20.16,0.00,0.00,0.00,30.11,1015.70,10.00,M,FEW,M,M,M,10000.00,M,M,M,M,M,M,M,M,M,M,78.10,KEKO 162356Z AUTO 00000KT 10SM FEW100 26/01 A3011 RMK AO2 SLP157 T02560011 10272 20211 56021,M
WMC,2023-05-16 23:56,-117.8072,40.9019,1315.00,83.00,26.10,12.50,270.00,5.00,0.00,30.07,1014.70,10.00,M,CLR,M,M,M,M,M,M,M,M,M,M,M,M,M,M,80.21,KWMC 162356Z AUTO 27005KT 10SM CLR 28/M03 A3007 RMK AO2 SLP147 T02831033 10289 20244 56021,M
NFL,2023-05-16 23:56,-118.7010,39.4166,1199.00,86.00,28.90,12.69,M,5.00,0.00,30.04,1014.00,10.00,M,SCT,SCT,M,M,6000.00,25000.00,M,M,M,M,M,M,M,M,M,82.58,KNFL 162356Z VRB05KT 10SM SCT060 SCT250 30/M02 A3004 RMK AO2 SLP140 T03001017 10306 20244 56024,M
HND,2023-05-16 23:56,-115.1344,35.9729,742.79,91.00,41.00,17.54,300.00,5.00,0.00,29.97,1013.60,10.00,M,CLR,M,M,M,M,M,M,M,M,M,M,M,M,M,M,87.04,KHND 162356Z 30005KT 10SM CLR 33/05 A2997 RMK AO2 SLP136 T03280050 10339 20306 56020,M
TPH,2023-05-16 23:56,-117.0904,38.0505,1654.00,M,M,M,M,M,0.00,30.12,M,M,M,M,M,M,M,M,M,M,M,M,M,M,M,M,M,M,M,KTPH 162356Z AUTO A3012 RMK AO2 SLPNO 56017 PWINO $,M
LAS,2023-05-16 23:56,-115.1634,36.0719,663.00,91.00,40.00,16.80,260.00,7.00,0.00,29.93,1010.90,10.00,M,SCT,SCT,BKN,M,11000.00,18000.00,25000.00,M,M,M,M,M,M,M,M,86.98,KLAS 162356Z 26007KT 10SM SCT110 SCT180 BKN250 33/04 A2993 RMK AO2 SLP109 ACC N CB DSNT NE-SE T03280044 10344 20300 56025,M
