station,valid,lon,lat,elevation,tmpf,dwpf,relh,drct,sknt,p01i,alti,mslp,vsby,gust,skyc1,skyc2,skyc3,skyc4,skyl1,skyl2,skyl3,skyl4,wxcodes,ice_accretion_1hr,ice_accretion_3hr,ice_accretion_6hr,peak_wind_gust,peak_wind_drct,peak_wind_time,feel,metar,snowdepth
BVU,2023-08-01 00:15,-114.8611,35.9475,671.00,93.20,55.40,28.10,210.00,17.00,0.00,29.89,M,9.00,25.00,CLR,M,M,M,M,M,M,M,M,M,M,M,M,M,M,91.35,KBVU 010015Z AUTO 21017G25KT 9SM CLR 34/13 A2989 RMK AO2 LTG DSNT E AND SW,M
CXP,2023-08-01 00:15,-119.7326,39.1923,1431.00,87.80,32.00,13.59,280.00,14.00,0.00,30.11,M,10.00,22.00,CLR,M,M,M,M,M,M,M,M,M,M,M,M,M,M,84.08,KCXP 010015Z AUTO 28014G22KT 10SM CLR 31/M00 A3011 RMK AO2,M
RTS,2023-08-01 00:15,-119.8764,39.6682,1539.00,87.80,19.40,8.06,250.00,17.00,0.00,30.13,M,10.00,M,CLR,M,M,M,M,M,M,M,M,M,M,M,M,M,M,83.23,KRTS 010015Z AUTO 25017KT 10SM CLR 31/M07 A3013 RMK AO2,M
05U,2023-08-01 00:15,-116.0051,39.6042,1811.23,84.20,37.40,18.91,M,M,0.00,30.16,M,5.00,M,M,M,M,M,M,M,M,M,HZ,M,M,M,M,M,M,81.38,K05U 010015Z AUTO 5SM HZ 29/03 A3016 RMK A01,M
MEV,2023-08-01 00:15,-119.7500,38.9963,1441.42,84.20,32.00,15.25,210.00,12.00,0.00,30.10,M,10.00,M,CLR,M,M,M,M,M,M,M,M,M,M,M,M,M,M,81.28,KMEV 010015Z AUTO 21012KT 10SM CLR 29/M00 A3010 RMK AO2,M
HTH,2023-08-01 00:15,-118.6315,38.5448,1282.89,95.00,32.00,10.85,320.00,13.00,0.00,29.99,M,10.00,M,CLR,M,M,M,M,M,M,M,M,M,M,M,M,M,M,89.71,KHTH 010015Z AUTO 32013KT 10SM CLR 35/M00 A2999 RMK A01,M
TMT,2023-08-01 00:15,-117.1971,39.4643,1749.34,88.70,33.30,13.92,330.00,9.00,0.00,30.12,M,M,17.00,CLR,M,M,M,M,M,M,M,M,M,M,M,M,M,M,84.83,KTMT 010015Z AUTO 33009G17KT CLR 32/01 A3012 RMK AO2 T03150007 PWINO,M
10U,2023-08-01 00:15,-116.1876,41.9532,1637.00,91.40,28.40,10.48,180.00,6.00,0.00,30.10,M,10.00,M,CLR,M,M,M,M,M,M,M,M,M,M,M,M,M,M,86.53,K10U 010015Z AUTO 18006KT 10SM CLR 33/M02 A3010 RMK AO2,M
BAM,2023-08-01 00:15,-116.8743,40.5990,1382.36,96.80,35.60,11.86,350.00,12.00,0.00,30.01,M,10.00,16.00,CLR,M,M,M,M,M,M,M,M,M,M,M,M,M,M,91.72,KBAM 010015Z AUTO 35012G16KT 10SM CLR 36/02 A3001 RMK AO1,M
HND,2023-08-01 00:20,-115.1344,35.9729,742.79,98.60,53.60,22.29,200.00,11.00,0.00,29.92,M,10.00,14.00,CLR,M,M,M,M,M,M,M,VCTS,M,M,M,M,M,M,96.51,KHND 010020Z 20011G14KT 10SM VCTS CLR 37/12 A2992 RMK AO2 LTG DSNT E-S TSB14,M
BVU,2023-08-01 00:35,-114.8611,35.9475,671.00,91.40,55.40,29.72,220.00,19.00,0.00,29.89,M,10.00,M,CLR,M,M,M,M,M,M,M,M,M,M,M,M,M,M,89.53,KBVU 010035Z AUTO 22019KT 10SM CLR 33/13 A2989 RMK AO2 LTG DSNT ALQDS,M
CXP,2023-08-01 00:35,-119.7326,39.1923,1431.00,87.80,32.00,13.59,260.00,9.00,0.00,30.11,M,10.00,17.00,CLR,M,M,M,M,M,M,M,M,M,M,M,M,M,M,84.08,KCXP 010035Z AUTO 26009G17KT 240V300 10SM CLR 31/M00 A3011 RMK AO2,M
RTS,2023-08-01 00:35,-119.8764,39.6682,1539.00,86.00,15.80,7.31,250.00,14.00,0.00,30.13,M,10.00,M,CLR,M,M,M,M,M,M,M,M,M,M,M,M,M,M,81.78,KRTS 010035Z AUTO 25014KT 10SM CLR 30/M09 A3013 RMK AO2,M
05U,2023-08-01 00:35,-116.0051,39.6042,1811.23,82.40,37.40,20.04,M,M,0.00,30.17,M,6.00,M,M,M,M,M,M,M,M,M,HZ,M,M,M,M,M,M,80.14,K05U 010035Z AUTO 6SM HZ 28/03 A3017 RMK A01,M
MEV,2023-08-01 00:35,-119.7500,38.9963,1441.42,84.20,33.80,16.39,210.00,8.00,0.00,30.10,M,10.00,M,CLR,M,M,M,M,M,M,M,M,M,M,M,M,M,M,81.30,KMEV 010035Z AUTO 21008KT 10SM CLR 29/01 A3010 RMK AO2,M
HTH,2023-08-01 00:35,-118.6315,38.5448,1282.89,93.20,30.20,10.67,320.00,13.00,0.00,29.99,M,10.00,M,CLR,M,M,M,M,M,M,M,M,M,M,M,M,M,M,88.09,KHTH 010035Z AUTO 32013KT 10SM CLR 34/M01 A2999 RMK A01,M
TMT,2023-08-01 00:35,-117.1971,39.4643,1749.34,88.00,33.80,14.52,340.00,7.00,0.00,30.12,M,M,M,CLR,M,M,M,M,M,M,M,M,M,M,M,M,M,M,84.26,KTMT 010035Z AUTO 34007KT CLR 31/01 A3012 RMK AO2 T03120010 PWINO,M
10U,2023-08-01 00:35,-116.1876,41.9532,1637.00,91.40,28.40,10.48,270.00,12.00,0.00,30.11,M,10.00,M,CLR,M,M,M,M,M,M,M,M,M,M,M,M,M,M,86.53,K10U 010035Z AUTO 27012KT 250V310 10SM CLR 33/M02 A3011 RMK AO2,M
BAM,2023-08-01 00:35,-116.8743,40.5990,1382.36,96.80,33.80,11.04,350.00,11.00,0.00,30.01,M,10.00,M,CLR,M,M,M,M,M,M,M,M,M,M,M,M,M,M,91.44,KBAM 010035Z AUTO 35011KT 10SM CLR 36/01 A3001 RMK AO1,M
HND,2023-08-01 00:39,-115.1344,35.9729,742.79,96.80,55.40,25.15,170.00,18.00,0.00,29.93,M,10.00,23.00,SCT,M,M,M,9500.00,M,M,M,M,M,M,M,M,M,M,95.14,KHND 010039Z 17018G23KT 10SM SCT095 36/13 A2993 RMK AO2 LTG DSNT NE-S TSB14E33,M
P68,2023-08-01 00:53,-116.0056,39.6014,1993.00,85.00,35.00,16.76,M,5.00,0.00,30.12,1011.40,M,22.00,M,M,M,M,M,M,M,M,M,M,M,M,60.00,200.00,2023-08-01 00:29,81.91,KP68 010053Z AUTO VRB05G22KT 29/02 A3012 RMK AO1 PK WND 20060/0029 SLP114 T02940017,M
DRA,2023-08-01 00:53,-116.0278,36.6206,1009.00,91.00,46.00,21.24,220.00,14.00,0.00,29.97,1009.50,10.00,M,CLR,M,M,M,M,M,M,M,M,M,M,M,26.00,240.00,2023-08-01 00:12,87.45,KDRA 010053Z AUTO 22014KT 10SM CLR 33/08 A2997 RMK AO2 PK WND 24026/0012 SLP095 T03280078,M
ELY,2023-08-01 00:53,-114.8453,39.2950,1909.00,77.00,44.00,30.90,140.00,17.00,0.00,30.21,1013.00,10.00,28.00,BKN,M,M,M,11000.00,M,M,M,VCTS,M,M,M,39.00,160.00,2023-08-01 00:14,77.00,KELY 010053Z AUTO 14017G28KT 10SM VCTS BKN110 25/07 A3021 RMK AO2 PK WND 16039/0014 LTG DSNT E SLP130 T02500067,M
VGT,2023-08-01 00:53,-115.1933,36.2111,667.00,101.00,50.00,18.15,160.00,9.00,0.00,29.87,1009.80,10.00,M,CLR,M,M,M,M,M,M,M,M,M,M,M,M,M,M,98.04,KVGT 010053Z 16009KT 10SM CLR 38/10 A2987 RMK AO2 LTG DSNT E SLP098 T03830100,M
LOL,2023-08-01 00:53,-118.5701,40.0684,1192.43,94.00,33.00,11.65,100.00,5.00,0.00,29.97,1010.90,10.00,M,CLR,M,M,M,M,M,M,M,M,M,M,M,M,M,M,89.06,KLOL 010053Z AUTO 10005KT 10SM CLR 34/01 A2997 RMK AO2 SLP109 T03440006,M
BVU,2023-08-01 00:55,-114.8611,35.9475,671.00,87.80,60.80,40.41,210.00,15.00,0.00,29.90,M,7.00,20.00,CLR,M,M,M,M,M,M,M,M,M,M,M,M,M,M,87.75,KBVU 010055Z AUTO 21015G20KT 7SM CLR 31/16 A2990 RMK AO2,M
CXP,2023-08-01 00:55,-119.7326,39.1923,1431.00,86.00,32.00,14.40,280.00,10.00,0.00,30.11,M,10.00,15.00,CLR,M,M,M,M,M,M,M,M,M,M,M,M,M,M,82.64,KCXP 010055Z AUTO 28010G15KT 10SM CLR 30/00 A3011 RMK AO2,M
INS,2023-08-01 00:55,-115.6733,36.5872,955.00,95.00,44.80,17.92,260.00,7.00,0.00,29.94,1008.40,10.00,M,CLR,M,M,M,M,M,M,M,M,M,M,M,M,M,M,91.08,KINS 010055Z AUTO 26007KT 10SM CLR 35/07 A2994 RMK AO2 SLP084 T03500071 $,M
RNO,2023-08-01 00:55,-119.7711,39.4839,1341.00,92.00,25.00,8.94,280.00,12.00,0.00,30.06,1011.90,10.00,M,BKN,M,M,M,25000.00,M,M,M,M,M,M,M,M,M,M,86.68,KRNO 010055Z 28012KT 10SM BKN250 33/M04 A3006 RMK AO2 SLP119 T03331039,M
RTS,2023-08-01 00:55,-119.8764,39.6682,1539.00,86.00,12.20,6.24,250.00,14.00,0.00,30.14,M,10.00,M,CLR,M,M,M,M,M,M,M,M,M,M,M,M,M,M,81.64,KRTS 010055Z AUTO 25014KT 10SM CLR 30/M11 A3014 RMK AO2,M
05U,2023-08-01 00:55,-116.0051,39.6042,1811.23,86.00,35.60,16.63,M,M,0.00,30.14,M,10.00,M,M,M,M,M,M,M,M,M,M,M,M,M,M,M,M,82.69,K05U 010055Z AUTO 10SM 30/02 A3014 RMK A01,M
MEV,2023-08-01 00:55,-119.7500,38.9963,1441.42,84.20,30.20,14.18,220.00,6.00,0.00,30.10,M,10.00,11.00,CLR,M,M,M,M,M,M,M,M,M,M,M,M,M,M,81.26,KMEV 010055Z AUTO 22006G11KT 10SM CLR 29/M01 A3010 RMK AO2,M
HTH,2023-08-01 00:55,-118.6315,38.5448,1282.89,93.20,30.20,10.67,320.00,11.00,0.00,29.99,M,10.00,M,CLR,M,M,M,M,M,M,M,M,M,M,M,M,M,M,88.09,KHTH 010055Z AUTO 32011KT 10SM CLR 34/M01 A2999 RMK A01,M
TMT,2023-08-01 00:55,-117.1971,39.4643,1749.34,89.60,34.00,13.92,310.00,8.00,0.00,30.12,M,M,M,CLR,M,M,M,M,M,M,M,M,M,M,M,M,M,M,85.59,KTMT 010055Z AUTO 31008KT CLR 32/01 A3012 RMK AO2 T03200011 PWINO,M
BAM,2023-08-01 00:55,-116.8743,40.5990,1382.36,96.80,33.80,11.04,340.00,11.00,0.00,30.01,M,10.00,M,CLR,M,M,M,M,M,M,M,M,M,M,M,M,M,M,91.44,KBAM 010055Z AUTO 34011KT 10SM CLR 36/01 A3001 RMK AO1,M
10U,2023-08-01 00:55,-116.1876,41.9532,1637.00,89.60,28.40,11.09,280.00,12.00,0.00,30.11,M,10.00,M,CLR,M,M,M,M,M,M,M,M,M,M,M,M,M,M,85.17,K10U 010055Z AUTO 28012KT 10SM CLR 32/M02 A3011 RMK AO2,M
LSV,2023-08-01 00:55,-115.0343,36.2362,570.00,100.00,53.00,20.90,160.00,10.00,0.00,29.82,1006.80,10.00,M,BKN,M,M,M,16000.00,M,M,M,FU,M,M,M,M,M,M,97.82,KLSV 010055Z 16010KT 10SM FU BKN160 38/12 A2982 RMK A02A SLP068 T03770116,M
EKO,2023-08-01 00:56,-115.7860,40.8242,1367.00,93.00,32.00,11.55,290.00,7.00,0.00,30.04,1011.00,10.00,M,CLR,M,M,M,M,M,M,M,M,M,M,M,M,M,M,88.15,KEKO 010056Z AUTO 29007KT 260V320 10SM CLR 34/00 A3004 RMK AO2 SLP110 T03390000,M
WMC,2023-08-01 00:56,-117.8072,40.9019,1315.00,95.00,28.00,9.22,230.00,12.00,0.00,30.01,1011.00,10.00,20.00,FEW,M,M,M,12000.00,M,M,M,M,M,M,M,M,M,M,89.22,KWMC 010056Z AUTO 23012G20KT 10SM FEW120 35/M02 A3001 RMK AO2 SLP110 T03501022,M
NFL,2023-08-01 00:56,-118.7010,39.4166,1199.00,95.00,31.00,10.42,0.00,0.00,0.00,29.97,1012.20,10.00,M,FEW,SCT,SCT,M,7000.00,15000.00,22000.00,M,M,M,M,M,M,M,M,89.58,KNFL 010056Z 00000KT 10SM FEW070 SCT150 SCT220 35/M01 A2997 RMK AO2 SLP122 ACSL DSNT ALQDS T03501006,M
HND,2023-08-01 00:56,-115.1344,35.9729,742.79,92.00,57.00,30.91,160.00,16.00,0.00,29.94,1012.00,10.00,24.00,FEW,BKN,BKN,M,6500.00,9000.00,10000.00,M,M,M,M,M,27.00,170.00,2023-08-01 00:41,90.60,KHND 010056Z 16016G24KT 10SM FEW065 BKN090 BKN100 33/14 A2994 RMK AO2 PK WND 17027/0041 LTG DSNT E TSB14E33 SLP120 T03330139,M
TPH,2023-08-01 00:56,-117.0904,38.0505,1654.00,90.00,46.00,21.91,190.00,22.00,0.00,30.09,1010.30,10.00,29.00,CLR,M,M,M,M,M,M,M,M,M,M,M,29.00,180.00,2023-08-01 00:55,86.55,KTPH 010056Z AUTO 19022G29KT 10SM CLR 32/08 A3009 RMK AO2 PK WND 18029/0055 SLP103 T03220078,M
LAS,2023-08-01 00:56,-115.1634,36.0719,663.00,99.00,52.00,20.77,190.00,9.00,0.00,29.88,1008.50,10.00,17.00,FEW,BKN,BKN,M,12000.00,18000.00,22000.00,M,M,M,M,M,M,M,M,96.47,KLAS 010056Z 19009G17KT 10SM FEW120 BKN180 BKN220 37/11 A2988 RMK AO2 LTG DSNT E SLP085 ACC SE FU ALQDS CB DSNT N AND NE-SE-S T03720111,M
ELY,2023-08-01 01:01,-114.8453,39.2950,1909.00,77.00,44.00,30.90,140.00,24.00,0.00,30.21,M,10.00,32.00,BKN,M,M,M,11000.00,M,M,M,M,M,M,M,32.00,140.00,2023-08-01 01:00,77.00,KELY 010101Z AUTO 14024G32KT 10SM BKN110 25/07 A3021 RMK AO2 PK WND 14032/0100 LTG DSNT NE AND E T02500067,M
05U,2023-08-01 01:10,-116.0051,39.6042,1811.23,84.20,39.20,20.29,M,M,0.00,30.16,M,10.00,M,M,M,M,M,M,M,M,M,M,M,M,M,M,M,M,81.44,K05U 010110Z AUTO 10SM 29/04 A3016 RMK A01,M
BVU,2023-08-01 01:15,-114.8611,35.9475,671.00,87.80,60.80,40.41,190.00,6.00,0.00,29.89,M,10.00,11.00,CLR,M,M,M,M,M,M,M,M,M,M,M,M,M,M,87.75,KBVU 010115Z AUTO 19006G11KT 10SM CLR 31/16 A2989 RMK AO2 LTG DSNT E,M
CXP,2023-08-01 01:15,-119.7326,39.1923,1431.00,86.00,32.00,14.40,260.00,8.00,0.00,30.11,M,10.00,17.00,CLR,M,M,M,M,M,M,M,M,M,M,M,M,M,M,82.64,KCXP 010115Z AUTO 26008G17KT 230V290 10SM CLR 30/M00 A3011 RMK AO2,M
RTS,2023-08-01 01:15,-119.8764,39.6682,1539.00,84.20,17.60,8.37,230.00,14.00,0.00,30.14,M,10.00,21.00,CLR,M,M,M,M,M,M,M,M,M,M,M,M,M,M,80.59,KRTS 010115Z AUTO 23014G21KT 10SM CLR 29/M08 A3014 RMK AO2,M
MEV,2023-08-01 01:15,-119.7500,38.9963,1441.42,82.40,30.20,15.03,240.00,5.00,0.00,30.11,M,10.00,12.00,CLR,M,M,M,M,M,M,M,M,M,M,M,M,M,M,79.97,KMEV 010115Z AUTO 24005G12KT 10SM CLR 28/M01 A3011 RMK AO2,M
HTH,2023-08-01 01:15,-118.6315,38.5448,1282.89,93.20,30.20,10.67,330.00,9.00,0.00,29.99,M,10.00,M,CLR,M,M,M,M,M,M,M,M,M,M,M,M,M,M,88.09,KHTH 010115Z AUTO 33009KT 10SM CLR 34/M01 A2999 RMK A01,M
TMT,2023-08-01 01:15,-117.1971,39.4643,1749.34,88.70,33.60,14.09,310.00,7.00,0.00,30.12,M,M,M,CLR,M,M,M,M,M,M,M,M,M,M,M,M,M,M,84.83,KTMT 010115Z AUTO 31007KT CLR 32/01 A3012 RMK AO2 T03150009 PWINO,M
10U,2023-08-01 01:15,-116.1876,41.9532,1637.00,89.60,28.40,11.09,270.00,15.00,0.00,30.11,M,10.00,21.00,CLR,M,M,M,M,M,M,M,M,M,M,M,M,M,M,85.17,K10U 010115Z AUTO 27015G21KT 10SM CLR 32/M02 A3011 RMK AO2,M
BAM,2023-08-01 01:15,-116.8743,40.5990,1382.36,95.00,33.80,11.67,340.00,9.00,0.00,30.02,M,10.00,M,CLR,M,M,M,M,M,M,M,M,M,M,M,M,M,M,89.97,KBAM 010115Z AUTO 34009KT 10SM CLR 35/01 A3002 RMK AO1,M
WMC,2023-08-01 01:20,-117.8072,40.9019,1315.00,95.00,25.00,8.15,300.00,10.00,0.00,30.01,M,10.00,19.00,CLR,M,M,M,M,M,M,M,M,M,M,M,M,M,M,88.93,KWMC 010120Z AUTO 30010G19KT 10SM CLR 35/M04 A3001 RMK AO2 WSHFT 0100 T03501039,M
05U,2023-08-01 01:35,-116.0051,39.6042,1811.23,82.40,42.80,24.72,M,M,0.00,30.15,M,10.00,M,M,M,M,M,M,M,M,M,M,M,M,M,M,M,M,80.39,K05U 010135Z AUTO 10SM 28/06 A3015 RMK A01,M
BVU,2023-08-01 01:35,-114.8611,35.9475,671.00,87.80,59.00,37.90,170.00,3.00,0.00,29.89,M,10.00,M,CLR,M,M,M,M,M,M,M,VCTS,M,M,M,M,M,M,87.12,KBVU 010135Z AUTO 17003KT 10SM VCTS CLR 31/15 A2989 RMK AO2 LTG DSNT E,M
CXP,2023-08-01 01:35,-119.7326,39.1923,1431.00,84.20,30.20,14.18,280.00,10.00,0.00,30.12,M,10.00,M,CLR,M,M,M,M,M,M,M,M,M,M,M,M,M,M,81.26,KCXP 010135Z AUTO 28010KT 10SM CLR 29/M01 A3012 RMK AO2,M
RTS,2023-08-01 01:35,-119.8764,39.6682,1539.00,84.20,14.00,7.16,260.00,13.00,0.00,30.14,M,10.00,M,CLR,M,M,M,M,M,M,M,M,M,M,M,M,M,M,80.44,KRTS 010135Z AUTO 26013KT 10SM CLR 29/M10 A3014 RMK AO2,M
MEV,2023-08-01 01:35,-119.7500,38.9963,1441.42,80.60,30.20,15.94,260.00,5.00,0.00,30.11,M,10.00,M,CLR,M,M,M,M,M,M,M,M,M,M,M,M,M,M,78.77,KMEV 010135Z AUTO 26005KT 10SM CLR 27/M01 A3011 RMK AO2,M
HTH,2023-08-01 01:35,-118.6315,38.5448,1282.89,93.20,30.20,10.67,330.00,8.00,0.00,30.00,M,10.00,M,CLR,M,M,M,M,M,M,M,M,M,M,M,M,M,M,88.09,KHTH 010135Z AUTO 33008KT 10SM CLR 34/M01 A3000 RMK A01,M
TMT,2023-08-01 01:35,-117.1971,39.4643,1749.34,87.00,33.00,14.52,340.00,9.00,0.00,30.12,M,M,M,CLR,M,M,M,M,M,M,M,M,M,M,M,M,M,M,83.44,KTMT 010135Z AUTO 34009KT CLR 31/01 A3012 RMK AO2 T03050005 PWINO,M
10U,2023-08-01 01:35,-116.1876,41.9532,1637.00,87.80,26.60,10.91,300.00,12.00,0.00,30.11,M,10.00,M,CLR,M,M,M,M,M,M,M,M,M,M,M,M,M,M,83.69,K10U 010135Z AUTO 30012KT 10SM CLR 31/M03 A3011 RMK AO2,M
BAM,2023-08-01 01:35,-116.8743,40.5990,1382.36,93.20,35.60,13.25,340.00,9.00,0.00,30.02,M,10.00,M,CLR,M,M,M,M,M,M,M,M,M,M,M,M,M,M,88.76,KBAM 010135Z AUTO 34009KT 10SM CLR 34/02 A3002 RMK AO1,M
P68,2023-08-01 01:53,-116.0056,39.6014,1993.00,81.00,43.00,26.08,160.00,12.00,0.00,30.13,1011.70,M,M,M,M,M,M,M,M,M,M,M,M,M,M,M,M,M,79.54,KP68 010153Z AUTO 16012KT 27/06 A3013 RMK AO1 SLP117 T02720061,M
DRA,2023-08-01 01:53,-116.0278,36.6206,1009.00,91.00,47.00,22.05,220.00,9.00,0.00,29.97,1009.70,10.00,M,CLR,M,M,M,M,M,M,M,M,M,M,M,M,M,M,87.57,KDRA 010153Z AUTO 22009KT 10SM CLR 33/08 A2997 RMK AO2 SLP097 T03280083,M
ELY,2023-08-01 01:53,-114.8453,39.2950,1909.00,73.00,46.00,38.11,150.00,16.00,0.00,30.25,1014.70,10.00,28.00,BKN,OVC,M,M,10000.00,11000.00,M,M,M,M,M,M,34.00,140.00,2023-08-01 01:08,73.00,KELY 010153Z AUTO 15016G28KT 10SM BKN100 OVC110 23/08 A3025 RMK AO2 PK WND 14034/0108 SLP147 T02280078,M
VGT,2023-08-01 01:53,-115.1933,36.2111,667.00,98.00,55.00,23.89,170.00,14.00,0.00,29.86,1009.60,10.00,24.00,CLR,M,M,M,M,M,M,M,M,M,M,M,M,M,M,96.31,KVGT 010153Z 17014G24KT 10SM CLR 37/13 A2986 RMK AO2 LTG DSNT N SLP096 T03670128,M
LOL,2023-08-01 01:53,-118.5701,40.0684,1192.43,93.00,29.00,10.22,300.00,10.00,0.00,29.98,1011.00,10.00,M,CLR,M,M,M,M,M,M,M,M,M,M,M,M,M,M,87.80,KLOL 010153Z AUTO 30010KT 10SM CLR 34/M02 A2998 RMK AO2 SLP110 T03391017,M
BVU,2023-08-01 01:55,-114.8611,35.9475,671.00,89.60,57.20,33.56,0.00,0.00,0.00,29.90,M,10.00,M,CLR,M,M,M,M,M,M,M,M,M,M,M,M,M,M,88.28,KBVU 010155Z AUTO 00000KT 10SM CLR 32/14 A2990 RMK AO2 LTG DSNT E,M
CXP,2023-08-01 01:55,-119.7326,39.1923,1431.00,82.40,30.20,15.03,270.00,12.00,0.00,30.12,M,10.00,M,CLR,M,M,M,M,M,M,M,M,M,M,M,M,M,M,79.97,KCXP 010155Z AUTO 27012KT 10SM CLR 28/M01 A3012 RMK AO2,M
INS,2023-08-01 01:55,-115.6733,36.5872,955.00,92.70,43.00,17.96,280.00,8.00,0.00,29.95,1008.90,10.00,M,SCT,BKN,BKN,M,13000.00,15000.00,22000.00,M,M,M,M,M,M,M,M,88.73,KINS 010155Z AUTO 28008KT 10SM SCT130 BKN150 BKN220 34/06 A2995 RMK AO2 SLP089 T03370061 $,M
RNO,2023-08-01 01:55,-119.7711,39.4839,1341.00,87.00,27.00,11.37,280.00,12.00,0.00,30.07,1012.30,10.00,20.00,SCT,BKN,M,M,14000.00,25000.00,M,M,M,M,M,M,M,M,M,83.14,KRNO 010155Z 28012G20KT 10SM SCT140 BKN250 31/M03 A3007 RMK AO2 SLP123 T03061028,M
RTS,2023-08-01 01:55,-119.8764,39.6682,1539.00,82.40,15.80,8.20,240.00,13.00,0.00,30.14,M,10.00,18.00,CLR,M,M,M,M,M,M,M,M,M,M,M,M,M,M,79.28,KRTS 010155Z AUTO 24013G18KT 10SM CLR 28/M09 A3014 RMK AO2,M
05U,2023-08-01 01:55,-116.0051,39.6042,1811.23,82.40,42.80,24.72,M,M,0.00,30.16,M,10.00,M,M,M,M,M,M,M,M,M,M,M,M,M,M,M,M,80.39,K05U 010155Z AUTO 10SM 28/06 A3016 RMK A01,M
MEV,2023-08-01 01:55,-119.7500,38.9963,1441.42,80.60,28.40,14.81,270.00,6.00,0.00,30.11,M,10.00,11.00,CLR,M,M,M,M,M,M,M,M,M,M,M,M,M,M,78.72,KMEV 010155Z AUTO 27006G11KT 10SM CLR 27/M02 A3011 RMK AO2,M
HTH,2023-08-01 01:55,-118.6315,38.5448,1282.89,93.20,30.20,10.67,340.00,12.00,0.00,30.00,M,10.00,M,CLR,M,M,M,M,M,M,M,M,M,M,M,M,M,M,88.09,KHTH 010155Z AUTO 34012KT 10SM CLR 34/M01 A3000 RMK A01,M
BAM,2023-08-01 01:55,-116.8743,40.5990,1382.36,93.20,35.60,13.25,350.00,8.00,0.00,30.03,M,10.00,M,CLR,M,M,M,M,M,M,M,M,M,M,M,M,M,M,88.76,KBAM 010155Z AUTO 35008KT 10SM CLR 34/02 A3003 RMK AO1,M
TMT,2023-08-01 01:55,-117.1971,39.4643,1749.34,86.00,33.00,14.99,340.00,7.00,0.00,30.13,M,M,15.00,CLR,M,M,M,M,M,M,M,M,M,M,M,M,M,M,82.65,KTMT 010155Z AUTO 34007G15KT CLR 30/01 A3013 RMK AO2 T02990006 PWINO,M
10U,2023-08-01 01:55,-116.1876,41.9532,1637.00,86.00,26.60,11.55,310.00,8.00,0.00,30.12,M,10.00,M,CLR,M,M,M,M,M,M,M,M,M,M,M,M,M,M,82.39,K10U 010155Z AUTO 31008KT 10SM CLR 30/M03 A3012 RMK AO2,M
EKO,2023-08-01 01:56,-115.7860,40.8242,1367.00,90.00,32.00,12.68,300.00,5.00,0.00,30.05,1011.30,10.00,M,CLR,M,M,M,M,M,M,M,M,M,M,M,M,M,M,85.84,KEKO 010156Z AUTO 30005KT 10SM CLR 32/00 A3005 RMK AO2 SLP113 T03220000,M
WMC,2023-08-01 01:56,-117.8072,40.9019,1315.00,93.00,24.00,8.31,280.00,12.00,0.00,30.02,1011.20,10.00,M,CLR,M,M,M,M,M,M,M,M,M,M,M,M,M,M,87.35,KWMC 010156Z AUTO 28012KT 10SM CLR 34/M04 A3002 RMK AO2 WSHFT 0100 SLP112 T03391044,M
NFL,2023-08-01 01:56,-118.7010,39.4166,1199.00,95.00,33.00,11.30,260.00,9.00,0.00,29.98,1012.40,10.00,M,FEW,SCT,SCT,M,7000.00,15000.00,22000.00,M,M,M,M,M,M,M,M,89.85,KNFL 010156Z 26009KT 10SM FEW070 SCT150 SCT220 35/01 A2998 RMK AO2 SLP124 T03500006,M
HND,2023-08-01 01:56,-115.1344,35.9729,742.79,89.00,58.00,35.20,180.00,10.00,0.01,29.93,1011.90,10.00,M,FEW,BKN,OVC,M,6000.00,8500.00,11000.00,M,M,M,M,M,M,M,M,87.94,KHND 010156Z 18010KT 10SM FEW060 BKN085 OVC110 32/14 A2993 RMK AO2 RAB08E44 SLP119 P0001 T03170144,M
TPH,2023-08-01 01:56,-117.0904,38.0505,1654.00,87.00,44.00,22.33,190.00,16.00,0.00,30.10,1010.50,10.00,24.00,CLR,M,M,M,M,M,M,M,M,M,M,M,28.00,190.00,2023-08-01 01:08,83.82,KTPH 010156Z AUTO 19016G24KT 10SM CLR 31/07 A3010 RMK AO2 PK WND 19028/0108 SLP105 T03060067,M
LAS,2023-08-01 01:56,-115.1634,36.0719,663.00,92.00,57.00,30.91,190.00,4.00,T,29.87,1008.40,10.00,M,FEW,BKN,BKN,M,12000.00,18000.00,22000.00,M,M,M,M,M,26.00,180.00,2023-08-01 01:04,90.60,KLAS 010156Z 19004KT 10SM FEW120 BKN180 BKN220 33/14 A2987 RMK AO2 PK WND 18026/0104 RAB0057E54 SLP084 FU ALQDS CB DSNT NE-SE-S P0000 T03330139,M
LSV,2023-08-01 01:59,-115.0343,36.2362,570.00,98.00,53.80,22.87,160.00,11.00,0.00,29.83,1007.20,10.00,M,BKN,M,M,M,16000.00,M,M,M,M,M,M,M,M,M,M,95.93,KLSV 010159Z 16011KT 10SM BKN160 37/12 A2983 RMK A02A SLP072 T03670121,M
BVU,2023-08-01 02:15,-114.8611,35.9475,671.00,89.60,57.20,33.56,0.00,0.00,0.00,29.91,M,10.00,M,CLR,M,M,M,M,M,M,M,M,M,M,M,M,M,M,88.28,KBVU 010215Z AUTO 00000KT 10SM CLR 32/14 A2991 RMK AO2 LTG DSNT E AND SE,M
CXP,2023-08-01 02:15,-119.7326,39.1923,1431.00,80.60,30.20,15.94,280.00,8.00,0.00,30.12,M,10.00,16.00,CLR,M,M,M,M,M,M,M,M,M,M,M,M,M,M,78.77,KCXP 010215Z AUTO 28008G16KT 10SM CLR 27/M01 A3012 RMK AO2,M
RTS,2023-08-01 02:15,-119.8764,39.6682,1539.00,82.40,19.40,9.58,270.00,13.00,0.00,30.15,M,10.00,19.00,CLR,M,M,M,M,M,M,M,M,M,M,M,M,M,M,79.45,KRTS 010215Z AUTO 27013G19KT 10SM CLR 28/M07 A3015 RMK AO2,M
05U,2023-08-01 02:15,-116.0051,39.6042,1811.23,82.40,42.80,24.72,M,M,0.00,30.16,M,10.00,M,M,M,M,M,M,M,M,M,M,M,M,M,M,M,M,80.39,K05U 010215Z AUTO 10SM 28/06 A3016 RMK A01,M
MEV,2023-08-01 02:15,-119.7500,38.9963,1441.42,80.60,28.40,14.81,260.00,8.00,0.00,30.12,M,10.00,13.00,CLR,M,M,M,M,M,M,M,M,M,M,M,M,M,M,78.72,KMEV 010215Z AUTO 26008G13KT 10SM CLR 27/M02 A3012 RMK AO2,M
HTH,2023-08-01 02:15,-118.6315,38.5448,1282.89,93.20,30.20,10.67,330.00,12.00,0.00,30.00,M,10.00,19.00,CLR,M,M,M,M,M,M,M,M,M,M,M,M,M,M,88.09,KHTH 010215Z AUTO 33012G19KT 10SM CLR 34/M01 A3000 RMK A01,M
TMT,2023-08-01 02:15,-117.1971,39.4643,1749.34,84.20,32.50,15.56,350.00,9.00,0.00,30.14,M,M,M,CLR,M,M,M,M,M,M,M,M,M,M,M,M,M,M,81.28,KTMT 010215Z AUTO 35009KT CLR 29/00 A3014 RMK AO2 T02900003 PWINO,M
10U,2023-08-01 02:15,-116.1876,41.9532,1637.00,84.20,26.60,12.23,310.00,7.00,0.00,30.12,M,10.00,M,CLR,M,M,M,M,M,M,M,M,M,M,M,M,M,M,81.13,K10U 010215Z AUTO 31007KT 10SM CLR 29/M03 A3012 RMK AO2,M
BAM,2023-08-01 02:15,-116.8743,40.5990,1382.36,93.20,35.60,13.25,360.00,7.00,0.00,30.03,M,10.00,M,CLR,M,M,M,M,M,M,M,M,M,M,M,M,M,M,88.76,KBAM 010215Z AUTO 36007KT 10SM CLR 34/02 A3003 RMK AO1,M
BVU,2023-08-01 02:35,-114.8611,35.9475,671.00,89.60,59.00,35.81,110.00,14.00,0.00,29.93,M,10.00,M,CLR,M,M,M,M,M,M,M,M,M,M,M,M,M,M,88.86,KBVU 010235Z AUTO 11014KT 10SM CLR 32/15 A2993 RMK AO2 LTG DSNT N AND E,M
CXP,2023-08-01 02:35,-119.7326,39.1923,1431.00,80.60,32.00,17.14,290.00,6.00,0.00,30.13,M,10.00,13.00,CLR,M,M,M,M,M,M,M,M,M,M,M,M,M,M,78.82,KCXP 010235Z AUTO 29006G13KT 10SM CLR 27/M00 A3013 RMK AO2,M
RTS,2023-08-01 02:35,-119.8764,39.6682,1539.00,78.80,21.20,11.64,270.00,14.00,0.00,30.16,M,10.00,M,CLR,M,M,M,M,M,M,M,M,M,M,M,M,M,M,78.80,KRTS 010235Z AUTO 27014KT 10SM CLR 26/M06 A3016 RMK AO2,M
05U,2023-08-01 02:35,-116.0051,39.6042,1811.23,80.60,44.60,28.08,M,M,0.00,30.17,M,10.00,M,M,M,M,M,M,M,M,M,M,M,M,M,M,M,M,79.42,K05U 010235Z AUTO 10SM 27/07 A3017 RMK A01,M
MEV,2023-08-01 02:35,-119.7500,38.9963,1441.42,77.00,30.20,17.94,260.00,7.00,0.00,30.12,M,10.00,M,CLR,M,M,M,M,M,M,M,M,M,M,M,M,M,M,77.00,KMEV 010235Z AUTO 26007KT 10SM CLR 25/M01 A3012 RMK AO2,M
HTH,2023-08-01 02:35,-118.6315,38.5448,1282.89,91.40,32.00,12.14,320.00,11.00,0.00,30.01,M,10.00,M,CLR,M,M,M,M,M,M,M,M,M,M,M,M,M,M,86.91,KHTH 010235Z AUTO 32011KT 10SM CLR 33/00 A3001 RMK A01,M
10U,2023-08-01 02:35,-116.1876,41.9532,1637.00,84.20,26.60,12.23,300.00,6.00,0.00,30.12,M,10.00,M,CLR,M,M,M,M,M,M,M,M,M,M,M,M,M,M,81.13,K10U 010235Z AUTO 30006KT 10SM CLR 29/M03 A3012 RMK AO2,M
BAM,2023-08-01 02:35,-116.8743,40.5990,1382.36,91.40,35.60,14.02,350.00,7.00,0.00,30.04,M,10.00,M,CLR,M,M,M,M,M,M,M,M,M,M,M,M,M,M,87.17,KBAM 010235Z AUTO 35007KT 10SM CLR 33/02 A3004 RMK AO1,M
TMT,2023-08-01 02:35,-117.1971,39.4643,1749.34,84.60,32.00,15.06,360.00,8.00,0.00,30.14,M,M,M,CLR,M,M,M,M,M,M,M,M,M,M,M,M,M,M,81.57,KTMT 010235Z AUTO 36008KT CLR 29/00 A3014 RMK AO2 T02920001 PWINO,M
P68,2023-08-01 02:53,-116.0056,39.6014,1993.00,79.00,43.00,27.84,120.00,9.00,0.00,30.15,1011.80,M,M,M,M,M,M,M,M,M,M,M,M,M,M,M,M,M,79.00,KP68 010253Z AUTO 12009KT 26/06 A3015 RMK AO1 SLP118 T02610061 53009,M
DRA,2023-08-01 02:53,-116.0278,36.6206,1009.00,88.00,46.00,23.34,250.00,6.00,0.00,29.99,1010.00,10.00,M,CLR,M,M,M,M,M,M,M,M,M,M,M,M,M,M,84.81,KDRA 010253Z AUTO 25006KT 10SM CLR 31/08 A2999 RMK AO2 SLP100 T03110078 55000,M
ELY,2023-08-01 02:53,-114.8453,39.2950,1909.00,69.00,50.00,50.74,190.00,11.00,0.00,30.30,1015.50,10.00,20.00,BKN,M,M,M,10000.00,M,M,M,M,M,M,M,M,M,M,69.00,KELY 010253Z AUTO 19011G20KT 10SM BKN100 21/10 A3030 RMK AO2 SLP155 T02060100 53038,M
VGT,2023-08-01 02:53,-115.1933,36.2111,667.00,97.00,52.00,22.07,190.00,12.00,0.00,29.89,1010.50,10.00,M,CLR,M,M,M,M,M,M,M,M,M,M,M,M,M,M,94.38,KVGT 010253Z 19012KT 10SM CLR 36/11 A2989 RMK AO2 SLP105 T03610111 53010,M
LOL,2023-08-01 02:53,-118.5701,40.0684,1192.43,88.00,27.00,11.02,290.00,11.00,0.00,30.00,1011.40,10.00,M,CLR,M,M,M,M,M,M,M,M,M,M,M,M,M,M,83.87,KLOL 010253Z AUTO 29011KT 10SM CLR 31/M03 A3000 RMK AO2 SLP114 T03111028 53003,M
BVU,2023-08-01 02:55,-114.8611,35.9475,671.00,89.60,59.00,35.81,110.00,10.00,0.00,29.92,M,10.00,M,CLR,M,M,M,M,M,M,M,M,M,M,M,M,M,M,88.86,KBVU 010255Z AUTO 11010KT 10SM CLR 32/15 A2992 RMK AO2,M
CXP,2023-08-01 02:55,-119.7326,39.1923,1431.00,78.80,32.00,18.18,290.00,9.00,0.00,30.14,M,10.00,15.00,CLR,M,M,M,M,M,M,M,M,M,M,M,M,M,M,78.80,KCXP 010255Z AUTO 29009G15KT 250V310 10SM CLR 26/00 A3014 RMK AO2,M
RNO,2023-08-01 02:55,-119.7711,39.4839,1341.00,84.00,27.00,12.52,280.00,14.00,0.00,30.09,1013.20,10.00,M,SCT,BKN,M,M,14000.00,21000.00,M,M,M,M,M,M,M,M,M,81.03,KRNO 010255Z 28014KT 10SM SCT140 BKN210 29/M03 A3009 RMK AO2 SLP132 T02891028 53010,M
LSV,2023-08-01 02:55,-115.0343,36.2362,570.00,96.80,50.40,20.93,130.00,11.00,0.00,29.86,1008.20,10.00,M,BKN,M,M,M,14000.00,M,M,M,M,M,M,M,M,M,M,93.79,KLSV 010255Z 13011KT 10SM BKN140 36/10 A2986 RMK AO2A SLP082 T03600102 52015,M
RTS,2023-08-01 02:55,-119.8764,39.6682,1539.00,78.80,23.00,12.55,270.00,12.00,0.00,30.17,M,10.00,18.00,CLR,M,M,M,M,M,M,M,M,M,M,M,M,M,M,78.80,KRTS 010255Z AUTO 27012G18KT 10SM CLR 26/M05 A3017 RMK AO2,M
05U,2023-08-01 02:55,-116.0051,39.6042,1811.23,78.80,42.80,27.81,M,M,0.00,30.18,M,10.00,M,M,M,M,M,M,M,M,M,M,M,M,M,M,M,M,78.80,K05U 010255Z AUTO 10SM 26/06 A3018 RMK A01,M
MEV,2023-08-01 02:55,-119.7500,38.9963,1441.42,77.00,30.20,17.94,260.00,5.00,0.00,30.12,M,10.00,M,CLR,M,M,M,M,M,M,M,M,M,M,M,M,M,M,77.00,KMEV 010255Z AUTO 26005KT 10SM CLR 25/M01 A3012 RMK AO2,M
HTH,2023-08-01 02:55,-118.6315,38.5448,1282.89,89.60,28.40,11.09,330.00,9.00,0.00,30.02,M,10.00,15.00,CLR,M,M,M,M,M,M,M,M,M,M,M,M,M,M,85.17,KHTH 010255Z AUTO 33009G15KT 10SM CLR 32/M02 A3002 RMK A01,M
10U,2023-08-01 02:55,-116.1876,41.9532,1637.00,80.60,28.40,14.81,320.00,4.00,0.00,30.13,M,10.00,M,CLR,M,M,M,M,M,M,M,M,M,M,M,M,M,M,78.72,K10U 010255Z AUTO 32004KT 10SM CLR 27/M02 A3013 RMK AO2,M
INS,2023-08-01 02:55,-115.6733,36.5872,955.00,89.80,43.30,19.90,260.00,7.00,0.00,29.97,1009.40,10.00,M,SCT,SCT,BKN,M,13000.00,15000.00,24000.00,M,M,M,M,M,M,M,M,86.14,KINS 010255Z AUTO 26007KT 10SM SCT130 SCT150 BKN240 32/06 A2997 RMK AO2 SLP094 T03210063 53005 $,M
EKO,2023-08-01 02:56,-115.7860,40.8242,1367.00,85.00,33.00,15.47,320.00,5.00,0.00,30.07,1011.60,10.00,M,CLR,M,M,M,M,M,M,M,M,M,M,M,M,M,M,81.88,KEKO 010256Z AUTO 32005KT 10SM CLR 29/01 A3007 RMK AO2 SLP116 T02940006 53004,M
WMC,2023-08-01 02:56,-117.8072,40.9019,1315.00,86.00,22.00,9.53,310.00,5.00,0.00,30.03,1011.60,10.00,M,CLR,M,M,M,M,M,M,M,M,M,M,M,M,M,M,82.08,KWMC 010256Z AUTO 31005KT 10SM CLR 30/M06 A3003 RMK AO2 SLP116 T03001056 53005,M
NFL,2023-08-01 02:56,-118.7010,39.4166,1199.00,88.00,33.00,14.06,270.00,13.00,0.00,30.01,1013.40,10.00,M,FEW,SCT,SCT,M,7000.00,15000.00,22000.00,M,M,M,M,M,M,M,M,84.25,KNFL 010256Z 27013KT 10SM FEW070 SCT150 SCT220 31/01 A3001 RMK AO2 SLP134 T03110006 53007,M
HND,2023-08-01 02:56,-115.1344,35.9729,742.79,88.00,58.00,36.34,150.00,6.00,0.00,29.95,1012.40,10.00,M,FEW,M,M,M,12000.00,M,M,M,M,M,M,M,M,M,M,86.99,KHND 010256Z 15006KT 10SM FEW120 31/14 A2995 RMK AO2 SLP124 60001 T03110144 53008,M
TPH,2023-08-01 02:56,-117.0904,38.0505,1654.00,83.00,40.00,21.76,190.00,15.00,0.00,30.12,1011.20,10.00,21.00,CLR,M,M,M,M,M,M,M,M,M,M,M,M,M,M,80.64,KTPH 010256Z AUTO 19015G21KT 10SM CLR 28/04 A3012 RMK AO2 SLP112 T02830044 53007,M
LAS,2023-08-01 02:56,-115.1634,36.0719,663.00,93.00,56.00,28.90,180.00,3.00,T,29.90,1009.40,10.00,M,FEW,BKN,BKN,M,12000.00,18000.00,22000.00,M,M,M,M,M,M,M,M,91.32,KLAS 010256Z 18003KT 10SM FEW120 BKN180 BKN220 34/13 A2990 RMK AO2 RAB13E27 SLP094 FU ALQDS CB DSNT NE-SE-S P0000 60000 T03390133 53010,M
LSV,2023-08-01 02:56,-115.0343,36.2362,570.00,96.80,51.80,22.04,110.00,12.00,0.00,29.86,1008.20,10.00,M,SCT,M,M,M,13000.00,M,M,M,M,M,M,M,M,M,M,94.12,KLSV 010256Z AUTO 11012KT 10SM SCT130 36/11 A2986 RMK AO2 WSHFT 49 SLP082,M
VGT,2023-08-01 03:13,-115.1933,36.2111,667.00,100.00,45.00,15.50,M,M,0.00,29.88,M,10.00,M,FEW,M,M,M,6500.00,M,M,M,M,M,M,M,35.00,170.00,2023-08-01 02:58,95.99,KVGT 010313Z 10SM FEW065 38/07 A2988 RMK AO2 PK WND 17035/0258 WSHFT 0253 LTG DSNT NE T03780072,M
10U,2023-08-01 03:15,-116.1876,41.9532,1637.00,73.40,33.80,23.39,80.00,3.00,0.00,30.13,M,10.00,M,CLR,M,M,M,M,M,M,M,M,M,M,M,M,M,M,73.40,K10U 010315Z AUTO 08003KT 10SM CLR 23/01 A3013 RMK AO2,M
BVU,2023-08-01 03:15,-114.8611,35.9475,671.00,87.80,59.00,37.90,120.00,9.00,0.00,29.92,M,10.00,14.00,FEW,FEW,M,M,5000.00,6000.00,M,M,M,M,M,M,M,M,M,87.12,KBVU 010315Z AUTO 12009G14KT 10SM FEW050 FEW060 31/15 A2992 RMK AO2 LTG DSNT NE-SE,M
CXP,2023-08-01 03:15,-119.7326,39.1923,1431.00,78.80,33.80,19.55,280.00,5.00,0.00,30.14,M,10.00,M,CLR,M,M,M,M,M,M,M,M,M,M,M,M,M,M,78.80,KCXP 010315Z AUTO 28005KT 10SM CLR 26/01 A3014 RMK AO2,M
RTS,2023-08-01 03:15,-119.8764,39.6682,1539.00,75.20,24.80,15.25,280.00,9.00,0.00,30.18,M,10.00,M,CLR,M,M,M,M,M,M,M,M,M,M,M,M,M,M,75.20,KRTS 010315Z AUTO 28009KT 10SM CLR 24/M04 A3018 RMK AO2,M
05U,2023-08-01 03:15,-116.0051,39.6042,1811.23,78.80,44.60,29.79,M,M,0.00,30.19,M,10.00,M,M,M,M,M,M,M,M,M,M,M,M,M,M,M,M,78.80,K05U 010315Z AUTO 10SM 26/07 A3019 RMK A01,M
MEV,2023-08-01 03:15,-119.7500,38.9963,1441.42,73.40,32.00,21.76,260.00,6.00,0.00,30.13,M,10.00,M,CLR,M,M,M,M,M,M,M,M,M,M,M,M,M,M,73.40,KMEV 010315Z AUTO 26006KT 10SM CLR 23/M00 A3013 RMK AO2,M
HTH,2023-08-01 03:15,-118.6315,38.5448,1282.89,87.80,30.20,12.64,340.00,9.00,0.00,30.03,M,10.00,M,CLR,M,M,M,M,M,M,M,M,M,M,M,M,M,M,84.01,KHTH 010315Z AUTO 34009KT 10SM CLR 31/M01 A3003 RMK A01,M
BVU,2023-08-01 03:35,-114.8611,35.9475,671.00,87.80,59.00,37.90,130.00,4.00,0.00,29.94,M,10.00,M,FEW,FEW,M,M,5000.00,6000.00,M,M,M,M,M,M,M,M,M,87.12,KBVU 010335Z AUTO 13004KT 10SM FEW050 FEW060 31/15 A2994 RMK AO2 LTG DSNT SE,M
CXP,2023-08-01 03:35,-119.7326,39.1923,1431.00,78.80,33.80,19.55,290.00,10.00,0.00,30.14,M,10.00,M,CLR,M,M,M,M,M,M,M,M,M,M,M,M,M,M,78.80,KCXP 010335Z AUTO 29010KT 10SM CLR 26/01 A3014 RMK AO2,M
RTS,2023-08-01 03:35,-119.8764,39.6682,1539.00,71.60,24.80,17.22,300.00,9.00,0.00,30.19,M,10.00,M,CLR,M,M,M,M,M,M,M,M,M,M,M,M,M,M,71.60,KRTS 010335Z AUTO 30009KT 10SM CLR 22/M04 A3019 RMK AO2,M
05U,2023-08-01 03:35,-116.0051,39.6042,1811.23,78.80,44.60,29.79,M,M,0.00,30.20,M,10.00,M,BKN,M,M,M,12000.00,M,M,M,M,M,M,M,M,M,M,78.80,K05U 010335Z AUTO 10SM BKN120 26/07 A3020 RMK A01,M
MEV,2023-08-01 03:35,-119.7500,38.9963,1441.42,75.20,32.00,20.49,270.00,8.00,0.00,30.13,M,10.00,M,CLR,M,M,M,M,M,M,M,M,M,M,M,M,M,M,75.20,KMEV 010335Z AUTO 27008KT 10SM CLR 24/00 A3013 RMK AO2,M
HTH,2023-08-01 03:35,-118.6315,38.5448,1282.89,86.00,35.60,16.63,340.00,11.00,0.00,30.03,M,10.00,M,CLR,M,M,M,M,M,M,M,M,M,M,M,M,M,M,82.69,KHTH 010335Z AUTO 34011KT 10SM CLR 30/02 A3003 RMK A01,M
10U,2023-08-01 03:35,-116.1876,41.9532,1637.00,71.60,33.80,24.86,140.00,5.00,0.00,30.13,M,10.00,M,CLR,M,M,M,M,M,M,M,M,M,M,M,M,M,M,71.60,K10U 010335Z AUTO 14005KT 10SM CLR 22/01 A3013 RMK AO2,M
P68,2023-08-01 03:53,-116.0056,39.6014,1993.00,77.00,44.00,30.90,130.00,12.00,0.00,30.18,1012.50,M,19.00,M,M,M,M,M,M,M,M,M,M,M,M,M,M,M,77.00,KP68 010353Z AUTO 13012G19KT 25/07 A3018 RMK AO1 SLP125 T02500067,M
DRA,2023-08-01 03:53,-116.0278,36.6206,1009.00,85.00,46.00,25.69,280.00,5.00,0.00,30.00,1010.10,10.00,M,CLR,M,M,M,M,M,M,M,M,M,M,M,M,M,M,82.42,KDRA 010353Z AUTO 28005KT 10SM CLR 29/08 A3000 RMK AO2 SLP101 T02940078,M
ELY,2023-08-01 03:53,-114.8453,39.2950,1909.00,65.00,52.00,62.74,170.00,12.00,0.00,30.30,1015.90,10.00,M,CLR,M,M,M,M,M,M,M,M,M,M,M,M,M,M,65.00,KELY 010353Z AUTO 17012KT 10SM CLR 18/11 A3030 RMK AO2 SLP159 T01830111,M
VGT,2023-08-01 03:53,-115.1933,36.2111,667.00,93.00,58.00,31.06,130.00,14.00,0.00,29.92,1011.50,10.00,M,CLR,M,M,M,M,M,M,M,M,M,M,M,35.00,170.00,2023-08-01 02:58,91.98,KVGT 010353Z 13014KT 10SM CLR 34/14 A2992 RMK AO2 PK WND 17035/0258 WSHFT 0253 LTG DSNT NE SLP115 T03390144,M
LOL,2023-08-01 03:53,-118.5701,40.0684,1192.43,81.00,26.00,13.24,280.00,7.00,0.00,30.02,1012.20,10.00,M,CLR,M,M,M,M,M,M,M,M,M,M,M,M,M,M,78.94,KLOL 010353Z AUTO 28007KT 10SM CLR 27/M03 A3002 RMK AO2 SLP122 T02721033,M
BVU,2023-08-01 03:55,-114.8611,35.9475,671.00,86.00,59.00,40.14,0.00,0.00,0.00,29.94,M,10.00,M,FEW,M,M,M,5500.00,M,M,M,M,M,M,M,M,M,M,85.47,KBVU 010355Z AUTO 00000KT 10SM FEW055 30/15 A2994 RMK AO2 LTG DSNT E AND SE,M
CXP,2023-08-01 03:55,-119.7326,39.1923,1431.00,77.00,33.80,20.74,270.00,8.00,0.00,30.14,M,10.00,13.00,CLR,M,M,M,M,M,M,M,M,M,M,M,M,M,M,77.00,KCXP 010355Z AUTO 27008G13KT 10SM CLR 25/01 A3014 RMK AO2,M
RNO,2023-08-01 03:55,-119.7711,39.4839,1341.00,82.00,27.00,13.36,290.00,13.00,0.00,30.11,1013.50,10.00,M,FEW,BKN,M,M,14000.00,24000.00,M,M,M,M,M,M,M,M,M,79.64,KRNO 010355Z 29013KT 10SM FEW140 BKN240 28/M03 A3011 RMK AO2 SLP135 T02781028,M
RTS,2023-08-01 03:55,-119.8764,39.6682,1539.00,71.60,23.00,15.97,290.00,11.00,0.00,30.18,M,10.00,M,CLR,M,M,M,M,M,M,M,M,M,M,M,M,M,M,71.60,KRTS 010355Z AUTO 29011KT 10SM CLR 22/M05 A3018 RMK AO2,M
05U,2023-08-01 03:55,-116.0051,39.6042,1811.23,77.00,44.60,31.62,M,M,0.00,30.21,M,10.00,M,BKN,M,M,M,12000.00,M,M,M,M,M,M,M,M,M,M,77.00,K05U 010355Z AUTO 10SM BKN120 25/07 A3021 RMK A01,M
MEV,2023-08-01 03:55,-119.7500,38.9963,1441.42,75.20,35.60,23.66,M,5.00,0.00,30.14,M,10.00,M,CLR,M,M,M,M,M,M,M,M,M,M,M,M,M,M,75.20,KMEV 010355Z AUTO VRB05KT 10SM CLR 24/02 A3014 RMK AO2,M
HTH,2023-08-01 03:55,-118.6315,38.5448,1282.89,86.00,33.80,15.48,360.00,5.00,0.00,30.04,M,10.00,M,CLR,M,M,M,M,M,M,M,M,M,M,M,M,M,M,82.66,KHTH 010355Z AUTO 36005KT 10SM CLR 30/01 A3004 RMK A01,M
10U,2023-08-01 03:55,-116.1876,41.9532,1637.00,71.60,32.00,23.13,140.00,6.00,0.00,30.14,M,10.00,M,CLR,M,M,M,M,M,M,M,M,M,M,M,M,M,M,71.60,K10U 010355Z AUTO 14006KT 10SM CLR 22/M00 A3014 RMK AO2,M
INS,2023-08-01 03:55,-115.6733,36.5872,955.00,88.30,43.30,20.86,0.00,0.00,0.00,29.98,1009.80,10.00,M,FEW,M,M,M,16000.00,M,M,M,M,M,M,M,M,M,M,84.85,KINS 010355Z AUTO 00000KT 10SM FEW160 31/06 A2998 RMK AO2 SLP098 T03130063 $,M
LSV,2023-08-01 03:55,-115.0343,36.2362,570.00,92.00,58.00,32.04,100.00,14.00,0.00,29.87,1008.70,10.00,21.00,CLR,M,M,M,M,M,M,M,M,M,M,M,M,M,M,90.94,KLSV 010355Z 10014G21KT 10SM CLR 33/14 A2987 RMK AO2A SLP087 T03340144 $,M
EKO,2023-08-01 03:56,-115.7860,40.8242,1367.00,83.00,35.00,17.88,110.00,3.00,0.00,30.09,1011.80,10.00,M,CLR,M,M,M,M,M,M,M,M,M,M,M,M,M,M,80.47,KEKO 010356Z AUTO 11003KT 10SM CLR 28/02 A3009 RMK AO2 SLP118 T02830017,M
WMC,2023-08-01 03:56,-117.8072,40.9019,1315.00,73.00,23.00,15.23,0.00,0.00,0.00,30.06,1012.80,10.00,M,CLR,M,M,M,M,M,M,M,M,M,M,M,M,M,M,73.00,KWMC 010356Z AUTO 00000KT 10SM CLR 23/M05 A3006 RMK AO2 SLP128 T02281050,M
NFL,2023-08-01 03:56,-118.7010,39.4166,1199.00,85.00,31.00,14.28,280.00,13.00,0.00,30.04,1014.10,10.00,M,SCT,SCT,M,M,15000.00,22000.00,M,M,M,M,M,M,M,M,M,81.87,KNFL 010356Z 28013KT 10SM SCT150 SCT220 29/M01 A3004 RMK AO2 SLP141 T02941006,M
HND,2023-08-01 03:56,-115.1344,35.9729,742.79,88.00,58.00,36.34,160.00,10.00,0.00,29.97,1013.10,10.00,M,CLR,M,M,M,M,M,M,M,M,M,M,M,M,M,M,86.99,KHND 010356Z 16010KT 10SM CLR 31/14 A2997 RMK AO2 SLP131 T03110144,M
TPH,2023-08-01 03:56,-117.0904,38.0505,1654.00,80.00,38.00,22.19,170.00,7.00,0.00,30.15,1012.00,10.00,M,CLR,M,M,M,M,M,M,M,M,M,M,M,M,M,M,78.74,KTPH 010356Z AUTO 17007KT 10SM CLR 27/03 A3015 RMK AO2 SLP120 T02670033,M
LAS,2023-08-01 03:56,-115.1634,36.0719,663.00,91.00,56.00,30.76,130.00,5.00,0.00,29.92,1010.00,10.00,M,FEW,BKN,BKN,M,12000.00,18000.00,22000.00,M,M,M,M,M,M,M,M,89.30,KLAS 010356Z 13005KT 10SM FEW120 BKN180 BKN220 33/13 A2992 RMK AO2 SLP100 T03280133,M
BVU,2023-08-01 04:15,-114.8611,35.9475,671.00,87.80,55.40,33.29,120.00,8.00,0.00,29.96,M,10.00,M,CLR,M,M,M,M,M,M,M,M,M,M,M,M,M,M,86.11,KBVU 010415Z AUTO 12008KT 10SM CLR 31/13 A2996 RMK AO2 LTG DSNT SE,M
CXP,2023-08-01 04:15,-119.7326,39.1923,1431.00,77.00,32.00,19.30,0.00,0.00,0.00,30.15,M,10.00,M,CLR,M,M,M,M,M,M,M,M,M,M,M,M,M,M,77.00,KCXP 010415Z AUTO 00000KT 10SM CLR 25/00 A3015 RMK AO2,M
RTS,2023-08-01 04:15,-119.8764,39.6682,1539.00,71.60,23.00,15.97,290.00,11.00,0.00,30.18,M,10.00,M,CLR,M,M,M,M,M,M,M,M,M,M,M,M,M,M,71.60,KRTS 010415Z AUTO 29011KT 10SM CLR 22/M05 A3018 RMK AO2,M
05U,2023-08-01 04:15,-116.0051,39.6042,1811.23,75.20,44.60,33.57,M,M,0.00,30.22,M,10.00,M,FEW,M,M,M,12000.00,M,M,M,M,M,M,M,M,M,M,75.20,K05U 010415Z AUTO 10SM FEW120 24/07 A3022 RMK A01,M
MEV,2023-08-01 04:15,-119.7500,38.9963,1441.42,69.80,35.60,28.39,0.00,0.00,0.00,30.14,M,10.00,M,CLR,M,M,M,M,M,M,M,M,M,M,M,M,M,M,69.80,KMEV 010415Z AUTO 00000KT 10SM CLR 21/02 A3014 RMK AO2,M
HTH,2023-08-01 04:15,-118.6315,38.5448,1282.89,86.00,32.00,14.40,360.00,11.00,0.00,30.05,M,10.00,17.00,CLR,M,M,M,M,M,M,M,M,M,M,M,M,M,M,82.64,KHTH 010415Z AUTO 36011G17KT 10SM CLR 30/00 A3005 RMK A01,M
10U,2023-08-01 04:15,-116.1876,41.9532,1637.00,69.80,30.20,22.86,M,4.00,0.00,30.15,M,10.00,M,CLR,M,M,M,M,M,M,M,M,M,M,M,M,M,M,69.80,K10U 010415Z AUTO VRB04KT 10SM CLR 21/M01 A3015 RMK AO2,M
BVU,2023-08-01 04:35,-114.8611,35.9475,671.00,87.80,53.60,31.17,70.00,4.00,0.00,29.97,M,10.00,M,CLR,M,M,M,M,M,M,M,M,M,M,M,M,M,M,85.72,KBVU 010435Z AUTO 07004KT 10SM CLR 31/12 A2997 RMK AO2,M
CXP,2023-08-01 04:35,-119.7326,39.1923,1431.00,75.20,32.00,20.49,0.00,0.00,0.00,30.15,M,10.00,M,CLR,M,M,M,M,M,M,M,M,M,M,M,M,M,M,75.20,KCXP 010435Z AUTO 00000KT 10SM CLR 24/M00 A3015 RMK AO2,M
RTS,2023-08-01 04:35,-119.8764,39.6682,1539.00,68.00,23.00,18.06,260.00,8.00,0.00,30.19,M,10.00,M,CLR,M,M,M,M,M,M,M,M,M,M,M,M,M,M,68.00,KRTS 010435Z AUTO 26008KT 10SM CLR 20/M05 A3019 RMK AO2,M
05U,2023-08-01 04:35,-116.0051,39.6042,1811.23,75.20,44.60,33.57,M,M,0.00,30.22,M,10.00,M,CLR,M,M,M,M,M,M,M,M,M,M,M,M,M,M,75.20,K05U 010435Z AUTO 10SM CLR 24/07 A3022 RMK A01,M
MEV,2023-08-01 04:35,-119.7500,38.9963,1441.42,69.80,35.60,28.39,110.00,6.00,0.00,30.14,M,10.00,M,CLR,M,M,M,M,M,M,M,M,M,M,M,M,M,M,69.80,KMEV 010435Z AUTO 11006KT 10SM CLR 21/02 A3014 RMK AO2,M
HTH,2023-08-01 04:35,-118.6315,38.5448,1282.89,84.20,33.80,16.39,360.00,10.00,0.00,30.05,M,10.00,M,CLR,M,M,M,M,M,M,M,M,M,M,M,M,M,M,81.30,KHTH 010435Z AUTO 36010KT 10SM CLR 29/01 A3005 RMK A01,M
10U,2023-08-01 04:35,-116.1876,41.9532,1637.00,69.80,33.80,26.43,30.00,4.00,0.00,30.15,M,10.00,M,CLR,M,M,M,M,M,M,M,M,M,M,M,M,M,M,69.80,K10U 010435Z AUTO 03004KT 10SM CLR 21/01 A3015 RMK AO2,M
P68,2023-08-01 04:53,-116.0056,39.6014,1993.00,75.00,44.00,33.03,150.00,8.00,0.00,30.20,1012.80,M,M,M,M,M,M,M,M,M,M,M,M,M,M,M,M,M,75.00,KP68 010453Z AUTO 15008KT 24/07 A3020 RMK AO1 SLP128 T02390067,M
DRA,2023-08-01 04:53,-116.0278,36.6206,1009.00,86.00,46.00,24.88,260.00,7.00,0.00,30.01,1010.30,10.00,M,CLR,M,M,M,M,M,M,M,M,M,M,M,M,M,M,83.19,KDRA 010453Z AUTO 26007KT 10SM CLR 30/08 A3001 RMK AO2 SLP103 T03000078,M
ELY,2023-08-01 04:53,-114.8453,39.2950,1909.00,65.00,51.00,60.47,160.00,13.00,0.00,30.28,1014.80,10.00,M,SCT,M,M,M,12000.00,M,M,M,M,M,M,M,M,M,M,65.00,KELY 010453Z AUTO 16013KT 10SM SCT120 18/11 A3028 RMK AO2 SLP148 T01830106 $,M
VGT,2023-08-01 04:53,-115.1933,36.2111,667.00,92.00,59.00,33.21,130.00,12.00,0.00,29.95,1012.70,10.00,M,CLR,M,M,M,M,M,M,M,M,M,M,M,M,M,M,91.30,KVGT 010453Z AUTO 13012KT 10SM CLR 33/15 A2995 RMK AO2 LTG DSNT NE SLP127 T03330150,M
LOL,2023-08-01 04:53,-118.5701,40.0684,1192.43,82.00,20.00,9.96,290.00,6.00,0.00,30.04,1012.60,10.00,M,CLR,M,M,M,M,M,M,M,M,M,M,M,M,M,M,79.22,KLOL 010453Z AUTO 29006KT 10SM CLR 28/M07 A3004 RMK AO2 SLP126 T02781067,M
BVU,2023-08-01 04:55,-114.8611,35.9475,671.00,89.60,55.40,31.45,130.00,10.00,0.00,29.97,M,10.00,M,CLR,M,M,M,M,M,M,M,M,M,M,M,M,M,M,87.78,KBVU 010455Z AUTO 13010KT 10SM CLR 32/13 A2997 RMK AO2,M
CXP,2023-08-01 04:55,-119.7326,39.1923,1431.00,73.40,33.80,23.39,0.00,0.00,0.00,30.16,M,10.00,M,CLR,M,M,M,M,M,M,M,M,M,M,M,M,M,M,73.40,KCXP 010455Z AUTO 00000KT 10SM CLR 23/01 A3016 RMK AO2,M
RNO,2023-08-01 04:55,-119.7711,39.4839,1341.00,80.00,29.00,15.48,290.00,12.00,0.00,30.11,1013.40,10.00,21.00,FEW,SCT,M,M,12000.00,22000.00,M,M,M,M,M,M,M,M,M,78.43,KRNO 010455Z 29012G21KT 10SM FEW120 SCT220 27/M02 A3011 RMK AO2 SLP134 T02671017,M
RTS,2023-08-01 04:55,-119.8764,39.6682,1539.00,69.80,26.60,19.72,280.00,12.00,0.00,30.19,M,10.00,M,CLR,M,M,M,M,M,M,M,M,M,M,M,M,M,M,69.80,KRTS 010455Z AUTO 28012KT 10SM CLR 21/M03 A3019 RMK AO2,M
05U,2023-08-01 04:55,-116.0051,39.6042,1811.23,75.20,44.60,33.57,M,M,0.00,30.22,M,10.00,M,CLR,M,M,M,M,M,M,M,M,M,M,M,M,M,M,75.20,K05U 010455Z AUTO 10SM CLR 24/07 A3022 RMK A01,M
MEV,2023-08-01 04:55,-119.7500,38.9963,1441.42,64.40,37.40,36.74,60.00,7.00,0.00,30.14,M,10.00,M,CLR,M,M,M,M,M,M,M,M,M,M,M,M,M,M,64.40,KMEV 010455Z AUTO 06007KT 10SM CLR 18/03 A3014 RMK AO2,M
HTH,2023-08-01 04:55,-118.6315,38.5448,1282.89,82.40,35.60,18.67,250.00,6.00,0.00,30.06,M,10.00,M,CLR,M,M,M,M,M,M,M,M,M,M,M,M,M,M,80.08,KHTH 010455Z AUTO 25006KT 10SM CLR 28/02 A3006 RMK A01,M
10U,2023-08-01 04:55,-116.1876,41.9532,1637.00,66.20,33.80,29.92,0.00,0.00,0.00,30.16,M,10.00,M,CLR,M,M,M,M,M,M,M,M,M,M,M,M,M,M,66.20,K10U 010455Z AUTO 00000KT 10SM CLR 19/01 A3016 RMK AO2,M
INS,2023-08-01 04:55,-115.6733,36.5872,955.00,86.70,43.30,21.95,270.00,4.00,0.00,30.00,1010.50,10.00,M,BKN,M,M,M,14000.00,M,M,M,M,M,M,M,M,M,M,83.54,KINS 010455Z AUTO 27004KT 10SM BKN140 30/06 A3000 RMK AO2 SLP105 T03040063 $,M
LSV,2023-08-01 04:55,-115.0343,36.2362,570.00,90.70,55.00,29.94,80.00,10.00,0.00,29.91,1010.00,10.00,M,BKN,M,M,M,10000.00,M,M,M,M,M,M,M,M,M,M,88.73,KLSV 010455Z COR AUTO 08010KT 10SM BKN100 33/13 A2991 RMK AO2A LTG DSNT NE SLP100 T03260127 $ COR 0537,M
EKO,2023-08-01 04:56,-115.7860,40.8242,1367.00,80.00,37.00,21.34,0.00,0.00,0.00,30.09,1011.90,10.00,M,CLR,M,M,M,M,M,M,M,M,M,M,M,M,M,M,78.70,KEKO 010456Z AUTO 00000KT 10SM CLR 27/03 A3009 RMK AO2 SLP119 T02670028,M
WMC,2023-08-01 04:56,-117.8072,40.9019,1315.00,72.00,23.00,15.75,80.00,4.00,0.00,30.07,1012.90,10.00,M,CLR,M,M,M,M,M,M,M,M,M,M,M,M,M,M,72.00,KWMC 010456Z AUTO 08004KT 10SM CLR 22/M05 A3007 RMK AO2 SLP129 T02221050,M
NFL,2023-08-01 04:56,-118.7010,39.4166,1199.00,82.00,29.00,14.50,290.00,9.00,0.00,30.05,1014.60,10.00,M,SCT,SCT,M,M,15000.00,22000.00,M,M,M,M,M,M,M,M,M,79.67,KNFL 010456Z 29009KT 10SM SCT150 SCT220 28/M02 A3005 RMK AO2 SLP146 T02781017,M
HND,2023-08-01 04:56,-115.1344,35.9729,742.79,89.00,57.00,33.96,130.00,13.00,0.00,29.99,1013.60,10.00,19.00,CLR,M,M,M,M,M,M,M,M,M,M,M,M,M,M,87.64,KHND 010456Z 13013G19KT 10SM CLR 32/14 A2999 RMK AO2 SLP136 T03170139,M
TPH,2023-08-01 04:56,-117.0904,38.0505,1654.00,77.00,38.00,24.50,0.00,0.00,0.00,30.16,1012.50,10.00,M,CLR,M,M,M,M,M,M,M,M,M,M,M,M,M,M,77.00,KTPH 010456Z AUTO 00000KT 10SM CLR 25/03 A3016 RMK AO2 SLP125 T02500033,M
LAS,2023-08-01 04:56,-115.1634,36.0719,663.00,90.00,57.00,32.91,110.00,9.00,0.00,29.95,1011.10,10.00,14.00,FEW,SCT,BKN,M,12000.00,18000.00,22000.00,M,M,M,M,M,M,M,M,88.61,KLAS 010456Z 11009G14KT 10SM FEW120 SCT180 BKN220 32/14 A2995 RMK AO2 LTG DSNT NE SLP111 T03220139,M
BVU,2023-08-01 05:15,-114.8611,35.9475,671.00,89.60,55.40,31.45,130.00,11.00,0.00,29.98,M,10.00,M,CLR,M,M,M,M,M,M,M,M,M,M,M,M,M,M,87.78,KBVU 010515Z AUTO 13011KT 10SM CLR 32/13 A2998 RMK AO2,M
CXP,2023-08-01 05:15,-119.7326,39.1923,1431.00,73.40,32.00,21.76,0.00,0.00,0.00,30.15,M,10.00,M,CLR,M,M,M,M,M,M,M,M,M,M,M,M,M,M,73.40,KCXP 010515Z AUTO 00000KT 10SM CLR 23/M00 A3015 RMK AO2,M
RTS,2023-08-01 05:15,-119.8764,39.6682,1539.00,68.00,26.60,20.98,270.00,8.00,0.00,30.19,M,10.00,M,CLR,M,M,M,M,M,M,M,M,M,M,M,M,M,M,68.00,KRTS 010515Z AUTO 27008KT 10SM CLR 20/M03 A3019 RMK AO2,M
05U,2023-08-01 05:15,-116.0051,39.6042,1811.23,75.20,44.60,33.57,M,M,0.00,30.22,M,10.00,M,CLR,M,M,M,M,M,M,M,M,M,M,M,M,M,M,75.20,K05U 010515Z AUTO 10SM CLR 24/07 A3022 RMK A01,M
MEV,2023-08-01 05:15,-119.7500,38.9963,1441.42,62.60,37.40,39.14,130.00,5.00,0.00,30.14,M,10.00,M,CLR,M,M,M,M,M,M,M,M,M,M,M,M,M,M,62.60,KMEV 010515Z AUTO 13005KT 10SM CLR 17/03 A3014 RMK AO2,M
HTH,2023-08-01 05:15,-118.6315,38.5448,1282.89,84.20,30.20,14.18,350.00,5.00,0.00,30.07,M,10.00,10.00,CLR,M,M,M,M,M,M,M,M,M,M,M,M,M,M,81.26,KHTH 010515Z AUTO 35005G10KT 10SM CLR 29/M01 A3007 RMK A01,M
10U,2023-08-01 05:15,-116.1876,41.9532,1637.00,68.00,33.80,28.11,220.00,4.00,0.00,30.16,M,10.00,M,CLR,M,M,M,M,M,M,M,M,M,M,M,M,M,M,68.00,K10U 010515Z AUTO 22004KT 10SM CLR 20/01 A3016 RMK AO2,M
BVU,2023-08-01 05:35,-114.8611,35.9475,671.00,89.60,55.40,31.45,120.00,13.00,0.00,29.99,M,10.00,M,CLR,M,M,M,M,M,M,M,M,M,M,M,M,M,M,87.78,KBVU 010535Z AUTO 12013KT 10SM CLR 32/13 A2999 RMK AO2,M
CXP,2023-08-01 05:35,-119.7326,39.1923,1431.00,71.60,33.80,24.86,80.00,5.00,0.00,30.16,M,10.00,M,CLR,M,M,M,M,M,M,M,M,M,M,M,M,M,M,71.60,KCXP 010535Z AUTO 08005KT 10SM CLR 22/01 A3016 RMK AO2,M
RTS,2023-08-01 05:35,-119.8764,39.6682,1539.00,66.20,26.60,22.33,310.00,9.00,0.00,30.19,M,10.00,M,CLR,M,M,M,M,M,M,M,M,M,M,M,M,M,M,66.20,KRTS 010535Z AUTO 31009KT 10SM CLR 19/M03 A3019 RMK AO2,M
05U,2023-08-01 05:35,-116.0051,39.6042,1811.23,73.40,44.60,35.66,M,M,0.00,30.22,M,10.00,M,CLR,M,M,M,M,M,M,M,M,M,M,M,M,M,M,73.40,K05U 010535Z AUTO 10SM CLR 23/07 A3022 RMK A01,M
MEV,2023-08-01 05:35,-119.7500,38.9963,1441.42,59.00,37.40,44.47,120.00,6.00,0.00,30.14,M,10.00,M,CLR,M,M,M,M,M,M,M,M,M,M,M,M,M,M,59.00,KMEV 010535Z AUTO 12006KT 10SM CLR 15/03 A3014 RMK AO2,M
HTH,2023-08-01 05:35,-118.6315,38.5448,1282.89,82.40,30.20,15.03,M,4.00,0.00,30.07,M,10.00,M,CLR,M,M,M,M,M,M,M,M,M,M,M,M,M,M,79.97,KHTH 010535Z AUTO VRB04KT 10SM CLR 28/M01 A3007 RMK A01,M
10U,2023-08-01 05:35,-116.1876,41.9532,1637.00,62.60,32.00,31.56,0.00,0.00,0.00,30.16,M,10.00,M,CLR,M,M,M,M,M,M,M,M,M,M,M,M,M,M,62.60,K10U 010535Z AUTO 00000KT 10SM CLR 17/00 A3016 RMK AO2,M
P68,2023-08-01 05:53,-116.0056,39.6014,1993.00,73.00,44.00,35.32,190.00,5.00,0.00,30.20,1012.60,M,M,M,M,M,M,M,M,M,M,M,M,M,M,M,M,M,73.00,KP68 010553Z AUTO 19005KT 23/07 A3020 RMK AO1 SLP126 T02280067 10300 20222 51012,M
DRA,2023-08-01 05:53,-116.0278,36.6206,1009.00,86.00,47.00,25.83,240.00,3.00,0.00,30.02,1010.70,10.00,M,CLR,M,M,M,M,M,M,M,M,M,M,M,M,M,M,83.28,KDRA 010553Z AUTO 24003KT 10SM CLR 30/08 A3002 RMK AO2 SLP107 T03000083 10344 20294 53011,M
ELY,2023-08-01 05:53,-114.8453,39.2950,1909.00,64.00,51.00,62.62,200.00,10.00,0.00,30.27,1013.90,10.00,M,BKN,M,M,M,11000.00,M,M,M,M,M,M,M,M,M,M,64.00,KELY 010553Z AUTO 20010KT 10SM BKN110 18/11 A3027 RMK AO2 SLP139 T01780106 10306 20178 58009 $,M
VGT,2023-08-01 05:53,-115.1933,36.2111,667.00,90.00,59.00,35.36,70.00,24.00,0.00,30.01,1014.80,10.00,34.00,SCT,M,M,M,11000.00,M,M,M,M,M,M,M,34.00,80.00,2023-08-01 05:52,89.26,KVGT 010553Z AUTO 07024G34KT 10SM SCT110 32/15 A3001 RMK AO2 PK WND 08034/0552 LTG DSNT NE AND E SLP148 T03220150 10389 20322 53038,M
LOL,2023-08-01 05:53,-118.5701,40.0684,1192.43,80.00,19.00,10.19,M,3.00,0.00,30.05,1012.70,10.00,M,CLR,M,M,M,M,M,M,M,M,M,M,M,M,M,M,77.94,KLOL 010553Z AUTO VRB03KT 10SM CLR 27/M07 A3005 RMK AO2 SLP127 T02671072 10350 20267 51016,M
BVU,2023-08-01 05:55,-114.8611,35.9475,671.00,87.80,57.20,35.53,180.00,9.00,0.00,30.00,M,10.00,M,CLR,M,M,M,M,M,M,M,M,M,M,M,M,M,M,86.58,KBVU 010555Z AUTO 18009KT 10SM CLR 31/14 A3000 RMK AO2,M
CXP,2023-08-01 05:55,-119.7326,39.1923,1431.00,71.60,33.80,24.86,80.00,5.00,0.00,30.16,M,10.00,M,CLR,M,M,M,M,M,M,M,M,M,M,M,M,M,M,71.60,KCXP 010555Z AUTO 08005KT 10SM CLR 22/01 A3016 RMK AO2,M
INS,2023-08-01 05:55,-115.6733,36.5872,955.00,86.00,54.30,33.87,130.00,15.00,0.00,30.02,1011.20,10.00,19.00,BKN,OVC,M,M,11000.00,13000.00,M,M,M,M,M,M,M,M,M,84.32,KINS 010555Z AUTO 13015G19KT 10SM BKN110 OVC130 30/12 A3002 RMK AO2 SLP112 T03000124 10352 20295 52016 $,M
RNO,2023-08-01 05:55,-119.7711,39.4839,1341.00,78.00,29.00,16.53,10.00,6.00,0.00,30.13,1013.90,10.00,M,FEW,BKN,M,M,13000.00,22000.00,M,M,M,M,M,M,M,M,M,78.00,KRNO 010555Z 01006KT 10SM FEW130 BKN220 26/M02 A3013 RMK AO2 SLP139 T02561017 10344 20250 52011,M
RTS,2023-08-01 05:55,-119.8764,39.6682,1539.00,66.20,28.40,24.04,300.00,7.00,0.00,30.19,M,10.00,M,CLR,M,M,M,M,M,M,M,M,M,M,M,M,M,M,66.20,KRTS 010555Z AUTO 30007KT 10SM CLR 19/M02 A3019 RMK AO2,M
05U,2023-08-01 05:55,-116.0051,39.6042,1811.23,71.60,44.60,37.89,M,M,0.00,30.22,M,10.00,M,CLR,M,M,M,M,M,M,M,M,M,M,M,M,M,M,71.60,K05U 010555Z AUTO 10SM CLR 22/07 A3022 RMK A01,M
MEV,2023-08-01 05:55,-119.7500,38.9963,1441.42,62.60,35.60,36.45,120.00,9.00,0.00,30.14,M,10.00,M,CLR,M,M,M,M,M,M,M,M,M,M,M,M,M,M,62.60,KMEV 010555Z AUTO 12009KT 10SM CLR 17/02 A3014 RMK AO2,M
HTH,2023-08-01 05:55,-118.6315,38.5448,1282.89,82.40,32.00,16.17,260.00,6.00,0.00,30.07,M,10.00,M,CLR,M,M,M,M,M,M,M,M,M,M,M,M,M,M,80.00,KHTH 010555Z AUTO 26006KT 10SM CLR 28/M00 A3007 RMK A01,M
10U,2023-08-01 05:55,-116.1876,41.9532,1637.00,62.60,32.00,31.56,0.00,0.00,0.00,30.17,M,10.00,M,CLR,M,M,M,M,M,M,M,M,M,M,M,M,M,M,62.60,K10U 010555Z AUTO 00000KT 10SM CLR 17/M00 A3017 RMK AO2,M
LSV,2023-08-01 05:55,-115.0343,36.2362,570.00,87.60,60.30,39.95,10.00,26.00,0.00,29.98,1012.50,10.00,31.00,BKN,OVC,M,M,10000.00,14000.00,M,M,M,M,M,M,35.00,10.00,2023-08-01 05:39,87.37,KLSV 010555Z 01026G31KT 10SM BKN100 OVC140 31/16 A2998 RMK AO2A PK WND 01035/39 PRESRR SLP125 T03090157 10382 20309 53041 $,M
EKO,2023-08-01 05:56,-115.7860,40.8242,1367.00,82.00,34.00,17.74,20.00,6.00,0.00,30.11,1012.30,10.00,M,CLR,M,M,M,M,M,M,M,M,M,M,M,M,M,M,79.77,KEKO 010556Z AUTO 02006KT 10SM CLR 28/01 A3011 RMK AO2 SLP123 T02780011 10356 20256 51014,M
WMC,2023-08-01 05:56,-117.8072,40.9019,1315.00,65.00,21.00,18.41,120.00,4.00,0.00,30.07,1013.20,10.00,M,CLR,M,M,M,M,M,M,M,M,M,M,M,M,M,M,65.00,KWMC 010556Z AUTO 12004KT 10SM CLR 18/M06 A3007 RMK AO2 SLP132 T01831061 10367 20183 51012,M
NFL,2023-08-01 05:56,-118.7010,39.4166,1199.00,73.00,30.00,20.34,70.00,5.00,0.00,30.07,1015.00,10.00,M,SCT,BKN,M,M,15000.00,22000.00,M,M,M,M,M,M,M,M,M,73.00,KNFL 010556Z 07005KT 10SM SCT150 BKN220 23/M01 A3007 RMK AO2 SLP150 T02281011 10361 20228 51017,M
HND,2023-08-01 05:56,-115.1344,35.9729,742.79,88.00,58.00,36.34,130.00,14.00,0.00,30.01,1014.40,10.00,M,CLR,M,M,M,M,M,M,M,M,M,M,M,M,M,M,86.99,KHND 010556Z 13014KT 10SM CLR 31/14 A3001 RMK AO2 LTG DSNT NE SLP144 60001 T03110144 10372 20306 53020,M
TPH,2023-08-01 05:56,-117.0904,38.0505,1654.00,78.00,39.00,24.65,140.00,4.00,0.00,30.17,1012.10,10.00,M,CLR,M,M,M,M,M,M,M,M,M,M,M,M,M,M,78.00,KTPH 010556Z AUTO 14004KT 10SM CLR 26/04 A3017 RMK AO2 SLP121 T02560039 10344 20244 51014,M
LAS,2023-08-01 05:56,-115.1634,36.0719,663.00,89.00,57.00,33.96,70.00,16.00,0.00,30.00,1012.80,10.00,21.00,SCT,BKN,OVC,M,10000.00,13000.00,20000.00,M,M,M,M,M,M,M,M,87.64,KLAS 010556Z 07016G21KT 10SM SCT100 BKN130 OVC200 32/14 A3000 RMK AO2 LTG DSNT NE PRESRR SLP128 60000 T03170139 10383 20317 53031,M
BVU,2023-08-01 06:15,-114.8611,35.9475,671.00,87.80,57.20,35.53,130.00,7.00,0.00,30.01,M,10.00,M,BKN,M,M,M,11000.00,M,M,M,M,M,M,M,M,M,M,86.58,KBVU 010615Z AUTO 13007KT 10SM BKN110 31/14 A3001 RMK AO2 LTG DSNT N AND NE,M
CXP,2023-08-01 06:15,-119.7326,39.1923,1431.00,71.60,33.80,24.86,0.00,0.00,0.00,30.16,M,10.00,M,CLR,M,M,M,M,M,M,M,M,M,M,M,M,M,M,71.60,KCXP 010615Z AUTO 00000KT 10SM CLR 22/01 A3016 RMK AO2,M
RTS,2023-08-01 06:15,-119.8764,39.6682,1539.00,66.20,28.40,24.04,210.00,3.00,0.00,30.20,M,10.00,M,CLR,M,M,M,M,M,M,M,M,M,M,M,M,M,M,66.20,KRTS 010615Z AUTO 21003KT 10SM CLR 19/M02 A3020 RMK AO2,M
05U,2023-08-01 06:15,-116.0051,39.6042,1811.23,73.40,44.60,35.66,M,M,0.00,30.22,M,10.00,M,CLR,M,M,M,M,M,M,M,M,M,M,M,M,M,M,73.40,K05U 010615Z AUTO 10SM CLR 23/07 A3022 RMK A01,M
MEV,2023-08-01 06:15,-119.7500,38.9963,1441.42,62.60,33.80,33.93,120.00,9.00,0.00,30.14,M,10.00,M,CLR,M,M,M,M,M,M,M,M,M,M,M,M,M,M,62.60,KMEV 010615Z AUTO 12009KT 10SM CLR 17/01 A3014 RMK AO2,M
HTH,2023-08-01 06:15,-118.6315,38.5448,1282.89,80.60,33.80,18.42,270.00,6.00,0.00,30.08,M,10.00,M,CLR,M,M,M,M,M,M,M,M,M,M,M,M,M,M,78.88,KHTH 010615Z AUTO 27006KT 10SM CLR 27/01 A3008 RMK A01,M
10U,2023-08-01 06:15,-116.1876,41.9532,1637.00,60.80,30.20,31.28,0.00,0.00,0.00,30.16,M,10.00,M,CLR,M,M,M,M,M,M,M,M,M,M,M,M,M,M,60.80,K10U 010615Z AUTO 00000KT 10SM CLR 16/M01 A3016 RMK AO2,M
LSV,2023-08-01 06:28,-115.0343,36.2362,570.00,82.40,62.60,51.21,10.00,25.00,0.00,30.00,1013.30,10.00,31.00,SCT,BKN,M,M,11000.00,17000.00,M,M,-DZ,M,M,M,M,M,M,83.41,KLSV 010628Z 01025G31KT 10SM -DZ SCT110 BKN170 28/17 A3000 RMK AO2A DZB28 SLP133 $,M
BVU,2023-08-01 06:35,-114.8611,35.9475,671.00,86.00,60.80,42.80,40.00,20.00,0.00,30.03,M,10.00,M,OVC,M,M,M,11000.00,M,M,M,M,M,M,M,M,M,M,86.05,KBVU 010635Z AUTO 04020KT 10SM OVC110 30/16 A3003 RMK AO2,M
CXP,2023-08-01 06:35,-119.7326,39.1923,1431.00,69.80,33.80,26.43,0.00,0.00,0.00,30.16,M,10.00,M,CLR,M,M,M,M,M,M,M,M,M,M,M,M,M,M,69.80,KCXP 010635Z AUTO 00000KT 10SM CLR 21/01 A3016 RMK AO2,M
HND,2023-08-01 06:35,-115.1344,35.9729,742.79,86.00,57.20,37.62,70.00,10.00,0.00,30.06,M,10.00,18.00,OVC,M,M,M,11000.00,M,M,M,M,M,M,M,M,M,M,84.97,KHND 010635Z 07010G18KT 10SM OVC110 30/14 A3006 RMK AO2 WSHFT 0615,M
RTS,2023-08-01 06:35,-119.8764,39.6682,1539.00,64.40,28.40,25.60,270.00,8.00,0.00,30.20,M,10.00,M,CLR,M,M,M,M,M,M,M,M,M,M,M,M,M,M,64.40,KRTS 010635Z AUTO 27008KT 10SM CLR 18/M02 A3020 RMK AO2,M
05U,2023-08-01 06:35,-116.0051,39.6042,1811.23,73.40,44.60,35.66,M,M,0.00,30.22,M,10.00,M,CLR,M,M,M,M,M,M,M,M,M,M,M,M,M,M,73.40,K05U 010635Z AUTO 10SM CLR 23/07 A3022 RMK A01,M
MEV,2023-08-01 06:35,-119.7500,38.9963,1441.42,60.80,33.80,36.16,120.00,6.00,0.00,30.15,M,10.00,M,CLR,M,M,M,M,M,M,M,M,M,M,M,M,M,M,60.80,KMEV 010635Z AUTO 12006KT 10SM CLR 16/01 A3015 RMK AO2,M
HTH,2023-08-01 06:35,-118.6315,38.5448,1282.89,80.60,35.60,19.79,310.00,11.00,0.00,30.10,M,10.00,M,CLR,M,M,M,M,M,M,M,M,M,M,M,M,M,M,78.94,KHTH 010635Z AUTO 31011KT 10SM CLR 27/02 A3010 RMK A01,M
10U,2023-08-01 06:35,-116.1876,41.9532,1637.00,60.80,30.20,31.28,270.00,5.00,0.00,30.16,M,10.00,M,CLR,M,M,M,M,M,M,M,M,M,M,M,M,M,M,60.80,K10U 010635Z AUTO 27005KT 10SM CLR 16/M01 A3016 RMK AO2,M
LSV,2023-08-01 06:39,-115.0343,36.2362,570.00,80.60,62.60,54.30,360.00,25.00,0.00,30.01,1013.70,10.00,M,FEW,M,M,M,17000.00,M,M,M,M,M,M,M,M,M,M,81.84,KLSV 010639Z 36025KT 10SM FEW170 27/17 A3001 RMK AO2A DZB28E39 SLP137 $,M
P68,2023-08-01 06:53,-116.0056,39.6014,1993.00,73.00,45.00,36.70,140.00,6.00,0.00,30.19,1012.30,M,M,M,M,M,M,M,M,M,M,M,M,M,M,M,M,M,73.00,KP68 010653Z AUTO 14006KT 23/07 A3019 RMK AO1 SLP123 T02280072,M
DRA,2023-08-01 06:53,-116.0278,36.6206,1009.00,84.00,47.00,27.55,30.00,6.00,0.00,30.04,1011.40,10.00,M,CLR,M,M,M,M,M,M,M,M,M,M,M,M,M,M,81.78,KDRA 010653Z AUTO 03006KT 10SM CLR 29/08 A3004 RMK AO2 SLP114 T02890083,M
ELY,2023-08-01 06:53,-114.8453,39.2950,1909.00,62.00,51.00,67.18,220.00,9.00,0.00,30.27,1013.60,10.00,M,CLR,M,M,M,M,M,M,M,M,M,M,M,M,M,M,62.00,KELY 010653Z AUTO 22009KT 10SM CLR 17/11 A3027 RMK AO2 SLP136 T01670106 $,M
VGT,2023-08-01 06:53,-115.1933,36.2111,667.00,83.00,61.00,47.47,70.00,17.00,0.00,30.04,1016.00,10.00,28.00,CLR,M,M,M,M,M,M,M,M,M,M,M,37.00,50.00,2023-08-01 06:08,83.46,KVGT 010653Z AUTO 07017G28KT 10SM CLR 28/16 A3004 RMK AO2 PK WND 05037/0608 SLP160 T02830161,M
LOL,2023-08-01 06:53,-118.5701,40.0684,1192.43,66.00,27.00,22.86,140.00,6.00,0.00,30.06,1013.50,10.00,M,CLR,M,M,M,M,M,M,M,M,M,M,M,M,M,M,66.00,KLOL 010653Z AUTO 14006KT 10SM CLR 19/M03 A3006 RMK AO2 SLP135 T01891028,M
BVU,2023-08-01 06:55,-114.8611,35.9475,671.00,82.40,62.60,51.21,30.00,16.00,0.00,30.03,M,10.00,M,OVC,M,M,M,11000.00,M,M,M,M,M,M,M,M,M,M,83.41,KBVU 010655Z AUTO 03016KT 10SM OVC110 28/17 A3003 RMK AO2,M
CXP,2023-08-01 06:55,-119.7326,39.1923,1431.00,69.80,32.00,24.59,0.00,0.00,0.00,30.16,M,10.00,M,CLR,M,M,M,M,M,M,M,M,M,M,M,M,M,M,69.80,KCXP 010655Z AUTO 00000KT 10SM CLR 21/00 A3016 RMK AO2,M
INS,2023-08-01 06:55,-115.6733,36.5872,955.00,85.00,52.70,32.98,130.00,19.00,0.00,30.05,1011.90,10.00,28.00,SCT,OVC,M,M,11000.00,16000.00,M,M,M,M,M,M,30.00,150.00,2023-08-01 06:40,83.22,KINS 010655Z AUTO 13019G28KT 10SM SCT110 OVC160 30/12 A3005 RMK AO2 PK WND 15030/40 SLP119 T02950115 $,M
RNO,2023-08-01 06:55,-119.7711,39.4839,1341.00,76.00,30.00,18.40,270.00,7.00,0.00,30.13,1013.90,10.00,M,FEW,BKN,M,M,13000.00,22000.00,M,M,M,M,M,M,M,M,M,76.00,KRNO 010655Z 27007KT 10SM FEW130 BKN220 24/M01 A3013 RMK AO2 SLP139 T02441011,M
RTS,2023-08-01 06:55,-119.8764,39.6682,1539.00,62.60,28.40,27.27,320.00,5.00,0.00,30.19,M,10.00,M,CLR,M,M,M,M,M,M,M,M,M,M,M,M,M,M,62.60,KRTS 010655Z AUTO 32005KT 10SM CLR 17/M02 A3019 RMK AO2,M
05U,2023-08-01 06:55,-116.0051,39.6042,1811.23,71.60,44.60,37.89,M,M,0.00,30.22,M,10.00,M,CLR,M,M,M,M,M,M,M,M,M,M,M,M,M,M,71.60,K05U 010655Z AUTO 10SM CLR 22/07 A3022 RMK A01,M
MEV,2023-08-01 06:55,-119.7500,38.9963,1441.42,59.00,35.60,41.42,100.00,5.00,0.00,30.15,M,10.00,M,CLR,M,M,M,M,M,M,M,M,M,M,M,M,M,M,59.00,KMEV 010655Z AUTO 10005KT 10SM CLR 15/02 A3015 RMK AO2,M
HTH,2023-08-01 06:55,-118.6315,38.5448,1282.89,80.60,33.80,18.42,320.00,9.00,0.00,30.10,M,10.00,M,CLR,M,M,M,M,M,M,M,M,M,M,M,M,M,M,78.88,KHTH 010655Z AUTO 32009KT 10SM CLR 27/01 A3010 RMK A01,M
10U,2023-08-01 06:55,-116.1876,41.9532,1637.00,62.60,30.20,29.35,0.00,0.00,0.00,30.16,M,10.00,M,CLR,M,M,M,M,M,M,M,M,M,M,M,M,M,M,62.60,K10U 010655Z AUTO 00000KT 10SM CLR 17/M01 A3016 RMK AO2,M
LSV,2023-08-01 06:55,-115.0343,36.2362,570.00,81.30,62.40,52.70,10.00,23.00,T,30.01,1013.60,10.00,28.00,FEW,FEW,M,M,10000.00,13000.00,M,M,M,M,M,M,36.00,10.00,2023-08-01 06:03,82.39,KLSV 010655Z 01023G28KT 10SM FEW100 FEW130 27/17 A3001 RMK AO2A PK WND 01036/03 DZB28E39 SLP136 P0000 T02740169 $,M
EKO,2023-08-01 06:56,-115.7860,40.8242,1367.00,76.00,38.00,25.32,50.00,3.00,0.00,30.11,1012.20,10.00,M,CLR,M,M,M,M,M,M,M,M,M,M,M,M,M,M,76.00,KEKO 010656Z AUTO 05003KT 10SM CLR 24/03 A3011 RMK AO2 SLP122 T02440033,M
WMC,2023-08-01 06:56,-117.8072,40.9019,1315.00,65.00,24.00,20.89,0.00,0.00,0.00,30.08,1013.00,10.00,M,CLR,M,M,M,M,M,M,M,M,M,M,M,M,M,M,65.00,KWMC 010656Z AUTO 00000KT 10SM CLR 18/M04 A3008 RMK AO2 SLP130 T01831044,M
NFL,2023-08-01 06:56,-118.7010,39.4166,1199.00,74.00,28.00,18.12,280.00,7.00,0.00,30.07,1015.20,10.00,M,CLR,M,M,M,M,M,M,M,M,M,M,M,M,M,M,74.00,KNFL 010656Z AUTO 28007KT 10SM CLR 23/M02 A3007 RMK AO2 SLP152 T02331022,M
HND,2023-08-01 06:56,-115.1344,35.9729,742.79,85.00,59.00,41.44,50.00,13.00,0.00,30.07,1016.50,10.00,M,FEW,BKN,M,M,9000.00,11000.00,M,M,M,M,M,M,M,M,M,84.59,KHND 010656Z 05013KT 10SM FEW090 BKN110 29/15 A3007 RMK AO2 WSHFT 0615 SLP165 T02940150 403830294,M
TPH,2023-08-01 06:56,-117.0904,38.0505,1654.00,76.00,42.00,29.59,130.00,4.00,0.00,30.18,1012.40,10.00,M,CLR,M,M,M,M,M,M,M,M,M,M,M,M,M,M,76.00,KTPH 010656Z AUTO 13004KT 10SM CLR 24/06 A3018 RMK AO2 SLP124 T02440056,M
LAS,2023-08-01 06:56,-115.1634,36.0719,663.00,80.00,63.00,56.16,30.00,14.00,0.00,30.04,1014.40,10.00,M,FEW,BKN,OVC,M,11000.00,16000.00,20000.00,M,VCBLDU,M,M,M,42.00,360.00,2023-08-01 06:36,81.41,KLAS 010656Z 03014KT 10SM VCBLDU FEW110 BKN160 OVC200 27/17 A3004 RMK AO2 PK WND 36042/0636 SLP144 VIS LWR W T02670172,M
BVU,2023-08-01 07:15,-114.8611,35.9475,671.00,82.40,64.40,54.55,40.00,18.00,0.00,30.03,M,10.00,M,OVC,M,M,M,10000.00,M,M,M,M,M,M,M,M,M,M,83.98,KBVU 010715Z AUTO 04018KT 10SM OVC100 28/18 A3003 RMK AO2,M
CXP,2023-08-01 07:15,-119.7326,39.1923,1431.00,73.40,30.20,20.23,260.00,3.00,0.00,30.16,M,10.00,M,CLR,M,M,M,M,M,M,M,M,M,M,M,M,M,M,73.40,KCXP 010715Z AUTO 26003KT 10SM CLR 23/M01 A3016 RMK AO2,M
RTS,2023-08-01 07:15,-119.8764,39.6682,1539.00,60.80,28.40,29.06,310.00,6.00,0.00,30.19,M,10.00,M,CLR,M,M,M,M,M,M,M,M,M,M,M,M,M,M,60.80,KRTS 010715Z AUTO 31006KT 10SM CLR 16/M02 A3019 RMK AO2,M
05U,2023-08-01 07:15,-116.0051,39.6042,1811.23,71.60,44.60,37.89,M,M,0.00,30.21,M,10.00,M,CLR,M,M,M,M,M,M,M,M,M,M,M,M,M,M,71.60,K05U 010715Z AUTO 10SM CLR 22/07 A3021 RMK A01,M
MEV,2023-08-01 07:15,-119.7500,38.9963,1441.42,59.00,33.80,38.56,100.00,7.00,0.00,30.15,M,10.00,M,CLR,M,M,M,M,M,M,M,M,M,M,M,M,M,M,59.00,KMEV 010715Z AUTO 10007KT 10SM CLR 15/01 A3015 RMK AO2,M
HTH,2023-08-01 07:15,-118.6315,38.5448,1282.89,78.80,32.00,18.18,310.00,7.00,0.00,30.11,M,10.00,M,CLR,M,M,M,M,M,M,M,M,M,M,M,M,M,M,78.80,KHTH 010715Z AUTO 31007KT 10SM CLR 26/00 A3011 RMK A01,M
10U,2023-08-01 07:15,-116.1876,41.9532,1637.00,66.20,32.00,27.83,110.00,4.00,0.00,30.16,M,10.00,M,CLR,M,M,M,M,M,M,M,M,M,M,M,M,M,M,66.20,K10U 010715Z AUTO 11004KT 10SM CLR 19/M00 A3016 RMK AO2,M
HTH,2023-08-01 07:30,-118.6315,38.5448,1282.89,78.80,32.00,18.18,320.00,6.00,0.00,30.11,M,10.00,M,CLR,M,M,M,M,M,M,M,M,M,M,M,M,M,M,78.80,KHTH 010730Z AUTO 32006KT 10SM CLR 26/M00 A3011 RMK A01,M
BVU,2023-08-01 07:35,-114.8611,35.9475,671.00,80.60,62.60,54.30,30.00,16.00,0.00,30.03,M,10.00,23.00,OVC,M,M,M,10000.00,M,M,M,M,M,M,M,M,M,M,81.84,KBVU 010735Z AUTO 03016G23KT 10SM OVC100 27/17 A3003 RMK AO2 LTG DSNT SE,M
CXP,2023-08-01 07:35,-119.7326,39.1923,1431.00,71.60,32.00,23.13,0.00,0.00,0.00,30.16,M,10.00,M,CLR,M,M,M,M,M,M,M,M,M,M,M,M,M,M,71.60,KCXP 010735Z AUTO 00000KT 10SM CLR 22/00 A3016 RMK AO2,M
RTS,2023-08-01 07:35,-119.8764,39.6682,1539.00,60.80,26.60,26.98,320.00,4.00,0.00,30.20,M,10.00,M,CLR,M,M,M,M,M,M,M,M,M,M,M,M,M,M,60.80,KRTS 010735Z AUTO 32004KT 10SM CLR 16/M03 A3020 RMK AO2,M
05U,2023-08-01 07:35,-116.0051,39.6042,1811.23,71.60,44.60,37.89,M,M,0.00,30.21,M,10.00,M,M,M,M,M,M,M,M,M,M,M,M,M,M,M,M,71.60,K05U 010735Z AUTO 10SM 22/07 A3021 RMK A01,M
MEV,2023-08-01 07:35,-119.7500,38.9963,1441.42,59.00,33.80,38.56,120.00,6.00,0.00,30.15,M,10.00,M,CLR,M,M,M,M,M,M,M,M,M,M,M,M,M,M,59.00,KMEV 010735Z AUTO 12006KT 10SM CLR 15/01 A3015 RMK AO2,M
BAM,2023-08-01 07:35,-116.8743,40.5990,1382.36,73.40,28.40,18.80,350.00,3.00,0.00,30.09,M,10.00,M,CLR,M,M,M,M,M,M,M,M,M,M,M,M,M,M,73.40,KBAM 010735Z AUTO 35003KT 10SM CLR 23/M02 A3009 RMK AO1,M
TMT,2023-08-01 07:35,-117.1971,39.4643,1749.34,63.00,36.50,37.25,0.00,0.00,0.00,30.20,M,M,M,CLR,M,M,M,M,M,M,M,M,M,M,M,M,M,M,63.00,KTMT 010735Z AUTO 00000KT CLR 17/03 A3020 RMK AO2 T01730025 PWINO,M
10U,2023-08-01 07:35,-116.1876,41.9532,1637.00,62.60,32.00,31.56,0.00,0.00,0.00,30.16,M,10.00,M,CLR,M,M,M,M,M,M,M,M,M,M,M,M,M,M,62.60,K10U 010735Z AUTO 00000KT 10SM CLR 17/00 A3016 RMK AO2,M
P68,2023-08-01 07:53,-116.0056,39.6014,1993.00,71.00,44.00,37.80,140.00,8.00,0.00,30.19,1012.00,M,M,M,M,M,M,M,M,M,M,M,M,M,M,M,M,M,71.00,KP68 010753Z AUTO 14008KT 22/07 A3019 RMK AO1 SLP120 T02170067 403390106,M
DRA,2023-08-01 07:53,-116.0278,36.6206,1009.00,84.00,56.00,38.42,100.00,20.00,0.00,30.04,1011.50,10.00,28.00,CLR,M,M,M,M,M,M,M,M,M,M,M,30.00,120.00,2023-08-01 07:42,83.05,KDRA 010753Z AUTO 10020G28KT 10SM CLR 29/13 A3004 RMK AO2 PK WND 12030/0742 SLP115 T02890133 403780244,M
ELY,2023-08-01 07:53,-114.8453,39.2950,1909.00,64.00,50.00,60.34,220.00,9.00,0.00,30.27,1013.40,10.00,M,BKN,M,M,M,11000.00,M,M,M,M,M,M,M,M,M,M,64.00,KELY 010753Z AUTO 22009KT 10SM BKN110 18/10 A3027 RMK AO2 SLP134 T01780100 403330144 $,M
VGT,2023-08-01 07:53,-115.1933,36.2111,667.00,82.00,62.00,50.80,80.00,14.00,0.00,30.06,1016.70,10.00,M,FEW,M,M,M,11000.00,M,M,M,M,M,M,M,M,M,M,82.89,KVGT 010753Z AUTO 08014KT 10SM FEW110 28/17 A3006 RMK AO2 SLP167 T02780167 404000278,M
LOL,2023-08-01 07:53,-118.5701,40.0684,1192.43,67.00,30.00,24.97,100.00,6.00,0.00,30.07,1013.80,10.00,M,CLR,M,M,M,M,M,M,M,M,M,M,M,M,M,M,67.00,KLOL 010753Z AUTO 10006KT 10SM CLR 19/M01 A3007 RMK AO2 SLP138 T01941011 403560100,M
BVU,2023-08-01 07:55,-114.8611,35.9475,671.00,80.60,60.80,50.95,30.00,12.00,0.00,30.04,M,10.00,20.00,BKN,M,M,M,11000.00,M,M,M,M,M,M,M,M,M,M,81.46,KBVU 010755Z AUTO 03012G20KT 10SM BKN110 27/16 A3004 RMK AO2,M
CXP,2023-08-01 07:55,-119.7326,39.1923,1431.00,66.20,35.60,32.14,0.00,0.00,0.00,30.16,M,10.00,M,CLR,M,M,M,M,M,M,M,M,M,M,M,M,M,M,66.20,KCXP 010755Z AUTO 00000KT 10SM CLR 19/02 A3016 RMK AO2,M
RNO,2023-08-01 07:55,-119.7711,39.4839,1341.00,74.00,30.00,19.67,30.00,3.00,0.00,30.14,1013.90,10.00,M,FEW,BKN,M,M,13000.00,22000.00,M,M,M,M,M,M,M,M,M,74.00,KRNO 010755Z 03003KT 10SM FEW130 BKN220 23/M01 A3014 RMK AO2 SLP139 T02331011 403560178,M
RTS,2023-08-01 07:55,-119.8764,39.6682,1539.00,60.80,28.40,29.06,350.00,5.00,0.00,30.19,M,10.00,M,CLR,M,M,M,M,M,M,M,M,M,M,M,M,M,M,60.80,KRTS 010755Z AUTO 35005KT 10SM CLR 16/M02 A3019 RMK AO2,M
05U,2023-08-01 07:55,-116.0051,39.6042,1811.23,69.80,44.60,40.29,M,M,0.00,30.21,M,10.00,M,M,M,M,M,M,M,M,M,M,M,M,M,M,M,M,69.80,K05U 010755Z AUTO 10SM 21/07 A3021 RMK A01,M
MEV,2023-08-01 07:55,-119.7500,38.9963,1441.42,60.80,33.80,36.16,100.00,5.00,0.00,30.15,M,10.00,M,CLR,M,M,M,M,M,M,M,M,M,M,M,M,M,M,60.80,KMEV 010755Z AUTO 10005KT 10SM CLR 16/01 A3015 RMK AO2,M
BAM,2023-08-01 07:55,-116.8743,40.5990,1382.36,64.40,26.60,23.77,140.00,4.00,0.00,30.10,M,10.00,M,CLR,M,M,M,M,M,M,M,M,M,M,M,M,M,M,64.40,KBAM 010755Z AUTO 14004KT 10SM CLR 18/M03 A3010 RMK AO1,M
HTH,2023-08-01 07:55,-118.6315,38.5448,1282.89,77.00,30.20,17.94,330.00,7.00,0.00,30.11,M,10.00,M,CLR,M,M,M,M,M,M,M,M,M,M,M,M,M,M,77.00,KHTH 010755Z AUTO 33007KT 10SM CLR 25/M01 A3011 RMK A01,M
TMT,2023-08-01 07:55,-117.1971,39.4643,1749.34,59.70,34.70,38.98,220.00,4.00,0.00,30.20,M,M,M,CLR,M,M,M,M,M,M,M,M,M,M,M,M,M,M,59.70,KTMT 010755Z AUTO 22004KT CLR 15/02 A3020 RMK AO2 T01540015 403360036 PWINO,M
10U,2023-08-01 07:55,-116.1876,41.9532,1637.00,66.20,32.00,27.83,120.00,8.00,0.00,30.16,M,10.00,M,CLR,M,M,M,M,M,M,M,M,M,M,M,M,M,M,66.20,K10U 010755Z AUTO 12008KT 10SM CLR 19/00 A3016 RMK AO2,M
INS,2023-08-01 07:55,-115.6733,36.5872,955.00,82.00,54.50,38.81,130.00,18.00,0.00,30.06,1012.50,10.00,30.00,SCT,M,M,M,11000.00,M,M,M,M,M,M,M,33.00,90.00,2023-08-01 07:22,81.32,KINS 010755Z AUTO 13018G30KT 10SM SCT110 28/13 A3006 RMK AO2 PK WND 09033/22 SLP125 T02770125 403520253 $,M
LSV,2023-08-01 07:55,-115.0343,36.2362,570.00,80.40,63.70,56.81,20.00,13.00,0.00,30.02,1013.90,10.00,27.00,FEW,M,M,M,12000.00,M,M,M,M,M,M,M,28.00,10.00,2023-08-01 07:08,81.92,KLSV 010755Z COR 02013G27KT 10SM FEW120 27/18 A3002 RMK AO2 PK WND 01028/08 SLP139 WND DATA ESTMD T02690176 404310269 $ COR 0806,M
EKO,2023-08-01 07:56,-115.7860,40.8242,1367.00,72.00,36.00,26.77,350.00,4.00,0.00,30.12,1012.80,10.00,M,CLR,M,M,M,M,M,M,M,M,M,M,M,M,M,M,72.00,KEKO 010756Z AUTO 35004KT 10SM CLR 22/02 A3012 RMK AO2 SLP128 T02220022 403560128,M
WMC,2023-08-01 07:56,-117.8072,40.9019,1315.00,61.00,25.00,25.07,0.00,0.00,0.00,30.09,1013.40,10.00,M,CLR,M,M,M,M,M,M,M,M,M,M,M,M,M,M,61.00,KWMC 010756Z AUTO 00000KT 10SM CLR 16/M04 A3009 RMK AO2 SLP134 T01611039 403670111,M
NFL,2023-08-01 07:56,-118.7010,39.4166,1199.00,71.00,29.00,20.90,60.00,5.00,0.00,30.08,1015.40,10.00,M,CLR,M,M,M,M,M,M,M,M,M,M,M,M,M,M,71.00,KNFL 010756Z AUTO 06005KT 10SM CLR 22/M02 A3008 RMK AO2 SLP154 T02171017 403610150,M
HND,2023-08-01 07:56,-115.1344,35.9729,742.79,81.00,62.00,52.48,30.00,11.00,0.00,30.10,1017.50,10.00,M,FEW,M,M,M,6000.00,M,M,M,M,M,M,M,M,M,M,82.04,KHND 010756Z 03011KT 10SM FEW060 27/17 A3010 RMK AO2 SLP175 T02720167,M
TPH,2023-08-01 07:56,-117.0904,38.0505,1654.00,75.00,44.00,33.03,160.00,8.00,0.00,30.19,1012.70,10.00,M,FEW,M,M,M,12000.00,M,M,M,M,M,M,M,M,M,M,75.00,KTPH 010756Z AUTO 16008KT 10SM FEW120 24/07 A3019 RMK AO2 SLP127 T02390067 403560172,M
LAS,2023-08-01 07:56,-115.1634,36.0719,663.00,79.00,63.00,58.04,30.00,19.00,0.00,30.06,1015.10,10.00,24.00,FEW,OVC,M,M,11000.00,18000.00,M,M,M,M,M,M,M,M,M,79.00,KLAS 010756Z 03019G24KT 10SM FEW110 OVC180 26/17 A3006 RMK AO2 SLP151 T02610172 403890261,M
BVU,2023-08-01 08:15,-114.8611,35.9475,671.00,80.60,60.80,50.95,40.00,14.00,0.00,30.04,M,10.00,20.00,FEW,FEW,OVC,M,4400.00,6000.00,11000.00,M,M,M,M,M,M,M,M,81.46,KBVU 010815Z AUTO 04014G20KT 10SM FEW044 FEW060 OVC110 27/16 A3004 RMK AO2,M
CXP,2023-08-01 08:15,-119.7326,39.1923,1431.00,68.00,33.80,28.11,0.00,0.00,0.00,30.17,M,10.00,M,CLR,M,M,M,M,M,M,M,M,M,M,M,M,M,M,68.00,KCXP 010815Z AUTO 00000KT 10SM CLR 20/01 A3017 RMK AO2,M
RTS,2023-08-01 08:15,-119.8764,39.6682,1539.00,62.60,28.40,27.27,300.00,4.00,0.00,30.19,M,10.00,M,CLR,M,M,M,M,M,M,M,M,M,M,M,M,M,M,62.60,KRTS 010815Z AUTO 30004KT 10SM CLR 17/M02 A3019 RMK AO2,M
05U,2023-08-01 08:15,-116.0051,39.6042,1811.23,69.80,44.60,40.29,M,M,0.00,30.22,M,10.00,M,M,M,M,M,M,M,M,M,M,M,M,M,M,M,M,69.80,K05U 010815Z AUTO 10SM 21/07 A3022 RMK A01,M
MEV,2023-08-01 08:15,-119.7500,38.9963,1441.42,57.20,33.80,41.13,M,4.00,0.00,30.15,M,10.00,M,CLR,M,M,M,M,M,M,M,M,M,M,M,M,M,M,57.20,KMEV 010815Z AUTO VRB04KT 10SM CLR 14/01 A3015 RMK AO2,M
BAM,2023-08-01 08:15,-116.8743,40.5990,1382.36,64.40,24.80,22.06,130.00,4.00,0.00,30.10,M,10.00,M,CLR,M,M,M,M,M,M,M,M,M,M,M,M,M,M,64.40,KBAM 010815Z AUTO 13004KT 10SM CLR 18/M04 A3010 RMK AO1,M
HTH,2023-08-01 08:15,-118.6315,38.5448,1282.89,77.00,32.00,19.30,330.00,7.00,0.00,30.11,M,10.00,M,CLR,M,M,M,M,M,M,M,M,M,M,M,M,M,M,77.00,KHTH 010815Z AUTO 33007KT 10SM CLR 25/M00 A3011 RMK A01,M
TMT,2023-08-01 08:15,-117.1971,39.4643,1749.34,56.50,33.00,40.85,160.00,6.00,0.00,30.21,M,M,M,CLR,M,M,M,M,M,M,M,M,M,M,M,M,M,M,56.50,KTMT 010815Z AUTO 16006KT CLR 14/01 A3021 RMK AO2 T01360006 PWINO,M
10U,2023-08-01 08:15,-116.1876,41.9532,1637.00,64.40,32.00,29.63,80.00,6.00,0.00,30.16,M,10.00,M,CLR,M,M,M,M,M,M,M,M,M,M,M,M,M,M,64.40,K10U 010815Z AUTO 08006KT 10SM CLR 18/00 A3016 RMK AO2,M
BVU,2023-08-01 08:35,-114.8611,35.9475,671.00,80.60,62.60,54.30,40.00,13.00,0.00,30.04,M,10.00,20.00,FEW,BKN,OVC,M,4600.00,6000.00,11000.00,M,M,M,M,M,M,M,M,81.84,KBVU 010835Z AUTO 04013G20KT 10SM FEW046 BKN060 OVC110 27/17 A3004 RMK AO2,M
CXP,2023-08-01 08:35,-119.7326,39.1923,1431.00,66.20,33.80,29.92,M,4.00,0.00,30.17,M,10.00,M,CLR,M,M,M,M,M,M,M,M,M,M,M,M,M,M,66.20,KCXP 010835Z AUTO VRB04KT 10SM CLR 19/01 A3017 RMK AO2,M
RTS,2023-08-01 08:35,-119.8764,39.6682,1539.00,60.80,28.40,29.06,330.00,7.00,0.00,30.19,M,10.00,M,CLR,M,M,M,M,M,M,M,M,M,M,M,M,M,M,60.80,KRTS 010835Z AUTO 33007KT 10SM CLR 16/M02 A3019 RMK AO2,M
05U,2023-08-01 08:35,-116.0051,39.6042,1811.23,69.80,44.60,40.29,M,M,0.00,30.22,M,10.00,M,M,M,M,M,M,M,M,M,M,M,M,M,M,M,M,69.80,K05U 010835Z AUTO 10SM 21/07 A3022 RMK A01,M
MEV,2023-08-01 08:35,-119.7500,38.9963,1441.42,57.20,35.60,44.19,0.00,0.00,0.00,30.16,M,10.00,M,CLR,M,M,M,M,M,M,M,M,M,M,M,M,M,M,57.20,KMEV 010835Z AUTO 00000KT 10SM CLR 14/02 A3016 RMK AO2,M
BAM,2023-08-01 08:35,-116.8743,40.5990,1382.36,64.40,26.60,23.77,130.00,6.00,0.00,30.11,M,10.00,M,CLR,M,M,M,M,M,M,M,M,M,M,M,M,M,M,64.40,KBAM 010835Z AUTO 13006KT 10SM CLR 18/M03 A3011 RMK AO1,M
HTH,2023-08-01 08:35,-118.6315,38.5448,1282.89,77.00,32.00,19.30,330.00,5.00,0.00,30.11,M,10.00,M,CLR,M,M,M,M,M,M,M,M,M,M,M,M,M,M,77.00,KHTH 010835Z AUTO 33005KT 10SM CLR 25/M00 A3011 RMK A01,M
TMT,2023-08-01 08:35,-117.1971,39.4643,1749.34,57.40,32.00,37.99,200.00,4.00,0.00,30.21,M,M,M,CLR,M,M,M,M,M,M,M,M,M,M,M,M,M,M,57.40,KTMT 010835Z AUTO 20004KT CLR 14/00 A3021 RMK AO2 T01410000 PWINO,M
10U,2023-08-01 08:35,-116.1876,41.9532,1637.00,55.40,33.80,43.90,80.00,5.00,0.00,30.16,M,10.00,M,CLR,M,M,M,M,M,M,M,M,M,M,M,M,M,M,55.40,K10U 010835Z AUTO 08005KT 10SM CLR 13/01 A3016 RMK AO2,M
P68,2023-08-01 08:53,-116.0056,39.6014,1993.00,70.00,45.00,40.63,120.00,8.00,0.00,30.19,1012.20,M,M,M,M,M,M,M,M,M,M,M,M,M,M,M,M,M,70.00,KP68 010853Z AUTO 12008KT 21/07 A3019 RMK AO1 SLP122 T02110072 55000,M
DRA,2023-08-01 08:53,-116.0278,36.6206,1009.00,81.00,56.00,42.34,100.00,18.00,0.00,30.05,1011.90,10.00,26.00,CLR,M,M,M,M,M,M,M,M,M,M,M,31.00,100.00,2023-08-01 08:16,80.88,KDRA 010853Z AUTO 10018G26KT 10SM CLR 27/13 A3005 RMK AO2 PK WND 10031/0816 SLP119 T02720133 51007,M
ELY,2023-08-01 08:53,-114.8453,39.2950,1909.00,65.00,48.00,54.07,210.00,10.00,0.00,30.27,1013.20,10.00,M,BKN,M,M,M,11000.00,M,M,M,M,M,M,M,M,M,M,65.00,KELY 010853Z AUTO 21010KT 10SM BKN110 18/09 A3027 RMK AO2 SLP132 T01830089 50000 $,M
VGT,2023-08-01 08:53,-115.1933,36.2111,667.00,81.00,63.00,54.36,150.00,7.00,0.00,30.06,1016.60,10.00,M,CLR,M,M,M,M,M,M,M,M,M,M,M,M,M,M,82.28,KVGT 010853Z AUTO 15007KT 10SM CLR 27/17 A3006 RMK AO2 SLP166 T02720172 50016,M
LOL,2023-08-01 08:53,-118.5701,40.0684,1192.43,66.00,31.00,26.92,110.00,7.00,0.00,30.07,1013.70,10.00,M,CLR,M,M,M,M,M,M,M,M,M,M,M,M,M,M,66.00,KLOL 010853Z AUTO 11007KT 10SM CLR 19/M01 A3007 RMK AO2 SLP137 T01891006 51006,M
BVU,2023-08-01 08:55,-114.8611,35.9475,671.00,80.60,62.60,54.30,40.00,16.00,0.00,30.04,M,10.00,21.00,FEW,FEW,BKN,M,5500.00,7000.00,11000.00,M,M,M,M,M,M,M,M,81.84,KBVU 010855Z AUTO 04016G21KT 10SM FEW055 FEW070 BKN110 27/17 A3004 RMK AO2,M
CXP,2023-08-01 08:55,-119.7326,39.1923,1431.00,69.80,30.20,22.86,330.00,7.00,0.00,30.16,M,10.00,M,CLR,M,M,M,M,M,M,M,M,M,M,M,M,M,M,69.80,KCXP 010855Z AUTO 33007KT 10SM CLR 21/M01 A3016 RMK AO2,M
RNO,2023-08-01 08:55,-119.7711,39.4839,1341.00,71.00,33.00,24.57,230.00,4.00,0.00,30.14,1014.20,10.00,M,FEW,BKN,M,M,13000.00,22000.00,M,M,M,M,M,M,M,M,M,71.00,KRNO 010855Z 23004KT 10SM FEW130 BKN220 22/01 A3014 RMK AO2 SLP142 T02170006 52003,M
RTS,2023-08-01 08:55,-119.8764,39.6682,1539.00,60.80,26.60,26.98,350.00,4.00,0.00,30.19,M,10.00,M,CLR,M,M,M,M,M,M,M,M,M,M,M,M,M,M,60.80,KRTS 010855Z AUTO 35004KT 10SM CLR 16/M03 A3019 RMK AO2,M
05U,2023-08-01 08:55,-116.0051,39.6042,1811.23,69.80,44.60,40.29,M,M,0.00,30.22,M,10.00,M,M,M,M,M,M,M,M,M,M,M,M,M,M,M,M,69.80,K05U 010855Z AUTO 10SM 21/07 A3022 RMK A01,M
MEV,2023-08-01 08:55,-119.7500,38.9963,1441.42,57.20,35.60,44.19,0.00,0.00,0.00,30.16,M,10.00,M,CLR,M,M,M,M,M,M,M,M,M,M,M,M,M,M,57.20,KMEV 010855Z AUTO 00000KT 10SM CLR 14/02 A3016 RMK AO2,M
HTH,2023-08-01 08:55,-118.6315,38.5448,1282.89,75.20,35.60,23.66,330.00,7.00,0.00,30.11,M,10.00,M,M,M,M,M,M,M,M,M,M,M,M,M,M,M,M,75.20,KHTH 010855Z AUTO 33007KT 10SM 24/02 A3011 RMK A01,M
TMT,2023-08-01 08:55,-117.1971,39.4643,1749.34,56.00,31.60,39.32,190.00,3.00,0.00,30.21,M,M,M,CLR,M,M,M,M,M,M,M,M,M,M,M,M,M,M,56.00,KTMT 010855Z AUTO 19003KT CLR 13/00 A3021 RMK AO2 T01331002 PWINO,M
LSV,2023-08-01 08:55,-115.0343,36.2362,570.00,M,M,M,M,M,0.00,M,M,10.00,M,M,M,M,M,M,M,M,M,M,M,M,M,29.00,20.00,2023-08-01 07:58,M,KLSV 010855Z AUTO M 10SM M M M RMK AO2 PK WND 02029/0758 SLPNO 6//// $,M
BAM,2023-08-01 08:55,-116.8743,40.5990,1382.36,62.60,26.60,25.32,0.00,0.00,0.00,30.11,M,10.00,M,CLR,M,M,M,M,M,M,M,M,M,M,M,M,M,M,62.60,KBAM 010855Z AUTO 00000KT 10SM CLR 17/M03 A3011 RMK AO1,M
10U,2023-08-01 08:55,-116.1876,41.9532,1637.00,55.40,33.80,43.90,0.00,0.00,0.00,30.16,M,10.00,M,CLR,M,M,M,M,M,M,M,M,M,M,M,M,M,M,55.40,K10U 010855Z AUTO 00000KT 10SM CLR 13/01 A3016 RMK AO2,M
INS,2023-08-01 08:55,-115.6733,36.5872,955.00,80.40,53.80,39.85,130.00,16.00,0.00,30.06,1012.50,10.00,22.00,OVC,M,M,M,11000.00,M,M,M,M,M,M,M,28.00,130.00,2023-08-01 08:19,80.20,KINS 010855Z AUTO 13016G22KT 10SM OVC110 27/12 A3006 RMK AO2 PK WND 13028/19 SLP125 T02690121 50013 $,M
EKO,2023-08-01 08:56,-115.7860,40.8242,1367.00,70.00,39.00,32.24,0.00,0.00,0.00,30.12,1012.90,10.00,M,CLR,M,M,M,M,M,M,M,M,M,M,M,M,M,M,70.00,KEKO 010856Z AUTO 00000KT 10SM CLR 21/04 A3012 RMK AO2 SLP129 T02110039 53003,M
WMC,2023-08-01 08:56,-117.8072,40.9019,1315.00,58.00,24.00,26.77,120.00,3.00,0.00,30.08,1013.50,10.00,M,CLR,M,M,M,M,M,M,M,M,M,M,M,M,M,M,58.00,KWMC 010856Z AUTO 12003KT 10SM CLR 14/M04 A3008 RMK AO2 SLP135 T01441044 50003,M
NFL,2023-08-01 08:56,-118.7010,39.4166,1199.00,70.00,29.00,21.62,270.00,3.00,0.00,30.09,1015.50,10.00,M,CLR,M,M,M,M,M,M,M,M,M,M,M,M,M,M,70.00,KNFL 010856Z AUTO 27003KT 10SM CLR 21/M02 A3009 RMK AO2 SLP155 T02111017 51005,M
HND,2023-08-01 08:56,-115.1344,35.9729,742.79,77.00,63.00,62.00,50.00,12.00,0.00,30.11,1018.00,10.00,16.00,CLR,M,M,M,M,M,M,M,M,M,M,M,M,M,M,77.00,KHND 010856Z 05012G16KT 10SM CLR 25/17 A3011 RMK AO2 SLP180 T02500172 51031,M
TPH,2023-08-01 08:56,-117.0904,38.0505,1654.00,71.00,45.00,39.27,160.00,6.00,0.00,30.20,1013.00,10.00,M,CLR,M,M,M,M,M,M,M,M,M,M,M,M,M,M,71.00,KTPH 010856Z AUTO 16006KT 10SM CLR 22/07 A3020 RMK AO2 SLP130 T02170072 51007,M
LAS,2023-08-01 08:56,-115.1634,36.0719,663.00,80.00,62.00,54.22,60.00,13.00,0.00,30.07,1015.30,10.00,M,FEW,SCT,BKN,M,11000.00,18000.00,22000.00,M,M,M,M,M,26.00,30.00,2023-08-01 08:03,81.21,KLAS 010856Z 06013KT 10SM FEW110 SCT180 BKN220 27/17 A3007 RMK AO2 PK WND 03026/0803 SLP153 T02670167 51022,M
LSV,2023-08-01 08:56,-115.0343,36.2362,570.00,78.80,64.40,61.36,10.00,17.00,0.00,30.01,M,10.00,21.00,FEW,M,M,M,24000.00,M,M,M,M,M,M,M,29.00,20.00,2023-08-01 07:58,78.80,KLSV 010856Z 01017G21KT 10SM FEW240 26/18 A3001 RMK A02 PK WND 02029/0758 SLPN127 WND DATA ESTMD ALSTG ESTMD 6//// 50009 RVRNO PWINO FZRANO $,M
BVU,2023-08-01 09:15,-114.8611,35.9475,671.00,78.80,62.60,57.60,30.00,14.00,0.00,30.05,M,10.00,20.00,OVC,M,M,M,11000.00,M,M,M,M,M,M,M,M,M,M,78.80,KBVU 010915Z AUTO 03014G20KT 10SM OVC110 26/17 A3005 RMK AO2,M
CXP,2023-08-01 09:15,-119.7326,39.1923,1431.00,64.40,35.60,34.22,0.00,0.00,0.00,30.17,M,10.00,M,CLR,M,M,M,M,M,M,M,M,M,M,M,M,M,M,64.40,KCXP 010915Z AUTO 00000KT 10SM CLR 18/02 A3017 RMK AO2,M
RTS,2023-08-01 09:15,-119.8764,39.6682,1539.00,59.00,26.60,28.77,360.00,6.00,0.00,30.20,M,10.00,M,CLR,M,M,M,M,M,M,M,M,M,M,M,M,M,M,59.00,KRTS 010915Z AUTO 36006KT 10SM CLR 15/M03 A3020 RMK AO2,M
05U,2023-08-01 09:15,-116.0051,39.6042,1811.23,71.60,44.60,37.89,M,M,0.00,30.22,M,10.00,M,M,M,M,M,M,M,M,M,M,M,M,M,M,M,M,71.60,K05U 010915Z AUTO 10SM 22/07 A3022 RMK A01,M
MEV,2023-08-01 09:15,-119.7500,38.9963,1441.42,55.40,35.60,47.16,160.00,5.00,0.00,30.15,M,10.00,M,CLR,M,M,M,M,M,M,M,M,M,M,M,M,M,M,55.40,KMEV 010915Z AUTO 16005KT 10SM CLR 13/02 A3015 RMK AO2,M
BAM,2023-08-01 09:15,-116.8743,40.5990,1382.36,60.80,26.60,26.98,0.00,0.00,0.00,30.10,M,10.00,M,CLR,M,M,M,M,M,M,M,M,M,M,M,M,M,M,60.80,KBAM 010915Z AUTO 00000KT 10SM CLR 16/M03 A3010 RMK AO1,M
HTH,2023-08-01 09:15,-118.6315,38.5448,1282.89,73.40,39.20,28.96,280.00,4.00,0.00,30.11,M,10.00,M,M,M,M,M,M,M,M,M,M,M,M,M,M,M,M,73.40,KHTH 010915Z AUTO 28004KT 10SM 23/04 A3011 RMK A01,M
TMT,2023-08-01 09:15,-117.1971,39.4643,1749.34,53.40,32.40,44.64,200.00,6.00,0.00,30.21,M,M,M,CLR,M,M,M,M,M,M,M,M,M,M,M,M,M,M,53.40,KTMT 010915Z AUTO 20006KT CLR 12/00 A3021 RMK AO2 T01190002 PWINO,M
10U,2023-08-01 09:15,-116.1876,41.9532,1637.00,53.60,32.00,43.61,0.00,0.00,0.00,30.16,M,10.00,M,CLR,M,M,M,M,M,M,M,M,M,M,M,M,M,M,53.60,K10U 010915Z AUTO 00000KT 10SM CLR 12/00 A3016 RMK AO2,M
HTH,2023-08-01 09:30,-118.6315,38.5448,1282.89,71.60,33.80,24.86,230.00,3.00,0.00,30.12,M,10.00,M,CLR,M,M,M,M,M,M,M,M,M,M,M,M,M,M,71.60,KHTH 010930Z AUTO 23003KT 10SM CLR 22/01 A3012 RMK A01,M
BAM,2023-08-01 09:35,-116.8743,40.5990,1382.36,60.80,26.60,26.98,240.00,5.00,0.00,30.10,M,10.00,M,CLR,M,M,M,M,M,M,M,M,M,M,M,M,M,M,60.80,KBAM 010935Z AUTO 24005KT 10SM CLR 16/M03 A3010 RMK AO1,M
BVU,2023-08-01 09:35,-114.8611,35.9475,671.00,78.80,62.60,57.60,30.00,13.00,0.00,30.05,M,10.00,M,BKN,M,M,M,11000.00,M,M,M,M,M,M,M,M,M,M,78.80,KBVU 010935Z AUTO 03013KT 10SM BKN110 26/17 A3005 RMK AO2,M
CXP,2023-08-01 09:35,-119.7326,39.1923,1431.00,64.40,35.60,34.22,0.00,0.00,0.00,30.16,M,10.00,M,CLR,M,M,M,M,M,M,M,M,M,M,M,M,M,M,64.40,KCXP 010935Z AUTO 00000KT 10SM CLR 18/02 A3016 RMK AO2,M
RTS,2023-08-01 09:35,-119.8764,39.6682,1539.00,59.00,24.80,26.70,10.00,4.00,0.00,30.19,M,10.00,M,CLR,M,M,M,M,M,M,M,M,M,M,M,M,M,M,59.00,KRTS 010935Z AUTO 01004KT 10SM CLR 15/M04 A3019 RMK AO2,M
05U,2023-08-01 09:35,-116.0051,39.6042,1811.23,69.80,46.40,43.13,M,M,0.00,30.21,M,10.00,M,M,M,M,M,M,M,M,M,M,M,M,M,M,M,M,69.80,K05U 010935Z AUTO 10SM 21/08 A3021 RMK A01,M
MEV,2023-08-01 09:35,-119.7500,38.9963,1441.42,55.40,35.60,47.16,150.00,3.00,0.00,30.15,M,10.00,M,FEW,M,M,M,4200.00,M,M,M,M,M,M,M,M,M,M,55.40,KMEV 010935Z AUTO 15003KT 10SM FEW042 13/02 A3015 RMK AO2,M
TMT,2023-08-01 09:35,-117.1971,39.4643,1749.34,53.40,34.00,47.60,200.00,3.00,0.00,30.21,M,M,M,CLR,M,M,M,M,M,M,M,M,M,M,M,M,M,M,53.40,KTMT 010935Z AUTO 20003KT CLR 12/01 A3021 RMK AO2 T01190011 PWINO,M
10U,2023-08-01 09:35,-116.1876,41.9532,1637.00,57.20,32.00,38.26,90.00,5.00,0.00,30.17,M,10.00,M,CLR,M,M,M,M,M,M,M,M,M,M,M,M,M,M,57.20,K10U 010935Z AUTO 09005KT 10SM CLR 14/00 A3017 RMK AO2,M
05U,2023-08-01 09:50,-116.0051,39.6042,1811.23,68.00,44.60,42.85,M,M,0.00,30.21,M,10.00,M,M,M,M,M,M,M,M,M,M,M,M,M,M,M,M,68.00,K05U 010950Z AUTO 10SM 20/07 A3021 RMK A01,M
P68,2023-08-01 09:53,-116.0056,39.6014,1993.00,70.00,44.00,39.11,160.00,7.00,0.00,30.19,1011.90,M,M,M,M,M,M,M,M,M,M,M,M,M,M,M,M,M,70.00,KP68 010953Z AUTO 16007KT 21/07 A3019 RMK AO1 SLP119 T02110067,M
DRA,2023-08-01 09:53,-116.0278,36.6206,1009.00,81.00,55.00,40.83,110.00,12.00,0.00,30.05,1012.30,10.00,21.00,CLR,M,M,M,M,M,M,M,M,M,M,M,M,M,M,80.73,KDRA 010953Z AUTO 11012G21KT 10SM CLR 27/13 A3005 RMK AO2 SLP123 T02720128,M
ELY,2023-08-01 09:53,-114.8453,39.2950,1909.00,65.00,48.00,54.07,210.00,9.00,0.00,30.27,1013.00,10.00,M,SCT,M,M,M,10000.00,M,M,M,M,M,M,M,M,M,M,65.00,KELY 010953Z AUTO 21009KT 10SM SCT100 18/09 A3027 RMK AO2 SLP130 T01830089 $,M
VGT,2023-08-01 09:53,-115.1933,36.2111,667.00,80.00,63.00,56.16,180.00,8.00,0.00,30.06,1016.60,10.00,M,CLR,M,M,M,M,M,M,M,M,M,M,M,M,M,M,81.41,KVGT 010953Z AUTO 18008KT 10SM CLR 27/17 A3006 RMK AO2 SLP166 T02670172,M
LOL,2023-08-01 09:53,-118.5701,40.0684,1192.43,66.00,30.00,25.85,0.00,0.00,0.00,30.08,1013.80,10.00,M,CLR,M,M,M,M,M,M,M,M,M,M,M,M,M,M,66.00,KLOL 010953Z AUTO 00000KT 10SM CLR 19/M01 A3008 RMK AO2 SLP138 T01891011,M
BVU,2023-08-01 09:55,-114.8611,35.9475,671.00,78.80,62.60,57.60,10.00,10.00,0.00,30.05,M,10.00,15.00,SCT,M,M,M,10000.00,M,M,M,M,M,M,M,M,M,M,78.80,KBVU 010955Z AUTO 01010G15KT 10SM SCT100 26/17 A3005 RMK AO2,M
CXP,2023-08-01 09:55,-119.7326,39.1923,1431.00,64.40,35.60,34.22,0.00,0.00,0.00,30.16,M,10.00,M,CLR,M,M,M,M,M,M,M,M,M,M,M,M,M,M,64.40,KCXP 010955Z AUTO 00000KT 10SM CLR 18/02 A3016 RMK AO2,M
RNO,2023-08-01 09:55,-119.7711,39.4839,1341.00,68.00,35.00,29.49,0.00,0.00,0.00,30.14,1014.30,10.00,M,CLR,M,M,M,M,M,M,M,M,M,M,M,M,M,M,68.00,KRNO 010955Z 00000KT 10SM CLR 20/02 A3014 RMK AO2 SLP143 T02000017,M
RTS,2023-08-01 09:55,-119.8764,39.6682,1539.00,59.00,24.80,26.70,340.00,4.00,0.00,30.19,M,10.00,M,CLR,M,M,M,M,M,M,M,M,M,M,M,M,M,M,59.00,KRTS 010955Z AUTO 34004KT 10SM CLR 15/M04 A3019 RMK AO2,M
MEV,2023-08-01 09:55,-119.7500,38.9963,1441.42,53.60,35.60,50.36,120.00,5.00,0.00,30.15,M,10.00,M,CLR,M,M,M,M,M,M,M,M,M,M,M,M,M,M,53.60,KMEV 010955Z AUTO 12005KT 10SM CLR 12/02 A3015 RMK AO2,M
BAM,2023-08-01 09:55,-116.8743,40.5990,1382.36,60.80,26.60,26.98,210.00,4.00,0.00,30.10,M,10.00,M,CLR,M,M,M,M,M,M,M,M,M,M,M,M,M,M,60.80,KBAM 010955Z AUTO 21004KT 10SM CLR 16/M03 A3010 RMK AO1,M
HTH,2023-08-01 09:55,-118.6315,38.5448,1282.89,73.40,35.60,25.13,M,3.00,0.00,30.12,M,10.00,M,CLR,M,M,M,M,M,M,M,M,M,M,M,M,M,M,73.40,KHTH 010955Z AUTO VRB03KT 10SM CLR 23/02 A3012 RMK A01,M
TMT,2023-08-01 09:55,-117.1971,39.4643,1749.34,52.30,35.40,52.41,0.00,0.00,0.00,30.21,M,M,M,CLR,M,M,M,M,M,M,M,M,M,M,M,M,M,M,52.30,KTMT 010955Z AUTO 00000KT CLR 11/02 A3021 RMK AO2 T01130019 PWINO,M
10U,2023-08-01 09:55,-116.1876,41.9532,1637.00,53.60,32.00,43.61,360.00,5.00,0.00,30.17,M,10.00,M,CLR,M,M,M,M,M,M,M,M,M,M,M,M,M,M,53.60,K10U 010955Z AUTO 36005KT 10SM CLR 12/M00 A3017 RMK AO2,M
INS,2023-08-01 09:55,-115.6733,36.5872,955.00,80.40,53.20,38.99,120.00,15.00,0.00,30.06,1012.80,10.00,M,CLR,M,M,M,M,M,M,M,M,M,M,M,26.00,90.00,2023-08-01 09:03,80.12,KINS 010955Z AUTO 12015KT 10SM CLR 27/12 A3006 RMK AO2 PK WND 09026/03 SLP128 T02690118 $,M
LSV,2023-08-01 09:55,-115.0343,36.2362,570.00,78.60,64.00,60.91,40.00,12.00,0.00,30.01,1013.30,10.00,M,FEW,M,M,M,24000.00,M,M,M,M,M,M,M,M,M,M,78.60,KLSV 010955Z COR AUTO 04012KT 10SM FEW240 26/18 A3001 RMK AO2 SLP133 T02590178 $ COR 1015,M
EKO,2023-08-01 09:56,-115.7860,40.8242,1367.00,72.00,44.00,36.54,0.00,0.00,0.00,30.12,1012.80,10.00,M,CLR,M,M,M,M,M,M,M,M,M,M,M,M,M,M,72.00,KEKO 010956Z AUTO 00000KT 10SM CLR 22/07 A3012 RMK AO2 SLP128 T02220067,M
WMC,2023-08-01 09:56,-117.8072,40.9019,1315.00,55.00,26.00,32.42,150.00,4.00,0.00,30.09,1013.80,10.00,M,CLR,M,M,M,M,M,M,M,M,M,M,M,M,M,M,55.00,KWMC 010956Z AUTO 15004KT 10SM CLR 13/M03 A3009 RMK AO2 SLP138 T01281033,M
NFL,2023-08-01 09:56,-118.7010,39.4166,1199.00,68.00,30.00,24.12,0.00,0.00,0.00,30.09,1015.60,10.00,M,CLR,M,M,M,M,M,M,M,M,M,M,M,M,M,M,68.00,KNFL 010956Z AUTO 00000KT 10SM CLR 20/M01 A3009 RMK AO2 SLP156 T02001011,M
HND,2023-08-01 09:56,-115.1344,35.9729,742.79,76.00,63.00,64.09,40.00,4.00,0.00,30.11,1018.20,10.00,M,CLR,M,M,M,M,M,M,M,M,M,M,M,M,M,M,76.00,KHND 010956Z 04004KT 10SM CLR 24/17 A3011 RMK AO2 SLP182 T02440172,M
TPH,2023-08-01 09:56,-117.0904,38.0505,1654.00,70.00,44.00,39.11,220.00,3.00,0.00,30.20,1012.90,10.00,M,CLR,M,M,M,M,M,M,M,M,M,M,M,M,M,M,70.00,KTPH 010956Z AUTO 22003KT 10SM CLR 21/07 A3020 RMK AO2 SLP129 T02110067,M
LAS,2023-08-01 09:56,-115.1634,36.0719,663.00,78.00,63.00,59.98,140.00,4.00,0.00,30.06,1015.10,10.00,M,FEW,SCT,OVC,M,5000.00,15000.00,24000.00,M,M,M,M,M,M,M,M,78.00,KLAS 010956Z 14004KT 10SM FEW050 SCT150 OVC240 26/17 A3006 RMK AO2 SLP151 T02560172,M
BVU,2023-08-01 10:15,-114.8611,35.9475,671.00,78.80,60.80,54.05,30.00,14.00,0.00,30.04,M,10.00,M,FEW,M,M,M,10000.00,M,M,M,M,M,M,M,M,M,M,78.80,KBVU 011015Z AUTO 03014KT 10SM FEW100 26/16 A3004 RMK AO2,M
CXP,2023-08-01 10:15,-119.7326,39.1923,1431.00,62.60,35.60,36.45,0.00,0.00,0.00,30.16,M,10.00,M,CLR,M,M,M,M,M,M,M,M,M,M,M,M,M,M,62.60,KCXP 011015Z AUTO 00000KT 10SM CLR 17/02 A3016 RMK AO2,M
RTS,2023-08-01 10:15,-119.8764,39.6682,1539.00,57.20,24.80,28.48,350.00,6.00,0.00,30.19,M,10.00,M,CLR,M,M,M,M,M,M,M,M,M,M,M,M,M,M,57.20,KRTS 011015Z AUTO 35006KT 10SM CLR 14/M04 A3019 RMK AO2,M
05U,2023-08-01 10:15,-116.0051,39.6042,1811.23,68.00,44.60,42.85,M,M,0.00,30.21,M,10.00,M,M,M,M,M,M,M,M,M,M,M,M,M,M,M,M,68.00,K05U 011015Z AUTO 10SM 20/07 A3021 RMK A01,M
MEV,2023-08-01 10:15,-119.7500,38.9963,1441.42,53.60,33.80,46.88,110.00,5.00,0.00,30.15,M,10.00,M,CLR,M,M,M,M,M,M,M,M,M,M,M,M,M,M,53.60,KMEV 011015Z AUTO 11005KT 10SM CLR 12/01 A3015 RMK AO2,M
BAM,2023-08-01 10:15,-116.8743,40.5990,1382.36,62.60,24.80,23.50,160.00,5.00,0.00,30.11,M,10.00,M,CLR,M,M,M,M,M,M,M,M,M,M,M,M,M,M,62.60,KBAM 011015Z AUTO 16005KT 10SM CLR 17/M04 A3011 RMK AO1,M
HTH,2023-08-01 10:15,-118.6315,38.5448,1282.89,73.40,35.60,25.13,290.00,4.00,0.00,30.12,M,10.00,M,CLR,M,M,M,M,M,M,M,M,M,M,M,M,M,M,73.40,KHTH 011015Z AUTO 29004KT 10SM CLR 23/02 A3012 RMK A01,M
TMT,2023-08-01 10:15,-117.1971,39.4643,1749.34,52.00,36.50,55.35,220.00,4.00,0.00,30.21,M,M,M,CLR,M,M,M,M,M,M,M,M,M,M,M,M,M,M,52.00,KTMT 011015Z AUTO 22004KT CLR 11/03 A3021 RMK AO2 T01110025 PWINO,M
10U,2023-08-01 10:15,-116.1876,41.9532,1637.00,53.60,33.80,46.88,120.00,4.00,0.00,30.17,M,10.00,M,CLR,M,M,M,M,M,M,M,M,M,M,M,M,M,M,53.60,K10U 011015Z AUTO 12004KT 10SM CLR 12/01 A3017 RMK AO2,M
BVU,2023-08-01 10:35,-114.8611,35.9475,671.00,78.80,60.80,54.05,30.00,10.00,0.00,30.04,M,10.00,M,SCT,M,M,M,12000.00,M,M,M,M,M,M,M,M,M,M,78.80,KBVU 011035Z AUTO 03010KT 10SM SCT120 26/16 A3004 RMK AO2,M
CXP,2023-08-01 10:35,-119.7326,39.1923,1431.00,60.80,37.40,41.71,100.00,4.00,0.00,30.17,M,10.00,M,CLR,M,M,M,M,M,M,M,M,M,M,M,M,M,M,60.80,KCXP 011035Z AUTO 10004KT 10SM CLR 16/03 A3017 RMK AO2,M
RTS,2023-08-01 10:35,-119.8764,39.6682,1539.00,57.20,24.80,28.48,0.00,0.00,0.00,30.19,M,10.00,M,CLR,M,M,M,M,M,M,M,M,M,M,M,M,M,M,57.20,KRTS 011035Z AUTO 00000KT 10SM CLR 14/M04 A3019 RMK AO2,M
05U,2023-08-01 10:35,-116.0051,39.6042,1811.23,66.20,44.60,45.60,M,M,0.00,30.21,M,10.00,M,M,M,M,M,M,M,M,M,M,M,M,M,M,M,M,66.20,K05U 011035Z AUTO 10SM 19/07 A3021 RMK A01,M
MEV,2023-08-01 10:35,-119.7500,38.9963,1441.42,51.80,33.80,50.08,0.00,0.00,0.00,30.15,M,10.00,M,CLR,M,M,M,M,M,M,M,M,M,M,M,M,M,M,51.80,KMEV 011035Z AUTO 00000KT 10SM CLR 11/01 A3015 RMK AO2,M
HTH,2023-08-01 10:35,-118.6315,38.5448,1282.89,73.40,33.80,23.39,0.00,0.00,0.00,30.12,M,10.00,M,CLR,M,M,M,M,M,M,M,M,M,M,M,M,M,M,73.40,KHTH 011035Z AUTO 00000KT 10SM CLR 23/01 A3012 RMK A01,M
TMT,2023-08-01 10:35,-117.1971,39.4643,1749.34,50.70,36.00,56.94,230.00,4.00,0.00,30.21,M,M,M,CLR,M,M,M,M,M,M,M,M,M,M,M,M,M,M,50.70,KTMT 011035Z AUTO 23004KT CLR 10/02 A3021 RMK AO2 T01040022 PWINO,M
10U,2023-08-01 10:35,-116.1876,41.9532,1637.00,60.80,32.00,33.64,110.00,4.00,0.00,30.16,M,10.00,M,CLR,M,M,M,M,M,M,M,M,M,M,M,M,M,M,60.80,K10U 011035Z AUTO 11004KT 10SM CLR 16/00 A3016 RMK AO2,M
BAM,2023-08-01 10:35,-116.8743,40.5990,1382.36,59.00,24.80,26.70,0.00,0.00,0.00,30.10,M,10.00,M,CLR,M,M,M,M,M,M,M,M,M,M,M,M,M,M,59.00,KBAM 011035Z AUTO 00000KT 10SM CLR 15/M04 A3010 RMK AO1,M
HTH,2023-08-01 10:50,-118.6315,38.5448,1282.89,73.40,32.00,21.76,0.00,0.00,0.00,30.12,M,10.00,M,CLR,M,M,M,M,M,M,M,M,M,M,M,M,M,M,73.40,KHTH 011050Z AUTO 00000KT 10SM CLR 23/00 A3012 RMK A01,M
LOL,2023-08-01 10:53,-118.5701,40.0684,1192.43,62.00,29.00,28.54,0.00,0.00,0.00,30.07,1013.80,10.00,M,CLR,M,M,M,M,M,M,M,M,M,M,M,M,M,M,62.00,KLOL 011053Z AUTO 00000KT 10SM CLR 17/M02 A3007 RMK AO2 SLP138 T01671017,M
P68,2023-08-01 10:53,-116.0056,39.6014,1993.00,67.00,45.00,45.04,160.00,7.00,0.00,30.19,1012.30,M,M,M,M,M,M,M,M,M,M,M,M,M,M,M,M,M,67.00,KP68 011053Z AUTO 16007KT 19/07 A3019 RMK AO1 SLP123 T01940072,M
DRA,2023-08-01 10:53,-116.0278,36.6206,1009.00,81.00,55.00,40.83,100.00,12.00,0.00,30.06,1012.50,10.00,20.00,SCT,M,M,M,11000.00,M,M,M,M,M,M,M,M,M,M,80.73,KDRA 011053Z AUTO 10012G20KT 10SM SCT110 27/13 A3006 RMK AO2 SLP125 T02720128,M
ELY,2023-08-01 10:53,-114.8453,39.2950,1909.00,64.00,49.00,58.13,210.00,9.00,0.00,30.26,1013.20,10.00,M,SCT,OVC,M,M,8000.00,9500.00,M,M,M,M,M,M,M,M,M,64.00,KELY 011053Z AUTO 21009KT 10SM SCT080 OVC095 18/09 A3026 RMK AO2 SLP132 T01780094 $,M
VGT,2023-08-01 10:53,-115.1933,36.2111,667.00,81.00,62.00,52.48,220.00,6.00,0.00,30.05,1016.30,10.00,M,CLR,M,M,M,M,M,M,M,M,M,M,M,M,M,M,82.04,KVGT 011053Z AUTO 22006KT 10SM CLR 27/17 A3005 RMK AO2 SLP163 T02720167,M
RNO,2023-08-01 10:55,-119.7711,39.4839,1341.00,67.00,35.00,30.53,0.00,0.00,0.00,30.14,1014.40,10.00,M,CLR,M,M,M,M,M,M,M,M,M,M,M,M,M,M,67.00,KRNO 011055Z 00000KT 10SM CLR 19/02 A3014 RMK AO2 SLP144 T01940017,M
BVU,2023-08-01 10:55,-114.8611,35.9475,671.00,78.80,59.00,50.69,30.00,9.00,0.00,30.04,M,10.00,M,BKN,M,M,M,12000.00,M,M,M,M,M,M,M,M,M,M,78.80,KBVU 011055Z AUTO 03009KT 10SM BKN120 26/15 A3004 RMK AO2,M
CXP,2023-08-01 10:55,-119.7326,39.1923,1431.00,60.80,37.40,41.71,0.00,0.00,0.00,30.17,M,10.00,M,CLR,M,M,M,M,M,M,M,M,M,M,M,M,M,M,60.80,KCXP 011055Z AUTO 00000KT 10SM CLR 16/03 A3017 RMK AO2,M
INS,2023-08-01 10:55,-115.6733,36.5872,955.00,79.70,54.00,41.08,110.00,14.00,0.00,30.07,1012.90,10.00,M,SCT,BKN,M,M,12000.00,15000.00,M,M,M,M,M,M,M,M,M,79.70,KINS 011055Z AUTO 11014KT 10SM SCT120 BKN150 27/12 A3007 RMK AO2 SLP129 T02650122 $,M
RTS,2023-08-01 10:55,-119.8764,39.6682,1539.00,57.20,24.80,28.48,350.00,5.00,0.00,30.19,M,10.00,M,CLR,M,M,M,M,M,M,M,M,M,M,M,M,M,M,57.20,KRTS 011055Z AUTO 35005KT 10SM CLR 14/M04 A3019 RMK AO2,M
05U,2023-08-01 10:55,-116.0051,39.6042,1811.23,68.00,44.60,42.85,M,M,0.00,30.21,M,10.00,M,M,M,M,M,M,M,M,M,M,M,M,M,M,M,M,68.00,K05U 011055Z AUTO 10SM 20/07 A3021 RMK A01,M
MEV,2023-08-01 10:55,-119.7500,38.9963,1441.42,55.40,33.80,43.90,0.00,0.00,0.00,30.16,M,10.00,M,FEW,M,M,M,4100.00,M,M,M,M,M,M,M,M,M,M,55.40,KMEV 011055Z AUTO 00000KT 10SM FEW041 13/01 A3016 RMK AO2,M
BAM,2023-08-01 10:55,-116.8743,40.5990,1382.36,57.20,23.00,26.42,0.00,0.00,0.00,30.10,M,10.00,M,CLR,M,M,M,M,M,M,M,M,M,M,M,M,M,M,57.20,KBAM 011055Z AUTO 00000KT 10SM CLR 14/M05 A3010 RMK AO1,M
TMT,2023-08-01 10:55,-117.1971,39.4643,1749.34,49.30,33.60,54.51,0.00,0.00,0.00,30.21,M,M,M,CLR,M,M,M,M,M,M,M,M,M,M,M,M,M,M,49.30,KTMT 011055Z AUTO 00000KT CLR 10/01 A3021 RMK AO2 T00960009 PWINO,M
10U,2023-08-01 10:55,-116.1876,41.9532,1637.00,60.80,32.00,33.64,110.00,7.00,0.00,30.16,M,10.00,M,CLR,M,M,M,M,M,M,M,M,M,M,M,M,M,M,60.80,K10U 011055Z AUTO 11007KT 10SM CLR 16/00 A3016 RMK AO2,M
LSV,2023-08-01 10:55,-115.0343,36.2362,570.00,78.80,62.80,58.01,50.00,8.00,0.00,30.00,1013.10,10.00,M,FEW,M,M,M,24000.00,M,M,M,M,M,M,M,M,M,M,78.80,KLSV 011055Z COR AUTO 05008KT 10SM FEW240 26/17 A3000 RMK AO2 SLP131 T02600171 $ COR 1113,M
TPH,2023-08-01 10:56,-117.0904,38.0505,1654.00,69.00,44.00,40.47,190.00,5.00,0.00,30.20,1013.20,10.00,M,CLR,M,M,M,M,M,M,M,M,M,M,M,M,M,M,69.00,KTPH 011056Z AUTO 19005KT 10SM CLR 21/07 A3020 RMK AO2 SLP132 T02060067,M
WMC,2023-08-01 10:56,-117.8072,40.9019,1315.00,54.00,24.00,30.94,170.00,4.00,0.00,30.10,1014.10,10.00,M,CLR,M,M,M,M,M,M,M,M,M,M,M,M,M,M,54.00,KWMC 011056Z AUTO 17004KT 10SM CLR 12/M04 A3010 RMK AO2 SLP141 T01221044,M
NFL,2023-08-01 10:56,-118.7010,39.4166,1199.00,64.00,34.00,32.56,M,M,0.00,30.08,1015.50,10.00,M,CLR,M,M,M,M,M,M,M,M,M,M,M,M,M,M,64.00,KNFL 011056Z AUTO 10SM CLR 18/01 A3008 RMK AO2 SLP155 T01780011 $,M
EKO,2023-08-01 10:56,-115.7860,40.8242,1367.00,71.00,43.00,36.38,60.00,8.00,0.00,30.13,1013.20,10.00,M,CLR,M,M,M,M,M,M,M,M,M,M,M,M,M,M,71.00,KEKO 011056Z AUTO 06008KT 10SM CLR 22/06 A3013 RMK AO2 SLP132 T02170061,M
HND,2023-08-01 10:56,-115.1344,35.9729,742.79,76.00,63.00,64.09,0.00,0.00,0.00,30.10,1017.80,10.00,M,CLR,M,M,M,M,M,M,M,M,M,M,M,M,M,M,76.00,KHND 011056Z 00000KT 10SM CLR 24/17 A3010 RMK AO2 SLP178 T02440172,M
LAS,2023-08-01 10:56,-115.1634,36.0719,663.00,78.00,63.00,59.98,170.00,4.00,0.00,30.05,1014.80,10.00,M,FEW,BKN,M,M,15000.00,22000.00,M,M,M,M,M,M,M,M,M,78.00,KLAS 011056Z 17004KT 10SM FEW150 BKN220 26/17 A3005 RMK AO2 SLP148 T02560172,M
BVU,2023-08-01 11:15,-114.8611,35.9475,671.00,78.80,59.00,50.69,30.00,7.00,0.00,30.04,M,10.00,M,BKN,M,M,M,12000.00,M,M,M,M,M,M,M,M,M,M,78.80,KBVU 011115Z AUTO 03007KT 10SM BKN120 26/15 A3004 RMK AO2,M
CXP,2023-08-01 11:15,-119.7326,39.1923,1431.00,60.80,35.60,38.85,0.00,0.00,0.00,30.17,M,10.00,M,CLR,M,M,M,M,M,M,M,M,M,M,M,M,M,M,60.80,KCXP 011115Z AUTO 00000KT 10SM CLR 16/02 A3017 RMK AO2,M
RTS,2023-08-01 11:15,-119.8764,39.6682,1539.00,59.00,26.60,28.77,0.00,0.00,0.00,30.19,M,10.00,M,CLR,M,M,M,M,M,M,M,M,M,M,M,M,M,M,59.00,KRTS 011115Z AUTO 00000KT 10SM CLR 15/M03 A3019 RMK AO2,M
05U,2023-08-01 11:15,-116.0051,39.6042,1811.23,69.80,44.60,40.29,M,M,0.00,30.22,M,10.00,M,M,M,M,M,M,M,M,M,M,M,M,M,M,M,M,69.80,K05U 011115Z AUTO 10SM 21/07 A3022 RMK A01,M
MEV,2023-08-01 11:15,-119.7500,38.9963,1441.42,53.60,39.20,58.02,0.00,0.00,0.00,30.16,M,10.00,M,FEW,M,M,M,3900.00,M,M,M,M,M,M,M,M,M,M,53.60,KMEV 011115Z AUTO 00000KT 10SM FEW039 12/04 A3016 RMK AO2,M
BAM,2023-08-01 11:15,-116.8743,40.5990,1382.36,55.40,24.80,30.40,220.00,4.00,0.00,30.11,M,10.00,M,CLR,M,M,M,M,M,M,M,M,M,M,M,M,M,M,55.40,KBAM 011115Z AUTO 22004KT 10SM CLR 13/M04 A3011 RMK AO1,M
HTH,2023-08-01 11:15,-118.6315,38.5448,1282.89,68.00,33.80,28.11,160.00,3.00,0.00,30.12,M,10.00,M,CLR,M,M,M,M,M,M,M,M,M,M,M,M,M,M,68.00,KHTH 011115Z AUTO 16003KT 10SM CLR 20/01 A3012 RMK A01,M
TMT,2023-08-01 11:15,-117.1971,39.4643,1749.34,47.00,32.50,56.86,0.00,0.00,0.00,30.21,M,M,M,CLR,M,M,M,M,M,M,M,M,M,M,M,M,M,M,47.00,KTMT 011115Z AUTO 00000KT CLR 08/00 A3021 RMK AO2 T00830003 PWINO,M
10U,2023-08-01 11:15,-116.1876,41.9532,1637.00,57.20,32.00,38.26,90.00,6.00,0.00,30.16,M,10.00,M,CLR,M,M,M,M,M,M,M,M,M,M,M,M,M,M,57.20,K10U 011115Z AUTO 09006KT 10SM CLR 14/00 A3016 RMK AO2,M
BVU,2023-08-01 11:35,-114.8611,35.9475,671.00,78.80,59.00,50.69,30.00,6.00,0.00,30.03,M,10.00,M,FEW,M,M,M,12000.00,M,M,M,M,M,M,M,M,M,M,78.80,KBVU 011135Z AUTO 03006KT 10SM FEW120 26/15 A3003 RMK AO2,M
CXP,2023-08-01 11:35,-119.7326,39.1923,1431.00,60.80,35.60,38.85,0.00,0.00,0.00,30.17,M,10.00,M,CLR,M,M,M,M,M,M,M,M,M,M,M,M,M,M,60.80,KCXP 011135Z AUTO 00000KT 10SM CLR 16/02 A3017 RMK AO2,M
RTS,2023-08-01 11:35,-119.8764,39.6682,1539.00,55.40,26.60,32.76,330.00,5.00,0.00,30.19,M,10.00,M,CLR,M,M,M,M,M,M,M,M,M,M,M,M,M,M,55.40,KRTS 011135Z AUTO 33005KT 10SM CLR 13/M03 A3019 RMK AO2,M
05U,2023-08-01 11:35,-116.0051,39.6042,1811.23,68.00,44.60,42.85,M,M,0.00,30.22,M,10.00,M,M,M,M,M,M,M,M,M,M,M,M,M,M,M,M,68.00,K05U 011135Z AUTO 10SM 20/07 A3022 RMK A01,M
MEV,2023-08-01 11:35,-119.7500,38.9963,1441.42,51.80,37.40,57.77,0.00,0.00,0.00,30.17,M,10.00,M,FEW,M,M,M,4000.00,M,M,M,M,M,M,M,M,M,M,51.80,KMEV 011135Z AUTO 00000KT 10SM FEW040 11/03 A3017 RMK AO2,M
BAM,2023-08-01 11:35,-116.8743,40.5990,1382.36,55.40,23.00,28.20,220.00,3.00,0.00,30.11,M,10.00,M,CLR,M,M,M,M,M,M,M,M,M,M,M,M,M,M,55.40,KBAM 011135Z AUTO 22003KT 10SM CLR 13/M05 A3011 RMK AO1,M
HTH,2023-08-01 11:35,-118.6315,38.5448,1282.89,69.80,33.80,26.43,210.00,4.00,0.00,30.12,M,10.00,M,CLR,M,M,M,M,M,M,M,M,M,M,M,M,M,M,69.80,KHTH 011135Z AUTO 21004KT 10SM CLR 21/01 A3012 RMK A01,M
TMT,2023-08-01 11:35,-117.1971,39.4643,1749.34,50.00,33.30,52.48,0.00,0.00,0.00,30.21,M,M,M,CLR,M,M,M,M,M,M,M,M,M,M,M,M,M,M,50.00,KTMT 011135Z AUTO 00000KT CLR 10/01 A3021 RMK AO2 T01010007 PWINO,M
P68,2023-08-01 11:53,-116.0056,39.6014,1993.00,65.00,44.00,46.47,160.00,5.00,0.00,30.20,1013.20,M,M,M,M,M,M,M,M,M,M,M,M,M,M,M,M,M,65.00,KP68 011153Z AUTO 16005KT 18/07 A3020 RMK AO1 SLP132 T01830067 10239 20183 53001,M
DRA,2023-08-01 11:53,-116.0278,36.6206,1009.00,80.00,55.00,42.19,110.00,7.00,0.00,30.07,1012.60,10.00,M,SCT,M,M,M,11000.00,M,M,M,M,M,M,M,M,M,M,80.11,KDRA 011153Z AUTO 11007KT 10SM SCT110 27/13 A3007 RMK AO2 SLP126 T02670128 10300 20267 53006,M
ELY,2023-08-01 11:53,-114.8453,39.2950,1909.00,63.00,49.00,60.20,220.00,7.00,0.00,30.26,1013.50,10.00,M,CLR,M,M,M,M,M,M,M,M,M,M,M,M,M,M,63.00,KELY 011153Z AUTO 22007KT 10SM CLR 17/09 A3026 RMK AO2 SLP135 T01720094 10194 20167 55001 $,M
VGT,2023-08-01 11:53,-115.1933,36.2111,667.00,81.00,61.00,50.65,180.00,5.00,0.00,30.04,1016.00,10.00,M,CLR,M,M,M,M,M,M,M,M,M,M,M,M,M,M,81.81,KVGT 011153Z AUTO 18005KT 10SM CLR 27/16 A3004 RMK AO2 SLP160 T02720161 10322 20256 58006,M
LOL,2023-08-01 11:53,-118.5701,40.0684,1192.43,58.00,28.00,31.59,0.00,0.00,0.00,30.08,1014.40,10.00,M,CLR,M,M,M,M,M,M,M,M,M,M,M,M,M,M,58.00,KLOL 011153Z AUTO 00000KT 10SM CLR 14/M02 A3008 RMK AO2 SLP144 T01441022 10278 20133 53001,M
BVU,2023-08-01 11:55,-114.8611,35.9475,671.00,78.80,59.00,50.69,180.00,6.00,0.00,30.04,M,10.00,M,CLR,M,M,M,M,M,M,M,M,M,M,M,M,M,M,78.80,KBVU 011155Z AUTO 18006KT 10SM CLR 26/15 A3004 RMK AO2,M
CXP,2023-08-01 11:55,-119.7326,39.1923,1431.00,57.20,37.40,47.44,0.00,0.00,0.00,30.18,M,10.00,M,CLR,M,M,M,M,M,M,M,M,M,M,M,M,M,M,57.20,KCXP 011155Z AUTO 00000KT 10SM CLR 14/03 A3018 RMK AO2,M
INS,2023-08-01 11:55,-115.6733,36.5872,955.00,78.00,55.40,45.71,110.00,14.00,0.00,30.06,1012.70,10.00,M,SCT,M,M,M,16000.00,M,M,M,M,M,M,M,M,M,M,78.00,KINS 011155Z AUTO 11014KT 10SM SCT160 26/13 A3006 RMK AO2 SLP127 T02550130 10300 20255 55001 $,M
LSV,2023-08-01 11:55,-115.0343,36.2362,570.00,78.80,62.60,57.60,170.00,3.00,0.00,30.05,M,10.00,M,M,M,M,M,M,M,M,M,M,M,M,M,M,M,M,78.80,KLSV 011155Z COR 17003KT 10SM BNK120 26/17 A3005 RMK AO2 SLPN125 WND DATA ESTMD 6//// 7//// 10308 20257 RVRNO $ COR 1156,M
RTS,2023-08-01 11:55,-119.8764,39.6682,1539.00,53.60,24.80,32.46,360.00,5.00,0.00,30.20,M,10.00,M,CLR,M,M,M,M,M,M,M,M,M,M,M,M,M,M,53.60,KRTS 011155Z AUTO 36005KT 10SM CLR 12/M04 A3020 RMK AO2,M
05U,2023-08-01 11:55,-116.0051,39.6042,1811.23,64.40,44.60,48.55,M,M,0.00,30.22,M,10.00,M,M,M,M,M,M,M,M,M,M,M,M,M,M,M,M,64.40,K05U 011155Z AUTO 10SM 18/07 A3022 RMK A01,M
MEV,2023-08-01 11:55,-119.7500,38.9963,1441.42,50.00,35.60,57.52,0.00,0.00,0.00,30.17,M,10.00,M,CLR,M,M,M,M,M,M,M,M,M,M,M,M,M,M,50.00,KMEV 011155Z AUTO 00000KT 10SM CLR 10/02 A3017 RMK AO2,M
BAM,2023-08-01 11:55,-116.8743,40.5990,1382.36,53.60,23.00,30.11,220.00,4.00,0.00,30.11,M,10.00,M,CLR,M,M,M,M,M,M,M,M,M,M,M,M,M,M,53.60,KBAM 011155Z AUTO 22004KT 10SM CLR 12/M05 A3011 RMK AO1,M
HTH,2023-08-01 11:55,-118.6315,38.5448,1282.89,68.00,32.00,26.15,230.00,4.00,0.00,30.12,M,10.00,M,CLR,M,M,M,M,M,M,M,M,M,M,M,M,M,M,68.00,KHTH 011155Z AUTO 23004KT 10SM CLR 20/00 A3012 RMK A01,M
TMT,2023-08-01 11:55,-117.1971,39.4643,1749.34,48.40,32.00,52.87,220.00,3.00,0.00,30.21,M,M,M,CLR,M,M,M,M,M,M,M,M,M,M,M,M,M,M,47.44,KTMT 011155Z AUTO 22003KT CLR 09/00 A3021 RMK AO2 T00910001 10193 20078 PWINO,M
10U,2023-08-01 11:55,-116.1876,41.9532,1637.00,51.80,35.60,53.81,360.00,4.00,0.00,30.16,M,10.00,M,CLR,M,M,M,M,M,M,M,M,M,M,M,M,M,M,51.80,K10U 011155Z AUTO 36004KT 10SM CLR 11/02 A3016 RMK AO2,M
RNO,2023-08-01 11:55,-119.7711,39.4839,1341.00,66.00,34.00,30.37,0.00,0.00,0.00,30.15,1014.70,10.00,M,BKN,M,M,M,22000.00,M,M,M,M,M,M,M,M,M,M,66.00,KRNO 011155Z COR 00000KT 10SM BKN220 19/01 A3015 RMK AO2 SLP147 T01890011 10256 20183 53003,M
EKO,2023-08-01 11:56,-115.7860,40.8242,1367.00,65.00,35.00,32.72,70.00,7.00,0.00,30.14,1013.90,10.00,M,CLR,M,M,M,M,M,M,M,M,M,M,M,M,M,M,65.00,KEKO 011156Z AUTO 07007KT 10SM CLR 18/02 A3014 RMK AO2 SLP139 T01830017 10278 20183 53006,M
WMC,2023-08-01 11:56,-117.8072,40.9019,1315.00,53.00,22.00,29.51,0.00,0.00,0.00,30.10,1014.40,10.00,M,CLR,M,M,M,M,M,M,M,M,M,M,M,M,M,M,53.00,KWMC 011156Z AUTO 00000KT 10SM CLR 12/M06 A3010 RMK AO2 SLP144 T01171056 10194 20117 51004,M
NFL,2023-08-01 11:56,-118.7010,39.4166,1199.00,63.00,35.00,35.10,M,M,0.00,30.09,1015.50,10.00,M,CLR,M,M,M,M,M,M,M,M,M,M,M,M,M,M,63.00,KNFL 011156Z AUTO 10SM CLR 17/02 A3009 RMK AO2 SLP155 T01720017 10239 20156 50000 $,M
HND,2023-08-01 11:56,-115.1344,35.9729,742.79,76.00,62.00,61.87,160.00,4.00,0.00,30.09,1017.30,10.00,M,CLR,M,M,M,M,M,M,M,M,M,M,M,M,M,M,76.00,KHND 011156Z 16004KT 10SM CLR 24/17 A3009 RMK AO2 SLP173 70001 T02440167 10311 20244 58007,M
TPH,2023-08-01 11:56,-117.0904,38.0505,1654.00,71.00,47.00,42.35,130.00,5.00,0.00,30.20,1013.20,10.00,M,CLR,M,M,M,M,M,M,M,M,M,M,M,M,M,M,71.00,KTPH 011156Z AUTO 13005KT 10SM CLR 22/08 A3020 RMK AO2 SLP132 T02170083 10256 20206 53002,M
LAS,2023-08-01 11:56,-115.1634,36.0719,663.00,78.00,62.00,57.90,190.00,5.00,0.00,30.05,1014.60,10.00,M,FEW,BKN,OVC,M,10000.00,16000.00,22000.00,M,M,M,M,M,M,M,M,78.00,KLAS 011156Z 19005KT 10SM FEW100 BKN160 OVC220 26/17 A3005 RMK AO2 SLP146 T02560167 10317 20250 56007,M
BVU,2023-08-01 12:15,-114.8611,35.9475,671.00,78.80,60.80,54.05,160.00,4.00,0.00,30.04,M,10.00,M,CLR,M,M,M,M,M,M,M,M,M,M,M,M,M,M,78.80,KBVU 011215Z AUTO 16004KT 10SM CLR 26/16 A3004 RMK AO2,M
CXP,2023-08-01 12:15,-119.7326,39.1923,1431.00,57.20,37.40,47.44,0.00,0.00,0.00,30.18,M,10.00,M,CLR,M,M,M,M,M,M,M,M,M,M,M,M,M,M,57.20,KCXP 011215Z AUTO 00000KT 10SM CLR 14/03 A3018 RMK AO2,M
RTS,2023-08-01 12:15,-119.8764,39.6682,1539.00,53.60,24.80,32.46,360.00,3.00,0.00,30.20,M,10.00,M,CLR,M,M,M,M,M,M,M,M,M,M,M,M,M,M,53.60,KRTS 011215Z AUTO 36003KT 10SM CLR 12/M04 A3020 RMK AO2,M
05U,2023-08-01 12:15,-116.0051,39.6042,1811.23,66.20,44.60,45.60,M,M,0.00,30.23,M,10.00,M,M,M,M,M,M,M,M,M,M,M,M,M,M,M,M,66.20,K05U 011215Z AUTO 10SM 19/07 A3023 RMK A01,M
MEV,2023-08-01 12:15,-119.7500,38.9963,1441.42,50.00,37.40,61.76,100.00,5.00,0.00,30.17,M,10.00,M,CLR,M,M,M,M,M,M,M,M,M,M,M,M,M,M,50.00,KMEV 011215Z AUTO 10005KT 10SM CLR 10/03 A3017 RMK AO2,M
BAM,2023-08-01 12:15,-116.8743,40.5990,1382.36,55.40,24.80,30.40,210.00,4.00,0.00,30.12,M,10.00,M,CLR,M,M,M,M,M,M,M,M,M,M,M,M,M,M,55.40,KBAM 011215Z AUTO 21004KT 10SM CLR 13/M04 A3012 RMK AO1,M
HTH,2023-08-01 12:15,-118.6315,38.5448,1282.89,68.00,32.00,26.15,200.00,5.00,0.00,30.13,M,10.00,M,CLR,M,M,M,M,M,M,M,M,M,M,M,M,M,M,68.00,KHTH 011215Z AUTO 20005KT 10SM CLR 20/M00 A3013 RMK A01,M
TMT,2023-08-01 12:15,-117.1971,39.4643,1749.34,47.50,32.50,55.80,0.00,0.00,0.00,30.22,M,M,M,CLR,M,M,M,M,M,M,M,M,M,M,M,M,M,M,47.50,KTMT 011215Z AUTO 00000KT CLR 09/00 A3022 RMK AO2 T00860003 PWINO,M
10U,2023-08-01 12:15,-116.1876,41.9532,1637.00,50.00,33.80,53.54,80.00,6.00,0.00,30.17,M,10.00,M,CLR,M,M,M,M,M,M,M,M,M,M,M,M,M,M,50.00,K10U 011215Z AUTO 08006KT 10SM CLR 10/01 A3017 RMK AO2,M
HTH,2023-08-01 12:30,-118.6315,38.5448,1282.89,68.00,32.00,26.15,200.00,5.00,0.00,30.13,M,10.00,M,CLR,M,M,M,M,M,M,M,M,M,M,M,M,M,M,68.00,KHTH 011230Z AUTO 20005KT 10SM CLR 20/00 A3013 RMK A01,M
BVU,2023-08-01 12:35,-114.8611,35.9475,671.00,78.80,60.80,54.05,0.00,0.00,0.00,30.05,M,10.00,M,CLR,M,M,M,M,M,M,M,M,M,M,M,M,M,M,78.80,KBVU 011235Z AUTO 00000KT 10SM CLR 26/16 A3005 RMK AO2,M
CXP,2023-08-01 12:35,-119.7326,39.1923,1431.00,59.00,37.40,44.47,0.00,0.00,0.00,30.18,M,10.00,M,CLR,M,M,M,M,M,M,M,M,M,M,M,M,M,M,59.00,KCXP 011235Z AUTO 00000KT 10SM CLR 15/03 A3018 RMK AO2,M
RTS,2023-08-01 12:35,-119.8764,39.6682,1539.00,51.80,24.80,34.69,0.00,0.00,0.00,30.20,M,10.00,M,CLR,M,M,M,M,M,M,M,M,M,M,M,M,M,M,51.80,KRTS 011235Z AUTO 00000KT 10SM CLR 11/M04 A3020 RMK AO2,M
05U,2023-08-01 12:35,-116.0051,39.6042,1811.23,66.20,42.80,42.57,M,M,0.00,30.23,M,10.00,M,M,M,M,M,M,M,M,M,M,M,M,M,M,M,M,66.20,K05U 011235Z AUTO 10SM 19/06 A3023 RMK A01,M
MEV,2023-08-01 12:35,-119.7500,38.9963,1441.42,51.80,39.20,61.99,90.00,5.00,0.00,30.17,M,10.00,M,CLR,M,M,M,M,M,M,M,M,M,M,M,M,M,M,51.80,KMEV 011235Z AUTO 09005KT 10SM CLR 11/04 A3017 RMK AO2,M
BAM,2023-08-01 12:35,-116.8743,40.5990,1382.36,53.60,23.00,30.11,190.00,4.00,0.00,30.12,M,10.00,M,CLR,M,M,M,M,M,M,M,M,M,M,M,M,M,M,53.60,KBAM 011235Z AUTO 19004KT 10SM CLR 12/M05 A3012 RMK AO1,M
TMT,2023-08-01 12:35,-117.1971,39.4643,1749.34,44.40,30.60,58.11,180.00,5.00,0.00,30.22,M,M,M,CLR,M,M,M,M,M,M,M,M,M,M,M,M,M,M,41.12,KTMT 011235Z AUTO 18005KT CLR 07/M01 A3022 RMK AO2 T00691008 PWINO,M
10U,2023-08-01 12:35,-116.1876,41.9532,1637.00,53.60,33.80,46.88,10.00,4.00,0.00,30.17,M,10.00,M,CLR,M,M,M,M,M,M,M,M,M,M,M,M,M,M,53.60,K10U 011235Z AUTO 01004KT 10SM CLR 12/01 A3017 RMK AO2,M
P68,2023-08-01 12:53,-116.0056,39.6014,1993.00,66.00,43.00,43.20,190.00,5.00,0.00,30.21,1013.50,M,M,M,M,M,M,M,M,M,M,M,M,M,M,M,M,M,66.00,KP68 011253Z AUTO 19005KT 19/06 A3021 RMK AO1 SLP135 T01890061,M
DRA,2023-08-01 12:53,-116.0278,36.6206,1009.00,79.00,55.00,43.59,170.00,5.00,0.00,30.07,1012.90,10.00,M,CLR,M,M,M,M,M,M,M,M,M,M,M,M,M,M,79.00,KDRA 011253Z AUTO 17005KT 10SM CLR 26/13 A3007 RMK AO2 SLP129 T02610128,M
ELY,2023-08-01 12:53,-114.8453,39.2950,1909.00,63.00,49.00,60.20,0.00,0.00,0.00,30.28,1014.90,10.00,M,OVC,M,M,M,11000.00,M,M,M,M,M,M,M,M,M,M,63.00,KELY 011253Z AUTO 00000KT 10SM OVC110 17/09 A3028 RMK AO2 SLP149 T01720094 $,M
VGT,2023-08-01 12:53,-115.1933,36.2111,667.00,81.00,61.00,50.65,120.00,4.00,0.00,30.03,1015.60,10.00,M,CLR,M,M,M,M,M,M,M,M,M,M,M,M,M,M,81.81,KVGT 011253Z 12004KT 10SM CLR 27/16 A3003 RMK AO2 SLP156 T02720161,M
LOL,2023-08-01 12:53,-118.5701,40.0684,1192.43,58.00,29.00,32.91,60.00,6.00,0.00,30.08,1014.50,10.00,M,CLR,M,M,M,M,M,M,M,M,M,M,M,M,M,M,58.00,KLOL 011253Z AUTO 06006KT 10SM CLR 14/M02 A3008 RMK AO2 SLP145 T01441017,M
BVU,2023-08-01 12:55,-114.8611,35.9475,671.00,78.80,60.80,54.05,0.00,0.00,0.00,30.05,M,10.00,M,FEW,M,M,M,12000.00,M,M,M,M,M,M,M,M,M,M,78.80,KBVU 011255Z AUTO 00000KT 10SM FEW120 26/16 A3005 RMK AO2,M
CXP,2023-08-01 12:55,-119.7326,39.1923,1431.00,59.00,37.40,44.47,0.00,0.00,0.00,30.18,M,10.00,M,CLR,M,M,M,M,M,M,M,M,M,M,M,M,M,M,59.00,KCXP 011255Z AUTO 00000KT 10SM CLR 15/03 A3018 RMK AO2,M
INS,2023-08-01 12:55,-115.6733,36.5872,955.00,77.00,54.70,46.06,110.00,6.00,0.00,30.06,1012.70,10.00,M,BKN,M,M,M,14000.00,M,M,M,M,M,M,M,M,M,M,77.00,KINS 011255Z AUTO 11006KT 10SM BKN140 25/13 A3006 RMK AO2 SLP127 T02500126 $,M
RNO,2023-08-01 12:55,-119.7711,39.4839,1341.00,65.00,33.00,30.21,M,3.00,0.00,30.15,1015.00,10.00,M,FEW,FEW,BKN,M,8000.00,18000.00,22000.00,M,M,M,M,M,M,M,M,65.00,KRNO 011255Z VRB03KT 10SM FEW080 FEW180 BKN220 18/01 A3015 RMK AO2 SLP150 T01830006,M
LSV,2023-08-01 12:55,-115.0343,36.2362,570.00,78.60,61.50,55.78,0.00,0.00,0.00,30.00,1013.30,10.00,M,BKN,M,M,M,14000.00,M,M,M,M,M,M,M,M,M,M,78.60,KLSV 011255Z COR 00000KT 10SM BKN140 26/16 A3000 RMK AO2 SLP133 T02590164 $ COR 1258,M
RTS,2023-08-01 12:55,-119.8764,39.6682,1539.00,51.80,24.80,34.69,360.00,4.00,0.00,30.20,M,10.00,M,CLR,M,M,M,M,M,M,M,M,M,M,M,M,M,M,51.80,KRTS 011255Z AUTO 36004KT 10SM CLR 11/M04 A3020 RMK AO2,M
05U,2023-08-01 12:55,-116.0051,39.6042,1811.23,66.20,42.80,42.57,M,M,0.00,30.23,M,10.00,M,M,M,M,M,M,M,M,M,M,M,M,M,M,M,M,66.20,K05U 011255Z AUTO 10SM 19/06 A3023 RMK A01,M
MEV,2023-08-01 12:55,-119.7500,38.9963,1441.42,51.80,37.40,57.77,310.00,5.00,0.00,30.17,M,10.00,M,CLR,M,M,M,M,M,M,M,M,M,M,M,M,M,M,51.80,KMEV 011255Z AUTO 31005KT 10SM CLR 11/03 A3017 RMK AO2,M
BAM,2023-08-01 12:55,-116.8743,40.5990,1382.36,53.60,23.00,30.11,180.00,6.00,0.00,30.12,M,10.00,M,CLR,M,M,M,M,M,M,M,M,M,M,M,M,M,M,53.60,KBAM 011255Z AUTO 18006KT 10SM CLR 12/M05 A3012 RMK AO1,M
HTH,2023-08-01 12:55,-118.6315,38.5448,1282.89,68.00,32.00,26.15,210.00,5.00,0.00,30.13,M,10.00,M,CLR,M,M,M,M,M,M,M,M,M,M,M,M,M,M,68.00,KHTH 011255Z AUTO 21005KT 10SM CLR 20/00 A3013 RMK A01,M
TMT,2023-08-01 12:55,-117.1971,39.4643,1749.34,43.70,28.80,55.47,140.00,3.00,0.00,30.22,M,M,M,CLR,M,M,M,M,M,M,M,M,M,M,M,M,M,M,42.06,KTMT 011255Z AUTO 14003KT CLR 07/M02 A3022 RMK AO2 T00651018 PWINO,M
10U,2023-08-01 12:55,-116.1876,41.9532,1637.00,51.80,33.80,50.08,90.00,6.00,0.00,30.18,M,10.00,M,CLR,M,M,M,M,M,M,M,M,M,M,M,M,M,M,51.80,K10U 011255Z AUTO 09006KT 10SM CLR 11/01 A3018 RMK AO2,M
EKO,2023-08-01 12:56,-115.7860,40.8242,1367.00,64.00,35.00,33.89,70.00,7.00,0.00,30.15,1014.50,10.00,M,CLR,M,M,M,M,M,M,M,M,M,M,M,M,M,M,64.00,KEKO 011256Z AUTO 07007KT 10SM CLR 18/02 A3015 RMK AO2 SLP145 T01780017,M
WMC,2023-08-01 12:56,-117.8072,40.9019,1315.00,51.00,25.00,36.03,140.00,4.00,0.00,30.10,1014.60,10.00,M,CLR,M,M,M,M,M,M,M,M,M,M,M,M,M,M,51.00,KWMC 011256Z AUTO 14004KT 10SM CLR 11/M04 A3010 RMK AO2 SLP146 T01061039,M
NFL,2023-08-01 12:56,-118.7010,39.4166,1199.00,56.00,33.00,41.60,M,M,0.00,30.09,1015.70,10.00,M,CLR,M,M,M,M,M,M,M,M,M,M,M,M,M,M,56.00,KNFL 011256Z AUTO 10SM CLR 13/01 A3009 RMK AO2 SLP157 T01330006 $,M
HND,2023-08-01 12:56,-115.1344,35.9729,742.79,77.00,63.00,62.00,160.00,7.00,0.00,30.08,1017.20,10.00,M,BKN,M,M,M,11000.00,M,M,M,M,M,M,M,M,M,M,77.00,KHND 011256Z 16007KT 10SM BKN110 25/17 A3008 RMK AO2 SLP172 T02500172,M
TPH,2023-08-01 12:56,-117.0904,38.0505,1654.00,70.00,50.00,49.03,130.00,3.00,0.00,30.21,1014.00,10.00,M,CLR,M,M,M,M,M,M,M,M,M,M,M,M,M,M,70.00,KTPH 011256Z AUTO 13003KT 10SM CLR 21/10 A3021 RMK AO2 SLP140 T02110100,M
LAS,2023-08-01 12:56,-115.1634,36.0719,663.00,79.00,62.00,56.03,170.00,7.00,0.00,30.04,1014.30,10.00,M,FEW,BKN,BKN,M,10000.00,13000.00,22000.00,M,M,M,M,M,M,M,M,79.00,KLAS 011256Z 17007KT 10SM FEW100 BKN130 BKN220 26/17 A3004 RMK AO2 SLP143 VIRGA DSNT SE T02610167,M
BVU,2023-08-01 13:15,-114.8611,35.9475,671.00,77.00,60.80,57.36,0.00,0.00,0.00,30.04,M,10.00,M,FEW,M,M,M,12000.00,M,M,M,M,M,M,M,M,M,M,77.00,KBVU 011315Z AUTO 00000KT 10SM FEW120 25/16 A3004 RMK AO2,M
CXP,2023-08-01 13:15,-119.7326,39.1923,1431.00,59.00,37.40,44.47,0.00,0.00,0.00,30.18,M,10.00,M,CLR,M,M,M,M,M,M,M,M,M,M,M,M,M,M,59.00,KCXP 011315Z AUTO 00000KT 10SM CLR 15/03 A3018 RMK AO2,M
RTS,2023-08-01 13:15,-119.8764,39.6682,1539.00,51.80,24.80,34.69,0.00,0.00,0.00,30.20,M,10.00,M,CLR,M,M,M,M,M,M,M,M,M,M,M,M,M,M,51.80,KRTS 011315Z AUTO 00000KT 10SM CLR 11/M04 A3020 RMK AO2,M
05U,2023-08-01 13:15,-116.0051,39.6042,1811.23,66.20,42.80,42.57,360.00,4.00,0.00,30.24,M,10.00,M,M,M,M,M,M,M,M,M,M,M,M,M,M,M,M,66.20,K05U 011315Z AUTO 36004KT 10SM 19/06 A3024 RMK A01,M
MEV,2023-08-01 13:15,-119.7500,38.9963,1441.42,50.00,41.00,71.07,0.00,0.00,0.00,30.17,M,10.00,M,CLR,M,M,M,M,M,M,M,M,M,M,M,M,M,M,50.00,KMEV 011315Z AUTO 00000KT 10SM CLR 10/05 A3017 RMK AO2,M
HTH,2023-08-01 13:15,-118.6315,38.5448,1282.89,68.00,32.00,26.15,220.00,6.00,0.00,30.12,M,10.00,M,CLR,M,M,M,M,M,M,M,M,M,M,M,M,M,M,68.00,KHTH 011315Z AUTO 22006KT 10SM CLR 20/M00 A3012 RMK A01,M
TMT,2023-08-01 13:15,-117.1971,39.4643,1749.34,45.50,31.30,57.34,0.00,0.00,0.00,30.22,M,M,M,CLR,M,M,M,M,M,M,M,M,M,M,M,M,M,M,45.50,KTMT 011315Z AUTO 00000KT CLR 08/00 A3022 RMK AO2 T00751004 PWINO,M
10U,2023-08-01 13:15,-116.1876,41.9532,1637.00,53.60,32.00,43.61,0.00,0.00,0.00,30.18,M,10.00,M,CLR,M,M,M,M,M,M,M,M,M,M,M,M,M,M,53.60,K10U 011315Z AUTO 00000KT 10SM CLR 12/00 A3018 RMK AO2,M
BAM,2023-08-01 13:15,-116.8743,40.5990,1382.36,55.40,26.60,32.76,200.00,7.00,0.00,30.12,M,10.00,M,CLR,M,M,M,M,M,M,M,M,M,M,M,M,M,M,55.40,KBAM 011315Z AUTO 20007KT 10SM CLR 13/M03 A3012 RMK AO1,M
BVU,2023-08-01 13:35,-114.8611,35.9475,671.00,77.00,62.60,61.13,0.00,0.00,0.00,30.05,M,10.00,M,FEW,M,M,M,12000.00,M,M,M,M,M,M,M,M,M,M,77.00,KBVU 011335Z AUTO 00000KT 10SM FEW120 25/17 A3005 RMK AO2,M
CXP,2023-08-01 13:35,-119.7326,39.1923,1431.00,59.00,37.40,44.47,0.00,0.00,0.00,30.19,M,10.00,M,CLR,M,M,M,M,M,M,M,M,M,M,M,M,M,M,59.00,KCXP 011335Z AUTO 00000KT 10SM CLR 15/03 A3019 RMK AO2,M
RTS,2023-08-01 13:35,-119.8764,39.6682,1539.00,53.60,24.80,32.46,0.00,0.00,0.00,30.20,M,10.00,M,CLR,M,M,M,M,M,M,M,M,M,M,M,M,M,M,53.60,KRTS 011335Z AUTO 00000KT 10SM CLR 12/M04 A3020 RMK AO2,M
05U,2023-08-01 13:35,-116.0051,39.6042,1811.23,68.00,42.80,40.00,M,M,0.00,30.24,M,10.00,M,M,M,M,M,M,M,M,M,M,M,M,M,M,M,M,68.00,K05U 011335Z AUTO 10SM 20/06 A3024 RMK A01,M
MEV,2023-08-01 13:35,-119.7500,38.9963,1441.42,50.00,39.20,66.27,0.00,0.00,0.00,30.18,M,10.00,M,CLR,M,M,M,M,M,M,M,M,M,M,M,M,M,M,50.00,KMEV 011335Z AUTO 00000KT 10SM CLR 10/04 A3018 RMK AO2,M
BAM,2023-08-01 13:35,-116.8743,40.5990,1382.36,55.40,26.60,32.76,210.00,3.00,0.00,30.13,M,10.00,M,CLR,M,M,M,M,M,M,M,M,M,M,M,M,M,M,55.40,KBAM 011335Z AUTO 21003KT 10SM CLR 13/M03 A3013 RMK AO1,M
HTH,2023-08-01 13:35,-118.6315,38.5448,1282.89,66.20,32.00,27.83,0.00,0.00,0.00,30.13,M,10.00,M,CLR,M,M,M,M,M,M,M,M,M,M,M,M,M,M,66.20,KHTH 011335Z AUTO 00000KT 10SM CLR 19/M00 A3013 RMK A01,M
TMT,2023-08-01 13:35,-117.1971,39.4643,1749.34,46.40,32.00,57.00,0.00,0.00,0.00,30.23,M,M,M,CLR,M,M,M,M,M,M,M,M,M,M,M,M,M,M,46.40,KTMT 011335Z AUTO 00000KT CLR 08/00 A3023 RMK AO2 T00801001 PWINO,M
10U,2023-08-01 13:35,-116.1876,41.9532,1637.00,55.40,33.80,43.90,0.00,0.00,0.00,30.18,M,10.00,M,CLR,M,M,M,M,M,M,M,M,M,M,M,M,M,M,55.40,K10U 011335Z AUTO 00000KT 10SM CLR 13/01 A3018 RMK AO2,M
P68,2023-08-01 13:53,-116.0056,39.6014,1993.00,69.00,44.00,40.47,180.00,4.00,0.00,30.22,1014.10,M,M,M,M,M,M,M,M,M,M,M,M,M,M,M,M,M,69.00,KP68 011353Z AUTO 18004KT 21/07 A3022 RMK AO1 SLP141 T02060067,M
DRA,2023-08-01 13:53,-116.0278,36.6206,1009.00,79.00,55.00,43.59,0.00,0.00,0.00,30.08,1013.30,10.00,M,BKN,M,M,M,10000.00,M,M,M,M,M,M,M,M,M,M,79.00,KDRA 011353Z AUTO 00000KT 10SM BKN100 26/13 A3008 RMK AO2 SLP133 T02610128,M
ELY,2023-08-01 13:53,-114.8453,39.2950,1909.00,63.00,51.00,64.85,150.00,4.00,0.00,30.28,1015.70,10.00,M,BKN,M,M,M,12000.00,M,M,M,M,M,M,M,M,M,M,63.00,KELY 011353Z AUTO 15004KT 10SM BKN120 17/11 A3028 RMK AO2 SLP157 T01720106 $,M
VGT,2023-08-01 13:53,-115.1933,36.2111,667.00,80.00,62.00,54.22,110.00,8.00,0.00,30.04,1016.20,10.00,M,FEW,M,M,M,11000.00,M,M,M,M,M,M,M,M,M,M,81.21,KVGT 011353Z 11008KT 10SM FEW110 27/17 A3004 RMK AO2 SLP162 T02670167,M
LOL,2023-08-01 13:53,-118.5701,40.0684,1192.43,62.00,29.00,28.54,30.00,4.00,0.00,30.09,1014.50,10.00,M,CLR,M,M,M,M,M,M,M,M,M,M,M,M,M,M,62.00,KLOL 011353Z AUTO 03004KT 10SM CLR 17/M02 A3009 RMK AO2 SLP145 T01671017,M
BVU,2023-08-01 13:55,-114.8611,35.9475,671.00,78.80,60.80,54.05,0.00,0.00,0.00,30.05,M,10.00,M,SCT,M,M,M,12000.00,M,M,M,M,M,M,M,M,M,M,78.80,KBVU 011355Z AUTO 00000KT 10SM SCT120 26/16 A3005 RMK AO2,M
CXP,2023-08-01 13:55,-119.7326,39.1923,1431.00,59.00,37.40,44.47,320.00,3.00,0.00,30.19,M,10.00,M,CLR,M,M,M,M,M,M,M,M,M,M,M,M,M,M,59.00,KCXP 011355Z AUTO 32003KT 10SM CLR 15/03 A3019 RMK AO2,M
INS,2023-08-01 13:55,-115.6733,36.5872,955.00,76.00,58.00,53.66,100.00,11.00,0.00,30.07,1013.20,10.00,M,BKN,M,M,M,13000.00,M,M,M,M,M,M,M,M,M,M,76.00,KINS 011355Z AUTO 10011KT 10SM BKN130 24/15 A3007 RMK AO2 SLP132 T02440145 $,M
RNO,2023-08-01 13:55,-119.7711,39.4839,1341.00,65.00,34.00,31.44,M,5.00,0.00,30.16,1015.50,10.00,M,FEW,FEW,BKN,M,8000.00,15000.00,22000.00,M,M,M,M,M,M,M,M,65.00,KRNO 011355Z VRB05KT 10SM FEW080 FEW150 BKN220 18/01 A3016 RMK AO2 SLP155 T01830011,M
LSV,2023-08-01 13:55,-115.0343,36.2362,570.00,78.80,62.20,56.80,40.00,6.00,0.00,30.01,1013.70,10.00,M,SCT,M,M,M,11000.00,M,M,M,M,M,M,M,M,M,M,78.80,KLSV 011355Z AUTO 04006KT 10SM SCT110 26/17 A3001 RMK AO2 SLP137 T02600168 $,M
RTS,2023-08-01 13:55,-119.8764,39.6682,1539.00,53.60,26.60,34.98,0.00,0.00,0.00,30.20,M,10.00,M,CLR,M,M,M,M,M,M,M,M,M,M,M,M,M,M,53.60,KRTS 011355Z AUTO 00000KT 10SM CLR 12/M03 A3020 RMK AO2,M
05U,2023-08-01 13:55,-116.0051,39.6042,1811.23,69.80,44.60,40.29,M,M,0.00,30.24,M,10.00,M,M,M,M,M,M,M,M,M,M,M,M,M,M,M,M,69.80,K05U 011355Z AUTO 10SM 21/07 A3024 RMK A01,M
MEV,2023-08-01 13:55,-119.7500,38.9963,1441.42,51.80,39.20,61.99,140.00,4.00,0.00,30.18,M,10.00,M,CLR,M,M,M,M,M,M,M,M,M,M,M,M,M,M,51.80,KMEV 011355Z AUTO 14004KT 10SM CLR 11/04 A3018 RMK AO2,M
HTH,2023-08-01 13:55,-118.6315,38.5448,1282.89,62.60,32.00,31.56,0.00,0.00,0.00,30.13,M,10.00,M,CLR,M,M,M,M,M,M,M,M,M,M,M,M,M,M,62.60,KHTH 011355Z AUTO 00000KT 10SM CLR 17/00 A3013 RMK A01,M
TMT,2023-08-01 13:55,-117.1971,39.4643,1749.34,49.00,34.00,56.02,0.00,0.00,0.00,30.24,M,M,M,CLR,M,M,M,M,M,M,M,M,M,M,M,M,M,M,49.00,KTMT 011355Z AUTO 00000KT CLR 10/01 A3024 RMK AO2 T00950012 PWINO,M
BAM,2023-08-01 13:55,-116.8743,40.5990,1382.36,59.00,28.40,30.98,230.00,3.00,0.00,30.13,M,10.00,M,CLR,M,M,M,M,M,M,M,M,M,M,M,M,M,M,59.00,KBAM 011355Z AUTO 23003KT 10SM CLR 15/M02 A3013 RMK AO1,M
10U,2023-08-01 13:55,-116.1876,41.9532,1637.00,57.20,33.80,41.13,200.00,5.00,0.00,30.18,M,10.00,M,CLR,M,M,M,M,M,M,M,M,M,M,M,M,M,M,57.20,K10U 011355Z AUTO 20005KT 10SM CLR 14/01 A3018 RMK AO2,M
EKO,2023-08-01 13:56,-115.7860,40.8242,1367.00,65.00,37.00,35.42,60.00,7.00,0.00,30.17,1015.00,10.00,M,CLR,M,M,M,M,M,M,M,M,M,M,M,M,M,M,65.00,KEKO 011356Z AUTO 06007KT 10SM CLR 18/03 A3017 RMK AO2 SLP150 T01830028,M
WMC,2023-08-01 13:56,-117.8072,40.9019,1315.00,58.00,24.00,26.77,0.00,0.00,0.00,30.11,1014.60,10.00,M,CLR,M,M,M,M,M,M,M,M,M,M,M,M,M,M,58.00,KWMC 011356Z AUTO 00000KT 10SM CLR 14/M04 A3011 RMK AO2 SLP146 T01441044,M
NFL,2023-08-01 13:56,-118.7010,39.4166,1199.00,64.00,34.00,32.56,M,3.00,0.00,30.10,1015.90,10.00,M,SCT,BKN,BKN,M,10000.00,15000.00,20000.00,M,M,M,M,M,M,M,M,64.00,KNFL 011356Z COR VRB03KT 10SM SCT100 BKN150 BKN200 18/01 A3010 RMK AO2 SLP159 T01780011 $,M
HND,2023-08-01 13:56,-115.1344,35.9729,742.79,78.00,62.00,57.90,170.00,5.00,0.00,30.09,1017.60,10.00,M,BKN,M,M,M,10000.00,M,M,M,M,M,M,M,M,M,M,78.00,KHND 011356Z 17005KT 10SM BKN100 26/17 A3009 RMK AO2 SLP176 T02560167,M
TPH,2023-08-01 13:56,-117.0904,38.0505,1654.00,70.00,50.00,49.03,0.00,0.00,0.00,30.22,1014.50,10.00,M,CLR,M,M,M,M,M,M,M,M,M,M,M,M,M,M,70.00,KTPH 011356Z AUTO 00000KT 10SM CLR 21/10 A3022 RMK AO2 SLP145 T02110100,M
LAS,2023-08-01 13:56,-115.1634,36.0719,663.00,79.00,62.00,56.03,180.00,5.00,0.00,30.05,1014.80,10.00,M,FEW,BKN,BKN,M,10000.00,13000.00,22000.00,M,M,M,M,M,M,M,M,79.00,KLAS 011356Z 18005KT 10SM FEW100 BKN130 BKN220 26/17 A3005 RMK AO2 SLP148 VIRGA DSNT SE-SW T02610167,M
BVU,2023-08-01 14:15,-114.8611,35.9475,671.00,78.80,60.80,54.05,250.00,4.00,0.00,30.06,M,10.00,M,FEW,M,M,M,12000.00,M,M,M,M,M,M,M,M,M,M,78.80,KBVU 011415Z AUTO 25004KT 10SM FEW120 26/16 A3006 RMK AO2,M
CXP,2023-08-01 14:15,-119.7326,39.1923,1431.00,60.80,41.00,48.00,0.00,0.00,0.00,30.19,M,10.00,M,CLR,M,M,M,M,M,M,M,M,M,M,M,M,M,M,60.80,KCXP 011415Z AUTO 00000KT 10SM CLR 16/05 A3019 RMK AO2,M
RTS,2023-08-01 14:15,-119.8764,39.6682,1539.00,55.40,28.40,35.28,0.00,0.00,0.00,30.20,M,10.00,M,CLR,M,M,M,M,M,M,M,M,M,M,M,M,M,M,55.40,KRTS 011415Z AUTO 00000KT 10SM CLR 13/M02 A3020 RMK AO2,M
05U,2023-08-01 14:15,-116.0051,39.6042,1811.23,73.40,44.60,35.66,M,M,0.00,30.25,M,10.00,M,M,M,M,M,M,M,M,M,M,M,M,M,M,M,M,73.40,K05U 011415Z AUTO 10SM 23/07 A3025 RMK A01,M
MEV,2023-08-01 14:15,-119.7500,38.9963,1441.42,57.20,39.20,50.91,0.00,0.00,0.00,30.18,M,10.00,M,CLR,M,M,M,M,M,M,M,M,M,M,M,M,M,M,57.20,KMEV 011415Z AUTO 00000KT 10SM CLR 14/04 A3018 RMK AO2,M
BAM,2023-08-01 14:15,-116.8743,40.5990,1382.36,62.60,28.40,27.27,200.00,4.00,0.00,30.13,M,10.00,M,CLR,M,M,M,M,M,M,M,M,M,M,M,M,M,M,62.60,KBAM 011415Z AUTO 20004KT 10SM CLR 17/M02 A3013 RMK AO1,M
HTH,2023-08-01 14:15,-118.6315,38.5448,1282.89,68.00,32.00,26.15,0.00,0.00,0.00,30.13,M,10.00,M,CLR,M,M,M,M,M,M,M,M,M,M,M,M,M,M,68.00,KHTH 011415Z AUTO 00000KT 10SM CLR 20/00 A3013 RMK A01,M
TMT,2023-08-01 14:15,-117.1971,39.4643,1749.34,53.80,35.80,50.39,0.00,0.00,0.00,30.24,M,M,M,CLR,M,M,M,M,M,M,M,M,M,M,M,M,M,M,53.80,KTMT 011415Z AUTO 00000KT CLR 12/02 A3024 RMK AO2 T01210021 PWINO,M
10U,2023-08-01 14:15,-116.1876,41.9532,1637.00,59.00,33.80,38.56,120.00,4.00,0.00,30.19,M,10.00,M,CLR,M,M,M,M,M,M,M,M,M,M,M,M,M,M,59.00,K10U 011415Z AUTO 12004KT 10SM CLR 15/01 A3019 RMK AO2,M
BVU,2023-08-01 14:35,-114.8611,35.9475,671.00,78.80,64.40,61.36,280.00,4.00,0.00,30.06,M,10.00,M,FEW,FEW,M,M,9500.00,12000.00,M,M,M,M,M,M,M,M,M,78.80,KBVU 011435Z AUTO 28004KT 10SM FEW095 FEW120 26/18 A3006 RMK AO2,M
CXP,2023-08-01 14:35,-119.7326,39.1923,1431.00,62.60,37.40,39.14,0.00,0.00,0.00,30.20,M,10.00,M,CLR,M,M,M,M,M,M,M,M,M,M,M,M,M,M,62.60,KCXP 011435Z AUTO 00000KT 10SM CLR 17/03 A3020 RMK AO2,M
RTS,2023-08-01 14:35,-119.8764,39.6682,1539.00,57.20,28.40,33.05,0.00,0.00,0.00,30.21,M,10.00,M,CLR,M,M,M,M,M,M,M,M,M,M,M,M,M,M,57.20,KRTS 011435Z AUTO 00000KT 10SM CLR 14/M02 A3021 RMK AO2,M
05U,2023-08-01 14:35,-116.0051,39.6042,1811.23,73.40,44.60,35.66,M,M,0.00,30.25,M,10.00,M,M,M,M,M,M,M,M,M,M,M,M,M,M,M,M,73.40,K05U 011435Z AUTO 10SM 23/07 A3025 RMK A01,M
MEV,2023-08-01 14:35,-119.7500,38.9963,1441.42,60.80,39.20,44.76,100.00,3.00,0.00,30.18,M,9.00,M,CLR,M,M,M,M,M,M,M,M,M,M,M,M,M,M,60.80,KMEV 011435Z AUTO 10003KT 9SM CLR 16/04 A3018 RMK AO2,M
HTH,2023-08-01 14:35,-118.6315,38.5448,1282.89,69.80,35.60,28.39,170.00,4.00,0.00,30.14,M,10.00,M,CLR,M,M,M,M,M,M,M,M,M,M,M,M,M,M,69.80,KHTH 011435Z AUTO 17004KT 10SM CLR 21/02 A3014 RMK A01,M
TMT,2023-08-01 14:35,-117.1971,39.4643,1749.34,57.40,37.00,46.37,0.00,0.00,0.00,30.24,M,M,M,CLR,M,M,M,M,M,M,M,M,M,M,M,M,M,M,57.40,KTMT 011435Z AUTO 00000KT CLR 14/03 A3024 RMK AO2 T01410028 PWINO,M
10U,2023-08-01 14:35,-116.1876,41.9532,1637.00,60.80,35.60,38.85,60.00,4.00,0.00,30.20,M,10.00,M,CLR,M,M,M,M,M,M,M,M,M,M,M,M,M,M,60.80,K10U 011435Z AUTO 06004KT 10SM CLR 16/02 A3020 RMK AO2,M
BAM,2023-08-01 14:35,-116.8743,40.5990,1382.36,68.00,28.40,22.59,0.00,0.00,0.00,30.13,M,10.00,M,CLR,M,M,M,M,M,M,M,M,M,M,M,M,M,M,68.00,KBAM 011435Z AUTO 00000KT 10SM CLR 20/M02 A3013 RMK AO1,M
P68,2023-08-01 14:53,-116.0056,39.6014,1993.00,71.00,45.00,39.27,230.00,4.00,0.00,30.23,1014.30,M,M,M,M,M,M,M,M,M,M,M,M,M,M,M,M,M,71.00,KP68 011453Z AUTO 23004KT 22/07 A3023 RMK AO1 SLP143 T02170072 52007,M
DRA,2023-08-01 14:53,-116.0278,36.6206,1009.00,80.00,57.00,45.36,280.00,5.00,0.00,30.10,1014.00,10.00,M,OVC,M,M,M,10000.00,M,M,M,M,M,M,M,M,M,M,80.38,KDRA 011453Z AUTO 28005KT 10SM OVC100 27/14 A3010 RMK AO2 SLP140 T02670139 53009 $,M
ELY,2023-08-01 14:53,-114.8453,39.2950,1909.00,65.00,51.00,60.47,230.00,4.00,0.00,30.30,1016.40,10.00,M,OVC,M,M,M,10000.00,M,M,M,M,M,M,M,M,M,M,65.00,KELY 011453Z AUTO 23004KT 10SM OVC100 18/11 A3030 RMK AO2 SLP164 T01830106 52009 $,M
VGT,2023-08-01 14:53,-115.1933,36.2111,667.00,82.00,62.00,50.80,110.00,10.00,0.00,30.06,1016.60,10.00,M,CLR,M,M,M,M,M,M,M,M,M,M,M,M,M,M,82.89,KVGT 011453Z 11010KT 10SM CLR 28/17 A3006 RMK AO2 SLP166 T02780167 53006,M
LOL,2023-08-01 14:53,-118.5701,40.0684,1192.43,67.00,31.00,26.00,0.00,0.00,0.00,30.10,1015.00,10.00,M,CLR,M,M,M,M,M,M,M,M,M,M,M,M,M,M,67.00,KLOL 011453Z AUTO 00000KT 10SM CLR 19/M01 A3010 RMK AO2 SLP150 T01941006 53008,M
BVU,2023-08-01 14:55,-114.8611,35.9475,671.00,78.80,62.60,57.60,0.00,0.00,0.00,30.06,M,10.00,M,FEW,M,M,M,9500.00,M,M,M,M,M,M,M,M,M,M,78.80,KBVU 011455Z AUTO 00000KT 10SM FEW095 26/17 A3006 RMK AO2,M
CXP,2023-08-01 14:55,-119.7326,39.1923,1431.00,64.40,37.40,36.74,0.00,0.00,0.00,30.20,M,10.00,M,CLR,M,M,M,M,M,M,M,M,M,M,M,M,M,M,64.40,KCXP 011455Z AUTO 00000KT 10SM CLR 18/03 A3020 RMK AO2,M
INS,2023-08-01 14:55,-115.6733,36.5872,955.00,78.80,57.00,47.18,90.00,15.00,0.00,30.09,1013.90,10.00,M,BKN,BKN,OVC,M,11000.00,13000.00,21000.00,M,M,M,M,M,M,M,M,78.80,KINS 011455Z AUTO 09015KT 10SM BKN110 BKN130 OVC210 26/14 A3009 RMK AO2 SLP139 T02600138 53008 $,M
RNO,2023-08-01 14:55,-119.7711,39.4839,1341.00,67.00,34.00,29.33,290.00,5.00,0.00,30.17,1015.90,10.00,M,FEW,BKN,M,M,15000.00,22000.00,M,M,M,M,M,M,M,M,M,67.00,KRNO 011455Z 29005KT 10SM FEW150 BKN220 19/01 A3017 RMK AO2 SLP159 T01940011 53005,M
RTS,2023-08-01 14:55,-119.8764,39.6682,1539.00,60.80,28.40,29.06,0.00,0.00,0.00,30.21,M,10.00,M,CLR,M,M,M,M,M,M,M,M,M,M,M,M,M,M,60.80,KRTS 011455Z AUTO 00000KT 10SM CLR 16/M02 A3021 RMK AO2,M
05U,2023-08-01 14:55,-116.0051,39.6042,1811.23,73.40,44.60,35.66,M,M,0.00,30.25,M,10.00,M,M,M,M,M,M,M,M,M,M,M,M,M,M,M,M,73.40,K05U 011455Z AUTO 10SM 23/07 A3025 RMK A01,M
MEV,2023-08-01 14:55,-119.7500,38.9963,1441.42,64.40,35.60,34.22,0.00,0.00,0.00,30.18,M,10.00,M,CLR,M,M,M,M,M,M,M,M,M,M,M,M,M,M,64.40,KMEV 011455Z AUTO 00000KT 10SM CLR 18/02 A3018 RMK AO2,M
BAM,2023-08-01 14:55,-116.8743,40.5990,1382.36,71.60,30.20,21.50,0.00,0.00,0.00,30.14,M,10.00,M,CLR,M,M,M,M,M,M,M,M,M,M,M,M,M,M,71.60,KBAM 011455Z AUTO 00000KT 10SM CLR 22/M01 A3014 RMK AO1,M
HTH,2023-08-01 14:55,-118.6315,38.5448,1282.89,73.40,33.80,23.39,M,M,0.00,M,M,10.00,M,CLR,M,M,M,M,M,M,M,M,M,M,M,M,M,M,73.40,KHTH 011455Z AUTO 10SM CLR 23/01 RMK A01,M
TMT,2023-08-01 14:55,-117.1971,39.4643,1749.34,58.60,36.50,43.54,0.00,0.00,0.00,30.24,M,M,M,CLR,M,M,M,M,M,M,M,M,M,M,M,M,M,M,58.60,KTMT 011455Z AUTO 00000KT CLR 15/03 A3024 RMK AO2 T01480025 PWINO,M
10U,2023-08-01 14:55,-116.1876,41.9532,1637.00,66.20,35.60,32.14,50.00,4.00,0.00,30.20,M,10.00,M,CLR,M,M,M,M,M,M,M,M,M,M,M,M,M,M,66.20,K10U 011455Z AUTO 05004KT 10SM CLR 19/02 A3020 RMK AO2,M
LSV,2023-08-01 14:55,-115.0343,36.2362,570.00,80.20,63.50,56.79,20.00,15.00,0.00,30.03,1014.30,10.00,M,BKN,M,M,M,14000.00,M,M,M,M,M,M,M,M,M,M,81.69,KLSV 011455Z COR AUTO 02015KT 10SM BKN140 27/18 A3003 RMK AO2 SLP143 T02680175 $ COR 1527,M
EKO,2023-08-01 14:56,-115.7860,40.8242,1367.00,68.00,37.00,31.92,40.00,7.00,0.00,30.17,1015.50,10.00,M,CLR,M,M,M,M,M,M,M,M,M,M,M,M,M,M,68.00,KEKO 011456Z AUTO 04007KT 10SM CLR 20/03 A3017 RMK AO2 SLP155 T02000028 51009,M
WMC,2023-08-01 14:56,-117.8072,40.9019,1315.00,66.00,24.00,20.18,0.00,0.00,0.00,30.12,1015.00,10.00,M,CLR,M,M,M,M,M,M,M,M,M,M,M,M,M,M,66.00,KWMC 011456Z AUTO 00000KT 10SM CLR 19/M04 A3012 RMK AO2 SLP150 T01891044 53008,M
NFL,2023-08-01 14:56,-118.7010,39.4166,1199.00,73.00,37.00,26.92,200.00,4.00,0.00,30.11,1016.20,10.00,M,SCT,BKN,BKN,M,10000.00,15000.00,20000.00,M,M,M,M,M,M,M,M,73.00,KNFL 011456Z 20004KT 10SM SCT100 BKN150 BKN200 23/03 A3011 RMK AO2 SLP162 T02280028 53007 $,M
HND,2023-08-01 14:56,-115.1344,35.9729,742.79,79.00,61.00,54.08,160.00,4.00,T,30.10,1018.20,10.00,M,BKN,M,M,M,9500.00,M,M,M,M,M,M,M,M,M,M,79.00,KHND 011456Z 16004KT 10SM BKN095 26/16 A3010 RMK AO2 RAB39E54 SLP182 P0000 60000 T02610161 53005,M
TPH,2023-08-01 14:56,-117.0904,38.0505,1654.00,73.00,52.00,47.69,160.00,7.00,0.00,30.23,1015.10,10.00,M,CLR,M,M,M,M,M,M,M,M,M,M,M,M,M,M,73.00,KTPH 011456Z AUTO 16007KT 10SM CLR 23/11 A3023 RMK AO2 SLP151 T02280111 53008,M
LAS,2023-08-01 14:56,-115.1634,36.0719,663.00,75.00,67.00,76.19,140.00,3.00,0.10,30.06,1015.30,9.00,M,SCT,BKN,BKN,M,10000.00,13000.00,22000.00,M,-RA,M,M,M,M,M,M,75.00,KLAS 011456Z 14003KT 9SM -RA SCT100 BKN130 BKN220 24/19 A3006 RMK AO2 RAB40 SLP153 P0010 60010 T02390194 53003,M
CXP,2023-08-01 15:15,-119.7326,39.1923,1431.00,66.20,37.40,34.51,0.00,0.00,0.00,30.20,M,10.00,M,CLR,M,M,M,M,M,M,M,M,M,M,M,M,M,M,66.20,KCXP 011515Z AUTO 00000KT 10SM CLR 19/03 A3020 RMK AO2,M
RTS,2023-08-01 15:15,-119.8764,39.6682,1539.00,64.40,28.40,25.60,0.00,0.00,0.00,30.21,M,10.00,M,CLR,M,M,M,M,M,M,M,M,M,M,M,M,M,M,64.40,KRTS 011515Z AUTO 00000KT 10SM CLR 18/M02 A3021 RMK AO2,M
05U,2023-08-01 15:15,-116.0051,39.6042,1811.23,75.20,44.60,33.57,M,M,0.00,30.26,M,10.00,M,CLR,M,M,M,M,M,M,M,M,M,M,M,M,M,M,75.20,K05U 011515Z AUTO 10SM CLR 24/07 A3026 RMK A01,M
MEV,2023-08-01 15:15,-119.7500,38.9963,1441.42,64.40,35.60,34.22,0.00,0.00,0.00,30.19,M,9.00,M,CLR,M,M,M,M,M,M,M,M,M,M,M,M,M,M,64.40,KMEV 011515Z AUTO 00000KT 9SM CLR 18/02 A3019 RMK AO2,M
HTH,2023-08-01 15:15,-118.6315,38.5448,1282.89,75.20,37.40,25.40,0.00,0.00,0.00,30.15,M,10.00,M,CLR,M,M,M,M,M,M,M,M,M,M,M,M,M,M,75.20,KHTH 011515Z AUTO 00000KT 10SM CLR 24/03 A3015 RMK A01,M
TMT,2023-08-01 15:15,-117.1971,39.4643,1749.34,61.00,36.30,39.66,0.00,0.00,0.00,30.24,M,M,M,CLR,M,M,M,M,M,M,M,M,M,M,M,M,M,M,61.00,KTMT 011515Z AUTO 00000KT CLR 16/02 A3024 RMK AO2 T01620024 PWINO,M
10U,2023-08-01 15:15,-116.1876,41.9532,1637.00,68.00,33.80,28.11,0.00,0.00,0.00,30.20,M,10.00,M,CLR,M,M,M,M,M,M,M,M,M,M,M,M,M,M,68.00,K10U 011515Z AUTO 00000KT 10SM CLR 20/01 A3020 RMK AO2,M
BAM,2023-08-01 15:15,-116.8743,40.5990,1382.36,73.40,30.20,20.23,0.00,0.00,0.00,30.15,M,10.00,M,CLR,M,M,M,M,M,M,M,M,M,M,M,M,M,M,73.40,KBAM 011515Z AUTO 00000KT 10SM CLR 23/M01 A3015 RMK AO1,M
05U,2023-08-01 15:30,-116.0051,39.6042,1811.23,77.00,46.40,33.85,M,M,0.00,30.26,M,10.00,M,CLR,M,M,M,M,M,M,M,M,M,M,M,M,M,M,77.00,K05U 011530Z AUTO 10SM CLR 25/08 A3026 RMK A01,M
CXP,2023-08-01 15:35,-119.7326,39.1923,1431.00,68.00,37.40,32.43,0.00,0.00,0.00,30.20,M,10.00,M,CLR,M,M,M,M,M,M,M,M,M,M,M,M,M,M,68.00,KCXP 011535Z AUTO 00000KT 10SM CLR 20/03 A3020 RMK AO2,M
RTS,2023-08-01 15:35,-119.8764,39.6682,1539.00,66.20,28.40,24.04,0.00,0.00,0.00,30.21,M,10.00,M,CLR,M,M,M,M,M,M,M,M,M,M,M,M,M,M,66.20,KRTS 011535Z AUTO 00000KT 10SM CLR 19/M02 A3021 RMK AO2,M
MEV,2023-08-01 15:35,-119.7500,38.9963,1441.42,68.00,35.60,30.20,0.00,0.00,0.00,30.19,M,8.00,M,CLR,M,M,M,M,M,M,M,M,M,M,M,M,M,M,68.00,KMEV 011535Z AUTO 00000KT 8SM CLR 20/02 A3019 RMK AO2,M
BAM,2023-08-01 15:35,-116.8743,40.5990,1382.36,75.20,30.20,19.05,0.00,0.00,0.00,30.15,M,10.00,M,CLR,M,M,M,M,M,M,M,M,M,M,M,M,M,M,75.20,KBAM 011535Z AUTO 00000KT 10SM CLR 24/M01 A3015 RMK AO1,M
HTH,2023-08-01 15:35,-118.6315,38.5448,1282.89,77.00,35.60,22.28,320.00,4.00,0.00,30.15,M,10.00,M,CLR,M,M,M,M,M,M,M,M,M,M,M,M,M,M,77.00,KHTH 011535Z AUTO 32004KT 10SM CLR 25/02 A3015 RMK A01,M
TMT,2023-08-01 15:35,-117.1971,39.4643,1749.34,63.50,39.40,41.01,0.00,0.00,0.00,30.25,M,M,M,CLR,M,M,M,M,M,M,M,M,M,M,M,M,M,M,63.50,KTMT 011535Z AUTO 00000KT CLR 18/04 A3025 RMK AO2 T01750041 PWINO,M
10U,2023-08-01 15:35,-116.1876,41.9532,1637.00,69.80,35.60,28.39,0.00,0.00,0.00,30.20,M,10.00,M,CLR,M,M,M,M,M,M,M,M,M,M,M,M,M,M,69.80,K10U 011535Z AUTO 00000KT 10SM CLR 21/02 A3020 RMK AO2,M
P68,2023-08-01 15:53,-116.0056,39.6014,1993.00,74.00,45.00,35.48,0.00,0.00,0.00,30.24,1014.50,M,M,M,M,M,M,M,M,M,M,M,M,M,M,M,M,M,74.00,KP68 011553Z AUTO 00000KT 23/07 A3024 RMK AO1 SLP145 T02330072,M
DRA,2023-08-01 15:53,-116.0278,36.6206,1009.00,80.00,58.00,47.02,320.00,4.00,0.00,30.12,1014.70,10.00,M,FEW,OVC,M,M,5000.00,11000.00,M,M,M,M,M,M,M,M,M,80.53,KDRA 011553Z AUTO 32004KT 10SM FEW050 OVC110 27/14 A3012 RMK AO2 SLP147 T02670144 $,M
ELY,2023-08-01 15:53,-114.8453,39.2950,1909.00,67.00,52.00,58.53,0.00,0.00,0.00,30.30,1016.90,10.00,M,SCT,M,M,M,11000.00,M,M,M,M,M,M,M,M,M,M,67.00,KELY 011553Z AUTO 00000KT 10SM SCT110 19/11 A3030 RMK AO2 SLP169 T01940111,M
VGT,2023-08-01 15:53,-115.1933,36.2111,667.00,83.00,62.00,49.17,110.00,10.00,0.00,30.07,1017.20,10.00,M,SCT,M,M,M,11000.00,M,M,M,M,M,M,M,M,M,M,83.75,KVGT 011553Z 11010KT 10SM SCT110 28/17 A3007 RMK AO2 SLP172 T02830167,M
LOL,2023-08-01 15:53,-118.5701,40.0684,1192.43,75.00,33.00,21.47,0.00,0.00,0.00,30.12,1015.50,10.00,M,CLR,M,M,M,M,M,M,M,M,M,M,M,M,M,M,75.00,KLOL 011553Z AUTO 00000KT 10SM CLR 24/01 A3012 RMK AO2 SLP155 T02390006,M
CXP,2023-08-01 15:55,-119.7326,39.1923,1431.00,69.80,35.60,28.39,0.00,0.00,0.00,30.20,M,10.00,M,CLR,M,M,M,M,M,M,M,M,M,M,M,M,M,M,69.80,KCXP 011555Z AUTO 00000KT 10SM CLR 21/02 A3020 RMK AO2,M
INS,2023-08-01 15:55,-115.6733,36.5872,955.00,80.00,55.60,43.12,100.00,15.00,0.00,30.11,1014.60,10.00,M,OVC,M,M,M,9500.00,M,M,M,M,M,M,M,M,M,M,80.19,KINS 011555Z AUTO 10015KT 10SM OVC095 27/13 A3011 RMK AO2 SLP146 T02670131 $,M
RNO,2023-08-01 15:55,-119.7711,39.4839,1341.00,70.00,36.00,28.65,270.00,3.00,0.00,30.18,1016.10,10.00,M,BKN,M,M,M,21000.00,M,M,M,M,M,M,M,M,M,M,70.00,KRNO 011555Z 27003KT 10SM BKN210 21/02 A3018 RMK AO2 SLP161 T02110022,M
LSV,2023-08-01 15:55,-115.0343,36.2362,570.00,83.00,62.40,49.87,40.00,16.00,0.00,30.04,1014.70,10.00,M,SCT,BKN,M,M,13000.00,21000.00,M,M,M,M,M,M,M,M,M,83.88,KLSV 011555Z 04016KT 10SM SCT130 BKN210 28/17 A3004 RMK AO2A SLP147 T02840169 $,M
RTS,2023-08-01 15:55,-119.8764,39.6682,1539.00,68.00,28.40,22.59,0.00,0.00,0.00,30.21,M,10.00,M,CLR,M,M,M,M,M,M,M,M,M,M,M,M,M,M,68.00,KRTS 011555Z AUTO 00000KT 10SM CLR 20/M02 A3021 RMK AO2,M
05U,2023-08-01 15:55,-116.0051,39.6042,1811.23,75.20,44.60,33.57,M,M,0.00,30.26,M,10.00,M,CLR,M,M,M,M,M,M,M,M,M,M,M,M,M,M,75.20,K05U 011555Z AUTO 10SM CLR 24/07 A3026 RMK A01,M
MEV,2023-08-01 15:55,-119.7500,38.9963,1441.42,68.00,35.60,30.20,0.00,0.00,0.00,30.19,M,10.00,M,CLR,M,M,M,M,M,M,M,M,M,M,M,M,M,M,68.00,KMEV 011555Z AUTO 00000KT 10SM CLR 20/02 A3019 RMK AO2,M
HTH,2023-08-01 15:55,-118.6315,38.5448,1282.89,77.00,35.60,22.28,320.00,4.00,0.00,30.15,M,10.00,M,CLR,M,M,M,M,M,M,M,M,M,M,M,M,M,M,77.00,KHTH 011555Z AUTO 32004KT 10SM CLR 25/02 A3015 RMK A01,M
TMT,2023-08-01 15:55,-117.1971,39.4643,1749.34,68.00,40.60,36.75,0.00,0.00,0.00,30.25,M,M,M,CLR,M,M,M,M,M,M,M,M,M,M,M,M,M,M,68.00,KTMT 011555Z AUTO 00000KT CLR 20/05 A3025 RMK AO2 T01990048 PWINO,M
10U,2023-08-01 15:55,-116.1876,41.9532,1637.00,73.40,37.40,26.98,M,4.00,0.00,30.20,M,10.00,M,CLR,M,M,M,M,M,M,M,M,M,M,M,M,M,M,73.40,K10U 011555Z AUTO VRB04KT 10SM CLR 23/03 A3020 RMK AO2,M
BAM,2023-08-01 15:55,-116.8743,40.5990,1382.36,78.80,28.40,15.71,0.00,0.00,0.00,30.16,M,10.00,M,CLR,M,M,M,M,M,M,M,M,M,M,M,M,M,M,78.80,KBAM 011555Z AUTO 00000KT 10SM CLR 26/M02 A3016 RMK AO1,M
EKO,2023-08-01 15:56,-115.7860,40.8242,1367.00,79.00,39.00,23.85,40.00,6.00,0.00,30.18,1015.00,10.00,M,CLR,M,M,M,M,M,M,M,M,M,M,M,M,M,M,79.00,KEKO 011556Z AUTO 04006KT 10SM CLR 26/04 A3018 RMK AO2 SLP150 T02610039,M
WMC,2023-08-01 15:56,-117.8072,40.9019,1315.00,77.00,24.00,13.89,M,3.00,0.00,30.14,1015.50,10.00,M,CLR,M,M,M,M,M,M,M,M,M,M,M,M,M,M,77.00,KWMC 011556Z AUTO VRB03KT 10SM CLR 25/M04 A3014 RMK AO2 SLP155 T02501044,M
NFL,2023-08-01 15:56,-118.7010,39.4166,1199.00,77.00,35.00,21.76,230.00,5.00,0.00,30.12,1016.60,10.00,M,SCT,SCT,BKN,BKN,10000.00,15000.00,20000.00,24000.00,M,M,M,M,M,M,M,77.00,KNFL 011556Z 23005KT 10SM SCT100 SCT150 BKN200 BKN240 25/02 A3012 RMK AO2 SLP166 T02500017 $,M
HND,2023-08-01 15:56,-115.1344,35.9729,742.79,81.00,61.00,50.65,80.00,4.00,0.00,30.12,1018.50,10.00,M,FEW,M,M,M,12000.00,M,M,M,M,M,M,M,M,M,M,81.81,KHND 011556Z 08004KT 10SM FEW120 27/16 A3012 RMK AO2 SLP185 T02720161,M
TPH,2023-08-01 15:56,-117.0904,38.0505,1654.00,74.00,52.00,46.11,150.00,9.00,0.00,30.24,1015.80,10.00,M,CLR,M,M,M,M,M,M,M,M,M,M,M,M,M,M,74.00,KTPH 011556Z AUTO 15009KT 10SM CLR 23/11 A3024 RMK AO2 SLP158 T02330111,M
LAS,2023-08-01 15:56,-115.1634,36.0719,663.00,79.00,65.00,62.25,100.00,7.00,0.02,30.08,1016.10,10.00,M,SCT,BKN,BKN,M,10000.00,13000.00,22000.00,M,M,M,M,M,M,M,M,79.00,KLAS 011556Z 10007KT 10SM SCT100 BKN130 BKN220 26/18 A3008 RMK AO2 RAE13 SLP161 P0002 T02610183,M
BVU,2023-08-01 16:15,-114.8611,35.9475,671.00,82.40,62.60,51.21,40.00,8.00,0.00,30.08,M,10.00,M,CLR,M,M,M,M,M,M,M,M,M,M,M,M,M,M,83.41,KBVU 011615Z AUTO 04008KT 10SM CLR 28/17 A3008 RMK AO2,M
CXP,2023-08-01 16:15,-119.7326,39.1923,1431.00,71.60,35.60,26.71,0.00,0.00,0.00,30.20,M,10.00,M,CLR,M,M,M,M,M,M,M,M,M,M,M,M,M,M,71.60,KCXP 011615Z AUTO 00000KT 10SM CLR 22/02 A3020 RMK AO2,M
RTS,2023-08-01 16:15,-119.8764,39.6682,1539.00,69.80,30.20,22.86,0.00,0.00,0.00,30.22,M,10.00,M,CLR,M,M,M,M,M,M,M,M,M,M,M,M,M,M,69.80,KRTS 011615Z AUTO 00000KT 10SM CLR 21/M01 A3022 RMK AO2,M
05U,2023-08-01 16:15,-116.0051,39.6042,1811.23,77.00,44.60,31.62,M,M,0.00,30.27,M,10.00,M,M,M,M,M,M,M,M,M,M,M,M,M,M,M,M,77.00,K05U 011615Z AUTO 10SM 25/07 A3027 RMK A01,M
MEV,2023-08-01 16:15,-119.7500,38.9963,1441.42,69.80,35.60,28.39,290.00,3.00,0.00,30.18,M,10.00,M,CLR,M,M,M,M,M,M,M,M,M,M,M,M,M,M,69.80,KMEV 011615Z AUTO 29003KT 10SM CLR 21/02 A3018 RMK AO2,M
BAM,2023-08-01 16:15,-116.8743,40.5990,1382.36,78.80,26.60,14.59,0.00,0.00,0.00,30.16,M,10.00,M,CLR,M,M,M,M,M,M,M,M,M,M,M,M,M,M,78.80,KBAM 011615Z AUTO 00000KT 10SM CLR 26/M03 A3016 RMK AO1,M
HTH,2023-08-01 16:15,-118.6315,38.5448,1282.89,78.80,35.60,21.00,330.00,5.00,0.00,30.16,M,10.00,M,CLR,M,M,M,M,M,M,M,M,M,M,M,M,M,M,78.80,KHTH 011615Z AUTO 33005KT 10SM CLR 26/02 A3016 RMK A01,M
TMT,2023-08-01 16:15,-117.1971,39.4643,1749.34,71.60,41.70,33.91,0.00,0.00,0.00,30.25,M,M,M,CLR,M,M,M,M,M,M,M,M,M,M,M,M,M,M,71.60,KTMT 011615Z AUTO 00000KT CLR 22/05 A3025 RMK AO2 T02200054 PWINO,M
10U,2023-08-01 16:15,-116.1876,41.9532,1637.00,75.20,35.60,23.66,0.00,0.00,0.00,30.20,M,10.00,M,CLR,M,M,M,M,M,M,M,M,M,M,M,M,M,M,75.20,K10U 011615Z AUTO 00000KT 10SM CLR 24/02 A3020 RMK AO2,M
BVU,2023-08-01 16:35,-114.8611,35.9475,671.00,84.20,62.60,48.32,M,6.00,0.00,30.08,M,10.00,M,FEW,M,M,M,9000.00,M,M,M,M,M,M,M,M,M,M,85.03,KBVU 011635Z AUTO VRB06KT 10SM FEW090 29/17 A3008 RMK AO2,M
CXP,2023-08-01 16:35,-119.7326,39.1923,1431.00,75.20,35.60,23.66,0.00,0.00,0.00,30.19,M,10.00,M,CLR,M,M,M,M,M,M,M,M,M,M,M,M,M,M,75.20,KCXP 011635Z AUTO 00000KT 10SM CLR 24/02 A3019 RMK AO2,M
RTS,2023-08-01 16:35,-119.8764,39.6682,1539.00,73.40,28.40,18.80,0.00,0.00,0.00,30.21,M,10.00,M,CLR,M,M,M,M,M,M,M,M,M,M,M,M,M,M,73.40,KRTS 011635Z AUTO 00000KT 10SM CLR 23/M02 A3021 RMK AO2,M
05U,2023-08-01 16:35,-116.0051,39.6042,1811.23,77.00,46.40,33.85,M,M,0.00,30.27,M,10.00,M,M,M,M,M,M,M,M,M,M,M,M,M,M,M,M,77.00,K05U 011635Z AUTO 10SM 25/08 A3027 RMK A01,M
MEV,2023-08-01 16:35,-119.7500,38.9963,1441.42,73.40,37.40,26.98,230.00,4.00,0.00,30.18,M,8.00,M,CLR,M,M,M,M,M,M,M,M,M,M,M,M,M,M,73.40,KMEV 011635Z AUTO 23004KT 8SM CLR 23/03 A3018 RMK AO2,M
HTH,2023-08-01 16:35,-118.6315,38.5448,1282.89,80.60,32.00,17.14,360.00,6.00,0.00,30.15,M,10.00,M,CLR,M,M,M,M,M,M,M,M,M,M,M,M,M,M,78.82,KHTH 011635Z AUTO 36006KT 10SM CLR 27/00 A3015 RMK A01,M
TMT,2023-08-01 16:35,-117.1971,39.4643,1749.34,75.20,43.00,31.58,0.00,0.00,0.00,30.25,M,M,M,CLR,M,M,M,M,M,M,M,M,M,M,M,M,M,M,75.20,KTMT 011635Z AUTO 00000KT CLR 24/06 A3025 RMK AO2 T02400061 PWINO,M
10U,2023-08-01 16:35,-116.1876,41.9532,1637.00,77.00,35.60,22.28,M,4.00,0.00,30.20,M,10.00,M,CLR,M,M,M,M,M,M,M,M,M,M,M,M,M,M,77.00,K10U 011635Z AUTO VRB04KT 10SM CLR 25/02 A3020 RMK AO2,M
BAM,2023-08-01 16:35,-116.8743,40.5990,1382.36,80.60,28.40,14.81,330.00,4.00,0.00,30.15,M,10.00,M,CLR,M,M,M,M,M,M,M,M,M,M,M,M,M,M,78.72,KBAM 011635Z AUTO 33004KT 10SM CLR 27/M02 A3015 RMK AO1,M
INS,2023-08-01 16:37,-115.6733,36.5872,955.00,80.60,57.20,44.80,120.00,9.00,0.00,30.12,1014.90,10.00,M,BKN,M,M,M,9500.00,M,M,M,-RA,M,M,M,M,M,M,80.81,KINS 011637Z AUTO 12009KT 10SM -RA BKN095 27/14 A3012 RMK AO2 RAB37 SLP149 $,M
P68,2023-08-01 16:53,-116.0056,39.6014,1993.00,76.00,46.00,34.47,0.00,0.00,0.00,30.24,1014.70,M,M,M,M,M,M,M,M,M,M,M,M,M,M,M,M,M,76.00,KP68 011653Z AUTO 00000KT 24/08 A3024 RMK AO1 SLP147 T02440078,M
DRA,2023-08-01 16:53,-116.0278,36.6206,1009.00,79.00,59.00,50.36,200.00,3.00,0.00,30.14,1015.40,10.00,M,FEW,BKN,M,M,7000.00,11000.00,M,M,M,M,M,M,M,M,M,79.00,KDRA 011653Z AUTO 20003KT 10SM FEW070 BKN110 26/15 A3014 RMK AO2 SLP154 T02610150,M
ELY,2023-08-01 16:53,-114.8453,39.2950,1909.00,72.00,52.00,49.33,210.00,10.00,0.00,30.30,1016.20,10.00,M,BKN,OVC,M,M,9000.00,11000.00,M,M,M,M,M,M,M,M,M,72.00,KELY 011653Z AUTO 21010KT 10SM BKN090 OVC110 22/11 A3030 RMK AO2 SLP162 T02220111,M
VGT,2023-08-01 16:53,-115.1933,36.2111,667.00,85.00,61.00,44.50,110.00,9.00,0.00,30.09,1017.60,10.00,M,BKN,M,M,M,12000.00,M,M,M,M,M,M,M,M,M,M,85.21,KVGT 011653Z 11009KT 10SM BKN120 29/16 A3009 RMK AO2 SLP176 T02940161,M
LOL,2023-08-01 16:53,-118.5701,40.0684,1192.43,80.00,31.00,16.79,0.00,0.00,0.00,30.12,1015.10,10.00,M,CLR,M,M,M,M,M,M,M,M,M,M,M,M,M,M,78.49,KLOL 011653Z AUTO 00000KT 10SM CLR 27/M01 A3012 RMK AO2 SLP151 T02671006,M
BVU,2023-08-01 16:55,-114.8611,35.9475,671.00,84.20,60.80,45.34,60.00,6.00,0.00,30.08,M,10.00,M,SCT,M,M,M,8500.00,M,M,M,M,M,M,M,M,M,M,84.43,KBVU 011655Z AUTO 06006KT 10SM SCT085 29/16 A3008 RMK AO2,M
CXP,2023-08-01 16:55,-119.7326,39.1923,1431.00,77.00,33.80,20.74,0.00,0.00,0.00,30.19,M,10.00,M,CLR,M,M,M,M,M,M,M,M,M,M,M,M,M,M,77.00,KCXP 011655Z AUTO 00000KT 10SM CLR 25/01 A3019 RMK AO2,M
INS,2023-08-01 16:55,-115.6733,36.5872,955.00,76.00,61.70,61.22,130.00,6.00,0.07,30.13,1015.40,5.00,M,FEW,SCT,SCT,BKN,200.00,1500.00,3000.00,6500.00,-DZ,M,M,M,M,M,M,76.00,KINS 011655Z AUTO 13006KT 5SM -DZ FEW002 SCT015 SCT030 BKN065 OVC095 25/17 A3013 RMK AO2 RAB37E54DZB54 SLP154 P0007 T02450165 $,M
RNO,2023-08-01 16:55,-119.7711,39.4839,1341.00,78.00,32.00,18.67,0.00,0.00,0.00,30.17,1015.50,10.00,M,BKN,M,M,M,21000.00,M,M,M,M,M,M,M,M,M,M,78.00,KRNO 011655Z 00000KT 10SM BKN210 26/00 A3017 RMK AO2 SLP155 T02560000 $,M
RTS,2023-08-01 16:55,-119.8764,39.6682,1539.00,75.20,24.80,15.25,140.00,5.00,0.00,30.21,M,10.00,M,CLR,M,M,M,M,M,M,M,M,M,M,M,M,M,M,75.20,KRTS 011655Z AUTO 14005KT 10SM CLR 24/M04 A3021 RMK AO2,M
05U,2023-08-01 16:55,-116.0051,39.6042,1811.23,78.80,46.40,31.90,M,M,0.00,30.27,M,10.00,M,M,M,M,M,M,M,M,M,M,M,M,M,M,M,M,78.80,K05U 011655Z AUTO 10SM 26/08 A3027 RMK A01,M
MEV,2023-08-01 16:55,-119.7500,38.9963,1441.42,75.20,37.40,25.40,0.00,0.00,0.00,30.18,M,10.00,M,CLR,M,M,M,M,M,M,M,M,M,M,M,M,M,M,75.20,KMEV 011655Z AUTO 00000KT 10SM CLR 24/03 A3018 RMK AO2,M
BAM,2023-08-01 16:55,-116.8743,40.5990,1382.36,82.40,26.60,12.97,330.00,6.00,0.00,30.15,M,10.00,M,CLR,M,M,M,M,M,M,M,M,M,M,M,M,M,M,79.92,KBAM 011655Z AUTO 33006KT 10SM CLR 28/M03 A3015 RMK AO1,M
HTH,2023-08-01 16:55,-118.6315,38.5448,1282.89,80.60,39.20,22.81,M,5.00,0.00,30.15,M,10.00,M,CLR,M,M,M,M,M,M,M,M,M,M,M,M,M,M,79.10,KHTH 011655Z AUTO VRB05KT 10SM CLR 27/04 A3015 RMK A01,M
TMT,2023-08-01 16:55,-117.1971,39.4643,1749.34,77.00,39.00,25.47,260.00,4.00,0.00,30.25,M,M,M,CLR,M,M,M,M,M,M,M,M,M,M,M,M,M,M,77.00,KTMT 011655Z AUTO 26004KT CLR 25/04 A3025 RMK AO2 T02490038 PWINO,M
10U,2023-08-01 16:55,-116.1876,41.9532,1637.00,78.80,35.60,21.00,0.00,0.00,0.00,30.19,M,10.00,M,CLR,M,M,M,M,M,M,M,M,M,M,M,M,M,M,78.80,K10U 011655Z AUTO 00000KT 10SM CLR 26/02 A3019 RMK AO2,M
LSV,2023-08-01 16:55,-115.0343,36.2362,570.00,86.00,60.80,42.80,20.00,15.00,0.00,30.05,1015.10,10.00,M,FEW,M,M,M,20000.00,M,M,M,M,M,M,M,M,M,M,86.05,KLSV 011655Z AUTO 02015KT 10SM FEW200 30/16 A3005 RMK AO2 SLP151 T03000160 $,M
EKO,2023-08-01 16:56,-115.7860,40.8242,1367.00,82.00,43.00,25.24,80.00,4.00,0.00,30.18,1015.00,10.00,M,CLR,M,M,M,M,M,M,M,M,M,M,M,M,M,M,80.15,KEKO 011656Z AUTO 08004KT 10SM CLR 28/06 A3018 RMK AO2 SLP150 T02780061,M
WMC,2023-08-01 16:56,-117.8072,40.9019,1315.00,83.00,27.00,12.93,M,3.00,0.00,30.14,1015.10,10.00,M,CLR,M,M,M,M,M,M,M,M,M,M,M,M,M,M,80.35,KWMC 011656Z AUTO VRB03KT 10SM CLR 28/M03 A3014 RMK AO2 SLP151 T02831028,M
NFL,2023-08-01 16:56,-118.7010,39.4166,1199.00,79.00,37.00,22.05,200.00,4.00,0.00,30.13,1016.70,10.00,M,SCT,SCT,BKN,BKN,10000.00,15000.00,20000.00,24000.00,M,M,M,M,M,M,M,79.00,KNFL 011656Z 20004KT 10SM SCT100 SCT150 BKN200 BKN240 26/03 A3013 RMK AO2 SLP167 T02610028 $,M
HND,2023-08-01 16:56,-115.1344,35.9729,742.79,81.00,62.00,52.48,50.00,7.00,0.00,30.13,1018.80,10.00,M,CLR,M,M,M,M,M,M,M,M,M,M,M,M,M,M,82.04,KHND 011656Z 05007KT 10SM CLR 27/17 A3013 RMK AO2 SLP188 T02720167,M
TPH,2023-08-01 16:56,-117.0904,38.0505,1654.00,76.00,52.00,43.13,130.00,9.00,0.00,30.25,1015.80,10.00,M,SCT,BKN,M,M,8000.00,10000.00,M,M,M,M,M,M,M,M,M,76.00,KTPH 011656Z AUTO 13009KT 10SM SCT080 BKN100 24/11 A3025 RMK AO2 SLP158 T02440111,M
LAS,2023-08-01 16:56,-115.1634,36.0719,663.00,82.00,63.00,52.62,110.00,5.00,0.00,30.09,1016.40,10.00,M,FEW,BKN,BKN,M,9000.00,12000.00,20000.00,M,M,M,M,M,M,M,M,83.17,KLAS 011656Z 11005KT 10SM FEW090 BKN120 BKN200 28/17 A3009 RMK AO2 SLP164 T02780172,M
BVU,2023-08-01 17:15,-114.8611,35.9475,671.00,86.00,60.80,42.80,70.00,7.00,0.00,30.08,M,10.00,M,SCT,M,M,M,8500.00,M,M,M,M,M,M,M,M,M,M,86.05,KBVU 011715Z AUTO 07007KT 10SM SCT085 30/16 A3008 RMK AO2,M
CXP,2023-08-01 17:15,-119.7326,39.1923,1431.00,78.80,32.00,18.18,0.00,0.00,0.00,30.19,M,10.00,M,CLR,M,M,M,M,M,M,M,M,M,M,M,M,M,M,78.80,KCXP 011715Z AUTO 00000KT 10SM CLR 26/00 A3019 RMK AO2,M
RTS,2023-08-01 17:15,-119.8764,39.6682,1539.00,77.00,23.00,13.32,0.00,0.00,0.00,30.21,M,10.00,M,CLR,M,M,M,M,M,M,M,M,M,M,M,M,M,M,77.00,KRTS 011715Z AUTO 00000KT 10SM CLR 25/M05 A3021 RMK AO2,M
05U,2023-08-01 17:15,-116.0051,39.6042,1811.23,77.00,50.00,38.74,M,M,0.00,30.27,M,10.00,M,M,M,M,M,M,M,M,M,M,M,M,M,M,M,M,77.00,K05U 011715Z AUTO 10SM 25/10 A3027 RMK A01,M
MEV,2023-08-01 17:15,-119.7500,38.9963,1441.42,77.00,33.80,20.74,M,3.00,0.00,30.17,M,10.00,M,CLR,M,M,M,M,M,M,M,M,M,M,M,M,M,M,77.00,KMEV 011715Z AUTO VRB03KT 10SM CLR 25/01 A3017 RMK AO2,M
BAM,2023-08-01 17:15,-116.8743,40.5990,1382.36,84.20,30.20,14.18,10.00,5.00,0.00,30.15,M,10.00,M,CLR,M,M,M,M,M,M,M,M,M,M,M,M,M,M,81.26,KBAM 011715Z AUTO 01005KT 10SM CLR 29/M01 A3015 RMK AO1,M
HTH,2023-08-01 17:15,-118.6315,38.5448,1282.89,80.60,33.80,18.42,330.00,5.00,0.00,30.15,M,10.00,M,CLR,M,M,M,M,M,M,M,M,M,M,M,M,M,M,78.88,KHTH 011715Z AUTO 33005KT 10SM CLR 27/01 A3015 RMK A01,M
TMT,2023-08-01 17:15,-117.1971,39.4643,1749.34,78.00,31.00,17.93,200.00,4.00,0.00,30.25,M,M,M,CLR,M,M,M,M,M,M,M,M,M,M,M,M,M,M,78.00,KTMT 011715Z AUTO 20004KT CLR 26/M01 A3025 RMK AO2 T02561006 PWINO,M
10U,2023-08-01 17:15,-116.1876,41.9532,1637.00,84.20,33.80,16.39,M,M,0.00,30.19,M,10.00,M,CLR,M,M,M,M,M,M,M,M,M,M,M,M,M,M,81.30,K10U 011715Z AUTO 8/16666708KT 10SM CLR 29/01 A3019 RMK AO2,M
BVU,2023-08-01 17:35,-114.8611,35.9475,671.00,86.00,60.80,42.80,70.00,6.00,0.00,30.08,M,10.00,M,CLR,M,M,M,M,M,M,M,M,M,M,M,M,M,M,86.05,KBVU 011735Z AUTO 07006KT 10SM CLR 30/16 A3008 RMK AO2,M
CXP,2023-08-01 17:35,-119.7326,39.1923,1431.00,78.80,32.00,18.18,0.00,0.00,0.00,30.18,M,10.00,M,CLR,M,M,M,M,M,M,M,M,M,M,M,M,M,M,78.80,KCXP 011735Z AUTO 00000KT 10SM CLR 26/M00 A3018 RMK AO2,M
RTS,2023-08-01 17:35,-119.8764,39.6682,1539.00,78.80,23.00,12.55,0.00,0.00,0.00,30.21,M,10.00,M,CLR,M,M,M,M,M,M,M,M,M,M,M,M,M,M,78.80,KRTS 011735Z AUTO 00000KT 10SM CLR 26/M05 A3021 RMK AO2,M
MEV,2023-08-01 17:35,-119.7500,38.9963,1441.42,78.80,33.80,19.55,0.00,0.00,0.00,30.17,M,10.00,M,CLR,M,M,M,M,M,M,M,M,M,M,M,M,M,M,78.80,KMEV 011735Z AUTO 00000KT 10SM CLR 26/01 A3017 RMK AO2,M
05U,2023-08-01 17:35,-116.0051,39.6042,1811.23,77.00,48.20,36.22,M,M,0.00,30.28,M,10.00,M,M,M,M,M,M,M,M,M,M,M,M,M,M,M,M,77.00,K05U 011735Z AUTO 10SM 25/09 A3028 RMK A01,M
BAM,2023-08-01 17:35,-116.8743,40.5990,1382.36,86.00,26.60,11.55,350.00,5.00,0.00,30.15,M,10.00,M,CLR,M,M,M,M,M,M,M,M,M,M,M,M,M,M,82.39,KBAM 011735Z AUTO 35005KT 10SM CLR 30/M03 A3015 RMK AO1,M
HTH,2023-08-01 17:35,-118.6315,38.5448,1282.89,82.40,32.00,16.17,340.00,6.00,0.00,30.15,M,10.00,M,CLR,M,M,M,M,M,M,M,M,M,M,M,M,M,M,80.00,KHTH 011735Z AUTO 34006KT 10SM CLR 28/M00 A3015 RMK A01,M
TMT,2023-08-01 17:35,-117.1971,39.4643,1749.34,79.00,28.20,15.48,200.00,3.00,0.00,30.24,M,M,M,CLR,M,M,M,M,M,M,M,M,M,M,M,M,M,M,79.00,KTMT 011735Z AUTO 20003KT CLR 26/M02 A3024 RMK AO2 T02611021 PWINO,M
10U,2023-08-01 17:35,-116.1876,41.9532,1637.00,84.20,35.60,17.61,80.00,8.00,0.00,30.19,M,10.00,M,CLR,M,M,M,M,M,M,M,M,M,M,M,M,M,M,81.34,K10U 011735Z AUTO 08008KT 10SM CLR 29/02 A3019 RMK AO2,M
INS,2023-08-01 17:36,-115.6733,36.5872,955.00,75.20,60.80,60.90,0.00,0.00,0.00,30.14,1015.90,9.00,M,FEW,FEW,FEW,SCT,2800.00,3900.00,5500.00,8000.00,M,M,M,M,M,M,M,75.20,KINS 011736Z AUTO 00000KT 9SM FEW028 FEW039 FEW055 SCT080 OVC110 24/16 A3014 RMK AO2 DZE1657RAB1657E07DZB07E18RAB18E33DZB33E36 SLP159 $,M
BAM,2023-08-01 17:50,-116.8743,40.5990,1382.36,86.00,26.60,11.55,0.00,0.00,0.00,30.15,M,10.00,M,CLR,M,M,M,M,M,M,M,M,M,M,M,M,M,M,82.39,KBAM 011750Z AUTO 00000KT 10SM CLR 30/M03 A3015 RMK AO1,M
P68,2023-08-01 17:53,-116.0056,39.6014,1993.00,74.00,50.00,42.82,100.00,9.00,0.00,30.25,1015.40,M,M,M,M,M,M,M,M,M,M,M,M,M,M,M,M,M,74.00,KP68 011753Z AUTO 10009KT 23/10 A3025 RMK AO1 SLP154 T02330100 10250 20178 52008,M
DRA,2023-08-01 17:53,-116.0278,36.6206,1009.00,84.00,56.00,38.42,110.00,11.00,0.00,30.13,1015.10,10.00,M,CLR,M,M,M,M,M,M,M,M,M,M,M,M,M,M,83.05,KDRA 011753Z AUTO 11011KT 10SM CLR 29/13 A3013 RMK AO2 SLP151 T02890133 10289 20256 50010,M
ELY,2023-08-01 17:53,-114.8453,39.2950,1909.00,75.00,53.00,46.27,M,6.00,0.00,30.30,1015.80,10.00,M,FEW,M,M,M,12000.00,M,M,M,M,M,M,M,M,M,M,75.00,KELY 011753Z AUTO VRB06KT 10SM FEW120 24/12 A3030 RMK AO2 SLP158 T02390117 10239 20167 50001,M
VGT,2023-08-01 17:53,-115.1933,36.2111,667.00,87.00,60.00,40.29,100.00,9.00,0.00,30.09,1017.60,10.00,M,FEW,M,M,M,12000.00,M,M,M,M,M,M,M,M,M,M,86.70,KVGT 011753Z 10009KT 10SM FEW120 31/16 A3009 RMK AO2 SLP176 T03060156 10306 20267 51008,M
LOL,2023-08-01 17:53,-118.5701,40.0684,1192.43,83.00,29.00,14.04,150.00,4.00,0.00,30.11,1014.80,10.00,M,CLR,M,M,M,M,M,M,M,M,M,M,M,M,M,M,80.37,KLOL 011753Z AUTO 15004KT 10SM CLR 28/M02 A3011 RMK AO2 SLP148 T02831017 10289 20133 50002,M
BVU,2023-08-01 17:55,-114.8611,35.9475,671.00,86.00,59.00,40.14,70.00,6.00,0.00,30.08,M,10.00,M,CLR,M,M,M,M,M,M,M,M,M,M,M,M,M,M,85.47,KBVU 011755Z AUTO 07006KT 10SM CLR 30/15 A3008 RMK AO2,M
CXP,2023-08-01 17:55,-119.7326,39.1923,1431.00,84.20,32.00,15.25,0.00,0.00,0.00,30.17,M,10.00,M,CLR,M,M,M,M,M,M,M,M,M,M,M,M,M,M,81.28,KCXP 011755Z AUTO 00000KT 10SM CLR 29/00 A3017 RMK AO2,M
INS,2023-08-01 17:55,-115.6733,36.5872,955.00,77.00,64.00,64.21,260.00,5.00,0.02,30.14,1015.80,10.00,M,FEW,OVC,M,M,9000.00,11000.00,M,M,M,M,M,M,M,M,M,77.00,KINS 011755Z AUTO 26005KT 10SM FEW090 OVC110 25/18 A3014 RMK AO2 DZE1657RAB1657E07DZB07E18RAB18E33DZB33E36 SLP158 P0002 60009 T02490178 10269 20239 51016 $,M
LSV,2023-08-01 17:55,-115.0343,36.2362,570.00,87.00,59.70,39.86,20.00,10.00,0.00,30.05,1015.10,10.00,M,FEW,SCT,BKN,M,13000.00,17000.00,20000.00,M,M,M,M,M,M,M,M,86.60,KLSV 011755Z 02010KT 10SM FEW130 SCT170 BKN200 31/15 A3005 RMK AO2A SLP151 T03060154 10306 20255 50004 $,M
RTS,2023-08-01 17:55,-119.8764,39.6682,1539.00,78.80,24.80,13.54,0.00,0.00,0.00,30.20,M,10.00,M,CLR,M,M,M,M,M,M,M,M,M,M,M,M,M,M,78.80,KRTS 011755Z AUTO 00000KT 10SM CLR 26/M04 A3020 RMK AO2,M
05U,2023-08-01 17:55,-116.0051,39.6042,1811.23,75.20,50.00,41.14,M,M,0.00,30.28,M,10.00,M,M,M,M,M,M,M,M,M,M,M,M,M,M,M,M,75.20,K05U 011755Z AUTO 10SM 24/10 A3028 RMK A01,M
MEV,2023-08-01 17:55,-119.7500,38.9963,1441.42,80.60,35.60,19.79,280.00,4.00,0.00,30.16,M,10.00,M,CLR,M,M,M,M,M,M,M,M,M,M,M,M,M,M,78.94,KMEV 011755Z AUTO 28004KT 10SM CLR 27/02 A3016 RMK AO2,M
HTH,2023-08-01 17:55,-118.6315,38.5448,1282.89,84.20,30.20,14.18,350.00,5.00,0.00,30.14,M,10.00,10.00,CLR,M,M,M,M,M,M,M,M,M,M,M,M,M,M,81.26,KHTH 011755Z AUTO 35005G10KT 10SM CLR 29/M01 A3014 RMK A01,M
RNO,2023-08-01 17:55,-119.7711,39.4839,1341.00,82.40,30.20,15.03,0.00,0.00,0.00,30.15,M,10.00,M,BKN,M,M,M,21000.00,M,M,M,M,M,M,M,M,M,M,79.97,KRNO 011755Z COR 00000KT 10SM BKN210 28/M01 A3015 RMK AO2 SLPNO 10278 20178 58004 $,M
TMT,2023-08-01 17:55,-117.1971,39.4643,1749.34,79.00,27.50,15.04,0.00,0.00,0.00,30.24,M,M,M,CLR,M,M,M,M,M,M,M,M,M,M,M,M,M,M,79.00,KTMT 011755Z AUTO 00000KT CLR 26/M02 A3024 RMK AO2 T02611025 10265 20062 PWINO,M
10U,2023-08-01 17:55,-116.1876,41.9532,1637.00,84.20,33.80,16.39,M,5.00,0.00,30.19,M,10.00,M,CLR,M,M,M,M,M,M,M,M,M,M,M,M,M,M,81.30,K10U 011755Z AUTO VRB05KT 10SM CLR 29/01 A3019 RMK AO2,M
EKO,2023-08-01 17:56,-115.7860,40.8242,1367.00,83.00,48.00,29.54,170.00,5.00,0.00,30.18,1014.70,10.00,M,CLR,M,M,M,M,M,M,M,M,M,M,M,M,M,M,81.18,KEKO 011756Z AUTO 17005KT 10SM CLR 28/09 A3018 RMK AO2 SLP147 T02830089 10283 20172 50000,M
WMC,2023-08-01 17:56,-117.8072,40.9019,1315.00,87.00,24.00,10.04,M,3.00,0.00,30.13,1015.10,10.00,M,CLR,M,M,M,M,M,M,M,M,M,M,M,M,M,M,82.92,KWMC 011756Z AUTO VRB03KT 10SM CLR 31/M04 A3013 RMK AO2 SLP151 T03061044 10311 20106 50000,M
NFL,2023-08-01 17:56,-118.7010,39.4166,1199.00,82.00,33.00,17.05,0.00,0.00,0.00,30.12,1016.60,10.00,M,SCT,SCT,BKN,BKN,10000.00,15000.00,20000.00,24000.00,M,M,M,M,M,M,M,79.75,KNFL 011756Z 00000KT 10SM SCT100 SCT150 BKN200 BKN240 28/01 A3012 RMK AO2 SLP166 T02780006 10278 20133 50003 $,M
HND,2023-08-01 17:56,-115.1344,35.9729,742.79,84.00,62.00,47.61,10.00,8.00,0.00,30.12,1018.70,10.00,M,CLR,M,M,M,M,M,M,M,M,M,M,M,M,M,M,84.64,KHND 011756Z 01008KT 10SM CLR 29/17 A3012 RMK AO2 SLP187 60000 T02890167 10289 20244 50006,M
TPH,2023-08-01 17:56,-117.0904,38.0505,1654.00,81.00,50.00,33.97,170.00,12.00,0.00,30.24,1014.90,10.00,22.00,FEW,M,M,M,12000.00,M,M,M,M,M,M,M,M,M,M,80.12,KTPH 011756Z AUTO 17012G22KT 10SM FEW120 27/10 A3024 RMK AO2 SLP149 T02720100 10272 20206 50002,M
LAS,2023-08-01 17:56,-115.1634,36.0719,663.00,84.00,63.00,49.32,320.00,5.00,0.00,30.09,1016.30,10.00,M,SCT,BKN,M,M,12000.00,20000.00,M,M,M,M,M,M,M,M,M,84.99,KLAS 011756Z 32005KT 10SM SCT120 BKN200 29/17 A3009 RMK AO2 SLP163 CB DSNT S 60012 T02890172 10289 20239 50011,M
HND,2023-08-01 17:58,-115.1344,35.9729,742.79,84.20,62.60,48.32,310.00,7.00,0.00,30.12,M,10.00,M,CLR,M,M,M,M,M,M,M,M,M,M,M,M,M,M,85.03,KHND 011758Z 31007KT 10SM SKC 29/17 A3012 RMK SP,M
BAM,2023-08-01 18:10,-116.8743,40.5990,1382.36,87.80,24.80,10.12,10.00,4.00,0.00,30.14,M,10.00,M,CLR,M,M,M,M,M,M,M,M,M,M,M,M,M,M,83.56,KBAM 011810Z AUTO 01004KT 10SM CLR 31/M04 A3014 RMK AO1,M
BVU,2023-08-01 18:15,-114.8611,35.9475,671.00,87.80,60.80,40.41,80.00,6.00,0.00,30.07,M,10.00,M,CLR,M,M,M,M,M,M,M,M,M,M,M,M,M,M,87.75,KBVU 011815Z AUTO 08006KT 10SM CLR 31/16 A3007 RMK AO2,M
CXP,2023-08-01 18:15,-119.7326,39.1923,1431.00,84.20,30.20,14.18,0.00,0.00,0.00,30.17,M,10.00,M,CLR,M,M,M,M,M,M,M,M,M,M,M,M,M,M,81.26,KCXP 011815Z AUTO 00000KT 10SM CLR 29/M01 A3017 RMK AO2,M
RTS,2023-08-01 18:15,-119.8764,39.6682,1539.00,80.60,26.60,13.75,0.00,0.00,0.00,30.20,M,10.00,M,CLR,M,M,M,M,M,M,M,M,M,M,M,M,M,M,78.68,KRTS 011815Z AUTO 00000KT 10SM CLR 27/M03 A3020 RMK AO2,M
05U,2023-08-01 18:15,-116.0051,39.6042,1811.23,75.20,50.00,41.14,M,M,0.00,30.28,M,10.00,M,M,M,M,M,M,M,M,M,M,M,M,M,M,M,M,75.20,K05U 011815Z AUTO 10SM 24/10 A3028 RMK A01,M
MEV,2023-08-01 18:15,-119.7500,38.9963,1441.42,82.40,30.20,15.03,0.00,0.00,0.00,30.16,M,10.00,M,CLR,M,M,M,M,M,M,M,M,M,M,M,M,M,M,79.97,KMEV 011815Z AUTO 00000KT 10SM CLR 28/M01 A3016 RMK AO2,M
HTH,2023-08-01 18:15,-118.6315,38.5448,1282.89,84.20,26.60,12.23,320.00,7.00,0.00,30.14,M,10.00,M,CLR,M,M,M,M,M,M,M,M,M,M,M,M,M,M,81.13,KHTH 011815Z AUTO 32007KT 10SM CLR 29/M03 A3014 RMK A01,M
TMT,2023-08-01 18:15,-117.1971,39.4643,1749.34,80.00,29.70,15.92,250.00,3.00,0.00,30.24,M,M,M,CLR,M,M,M,M,M,M,M,M,M,M,M,M,M,M,78.45,KTMT 011815Z AUTO 25003KT CLR 27/M01 A3024 RMK AO2 T02661013 PWINO,M
10U,2023-08-01 18:15,-116.1876,41.9532,1637.00,86.00,32.00,14.40,M,5.00,0.00,30.18,M,10.00,10.00,CLR,M,M,M,M,M,M,M,M,M,M,M,M,M,M,82.64,K10U 011815Z AUTO VRB05G10KT 10SM CLR 30/M00 A3018 RMK AO2,M
BAM,2023-08-01 18:30,-116.8743,40.5990,1382.36,87.80,23.00,9.39,20.00,3.00,0.00,30.14,M,10.00,M,CLR,M,M,M,M,M,M,M,M,M,M,M,M,M,M,83.43,KBAM 011830Z AUTO 02003KT 10SM CLR 31/M05 A3014 RMK AO1,M
BVU,2023-08-01 18:35,-114.8611,35.9475,671.00,87.80,59.00,37.90,M,5.00,0.00,30.06,M,10.00,M,CLR,M,M,M,M,M,M,M,M,M,M,M,M,M,M,87.12,KBVU 011835Z AUTO VRB05KT 10SM CLR 31/15 A3006 RMK AO2,M
CXP,2023-08-01 18:35,-119.7326,39.1923,1431.00,84.20,30.20,14.18,0.00,0.00,0.00,30.17,M,10.00,M,CLR,M,M,M,M,M,M,M,M,M,M,M,M,M,M,81.26,KCXP 011835Z AUTO 00000KT 10SM CLR 29/M01 A3017 RMK AO2,M
RTS,2023-08-01 18:35,-119.8764,39.6682,1539.00,80.60,26.60,13.75,160.00,6.00,0.00,30.20,M,10.00,M,CLR,M,M,M,M,M,M,M,M,M,M,M,M,M,M,78.68,KRTS 011835Z AUTO 16006KT 10SM CLR 27/M03 A3020 RMK AO2,M
05U,2023-08-01 18:35,-116.0051,39.6042,1811.23,77.00,50.00,38.74,M,M,0.00,30.28,M,10.00,M,M,M,M,M,M,M,M,M,M,M,M,M,M,M,M,77.00,K05U 011835Z AUTO 10SM 25/10 A3028 RMK A01,M
MEV,2023-08-01 18:35,-119.7500,38.9963,1441.42,84.20,28.40,13.18,0.00,0.00,0.00,30.15,M,10.00,M,CLR,M,M,M,M,M,M,M,M,M,M,M,M,M,M,81.25,KMEV 011835Z AUTO 00000KT 10SM CLR 29/M02 A3015 RMK AO2,M
HTH,2023-08-01 18:35,-118.6315,38.5448,1282.89,86.00,26.60,11.55,M,5.00,0.00,30.13,M,10.00,M,CLR,M,M,M,M,M,M,M,M,M,M,M,M,M,M,82.39,KHTH 011835Z AUTO VRB05KT 10SM CLR 30/M03 A3013 RMK A01,M
TMT,2023-08-01 18:35,-117.1971,39.4643,1749.34,80.40,30.60,16.30,310.00,3.00,0.00,30.24,M,M,M,CLR,M,M,M,M,M,M,M,M,M,M,M,M,M,M,78.91,KTMT 011835Z AUTO 31003KT CLR 27/M01 A3024 RMK AO2 T02691008 PWINO,M
10U,2023-08-01 18:35,-116.1876,41.9532,1637.00,86.00,30.20,13.38,M,5.00,0.00,30.18,M,10.00,M,CLR,M,M,M,M,M,M,M,M,M,M,M,M,M,M,82.64,K10U 011835Z AUTO VRB05KT 10SM CLR 30/M01 A3018 RMK AO2,M
BAM,2023-08-01 18:50,-116.8743,40.5990,1382.36,89.60,24.80,9.56,310.00,3.00,0.00,30.13,M,10.00,M,CLR,M,M,M,M,M,M,M,M,M,M,M,M,M,M,84.88,KBAM 011850Z AUTO 31003KT 10SM CLR 32/M04 A3013 RMK AO1,M
P68,2023-08-01 18:53,-116.0056,39.6014,1993.00,77.00,46.00,33.34,130.00,6.00,0.00,30.24,1014.90,M,M,M,M,M,M,M,M,M,M,M,M,M,M,M,M,M,77.00,KP68 011853Z AUTO 13006KT 25/08 A3024 RMK AO1 SLP149 T02500078,M
DRA,2023-08-01 18:53,-116.0278,36.6206,1009.00,84.00,57.00,39.83,100.00,12.00,0.00,30.13,1015.00,10.00,M,FEW,M,M,M,12000.00,M,M,M,M,M,M,M,M,M,M,83.26,KDRA 011853Z AUTO 10012KT 10SM FEW120 29/14 A3013 RMK AO2 SLP150 T02890139,M
ELY,2023-08-01 18:53,-114.8453,39.2950,1909.00,77.00,51.00,40.21,M,6.00,0.00,30.28,1015.00,10.00,M,SCT,M,M,M,12000.00,M,M,M,M,M,M,M,M,M,M,77.00,KELY 011853Z AUTO VRB06KT 10SM SCT120 25/11 A3028 RMK AO2 SLP150 T02500106,M
VGT,2023-08-01 18:53,-115.1933,36.2111,667.00,89.00,60.00,37.82,M,3.00,0.00,30.07,1017.30,10.00,M,CLR,M,M,M,M,M,M,M,M,M,M,M,M,M,M,88.63,KVGT 011853Z VRB03KT 10SM CLR 32/16 A3007 RMK AO2 SLP173 T03170156,M
LOL,2023-08-01 18:53,-118.5701,40.0684,1192.43,85.00,31.00,14.28,150.00,6.00,0.00,30.10,1015.00,10.00,M,CLR,M,M,M,M,M,M,M,M,M,M,M,M,M,M,81.87,KLOL 011853Z AUTO 15006KT 10SM CLR 29/M01 A3010 RMK AO2 SLP150 T02941006,M
BVU,2023-08-01 18:55,-114.8611,35.9475,671.00,89.60,59.00,35.81,50.00,7.00,0.00,30.05,M,10.00,M,CLR,M,M,M,M,M,M,M,M,M,M,M,M,M,M,88.86,KBVU 011855Z AUTO 05007KT 10SM CLR 32/15 A3005 RMK AO2,M
CXP,2023-08-01 18:55,-119.7326,39.1923,1431.00,86.00,28.40,12.44,M,5.00,0.00,30.16,M,10.00,M,CLR,M,M,M,M,M,M,M,M,M,M,M,M,M,M,82.54,KCXP 011855Z AUTO VRB05KT 10SM CLR 30/M02 A3016 RMK AO2,M
INS,2023-08-01 18:55,-115.6733,36.5872,955.00,81.00,61.70,51.92,0.00,0.00,0.00,30.13,1015.40,10.00,M,FEW,FEW,BKN,M,9500.00,12000.00,15000.00,M,M,M,M,M,M,M,M,81.97,KINS 011855Z AUTO 00000KT 10SM FEW095 FEW120 BKN150 27/17 A3013 RMK AO2 SLP154 T02720165 $,M
RNO,2023-08-01 18:55,-119.7711,39.4839,1341.00,86.00,29.00,12.75,250.00,6.00,0.00,30.14,1014.20,10.00,M,FEW,BKN,M,M,10000.00,21000.00,M,M,M,M,M,M,M,M,M,82.59,KRNO 011855Z 25006KT 10SM FEW100 BKN210 30/M02 A3014 RMK AO2 SLP142 T03001017 $,M
RTS,2023-08-01 18:55,-119.8764,39.6682,1539.00,80.60,26.60,13.75,0.00,0.00,0.00,30.19,M,10.00,M,CLR,M,M,M,M,M,M,M,M,M,M,M,M,M,M,78.68,KRTS 011855Z AUTO 00000KT 10SM CLR 27/M03 A3019 RMK AO2,M
05U,2023-08-01 18:55,-116.0051,39.6042,1811.23,78.80,46.40,31.90,M,M,0.00,30.27,M,10.00,M,M,M,M,M,M,M,M,M,M,M,M,M,M,M,M,78.80,K05U 011855Z AUTO 10SM 26/08 A3027 RMK A01,M
MEV,2023-08-01 18:55,-119.7500,38.9963,1441.42,84.20,30.20,14.18,0.00,0.00,0.00,30.15,M,10.00,M,CLR,M,M,M,M,M,M,M,M,M,M,M,M,M,M,81.26,KMEV 011855Z AUTO 00000KT 10SM CLR 29/M01 A3015 RMK AO2,M
HTH,2023-08-01 18:55,-118.6315,38.5448,1282.89,86.00,26.60,11.55,340.00,6.00,0.00,30.13,M,10.00,M,CLR,M,M,M,M,M,M,M,M,M,M,M,M,M,M,82.39,KHTH 011855Z AUTO 34006KT 10SM CLR 30/M03 A3013 RMK A01,M
TMT,2023-08-01 18:55,-117.1971,39.4643,1749.34,82.40,32.00,16.17,0.00,0.00,0.00,30.22,M,M,M,CLR,M,M,M,M,M,M,M,M,M,M,M,M,M,M,80.00,KTMT 011855Z AUTO 00000KT CLR 28/00 A3022 RMK AO2 T02800001 PWINO,M
LSV,2023-08-01 18:55,-115.0343,36.2362,570.00,90.70,60.80,36.88,360.00,8.00,0.00,30.03,1014.50,10.00,M,FEW,FEW,SCT,M,13000.00,16000.00,19000.00,M,M,M,M,M,M,M,M,90.66,KLSV 011855Z 36008KT 10SM FEW130 FEW160 SCT190 33/16 A3003 RMK AO2A SLP145 T03260160 $,M
10U,2023-08-01 18:55,-116.1876,41.9532,1637.00,87.80,28.40,11.74,M,5.00,0.00,30.17,M,10.00,M,CLR,M,M,M,M,M,M,M,M,M,M,M,M,M,M,83.84,K10U 011855Z AUTO VRB05KT 10SM CLR 31/M02 A3017 RMK AO2,M
EKO,2023-08-01 18:56,-115.7860,40.8242,1367.00,84.00,49.00,29.69,170.00,7.00,0.00,30.17,1014.90,10.00,M,FEW,OVC,M,M,6500.00,11000.00,M,M,M,M,M,M,M,M,M,81.98,KEKO 011856Z AUTO 17007KT 10SM FEW065 OVC110 29/09 A3017 RMK AO2 SLP149 T02890094,M
WMC,2023-08-01 18:56,-117.8072,40.9019,1315.00,89.00,24.00,9.42,290.00,4.00,0.00,30.11,1014.60,10.00,M,CLR,M,M,M,M,M,M,M,M,M,M,M,M,M,M,84.38,KWMC 011856Z AUTO 29004KT 10SM CLR 32/M04 A3011 RMK AO2 SLP146 T03171044,M
NFL,2023-08-01 18:56,-118.7010,39.4166,1199.00,86.00,28.00,12.23,M,3.00,0.00,30.10,1016.10,10.00,M,FEW,SCT,SCT,BKN,8000.00,12000.00,18000.00,22000.00,M,M,M,M,M,M,M,82.50,KNFL 011856Z VRB03KT 10SM FEW080 SCT120 SCT180 BKN220 30/M02 A3010 RMK AO2 SLP161 T03001022 $,M
HND,2023-08-01 18:56,-115.1344,35.9729,742.79,87.00,62.00,43.25,340.00,5.00,0.00,30.11,1018.20,10.00,M,CLR,M,M,M,M,M,M,M,M,M,M,M,M,M,M,87.44,KHND 011856Z 34005KT 10SM CLR 31/17 A3011 RMK AO2 LTG DSNT S AND SW SLP182 T03060167,M
TPH,2023-08-01 18:56,-117.0904,38.0505,1654.00,81.00,49.00,32.73,190.00,12.00,0.00,30.23,1015.00,10.00,19.00,OVC,M,M,M,11000.00,M,M,M,M,M,M,M,M,M,M,80.02,KTPH 011856Z AUTO 19012G19KT 10SM OVC110 27/09 A3023 RMK AO2 SLP150 T02720094,M
LAS,2023-08-01 18:56,-115.1634,36.0719,663.00,87.00,62.00,43.25,M,5.00,0.00,30.07,1015.90,10.00,M,SCT,BKN,M,M,12000.00,20000.00,M,M,M,M,M,M,M,M,M,87.44,KLAS 011856Z VRB05KT 10SM SCT120 BKN200 31/17 A3007 RMK AO2 LTG DSNT S SLP159 CB DSNT S T03060167,M
BAM,2023-08-01 19:10,-116.8743,40.5990,1382.36,89.60,26.60,10.30,10.00,3.00,0.00,30.13,M,10.00,M,CLR,M,M,M,M,M,M,M,M,M,M,M,M,M,M,85.02,KBAM 011910Z AUTO 01003KT 10SM CLR 32/M03 A3013 RMK AO1,M
BVU,2023-08-01 19:15,-114.8611,35.9475,671.00,89.60,59.00,35.81,M,4.00,0.00,30.05,M,10.00,M,CLR,M,M,M,M,M,M,M,M,M,M,M,M,M,M,88.86,KBVU 011915Z AUTO VRB04KT 10SM CLR 32/15 A3005 RMK AO2,M
CXP,2023-08-01 19:15,-119.7326,39.1923,1431.00,87.80,30.20,12.64,M,3.00,0.00,30.16,M,10.00,M,CLR,M,M,M,M,M,M,M,M,M,M,M,M,M,M,84.01,KCXP 011915Z AUTO VRB03KT 10SM CLR 31/M01 A3016 RMK AO2,M
RTS,2023-08-01 19:15,-119.8764,39.6682,1539.00,82.40,24.80,12.03,M,5.00,0.00,30.19,M,10.00,M,CLR,M,M,M,M,M,M,M,M,M,M,M,M,M,M,79.79,KRTS 011915Z AUTO VRB05KT 10SM CLR 28/M04 A3019 RMK AO2,M
05U,2023-08-01 19:15,-116.0051,39.6042,1811.23,80.60,46.40,30.07,M,M,0.00,30.26,M,10.00,M,M,M,M,M,M,M,M,M,M,M,M,M,M,M,M,79.56,K05U 011915Z AUTO 10SM 27/08 A3026 RMK A01,M
MEV,2023-08-01 19:15,-119.7500,38.9963,1441.42,86.00,33.80,15.48,210.00,4.00,0.00,30.14,M,8.00,M,CLR,M,M,M,M,M,M,M,M,M,M,M,M,M,M,82.66,KMEV 011915Z AUTO 21004KT 8SM CLR 30/01 A3014 RMK AO2,M
HTH,2023-08-01 19:15,-118.6315,38.5448,1282.89,86.00,26.60,11.55,340.00,8.00,0.00,30.12,M,10.00,M,CLR,M,M,M,M,M,M,M,M,M,M,M,M,M,M,82.39,KHTH 011915Z AUTO 34008KT 300V020 10SM CLR 30/M03 A3012 RMK A01,M
TMT,2023-08-01 19:15,-117.1971,39.4643,1749.34,82.20,36.50,19.47,290.00,4.00,0.00,30.22,M,M,M,CLR,M,M,M,M,M,M,M,M,M,M,M,M,M,M,79.98,KTMT 011915Z AUTO 29004KT CLR 28/03 A3022 RMK AO2 T02790025 PWINO,M
10U,2023-08-01 19:15,-116.1876,41.9532,1637.00,87.80,28.40,11.74,M,3.00,0.00,30.17,M,10.00,M,CLR,M,M,M,M,M,M,M,M,M,M,M,M,M,M,83.84,K10U 011915Z AUTO VRB03KT 10SM CLR 31/M02 A3017 RMK AO2,M
ELY,2023-08-01 19:24,-114.8453,39.2950,1909.00,81.00,50.00,33.97,250.00,12.00,0.00,30.27,M,10.00,16.00,BKN,M,M,M,6000.00,M,M,M,VCTS,M,M,M,M,M,M,80.12,KELY 011924Z AUTO 25012G16KT 10SM VCTS BKN060 27/10 A3027 RMK AO2 LTG DSNT E T02720100,M
HTH,2023-08-01 19:30,-118.6315,38.5448,1282.89,86.00,26.60,11.55,340.00,6.00,0.00,30.12,M,10.00,M,CLR,M,M,M,M,M,M,M,M,M,M,M,M,M,M,82.39,KHTH 011930Z AUTO 34006KT 10SM CLR 30/M03 A3012 RMK A01,M
BAM,2023-08-01 19:30,-116.8743,40.5990,1382.36,89.60,26.60,10.30,0.00,0.00,0.00,30.13,M,10.00,M,CLR,M,M,M,M,M,M,M,M,M,M,M,M,M,M,85.02,KBAM 011930Z AUTO 00000KT 10SM CLR 32/M03 A3013 RMK AO1,M
BVU,2023-08-01 19:35,-114.8611,35.9475,671.00,91.40,59.00,33.84,60.00,6.00,0.00,30.04,M,10.00,M,CLR,M,M,M,M,M,M,M,M,M,M,M,M,M,M,90.68,KBVU 011935Z AUTO 06006KT 10SM CLR 33/15 A3004 RMK AO2,M
CXP,2023-08-01 19:35,-119.7326,39.1923,1431.00,86.00,28.40,12.44,0.00,0.00,0.00,30.15,M,9.00,M,CLR,M,M,M,M,M,M,M,M,M,M,M,M,M,M,82.54,KCXP 011935Z AUTO 00000KT 9SM CLR 30/M02 A3015 RMK AO2,M
RTS,2023-08-01 19:35,-119.8764,39.6682,1539.00,84.20,28.40,13.18,230.00,6.00,0.00,30.18,M,10.00,M,CLR,M,M,M,M,M,M,M,M,M,M,M,M,M,M,81.25,KRTS 011935Z AUTO 23006KT 10SM CLR 29/M02 A3018 RMK AO2,M
05U,2023-08-01 19:35,-116.0051,39.6042,1811.23,82.40,48.20,30.35,M,M,0.00,30.26,M,10.00,M,M,M,M,M,M,M,M,M,M,M,M,M,M,M,M,80.80,K05U 011935Z AUTO 10SM 28/09 A3026 RMK A01,M
MEV,2023-08-01 19:35,-119.7500,38.9963,1441.42,86.00,32.00,14.40,M,3.00,0.00,30.13,M,10.00,M,CLR,M,M,M,M,M,M,M,M,M,M,M,M,M,M,82.64,KMEV 011935Z AUTO VRB03KT 10SM CLR 30/M00 A3013 RMK AO2,M
TMT,2023-08-01 19:35,-117.1971,39.4643,1749.34,82.80,37.60,19.94,230.00,4.00,0.00,30.22,M,M,M,CLR,M,M,M,M,M,M,M,M,M,M,M,M,M,M,80.41,KTMT 011935Z AUTO 23004KT CLR 28/03 A3022 RMK AO2 LTG DSNT SE T02820031 PWINO,M
10U,2023-08-01 19:35,-116.1876,41.9532,1637.00,89.60,28.40,11.09,10.00,7.00,0.00,30.16,M,10.00,M,CLR,M,M,M,M,M,M,M,M,M,M,M,M,M,M,85.17,K10U 011935Z AUTO 01007KT 330V030 10SM CLR 32/M02 A3016 RMK AO2,M
BAM,2023-08-01 19:50,-116.8743,40.5990,1382.36,91.40,26.60,9.74,340.00,6.00,0.00,30.12,M,10.00,M,CLR,M,M,M,M,M,M,M,M,M,M,M,M,M,M,86.36,KBAM 011950Z AUTO 34006KT 10SM CLR 33/M03 A3012 RMK AO1,M
ELY,2023-08-01 19:51,-114.8453,39.2950,1909.00,78.80,46.40,31.90,260.00,10.00,0.00,30.26,M,10.00,19.00,FEW,FEW,M,M,6500.00,11000.00,M,M,M,M,M,M,M,M,M,78.80,KELY 011951Z AUTO 26010G19KT 10SM FEW065 FEW110 26/08 A3026 RMK AO2 LTG DSNT NW-E,M
P68,2023-08-01 19:53,-116.0056,39.6014,1993.00,81.00,46.00,29.23,30.00,8.00,0.00,30.22,1014.00,M,M,M,M,M,M,M,M,M,M,M,M,M,M,M,M,M,79.76,KP68 011953Z AUTO 03008KT 27/08 A3022 RMK AO1 SLP140 T02720078,M
DRA,2023-08-01 19:53,-116.0278,36.6206,1009.00,89.00,56.00,32.75,100.00,12.00,0.00,30.11,1014.10,10.00,18.00,SCT,M,M,M,12000.00,M,M,M,M,M,M,M,M,M,M,87.37,KDRA 011953Z AUTO 10012G18KT 10SM SCT120 32/13 A3011 RMK AO2 SLP141 T03170133,M
ELY,2023-08-01 19:53,-114.8453,39.2950,1909.00,78.00,46.00,32.26,260.00,10.00,0.00,30.26,1014.30,10.00,19.00,FEW,FEW,M,M,6500.00,11000.00,M,M,M,M,M,M,M,M,M,78.00,KELY 011953Z AUTO 26010G19KT 10SM FEW065 FEW110 26/08 A3026 RMK AO2 LTG DSNT NW-E SLP143 T02560078,M
VGT,2023-08-01 19:53,-115.1933,36.2111,667.00,92.00,60.00,34.42,100.00,6.00,0.00,30.05,1016.50,10.00,M,FEW,M,M,M,10000.00,M,M,M,M,M,M,M,M,M,M,91.69,KVGT 011953Z 10006KT 10SM FEW100 33/16 A3005 RMK AO2 LTG DSNT S SLP165 T03330156,M
LOL,2023-08-01 19:53,-118.5701,40.0684,1192.43,87.00,32.00,13.94,130.00,4.00,0.00,30.08,1014.40,10.00,M,CLR,M,M,M,M,M,M,M,M,M,M,M,M,M,M,83.43,KLOL 011953Z AUTO 13004KT 10SM CLR 31/00 A3008 RMK AO2 SLP144 T03060000,M
BVU,2023-08-01 19:55,-114.8611,35.9475,671.00,91.40,59.00,33.84,350.00,7.00,0.00,30.03,M,10.00,M,CLR,M,M,M,M,M,M,M,M,M,M,M,M,M,M,90.68,KBVU 011955Z AUTO 35007KT 10SM CLR 33/15 A3003 RMK AO2,M
CXP,2023-08-01 19:55,-119.7326,39.1923,1431.00,89.60,28.40,11.09,M,3.00,0.00,30.14,M,10.00,13.00,CLR,M,M,M,M,M,M,M,M,M,M,M,M,M,M,85.17,KCXP 011955Z AUTO VRB03G13KT 10SM CLR 32/M02 A3014 RMK AO2,M
INS,2023-08-01 19:55,-115.6733,36.5872,955.00,82.40,58.30,43.95,90.00,8.00,0.00,30.12,1015.10,10.00,M,SCT,BKN,M,M,13000.00,16000.00,M,M,M,M,M,M,M,M,M,82.31,KINS 011955Z AUTO 09008KT 10SM SCT130 BKN160 28/15 A3012 RMK AO2 SLP151 T02800146 $,M
RNO,2023-08-01 19:55,-119.7711,39.4839,1341.00,89.00,29.00,11.59,0.00,0.00,0.00,30.12,1013.30,10.00,M,SCT,BKN,M,M,14000.00,21000.00,M,M,M,M,M,M,M,M,M,84.78,KRNO 011955Z 00000KT 10SM SCT140 BKN210 32/M02 A3012 RMK AO2 SLP133 T03171017 $,M
RTS,2023-08-01 19:55,-119.8764,39.6682,1539.00,82.40,28.40,13.96,0.00,0.00,0.00,30.18,M,10.00,M,CLR,M,M,M,M,M,M,M,M,M,M,M,M,M,M,79.94,KRTS 011955Z AUTO 00000KT 10SM CLR 28/M02 A3018 RMK AO2,M
05U,2023-08-01 19:55,-116.0051,39.6042,1811.23,82.40,46.40,28.36,M,M,0.00,30.25,M,10.00,M,M,M,M,M,M,M,M,M,M,M,M,M,M,M,M,80.64,K05U 011955Z AUTO 10SM 28/08 A3025 RMK A01,M
MEV,2023-08-01 19:55,-119.7500,38.9963,1441.42,86.00,32.00,14.40,0.00,0.00,0.00,30.13,M,9.00,M,CLR,M,M,M,M,M,M,M,M,M,M,M,M,M,M,82.64,KMEV 011955Z AUTO 00000KT 9SM CLR 30/M00 A3013 RMK AO2,M
HTH,2023-08-01 19:55,-118.6315,38.5448,1282.89,87.80,26.60,10.91,M,3.00,0.00,30.11,M,10.00,10.00,CLR,M,M,M,M,M,M,M,M,M,M,M,M,M,M,83.69,KHTH 011955Z AUTO VRB03G10KT 10SM CLR 31/M03 A3011 RMK A01,M
TMT,2023-08-01 19:55,-117.1971,39.4643,1749.34,82.20,36.50,19.47,260.00,3.00,0.00,30.21,M,M,M,CLR,M,M,M,M,M,M,M,M,M,M,M,M,M,M,79.98,KTMT 011955Z AUTO 26003KT CLR 28/03 A3021 RMK AO2 T02790025 PWINO,M
LSV,2023-08-01 19:55,-115.0343,36.2362,570.00,93.00,59.50,32.77,10.00,5.00,0.00,30.01,1013.80,10.00,M,FEW,FEW,FEW,SCT,9000.00,15000.00,17000.00,19000.00,M,M,M,M,M,M,M,92.55,KLSV 011955Z AUTO 01005KT 10SM FEW090 FEW150 FEW170 SCT190 SCT210 34/15 A3001 RMK AO2 SLP138 T03390153 $,M
10U,2023-08-01 19:55,-116.1876,41.9532,1637.00,89.60,28.40,11.09,350.00,7.00,0.00,30.16,M,10.00,M,CLR,M,M,M,M,M,M,M,M,M,M,M,M,M,M,85.17,K10U 011955Z AUTO 35007KT 320V040 10SM CLR 32/M02 A3016 RMK AO2,M
EKO,2023-08-01 19:56,-115.7860,40.8242,1367.00,82.00,50.00,32.88,200.00,7.00,0.00,30.18,1015.60,10.00,M,FEW,OVC,M,M,7000.00,11000.00,M,M,M,M,M,M,M,M,M,80.73,KEKO 011956Z AUTO 20007KT 10SM FEW070 OVC110 28/10 A3018 RMK AO2 SLP156 T02780100,M
WMC,2023-08-01 19:56,-117.8072,40.9019,1315.00,90.00,22.00,8.39,220.00,4.00,0.00,30.10,1014.30,10.00,M,CLR,M,M,M,M,M,M,M,M,M,M,M,M,M,M,84.98,KWMC 011956Z AUTO 22004KT 10SM CLR 32/M06 A3010 RMK AO2 SLP143 T03221056,M
NFL,2023-08-01 19:56,-118.7010,39.4166,1199.00,91.00,26.00,9.62,10.00,7.00,0.00,30.09,1015.50,10.00,M,SCT,SCT,BKN,BKN,8000.00,12000.00,18000.00,22000.00,M,M,M,M,M,M,M,86.01,KNFL 011956Z 01007KT 10SM SCT080 SCT120 BKN180 BKN220 33/M03 A3009 RMK AO2 SLP155 T03281033 $,M
HND,2023-08-01 19:56,-115.1344,35.9729,742.79,88.00,61.00,40.44,340.00,3.00,0.00,30.09,1017.50,10.00,M,CLR,M,M,M,M,M,M,M,M,M,M,M,M,M,M,88.02,KHND 011956Z 34003KT 10SM CLR 31/16 A3009 RMK AO2 LTG DSNT S AND SW SLP175 T03110161,M
TPH,2023-08-01 19:56,-117.0904,38.0505,1654.00,82.00,47.00,29.39,230.00,8.00,0.00,30.23,1014.80,10.00,M,BKN,M,M,M,10000.00,M,M,M,M,M,M,M,M,M,M,80.44,KTPH 011956Z AUTO 23008KT 10SM BKN100 28/08 A3023 RMK AO2 SLP148 T02780083,M
LAS,2023-08-01 19:56,-115.1634,36.0719,663.00,89.00,61.00,39.18,10.00,6.00,0.00,30.05,1015.10,10.00,M,FEW,SCT,BKN,M,9000.00,12000.00,20000.00,M,M,M,M,M,M,M,M,89.01,KLAS 011956Z 01006KT 10SM FEW090 SCT120 BKN200 32/16 A3005 RMK AO2 LTG DSNT S AND SW SLP151 CB DSNT S T03170161,M
ELY,2023-08-01 20:01,-114.8453,39.2950,1909.00,79.00,45.00,30.05,260.00,9.00,0.00,30.26,M,10.00,M,SCT,M,M,M,11000.00,M,M,M,VCTS,M,M,M,M,M,M,79.00,KELY 012001Z AUTO 26009KT 10SM VCTS SCT110 26/07 A3026 RMK AO2 LTG DSNT NW-E T02610072,M
BAM,2023-08-01 20:10,-116.8743,40.5990,1382.36,91.40,30.20,11.28,20.00,9.00,0.00,30.12,M,10.00,M,CLR,M,M,M,M,M,M,M,M,M,M,M,M,M,M,86.71,KBAM 012010Z AUTO 02009KT 10SM CLR 33/M01 A3012 RMK AO1,M
BVU,2023-08-01 20:15,-114.8611,35.9475,671.00,93.20,59.00,31.99,30.00,12.00,0.00,30.02,M,10.00,M,CLR,M,M,M,M,M,M,M,M,M,M,M,M,M,M,92.57,KBVU 012015Z AUTO 03012KT 10SM CLR 34/15 A3002 RMK AO2,M
CXP,2023-08-01 20:15,-119.7326,39.1923,1431.00,89.60,30.20,11.94,170.00,7.00,0.00,30.14,M,10.00,M,CLR,M,M,M,M,M,M,M,M,M,M,M,M,M,M,85.34,KCXP 012015Z AUTO 17007KT 140V210 10SM CLR 32/M01 A3014 RMK AO2,M
RTS,2023-08-01 20:15,-119.8764,39.6682,1539.00,84.20,26.60,12.23,40.00,6.00,0.00,30.17,M,10.00,12.00,CLR,M,M,M,M,M,M,M,M,M,M,M,M,M,M,81.13,KRTS 012015Z AUTO 04006G12KT 10SM CLR 29/M03 A3017 RMK AO2,M
05U,2023-08-01 20:15,-116.0051,39.6042,1811.23,80.60,44.60,28.08,M,M,0.00,30.25,M,10.00,M,M,M,M,M,M,M,M,M,M,M,M,M,M,M,M,79.42,K05U 012015Z AUTO 10SM 27/07 A3025 RMK A01,M
MEV,2023-08-01 20:15,-119.7500,38.9963,1441.42,86.00,32.00,14.40,0.00,0.00,0.00,30.12,M,9.00,M,CLR,M,M,M,M,M,M,M,M,M,M,M,M,M,M,82.64,KMEV 012015Z AUTO 00000KT 9SM CLR 30/M00 A3012 RMK AO2,M
HTH,2023-08-01 20:15,-118.6315,38.5448,1282.89,87.80,26.60,10.91,M,3.00,0.00,30.10,M,10.00,M,CLR,M,M,M,M,M,M,M,M,M,M,M,M,M,M,83.69,KHTH 012015Z AUTO VRB03KT 10SM CLR 31/M03 A3010 RMK A01,M
TMT,2023-08-01 20:15,-117.1971,39.4643,1749.34,82.60,37.00,19.60,340.00,3.00,0.00,30.21,M,M,M,CLR,M,M,M,M,M,M,M,M,M,M,M,M,M,M,80.26,KTMT 012015Z AUTO 34003KT CLR 28/03 A3021 RMK AO2 LTG DSNT SE T02810027 PWINO,M
10U,2023-08-01 20:15,-116.1876,41.9532,1637.00,87.80,30.20,12.64,0.00,0.00,0.00,30.16,M,10.00,M,CLR,M,M,M,M,M,M,M,M,M,M,M,M,M,M,84.01,K10U 012015Z AUTO 00000KT 10SM CLR 31/M01 A3016 RMK AO2,M
ELY,2023-08-01 20:26,-114.8453,39.2950,1909.00,77.00,46.00,33.34,250.00,12.00,0.00,30.26,M,10.00,M,BKN,OVC,M,M,8000.00,10000.00,M,M,M,M,M,M,M,M,M,77.00,KELY 012026Z AUTO 25012KT 10SM BKN080 OVC100 25/08 A3026 RMK AO2 LTG DSNT ALQDS T02500078,M
BAM,2023-08-01 20:30,-116.8743,40.5990,1382.36,93.20,30.20,10.67,340.00,6.00,0.00,30.11,M,10.00,M,CLR,M,M,M,M,M,M,M,M,M,M,M,M,M,M,88.09,KBAM 012030Z AUTO 34006KT 10SM CLR 34/M01 A3011 RMK AO1,M
BVU,2023-08-01 20:35,-114.8611,35.9475,671.00,93.20,59.00,31.99,70.00,6.00,0.00,30.02,M,10.00,13.00,CLR,M,M,M,M,M,M,M,M,M,M,M,M,M,M,92.57,KBVU 012035Z AUTO 07006G13KT 10SM CLR 34/15 A3002 RMK AO2,M
CXP,2023-08-01 20:35,-119.7326,39.1923,1431.00,91.40,30.20,11.28,150.00,7.00,0.00,30.13,M,10.00,13.00,CLR,M,M,M,M,M,M,M,M,M,M,M,M,M,M,86.71,KCXP 012035Z AUTO 15007G13KT 10SM CLR 33/M01 A3013 RMK AO2,M
RTS,2023-08-01 20:35,-119.8764,39.6682,1539.00,86.00,26.60,11.55,120.00,6.00,0.00,30.16,M,10.00,12.00,CLR,M,M,M,M,M,M,M,M,M,M,M,M,M,M,82.39,KRTS 012035Z AUTO 12006G12KT 10SM CLR 30/M03 A3016 RMK AO2,M
05U,2023-08-01 20:35,-116.0051,39.6042,1811.23,80.60,44.60,28.08,M,M,0.00,30.25,M,10.00,M,M,M,M,M,M,M,M,M,M,M,M,M,M,M,M,79.42,K05U 012035Z AUTO 10SM 27/07 A3025 RMK A01,M
MEV,2023-08-01 20:35,-119.7500,38.9963,1441.42,87.80,32.00,13.59,0.00,0.00,0.00,30.12,M,10.00,M,CLR,M,M,M,M,M,M,M,M,M,M,M,M,M,M,84.08,KMEV 012035Z AUTO 00000KT 10SM CLR 31/00 A3012 RMK AO2,M
HTH,2023-08-01 20:35,-118.6315,38.5448,1282.89,89.60,26.60,10.30,M,5.00,0.00,30.09,M,10.00,M,CLR,M,M,M,M,M,M,M,M,M,M,M,M,M,M,85.02,KHTH 012035Z AUTO VRB05KT 10SM CLR 32/M03 A3009 RMK A01,M
TMT,2023-08-01 20:35,-117.1971,39.4643,1749.34,83.30,37.00,19.16,330.00,4.00,0.00,30.21,M,M,M,CLR,M,M,M,M,M,M,M,M,M,M,M,M,M,M,80.73,KTMT 012035Z AUTO 33004KT CLR 29/03 A3021 RMK AO2 LTG DSNT SE T02850027 PWINO,M
10U,2023-08-01 20:35,-116.1876,41.9532,1637.00,89.60,30.20,11.94,30.00,7.00,0.00,30.15,M,10.00,M,CLR,M,M,M,M,M,M,M,M,M,M,M,M,M,M,85.34,K10U 012035Z AUTO 03007KT 10SM CLR 32/M01 A3015 RMK AO2,M
INS,2023-08-01 20:41,-115.6733,36.5872,955.00,82.40,57.20,42.25,120.00,9.00,0.00,30.12,1015.20,10.00,M,BKN,OVC,M,M,10000.00,12000.00,M,M,-DZ,M,M,M,M,M,M,82.08,KINS 012041Z AUTO 12009KT 10SM -DZ BKN100 OVC120 28/14 A3012 RMK AO2 DZB41 SLP152 $,M
BAM,2023-08-01 20:50,-116.8743,40.5990,1382.36,91.40,32.00,12.14,20.00,8.00,0.00,30.11,M,10.00,M,CLR,M,M,M,M,M,M,M,M,M,M,M,M,M,M,86.91,KBAM 012050Z AUTO 02008KT 10SM CLR 33/00 A3011 RMK AO1,M
P68,2023-08-01 20:53,-116.0056,39.6014,1993.00,80.00,46.00,30.20,360.00,8.00,0.00,30.21,1013.90,M,M,M,M,M,M,M,M,M,M,M,M,M,M,M,M,M,79.20,KP68 012053Z AUTO 36008KT 27/08 A3021 RMK AO1 SLP139 T02670078 56011,M
DRA,2023-08-01 20:53,-116.0278,36.6206,1009.00,87.00,55.00,33.65,110.00,10.00,0.00,30.10,1014.20,10.00,M,SCT,M,M,M,11000.00,M,M,M,M,M,M,M,M,M,M,85.31,KDRA 012053Z AUTO 11010KT 10SM SCT110 31/13 A3010 RMK AO2 SLP142 T03060128 58009,M
ELY,2023-08-01 20:53,-114.8453,39.2950,1909.00,76.00,48.00,37.17,70.00,10.00,0.00,30.26,1014.30,10.00,17.00,OVC,M,M,M,10000.00,M,M,M,VCTS,M,M,M,M,M,M,76.00,KELY 012053Z AUTO 07010G17KT 10SM VCTS OVC100 24/09 A3026 RMK AO2 LTG DSNT ALQDS SLP143 T02440089 56004,M
VGT,2023-08-01 20:53,-115.1933,36.2111,667.00,95.00,60.00,31.36,80.00,12.00,0.00,30.03,1015.60,10.00,16.00,CLR,M,M,M,M,M,M,M,M,M,M,M,M,M,M,94.94,KVGT 012053Z 08012G16KT 10SM CLR 35/16 A3003 RMK AO2 SLP156 T03500156 58019,M
LOL,2023-08-01 20:53,-118.5701,40.0684,1192.43,88.00,28.00,11.48,130.00,5.00,0.00,30.07,1014.00,10.00,M,CLR,M,M,M,M,M,M,M,M,M,M,M,M,M,M,83.95,KLOL 012053Z AUTO 13005KT 10SM CLR 31/M02 A3007 RMK AO2 SLP140 T03111022 58012,M
BVU,2023-08-01 20:55,-114.8611,35.9475,671.00,95.00,59.00,30.26,10.00,9.00,0.00,30.01,M,10.00,14.00,CLR,M,M,M,M,M,M,M,M,M,M,M,M,M,M,94.51,KBVU 012055Z AUTO 01009G14KT 10SM CLR 35/15 A3001 RMK AO2,M
CXP,2023-08-01 20:55,-119.7326,39.1923,1431.00,91.40,32.00,12.14,M,4.00,0.00,30.13,M,9.00,10.00,CLR,M,M,M,M,M,M,M,M,M,M,M,M,M,M,86.91,KCXP 012055Z AUTO VRB04G10KT 9SM CLR 33/00 A3013 RMK AO2,M
INS,2023-08-01 20:55,-115.6733,36.5872,955.00,80.60,58.00,46.11,150.00,7.00,T,30.11,1014.90,10.00,M,BKN,OVC,M,M,9500.00,12000.00,M,M,-DZ,M,M,M,M,M,M,80.94,KINS 012055Z AUTO 15007KT 10SM -DZ BKN095 OVC120 27/14 A3011 RMK AO2 DZB41E45RAB45E54DZB54 SLP149 P0000 60000 T02700144 57008 $,M
RNO,2023-08-01 20:55,-119.7711,39.4839,1341.00,92.00,31.00,11.44,M,5.00,0.00,30.10,1012.70,10.00,M,BKN,BKN,M,M,15000.00,23000.00,M,M,M,M,M,M,M,M,M,87.26,KRNO 012055Z VRB05KT 10SM BKN150 BKN230 33/M01 A3010 RMK AO2 SLP127 T03331006 56017,M
RTS,2023-08-01 20:55,-119.8764,39.6682,1539.00,86.00,28.40,12.44,M,5.00,0.00,30.16,M,10.00,11.00,CLR,M,M,M,M,M,M,M,M,M,M,M,M,M,M,82.54,KRTS 012055Z AUTO VRB05G11KT 10SM CLR 30/M02 A3016 RMK AO2,M
05U,2023-08-01 20:55,-116.0051,39.6042,1811.23,80.60,46.40,30.07,M,M,0.00,30.24,M,10.00,M,M,M,M,M,M,M,M,M,M,M,M,M,M,M,M,79.56,K05U 012055Z AUTO 10SM 27/08 A3024 RMK A01,M
MEV,2023-08-01 20:55,-119.7500,38.9963,1441.42,87.80,35.60,15.70,230.00,6.00,0.00,30.12,M,10.00,M,CLR,M,M,M,M,M,M,M,M,M,M,M,M,M,M,84.12,KMEV 012055Z AUTO 23006KT 10SM CLR 31/02 A3012 RMK AO2,M
HTH,2023-08-01 20:55,-118.6315,38.5448,1282.89,89.60,26.60,10.30,20.00,7.00,0.00,30.09,M,10.00,M,SCT,M,M,M,12000.00,M,M,M,M,M,M,M,M,M,M,85.02,KHTH 012055Z AUTO 02007KT 10SM SCT120 32/M03 A3009 RMK A01,M
TMT,2023-08-01 20:55,-117.1971,39.4643,1749.34,84.70,35.00,16.92,310.00,4.00,0.00,30.20,M,M,M,CLR,M,M,M,M,M,M,M,VCTS,M,M,M,M,M,M,81.69,KTMT 012055Z AUTO 31004KT VCTS CLR 29/02 A3020 RMK AO2 LTG DSNT SE T02930017,M
LSV,2023-08-01 20:55,-115.0343,36.2362,570.00,93.00,59.50,32.77,20.00,15.00,0.00,30.00,1013.40,10.00,M,FEW,SCT,SCT,M,14000.00,18000.00,21000.00,M,M,M,M,M,M,M,M,92.55,KLSV 012055Z AUTO 02015KT 10SM FEW140 SCT180 SCT210 34/15 A3000 RMK AO2 SLP134 T03390153 57016 $,M
10U,2023-08-01 20:55,-116.1876,41.9532,1637.00,89.60,30.20,11.94,350.00,6.00,0.00,30.15,M,10.00,M,CLR,M,M,M,M,M,M,M,M,M,M,M,M,M,M,85.34,K10U 012055Z AUTO 35006KT 10SM CLR 32/M01 A3015 RMK AO2,M
INS,2023-08-01 20:56,-115.6733,36.5872,955.00,80.60,57.20,44.80,160.00,7.00,0.00,30.11,1014.90,10.00,M,BKN,OVC,M,M,9500.00,12000.00,M,M,M,M,M,M,M,M,M,80.81,KINS 012056Z AUTO 16007KT 10SM BKN095 OVC120 27/14 A3011 RMK AO2 DZE56 SLP149 $,M
EKO,2023-08-01 20:56,-115.7860,40.8242,1367.00,84.00,46.00,26.52,340.00,5.00,0.00,30.17,1015.40,10.00,M,FEW,M,M,M,11000.00,M,M,M,M,M,M,M,M,M,M,81.69,KEKO 012056Z AUTO 34005KT 10SM FEW110 29/08 A3017 RMK AO2 LTG DSNT E SLP154 T02890078 57000,M
WMC,2023-08-01 20:56,-117.8072,40.9019,1315.00,90.00,23.00,8.76,0.00,0.00,0.00,30.09,1014.10,10.00,M,CLR,M,M,M,M,M,M,M,M,M,M,M,M,M,M,85.05,KWMC 012056Z AUTO 00000KT 10SM CLR 32/M05 A3009 RMK AO2 SLP141 T03221050 57010,M
NFL,2023-08-01 20:56,-118.7010,39.4166,1199.00,92.00,25.00,8.94,M,4.00,0.00,30.07,1015.10,10.00,M,SCT,SCT,BKN,BKN,8000.00,12000.00,18000.00,22000.00,M,M,M,M,M,M,M,86.68,KNFL 012056Z VRB04KT 10SM SCT080 SCT120 BKN180 BKN220 33/M04 A3007 RMK AO2 SLP151 T03331039 56015 $,M
HND,2023-08-01 20:56,-115.1344,35.9729,742.79,88.00,61.00,40.44,30.00,4.00,0.00,30.07,1017.00,10.00,M,CLR,M,M,M,M,M,M,M,M,M,M,M,M,M,M,88.02,KHND 012056Z 03004KT 10SM CLR 31/16 A3007 RMK AO2 LTG DSNT S AND SW SLP170 T03110161 58018,M
TPH,2023-08-01 20:56,-117.0904,38.0505,1654.00,82.00,49.00,31.68,160.00,12.00,0.00,30.22,1014.90,10.00,M,BKN,M,M,M,10000.00,M,M,M,M,M,M,M,M,M,M,80.62,KTPH 012056Z AUTO 16012KT 10SM BKN100 28/09 A3022 RMK AO2 LTG DSNT NW SLP149 T02780094 58005,M
LAS,2023-08-01 20:56,-115.1634,36.0719,663.00,89.00,61.00,39.18,M,M,0.00,30.03,1014.40,10.00,M,FEW,SCT,BKN,M,9000.00,12000.00,20000.00,M,M,M,M,M,M,M,M,89.01,KLAS 012056Z 10SM FEW090 SCT120 BKN200 32/16 A3003 RMK AO2 LTG DSNT S SLP144 CB DSNT E AND S T03170161 56019,M
LAS,2023-08-01 20:59,-115.1634,36.0719,663.00,89.00,61.00,39.18,0.00,0.00,0.00,30.03,M,10.00,M,FEW,SCT,BKN,M,9000.00,12000.00,20000.00,M,M,M,M,M,M,M,M,89.01,KLAS 012059Z 00000KT 10SM FEW090 SCT120 BKN200 32/16 A3003 RMK AO2 LTG DSNT S CB DSNT E AND S T03170161,M
ELY,2023-08-01 21:08,-114.8453,39.2950,1909.00,75.00,48.00,38.43,90.00,11.00,0.00,30.27,M,10.00,M,OVC,M,M,M,10000.00,M,M,M,TS,M,M,M,M,M,M,75.00,KELY 012108Z AUTO 09011KT 10SM TS OVC100 24/09 A3027 RMK AO2 LTG DSNT ALQDS TSB02 T02390089,M
05U,2023-08-01 21:10,-116.0051,39.6042,1811.23,78.80,42.80,27.81,M,M,0.00,30.24,M,10.00,M,M,M,M,M,M,M,M,M,M,M,M,M,M,M,M,78.80,K05U 012110Z AUTO 10SM 26/06 A3024 RMK A01,M
BAM,2023-08-01 21:10,-116.8743,40.5990,1382.36,93.20,33.80,12.34,350.00,4.00,0.00,30.11,M,10.00,M,CLR,M,M,M,M,M,M,M,M,M,M,M,M,M,M,88.55,KBAM 012110Z AUTO 35004KT 10SM CLR 34/01 A3011 RMK AO1,M
TMT,2023-08-01 21:10,-117.1971,39.4643,1749.34,M,M,M,270.00,3.00,0.00,30.19,M,M,M,M,M,M,M,M,M,M,M,M,M,M,M,M,M,M,M,KTMT 012110Z AUTO 27003KT A3019 RMK AO2 PWINO,M
BVU,2023-08-01 21:15,-114.8611,35.9475,671.00,95.00,59.00,30.26,30.00,9.00,0.00,30.00,M,10.00,15.00,CLR,M,M,M,M,M,M,M,M,M,M,M,M,M,M,94.51,KBVU 012115Z AUTO 03009G15KT 10SM CLR 35/15 A3000 RMK AO2 LTG DSNT E AND SW,M
CXP,2023-08-01 21:15,-119.7326,39.1923,1431.00,89.60,32.00,12.84,0.00,0.00,0.00,30.12,M,10.00,M,CLR,M,M,M,M,M,M,M,M,M,M,M,M,M,M,85.54,KCXP 012115Z AUTO 00000KT 10SM CLR 32/00 A3012 RMK AO2,M
RTS,2023-08-01 21:15,-119.8764,39.6682,1539.00,84.20,28.40,13.18,0.00,0.00,0.00,30.16,M,10.00,M,CLR,M,M,M,M,M,M,M,M,M,M,M,M,M,M,81.25,KRTS 012115Z AUTO 00000KT 10SM CLR 29/M02 A3016 RMK AO2,M
MEV,2023-08-01 21:15,-119.7500,38.9963,1441.42,87.80,35.60,15.70,M,6.00,0.00,30.12,M,9.00,M,CLR,M,M,M,M,M,M,M,M,M,M,M,M,M,M,84.12,KMEV 012115Z AUTO VRB06KT 9SM CLR 31/02 A3012 RMK AO2,M
HTH,2023-08-01 21:15,-118.6315,38.5448,1282.89,89.60,26.60,10.30,350.00,8.00,0.00,30.08,M,10.00,M,BKN,M,M,M,12000.00,M,M,M,M,M,M,M,M,M,M,85.02,KHTH 012115Z AUTO 35008KT 10SM BKN120 32/M03 A3008 RMK A01,M
10U,2023-08-01 21:15,-116.1876,41.9532,1637.00,89.60,30.20,11.94,M,4.00,0.00,30.15,M,10.00,M,CLR,M,M,M,M,M,M,M,M,M,M,M,M,M,M,85.34,K10U 012115Z AUTO VRB04KT 10SM CLR 32/M01 A3015 RMK AO2,M
INS,2023-08-01 21:26,-115.6733,36.5872,955.00,82.40,55.40,39.58,130.00,4.00,0.00,30.10,1014.50,10.00,M,BKN,OVC,M,M,9000.00,12000.00,M,M,-DZ,M,M,M,M,M,M,81.75,KINS 012126Z AUTO 13004KT 10SM -DZ BKN090 OVC120 28/13 A3010 RMK AO2 DZE2056DZB26 SLP145 $,M
BAM,2023-08-01 21:30,-116.8743,40.5990,1382.36,95.00,33.80,11.67,20.00,6.00,0.00,30.10,M,10.00,M,CLR,M,M,M,M,M,M,M,M,M,M,M,M,M,M,89.97,KBAM 012130Z AUTO 02006KT 10SM CLR 35/01 A3010 RMK AO1,M
BVU,2023-08-01 21:35,-114.8611,35.9475,671.00,96.80,59.00,28.63,10.00,9.00,0.00,29.99,M,10.00,M,FEW,M,M,M,8000.00,M,M,M,M,M,M,M,M,M,M,96.50,KBVU 012135Z AUTO 01009KT 10SM FEW080 36/15 A2999 RMK AO2,M
CXP,2023-08-01 21:35,-119.7326,39.1923,1431.00,89.60,33.80,13.80,M,5.00,0.00,30.12,M,10.00,M,CLR,M,M,M,M,M,M,M,M,M,M,M,M,M,M,85.59,KCXP 012135Z AUTO VRB05KT 10SM CLR 32/01 A3012 RMK AO2,M
RTS,2023-08-01 21:35,-119.8764,39.6682,1539.00,87.80,28.40,11.74,20.00,7.00,0.00,30.15,M,10.00,M,CLR,M,M,M,M,M,M,M,M,M,M,M,M,M,M,83.84,KRTS 012135Z AUTO 02007KT 340V050 10SM CLR 31/M02 A3015 RMK AO2,M
05U,2023-08-01 21:35,-116.0051,39.6042,1811.23,78.80,46.40,31.90,M,M,0.00,30.24,M,10.00,M,M,M,M,M,M,M,M,M,M,M,M,M,M,M,M,78.80,K05U 012135Z AUTO 10SM 26/08 A3024 RMK A01,M
MEV,2023-08-01 21:35,-119.7500,38.9963,1441.42,87.80,35.60,15.70,280.00,8.00,0.00,30.11,M,10.00,M,CLR,M,M,M,M,M,M,M,M,M,M,M,M,M,M,84.12,KMEV 012135Z AUTO 28008KT 10SM CLR 31/02 A3011 RMK AO2,M
HTH,2023-08-01 21:35,-118.6315,38.5448,1282.89,91.40,28.40,10.48,330.00,12.00,0.00,30.07,M,10.00,M,FEW,M,M,M,12000.00,M,M,M,M,M,M,M,M,M,M,86.53,KHTH 012135Z AUTO 33012KT 10SM FEW120 33/M02 A3007 RMK A01,M
TMT,2023-08-01 21:35,-117.1971,39.4643,1749.34,85.00,35.40,17.03,290.00,4.00,0.00,30.19,M,M,M,CLR,M,M,M,M,M,M,M,M,M,M,M,M,M,M,81.92,KTMT 012135Z AUTO 29004KT CLR 29/02 A3019 RMK AO2 LTG DSNT E THRU S T02940019 PWINO,M
10U,2023-08-01 21:35,-116.1876,41.9532,1637.00,87.80,30.20,12.64,0.00,0.00,0.00,30.14,M,10.00,M,CLR,M,M,M,M,M,M,M,M,M,M,M,M,M,M,84.01,K10U 012135Z AUTO 00000KT 10SM CLR 31/M01 A3014 RMK AO2,M
ELY,2023-08-01 21:37,-114.8453,39.2950,1909.00,73.00,52.00,47.69,130.00,14.00,0.00,30.26,M,10.00,23.00,BKN,M,M,M,11000.00,M,M,M,VCTS,M,M,M,M,M,M,73.00,KELY 012137Z AUTO 13014G23KT 10SM VCTS BKN110 23/11 A3026 RMK AO2 LTG DSNT ALQDS TSB02E31 T02280111,M
INS,2023-08-01 21:39,-115.6733,36.5872,955.00,82.40,55.40,39.58,150.00,3.00,0.00,30.09,1014.20,10.00,M,FEW,BKN,BKN,OVC,7000.00,9000.00,11000.00,14000.00,M,M,M,M,M,M,M,81.75,KINS 012139Z AUTO 15003KT 10SM FEW070 BKN090 BKN110 OVC140 28/13 A3009 RMK AO2 DZE2056DZB26E39 SLP142 $,M
ELY,2023-08-01 21:44,-114.8453,39.2950,1909.00,74.00,50.00,42.82,120.00,10.00,0.00,30.26,M,10.00,M,BKN,M,M,M,12000.00,M,M,M,M,M,M,M,M,M,M,74.00,KELY 012144Z AUTO 12010KT 10SM BKN120 23/10 A3026 RMK AO2 LTG DSNT ALQDS TSB02E31 T02330100,M
BAM,2023-08-01 21:50,-116.8743,40.5990,1382.36,95.00,33.80,11.67,50.00,11.00,0.00,30.09,M,10.00,15.00,CLR,M,M,M,M,M,M,M,M,M,M,M,M,M,M,89.97,KBAM 012150Z AUTO 05011G15KT 10SM CLR 35/01 A3009 RMK AO1,M
P68,2023-08-01 21:53,-116.0056,39.6014,1993.00,76.00,50.00,40.05,20.00,4.00,0.00,30.21,1014.20,M,M,M,M,M,M,M,M,M,M,M,M,M,M,M,M,M,76.00,KP68 012153Z AUTO 02004KT 24/10 A3021 RMK AO1 SLP142 T02440100,M
DRA,2023-08-01 21:53,-116.0278,36.6206,1009.00,86.00,55.00,34.74,110.00,13.00,0.00,30.08,1013.40,10.00,M,SCT,M,M,M,12000.00,M,M,M,M,M,M,M,M,M,M,84.46,KDRA 012153Z AUTO 11013KT 10SM SCT120 30/13 A3008 RMK AO2 SLP134 T03000128,M
ELY,2023-08-01 21:53,-114.8453,39.2950,1909.00,76.00,50.00,40.05,110.00,8.00,0.00,30.25,1013.90,10.00,M,BKN,M,M,M,11000.00,M,M,M,M,M,M,M,M,M,M,76.00,KELY 012153Z AUTO 11008KT 10SM BKN110 24/10 A3025 RMK AO2 LTG DSNT ALQDS TSB02E31 SLP139 T02440100,M
VGT,2023-08-01 21:53,-115.1933,36.2111,667.00,95.00,60.00,31.36,90.00,14.00,0.00,30.00,1014.60,10.00,20.00,CLR,M,M,M,M,M,M,M,M,M,M,M,M,M,M,94.94,KVGT 012153Z 09014G20KT 10SM CLR 35/16 A3000 RMK AO2 SLP146 T03500156,M
LOL,2023-08-01 21:53,-118.5701,40.0684,1192.43,91.00,29.00,10.88,170.00,6.00,0.00,30.05,1013.10,10.00,M,FEW,M,M,M,9500.00,M,M,M,M,M,M,M,M,M,M,86.28,KLOL 012153Z AUTO 17006KT 10SM FEW095 33/M02 A3005 RMK AO2 SLP131 T03281017,M
BVU,2023-08-01 21:55,-114.8611,35.9475,671.00,95.00,59.00,30.26,40.00,12.00,0.00,29.98,M,10.00,18.00,SCT,M,M,M,8500.00,M,M,M,M,M,M,M,M,M,M,94.51,KBVU 012155Z AUTO 04012G18KT 10SM SCT085 35/15 A2998 RMK AO2,M
CXP,2023-08-01 21:55,-119.7326,39.1923,1431.00,87.80,33.80,14.61,300.00,9.00,0.00,30.12,M,10.00,M,CLR,M,M,M,M,M,M,M,M,M,M,M,M,M,M,84.10,KCXP 012155Z AUTO 30009KT 10SM CLR 31/01 A3012 RMK AO2,M
INS,2023-08-01 21:55,-115.6733,36.5872,955.00,83.70,53.80,35.80,0.00,0.00,T,30.08,1013.70,10.00,M,FEW,SCT,BKN,BKN,7000.00,9000.00,11000.00,14000.00,M,M,M,M,M,M,M,82.41,KINS 012155Z AUTO 00000KT 10SM FEW070 SCT090 BKN110 BKN140 BKN160 29/12 A3008 RMK AO2 DZE2056DZB26E39 SLP137 P0000 T02870121 $,M
RNO,2023-08-01 21:55,-119.7711,39.4839,1341.00,92.00,32.00,11.91,0.00,0.00,0.00,30.08,1012.30,10.00,M,BKN,BKN,M,M,17000.00,25000.00,M,M,M,M,M,M,M,M,M,87.38,KRNO 012155Z 00000KT 10SM BKN170 BKN250 33/00 A3008 RMK AO2 SLP123 T03330000,M
RTS,2023-08-01 21:55,-119.8764,39.6682,1539.00,86.00,28.40,12.44,30.00,7.00,0.00,30.15,M,10.00,M,CLR,M,M,M,M,M,M,M,M,M,M,M,M,M,M,82.54,KRTS 012155Z AUTO 03007KT 10SM CLR 30/M02 A3015 RMK AO2,M
05U,2023-08-01 21:55,-116.0051,39.6042,1811.23,75.20,48.20,38.46,M,M,0.00,30.24,M,9.00,M,M,M,M,M,M,M,M,M,M,M,M,M,M,M,M,75.20,K05U 012155Z AUTO 9SM 24/09 A3024 RMK A01,M
MEV,2023-08-01 21:55,-119.7500,38.9963,1441.42,86.00,35.60,16.63,310.00,5.00,0.00,30.11,M,10.00,M,CLR,M,M,M,M,M,M,M,M,M,M,M,M,M,M,82.69,KMEV 012155Z AUTO 31005KT 10SM CLR 30/02 A3011 RMK AO2,M
HTH,2023-08-01 21:55,-118.6315,38.5448,1282.89,89.60,28.40,11.09,340.00,10.00,0.00,30.07,M,10.00,M,FEW,M,M,M,12000.00,M,M,M,M,M,M,M,M,M,M,85.17,KHTH 012155Z AUTO 34010KT 10SM FEW120 32/M02 A3007 RMK A01,M
TMT,2023-08-01 21:55,-117.1971,39.4643,1749.34,84.60,34.70,16.78,290.00,3.00,0.00,30.18,M,M,M,BKN,M,M,M,12000.00,M,M,M,M,M,M,M,M,M,M,81.61,KTMT 012155Z AUTO 29003KT BKN120 29/02 A3018 RMK AO2 LTG DSNT SE T02920015 PWINO,M
10U,2023-08-01 21:55,-116.1876,41.9532,1637.00,87.80,33.80,14.61,40.00,5.00,0.00,30.14,M,10.00,M,CLR,M,M,M,M,M,M,M,M,M,M,M,M,M,M,84.10,K10U 012155Z AUTO 04005KT 10SM CLR 31/01 A3014 RMK AO2,M
LSV,2023-08-01 21:55,-115.0343,36.2362,570.00,92.00,60.40,34.91,20.00,17.00,0.00,29.97,1012.50,10.00,M,FEW,SCT,M,M,17000.00,21000.00,M,M,M,M,M,M,M,M,M,91.86,KLSV 012155Z AUTO 02017KT 10SM FEW170 SCT210 33/16 A2997 RMK AO2 SLP125 T03340158 $,M
EKO,2023-08-01 21:56,-115.7860,40.8242,1367.00,85.00,46.00,25.69,210.00,5.00,0.00,30.16,1014.70,10.00,M,CLR,M,M,M,M,M,M,M,M,M,M,M,M,M,M,82.42,KEKO 012156Z AUTO 21005KT 10SM CLR 29/08 A3016 RMK AO2 LTG DSNT E SLP147 T02940078,M
WMC,2023-08-01 21:56,-117.8072,40.9019,1315.00,91.00,24.00,8.85,M,3.00,0.00,30.08,1013.80,10.00,M,CLR,M,M,M,M,M,M,M,M,M,M,M,M,M,M,85.86,KWMC 012156Z AUTO VRB03KT 10SM CLR 33/M04 A3008 RMK AO2 SLP138 T03281044,M
NFL,2023-08-01 21:56,-118.7010,39.4166,1199.00,92.00,28.00,10.12,10.00,6.00,0.00,30.05,1014.50,10.00,M,SCT,SCT,BKN,BKN,8000.00,12000.00,18000.00,25000.00,M,M,M,M,M,M,M,86.94,KNFL 012156Z 01006KT 10SM SCT080 SCT120 BKN180 BKN250 33/M02 A3005 RMK AO2 SLP145 T03331022 $,M
HND,2023-08-01 21:56,-115.1344,35.9729,742.79,90.00,61.00,37.97,350.00,6.00,0.00,30.04,1015.90,10.00,M,CLR,M,M,M,M,M,M,M,M,M,M,M,M,M,M,90.03,KHND 012156Z 35006KT 10SM CLR 32/16 A3004 RMK AO2 LTG DSNT S SLP159 T03220161,M
TPH,2023-08-01 21:56,-117.0904,38.0505,1654.00,85.00,45.00,24.73,200.00,10.00,0.00,30.20,1014.10,10.00,17.00,SCT,M,M,M,11000.00,M,M,M,M,M,M,M,M,M,M,82.34,KTPH 012156Z AUTO 20010G17KT 10SM SCT110 29/07 A3020 RMK AO2 SLP141 T02940072,M
LAS,2023-08-01 21:56,-115.1634,36.0719,663.00,92.00,61.00,35.66,60.00,9.00,0.00,30.00,1013.20,10.00,M,FEW,SCT,BKN,M,9000.00,12000.00,20000.00,M,M,M,M,M,M,M,M,92.12,KLAS 012156Z 06009KT 10SM FEW090 SCT120 BKN200 33/16 A3000 RMK AO2 LTG DSNT S SLP132 CB DSNT N AND E AND S T03330161,M
BAM,2023-08-01 22:10,-116.8743,40.5990,1382.36,95.00,33.80,11.67,60.00,9.00,0.00,30.09,M,10.00,M,CLR,M,M,M,M,M,M,M,M,M,M,M,M,M,M,89.97,KBAM 012210Z AUTO 06009KT 030V090 10SM CLR 35/01 A3009 RMK AO1,M
BVU,2023-08-01 22:15,-114.8611,35.9475,671.00,95.00,59.00,30.26,20.00,15.00,0.00,29.96,M,10.00,M,SCT,M,M,M,8500.00,M,M,M,VCTS,M,M,M,M,M,M,94.51,KBVU 012215Z AUTO 02015KT 10SM VCTS SCT085 35/15 A2996 RMK AO2 LTG DSNT SW,M
CXP,2023-08-01 22:15,-119.7326,39.1923,1431.00,87.80,33.80,14.61,300.00,9.00,0.00,30.11,M,10.00,15.00,CLR,M,M,M,M,M,M,M,M,M,M,M,M,M,M,84.10,KCXP 012215Z AUTO 30009G15KT 10SM CLR 31/01 A3011 RMK AO2,M
RTS,2023-08-01 22:15,-119.8764,39.6682,1539.00,87.80,28.40,11.74,M,5.00,0.00,30.14,M,10.00,10.00,CLR,M,M,M,M,M,M,M,M,M,M,M,M,M,M,83.84,KRTS 012215Z AUTO VRB05G10KT 10SM CLR 31/M02 A3014 RMK AO2,M
05U,2023-08-01 22:15,-116.0051,39.6042,1811.23,69.80,55.40,60.21,M,M,0.00,30.25,M,9.00,M,M,M,M,M,M,M,M,M,M,M,M,M,M,M,M,69.80,K05U 012215Z AUTO 9SM 21/13 A3025 RMK A01,M
MEV,2023-08-01 22:15,-119.7500,38.9963,1441.42,87.80,33.80,14.61,0.00,0.00,0.00,30.10,M,10.00,M,CLR,M,M,M,M,M,M,M,M,M,M,M,M,M,M,84.10,KMEV 012215Z AUTO 00000KT 10SM CLR 31/01 A3010 RMK AO2,M
HTH,2023-08-01 22:15,-118.6315,38.5448,1282.89,89.60,30.20,11.94,360.00,7.00,0.00,30.07,M,10.00,M,SCT,M,M,M,11000.00,M,M,M,M,M,M,M,M,M,M,85.34,KHTH 012215Z AUTO 36007KT 10SM SCT110 32/M01 A3007 RMK A01,M
TMT,2023-08-01 22:15,-117.1971,39.4643,1749.34,83.50,35.60,18.02,0.00,0.00,0.00,30.18,M,M,M,OVC,M,M,M,12000.00,M,M,M,M,M,M,M,M,M,M,80.84,KTMT 012215Z AUTO 00000KT OVC120 29/02 A3018 RMK AO2 LTG DSNT SE T02860020 PWINO,M
10U,2023-08-01 22:15,-116.1876,41.9532,1637.00,86.00,41.00,20.54,150.00,14.00,0.00,30.14,M,10.00,20.00,FEW,M,M,M,12000.00,M,M,M,M,M,M,M,M,M,M,82.86,K10U 012215Z AUTO 15014G20KT 10SM FEW120 30/05 A3014 RMK AO2,M
BAM,2023-08-01 22:30,-116.8743,40.5990,1382.36,93.20,35.60,13.25,360.00,7.00,0.00,30.08,M,10.00,M,CLR,M,M,M,M,M,M,M,M,M,M,M,M,M,M,88.76,KBAM 012230Z AUTO 36007KT 10SM CLR 34/02 A3008 RMK AO1,M
BVU,2023-08-01 22:35,-114.8611,35.9475,671.00,95.00,59.00,30.26,40.00,13.00,0.00,29.96,M,10.00,M,SCT,M,M,M,8500.00,M,M,M,M,M,M,M,M,M,M,94.51,KBVU 012235Z AUTO 04013KT 10SM SCT085 35/15 A2996 RMK AO2,M
CXP,2023-08-01 22:35,-119.7326,39.1923,1431.00,89.60,33.80,13.80,320.00,7.00,0.00,30.11,M,10.00,18.00,CLR,M,M,M,M,M,M,M,M,M,M,M,M,M,M,85.59,KCXP 012235Z AUTO 32007G18KT 10SM CLR 32/01 A3011 RMK AO2,M
RTS,2023-08-01 22:35,-119.8764,39.6682,1539.00,87.80,28.40,11.74,10.00,16.00,0.00,30.13,M,10.00,M,CLR,M,M,M,M,M,M,M,M,M,M,M,M,M,M,83.84,KRTS 012235Z AUTO 01016KT 10SM CLR 31/M02 A3013 RMK AO2,M
05U,2023-08-01 22:35,-116.0051,39.6042,1811.23,68.00,57.20,68.35,M,M,0.00,30.26,M,9.00,M,M,M,M,M,M,M,M,M,M,M,M,M,M,M,M,68.00,K05U 012235Z AUTO 9SM 20/14 A3026 RMK A01,M
MEV,2023-08-01 22:35,-119.7500,38.9963,1441.42,87.80,33.80,14.61,0.00,0.00,0.00,30.10,M,10.00,M,CLR,M,M,M,M,M,M,M,M,M,M,M,M,M,M,84.10,KMEV 012235Z AUTO 00000KT 10SM CLR 31/01 A3010 RMK AO2,M
HTH,2023-08-01 22:35,-118.6315,38.5448,1282.89,89.60,32.00,12.84,360.00,6.00,0.00,30.06,M,10.00,M,FEW,M,M,M,11000.00,M,M,M,M,M,M,M,M,M,M,85.54,KHTH 012235Z AUTO 36006KT 10SM FEW110 32/M00 A3006 RMK A01,M
10U,2023-08-01 22:35,-116.1876,41.9532,1637.00,87.80,37.40,16.86,160.00,13.00,0.00,30.14,M,10.00,18.00,FEW,M,M,M,12000.00,M,M,M,M,M,M,M,M,M,M,84.16,K10U 012235Z AUTO 16013G18KT 10SM FEW120 31/03 A3014 RMK AO2,M
TMT,2023-08-01 22:35,-117.1971,39.4643,1749.34,83.30,36.30,18.64,230.00,4.00,0.00,30.18,M,M,M,OVC,M,M,M,12000.00,M,M,M,M,M,M,M,M,M,M,80.71,KTMT 012235Z AUTO 23004KT OVC120 29/02 A3018 RMK AO2 LTG DSNT S T02850024 PWINO,M
BAM,2023-08-01 22:50,-116.8743,40.5990,1382.36,93.20,35.60,13.25,30.00,6.00,0.00,30.08,M,10.00,M,CLR,M,M,M,M,M,M,M,M,M,M,M,M,M,M,88.76,KBAM 012250Z AUTO 03006KT 10SM CLR 34/02 A3008 RMK AO1,M
P68,2023-08-01 22:53,-116.0056,39.6014,1993.00,64.00,57.00,77.97,160.00,12.00,0.01,30.25,1016.70,M,21.00,M,M,M,M,M,M,M,M,M,M,M,M,M,M,M,64.00,KP68 012253Z AUTO 16012G21KT 18/14 A3025 RMK AO1 SLP167 P0001 T01780139,M
DRA,2023-08-01 22:53,-116.0278,36.6206,1009.00,90.00,54.00,29.51,120.00,5.00,0.00,30.05,1012.10,10.00,M,CLR,M,M,M,M,M,M,M,M,M,M,M,M,M,M,87.82,KDRA 012253Z AUTO 12005KT 10SM CLR 32/12 A3005 RMK AO2 SLP121 T03220122,M
ELY,2023-08-01 22:53,-114.8453,39.2950,1909.00,74.00,51.00,44.44,260.00,10.00,0.00,30.26,1014.50,10.00,M,FEW,SCT,BKN,M,7000.00,9500.00,12000.00,M,VCTS,M,M,M,M,M,M,74.00,KELY 012253Z AUTO 26010KT 10SM VCTS FEW070 SCT095 BKN120 23/11 A3026 RMK AO2 LTG DSNT ALQDS SLP145 T02330106,M
VGT,2023-08-01 22:53,-115.1933,36.2111,667.00,95.00,60.00,31.36,M,M,0.00,29.97,1013.80,10.00,M,CLR,M,M,M,M,M,M,M,M,M,M,M,M,M,M,94.94,KVGT 012253Z 10SM CLR 35/16 A2997 RMK AO2 LTG DSNT SE SLP138 T03500156,M
LOL,2023-08-01 22:53,-118.5701,40.0684,1192.43,94.00,30.00,10.32,140.00,8.00,0.00,30.03,1012.50,10.00,M,CLR,M,M,M,M,M,M,M,M,M,M,M,M,M,M,88.68,KLOL 012253Z AUTO 14008KT 10SM CLR 34/M01 A3003 RMK AO2 SLP125 T03441011,M
BVU,2023-08-01 22:55,-114.8611,35.9475,671.00,93.20,59.00,31.99,30.00,10.00,0.00,29.95,M,10.00,17.00,FEW,M,M,M,8500.00,M,M,M,VCTS,M,M,M,M,M,M,92.57,KBVU 012255Z AUTO 03010G17KT 10SM VCTS FEW085 34/15 A2995 RMK AO2 LTG DSNT SE-SW,M
CXP,2023-08-01 22:55,-119.7326,39.1923,1431.00,89.60,33.80,13.80,240.00,5.00,0.00,30.11,M,10.00,16.00,CLR,M,M,M,M,M,M,M,M,M,M,M,M,M,M,85.59,KCXP 012255Z AUTO 24005G16KT 10SM CLR 32/01 A3011 RMK AO2,M
INS,2023-08-01 22:55,-115.6733,36.5872,955.00,88.00,52.70,29.97,0.00,0.00,0.00,30.04,1012.20,10.00,M,CLR,M,M,M,M,M,M,M,M,M,M,M,M,M,M,85.72,KINS 012255Z AUTO 00000KT 10SM CLR 31/12 A3004 RMK AO2 SLP122 T03120115 $,M
RNO,2023-08-01 22:55,-119.7711,39.4839,1341.00,92.00,36.00,13.98,40.00,4.00,0.00,30.07,1011.80,10.00,M,BKN,BKN,M,M,17000.00,25000.00,M,M,M,M,M,M,M,M,M,87.71,KRNO 012255Z 04004KT 10SM BKN170 BKN250 33/02 A3007 RMK AO2 SLP118 T03330022,M
RTS,2023-08-01 22:55,-119.8764,39.6682,1539.00,87.80,30.20,12.64,310.00,8.00,0.00,30.13,M,10.00,16.00,CLR,M,M,M,M,M,M,M,M,M,M,M,M,M,M,84.01,KRTS 012255Z AUTO 31008G16KT 10SM CLR 31/M01 A3013 RMK AO2,M
05U,2023-08-01 22:55,-116.0051,39.6042,1811.23,64.40,57.20,77.45,M,M,0.00,30.27,M,5.00,M,FEW,M,M,M,8500.00,M,M,M,HZ,M,M,M,M,M,M,64.40,K05U 012255Z AUTO 5SM HZ FEW085 18/14 A3027 RMK A01,M
MEV,2023-08-01 22:55,-119.7500,38.9963,1441.42,87.80,33.80,14.61,0.00,0.00,0.00,30.09,M,10.00,M,CLR,M,M,M,M,M,M,M,M,M,M,M,M,M,M,84.10,KMEV 012255Z AUTO 00000KT 10SM CLR 31/01 A3009 RMK AO2,M
HTH,2023-08-01 22:55,-118.6315,38.5448,1282.89,89.60,30.20,11.94,320.00,8.00,0.00,30.06,M,10.00,M,FEW,M,M,M,11000.00,M,M,M,M,M,M,M,M,M,M,85.34,KHTH 012255Z AUTO 32008KT 10SM FEW110 32/M01 A3006 RMK A01,M
TMT,2023-08-01 22:55,-117.1971,39.4643,1749.34,82.60,36.70,19.37,260.00,7.00,0.00,30.18,M,M,18.00,SCT,M,M,M,12000.00,M,M,M,M,M,M,M,M,M,M,80.25,KTMT 012255Z AUTO 26007G18KT SCT120 28/03 A3018 RMK AO2 T02810026 PWINO,M
10U,2023-08-01 22:55,-116.1876,41.9532,1637.00,87.80,39.20,18.09,200.00,11.00,0.00,30.14,M,10.00,22.00,SCT,M,M,M,12000.00,M,M,M,M,M,M,M,M,M,M,84.22,K10U 012255Z AUTO 20011G22KT 160V240 10SM SCT120 31/04 A3014 RMK AO2,M
LSV,2023-08-01 22:55,-115.0343,36.2362,570.00,94.30,60.60,32.74,20.00,19.00,0.00,29.94,1011.30,10.00,24.00,CLR,M,M,M,M,M,M,M,M,M,M,M,M,M,M,94.44,KLSV 012255Z AUTO 02019G24KT 10SM CLR 35/16 A2994 RMK AO2 SLP113 T03460159 $,M
EKO,2023-08-01 22:56,-115.7860,40.8242,1367.00,81.00,49.00,32.73,130.00,14.00,0.00,30.15,1014.70,10.00,23.00,FEW,M,M,M,11000.00,M,M,M,M,M,M,M,M,M,M,80.02,KEKO 012256Z AUTO 13014G23KT 10SM FEW110 27/09 A3015 RMK AO2 SLP147 T02720094,M
WMC,2023-08-01 22:56,-117.8072,40.9019,1315.00,92.00,25.00,8.94,280.00,9.00,0.00,30.06,1013.20,10.00,M,CLR,M,M,M,M,M,M,M,M,M,M,M,M,M,M,86.68,KWMC 012256Z AUTO 28009KT 10SM CLR 33/M04 A3006 RMK AO2 SLP132 T03331039,M
NFL,2023-08-01 22:56,-118.7010,39.4166,1199.00,91.00,32.00,12.29,40.00,6.00,0.00,30.04,1014.10,10.00,M,SCT,BKN,BKN,OVC,8000.00,12000.00,18000.00,25000.00,M,M,M,M,M,M,M,86.61,KNFL 012256Z 04006KT 10SM SCT080 BKN120 BKN180 OVC250 33/00 A3004 RMK AO2 SLP141 T03280000,M
HND,2023-08-01 22:56,-115.1344,35.9729,742.79,91.00,62.00,38.12,50.00,5.00,0.00,30.02,1015.10,10.00,M,BKN,M,M,M,9500.00,M,M,M,M,M,M,M,M,M,M,91.51,KHND 012256Z 05005KT 10SM BKN095 33/17 A3002 RMK AO2 LTG DSNT ALQDS SLP151 T03280167,M
TPH,2023-08-01 22:56,-117.0904,38.0505,1654.00,83.00,46.00,27.39,220.00,10.00,0.00,30.19,1013.90,10.00,19.00,BKN,M,M,M,9000.00,M,M,M,M,M,M,M,M,M,M,81.00,KTPH 012256Z AUTO 22010G19KT 10SM BKN090 28/08 A3019 RMK AO2 SLP139 T02830078,M
LAS,2023-08-01 22:56,-115.1634,36.0719,663.00,92.00,61.00,35.66,60.00,8.00,0.00,29.98,1012.50,10.00,M,FEW,SCT,BKN,M,9000.00,12000.00,20000.00,M,M,M,M,M,M,M,M,92.12,KLAS 012256Z 06008KT 10SM FEW090 SCT120 BKN200 33/16 A2998 RMK AO2 LTG DSNT SE-W SLP125 CB DSNT N AND E AND S T03330161,M
EKO,2023-08-01 23:05,-115.7860,40.8242,1367.00,81.00,48.00,31.52,130.00,13.00,0.00,30.14,M,10.00,21.00,CLR,M,M,M,M,M,M,M,M,M,M,M,M,M,M,79.92,KEKO 012305Z AUTO 13013G21KT 10SM CLR 27/09 A3014 RMK AO2 WSHFT 2245 T02720089,M
ELY,2023-08-01 23:06,-114.8453,39.2950,1909.00,70.00,51.00,50.89,270.00,19.00,0.00,30.28,M,10.00,29.00,BKN,BKN,OVC,M,7000.00,9000.00,12000.00,M,TS,M,M,M,29.00,280.00,2023-08-01 23:04,70.00,KELY 012306Z AUTO 27019G29KT 10SM TS BKN070 BKN090 OVC120 21/11 A3028 RMK AO2 PK WND 28029/2304 WSHFT 2252 LTG DSNT ALQDS TSB03 PRESRR T02110106,M
BAM,2023-08-01 23:10,-116.8743,40.5990,1382.36,91.40,37.40,15.05,90.00,4.00,0.00,30.08,M,10.00,M,CLR,M,M,M,M,M,M,M,M,M,M,M,M,M,M,87.23,KBAM 012310Z AUTO 09004KT 10SM CLR 33/03 A3008 RMK AO1,M
BVU,2023-08-01 23:15,-114.8611,35.9475,671.00,91.40,59.00,33.84,30.00,8.00,0.00,29.96,M,10.00,20.00,FEW,FEW,M,M,6500.00,12000.00,M,M,VCTS,M,M,M,M,M,M,90.68,KBVU 012315Z AUTO 03008G20KT 10SM VCTS FEW065 FEW120 33/15 A2996 RMK AO2 LTG DSNT ALQDS,M
CXP,2023-08-01 23:15,-119.7326,39.1923,1431.00,89.60,33.80,13.80,290.00,4.00,0.00,30.10,M,10.00,M,CLR,M,M,M,M,M,M,M,M,M,M,M,M,M,M,85.59,KCXP 012315Z AUTO 29004KT 10SM CLR 32/01 A3010 RMK AO2,M
RTS,2023-08-01 23:15,-119.8764,39.6682,1539.00,87.80,28.40,11.74,320.00,16.00,0.00,30.13,M,10.00,21.00,CLR,M,M,M,M,M,M,M,M,M,M,M,M,M,M,83.84,KRTS 012315Z AUTO 32016G21KT 300V360 10SM CLR 31/M02 A3013 RMK AO2,M
05U,2023-08-01 23:15,-116.0051,39.6042,1811.23,62.60,59.00,88.00,M,M,0.00,30.28,M,5.00,M,M,M,M,M,M,M,M,M,BR,M,M,M,M,M,M,62.60,K05U 012315Z AUTO 5SM BR 17/15 A3028 RMK A01,M
MEV,2023-08-01 23:15,-119.7500,38.9963,1441.42,89.60,35.60,14.83,M,3.00,0.00,30.08,M,10.00,M,CLR,M,M,M,M,M,M,M,M,M,M,M,M,M,M,85.62,KMEV 012315Z AUTO VRB03KT 10SM CLR 32/02 A3008 RMK AO2,M
HTH,2023-08-01 23:15,-118.6315,38.5448,1282.89,89.60,33.80,13.80,340.00,5.00,0.00,30.05,M,10.00,M,SCT,M,M,M,11000.00,M,M,M,M,M,M,M,M,M,M,85.59,KHTH 012315Z AUTO 34005KT 10SM SCT110 32/01 A3005 RMK A01,M
10U,2023-08-01 23:15,-116.1876,41.9532,1637.00,89.60,37.40,15.92,210.00,11.00,0.00,30.13,M,10.00,17.00,BKN,M,M,M,12000.00,M,M,M,M,M,M,M,M,M,M,85.67,K10U 012315Z AUTO 21011G17KT 10SM BKN120 32/03 A3013 RMK AO2,M
TMT,2023-08-01 23:15,-117.1971,39.4643,1749.34,82.40,35.00,18.23,280.00,7.00,0.00,30.18,M,M,16.00,SCT,M,M,M,12000.00,M,M,M,M,M,M,M,M,M,M,80.06,KTMT 012315Z AUTO 28007G16KT SCT120 28/02 A3018 RMK AO2 T02800016 PWINO,M
ELY,2023-08-01 23:28,-114.8453,39.2950,1909.00,61.00,55.00,80.61,270.00,14.00,T,30.28,M,1.75,M,FEW,BKN,OVC,M,4500.00,6500.00,9000.00,M,+TSRA,M,M,M,29.00,280.00,2023-08-01 23:04,61.00,KELY 012328Z AUTO 27014KT 1 3/4SM +TSRA FEW045 BKN065 OVC090 16/13 A3028 RMK AO2 PK WND 28029/2304 WSHFT 2252 LTG DSNT SE AND S AND NW RAB16 TSB03 P0000 T01610128 $,M
BAM,2023-08-01 23:30,-116.8743,40.5990,1382.36,93.20,41.00,16.37,90.00,3.00,0.00,30.08,M,10.00,M,SCT,M,M,M,12000.00,M,M,M,M,M,M,M,M,M,M,89.03,KBAM 012330Z AUTO 09003KT 10SM SCT120 34/05 A3008 RMK AO1,M
HND,2023-08-01 23:34,-115.1344,35.9729,742.79,89.60,62.60,40.69,40.00,6.00,0.00,30.01,M,10.00,M,SCT,M,M,M,11000.00,M,M,M,VCTS,M,M,M,M,M,M,90.32,KHND 012334Z 04006KT 10SM VCTS SCT110 32/17 A3001 RMK AO2 LTG DSNT ALQDS TSB28,M
BVU,2023-08-01 23:35,-114.8611,35.9475,671.00,80.60,68.00,65.54,170.00,14.00,0.00,29.98,M,8.00,20.00,FEW,SCT,BKN,M,4000.00,6000.00,7500.00,M,TS,M,M,M,M,M,M,83.29,KBVU 012335Z AUTO 17014G20KT 8SM TS FEW040 SCT060 BKN075 27/20 A2998 RMK AO2 LTG DSNT ALQDS,M
CXP,2023-08-01 23:35,-119.7326,39.1923,1431.00,89.60,33.80,13.80,310.00,7.00,0.00,30.10,M,10.00,13.00,CLR,M,M,M,M,M,M,M,M,M,M,M,M,M,M,85.59,KCXP 012335Z AUTO 31007G13KT 10SM CLR 32/01 A3010 RMK AO2,M
RTS,2023-08-01 23:35,-119.8764,39.6682,1539.00,87.80,28.40,11.74,320.00,11.00,0.00,30.13,M,10.00,19.00,CLR,M,M,M,M,M,M,M,M,M,M,M,M,M,M,83.84,KRTS 012335Z AUTO 32011G19KT 10SM CLR 31/M02 A3013 RMK AO2,M
05U,2023-08-01 23:35,-116.0051,39.6042,1811.23,60.80,57.20,87.92,M,M,0.00,30.28,M,4.00,M,M,M,M,M,M,M,M,M,BR,M,M,M,M,M,M,60.80,K05U 012335Z AUTO 4SM BR 16/14 A3028 RMK A01,M
MEV,2023-08-01 23:35,-119.7500,38.9963,1441.42,89.60,35.60,14.83,290.00,6.00,0.00,30.08,M,10.00,M,CLR,M,M,M,M,M,M,M,M,M,M,M,M,M,M,85.62,KMEV 012335Z AUTO 29006KT 10SM CLR 32/02 A3008 RMK AO2,M
HTH,2023-08-01 23:35,-118.6315,38.5448,1282.89,89.60,35.60,14.83,M,6.00,0.00,30.05,M,10.00,M,BKN,M,M,M,11000.00,M,M,M,M,M,M,M,M,M,M,85.62,KHTH 012335Z AUTO VRB06KT 10SM BKN110 32/02 A3005 RMK A01,M
10U,2023-08-01 23:35,-116.1876,41.9532,1637.00,87.80,35.60,15.70,220.00,7.00,0.00,30.13,M,10.00,14.00,SCT,M,M,M,12000.00,M,M,M,M,M,M,M,M,M,M,84.12,K10U 012335Z AUTO 22007G14KT 10SM SCT120 31/02 A3013 RMK AO2,M
TMT,2023-08-01 23:35,-117.1971,39.4643,1749.34,81.00,36.30,20.09,220.00,11.00,0.00,30.18,M,M,23.00,BKN,M,M,M,12000.00,M,M,M,M,M,M,M,M,M,M,79.21,KTMT 012335Z AUTO 22011G23KT BKN120 27/02 A3018 RMK AO2 T02730024 PWINO,M
ELY,2023-08-01 23:39,-114.8453,39.2950,1909.00,60.00,54.00,80.53,280.00,12.00,0.12,30.30,M,3.00,17.00,FEW,BKN,OVC,M,4200.00,6500.00,9000.00,M,-TSRA,M,M,M,29.00,280.00,2023-08-01 23:04,60.00,KELY 012339Z AUTO 28012G17KT 3SM -TSRA FEW042 BKN065 OVC090 16/12 A3030 RMK AO2 PK WND 28029/2304 WSHFT 2252 LTG DSNT ALQDS RAB16 TSB03 PRESRR P0012 T01560122 $,M
HND,2023-08-01 23:49,-115.1344,35.9729,742.79,89.60,62.60,40.69,150.00,10.00,0.00,30.02,M,10.00,14.00,FEW,BKN,M,M,8000.00,11000.00,M,M,M,M,M,M,M,M,M,90.32,KHND 012349Z 15010G14KT 10SM FEW080 BKN110 32/17 A3002 RMK AO2 LTG DSNT ALQDS TSB28E43,M
BAM,2023-08-01 23:50,-116.8743,40.5990,1382.36,91.40,42.80,18.56,110.00,9.00,0.00,30.07,M,10.00,M,SCT,M,M,M,12000.00,M,M,M,M,M,M,M,M,M,M,87.52,KBAM 012350Z AUTO 11009KT 10SM SCT120 33/06 A3007 RMK AO1,M
P68,2023-08-01 23:53,-116.0056,39.6014,1993.00,62.00,57.00,83.65,140.00,11.00,0.06,30.26,1017.60,M,18.00,M,M,M,M,M,M,M,M,M,M,M,M,M,M,M,62.00,KP68 012353Z AUTO 14011G18KT 17/14 A3026 RMK AO1 SLP176 P0006 60007 T01670139 10283 20167 53013,M
DRA,2023-08-01 23:53,-116.0278,36.6206,1009.00,90.00,53.00,28.45,120.00,7.00,0.00,30.03,1011.60,10.00,M,CLR,M,M,M,M,M,M,M,M,M,M,M,M,M,M,87.60,KDRA 012353Z AUTO 12007KT 10SM CLR 32/12 A3003 RMK AO2 SLP116 T03220117 10333 20283 56023,M
ELY,2023-08-01 23:53,-114.8453,39.2950,1909.00,59.00,56.00,89.76,170.00,10.00,0.18,30.31,1018.40,1.50,18.00,SCT,BKN,OVC,M,4200.00,5000.00,7000.00,M,+TSRA BR,M,M,M,29.00,280.00,2023-08-01 23:04,59.00,KELY 012353Z AUTO 17010G18KT 1 1/2SM +TSRA BR SCT042 BKN050 OVC070 15/13 A3031 RMK AO2 PK WND 28029/2304 WSHFT 2252 LTG DSNT SE AND S AND NW RAB16 TSB03 SLP184 P0018 60018 T01500133 10272 20150 53014 $,M
VGT,2023-08-01 23:53,-115.1933,36.2111,667.00,95.00,60.00,31.36,80.00,14.00,0.00,29.96,1013.40,10.00,20.00,CLR,M,M,M,M,M,M,M,M,M,M,M,M,M,M,94.94,KVGT 012353Z 08014G20KT 10SM CLR 35/16 A2996 RMK AO2 LTG DSNT ALQDS SLP134 T03500156 10356 20300 56021,M
LOL,2023-08-01 23:53,-118.5701,40.0684,1192.43,91.00,29.00,10.88,180.00,7.00,0.00,30.02,1012.60,10.00,M,CLR,M,M,M,M,M,M,M,M,M,M,M,M,M,M,86.28,KLOL 012353Z AUTO 18007KT 10SM CLR 33/M02 A3002 RMK AO2 SLP126 T03281017 10344 20283 56014,M
BVU,2023-08-01 23:55,-114.8611,35.9475,671.00,77.00,68.00,73.78,290.00,8.00,0.00,30.00,M,6.00,14.00,SCT,BKN,OVC,M,3600.00,4500.00,6000.00,M,-TSRA,M,M,M,M,M,M,77.00,KBVU 012355Z AUTO 29008G14KT 6SM -TSRA SCT036 BKN045 OVC060 25/20 A3000 RMK AO2 LTG DSNT ALQDS,M
CXP,2023-08-01 23:55,-119.7326,39.1923,1431.00,89.60,33.80,13.80,350.00,4.00,0.00,30.09,M,10.00,M,CLR,M,M,M,M,M,M,M,M,M,M,M,M,M,M,85.59,KCXP 012355Z AUTO 35004KT 10SM CLR 32/01 A3009 RMK AO2,M
INS,2023-08-01 23:55,-115.6733,36.5872,955.00,89.00,52.50,28.82,0.00,0.00,0.00,30.02,1011.50,10.00,M,BKN,M,M,M,13000.00,M,M,M,M,M,M,M,M,M,M,86.58,KINS 012355Z AUTO 00000KT 10SM BKN130 32/11 A3002 RMK AO2 LTG DSNT SE SLP115 60000 T03160114 10318 20245 57027 $,M
RNO,2023-08-01 23:55,-119.7711,39.4839,1341.00,91.00,37.00,15.00,250.00,11.00,0.00,30.05,1011.50,10.00,15.00,FEW,SCT,BKN,M,12000.00,17000.00,25000.00,M,M,M,M,M,M,M,M,86.86,KRNO 012355Z 25011G15KT 10SM FEW120 SCT170 BKN250 33/03 A3005 RMK AO2 SLP115 T03280028 10350 20278 56014,M
RTS,2023-08-01 23:55,-119.8764,39.6682,1539.00,87.80,30.20,12.64,320.00,18.00,0.00,30.12,M,10.00,25.00,CLR,M,M,M,M,M,M,M,M,M,M,M,M,M,M,84.01,KRTS 012355Z AUTO 32018G25KT 10SM CLR 31/M01 A3012 RMK AO2,M
05U,2023-08-01 23:55,-116.0051,39.6042,1811.23,60.80,57.20,87.92,M,M,0.07,30.28,M,5.00,M,M,M,M,M,M,M,M,M,BR,M,M,M,M,M,M,60.80,K05U 012355Z AUTO 5SM BR 16/14 A3028 RMK A01 P0007,M
MEV,2023-08-01 23:55,-119.7500,38.9963,1441.42,89.60,35.60,14.83,300.00,6.00,0.00,30.08,M,10.00,M,CLR,M,M,M,M,M,M,M,M,M,M,M,M,M,M,85.62,KMEV 012355Z AUTO 30006KT 10SM CLR 32/02 A3008 RMK AO2,M
HTH,2023-08-01 23:55,-118.6315,38.5448,1282.89,89.60,41.00,18.33,90.00,13.00,0.00,30.04,M,10.00,M,SCT,M,M,M,11000.00,M,M,M,M,M,M,M,M,M,M,85.82,KHTH 012355Z AUTO 09013KT 10SM SCT110 32/05 A3004 RMK A01,M
LSV,2023-08-01 23:55,-115.0343,36.2362,570.00,92.30,59.70,33.73,20.00,14.00,0.00,29.92,M,10.00,M,CLR,M,M,M,M,M,M,M,M,M,M,M,M,M,M,91.89,KLSV 012355Z AUTO 02014KT 10SM CLR 34/15 A2992 RMK AO2 LTG DSNT SE-S AND W SLPNO T03350154 10352 20307 57024 $,M
TMT,2023-08-01 23:55,-117.1971,39.4643,1749.34,81.30,33.30,17.65,150.00,6.00,0.00,30.18,M,M,26.00,SCT,BKN,M,M,10000.00,12000.00,M,M,M,M,M,M,M,M,M,79.30,KTMT 012355Z AUTO 15006G26KT SCT100 BKN120 27/01 A3018 RMK AO2 6//// T02740007 PWINO,M
10U,2023-08-01 23:55,-116.1876,41.9532,1637.00,86.00,35.60,16.63,210.00,7.00,0.00,30.13,M,10.00,14.00,CLR,M,M,M,M,M,M,M,M,M,M,M,M,M,M,82.69,K10U 012355Z AUTO 21007G14KT 10SM CLR 30/02 A3013 RMK AO2,M
EKO,2023-08-01 23:56,-115.7860,40.8242,1367.00,80.00,49.00,33.81,120.00,9.00,0.00,30.16,1015.50,10.00,M,SCT,OVC,M,M,7000.00,9500.00,M,M,M,M,M,M,M,M,M,79.46,KEKO 012356Z AUTO 12009KT 10SM SCT070 OVC095 27/09 A3016 RMK AO2 WSHFT 2245 SLP155 T02670094 10300 20267 55004,M
WMC,2023-08-01 23:56,-117.8072,40.9019,1315.00,91.00,24.00,8.85,320.00,5.00,0.00,30.06,1013.20,10.00,M,CLR,M,M,M,M,M,M,M,M,M,M,M,M,M,M,85.86,KWMC 012356Z AUTO 32005KT 10SM CLR 33/M04 A3006 RMK AO2 SLP132 T03281044 10339 20300 56011,M
NFL,2023-08-01 23:56,-118.7010,39.4166,1199.00,90.00,41.00,18.10,M,5.00,0.00,30.02,1013.60,10.00,M,SCT,BKN,BKN,OVC,8000.00,12000.00,18000.00,25000.00,M,M,M,M,M,M,M,86.16,KNFL 012356Z VRB05KT 10SM SCT080 BKN120 BKN180 OVC250 32/05 A3002 RMK AO2 SLP136 SH VC E-SE T03220050 10344 20278 57015,M
HND,2023-08-01 23:56,-115.1344,35.9729,742.79,89.00,62.00,40.59,160.00,13.00,0.00,30.02,1015.30,10.00,M,FEW,SCT,M,M,8000.00,11000.00,M,M,M,M,M,M,M,M,M,89.43,KHND 012356Z 16013KT 10SM FEW080 SCT110 32/17 A3002 RMK AO2 LTG DSNT ALQDS TSB28E43 SLP153 T03170167 10333 20289 55016,M
TPH,2023-08-01 23:56,-117.0904,38.0505,1654.00,81.00,44.00,27.09,210.00,9.00,T,30.18,1013.60,10.00,M,SCT,SCT,BKN,M,7000.00,8000.00,12000.00,M,M,M,M,M,M,M,M,79.61,KTPH 012356Z AUTO 21009KT 10SM SCT070 SCT080 BKN120 27/07 A3018 RMK AO2 RAB40E50 SLP136 P0000 60000 T02720067 10294 20267 56012,M
LAS,2023-08-01 23:56,-115.1634,36.0719,663.00,92.00,60.00,34.42,60.00,9.00,0.00,29.96,1012.00,10.00,M,FEW,SCT,BKN,M,9000.00,12000.00,20000.00,M,M,M,M,M,M,M,M,91.69,KLAS 012356Z 06009KT 10SM FEW090CB SCT120 BKN200 33/16 A2996 RMK AO2 LTG DSNT ALQDS SLP120 CB E-S-W AND DSNT N MOV N T03330156 10344 20283 56022,M
