station,valid,lon,lat,elevation,tmpf,dwpf,relh,drct,sknt,p01i,alti,mslp,vsby,gust,skyc1,skyc2,skyc3,skyc4,skyl1,skyl2,skyl3,skyl4,wxcodes,ice_accretion_1hr,ice_accretion_3hr,ice_accretion_6hr,peak_wind_gust,peak_wind_drct,peak_wind_time,feel,metar,snowdepth
NFL,2023-06-14 00:05,-118.7010,39.4166,1199.00,79.00,49.00,34.81,20.00,4.00,0.00,29.94,M,10.00,M,SCT,BKN,BKN,M,6000.00,10000.00,15000.00,M,TS,M,M,M,M,M,M,79.00,KNFL 140005Z 02004KT 10SM TS SCT060CB BKN100 BKN150 26/09 A2994 RMK AO2 TSB2359 OCNL LTGICCC N TS N MOV SE T02610094,M
05U,2023-06-14 00:10,-116.0051,39.6042,1811.23,64.40,48.20,55.63,M,5.00,0.00,30.08,M,10.00,M,CLR,M,M,M,M,M,M,M,M,M,M,M,M,M,M,64.40,K05U 140010Z AUTO VRB05KT 10SM CLR 18/09 A3008 RMK A01,M
BVU,2023-06-14 00:15,-114.8611,35.9475,671.00,91.40,37.40,15.05,120.00,7.00,0.00,29.82,M,10.00,M,CLR,M,M,M,M,M,M,M,M,M,M,M,M,M,M,87.23,KBVU 140015Z AUTO 12007KT 10SM CLR 33/03 A2982 RMK AO2,M
CXP,2023-06-14 00:15,-119.7326,39.1923,1431.00,69.80,46.40,43.13,320.00,10.00,0.00,30.05,M,10.00,M,BKN,M,M,M,8500.00,M,M,M,M,M,M,M,M,M,M,69.80,KCXP 140015Z AUTO 32010KT 10SM BKN085 21/08 A3005 RMK AO2 LTG DSNT ALQDS,M
RTS,2023-06-14 00:15,-119.8764,39.6682,1539.00,69.80,50.00,49.37,310.00,8.00,0.00,30.06,M,10.00,14.00,FEW,FEW,M,M,9000.00,12000.00,M,M,M,M,M,M,M,M,M,69.80,KRTS 140015Z AUTO 31008G14KT 10SM FEW090 FEW120 21/10 A3006 RMK AO2,M
MEV,2023-06-14 00:15,-119.7500,38.9963,1441.42,68.00,50.00,52.51,280.00,16.00,0.00,30.03,M,10.00,22.00,FEW,FEW,M,M,9500.00,12000.00,M,M,M,M,M,M,M,M,M,68.00,KMEV 140015Z AUTO 28016G22KT 10SM FEW095 FEW120 20/10 A3003 RMK AO2 LTG DSNT ALQDS,M
BAM,2023-06-14 00:15,-116.8743,40.5990,1382.36,68.00,53.60,59.97,350.00,19.00,0.00,29.98,M,10.00,M,BKN,OVC,M,M,5500.00,6500.00,M,M,M,M,M,M,M,M,M,68.00,KBAM 140015Z AUTO 35019KT 10SM BKN055 OVC065 20/12 A2998 RMK AO1,M
TMT,2023-06-14 00:15,-117.1971,39.4643,1749.34,63.00,51.80,66.80,70.00,4.00,0.00,30.05,M,10.00,M,SCT,BKN,OVC,M,7000.00,9000.00,12000.00,M,VCTS,M,M,M,M,M,M,63.00,KTMT 140015Z AUTO 07004KT 10SM VCTS SCT070 BKN090 OVC120 17/11 A3005 RMK AO2 LTG DSNT NW THRU E T01720110,M
NFL,2023-06-14 00:21,-118.7010,39.4166,1199.00,74.00,53.00,48.18,350.00,18.00,T,29.96,M,6.00,26.00,SCT,BKN,BKN,M,6000.00,10000.00,15000.00,M,TSRA,M,M,M,26.00,340.00,2023-06-14 00:17,73.90,KNFL 140021Z 35018G26KT 6SM TSRA SCT060CB BKN100 BKN150 23/12 A2996 RMK AO2 PK WND 34026/0017 RAB13 TSB2359 PRESRR OCNL LTGICCCCG OVHD TS OVHD MOV S WR// P0000 T02330117,M
RNO,2023-06-14 00:29,-119.7711,39.4839,1341.00,66.00,57.00,72.72,130.00,7.00,0.05,30.04,M,10.00,M,SCT,BKN,BKN,M,6500.00,11000.00,15000.00,M,M,M,M,M,M,M,M,66.00,KRNO 140029Z 13007KT 10SM SCT065 BKN110 BKN150 19/14 A3004 RMK AO2 LTG DSNT SE RAE08 TSE28 CB DSNT SE THRU SW P0005 T01890139,M
05U,2023-06-14 00:30,-116.0051,39.6042,1811.23,62.60,46.40,55.37,40.00,9.00,0.00,30.08,M,10.00,M,FEW,SCT,SCT,M,6000.00,7000.00,8000.00,M,M,M,M,M,M,M,M,62.60,K05U 140030Z AUTO 04009KT 10SM FEW060 SCT070 SCT080 17/08 A3008 RMK A01,M
BVU,2023-06-14 00:35,-114.8611,35.9475,671.00,89.60,37.40,15.92,200.00,9.00,0.00,29.81,M,10.00,M,CLR,M,M,M,M,M,M,M,M,M,M,M,M,M,M,85.67,KBVU 140035Z AUTO 20009KT 10SM CLR 32/03 A2981 RMK AO2,M
CXP,2023-06-14 00:35,-119.7326,39.1923,1431.00,68.00,48.20,49.10,320.00,16.00,0.00,30.06,M,10.00,M,SCT,BKN,M,M,9000.00,12000.00,M,M,M,M,M,M,M,M,M,68.00,KCXP 140035Z AUTO 32016KT 10SM SCT090 BKN120 20/09 A3006 RMK AO2 LTG DSNT ALQDS,M
RTS,2023-06-14 00:35,-119.8764,39.6682,1539.00,66.20,48.20,52.25,310.00,11.00,0.00,30.07,M,10.00,18.00,SCT,BKN,BKN,M,6000.00,7500.00,8500.00,M,M,M,M,M,M,M,M,66.20,KRTS 140035Z AUTO 31011G18KT 10SM SCT060 BKN075 BKN085 19/09 A3007 RMK AO2,M
MEV,2023-06-14 00:35,-119.7500,38.9963,1441.42,68.00,50.00,52.51,290.00,8.00,0.00,30.04,M,10.00,20.00,CLR,M,M,M,M,M,M,M,M,M,M,M,M,M,M,68.00,KMEV 140035Z AUTO 29008G20KT 250V310 10SM CLR 20/10 A3004 RMK AO2 LTG DSNT ALQDS,M
BAM,2023-06-14 00:35,-116.8743,40.5990,1382.36,66.20,55.40,68.15,350.00,13.00,0.00,29.99,M,10.00,20.00,OVC,M,M,M,5500.00,M,M,M,M,M,M,M,M,M,M,66.20,KBAM 140035Z AUTO 35013G20KT 10SM OVC055 19/13 A2999 RMK AO1,M
TMT,2023-06-14 00:35,-117.1971,39.4643,1749.34,61.00,55.20,81.20,300.00,3.00,0.01,30.07,M,10.00,M,SCT,BKN,OVC,M,4500.00,5000.00,7000.00,M,TSRA,M,M,M,M,M,M,61.00,KTMT 140035Z AUTO 30003KT 10SM TSRA SCT045 BKN050 OVC070 16/13 A3007 RMK AO2 LTG DSNT W THRU NE P0001 T01610129,M
LSV,2023-06-14 00:42,-115.0343,36.2362,570.00,91.40,39.20,16.15,150.00,11.00,0.00,29.76,1005.60,10.00,M,CLR,M,M,M,M,M,M,M,M,M,M,M,M,M,M,87.30,KLSV 140042Z AUTO 15011KT 10SM CLR 33/04 A2976 RMK AO2 WSHFT 33 SLP056 $,M
05U,2023-06-14 00:50,-116.0051,39.6042,1811.23,60.80,48.20,63.15,50.00,9.00,0.00,30.08,M,10.00,M,FEW,BKN,BKN,M,6000.00,7000.00,8000.00,M,M,M,M,M,M,M,M,60.80,K05U 140050Z AUTO 05009KT 010V070 10SM FEW060 BKN070 BKN080 16/09 A3008 RMK A01,M
P68,2023-06-14 00:53,-116.0056,39.6014,1993.00,60.00,48.00,64.26,330.00,10.00,0.00,30.06,1012.70,M,M,M,M,M,M,M,M,M,M,M,M,M,M,M,M,M,60.10,KP68 140053Z AUTO 33010KT 16/09 A3006 RMK AO1 SLP127 T01560089,M
DRA,2023-06-14 00:53,-116.0278,36.6206,1009.00,86.00,37.00,17.57,M,M,0.00,29.87,1007.40,10.00,M,CLR,M,M,M,M,M,M,M,M,M,M,M,M,M,M,82.72,KDRA 140053Z AUTO 10SM CLR 30/03 A2987 RMK AO2 SLP074 T03000028,M
ELY,2023-06-14 00:53,-114.8453,39.2950,1909.00,61.00,45.00,55.57,M,3.00,T,30.07,1011.90,10.00,M,SCT,BKN,M,M,9000.00,12000.00,M,M,M,M,M,M,M,M,M,61.00,KELY 140053Z AUTO VRB03KT 10SM SCT090 BKN120 16/07 A3007 RMK AO2 RAE11 SLP119 P0000 T01610072,M
VGT,2023-06-14 00:53,-115.1933,36.2111,667.00,92.00,39.00,15.77,210.00,10.00,0.00,29.80,1008.20,10.00,M,CLR,M,M,M,M,M,M,M,M,M,M,M,M,M,M,87.74,KVGT 140053Z 21010KT 10SM CLR 33/04 A2980 RMK AO2 SLP082 T03330039,M
LOL,2023-06-14 00:53,-118.5701,40.0684,1192.43,71.00,54.00,54.73,60.00,3.00,T,29.95,1011.80,10.00,M,CLR,M,M,M,M,M,M,M,M,M,M,M,M,M,M,71.10,KLOL 140053Z AUTO 06003KT 10SM CLR 22/12 A2995 RMK AO2 RAE16 SLP118 P0000 T02170122,M
BVU,2023-06-14 00:55,-114.8611,35.9475,671.00,89.60,37.40,15.92,120.00,8.00,0.00,29.81,M,10.00,M,CLR,M,M,M,M,M,M,M,M,M,M,M,M,M,M,85.67,KBVU 140055Z AUTO 12008KT 10SM CLR 32/03 A2981 RMK AO2 LTG DSNT N AND NE,M
CXP,2023-06-14 00:55,-119.7326,39.1923,1431.00,66.20,50.00,55.88,320.00,13.00,0.00,30.07,M,10.00,23.00,SCT,SCT,BKN,M,4900.00,6000.00,12000.00,M,-RA,M,M,M,M,M,M,66.20,KCXP 140055Z AUTO 32013G23KT 10SM -RA SCT049 SCT060 BKN120 19/10 A3007 RMK AO2 LTG DSNT ALQDS,M
RTS,2023-06-14 00:55,-119.8764,39.6682,1539.00,66.20,50.00,55.88,300.00,15.00,0.00,30.06,M,10.00,20.00,SCT,SCT,BKN,M,6500.00,7500.00,10000.00,M,M,M,M,M,M,M,M,66.20,KRTS 140055Z AUTO 30015G20KT 10SM SCT065 SCT075 BKN100 19/10 A3006 RMK AO2,M
MEV,2023-06-14 00:55,-119.7500,38.9963,1441.42,68.00,50.00,52.51,330.00,8.00,0.00,30.04,M,10.00,15.00,CLR,M,M,M,M,M,M,M,M,M,M,M,M,M,M,68.00,KMEV 140055Z AUTO 33008G15KT 10SM CLR 20/10 A3004 RMK AO2 LTG DSNT ALQDS,M
BAM,2023-06-14 00:55,-116.8743,40.5990,1382.36,64.40,55.40,72.56,60.00,8.00,0.00,30.00,M,10.00,M,BKN,BKN,OVC,M,6500.00,7500.00,9000.00,M,M,M,M,M,M,M,M,64.40,KBAM 140055Z AUTO 06008KT 10SM BKN065 BKN075 OVC090 18/13 A3000 RMK AO1,M
TMT,2023-06-14 00:55,-117.1971,39.4643,1749.34,59.20,52.00,77.00,140.00,5.00,0.03,30.05,M,10.00,M,SCT,BKN,OVC,M,5500.00,7000.00,8000.00,M,-TSRA,M,M,M,M,M,M,59.20,KTMT 140055Z AUTO 14005KT 10SM -TSRA SCT055 BKN070 OVC080 15/11 A3005 RMK AO2 LTG DSNT ALQS P0003 T01510111,M
INS,2023-06-14 00:55,-115.6733,36.5872,955.00,86.70,33.40,14.89,0.00,0.00,0.00,29.85,1006.60,10.00,M,FEW,M,M,M,11000.00,M,M,M,M,M,M,M,M,M,M,83.21,KINS 140055Z AUTO 00000KT 10SM FEW110 30/01 A2985 RMK AO2 SLP066 T03040008 $,M
LSV,2023-06-14 00:55,-115.0343,36.2362,570.00,91.60,39.00,15.92,140.00,6.00,0.00,29.76,1005.60,10.00,M,CLR,M,M,M,M,M,M,M,M,M,M,M,M,M,M,87.47,KLSV 140055Z AUTO 14006KT 10SM CLR 33/04 A2976 RMK AO2 SLP056 T03310039 $,M
RNO,2023-06-14 00:55,-119.7711,39.4839,1341.00,66.00,56.00,69.88,190.00,16.00,0.05,30.03,1013.20,10.00,M,SCT,BKN,BKN,M,7000.00,11000.00,17000.00,M,M,M,M,M,M,M,M,66.00,KRNO 140055Z 19016KT 10SM SCT070 BKN110 BKN170 19/13 A3003 RMK AO2 RAE08 TSE28 SLP132 P0005 T01890133,M
EKO,2023-06-14 00:56,-115.7860,40.8242,1367.00,64.00,54.00,69.92,210.00,9.00,0.00,30.00,1012.40,10.00,M,FEW,M,M,M,10000.00,M,M,M,M,M,M,M,M,M,M,64.00,KEKO 140056Z AUTO 21009KT 10SM FEW100 18/12 A3000 RMK AO2 SLP124 T01780122,M
WMC,2023-06-14 00:56,-117.8072,40.9019,1315.00,71.00,52.00,50.86,280.00,6.00,0.00,29.98,1011.40,10.00,M,FEW,M,M,M,12000.00,M,M,M,M,M,M,M,M,M,M,71.10,KWMC 140056Z AUTO 28006KT 10SM FEW120 22/11 A2998 RMK AO2 SLP114 T02170111,M
HND,2023-06-14 00:56,-115.1344,35.9729,742.79,90.00,39.00,16.74,180.00,8.00,0.00,29.84,1009.60,10.00,M,CLR,M,M,M,M,M,M,M,M,M,M,M,M,M,M,86.07,KHND 140056Z 18008KT 10SM CLR 32/04 A2984 RMK AO2 SLP096 T03220039,M
NFL,2023-06-14 00:56,-118.7010,39.4166,1199.00,68.00,56.00,65.22,340.00,9.00,0.08,29.96,1011.80,6.00,M,BKN,BKN,BKN,M,6000.00,10000.00,15000.00,M,-TSRA,M,M,M,26.00,340.00,2023-06-14 00:17,68.00,KNFL 140056Z 34009KT 6SM -TSRA BKN060CB BKN100 BKN150 20/13 A2996 RMK AO2 PK WND 34026/0017 RAB13 TSB2359 SLP118 OCNL LTGICCCCG OVHD TS OVHD MOV S WR// P0008 T02000133,M
LAS,2023-06-14 00:56,-115.1634,36.0719,663.00,89.00,38.00,16.50,160.00,4.00,0.00,29.80,1007.00,10.00,M,FEW,FEW,SCT,M,10000.00,15000.00,22000.00,M,M,M,M,M,M,M,M,85.26,KLAS 140056Z 16004KT 10SM FEW100 FEW150 SCT220 32/03 A2980 RMK AO2 SLP070 T03170033,M
05U,2023-06-14 01:10,-116.0051,39.6042,1811.23,59.00,48.20,67.33,40.00,8.00,0.00,30.09,M,9.00,M,BKN,M,M,M,7000.00,M,M,M,M,M,M,M,M,M,M,59.00,K05U 140110Z AUTO 04008KT 9SM BKN070 15/09 A3009 RMK A01,M
NFL,2023-06-14 01:12,-118.7010,39.4166,1199.00,69.00,54.00,58.60,340.00,6.00,T,29.96,M,10.00,M,SCT,BKN,BKN,M,6000.00,10000.00,15000.00,M,TS,M,M,M,M,M,M,69.10,KNFL 140112Z 34006KT 10SM TS SCT060CB BKN100 BKN150 21/12 A2996 RMK AO2 RAE12 OCNL LTGICCCCG S TS S MOV S WR// P0000 T02060122,M
BVU,2023-06-14 01:15,-114.8611,35.9475,671.00,89.60,39.20,17.09,170.00,10.00,0.00,29.81,M,10.00,M,CLR,M,M,M,M,M,M,M,M,M,M,M,M,M,M,85.73,KBVU 140115Z AUTO 17010KT 10SM CLR 32/04 A2981 RMK AO2,M
CXP,2023-06-14 01:15,-119.7326,39.1923,1431.00,64.40,50.00,59.50,330.00,11.00,0.00,30.07,M,10.00,17.00,FEW,BKN,OVC,M,5000.00,7500.00,9000.00,M,M,M,M,M,M,M,M,64.40,KCXP 140115Z AUTO 33011G17KT 10SM FEW050 BKN075 OVC090 18/10 A3007 RMK AO2 LTG DSNT E AND S AND NW,M
RTS,2023-06-14 01:15,-119.8764,39.6682,1539.00,64.40,50.00,59.50,220.00,10.00,0.00,30.06,M,10.00,M,FEW,SCT,SCT,M,7000.00,8000.00,9000.00,M,M,M,M,M,M,M,M,64.40,KRTS 140115Z AUTO 22010KT 10SM FEW070 SCT080 SCT090 18/10 A3006 RMK AO2,M
MEV,2023-06-14 01:15,-119.7500,38.9963,1441.42,66.20,48.20,52.25,360.00,9.00,0.00,30.05,M,10.00,16.00,SCT,M,M,M,9000.00,M,M,M,M,M,M,M,M,M,M,66.20,KMEV 140115Z AUTO 36009G16KT 10SM SCT090 19/09 A3005 RMK AO2 LTG DSNT ALQDS,M
BAM,2023-06-14 01:15,-116.8743,40.5990,1382.36,62.60,57.20,82.50,130.00,10.00,0.00,30.01,M,10.00,15.00,SCT,SCT,OVC,M,6500.00,8000.00,9000.00,M,M,M,M,M,M,M,M,62.60,KBAM 140115Z AUTO 13010G15KT 10SM SCT065 SCT080 OVC090 17/14 A3001 RMK AO1,M
TMT,2023-06-14 01:15,-117.1971,39.4643,1749.34,60.40,53.40,77.67,130.00,5.00,0.00,30.05,M,10.00,M,BKN,OVC,M,M,7000.00,8000.00,M,M,-RA,M,M,M,M,M,M,60.40,KTMT 140115Z AUTO 13005KT 10SM -RA BKN070 OVC080 16/12 A3005 RMK AO2 LTG DSNT ALQS T01580119,M
05U,2023-06-14 01:30,-116.0051,39.6042,1811.23,57.20,51.80,82.12,360.00,4.00,0.00,30.11,M,10.00,M,BKN,BKN,M,M,5500.00,6500.00,M,M,M,M,M,M,M,M,M,57.20,K05U 140130Z AUTO 36004KT 10SM BKN055 BKN065 14/11 A3011 RMK A01,M
BVU,2023-06-14 01:35,-114.8611,35.9475,671.00,87.80,37.40,16.86,M,6.00,0.00,29.81,M,10.00,14.00,CLR,M,M,M,M,M,M,M,M,M,M,M,M,M,M,84.16,KBVU 140135Z AUTO VRB06G14KT 10SM CLR 31/03 A2981 RMK AO2 LTG DSNT N AND NW,M
CXP,2023-06-14 01:35,-119.7326,39.1923,1431.00,60.80,53.60,77.14,0.00,0.00,0.00,30.07,M,3.00,12.00,FEW,SCT,BKN,M,5500.00,6500.00,7500.00,M,-RA HZ,M,M,M,M,M,M,60.80,KCXP 140135Z AUTO 00000G12KT 3SM -RA HZ FEW055 SCT065 BKN075 16/12 A3007 RMK AO2 LTG DSNT E AND SE AND NW,M
RTS,2023-06-14 01:35,-119.8764,39.6682,1539.00,62.60,50.00,63.38,240.00,5.00,0.00,30.07,M,10.00,M,BKN,BKN,BKN,M,7000.00,8500.00,11000.00,M,M,M,M,M,M,M,M,62.60,KRTS 140135Z AUTO 24005KT 10SM BKN070 BKN085 BKN110 17/10 A3007 RMK AO2,M
MEV,2023-06-14 01:35,-119.7500,38.9963,1441.42,64.40,50.00,59.50,20.00,10.00,0.00,30.05,M,10.00,17.00,FEW,BKN,BKN,M,8000.00,9000.00,11000.00,M,M,M,M,M,M,M,M,64.40,KMEV 140135Z AUTO 02010G17KT 10SM FEW080 BKN090 BKN110 18/10 A3005 RMK AO2 LTG DSNT E,M
BAM,2023-06-14 01:35,-116.8743,40.5990,1382.36,62.60,57.20,82.50,140.00,11.00,0.00,30.01,M,10.00,17.00,BKN,OVC,M,M,9000.00,10000.00,M,M,M,M,M,M,M,M,M,62.60,KBAM 140135Z AUTO 14011G17KT 10SM BKN090 OVC100 17/14 A3001 RMK AO1,M
TMT,2023-06-14 01:35,-117.1971,39.4643,1749.34,60.40,49.60,67.49,190.00,10.00,0.00,30.05,M,10.00,M,BKN,BKN,OVC,M,5000.00,7000.00,9000.00,M,-TSDZ,M,M,M,M,M,M,60.40,KTMT 140135Z AUTO 19010KT 10SM -TSDZ BKN050 BKN070 OVC090 16/10 A3005 RMK AO2 LTG DSNT NW THRU NE T01580098,M
05U,2023-06-14 01:50,-116.0051,39.6042,1811.23,55.40,51.80,87.65,30.00,5.00,0.00,30.12,M,4.00,M,FEW,BKN,M,M,2800.00,6000.00,M,M,HZ,M,M,M,M,M,M,55.40,K05U 140150Z AUTO 03005KT 4SM HZ FEW028 BKN060 13/11 A3012 RMK A01,M
P68,2023-06-14 01:53,-116.0056,39.6014,1993.00,56.00,52.00,86.71,230.00,5.00,0.02,30.09,1014.20,M,M,M,M,M,M,M,M,M,M,M,M,M,M,M,M,M,55.90,KP68 140153Z AUTO 23005KT 13/11 A3009 RMK AO1 SLP142 P0002 T01330111,M
LOL,2023-06-14 01:53,-118.5701,40.0684,1192.43,70.00,55.00,58.94,0.00,0.00,0.00,29.95,1011.80,10.00,M,SCT,M,M,M,12000.00,M,M,M,M,M,M,M,M,M,M,70.00,KLOL 140153Z AUTO 00000KT 10SM SCT120 21/13 A2995 RMK AO2 SLP118 T02110128,M
ELY,2023-06-14 01:53,-114.8453,39.2950,1909.00,57.00,47.00,68.90,30.00,13.00,0.00,30.08,1012.30,10.00,M,BKN,M,M,M,12000.00,M,M,M,M,M,M,M,M,M,M,57.00,KELY 140153Z AUTO 03013KT 10SM BKN120 14/08 A3008 RMK AO2 SLP123 T01390083,M
VGT,2023-06-14 01:53,-115.1933,36.2111,667.00,91.00,38.00,15.54,190.00,5.00,0.00,29.80,1008.20,10.00,M,CLR,M,M,M,M,M,M,M,M,M,M,M,M,M,M,86.90,KVGT 140153Z 19005KT 10SM CLR 33/03 A2980 RMK AO2 SLP082 T03280033,M
DRA,2023-06-14 01:53,-116.0278,36.6206,1009.00,85.00,37.00,18.20,240.00,9.00,0.00,29.88,1007.30,10.00,M,CLR,M,M,M,M,M,M,M,M,M,M,M,M,M,M,81.88,KDRA 140153Z AUTO 24009KT 10SM CLR 29/03 A2988 RMK AO2 SLP073 T02940028,M
BVU,2023-06-14 01:55,-114.8611,35.9475,671.00,89.60,37.40,15.92,140.00,8.00,0.00,29.81,M,10.00,M,CLR,M,M,M,M,M,M,M,M,M,M,M,M,M,M,85.67,KBVU 140155Z AUTO 14008KT 10SM CLR 32/03 A2981 RMK AO2,M
CXP,2023-06-14 01:55,-119.7326,39.1923,1431.00,60.80,51.80,72.20,0.00,0.00,0.02,30.07,M,9.00,M,FEW,FEW,SCT,M,1700.00,5500.00,7500.00,M,-RA,M,M,M,M,M,M,60.80,KCXP 140155Z AUTO 00000KT 9SM -RA FEW017 FEW055 SCT075 16/11 A3007 RMK AO2 P0002,M
RNO,2023-06-14 01:55,-119.7711,39.4839,1341.00,65.00,54.00,67.76,180.00,5.00,0.00,30.04,1013.30,10.00,M,FEW,BKN,BKN,M,8000.00,11000.00,20000.00,M,M,M,M,M,M,M,M,64.90,KRNO 140155Z 18005KT 10SM FEW080 BKN110 BKN200 18/12 A3004 RMK AO2 LTG DSNT N AND NW SLP133 T01830122,M
RTS,2023-06-14 01:55,-119.8764,39.6682,1539.00,62.60,51.80,67.75,290.00,10.00,0.00,30.08,M,10.00,M,SCT,SCT,OVC,M,7000.00,8500.00,11000.00,M,M,M,M,M,M,M,M,62.60,KRTS 140155Z AUTO 29010KT 10SM SCT070 SCT085 OVC110 17/11 A3008 RMK AO2,M
MEV,2023-06-14 01:55,-119.7500,38.9963,1441.42,64.40,51.80,63.60,20.00,14.00,0.00,30.06,M,9.00,M,SCT,SCT,M,M,7500.00,9000.00,M,M,-RA,M,M,M,M,M,M,64.40,KMEV 140155Z AUTO 02014KT 9SM -RA SCT075 SCT090 18/11 A3006 RMK AO2,M
BAM,2023-06-14 01:55,-116.8743,40.5990,1382.36,64.40,55.40,72.56,130.00,10.00,0.00,30.01,M,10.00,M,OVC,M,M,M,9000.00,M,M,M,M,M,M,M,M,M,M,64.40,KBAM 140155Z AUTO 13010KT 10SM OVC090 18/13 A3001 RMK AO1,M
TMT,2023-06-14 01:55,-117.1971,39.4643,1749.34,60.30,50.50,70.04,320.00,8.00,0.00,30.08,M,10.00,M,BKN,OVC,M,M,5500.00,8000.00,M,M,VCTS,M,M,M,M,M,M,60.30,KTMT 140155Z AUTO 32008KT 10SM VCTS BKN055 OVC080 16/10 A3008 RMK AO2 LTG DSNT ALQS T01570103,M
INS,2023-06-14 01:55,-115.6733,36.5872,955.00,85.80,34.30,15.89,250.00,11.00,0.00,29.85,1006.60,10.00,M,BKN,M,M,M,10000.00,M,M,M,M,M,M,M,M,M,M,82.51,KINS 140155Z AUTO 25011KT 10SM BKN100 30/01 A2985 RMK AO2 SLP066 T02990013 $,M
LSV,2023-06-14 01:55,-115.0343,36.2362,570.00,89.80,39.20,16.98,130.00,3.00,0.00,29.76,1005.50,10.00,M,CLR,M,M,M,M,M,M,M,M,M,M,M,M,M,M,85.90,KLSV 140155Z AUTO 13003KT 10SM CLR 32/04 A2976 RMK AO2 SLP055 T03210040 $,M
NFL,2023-06-14 01:56,-118.7010,39.4166,1199.00,70.00,55.00,58.94,290.00,6.00,T,29.98,1012.40,10.00,M,SCT,BKN,BKN,M,6000.00,10000.00,15000.00,M,M,M,M,M,M,M,M,70.00,KNFL 140156Z 29006KT 10SM SCT060CB BKN100 BKN150 21/13 A2998 RMK AO2 RAE12 TSE52 SLP124 OCNL LTGICCCCG DSNT SE TS DSNT SE MOV SE P0000 T02110128,M
HND,2023-06-14 01:56,-115.1344,35.9729,742.79,89.00,37.00,15.92,220.00,5.00,0.00,29.84,1009.50,10.00,M,SCT,M,M,M,12000.00,M,M,M,M,M,M,M,M,M,M,85.23,KHND 140156Z 22005KT 10SM SCT120 32/03 A2984 RMK AO2 SLP095 T03170028,M
LAS,2023-06-14 01:56,-115.1634,36.0719,663.00,90.00,37.00,15.48,0.00,0.00,0.00,29.80,1006.90,10.00,M,FEW,FEW,M,M,10000.00,15000.00,M,M,M,M,M,M,M,M,M,86.00,KLAS 140156Z 00000KT 10SM FEW100 FEW150 32/03 A2980 RMK AO2 SLP069 T03220028,M
EKO,2023-06-14 01:56,-115.7860,40.8242,1367.00,62.00,51.00,67.19,240.00,5.00,0.00,30.02,1012.80,10.00,M,SCT,BKN,M,M,9000.00,11000.00,M,M,M,M,M,M,M,M,M,62.10,KEKO 140156Z AUTO 24005KT 10SM SCT090 BKN110 17/11 A3002 RMK AO2 SLP128 T01670106,M
WMC,2023-06-14 01:56,-117.8072,40.9019,1315.00,69.00,56.00,62.80,350.00,5.00,0.00,29.98,1011.40,10.00,M,CLR,M,M,M,M,M,M,M,M,M,M,M,M,M,M,69.10,KWMC 140156Z AUTO 35005KT 10SM CLR 21/13 A2998 RMK AO2 LTG DSNT NE SLP114 T02060133,M
05U,2023-06-14 02:10,-116.0051,39.6042,1811.23,55.40,51.80,87.65,20.00,4.00,0.00,30.11,M,8.00,M,CLR,M,M,M,M,M,M,M,M,M,M,M,M,M,M,55.40,K05U 140210Z AUTO 02004KT 8SM CLR 13/11 A3011 RMK A01,M
BVU,2023-06-14 02:15,-114.8611,35.9475,671.00,89.60,37.40,15.92,180.00,9.00,0.00,29.81,M,10.00,M,CLR,M,M,M,M,M,M,M,M,M,M,M,M,M,M,85.67,KBVU 140215Z AUTO 18009KT 10SM CLR 32/03 A2981 RMK AO2,M
CXP,2023-06-14 02:15,-119.7326,39.1923,1431.00,60.80,55.40,82.37,0.00,0.00,0.00,30.07,M,10.00,M,FEW,BKN,M,M,1700.00,9000.00,M,M,M,M,M,M,M,M,M,60.80,KCXP 140215Z AUTO 00000KT 10SM FEW017 BKN090 16/13 A3007 RMK AO2 LTG DSNT N AND NW,M
RTS,2023-06-14 02:15,-119.8764,39.6682,1539.00,62.60,53.60,72.38,310.00,11.00,0.00,30.08,M,10.00,M,BKN,BKN,OVC,M,7000.00,8500.00,11000.00,M,M,M,M,M,M,M,M,62.60,KRTS 140215Z AUTO 31011KT 10SM BKN070 BKN085 OVC110 17/12 A3008 RMK AO2,M
MEV,2023-06-14 02:15,-119.7500,38.9963,1441.42,62.60,53.60,72.38,0.00,0.00,0.00,30.06,M,10.00,M,CLR,M,M,M,M,M,M,M,M,M,M,M,M,M,M,62.60,KMEV 140215Z AUTO 00000KT 10SM CLR 17/12 A3006 RMK AO2 LTG DSNT N AND NW,M
BAM,2023-06-14 02:15,-116.8743,40.5990,1382.36,64.40,55.40,72.56,120.00,8.00,0.00,30.01,M,10.00,M,BKN,OVC,M,M,9000.00,11000.00,M,M,M,M,M,M,M,M,M,64.40,KBAM 140215Z AUTO 12008KT 10SM BKN090 OVC110 18/13 A3001 RMK AO1,M
TMT,2023-06-14 02:15,-117.1971,39.4643,1749.34,56.30,51.40,83.59,0.00,0.00,0.19,30.09,M,2.00,M,BKN,BKN,OVC,M,2000.00,3000.00,5500.00,M,TSRA,M,M,M,M,M,M,56.30,KTMT 140215Z AUTO 00000KT 2SM TSRA BKN020 BKN030 OVC055 14/11 A3009 RMK AO2 VIS 1V5 LTG DSNT SW THRU NE P0019 T01350108,M
05U,2023-06-14 02:30,-116.0051,39.6042,1811.23,55.40,51.80,87.65,20.00,7.00,0.00,30.11,M,10.00,M,CLR,M,M,M,M,M,M,M,M,M,M,M,M,M,M,55.40,K05U 140230Z AUTO 02007KT 10SM CLR 13/11 A3011 RMK A01,M
BVU,2023-06-14 02:35,-114.8611,35.9475,671.00,87.80,37.40,16.86,160.00,8.00,0.00,29.81,M,10.00,M,CLR,M,M,M,M,M,M,M,M,M,M,M,M,M,M,84.16,KBVU 140235Z AUTO 16008KT 10SM CLR 31/03 A2981 RMK AO2,M
CXP,2023-06-14 02:35,-119.7326,39.1923,1431.00,62.60,55.40,77.29,0.00,0.00,0.00,30.06,M,10.00,M,OVC,M,M,M,9000.00,M,M,M,M,M,M,M,M,M,M,62.60,KCXP 140235Z AUTO 00000KT 10SM OVC090 17/13 A3006 RMK AO2 LTG DSNT N,M
RTS,2023-06-14 02:35,-119.8764,39.6682,1539.00,57.20,51.80,82.12,330.00,18.00,0.00,30.12,M,5.00,29.00,FEW,BKN,OVC,M,2500.00,5000.00,7500.00,M,-RA,M,M,M,M,M,M,57.20,KRTS 140235Z AUTO 33018G29KT 5SM -RA FEW025 BKN050 OVC075 14/11 A3012 RMK AO2,M
MEV,2023-06-14 02:35,-119.7500,38.9963,1441.42,62.60,51.80,67.75,0.00,0.00,0.00,30.06,M,10.00,M,CLR,M,M,M,M,M,M,M,M,M,M,M,M,M,M,62.60,KMEV 140235Z AUTO 00000KT 10SM CLR 17/11 A3006 RMK AO2 LTG DSNT N,M
BAM,2023-06-14 02:35,-116.8743,40.5990,1382.36,64.40,55.40,72.56,120.00,5.00,0.00,30.01,M,10.00,M,SCT,M,M,M,10000.00,M,M,M,M,M,M,M,M,M,M,64.40,KBAM 140235Z AUTO 12005KT 10SM SCT100 18/13 A3001 RMK AO1,M
TMT,2023-06-14 02:35,-117.1971,39.4643,1749.34,55.00,52.00,89.59,70.00,6.00,0.19,30.10,M,10.00,M,SCT,BKN,OVC,M,2100.00,4800.00,5000.00,M,M,M,M,M,M,M,M,55.00,KTMT 140235Z AUTO 07006KT 10SM SCT021 BKN048 OVC050 13/11 A3010 RMK AO2 LTG DSNT S THRU W P0019 T01280111,M
05U,2023-06-14 02:50,-116.0051,39.6042,1811.23,55.40,51.80,87.65,10.00,8.00,0.00,30.11,M,10.00,M,FEW,SCT,M,M,9000.00,11000.00,M,M,M,M,M,M,M,M,M,55.40,K05U 140250Z AUTO 01008KT 10SM FEW090 SCT110 13/11 A3011 RMK A01,M
DRA,2023-06-14 02:53,-116.0278,36.6206,1009.00,82.00,36.00,19.21,230.00,9.00,0.00,29.88,1007.30,10.00,M,CLR,M,M,M,M,M,M,M,M,M,M,M,M,M,M,79.83,KDRA 140253Z AUTO 23009KT 10SM CLR 28/02 A2988 RMK AO2 SLP073 T02780022 55003,M
ELY,2023-06-14 02:53,-114.8453,39.2950,1909.00,54.00,47.00,76.83,330.00,7.00,0.00,30.09,1011.90,10.00,M,CLR,M,M,M,M,M,M,M,M,M,M,M,M,M,M,54.00,KELY 140253Z AUTO 33007KT 10SM CLR 12/08 A3009 RMK AO2 SLP119 60000 T01220083 53003,M
VGT,2023-06-14 02:53,-115.1933,36.2111,667.00,90.00,40.00,17.34,M,5.00,0.00,29.80,1008.20,10.00,M,CLR,M,M,M,M,M,M,M,M,M,M,M,M,M,M,86.11,KVGT 140253Z VRB05KT 10SM CLR 32/04 A2980 RMK AO2 SLP082 T03220044 55004,M
P68,2023-06-14 02:53,-116.0056,39.6014,1993.00,56.00,52.00,86.71,170.00,8.00,0.01,30.08,1013.00,M,M,M,M,M,M,M,M,M,M,M,M,M,M,M,M,M,55.90,KP68 140253Z AUTO 17008KT 13/11 A3008 RMK AO1 SLP130 P0001 60003 T01330111 50012,M
LOL,2023-06-14 02:53,-118.5701,40.0684,1192.43,67.00,56.00,67.74,130.00,6.00,0.00,29.96,1012.20,10.00,M,BKN,M,M,M,12000.00,M,M,M,M,M,M,M,M,M,M,66.90,KLOL 140253Z AUTO 13006KT 10SM BKN120 19/13 A2996 RMK AO2 SLP122 60000 T01940133 55006,M
BVU,2023-06-14 02:55,-114.8611,35.9475,671.00,87.80,37.40,16.86,170.00,7.00,0.00,29.82,M,10.00,15.00,CLR,M,M,M,M,M,M,M,M,M,M,M,M,M,M,84.16,KBVU 140255Z AUTO 17007G15KT 10SM CLR 31/03 A2982 RMK AO2,M
CXP,2023-06-14 02:55,-119.7326,39.1923,1431.00,60.80,55.40,82.37,0.00,0.00,0.00,30.07,M,10.00,M,OVC,M,M,M,10000.00,M,M,M,M,M,M,M,M,M,M,60.80,KCXP 140255Z AUTO 00000KT 10SM OVC100 16/13 A3007 RMK AO2,M
RNO,2023-06-14 02:55,-119.7711,39.4839,1341.00,65.00,52.00,62.96,340.00,15.00,0.00,30.07,1014.50,10.00,26.00,SCT,BKN,BKN,M,7000.00,10000.00,20000.00,M,M,M,M,M,26.00,330.00,2023-06-14 02:47,64.90,KRNO 140255Z 34015G26KT 10SM SCT070 BKN100 BKN200 18/11 A3007 RMK AO2 PK WND 33026/0247 SLP145 60005 T01830111 53011,M
RTS,2023-06-14 02:55,-119.8764,39.6682,1539.00,55.40,53.60,93.65,330.00,6.00,0.19,30.13,M,2.50,15.00,FEW,BKN,OVC,M,500.00,3000.00,5000.00,M,+RA,M,M,M,M,M,M,55.40,KRTS 140255Z AUTO 33006G15KT 2 1/2SM +RA FEW005 BKN030 OVC050 13/12 A3013 RMK AO2 P0019,M
MEV,2023-06-14 02:55,-119.7500,38.9963,1441.42,60.80,53.60,77.14,150.00,4.00,0.00,30.06,M,10.00,M,BKN,M,M,M,10000.00,M,M,M,M,M,M,M,M,M,M,60.80,KMEV 140255Z AUTO 15004KT 10SM BKN100 16/12 A3006 RMK AO2,M
BAM,2023-06-14 02:55,-116.8743,40.5990,1382.36,64.40,53.60,67.95,110.00,5.00,0.00,30.01,M,10.00,M,SCT,M,M,M,10000.00,M,M,M,M,M,M,M,M,M,M,64.40,KBAM 140255Z AUTO 11005KT 10SM SCT100 18/12 A3001 RMK AO1,M
TMT,2023-06-14 02:55,-117.1971,39.4643,1749.34,54.70,52.50,92.26,150.00,6.00,0.23,30.09,M,10.00,M,SCT,OVC,M,M,3700.00,5000.00,M,M,-TSRA,M,M,M,M,M,M,54.70,KTMT 140255Z AUTO 15006KT 10SM -TSRA SCT037 OVC050 13/11 A3009 RMK AO2 LTG DSNT S THRU N P0023 60026 T01260114,M
INS,2023-06-14 02:55,-115.6733,36.5872,955.00,83.80,35.80,17.98,250.00,10.00,0.00,29.86,1006.80,10.00,M,OVC,M,M,M,10000.00,M,M,M,M,M,M,M,M,M,M,81.05,KINS 140255Z AUTO 25010KT 10SM OVC100 29/02 A2986 RMK AO2 SLP068 T02880021 55002 $,M
LSV,2023-06-14 02:55,-115.0343,36.2362,570.00,87.80,39.00,17.95,0.00,0.00,0.00,29.76,1005.40,10.00,M,FEW,M,M,M,13000.00,M,M,M,M,M,M,M,M,M,M,84.21,KLSV 140255Z AUTO 00000KT 10SM FEW130 31/04 A2976 RMK AO2 SLP054 T03100039 56004 $,M
EKO,2023-06-14 02:56,-115.7860,40.8242,1367.00,59.00,54.00,83.46,230.00,7.00,0.01,30.02,1013.00,10.00,M,FEW,SCT,BKN,M,2900.00,8000.00,10000.00,M,M,M,M,M,M,M,M,59.00,KEKO 140256Z AUTO 23007KT 10SM FEW029 SCT080 BKN100 15/12 A3002 RMK AO2 RAB10E39 SLP130 P0001 60001 T01500122 53004,M
WMC,2023-06-14 02:56,-117.8072,40.9019,1315.00,68.00,54.00,60.86,20.00,3.00,0.00,29.97,1011.20,10.00,M,FEW,M,M,M,11000.00,M,M,M,M,M,M,M,M,M,M,68.00,KWMC 140256Z AUTO 02003KT 10SM FEW110 20/12 A2997 RMK AO2 LTG DSNT N AND NE SLP112 T02000122 56004,M
NFL,2023-06-14 02:56,-118.7010,39.4166,1199.00,68.00,59.00,72.92,190.00,4.00,0.00,29.99,1012.60,10.00,M,SCT,BKN,BKN,M,6000.00,10000.00,15000.00,M,M,M,M,M,M,M,M,68.00,KNFL 140256Z 19004KT 10SM SCT060 BKN100 BKN150 20/15 A2999 RMK AO2 SLP126 CB DSNT ALQDS 60008 T02000150 51015,M
LAS,2023-06-14 02:56,-115.1634,36.0719,663.00,89.00,36.00,15.31,210.00,6.00,0.00,29.81,1006.80,10.00,M,FEW,FEW,M,M,10000.00,15000.00,M,M,M,M,M,M,M,M,M,85.21,KLAS 140256Z 21006KT 10SM FEW100 FEW150 32/02 A2981 RMK AO2 SLP068 T03170022 55005,M
HND,2023-06-14 02:56,-115.1344,35.9729,742.79,88.00,42.00,20.11,160.00,14.00,0.00,29.84,1009.40,10.00,M,OVC,M,M,M,12000.00,M,M,M,M,M,M,M,M,M,M,84.52,KHND 140256Z 16014KT 10SM OVC120 31/06 A2984 RMK AO2 SLP094 T03110056 55004,M
05U,2023-06-14 03:10,-116.0051,39.6042,1811.23,55.40,51.80,87.65,360.00,5.00,0.00,30.12,M,10.00,M,BKN,BKN,OVC,M,7000.00,8000.00,11000.00,M,M,M,M,M,M,M,M,55.40,K05U 140310Z AUTO 36005KT 10SM BKN070 BKN080 OVC110 13/11 A3012 RMK A01,M
BVU,2023-06-14 03:15,-114.8611,35.9475,671.00,86.00,37.40,17.85,170.00,7.00,0.00,29.82,M,10.00,M,CLR,M,M,M,M,M,M,M,M,M,M,M,M,M,M,82.73,KBVU 140315Z AUTO 17007KT 10SM CLR 30/03 A2982 RMK AO2,M
CXP,2023-06-14 03:15,-119.7326,39.1923,1431.00,60.80,57.20,87.92,0.00,0.00,0.00,30.08,M,10.00,M,SCT,OVC,M,M,8000.00,11000.00,M,M,M,M,M,M,M,M,M,60.80,KCXP 140315Z AUTO 00000KT 10SM SCT080 OVC110 16/14 A3008 RMK AO2 LTG DSNT E,M
RTS,2023-06-14 03:15,-119.8764,39.6682,1539.00,55.40,53.60,93.65,0.00,0.00,0.00,30.12,M,5.00,M,FEW,OVC,M,M,300.00,3300.00,M,M,-RA,M,M,M,M,M,M,55.40,KRTS 140315Z AUTO 00000KT 5SM -RA FEW003 OVC033 13/12 A3012 RMK AO2,M
MEV,2023-06-14 03:15,-119.7500,38.9963,1441.42,60.80,55.40,82.37,180.00,4.00,0.00,30.07,M,10.00,M,OVC,M,M,M,10000.00,M,M,M,M,M,M,M,M,M,M,60.80,KMEV 140315Z AUTO 18004KT 10SM OVC100 16/13 A3007 RMK AO2,M
BAM,2023-06-14 03:15,-116.8743,40.5990,1382.36,62.60,55.40,77.29,90.00,3.00,0.00,30.02,M,10.00,M,SCT,M,M,M,12000.00,M,M,M,M,M,M,M,M,M,M,62.60,KBAM 140315Z AUTO 09003KT 10SM SCT120 17/13 A3002 RMK AO1,M
TMT,2023-06-14 03:15,-117.1971,39.4643,1749.34,54.50,52.50,92.94,80.00,3.00,0.00,30.10,M,10.00,M,SCT,SCT,BKN,M,3900.00,4700.00,12000.00,M,TS,M,M,M,M,M,M,54.50,KTMT 140315Z AUTO 08003KT 10SM TS SCT039 SCT047 BKN120 13/11 A3010 RMK AO2 LTG DSNT SW T01250114,M
05U,2023-06-14 03:30,-116.0051,39.6042,1811.23,55.40,51.80,87.65,M,M,0.00,30.14,M,10.00,M,BKN,OVC,M,M,5500.00,7000.00,M,M,M,M,M,M,M,M,M,55.40,K05U 140330Z AUTO 10SM BKN055 OVC070 13/11 A3014 RMK A01,M
BVU,2023-06-14 03:35,-114.8611,35.9475,671.00,86.00,37.40,17.85,160.00,7.00,0.00,29.82,M,10.00,M,CLR,M,M,M,M,M,M,M,M,M,M,M,M,M,M,82.73,KBVU 140335Z AUTO 16007KT 10SM CLR 30/03 A2982 RMK AO2,M
CXP,2023-06-14 03:35,-119.7326,39.1923,1431.00,60.80,57.20,87.92,300.00,4.00,0.00,30.10,M,10.00,M,BKN,OVC,M,M,8000.00,11000.00,M,M,M,M,M,M,M,M,M,60.80,KCXP 140335Z AUTO 30004KT 10SM BKN080 OVC110 16/14 A3010 RMK AO2,M
RTS,2023-06-14 03:35,-119.8764,39.6682,1539.00,55.40,55.40,100.00,220.00,7.00,0.00,30.09,M,5.00,13.00,BKN,BKN,OVC,M,3500.00,4300.00,9500.00,M,-RA,M,M,M,M,M,M,55.40,KRTS 140335Z AUTO 22007G13KT 5SM -RA BKN035 BKN043 OVC095 13/13 A3009 RMK AO2,M
MEV,2023-06-14 03:35,-119.7500,38.9963,1441.42,60.80,55.40,82.37,0.00,0.00,0.00,30.07,M,10.00,M,FEW,BKN,OVC,M,6000.00,9500.00,11000.00,M,M,M,M,M,M,M,M,60.80,KMEV 140335Z AUTO 00000KT 10SM FEW060 BKN095 OVC110 16/13 A3007 RMK AO2,M
BAM,2023-06-14 03:35,-116.8743,40.5990,1382.36,62.60,53.60,72.38,110.00,8.00,0.00,30.02,M,10.00,M,BKN,OVC,M,M,9500.00,12000.00,M,M,M,M,M,M,M,M,M,62.60,KBAM 140335Z AUTO 11008KT 10SM BKN095 OVC120 17/12 A3002 RMK AO1,M
TMT,2023-06-14 03:35,-117.1971,39.4643,1749.34,55.20,52.50,90.60,350.00,4.00,0.00,30.10,M,10.00,M,SCT,OVC,M,M,7000.00,11000.00,M,M,VCTS,M,M,M,M,M,M,55.20,KTMT 140335Z AUTO 35004KT 10SM VCTS SCT070 OVC110 13/11 A3010 RMK AO2 LTG DSNT S AND SW T01290114,M
05U,2023-06-14 03:50,-116.0051,39.6042,1811.23,55.40,51.80,87.65,M,5.00,0.00,30.15,M,10.00,M,FEW,OVC,M,M,4000.00,5000.00,M,M,M,M,M,M,M,M,M,55.40,K05U 140350Z AUTO VRB05KT 10SM FEW040 OVC050 13/11 A3015 RMK A01,M
P68,2023-06-14 03:53,-116.0056,39.6014,1993.00,54.00,52.00,92.92,340.00,6.00,0.00,30.12,1014.30,M,M,M,M,M,M,M,M,M,M,M,M,M,M,M,M,M,54.00,KP68 140353Z AUTO 34006KT 12/11 A3012 RMK AO1 SLP143 T01220111,M
DRA,2023-06-14 03:53,-116.0278,36.6206,1009.00,79.00,36.00,21.19,250.00,6.00,0.00,29.88,1007.40,10.00,M,CLR,M,M,M,M,M,M,M,M,M,M,M,M,M,M,79.00,KDRA 140353Z AUTO 25006KT 10SM CLR 26/02 A2988 RMK AO2 SLP074 T02610022,M
LOL,2023-06-14 03:53,-118.5701,40.0684,1192.43,67.00,54.00,63.21,200.00,4.00,0.00,29.97,1012.30,10.00,M,CLR,M,M,M,M,M,M,M,M,M,M,M,M,M,M,66.90,KLOL 140353Z AUTO 20004KT 10SM CLR 19/12 A2997 RMK AO2 SLP123 T01940122,M
ELY,2023-06-14 03:53,-114.8453,39.2950,1909.00,52.00,47.00,82.68,290.00,4.00,0.00,30.10,1011.80,10.00,M,SCT,M,M,M,10000.00,M,M,M,M,M,M,M,M,M,M,52.00,KELY 140353Z AUTO 29004KT 10SM SCT100 11/08 A3010 RMK AO2 SLP118 T01110083,M
VGT,2023-06-14 03:53,-115.1933,36.2111,667.00,89.00,40.00,17.84,260.00,3.00,0.00,29.80,1008.20,10.00,M,CLR,M,M,M,M,M,M,M,M,M,M,M,M,M,M,85.34,KVGT 140353Z 26003KT 10SM CLR 32/04 A2980 RMK AO2 SLP082 T03170044,M
BVU,2023-06-14 03:55,-114.8611,35.9475,671.00,84.20,37.40,18.91,150.00,6.00,0.00,29.82,M,10.00,M,CLR,M,M,M,M,M,M,M,M,M,M,M,M,M,M,81.38,KBVU 140355Z AUTO 15006KT 10SM CLR 29/03 A2982 RMK AO2,M
CXP,2023-06-14 03:55,-119.7326,39.1923,1431.00,62.60,53.60,72.38,0.00,0.00,0.00,30.09,M,10.00,M,BKN,BKN,OVC,M,7500.00,9000.00,11000.00,M,M,M,M,M,M,M,M,62.60,KCXP 140355Z AUTO 00000KT 10SM BKN075 BKN090 OVC110 17/12 A3009 RMK AO2,M
RNO,2023-06-14 03:55,-119.7711,39.4839,1341.00,60.00,55.00,83.23,130.00,8.00,0.01,30.06,1014.10,7.00,M,SCT,BKN,M,M,5000.00,8000.00,M,M,RA,M,M,M,M,M,M,60.10,KRNO 140355Z 13008KT 7SM RA SCT050 BKN080 16/13 A3006 RMK AO2 RAB12 SLP141 P0001 T01560128,M
RTS,2023-06-14 03:55,-119.8764,39.6682,1539.00,57.20,53.60,87.74,330.00,6.00,0.09,30.09,M,10.00,M,FEW,FEW,BKN,M,3800.00,7500.00,11000.00,M,M,M,M,M,M,M,M,57.20,KRTS 140355Z AUTO 33006KT 10SM FEW038 FEW075 BKN110 14/12 A3009 RMK AO2 P0009,M
MEV,2023-06-14 03:55,-119.7500,38.9963,1441.42,60.80,55.40,82.37,50.00,4.00,0.00,30.08,M,10.00,M,BKN,OVC,M,M,8500.00,11000.00,M,M,M,M,M,M,M,M,M,60.80,KMEV 140355Z AUTO 05004KT 10SM BKN085 OVC110 16/13 A3008 RMK AO2,M
BAM,2023-06-14 03:55,-116.8743,40.5990,1382.36,62.60,53.60,72.38,100.00,6.00,0.00,30.02,M,10.00,M,OVC,M,M,M,9500.00,M,M,M,M,M,M,M,M,M,M,62.60,KBAM 140355Z AUTO 10006KT 10SM OVC095 17/12 A3002 RMK AO1,M
INS,2023-06-14 03:55,-115.6733,36.5872,955.00,82.00,34.30,17.96,210.00,10.00,0.00,29.87,1007.00,10.00,M,BKN,M,M,M,10000.00,M,M,M,M,M,M,M,M,M,M,79.78,KINS 140355Z AUTO 21010KT 10SM BKN100 28/01 A2987 RMK AO2 SLP070 T02780013 $,M
LSV,2023-06-14 03:55,-115.0343,36.2362,570.00,87.60,40.30,19.00,130.00,12.00,0.00,29.76,1005.20,10.00,M,CLR,M,M,M,M,M,M,M,M,M,M,M,M,M,M,84.10,KLSV 140355Z AUTO 13012KT 10SM CLR 31/05 A2976 RMK AO2 SLP052 T03090046 $,M
TMT,2023-06-14 03:55,-117.1971,39.4643,1749.34,54.00,53.00,95.70,320.00,4.00,0.00,30.10,M,10.00,M,SCT,SCT,M,M,4400.00,11000.00,M,M,M,M,M,M,M,M,M,54.10,KTMT 140355Z AUTO 32004KT 10SM SCT044 SCT110 12/12 A3010 RMK AO2 T01230116,M
WMC,2023-06-14 03:56,-117.8072,40.9019,1315.00,65.00,55.00,70.28,0.00,0.00,T,29.98,1011.70,10.00,M,FEW,OVC,M,M,8000.00,10000.00,M,M,-RA,M,M,M,M,M,M,64.90,KWMC 140356Z AUTO 00000KT 10SM -RA FEW080 OVC100 18/13 A2998 RMK AO2 RAB52 SLP117 P0000 T01830128,M
EKO,2023-06-14 03:56,-115.7860,40.8242,1367.00,58.00,53.00,84.00,270.00,3.00,T,30.03,1013.40,10.00,M,BKN,BKN,M,M,7500.00,9000.00,M,M,M,M,M,M,M,M,M,57.90,KEKO 140356Z AUTO 27003KT 10SM BKN075 BKN090 14/12 A3003 RMK AO2 RAB0259E25 SLP134 P0000 T01440117,M
NFL,2023-06-14 03:56,-118.7010,39.4166,1199.00,65.00,60.00,84.44,130.00,3.00,0.00,29.99,1012.80,10.00,M,SCT,SCT,BKN,M,6000.00,10000.00,15000.00,M,M,M,M,M,M,M,M,64.90,KNFL 140356Z 13003KT 10SM SCT060 SCT100 BKN150 18/16 A2999 RMK AO2 SLP128 CB DSNT W MOV S T01830156,M
HND,2023-06-14 03:56,-115.1344,35.9729,742.79,85.00,40.00,20.39,170.00,9.00,0.00,29.86,1009.80,10.00,M,CLR,M,M,M,M,M,M,M,M,M,M,M,M,M,M,81.98,KHND 140356Z AUTO 17009KT 10SM CLR 29/04 A2986 RMK AO2 SLP098 T02940044,M
LAS,2023-06-14 03:56,-115.1634,36.0719,663.00,87.00,40.00,19.01,160.00,7.00,0.00,29.82,1007.20,10.00,M,FEW,FEW,M,M,12000.00,15000.00,M,M,M,M,M,M,M,M,M,83.68,KLAS 140356Z 16007KT 10SM FEW120 FEW150 31/04 A2982 RMK AO2 SLP072 T03060044,M
05U,2023-06-14 04:10,-116.0051,39.6042,1811.23,55.40,50.00,81.99,50.00,7.00,0.00,30.16,M,9.00,M,SCT,BKN,OVC,M,200.00,4100.00,5000.00,M,M,M,M,M,M,M,M,55.40,K05U 140410Z AUTO 05007KT 9SM SCT002 BKN041 OVC050 13/10 A3016 RMK A01,M
BVU,2023-06-14 04:15,-114.8611,35.9475,671.00,84.20,37.40,18.91,150.00,6.00,0.00,29.83,M,10.00,M,CLR,M,M,M,M,M,M,M,M,M,M,M,M,M,M,81.38,KBVU 140415Z AUTO 15006KT 10SM CLR 29/03 A2983 RMK AO2,M
CXP,2023-06-14 04:15,-119.7326,39.1923,1431.00,60.80,53.60,77.14,270.00,5.00,0.00,30.09,M,10.00,M,FEW,OVC,M,M,6000.00,7500.00,M,M,M,M,M,M,M,M,M,60.80,KCXP 140415Z AUTO 27005KT 10SM FEW060 OVC075 16/12 A3009 RMK AO2,M
RTS,2023-06-14 04:15,-119.8764,39.6682,1539.00,55.40,55.40,100.00,360.00,8.00,0.00,30.09,M,10.00,M,BKN,BKN,M,M,7500.00,10000.00,M,M,M,M,M,M,M,M,M,55.40,KRTS 140415Z AUTO 36008KT 10SM BKN075 BKN100 13/13 A3009 RMK AO2,M
MEV,2023-06-14 04:15,-119.7500,38.9963,1441.42,60.80,55.40,82.37,350.00,7.00,0.00,30.09,M,10.00,M,BKN,M,M,M,9000.00,M,M,M,M,M,M,M,M,M,M,60.80,KMEV 140415Z AUTO 35007KT 10SM BKN090 16/13 A3009 RMK AO2,M
BAM,2023-06-14 04:15,-116.8743,40.5990,1382.36,62.60,53.60,72.38,80.00,7.00,0.00,30.03,M,10.00,M,SCT,BKN,M,M,9500.00,12000.00,M,M,M,M,M,M,M,M,M,62.60,KBAM 140415Z AUTO 08007KT 10SM SCT095 BKN120 17/12 A3003 RMK AO1,M
TMT,2023-06-14 04:15,-117.1971,39.4643,1749.34,53.80,52.30,94.64,310.00,4.00,0.00,30.10,M,10.00,M,SCT,SCT,M,M,4400.00,8000.00,M,M,M,M,M,M,M,M,M,53.80,KTMT 140415Z AUTO 31004KT 10SM SCT044 SCT080 12/11 A3010 RMK AO2 LTG DSNT N T01210113,M
05U,2023-06-14 04:30,-116.0051,39.6042,1811.23,53.60,51.80,93.60,40.00,6.00,0.00,30.15,M,7.00,M,BKN,BKN,OVC,M,200.00,4400.00,5000.00,M,M,M,M,M,M,M,M,53.60,K05U 140430Z AUTO 04006KT 7SM BKN002 BKN044 OVC050 12/11 A3015 RMK A01,M
BVU,2023-06-14 04:35,-114.8611,35.9475,671.00,84.20,37.40,18.91,140.00,7.00,0.00,29.83,M,10.00,M,CLR,M,M,M,M,M,M,M,M,M,M,M,M,M,M,81.38,KBVU 140435Z AUTO 14007KT 10SM CLR 29/03 A2983 RMK AO2,M
CXP,2023-06-14 04:35,-119.7326,39.1923,1431.00,60.80,53.60,77.14,220.00,7.00,0.00,30.07,M,10.00,M,FEW,BKN,OVC,M,5500.00,7500.00,10000.00,M,M,M,M,M,M,M,M,60.80,KCXP 140435Z AUTO 22007KT 10SM FEW055 BKN075 OVC100 16/12 A3007 RMK AO2 LTG DSNT NW,M
RTS,2023-06-14 04:35,-119.8764,39.6682,1539.00,57.20,55.40,93.69,360.00,6.00,0.00,30.09,M,10.00,M,OVC,M,M,M,8000.00,M,M,M,M,M,M,M,M,M,M,57.20,KRTS 140435Z AUTO 36006KT 10SM OVC080 14/13 A3009 RMK AO2,M
MEV,2023-06-14 04:35,-119.7500,38.9963,1441.42,60.80,53.60,77.14,340.00,4.00,0.00,30.08,M,10.00,M,FEW,M,M,M,9500.00,M,M,M,M,M,M,M,M,M,M,60.80,KMEV 140435Z AUTO 34004KT 10SM FEW095 16/12 A3008 RMK AO2 LTG DSNT NW,M
BAM,2023-06-14 04:35,-116.8743,40.5990,1382.36,62.60,55.40,77.29,60.00,7.00,0.00,30.04,M,10.00,M,SCT,BKN,BKN,M,5000.00,10000.00,12000.00,M,M,M,M,M,M,M,M,62.60,KBAM 140435Z AUTO 06007KT 10SM SCT050 BKN100 BKN120 17/13 A3004 RMK AO1,M
TMT,2023-06-14 04:35,-117.1971,39.4643,1749.34,53.40,52.00,94.98,330.00,4.00,0.00,30.11,M,10.00,M,SCT,SCT,M,M,8000.00,10000.00,M,M,M,M,M,M,M,M,M,53.40,KTMT 140435Z AUTO 33004KT 10SM SCT080 SCT100 12/11 A3011 RMK AO2 T01190111,M
05U,2023-06-14 04:50,-116.0051,39.6042,1811.23,53.60,51.80,93.60,20.00,10.00,0.00,30.14,M,10.00,M,FEW,BKN,OVC,M,200.00,6500.00,7500.00,M,M,M,M,M,M,M,M,53.60,K05U 140450Z AUTO 02010KT 10SM FEW002 BKN065 OVC075 12/11 A3014 RMK A01,M
P68,2023-06-14 04:53,-116.0056,39.6014,1993.00,53.00,52.00,96.03,210.00,8.00,0.03,30.11,1013.40,M,M,M,M,M,M,M,M,M,M,M,M,M,M,M,M,M,53.10,KP68 140453Z AUTO 21008KT 12/11 A3011 RMK AO1 SLP134 P0003 T01170111,M
DRA,2023-06-14 04:53,-116.0278,36.6206,1009.00,77.00,36.00,22.64,230.00,3.00,0.00,29.90,1007.80,10.00,M,CLR,M,M,M,M,M,M,M,M,M,M,M,M,M,M,77.00,KDRA 140453Z AUTO 23003KT 10SM CLR 25/02 A2990 RMK AO2 SLP078 T02500022,M
ELY,2023-06-14 04:53,-114.8453,39.2950,1909.00,54.00,48.00,80.07,0.00,0.00,0.00,30.11,1011.70,10.00,M,BKN,M,M,M,8000.00,M,M,M,M,M,M,M,M,M,M,54.00,KELY 140453Z AUTO 00000KT 10SM BKN080 12/09 A3011 RMK AO2 SLP117 T01220089,M
LOL,2023-06-14 04:53,-118.5701,40.0684,1192.43,65.00,55.00,70.28,110.00,4.00,0.00,29.98,1012.10,10.00,M,BKN,M,M,M,11000.00,M,M,M,M,M,M,M,M,M,M,64.90,KLOL 140453Z AUTO 11004KT 10SM BKN110 18/13 A2998 RMK AO2 SLP121 T01830128,M
VGT,2023-06-14 04:53,-115.1933,36.2111,667.00,86.00,42.00,21.43,170.00,5.00,0.00,29.82,1008.70,10.00,M,CLR,M,M,M,M,M,M,M,M,M,M,M,M,M,M,82.92,KVGT 140453Z AUTO 17005KT 10SM CLR 30/06 A2982 RMK AO2 SLP087 T03000056,M
BVU,2023-06-14 04:55,-114.8611,35.9475,671.00,84.20,37.40,18.91,170.00,4.00,0.00,29.83,M,10.00,M,CLR,M,M,M,M,M,M,M,M,M,M,M,M,M,M,81.38,KBVU 140455Z AUTO 17004KT 10SM CLR 29/03 A2983 RMK AO2,M
CXP,2023-06-14 04:55,-119.7326,39.1923,1431.00,60.80,51.80,72.20,280.00,5.00,0.00,30.07,M,10.00,12.00,FEW,SCT,BKN,M,6000.00,6500.00,7500.00,M,M,M,M,M,M,M,M,60.80,KCXP 140455Z AUTO 28005G12KT 10SM FEW060 SCT065 BKN075 16/11 A3007 RMK AO2 LTG DSNT NE AND NW,M
RNO,2023-06-14 04:55,-119.7711,39.4839,1341.00,61.00,55.00,80.61,210.00,5.00,0.02,30.05,1013.30,10.00,M,SCT,BKN,M,M,6500.00,11000.00,M,M,M,M,M,M,M,M,M,61.00,KRNO 140455Z 21005KT 10SM SCT065 BKN110 16/13 A3005 RMK AO2 RAE21 SLP133 P0002 T01610128,M
RTS,2023-06-14 04:55,-119.8764,39.6682,1539.00,57.20,53.60,87.74,340.00,6.00,0.00,30.09,M,10.00,M,BKN,M,M,M,9500.00,M,M,M,M,M,M,M,M,M,M,57.20,KRTS 140455Z AUTO 34006KT 10SM BKN095 14/12 A3009 RMK AO2,M
MEV,2023-06-14 04:55,-119.7500,38.9963,1441.42,60.80,53.60,77.14,310.00,5.00,0.00,30.08,M,10.00,M,FEW,FEW,M,M,5500.00,8500.00,M,M,M,M,M,M,M,M,M,60.80,KMEV 140455Z AUTO 31005KT 10SM FEW055 FEW085 16/12 A3008 RMK AO2 LTG DSNT NE AND NW,M
BAM,2023-06-14 04:55,-116.8743,40.5990,1382.36,62.60,57.20,82.50,90.00,5.00,0.00,30.04,M,7.00,M,SCT,BKN,OVC,M,5000.00,6000.00,7500.00,M,M,M,M,M,M,M,M,62.60,KBAM 140455Z AUTO 09005KT 7SM SCT050 BKN060 OVC075 17/14 A3004 RMK AO1,M
TMT,2023-06-14 04:55,-117.1971,39.4643,1749.34,53.20,51.80,94.98,280.00,4.00,0.00,30.11,M,10.00,M,BKN,M,M,M,10000.00,M,M,M,VCTS,M,M,M,M,M,M,53.20,KTMT 140455Z AUTO 28004KT 10SM VCTS BKN100 12/11 A3011 RMK AO2 T01180110,M
INS,2023-06-14 04:55,-115.6733,36.5872,955.00,77.50,34.50,20.98,250.00,8.00,0.00,29.89,1007.70,10.00,M,CLR,M,M,M,M,M,M,M,M,M,M,M,M,M,M,77.50,KINS 140455Z AUTO 25008KT 10SM CLR 25/01 A2989 RMK AO2 SLP077 T02530014 $,M
LSV,2023-06-14 04:55,-115.0343,36.2362,570.00,86.40,39.20,18.91,140.00,11.00,0.00,29.77,1005.60,10.00,M,CLR,M,M,M,M,M,M,M,M,M,M,M,M,M,M,83.10,KLSV 140455Z AUTO 14011KT 10SM CLR 30/04 A2977 RMK AO2 SLP056 T03020040 $,M
WMC,2023-06-14 04:56,-117.8072,40.9019,1315.00,64.00,55.00,72.52,160.00,4.00,T,29.98,1011.30,10.00,M,SCT,BKN,M,M,10000.00,12000.00,M,M,M,M,M,M,M,M,M,64.00,KWMC 140456Z AUTO 16004KT 10SM SCT100 BKN120 18/13 A2998 RMK AO2 RAE18 SLP113 P0000 T01780128,M
NFL,2023-06-14 04:56,-118.7010,39.4166,1199.00,64.00,56.00,74.93,210.00,7.00,0.00,30.00,1013.00,10.00,M,SCT,SCT,BKN,M,6000.00,10000.00,15000.00,M,M,M,M,M,M,M,M,64.00,KNFL 140456Z 21007KT 10SM SCT060 SCT100 BKN150 18/13 A3000 RMK AO2 SLP130 T01780133,M
HND,2023-06-14 04:56,-115.1344,35.9729,742.79,82.00,40.00,22.39,170.00,5.00,0.00,29.87,1010.30,10.00,M,CLR,M,M,M,M,M,M,M,M,M,M,M,M,M,M,79.98,KHND 140456Z AUTO 17005KT 10SM CLR 28/04 A2987 RMK AO2 SLP103 T02780044,M
EKO,2023-06-14 04:56,-115.7860,40.8242,1367.00,58.00,53.00,84.00,160.00,3.00,0.00,30.05,1013.80,10.00,M,BKN,OVC,M,M,4800.00,6000.00,M,M,M,M,M,M,M,M,M,57.90,KEKO 140456Z AUTO 16003KT 10SM BKN048 OVC060 14/12 A3005 RMK AO2 SLP138 T01440117,M
LAS,2023-06-14 04:56,-115.1634,36.0719,663.00,85.00,40.00,20.39,210.00,4.00,0.00,29.83,1007.50,10.00,M,FEW,FEW,M,M,12000.00,15000.00,M,M,M,M,M,M,M,M,M,81.98,KLAS 140456Z 21004KT 10SM FEW120 FEW150 29/04 A2983 RMK AO2 SLP075 T02940044,M
05U,2023-06-14 05:10,-116.0051,39.6042,1811.23,53.60,51.80,93.60,20.00,4.00,0.00,30.12,M,10.00,M,FEW,FEW,OVC,M,2600.00,3900.00,7500.00,M,M,M,M,M,M,M,M,53.60,K05U 140510Z AUTO 02004KT 10SM FEW026 FEW039 OVC075 12/11 A3012 RMK A01,M
BVU,2023-06-14 05:15,-114.8611,35.9475,671.00,84.20,37.40,18.91,200.00,10.00,0.00,29.84,M,10.00,M,CLR,M,M,M,M,M,M,M,M,M,M,M,M,M,M,81.38,KBVU 140515Z AUTO 20010KT 10SM CLR 29/03 A2984 RMK AO2,M
CXP,2023-06-14 05:15,-119.7326,39.1923,1431.00,60.80,53.60,77.14,210.00,5.00,0.00,30.08,M,10.00,M,SCT,SCT,BKN,M,6500.00,7500.00,9000.00,M,M,M,M,M,M,M,M,60.80,KCXP 140515Z AUTO 21005KT 10SM SCT065 SCT075 BKN090 16/12 A3008 RMK AO2,M
RTS,2023-06-14 05:15,-119.8764,39.6682,1539.00,57.20,53.60,87.74,220.00,8.00,0.00,30.10,M,10.00,M,FEW,SCT,M,M,10000.00,12000.00,M,M,M,M,M,M,M,M,M,57.20,KRTS 140515Z AUTO 22008KT 10SM FEW100 SCT120 14/12 A3010 RMK AO2,M
MEV,2023-06-14 05:15,-119.7500,38.9963,1441.42,59.00,53.60,82.25,0.00,0.00,0.00,30.07,M,10.00,M,FEW,FEW,M,M,5000.00,12000.00,M,M,M,M,M,M,M,M,M,59.00,KMEV 140515Z AUTO 00000KT 10SM FEW050 FEW120 15/12 A3007 RMK AO2,M
BAM,2023-06-14 05:15,-116.8743,40.5990,1382.36,60.80,57.20,87.92,70.00,5.00,0.00,30.04,M,7.00,M,SCT,BKN,OVC,M,6000.00,7500.00,9000.00,M,M,M,M,M,M,M,M,60.80,KBAM 140515Z AUTO 07005KT 7SM SCT060 BKN075 OVC090 16/14 A3004 RMK AO1,M
TMT,2023-06-14 05:15,-117.1971,39.4643,1749.34,53.00,51.80,96.03,240.00,5.00,0.00,30.11,M,10.00,M,OVC,M,M,M,10000.00,M,M,M,M,M,M,M,M,M,M,52.90,KTMT 140515Z AUTO 24005KT 10SM OVC100 12/11 A3011 RMK AO2 LTG DSNT N T01160110,M
05U,2023-06-14 05:30,-116.0051,39.6042,1811.23,53.60,51.80,93.60,20.00,4.00,0.00,30.12,M,10.00,M,FEW,FEW,OVC,M,4900.00,7000.00,10000.00,M,M,M,M,M,M,M,M,53.60,K05U 140530Z AUTO 02004KT 10SM FEW049 FEW070 OVC100 12/11 A3012 RMK A01,M
BVU,2023-06-14 05:35,-114.8611,35.9475,671.00,82.40,37.40,20.04,190.00,7.00,0.00,29.84,M,10.00,M,CLR,M,M,M,M,M,M,M,M,M,M,M,M,M,M,80.14,KBVU 140535Z AUTO 19007KT 10SM CLR 28/03 A2984 RMK AO2,M
CXP,2023-06-14 05:35,-119.7326,39.1923,1431.00,60.80,53.60,77.14,0.00,0.00,0.00,30.09,M,10.00,M,FEW,FEW,BKN,M,5000.00,6500.00,11000.00,M,M,M,M,M,M,M,M,60.80,KCXP 140535Z AUTO 00000KT 10SM FEW050 FEW065 BKN110 16/12 A3009 RMK AO2,M
RTS,2023-06-14 05:35,-119.8764,39.6682,1539.00,57.20,53.60,87.74,0.00,0.00,0.00,30.10,M,10.00,M,SCT,SCT,BKN,M,7500.00,8500.00,12000.00,M,M,M,M,M,M,M,M,57.20,KRTS 140535Z AUTO 00000KT 10SM SCT075 SCT085 BKN120 14/12 A3010 RMK AO2,M
MEV,2023-06-14 05:35,-119.7500,38.9963,1441.42,59.00,53.60,82.25,40.00,5.00,0.00,30.08,M,10.00,M,BKN,BKN,M,M,10000.00,12000.00,M,M,M,M,M,M,M,M,M,59.00,KMEV 140535Z AUTO 04005KT 10SM BKN100 BKN120 15/12 A3008 RMK AO2,M
BAM,2023-06-14 05:35,-116.8743,40.5990,1382.36,60.80,57.20,87.92,100.00,6.00,0.00,30.04,M,7.00,M,BKN,OVC,M,M,7500.00,9000.00,M,M,M,M,M,M,M,M,M,60.80,KBAM 140535Z AUTO 10006KT 7SM BKN075 OVC090 16/14 A3004 RMK AO1,M
TMT,2023-06-14 05:35,-117.1971,39.4643,1749.34,51.40,50.20,95.65,200.00,6.00,0.00,30.10,M,10.00,M,SCT,M,M,M,10000.00,M,M,M,M,M,M,M,M,M,M,51.40,KTMT 140535Z AUTO 20006KT 10SM SCT100 11/10 A3010 RMK AO2 T01080101,M
05U,2023-06-14 05:50,-116.0051,39.6042,1811.23,53.60,51.80,93.60,0.00,0.00,0.00,30.11,M,10.00,M,OVC,M,M,M,10000.00,M,M,M,M,M,M,M,M,M,M,53.60,K05U 140550Z AUTO 00000KT 10SM OVC100 12/11 A3011 RMK A01,M
P68,2023-06-14 05:53,-116.0056,39.6014,1993.00,53.00,52.00,96.03,0.00,0.00,0.00,30.08,1012.50,M,M,M,M,M,M,M,M,M,M,M,M,M,M,M,M,M,53.10,KP68 140553Z AUTO 00000KT 12/11 A3008 RMK AO1 SLP125 60006 T01170111 10178 20117 58000,M
ELY,2023-06-14 05:53,-114.8453,39.2950,1909.00,54.00,46.00,74.26,0.00,0.00,0.00,30.09,1011.20,10.00,M,SCT,M,M,M,7000.00,M,M,M,M,M,M,M,M,M,M,54.00,KELY 140553Z AUTO 00000KT 10SM SCT070 12/08 A3009 RMK AO2 SLP112 60000 T01220078 10161 20111 50001,M
DRA,2023-06-14 05:53,-116.0278,36.6206,1009.00,73.00,35.00,24.97,360.00,4.00,0.00,29.90,1007.90,10.00,M,CLR,M,M,M,M,M,M,M,M,M,M,M,M,M,M,73.00,KDRA 140553Z AUTO 36004KT 10SM CLR 23/02 A2990 RMK AO2 SLP079 T02280017 10306 20228 51006,M
LOL,2023-06-14 05:53,-118.5701,40.0684,1192.43,63.00,56.00,77.61,150.00,5.00,0.00,29.98,M,10.00,M,BKN,OVC,M,M,10000.00,12000.00,M,M,M,M,M,M,M,M,M,63.00,KLOL 140553Z AUTO 15005KT 10SM BKN100 OVC120 17/13 A2998 RMK AO2 SLPNO 60000 T01720133 10217 20172 50004,M
VGT,2023-06-14 05:53,-115.1933,36.2111,667.00,85.00,40.00,20.39,230.00,5.00,0.00,29.82,1008.60,10.00,M,CLR,M,M,M,M,M,M,M,M,M,M,M,M,M,M,81.98,KVGT 140553Z AUTO 23005KT 10SM CLR 29/04 A2982 RMK AO2 SLP086 T02940044 10333 20294 51005,M
BVU,2023-06-14 05:55,-114.8611,35.9475,671.00,80.60,37.40,21.25,180.00,3.00,0.00,29.84,M,10.00,M,CLR,M,M,M,M,M,M,M,M,M,M,M,M,M,M,79.02,KBVU 140555Z AUTO 18003KT 10SM CLR 27/03 A2984 RMK AO2,M
CXP,2023-06-14 05:55,-119.7326,39.1923,1431.00,60.80,53.60,77.14,0.00,0.00,0.00,30.09,M,9.00,M,BKN,OVC,M,M,9500.00,11000.00,M,M,M,M,M,M,M,M,M,60.80,KCXP 140555Z AUTO 00000KT 9SM BKN095 OVC110 16/12 A3009 RMK AO2,M
RTS,2023-06-14 05:55,-119.8764,39.6682,1539.00,57.20,53.60,87.74,0.00,0.00,0.00,30.10,M,10.00,M,SCT,BKN,M,M,7500.00,9000.00,M,M,M,M,M,M,M,M,M,57.20,KRTS 140555Z AUTO 00000KT 10SM SCT075 BKN090 14/12 A3010 RMK AO2,M
MEV,2023-06-14 05:55,-119.7500,38.9963,1441.42,55.40,53.60,93.65,100.00,6.00,0.00,30.08,M,10.00,M,SCT,BKN,M,M,9000.00,12000.00,M,M,M,M,M,M,M,M,M,55.40,KMEV 140555Z AUTO 10006KT 10SM SCT090 BKN120 13/12 A3008 RMK AO2,M
BAM,2023-06-14 05:55,-116.8743,40.5990,1382.36,59.00,57.20,93.74,130.00,4.00,0.00,30.03,M,10.00,M,SCT,BKN,M,M,7500.00,9000.00,M,M,M,M,M,M,M,M,M,59.00,KBAM 140555Z AUTO 13004KT 10SM SCT075 BKN090 15/14 A3003 RMK AO1,M
HTH,2023-06-14 05:55,-118.6315,38.5448,1282.89,64.40,55.40,72.56,160.00,8.00,0.00,30.05,M,10.00,M,BKN,M,M,M,6000.00,M,M,M,M,M,M,M,M,M,M,64.40,KHTH 140555Z AUTO 16008KT 10SM BKN060 18/13 A3005 RMK A01,M
INS,2023-06-14 05:55,-115.6733,36.5872,955.00,77.00,34.00,20.91,220.00,7.00,0.00,29.89,1007.70,10.00,M,CLR,M,M,M,M,M,M,M,M,M,M,M,M,M,M,77.00,KINS 140555Z AUTO 22007KT 10SM CLR 25/01 A2989 RMK AO2 SLP077 T02500011 10308 20241 50008 $,M
LSV,2023-06-14 05:55,-115.0343,36.2362,570.00,85.00,39.40,20.00,150.00,8.00,0.00,29.78,1005.80,10.00,M,CLR,M,M,M,M,M,M,M,M,M,M,M,M,M,M,81.96,KLSV 140555Z AUTO 15008KT 10SM CLR 29/04 A2978 RMK AO2 SLP058 T02940041 10336 20294 52006 $,M
RNO,2023-06-14 05:55,-119.7711,39.4839,1341.00,61.00,56.00,83.29,340.00,4.00,0.00,30.06,1013.50,10.00,M,BKN,M,M,M,10000.00,M,M,M,M,M,M,M,M,M,M,61.00,KRNO 140555Z 34004KT 10SM BKN100 16/13 A3006 RMK AO2 SLP135 60008 T01610133 10194 20156 55003,M
TMT,2023-06-14 05:55,-117.1971,39.4643,1749.34,51.00,50.00,96.00,240.00,3.00,0.00,30.10,M,10.00,M,CLR,M,M,M,M,M,M,M,M,M,M,M,M,M,M,51.10,KTMT 140555Z AUTO 24003KT 10SM CLR 11/10 A3010 RMK AO2 60026 T01060100 10176 20106,M
NFL,2023-06-14 05:56,-118.7010,39.4166,1199.00,63.00,55.00,75.11,230.00,6.00,0.00,30.00,1013.00,10.00,M,FEW,SCT,M,M,6000.00,12000.00,M,M,M,M,M,M,M,M,M,63.00,KNFL 140556Z 23006KT 10SM FEW060 SCT120 17/13 A3000 RMK AO2 SLP130 60008 T01720128 10261 20172 50004,M
TPH,2023-06-14 05:56,-117.0904,38.0505,1654.00,62.00,50.00,64.50,330.00,18.00,0.00,30.08,1012.10,10.00,M,OVC,M,M,M,9000.00,M,M,M,M,M,M,M,32.00,320.00,2023-06-14 05:41,62.10,KTPH 140556Z AUTO 33018KT 10SM OVC090 17/10 A3008 RMK AO2 PK WND 32032/0541 SLP121 T01670100 10244 20167 51018,M
LAS,2023-06-14 05:56,-115.1634,36.0719,663.00,83.00,39.00,21.00,220.00,3.00,0.00,29.83,1007.60,10.00,M,FEW,M,M,M,15000.00,M,M,M,M,M,M,M,M,M,M,80.53,KLAS 140556Z 22003KT 10SM FEW150 28/04 A2983 RMK AO2 SLP076 T02830039 10328 20283 51007,M
EKO,2023-06-14 05:56,-115.7860,40.8242,1367.00,56.00,53.00,90.29,210.00,6.00,0.05,30.04,1013.50,10.00,M,BKN,BKN,M,M,9000.00,10000.00,M,M,M,M,M,M,M,M,M,55.90,KEKO 140556Z AUTO 21006KT 10SM BKN090 BKN100 13/12 A3004 RMK AO2 RAB0457E39 SLP135 P0005 60006 T01330117 10194 20133 50007,M
WMC,2023-06-14 05:56,-117.8072,40.9019,1315.00,62.00,53.00,72.33,210.00,6.00,0.00,29.98,1011.40,10.00,M,FEW,M,M,M,12000.00,M,M,M,M,M,M,M,M,M,M,62.10,KWMC 140556Z AUTO 21006KT 10SM FEW120 17/12 A2998 RMK AO2 SLP114 60000 T01670117 10217 20167 51004,M
HND,2023-06-14 05:56,-115.1344,35.9729,742.79,80.00,40.00,23.82,150.00,5.00,0.00,29.87,1010.40,10.00,M,CLR,M,M,M,M,M,M,M,M,M,M,M,M,M,M,78.93,KHND 140556Z AUTO 15005KT 10SM CLR 27/04 A2987 RMK AO2 SLP104 T02670044 10328 20267 51009,M
05U,2023-06-14 06:10,-116.0051,39.6042,1811.23,53.60,51.80,93.60,0.00,0.00,0.00,30.11,M,10.00,M,FEW,BKN,BKN,M,7500.00,9500.00,11000.00,M,M,M,M,M,M,M,M,53.60,K05U 140610Z AUTO 00000KT 10SM FEW075 BKN095 BKN110 12/11 A3011 RMK A01,M
BVU,2023-06-14 06:15,-114.8611,35.9475,671.00,77.00,37.40,23.93,350.00,5.00,0.00,29.84,M,10.00,M,CLR,M,M,M,M,M,M,M,M,M,M,M,M,M,M,77.00,KBVU 140615Z AUTO 35005KT 10SM CLR 25/03 A2984 RMK AO2,M
CXP,2023-06-14 06:15,-119.7326,39.1923,1431.00,60.80,53.60,77.14,0.00,0.00,0.00,30.09,M,10.00,M,OVC,M,M,M,9500.00,M,M,M,M,M,M,M,M,M,M,60.80,KCXP 140615Z AUTO 00000KT 10SM OVC095 16/12 A3009 RMK AO2,M
RTS,2023-06-14 06:15,-119.8764,39.6682,1539.00,57.20,51.80,82.12,0.00,0.00,0.00,30.11,M,10.00,M,FEW,M,M,M,9000.00,M,M,M,M,M,M,M,M,M,M,57.20,KRTS 140615Z AUTO 00000KT 10SM FEW090 14/11 A3011 RMK AO2,M
MEV,2023-06-14 06:15,-119.7500,38.9963,1441.42,55.40,53.60,93.65,90.00,7.00,0.00,30.08,M,10.00,M,FEW,SCT,M,M,9000.00,12000.00,M,M,M,M,M,M,M,M,M,55.40,KMEV 140615Z AUTO 09007KT 10SM FEW090 SCT120 13/12 A3008 RMK AO2,M
BAM,2023-06-14 06:15,-116.8743,40.5990,1382.36,59.00,55.40,87.83,0.00,0.00,0.00,30.03,M,10.00,M,SCT,M,M,M,10000.00,M,M,M,M,M,M,M,M,M,M,59.00,KBAM 140615Z AUTO 00000KT 10SM SCT100 15/13 A3003 RMK AO1,M
HTH,2023-06-14 06:15,-118.6315,38.5448,1282.89,62.60,57.20,82.50,90.00,9.00,0.00,30.05,M,10.00,M,BKN,M,M,M,6000.00,M,M,M,M,M,M,M,M,M,M,62.60,KHTH 140615Z AUTO 09009KT 10SM BKN060 17/14 A3005 RMK A01,M
TMT,2023-06-14 06:15,-117.1971,39.4643,1749.34,51.60,51.00,97.44,290.00,3.00,0.00,30.11,M,10.00,M,BKN,M,M,M,7000.00,M,M,M,M,M,M,M,M,M,M,51.60,KTMT 140615Z AUTO 29003KT 10SM BKN070 11/11 A3011 RMK AO2 LTG DSNT N T01090105,M
05U,2023-06-14 06:30,-116.0051,39.6042,1811.23,51.80,51.80,100.00,0.00,0.00,0.00,30.11,M,10.00,M,FEW,SCT,SCT,M,7000.00,8500.00,10000.00,M,M,M,M,M,M,M,M,51.80,K05U 140630Z AUTO 00000KT 10SM FEW070 SCT085 SCT100 11/11 A3011 RMK A01,M
BVU,2023-06-14 06:35,-114.8611,35.9475,671.00,77.00,37.40,23.93,300.00,5.00,0.00,29.84,M,10.00,M,CLR,M,M,M,M,M,M,M,M,M,M,M,M,M,M,77.00,KBVU 140635Z AUTO 30005KT 10SM CLR 25/03 A2984 RMK AO2,M
CXP,2023-06-14 06:35,-119.7326,39.1923,1431.00,60.80,53.60,77.14,310.00,3.00,0.00,30.09,M,10.00,M,BKN,OVC,M,M,10000.00,12000.00,M,M,M,M,M,M,M,M,M,60.80,KCXP 140635Z AUTO 31003KT 10SM BKN100 OVC120 16/12 A3009 RMK AO2,M
RTS,2023-06-14 06:35,-119.8764,39.6682,1539.00,57.20,51.80,82.12,290.00,5.00,0.00,30.11,M,10.00,M,FEW,M,M,M,9000.00,M,M,M,M,M,M,M,M,M,M,57.20,KRTS 140635Z AUTO 29005KT 10SM FEW090 14/11 A3011 RMK AO2,M
MEV,2023-06-14 06:35,-119.7500,38.9963,1441.42,55.40,53.60,93.65,140.00,4.00,0.00,30.08,M,10.00,M,FEW,SCT,M,M,6500.00,12000.00,M,M,M,M,M,M,M,M,M,55.40,KMEV 140635Z AUTO 14004KT 10SM FEW065 SCT120 13/12 A3008 RMK AO2,M
BAM,2023-06-14 06:35,-116.8743,40.5990,1382.36,59.00,55.40,87.83,0.00,0.00,0.00,30.03,M,10.00,M,BKN,M,M,M,10000.00,M,M,M,M,M,M,M,M,M,M,59.00,KBAM 140635Z AUTO 00000KT 10SM BKN100 15/13 A3003 RMK AO1,M
HTH,2023-06-14 06:35,-118.6315,38.5448,1282.89,60.80,55.40,82.37,90.00,11.00,0.00,30.05,M,10.00,M,SCT,M,M,M,6000.00,M,M,M,M,M,M,M,M,M,M,60.80,KHTH 140635Z AUTO 09011KT 10SM SCT060 16/13 A3005 RMK A01,M
TMT,2023-06-14 06:35,-117.1971,39.4643,1749.34,50.40,50.00,98.52,0.00,0.00,0.00,30.11,M,10.00,M,SCT,M,M,M,7000.00,M,M,M,M,M,M,M,M,M,M,50.40,KTMT 140635Z AUTO 00000KT 10SM SCT070 10/10 A3011 RMK AO2 LTG DSNT N T01020100,M
05U,2023-06-14 06:50,-116.0051,39.6042,1811.23,51.80,50.00,93.55,M,3.00,0.00,30.11,M,10.00,M,BKN,BKN,M,M,6500.00,8000.00,M,M,M,M,M,M,M,M,M,51.80,K05U 140650Z AUTO VRB03KT 10SM BKN065 BKN080 11/10 A3011 RMK A01,M
ELY,2023-06-14 06:53,-114.8453,39.2950,1909.00,51.00,46.00,82.62,200.00,5.00,0.00,30.09,1011.20,10.00,M,BKN,M,M,M,11000.00,M,M,M,M,M,M,M,M,M,M,51.10,KELY 140653Z AUTO 20005KT 10SM BKN110 11/08 A3009 RMK AO2 SLP112 T01060078,M
VGT,2023-06-14 06:53,-115.1933,36.2111,667.00,82.00,41.00,23.37,320.00,4.00,0.00,29.82,1008.80,10.00,M,CLR,M,M,M,M,M,M,M,M,M,M,M,M,M,M,80.04,KVGT 140653Z AUTO 32004KT 10SM CLR 28/05 A2982 RMK AO2 SLP088 T02780050,M
LOL,2023-06-14 06:53,-118.5701,40.0684,1192.43,62.00,57.00,83.36,0.00,0.00,0.01,29.99,1012.40,10.00,M,BKN,OVC,M,M,8500.00,11000.00,M,M,-RA,M,M,M,M,M,M,62.10,KLOL 140653Z AUTO 00000KT 10SM -RA BKN085 OVC110 17/14 A2999 RMK AO2 RAB41 SLP124 P0001 T01670139,M
DRA,2023-06-14 06:53,-116.0278,36.6206,1009.00,72.00,35.00,25.83,0.00,0.00,0.00,29.90,1007.70,10.00,M,BKN,M,M,M,12000.00,M,M,M,M,M,M,M,M,M,M,72.00,KDRA 140653Z AUTO 00000KT 10SM BKN120 22/02 A2990 RMK AO2 SLP077 T02220017,M
P68,2023-06-14 06:53,-116.0056,39.6014,1993.00,51.00,51.00,100.00,340.00,3.00,0.00,30.09,1012.60,M,M,M,M,M,M,M,M,M,M,M,M,M,M,M,M,M,51.10,KP68 140653Z AUTO 34003KT 11/11 A3009 RMK AO1 SLP126 T01060106,M
BVU,2023-06-14 06:55,-114.8611,35.9475,671.00,77.00,37.40,23.93,300.00,4.00,0.00,29.84,M,10.00,M,CLR,M,M,M,M,M,M,M,M,M,M,M,M,M,M,77.00,KBVU 140655Z AUTO 30004KT 10SM CLR 25/03 A2984 RMK AO2,M
CXP,2023-06-14 06:55,-119.7326,39.1923,1431.00,59.00,55.40,87.83,0.00,0.00,0.00,30.09,M,10.00,M,OVC,M,M,M,12000.00,M,M,M,M,M,M,M,M,M,M,59.00,KCXP 140655Z AUTO 00000KT 10SM OVC120 15/13 A3009 RMK AO2,M
RTS,2023-06-14 06:55,-119.8764,39.6682,1539.00,57.20,53.60,87.74,0.00,0.00,0.00,30.10,M,10.00,M,FEW,SCT,M,M,7000.00,9000.00,M,M,M,M,M,M,M,M,M,57.20,KRTS 140655Z AUTO 00000KT 10SM FEW070 SCT090 14/12 A3010 RMK AO2,M
MEV,2023-06-14 06:55,-119.7500,38.9963,1441.42,57.20,53.60,87.74,0.00,0.00,0.00,30.08,M,10.00,M,FEW,FEW,BKN,M,7000.00,8500.00,12000.00,M,M,M,M,M,M,M,M,57.20,KMEV 140655Z AUTO 00000KT 10SM FEW070 FEW085 BKN120 14/12 A3008 RMK AO2,M
BAM,2023-06-14 06:55,-116.8743,40.5990,1382.36,59.00,55.40,87.83,0.00,0.00,0.00,30.02,M,10.00,M,OVC,M,M,M,11000.00,M,M,M,M,M,M,M,M,M,M,59.00,KBAM 140655Z AUTO 00000KT 10SM OVC110 15/13 A3002 RMK AO1,M
HTH,2023-06-14 06:55,-118.6315,38.5448,1282.89,60.80,53.60,77.14,90.00,10.00,0.00,30.05,M,10.00,M,CLR,M,M,M,M,M,M,M,M,M,M,M,M,M,M,60.80,KHTH 140655Z AUTO 09010KT 10SM CLR 16/12 A3005 RMK A01,M
INS,2023-06-14 06:55,-115.6733,36.5872,955.00,74.00,33.80,23.00,0.00,0.00,0.00,29.89,1007.70,10.00,M,CLR,M,M,M,M,M,M,M,M,M,M,M,M,M,M,73.90,KINS 140655Z AUTO 00000KT 10SM CLR 23/01 A2989 RMK AO2 SLP077 T02330010 $,M
TMT,2023-06-14 06:55,-117.1971,39.4643,1749.34,49.30,49.00,98.52,160.00,7.00,0.00,30.10,M,10.00,M,CLR,M,M,M,M,M,M,M,M,M,M,M,M,M,M,45.87,KTMT 140655Z AUTO 16007KT 10SM CLR 10/09 A3010 RMK AO2 T00960094,M
RNO,2023-06-14 06:55,-119.7711,39.4839,1341.00,60.00,56.00,85.99,0.00,0.00,0.00,30.07,1013.80,10.00,M,BKN,OVC,M,M,10000.00,14000.00,M,M,M,M,M,M,M,M,M,60.10,KRNO 140655Z 00000KT 10SM BKN100 OVC140 16/13 A3007 RMK AO2 SLP138 T01560133,M
LSV,2023-06-14 06:55,-115.0343,36.2362,570.00,83.00,40.00,21.92,150.00,10.00,0.00,29.78,1005.90,10.00,M,CLR,M,M,M,M,M,M,M,M,M,M,M,M,M,M,80.58,KLSV 140655Z AUTO 15010KT 10SM CLR 28/05 A2978 RMK AO2 SLP059 T02830045 $,M
WMC,2023-06-14 06:56,-117.8072,40.9019,1315.00,62.00,52.00,69.46,200.00,9.00,0.00,29.98,1011.20,10.00,M,FEW,SCT,M,M,9000.00,11000.00,M,M,M,M,M,M,M,M,M,62.10,KWMC 140656Z AUTO 20009KT 10SM FEW090 SCT110 17/11 A2998 RMK AO2 LTG DSNT NW SLP112 T01670111,M
NFL,2023-06-14 06:56,-118.7010,39.4166,1199.00,63.00,55.00,75.11,190.00,8.00,0.00,30.00,1012.90,10.00,M,FEW,SCT,BKN,M,6000.00,12000.00,15000.00,M,M,M,M,M,M,M,M,63.00,KNFL 140656Z 19008KT 10SM FEW060 SCT120 BKN150 17/13 A3000 RMK AO2 SLP129 T01720128,M
HND,2023-06-14 06:56,-115.1344,35.9729,742.79,78.00,39.00,24.56,200.00,6.00,0.00,29.87,1010.40,10.00,M,CLR,M,M,M,M,M,M,M,M,M,M,M,M,M,M,78.10,KHND 140656Z AUTO 20006KT 10SM CLR 26/04 A2987 RMK AO2 SLP104 T02560039 403280172,M
LAS,2023-06-14 06:56,-115.1634,36.0719,663.00,81.00,38.00,21.39,180.00,4.00,0.00,29.83,1007.60,10.00,M,FEW,M,M,M,15000.00,M,M,M,M,M,M,M,M,M,M,79.28,KLAS 140656Z 18004KT 10SM FEW150 27/03 A2983 RMK AO2 SLP076 T02720033,M
EKO,2023-06-14 06:56,-115.7860,40.8242,1367.00,56.00,53.00,90.29,280.00,5.00,0.00,30.02,1012.40,10.00,M,FEW,SCT,M,M,8000.00,10000.00,M,M,M,M,M,M,M,M,M,55.90,KEKO 140656Z AUTO 28005KT 10SM FEW080 SCT100 13/12 A3002 RMK AO2 SLP124 T01330117,M
TPH,2023-06-14 06:56,-117.0904,38.0505,1654.00,62.00,49.00,61.91,330.00,10.00,0.00,30.08,1011.80,10.00,M,OVC,M,M,M,9500.00,M,M,M,M,M,M,M,28.00,310.00,2023-06-14 06:08,62.10,KTPH 140656Z AUTO 33010KT 10SM OVC095 17/09 A3008 RMK AO2 PK WND 31028/0608 SLP118 T01670094,M
05U,2023-06-14 07:10,-116.0051,39.6042,1811.23,51.80,50.00,93.55,0.00,0.00,0.00,30.11,M,10.00,M,BKN,OVC,M,M,6500.00,8000.00,M,M,M,M,M,M,M,M,M,51.80,K05U 140710Z AUTO 00000KT 10SM BKN065 OVC080 11/10 A3011 RMK A01,M
BVU,2023-06-14 07:15,-114.8611,35.9475,671.00,75.20,37.40,25.40,330.00,6.00,0.00,29.84,M,10.00,M,CLR,M,M,M,M,M,M,M,M,M,M,M,M,M,M,75.20,KBVU 140715Z AUTO 33006KT 10SM CLR 24/03 A2984 RMK AO2,M
CXP,2023-06-14 07:15,-119.7326,39.1923,1431.00,59.00,53.60,82.25,300.00,3.00,0.00,30.09,M,10.00,M,BKN,M,M,M,12000.00,M,M,M,M,M,M,M,M,M,M,59.00,KCXP 140715Z AUTO 30003KT 10SM BKN120 15/12 A3009 RMK AO2,M
RTS,2023-06-14 07:15,-119.8764,39.6682,1539.00,57.20,51.80,82.12,280.00,5.00,0.00,30.10,M,10.00,M,FEW,BKN,BKN,M,7500.00,9000.00,11000.00,M,M,M,M,M,M,M,M,57.20,KRTS 140715Z AUTO 28005KT 10SM FEW075 BKN090 BKN110 14/11 A3010 RMK AO2,M
MEV,2023-06-14 07:15,-119.7500,38.9963,1441.42,57.20,53.60,87.74,0.00,0.00,0.00,30.08,M,10.00,M,BKN,M,M,M,12000.00,M,M,M,M,M,M,M,M,M,M,57.20,KMEV 140715Z AUTO 00000KT 10SM BKN120 14/12 A3008 RMK AO2,M
BAM,2023-06-14 07:15,-116.8743,40.5990,1382.36,59.00,57.20,93.74,0.00,0.00,0.00,30.02,M,10.00,M,OVC,M,M,M,10000.00,M,M,M,M,M,M,M,M,M,M,59.00,KBAM 140715Z AUTO 00000KT 10SM OVC100 15/14 A3002 RMK AO1,M
HTH,2023-06-14 07:15,-118.6315,38.5448,1282.89,60.80,55.40,82.37,100.00,10.00,0.00,30.05,M,10.00,M,FEW,M,M,M,6000.00,M,M,M,M,M,M,M,M,M,M,60.80,KHTH 140715Z AUTO 10010KT 10SM FEW060 16/13 A3005 RMK A01,M
TMT,2023-06-14 07:15,-117.1971,39.4643,1749.34,50.50,49.30,95.63,190.00,6.00,0.00,30.10,M,10.00,M,SCT,M,M,M,11000.00,M,M,M,M,M,M,M,M,M,M,50.50,KTMT 140715Z AUTO 19006KT 10SM SCT110 10/10 A3010 RMK AO2 T01030096,M
05U,2023-06-14 07:30,-116.0051,39.6042,1811.23,51.80,50.00,93.55,0.00,0.00,0.00,30.10,M,10.00,M,FEW,OVC,M,M,6500.00,8000.00,M,M,M,M,M,M,M,M,M,51.80,K05U 140730Z AUTO 00000KT 10SM FEW065 OVC080 11/10 A3010 RMK A01,M
BVU,2023-06-14 07:35,-114.8611,35.9475,671.00,75.20,39.20,27.26,320.00,5.00,0.00,29.83,M,10.00,M,CLR,M,M,M,M,M,M,M,M,M,M,M,M,M,M,75.20,KBVU 140735Z AUTO 32005KT 10SM CLR 24/04 A2983 RMK AO2,M
CXP,2023-06-14 07:35,-119.7326,39.1923,1431.00,59.00,53.60,82.25,0.00,0.00,0.00,30.09,M,10.00,M,OVC,M,M,M,12000.00,M,M,M,M,M,M,M,M,M,M,59.00,KCXP 140735Z AUTO 00000KT 10SM OVC120 15/12 A3009 RMK AO2,M
RTS,2023-06-14 07:35,-119.8764,39.6682,1539.00,57.20,51.80,82.12,290.00,6.00,0.00,30.09,M,10.00,M,SCT,BKN,OVC,M,6000.00,9000.00,11000.00,M,M,M,M,M,M,M,M,57.20,KRTS 140735Z AUTO 29006KT 10SM SCT060 BKN090 OVC110 14/11 A3009 RMK AO2,M
MEV,2023-06-14 07:35,-119.7500,38.9963,1441.42,57.20,53.60,87.74,0.00,0.00,0.00,30.07,M,10.00,M,FEW,SCT,M,M,8500.00,12000.00,M,M,M,M,M,M,M,M,M,57.20,KMEV 140735Z AUTO 00000KT 10SM FEW085 SCT120 14/12 A3007 RMK AO2,M
BAM,2023-06-14 07:35,-116.8743,40.5990,1382.36,59.00,57.20,93.74,0.00,0.00,0.00,30.02,M,10.00,M,SCT,OVC,M,M,9000.00,10000.00,M,M,M,M,M,M,M,M,M,59.00,KBAM 140735Z AUTO 00000KT 10SM SCT090 OVC100 15/14 A3002 RMK AO1,M
HTH,2023-06-14 07:35,-118.6315,38.5448,1282.89,60.80,55.40,82.37,190.00,4.00,0.00,30.04,M,10.00,M,CLR,M,M,M,M,M,M,M,M,M,M,M,M,M,M,60.80,KHTH 140735Z AUTO 19004KT 10SM CLR 16/13 A3004 RMK A01,M
TMT,2023-06-14 07:35,-117.1971,39.4643,1749.34,50.20,49.30,96.70,210.00,4.00,0.00,30.10,M,10.00,M,SCT,M,M,M,11000.00,M,M,M,M,M,M,M,M,M,M,50.20,KTMT 140735Z AUTO 21004KT 10SM SCT110 10/10 A3010 RMK AO2 T01010096,M
WMC,2023-06-14 07:48,-117.8072,40.9019,1315.00,60.00,57.00,89.48,350.00,12.00,0.13,30.02,M,2.50,M,SCT,BKN,OVC,M,3900.00,5500.00,7000.00,M,RA BR,M,M,M,M,M,M,60.10,KWMC 140748Z AUTO 35012KT 2 1/2SM RA BR SCT039 BKN055 OVC070 16/14 A3002 RMK AO2 RAB37 P0013 T01560139,M
05U,2023-06-14 07:50,-116.0051,39.6042,1811.23,51.80,50.00,93.55,0.00,0.00,0.00,30.10,M,10.00,M,BKN,OVC,M,M,6000.00,8000.00,M,M,M,M,M,M,M,M,M,51.80,K05U 140750Z AUTO 00000KT 10SM BKN060 OVC080 11/10 A3010 RMK A01,M
P68,2023-06-14 07:53,-116.0056,39.6014,1993.00,51.00,50.00,96.00,0.00,0.00,0.00,30.08,1012.70,M,M,M,M,M,M,M,M,M,M,M,M,M,M,M,M,M,51.10,KP68 140753Z AUTO 00000KT 11/10 A3008 RMK AO1 SLP127 T01060100 402110061,M
ELY,2023-06-14 07:53,-114.8453,39.2950,1909.00,52.00,46.00,79.92,170.00,3.00,0.00,30.07,1010.20,10.00,M,OVC,M,M,M,10000.00,M,M,M,M,M,M,M,M,M,M,52.00,KELY 140753Z AUTO 17003KT 10SM OVC100 11/08 A3007 RMK AO2 SLP102 T01110078 402110067,M
VGT,2023-06-14 07:53,-115.1933,36.2111,667.00,80.00,41.00,24.86,20.00,3.00,0.00,29.81,1008.60,10.00,M,CLR,M,M,M,M,M,M,M,M,M,M,M,M,M,M,78.98,KVGT 140753Z AUTO 02003KT 10SM CLR 27/05 A2981 RMK AO2 SLP086 T02670050 403330211,M
LOL,2023-06-14 07:53,-118.5701,40.0684,1192.43,61.00,58.00,89.52,190.00,4.00,0.02,29.99,1012.20,10.00,M,OVC,M,M,M,8000.00,M,M,M,M,M,M,M,M,M,M,61.00,KLOL 140753Z AUTO 19004KT 10SM OVC080 16/14 A2999 RMK AO2 RAE38 SLP122 P0002 T01610144 402440117,M
DRA,2023-06-14 07:53,-116.0278,36.6206,1009.00,69.00,35.00,28.51,20.00,7.00,0.00,29.89,1007.60,10.00,M,CLR,M,M,M,M,M,M,M,M,M,M,M,M,M,M,69.10,KDRA 140753Z AUTO 02007KT 10SM CLR 21/02 A2989 RMK AO2 SLP076 T02060017 403110139,M
BVU,2023-06-14 07:55,-114.8611,35.9475,671.00,75.20,41.00,29.23,330.00,4.00,0.00,29.83,M,10.00,M,CLR,M,M,M,M,M,M,M,M,M,M,M,M,M,M,75.20,KBVU 140755Z AUTO 33004KT 10SM CLR 24/05 A2983 RMK AO2,M
CXP,2023-06-14 07:55,-119.7326,39.1923,1431.00,59.00,53.60,82.25,190.00,3.00,0.00,30.08,M,10.00,M,SCT,M,M,M,12000.00,M,M,M,M,M,M,M,M,M,M,59.00,KCXP 140755Z AUTO 19003KT 10SM SCT120 15/12 A3008 RMK AO2,M
RTS,2023-06-14 07:55,-119.8764,39.6682,1539.00,55.40,53.60,93.65,270.00,9.00,0.00,30.09,M,10.00,M,FEW,FEW,SCT,M,6000.00,7000.00,8000.00,M,M,M,M,M,M,M,M,55.40,KRTS 140755Z AUTO 27009KT 10SM FEW060 FEW070 SCT080 13/12 A3009 RMK AO2,M
MEV,2023-06-14 07:55,-119.7500,38.9963,1441.42,57.20,53.60,87.74,0.00,0.00,0.00,30.07,M,10.00,M,SCT,SCT,M,M,8000.00,12000.00,M,M,M,M,M,M,M,M,M,57.20,KMEV 140755Z AUTO 00000KT 10SM SCT080 SCT120 14/12 A3007 RMK AO2,M
BAM,2023-06-14 07:55,-116.8743,40.5990,1382.36,59.00,55.40,87.83,140.00,3.00,0.00,30.01,M,10.00,M,OVC,M,M,M,10000.00,M,M,M,M,M,M,M,M,M,M,59.00,KBAM 140755Z AUTO 14003KT 10SM OVC100 15/13 A3001 RMK AO1,M
HTH,2023-06-14 07:55,-118.6315,38.5448,1282.89,59.00,55.40,87.83,110.00,5.00,0.00,30.04,M,10.00,M,CLR,M,M,M,M,M,M,M,M,M,M,M,M,M,M,59.00,KHTH 140755Z AUTO 11005KT 10SM CLR 15/13 A3004 RMK A01,M
TMT,2023-06-14 07:55,-117.1971,39.4643,1749.34,50.20,49.30,96.70,190.00,3.00,0.00,30.09,M,10.00,M,SCT,M,M,M,11000.00,M,M,M,M,M,M,M,M,M,M,50.20,KTMT 140755Z AUTO 19003KT 10SM SCT110 10/10 A3009 RMK AO2 T01010096 402110055,M
INS,2023-06-14 07:55,-115.6733,36.5872,955.00,72.50,36.70,27.06,0.00,0.00,0.00,29.88,1007.10,10.00,M,FEW,M,M,M,13000.00,M,M,M,M,M,M,M,M,M,M,72.50,KINS 140755Z AUTO 00000KT 10SM FEW130 23/03 A2988 RMK AO2 SLP071 T02250026 403090144 $,M
LSV,2023-06-14 07:55,-115.0343,36.2362,570.00,80.60,39.40,22.98,180.00,9.00,0.00,29.77,1005.60,10.00,M,CLR,M,M,M,M,M,M,M,M,M,M,M,M,M,M,79.11,KLSV 140755Z AUTO 18009KT 10SM CLR 27/04 A2977 RMK AO2 SLP056 T02700041 403520185 $,M
RNO,2023-06-14 07:55,-119.7711,39.4839,1341.00,59.00,56.00,89.44,180.00,4.00,0.00,30.05,1013.00,10.00,M,FEW,BKN,BKN,M,8000.00,11000.00,20000.00,M,M,M,M,M,M,M,M,59.00,KRNO 140755Z 18004KT 10SM FEW080 BKN110 BKN200 15/13 A3005 RMK AO2 SLP130 T01500133 402560128,M
WMC,2023-06-14 07:56,-117.8072,40.9019,1315.00,60.00,57.00,89.48,20.00,9.00,0.15,30.02,1012.30,5.00,M,FEW,BKN,OVC,M,3300.00,6000.00,7500.00,M,-TSRA BR,M,M,M,M,M,M,60.10,KWMC 140756Z AUTO 02009KT 5SM -TSRA BR FEW033 BKN060 OVC075 16/14 A3002 RMK AO2 RAB37 TSB55 SLP123 P0015 T01560139 402670128,M
NFL,2023-06-14 07:56,-118.7010,39.4166,1199.00,62.00,55.00,77.53,140.00,4.00,0.00,30.00,1012.90,10.00,M,FEW,M,M,M,11000.00,M,M,M,M,M,M,M,M,M,M,62.10,KNFL 140756Z AUTO 14004KT 10SM FEW110 17/13 A3000 RMK AO2 SLP129 T01670128 402720133,M
HND,2023-06-14 07:56,-115.1344,35.9729,742.79,77.00,39.00,25.47,200.00,4.00,0.00,29.87,1010.30,10.00,M,CLR,M,M,M,M,M,M,M,M,M,M,M,M,M,M,77.00,KHND 140756Z AUTO 20004KT 10SM CLR 25/04 A2987 RMK AO2 SLP103 T02500039,M
TPH,2023-06-14 07:56,-117.0904,38.0505,1654.00,60.00,48.00,64.26,10.00,4.00,0.00,30.06,1011.00,10.00,M,CLR,M,M,M,M,M,M,M,M,M,M,M,M,M,M,60.10,KTPH 140756Z AUTO 01004KT 10SM CLR 16/09 A3006 RMK AO2 SLP110 T01560089 402560078,M
EKO,2023-06-14 07:56,-115.7860,40.8242,1367.00,56.00,53.00,90.29,270.00,3.00,0.00,30.02,1012.50,10.00,M,SCT,OVC,M,M,8500.00,10000.00,M,M,M,M,M,M,M,M,M,55.90,KEKO 140756Z AUTO 27003KT 10SM SCT085 OVC100 13/12 A3002 RMK AO2 SLP125 T01330117 402170106,M
LAS,2023-06-14 07:56,-115.1634,36.0719,663.00,80.00,38.00,22.03,200.00,3.00,0.00,29.83,1007.30,10.00,M,CLR,M,M,M,M,M,M,M,M,M,M,M,M,M,M,78.85,KLAS 140756Z 20003KT 10SM CLR 27/03 A2983 RMK AO2 SLP073 T02670033 403330200,M
05U,2023-06-14 08:10,-116.0051,39.6042,1811.23,50.00,50.00,100.00,0.00,0.00,0.00,30.10,M,10.00,M,BKN,OVC,M,M,6000.00,7000.00,M,M,M,M,M,M,M,M,M,50.00,K05U 140810Z AUTO 00000KT 10SM BKN060 OVC070 10/10 A3010 RMK A01,M
WMC,2023-06-14 08:11,-117.8072,40.9019,1315.00,60.00,57.00,89.48,90.00,6.00,0.02,30.02,M,9.00,M,SCT,OVC,M,M,6500.00,8000.00,M,M,-RA,M,M,M,M,M,M,60.10,KWMC 140811Z AUTO 09006KT 9SM -RA SCT065 OVC080 16/14 A3002 RMK AO2 TSE0757B0758E00B02E03B04E08 P0002 T01560139,M
BVU,2023-06-14 08:15,-114.8611,35.9475,671.00,73.40,41.00,31.05,320.00,5.00,0.00,29.83,M,10.00,M,CLR,M,M,M,M,M,M,M,M,M,M,M,M,M,M,73.40,KBVU 140815Z AUTO 32005KT 10SM CLR 23/05 A2983 RMK AO2,M
CXP,2023-06-14 08:15,-119.7326,39.1923,1431.00,57.20,55.40,93.69,0.00,0.00,0.00,30.08,M,10.00,M,CLR,M,M,M,M,M,M,M,M,M,M,M,M,M,M,57.20,KCXP 140815Z AUTO 00000KT 10SM CLR 14/13 A3008 RMK AO2,M
RTS,2023-06-14 08:15,-119.8764,39.6682,1539.00,55.40,51.80,87.65,300.00,6.00,0.00,30.09,M,10.00,M,FEW,M,M,M,8000.00,M,M,M,M,M,M,M,M,M,M,55.40,KRTS 140815Z AUTO 30006KT 10SM FEW080 13/11 A3009 RMK AO2,M
MEV,2023-06-14 08:15,-119.7500,38.9963,1441.42,57.20,53.60,87.74,0.00,0.00,0.00,30.07,M,10.00,M,FEW,SCT,SCT,M,5000.00,8000.00,12000.00,M,M,M,M,M,M,M,M,57.20,KMEV 140815Z AUTO 00000KT 10SM FEW050 SCT080 SCT120 14/12 A3007 RMK AO2,M
BAM,2023-06-14 08:15,-116.8743,40.5990,1382.36,59.00,55.40,87.83,130.00,3.00,0.00,30.01,M,10.00,M,OVC,M,M,M,9000.00,M,M,M,M,M,M,M,M,M,M,59.00,KBAM 140815Z AUTO 13003KT 10SM OVC090 15/13 A3001 RMK AO1,M
HTH,2023-06-14 08:15,-118.6315,38.5448,1282.89,59.00,57.20,93.74,160.00,5.00,0.00,30.03,M,10.00,M,CLR,M,M,M,M,M,M,M,M,M,M,M,M,M,M,59.00,KHTH 140815Z AUTO 16005KT 10SM CLR 15/14 A3003 RMK A01,M
TMT,2023-06-14 08:15,-117.1971,39.4643,1749.34,49.50,49.00,98.52,160.00,4.00,0.00,30.09,M,10.00,M,OVC,M,M,M,10000.00,M,M,M,M,M,M,M,M,M,M,47.86,KTMT 140815Z AUTO 16004KT 10SM OVC100 10/10 A3009 RMK AO2 LTG DSNT N T00970095,M
WMC,2023-06-14 08:18,-117.8072,40.9019,1315.00,59.00,57.00,93.07,100.00,8.00,0.03,30.01,M,9.00,M,FEW,OVC,M,M,6500.00,8000.00,M,M,VCTS -RA,M,M,M,M,M,M,59.00,KWMC 140818Z AUTO 10008KT 9SM VCTS -RA FEW065 OVC080 15/14 A3001 RMK AO2 LTG DSNT E TSE0757B0758E00B02E03B04E08 P0003 T01500139,M
WMC,2023-06-14 08:28,-117.8072,40.9019,1315.00,60.00,57.00,89.48,120.00,6.00,0.03,30.01,M,10.00,M,OVC,M,M,M,9000.00,M,M,M,-RA,M,M,M,M,M,M,60.10,KWMC 140828Z AUTO 12006KT 10SM -RA OVC090 16/14 A3001 RMK AO2 LTG DSNT SE AND S TSE0757B0758E00B02E03B04E08 P0003 T01560139,M
CXP,2023-06-14 08:30,-119.7326,39.1923,1431.00,57.20,53.60,87.74,0.00,0.00,0.00,30.08,M,10.00,M,CLR,M,M,M,M,M,M,M,M,M,M,M,M,M,M,57.20,KCXP 140830Z AUTO 00000KT 10SM CLR 14/12 A3008 RMK AO2,M
05U,2023-06-14 08:30,-116.0051,39.6042,1811.23,50.00,48.20,93.50,20.00,4.00,0.00,30.10,M,10.00,M,SCT,BKN,M,M,6000.00,7500.00,M,M,M,M,M,M,M,M,M,50.00,K05U 140830Z AUTO 02004KT 10SM SCT060 BKN075 10/09 A3010 RMK A01,M
BVU,2023-06-14 08:35,-114.8611,35.9475,671.00,75.20,41.00,29.23,0.00,0.00,0.00,29.83,M,10.00,M,CLR,M,M,M,M,M,M,M,M,M,M,M,M,M,M,75.20,KBVU 140835Z AUTO 00000KT 10SM CLR 24/05 A2983 RMK AO2,M
RTS,2023-06-14 08:35,-119.8764,39.6682,1539.00,55.40,51.80,87.65,0.00,0.00,0.00,30.08,M,10.00,M,CLR,M,M,M,M,M,M,M,M,M,M,M,M,M,M,55.40,KRTS 140835Z AUTO 00000KT 10SM CLR 13/11 A3008 RMK AO2,M
MEV,2023-06-14 08:35,-119.7500,38.9963,1441.42,55.40,51.80,87.65,20.00,4.00,0.00,30.07,M,10.00,M,FEW,M,M,M,5000.00,M,M,M,M,M,M,M,M,M,M,55.40,KMEV 140835Z AUTO 02004KT 10SM FEW050 13/11 A3007 RMK AO2,M
BAM,2023-06-14 08:35,-116.8743,40.5990,1382.36,57.20,55.40,93.69,140.00,5.00,0.00,30.01,M,10.00,M,SCT,BKN,M,M,9000.00,10000.00,M,M,M,M,M,M,M,M,M,57.20,KBAM 140835Z AUTO 14005KT 10SM SCT090 BKN100 14/13 A3001 RMK AO1,M
HTH,2023-06-14 08:35,-118.6315,38.5448,1282.89,59.00,57.20,93.74,150.00,4.00,0.00,30.03,M,10.00,M,CLR,M,M,M,M,M,M,M,M,M,M,M,M,M,M,59.00,KHTH 140835Z AUTO 15004KT 10SM CLR 15/14 A3003 RMK A01,M
TMT,2023-06-14 08:35,-117.1971,39.4643,1749.34,50.00,49.30,97.43,0.00,0.00,0.00,30.09,M,10.00,M,BKN,OVC,M,M,8500.00,10000.00,M,M,M,M,M,M,M,M,M,50.00,KTMT 140835Z AUTO 00000KT 10SM BKN085 OVC100 10/10 A3009 RMK AO2 T01000096,M
05U,2023-06-14 08:50,-116.0051,39.6042,1811.23,48.20,46.40,93.45,20.00,4.00,0.00,30.10,M,10.00,M,CLR,M,M,M,M,M,M,M,M,M,M,M,M,M,M,46.34,K05U 140850Z AUTO 02004KT 10SM CLR 09/08 A3010 RMK A01,M
DRA,2023-06-14 08:53,-116.0278,36.6206,1009.00,71.00,36.00,27.60,30.00,6.00,0.00,29.89,1007.40,10.00,M,BKN,M,M,M,12000.00,M,M,M,M,M,M,M,M,M,M,71.10,KDRA 140853Z AUTO 03006KT 10SM BKN120 22/02 A2989 RMK AO2 SLP074 T02170022 56003,M
VGT,2023-06-14 08:53,-115.1933,36.2111,667.00,80.00,41.00,24.86,180.00,3.00,0.00,29.81,1008.60,10.00,M,CLR,M,M,M,M,M,M,M,M,M,M,M,M,M,M,78.98,KVGT 140853Z AUTO 18003KT 10SM CLR 27/05 A2981 RMK AO2 SLP086 T02670050 58001,M
P68,2023-06-14 08:53,-116.0056,39.6014,1993.00,48.00,47.00,95.95,160.00,5.00,0.00,30.07,1012.30,M,M,M,M,M,M,M,M,M,M,M,M,M,M,M,M,M,45.40,KP68 140853Z AUTO 16005KT 09/08 A3007 RMK AO1 SLP123 T00890083 58005,M
ELY,2023-06-14 08:53,-114.8453,39.2950,1909.00,48.00,44.00,86.28,170.00,4.00,0.00,30.06,1010.00,10.00,M,FEW,BKN,M,M,7000.00,10000.00,M,M,M,M,M,M,M,M,M,46.10,KELY 140853Z AUTO 17004KT 10SM FEW070 BKN100 09/07 A3006 RMK AO2 SLP100 T00890067 56009,M
LOL,2023-06-14 08:53,-118.5701,40.0684,1192.43,61.00,58.00,89.52,50.00,7.00,0.03,29.99,1012.30,10.00,M,FEW,SCT,OVC,M,5500.00,8000.00,9000.00,M,-RA,M,M,M,M,M,M,61.00,KLOL 140853Z AUTO 05007KT 10SM -RA FEW055 SCT080 OVC090 16/14 A2999 RMK AO2 RAB08 SLP123 P0003 60006 T01610144 51004,M
BVU,2023-06-14 08:55,-114.8611,35.9475,671.00,73.40,39.20,28.96,0.00,0.00,0.00,29.83,M,10.00,M,CLR,M,M,M,M,M,M,M,M,M,M,M,M,M,M,73.40,KBVU 140855Z AUTO 00000KT 10SM CLR 23/04 A2983 RMK AO2,M
CXP,2023-06-14 08:55,-119.7326,39.1923,1431.00,57.20,55.40,93.69,0.00,0.00,0.00,30.07,M,10.00,M,CLR,M,M,M,M,M,M,M,M,M,M,M,M,M,M,57.20,KCXP 140855Z AUTO 00000KT 10SM CLR 14/13 A3007 RMK AO2,M
RNO,2023-06-14 08:55,-119.7711,39.4839,1341.00,59.00,55.00,86.56,0.00,0.00,0.00,30.05,1013.20,10.00,M,FEW,BKN,BKN,M,11000.00,13000.00,20000.00,M,M,M,M,M,M,M,M,59.00,KRNO 140855Z 00000KT 10SM FEW110 BKN130 BKN200 15/13 A3005 RMK AO2 SLP132 T01500128 58003,M
RTS,2023-06-14 08:55,-119.8764,39.6682,1539.00,55.40,51.80,87.65,0.00,0.00,0.00,30.08,M,10.00,M,CLR,M,M,M,M,M,M,M,M,M,M,M,M,M,M,55.40,KRTS 140855Z AUTO 00000KT 10SM CLR 13/11 A3008 RMK AO2,M
MEV,2023-06-14 08:55,-119.7500,38.9963,1441.42,55.40,53.60,93.65,0.00,0.00,0.00,30.07,M,10.00,M,FEW,SCT,SCT,M,4000.00,5000.00,5500.00,M,M,M,M,M,M,M,M,55.40,KMEV 140855Z AUTO 00000KT 10SM FEW040 SCT050 SCT055 13/12 A3007 RMK AO2,M
BAM,2023-06-14 08:55,-116.8743,40.5990,1382.36,57.20,55.40,93.69,90.00,6.00,0.00,30.01,M,10.00,M,SCT,BKN,BKN,M,7500.00,8500.00,11000.00,M,M,M,M,M,M,M,M,57.20,KBAM 140855Z AUTO 09006KT 10SM SCT075 BKN085 BKN110 14/13 A3001 RMK AO1,M
HTH,2023-06-14 08:55,-118.6315,38.5448,1282.89,59.00,55.40,87.83,100.00,5.00,0.00,30.03,M,10.00,M,CLR,M,M,M,M,M,M,M,M,M,M,M,M,M,M,59.00,KHTH 140855Z AUTO 10005KT 10SM CLR 15/13 A3003 RMK A01,M
INS,2023-06-14 08:55,-115.6733,36.5872,955.00,72.30,35.40,25.88,0.00,0.00,0.00,29.89,1007.50,10.00,M,BKN,M,M,M,13000.00,M,M,M,M,M,M,M,M,M,M,72.30,KINS 140855Z AUTO 00000KT 10SM BKN130 22/02 A2989 RMK AO2 SLP075 T02240019 58001 $,M
LSV,2023-06-14 08:55,-115.0343,36.2362,570.00,76.80,41.20,27.93,220.00,5.00,0.00,29.78,1005.90,10.00,M,CLR,M,M,M,M,M,M,M,M,M,M,M,M,M,M,76.80,KLSV 140855Z AUTO 22005KT 10SM CLR 25/05 A2978 RMK AO2 SLP059 T02490051 $,M
TMT,2023-06-14 08:55,-117.1971,39.4643,1749.34,50.00,49.00,96.70,0.00,0.00,0.00,30.09,M,10.00,M,BKN,M,M,M,10000.00,M,M,M,M,M,M,M,M,M,M,50.00,KTMT 140855Z AUTO 00000KT 10SM BKN100 10/10 A3009 RMK AO2 T01000095,M
NFL,2023-06-14 08:56,-118.7010,39.4166,1199.00,63.00,54.00,72.42,200.00,5.00,0.00,29.99,1012.70,10.00,M,SCT,M,M,M,8000.00,M,M,M,M,M,M,M,M,M,M,63.00,KNFL 140856Z AUTO 20005KT 10SM SCT080 17/12 A2999 RMK AO2 SLP127 T01720122 58003,M
HND,2023-06-14 08:56,-115.1344,35.9729,742.79,75.00,39.00,27.23,180.00,8.00,0.00,29.86,1010.10,10.00,M,CLR,M,M,M,M,M,M,M,M,M,M,M,M,M,M,75.00,KHND 140856Z AUTO 18008KT 10SM CLR 24/04 A2986 RMK AO2 SLP101 T02390039 58003,M
TPH,2023-06-14 08:56,-117.0904,38.0505,1654.00,59.00,48.00,66.83,M,5.00,0.00,30.06,1011.60,10.00,M,SCT,M,M,M,12000.00,M,M,M,M,M,M,M,M,M,M,59.00,KTPH 140856Z AUTO VRB05KT 10SM SCT120 15/09 A3006 RMK AO2 SLP116 T01500089 55006,M
EKO,2023-06-14 08:56,-115.7860,40.8242,1367.00,56.00,53.00,90.29,0.00,0.00,0.00,30.02,1013.70,10.00,M,SCT,M,M,M,11000.00,M,M,M,M,M,M,M,M,M,M,55.90,KEKO 140856Z AUTO 00000KT 10SM SCT110 13/12 A3002 RMK AO2 SLP137 T01330117 55005,M
WMC,2023-06-14 08:56,-117.8072,40.9019,1315.00,58.00,56.00,93.04,180.00,7.00,0.03,30.00,1011.60,10.00,M,BKN,BKN,M,M,9000.00,12000.00,M,M,M,M,M,M,M,M,M,57.90,KWMC 140856Z AUTO 18007KT 10SM BKN090 BKN120 14/13 A3000 RMK AO2 LTG DSNT SE RAE34 TSE0757B0758E00B02E03B04E08 SLP116 P0003 60018 T01440133 50007,M
LAS,2023-06-14 08:56,-115.1634,36.0719,663.00,78.00,38.00,23.53,210.00,5.00,0.00,29.82,1007.30,10.00,M,CLR,M,M,M,M,M,M,M,M,M,M,M,M,M,M,78.10,KLAS 140856Z 21005KT 10SM CLR 26/03 A2982 RMK AO2 SLP073 T02560033 58002,M
05U,2023-06-14 09:10,-116.0051,39.6042,1811.23,48.20,46.40,93.45,20.00,5.00,0.00,30.09,M,10.00,M,FEW,M,M,M,10000.00,M,M,M,M,M,M,M,M,M,M,45.63,K05U 140910Z AUTO 02005KT 10SM FEW100 09/08 A3009 RMK A01,M
BVU,2023-06-14 09:15,-114.8611,35.9475,671.00,75.20,37.40,25.40,0.00,0.00,0.00,29.83,M,10.00,M,CLR,M,M,M,M,M,M,M,M,M,M,M,M,M,M,75.20,KBVU 140915Z AUTO 00000KT 10SM CLR 24/03 A2983 RMK AO2,M
CXP,2023-06-14 09:15,-119.7326,39.1923,1431.00,57.20,55.40,93.69,0.00,0.00,0.00,30.07,M,10.00,M,CLR,M,M,M,M,M,M,M,M,M,M,M,M,M,M,57.20,KCXP 140915Z AUTO 00000KT 10SM CLR 14/13 A3007 RMK AO2,M
RTS,2023-06-14 09:15,-119.8764,39.6682,1539.00,53.60,50.00,87.56,360.00,4.00,0.00,30.09,M,10.00,M,CLR,M,M,M,M,M,M,M,M,M,M,M,M,M,M,53.60,KRTS 140915Z AUTO 36004KT 10SM CLR 12/10 A3009 RMK AO2,M
MEV,2023-06-14 09:15,-119.7500,38.9963,1441.42,51.80,50.00,93.55,0.00,0.00,0.00,30.06,M,10.00,M,FEW,FEW,SCT,M,4100.00,4600.00,5000.00,M,M,M,M,M,M,M,M,51.80,KMEV 140915Z AUTO 00000KT 10SM FEW041 FEW046 SCT050 11/10 A3006 RMK AO2,M
BAM,2023-06-14 09:15,-116.8743,40.5990,1382.36,59.00,55.40,87.83,80.00,3.00,0.00,30.01,M,10.00,M,SCT,BKN,OVC,M,6500.00,7500.00,12000.00,M,M,M,M,M,M,M,M,59.00,KBAM 140915Z AUTO 08003KT 10SM SCT065 BKN075 OVC120 15/13 A3001 RMK AO1,M
HTH,2023-06-14 09:15,-118.6315,38.5448,1282.89,59.00,53.60,82.25,120.00,6.00,0.00,30.03,M,10.00,M,FEW,M,M,M,12000.00,M,M,M,M,M,M,M,M,M,M,59.00,KHTH 140915Z AUTO 12006KT 10SM FEW120 15/12 A3003 RMK A01,M
TMT,2023-06-14 09:15,-117.1971,39.4643,1749.34,49.50,48.60,96.69,0.00,0.00,0.00,30.09,M,10.00,M,BKN,M,M,M,10000.00,M,M,M,M,M,M,M,M,M,M,49.50,KTMT 140915Z AUTO 00000KT 10SM BKN100 10/09 A3009 RMK AO2 LTG DSNT N T00970092,M
05U,2023-06-14 09:30,-116.0051,39.6042,1811.23,50.00,48.20,93.50,10.00,4.00,0.00,30.09,M,10.00,M,BKN,M,M,M,10000.00,M,M,M,M,M,M,M,M,M,M,50.00,K05U 140930Z AUTO 01004KT 10SM BKN100 10/09 A3009 RMK A01,M
BVU,2023-06-14 09:35,-114.8611,35.9475,671.00,73.40,41.00,31.05,0.00,0.00,0.00,29.83,M,10.00,M,CLR,M,M,M,M,M,M,M,M,M,M,M,M,M,M,73.40,KBVU 140935Z AUTO 00000KT 10SM CLR 23/05 A2983 RMK AO2,M
CXP,2023-06-14 09:35,-119.7326,39.1923,1431.00,57.20,55.40,93.69,90.00,3.00,0.00,30.07,M,10.00,M,CLR,M,M,M,M,M,M,M,M,M,M,M,M,M,M,57.20,KCXP 140935Z AUTO 09003KT 10SM CLR 14/13 A3007 RMK AO2,M
RTS,2023-06-14 09:35,-119.8764,39.6682,1539.00,51.80,51.80,100.00,0.00,0.00,0.00,30.09,M,10.00,M,SCT,M,M,M,3600.00,M,M,M,M,M,M,M,M,M,M,51.80,KRTS 140935Z AUTO 00000KT 10SM SCT036 11/11 A3009 RMK AO2,M
MEV,2023-06-14 09:35,-119.7500,38.9963,1441.42,51.80,50.00,93.55,0.00,0.00,0.00,30.06,M,10.00,M,FEW,SCT,M,M,5000.00,8000.00,M,M,M,M,M,M,M,M,M,51.80,KMEV 140935Z AUTO 00000KT 10SM FEW050 SCT080 11/10 A3006 RMK AO2,M
BAM,2023-06-14 09:35,-116.8743,40.5990,1382.36,59.00,55.40,87.83,340.00,4.00,0.00,30.03,M,10.00,M,BKN,BKN,OVC,M,5500.00,6500.00,12000.00,M,M,M,M,M,M,M,M,59.00,KBAM 140935Z AUTO 34004KT 10SM BKN055 BKN065 OVC120 15/13 A3003 RMK AO1,M
HTH,2023-06-14 09:35,-118.6315,38.5448,1282.89,59.00,53.60,82.25,160.00,4.00,0.00,30.02,M,10.00,M,FEW,M,M,M,12000.00,M,M,M,M,M,M,M,M,M,M,59.00,KHTH 140935Z AUTO 16004KT 10SM FEW120 15/12 A3002 RMK A01,M
TMT,2023-06-14 09:35,-117.1971,39.4643,1749.34,49.50,49.00,97.79,0.00,0.00,0.00,30.09,M,10.00,M,OVC,M,M,M,10000.00,M,M,M,VCTS,M,M,M,M,M,M,49.50,KTMT 140935Z AUTO 00000KT 10SM VCTS OVC100 10/09 A3009 RMK AO2 T00970094,M
05U,2023-06-14 09:50,-116.0051,39.6042,1811.23,50.00,48.20,93.50,0.00,0.00,0.00,30.09,M,10.00,M,OVC,M,M,M,10000.00,M,M,M,M,M,M,M,M,M,M,50.00,K05U 140950Z AUTO 00000KT 10SM OVC100 10/09 A3009 RMK A01,M
DRA,2023-06-14 09:53,-116.0278,36.6206,1009.00,69.00,36.00,29.55,30.00,7.00,0.00,29.89,1007.40,10.00,M,FEW,M,M,M,11000.00,M,M,M,M,M,M,M,M,M,M,69.10,KDRA 140953Z AUTO 03007KT 10SM FEW110 21/02 A2989 RMK AO2 SLP074 T02060022,M
ELY,2023-06-14 09:53,-114.8453,39.2950,1909.00,50.00,45.00,82.86,190.00,5.00,0.00,30.07,1010.20,10.00,M,OVC,M,M,M,8000.00,M,M,M,M,M,M,M,M,M,M,50.00,KELY 140953Z AUTO 19005KT 10SM OVC080 10/07 A3007 RMK AO2 SLP102 T01000072,M
LOL,2023-06-14 09:53,-118.5701,40.0684,1192.43,59.00,57.00,93.07,0.00,0.00,T,29.99,1012.40,10.00,M,BKN,M,M,M,9500.00,M,M,M,M,M,M,M,M,M,M,59.00,KLOL 140953Z AUTO 00000KT 10SM BKN095 15/14 A2999 RMK AO2 RAE0855 SLP124 P0000 T01500139,M
P68,2023-06-14 09:53,-116.0056,39.6014,1993.00,49.00,49.00,100.00,180.00,3.00,0.00,30.06,1011.80,M,M,M,M,M,M,M,M,M,M,M,M,M,M,M,M,M,48.01,KP68 140953Z AUTO 18003KT 09/09 A3006 RMK AO1 SLP118 T00940094,M
VGT,2023-06-14 09:53,-115.1933,36.2111,667.00,76.00,42.00,29.80,330.00,4.00,0.00,29.81,1008.60,10.00,M,CLR,M,M,M,M,M,M,M,M,M,M,M,M,M,M,75.90,KVGT 140953Z AUTO 33004KT 10SM CLR 24/06 A2981 RMK AO2 SLP086 T02440056,M
BVU,2023-06-14 09:55,-114.8611,35.9475,671.00,71.60,44.60,37.89,0.00,0.00,0.00,29.83,M,10.00,M,CLR,M,M,M,M,M,M,M,M,M,M,M,M,M,M,71.60,KBVU 140955Z AUTO 00000KT 10SM CLR 22/07 A2983 RMK AO2,M
CXP,2023-06-14 09:55,-119.7326,39.1923,1431.00,55.40,53.60,93.65,0.00,0.00,0.00,30.07,M,10.00,M,FEW,M,M,M,7500.00,M,M,M,M,M,M,M,M,M,M,55.40,KCXP 140955Z AUTO 00000KT 10SM FEW075 13/12 A3007 RMK AO2,M
RTS,2023-06-14 09:55,-119.8764,39.6682,1539.00,53.60,50.00,87.56,320.00,3.00,0.00,30.09,M,10.00,M,SCT,BKN,M,M,3200.00,4000.00,M,M,M,M,M,M,M,M,M,53.60,KRTS 140955Z AUTO 32003KT 10SM SCT032 BKN040 12/10 A3009 RMK AO2,M
MEV,2023-06-14 09:55,-119.7500,38.9963,1441.42,51.80,50.00,93.55,140.00,5.00,0.00,30.06,M,10.00,M,FEW,FEW,M,M,5000.00,8000.00,M,M,M,M,M,M,M,M,M,51.80,KMEV 140955Z AUTO 14005KT 10SM FEW050 FEW080 11/10 A3006 RMK AO2,M
BAM,2023-06-14 09:55,-116.8743,40.5990,1382.36,59.00,55.40,87.83,0.00,0.00,0.00,30.02,M,10.00,M,OVC,M,M,M,5000.00,M,M,M,M,M,M,M,M,M,M,59.00,KBAM 140955Z AUTO 00000KT 10SM OVC050 15/13 A3002 RMK AO1,M
HTH,2023-06-14 09:55,-118.6315,38.5448,1282.89,59.00,55.40,87.83,200.00,3.00,0.00,30.03,M,10.00,M,CLR,M,M,M,M,M,M,M,M,M,M,M,M,M,M,59.00,KHTH 140955Z AUTO 20003KT 10SM CLR 15/13 A3003 RMK A01,M
TMT,2023-06-14 09:55,-117.1971,39.4643,1749.34,49.80,48.70,95.98,0.00,0.00,0.00,30.09,M,10.00,M,SCT,M,M,M,10000.00,M,M,M,M,M,M,M,M,M,M,49.80,KTMT 140955Z AUTO 00000KT 10SM SCT100 10/09 A3009 RMK AO2 LTG DSNT N T00990093,M
INS,2023-06-14 09:55,-115.6733,36.5872,955.00,70.00,36.30,28.99,0.00,0.00,0.00,29.88,1007.10,10.00,M,CLR,M,M,M,M,M,M,M,M,M,M,M,M,M,M,70.00,KINS 140955Z AUTO 00000KT 10SM CLR 21/02 A2988 RMK AO2 SLP071 T02110024 $,M
LSV,2023-06-14 09:55,-115.0343,36.2362,570.00,75.60,39.20,26.90,270.00,3.00,0.00,29.78,1006.00,10.00,M,CLR,M,M,M,M,M,M,M,M,M,M,M,M,M,M,75.60,KLSV 140955Z AUTO 27003KT 10SM CLR 24/04 A2978 RMK AO2 SLP060 T02420040 $,M
RNO,2023-06-14 09:55,-119.7711,39.4839,1341.00,58.00,56.00,93.04,0.00,0.00,0.00,30.05,1013.50,10.00,M,SCT,BKN,BKN,M,5000.00,8000.00,20000.00,M,M,M,M,M,M,M,M,57.90,KRNO 140955Z 00000KT 10SM SCT050 BKN080 BKN200 14/13 A3005 RMK AO2 SLP135 T01440133,M
EKO,2023-06-14 09:56,-115.7860,40.8242,1367.00,55.00,52.00,89.59,0.00,0.00,T,30.02,1013.50,6.00,M,FEW,BKN,OVC,M,7000.00,9000.00,10000.00,M,-RA BR,M,M,M,M,M,M,55.00,KEKO 140956Z AUTO 00000KT 6SM -RA BR FEW070 BKN090 OVC100 13/11 A3002 RMK AO2 RAB52 SLP135 P0000 T01280111,M
WMC,2023-06-14 09:56,-117.8072,40.9019,1315.00,58.00,55.00,90.04,200.00,4.00,0.00,30.00,1012.80,10.00,M,OVC,M,M,M,9000.00,M,M,M,M,M,M,M,M,M,M,57.90,KWMC 140956Z AUTO 20004KT 10SM OVC090 14/13 A3000 RMK AO2 SLP128 T01440128,M
NFL,2023-06-14 09:56,-118.7010,39.4166,1199.00,60.00,54.00,80.25,0.00,0.00,0.00,29.99,1012.70,10.00,M,SCT,M,M,M,9000.00,M,M,M,M,M,M,M,M,M,M,60.10,KNFL 140956Z AUTO 00000KT 10SM SCT090 16/12 A2999 RMK AO2 SLP127 T01560122,M
HND,2023-06-14 09:56,-115.1344,35.9729,742.79,74.00,39.00,28.25,190.00,8.00,0.00,29.86,1010.10,10.00,M,CLR,M,M,M,M,M,M,M,M,M,M,M,M,M,M,73.90,KHND 140956Z AUTO 19008KT 10SM CLR 23/04 A2986 RMK AO2 SLP101 T02330039,M
LAS,2023-06-14 09:56,-115.1634,36.0719,663.00,77.00,39.00,25.47,190.00,7.00,0.00,29.82,1007.10,10.00,M,CLR,M,M,M,M,M,M,M,M,M,M,M,M,M,M,77.00,KLAS 140956Z 19007KT 10SM CLR 25/04 A2982 RMK AO2 SLP071 T02500039,M
TPH,2023-06-14 09:56,-117.0904,38.0505,1654.00,57.00,47.00,68.90,340.00,3.00,0.00,30.06,1011.20,10.00,M,CLR,M,M,M,M,M,M,M,M,M,M,M,M,M,M,57.00,KTPH 140956Z AUTO 34003KT 10SM CLR 14/08 A3006 RMK AO2 SLP112 T01390083,M
05U,2023-06-14 10:10,-116.0051,39.6042,1811.23,50.00,48.20,93.50,20.00,3.00,0.00,30.10,M,10.00,M,BKN,OVC,M,M,8000.00,9000.00,M,M,M,M,M,M,M,M,M,50.00,K05U 141010Z AUTO 02003KT 10SM BKN080 OVC090 10/09 A3010 RMK A01,M
BVU,2023-06-14 10:15,-114.8611,35.9475,671.00,71.60,42.80,35.37,0.00,0.00,0.00,29.83,M,10.00,M,CLR,M,M,M,M,M,M,M,M,M,M,M,M,M,M,71.60,KBVU 141015Z AUTO 00000KT 10SM CLR 22/06 A2983 RMK AO2,M
CXP,2023-06-14 10:15,-119.7326,39.1923,1431.00,55.40,53.60,93.65,0.00,0.00,0.00,30.07,M,10.00,M,FEW,M,M,M,7000.00,M,M,M,M,M,M,M,M,M,M,55.40,KCXP 141015Z AUTO 00000KT 10SM FEW070 13/12 A3007 RMK AO2,M
RTS,2023-06-14 10:15,-119.8764,39.6682,1539.00,53.60,51.80,93.60,0.00,0.00,0.00,30.09,M,10.00,M,FEW,FEW,M,M,2900.00,4000.00,M,M,M,M,M,M,M,M,M,53.60,KRTS 141015Z AUTO 00000KT 10SM FEW029 FEW040 12/11 A3009 RMK AO2,M
MEV,2023-06-14 10:15,-119.7500,38.9963,1441.42,51.80,50.00,93.55,120.00,6.00,0.00,30.06,M,10.00,M,CLR,M,M,M,M,M,M,M,M,M,M,M,M,M,M,51.80,KMEV 141015Z AUTO 12006KT 10SM CLR 11/10 A3006 RMK AO2,M
BAM,2023-06-14 10:15,-116.8743,40.5990,1382.36,59.00,55.40,87.83,150.00,5.00,0.00,30.01,M,10.00,M,SCT,SCT,BKN,M,3900.00,4700.00,5000.00,M,M,M,M,M,M,M,M,59.00,KBAM 141015Z AUTO 15005KT 10SM SCT039 SCT047 BKN050 15/13 A3001 RMK AO1,M
HTH,2023-06-14 10:15,-118.6315,38.5448,1282.89,59.00,57.20,93.74,220.00,5.00,0.00,30.03,M,10.00,M,CLR,M,M,M,M,M,M,M,M,M,M,M,M,M,M,59.00,KHTH 141015Z AUTO 22005KT 10SM CLR 15/14 A3003 RMK A01,M
TMT,2023-06-14 10:15,-117.1971,39.4643,1749.34,48.70,48.40,98.88,0.00,0.00,0.00,30.09,M,10.00,M,BKN,BKN,BKN,M,4900.00,7000.00,10000.00,M,M,M,M,M,M,M,M,48.70,KTMT 141015Z AUTO 00000KT 10SM BKN049 BKN070 BKN100 09/09 A3009 RMK AO2 LTG DSNT NE T00930091,M
05U,2023-06-14 10:30,-116.0051,39.6042,1811.23,50.00,48.20,93.50,0.00,0.00,0.00,30.10,M,10.00,M,BKN,OVC,M,M,7000.00,8000.00,M,M,M,M,M,M,M,M,M,50.00,K05U 141030Z AUTO 00000KT 10SM BKN070 OVC080 10/09 A3010 RMK A01,M
BVU,2023-06-14 10:35,-114.8611,35.9475,671.00,71.60,44.60,37.89,50.00,4.00,0.00,29.83,M,10.00,M,CLR,M,M,M,M,M,M,M,M,M,M,M,M,M,M,71.60,KBVU 141035Z AUTO 05004KT 10SM CLR 22/07 A2983 RMK AO2,M
CXP,2023-06-14 10:35,-119.7326,39.1923,1431.00,55.40,53.60,93.65,0.00,0.00,0.00,30.08,M,10.00,M,BKN,M,M,M,7500.00,M,M,M,M,M,M,M,M,M,M,55.40,KCXP 141035Z AUTO 00000KT 10SM BKN075 13/12 A3008 RMK AO2,M
RTS,2023-06-14 10:35,-119.8764,39.6682,1539.00,53.60,50.00,87.56,310.00,5.00,0.00,30.10,M,10.00,M,CLR,M,M,M,M,M,M,M,M,M,M,M,M,M,M,53.60,KRTS 141035Z AUTO 31005KT 10SM CLR 12/10 A3010 RMK AO2,M
MEV,2023-06-14 10:35,-119.7500,38.9963,1441.42,51.80,50.00,93.55,130.00,7.00,0.00,30.06,M,10.00,M,FEW,BKN,M,M,5000.00,8000.00,M,M,M,M,M,M,M,M,M,51.80,KMEV 141035Z AUTO 13007KT 10SM FEW050 BKN080 11/10 A3006 RMK AO2,M
BAM,2023-06-14 10:35,-116.8743,40.5990,1382.36,57.20,55.40,93.69,150.00,7.00,0.00,30.01,M,10.00,M,SCT,SCT,SCT,M,3900.00,4700.00,9500.00,M,M,M,M,M,M,M,M,57.20,KBAM 141035Z AUTO 15007KT 10SM SCT039 SCT047 SCT095 14/13 A3001 RMK AO1,M
HTH,2023-06-14 10:35,-118.6315,38.5448,1282.89,59.00,57.20,93.74,0.00,0.00,0.00,30.03,M,10.00,M,FEW,M,M,M,12000.00,M,M,M,M,M,M,M,M,M,M,59.00,KHTH 141035Z AUTO 00000KT 10SM FEW120 15/14 A3003 RMK A01,M
TMT,2023-06-14 10:35,-117.1971,39.4643,1749.34,48.40,48.20,99.25,0.00,0.00,0.00,30.09,M,10.00,M,BKN,BKN,OVC,M,4700.00,7500.00,8500.00,M,M,M,M,M,M,M,M,48.40,KTMT 141035Z AUTO 00000KT 10SM BKN047 BKN075 OVC085 09/09 A3009 RMK AO2 T00910090,M
05U,2023-06-14 10:50,-116.0051,39.6042,1811.23,50.00,48.20,93.50,0.00,0.00,0.00,30.10,M,10.00,M,OVC,M,M,M,6500.00,M,M,M,M,M,M,M,M,M,M,50.00,K05U 141050Z AUTO 00000KT 10SM OVC065 10/09 A3010 RMK A01,M
P68,2023-06-14 10:53,-116.0056,39.6014,1993.00,50.00,48.00,92.80,0.00,0.00,0.00,30.07,1012.50,M,M,M,M,M,M,M,M,M,M,M,M,M,M,M,M,M,50.00,KP68 141053Z AUTO 00000KT 10/09 A3007 RMK AO1 SLP125 T01000089,M
DRA,2023-06-14 10:53,-116.0278,36.6206,1009.00,68.00,36.00,30.69,30.00,4.00,0.00,29.89,1007.50,10.00,M,FEW,M,M,M,11000.00,M,M,M,M,M,M,M,M,M,M,68.00,KDRA 141053Z AUTO 03004KT 10SM FEW110 20/02 A2989 RMK AO2 SLP075 T02000022,M
ELY,2023-06-14 10:53,-114.8453,39.2950,1909.00,49.00,45.00,86.33,200.00,3.00,0.00,30.08,1011.90,10.00,M,BKN,OVC,M,M,8000.00,10000.00,M,M,M,M,M,M,M,M,M,48.01,KELY 141053Z AUTO 20003KT 10SM BKN080 OVC100 09/07 A3008 RMK AO2 SLP119 T00940072,M
VGT,2023-06-14 10:53,-115.1933,36.2111,667.00,75.00,42.00,30.71,30.00,4.00,0.00,29.82,1008.80,10.00,M,CLR,M,M,M,M,M,M,M,M,M,M,M,M,M,M,75.00,KVGT 141053Z AUTO 03004KT 10SM CLR 24/06 A2982 RMK AO2 SLP088 T02390056,M
LOL,2023-06-14 10:53,-118.5701,40.0684,1192.43,56.00,55.00,96.78,130.00,5.00,0.00,29.99,1012.60,10.00,M,SCT,M,M,M,7000.00,M,M,M,M,M,M,M,M,M,M,55.90,KLOL 141053Z AUTO 13005KT 10SM SCT070 13/13 A2999 RMK AO2 SLP126 T01330128,M
BVU,2023-06-14 10:55,-114.8611,35.9475,671.00,71.60,42.80,35.37,0.00,0.00,0.00,29.83,M,10.00,M,CLR,M,M,M,M,M,M,M,M,M,M,M,M,M,M,71.60,KBVU 141055Z AUTO 00000KT 10SM CLR 22/06 A2983 RMK AO2,M
CXP,2023-06-14 10:55,-119.7326,39.1923,1431.00,55.40,53.60,93.65,0.00,0.00,0.00,30.08,M,10.00,M,BKN,M,M,M,7500.00,M,M,M,M,M,M,M,M,M,M,55.40,KCXP 141055Z AUTO 00000KT 10SM BKN075 13/12 A3008 RMK AO2,M
RNO,2023-06-14 10:55,-119.7711,39.4839,1341.00,57.00,54.00,89.68,160.00,3.00,0.00,30.06,1013.40,10.00,M,FEW,FEW,SCT,BKN,4500.00,6000.00,10000.00,20000.00,M,M,M,M,M,M,M,57.00,KRNO 141055Z 16003KT 10SM FEW045 FEW060 SCT100 BKN200 14/12 A3006 RMK AO2 SLP134 T01390122,M
RTS,2023-06-14 10:55,-119.8764,39.6682,1539.00,53.60,51.80,93.60,0.00,0.00,0.00,30.09,M,10.00,M,CLR,M,M,M,M,M,M,M,M,M,M,M,M,M,M,53.60,KRTS 141055Z AUTO 00000KT 10SM CLR 12/11 A3009 RMK AO2,M
MEV,2023-06-14 10:55,-119.7500,38.9963,1441.42,51.80,50.00,93.55,160.00,4.00,0.00,30.07,M,10.00,M,OVC,M,M,M,7500.00,M,M,M,M,M,M,M,M,M,M,51.80,KMEV 141055Z AUTO 16004KT 10SM OVC075 11/10 A3007 RMK AO2,M
BAM,2023-06-14 10:55,-116.8743,40.5990,1382.36,57.20,55.40,93.69,180.00,3.00,0.00,30.01,M,10.00,M,CLR,M,M,M,M,M,M,M,M,M,M,M,M,M,M,57.20,KBAM 141055Z AUTO 18003KT 10SM CLR 14/13 A3001 RMK AO1,M
HTH,2023-06-14 10:55,-118.6315,38.5448,1282.89,59.00,55.40,87.83,0.00,0.00,0.00,30.03,M,10.00,M,BKN,M,M,M,12000.00,M,M,M,M,M,M,M,M,M,M,59.00,KHTH 141055Z AUTO 00000KT 10SM BKN120 15/13 A3003 RMK A01,M
TMT,2023-06-14 10:55,-117.1971,39.4643,1749.34,50.40,49.50,96.71,0.00,0.00,0.01,30.09,M,10.00,M,SCT,SCT,OVC,M,4600.00,5000.00,7000.00,M,RA,M,M,M,M,M,M,50.40,KTMT 141055Z AUTO 00000KT 10SM RA SCT046 SCT050 OVC070 10/10 A3009 RMK AO2 P0001 T01020097,M
INS,2023-06-14 10:55,-115.6733,36.5872,955.00,68.50,34.20,28.08,200.00,3.00,0.00,29.89,1007.70,10.00,M,CLR,M,M,M,M,M,M,M,M,M,M,M,M,M,M,68.50,KINS 141055Z AUTO 20003KT 10SM CLR 20/01 A2989 RMK AO2 SLP077 T02030012 $,M
LSV,2023-06-14 10:55,-115.0343,36.2362,570.00,73.60,39.40,28.99,40.00,4.00,0.00,29.78,1006.00,10.00,M,CLR,M,M,M,M,M,M,M,M,M,M,M,M,M,M,73.60,KLSV 141055Z AUTO 04004KT 10SM CLR 23/04 A2978 RMK AO2 SLP060 T02310041 $,M
HND,2023-06-14 10:56,-115.1344,35.9729,742.79,75.00,39.00,27.23,190.00,11.00,0.00,29.86,1009.90,10.00,M,CLR,M,M,M,M,M,M,M,M,M,M,M,M,M,M,75.00,KHND 141056Z AUTO 19011KT 10SM CLR 24/04 A2986 RMK AO2 SLP099 T02390039,M
LAS,2023-06-14 10:56,-115.1634,36.0719,663.00,77.00,39.00,25.47,200.00,6.00,0.00,29.82,1007.10,10.00,M,FEW,M,M,M,15000.00,M,M,M,M,M,M,M,M,M,M,77.00,KLAS 141056Z 20006KT 10SM FEW150 25/04 A2982 RMK AO2 SLP071 T02500039,M
EKO,2023-06-14 10:56,-115.7860,40.8242,1367.00,55.00,53.00,93.29,240.00,8.00,0.09,30.01,1012.80,6.00,M,FEW,SCT,OVC,M,1800.00,4900.00,6000.00,M,-RA BR,M,M,M,M,M,M,55.00,KEKO 141056Z AUTO 24008KT 6SM -RA BR FEW018 SCT049 OVC060 13/12 A3001 RMK AO2 SLP128 P0009 T01280117,M
WMC,2023-06-14 10:56,-117.8072,40.9019,1315.00,55.00,53.00,93.29,0.00,0.00,0.00,30.00,1012.60,10.00,M,CLR,M,M,M,M,M,M,M,M,M,M,M,M,M,M,55.00,KWMC 141056Z AUTO 00000KT 10SM CLR 13/12 A3000 RMK AO2 SLP126 T01280117,M
NFL,2023-06-14 10:56,-118.7010,39.4166,1199.00,60.00,54.00,80.25,220.00,3.00,0.00,29.99,1012.80,10.00,M,CLR,M,M,M,M,M,M,M,M,M,M,M,M,M,M,60.10,KNFL 141056Z AUTO 22003KT 10SM CLR 16/12 A2999 RMK AO2 SLP128 T01560122,M
TPH,2023-06-14 10:56,-117.0904,38.0505,1654.00,60.00,49.00,66.46,360.00,4.00,0.00,30.06,1010.80,10.00,M,OVC,M,M,M,10000.00,M,M,M,M,M,M,M,M,M,M,60.10,KTPH 141056Z AUTO 36004KT 10SM OVC100 16/09 A3006 RMK AO2 SLP108 T01560094,M
05U,2023-06-14 11:10,-116.0051,39.6042,1811.23,50.00,48.20,93.50,0.00,0.00,0.00,30.09,M,10.00,M,BKN,OVC,M,M,6500.00,7500.00,M,M,M,M,M,M,M,M,M,50.00,K05U 141110Z AUTO 00000KT 10SM BKN065 OVC075 10/09 A3009 RMK A01,M
BVU,2023-06-14 11:15,-114.8611,35.9475,671.00,69.80,44.60,40.29,0.00,0.00,0.00,29.83,M,10.00,M,CLR,M,M,M,M,M,M,M,M,M,M,M,M,M,M,69.80,KBVU 141115Z AUTO 00000KT 10SM CLR 21/07 A2983 RMK AO2,M
CXP,2023-06-14 11:15,-119.7326,39.1923,1431.00,55.40,53.60,93.65,260.00,4.00,0.00,30.08,M,10.00,M,BKN,M,M,M,7000.00,M,M,M,M,M,M,M,M,M,M,55.40,KCXP 141115Z AUTO 26004KT 10SM BKN070 13/12 A3008 RMK AO2,M
RTS,2023-06-14 11:15,-119.8764,39.6682,1539.00,53.60,51.80,93.60,310.00,4.00,0.00,30.09,M,10.00,M,BKN,M,M,M,2600.00,M,M,M,M,M,M,M,M,M,M,53.60,KRTS 141115Z AUTO 31004KT 10SM BKN026 12/11 A3009 RMK AO2,M
MEV,2023-06-14 11:15,-119.7500,38.9963,1441.42,51.80,50.00,93.55,0.00,0.00,0.00,30.07,M,10.00,M,OVC,M,M,M,7500.00,M,M,M,M,M,M,M,M,M,M,51.80,KMEV 141115Z AUTO 00000KT 10SM OVC075 11/10 A3007 RMK AO2,M
BAM,2023-06-14 11:15,-116.8743,40.5990,1382.36,57.20,53.60,87.74,210.00,3.00,0.00,30.01,M,10.00,M,CLR,M,M,M,M,M,M,M,M,M,M,M,M,M,M,57.20,KBAM 141115Z AUTO 21003KT 10SM CLR 14/12 A3001 RMK AO1,M
HTH,2023-06-14 11:15,-118.6315,38.5448,1282.89,59.00,55.40,87.83,0.00,0.00,0.00,30.03,M,10.00,M,FEW,M,M,M,12000.00,M,M,M,M,M,M,M,M,M,M,59.00,KHTH 141115Z AUTO 00000KT 10SM FEW120 15/13 A3003 RMK A01,M
TMT,2023-06-14 11:15,-117.1971,39.4643,1749.34,50.20,49.30,96.70,210.00,5.00,0.01,30.08,M,10.00,M,SCT,SCT,OVC,M,4400.00,5000.00,7000.00,M,-RA,M,M,M,M,M,M,50.20,KTMT 141115Z AUTO 21005KT 10SM -RA SCT044 SCT050 OVC070 10/10 A3008 RMK AO2 P0001 T01010096,M
05U,2023-06-14 11:30,-116.0051,39.6042,1811.23,50.00,48.20,93.50,10.00,4.00,0.00,30.09,M,10.00,M,BKN,OVC,M,M,6000.00,7000.00,M,M,M,M,M,M,M,M,M,50.00,K05U 141130Z AUTO 01004KT 10SM BKN060 OVC070 10/09 A3009 RMK A01,M
BVU,2023-06-14 11:35,-114.8611,35.9475,671.00,69.80,41.00,35.09,350.00,3.00,0.00,29.82,M,10.00,M,CLR,M,M,M,M,M,M,M,M,M,M,M,M,M,M,69.80,KBVU 141135Z AUTO 35003KT 10SM CLR 21/05 A2982 RMK AO2,M
CXP,2023-06-14 11:35,-119.7326,39.1923,1431.00,55.40,53.60,93.65,0.00,0.00,0.00,30.08,M,10.00,M,BKN,M,M,M,7000.00,M,M,M,M,M,M,M,M,M,M,55.40,KCXP 141135Z AUTO 00000KT 10SM BKN070 13/12 A3008 RMK AO2,M
RTS,2023-06-14 11:35,-119.8764,39.6682,1539.00,51.80,50.00,93.55,360.00,5.00,0.00,30.09,M,10.00,M,SCT,M,M,M,2800.00,M,M,M,M,M,M,M,M,M,M,51.80,KRTS 141135Z AUTO 36005KT 10SM SCT028 11/10 A3009 RMK AO2,M
MEV,2023-06-14 11:35,-119.7500,38.9963,1441.42,53.60,50.00,87.56,0.00,0.00,0.00,30.07,M,10.00,M,OVC,M,M,M,7000.00,M,M,M,M,M,M,M,M,M,M,53.60,KMEV 141135Z AUTO 00000KT 10SM OVC070 12/10 A3007 RMK AO2,M
BAM,2023-06-14 11:35,-116.8743,40.5990,1382.36,55.40,53.60,93.65,0.00,0.00,0.00,30.01,M,10.00,M,SCT,SCT,M,M,5500.00,6500.00,M,M,M,M,M,M,M,M,M,55.40,KBAM 141135Z AUTO 00000KT 10SM SCT055 SCT065 13/12 A3001 RMK AO1,M
HTH,2023-06-14 11:35,-118.6315,38.5448,1282.89,59.00,55.40,87.83,0.00,0.00,0.00,30.02,M,10.00,M,SCT,M,M,M,12000.00,M,M,M,M,M,M,M,M,M,M,59.00,KHTH 141135Z AUTO 00000KT 10SM SCT120 15/13 A3002 RMK A01,M
TMT,2023-06-14 11:35,-117.1971,39.4643,1749.34,50.20,49.00,95.98,110.00,3.00,0.01,30.08,M,10.00,M,SCT,OVC,M,M,5000.00,7000.00,M,M,M,M,M,M,M,M,M,50.20,KTMT 141135Z AUTO 11003KT 10SM SCT050 OVC070 10/10 A3008 RMK AO2 P0001 T01010095,M
05U,2023-06-14 11:50,-116.0051,39.6042,1811.23,50.00,48.20,93.50,0.00,0.00,0.00,30.08,M,10.00,M,OVC,M,M,M,5500.00,M,M,M,M,M,M,M,M,M,M,50.00,K05U 141150Z AUTO 00000KT 10SM OVC055 10/09 A3008 RMK A01,M
ELY,2023-06-14 11:53,-114.8453,39.2950,1909.00,49.00,46.00,89.67,140.00,5.00,0.00,30.07,1011.70,10.00,M,SCT,OVC,M,M,7000.00,9000.00,M,M,M,M,M,M,M,M,M,46.47,KELY 141153Z AUTO 14005KT 10SM SCT070 OVC090 09/08 A3007 RMK AO2 SLP117 T00940078 10122 20083 50002,M
LOL,2023-06-14 11:53,-118.5701,40.0684,1192.43,56.00,55.00,96.78,310.00,3.00,0.00,29.98,1012.90,10.00,M,CLR,M,M,M,M,M,M,M,M,M,M,M,M,M,M,55.90,KLOL 141153Z AUTO 31003KT 10SM CLR 13/13 A2998 RMK AO2 SLP129 60006 7//// T01330128 10178 20133 58002,M
P68,2023-06-14 11:53,-116.0056,39.6014,1993.00,50.00,49.00,95.98,190.00,3.00,0.00,30.06,1012.00,M,M,M,M,M,M,M,M,M,M,M,M,M,M,M,M,M,50.00,KP68 141153Z AUTO 19003KT 10/09 A3006 RMK AO1 SLP120 70014 T01000094 10117 20089 58003,M
DRA,2023-06-14 11:53,-116.0278,36.6206,1009.00,67.00,38.00,34.35,0.00,0.00,0.00,29.89,1007.60,10.00,M,CLR,M,M,M,M,M,M,M,M,M,M,M,M,M,M,66.90,KDRA 141153Z AUTO 00000KT 10SM CLR 19/03 A2989 RMK AO2 SLP076 T01940033 10228 20189 55000,M
VGT,2023-06-14 11:53,-115.1933,36.2111,667.00,74.00,42.00,31.86,360.00,4.00,0.00,29.81,1008.70,10.00,M,CLR,M,M,M,M,M,M,M,M,M,M,M,M,M,M,73.90,KVGT 141153Z AUTO 36004KT 10SM CLR 23/06 A2981 RMK AO2 SLP087 T02330056 10294 20233 57000,M
BVU,2023-06-14 11:55,-114.8611,35.9475,671.00,69.80,42.80,37.61,0.00,0.00,0.00,29.82,M,10.00,M,CLR,M,M,M,M,M,M,M,M,M,M,M,M,M,M,69.80,KBVU 141155Z AUTO 00000KT 10SM CLR 21/06 A2982 RMK AO2,M
CXP,2023-06-14 11:55,-119.7326,39.1923,1431.00,55.40,53.60,93.65,110.00,4.00,0.00,30.08,M,10.00,M,OVC,M,M,M,7000.00,M,M,M,M,M,M,M,M,M,M,55.40,KCXP 141155Z AUTO 11004KT 10SM OVC070 13/12 A3008 RMK AO2,M
RTS,2023-06-14 11:55,-119.8764,39.6682,1539.00,51.80,50.00,93.55,330.00,5.00,0.00,30.08,M,10.00,M,CLR,M,M,M,M,M,M,M,M,M,M,M,M,M,M,51.80,KRTS 141155Z AUTO 33005KT 10SM CLR 11/10 A3008 RMK AO2,M
MEV,2023-06-14 11:55,-119.7500,38.9963,1441.42,51.80,50.00,93.55,0.00,0.00,0.00,30.07,M,10.00,M,OVC,M,M,M,7000.00,M,M,M,M,M,M,M,M,M,M,51.80,KMEV 141155Z AUTO 00000KT 10SM OVC070 11/10 A3007 RMK AO2,M
BAM,2023-06-14 11:55,-116.8743,40.5990,1382.36,55.40,53.60,93.65,0.00,0.00,0.00,30.01,M,10.00,M,OVC,M,M,M,5500.00,M,M,M,M,M,M,M,M,M,M,55.40,KBAM 141155Z AUTO 00000KT 10SM OVC055 13/12 A3001 RMK AO1,M
HTH,2023-06-14 11:55,-118.6315,38.5448,1282.89,57.20,57.20,100.00,90.00,3.00,0.00,30.02,M,10.00,M,FEW,M,M,M,12000.00,M,M,M,M,M,M,M,M,M,M,57.20,KHTH 141155Z AUTO 09003KT 10SM FEW120 14/14 A3002 RMK A01,M
TMT,2023-06-14 11:55,-117.1971,39.4643,1749.34,50.00,49.00,96.70,0.00,0.00,0.01,30.08,M,10.00,M,SCT,OVC,M,M,5000.00,7000.00,M,M,VCTS,M,M,M,M,M,M,50.00,KTMT 141155Z AUTO 00000KT 10SM VCTS SCT050 OVC070 10/10 A3008 RMK AO2 LTG DSNT NE P0001 60003 70029 T01000095 10110 20091,M
INS,2023-06-14 11:55,-115.6733,36.5872,955.00,63.50,33.00,31.96,240.00,5.00,0.00,29.89,1007.80,10.00,M,CLR,M,M,M,M,M,M,M,M,M,M,M,M,M,M,63.50,KINS 141155Z AUTO 24005KT 10SM CLR 18/01 A2989 RMK AO2 SLP078 T01750006 10250 20175 53002 $,M
RNO,2023-06-14 11:55,-119.7711,39.4839,1341.00,56.00,53.00,90.29,240.00,3.00,0.00,30.05,1013.90,10.00,M,FEW,SCT,BKN,M,6000.00,11000.00,18000.00,M,M,M,M,M,M,M,M,55.90,KRNO 141155Z 24003KT 10SM FEW060 SCT110 BKN180 13/12 A3005 RMK AO2 SLP139 70016 T01330117 10161 20133 50000,M
LSV,2023-06-14 11:55,-115.0343,36.2362,570.00,71.00,38.00,29.95,340.00,4.00,0.00,29.78,1006.10,10.00,M,CLR,M,M,M,M,M,M,M,M,M,M,M,M,M,M,70.90,KLSV 141155Z AUTO 34004KT 10SM CLR 22/03 A2978 RMK AO2 SLP061 T02160033 10292 20216 58002 $,M
EKO,2023-06-14 11:56,-115.7860,40.8242,1367.00,55.00,52.00,89.59,240.00,6.00,T,30.01,1012.50,10.00,M,SCT,BKN,OVC,M,6000.00,7500.00,10000.00,M,M,M,M,M,M,M,M,55.00,KEKO 141156Z AUTO 24006KT 10SM SCT060 BKN075 OVC100 13/11 A3001 RMK AO2 RAE01 SLP125 P0000 60009 70019 T01280111 10133 20122 58004,M
WMC,2023-06-14 11:56,-117.8072,40.9019,1315.00,54.00,51.00,89.88,220.00,4.00,0.00,30.00,1012.40,10.00,M,CLR,M,M,M,M,M,M,M,M,M,M,M,M,M,M,54.00,KWMC 141156Z AUTO 22004KT 10SM CLR 12/11 A3000 RMK AO2 SLP124 60018 70020 T01220106 10172 20117 58002,M
NFL,2023-06-14 11:56,-118.7010,39.4166,1199.00,59.00,53.00,80.75,210.00,5.00,0.00,29.99,1012.60,10.00,M,CLR,M,M,M,M,M,M,M,M,M,M,M,M,M,M,59.00,KNFL 141156Z AUTO 21005KT 10SM CLR 15/12 A2999 RMK AO2 SLP126 70008 T01500117 10178 20144 58001,M
TPH,2023-06-14 11:56,-117.0904,38.0505,1654.00,59.00,49.00,69.12,0.00,0.00,0.00,30.05,1011.10,10.00,M,BKN,OVC,M,M,10000.00,11000.00,M,M,M,M,M,M,M,M,M,59.00,KTPH 141156Z AUTO 00000KT 10SM BKN100 OVC110 15/09 A3005 RMK AO2 SLP111 T01500094 10167 20139 58003,M
LAS,2023-06-14 11:56,-115.1634,36.0719,663.00,75.00,40.00,28.20,0.00,0.00,0.00,29.82,1007.30,10.00,M,FEW,M,M,M,12000.00,M,M,M,M,M,M,M,M,M,M,75.00,KLAS 141156Z 00000KT 10SM FEW120 24/04 A2982 RMK AO2 SLP073 T02390044 10283 20239 55000,M
HND,2023-06-14 11:56,-115.1344,35.9729,742.79,74.00,40.00,29.26,180.00,8.00,0.00,29.85,1009.70,10.00,M,CLR,M,M,M,M,M,M,M,M,M,M,M,M,M,M,73.90,KHND 141156Z AUTO 18008KT 10SM CLR 23/04 A2985 RMK AO2 SLP097 T02330044 10267 20228 58003,M
05U,2023-06-14 12:10,-116.0051,39.6042,1811.23,50.00,50.00,100.00,0.00,0.00,0.00,30.09,M,10.00,M,BKN,OVC,M,M,5000.00,6500.00,M,M,M,M,M,M,M,M,M,50.00,K05U 141210Z AUTO 00000KT 10SM BKN050 OVC065 10/10 A3009 RMK A01,M
BVU,2023-06-14 12:15,-114.8611,35.9475,671.00,71.60,41.00,33.00,0.00,0.00,0.00,29.83,M,10.00,M,CLR,M,M,M,M,M,M,M,M,M,M,M,M,M,M,71.60,KBVU 141215Z AUTO 00000KT 10SM CLR 22/05 A2983 RMK AO2,M
CXP,2023-06-14 12:15,-119.7326,39.1923,1431.00,53.60,53.60,100.00,0.00,0.00,0.00,30.08,M,10.00,M,SCT,M,M,M,7500.00,M,M,M,M,M,M,M,M,M,M,53.60,KCXP 141215Z AUTO 00000KT 10SM SCT075 12/12 A3008 RMK AO2,M
RTS,2023-06-14 12:15,-119.8764,39.6682,1539.00,51.80,50.00,93.55,350.00,3.00,0.00,30.08,M,10.00,M,CLR,M,M,M,M,M,M,M,M,M,M,M,M,M,M,51.80,KRTS 141215Z AUTO 35003KT 10SM CLR 11/10 A3008 RMK AO2,M
MEV,2023-06-14 12:15,-119.7500,38.9963,1441.42,51.80,50.00,93.55,170.00,3.00,0.00,30.06,M,10.00,M,OVC,M,M,M,7500.00,M,M,M,M,M,M,M,M,M,M,51.80,KMEV 141215Z AUTO 17003KT 10SM OVC075 11/10 A3006 RMK AO2,M
BAM,2023-06-14 12:15,-116.8743,40.5990,1382.36,55.40,53.60,93.65,0.00,0.00,0.00,30.01,M,10.00,M,BKN,M,M,M,5500.00,M,M,M,M,M,M,M,M,M,M,55.40,KBAM 141215Z AUTO 00000KT 10SM BKN055 13/12 A3001 RMK AO1,M
HTH,2023-06-14 12:15,-118.6315,38.5448,1282.89,57.20,57.20,100.00,0.00,0.00,0.00,30.02,M,10.00,M,CLR,M,M,M,M,M,M,M,M,M,M,M,M,M,M,57.20,KHTH 141215Z AUTO 00000KT 10SM CLR 14/14 A3002 RMK A01,M
TMT,2023-06-14 12:15,-117.1971,39.4643,1749.34,49.60,49.00,97.42,290.00,3.00,0.00,30.08,M,10.00,M,OVC,M,M,M,7000.00,M,M,M,M,M,M,M,M,M,M,48.81,KTMT 141215Z AUTO 29003KT 10SM OVC070 10/09 A3008 RMK AO2 T00980094,M
05U,2023-06-14 12:30,-116.0051,39.6042,1811.23,51.80,50.00,93.55,0.00,0.00,0.00,30.09,M,10.00,M,FEW,SCT,BKN,M,3300.00,4200.00,5500.00,M,M,M,M,M,M,M,M,51.80,K05U 141230Z AUTO 00000KT 10SM FEW033 SCT042 BKN055 11/10 A3009 RMK A01,M
BVU,2023-06-14 12:35,-114.8611,35.9475,671.00,71.60,41.00,33.00,90.00,3.00,0.00,29.83,M,10.00,M,CLR,M,M,M,M,M,M,M,M,M,M,M,M,M,M,71.60,KBVU 141235Z AUTO 09003KT 10SM CLR 22/05 A2983 RMK AO2,M
CXP,2023-06-14 12:35,-119.7326,39.1923,1431.00,53.60,53.60,100.00,0.00,0.00,0.00,30.08,M,10.00,M,CLR,M,M,M,M,M,M,M,M,M,M,M,M,M,M,53.60,KCXP 141235Z AUTO 00000KT 10SM CLR 12/12 A3008 RMK AO2,M
RTS,2023-06-14 12:35,-119.8764,39.6682,1539.00,51.80,50.00,93.55,0.00,0.00,0.00,30.08,M,10.00,M,CLR,M,M,M,M,M,M,M,M,M,M,M,M,M,M,51.80,KRTS 141235Z AUTO 00000KT 10SM CLR 11/10 A3008 RMK AO2,M
MEV,2023-06-14 12:35,-119.7500,38.9963,1441.42,51.80,50.00,93.55,0.00,0.00,0.00,30.07,M,10.00,M,OVC,M,M,M,7500.00,M,M,M,M,M,M,M,M,M,M,51.80,KMEV 141235Z AUTO 00000KT 10SM OVC075 11/10 A3007 RMK AO2,M
BAM,2023-06-14 12:35,-116.8743,40.5990,1382.36,55.40,53.60,93.65,0.00,0.00,0.00,30.01,M,10.00,M,SCT,M,M,M,5000.00,M,M,M,M,M,M,M,M,M,M,55.40,KBAM 141235Z AUTO 00000KT 10SM SCT050 13/12 A3001 RMK AO1,M
HTH,2023-06-14 12:35,-118.6315,38.5448,1282.89,57.20,57.20,100.00,0.00,0.00,0.00,30.03,M,10.00,M,CLR,M,M,M,M,M,M,M,M,M,M,M,M,M,M,57.20,KHTH 141235Z AUTO 00000KT 10SM CLR 14/14 A3003 RMK A01,M
TMT,2023-06-14 12:35,-117.1971,39.4643,1749.34,50.00,49.00,96.70,0.00,0.00,0.00,30.08,M,10.00,M,OVC,M,M,M,7000.00,M,M,M,M,M,M,M,M,M,M,50.00,KTMT 141235Z AUTO 00000KT 10SM OVC070 10/10 A3008 RMK AO2 T01000095,M
05U,2023-06-14 12:50,-116.0051,39.6042,1811.23,51.80,50.00,93.55,M,M,0.00,30.09,M,10.00,M,BKN,BKN,OVC,M,3200.00,4000.00,5000.00,M,M,M,M,M,M,M,M,51.80,K05U 141250Z AUTO 10SM BKN032 BKN040 OVC050 11/10 A3009 RMK A01,M
P68,2023-06-14 12:53,-116.0056,39.6014,1993.00,51.00,50.00,96.00,0.00,0.00,0.00,30.07,1012.60,M,M,M,M,M,M,M,M,M,M,M,M,M,M,M,M,M,51.10,KP68 141253Z AUTO 00000KT 11/10 A3007 RMK AO1 SLP126 T01060100,M
ELY,2023-06-14 12:53,-114.8453,39.2950,1909.00,49.00,46.00,89.67,150.00,5.00,0.00,30.06,1011.20,10.00,M,OVC,M,M,M,12000.00,M,M,M,M,M,M,M,M,M,M,46.47,KELY 141253Z AUTO 15005KT 10SM OVC120 09/08 A3006 RMK AO2 SLP112 T00940078,M
DRA,2023-06-14 12:53,-116.0278,36.6206,1009.00,63.00,38.00,39.36,0.00,0.00,0.00,29.91,1008.30,10.00,M,CLR,M,M,M,M,M,M,M,M,M,M,M,M,M,M,63.00,KDRA 141253Z AUTO 00000KT 10SM CLR 17/03 A2991 RMK AO2 SLP083 T01720033,M
VGT,2023-06-14 12:53,-115.1933,36.2111,667.00,75.00,42.00,30.71,290.00,3.00,0.00,29.83,1009.10,10.00,M,BKN,M,M,M,12000.00,M,M,M,M,M,M,M,M,M,M,75.00,KVGT 141253Z 29003KT 10SM BKN120 24/06 A2983 RMK AO2 SLP091 T02390056,M
LOL,2023-06-14 12:53,-118.5701,40.0684,1192.43,54.00,53.00,96.76,120.00,3.00,0.00,29.98,1012.80,7.00,M,CLR,M,M,M,M,M,M,M,M,M,M,M,M,M,M,54.00,KLOL 141253Z AUTO 12003KT 7SM CLR 12/12 A2998 RMK AO2 SLP128 T01220117,M
BVU,2023-06-14 12:55,-114.8611,35.9475,671.00,69.80,42.80,37.61,60.00,4.00,0.00,29.84,M,10.00,M,CLR,M,M,M,M,M,M,M,M,M,M,M,M,M,M,69.80,KBVU 141255Z AUTO 06004KT 10SM CLR 21/06 A2984 RMK AO2,M
CXP,2023-06-14 12:55,-119.7326,39.1923,1431.00,55.40,53.60,93.65,0.00,0.00,0.00,30.08,M,10.00,M,CLR,M,M,M,M,M,M,M,M,M,M,M,M,M,M,55.40,KCXP 141255Z AUTO 00000KT 10SM CLR 13/12 A3008 RMK AO2,M
RNO,2023-06-14 12:55,-119.7711,39.4839,1341.00,56.00,52.00,86.71,0.00,0.00,0.00,30.05,1013.80,10.00,M,FEW,SCT,M,M,12000.00,18000.00,M,M,M,M,M,M,M,M,M,55.90,KRNO 141255Z 00000KT 10SM FEW120 SCT180 13/11 A3005 RMK AO2 SLP138 FROPA T01330111,M
RTS,2023-06-14 12:55,-119.8764,39.6682,1539.00,50.00,50.00,100.00,360.00,5.00,0.00,30.08,M,10.00,M,CLR,M,M,M,M,M,M,M,M,M,M,M,M,M,M,50.00,KRTS 141255Z AUTO 36005KT 10SM CLR 10/10 A3008 RMK AO2,M
MEV,2023-06-14 12:55,-119.7500,38.9963,1441.42,51.80,50.00,93.55,110.00,6.00,0.00,30.07,M,10.00,M,OVC,M,M,M,7500.00,M,M,M,M,M,M,M,M,M,M,51.80,KMEV 141255Z AUTO 11006KT 10SM OVC075 11/10 A3007 RMK AO2,M
BAM,2023-06-14 12:55,-116.8743,40.5990,1382.36,53.60,53.60,100.00,170.00,4.00,0.00,30.01,M,10.00,M,CLR,M,M,M,M,M,M,M,M,M,M,M,M,M,M,53.60,KBAM 141255Z AUTO 17004KT 10SM CLR 12/12 A3001 RMK AO1,M
HTH,2023-06-14 12:55,-118.6315,38.5448,1282.89,55.40,55.40,100.00,0.00,0.00,0.00,30.03,M,10.00,M,CLR,M,M,M,M,M,M,M,M,M,M,M,M,M,M,55.40,KHTH 141255Z AUTO 00000KT 10SM CLR 13/13 A3003 RMK A01,M
INS,2023-06-14 12:55,-115.6733,36.5872,955.00,65.30,33.80,30.87,0.00,0.00,0.00,29.90,1008.00,10.00,M,CLR,M,M,M,M,M,M,M,M,M,M,M,M,M,M,65.30,KINS 141255Z AUTO 00000KT 10SM CLR 19/01 A2990 RMK AO2 SLP080 T01850010 $,M
LSV,2023-06-14 12:55,-115.0343,36.2362,570.00,71.00,38.80,30.81,40.00,3.00,0.00,29.79,1006.50,10.00,M,SCT,M,M,M,12000.00,M,M,M,M,M,M,M,M,M,M,71.10,KLSV 141255Z AUTO 04003KT 10SM SCT120 22/04 A2979 RMK AO2 SLP065 T02170038 $,M
TMT,2023-06-14 12:55,-117.1971,39.4643,1749.34,49.50,49.00,98.52,0.00,0.00,0.00,30.08,M,10.00,M,SCT,M,M,M,7000.00,M,M,M,M,M,M,M,M,M,M,49.50,KTMT 141255Z AUTO 00000KT 10SM SCT070 10/10 A3008 RMK AO2 T00970095,M
EKO,2023-06-14 12:56,-115.7860,40.8242,1367.00,54.00,52.00,92.92,230.00,5.00,0.00,30.00,1012.50,10.00,M,FEW,FEW,M,M,4100.00,12000.00,M,M,M,M,M,M,M,M,M,54.00,KEKO 141256Z AUTO 23005KT 10SM FEW041 FEW120 12/11 A3000 RMK AO2 SLP125 T01220111,M
WMC,2023-06-14 12:56,-117.8072,40.9019,1315.00,54.00,52.00,92.92,210.00,4.00,0.00,29.99,1012.10,10.00,M,CLR,M,M,M,M,M,M,M,M,M,M,M,M,M,M,54.00,KWMC 141256Z AUTO 21004KT 10SM CLR 12/11 A2999 RMK AO2 SLP121 T01220111,M
HND,2023-06-14 12:56,-115.1344,35.9729,742.79,72.00,41.00,32.56,200.00,9.00,0.00,29.87,1010.30,10.00,M,CLR,M,M,M,M,M,M,M,M,M,M,M,M,M,M,72.00,KHND 141256Z 20009KT 10SM CLR 22/05 A2987 RMK AO2 SLP103 T02220050,M
TPH,2023-06-14 12:56,-117.0904,38.0505,1654.00,59.00,50.00,72.01,340.00,5.00,0.00,30.05,1011.00,10.00,M,CLR,M,M,M,M,M,M,M,M,M,M,M,M,M,M,59.00,KTPH 141256Z AUTO 34005KT 10SM CLR 15/10 A3005 RMK AO2 SLP110 T01500100,M
LAS,2023-06-14 12:56,-115.1634,36.0719,663.00,76.00,41.00,28.56,80.00,3.00,0.00,29.84,1008.00,10.00,M,FEW,SCT,M,M,12000.00,25000.00,M,M,M,M,M,M,M,M,M,75.90,KLAS 141256Z 08003KT 10SM FEW120 SCT250 24/05 A2984 RMK AO2 SLP080 T02440050,M
NFL,2023-06-14 12:56,-118.7010,39.4166,1199.00,58.00,53.00,84.00,270.00,3.00,0.00,29.99,1012.70,10.00,M,CLR,M,M,M,M,M,M,M,M,M,M,M,M,M,M,57.90,KNFL 141256Z AUTO 27003KT 10SM CLR 14/12 A2999 RMK AO2 SLP127 T01440117,M
05U,2023-06-14 13:10,-116.0051,39.6042,1811.23,51.80,50.00,93.55,20.00,4.00,0.00,30.10,M,10.00,M,SCT,BKN,OVC,M,3200.00,4200.00,5500.00,M,M,M,M,M,M,M,M,51.80,K05U 141310Z AUTO 02004KT 10SM SCT032 BKN042 OVC055 11/10 A3010 RMK A01,M
BVU,2023-06-14 13:15,-114.8611,35.9475,671.00,71.60,42.80,35.37,M,3.00,0.00,29.84,M,10.00,M,CLR,M,M,M,M,M,M,M,M,M,M,M,M,M,M,71.60,KBVU 141315Z AUTO VRB03KT 10SM CLR 22/06 A2984 RMK AO2,M
CXP,2023-06-14 13:15,-119.7326,39.1923,1431.00,55.40,53.60,93.65,270.00,3.00,0.00,30.08,M,10.00,M,CLR,M,M,M,M,M,M,M,M,M,M,M,M,M,M,55.40,KCXP 141315Z AUTO 27003KT 10SM CLR 13/12 A3008 RMK AO2,M
RTS,2023-06-14 13:15,-119.8764,39.6682,1539.00,51.80,50.00,93.55,340.00,7.00,0.00,30.08,M,10.00,M,CLR,M,M,M,M,M,M,M,M,M,M,M,M,M,M,51.80,KRTS 141315Z AUTO 34007KT 10SM CLR 11/10 A3008 RMK AO2,M
MEV,2023-06-14 13:15,-119.7500,38.9963,1441.42,51.80,50.00,93.55,130.00,4.00,0.00,30.07,M,10.00,M,SCT,M,M,M,8000.00,M,M,M,M,M,M,M,M,M,M,51.80,KMEV 141315Z AUTO 13004KT 10SM SCT080 11/10 A3007 RMK AO2,M
BAM,2023-06-14 13:15,-116.8743,40.5990,1382.36,53.60,51.80,93.60,140.00,3.00,0.00,30.01,M,10.00,M,CLR,M,M,M,M,M,M,M,M,M,M,M,M,M,M,53.60,KBAM 141315Z AUTO 14003KT 10SM CLR 12/11 A3001 RMK AO1,M
HTH,2023-06-14 13:15,-118.6315,38.5448,1282.89,57.20,57.20,100.00,180.00,3.00,0.00,30.03,M,10.00,M,CLR,M,M,M,M,M,M,M,M,M,M,M,M,M,M,57.20,KHTH 141315Z AUTO 18003KT 10SM CLR 14/14 A3003 RMK A01,M
TMT,2023-06-14 13:15,-117.1971,39.4643,1749.34,48.60,48.20,98.51,180.00,5.00,0.00,30.09,M,10.00,M,CLR,M,M,M,M,M,M,M,M,M,M,M,M,M,M,46.11,KTMT 141315Z AUTO 18005KT 10SM CLR 09/09 A3009 RMK AO2 T00920090,M
05U,2023-06-14 13:30,-116.0051,39.6042,1811.23,51.80,50.00,93.55,40.00,4.00,0.00,30.09,M,10.00,M,FEW,SCT,BKN,M,4300.00,5500.00,8000.00,M,M,M,M,M,M,M,M,51.80,K05U 141330Z AUTO 04004KT 10SM FEW043 SCT055 BKN080 11/10 A3009 RMK A01,M
BVU,2023-06-14 13:35,-114.8611,35.9475,671.00,73.40,42.80,33.29,20.00,3.00,0.00,29.85,M,10.00,M,CLR,M,M,M,M,M,M,M,M,M,M,M,M,M,M,73.40,KBVU 141335Z AUTO 02003KT 10SM CLR 23/06 A2985 RMK AO2,M
CXP,2023-06-14 13:35,-119.7326,39.1923,1431.00,57.20,51.80,82.12,0.00,0.00,0.00,30.08,M,10.00,M,CLR,M,M,M,M,M,M,M,M,M,M,M,M,M,M,57.20,KCXP 141335Z AUTO 00000KT 10SM CLR 14/11 A3008 RMK AO2,M
RTS,2023-06-14 13:35,-119.8764,39.6682,1539.00,53.60,51.80,93.60,0.00,0.00,0.00,30.08,M,10.00,M,CLR,M,M,M,M,M,M,M,M,M,M,M,M,M,M,53.60,KRTS 141335Z AUTO 00000KT 10SM CLR 12/11 A3008 RMK AO2,M
MEV,2023-06-14 13:35,-119.7500,38.9963,1441.42,53.60,51.80,93.60,0.00,0.00,0.00,30.07,M,10.00,M,CLR,M,M,M,M,M,M,M,M,M,M,M,M,M,M,53.60,KMEV 141335Z AUTO 00000KT 10SM CLR 12/11 A3007 RMK AO2,M
BAM,2023-06-14 13:35,-116.8743,40.5990,1382.36,53.60,51.80,93.60,150.00,4.00,0.00,30.01,M,10.00,M,CLR,M,M,M,M,M,M,M,M,M,M,M,M,M,M,53.60,KBAM 141335Z AUTO 15004KT 10SM CLR 12/11 A3001 RMK AO1,M
HTH,2023-06-14 13:35,-118.6315,38.5448,1282.89,57.20,57.20,100.00,0.00,0.00,0.00,30.04,M,10.00,M,CLR,M,M,M,M,M,M,M,M,M,M,M,M,M,M,57.20,KHTH 141335Z AUTO 00000KT 10SM CLR 14/14 A3004 RMK A01,M
TMT,2023-06-14 13:35,-117.1971,39.4643,1749.34,48.70,48.40,98.88,0.00,0.00,0.00,30.09,M,7.00,M,CLR,M,M,M,M,M,M,M,M,M,M,M,M,M,M,48.70,KTMT 141335Z AUTO 00000KT 7SM CLR 09/09 A3009 RMK AO2 T00930091,M
05U,2023-06-14 13:50,-116.0051,39.6042,1811.23,53.60,50.00,87.56,0.00,0.00,0.00,30.09,M,10.00,M,FEW,FEW,SCT,M,2000.00,6500.00,9000.00,M,M,M,M,M,M,M,M,53.60,K05U 141350Z AUTO 00000KT 10SM FEW020 FEW065 SCT090 12/10 A3009 RMK A01,M
DRA,2023-06-14 13:53,-116.0278,36.6206,1009.00,69.00,39.00,33.25,0.00,0.00,0.00,29.92,1008.40,10.00,M,CLR,M,M,M,M,M,M,M,M,M,M,M,M,M,M,69.10,KDRA 141353Z AUTO 00000KT 10SM CLR 21/04 A2992 RMK AO2 SLP084 T02060039,M
ELY,2023-06-14 13:53,-114.8453,39.2950,1909.00,51.00,46.00,82.62,160.00,6.00,0.00,30.07,1011.80,10.00,M,CLR,M,M,M,M,M,M,M,M,M,M,M,M,M,M,51.10,KELY 141353Z AUTO 16006KT 10SM CLR 11/08 A3007 RMK AO2 SLP118 T01060078,M
VGT,2023-06-14 13:53,-115.1933,36.2111,667.00,77.00,44.00,31.02,0.00,0.00,0.00,29.84,1009.50,10.00,M,FEW,M,M,M,12000.00,M,M,M,M,M,M,M,M,M,M,77.00,KVGT 141353Z 00000KT 10SM FEW120 25/07 A2984 RMK AO2 SLP095 T02500067,M
LOL,2023-06-14 13:53,-118.5701,40.0684,1192.43,57.00,56.00,96.10,310.00,3.00,0.00,29.98,1012.80,8.00,M,CLR,M,M,M,M,M,M,M,M,M,M,M,M,M,M,57.00,KLOL 141353Z AUTO 31003KT 8SM CLR 14/13 A2998 RMK AO2 SLP128 T01390133,M
P68,2023-06-14 13:53,-116.0056,39.6014,1993.00,53.00,51.00,92.89,0.00,0.00,0.00,30.06,1012.50,M,M,M,M,M,M,M,M,M,M,M,M,M,M,M,M,M,53.10,KP68 141353Z AUTO 00000KT 12/11 A3006 RMK AO1 SLP125 T01170106,M
EKO,2023-06-14 13:54,-115.7860,40.8242,1367.00,55.40,51.80,87.65,250.00,6.00,0.00,30.01,M,10.00,M,BKN,M,M,M,2700.00,M,M,M,M,M,M,M,M,M,M,55.40,KEKO 141354Z AUTO 25006KT 10SM BKN027 13/11 A3001 RMK AO2,M
BVU,2023-06-14 13:55,-114.8611,35.9475,671.00,75.20,42.80,31.34,0.00,0.00,0.00,29.85,M,10.00,M,CLR,M,M,M,M,M,M,M,M,M,M,M,M,M,M,75.20,KBVU 141355Z AUTO 00000KT 10SM CLR 24/06 A2985 RMK AO2,M
CXP,2023-06-14 13:55,-119.7326,39.1923,1431.00,57.20,51.80,82.12,0.00,0.00,0.00,30.08,M,10.00,M,CLR,M,M,M,M,M,M,M,M,M,M,M,M,M,M,57.20,KCXP 141355Z AUTO 00000KT 10SM CLR 14/11 A3008 RMK AO2,M
RTS,2023-06-14 13:55,-119.8764,39.6682,1539.00,55.40,51.80,87.65,0.00,0.00,0.00,30.08,M,10.00,M,CLR,M,M,M,M,M,M,M,M,M,M,M,M,M,M,55.40,KRTS 141355Z AUTO 00000KT 10SM CLR 13/11 A3008 RMK AO2,M
MEV,2023-06-14 13:55,-119.7500,38.9963,1441.42,55.40,51.80,87.65,0.00,0.00,0.00,30.07,M,10.00,M,CLR,M,M,M,M,M,M,M,M,M,M,M,M,M,M,55.40,KMEV 141355Z AUTO 00000KT 10SM CLR 13/11 A3007 RMK AO2,M
BAM,2023-06-14 13:55,-116.8743,40.5990,1382.36,55.40,53.60,93.65,200.00,4.00,0.00,30.02,M,10.00,M,CLR,M,M,M,M,M,M,M,M,M,M,M,M,M,M,55.40,KBAM 141355Z AUTO 20004KT 10SM CLR 13/12 A3002 RMK AO1,M
HTH,2023-06-14 13:55,-118.6315,38.5448,1282.89,59.00,55.40,87.83,0.00,0.00,0.00,30.04,M,10.00,M,CLR,M,M,M,M,M,M,M,M,M,M,M,M,M,M,59.00,KHTH 141355Z AUTO 00000KT 10SM CLR 15/13 A3004 RMK A01,M
TMT,2023-06-14 13:55,-117.1971,39.4643,1749.34,49.80,49.50,98.89,0.00,0.00,0.00,30.09,M,10.00,M,CLR,M,M,M,M,M,M,M,M,M,M,M,M,M,M,49.80,KTMT 141355Z AUTO 00000KT 10SM CLR 10/10 A3009 RMK AO2 T00990097,M
INS,2023-06-14 13:55,-115.6733,36.5872,955.00,71.40,34.70,25.94,240.00,5.00,0.00,29.91,1008.20,10.00,M,CLR,M,M,M,M,M,M,M,M,M,M,M,M,M,M,71.40,KINS 141355Z AUTO 24005KT 10SM CLR 22/02 A2991 RMK AO2 SLP082 T02190015 $,M
LSV,2023-06-14 13:55,-115.0343,36.2362,570.00,76.80,40.30,26.98,0.00,0.00,0.00,29.81,1007.00,10.00,M,FEW,M,M,M,12000.00,M,M,M,M,M,M,M,M,M,M,76.80,KLSV 141355Z AUTO 00000KT 10SM FEW120 25/05 A2981 RMK AO2 SLP070 T02490046 $,M
RNO,2023-06-14 13:55,-119.7711,39.4839,1341.00,58.00,53.00,84.00,190.00,4.00,0.00,30.05,1013.60,10.00,M,FEW,FEW,M,M,10000.00,18000.00,M,M,M,M,M,M,M,M,M,57.90,KRNO 141355Z 19004KT 10SM FEW100 FEW180 14/12 A3005 RMK AO2 SLP136 T01440117,M
EKO,2023-06-14 13:56,-115.7860,40.8242,1367.00,56.00,52.00,86.71,260.00,7.00,0.00,30.01,1012.80,10.00,M,BKN,M,M,M,2600.00,M,M,M,M,M,M,M,M,M,M,55.90,KEKO 141356Z AUTO 26007KT 10SM BKN026 13/11 A3001 RMK AO2 SLP128 T01330111,M
NFL,2023-06-14 13:56,-118.7010,39.4166,1199.00,63.00,55.00,75.11,290.00,3.00,0.00,30.00,1012.90,10.00,M,CLR,M,M,M,M,M,M,M,M,M,M,M,M,M,M,63.00,KNFL 141356Z AUTO 29003KT 10SM CLR 17/13 A3000 RMK AO2 SLP129 T01720128,M
HND,2023-06-14 13:56,-115.1344,35.9729,742.79,76.00,43.00,30.85,200.00,6.00,0.00,29.89,1010.90,10.00,M,CLR,M,M,M,M,M,M,M,M,M,M,M,M,M,M,75.90,KHND 141356Z 20006KT 10SM CLR 24/06 A2989 RMK AO2 SLP109 T02440061,M
TPH,2023-06-14 13:56,-117.0904,38.0505,1654.00,60.00,50.00,69.24,M,M,0.00,30.06,1011.40,10.00,M,CLR,M,M,M,M,M,M,M,M,M,M,M,M,M,M,60.10,KTPH 141356Z AUTO 10SM CLR 16/10 A3006 RMK AO2 SLP114 T01560100,M
WMC,2023-06-14 13:56,-117.8072,40.9019,1315.00,58.00,56.00,93.04,170.00,3.00,0.00,30.00,1012.10,10.00,M,CLR,M,M,M,M,M,M,M,M,M,M,M,M,M,M,57.90,KWMC 141356Z AUTO 17003KT 10SM CLR 14/13 A3000 RMK AO2 SLP121 T01440133,M
LAS,2023-06-14 13:56,-115.1634,36.0719,663.00,76.00,42.00,29.80,170.00,5.00,0.00,29.85,1008.30,10.00,M,FEW,FEW,M,M,12000.00,16000.00,M,M,M,M,M,M,M,M,M,75.90,KLAS 141356Z 17005KT 10SM FEW120 FEW160 24/06 A2985 RMK AO2 SLP083 T02440056,M
05U,2023-06-14 14:10,-116.0051,39.6042,1811.23,53.60,51.80,93.60,20.00,5.00,0.00,30.09,M,10.00,M,BKN,BKN,M,M,6000.00,9000.00,M,M,M,M,M,M,M,M,M,53.60,K05U 141410Z AUTO 02005KT 10SM BKN060 BKN090 12/11 A3009 RMK A01,M
BVU,2023-06-14 14:15,-114.8611,35.9475,671.00,78.80,39.20,24.19,0.00,0.00,0.00,29.86,M,10.00,M,CLR,M,M,M,M,M,M,M,M,M,M,M,M,M,M,78.80,KBVU 141415Z AUTO 00000KT 10SM CLR 26/04 A2986 RMK AO2,M
CXP,2023-06-14 14:15,-119.7326,39.1923,1431.00,59.00,51.80,76.98,230.00,4.00,0.00,30.08,M,10.00,M,CLR,M,M,M,M,M,M,M,M,M,M,M,M,M,M,59.00,KCXP 141415Z AUTO 23004KT 10SM CLR 15/11 A3008 RMK AO2,M
RTS,2023-06-14 14:15,-119.8764,39.6682,1539.00,57.20,53.60,87.74,0.00,0.00,0.00,30.07,M,10.00,M,CLR,M,M,M,M,M,M,M,M,M,M,M,M,M,M,57.20,KRTS 141415Z AUTO 00000KT 10SM CLR 14/12 A3007 RMK AO2,M
MEV,2023-06-14 14:15,-119.7500,38.9963,1441.42,57.20,51.80,82.12,190.00,4.00,0.00,30.07,M,10.00,M,CLR,M,M,M,M,M,M,M,M,M,M,M,M,M,M,57.20,KMEV 141415Z AUTO 19004KT 10SM CLR 14/11 A3007 RMK AO2,M
BAM,2023-06-14 14:15,-116.8743,40.5990,1382.36,57.20,55.40,93.69,170.00,3.00,0.00,30.02,M,10.00,M,CLR,M,M,M,M,M,M,M,M,M,M,M,M,M,M,57.20,KBAM 141415Z AUTO 17003KT 10SM CLR 14/13 A3002 RMK AO1,M
HTH,2023-06-14 14:15,-118.6315,38.5448,1282.89,60.80,53.60,77.14,0.00,0.00,0.00,30.04,M,10.00,M,CLR,M,M,M,M,M,M,M,M,M,M,M,M,M,M,60.80,KHTH 141415Z AUTO 00000KT 10SM CLR 16/12 A3004 RMK A01,M
TMT,2023-06-14 14:15,-117.1971,39.4643,1749.34,53.00,50.70,91.53,210.00,3.00,0.00,30.08,M,10.00,M,CLR,M,M,M,M,M,M,M,M,M,M,M,M,M,M,53.10,KTMT 141415Z AUTO 21003KT 10SM CLR 12/10 A3008 RMK AO2 T01170104,M
05U,2023-06-14 14:30,-116.0051,39.6042,1811.23,53.60,51.80,93.60,0.00,0.00,0.00,30.09,M,10.00,M,BKN,M,M,M,6000.00,M,M,M,M,M,M,M,M,M,M,53.60,K05U 141430Z AUTO 00000KT 10SM BKN060 12/11 A3009 RMK A01,M
BVU,2023-06-14 14:35,-114.8611,35.9475,671.00,78.80,37.40,22.54,150.00,4.00,0.00,29.86,M,10.00,M,CLR,M,M,M,M,M,M,M,M,M,M,M,M,M,M,78.80,KBVU 141435Z AUTO 15004KT 10SM CLR 26/03 A2986 RMK AO2,M
CXP,2023-06-14 14:35,-119.7326,39.1923,1431.00,59.00,51.80,76.98,0.00,0.00,0.00,30.07,M,10.00,M,CLR,M,M,M,M,M,M,M,M,M,M,M,M,M,M,59.00,KCXP 141435Z AUTO 00000KT 10SM CLR 15/11 A3007 RMK AO2,M
RTS,2023-06-14 14:35,-119.8764,39.6682,1539.00,57.20,53.60,87.74,350.00,3.00,0.00,30.07,M,10.00,M,CLR,M,M,M,M,M,M,M,M,M,M,M,M,M,M,57.20,KRTS 141435Z AUTO 35003KT 10SM CLR 14/12 A3007 RMK AO2,M
MEV,2023-06-14 14:35,-119.7500,38.9963,1441.42,59.00,50.00,72.01,0.00,0.00,0.00,30.07,M,10.00,M,CLR,M,M,M,M,M,M,M,M,M,M,M,M,M,M,59.00,KMEV 141435Z AUTO 00000KT 10SM CLR 15/10 A3007 RMK AO2,M
BAM,2023-06-14 14:35,-116.8743,40.5990,1382.36,60.80,55.40,82.37,200.00,4.00,0.00,30.02,M,10.00,M,CLR,M,M,M,M,M,M,M,M,M,M,M,M,M,M,60.80,KBAM 141435Z AUTO 20004KT 10SM CLR 16/13 A3002 RMK AO1,M
HTH,2023-06-14 14:35,-118.6315,38.5448,1282.89,62.60,53.60,72.38,0.00,0.00,0.00,30.04,M,10.00,M,CLR,M,M,M,M,M,M,M,M,M,M,M,M,M,M,62.60,KHTH 141435Z AUTO 00000KT 10SM CLR 17/12 A3004 RMK A01,M
TMT,2023-06-14 14:35,-117.1971,39.4643,1749.34,55.00,52.30,90.92,180.00,4.00,0.00,30.08,M,10.00,M,CLR,M,M,M,M,M,M,M,M,M,M,M,M,M,M,54.90,KTMT 141435Z AUTO 18004KT 10SM CLR 13/11 A3008 RMK AO2 T01270113,M
NFL,2023-06-14 14:43,-118.7010,39.4166,1199.00,66.00,56.00,69.88,210.00,4.00,0.00,29.99,M,10.00,M,FEW,SCT,M,M,4000.00,10000.00,M,M,M,M,M,M,M,M,M,66.00,KNFL 141443Z 21004KT 10SM FEW040 SCT100 19/13 A2999 RMK AO2 T01890133,M
05U,2023-06-14 14:50,-116.0051,39.6042,1811.23,55.40,51.80,87.65,20.00,5.00,0.00,30.09,M,10.00,M,FEW,M,M,M,6500.00,M,M,M,M,M,M,M,M,M,M,55.40,K05U 141450Z AUTO 02005KT 10SM FEW065 13/11 A3009 RMK A01,M
DRA,2023-06-14 14:53,-116.0278,36.6206,1009.00,76.00,41.00,28.56,M,4.00,0.00,29.93,1008.60,10.00,M,CLR,M,M,M,M,M,M,M,M,M,M,M,M,M,M,75.90,KDRA 141453Z AUTO VRB04KT 10SM CLR 24/05 A2993 RMK AO2 SLP086 T02440050 51011,M
ELY,2023-06-14 14:53,-114.8453,39.2950,1909.00,55.00,48.00,77.21,170.00,6.00,0.00,30.07,1011.50,10.00,M,FEW,SCT,M,M,6500.00,12000.00,M,M,M,M,M,M,M,M,M,55.00,KELY 141453Z AUTO 17006KT 10SM FEW065 SCT120 13/09 A3007 RMK AO2 SLP115 T01280089 53001,M
P68,2023-06-14 14:53,-116.0056,39.6014,1993.00,55.00,51.00,86.66,220.00,5.00,0.00,30.06,1012.40,M,M,M,M,M,M,M,M,M,M,M,M,M,M,M,M,M,55.00,KP68 141453Z AUTO 22005KT 13/11 A3006 RMK AO1 SLP124 T01280106 51001,M
VGT,2023-06-14 14:53,-115.1933,36.2111,667.00,82.00,42.00,24.38,320.00,5.00,0.00,29.85,1009.90,10.00,M,CLR,M,M,M,M,M,M,M,M,M,M,M,M,M,M,80.09,KVGT 141453Z 32005KT 10SM CLR 28/06 A2985 RMK AO2 SLP099 T02780056 53012,M
LOL,2023-06-14 14:53,-118.5701,40.0684,1192.43,62.00,58.00,86.11,0.00,0.00,0.00,29.98,1012.40,10.00,M,CLR,M,M,M,M,M,M,M,M,M,M,M,M,M,M,62.10,KLOL 141453Z AUTO 00000KT 10SM CLR 17/14 A2998 RMK AO2 SLP124 T01670144 50000,M
BVU,2023-06-14 14:55,-114.8611,35.9475,671.00,78.80,37.40,22.54,0.00,0.00,0.00,29.86,M,10.00,M,CLR,M,M,M,M,M,M,M,M,M,M,M,M,M,M,78.80,KBVU 141455Z AUTO 00000KT 10SM CLR 26/03 A2986 RMK AO2,M
CXP,2023-06-14 14:55,-119.7326,39.1923,1431.00,60.80,51.80,72.20,200.00,7.00,0.00,30.07,M,10.00,M,CLR,M,M,M,M,M,M,M,M,M,M,M,M,M,M,60.80,KCXP 141455Z AUTO 20007KT 10SM CLR 16/11 A3007 RMK AO2,M
LSV,2023-06-14 14:55,-115.0343,36.2362,570.00,82.00,40.50,22.99,0.00,0.00,0.00,29.82,1007.30,10.00,M,CLR,M,M,M,M,M,M,M,M,M,M,M,M,M,M,79.95,KLSV 141455Z AUTO 00000KT 10SM CLR 28/05 A2982 RMK AO2 SLP073 T02770047 52013 $,M
RTS,2023-06-14 14:55,-119.8764,39.6682,1539.00,59.00,51.80,76.98,0.00,0.00,0.00,30.08,M,10.00,M,CLR,M,M,M,M,M,M,M,M,M,M,M,M,M,M,59.00,KRTS 141455Z AUTO 00000KT 10SM CLR 15/11 A3008 RMK AO2,M
MEV,2023-06-14 14:55,-119.7500,38.9963,1441.42,59.00,50.00,72.01,0.00,0.00,0.00,30.06,M,10.00,M,CLR,M,M,M,M,M,M,M,M,M,M,M,M,M,M,59.00,KMEV 141455Z AUTO 00000KT 10SM CLR 15/10 A3006 RMK AO2,M
BAM,2023-06-14 14:55,-116.8743,40.5990,1382.36,62.60,57.20,82.50,210.00,3.00,0.00,30.01,M,10.00,M,CLR,M,M,M,M,M,M,M,M,M,M,M,M,M,M,62.60,KBAM 141455Z AUTO 21003KT 10SM CLR 17/14 A3001 RMK AO1,M
HTH,2023-06-14 14:55,-118.6315,38.5448,1282.89,62.60,53.60,72.38,0.00,0.00,0.00,30.04,M,10.00,M,CLR,M,M,M,M,M,M,M,M,M,M,M,M,M,M,62.60,KHTH 141455Z AUTO 00000KT 10SM CLR 17/12 A3004 RMK A01,M
INS,2023-06-14 14:55,-115.6733,36.5872,955.00,77.20,34.20,20.94,0.00,0.00,0.00,29.91,1008.00,10.00,M,CLR,M,M,M,M,M,M,M,M,M,M,M,M,M,M,77.20,KINS 141455Z AUTO 00000KT 10SM CLR 25/01 A2991 RMK AO2 SLP080 T02510012 52007 $,M
RNO,2023-06-14 14:55,-119.7711,39.4839,1341.00,61.00,53.00,75.20,0.00,0.00,0.00,30.04,1013.30,10.00,M,FEW,M,M,M,4000.00,M,M,M,M,M,M,M,M,M,M,61.00,KRNO 141455Z 00000KT 10SM FEW040 16/12 A3004 RMK AO2 SLP133 T01610117 58002,M
TMT,2023-06-14 14:55,-117.1971,39.4643,1749.34,56.00,52.30,87.04,0.00,0.00,0.00,30.09,M,10.00,M,CLR,M,M,M,M,M,M,M,M,M,M,M,M,M,M,56.10,KTMT 141455Z AUTO 00000KT 10SM CLR 13/11 A3009 RMK AO2 T01340113,M
EKO,2023-06-14 14:56,-115.7860,40.8242,1367.00,59.00,54.00,83.46,240.00,4.00,0.00,30.01,1012.90,10.00,M,SCT,OVC,M,M,2500.00,9500.00,M,M,M,M,M,M,M,M,M,59.00,KEKO 141456Z AUTO 24004KT 10SM SCT025 OVC095 15/12 A3001 RMK AO2 SLP129 T01500122 51003,M
NFL,2023-06-14 14:56,-118.7010,39.4166,1199.00,67.00,57.00,70.49,200.00,3.00,0.00,29.99,1012.70,10.00,M,FEW,SCT,M,M,4000.00,10000.00,M,M,M,M,M,M,M,M,M,66.90,KNFL 141456Z 20003KT 10SM FEW040 SCT100 19/14 A2999 RMK AO2 SLP127 T01940139 50001,M
TPH,2023-06-14 14:56,-117.0904,38.0505,1654.00,63.00,50.00,62.49,360.00,9.00,0.00,30.06,1011.70,10.00,M,CLR,M,M,M,M,M,M,M,M,M,M,M,M,M,M,63.00,KTPH 141456Z AUTO 36009KT 10SM CLR 17/10 A3006 RMK AO2 SLP117 T01720100 53003,M
LAS,2023-06-14 14:56,-115.1634,36.0719,663.00,80.00,41.00,24.86,190.00,4.00,0.00,29.86,1008.60,10.00,M,FEW,FEW,M,M,12000.00,18000.00,M,M,M,M,M,M,M,M,M,78.98,KLAS 141456Z 19004KT 10SM FEW120 FEW180 27/05 A2986 RMK AO2 SLP086 T02670050 51014,M
WMC,2023-06-14 14:56,-117.8072,40.9019,1315.00,63.00,53.00,70.07,340.00,4.00,0.00,30.01,1012.20,10.00,M,CLR,M,M,M,M,M,M,M,M,M,M,M,M,M,M,63.00,KWMC 141456Z AUTO 34004KT 10SM CLR 17/12 A3001 RMK AO2 SLP122 T01720117 53003,M
HND,2023-06-14 14:56,-115.1344,35.9729,742.79,79.00,44.00,29.04,220.00,8.00,0.00,29.90,1011.00,10.00,M,CLR,M,M,M,M,M,M,M,M,M,M,M,M,M,M,79.00,KHND 141456Z 22008KT 10SM CLR 26/07 A2990 RMK AO2 SLP110 T02610067 51014,M
INS,2023-06-14 14:57,-115.6733,36.5872,955.00,77.50,34.50,20.98,0.00,0.00,0.00,29.91,1008.00,10.00,M,CLR,M,M,M,M,M,M,M,M,M,M,M,M,M,M,77.50,KINS 141457Z AUTO 00000KT 10SM CLR 25/01 A2991 RMK AO2 SLP080 T02530014 52007 $,M
LSV,2023-06-14 14:57,-115.0343,36.2362,570.00,82.00,40.50,22.99,0.00,0.00,0.00,29.82,1007.40,10.00,M,CLR,M,M,M,M,M,M,M,M,M,M,M,M,M,M,79.95,KLSV 141457Z AUTO 00000KT 10SM CLR 28/05 A2982 RMK AO2 SLP074 T02770047 52013 $,M
05U,2023-06-14 15:10,-116.0051,39.6042,1811.23,59.00,51.80,76.98,0.00,0.00,0.00,30.09,M,10.00,M,CLR,M,M,M,M,M,M,M,M,M,M,M,M,M,M,59.00,K05U 141510Z AUTO 00000KT 10SM CLR 15/11 A3009 RMK A01,M
BVU,2023-06-14 15:15,-114.8611,35.9475,671.00,80.60,37.40,21.25,0.00,0.00,0.00,29.87,M,10.00,M,CLR,M,M,M,M,M,M,M,M,M,M,M,M,M,M,79.02,KBVU 141515Z AUTO 00000KT 10SM CLR 27/03 A2987 RMK AO2,M
CXP,2023-06-14 15:15,-119.7326,39.1923,1431.00,62.60,51.80,67.75,200.00,7.00,0.00,30.06,M,10.00,M,CLR,M,M,M,M,M,M,M,M,M,M,M,M,M,M,62.60,KCXP 141515Z AUTO 20007KT 10SM CLR 17/11 A3006 RMK AO2,M
RTS,2023-06-14 15:15,-119.8764,39.6682,1539.00,60.80,53.60,77.14,0.00,0.00,0.00,30.08,M,10.00,M,CLR,M,M,M,M,M,M,M,M,M,M,M,M,M,M,60.80,KRTS 141515Z AUTO 00000KT 10SM CLR 16/12 A3008 RMK AO2,M
MEV,2023-06-14 15:15,-119.7500,38.9963,1441.42,60.80,50.00,67.54,0.00,0.00,0.00,30.06,M,10.00,M,CLR,M,M,M,M,M,M,M,M,M,M,M,M,M,M,60.80,KMEV 141515Z AUTO 00000KT 10SM CLR 16/10 A3006 RMK AO2,M
BAM,2023-06-14 15:15,-116.8743,40.5990,1382.36,62.60,55.40,77.29,0.00,0.00,0.00,30.01,M,10.00,M,CLR,M,M,M,M,M,M,M,M,M,M,M,M,M,M,62.60,KBAM 141515Z AUTO 00000KT 10SM CLR 17/13 A3001 RMK AO1,M
HTH,2023-06-14 15:15,-118.6315,38.5448,1282.89,64.40,53.60,67.95,0.00,0.00,0.00,30.04,M,10.00,M,CLR,M,M,M,M,M,M,M,M,M,M,M,M,M,M,64.40,KHTH 141515Z AUTO 00000KT 10SM CLR 18/12 A3004 RMK A01,M
TMT,2023-06-14 15:15,-117.1971,39.4643,1749.34,56.80,52.50,85.49,0.00,0.00,0.00,30.09,M,10.00,M,CLR,M,M,M,M,M,M,M,M,M,M,M,M,M,M,56.80,KTMT 141515Z AUTO 00000KT 10SM CLR 14/11 A3009 RMK AO2 T01380114,M
05U,2023-06-14 15:30,-116.0051,39.6042,1811.23,60.80,50.00,67.54,0.00,0.00,0.00,30.09,M,10.00,M,FEW,M,M,M,8000.00,M,M,M,M,M,M,M,M,M,M,60.80,K05U 141530Z AUTO 00000KT 10SM FEW080 16/10 A3009 RMK A01,M
BVU,2023-06-14 15:35,-114.8611,35.9475,671.00,82.40,37.40,20.04,90.00,4.00,0.00,29.87,M,10.00,M,CLR,M,M,M,M,M,M,M,M,M,M,M,M,M,M,80.14,KBVU 141535Z AUTO 09004KT 10SM CLR 28/03 A2987 RMK AO2,M
CXP,2023-06-14 15:35,-119.7326,39.1923,1431.00,62.60,51.80,67.75,190.00,6.00,0.00,30.07,M,10.00,M,CLR,M,M,M,M,M,M,M,M,M,M,M,M,M,M,62.60,KCXP 141535Z AUTO 19006KT 10SM CLR 17/11 A3007 RMK AO2,M
RTS,2023-06-14 15:35,-119.8764,39.6682,1539.00,60.80,53.60,77.14,M,4.00,0.00,30.08,M,10.00,M,CLR,M,M,M,M,M,M,M,M,M,M,M,M,M,M,60.80,KRTS 141535Z AUTO VRB04KT 10SM CLR 16/12 A3008 RMK AO2,M
MEV,2023-06-14 15:35,-119.7500,38.9963,1441.42,62.60,51.80,67.75,0.00,0.00,0.00,30.06,M,10.00,M,CLR,M,M,M,M,M,M,M,M,M,M,M,M,M,M,62.60,KMEV 141535Z AUTO 00000KT 10SM CLR 17/11 A3006 RMK AO2,M
BAM,2023-06-14 15:35,-116.8743,40.5990,1382.36,64.40,55.40,72.56,0.00,0.00,0.00,30.01,M,10.00,M,CLR,M,M,M,M,M,M,M,M,M,M,M,M,M,M,64.40,KBAM 141535Z AUTO 00000KT 10SM CLR 18/13 A3001 RMK AO1,M
HTH,2023-06-14 15:35,-118.6315,38.5448,1282.89,64.40,53.60,67.95,0.00,0.00,0.00,30.04,M,10.00,M,CLR,M,M,M,M,M,M,M,M,M,M,M,M,M,M,64.40,KHTH 141535Z AUTO 00000KT 10SM CLR 18/12 A3004 RMK A01,M
TMT,2023-06-14 15:35,-117.1971,39.4643,1749.34,58.50,52.50,80.42,0.00,0.00,0.00,30.09,M,10.00,M,CLR,M,M,M,M,M,M,M,M,M,M,M,M,M,M,58.50,KTMT 141535Z AUTO 00000KT 10SM CLR 15/11 A3009 RMK AO2 T01470114,M
05U,2023-06-14 15:50,-116.0051,39.6042,1811.23,62.60,50.00,63.38,0.00,0.00,0.00,30.09,M,10.00,M,FEW,M,M,M,8000.00,M,M,M,M,M,M,M,M,M,M,62.60,K05U 141550Z AUTO 00000KT 10SM FEW080 17/10 A3009 RMK A01,M
P68,2023-06-14 15:53,-116.0056,39.6014,1993.00,60.00,50.00,69.24,0.00,0.00,0.00,30.06,1012.10,M,M,M,M,M,M,M,M,M,M,M,M,M,M,M,M,M,60.10,KP68 141553Z AUTO 00000KT 16/10 A3006 RMK AO1 SLP121 T01560100,M
DRA,2023-06-14 15:53,-116.0278,36.6206,1009.00,78.00,43.00,28.68,210.00,3.00,0.00,29.93,1008.80,10.00,M,CLR,M,M,M,M,M,M,M,M,M,M,M,M,M,M,78.10,KDRA 141553Z AUTO 21003KT 10SM CLR 26/06 A2993 RMK AO2 SLP088 T02560061,M
ELY,2023-06-14 15:53,-114.8453,39.2950,1909.00,61.00,46.00,57.72,0.00,0.00,0.00,30.07,1010.80,10.00,M,CLR,M,M,M,M,M,M,M,M,M,M,M,M,M,M,61.00,KELY 141553Z AUTO 00000KT 10SM CLR 16/08 A3007 RMK AO2 SLP108 T01610078,M
LOL,2023-06-14 15:53,-118.5701,40.0684,1192.43,67.00,55.00,65.56,0.00,0.00,0.00,29.99,1012.50,10.00,M,CLR,M,M,M,M,M,M,M,M,M,M,M,M,M,M,66.90,KLOL 141553Z AUTO 00000KT 10SM CLR 19/13 A2999 RMK AO2 SLP125 T01940128,M
VGT,2023-06-14 15:53,-115.1933,36.2111,667.00,84.00,42.00,22.85,310.00,6.00,0.00,29.86,1009.90,10.00,M,CLR,M,M,M,M,M,M,M,M,M,M,M,M,M,M,81.43,KVGT 141553Z 31006KT 10SM CLR 29/06 A2986 RMK AO2 SLP099 T02890056,M
BVU,2023-06-14 15:55,-114.8611,35.9475,671.00,82.40,37.40,20.04,0.00,0.00,0.00,29.87,M,10.00,M,CLR,M,M,M,M,M,M,M,M,M,M,M,M,M,M,80.14,KBVU 141555Z AUTO 00000KT 10SM CLR 28/03 A2987 RMK AO2,M
CXP,2023-06-14 15:55,-119.7326,39.1923,1431.00,64.40,51.80,63.60,0.00,0.00,0.00,30.07,M,10.00,M,CLR,M,M,M,M,M,M,M,M,M,M,M,M,M,M,64.40,KCXP 141555Z AUTO 00000KT 10SM CLR 18/11 A3007 RMK AO2,M
RTS,2023-06-14 15:55,-119.8764,39.6682,1539.00,62.60,51.80,67.75,0.00,0.00,0.00,30.08,M,10.00,M,CLR,M,M,M,M,M,M,M,M,M,M,M,M,M,M,62.60,KRTS 141555Z AUTO 00000KT 10SM CLR 17/11 A3008 RMK AO2,M
MEV,2023-06-14 15:55,-119.7500,38.9963,1441.42,62.60,51.80,67.75,0.00,0.00,0.00,30.06,M,10.00,M,CLR,M,M,M,M,M,M,M,M,M,M,M,M,M,M,62.60,KMEV 141555Z AUTO 00000KT 10SM CLR 17/11 A3006 RMK AO2,M
BAM,2023-06-14 15:55,-116.8743,40.5990,1382.36,66.20,55.40,68.15,220.00,6.00,0.00,30.01,M,10.00,M,CLR,M,M,M,M,M,M,M,M,M,M,M,M,M,M,66.20,KBAM 141555Z AUTO 22006KT 10SM CLR 19/13 A3001 RMK AO1,M
HTH,2023-06-14 15:55,-118.6315,38.5448,1282.89,66.20,53.60,63.82,0.00,0.00,0.00,30.04,M,10.00,M,CLR,M,M,M,M,M,M,M,M,M,M,M,M,M,M,66.20,KHTH 141555Z AUTO 00000KT 10SM CLR 19/12 A3004 RMK A01,M
TMT,2023-06-14 15:55,-117.1971,39.4643,1749.34,59.50,53.20,79.62,0.00,0.00,0.00,30.09,M,10.00,M,CLR,M,M,M,M,M,M,M,M,M,M,M,M,M,M,59.50,KTMT 141555Z AUTO 00000KT 10SM CLR 15/12 A3009 RMK AO2 T01530118,M
LSV,2023-06-14 15:55,-115.0343,36.2362,570.00,88.50,43.50,20.89,0.00,0.00,0.00,29.82,1007.20,10.00,M,CLR,M,M,M,M,M,M,M,M,M,M,M,M,M,M,85.03,KLSV 141555Z AUTO 00000KT 10SM CLR 31/06 A2982 RMK AO2 SLP072 T03140064 $,M
RNO,2023-06-14 15:55,-119.7711,39.4839,1341.00,66.00,53.00,63.10,0.00,0.00,0.00,30.04,1013.40,10.00,M,FEW,M,M,M,4000.00,M,M,M,M,M,M,M,M,M,M,66.00,KRNO 141555Z 00000KT 10SM FEW040 19/12 A3004 RMK AO2 SLP134 T01890117,M
INS,2023-06-14 15:55,-115.6733,36.5872,955.00,79.20,38.00,22.87,280.00,4.00,0.00,29.92,1008.40,10.00,M,CLR,M,M,M,M,M,M,M,M,M,M,M,M,M,M,79.20,KINS 141555Z AUTO 28004KT 10SM CLR 26/03 A2992 RMK AO2 SLP084 T02620034 $,M
EKO,2023-06-14 15:56,-115.7860,40.8242,1367.00,64.00,55.00,72.52,190.00,4.00,0.00,30.01,1012.40,10.00,M,SCT,M,M,M,2800.00,M,M,M,M,M,M,M,M,M,M,64.00,KEKO 141556Z AUTO 19004KT 10SM SCT028 18/13 A3001 RMK AO2 SLP124 T01780128,M
HND,2023-06-14 15:56,-115.1344,35.9729,742.79,84.00,43.00,23.66,220.00,6.00,0.00,29.90,1010.90,10.00,M,CLR,M,M,M,M,M,M,M,M,M,M,M,M,M,M,81.48,KHND 141556Z 22006KT 10SM CLR 29/06 A2990 RMK AO2 SLP109 T02890061,M
NFL,2023-06-14 15:56,-118.7010,39.4166,1199.00,69.00,54.00,58.60,300.00,5.00,0.00,29.99,1012.70,10.00,M,FEW,SCT,M,M,4000.00,10000.00,M,M,M,M,M,M,M,M,M,69.10,KNFL 141556Z 30005KT 10SM FEW040 SCT100 21/12 A2999 RMK AO2 SLP127 T02060122,M
WMC,2023-06-14 15:56,-117.8072,40.9019,1315.00,66.00,51.00,58.62,0.00,0.00,0.00,30.01,1012.30,10.00,M,CLR,M,M,M,M,M,M,M,M,M,M,M,M,M,M,66.00,KWMC 141556Z AUTO 00000KT 10SM CLR 19/11 A3001 RMK AO2 SLP123 T01890106,M
LAS,2023-06-14 15:56,-115.1634,36.0719,663.00,84.00,42.00,22.85,M,4.00,0.00,29.87,1008.60,10.00,M,FEW,FEW,M,M,12000.00,18000.00,M,M,M,M,M,M,M,M,M,81.43,KLAS 141556Z VRB04KT 10SM FEW120 FEW180 29/06 A2987 RMK AO2 SLP086 T02890056,M
TPH,2023-06-14 15:56,-117.0904,38.0505,1654.00,67.00,51.00,56.82,0.00,0.00,0.00,30.06,1010.80,10.00,M,CLR,M,M,M,M,M,M,M,M,M,M,M,M,M,M,66.90,KTPH 141556Z AUTO 00000KT 10SM CLR 19/11 A3006 RMK AO2 SLP108 T01940106,M
05U,2023-06-14 16:10,-116.0051,39.6042,1811.23,64.40,51.80,63.60,M,4.00,0.00,30.09,M,10.00,M,CLR,M,M,M,M,M,M,M,M,M,M,M,M,M,M,64.40,K05U 141610Z AUTO VRB04KT 10SM CLR 18/11 A3009 RMK A01,M
EKO,2023-06-14 16:10,-115.7860,40.8242,1367.00,63.00,53.00,70.07,230.00,5.00,0.00,30.01,M,10.00,M,BKN,M,M,M,2600.00,M,M,M,M,M,M,M,M,M,M,63.00,KEKO 141610Z AUTO 23005KT 10SM BKN026 17/12 A3001 RMK AO2 T01720117,M
BVU,2023-06-14 16:15,-114.8611,35.9475,671.00,84.20,37.40,18.91,M,3.00,0.00,29.86,M,10.00,M,CLR,M,M,M,M,M,M,M,M,M,M,M,M,M,M,81.38,KBVU 141615Z AUTO VRB03KT 10SM CLR 29/03 A2986 RMK AO2,M
CXP,2023-06-14 16:15,-119.7326,39.1923,1431.00,64.40,51.80,63.60,M,3.00,0.00,30.07,M,10.00,M,CLR,M,M,M,M,M,M,M,M,M,M,M,M,M,M,64.40,KCXP 141615Z AUTO VRB03KT 10SM CLR 18/11 A3007 RMK AO2,M
RTS,2023-06-14 16:15,-119.8764,39.6682,1539.00,62.60,53.60,72.38,0.00,0.00,0.00,30.08,M,10.00,M,CLR,M,M,M,M,M,M,M,M,M,M,M,M,M,M,62.60,KRTS 141615Z AUTO 00000KT 10SM CLR 17/12 A3008 RMK AO2,M
MEV,2023-06-14 16:15,-119.7500,38.9963,1441.42,64.40,51.80,63.60,0.00,0.00,0.00,30.05,M,10.00,M,CLR,M,M,M,M,M,M,M,M,M,M,M,M,M,M,64.40,KMEV 141615Z AUTO 00000KT 10SM CLR 18/11 A3005 RMK AO2,M
BAM,2023-06-14 16:15,-116.8743,40.5990,1382.36,68.00,55.40,64.04,250.00,6.00,0.00,30.01,M,10.00,M,CLR,M,M,M,M,M,M,M,M,M,M,M,M,M,M,68.00,KBAM 141615Z AUTO 25006KT 10SM CLR 20/13 A3001 RMK AO1,M
HTH,2023-06-14 16:15,-118.6315,38.5448,1282.89,68.00,50.00,52.51,0.00,0.00,0.00,30.03,M,10.00,M,CLR,M,M,M,M,M,M,M,M,M,M,M,M,M,M,68.00,KHTH 141615Z AUTO 00000KT 10SM CLR 20/10 A3003 RMK A01,M
TMT,2023-06-14 16:15,-117.1971,39.4643,1749.34,61.20,53.60,76.05,0.00,0.00,0.00,30.08,M,10.00,M,CLR,M,M,M,M,M,M,M,M,M,M,M,M,M,M,61.20,KTMT 141615Z AUTO 00000KT 10SM CLR 16/12 A3008 RMK AO2 T01620120,M
05U,2023-06-14 16:30,-116.0051,39.6042,1811.23,64.40,50.00,59.50,0.00,0.00,0.00,30.09,M,10.00,M,CLR,M,M,M,M,M,M,M,M,M,M,M,M,M,M,64.40,K05U 141630Z AUTO 00000KT 10SM CLR 18/10 A3009 RMK A01,M
BVU,2023-06-14 16:35,-114.8611,35.9475,671.00,86.00,39.20,19.15,170.00,4.00,0.00,29.85,M,10.00,M,CLR,M,M,M,M,M,M,M,M,M,M,M,M,M,M,82.79,KBVU 141635Z AUTO 17004KT 10SM CLR 30/04 A2985 RMK AO2,M
CXP,2023-06-14 16:35,-119.7326,39.1923,1431.00,66.20,51.80,59.74,M,3.00,0.00,30.06,M,10.00,M,CLR,M,M,M,M,M,M,M,M,M,M,M,M,M,M,66.20,KCXP 141635Z AUTO VRB03KT 10SM CLR 19/11 A3006 RMK AO2,M
RTS,2023-06-14 16:35,-119.8764,39.6682,1539.00,62.60,53.60,72.38,0.00,0.00,0.00,30.07,M,10.00,M,CLR,M,M,M,M,M,M,M,M,M,M,M,M,M,M,62.60,KRTS 141635Z AUTO 00000KT 10SM CLR 17/12 A3007 RMK AO2,M
MEV,2023-06-14 16:35,-119.7500,38.9963,1441.42,66.20,51.80,59.74,0.00,0.00,0.00,30.05,M,10.00,M,CLR,M,M,M,M,M,M,M,M,M,M,M,M,M,M,66.20,KMEV 141635Z AUTO 00000KT 10SM CLR 19/11 A3005 RMK AO2,M
BAM,2023-06-14 16:35,-116.8743,40.5990,1382.36,68.00,55.40,64.04,210.00,5.00,0.00,30.01,M,10.00,M,CLR,M,M,M,M,M,M,M,M,M,M,M,M,M,M,68.00,KBAM 141635Z AUTO 21005KT 10SM CLR 20/13 A3001 RMK AO1,M
HTH,2023-06-14 16:35,-118.6315,38.5448,1282.89,68.00,50.00,52.51,10.00,3.00,0.00,30.03,M,10.00,M,CLR,M,M,M,M,M,M,M,M,M,M,M,M,M,M,68.00,KHTH 141635Z AUTO 01003KT 10SM CLR 20/10 A3003 RMK A01,M
TMT,2023-06-14 16:35,-117.1971,39.4643,1749.34,62.60,51.60,67.25,230.00,3.00,0.00,30.08,M,10.00,M,CLR,M,M,M,M,M,M,M,M,M,M,M,M,M,M,62.60,KTMT 141635Z AUTO 23003KT 10SM CLR 17/11 A3008 RMK AO2 T01700109,M
EKO,2023-06-14 16:48,-115.7860,40.8242,1367.00,64.00,52.00,64.97,220.00,6.00,0.00,30.01,M,10.00,M,BKN,BKN,M,M,3000.00,3700.00,M,M,M,M,M,M,M,M,M,64.00,KEKO 141648Z AUTO 22006KT 10SM BKN030 BKN037 18/11 A3001 RMK AO2 T01780111,M
05U,2023-06-14 16:50,-116.0051,39.6042,1811.23,64.40,50.00,59.50,0.00,0.00,0.00,30.09,M,10.00,M,FEW,M,M,M,2900.00,M,M,M,M,M,M,M,M,M,M,64.40,K05U 141650Z AUTO 00000KT 10SM FEW029 18/10 A3009 RMK A01,M
P68,2023-06-14 16:53,-116.0056,39.6014,1993.00,63.00,50.00,62.49,70.00,4.00,0.00,30.06,1011.90,M,M,M,M,M,M,M,M,M,M,M,M,M,M,M,M,M,63.00,KP68 141653Z AUTO 07004KT 17/10 A3006 RMK AO1 SLP119 T01720100,M
DRA,2023-06-14 16:53,-116.0278,36.6206,1009.00,80.00,43.00,26.85,230.00,6.00,0.00,29.92,1008.50,10.00,M,CLR,M,M,M,M,M,M,M,M,M,M,M,M,M,M,79.04,KDRA 141653Z AUTO 23006KT 10SM CLR 27/06 A2992 RMK AO2 SLP085 T02670061,M
ELY,2023-06-14 16:53,-114.8453,39.2950,1909.00,65.00,46.00,50.32,0.00,0.00,0.00,30.06,1009.80,10.00,M,CLR,M,M,M,M,M,M,M,M,M,M,M,M,M,M,64.90,KELY 141653Z AUTO 00000KT 10SM CLR 18/08 A3006 RMK AO2 SLP098 T01830078,M
VGT,2023-06-14 16:53,-115.1933,36.2111,667.00,88.00,42.00,20.11,M,5.00,0.00,29.85,1009.50,10.00,M,CLR,M,M,M,M,M,M,M,M,M,M,M,M,M,M,84.52,KVGT 141653Z VRB05KT 10SM CLR 31/06 A2985 RMK AO2 SLP095 T03110056,M
LOL,2023-06-14 16:53,-118.5701,40.0684,1192.43,69.00,53.00,56.70,M,3.00,0.00,29.98,1012.30,10.00,M,CLR,M,M,M,M,M,M,M,M,M,M,M,M,M,M,69.10,KLOL 141653Z AUTO VRB03KT 10SM CLR 21/12 A2998 RMK AO2 SLP123 T02060117,M
BVU,2023-06-14 16:55,-114.8611,35.9475,671.00,86.00,39.20,19.15,0.00,0.00,0.00,29.85,M,10.00,M,CLR,M,M,M,M,M,M,M,M,M,M,M,M,M,M,82.79,KBVU 141655Z AUTO 00000KT 10SM CLR 30/04 A2985 RMK AO2,M
CXP,2023-06-14 16:55,-119.7326,39.1923,1431.00,68.00,51.80,56.13,0.00,0.00,0.00,30.05,M,10.00,M,CLR,M,M,M,M,M,M,M,M,M,M,M,M,M,M,68.00,KCXP 141655Z AUTO 00000KT 10SM CLR 20/11 A3005 RMK AO2,M
RTS,2023-06-14 16:55,-119.8764,39.6682,1539.00,64.40,51.80,63.60,0.00,0.00,0.00,30.07,M,10.00,M,FEW,M,M,M,2500.00,M,M,M,M,M,M,M,M,M,M,64.40,KRTS 141655Z AUTO 00000KT 10SM FEW025 18/11 A3007 RMK AO2,M
MEV,2023-06-14 16:55,-119.7500,38.9963,1441.42,66.20,51.80,59.74,0.00,0.00,0.00,30.04,M,10.00,M,CLR,M,M,M,M,M,M,M,M,M,M,M,M,M,M,66.20,KMEV 141655Z AUTO 00000KT 10SM CLR 19/11 A3004 RMK AO2,M
BAM,2023-06-14 16:55,-116.8743,40.5990,1382.36,69.80,55.40,60.21,230.00,5.00,0.00,30.00,M,10.00,M,CLR,M,M,M,M,M,M,M,M,M,M,M,M,M,M,69.80,KBAM 141655Z AUTO 23005KT 10SM CLR 21/13 A3000 RMK AO1,M
HTH,2023-06-14 16:55,-118.6315,38.5448,1282.89,69.80,50.00,49.37,0.00,0.00,0.00,30.02,M,10.00,M,CLR,M,M,M,M,M,M,M,M,M,M,M,M,M,M,69.80,KHTH 141655Z AUTO 00000KT 10SM CLR 21/10 A3002 RMK A01,M
TMT,2023-06-14 16:55,-117.1971,39.4643,1749.34,63.70,50.70,62.58,130.00,3.00,0.00,30.08,M,10.00,M,SCT,M,M,M,3200.00,M,M,M,M,M,M,M,M,M,M,63.70,KTMT 141655Z AUTO 13003KT 10SM SCT032 18/10 A3008 RMK AO2 T01760104,M
INS,2023-06-14 16:55,-115.6733,36.5872,955.00,82.40,39.70,21.93,330.00,7.00,0.00,29.90,1007.70,10.00,M,CLR,M,M,M,M,M,M,M,M,M,M,M,M,M,M,80.23,KINS 141655Z AUTO 33007KT 10SM CLR 28/04 A2990 RMK AO2 SLP077 T02800043 $,M
LSV,2023-06-14 16:55,-115.0343,36.2362,570.00,92.50,41.40,17.00,130.00,6.00,0.00,29.81,1006.80,10.00,M,CLR,M,M,M,M,M,M,M,M,M,M,M,M,M,M,88.42,KLSV 141655Z AUTO 13006KT 10SM CLR 34/05 A2981 RMK AO2 SLP068 T03360052 $,M
RNO,2023-06-14 16:55,-119.7711,39.4839,1341.00,68.00,53.00,58.88,0.00,0.00,0.00,30.03,1012.60,10.00,M,FEW,FEW,M,M,4000.00,24000.00,M,M,M,M,M,M,M,M,M,68.00,KRNO 141655Z 00000KT 10SM FEW040 FEW240 20/12 A3003 RMK AO2 SLP126 T02000117,M
LAS,2023-06-14 16:56,-115.1634,36.0719,663.00,85.00,41.00,21.28,0.00,0.00,0.00,29.85,1008.20,10.00,M,FEW,FEW,M,M,12000.00,22000.00,M,M,M,M,M,M,M,M,M,82.03,KLAS 141656Z 00000KT 10SM FEW120 FEW220 29/05 A2985 RMK AO2 SLP082 T02940050,M
EKO,2023-06-14 16:56,-115.7860,40.8242,1367.00,64.00,53.00,67.66,230.00,8.00,0.00,30.01,1012.20,10.00,M,SCT,BKN,BKN,M,3000.00,3700.00,4500.00,M,M,M,M,M,M,M,M,64.00,KEKO 141656Z AUTO 23008KT 10SM SCT030 BKN037 BKN045 18/12 A3001 RMK AO2 SLP122 T01780117,M
WMC,2023-06-14 16:56,-117.8072,40.9019,1315.00,68.00,51.00,54.70,290.00,4.00,0.00,30.00,1012.10,10.00,M,CLR,M,M,M,M,M,M,M,M,M,M,M,M,M,M,68.00,KWMC 141656Z AUTO 29004KT 10SM CLR 20/11 A3000 RMK AO2 SLP121 T02000106,M
HND,2023-06-14 16:56,-115.1344,35.9729,742.79,88.00,42.00,20.11,120.00,6.00,0.00,29.88,1010.50,10.00,M,CLR,M,M,M,M,M,M,M,M,M,M,M,M,M,M,84.52,KHND 141656Z 12006KT 10SM CLR 31/06 A2988 RMK AO2 SLP105 T03110056,M
TPH,2023-06-14 16:56,-117.0904,38.0505,1654.00,70.00,51.00,51.07,M,3.00,0.00,30.05,1010.90,10.00,M,SCT,M,M,M,4500.00,M,M,M,M,M,M,M,M,M,M,70.00,KTPH 141656Z AUTO VRB03KT 10SM SCT045 21/11 A3005 RMK AO2 SLP109 T02110106,M
NFL,2023-06-14 16:56,-118.7010,39.4166,1199.00,71.00,53.00,52.96,0.00,0.00,0.00,29.99,1012.60,10.00,M,CLR,M,M,M,M,M,M,M,M,M,M,M,M,M,M,71.10,KNFL 141656Z 00000KT 10SM CLR 22/12 A2999 RMK AO2 SLP126 T02170117,M
05U,2023-06-14 17:10,-116.0051,39.6042,1811.23,66.20,50.00,55.88,10.00,6.00,0.00,30.09,M,10.00,M,FEW,M,M,M,3000.00,M,M,M,M,M,M,M,M,M,M,66.20,K05U 141710Z AUTO 01006KT 10SM FEW030 19/10 A3009 RMK A01,M
BVU,2023-06-14 17:15,-114.8611,35.9475,671.00,87.80,37.40,16.86,M,4.00,0.00,29.85,M,10.00,M,CLR,M,M,M,M,M,M,M,M,M,M,M,M,M,M,84.16,KBVU 141715Z AUTO VRB04KT 10SM CLR 31/03 A2985 RMK AO2,M
CXP,2023-06-14 17:15,-119.7326,39.1923,1431.00,68.00,51.80,56.13,250.00,4.00,0.00,30.05,M,10.00,M,CLR,M,M,M,M,M,M,M,M,M,M,M,M,M,M,68.00,KCXP 141715Z AUTO 25004KT 10SM CLR 20/11 A3005 RMK AO2,M
RTS,2023-06-14 17:15,-119.8764,39.6682,1539.00,64.40,51.80,63.60,0.00,0.00,0.00,30.06,M,10.00,M,FEW,M,M,M,2500.00,M,M,M,M,M,M,M,M,M,M,64.40,KRTS 141715Z AUTO 00000KT 10SM FEW025 18/11 A3006 RMK AO2,M
MEV,2023-06-14 17:15,-119.7500,38.9963,1441.42,68.00,50.00,52.51,M,4.00,0.00,30.03,M,10.00,M,CLR,M,M,M,M,M,M,M,M,M,M,M,M,M,M,68.00,KMEV 141715Z AUTO VRB04KT 10SM CLR 20/10 A3003 RMK AO2,M
BAM,2023-06-14 17:15,-116.8743,40.5990,1382.36,71.60,53.60,53.03,230.00,5.00,0.00,30.00,M,10.00,M,CLR,M,M,M,M,M,M,M,M,M,M,M,M,M,M,71.60,KBAM 141715Z AUTO 23005KT 10SM CLR 22/12 A3000 RMK AO1,M
HTH,2023-06-14 17:15,-118.6315,38.5448,1282.89,69.80,50.00,49.37,0.00,0.00,0.00,30.02,M,10.00,M,CLR,M,M,M,M,M,M,M,M,M,M,M,M,M,M,69.80,KHTH 141715Z AUTO 00000KT 10SM CLR 21/10 A3002 RMK A01,M
TMT,2023-06-14 17:15,-117.1971,39.4643,1749.34,64.60,51.00,61.09,230.00,3.00,0.00,30.07,M,10.00,M,CLR,M,M,M,M,M,M,M,M,M,M,M,M,M,M,64.60,KTMT 141715Z AUTO 23003KT 10SM CLR 18/11 A3007 RMK AO2 T01810105,M
05U,2023-06-14 17:30,-116.0051,39.6042,1811.23,68.00,50.00,52.51,30.00,4.00,0.00,30.08,M,10.00,M,SCT,M,M,M,3300.00,M,M,M,M,M,M,M,M,M,M,68.00,K05U 141730Z AUTO 03004KT 10SM SCT033 20/10 A3008 RMK A01,M
BVU,2023-06-14 17:35,-114.8611,35.9475,671.00,87.80,37.40,16.86,210.00,5.00,0.00,29.84,M,10.00,M,CLR,M,M,M,M,M,M,M,M,M,M,M,M,M,M,84.16,KBVU 141735Z AUTO 21005KT 10SM CLR 31/03 A2984 RMK AO2,M
CXP,2023-06-14 17:35,-119.7326,39.1923,1431.00,69.80,50.00,49.37,0.00,0.00,0.00,30.04,M,10.00,M,CLR,M,M,M,M,M,M,M,M,M,M,M,M,M,M,69.80,KCXP 141735Z AUTO 00000KT 10SM CLR 21/10 A3004 RMK AO2,M
RTS,2023-06-14 17:35,-119.8764,39.6682,1539.00,66.20,48.20,52.25,0.00,0.00,0.00,30.06,M,10.00,M,CLR,M,M,M,M,M,M,M,M,M,M,M,M,M,M,66.20,KRTS 141735Z AUTO 00000KT 10SM CLR 19/09 A3006 RMK AO2,M
MEV,2023-06-14 17:35,-119.7500,38.9963,1441.42,69.80,51.80,52.77,0.00,0.00,0.00,30.03,M,10.00,M,CLR,M,M,M,M,M,M,M,M,M,M,M,M,M,M,69.80,KMEV 141735Z AUTO 00000KT 10SM CLR 21/11 A3003 RMK AO2,M
BAM,2023-06-14 17:35,-116.8743,40.5990,1382.36,71.60,53.60,53.03,220.00,7.00,0.00,30.00,M,10.00,M,SCT,BKN,BKN,M,4100.00,5000.00,7000.00,M,M,M,M,M,M,M,M,71.60,KBAM 141735Z AUTO 22007KT 10SM SCT041 BKN050 BKN070 22/12 A3000 RMK AO1,M
HTH,2023-06-14 17:35,-118.6315,38.5448,1282.89,69.80,50.00,49.37,0.00,0.00,0.00,30.01,M,10.00,M,CLR,M,M,M,M,M,M,M,M,M,M,M,M,M,M,69.80,KHTH 141735Z AUTO 00000KT 10SM CLR 21/10 A3001 RMK A01,M
TMT,2023-06-14 17:35,-117.1971,39.4643,1749.34,65.00,50.40,58.93,0.00,0.00,0.00,30.07,M,10.00,M,CLR,M,M,M,M,M,M,M,M,M,M,M,M,M,M,65.10,KTMT 141735Z AUTO 00000KT 10SM CLR 18/10 A3007 RMK AO2 T01840102,M
05U,2023-06-14 17:50,-116.0051,39.6042,1811.23,68.00,50.00,52.51,30.00,5.00,0.00,30.08,M,10.00,M,BKN,M,M,M,3400.00,M,M,M,M,M,M,M,M,M,M,68.00,K05U 141750Z AUTO 03005KT 10SM BKN034 20/10 A3008 RMK A01,M
P68,2023-06-14 17:53,-116.0056,39.6014,1993.00,66.00,50.00,56.27,M,4.00,0.00,30.05,1011.00,M,M,M,M,M,M,M,M,M,M,M,M,M,M,M,M,M,66.00,KP68 141753Z AUTO VRB04KT 19/10 A3005 RMK AO1 SLP110 T01890100 10189 20100 58004,M
DRA,2023-06-14 17:53,-116.0278,36.6206,1009.00,84.00,43.00,23.66,230.00,4.00,0.00,29.90,1007.90,10.00,M,CLR,M,M,M,M,M,M,M,M,M,M,M,M,M,M,81.48,KDRA 141753Z AUTO 23004KT 10SM CLR 29/06 A2990 RMK AO2 SLP079 T02890061 10289 20167 58006,M
VGT,2023-06-14 17:53,-115.1933,36.2111,667.00,89.00,41.00,18.62,50.00,4.00,0.00,29.83,1009.00,10.00,M,CLR,M,M,M,M,M,M,M,M,M,M,M,M,M,M,85.39,KVGT 141753Z 05004KT 10SM CLR 32/05 A2983 RMK AO2 SLP090 T03170050 10317 20233 58007,M
LOL,2023-06-14 17:53,-118.5701,40.0684,1192.43,72.00,52.00,49.33,0.00,0.00,0.00,29.97,1011.60,10.00,M,CLR,M,M,M,M,M,M,M,M,M,M,M,M,M,M,72.00,KLOL 141753Z AUTO 00000KT 10SM CLR 22/11 A2997 RMK AO2 SLP116 T02220111 10222 20117 58004,M
ELY,2023-06-14 17:53,-114.8453,39.2950,1909.00,64.00,47.00,53.72,290.00,7.00,0.00,30.06,1010.00,10.00,M,BKN,BKN,BKN,M,4300.00,5500.00,7500.00,M,M,M,M,M,M,M,M,64.00,KELY 141753Z AUTO 29007KT 10SM BKN043 BKN055 BKN075 18/08 A3006 RMK AO2 SLP100 T01780083 10189 20094 57004,M
BVU,2023-06-14 17:55,-114.8611,35.9475,671.00,89.60,37.40,15.92,200.00,6.00,0.00,29.83,M,10.00,M,CLR,M,M,M,M,M,M,M,M,M,M,M,M,M,M,85.67,KBVU 141755Z AUTO 20006KT 10SM CLR 32/03 A2983 RMK AO2,M
CXP,2023-06-14 17:55,-119.7326,39.1923,1431.00,69.80,50.00,49.37,M,3.00,0.00,30.03,M,10.00,M,CLR,M,M,M,M,M,M,M,M,M,M,M,M,M,M,69.80,KCXP 141755Z AUTO VRB03KT 10SM CLR 21/10 A3003 RMK AO2,M
RNO,2023-06-14 17:55,-119.7711,39.4839,1341.00,71.00,54.00,54.73,M,4.00,0.00,30.01,1011.70,10.00,M,FEW,FEW,M,M,4500.00,25000.00,M,M,M,M,M,M,M,M,M,71.10,KRNO 141755Z VRB04KT 10SM FEW045 FEW250 22/12 A3001 RMK AO2 SLP117 T02170122 10217 20133 58010,M
RTS,2023-06-14 17:55,-119.8764,39.6682,1539.00,66.20,48.20,52.25,0.00,0.00,0.00,30.05,M,10.00,M,CLR,M,M,M,M,M,M,M,M,M,M,M,M,M,M,66.20,KRTS 141755Z AUTO 00000KT 10SM CLR 19/09 A3005 RMK AO2,M
MEV,2023-06-14 17:55,-119.7500,38.9963,1441.42,71.60,51.80,49.64,110.00,4.00,0.00,30.02,M,10.00,M,CLR,M,M,M,M,M,M,M,M,M,M,M,M,M,M,71.60,KMEV 141755Z AUTO 11004KT 10SM CLR 22/11 A3002 RMK AO2,M
BAM,2023-06-14 17:55,-116.8743,40.5990,1382.36,69.80,53.60,56.38,350.00,7.00,0.00,30.00,M,10.00,M,BKN,OVC,M,M,4100.00,5000.00,M,M,M,M,M,M,M,M,M,69.80,KBAM 141755Z AUTO 35007KT 10SM BKN041 OVC050 21/12 A3000 RMK AO1,M
HTH,2023-06-14 17:55,-118.6315,38.5448,1282.89,71.60,51.80,49.64,10.00,5.00,0.00,30.01,M,10.00,M,CLR,M,M,M,M,M,M,M,M,M,M,M,M,M,M,71.60,KHTH 141755Z AUTO 01005KT 10SM CLR 22/11 A3001 RMK A01,M
TMT,2023-06-14 17:55,-117.1971,39.4643,1749.34,65.80,50.40,57.51,180.00,5.00,0.00,30.06,M,10.00,M,CLR,M,M,M,M,M,M,M,M,M,M,M,M,M,M,65.80,KTMT 141755Z AUTO 18005KT 10SM CLR 19/10 A3006 RMK AO2 T01880102 10188 20092,M
LSV,2023-06-14 17:55,-115.0343,36.2362,570.00,91.40,40.50,16.99,120.00,4.00,0.00,29.79,1006.20,10.00,M,CLR,M,M,M,M,M,M,M,M,M,M,M,M,M,M,87.37,KLSV 141755Z AUTO 12004KT 10SM CLR 33/05 A2979 RMK AO2 SLP062 T03300047 10336 20215 58008 $,M
INS,2023-06-14 17:55,-115.6733,36.5872,955.00,85.00,38.00,19.01,260.00,3.00,0.00,29.89,1007.30,10.00,M,CLR,M,M,M,M,M,M,M,M,M,M,M,M,M,M,81.92,KINS 141755Z AUTO 26003KT 10SM CLR 29/03 A2989 RMK AO2 SLP073 T02940034 10294 20177 58009 $,M
HND,2023-06-14 17:56,-115.1344,35.9729,742.79,89.00,41.00,18.62,280.00,6.00,0.00,29.87,1010.00,10.00,M,CLR,M,M,M,M,M,M,M,M,M,M,M,M,M,M,85.39,KHND 141756Z 28006KT 10SM CLR 32/05 A2987 RMK AO2 SLP100 T03170050 10317 20222 58008,M
TPH,2023-06-14 17:56,-117.0904,38.0505,1654.00,70.00,50.00,49.03,250.00,8.00,0.00,30.04,1011.00,10.00,M,BKN,BKN,M,M,4900.00,6000.00,M,M,M,M,M,M,M,M,M,70.00,KTPH 141756Z AUTO 25008KT 10SM BKN049 BKN060 21/10 A3004 RMK AO2 SLP110 T02110100 10222 20144 58006,M
LAS,2023-06-14 17:56,-115.1634,36.0719,663.00,89.00,39.00,17.22,M,6.00,0.00,29.84,1007.70,10.00,M,FEW,FEW,M,M,12000.00,22000.00,M,M,M,M,M,M,M,M,M,85.30,KLAS 141756Z VRB06KT 10SM FEW120 FEW220 32/04 A2984 RMK AO2 SLP077 T03170039 10317 20233 58007,M
EKO,2023-06-14 17:56,-115.7860,40.8242,1367.00,65.00,53.00,65.56,250.00,7.00,0.00,30.00,1012.00,10.00,M,BKN,BKN,M,M,3300.00,4200.00,M,M,M,M,M,M,M,M,M,64.90,KEKO 141756Z AUTO 25007KT 10SM BKN033 BKN042 18/12 A3000 RMK AO2 SLP120 T01830117 10194 20122 58005,M
WMC,2023-06-14 17:56,-117.8072,40.9019,1315.00,71.00,47.00,42.05,M,M,0.00,29.99,1011.50,10.00,M,CLR,M,M,M,M,M,M,M,M,M,M,M,M,M,M,71.10,KWMC 141756Z AUTO 10SM CLR 22/08 A2999 RMK AO2 SLP115 T02170083 10217 20111 58005,M
NFL,2023-06-14 17:56,-118.7010,39.4166,1199.00,74.00,53.00,48.18,0.00,0.00,0.00,29.97,1012.10,10.00,M,SCT,SCT,M,M,5000.00,20000.00,M,M,M,M,M,M,M,M,M,73.90,KNFL 141756Z COR 00000KT 10SM SCT050 SCT200 23/12 A2997 RMK AO2 SLP121 T02330117 10233 20144 58005,M
05U,2023-06-14 18:10,-116.0051,39.6042,1811.23,69.80,50.00,49.37,40.00,3.00,0.00,30.07,M,10.00,M,SCT,M,M,M,3300.00,M,M,M,M,M,M,M,M,M,M,69.80,K05U 141810Z AUTO 04003KT 10SM SCT033 21/10 A3007 RMK A01,M
BVU,2023-06-14 18:15,-114.8611,35.9475,671.00,91.40,37.40,15.05,220.00,5.00,0.00,29.83,M,10.00,M,CLR,M,M,M,M,M,M,M,M,M,M,M,M,M,M,87.23,KBVU 141815Z AUTO 22005KT 10SM CLR 33/03 A2983 RMK AO2,M
CXP,2023-06-14 18:15,-119.7326,39.1923,1431.00,71.60,50.00,46.43,0.00,0.00,0.00,30.02,M,10.00,M,CLR,M,M,M,M,M,M,M,M,M,M,M,M,M,M,71.60,KCXP 141815Z AUTO 00000KT 10SM CLR 22/10 A3002 RMK AO2,M
RTS,2023-06-14 18:15,-119.8764,39.6682,1539.00,68.00,50.00,52.51,0.00,0.00,0.00,30.05,M,10.00,M,CLR,M,M,M,M,M,M,M,M,M,M,M,M,M,M,68.00,KRTS 141815Z AUTO 00000KT 10SM CLR 20/10 A3005 RMK AO2,M
MEV,2023-06-14 18:15,-119.7500,38.9963,1441.42,69.80,50.00,49.37,0.00,0.00,0.00,30.01,M,10.00,M,CLR,M,M,M,M,M,M,M,M,M,M,M,M,M,M,69.80,KMEV 141815Z AUTO 00000KT 10SM CLR 21/10 A3001 RMK AO2,M
BAM,2023-06-14 18:15,-116.8743,40.5990,1382.36,71.60,53.60,53.03,0.00,0.00,0.00,29.99,M,10.00,M,SCT,SCT,M,M,4100.00,6000.00,M,M,M,M,M,M,M,M,M,71.60,KBAM 141815Z AUTO 00000KT 10SM SCT041 SCT060 22/12 A2999 RMK AO1,M
HTH,2023-06-14 18:15,-118.6315,38.5448,1282.89,71.60,51.80,49.64,330.00,4.00,0.00,30.00,M,10.00,M,CLR,M,M,M,M,M,M,M,M,M,M,M,M,M,M,71.60,KHTH 141815Z AUTO 33004KT 10SM CLR 22/11 A3000 RMK A01,M
TMT,2023-06-14 18:15,-117.1971,39.4643,1749.34,66.70,50.00,54.92,250.00,5.00,0.00,30.06,M,10.00,M,SCT,M,M,M,3900.00,M,M,M,M,M,M,M,M,M,M,66.70,KTMT 141815Z AUTO 25005KT 10SM SCT039 19/10 A3006 RMK AO2 T01930100,M
05U,2023-06-14 18:30,-116.0051,39.6042,1811.23,69.80,50.00,49.37,0.00,0.00,0.00,30.07,M,10.00,M,SCT,SCT,M,M,3900.00,4600.00,M,M,M,M,M,M,M,M,M,69.80,K05U 141830Z AUTO 00000KT 10SM SCT039 SCT046 21/10 A3007 RMK A01,M
BVU,2023-06-14 18:35,-114.8611,35.9475,671.00,89.60,37.40,15.92,170.00,8.00,0.00,29.82,M,10.00,M,CLR,M,M,M,M,M,M,M,M,M,M,M,M,M,M,85.67,KBVU 141835Z AUTO 17008KT 10SM CLR 32/03 A2982 RMK AO2,M
CXP,2023-06-14 18:35,-119.7326,39.1923,1431.00,73.40,50.00,43.69,0.00,0.00,0.00,30.02,M,10.00,M,CLR,M,M,M,M,M,M,M,M,M,M,M,M,M,M,73.40,KCXP 141835Z AUTO 00000KT 10SM CLR 23/10 A3002 RMK AO2,M
RTS,2023-06-14 18:35,-119.8764,39.6682,1539.00,68.00,48.20,49.10,0.00,0.00,0.00,30.04,M,10.00,M,CLR,M,M,M,M,M,M,M,M,M,M,M,M,M,M,68.00,KRTS 141835Z AUTO 00000KT 10SM CLR 20/09 A3004 RMK AO2,M
MEV,2023-06-14 18:35,-119.7500,38.9963,1441.42,71.60,50.00,46.43,0.00,0.00,0.00,30.01,M,10.00,M,CLR,M,M,M,M,M,M,M,M,M,M,M,M,M,M,71.60,KMEV 141835Z AUTO 00000KT 10SM CLR 22/10 A3001 RMK AO2,M
BAM,2023-06-14 18:35,-116.8743,40.5990,1382.36,71.60,51.80,49.64,150.00,5.00,0.00,29.99,M,10.00,M,SCT,SCT,BKN,M,4500.00,6000.00,7000.00,M,M,M,M,M,M,M,M,71.60,KBAM 141835Z AUTO 15005KT 10SM SCT045 SCT060 BKN070 22/11 A2999 RMK AO1,M
HTH,2023-06-14 18:35,-118.6315,38.5448,1282.89,73.40,51.80,46.71,0.00,0.00,0.00,29.99,M,10.00,M,CLR,M,M,M,M,M,M,M,M,M,M,M,M,M,M,73.40,KHTH 141835Z AUTO 00000KT 10SM CLR 23/11 A2999 RMK A01,M
TMT,2023-06-14 18:35,-117.1971,39.4643,1749.34,67.30,50.20,54.20,200.00,3.00,0.00,30.05,M,10.00,M,CLR,M,M,M,M,M,M,M,M,M,M,M,M,M,M,67.30,KTMT 141835Z AUTO 20003KT 10SM CLR 20/10 A3005 RMK AO2 LTG DSNT E T01960101,M
05U,2023-06-14 18:50,-116.0051,39.6042,1811.23,69.80,50.00,49.37,M,5.00,0.00,30.06,M,10.00,M,BKN,BKN,M,M,3800.00,4600.00,M,M,M,M,M,M,M,M,M,69.80,K05U 141850Z AUTO VRB05KT 10SM BKN038 BKN046 21/10 A3006 RMK A01,M
P68,2023-06-14 18:53,-116.0056,39.6014,1993.00,67.00,50.00,54.54,180.00,4.00,0.00,30.02,1010.50,M,M,M,M,M,M,M,M,M,M,M,M,M,M,M,M,M,66.90,KP68 141853Z AUTO 18004KT 19/10 A3002 RMK AO1 SLP105 T01940100,M
DRA,2023-06-14 18:53,-116.0278,36.6206,1009.00,86.00,43.00,22.19,M,3.00,0.00,29.89,1007.30,10.00,17.00,FEW,M,M,M,9000.00,M,M,M,M,M,M,M,M,M,M,82.97,KDRA 141853Z AUTO VRB03G17KT 10SM FEW090 30/06 A2989 RMK AO2 SLP073 T03000061,M
VGT,2023-06-14 18:53,-115.1933,36.2111,667.00,90.00,41.00,18.10,70.00,6.00,0.00,29.81,1008.50,10.00,M,CLR,M,M,M,M,M,M,M,M,M,M,M,M,M,M,86.16,KVGT 141853Z 07006KT 10SM CLR 32/05 A2981 RMK AO2 SLP085 T03220050,M
LOL,2023-06-14 18:53,-118.5701,40.0684,1192.43,73.00,55.00,53.23,150.00,5.00,0.00,29.95,1011.00,10.00,M,BKN,M,M,M,4600.00,M,M,M,M,M,M,M,M,M,M,73.00,KLOL 141853Z AUTO 15005KT 10SM BKN046 23/13 A2995 RMK AO2 SLP110 T02280128,M
ELY,2023-06-14 18:53,-114.8453,39.2950,1909.00,66.00,47.00,50.10,280.00,6.00,0.00,30.04,1009.30,10.00,M,FEW,SCT,BKN,M,4600.00,5500.00,6500.00,M,M,M,M,M,M,M,M,66.00,KELY 141853Z AUTO 28006KT 10SM FEW046 SCT055 BKN065 19/08 A3004 RMK AO2 SLP093 T01890083,M
BVU,2023-06-14 18:55,-114.8611,35.9475,671.00,91.40,35.60,14.02,130.00,12.00,0.00,29.82,M,10.00,M,CLR,M,M,M,M,M,M,M,M,M,M,M,M,M,M,87.17,KBVU 141855Z AUTO 13012KT 10SM CLR 33/02 A2982 RMK AO2,M
CXP,2023-06-14 18:55,-119.7326,39.1923,1431.00,73.40,50.00,43.69,230.00,5.00,0.00,30.01,M,10.00,M,CLR,M,M,M,M,M,M,M,M,M,M,M,M,M,M,73.40,KCXP 141855Z AUTO 23005KT 10SM CLR 23/10 A3001 RMK AO2,M
RTS,2023-06-14 18:55,-119.8764,39.6682,1539.00,69.80,50.00,49.37,M,3.00,0.00,30.04,M,10.00,M,CLR,M,M,M,M,M,M,M,M,M,M,M,M,M,M,69.80,KRTS 141855Z AUTO VRB03KT 10SM CLR 21/10 A3004 RMK AO2,M
MEV,2023-06-14 18:55,-119.7500,38.9963,1441.42,73.40,51.80,46.71,M,4.00,0.00,30.00,M,10.00,M,CLR,M,M,M,M,M,M,M,M,M,M,M,M,M,M,73.40,KMEV 141855Z AUTO VRB04KT 10SM CLR 23/11 A3000 RMK AO2,M
BAM,2023-06-14 18:55,-116.8743,40.5990,1382.36,73.40,51.80,46.71,280.00,4.00,0.00,29.98,M,10.00,M,SCT,BKN,BKN,M,4500.00,6000.00,7000.00,M,M,M,M,M,M,M,M,73.40,KBAM 141855Z AUTO 28004KT 10SM SCT045 BKN060 BKN070 23/11 A2998 RMK AO1,M
HTH,2023-06-14 18:55,-118.6315,38.5448,1282.89,73.40,53.60,49.90,20.00,6.00,0.00,29.98,M,10.00,M,CLR,M,M,M,M,M,M,M,M,M,M,M,M,M,M,73.40,KHTH 141855Z AUTO 02006KT 10SM CLR 23/12 A2998 RMK A01,M
TMT,2023-06-14 18:55,-117.1971,39.4643,1749.34,67.80,47.70,48.52,290.00,3.00,0.00,30.05,M,10.00,M,CLR,M,M,M,M,M,M,M,M,M,M,M,M,M,M,67.80,KTMT 141855Z AUTO 29003KT 10SM CLR 20/09 A3005 RMK AO2 LTG DSNT SE T01990087,M
INS,2023-06-14 18:55,-115.6733,36.5872,955.00,83.80,38.50,20.00,320.00,6.00,0.00,29.87,1006.80,10.00,M,BKN,OVC,M,M,9500.00,13000.00,M,M,M,M,M,M,M,M,M,81.13,KINS 141855Z AUTO 32006KT 10SM BKN095 OVC130 29/04 A2987 RMK AO2 SLP068 T02880036 $,M
LSV,2023-06-14 18:55,-115.0343,36.2362,570.00,94.30,39.60,14.99,180.00,5.00,0.00,29.77,1005.40,10.00,M,CLR,M,M,M,M,M,M,M,M,M,M,M,M,M,M,89.95,KLSV 141855Z AUTO 18005KT 10SM CLR 35/04 A2977 RMK AO2 SLP054 T03460042 $,M
RNO,2023-06-14 18:55,-119.7711,39.4839,1341.00,74.00,53.00,48.18,140.00,4.00,0.00,29.99,1011.00,10.00,M,FEW,SCT,M,M,6000.00,25000.00,M,M,M,M,M,M,M,M,M,73.90,KRNO 141855Z 14004KT 10SM FEW060 SCT250 23/12 A2999 RMK AO2 SLP110 T02330117,M
WMC,2023-06-14 18:56,-117.8072,40.9019,1315.00,73.00,48.00,41.10,310.00,8.00,0.00,29.98,1010.90,10.00,18.00,CLR,M,M,M,M,M,M,M,M,M,M,M,M,M,M,73.00,KWMC 141856Z AUTO 31008G18KT 10SM CLR 23/09 A2998 RMK AO2 SLP109 T02280089,M
HND,2023-06-14 18:56,-115.1344,35.9729,742.79,91.00,41.00,17.54,130.00,5.00,0.00,29.85,1009.40,10.00,M,CLR,M,M,M,M,M,M,M,M,M,M,M,M,M,M,87.04,KHND 141856Z 13005KT 10SM CLR 33/05 A2985 RMK AO2 SLP094 T03280050,M
EKO,2023-06-14 18:56,-115.7860,40.8242,1367.00,70.00,51.00,51.07,250.00,10.00,0.00,29.98,1011.00,10.00,M,BKN,BKN,M,M,4500.00,6000.00,M,M,M,M,M,M,M,M,M,70.00,KEKO 141856Z AUTO 25010KT 10SM BKN045 BKN060 21/11 A2998 RMK AO2 SLP110 T02110106,M
TPH,2023-06-14 18:56,-117.0904,38.0505,1654.00,70.00,49.00,47.06,M,3.00,0.00,30.03,1010.40,10.00,M,FEW,SCT,BKN,M,5500.00,7500.00,12000.00,M,M,M,M,M,M,M,M,70.00,KTPH 141856Z AUTO VRB03KT 10SM FEW055 SCT075 BKN120 21/09 A3003 RMK AO2 SLP104 T02110094,M
LAS,2023-06-14 18:56,-115.1634,36.0719,663.00,91.00,40.00,16.80,0.00,0.00,0.00,29.82,1007.00,10.00,M,FEW,FEW,M,M,12000.00,22000.00,M,M,M,M,M,M,M,M,M,86.98,KLAS 141856Z 00000KT 10SM FEW120 FEW220 33/04 A2982 RMK AO2 SLP070 T03280044,M
NFL,2023-06-14 18:56,-118.7010,39.4166,1199.00,76.00,53.00,45.06,180.00,7.00,0.00,29.95,1011.60,10.00,M,SCT,SCT,M,M,5000.00,18000.00,M,M,M,M,M,M,M,M,M,75.90,KNFL 141856Z 18007KT 10SM SCT050 SCT180 24/12 A2995 RMK AO2 SLP116 T02440117,M
05U,2023-06-14 19:10,-116.0051,39.6042,1811.23,69.80,50.00,49.37,50.00,6.00,0.00,30.04,M,10.00,M,SCT,BKN,M,M,4000.00,5000.00,M,M,M,M,M,M,M,M,M,69.80,K05U 141910Z AUTO 05006KT 10SM SCT040 BKN050 21/10 A3004 RMK A01,M
BVU,2023-06-14 19:15,-114.8611,35.9475,671.00,89.60,32.00,12.84,0.00,0.00,0.00,29.81,M,10.00,M,CLR,M,M,M,M,M,M,M,M,M,M,M,M,M,M,85.54,KBVU 141915Z AUTO 00000KT 10SM CLR 32/00 A2981 RMK AO2,M
CXP,2023-06-14 19:15,-119.7326,39.1923,1431.00,75.20,50.00,41.14,320.00,5.00,0.00,30.01,M,10.00,M,CLR,M,M,M,M,M,M,M,M,M,M,M,M,M,M,75.20,KCXP 141915Z AUTO 32005KT 10SM CLR 24/10 A3001 RMK AO2,M
RTS,2023-06-14 19:15,-119.8764,39.6682,1539.00,69.80,50.00,49.37,M,6.00,0.00,30.04,M,10.00,M,CLR,M,M,M,M,M,M,M,M,M,M,M,M,M,M,69.80,KRTS 141915Z AUTO VRB06KT 10SM CLR 21/10 A3004 RMK AO2,M
MEV,2023-06-14 19:15,-119.7500,38.9963,1441.42,75.20,50.00,41.14,340.00,4.00,0.00,30.00,M,10.00,M,CLR,M,M,M,M,M,M,M,M,M,M,M,M,M,M,75.20,KMEV 141915Z AUTO 34004KT 10SM CLR 24/10 A3000 RMK AO2,M
BAM,2023-06-14 19:15,-116.8743,40.5990,1382.36,73.40,51.80,46.71,350.00,7.00,0.00,29.97,M,10.00,M,BKN,BKN,M,M,4900.00,7000.00,M,M,M,M,M,M,M,M,M,73.40,KBAM 141915Z AUTO 35007KT 10SM BKN049 BKN070 23/11 A2997 RMK AO1,M
HTH,2023-06-14 19:15,-118.6315,38.5448,1282.89,73.40,51.80,46.71,M,4.00,0.00,29.98,M,10.00,M,CLR,M,M,M,M,M,M,M,M,M,M,M,M,M,M,73.40,KHTH 141915Z AUTO VRB04KT 10SM CLR 23/11 A2998 RMK A01,M
05U,2023-06-14 19:30,-116.0051,39.6042,1811.23,71.60,48.20,43.42,0.00,0.00,0.00,30.04,M,10.00,M,FEW,FEW,M,M,4300.00,5000.00,M,M,M,M,M,M,M,M,M,71.60,K05U 141930Z AUTO 00000KT 10SM FEW043 FEW050 22/09 A3004 RMK A01,M
BVU,2023-06-14 19:35,-114.8611,35.9475,671.00,93.20,32.00,11.48,160.00,18.00,0.00,29.80,M,10.00,M,CLR,M,M,M,M,M,M,M,M,M,M,M,M,M,M,88.31,KBVU 141935Z AUTO 16018KT 10SM CLR 34/M00 A2980 RMK AO2,M
CXP,2023-06-14 19:35,-119.7326,39.1923,1431.00,77.00,50.00,38.74,M,4.00,0.00,30.00,M,10.00,M,CLR,M,M,M,M,M,M,M,M,M,M,M,M,M,M,77.00,KCXP 141935Z AUTO VRB04KT 10SM CLR 25/10 A3000 RMK AO2,M
RTS,2023-06-14 19:35,-119.8764,39.6682,1539.00,71.60,48.20,43.42,290.00,9.00,0.00,30.03,M,10.00,M,CLR,M,M,M,M,M,M,M,M,M,M,M,M,M,M,71.60,KRTS 141935Z AUTO 29009KT 10SM CLR 22/09 A3003 RMK AO2,M
BAM,2023-06-14 19:35,-116.8743,40.5990,1382.36,75.20,53.60,46.98,350.00,8.00,0.00,29.97,M,10.00,M,BKN,BKN,M,M,4900.00,7000.00,M,M,M,M,M,M,M,M,M,75.20,KBAM 141935Z AUTO 35008KT 10SM BKN049 BKN070 24/12 A2997 RMK AO1,M
HTH,2023-06-14 19:35,-118.6315,38.5448,1282.89,75.20,51.80,43.97,20.00,4.00,0.00,29.97,M,10.00,M,CLR,M,M,M,M,M,M,M,M,M,M,M,M,M,M,75.20,KHTH 141935Z AUTO 02004KT 10SM CLR 24/11 A2997 RMK A01,M
TMT,2023-06-14 19:35,-117.1971,39.4643,1749.34,69.40,48.60,47.50,350.00,3.00,0.00,30.03,M,10.00,M,BKN,BKN,M,M,5000.00,10000.00,M,M,M,M,M,M,M,M,M,69.40,KTMT 141935Z AUTO 35003KT 10SM BKN050 BKN100 21/09 A3003 RMK AO2 T02080092,M
MEV,2023-06-14 19:35,-119.7500,38.9963,1441.42,75.20,48.20,38.46,M,4.00,0.00,29.99,M,10.00,M,CLR,M,M,M,M,M,M,M,M,M,M,M,M,M,M,75.20,KMEV 141935Z AUTO VRB04KT 10SM CLR 24/09 A2999 RMK AO2,M
INS,2023-06-14 19:49,-115.6733,36.5872,955.00,84.20,37.40,18.91,220.00,6.00,0.00,29.85,1006.10,10.00,M,OVC,M,M,M,11000.00,M,M,M,-DZ,M,M,M,M,M,M,81.38,KINS 141949Z AUTO 22006KT 10SM -DZ OVC110 29/03 A2985 RMK AO2 LTG DSNT N DZB49 SLP061 $,M
05U,2023-06-14 19:50,-116.0051,39.6042,1811.23,68.00,51.80,56.13,10.00,12.00,0.00,30.03,M,10.00,M,BKN,BKN,BKN,M,4600.00,5000.00,6000.00,M,M,M,M,M,M,M,M,68.00,K05U 141950Z AUTO 01012KT 10SM BKN046 BKN050 BKN060 20/11 A3003 RMK A01,M
DRA,2023-06-14 19:53,-116.0278,36.6206,1009.00,86.00,41.00,20.54,290.00,11.00,0.00,29.87,1006.80,10.00,M,FEW,M,M,M,12000.00,M,M,M,M,M,M,M,M,M,M,82.86,KDRA 141953Z AUTO 29011KT 10SM FEW120 30/05 A2987 RMK AO2 SLP068 T03000050,M
ELY,2023-06-14 19:53,-114.8453,39.2950,1909.00,69.00,46.00,43.52,0.00,0.00,0.00,30.01,1007.80,10.00,M,FEW,M,M,M,5000.00,M,M,M,M,M,M,M,M,M,M,69.10,KELY 141953Z AUTO 00000KT 10SM FEW050 21/08 A3001 RMK AO2 SLP078 T02060078,M
VGT,2023-06-14 19:53,-115.1933,36.2111,667.00,92.00,39.00,15.77,M,3.00,0.00,29.79,1007.70,10.00,M,CLR,M,M,M,M,M,M,M,M,M,M,M,M,M,M,87.74,KVGT 141953Z VRB03KT 10SM CLR 33/04 A2979 RMK AO2 SLP077 T03330039,M
LOL,2023-06-14 19:53,-118.5701,40.0684,1192.43,75.00,53.00,46.44,M,3.00,0.00,29.93,1010.20,10.00,M,CLR,M,M,M,M,M,M,M,M,M,M,M,M,M,M,75.00,KLOL 141953Z AUTO VRB03KT 10SM CLR 24/12 A2993 RMK AO2 SLP102 T02390117,M
P68,2023-06-14 19:53,-116.0056,39.6014,1993.00,67.00,51.00,56.82,40.00,13.00,0.00,30.00,1009.70,M,17.00,M,M,M,M,M,M,M,M,M,M,M,M,M,M,M,66.90,KP68 141953Z AUTO 04013G17KT 19/11 A3000 RMK AO1 SLP097 T01940106,M
BVU,2023-06-14 19:55,-114.8611,35.9475,671.00,91.40,30.20,11.28,120.00,14.00,0.00,29.79,M,10.00,20.00,CLR,M,M,M,M,M,M,M,M,M,M,M,M,M,M,86.71,KBVU 141955Z AUTO 12014G20KT 10SM CLR 33/M01 A2979 RMK AO2 LTG DSNT NE,M
CXP,2023-06-14 19:55,-119.7326,39.1923,1431.00,77.00,46.40,33.85,310.00,8.00,0.00,29.99,M,10.00,M,FEW,FEW,FEW,M,6000.00,7500.00,8500.00,M,M,M,M,M,M,M,M,77.00,KCXP 141955Z AUTO 31008KT 10SM FEW060 FEW075 FEW085 25/08 A2999 RMK AO2,M
RTS,2023-06-14 19:55,-119.8764,39.6682,1539.00,71.60,48.20,43.42,290.00,9.00,0.00,30.02,M,10.00,15.00,CLR,M,M,M,M,M,M,M,M,M,M,M,M,M,M,71.60,KRTS 141955Z AUTO 29009G15KT 10SM CLR 22/09 A3002 RMK AO2,M
BAM,2023-06-14 19:55,-116.8743,40.5990,1382.36,73.40,51.80,46.71,340.00,4.00,0.00,29.96,M,10.00,M,SCT,SCT,SCT,M,6000.00,7000.00,9000.00,M,M,M,M,M,M,M,M,73.40,KBAM 141955Z AUTO 34004KT 10SM SCT060 SCT070 SCT090 23/11 A2996 RMK AO1,M
HTH,2023-06-14 19:55,-118.6315,38.5448,1282.89,75.20,50.00,41.14,10.00,5.00,0.00,29.96,M,10.00,M,CLR,M,M,M,M,M,M,M,M,M,M,M,M,M,M,75.20,KHTH 141955Z AUTO 01005KT 10SM CLR 24/10 A2996 RMK A01,M
TMT,2023-06-14 19:55,-117.1971,39.4643,1749.34,71.40,48.40,44.04,250.00,9.00,0.00,30.02,M,10.00,M,BKN,OVC,M,M,5000.00,11000.00,M,M,M,M,M,M,M,M,M,71.40,KTMT 141955Z AUTO 25009KT 10SM BKN050 OVC110 22/09 A3002 RMK AO2 LTG DSNT NE AND E T02190091,M
INS,2023-06-14 19:55,-115.6733,36.5872,955.00,83.30,36.70,18.94,280.00,3.00,T,29.85,1006.10,10.00,M,OVC,M,M,M,11000.00,M,M,M,-DZ,M,M,M,M,M,M,80.72,KINS 141955Z AUTO 28003KT 10SM -DZ OVC110 29/03 A2985 RMK AO2 LTG DSNT N DZB49 SLP061 P0000 T02850026 $,M
LSV,2023-06-14 19:55,-115.0343,36.2362,570.00,96.00,37.20,12.91,160.00,9.00,0.00,29.75,1004.80,10.00,M,FEW,M,M,M,21000.00,M,M,M,M,M,M,M,M,M,M,91.43,KLSV 141955Z AUTO 16009KT 10SM FEW210 36/03 A2975 RMK AO2 SLP048 T03560029 $,M
RNO,2023-06-14 19:55,-119.7711,39.4839,1341.00,77.00,51.00,40.36,M,3.00,0.00,29.97,1009.90,10.00,M,SCT,BKN,M,M,7000.00,25000.00,M,M,M,M,M,M,M,M,M,77.00,KRNO 141955Z VRB03KT 10SM SCT070 BKN250 25/11 A2997 RMK AO2 SLP099 T02500106,M
WMC,2023-06-14 19:56,-117.8072,40.9019,1315.00,75.00,48.00,38.43,M,3.00,0.00,29.96,1010.20,10.00,M,FEW,M,M,M,6000.00,M,M,M,M,M,M,M,M,M,M,75.00,KWMC 141956Z AUTO VRB03KT 10SM FEW060 24/09 A2996 RMK AO2 SLP102 T02390089,M
LAS,2023-06-14 19:56,-115.1634,36.0719,663.00,92.00,39.00,15.77,150.00,7.00,0.00,29.79,1006.10,10.00,M,FEW,SCT,M,M,12000.00,22000.00,M,M,M,M,M,M,M,M,M,87.74,KLAS 141956Z 15007KT 110V180 10SM FEW120 SCT220 33/04 A2979 RMK AO2 SLP061 T03330039,M
EKO,2023-06-14 19:56,-115.7860,40.8242,1367.00,73.00,51.00,46.13,290.00,9.00,0.00,29.96,1009.80,10.00,M,SCT,BKN,M,M,5500.00,7000.00,M,M,M,M,M,M,M,M,M,73.00,KEKO 141956Z AUTO 29009KT 240V310 10SM SCT055 BKN070 23/11 A2996 RMK AO2 SLP098 T02280106,M
NFL,2023-06-14 19:56,-118.7010,39.4166,1199.00,79.00,53.00,40.67,M,6.00,0.00,29.93,1010.90,10.00,M,SCT,SCT,M,M,5500.00,18000.00,M,M,M,M,M,M,M,M,M,79.00,KNFL 141956Z VRB06KT 10SM SCT055 SCT180 26/12 A2993 RMK AO2 SLP109 T02610117,M
HND,2023-06-14 19:56,-115.1344,35.9729,742.79,91.00,40.00,16.80,130.00,12.00,0.00,29.83,1008.60,10.00,16.00,CLR,M,M,M,M,M,M,M,M,M,M,M,M,M,M,86.98,KHND 141956Z 13012G16KT 10SM CLR 33/04 A2983 RMK AO2 SLP086 T03280044,M
TPH,2023-06-14 19:56,-117.0904,38.0505,1654.00,75.00,49.00,39.75,0.00,0.00,0.00,30.00,1009.00,10.00,M,BKN,BKN,M,M,6000.00,8000.00,M,M,M,M,M,M,M,M,M,75.00,KTPH 141956Z AUTO 00000KT 10SM BKN060 BKN080 24/09 A3000 RMK AO2 SLP090 T02390094,M
INS,2023-06-14 20:02,-115.6733,36.5872,955.00,84.20,39.20,20.29,190.00,8.00,0.00,29.85,1006.10,10.00,M,BKN,OVC,M,M,10000.00,12000.00,M,M,M,M,M,M,M,M,M,81.44,KINS 142002Z AUTO 19008KT 10SM BKN100 OVC120 29/04 A2985 RMK AO2 LTG DSNT NW DZE1956 SLP061 $,M
05U,2023-06-14 20:10,-116.0051,39.6042,1811.23,68.00,51.80,56.13,20.00,8.00,0.00,30.02,M,10.00,M,SCT,SCT,SCT,M,4600.00,6000.00,7000.00,M,M,M,M,M,M,M,M,68.00,K05U 142010Z AUTO 02008KT 10SM SCT046 SCT060 SCT070 20/11 A3002 RMK A01,M
BVU,2023-06-14 20:15,-114.8611,35.9475,671.00,91.40,32.00,12.14,M,5.00,0.00,29.78,M,10.00,16.00,CLR,M,M,M,M,M,M,M,M,M,M,M,M,M,M,86.91,KBVU 142015Z AUTO VRB05G16KT 10SM CLR 33/M00 A2978 RMK AO2,M
CXP,2023-06-14 20:15,-119.7326,39.1923,1431.00,77.00,44.60,31.62,M,6.00,0.00,29.99,M,10.00,11.00,FEW,FEW,FEW,M,6500.00,7500.00,8500.00,M,M,M,M,M,M,M,M,77.00,KCXP 142015Z AUTO VRB06G11KT 10SM FEW065 FEW075 FEW085 25/07 A2999 RMK AO2,M
RTS,2023-06-14 20:15,-119.8764,39.6682,1539.00,71.60,48.20,43.42,300.00,13.00,0.00,30.02,M,10.00,M,CLR,M,M,M,M,M,M,M,M,M,M,M,M,M,M,71.60,KRTS 142015Z AUTO 30013KT 10SM CLR 22/09 A3002 RMK AO2,M
MEV,2023-06-14 20:15,-119.7500,38.9963,1441.42,77.00,46.40,33.85,290.00,11.00,0.00,29.98,M,10.00,17.00,CLR,M,M,M,M,M,M,M,M,M,M,M,M,M,M,77.00,KMEV 142015Z AUTO 29011G17KT 10SM CLR 25/08 A2998 RMK AO2,M
BAM,2023-06-14 20:15,-116.8743,40.5990,1382.36,77.00,51.80,41.42,20.00,7.00,0.00,29.95,M,10.00,M,SCT,M,M,M,10000.00,M,M,M,M,M,M,M,M,M,M,77.00,KBAM 142015Z AUTO 02007KT 10SM SCT100 25/11 A2995 RMK AO1,M
HTH,2023-06-14 20:15,-118.6315,38.5448,1282.89,77.00,50.00,38.74,40.00,4.00,0.00,29.95,M,10.00,10.00,CLR,M,M,M,M,M,M,M,M,M,M,M,M,M,M,77.00,KHTH 142015Z AUTO 04004G10KT 10SM CLR 25/10 A2995 RMK A01,M
TMT,2023-06-14 20:15,-117.1971,39.4643,1749.34,69.60,49.00,47.71,30.00,4.00,0.00,30.02,M,10.00,M,BKN,BKN,BKN,M,6000.00,9000.00,11000.00,M,M,M,M,M,M,M,M,69.60,KTMT 142015Z AUTO 03004KT 10SM BKN060 BKN090 BKN110 21/09 A3002 RMK AO2 LTG DSNT NE E AND SW T02090094,M
DRA,2023-06-14 20:26,-116.0278,36.6206,1009.00,81.00,45.00,28.15,290.00,18.00,0.00,29.87,M,10.00,32.00,OVC,M,M,M,10000.00,M,M,M,M,M,M,M,32.00,290.00,2023-06-14 20:23,79.68,KDRA 142026Z AUTO 29018G32KT 10SM OVC100 27/07 A2987 RMK AO2 PK WND 29032/2023 WSHFT 2009 T02720072,M
INS,2023-06-14 20:28,-115.6733,36.5872,955.00,80.60,42.80,26.22,330.00,20.00,0.00,29.85,1006.30,10.00,27.00,OVC,M,M,M,10000.00,M,M,M,VCTS,M,M,M,M,M,M,79.30,KINS 142028Z AUTO 33020G27KT 10SM VCTS OVC100 27/06 A2985 RMK AO2 WSHFT 21 DZE1956 SLP063 $,M
05U,2023-06-14 20:30,-116.0051,39.6042,1811.23,59.00,46.40,62.92,30.00,7.00,0.00,30.03,M,2.00,25.00,FEW,BKN,SCT,M,300.00,4900.00,6000.00,M,HZ,M,M,M,M,M,M,59.00,K05U 142030Z AUTO 03007G25KT 2SM HZ FEW003 BKN049 SCT060 15/08 A3003 RMK A01,M
BVU,2023-06-14 20:35,-114.8611,35.9475,671.00,93.20,30.20,10.67,160.00,13.00,0.00,29.77,M,10.00,19.00,CLR,M,M,M,M,M,M,M,M,M,M,M,M,M,M,88.09,KBVU 142035Z AUTO 16013G19KT 10SM CLR 34/M01 A2977 RMK AO2 LTG DSNT N,M
CXP,2023-06-14 20:35,-119.7326,39.1923,1431.00,78.80,44.60,29.79,280.00,11.00,0.00,29.98,M,10.00,M,FEW,M,M,M,7500.00,M,M,M,M,M,M,M,M,M,M,78.80,KCXP 142035Z AUTO 28011KT 10SM FEW075 26/07 A2998 RMK AO2,M
RTS,2023-06-14 20:35,-119.8764,39.6682,1539.00,73.40,48.20,40.85,320.00,11.00,0.00,30.01,M,10.00,19.00,CLR,M,M,M,M,M,M,M,M,M,M,M,M,M,M,73.40,KRTS 142035Z AUTO 32011G19KT 10SM CLR 23/09 A3001 RMK AO2,M
MEV,2023-06-14 20:35,-119.7500,38.9963,1441.42,78.80,48.20,34.13,280.00,11.00,0.00,29.97,M,10.00,16.00,CLR,M,M,M,M,M,M,M,M,M,M,M,M,M,M,78.80,KMEV 142035Z AUTO 28011G16KT 10SM CLR 26/09 A2997 RMK AO2,M
BAM,2023-06-14 20:35,-116.8743,40.5990,1382.36,77.00,50.00,38.74,10.00,8.00,0.00,29.95,M,10.00,M,CLR,M,M,M,M,M,M,M,M,M,M,M,M,M,M,77.00,KBAM 142035Z AUTO 01008KT 10SM CLR 25/10 A2995 RMK AO1,M
HTH,2023-06-14 20:35,-118.6315,38.5448,1282.89,77.00,50.00,38.74,0.00,0.00,0.00,29.94,M,10.00,M,CLR,M,M,M,M,M,M,M,M,M,M,M,M,M,M,77.00,KHTH 142035Z AUTO 00000KT 10SM CLR 25/10 A2994 RMK A01,M
TMT,2023-06-14 20:35,-117.1971,39.4643,1749.34,71.60,42.80,35.37,0.00,0.00,0.00,30.01,M,10.00,M,BKN,BKN,M,M,6000.00,8000.00,M,M,M,M,M,M,M,M,M,71.60,KTMT 142035Z AUTO 00000KT 10SM BKN060 BKN080 22/06 A3001 RMK AO2 LTG DSNT E THRU S T02200060,M
INS,2023-06-14 20:46,-115.6733,36.5872,955.00,75.20,46.40,35.94,330.00,19.00,0.00,29.87,1007.30,10.00,26.00,FEW,FEW,SCT,OVC,4000.00,6500.00,8000.00,10000.00,-RA,M,M,M,M,M,M,75.20,KINS 142046Z AUTO 33019G26KT 10SM -RA FEW040 FEW065 SCT080 OVC100 24/08 A2987 RMK AO2 DZE1956RAB46 PRESRR SLP073 $,M
05U,2023-06-14 20:50,-116.0051,39.6042,1811.23,66.20,51.80,59.74,20.00,5.00,0.00,30.02,M,10.00,M,FEW,FEW,M,M,300.00,4800.00,M,M,M,M,M,M,M,M,M,66.20,K05U 142050Z AUTO 02005KT 10SM FEW003 FEW048 19/11 A3002 RMK A01,M
P68,2023-06-14 20:53,-116.0056,39.6014,1993.00,67.00,48.00,50.62,40.00,5.00,0.09,29.99,1009.70,M,M,M,M,M,M,M,M,M,M,M,M,M,M,30.00,330.00,2023-06-14 20:24,66.90,KP68 142053Z AUTO 04005KT 19/09 A2999 RMK AO1 PK WND 33030/2024 SLP097 P0009 60009 T01940089 56015,M
DRA,2023-06-14 20:53,-116.0278,36.6206,1009.00,76.00,48.00,37.29,330.00,12.00,0.01,29.87,1007.20,6.00,26.00,FEW,BKN,OVC,M,7000.00,8500.00,11000.00,M,-RA,M,M,M,32.00,290.00,2023-06-14 20:23,75.90,KDRA 142053Z AUTO 33012G26KT 6SM -RA FEW070 BKN085 OVC110 24/09 A2987 RMK AO2 PK WND 29032/2023 WSHFT 2009 RAB30 SLP072 P0001 60001 T02440089 55010,M
VGT,2023-06-14 20:53,-115.1933,36.2111,667.00,93.00,39.00,15.24,90.00,7.00,0.00,29.76,1006.50,10.00,M,FEW,M,M,M,12000.00,M,M,M,M,M,M,M,M,M,M,88.73,KVGT 142053Z 09007KT 10SM FEW120 34/04 A2976 RMK AO2 SLP065 T03390039 58023,M
LOL,2023-06-14 20:53,-118.5701,40.0684,1192.43,77.00,50.00,38.74,330.00,8.00,0.00,29.90,1009.10,10.00,M,FEW,M,M,M,9000.00,M,M,M,M,M,M,M,M,M,M,77.00,KLOL 142053Z AUTO 33008KT 10SM FEW090 25/10 A2990 RMK AO2 SLP091 T02500100 58020,M
TPH,2023-06-14 20:53,-117.0904,38.0505,1654.00,68.00,51.80,56.13,90.00,23.00,T,29.97,M,10.00,30.00,BKN,OVC,M,M,7000.00,9500.00,M,M,TS,M,M,M,30.00,90.00,2023-06-14 20:52,68.00,KTPH 142053Z AUTO 09023G30KT 10SM TS BKN070 OVC095 20/11 A2997 RMK AO2 PK WND 09030/2052 RAB34E50 TSB47 P0000,M
ELY,2023-06-14 20:53,-114.8453,39.2950,1909.00,65.00,49.00,56.12,210.00,9.00,T,30.00,1008.30,10.00,M,BKN,BKN,M,M,6000.00,8000.00,M,M,M,M,M,M,M,M,M,64.90,KELY 142053Z AUTO 21009KT 10SM BKN060 BKN080 18/09 A3000 RMK AO2 RAB15E24 SLP083 P0000 60000 T01830094 56017,M
BVU,2023-06-14 20:55,-114.8611,35.9475,671.00,93.20,32.00,11.48,220.00,9.00,0.00,29.77,M,10.00,19.00,CLR,M,M,M,M,M,M,M,M,M,M,M,M,M,M,88.31,KBVU 142055Z AUTO 22009G19KT 10SM CLR 34/M00 A2977 RMK AO2,M
CXP,2023-06-14 20:55,-119.7326,39.1923,1431.00,78.80,42.80,27.81,270.00,12.00,0.00,29.97,M,10.00,17.00,FEW,M,M,M,7500.00,M,M,M,M,M,M,M,M,M,M,78.80,KCXP 142055Z AUTO 27012G17KT 10SM FEW075 26/06 A2997 RMK AO2,M
RNO,2023-06-14 20:55,-119.7711,39.4839,1341.00,81.00,50.00,33.97,310.00,10.00,0.00,29.94,1008.80,10.00,15.00,SCT,BKN,M,M,6500.00,25000.00,M,M,M,M,M,M,M,M,M,80.12,KRNO 142055Z 31010G15KT 10SM SCT065 BKN250 27/10 A2994 RMK AO2 SLP088 T02720100 58020,M
RTS,2023-06-14 20:55,-119.8764,39.6682,1539.00,73.40,48.20,40.85,320.00,15.00,0.00,30.00,M,10.00,22.00,CLR,M,M,M,M,M,M,M,M,M,M,M,M,M,M,73.40,KRTS 142055Z AUTO 32015G22KT 10SM CLR 23/09 A3000 RMK AO2,M
MEV,2023-06-14 20:55,-119.7500,38.9963,1441.42,78.80,44.60,29.79,270.00,10.00,0.00,29.97,M,10.00,M,CLR,M,M,M,M,M,M,M,M,M,M,M,M,M,M,78.80,KMEV 142055Z AUTO 27010KT 10SM CLR 26/07 A2997 RMK AO2,M
BAM,2023-06-14 20:55,-116.8743,40.5990,1382.36,77.00,50.00,38.74,330.00,10.00,0.00,29.93,M,10.00,14.00,SCT,M,M,M,9000.00,M,M,M,M,M,M,M,M,M,M,77.00,KBAM 142055Z AUTO 33010G14KT 10SM SCT090 25/10 A2993 RMK AO1,M
HTH,2023-06-14 20:55,-118.6315,38.5448,1282.89,77.00,50.00,38.74,330.00,5.00,0.00,29.93,M,10.00,M,CLR,M,M,M,M,M,M,M,M,M,M,M,M,M,M,77.00,KHTH 142055Z AUTO 33005KT 10SM CLR 25/10 A2993 RMK A01,M
TMT,2023-06-14 20:55,-117.1971,39.4643,1749.34,72.30,48.00,42.08,240.00,9.00,0.00,29.99,M,10.00,M,BKN,BKN,M,M,6000.00,8000.00,M,M,M,M,M,M,M,M,M,72.30,KTMT 142055Z AUTO 24009KT 10SM BKN060 BKN080 22/09 A2999 RMK AO2 LTG DSNT S T02240089,M
INS,2023-06-14 20:55,-115.6733,36.5872,955.00,73.00,53.20,49.84,310.00,17.00,T,29.87,1007.30,10.00,M,FEW,SCT,BKN,OVC,600.00,4300.00,6500.00,10000.00,-RA,M,M,M,27.00,330.00,2023-06-14 20:25,73.00,KINS 142055Z AUTO 31017KT 10SM -RA FEW006 SCT043 BKN065 OVC100 23/12 A2987 RMK AO2 PK WND 33027/25 DZE1956RAB46 SLP073 P0000 60000 T02280118 55006 $,M
LSV,2023-06-14 20:55,-115.0343,36.2362,570.00,97.00,38.00,12.91,210.00,8.00,0.00,29.72,1003.90,10.00,M,CLR,M,M,M,M,M,M,M,M,M,M,M,M,M,M,92.30,KLSV 142055Z AUTO 21008KT 10SM CLR 36/03 A2972 RMK AO2 SLP039 T03610033 57024 $,M
WMC,2023-06-14 20:56,-117.8072,40.9019,1315.00,78.00,43.00,28.68,300.00,8.00,0.00,29.94,1009.50,10.00,20.00,SCT,M,M,M,7000.00,M,M,M,M,M,M,M,M,M,M,78.10,KWMC 142056Z AUTO 30008G20KT 10SM SCT070 26/06 A2994 RMK AO2 SLP095 T02560061 58016,M
NFL,2023-06-14 20:56,-118.7010,39.4166,1199.00,80.00,50.00,34.98,300.00,4.00,0.00,29.90,1010.10,10.00,M,SCT,SCT,SCT,M,5000.00,7000.00,18000.00,M,M,M,M,M,M,M,M,79.60,KNFL 142056Z 30004KT 10SM SCT050 SCT070 SCT180 27/10 A2990 RMK AO2 SLP101 TCU DSNT SE T02670100 58021,M
LAS,2023-06-14 20:56,-115.1634,36.0719,663.00,90.00,39.00,16.74,M,4.00,0.00,29.76,1005.20,10.00,16.00,SCT,SCT,M,M,11000.00,22000.00,M,M,M,M,M,M,M,M,M,86.07,KLAS 142056Z VRB04G16KT 10SM SCT110 SCT220 32/04 A2976 RMK AO2 SLP052 T03220039 58025,M
EKO,2023-06-14 20:56,-115.7860,40.8242,1367.00,74.00,47.00,38.26,280.00,15.00,0.00,29.94,1009.10,10.00,19.00,SCT,M,M,M,6000.00,M,M,M,M,M,M,M,27.00,260.00,2023-06-14 20:03,73.90,KEKO 142056Z AUTO 28015G19KT 10SM SCT060 23/08 A2994 RMK AO2 PK WND 26027/2003 SLP091 T02330083 58018,M
HND,2023-06-14 20:56,-115.1344,35.9729,742.79,92.00,38.00,15.11,M,5.00,0.00,29.81,1007.90,10.00,M,CLR,M,M,M,M,M,M,M,M,M,M,M,M,M,M,87.69,KHND 142056Z VRB05KT 10SM CLR 33/03 A2981 RMK AO2 SLP079 T03330033 58020,M
TPH,2023-06-14 20:56,-117.0904,38.0505,1654.00,67.00,51.00,56.82,80.00,23.00,T,29.97,1009.10,10.00,32.00,BKN,OVC,M,M,7000.00,9000.00,M,M,-TSRA,M,M,M,32.00,80.00,2023-06-14 20:56,66.90,KTPH 142056Z AUTO 08023G32KT 10SM -TSRA BKN070 OVC090 19/11 A2997 RMK AO2 PK WND 08032/2056 RAB34E50B56 TSB47 SLP091 P0000 60000 T01940106 56016,M
LAS,2023-06-14 20:58,-115.1634,36.0719,663.00,90.00,39.00,16.74,150.00,7.00,0.00,29.76,M,10.00,16.00,SCT,SCT,M,M,11000.00,22000.00,M,M,M,M,M,M,M,M,M,86.07,KLAS 142058Z 15007G16KT 10SM SCT110 SCT220 32/04 A2976 RMK AO2 T03220039,M
INS,2023-06-14 21:06,-115.6733,36.5872,955.00,71.60,51.80,49.64,340.00,14.00,0.00,29.87,1007.50,10.00,M,FEW,FEW,BKN,OVC,600.00,4200.00,9000.00,12000.00,M,M,M,M,M,M,M,71.60,KINS 142106Z AUTO 34014KT 10SM FEW006 FEW042 BKN090 OVC120 22/11 A2987 RMK AO2 RAE05 SLP075 $,M
05U,2023-06-14 21:10,-116.0051,39.6042,1811.23,64.40,51.80,63.60,M,3.00,0.00,30.02,M,8.00,M,FEW,M,M,M,5000.00,M,M,M,M,M,M,M,M,M,M,64.40,K05U 142110Z AUTO VRB03KT 8SM FEW050 18/11 A3002 RMK A01,M
BVU,2023-06-14 21:15,-114.8611,35.9475,671.00,93.20,32.00,11.48,210.00,6.00,0.00,29.76,M,10.00,15.00,CLR,M,M,M,M,M,M,M,M,M,M,M,M,M,M,88.31,KBVU 142115Z AUTO 21006G15KT 10SM CLR 34/M00 A2976 RMK AO2,M
CXP,2023-06-14 21:15,-119.7326,39.1923,1431.00,78.80,42.80,27.81,230.00,9.00,0.00,29.97,M,10.00,16.00,CLR,M,M,M,M,M,M,M,M,M,M,M,M,M,M,78.80,KCXP 142115Z AUTO 23009G16KT 190V270 10SM CLR 26/06 A2997 RMK AO2,M
RTS,2023-06-14 21:15,-119.8764,39.6682,1539.00,73.40,42.80,33.29,300.00,16.00,0.00,29.99,M,10.00,M,CLR,M,M,M,M,M,M,M,M,M,M,M,M,M,M,73.40,KRTS 142115Z AUTO 30016KT 10SM CLR 23/06 A2999 RMK AO2,M
MEV,2023-06-14 21:15,-119.7500,38.9963,1441.42,78.80,46.40,31.90,300.00,10.00,0.00,29.96,M,10.00,18.00,CLR,M,M,M,M,M,M,M,M,M,M,M,M,M,M,78.80,KMEV 142115Z AUTO 30010G18KT 10SM CLR 26/08 A2996 RMK AO2,M
BAM,2023-06-14 21:15,-116.8743,40.5990,1382.36,77.00,48.20,36.22,350.00,10.00,0.00,29.93,M,10.00,16.00,SCT,SCT,SCT,M,6500.00,8000.00,9000.00,M,M,M,M,M,M,M,M,77.00,KBAM 142115Z AUTO 35010G16KT 10SM SCT065 SCT080 SCT090 25/09 A2993 RMK AO1,M
HTH,2023-06-14 21:15,-118.6315,38.5448,1282.89,78.80,48.20,34.13,330.00,7.00,0.00,29.92,M,10.00,M,CLR,M,M,M,M,M,M,M,M,M,M,M,M,M,M,78.80,KHTH 142115Z AUTO 33007KT 10SM CLR 26/09 A2992 RMK A01,M
TMT,2023-06-14 21:15,-117.1971,39.4643,1749.34,73.00,47.00,39.87,310.00,6.00,0.00,29.99,M,10.00,14.00,SCT,M,M,M,6000.00,M,M,M,VCTS,M,M,M,M,M,M,72.90,KTMT 142115Z AUTO 31006G14KT 10SM VCTS SCT060 23/08 A2999 RMK AO2 LTG DSNT S T02270084,M
05U,2023-06-14 21:30,-116.0051,39.6042,1811.23,62.60,53.60,72.38,0.00,0.00,0.00,30.01,M,5.00,M,FEW,SCT,SCT,M,5000.00,6000.00,7000.00,M,HZ,M,M,M,M,M,M,62.60,K05U 142130Z AUTO 00000KT 5SM HZ FEW050 SCT060 SCT070 17/12 A3001 RMK A01,M
BVU,2023-06-14 21:35,-114.8611,35.9475,671.00,93.20,32.00,11.48,150.00,11.00,0.00,29.75,M,10.00,M,SCT,M,M,M,12000.00,M,M,M,M,M,M,M,M,M,M,88.31,KBVU 142135Z AUTO 15011KT 120V180 10SM SCT120 34/00 A2975 RMK AO2 LTG DSNT NE AND W,M
CXP,2023-06-14 21:35,-119.7326,39.1923,1431.00,80.60,42.80,26.22,230.00,9.00,0.00,29.96,M,10.00,14.00,CLR,M,M,M,M,M,M,M,M,M,M,M,M,M,M,79.30,KCXP 142135Z AUTO 23009G14KT 200V260 10SM CLR 27/06 A2996 RMK AO2,M
RTS,2023-06-14 21:35,-119.8764,39.6682,1539.00,73.40,44.60,35.66,320.00,15.00,0.00,29.99,M,10.00,M,CLR,M,M,M,M,M,M,M,M,M,M,M,M,M,M,73.40,KRTS 142135Z AUTO 32015KT 10SM CLR 23/07 A2999 RMK AO2,M
MEV,2023-06-14 21:35,-119.7500,38.9963,1441.42,78.80,44.60,29.79,280.00,14.00,0.00,29.96,M,10.00,M,CLR,M,M,M,M,M,M,M,M,M,M,M,M,M,M,78.80,KMEV 142135Z AUTO 28014KT 10SM CLR 26/07 A2996 RMK AO2,M
BAM,2023-06-14 21:35,-116.8743,40.5990,1382.36,77.00,46.40,33.85,340.00,9.00,0.00,29.92,M,10.00,M,BKN,BKN,OVC,M,6500.00,8000.00,10000.00,M,M,M,M,M,M,M,M,77.00,KBAM 142135Z AUTO 34009KT 10SM BKN065 BKN080 OVC100 25/08 A2992 RMK AO1,M
HTH,2023-06-14 21:35,-118.6315,38.5448,1282.89,78.80,46.40,31.90,20.00,7.00,0.00,29.91,M,10.00,13.00,CLR,M,M,M,M,M,M,M,M,M,M,M,M,M,M,78.80,KHTH 142135Z AUTO 02007G13KT 10SM CLR 26/08 A2991 RMK A01,M
TMT,2023-06-14 21:35,-117.1971,39.4643,1749.34,73.80,46.40,37.67,280.00,6.00,0.00,29.99,M,10.00,14.00,CLR,M,M,M,M,M,M,M,M,M,M,M,M,M,M,73.80,KTMT 142135Z AUTO 28006G14KT 10SM CLR 23/08 A2999 RMK AO2 LTG DSNT E THRU S T02320080,M
TPH,2023-06-14 21:42,-117.0904,38.0505,1654.00,62.00,54.00,74.75,150.00,14.00,0.00,29.97,M,8.00,M,FEW,BKN,OVC,M,5000.00,7000.00,8500.00,M,-RA,M,M,M,29.00,90.00,2023-06-14 20:57,62.10,KTPH 142142Z AUTO 15014KT 8SM -RA FEW050 BKN070 OVC085 17/12 A2997 RMK AO2 PK WND 09029/2057 LTG DSNT SE TSE39 T01670122 PNO $,M
05U,2023-06-14 21:50,-116.0051,39.6042,1811.23,64.40,50.00,59.50,M,M,0.00,30.00,M,9.00,M,FEW,FEW,M,M,7000.00,8000.00,M,M,M,M,M,M,M,M,M,64.40,K05U 142150Z AUTO 9SM FEW070 FEW080 18/10 A3000 RMK A01,M
P68,2023-06-14 21:53,-116.0056,39.6014,1993.00,65.00,48.00,54.26,0.00,0.00,0.04,29.97,1008.90,M,M,M,M,M,M,M,M,M,M,M,M,M,M,M,M,M,64.90,KP68 142153Z AUTO 00000KT 18/09 A2997 RMK AO1 SLP089 P0004 T01830089,M
VGT,2023-06-14 21:53,-115.1933,36.2111,667.00,93.00,39.00,15.24,M,5.00,0.00,29.74,1006.00,10.00,M,BKN,M,M,M,12000.00,M,M,M,M,M,M,M,M,M,M,88.73,KVGT 142153Z VRB05KT 10SM BKN120 34/04 A2974 RMK AO2 SLP060 T03390039,M
LOL,2023-06-14 21:53,-118.5701,40.0684,1192.43,78.00,48.00,34.67,340.00,3.00,0.00,29.88,1008.40,10.00,M,FEW,SCT,M,M,8000.00,10000.00,M,M,M,M,M,M,M,M,M,78.10,KLOL 142153Z AUTO 34003KT 10SM FEW080 SCT100 26/09 A2988 RMK AO2 SLP084 T02560089,M
DRA,2023-06-14 21:53,-116.0278,36.6206,1009.00,83.00,42.00,23.68,180.00,13.00,T,29.84,1005.90,10.00,M,FEW,M,M,M,11000.00,M,M,M,M,M,M,M,M,M,M,80.68,KDRA 142153Z AUTO 18013KT 10SM FEW110 28/06 A2984 RMK AO2 RAE02 SLP059 P0000 T02830056,M
ELY,2023-06-14 21:53,-114.8453,39.2950,1909.00,62.00,51.00,67.19,180.00,8.00,0.03,29.98,1007.90,8.00,M,FEW,BKN,OVC,M,3100.00,7000.00,8500.00,M,-RA,M,M,M,M,M,M,62.10,KELY 142153Z AUTO 18008KT 8SM -RA FEW031 BKN070 OVC085 17/11 A2998 RMK AO2 LTG DSNT N RAB24 SLP079 P0003 T01670106,M
BVU,2023-06-14 21:55,-114.8611,35.9475,671.00,95.00,32.00,10.85,180.00,15.00,0.00,29.74,M,10.00,21.00,SCT,M,M,M,12000.00,M,M,M,M,M,M,M,M,M,M,89.71,KBVU 142155Z AUTO 18015G21KT 10SM SCT120 35/M00 A2974 RMK AO2,M
CXP,2023-06-14 21:55,-119.7326,39.1923,1431.00,78.80,42.80,27.81,250.00,13.00,0.00,29.96,M,10.00,18.00,CLR,M,M,M,M,M,M,M,M,M,M,M,M,M,M,78.80,KCXP 142155Z AUTO 25013G18KT 10SM CLR 26/06 A2996 RMK AO2,M
RNO,2023-06-14 21:55,-119.7711,39.4839,1341.00,82.00,46.00,28.30,360.00,10.00,0.00,29.92,1008.10,10.00,16.00,SCT,BKN,M,M,6000.00,25000.00,M,M,M,M,M,M,M,M,M,80.36,KRNO 142155Z 36010G16KT 10SM SCT060 BKN250 28/08 A2992 RMK AO2 SLP081 T02780078,M
LSV,2023-06-14 21:55,-115.0343,36.2362,570.00,99.00,37.40,11.91,200.00,7.00,0.00,29.69,1002.70,10.00,15.00,CLR,M,M,M,M,M,M,M,M,M,M,M,M,M,M,93.88,KLSV 142155Z AUTO 20007G15KT 10SM CLR 37/03 A2969 RMK AO2 SLP027 T03720030 $,M
RTS,2023-06-14 21:55,-119.8764,39.6682,1539.00,73.40,46.40,38.18,310.00,17.00,0.00,29.99,M,10.00,M,CLR,M,M,M,M,M,M,M,M,M,M,M,M,M,M,73.40,KRTS 142155Z AUTO 31017KT 10SM CLR 23/08 A2999 RMK AO2,M
MEV,2023-06-14 21:55,-119.7500,38.9963,1441.42,78.80,46.40,31.90,280.00,14.00,0.00,29.95,M,10.00,M,CLR,M,M,M,M,M,M,M,M,M,M,M,M,M,M,78.80,KMEV 142155Z AUTO 28014KT 10SM CLR 26/08 A2995 RMK AO2,M
BAM,2023-06-14 21:55,-116.8743,40.5990,1382.36,75.20,46.40,35.94,350.00,8.00,0.00,29.92,M,10.00,M,BKN,BKN,M,M,6500.00,11000.00,M,M,M,M,M,M,M,M,M,75.20,KBAM 142155Z AUTO 35008KT 10SM BKN065 BKN110 24/08 A2992 RMK AO1,M
HTH,2023-06-14 21:55,-118.6315,38.5448,1282.89,80.60,46.40,30.07,360.00,7.00,0.00,29.90,M,10.00,M,CLR,M,M,M,M,M,M,M,M,M,M,M,M,M,M,79.56,KHTH 142155Z AUTO 36007KT 10SM CLR 27/08 A2990 RMK A01,M
INS,2023-06-14 21:55,-115.6733,36.5872,955.00,76.00,45.70,33.97,340.00,16.00,T,29.87,1007.30,10.00,M,BKN,BKN,M,M,10000.00,12000.00,M,M,M,M,M,M,M,M,M,76.10,KINS 142155Z AUTO 34016KT 10SM BKN100 BKN120 25/08 A2987 RMK AO2 RAE05 SLP073 P0000 T02450076 $,M
TMT,2023-06-14 21:55,-117.1971,39.4643,1749.34,74.00,47.00,38.00,290.00,8.00,0.00,29.97,M,10.00,M,SCT,SCT,M,M,7000.00,8000.00,M,M,M,M,M,M,M,M,M,74.10,KTMT 142155Z AUTO 29008KT 270V330 10SM SCT070 SCT080 23/08 A2997 RMK AO2 LTG DSNT E THRU S T02340083,M
EKO,2023-06-14 21:56,-115.7860,40.8242,1367.00,76.00,45.00,33.30,290.00,13.00,0.00,29.92,1008.20,10.00,22.00,FEW,M,M,M,7000.00,M,M,M,M,M,M,M,M,M,M,75.90,KEKO 142156Z AUTO 29013G22KT 10SM FEW070 24/07 A2992 RMK AO2 SLP082 T02440072,M
NFL,2023-06-14 21:56,-118.7010,39.4166,1199.00,82.00,45.00,27.24,280.00,8.00,0.00,29.88,1009.30,10.00,M,SCT,SCT,BKN,M,5000.00,7500.00,18000.00,M,M,M,M,M,M,M,M,80.28,KNFL 142156Z 28008KT 10SM SCT050 SCT075 BKN180 28/07 A2988 RMK AO2 SLP093 TCU DSNT E-SE T02780072,M
HND,2023-06-14 21:56,-115.1344,35.9729,742.79,92.00,39.00,15.77,290.00,7.00,0.00,29.78,1007.20,10.00,M,FEW,M,M,M,3900.00,M,M,M,M,M,M,M,M,M,M,87.74,KHND 142156Z 29007KT 10SM FEW039 33/04 A2978 RMK AO2 SLP072 T03330039,M
TPH,2023-06-14 21:56,-117.0904,38.0505,1654.00,64.00,54.00,69.92,140.00,9.00,0.00,29.96,1009.30,9.00,M,FEW,BKN,OVC,M,4100.00,7000.00,9000.00,M,-RA,M,M,M,29.00,90.00,2023-06-14 20:57,64.00,KTPH 142156Z AUTO 14009KT 9SM -RA FEW041 BKN070 OVC090 18/12 A2996 RMK AO2 PK WND 09029/2057 TSE39 SLP093 T01780122 PNO $,M
LSV,2023-06-14 21:56,-115.0343,36.2362,570.00,98.80,37.20,11.89,200.00,10.00,0.00,29.69,1002.70,10.00,M,CLR,M,M,M,M,M,M,M,M,M,M,M,M,M,M,93.68,KLSV 142156Z AUTO 20010KT 10SM CLR 37/03 A2969 RMK AO2 SLP027 T03710029 $,M
WMC,2023-06-14 21:56,-117.8072,40.9019,1315.00,77.00,40.00,26.38,310.00,11.00,0.00,29.91,1008.70,10.00,M,CLR,M,M,M,M,M,M,M,M,M,M,M,M,M,M,77.00,KWMC 142156Z AUTO 31011KT 10SM CLR 25/04 A2991 RMK AO2 SLP087 T02500044,M
LAS,2023-06-14 21:56,-115.1634,36.0719,663.00,94.00,38.00,14.20,190.00,7.00,0.00,29.75,1004.50,10.00,17.00,SCT,SCT,M,M,11000.00,22000.00,M,M,M,M,M,M,M,M,M,89.48,KLAS 142156Z 19007G17KT 10SM SCT110 SCT220 34/03 A2975 RMK AO2 SLP045 CB DSNT W-N-NE T03440033,M
ELY,2023-06-14 22:05,-114.8453,39.2950,1909.00,61.00,53.00,75.20,200.00,6.00,T,29.97,M,7.00,M,FEW,BKN,OVC,M,2800.00,6500.00,8000.00,M,VCTS -RA,M,M,M,M,M,M,61.00,KELY 142205Z AUTO 20006KT 7SM VCTS -RA FEW028 BKN065 OVC080 16/12 A2997 RMK AO2 LTG DSNT NW-NE P0000 T01610117,M
05U,2023-06-14 22:10,-116.0051,39.6042,1811.23,68.00,50.00,52.51,40.00,4.00,0.00,29.98,M,10.00,M,CLR,M,M,M,M,M,M,M,M,M,M,M,M,M,M,68.00,K05U 142210Z AUTO 04004KT 10SM CLR 20/10 A2998 RMK A01,M
BVU,2023-06-14 22:15,-114.8611,35.9475,671.00,93.20,30.20,10.67,180.00,14.00,0.00,29.73,M,10.00,M,FEW,M,M,M,12000.00,M,M,M,VCTS,M,M,M,M,M,M,88.09,KBVU 142215Z AUTO 18014KT 150V210 10SM VCTS FEW120 34/M01 A2973 RMK AO2 LTG DSNT NE,M
CXP,2023-06-14 22:15,-119.7326,39.1923,1431.00,78.80,42.80,27.81,240.00,8.00,0.00,29.96,M,10.00,20.00,CLR,M,M,M,M,M,M,M,M,M,M,M,M,M,M,78.80,KCXP 142215Z AUTO 24008G20KT 220V280 10SM CLR 26/06 A2996 RMK AO2,M
RTS,2023-06-14 22:15,-119.8764,39.6682,1539.00,75.20,46.40,35.94,320.00,11.00,0.00,29.98,M,10.00,21.00,CLR,M,M,M,M,M,M,M,M,M,M,M,M,M,M,75.20,KRTS 142215Z AUTO 32011G21KT 10SM CLR 24/08 A2998 RMK AO2,M
MEV,2023-06-14 22:15,-119.7500,38.9963,1441.42,77.00,46.40,33.85,300.00,9.00,0.00,29.95,M,10.00,17.00,CLR,M,M,M,M,M,M,M,M,M,M,M,M,M,M,77.00,KMEV 142215Z AUTO 30009G17KT 10SM CLR 25/08 A2995 RMK AO2,M
BAM,2023-06-14 22:15,-116.8743,40.5990,1382.36,71.60,53.60,53.03,150.00,5.00,0.00,29.91,M,10.00,M,OVC,M,M,M,6500.00,M,M,M,M,M,M,M,M,M,M,71.60,KBAM 142215Z AUTO 15005KT 10SM OVC065 22/12 A2991 RMK AO1,M
HTH,2023-06-14 22:15,-118.6315,38.5448,1282.89,80.60,48.20,32.18,320.00,9.00,0.00,29.88,M,10.00,M,CLR,M,M,M,M,M,M,M,M,M,M,M,M,M,M,79.71,KHTH 142215Z AUTO 32009KT 10SM CLR 27/09 A2988 RMK A01,M
TMT,2023-06-14 22:15,-117.1971,39.4643,1749.34,72.00,49.00,43.82,300.00,10.00,0.00,29.97,M,10.00,M,SCT,BKN,M,M,7000.00,9000.00,M,M,M,M,M,M,M,M,M,72.10,KTMT 142215Z AUTO 30010KT 10SM SCT070 BKN090 22/09 A2997 RMK AO2 LTG DSNT ALQS T02230094,M
ELY,2023-06-14 22:16,-114.8453,39.2950,1909.00,59.00,53.00,80.75,0.00,0.00,0.03,29.98,M,4.00,M,BKN,OVC,M,M,7000.00,9000.00,M,M,-TSRA,M,M,M,M,M,M,59.00,KELY 142216Z AUTO 00000KT 4SM -TSRA BKN070 OVC090 15/12 A2998 RMK AO2 LTG DSNT NW-NE TSB10 P0003 T01500117,M
VGT,2023-06-14 22:27,-115.1933,36.2111,667.00,89.00,49.00,25.14,340.00,21.00,T,29.73,M,10.00,36.00,FEW,BKN,M,M,6000.00,11000.00,M,M,-RA,M,M,M,36.00,330.00,2023-06-14 22:20,86.09,KVGT 142227Z 34021G36KT 10SM -RA FEW060 BKN110 32/09 A2973 RMK AO2 PK WND 33036/2220 WSHFT 2207 RAB25 P0000 T03170094,M
ELY,2023-06-14 22:28,-114.8453,39.2950,1909.00,57.00,48.00,71.81,40.00,14.00,0.12,29.99,M,1.75,26.00,FEW,BKN,OVC,M,3900.00,6000.00,9000.00,M,+TSRA,M,M,M,26.00,30.00,2023-06-14 22:23,57.00,KELY 142228Z AUTO 04014G26KT 1 3/4SM +TSRA FEW039 BKN060 OVC090 14/09 A2999 RMK AO2 PK WND 03026/2223 VIS 1 1/4V3 LTG DSNT NE TSB10 P0012 T01390089,M
05U,2023-06-14 22:30,-116.0051,39.6042,1811.23,68.00,51.80,56.13,40.00,4.00,0.00,29.97,M,10.00,M,FEW,M,M,M,6500.00,M,M,M,M,M,M,M,M,M,M,68.00,K05U 142230Z AUTO 04004KT 10SM FEW065 20/11 A2997 RMK A01,M
BVU,2023-06-14 22:35,-114.8611,35.9475,671.00,95.00,30.20,10.09,140.00,9.00,0.00,29.72,M,10.00,15.00,CLR,M,M,M,M,M,M,M,M,M,M,M,M,M,M,89.48,KBVU 142235Z AUTO 14009G15KT 120V180 10SM CLR 35/M01 A2972 RMK AO2,M
CXP,2023-06-14 22:35,-119.7326,39.1923,1431.00,77.00,44.60,31.62,260.00,12.00,0.00,29.96,M,10.00,20.00,CLR,M,M,M,M,M,M,M,M,M,M,M,M,M,M,77.00,KCXP 142235Z AUTO 26012G20KT 10SM CLR 25/07 A2996 RMK AO2,M
RTS,2023-06-14 22:35,-119.8764,39.6682,1539.00,73.40,48.20,40.85,300.00,14.00,0.00,29.98,M,10.00,M,FEW,M,M,M,7000.00,M,M,M,M,M,M,M,M,M,M,73.40,KRTS 142235Z AUTO 30014KT 10SM FEW070 23/09 A2998 RMK AO2,M
MEV,2023-06-14 22:35,-119.7500,38.9963,1441.42,77.00,46.40,33.85,300.00,11.00,0.00,29.95,M,10.00,16.00,CLR,M,M,M,M,M,M,M,M,M,M,M,M,M,M,77.00,KMEV 142235Z AUTO 30011G16KT 10SM CLR 25/08 A2995 RMK AO2,M
BAM,2023-06-14 22:35,-116.8743,40.5990,1382.36,75.20,53.60,46.98,100.00,7.00,0.00,29.89,M,10.00,M,BKN,OVC,M,M,6500.00,9000.00,M,M,M,M,M,M,M,M,M,75.20,KBAM 142235Z AUTO 10007KT 10SM BKN065 OVC090 24/12 A2989 RMK AO1,M
HTH,2023-06-14 22:35,-118.6315,38.5448,1282.89,80.60,44.60,28.08,340.00,12.00,0.00,29.88,M,10.00,M,CLR,M,M,M,M,M,M,M,M,M,M,M,M,M,M,79.42,KHTH 142235Z AUTO 34012KT 10SM CLR 27/07 A2988 RMK A01,M
TMT,2023-06-14 22:35,-117.1971,39.4643,1749.34,71.40,47.70,42.90,270.00,6.00,0.00,29.97,M,10.00,M,SCT,M,M,M,9000.00,M,M,M,M,M,M,M,M,M,M,71.40,KTMT 142235Z AUTO 27006KT 10SM SCT090 22/09 A2997 RMK AO2 LTG DSNT NE THRU S T02190087,M
DRA,2023-06-14 22:37,-116.0278,36.6206,1009.00,83.00,46.00,27.48,130.00,24.00,0.00,29.82,M,10.00,30.00,CLR,M,M,M,M,M,M,M,M,M,M,M,30.00,120.00,2023-06-14 22:37,80.94,KDRA 142237Z AUTO 13024G30KT 10SM CLR 28/08 A2982 RMK AO2 PK WND 12030/2237 WSHFT 2220 T02830078,M
LSV,2023-06-14 22:37,-115.0343,36.2362,570.00,95.00,37.40,13.46,220.00,18.00,0.00,29.67,1002.20,10.00,27.00,FEW,SCT,M,M,13000.00,15000.00,M,M,M,M,M,M,M,M,M,90.46,KLSV 142237Z AUTO 22018G27KT 10SM FEW130 SCT150 35/03 A2967 RMK AO2 WSHFT 30 SLP022 $,M
ELY,2023-06-14 22:38,-114.8453,39.2950,1909.00,60.00,49.00,66.46,170.00,6.00,0.20,29.98,M,3.00,M,FEW,BKN,OVC,M,4800.00,8000.00,10000.00,M,-TSRA,M,M,M,26.00,30.00,2023-06-14 22:23,60.10,KELY 142238Z AUTO 17006KT 3SM -TSRA FEW048 BKN080 OVC100 16/09 A2998 RMK AO2 PK WND 03026/2223 LTG DSNT NE TSB10 P0020 T01560094,M
LSV,2023-06-14 22:42,-115.0343,36.2362,570.00,95.00,42.80,16.60,250.00,23.00,0.00,29.67,1002.20,9.00,29.00,FEW,FEW,M,M,13000.00,15000.00,M,M,M,M,M,M,M,M,M,90.86,KLSV 142242Z AUTO 25023G29KT 9SM FEW130 FEW150 35/06 A2967 RMK AO2 WSHFT 37 SLP022 $,M
TPH,2023-06-14 22:43,-117.0904,38.0505,1654.00,73.00,54.00,51.33,190.00,6.00,0.00,29.94,M,10.00,M,CLR,M,M,M,M,M,M,M,VCTS,M,M,M,M,M,M,73.00,KTPH 142243Z AUTO 19006KT 10SM VCTS CLR 23/12 A2994 RMK AO2 LTG DSNT ALQDS RAE15 T02280122 PNO $,M
LSV,2023-06-14 22:44,-115.0343,36.2362,570.00,95.00,42.80,16.60,250.00,24.00,0.00,29.67,1002.20,9.00,29.00,FEW,FEW,M,M,13000.00,15000.00,M,M,M,M,M,M,M,M,M,90.86,KLSV 142244Z AUTO 25024G29KT 9SM FEW130 FEW150 35/06 A2967 RMK AO2 WSHFT 37 SLP022 $,M
05U,2023-06-14 22:50,-116.0051,39.6042,1811.23,68.00,50.00,52.51,30.00,4.00,0.00,29.97,M,10.00,M,BKN,BKN,BKN,M,6000.00,7000.00,8000.00,M,M,M,M,M,M,M,M,68.00,K05U 142250Z AUTO 03004KT 10SM BKN060 BKN070 BKN080 20/10 A2997 RMK A01,M
P68,2023-06-14 22:53,-116.0056,39.6014,1993.00,68.00,50.00,52.51,60.00,4.00,0.00,29.94,1007.40,M,M,M,M,M,M,M,M,M,M,M,M,M,M,M,M,M,68.00,KP68 142253Z AUTO 06004KT 20/10 A2994 RMK AO1 SLP074 T02000100,M
LOL,2023-06-14 22:53,-118.5701,40.0684,1192.43,80.00,41.00,24.86,320.00,14.00,0.00,29.87,1008.10,10.00,20.00,CLR,M,M,M,M,M,M,M,M,M,M,M,M,M,M,78.98,KLOL 142253Z AUTO 32014G20KT 10SM CLR 27/05 A2987 RMK AO2 SLP081 T02670050,M
ELY,2023-06-14 22:53,-114.8453,39.2950,1909.00,61.00,53.00,75.20,170.00,8.00,0.22,29.97,1007.90,10.00,M,FEW,SCT,OVC,M,5500.00,8000.00,10000.00,M,-TSRA,M,M,M,26.00,30.00,2023-06-14 22:23,61.00,KELY 142253Z AUTO 17008KT 10SM -TSRA FEW055 SCT080 OVC100 16/12 A2997 RMK AO2 PK WND 03026/2223 LTG DSNT NE TSB10E48B49 SLP079 P0022 T01610117,M
DRA,2023-06-14 22:53,-116.0278,36.6206,1009.00,83.00,45.00,26.46,120.00,18.00,0.00,29.82,1005.20,10.00,25.00,CLR,M,M,M,M,M,M,M,M,M,M,M,30.00,120.00,2023-06-14 22:37,80.86,KDRA 142253Z AUTO 12018G25KT 10SM CLR 28/07 A2982 RMK AO2 PK WND 12030/2237 WSHFT 2220 SLP052 T02830072,M
VGT,2023-06-14 22:53,-115.1933,36.2111,667.00,89.00,47.00,23.32,320.00,22.00,T,29.74,1006.10,10.00,36.00,FEW,BKN,M,M,5500.00,11000.00,M,M,M,M,M,M,36.00,320.00,2023-06-14 22:53,85.85,KVGT 142253Z 32022G36KT 10SM FEW055 BKN110 32/08 A2974 RMK AO2 PK WND 32036/2253 WSHFT 2207 RAB25E45 SLP061 P0000 T03170083,M
BVU,2023-06-14 22:55,-114.8611,35.9475,671.00,91.40,32.00,12.14,190.00,9.00,0.00,29.72,M,10.00,18.00,CLR,M,M,M,M,M,M,M,M,M,M,M,M,M,M,86.91,KBVU 142255Z AUTO 19009G18KT 10SM CLR 33/M00 A2972 RMK AO2 LTG DSNT N AND NW,M
CXP,2023-06-14 22:55,-119.7326,39.1923,1431.00,77.00,46.40,33.85,260.00,11.00,0.00,29.96,M,10.00,19.00,CLR,M,M,M,M,M,M,M,M,M,M,M,M,M,M,77.00,KCXP 142255Z AUTO 26011G19KT 220V280 10SM CLR 25/08 A2996 RMK AO2 LTG DSNT E AND SE,M
RNO,2023-06-14 22:55,-119.7711,39.4839,1341.00,82.00,45.00,27.24,280.00,11.00,0.00,29.91,1007.70,10.00,M,SCT,BKN,M,M,8000.00,25000.00,M,M,M,M,M,M,M,M,M,80.28,KRNO 142255Z 28011KT 10SM SCT080 BKN250 28/07 A2991 RMK AO2 SLP077 T02780072,M
RTS,2023-06-14 22:55,-119.8764,39.6682,1539.00,75.20,48.20,38.46,270.00,16.00,0.00,29.98,M,10.00,M,SCT,SCT,M,M,6000.00,7000.00,M,M,M,M,M,M,M,M,M,75.20,KRTS 142255Z AUTO 27016KT 10SM SCT060 SCT070 24/09 A2998 RMK AO2,M
MEV,2023-06-14 22:55,-119.7500,38.9963,1441.42,77.00,46.40,33.85,290.00,12.00,0.00,29.95,M,10.00,M,CLR,M,M,M,M,M,M,M,M,M,M,M,M,M,M,77.00,KMEV 142255Z AUTO 29012KT 10SM CLR 25/08 A2995 RMK AO2,M
BAM,2023-06-14 22:55,-116.8743,40.5990,1382.36,77.00,51.80,41.42,0.00,0.00,0.00,29.89,M,10.00,M,BKN,BKN,BKN,M,6500.00,8000.00,10000.00,M,M,M,M,M,M,M,M,77.00,KBAM 142255Z AUTO 00000KT 10SM BKN065 BKN080 BKN100 25/11 A2989 RMK AO1,M
HTH,2023-06-14 22:55,-118.6315,38.5448,1282.89,80.60,44.60,28.08,350.00,10.00,0.00,29.87,M,10.00,M,CLR,M,M,M,M,M,M,M,M,M,M,M,M,M,M,79.42,KHTH 142255Z AUTO 35010KT 10SM CLR 27/07 A2987 RMK A01,M
TMT,2023-06-14 22:55,-117.1971,39.4643,1749.34,70.50,45.30,40.40,300.00,14.00,0.00,29.97,M,10.00,20.00,SCT,SCT,M,M,6500.00,8000.00,M,M,TS,M,M,M,M,M,M,70.50,KTMT 142255Z AUTO 30014G20KT 10SM TS SCT065 SCT080 21/07 A2997 RMK AO2 LTG DSNT E THRU S T02140074,M
INS,2023-06-14 22:55,-115.6733,36.5872,955.00,79.30,40.50,25.03,350.00,12.00,0.00,29.84,1006.30,10.00,M,OVC,M,M,M,13000.00,M,M,M,M,M,M,M,M,M,M,79.30,KINS 142255Z AUTO 35012KT 10SM OVC130 26/05 A2984 RMK AO2 SLP063 T02630047 $,M
LSV,2023-06-14 22:55,-115.0343,36.2362,570.00,94.00,42.40,16.91,260.00,23.00,0.00,29.67,1002.20,10.00,33.00,FEW,M,M,M,13000.00,M,M,M,M,M,M,M,33.00,260.00,2023-06-14 22:49,89.79,KLSV 142255Z AUTO 26023G33KT 10SM FEW130 34/06 A2967 RMK AO2 PK WND 26033/49 SLP022 T03440058 $,M
HND,2023-06-14 22:56,-115.1344,35.9729,742.79,92.00,39.00,15.77,M,4.00,0.00,29.77,1006.60,10.00,M,FEW,M,M,M,12000.00,M,M,M,M,M,M,M,M,M,M,87.74,KHND 142256Z VRB04KT 10SM FEW120 33/04 A2977 RMK AO2 SLP066 T03330039,M
LAS,2023-06-14 22:56,-115.1634,36.0719,663.00,91.00,45.00,20.45,320.00,19.00,0.00,29.75,1004.70,10.00,27.00,BKN,BKN,M,M,11000.00,22000.00,M,M,M,M,M,M,28.00,330.00,2023-06-14 22:43,87.35,KLAS 142256Z 32019G27KT 10SM BKN110 BKN220 33/07 A2975 RMK AO2 PK WND 33028/2243 SLP047 CB DSNT W-N-NE T03280072,M
NFL,2023-06-14 22:56,-118.7010,39.4166,1199.00,82.00,42.00,24.38,330.00,9.00,0.00,29.86,1008.70,10.00,M,SCT,SCT,BKN,M,5000.00,7500.00,18000.00,M,M,M,M,M,M,M,M,80.09,KNFL 142256Z 33009KT 10SM SCT050 SCT075 BKN180 28/06 A2986 RMK AO2 SLP087 TCU DSNT E-SE T02780056,M
TPH,2023-06-14 22:56,-117.0904,38.0505,1654.00,73.00,51.00,46.13,240.00,5.00,0.00,29.94,1007.30,10.00,M,CLR,M,M,M,M,M,M,M,M,M,M,M,M,M,M,73.00,KTPH 142256Z AUTO 24005KT 10SM CLR 23/11 A2994 RMK AO2 LTG DSNT NE AND NW RAE15 SLP073 T02280106 PNO $,M
EKO,2023-06-14 22:56,-115.7860,40.8242,1367.00,76.00,42.00,29.80,300.00,12.00,0.00,29.89,1007.30,10.00,22.00,CLR,M,M,M,M,M,M,M,M,M,M,M,M,M,M,75.90,KEKO 142256Z AUTO 30012G22KT 10SM CLR 24/06 A2989 RMK AO2 SLP073 T02440056,M
WMC,2023-06-14 22:56,-117.8072,40.9019,1315.00,78.00,40.00,25.44,330.00,10.00,0.00,29.90,1008.50,10.00,M,CLR,M,M,M,M,M,M,M,M,M,M,M,M,M,M,78.10,KWMC 142256Z AUTO 33010KT 10SM CLR 26/04 A2990 RMK AO2 SLP085 T02560044,M
ELY,2023-06-14 23:08,-114.8453,39.2950,1909.00,60.00,54.00,80.25,300.00,5.00,T,29.97,M,10.00,M,OVC,M,M,M,10000.00,M,M,M,M,M,M,M,M,M,M,60.10,KELY 142308Z AUTO 30005KT 10SM OVC100 16/12 A2997 RMK AO2 LTG DSNT NE AND E RAE2254 TSE04 P0000 T01560122,M
05U,2023-06-14 23:10,-116.0051,39.6042,1811.23,68.00,53.60,59.97,10.00,6.00,0.00,29.97,M,10.00,M,BKN,BKN,M,M,6000.00,7500.00,M,M,M,M,M,M,M,M,M,68.00,K05U 142310Z AUTO 01006KT 10SM BKN060 BKN075 20/12 A2997 RMK A01,M
BVU,2023-06-14 23:15,-114.8611,35.9475,671.00,93.20,32.00,11.48,M,5.00,0.00,29.72,M,10.00,15.00,CLR,M,M,M,M,M,M,M,M,M,M,M,M,M,M,88.31,KBVU 142315Z AUTO VRB05G15KT 10SM CLR 34/M00 A2972 RMK AO2,M
CXP,2023-06-14 23:15,-119.7326,39.1923,1431.00,77.00,46.40,33.85,260.00,12.00,0.00,29.95,M,10.00,18.00,CLR,M,M,M,M,M,M,M,M,M,M,M,M,M,M,77.00,KCXP 142315Z AUTO 26012G18KT 220V280 10SM CLR 25/08 A2995 RMK AO2,M
RTS,2023-06-14 23:15,-119.8764,39.6682,1539.00,71.60,48.20,43.42,260.00,14.00,0.00,29.97,M,10.00,M,SCT,SCT,M,M,6000.00,7500.00,M,M,M,M,M,M,M,M,M,71.60,KRTS 142315Z AUTO 26014KT 10SM SCT060 SCT075 22/09 A2997 RMK AO2,M
MEV,2023-06-14 23:15,-119.7500,38.9963,1441.42,75.20,44.60,33.57,290.00,11.00,0.00,29.94,M,10.00,M,CLR,M,M,M,M,M,M,M,M,M,M,M,M,M,M,75.20,KMEV 142315Z AUTO 29011KT 10SM CLR 24/07 A2994 RMK AO2,M
BAM,2023-06-14 23:15,-116.8743,40.5990,1382.36,77.00,44.60,31.62,310.00,16.00,0.00,29.88,M,10.00,21.00,BKN,OVC,M,M,8000.00,10000.00,M,M,M,M,M,M,M,M,M,77.00,KBAM 142315Z AUTO 31016G21KT 10SM BKN080 OVC100 25/07 A2988 RMK AO1,M
HTH,2023-06-14 23:15,-118.6315,38.5448,1282.89,82.40,46.40,28.36,330.00,9.00,0.00,29.86,M,10.00,16.00,CLR,M,M,M,M,M,M,M,M,M,M,M,M,M,M,80.64,KHTH 142315Z AUTO 33009G16KT 10SM CLR 28/08 A2986 RMK A01,M
TPH,2023-06-14 23:15,-117.0904,38.0505,1654.00,72.00,51.00,47.72,290.00,8.00,0.00,29.94,M,10.00,M,CLR,M,M,M,M,M,M,M,VCTS,M,M,M,M,M,M,72.00,KTPH 142315Z AUTO 29008KT 10SM VCTS CLR 22/11 A2994 RMK AO2 LTG DSNT NE AND SW AND W T02220106 PNO $,M
HND,2023-06-14 23:19,-115.1344,35.9729,742.79,89.60,46.40,22.53,350.00,20.00,0.00,29.76,M,10.00,M,BKN,M,M,M,12000.00,M,M,M,M,M,M,M,M,M,M,86.24,KHND 142319Z 35020KT 10SM BKN120 32/08 A2976 RMK AO2 WSHFT 2259,M
TMT,2023-06-14 23:20,-117.1971,39.4643,1749.34,66.60,47.70,50.57,280.00,13.00,0.00,29.97,M,10.00,19.00,BKN,M,M,M,11000.00,M,M,M,M,M,M,M,M,M,M,66.60,KTMT 142320Z AUTO 28013G19KT 10SM BKN110 19/09 A2997 RMK AO2 LTG DSNT S T01920087,M
05U,2023-06-14 23:30,-116.0051,39.6042,1811.23,68.00,53.60,59.97,10.00,6.00,0.00,29.96,M,10.00,M,FEW,SCT,SCT,M,6000.00,7500.00,9500.00,M,M,M,M,M,M,M,M,68.00,K05U 142330Z AUTO 01006KT 10SM FEW060 SCT075 SCT095 20/12 A2996 RMK A01,M
BVU,2023-06-14 23:35,-114.8611,35.9475,671.00,91.40,32.00,12.14,210.00,7.00,0.00,29.71,M,10.00,14.00,CLR,M,M,M,M,M,M,M,M,M,M,M,M,M,M,86.91,KBVU 142335Z AUTO 21007G14KT 10SM CLR 33/M00 A2971 RMK AO2 LTG DSNT NE,M
CXP,2023-06-14 23:35,-119.7326,39.1923,1431.00,77.00,48.20,36.22,260.00,11.00,0.00,29.94,M,10.00,16.00,CLR,M,M,M,M,M,M,M,M,M,M,M,M,M,M,77.00,KCXP 142335Z AUTO 26011G16KT 10SM CLR 25/09 A2994 RMK AO2 LTG DSNT SE,M
RTS,2023-06-14 23:35,-119.8764,39.6682,1539.00,71.60,48.20,43.42,280.00,14.00,0.00,29.97,M,10.00,20.00,FEW,M,M,M,6000.00,M,M,M,M,M,M,M,M,M,M,71.60,KRTS 142335Z AUTO 28014G20KT 10SM FEW060 22/09 A2997 RMK AO2,M
MEV,2023-06-14 23:35,-119.7500,38.9963,1441.42,77.00,48.20,36.22,310.00,11.00,0.00,29.94,M,10.00,M,CLR,M,M,M,M,M,M,M,M,M,M,M,M,M,M,77.00,KMEV 142335Z AUTO 31011KT 10SM CLR 25/09 A2994 RMK AO2 LTG DSNT S,M
BAM,2023-06-14 23:35,-116.8743,40.5990,1382.36,78.80,42.80,27.81,320.00,15.00,0.00,29.88,M,10.00,22.00,SCT,SCT,M,M,8000.00,8500.00,M,M,M,M,M,M,M,M,M,78.80,KBAM 142335Z AUTO 32015G22KT 10SM SCT080 SCT085 26/06 A2988 RMK AO1,M
HTH,2023-06-14 23:35,-118.6315,38.5448,1282.89,82.40,44.60,26.49,350.00,11.00,0.00,29.85,M,10.00,17.00,CLR,M,M,M,M,M,M,M,M,M,M,M,M,M,M,80.50,KHTH 142335Z AUTO 35011G17KT 10SM CLR 28/07 A2985 RMK A01,M
TPH,2023-06-14 23:45,-117.0904,38.0505,1654.00,69.00,50.00,50.56,290.00,16.00,0.00,29.92,M,10.00,24.00,CLR,M,M,M,M,M,M,M,TS,M,M,M,27.00,300.00,2023-06-14 23:31,69.10,KTPH 142345Z AUTO 29016G24KT 10SM TS CLR 21/10 A2992 RMK AO2 PK WND 30027/2331 LTG DSNT W TSB39 T02060100 PNO $,M
05U,2023-06-14 23:50,-116.0051,39.6042,1811.23,64.40,55.40,72.56,20.00,6.00,0.00,29.96,M,10.00,M,SCT,BKN,M,M,6500.00,7500.00,M,M,M,M,M,M,M,M,M,64.40,K05U 142350Z AUTO 02006KT 10SM SCT065 BKN075 18/13 A2996 RMK A01,M
P68,2023-06-14 23:53,-116.0056,39.6014,1993.00,67.00,57.00,70.49,40.00,7.00,0.03,29.93,1007.30,M,M,M,M,M,M,M,M,M,M,M,M,M,M,M,M,M,66.90,KP68 142353Z AUTO 04007KT 19/14 A2993 RMK AO1 SLP073 P0003 60016 T01940139 10217 20161 56017,M
DRA,2023-06-14 23:53,-116.0278,36.6206,1009.00,82.00,43.00,25.24,110.00,14.00,0.00,29.81,1005.10,10.00,23.00,FEW,M,M,M,12000.00,M,M,M,M,M,M,M,29.00,140.00,2023-06-14 22:55,80.15,KDRA 142353Z AUTO 11014G23KT 10SM FEW120 28/06 A2981 RMK AO2 PK WND 14029/2255 SLP051 60001 T02780061 10317 20239 56018,M
ELY,2023-06-14 23:53,-114.8453,39.2950,1909.00,62.00,54.00,74.75,190.00,6.00,0.03,29.95,1006.90,6.00,M,FEW,BKN,OVC,M,7000.00,9000.00,11000.00,M,VCTS -RA,M,M,M,M,M,M,62.10,KELY 142353Z AUTO 19006KT 6SM VCTS -RA FEW070 BKN090 OVC110 17/12 A2995 RMK AO2 LTG DSNT NE AND E AND SW RAE2254B20 TSE04 SLP069 P0003 60028 T01670122 10211 20133 58014,M
VGT,2023-06-14 23:53,-115.1933,36.2111,667.00,91.00,45.00,20.45,320.00,22.00,0.00,29.71,1005.20,10.00,29.00,CLR,M,M,M,M,M,M,M,M,M,M,M,33.00,330.00,2023-06-14 23:06,87.35,KVGT 142353Z 32022G29KT 10SM CLR 33/07 A2971 RMK AO2 PK WND 33033/2306 LTG DSNT S SLP052 60000 T03280072 10350 20306 58015,M
LOL,2023-06-14 23:53,-118.5701,40.0684,1192.43,79.00,39.00,23.85,310.00,15.00,0.00,29.85,1007.60,10.00,M,CLR,M,M,M,M,M,M,M,M,M,M,M,M,M,M,79.00,KLOL 142353Z AUTO 31015KT 10SM CLR 26/04 A2985 RMK AO2 SLP076 T02610039 10272 20222 56015,M
BVU,2023-06-14 23:55,-114.8611,35.9475,671.00,89.60,42.80,19.64,320.00,20.00,0.00,29.70,M,10.00,25.00,SCT,M,M,M,12000.00,M,M,M,M,M,M,M,M,M,M,85.93,KBVU 142355Z AUTO 32020G25KT 10SM SCT120 32/06 A2970 RMK AO2,M
CXP,2023-06-14 23:55,-119.7326,39.1923,1431.00,77.00,48.20,36.22,250.00,10.00,0.00,29.94,M,10.00,16.00,CLR,M,M,M,M,M,M,M,M,M,M,M,M,M,M,77.00,KCXP 142355Z AUTO 25010G16KT 10SM CLR 25/09 A2994 RMK AO2,M
RNO,2023-06-14 23:55,-119.7711,39.4839,1341.00,79.00,45.00,30.05,290.00,13.00,0.00,29.90,1007.70,10.00,M,SCT,BKN,M,M,8500.00,25000.00,M,M,M,M,M,M,M,M,M,79.00,KRNO 142355Z 29013KT 10SM SCT085 BKN250 26/07 A2990 RMK AO2 SLP077 T02610072 10283 20211 56012,M
RTS,2023-06-14 23:55,-119.8764,39.6682,1539.00,71.60,48.20,43.42,280.00,14.00,0.00,29.96,M,10.00,M,CLR,M,M,M,M,M,M,M,M,M,M,M,M,M,M,71.60,KRTS 142355Z AUTO 28014KT 10SM CLR 22/09 A2996 RMK AO2,M
MEV,2023-06-14 23:55,-119.7500,38.9963,1441.42,77.00,46.40,33.85,300.00,14.00,0.00,29.93,M,10.00,19.00,CLR,M,M,M,M,M,M,M,M,M,M,M,M,M,M,77.00,KMEV 142355Z AUTO 30014G19KT 10SM CLR 25/08 A2993 RMK AO2,M
BAM,2023-06-14 23:55,-116.8743,40.5990,1382.36,77.00,44.60,31.62,320.00,20.00,0.00,29.88,M,10.00,28.00,CLR,M,M,M,M,M,M,M,M,M,M,M,M,M,M,77.00,KBAM 142355Z AUTO 32020G28KT 10SM CLR 25/07 A2988 RMK AO1,M
HTH,2023-06-14 23:55,-118.6315,38.5448,1282.89,80.60,44.60,28.08,340.00,10.00,0.00,29.85,M,10.00,16.00,CLR,M,M,M,M,M,M,M,M,M,M,M,M,M,M,79.42,KHTH 142355Z AUTO 34010G16KT 10SM CLR 27/07 A2985 RMK A01,M
TMT,2023-06-14 23:55,-117.1971,39.4643,1749.34,68.00,46.00,45.19,330.00,6.00,0.00,29.96,M,10.00,M,OVC,M,M,M,11000.00,M,M,M,VCTS,M,M,M,M,M,M,68.00,KTMT 142355Z AUTO 33006KT 10SM VCTS OVC110 20/08 A2996 RMK AO2 LTG DSNT E THRU SW T02000078 10236 20190,M
LSV,2023-06-14 23:55,-115.0343,36.2362,570.00,92.80,43.00,17.91,270.00,22.00,0.00,29.66,1002.00,10.00,M,CLR,M,M,M,M,M,M,M,M,M,M,M,32.00,270.00,2023-06-14 23:08,88.82,KLSV 142355Z AUTO 27022KT 10SM CLR 34/06 A2966 RMK AO2 PK WND 27032/08 SLP020 T03380061 10378 20328 56017 $,M
INS,2023-06-14 23:55,-115.6733,36.5872,955.00,80.20,40.00,23.93,100.00,5.00,0.00,29.82,1005.70,10.00,M,FEW,BKN,BKN,BKN,8000.00,11000.00,15000.00,17000.00,M,M,M,M,M,M,M,78.93,KINS 142355Z AUTO 10005KT 10SM FEW080 BKN110 BKN150 BKN170 27/05 A2982 RMK AO2 SLP057 60000 T02680045 10296 20222 58015 $,M
EKO,2023-06-14 23:56,-115.7860,40.8242,1367.00,74.00,43.00,32.98,280.00,11.00,0.00,29.88,1007.10,10.00,19.00,CLR,M,M,M,M,M,M,M,M,M,M,M,M,M,M,73.90,KEKO 142356Z AUTO 28011G19KT 10SM CLR 23/06 A2988 RMK AO2 SLP071 T02330061 10244 20183 56017,M
WMC,2023-06-14 23:56,-117.8072,40.9019,1315.00,76.00,37.00,24.43,330.00,11.00,0.00,29.89,1008.30,10.00,M,CLR,M,M,M,M,M,M,M,M,M,M,M,M,M,M,75.90,KWMC 142356Z AUTO 33011KT 10SM CLR 24/03 A2989 RMK AO2 SLP083 T02440028 10261 20217 56014,M
TPH,2023-06-14 23:56,-117.0904,38.0505,1654.00,69.00,48.00,46.92,270.00,15.00,0.00,29.92,1007.20,10.00,M,CLR,M,M,M,M,M,M,M,VCTS,M,M,M,27.00,300.00,2023-06-14 23:31,69.10,KTPH 142356Z AUTO 27015KT 10SM VCTS CLR 21/09 A2992 RMK AO2 PK WND 30027/2331 LTG DSNT SW AND W TSB39E54 SLP072 6//// T02060089 10244 20161 58014 PNO $,M
NFL,2023-06-14 23:56,-118.7010,39.4166,1199.00,83.00,42.00,23.68,360.00,10.00,0.00,29.84,1008.10,10.00,19.00,SCT,SCT,BKN,BKN,7000.00,15000.00,18000.00,22000.00,M,M,M,M,M,M,M,80.68,KNFL 142356Z 36010G19KT 10SM SCT070 SCT150 BKN180 BKN220 28/06 A2984 RMK AO2 SLP081 T02830056 10294 20228 56020,M
HND,2023-06-14 23:56,-115.1344,35.9729,742.79,89.00,44.00,20.97,350.00,12.00,0.00,29.76,1006.60,10.00,M,CLR,M,M,M,M,M,M,M,M,M,M,M,M,M,M,85.59,KHND 142356Z 35012KT 10SM CLR 32/07 A2976 RMK AO2 WSHFT 2259 LTG DSNT S SLP066 T03170067 10339 20311 56014,M
LAS,2023-06-14 23:56,-115.1634,36.0719,663.00,89.00,44.00,20.97,320.00,15.00,0.00,29.72,1004.00,10.00,24.00,BKN,BKN,M,M,11000.00,22000.00,M,M,M,M,M,M,31.00,340.00,2023-06-14 23:06,85.59,KLAS 142356Z 32015G24KT 10SM BKN110 BKN220 32/07 A2972 RMK AO2 PK WND 34031/2306 LTG DSNT S SLP040 CB DSNT W-N-NE T03170067 10344 20306 58013,M
