station,valid,lon,lat,elevation,tmpf,dwpf,relh,drct,sknt,p01i,alti,mslp,vsby,gust,skyc1,skyc2,skyc3,skyc4,skyl1,skyl2,skyl3,skyl4,wxcodes,ice_accretion_1hr,ice_accretion_3hr,ice_accretion_6hr,peak_wind_gust,peak_wind_drct,peak_wind_time,feel,metar,snowdepth
10U,2024-01-21 00:10,-116.1876,41.9532,1637.00,39.20,30.20,69.88,180.00,7.00,0.00,29.76,M,10.00,M,BKN,M,M,M,12000.00,M,M,M,M,M,M,M,M,M,M,33.56,K10U 210010Z AUTO 18007KT 10SM BKN120 04/M01 A2976 RMK AO2,M
BVU,2024-01-21 00:15,-114.8611,35.9475,671.00,60.80,33.80,36.16,100.00,7.00,0.00,29.82,M,10.00,M,SCT,BKN,M,M,7000.00,8500.00,M,M,M,M,M,M,M,M,M,60.80,KBVU 210015Z AUTO 10007KT 10SM SCT070 BKN085 16/01 A2982 RMK AO2,M
CXP,2024-01-21 00:15,-119.7326,39.1923,1431.00,50.00,23.00,34.39,210.00,9.00,0.00,29.73,M,10.00,16.00,BKN,M,M,M,6000.00,M,M,M,M,M,M,M,M,M,M,50.00,KCXP 210015Z AUTO 21009G16KT 170V230 10SM BKN060 10/M05 A2973 RMK AO2,M
RTS,2024-01-21 00:15,-119.8764,39.6682,1539.00,44.60,32.00,61.03,230.00,16.00,0.00,29.72,M,10.00,21.00,BKN,BKN,M,M,7500.00,8500.00,M,M,M,M,M,M,M,M,M,36.84,KRTS 210015Z AUTO 23016G21KT 10SM BKN075 BKN085 07/M00 A2972 RMK AO2,M
05U,2024-01-21 00:15,-116.0051,39.6042,1811.23,41.00,32.00,70.08,320.00,10.00,0.00,29.81,M,10.00,M,M,M,M,M,M,M,M,M,M,M,M,M,M,M,M,34.25,K05U 210015Z AUTO 32010KT 10SM 05/00 A2981 RMK A01,M
MEV,2024-01-21 00:15,-119.7500,38.9963,1441.42,46.40,30.20,53.00,160.00,16.00,0.00,29.72,M,10.00,M,BKN,BKN,M,M,7000.00,7500.00,M,M,M,M,M,M,M,M,M,39.19,KMEV 210015Z AUTO 16016KT 10SM BKN070 BKN075 08/M01 A2972 RMK AO2,M
BAM,2024-01-21 00:15,-116.8743,40.5990,1382.36,51.80,37.40,57.77,10.00,3.00,0.00,29.75,M,10.00,M,OVC,M,M,M,11000.00,M,M,M,M,M,M,M,M,M,M,51.80,KBAM 210015Z AUTO 01003KT 10SM OVC110 11/03 A2975 RMK AO1,M
HTH,2024-01-21 00:15,-118.6315,38.5448,1282.89,55.40,19.40,24.21,210.00,13.00,0.00,29.71,M,10.00,M,CLR,M,M,M,M,M,M,M,M,M,M,M,M,M,M,55.40,KHTH 210015Z AUTO 21013KT 10SM CLR 13/M07 A2971 RMK A01,M
TMT,2024-01-21 00:15,-117.1971,39.4643,1749.34,41.00,31.00,67.30,150.00,5.00,0.00,29.77,M,10.00,M,OVC,M,M,M,8000.00,M,M,M,M,M,M,M,M,M,M,37.08,KTMT 210015Z AUTO 15005KT 10SM OVC080 05/M01 A2977 RMK AO2 T00491006,M
BVU,2024-01-21 00:35,-114.8611,35.9475,671.00,60.80,33.80,36.16,130.00,6.00,0.00,29.82,M,10.00,M,FEW,OVC,M,M,4800.00,7000.00,M,M,M,M,M,M,M,M,M,60.80,KBVU 210035Z AUTO 13006KT 10SM FEW048 OVC070 16/01 A2982 RMK AO2,M
CXP,2024-01-21 00:35,-119.7326,39.1923,1431.00,48.20,28.40,46.02,190.00,11.00,0.00,29.73,M,10.00,M,OVC,M,M,M,6000.00,M,M,M,M,M,M,M,M,M,M,42.94,KCXP 210035Z AUTO 19011KT 10SM OVC060 09/M02 A2973 RMK AO2,M
RTS,2024-01-21 00:35,-119.8764,39.6682,1539.00,44.60,30.20,56.74,220.00,14.00,0.00,29.72,M,10.00,M,BKN,BKN,M,M,7000.00,8000.00,M,M,M,M,M,M,M,M,M,37.40,KRTS 210035Z AUTO 22014KT 10SM BKN070 BKN080 07/M01 A2972 RMK AO2,M
05U,2024-01-21 00:35,-116.0051,39.6042,1811.23,41.00,32.00,70.08,320.00,8.00,0.00,29.81,M,10.00,M,M,M,M,M,M,M,M,M,M,M,M,M,M,M,M,35.20,K05U 210035Z AUTO 32008KT 10SM 05/00 A2981 RMK A01,M
MEV,2024-01-21 00:35,-119.7500,38.9963,1441.42,46.40,30.20,53.00,160.00,16.00,0.00,29.72,M,10.00,21.00,OVC,M,M,M,6500.00,M,M,M,M,M,M,M,M,M,M,39.19,KMEV 210035Z AUTO 16016G21KT 10SM OVC065 08/M01 A2972 RMK AO2,M
BAM,2024-01-21 00:35,-116.8743,40.5990,1382.36,50.00,35.60,57.52,340.00,3.00,0.00,29.75,M,10.00,M,OVC,M,M,M,11000.00,M,M,M,M,M,M,M,M,M,M,50.00,KBAM 210035Z AUTO 34003KT 10SM OVC110 10/02 A2975 RMK AO1,M
HTH,2024-01-21 00:35,-118.6315,38.5448,1282.89,55.40,17.60,22.41,200.00,9.00,0.00,29.71,M,10.00,15.00,CLR,M,M,M,M,M,M,M,M,M,M,M,M,M,M,55.40,KHTH 210035Z AUTO 20009G15KT 10SM CLR 13/M08 A2971 RMK A01,M
10U,2024-01-21 00:35,-116.1876,41.9532,1637.00,39.20,30.20,69.88,0.00,0.00,0.00,29.76,M,10.00,M,BKN,M,M,M,11000.00,M,M,M,M,M,M,M,M,M,M,39.20,K10U 210035Z AUTO 00000KT 10SM BKN110 04/M01 A2976 RMK AO2,M
P68,2024-01-21 00:53,-116.0056,39.6014,1993.00,38.00,32.00,78.77,160.00,7.00,0.00,29.78,1006.40,M,M,M,M,M,M,M,M,M,M,M,M,M,M,M,M,M,32.09,KP68 210053Z AUTO 16007KT 03/00 A2978 RMK AO1 SLP064 T00330000,M
DRA,2024-01-21 00:53,-116.0278,36.6206,1009.00,56.00,34.00,43.30,210.00,11.00,0.00,29.81,1007.20,10.00,M,FEW,M,M,M,6500.00,M,M,M,M,M,M,M,M,M,M,56.00,KDRA 210053Z AUTO 21011KT 10SM FEW065 13/01 A2981 RMK AO2 SLP072 T01330011,M
ELY,2024-01-21 00:53,-114.8453,39.2950,1909.00,36.00,30.00,78.60,220.00,6.00,0.00,29.83,1008.30,10.00,M,SCT,M,M,M,6000.00,M,M,M,M,M,M,M,M,M,M,30.35,KELY 210053Z AUTO 22006KT 10SM SCT060 02/M01 A2983 RMK AO2 SLP083 T00221011,M
VGT,2024-01-21 00:53,-115.1933,36.2111,667.00,58.00,34.00,40.28,80.00,4.00,0.00,29.82,1011.10,10.00,M,BKN,OVC,M,M,7000.00,10000.00,M,M,M,M,M,M,M,M,M,58.00,KVGT 210053Z 08004KT 10SM BKN070 OVC100 14/01 A2982 RMK AO2 SLP111 T01440011,M
LOL,2024-01-21 00:53,-118.5701,40.0684,1192.43,48.00,33.00,55.87,180.00,5.00,0.00,29.69,1005.60,10.00,M,CLR,M,M,M,M,M,M,M,M,M,M,M,M,M,M,45.40,KLOL 210053Z AUTO 18005KT 10SM CLR 09/01 A2969 RMK AO2 SLP056 T00890006,M
BVU,2024-01-21 00:55,-114.8611,35.9475,671.00,60.80,33.80,36.16,80.00,5.00,0.00,29.82,M,10.00,M,FEW,BKN,OVC,M,4600.00,6500.00,7500.00,M,M,M,M,M,M,M,M,60.80,KBVU 210055Z AUTO 08005KT 10SM FEW046 BKN065 OVC075 16/01 A2982 RMK AO2,M
CXP,2024-01-21 00:55,-119.7326,39.1923,1431.00,46.40,28.40,49.24,200.00,8.00,0.00,29.73,M,10.00,16.00,OVC,M,M,M,5500.00,M,M,M,M,M,M,M,M,M,M,41.85,KCXP 210055Z AUTO 20008G16KT 180V240 10SM OVC055 08/M02 A2973 RMK AO2,M
INS,2024-01-21 00:55,-115.6733,36.5872,955.00,53.60,31.60,42.91,90.00,9.00,0.00,29.79,1007.20,10.00,M,OVC,M,M,M,12000.00,M,M,M,M,M,M,M,M,M,M,53.60,KINS 210055Z AUTO 09009KT 10SM OVC120 12/M00 A2979 RMK AO2 SLP072 T01201002,M
RNO,2024-01-21 00:55,-119.7711,39.4839,1341.00,49.00,29.00,45.77,190.00,8.00,0.00,29.70,1004.20,10.00,M,FEW,SCT,BKN,BKN,4500.00,7500.00,13000.00,21000.00,M,M,M,M,M,M,M,45.05,KRNO 210055Z 19008KT 10SM FEW045 SCT075 BKN130 BKN210 09/M02 A2970 RMK AO2 SLP042 SH DSNT SW THRU NW T00941017,M
RTS,2024-01-21 00:55,-119.8764,39.6682,1539.00,42.80,30.20,60.79,210.00,10.00,0.00,29.71,M,10.00,16.00,BKN,BKN,BKN,M,7000.00,8000.00,11000.00,M,M,M,M,M,M,M,M,36.51,KRTS 210055Z AUTO 21010G16KT 10SM BKN070 BKN080 BKN110 06/M01 A2971 RMK AO2,M
05U,2024-01-21 00:55,-116.0051,39.6042,1811.23,39.20,32.00,75.16,320.00,6.00,0.00,29.81,M,10.00,M,M,M,M,M,M,M,M,M,M,M,M,M,M,M,M,34.20,K05U 210055Z AUTO 32006KT 10SM 04/M00 A2981 RMK A01,M
MEV,2024-01-21 00:55,-119.7500,38.9963,1441.42,44.60,28.40,52.72,160.00,7.00,0.00,29.72,M,10.00,15.00,BKN,BKN,M,M,7000.00,7500.00,M,M,M,M,M,M,M,M,M,40.14,KMEV 210055Z AUTO 16007G15KT 10SM BKN070 BKN075 07/M02 A2972 RMK AO2,M
BAM,2024-01-21 00:55,-116.8743,40.5990,1382.36,51.80,33.80,50.08,0.00,0.00,0.00,29.75,M,10.00,M,OVC,M,M,M,11000.00,M,M,M,M,M,M,M,M,M,M,51.80,KBAM 210055Z AUTO 00000KT 10SM OVC110 11/01 A2975 RMK AO1,M
HTH,2024-01-21 00:55,-118.6315,38.5448,1282.89,55.40,15.80,20.73,210.00,11.00,0.00,29.71,M,10.00,16.00,CLR,M,M,M,M,M,M,M,M,M,M,M,M,M,M,55.40,KHTH 210055Z AUTO 21011G16KT 10SM CLR 13/M09 A2971 RMK A01,M
10U,2024-01-21 00:55,-116.1876,41.9532,1637.00,37.40,30.20,74.98,0.00,0.00,0.00,29.76,M,10.00,M,SCT,BKN,OVC,M,7000.00,10000.00,12000.00,M,M,M,M,M,M,M,M,37.40,K10U 210055Z AUTO 00000KT 10SM SCT070 BKN100 OVC120 03/M01 A2976 RMK AO2,M
LSV,2024-01-21 00:55,-115.0343,36.2362,570.00,57.20,34.30,41.96,170.00,4.00,0.00,29.80,1008.70,10.00,M,BKN,OVC,M,M,7000.00,8000.00,M,M,M,M,M,M,M,M,M,57.20,KLSV 210055Z 17004KT 10SM BKN070 OVC080 14/01 A2980 RMK AO2A SLP087 T01400013 $,M
TMT,2024-01-21 00:55,-117.1971,39.4643,1749.34,40.00,31.00,69.97,230.00,8.00,0.00,29.77,M,10.00,M,OVC,M,M,M,8000.00,M,M,M,M,M,M,M,M,M,M,33.97,KTMT 210055Z AUTO 23008KT 10SM OVC080 05/00 A2977 RMK AO2 T00451005,M
EKO,2024-01-21 00:56,-115.7860,40.8242,1367.00,44.00,32.00,62.44,0.00,0.00,0.00,29.77,1008.20,10.00,M,CLR,M,M,M,M,M,M,M,M,M,M,M,M,M,M,44.00,KEKO 210056Z AUTO 00000KT 10SM CLR 07/00 A2977 RMK AO2 SLP082 T00670000,M
NFL,2024-01-21 00:56,-118.7010,39.4166,1199.00,51.00,27.00,39.14,0.00,0.00,0.00,29.70,1003.80,10.00,M,FEW,SCT,BKN,BKN,5000.00,10000.00,12000.00,16000.00,M,M,M,M,M,M,M,51.00,KNFL 210056Z 00000KT 10SM FEW050 SCT100 BKN120 BKN160 11/M03 A2970 RMK AO2 SLP038 ACSL DSNT SW-NW T01061028,M
HND,2024-01-21 00:56,-115.1344,35.9729,742.79,55.00,37.00,50.58,30.00,3.00,T,29.84,1012.00,10.00,M,OVC,M,M,M,7000.00,M,M,M,-RA,M,M,M,M,M,M,55.00,KHND 210056Z 03003KT 10SM -RA OVC070 13/03 A2984 RMK AO2 RAB42 SLP120 P0000 T01280028,M
TPH,2024-01-21 00:56,-117.0904,38.0505,1654.00,46.00,34.00,62.71,170.00,12.00,0.00,29.81,1007.60,10.00,M,BKN,OVC,M,M,3600.00,4300.00,M,M,M,M,M,M,M,M,M,39.82,KTPH 210056Z AUTO 17012KT 10SM BKN036 OVC043 08/01 A2981 RMK AO2 SLP076 T00780011,M
LAS,2024-01-21 00:56,-115.1634,36.0719,663.00,57.00,39.00,50.88,170.00,3.00,T,29.83,1009.40,10.00,M,BKN,OVC,M,M,7000.00,20000.00,M,M,-RA,M,M,M,M,M,M,57.00,KLAS 210056Z 17003KT 10SM -RA BKN070 OVC200 14/04 A2983 RMK AO2 RAB40 SLP094 P0000 T01390039,M
WMC,2024-01-21 00:56,-117.8072,40.9019,1315.00,47.00,36.00,65.38,180.00,8.00,0.00,29.71,1005.20,10.00,M,FEW,M,M,M,11000.00,M,M,M,M,M,M,M,M,M,M,42.59,KWMC 210056Z AUTO 18008KT 10SM FEW110 08/02 A2971 RMK AO2 SLP052 T00830022,M
05U,2024-01-21 01:10,-116.0051,39.6042,1811.23,39.20,32.00,75.16,330.00,6.00,0.00,29.81,M,10.00,M,M,M,M,M,M,M,M,M,M,M,M,M,M,M,M,34.20,K05U 210110Z AUTO 33006KT 10SM 04/M00 A2981 RMK A01,M
HTH,2024-01-21 01:10,-118.6315,38.5448,1282.89,53.60,15.80,22.13,200.00,10.00,0.00,29.71,M,10.00,M,SCT,M,M,M,12000.00,M,M,M,M,M,M,M,M,M,M,53.60,KHTH 210110Z AUTO 20010KT 10SM SCT120 12/M09 A2971 RMK A01,M
10U,2024-01-21 01:10,-116.1876,41.9532,1637.00,37.40,30.20,74.98,0.00,0.00,0.00,29.77,M,10.00,M,BKN,OVC,M,M,7000.00,9000.00,M,M,M,M,M,M,M,M,M,37.40,K10U 210110Z AUTO 00000KT 10SM BKN070 OVC090 03/M01 A2977 RMK AO2,M
BVU,2024-01-21 01:15,-114.8611,35.9475,671.00,60.80,33.80,36.16,70.00,5.00,0.00,29.82,M,10.00,M,SCT,BKN,OVC,M,4500.00,6000.00,7500.00,M,M,M,M,M,M,M,M,60.80,KBVU 210115Z AUTO 07005KT 10SM SCT045 BKN060 OVC075 16/01 A2982 RMK AO2,M
CXP,2024-01-21 01:15,-119.7326,39.1923,1431.00,46.40,30.20,53.00,M,5.00,0.00,29.73,M,10.00,13.00,OVC,M,M,M,5500.00,M,M,M,M,M,M,M,M,M,M,43.50,KCXP 210115Z AUTO VRB05G13KT 10SM OVC055 08/M01 A2973 RMK AO2,M
RTS,2024-01-21 01:15,-119.8764,39.6682,1539.00,42.80,30.20,60.79,190.00,8.00,0.00,29.71,M,10.00,M,FEW,FEW,FEW,M,7000.00,8000.00,11000.00,M,M,M,M,M,M,M,M,37.42,KRTS 210115Z AUTO 19008KT 10SM FEW070 FEW080 FEW110 06/M01 A2971 RMK AO2,M
MEV,2024-01-21 01:15,-119.7500,38.9963,1441.42,46.40,30.20,53.00,180.00,22.00,0.00,29.71,M,10.00,M,BKN,BKN,M,M,7000.00,8000.00,M,M,M,M,M,M,M,M,M,37.86,KMEV 210115Z AUTO 18022KT 10SM BKN070 BKN080 08/M01 A2971 RMK AO2,M
BAM,2024-01-21 01:15,-116.8743,40.5990,1382.36,50.00,33.80,53.54,0.00,0.00,0.00,29.75,M,10.00,M,BKN,M,M,M,11000.00,M,M,M,M,M,M,M,M,M,M,50.00,KBAM 210115Z AUTO 00000KT 10SM BKN110 10/01 A2975 RMK AO1,M
TMT,2024-01-21 01:15,-117.1971,39.4643,1749.34,37.00,30.70,77.73,140.00,5.00,0.00,29.78,M,10.00,M,SCT,OVC,M,M,7000.00,9000.00,M,M,M,M,M,M,M,M,M,32.33,KTMT 210115Z AUTO 14005KT 10SM SCT070 OVC090 03/M01 A2978 RMK AO2 T00271007,M
BVU,2024-01-21 01:35,-114.8611,35.9475,671.00,59.00,33.80,38.56,M,4.00,0.00,29.82,M,10.00,M,FEW,SCT,BKN,M,5000.00,7000.00,9500.00,M,M,M,M,M,M,M,M,59.00,KBVU 210135Z AUTO VRB04KT 10SM FEW050 SCT070 BKN095 15/01 A2982 RMK AO2,M
CXP,2024-01-21 01:35,-119.7326,39.1923,1431.00,44.60,28.40,52.72,190.00,7.00,0.00,29.74,M,10.00,M,SCT,BKN,M,M,5500.00,6500.00,M,M,M,M,M,M,M,M,M,40.14,KCXP 210135Z AUTO 19007KT 10SM SCT055 BKN065 07/M02 A2974 RMK AO2,M
RTS,2024-01-21 01:35,-119.8764,39.6682,1539.00,42.80,30.20,60.79,210.00,6.00,0.00,29.71,M,10.00,M,FEW,M,M,M,5500.00,M,M,M,M,M,M,M,M,M,M,38.54,KRTS 210135Z AUTO 21006KT 10SM FEW055 06/M01 A2971 RMK AO2,M
05U,2024-01-21 01:35,-116.0051,39.6042,1811.23,37.40,32.00,80.65,310.00,6.00,0.00,29.81,M,10.00,M,M,M,M,M,M,M,M,M,M,M,M,M,M,M,M,32.03,K05U 210135Z AUTO 31006KT 10SM 03/M00 A2981 RMK A01,M
MEV,2024-01-21 01:35,-119.7500,38.9963,1441.42,44.60,30.20,56.74,160.00,14.00,0.00,29.71,M,10.00,M,OVC,M,M,M,7000.00,M,M,M,M,M,M,M,M,M,M,37.40,KMEV 210135Z AUTO 16014KT 10SM OVC070 07/M01 A2971 RMK AO2,M
BAM,2024-01-21 01:35,-116.8743,40.5990,1382.36,46.40,35.60,65.83,80.00,4.00,0.00,29.75,M,10.00,M,SCT,M,M,M,11000.00,M,M,M,M,M,M,M,M,M,M,44.24,KBAM 210135Z AUTO 08004KT 10SM SCT110 08/02 A2975 RMK AO1,M
HTH,2024-01-21 01:35,-118.6315,38.5448,1282.89,53.60,17.60,23.93,210.00,8.00,0.00,29.72,M,10.00,13.00,BKN,M,M,M,11000.00,M,M,M,M,M,M,M,M,M,M,53.60,KHTH 210135Z AUTO 21008G13KT 10SM BKN110 12/M08 A2972 RMK A01,M
10U,2024-01-21 01:35,-116.1876,41.9532,1637.00,37.40,30.20,74.98,0.00,0.00,0.00,29.77,M,10.00,M,BKN,OVC,M,M,7000.00,8000.00,M,M,M,M,M,M,M,M,M,37.40,K10U 210135Z AUTO 00000KT 10SM BKN070 OVC080 03/M01 A2977 RMK AO2,M
TMT,2024-01-21 01:35,-117.1971,39.4643,1749.34,37.80,30.00,73.21,160.00,3.00,0.00,29.78,M,10.00,M,BKN,M,M,M,9000.00,M,M,M,M,M,M,M,M,M,M,35.32,KTMT 210135Z AUTO 16003KT 10SM BKN090 03/M01 A2978 RMK AO2 T00321011,M
10U,2024-01-21 01:50,-116.1876,41.9532,1637.00,37.40,30.20,74.98,0.00,0.00,0.00,29.77,M,10.00,M,OVC,M,M,M,7000.00,M,M,M,M,M,M,M,M,M,M,37.40,K10U 210150Z AUTO 00000KT 10SM OVC070 03/M01 A2977 RMK AO2,M
LSV,2024-01-21 01:51,-115.0343,36.2362,570.00,55.40,39.20,54.34,0.00,0.00,0.00,29.81,1010.40,10.00,M,BKN,M,M,M,6500.00,M,M,M,-DZ,M,M,M,M,M,M,55.40,KLSV 210151Z 00000KT 10SM -DZ BKN065 13/04 A2981 RMK AO2A SLP104 $,M
P68,2024-01-21 01:53,-116.0056,39.6014,1993.00,37.00,31.00,78.69,110.00,6.00,0.00,29.79,1006.90,M,M,M,M,M,M,M,M,M,M,M,M,M,M,M,M,M,31.55,KP68 210153Z AUTO 11006KT 03/M01 A2979 RMK AO1 SLP069 T00281006,M
DRA,2024-01-21 01:53,-116.0278,36.6206,1009.00,55.00,35.00,46.73,210.00,14.00,0.00,29.80,1007.20,10.00,25.00,BKN,M,M,M,12000.00,M,M,M,M,M,M,M,M,M,M,55.00,KDRA 210153Z AUTO 21014G25KT 10SM BKN120 13/02 A2980 RMK AO2 SLP072 T01280017,M
ELY,2024-01-21 01:53,-114.8453,39.2950,1909.00,36.00,30.00,78.60,190.00,9.00,0.00,29.84,1008.70,10.00,M,FEW,M,M,M,4700.00,M,M,M,M,M,M,M,M,M,M,28.49,KELY 210153Z AUTO 19009KT 10SM FEW047 02/M01 A2984 RMK AO2 SLP087 T00221011,M
VGT,2024-01-21 01:53,-115.1933,36.2111,667.00,56.00,40.00,54.85,50.00,3.00,T,29.83,1011.60,10.00,M,OVC,M,M,M,6000.00,M,M,M,-RA,M,M,M,M,M,M,56.00,KVGT 210153Z 05003KT 10SM -RA OVC060 13/04 A2983 RMK AO2 RAB06 SLP116 P0000 T01330044,M
LOL,2024-01-21 01:53,-118.5701,40.0684,1192.43,44.00,31.00,59.97,150.00,5.00,0.00,29.70,1005.90,10.00,M,CLR,M,M,M,M,M,M,M,M,M,M,M,M,M,M,40.65,KLOL 210153Z AUTO 15005KT 10SM CLR 07/M01 A2970 RMK AO2 SLP059 T00671006,M
BVU,2024-01-21 01:55,-114.8611,35.9475,671.00,59.00,33.80,38.56,140.00,5.00,0.00,29.82,M,10.00,M,SCT,OVC,M,M,7000.00,11000.00,M,M,M,M,M,M,M,M,M,59.00,KBVU 210155Z AUTO 14005KT 10SM SCT070 OVC110 15/01 A2982 RMK AO2,M
CXP,2024-01-21 01:55,-119.7326,39.1923,1431.00,44.60,30.20,56.74,210.00,5.00,0.00,29.73,M,10.00,M,BKN,OVC,M,M,6500.00,7500.00,M,M,M,M,M,M,M,M,M,41.36,KCXP 210155Z AUTO 21005KT 10SM BKN065 OVC075 07/M01 A2973 RMK AO2,M
INS,2024-01-21 01:55,-115.6733,36.5872,955.00,52.70,31.50,44.17,0.00,0.00,0.00,29.81,1007.90,10.00,M,BKN,OVC,M,M,9000.00,11000.00,M,M,M,M,M,M,M,M,M,52.70,KINS 210155Z AUTO 00000KT 10SM BKN090 OVC110 12/M00 A2981 RMK AO2 SLP079 T01151003,M
RNO,2024-01-21 01:55,-119.7711,39.4839,1341.00,48.00,29.00,47.52,170.00,17.00,0.00,29.70,1004.60,10.00,M,FEW,SCT,BKN,BKN,4500.00,7500.00,12000.00,21000.00,M,M,M,M,M,M,M,41.04,KRNO 210155Z 17017KT 10SM FEW045 SCT075 BKN120 BKN210 09/M02 A2970 RMK AO2 SLP046 T00891017,M
RTS,2024-01-21 01:55,-119.8764,39.6682,1539.00,42.80,28.40,56.48,180.00,7.00,0.00,29.70,M,10.00,M,SCT,BKN,BKN,M,4900.00,6000.00,7000.00,M,M,M,M,M,M,M,M,37.94,KRTS 210155Z AUTO 18007KT 10SM SCT049 BKN060 BKN070 06/M02 A2970 RMK AO2,M
05U,2024-01-21 01:55,-116.0051,39.6042,1811.23,37.40,32.00,80.65,280.00,6.00,0.00,29.82,M,10.00,M,M,M,M,M,M,M,M,M,M,M,M,M,M,M,M,32.03,K05U 210155Z AUTO 28006KT 10SM 03/M00 A2982 RMK A01,M
MEV,2024-01-21 01:55,-119.7500,38.9963,1441.42,44.60,28.40,52.72,170.00,19.00,0.00,29.71,M,10.00,M,OVC,M,M,M,7000.00,M,M,M,M,M,M,M,M,M,M,36.10,KMEV 210155Z AUTO 17019KT 10SM OVC070 07/M02 A2971 RMK AO2,M
BAM,2024-01-21 01:55,-116.8743,40.5990,1382.36,44.60,35.60,70.48,70.00,4.00,0.00,29.75,M,10.00,M,SCT,M,M,M,12000.00,M,M,M,M,M,M,M,M,M,M,42.13,KBAM 210155Z AUTO 07004KT 10SM SCT120 07/02 A2975 RMK AO1,M
HTH,2024-01-21 01:55,-118.6315,38.5448,1282.89,53.60,19.40,25.85,200.00,12.00,0.00,29.72,M,10.00,17.00,SCT,M,M,M,11000.00,M,M,M,M,M,M,M,M,M,M,53.60,KHTH 210155Z AUTO 20012G17KT 10SM SCT110 12/M07 A2972 RMK A01,M
TMT,2024-01-21 01:55,-117.1971,39.4643,1749.34,38.30,29.30,69.77,190.00,5.00,0.00,29.78,M,10.00,M,SCT,M,M,M,9000.00,M,M,M,M,M,M,M,M,M,M,33.88,KTMT 210155Z AUTO 19005KT 10SM SCT090 04/M01 A2978 RMK AO2 T00351015,M
LSV,2024-01-21 01:55,-115.0343,36.2362,570.00,53.60,45.30,73.38,50.00,8.00,T,29.81,1011.00,10.00,M,OVC,M,M,M,6000.00,M,M,M,-RA,M,M,M,M,M,M,53.60,KLSV 210155Z 05008KT 10SM -RA OVC060 12/07 A2981 RMK AO2A RAB0113E0115E0124B0158 SLP110 P0000 T01200074 $,M
EKO,2024-01-21 01:56,-115.7860,40.8242,1367.00,44.00,32.00,62.44,270.00,7.00,0.00,29.77,1008.10,10.00,M,CLR,M,M,M,M,M,M,M,M,M,M,M,M,M,M,39.41,KEKO 210156Z AUTO 27007KT 200V300 10SM CLR 07/00 A2977 RMK AO2 SLP081 T00670000,M
NFL,2024-01-21 01:56,-118.7010,39.4166,1199.00,50.00,26.00,38.97,0.00,0.00,0.00,29.70,1003.90,10.00,M,FEW,SCT,BKN,OVC,5000.00,9000.00,12000.00,16000.00,M,M,M,M,M,M,M,50.00,KNFL 210156Z 00000KT 10SM FEW050 SCT090 BKN120 OVC160 10/M03 A2970 RMK AO2 SLP039 ACSL DSNT SW-NW T01001033,M
HND,2024-01-21 01:56,-115.1344,35.9729,742.79,53.00,41.00,63.61,180.00,3.00,T,29.86,1012.40,10.00,M,BKN,BKN,OVC,M,7500.00,9000.00,11000.00,M,M,M,M,M,M,M,M,53.00,KHND 210156Z 18003KT 10SM BKN075 BKN090 OVC110 12/05 A2986 RMK AO2 RAE10B30E45 SLP124 P0000 T01170050,M
TPH,2024-01-21 01:56,-117.0904,38.0505,1654.00,45.00,34.00,65.13,170.00,10.00,0.00,29.81,1008.10,10.00,M,FEW,OVC,M,M,3300.00,5500.00,M,M,M,M,M,M,M,M,M,39.27,KTPH 210156Z AUTO 17010KT 10SM FEW033 OVC055 07/01 A2981 RMK AO2 SLP081 T00720011,M
LAS,2024-01-21 01:56,-115.1634,36.0719,663.00,55.00,43.00,63.86,150.00,6.00,0.01,29.83,1009.50,10.00,M,OVC,M,M,M,7000.00,M,M,M,M,M,M,M,M,M,M,55.00,KLAS 210156Z 15006KT 10SM OVC070 13/06 A2983 RMK AO2 RAE48 SLP095 P0001 T01280061,M
WMC,2024-01-21 01:56,-117.8072,40.9019,1315.00,46.00,35.00,65.26,180.00,9.00,0.00,29.71,1005.30,10.00,M,FEW,M,M,M,10000.00,M,M,M,M,M,M,M,M,M,M,40.92,KWMC 210156Z AUTO 18009KT 10SM FEW100 08/02 A2971 RMK AO2 SLP053 T00780017,M
BVU,2024-01-21 02:15,-114.8611,35.9475,671.00,59.00,33.80,38.56,0.00,0.00,0.00,29.83,M,10.00,M,SCT,OVC,M,M,7500.00,10000.00,M,M,M,M,M,M,M,M,M,59.00,KBVU 210215Z AUTO 00000KT 10SM SCT075 OVC100 15/01 A2983 RMK AO2,M
CXP,2024-01-21 02:15,-119.7326,39.1923,1431.00,46.40,30.20,53.00,210.00,7.00,0.00,29.74,M,10.00,M,OVC,M,M,M,6000.00,M,M,M,M,M,M,M,M,M,M,42.33,KCXP 210215Z AUTO 21007KT 10SM OVC060 08/M01 A2974 RMK AO2,M
RTS,2024-01-21 02:15,-119.8764,39.6682,1539.00,42.80,28.40,56.48,190.00,7.00,0.00,29.71,M,10.00,M,FEW,SCT,BKN,M,3000.00,4900.00,6000.00,M,M,M,M,M,M,M,M,37.94,KRTS 210215Z AUTO 19007KT 10SM FEW030 SCT049 BKN060 06/M02 A2971 RMK AO2,M
05U,2024-01-21 02:15,-116.0051,39.6042,1811.23,37.40,32.00,80.65,310.00,5.00,0.00,29.82,M,10.00,M,M,M,M,M,M,M,M,M,M,M,M,M,M,M,M,32.81,K05U 210215Z AUTO 31005KT 10SM 03/M00 A2982 RMK A01,M
MEV,2024-01-21 02:15,-119.7500,38.9963,1441.42,44.60,28.40,52.72,160.00,16.00,0.00,29.71,M,10.00,23.00,SCT,BKN,M,M,5000.00,6500.00,M,M,M,M,M,M,M,M,M,36.84,KMEV 210215Z AUTO 16016G23KT 10SM SCT050 BKN065 07/M02 A2971 RMK AO2,M
BAM,2024-01-21 02:15,-116.8743,40.5990,1382.36,44.60,35.60,70.48,0.00,0.00,0.00,29.75,M,10.00,M,CLR,M,M,M,M,M,M,M,M,M,M,M,M,M,M,44.60,KBAM 210215Z AUTO 00000KT 10SM CLR 07/02 A2975 RMK AO1,M
HTH,2024-01-21 02:15,-118.6315,38.5448,1282.89,53.60,19.40,25.85,190.00,13.00,0.00,29.73,M,10.00,20.00,SCT,M,M,M,11000.00,M,M,M,M,M,M,M,M,M,M,53.60,KHTH 210215Z AUTO 19013G20KT 10SM SCT110 12/M07 A2973 RMK A01,M
10U,2024-01-21 02:15,-116.1876,41.9532,1637.00,35.60,30.20,80.51,0.00,0.00,0.00,29.77,M,10.00,M,FEW,BKN,OVC,M,4600.00,6000.00,7000.00,M,M,M,M,M,M,M,M,35.60,K10U 210215Z AUTO 00000KT 10SM FEW046 BKN060 OVC070 02/M01 A2977 RMK AO2,M
TMT,2024-01-21 02:15,-117.1971,39.4643,1749.34,35.20,28.40,76.00,190.00,4.00,0.00,29.77,M,10.00,M,SCT,M,M,M,9000.00,M,M,M,M,M,M,M,M,M,M,31.16,KTMT 210215Z AUTO 19004KT 10SM SCT090 02/M02 A2977 RMK AO2 T00181020,M
LSV,2024-01-21 02:20,-115.0343,36.2362,570.00,53.60,45.30,73.38,40.00,5.00,T,29.80,1011.00,10.00,M,OVC,M,M,M,6000.00,M,M,M,M,M,M,M,M,M,M,53.60,KLSV 210220Z 04005KT 10SM OVC060 12/07 A2980 RMK AO2A RAB0113E0115E0124B0158E0218 SLP110 P0000 T01200074 $,M
BVU,2024-01-21 02:35,-114.8611,35.9475,671.00,59.00,33.80,38.56,160.00,3.00,0.00,29.83,M,10.00,M,BKN,OVC,M,M,7000.00,8500.00,M,M,M,M,M,M,M,M,M,59.00,KBVU 210235Z AUTO 16003KT 10SM BKN070 OVC085 15/01 A2983 RMK AO2,M
CXP,2024-01-21 02:35,-119.7326,39.1923,1431.00,44.60,30.20,56.74,200.00,7.00,0.00,29.74,M,10.00,13.00,BKN,OVC,M,M,6000.00,7000.00,M,M,M,M,M,M,M,M,M,40.14,KCXP 210235Z AUTO 20007G13KT 10SM BKN060 OVC070 07/M01 A2974 RMK AO2,M
RTS,2024-01-21 02:35,-119.8764,39.6682,1539.00,42.80,30.20,60.79,200.00,7.00,0.00,29.72,M,10.00,M,FEW,BKN,OVC,M,3200.00,4800.00,5500.00,M,M,M,M,M,M,M,M,37.94,KRTS 210235Z AUTO 20007KT 10SM FEW032 BKN048 OVC055 06/M01 A2972 RMK AO2,M
05U,2024-01-21 02:35,-116.0051,39.6042,1811.23,37.40,32.00,80.65,330.00,9.00,0.00,29.81,M,10.00,M,M,M,M,M,M,M,M,M,M,M,M,M,M,M,M,30.23,K05U 210235Z AUTO 33009KT 10SM 03/M00 A2981 RMK A01,M
MEV,2024-01-21 02:35,-119.7500,38.9963,1441.42,46.40,28.40,49.24,190.00,19.00,0.00,29.72,M,10.00,27.00,FEW,FEW,BKN,M,5000.00,6000.00,7000.00,M,M,M,M,M,M,M,M,38.48,KMEV 210235Z AUTO 19019G27KT 10SM FEW050 FEW060 BKN070 08/M02 A2972 RMK AO2,M
BAM,2024-01-21 02:35,-116.8743,40.5990,1382.36,42.80,35.60,75.50,0.00,0.00,0.00,29.75,M,10.00,M,CLR,M,M,M,M,M,M,M,M,M,M,M,M,M,M,42.80,KBAM 210235Z AUTO 00000KT 10SM CLR 06/02 A2975 RMK AO1,M
HTH,2024-01-21 02:35,-118.6315,38.5448,1282.89,51.80,21.20,29.82,200.00,16.00,0.00,29.72,M,10.00,M,OVC,M,M,M,11000.00,M,M,M,M,M,M,M,M,M,M,51.80,KHTH 210235Z AUTO 20016KT 10SM OVC110 11/M06 A2972 RMK A01,M
10U,2024-01-21 02:35,-116.1876,41.9532,1637.00,35.60,30.20,80.51,40.00,4.00,0.00,29.77,M,10.00,M,FEW,BKN,OVC,M,4400.00,5500.00,6500.00,M,M,M,M,M,M,M,M,31.62,K10U 210235Z AUTO 04004KT 10SM FEW044 BKN055 OVC065 02/M01 A2977 RMK AO2,M
TMT,2024-01-21 02:35,-117.1971,39.4643,1749.34,32.50,28.80,86.06,280.00,5.00,0.00,29.77,M,10.00,M,CLR,M,M,M,M,M,M,M,M,M,M,M,M,M,M,26.99,KTMT 210235Z AUTO 28005KT 10SM CLR 00/M02 A2977 RMK AO2 T00031018,M
P68,2024-01-21 02:53,-116.0056,39.6014,1993.00,40.00,32.00,72.85,170.00,12.00,0.00,29.78,1006.40,M,M,M,M,M,M,M,M,M,M,M,M,M,M,M,M,M,32.18,KP68 210253Z AUTO 17012KT 04/00 A2978 RMK AO1 SLP064 T00440000 57002,M
DRA,2024-01-21 02:53,-116.0278,36.6206,1009.00,54.00,36.00,50.42,190.00,9.00,0.00,29.81,1007.70,10.00,M,OVC,M,M,M,10000.00,M,M,M,M,M,M,M,M,M,M,54.00,KDRA 210253Z AUTO 19009KT 10SM OVC100 12/02 A2981 RMK AO2 SLP077 T01220022 51006,M
ELY,2024-01-21 02:53,-114.8453,39.2950,1909.00,37.00,31.00,78.69,210.00,11.00,0.00,29.85,1008.90,10.00,M,OVC,M,M,M,4700.00,M,M,M,M,M,M,M,M,M,M,28.79,KELY 210253Z AUTO 21011KT 10SM OVC047 03/M01 A2985 RMK AO2 SLP089 T00281006 53003,M
VGT,2024-01-21 02:53,-115.1933,36.2111,667.00,54.00,42.00,63.74,150.00,6.00,T,29.84,1011.80,10.00,M,BKN,OVC,M,M,8000.00,9500.00,M,M,M,M,M,M,M,M,M,54.00,KVGT 210253Z 15006KT 10SM BKN080 OVC095 12/06 A2984 RMK AO2 RAE16 SLP118 P0000 60000 T01220056 51007,M
LOL,2024-01-21 02:53,-118.5701,40.0684,1192.43,43.00,30.00,59.83,170.00,3.00,0.00,29.69,1006.20,10.00,M,FEW,M,M,M,12000.00,M,M,M,M,M,M,M,M,M,M,41.26,KLOL 210253Z AUTO 17003KT 10SM FEW120 06/M01 A2969 RMK AO2 SLP062 T00611011 56003,M
BVU,2024-01-21 02:55,-114.8611,35.9475,671.00,57.20,35.60,44.19,20.00,5.00,0.00,29.83,M,10.00,M,FEW,SCT,BKN,M,3400.00,6000.00,7500.00,M,M,M,M,M,M,M,M,57.20,KBVU 210255Z AUTO 02005KT 10SM FEW034 SCT060 BKN075 14/02 A2983 RMK AO2,M
CXP,2024-01-21 02:55,-119.7326,39.1923,1431.00,44.60,28.40,52.72,M,6.00,0.00,29.75,M,10.00,M,BKN,OVC,M,M,6500.00,7500.00,M,M,M,M,M,M,M,M,M,40.71,KCXP 210255Z AUTO VRB06KT 10SM BKN065 OVC075 07/M02 A2975 RMK AO2,M
INS,2024-01-21 02:55,-115.6733,36.5872,955.00,51.80,32.00,46.59,0.00,0.00,0.00,29.82,1008.50,10.00,M,OVC,M,M,M,6000.00,M,M,M,M,M,M,M,M,M,M,51.80,KINS 210255Z AUTO 00000KT 10SM OVC060 11/00 A2982 RMK AO2 SLP085 T01100001 53006,M
RNO,2024-01-21 02:55,-119.7711,39.4839,1341.00,47.00,30.00,51.39,190.00,9.00,0.00,29.71,1005.30,10.00,M,FEW,BKN,M,M,4000.00,7000.00,M,M,M,M,M,M,M,M,M,42.17,KRNO 210255Z 19009KT 10SM FEW040 BKN070 08/M01 A2971 RMK AO2 SLP053 SH VC T00831011 53003,M
RTS,2024-01-21 02:55,-119.8764,39.6682,1539.00,42.80,30.20,60.79,200.00,5.00,0.00,29.74,M,10.00,M,FEW,SCT,BKN,M,3200.00,4100.00,4800.00,M,M,M,M,M,M,M,M,39.22,KRTS 210255Z AUTO 20005KT 10SM FEW032 SCT041 BKN048 06/M01 A2974 RMK AO2,M
BAM,2024-01-21 02:55,-116.8743,40.5990,1382.36,41.00,35.60,80.93,90.00,7.00,0.00,29.75,M,10.00,M,CLR,M,M,M,M,M,M,M,M,M,M,M,M,M,M,35.75,KBAM 210255Z AUTO 09007KT 10SM CLR 05/02 A2975 RMK AO1,M
05U,2024-01-21 02:55,-116.0051,39.6042,1811.23,39.20,32.00,75.16,330.00,12.00,0.00,29.81,M,10.00,M,M,M,M,M,M,M,M,M,M,M,M,M,M,M,M,31.17,K05U 210255Z AUTO 33012KT 10SM 04/00 A2981 RMK A01,M
MEV,2024-01-21 02:55,-119.7500,38.9963,1441.42,44.60,26.60,48.96,170.00,17.00,0.00,29.73,M,10.00,24.00,SCT,BKN,OVC,M,4900.00,6000.00,7000.00,M,M,M,M,M,M,M,M,36.58,KMEV 210255Z AUTO 17017G24KT 10SM SCT049 BKN060 OVC070 07/M03 A2973 RMK AO2,M
HTH,2024-01-21 02:55,-118.6315,38.5448,1282.89,51.80,21.20,29.82,180.00,14.00,0.00,29.72,M,10.00,19.00,BKN,M,M,M,11000.00,M,M,M,M,M,M,M,M,M,M,51.80,KHTH 210255Z AUTO 18014G19KT 10SM BKN110 11/M06 A2972 RMK A01,M
10U,2024-01-21 02:55,-116.1876,41.9532,1637.00,37.40,30.20,74.98,0.00,0.00,0.00,29.77,M,10.00,M,FEW,BKN,OVC,M,4800.00,5500.00,6500.00,M,M,M,M,M,M,M,M,37.40,K10U 210255Z AUTO 00000KT 10SM FEW048 BKN055 OVC065 03/M01 A2977 RMK AO2,M
TMT,2024-01-21 02:55,-117.1971,39.4643,1749.34,32.00,28.20,85.68,0.00,0.00,0.00,29.77,M,10.00,M,CLR,M,M,M,M,M,M,M,M,M,M,M,M,M,M,32.00,KTMT 210255Z AUTO 00000KT 10SM CLR 00/M02 A2977 RMK AO2 T10011021,M
LSV,2024-01-21 02:55,-115.0343,36.2362,570.00,53.60,45.50,73.94,90.00,5.00,T,29.81,1009.00,10.00,M,BKN,BKN,M,M,7000.00,15000.00,M,M,M,M,M,M,M,M,M,53.60,KLSV 210255Z 09005KT 10SM BKN070 BKN150 12/08 A2981 RMK AO2A RAE06 SLP090 P0000 60000 T01200075 50005 $,M
EKO,2024-01-21 02:56,-115.7860,40.8242,1367.00,44.00,33.00,65.01,240.00,9.00,0.00,29.77,1008.10,10.00,18.00,SCT,M,M,M,10000.00,M,M,M,M,M,M,M,M,M,M,38.44,KEKO 210256Z AUTO 24009G18KT 10SM SCT100 07/01 A2977 RMK AO2 SLP081 T00670006 56002,M
NFL,2024-01-21 02:56,-118.7010,39.4166,1199.00,46.00,29.00,51.24,140.00,4.00,0.00,29.70,1003.80,10.00,M,FEW,BKN,OVC,M,5000.00,9000.00,12000.00,M,M,M,M,M,M,M,M,43.77,KNFL 210256Z 14004KT 10SM FEW050 BKN090 OVC120 08/M02 A2970 RMK AO2 SLP038 T00781017 56002,M
HND,2024-01-21 02:56,-115.1344,35.9729,742.79,54.00,35.00,48.46,220.00,7.00,0.00,29.86,1012.70,10.00,M,OVC,M,M,M,6500.00,M,M,M,M,M,M,M,M,M,M,54.00,KHND 210256Z 22007KT 10SM OVC065 12/02 A2986 RMK AO2 SLP127 60000 T01220017 53007,M
TPH,2024-01-21 02:56,-117.0904,38.0505,1654.00,43.00,34.00,70.30,160.00,7.00,0.00,29.80,1008.20,10.00,M,CLR,M,M,M,M,M,M,M,M,M,M,M,M,M,M,38.19,KTPH 210256Z AUTO 16007KT 10SM CLR 06/01 A2980 RMK AO2 SLP082 T00610011 50002,M
LAS,2024-01-21 02:56,-115.1634,36.0719,663.00,55.00,41.00,59.13,0.00,0.00,0.00,29.84,1009.90,10.00,M,OVC,M,M,M,6500.00,M,M,M,M,M,M,M,M,M,M,55.00,KLAS 210256Z 00000KT 10SM OVC065 13/05 A2984 RMK AO2 SLP099 60001 T01280050 53005,M
WMC,2024-01-21 02:56,-117.8072,40.9019,1315.00,44.00,33.00,65.01,180.00,9.00,0.00,29.71,1005.50,10.00,M,CLR,M,M,M,M,M,M,M,M,M,M,M,M,M,M,38.44,KWMC 210256Z AUTO 18009KT 10SM CLR 07/01 A2971 RMK AO2 SLP055 T00670006 55003,M
BVU,2024-01-21 03:15,-114.8611,35.9475,671.00,55.40,35.60,47.16,20.00,8.00,0.00,29.83,M,10.00,M,FEW,BKN,OVC,M,5500.00,6500.00,11000.00,M,M,M,M,M,M,M,M,55.40,KBVU 210315Z AUTO 02008KT 10SM FEW055 BKN065 OVC110 13/02 A2983 RMK AO2,M
CXP,2024-01-21 03:15,-119.7326,39.1923,1431.00,46.40,28.40,49.24,200.00,7.00,0.00,29.75,M,10.00,16.00,BKN,OVC,M,M,6000.00,7000.00,M,M,M,M,M,M,M,M,M,42.33,KCXP 210315Z AUTO 20007G16KT 10SM BKN060 OVC070 08/M02 A2975 RMK AO2,M
RTS,2024-01-21 03:15,-119.8764,39.6682,1539.00,42.80,32.00,65.38,200.00,8.00,0.00,29.74,M,10.00,M,SCT,BKN,OVC,M,2200.00,3000.00,4700.00,M,-DZ,M,M,M,M,M,M,37.42,KRTS 210315Z AUTO 20008KT 10SM -DZ SCT022 BKN030 OVC047 06/M00 A2974 RMK AO2,M
05U,2024-01-21 03:15,-116.0051,39.6042,1811.23,39.20,32.00,75.16,340.00,7.00,0.00,29.82,M,10.00,M,M,M,M,M,M,M,M,M,M,M,M,M,M,M,M,33.56,K05U 210315Z AUTO 34007KT 10SM 04/M00 A2982 RMK A01,M
MEV,2024-01-21 03:15,-119.7500,38.9963,1441.42,44.60,26.60,48.96,180.00,18.00,0.00,29.73,M,10.00,27.00,FEW,SCT,OVC,M,4800.00,5500.00,7000.00,M,M,M,M,M,M,M,M,36.34,KMEV 210315Z AUTO 18018G27KT 10SM FEW048 SCT055 OVC070 07/M03 A2973 RMK AO2,M
BAM,2024-01-21 03:15,-116.8743,40.5990,1382.36,41.00,35.60,80.93,80.00,5.00,0.00,29.75,M,10.00,M,CLR,M,M,M,M,M,M,M,M,M,M,M,M,M,M,37.08,KBAM 210315Z AUTO 08005KT 10SM CLR 05/02 A2975 RMK AO1,M
HTH,2024-01-21 03:15,-118.6315,38.5448,1282.89,51.80,21.20,29.82,200.00,16.00,0.00,29.73,M,10.00,M,OVC,M,M,M,10000.00,M,M,M,M,M,M,M,M,M,M,51.80,KHTH 210315Z AUTO 20016KT 10SM OVC100 11/M06 A2973 RMK A01,M
10U,2024-01-21 03:15,-116.1876,41.9532,1637.00,35.60,30.20,80.51,90.00,4.00,0.00,29.77,M,10.00,M,BKN,OVC,M,M,5500.00,6500.00,M,M,M,M,M,M,M,M,M,31.62,K10U 210315Z AUTO 09004KT 10SM BKN055 OVC065 02/M01 A2977 RMK AO2,M
TMT,2024-01-21 03:15,-117.1971,39.4643,1749.34,31.00,28.00,88.48,0.00,0.00,0.00,29.77,M,10.00,M,CLR,M,M,M,M,M,M,M,M,M,M,M,M,M,M,31.00,KTMT 210315Z AUTO 00000KT 10SM CLR 00/M02 A2977 RMK AO2 T10051022,M
BVU,2024-01-21 03:35,-114.8611,35.9475,671.00,55.40,35.60,47.16,20.00,5.00,0.00,29.84,M,10.00,M,OVC,M,M,M,6500.00,M,M,M,M,M,M,M,M,M,M,55.40,KBVU 210335Z AUTO 02005KT 10SM OVC065 13/02 A2984 RMK AO2,M
CXP,2024-01-21 03:35,-119.7326,39.1923,1431.00,44.60,28.40,52.72,180.00,5.00,0.00,29.76,M,10.00,16.00,BKN,OVC,M,M,6500.00,7500.00,M,M,M,M,M,M,M,M,M,41.36,KCXP 210335Z AUTO 18005G16KT 10SM BKN065 OVC075 07/M02 A2976 RMK AO2,M
RTS,2024-01-21 03:35,-119.8764,39.6682,1539.00,41.00,33.80,75.33,190.00,10.00,0.00,29.75,M,10.00,M,BKN,BKN,OVC,M,2200.00,2700.00,3300.00,M,-DZ,M,M,M,M,M,M,34.25,KRTS 210335Z AUTO 19010KT 10SM -DZ BKN022 BKN027 OVC033 05/01 A2975 RMK AO2,M
05U,2024-01-21 03:35,-116.0051,39.6042,1811.23,39.20,32.00,75.16,330.00,7.00,0.00,29.82,M,10.00,M,M,M,M,M,M,M,M,M,M,M,M,M,M,M,M,33.56,K05U 210335Z AUTO 33007KT 10SM 04/M00 A2982 RMK A01,M
MEV,2024-01-21 03:35,-119.7500,38.9963,1441.42,44.60,26.60,48.96,170.00,17.00,0.00,29.74,M,10.00,25.00,SCT,OVC,M,M,6500.00,7500.00,M,M,M,M,M,M,M,M,M,36.58,KMEV 210335Z AUTO 17017G25KT 10SM SCT065 OVC075 07/M03 A2974 RMK AO2,M
BAM,2024-01-21 03:35,-116.8743,40.5990,1382.36,39.20,33.80,80.79,80.00,6.00,0.00,29.75,M,10.00,M,CLR,M,M,M,M,M,M,M,M,M,M,M,M,M,M,34.20,KBAM 210335Z AUTO 08006KT 10SM CLR 04/01 A2975 RMK AO1,M
HTH,2024-01-21 03:35,-118.6315,38.5448,1282.89,51.80,21.20,29.82,200.00,17.00,0.00,29.73,M,10.00,23.00,BKN,M,M,M,10000.00,M,M,M,M,M,M,M,M,M,M,51.80,KHTH 210335Z AUTO 20017G23KT 10SM BKN100 11/M06 A2973 RMK A01,M
10U,2024-01-21 03:35,-116.1876,41.9532,1637.00,35.60,30.20,80.51,100.00,5.00,0.00,29.76,M,10.00,M,FEW,OVC,M,M,5500.00,6500.00,M,M,M,M,M,M,M,M,M,30.67,K10U 210335Z AUTO 10005KT 10SM FEW055 OVC065 02/M01 A2976 RMK AO2,M
TMT,2024-01-21 03:35,-117.1971,39.4643,1749.34,31.50,28.20,87.43,100.00,3.00,0.00,29.78,M,10.00,M,CLR,M,M,M,M,M,M,M,M,M,M,M,M,M,M,28.12,KTMT 210335Z AUTO 10003KT 10SM CLR 00/M02 A2978 RMK AO2 T10031021,M
05U,2024-01-21 03:50,-116.0051,39.6042,1811.23,37.40,32.00,80.65,300.00,7.00,0.00,29.82,M,10.00,M,M,M,M,M,M,M,M,M,M,M,M,M,M,M,M,31.36,K05U 210350Z AUTO 30007KT 10SM 03/M00 A2982 RMK A01,M
P68,2024-01-21 03:53,-116.0056,39.6014,1993.00,37.00,32.00,81.93,140.00,13.00,0.00,29.79,1007.10,M,16.00,M,M,M,M,M,M,M,M,M,M,M,M,M,M,M,27.97,KP68 210353Z AUTO 14013G16KT 03/00 A2979 RMK AO1 SLP071 T00280000,M
DRA,2024-01-21 03:53,-116.0278,36.6206,1009.00,52.00,39.00,61.06,250.00,6.00,0.00,29.81,1007.50,10.00,M,OVC,M,M,M,8000.00,M,M,M,M,M,M,M,M,M,M,52.00,KDRA 210353Z AUTO 25006KT 10SM OVC080 11/04 A2981 RMK AO2 SLP075 T01110039,M
ELY,2024-01-21 03:53,-114.8453,39.2950,1909.00,37.00,31.00,78.69,210.00,9.00,0.00,29.84,1008.80,10.00,M,FEW,OVC,M,M,4600.00,7500.00,M,M,M,M,M,M,M,M,M,29.73,KELY 210353Z AUTO 21009KT 10SM FEW046 OVC075 03/M01 A2984 RMK AO2 SLP088 T00281006,M
VGT,2024-01-21 03:53,-115.1933,36.2111,667.00,54.00,43.00,66.24,0.00,0.00,0.00,29.84,1011.90,10.00,M,FEW,BKN,OVC,M,6000.00,8500.00,11000.00,M,M,M,M,M,M,M,M,54.00,KVGT 210353Z 00000KT 10SM FEW060 BKN085 OVC110 12/06 A2984 RMK AO2 SLP119 T01220061,M
LOL,2024-01-21 03:53,-118.5701,40.0684,1192.43,41.00,30.00,64.63,90.00,3.00,0.00,29.71,1006.80,10.00,M,OVC,M,M,M,10000.00,M,M,M,M,M,M,M,M,M,M,38.98,KLOL 210353Z AUTO 09003KT 10SM OVC100 05/M01 A2971 RMK AO2 SLP068 T00501011,M
BVU,2024-01-21 03:55,-114.8611,35.9475,671.00,55.40,35.60,47.16,320.00,5.00,0.00,29.84,M,10.00,M,BKN,OVC,M,M,6500.00,7500.00,M,M,M,M,M,M,M,M,M,55.40,KBVU 210355Z AUTO 32005KT 10SM BKN065 OVC075 13/02 A2984 RMK AO2,M
CXP,2024-01-21 03:55,-119.7326,39.1923,1431.00,44.60,28.40,52.72,200.00,4.00,0.00,29.76,M,10.00,12.00,BKN,OVC,M,M,6000.00,7000.00,M,M,M,M,M,M,M,M,M,42.13,KCXP 210355Z AUTO 20004G12KT 10SM BKN060 OVC070 07/M02 A2976 RMK AO2,M
RNO,2024-01-21 03:55,-119.7711,39.4839,1341.00,46.00,33.00,60.25,200.00,12.00,T,29.73,1005.70,10.00,20.00,OVC,M,M,M,4500.00,M,M,M,-RA,M,M,M,M,M,M,39.82,KRNO 210355Z 20012G20KT 10SM -RA OVC045 08/01 A2973 RMK AO2 RAB39 SLP057 P0000 T00780006,M
RTS,2024-01-21 03:55,-119.8764,39.6682,1539.00,41.00,33.80,75.33,180.00,14.00,0.00,29.75,M,10.00,M,FEW,SCT,OVC,M,2200.00,2900.00,6000.00,M,M,M,M,M,M,M,M,32.76,KRTS 210355Z AUTO 18014KT 10SM FEW022 SCT029 OVC060 05/01 A2975 RMK AO2,M
MEV,2024-01-21 03:55,-119.7500,38.9963,1441.42,44.60,26.60,48.96,190.00,14.00,0.00,29.74,M,10.00,M,SCT,OVC,M,M,6000.00,7000.00,M,M,M,M,M,M,M,M,M,37.40,KMEV 210355Z AUTO 19014KT 10SM SCT060 OVC070 07/M03 A2974 RMK AO2,M
BAM,2024-01-21 03:55,-116.8743,40.5990,1382.36,41.00,33.80,75.33,0.00,0.00,0.00,29.75,M,10.00,M,CLR,M,M,M,M,M,M,M,M,M,M,M,M,M,M,41.00,KBAM 210355Z AUTO 00000KT 10SM CLR 05/01 A2975 RMK AO1,M
HTH,2024-01-21 03:55,-118.6315,38.5448,1282.89,51.80,19.40,27.62,220.00,14.00,0.00,29.73,M,10.00,M,SCT,M,M,M,10000.00,M,M,M,M,M,M,M,M,M,M,51.80,KHTH 210355Z AUTO 22014KT 10SM SCT100 11/M07 A2973 RMK A01,M
10U,2024-01-21 03:55,-116.1876,41.9532,1637.00,37.40,30.20,74.98,120.00,7.00,0.00,29.76,M,10.00,M,OVC,M,M,M,7000.00,M,M,M,M,M,M,M,M,M,M,31.36,K10U 210355Z AUTO 12007KT 10SM OVC070 03/M01 A2976 RMK AO2,M
TMT,2024-01-21 03:55,-117.1971,39.4643,1749.34,31.00,28.00,88.48,0.00,0.00,0.00,29.78,M,10.00,M,SCT,SCT,M,M,8500.00,11000.00,M,M,M,M,M,M,M,M,M,31.00,KTMT 210355Z AUTO 00000KT 10SM SCT085 SCT110 M01/M02 A2978 RMK AO2 T10061022,M
INS,2024-01-21 03:55,-115.6733,36.5872,955.00,53.00,33.00,46.41,0.00,0.00,0.00,29.82,1008.30,10.00,M,BKN,OVC,M,M,8000.00,10000.00,M,M,M,M,M,M,M,M,M,53.00,KINS 210355Z AUTO 00000KT 10SM BKN080 OVC100 12/01 A2982 RMK AO2 SLP083 T01170005,M
LSV,2024-01-21 03:55,-115.0343,36.2362,570.00,53.00,47.00,80.00,0.00,0.00,0.00,29.81,1009.10,10.00,M,FEW,BKN,BKN,M,7000.00,9500.00,11000.00,M,M,M,M,M,M,M,M,53.00,KLSV 210355Z 00000KT 10SM FEW070 BKN095 BKN110 12/08 A2981 RMK AO2A SLP091 T01160083 $,M
EKO,2024-01-21 03:56,-115.7860,40.8242,1367.00,41.00,32.00,70.08,0.00,0.00,0.00,29.78,1008.60,10.00,M,SCT,M,M,M,6500.00,M,M,M,M,M,M,M,M,M,M,41.00,KEKO 210356Z AUTO 00000KT 10SM SCT065 05/00 A2978 RMK AO2 SLP086 T00500000,M
NFL,2024-01-21 03:56,-118.7010,39.4166,1199.00,44.00,32.00,62.44,120.00,4.00,0.00,29.71,1004.20,10.00,M,FEW,OVC,M,M,9000.00,11000.00,M,M,M,M,M,M,M,M,M,41.43,KNFL 210356Z AUTO 12004KT 10SM FEW090 OVC110 07/00 A2971 RMK AO2 SLP042 T00670000,M
HND,2024-01-21 03:56,-115.1344,35.9729,742.79,54.00,38.00,54.56,160.00,5.00,0.00,29.87,1012.90,10.00,M,SCT,BKN,M,M,6500.00,9500.00,M,M,M,M,M,M,M,M,M,54.00,KHND 210356Z 16005KT 10SM SCT065 BKN095 12/03 A2987 RMK AO2 SLP129 T01220033,M
TPH,2024-01-21 03:56,-117.0904,38.0505,1654.00,41.00,34.00,75.94,150.00,9.00,0.00,29.81,1008.40,10.00,M,OVC,M,M,M,12000.00,M,M,M,M,M,M,M,M,M,M,34.70,KTPH 210356Z AUTO 15009KT 10SM OVC120 05/01 A2981 RMK AO2 SLP084 T00500011,M
LAS,2024-01-21 03:56,-115.1634,36.0719,663.00,56.00,43.00,61.59,210.00,5.00,0.00,29.84,1009.80,10.00,M,OVC,M,M,M,10000.00,M,M,M,M,M,M,M,M,M,M,56.00,KLAS 210356Z 21005KT 10SM OVC100 13/06 A2984 RMK AO2 SLP098 T01330061,M
WMC,2024-01-21 03:56,-117.8072,40.9019,1315.00,42.00,34.00,73.06,160.00,8.00,0.00,29.72,1005.80,10.00,M,CLR,M,M,M,M,M,M,M,M,M,M,M,M,M,M,36.43,KWMC 210356Z AUTO 16008KT 10SM CLR 06/01 A2972 RMK AO2 SLP058 T00560011,M
05U,2024-01-21 04:10,-116.0051,39.6042,1811.23,37.40,33.80,86.69,300.00,7.00,0.00,29.82,M,10.00,M,M,M,M,M,M,M,M,M,M,M,M,M,M,M,M,31.36,K05U 210410Z AUTO 30007KT 10SM 03/01 A2982 RMK A01,M
10U,2024-01-21 04:10,-116.1876,41.9532,1637.00,37.40,32.00,80.65,120.00,7.00,0.00,29.76,M,10.00,M,OVC,M,M,M,7000.00,M,M,M,M,M,M,M,M,M,M,31.36,K10U 210410Z AUTO 12007KT 10SM OVC070 03/M00 A2976 RMK AO2,M
BVU,2024-01-21 04:15,-114.8611,35.9475,671.00,57.20,35.60,44.19,300.00,3.00,0.00,29.84,M,10.00,M,FEW,SCT,BKN,M,5500.00,6000.00,7500.00,M,M,M,M,M,M,M,M,57.20,KBVU 210415Z AUTO 30003KT 10SM FEW055 SCT060 BKN075 14/02 A2984 RMK AO2,M
CXP,2024-01-21 04:15,-119.7326,39.1923,1431.00,44.60,28.40,52.72,0.00,0.00,0.00,29.76,M,10.00,M,SCT,BKN,OVC,M,4000.00,4500.00,6000.00,M,M,M,M,M,M,M,M,44.60,KCXP 210415Z AUTO 00000KT 10SM SCT040 BKN045 OVC060 07/M02 A2976 RMK AO2,M
RTS,2024-01-21 04:15,-119.8764,39.6682,1539.00,41.00,32.00,70.08,190.00,12.00,0.00,29.75,M,10.00,18.00,BKN,OVC,M,M,5500.00,6500.00,M,M,M,M,M,M,M,M,M,33.46,KRTS 210415Z AUTO 19012G18KT 10SM BKN055 OVC065 05/00 A2975 RMK AO2,M
MEV,2024-01-21 04:15,-119.7500,38.9963,1441.42,44.60,28.40,52.72,220.00,8.00,0.00,29.75,M,10.00,M,FEW,OVC,M,M,5500.00,6500.00,M,M,M,M,M,M,M,M,M,39.63,KMEV 210415Z AUTO 22008KT 10SM FEW055 OVC065 07/M02 A2975 RMK AO2,M
BAM,2024-01-21 04:15,-116.8743,40.5990,1382.36,39.20,33.80,80.79,80.00,5.00,0.00,29.75,M,10.00,M,CLR,M,M,M,M,M,M,M,M,M,M,M,M,M,M,34.95,KBAM 210415Z AUTO 08005KT 10SM CLR 04/01 A2975 RMK AO1,M
HTH,2024-01-21 04:15,-118.6315,38.5448,1282.89,51.80,21.20,29.82,190.00,12.00,0.00,29.74,M,10.00,20.00,SCT,SCT,M,M,10000.00,12000.00,M,M,M,M,M,M,M,M,M,51.80,KHTH 210415Z AUTO 19012G20KT 10SM SCT100 SCT120 11/M06 A2974 RMK A01,M
TMT,2024-01-21 04:15,-117.1971,39.4643,1749.34,29.70,27.30,90.64,150.00,3.00,0.00,29.79,M,10.00,M,SCT,SCT,M,M,8500.00,11000.00,M,M,M,M,M,M,M,M,M,26.06,KTMT 210415Z AUTO 15003KT 10SM SCT085 SCT110 M01/M03 A2979 RMK AO2 T10131026,M
05U,2024-01-21 04:30,-116.0051,39.6042,1811.23,37.40,33.80,86.69,290.00,7.00,0.00,29.82,M,10.00,M,M,M,M,M,M,M,M,M,M,M,M,M,M,M,M,31.36,K05U 210430Z AUTO 29007KT 10SM 03/01 A2982 RMK A01,M
10U,2024-01-21 04:30,-116.1876,41.9532,1637.00,37.40,32.00,80.65,120.00,9.00,0.00,29.76,M,10.00,M,SCT,BKN,OVC,M,5000.00,6500.00,7500.00,M,M,M,M,M,M,M,M,30.23,K10U 210430Z AUTO 12009KT 10SM SCT050 BKN065 OVC075 03/M00 A2976 RMK AO2,M
BVU,2024-01-21 04:35,-114.8611,35.9475,671.00,55.40,35.60,47.16,0.00,0.00,0.00,29.84,M,10.00,M,BKN,OVC,M,M,6500.00,7500.00,M,M,M,M,M,M,M,M,M,55.40,KBVU 210435Z AUTO 00000KT 10SM BKN065 OVC075 13/02 A2984 RMK AO2,M
CXP,2024-01-21 04:35,-119.7326,39.1923,1431.00,44.60,30.20,56.74,270.00,6.00,0.00,29.76,M,10.00,M,SCT,OVC,M,M,4300.00,5500.00,M,M,M,M,M,M,M,M,M,40.71,KCXP 210435Z AUTO 27006KT 10SM SCT043 OVC055 07/M01 A2976 RMK AO2,M
RTS,2024-01-21 04:35,-119.8764,39.6682,1539.00,41.00,33.80,75.33,220.00,4.00,0.00,29.75,M,10.00,11.00,OVC,M,M,M,5000.00,M,M,M,M,M,M,M,M,M,M,37.93,KRTS 210435Z AUTO 22004G11KT 10SM OVC050 05/01 A2975 RMK AO2,M
MEV,2024-01-21 04:35,-119.7500,38.9963,1441.42,42.80,30.20,60.79,210.00,11.00,0.00,29.75,M,10.00,M,OVC,M,M,M,6500.00,M,M,M,M,M,M,M,M,M,M,36.11,KMEV 210435Z AUTO 21011KT 10SM OVC065 06/M01 A2975 RMK AO2,M
BAM,2024-01-21 04:35,-116.8743,40.5990,1382.36,39.20,33.80,80.79,60.00,5.00,0.00,29.75,M,10.00,M,CLR,M,M,M,M,M,M,M,M,M,M,M,M,M,M,34.95,KBAM 210435Z AUTO 06005KT 10SM CLR 04/01 A2975 RMK AO1,M
HTH,2024-01-21 04:35,-118.6315,38.5448,1282.89,50.00,21.20,31.87,170.00,11.00,0.00,29.74,M,10.00,18.00,SCT,SCT,M,M,9000.00,12000.00,M,M,M,M,M,M,M,M,M,50.00,KHTH 210435Z AUTO 17011G18KT 10SM SCT090 SCT120 10/M06 A2974 RMK A01,M
TMT,2024-01-21 04:35,-117.1971,39.4643,1749.34,30.00,27.50,90.28,150.00,3.00,0.00,29.79,M,10.00,M,SCT,BKN,M,M,10000.00,12000.00,M,M,M,M,M,M,M,M,M,26.40,KTMT 210435Z AUTO 15003KT 10SM SCT100 BKN120 M01/M02 A2979 RMK AO2 T10111025,M
10U,2024-01-21 04:50,-116.1876,41.9532,1637.00,37.40,32.00,80.65,130.00,8.00,0.00,29.76,M,10.00,M,FEW,OVC,M,M,5500.00,6500.00,M,M,M,M,M,M,M,M,M,30.76,K10U 210450Z AUTO 13008KT 10SM FEW055 OVC065 03/M00 A2976 RMK AO2,M
P68,2024-01-21 04:53,-116.0056,39.6014,1993.00,37.00,32.00,81.93,180.00,8.00,0.00,29.79,1006.90,M,M,M,M,M,M,M,M,M,M,M,M,M,M,M,M,M,30.27,KP68 210453Z AUTO 18008KT 03/00 A2979 RMK AO1 SLP069 T00280000,M
DRA,2024-01-21 04:53,-116.0278,36.6206,1009.00,52.00,39.00,61.06,310.00,3.00,0.00,29.81,1007.40,10.00,M,OVC,M,M,M,6500.00,M,M,M,M,M,M,M,M,M,M,52.00,KDRA 210453Z AUTO 31003KT 10SM OVC065 11/04 A2981 RMK AO2 SLP074 T01110039,M
ELY,2024-01-21 04:53,-114.8453,39.2950,1909.00,36.00,31.00,81.86,190.00,6.00,T,29.84,1009.00,10.00,M,BKN,BKN,OVC,M,4100.00,6000.00,8000.00,M,M,M,M,M,M,M,M,30.35,KELY 210453Z AUTO 19006KT 10SM BKN041 BKN060 OVC080 02/M01 A2984 RMK AO2 RAB27E47 SLP090 P0000 T00221006,M
VGT,2024-01-21 04:53,-115.1933,36.2111,667.00,53.00,44.00,71.39,130.00,3.00,0.00,29.83,1011.50,10.00,M,SCT,OVC,M,M,7500.00,9000.00,M,M,M,M,M,M,M,M,M,53.00,KVGT 210453Z AUTO 13003KT 10SM SCT075 OVC090 12/07 A2983 RMK AO2 SLP115 T01170067,M
LOL,2024-01-21 04:53,-118.5701,40.0684,1192.43,41.00,30.00,64.63,150.00,6.00,0.00,29.71,1006.50,10.00,M,BKN,OVC,M,M,7500.00,9000.00,M,M,M,M,M,M,M,M,M,36.37,KLOL 210453Z AUTO 15006KT 10SM BKN075 OVC090 05/M01 A2971 RMK AO2 SLP065 T00501011,M
BVU,2024-01-21 04:55,-114.8611,35.9475,671.00,55.40,35.60,47.16,100.00,3.00,0.00,29.84,M,10.00,M,OVC,M,M,M,6500.00,M,M,M,M,M,M,M,M,M,M,55.40,KBVU 210455Z AUTO 10003KT 10SM OVC065 13/02 A2984 RMK AO2,M
CXP,2024-01-21 04:55,-119.7326,39.1923,1431.00,44.60,30.20,56.74,260.00,4.00,0.00,29.76,M,10.00,M,OVC,M,M,M,6000.00,M,M,M,M,M,M,M,M,M,M,42.13,KCXP 210455Z AUTO 26004KT 10SM OVC060 07/M01 A2976 RMK AO2,M
INS,2024-01-21 04:55,-115.6733,36.5872,955.00,51.40,34.00,51.24,0.00,0.00,0.00,29.81,1007.90,10.00,M,OVC,M,M,M,9000.00,M,M,M,M,M,M,M,M,M,M,51.40,KINS 210455Z AUTO 00000KT 10SM OVC090 11/01 A2981 RMK AO2 SLP079 T01080011,M
RNO,2024-01-21 04:55,-119.7711,39.4839,1341.00,44.00,35.00,70.42,300.00,8.00,T,29.74,1005.90,10.00,M,FEW,BKN,M,M,4000.00,7000.00,M,M,M,M,M,M,M,M,M,38.90,KRNO 210455Z 30008KT 10SM FEW040 BKN070 07/02 A2974 RMK AO2 RAE08 SLP059 P0000 T00670017,M
LSV,2024-01-21 04:55,-115.0343,36.2362,570.00,51.80,47.70,85.84,0.00,0.00,0.00,29.81,1009.10,10.00,M,FEW,BKN,BKN,M,8500.00,10000.00,14000.00,M,M,M,M,M,M,M,M,51.80,KLSV 210455Z 00000KT 10SM FEW085 BKN100 BKN140 11/09 A2981 RMK AO2A SLP091 T01100087 $,M
RTS,2024-01-21 04:55,-119.8764,39.6682,1539.00,41.00,32.00,70.08,200.00,9.00,0.00,29.75,M,10.00,M,OVC,M,M,M,5000.00,M,M,M,M,M,M,M,M,M,M,34.70,KRTS 210455Z AUTO 20009KT 10SM OVC050 05/00 A2975 RMK AO2,M
05U,2024-01-21 04:55,-116.0051,39.6042,1811.23,37.40,33.80,86.69,340.00,6.00,0.00,29.82,M,10.00,M,M,M,M,M,M,M,M,M,M,M,M,M,M,M,M,32.03,K05U 210455Z AUTO 34006KT 10SM 03/01 A2982 RMK A01,M
MEV,2024-01-21 04:55,-119.7500,38.9963,1441.42,42.80,30.20,60.79,200.00,8.00,0.00,29.75,M,10.00,14.00,FEW,OVC,M,M,5500.00,6500.00,M,M,M,M,M,M,M,M,M,37.42,KMEV 210455Z AUTO 20008G14KT 10SM FEW055 OVC065 06/M01 A2975 RMK AO2,M
BAM,2024-01-21 04:55,-116.8743,40.5990,1382.36,37.40,33.80,86.69,140.00,4.00,0.00,29.76,M,10.00,M,CLR,M,M,M,M,M,M,M,M,M,M,M,M,M,M,33.73,KBAM 210455Z AUTO 14004KT 10SM CLR 03/01 A2976 RMK AO1,M
HTH,2024-01-21 04:55,-118.6315,38.5448,1282.89,50.00,21.20,31.87,140.00,11.00,0.00,29.74,M,10.00,17.00,SCT,M,M,M,9000.00,M,M,M,M,M,M,M,M,M,M,50.00,KHTH 210455Z AUTO 14011G17KT 10SM SCT090 10/M06 A2974 RMK A01,M
TMT,2024-01-21 04:55,-117.1971,39.4643,1749.34,32.00,29.00,88.53,0.00,0.00,0.00,29.79,M,10.00,M,SCT,BKN,OVC,M,7000.00,8000.00,11000.00,M,M,M,M,M,M,M,M,32.00,KTMT 210455Z AUTO 00000KT 10SM SCT070 BKN080 OVC110 00/M02 A2979 RMK AO2 T00001016,M
TPH,2024-01-21 04:56,-117.0904,38.0505,1654.00,40.00,35.00,82.15,150.00,8.00,0.00,29.82,1008.50,10.00,M,SCT,BKN,BKN,M,3500.00,5500.00,12000.00,M,M,M,M,M,M,M,M,33.97,KTPH 210456Z AUTO 15008KT 10SM SCT035 BKN055 BKN120 04/02 A2982 RMK AO2 SLP085 T00440017,M
EKO,2024-01-21 04:56,-115.7860,40.8242,1367.00,40.00,32.00,72.85,60.00,6.00,0.00,29.77,1008.30,10.00,M,BKN,M,M,M,7500.00,M,M,M,M,M,M,M,M,M,M,35.17,KEKO 210456Z AUTO 06006KT 10SM BKN075 04/00 A2977 RMK AO2 SLP083 T00440000,M
NFL,2024-01-21 04:56,-118.7010,39.4166,1199.00,45.00,33.00,62.58,0.00,0.00,0.00,29.71,1004.30,10.00,M,OVC,M,M,M,10000.00,M,M,M,M,M,M,M,M,M,M,45.00,KNFL 210456Z AUTO 00000KT 10SM OVC100 07/01 A2971 RMK AO2 SLP043 T00720006,M
HND,2024-01-21 04:56,-115.1344,35.9729,742.79,54.00,41.00,61.32,170.00,6.00,0.00,29.86,1012.60,10.00,M,OVC,M,M,M,9000.00,M,M,M,M,M,M,M,M,M,M,54.00,KHND 210456Z AUTO 17006KT 10SM OVC090 12/05 A2986 RMK AO2 SLP126 T01220050,M
LAS,2024-01-21 04:56,-115.1634,36.0719,663.00,56.00,43.00,61.59,230.00,7.00,0.00,29.84,1009.70,10.00,M,BKN,OVC,M,M,8000.00,9500.00,M,M,M,M,M,M,M,M,M,56.00,KLAS 210456Z 23007KT 10SM BKN080 OVC095 13/06 A2984 RMK AO2 SLP097 T01330061,M
WMC,2024-01-21 04:56,-117.8072,40.9019,1315.00,45.00,33.00,62.58,170.00,11.00,0.00,29.71,1005.10,10.00,M,FEW,SCT,OVC,M,7000.00,9000.00,11000.00,M,M,M,M,M,M,M,M,38.89,KWMC 210456Z AUTO 17011KT 10SM FEW070 SCT090 OVC110 07/01 A2971 RMK AO2 SLP051 T00720006,M
BVU,2024-01-21 05:15,-114.8611,35.9475,671.00,55.40,35.60,47.16,100.00,3.00,0.00,29.84,M,10.00,M,BKN,OVC,M,M,6500.00,7500.00,M,M,M,M,M,M,M,M,M,55.40,KBVU 210515Z AUTO 10003KT 10SM BKN065 OVC075 13/02 A2984 RMK AO2,M
CXP,2024-01-21 05:15,-119.7326,39.1923,1431.00,44.60,28.40,52.72,220.00,6.00,0.00,29.76,M,10.00,M,OVC,M,M,M,6000.00,M,M,M,M,M,M,M,M,M,M,40.71,KCXP 210515Z AUTO 22006KT 10SM OVC060 07/M02 A2976 RMK AO2,M
RTS,2024-01-21 05:15,-119.8764,39.6682,1539.00,41.00,32.00,70.08,200.00,9.00,0.00,29.75,M,10.00,M,BKN,OVC,M,M,4400.00,5000.00,M,M,M,M,M,M,M,M,M,34.70,KRTS 210515Z AUTO 20009KT 10SM BKN044 OVC050 05/M00 A2975 RMK AO2,M
05U,2024-01-21 05:15,-116.0051,39.6042,1811.23,39.20,33.80,80.79,350.00,7.00,0.00,29.83,M,10.00,12.00,M,M,M,M,M,M,M,M,M,M,M,M,M,M,M,33.56,K05U 210515Z AUTO 35007G12KT 10SM 04/01 A2983 RMK A01,M
MEV,2024-01-21 05:15,-119.7500,38.9963,1441.42,42.80,30.20,60.79,200.00,6.00,0.00,29.75,M,10.00,11.00,OVC,M,M,M,6000.00,M,M,M,M,M,M,M,M,M,M,38.54,KMEV 210515Z AUTO 20006G11KT 10SM OVC060 06/M01 A2975 RMK AO2,M
BAM,2024-01-21 05:15,-116.8743,40.5990,1382.36,35.60,32.00,86.59,160.00,3.00,0.00,29.76,M,10.00,M,SCT,SCT,M,M,7000.00,9000.00,M,M,M,M,M,M,M,M,M,32.80,KBAM 210515Z AUTO 16003KT 10SM SCT070 SCT090 02/00 A2976 RMK AO1,M
HTH,2024-01-21 05:15,-118.6315,38.5448,1282.89,48.20,23.00,36.78,160.00,10.00,0.00,29.74,M,10.00,M,BKN,M,M,M,9000.00,M,M,M,M,M,M,M,M,M,M,43.28,KHTH 210515Z AUTO 16010KT 10SM BKN090 09/M05 A2974 RMK A01,M
10U,2024-01-21 05:15,-116.1876,41.9532,1637.00,39.20,32.00,75.16,120.00,8.00,0.00,29.77,M,10.00,15.00,FEW,SCT,BKN,M,3700.00,4200.00,4800.00,M,M,M,M,M,M,M,M,32.98,K10U 210515Z AUTO 12008G15KT 10SM FEW037 SCT042 BKN048 04/M00 A2977 RMK AO2,M
TMT,2024-01-21 05:15,-117.1971,39.4643,1749.34,32.00,29.00,88.53,110.00,3.00,0.00,29.79,M,10.00,M,BKN,OVC,M,M,7000.00,8000.00,M,M,M,M,M,M,M,M,M,28.69,KTMT 210515Z AUTO 11003KT 10SM BKN070 OVC080 00/M02 A2979 RMK AO2 T00001016,M
BVU,2024-01-21 05:35,-114.8611,35.9475,671.00,55.40,37.40,50.64,0.00,0.00,0.00,29.85,M,10.00,M,OVC,M,M,M,7500.00,M,M,M,M,M,M,M,M,M,M,55.40,KBVU 210535Z AUTO 00000KT 10SM OVC075 13/03 A2985 RMK AO2,M
CXP,2024-01-21 05:35,-119.7326,39.1923,1431.00,44.60,32.00,61.03,0.00,0.00,0.00,29.76,M,10.00,M,OVC,M,M,M,5500.00,M,M,M,M,M,M,M,M,M,M,44.60,KCXP 210535Z AUTO 00000KT 10SM OVC055 07/M00 A2976 RMK AO2,M
RTS,2024-01-21 05:35,-119.8764,39.6682,1539.00,41.00,30.20,65.16,250.00,5.00,0.00,29.75,M,10.00,11.00,SCT,OVC,M,M,4500.00,5500.00,M,M,M,M,M,M,M,M,M,37.08,KRTS 210535Z AUTO 25005G11KT 10SM SCT045 OVC055 05/M01 A2975 RMK AO2,M
05U,2024-01-21 05:35,-116.0051,39.6042,1811.23,37.40,32.00,80.65,300.00,5.00,0.00,29.83,M,10.00,M,M,M,M,M,M,M,M,M,M,M,M,M,M,M,M,32.81,K05U 210535Z AUTO 30005KT 10SM 03/00 A2983 RMK A01,M
MEV,2024-01-21 05:35,-119.7500,38.9963,1441.42,42.80,30.20,60.79,220.00,3.00,0.00,29.75,M,10.00,M,OVC,M,M,M,6000.00,M,M,M,M,M,M,M,M,M,M,41.03,KMEV 210535Z AUTO 22003KT 10SM OVC060 06/M01 A2975 RMK AO2,M
BAM,2024-01-21 05:35,-116.8743,40.5990,1382.36,35.60,33.80,93.08,180.00,4.00,0.00,29.76,M,10.00,M,SCT,SCT,M,M,7000.00,9000.00,M,M,M,M,M,M,M,M,M,31.62,KBAM 210535Z AUTO 18004KT 10SM SCT070 SCT090 02/01 A2976 RMK AO1,M
HTH,2024-01-21 05:35,-118.6315,38.5448,1282.89,48.20,23.00,36.78,90.00,8.00,0.00,29.75,M,10.00,13.00,FEW,FEW,M,M,9000.00,11000.00,M,M,M,M,M,M,M,M,M,44.07,KHTH 210535Z AUTO 09008G13KT 10SM FEW090 FEW110 09/M05 A2975 RMK A01,M
10U,2024-01-21 05:35,-116.1876,41.9532,1637.00,39.20,32.00,75.16,80.00,6.00,0.00,29.77,M,10.00,M,SCT,BKN,OVC,M,3700.00,4300.00,4900.00,M,M,M,M,M,M,M,M,34.20,K10U 210535Z AUTO 08006KT 10SM SCT037 BKN043 OVC049 04/M00 A2977 RMK AO2,M
TMT,2024-01-21 05:35,-117.1971,39.4643,1749.34,31.60,29.00,89.98,0.00,0.00,0.00,29.80,M,10.00,M,OVC,M,M,M,7000.00,M,M,M,M,M,M,M,M,M,M,31.60,KTMT 210535Z AUTO 00000KT 10SM OVC070 00/M02 A2980 RMK AO2 T10021016,M
P68,2024-01-21 05:53,-116.0056,39.6014,1993.00,35.00,31.00,85.17,90.00,3.00,0.00,29.81,1007.50,M,M,M,M,M,M,M,M,M,M,M,M,M,M,M,M,M,32.12,KP68 210553Z AUTO 09003KT 02/M01 A2981 RMK AO1 SLP075 T00171006 10056 20017 53006,M
DRA,2024-01-21 05:53,-116.0278,36.6206,1009.00,50.00,42.00,73.87,10.00,6.00,0.00,29.81,1007.20,10.00,M,BKN,OVC,M,M,6000.00,7500.00,M,M,M,M,M,M,M,M,M,50.00,KDRA 210553Z AUTO 01006KT 10SM BKN060 OVC075 10/06 A2981 RMK AO2 SLP072 T01000056 10144 20100 56002,M
ELY,2024-01-21 05:53,-114.8453,39.2950,1909.00,36.00,31.00,81.86,220.00,10.00,0.00,29.83,1008.40,10.00,M,OVC,M,M,M,9000.00,M,M,M,M,M,M,M,M,M,M,27.98,KELY 210553Z AUTO 22010KT 10SM OVC090 02/M01 A2983 RMK AO2 SLP084 60000 T00221006 10050 20022 58004,M
VGT,2024-01-21 05:53,-115.1933,36.2111,667.00,53.00,43.00,68.71,110.00,3.00,0.00,29.84,1011.80,10.00,M,OVC,M,M,M,6500.00,M,M,M,M,M,M,M,M,M,M,53.00,KVGT 210553Z AUTO 11003KT 10SM OVC065 12/06 A2984 RMK AO2 SLP118 60000 T01170061 10150 20111 53002,M
LOL,2024-01-21 05:53,-118.5701,40.0684,1192.43,41.00,32.00,70.08,0.00,0.00,0.00,29.71,1006.10,10.00,M,OVC,M,M,M,10000.00,M,M,M,M,M,M,M,M,M,M,41.00,KLOL 210553Z AUTO 00000KT 10SM OVC100 05/00 A2971 RMK AO2 SLP061 T00500000 10122 20044 51006,M
BVU,2024-01-21 05:55,-114.8611,35.9475,671.00,55.40,39.20,54.34,0.00,0.00,0.00,29.84,M,10.00,M,FEW,SCT,BKN,M,3500.00,4100.00,5500.00,M,M,M,M,M,M,M,M,55.40,KBVU 210555Z AUTO 00000KT 10SM FEW035 SCT041 BKN055 13/04 A2984 RMK AO2,M
CXP,2024-01-21 05:55,-119.7326,39.1923,1431.00,42.80,32.00,65.38,0.00,0.00,0.00,29.76,M,10.00,M,OVC,M,M,M,5500.00,M,M,M,M,M,M,M,M,M,M,42.80,KCXP 210555Z AUTO 00000KT 10SM OVC055 06/M00 A2976 RMK AO2,M
INS,2024-01-21 05:55,-115.6733,36.5872,955.00,52.00,33.40,48.93,0.00,0.00,0.00,29.82,1007.90,10.00,M,OVC,M,M,M,7500.00,M,M,M,M,M,M,M,M,M,M,52.00,KINS 210555Z AUTO 00000KT 10SM OVC075 11/01 A2982 RMK AO2 SLP079 T01110008 10131 20103 50001,M
RNO,2024-01-21 05:55,-119.7711,39.4839,1341.00,44.00,34.00,67.66,M,3.00,0.00,29.74,1005.40,10.00,M,BKN,BKN,M,M,4000.00,7000.00,M,M,M,M,M,M,M,M,M,42.41,KRNO 210555Z VRB03KT 10SM BKN040 BKN070 07/01 A2974 RMK AO2 SLP054 60000 T00670011 10106 20067 50009,M
RTS,2024-01-21 05:55,-119.8764,39.6682,1539.00,39.20,32.00,75.16,250.00,7.00,0.00,29.76,M,10.00,M,SCT,OVC,M,M,4600.00,5500.00,M,M,M,M,M,M,M,M,M,33.56,KRTS 210555Z AUTO 25007KT 10SM SCT046 OVC055 04/M00 A2976 RMK AO2,M
05U,2024-01-21 05:55,-116.0051,39.6042,1811.23,35.60,32.00,86.59,0.00,0.00,0.00,29.83,M,10.00,M,M,M,M,M,M,M,M,M,M,M,M,M,M,M,M,35.60,K05U 210555Z AUTO 00000KT 10SM 02/M00 A2983 RMK A01,M
MEV,2024-01-21 05:55,-119.7500,38.9963,1441.42,42.80,30.20,60.79,170.00,4.00,0.00,29.75,M,10.00,M,OVC,M,M,M,6000.00,M,M,M,M,M,M,M,M,M,M,40.03,KMEV 210555Z AUTO 17004KT 10SM OVC060 06/M01 A2975 RMK AO2,M
BAM,2024-01-21 05:55,-116.8743,40.5990,1382.36,35.60,33.80,93.08,0.00,0.00,0.00,29.76,M,10.00,M,SCT,BKN,M,M,7000.00,9000.00,M,M,M,M,M,M,M,M,M,35.60,KBAM 210555Z AUTO 00000KT 10SM SCT070 BKN090 02/01 A2976 RMK AO1,M
HTH,2024-01-21 05:55,-118.6315,38.5448,1282.89,48.20,21.20,34.09,M,4.00,0.00,29.75,M,10.00,12.00,FEW,M,M,M,10000.00,M,M,M,M,M,M,M,M,M,M,46.34,KHTH 210555Z AUTO VRB04G12KT 10SM FEW100 09/M06 A2975 RMK A01,M
TMT,2024-01-21 05:55,-117.1971,39.4643,1749.34,32.00,29.30,89.63,90.00,4.00,0.00,29.79,M,10.00,M,SCT,BKN,OVC,M,7000.00,9000.00,11000.00,M,M,M,M,M,M,M,M,27.42,KTMT 210555Z AUTO 09004KT 10SM SCT070 BKN090 OVC110 00/M01 A2979 RMK AO2 T10011015 10059 21015,M
10U,2024-01-21 05:55,-116.1876,41.9532,1637.00,39.20,32.00,75.16,110.00,11.00,0.00,29.77,M,10.00,16.00,FEW,BKN,OVC,M,3400.00,4200.00,6000.00,M,M,M,M,M,M,M,M,31.57,K10U 210555Z AUTO 11011G16KT 10SM FEW034 BKN042 OVC060 04/M00 A2977 RMK AO2,M
LSV,2024-01-21 05:55,-115.0343,36.2362,570.00,52.30,47.00,82.08,0.00,0.00,0.00,29.81,1008.90,10.00,M,BKN,BKN,M,M,6500.00,8500.00,M,M,M,M,M,M,M,M,M,52.30,KLSV 210555Z 00000KT 10SM BKN065 BKN085 11/08 A2981 RMK AO2A SLP089 60000 T01130083 10152 20109 50003 $,M
EKO,2024-01-21 05:56,-115.7860,40.8242,1367.00,38.00,31.00,75.65,50.00,4.00,0.00,29.78,1008.60,10.00,M,SCT,M,M,M,8500.00,M,M,M,M,M,M,M,M,M,M,34.43,KEKO 210556Z AUTO 05004KT 10SM SCT085 03/M01 A2978 RMK AO2 SLP086 T00331006 10083 20028 53005,M
NFL,2024-01-21 05:56,-118.7010,39.4166,1199.00,44.00,33.00,65.01,0.00,0.00,0.00,29.72,1004.50,10.00,M,OVC,M,M,M,10000.00,M,M,M,M,M,M,M,M,M,M,44.00,KNFL 210556Z AUTO 00000KT 10SM OVC100 07/01 A2972 RMK AO2 SLP045 T00670006 10122 20067 51007,M
HND,2024-01-21 05:56,-115.1344,35.9729,742.79,53.00,44.00,71.39,170.00,5.00,T,29.86,1012.60,10.00,M,OVC,M,M,M,7500.00,M,M,M,M,M,M,M,M,M,M,53.00,KHND 210556Z AUTO 17005KT 10SM OVC075 12/07 A2986 RMK AO2 RAB21E52 SLP126 P0000 60000 T01170067 10139 20111 51000,M
TPH,2024-01-21 05:56,-117.0904,38.0505,1654.00,40.00,36.00,85.48,150.00,5.00,0.00,29.82,1008.10,10.00,M,SCT,BKN,OVC,M,1800.00,2400.00,12000.00,M,M,M,M,M,M,M,M,35.90,KTPH 210556Z AUTO 15005KT 10SM SCT018 BKN024 OVC120 04/02 A2982 RMK AO2 SLP081 T00440022 10083 20044 51005,M
LAS,2024-01-21 05:56,-115.1634,36.0719,663.00,56.00,43.00,61.59,200.00,6.00,0.00,29.84,1009.70,10.00,M,FEW,BKN,OVC,M,3500.00,6000.00,8500.00,M,M,M,M,M,M,M,M,56.00,KLAS 210556Z 20006KT 10SM FEW035 BKN060 OVC085 13/06 A2984 RMK AO2 SLP097 60001 T01330061 10150 20128 55000,M
WMC,2024-01-21 05:56,-117.8072,40.9019,1315.00,44.00,33.00,65.01,120.00,3.00,0.00,29.72,1005.10,10.00,M,SCT,BKN,OVC,M,7000.00,8500.00,11000.00,M,M,M,M,M,M,M,M,42.41,KWMC 210556Z AUTO 12003KT 10SM SCT070 BKN085 OVC110 07/01 A2972 RMK AO2 SLP051 T00670006 10106 20056 52002,M
BVU,2024-01-21 06:15,-114.8611,35.9475,671.00,53.60,42.80,66.70,0.00,0.00,0.00,29.84,M,10.00,M,SCT,BKN,OVC,M,3400.00,4100.00,5000.00,M,M,M,M,M,M,M,M,53.60,KBVU 210615Z AUTO 00000KT 10SM SCT034 BKN041 OVC050 12/06 A2984 RMK AO2,M
CXP,2024-01-21 06:15,-119.7326,39.1923,1431.00,42.80,32.00,65.38,260.00,3.00,0.00,29.76,M,10.00,M,OVC,M,M,M,5500.00,M,M,M,M,M,M,M,M,M,M,41.03,KCXP 210615Z AUTO 26003KT 10SM OVC055 06/M00 A2976 RMK AO2,M
RTS,2024-01-21 06:15,-119.8764,39.6682,1539.00,41.00,30.20,65.16,0.00,0.00,0.00,29.76,M,10.00,M,SCT,OVC,M,M,4100.00,5000.00,M,M,M,M,M,M,M,M,M,41.00,KRTS 210615Z AUTO 00000KT 10SM SCT041 OVC050 05/M01 A2976 RMK AO2,M
05U,2024-01-21 06:15,-116.0051,39.6042,1811.23,35.60,32.00,86.59,0.00,0.00,0.00,29.83,M,10.00,M,M,M,M,M,M,M,M,M,M,M,M,M,M,M,M,35.60,K05U 210615Z AUTO 00000KT 10SM 02/00 A2983 RMK A01,M
MEV,2024-01-21 06:15,-119.7500,38.9963,1441.42,41.00,30.20,65.16,0.00,0.00,0.00,29.75,M,10.00,M,OVC,M,M,M,6000.00,M,M,M,M,M,M,M,M,M,M,41.00,KMEV 210615Z AUTO 00000KT 10SM OVC060 05/M01 A2975 RMK AO2,M
BAM,2024-01-21 06:15,-116.8743,40.5990,1382.36,37.40,33.80,86.69,0.00,0.00,0.00,29.77,M,10.00,M,BKN,OVC,M,M,7000.00,9000.00,M,M,M,M,M,M,M,M,M,37.40,KBAM 210615Z AUTO 00000KT 10SM BKN070 OVC090 03/01 A2977 RMK AO1,M
HTH,2024-01-21 06:15,-118.6315,38.5448,1282.89,48.20,23.00,36.78,70.00,8.00,0.00,29.75,M,10.00,M,FEW,M,M,M,10000.00,M,M,M,M,M,M,M,M,M,M,44.07,KHTH 210615Z AUTO 07008KT 10SM FEW100 09/M05 A2975 RMK A01,M
10U,2024-01-21 06:15,-116.1876,41.9532,1637.00,39.20,32.00,75.16,120.00,9.00,0.00,29.76,M,10.00,M,FEW,SCT,OVC,M,3300.00,5500.00,7500.00,M,M,M,M,M,M,M,M,32.47,K10U 210615Z AUTO 12009KT 10SM FEW033 SCT055 OVC075 04/M00 A2976 RMK AO2,M
TMT,2024-01-21 06:15,-117.1971,39.4643,1749.34,32.00,29.30,89.63,0.00,0.00,0.00,29.80,M,10.00,M,SCT,BKN,OVC,M,7000.00,9000.00,11000.00,M,M,M,M,M,M,M,M,32.00,KTMT 210615Z AUTO 00000KT 10SM SCT070 BKN090 OVC110 00/M01 A2980 RMK AO2 T00001015,M
BVU,2024-01-21 06:35,-114.8611,35.9475,671.00,51.80,44.60,76.34,30.00,4.00,0.00,29.84,M,10.00,M,FEW,BKN,OVC,M,3200.00,3900.00,5000.00,M,-DZ,M,M,M,M,M,M,51.80,KBVU 210635Z AUTO 03004KT 10SM -DZ FEW032 BKN039 OVC050 11/07 A2984 RMK AO2,M
CXP,2024-01-21 06:35,-119.7326,39.1923,1431.00,42.80,32.00,65.38,80.00,4.00,0.00,29.77,M,10.00,M,BKN,OVC,M,M,5500.00,6500.00,M,M,M,M,M,M,M,M,M,40.03,KCXP 210635Z AUTO 08004KT 10SM BKN055 OVC065 06/00 A2977 RMK AO2,M
RTS,2024-01-21 06:35,-119.8764,39.6682,1539.00,39.20,32.00,75.16,300.00,5.00,0.00,29.76,M,10.00,M,BKN,OVC,M,M,3800.00,4700.00,M,M,M,M,M,M,M,M,M,34.95,KRTS 210635Z AUTO 30005KT 10SM BKN038 OVC047 04/M00 A2976 RMK AO2,M
05U,2024-01-21 06:35,-116.0051,39.6042,1811.23,37.40,32.00,80.65,280.00,5.00,0.00,29.83,M,10.00,M,M,M,M,M,M,M,M,M,M,M,M,M,M,M,M,32.81,K05U 210635Z AUTO 28005KT 10SM 03/00 A2983 RMK A01,M
BAM,2024-01-21 06:35,-116.8743,40.5990,1382.36,37.40,33.80,86.69,0.00,0.00,0.00,29.77,M,10.00,M,BKN,BKN,M,M,6000.00,7000.00,M,M,M,M,M,M,M,M,M,37.40,KBAM 210635Z AUTO 00000KT 10SM BKN060 BKN070 03/01 A2977 RMK AO1,M
10U,2024-01-21 06:35,-116.1876,41.9532,1637.00,39.20,32.00,75.16,120.00,14.00,0.00,29.76,M,10.00,M,BKN,OVC,M,M,7500.00,9500.00,M,M,M,M,M,M,M,M,M,30.44,K10U 210635Z AUTO 12014KT 10SM BKN075 OVC095 04/M00 A2976 RMK AO2,M
TMT,2024-01-21 06:35,-117.1971,39.4643,1749.34,31.60,29.30,91.08,0.00,0.00,0.00,29.79,M,10.00,M,SCT,BKN,OVC,M,3300.00,6500.00,12000.00,M,M,M,M,M,M,M,M,31.60,KTMT 210635Z AUTO 00000KT 10SM SCT033 BKN065 OVC120 00/M01 A2979 RMK AO2 T10021015,M
05U,2024-01-21 06:50,-116.0051,39.6042,1811.23,37.40,33.80,86.69,290.00,7.00,0.00,29.83,M,10.00,M,M,M,M,M,M,M,M,M,M,M,M,M,M,M,M,31.36,K05U 210650Z AUTO 29007KT 10SM 03/01 A2983 RMK A01,M
10U,2024-01-21 06:50,-116.1876,41.9532,1637.00,39.20,32.00,75.16,130.00,12.00,0.00,29.76,M,10.00,18.00,BKN,OVC,M,M,7500.00,10000.00,M,M,M,M,M,M,M,M,M,31.17,K10U 210650Z AUTO 13012G18KT 10SM BKN075 OVC100 04/00 A2976 RMK AO2,M
P68,2024-01-21 06:53,-116.0056,39.6014,1993.00,37.00,32.00,81.93,130.00,6.00,0.00,29.80,1006.90,M,M,M,M,M,M,M,M,M,M,M,M,M,M,M,M,M,31.55,KP68 210653Z AUTO 13006KT 03/00 A2980 RMK AO1 SLP069 T00280000,M
DRA,2024-01-21 06:53,-116.0278,36.6206,1009.00,50.00,39.00,65.75,280.00,4.00,0.00,29.81,1007.30,10.00,M,OVC,M,M,M,7000.00,M,M,M,M,M,M,M,M,M,M,50.00,KDRA 210653Z AUTO 28004KT 10SM OVC070 10/04 A2981 RMK AO2 SLP073 T01000039,M
ELY,2024-01-21 06:53,-114.8453,39.2950,1909.00,37.00,31.00,78.69,200.00,8.00,0.00,29.84,1007.80,10.00,M,SCT,OVC,M,M,4100.00,9000.00,M,M,M,M,M,M,M,M,M,30.27,KELY 210653Z AUTO 20008KT 10SM SCT041 OVC090 03/M01 A2984 RMK AO2 SLP078 T00281006,M
VGT,2024-01-21 06:53,-115.1933,36.2111,667.00,54.00,44.00,68.82,0.00,0.00,T,29.82,1011.10,10.00,M,OVC,M,M,M,6000.00,M,M,M,M,M,M,M,M,M,M,54.00,KVGT 210653Z AUTO 00000KT 10SM OVC060 12/07 A2982 RMK AO2 RAB09E47 SLP111 P0000 T01220067,M
LOL,2024-01-21 06:53,-118.5701,40.0684,1192.43,40.00,32.00,72.85,280.00,3.00,0.00,29.73,1006.30,10.00,M,OVC,M,M,M,9000.00,M,M,M,M,M,M,M,M,M,M,37.83,KLOL 210653Z AUTO 28003KT 10SM OVC090 04/00 A2973 RMK AO2 SLP063 T00440000,M
BVU,2024-01-21 06:55,-114.8611,35.9475,671.00,51.80,44.60,76.34,40.00,4.00,0.00,29.83,M,10.00,M,SCT,BKN,OVC,M,3900.00,6000.00,7000.00,M,M,M,M,M,M,M,M,51.80,KBVU 210655Z AUTO 04004KT 10SM SCT039 BKN060 OVC070 11/07 A2983 RMK AO2,M
CXP,2024-01-21 06:55,-119.7326,39.1923,1431.00,42.80,32.00,65.38,0.00,0.00,0.00,29.77,M,10.00,M,OVC,M,M,M,5500.00,M,M,M,M,M,M,M,M,M,M,42.80,KCXP 210655Z AUTO 00000KT 10SM OVC055 06/M00 A2977 RMK AO2,M
RNO,2024-01-21 06:55,-119.7711,39.4839,1341.00,44.00,33.00,65.01,290.00,5.00,0.00,29.75,1005.40,10.00,M,FEW,BKN,M,M,4000.00,6000.00,M,M,M,M,M,M,M,M,M,40.65,KRNO 210655Z 29005KT 10SM FEW040 BKN060 07/01 A2975 RMK AO2 SLP054 SH VC T00670006,M
LSV,2024-01-21 06:55,-115.0343,36.2362,570.00,53.00,46.20,77.62,10.00,5.00,0.00,29.80,1008.60,10.00,M,SCT,OVC,M,M,6000.00,7500.00,M,M,M,M,M,M,M,M,M,53.00,KLSV 210655Z 01005KT 10SM SCT060 OVC075 12/08 A2980 RMK AO2A SLP086 T01160079 $,M
RTS,2024-01-21 06:55,-119.8764,39.6682,1539.00,39.20,30.20,69.88,0.00,0.00,0.00,29.76,M,10.00,M,BKN,OVC,M,M,3800.00,4700.00,M,M,M,M,M,M,M,M,M,39.20,KRTS 210655Z AUTO 00000KT 10SM BKN038 OVC047 04/M01 A2976 RMK AO2,M
MEV,2024-01-21 06:55,-119.7500,38.9963,1441.42,39.20,32.00,75.16,80.00,5.00,0.00,29.75,M,10.00,M,BKN,OVC,M,M,5500.00,6500.00,M,M,M,M,M,M,M,M,M,34.95,KMEV 210655Z AUTO 08005KT 10SM BKN055 OVC065 04/M00 A2975 RMK AO2,M
BAM,2024-01-21 06:55,-116.8743,40.5990,1382.36,37.40,33.80,86.69,100.00,3.00,0.00,29.76,M,10.00,M,SCT,SCT,SCT,M,6000.00,8000.00,12000.00,M,M,M,M,M,M,M,M,34.86,KBAM 210655Z AUTO 10003KT 10SM SCT060 SCT080 SCT120 03/01 A2976 RMK AO1,M
HTH,2024-01-21 06:55,-118.6315,38.5448,1282.89,46.40,26.60,45.73,130.00,8.00,0.00,29.75,M,10.00,M,CLR,M,M,M,M,M,M,M,M,M,M,M,M,M,M,41.85,KHTH 210655Z AUTO 13008KT 10SM CLR 08/M03 A2975 RMK A01,M
TMT,2024-01-21 06:55,-117.1971,39.4643,1749.34,31.60,29.70,92.58,360.00,4.00,0.00,29.78,M,10.00,M,SCT,SCT,OVC,M,6500.00,10000.00,12000.00,M,M,M,M,M,M,M,M,26.95,KTMT 210655Z AUTO 36004KT 10SM SCT065 SCT100 OVC120 00/M01 A2978 RMK AO2 T10021013,M
EKO,2024-01-21 06:56,-115.7860,40.8242,1367.00,40.00,32.00,72.85,10.00,3.00,0.00,29.78,1008.00,10.00,M,BKN,OVC,M,M,8000.00,10000.00,M,M,M,M,M,M,M,M,M,37.83,KEKO 210656Z AUTO 01003KT 10SM BKN080 OVC100 04/00 A2978 RMK AO2 SLP080 T00440000,M
NFL,2024-01-21 06:56,-118.7010,39.4166,1199.00,44.00,33.00,65.01,200.00,4.00,0.00,29.73,1004.80,10.00,M,OVC,M,M,M,9500.00,M,M,M,M,M,M,M,M,M,M,41.43,KNFL 210656Z AUTO 20004KT 10SM OVC095 07/01 A2973 RMK AO2 SLP048 T00670006,M
HND,2024-01-21 06:56,-115.1344,35.9729,742.79,52.00,42.00,68.59,200.00,5.00,0.00,29.85,1012.10,10.00,M,OVC,M,M,M,6000.00,M,M,M,M,M,M,M,M,M,M,52.00,KHND 210656Z AUTO 20005KT 10SM OVC060 11/06 A2985 RMK AO2 SLP121 T01110056 401440067,M
TPH,2024-01-21 06:56,-117.0904,38.0505,1654.00,41.00,36.00,82.22,160.00,8.00,0.00,29.82,1007.60,10.00,M,BKN,OVC,M,M,1700.00,2800.00,M,M,M,M,M,M,M,M,M,35.20,KTPH 210656Z AUTO 16008KT 10SM BKN017 OVC028 05/02 A2982 RMK AO2 SLP076 T00500022,M
LAS,2024-01-21 06:56,-115.1634,36.0719,663.00,55.00,43.00,63.86,200.00,5.00,0.00,29.83,1009.30,10.00,M,FEW,BKN,OVC,M,3500.00,6000.00,8500.00,M,M,M,M,M,M,M,M,55.00,KLAS 210656Z 20005KT 10SM FEW035 BKN060 OVC085 13/06 A2983 RMK AO2 SLP093 T01280061,M
WMC,2024-01-21 06:56,-117.8072,40.9019,1315.00,43.00,34.00,70.30,280.00,4.00,0.00,29.73,1005.30,10.00,M,OVC,M,M,M,6000.00,M,M,M,M,M,M,M,M,M,M,40.27,KWMC 210656Z AUTO 28004KT 10SM OVC060 06/01 A2973 RMK AO2 SLP053 T00610011,M
BVU,2024-01-21 07:15,-114.8611,35.9475,671.00,53.60,42.80,66.70,0.00,0.00,0.00,29.83,M,10.00,M,SCT,OVC,M,M,6000.00,7000.00,M,M,M,M,M,M,M,M,M,53.60,KBVU 210715Z AUTO 00000KT 10SM SCT060 OVC070 12/06 A2983 RMK AO2,M
CXP,2024-01-21 07:15,-119.7326,39.1923,1431.00,41.00,32.00,70.08,50.00,3.00,0.00,29.77,M,10.00,M,OVC,M,M,M,5500.00,M,M,M,M,M,M,M,M,M,M,38.98,KCXP 210715Z AUTO 05003KT 10SM OVC055 05/00 A2977 RMK AO2,M
RTS,2024-01-21 07:15,-119.8764,39.6682,1539.00,39.20,30.20,69.88,360.00,5.00,0.00,29.77,M,10.00,M,SCT,OVC,M,M,3700.00,4500.00,M,M,M,M,M,M,M,M,M,34.95,KRTS 210715Z AUTO 36005KT 10SM SCT037 OVC045 04/M01 A2977 RMK AO2,M
05U,2024-01-21 07:15,-116.0051,39.6042,1811.23,37.40,33.80,86.69,310.00,9.00,0.00,29.82,M,10.00,M,M,M,M,M,M,M,M,M,M,M,M,M,M,M,M,30.23,K05U 210715Z AUTO 31009KT 10SM 03/01 A2982 RMK A01,M
MEV,2024-01-21 07:15,-119.7500,38.9963,1441.42,41.00,30.20,65.16,70.00,6.00,0.00,29.75,M,10.00,M,BKN,OVC,M,M,6000.00,6500.00,M,M,M,M,M,M,M,M,M,36.37,KMEV 210715Z AUTO 07006KT 10SM BKN060 OVC065 05/M01 A2975 RMK AO2,M
BAM,2024-01-21 07:15,-116.8743,40.5990,1382.36,37.40,33.80,86.69,100.00,4.00,0.00,29.77,M,10.00,M,SCT,BKN,M,M,10000.00,12000.00,M,M,M,M,M,M,M,M,M,33.73,KBAM 210715Z AUTO 10004KT 10SM SCT100 BKN120 03/01 A2977 RMK AO1,M
HTH,2024-01-21 07:15,-118.6315,38.5448,1282.89,44.60,26.60,48.96,150.00,9.00,0.00,29.75,M,10.00,M,FEW,M,M,M,9500.00,M,M,M,M,M,M,M,M,M,M,39.18,KHTH 210715Z AUTO 15009KT 10SM FEW095 07/M03 A2975 RMK A01,M
10U,2024-01-21 07:15,-116.1876,41.9532,1637.00,37.40,32.00,80.65,130.00,11.00,0.00,29.75,M,10.00,M,FEW,BKN,M,M,7500.00,9500.00,M,M,M,M,M,M,M,M,M,29.29,K10U 210715Z AUTO 13011KT 10SM FEW075 BKN095 03/00 A2975 RMK AO2,M
TMT,2024-01-21 07:15,-117.1971,39.4643,1749.34,32.00,29.30,89.63,0.00,0.00,0.00,29.79,M,10.00,M,SCT,BKN,OVC,M,7000.00,7500.00,9000.00,M,M,M,M,M,M,M,M,32.00,KTMT 210715Z AUTO 00000KT 10SM SCT070 BKN075 OVC090 00/M01 A2979 RMK AO2 T00001015,M
BVU,2024-01-21 07:35,-114.8611,35.9475,671.00,53.60,42.80,66.70,110.00,3.00,0.00,29.82,M,10.00,M,BKN,OVC,M,M,5500.00,7000.00,M,M,M,M,M,M,M,M,M,53.60,KBVU 210735Z AUTO 11003KT 10SM BKN055 OVC070 12/06 A2982 RMK AO2,M
CXP,2024-01-21 07:35,-119.7326,39.1923,1431.00,42.80,32.00,65.38,0.00,0.00,0.00,29.78,M,10.00,M,OVC,M,M,M,5500.00,M,M,M,M,M,M,M,M,M,M,42.80,KCXP 210735Z AUTO 00000KT 10SM OVC055 06/M00 A2978 RMK AO2,M
RTS,2024-01-21 07:35,-119.8764,39.6682,1539.00,39.20,30.20,69.88,0.00,0.00,0.00,29.77,M,10.00,M,BKN,OVC,M,M,4200.00,4700.00,M,M,M,M,M,M,M,M,M,39.20,KRTS 210735Z AUTO 00000KT 10SM BKN042 OVC047 04/M01 A2977 RMK AO2,M
05U,2024-01-21 07:35,-116.0051,39.6042,1811.23,39.20,33.80,80.79,330.00,8.00,0.00,29.81,M,10.00,M,M,M,M,M,M,M,M,M,M,M,M,M,M,M,M,32.98,K05U 210735Z AUTO 33008KT 10SM 04/01 A2981 RMK A01,M
MEV,2024-01-21 07:35,-119.7500,38.9963,1441.42,41.00,30.20,65.16,0.00,0.00,0.00,29.76,M,10.00,M,OVC,M,M,M,6500.00,M,M,M,M,M,M,M,M,M,M,41.00,KMEV 210735Z AUTO 00000KT 10SM OVC065 05/M01 A2976 RMK AO2,M
BAM,2024-01-21 07:35,-116.8743,40.5990,1382.36,37.40,33.80,86.69,110.00,4.00,0.00,29.76,M,10.00,M,OVC,M,M,M,10000.00,M,M,M,M,M,M,M,M,M,M,33.73,KBAM 210735Z AUTO 11004KT 10SM OVC100 03/01 A2976 RMK AO1,M
HTH,2024-01-21 07:35,-118.6315,38.5448,1282.89,44.60,26.60,48.96,130.00,7.00,0.00,29.75,M,10.00,M,FEW,FEW,M,M,9500.00,12000.00,M,M,M,M,M,M,M,M,M,40.14,KHTH 210735Z AUTO 13007KT 10SM FEW095 FEW120 07/M03 A2975 RMK A01,M
10U,2024-01-21 07:35,-116.1876,41.9532,1637.00,37.40,32.00,80.65,120.00,11.00,0.00,29.74,M,10.00,M,SCT,BKN,M,M,9500.00,11000.00,M,M,M,M,M,M,M,M,M,29.29,K10U 210735Z AUTO 12011KT 10SM SCT095 BKN110 03/00 A2974 RMK AO2,M
TMT,2024-01-21 07:35,-117.1971,39.4643,1749.34,31.00,29.30,93.32,0.00,0.00,0.00,29.79,M,10.00,M,SCT,OVC,M,M,6000.00,9000.00,M,M,M,M,M,M,M,M,M,31.00,KTMT 210735Z AUTO 00000KT 10SM SCT060 OVC090 00/M01 A2979 RMK AO2 T10051015,M
TPH,2024-01-21 07:45,-117.0904,38.0505,1654.00,40.00,36.00,85.48,150.00,5.00,0.00,29.81,M,10.00,M,BKN,BKN,OVC,M,1400.00,2500.00,5000.00,M,M,M,M,M,M,M,M,35.90,KTPH 210745Z AUTO 15005KT 10SM BKN014 BKN025 OVC050 04/02 A2981 RMK AO2 T00440022,M
P68,2024-01-21 07:53,-116.0056,39.6014,1993.00,38.00,33.00,82.00,230.00,6.00,0.00,29.79,1006.20,M,M,M,M,M,M,M,M,M,M,M,M,M,M,M,M,M,32.76,KP68 210753Z AUTO 23006KT 03/01 A2979 RMK AO1 SLP062 T00330006 400780011,M
DRA,2024-01-21 07:53,-116.0278,36.6206,1009.00,49.00,38.00,65.63,0.00,0.00,0.00,29.81,1007.10,10.00,M,FEW,FEW,M,M,5500.00,8000.00,M,M,M,M,M,M,M,M,M,49.00,KDRA 210753Z AUTO 00000KT 10SM FEW055 FEW080 09/03 A2981 RMK AO2 SLP071 T00940033 401560050,M
ELY,2024-01-21 07:53,-114.8453,39.2950,1909.00,35.00,31.00,85.17,210.00,10.00,0.00,29.82,1007.90,10.00,M,BKN,OVC,M,M,4000.00,8000.00,M,M,M,M,M,M,M,M,M,26.73,KELY 210753Z AUTO 21010KT 10SM BKN040 OVC080 02/M01 A2982 RMK AO2 SLP079 T00171006 400670017,M
VGT,2024-01-21 07:53,-115.1933,36.2111,667.00,53.00,45.00,74.16,30.00,3.00,0.00,29.82,1011.00,10.00,M,OVC,M,M,M,5500.00,M,M,M,M,M,M,M,M,M,M,53.00,KVGT 210753Z AUTO 03003KT 10SM OVC055 12/07 A2982 RMK AO2 SLP110 T01170072 401560089,M
LOL,2024-01-21 07:53,-118.5701,40.0684,1192.43,42.00,32.00,67.42,0.00,0.00,0.00,29.73,1005.80,10.00,M,OVC,M,M,M,8000.00,M,M,M,M,M,M,M,M,M,M,42.00,KLOL 210753Z AUTO 00000KT 10SM OVC080 06/00 A2973 RMK AO2 SLP058 T00560000 401281011,M
05U,2024-01-21 07:55,-116.0051,39.6042,1811.23,39.20,33.80,80.79,30.00,6.00,0.00,29.81,M,10.00,M,M,M,M,M,M,M,M,M,M,M,M,M,M,M,M,34.20,K05U 210755Z AUTO 03006KT 10SM 04/01 A2981 RMK A01,M
BVU,2024-01-21 07:55,-114.8611,35.9475,671.00,53.60,42.80,66.70,0.00,0.00,0.00,29.82,M,10.00,M,FEW,OVC,M,M,4000.00,5500.00,M,M,M,M,M,M,M,M,M,53.60,KBVU 210755Z AUTO 00000KT 10SM FEW040 OVC055 12/06 A2982 RMK AO2,M
CXP,2024-01-21 07:55,-119.7326,39.1923,1431.00,42.80,32.00,65.38,0.00,0.00,0.00,29.78,M,10.00,M,SCT,OVC,M,M,4800.00,5500.00,M,M,M,M,M,M,M,M,M,42.80,KCXP 210755Z AUTO 00000KT 10SM SCT048 OVC055 06/00 A2978 RMK AO2,M
INS,2024-01-21 07:55,-115.6733,36.5872,955.00,50.00,37.00,60.79,0.00,0.00,0.00,29.80,1007.20,10.00,M,OVC,M,M,M,6500.00,M,M,M,M,M,M,M,M,M,M,50.00,KINS 210755Z AUTO 00000KT 10SM OVC065 10/03 A2980 RMK AO2 SLP072 T01010027 401400044,M
RNO,2024-01-21 07:55,-119.7711,39.4839,1341.00,44.00,33.00,65.01,0.00,0.00,0.00,29.75,1005.60,10.00,M,BKN,M,M,M,6000.00,M,M,M,M,M,M,M,M,M,M,44.00,KRNO 210755Z 00000KT 10SM BKN060 07/01 A2975 RMK AO2 SLP056 T00670006 401170011,M
RTS,2024-01-21 07:55,-119.8764,39.6682,1539.00,37.40,30.20,74.98,0.00,0.00,0.00,29.77,M,10.00,M,FEW,BKN,OVC,M,4000.00,4500.00,5500.00,M,M,M,M,M,M,M,M,37.40,KRTS 210755Z AUTO 00000KT 10SM FEW040 BKN045 OVC055 03/M01 A2977 RMK AO2,M
MEV,2024-01-21 07:55,-119.7500,38.9963,1441.42,41.00,30.20,65.16,0.00,0.00,0.00,29.76,M,10.00,M,OVC,M,M,M,6000.00,M,M,M,M,M,M,M,M,M,M,41.00,KMEV 210755Z AUTO 00000KT 10SM OVC060 05/M01 A2976 RMK AO2,M
BAM,2024-01-21 07:55,-116.8743,40.5990,1382.36,37.40,33.80,86.69,140.00,3.00,0.00,29.76,M,10.00,M,OVC,M,M,M,10000.00,M,M,M,M,M,M,M,M,M,M,34.86,KBAM 210755Z AUTO 14003KT 10SM OVC100 03/01 A2976 RMK AO1,M
HTH,2024-01-21 07:55,-118.6315,38.5448,1282.89,44.60,26.60,48.96,130.00,8.00,0.00,29.75,M,10.00,M,FEW,FEW,M,M,10000.00,12000.00,M,M,M,M,M,M,M,M,M,39.63,KHTH 210755Z AUTO 13008KT 10SM FEW100 FEW120 07/M03 A2975 RMK A01,M
LSV,2024-01-21 07:55,-115.0343,36.2362,570.00,52.00,45.70,79.01,50.00,6.00,0.00,29.80,1008.40,10.00,M,OVC,M,M,M,6000.00,M,M,M,M,M,M,M,M,M,M,52.00,KLSV 210755Z AUTO 05006KT 10SM OVC060 11/08 A2980 RMK AO2 SLP084 T01110076 401600067 $,M
TMT,2024-01-21 07:55,-117.1971,39.4643,1749.34,31.30,29.50,92.95,0.00,0.00,0.00,29.79,M,10.00,M,SCT,OVC,M,M,6000.00,9000.00,M,M,M,M,M,M,M,M,M,31.30,KTMT 210755Z AUTO 00000KT 10SM SCT060 OVC090 00/M01 A2979 RMK AO2 T10041014 400861015,M
10U,2024-01-21 07:55,-116.1876,41.9532,1637.00,37.40,32.00,80.65,120.00,8.00,0.00,29.74,M,10.00,M,FEW,BKN,OVC,M,5500.00,7500.00,11000.00,M,M,M,M,M,M,M,M,30.76,K10U 210755Z AUTO 12008KT 10SM FEW055 BKN075 OVC110 03/M00 A2974 RMK AO2,M
EKO,2024-01-21 07:56,-115.7860,40.8242,1367.00,35.00,30.00,81.78,80.00,4.00,0.00,29.77,1007.80,10.00,M,SCT,M,M,M,9000.00,M,M,M,M,M,M,M,M,M,M,30.92,KEKO 210756Z AUTO 08004KT 10SM SCT090 02/M01 A2977 RMK AO2 SLP078 T00171011 400941011,M
NFL,2024-01-21 07:56,-118.7010,39.4166,1199.00,44.00,34.00,67.66,170.00,3.00,0.00,29.74,1005.00,10.00,M,OVC,M,M,M,9000.00,M,M,M,M,M,M,M,M,M,M,42.41,KNFL 210756Z AUTO 17003KT 10SM OVC090 07/01 A2974 RMK AO2 SLP050 T00670011 401440061,M
HND,2024-01-21 07:56,-115.1344,35.9729,742.79,51.00,42.00,71.18,0.00,0.00,0.00,29.84,1011.70,10.00,M,OVC,M,M,M,6000.00,M,M,M,M,M,M,M,M,M,M,51.00,KHND 210756Z AUTO 00000KT 10SM OVC060 11/06 A2984 RMK AO2 SLP117 T01060056,M
TPH,2024-01-21 07:56,-117.0904,38.0505,1654.00,40.00,36.00,85.48,130.00,5.00,0.00,29.81,1007.60,10.00,M,OVC,M,M,M,1400.00,M,M,M,M,M,M,M,M,M,M,35.90,KTPH 210756Z AUTO 13005KT 10SM OVC014 04/02 A2981 RMK AO2 SLP076 T00440022 400940011,M
LAS,2024-01-21 07:56,-115.1634,36.0719,663.00,54.00,43.00,66.24,0.00,0.00,0.00,29.82,1009.00,10.00,M,BKN,OVC,M,M,6000.00,8500.00,M,M,M,M,M,M,M,M,M,54.00,KLAS 210756Z 00000KT 10SM BKN060 OVC085 12/06 A2982 RMK AO2 SLP090 T01220061 401500089,M
WMC,2024-01-21 07:56,-117.8072,40.9019,1315.00,42.00,34.00,73.06,60.00,4.00,T,29.74,1005.40,10.00,M,FEW,OVC,M,M,4200.00,5500.00,M,M,M,M,M,M,M,M,M,39.10,KWMC 210756Z AUTO 06004KT 10SM FEW042 OVC055 06/01 A2974 RMK AO2 RAB03E13 SLP054 P0000 T00560011 401330022,M
CXP,2024-01-21 08:10,-119.7326,39.1923,1431.00,41.00,32.00,70.08,0.00,0.00,0.00,29.78,M,10.00,M,FEW,OVC,M,M,4800.00,5500.00,M,M,M,M,M,M,M,M,M,41.00,KCXP 210810Z AUTO 00000KT 10SM FEW048 OVC055 05/00 A2978 RMK AO2,M
05U,2024-01-21 08:10,-116.0051,39.6042,1811.23,39.20,33.80,80.79,10.00,8.00,0.00,29.81,M,10.00,M,M,M,M,M,M,M,M,M,M,M,M,M,M,M,M,32.98,K05U 210810Z AUTO 01008KT 10SM 04/01 A2981 RMK A01,M
HTH,2024-01-21 08:10,-118.6315,38.5448,1282.89,46.40,26.60,45.73,130.00,9.00,0.00,29.75,M,10.00,M,BKN,M,M,M,10000.00,M,M,M,M,M,M,M,M,M,M,41.42,KHTH 210810Z AUTO 13009KT 10SM BKN100 08/M03 A2975 RMK A01,M
10U,2024-01-21 08:10,-116.1876,41.9532,1637.00,37.40,32.00,80.65,120.00,7.00,0.00,29.74,M,10.00,M,FEW,BKN,OVC,M,5000.00,6500.00,7500.00,M,M,M,M,M,M,M,M,31.36,K10U 210810Z AUTO 12007KT 10SM FEW050 BKN065 OVC075 03/M00 A2974 RMK AO2,M
BVU,2024-01-21 08:15,-114.8611,35.9475,671.00,53.60,42.80,66.70,120.00,3.00,0.00,29.82,M,10.00,M,OVC,M,M,M,5500.00,M,M,M,M,M,M,M,M,M,M,53.60,KBVU 210815Z AUTO 12003KT 10SM OVC055 12/06 A2982 RMK AO2,M
RTS,2024-01-21 08:15,-119.8764,39.6682,1539.00,39.20,30.20,69.88,M,4.00,0.00,29.77,M,10.00,M,BKN,OVC,M,M,4600.00,6000.00,M,M,M,M,M,M,M,M,M,35.83,KRTS 210815Z AUTO VRB04KT 10SM BKN046 OVC060 04/M01 A2977 RMK AO2,M
MEV,2024-01-21 08:15,-119.7500,38.9963,1441.42,37.40,30.20,74.98,110.00,5.00,0.00,29.76,M,10.00,M,OVC,M,M,M,6000.00,M,M,M,M,M,M,M,M,M,M,32.81,KMEV 210815Z AUTO 11005KT 10SM OVC060 03/M01 A2976 RMK AO2,M
BAM,2024-01-21 08:15,-116.8743,40.5990,1382.36,37.40,33.80,86.69,60.00,4.00,0.00,29.76,M,10.00,M,SCT,OVC,M,M,10000.00,11000.00,M,M,M,M,M,M,M,M,M,33.73,KBAM 210815Z AUTO 06004KT 10SM SCT100 OVC110 03/01 A2976 RMK AO1,M
TMT,2024-01-21 08:15,-117.1971,39.4643,1749.34,32.00,30.00,92.22,270.00,4.00,0.00,29.79,M,10.00,M,BKN,BKN,OVC,M,5500.00,6500.00,8500.00,M,M,M,M,M,M,M,M,27.42,KTMT 210815Z AUTO 27004KT 10SM BKN055 BKN065 OVC085 00/M01 A2979 RMK AO2 T00001011,M
CXP,2024-01-21 08:30,-119.7326,39.1923,1431.00,42.80,32.00,65.38,0.00,0.00,0.00,29.78,M,10.00,M,OVC,M,M,M,5000.00,M,M,M,M,M,M,M,M,M,M,42.80,KCXP 210830Z AUTO 00000KT 10SM OVC050 06/00 A2978 RMK AO2,M
05U,2024-01-21 08:30,-116.0051,39.6042,1811.23,39.20,32.00,75.16,310.00,3.00,0.00,29.82,M,10.00,M,M,M,M,M,M,M,M,M,M,M,M,M,M,M,M,36.92,K05U 210830Z AUTO 31003KT 10SM 04/00 A2982 RMK A01,M
HTH,2024-01-21 08:30,-118.6315,38.5448,1282.89,44.60,28.40,52.72,150.00,8.00,0.00,29.75,M,10.00,M,SCT,SCT,M,M,10000.00,12000.00,M,M,M,M,M,M,M,M,M,39.63,KHTH 210830Z AUTO 15008KT 10SM SCT100 SCT120 07/M02 A2975 RMK A01,M
10U,2024-01-21 08:30,-116.1876,41.9532,1637.00,37.40,32.00,80.65,M,4.00,0.00,29.75,M,10.00,M,SCT,BKN,OVC,M,3400.00,4600.00,5500.00,M,M,M,M,M,M,M,M,33.73,K10U 210830Z AUTO VRB04KT 10SM SCT034 BKN046 OVC055 03/M00 A2975 RMK AO2,M
BVU,2024-01-21 08:35,-114.8611,35.9475,671.00,53.60,41.00,62.23,140.00,3.00,0.00,29.82,M,10.00,M,BKN,OVC,M,M,6000.00,7000.00,M,M,M,M,M,M,M,M,M,53.60,KBVU 210835Z AUTO 14003KT 10SM BKN060 OVC070 12/05 A2982 RMK AO2,M
RTS,2024-01-21 08:35,-119.8764,39.6682,1539.00,39.20,30.20,69.88,0.00,0.00,0.00,29.77,M,10.00,M,BKN,OVC,M,M,4000.00,4600.00,M,M,M,M,M,M,M,M,M,39.20,KRTS 210835Z AUTO 00000KT 10SM BKN040 OVC046 04/M01 A2977 RMK AO2,M
MEV,2024-01-21 08:35,-119.7500,38.9963,1441.42,37.40,30.20,74.98,90.00,5.00,0.00,29.77,M,10.00,M,OVC,M,M,M,5500.00,M,M,M,M,M,M,M,M,M,M,32.81,KMEV 210835Z AUTO 09005KT 10SM OVC055 03/M01 A2977 RMK AO2,M
BAM,2024-01-21 08:35,-116.8743,40.5990,1382.36,37.40,33.80,86.69,50.00,4.00,0.00,29.76,M,10.00,M,OVC,M,M,M,10000.00,M,M,M,M,M,M,M,M,M,M,33.73,KBAM 210835Z AUTO 05004KT 10SM OVC100 03/01 A2976 RMK AO1,M
TMT,2024-01-21 08:35,-117.1971,39.4643,1749.34,32.00,30.20,92.97,0.00,0.00,0.00,29.79,M,10.00,M,SCT,OVC,M,M,5500.00,6500.00,M,M,M,M,M,M,M,M,M,32.00,KTMT 210835Z AUTO 00000KT 10SM SCT055 OVC065 00/M01 A2979 RMK AO2 T00001010,M
TPH,2024-01-21 08:49,-117.0904,38.0505,1654.00,40.00,35.00,82.15,140.00,8.00,0.00,29.81,M,10.00,M,FEW,OVC,M,M,1300.00,2000.00,M,M,M,M,M,M,M,M,M,33.97,KTPH 210849Z AUTO 14008KT 10SM FEW013 OVC020 04/02 A2981 RMK AO2 T00440017,M
P68,2024-01-21 08:53,-116.0056,39.6014,1993.00,37.00,32.00,81.93,140.00,7.00,0.00,29.79,1006.20,M,M,M,M,M,M,M,M,M,M,M,M,M,M,M,M,M,30.87,KP68 210853Z AUTO 14007KT 03/00 A2979 RMK AO1 SLP062 T00280000 55005,M
DRA,2024-01-21 08:53,-116.0278,36.6206,1009.00,45.00,37.00,73.37,30.00,6.00,0.00,29.80,1006.90,10.00,M,FEW,M,M,M,5000.00,M,M,M,M,M,M,M,M,M,M,41.19,KDRA 210853Z AUTO 03006KT 10SM FEW050 07/03 A2980 RMK AO2 SLP069 T00720028 58002,M
ELY,2024-01-21 08:53,-114.8453,39.2950,1909.00,35.00,31.00,85.17,210.00,7.00,0.00,29.82,1007.50,10.00,M,BKN,M,M,M,4300.00,M,M,M,M,M,M,M,M,M,M,28.44,KELY 210853Z AUTO 21007KT 10SM BKN043 02/M01 A2982 RMK AO2 SLP075 T00171006 58003,M
VGT,2024-01-21 08:53,-115.1933,36.2111,667.00,53.00,45.00,74.16,60.00,4.00,0.00,29.81,1010.70,10.00,M,OVC,M,M,M,6000.00,M,M,M,M,M,M,M,M,M,M,53.00,KVGT 210853Z AUTO 06004KT 10SM OVC060 12/07 A2981 RMK AO2 SLP107 60000 T01170072 56009,M
LOL,2024-01-21 08:53,-118.5701,40.0684,1192.43,40.00,33.00,75.84,0.00,0.00,0.00,29.75,1006.60,10.00,M,SCT,OVC,M,M,7000.00,8500.00,M,M,M,M,M,M,M,M,M,40.00,KLOL 210853Z AUTO 00000KT 10SM SCT070 OVC085 04/01 A2975 RMK AO2 SLP066 T00440006 53010,M
BVU,2024-01-21 08:55,-114.8611,35.9475,671.00,51.80,42.80,71.26,0.00,0.00,0.00,29.82,M,10.00,M,FEW,BKN,OVC,M,5000.00,6000.00,7000.00,M,M,M,M,M,M,M,M,51.80,KBVU 210855Z AUTO 00000KT 10SM FEW050 BKN060 OVC070 11/06 A2982 RMK AO2,M
CXP,2024-01-21 08:55,-119.7326,39.1923,1431.00,41.00,32.00,70.08,0.00,0.00,0.00,29.78,M,10.00,M,OVC,M,M,M,5000.00,M,M,M,M,M,M,M,M,M,M,41.00,KCXP 210855Z AUTO 00000KT 10SM OVC050 05/00 A2978 RMK AO2,M
INS,2024-01-21 08:55,-115.6733,36.5872,955.00,48.40,39.70,71.73,100.00,10.00,0.00,29.81,1007.50,10.00,M,FEW,M,M,M,9500.00,M,M,M,M,M,M,M,M,M,M,43.53,KINS 210855Z AUTO 10010KT 10SM FEW095 09/04 A2981 RMK AO2 SLP075 T00910043 55004,M
RNO,2024-01-21 08:55,-119.7711,39.4839,1341.00,43.00,33.00,67.54,0.00,0.00,0.00,29.76,1005.90,10.00,M,BKN,M,M,M,6000.00,M,M,M,M,M,M,M,M,M,M,43.00,KRNO 210855Z 00000KT 10SM BKN060 06/01 A2976 RMK AO2 SLP059 T00610006 51004,M
RTS,2024-01-21 08:55,-119.8764,39.6682,1539.00,39.20,30.20,69.88,330.00,4.00,0.00,29.77,M,10.00,M,SCT,BKN,OVC,M,4000.00,4500.00,6500.00,M,M,M,M,M,M,M,M,35.83,KRTS 210855Z AUTO 33004KT 10SM SCT040 BKN045 OVC065 04/M01 A2977 RMK AO2,M
05U,2024-01-21 08:55,-116.0051,39.6042,1811.23,37.40,32.00,80.65,300.00,5.00,0.00,29.82,M,10.00,M,M,M,M,M,M,M,M,M,M,M,M,M,M,M,M,32.81,K05U 210855Z AUTO 30005KT 10SM 03/00 A2982 RMK A01,M
MEV,2024-01-21 08:55,-119.7500,38.9963,1441.42,39.20,30.20,69.88,110.00,4.00,0.00,29.77,M,10.00,M,OVC,M,M,M,5500.00,M,M,M,M,M,M,M,M,M,M,35.83,KMEV 210855Z AUTO 11004KT 10SM OVC055 04/M01 A2977 RMK AO2,M
BAM,2024-01-21 08:55,-116.8743,40.5990,1382.36,41.00,33.80,75.33,60.00,6.00,0.00,29.76,M,10.00,M,SCT,OVC,M,M,7000.00,9000.00,M,M,M,M,M,M,M,M,M,36.37,KBAM 210855Z AUTO 06006KT 10SM SCT070 OVC090 05/01 A2976 RMK AO1,M
HTH,2024-01-21 08:55,-118.6315,38.5448,1282.89,46.40,26.60,45.73,130.00,12.00,0.00,29.76,M,10.00,M,SCT,M,M,M,10000.00,M,M,M,M,M,M,M,M,M,M,40.33,KHTH 210855Z AUTO 13012KT 10SM SCT100 08/M03 A2976 RMK A01,M
LSV,2024-01-21 08:55,-115.0343,36.2362,570.00,51.60,45.30,78.98,60.00,4.00,0.00,29.79,1008.10,10.00,M,OVC,M,M,M,5500.00,M,M,M,M,M,M,M,M,M,M,51.60,KLSV 210855Z AUTO 06004KT 10SM OVC055 11/07 A2979 RMK AO2 SLP081 T01090074 57007 $,M
TMT,2024-01-21 08:55,-117.1971,39.4643,1749.34,32.00,30.20,92.97,140.00,4.00,0.00,29.80,M,10.00,M,OVC,M,M,M,6500.00,M,M,M,M,M,M,M,M,M,M,27.42,KTMT 210855Z AUTO 14004KT 10SM OVC065 00/M01 A2980 RMK AO2 T00001010,M
10U,2024-01-21 08:55,-116.1876,41.9532,1637.00,37.40,32.00,80.65,220.00,6.00,0.00,29.77,M,10.00,M,FEW,SCT,BKN,M,1600.00,2700.00,3500.00,M,-RA,M,M,M,M,M,M,32.03,K10U 210855Z AUTO 22006KT 10SM -RA FEW016 SCT027 BKN035 03/00 A2977 RMK AO2,M
EKO,2024-01-21 08:56,-115.7860,40.8242,1367.00,37.00,31.00,78.69,0.00,0.00,0.00,29.77,1007.20,10.00,M,SCT,M,M,M,11000.00,M,M,M,M,M,M,M,M,M,M,37.00,KEKO 210856Z AUTO 00000KT 10SM SCT110 03/M01 A2977 RMK AO2 SLP072 T00281006 58004,M
NFL,2024-01-21 08:56,-118.7010,39.4166,1199.00,43.00,34.00,70.30,150.00,4.00,0.00,29.74,1005.10,10.00,M,OVC,M,M,M,9000.00,M,M,M,M,M,M,M,M,M,M,40.27,KNFL 210856Z AUTO 15004KT 10SM OVC090 06/01 A2974 RMK AO2 SLP051 T00610011 51005,M
HND,2024-01-21 08:56,-115.1344,35.9729,742.79,51.00,41.00,68.48,190.00,9.00,0.00,29.84,1011.50,10.00,M,FEW,OVC,M,M,6500.00,10000.00,M,M,M,M,M,M,M,M,M,51.00,KHND 210856Z AUTO 19009KT 10SM FEW065 OVC100 11/05 A2984 RMK AO2 SLP115 T01060050 56009,M
TPH,2024-01-21 08:56,-117.0904,38.0505,1654.00,40.00,34.00,78.94,150.00,7.00,0.00,29.81,1007.50,10.00,M,FEW,SCT,OVC,M,1300.00,1700.00,2200.00,M,M,M,M,M,M,M,M,34.53,KTPH 210856Z AUTO 15007KT 10SM FEW013 SCT017 OVC022 04/01 A2981 RMK AO2 SLP075 T00440011 55001,M
LAS,2024-01-21 08:56,-115.1634,36.0719,663.00,53.00,43.00,68.71,0.00,0.00,0.00,29.81,1008.80,10.00,M,BKN,BKN,M,M,6000.00,10000.00,M,M,M,M,M,M,M,M,M,53.00,KLAS 210856Z 00000KT 10SM BKN060 BKN100 12/06 A2981 RMK AO2 SLP088 T01170061 56008,M
WMC,2024-01-21 08:56,-117.8072,40.9019,1315.00,42.00,36.00,79.11,120.00,6.00,T,29.74,1005.50,10.00,M,FEW,BKN,OVC,M,5000.00,5500.00,7000.00,M,M,M,M,M,M,M,M,37.57,KWMC 210856Z AUTO 12006KT 10SM FEW050 BKN055 OVC070 06/02 A2974 RMK AO2 RAB00E29 SLP055 P0000 60000 T00560022 51007,M
BVU,2024-01-21 09:15,-114.8611,35.9475,671.00,51.80,41.00,66.48,0.00,0.00,0.00,29.83,M,10.00,M,SCT,BKN,OVC,M,5500.00,6500.00,9500.00,M,M,M,M,M,M,M,M,51.80,KBVU 210915Z AUTO 00000KT 10SM SCT055 BKN065 OVC095 11/05 A2983 RMK AO2,M
CXP,2024-01-21 09:15,-119.7326,39.1923,1431.00,41.00,32.00,70.08,0.00,0.00,0.00,29.78,M,10.00,M,BKN,OVC,M,M,5000.00,5500.00,M,M,M,M,M,M,M,M,M,41.00,KCXP 210915Z AUTO 00000KT 10SM BKN050 OVC055 05/00 A2978 RMK AO2,M
RTS,2024-01-21 09:15,-119.8764,39.6682,1539.00,39.20,32.00,75.16,360.00,8.00,0.00,29.78,M,10.00,M,SCT,BKN,OVC,M,4300.00,6000.00,7000.00,M,M,M,M,M,M,M,M,32.98,KRTS 210915Z AUTO 36008KT 10SM SCT043 BKN060 OVC070 04/M00 A2978 RMK AO2,M
05U,2024-01-21 09:15,-116.0051,39.6042,1811.23,37.40,33.80,86.69,300.00,10.00,0.00,29.81,M,10.00,M,M,M,M,M,M,M,M,M,M,M,M,M,M,M,M,29.74,K05U 210915Z AUTO 30010KT 10SM 03/01 A2981 RMK A01,M
MEV,2024-01-21 09:15,-119.7500,38.9963,1441.42,37.40,30.20,74.98,0.00,0.00,0.00,29.77,M,10.00,M,BKN,OVC,M,M,6000.00,7500.00,M,M,M,M,M,M,M,M,M,37.40,KMEV 210915Z AUTO 00000KT 10SM BKN060 OVC075 03/M01 A2977 RMK AO2,M
HTH,2024-01-21 09:15,-118.6315,38.5448,1282.89,46.40,30.20,53.00,110.00,11.00,0.00,29.76,M,10.00,M,OVC,M,M,M,9500.00,M,M,M,M,M,M,M,M,M,M,40.66,KHTH 210915Z AUTO 11011KT 10SM OVC095 08/M01 A2976 RMK A01,M
10U,2024-01-21 09:15,-116.1876,41.9532,1637.00,37.40,32.00,80.65,180.00,5.00,0.00,29.77,M,10.00,M,FEW,SCT,BKN,M,2700.00,3200.00,5500.00,M,UP,M,M,M,M,M,M,32.81,K10U 210915Z AUTO 18005KT 10SM UP FEW027 SCT032 BKN055 03/00 A2977 RMK AO2,M
TMT,2024-01-21 09:15,-117.1971,39.4643,1749.34,32.00,30.20,92.97,0.00,0.00,0.00,29.80,M,10.00,M,OVC,M,M,M,7500.00,M,M,M,M,M,M,M,M,M,M,32.00,KTMT 210915Z AUTO 00000KT 10SM OVC075 00/M01 A2980 RMK AO2 T00001010,M
BAM,2024-01-21 09:20,-116.8743,40.5990,1382.36,41.00,33.80,75.33,20.00,3.00,0.00,29.77,M,10.00,M,BKN,BKN,OVC,M,6000.00,7000.00,9000.00,M,M,M,M,M,M,M,M,38.98,KBAM 210920Z AUTO 02003KT 10SM BKN060 BKN070 OVC090 05/01 A2977 RMK AO1,M
BVU,2024-01-21 09:35,-114.8611,35.9475,671.00,53.60,41.00,62.23,0.00,0.00,0.00,29.83,M,10.00,M,BKN,BKN,OVC,M,6000.00,7000.00,10000.00,M,M,M,M,M,M,M,M,53.60,KBVU 210935Z AUTO 00000KT 10SM BKN060 BKN070 OVC100 12/05 A2983 RMK AO2,M
CXP,2024-01-21 09:35,-119.7326,39.1923,1431.00,41.00,32.00,70.08,0.00,0.00,0.00,29.79,M,10.00,M,OVC,M,M,M,5000.00,M,M,M,M,M,M,M,M,M,M,41.00,KCXP 210935Z AUTO 00000KT 10SM OVC050 05/00 A2979 RMK AO2,M
RTS,2024-01-21 09:35,-119.8764,39.6682,1539.00,39.20,32.00,75.16,M,4.00,0.00,29.78,M,10.00,M,FEW,FEW,OVC,M,3500.00,4100.00,6000.00,M,M,M,M,M,M,M,M,35.83,KRTS 210935Z AUTO VRB04KT 10SM FEW035 FEW041 OVC060 04/M00 A2978 RMK AO2,M
05U,2024-01-21 09:35,-116.0051,39.6042,1811.23,39.20,32.00,75.16,300.00,9.00,0.00,29.82,M,10.00,M,M,M,M,M,M,M,M,M,M,M,M,M,M,M,M,32.47,K05U 210935Z AUTO 30009KT 10SM 04/00 A2982 RMK A01,M
MEV,2024-01-21 09:35,-119.7500,38.9963,1441.42,37.40,30.20,74.98,0.00,0.00,0.00,29.77,M,10.00,M,BKN,OVC,M,M,6000.00,7000.00,M,M,M,M,M,M,M,M,M,37.40,KMEV 210935Z AUTO 00000KT 10SM BKN060 OVC070 03/M01 A2977 RMK AO2,M
BAM,2024-01-21 09:35,-116.8743,40.5990,1382.36,41.00,33.80,75.33,280.00,4.00,0.00,29.78,M,10.00,M,BKN,OVC,M,M,6000.00,7000.00,M,M,M,M,M,M,M,M,M,37.93,KBAM 210935Z AUTO 28004KT 10SM BKN060 OVC070 05/01 A2978 RMK AO1,M
HTH,2024-01-21 09:35,-118.6315,38.5448,1282.89,46.40,26.60,45.73,140.00,8.00,0.00,29.76,M,10.00,M,FEW,OVC,M,M,7500.00,9500.00,M,M,M,M,M,M,M,M,M,41.85,KHTH 210935Z AUTO 14008KT 10SM FEW075 OVC095 08/M03 A2976 RMK A01,M
10U,2024-01-21 09:35,-116.1876,41.9532,1637.00,35.60,33.80,93.08,160.00,5.00,0.00,29.77,M,10.00,M,FEW,SCT,BKN,M,2300.00,2800.00,3200.00,M,UP,M,M,M,M,M,M,30.67,K10U 210935Z AUTO 16005KT 10SM UP FEW023 SCT028 BKN032 02/01 A2977 RMK AO2,M
TMT,2024-01-21 09:35,-117.1971,39.4643,1749.34,32.00,30.20,92.97,160.00,3.00,0.00,29.80,M,10.00,M,BKN,OVC,M,M,6000.00,7500.00,M,M,M,M,M,M,M,M,M,28.69,KTMT 210935Z AUTO 16003KT 10SM BKN060 OVC075 00/M01 A2980 RMK AO2 T00001010,M
05U,2024-01-21 09:50,-116.0051,39.6042,1811.23,37.40,32.00,80.65,300.00,6.00,0.00,29.82,M,10.00,M,M,M,M,M,M,M,M,M,M,M,M,M,M,M,M,32.03,K05U 210950Z AUTO 30006KT 10SM 03/00 A2982 RMK A01,M
P68,2024-01-21 09:53,-116.0056,39.6014,1993.00,38.00,32.00,78.77,140.00,7.00,0.00,29.79,1006.20,M,M,M,M,M,M,M,M,M,M,M,M,M,M,M,M,M,32.09,KP68 210953Z AUTO 14007KT 03/00 A2979 RMK AO1 SLP062 T00330000,M
DRA,2024-01-21 09:53,-116.0278,36.6206,1009.00,44.00,37.00,76.22,0.00,0.00,0.00,29.82,1007.60,10.00,M,BKN,M,M,M,4800.00,M,M,M,M,M,M,M,M,M,M,44.00,KDRA 210953Z AUTO 00000KT 10SM BKN048 07/03 A2982 RMK AO2 SLP076 T00670028,M
ELY,2024-01-21 09:53,-114.8453,39.2950,1909.00,34.00,31.00,88.63,230.00,6.00,0.00,29.83,1008.00,10.00,M,BKN,M,M,M,6500.00,M,M,M,M,M,M,M,M,M,M,27.94,KELY 210953Z AUTO 23006KT 10SM BKN065 01/M01 A2983 RMK AO2 SLP080 T00111006,M
VGT,2024-01-21 09:53,-115.1933,36.2111,667.00,51.00,44.00,76.85,100.00,5.00,0.00,29.82,1011.00,10.00,M,BKN,M,M,M,6500.00,M,M,M,M,M,M,M,M,M,M,51.00,KVGT 210953Z AUTO 10005KT 10SM BKN065 11/07 A2982 RMK AO2 SLP110 T01060067,M
LOL,2024-01-21 09:53,-118.5701,40.0684,1192.43,44.00,32.00,62.44,M,6.00,T,29.75,1006.60,10.00,M,BKN,OVC,M,M,5000.00,7000.00,M,M,-RA,M,M,M,M,M,M,39.98,KLOL 210953Z AUTO VRB06KT 10SM -RA BKN050 OVC070 07/00 A2975 RMK AO2 RAB45 SLP066 P0000 T00670000,M
BVU,2024-01-21 09:55,-114.8611,35.9475,671.00,51.80,41.00,66.48,0.00,0.00,0.00,29.83,M,10.00,M,FEW,SCT,OVC,M,4700.00,6500.00,10000.00,M,M,M,M,M,M,M,M,51.80,KBVU 210955Z AUTO 00000KT 10SM FEW047 SCT065 OVC100 11/05 A2983 RMK AO2,M
CXP,2024-01-21 09:55,-119.7326,39.1923,1431.00,41.00,32.00,70.08,0.00,0.00,0.00,29.79,M,10.00,M,OVC,M,M,M,5000.00,M,M,M,M,M,M,M,M,M,M,41.00,KCXP 210955Z AUTO 00000KT 10SM OVC050 05/00 A2979 RMK AO2,M
INS,2024-01-21 09:55,-115.6733,36.5872,955.00,46.20,38.50,74.36,240.00,4.00,0.00,29.82,1007.90,10.00,M,CLR,M,M,M,M,M,M,M,M,M,M,M,M,M,M,44.00,KINS 210955Z AUTO 24004KT 10SM CLR 08/04 A2982 RMK AO2 SLP079 T00790036,M
RNO,2024-01-21 09:55,-119.7711,39.4839,1341.00,43.00,33.00,67.54,250.00,3.00,0.00,29.77,1006.20,10.00,M,FEW,OVC,M,M,6000.00,7500.00,M,M,M,M,M,M,M,M,M,41.26,KRNO 210955Z 25003KT 10SM FEW060 OVC075 06/01 A2977 RMK AO2 SLP062 T00610006,M
RTS,2024-01-21 09:55,-119.8764,39.6682,1539.00,41.00,30.20,65.16,190.00,12.00,0.00,29.78,M,10.00,17.00,BKN,OVC,M,M,6000.00,7000.00,M,M,M,M,M,M,M,M,M,33.46,KRTS 210955Z AUTO 19012G17KT 10SM BKN060 OVC070 05/M01 A2978 RMK AO2,M
MEV,2024-01-21 09:55,-119.7500,38.9963,1441.42,37.40,30.20,74.98,0.00,0.00,0.00,29.77,M,10.00,M,OVC,M,M,M,6000.00,M,M,M,M,M,M,M,M,M,M,37.40,KMEV 210955Z AUTO 00000KT 10SM OVC060 03/M01 A2977 RMK AO2,M
BAM,2024-01-21 09:55,-116.8743,40.5990,1382.36,42.80,33.80,70.28,40.00,3.00,0.00,29.77,M,10.00,M,SCT,BKN,OVC,M,6000.00,7000.00,8000.00,M,M,M,M,M,M,M,M,41.03,KBAM 210955Z AUTO 04003KT 10SM SCT060 BKN070 OVC080 06/01 A2977 RMK AO1,M
HTH,2024-01-21 09:55,-118.6315,38.5448,1282.89,46.40,24.80,42.44,180.00,4.00,0.00,29.77,M,10.00,M,SCT,OVC,M,M,8000.00,9000.00,M,M,M,M,M,M,M,M,M,44.24,KHTH 210955Z AUTO 18004KT 10SM SCT080 OVC090 08/M04 A2977 RMK A01,M
LSV,2024-01-21 09:55,-115.0343,36.2362,570.00,52.00,45.30,77.82,60.00,6.00,0.00,29.80,1008.40,10.00,M,OVC,M,M,M,5500.00,M,M,M,M,M,M,M,M,M,M,52.00,KLSV 210955Z AUTO 06006KT 10SM OVC055 11/07 A2980 RMK AO2 SLP084 T01110074 $,M
TMT,2024-01-21 09:55,-117.1971,39.4643,1749.34,32.00,30.70,94.88,0.00,0.00,0.00,29.80,M,10.00,M,SCT,SCT,OVC,M,6000.00,7000.00,9500.00,M,M,M,M,M,M,M,M,32.00,KTMT 210955Z AUTO 00000KT 10SM SCT060 SCT070 OVC095 00/M01 A2980 RMK AO2 T00011007,M
10U,2024-01-21 09:55,-116.1876,41.9532,1637.00,37.40,33.80,86.69,180.00,8.00,0.00,29.78,M,9.00,M,SCT,BKN,OVC,M,1600.00,2100.00,3200.00,M,UP,M,M,M,M,M,M,30.76,K10U 210955Z AUTO 18008KT 9SM UP SCT016 BKN021 OVC032 03/01 A2978 RMK AO2,M
EKO,2024-01-21 09:56,-115.7860,40.8242,1367.00,36.00,31.00,81.86,90.00,3.00,0.00,29.78,1007.70,10.00,M,OVC,M,M,M,7500.00,M,M,M,M,M,M,M,M,M,M,33.26,KEKO 210956Z AUTO 09003KT 10SM OVC075 02/M01 A2978 RMK AO2 SLP077 T00221006,M
NFL,2024-01-21 09:56,-118.7010,39.4166,1199.00,41.00,34.00,75.94,100.00,3.00,0.00,29.75,1005.50,10.00,M,OVC,M,M,M,9500.00,M,M,M,M,M,M,M,M,M,M,38.98,KNFL 210956Z AUTO 10003KT 10SM OVC095 05/01 A2975 RMK AO2 SLP055 T00500011,M
HND,2024-01-21 09:56,-115.1344,35.9729,742.79,50.00,40.00,68.37,200.00,8.00,0.00,29.84,1011.70,10.00,M,SCT,SCT,M,M,7000.00,10000.00,M,M,M,M,M,M,M,M,M,50.00,KHND 210956Z AUTO 20008KT 10SM SCT070 SCT100 10/04 A2984 RMK AO2 SLP117 T01000044,M
TPH,2024-01-21 09:56,-117.0904,38.0505,1654.00,39.00,34.00,82.08,140.00,6.00,0.00,29.82,1008.00,10.00,M,BKN,OVC,M,M,1600.00,3000.00,M,M,M,M,M,M,M,M,M,33.96,KTPH 210956Z AUTO 14006KT 10SM BKN016 OVC030 04/01 A2982 RMK AO2 SLP080 T00390011,M
LAS,2024-01-21 09:56,-115.1634,36.0719,663.00,52.00,42.00,68.59,130.00,3.00,0.00,29.82,1009.20,10.00,M,FEW,SCT,BKN,M,3000.00,6000.00,10000.00,M,M,M,M,M,M,M,M,52.00,KLAS 210956Z 13003KT 10SM FEW030 SCT060 BKN100 11/06 A2982 RMK AO2 SLP092 T01110056,M
WMC,2024-01-21 09:56,-117.8072,40.9019,1315.00,41.00,35.00,79.02,330.00,5.00,0.00,29.76,1006.30,10.00,M,SCT,BKN,OVC,M,6500.00,8500.00,11000.00,M,M,M,M,M,M,M,M,37.08,KWMC 210956Z AUTO 33005KT 10SM SCT065 BKN085 OVC110 05/02 A2976 RMK AO2 SLP063 T00500017,M
BVU,2024-01-21 10:15,-114.8611,35.9475,671.00,50.00,41.00,71.07,0.00,0.00,0.00,29.83,M,10.00,M,FEW,OVC,M,M,4600.00,10000.00,M,M,M,M,M,M,M,M,M,50.00,KBVU 211015Z AUTO 00000KT 10SM FEW046 OVC100 10/05 A2983 RMK AO2,M
CXP,2024-01-21 10:15,-119.7326,39.1923,1431.00,41.00,32.00,70.08,0.00,0.00,0.00,29.79,M,10.00,M,OVC,M,M,M,5000.00,M,M,M,M,M,M,M,M,M,M,41.00,KCXP 211015Z AUTO 00000KT 10SM OVC050 05/M00 A2979 RMK AO2,M
RTS,2024-01-21 10:15,-119.8764,39.6682,1539.00,39.20,30.20,69.88,0.00,0.00,0.00,29.78,M,10.00,M,OVC,M,M,M,6000.00,M,M,M,M,M,M,M,M,M,M,39.20,KRTS 211015Z AUTO 00000KT 10SM OVC060 04/M01 A2978 RMK AO2,M
05U,2024-01-21 10:15,-116.0051,39.6042,1811.23,37.40,32.00,80.65,310.00,4.00,0.00,29.82,M,10.00,M,M,M,M,M,M,M,M,M,M,M,M,M,M,M,M,33.73,K05U 211015Z AUTO 31004KT 10SM 03/00 A2982 RMK A01,M
MEV,2024-01-21 10:15,-119.7500,38.9963,1441.42,35.60,30.20,80.51,0.00,0.00,0.00,29.78,M,10.00,M,SCT,OVC,M,M,5500.00,7500.00,M,M,M,M,M,M,M,M,M,35.60,KMEV 211015Z AUTO 00000KT 10SM SCT055 OVC075 02/M01 A2978 RMK AO2,M
BAM,2024-01-21 10:15,-116.8743,40.5990,1382.36,41.00,33.80,75.33,0.00,0.00,0.00,29.77,M,10.00,M,SCT,OVC,M,M,8000.00,11000.00,M,M,M,M,M,M,M,M,M,41.00,KBAM 211015Z AUTO 00000KT 10SM SCT080 OVC110 05/01 A2977 RMK AO1,M
HTH,2024-01-21 10:15,-118.6315,38.5448,1282.89,44.60,26.60,48.96,0.00,0.00,0.00,29.77,M,10.00,M,OVC,M,M,M,8000.00,M,M,M,M,M,M,M,M,M,M,44.60,KHTH 211015Z AUTO 00000KT 10SM OVC080 07/M03 A2977 RMK A01,M
10U,2024-01-21 10:15,-116.1876,41.9532,1637.00,37.40,33.80,86.69,180.00,5.00,0.00,29.77,M,9.00,M,SCT,BKN,BKN,M,1600.00,2100.00,2600.00,M,UP,M,M,M,M,M,M,32.81,K10U 211015Z AUTO 18005KT 9SM UP SCT016 BKN021 BKN026 03/01 A2977 RMK AO2,M
TMT,2024-01-21 10:15,-117.1971,39.4643,1749.34,32.50,31.00,94.13,0.00,0.00,0.00,29.80,M,10.00,M,SCT,OVC,M,M,7000.00,9500.00,M,M,M,M,M,M,M,M,M,32.50,KTMT 211015Z AUTO 00000KT 10SM SCT070 OVC095 00/M01 A2980 RMK AO2 T00031006,M
TPH,2024-01-21 10:17,-117.0904,38.0505,1654.00,38.00,34.00,85.35,140.00,4.00,0.00,29.82,M,10.00,M,OVC,M,M,M,1300.00,M,M,M,M,M,M,M,M,M,M,34.43,KTPH 211017Z AUTO 14004KT 10SM OVC013 03/01 A2982 RMK AO2 T00330011,M
CXP,2024-01-21 10:30,-119.7326,39.1923,1431.00,42.80,32.00,65.38,0.00,0.00,0.00,29.79,M,10.00,M,BKN,OVC,M,M,5000.00,5500.00,M,M,M,M,M,M,M,M,M,42.80,KCXP 211030Z AUTO 00000KT 10SM BKN050 OVC055 06/M00 A2979 RMK AO2,M
05U,2024-01-21 10:30,-116.0051,39.6042,1811.23,37.40,32.00,80.65,0.00,0.00,0.00,29.82,M,10.00,M,M,M,M,M,M,M,M,M,M,M,M,M,M,M,M,37.40,K05U 211030Z AUTO 00000KT 10SM 03/00 A2982 RMK A01,M
10U,2024-01-21 10:30,-116.1876,41.9532,1637.00,35.60,33.80,93.08,150.00,5.00,0.00,29.77,M,10.00,M,FEW,BKN,BKN,M,1700.00,2600.00,3400.00,M,UP,M,M,M,M,M,M,30.67,K10U 211030Z AUTO 15005KT 10SM UP FEW017 BKN026 BKN034 02/01 A2977 RMK AO2,M
BVU,2024-01-21 10:35,-114.8611,35.9475,671.00,50.00,41.00,71.07,M,3.00,0.00,29.83,M,10.00,M,BKN,M,M,M,10000.00,M,M,M,M,M,M,M,M,M,M,50.00,KBVU 211035Z AUTO VRB03KT 10SM BKN100 10/05 A2983 RMK AO2,M
RTS,2024-01-21 10:35,-119.8764,39.6682,1539.00,39.20,30.20,69.88,M,4.00,0.00,29.78,M,10.00,M,OVC,M,M,M,6000.00,M,M,M,M,M,M,M,M,M,M,35.83,KRTS 211035Z AUTO VRB04KT 10SM OVC060 04/M01 A2978 RMK AO2,M
MEV,2024-01-21 10:35,-119.7500,38.9963,1441.42,39.20,30.20,69.88,0.00,0.00,0.00,29.78,M,10.00,M,FEW,OVC,M,M,6000.00,7500.00,M,M,M,M,M,M,M,M,M,39.20,KMEV 211035Z AUTO 00000KT 10SM FEW060 OVC075 04/M01 A2978 RMK AO2,M
BAM,2024-01-21 10:35,-116.8743,40.5990,1382.36,39.20,33.80,80.79,100.00,3.00,0.00,29.78,M,10.00,M,SCT,BKN,M,M,8000.00,11000.00,M,M,M,M,M,M,M,M,M,36.92,KBAM 211035Z AUTO 10003KT 10SM SCT080 BKN110 04/01 A2978 RMK AO1,M
HTH,2024-01-21 10:35,-118.6315,38.5448,1282.89,44.60,26.60,48.96,190.00,4.00,0.00,29.77,M,10.00,M,OVC,M,M,M,7500.00,M,M,M,M,M,M,M,M,M,M,42.13,KHTH 211035Z AUTO 19004KT 10SM OVC075 07/M03 A2977 RMK A01,M
TMT,2024-01-21 10:35,-117.1971,39.4643,1749.34,32.00,30.20,92.97,360.00,5.00,0.00,29.80,M,10.00,M,OVC,M,M,M,9500.00,M,M,M,M,M,M,M,M,M,M,26.40,KTMT 211035Z AUTO 36005KT 10SM OVC095 00/M01 A2980 RMK AO2 T00001010,M
TPH,2024-01-21 10:36,-117.0904,38.0505,1654.00,39.00,34.00,82.08,150.00,6.00,0.00,29.82,M,10.00,M,OVC,M,M,M,1500.00,M,M,M,M,M,M,M,M,M,M,33.96,KTPH 211036Z AUTO 15006KT 10SM OVC015 04/01 A2982 RMK AO2 T00390011,M
P68,2024-01-21 10:53,-116.0056,39.6014,1993.00,36.00,31.00,81.86,210.00,3.00,0.00,29.79,1006.40,M,M,M,M,M,M,M,M,M,M,M,M,M,M,M,M,M,33.26,KP68 211053Z AUTO 21003KT 02/M01 A2979 RMK AO1 SLP064 T00221006,M
DRA,2024-01-21 10:53,-116.0278,36.6206,1009.00,45.00,38.00,76.31,50.00,6.00,0.00,29.81,1007.40,10.00,M,SCT,BKN,M,M,4400.00,6500.00,M,M,M,M,M,M,M,M,M,41.19,KDRA 211053Z AUTO 05006KT 10SM SCT044 BKN065 07/03 A2981 RMK AO2 SLP074 T00720033,M
ELY,2024-01-21 10:53,-114.8453,39.2950,1909.00,34.00,31.00,88.63,200.00,6.00,T,29.82,1007.70,10.00,M,BKN,OVC,M,M,4800.00,6000.00,M,M,-RA,M,M,M,M,M,M,27.94,KELY 211053Z AUTO 20006KT 10SM -RA BKN048 OVC060 01/M01 A2982 RMK AO2 RAB44 SLP077 P0000 T00111006,M
VGT,2024-01-21 10:53,-115.1933,36.2111,667.00,49.00,44.00,82.79,310.00,3.00,0.00,29.81,1010.70,10.00,M,FEW,M,M,M,7000.00,M,M,M,M,M,M,M,M,M,M,48.12,KVGT 211053Z AUTO 31003KT 10SM FEW070 09/07 A2981 RMK AO2 SLP107 T00940067,M
LOL,2024-01-21 10:53,-118.5701,40.0684,1192.43,41.00,32.00,70.08,250.00,4.00,T,29.75,1006.70,10.00,M,OVC,M,M,M,7500.00,M,M,M,M,M,M,M,M,M,M,37.93,KLOL 211053Z AUTO 25004KT 10SM OVC075 05/00 A2975 RMK AO2 RAE0959 SLP067 P0000 T00500000,M
BVU,2024-01-21 10:55,-114.8611,35.9475,671.00,51.80,42.80,71.26,160.00,4.00,0.00,29.82,M,10.00,M,FEW,M,M,M,10000.00,M,M,M,M,M,M,M,M,M,M,51.80,KBVU 211055Z AUTO 16004KT 10SM FEW100 11/06 A2982 RMK AO2,M
CXP,2024-01-21 10:55,-119.7326,39.1923,1431.00,41.00,32.00,70.08,0.00,0.00,0.00,29.79,M,10.00,M,OVC,M,M,M,5000.00,M,M,M,M,M,M,M,M,M,M,41.00,KCXP 211055Z AUTO 00000KT 10SM OVC050 05/M00 A2979 RMK AO2,M
INS,2024-01-21 10:55,-115.6733,36.5872,955.00,44.00,37.80,78.65,320.00,5.00,0.00,29.82,1008.10,10.00,M,BKN,M,M,M,11000.00,M,M,M,M,M,M,M,M,M,M,40.65,KINS 211055Z AUTO 32005KT 10SM BKN110 07/03 A2982 RMK AO2 SLP081 T00660032,M
RNO,2024-01-21 10:55,-119.7711,39.4839,1341.00,42.00,33.00,70.19,50.00,3.00,0.00,29.77,1006.20,10.00,M,SCT,BKN,M,M,6000.00,9500.00,M,M,M,M,M,M,M,M,M,40.12,KRNO 211055Z 05003KT 10SM SCT060 BKN095 06/01 A2977 RMK AO2 SLP062 T00560006,M
RTS,2024-01-21 10:55,-119.8764,39.6682,1539.00,39.20,32.00,75.16,350.00,6.00,0.00,29.78,M,10.00,M,OVC,M,M,M,6000.00,M,M,M,M,M,M,M,M,M,M,34.20,KRTS 211055Z AUTO 35006KT 10SM OVC060 04/M00 A2978 RMK AO2,M
05U,2024-01-21 10:55,-116.0051,39.6042,1811.23,35.60,32.00,86.59,0.00,0.00,0.00,29.82,M,10.00,M,M,M,M,M,M,M,M,M,M,M,M,M,M,M,M,35.60,K05U 211055Z AUTO 00000KT 10SM 02/M00 A2982 RMK A01,M
MEV,2024-01-21 10:55,-119.7500,38.9963,1441.42,35.60,30.20,80.51,0.00,0.00,0.00,29.78,M,10.00,M,BKN,OVC,M,M,6000.00,7500.00,M,M,M,M,M,M,M,M,M,35.60,KMEV 211055Z AUTO 00000KT 10SM BKN060 OVC075 02/M01 A2978 RMK AO2,M
BAM,2024-01-21 10:55,-116.8743,40.5990,1382.36,37.40,33.80,86.69,0.00,0.00,0.00,29.77,M,10.00,M,SCT,BKN,OVC,M,6000.00,8000.00,10000.00,M,M,M,M,M,M,M,M,37.40,KBAM 211055Z AUTO 00000KT 10SM SCT060 BKN080 OVC100 03/01 A2977 RMK AO1,M
HTH,2024-01-21 10:55,-118.6315,38.5448,1282.89,42.80,30.20,60.79,180.00,6.00,0.00,29.76,M,10.00,M,SCT,OVC,M,M,6000.00,7500.00,M,M,M,M,M,M,M,M,M,38.54,KHTH 211055Z AUTO 18006KT 10SM SCT060 OVC075 06/M01 A2976 RMK A01,M
10U,2024-01-21 10:55,-116.1876,41.9532,1637.00,35.60,33.80,93.08,190.00,5.00,0.00,29.77,M,10.00,M,FEW,SCT,BKN,M,1700.00,2300.00,2700.00,M,UP,M,M,M,M,M,M,30.67,K10U 211055Z AUTO 19005KT 10SM UP FEW017 SCT023 BKN027 02/01 A2977 RMK AO2,M
TMT,2024-01-21 10:55,-117.1971,39.4643,1749.34,32.00,30.00,92.22,10.00,3.00,0.00,29.80,M,10.00,M,BKN,M,M,M,9500.00,M,M,M,M,M,M,M,M,M,M,28.69,KTMT 211055Z AUTO 01003KT 10SM BKN095 00/M01 A2980 RMK AO2 T00001011,M
LSV,2024-01-21 10:55,-115.0343,36.2362,570.00,52.00,43.70,73.22,80.00,8.00,0.00,29.79,1008.10,10.00,M,SCT,M,M,M,6500.00,M,M,M,M,M,M,M,M,M,M,52.00,KLSV 211055Z AUTO 08008KT 10SM SCT065 11/07 A2979 RMK AO2 SLP081 T01120065 $,M
EKO,2024-01-21 10:56,-115.7860,40.8242,1367.00,36.00,31.00,81.86,0.00,0.00,0.00,29.78,1007.70,10.00,M,BKN,BKN,OVC,M,5500.00,7000.00,8500.00,M,M,M,M,M,M,M,M,36.00,KEKO 211056Z AUTO 00000KT 10SM BKN055 BKN070 OVC085 02/M01 A2978 RMK AO2 SLP077 T00221006,M
NFL,2024-01-21 10:56,-118.7010,39.4166,1199.00,43.00,35.00,73.16,160.00,6.00,0.00,29.75,1005.30,10.00,M,FEW,OVC,M,M,7500.00,9000.00,M,M,M,M,M,M,M,M,M,38.78,KNFL 211056Z AUTO 16006KT 10SM FEW075 OVC090 06/02 A2975 RMK AO2 SLP053 T00610017,M
HND,2024-01-21 10:56,-115.1344,35.9729,742.79,49.00,41.00,73.77,170.00,4.00,0.00,29.83,1011.50,10.00,M,CLR,M,M,M,M,M,M,M,M,M,M,M,M,M,M,47.27,KHND 211056Z AUTO 17004KT 10SM CLR 09/05 A2983 RMK AO2 SLP115 T00940050,M
TPH,2024-01-21 10:56,-117.0904,38.0505,1654.00,39.00,35.00,85.42,150.00,6.00,T,29.82,1007.90,10.00,M,BKN,BKN,OVC,M,1700.00,2700.00,3200.00,M,-RA,M,M,M,M,M,M,33.96,KTPH 211056Z AUTO 15006KT 10SM -RA BKN017 BKN027 OVC032 04/02 A2982 RMK AO2 RAB54 SLP079 P0000 T00390017,M
LAS,2024-01-21 10:56,-115.1634,36.0719,663.00,51.00,42.00,71.18,160.00,3.00,0.00,29.81,1008.80,10.00,M,FEW,SCT,BKN,M,5000.00,7500.00,10000.00,M,M,M,M,M,M,M,M,51.00,KLAS 211056Z 16003KT 10SM FEW050 SCT075 BKN100 11/06 A2981 RMK AO2 SLP088 T01060056,M
WMC,2024-01-21 10:56,-117.8072,40.9019,1315.00,40.00,34.00,78.94,0.00,0.00,0.00,29.76,1006.30,10.00,M,BKN,OVC,M,M,6500.00,9000.00,M,M,M,M,M,M,M,M,M,40.00,KWMC 211056Z AUTO 00000KT 10SM BKN065 OVC090 04/01 A2976 RMK AO2 SLP063 T00440011,M
TPH,2024-01-21 11:13,-117.0904,38.0505,1654.00,38.00,36.00,92.42,130.00,5.00,T,29.82,M,10.00,M,BKN,OVC,M,M,1100.00,1700.00,M,M,-RA,M,M,M,M,M,M,33.52,KTPH 211113Z AUTO 13005KT 10SM -RA BKN011 OVC017 03/02 A2982 RMK AO2 P0000 T00330022,M
BVU,2024-01-21 11:15,-114.8611,35.9475,671.00,51.80,42.80,71.26,110.00,4.00,0.00,29.82,M,10.00,M,BKN,M,M,M,10000.00,M,M,M,M,M,M,M,M,M,M,51.80,KBVU 211115Z AUTO 11004KT 10SM BKN100 11/06 A2982 RMK AO2,M
CXP,2024-01-21 11:15,-119.7326,39.1923,1431.00,41.00,32.00,70.08,0.00,0.00,0.00,29.79,M,10.00,M,OVC,M,M,M,5000.00,M,M,M,M,M,M,M,M,M,M,41.00,KCXP 211115Z AUTO 00000KT 10SM OVC050 05/M00 A2979 RMK AO2,M
RTS,2024-01-21 11:15,-119.8764,39.6682,1539.00,39.20,32.00,75.16,330.00,7.00,0.00,29.78,M,10.00,M,OVC,M,M,M,5500.00,M,M,M,M,M,M,M,M,M,M,33.56,KRTS 211115Z AUTO 33007KT 10SM OVC055 04/M00 A2978 RMK AO2,M
05U,2024-01-21 11:15,-116.0051,39.6042,1811.23,35.60,32.00,86.59,0.00,0.00,0.00,29.82,M,10.00,M,M,M,M,M,M,M,M,M,M,M,M,M,M,M,M,35.60,K05U 211115Z AUTO 00000KT 10SM 02/M00 A2982 RMK A01,M
MEV,2024-01-21 11:15,-119.7500,38.9963,1441.42,37.40,28.40,69.67,0.00,0.00,0.00,29.77,M,10.00,M,BKN,OVC,M,M,6000.00,7500.00,M,M,M,M,M,M,M,M,M,37.40,KMEV 211115Z AUTO 00000KT 10SM BKN060 OVC075 03/M02 A2977 RMK AO2,M
BAM,2024-01-21 11:15,-116.8743,40.5990,1382.36,37.40,33.80,86.69,0.00,0.00,0.00,29.77,M,10.00,M,SCT,BKN,M,M,7500.00,8500.00,M,M,M,M,M,M,M,M,M,37.40,KBAM 211115Z AUTO 00000KT 10SM SCT075 BKN085 03/01 A2977 RMK AO1,M
HTH,2024-01-21 11:15,-118.6315,38.5448,1282.89,44.60,28.40,52.72,210.00,6.00,0.00,29.76,M,10.00,M,FEW,BKN,OVC,M,6000.00,7500.00,9000.00,M,M,M,M,M,M,M,M,40.71,KHTH 211115Z AUTO 21006KT 10SM FEW060 BKN075 OVC090 07/M02 A2976 RMK A01,M
10U,2024-01-21 11:15,-116.1876,41.9532,1637.00,35.60,33.80,93.08,180.00,3.00,0.00,29.77,M,10.00,M,SCT,BKN,OVC,M,2300.00,2700.00,4100.00,M,UP,M,M,M,M,M,M,32.80,K10U 211115Z AUTO 18003KT 10SM UP SCT023 BKN027 OVC041 02/01 A2977 RMK AO2,M
TMT,2024-01-21 11:15,-117.1971,39.4643,1749.34,31.50,29.50,92.20,100.00,4.00,0.00,29.80,M,10.00,M,OVC,M,M,M,9500.00,M,M,M,M,M,M,M,M,M,M,26.84,KTMT 211115Z AUTO 10004KT 10SM OVC095 00/M01 A2980 RMK AO2 T10031014,M
BVU,2024-01-21 11:35,-114.8611,35.9475,671.00,50.00,42.80,76.18,M,3.00,0.00,29.82,M,10.00,M,BKN,M,M,M,10000.00,M,M,M,M,M,M,M,M,M,M,50.00,KBVU 211135Z AUTO VRB03KT 10SM BKN100 10/06 A2982 RMK AO2,M
CXP,2024-01-21 11:35,-119.7326,39.1923,1431.00,42.80,30.20,60.79,0.00,0.00,0.00,29.79,M,10.00,M,OVC,M,M,M,4900.00,M,M,M,M,M,M,M,M,M,M,42.80,KCXP 211135Z AUTO 00000KT 10SM OVC049 06/M01 A2979 RMK AO2,M
RTS,2024-01-21 11:35,-119.8764,39.6682,1539.00,39.20,32.00,75.16,340.00,4.00,0.00,29.78,M,10.00,M,FEW,OVC,M,M,4100.00,5500.00,M,M,M,M,M,M,M,M,M,35.83,KRTS 211135Z AUTO 34004KT 10SM FEW041 OVC055 04/M00 A2978 RMK AO2,M
05U,2024-01-21 11:35,-116.0051,39.6042,1811.23,35.60,32.00,86.59,0.00,0.00,0.00,29.82,M,10.00,M,M,M,M,M,M,M,M,M,M,M,M,M,M,M,M,35.60,K05U 211135Z AUTO 00000KT 10SM 02/00 A2982 RMK A01,M
MEV,2024-01-21 11:35,-119.7500,38.9963,1441.42,33.80,28.40,80.36,30.00,3.00,0.00,29.77,M,10.00,M,SCT,SCT,OVC,M,5500.00,6500.00,8000.00,M,M,M,M,M,M,M,M,30.75,KMEV 211135Z AUTO 03003KT 10SM SCT055 SCT065 OVC080 01/M02 A2977 RMK AO2,M
BAM,2024-01-21 11:35,-116.8743,40.5990,1382.36,37.40,33.80,86.69,0.00,0.00,0.00,29.77,M,10.00,M,SCT,SCT,BKN,M,5000.00,9500.00,11000.00,M,M,M,M,M,M,M,M,37.40,KBAM 211135Z AUTO 00000KT 10SM SCT050 SCT095 BKN110 03/01 A2977 RMK AO1,M
HTH,2024-01-21 11:35,-118.6315,38.5448,1282.89,42.80,28.40,56.48,80.00,6.00,0.00,29.76,M,10.00,M,SCT,BKN,OVC,M,7000.00,8500.00,12000.00,M,M,M,M,M,M,M,M,38.54,KHTH 211135Z AUTO 08006KT 10SM SCT070 BKN085 OVC120 06/M02 A2976 RMK A01,M
10U,2024-01-21 11:35,-116.1876,41.9532,1637.00,35.60,33.80,93.08,190.00,4.00,0.00,29.77,M,10.00,M,SCT,BKN,BKN,M,1400.00,2300.00,3000.00,M,UP,M,M,M,M,M,M,31.62,K10U 211135Z AUTO 19004KT 10SM UP SCT014 BKN023 BKN030 02/01 A2977 RMK AO2,M
TMT,2024-01-21 11:35,-117.1971,39.4643,1749.34,31.00,29.70,94.86,130.00,3.00,0.00,29.80,M,10.00,M,OVC,M,M,M,9500.00,M,M,M,M,M,M,M,M,M,M,27.55,KTMT 211135Z AUTO 13003KT 10SM OVC095 00/M01 A2980 RMK AO2 T10051013,M
EKO,2024-01-21 11:42,-115.7860,40.8242,1367.00,35.00,32.00,88.68,0.00,0.00,0.01,29.78,M,9.00,M,OVC,M,M,M,2800.00,M,M,M,-RA,M,M,M,M,M,M,35.00,KEKO 211142Z AUTO 00000KT 9SM -RA OVC028 02/00 A2978 RMK AO2 UPB12E25RAB25 P0001 T00170000,M
DRA,2024-01-21 11:53,-116.0278,36.6206,1009.00,47.00,39.00,73.57,20.00,4.00,0.00,29.80,1007.00,10.00,M,BKN,OVC,M,M,4000.00,4700.00,M,M,M,M,M,M,M,M,M,44.94,KDRA 211153Z AUTO 02004KT 10SM BKN040 OVC047 08/04 A2980 RMK AO2 SLP070 T00830039 10106 20067 50001,M
ELY,2024-01-21 11:53,-114.8453,39.2950,1909.00,34.00,31.00,88.63,210.00,7.00,T,29.82,1007.60,10.00,M,BKN,OVC,M,M,5000.00,7500.00,M,M,M,M,M,M,M,M,M,27.22,KELY 211153Z AUTO 21007KT 10SM BKN050 OVC075 01/M01 A2982 RMK AO2 RAE22 SLP076 P0000 60000 T00111006 10028 20011 58002,M
VGT,2024-01-21 11:53,-115.1933,36.2111,667.00,48.00,44.00,85.95,340.00,3.00,0.00,29.81,1010.60,10.00,M,BKN,M,M,M,10000.00,M,M,M,M,M,M,M,M,M,M,46.98,KVGT 211153Z AUTO 34003KT 10SM BKN100 09/07 A2981 RMK AO2 SLP106 60000 T00890067 10122 20089 58002,M
LOL,2024-01-21 11:53,-118.5701,40.0684,1192.43,40.00,32.00,72.85,240.00,4.00,0.00,29.76,1006.90,10.00,M,OVC,M,M,M,7500.00,M,M,M,M,M,M,M,M,M,M,36.76,KLOL 211153Z AUTO 24004KT 10SM OVC075 04/00 A2976 RMK AO2 SLP069 60000 T00440000 10078 20044 51002,M
EKO,2024-01-21 11:54,-115.7860,40.8242,1367.00,35.60,32.00,86.59,320.00,4.00,0.01,29.77,M,10.00,M,OVC,M,M,M,3200.00,M,M,M,UP,M,M,M,M,M,M,31.62,KEKO 211154Z AUTO 32004KT 10SM UP OVC032 02/00 A2977 RMK AO2 UPB12E25B53RAB25E53 P0001,M
BVU,2024-01-21 11:55,-114.8611,35.9475,671.00,50.00,44.60,81.61,0.00,0.00,0.00,29.82,M,10.00,M,FEW,M,M,M,10000.00,M,M,M,M,M,M,M,M,M,M,50.00,KBVU 211155Z AUTO 00000KT 10SM FEW100 10/07 A2982 RMK AO2,M
CXP,2024-01-21 11:55,-119.7326,39.1923,1431.00,41.00,32.00,70.08,0.00,0.00,0.00,29.79,M,10.00,M,OVC,M,M,M,4800.00,M,M,M,M,M,M,M,M,M,M,41.00,KCXP 211155Z AUTO 00000KT 10SM OVC048 05/00 A2979 RMK AO2,M
RNO,2024-01-21 11:55,-119.7711,39.4839,1341.00,42.00,32.00,67.42,0.00,0.00,0.00,29.77,1006.30,10.00,M,SCT,BKN,M,M,6000.00,9500.00,M,M,M,M,M,M,M,M,M,42.00,KRNO 211155Z 00000KT 10SM SCT060 BKN095 06/00 A2977 RMK AO2 SLP063 T00560000 10072 20050 50002,M
RTS,2024-01-21 11:55,-119.8764,39.6682,1539.00,39.20,30.20,69.88,140.00,4.00,0.00,29.78,M,10.00,M,FEW,OVC,M,M,3900.00,5500.00,M,M,M,M,M,M,M,M,M,35.83,KRTS 211155Z AUTO 14004KT 10SM FEW039 OVC055 04/M01 A2978 RMK AO2,M
05U,2024-01-21 11:55,-116.0051,39.6042,1811.23,35.60,32.00,86.59,0.00,0.00,0.00,29.82,M,10.00,M,M,M,M,M,M,M,M,M,M,M,M,M,M,M,M,35.60,K05U 211155Z AUTO 00000KT 10SM 02/M00 A2982 RMK A01,M
MEV,2024-01-21 11:55,-119.7500,38.9963,1441.42,33.80,28.40,80.36,0.00,0.00,0.00,29.77,M,10.00,M,SCT,OVC,M,M,5500.00,8000.00,M,M,M,M,M,M,M,M,M,33.80,KMEV 211155Z AUTO 00000KT 10SM SCT055 OVC080 01/M02 A2977 RMK AO2,M
BAM,2024-01-21 11:55,-116.8743,40.5990,1382.36,37.40,33.80,86.69,160.00,3.00,0.00,29.77,M,10.00,M,SCT,BKN,OVC,M,4800.00,5500.00,9500.00,M,M,M,M,M,M,M,M,34.86,KBAM 211155Z AUTO 16003KT 10SM SCT048 BKN055 OVC095 03/01 A2977 RMK AO1,M
HTH,2024-01-21 11:55,-118.6315,38.5448,1282.89,44.60,24.80,45.44,170.00,6.00,0.00,29.76,M,10.00,M,BKN,OVC,M,M,7000.00,9000.00,M,M,M,M,M,M,M,M,M,40.71,KHTH 211155Z AUTO 17006KT 10SM BKN070 OVC090 07/M04 A2976 RMK A01,M
10U,2024-01-21 11:55,-116.1876,41.9532,1637.00,35.60,33.80,93.08,210.00,7.00,0.00,29.77,M,6.00,M,BKN,BKN,BKN,M,1400.00,2300.00,2800.00,M,UP,M,M,M,M,M,M,29.17,K10U 211155Z AUTO 21007KT 6SM UP BKN014 BKN023 BKN028 02/01 A2977 RMK AO2,M
LSV,2024-01-21 11:55,-115.0343,36.2362,570.00,51.00,43.00,73.97,50.00,7.00,0.00,29.78,1007.80,10.00,M,CLR,M,M,M,M,M,M,M,M,M,M,M,M,M,M,51.00,KLSV 211155Z AUTO 05007KT 10SM CLR 11/06 A2978 RMK AO2 SLP078 T01050061 10128 20102 58004 $,M
TMT,2024-01-21 11:55,-117.1971,39.4643,1749.34,31.50,30.00,94.10,0.00,0.00,0.00,29.80,M,10.00,M,BKN,M,M,M,9500.00,M,M,M,M,M,M,M,M,M,M,31.50,KTMT 211155Z AUTO 00000KT 10SM BKN095 00/M01 A2980 RMK AO2 T10031011 10004 21006,M
INS,2024-01-21 11:55,-115.6733,36.5872,955.00,42.80,36.70,78.86,260.00,4.00,0.00,29.81,1007.90,10.00,M,FEW,OVC,M,M,7000.00,8500.00,M,M,M,M,M,M,M,M,M,40.03,KINS 211155Z AUTO 26004KT 10SM FEW070 OVC085 06/03 A2981 RMK AO2 SLP079 T00600026 10111 20057 50001,M
EKO,2024-01-21 11:56,-115.7860,40.8242,1367.00,35.00,32.00,88.68,350.00,4.00,0.01,29.78,1007.80,10.00,M,OVC,M,M,M,3400.00,M,M,M,UP,M,M,M,M,M,M,30.92,KEKO 211156Z AUTO 35004KT 10SM UP OVC034 02/00 A2978 RMK AO2 UPB12E25B53RAB25E53 SLP078 P0001 60001 70001 T00170000 10044 20017 54000,M
NFL,2024-01-21 11:56,-118.7010,39.4166,1199.00,41.00,35.00,79.02,0.00,0.00,0.00,29.75,1005.50,10.00,M,OVC,M,M,M,9000.00,M,M,M,M,M,M,M,M,M,M,41.00,KNFL 211156Z AUTO 00000KT 10SM OVC090 05/02 A2975 RMK AO2 SLP055 T00500017 10083 20050 51004,M
HND,2024-01-21 11:56,-115.1344,35.9729,742.79,50.00,41.00,71.07,190.00,11.00,0.00,29.83,1011.20,10.00,M,OVC,M,M,M,9500.00,M,M,M,M,M,M,M,M,M,M,50.00,KHND 211156Z AUTO 19011KT 10SM OVC095 10/05 A2983 RMK AO2 SLP112 T01000050 10117 20094 58003,M
TPH,2024-01-21 11:56,-117.0904,38.0505,1654.00,37.00,36.00,96.13,110.00,4.00,0.01,29.81,1008.10,8.00,M,BKN,OVC,M,M,1200.00,1800.00,M,M,-RA,M,M,M,M,M,M,33.26,KTPH 211156Z AUTO 11004KT 8SM -RA BKN012 OVC018 03/02 A2981 RMK AO2 SLP081 P0001 60001 70001 T00280022 10050 20028 58000,M
LAS,2024-01-21 11:56,-115.1634,36.0719,663.00,51.00,42.00,71.18,180.00,5.00,0.00,29.81,1008.60,10.00,M,FEW,FEW,BKN,M,5000.00,7000.00,10000.00,M,M,M,M,M,M,M,M,51.00,KLAS 211156Z 18005KT 10SM FEW050 FEW070 BKN100 11/06 A2981 RMK AO2 SLP086 70001 T01060056 10133 20094 58003,M
WMC,2024-01-21 11:56,-117.8072,40.9019,1315.00,40.00,35.00,82.15,0.00,0.00,T,29.76,1006.50,10.00,M,BKN,OVC,M,M,4000.00,7000.00,M,M,-RA,M,M,M,M,M,M,40.00,KWMC 211156Z AUTO 00000KT 10SM -RA BKN040 OVC070 04/02 A2976 RMK AO2 RAB38 SLP065 P0000 60000 T00440017 10067 20039 51005,M
05U,2024-01-21 12:10,-116.0051,39.6042,1811.23,35.60,32.00,86.59,0.00,0.00,0.00,29.82,M,10.00,M,M,M,M,M,M,M,M,M,M,M,M,M,M,M,M,35.60,K05U 211210Z AUTO 00000KT 10SM 02/M00 A2982 RMK A01,M
BVU,2024-01-21 12:15,-114.8611,35.9475,671.00,50.00,44.60,81.61,0.00,0.00,0.00,29.82,M,10.00,M,BKN,BKN,M,M,10000.00,12000.00,M,M,M,M,M,M,M,M,M,50.00,KBVU 211215Z AUTO 00000KT 10SM BKN100 BKN120 10/07 A2982 RMK AO2,M
CXP,2024-01-21 12:15,-119.7326,39.1923,1431.00,41.00,32.00,70.08,0.00,0.00,0.00,29.79,M,10.00,M,OVC,M,M,M,4600.00,M,M,M,M,M,M,M,M,M,M,41.00,KCXP 211215Z AUTO 00000KT 10SM OVC046 05/M00 A2979 RMK AO2,M
RTS,2024-01-21 12:15,-119.8764,39.6682,1539.00,39.20,30.20,69.88,M,4.00,0.00,29.77,M,10.00,M,OVC,M,M,M,5500.00,M,M,M,M,M,M,M,M,M,M,35.83,KRTS 211215Z AUTO VRB04KT 10SM OVC055 04/M01 A2977 RMK AO2,M
MEV,2024-01-21 12:15,-119.7500,38.9963,1441.42,32.00,28.40,86.39,100.00,6.00,0.00,29.77,M,10.00,M,SCT,OVC,M,M,6000.00,8000.00,M,M,M,M,M,M,M,M,M,25.53,KMEV 211215Z AUTO 10006KT 10SM SCT060 OVC080 00/M02 A2977 RMK AO2,M
BAM,2024-01-21 12:15,-116.8743,40.5990,1382.36,35.60,33.80,93.08,0.00,0.00,0.00,29.77,M,10.00,M,SCT,SCT,BKN,M,4600.00,5500.00,12000.00,M,M,M,M,M,M,M,M,35.60,KBAM 211215Z AUTO 00000KT 10SM SCT046 SCT055 BKN120 02/01 A2977 RMK AO1,M
HTH,2024-01-21 12:15,-118.6315,38.5448,1282.89,42.80,26.60,52.45,360.00,5.00,0.00,29.76,M,10.00,M,BKN,OVC,M,M,6000.00,7500.00,M,M,M,M,M,M,M,M,M,39.22,KHTH 211215Z AUTO 36005KT 10SM BKN060 OVC075 06/M03 A2976 RMK A01,M
10U,2024-01-21 12:15,-116.1876,41.9532,1637.00,35.60,33.80,93.08,210.00,5.00,0.00,29.77,M,6.00,M,FEW,BKN,OVC,M,300.00,1300.00,2900.00,M,UP,M,M,M,M,M,M,30.67,K10U 211215Z AUTO 21005KT 6SM UP FEW003 BKN013 OVC029 02/01 A2977 RMK AO2,M
TMT,2024-01-21 12:15,-117.1971,39.4643,1749.34,30.60,29.30,94.85,50.00,3.00,0.00,29.80,M,10.00,M,SCT,M,M,M,9500.00,M,M,M,M,M,M,M,M,M,M,27.09,KTMT 211215Z AUTO 05003KT 10SM SCT095 M01/M01 A2980 RMK AO2 T10081015,M
INS,2024-01-21 12:21,-115.6733,36.5872,955.00,44.60,37.40,75.68,290.00,3.00,0.00,29.81,1007.70,10.00,M,FEW,OVC,M,M,4900.00,6000.00,M,M,-RA,M,M,M,M,M,M,43.09,KINS 211221Z AUTO 29003KT 10SM -RA FEW049 OVC060 07/03 A2981 RMK AO2 RAB21 SLP077,M
CXP,2024-01-21 12:30,-119.7326,39.1923,1431.00,41.00,30.20,65.16,0.00,0.00,0.00,29.79,M,10.00,M,OVC,M,M,M,4600.00,M,M,M,M,M,M,M,M,M,M,41.00,KCXP 211230Z AUTO 00000KT 10SM OVC046 05/M01 A2979 RMK AO2,M
05U,2024-01-21 12:30,-116.0051,39.6042,1811.23,35.60,32.00,86.59,0.00,0.00,0.00,29.82,M,10.00,M,M,M,M,M,M,M,M,M,M,M,M,M,M,M,M,35.60,K05U 211230Z AUTO 00000KT 10SM 02/00 A2982 RMK A01,M
HTH,2024-01-21 12:30,-118.6315,38.5448,1282.89,44.60,26.60,48.96,110.00,7.00,0.00,29.76,M,10.00,M,SCT,SCT,OVC,M,6000.00,7000.00,9000.00,M,M,M,M,M,M,M,M,40.14,KHTH 211230Z AUTO 11007KT 10SM SCT060 SCT070 OVC090 07/M03 A2976 RMK A01,M
10U,2024-01-21 12:30,-116.1876,41.9532,1637.00,35.60,33.80,93.08,190.00,5.00,0.00,29.77,M,8.00,M,BKN,OVC,M,M,1400.00,2800.00,M,M,UP,M,M,M,M,M,M,30.67,K10U 211230Z AUTO 19005KT 8SM UP BKN014 OVC028 02/01 A2977 RMK AO2,M
BVU,2024-01-21 12:35,-114.8611,35.9475,671.00,50.00,44.60,81.61,180.00,5.00,0.00,29.82,M,10.00,M,BKN,OVC,M,M,8500.00,10000.00,M,M,M,M,M,M,M,M,M,50.00,KBVU 211235Z AUTO 18005KT 10SM BKN085 OVC100 10/07 A2982 RMK AO2,M
INS,2024-01-21 12:35,-115.6733,36.5872,955.00,42.80,37.40,81.07,280.00,6.00,0.00,29.81,1007.90,10.00,M,FEW,OVC,M,M,4500.00,6000.00,M,M,M,M,M,M,M,M,M,38.54,KINS 211235Z AUTO 28006KT 10SM FEW045 OVC060 06/03 A2981 RMK AO2 RAB21E22DZB22E23RAB23E33DZB33E35 SLP079,M
RTS,2024-01-21 12:35,-119.8764,39.6682,1539.00,39.20,30.20,69.88,70.00,4.00,0.00,29.77,M,10.00,M,SCT,BKN,OVC,M,5500.00,6500.00,7500.00,M,M,M,M,M,M,M,M,35.83,KRTS 211235Z AUTO 07004KT 10SM SCT055 BKN065 OVC075 04/M01 A2977 RMK AO2,M
MEV,2024-01-21 12:35,-119.7500,38.9963,1441.42,32.00,26.60,80.22,120.00,7.00,0.00,29.77,M,10.00,M,FEW,SCT,BKN,M,4500.00,5500.00,6500.00,M,M,M,M,M,M,M,M,24.78,KMEV 211235Z AUTO 12007KT 10SM FEW045 SCT055 BKN065 M00/M03 A2977 RMK AO2,M
BAM,2024-01-21 12:35,-116.8743,40.5990,1382.36,35.60,33.80,93.08,330.00,3.00,0.00,29.78,M,10.00,M,SCT,M,M,M,12000.00,M,M,M,M,M,M,M,M,M,M,32.80,KBAM 211235Z AUTO 33003KT 10SM SCT120 02/01 A2978 RMK AO1,M
TMT,2024-01-21 12:35,-117.1971,39.4643,1749.34,32.00,30.20,92.97,130.00,4.00,0.00,29.80,M,10.00,M,CLR,M,M,M,M,M,M,M,M,M,M,M,M,M,M,27.42,KTMT 211235Z AUTO 13004KT 10SM CLR 00/M01 A2980 RMK AO2 T00001010,M
INS,2024-01-21 12:40,-115.6733,36.5872,955.00,44.60,39.20,81.20,300.00,6.00,0.00,29.81,1007.70,10.00,M,SCT,OVC,M,M,4500.00,6000.00,M,M,-DZ,M,M,M,M,M,M,40.71,KINS 211240Z AUTO 30006KT 10SM -DZ SCT045 OVC060 07/04 A2981 RMK AO2 RAB21E22DZB22E23RAB23E33DZB33E35DZB40 SLP077,M
P68,2024-01-21 12:53,-116.0056,39.6014,1993.00,34.00,31.00,88.63,0.00,0.00,0.00,29.79,1007.40,M,M,M,M,M,M,M,M,M,M,M,M,M,M,M,M,M,34.00,KP68 211253Z AUTO 00000KT 01/M01 A2979 RMK AO1 SLP074 T00111006,M
DRA,2024-01-21 12:53,-116.0278,36.6206,1009.00,47.00,40.00,76.49,290.00,3.00,0.00,29.81,1007.20,10.00,M,BKN,BKN,OVC,M,3000.00,5000.00,6500.00,M,M,M,M,M,M,M,M,45.84,KDRA 211253Z AUTO 29003KT 10SM BKN030 BKN050 OVC065 08/04 A2981 RMK AO2 SLP072 T00830044,M
ELY,2024-01-21 12:53,-114.8453,39.2950,1909.00,34.00,31.00,88.63,0.00,0.00,T,29.82,1008.60,10.00,M,FEW,SCT,OVC,M,1600.00,3100.00,4200.00,M,-RA,M,M,M,M,M,M,34.00,KELY 211253Z AUTO 00000KT 10SM -RA FEW016 SCT031 OVC042 01/M01 A2982 RMK AO2 RAB19 SLP086 P0000 T00111006,M
VGT,2024-01-21 12:53,-115.1933,36.2111,667.00,50.00,43.00,76.76,100.00,3.00,0.00,29.81,1010.70,10.00,M,FEW,SCT,OVC,M,5500.00,8000.00,10000.00,M,M,M,M,M,M,M,M,50.00,KVGT 211253Z AUTO 10003KT 10SM FEW055 SCT080 OVC100 10/06 A2981 RMK AO2 SLP107 T01000061,M
LOL,2024-01-21 12:53,-118.5701,40.0684,1192.43,39.00,33.00,78.86,0.00,0.00,0.00,29.75,1007.20,10.00,M,OVC,M,M,M,7000.00,M,M,M,M,M,M,M,M,M,M,39.00,KLOL 211253Z AUTO 00000KT 10SM OVC070 04/01 A2975 RMK AO2 SLP072 T00390006,M
BVU,2024-01-21 12:55,-114.8611,35.9475,671.00,50.00,44.60,81.61,180.00,7.00,0.00,29.83,M,10.00,M,BKN,OVC,M,M,8000.00,11000.00,M,M,M,M,M,M,M,M,M,50.00,KBVU 211255Z AUTO 18007KT 10SM BKN080 OVC110 10/07 A2983 RMK AO2,M
CXP,2024-01-21 12:55,-119.7326,39.1923,1431.00,42.80,30.20,60.79,0.00,0.00,0.00,29.78,M,10.00,M,BKN,OVC,M,M,4900.00,5500.00,M,M,M,M,M,M,M,M,M,42.80,KCXP 211255Z AUTO 00000KT 10SM BKN049 OVC055 06/M01 A2978 RMK AO2,M
INS,2024-01-21 12:55,-115.6733,36.5872,955.00,43.50,38.50,82.40,250.00,6.00,T,29.81,1007.90,10.00,M,BKN,OVC,M,M,4200.00,5500.00,M,M,-DZ,M,M,M,M,M,M,39.38,KINS 211255Z AUTO 25006KT 10SM -DZ BKN042 OVC055 06/04 A2981 RMK AO2 RAB21E22DZB22E23RAB23E33DZB33E35DZB40 SLP079 P0000 T00640036,M
RNO,2024-01-21 12:55,-119.7711,39.4839,1341.00,39.00,33.00,78.86,160.00,3.00,T,29.76,1006.50,10.00,M,SCT,BKN,M,M,6000.00,10000.00,M,M,M,M,M,M,M,M,M,36.69,KRNO 211255Z 16003KT 10SM SCT060 BKN100 04/01 A2976 RMK AO2 RAB02E12 SLP065 P0000 T00390006,M
RTS,2024-01-21 12:55,-119.8764,39.6682,1539.00,41.00,30.20,65.16,M,6.00,0.00,29.77,M,10.00,M,BKN,OVC,M,M,6000.00,7000.00,M,M,M,M,M,M,M,M,M,36.37,KRTS 211255Z AUTO VRB06KT 10SM BKN060 OVC070 05/M01 A2977 RMK AO2,M
05U,2024-01-21 12:55,-116.0051,39.6042,1811.23,33.80,32.00,93.03,0.00,0.00,0.00,29.82,M,10.00,M,M,M,M,M,M,M,M,M,M,M,M,M,M,M,M,33.80,K05U 211255Z AUTO 00000KT 10SM 01/00 A2982 RMK A01,M
MEV,2024-01-21 12:55,-119.7500,38.9963,1441.42,28.40,24.80,86.18,0.00,0.00,0.00,29.78,M,10.00,M,FEW,SCT,BKN,M,4300.00,5000.00,6500.00,M,M,M,M,M,M,M,M,28.40,KMEV 211255Z AUTO 00000KT 10SM FEW043 SCT050 BKN065 M02/M04 A2978 RMK AO2,M
BAM,2024-01-21 12:55,-116.8743,40.5990,1382.36,37.40,33.80,86.69,0.00,0.00,0.00,29.78,M,10.00,M,SCT,M,M,M,11000.00,M,M,M,M,M,M,M,M,M,M,37.40,KBAM 211255Z AUTO 00000KT 10SM SCT110 03/01 A2978 RMK AO1,M
HTH,2024-01-21 12:55,-118.6315,38.5448,1282.89,42.80,28.40,56.48,240.00,3.00,0.00,29.77,M,10.00,M,FEW,OVC,M,M,6500.00,8500.00,M,M,M,M,M,M,M,M,M,41.03,KHTH 211255Z AUTO 24003KT 10SM FEW065 OVC085 06/M02 A2977 RMK A01,M
LSV,2024-01-21 12:55,-115.0343,36.2362,570.00,53.00,41.50,64.85,100.00,4.00,0.00,29.78,1007.80,10.00,M,SCT,M,M,M,10000.00,M,M,M,M,M,M,M,M,M,M,53.00,KLSV 211255Z AUTO 10004KT 10SM SCT100 12/05 A2978 RMK AO2 SLP078 T01170053 $,M
TMT,2024-01-21 12:55,-117.1971,39.4643,1749.34,31.60,30.00,93.72,180.00,6.00,0.00,29.80,M,10.00,M,CLR,M,M,M,M,M,M,M,M,M,M,M,M,M,M,25.05,KTMT 211255Z AUTO 18006KT 10SM CLR 00/M01 A2980 RMK AO2 T10021011,M
10U,2024-01-21 12:55,-116.1876,41.9532,1637.00,35.60,33.80,93.08,170.00,5.00,0.00,29.77,M,9.00,M,FEW,BKN,OVC,M,1500.00,2100.00,3700.00,M,UP,M,M,M,M,M,M,30.67,K10U 211255Z AUTO 17005KT 9SM UP FEW015 BKN021 OVC037 02/01 A2977 RMK AO2,M
EKO,2024-01-21 12:56,-115.7860,40.8242,1367.00,35.00,32.00,88.68,350.00,4.00,T,29.78,1008.30,10.00,M,SCT,M,M,M,2200.00,M,M,M,M,M,M,M,M,M,M,30.92,KEKO 211256Z AUTO 35004KT 10SM SCT022 02/00 A2978 RMK AO2 UPE06 SLP083 P0000 T00170000,M
NFL,2024-01-21 12:56,-118.7010,39.4166,1199.00,39.00,33.00,78.86,0.00,0.00,0.00,29.76,1005.60,10.00,M,OVC,M,M,M,9000.00,M,M,M,M,M,M,M,M,M,M,39.00,KNFL 211256Z AUTO 00000KT 10SM OVC090 04/01 A2976 RMK AO2 SLP056 T00390006,M
HND,2024-01-21 12:56,-115.1344,35.9729,742.79,50.00,43.00,76.76,190.00,13.00,T,29.83,1011.40,10.00,M,BKN,OVC,M,M,6000.00,7000.00,M,M,-RA,M,M,M,M,M,M,50.00,KHND 211256Z AUTO 19013KT 10SM -RA BKN060 OVC070 10/06 A2983 RMK AO2 RAB38 SLP114 P0000 T01000061,M
TPH,2024-01-21 12:56,-117.0904,38.0505,1654.00,37.00,36.00,96.13,130.00,5.00,0.01,29.81,1008.10,10.00,M,OVC,M,M,M,1000.00,M,M,M,-RA,M,M,M,M,M,M,32.33,KTPH 211256Z AUTO 13005KT 10SM -RA OVC010 03/02 A2981 RMK AO2 CIG 007V014 SLP081 P0001 T00280022,M
LAS,2024-01-21 12:56,-115.1634,36.0719,663.00,52.00,41.00,66.00,200.00,5.00,0.00,29.81,1008.70,10.00,M,SCT,BKN,BKN,M,3000.00,7000.00,10000.00,M,M,M,M,M,M,M,M,52.00,KLAS 211256Z 20005KT 10SM SCT030 BKN070 BKN100 11/05 A2981 RMK AO2 SLP087 VCSH T01110050,M
WMC,2024-01-21 12:56,-117.8072,40.9019,1315.00,41.00,35.00,79.02,120.00,3.00,0.01,29.75,1006.60,10.00,M,OVC,M,M,M,6000.00,M,M,M,M,M,M,M,M,M,M,38.98,KWMC 211256Z AUTO 12003KT 10SM OVC060 05/02 A2975 RMK AO2 RAE27 SLP066 P0001 T00500017,M
ELY,2024-01-21 13:09,-114.8453,39.2950,1909.00,34.00,32.00,92.29,0.00,0.00,0.01,29.82,M,9.00,M,FEW,BKN,OVC,M,1000.00,2300.00,3200.00,M,-RA,M,M,M,M,M,M,34.00,KELY 211309Z AUTO 00000KT 9SM -RA FEW010 BKN023 OVC032 01/00 A2982 RMK AO2 P0001 T00110000,M
BVU,2024-01-21 13:15,-114.8611,35.9475,671.00,50.00,44.60,81.61,200.00,4.00,0.00,29.83,M,10.00,M,BKN,BKN,OVC,M,7500.00,8500.00,11000.00,M,M,M,M,M,M,M,M,50.00,KBVU 211315Z AUTO 20004KT 10SM BKN075 BKN085 OVC110 10/07 A2983 RMK AO2,M
CXP,2024-01-21 13:15,-119.7326,39.1923,1431.00,39.20,30.20,69.88,190.00,4.00,0.00,29.78,M,10.00,M,FEW,BKN,OVC,M,3900.00,5000.00,5500.00,M,M,M,M,M,M,M,M,35.83,KCXP 211315Z AUTO 19004KT 10SM FEW039 BKN050 OVC055 04/M01 A2978 RMK AO2,M
RTS,2024-01-21 13:15,-119.8764,39.6682,1539.00,42.80,28.40,56.48,220.00,12.00,0.00,29.76,M,10.00,20.00,FEW,OVC,M,M,4000.00,6500.00,M,M,M,M,M,M,M,M,M,35.75,KRTS 211315Z AUTO 22012G20KT 190V250 10SM FEW040 OVC065 06/M02 A2976 RMK AO2,M
05U,2024-01-21 13:15,-116.0051,39.6042,1811.23,33.80,32.00,93.03,0.00,0.00,0.00,29.82,M,10.00,M,M,M,M,M,M,M,M,M,M,M,M,M,M,M,M,33.80,K05U 211315Z AUTO 00000KT 10SM 01/00 A2982 RMK A01,M
MEV,2024-01-21 13:15,-119.7500,38.9963,1441.42,28.40,26.60,92.86,0.00,0.00,0.00,29.78,M,10.00,M,FEW,M,M,M,4600.00,M,M,M,M,M,M,M,M,M,M,28.40,KMEV 211315Z AUTO 00000KT 10SM FEW046 M02/M03 A2978 RMK AO2,M
BAM,2024-01-21 13:15,-116.8743,40.5990,1382.36,35.60,32.00,86.59,360.00,3.00,0.00,29.79,M,10.00,M,BKN,OVC,M,M,8500.00,11000.00,M,M,M,M,M,M,M,M,M,32.80,KBAM 211315Z AUTO 36003KT 10SM BKN085 OVC110 02/00 A2979 RMK AO1,M
HTH,2024-01-21 13:15,-118.6315,38.5448,1282.89,41.00,28.40,60.54,150.00,5.00,0.00,29.77,M,10.00,M,FEW,BKN,OVC,M,6500.00,7500.00,10000.00,M,M,M,M,M,M,M,M,37.08,KHTH 211315Z AUTO 15005KT 10SM FEW065 BKN075 OVC100 05/M02 A2977 RMK A01,M
10U,2024-01-21 13:15,-116.1876,41.9532,1637.00,33.80,33.80,100.00,150.00,6.00,0.00,29.76,M,10.00,M,FEW,SCT,OVC,M,2000.00,3200.00,5000.00,M,M,M,M,M,M,M,M,27.70,K10U 211315Z AUTO 15006KT 10SM FEW020 SCT032 OVC050 01/01 A2976 RMK AO2,M
TMT,2024-01-21 13:15,-117.1971,39.4643,1749.34,30.60,29.00,93.69,330.00,3.00,0.00,29.80,M,10.00,M,SCT,BKN,M,M,4700.00,5500.00,M,M,M,M,M,M,M,M,M,27.09,KTMT 211315Z AUTO 33003KT 10SM SCT047 BKN055 M01/M02 A2980 RMK AO2 T10081016,M
10U,2024-01-21 13:30,-116.1876,41.9532,1637.00,33.80,33.80,100.00,160.00,7.00,0.00,29.76,M,10.00,M,FEW,OVC,M,M,4200.00,5000.00,M,M,M,M,M,M,M,M,M,26.97,K10U 211330Z AUTO 16007KT 10SM FEW042 OVC050 01/01 A2976 RMK AO2,M
BVU,2024-01-21 13:35,-114.8611,35.9475,671.00,50.00,44.60,81.61,0.00,0.00,0.00,29.83,M,10.00,M,FEW,SCT,OVC,M,4500.00,6000.00,7500.00,M,M,M,M,M,M,M,M,50.00,KBVU 211335Z AUTO 00000KT 10SM FEW045 SCT060 OVC075 10/07 A2983 RMK AO2,M
CXP,2024-01-21 13:35,-119.7326,39.1923,1431.00,39.20,30.20,69.88,220.00,3.00,0.00,29.78,M,10.00,M,SCT,M,M,M,5000.00,M,M,M,M,M,M,M,M,M,M,36.92,KCXP 211335Z AUTO 22003KT 10SM SCT050 04/M01 A2978 RMK AO2,M
RTS,2024-01-21 13:35,-119.8764,39.6682,1539.00,42.80,28.40,56.48,210.00,11.00,0.00,29.76,M,10.00,17.00,OVC,M,M,M,7000.00,M,M,M,M,M,M,M,M,M,M,36.11,KRTS 211335Z AUTO 21011G17KT 10SM OVC070 06/M02 A2976 RMK AO2,M
05U,2024-01-21 13:35,-116.0051,39.6042,1811.23,33.80,32.00,93.03,0.00,0.00,0.00,29.82,M,10.00,M,M,M,M,M,M,M,M,M,M,M,M,M,M,M,M,33.80,K05U 211335Z AUTO 00000KT 10SM 01/00 A2982 RMK A01,M
MEV,2024-01-21 13:35,-119.7500,38.9963,1441.42,26.60,24.80,92.80,0.00,0.00,0.00,29.77,M,10.00,M,SCT,M,M,M,11000.00,M,M,M,M,M,M,M,M,M,M,26.60,KMEV 211335Z AUTO 00000KT 10SM SCT110 M03/M04 A2977 RMK AO2,M
BAM,2024-01-21 13:35,-116.8743,40.5990,1382.36,35.60,32.00,86.59,10.00,3.00,0.00,29.79,M,10.00,M,OVC,M,M,M,8500.00,M,M,M,M,M,M,M,M,M,M,32.80,KBAM 211335Z AUTO 01003KT 10SM OVC085 02/00 A2979 RMK AO1,M
HTH,2024-01-21 13:35,-118.6315,38.5448,1282.89,41.00,28.40,60.54,140.00,8.00,0.00,29.77,M,10.00,M,OVC,M,M,M,7500.00,M,M,M,M,M,M,M,M,M,M,35.20,KHTH 211335Z AUTO 14008KT 10SM OVC075 05/M02 A2977 RMK A01,M
TMT,2024-01-21 13:35,-117.1971,39.4643,1749.34,30.00,28.60,94.45,0.00,0.00,0.00,29.81,M,10.00,M,BKN,BKN,M,M,4700.00,5000.00,M,M,M,M,M,M,M,M,M,30.00,KTMT 211335Z AUTO 00000KT 10SM BKN047 BKN050 M01/M02 A2981 RMK AO2 T10121019,M
P68,2024-01-21 13:53,-116.0056,39.6014,1993.00,32.00,31.00,96.04,0.00,0.00,0.00,29.80,1007.90,M,M,M,M,M,M,M,M,M,M,M,M,M,M,M,M,M,32.00,KP68 211353Z AUTO 00000KT 00/M01 A2980 RMK AO1 SLP079 T00001006,M
DRA,2024-01-21 13:53,-116.0278,36.6206,1009.00,45.00,43.00,92.65,250.00,9.00,T,29.82,1007.90,10.00,M,FEW,OVC,M,M,2700.00,4000.00,M,M,-RA,M,M,M,M,M,M,39.68,KDRA 211353Z AUTO 25009KT 10SM -RA FEW027 OVC040 07/06 A2982 RMK AO2 RAB21 SLP079 P0000 T00720061 $,M
ELY,2024-01-21 13:53,-114.8453,39.2950,1909.00,33.00,31.00,92.25,0.00,0.00,0.03,29.82,1008.80,5.00,M,OVC,M,M,M,2600.00,M,M,M,-SN BR,M,M,M,M,M,M,33.00,KELY 211353Z AUTO 00000KT 5SM -SN BR OVC026 01/M01 A2982 RMK AO2 RAE28SNB28 SLP088 P0003 T00061006,M
VGT,2024-01-21 13:53,-115.1933,36.2111,667.00,50.00,44.00,79.76,70.00,3.00,0.03,29.82,1011.20,10.00,M,SCT,OVC,M,M,5500.00,7000.00,M,M,-RA,M,M,M,M,M,M,50.00,KVGT 211353Z AUTO 07003KT 10SM -RA SCT055 OVC070 10/07 A2982 RMK AO2 RAB1254 SLP112 P0003 T01000067,M
LOL,2024-01-21 13:53,-118.5701,40.0684,1192.43,38.00,32.00,78.77,0.00,0.00,0.00,29.75,1007.50,10.00,M,BKN,OVC,M,M,7500.00,9500.00,M,M,M,M,M,M,M,M,M,38.00,KLOL 211353Z AUTO 00000KT 10SM BKN075 OVC095 03/00 A2975 RMK AO2 SLP075 T00330000,M
BVU,2024-01-21 13:55,-114.8611,35.9475,671.00,50.00,44.60,81.61,0.00,0.00,0.00,29.84,M,10.00,M,FEW,OVC,M,M,5500.00,7000.00,M,M,M,M,M,M,M,M,M,50.00,KBVU 211355Z AUTO 00000KT 10SM FEW055 OVC070 10/07 A2984 RMK AO2,M
CXP,2024-01-21 13:55,-119.7326,39.1923,1431.00,39.20,30.20,69.88,0.00,0.00,0.00,29.78,M,10.00,M,CLR,M,M,M,M,M,M,M,M,M,M,M,M,M,M,39.20,KCXP 211355Z AUTO 00000KT 10SM CLR 04/M01 A2978 RMK AO2,M
INS,2024-01-21 13:55,-115.6733,36.5872,955.00,44.80,40.30,84.11,0.00,0.00,T,29.82,1008.30,10.00,M,BKN,OVC,M,M,3300.00,5500.00,M,M,-RA,M,M,M,M,M,M,44.80,KINS 211355Z AUTO 00000KT 10SM -RA BKN033 OVC055 07/05 A2982 RMK AO2 DZE02RAB02 SLP083 P0000 T00710046,M
RNO,2024-01-21 13:55,-119.7711,39.4839,1341.00,39.00,32.00,75.75,0.00,0.00,0.00,29.75,1006.20,10.00,M,FEW,BKN,BKN,M,5000.00,10000.00,18000.00,M,M,M,M,M,M,M,M,39.00,KRNO 211355Z 00000KT 10SM FEW050 BKN100 BKN180 04/00 A2975 RMK AO2 SLP062 T00390000,M
RTS,2024-01-21 13:55,-119.8764,39.6682,1539.00,44.60,28.40,52.72,220.00,19.00,0.00,29.76,M,10.00,30.00,BKN,OVC,M,M,6000.00,7000.00,M,M,M,M,M,M,M,M,M,36.10,KRTS 211355Z AUTO 22019G30KT 10SM BKN060 OVC070 07/M02 A2976 RMK AO2,M
05U,2024-01-21 13:55,-116.0051,39.6042,1811.23,33.80,32.00,93.03,0.00,0.00,0.00,29.82,M,10.00,M,M,M,M,M,M,M,M,M,M,M,M,M,M,M,M,33.80,K05U 211355Z AUTO 00000KT 10SM 01/M00 A2982 RMK A01,M
MEV,2024-01-21 13:55,-119.7500,38.9963,1441.42,26.60,24.80,92.80,140.00,4.00,0.00,29.77,M,8.00,M,FEW,M,M,M,11000.00,M,M,M,M,M,M,M,M,M,M,21.11,KMEV 211355Z AUTO 14004KT 8SM FEW110 M03/M04 A2977 RMK AO2,M
BAM,2024-01-21 13:55,-116.8743,40.5990,1382.36,35.60,32.00,86.59,90.00,3.00,0.00,29.79,M,10.00,M,OVC,M,M,M,7500.00,M,M,M,M,M,M,M,M,M,M,32.80,KBAM 211355Z AUTO 09003KT 10SM OVC075 02/00 A2979 RMK AO1,M
HTH,2024-01-21 13:55,-118.6315,38.5448,1282.89,41.00,28.40,60.54,150.00,5.00,0.00,29.77,M,10.00,M,BKN,BKN,BKN,M,7500.00,10000.00,12000.00,M,M,M,M,M,M,M,M,37.08,KHTH 211355Z AUTO 15005KT 10SM BKN075 BKN100 BKN120 05/M02 A2977 RMK A01,M
LSV,2024-01-21 13:55,-115.0343,36.2362,570.00,51.80,44.00,74.61,100.00,3.00,0.00,29.80,1008.60,10.00,M,CLR,M,M,M,M,M,M,M,M,M,M,M,M,M,M,51.80,KLSV 211355Z AUTO 10003KT 10SM CLR 11/07 A2980 RMK AO2 SLP086 T01100067 $,M
TMT,2024-01-21 13:55,-117.1971,39.4643,1749.34,28.80,28.00,96.77,0.00,0.00,0.00,29.81,M,10.00,M,BKN,M,M,M,4500.00,M,M,M,M,M,M,M,M,M,M,28.80,KTMT 211355Z AUTO 00000KT 10SM BKN045 M02/M02 A2981 RMK AO2 T10181022,M
10U,2024-01-21 13:55,-116.1876,41.9532,1637.00,35.60,33.80,93.08,190.00,6.00,0.00,29.77,M,10.00,M,BKN,OVC,M,M,3600.00,4100.00,M,M,M,M,M,M,M,M,M,29.87,K10U 211355Z AUTO 19006KT 10SM BKN036 OVC041 02/01 A2977 RMK AO2,M
EKO,2024-01-21 13:56,-115.7860,40.8242,1367.00,34.00,32.00,92.29,320.00,4.00,0.00,29.79,1008.70,10.00,M,FEW,OVC,M,M,2500.00,6000.00,M,M,M,M,M,M,M,M,M,29.76,KEKO 211356Z AUTO 32004KT 10SM FEW025 OVC060 01/00 A2979 RMK AO2 SLP087 T00110000,M
NFL,2024-01-21 13:56,-118.7010,39.4166,1199.00,38.00,32.00,78.77,60.00,3.00,0.00,29.75,1005.50,10.00,M,BKN,M,M,M,8500.00,M,M,M,M,M,M,M,M,M,M,35.55,KNFL 211356Z AUTO 06003KT 10SM BKN085 03/00 A2975 RMK AO2 SLP055 T00330000,M
HND,2024-01-21 13:56,-115.1344,35.9729,742.79,49.00,43.00,79.68,190.00,11.00,T,29.85,1012.10,10.00,M,BKN,BKN,OVC,M,5000.00,6500.00,9500.00,M,-RA,M,M,M,M,M,M,43.95,KHND 211356Z 19011KT 10SM -RA BKN050 BKN065 OVC095 09/06 A2985 RMK AO2 SLP121 P0000 T00940061,M
TPH,2024-01-21 13:56,-117.0904,38.0505,1654.00,37.00,36.00,96.13,130.00,3.00,0.01,29.82,1008.60,10.00,M,OVC,M,M,M,800.00,M,M,M,M,M,M,M,M,M,M,34.40,KTPH 211356Z AUTO 13003KT 10SM OVC008 03/02 A2982 RMK AO2 RAE30 CIG 005V013 SLP086 P0001 T00280022,M
LAS,2024-01-21 13:56,-115.1634,36.0719,663.00,51.00,45.00,79.84,170.00,4.00,0.01,29.82,1009.30,10.00,M,BKN,OVC,M,M,6000.00,10000.00,M,M,-RA,M,M,M,M,M,M,51.00,KLAS 211356Z 17004KT 10SM -RA BKN060 OVC100 11/07 A2982 RMK AO2 RAB03 SLP093 P0001 T01060072,M
WMC,2024-01-21 13:56,-117.8072,40.9019,1315.00,39.00,34.00,82.08,20.00,7.00,0.00,29.75,1006.80,10.00,M,FEW,OVC,M,M,6000.00,8500.00,M,M,M,M,M,M,M,M,M,33.31,KWMC 211356Z AUTO 02007KT 10SM FEW060 OVC085 04/01 A2975 RMK AO2 SLP068 T00390011,M
ELY,2024-01-21 14:02,-114.8453,39.2950,1909.00,32.00,31.00,96.04,150.00,3.00,T,29.83,M,6.00,M,FEW,BKN,OVC,M,2600.00,3000.00,5500.00,M,-SN BR,M,M,M,M,M,M,28.69,KELY 211402Z AUTO 15003KT 6SM -SN BR FEW026 BKN030 OVC055 00/M01 A2983 RMK AO2 P0000 T00001006,M
TPH,2024-01-21 14:07,-117.0904,38.0505,1654.00,37.00,37.00,100.00,0.00,0.00,0.00,29.82,M,10.00,M,BKN,OVC,M,M,500.00,1000.00,M,M,M,M,M,M,M,M,M,37.00,KTPH 211407Z AUTO 00000KT 10SM BKN005 OVC010 03/03 A2982 RMK AO2 CIG 004V008 T00280028,M
BVU,2024-01-21 14:15,-114.8611,35.9475,671.00,50.00,44.60,81.61,0.00,0.00,0.00,29.84,M,10.00,M,SCT,BKN,OVC,M,5000.00,5500.00,7000.00,M,M,M,M,M,M,M,M,50.00,KBVU 211415Z AUTO 00000KT 10SM SCT050 BKN055 OVC070 10/07 A2984 RMK AO2,M
CXP,2024-01-21 14:15,-119.7326,39.1923,1431.00,39.20,30.20,69.88,70.00,5.00,0.00,29.78,M,10.00,M,CLR,M,M,M,M,M,M,M,M,M,M,M,M,M,M,34.95,KCXP 211415Z AUTO 07005KT 10SM CLR 04/M01 A2978 RMK AO2,M
ELY,2024-01-21 14:15,-114.8453,39.2950,1909.00,32.00,31.00,96.04,150.00,3.00,T,29.83,M,8.00,M,BKN,OVC,M,M,2600.00,3700.00,M,M,UP,M,M,M,M,M,M,28.69,KELY 211415Z AUTO 15003KT 8SM UP BKN026 OVC037 00/M01 A2983 RMK AO2 RAB03E05UPB05SNE03 P0000 T00001006,M
RTS,2024-01-21 14:15,-119.8764,39.6682,1539.00,42.80,28.40,56.48,180.00,7.00,0.00,29.76,M,10.00,17.00,BKN,OVC,M,M,6000.00,7500.00,M,M,M,M,M,M,M,M,M,37.94,KRTS 211415Z AUTO 18007G17KT 080V230 10SM BKN060 OVC075 06/M02 A2976 RMK AO2,M
05U,2024-01-21 14:15,-116.0051,39.6042,1811.23,32.00,30.20,92.97,0.00,0.00,0.00,29.83,M,10.00,M,M,M,M,M,M,M,M,M,M,M,M,M,M,M,M,32.00,K05U 211415Z AUTO 00000KT 10SM 00/M01 A2983 RMK A01,M
MEV,2024-01-21 14:15,-119.7500,38.9963,1441.42,26.60,24.80,92.80,120.00,4.00,0.00,29.78,M,10.00,M,SCT,M,M,M,9500.00,M,M,M,M,M,M,M,M,M,M,21.11,KMEV 211415Z AUTO 12004KT 10SM SCT095 M03/M04 A2978 RMK AO2,M
BAM,2024-01-21 14:15,-116.8743,40.5990,1382.36,33.80,32.00,93.03,120.00,3.00,0.00,29.79,M,10.00,M,OVC,M,M,M,7500.00,M,M,M,M,M,M,M,M,M,M,30.75,KBAM 211415Z AUTO 12003KT 10SM OVC075 01/00 A2979 RMK AO1,M
HTH,2024-01-21 14:15,-118.6315,38.5448,1282.89,39.20,28.40,64.93,160.00,5.00,0.00,29.78,M,10.00,M,FEW,FEW,M,M,10000.00,12000.00,M,M,M,M,M,M,M,M,M,34.95,KHTH 211415Z AUTO 16005KT 10SM FEW100 FEW120 04/M02 A2978 RMK A01,M
10U,2024-01-21 14:15,-116.1876,41.9532,1637.00,33.80,33.80,100.00,200.00,5.00,0.00,29.76,M,10.00,M,BKN,BKN,OVC,M,3500.00,5500.00,7000.00,M,M,M,M,M,M,M,M,28.53,K10U 211415Z AUTO 20005KT 10SM BKN035 BKN055 OVC070 01/01 A2976 RMK AO2,M
TMT,2024-01-21 14:15,-117.1971,39.4643,1749.34,27.30,26.40,96.35,0.00,0.00,0.00,29.81,M,10.00,M,SCT,M,M,M,4300.00,M,M,M,M,M,M,M,M,M,M,27.30,KTMT 211415Z AUTO 00000KT 10SM SCT043 M03/M03 A2981 RMK AO2 T10261031,M
INS,2024-01-21 14:25,-115.6733,36.5872,955.00,44.60,41.00,87.09,0.00,0.00,0.00,29.83,1008.60,10.00,M,BKN,OVC,M,M,2800.00,3500.00,M,M,-RA,M,M,M,M,M,M,44.60,KINS 211425Z AUTO 00000KT 10SM -RA BKN028 OVC035 07/05 A2983 RMK AO2 SLP086,M
LSV,2024-01-21 14:28,-115.0343,36.2362,570.00,50.00,46.40,87.37,50.00,3.00,0.00,29.81,1009.00,10.00,M,BKN,M,M,M,5500.00,M,M,M,-RA,M,M,M,M,M,M,50.00,KLSV 211428Z AUTO 05003KT 10SM -RA BKN055 10/08 A2981 RMK AO2 RAB28 SLP090 $,M
05U,2024-01-21 14:30,-116.0051,39.6042,1811.23,32.00,30.20,92.97,130.00,3.00,0.00,29.83,M,10.00,M,M,M,M,M,M,M,M,M,M,M,M,M,M,M,M,28.69,K05U 211430Z AUTO 13003KT 10SM M00/M01 A2983 RMK A01,M
10U,2024-01-21 14:30,-116.1876,41.9532,1637.00,35.60,33.80,93.08,210.00,6.00,0.00,29.76,M,10.00,M,SCT,BKN,BKN,M,3400.00,5500.00,7000.00,M,M,M,M,M,M,M,M,29.87,K10U 211430Z AUTO 21006KT 10SM SCT034 BKN055 BKN070 02/01 A2976 RMK AO2,M
TPH,2024-01-21 14:33,-117.0904,38.0505,1654.00,37.00,36.00,96.13,100.00,4.00,T,29.83,M,10.00,M,OVC,M,M,M,400.00,M,M,M,-RA,M,M,M,M,M,M,33.26,KTPH 211433Z AUTO 10004KT 10SM -RA OVC004 03/02 A2983 RMK AO2 RAB08 P0000 T00280022,M
BVU,2024-01-21 14:35,-114.8611,35.9475,671.00,48.20,46.40,93.45,0.00,0.00,0.00,29.85,M,10.00,M,BKN,BKN,OVC,M,5000.00,6000.00,6500.00,M,M,M,M,M,M,M,M,48.20,KBVU 211435Z AUTO 00000KT 10SM BKN050 BKN060 OVC065 09/08 A2985 RMK AO2,M
CXP,2024-01-21 14:35,-119.7326,39.1923,1431.00,37.40,28.40,69.67,190.00,4.00,0.00,29.79,M,10.00,M,CLR,M,M,M,M,M,M,M,M,M,M,M,M,M,M,33.73,KCXP 211435Z AUTO 19004KT 10SM CLR 03/M02 A2979 RMK AO2,M
RTS,2024-01-21 14:35,-119.8764,39.6682,1539.00,41.00,30.20,65.16,360.00,8.00,0.00,29.76,M,10.00,M,OVC,M,M,M,7000.00,M,M,M,M,M,M,M,M,M,M,35.20,KRTS 211435Z AUTO 36008KT 10SM OVC070 05/M01 A2976 RMK AO2,M
MEV,2024-01-21 14:35,-119.7500,38.9963,1441.42,26.60,24.80,92.80,0.00,0.00,0.00,29.78,M,10.00,M,BKN,M,M,M,9500.00,M,M,M,M,M,M,M,M,M,M,26.60,KMEV 211435Z AUTO 00000KT 10SM BKN095 M03/M04 A2978 RMK AO2,M
BAM,2024-01-21 14:35,-116.8743,40.5990,1382.36,33.80,32.00,93.03,0.00,0.00,0.00,29.79,M,10.00,M,OVC,M,M,M,7500.00,M,M,M,M,M,M,M,M,M,M,33.80,KBAM 211435Z AUTO 00000KT 10SM OVC075 01/00 A2979 RMK AO1,M
HTH,2024-01-21 14:35,-118.6315,38.5448,1282.89,39.20,28.40,64.93,120.00,4.00,0.00,29.78,M,10.00,M,CLR,M,M,M,M,M,M,M,M,M,M,M,M,M,M,35.83,KHTH 211435Z AUTO 12004KT 10SM CLR 04/M02 A2978 RMK A01,M
TMT,2024-01-21 14:35,-117.1971,39.4643,1749.34,29.00,28.20,96.78,280.00,3.00,0.00,29.82,M,10.00,M,SCT,M,M,M,11000.00,M,M,M,M,M,M,M,M,M,M,25.26,KTMT 211435Z AUTO 28003KT 10SM SCT110 M02/M02 A2982 RMK AO2 T10171021,M
05U,2024-01-21 14:50,-116.0051,39.6042,1811.23,32.00,30.20,92.97,0.00,0.00,0.00,29.83,M,10.00,M,M,M,M,M,M,M,M,M,M,M,M,M,M,M,M,32.00,K05U 211450Z AUTO 00000KT 10SM M00/M01 A2983 RMK A01,M
HTH,2024-01-21 14:50,-118.6315,38.5448,1282.89,39.20,28.40,64.93,130.00,6.00,0.00,29.78,M,10.00,M,CLR,M,M,M,M,M,M,M,M,M,M,M,M,M,M,34.20,KHTH 211450Z AUTO 13006KT 10SM CLR 04/M02 A2978 RMK A01,M
CXP,2024-01-21 14:50,-119.7326,39.1923,1431.00,37.40,28.40,69.67,20.00,3.00,0.00,29.79,M,10.00,M,CLR,M,M,M,M,M,M,M,M,M,M,M,M,M,M,34.86,KCXP 211450Z AUTO 02003KT 10SM CLR 03/M02 A2979 RMK AO2,M
P68,2024-01-21 14:53,-116.0056,39.6014,1993.00,32.00,30.00,92.22,0.00,0.00,0.00,29.80,1007.80,M,M,M,M,M,M,M,M,M,M,M,M,M,M,M,M,M,32.00,KP68 211453Z AUTO 00000KT 00/M01 A2980 RMK AO1 SLP078 T00001011 53003,M
DRA,2024-01-21 14:53,-116.0278,36.6206,1009.00,45.00,44.00,96.26,210.00,12.00,0.05,29.83,1008.40,10.00,20.00,OVC,M,M,M,3400.00,M,M,M,-RA,M,M,M,M,M,M,38.55,KDRA 211453Z AUTO 21012G20KT 10SM -RA OVC034 07/07 A2983 RMK AO2 SLP084 P0005 60005 T00720067 53009 $,M
ELY,2024-01-21 14:53,-114.8453,39.2950,1909.00,32.00,31.00,96.04,200.00,3.00,T,29.83,1008.90,10.00,M,SCT,OVC,M,M,2500.00,4300.00,M,M,M,M,M,M,M,M,M,28.69,KELY 211453Z AUTO 20003KT 10SM SCT025 OVC043 00/M01 A2983 RMK AO2 RAB03E05UPB05E31SNE03 SLP089 P0000 60003 T00001006 52003,M
VGT,2024-01-21 14:53,-115.1933,36.2111,667.00,49.00,45.00,86.00,20.00,3.00,0.01,29.84,1011.90,10.00,M,OVC,M,M,M,5000.00,M,M,M,-RA,M,M,M,M,M,M,48.12,KVGT 211453Z 02003KT 10SM -RA OVC050 09/07 A2984 RMK AO2 SLP119 P0001 60004 T00940072 53010,M
LOL,2024-01-21 14:53,-118.5701,40.0684,1192.43,38.00,32.00,78.77,40.00,5.00,0.00,29.76,1007.90,10.00,M,SCT,M,M,M,9000.00,M,M,M,M,M,M,M,M,M,M,33.52,KLOL 211453Z AUTO 04005KT 10SM SCT090 03/00 A2976 RMK AO2 SLP079 T00330000 53001,M
BVU,2024-01-21 14:55,-114.8611,35.9475,671.00,48.20,44.60,87.28,300.00,4.00,0.00,29.85,M,10.00,M,FEW,SCT,BKN,M,3700.00,4600.00,5500.00,M,M,M,M,M,M,M,M,46.34,KBVU 211455Z AUTO 30004KT 10SM FEW037 SCT046 BKN055 09/07 A2985 RMK AO2,M
INS,2024-01-21 14:55,-115.6733,36.5872,955.00,45.70,41.40,84.83,0.00,0.00,0.02,29.84,1008.70,10.00,M,OVC,M,M,M,2700.00,M,M,M,-RA,M,M,M,M,M,M,45.70,KINS 211455Z AUTO 00000KT 10SM -RA OVC027 08/05 A2984 RMK AO2 SLP087 P0002 60002 T00760052 53009,M
RNO,2024-01-21 14:55,-119.7711,39.4839,1341.00,37.00,31.00,78.69,90.00,4.00,0.00,29.76,1006.90,10.00,M,FEW,BKN,BKN,M,5000.00,10000.00,15000.00,M,M,M,M,M,M,M,M,33.26,KRNO 211455Z 09004KT 10SM FEW050 BKN100 BKN150 03/M01 A2976 RMK AO2 SLP069 ACSL DSNT SE THRU S MTN TOPS OBSCD DSNT SW THRU NW 60000 T00281006 55001,M
RTS,2024-01-21 14:55,-119.8764,39.6682,1539.00,39.20,30.20,69.88,70.00,8.00,0.00,29.77,M,10.00,M,OVC,M,M,M,6500.00,M,M,M,M,M,M,M,M,M,M,32.98,KRTS 211455Z AUTO 07008KT 10SM OVC065 04/M01 A2977 RMK AO2,M
MEV,2024-01-21 14:55,-119.7500,38.9963,1441.42,30.20,26.60,86.28,0.00,0.00,0.00,29.78,M,10.00,M,BKN,M,M,M,9500.00,M,M,M,M,M,M,M,M,M,M,30.20,KMEV 211455Z AUTO 00000KT 10SM BKN095 M01/M03 A2978 RMK AO2,M
BAM,2024-01-21 14:55,-116.8743,40.5990,1382.36,33.80,32.00,93.03,0.00,0.00,0.00,29.79,M,10.00,M,OVC,M,M,M,7500.00,M,M,M,M,M,M,M,M,M,M,33.80,KBAM 211455Z AUTO 00000KT 10SM OVC075 01/00 A2979 RMK AO1,M
LSV,2024-01-21 14:55,-115.0343,36.2362,570.00,50.70,45.70,82.91,50.00,4.00,T,29.82,1009.40,10.00,M,SCT,M,M,M,5500.00,M,M,M,-RA,M,M,M,M,M,M,50.70,KLSV 211455Z AUTO 05004KT 10SM -RA SCT055 10/08 A2982 RMK AO2 RAB28 SLP094 P0000 60000 T01040076 53013 $,M
TMT,2024-01-21 14:55,-117.1971,39.4643,1749.34,28.80,27.30,94.03,0.00,0.00,0.00,29.82,M,10.00,M,BKN,M,M,M,11000.00,M,M,M,M,M,M,M,M,M,M,28.80,KTMT 211455Z AUTO 00000KT 10SM BKN110 M02/M03 A2982 RMK AO2 T10181026,M
10U,2024-01-21 14:55,-116.1876,41.9532,1637.00,33.80,33.80,100.00,180.00,4.00,0.00,29.77,M,10.00,M,BKN,BKN,M,M,4700.00,5500.00,M,M,M,M,M,M,M,M,M,29.52,K10U 211455Z AUTO 18004KT 10SM BKN047 BKN055 01/01 A2977 RMK AO2,M
EKO,2024-01-21 14:56,-115.7860,40.8242,1367.00,34.00,32.00,92.29,100.00,5.00,0.00,29.79,1008.80,10.00,M,BKN,OVC,M,M,5000.00,6000.00,M,M,M,M,M,M,M,M,M,28.77,KEKO 211456Z AUTO 10005KT 10SM BKN050 OVC060 01/00 A2979 RMK AO2 SLP088 60000 T00110000 51004,M
NFL,2024-01-21 14:56,-118.7010,39.4166,1199.00,37.00,32.00,81.93,120.00,3.00,0.00,29.76,1005.80,10.00,M,BKN,M,M,M,8000.00,M,M,M,M,M,M,M,M,M,M,34.40,KNFL 211456Z AUTO 12003KT 10SM BKN080 03/00 A2976 RMK AO2 SLP058 T00280000 53003,M
HND,2024-01-21 14:56,-115.1344,35.9729,742.79,48.00,44.00,85.95,170.00,8.00,0.01,29.87,1012.80,10.00,M,OVC,M,M,M,5000.00,M,M,M,-RA,M,M,M,M,M,M,43.82,KHND 211456Z 17008KT 10SM -RA OVC050 09/07 A2987 RMK AO2 SLP128 P0001 60001 T00890067 53012,M
TPH,2024-01-21 14:56,-117.0904,38.0505,1654.00,37.00,36.00,96.13,110.00,4.00,T,29.83,1009.20,10.00,M,OVC,M,M,M,400.00,M,M,M,M,M,M,M,M,M,M,33.26,KTPH 211456Z AUTO 11004KT 10SM OVC004 03/02 A2983 RMK AO2 RAB08E38 SLP092 P0000 60002 T00280022 53006,M
LAS,2024-01-21 14:56,-115.1634,36.0719,663.00,51.00,45.00,79.84,180.00,7.00,0.01,29.84,1009.80,10.00,M,BKN,OVC,M,M,6000.00,7500.00,M,M,-RA,M,M,M,M,M,M,51.00,KLAS 211456Z 18007KT 10SM -RA BKN060 OVC075 11/07 A2984 RMK AO2 SLP098 P0001 60002 T01060072 53010,M
WMC,2024-01-21 14:56,-117.8072,40.9019,1315.00,37.00,32.00,81.93,70.00,6.00,0.00,29.75,1007.10,10.00,M,FEW,M,M,M,8000.00,M,M,M,M,M,M,M,M,M,M,31.55,KWMC 211456Z AUTO 07006KT 10SM FEW080 03/00 A2975 RMK AO2 SLP071 60001 T00280000 55002,M
10U,2024-01-21 15:10,-116.1876,41.9532,1637.00,33.80,32.00,93.03,160.00,5.00,0.00,29.77,M,10.00,M,BKN,BKN,M,M,4300.00,4900.00,M,M,M,M,M,M,M,M,M,28.53,K10U 211510Z AUTO 16005KT 10SM BKN043 BKN049 01/00 A2977 RMK AO2,M
BVU,2024-01-21 15:15,-114.8611,35.9475,671.00,48.20,46.40,93.45,0.00,0.00,0.00,29.86,M,9.00,M,SCT,BKN,OVC,M,3700.00,4600.00,5500.00,M,M,M,M,M,M,M,M,48.20,KBVU 211515Z AUTO 00000KT 9SM SCT037 BKN046 OVC055 09/08 A2986 RMK AO2,M
CXP,2024-01-21 15:15,-119.7326,39.1923,1431.00,35.60,28.40,74.80,310.00,4.00,0.00,29.79,M,10.00,M,BKN,M,M,M,9500.00,M,M,M,M,M,M,M,M,M,M,31.62,KCXP 211515Z AUTO 31004KT 10SM BKN095 02/M02 A2979 RMK AO2,M
RTS,2024-01-21 15:15,-119.8764,39.6682,1539.00,39.20,30.20,69.88,80.00,8.00,0.00,29.77,M,10.00,M,SCT,BKN,OVC,M,4600.00,6000.00,8500.00,M,M,M,M,M,M,M,M,32.98,KRTS 211515Z AUTO 08008KT 10SM SCT046 BKN060 OVC085 04/M01 A2977 RMK AO2,M
05U,2024-01-21 15:15,-116.0051,39.6042,1811.23,32.00,30.20,92.97,340.00,5.00,0.00,29.83,M,10.00,M,M,M,M,M,M,M,M,M,M,M,M,M,M,M,M,26.40,K05U 211515Z AUTO 34005KT 10SM M00/M01 A2983 RMK A01,M
MEV,2024-01-21 15:15,-119.7500,38.9963,1441.42,30.20,24.80,80.07,0.00,0.00,0.00,29.78,M,10.00,M,BKN,M,M,M,9000.00,M,M,M,M,M,M,M,M,M,M,30.20,KMEV 211515Z AUTO 00000KT 10SM BKN090 M01/M04 A2978 RMK AO2,M
BAM,2024-01-21 15:15,-116.8743,40.5990,1382.36,33.80,32.00,93.03,0.00,0.00,0.00,29.79,M,10.00,M,OVC,M,M,M,7500.00,M,M,M,M,M,M,M,M,M,M,33.80,KBAM 211515Z AUTO 00000KT 10SM OVC075 01/00 A2979 RMK AO1,M
HTH,2024-01-21 15:15,-118.6315,38.5448,1282.89,37.40,26.60,64.70,150.00,4.00,0.00,29.79,M,10.00,M,CLR,M,M,M,M,M,M,M,M,M,M,M,M,M,M,33.73,KHTH 211515Z AUTO 15004KT 10SM CLR 03/M03 A2979 RMK A01,M
TMT,2024-01-21 15:15,-117.1971,39.4643,1749.34,28.00,27.50,97.97,130.00,4.00,0.00,29.82,M,10.00,M,SCT,M,M,M,11000.00,M,M,M,M,M,M,M,M,M,M,22.75,KTMT 211515Z AUTO 13004KT 10SM SCT110 M02/M02 A2982 RMK AO2 T10221025,M
LSV,2024-01-21 15:21,-115.0343,36.2362,570.00,50.00,46.40,87.37,30.00,5.00,0.00,29.83,1009.70,10.00,M,FEW,M,M,M,5000.00,M,M,M,M,M,M,M,M,M,M,50.00,KLSV 211521Z AUTO 03005KT 10SM FEW050 10/08 A2983 RMK AO2 RAE21 SLP097 $,M
ELY,2024-01-21 15:27,-114.8453,39.2950,1909.00,33.00,31.00,92.25,280.00,3.00,0.01,29.84,M,4.00,M,BKN,BKN,OVC,M,1200.00,2100.00,3500.00,M,UP BR,M,M,M,M,M,M,29.83,KELY 211527Z AUTO 28003KT 4SM UP BR BKN012 BKN021 OVC035 01/M01 A2984 RMK AO2 UPB1454 P0001 T00061006,M
TPH,2024-01-21 15:30,-117.0904,38.0505,1654.00,37.00,36.00,96.13,110.00,4.00,0.00,29.84,M,10.00,M,SCT,OVC,M,M,500.00,1300.00,M,M,M,M,M,M,M,M,M,33.26,KTPH 211530Z AUTO 11004KT 10SM SCT005 OVC013 03/02 A2984 RMK AO2 T00280022,M
05U,2024-01-21 15:30,-116.0051,39.6042,1811.23,32.00,30.20,92.97,0.00,0.00,0.00,29.84,M,10.00,M,M,M,M,M,M,M,M,M,M,M,M,M,M,M,M,32.00,K05U 211530Z AUTO 00000KT 10SM M00/M01 A2984 RMK A01,M
BVU,2024-01-21 15:35,-114.8611,35.9475,671.00,48.20,46.40,93.45,320.00,3.00,0.00,29.87,M,8.00,M,FEW,SCT,OVC,M,3100.00,4300.00,5500.00,M,-RA,M,M,M,M,M,M,47.21,KBVU 211535Z AUTO 32003KT 8SM -RA FEW031 SCT043 OVC055 09/08 A2987 RMK AO2,M
CXP,2024-01-21 15:35,-119.7326,39.1923,1431.00,37.40,30.20,74.98,240.00,3.00,0.00,29.79,M,10.00,M,FEW,OVC,M,M,7500.00,9000.00,M,M,M,M,M,M,M,M,M,34.86,KCXP 211535Z AUTO 24003KT 10SM FEW075 OVC090 03/M01 A2979 RMK AO2,M
RTS,2024-01-21 15:35,-119.8764,39.6682,1539.00,39.20,30.20,69.88,50.00,5.00,0.00,29.78,M,10.00,M,SCT,BKN,OVC,M,4500.00,6000.00,8500.00,M,M,M,M,M,M,M,M,34.95,KRTS 211535Z AUTO 05005KT 10SM SCT045 BKN060 OVC085 04/M01 A2978 RMK AO2,M
MEV,2024-01-21 15:35,-119.7500,38.9963,1441.42,28.40,26.60,92.86,0.00,0.00,0.00,29.78,M,10.00,M,SCT,M,M,M,9000.00,M,M,M,M,M,M,M,M,M,M,28.40,KMEV 211535Z AUTO 00000KT 10SM SCT090 M02/M03 A2978 RMK AO2,M
BAM,2024-01-21 15:35,-116.8743,40.5990,1382.36,33.80,32.00,93.03,170.00,4.00,0.00,29.79,M,10.00,M,OVC,M,M,M,7500.00,M,M,M,M,M,M,M,M,M,M,29.52,KBAM 211535Z AUTO 17004KT 10SM OVC075 01/00 A2979 RMK AO1,M
HTH,2024-01-21 15:35,-118.6315,38.5448,1282.89,39.20,26.60,60.29,140.00,4.00,0.00,29.79,M,10.00,M,CLR,M,M,M,M,M,M,M,M,M,M,M,M,M,M,35.83,KHTH 211535Z AUTO 14004KT 10SM CLR 04/M03 A2979 RMK A01,M
10U,2024-01-21 15:35,-116.1876,41.9532,1637.00,33.80,32.00,93.03,M,3.00,0.00,29.78,M,10.00,M,SCT,SCT,M,M,4300.00,6000.00,M,M,M,M,M,M,M,M,M,30.75,K10U 211535Z AUTO VRB03KT 10SM SCT043 SCT060 01/M00 A2978 RMK AO2,M
TMT,2024-01-21 15:35,-117.1971,39.4643,1749.34,27.00,26.40,97.55,0.00,0.00,0.00,29.82,M,10.00,M,CLR,M,M,M,M,M,M,M,M,M,M,M,M,M,M,27.00,KTMT 211535Z AUTO 00000KT 10SM CLR M03/M03 A2982 RMK AO2 T10271031,M
10U,2024-01-21 15:50,-116.1876,41.9532,1637.00,33.80,32.00,93.03,180.00,4.00,0.00,29.78,M,10.00,M,FEW,M,M,M,4300.00,M,M,M,M,M,M,M,M,M,M,29.52,K10U 211550Z AUTO 18004KT 10SM FEW043 01/00 A2978 RMK AO2,M
LSV,2024-01-21 15:52,-115.0343,36.2362,570.00,50.00,48.20,93.50,50.00,4.00,0.00,29.84,1010.10,10.00,M,CLR,M,M,M,M,M,M,M,-RA,M,M,M,M,M,M,50.00,KLSV 211552Z AUTO 05004KT 10SM -RA CLR 10/09 A2984 RMK AO2 RAE21RAB52 SLP101 $,M
P68,2024-01-21 15:53,-116.0056,39.6014,1993.00,33.00,31.00,92.25,180.00,3.00,0.00,29.82,1008.80,M,M,M,M,M,M,M,M,M,M,M,M,M,M,M,M,M,29.83,KP68 211553Z AUTO 18003KT 01/M01 A2982 RMK AO1 SLP088 T00061006,M
DRA,2024-01-21 15:53,-116.0278,36.6206,1009.00,45.00,42.00,89.15,260.00,4.00,0.03,29.85,1009.10,10.00,M,OVC,M,M,M,3400.00,M,M,M,M,M,M,M,M,M,M,42.60,KDRA 211553Z AUTO 26004KT 10SM OVC034 07/06 A2985 RMK AO2 RAE27 SLP091 P0003 T00720056 $,M
ELY,2024-01-21 15:53,-114.8453,39.2950,1909.00,33.00,32.00,96.06,0.00,0.00,0.01,29.85,1009.50,6.00,M,SCT,BKN,OVC,M,1100.00,3500.00,4300.00,M,-RA BR,M,M,M,M,M,M,33.00,KELY 211553Z AUTO 00000KT 6SM -RA BR SCT011 BKN035 OVC043 01/00 A2985 RMK AO2 UPB1454E29B46E49RAB49SNB29E46 SLP095 P0001 T00060000,M
VGT,2024-01-21 15:53,-115.1933,36.2111,667.00,49.00,47.00,92.77,0.00,0.00,0.01,29.86,1012.70,10.00,M,BKN,OVC,M,M,5500.00,7500.00,M,M,-RA,M,M,M,M,M,M,49.00,KVGT 211553Z 00000KT 10SM -RA BKN055 OVC075 09/08 A2986 RMK AO2 SLP127 P0001 T00940083,M
LOL,2024-01-21 15:53,-118.5701,40.0684,1192.43,35.00,30.00,81.78,0.00,0.00,0.00,29.78,1009.10,10.00,M,OVC,M,M,M,7000.00,M,M,M,M,M,M,M,M,M,M,35.00,KLOL 211553Z AUTO 00000KT 10SM OVC070 02/M01 A2978 RMK AO2 SLP091 T00171011,M
BVU,2024-01-21 15:55,-114.8611,35.9475,671.00,48.20,46.40,93.45,330.00,4.00,0.00,29.87,M,9.00,M,FEW,FEW,OVC,M,3100.00,4000.00,5000.00,M,M,M,M,M,M,M,M,46.34,KBVU 211555Z AUTO 33004KT 9SM FEW031 FEW040 OVC050 09/08 A2987 RMK AO2,M
CXP,2024-01-21 15:55,-119.7326,39.1923,1431.00,39.20,30.20,69.88,0.00,0.00,0.00,29.80,M,10.00,M,OVC,M,M,M,8000.00,M,M,M,M,M,M,M,M,M,M,39.20,KCXP 211555Z AUTO 00000KT 10SM OVC080 04/M01 A2980 RMK AO2,M
RNO,2024-01-21 15:55,-119.7711,39.4839,1341.00,38.00,33.00,82.00,0.00,0.00,0.00,29.77,1007.20,10.00,M,FEW,BKN,BKN,BKN,5000.00,9000.00,15000.00,21000.00,M,M,M,M,M,M,M,38.00,KRNO 211555Z 00000KT 10SM FEW050 BKN090 BKN150 BKN210 03/01 A2977 RMK AO2 SLP072 ACSL DSNT ALQDS CLDS TPG MTNS DSNT S THRU W T00330006,M
RTS,2024-01-21 15:55,-119.8764,39.6682,1539.00,39.20,30.20,69.88,20.00,3.00,0.00,29.78,M,10.00,M,FEW,BKN,OVC,M,4600.00,6000.00,7500.00,M,M,M,M,M,M,M,M,36.92,KRTS 211555Z AUTO 02003KT 10SM FEW046 BKN060 OVC075 04/M01 A2978 RMK AO2,M
05U,2024-01-21 15:55,-116.0051,39.6042,1811.23,32.00,32.00,100.00,0.00,0.00,0.00,29.85,M,10.00,M,M,M,M,M,M,M,M,M,M,M,M,M,M,M,M,32.00,K05U 211555Z AUTO 00000KT 10SM 00/M00 A2985 RMK A01,M
MEV,2024-01-21 15:55,-119.7500,38.9963,1441.42,32.00,28.40,86.39,0.00,0.00,0.00,29.79,M,10.00,M,BKN,M,M,M,8000.00,M,M,M,M,M,M,M,M,M,M,32.00,KMEV 211555Z AUTO 00000KT 10SM BKN080 M00/M02 A2979 RMK AO2,M
BAM,2024-01-21 15:55,-116.8743,40.5990,1382.36,35.60,33.80,93.08,0.00,0.00,0.00,29.80,M,10.00,M,OVC,M,M,M,7500.00,M,M,M,M,M,M,M,M,M,M,35.60,KBAM 211555Z AUTO 00000KT 10SM OVC075 02/01 A2980 RMK AO1,M
HTH,2024-01-21 15:55,-118.6315,38.5448,1282.89,37.40,26.60,64.70,190.00,6.00,0.00,29.80,M,10.00,M,CLR,M,M,M,M,M,M,M,M,M,M,M,M,M,M,32.03,KHTH 211555Z AUTO 19006KT 10SM CLR 03/M03 A2980 RMK A01,M
TMT,2024-01-21 15:55,-117.1971,39.4643,1749.34,27.00,25.70,94.76,0.00,0.00,0.00,29.83,M,10.00,M,CLR,M,M,M,M,M,M,M,M,M,M,M,M,M,M,27.00,KTMT 211555Z AUTO 00000KT 10SM CLR M03/M03 A2983 RMK AO2 T10281035,M
LSV,2024-01-21 15:55,-115.0343,36.2362,570.00,51.00,47.00,86.12,70.00,5.00,0.02,29.84,1010.10,10.00,M,CLR,M,M,M,M,M,M,M,-RA,M,M,M,M,M,M,51.00,KLSV 211555Z AUTO 07005KT 10SM -RA CLR 11/08 A2984 RMK AO2 RAE21RAB52 SLP101 P0002 T01050084 $,M
INS,2024-01-21 15:55,-115.6733,36.5872,955.00,45.00,41.70,88.13,0.00,0.00,T,29.86,1009.70,10.00,M,OVC,M,M,M,2500.00,M,M,M,-RA,M,M,M,M,M,M,45.00,KINS 211555Z AUTO 00000KT 10SM -RA OVC025 07/05 A2986 RMK AO2 SLP097 P0000 T00730054,M
EKO,2024-01-21 15:56,-115.7860,40.8242,1367.00,35.00,33.00,92.32,90.00,3.00,0.00,29.81,1009.50,10.00,M,FEW,BKN,OVC,M,1600.00,3900.00,5500.00,M,M,M,M,M,M,M,M,32.12,KEKO 211556Z AUTO 09003KT 10SM FEW016 BKN039 OVC055 02/01 A2981 RMK AO2 SLP095 T00170006,M
NFL,2024-01-21 15:56,-118.7010,39.4166,1199.00,37.00,33.00,85.29,180.00,6.00,0.00,29.78,1006.30,10.00,M,SCT,BKN,M,M,8000.00,20000.00,M,M,M,M,M,M,M,M,M,31.55,KNFL 211556Z 18006KT 10SM SCT080 BKN200 03/01 A2978 RMK AO2 SLP063 T00280006,M
HND,2024-01-21 15:56,-115.1344,35.9729,742.79,48.00,45.00,89.29,170.00,7.00,0.05,29.88,1013.50,10.00,M,OVC,M,M,M,5000.00,M,M,M,-RA,M,M,M,M,M,M,44.28,KHND 211556Z 17007KT 10SM -RA OVC050 09/07 A2988 RMK AO2 SLP135 P0005 T00890072,M
TPH,2024-01-21 15:56,-117.0904,38.0505,1654.00,37.00,36.00,96.13,120.00,6.00,0.00,29.85,1010.00,10.00,M,OVC,M,M,M,1200.00,M,M,M,M,M,M,M,M,M,M,31.55,KTPH 211556Z AUTO 12006KT 10SM OVC012 03/02 A2985 RMK AO2 SLP100 T00280022,M
LAS,2024-01-21 15:56,-115.1634,36.0719,663.00,50.00,46.00,86.06,180.00,6.00,0.02,29.86,1010.60,10.00,M,BKN,OVC,M,M,5500.00,7000.00,M,M,-RA,M,M,M,M,M,M,50.00,KLAS 211556Z 18006KT 10SM -RA BKN055 OVC070 10/08 A2986 RMK AO2 SLP106 P0002 T01000078,M
WMC,2024-01-21 15:56,-117.8072,40.9019,1315.00,38.00,33.00,82.00,120.00,4.00,0.00,29.77,1007.90,10.00,M,OVC,M,M,M,5500.00,M,M,M,M,M,M,M,M,M,M,34.43,KWMC 211556Z AUTO 12004KT 10SM OVC055 03/01 A2977 RMK AO2 SLP079 T00330006,M
LSV,2024-01-21 15:58,-115.0343,36.2362,570.00,51.80,46.40,81.74,60.00,4.00,0.00,29.84,1010.10,10.00,M,CLR,M,M,M,M,M,M,M,M,M,M,M,M,M,M,51.80,KLSV 211558Z AUTO 06004KT 10SM CLR 11/08 A2984 RMK AO2 RAE58 SLP101 $,M
CXP,2024-01-21 16:10,-119.7326,39.1923,1431.00,39.20,30.20,69.88,0.00,0.00,0.00,29.81,M,10.00,M,OVC,M,M,M,8500.00,M,M,M,M,M,M,M,M,M,M,39.20,KCXP 211610Z AUTO 00000KT 10SM OVC085 04/M01 A2981 RMK AO2,M
05U,2024-01-21 16:10,-116.0051,39.6042,1811.23,33.80,32.00,93.03,0.00,0.00,0.00,29.85,M,10.00,M,M,M,M,M,M,M,M,M,M,M,M,M,M,M,M,33.80,K05U 211610Z AUTO 00000KT 10SM 01/M00 A2985 RMK A01,M
10U,2024-01-21 16:10,-116.1876,41.9532,1637.00,33.80,32.00,93.03,220.00,3.00,0.00,29.79,M,10.00,M,BKN,M,M,M,4500.00,M,M,M,M,M,M,M,M,M,M,30.75,K10U 211610Z AUTO 22003KT 10SM BKN045 01/00 A2979 RMK AO2,M
BVU,2024-01-21 16:15,-114.8611,35.9475,671.00,48.20,46.40,93.45,340.00,3.00,0.00,29.88,M,8.00,M,BKN,OVC,M,M,3800.00,5000.00,M,M,M,M,M,M,M,M,M,47.21,KBVU 211615Z AUTO 34003KT 8SM BKN038 OVC050 09/08 A2988 RMK AO2,M
RTS,2024-01-21 16:15,-119.8764,39.6682,1539.00,41.00,32.00,70.08,60.00,7.00,0.00,29.79,M,10.00,M,BKN,OVC,M,M,6000.00,7500.00,M,M,M,M,M,M,M,M,M,35.75,KRTS 211615Z AUTO 06007KT 10SM BKN060 OVC075 05/M00 A2979 RMK AO2,M
MEV,2024-01-21 16:15,-119.7500,38.9963,1441.42,35.60,30.20,80.51,330.00,4.00,0.00,29.80,M,10.00,M,OVC,M,M,M,8000.00,M,M,M,M,M,M,M,M,M,M,31.62,KMEV 211615Z AUTO 33004KT 10SM OVC080 02/M01 A2980 RMK AO2,M
BAM,2024-01-21 16:15,-116.8743,40.5990,1382.36,35.60,33.80,93.08,0.00,0.00,0.00,29.80,M,10.00,M,OVC,M,M,M,7500.00,M,M,M,M,M,M,M,M,M,M,35.60,KBAM 211615Z AUTO 00000KT 10SM OVC075 02/01 A2980 RMK AO1,M
HTH,2024-01-21 16:15,-118.6315,38.5448,1282.89,39.20,28.40,64.93,140.00,5.00,0.00,29.81,M,10.00,M,CLR,M,M,M,M,M,M,M,M,M,M,M,M,M,M,34.95,KHTH 211615Z AUTO 14005KT 10SM CLR 04/M02 A2981 RMK A01,M
TMT,2024-01-21 16:15,-117.1971,39.4643,1749.34,28.00,26.80,95.18,0.00,0.00,0.00,29.83,M,10.00,M,CLR,M,M,M,M,M,M,M,M,M,M,M,M,M,M,28.00,KTMT 211615Z AUTO 00000KT 10SM CLR M02/M03 A2983 RMK AO2 T10231029,M
ELY,2024-01-21 16:24,-114.8453,39.2950,1909.00,33.00,32.00,96.06,0.00,0.00,T,29.85,M,6.00,M,BKN,OVC,M,M,800.00,3400.00,M,M,BR,M,M,M,M,M,M,33.00,KELY 211624Z AUTO 00000KT 6SM BR BKN008 OVC034 01/00 A2985 RMK AO2 RAE03 CIG 007V010 P0000 T00060000,M
LSV,2024-01-21 16:27,-115.0343,36.2362,570.00,51.80,46.40,81.74,0.00,0.00,0.00,29.86,1010.70,10.00,M,FEW,M,M,M,3700.00,M,M,M,-RA,M,M,M,M,M,M,51.80,KLSV 211627Z AUTO 00000KT 10SM -RA FEW037 11/08 A2986 RMK AO2 RAE1558RAB27 SLP107 $,M
BVU,2024-01-21 16:35,-114.8611,35.9475,671.00,50.00,48.20,93.50,330.00,3.00,0.00,29.88,M,7.00,M,SCT,BKN,M,M,3800.00,5000.00,M,M,-RA,M,M,M,M,M,M,50.00,KBVU 211635Z AUTO 33003KT 7SM -RA SCT038 BKN050 10/09 A2988 RMK AO2,M
CXP,2024-01-21 16:35,-119.7326,39.1923,1431.00,42.80,30.20,60.79,70.00,3.00,0.00,29.81,M,10.00,M,BKN,M,M,M,8000.00,M,M,M,M,M,M,M,M,M,M,41.03,KCXP 211635Z AUTO 07003KT 10SM BKN080 06/M01 A2981 RMK AO2,M
RTS,2024-01-21 16:35,-119.8764,39.6682,1539.00,41.00,30.20,65.16,60.00,7.00,0.00,29.80,M,10.00,M,BKN,OVC,M,M,6000.00,8000.00,M,M,M,M,M,M,M,M,M,35.75,KRTS 211635Z AUTO 06007KT 10SM BKN060 OVC080 05/M01 A2980 RMK AO2,M
05U,2024-01-21 16:35,-116.0051,39.6042,1811.23,35.60,33.80,93.08,0.00,0.00,0.00,29.86,M,10.00,M,M,M,M,M,M,M,M,M,M,M,M,M,M,M,M,35.60,K05U 211635Z AUTO 00000KT 10SM 02/01 A2986 RMK A01,M
MEV,2024-01-21 16:35,-119.7500,38.9963,1441.42,35.60,30.20,80.51,0.00,0.00,0.00,29.80,M,10.00,M,BKN,M,M,M,8000.00,M,M,M,M,M,M,M,M,M,M,35.60,KMEV 211635Z AUTO 00000KT 10SM BKN080 02/M01 A2980 RMK AO2,M
BAM,2024-01-21 16:35,-116.8743,40.5990,1382.36,35.60,33.80,93.08,0.00,0.00,0.00,29.81,M,10.00,M,OVC,M,M,M,7500.00,M,M,M,M,M,M,M,M,M,M,35.60,KBAM 211635Z AUTO 00000KT 10SM OVC075 02/01 A2981 RMK AO1,M
HTH,2024-01-21 16:35,-118.6315,38.5448,1282.89,44.60,30.20,56.74,150.00,5.00,0.00,29.82,M,10.00,M,CLR,M,M,M,M,M,M,M,M,M,M,M,M,M,M,41.36,KHTH 211635Z AUTO 15005KT 10SM CLR 07/M01 A2982 RMK A01,M
10U,2024-01-21 16:35,-116.1876,41.9532,1637.00,35.60,33.80,93.08,190.00,4.00,0.00,29.79,M,10.00,M,FEW,OVC,M,M,3300.00,4400.00,M,M,M,M,M,M,M,M,M,31.62,K10U 211635Z AUTO 19004KT 10SM FEW033 OVC044 02/01 A2979 RMK AO2,M
TMT,2024-01-21 16:35,-117.1971,39.4643,1749.34,28.40,27.50,96.37,0.00,0.00,0.00,29.84,M,10.00,M,CLR,M,M,M,M,M,M,M,M,M,M,M,M,M,M,28.40,KTMT 211635Z AUTO 00000KT 10SM CLR M02/M02 A2984 RMK AO2 T10201025,M
LSV,2024-01-21 16:37,-115.0343,36.2362,570.00,51.80,46.40,81.74,0.00,0.00,0.00,29.86,1010.70,10.00,M,CLR,M,M,M,M,M,M,M,M,M,M,M,M,M,M,51.80,KLSV 211637Z AUTO 00000KT 10SM CLR 11/08 A2986 RMK AO2 RAE1558RAB27E37 SLP107 $,M
P68,2024-01-21 16:53,-116.0056,39.6014,1993.00,36.00,33.00,88.73,240.00,3.00,0.00,29.84,1008.70,M,M,M,M,M,M,M,M,M,M,M,M,M,M,M,M,M,33.26,KP68 211653Z AUTO 24003KT 02/01 A2984 RMK AO1 SLP087 T00220006,M
DRA,2024-01-21 16:53,-116.0278,36.6206,1009.00,45.00,43.00,92.65,0.00,0.00,0.02,29.87,1009.90,10.00,M,FEW,BKN,OVC,M,2900.00,3800.00,5000.00,M,-RA,M,M,M,M,M,M,45.00,KDRA 211653Z AUTO 00000KT 10SM -RA FEW029 BKN038 OVC050 07/06 A2987 RMK AO2 RAB1559 SLP099 P0002 T00720061 $,M
ELY,2024-01-21 16:53,-114.8453,39.2950,1909.00,34.00,33.00,96.08,170.00,4.00,T,29.85,1009.70,10.00,M,OVC,M,M,M,800.00,M,M,M,M,M,M,M,M,M,M,29.76,KELY 211653Z AUTO 17004KT 10SM OVC008 01/01 A2985 RMK AO2 RAE03 SLP097 P0000 T00110006,M
VGT,2024-01-21 16:53,-115.1933,36.2111,667.00,50.00,47.00,89.37,70.00,4.00,0.01,29.88,1013.40,9.00,M,OVC,M,M,M,6000.00,M,M,M,-RA,M,M,M,M,M,M,50.00,KVGT 211653Z 07004KT 9SM -RA OVC060 10/08 A2988 RMK AO2 SLP134 P0001 T01000083,M
LOL,2024-01-21 16:53,-118.5701,40.0684,1192.43,43.00,34.00,70.30,0.00,0.00,0.00,29.79,1008.90,10.00,M,FEW,BKN,M,M,8000.00,10000.00,M,M,M,M,M,M,M,M,M,43.00,KLOL 211653Z AUTO 00000KT 10SM FEW080 BKN100 06/01 A2979 RMK AO2 SLP089 T00610011,M
LSV,2024-01-21 16:54,-115.0343,36.2362,570.00,51.80,46.40,81.74,0.00,0.00,0.00,29.87,1011.10,9.00,M,CLR,M,M,M,M,M,M,M,-RA,M,M,M,M,M,M,51.80,KLSV 211654Z AUTO 00000KT 9SM -RA CLR 11/08 A2987 RMK AO2 RAE1558RAB27E37RAB54 SLP111 $,M
BVU,2024-01-21 16:55,-114.8611,35.9475,671.00,50.00,46.40,87.37,0.00,0.00,0.00,29.89,M,8.00,M,FEW,BKN,M,M,3800.00,4900.00,M,M,-RA,M,M,M,M,M,M,50.00,KBVU 211655Z AUTO 00000KT 8SM -RA FEW038 BKN049 10/08 A2989 RMK AO2,M
CXP,2024-01-21 16:55,-119.7326,39.1923,1431.00,42.80,30.20,60.79,0.00,0.00,0.00,29.82,M,10.00,M,SCT,M,M,M,8000.00,M,M,M,M,M,M,M,M,M,M,42.80,KCXP 211655Z AUTO 00000KT 10SM SCT080 06/M01 A2982 RMK AO2,M
INS,2024-01-21 16:55,-115.6733,36.5872,955.00,45.50,43.00,90.90,0.00,0.00,T,29.88,1010.30,10.00,M,OVC,M,M,M,2200.00,M,M,M,-RA,M,M,M,M,M,M,45.50,KINS 211655Z AUTO 00000KT 10SM -RA OVC022 08/06 A2988 RMK AO2 RAE03DZB03E04RAB04 SLP103 P0000 T00750061,M
RNO,2024-01-21 16:55,-119.7711,39.4839,1341.00,43.00,33.00,67.54,20.00,3.00,0.00,29.80,1007.90,10.00,M,FEW,BKN,BKN,BKN,5000.00,8500.00,15000.00,21000.00,M,M,M,M,M,M,M,41.26,KRNO 211655Z 02003KT 10SM FEW050 BKN085 BKN150 BKN210 06/01 A2980 RMK AO2 SLP079 ACSL DSNT ALQDS CLDS TPG MTNS DSNT S THRU SW AND W T00610006,M
RTS,2024-01-21 16:55,-119.8764,39.6682,1539.00,42.80,30.20,60.79,70.00,6.00,0.00,29.81,M,10.00,11.00,OVC,M,M,M,5500.00,M,M,M,M,M,M,M,M,M,M,38.54,KRTS 211655Z AUTO 07006G11KT 10SM OVC055 06/M01 A2981 RMK AO2,M
05U,2024-01-21 16:55,-116.0051,39.6042,1811.23,37.40,33.80,86.69,0.00,0.00,0.00,29.86,M,10.00,M,M,M,M,M,M,M,M,M,M,M,M,M,M,M,M,37.40,K05U 211655Z AUTO 00000KT 10SM 03/01 A2986 RMK A01,M
MEV,2024-01-21 16:55,-119.7500,38.9963,1441.42,35.60,30.20,80.51,0.00,0.00,0.00,29.81,M,10.00,M,SCT,M,M,M,8000.00,M,M,M,M,M,M,M,M,M,M,35.60,KMEV 211655Z AUTO 00000KT 10SM SCT080 02/M01 A2981 RMK AO2,M
BAM,2024-01-21 16:55,-116.8743,40.5990,1382.36,37.40,33.80,86.69,0.00,0.00,0.00,29.81,M,10.00,M,OVC,M,M,M,7500.00,M,M,M,M,M,M,M,M,M,M,37.40,KBAM 211655Z AUTO 00000KT 10SM OVC075 03/01 A2981 RMK AO1,M
HTH,2024-01-21 16:55,-118.6315,38.5448,1282.89,46.40,33.80,61.28,140.00,5.00,0.00,29.82,M,10.00,M,CLR,M,M,M,M,M,M,M,M,M,M,M,M,M,M,43.50,KHTH 211655Z AUTO 14005KT 10SM CLR 08/01 A2982 RMK A01,M
10U,2024-01-21 16:55,-116.1876,41.9532,1637.00,35.60,32.00,86.59,190.00,5.00,0.00,29.80,M,10.00,M,SCT,BKN,M,M,3300.00,4500.00,M,M,M,M,M,M,M,M,M,30.67,K10U 211655Z AUTO 19005KT 10SM SCT033 BKN045 02/00 A2980 RMK AO2,M
LSV,2024-01-21 16:55,-115.0343,36.2362,570.00,52.00,46.20,80.52,0.00,0.00,0.02,29.87,1011.10,9.00,M,CLR,M,M,M,M,M,M,M,-RA,M,M,M,M,M,M,52.00,KLSV 211655Z AUTO 00000KT 9SM -RA CLR 11/08 A2987 RMK AO2 RAE1558RAB27E37RAB54 SLP111 P0002 T01120079 $,M
TMT,2024-01-21 16:55,-117.1971,39.4643,1749.34,30.20,29.00,95.23,0.00,0.00,0.00,29.85,M,10.00,M,CLR,M,M,M,M,M,M,M,M,M,M,M,M,M,M,30.20,KTMT 211655Z AUTO 00000KT 10SM CLR M01/M02 A2985 RMK AO2 T10101016,M
EKO,2024-01-21 16:56,-115.7860,40.8242,1367.00,37.00,34.00,88.78,0.00,0.00,0.00,29.82,1009.80,10.00,M,FEW,OVC,M,M,4900.00,6500.00,M,M,M,M,M,M,M,M,M,37.00,KEKO 211656Z AUTO 00000KT 10SM FEW049 OVC065 03/01 A2982 RMK AO2 SLP098 T00280011,M
NFL,2024-01-21 16:56,-118.7010,39.4166,1199.00,45.00,37.00,73.37,0.00,0.00,0.00,29.80,1006.80,10.00,M,SCT,BKN,M,M,8000.00,20000.00,M,M,M,M,M,M,M,M,M,45.00,KNFL 211656Z 00000KT 10SM SCT080 BKN200 07/03 A2980 RMK AO2 SLP068 T00720028,M
HND,2024-01-21 16:56,-115.1344,35.9729,742.79,50.00,46.00,86.06,170.00,5.00,0.03,29.90,1014.00,10.00,M,OVC,M,M,M,6000.00,M,M,M,-RA,M,M,M,M,M,M,50.00,KHND 211656Z 17005KT 10SM -RA OVC060 10/08 A2990 RMK AO2 SLP140 P0003 T01000078,M
TPH,2024-01-21 16:56,-117.0904,38.0505,1654.00,38.00,36.00,92.42,130.00,6.00,0.00,29.87,1010.70,10.00,M,OVC,M,M,M,1000.00,M,M,M,M,M,M,M,M,M,M,32.76,KTPH 211656Z AUTO 13006KT 10SM OVC010 03/02 A2987 RMK AO2 CIG 006V012 SLP107 T00330022,M
LAS,2024-01-21 16:56,-115.1634,36.0719,663.00,50.00,47.00,89.37,170.00,4.00,0.03,29.88,1011.40,10.00,M,OVC,M,M,M,5000.00,M,M,M,-RA,M,M,M,M,M,M,50.00,KLAS 211656Z 17004KT 10SM -RA OVC050 10/08 A2988 RMK AO2 SLP114 P0003 T01000083,M
WMC,2024-01-21 16:56,-117.8072,40.9019,1315.00,44.00,35.00,70.42,190.00,7.00,0.00,29.78,1007.50,10.00,M,OVC,M,M,M,6000.00,M,M,M,M,M,M,M,M,M,M,39.41,KWMC 211656Z AUTO 19007KT 10SM OVC060 07/02 A2978 RMK AO2 SLP075 T00670017,M
LSV,2024-01-21 17:00,-115.0343,36.2362,570.00,51.80,46.40,81.74,0.00,0.00,0.00,29.87,1011.10,10.00,M,CLR,M,M,M,M,M,M,M,M,M,M,M,M,M,M,51.80,KLSV 211700Z AUTO 00000KT 10SM CLR 11/08 A2987 RMK AO2 RAE00 SLP111 $,M
10U,2024-01-21 17:10,-116.1876,41.9532,1637.00,37.40,33.80,86.69,210.00,3.00,0.00,29.80,M,10.00,M,FEW,FEW,M,M,3300.00,4300.00,M,M,M,M,M,M,M,M,M,34.86,K10U 211710Z AUTO 21003KT 10SM FEW033 FEW043 03/01 A2980 RMK AO2,M
BVU,2024-01-21 17:15,-114.8611,35.9475,671.00,50.00,46.40,87.37,0.00,0.00,0.00,29.90,M,10.00,M,FEW,SCT,SCT,M,4900.00,6500.00,8000.00,M,M,M,M,M,M,M,M,50.00,KBVU 211715Z AUTO 00000KT 10SM FEW049 SCT065 SCT080 10/08 A2990 RMK AO2,M
CXP,2024-01-21 17:15,-119.7326,39.1923,1431.00,44.60,30.20,56.74,M,3.00,0.00,29.83,M,10.00,M,CLR,M,M,M,M,M,M,M,M,M,M,M,M,M,M,43.09,KCXP 211715Z AUTO VRB03KT 10SM CLR 07/M01 A2983 RMK AO2,M
RTS,2024-01-21 17:15,-119.8764,39.6682,1539.00,42.80,32.00,65.38,80.00,7.00,0.00,29.82,M,10.00,M,OVC,M,M,M,5500.00,M,M,M,M,M,M,M,M,M,M,37.94,KRTS 211715Z AUTO 08007KT 10SM OVC055 06/M00 A2982 RMK AO2,M
TPH,2024-01-21 17:15,-117.0904,38.0505,1654.00,38.00,36.00,92.42,120.00,6.00,0.00,29.87,M,10.00,M,BKN,OVC,M,M,800.00,1900.00,M,M,M,M,M,M,M,M,M,32.76,KTPH 211715Z AUTO 12006KT 10SM BKN008 OVC019 03/02 A2987 RMK AO2 T00330022,M
05U,2024-01-21 17:15,-116.0051,39.6042,1811.23,37.40,33.80,86.69,0.00,0.00,0.00,29.87,M,10.00,M,M,M,M,M,M,M,M,M,M,M,M,M,M,M,M,37.40,K05U 211715Z AUTO 00000KT 10SM 03/01 A2987 RMK A01,M
MEV,2024-01-21 17:15,-119.7500,38.9963,1441.42,41.00,32.00,70.08,0.00,0.00,0.00,29.81,M,10.00,M,BKN,M,M,M,8000.00,M,M,M,M,M,M,M,M,M,M,41.00,KMEV 211715Z AUTO 00000KT 10SM BKN080 05/00 A2981 RMK AO2,M
BAM,2024-01-21 17:15,-116.8743,40.5990,1382.36,39.20,35.60,86.79,0.00,0.00,0.00,29.82,M,10.00,M,OVC,M,M,M,7500.00,M,M,M,M,M,M,M,M,M,M,39.20,KBAM 211715Z AUTO 00000KT 10SM OVC075 04/02 A2982 RMK AO1,M
HTH,2024-01-21 17:15,-118.6315,38.5448,1282.89,48.20,33.80,57.26,100.00,9.00,0.00,29.82,M,10.00,M,CLR,M,M,M,M,M,M,M,M,M,M,M,M,M,M,43.66,KHTH 211715Z AUTO 10009KT 10SM CLR 09/01 A2982 RMK A01,M
TMT,2024-01-21 17:15,-117.1971,39.4643,1749.34,32.00,30.20,92.97,0.00,0.00,0.00,29.85,M,10.00,M,CLR,M,M,M,M,M,M,M,M,M,M,M,M,M,M,32.00,KTMT 211715Z AUTO 00000KT 10SM CLR 00/M01 A2985 RMK AO2 T00001010,M
LSV,2024-01-21 17:20,-115.0343,36.2362,570.00,51.80,46.40,81.74,40.00,3.00,0.00,29.87,1011.00,10.00,M,CLR,M,M,M,M,M,M,M,-RA,M,M,M,M,M,M,51.80,KLSV 211720Z AUTO 04003KT 10SM -RA CLR 11/08 A2987 RMK AO2 RAE00RAB20 SLP110 $,M
TPH,2024-01-21 17:24,-117.0904,38.0505,1654.00,39.00,36.00,88.87,110.00,5.00,0.00,29.87,M,10.00,M,FEW,SCT,OVC,M,800.00,1100.00,2100.00,M,M,M,M,M,M,M,M,34.71,KTPH 211724Z AUTO 11005KT 10SM FEW008 SCT011 OVC021 04/02 A2987 RMK AO2 T00390022,M
LSV,2024-01-21 17:26,-115.0343,36.2362,570.00,51.80,48.20,87.47,50.00,4.00,0.00,29.87,1011.10,10.00,M,CLR,M,M,M,M,M,M,M,M,M,M,M,M,M,M,51.80,KLSV 211726Z AUTO 05004KT 10SM CLR 11/09 A2987 RMK AO2 RAE00RAB20E26 SLP111 $,M
VGT,2024-01-21 17:29,-115.1933,36.2111,667.00,51.00,48.00,89.42,70.00,4.00,T,29.89,M,10.00,M,FEW,BKN,OVC,M,700.00,5500.00,7000.00,M,-RA,M,M,M,M,M,M,51.00,KVGT 211729Z 07004KT 10SM -RA FEW007 BKN055 OVC070 11/09 A2989 RMK AO2 P0000 T01060089,M
BVU,2024-01-21 17:35,-114.8611,35.9475,671.00,50.00,46.40,87.37,0.00,0.00,0.00,29.90,M,10.00,M,OVC,M,M,M,6000.00,M,M,M,M,M,M,M,M,M,M,50.00,KBVU 211735Z AUTO 00000KT 10SM OVC060 10/08 A2990 RMK AO2,M
CXP,2024-01-21 17:35,-119.7326,39.1923,1431.00,46.40,30.20,53.00,0.00,0.00,0.00,29.83,M,10.00,M,BKN,M,M,M,8000.00,M,M,M,M,M,M,M,M,M,M,46.40,KCXP 211735Z AUTO 00000KT 10SM BKN080 08/M01 A2983 RMK AO2,M
RTS,2024-01-21 17:35,-119.8764,39.6682,1539.00,42.80,32.00,65.38,M,4.00,0.00,29.82,M,10.00,M,BKN,BKN,OVC,M,5500.00,6500.00,8000.00,M,M,M,M,M,M,M,M,40.03,KRTS 211735Z AUTO VRB04KT 10SM BKN055 BKN065 OVC080 06/M00 A2982 RMK AO2,M
05U,2024-01-21 17:35,-116.0051,39.6042,1811.23,39.20,33.80,80.79,0.00,0.00,0.00,29.87,M,10.00,M,M,M,M,M,M,M,M,M,M,M,M,M,M,M,M,39.20,K05U 211735Z AUTO 00000KT 10SM 04/01 A2987 RMK A01,M
MEV,2024-01-21 17:35,-119.7500,38.9963,1441.42,44.60,32.00,61.03,0.00,0.00,0.00,29.82,M,10.00,M,OVC,M,M,M,8500.00,M,M,M,M,M,M,M,M,M,M,44.60,KMEV 211735Z AUTO 00000KT 10SM OVC085 07/00 A2982 RMK AO2,M
BAM,2024-01-21 17:35,-116.8743,40.5990,1382.36,41.00,35.60,80.93,0.00,0.00,0.00,29.82,M,10.00,M,BKN,M,M,M,7500.00,M,M,M,M,M,M,M,M,M,M,41.00,KBAM 211735Z AUTO 00000KT 10SM BKN075 05/02 A2982 RMK AO1,M
HTH,2024-01-21 17:35,-118.6315,38.5448,1282.89,50.00,30.20,46.31,170.00,6.00,0.00,29.83,M,10.00,M,CLR,M,M,M,M,M,M,M,M,M,M,M,M,M,M,50.00,KHTH 211735Z AUTO 17006KT 10SM CLR 10/M01 A2983 RMK A01,M
10U,2024-01-21 17:35,-116.1876,41.9532,1637.00,39.20,33.80,80.79,210.00,4.00,0.00,29.81,M,10.00,M,BKN,BKN,M,M,4500.00,7000.00,M,M,M,M,M,M,M,M,M,35.83,K10U 211735Z AUTO 21004KT 10SM BKN045 BKN070 04/01 A2981 RMK AO2,M
TMT,2024-01-21 17:35,-117.1971,39.4643,1749.34,34.00,31.30,89.72,0.00,0.00,0.00,29.86,M,10.00,M,CLR,M,M,M,M,M,M,M,M,M,M,M,M,M,M,34.00,KTMT 211735Z AUTO 00000KT 10SM CLR 01/00 A2986 RMK AO2 T00121004,M
INS,2024-01-21 17:40,-115.6733,36.5872,955.00,46.40,42.80,87.19,0.00,0.00,0.00,29.89,1010.70,10.00,M,BKN,OVC,M,M,300.00,1800.00,M,M,-RA,M,M,M,M,M,M,46.40,KINS 211740Z AUTO 00000KT 10SM -RA BKN003 OVC018 08/06 A2989 RMK AO2 BKN V SCT SLP107,M
TPH,2024-01-21 17:48,-117.0904,38.0505,1654.00,39.00,36.00,88.87,130.00,4.00,0.00,29.88,M,10.00,M,BKN,OVC,M,M,800.00,1900.00,M,M,M,M,M,M,M,M,M,35.59,KTPH 211748Z AUTO 13004KT 10SM BKN008 OVC019 04/02 A2988 RMK AO2 CIG 007V013 T00390022,M
HTH,2024-01-21 17:50,-118.6315,38.5448,1282.89,50.00,28.40,43.03,190.00,5.00,0.00,29.84,M,10.00,M,CLR,M,M,M,M,M,M,M,M,M,M,M,M,M,M,50.00,KHTH 211750Z AUTO 19005KT 10SM CLR 10/M02 A2984 RMK A01,M
05U,2024-01-21 17:50,-116.0051,39.6042,1811.23,41.00,32.00,70.08,0.00,0.00,0.00,29.87,M,10.00,M,M,M,M,M,M,M,M,M,M,M,M,M,M,M,M,41.00,K05U 211750Z AUTO 00000KT 10SM 05/00 A2987 RMK A01,M
10U,2024-01-21 17:50,-116.1876,41.9532,1637.00,39.20,33.80,80.79,220.00,5.00,0.00,29.81,M,10.00,M,FEW,BKN,M,M,4500.00,7000.00,M,M,M,M,M,M,M,M,M,34.95,K10U 211750Z AUTO 22005KT 10SM FEW045 BKN070 04/01 A2981 RMK AO2,M
DRA,2024-01-21 17:53,-116.0278,36.6206,1009.00,46.00,44.00,92.68,0.00,0.00,0.02,29.89,1010.60,8.00,M,FEW,OVC,M,M,2400.00,3300.00,M,M,-RA,M,M,M,M,M,M,46.00,KDRA 211753Z AUTO 00000KT 8SM -RA FEW024 OVC033 08/07 A2989 RMK AO2 SLP106 P0002 60012 T00780067 10089 20072 52017 $,M
ELY,2024-01-21 17:53,-114.8453,39.2950,1909.00,36.00,34.00,92.35,0.00,0.00,0.00,29.87,1010.00,10.00,M,BKN,BKN,M,M,900.00,7000.00,M,M,M,M,M,M,M,M,M,36.00,KELY 211753Z AUTO 00000KT 10SM BKN009 BKN070 02/01 A2987 RMK AO2 SLP100 60004 T00220011 10022 20000 51011,M
VGT,2024-01-21 17:53,-115.1933,36.2111,667.00,51.00,48.00,89.42,80.00,5.00,T,29.89,1013.80,10.00,M,FEW,BKN,OVC,M,900.00,5000.00,6500.00,M,M,M,M,M,M,M,M,51.00,KVGT 211753Z 08005KT 10SM FEW009 BKN050 OVC065 11/09 A2989 RMK AO2 RAE41 SLP138 P0000 60006 T01060089 10106 20089 51018,M
LOL,2024-01-21 17:53,-118.5701,40.0684,1192.43,45.00,34.00,65.13,0.00,0.00,0.00,29.81,1009.50,10.00,M,OVC,M,M,M,10000.00,M,M,M,M,M,M,M,M,M,M,45.00,KLOL 211753Z AUTO 00000KT 10SM OVC100 07/01 A2981 RMK AO2 SLP095 T00720011 10072 20017 53017,M
P68,2024-01-21 17:53,-116.0056,39.6014,1993.00,41.00,32.00,70.08,180.00,3.00,0.00,29.84,1008.70,M,M,M,M,M,M,M,M,M,M,M,M,M,M,M,M,M,38.98,KP68 211753Z AUTO 18003KT 05/00 A2984 RMK AO1 SLP087 T00500000 10050 21006 51011,M
BVU,2024-01-21 17:55,-114.8611,35.9475,671.00,51.80,46.40,81.74,0.00,0.00,0.00,29.91,M,10.00,M,SCT,SCT,BKN,M,2200.00,3600.00,6000.00,M,M,M,M,M,M,M,M,51.80,KBVU 211755Z AUTO 00000KT 10SM SCT022 SCT036 BKN060 11/08 A2991 RMK AO2,M
CXP,2024-01-21 17:55,-119.7326,39.1923,1431.00,48.20,30.20,49.53,0.00,0.00,0.00,29.83,M,10.00,M,SCT,BKN,M,M,7500.00,8500.00,M,M,M,M,M,M,M,M,M,48.20,KCXP 211755Z AUTO 00000KT 10SM SCT075 BKN085 09/M01 A2983 RMK AO2,M
INS,2024-01-21 17:55,-115.6733,36.5872,955.00,45.70,43.50,91.96,360.00,4.00,0.03,29.89,1010.50,10.00,M,OVC,M,M,M,300.00,M,M,M,-RA,M,M,M,M,M,M,43.42,KINS 211755Z AUTO 36004KT 10SM -RA OVC003 08/06 A2989 RMK AO2 OVC V BKN SLP105 P0003 60005 T00760064 10077 20061 52017,M
RNO,2024-01-21 17:55,-119.7711,39.4839,1341.00,46.00,33.00,60.25,70.00,3.00,0.00,29.81,1008.00,10.00,M,FEW,BKN,BKN,BKN,5000.00,8500.00,15000.00,21000.00,M,M,M,M,M,M,M,44.69,KRNO 211755Z 07003KT 10SM FEW050 BKN085 BKN150 BKN210 08/01 A2981 RMK AO2 SLP080 VIRGA ACSL DSNT ALQDS MTN TOPS OBSCD DSNT SW 60000 T00780006 10078 20022 51014,M
RTS,2024-01-21 17:55,-119.8764,39.6682,1539.00,44.60,32.00,61.03,110.00,4.00,0.00,29.82,M,10.00,M,FEW,FEW,BKN,M,5500.00,6500.00,8000.00,M,M,M,M,M,M,M,M,42.13,KRTS 211755Z AUTO 11004KT 10SM FEW055 FEW065 BKN080 07/M00 A2982 RMK AO2,M
MEV,2024-01-21 17:55,-119.7500,38.9963,1441.42,46.40,32.00,57.00,M,3.00,0.00,29.82,M,10.00,M,SCT,OVC,M,M,8000.00,9000.00,M,M,M,M,M,M,M,M,M,45.15,KMEV 211755Z AUTO VRB03KT 10SM SCT080 OVC090 08/00 A2982 RMK AO2,M
BAM,2024-01-21 17:55,-116.8743,40.5990,1382.36,44.60,35.60,70.48,20.00,3.00,0.00,29.83,M,10.00,M,BKN,M,M,M,7500.00,M,M,M,M,M,M,M,M,M,M,43.09,KBAM 211755Z AUTO 02003KT 10SM BKN075 07/02 A2983 RMK AO1,M
TMT,2024-01-21 17:55,-117.1971,39.4643,1749.34,37.00,32.00,81.93,0.00,0.00,0.00,29.86,M,10.00,M,CLR,M,M,M,M,M,M,M,M,M,M,M,M,M,M,37.00,KTMT 211755Z AUTO 00000KT 10SM CLR 03/00 A2986 RMK AO2 T00270000 10027 21030,M
LSV,2024-01-21 17:55,-115.0343,36.2362,570.00,53.00,48.00,83.06,50.00,5.00,0.01,29.88,1011.30,10.00,M,CLR,M,M,M,M,M,M,M,M,M,M,M,M,M,M,53.00,KLSV 211755Z AUTO 05005KT 10SM CLR 12/09 A2988 RMK AO2 RAE00RAB20E26 SLP113 P0001 60005 T01170089 10119 20100 52018 $,M
EKO,2024-01-21 17:56,-115.7860,40.8242,1367.00,39.00,35.00,85.42,100.00,4.00,0.00,29.83,1010.30,10.00,M,OVC,M,M,M,6000.00,M,M,M,M,M,M,M,M,M,M,35.59,KEKO 211756Z AUTO 10004KT 10SM OVC060 04/02 A2983 RMK AO2 SLP103 60000 T00390017 10039 20011 51012,M
NFL,2024-01-21 17:56,-118.7010,39.4166,1199.00,49.00,36.00,60.66,170.00,10.00,0.00,29.81,1007.10,10.00,M,FEW,BKN,M,M,8000.00,11000.00,M,M,M,M,M,M,M,M,M,44.29,KNFL 211756Z 17010KT 10SM FEW080 BKN110 09/02 A2981 RMK AO2 SLP071 T00940022 10100 20017 51014,M
HND,2024-01-21 17:56,-115.1344,35.9729,742.79,51.00,46.00,82.93,160.00,6.00,T,29.91,1014.40,10.00,M,SCT,BKN,OVC,M,3800.00,4800.00,6000.00,M,-RA,M,M,M,M,M,M,51.00,KHND 211756Z 16006KT 10SM -RA SCT038 BKN048 OVC060 11/08 A2991 RMK AO2 RAE09B50 SLP144 P0000 60009 T01060078 10106 20089 51015,M
TPH,2024-01-21 17:56,-117.0904,38.0505,1654.00,39.00,36.00,88.87,140.00,3.00,0.00,29.88,1010.90,10.00,M,BKN,OVC,M,M,800.00,1900.00,M,M,M,M,M,M,M,M,M,36.69,KTPH 211756Z AUTO 14003KT 10SM BKN008 OVC019 04/02 A2988 RMK AO2 SLP109 60002 T00390022 10039 20028 52014,M
LAS,2024-01-21 17:56,-115.1634,36.0719,663.00,52.00,47.00,82.99,M,4.00,T,29.89,1011.60,10.00,M,SCT,SCT,OVC,M,4100.00,7500.00,9000.00,M,M,M,M,M,M,M,M,52.00,KLAS 211756Z VRB04KT 10SM SCT041 SCT075 OVC090 11/08 A2989 RMK AO2 RAE31 SLP116 P0000 60007 T01110083 10117 20094 51018,M
WMC,2024-01-21 17:56,-117.8072,40.9019,1315.00,46.00,33.00,60.25,200.00,5.00,0.00,29.80,1008.20,10.00,M,FEW,SCT,M,M,5500.00,9000.00,M,M,M,M,M,M,M,M,M,43.02,KWMC 211756Z AUTO 20005KT 10SM FEW055 SCT090 08/01 A2980 RMK AO2 SLP082 60001 T00780006 10083 20028 52015,M
LSV,2024-01-21 17:56,-115.0343,36.2362,570.00,53.60,48.20,81.87,60.00,5.00,0.00,29.88,1011.30,10.00,M,CLR,M,M,M,M,M,M,M,-RA,M,M,M,M,M,M,53.60,KLSV 211756Z AUTO 06005KT 10SM -RA CLR 12/09 A2988 RMK AO2 RAB56 SLP113 $,M
LSV,2024-01-21 18:00,-115.0343,36.2362,570.00,53.60,48.20,81.87,70.00,5.00,0.00,29.88,1011.30,10.00,M,FEW,M,M,M,4700.00,M,M,M,M,M,M,M,M,M,M,53.60,KLSV 211800Z AUTO 07005KT 10SM FEW047 12/09 A2988 RMK AO2 RAB1756E00 SLP113 $,M
ELY,2024-01-21 18:02,-114.8453,39.2950,1909.00,36.00,34.00,92.35,170.00,4.00,0.00,29.87,M,10.00,M,SCT,BKN,OVC,M,900.00,4400.00,7000.00,M,M,M,M,M,M,M,M,32.09,KELY 211802Z AUTO 17004KT 10SM SCT009 BKN044 OVC070 02/01 A2987 RMK AO2 T00220011,M
VGT,2024-01-21 18:07,-115.1933,36.2111,667.00,51.00,48.00,89.42,80.00,4.00,0.00,29.89,M,10.00,M,BKN,BKN,OVC,M,1100.00,4100.00,6000.00,M,M,M,M,M,M,M,M,51.00,KVGT 211807Z 08004KT 10SM BKN011 BKN041 OVC060 11/09 A2989 RMK AO2 T01060089,M
LSV,2024-01-21 18:12,-115.0343,36.2362,570.00,53.60,48.20,81.87,70.00,7.00,0.00,29.87,1011.00,10.00,M,SCT,M,M,M,4300.00,M,M,M,-RA,M,M,M,M,M,M,53.60,KLSV 211812Z AUTO 07007KT 10SM -RA SCT043 12/09 A2987 RMK AO2 RAB1756E00RAB12 SLP110 $,M
TPH,2024-01-21 18:13,-117.0904,38.0505,1654.00,40.00,36.00,85.48,150.00,4.00,0.00,29.88,M,10.00,M,SCT,OVC,M,M,800.00,1900.00,M,M,M,M,M,M,M,M,M,36.76,KTPH 211813Z AUTO 15004KT 10SM SCT008 OVC019 04/02 A2988 RMK AO2 T00440022,M
BVU,2024-01-21 18:15,-114.8611,35.9475,671.00,51.80,44.60,76.34,0.00,0.00,0.00,29.90,M,10.00,M,FEW,BKN,OVC,M,2200.00,4300.00,7000.00,M,M,M,M,M,M,M,M,51.80,KBVU 211815Z AUTO 00000KT 10SM FEW022 BKN043 OVC070 11/07 A2990 RMK AO2,M
CXP,2024-01-21 18:15,-119.7326,39.1923,1431.00,50.00,30.20,46.31,0.00,0.00,0.00,29.83,M,10.00,M,SCT,SCT,M,M,6500.00,7500.00,M,M,M,M,M,M,M,M,M,50.00,KCXP 211815Z AUTO 00000KT 10SM SCT065 SCT075 10/M01 A2983 RMK AO2,M
RTS,2024-01-21 18:15,-119.8764,39.6682,1539.00,46.40,32.00,57.00,0.00,0.00,0.00,29.81,M,10.00,M,SCT,M,M,M,8000.00,M,M,M,M,M,M,M,M,M,M,46.40,KRTS 211815Z AUTO 00000KT 10SM SCT080 08/M00 A2981 RMK AO2,M
05U,2024-01-21 18:15,-116.0051,39.6042,1811.23,42.80,32.00,65.38,0.00,0.00,0.00,29.87,M,10.00,M,M,M,M,M,M,M,M,M,M,M,M,M,M,M,M,42.80,K05U 211815Z AUTO 00000KT 10SM 06/M00 A2987 RMK A01,M
MEV,2024-01-21 18:15,-119.7500,38.9963,1441.42,48.20,30.20,49.53,0.00,0.00,0.00,29.82,M,10.00,M,BKN,M,M,M,7500.00,M,M,M,M,M,M,M,M,M,M,48.20,KMEV 211815Z AUTO 00000KT 10SM BKN075 09/M01 A2982 RMK AO2,M
BAM,2024-01-21 18:15,-116.8743,40.5990,1382.36,44.60,37.40,75.68,0.00,0.00,0.00,29.83,M,10.00,M,BKN,M,M,M,7500.00,M,M,M,M,M,M,M,M,M,M,44.60,KBAM 211815Z AUTO 00000KT 10SM BKN075 07/03 A2983 RMK AO1,M
HTH,2024-01-21 18:15,-118.6315,38.5448,1282.89,51.80,32.00,46.59,80.00,9.00,0.00,29.84,M,10.00,M,CLR,M,M,M,M,M,M,M,M,M,M,M,M,M,M,51.80,KHTH 211815Z AUTO 08009KT 10SM CLR 11/00 A2984 RMK A01,M
10U,2024-01-21 18:15,-116.1876,41.9532,1637.00,41.00,33.80,75.33,210.00,7.00,0.00,29.81,M,10.00,M,OVC,M,M,M,7000.00,M,M,M,M,M,M,M,M,M,M,35.75,K10U 211815Z AUTO 21007KT 10SM OVC070 05/01 A2981 RMK AO2,M
TMT,2024-01-21 18:15,-117.1971,39.4643,1749.34,39.00,32.00,75.75,200.00,3.00,0.00,29.86,M,10.00,M,CLR,M,M,M,M,M,M,M,M,M,M,M,M,M,M,36.69,KTMT 211815Z AUTO 20003KT 10SM CLR 04/00 A2986 RMK AO2 T00390001,M
VGT,2024-01-21 18:18,-115.1933,36.2111,667.00,52.00,48.00,86.17,80.00,5.00,0.00,29.89,M,10.00,M,FEW,BKN,OVC,M,900.00,1200.00,6000.00,M,M,M,M,M,M,M,M,52.00,KVGT 211818Z 08005KT 10SM FEW009 BKN012 OVC060 11/09 A2989 RMK AO2 T01110089,M
LSV,2024-01-21 18:19,-115.0343,36.2362,570.00,53.60,48.20,81.87,70.00,7.00,0.00,29.87,1011.00,10.00,M,SCT,M,M,M,4300.00,M,M,M,M,M,M,M,M,M,M,53.60,KLSV 211819Z AUTO 07007KT 10SM SCT043 12/09 A2987 RMK AO2 RAB1756E00RAB12E19 SLP110 $,M
LSV,2024-01-21 18:29,-115.0343,36.2362,570.00,53.60,48.20,81.87,60.00,6.00,0.00,29.87,1011.00,10.00,M,BKN,M,M,M,4400.00,M,M,M,M,M,M,M,M,M,M,53.60,KLSV 211829Z AUTO 06006KT 10SM BKN044 12/09 A2987 RMK AO2 RAB1756E00RAB12E19 SLP110 $,M
INS,2024-01-21 18:30,-115.6733,36.5872,955.00,46.40,44.60,93.40,0.00,0.00,0.00,29.89,1010.70,10.00,M,SCT,OVC,M,M,200.00,1000.00,M,M,-RA,M,M,M,M,M,M,46.40,KINS 211830Z AUTO 00000KT 10SM -RA SCT002 OVC010 08/07 A2989 RMK AO2 SLP107,M
DRA,2024-01-21 18:30,-116.0278,36.6206,1009.00,46.00,44.00,92.68,0.00,0.00,0.01,29.89,M,10.00,M,FEW,SCT,OVC,M,800.00,2000.00,3000.00,M,-RA,M,M,M,M,M,M,46.00,KDRA 211830Z AUTO 00000KT 10SM -RA FEW008 SCT020 OVC030 08/07 A2989 RMK AO2 P0001 T00780067 $,M
LSV,2024-01-21 18:30,-115.0343,36.2362,570.00,53.60,48.20,81.87,70.00,7.00,0.00,29.87,1011.00,10.00,M,BKN,M,M,M,4400.00,M,M,M,-RA,M,M,M,M,M,M,53.60,KLSV 211830Z AUTO 07007KT 10SM -RA BKN044 12/09 A2987 RMK AO2 RAB1756E00RAB12E19RAB30 SLP110 $,M
BVU,2024-01-21 18:35,-114.8611,35.9475,671.00,51.80,44.60,76.34,0.00,0.00,0.00,29.89,M,10.00,M,FEW,SCT,SCT,M,4200.00,7000.00,8000.00,M,M,M,M,M,M,M,M,51.80,KBVU 211835Z AUTO 00000KT 10SM FEW042 SCT070 SCT080 11/07 A2989 RMK AO2,M
CXP,2024-01-21 18:35,-119.7326,39.1923,1431.00,50.00,30.20,46.31,0.00,0.00,0.00,29.82,M,10.00,M,FEW,FEW,M,M,6500.00,7500.00,M,M,M,M,M,M,M,M,M,50.00,KCXP 211835Z AUTO 00000KT 10SM FEW065 FEW075 10/M01 A2982 RMK AO2,M
DRA,2024-01-21 18:35,-116.0278,36.6206,1009.00,46.00,44.00,92.68,0.00,0.00,0.02,29.89,M,10.00,M,SCT,OVC,M,M,800.00,2800.00,M,M,-RA,M,M,M,M,M,M,46.00,KDRA 211835Z AUTO 00000KT 10SM -RA SCT008 OVC028 08/07 A2989 RMK AO2 P0002 T00780067 $,M
RTS,2024-01-21 18:35,-119.8764,39.6682,1539.00,46.40,32.00,57.00,220.00,3.00,0.00,29.82,M,10.00,M,FEW,FEW,M,M,6000.00,7000.00,M,M,M,M,M,M,M,M,M,45.15,KRTS 211835Z AUTO 22003KT 10SM FEW060 FEW070 08/M00 A2982 RMK AO2,M
05U,2024-01-21 18:35,-116.0051,39.6042,1811.23,44.60,32.00,61.03,0.00,0.00,0.00,29.87,M,10.00,M,M,M,M,M,M,M,M,M,M,M,M,M,M,M,M,44.60,K05U 211835Z AUTO 00000KT 10SM 07/M00 A2987 RMK A01,M
MEV,2024-01-21 18:35,-119.7500,38.9963,1441.42,48.20,30.20,49.53,110.00,4.00,0.00,29.80,M,10.00,M,SCT,BKN,M,M,7500.00,8500.00,M,M,M,M,M,M,M,M,M,46.34,KMEV 211835Z AUTO 11004KT 10SM SCT075 BKN085 09/M01 A2980 RMK AO2,M
BAM,2024-01-21 18:35,-116.8743,40.5990,1382.36,46.40,37.40,70.68,40.00,4.00,0.00,29.83,M,10.00,M,SCT,M,M,M,7500.00,M,M,M,M,M,M,M,M,M,M,44.24,KBAM 211835Z AUTO 04004KT 10SM SCT075 08/03 A2983 RMK AO1,M
HTH,2024-01-21 18:35,-118.6315,38.5448,1282.89,51.80,32.00,46.59,M,5.00,0.00,29.84,M,10.00,11.00,SCT,M,M,M,10000.00,M,M,M,M,M,M,M,M,M,M,51.80,KHTH 211835Z AUTO VRB05G11KT 10SM SCT100 11/00 A2984 RMK A01,M
10U,2024-01-21 18:35,-116.1876,41.9532,1637.00,41.00,33.80,75.33,200.00,11.00,0.00,29.81,M,10.00,M,OVC,M,M,M,7500.00,M,M,M,M,M,M,M,M,M,M,33.84,K10U 211835Z AUTO 20011KT 10SM OVC075 05/01 A2981 RMK AO2,M
TMT,2024-01-21 18:35,-117.1971,39.4643,1749.34,41.00,32.00,70.08,220.00,3.00,0.00,29.86,M,10.00,M,CLR,M,M,M,M,M,M,M,M,M,M,M,M,M,M,38.98,KTMT 211835Z AUTO 22003KT 10SM CLR 05/00 A2986 RMK AO2 T00510000,M
LSV,2024-01-21 18:40,-115.0343,36.2362,570.00,53.60,48.20,81.87,60.00,7.00,0.00,29.87,1011.00,10.00,M,BKN,M,M,M,5000.00,M,M,M,-RA,M,M,M,M,M,M,53.60,KLSV 211840Z AUTO 06007KT 10SM -RA BKN050 12/09 A2987 RMK AO2 RAB1756E00RAB12E19RAB30E40 SLP110 $,M
LSV,2024-01-21 18:41,-115.0343,36.2362,570.00,53.60,48.20,81.87,60.00,7.00,0.00,29.87,1011.00,10.00,M,BKN,M,M,M,5000.00,M,M,M,M,M,M,M,M,M,M,53.60,KLSV 211841Z AUTO 06007KT 10SM BKN050 12/09 A2987 RMK AO2 RAB1756E00RAB12E19RAB30E40 SLP110 $,M
VGT,2024-01-21 18:43,-115.1933,36.2111,667.00,52.00,48.00,86.17,80.00,6.00,0.00,29.89,M,10.00,M,SCT,BKN,BKN,M,1200.00,2300.00,3700.00,M,M,M,M,M,M,M,M,52.00,KVGT 211843Z 08006KT 10SM SCT012 BKN023 BKN037 11/09 A2989 RMK AO2 T01110089,M
VGT,2024-01-21 18:51,-115.1933,36.2111,667.00,53.60,48.20,81.87,100.00,6.00,0.00,29.88,M,10.00,M,FEW,SCT,BKN,M,900.00,1700.00,3500.00,M,M,M,M,M,M,M,M,53.60,KVGT 211851Z 10006KT 10SM FEW009 SCT017 BKN035 12/09 A2988 RMK AO2,M
P68,2024-01-21 18:53,-116.0056,39.6014,1993.00,43.00,32.00,64.88,270.00,4.00,0.00,29.83,1007.90,M,M,M,M,M,M,M,M,M,M,M,M,M,M,M,M,M,40.27,KP68 211853Z AUTO 27004KT 06/00 A2983 RMK AO1 SLP079 T00610000,M
DRA,2024-01-21 18:53,-116.0278,36.6206,1009.00,46.00,44.00,92.68,0.00,0.00,0.02,29.88,1010.40,10.00,M,FEW,OVC,M,M,800.00,2500.00,M,M,-RA,M,M,M,M,M,M,46.00,KDRA 211853Z AUTO 00000KT 10SM -RA FEW008 OVC025 08/07 A2988 RMK AO2 SLP104 P0002 T00780067 $,M
ELY,2024-01-21 18:53,-114.8453,39.2950,1909.00,38.00,35.00,88.83,0.00,0.00,0.00,29.86,1009.20,10.00,M,BKN,BKN,OVC,M,800.00,3200.00,4400.00,M,M,M,M,M,M,M,M,38.00,KELY 211853Z AUTO 00000KT 10SM BKN008 BKN032 OVC044 03/02 A2986 RMK AO2 CIG 007V011 SLP092 T00330017,M
VGT,2024-01-21 18:53,-115.1933,36.2111,667.00,53.00,48.00,83.06,90.00,6.00,0.00,29.88,1013.20,10.00,M,FEW,SCT,BKN,M,900.00,1700.00,2400.00,M,M,M,M,M,M,M,M,53.00,KVGT 211853Z 09006KT 10SM FEW009 SCT017 BKN024 12/09 A2988 RMK AO2 SLP132 T01170089,M
LOL,2024-01-21 18:53,-118.5701,40.0684,1192.43,48.00,33.00,55.87,180.00,4.00,0.00,29.80,1009.00,10.00,M,OVC,M,M,M,10000.00,M,M,M,M,M,M,M,M,M,M,46.10,KLOL 211853Z AUTO 18004KT 10SM OVC100 09/01 A2980 RMK AO2 SLP090 T00890006,M
BVU,2024-01-21 18:55,-114.8611,35.9475,671.00,51.80,44.60,76.34,0.00,0.00,0.00,29.89,M,10.00,M,SCT,SCT,SCT,M,5000.00,6000.00,7500.00,M,-DZ,M,M,M,M,M,M,51.80,KBVU 211855Z AUTO 00000KT 10SM -DZ SCT050 SCT060 SCT075 11/07 A2989 RMK AO2,M
CXP,2024-01-21 18:55,-119.7326,39.1923,1431.00,50.00,30.20,46.31,0.00,0.00,0.00,29.82,M,10.00,M,FEW,M,M,M,6000.00,M,M,M,M,M,M,M,M,M,M,50.00,KCXP 211855Z AUTO 00000KT 10SM FEW060 10/M01 A2982 RMK AO2,M
RNO,2024-01-21 18:55,-119.7711,39.4839,1341.00,50.00,32.00,49.81,M,3.00,0.00,29.80,1007.20,10.00,M,FEW,FEW,BKN,BKN,5000.00,7500.00,14000.00,21000.00,M,M,M,M,M,M,M,50.00,KRNO 211855Z VRB03KT 10SM FEW050 FEW075 BKN140 BKN210 10/00 A2980 RMK AO2 SLP072 ACSL DSNT ALQDS MTN TOPS OBSCD DSNT S THRU SW AND W T01000000,M
RTS,2024-01-21 18:55,-119.8764,39.6682,1539.00,46.40,32.00,57.00,220.00,4.00,0.00,29.82,M,10.00,M,SCT,SCT,SCT,M,4000.00,7000.00,8000.00,M,M,M,M,M,M,M,M,44.24,KRTS 211855Z AUTO 22004KT 10SM SCT040 SCT070 SCT080 08/M00 A2982 RMK AO2,M
05U,2024-01-21 18:55,-116.0051,39.6042,1811.23,44.60,32.00,61.03,60.00,4.00,0.00,29.86,M,10.00,M,M,M,M,M,M,M,M,M,M,M,M,M,M,M,M,42.13,K05U 211855Z AUTO 06004KT 10SM 07/M00 A2986 RMK A01,M
MEV,2024-01-21 18:55,-119.7500,38.9963,1441.42,48.20,30.20,49.53,0.00,0.00,0.00,29.80,M,10.00,M,BKN,M,M,M,7500.00,M,M,M,M,M,M,M,M,M,M,48.20,KMEV 211855Z AUTO 00000KT 10SM BKN075 09/M01 A2980 RMK AO2,M
BAM,2024-01-21 18:55,-116.8743,40.5990,1382.36,50.00,37.40,61.76,50.00,4.00,0.00,29.83,M,10.00,M,CLR,M,M,M,M,M,M,M,M,M,M,M,M,M,M,50.00,KBAM 211855Z AUTO 05004KT 10SM CLR 10/03 A2983 RMK AO1,M
HTH,2024-01-21 18:55,-118.6315,38.5448,1282.89,51.80,32.00,46.59,80.00,6.00,0.00,29.83,M,10.00,M,FEW,M,M,M,10000.00,M,M,M,M,M,M,M,M,M,M,51.80,KHTH 211855Z AUTO 08006KT 10SM FEW100 11/00 A2983 RMK A01,M
TMT,2024-01-21 18:55,-117.1971,39.4643,1749.34,42.00,32.00,67.42,240.00,3.00,0.00,29.85,M,10.00,M,CLR,M,M,M,M,M,M,M,M,M,M,M,M,M,M,40.12,KTMT 211855Z AUTO 24003KT 10SM CLR 06/00 A2985 RMK AO2 T00550001,M
LSV,2024-01-21 18:55,-115.0343,36.2362,570.00,53.80,48.00,80.66,80.00,6.00,T,29.86,1010.60,10.00,M,SCT,M,M,M,5000.00,M,M,M,M,M,M,M,M,M,M,53.80,KLSV 211855Z AUTO 08006KT 10SM SCT050 12/09 A2986 RMK AO2 RAB1756E00RAB12E19RAB30E40 SLP106 P0000 T01210088 $,M
10U,2024-01-21 18:55,-116.1876,41.9532,1637.00,42.80,33.80,70.28,210.00,10.00,0.00,29.80,M,10.00,M,BKN,OVC,M,M,7500.00,9500.00,M,M,M,M,M,M,M,M,M,36.51,K10U 211855Z AUTO 21010KT 10SM BKN075 OVC095 06/01 A2980 RMK AO2,M
INS,2024-01-21 18:55,-115.6733,36.5872,955.00,47.50,44.00,87.58,0.00,0.00,0.01,29.88,1010.10,10.00,M,BKN,OVC,M,M,1100.00,1800.00,M,M,-RA,M,M,M,M,M,M,47.50,KINS 211855Z AUTO 00000KT 10SM -RA BKN011 OVC018 09/07 A2988 RMK AO2 SLP101 P0001 T00860066,M
EKO,2024-01-21 18:56,-115.7860,40.8242,1367.00,42.00,36.00,79.11,0.00,0.00,0.00,29.83,1009.70,10.00,M,OVC,M,M,M,6000.00,M,M,M,M,M,M,M,M,M,M,42.00,KEKO 211856Z AUTO 00000KT 10SM OVC060 06/02 A2983 RMK AO2 SLP097 T00560022,M
NFL,2024-01-21 18:56,-118.7010,39.4166,1199.00,51.00,36.00,56.31,170.00,6.00,0.00,29.80,1007.00,10.00,M,BKN,BKN,M,M,9000.00,12000.00,M,M,M,M,M,M,M,M,M,51.00,KNFL 211856Z COR 17006KT 10SM BKN090 BKN120 11/02 A2980 RMK AO2 SLP070 T01060022,M
HND,2024-01-21 18:56,-115.1344,35.9729,742.79,54.00,45.00,71.50,220.00,9.00,T,29.90,1013.70,10.00,M,BKN,BKN,OVC,M,2500.00,4900.00,7500.00,M,M,M,M,M,M,M,M,54.00,KHND 211856Z 22009KT 10SM BKN025 BKN049 OVC075 12/07 A2990 RMK AO2 RAE49 SLP137 P0000 T01220072,M
TPH,2024-01-21 18:56,-117.0904,38.0505,1654.00,40.00,36.00,85.48,170.00,4.00,0.00,29.88,1010.60,10.00,M,SCT,OVC,M,M,1000.00,1700.00,M,M,M,M,M,M,M,M,M,36.76,KTPH 211856Z AUTO 17004KT 10SM SCT010 OVC017 04/02 A2988 RMK AO2 SLP106 T00440022,M
LAS,2024-01-21 18:56,-115.1634,36.0719,663.00,54.00,47.00,77.12,150.00,7.00,T,29.88,1011.10,10.00,M,SCT,BKN,OVC,M,3800.00,7000.00,9000.00,M,M,M,M,M,M,M,M,54.00,KLAS 211856Z 15007KT 10SM SCT038 BKN070 OVC090 12/08 A2988 RMK AO2 RAB06E38 SLP111 P0000 T01220083,M
WMC,2024-01-21 18:56,-117.8072,40.9019,1315.00,51.00,30.00,44.26,M,3.00,0.00,29.79,1007.50,10.00,M,CLR,M,M,M,M,M,M,M,M,M,M,M,M,M,M,51.00,KWMC 211856Z AUTO VRB03KT 10SM CLR 11/M01 A2979 RMK AO2 SLP075 T01061011,M
LSV,2024-01-21 18:56,-115.0343,36.2362,570.00,53.60,48.20,81.87,80.00,6.00,0.00,29.86,1010.60,10.00,M,SCT,M,M,M,5000.00,M,M,M,-RA,M,M,M,M,M,M,53.60,KLSV 211856Z AUTO 08006KT 10SM -RA SCT050 12/09 A2986 RMK AO2 RAB55 SLP106 $,M
INS,2024-01-21 19:00,-115.6733,36.5872,955.00,48.20,44.60,87.28,0.00,0.00,0.00,29.88,1010.10,10.00,M,SCT,OVC,M,M,1100.00,1800.00,M,M,-DZ,M,M,M,M,M,M,48.20,KINS 211900Z AUTO 00000KT 10SM -DZ SCT011 OVC018 09/07 A2988 RMK AO2 RAE1857DZB1857 SLP101,M
ELY,2024-01-21 19:07,-114.8453,39.2950,1909.00,38.00,35.00,88.83,230.00,3.00,0.00,29.85,M,10.00,M,SCT,OVC,M,M,900.00,4200.00,M,M,M,M,M,M,M,M,M,35.55,KELY 211907Z AUTO 23003KT 10SM SCT009 OVC042 03/02 A2985 RMK AO2 T00330017,M
LSV,2024-01-21 19:07,-115.0343,36.2362,570.00,53.60,48.20,81.87,80.00,6.00,0.00,29.86,1010.60,10.00,M,FEW,M,M,M,5000.00,M,M,M,M,M,M,M,M,M,M,53.60,KLSV 211907Z AUTO 08006KT 10SM FEW050 12/09 A2986 RMK AO2 RAB1855E07 SLP106 $,M
HND,2024-01-21 19:08,-115.1344,35.9729,742.79,53.60,42.80,66.70,220.00,11.00,0.00,29.89,M,10.00,M,FEW,BKN,OVC,M,2200.00,3000.00,7000.00,M,M,M,M,M,M,M,M,53.60,KHND 211908Z 22011KT 10SM FEW022 BKN030 OVC070 12/06 A2989 RMK AO2,M
05U,2024-01-21 19:10,-116.0051,39.6042,1811.23,44.60,32.00,61.03,70.00,6.00,0.00,29.86,M,10.00,M,M,M,M,M,M,M,M,M,M,M,M,M,M,M,M,40.71,K05U 211910Z AUTO 07006KT 10SM 07/M00 A2986 RMK A01,M
10U,2024-01-21 19:10,-116.1876,41.9532,1637.00,42.80,32.00,65.38,210.00,8.00,0.00,29.80,M,10.00,M,FEW,OVC,M,M,7500.00,9500.00,M,M,M,M,M,M,M,M,M,37.42,K10U 211910Z AUTO 21008KT 10SM FEW075 OVC095 06/00 A2980 RMK AO2,M
BVU,2024-01-21 19:15,-114.8611,35.9475,671.00,53.60,46.40,76.50,0.00,0.00,0.00,29.88,M,10.00,M,SCT,M,M,M,5000.00,M,M,M,M,M,M,M,M,M,M,53.60,KBVU 211915Z AUTO 00000KT 10SM SCT050 12/08 A2988 RMK AO2,M
CXP,2024-01-21 19:15,-119.7326,39.1923,1431.00,51.80,30.20,43.32,0.00,0.00,0.00,29.81,M,10.00,M,CLR,M,M,M,M,M,M,M,M,M,M,M,M,M,M,51.80,KCXP 211915Z AUTO 00000KT 10SM CLR 11/M01 A2981 RMK AO2,M
DRA,2024-01-21 19:15,-116.0278,36.6206,1009.00,46.00,44.00,92.68,230.00,4.00,T,29.88,M,10.00,M,FEW,OVC,M,M,900.00,3100.00,M,M,M,M,M,M,M,M,M,43.77,KDRA 211915Z AUTO 23004KT 10SM FEW009 OVC031 08/07 A2988 RMK AO2 RAE10 P0000 T00780067 $,M
RTS,2024-01-21 19:15,-119.8764,39.6682,1539.00,46.40,32.00,57.00,190.00,4.00,0.00,29.81,M,10.00,M,FEW,FEW,M,M,4000.00,7000.00,M,M,M,M,M,M,M,M,M,44.24,KRTS 211915Z AUTO 19004KT 10SM FEW040 FEW070 08/M00 A2981 RMK AO2,M
MEV,2024-01-21 19:15,-119.7500,38.9963,1441.42,50.00,30.20,46.31,0.00,0.00,0.00,29.80,M,10.00,M,FEW,M,M,M,7500.00,M,M,M,M,M,M,M,M,M,M,50.00,KMEV 211915Z AUTO 00000KT 10SM FEW075 10/M01 A2980 RMK AO2,M
BAM,2024-01-21 19:15,-116.8743,40.5990,1382.36,50.00,35.60,57.52,280.00,3.00,0.00,29.82,M,10.00,M,CLR,M,M,M,M,M,M,M,M,M,M,M,M,M,M,50.00,KBAM 211915Z AUTO 28003KT 10SM CLR 10/02 A2982 RMK AO1,M
HTH,2024-01-21 19:15,-118.6315,38.5448,1282.89,53.60,32.00,43.61,110.00,6.00,0.00,29.82,M,10.00,M,CLR,M,M,M,M,M,M,M,M,M,M,M,M,M,M,53.60,KHTH 211915Z AUTO 11006KT 10SM CLR 12/00 A2982 RMK A01,M
TMT,2024-01-21 19:15,-117.1971,39.4643,1749.34,42.60,32.00,65.89,260.00,3.00,0.00,29.85,M,10.00,M,CLR,M,M,M,M,M,M,M,M,M,M,M,M,M,M,40.81,KTMT 211915Z AUTO 26003KT 10SM CLR 06/00 A2985 RMK AO2 T00590001,M
INS,2024-01-21 19:25,-115.6733,36.5872,955.00,46.40,42.80,87.19,0.00,0.00,0.00,29.88,1010.30,10.00,M,BKN,BKN,OVC,M,800.00,1900.00,6000.00,M,-DZ,M,M,M,M,M,M,46.40,KINS 211925Z AUTO 00000KT 10SM -DZ BKN008 BKN019 OVC060 08/06 A2988 RMK AO2 RAE1857DZB1857E13RAB13E23DZB23 BKN008 V SCT SLP103,M
10U,2024-01-21 19:30,-116.1876,41.9532,1637.00,42.80,32.00,65.38,220.00,8.00,0.00,29.79,M,10.00,M,BKN,M,M,M,9000.00,M,M,M,M,M,M,M,M,M,M,37.42,K10U 211930Z AUTO 22008KT 10SM BKN090 06/00 A2979 RMK AO2,M
VGT,2024-01-21 19:31,-115.1933,36.2111,667.00,53.00,47.00,80.00,90.00,4.00,T,29.87,M,10.00,M,SCT,BKN,OVC,M,1500.00,3300.00,3400.00,M,M,M,M,M,M,M,M,53.00,KVGT 211931Z 09004KT 10SM SCT015 BKN033 OVC034 12/08 A2987 RMK AO2 RAB01E26 P0000 T01170083,M
BVU,2024-01-21 19:35,-114.8611,35.9475,671.00,53.60,46.40,76.50,0.00,0.00,0.00,29.87,M,10.00,M,BKN,M,M,M,5500.00,M,M,M,M,M,M,M,M,M,M,53.60,KBVU 211935Z AUTO 00000KT 10SM BKN055 12/08 A2987 RMK AO2,M
CXP,2024-01-21 19:35,-119.7326,39.1923,1431.00,51.80,30.20,43.32,M,4.00,0.00,29.81,M,10.00,M,CLR,M,M,M,M,M,M,M,M,M,M,M,M,M,M,51.80,KCXP 211935Z AUTO VRB04KT 10SM CLR 11/M01 A2981 RMK AO2,M
RTS,2024-01-21 19:35,-119.8764,39.6682,1539.00,48.20,30.20,49.53,230.00,9.00,0.00,29.80,M,10.00,14.00,FEW,M,M,M,8000.00,M,M,M,M,M,M,M,M,M,M,43.66,KRTS 211935Z AUTO 23009G14KT 10SM FEW080 09/M01 A2980 RMK AO2,M
05U,2024-01-21 19:35,-116.0051,39.6042,1811.23,44.60,32.00,61.03,50.00,5.00,0.00,29.85,M,10.00,M,M,M,M,M,M,M,M,M,M,M,M,M,M,M,M,41.36,K05U 211935Z AUTO 05005KT 10SM 07/M00 A2985 RMK A01,M
MEV,2024-01-21 19:35,-119.7500,38.9963,1441.42,50.00,30.20,46.31,0.00,0.00,0.00,29.79,M,10.00,M,CLR,M,M,M,M,M,M,M,M,M,M,M,M,M,M,50.00,KMEV 211935Z AUTO 00000KT 10SM CLR 10/M01 A2979 RMK AO2,M
BAM,2024-01-21 19:35,-116.8743,40.5990,1382.36,50.00,35.60,57.52,0.00,0.00,0.00,29.81,M,10.00,M,SCT,M,M,M,6000.00,M,M,M,M,M,M,M,M,M,M,50.00,KBAM 211935Z AUTO 00000KT 10SM SCT060 10/02 A2981 RMK AO1,M
HTH,2024-01-21 19:35,-118.6315,38.5448,1282.89,55.40,32.00,40.84,90.00,8.00,0.00,29.80,M,10.00,M,CLR,M,M,M,M,M,M,M,M,M,M,M,M,M,M,55.40,KHTH 211935Z AUTO 09008KT 10SM CLR 13/00 A2980 RMK A01,M
TMT,2024-01-21 19:35,-117.1971,39.4643,1749.34,43.30,32.00,64.14,0.00,0.00,0.00,29.84,M,10.00,M,CLR,M,M,M,M,M,M,M,M,M,M,M,M,M,M,43.30,KTMT 211935Z AUTO 00000KT 10SM CLR 06/00 A2984 RMK AO2 T00630000,M
INS,2024-01-21 19:40,-115.6733,36.5872,955.00,48.20,42.80,81.47,50.00,3.00,0.00,29.87,1010.00,10.00,M,BKN,BKN,M,M,600.00,1000.00,M,M,-RA,M,M,M,M,M,M,47.21,KINS 211940Z AUTO 05003KT 10SM -RA BKN006 BKN010 09/06 A2987 RMK AO2 RAE1857DZB1857E13RAB13E23DZB23E28RAB28 SLP100,M
CXP,2024-01-21 19:50,-119.7326,39.1923,1431.00,51.80,30.20,43.32,180.00,5.00,0.00,29.80,M,10.00,M,CLR,M,M,M,M,M,M,M,M,M,M,M,M,M,M,51.80,KCXP 211950Z AUTO 18005KT 10SM CLR 11/M01 A2980 RMK AO2,M
INS,2024-01-21 19:50,-115.6733,36.5872,955.00,48.20,42.80,81.47,0.00,0.00,0.00,29.87,1010.00,10.00,M,OVC,M,M,M,700.00,M,M,M,-DZ,M,M,M,M,M,M,48.20,KINS 211950Z AUTO 00000KT 10SM -DZ OVC007 09/06 A2987 RMK AO2 RAE1857DZB1857E13RAB13E23DZB23E28RAB28E46DZB46 SLP100,M
05U,2024-01-21 19:50,-116.0051,39.6042,1811.23,46.40,32.00,57.00,50.00,5.00,0.00,29.84,M,10.00,M,M,M,M,M,M,M,M,M,M,M,M,M,M,M,M,43.50,K05U 211950Z AUTO 05005KT 10SM 08/M00 A2984 RMK A01,M
HTH,2024-01-21 19:50,-118.6315,38.5448,1282.89,53.60,32.00,43.61,80.00,8.00,0.00,29.79,M,10.00,M,CLR,M,M,M,M,M,M,M,M,M,M,M,M,M,M,53.60,KHTH 211950Z AUTO 08008KT 10SM CLR 12/M00 A2979 RMK A01,M
P68,2024-01-21 19:53,-116.0056,39.6014,1993.00,44.00,31.00,59.97,250.00,5.00,0.00,29.82,1007.10,M,M,M,M,M,M,M,M,M,M,M,M,M,M,M,M,M,40.65,KP68 211953Z AUTO 25005KT 07/M01 A2982 RMK AO1 SLP071 T00671006,M
DRA,2024-01-21 19:53,-116.0278,36.6206,1009.00,47.00,43.00,85.89,0.00,0.00,0.01,29.86,1009.70,10.00,M,OVC,M,M,M,3000.00,M,M,M,M,M,M,M,M,M,M,47.00,KDRA 211953Z AUTO 00000KT 10SM OVC030 08/06 A2986 RMK AO2 RAE10B32E48 SLP097 P0001 T00830061 $,M
ELY,2024-01-21 19:53,-114.8453,39.2950,1909.00,40.00,35.00,82.15,M,3.00,0.00,29.84,1008.50,10.00,M,FEW,BKN,OVC,M,1000.00,3900.00,5000.00,M,M,M,M,M,M,M,M,37.83,KELY 211953Z AUTO VRB03KT 10SM FEW010 BKN039 OVC050 04/02 A2984 RMK AO2 SLP085 T00440017,M
VGT,2024-01-21 19:53,-115.1933,36.2111,667.00,53.00,47.00,80.00,50.00,4.00,T,29.86,1012.40,10.00,M,SCT,BKN,OVC,M,1500.00,3300.00,3400.00,M,-RA,M,M,M,M,M,M,53.00,KVGT 211953Z 05004KT 10SM -RA SCT015 BKN033 OVC034 12/08 A2986 RMK AO2 RAB01E26B46 SLP124 P0000 T01170083,M
LOL,2024-01-21 19:53,-118.5701,40.0684,1192.43,51.00,35.00,54.12,180.00,9.00,0.00,29.77,1007.50,10.00,M,CLR,M,M,M,M,M,M,M,M,M,M,M,M,M,M,51.00,KLOL 211953Z AUTO 18009KT 10SM CLR 11/02 A2977 RMK AO2 SLP075 T01060017,M
BVU,2024-01-21 19:55,-114.8611,35.9475,671.00,53.60,46.40,76.50,130.00,3.00,0.00,29.86,M,10.00,M,SCT,M,M,M,5500.00,M,M,M,M,M,M,M,M,M,M,53.60,KBVU 211955Z AUTO 13003KT 10SM SCT055 12/08 A2986 RMK AO2,M
INS,2024-01-21 19:55,-115.6733,36.5872,955.00,48.20,44.00,85.31,0.00,0.00,0.01,29.87,1009.80,10.00,M,OVC,M,M,M,700.00,M,M,M,-DZ,M,M,M,M,M,M,48.20,KINS 211955Z AUTO 00000KT 10SM -DZ OVC007 09/07 A2987 RMK AO2 RAE1857DZB1857E13RAB13E23DZB23E28RAB28E46DZB46 SLP098 P0001 T00900066,M
RNO,2024-01-21 19:55,-119.7711,39.4839,1341.00,52.00,33.00,48.15,290.00,3.00,0.00,29.77,1006.10,10.00,M,SCT,SCT,BKN,BKN,5500.00,11000.00,15000.00,21000.00,M,M,M,M,M,M,M,52.00,KRNO 211955Z 29003KT 10SM SCT055 SCT110 BKN150 BKN210 11/01 A2977 RMK AO2 SLP061 ACSL DSNT ALQDS MTN TOPS OBSCD DSNT S THRU SW AND W T01110006,M
RTS,2024-01-21 19:55,-119.8764,39.6682,1539.00,48.20,32.00,53.27,220.00,14.00,0.00,29.79,M,10.00,M,CLR,M,M,M,M,M,M,M,M,M,M,M,M,M,M,42.04,KRTS 211955Z AUTO 22014KT 10SM CLR 09/M00 A2979 RMK AO2,M
MEV,2024-01-21 19:55,-119.7500,38.9963,1441.42,51.80,30.20,43.32,320.00,4.00,0.00,29.78,M,10.00,M,CLR,M,M,M,M,M,M,M,M,M,M,M,M,M,M,51.80,KMEV 211955Z AUTO 32004KT 10SM CLR 11/M01 A2978 RMK AO2,M
BAM,2024-01-21 19:55,-116.8743,40.5990,1382.36,50.00,37.40,61.76,0.00,0.00,0.00,29.81,M,10.00,M,BKN,M,M,M,6000.00,M,M,M,M,M,M,M,M,M,M,50.00,KBAM 211955Z AUTO 00000KT 10SM BKN060 10/03 A2981 RMK AO1,M
10U,2024-01-21 19:55,-116.1876,41.9532,1637.00,42.80,32.00,65.38,210.00,10.00,0.00,29.78,M,10.00,16.00,SCT,M,M,M,9000.00,M,M,M,M,M,M,M,M,M,M,36.51,K10U 211955Z AUTO 21010G16KT 10SM SCT090 06/M00 A2978 RMK AO2,M
LSV,2024-01-21 19:55,-115.0343,36.2362,570.00,55.80,45.70,68.76,0.00,0.00,T,29.83,1009.60,10.00,M,CLR,M,M,M,M,M,M,M,M,M,M,M,M,M,M,55.80,KLSV 211955Z AUTO 00000KT 10SM CLR 13/08 A2983 RMK AO2 RAB1855E07 SLP096 P0000 T01320076 $,M
TMT,2024-01-21 19:55,-117.1971,39.4643,1749.34,43.00,32.00,64.88,0.00,0.00,0.00,29.84,M,10.00,M,CLR,M,M,M,M,M,M,M,M,M,M,M,M,M,M,43.00,KTMT 211955Z AUTO 00000KT 10SM CLR 06/00 A2984 RMK AO2 T00610000,M
EKO,2024-01-21 19:56,-115.7860,40.8242,1367.00,44.00,36.00,73.27,0.00,0.00,0.00,29.81,1009.10,10.00,M,OVC,M,M,M,6000.00,M,M,M,M,M,M,M,M,M,M,44.00,KEKO 211956Z AUTO 00000KT 10SM OVC060 07/02 A2981 RMK AO2 SLP091 T00670022,M
HND,2024-01-21 19:56,-115.1344,35.9729,742.79,54.00,44.00,68.82,220.00,10.00,T,29.87,1012.80,10.00,M,BKN,OVC,M,M,4800.00,6500.00,M,M,-RA,M,M,M,M,M,M,54.00,KHND 211956Z 22010KT 10SM -RA BKN048 OVC065 12/07 A2987 RMK AO2 RAB12 SLP128 P0000 T01220067,M
TPH,2024-01-21 19:56,-117.0904,38.0505,1654.00,42.00,34.00,73.06,130.00,3.00,0.00,29.86,1010.00,10.00,M,OVC,M,M,M,2400.00,M,M,M,M,M,M,M,M,M,M,40.12,KTPH 211956Z AUTO 13003KT 10SM OVC024 06/01 A2986 RMK AO2 SLP100 T00560011,M
LAS,2024-01-21 19:56,-115.1634,36.0719,663.00,56.00,44.00,63.99,190.00,6.00,0.00,29.85,1010.20,10.00,M,BKN,OVC,M,M,3900.00,8000.00,M,M,M,M,M,M,M,M,M,56.00,KLAS 211956Z 19006KT 10SM BKN039 OVC080 13/07 A2985 RMK AO2 SLP102 T01330067,M
WMC,2024-01-21 19:56,-117.8072,40.9019,1315.00,53.00,31.00,42.81,0.00,0.00,0.00,29.76,1006.40,10.00,M,CLR,M,M,M,M,M,M,M,M,M,M,M,M,M,M,53.00,KWMC 211956Z AUTO 00000KT 10SM CLR 12/M01 A2976 RMK AO2 SLP064 T01171006,M
NFL,2024-01-21 19:56,-118.7010,39.4166,1199.00,55.00,36.00,48.62,190.00,11.00,0.00,29.77,1006.00,10.00,M,FEW,SCT,BKN,BKN,9000.00,12000.00,16000.00,20000.00,M,M,M,M,M,M,M,55.00,KNFL 211956Z 19011KT 10SM FEW090 SCT120 BKN160 BKN200 13/02 A2977 RMK SLP060 T01280022,M
ELY,2024-01-21 20:04,-114.8453,39.2950,1909.00,40.00,35.00,82.15,140.00,3.00,0.00,29.84,M,10.00,M,BKN,BKN,OVC,M,1700.00,2100.00,5000.00,M,M,M,M,M,M,M,M,37.83,KELY 212004Z AUTO 14003KT 10SM BKN017 BKN021 OVC050 04/02 A2984 RMK AO2 T00440017,M
INS,2024-01-21 20:07,-115.6733,36.5872,955.00,48.20,44.60,87.28,360.00,6.00,0.00,29.86,1009.70,10.00,M,BKN,BKN,OVC,M,700.00,5500.00,7000.00,M,M,M,M,M,M,M,M,45.04,KINS 212007Z AUTO 36006KT 10SM BKN007 BKN055 OVC070 09/07 A2986 RMK AO2 DZE07 BKN007 V OVC SLP097,M
05U,2024-01-21 20:10,-116.0051,39.6042,1811.23,44.60,32.00,61.03,50.00,4.00,0.00,29.84,M,10.00,M,M,M,M,M,M,M,M,M,M,M,M,M,M,M,M,42.13,K05U 212010Z AUTO 05004KT 10SM 07/M00 A2984 RMK A01,M
HTH,2024-01-21 20:10,-118.6315,38.5448,1282.89,55.40,32.00,40.84,60.00,7.00,0.00,29.77,M,10.00,13.00,CLR,M,M,M,M,M,M,M,M,M,M,M,M,M,M,55.40,KHTH 212010Z AUTO 06007G13KT 10SM CLR 13/M00 A2977 RMK A01,M
10U,2024-01-21 20:10,-116.1876,41.9532,1637.00,42.80,32.00,65.38,220.00,10.00,0.00,29.78,M,10.00,M,FEW,M,M,M,9000.00,M,M,M,M,M,M,M,M,M,M,36.51,K10U 212010Z AUTO 22010KT 10SM FEW090 06/00 A2978 RMK AO2,M
INS,2024-01-21 20:12,-115.6733,36.5872,955.00,48.20,42.80,81.47,10.00,7.00,0.00,29.86,1009.40,10.00,M,SCT,BKN,OVC,M,700.00,5500.00,7000.00,M,M,M,M,M,M,M,M,44.53,KINS 212012Z AUTO 01007KT 10SM SCT007 BKN055 OVC070 09/06 A2986 RMK AO2 DZE07 SLP094,M
BVU,2024-01-21 20:15,-114.8611,35.9475,671.00,55.40,48.20,76.66,100.00,5.00,0.00,29.85,M,10.00,M,SCT,SCT,SCT,M,1700.00,2200.00,5000.00,M,M,M,M,M,M,M,M,55.40,KBVU 212015Z AUTO 10005KT 10SM SCT017 SCT022 SCT050 13/09 A2985 RMK AO2,M
CXP,2024-01-21 20:15,-119.7326,39.1923,1431.00,53.60,30.20,40.54,M,5.00,0.00,29.78,M,10.00,M,CLR,M,M,M,M,M,M,M,M,M,M,M,M,M,M,53.60,KCXP 212015Z AUTO VRB05KT 10SM CLR 12/M01 A2978 RMK AO2,M
RTS,2024-01-21 20:15,-119.8764,39.6682,1539.00,48.20,32.00,53.27,240.00,8.00,0.00,29.78,M,10.00,17.00,CLR,M,M,M,M,M,M,M,M,M,M,M,M,M,M,44.07,KRTS 212015Z AUTO 24008G17KT 10SM CLR 09/M00 A2978 RMK AO2,M
MEV,2024-01-21 20:15,-119.7500,38.9963,1441.42,51.80,30.20,43.32,0.00,0.00,0.00,29.77,M,10.00,M,CLR,M,M,M,M,M,M,M,M,M,M,M,M,M,M,51.80,KMEV 212015Z AUTO 00000KT 10SM CLR 11/M01 A2977 RMK AO2,M
BAM,2024-01-21 20:15,-116.8743,40.5990,1382.36,53.60,37.40,54.07,220.00,4.00,0.00,29.80,M,10.00,M,SCT,M,M,M,6000.00,M,M,M,M,M,M,M,M,M,M,53.60,KBAM 212015Z AUTO 22004KT 10SM SCT060 12/03 A2980 RMK AO1,M
TMT,2024-01-21 20:15,-117.1971,39.4643,1749.34,45.00,32.40,61.09,0.00,0.00,0.00,29.82,M,10.00,M,BKN,M,M,M,6000.00,M,M,M,M,M,M,M,M,M,M,45.00,KTMT 212015Z AUTO 00000KT 10SM BKN060 07/00 A2982 RMK AO2 T00720002,M
MEV,2024-01-21 20:20,-119.7500,38.9963,1441.42,51.80,30.20,43.32,360.00,3.00,0.00,29.77,M,10.00,M,CLR,M,M,M,M,M,M,M,M,M,M,M,M,M,M,51.80,KMEV 212020Z AUTO 36003KT 10SM CLR 11/M01 A2977 RMK AO2,M
LSV,2024-01-21 20:25,-115.0343,36.2362,570.00,55.40,44.60,66.91,0.00,0.00,0.00,29.82,1009.20,10.00,M,BKN,M,M,M,3900.00,M,M,M,M,M,M,M,M,M,M,55.40,KLSV 212025Z AUTO 00000KT 10SM BKN039 13/07 A2982 RMK AO2 SLP092 $,M
ELY,2024-01-21 20:29,-114.8453,39.2950,1909.00,40.00,34.00,78.94,160.00,4.00,0.00,29.83,M,10.00,M,SCT,OVC,M,M,1600.00,5000.00,M,M,M,M,M,M,M,M,M,36.76,KELY 212029Z AUTO 16004KT 10SM SCT016 OVC050 04/01 A2983 RMK AO2 T00440011,M
CXP,2024-01-21 20:30,-119.7326,39.1923,1431.00,53.60,30.20,40.54,180.00,4.00,0.00,29.78,M,10.00,M,SCT,M,M,M,4800.00,M,M,M,M,M,M,M,M,M,M,53.60,KCXP 212030Z AUTO 18004KT 10SM SCT048 12/M01 A2978 RMK AO2,M
05U,2024-01-21 20:30,-116.0051,39.6042,1811.23,46.40,30.20,53.00,M,3.00,0.00,29.83,M,10.00,M,M,M,M,M,M,M,M,M,M,M,M,M,M,M,M,45.15,K05U 212030Z AUTO VRB03KT 10SM 08/M01 A2983 RMK A01,M
BVU,2024-01-21 20:35,-114.8611,35.9475,671.00,55.40,48.20,76.66,100.00,8.00,0.00,29.84,M,10.00,M,BKN,BKN,BKN,M,2000.00,2800.00,3300.00,M,M,M,M,M,M,M,M,55.40,KBVU 212035Z AUTO 10008KT 10SM BKN020 BKN028 BKN033 13/09 A2984 RMK AO2,M
RTS,2024-01-21 20:35,-119.8764,39.6682,1539.00,48.20,32.00,53.27,280.00,7.00,0.00,29.78,M,10.00,13.00,CLR,M,M,M,M,M,M,M,M,M,M,M,M,M,M,44.53,KRTS 212035Z AUTO 28007G13KT 10SM CLR 09/00 A2978 RMK AO2,M
BAM,2024-01-21 20:35,-116.8743,40.5990,1382.36,51.80,37.40,57.77,0.00,0.00,0.00,29.79,M,10.00,M,BKN,M,M,M,8000.00,M,M,M,M,M,M,M,M,M,M,51.80,KBAM 212035Z AUTO 00000KT 10SM BKN080 11/03 A2979 RMK AO1,M
HTH,2024-01-21 20:35,-118.6315,38.5448,1282.89,55.40,32.00,40.84,80.00,11.00,0.00,29.76,M,10.00,M,CLR,M,M,M,M,M,M,M,M,M,M,M,M,M,M,55.40,KHTH 212035Z AUTO 08011KT 10SM CLR 13/M00 A2976 RMK A01,M
10U,2024-01-21 20:35,-116.1876,41.9532,1637.00,44.60,32.00,61.03,210.00,11.00,0.00,29.77,M,10.00,M,FEW,BKN,M,M,8000.00,9500.00,M,M,M,M,M,M,M,M,M,38.39,K10U 212035Z AUTO 21011KT 10SM FEW080 BKN095 07/M00 A2977 RMK AO2,M
TMT,2024-01-21 20:35,-117.1971,39.4643,1749.34,46.00,30.70,54.91,220.00,3.00,0.00,29.81,M,10.00,M,SCT,M,M,M,6000.00,M,M,M,M,M,M,M,M,M,M,44.69,KTMT 212035Z AUTO 22003KT 10SM SCT060 08/M01 A2981 RMK AO2 T00781007,M
P68,2024-01-21 20:53,-116.0056,39.6014,1993.00,45.00,31.00,57.73,0.00,0.00,0.00,29.80,1006.60,M,M,M,M,M,M,M,M,M,M,M,M,M,M,M,M,M,45.00,KP68 212053Z AUTO 00000KT 07/M01 A2980 RMK AO1 SLP066 T00721006 58012,M
DRA,2024-01-21 20:53,-116.0278,36.6206,1009.00,49.00,43.00,79.68,230.00,6.00,0.00,29.85,1009.40,10.00,M,FEW,BKN,OVC,M,1500.00,2500.00,4200.00,M,M,M,M,M,M,M,M,46.00,KDRA 212053Z AUTO 23006KT 10SM FEW015 BKN025 OVC042 09/06 A2985 RMK AO2 SLP094 60003 T00940061 58012 $,M
ELY,2024-01-21 20:53,-114.8453,39.2950,1909.00,41.00,34.00,75.94,0.00,0.00,0.00,29.82,1007.70,10.00,M,BKN,M,M,M,5000.00,M,M,M,M,M,M,M,M,M,M,41.00,KELY 212053Z AUTO 00000KT 10SM BKN050 05/01 A2982 RMK AO2 SLP077 T00500011 58012,M
VGT,2024-01-21 20:53,-115.1933,36.2111,667.00,54.00,48.00,80.07,40.00,4.00,0.01,29.84,1011.70,10.00,M,OVC,M,M,M,6500.00,M,M,M,-RA,M,M,M,M,M,M,54.00,KVGT 212053Z 04004KT 10SM -RA OVC065 12/09 A2984 RMK AO2 SLP117 P0001 60001 T01220089 58017,M
LOL,2024-01-21 20:53,-118.5701,40.0684,1192.43,51.00,34.00,52.00,210.00,5.00,0.00,29.75,1006.80,10.00,M,CLR,M,M,M,M,M,M,M,M,M,M,M,M,M,M,51.00,KLOL 212053Z AUTO 21005KT 10SM CLR 11/01 A2975 RMK AO2 SLP068 T01060011 58020,M
LSV,2024-01-21 20:53,-115.0343,36.2362,570.00,55.40,46.40,71.64,60.00,3.00,0.00,29.81,1008.90,10.00,M,SCT,BKN,BKN,M,2800.00,4100.00,4900.00,M,-RA,M,M,M,M,M,M,55.40,KLSV 212053Z AUTO 06003KT 10SM -RA SCT028 BKN041 BKN049 13/08 A2981 RMK AO2 RAB53 SLP089 $,M
BVU,2024-01-21 20:55,-114.8611,35.9475,671.00,55.40,46.40,71.64,M,6.00,0.00,29.84,M,10.00,M,SCT,BKN,BKN,M,2100.00,3100.00,4900.00,M,M,M,M,M,M,M,M,55.40,KBVU 212055Z AUTO VRB06KT 10SM SCT021 BKN031 BKN049 13/08 A2984 RMK AO2,M
CXP,2024-01-21 20:55,-119.7326,39.1923,1431.00,51.80,32.00,46.59,230.00,7.00,0.00,29.77,M,10.00,M,BKN,M,M,M,4800.00,M,M,M,M,M,M,M,M,M,M,51.80,KCXP 212055Z AUTO 23007KT 200V290 10SM BKN048 11/M00 A2977 RMK AO2,M
INS,2024-01-21 20:55,-115.6733,36.5872,955.00,49.60,43.30,78.82,360.00,7.00,T,29.85,1009.10,10.00,M,BKN,BKN,M,M,1100.00,7000.00,M,M,M,M,M,M,M,M,M,46.23,KINS 212055Z AUTO 36007KT 10SM BKN011 BKN070 10/06 A2985 RMK AO2 DZE07 SLP091 P0000 60002 T00980063 57014,M
RNO,2024-01-21 20:55,-119.7711,39.4839,1341.00,53.00,33.00,46.41,0.00,0.00,0.00,29.74,1005.20,10.00,M,SCT,BKN,BKN,BKN,5500.00,11000.00,15000.00,21000.00,M,M,M,M,M,M,M,53.00,KRNO 212055Z 00000KT 10SM SCT055 BKN110 BKN150 BKN210 12/01 A2974 RMK AO2 SLP052 ACSL DSNT ALQDS MTN TOPS OBSCD DSNT S THRU SW AND W T01170006 58021,M
RTS,2024-01-21 20:55,-119.8764,39.6682,1539.00,50.00,32.00,49.81,250.00,12.00,0.00,29.77,M,10.00,M,CLR,M,M,M,M,M,M,M,M,M,M,M,M,M,M,50.00,KRTS 212055Z AUTO 25012KT 10SM CLR 10/00 A2977 RMK AO2,M
05U,2024-01-21 20:55,-116.0051,39.6042,1811.23,48.20,30.20,49.53,M,3.00,0.00,29.83,M,10.00,M,M,M,M,M,M,M,M,M,M,M,M,M,M,M,M,47.21,K05U 212055Z AUTO VRB03KT 10SM 09/M01 A2983 RMK A01,M
BAM,2024-01-21 20:55,-116.8743,40.5990,1382.36,53.60,37.40,54.07,230.00,3.00,0.00,29.78,M,10.00,M,SCT,BKN,M,M,6000.00,8000.00,M,M,M,M,M,M,M,M,M,53.60,KBAM 212055Z AUTO 23003KT 10SM SCT060 BKN080 12/03 A2978 RMK AO1,M
HTH,2024-01-21 20:55,-118.6315,38.5448,1282.89,57.20,30.20,35.57,70.00,10.00,0.00,29.76,M,10.00,M,CLR,M,M,M,M,M,M,M,M,M,M,M,M,M,M,57.20,KHTH 212055Z AUTO 07010KT 10SM CLR 14/M01 A2976 RMK A01,M
10U,2024-01-21 20:55,-116.1876,41.9532,1637.00,44.60,32.00,61.03,200.00,10.00,0.00,29.76,M,10.00,M,FEW,FEW,M,M,8000.00,9500.00,M,M,M,M,M,M,M,M,M,38.77,K10U 212055Z AUTO 20010KT 10SM FEW080 FEW095 07/M00 A2976 RMK AO2,M
TMT,2024-01-21 20:55,-117.1971,39.4643,1749.34,47.00,30.60,52.66,220.00,3.00,0.00,29.80,M,10.00,M,CLR,M,M,M,M,M,M,M,M,M,M,M,M,M,M,45.84,KTMT 212055Z AUTO 22003KT 10SM CLR 08/M01 A2980 RMK AO2 T00831008,M
LSV,2024-01-21 20:55,-115.0343,36.2362,570.00,56.00,46.00,69.05,50.00,3.00,T,29.81,1008.90,10.00,M,SCT,BKN,BKN,M,2800.00,4100.00,4900.00,M,-RA,M,M,M,M,M,M,56.00,KLSV 212055Z AUTO 05003KT 10SM -RA SCT028 BKN041 BKN049 13/08 A2981 RMK AO2 RAB53 SLP089 P0000 60000 T01330077 57020 $,M
EKO,2024-01-21 20:56,-115.7860,40.8242,1367.00,44.00,36.00,73.27,250.00,4.00,0.00,29.80,1008.50,10.00,M,OVC,M,M,M,6000.00,M,M,M,M,M,M,M,M,M,M,41.43,KEKO 212056Z AUTO 25004KT 10SM OVC060 07/02 A2980 RMK AO2 SLP085 T00670022 58011,M
NFL,2024-01-21 20:56,-118.7010,39.4166,1199.00,55.00,33.00,43.14,200.00,8.00,0.00,29.74,1005.20,10.00,M,FEW,SCT,BKN,BKN,9000.00,12000.00,16000.00,20000.00,M,M,M,M,M,M,M,55.00,KNFL 212056Z 20008KT 10SM FEW090 SCT120 BKN160 BKN200 13/01 A2974 RMK AO2 SLP052 T01280006 58020,M
HND,2024-01-21 20:56,-115.1344,35.9729,742.79,53.00,44.00,71.39,210.00,10.00,T,29.86,1012.50,10.00,M,OVC,M,M,M,4800.00,M,M,M,-RA,M,M,M,M,M,M,53.00,KHND 212056Z 21010KT 10SM -RA OVC048 12/07 A2986 RMK AO2 RAE20B38 SLP125 P0000 60000 T01170067 56018,M
TPH,2024-01-21 20:56,-117.0904,38.0505,1654.00,43.00,34.00,70.30,110.00,6.00,0.00,29.84,1009.30,10.00,M,OVC,M,M,M,2300.00,M,M,M,M,M,M,M,M,M,M,38.78,KTPH 212056Z AUTO 11006KT 10SM OVC023 06/01 A2984 RMK AO2 SLP093 T00610011 58010,M
LAS,2024-01-21 20:56,-115.1634,36.0719,663.00,55.00,46.00,71.60,200.00,4.00,T,29.84,1009.90,10.00,M,FEW,OVC,M,M,3000.00,5500.00,M,M,-RA,M,M,M,M,M,M,55.00,KLAS 212056Z 20004KT 10SM -RA FEW030 OVC055 13/08 A2984 RMK AO2 RAB22 SLP099 P0000 60000 T01280078 56016,M
WMC,2024-01-21 20:56,-117.8072,40.9019,1315.00,54.00,32.00,42.98,190.00,10.00,0.00,29.74,1005.40,10.00,M,CLR,M,M,M,M,M,M,M,M,M,M,M,M,M,M,54.00,KWMC 212056Z AUTO 19010KT 10SM CLR 12/00 A2974 RMK AO2 SLP054 T01220000 58020,M
LSV,2024-01-21 21:05,-115.0343,36.2362,570.00,55.40,46.40,71.64,350.00,4.00,0.00,29.81,1008.90,9.00,M,BKN,BKN,M,M,2900.00,4600.00,M,M,-RA,M,M,M,M,M,M,55.40,KLSV 212105Z AUTO 35004KT 9SM -RA BKN029 BKN046 13/08 A2981 RMK AO2 CIG 029V043 SLP089 $,M
05U,2024-01-21 21:10,-116.0051,39.6042,1811.23,46.40,28.40,49.24,0.00,0.00,0.00,29.83,M,10.00,M,M,M,M,M,M,M,M,M,M,M,M,M,M,M,M,46.40,K05U 212110Z AUTO 00000KT 10SM 08/M02 A2983 RMK A01,M
BVU,2024-01-21 21:15,-114.8611,35.9475,671.00,55.40,46.40,71.64,140.00,5.00,0.00,29.84,M,10.00,M,FEW,SCT,BKN,M,2800.00,4300.00,5000.00,M,M,M,M,M,M,M,M,55.40,KBVU 212115Z AUTO 14005KT 10SM FEW028 SCT043 BKN050 13/08 A2984 RMK AO2,M
CXP,2024-01-21 21:15,-119.7326,39.1923,1431.00,51.80,32.00,46.59,240.00,8.00,0.00,29.76,M,10.00,M,BKN,M,M,M,5000.00,M,M,M,M,M,M,M,M,M,M,51.80,KCXP 212115Z AUTO 24008KT 200V260 10SM BKN050 11/M00 A2976 RMK AO2,M
RTS,2024-01-21 21:15,-119.8764,39.6682,1539.00,48.20,32.00,53.27,230.00,11.00,0.00,29.77,M,10.00,17.00,CLR,M,M,M,M,M,M,M,M,M,M,M,M,M,M,42.94,KRTS 212115Z AUTO 23011G17KT 10SM CLR 09/M00 A2977 RMK AO2,M
BAM,2024-01-21 21:15,-116.8743,40.5990,1382.36,53.60,35.60,50.36,140.00,4.00,0.00,29.77,M,10.00,M,SCT,M,M,M,6000.00,M,M,M,M,M,M,M,M,M,M,53.60,KBAM 212115Z AUTO 14004KT 10SM SCT060 12/02 A2977 RMK AO1,M
HTH,2024-01-21 21:15,-118.6315,38.5448,1282.89,57.20,32.00,38.26,70.00,8.00,0.00,29.76,M,10.00,16.00,FEW,M,M,M,8000.00,M,M,M,M,M,M,M,M,M,M,57.20,KHTH 212115Z AUTO 07008G16KT 10SM FEW080 14/M00 A2976 RMK A01,M
10U,2024-01-21 21:15,-116.1876,41.9532,1637.00,42.80,32.00,65.38,190.00,8.00,0.00,29.76,M,10.00,M,CLR,M,M,M,M,M,M,M,M,M,M,M,M,M,M,37.42,K10U 212115Z AUTO 19008KT 10SM CLR 06/M00 A2976 RMK AO2,M
TMT,2024-01-21 21:15,-117.1971,39.4643,1749.34,47.00,29.70,50.77,190.00,3.00,0.00,29.80,M,10.00,M,CLR,M,M,M,M,M,M,M,M,M,M,M,M,M,M,45.84,KTMT 212115Z AUTO 19003KT 10SM CLR 08/M01 A2980 RMK AO2 T00841013,M
DRA,2024-01-21 21:16,-116.0278,36.6206,1009.00,49.00,43.00,79.68,250.00,7.00,0.00,29.85,M,10.00,M,FEW,BKN,OVC,M,1800.00,3800.00,4500.00,M,M,M,M,M,M,M,M,45.50,KDRA 212116Z AUTO 25007KT 10SM FEW018 BKN038 OVC045 09/06 A2985 RMK AO2 T00940061 $,M
INS,2024-01-21 21:20,-115.6733,36.5872,955.00,50.00,42.80,76.18,10.00,5.00,0.00,29.85,1009.30,10.00,M,FEW,BKN,BKN,OVC,1100.00,1700.00,3200.00,4100.00,M,M,M,M,M,M,M,50.00,KINS 212120Z AUTO 01005KT 10SM FEW011 BKN017 BKN032 OVC041 10/06 A2985 RMK AO2 SLP093,M
INS,2024-01-21 21:22,-115.6733,36.5872,955.00,50.00,42.80,76.18,10.00,4.00,0.00,29.85,1009.30,10.00,M,SCT,BKN,BKN,OVC,1400.00,2400.00,3200.00,4100.00,-RA,M,M,M,M,M,M,50.00,KINS 212122Z AUTO 01004KT 10SM -RA SCT014 BKN024 BKN032 OVC041 10/06 A2985 RMK AO2 RAB22 SLP093,M
INS,2024-01-21 21:27,-115.6733,36.5872,955.00,50.00,42.80,76.18,350.00,4.00,0.00,29.85,1009.30,10.00,M,SCT,SCT,OVC,M,1600.00,2400.00,3800.00,M,-RA,M,M,M,M,M,M,50.00,KINS 212127Z AUTO 35004KT 10SM -RA SCT016 SCT024 OVC038 10/06 A2985 RMK AO2 RAB22 SLP093,M
05U,2024-01-21 21:30,-116.0051,39.6042,1811.23,46.40,32.00,57.00,M,5.00,0.00,29.83,M,10.00,M,M,M,M,M,M,M,M,M,M,M,M,M,M,M,M,43.50,K05U 212130Z AUTO VRB05KT 10SM 08/M00 A2983 RMK A01,M
10U,2024-01-21 21:30,-116.1876,41.9532,1637.00,42.80,32.00,65.38,180.00,7.00,0.00,29.76,M,10.00,M,CLR,M,M,M,M,M,M,M,M,M,M,M,M,M,M,37.94,K10U 212130Z AUTO 18007KT 10SM CLR 06/M00 A2976 RMK AO2,M
BVU,2024-01-21 21:35,-114.8611,35.9475,671.00,53.60,46.40,76.50,110.00,6.00,0.00,29.84,M,7.00,M,FEW,BKN,OVC,M,2800.00,4100.00,7000.00,M,-RA,M,M,M,M,M,M,53.60,KBVU 212135Z AUTO 11006KT 7SM -RA FEW028 BKN041 OVC070 12/08 A2984 RMK AO2,M
CXP,2024-01-21 21:35,-119.7326,39.1923,1431.00,53.60,32.00,43.61,240.00,7.00,0.00,29.76,M,10.00,16.00,BKN,M,M,M,5000.00,M,M,M,M,M,M,M,M,M,M,53.60,KCXP 212135Z AUTO 24007G16KT 10SM BKN050 12/M00 A2976 RMK AO2,M
INS,2024-01-21 21:35,-115.6733,36.5872,955.00,50.00,42.80,76.18,350.00,4.00,0.00,29.85,1009.30,10.00,M,FEW,OVC,M,M,1600.00,3600.00,M,M,M,M,M,M,M,M,M,50.00,KINS 212135Z AUTO 35004KT 10SM FEW016 OVC036 10/06 A2985 RMK AO2 RAB22E33DZB33E35 SLP093,M
RTS,2024-01-21 21:35,-119.8764,39.6682,1539.00,48.20,32.00,53.27,M,6.00,0.00,29.76,M,10.00,16.00,CLR,M,M,M,M,M,M,M,M,M,M,M,M,M,M,45.04,KRTS 212135Z AUTO VRB06G16KT 10SM CLR 09/00 A2976 RMK AO2,M
BAM,2024-01-21 21:35,-116.8743,40.5990,1382.36,53.60,37.40,54.07,100.00,3.00,0.00,29.76,M,10.00,M,BKN,M,M,M,4600.00,M,M,M,M,M,M,M,M,M,M,53.60,KBAM 212135Z AUTO 10003KT 10SM BKN046 12/03 A2976 RMK AO1,M
HTH,2024-01-21 21:35,-118.6315,38.5448,1282.89,57.20,32.00,38.26,70.00,8.00,0.00,29.75,M,10.00,M,BKN,M,M,M,8500.00,M,M,M,M,M,M,M,M,M,M,57.20,KHTH 212135Z AUTO 07008KT 10SM BKN085 14/M00 A2975 RMK A01,M
LSV,2024-01-21 21:35,-115.0343,36.2362,570.00,53.60,48.20,81.87,350.00,4.00,0.00,29.81,1008.90,9.00,M,SCT,M,M,M,2400.00,M,M,M,-RA,M,M,M,M,M,M,53.60,KLSV 212135Z AUTO 35004KT 9SM -RA SCT024 12/09 A2981 RMK AO2 SLP089 $,M
TMT,2024-01-21 21:35,-117.1971,39.4643,1749.34,46.60,31.00,54.33,290.00,3.00,0.00,29.80,M,10.00,M,CLR,M,M,M,M,M,M,M,M,M,M,M,M,M,M,45.38,KTMT 212135Z AUTO 29003KT 10SM CLR 08/M01 A2980 RMK AO2 T00811006,M
LSV,2024-01-21 21:46,-115.0343,36.2362,570.00,53.60,48.20,81.87,10.00,4.00,0.00,29.82,1009.20,10.00,M,FEW,M,M,M,2400.00,M,M,M,M,M,M,M,M,M,M,53.60,KLSV 212146Z AUTO 01004KT 10SM FEW024 12/09 A2982 RMK AO2 RAE46 SLP092 $,M
05U,2024-01-21 21:50,-116.0051,39.6042,1811.23,44.60,32.00,61.03,330.00,6.00,0.00,29.82,M,10.00,M,M,M,M,M,M,M,M,M,M,M,M,M,M,M,M,40.71,K05U 212150Z AUTO 33006KT 10SM 07/00 A2982 RMK A01,M
P68,2024-01-21 21:53,-116.0056,39.6014,1993.00,43.00,32.00,64.88,150.00,5.00,0.00,29.80,1006.40,M,M,M,M,M,M,M,M,M,M,M,M,M,M,M,M,M,39.46,KP68 212153Z AUTO 15005KT 06/00 A2980 RMK AO1 SLP064 T00610000,M
DRA,2024-01-21 21:53,-116.0278,36.6206,1009.00,50.00,42.00,73.87,240.00,6.00,0.00,29.85,1009.20,10.00,M,FEW,SCT,BKN,M,3200.00,4300.00,5000.00,M,M,M,M,M,M,M,M,50.00,KDRA 212153Z AUTO 24006KT 10SM FEW032 SCT043 BKN050 10/06 A2985 RMK AO2 SLP092 T01000056 $,M
ELY,2024-01-21 21:53,-114.8453,39.2950,1909.00,42.00,32.00,67.42,0.00,0.00,0.00,29.82,1007.80,10.00,M,SCT,M,M,M,5000.00,M,M,M,M,M,M,M,M,M,M,42.00,KELY 212153Z AUTO 00000KT 10SM SCT050 06/00 A2982 RMK AO2 SLP078 T00560000,M
VGT,2024-01-21 21:53,-115.1933,36.2111,667.00,54.00,47.00,77.12,20.00,3.00,T,29.84,1011.90,10.00,M,SCT,BKN,M,M,5500.00,9500.00,M,M,M,M,M,M,M,M,M,54.00,KVGT 212153Z 02003KT 10SM SCT055 BKN095 12/08 A2984 RMK AO2 RAE21 SLP119 P0000 T01220083,M
LOL,2024-01-21 21:53,-118.5701,40.0684,1192.43,52.00,35.00,52.15,190.00,6.00,0.00,29.73,1005.90,10.00,M,CLR,M,M,M,M,M,M,M,M,M,M,M,M,M,M,52.00,KLOL 212153Z AUTO 19006KT 10SM CLR 11/02 A2973 RMK AO2 SLP059 T01110017 $,M
BVU,2024-01-21 21:55,-114.8611,35.9475,671.00,53.60,48.20,81.87,310.00,5.00,0.00,29.84,M,1.75,11.00,SCT,BKN,OVC,M,500.00,2000.00,3100.00,M,RA,M,M,M,M,M,M,53.60,KBVU 212155Z AUTO 31005G11KT 1 3/4SM RA SCT005 BKN020 OVC031 12/09 A2984 RMK AO2 VIS 1V5,M
CXP,2024-01-21 21:55,-119.7326,39.1923,1431.00,51.80,32.00,46.59,240.00,9.00,0.00,29.77,M,10.00,15.00,BKN,M,M,M,5500.00,M,M,M,M,M,M,M,M,M,M,51.80,KCXP 212155Z AUTO 24009G15KT 10SM BKN055 11/M00 A2977 RMK AO2,M
INS,2024-01-21 21:55,-115.6733,36.5872,955.00,49.50,42.60,77.01,0.00,0.00,T,29.85,1009.30,10.00,M,OVC,M,M,M,3100.00,M,M,M,M,M,M,M,M,M,M,49.50,KINS 212155Z AUTO 00000KT 10SM OVC031 10/06 A2985 RMK AO2 RAB22E33DZB33E35 SLP093 P0000 T00970059,M
RNO,2024-01-21 21:55,-119.7711,39.4839,1341.00,55.00,33.00,43.14,0.00,0.00,0.00,29.73,1004.70,10.00,M,FEW,SCT,BKN,BKN,6000.00,11000.00,15000.00,21000.00,M,M,M,M,M,M,M,55.00,KRNO 212155Z 00000KT 10SM FEW060 SCT110 BKN150 BKN210 13/01 A2973 RMK AO2 SLP047 ACSL DSNT ALQDS CLDS TPG MTNS DSNT S THRU W T01280006,M
RTS,2024-01-21 21:55,-119.8764,39.6682,1539.00,48.20,32.00,53.27,230.00,7.00,0.00,29.76,M,10.00,14.00,SCT,M,M,M,4300.00,M,M,M,M,M,M,M,M,M,M,44.53,KRTS 212155Z AUTO 23007G14KT 10SM SCT043 09/M00 A2976 RMK AO2,M
BAM,2024-01-21 21:55,-116.8743,40.5990,1382.36,53.60,35.60,50.36,0.00,0.00,0.00,29.76,M,10.00,M,BKN,BKN,M,M,4600.00,5000.00,M,M,M,M,M,M,M,M,M,53.60,KBAM 212155Z AUTO 00000KT 10SM BKN046 BKN050 12/02 A2976 RMK AO1,M
HTH,2024-01-21 21:55,-118.6315,38.5448,1282.89,57.20,32.00,38.26,90.00,7.00,0.00,29.75,M,10.00,M,FEW,M,M,M,8500.00,M,M,M,M,M,M,M,M,M,M,57.20,KHTH 212155Z AUTO 09007KT 10SM FEW085 14/M00 A2975 RMK A01,M
10U,2024-01-21 21:55,-116.1876,41.9532,1637.00,42.80,32.00,65.38,170.00,8.00,0.00,29.75,M,10.00,M,CLR,M,M,M,M,M,M,M,M,M,M,M,M,M,M,37.42,K10U 212155Z AUTO 17008KT 10SM CLR 06/M00 A2975 RMK AO2,M
LSV,2024-01-21 21:55,-115.0343,36.2362,570.00,53.80,47.50,79.16,10.00,4.00,0.07,29.82,1009.20,10.00,M,CLR,M,M,M,M,M,M,M,M,M,M,M,M,M,M,53.80,KLSV 212155Z AUTO 01004KT 10SM CLR 12/09 A2982 RMK AO2 RAE46 SLP092 P0007 T01210086 $,M
TMT,2024-01-21 21:55,-117.1971,39.4643,1749.34,46.40,29.30,51.09,0.00,0.00,0.00,29.79,M,10.00,M,CLR,M,M,M,M,M,M,M,M,M,M,M,M,M,M,46.40,KTMT 212155Z AUTO 00000KT 10SM CLR 08/M01 A2979 RMK AO2 T00801015,M
EKO,2024-01-21 21:56,-115.7860,40.8242,1367.00,47.00,37.00,68.02,0.00,0.00,0.00,29.78,1007.80,10.00,M,FEW,M,M,M,11000.00,M,M,M,M,M,M,M,M,M,M,47.00,KEKO 212156Z AUTO 00000KT 10SM FEW110 08/03 A2978 RMK AO2 SLP078 T00830028,M
NFL,2024-01-21 21:56,-118.7010,39.4166,1199.00,57.00,33.00,40.12,190.00,6.00,0.00,29.73,1004.70,10.00,M,FEW,FEW,SCT,BKN,6000.00,9000.00,12000.00,18000.00,M,M,M,M,M,M,M,57.00,KNFL 212156Z 19006KT 10SM FEW060 FEW090 SCT120 BKN180 14/01 A2973 RMK AO2 SLP047 T01390006,M
HND,2024-01-21 21:56,-115.1344,35.9729,742.79,53.00,43.00,68.71,210.00,11.00,T,29.86,1012.40,10.00,M,FEW,SCT,OVC,M,3900.00,5000.00,7000.00,M,M,M,M,M,M,M,M,53.00,KHND 212156Z 21011KT 10SM FEW039 SCT050 OVC070 12/06 A2986 RMK AO2 RAE17 SLP124 P0000 T01170061,M
TPH,2024-01-21 21:56,-117.0904,38.0505,1654.00,44.00,34.00,67.66,130.00,6.00,0.00,29.82,1008.50,10.00,M,BKN,M,M,M,2800.00,M,M,M,M,M,M,M,M,M,M,39.98,KTPH 212156Z AUTO 13006KT 10SM BKN028 07/01 A2982 RMK AO2 SLP085 T00670011,M
LAS,2024-01-21 21:56,-115.1634,36.0719,663.00,56.00,44.00,63.99,200.00,4.00,T,29.84,1009.90,10.00,M,BKN,BKN,M,M,4800.00,6000.00,M,M,M,M,M,M,M,M,M,56.00,KLAS 212156Z 20004KT 10SM BKN048 BKN060 13/07 A2984 RMK AO2 RAE04 SLP099 P0000 T01330067,M
WMC,2024-01-21 21:56,-117.8072,40.9019,1315.00,54.00,32.00,42.98,220.00,8.00,0.00,29.73,1005.30,10.00,M,CLR,M,M,M,M,M,M,M,M,M,M,M,M,M,M,54.00,KWMC 212156Z AUTO 22008KT 10SM CLR 12/00 A2973 RMK AO2 SLP053 T01220000,M
RTS,2024-01-21 22:00,-119.8764,39.6682,1539.00,48.20,32.00,53.27,230.00,10.00,0.00,29.76,M,10.00,M,SCT,M,M,M,4200.00,M,M,M,M,M,M,M,M,M,M,43.28,KRTS 212200Z AUTO 23010KT 10SM SCT042 09/M00 A2976 RMK AO2,M
INS,2024-01-21 22:05,-115.6733,36.5872,955.00,50.00,42.80,76.18,10.00,3.00,0.00,29.85,1009.30,10.00,M,OVC,M,M,M,2900.00,M,M,M,M,M,M,M,M,M,M,50.00,KINS 212205Z AUTO 01003KT 10SM OVC029 10/06 A2985 RMK AO2 SLP093,M
05U,2024-01-21 22:10,-116.0051,39.6042,1811.23,46.40,32.00,57.00,300.00,6.00,0.00,29.82,M,10.00,M,M,M,M,M,M,M,M,M,M,M,M,M,M,M,M,42.87,K05U 212210Z AUTO 30006KT 10SM 08/00 A2982 RMK A01,M
BVU,2024-01-21 22:15,-114.8611,35.9475,671.00,51.80,48.20,87.47,0.00,0.00,0.00,29.85,M,10.00,M,FEW,SCT,BKN,M,500.00,3100.00,4500.00,M,-DZ,M,M,M,M,M,M,51.80,KBVU 212215Z AUTO 00000KT 10SM -DZ FEW005 SCT031 BKN045 11/09 A2985 RMK AO2,M
CXP,2024-01-21 22:15,-119.7326,39.1923,1431.00,51.80,32.00,46.59,230.00,10.00,0.00,29.76,M,10.00,M,FEW,BKN,M,M,5000.00,6500.00,M,M,M,M,M,M,M,M,M,51.80,KCXP 212215Z AUTO 23010KT 10SM FEW050 BKN065 11/M00 A2976 RMK AO2,M
BAM,2024-01-21 22:15,-116.8743,40.5990,1382.36,55.40,33.80,43.90,0.00,0.00,0.00,29.76,M,10.00,M,BKN,M,M,M,5000.00,M,M,M,M,M,M,M,M,M,M,55.40,KBAM 212215Z AUTO 00000KT 10SM BKN050 13/01 A2976 RMK AO1,M
HTH,2024-01-21 22:15,-118.6315,38.5448,1282.89,57.20,32.00,38.26,80.00,7.00,0.00,29.75,M,10.00,M,CLR,M,M,M,M,M,M,M,M,M,M,M,M,M,M,57.20,KHTH 212215Z AUTO 08007KT 10SM CLR 14/M00 A2975 RMK A01,M
10U,2024-01-21 22:15,-116.1876,41.9532,1637.00,42.80,32.00,65.38,160.00,7.00,0.00,29.76,M,10.00,M,FEW,M,M,M,3500.00,M,M,M,M,M,M,M,M,M,M,37.94,K10U 212215Z AUTO 16007KT 10SM FEW035 06/M00 A2976 RMK AO2,M
TMT,2024-01-21 22:15,-117.1971,39.4643,1749.34,47.50,28.00,46.47,0.00,0.00,0.00,29.79,M,10.00,M,CLR,M,M,M,M,M,M,M,M,M,M,M,M,M,M,47.50,KTMT 212215Z AUTO 00000KT 10SM CLR 09/M02 A2979 RMK AO2 T00861022,M
TPH,2024-01-21 22:19,-117.0904,38.0505,1654.00,44.00,33.00,65.01,110.00,5.00,0.00,29.83,M,10.00,M,FEW,M,M,M,2700.00,M,M,M,M,M,M,M,M,M,M,40.65,KTPH 212219Z AUTO 11005KT 10SM FEW027 07/01 A2983 RMK AO2 T00670006,M
INS,2024-01-21 22:20,-115.6733,36.5872,955.00,50.00,42.80,76.18,340.00,3.00,0.00,29.85,1009.30,10.00,M,FEW,OVC,M,M,1500.00,3100.00,M,M,M,M,M,M,M,M,M,50.00,KINS 212220Z AUTO 34003KT 10SM FEW015 OVC031 10/06 A2985 RMK AO2 SLP093,M
BVU,2024-01-21 22:35,-114.8611,35.9475,671.00,53.60,46.40,76.50,0.00,0.00,0.00,29.85,M,10.00,M,SCT,M,M,M,4400.00,M,M,M,-DZ,M,M,M,M,M,M,53.60,KBVU 212235Z AUTO 00000KT 10SM -DZ SCT044 12/08 A2985 RMK AO2,M
CXP,2024-01-21 22:35,-119.7326,39.1923,1431.00,51.80,32.00,46.59,230.00,9.00,0.00,29.76,M,10.00,M,FEW,SCT,M,M,5500.00,6500.00,M,M,M,M,M,M,M,M,M,51.80,KCXP 212235Z AUTO 23009KT 10SM FEW055 SCT065 11/M00 A2976 RMK AO2,M
05U,2024-01-21 22:35,-116.0051,39.6042,1811.23,42.80,32.00,65.38,320.00,4.00,0.00,29.82,M,10.00,M,M,M,M,M,M,M,M,M,M,M,M,M,M,M,M,40.03,K05U 212235Z AUTO 32004KT 10SM 06/M00 A2982 RMK A01,M
BAM,2024-01-21 22:35,-116.8743,40.5990,1382.36,53.60,35.60,50.36,130.00,4.00,0.00,29.76,M,10.00,M,OVC,M,M,M,5000.00,M,M,M,M,M,M,M,M,M,M,53.60,KBAM 212235Z AUTO 13004KT 10SM OVC050 12/02 A2976 RMK AO1,M
HTH,2024-01-21 22:35,-118.6315,38.5448,1282.89,57.20,32.00,38.26,90.00,8.00,0.00,29.74,M,10.00,M,FEW,M,M,M,9500.00,M,M,M,M,M,M,M,M,M,M,57.20,KHTH 212235Z AUTO 09008KT 050V110 10SM FEW095 14/M00 A2974 RMK A01,M
10U,2024-01-21 22:35,-116.1876,41.9532,1637.00,42.80,32.00,65.38,170.00,8.00,0.00,29.76,M,10.00,M,CLR,M,M,M,M,M,M,M,M,M,M,M,M,M,M,37.42,K10U 212235Z AUTO 17008KT 10SM CLR 06/M00 A2976 RMK AO2,M
TMT,2024-01-21 22:35,-117.1971,39.4643,1749.34,47.50,29.00,48.42,0.00,0.00,0.00,29.79,M,10.00,M,CLR,M,M,M,M,M,M,M,M,M,M,M,M,M,M,47.50,KTMT 212235Z AUTO 00000KT 10SM CLR 09/M02 A2979 RMK AO2 T00861017,M
TPH,2024-01-21 22:46,-117.0904,38.0505,1654.00,45.00,34.00,65.13,M,3.00,0.00,29.83,M,10.00,M,BKN,M,M,M,2600.00,M,M,M,M,M,M,M,M,M,M,43.55,KTPH 212246Z AUTO VRB03KT 10SM BKN026 07/01 A2983 RMK AO2 T00720011,M
10U,2024-01-21 22:50,-116.1876,41.9532,1637.00,42.80,32.00,65.38,180.00,6.00,0.00,29.76,M,10.00,M,CLR,M,M,M,M,M,M,M,M,M,M,M,M,M,M,38.54,K10U 212250Z AUTO 18006KT 10SM CLR 06/M00 A2976 RMK AO2,M
05U,2024-01-21 22:50,-116.0051,39.6042,1811.23,42.80,32.00,65.38,310.00,4.00,0.00,29.82,M,10.00,M,M,M,M,M,M,M,M,M,M,M,M,M,M,M,M,40.03,K05U 212250Z AUTO 31004KT 10SM 06/M00 A2982 RMK A01,M
P68,2024-01-21 22:53,-116.0056,39.6014,1993.00,44.00,32.00,62.44,150.00,7.00,0.00,29.79,1006.40,M,M,M,M,M,M,M,M,M,M,M,M,M,M,M,M,M,39.41,KP68 212253Z AUTO 15007KT 07/00 A2979 RMK AO1 SLP064 T00670000,M
DRA,2024-01-21 22:53,-116.0278,36.6206,1009.00,50.00,42.00,73.87,210.00,4.00,0.00,29.84,1008.80,10.00,M,FEW,M,M,M,3500.00,M,M,M,M,M,M,M,M,M,M,50.00,KDRA 212253Z AUTO 21004KT 10SM FEW035 10/06 A2984 RMK AO2 SLP088 T01000056 $,M
ELY,2024-01-21 22:53,-114.8453,39.2950,1909.00,43.00,32.00,64.88,0.00,0.00,0.00,29.83,1007.70,10.00,M,FEW,OVC,M,M,2500.00,5000.00,M,M,M,M,M,M,M,M,M,43.00,KELY 212253Z AUTO 00000KT 10SM FEW025 OVC050 06/00 A2983 RMK AO2 SLP077 T00610000,M
VGT,2024-01-21 22:53,-115.1933,36.2111,667.00,54.00,47.00,77.12,20.00,3.00,0.00,29.84,1012.00,10.00,M,OVC,M,M,M,4500.00,M,M,M,M,M,M,M,M,M,M,54.00,KVGT 212253Z 02003KT 10SM OVC045 12/08 A2984 RMK AO2 SLP120 T01220083,M
LOL,2024-01-21 22:53,-118.5701,40.0684,1192.43,53.00,33.00,46.41,210.00,6.00,0.00,29.73,1006.00,10.00,M,FEW,M,M,M,9000.00,M,M,M,M,M,M,M,M,M,M,53.00,KLOL 212253Z AUTO 21006KT 10SM FEW090 12/01 A2973 RMK AO2 SLP060 T01170006 $,M
BVU,2024-01-21 22:55,-114.8611,35.9475,671.00,53.60,46.40,76.50,230.00,4.00,0.00,29.85,M,10.00,M,CLR,M,M,M,M,M,M,M,M,M,M,M,M,M,M,53.60,KBVU 212255Z AUTO 23004KT 10SM CLR 12/08 A2985 RMK AO2,M
CXP,2024-01-21 22:55,-119.7326,39.1923,1431.00,51.80,30.20,43.32,220.00,8.00,0.00,29.75,M,10.00,M,CLR,M,M,M,M,M,M,M,M,M,M,M,M,M,M,51.80,KCXP 212255Z AUTO 22008KT 200V260 10SM CLR 11/M01 A2975 RMK AO2,M
INS,2024-01-21 22:55,-115.6733,36.5872,955.00,50.00,42.00,73.87,0.00,0.00,0.00,29.85,1009.50,10.00,M,SCT,OVC,M,M,1500.00,3300.00,M,M,M,M,M,M,M,M,M,50.00,KINS 212255Z AUTO 00000KT 10SM SCT015 OVC033 10/06 A2985 RMK AO2 SLP095 T01000056,M
RNO,2024-01-21 22:55,-119.7711,39.4839,1341.00,54.00,32.00,42.98,210.00,8.00,0.00,29.72,1004.50,10.00,M,FEW,SCT,BKN,BKN,6000.00,12000.00,15000.00,22000.00,M,M,M,M,M,M,M,54.00,KRNO 212255Z 21008KT 10SM FEW060 SCT120 BKN150 BKN220 12/00 A2972 RMK AO2 SLP045 ACSL DSNT ALQDS APRNT ROTOR CLD SE THRU W CLDS TPG MTNS DSNT S THRU SW T01220000,M
BAM,2024-01-21 22:55,-116.8743,40.5990,1382.36,53.60,35.60,50.36,160.00,5.00,0.00,29.76,M,10.00,M,BKN,OVC,M,M,5000.00,5500.00,M,M,M,M,M,M,M,M,M,53.60,KBAM 212255Z AUTO 16005KT 10SM BKN050 OVC055 12/02 A2976 RMK AO1,M
HTH,2024-01-21 22:55,-118.6315,38.5448,1282.89,57.20,30.20,35.57,90.00,6.00,0.00,29.74,M,10.00,M,SCT,M,M,M,9500.00,M,M,M,M,M,M,M,M,M,M,57.20,KHTH 212255Z AUTO 09006KT 10SM SCT095 14/M01 A2974 RMK A01,M
LSV,2024-01-21 22:55,-115.0343,36.2362,570.00,54.30,46.20,74.01,70.00,5.00,0.00,29.82,1009.20,10.00,M,SCT,M,M,M,6000.00,M,M,M,M,M,M,M,M,M,M,54.30,KLSV 212255Z AUTO 07005KT 10SM SCT060 12/08 A2982 RMK AO2 SLP092 T01240079 $,M
TMT,2024-01-21 22:55,-117.1971,39.4643,1749.34,46.80,28.20,48.11,0.00,0.00,0.00,29.78,M,10.00,M,CLR,M,M,M,M,M,M,M,M,M,M,M,M,M,M,46.80,KTMT 212255Z AUTO 00000KT 10SM CLR 08/M02 A2978 RMK AO2 T00821021,M
EKO,2024-01-21 22:56,-115.7860,40.8242,1367.00,44.00,35.00,70.42,M,3.00,0.00,29.78,1008.00,10.00,M,BKN,M,M,M,7000.00,M,M,M,M,M,M,M,M,M,M,42.41,KEKO 212256Z AUTO VRB03KT 10SM BKN070 07/02 A2978 RMK AO2 SLP080 T00670017,M
HND,2024-01-21 22:56,-115.1344,35.9729,742.79,55.00,43.00,63.86,200.00,11.00,0.00,29.86,1012.40,10.00,M,CLR,M,M,M,M,M,M,M,M,M,M,M,M,M,M,55.00,KHND 212256Z 20011KT 10SM CLR 13/06 A2986 RMK AO2 SLP124 T01280061,M
TPH,2024-01-21 22:56,-117.0904,38.0505,1654.00,45.00,34.00,65.13,160.00,8.00,0.00,29.83,1008.90,10.00,M,OVC,M,M,M,2600.00,M,M,M,M,M,M,M,M,M,M,40.13,KTPH 212256Z AUTO 16008KT 10SM OVC026 07/01 A2983 RMK AO2 SLP089 T00720011,M
LAS,2024-01-21 22:56,-115.1634,36.0719,663.00,58.00,43.00,57.30,160.00,3.00,0.00,29.84,1009.90,10.00,M,SCT,BKN,BKN,BKN,4800.00,6000.00,16000.00,25000.00,M,M,M,M,M,M,M,58.00,KLAS 212256Z 16003KT 10SM SCT048 BKN060 BKN160 BKN250 14/06 A2984 RMK AO2 SLP099 T01440061,M
WMC,2024-01-21 22:56,-117.8072,40.9019,1315.00,55.00,32.00,41.44,210.00,7.00,0.00,29.73,1005.10,10.00,M,FEW,M,M,M,5000.00,M,M,M,M,M,M,M,M,M,M,55.00,KWMC 212256Z AUTO 21007KT 10SM FEW050 13/00 A2973 RMK AO2 SLP051 T01280000,M
INS,2024-01-21 23:10,-115.6733,36.5872,955.00,50.00,41.00,71.07,0.00,0.00,0.00,29.85,1009.50,10.00,M,SCT,SCT,OVC,M,1600.00,2600.00,3800.00,M,M,M,M,M,M,M,M,50.00,KINS 212310Z AUTO 00000KT 10SM SCT016 SCT026 OVC038 10/05 A2985 RMK AO2 SLP095,M
05U,2024-01-21 23:10,-116.0051,39.6042,1811.23,44.60,32.00,61.03,320.00,6.00,0.00,29.82,M,10.00,M,M,M,M,M,M,M,M,M,M,M,M,M,M,M,M,40.71,K05U 212310Z AUTO 32006KT 10SM 07/M00 A2982 RMK A01,M
BVU,2024-01-21 23:15,-114.8611,35.9475,671.00,55.40,44.60,66.91,210.00,5.00,0.00,29.85,M,10.00,M,CLR,M,M,M,M,M,M,M,M,M,M,M,M,M,M,55.40,KBVU 212315Z AUTO 21005KT 10SM CLR 13/07 A2985 RMK AO2,M
CXP,2024-01-21 23:15,-119.7326,39.1923,1431.00,51.80,30.20,43.32,250.00,8.00,0.00,29.75,M,10.00,M,CLR,M,M,M,M,M,M,M,M,M,M,M,M,M,M,51.80,KCXP 212315Z AUTO 25008KT 10SM CLR 11/M01 A2975 RMK AO2,M
BAM,2024-01-21 23:15,-116.8743,40.5990,1382.36,53.60,35.60,50.36,150.00,4.00,0.00,29.76,M,10.00,M,OVC,M,M,M,5000.00,M,M,M,M,M,M,M,M,M,M,53.60,KBAM 212315Z AUTO 15004KT 10SM OVC050 12/02 A2976 RMK AO1,M
HTH,2024-01-21 23:15,-118.6315,38.5448,1282.89,57.20,30.20,35.57,90.00,5.00,0.00,29.75,M,10.00,10.00,SCT,M,M,M,9000.00,M,M,M,M,M,M,M,M,M,M,57.20,KHTH 212315Z AUTO 09005G10KT 10SM SCT090 14/M01 A2975 RMK A01,M
10U,2024-01-21 23:15,-116.1876,41.9532,1637.00,42.80,32.00,65.38,180.00,7.00,0.00,29.77,M,10.00,M,CLR,M,M,M,M,M,M,M,M,M,M,M,M,M,M,37.94,K10U 212315Z AUTO 18007KT 10SM CLR 06/M00 A2977 RMK AO2,M
TMT,2024-01-21 23:15,-117.1971,39.4643,1749.34,48.00,28.40,46.36,0.00,0.00,0.00,29.79,M,10.00,M,CLR,M,M,M,M,M,M,M,M,M,M,M,M,M,M,48.00,KTMT 212315Z AUTO 00000KT 10SM CLR 09/M02 A2979 RMK AO2 T00881020,M
LSV,2024-01-21 23:25,-115.0343,36.2362,570.00,55.40,46.40,71.64,70.00,6.00,0.00,29.83,1009.60,10.00,M,OVC,M,M,M,4900.00,M,M,M,M,M,M,M,M,M,M,55.40,KLSV 212325Z AUTO 07006KT 10SM OVC049 13/08 A2983 RMK AO2 SLP096 $,M
05U,2024-01-21 23:30,-116.0051,39.6042,1811.23,42.80,32.00,65.38,310.00,7.00,0.00,29.82,M,10.00,M,M,M,M,M,M,M,M,M,M,M,M,M,M,M,M,37.94,K05U 212330Z AUTO 31007KT 10SM 06/00 A2982 RMK A01,M
HTH,2024-01-21 23:30,-118.6315,38.5448,1282.89,57.20,30.20,35.57,130.00,4.00,0.00,29.74,M,10.00,12.00,SCT,M,M,M,9500.00,M,M,M,M,M,M,M,M,M,M,57.20,KHTH 212330Z AUTO 13004G12KT 10SM SCT095 14/M01 A2974 RMK A01,M
BVU,2024-01-21 23:35,-114.8611,35.9475,671.00,55.40,42.80,62.46,0.00,0.00,0.00,29.85,M,10.00,M,FEW,M,M,M,7500.00,M,M,M,M,M,M,M,M,M,M,55.40,KBVU 212335Z AUTO 00000KT 10SM FEW075 13/06 A2985 RMK AO2,M
CXP,2024-01-21 23:35,-119.7326,39.1923,1431.00,53.60,30.20,40.54,220.00,7.00,0.00,29.75,M,10.00,M,CLR,M,M,M,M,M,M,M,M,M,M,M,M,M,M,53.60,KCXP 212335Z AUTO 22007KT 10SM CLR 12/M01 A2975 RMK AO2,M
BAM,2024-01-21 23:35,-116.8743,40.5990,1382.36,53.60,35.60,50.36,200.00,6.00,0.00,29.76,M,10.00,M,OVC,M,M,M,5000.00,M,M,M,M,M,M,M,M,M,M,53.60,KBAM 212335Z AUTO 20006KT 10SM OVC050 12/02 A2976 RMK AO1,M
10U,2024-01-21 23:35,-116.1876,41.9532,1637.00,42.80,32.00,65.38,170.00,6.00,0.00,29.78,M,10.00,M,CLR,M,M,M,M,M,M,M,M,M,M,M,M,M,M,38.54,K10U 212335Z AUTO 17006KT 10SM CLR 06/M00 A2978 RMK AO2,M
TMT,2024-01-21 23:35,-117.1971,39.4643,1749.34,48.20,28.40,46.02,210.00,4.00,0.00,29.79,M,10.00,M,CLR,M,M,M,M,M,M,M,M,M,M,M,M,M,M,46.34,KTMT 212335Z AUTO 21004KT 10SM CLR 09/M02 A2979 RMK AO2 T00901020,M
LSV,2024-01-21 23:45,-115.0343,36.2362,570.00,55.40,48.20,76.66,90.00,8.00,0.00,29.83,1009.60,10.00,M,SCT,BKN,M,M,5000.00,6000.00,M,M,M,M,M,M,M,M,M,55.40,KLSV 212345Z AUTO 09008KT 10SM SCT050 BKN060 13/09 A2983 RMK AO2 SLP096 $,M
05U,2024-01-21 23:50,-116.0051,39.6042,1811.23,41.00,32.00,70.08,300.00,7.00,0.00,29.83,M,10.00,M,M,M,M,M,M,M,M,M,M,M,M,M,M,M,M,35.75,K05U 212350Z AUTO 30007KT 10SM 05/00 A2983 RMK A01,M
P68,2024-01-21 23:53,-116.0056,39.6014,1993.00,41.00,32.00,70.08,150.00,7.00,0.00,29.80,1007.30,M,M,M,M,M,M,M,M,M,M,M,M,M,M,M,M,M,35.75,KP68 212353Z AUTO 15007KT 05/00 A2980 RMK AO1 SLP073 T00500000 10078 20044 53000,M
DRA,2024-01-21 23:53,-116.0278,36.6206,1009.00,51.00,42.00,71.18,220.00,8.00,0.00,29.86,1009.30,10.00,M,CLR,M,M,M,M,M,M,M,M,M,M,M,M,M,M,51.00,KDRA 212353Z AUTO 22008KT 10SM CLR 11/06 A2986 RMK AO2 SLP093 60003 T01060056 10111 20078 53001 $,M
ELY,2024-01-21 23:53,-114.8453,39.2950,1909.00,40.00,31.00,69.97,190.00,4.00,0.00,29.83,1008.20,10.00,M,FEW,M,M,M,5000.00,M,M,M,M,M,M,M,M,M,M,36.76,KELY 212353Z AUTO 19004KT 10SM FEW050 04/M01 A2983 RMK AO2 SLP082 T00441006 10061 20022 50001,M
VGT,2024-01-21 23:53,-115.1933,36.2111,667.00,54.00,46.00,74.26,70.00,4.00,0.00,29.85,1012.60,10.00,M,BKN,M,M,M,4600.00,M,M,M,M,M,M,M,M,M,M,54.00,KVGT 212353Z 07004KT 10SM BKN046 12/08 A2985 RMK AO2 SLP126 60001 T01220078 10128 20106 53005,M
LOL,2024-01-21 23:53,-118.5701,40.0684,1192.43,53.00,33.00,46.41,190.00,8.00,0.00,29.72,1005.70,10.00,M,CLR,M,M,M,M,M,M,M,M,M,M,M,M,M,M,53.00,KLOL 212353Z AUTO 19008KT 10SM CLR 12/01 A2972 RMK AO2 SLP057 T01170006 10128 20072 56008 $,M
BVU,2024-01-21 23:55,-114.8611,35.9475,671.00,55.40,42.80,62.46,0.00,0.00,0.00,29.86,M,10.00,M,BKN,BKN,M,M,5500.00,7500.00,M,M,M,M,M,M,M,M,M,55.40,KBVU 212355Z AUTO 00000KT 10SM BKN055 BKN075 13/06 A2986 RMK AO2,M
CXP,2024-01-21 23:55,-119.7326,39.1923,1431.00,51.80,30.20,43.32,230.00,8.00,0.00,29.75,M,10.00,13.00,CLR,M,M,M,M,M,M,M,M,M,M,M,M,M,M,51.80,KCXP 212355Z AUTO 23008G13KT 210V270 10SM CLR 11/M01 A2975 RMK AO2,M
INS,2024-01-21 23:55,-115.6733,36.5872,955.00,50.00,42.00,73.87,0.00,0.00,0.00,29.86,1009.90,10.00,M,OVC,M,M,M,4300.00,M,M,M,M,M,M,M,M,M,M,50.00,KINS 212355Z AUTO 00000KT 10SM OVC043 10/06 A2986 RMK AO2 SLP099 60002 T01010055 10104 20077 53005,M
RNO,2024-01-21 23:55,-119.7711,39.4839,1341.00,53.00,32.00,44.58,150.00,15.00,0.00,29.72,1004.40,10.00,M,FEW,SCT,BKN,BKN,6000.00,12000.00,15000.00,22000.00,M,M,M,M,M,M,M,53.00,KRNO 212355Z 15015KT 10SM FEW060 SCT120 BKN150 BKN220 12/00 A2972 RMK AO2 SLP044 ACSL ALQDS MTN TOPS OBSCD DSNT SW T01170000 10133 20078 56007,M
BAM,2024-01-21 23:55,-116.8743,40.5990,1382.36,53.60,35.60,50.36,200.00,6.00,0.00,29.76,M,10.00,M,SCT,M,M,M,5000.00,M,M,M,M,M,M,M,M,M,M,53.60,KBAM 212355Z AUTO 20006KT 10SM SCT050 12/02 A2976 RMK AO1,M
HTH,2024-01-21 23:55,-118.6315,38.5448,1282.89,55.40,32.00,40.84,70.00,6.00,0.00,29.74,M,10.00,M,FEW,M,M,M,9000.00,M,M,M,M,M,M,M,M,M,M,55.40,KHTH 212355Z AUTO 07006KT 10SM FEW090 13/M00 A2974 RMK A01,M
TMT,2024-01-21 23:55,-117.1971,39.4643,1749.34,47.50,28.40,47.24,0.00,0.00,0.00,29.79,M,10.00,M,CLR,M,M,M,M,M,M,M,M,M,M,M,M,M,M,47.50,KTMT 212355Z AUTO 00000KT 10SM CLR 09/M02 A2979 RMK AO2 T00861020 10091 20030,M
10U,2024-01-21 23:55,-116.1876,41.9532,1637.00,41.00,32.00,70.08,170.00,8.00,0.00,29.78,M,10.00,M,CLR,M,M,M,M,M,M,M,M,M,M,M,M,M,M,35.20,K10U 212355Z AUTO 17008KT 10SM CLR 05/M00 A2978 RMK AO2,M
LSV,2024-01-21 23:55,-115.0343,36.2362,570.00,54.50,49.00,81.63,80.00,9.00,0.00,29.83,1009.60,10.00,M,BKN,M,M,M,5500.00,M,M,M,M,M,M,M,M,M,M,54.50,KLSV 212355Z AUTO 08009KT 10SM BKN055 13/10 A2983 RMK AO2 SLP096 60007 T01250095 10138 20117 52006 $,M
EKO,2024-01-21 23:56,-115.7860,40.8242,1367.00,43.00,34.00,70.30,210.00,3.00,0.00,29.78,1008.50,10.00,M,CLR,M,M,M,M,M,M,M,M,M,M,M,M,M,M,41.26,KEKO 212356Z AUTO 21003KT 10SM CLR 06/01 A2978 RMK AO2 SLP085 T00610011 10083 20039 55004,M
NFL,2024-01-21 23:56,-118.7010,39.4166,1199.00,56.00,33.00,41.60,160.00,5.00,0.00,29.71,1004.40,10.00,M,CLR,M,M,M,M,M,M,M,M,M,M,M,M,M,M,56.00,KNFL 212356Z AUTO 16005KT 10SM CLR 13/01 A2971 RMK AO2 SLP044 T01330006 10144 20100 56008,M
HND,2024-01-21 23:56,-115.1344,35.9729,742.79,54.00,42.00,63.74,220.00,7.00,0.00,29.87,1012.90,10.00,M,FEW,M,M,M,5500.00,M,M,M,M,M,M,M,M,M,M,54.00,KHND 212356Z 22007KT 10SM FEW055 12/06 A2987 RMK AO2 SLP129 60000 T01220056 10133 20106 53003,M
TPH,2024-01-21 23:56,-117.0904,38.0505,1654.00,44.00,34.00,67.66,110.00,5.00,0.00,29.84,1009.30,10.00,M,BKN,M,M,M,2800.00,M,M,M,M,M,M,M,M,M,M,40.65,KTPH 212356Z AUTO 11005KT 10SM BKN028 07/01 A2984 RMK AO2 SLP093 T00670011 10072 20039 55001,M
LAS,2024-01-21 23:56,-115.1634,36.0719,663.00,56.00,48.00,74.45,50.00,8.00,0.00,29.86,1010.40,10.00,M,FEW,SCT,BKN,BKN,2000.00,5500.00,7000.00,25000.00,M,M,M,M,M,M,M,56.00,KLAS 212356Z 05008KT 10SM FEW020 SCT055 BKN070 BKN250 13/09 A2986 RMK AO2 SLP104 60000 T01330089 10144 20111 53005,M
WMC,2024-01-21 23:56,-117.8072,40.9019,1315.00,53.00,33.00,46.41,190.00,6.00,0.00,29.73,1005.50,10.00,M,SCT,M,M,M,9000.00,M,M,M,M,M,M,M,M,M,M,53.00,KWMC 212356Z AUTO 19006KT 10SM SCT090 12/01 A2973 RMK AO2 SLP055 T01170006 10128 20072 55000,M
