station,valid,lon,lat,elevation,tmpf,dwpf,relh,drct,sknt,p01i,alti,mslp,vsby,gust,skyc1,skyc2,skyc3,skyc4,skyl1,skyl2,skyl3,skyl4,wxcodes,ice_accretion_1hr,ice_accretion_3hr,ice_accretion_6hr,peak_wind_gust,peak_wind_drct,peak_wind_time,feel,metar,snowdepth
RTS,2022-08-16 00:15,-119.8764,39.6682,1539.00,91.40,21.20,7.77,300.00,17.00,0.00,30.05,M,10.00,M,CLR,M,M,M,M,M,M,M,M,M,M,M,M,M,M,85.96,KRTS 160015Z AUTO 30017KT 260V320 10SM CLR 33/M06 A3005 RMK AO2,M
BVU,2022-08-16 00:15,-114.8611,35.9475,671.00,96.80,55.40,25.15,M,3.00,0.00,29.83,M,M,M,M,M,M,M,M,M,M,M,M,M,M,M,M,M,M,95.14,KBVU 160015Z AUTO VRB03KT 36/13 A2983 RMK AO2 PWINO TSNO,M
BAM,2022-08-16 00:15,-116.8743,40.5990,1382.36,96.80,33.80,11.04,220.00,4.00,0.00,30.00,M,10.00,M,CLR,M,M,M,M,M,M,M,M,M,M,M,M,M,M,91.44,KBAM 160015Z AUTO 22004KT 10SM CLR 36/01 A3000 RMK AO1,M
HTH,2022-08-16 00:15,-118.6315,38.5448,1282.89,96.80,24.80,7.65,330.00,11.00,0.00,29.94,M,10.00,M,CLR,M,M,M,M,M,M,M,M,M,M,M,M,M,M,90.40,KHTH 160015Z AUTO 33011KT 10SM CLR 36/M04 A2994 RMK A01,M
TMT,2022-08-16 00:15,-117.1971,39.4643,1749.34,M,M,M,0.00,0.00,0.00,30.16,M,10.00,M,OVC,M,M,M,11000.00,M,M,M,M,M,M,M,M,M,M,M,KTMT 160015Z AUTO 00000KT 10SM OVC110 A3016 RMK AO2,M
MEV,2022-08-16 00:15,-119.7500,38.9963,1441.42,93.20,32.00,11.48,280.00,14.00,0.00,30.01,M,10.00,M,CLR,M,M,M,M,M,M,M,M,M,M,M,M,M,M,88.31,KMEV 160015Z AUTO 28014KT 10SM CLR 34/M00 A3001 RMK AO2,M
CXP,2022-08-16 00:15,-119.7326,39.1923,1431.00,95.00,28.40,9.38,280.00,11.00,0.00,30.02,M,10.00,18.00,CLR,M,M,M,M,M,M,M,M,M,M,M,M,M,M,89.27,KCXP 160015Z AUTO 28011G18KT 10SM CLR 35/M02 A3002 RMK AO2,M
INS,2022-08-16 00:21,-115.6733,36.5872,955.00,95.00,48.20,20.38,280.00,17.00,0.00,29.88,M,10.00,M,CLR,M,M,M,M,M,M,M,M,M,M,M,M,M,M,91.56,KINS 160021Z AUTO 28017KT 10SM CLR 35/09 A2988 RMK AO2 WSHFT 19 SLPNO,M
BVU,2022-08-16 00:35,-114.8611,35.9475,671.00,95.00,55.40,26.58,160.00,4.00,0.00,29.83,M,M,M,M,M,M,M,M,M,M,M,M,M,M,M,M,M,M,93.22,KBVU 160035Z AUTO 16004KT 35/13 A2983 RMK AO2 PWINO TSNO,M
CXP,2022-08-16 00:35,-119.7326,39.1923,1431.00,93.20,28.40,9.91,290.00,11.00,0.00,30.02,M,10.00,M,CLR,M,M,M,M,M,M,M,M,M,M,M,M,M,M,87.89,KCXP 160035Z AUTO 29011KT 10SM CLR 34/M02 A3002 RMK AO2,M
RTS,2022-08-16 00:35,-119.8764,39.6682,1539.00,91.40,21.20,7.77,290.00,12.00,0.00,30.05,M,10.00,20.00,CLR,M,M,M,M,M,M,M,M,M,M,M,M,M,M,85.96,KRTS 160035Z AUTO 29012G20KT 10SM CLR 33/M06 A3005 RMK AO2,M
MEV,2022-08-16 00:35,-119.7500,38.9963,1441.42,91.40,32.00,12.14,290.00,11.00,0.00,30.01,M,10.00,18.00,CLR,M,M,M,M,M,M,M,M,M,M,M,M,M,M,86.91,KMEV 160035Z AUTO 29011G18KT 10SM CLR 33/00 A3001 RMK AO2,M
BAM,2022-08-16 00:35,-116.8743,40.5990,1382.36,96.80,32.00,10.27,180.00,3.00,0.00,30.00,M,10.00,M,CLR,M,M,M,M,M,M,M,M,M,M,M,M,M,M,91.19,KBAM 160035Z AUTO 18003KT 10SM CLR 36/00 A3000 RMK AO1,M
TMT,2022-08-16 00:35,-117.1971,39.4643,1749.34,M,M,M,0.00,0.00,0.00,30.16,M,10.00,M,SCT,M,M,M,12000.00,M,M,M,M,M,M,M,M,M,M,M,KTMT 160035Z AUTO 00000KT 10SM SCT120 A3016 RMK AO2,M
HTH,2022-08-16 00:35,-118.6315,38.5448,1282.89,96.80,24.80,7.65,330.00,11.00,0.00,29.94,M,10.00,M,CLR,M,M,M,M,M,M,M,M,M,M,M,M,M,M,90.40,KHTH 160035Z AUTO 33011KT 10SM CLR 36/M04 A2994 RMK A01,M
P68,2022-08-16 00:53,-116.0056,39.6014,1993.00,83.00,41.00,22.70,180.00,10.00,0.00,30.12,1011.70,M,17.00,M,M,M,M,M,M,M,M,M,M,M,M,M,M,M,80.62,KP68 160053Z AUTO 18010G17KT 28/05 A3012 RMK AO1 SLP117 T02830050,M
ELY,2022-08-16 00:53,-114.8453,39.2950,1909.00,M,M,M,M,M,0.00,30.15,M,M,M,M,M,M,M,M,M,M,M,M,M,M,M,M,M,M,M,KELY 160053Z AUTO A3015 RMK AO2 SLPNO PWINO FZRANO $,M
LOL,2022-08-16 00:53,-118.5701,40.0684,1192.43,98.00,23.00,6.82,190.00,11.00,0.00,29.94,1009.70,10.00,M,CLR,M,M,M,M,M,M,M,M,M,M,M,M,M,M,91.33,KLOL 160053Z AUTO 19011KT 10SM CLR 37/M05 A2994 RMK AO2 SLP097 T03671050,M
VGT,2022-08-16 00:53,-115.1933,36.2111,667.00,97.00,56.00,25.45,M,4.00,0.00,29.82,1008.30,10.00,M,CLR,M,M,M,M,M,M,M,M,M,M,M,M,M,M,95.53,KVGT 160053Z VRB04KT 10SM CLR 36/13 A2982 RMK AO2 SLP083 T03610133,M
DRA,2022-08-16 00:53,-116.0278,36.6206,1009.00,91.00,52.00,26.57,230.00,14.00,0.00,29.91,1007.70,10.00,M,CLR,M,M,M,M,M,M,M,M,M,M,M,M,M,M,88.35,KDRA 160053Z AUTO 23014KT 10SM CLR 33/11 A2991 RMK AO2 WSHFT 2341 SLP077 T03280111,M
BAM,2022-08-16 00:55,-116.8743,40.5990,1382.36,95.00,32.00,10.85,0.00,0.00,0.00,30.00,M,10.00,M,CLR,M,M,M,M,M,M,M,M,M,M,M,M,M,M,89.71,KBAM 160055Z AUTO 00000KT 10SM CLR 35/00 A3000 RMK AO1,M
TMT,2022-08-16 00:55,-117.1971,39.4643,1749.34,M,M,M,0.00,0.00,0.00,30.15,M,10.00,M,SCT,M,M,M,12000.00,M,M,M,M,M,M,M,M,M,M,M,KTMT 160055Z AUTO 00000KT 10SM SCT120 A3015 RMK AO2,M
BVU,2022-08-16 00:55,-114.8611,35.9475,671.00,95.00,55.40,26.58,120.00,4.00,0.00,29.83,M,M,M,M,M,M,M,M,M,M,M,M,M,M,M,M,M,M,93.22,KBVU 160055Z AUTO 12004KT 35/13 A2983 RMK AO2 PWINO TSNO,M
CXP,2022-08-16 00:55,-119.7326,39.1923,1431.00,93.20,30.20,10.67,250.00,9.00,0.00,30.02,M,10.00,16.00,CLR,M,M,M,M,M,M,M,M,M,M,M,M,M,M,88.09,KCXP 160055Z AUTO 25009G16KT 220V290 10SM CLR 34/M01 A3002 RMK AO2,M
RNO,2022-08-16 00:55,-119.7711,39.4839,1341.00,97.00,28.90,9.00,250.00,5.00,0.00,29.98,1008.80,10.00,M,FEW,M,M,M,13000.00,M,M,M,M,M,M,M,M,M,M,90.97,KRNO 160055Z 25005KT 10SM FEW130 36/M02 A2998 RMK AO2 SLP088 T03611017,M
RTS,2022-08-16 00:55,-119.8764,39.6682,1539.00,91.40,21.20,7.77,290.00,14.00,0.00,30.05,M,10.00,M,CLR,M,M,M,M,M,M,M,M,M,M,M,M,M,M,85.96,KRTS 160055Z AUTO 29014KT 10SM CLR 33/M06 A3005 RMK AO2,M
MEV,2022-08-16 00:55,-119.7500,38.9963,1441.42,91.40,33.80,13.05,290.00,10.00,0.00,30.01,M,10.00,16.00,CLR,M,M,M,M,M,M,M,M,M,M,M,M,M,M,87.13,KMEV 160055Z AUTO 29010G16KT 10SM CLR 33/01 A3001 RMK AO2,M
HTH,2022-08-16 00:55,-118.6315,38.5448,1282.89,96.80,23.00,7.09,340.00,11.00,0.00,29.94,M,10.00,M,CLR,M,M,M,M,M,M,M,M,M,M,M,M,M,M,90.25,KHTH 160055Z AUTO 34011KT 10SM CLR 36/M05 A2994 RMK A01,M
TPH,2022-08-16 00:56,-117.0904,38.0505,1654.00,85.00,43.00,22.98,90.00,3.00,0.00,30.11,1011.30,10.00,M,FEW,M,M,M,12000.00,M,M,M,M,M,M,M,M,M,M,82.13,KTPH 160056Z AUTO 09003KT 10SM FEW120 29/06 A3011 RMK AO2 SLP113 T02940061,M
HND,2022-08-16 00:56,-115.1344,35.9729,742.79,95.00,58.00,29.09,60.00,3.00,0.00,29.87,1009.90,10.00,M,CLR,M,M,M,M,M,M,M,M,M,M,M,M,M,M,94.08,KHND 160056Z 06003KT 10SM CLR 35/14 A2987 RMK AO2 SLP099 T03500144,M
LAS,2022-08-16 00:56,-115.1634,36.0719,663.00,96.00,56.00,26.16,100.00,6.00,0.00,29.83,1007.20,10.00,M,FEW,BKN,BKN,BKN,10000.00,12000.00,17000.00,25000.00,M,M,M,M,M,M,M,94.55,KLAS 160056Z 10006KT 10SM FEW100 BKN120 BKN170 BKN250 36/13 A2983 RMK AO2 SLP072 VIRGA SE CB DSNT ALQDS T03560133,M
WMC,2022-08-16 00:56,-117.8072,40.9019,1315.00,98.00,33.00,10.32,180.00,8.00,0.00,29.97,1009.80,10.00,M,CLR,M,M,M,M,M,M,M,M,M,M,M,M,M,M,92.42,KWMC 160056Z AUTO 18008KT 150V220 10SM CLR 37/01 A2997 RMK AO2 SLP098 T03670006 $,M
EKO,2022-08-16 00:56,-115.7860,40.8242,1367.00,87.00,30.90,13.30,70.00,4.00,0.00,30.04,1011.60,10.00,M,CLR,M,M,M,M,M,M,M,M,M,M,M,M,M,M,83.51,KEKO 160056Z AUTO 07004KT 10SM CLR 31/M01 A3004 RMK AO2 SLP116 T03061006,M
NFL,2022-08-16 00:56,-118.7010,39.4166,1199.00,98.00,23.00,6.82,M,4.00,0.00,29.93,1011.00,10.00,M,FEW,FEW,M,M,10000.00,14000.00,M,M,M,M,M,M,M,M,M,91.33,KNFL 160056Z VRB04KT 10SM FEW100 FEW140 37/M05 A2993 RMK AO2 SLP110 T03671050,M
LSV,2022-08-16 00:58,-115.0343,36.2362,570.00,96.40,58.00,27.87,150.00,4.00,0.00,29.79,M,10.00,M,SCT,BKN,M,M,15000.00,18000.00,M,M,M,M,M,M,M,M,M,95.60,KLSV 160058Z 15004KT 10SM SCT150 BKN180 36/14 A2979 RMK AO2A SLPNO T03580144 $,M
INS,2022-08-16 00:58,-115.6733,36.5872,955.00,93.60,47.70,20.88,240.00,17.00,0.00,29.88,M,10.00,M,FEW,M,M,M,10000.00,M,M,M,M,M,M,M,M,M,M,90.11,KINS 160058Z AUTO 24017KT 10SM FEW100 34/09 A2988 RMK AO2 SLPNO T03420087,M
HTH,2022-08-16 01:15,-118.6315,38.5448,1282.89,96.80,24.80,7.65,340.00,12.00,0.00,29.94,M,10.00,20.00,CLR,M,M,M,M,M,M,M,M,M,M,M,M,M,M,90.40,KHTH 160115Z AUTO 34012G20KT 10SM CLR 36/M04 A2994 RMK A01,M
TMT,2022-08-16 01:15,-117.1971,39.4643,1749.34,M,M,M,130.00,5.00,0.00,30.14,M,10.00,M,SCT,M,M,M,11000.00,M,M,M,M,M,M,M,M,M,M,M,KTMT 160115Z AUTO 13005KT 10SM SCT110 A3014 RMK AO2,M
MEV,2022-08-16 01:15,-119.7500,38.9963,1441.42,89.60,32.00,12.84,300.00,12.00,0.00,30.01,M,10.00,M,CLR,M,M,M,M,M,M,M,M,M,M,M,M,M,M,85.54,KMEV 160115Z AUTO 30012KT 10SM CLR 32/00 A3001 RMK AO2,M
BAM,2022-08-16 01:15,-116.8743,40.5990,1382.36,95.00,32.00,10.85,0.00,0.00,0.00,29.99,M,10.00,M,CLR,M,M,M,M,M,M,M,M,M,M,M,M,M,M,89.71,KBAM 160115Z AUTO 00000KT 10SM CLR 35/00 A2999 RMK AO1,M
RTS,2022-08-16 01:15,-119.8764,39.6682,1539.00,89.60,23.00,8.87,310.00,14.00,0.00,30.05,M,10.00,22.00,CLR,M,M,M,M,M,M,M,M,M,M,M,M,M,M,84.75,KRTS 160115Z AUTO 31014G22KT 10SM CLR 32/M05 A3005 RMK AO2,M
CXP,2022-08-16 01:15,-119.7326,39.1923,1431.00,91.40,30.20,11.28,260.00,8.00,0.00,30.02,M,10.00,14.00,CLR,M,M,M,M,M,M,M,M,M,M,M,M,M,M,86.71,KCXP 160115Z AUTO 26008G14KT 10SM CLR 33/M01 A3002 RMK AO2,M
BVU,2022-08-16 01:15,-114.8611,35.9475,671.00,95.00,55.40,26.58,90.00,6.00,0.00,29.83,M,M,M,M,M,M,M,M,M,M,M,M,M,M,M,M,M,M,93.22,KBVU 160115Z AUTO 09006KT 35/13 A2983 RMK AO2 PWINO TSNO,M
HTH,2022-08-16 01:35,-118.6315,38.5448,1282.89,95.00,33.80,11.67,110.00,14.00,0.00,29.95,M,10.00,M,CLR,M,M,M,M,M,M,M,M,M,M,M,M,M,M,89.97,KHTH 160135Z AUTO 11014KT 10SM CLR 35/01 A2995 RMK A01,M
TMT,2022-08-16 01:35,-117.1971,39.4643,1749.34,M,M,M,120.00,4.00,0.00,30.14,M,10.00,M,SCT,M,M,M,10000.00,M,M,M,M,M,M,M,M,M,M,M,KTMT 160135Z AUTO 12004KT 10SM SCT100 A3014 RMK AO2,M
BVU,2022-08-16 01:35,-114.8611,35.9475,671.00,95.00,55.40,26.58,140.00,6.00,0.00,29.83,M,M,M,M,M,M,M,M,M,M,M,M,M,M,M,M,M,M,93.22,KBVU 160135Z AUTO 14006KT 35/13 A2983 RMK AO2 PWINO TSNO,M
CXP,2022-08-16 01:35,-119.7326,39.1923,1431.00,91.40,30.20,11.28,260.00,7.00,0.00,30.02,M,10.00,13.00,CLR,M,M,M,M,M,M,M,M,M,M,M,M,M,M,86.71,KCXP 160135Z AUTO 26007G13KT 10SM CLR 33/M01 A3002 RMK AO2,M
RTS,2022-08-16 01:35,-119.8764,39.6682,1539.00,89.60,21.20,8.22,310.00,12.00,0.00,30.06,M,10.00,M,CLR,M,M,M,M,M,M,M,M,M,M,M,M,M,M,84.64,KRTS 160135Z AUTO 31012KT 10SM CLR 32/M06 A3006 RMK AO2,M
MEV,2022-08-16 01:35,-119.7500,38.9963,1441.42,89.60,32.00,12.84,270.00,11.00,0.00,30.01,M,10.00,M,CLR,M,M,M,M,M,M,M,M,M,M,M,M,M,M,85.54,KMEV 160135Z AUTO 27011KT 10SM CLR 32/00 A3001 RMK AO2,M
BAM,2022-08-16 01:35,-116.8743,40.5990,1382.36,95.00,32.00,10.85,0.00,0.00,0.00,29.99,M,10.00,M,CLR,M,M,M,M,M,M,M,M,M,M,M,M,M,M,89.71,KBAM 160135Z AUTO 00000KT 10SM CLR 35/00 A2999 RMK AO1,M
LOL,2022-08-16 01:53,-118.5701,40.0684,1192.43,96.00,23.00,7.24,190.00,5.00,0.00,29.93,1009.70,10.00,M,CLR,M,M,M,M,M,M,M,M,M,M,M,M,M,M,89.67,KLOL 160153Z AUTO 19005KT 10SM CLR 36/M05 A2993 RMK AO2 SLP097 T03561050,M
DRA,2022-08-16 01:53,-116.0278,36.6206,1009.00,89.00,51.00,27.29,240.00,9.00,0.00,29.92,1007.90,10.00,M,CLR,M,M,M,M,M,M,M,M,M,M,M,M,M,M,86.42,KDRA 160153Z AUTO 24009KT 10SM CLR 32/11 A2992 RMK AO2 SLP079 T03170106,M
ELY,2022-08-16 01:53,-114.8453,39.2950,1909.00,M,M,M,M,M,0.00,30.15,M,M,M,M,M,M,M,M,M,M,M,M,M,M,M,M,M,M,M,KELY 160153Z AUTO A3015 RMK AO2 SLPNO PWINO FZRANO $,M
VGT,2022-08-16 01:53,-115.1933,36.2111,667.00,97.00,57.00,26.49,130.00,8.00,0.00,29.82,1008.30,10.00,M,CLR,M,M,M,M,M,M,M,M,M,M,M,M,M,M,95.92,KVGT 160153Z 13008KT 10SM CLR 36/14 A2982 RMK AO2 SLP083 T03610139,M
P68,2022-08-16 01:53,-116.0056,39.6014,1993.00,79.00,42.00,26.89,260.00,13.00,0.00,30.12,1011.90,M,24.00,M,M,M,M,M,M,M,M,M,M,M,M,M,M,M,79.00,KP68 160153Z AUTO 26013G24KT 26/06 A3012 RMK AO1 SLP119 T02610056,M
BVU,2022-08-16 01:55,-114.8611,35.9475,671.00,95.00,55.40,26.58,120.00,7.00,0.00,29.84,M,M,M,M,M,M,M,M,M,M,M,M,M,M,M,M,M,M,93.22,KBVU 160155Z AUTO 12007KT 35/13 A2984 RMK AO2 PWINO TSNO,M
BAM,2022-08-16 01:55,-116.8743,40.5990,1382.36,95.00,32.00,10.85,0.00,0.00,0.00,29.99,M,10.00,M,CLR,M,M,M,M,M,M,M,M,M,M,M,M,M,M,89.71,KBAM 160155Z AUTO 00000KT 10SM CLR 35/00 A2999 RMK AO1,M
HTH,2022-08-16 01:55,-118.6315,38.5448,1282.89,93.20,37.40,14.23,130.00,14.00,0.00,29.95,M,10.00,M,CLR,M,M,M,M,M,M,M,M,M,M,M,M,M,M,88.83,KHTH 160155Z AUTO 13014KT 10SM CLR 34/03 A2995 RMK A01,M
TMT,2022-08-16 01:55,-117.1971,39.4643,1749.34,74.30,52.30,46.16,140.00,5.00,0.00,30.13,M,10.00,M,CLR,M,M,M,M,M,M,M,M,M,M,M,M,M,M,74.30,KTMT 160155Z AUTO 14005KT 10SM CLR 24/11 A3013 RMK AO2 T02350113,M
RNO,2022-08-16 01:55,-119.7711,39.4839,1341.00,94.00,33.00,11.74,290.00,14.00,0.00,29.98,1008.90,10.00,M,FEW,M,M,M,13000.00,M,M,M,M,M,M,M,M,M,M,89.00,KRNO 160155Z 29014KT 10SM FEW130 34/01 A2998 RMK AO2 SLP089 T03440006,M
MEV,2022-08-16 01:55,-119.7500,38.9963,1441.42,87.80,32.00,13.59,270.00,13.00,0.00,30.01,M,10.00,M,CLR,M,M,M,M,M,M,M,M,M,M,M,M,M,M,84.08,KMEV 160155Z AUTO 27013KT 10SM CLR 31/00 A3001 RMK AO2,M
RTS,2022-08-16 01:55,-119.8764,39.6682,1539.00,87.80,21.20,8.70,300.00,12.00,0.00,30.06,M,10.00,M,CLR,M,M,M,M,M,M,M,M,M,M,M,M,M,M,83.33,KRTS 160155Z AUTO 30012KT 10SM CLR 31/M06 A3006 RMK AO2,M
CXP,2022-08-16 01:55,-119.7326,39.1923,1431.00,89.60,32.00,12.84,260.00,6.00,0.00,30.02,M,10.00,M,CLR,M,M,M,M,M,M,M,M,M,M,M,M,M,M,85.54,KCXP 160155Z AUTO 26006KT 10SM CLR 32/M00 A3002 RMK AO2,M
TPH,2022-08-16 01:56,-117.0904,38.0505,1654.00,83.00,44.00,25.57,0.00,0.00,0.00,30.11,1011.40,10.00,M,BKN,M,M,M,11000.00,M,M,M,M,M,M,M,M,M,M,80.80,KTPH 160156Z AUTO 00000KT 10SM BKN110 28/07 A3011 RMK AO2 SLP114 T02830067,M
WMC,2022-08-16 01:56,-117.8072,40.9019,1315.00,96.00,33.00,10.97,0.00,0.00,0.00,29.96,1009.40,10.00,M,CLR,M,M,M,M,M,M,M,M,M,M,M,M,M,M,90.76,KWMC 160156Z AUTO 00000KT 10SM CLR 36/01 A2996 RMK AO2 SLP094 T03560006 $,M
LAS,2022-08-16 01:56,-115.1634,36.0719,663.00,95.00,55.00,26.19,100.00,5.00,0.00,29.83,1007.30,10.00,M,FEW,BKN,BKN,BKN,10000.00,12000.00,17000.00,25000.00,M,M,M,M,M,M,M,93.10,KLAS 160156Z 10005KT 10SM FEW100 BKN120 BKN170 BKN250 35/13 A2983 RMK AO2 SLP073 VIRGA SE CB DSNT ALQDS T03500128,M
HND,2022-08-16 01:56,-115.1344,35.9729,742.79,95.00,57.00,28.16,50.00,6.00,0.00,29.87,1010.00,10.00,M,CLR,M,M,M,M,M,M,M,M,M,M,M,M,M,M,93.75,KHND 160156Z 05006KT 10SM CLR 35/14 A2987 RMK AO2 SLP100 T03500139,M
NFL,2022-08-16 01:56,-118.7010,39.4166,1199.00,96.00,23.00,7.24,320.00,5.00,0.00,29.93,1010.80,10.00,M,FEW,FEW,M,M,10000.00,14000.00,M,M,M,M,M,M,M,M,M,89.67,KNFL 160156Z 32005KT 10SM FEW100 FEW140 36/M05 A2993 RMK AO2 SLP108 T03561050,M
EKO,2022-08-16 01:56,-115.7860,40.8242,1367.00,88.00,33.00,14.12,30.00,4.00,0.00,30.04,1011.30,10.00,M,CLR,M,M,M,M,M,M,M,M,M,M,M,M,M,M,84.25,KEKO 160156Z AUTO 03004KT 10SM CLR 31/01 A3004 RMK AO2 SLP113 T03110006,M
INS,2022-08-16 01:58,-115.6733,36.5872,955.00,92.70,49.50,22.97,260.00,9.00,0.00,29.88,M,10.00,M,CLR,M,M,M,M,M,M,M,M,M,M,M,M,M,M,89.53,KINS 160158Z AUTO 26009KT 10SM CLR 34/10 A2988 RMK AO2 SLPNO T03370097,M
LSV,2022-08-16 01:58,-115.0343,36.2362,570.00,94.80,58.50,29.91,130.00,6.00,0.00,29.80,M,10.00,M,FEW,SCT,M,M,15000.00,18000.00,M,M,M,M,M,M,M,M,M,94.09,KLSV 160158Z 13006KT 10SM FEW150 SCT180 35/15 A2980 RMK AO2A SLPNO T03490147 $,M
BVU,2022-08-16 02:15,-114.8611,35.9475,671.00,95.00,55.40,26.58,120.00,7.00,0.00,29.84,M,M,M,M,M,M,M,M,M,M,M,M,M,M,M,M,M,M,93.22,KBVU 160215Z AUTO 12007KT 35/13 A2984 RMK AO2 PWINO TSNO,M
HTH,2022-08-16 02:15,-118.6315,38.5448,1282.89,91.40,37.40,15.05,130.00,16.00,0.00,29.96,M,10.00,M,CLR,M,M,M,M,M,M,M,M,M,M,M,M,M,M,87.23,KHTH 160215Z AUTO 13016KT 10SM CLR 33/03 A2996 RMK A01,M
CXP,2022-08-16 02:15,-119.7326,39.1923,1431.00,87.80,30.20,12.64,280.00,9.00,0.00,30.02,M,10.00,M,CLR,M,M,M,M,M,M,M,M,M,M,M,M,M,M,84.01,KCXP 160215Z AUTO 28009KT 10SM CLR 31/M01 A3002 RMK AO2,M
MEV,2022-08-16 02:15,-119.7500,38.9963,1441.42,86.00,33.80,15.48,270.00,10.00,0.00,30.02,M,10.00,15.00,CLR,M,M,M,M,M,M,M,M,M,M,M,M,M,M,82.66,KMEV 160215Z AUTO 27010G15KT 10SM CLR 30/01 A3002 RMK AO2,M
RTS,2022-08-16 02:15,-119.8764,39.6682,1539.00,87.80,21.20,8.70,300.00,13.00,0.00,30.06,M,10.00,M,CLR,M,M,M,M,M,M,M,M,M,M,M,M,M,M,83.33,KRTS 160215Z AUTO 30013KT 10SM CLR 31/M06 A3006 RMK AO2,M
BAM,2022-08-16 02:15,-116.8743,40.5990,1382.36,93.20,33.80,12.34,0.00,0.00,0.00,30.00,M,10.00,M,CLR,M,M,M,M,M,M,M,M,M,M,M,M,M,M,88.55,KBAM 160215Z AUTO 00000KT 10SM CLR 34/01 A3000 RMK AO1,M
TMT,2022-08-16 02:15,-117.1971,39.4643,1749.34,72.50,51.40,47.44,140.00,4.00,0.00,30.14,M,10.00,M,CLR,M,M,M,M,M,M,M,M,M,M,M,M,M,M,72.50,KTMT 160215Z AUTO 14004KT 10SM CLR 23/11 A3014 RMK AO2 T02250108,M
HTH,2022-08-16 02:35,-118.6315,38.5448,1282.89,89.60,39.20,17.09,130.00,14.00,0.00,29.96,M,10.00,M,CLR,M,M,M,M,M,M,M,M,M,M,M,M,M,M,85.73,KHTH 160235Z AUTO 13014KT 10SM CLR 32/04 A2996 RMK A01,M
BVU,2022-08-16 02:35,-114.8611,35.9475,671.00,93.20,55.40,28.10,110.00,6.00,0.00,29.85,M,M,M,M,M,M,M,M,M,M,M,M,M,M,M,M,M,M,91.35,KBVU 160235Z AUTO 11006KT 34/13 A2985 RMK AO2 PWINO TSNO,M
CXP,2022-08-16 02:35,-119.7326,39.1923,1431.00,86.00,30.20,13.38,300.00,4.00,0.00,30.03,M,10.00,M,CLR,M,M,M,M,M,M,M,M,M,M,M,M,M,M,82.64,KCXP 160235Z AUTO 30004KT 10SM CLR 30/M01 A3003 RMK AO2,M
RTS,2022-08-16 02:35,-119.8764,39.6682,1539.00,84.20,23.00,10.53,300.00,8.00,0.00,30.07,M,10.00,M,CLR,M,M,M,M,M,M,M,M,M,M,M,M,M,M,80.88,KRTS 160235Z AUTO 30008KT 10SM CLR 29/M05 A3007 RMK AO2,M
MEV,2022-08-16 02:35,-119.7500,38.9963,1441.42,84.20,32.00,15.25,280.00,9.00,0.00,30.02,M,10.00,M,CLR,M,M,M,M,M,M,M,M,M,M,M,M,M,M,81.28,KMEV 160235Z AUTO 28009KT 10SM CLR 29/00 A3002 RMK AO2,M
BAM,2022-08-16 02:35,-116.8743,40.5990,1382.36,89.60,33.80,13.80,90.00,4.00,0.00,30.00,M,10.00,M,CLR,M,M,M,M,M,M,M,M,M,M,M,M,M,M,85.59,KBAM 160235Z AUTO 09004KT 10SM CLR 32/01 A3000 RMK AO1,M
TMT,2022-08-16 02:35,-117.1971,39.4643,1749.34,M,M,M,160.00,4.00,0.00,30.13,M,10.00,M,CLR,M,M,M,M,M,M,M,M,M,M,M,M,M,M,M,KTMT 160235Z AUTO 16004KT 10SM CLR A3013 RMK AO2,M
INS,2022-08-16 02:50,-115.6733,36.5872,955.00,91.40,48.20,22.78,290.00,8.00,0.00,29.92,M,10.00,M,OVC,M,M,M,12000.00,M,M,M,M,M,M,M,M,M,M,88.09,KINS 160250Z AUTO 29008KT 10SM OVC120 33/09 A2992 RMK AO2 SLPNO,M
P68,2022-08-16 02:53,-116.0056,39.6014,1993.00,76.00,42.00,29.80,210.00,7.00,0.00,30.14,1012.00,M,16.00,M,M,M,M,M,M,M,M,M,M,M,M,M,M,M,75.90,KP68 160253Z AUTO 21007G16KT 180V250 24/06 A3014 RMK AO1 SLP120 T02440056 53006,M
DRA,2022-08-16 02:53,-116.0278,36.6206,1009.00,85.00,50.00,29.94,0.00,0.00,0.00,29.93,1008.40,10.00,M,CLR,M,M,M,M,M,M,M,M,M,M,M,M,M,M,82.76,KDRA 160253Z AUTO 00000KT 10SM CLR 29/10 A2993 RMK AO2 SLP084 T02940100 53004,M
LOL,2022-08-16 02:53,-118.5701,40.0684,1192.43,89.00,26.10,10.25,170.00,3.00,0.00,29.94,1009.70,10.00,M,CLR,M,M,M,M,M,M,M,M,M,M,M,M,M,M,84.60,KLOL 160253Z AUTO 17003KT 10SM CLR 32/M03 A2994 RMK AO2 SLP097 T03171033 55001,M
ELY,2022-08-16 02:53,-114.8453,39.2950,1909.00,70.00,40.00,33.39,290.00,4.00,0.00,30.17,1013.70,10.00,M,BKN,M,M,M,12000.00,M,M,M,M,M,M,M,M,M,M,70.00,KELY 160253Z AUTO 29004KT 10SM BKN120 21/04 A3017 RMK AO2 SLP137 T02110044,M
VGT,2022-08-16 02:53,-115.1933,36.2111,667.00,95.00,57.00,28.16,120.00,5.00,0.00,29.84,1009.00,10.00,M,CLR,M,M,M,M,M,M,M,M,M,M,M,M,M,M,93.75,KVGT 160253Z 12005KT 10SM CLR 35/14 A2984 RMK AO2 SLP090 T03500139 53004,M
CXP,2022-08-16 02:55,-119.7326,39.1923,1431.00,86.00,30.20,13.38,280.00,4.00,0.00,30.04,M,10.00,M,CLR,M,M,M,M,M,M,M,M,M,M,M,M,M,M,82.64,KCXP 160255Z AUTO 28004KT 10SM CLR 30/M01 A3004 RMK AO2,M
RTS,2022-08-16 02:55,-119.8764,39.6682,1539.00,80.60,24.80,12.76,290.00,7.00,0.00,30.07,M,10.00,M,CLR,M,M,M,M,M,M,M,M,M,M,M,M,M,M,78.94,KRTS 160255Z AUTO 29007KT 10SM CLR 27/M04 A3007 RMK AO2,M
BVU,2022-08-16 02:55,-114.8611,35.9475,671.00,93.20,55.40,28.10,100.00,6.00,0.00,29.85,M,M,M,M,M,M,M,M,M,M,M,M,M,M,M,M,M,M,91.35,KBVU 160255Z AUTO 10006KT 34/13 A2985 RMK AO2 PWINO TSNO,M
MEV,2022-08-16 02:55,-119.7500,38.9963,1441.42,82.40,32.00,16.17,270.00,9.00,0.00,30.03,M,10.00,M,CLR,M,M,M,M,M,M,M,M,M,M,M,M,M,M,80.00,KMEV 160255Z AUTO 27009KT 10SM CLR 28/M00 A3003 RMK AO2,M
BAM,2022-08-16 02:55,-116.8743,40.5990,1382.36,89.60,33.80,13.80,0.00,0.00,0.00,30.00,M,10.00,M,CLR,M,M,M,M,M,M,M,M,M,M,M,M,M,M,85.59,KBAM 160255Z AUTO 00000KT 10SM CLR 32/01 A3000 RMK AO1,M
HTH,2022-08-16 02:55,-118.6315,38.5448,1282.89,89.60,39.20,17.09,150.00,9.00,0.00,29.97,M,10.00,M,CLR,M,M,M,M,M,M,M,M,M,M,M,M,M,M,85.73,KHTH 160255Z AUTO 15009KT 10SM CLR 32/04 A2997 RMK A01,M
TMT,2022-08-16 02:55,-117.1971,39.4643,1749.34,71.60,51.30,48.73,0.00,0.00,0.00,30.14,M,10.00,M,CLR,M,M,M,M,M,M,M,M,M,M,M,M,M,M,71.60,KTMT 160255Z AUTO 00000KT 10SM CLR 22/11 A3014 RMK AO2 T02200107,M
RNO,2022-08-16 02:55,-119.7711,39.4839,1341.00,90.00,32.00,12.68,320.00,11.00,0.00,30.00,1010.00,10.00,M,FEW,M,M,M,13000.00,M,M,M,M,M,M,M,M,M,M,85.84,KRNO 160255Z 32011KT 10SM FEW130 32/00 A3000 RMK AO2 SLP100 T03220000 53006,M
LAS,2022-08-16 02:56,-115.1634,36.0719,663.00,93.00,57.00,29.96,70.00,8.00,0.00,29.85,1008.00,10.00,M,FEW,BKN,BKN,BKN,10000.00,12000.00,17000.00,25000.00,M,M,M,M,M,M,M,91.64,KLAS 160256Z 07008KT 10SM FEW100 BKN120 BKN170 BKN250 34/14 A2985 RMK AO2 SLP080 CB DSNT ALQDS T03390139 53004,M
WMC,2022-08-16 02:56,-117.8072,40.9019,1315.00,89.00,34.00,14.14,340.00,5.00,0.00,29.97,1009.50,10.00,M,CLR,M,M,M,M,M,M,M,M,M,M,M,M,M,M,85.17,KWMC 160256Z AUTO 34005KT 10SM CLR 32/01 A2997 RMK AO2 SLP095 T03170011 55000 $,M
HND,2022-08-16 02:56,-115.1344,35.9729,742.79,93.00,59.00,32.19,80.00,4.00,0.00,29.89,1010.40,10.00,M,FEW,M,M,M,12000.00,M,M,M,M,M,M,M,M,M,M,92.35,KHND 160256Z 08004KT 10SM FEW120 34/15 A2989 RMK AO2 SLP104 T03390150 53003,M
TPH,2022-08-16 02:56,-117.0904,38.0505,1654.00,81.00,45.00,28.15,10.00,5.00,0.00,30.12,1011.40,10.00,M,CLR,M,M,M,M,M,M,M,M,M,M,M,M,M,M,79.68,KTPH 160256Z AUTO 01005KT 10SM CLR 27/07 A3012 RMK AO2 SLP114 T02720072 55006,M
NFL,2022-08-16 02:56,-118.7010,39.4166,1199.00,88.00,36.00,15.85,340.00,3.00,0.00,29.94,1011.10,10.00,M,FEW,SCT,M,M,10000.00,12000.00,M,M,M,M,M,M,M,M,M,84.29,KNFL 160256Z 34003KT 10SM FEW100 SCT120 31/02 A2994 RMK AO2 SLP111 T03110022 55002,M
LSV,2022-08-16 02:56,-115.0343,36.2362,570.00,93.20,59.00,31.99,60.00,7.00,0.00,29.84,M,10.00,M,SCT,BKN,M,M,14000.00,16000.00,M,M,M,M,M,M,M,M,M,92.57,KLSV 160256Z 06007KT 10SM SCT140 BKN160 34/15 A2984 RMK A02A SLPNO RVRNO $,M
EKO,2022-08-16 02:56,-115.7860,40.8242,1367.00,78.00,35.00,21.07,340.00,3.00,0.00,30.04,1012.10,10.00,M,CLR,M,M,M,M,M,M,M,M,M,M,M,M,M,M,78.10,KEKO 160256Z AUTO 34003KT 10SM CLR 26/02 A3004 RMK AO2 SLP121 T02560017 55000,M
INS,2022-08-16 02:58,-115.6733,36.5872,955.00,91.00,47.80,22.80,330.00,13.00,0.00,29.93,M,10.00,M,OVC,M,M,M,11000.00,M,M,M,M,M,M,M,M,M,M,87.57,KINS 160258Z AUTO 33013KT 10SM OVC110 33/09 A2993 RMK AO2 SLPNO T03270088 53016,M
INS,2022-08-16 03:08,-115.6733,36.5872,955.00,89.60,51.80,27.56,330.00,4.00,0.00,29.93,M,10.00,M,FEW,OVC,M,M,4400.00,11000.00,M,M,-RA,M,M,M,M,M,M,87.00,KINS 160308Z AUTO 33004KT 10SM -RA FEW044 OVC110 32/11 A2993 RMK AO2 RAB08 SLPNO,M
CXP,2022-08-16 03:10,-119.7326,39.1923,1431.00,84.20,30.20,14.18,0.00,0.00,0.00,30.04,M,10.00,M,CLR,M,M,M,M,M,M,M,M,M,M,M,M,M,M,81.26,KCXP 160310Z AUTO 00000KT 10SM CLR 29/M01 A3004 RMK AO2,M
INS,2022-08-16 03:13,-115.6733,36.5872,955.00,87.80,59.00,37.90,130.00,9.00,0.00,29.93,M,10.00,M,FEW,FEW,SCT,OVC,400.00,4400.00,5500.00,10000.00,-RA,M,M,M,M,M,M,87.12,KINS 160313Z AUTO 13009KT 10SM -RA FEW004 FEW044 SCT055 OVC100 31/15 A2993 RMK AO2 RAB08 SLPNO,M
LSV,2022-08-16 03:14,-115.0343,36.2362,570.00,93.20,59.00,31.99,50.00,3.00,0.00,29.82,M,10.00,M,FEW,SCT,BKN,M,10000.00,14000.00,16000.00,M,M,M,M,M,M,M,M,92.57,KLSV 160314Z 05003KT 10SM FEW100CB SCT140 BKN160 34/15 A2982 RMK A02A LTG DSNT N-NE TSB13 PRESFR SLPNO ALSTG ESTMD RVRNO $,M
MEV,2022-08-16 03:15,-119.7500,38.9963,1441.42,78.80,33.80,19.55,250.00,6.00,0.00,30.04,M,10.00,M,CLR,M,M,M,M,M,M,M,M,M,M,M,M,M,M,78.80,KMEV 160315Z AUTO 25006KT 10SM CLR 26/01 A3004 RMK AO2,M
BVU,2022-08-16 03:15,-114.8611,35.9475,671.00,91.40,57.20,31.72,80.00,5.00,0.00,29.86,M,M,M,M,M,M,M,M,M,M,M,M,M,M,M,M,M,M,90.06,KBVU 160315Z AUTO 08005KT 33/14 A2986 RMK AO2 PWINO TSNO,M
BAM,2022-08-16 03:15,-116.8743,40.5990,1382.36,87.80,33.80,14.61,0.00,0.00,0.00,30.00,M,10.00,M,CLR,M,M,M,M,M,M,M,M,M,M,M,M,M,M,84.10,KBAM 160315Z AUTO 00000KT 10SM CLR 31/01 A3000 RMK AO1,M
HTH,2022-08-16 03:15,-118.6315,38.5448,1282.89,89.60,37.40,15.92,170.00,11.00,0.00,29.98,M,10.00,M,CLR,M,M,M,M,M,M,M,M,M,M,M,M,M,M,85.67,KHTH 160315Z AUTO 17011KT 10SM CLR 32/03 A2998 RMK A01,M
TMT,2022-08-16 03:15,-117.1971,39.4643,1749.34,73.40,50.00,43.69,0.00,0.00,0.00,30.14,M,10.00,M,CLR,M,M,M,M,M,M,M,M,M,M,M,M,M,M,73.40,KTMT 160315Z AUTO 00000KT 10SM CLR 23/10 A3014 RMK AO2 T02300100,M
RTS,2022-08-16 03:15,-119.8764,39.6682,1539.00,78.80,24.80,13.54,310.00,9.00,0.00,30.08,M,10.00,M,CLR,M,M,M,M,M,M,M,M,M,M,M,M,M,M,78.80,KRTS 160315Z AUTO 31009KT 10SM CLR 26/M04 A3008 RMK AO2,M
INS,2022-08-16 03:27,-115.6733,36.5872,955.00,84.20,57.20,39.86,80.00,7.00,0.00,29.94,1008.90,10.00,M,FEW,FEW,FEW,SCT,400.00,3300.00,4400.00,5500.00,M,M,M,M,M,M,M,83.47,KINS 160327Z AUTO 08007KT 10SM FEW004 FEW033 FEW044 SCT055 SCT100 OVC140 29/14 A2994 RMK AO2 LTG DSNT NE-E RAB08E27 SLP089,M
BVU,2022-08-16 03:35,-114.8611,35.9475,671.00,91.40,55.40,29.72,80.00,6.00,0.00,29.87,M,M,M,M,M,M,M,M,M,M,M,M,M,M,M,M,M,M,89.53,KBVU 160335Z AUTO 08006KT 33/13 A2987 RMK AO2 PWINO TSNO,M
TMT,2022-08-16 03:35,-117.1971,39.4643,1749.34,69.00,53.00,56.67,0.00,0.00,0.00,30.14,M,10.00,M,CLR,M,M,M,M,M,M,M,M,M,M,M,M,M,M,68.90,KTMT 160335Z AUTO 00000KT 10SM CLR 21/12 A3014 RMK AO2 T02050116,M
BAM,2022-08-16 03:35,-116.8743,40.5990,1382.36,82.40,33.80,17.38,140.00,5.00,0.00,30.01,M,10.00,M,CLR,M,M,M,M,M,M,M,M,M,M,M,M,M,M,80.03,KBAM 160335Z AUTO 14005KT 10SM CLR 28/01 A3001 RMK AO1,M
HTH,2022-08-16 03:35,-118.6315,38.5448,1282.89,87.80,37.40,16.86,160.00,9.00,0.00,29.99,M,10.00,M,CLR,M,M,M,M,M,M,M,M,M,M,M,M,M,M,84.16,KHTH 160335Z AUTO 16009KT 10SM CLR 31/03 A2999 RMK A01,M
RTS,2022-08-16 03:35,-119.8764,39.6682,1539.00,78.80,23.00,12.55,310.00,10.00,0.00,30.09,M,10.00,M,CLR,M,M,M,M,M,M,M,M,M,M,M,M,M,M,78.80,KRTS 160335Z AUTO 31010KT 10SM CLR 26/M05 A3009 RMK AO2,M
MEV,2022-08-16 03:35,-119.7500,38.9963,1441.42,80.60,32.00,17.14,330.00,5.00,0.00,30.05,M,10.00,M,CLR,M,M,M,M,M,M,M,M,M,M,M,M,M,M,78.82,KMEV 160335Z AUTO 33005KT 10SM CLR 27/00 A3005 RMK AO2,M
CXP,2022-08-16 03:35,-119.7326,39.1923,1431.00,80.60,30.20,15.94,0.00,0.00,0.00,30.06,M,10.00,M,CLR,M,M,M,M,M,M,M,M,M,M,M,M,M,M,78.77,KCXP 160335Z AUTO 00000KT 10SM CLR 27/M01 A3006 RMK AO2,M
INS,2022-08-16 03:41,-115.6733,36.5872,955.00,84.20,51.80,32.73,90.00,13.00,0.00,29.96,1009.50,10.00,20.00,FEW,OVC,M,M,600.00,13000.00,M,M,M,M,M,M,M,M,M,82.48,KINS 160341Z AUTO 09013G20KT 10SM FEW006 OVC130 29/11 A2996 RMK AO2 WSHFT 30 LTG DSNT NE-E RAB08E27 PRESRR SLP095,M
CXP,2022-08-16 03:50,-119.7326,39.1923,1431.00,78.80,33.80,19.55,0.00,0.00,0.00,30.06,M,10.00,M,CLR,M,M,M,M,M,M,M,M,M,M,M,M,M,M,78.80,KCXP 160350Z AUTO 00000KT 10SM CLR 26/01 A3006 RMK AO2,M
VGT,2022-08-16 03:53,-115.1933,36.2111,667.00,94.00,57.00,29.14,90.00,6.00,0.00,29.86,1009.90,10.00,M,SCT,M,M,M,10000.00,M,M,M,M,M,M,M,M,M,M,92.58,KVGT 160353Z 09006KT 10SM SCT100 34/14 A2986 RMK AO2 LTG DSNT N AND NW SLP099 T03440139,M
ELY,2022-08-16 03:53,-114.8453,39.2950,1909.00,68.00,37.00,31.92,280.00,5.00,0.00,30.19,1013.70,10.00,M,CLR,M,M,M,M,M,M,M,M,M,M,M,M,M,M,68.00,KELY 160353Z AUTO 28005KT 10SM CLR 20/03 A3019 RMK AO2 SLP137 T02000028,M
LOL,2022-08-16 03:53,-118.5701,40.0684,1192.43,78.00,21.90,12.26,310.00,9.00,0.00,29.95,1009.90,10.00,M,CLR,M,M,M,M,M,M,M,M,M,M,M,M,M,M,78.10,KLOL 160353Z AUTO 31009KT 10SM CLR 26/M06 A2995 RMK AO2 SLP099 T02561056,M
P68,2022-08-16 03:53,-116.0056,39.6014,1993.00,68.00,44.00,42.04,160.00,5.00,0.00,30.16,1012.80,M,M,M,M,M,M,M,M,M,M,M,M,M,M,M,M,M,68.00,KP68 160353Z AUTO 16005KT 20/07 A3016 RMK AO1 SLP128 T02000067,M
DRA,2022-08-16 03:53,-116.0278,36.6206,1009.00,86.00,49.00,27.74,100.00,6.00,0.00,29.94,1008.60,10.00,M,CLR,M,M,M,M,M,M,M,M,M,M,M,M,M,M,83.48,KDRA 160353Z AUTO 10006KT 10SM CLR 30/09 A2994 RMK AO2 SLP086 T03000094,M
RNO,2022-08-16 03:55,-119.7711,39.4839,1341.00,86.00,32.00,14.40,330.00,8.00,0.00,30.03,1010.80,10.00,M,CLR,M,M,M,M,M,M,M,M,M,M,M,M,M,M,82.64,KRNO 160355Z 33008KT 10SM CLR 30/00 A3003 RMK AO2 SLP108 T03000000,M
RTS,2022-08-16 03:55,-119.8764,39.6682,1539.00,78.80,23.00,12.55,310.00,10.00,0.00,30.10,M,10.00,M,CLR,M,M,M,M,M,M,M,M,M,M,M,M,M,M,78.80,KRTS 160355Z AUTO 31010KT 10SM CLR 26/M05 A3010 RMK AO2,M
TMT,2022-08-16 03:55,-117.1971,39.4643,1749.34,M,M,M,0.00,0.00,0.00,30.15,M,10.00,M,CLR,M,M,M,M,M,M,M,M,M,M,M,M,M,M,M,KTMT 160355Z AUTO 00000KT 10SM CLR A3015 RMK AO2,M
HTH,2022-08-16 03:55,-118.6315,38.5448,1282.89,86.00,39.20,19.15,150.00,9.00,0.00,30.00,M,10.00,M,CLR,M,M,M,M,M,M,M,M,M,M,M,M,M,M,82.79,KHTH 160355Z AUTO 15009KT 10SM CLR 30/04 A3000 RMK A01,M
MEV,2022-08-16 03:55,-119.7500,38.9963,1441.42,73.40,33.80,23.39,80.00,4.00,0.00,30.06,M,10.00,M,CLR,M,M,M,M,M,M,M,M,M,M,M,M,M,M,73.40,KMEV 160355Z AUTO 08004KT 10SM CLR 23/01 A3006 RMK AO2,M
BVU,2022-08-16 03:55,-114.8611,35.9475,671.00,91.40,57.20,31.72,100.00,4.00,0.00,29.88,M,M,M,M,M,M,M,M,M,M,M,M,M,M,M,M,M,M,90.06,KBVU 160355Z AUTO 10004KT 33/14 A2988 RMK AO2 PWINO TSNO,M
BAM,2022-08-16 03:55,-116.8743,40.5990,1382.36,78.80,33.80,19.55,190.00,3.00,0.00,30.02,M,10.00,M,CLR,M,M,M,M,M,M,M,M,M,M,M,M,M,M,78.80,KBAM 160355Z AUTO 19003KT 10SM CLR 26/01 A3002 RMK AO1,M
LAS,2022-08-16 03:56,-115.1634,36.0719,663.00,92.00,58.00,32.03,70.00,13.00,0.00,29.88,1008.90,10.00,M,BKN,BKN,BKN,M,11000.00,17000.00,25000.00,M,M,M,M,M,M,M,M,90.80,KLAS 160356Z 07013KT 10SM BKN110 BKN170 BKN250 33/14 A2988 RMK AO2 LTG DSNT N AND NW SLP089 LTGICCCCG DSNT NW-N T03330144,M
TPH,2022-08-16 03:56,-117.0904,38.0505,1654.00,78.00,51.00,38.92,90.00,6.00,0.00,30.13,1011.80,10.00,M,CLR,M,M,M,M,M,M,M,M,M,M,M,M,M,M,78.10,KTPH 160356Z AUTO 09006KT 10SM CLR 26/11 A3013 RMK AO2 SLP118 T02560106,M
HND,2022-08-16 03:56,-115.1344,35.9729,742.79,92.00,59.00,33.31,110.00,5.00,0.00,29.91,1011.30,10.00,M,SCT,M,M,M,11000.00,M,M,M,M,M,M,M,M,M,M,91.20,KHND 160356Z AUTO 11005KT 10SM SCT110 33/15 A2991 RMK AO2 LTG DSNT N AND NW SLP113 T03330150,M
NFL,2022-08-16 03:56,-118.7010,39.4166,1199.00,80.00,40.00,23.82,0.00,0.00,0.00,29.96,1011.60,10.00,M,SCT,M,M,M,12000.00,M,M,M,M,M,M,M,M,M,M,78.93,KNFL 160356Z 00000KT 10SM SCT120 27/04 A2996 RMK AO2 SLP116 T02670044,M
WMC,2022-08-16 03:56,-117.8072,40.9019,1315.00,79.00,35.00,20.45,320.00,6.00,0.00,29.99,1010.20,10.00,M,CLR,M,M,M,M,M,M,M,M,M,M,M,M,M,M,79.00,KWMC 160356Z AUTO 32006KT 10SM CLR 26/02 A2999 RMK AO2 SLP102 T02610017 $,M
EKO,2022-08-16 03:56,-115.7860,40.8242,1367.00,73.00,36.00,25.88,80.00,4.00,0.00,30.06,1012.20,10.00,M,CLR,M,M,M,M,M,M,M,M,M,M,M,M,M,M,73.00,KEKO 160356Z AUTO 08004KT 10SM CLR 23/02 A3006 RMK AO2 SLP122 T02280022,M
INS,2022-08-16 03:58,-115.6733,36.5872,955.00,85.30,50.40,30.00,70.00,16.00,T,29.96,1009.40,10.00,M,OVC,M,M,M,14000.00,M,M,M,M,M,M,M,28.00,60.00,2022-08-16 03:50,83.12,KINS 160358Z AUTO 07016KT 10SM OVC140 30/10 A2996 RMK AO2 PK WND 06028/50 LTG DSNT E-SE RAB08E27 SLP094 P0000 T02960102,M
LSV,2022-08-16 03:59,-115.0343,36.2362,570.00,89.60,60.80,38.18,60.00,5.00,0.00,29.81,M,10.00,M,FEW,SCT,BKN,M,10000.00,13000.00,16000.00,M,M,M,M,M,M,M,M,89.54,KLSV 160359Z 06005KT 10SM FEW100 SCT130 BKN160 32/16 A2981 RMK AO2A SLPNO WND DATA ESTMD $,M
TMT,2022-08-16 04:15,-117.1971,39.4643,1749.34,M,M,M,260.00,3.00,0.00,30.16,M,10.00,M,CLR,M,M,M,M,M,M,M,M,M,M,M,M,M,M,M,KTMT 160415Z AUTO 26003KT 10SM CLR A3016 RMK AO2,M
HTH,2022-08-16 04:15,-118.6315,38.5448,1282.89,86.00,39.20,19.15,100.00,5.00,0.00,30.01,M,10.00,M,CLR,M,M,M,M,M,M,M,M,M,M,M,M,M,M,82.79,KHTH 160415Z AUTO 10005KT 10SM CLR 30/04 A3001 RMK A01,M
BAM,2022-08-16 04:15,-116.8743,40.5990,1382.36,78.80,33.80,19.55,0.00,0.00,0.00,30.03,M,10.00,M,CLR,M,M,M,M,M,M,M,M,M,M,M,M,M,M,78.80,KBAM 160415Z AUTO 00000KT 10SM CLR 26/01 A3003 RMK AO1,M
MEV,2022-08-16 04:15,-119.7500,38.9963,1441.42,73.40,33.80,23.39,140.00,6.00,0.00,30.06,M,10.00,M,CLR,M,M,M,M,M,M,M,M,M,M,M,M,M,M,73.40,KMEV 160415Z AUTO 14006KT 10SM CLR 23/01 A3006 RMK AO2,M
RTS,2022-08-16 04:15,-119.8764,39.6682,1539.00,78.80,23.00,12.55,300.00,12.00,0.00,30.10,M,10.00,M,CLR,M,M,M,M,M,M,M,M,M,M,M,M,M,M,78.80,KRTS 160415Z AUTO 30012KT 10SM CLR 26/M05 A3010 RMK AO2,M
CXP,2022-08-16 04:15,-119.7326,39.1923,1431.00,80.60,30.20,15.94,320.00,5.00,0.00,30.07,M,10.00,M,CLR,M,M,M,M,M,M,M,M,M,M,M,M,M,M,78.77,KCXP 160415Z AUTO 32005KT 10SM CLR 27/M01 A3007 RMK AO2,M
BVU,2022-08-16 04:15,-114.8611,35.9475,671.00,91.40,57.20,31.72,150.00,4.00,0.00,29.88,M,M,M,M,M,M,M,M,M,M,M,M,M,M,M,M,M,M,90.06,KBVU 160415Z AUTO 15004KT 33/14 A2988 RMK AO2 PWINO TSNO,M
VGT,2022-08-16 04:20,-115.1933,36.2111,667.00,93.00,57.00,29.96,340.00,21.00,0.00,29.89,M,10.00,29.00,BKN,M,M,M,10000.00,M,M,M,VCTS,M,M,M,29.00,340.00,2022-08-16 04:20,91.64,KVGT 160420Z AUTO 34021G29KT 10SM VCTS BKN100 34/14 A2989 RMK AO2 PK WND 34029/0420 LTG DSNT W-N T03390139,M
INS,2022-08-16 04:25,-115.6733,36.5872,955.00,82.40,57.20,42.25,120.00,13.00,0.00,29.99,1010.60,10.00,M,OVC,M,M,M,12000.00,M,M,M,M,M,M,M,M,M,M,82.08,KINS 160425Z AUTO 12013KT 10SM OVC120 28/14 A2999 RMK AO2 WSHFT 10 LTG DSNT SE PRESRR SLP106,M
BVU,2022-08-16 04:35,-114.8611,35.9475,671.00,89.60,59.00,35.81,60.00,3.00,0.00,29.89,M,M,M,M,M,M,M,M,M,M,M,M,M,M,M,M,M,M,88.86,KBVU 160435Z AUTO 06003KT 32/15 A2989 RMK AO2 PWINO TSNO,M
HTH,2022-08-16 04:35,-118.6315,38.5448,1282.89,84.20,39.20,20.29,100.00,8.00,0.00,30.01,M,10.00,M,CLR,M,M,M,M,M,M,M,M,M,M,M,M,M,M,81.44,KHTH 160435Z AUTO 10008KT 10SM CLR 29/04 A3001 RMK A01,M
TMT,2022-08-16 04:35,-117.1971,39.4643,1749.34,68.00,51.00,54.30,290.00,3.00,0.00,30.16,M,10.00,M,CLR,M,M,M,M,M,M,M,M,M,M,M,M,M,M,68.00,KTMT 160435Z AUTO 29003KT 10SM CLR 20/11 A3016 RMK AO2 T02000105,M
BAM,2022-08-16 04:35,-116.8743,40.5990,1382.36,78.80,35.60,21.00,260.00,7.00,0.00,30.03,M,10.00,M,CLR,M,M,M,M,M,M,M,M,M,M,M,M,M,M,78.80,KBAM 160435Z AUTO 26007KT 10SM CLR 26/02 A3003 RMK AO1,M
MEV,2022-08-16 04:35,-119.7500,38.9963,1441.42,66.20,32.00,27.83,120.00,7.00,0.00,30.07,M,10.00,M,CLR,M,M,M,M,M,M,M,M,M,M,M,M,M,M,66.20,KMEV 160435Z AUTO 12007KT 10SM CLR 19/00 A3007 RMK AO2,M
RTS,2022-08-16 04:35,-119.8764,39.6682,1539.00,77.00,23.00,13.32,300.00,9.00,0.00,30.11,M,10.00,M,CLR,M,M,M,M,M,M,M,M,M,M,M,M,M,M,77.00,KRTS 160435Z AUTO 30009KT 10SM CLR 25/M05 A3011 RMK AO2,M
CXP,2022-08-16 04:35,-119.7326,39.1923,1431.00,78.80,30.20,16.90,340.00,5.00,0.00,30.07,M,10.00,M,CLR,M,M,M,M,M,M,M,M,M,M,M,M,M,M,78.80,KCXP 160435Z AUTO 34005KT 10SM CLR 26/M01 A3007 RMK AO2,M
VGT,2022-08-16 04:38,-115.1933,36.2111,667.00,87.00,61.00,41.62,310.00,20.00,0.00,29.91,M,10.00,28.00,SCT,M,M,M,9500.00,M,M,M,VCTS,M,M,M,32.00,350.00,2022-08-16 04:22,87.15,KVGT 160438Z AUTO 31020G28KT 10SM VCTS SCT095 31/16 A2991 RMK AO2 PK WND 35032/0422 WSHFT 0418 LTG DSNT W AND NW T03060161,M
VGT,2022-08-16 04:46,-115.1933,36.2111,667.00,86.00,61.00,43.10,320.00,17.00,0.00,29.91,M,10.00,28.00,SCT,BKN,M,M,9500.00,12000.00,M,M,M,M,M,M,32.00,350.00,2022-08-16 04:22,86.12,KVGT 160446Z AUTO 32017G28KT 10SM SCT095 BKN120 30/16 A2991 RMK AO2 PK WND 35032/0422 WSHFT 0418 LTG DSNT W AND NW T03000161,M
DRA,2022-08-16 04:53,-116.0278,36.6206,1009.00,84.00,52.00,33.19,110.00,17.00,0.00,29.98,1009.60,10.00,29.00,FEW,M,M,M,12000.00,M,M,M,M,M,M,M,29.00,110.00,2022-08-16 04:50,82.36,KDRA 160453Z AUTO 11017G29KT 10SM FEW120 29/11 A2998 RMK AO2 PK WND 11029/0450 SLP096 T02890111,M
P68,2022-08-16 04:53,-116.0056,39.6014,1993.00,67.00,44.00,43.67,200.00,5.00,0.00,30.17,1012.60,M,M,M,M,M,M,M,M,M,M,M,M,M,M,M,M,M,66.90,KP68 160453Z AUTO 20005KT 19/07 A3017 RMK AO1 SLP126 T01940067,M
ELY,2022-08-16 04:53,-114.8453,39.2950,1909.00,63.00,43.00,47.97,140.00,7.00,0.00,30.20,1013.90,10.00,M,CLR,M,M,M,M,M,M,M,M,M,M,M,M,M,M,63.00,KELY 160453Z AUTO 14007KT 10SM CLR 17/06 A3020 RMK AO2 SLP139 T01720061,M
VGT,2022-08-16 04:53,-115.1933,36.2111,667.00,87.00,60.00,40.31,310.00,19.00,0.00,29.91,1011.60,10.00,27.00,FEW,SCT,M,M,9500.00,12000.00,M,M,M,M,M,M,32.00,350.00,2022-08-16 04:22,86.83,KVGT 160453Z AUTO 31019G27KT 10SM FEW095 SCT120 31/16 A2991 RMK AO2 PK WND 35032/0422 WSHFT 0418 LTG DSNT W AND NW SLP116 T03060156,M
LOL,2022-08-16 04:53,-118.5701,40.0684,1192.43,76.00,19.90,12.12,M,3.00,0.00,29.96,1010.00,10.00,M,CLR,M,M,M,M,M,M,M,M,M,M,M,M,M,M,75.90,KLOL 160453Z AUTO VRB03KT 10SM CLR 24/M07 A2996 RMK AO2 SLP100 T02441067,M
CXP,2022-08-16 04:55,-119.7326,39.1923,1431.00,75.20,33.80,22.02,0.00,0.00,0.00,30.08,M,10.00,M,CLR,M,M,M,M,M,M,M,M,M,M,M,M,M,M,75.20,KCXP 160455Z AUTO 00000KT 10SM CLR 24/01 A3008 RMK AO2,M
BVU,2022-08-16 04:55,-114.8611,35.9475,671.00,87.80,60.80,40.41,360.00,3.00,0.00,29.89,M,M,M,M,M,M,M,M,M,M,M,M,M,M,M,M,M,M,87.75,KBVU 160455Z AUTO 36003KT 31/16 A2989 RMK AO2 PWINO TSNO,M
RNO,2022-08-16 04:55,-119.7711,39.4839,1341.00,84.00,30.90,14.68,320.00,6.00,0.00,30.04,1011.20,10.00,M,CLR,M,M,M,M,M,M,M,M,M,M,M,M,M,M,81.12,KRNO 160455Z 32006KT 10SM CLR 29/M01 A3004 RMK AO2 SLP112 T02891006,M
RTS,2022-08-16 04:55,-119.8764,39.6682,1539.00,75.20,23.00,14.15,280.00,9.00,0.00,30.11,M,10.00,M,CLR,M,M,M,M,M,M,M,M,M,M,M,M,M,M,75.20,KRTS 160455Z AUTO 28009KT 10SM CLR 24/M05 A3011 RMK AO2,M
MEV,2022-08-16 04:55,-119.7500,38.9963,1441.42,66.20,33.80,29.92,140.00,6.00,0.00,30.07,M,10.00,M,CLR,M,M,M,M,M,M,M,M,M,M,M,M,M,M,66.20,KMEV 160455Z AUTO 14006KT 10SM CLR 19/01 A3007 RMK AO2,M
BAM,2022-08-16 04:55,-116.8743,40.5990,1382.36,77.00,35.60,22.28,250.00,6.00,0.00,30.03,M,10.00,M,CLR,M,M,M,M,M,M,M,M,M,M,M,M,M,M,77.00,KBAM 160455Z AUTO 25006KT 10SM CLR 25/02 A3003 RMK AO1,M
HTH,2022-08-16 04:55,-118.6315,38.5448,1282.89,84.20,41.00,21.76,110.00,7.00,0.00,30.01,M,10.00,M,CLR,M,M,M,M,M,M,M,M,M,M,M,M,M,M,81.52,KHTH 160455Z AUTO 11007KT 10SM CLR 29/05 A3001 RMK A01,M
TMT,2022-08-16 04:55,-117.1971,39.4643,1749.34,61.20,50.20,67.09,0.00,0.00,0.00,30.16,M,10.00,M,CLR,M,M,M,M,M,M,M,M,M,M,M,M,M,M,61.20,KTMT 160455Z AUTO 00000KT 10SM CLR 16/10 A3016 RMK AO2 T01620101,M
WMC,2022-08-16 04:56,-117.8072,40.9019,1315.00,74.00,33.00,22.37,270.00,7.00,0.00,30.01,1010.60,10.00,M,CLR,M,M,M,M,M,M,M,M,M,M,M,M,M,M,73.90,KWMC 160456Z AUTO 27007KT 10SM CLR 23/01 A3001 RMK AO2 SLP106 T02330006 $,M
EKO,2022-08-16 04:56,-115.7860,40.8242,1367.00,72.00,38.00,28.85,320.00,4.00,0.00,30.08,1012.60,10.00,M,CLR,M,M,M,M,M,M,M,M,M,M,M,M,M,M,72.00,KEKO 160456Z AUTO 32004KT 10SM CLR 22/03 A3008 RMK AO2 SLP126 T02220033,M
HND,2022-08-16 04:56,-115.1344,35.9729,742.79,90.00,58.00,33.99,60.00,3.00,0.00,29.94,1012.20,10.00,M,SCT,M,M,M,11000.00,M,M,M,M,M,M,M,M,M,M,88.89,KHND 160456Z AUTO 06003KT 10SM SCT110 32/14 A2994 RMK AO2 LTG DSNT NW SLP122 T03220144,M
NFL,2022-08-16 04:56,-118.7010,39.4166,1199.00,81.00,39.00,22.33,180.00,8.00,0.00,29.97,1012.10,10.00,M,SCT,M,M,M,12000.00,M,M,M,M,M,M,M,M,M,M,79.33,KNFL 160456Z 18008KT 10SM SCT120 27/04 A2997 RMK AO2 SLP121 T02720039,M
LAS,2022-08-16 04:56,-115.1634,36.0719,663.00,89.00,59.00,36.37,330.00,18.00,0.00,29.92,1010.40,10.00,26.00,BKN,OVC,M,M,9500.00,20000.00,M,M,M,M,M,M,26.00,340.00,2022-08-16 04:54,88.37,KLAS 160456Z 33018G26KT 10SM BKN095 OVC200 32/15 A2992 RMK AO2 PK WND 34026/0454 WSHFT 0439 LTG DSNT W AND NW SLP104 T03170150,M
TPH,2022-08-16 04:56,-117.0904,38.0505,1654.00,77.00,52.00,41.72,70.00,3.00,0.00,30.14,1011.80,10.00,M,CLR,M,M,M,M,M,M,M,M,M,M,M,M,M,M,77.00,KTPH 160456Z AUTO 07003KT 10SM CLR 25/11 A3014 RMK AO2 SLP118 T02500111,M
INS,2022-08-16 04:58,-115.6733,36.5872,955.00,79.20,56.50,45.73,80.00,14.00,0.00,30.02,1011.60,10.00,M,BKN,OVC,M,M,12000.00,15000.00,M,M,M,M,M,M,M,M,M,79.20,KINS 160458Z AUTO 08014KT 10SM BKN120 OVC150 26/14 A3002 RMK AO2 SLP116 T02620136,M
LSV,2022-08-16 04:58,-115.0343,36.2362,570.00,87.80,62.60,43.07,270.00,26.00,0.00,29.84,M,10.00,M,FEW,SCT,BKN,M,9000.00,12000.00,14000.00,M,M,M,M,M,27.00,290.00,2022-08-16 04:55,88.48,KLSV 160458Z 27026KT 10SM FEW090 SCT120 BKN140 31/17 A2984 RMK AO2A PK WND 29027/55 SLPNO WND DATA ESTMD $,M
LAS,2022-08-16 05:03,-115.1634,36.0719,663.00,89.00,59.00,36.37,320.00,16.00,0.00,29.92,M,10.00,26.00,BKN,BKN,OVC,M,9500.00,12000.00,20000.00,M,M,M,M,M,M,M,M,88.37,KLAS 160503Z 32016G26KT 10SM BKN095 BKN120 OVC200 32/15 A2992 RMK AO2 WSHFT 0443 LTG DSNT W-N T03170150,M
CXP,2022-08-16 05:15,-119.7326,39.1923,1431.00,73.40,32.00,21.76,0.00,0.00,0.00,30.08,M,10.00,M,CLR,M,M,M,M,M,M,M,M,M,M,M,M,M,M,73.40,KCXP 160515Z AUTO 00000KT 10SM CLR 23/00 A3008 RMK AO2,M
BVU,2022-08-16 05:15,-114.8611,35.9475,671.00,87.80,59.00,37.90,330.00,6.00,0.00,29.89,M,M,M,M,M,M,M,M,M,M,M,M,M,M,M,M,M,M,87.12,KBVU 160515Z AUTO 33006KT 31/15 A2989 RMK AO2 PWINO TSNO,M
TMT,2022-08-16 05:15,-117.1971,39.4643,1749.34,62.60,49.50,62.21,0.00,0.00,0.00,30.16,M,10.00,M,CLR,M,M,M,M,M,M,M,M,M,M,M,M,M,M,62.60,KTMT 160515Z AUTO 00000KT 10SM CLR 17/10 A3016 RMK AO2 T01700097,M
MEV,2022-08-16 05:15,-119.7500,38.9963,1441.42,66.20,33.80,29.92,140.00,4.00,0.00,30.07,M,10.00,M,CLR,M,M,M,M,M,M,M,M,M,M,M,M,M,M,66.20,KMEV 160515Z AUTO 14004KT 10SM CLR 19/01 A3007 RMK AO2,M
RTS,2022-08-16 05:15,-119.8764,39.6682,1539.00,73.40,23.00,15.03,280.00,9.00,0.00,30.11,M,10.00,M,CLR,M,M,M,M,M,M,M,M,M,M,M,M,M,M,73.40,KRTS 160515Z AUTO 28009KT 10SM CLR 23/M05 A3011 RMK AO2,M
HTH,2022-08-16 05:15,-118.6315,38.5448,1282.89,82.40,39.20,21.51,150.00,7.00,0.00,30.01,M,10.00,M,CLR,M,M,M,M,M,M,M,M,M,M,M,M,M,M,80.21,KHTH 160515Z AUTO 15007KT 10SM CLR 28/04 A3001 RMK A01,M
BAM,2022-08-16 05:15,-116.8743,40.5990,1382.36,77.00,37.40,23.93,170.00,6.00,0.00,30.03,M,10.00,M,CLR,M,M,M,M,M,M,M,M,M,M,M,M,M,M,77.00,KBAM 160515Z AUTO 17006KT 10SM CLR 25/03 A3003 RMK AO1,M
VGT,2022-08-16 05:20,-115.1933,36.2111,667.00,86.00,57.00,37.35,310.00,15.00,0.00,29.91,M,10.00,26.00,BKN,M,M,M,11000.00,M,M,M,VCTS,M,M,M,28.00,300.00,2022-08-16 05:01,84.92,KVGT 160520Z AUTO 31015G26KT 10SM VCTS BKN110 30/14 A2991 RMK AO2 PK WND 30028/0501 LTG DSNT N AND SW T03000139,M
HND,2022-08-16 05:24,-115.1344,35.9729,742.79,87.80,60.80,40.41,350.00,15.00,0.00,29.95,M,10.00,18.00,SCT,M,M,M,10000.00,M,M,M,M,M,M,M,M,M,M,87.75,KHND 160524Z AUTO 35015G18KT 10SM SCT100 31/16 A2995 RMK AO2 WSHFT 0504 LTG DSNT N AND W,M
BAM,2022-08-16 05:35,-116.8743,40.5990,1382.36,73.40,37.40,26.98,250.00,7.00,0.00,30.03,M,10.00,M,CLR,M,M,M,M,M,M,M,M,M,M,M,M,M,M,73.40,KBAM 160535Z AUTO 25007KT 10SM CLR 23/03 A3003 RMK AO1,M
BVU,2022-08-16 05:35,-114.8611,35.9475,671.00,87.80,59.00,37.90,330.00,15.00,0.00,29.91,M,M,24.00,M,M,M,M,M,M,M,M,M,M,M,M,M,M,M,87.12,KBVU 160535Z AUTO 33015G24KT 31/15 A2991 RMK AO2 PWINO TSNO,M
RTS,2022-08-16 05:35,-119.8764,39.6682,1539.00,71.60,24.80,17.22,270.00,9.00,0.00,30.11,M,10.00,M,CLR,M,M,M,M,M,M,M,M,M,M,M,M,M,M,71.60,KRTS 160535Z AUTO 27009KT 10SM CLR 22/M04 A3011 RMK AO2,M
MEV,2022-08-16 05:35,-119.7500,38.9963,1441.42,64.40,35.60,34.22,140.00,8.00,0.00,30.08,M,10.00,M,CLR,M,M,M,M,M,M,M,M,M,M,M,M,M,M,64.40,KMEV 160535Z AUTO 14008KT 10SM CLR 18/02 A3008 RMK AO2,M
CXP,2022-08-16 05:35,-119.7326,39.1923,1431.00,71.60,33.80,24.86,0.00,0.00,0.00,30.09,M,10.00,M,CLR,M,M,M,M,M,M,M,M,M,M,M,M,M,M,71.60,KCXP 160535Z AUTO 00000KT 10SM CLR 22/01 A3009 RMK AO2,M
TMT,2022-08-16 05:35,-117.1971,39.4643,1749.34,61.70,48.70,62.32,0.00,0.00,0.00,30.16,M,10.00,M,CLR,M,M,M,M,M,M,M,M,M,M,M,M,M,M,61.70,KTMT 160535Z AUTO 00000KT 10SM CLR 17/09 A3016 RMK AO2 T01650093,M
HTH,2022-08-16 05:35,-118.6315,38.5448,1282.89,80.60,41.00,24.46,190.00,7.00,0.00,30.02,M,10.00,M,CLR,M,M,M,M,M,M,M,M,M,M,M,M,M,M,79.20,KHTH 160535Z AUTO 19007KT 10SM CLR 27/05 A3002 RMK A01,M
LAS,2022-08-16 05:43,-115.1634,36.0719,663.00,86.00,58.00,38.58,330.00,13.00,T,29.92,M,10.00,22.00,FEW,BKN,OVC,M,6000.00,12000.00,17000.00,M,VCTS,M,M,M,27.00,320.00,2022-08-16 05:11,85.16,KLAS 160543Z 33013G22KT 10SM VCTS FEW060CB BKN120 OVC170 30/14 A2992 RMK AO2 PK WND 32027/0511 WSHFT 0443 LTG DSNT N AND NW OCNL LTGICCCCG VC W-N RAB09E25 TSB40 TS VC W-N MOV S P0000 T03000144,M
VGT,2022-08-16 05:44,-115.1933,36.2111,667.00,82.00,60.00,47.49,330.00,21.00,0.00,29.92,M,10.00,35.00,SCT,M,M,M,9500.00,M,M,M,TS,M,M,M,35.00,320.00,2022-08-16 05:42,82.40,KVGT 160544Z AUTO 33021G35KT 10SM TS SCT095 28/16 A2992 RMK AO2 PK WND 32035/0542 LTG DSNT N TSB38 T02780156,M
VGT,2022-08-16 05:53,-115.1933,36.2111,667.00,81.00,60.00,49.06,320.00,30.00,0.00,29.91,1011.70,10.00,40.00,SCT,M,M,M,9500.00,M,M,M,TS,M,M,M,40.00,310.00,2022-08-16 05:51,81.62,KVGT 160553Z AUTO 32030G40KT 10SM TS SCT095 27/16 A2991 RMK AO2 PK WND 31040/0551 LTG DSNT N TSB38 SLP117 T02720156 10361 20272 51022,M
LOL,2022-08-16 05:53,-118.5701,40.0684,1192.43,73.00,25.00,16.56,120.00,5.00,0.00,29.97,1010.20,10.00,M,CLR,M,M,M,M,M,M,M,M,M,M,M,M,M,M,73.00,KLOL 160553Z AUTO 12005KT 10SM CLR 23/M04 A2997 RMK AO2 SLP102 T02281039 10372 20217 51010,M
P68,2022-08-16 05:53,-116.0056,39.6014,1993.00,63.00,46.00,53.78,180.00,4.00,0.00,30.17,1012.60,M,M,M,M,M,M,M,M,M,M,M,M,M,M,M,M,M,63.00,KP68 160553Z AUTO 18004KT 17/08 A3017 RMK AO1 SLP126 T01720078 10306 20172 51009,M
DRA,2022-08-16 05:53,-116.0278,36.6206,1009.00,83.00,52.00,34.39,100.00,16.00,0.00,29.99,1009.70,10.00,27.00,CLR,M,M,M,M,M,M,M,M,M,M,M,29.00,120.00,2022-08-16 05:03,81.57,KDRA 160553Z AUTO 10016G27KT 10SM CLR 28/11 A2999 RMK AO2 PK WND 12029/0503 SLP097 T02830111 10328 20283 51016,M
ELY,2022-08-16 05:53,-114.8453,39.2950,1909.00,61.00,44.00,53.69,170.00,8.00,0.00,30.20,M,10.00,M,CLR,M,M,M,M,M,M,M,M,M,M,M,M,M,M,61.00,KELY 160553Z AUTO 17008KT 10SM CLR 16/07 A3020 RMK AO2 SLPNO T01610067 51008,M
HTH,2022-08-16 05:55,-118.6315,38.5448,1282.89,82.40,41.00,23.07,160.00,9.00,0.00,30.02,M,10.00,M,CLR,M,M,M,M,M,M,M,M,M,M,M,M,M,M,80.29,KHTH 160555Z AUTO 16009KT 10SM CLR 28/05 A3002 RMK A01,M
TMT,2022-08-16 05:55,-117.1971,39.4643,1749.34,61.00,47.80,61.77,220.00,3.00,0.00,30.16,M,10.00,M,CLR,M,M,M,M,M,M,M,M,M,M,M,M,M,M,61.00,KTMT 160555Z AUTO 22003KT 10SM CLR 16/09 A3016 RMK AO2 T01610088,M
RNO,2022-08-16 05:55,-119.7711,39.4839,1341.00,79.00,32.00,18.06,40.00,5.00,0.00,30.05,1011.30,10.00,M,CLR,M,M,M,M,M,M,M,M,M,M,M,M,M,M,79.00,KRNO 160555Z 04005KT 10SM CLR 26/00 A3005 RMK AO2 SLP113 T02610000 10367 20261 51015,M
BAM,2022-08-16 05:55,-116.8743,40.5990,1382.36,73.40,37.40,26.98,0.00,0.00,0.00,30.03,M,10.00,M,CLR,M,M,M,M,M,M,M,M,M,M,M,M,M,M,73.40,KBAM 160555Z AUTO 00000KT 10SM CLR 23/03 A3003 RMK AO1,M
MEV,2022-08-16 05:55,-119.7500,38.9963,1441.42,64.40,33.80,31.85,150.00,10.00,0.00,30.08,M,10.00,M,CLR,M,M,M,M,M,M,M,M,M,M,M,M,M,M,64.40,KMEV 160555Z AUTO 15010KT 10SM CLR 18/01 A3008 RMK AO2,M
CXP,2022-08-16 05:55,-119.7326,39.1923,1431.00,69.80,33.80,26.43,0.00,0.00,0.00,30.09,M,10.00,M,CLR,M,M,M,M,M,M,M,M,M,M,M,M,M,M,69.80,KCXP 160555Z AUTO 00000KT 10SM CLR 21/01 A3009 RMK AO2,M
BVU,2022-08-16 05:55,-114.8611,35.9475,671.00,86.00,59.00,40.14,330.00,21.00,0.00,29.91,M,M,27.00,M,M,M,M,M,M,M,M,M,M,M,M,M,M,M,85.47,KBVU 160555Z AUTO 33021G27KT 30/15 A2991 RMK AO2 PWINO TSNO,M
RTS,2022-08-16 05:55,-119.8764,39.6682,1539.00,69.80,23.00,16.98,280.00,5.00,0.00,30.11,M,10.00,M,CLR,M,M,M,M,M,M,M,M,M,M,M,M,M,M,69.80,KRTS 160555Z AUTO 28005KT 10SM CLR 21/M05 A3011 RMK AO2,M
TPH,2022-08-16 05:56,-117.0904,38.0505,1654.00,75.00,52.00,44.59,160.00,5.00,0.00,30.14,1011.60,10.00,M,CLR,M,M,M,M,M,M,M,M,M,M,M,M,M,M,75.00,KTPH 160556Z AUTO 16005KT 10SM CLR 24/11 A3014 RMK AO2 SLP116 T02390111 10300 20239 50005,M
EKO,2022-08-16 05:56,-115.7860,40.8242,1367.00,64.00,37.00,36.68,0.00,0.00,0.00,30.09,1013.40,10.00,M,CLR,M,M,M,M,M,M,M,M,M,M,M,M,M,M,64.00,KEKO 160556Z AUTO 00000KT 10SM CLR 18/03 A3009 RMK AO2 SLP134 T01780028 10328 20172 53014,M
LAS,2022-08-16 05:56,-115.1634,36.0719,663.00,87.00,55.00,33.55,320.00,20.00,T,29.94,1011.00,10.00,30.00,FEW,SCT,BKN,M,7500.00,12000.00,17000.00,M,VCTS,M,M,M,30.00,300.00,2022-08-16 05:54,85.40,KLAS 160556Z 32020G30KT 10SM VCTS FEW075CB SCT120 BKN170 31/13 A2994 RMK AO2 PK WND 30030/0554 WSHFT 0443 LTG DSNT N AND NW SLP110 OCNL LTGICCCCG VC W-N RAB09E25 TSB40 TS VC W-N MOV S VCSH P0000 60000 T03060128 10361 2,M
HND,2022-08-16 05:56,-115.1344,35.9729,742.79,85.00,62.00,46.42,310.00,14.00,0.00,29.97,1013.40,10.00,18.00,FEW,M,M,M,10000.00,M,M,M,M,M,M,M,M,M,M,85.49,KHND 160556Z AUTO 31014G18KT 10SM FEW100 29/17 A2997 RMK AO2 WSHFT 0504 LTG DSNT N AND NW SLP134 T02940167 10356 20294 53026,M
WMC,2022-08-16 05:56,-117.8072,40.9019,1315.00,73.00,33.00,23.06,0.00,0.00,0.00,30.01,1010.40,10.00,M,CLR,M,M,M,M,M,M,M,M,M,M,M,M,M,M,73.00,KWMC 160556Z AUTO 00000KT 10SM CLR 23/01 A3001 RMK AO2 SLP104 T02280006 10372 20217 51010 $,M
NFL,2022-08-16 05:56,-118.7010,39.4166,1199.00,79.00,47.00,32.29,180.00,3.00,0.00,29.97,1012.00,10.00,M,SCT,M,M,M,12000.00,M,M,M,M,M,M,M,M,M,M,79.00,KNFL 160556Z 18003KT 10SM SCT120 26/08 A2997 RMK AO2 SLP120 T02610083 10367 20256 50009,M
LSV,2022-08-16 05:58,-115.0343,36.2362,570.00,86.00,62.60,45.61,290.00,17.00,0.00,29.86,M,10.00,M,FEW,SCT,BKN,M,10000.00,13000.00,15000.00,M,M,M,M,M,30.00,290.00,2022-08-16 05:26,86.72,KLSV 160558Z 29017KT 10SM FEW100 SCT130 BKN150 30/17 A2986 RMK AO2A PK WND 29030/26 LTG DSNT W-NW SLPNO WND DATA ESTMD 10374 20348 $,M
INS,2022-08-16 05:58,-115.6733,36.5872,955.00,78.40,58.30,50.09,110.00,10.00,0.00,30.02,1011.60,10.00,M,BKN,OVC,M,M,12000.00,17000.00,M,M,M,M,M,M,M,M,M,78.40,KINS 160558Z AUTO 11010KT 10SM BKN120 OVC170 26/15 A3002 RMK AO2 LTG DSNT E SLP116 60000 T02580146 10351 20257 51029,M
LAS,2022-08-16 06:11,-115.1634,36.0719,663.00,83.00,58.00,42.63,320.00,20.00,0.00,29.93,M,10.00,35.00,FEW,SCT,BKN,M,7500.00,12000.00,17000.00,M,M,M,M,M,35.00,330.00,2022-08-16 06:05,82.60,KLAS 160611Z 32020G35KT 10SM FEW075 SCT120 BKN170 28/14 A2993 RMK AO2 PK WND 33035/0605 LTG DSNT SW-NW OCNL LTGICCCCG DSNT S-W-NW TSE07 TS DSIPTD CB DSNT S-W-NW MOV S T02830144,M
VGT,2022-08-16 06:12,-115.1933,36.2111,667.00,82.00,60.00,47.49,310.00,20.00,0.00,29.92,M,10.00,32.00,SCT,M,M,M,10000.00,M,M,M,VCTS,M,M,M,33.00,320.00,2022-08-16 05:54,82.40,KVGT 160612Z AUTO 31020G32KT 10SM VCTS SCT100 28/16 A2992 RMK AO2 PK WND 32033/0554 LTG DSNT SW TSE06 T02780156,M
BAM,2022-08-16 06:15,-116.8743,40.5990,1382.36,73.40,37.40,26.98,140.00,5.00,0.00,30.03,M,10.00,M,CLR,M,M,M,M,M,M,M,M,M,M,M,M,M,M,73.40,KBAM 160615Z AUTO 14005KT 10SM CLR 23/03 A3003 RMK AO1,M
RTS,2022-08-16 06:15,-119.8764,39.6682,1539.00,71.60,23.00,15.97,310.00,4.00,0.00,30.11,M,10.00,M,CLR,M,M,M,M,M,M,M,M,M,M,M,M,M,M,71.60,KRTS 160615Z AUTO 31004KT 10SM CLR 22/M05 A3011 RMK AO2,M
CXP,2022-08-16 06:15,-119.7326,39.1923,1431.00,69.80,33.80,26.43,0.00,0.00,0.00,30.09,M,10.00,M,CLR,M,M,M,M,M,M,M,M,M,M,M,M,M,M,69.80,KCXP 160615Z AUTO 00000KT 10SM CLR 21/01 A3009 RMK AO2,M
BVU,2022-08-16 06:15,-114.8611,35.9475,671.00,84.20,57.20,39.86,330.00,23.00,0.00,29.92,M,M,30.00,M,M,M,M,M,M,M,M,M,M,M,M,M,M,M,83.47,KBVU 160615Z AUTO 33023G30KT 29/14 A2992 RMK AO2 PWINO TSNO,M
TMT,2022-08-16 06:15,-117.1971,39.4643,1749.34,57.70,46.20,65.43,190.00,3.00,0.00,30.16,M,10.00,M,CLR,M,M,M,M,M,M,M,M,M,M,M,M,M,M,57.70,KTMT 160615Z AUTO 19003KT 10SM CLR 14/08 A3016 RMK AO2 T01430079,M
HTH,2022-08-16 06:15,-118.6315,38.5448,1282.89,80.60,41.00,24.46,150.00,5.00,0.00,30.02,M,10.00,M,CLR,M,M,M,M,M,M,M,M,M,M,M,M,M,M,79.20,KHTH 160615Z AUTO 15005KT 10SM CLR 27/05 A3002 RMK A01,M
MEV,2022-08-16 06:15,-119.7500,38.9963,1441.42,68.00,32.00,26.15,130.00,6.00,0.00,30.08,M,10.00,M,CLR,M,M,M,M,M,M,M,M,M,M,M,M,M,M,68.00,KMEV 160615Z AUTO 13006KT 10SM CLR 20/00 A3008 RMK AO2,M
INS,2022-08-16 06:26,-115.6733,36.5872,955.00,78.80,57.20,47.52,120.00,14.00,0.00,30.03,1011.80,10.00,M,OVC,M,M,M,11000.00,M,M,M,-RA,M,M,M,M,M,M,78.80,KINS 160626Z AUTO 12014KT 10SM -RA OVC110 26/14 A3003 RMK AO2 RAB26 SLP118,M
VGT,2022-08-16 06:28,-115.1933,36.2111,667.00,82.00,60.00,47.49,300.00,17.00,0.00,29.91,M,10.00,M,SCT,M,M,M,10000.00,M,M,M,M,M,M,M,33.00,320.00,2022-08-16 05:54,82.40,KVGT 160628Z AUTO 30017KT 10SM SCT100 28/16 A2991 RMK AO2 PK WND 32033/0554 LTG DSNT SW TSE06 T02780156,M
RTS,2022-08-16 06:35,-119.8764,39.6682,1539.00,71.60,21.20,14.80,330.00,4.00,0.00,30.12,M,10.00,M,CLR,M,M,M,M,M,M,M,M,M,M,M,M,M,M,71.60,KRTS 160635Z AUTO 33004KT 10SM CLR 22/M06 A3012 RMK AO2,M
CXP,2022-08-16 06:35,-119.7326,39.1923,1431.00,68.00,33.80,28.11,0.00,0.00,0.00,30.10,M,10.00,M,CLR,M,M,M,M,M,M,M,M,M,M,M,M,M,M,68.00,KCXP 160635Z AUTO 00000KT 10SM CLR 20/01 A3010 RMK AO2,M
BVU,2022-08-16 06:35,-114.8611,35.9475,671.00,82.40,57.20,42.25,320.00,20.00,0.00,29.92,M,M,28.00,M,M,M,M,M,M,M,M,M,M,M,M,M,M,M,82.08,KBVU 160635Z AUTO 32020G28KT 28/14 A2992 RMK AO2 PWINO TSNO,M
HTH,2022-08-16 06:35,-118.6315,38.5448,1282.89,80.60,39.20,22.81,200.00,4.00,0.00,30.01,M,10.00,M,CLR,M,M,M,M,M,M,M,M,M,M,M,M,M,M,79.10,KHTH 160635Z AUTO 20004KT 10SM CLR 27/04 A3001 RMK A01,M
MEV,2022-08-16 06:35,-119.7500,38.9963,1441.42,64.40,32.00,29.63,M,3.00,0.00,30.08,M,10.00,M,CLR,M,M,M,M,M,M,M,M,M,M,M,M,M,M,64.40,KMEV 160635Z AUTO VRB03KT 10SM CLR 18/M00 A3008 RMK AO2,M
BAM,2022-08-16 06:35,-116.8743,40.5990,1382.36,69.80,37.40,30.49,140.00,5.00,0.00,30.04,M,10.00,M,CLR,M,M,M,M,M,M,M,M,M,M,M,M,M,M,69.80,KBAM 160635Z AUTO 14005KT 10SM CLR 21/03 A3004 RMK AO1,M
TMT,2022-08-16 06:35,-117.1971,39.4643,1749.34,59.70,49.00,67.41,0.00,0.00,0.00,30.16,M,10.00,M,CLR,M,M,M,M,M,M,M,M,M,M,M,M,M,M,59.70,KTMT 160635Z AUTO 00000KT 10SM CLR 15/09 A3016 RMK AO2 T01540094,M
CXP,2022-08-16 06:50,-119.7326,39.1923,1431.00,66.20,32.00,27.83,0.00,0.00,0.00,30.10,M,10.00,M,CLR,M,M,M,M,M,M,M,M,M,M,M,M,M,M,66.20,KCXP 160650Z AUTO 00000KT 10SM CLR 19/00 A3010 RMK AO2,M
INS,2022-08-16 06:51,-115.6733,36.5872,955.00,78.80,55.40,44.52,160.00,15.00,0.00,30.00,1010.60,10.00,M,BKN,OVC,M,M,10000.00,12000.00,M,M,M,M,M,M,M,M,M,78.80,KINS 160651Z AUTO 16015KT 10SM BKN100 OVC120 26/13 A3000 RMK AO2 RAB26E51 PRESFR SLP106,M
LOL,2022-08-16 06:53,-118.5701,40.0684,1192.43,65.00,25.00,21.86,260.00,4.00,0.00,29.97,1010.50,10.00,M,CLR,M,M,M,M,M,M,M,M,M,M,M,M,M,M,64.90,KLOL 160653Z AUTO 26004KT 10SM CLR 18/M04 A2997 RMK AO2 SLP105 T01831039,M
DRA,2022-08-16 06:53,-116.0278,36.6206,1009.00,82.00,54.00,38.11,110.00,20.00,0.00,29.97,1009.30,10.00,31.00,CLR,M,M,M,M,M,M,M,M,M,M,M,32.00,110.00,2022-08-16 06:38,81.24,KDRA 160653Z AUTO 11020G31KT 10SM CLR 28/12 A2997 RMK AO2 PK WND 11032/0638 SLP093 T02780122,M
ELY,2022-08-16 06:53,-114.8453,39.2950,1909.00,56.00,43.00,61.81,190.00,7.00,0.00,30.21,M,10.00,M,CLR,M,M,M,M,M,M,M,M,M,M,M,M,M,M,55.90,KELY 160653Z AUTO 19007KT 10SM CLR 13/06 A3021 RMK AO2 SLPNO T01330061,M
VGT,2022-08-16 06:53,-115.1933,36.2111,667.00,85.00,58.00,39.97,300.00,15.00,0.00,29.89,1011.00,10.00,22.00,CLR,M,M,M,M,M,M,M,M,M,M,M,33.00,320.00,2022-08-16 05:54,84.21,KVGT 160653Z AUTO 30015G22KT 10SM CLR 29/14 A2989 RMK AO2 PK WND 32033/0554 TSE06 SLP110 T02940144,M
P68,2022-08-16 06:53,-116.0056,39.6014,1993.00,62.00,44.00,51.64,200.00,5.00,0.00,30.17,1012.50,M,M,M,M,M,M,M,M,M,M,M,M,M,M,M,M,M,62.10,KP68 160653Z AUTO 20005KT 17/07 A3017 RMK AO1 SLP125 T01670067,M
BVU,2022-08-16 06:55,-114.8611,35.9475,671.00,82.40,57.20,42.25,330.00,18.00,0.00,29.91,M,M,23.00,M,M,M,M,M,M,M,M,M,M,M,M,M,M,M,82.08,KBVU 160655Z AUTO 33018G23KT 28/14 A2991 RMK AO2 PWINO TSNO,M
TMT,2022-08-16 06:55,-117.1971,39.4643,1749.34,54.70,45.50,71.03,0.00,0.00,0.00,30.16,M,10.00,M,CLR,M,M,M,M,M,M,M,M,M,M,M,M,M,M,54.70,KTMT 160655Z AUTO 00000KT 10SM CLR 13/08 A3016 RMK AO2 T01260075,M
HTH,2022-08-16 06:55,-118.6315,38.5448,1282.89,78.80,41.00,25.95,190.00,5.00,0.00,30.01,M,10.00,M,CLR,M,M,M,M,M,M,M,M,M,M,M,M,M,M,78.80,KHTH 160655Z AUTO 19005KT 10SM CLR 26/05 A3001 RMK A01,M
BAM,2022-08-16 06:55,-116.8743,40.5990,1382.36,69.80,37.40,30.49,170.00,4.00,0.00,30.04,M,10.00,M,CLR,M,M,M,M,M,M,M,M,M,M,M,M,M,M,69.80,KBAM 160655Z AUTO 17004KT 10SM CLR 21/03 A3004 RMK AO1,M
MEV,2022-08-16 06:55,-119.7500,38.9963,1441.42,62.60,32.00,31.56,100.00,4.00,0.00,30.09,M,10.00,M,CLR,M,M,M,M,M,M,M,M,M,M,M,M,M,M,62.60,KMEV 160655Z AUTO 10004KT 10SM CLR 17/00 A3009 RMK AO2,M
RTS,2022-08-16 06:55,-119.8764,39.6682,1539.00,69.80,21.20,15.73,320.00,7.00,0.00,30.12,M,10.00,M,CLR,M,M,M,M,M,M,M,M,M,M,M,M,M,M,69.80,KRTS 160655Z AUTO 32007KT 10SM CLR 21/M06 A3012 RMK AO2,M
RNO,2022-08-16 06:55,-119.7711,39.4839,1341.00,77.00,34.00,20.91,210.00,4.00,0.00,30.06,1011.20,10.00,M,CLR,M,M,M,M,M,M,M,M,M,M,M,M,M,M,77.00,KRNO 160655Z 21004KT 10SM CLR 25/01 A3006 RMK AO2 SLP112 T02500011,M
INS,2022-08-16 06:55,-115.6733,36.5872,955.00,78.80,55.40,44.52,160.00,14.00,0.00,29.99,1010.20,10.00,M,OVC,M,M,M,11000.00,M,M,M,-RA,M,M,M,M,M,M,78.80,KINS 160655Z AUTO 16014KT 10SM -RA OVC110 26/13 A2999 RMK AO2 RAB26E51RAB55 SLP102,M
WMC,2022-08-16 06:56,-117.8072,40.9019,1315.00,73.00,34.00,23.90,20.00,7.00,0.00,30.02,1010.50,10.00,M,CLR,M,M,M,M,M,M,M,M,M,M,M,M,M,M,73.00,KWMC 160656Z AUTO 02007KT 10SM CLR 23/01 A3002 RMK AO2 SLP105 T02280011 $,M
EKO,2022-08-16 06:56,-115.7860,40.8242,1367.00,66.00,35.00,31.73,80.00,6.00,0.00,30.10,1013.30,10.00,M,CLR,M,M,M,M,M,M,M,M,M,M,M,M,M,M,66.00,KEKO 160656Z AUTO 08006KT 10SM CLR 19/02 A3010 RMK AO2 SLP133 T01890017,M
TPH,2022-08-16 06:56,-117.0904,38.0505,1654.00,74.00,50.00,42.97,0.00,0.00,0.00,30.14,1011.40,10.00,M,CLR,M,M,M,M,M,M,M,M,M,M,M,M,M,M,73.90,KTPH 160656Z AUTO 00000KT 10SM CLR 23/10 A3014 RMK AO2 SLP114 T02330100,M
LAS,2022-08-16 06:56,-115.1634,36.0719,663.00,82.00,58.00,43.89,290.00,15.00,0.00,29.92,1010.20,10.00,M,FEW,FEW,SCT,BKN,9000.00,12000.00,18000.00,24000.00,M,M,M,M,35.00,330.00,2022-08-16 06:05,81.92,KLAS 160656Z 29015KT 10SM FEW090 FEW120 SCT180 BKN240 28/14 A2992 RMK AO2 PK WND 33035/0605 SLP102 TSE07 VIRGA W-N T02780144,M
NFL,2022-08-16 06:56,-118.7010,39.4166,1199.00,79.00,45.00,30.05,210.00,4.00,0.00,29.98,1012.20,10.00,M,SCT,BKN,M,M,12000.00,15000.00,M,M,M,M,M,M,M,M,M,79.00,KNFL 160656Z 21004KT 10SM SCT120 BKN150 26/07 A2998 RMK AO2 SLP122 T02610072,M
HND,2022-08-16 06:56,-115.1344,35.9729,742.79,82.00,58.00,43.89,70.00,4.00,0.00,29.97,1013.50,10.00,M,FEW,M,M,M,8500.00,M,M,M,M,M,M,M,M,M,M,81.92,KHND 160656Z AUTO 07004KT 10SM FEW085 28/14 A2997 RMK AO2 SLP135 T02780144 403670244,M
INS,2022-08-16 06:58,-115.6733,36.5872,955.00,79.70,54.50,41.83,170.00,13.00,T,29.98,1009.90,10.00,M,OVC,M,M,M,11000.00,M,M,M,-RA,M,M,M,M,M,M,79.70,KINS 160658Z AUTO 17013KT 10SM -RA OVC110 27/13 A2998 RMK AO2 RAB26E51RAB55 SLP099 P0000 T02650125,M
LSV,2022-08-16 06:58,-115.0343,36.2362,570.00,84.20,60.80,45.34,170.00,14.00,0.00,29.87,M,10.00,M,SCT,BKN,M,M,14000.00,17000.00,M,M,M,M,M,M,M,M,M,84.43,KLSV 160658Z 17014KT 10SM SCT140 BKN170 29/16 A2987 RMK AO2A SLPNO WND DATA ESTMD $,M
INS,2022-08-16 07:07,-115.6733,36.5872,955.00,80.60,53.60,39.30,170.00,13.00,0.00,29.98,1009.90,10.00,M,SCT,OVC,M,M,10000.00,12000.00,M,M,M,M,M,M,M,M,M,80.29,KINS 160707Z AUTO 17013KT 10SM SCT100 OVC120 27/12 A2998 RMK AO2 RAE07 SLP099,M
CXP,2022-08-16 07:10,-119.7326,39.1923,1431.00,66.20,30.20,25.88,0.00,0.00,0.00,30.10,M,10.00,M,CLR,M,M,M,M,M,M,M,M,M,M,M,M,M,M,66.20,KCXP 160710Z AUTO 00000KT 10SM CLR 19/M01 A3010 RMK AO2,M
BAM,2022-08-16 07:15,-116.8743,40.5990,1382.36,69.80,37.40,30.49,0.00,0.00,0.00,30.04,M,10.00,M,CLR,M,M,M,M,M,M,M,M,M,M,M,M,M,M,69.80,KBAM 160715Z AUTO 00000KT 10SM CLR 21/03 A3004 RMK AO1,M
RTS,2022-08-16 07:15,-119.8764,39.6682,1539.00,71.60,21.20,14.80,320.00,8.00,0.00,30.12,M,10.00,M,CLR,M,M,M,M,M,M,M,M,M,M,M,M,M,M,71.60,KRTS 160715Z AUTO 32008KT 10SM CLR 22/M06 A3012 RMK AO2,M
BVU,2022-08-16 07:15,-114.8611,35.9475,671.00,82.40,57.20,42.25,330.00,14.00,0.00,29.90,M,M,20.00,M,M,M,M,M,M,M,M,M,M,M,M,M,M,M,82.08,KBVU 160715Z AUTO 33014G20KT 28/14 A2990 RMK AO2 PWINO TSNO,M
HTH,2022-08-16 07:15,-118.6315,38.5448,1282.89,78.80,41.00,25.95,M,M,0.00,30.01,M,10.00,M,CLR,M,M,M,M,M,M,M,M,M,M,M,M,M,M,78.80,KHTH 160715Z AUTO 10SM CLR 26/05 A3001 RMK A01,M
TMT,2022-08-16 07:15,-117.1971,39.4643,1749.34,53.60,45.00,72.83,140.00,3.00,0.00,30.16,M,10.00,M,CLR,M,M,M,M,M,M,M,M,M,M,M,M,M,M,53.60,KTMT 160715Z AUTO 14003KT 10SM CLR 12/07 A3016 RMK AO2 T01200073,M
MEV,2022-08-16 07:15,-119.7500,38.9963,1441.42,60.80,33.80,36.16,110.00,5.00,0.00,30.09,M,10.00,M,CLR,M,M,M,M,M,M,M,M,M,M,M,M,M,M,60.80,KMEV 160715Z AUTO 11005KT 10SM CLR 16/01 A3009 RMK AO2,M
TMT,2022-08-16 07:35,-117.1971,39.4643,1749.34,52.70,43.70,71.36,130.00,4.00,0.00,30.16,M,10.00,M,CLR,M,M,M,M,M,M,M,M,M,M,M,M,M,M,52.70,KTMT 160735Z AUTO 13004KT 10SM CLR 12/07 A3016 RMK AO2 T01150065,M
MEV,2022-08-16 07:35,-119.7500,38.9963,1441.42,60.80,35.60,38.85,0.00,0.00,0.00,30.09,M,10.00,M,CLR,M,M,M,M,M,M,M,M,M,M,M,M,M,M,60.80,KMEV 160735Z AUTO 00000KT 10SM CLR 16/02 A3009 RMK AO2,M
BVU,2022-08-16 07:35,-114.8611,35.9475,671.00,82.40,57.20,42.25,330.00,14.00,0.00,29.89,M,M,20.00,M,M,M,M,M,M,M,M,M,M,M,M,M,M,M,82.08,KBVU 160735Z AUTO 33014G20KT 28/14 A2989 RMK AO2 PWINO TSNO,M
CXP,2022-08-16 07:35,-119.7326,39.1923,1431.00,66.20,35.60,32.14,0.00,0.00,0.00,30.10,M,10.00,M,CLR,M,M,M,M,M,M,M,M,M,M,M,M,M,M,66.20,KCXP 160735Z AUTO 00000KT 10SM CLR 19/02 A3010 RMK AO2,M
RTS,2022-08-16 07:35,-119.8764,39.6682,1539.00,68.00,21.20,16.74,320.00,7.00,0.00,30.12,M,10.00,M,CLR,M,M,M,M,M,M,M,M,M,M,M,M,M,M,68.00,KRTS 160735Z AUTO 32007KT 10SM CLR 20/M06 A3012 RMK AO2,M
HTH,2022-08-16 07:35,-118.6315,38.5448,1282.89,75.20,41.00,29.23,130.00,6.00,0.00,30.01,M,10.00,M,M,M,M,M,M,M,M,M,M,M,M,M,M,M,M,75.20,KHTH 160735Z AUTO 13006KT 10SM 24/05 A3001 RMK A01,M
BAM,2022-08-16 07:35,-116.8743,40.5990,1382.36,66.20,35.60,32.14,70.00,5.00,0.00,30.04,M,10.00,M,CLR,M,M,M,M,M,M,M,M,M,M,M,M,M,M,66.20,KBAM 160735Z AUTO 07005KT 10SM CLR 19/02 A3004 RMK AO1,M
VGT,2022-08-16 07:38,-115.1933,36.2111,667.00,85.00,58.00,39.97,360.00,10.00,0.00,29.88,M,10.00,19.00,CLR,M,M,M,M,M,M,M,M,M,M,M,27.00,300.00,2022-08-16 06:55,84.21,KVGT 160738Z AUTO 36010G19KT 10SM CLR 29/14 A2988 RMK AO2 PK WND 30027/0655 WSHFT 0718 T02940144,M
INS,2022-08-16 07:49,-115.6733,36.5872,955.00,82.40,50.00,32.46,180.00,10.00,0.00,29.94,1008.40,10.00,M,OVC,M,M,M,11000.00,M,M,M,M,M,M,M,M,M,M,80.99,KINS 160749Z AUTO 18010KT 10SM OVC110 28/10 A2994 RMK AO2 RAE07 SLP084,M
DRA,2022-08-16 07:53,-116.0278,36.6206,1009.00,83.00,51.00,33.27,100.00,15.00,0.00,29.95,1008.30,10.00,22.00,FEW,M,M,M,11000.00,M,M,M,M,M,M,M,32.00,100.00,2022-08-16 07:01,81.45,KDRA 160753Z AUTO 10015G22KT 10SM FEW110 28/11 A2995 RMK AO2 PK WND 10032/0701 SLP083 T02830106 403780228,M
P68,2022-08-16 07:53,-116.0056,39.6014,1993.00,61.00,43.00,51.48,180.00,6.00,0.00,30.17,1012.30,M,M,M,M,M,M,M,M,M,M,M,M,M,M,M,M,M,61.00,KP68 160753Z AUTO 18006KT 16/06 A3017 RMK AO1 SLP123 T01610061 403170117,M
ELY,2022-08-16 07:53,-114.8453,39.2950,1909.00,53.00,43.00,68.46,180.00,8.00,0.00,30.20,M,10.00,M,CLR,M,M,M,M,M,M,M,M,M,M,M,M,M,M,53.10,KELY 160753Z AUTO 18008KT 10SM CLR 12/06 A3020 RMK AO2 SLPNO T01170061,M
VGT,2022-08-16 07:53,-115.1933,36.2111,667.00,85.00,57.00,38.69,360.00,11.00,0.00,29.87,1010.40,10.00,M,CLR,M,M,M,M,M,M,M,M,M,M,M,27.00,300.00,2022-08-16 06:55,83.99,KVGT 160753Z AUTO 36011KT 10SM CLR 29/14 A2987 RMK AO2 PK WND 30027/0655 WSHFT 0718 SLP104 T02940139 403610267,M
LOL,2022-08-16 07:53,-118.5701,40.0684,1192.43,64.00,24.10,21.73,0.00,0.00,0.00,29.98,1010.70,10.00,M,CLR,M,M,M,M,M,M,M,M,M,M,M,M,M,M,64.00,KLOL 160753Z AUTO 00000KT 10SM CLR 18/M04 A2998 RMK AO2 SLP107 T01781044 403780061,M
RTS,2022-08-16 07:55,-119.8764,39.6682,1539.00,66.20,21.20,17.81,320.00,6.00,0.00,30.12,M,10.00,M,CLR,M,M,M,M,M,M,M,M,M,M,M,M,M,M,66.20,KRTS 160755Z AUTO 32006KT 10SM CLR 19/M06 A3012 RMK AO2,M
MEV,2022-08-16 07:55,-119.7500,38.9963,1441.42,62.60,33.80,33.93,110.00,4.00,0.00,30.09,M,10.00,M,CLR,M,M,M,M,M,M,M,M,M,M,M,M,M,M,62.60,KMEV 160755Z AUTO 11004KT 10SM CLR 17/01 A3009 RMK AO2,M
CXP,2022-08-16 07:55,-119.7326,39.1923,1431.00,64.40,35.60,34.22,0.00,0.00,0.00,30.10,M,10.00,M,CLR,M,M,M,M,M,M,M,M,M,M,M,M,M,M,64.40,KCXP 160755Z AUTO 00000KT 10SM CLR 18/02 A3010 RMK AO2,M
TMT,2022-08-16 07:55,-117.1971,39.4643,1749.34,56.80,44.80,64.09,0.00,0.00,0.00,30.16,M,10.00,M,CLR,M,M,M,M,M,M,M,M,M,M,M,M,M,M,56.80,KTMT 160755Z AUTO 00000KT 10SM CLR 14/07 A3016 RMK AO2 T01380071,M
BVU,2022-08-16 07:55,-114.8611,35.9475,671.00,82.40,55.40,39.58,340.00,12.00,0.00,29.88,M,M,M,M,M,M,M,M,M,M,M,M,M,M,M,M,M,M,81.75,KBVU 160755Z AUTO 34012KT 28/13 A2988 RMK AO2 PWINO TSNO,M
BAM,2022-08-16 07:55,-116.8743,40.5990,1382.36,71.60,37.40,28.68,0.00,0.00,0.00,30.04,M,10.00,M,CLR,M,M,M,M,M,M,M,M,M,M,M,M,M,M,71.60,KBAM 160755Z AUTO 00000KT 10SM CLR 22/03 A3004 RMK AO1,M
RNO,2022-08-16 07:55,-119.7711,39.4839,1341.00,72.00,37.00,27.85,0.00,0.00,0.00,30.07,1011.70,10.00,M,FEW,M,M,M,15000.00,M,M,M,M,M,M,M,M,M,M,72.00,KRNO 160755Z 00000KT 10SM FEW150 22/03 A3007 RMK AO2 SLP117 T02220028 403670156,M
HTH,2022-08-16 07:55,-118.6315,38.5448,1282.89,77.00,39.20,25.67,140.00,10.00,0.00,30.01,M,10.00,M,CLR,M,M,M,M,M,M,M,M,M,M,M,M,M,M,77.00,KHTH 160755Z AUTO 14010KT 10SM CLR 25/04 A3001 RMK A01,M
HND,2022-08-16 07:56,-115.1344,35.9729,742.79,82.00,58.00,43.89,160.00,7.00,0.00,29.93,1012.10,10.00,M,CLR,M,M,M,M,M,M,M,M,M,M,M,M,M,M,81.92,KHND 160756Z AUTO 16007KT 10SM CLR 28/14 A2993 RMK AO2 SLP121 T02780144,M
TPH,2022-08-16 07:56,-117.0904,38.0505,1654.00,71.00,52.00,50.86,30.00,4.00,0.00,30.14,1011.60,10.00,M,FEW,M,M,M,12000.00,M,M,M,M,M,M,M,M,M,M,71.10,KTPH 160756Z AUTO 03004KT 10SM FEW120 22/11 A3014 RMK AO2 SLP116 T02170111 403330178,M
NFL,2022-08-16 07:56,-118.7010,39.4166,1199.00,78.00,40.00,25.44,250.00,7.00,0.00,29.98,1012.20,10.00,M,FEW,M,M,M,11000.00,M,M,M,M,M,M,M,M,M,M,78.10,KNFL 160756Z AUTO 25007KT 10SM FEW110 26/04 A2998 RMK AO2 SLP122 T02560044 403720150,M
LAS,2022-08-16 07:56,-115.1634,36.0719,663.00,83.00,58.00,42.63,160.00,4.00,0.00,29.90,1009.50,10.00,M,FEW,OVC,M,M,12000.00,19000.00,M,M,M,M,M,M,M,M,M,82.60,KLAS 160756Z 16004KT 10SM FEW120 OVC190 28/14 A2990 RMK AO2 SLP095 VIRGA NW-NE T02830144 403610261,M
WMC,2022-08-16 07:56,-117.8072,40.9019,1315.00,74.00,30.90,20.47,60.00,9.00,0.00,30.01,1010.10,10.00,M,CLR,M,M,M,M,M,M,M,M,M,M,M,M,M,M,73.90,KWMC 160756Z AUTO 06009KT 10SM CLR 23/M01 A3001 RMK AO2 SLP101 T02331006 403780078 $,M
EKO,2022-08-16 07:56,-115.7860,40.8242,1367.00,63.00,38.00,39.36,80.00,4.00,0.00,30.10,1013.50,10.00,M,CLR,M,M,M,M,M,M,M,M,M,M,M,M,M,M,63.00,KEKO 160756Z AUTO 08004KT 10SM CLR 17/03 A3010 RMK AO2 SLP135 T01720033 403280106,M
INS,2022-08-16 07:58,-115.6733,36.5872,955.00,83.70,49.00,29.87,190.00,13.00,T,29.94,1008.20,10.00,M,BKN,OVC,M,M,11000.00,14000.00,M,M,M,M,M,M,M,M,M,81.75,KINS 160758Z AUTO 19013KT 10SM BKN110 OVC140 29/09 A2994 RMK AO2 RAE07 SLP082 P0000 T02870094 403640251,M
LSV,2022-08-16 07:58,-115.0343,36.2362,570.00,82.40,57.20,42.25,290.00,14.00,0.00,29.86,M,10.00,M,SCT,M,M,M,17000.00,M,M,M,M,M,M,M,M,M,M,82.08,KLSV 160758Z 29014KT 10SM SCT170 28/14 A2986 RMK AO2A SLPNO WND DATA ESTMD 404010269 $,M
TMT,2022-08-16 08:15,-117.1971,39.4643,1749.34,50.40,43.50,77.09,310.00,3.00,0.00,30.16,M,10.00,M,CLR,M,M,M,M,M,M,M,M,M,M,M,M,M,M,50.40,KTMT 160815Z AUTO 31003KT 10SM CLR 10/06 A3016 RMK AO2 T01020064,M
HTH,2022-08-16 08:15,-118.6315,38.5448,1282.89,77.00,39.20,25.67,170.00,5.00,0.00,30.01,M,10.00,M,CLR,M,M,M,M,M,M,M,M,M,M,M,M,M,M,77.00,KHTH 160815Z AUTO 17005KT 10SM CLR 25/04 A3001 RMK A01,M
BAM,2022-08-16 08:15,-116.8743,40.5990,1382.36,71.60,35.60,26.71,0.00,0.00,0.00,30.04,M,10.00,M,CLR,M,M,M,M,M,M,M,M,M,M,M,M,M,M,71.60,KBAM 160815Z AUTO 00000KT 10SM CLR 22/02 A3004 RMK AO1,M
MEV,2022-08-16 08:15,-119.7500,38.9963,1441.42,60.80,33.80,36.16,0.00,0.00,0.00,30.09,M,10.00,M,CLR,M,M,M,M,M,M,M,M,M,M,M,M,M,M,60.80,KMEV 160815Z AUTO 00000KT 10SM CLR 16/01 A3009 RMK AO2,M
RTS,2022-08-16 08:15,-119.8764,39.6682,1539.00,60.80,21.20,21.53,340.00,7.00,0.00,30.13,M,10.00,M,CLR,M,M,M,M,M,M,M,M,M,M,M,M,M,M,60.80,KRTS 160815Z AUTO 34007KT 10SM CLR 16/M06 A3013 RMK AO2,M
CXP,2022-08-16 08:15,-119.7326,39.1923,1431.00,64.40,33.80,31.85,320.00,4.00,0.00,30.10,M,10.00,M,CLR,M,M,M,M,M,M,M,M,M,M,M,M,M,M,64.40,KCXP 160815Z AUTO 32004KT 10SM CLR 18/01 A3010 RMK AO2,M
BVU,2022-08-16 08:15,-114.8611,35.9475,671.00,82.40,55.40,39.58,350.00,11.00,0.00,29.88,M,M,16.00,M,M,M,M,M,M,M,M,M,M,M,M,M,M,M,81.75,KBVU 160815Z AUTO 35011G16KT 28/13 A2988 RMK AO2 PWINO TSNO,M
MEV,2022-08-16 08:35,-119.7500,38.9963,1441.42,57.20,33.80,41.13,0.00,0.00,0.00,30.09,M,10.00,M,CLR,M,M,M,M,M,M,M,M,M,M,M,M,M,M,57.20,KMEV 160835Z AUTO 00000KT 10SM CLR 14/01 A3009 RMK AO2,M
CXP,2022-08-16 08:35,-119.7326,39.1923,1431.00,62.60,32.00,31.56,0.00,0.00,0.00,30.09,M,10.00,M,CLR,M,M,M,M,M,M,M,M,M,M,M,M,M,M,62.60,KCXP 160835Z AUTO 00000KT 10SM CLR 17/M00 A3009 RMK AO2,M
BVU,2022-08-16 08:35,-114.8611,35.9475,671.00,82.40,55.40,39.58,M,4.00,0.00,29.88,M,M,13.00,M,M,M,M,M,M,M,M,M,M,M,M,M,M,M,81.75,KBVU 160835Z AUTO VRB04G13KT 28/13 A2988 RMK AO2 PWINO TSNO,M
HTH,2022-08-16 08:35,-118.6315,38.5448,1282.89,78.80,39.20,24.19,220.00,5.00,0.00,30.01,M,10.00,M,CLR,M,M,M,M,M,M,M,M,M,M,M,M,M,M,78.80,KHTH 160835Z AUTO 22005KT 10SM CLR 26/04 A3001 RMK A01,M
BAM,2022-08-16 08:35,-116.8743,40.5990,1382.36,69.80,35.60,28.39,50.00,4.00,0.00,30.05,M,10.00,M,CLR,M,M,M,M,M,M,M,M,M,M,M,M,M,M,69.80,KBAM 160835Z AUTO 05004KT 10SM CLR 21/02 A3005 RMK AO1,M
TMT,2022-08-16 08:35,-117.1971,39.4643,1749.34,53.40,45.00,73.36,0.00,0.00,0.00,30.16,M,10.00,M,CLR,M,M,M,M,M,M,M,M,M,M,M,M,M,M,53.40,KTMT 160835Z AUTO 00000KT 10SM CLR 12/07 A3016 RMK AO2 T01190073,M
RTS,2022-08-16 08:35,-119.8764,39.6682,1539.00,60.80,21.20,21.53,340.00,7.00,0.00,30.12,M,10.00,M,CLR,M,M,M,M,M,M,M,M,M,M,M,M,M,M,60.80,KRTS 160835Z AUTO 34007KT 10SM CLR 16/M06 A3012 RMK AO2,M
ELY,2022-08-16 08:53,-114.8453,39.2950,1909.00,53.00,44.00,71.40,180.00,8.00,0.00,30.21,M,10.00,M,CLR,M,M,M,M,M,M,M,M,M,M,M,M,M,M,53.10,KELY 160853Z AUTO 18008KT 10SM CLR 12/07 A3021 RMK AO2 SLPNO T01170067 51001,M
P68,2022-08-16 08:53,-116.0056,39.6014,1993.00,61.00,43.00,51.48,180.00,7.00,0.00,30.16,1012.70,M,M,M,M,M,M,M,M,M,M,M,M,M,M,M,M,M,61.00,KP68 160853Z AUTO 18007KT 16/06 A3016 RMK AO1 SLP127 T01610061 58000,M
DRA,2022-08-16 08:53,-116.0278,36.6206,1009.00,83.00,49.00,30.65,340.00,5.00,0.00,29.94,1007.80,10.00,M,CLR,M,M,M,M,M,M,M,M,M,M,M,M,M,M,81.20,KDRA 160853Z AUTO 34005KT 10SM CLR 28/09 A2994 RMK AO2 SLP078 T02830094 58016,M
VGT,2022-08-16 08:53,-115.1933,36.2111,667.00,85.00,57.00,38.69,0.00,0.00,0.00,29.86,1009.70,10.00,M,CLR,M,M,M,M,M,M,M,M,M,M,M,M,M,M,83.99,KVGT 160853Z AUTO 00000KT 10SM CLR 29/14 A2986 RMK AO2 SLP097 T02940139 56016,M
LOL,2022-08-16 08:53,-118.5701,40.0684,1192.43,63.00,26.10,24.46,220.00,4.00,0.00,29.98,1010.70,10.00,M,CLR,M,M,M,M,M,M,M,M,M,M,M,M,M,M,63.00,KLOL 160853Z AUTO 22004KT 10SM CLR 17/M03 A2998 RMK AO2 SLP107 T01721033 50002,M
CXP,2022-08-16 08:55,-119.7326,39.1923,1431.00,62.60,33.80,33.93,0.00,0.00,0.00,30.09,M,10.00,M,CLR,M,M,M,M,M,M,M,M,M,M,M,M,M,M,62.60,KCXP 160855Z AUTO 00000KT 10SM CLR 17/01 A3009 RMK AO2,M
RTS,2022-08-16 08:55,-119.8764,39.6682,1539.00,60.80,21.20,21.53,330.00,7.00,0.00,30.12,M,10.00,M,CLR,M,M,M,M,M,M,M,M,M,M,M,M,M,M,60.80,KRTS 160855Z AUTO 33007KT 10SM CLR 16/M06 A3012 RMK AO2,M
TMT,2022-08-16 08:55,-117.1971,39.4643,1749.34,54.70,45.30,70.49,0.00,0.00,0.00,30.16,M,10.00,M,CLR,M,M,M,M,M,M,M,M,M,M,M,M,M,M,54.70,KTMT 160855Z AUTO 00000KT 10SM CLR 13/07 A3016 RMK AO2 T01260074,M
HTH,2022-08-16 08:55,-118.6315,38.5448,1282.89,78.80,39.20,24.19,210.00,4.00,0.00,30.01,M,10.00,M,CLR,M,M,M,M,M,M,M,M,M,M,M,M,M,M,78.80,KHTH 160855Z AUTO 21004KT 10SM CLR 26/04 A3001 RMK A01,M
RNO,2022-08-16 08:55,-119.7711,39.4839,1341.00,72.00,33.00,23.85,M,3.00,0.00,30.06,1011.20,10.00,M,FEW,M,M,M,18000.00,M,M,M,M,M,M,M,M,M,M,72.00,KRNO 160855Z VRB03KT 10SM FEW180 22/01 A3006 RMK AO2 SLP112 T02220006 50002,M
MEV,2022-08-16 08:55,-119.7500,38.9963,1441.42,53.60,35.60,50.36,110.00,5.00,0.00,30.08,M,10.00,M,CLR,M,M,M,M,M,M,M,M,M,M,M,M,M,M,53.60,KMEV 160855Z AUTO 11005KT 10SM CLR 12/02 A3008 RMK AO2,M
BVU,2022-08-16 08:55,-114.8611,35.9475,671.00,84.20,55.40,37.35,10.00,4.00,0.00,29.88,M,M,M,M,M,M,M,M,M,M,M,M,M,M,M,M,M,M,83.09,KBVU 160855Z AUTO 01004KT 29/13 A2988 RMK AO2 PWINO TSNO,M
BAM,2022-08-16 08:55,-116.8743,40.5990,1382.36,68.00,37.40,32.43,100.00,3.00,0.00,30.05,M,10.00,M,CLR,M,M,M,M,M,M,M,M,M,M,M,M,M,M,68.00,KBAM 160855Z AUTO 10003KT 10SM CLR 20/03 A3005 RMK AO1,M
NFL,2022-08-16 08:56,-118.7010,39.4166,1199.00,79.00,32.00,18.06,240.00,9.00,0.00,29.98,1012.20,10.00,M,CLR,M,M,M,M,M,M,M,M,M,M,M,M,M,M,79.00,KNFL 160856Z AUTO 24009KT 10SM CLR 26/00 A2998 RMK AO2 SLP122 T02610000 51002,M
EKO,2022-08-16 08:56,-115.7860,40.8242,1367.00,63.00,38.00,39.36,0.00,0.00,0.00,30.11,1013.50,10.00,M,CLR,M,M,M,M,M,M,M,M,M,M,M,M,M,M,63.00,KEKO 160856Z AUTO 00000KT 10SM CLR 17/03 A3011 RMK AO2 SLP135 T01720033 51005,M
HND,2022-08-16 08:56,-115.1344,35.9729,742.79,82.00,56.00,40.83,130.00,4.00,0.00,29.91,1011.10,10.00,M,CLR,M,M,M,M,M,M,M,M,M,M,M,M,M,M,81.55,KHND 160856Z AUTO 13004KT 10SM CLR 28/13 A2991 RMK AO2 SLP111 T02780133 58019,M
LAS,2022-08-16 08:56,-115.1634,36.0719,663.00,82.00,58.00,43.89,100.00,5.00,0.00,29.87,1008.70,10.00,M,FEW,OVC,M,M,12000.00,17000.00,M,M,M,M,M,M,M,M,M,81.92,KLAS 160856Z 10005KT 10SM FEW120 OVC170 28/14 A2987 RMK AO2 SLP087 VIRGA DSNT W-N-NE T02780144 58020,M
WMC,2022-08-16 08:56,-117.8072,40.9019,1315.00,77.00,30.90,18.46,70.00,7.00,0.00,30.01,1009.90,10.00,18.00,CLR,M,M,M,M,M,M,M,M,M,M,M,M,M,M,77.00,KWMC 160856Z AUTO 07007G18KT 10SM CLR 25/M01 A3001 RMK AO2 SLP099 T02501006 51002 $,M
TPH,2022-08-16 08:56,-117.0904,38.0505,1654.00,68.00,54.00,60.86,350.00,6.00,0.00,30.14,1011.60,10.00,M,CLR,M,M,M,M,M,M,M,M,M,M,M,M,M,M,68.00,KTPH 160856Z AUTO 35006KT 10SM CLR 20/12 A3014 RMK AO2 SLP116 T02000122 53002,M
LSV,2022-08-16 08:58,-115.0343,36.2362,570.00,84.20,53.60,34.97,70.00,4.00,0.00,29.85,1008.10,10.00,M,SCT,M,M,M,17000.00,M,M,M,M,M,M,M,M,M,M,82.76,KLSV 160858Z 07004KT 10SM SCT170 29/12 A2985 RMK SLP081 WND DATA ESTMD ALSTG/SLP ESTMD,M
INS,2022-08-16 08:58,-115.6733,36.5872,955.00,79.50,54.30,41.80,90.00,7.00,0.00,29.94,1008.40,10.00,M,OVC,M,M,M,13000.00,M,M,M,M,M,M,M,M,M,M,79.50,KINS 160858Z AUTO 09007KT 10SM OVC130 26/12 A2994 RMK AO2 SLP084 60000 T02640124 55027,M
MEV,2022-08-16 09:15,-119.7500,38.9963,1441.42,55.40,35.60,47.16,110.00,6.00,0.00,30.08,M,10.00,M,CLR,M,M,M,M,M,M,M,M,M,M,M,M,M,M,55.40,KMEV 160915Z AUTO 11006KT 10SM CLR 13/02 A3008 RMK AO2,M
TMT,2022-08-16 09:15,-117.1971,39.4643,1749.34,50.50,43.30,76.22,0.00,0.00,0.00,30.16,M,10.00,M,CLR,M,M,M,M,M,M,M,M,M,M,M,M,M,M,50.50,KTMT 160915Z AUTO 00000KT 10SM CLR 10/06 A3016 RMK AO2 T01030063,M
CXP,2022-08-16 09:15,-119.7326,39.1923,1431.00,60.80,37.40,41.71,0.00,0.00,0.00,30.09,M,10.00,M,CLR,M,M,M,M,M,M,M,M,M,M,M,M,M,M,60.80,KCXP 160915Z AUTO 00000KT 10SM CLR 16/03 A3009 RMK AO2,M
BVU,2022-08-16 09:15,-114.8611,35.9475,671.00,80.60,59.00,47.79,50.00,4.00,0.00,29.88,M,M,M,M,M,M,M,M,M,M,M,M,M,M,M,M,M,M,81.11,KBVU 160915Z AUTO 05004KT 27/15 A2988 RMK AO2 PWINO TSNO,M
HTH,2022-08-16 09:15,-118.6315,38.5448,1282.89,78.80,39.20,24.19,0.00,0.00,0.00,30.01,M,10.00,M,CLR,M,M,M,M,M,M,M,M,M,M,M,M,M,M,78.80,KHTH 160915Z AUTO 00000KT 10SM CLR 26/04 A3001 RMK A01,M
BAM,2022-08-16 09:15,-116.8743,40.5990,1382.36,68.00,37.40,32.43,20.00,6.00,0.00,30.05,M,10.00,M,CLR,M,M,M,M,M,M,M,M,M,M,M,M,M,M,68.00,KBAM 160915Z AUTO 02006KT 10SM CLR 20/03 A3005 RMK AO1,M
RTS,2022-08-16 09:15,-119.8764,39.6682,1539.00,60.80,21.20,21.53,350.00,8.00,0.00,30.11,M,10.00,M,CLR,M,M,M,M,M,M,M,M,M,M,M,M,M,M,60.80,KRTS 160915Z AUTO 35008KT 10SM CLR 16/M06 A3011 RMK AO2,M
RTS,2022-08-16 09:35,-119.8764,39.6682,1539.00,62.60,21.20,20.20,360.00,6.00,0.00,30.12,M,10.00,M,CLR,M,M,M,M,M,M,M,M,M,M,M,M,M,M,62.60,KRTS 160935Z AUTO 36006KT 10SM CLR 17/M06 A3012 RMK AO2,M
BAM,2022-08-16 09:35,-116.8743,40.5990,1382.36,64.40,37.40,36.74,20.00,3.00,0.00,30.05,M,10.00,M,CLR,M,M,M,M,M,M,M,M,M,M,M,M,M,M,64.40,KBAM 160935Z AUTO 02003KT 10SM CLR 18/03 A3005 RMK AO1,M
TMT,2022-08-16 09:35,-117.1971,39.4643,1749.34,51.30,43.30,74.00,150.00,3.00,0.00,30.16,M,10.00,M,CLR,M,M,M,M,M,M,M,M,M,M,M,M,M,M,51.30,KTMT 160935Z AUTO 15003KT 10SM CLR 11/06 A3016 RMK AO2 T01070063,M
HTH,2022-08-16 09:35,-118.6315,38.5448,1282.89,75.20,41.00,29.23,120.00,5.00,0.00,30.01,M,10.00,M,CLR,M,M,M,M,M,M,M,M,M,M,M,M,M,M,75.20,KHTH 160935Z AUTO 12005KT 10SM CLR 24/05 A3001 RMK A01,M
BVU,2022-08-16 09:35,-114.8611,35.9475,671.00,78.80,59.00,50.69,30.00,5.00,0.00,29.87,M,M,M,M,M,M,M,M,M,M,M,M,M,M,M,M,M,M,78.80,KBVU 160935Z AUTO 03005KT 26/15 A2987 RMK AO2 PWINO TSNO,M
CXP,2022-08-16 09:35,-119.7326,39.1923,1431.00,62.60,35.60,36.45,280.00,3.00,0.00,30.10,M,10.00,M,CLR,M,M,M,M,M,M,M,M,M,M,M,M,M,M,62.60,KCXP 160935Z AUTO 28003KT 10SM CLR 17/02 A3010 RMK AO2,M
MEV,2022-08-16 09:35,-119.7500,38.9963,1441.42,55.40,35.60,47.16,100.00,6.00,0.00,30.08,M,10.00,M,CLR,M,M,M,M,M,M,M,M,M,M,M,M,M,M,55.40,KMEV 160935Z AUTO 10006KT 10SM CLR 13/02 A3008 RMK AO2,M
ELY,2022-08-16 09:53,-114.8453,39.2950,1909.00,52.00,43.00,71.28,180.00,10.00,0.00,30.21,M,10.00,M,CLR,M,M,M,M,M,M,M,M,M,M,M,M,M,M,52.00,KELY 160953Z AUTO 18010KT 10SM CLR 11/06 A3021 RMK AO2 SLPNO T01110061,M
LOL,2022-08-16 09:53,-118.5701,40.0684,1192.43,62.00,25.00,24.12,90.00,8.00,0.00,29.98,1010.50,10.00,M,CLR,M,M,M,M,M,M,M,M,M,M,M,M,M,M,62.10,KLOL 160953Z AUTO 09008KT 10SM CLR 17/M04 A2998 RMK AO2 SLP105 T01671039,M
P68,2022-08-16 09:53,-116.0056,39.6014,1993.00,60.00,44.00,55.44,180.00,7.00,0.00,30.17,1012.60,M,M,M,M,M,M,M,M,M,M,M,M,M,M,M,M,M,60.10,KP68 160953Z AUTO 18007KT 16/07 A3017 RMK AO1 SLP126 T01560067,M
DRA,2022-08-16 09:53,-116.0278,36.6206,1009.00,82.00,52.00,35.41,50.00,11.00,0.00,29.95,1008.10,10.00,M,CLR,M,M,M,M,M,M,M,M,M,M,M,M,M,M,80.97,KDRA 160953Z AUTO 05011KT 10SM CLR 28/11 A2995 RMK AO2 SLP081 T02780111,M
VGT,2022-08-16 09:53,-115.1933,36.2111,667.00,85.00,58.00,39.97,300.00,5.00,0.00,29.87,1010.10,10.00,M,CLR,M,M,M,M,M,M,M,M,M,M,M,M,M,M,84.21,KVGT 160953Z AUTO 30005KT 10SM CLR 29/14 A2987 RMK AO2 SLP101 T02940144,M
TMT,2022-08-16 09:55,-117.1971,39.4643,1749.34,56.70,44.60,63.83,260.00,4.00,0.00,30.16,M,10.00,M,CLR,M,M,M,M,M,M,M,M,M,M,M,M,M,M,56.70,KTMT 160955Z AUTO 26004KT 10SM CLR 14/07 A3016 RMK AO2 T01370070,M
RNO,2022-08-16 09:55,-119.7711,39.4839,1341.00,68.00,38.00,33.07,200.00,3.00,0.00,30.07,1011.40,10.00,M,FEW,M,M,M,18000.00,M,M,M,M,M,M,M,M,M,M,68.00,KRNO 160955Z 20003KT 10SM FEW180 20/03 A3007 RMK AO2 SLP114 T02000033,M
HTH,2022-08-16 09:55,-118.6315,38.5448,1282.89,73.40,41.00,31.05,120.00,4.00,0.00,30.01,M,10.00,M,CLR,M,M,M,M,M,M,M,M,M,M,M,M,M,M,73.40,KHTH 160955Z AUTO 12004KT 10SM CLR 23/05 A3001 RMK A01,M
BAM,2022-08-16 09:55,-116.8743,40.5990,1382.36,69.80,37.40,30.49,330.00,6.00,0.00,30.05,M,10.00,M,CLR,M,M,M,M,M,M,M,M,M,M,M,M,M,M,69.80,KBAM 160955Z AUTO 33006KT 10SM CLR 21/03 A3005 RMK AO1,M
MEV,2022-08-16 09:55,-119.7500,38.9963,1441.42,55.40,33.80,43.90,240.00,3.00,0.00,30.09,M,10.00,M,CLR,M,M,M,M,M,M,M,M,M,M,M,M,M,M,55.40,KMEV 160955Z AUTO 24003KT 10SM CLR 13/01 A3009 RMK AO2,M
RTS,2022-08-16 09:55,-119.8764,39.6682,1539.00,62.60,23.00,21.79,330.00,6.00,0.00,30.11,M,10.00,M,CLR,M,M,M,M,M,M,M,M,M,M,M,M,M,M,62.60,KRTS 160955Z AUTO 33006KT 10SM CLR 17/M05 A3011 RMK AO2,M
CXP,2022-08-16 09:55,-119.7326,39.1923,1431.00,62.60,33.80,33.93,0.00,0.00,0.00,30.10,M,10.00,M,CLR,M,M,M,M,M,M,M,M,M,M,M,M,M,M,62.60,KCXP 160955Z AUTO 00000KT 10SM CLR 17/01 A3010 RMK AO2,M
BVU,2022-08-16 09:55,-114.8611,35.9475,671.00,80.60,59.00,47.79,40.00,6.00,0.00,29.88,M,M,M,M,M,M,M,M,M,M,M,M,M,M,M,M,M,M,81.11,KBVU 160955Z AUTO 04006KT 27/15 A2988 RMK AO2 PWINO TSNO,M
NFL,2022-08-16 09:56,-118.7010,39.4166,1199.00,75.00,33.00,21.56,0.00,0.00,0.00,29.98,1012.20,10.00,M,CLR,M,M,M,M,M,M,M,M,M,M,M,M,M,M,75.00,KNFL 160956Z AUTO 00000KT 10SM CLR 24/01 A2998 RMK AO2 SLP122 T02390006,M
TPH,2022-08-16 09:56,-117.0904,38.0505,1654.00,66.00,51.00,58.62,20.00,5.00,0.00,30.14,1011.80,10.00,M,CLR,M,M,M,M,M,M,M,M,M,M,M,M,M,M,66.00,KTPH 160956Z AUTO 02005KT 10SM CLR 19/11 A3014 RMK AO2 SLP118 T01890106,M
EKO,2022-08-16 09:56,-115.7860,40.8242,1367.00,57.00,40.00,52.70,0.00,0.00,0.00,30.11,1014.00,10.00,M,CLR,M,M,M,M,M,M,M,M,M,M,M,M,M,M,57.00,KEKO 160956Z AUTO 00000KT 10SM CLR 14/04 A3011 RMK AO2 SLP140 T01390044,M
HND,2022-08-16 09:56,-115.1344,35.9729,742.79,82.00,57.00,42.49,0.00,0.00,0.00,29.91,1011.10,10.00,M,CLR,M,M,M,M,M,M,M,M,M,M,M,M,M,M,81.75,KHND 160956Z AUTO 00000KT 10SM CLR 28/14 A2991 RMK AO2 SLP111 T02780139,M
LAS,2022-08-16 09:56,-115.1634,36.0719,663.00,82.00,58.00,43.89,0.00,0.00,0.00,29.88,1008.80,10.00,M,FEW,OVC,M,M,15000.00,18000.00,M,M,M,M,M,M,M,M,M,81.92,KLAS 160956Z 00000KT 10SM FEW150 OVC180 28/14 A2988 RMK AO2 SLP088 T02780144,M
WMC,2022-08-16 09:56,-117.8072,40.9019,1315.00,64.00,34.00,32.56,80.00,7.00,0.00,30.02,1010.70,10.00,M,CLR,M,M,M,M,M,M,M,M,M,M,M,M,M,M,64.00,KWMC 160956Z AUTO 08007KT 10SM CLR 18/01 A3002 RMK AO2 SLP107 T01780011 $,M
INS,2022-08-16 09:58,-115.6733,36.5872,955.00,77.70,55.20,45.83,20.00,4.00,0.00,29.95,1008.90,10.00,M,SCT,SCT,BKN,M,12000.00,16000.00,22000.00,M,M,M,M,M,M,M,M,77.70,KINS 160958Z AUTO 02004KT 10SM SCT120 SCT160 BKN220 25/13 A2995 RMK AO2 SLP089 T02540129,M
LSV,2022-08-16 09:58,-115.0343,36.2362,570.00,82.40,57.20,42.25,40.00,8.00,0.00,29.85,1008.20,10.00,M,SCT,M,M,M,17000.00,M,M,M,M,M,M,M,M,M,M,82.08,KLSV 160958Z 04008KT 10SM SCT170 28/14 A2985 RMK SLP082 WND DATA ESTMD ALSTG/SLP ESTMD,M
RTS,2022-08-16 10:15,-119.8764,39.6682,1539.00,59.00,21.20,22.95,350.00,7.00,0.00,30.12,M,10.00,M,CLR,M,M,M,M,M,M,M,M,M,M,M,M,M,M,59.00,KRTS 161015Z AUTO 35007KT 10SM CLR 15/M06 A3012 RMK AO2,M
CXP,2022-08-16 10:15,-119.7326,39.1923,1431.00,57.20,35.60,44.19,0.00,0.00,0.00,30.10,M,10.00,M,CLR,M,M,M,M,M,M,M,M,M,M,M,M,M,M,57.20,KCXP 161015Z AUTO 00000KT 10SM CLR 14/02 A3010 RMK AO2,M
BVU,2022-08-16 10:15,-114.8611,35.9475,671.00,78.80,60.80,54.05,40.00,4.00,0.00,29.88,M,M,M,M,M,M,M,M,M,M,M,M,M,M,M,M,M,M,78.80,KBVU 161015Z AUTO 04004KT 26/16 A2988 RMK AO2 PWINO TSNO,M
BAM,2022-08-16 10:15,-116.8743,40.5990,1382.36,66.20,37.40,34.51,350.00,4.00,0.00,30.05,M,10.00,M,CLR,M,M,M,M,M,M,M,M,M,M,M,M,M,M,66.20,KBAM 161015Z AUTO 35004KT 10SM CLR 19/03 A3005 RMK AO1,M
HTH,2022-08-16 10:15,-118.6315,38.5448,1282.89,73.40,41.00,31.05,0.00,0.00,0.00,30.02,M,10.00,M,CLR,M,M,M,M,M,M,M,M,M,M,M,M,M,M,73.40,KHTH 161015Z AUTO 00000KT 10SM CLR 23/05 A3002 RMK A01,M
MEV,2022-08-16 10:15,-119.7500,38.9963,1441.42,53.60,39.20,58.02,0.00,0.00,0.00,30.09,M,10.00,M,FEW,M,M,M,4500.00,M,M,M,M,M,M,M,M,M,M,53.60,KMEV 161015Z AUTO 00000KT 10SM FEW045 12/04 A3009 RMK AO2,M
TMT,2022-08-16 10:15,-117.1971,39.4643,1749.34,54.00,46.00,73.98,250.00,7.00,0.00,30.16,M,10.00,M,CLR,M,M,M,M,M,M,M,M,M,M,M,M,M,M,54.00,KTMT 161015Z AUTO 25007KT 10SM CLR 12/08 A3016 RMK AO2 T01220077,M
MEV,2022-08-16 10:35,-119.7500,38.9963,1441.42,51.80,37.40,57.77,60.00,3.00,0.00,30.09,M,10.00,M,CLR,M,M,M,M,M,M,M,M,M,M,M,M,M,M,51.80,KMEV 161035Z AUTO 06003KT 10SM CLR 11/03 A3009 RMK AO2,M
HTH,2022-08-16 10:35,-118.6315,38.5448,1282.89,71.60,42.80,35.37,0.00,0.00,0.00,30.02,M,10.00,M,CLR,M,M,M,M,M,M,M,M,M,M,M,M,M,M,71.60,KHTH 161035Z AUTO 00000KT 10SM CLR 22/06 A3002 RMK A01,M
TMT,2022-08-16 10:35,-117.1971,39.4643,1749.34,52.70,46.40,79.07,240.00,3.00,0.00,30.16,M,10.00,M,CLR,M,M,M,M,M,M,M,M,M,M,M,M,M,M,52.70,KTMT 161035Z AUTO 24003KT 10SM CLR 12/08 A3016 RMK AO2 T01150080,M
BVU,2022-08-16 10:35,-114.8611,35.9475,671.00,78.80,60.80,54.05,0.00,0.00,0.00,29.88,M,M,M,M,M,M,M,M,M,M,M,M,M,M,M,M,M,M,78.80,KBVU 161035Z AUTO 00000KT 26/16 A2988 RMK AO2 PWINO TSNO,M
CXP,2022-08-16 10:35,-119.7326,39.1923,1431.00,59.00,39.20,47.72,0.00,0.00,0.00,30.10,M,10.00,M,CLR,M,M,M,M,M,M,M,M,M,M,M,M,M,M,59.00,KCXP 161035Z AUTO 00000KT 10SM CLR 15/04 A3010 RMK AO2,M
RTS,2022-08-16 10:35,-119.8764,39.6682,1539.00,57.20,21.20,24.49,340.00,6.00,0.00,30.12,M,10.00,M,CLR,M,M,M,M,M,M,M,M,M,M,M,M,M,M,57.20,KRTS 161035Z AUTO 34006KT 10SM CLR 14/M06 A3012 RMK AO2,M
BAM,2022-08-16 10:35,-116.8743,40.5990,1382.36,60.80,33.80,36.16,190.00,3.00,0.00,30.06,M,10.00,M,CLR,M,M,M,M,M,M,M,M,M,M,M,M,M,M,60.80,KBAM 161035Z AUTO 19003KT 10SM CLR 16/01 A3006 RMK AO1,M
LOL,2022-08-16 10:53,-118.5701,40.0684,1192.43,67.00,27.00,22.15,50.00,7.00,0.00,29.98,1010.20,10.00,M,CLR,M,M,M,M,M,M,M,M,M,M,M,M,M,M,66.90,KLOL 161053Z AUTO 05007KT 10SM CLR 19/M03 A2998 RMK AO2 SLP102 T01941028,M
DRA,2022-08-16 10:53,-116.0278,36.6206,1009.00,78.00,55.00,44.90,80.00,7.00,0.00,29.95,1008.70,10.00,M,FEW,M,M,M,12000.00,M,M,M,M,M,M,M,M,M,M,78.10,KDRA 161053Z AUTO 08007KT 10SM FEW120 26/13 A2995 RMK AO2 SLP087 T02560128,M
VGT,2022-08-16 10:53,-115.1933,36.2111,667.00,84.00,59.00,42.80,320.00,5.00,0.00,29.88,1010.50,10.00,M,CLR,M,M,M,M,M,M,M,M,M,M,M,M,M,M,83.75,KVGT 161053Z AUTO 32005KT 10SM CLR 29/15 A2988 RMK AO2 SLP105 T02890150,M
ELY,2022-08-16 10:53,-114.8453,39.2950,1909.00,49.00,42.00,77.26,180.00,10.00,0.00,30.21,M,10.00,M,CLR,M,M,M,M,M,M,M,M,M,M,M,M,M,M,44.16,KELY 161053Z AUTO 18010KT 10SM CLR 09/06 A3021 RMK AO2 SLPNO T00940056,M
P68,2022-08-16 10:53,-116.0056,39.6014,1993.00,55.00,43.00,63.86,190.00,5.00,0.00,30.18,1013.20,M,M,M,M,M,M,M,M,M,M,M,M,M,M,M,M,M,55.00,KP68 161053Z AUTO 19005KT 13/06 A3018 RMK AO1 SLP132 T01280061,M
BVU,2022-08-16 10:55,-114.8611,35.9475,671.00,78.80,60.80,54.05,0.00,0.00,0.00,29.88,M,M,M,M,M,M,M,M,M,M,M,M,M,M,M,M,M,M,78.80,KBVU 161055Z AUTO 00000KT 26/16 A2988 RMK AO2 PWINO TSNO,M
CXP,2022-08-16 10:55,-119.7326,39.1923,1431.00,60.80,35.60,38.85,330.00,5.00,0.00,30.11,M,10.00,M,CLR,M,M,M,M,M,M,M,M,M,M,M,M,M,M,60.80,KCXP 161055Z AUTO 33005KT 10SM CLR 16/02 A3011 RMK AO2,M
RTS,2022-08-16 10:55,-119.8764,39.6682,1539.00,57.20,21.20,24.49,340.00,7.00,0.00,30.11,M,10.00,M,CLR,M,M,M,M,M,M,M,M,M,M,M,M,M,M,57.20,KRTS 161055Z AUTO 34007KT 10SM CLR 14/M06 A3011 RMK AO2,M
MEV,2022-08-16 10:55,-119.7500,38.9963,1441.42,51.80,37.40,57.77,80.00,6.00,0.00,30.09,M,10.00,M,CLR,M,M,M,M,M,M,M,M,M,M,M,M,M,M,51.80,KMEV 161055Z AUTO 08006KT 10SM CLR 11/03 A3009 RMK AO2,M
BAM,2022-08-16 10:55,-116.8743,40.5990,1382.36,59.00,35.60,41.42,0.00,0.00,0.00,30.06,M,10.00,M,CLR,M,M,M,M,M,M,M,M,M,M,M,M,M,M,59.00,KBAM 161055Z AUTO 00000KT 10SM CLR 15/02 A3006 RMK AO1,M
HTH,2022-08-16 10:55,-118.6315,38.5448,1282.89,71.60,42.80,35.37,360.00,4.00,0.00,30.02,M,10.00,M,CLR,M,M,M,M,M,M,M,M,M,M,M,M,M,M,71.60,KHTH 161055Z AUTO 36004KT 10SM CLR 22/06 A3002 RMK A01,M
TMT,2022-08-16 10:55,-117.1971,39.4643,1749.34,50.70,44.80,80.12,0.00,0.00,0.00,30.16,M,10.00,M,CLR,M,M,M,M,M,M,M,M,M,M,M,M,M,M,50.70,KTMT 161055Z AUTO 00000KT 10SM CLR 10/07 A3016 RMK AO2 T01040071,M
RNO,2022-08-16 10:55,-119.7711,39.4839,1341.00,67.00,38.00,34.35,0.00,0.00,0.00,30.07,1011.70,10.00,M,FEW,M,M,M,15000.00,M,M,M,M,M,M,M,M,M,M,66.90,KRNO 161055Z 00000KT 10SM FEW150 19/03 A3007 RMK AO2 SLP117 T01940033,M
EKO,2022-08-16 10:56,-115.7860,40.8242,1367.00,57.00,40.00,52.70,0.00,0.00,0.00,30.12,1014.50,10.00,M,CLR,M,M,M,M,M,M,M,M,M,M,M,M,M,M,57.00,KEKO 161056Z AUTO 00000KT 10SM CLR 14/04 A3012 RMK AO2 SLP145 T01390044,M
HND,2022-08-16 10:56,-115.1344,35.9729,742.79,82.00,58.00,43.89,330.00,6.00,0.00,29.93,1011.70,10.00,M,CLR,M,M,M,M,M,M,M,M,M,M,M,M,M,M,81.92,KHND 161056Z AUTO 33006KT 10SM CLR 28/14 A2993 RMK AO2 SLP117 T02780144,M
WMC,2022-08-16 10:56,-117.8072,40.9019,1315.00,72.00,32.00,22.82,30.00,5.00,0.00,30.03,1010.70,10.00,M,CLR,M,M,M,M,M,M,M,M,M,M,M,M,M,M,72.00,KWMC 161056Z AUTO 03005KT 10SM CLR 22/00 A3003 RMK AO2 SLP107 T02220000 $,M
TPH,2022-08-16 10:56,-117.0904,38.0505,1654.00,66.00,52.00,60.60,30.00,6.00,0.00,30.14,1012.50,10.00,M,CLR,M,M,M,M,M,M,M,M,M,M,M,M,M,M,66.00,KTPH 161056Z AUTO 03006KT 10SM CLR 19/11 A3014 RMK AO2 SLP125 T01890111,M
NFL,2022-08-16 10:56,-118.7010,39.4166,1199.00,71.00,38.00,29.74,180.00,3.00,0.00,29.98,1012.40,10.00,M,CLR,M,M,M,M,M,M,M,M,M,M,M,M,M,M,71.10,KNFL 161056Z AUTO 18003KT 10SM CLR 22/03 A2998 RMK AO2 SLP124 T02170033,M
LAS,2022-08-16 10:56,-115.1634,36.0719,663.00,83.00,58.00,42.63,270.00,5.00,0.00,29.89,1009.20,10.00,M,FEW,OVC,M,M,16000.00,20000.00,M,M,M,M,M,M,M,M,M,82.60,KLAS 161056Z 27005KT 10SM FEW160 OVC200 28/14 A2989 RMK AO2 SLP092 T02830144,M
LSV,2022-08-16 10:58,-115.0343,36.2362,570.00,82.40,57.20,42.25,70.00,6.00,0.00,29.86,1008.30,10.00,M,FEW,M,M,M,17000.00,M,M,M,M,M,M,M,M,M,M,82.08,KLSV 161058Z 07006KT 10SM FEW170 28/14 A2986 RMK SLP083 WND DATA ESTMD ALSTG/SLP ESTMD,M
INS,2022-08-16 10:58,-115.6733,36.5872,955.00,78.30,54.50,43.80,0.00,0.00,0.00,29.95,1008.70,10.00,M,FEW,M,M,M,20000.00,M,M,M,M,M,M,M,M,M,M,78.30,KINS 161058Z AUTO 00000KT 10SM FEW200 26/13 A2995 RMK AO2 SLP087 T02570125,M
TMT,2022-08-16 11:15,-117.1971,39.4643,1749.34,51.60,45.00,78.38,0.00,0.00,0.00,30.16,M,10.00,M,CLR,M,M,M,M,M,M,M,M,M,M,M,M,M,M,51.60,KTMT 161115Z AUTO 00000KT 10SM CLR 11/07 A3016 RMK AO2 T01090073,M
CXP,2022-08-16 11:15,-119.7326,39.1923,1431.00,60.80,33.80,36.16,320.00,6.00,0.00,30.10,M,10.00,M,CLR,M,M,M,M,M,M,M,M,M,M,M,M,M,M,60.80,KCXP 161115Z AUTO 32006KT 10SM CLR 16/01 A3010 RMK AO2,M
RTS,2022-08-16 11:15,-119.8764,39.6682,1539.00,59.00,21.20,22.95,340.00,7.00,0.00,30.11,M,10.00,M,CLR,M,M,M,M,M,M,M,M,M,M,M,M,M,M,59.00,KRTS 161115Z AUTO 34007KT 10SM CLR 15/M06 A3011 RMK AO2,M
MEV,2022-08-16 11:15,-119.7500,38.9963,1441.42,51.80,37.40,57.77,110.00,5.00,0.00,30.09,M,10.00,M,FEW,M,M,M,4000.00,M,M,M,M,M,M,M,M,M,M,51.80,KMEV 161115Z AUTO 11005KT 10SM FEW040 11/03 A3009 RMK AO2,M
BAM,2022-08-16 11:15,-116.8743,40.5990,1382.36,62.60,37.40,39.14,50.00,4.00,0.00,30.06,M,10.00,M,CLR,M,M,M,M,M,M,M,M,M,M,M,M,M,M,62.60,KBAM 161115Z AUTO 05004KT 10SM CLR 17/03 A3006 RMK AO1,M
HTH,2022-08-16 11:15,-118.6315,38.5448,1282.89,73.40,42.80,33.29,0.00,0.00,0.00,30.03,M,10.00,M,CLR,M,M,M,M,M,M,M,M,M,M,M,M,M,M,73.40,KHTH 161115Z AUTO 00000KT 10SM CLR 23/06 A3003 RMK A01,M
BVU,2022-08-16 11:15,-114.8611,35.9475,671.00,78.80,59.00,50.69,310.00,3.00,0.00,29.88,M,M,M,M,M,M,M,M,M,M,M,M,M,M,M,M,M,M,78.80,KBVU 161115Z AUTO 31003KT 26/15 A2988 RMK AO2 PWINO TSNO,M
HTH,2022-08-16 11:35,-118.6315,38.5448,1282.89,71.60,42.80,35.37,210.00,4.00,0.00,30.03,M,10.00,M,CLR,M,M,M,M,M,M,M,M,M,M,M,M,M,M,71.60,KHTH 161135Z AUTO 21004KT 10SM CLR 22/06 A3003 RMK A01,M
TMT,2022-08-16 11:35,-117.1971,39.4643,1749.34,48.60,43.20,81.50,0.00,0.00,0.00,30.16,M,10.00,M,CLR,M,M,M,M,M,M,M,M,M,M,M,M,M,M,48.60,KTMT 161135Z AUTO 00000KT 10SM CLR 09/06 A3016 RMK AO2 T00920062,M
MEV,2022-08-16 11:35,-119.7500,38.9963,1441.42,51.80,35.60,53.81,0.00,0.00,0.00,30.09,M,10.00,M,CLR,M,M,M,M,M,M,M,M,M,M,M,M,M,M,51.80,KMEV 161135Z AUTO 00000KT 10SM CLR 11/02 A3009 RMK AO2,M
RTS,2022-08-16 11:35,-119.8764,39.6682,1539.00,57.20,21.20,24.49,350.00,6.00,0.00,30.11,M,10.00,M,CLR,M,M,M,M,M,M,M,M,M,M,M,M,M,M,57.20,KRTS 161135Z AUTO 35006KT 10SM CLR 14/M06 A3011 RMK AO2,M
CXP,2022-08-16 11:35,-119.7326,39.1923,1431.00,59.00,35.60,41.42,0.00,0.00,0.00,30.10,M,10.00,M,CLR,M,M,M,M,M,M,M,M,M,M,M,M,M,M,59.00,KCXP 161135Z AUTO 00000KT 10SM CLR 15/02 A3010 RMK AO2,M
BVU,2022-08-16 11:35,-114.8611,35.9475,671.00,78.80,57.20,47.52,290.00,4.00,0.00,29.88,M,M,M,M,M,M,M,M,M,M,M,M,M,M,M,M,M,M,78.80,KBVU 161135Z AUTO 29004KT 26/14 A2988 RMK AO2 PWINO TSNO,M
BAM,2022-08-16 11:35,-116.8743,40.5990,1382.36,59.00,35.60,41.42,0.00,0.00,0.00,30.06,M,10.00,M,CLR,M,M,M,M,M,M,M,M,M,M,M,M,M,M,59.00,KBAM 161135Z AUTO 00000KT 10SM CLR 15/02 A3006 RMK AO1,M
VGT,2022-08-16 11:53,-115.1933,36.2111,667.00,82.00,61.00,49.03,310.00,6.00,0.00,29.89,1010.60,10.00,M,CLR,M,M,M,M,M,M,M,M,M,M,M,M,M,M,82.62,KVGT 161153Z AUTO 31006KT 10SM CLR 28/16 A2989 RMK AO2 SLP106 T02780161 10306 20272 51009,M
P68,2022-08-16 11:53,-116.0056,39.6014,1993.00,53.00,43.00,68.46,220.00,5.00,0.00,30.18,1013.50,M,M,M,M,M,M,M,M,M,M,M,M,M,M,M,M,M,53.10,KP68 161153Z AUTO 22005KT 12/06 A3018 RMK AO1 SLP135 T01170061 10172 20111 51004,M
DRA,2022-08-16 11:53,-116.0278,36.6206,1009.00,78.00,54.00,43.30,100.00,5.00,0.00,29.95,1008.90,10.00,M,CLR,M,M,M,M,M,M,M,M,M,M,M,M,M,M,78.10,KDRA 161153Z AUTO 10005KT 10SM CLR 26/12 A2995 RMK AO2 SLP089 T02560122 10294 20256 50005,M
LOL,2022-08-16 11:53,-118.5701,40.0684,1192.43,64.00,27.00,24.51,60.00,9.00,0.00,29.98,1010.50,10.00,M,CLR,M,M,M,M,M,M,M,M,M,M,M,M,M,M,64.00,KLOL 161153Z AUTO 06009KT 10SM CLR 18/M03 A2998 RMK AO2 SLP105 T01781028 10222 20161 53001,M
ELY,2022-08-16 11:53,-114.8453,39.2950,1909.00,50.00,42.00,74.15,180.00,8.00,0.00,30.21,M,10.00,M,CLR,M,M,M,M,M,M,M,M,M,M,M,M,M,M,50.00,KELY 161153Z AUTO 18008KT 10SM CLR 10/06 A3021 RMK AO2 SLPNO 7//// T01000056 10161 20094 51001,M
BAM,2022-08-16 11:55,-116.8743,40.5990,1382.36,59.00,35.60,41.42,0.00,0.00,0.00,30.07,M,10.00,M,CLR,M,M,M,M,M,M,M,M,M,M,M,M,M,M,59.00,KBAM 161155Z AUTO 00000KT 10SM CLR 15/02 A3007 RMK AO1,M
HTH,2022-08-16 11:55,-118.6315,38.5448,1282.89,71.60,42.80,35.37,0.00,0.00,0.00,30.03,M,10.00,M,CLR,M,M,M,M,M,M,M,M,M,M,M,M,M,M,71.60,KHTH 161155Z AUTO 00000KT 10SM CLR 22/06 A3003 RMK A01,M
RTS,2022-08-16 11:55,-119.8764,39.6682,1539.00,59.00,21.20,22.95,360.00,6.00,0.00,30.11,M,10.00,M,CLR,M,M,M,M,M,M,M,M,M,M,M,M,M,M,59.00,KRTS 161155Z AUTO 36006KT 10SM CLR 15/M06 A3011 RMK AO2,M
RNO,2022-08-16 11:55,-119.7711,39.4839,1341.00,65.00,37.00,35.54,0.00,0.00,0.00,30.06,1011.50,10.00,M,FEW,M,M,M,15000.00,M,M,M,M,M,M,M,M,M,M,64.90,KRNO 161155Z 00000KT 10SM FEW150 18/03 A3006 RMK AO2 SLP115 T01830028 10272 20183 50001,M
TMT,2022-08-16 11:55,-117.1971,39.4643,1749.34,47.00,42.00,82.66,140.00,3.00,0.00,30.17,M,10.00,M,CLR,M,M,M,M,M,M,M,M,M,M,M,M,M,M,45.95,KTMT 161155Z AUTO 14003KT 10SM CLR 08/06 A3017 RMK AO2 T00840056 10161 20084,M
CXP,2022-08-16 11:55,-119.7326,39.1923,1431.00,59.00,35.60,41.42,0.00,0.00,0.00,30.10,M,10.00,M,CLR,M,M,M,M,M,M,M,M,M,M,M,M,M,M,59.00,KCXP 161155Z AUTO 00000KT 10SM CLR 15/02 A3010 RMK AO2,M
BVU,2022-08-16 11:55,-114.8611,35.9475,671.00,80.60,57.20,44.80,350.00,10.00,0.00,29.88,M,M,M,M,M,M,M,M,M,M,M,M,M,M,M,M,M,M,80.81,KBVU 161155Z AUTO 35010KT 27/14 A2988 RMK AO2 PWINO TSNO,M
MEV,2022-08-16 11:55,-119.7500,38.9963,1441.42,51.80,37.40,57.77,230.00,4.00,0.00,30.09,M,10.00,M,CLR,M,M,M,M,M,M,M,M,M,M,M,M,M,M,51.80,KMEV 161155Z AUTO 23004KT 10SM CLR 11/03 A3009 RMK AO2,M
HND,2022-08-16 11:56,-115.1344,35.9729,742.79,80.00,58.00,46.70,160.00,4.00,0.00,29.93,1011.90,10.00,M,CLR,M,M,M,M,M,M,M,M,M,M,M,M,M,M,80.58,KHND 161156Z AUTO 16004KT 10SM CLR 27/14 A2993 RMK AO2 SLP119 T02670144 10294 20267 51007,M
NFL,2022-08-16 11:56,-118.7010,39.4166,1199.00,73.00,34.00,23.90,220.00,5.00,0.00,29.99,1012.50,10.00,M,CLR,M,M,M,M,M,M,M,M,M,M,M,M,M,M,73.00,KNFL 161156Z AUTO 22005KT 10SM CLR 23/01 A2999 RMK AO2 SLP125 T02280011 10267 20211 53003,M
EKO,2022-08-16 11:56,-115.7860,40.8242,1367.00,56.00,38.00,50.71,80.00,3.00,0.00,30.13,1014.60,10.00,M,CLR,M,M,M,M,M,M,M,M,M,M,M,M,M,M,55.90,KEKO 161156Z AUTO 08003KT 10SM CLR 13/03 A3013 RMK AO2 SLP146 T01330033 10228 20128 53005,M
WMC,2022-08-16 11:56,-117.8072,40.9019,1315.00,56.00,36.00,47.05,200.00,3.00,0.00,30.04,1011.80,10.00,M,CLR,M,M,M,M,M,M,M,M,M,M,M,M,M,M,55.90,KWMC 161156Z AUTO 20003KT 10SM CLR 13/02 A3004 RMK AO2 SLP118 T01330022 10261 20128 53008 $,M
TPH,2022-08-16 11:56,-117.0904,38.0505,1654.00,67.00,51.00,56.82,360.00,7.00,0.00,30.14,1012.10,10.00,M,FEW,M,M,M,12000.00,M,M,M,M,M,M,M,M,M,M,66.90,KTPH 161156Z AUTO 36007KT 10SM FEW120 19/11 A3014 RMK AO2 SLP121 T01940106 10239 20178 58003,M
LAS,2022-08-16 11:56,-115.1634,36.0719,663.00,82.00,58.00,43.89,310.00,4.00,0.00,29.89,1009.20,10.00,M,FEW,BKN,M,M,16000.00,19000.00,M,M,M,M,M,M,M,M,M,81.92,KLAS 161156Z 31004KT 10SM FEW160 BKN190 28/14 A2989 RMK AO2 SLP092 T02780144 10306 20272 51005,M
INS,2022-08-16 11:58,-115.6733,36.5872,955.00,74.30,56.00,53.03,90.00,5.00,0.00,29.96,1009.40,10.00,M,BKN,M,M,M,18000.00,M,M,M,M,M,M,M,M,M,M,74.30,KINS 161158Z AUTO 09005KT 10SM BKN180 24/13 A2996 RMK AO2 SLP094 60000 T02350134 10293 20235 52007,M
LSV,2022-08-16 11:58,-115.0343,36.2362,570.00,80.60,57.20,44.80,0.00,0.00,0.00,29.86,1008.50,10.00,M,SCT,M,M,M,20000.00,M,M,M,M,M,M,M,M,M,M,80.81,KLSV 161158Z 00000KT 10SM SCT200 27/14 A2986 RMK SLP085 WND DATA ESTMD ALSTG/SLP ESTMD,M
BAM,2022-08-16 12:15,-116.8743,40.5990,1382.36,59.00,37.40,44.47,0.00,0.00,0.00,30.07,M,10.00,M,CLR,M,M,M,M,M,M,M,M,M,M,M,M,M,M,59.00,KBAM 161215Z AUTO 00000KT 10SM CLR 15/03 A3007 RMK AO1,M
BVU,2022-08-16 12:15,-114.8611,35.9475,671.00,80.60,57.20,44.80,350.00,10.00,0.00,29.89,M,M,M,M,M,M,M,M,M,M,M,M,M,M,M,M,M,M,80.81,KBVU 161215Z AUTO 35010KT 27/14 A2989 RMK AO2 PWINO TSNO,M
CXP,2022-08-16 12:15,-119.7326,39.1923,1431.00,57.20,35.60,44.19,0.00,0.00,0.00,30.10,M,10.00,M,CLR,M,M,M,M,M,M,M,M,M,M,M,M,M,M,57.20,KCXP 161215Z AUTO 00000KT 10SM CLR 14/02 A3010 RMK AO2,M
RTS,2022-08-16 12:15,-119.8764,39.6682,1539.00,59.00,21.20,22.95,0.00,0.00,0.00,30.11,M,10.00,M,CLR,M,M,M,M,M,M,M,M,M,M,M,M,M,M,59.00,KRTS 161215Z AUTO 00000KT 10SM CLR 15/M06 A3011 RMK AO2,M
TMT,2022-08-16 12:15,-117.1971,39.4643,1749.34,51.00,43.50,75.12,0.00,0.00,0.00,30.18,M,10.00,M,CLR,M,M,M,M,M,M,M,M,M,M,M,M,M,M,51.10,KTMT 161215Z AUTO 00000KT 10SM CLR 11/06 A3018 RMK AO2 T01060064,M
MEV,2022-08-16 12:15,-119.7500,38.9963,1441.42,50.00,39.20,66.27,0.00,0.00,0.00,30.09,M,10.00,M,CLR,M,M,M,M,M,M,M,M,M,M,M,M,M,M,50.00,KMEV 161215Z AUTO 00000KT 10SM CLR 10/04 A3009 RMK AO2,M
HTH,2022-08-16 12:15,-118.6315,38.5448,1282.89,69.80,42.80,37.61,0.00,0.00,0.00,30.03,M,10.00,M,CLR,M,M,M,M,M,M,M,M,M,M,M,M,M,M,69.80,KHTH 161215Z AUTO 00000KT 10SM CLR 21/06 A3003 RMK A01,M
TMT,2022-08-16 12:35,-117.1971,39.4643,1749.34,49.50,43.00,78.21,100.00,3.00,0.00,30.18,M,10.00,M,CLR,M,M,M,M,M,M,M,M,M,M,M,M,M,M,48.69,KTMT 161235Z AUTO 10003KT 10SM CLR 10/06 A3018 RMK AO2 T00970061,M
MEV,2022-08-16 12:35,-119.7500,38.9963,1441.42,48.20,35.60,61.52,80.00,4.00,0.00,30.10,M,10.00,M,CLR,M,M,M,M,M,M,M,M,M,M,M,M,M,M,46.34,KMEV 161235Z AUTO 08004KT 10SM CLR 09/02 A3010 RMK AO2,M
BAM,2022-08-16 12:35,-116.8743,40.5990,1382.36,60.80,37.40,41.71,0.00,0.00,0.00,30.07,M,10.00,M,CLR,M,M,M,M,M,M,M,M,M,M,M,M,M,M,60.80,KBAM 161235Z AUTO 00000KT 10SM CLR 16/03 A3007 RMK AO1,M
CXP,2022-08-16 12:35,-119.7326,39.1923,1431.00,57.20,35.60,44.19,0.00,0.00,0.00,30.11,M,10.00,M,CLR,M,M,M,M,M,M,M,M,M,M,M,M,M,M,57.20,KCXP 161235Z AUTO 00000KT 10SM CLR 14/02 A3011 RMK AO2,M
HTH,2022-08-16 12:35,-118.6315,38.5448,1282.89,69.80,42.80,37.61,0.00,0.00,0.00,30.03,M,10.00,M,CLR,M,M,M,M,M,M,M,M,M,M,M,M,M,M,69.80,KHTH 161235Z AUTO 00000KT 10SM CLR 21/06 A3003 RMK A01,M
RTS,2022-08-16 12:35,-119.8764,39.6682,1539.00,59.00,24.80,26.70,0.00,0.00,0.00,30.12,M,10.00,M,CLR,M,M,M,M,M,M,M,M,M,M,M,M,M,M,59.00,KRTS 161235Z AUTO 00000KT 10SM CLR 15/M04 A3012 RMK AO2,M
BVU,2022-08-16 12:35,-114.8611,35.9475,671.00,78.80,57.20,47.52,0.00,0.00,0.00,29.89,M,M,M,M,M,M,M,M,M,M,M,M,M,M,M,M,M,M,78.80,KBVU 161235Z AUTO 00000KT 26/14 A2989 RMK AO2 PWINO TSNO,M
P68,2022-08-16 12:53,-116.0056,39.6014,1993.00,52.00,43.00,71.28,190.00,4.00,0.00,30.19,1014.30,M,M,M,M,M,M,M,M,M,M,M,M,M,M,M,M,M,52.00,KP68 161253Z AUTO 19004KT 11/06 A3019 RMK AO1 SLP143 T01110061,M
DRA,2022-08-16 12:53,-116.0278,36.6206,1009.00,76.00,56.00,49.91,100.00,11.00,0.00,29.97,1009.50,10.00,M,CLR,M,M,M,M,M,M,M,M,M,M,M,M,M,M,75.90,KDRA 161253Z AUTO 10011KT 10SM CLR 24/13 A2997 RMK AO2 SLP095 T02440133,M
LOL,2022-08-16 12:53,-118.5701,40.0684,1192.43,56.00,28.90,35.36,M,5.00,0.00,30.00,1011.60,10.00,M,CLR,M,M,M,M,M,M,M,M,M,M,M,M,M,M,55.90,KLOL 161253Z AUTO VRB05KT 10SM CLR 13/M02 A3000 RMK AO2 SLP116 T01331017,M
VGT,2022-08-16 12:53,-115.1933,36.2111,667.00,81.00,61.00,50.65,330.00,5.00,0.00,29.89,1010.90,10.00,M,CLR,M,M,M,M,M,M,M,M,M,M,M,M,M,M,81.81,KVGT 161253Z 33005KT 10SM CLR 27/16 A2989 RMK AO2 SLP109 T02720161,M
ELY,2022-08-16 12:53,-114.8453,39.2950,1909.00,48.00,41.00,76.58,180.00,9.00,0.00,30.22,M,10.00,M,CLR,M,M,M,M,M,M,M,M,M,M,M,M,M,M,43.41,KELY 161253Z AUTO 18009KT 10SM CLR 09/05 A3022 RMK AO2 SLPNO T00890050,M
BVU,2022-08-16 12:55,-114.8611,35.9475,671.00,78.80,59.00,50.69,0.00,0.00,0.00,29.90,M,M,M,M,M,M,M,M,M,M,M,M,M,M,M,M,M,M,78.80,KBVU 161255Z AUTO 00000KT 26/15 A2990 RMK AO2 PWINO TSNO,M
HTH,2022-08-16 12:55,-118.6315,38.5448,1282.89,68.00,44.60,42.85,0.00,0.00,0.00,30.04,M,10.00,M,CLR,M,M,M,M,M,M,M,M,M,M,M,M,M,M,68.00,KHTH 161255Z AUTO 00000KT 10SM CLR 20/07 A3004 RMK A01,M
TMT,2022-08-16 12:55,-117.1971,39.4643,1749.34,49.50,43.00,78.21,0.00,0.00,0.00,30.18,M,10.00,M,CLR,M,M,M,M,M,M,M,M,M,M,M,M,M,M,49.50,KTMT 161255Z AUTO 00000KT 10SM CLR 10/06 A3018 RMK AO2 T00970061,M
RNO,2022-08-16 12:55,-119.7711,39.4839,1341.00,63.00,39.00,41.09,0.00,0.00,0.00,30.07,1012.10,10.00,M,SCT,M,M,M,15000.00,M,M,M,M,M,M,M,M,M,M,63.00,KRNO 161255Z 00000KT 10SM SCT150 17/04 A3007 RMK AO2 SLP121 T01720039,M
RTS,2022-08-16 12:55,-119.8764,39.6682,1539.00,51.80,21.20,29.82,330.00,7.00,0.00,30.12,M,10.00,M,CLR,M,M,M,M,M,M,M,M,M,M,M,M,M,M,51.80,KRTS 161255Z AUTO 33007KT 10SM CLR 11/M06 A3012 RMK AO2,M
MEV,2022-08-16 12:55,-119.7500,38.9963,1441.42,50.00,35.60,57.52,120.00,5.00,0.00,30.10,M,10.00,M,CLR,M,M,M,M,M,M,M,M,M,M,M,M,M,M,50.00,KMEV 161255Z AUTO 12005KT 10SM CLR 10/02 A3010 RMK AO2,M
BAM,2022-08-16 12:55,-116.8743,40.5990,1382.36,57.20,35.60,44.19,0.00,0.00,0.00,30.08,M,10.00,M,CLR,M,M,M,M,M,M,M,M,M,M,M,M,M,M,57.20,KBAM 161255Z AUTO 00000KT 10SM CLR 14/02 A3008 RMK AO1,M
CXP,2022-08-16 12:55,-119.7326,39.1923,1431.00,57.20,37.40,47.44,0.00,0.00,0.00,30.11,M,10.00,M,CLR,M,M,M,M,M,M,M,M,M,M,M,M,M,M,57.20,KCXP 161255Z AUTO 00000KT 10SM CLR 14/03 A3011 RMK AO2,M
NFL,2022-08-16 12:56,-118.7010,39.4166,1199.00,70.00,39.00,32.24,220.00,5.00,0.00,30.00,1012.80,10.00,M,CLR,M,M,M,M,M,M,M,M,M,M,M,M,M,M,70.00,KNFL 161256Z AUTO 22005KT 10SM CLR 21/04 A3000 RMK AO2 SLP128 T02110039,M
WMC,2022-08-16 12:56,-117.8072,40.9019,1315.00,56.00,36.00,47.05,180.00,3.00,0.00,30.05,1012.30,10.00,M,CLR,M,M,M,M,M,M,M,M,M,M,M,M,M,M,55.90,KWMC 161256Z AUTO 18003KT 10SM CLR 13/02 A3005 RMK AO2 SLP123 T01330022 $,M
EKO,2022-08-16 12:56,-115.7860,40.8242,1367.00,55.00,39.00,54.70,70.00,4.00,0.00,30.13,1015.00,10.00,M,CLR,M,M,M,M,M,M,M,M,M,M,M,M,M,M,55.00,KEKO 161256Z AUTO 07004KT 10SM CLR 13/04 A3013 RMK AO2 SLP150 T01280039,M
TPH,2022-08-16 12:56,-117.0904,38.0505,1654.00,68.00,50.00,52.51,10.00,7.00,0.00,30.14,1012.20,10.00,M,FEW,M,M,M,12000.00,M,M,M,M,M,M,M,M,M,M,68.00,KTPH 161256Z AUTO 01007KT 10SM FEW120 20/10 A3014 RMK AO2 SLP122 T02000100,M
HND,2022-08-16 12:56,-115.1344,35.9729,742.79,78.00,58.00,49.87,170.00,4.00,0.00,29.93,1012.20,10.00,M,CLR,M,M,M,M,M,M,M,M,M,M,M,M,M,M,78.10,KHND 161256Z 17004KT 10SM CLR 26/14 A2993 RMK AO2 SLP122 T02560144,M
LAS,2022-08-16 12:56,-115.1634,36.0719,663.00,82.00,59.00,45.66,300.00,5.00,0.00,29.90,1009.60,10.00,M,FEW,SCT,M,M,12000.00,16000.00,M,M,M,M,M,M,M,M,M,82.15,KLAS 161256Z 30005KT 10SM FEW120 SCT160 28/15 A2990 RMK AO2 SLP096 T02780150,M
INS,2022-08-16 12:58,-115.6733,36.5872,955.00,73.60,58.00,57.94,0.00,0.00,0.00,29.97,1009.70,10.00,M,CLR,M,M,M,M,M,M,M,M,M,M,M,M,M,M,73.60,KINS 161258Z AUTO 00000KT 10SM CLR 23/14 A2997 RMK AO2 SLP097 T02310144,M
LSV,2022-08-16 12:58,-115.0343,36.2362,570.00,80.60,59.00,47.79,0.00,0.00,0.00,29.88,1009.30,10.00,M,SCT,M,M,M,20000.00,M,M,M,M,M,M,M,M,M,M,81.11,KLSV 161258Z 00000KT 10SM SCT200 27/15 A2988 RMK SLP093 WND DATA ESTMD ALSTG/SLP ESTMD,M
CXP,2022-08-16 13:15,-119.7326,39.1923,1431.00,57.20,37.40,47.44,0.00,0.00,0.00,30.12,M,10.00,M,CLR,M,M,M,M,M,M,M,M,M,M,M,M,M,M,57.20,KCXP 161315Z AUTO 00000KT 10SM CLR 14/03 A3012 RMK AO2,M
MEV,2022-08-16 13:15,-119.7500,38.9963,1441.42,48.20,35.60,61.52,130.00,4.00,0.00,30.11,M,10.00,M,CLR,M,M,M,M,M,M,M,M,M,M,M,M,M,M,46.34,KMEV 161315Z AUTO 13004KT 10SM CLR 09/02 A3011 RMK AO2,M
TMT,2022-08-16 13:15,-117.1971,39.4643,1749.34,50.70,43.70,76.83,0.00,0.00,0.00,30.19,M,10.00,M,CLR,M,M,M,M,M,M,M,M,M,M,M,M,M,M,50.70,KTMT 161315Z AUTO 00000KT 10SM CLR 10/07 A3019 RMK AO2 T01040065,M
HTH,2022-08-16 13:15,-118.6315,38.5448,1282.89,69.80,42.80,37.61,190.00,4.00,0.00,30.04,M,9.00,M,CLR,M,M,M,M,M,M,M,M,M,M,M,M,M,M,69.80,KHTH 161315Z AUTO 19004KT 9SM CLR 21/06 A3004 RMK A01,M
BAM,2022-08-16 13:15,-116.8743,40.5990,1382.36,53.60,33.80,46.88,0.00,0.00,0.00,30.08,M,10.00,M,CLR,M,M,M,M,M,M,M,M,M,M,M,M,M,M,53.60,KBAM 161315Z AUTO 00000KT 10SM CLR 12/01 A3008 RMK AO1,M
BVU,2022-08-16 13:15,-114.8611,35.9475,671.00,78.80,59.00,50.69,0.00,0.00,0.00,29.90,M,M,M,M,M,M,M,M,M,M,M,M,M,M,M,M,M,M,78.80,KBVU 161315Z AUTO 00000KT 26/15 A2990 RMK AO2 PWINO TSNO,M
RTS,2022-08-16 13:15,-119.8764,39.6682,1539.00,51.80,23.00,32.17,340.00,6.00,0.00,30.12,M,10.00,M,CLR,M,M,M,M,M,M,M,M,M,M,M,M,M,M,51.80,KRTS 161315Z AUTO 34006KT 10SM CLR 11/M05 A3012 RMK AO2,M
CXP,2022-08-16 13:35,-119.7326,39.1923,1431.00,59.00,35.60,41.42,0.00,0.00,0.00,30.12,M,10.00,M,CLR,M,M,M,M,M,M,M,M,M,M,M,M,M,M,59.00,KCXP 161335Z AUTO 00000KT 10SM CLR 15/02 A3012 RMK AO2,M
MEV,2022-08-16 13:35,-119.7500,38.9963,1441.42,50.00,35.60,57.52,230.00,4.00,0.00,30.11,M,10.00,M,CLR,M,M,M,M,M,M,M,M,M,M,M,M,M,M,50.00,KMEV 161335Z AUTO 23004KT 10SM CLR 10/02 A3011 RMK AO2,M
BVU,2022-08-16 13:35,-114.8611,35.9475,671.00,80.60,59.00,47.79,0.00,0.00,0.00,29.91,M,M,M,M,M,M,M,M,M,M,M,M,M,M,M,M,M,M,81.11,KBVU 161335Z AUTO 00000KT 27/15 A2991 RMK AO2 PWINO TSNO,M
TMT,2022-08-16 13:35,-117.1971,39.4643,1749.34,52.00,46.40,81.14,0.00,0.00,0.00,30.19,M,10.00,M,CLR,M,M,M,M,M,M,M,M,M,M,M,M,M,M,52.00,KTMT 161335Z AUTO 00000KT 10SM CLR 11/08 A3019 RMK AO2 T01110080,M
HTH,2022-08-16 13:35,-118.6315,38.5448,1282.89,69.80,42.80,37.61,0.00,0.00,0.00,30.05,M,10.00,M,CLR,M,M,M,M,M,M,M,M,M,M,M,M,M,M,69.80,KHTH 161335Z AUTO 00000KT 10SM CLR 21/06 A3005 RMK A01,M
BAM,2022-08-16 13:35,-116.8743,40.5990,1382.36,59.00,35.60,41.42,0.00,0.00,0.00,30.09,M,10.00,M,CLR,M,M,M,M,M,M,M,M,M,M,M,M,M,M,59.00,KBAM 161335Z AUTO 00000KT 10SM CLR 15/02 A3009 RMK AO1,M
RTS,2022-08-16 13:35,-119.8764,39.6682,1539.00,53.60,24.80,32.46,330.00,5.00,0.00,30.13,M,10.00,M,CLR,M,M,M,M,M,M,M,M,M,M,M,M,M,M,53.60,KRTS 161335Z AUTO 33005KT 10SM CLR 12/M04 A3013 RMK AO2,M
VGT,2022-08-16 13:53,-115.1933,36.2111,667.00,82.00,60.00,47.49,320.00,5.00,0.00,29.90,1011.30,10.00,M,CLR,M,M,M,M,M,M,M,M,M,M,M,M,M,M,82.40,KVGT 161353Z 32005KT 10SM CLR 28/16 A2990 RMK AO2 SLP113 T02780156,M
LOL,2022-08-16 13:53,-118.5701,40.0684,1192.43,64.00,26.10,23.61,310.00,6.00,0.00,30.02,1011.80,10.00,M,CLR,M,M,M,M,M,M,M,M,M,M,M,M,M,M,64.00,KLOL 161353Z AUTO 31006KT 10SM CLR 18/M03 A3002 RMK AO2 SLP118 T01781033,M
P68,2022-08-16 13:53,-116.0056,39.6014,1993.00,54.00,44.00,69.09,180.00,5.00,0.00,30.20,1015.00,M,M,M,M,M,M,M,M,M,M,M,M,M,M,M,M,M,54.00,KP68 161353Z AUTO 18005KT 12/07 A3020 RMK AO1 SLP150 T01220067,M
DRA,2022-08-16 13:53,-116.0278,36.6206,1009.00,78.00,54.00,43.30,330.00,3.00,0.00,29.98,1010.10,10.00,M,CLR,M,M,M,M,M,M,M,M,M,M,M,M,M,M,78.10,KDRA 161353Z AUTO 33003KT 10SM CLR 26/12 A2998 RMK AO2 SLP101 T02560122,M
ELY,2022-08-16 13:53,-114.8453,39.2950,1909.00,52.00,42.00,68.86,180.00,10.00,0.00,30.24,M,10.00,M,CLR,M,M,M,M,M,M,M,M,M,M,M,M,M,M,52.00,KELY 161353Z AUTO 18010KT 10SM CLR 11/06 A3024 RMK AO2 SLPNO T01110056 $,M
CXP,2022-08-16 13:55,-119.7326,39.1923,1431.00,60.80,33.80,36.16,0.00,0.00,0.00,30.13,M,10.00,M,CLR,M,M,M,M,M,M,M,M,M,M,M,M,M,M,60.80,KCXP 161355Z AUTO 00000KT 10SM CLR 16/01 A3013 RMK AO2,M
MEV,2022-08-16 13:55,-119.7500,38.9963,1441.42,48.20,37.40,66.05,0.00,0.00,0.00,30.11,M,9.00,M,CLR,M,M,M,M,M,M,M,M,M,M,M,M,M,M,48.20,KMEV 161355Z AUTO 00000KT 9SM CLR 09/03 A3011 RMK AO2,M
TMT,2022-08-16 13:55,-117.1971,39.4643,1749.34,55.20,47.30,74.66,0.00,0.00,0.00,30.20,M,10.00,M,CLR,M,M,M,M,M,M,M,M,M,M,M,M,M,M,55.20,KTMT 161355Z AUTO 00000KT 10SM CLR 13/09 A3020 RMK AO2 T01290085,M
BVU,2022-08-16 13:55,-114.8611,35.9475,671.00,80.60,59.00,47.79,0.00,0.00,0.00,29.91,M,M,M,M,M,M,M,M,M,M,M,M,M,M,M,M,M,M,81.11,KBVU 161355Z AUTO 00000KT 27/15 A2991 RMK AO2 PWINO TSNO,M
RTS,2022-08-16 13:55,-119.8764,39.6682,1539.00,57.20,23.00,26.42,340.00,4.00,0.00,30.14,M,10.00,M,CLR,M,M,M,M,M,M,M,M,M,M,M,M,M,M,57.20,KRTS 161355Z AUTO 34004KT 10SM CLR 14/M05 A3014 RMK AO2,M
HTH,2022-08-16 13:55,-118.6315,38.5448,1282.89,69.80,44.60,40.29,0.00,0.00,0.00,30.06,M,10.00,M,CLR,M,M,M,M,M,M,M,M,M,M,M,M,M,M,69.80,KHTH 161355Z AUTO 00000KT 10SM CLR 21/07 A3006 RMK A01,M
RNO,2022-08-16 13:55,-119.7711,39.4839,1341.00,67.00,34.00,29.44,280.00,3.00,0.00,30.09,1012.60,10.00,M,BKN,M,M,M,15000.00,M,M,M,M,M,M,M,M,M,M,66.90,KRNO 161355Z 28003KT 10SM BKN150 19/01 A3009 RMK AO2 SLP126 T01940011,M
BAM,2022-08-16 13:55,-116.8743,40.5990,1382.36,60.80,37.40,41.71,0.00,0.00,0.00,30.10,M,10.00,M,CLR,M,M,M,M,M,M,M,M,M,M,M,M,M,M,60.80,KBAM 161355Z AUTO 00000KT 10SM CLR 16/03 A3010 RMK AO1,M
HND,2022-08-16 13:56,-115.1344,35.9729,742.79,79.00,58.00,48.41,160.00,4.00,0.00,29.96,1012.90,10.00,M,CLR,M,M,M,M,M,M,M,M,M,M,M,M,M,M,79.00,KHND 161356Z 16004KT 10SM CLR 26/14 A2996 RMK AO2 SLP129 T02610144,M
NFL,2022-08-16 13:56,-118.7010,39.4166,1199.00,68.00,41.00,37.32,120.00,3.00,0.00,30.02,1013.50,10.00,M,CLR,M,M,M,M,M,M,M,M,M,M,M,M,M,M,68.00,KNFL 161356Z AUTO 12003KT 10SM CLR 20/05 A3002 RMK AO2 SLP135 T02000050,M
LAS,2022-08-16 13:56,-115.1634,36.0719,663.00,82.00,59.00,45.66,0.00,0.00,0.00,29.92,1010.20,10.00,M,FEW,M,M,M,16000.00,M,M,M,M,M,M,M,M,M,M,82.15,KLAS 161356Z 00000KT 10SM FEW160 28/15 A2992 RMK AO2 SLP102 T02780150,M
TPH,2022-08-16 13:56,-117.0904,38.0505,1654.00,69.00,50.00,50.56,30.00,7.00,0.00,30.16,1013.00,10.00,M,CLR,M,M,M,M,M,M,M,M,M,M,M,M,M,M,69.10,KTPH 161356Z AUTO 03007KT 10SM CLR 21/10 A3016 RMK AO2 SLP130 T02060100,M
WMC,2022-08-16 13:56,-117.8072,40.9019,1315.00,59.00,37.00,43.78,140.00,4.00,0.00,30.07,1012.70,10.00,M,CLR,M,M,M,M,M,M,M,M,M,M,M,M,M,M,59.00,KWMC 161356Z AUTO 14004KT 10SM CLR 15/03 A3007 RMK AO2 SLP127 T01500028 $,M
EKO,2022-08-16 13:56,-115.7860,40.8242,1367.00,56.00,41.00,57.23,100.00,3.00,0.00,30.15,1015.60,10.00,M,CLR,M,M,M,M,M,M,M,M,M,M,M,M,M,M,55.90,KEKO 161356Z AUTO 10003KT 10SM CLR 13/05 A3015 RMK AO2 SLP156 T01330050,M
LSV,2022-08-16 13:58,-115.0343,36.2362,570.00,78.30,58.60,50.80,0.00,0.00,0.00,29.88,1009.40,10.00,M,SCT,M,M,M,18000.00,M,M,M,M,M,M,M,M,M,M,78.30,KLSV 161358Z 00000KT 10SM SCT180 26/15 A2988 RMK AO2A SLP094 T02570148 $,M
INS,2022-08-16 13:58,-115.6733,36.5872,955.00,74.00,56.30,54.14,0.00,0.00,0.00,29.99,1010.60,10.00,M,CLR,M,M,M,M,M,M,M,M,M,M,M,M,M,M,73.90,KINS 161358Z AUTO 00000KT 10SM CLR 23/14 A2999 RMK AO2 SLP106 T02330135,M
CXP,2022-08-16 14:15,-119.7326,39.1923,1431.00,59.00,37.40,44.47,0.00,0.00,0.00,30.13,M,10.00,M,CLR,M,M,M,M,M,M,M,M,M,M,M,M,M,M,59.00,KCXP 161415Z AUTO 00000KT 10SM CLR 15/03 A3013 RMK AO2,M
RTS,2022-08-16 14:15,-119.8764,39.6682,1539.00,55.40,24.80,30.40,350.00,5.00,0.00,30.14,M,10.00,M,CLR,M,M,M,M,M,M,M,M,M,M,M,M,M,M,55.40,KRTS 161415Z AUTO 35005KT 10SM CLR 13/M04 A3014 RMK AO2,M
MEV,2022-08-16 14:15,-119.7500,38.9963,1441.42,51.80,41.00,66.48,0.00,0.00,0.00,30.12,M,10.00,M,CLR,M,M,M,M,M,M,M,M,M,M,M,M,M,M,51.80,KMEV 161415Z AUTO 00000KT 10SM CLR 11/05 A3012 RMK AO2,M
BAM,2022-08-16 14:15,-116.8743,40.5990,1382.36,64.40,39.20,39.43,0.00,0.00,0.00,30.11,M,10.00,M,CLR,M,M,M,M,M,M,M,M,M,M,M,M,M,M,64.40,KBAM 161415Z AUTO 00000KT 10SM CLR 18/04 A3011 RMK AO1,M
BVU,2022-08-16 14:15,-114.8611,35.9475,671.00,80.60,57.20,44.80,0.00,0.00,0.00,29.92,M,M,M,M,M,M,M,M,M,M,M,M,M,M,M,M,M,M,80.81,KBVU 161415Z AUTO 00000KT 27/14 A2992 RMK AO2 PWINO TSNO,M
HTH,2022-08-16 14:15,-118.6315,38.5448,1282.89,73.40,42.80,33.29,130.00,4.00,0.00,30.06,M,10.00,M,CLR,M,M,M,M,M,M,M,M,M,M,M,M,M,M,73.40,KHTH 161415Z AUTO 13004KT 10SM CLR 23/06 A3006 RMK A01,M
TMT,2022-08-16 14:15,-117.1971,39.4643,1749.34,57.40,47.30,68.94,0.00,0.00,0.00,30.20,M,10.00,M,CLR,M,M,M,M,M,M,M,M,M,M,M,M,M,M,57.40,KTMT 161415Z AUTO 00000KT 10SM CLR 14/09 A3020 RMK AO2 T01410085,M
BAM,2022-08-16 14:35,-116.8743,40.5990,1382.36,69.80,41.00,35.09,0.00,0.00,0.00,30.11,M,10.00,M,CLR,M,M,M,M,M,M,M,M,M,M,M,M,M,M,69.80,KBAM 161435Z AUTO 00000KT 10SM CLR 21/05 A3011 RMK AO1,M
BVU,2022-08-16 14:35,-114.8611,35.9475,671.00,80.60,57.20,44.80,0.00,0.00,0.00,29.93,M,M,M,M,M,M,M,M,M,M,M,M,M,M,M,M,M,M,80.81,KBVU 161435Z AUTO 00000KT 27/14 A2993 RMK AO2 PWINO TSNO,M
CXP,2022-08-16 14:35,-119.7326,39.1923,1431.00,59.00,39.20,47.72,0.00,0.00,0.00,30.13,M,10.00,M,CLR,M,M,M,M,M,M,M,M,M,M,M,M,M,M,59.00,KCXP 161435Z AUTO 00000KT 10SM CLR 15/04 A3013 RMK AO2,M
RTS,2022-08-16 14:35,-119.8764,39.6682,1539.00,60.80,24.80,25.04,310.00,3.00,0.00,30.15,M,10.00,M,CLR,M,M,M,M,M,M,M,M,M,M,M,M,M,M,60.80,KRTS 161435Z AUTO 31003KT 10SM CLR 16/M04 A3015 RMK AO2,M
MEV,2022-08-16 14:35,-119.7500,38.9963,1441.42,55.40,41.00,58.27,0.00,0.00,0.00,30.12,M,10.00,M,CLR,M,M,M,M,M,M,M,M,M,M,M,M,M,M,55.40,KMEV 161435Z AUTO 00000KT 10SM CLR 13/05 A3012 RMK AO2,M
HTH,2022-08-16 14:35,-118.6315,38.5448,1282.89,75.20,41.00,29.23,0.00,0.00,0.00,30.06,M,10.00,M,CLR,M,M,M,M,M,M,M,M,M,M,M,M,M,M,75.20,KHTH 161435Z AUTO 00000KT 10SM CLR 24/05 A3006 RMK A01,M
TMT,2022-08-16 14:35,-117.1971,39.4643,1749.34,58.60,46.80,64.80,0.00,0.00,0.00,30.21,M,10.00,M,CLR,M,M,M,M,M,M,M,M,M,M,M,M,M,M,58.60,KTMT 161435Z AUTO 00000KT 10SM CLR 15/08 A3021 RMK AO2 T01480082,M
DRA,2022-08-16 14:53,-116.0278,36.6206,1009.00,82.00,54.00,38.11,100.00,7.00,0.00,29.98,1010.10,10.00,M,CLR,M,M,M,M,M,M,M,M,M,M,M,M,M,M,81.24,KDRA 161453Z AUTO 10007KT 10SM CLR 28/12 A2998 RMK AO2 SLP101 T02780122 50010,M
VGT,2022-08-16 14:53,-115.1933,36.2111,667.00,85.00,58.00,39.97,350.00,3.00,0.00,29.92,1011.60,10.00,M,CLR,M,M,M,M,M,M,M,M,M,M,M,M,M,M,84.21,KVGT 161453Z 35003KT 10SM CLR 29/14 A2992 RMK AO2 SLP116 T02940144 53009,M
ELY,2022-08-16 14:53,-114.8453,39.2950,1909.00,60.00,43.00,53.15,180.00,7.00,0.00,30.24,1014.90,10.00,M,CLR,M,M,M,M,M,M,M,M,M,M,M,M,M,M,60.10,KELY 161453Z AUTO 18007KT 10SM CLR 16/06 A3024 RMK AO2 SLP149 T01560061 51009 $,M
LOL,2022-08-16 14:53,-118.5701,40.0684,1192.43,73.00,30.00,20.34,50.00,5.00,0.00,30.03,1012.20,10.00,M,CLR,M,M,M,M,M,M,M,M,M,M,M,M,M,M,73.00,KLOL 161453Z AUTO 05005KT 10SM CLR 23/M01 A3003 RMK AO2 SLP122 T02281011 51015,M
P68,2022-08-16 14:53,-116.0056,39.6014,1993.00,65.00,46.00,50.32,210.00,5.00,0.00,30.20,1014.20,M,M,M,M,M,M,M,M,M,M,M,M,M,M,M,M,M,64.90,KP68 161453Z AUTO 21005KT 18/08 A3020 RMK AO1 SLP142 T01830078 51007,M
RTS,2022-08-16 14:55,-119.8764,39.6682,1539.00,62.60,28.40,27.27,0.00,0.00,0.00,30.15,M,10.00,M,CLR,M,M,M,M,M,M,M,M,M,M,M,M,M,M,62.60,KRTS 161455Z AUTO 00000KT 10SM CLR 17/M02 A3015 RMK AO2,M
BVU,2022-08-16 14:55,-114.8611,35.9475,671.00,82.40,59.00,45.07,300.00,3.00,0.00,29.93,M,M,M,M,M,M,M,M,M,M,M,M,M,M,M,M,M,M,82.46,KBVU 161455Z AUTO 30003KT 28/15 A2993 RMK AO2 PWINO TSNO,M
TMT,2022-08-16 14:55,-117.1971,39.4643,1749.34,61.70,47.30,59.13,0.00,0.00,0.00,30.21,M,10.00,M,CLR,M,M,M,M,M,M,M,M,M,M,M,M,M,M,61.70,KTMT 161455Z AUTO 00000KT 10SM CLR 17/09 A3021 RMK AO2 T01650085,M
HTH,2022-08-16 14:55,-118.6315,38.5448,1282.89,75.20,42.80,31.34,0.00,0.00,0.00,30.07,M,10.00,M,CLR,M,M,M,M,M,M,M,M,M,M,M,M,M,M,75.20,KHTH 161455Z AUTO 00000KT 10SM CLR 24/06 A3007 RMK A01,M
BAM,2022-08-16 14:55,-116.8743,40.5990,1382.36,69.80,41.00,35.09,0.00,0.00,0.00,30.11,M,10.00,M,CLR,M,M,M,M,M,M,M,M,M,M,M,M,M,M,69.80,KBAM 161455Z AUTO 00000KT 10SM CLR 21/05 A3011 RMK AO1,M
MEV,2022-08-16 14:55,-119.7500,38.9963,1441.42,60.80,39.20,44.76,0.00,0.00,0.00,30.12,M,10.00,M,CLR,M,M,M,M,M,M,M,M,M,M,M,M,M,M,60.80,KMEV 161455Z AUTO 00000KT 10SM CLR 16/04 A3012 RMK AO2,M
RNO,2022-08-16 14:55,-119.7711,39.4839,1341.00,71.00,35.00,26.63,300.00,4.00,0.00,30.10,1013.00,10.00,M,BKN,M,M,M,17000.00,M,M,M,M,M,M,M,M,M,M,71.10,KRNO 161455Z 30004KT 10SM BKN170 22/02 A3010 RMK AO2 SLP130 VIRGA N T02170017 53012,M
CXP,2022-08-16 14:55,-119.7326,39.1923,1431.00,62.60,37.40,39.14,0.00,0.00,0.00,30.14,M,10.00,M,CLR,M,M,M,M,M,M,M,M,M,M,M,M,M,M,62.60,KCXP 161455Z AUTO 00000KT 10SM CLR 17/03 A3014 RMK AO2,M
TPH,2022-08-16 14:56,-117.0904,38.0505,1654.00,75.00,48.00,38.43,360.00,5.00,0.00,30.17,1012.80,10.00,M,CLR,M,M,M,M,M,M,M,M,M,M,M,M,M,M,75.00,KTPH 161456Z AUTO 36005KT 10SM CLR 24/09 A3017 RMK AO2 SLP128 T02390089 51009,M
LAS,2022-08-16 14:56,-115.1634,36.0719,663.00,84.00,59.00,42.80,0.00,0.00,0.00,29.93,1010.50,10.00,M,FEW,M,M,M,16000.00,M,M,M,M,M,M,M,M,M,M,83.75,KLAS 161456Z 00000KT 10SM FEW160 29/15 A2993 RMK AO2 SLP105 T02890150 51012,M
EKO,2022-08-16 14:56,-115.7860,40.8242,1367.00,64.00,37.00,36.68,80.00,6.00,0.00,30.16,1015.90,10.00,M,CLR,M,M,M,M,M,M,M,M,M,M,M,M,M,M,64.00,KEKO 161456Z AUTO 08006KT 10SM CLR 18/03 A3016 RMK AO2 SLP159 T01780028 51010,M
NFL,2022-08-16 14:56,-118.7010,39.4166,1199.00,78.00,33.00,19.45,200.00,3.00,0.00,30.04,1014.00,10.00,M,SCT,SCT,BKN,M,8000.00,12000.00,17000.00,M,M,M,M,M,M,M,M,78.10,KNFL 161456Z 20003KT 10SM SCT080 SCT120 BKN170 28/M02 A3004 RMK SLP140 VIRGA DSNT W-NW T02560006 53015,M
HND,2022-08-16 14:56,-115.1344,35.9729,742.79,83.00,59.00,44.34,0.00,0.00,0.00,29.96,1013.00,10.00,M,CLR,M,M,M,M,M,M,M,M,M,M,M,M,M,M,82.86,KHND 161456Z 00000KT 10SM CLR 28/15 A2996 RMK AO2 SLP130 T02830150 51011,M
WMC,2022-08-16 14:56,-117.8072,40.9019,1315.00,72.00,36.00,26.77,0.00,0.00,0.00,30.07,1012.70,10.00,M,CLR,M,M,M,M,M,M,M,M,M,M,M,M,M,M,72.00,KWMC 161456Z AUTO 00000KT 10SM CLR 22/02 A3007 RMK AO2 SLP127 T02220022 51011 $,M
INS,2022-08-16 14:58,-115.6733,36.5872,955.00,78.00,55.00,44.90,0.00,0.00,0.00,29.98,1010.10,10.00,M,CLR,M,M,M,M,M,M,M,M,M,M,M,M,M,M,78.10,KINS 161458Z AUTO 00000KT 10SM CLR 26/13 A2998 RMK AO2 SLP101 T02560128 50007,M
LSV,2022-08-16 14:58,-115.0343,36.2362,570.00,87.00,65.00,47.73,0.00,0.00,0.00,29.89,M,10.00,M,BKN,M,M,M,14000.00,M,M,M,M,M,M,M,M,M,M,88.86,KLSV 161458Z AUTO 00000KT 10SM BKN140 31/18 A2989 RMK AO2 SLPNO T03060183 $,M
HTH,2022-08-16 15:15,-118.6315,38.5448,1282.89,77.00,42.80,29.51,0.00,0.00,0.00,30.07,M,10.00,M,CLR,M,M,M,M,M,M,M,M,M,M,M,M,M,M,77.00,KHTH 161515Z AUTO 00000KT 10SM CLR 25/06 A3007 RMK A01,M
TMT,2022-08-16 15:15,-117.1971,39.4643,1749.34,63.70,47.80,56.16,0.00,0.00,0.00,30.21,M,10.00,M,CLR,M,M,M,M,M,M,M,M,M,M,M,M,M,M,63.70,KTMT 161515Z AUTO 00000KT 10SM CLR 18/09 A3021 RMK AO2 T01760088,M
BVU,2022-08-16 15:15,-114.8611,35.9475,671.00,82.40,59.00,45.07,0.00,0.00,0.00,29.93,M,M,M,M,M,M,M,M,M,M,M,M,M,M,M,M,M,M,82.46,KBVU 161515Z AUTO 00000KT 28/15 A2993 RMK AO2 PWINO TSNO,M
CXP,2022-08-16 15:15,-119.7326,39.1923,1431.00,64.40,37.40,36.74,0.00,0.00,0.00,30.14,M,10.00,M,CLR,M,M,M,M,M,M,M,M,M,M,M,M,M,M,64.40,KCXP 161515Z AUTO 00000KT 10SM CLR 18/03 A3014 RMK AO2,M
RTS,2022-08-16 15:15,-119.8764,39.6682,1539.00,64.40,28.40,25.60,0.00,0.00,0.00,30.15,M,9.00,M,CLR,M,M,M,M,M,M,M,M,M,M,M,M,M,M,64.40,KRTS 161515Z AUTO 00000KT 9SM CLR 18/M02 A3015 RMK AO2,M
BAM,2022-08-16 15:15,-116.8743,40.5990,1382.36,73.40,41.00,31.05,0.00,0.00,0.00,30.12,M,10.00,M,CLR,M,M,M,M,M,M,M,M,M,M,M,M,M,M,73.40,KBAM 161515Z AUTO 00000KT 10SM CLR 23/05 A3012 RMK AO1,M
MEV,2022-08-16 15:15,-119.7500,38.9963,1441.42,62.60,39.20,42.00,0.00,0.00,0.00,30.13,M,10.00,M,CLR,M,M,M,M,M,M,M,M,M,M,M,M,M,M,62.60,KMEV 161515Z AUTO 00000KT 10SM CLR 17/04 A3013 RMK AO2,M
NFL,2022-08-16 15:30,-118.7010,39.4166,1199.00,82.00,28.90,14.44,260.00,5.00,0.00,30.04,M,10.00,M,SCT,SCT,BKN,M,8000.00,12000.00,17000.00,M,M,M,M,M,M,M,M,79.67,KNFL 161530Z 26005KT 10SM SCT080 SCT120 BKN170 28/M02 A3004 RMK AO2 VIRGA DSNT W-NW T02781017,M
BAM,2022-08-16 15:35,-116.8743,40.5990,1382.36,77.00,41.00,27.53,50.00,3.00,0.00,30.11,M,10.00,M,CLR,M,M,M,M,M,M,M,M,M,M,M,M,M,M,77.00,KBAM 161535Z AUTO 05003KT 10SM CLR 25/05 A3011 RMK AO1,M
TMT,2022-08-16 15:35,-117.1971,39.4643,1749.34,66.00,48.60,53.41,0.00,0.00,0.00,30.21,M,10.00,M,CLR,M,M,M,M,M,M,M,M,M,M,M,M,M,M,66.00,KTMT 161535Z AUTO 00000KT 10SM CLR 19/09 A3021 RMK AO2 T01890092,M
HTH,2022-08-16 15:35,-118.6315,38.5448,1282.89,78.80,42.80,27.81,0.00,0.00,0.00,30.08,M,10.00,M,CLR,M,M,M,M,M,M,M,M,M,M,M,M,M,M,78.80,KHTH 161535Z AUTO 00000KT 10SM CLR 26/06 A3008 RMK A01,M
MEV,2022-08-16 15:35,-119.7500,38.9963,1441.42,64.40,39.20,39.43,0.00,0.00,0.00,30.13,M,10.00,M,CLR,M,M,M,M,M,M,M,M,M,M,M,M,M,M,64.40,KMEV 161535Z AUTO 00000KT 10SM CLR 18/04 A3013 RMK AO2,M
RTS,2022-08-16 15:35,-119.8764,39.6682,1539.00,68.00,28.40,22.59,0.00,0.00,0.00,30.15,M,10.00,M,CLR,M,M,M,M,M,M,M,M,M,M,M,M,M,M,68.00,KRTS 161535Z AUTO 00000KT 10SM CLR 20/M02 A3015 RMK AO2,M
CXP,2022-08-16 15:35,-119.7326,39.1923,1431.00,66.20,37.40,34.51,0.00,0.00,0.00,30.14,M,10.00,M,CLR,M,M,M,M,M,M,M,M,M,M,M,M,M,M,66.20,KCXP 161535Z AUTO 00000KT 10SM CLR 19/03 A3014 RMK AO2,M
BVU,2022-08-16 15:35,-114.8611,35.9475,671.00,82.40,59.00,45.07,0.00,0.00,0.00,29.93,M,M,M,M,M,M,M,M,M,M,M,M,M,M,M,M,M,M,82.46,KBVU 161535Z AUTO 00000KT 28/15 A2993 RMK AO2 PWINO TSNO,M
DRA,2022-08-16 15:53,-116.0278,36.6206,1009.00,87.00,52.00,30.05,M,3.00,0.00,29.98,1009.50,10.00,M,CLR,M,M,M,M,M,M,M,M,M,M,M,M,M,M,84.82,KDRA 161553Z AUTO VRB03KT 10SM CLR 31/11 A2998 RMK AO2 SLP095 T03060111,M
P68,2022-08-16 15:53,-116.0056,39.6014,1993.00,73.00,43.00,34.00,0.00,0.00,0.00,30.20,1014.20,M,M,M,M,M,M,M,M,M,M,M,M,M,M,M,M,M,73.00,KP68 161553Z AUTO 00000KT 23/06 A3020 RMK AO1 SLP142 T02280061,M
LOL,2022-08-16 15:53,-118.5701,40.0684,1192.43,78.00,28.90,16.41,300.00,5.00,0.00,30.04,1012.90,10.00,M,CLR,M,M,M,M,M,M,M,M,M,M,M,M,M,M,78.10,KLOL 161553Z AUTO 30005KT 10SM CLR 26/M02 A3004 RMK AO2 SLP129 T02561017,M
ELY,2022-08-16 15:53,-114.8453,39.2950,1909.00,69.00,40.00,34.43,0.00,0.00,0.00,30.24,1013.80,10.00,M,CLR,M,M,M,M,M,M,M,M,M,M,M,M,M,M,69.10,KELY 161553Z AUTO 00000KT 10SM CLR 21/04 A3024 RMK AO2 SLP138 T02060044 $,M
VGT,2022-08-16 15:53,-115.1933,36.2111,667.00,87.00,58.00,37.25,330.00,4.00,0.00,29.92,1011.70,10.00,M,CLR,M,M,M,M,M,M,M,M,M,M,M,M,M,M,86.14,KVGT 161553Z 33004KT 10SM CLR 31/14 A2992 RMK AO2 SLP117 T03060144,M
HTH,2022-08-16 15:55,-118.6315,38.5448,1282.89,80.60,41.00,24.46,0.00,0.00,0.00,30.08,M,10.00,M,CLR,M,M,M,M,M,M,M,M,M,M,M,M,M,M,79.20,KHTH 161555Z AUTO 00000KT 10SM CLR 27/05 A3008 RMK A01,M
TMT,2022-08-16 15:55,-117.1971,39.4643,1749.34,M,M,M,0.00,0.00,0.00,30.20,M,10.00,M,CLR,M,M,M,M,M,M,M,M,M,M,M,M,M,M,M,KTMT 161555Z AUTO 00000KT 10SM CLR A3020 RMK AO2,M
CXP,2022-08-16 15:55,-119.7326,39.1923,1431.00,69.80,35.60,28.39,0.00,0.00,0.00,30.14,M,10.00,M,CLR,M,M,M,M,M,M,M,M,M,M,M,M,M,M,69.80,KCXP 161555Z AUTO 00000KT 10SM CLR 21/02 A3014 RMK AO2,M
RNO,2022-08-16 15:55,-119.7711,39.4839,1341.00,71.00,37.00,28.71,220.00,3.00,0.00,30.11,1013.30,10.00,M,BKN,M,M,M,15000.00,M,M,M,M,M,M,M,M,M,M,71.10,KRNO 161555Z 22003KT 10SM BKN150 22/03 A3011 RMK AO2 SLP133 ACC ALQDS T02170028,M
BVU,2022-08-16 15:55,-114.8611,35.9475,671.00,84.20,59.00,42.52,0.00,0.00,0.00,29.93,M,M,M,M,M,M,M,M,M,M,M,M,M,M,M,M,M,M,83.92,KBVU 161555Z AUTO 00000KT 29/15 A2993 RMK AO2 PWINO TSNO,M
RTS,2022-08-16 15:55,-119.8764,39.6682,1539.00,69.80,26.60,19.72,0.00,0.00,0.00,30.15,M,10.00,M,CLR,M,M,M,M,M,M,M,M,M,M,M,M,M,M,69.80,KRTS 161555Z AUTO 00000KT 10SM CLR 21/M03 A3015 RMK AO2,M
MEV,2022-08-16 15:55,-119.7500,38.9963,1441.42,64.40,37.40,36.74,0.00,0.00,0.00,30.13,M,10.00,M,CLR,M,M,M,M,M,M,M,M,M,M,M,M,M,M,64.40,KMEV 161555Z AUTO 00000KT 10SM CLR 18/03 A3013 RMK AO2,M
BAM,2022-08-16 15:55,-116.8743,40.5990,1382.36,80.60,41.00,24.46,40.00,5.00,0.00,30.11,M,10.00,M,CLR,M,M,M,M,M,M,M,M,M,M,M,M,M,M,79.20,KBAM 161555Z AUTO 04005KT 10SM CLR 27/05 A3011 RMK AO1,M
NFL,2022-08-16 15:56,-118.7010,39.4166,1199.00,82.00,28.90,14.44,250.00,5.00,0.00,30.04,1014.20,10.00,M,SCT,SCT,BKN,M,8000.00,12000.00,17000.00,M,M,M,M,M,M,M,M,79.67,KNFL 161556Z 25005KT 10SM SCT080 SCT120 BKN170 28/M02 A3004 RMK AO2 SLP142 VIRGA DSNT W-NW T02781017,M
HND,2022-08-16 15:56,-115.1344,35.9729,742.79,87.00,59.00,38.75,60.00,4.00,0.00,29.97,1013.00,10.00,M,CLR,M,M,M,M,M,M,M,M,M,M,M,M,M,M,86.47,KHND 161556Z 06004KT 10SM CLR 31/15 A2997 RMK AO2 SLP130 T03060150,M
LAS,2022-08-16 15:56,-115.1634,36.0719,663.00,88.00,57.00,35.05,10.00,4.00,0.00,29.93,1010.50,10.00,M,BKN,M,M,M,16000.00,M,M,M,M,M,M,M,M,M,M,86.71,KLAS 161556Z 01004KT 10SM BKN160 31/14 A2993 RMK AO2 SLP105 T03110139,M
TPH,2022-08-16 15:56,-117.0904,38.0505,1654.00,78.00,47.00,33.26,0.00,0.00,0.00,30.16,1012.60,10.00,M,CLR,M,M,M,M,M,M,M,M,M,M,M,M,M,M,78.10,KTPH 161556Z AUTO 00000KT 10SM CLR 26/08 A3016 RMK AO2 SLP126 T02560083,M
EKO,2022-08-16 15:56,-115.7860,40.8242,1367.00,70.00,39.00,32.24,M,4.00,0.00,30.16,1015.60,10.00,M,CLR,M,M,M,M,M,M,M,M,M,M,M,M,M,M,70.00,KEKO 161556Z AUTO VRB04KT 10SM CLR 21/04 A3016 RMK AO2 SLP156 T02110039,M
WMC,2022-08-16 15:56,-117.8072,40.9019,1315.00,79.00,38.00,22.84,90.00,6.00,0.00,30.08,1013.10,10.00,M,CLR,M,M,M,M,M,M,M,M,M,M,M,M,M,M,79.00,KWMC 161556Z AUTO 09006KT 10SM CLR 26/03 A3008 RMK AO2 SLP131 T02610033,M
INS,2022-08-16 15:58,-115.6733,36.5872,955.00,82.00,55.20,39.81,110.00,4.00,0.00,29.98,1010.10,10.00,M,CLR,M,M,M,M,M,M,M,M,M,M,M,M,M,M,81.43,KINS 161558Z AUTO 11004KT 10SM CLR 28/13 A2998 RMK AO2 SLP101 T02780129,M
LSV,2022-08-16 15:58,-115.0343,36.2362,570.00,91.00,60.00,35.75,0.00,0.00,0.00,29.89,M,10.00,M,SCT,M,M,M,14000.00,M,M,M,M,M,M,M,M,M,M,90.58,KLSV 161558Z 00000KT 10SM SCT140 33/16 A2989 RMK AO2A SLPNO T03270156 $,M
BVU,2022-08-16 16:15,-114.8611,35.9475,671.00,86.00,59.00,40.14,0.00,0.00,0.00,29.93,M,M,M,M,M,M,M,M,M,M,M,M,M,M,M,M,M,M,85.47,KBVU 161615Z AUTO 00000KT 30/15 A2993 RMK AO2 PWINO TSNO,M
CXP,2022-08-16 16:15,-119.7326,39.1923,1431.00,71.60,35.60,26.71,0.00,0.00,0.00,30.14,M,10.00,M,CLR,M,M,M,M,M,M,M,M,M,M,M,M,M,M,71.60,KCXP 161615Z AUTO 00000KT 10SM CLR 22/02 A3014 RMK AO2,M
RTS,2022-08-16 16:15,-119.8764,39.6682,1539.00,71.60,26.60,18.55,0.00,0.00,0.00,30.15,M,10.00,M,CLR,M,M,M,M,M,M,M,M,M,M,M,M,M,M,71.60,KRTS 161615Z AUTO 00000KT 10SM CLR 22/M03 A3015 RMK AO2,M
MEV,2022-08-16 16:15,-119.7500,38.9963,1441.42,68.00,35.60,30.20,0.00,0.00,0.00,30.13,M,10.00,M,CLR,M,M,M,M,M,M,M,M,M,M,M,M,M,M,68.00,KMEV 161615Z AUTO 00000KT 10SM CLR 20/02 A3013 RMK AO2,M
BAM,2022-08-16 16:15,-116.8743,40.5990,1382.36,80.60,42.80,26.22,30.00,4.00,0.00,30.11,M,10.00,M,CLR,M,M,M,M,M,M,M,M,M,M,M,M,M,M,79.30,KBAM 161615Z AUTO 03004KT 10SM CLR 27/06 A3011 RMK AO1,M
HTH,2022-08-16 16:15,-118.6315,38.5448,1282.89,82.40,39.20,21.51,0.00,0.00,0.00,30.07,M,10.00,M,CLR,M,M,M,M,M,M,M,M,M,M,M,M,M,M,80.21,KHTH 161615Z AUTO 00000KT 10SM CLR 28/04 A3007 RMK A01,M
TMT,2022-08-16 16:15,-117.1971,39.4643,1749.34,M,M,M,0.00,0.00,0.00,30.20,M,10.00,M,CLR,M,M,M,M,M,M,M,M,M,M,M,M,M,M,M,KTMT 161615Z AUTO 00000KT 10SM CLR A3020 RMK AO2,M
BVU,2022-08-16 16:35,-114.8611,35.9475,671.00,86.00,57.20,37.62,0.00,0.00,0.00,29.93,M,M,M,M,M,M,M,M,M,M,M,M,M,M,M,M,M,M,84.97,KBVU 161635Z AUTO 00000KT 30/14 A2993 RMK AO2 PWINO TSNO,M
TMT,2022-08-16 16:35,-117.1971,39.4643,1749.34,M,M,M,0.00,0.00,0.00,30.19,M,10.00,M,CLR,M,M,M,M,M,M,M,M,M,M,M,M,M,M,M,KTMT 161635Z AUTO 00000KT 10SM CLR A3019 RMK AO2,M
BAM,2022-08-16 16:35,-116.8743,40.5990,1382.36,82.40,42.80,24.72,20.00,3.00,0.00,30.11,M,10.00,M,CLR,M,M,M,M,M,M,M,M,M,M,M,M,M,M,80.39,KBAM 161635Z AUTO 02003KT 10SM CLR 28/06 A3011 RMK AO1,M
CXP,2022-08-16 16:35,-119.7326,39.1923,1431.00,71.60,33.80,24.86,300.00,3.00,0.00,30.13,M,10.00,M,CLR,M,M,M,M,M,M,M,M,M,M,M,M,M,M,71.60,KCXP 161635Z AUTO 30003KT 10SM CLR 22/01 A3013 RMK AO2,M
RTS,2022-08-16 16:35,-119.8764,39.6682,1539.00,71.60,28.40,19.98,0.00,0.00,0.00,30.15,M,10.00,M,CLR,M,M,M,M,M,M,M,M,M,M,M,M,M,M,71.60,KRTS 161635Z AUTO 00000KT 10SM CLR 22/M02 A3015 RMK AO2,M
HTH,2022-08-16 16:35,-118.6315,38.5448,1282.89,82.40,39.20,21.51,0.00,0.00,0.00,30.07,M,10.00,M,CLR,M,M,M,M,M,M,M,M,M,M,M,M,M,M,80.21,KHTH 161635Z AUTO 00000KT 10SM CLR 28/04 A3007 RMK A01,M
MEV,2022-08-16 16:35,-119.7500,38.9963,1441.42,71.60,33.80,24.86,0.00,0.00,0.00,30.13,M,10.00,M,CLR,M,M,M,M,M,M,M,M,M,M,M,M,M,M,71.60,KMEV 161635Z AUTO 00000KT 10SM CLR 22/01 A3013 RMK AO2,M
P68,2022-08-16 16:53,-116.0056,39.6014,1993.00,79.00,43.00,27.84,M,4.00,0.00,30.20,1013.60,M,M,M,M,M,M,M,M,M,M,M,M,M,M,M,M,M,79.00,KP68 161653Z AUTO VRB04KT 26/06 A3020 RMK AO1 SLP136 T02610061,M
VGT,2022-08-16 16:53,-115.1933,36.2111,667.00,91.00,58.00,32.94,M,3.00,0.00,29.92,1011.80,10.00,M,CLR,M,M,M,M,M,M,M,M,M,M,M,M,M,M,89.88,KVGT 161653Z VRB03KT 10SM CLR 33/14 A2992 RMK AO2 SLP118 T03280144,M
ELY,2022-08-16 16:53,-114.8453,39.2950,1909.00,75.00,38.00,26.08,360.00,6.00,0.00,30.23,1013.60,10.00,M,CLR,M,M,M,M,M,M,M,M,M,M,M,M,M,M,75.00,KELY 161653Z AUTO 36006KT 10SM CLR 24/03 A3023 RMK AO2 SLP136 T02390033 $,M
DRA,2022-08-16 16:53,-116.0278,36.6206,1009.00,90.00,51.00,26.52,130.00,10.00,0.00,29.98,1009.40,10.00,M,CLR,M,M,M,M,M,M,M,M,M,M,M,M,M,M,87.24,KDRA 161653Z AUTO 13010KT 10SM CLR 32/11 A2998 RMK AO2 SLP094 T03220106,M
LOL,2022-08-16 16:53,-118.5701,40.0684,1192.43,87.00,30.90,13.30,60.00,5.00,0.00,30.04,1012.20,10.00,M,CLR,M,M,M,M,M,M,M,M,M,M,M,M,M,M,83.51,KLOL 161653Z AUTO 06005KT 10SM CLR 31/M01 A3004 RMK AO2 SLP122 T03061006,M
CXP,2022-08-16 16:55,-119.7326,39.1923,1431.00,73.40,35.60,25.13,M,4.00,0.00,30.13,M,10.00,M,CLR,M,M,M,M,M,M,M,M,M,M,M,M,M,M,73.40,KCXP 161655Z AUTO VRB04KT 10SM CLR 23/02 A3013 RMK AO2,M
TMT,2022-08-16 16:55,-117.1971,39.4643,1749.34,M,M,M,270.00,4.00,0.00,30.19,M,10.00,M,CLR,M,M,M,M,M,M,M,M,M,M,M,M,M,M,M,KTMT 161655Z AUTO 27004KT 10SM CLR A3019 RMK AO2,M
HTH,2022-08-16 16:55,-118.6315,38.5448,1282.89,84.20,39.20,20.29,M,4.00,0.00,30.07,M,10.00,M,CLR,M,M,M,M,M,M,M,M,M,M,M,M,M,M,81.44,KHTH 161655Z AUTO VRB04KT 10SM CLR 29/04 A3007 RMK A01,M
BAM,2022-08-16 16:55,-116.8743,40.5990,1382.36,84.20,42.80,23.33,0.00,0.00,0.00,30.11,M,10.00,M,CLR,M,M,M,M,M,M,M,M,M,M,M,M,M,M,81.61,KBAM 161655Z AUTO 00000KT 10SM CLR 29/06 A3011 RMK AO1,M
MEV,2022-08-16 16:55,-119.7500,38.9963,1441.42,71.60,37.40,28.68,0.00,0.00,0.00,30.12,M,10.00,M,CLR,M,M,M,M,M,M,M,M,M,M,M,M,M,M,71.60,KMEV 161655Z AUTO 00000KT 10SM CLR 22/03 A3012 RMK AO2,M
RTS,2022-08-16 16:55,-119.8764,39.6682,1539.00,73.40,32.00,21.76,0.00,0.00,0.00,30.15,M,10.00,M,CLR,M,M,M,M,M,M,M,M,M,M,M,M,M,M,73.40,KRTS 161655Z AUTO 00000KT 10SM CLR 23/M00 A3015 RMK AO2,M
RNO,2022-08-16 16:55,-119.7711,39.4839,1341.00,75.00,34.00,22.35,0.00,0.00,0.00,30.10,1013.00,10.00,M,BKN,BKN,M,M,14000.00,19000.00,M,M,M,M,M,M,M,M,M,75.00,KRNO 161655Z 00000KT 10SM BKN140 BKN190 24/01 A3010 RMK AO2 SLP130 VIRGA ACC ALQDS T02390011,M
BVU,2022-08-16 16:55,-114.8611,35.9475,671.00,87.80,59.00,37.90,50.00,6.00,0.00,29.93,M,M,M,M,M,M,M,M,M,M,M,M,M,M,M,M,M,M,87.12,KBVU 161655Z AUTO 05006KT 31/15 A2993 RMK AO2 PWINO TSNO,M
WMC,2022-08-16 16:56,-117.8072,40.9019,1315.00,85.00,36.00,17.50,50.00,4.00,0.00,30.07,1012.80,10.00,M,CLR,M,M,M,M,M,M,M,M,M,M,M,M,M,M,81.86,KWMC 161656Z AUTO 05004KT 10SM CLR 29/02 A3007 RMK AO2 SLP128 T02940022,M
TPH,2022-08-16 16:56,-117.0904,38.0505,1654.00,81.00,45.00,28.15,0.00,0.00,0.00,30.15,1012.20,10.00,M,CLR,M,M,M,M,M,M,M,M,M,M,M,M,M,M,79.68,KTPH 161656Z AUTO 00000KT 10SM CLR 27/07 A3015 RMK AO2 SLP122 T02720072,M
NFL,2022-08-16 16:56,-118.7010,39.4166,1199.00,84.00,27.00,12.52,300.00,3.00,0.00,30.04,1014.20,10.00,M,SCT,SCT,BKN,M,8000.00,12000.00,17000.00,M,M,M,M,M,M,M,M,81.03,KNFL 161656Z 30003KT 10SM SCT080 SCT120 BKN170 29/M03 A3004 RMK SLP142 T02891028,M
LAS,2022-08-16 16:56,-115.1634,36.0719,663.00,88.00,58.00,36.21,70.00,5.00,0.00,29.93,1010.60,10.00,M,BKN,M,M,M,16000.00,M,M,M,M,M,M,M,M,M,M,86.96,KLAS 161656Z 07005KT 10SM BKN160 31/14 A2993 RMK AO2 SLP106 T03110144,M
HND,2022-08-16 16:56,-115.1344,35.9729,742.79,90.00,60.00,36.77,60.00,7.00,0.00,29.96,1012.90,10.00,M,CLR,M,M,M,M,M,M,M,M,M,M,M,M,M,M,89.66,KHND 161656Z 06007KT 10SM CLR 32/16 A2996 RMK AO2 SLP129 T03220156,M
EKO,2022-08-16 16:56,-115.7860,40.8242,1367.00,77.00,37.00,23.55,70.00,5.00,0.00,30.15,1014.80,10.00,M,CLR,M,M,M,M,M,M,M,M,M,M,M,M,M,M,77.00,KEKO 161656Z AUTO 07005KT 10SM CLR 25/03 A3015 RMK AO2 SLP148 T02500028,M
INS,2022-08-16 16:58,-115.6733,36.5872,955.00,85.50,54.70,34.92,100.00,6.00,0.00,29.98,1010.20,10.00,M,CLR,M,M,M,M,M,M,M,M,M,M,M,M,M,M,83.98,KINS 161658Z AUTO 10006KT 10SM CLR 30/13 A2998 RMK AO2 SLP102 T02970126,M
LSV,2022-08-16 16:58,-115.0343,36.2362,570.00,92.70,57.60,30.90,90.00,5.00,0.00,29.89,M,10.00,M,CLR,M,M,M,M,M,M,M,M,M,M,M,M,M,M,91.53,KLSV 161658Z 09005KT 10SM CLR 34/14 A2989 RMK AO2A SLPNO T03370142 $,M
CXP,2022-08-16 17:10,-119.7326,39.1923,1431.00,75.20,33.80,22.02,0.00,0.00,0.00,30.13,M,10.00,M,CLR,M,M,M,M,M,M,M,M,M,M,M,M,M,M,75.20,KCXP 161710Z AUTO 00000KT 10SM CLR 24/01 A3013 RMK AO2,M
BAM,2022-08-16 17:15,-116.8743,40.5990,1382.36,86.00,42.80,22.02,60.00,3.00,0.00,30.11,M,10.00,M,CLR,M,M,M,M,M,M,M,M,M,M,M,M,M,M,82.95,KBAM 161715Z AUTO 06003KT 10SM CLR 30/06 A3011 RMK AO1,M
MEV,2022-08-16 17:15,-119.7500,38.9963,1441.42,71.60,35.60,26.71,0.00,0.00,0.00,30.12,M,10.00,M,CLR,M,M,M,M,M,M,M,M,M,M,M,M,M,M,71.60,KMEV 161715Z AUTO 00000KT 10SM CLR 22/02 A3012 RMK AO2,M
RTS,2022-08-16 17:15,-119.8764,39.6682,1539.00,73.40,32.00,21.76,0.00,0.00,0.00,30.16,M,9.00,M,FEW,FEW,SCT,M,3700.00,4500.00,9500.00,M,M,M,M,M,M,M,M,73.40,KRTS 161715Z AUTO 00000KT 9SM FEW037 FEW045 SCT095 23/00 A3016 RMK AO2,M
BVU,2022-08-16 17:15,-114.8611,35.9475,671.00,89.60,59.00,35.81,50.00,8.00,0.00,29.93,M,M,M,M,M,M,M,M,M,M,M,M,M,M,M,M,M,M,88.86,KBVU 161715Z AUTO 05008KT 32/15 A2993 RMK AO2 PWINO TSNO,M
TMT,2022-08-16 17:15,-117.1971,39.4643,1749.34,M,M,M,300.00,5.00,0.00,30.19,M,10.00,M,CLR,M,M,M,M,M,M,M,M,M,M,M,M,M,M,M,KTMT 161715Z AUTO 30005KT 10SM CLR A3019 RMK AO2,M
HTH,2022-08-16 17:15,-118.6315,38.5448,1282.89,86.00,37.40,17.85,M,4.00,0.00,30.07,M,10.00,M,CLR,M,M,M,M,M,M,M,M,M,M,M,M,M,M,82.73,KHTH 161715Z AUTO VRB04KT 10SM CLR 30/03 A3007 RMK A01,M
HTH,2022-08-16 17:35,-118.6315,38.5448,1282.89,87.80,33.80,14.61,M,4.00,0.00,30.07,M,10.00,M,CLR,M,M,M,M,M,M,M,M,M,M,M,M,M,M,84.10,KHTH 161735Z AUTO VRB04KT 10SM CLR 31/01 A3007 RMK A01,M
TMT,2022-08-16 17:35,-117.1971,39.4643,1749.34,M,M,M,260.00,5.00,0.00,30.18,M,10.00,M,CLR,M,M,M,M,M,M,M,M,M,M,M,M,M,M,M,KTMT 161735Z AUTO 26005KT 10SM CLR A3018 RMK AO2,M
BAM,2022-08-16 17:35,-116.8743,40.5990,1382.36,87.80,42.80,20.79,360.00,5.00,0.00,30.10,M,10.00,M,CLR,M,M,M,M,M,M,M,M,M,M,M,M,M,M,84.40,KBAM 161735Z AUTO 36005KT 10SM CLR 31/06 A3010 RMK AO1,M
MEV,2022-08-16 17:35,-119.7500,38.9963,1441.42,75.20,35.60,23.66,60.00,3.00,0.00,30.12,M,10.00,M,CLR,M,M,M,M,M,M,M,M,M,M,M,M,M,M,75.20,KMEV 161735Z AUTO 06003KT 10SM CLR 24/02 A3012 RMK AO2,M
RTS,2022-08-16 17:35,-119.8764,39.6682,1539.00,69.80,42.80,37.61,0.00,0.00,0.00,30.15,M,9.00,M,FEW,SCT,SCT,M,4100.00,6000.00,7500.00,M,-DZ,M,M,M,M,M,M,69.80,KRTS 161735Z AUTO 00000KT 9SM -DZ FEW041 SCT060 SCT075 21/06 A3015 RMK AO2,M
CXP,2022-08-16 17:35,-119.7326,39.1923,1431.00,77.00,32.00,19.30,180.00,3.00,0.00,30.14,M,10.00,M,CLR,M,M,M,M,M,M,M,M,M,M,M,M,M,M,77.00,KCXP 161735Z AUTO 18003KT 10SM CLR 25/00 A3014 RMK AO2,M
BVU,2022-08-16 17:35,-114.8611,35.9475,671.00,91.40,57.20,31.72,M,5.00,0.00,29.93,M,M,M,M,M,M,M,M,M,M,M,M,M,M,M,M,M,M,90.06,KBVU 161735Z AUTO VRB05KT 33/14 A2993 RMK AO2 PWINO TSNO,M
VGT,2022-08-16 17:53,-115.1933,36.2111,667.00,93.00,57.00,29.96,100.00,3.00,0.00,29.91,1011.90,10.00,M,CLR,M,M,M,M,M,M,M,M,M,M,M,M,M,M,91.64,KVGT 161753Z 10003KT 10SM CLR 34/14 A2991 RMK AO2 SLP119 T03390139 10344 20272 58000,M
DRA,2022-08-16 17:53,-116.0278,36.6206,1009.00,92.00,50.00,23.99,M,M,0.00,29.97,1009.30,10.00,M,CLR,M,M,M,M,M,M,M,M,M,M,M,M,M,M,88.84,KDRA 161753Z AUTO 10SM CLR 33/10 A2997 RMK AO2 SLP093 T03330100 10339 20233 56003,M
ELY,2022-08-16 17:53,-114.8453,39.2950,1909.00,79.00,40.00,24.70,10.00,14.00,0.00,30.22,1012.90,9.00,18.00,CLR,M,M,M,M,M,M,M,M,M,M,M,M,M,M,79.00,KELY 161753Z AUTO 01014G18KT 9SM CLR 26/04 A3022 RMK AO2 SLP129 T02610044 10261 20089 58007 $,M
P68,2022-08-16 17:53,-116.0056,39.6014,1993.00,82.00,42.00,24.38,M,3.00,0.00,30.19,1013.30,M,M,M,M,M,M,M,M,M,M,M,M,M,M,M,M,M,80.09,KP68 161753Z AUTO VRB03KT 28/06 A3019 RMK AO1 SLP133 T02780056 10289 20094 58004,M
LOL,2022-08-16 17:53,-118.5701,40.0684,1192.43,91.00,32.00,12.29,M,5.00,0.00,30.03,1012.10,10.00,M,CLR,M,M,M,M,M,M,M,M,M,M,M,M,M,M,86.61,KLOL 161753Z AUTO VRB05KT 10SM CLR 33/00 A3003 RMK AO2 SLP121 T03280000 10328 20117 50000,M
RTS,2022-08-16 17:55,-119.8764,39.6682,1539.00,71.60,39.20,30.77,M,3.00,0.00,30.15,M,10.00,M,FEW,FEW,SCT,M,3700.00,6000.00,12000.00,M,M,M,M,M,M,M,M,71.60,KRTS 161755Z AUTO VRB03KT 10SM FEW037 FEW060 SCT120 22/04 A3015 RMK AO2,M
BVU,2022-08-16 17:55,-114.8611,35.9475,671.00,91.40,57.20,31.72,60.00,6.00,0.00,29.92,M,M,M,M,M,M,M,M,M,M,M,M,M,M,M,M,M,M,90.06,KBVU 161755Z AUTO 06006KT 33/14 A2992 RMK AO2 PWINO TSNO,M
CXP,2022-08-16 17:55,-119.7326,39.1923,1431.00,77.00,33.80,20.74,0.00,0.00,0.00,30.14,M,10.00,M,SCT,M,M,M,12000.00,M,M,M,M,M,M,M,M,M,M,77.00,KCXP 161755Z AUTO 00000KT 10SM SCT120 25/01 A3014 RMK AO2,M
TMT,2022-08-16 17:55,-117.1971,39.4643,1749.34,M,M,M,330.00,3.00,0.00,30.18,M,10.00,M,CLR,M,M,M,M,M,M,M,M,M,M,M,M,M,M,M,KTMT 161755Z AUTO 33003KT 10SM CLR A3018 RMK AO2,M
HTH,2022-08-16 17:55,-118.6315,38.5448,1282.89,87.80,33.80,14.61,320.00,5.00,0.00,30.07,M,10.00,M,CLR,M,M,M,M,M,M,M,M,M,M,M,M,M,M,84.10,KHTH 161755Z AUTO 32005KT 10SM CLR 31/01 A3007 RMK A01,M
BAM,2022-08-16 17:55,-116.8743,40.5990,1382.36,89.60,42.80,19.64,310.00,4.00,0.00,30.10,M,10.00,M,CLR,M,M,M,M,M,M,M,M,M,M,M,M,M,M,85.93,KBAM 161755Z AUTO 31004KT 10SM CLR 32/06 A3010 RMK AO1,M
MEV,2022-08-16 17:55,-119.7500,38.9963,1441.42,80.60,33.80,18.42,0.00,0.00,0.00,30.12,M,10.00,M,CLR,M,M,M,M,M,M,M,M,M,M,M,M,M,M,78.88,KMEV 161755Z AUTO 00000KT 10SM CLR 27/01 A3012 RMK AO2,M
RNO,2022-08-16 17:55,-119.7711,39.4839,1341.00,78.00,38.00,23.53,30.00,3.00,0.00,30.10,1013.20,10.00,M,BKN,BKN,M,M,13000.00,19000.00,M,M,M,M,M,M,M,M,M,78.10,KRNO 161755Z 03003KT 10SM BKN130 BKN190 26/03 A3010 RMK AO2 SLP132 VIRGA ACC ALQDS T02560033 10256 20172 58000,M
HND,2022-08-16 17:56,-115.1344,35.9729,742.79,92.00,59.00,33.31,350.00,6.00,0.00,29.96,1012.90,10.00,M,CLR,M,M,M,M,M,M,M,M,M,M,M,M,M,M,91.20,KHND 161756Z 35006KT 10SM CLR 33/15 A2996 RMK AO2 SLP129 T03330150 10339 20250 58000,M
EKO,2022-08-16 17:56,-115.7860,40.8242,1367.00,82.00,38.00,20.71,M,4.00,0.00,30.14,1014.80,10.00,M,CLR,M,M,M,M,M,M,M,M,M,M,M,M,M,M,79.90,KEKO 161756Z AUTO VRB04KT 10SM CLR 28/03 A3014 RMK AO2 SLP148 T02780033 10278 20106 58007,M
TPH,2022-08-16 17:56,-117.0904,38.0505,1654.00,85.00,43.00,22.98,0.00,0.00,0.00,30.15,1011.70,10.00,M,CLR,M,M,M,M,M,M,M,M,M,M,M,M,M,M,82.13,KTPH 161756Z AUTO 00000KT 10SM CLR 29/06 A3015 RMK AO2 SLP117 T02940061 10294 20194 58005,M
LAS,2022-08-16 17:56,-115.1634,36.0719,663.00,91.00,58.00,32.94,0.00,0.00,0.00,29.93,1010.50,10.00,M,FEW,SCT,M,M,12000.00,16000.00,M,M,M,M,M,M,M,M,M,89.88,KLAS 161756Z 00000KT 10SM FEW120 SCT160 33/14 A2993 RMK AO2 SLP105 T03280144 10333 20278 58000,M
WMC,2022-08-16 17:56,-117.8072,40.9019,1315.00,91.00,37.00,15.00,70.00,6.00,0.00,30.07,1012.30,10.00,M,CLR,M,M,M,M,M,M,M,M,M,M,M,M,M,M,86.86,KWMC 161756Z AUTO 07006KT 10SM CLR 33/03 A3007 RMK AO2 SLP123 T03280028 10328 20122 58002,M
NFL,2022-08-16 17:56,-118.7010,39.4166,1199.00,86.00,27.00,11.74,270.00,3.00,0.00,30.04,1014.20,10.00,M,SCT,SCT,BKN,M,8000.00,12000.00,17000.00,M,M,M,M,M,M,M,M,82.42,KNFL 161756Z 27003KT 10SM SCT080 SCT120 BKN170 30/M03 A3004 RMK AO2 SLP142 T03001028 10300 20189 51002,M
INS,2022-08-16 17:58,-115.6733,36.5872,955.00,89.60,50.20,25.98,110.00,6.00,0.00,29.98,1010.10,10.00,M,CLR,M,M,M,M,M,M,M,M,M,M,M,M,M,M,86.73,KINS 161758Z AUTO 11006KT 10SM CLR 32/10 A2998 RMK AO2 SLP101 T03200101 10320 20227 57002,M
LSV,2022-08-16 17:58,-115.0343,36.2362,570.00,97.00,57.40,26.87,140.00,4.00,0.00,29.89,M,10.00,M,FEW,M,M,M,15000.00,M,M,M,M,M,M,M,M,M,M,96.07,KLSV 161758Z AUTO 14004KT 10SM FEW150 36/14 A2989 RMK AO2 SLPNO T03610141 10361 20257 58002 $,M
RTS,2022-08-16 18:15,-119.8764,39.6682,1539.00,71.60,41.00,33.00,230.00,4.00,0.00,30.16,M,10.00,M,FEW,FEW,BKN,M,3600.00,4700.00,12000.00,M,M,M,M,M,M,M,M,71.60,KRTS 161815Z AUTO 23004KT 10SM FEW036 FEW047 BKN120 22/05 A3016 RMK AO2,M
CXP,2022-08-16 18:15,-119.7326,39.1923,1431.00,77.00,33.80,20.74,0.00,0.00,0.00,30.14,M,10.00,M,BKN,M,M,M,12000.00,M,M,M,M,M,M,M,M,M,M,77.00,KCXP 161815Z AUTO 00000KT 10SM BKN120 25/01 A3014 RMK AO2,M
BVU,2022-08-16 18:15,-114.8611,35.9475,671.00,91.40,57.20,31.72,80.00,6.00,0.00,29.92,M,M,M,M,M,M,M,M,M,M,M,M,M,M,M,M,M,M,90.06,KBVU 161815Z AUTO 08006KT 33/14 A2992 RMK AO2 PWINO TSNO,M
TMT,2022-08-16 18:15,-117.1971,39.4643,1749.34,M,M,M,340.00,3.00,0.00,30.18,M,10.00,M,CLR,M,M,M,M,M,M,M,M,M,M,M,M,M,M,M,KTMT 161815Z AUTO 34003KT 10SM CLR A3018 RMK AO2,M
HTH,2022-08-16 18:15,-118.6315,38.5448,1282.89,89.60,32.00,12.84,40.00,5.00,0.00,30.07,M,10.00,M,CLR,M,M,M,M,M,M,M,M,M,M,M,M,M,M,85.54,KHTH 161815Z AUTO 04005KT 10SM CLR 32/M00 A3007 RMK A01,M
BAM,2022-08-16 18:15,-116.8743,40.5990,1382.36,91.40,42.80,18.56,360.00,4.00,0.00,30.09,M,10.00,M,CLR,M,M,M,M,M,M,M,M,M,M,M,M,M,M,87.52,KBAM 161815Z AUTO 36004KT 10SM CLR 33/06 A3009 RMK AO1,M
MEV,2022-08-16 18:15,-119.7500,38.9963,1441.42,82.40,33.80,17.38,310.00,4.00,0.00,30.12,M,10.00,M,CLR,M,M,M,M,M,M,M,M,M,M,M,M,M,M,80.03,KMEV 161815Z AUTO 31004KT 10SM CLR 28/01 A3012 RMK AO2,M
RTS,2022-08-16 18:35,-119.8764,39.6682,1539.00,73.40,44.60,35.66,0.00,0.00,0.00,30.16,M,10.00,M,FEW,FEW,FEW,M,3100.00,3800.00,4700.00,M,M,M,M,M,M,M,M,73.40,KRTS 161835Z AUTO 00000KT 10SM FEW031 FEW038 FEW047 23/07 A3016 RMK AO2,M
CXP,2022-08-16 18:35,-119.7326,39.1923,1431.00,78.80,35.60,21.00,210.00,4.00,0.00,30.13,M,10.00,M,FEW,SCT,BKN,M,5500.00,7500.00,12000.00,M,M,M,M,M,M,M,M,78.80,KCXP 161835Z AUTO 21004KT 10SM FEW055 SCT075 BKN120 26/02 A3013 RMK AO2,M
BVU,2022-08-16 18:35,-114.8611,35.9475,671.00,91.40,57.20,31.72,40.00,6.00,0.00,29.92,M,M,M,M,M,M,M,M,M,M,M,M,M,M,M,M,M,M,90.06,KBVU 161835Z AUTO 04006KT 33/14 A2992 RMK AO2 PWINO TSNO,M
BAM,2022-08-16 18:35,-116.8743,40.5990,1382.36,91.40,41.00,17.32,220.00,5.00,0.00,30.08,M,10.00,M,CLR,M,M,M,M,M,M,M,M,M,M,M,M,M,M,87.40,KBAM 161835Z AUTO 22005KT 10SM CLR 33/05 A3008 RMK AO1,M
MEV,2022-08-16 18:35,-119.7500,38.9963,1441.42,82.40,35.60,18.67,290.00,6.00,0.00,30.11,M,10.00,M,CLR,M,M,M,M,M,M,M,M,M,M,M,M,M,M,80.08,KMEV 161835Z AUTO 29006KT 10SM CLR 28/02 A3011 RMK AO2,M
HTH,2022-08-16 18:35,-118.6315,38.5448,1282.89,89.60,28.40,11.09,340.00,3.00,0.00,30.06,M,10.00,11.00,CLR,M,M,M,M,M,M,M,M,M,M,M,M,M,M,85.17,KHTH 161835Z AUTO 34003G11KT 10SM CLR 32/M02 A3006 RMK A01,M
TMT,2022-08-16 18:35,-117.1971,39.4643,1749.34,M,M,M,240.00,3.00,0.00,30.18,M,10.00,M,SCT,M,M,M,11000.00,M,M,M,M,M,M,M,M,M,M,M,KTMT 161835Z AUTO 24003KT 10SM SCT110 A3018 RMK AO2,M
P68,2022-08-16 18:53,-116.0056,39.6014,1993.00,87.00,32.00,13.90,30.00,14.00,0.00,30.18,1012.60,M,20.00,M,M,M,M,M,M,M,M,M,M,M,M,M,M,M,83.51,KP68 161853Z AUTO 03014G20KT 31/00 A3018 RMK AO1 SLP126 T03060000,M
VGT,2022-08-16 18:53,-115.1933,36.2111,667.00,96.00,57.00,27.23,70.00,5.00,0.00,29.90,1011.30,10.00,M,CLR,M,M,M,M,M,M,M,M,M,M,M,M,M,M,94.94,KVGT 161853Z 07005KT 10SM CLR 36/14 A2990 RMK AO2 SLP113 T03560139,M
DRA,2022-08-16 18:53,-116.0278,36.6206,1009.00,95.00,49.00,20.92,140.00,9.00,0.00,29.97,1009.00,10.00,17.00,CLR,M,M,M,M,M,M,M,M,M,M,M,M,M,M,91.68,KDRA 161853Z AUTO 14009G17KT 10SM CLR 35/09 A2997 RMK AO2 SLP090 T03500094,M
LOL,2022-08-16 18:53,-118.5701,40.0684,1192.43,92.00,36.00,14.02,M,5.00,0.00,30.02,1012.20,10.00,M,CLR,M,M,M,M,M,M,M,M,M,M,M,M,M,M,87.62,KLOL 161853Z AUTO VRB05KT 10SM CLR 33/02 A3002 RMK AO2 SLP122 T03330022,M
ELY,2022-08-16 18:53,-114.8453,39.2950,1909.00,83.00,42.00,23.68,10.00,10.00,0.00,30.21,1012.60,10.00,20.00,CLR,M,M,M,M,M,M,M,M,M,M,M,M,M,M,80.68,KELY 161853Z AUTO 01010G20KT 10SM CLR 28/06 A3021 RMK AO2 SLP126 T02830056 $,M
BAM,2022-08-16 18:55,-116.8743,40.5990,1382.36,95.00,41.00,15.49,0.00,0.00,0.00,30.08,M,10.00,M,CLR,M,M,M,M,M,M,M,M,M,M,M,M,M,M,90.70,KBAM 161855Z AUTO 00000KT 10SM CLR 35/05 A3008 RMK AO1,M
BVU,2022-08-16 18:55,-114.8611,35.9475,671.00,91.40,57.20,31.72,60.00,7.00,0.00,29.92,M,M,M,M,M,M,M,M,M,M,M,M,M,M,M,M,M,M,90.06,KBVU 161855Z AUTO 06007KT 33/14 A2992 RMK AO2 PWINO TSNO,M
CXP,2022-08-16 18:55,-119.7326,39.1923,1431.00,82.40,37.40,20.04,190.00,4.00,0.00,30.12,M,10.00,M,FEW,FEW,M,M,6000.00,7500.00,M,M,M,M,M,M,M,M,M,80.14,KCXP 161855Z AUTO 19004KT 10SM FEW060 FEW075 28/03 A3012 RMK AO2,M
RNO,2022-08-16 18:55,-119.7711,39.4839,1341.00,82.00,37.00,19.99,0.00,0.00,0.00,30.11,1013.30,10.00,M,BKN,BKN,M,M,12000.00,19000.00,M,M,M,M,M,M,M,M,M,79.86,KRNO 161855Z 00000KT 10SM BKN120 BKN190 28/03 A3011 RMK AO2 SLP133 VIRGA ACC ALQDS T02780028,M
RTS,2022-08-16 18:55,-119.8764,39.6682,1539.00,75.20,37.40,25.40,210.00,3.00,0.01,30.16,M,10.00,M,CLR,M,M,M,M,M,M,M,M,M,M,M,M,M,M,75.20,KRTS 161855Z AUTO 21003KT 10SM CLR 24/03 A3016 RMK AO2 P0001,M
MEV,2022-08-16 18:55,-119.7500,38.9963,1441.42,86.00,32.00,14.40,310.00,7.00,0.00,30.10,M,10.00,M,CLR,M,M,M,M,M,M,M,M,M,M,M,M,M,M,82.64,KMEV 161855Z AUTO 31007KT 10SM CLR 30/00 A3010 RMK AO2,M
HTH,2022-08-16 18:55,-118.6315,38.5448,1282.89,91.40,26.60,9.74,M,5.00,0.00,30.05,M,10.00,11.00,CLR,M,M,M,M,M,M,M,M,M,M,M,M,M,M,86.36,KHTH 161855Z AUTO VRB05G11KT 10SM CLR 33/M03 A3005 RMK A01,M
TMT,2022-08-16 18:55,-117.1971,39.4643,1749.34,M,M,M,110.00,6.00,0.00,30.17,M,10.00,M,BKN,M,M,M,11000.00,M,M,M,M,M,M,M,M,M,M,M,KTMT 161855Z AUTO 11006KT 10SM BKN110 A3017 RMK AO2 LTG DSNT SW,M
TPH,2022-08-16 18:56,-117.0904,38.0505,1654.00,88.00,43.00,20.82,160.00,7.00,0.00,30.13,1011.10,10.00,M,CLR,M,M,M,M,M,M,M,M,M,M,M,M,M,M,84.58,KTPH 161856Z AUTO 16007KT 10SM CLR 31/06 A3013 RMK AO2 SLP111 T03110061,M
EKO,2022-08-16 18:56,-115.7860,40.8242,1367.00,85.00,35.00,16.88,M,4.00,0.00,30.12,1013.80,10.00,M,CLR,M,M,M,M,M,M,M,M,M,M,M,M,M,M,81.84,KEKO 161856Z AUTO VRB04KT 10SM CLR 29/02 A3012 RMK AO2 SLP138 T02940017,M
NFL,2022-08-16 18:56,-118.7010,39.4166,1199.00,89.00,28.90,11.50,240.00,5.00,0.00,30.03,1013.90,10.00,M,SCT,SCT,BKN,M,8000.00,12000.00,17000.00,M,M,M,M,M,M,M,M,84.84,KNFL 161856Z 24005KT 10SM SCT080 SCT120 BKN170 32/M02 A3003 RMK AO2 SLP139 CB DSNT ALQDS VIRGA DSNT W-NW T03171017,M
HND,2022-08-16 18:56,-115.1344,35.9729,742.79,92.00,59.00,33.31,90.00,5.00,0.00,29.96,1012.90,10.00,M,CLR,M,M,M,M,M,M,M,M,M,M,M,M,M,M,91.20,KHND 161856Z 09005KT 10SM CLR 33/15 A2996 RMK AO2 SLP129 T03330150,M
LAS,2022-08-16 18:56,-115.1634,36.0719,663.00,93.00,58.00,30.95,M,3.00,0.00,29.92,1010.30,10.00,M,FEW,SCT,M,M,12000.00,16000.00,M,M,M,M,M,M,M,M,M,91.94,KLAS 161856Z VRB03KT 10SM FEW120 SCT160 34/14 A2992 RMK AO2 SLP103 T03390144,M
WMC,2022-08-16 18:56,-117.8072,40.9019,1315.00,93.00,36.00,13.55,M,4.00,0.00,30.06,1011.80,10.00,M,CLR,M,M,M,M,M,M,M,M,M,M,M,M,M,M,88.59,KWMC 161856Z AUTO VRB04KT 10SM CLR 34/02 A3006 RMK AO2 SLP118 T03390022,M
LSV,2022-08-16 18:58,-115.0343,36.2362,570.00,100.00,56.50,23.82,120.00,7.00,0.00,29.87,M,10.00,M,CLR,M,M,M,M,M,M,M,M,M,M,M,M,M,M,98.93,KLSV 161858Z AUTO 12007KT 10SM CLR 38/14 A2987 RMK AO2 SLPNO T03770136 $,M
INS,2022-08-16 18:58,-115.6733,36.5872,955.00,91.00,50.40,25.05,60.00,6.00,0.00,29.97,1009.60,10.00,M,CLR,M,M,M,M,M,M,M,M,M,M,M,M,M,M,88.05,KINS 161858Z AUTO 06006KT 10SM CLR 33/10 A2997 RMK AO2 SLP096 T03280102,M
MEV,2022-08-16 19:15,-119.7500,38.9963,1441.42,87.80,32.00,13.59,320.00,7.00,0.00,30.09,M,10.00,M,CLR,M,M,M,M,M,M,M,M,M,M,M,M,M,M,84.08,KMEV 161915Z AUTO 32007KT 10SM CLR 31/M00 A3009 RMK AO2,M
HTH,2022-08-16 19:15,-118.6315,38.5448,1282.89,91.40,26.60,9.74,M,6.00,0.00,30.04,M,10.00,M,CLR,M,M,M,M,M,M,M,M,M,M,M,M,M,M,86.36,KHTH 161915Z AUTO VRB06KT 10SM CLR 33/M03 A3004 RMK A01,M
TMT,2022-08-16 19:15,-117.1971,39.4643,1749.34,M,M,M,90.00,4.00,0.00,30.16,M,10.00,M,SCT,M,M,M,11000.00,M,M,M,M,M,M,M,M,M,M,M,KTMT 161915Z AUTO 09004KT 10SM SCT110 A3016 RMK AO2 LTG DSNT SW,M
BVU,2022-08-16 19:15,-114.8611,35.9475,671.00,93.20,55.40,28.10,60.00,6.00,0.00,29.91,M,M,M,M,M,M,M,M,M,M,M,M,M,M,M,M,M,M,91.35,KBVU 161915Z AUTO 06006KT 34/13 A2991 RMK AO2 PWINO TSNO,M
CXP,2022-08-16 19:15,-119.7326,39.1923,1431.00,86.00,28.40,12.44,360.00,6.00,0.00,30.11,M,10.00,M,CLR,M,M,M,M,M,M,M,M,M,M,M,M,M,M,82.54,KCXP 161915Z AUTO 36006KT 10SM CLR 30/M02 A3011 RMK AO2,M
RTS,2022-08-16 19:15,-119.8764,39.6682,1539.00,78.80,33.80,19.55,340.00,5.00,0.00,30.15,M,10.00,M,FEW,M,M,M,11000.00,M,M,M,M,M,M,M,M,M,M,78.80,KRTS 161915Z AUTO 34005KT 10SM FEW110 26/01 A3015 RMK AO2,M
BAM,2022-08-16 19:15,-116.8743,40.5990,1382.36,95.00,39.20,14.44,110.00,4.00,0.00,30.08,M,10.00,M,CLR,M,M,M,M,M,M,M,M,M,M,M,M,M,M,90.57,KBAM 161915Z AUTO 11004KT 10SM CLR 35/04 A3008 RMK AO1,M
BAM,2022-08-16 19:35,-116.8743,40.5990,1382.36,96.80,35.60,11.86,70.00,8.00,0.00,30.07,M,10.00,M,SCT,M,M,M,12000.00,M,M,M,M,M,M,M,M,M,M,91.72,KBAM 161935Z AUTO 07008KT 10SM SCT120 36/02 A3007 RMK AO1,M
TMT,2022-08-16 19:35,-117.1971,39.4643,1749.34,M,M,M,60.00,6.00,0.00,30.16,M,10.00,17.00,SCT,M,M,M,12000.00,M,M,M,M,M,M,M,M,M,M,M,KTMT 161935Z AUTO 06006G17KT 10SM SCT120 A3016 RMK AO2,M
HTH,2022-08-16 19:35,-118.6315,38.5448,1282.89,93.20,28.40,9.91,M,6.00,0.00,30.04,M,10.00,M,CLR,M,M,M,M,M,M,M,M,M,M,M,M,M,M,87.89,KHTH 161935Z AUTO VRB06KT 10SM CLR 34/M02 A3004 RMK A01,M
BVU,2022-08-16 19:35,-114.8611,35.9475,671.00,95.00,55.40,26.58,50.00,9.00,0.00,29.91,M,M,M,M,M,M,M,M,M,M,M,M,M,M,M,M,M,M,93.22,KBVU 161935Z AUTO 05009KT 35/13 A2991 RMK AO2 PWINO TSNO,M
CXP,2022-08-16 19:35,-119.7326,39.1923,1431.00,89.60,30.20,11.94,M,6.00,0.00,30.10,M,10.00,M,CLR,M,M,M,M,M,M,M,M,M,M,M,M,M,M,85.34,KCXP 161935Z AUTO VRB06KT 10SM CLR 32/M01 A3010 RMK AO2,M
RTS,2022-08-16 19:35,-119.8764,39.6682,1539.00,80.60,33.80,18.42,M,3.00,0.00,30.16,M,6.00,M,CLR,M,M,M,M,M,M,M,HZ,M,M,M,M,M,M,78.88,KRTS 161935Z AUTO VRB03KT 6SM HZ CLR 27/01 A3016 RMK AO2,M
MEV,2022-08-16 19:35,-119.7500,38.9963,1441.42,87.80,28.40,11.74,290.00,6.00,0.00,30.09,M,10.00,M,CLR,M,M,M,M,M,M,M,M,M,M,M,M,M,M,83.84,KMEV 161935Z AUTO 29006KT 10SM CLR 31/M02 A3009 RMK AO2,M
CXP,2022-08-16 19:50,-119.7326,39.1923,1431.00,89.60,28.40,11.09,M,5.00,0.00,30.10,M,10.00,12.00,CLR,M,M,M,M,M,M,M,M,M,M,M,M,M,M,85.17,KCXP 161950Z AUTO VRB05G12KT 10SM CLR 32/M02 A3010 RMK AO2,M
VGT,2022-08-16 19:53,-115.1933,36.2111,667.00,97.00,55.00,24.63,0.00,0.00,0.00,29.89,1010.80,10.00,M,CLR,M,M,M,M,M,M,M,M,M,M,M,M,M,M,95.23,KVGT 161953Z 00000KT 10SM CLR 36/13 A2989 RMK AO2 SLP108 T03610128,M
LOL,2022-08-16 19:53,-118.5701,40.0684,1192.43,95.00,36.00,12.73,0.00,0.00,0.00,30.01,1011.50,10.00,M,CLR,M,M,M,M,M,M,M,M,M,M,M,M,M,M,90.32,KLOL 161953Z AUTO 00000KT 10SM CLR 35/02 A3001 RMK AO2 SLP115 T03500022,M
P68,2022-08-16 19:53,-116.0056,39.6014,1993.00,89.00,28.90,11.50,80.00,13.00,0.00,30.17,1012.40,M,21.00,M,M,M,M,M,M,M,M,M,M,M,M,M,M,M,84.84,KP68 161953Z AUTO 08013G21KT 32/M02 A3017 RMK AO1 SLP124 T03171017,M
DRA,2022-08-16 19:53,-116.0278,36.6206,1009.00,97.00,47.00,18.25,120.00,8.00,0.00,29.95,1008.30,10.00,15.00,CLR,M,M,M,M,M,M,M,M,M,M,M,M,M,M,93.33,KDRA 161953Z AUTO 12008G15KT 090V160 10SM CLR 36/08 A2995 RMK AO2 SLP083 T03610083,M
ELY,2022-08-16 19:53,-114.8453,39.2950,1909.00,84.00,40.00,20.99,20.00,7.00,0.00,30.20,1012.50,10.00,19.00,CLR,M,M,M,M,M,M,M,M,M,M,M,M,M,M,81.33,KELY 161953Z AUTO 02007G19KT 10SM CLR 29/04 A3020 RMK AO2 SLP125 T02890044 $,M
MEV,2022-08-16 19:55,-119.7500,38.9963,1441.42,89.60,30.20,11.94,320.00,7.00,0.00,30.08,M,10.00,M,CLR,M,M,M,M,M,M,M,M,M,M,M,M,M,M,85.34,KMEV 161955Z AUTO 32007KT 10SM CLR 32/M01 A3008 RMK AO2,M
RNO,2022-08-16 19:55,-119.7711,39.4839,1341.00,85.00,30.00,13.75,50.00,7.00,T,30.10,1013.00,10.00,M,BKN,BKN,M,M,9500.00,18000.00,M,M,,M,M,M,M,M,M,81.79,KRNO 161955Z COR 05007KT 10SM BKN095 BKN180 29/M01 A3010 RMK AO2 RAB46E51 SLP130 SH VC SE AND NW P0000 T02941011,M
BVU,2022-08-16 19:55,-114.8611,35.9475,671.00,95.00,55.40,26.58,M,6.00,0.00,29.90,M,M,12.00,M,M,M,M,M,M,M,M,M,M,M,M,M,M,M,93.22,KBVU 161955Z AUTO VRB06G12KT 35/13 A2990 RMK AO2 PWINO TSNO,M
RTS,2022-08-16 19:55,-119.8764,39.6682,1539.00,80.60,37.40,21.25,270.00,5.00,0.00,30.15,M,3.00,M,FEW,FEW,M,M,6500.00,8000.00,M,M,HZ,M,M,M,M,M,M,79.02,KRTS 161955Z AUTO 27005KT 3SM HZ FEW065 FEW080 27/03 A3015 RMK AO2,M
BAM,2022-08-16 19:55,-116.8743,40.5990,1382.36,95.00,33.80,11.67,90.00,7.00,0.00,30.07,M,10.00,M,CLR,M,M,M,M,M,M,M,M,M,M,M,M,M,M,89.97,KBAM 161955Z AUTO 09007KT 10SM CLR 35/01 A3007 RMK AO1,M
HTH,2022-08-16 19:55,-118.6315,38.5448,1282.89,91.40,32.00,12.14,290.00,5.00,0.00,30.04,M,10.00,M,CLR,M,M,M,M,M,M,M,M,M,M,M,M,M,M,86.91,KHTH 161955Z AUTO 29005KT 10SM CLR 33/M00 A3004 RMK A01,M
TMT,2022-08-16 19:55,-117.1971,39.4643,1749.34,M,M,M,360.00,15.00,0.00,30.16,M,10.00,19.00,CLR,M,M,M,M,M,M,M,M,M,M,M,M,M,M,M,KTMT 161955Z AUTO 36015G19KT 10SM CLR A3016 RMK AO2,M
LAS,2022-08-16 19:56,-115.1634,36.0719,663.00,95.00,56.00,27.06,M,5.00,0.00,29.90,1009.70,10.00,M,FEW,SCT,SCT,M,12000.00,16000.00,22000.00,M,M,M,M,M,M,M,M,93.38,KLAS 161956Z VRB05KT 10SM FEW120 SCT160 SCT220 35/13 A2990 RMK AO2 SLP097 T03500133,M
NFL,2022-08-16 19:56,-118.7010,39.4166,1199.00,94.00,30.90,10.74,250.00,7.00,0.00,30.01,1013.30,10.00,M,SCT,SCT,BKN,M,8000.00,12000.00,17000.00,M,M,M,M,M,M,M,M,88.71,KNFL 161956Z COR 25007KT 10SM SCT080 SCT120 BKN170 34/M01 A3001 RMK AO2 SLP133 CB DSNT ALQDS VIRGA DSNT W-NW T03441006,M
EKO,2022-08-16 19:56,-115.7860,40.8242,1367.00,87.00,34.00,15.06,60.00,7.00,0.00,30.11,1013.40,10.00,22.00,CLR,M,M,M,M,M,M,M,M,M,M,M,M,M,M,83.53,KEKO 161956Z AUTO 06007G22KT 010V090 10SM CLR 31/01 A3011 RMK AO2 SLP134 T03060011,M
WMC,2022-08-16 19:56,-117.8072,40.9019,1315.00,96.00,37.00,12.81,110.00,6.00,0.00,30.04,1010.90,10.00,M,CLR,M,M,M,M,M,M,M,M,M,M,M,M,M,M,91.39,KWMC 161956Z AUTO 11006KT 10SM CLR 36/03 A3004 RMK AO2 SLP109 T03560028,M
HND,2022-08-16 19:56,-115.1344,35.9729,742.79,95.00,58.00,29.09,M,5.00,0.00,29.94,1012.20,10.00,M,CLR,M,M,M,M,M,M,M,M,M,M,M,M,M,M,94.08,KHND 161956Z VRB05KT 10SM CLR 35/14 A2994 RMK AO2 SLP122 T03500144,M
TPH,2022-08-16 19:56,-117.0904,38.0505,1654.00,91.00,38.00,15.54,M,4.00,0.00,30.12,1010.50,10.00,M,CLR,M,M,M,M,M,M,M,M,M,M,M,M,M,M,86.90,KTPH 161956Z AUTO VRB04KT 10SM CLR 33/03 A3012 RMK AO2 SLP105 T03280033,M
LSV,2022-08-16 19:58,-115.0343,36.2362,570.00,101.30,56.50,22.83,0.00,0.00,0.00,29.86,M,10.00,M,CLR,M,M,M,M,M,M,M,M,M,M,M,M,M,M,100.48,KLSV 161958Z 00000KT 10SM CLR 39/14 A2986 RMK AO2A SLPNO T03850136 $,M
INS,2022-08-16 19:58,-115.6733,36.5872,955.00,94.30,49.50,21.86,0.00,0.00,0.00,29.95,1008.60,10.00,M,CLR,M,M,M,M,M,M,M,M,M,M,M,M,M,M,91.09,KINS 161958Z AUTO 00000KT 10SM CLR 35/10 A2995 RMK AO2 SLP086 T03460097,M
TMT,2022-08-16 20:15,-117.1971,39.4643,1749.34,M,M,M,360.00,16.00,0.00,30.16,M,10.00,19.00,CLR,M,M,M,M,M,M,M,M,M,M,M,M,M,M,M,KTMT 162015Z AUTO 36016G19KT 10SM CLR A3016 RMK AO2,M
BAM,2022-08-16 20:15,-116.8743,40.5990,1382.36,98.60,33.80,10.45,30.00,7.00,0.00,30.06,M,10.00,17.00,CLR,M,M,M,M,M,M,M,M,M,M,M,M,M,M,92.94,KBAM 162015Z AUTO 03007G17KT 360V060 10SM CLR 37/01 A3006 RMK AO1,M
MEV,2022-08-16 20:15,-119.7500,38.9963,1441.42,91.40,32.00,12.14,310.00,7.00,0.00,30.08,M,10.00,12.00,CLR,M,M,M,M,M,M,M,M,M,M,M,M,M,M,86.91,KMEV 162015Z AUTO 31007G12KT 10SM CLR 33/M00 A3008 RMK AO2,M
RTS,2022-08-16 20:15,-119.8764,39.6682,1539.00,80.60,35.60,19.79,280.00,4.00,0.00,30.15,M,1.75,M,FEW,SCT,BKN,M,4800.00,8000.00,12000.00,M,HZ,M,M,M,M,M,M,78.94,KRTS 162015Z AUTO 28004KT 1 3/4SM HZ FEW048 SCT080 BKN120 27/02 A3015 RMK AO2,M
CXP,2022-08-16 20:15,-119.7326,39.1923,1431.00,89.60,30.20,11.94,0.00,0.00,0.00,30.09,M,10.00,12.00,CLR,M,M,M,M,M,M,M,M,M,M,M,M,M,M,85.34,KCXP 162015Z AUTO 00000G12KT 10SM CLR 32/M01 A3009 RMK AO2,M
BVU,2022-08-16 20:15,-114.8611,35.9475,671.00,95.00,53.60,24.89,M,4.00,0.00,29.90,M,M,10.00,M,M,M,M,M,M,M,M,M,M,M,M,M,M,M,92.71,KBVU 162015Z AUTO VRB04G10KT 35/12 A2990 RMK AO2 PWINO TSNO,M
HTH,2022-08-16 20:15,-118.6315,38.5448,1282.89,93.20,32.00,11.48,M,3.00,0.00,30.03,M,10.00,M,CLR,M,M,M,M,M,M,M,M,M,M,M,M,M,M,88.31,KHTH 162015Z AUTO VRB03KT 10SM CLR 34/00 A3003 RMK A01,M
HTH,2022-08-16 20:35,-118.6315,38.5448,1282.89,93.20,33.80,12.34,0.00,0.00,0.00,30.02,M,10.00,M,CLR,M,M,M,M,M,M,M,M,M,M,M,M,M,M,88.55,KHTH 162035Z AUTO 00000KT 10SM CLR 34/01 A3002 RMK A01,M
TMT,2022-08-16 20:35,-117.1971,39.4643,1749.34,M,M,M,360.00,9.00,0.00,30.15,M,10.00,15.00,CLR,M,M,M,M,M,M,M,M,M,M,M,M,M,M,M,KTMT 162035Z AUTO 36009G15KT 10SM CLR A3015 RMK AO2,M
BVU,2022-08-16 20:35,-114.8611,35.9475,671.00,96.80,53.60,23.55,M,5.00,0.00,29.88,M,M,11.00,M,M,M,M,M,M,M,M,M,M,M,M,M,M,M,94.59,KBVU 162035Z AUTO VRB05G11KT 36/12 A2988 RMK AO2 PWINO TSNO,M
CXP,2022-08-16 20:35,-119.7326,39.1923,1431.00,93.20,33.80,12.34,310.00,11.00,0.00,30.09,M,10.00,18.00,CLR,M,M,M,M,M,M,M,M,M,M,M,M,M,M,88.55,KCXP 162035Z AUTO 31011G18KT 10SM CLR 34/01 A3009 RMK AO2,M
RTS,2022-08-16 20:35,-119.8764,39.6682,1539.00,80.60,35.60,19.79,230.00,5.00,0.00,30.15,M,8.00,M,SCT,M,M,M,12000.00,M,M,M,M,M,M,M,M,M,M,78.94,KRTS 162035Z AUTO 23005KT 8SM SCT120 27/02 A3015 RMK AO2,M
MEV,2022-08-16 20:35,-119.7500,38.9963,1441.42,91.40,33.80,13.05,340.00,5.00,0.00,30.07,M,10.00,11.00,CLR,M,M,M,M,M,M,M,M,M,M,M,M,M,M,87.13,KMEV 162035Z AUTO 34005G11KT 10SM CLR 33/01 A3007 RMK AO2,M
BAM,2022-08-16 20:35,-116.8743,40.5990,1382.36,98.60,33.80,10.45,100.00,9.00,0.00,30.05,M,10.00,14.00,CLR,M,M,M,M,M,M,M,M,M,M,M,M,M,M,92.94,KBAM 162035Z AUTO 10009G14KT 10SM CLR 37/01 A3005 RMK AO1,M
P68,2022-08-16 20:53,-116.0056,39.6014,1993.00,87.00,32.00,13.90,150.00,5.00,0.00,30.15,1011.90,M,16.00,M,M,M,M,M,M,M,M,M,M,M,M,M,M,M,83.51,KP68 162053Z AUTO 15005G16KT 31/00 A3015 RMK AO1 SLP119 T03060000 58010,M
DRA,2022-08-16 20:53,-116.0278,36.6206,1009.00,99.00,46.00,16.60,150.00,12.00,0.00,29.93,1007.60,10.00,19.00,CLR,M,M,M,M,M,M,M,M,M,M,M,M,M,M,95.17,KDRA 162053Z AUTO 15012G19KT 10SM CLR 37/08 A2993 RMK AO2 SLP076 T03720078 58013,M
VGT,2022-08-16 20:53,-115.1933,36.2111,667.00,99.00,55.00,23.18,120.00,7.00,0.00,29.86,1009.70,10.00,16.00,CLR,M,M,M,M,M,M,M,M,M,M,M,M,M,M,97.39,KVGT 162053Z 12007G16KT 10SM CLR 37/13 A2986 RMK AO2 SLP097 T03720128 58017,M
ELY,2022-08-16 20:53,-114.8453,39.2950,1909.00,84.00,39.00,20.27,0.00,0.00,0.00,30.19,1012.10,10.00,M,FEW,M,M,M,12000.00,M,M,M,M,M,M,M,M,M,M,81.29,KELY 162053Z AUTO 00000KT 10SM FEW120 29/04 A3019 RMK AO2 SLP121 T02890039 58008 $,M
LOL,2022-08-16 20:53,-118.5701,40.0684,1192.43,98.00,39.00,13.03,180.00,8.00,0.00,29.99,1010.90,10.00,16.00,CLR,M,M,M,M,M,M,M,M,M,M,M,M,M,M,93.42,KLOL 162053Z AUTO 18008G16KT 140V220 10SM CLR 37/04 A2999 RMK AO2 SLP109 T03670039 58012,M
TMT,2022-08-16 20:55,-117.1971,39.4643,1749.34,M,M,M,80.00,9.00,0.00,30.15,M,10.00,M,CLR,M,M,M,M,M,M,M,M,M,M,M,M,M,M,M,KTMT 162055Z AUTO 08009KT 10SM CLR A3015 RMK AO2 LTG DSNT SW,M
HTH,2022-08-16 20:55,-118.6315,38.5448,1282.89,93.20,33.80,12.34,M,6.00,0.00,30.02,M,10.00,M,CLR,M,M,M,M,M,M,M,M,M,M,M,M,M,M,88.55,KHTH 162055Z AUTO VRB06KT 10SM CLR 34/01 A3002 RMK A01,M
BAM,2022-08-16 20:55,-116.8743,40.5990,1382.36,98.60,33.80,10.45,100.00,9.00,0.00,30.05,M,10.00,M,CLR,M,M,M,M,M,M,M,M,M,M,M,M,M,M,92.94,KBAM 162055Z AUTO 10009KT 070V160 10SM CLR 37/01 A3005 RMK AO1,M
MEV,2022-08-16 20:55,-119.7500,38.9963,1441.42,91.40,33.80,13.05,10.00,8.00,0.00,30.06,M,10.00,M,CLR,M,M,M,M,M,M,M,M,M,M,M,M,M,M,87.13,KMEV 162055Z AUTO 01008KT 10SM CLR 33/01 A3006 RMK AO2,M
RTS,2022-08-16 20:55,-119.8764,39.6682,1539.00,82.40,39.20,21.51,360.00,8.00,0.00,30.14,M,8.00,M,FEW,M,M,M,11000.00,M,M,M,M,M,M,M,M,M,M,80.21,KRTS 162055Z AUTO 36008KT 8SM FEW110 28/04 A3014 RMK AO2,M
RNO,2022-08-16 20:55,-119.7711,39.4839,1341.00,90.00,36.00,14.88,360.00,6.00,T,30.07,1011.80,10.00,M,SCT,BKN,M,M,9000.00,17000.00,M,M,M,M,M,M,M,M,M,85.97,KRNO 162055Z 36006KT 10SM SCT090 BKN170 32/02 A3007 RMK AO2 RAB06E21 SLP118 VIRGA P0000 60000 T03220022 58010,M
CXP,2022-08-16 20:55,-119.7326,39.1923,1431.00,93.20,28.40,9.91,310.00,8.00,0.00,30.08,M,10.00,15.00,CLR,M,M,M,M,M,M,M,M,M,M,M,M,M,M,87.89,KCXP 162055Z AUTO 31008G15KT 10SM CLR 34/M02 A3008 RMK AO2,M
BVU,2022-08-16 20:55,-114.8611,35.9475,671.00,96.80,53.60,23.55,M,4.00,0.00,29.87,M,M,11.00,M,M,M,M,M,M,M,M,M,M,M,M,M,M,M,94.59,KBVU 162055Z AUTO VRB04G11KT 36/12 A2987 RMK AO2 PWINO TSNO,M
HND,2022-08-16 20:56,-115.1344,35.9729,742.79,98.00,56.00,24.61,40.00,10.00,0.00,29.91,1011.10,10.00,M,CLR,M,M,M,M,M,M,M,M,M,M,M,M,M,M,96.72,KHND 162056Z 04010KT 10SM CLR 37/13 A2991 RMK AO2 SLP111 T03670133 58016,M
TPH,2022-08-16 20:56,-117.0904,38.0505,1654.00,87.00,39.00,18.35,20.00,20.00,0.00,30.11,1011.00,10.00,M,BKN,M,M,M,12000.00,M,M,M,M,M,M,M,28.00,10.00,2022-08-16 20:45,83.65,KTPH 162056Z AUTO 02020KT 10SM BKN120 31/04 A3011 RMK AO2 PK WND 01028/2045 SLP110 T03060039 56009,M
LAS,2022-08-16 20:56,-115.1634,36.0719,663.00,96.00,56.00,26.16,M,4.00,0.00,29.88,1008.70,10.00,M,FEW,SCT,M,M,12000.00,16000.00,M,M,M,M,M,M,M,M,M,94.55,KLAS 162056Z VRB04KT 10SM FEW120 SCT160 36/13 A2988 RMK AO2 SLP087 T03560133 58016,M
EKO,2022-08-16 20:56,-115.7860,40.8242,1367.00,87.00,33.00,14.53,80.00,9.00,0.00,30.10,1013.00,10.00,M,CLR,M,M,M,M,M,M,M,M,M,M,M,M,M,M,83.52,KEKO 162056Z AUTO 08009KT 10SM CLR 31/01 A3010 RMK AO2 SLP130 T03060006 56012,M
NFL,2022-08-16 20:56,-118.7010,39.4166,1199.00,95.00,33.00,11.34,230.00,5.00,0.00,29.99,1012.80,10.00,M,SCT,SCT,BKN,M,8000.00,12000.00,17000.00,M,M,M,M,M,M,M,M,89.86,KNFL 162056Z 23005KT 10SM SCT080 SCT120 BKN170 35/01 A2999 RMK AO2 SLP128 CB DSNT ALQDS T03500006 58014,M
WMC,2022-08-16 20:56,-117.8072,40.9019,1315.00,98.00,36.00,11.58,90.00,5.00,0.00,30.03,1010.20,10.00,M,CLR,M,M,M,M,M,M,M,M,M,M,M,M,M,M,92.87,KWMC 162056Z AUTO 09005KT 10SM CLR 37/02 A3003 RMK AO2 SLP102 T03670022 56013,M
INS,2022-08-16 20:58,-115.6733,36.5872,955.00,95.40,47.80,19.83,110.00,5.00,0.00,29.93,1008.00,10.00,M,CLR,M,M,M,M,M,M,M,M,M,M,M,M,M,M,91.89,KINS 162058Z AUTO 11005KT 10SM CLR 35/09 A2993 RMK AO2 SLP080 T03520088 57014,M
LSV,2022-08-16 20:58,-115.0343,36.2362,570.00,105.00,55.80,19.88,10.00,3.00,0.00,29.83,M,10.00,M,CLR,M,M,M,M,M,M,M,M,M,M,M,M,M,M,104.38,KLSV 162058Z 01003KT 10SM CLR 41/13 A2983 RMK AO2A SLPNO T04060132 57017 $,M
WMC,2022-08-16 21:12,-117.8072,40.9019,1315.00,94.00,37.00,13.71,120.00,31.00,0.00,30.03,M,2.00,49.00,FEW,SCT,M,M,900.00,12000.00,M,M,HZ,M,M,M,49.00,150.00,2022-08-16 21:10,89.44,KWMC 162112Z AUTO 12031G49KT 2SM HZ FEW009 SCT120 34/03 A3003 RMK AO2 PK WND 15049/2110 VIS 1 1/4V4 T03440028,M
BVU,2022-08-16 21:15,-114.8611,35.9475,671.00,96.80,53.60,23.55,M,6.00,0.00,29.86,M,M,12.00,M,M,M,M,M,M,M,M,M,M,M,M,M,M,M,94.59,KBVU 162115Z AUTO VRB06G12KT 320V070 36/12 A2986 RMK AO2 PWINO TSNO,M
TMT,2022-08-16 21:15,-117.1971,39.4643,1749.34,M,M,M,60.00,6.00,0.00,30.14,M,10.00,M,CLR,M,M,M,M,M,M,M,M,M,M,M,M,M,M,M,KTMT 162115Z AUTO 06006KT 10SM CLR A3014 RMK AO2,M
HTH,2022-08-16 21:15,-118.6315,38.5448,1282.89,91.40,35.60,14.02,170.00,14.00,0.00,30.03,M,10.00,22.00,FEW,M,M,M,11000.00,M,M,M,M,M,M,M,M,M,M,87.17,KHTH 162115Z AUTO 17014G22KT 140V200 10SM FEW110 33/02 A3003 RMK A01,M
BAM,2022-08-16 21:15,-116.8743,40.5990,1382.36,98.60,33.80,10.45,50.00,14.00,0.00,30.04,M,10.00,M,CLR,M,M,M,M,M,M,M,M,M,M,M,M,M,M,92.94,KBAM 162115Z AUTO 05014KT 10SM CLR 37/01 A3004 RMK AO1,M
MEV,2022-08-16 21:15,-119.7500,38.9963,1441.42,93.20,33.80,12.34,350.00,8.00,0.00,30.06,M,10.00,M,CLR,M,M,M,M,M,M,M,M,M,M,M,M,M,M,88.55,KMEV 162115Z AUTO 35008KT 330V040 10SM CLR 34/01 A3006 RMK AO2,M
RTS,2022-08-16 21:15,-119.8764,39.6682,1539.00,87.80,32.00,13.59,M,6.00,0.00,30.13,M,10.00,M,CLR,M,M,M,M,M,M,M,M,M,M,M,M,M,M,84.08,KRTS 162115Z AUTO VRB06KT 10SM CLR 31/00 A3013 RMK AO2,M
CXP,2022-08-16 21:15,-119.7326,39.1923,1431.00,93.20,28.40,9.91,310.00,11.00,0.00,30.07,M,10.00,M,CLR,M,M,M,M,M,M,M,M,M,M,M,M,M,M,87.89,KCXP 162115Z AUTO 31011KT 290V360 10SM CLR 34/M02 A3007 RMK AO2,M
WMC,2022-08-16 21:26,-117.8072,40.9019,1315.00,94.00,35.00,12.71,20.00,7.00,T,30.03,M,7.00,46.00,FEW,BKN,BKN,M,1100.00,9000.00,11000.00,M,-RA,M,M,M,49.00,120.00,2022-08-16 21:16,89.29,KWMC 162126Z AUTO 02007G46KT 360V070 7SM -RA FEW011 BKN090 BKN110 34/02 A3003 RMK AO2 PK WND 12049/2116 RAB18 P0000 T03440017,M
BAM,2022-08-16 21:35,-116.8743,40.5990,1382.36,96.80,32.00,10.27,40.00,10.00,0.00,30.04,M,10.00,M,CLR,M,M,M,M,M,M,M,M,M,M,M,M,M,M,91.19,KBAM 162135Z AUTO 04010KT 10SM CLR 36/00 A3004 RMK AO1,M
MEV,2022-08-16 21:35,-119.7500,38.9963,1441.42,93.20,32.00,11.48,M,4.00,0.00,30.05,M,10.00,M,CLR,M,M,M,M,M,M,M,M,M,M,M,M,M,M,88.31,KMEV 162135Z AUTO VRB04KT 10SM CLR 34/00 A3005 RMK AO2,M
RTS,2022-08-16 21:35,-119.8764,39.6682,1539.00,87.80,33.80,14.61,M,3.00,0.00,30.13,M,10.00,M,CLR,M,M,M,M,M,M,M,M,M,M,M,M,M,M,84.10,KRTS 162135Z AUTO VRB03KT 10SM CLR 31/01 A3013 RMK AO2,M
CXP,2022-08-16 21:35,-119.7326,39.1923,1431.00,95.00,30.20,10.09,300.00,13.00,0.00,30.07,M,10.00,M,CLR,M,M,M,M,M,M,M,M,M,M,M,M,M,M,89.48,KCXP 162135Z AUTO 30013KT 10SM CLR 35/M01 A3007 RMK AO2,M
BVU,2022-08-16 21:35,-114.8611,35.9475,671.00,96.80,51.80,22.04,M,4.00,0.00,29.85,M,M,M,M,M,M,M,M,M,M,M,M,M,M,M,M,M,M,94.12,KBVU 162135Z AUTO VRB04KT 36/11 A2985 RMK AO2 PWINO TSNO,M
TMT,2022-08-16 21:35,-117.1971,39.4643,1749.34,M,M,M,80.00,8.00,0.00,30.14,M,10.00,14.00,CLR,M,M,M,M,M,M,M,M,M,M,M,M,M,M,M,KTMT 162135Z AUTO 08008G14KT 10SM CLR A3014 RMK AO2,M
HTH,2022-08-16 21:35,-118.6315,38.5448,1282.89,86.00,41.00,20.54,170.00,18.00,0.00,30.07,M,7.00,37.00,FEW,FEW,SCT,M,4000.00,6000.00,8500.00,M,M,M,M,M,M,M,M,82.86,KHTH 162135Z AUTO 17018G37KT 110V210 7SM FEW040 FEW060 SCT085 30/05 A3007 RMK A01,M
ELY,2022-08-16 21:53,-114.8453,39.2950,1909.00,84.00,39.00,20.27,0.00,0.00,0.00,30.17,1011.70,10.00,M,SCT,M,M,M,11000.00,M,M,M,M,M,M,M,M,M,M,81.29,KELY 162153Z AUTO 00000KT 10SM SCT110 29/04 A3017 RMK AO2 SLP117 T02890039 $,M
P68,2022-08-16 21:53,-116.0056,39.6014,1993.00,86.00,32.00,14.40,120.00,4.00,0.00,30.14,1011.50,M,M,M,M,M,M,M,M,M,M,M,M,M,M,M,M,M,82.64,KP68 162153Z AUTO 12004KT 30/00 A3014 RMK AO1 SLP115 T03000000,M
VGT,2022-08-16 21:53,-115.1933,36.2111,667.00,100.00,55.00,22.49,M,M,0.00,29.84,1008.80,10.00,M,CLR,M,M,M,M,M,M,M,M,M,M,M,M,M,M,98.48,KVGT 162153Z 10SM CLR 38/13 A2984 RMK AO2 SLP088 T03780128,M
LOL,2022-08-16 21:53,-118.5701,40.0684,1192.43,99.00,37.00,11.72,M,3.00,0.00,29.97,1010.10,10.00,M,CLR,M,M,M,M,M,M,M,M,M,M,M,M,M,M,93.81,KLOL 162153Z AUTO VRB03KT 10SM CLR 37/03 A2997 RMK AO2 SLP101 T03720028,M
DRA,2022-08-16 21:53,-116.0278,36.6206,1009.00,100.00,44.00,14.98,120.00,10.00,0.00,29.91,1006.70,10.00,16.00,CLR,M,M,M,M,M,M,M,M,M,M,M,M,M,M,95.84,KDRA 162153Z AUTO 12010G16KT 10SM CLR 38/07 A2991 RMK AO2 SLP067 T03780067,M
LSV,2022-08-16 21:54,-115.0343,36.2362,570.00,105.00,55.60,19.85,M,6.00,0.00,29.81,M,10.00,M,CLR,M,M,M,M,M,M,M,M,M,M,M,M,M,M,104.08,KLSV 162154Z VRB06KT 10SM CLR 41/13 A2981 RMK SLPNO T04050131 $,M
BVU,2022-08-16 21:55,-114.8611,35.9475,671.00,96.80,53.60,23.55,0.00,0.00,0.00,29.84,M,M,M,M,M,M,M,M,M,M,M,M,M,M,M,M,M,M,94.59,KBVU 162155Z AUTO 00000KT 36/12 A2984 RMK AO2 PWINO TSNO,M
MEV,2022-08-16 21:55,-119.7500,38.9963,1441.42,93.20,33.80,12.34,M,5.00,0.00,30.04,M,10.00,M,CLR,M,M,M,M,M,M,M,M,M,M,M,M,M,M,88.55,KMEV 162155Z AUTO VRB05KT 10SM CLR 34/01 A3004 RMK AO2,M
RTS,2022-08-16 21:55,-119.8764,39.6682,1539.00,87.80,32.00,13.59,0.00,0.00,0.00,30.12,M,10.00,M,CLR,M,M,M,M,M,M,M,M,M,M,M,M,M,M,84.08,KRTS 162155Z AUTO 00000KT 10SM CLR 31/00 A3012 RMK AO2,M
RNO,2022-08-16 21:55,-119.7711,39.4839,1341.00,94.00,37.00,13.71,350.00,9.00,0.00,30.05,1011.10,10.00,M,SCT,BKN,M,M,9500.00,19000.00,M,M,M,M,M,M,M,M,M,89.44,KRNO 162155Z 35009KT 10SM SCT095 BKN190 34/03 A3005 RMK AO2 SLP111 T03440028,M
CXP,2022-08-16 21:55,-119.7326,39.1923,1431.00,95.00,30.20,10.09,320.00,11.00,0.00,30.07,M,10.00,16.00,CLR,M,M,M,M,M,M,M,M,M,M,M,M,M,M,89.48,KCXP 162155Z AUTO 32011G16KT 10SM CLR 35/M01 A3007 RMK AO2,M
BAM,2022-08-16 21:55,-116.8743,40.5990,1382.36,98.60,32.00,9.72,90.00,13.00,0.00,30.04,M,10.00,17.00,CLR,M,M,M,M,M,M,M,M,M,M,M,M,M,M,92.69,KBAM 162155Z AUTO 09013G17KT 10SM CLR 37/00 A3004 RMK AO1,M
TMT,2022-08-16 21:55,-117.1971,39.4643,1749.34,M,M,M,80.00,9.00,0.00,30.13,M,10.00,M,CLR,M,M,M,M,M,M,M,M,M,M,M,M,M,M,M,KTMT 162155Z AUTO 08009KT 10SM CLR A3013 RMK AO2,M
HTH,2022-08-16 21:55,-118.6315,38.5448,1282.89,78.80,50.00,36.51,220.00,28.00,0.00,30.08,M,5.00,M,FEW,SCT,BKN,M,3700.00,6000.00,8500.00,M,HZ,M,M,M,M,M,M,78.80,KHTH 162155Z AUTO 22028KT 5SM HZ FEW037 SCT060 BKN085 26/10 A3008 RMK A01,M
LAS,2022-08-16 21:56,-115.1634,36.0719,663.00,98.00,54.00,22.97,70.00,6.00,0.00,29.85,1007.70,10.00,M,FEW,SCT,M,M,12000.00,16000.00,M,M,M,M,M,M,M,M,M,96.10,KLAS 162156Z 07006KT 10SM FEW120 SCT160 37/12 A2985 RMK AO2 SLP077 T03670122,M
WMC,2022-08-16 21:56,-117.8072,40.9019,1315.00,96.00,32.00,10.49,0.00,0.00,T,30.01,1010.60,10.00,M,CLR,M,M,M,M,M,M,M,M,M,M,M,49.00,120.00,2022-08-16 21:16,90.61,KWMC 162156Z AUTO 00000KT 10SM CLR 36/00 A3001 RMK AO2 PK WND 12049/2116 RAB18E32 SLP106 P0000 T03560000,M
HND,2022-08-16 21:56,-115.1344,35.9729,742.79,97.00,56.00,25.45,0.00,0.00,0.00,29.89,1010.20,10.00,M,CLR,M,M,M,M,M,M,M,M,M,M,M,M,M,M,95.53,KHND 162156Z 00000KT 10SM CLR 36/13 A2989 RMK AO2 SLP102 T03610133,M
TPH,2022-08-16 21:56,-117.0904,38.0505,1654.00,89.00,38.00,16.50,20.00,13.00,0.00,30.11,1010.70,10.00,M,CLR,M,M,M,M,M,M,M,M,M,M,M,M,M,M,85.26,KTPH 162156Z AUTO 02013KT 10SM CLR 32/03 A3011 RMK AO2 SLP107 T03170033,M
EKO,2022-08-16 21:56,-115.7860,40.8242,1367.00,89.00,33.00,13.64,160.00,6.00,0.00,30.08,1012.70,10.00,M,CLR,M,M,M,M,M,M,M,M,M,M,M,M,M,M,85.16,KEKO 162156Z AUTO 16006KT 10SM CLR 32/01 A3008 RMK AO2 SLP127 T03170006,M
INS,2022-08-16 21:58,-115.6733,36.5872,955.00,96.40,50.00,20.87,80.00,8.00,0.00,29.90,1007.00,10.00,M,CLR,M,M,M,M,M,M,M,M,M,M,M,M,M,M,93.30,KINS 162158Z AUTO 08008KT 10SM CLR 36/10 A2990 RMK AO2 SLP070 T03580100,M
LSV,2022-08-16 22:00,-115.0343,36.2362,570.00,104.70,55.60,19.97,150.00,4.00,0.00,29.80,M,10.00,M,SCT,M,M,M,15000.00,M,M,M,M,M,M,M,M,M,M,103.86,KLSV 162200Z 15004KT 10SM SCT150 40/13 A2980 RMK SLPNO T04040131 $,M
CXP,2022-08-16 22:15,-119.7326,39.1923,1431.00,95.00,32.00,10.85,330.00,4.00,0.00,30.06,M,10.00,15.00,CLR,M,M,M,M,M,M,M,M,M,M,M,M,M,M,89.71,KCXP 162215Z AUTO 33004G15KT 10SM CLR 35/M00 A3006 RMK AO2,M
MEV,2022-08-16 22:15,-119.7500,38.9963,1441.42,91.40,33.80,13.05,M,4.00,0.00,30.04,M,10.00,M,CLR,M,M,M,M,M,M,M,M,M,M,M,M,M,M,87.13,KMEV 162215Z AUTO VRB04KT 10SM CLR 33/01 A3004 RMK AO2,M
RTS,2022-08-16 22:15,-119.8764,39.6682,1539.00,89.60,32.00,12.84,M,4.00,0.00,30.11,M,10.00,M,CLR,M,M,M,M,M,M,M,M,M,M,M,M,M,M,85.54,KRTS 162215Z AUTO VRB04KT 10SM CLR 32/00 A3011 RMK AO2,M
BVU,2022-08-16 22:15,-114.8611,35.9475,671.00,98.60,51.80,20.87,60.00,8.00,0.00,29.83,M,M,M,M,M,M,M,M,M,M,M,M,M,M,M,M,M,M,96.00,KBVU 162215Z AUTO 06008KT 37/11 A2983 RMK AO2 PWINO TSNO,M
TMT,2022-08-16 22:15,-117.1971,39.4643,1749.34,M,M,M,50.00,10.00,0.00,30.12,M,10.00,15.00,CLR,M,M,M,M,M,M,M,M,M,M,M,M,M,M,M,KTMT 162215Z AUTO 05010G15KT 10SM CLR A3012 RMK AO2,M
BAM,2022-08-16 22:15,-116.8743,40.5990,1382.36,100.40,32.00,9.21,80.00,7.00,0.00,30.03,M,10.00,M,CLR,M,M,M,M,M,M,M,M,M,M,M,M,M,M,94.21,KBAM 162215Z AUTO 08007KT 10SM CLR 38/00 A3003 RMK AO1,M
HTH,2022-08-16 22:15,-118.6315,38.5448,1282.89,78.80,50.00,36.51,230.00,17.00,0.00,30.08,M,9.00,28.00,FEW,FEW,SCT,M,4200.00,5500.00,8000.00,M,M,M,M,M,M,M,M,78.80,KHTH 162215Z AUTO 23017G28KT 9SM FEW042 FEW055 SCT080 26/10 A3008 RMK A01,M
CXP,2022-08-16 22:35,-119.7326,39.1923,1431.00,95.00,32.00,10.85,M,5.00,0.00,30.06,M,10.00,15.00,CLR,M,M,M,M,M,M,M,M,M,M,M,M,M,M,89.71,KCXP 162235Z AUTO VRB05G15KT 10SM CLR 35/00 A3006 RMK AO2,M
MEV,2022-08-16 22:35,-119.7500,38.9963,1441.42,91.40,32.00,12.14,270.00,5.00,0.00,30.04,M,10.00,M,CLR,M,M,M,M,M,M,M,M,M,M,M,M,M,M,86.91,KMEV 162235Z AUTO 27005KT 10SM CLR 33/00 A3004 RMK AO2,M
BAM,2022-08-16 22:35,-116.8743,40.5990,1382.36,96.80,32.00,10.27,120.00,7.00,0.00,30.02,M,10.00,20.00,CLR,M,M,M,M,M,M,M,M,M,M,M,M,M,M,91.19,KBAM 162235Z AUTO 12007G20KT 10SM CLR 36/00 A3002 RMK AO1,M
HTH,2022-08-16 22:35,-118.6315,38.5448,1282.89,82.40,46.40,28.36,260.00,14.00,0.00,30.07,M,10.00,M,CLR,M,M,M,M,M,M,M,M,M,M,M,M,M,M,80.64,KHTH 162235Z AUTO 26014KT 10SM CLR 28/08 A3007 RMK A01,M
TMT,2022-08-16 22:35,-117.1971,39.4643,1749.34,M,M,M,10.00,3.00,0.00,30.12,M,10.00,M,CLR,M,M,M,M,M,M,M,M,M,M,M,M,M,M,M,KTMT 162235Z AUTO 01003KT 10SM CLR A3012 RMK AO2,M
BVU,2022-08-16 22:35,-114.8611,35.9475,671.00,98.60,51.80,20.87,M,5.00,0.00,29.83,M,M,14.00,M,M,M,M,M,M,M,M,M,M,M,M,M,M,M,96.00,KBVU 162235Z AUTO VRB05G14KT 37/11 A2983 RMK AO2 PWINO TSNO,M
RTS,2022-08-16 22:35,-119.8764,39.6682,1539.00,89.60,32.00,12.84,M,4.00,0.00,30.10,M,10.00,M,CLR,M,M,M,M,M,M,M,M,M,M,M,M,M,M,85.54,KRTS 162235Z AUTO VRB04KT 10SM CLR 32/M00 A3010 RMK AO2,M
P68,2022-08-16 22:53,-116.0056,39.6014,1993.00,87.00,30.90,13.30,60.00,6.00,0.00,30.12,1011.30,M,M,M,M,M,M,M,M,M,M,M,M,M,M,M,M,M,83.51,KP68 162253Z AUTO 06006KT 31/M01 A3012 RMK AO1 SLP113 T03061006,M
ELY,2022-08-16 22:53,-114.8453,39.2950,1909.00,83.00,41.00,22.70,200.00,9.00,0.00,30.16,1011.90,10.00,M,SCT,M,M,M,11000.00,M,M,M,M,M,M,M,M,M,M,80.62,KELY 162253Z AUTO 20009KT 10SM SCT110 28/05 A3016 RMK AO2 SLP119 T02830050 $,M
DRA,2022-08-16 22:53,-116.0278,36.6206,1009.00,100.00,44.00,14.98,110.00,9.00,0.00,29.89,1006.30,10.00,M,CLR,M,M,M,M,M,M,M,M,M,M,M,M,M,M,95.84,KDRA 162253Z AUTO 11009KT 080V140 10SM CLR 38/07 A2989 RMK AO2 SLP063 T03780067,M
LOL,2022-08-16 22:53,-118.5701,40.0684,1192.43,98.00,35.00,11.17,0.00,0.00,0.00,29.96,1009.40,10.00,M,CLR,M,M,M,M,M,M,M,M,M,M,M,M,M,M,92.73,KLOL 162253Z AUTO 00000KT 10SM CLR 37/02 A2996 RMK AO2 SLP094 T03670017,M
VGT,2022-08-16 22:53,-115.1933,36.2111,667.00,101.00,55.00,21.89,M,3.00,0.00,29.81,1008.10,10.00,M,CLR,M,M,M,M,M,M,M,M,M,M,M,M,M,M,99.46,KVGT 162253Z VRB03KT 10SM CLR 38/13 A2981 RMK AO2 SLP081 T03830128,M
HTH,2022-08-16 22:55,-118.6315,38.5448,1282.89,84.20,44.60,24.99,250.00,12.00,0.00,30.06,M,10.00,18.00,CLR,M,M,M,M,M,M,M,M,M,M,M,M,M,M,81.73,KHTH 162255Z AUTO 25012G18KT 10SM CLR 29/07 A3006 RMK A01,M
RTS,2022-08-16 22:55,-119.8764,39.6682,1539.00,89.60,32.00,12.84,0.00,0.00,0.00,30.10,M,10.00,M,CLR,M,M,M,M,M,M,M,M,M,M,M,M,M,M,85.54,KRTS 162255Z AUTO 00000KT 10SM CLR 32/M00 A3010 RMK AO2,M
BVU,2022-08-16 22:55,-114.8611,35.9475,671.00,98.60,51.80,20.87,M,5.00,0.00,29.83,M,M,10.00,M,M,M,M,M,M,M,M,M,M,M,M,M,M,M,96.00,KBVU 162255Z AUTO VRB05G10KT 37/11 A2983 RMK AO2 PWINO TSNO,M
CXP,2022-08-16 22:55,-119.7326,39.1923,1431.00,95.00,33.80,11.67,320.00,11.00,0.00,30.05,M,10.00,18.00,CLR,M,M,M,M,M,M,M,M,M,M,M,M,M,M,89.97,KCXP 162255Z AUTO 32011G18KT 10SM CLR 35/01 A3005 RMK AO2,M
TMT,2022-08-16 22:55,-117.1971,39.4643,1749.34,M,M,M,70.00,4.00,0.00,30.11,M,10.00,M,CLR,M,M,M,M,M,M,M,M,M,M,M,M,M,M,M,KTMT 162255Z AUTO 07004KT 10SM CLR A3011 RMK AO2,M
RNO,2022-08-16 22:55,-119.7711,39.4839,1341.00,95.00,39.00,14.33,M,4.00,0.00,30.03,1010.30,10.00,M,FEW,FEW,M,M,13000.00,18000.00,M,M,M,M,M,M,M,M,M,90.55,KRNO 162255Z VRB04KT 10SM FEW130 FEW180 35/04 A3003 RMK AO2 SLP103 T03500039,M
BAM,2022-08-16 22:55,-116.8743,40.5990,1382.36,98.60,32.00,9.72,110.00,5.00,0.00,30.01,M,10.00,M,CLR,M,M,M,M,M,M,M,M,M,M,M,M,M,M,92.69,KBAM 162255Z AUTO 11005KT 10SM CLR 37/00 A3001 RMK AO1,M
MEV,2022-08-16 22:55,-119.7500,38.9963,1441.42,89.60,33.80,13.80,230.00,5.00,0.00,30.04,M,10.00,M,CLR,M,M,M,M,M,M,M,M,M,M,M,M,M,M,85.59,KMEV 162255Z AUTO 23005KT 10SM CLR 32/01 A3004 RMK AO2,M
TPH,2022-08-16 22:56,-117.0904,38.0505,1654.00,87.00,38.00,17.58,350.00,10.00,0.00,30.10,1010.70,10.00,M,SCT,M,M,M,12000.00,M,M,M,M,M,M,M,M,M,M,83.61,KTPH 162256Z AUTO 35010KT 10SM SCT120 31/03 A3010 RMK AO2 SLP107 T03060033,M
HND,2022-08-16 22:56,-115.1344,35.9729,742.79,99.00,55.00,23.18,60.00,8.00,0.00,29.87,1009.60,10.00,M,CLR,M,M,M,M,M,M,M,M,M,M,M,M,M,M,97.39,KHND 162256Z 06008KT 10SM CLR 37/13 A2987 RMK AO2 SLP096 T03720128,M
LAS,2022-08-16 22:56,-115.1634,36.0719,663.00,98.00,54.00,22.97,M,3.00,0.00,29.83,1007.00,10.00,M,FEW,SCT,M,M,12000.00,16000.00,M,M,M,M,M,M,M,M,M,96.10,KLAS 162256Z VRB03KT 10SM FEW120 SCT160 37/12 A2983 RMK AO2 SLP070 CB DSNT N AND NE-SE T03670122,M
WMC,2022-08-16 22:56,-117.8072,40.9019,1315.00,96.00,34.00,11.37,180.00,6.00,0.00,30.00,1009.70,10.00,M,CLR,M,M,M,M,M,M,M,M,M,M,M,M,M,M,90.89,KWMC 162256Z AUTO 18006KT 10SM CLR 36/01 A3000 RMK AO2 SLP097 T03560011,M
EKO,2022-08-16 22:56,-115.7860,40.8242,1367.00,89.00,32.00,13.05,M,3.00,0.00,30.06,1012.10,10.00,15.00,CLR,M,M,M,M,M,M,M,M,M,M,M,M,M,M,85.15,KEKO 162256Z AUTO VRB03G15KT 10SM CLR 32/00 A3006 RMK AO2 SLP121 T03170000,M
INS,2022-08-16 22:58,-115.6733,36.5872,955.00,97.50,48.20,18.87,320.00,4.00,0.00,29.89,1006.60,10.00,M,CLR,M,M,M,M,M,M,M,M,M,M,M,M,M,M,94.06,KINS 162258Z AUTO 32004KT 10SM CLR 36/09 A2989 RMK AO2 SLP066 T03640090,M
LSV,2022-08-16 22:58,-115.0343,36.2362,570.00,104.40,55.20,19.85,0.00,0.00,0.00,29.78,M,10.00,M,SCT,M,M,M,15000.00,M,M,M,M,M,M,M,M,M,M,103.37,KLSV 162258Z 00000KT 10SM SCT150 40/13 A2978 RMK AO2A SLPNO T04020129 $,M
NFL,2022-08-16 23:04,-118.7010,39.4166,1199.00,96.00,37.00,12.81,150.00,20.00,0.00,29.97,M,10.00,26.00,SCT,BKN,BKN,BKN,8000.00,12000.00,18000.00,25000.00,M,M,M,M,26.00,150.00,2022-08-16 23:04,91.39,KNFL 162304Z 15020G26KT 10SM SCT080 BKN120 BKN180 BKN250 36/03 A2997 RMK AO2 PK WND 15026/2304 WSHFT 2244 CB DSNT ALQDS T03560028,M
TMT,2022-08-16 23:15,-117.1971,39.4643,1749.34,M,M,M,70.00,7.00,0.00,30.11,M,10.00,M,CLR,M,M,M,M,M,M,M,M,M,M,M,M,M,M,M,KTMT 162315Z AUTO 07007KT 10SM CLR A3011 RMK AO2,M
HTH,2022-08-16 23:15,-118.6315,38.5448,1282.89,86.00,42.80,22.02,130.00,7.00,0.00,30.07,M,M,M,CLR,M,M,M,M,M,M,M,M,M,M,M,M,M,M,82.95,KHTH 162315Z AUTO 13007KT CLR 30/06 A3007 RMK A01,M
BAM,2022-08-16 23:15,-116.8743,40.5990,1382.36,98.60,30.20,9.04,0.00,0.00,0.00,30.01,M,10.00,M,CLR,M,M,M,M,M,M,M,M,M,M,M,M,M,M,92.46,KBAM 162315Z AUTO 00000KT 10SM CLR 37/M01 A3001 RMK AO1,M
BVU,2022-08-16 23:15,-114.8611,35.9475,671.00,98.60,53.60,22.29,M,4.00,0.00,29.82,M,M,12.00,M,M,M,M,M,M,M,M,M,M,M,M,M,M,M,96.51,KBVU 162315Z AUTO VRB04G12KT 37/12 A2982 RMK AO2 PWINO TSNO,M
RTS,2022-08-16 23:15,-119.8764,39.6682,1539.00,89.60,32.00,12.84,M,4.00,0.00,30.09,M,10.00,M,CLR,M,M,M,M,M,M,M,M,M,M,M,M,M,M,85.54,KRTS 162315Z AUTO VRB04KT 10SM CLR 32/M00 A3009 RMK AO2,M
CXP,2022-08-16 23:15,-119.7326,39.1923,1431.00,93.20,33.80,12.34,300.00,11.00,0.00,30.05,M,10.00,17.00,CLR,M,M,M,M,M,M,M,M,M,M,M,M,M,M,88.55,KCXP 162315Z AUTO 30011G17KT 10SM CLR 34/01 A3005 RMK AO2,M
MEV,2022-08-16 23:15,-119.7500,38.9963,1441.42,89.60,32.00,12.84,M,5.00,0.00,30.05,M,10.00,13.00,CLR,M,M,M,M,M,M,M,M,M,M,M,M,M,M,85.54,KMEV 162315Z AUTO VRB05G13KT 10SM CLR 32/00 A3005 RMK AO2,M
BVU,2022-08-16 23:35,-114.8611,35.9475,671.00,98.60,53.60,22.29,M,6.00,0.00,29.82,M,M,M,M,M,M,M,M,M,M,M,M,M,M,M,M,M,M,96.51,KBVU 162335Z AUTO VRB06KT 37/12 A2982 RMK AO2 PWINO TSNO,M
HTH,2022-08-16 23:35,-118.6315,38.5448,1282.89,84.20,46.40,26.76,110.00,15.00,0.00,30.08,M,10.00,M,CLR,M,M,M,M,M,M,M,M,M,M,M,M,M,M,81.87,KHTH 162335Z AUTO 11015KT 10SM CLR 29/08 A3008 RMK A01,M
BAM,2022-08-16 23:35,-116.8743,40.5990,1382.36,100.40,30.20,8.56,180.00,6.00,0.00,30.00,M,10.00,14.00,CLR,M,M,M,M,M,M,M,M,M,M,M,M,M,M,93.98,KBAM 162335Z AUTO 18006G14KT 10SM CLR 38/M01 A3000 RMK AO1,M
MEV,2022-08-16 23:35,-119.7500,38.9963,1441.42,86.00,39.20,19.15,120.00,21.00,0.00,30.06,M,10.00,31.00,CLR,M,M,M,M,M,M,M,M,M,M,M,M,M,M,82.79,KMEV 162335Z AUTO 12021G31KT 10SM CLR 30/04 A3006 RMK AO2,M
RTS,2022-08-16 23:35,-119.8764,39.6682,1539.00,87.80,32.00,13.59,140.00,4.00,0.00,30.09,M,10.00,M,CLR,M,M,M,M,M,M,M,M,M,M,M,M,M,M,84.08,KRTS 162335Z AUTO 14004KT 10SM CLR 31/M00 A3009 RMK AO2,M
CXP,2022-08-16 23:35,-119.7326,39.1923,1431.00,91.40,33.80,13.05,M,4.00,0.00,30.06,M,10.00,11.00,FEW,FEW,M,M,5500.00,12000.00,M,M,M,M,M,M,M,M,M,87.13,KCXP 162335Z AUTO VRB04G11KT 10SM FEW055 FEW120 33/01 A3006 RMK AO2,M
TMT,2022-08-16 23:35,-117.1971,39.4643,1749.34,M,M,M,0.00,0.00,0.00,30.11,M,10.00,M,CLR,M,M,M,M,M,M,M,M,M,M,M,M,M,M,M,KTMT 162335Z AUTO 00000KT 10SM CLR A3011 RMK AO2,M
LOL,2022-08-16 23:39,-118.5701,40.0684,1192.43,94.00,41.00,16.02,130.00,14.00,0.00,29.98,M,10.00,23.00,FEW,M,M,M,12000.00,M,M,M,M,M,M,M,28.00,150.00,2022-08-16 23:22,89.68,KLOL 162339Z AUTO 13014G23KT 10SM FEW120 34/05 A2998 RMK AO2 PK WND 15028/2322 WSHFT 2319 T03440050,M
VGT,2022-08-16 23:53,-115.1933,36.2111,667.00,100.00,54.00,21.68,220.00,5.00,0.00,29.80,1007.80,10.00,M,CLR,M,M,M,M,M,M,M,M,M,M,M,M,M,M,98.14,KVGT 162353Z 22005KT 10SM CLR 38/12 A2980 RMK AO2 SLP078 T03780122 10389 20339 56018,M
LOL,2022-08-16 23:53,-118.5701,40.0684,1192.43,90.00,46.00,21.91,70.00,15.00,T,29.99,1011.20,10.00,22.00,FEW,M,M,M,11000.00,M,M,M,-RA,M,M,M,28.00,150.00,2022-08-16 23:22,86.55,KLOL 162353Z AUTO 07015G22KT 10SM -RA FEW110 32/08 A2999 RMK AO2 PK WND 15028/2322 WSHFT 2319 RAB50 SLP112 P0000 60000 T03220078 10378 20322 55001,M
P68,2022-08-16 23:53,-116.0056,39.6014,1993.00,87.00,30.90,13.30,60.00,3.00,0.00,30.11,1011.20,M,M,M,M,M,M,M,M,M,M,M,M,M,M,M,M,M,83.51,KP68 162353Z AUTO 06003KT 31/M01 A3011 RMK AO1 SLP112 T03061006 10328 20283 56011,M
DRA,2022-08-16 23:53,-116.0278,36.6206,1009.00,99.00,45.00,15.98,M,M,0.00,29.88,1006.00,10.00,M,BKN,M,M,M,11000.00,M,M,M,M,M,M,M,M,M,M,95.00,KDRA 162353Z AUTO 10SM BKN110 37/07 A2988 RMK AO2 SLP060 T03720072 10383 20333 56016,M
ELY,2022-08-16 23:53,-114.8453,39.2950,1909.00,83.00,41.00,22.70,190.00,8.00,0.00,30.15,1011.40,10.00,M,SCT,M,M,M,11000.00,M,M,M,M,M,M,M,M,M,M,80.62,KELY 162353Z AUTO 19008KT 10SM SCT110 28/05 A3015 RMK AO2 SLP114 T02830050 10300 20256 56010 $,M
RNO,2022-08-16 23:55,-119.7711,39.4839,1341.00,95.00,39.00,14.33,10.00,5.00,0.00,30.01,1009.90,10.00,M,FEW,SCT,BKN,M,11000.00,15000.00,25000.00,M,M,M,M,M,M,M,M,90.55,KRNO 162355Z 01005KT 10SM FEW110 SCT150 BKN250 35/04 A3001 RMK AO2 SLP099 VIRGA SE THRU S TCU DSNT E 60000 T03500039 10361 20250 56017,M
CXP,2022-08-16 23:55,-119.7326,39.1923,1431.00,80.60,48.20,32.18,180.00,10.00,0.00,30.08,M,5.00,21.00,FEW,BKN,BKN,M,5000.00,6000.00,7000.00,M,-RA HZ,M,M,M,M,M,M,79.71,KCXP 162355Z AUTO 18010G21KT 150V220 5SM -RA HZ FEW050 BKN060 BKN070 27/09 A3008 RMK AO2,M
BVU,2022-08-16 23:55,-114.8611,35.9475,671.00,98.60,53.60,22.29,90.00,8.00,0.00,29.82,M,M,M,M,M,M,M,M,M,M,M,M,M,M,M,M,M,M,96.51,KBVU 162355Z AUTO 09008KT 37/12 A2982 RMK AO2 PWINO TSNO,M
MEV,2022-08-16 23:55,-119.7500,38.9963,1441.42,87.80,39.20,18.09,90.00,16.00,0.00,30.05,M,10.00,24.00,CLR,M,M,M,M,M,M,M,M,M,M,M,M,M,M,84.22,KMEV 162355Z AUTO 09016G24KT 10SM CLR 31/04 A3005 RMK AO2,M
BAM,2022-08-16 23:55,-116.8743,40.5990,1382.36,98.60,30.20,9.04,90.00,4.00,0.00,30.00,M,10.00,M,CLR,M,M,M,M,M,M,M,M,M,M,M,M,M,M,92.46,KBAM 162355Z AUTO 09004KT 10SM CLR 37/M01 A3000 RMK AO1,M
HTH,2022-08-16 23:55,-118.6315,38.5448,1282.89,84.20,44.60,24.99,110.00,11.00,0.00,30.09,M,10.00,M,CLR,M,M,M,M,M,M,M,M,M,M,M,M,M,M,81.73,KHTH 162355Z AUTO 11011KT 10SM CLR 29/07 A3009 RMK A01,M
TMT,2022-08-16 23:55,-117.1971,39.4643,1749.34,M,M,M,290.00,10.00,0.00,30.12,M,10.00,17.00,CLR,M,M,M,M,M,M,M,M,M,M,M,M,M,M,M,KTMT 162355Z AUTO 29010G17KT 10SM CLR A3012 RMK AO2,M
RTS,2022-08-16 23:55,-119.8764,39.6682,1539.00,87.80,32.00,13.59,0.00,0.00,0.00,30.08,M,10.00,M,CLR,M,M,M,M,M,M,M,M,M,M,M,M,M,M,84.08,KRTS 162355Z AUTO 00000KT 10SM CLR 31/M00 A3008 RMK AO2,M
TPH,2022-08-16 23:56,-117.0904,38.0505,1654.00,85.00,42.00,22.20,310.00,19.00,0.00,30.11,1011.10,10.00,27.00,CLR,M,M,M,M,M,M,M,M,M,M,M,27.00,280.00,2022-08-16 23:29,82.08,KTPH 162356Z AUTO 31019G27KT 10SM CLR 29/06 A3011 RMK AO2 PK WND 28027/2329 SLP111 T02940056 10328 20294 55002,M
EKO,2022-08-16 23:56,-115.7860,40.8242,1367.00,93.00,32.00,11.55,30.00,7.00,0.00,30.05,1011.30,10.00,M,CLR,M,M,M,M,M,M,M,M,M,M,M,M,M,M,88.15,KEKO 162356Z AUTO 03007KT 10SM CLR 34/00 A3005 RMK AO2 SLP113 T03390000 10339 20283 56014,M
HND,2022-08-16 23:56,-115.1344,35.9729,742.79,99.00,55.00,23.18,M,4.00,0.00,29.86,1009.40,10.00,M,CLR,M,M,M,M,M,M,M,M,M,M,M,M,M,M,97.39,KHND 162356Z VRB04KT 10SM CLR 37/13 A2986 RMK AO2 SLP094 T03720128 10378 20328 56016,M
NFL,2022-08-16 23:56,-118.7010,39.4166,1199.00,94.00,34.00,12.17,170.00,17.00,0.00,29.98,1012.20,10.00,25.00,SCT,BKN,BKN,BKN,8000.00,12000.00,18000.00,25000.00,M,M,M,M,29.00,160.00,2022-08-16 23:13,89.13,KNFL 162356Z 17017G25KT 10SM SCT080 BKN120 BKN180 BKN250 34/01 A2998 RMK AO2 PK WND 16029/2313 WSHFT 2244 SLP122 CB DSNT ALQDS T03440011 10383 20300 55006,M
LAS,2022-08-16 23:56,-115.1634,36.0719,663.00,100.00,54.00,21.68,320.00,5.00,0.00,29.82,1006.60,10.00,M,FEW,SCT,M,M,12000.00,16000.00,M,M,M,M,M,M,M,M,M,98.14,KLAS 162356Z 32005KT 10SM FEW120 SCT160 38/12 A2982 RMK AO2 SLP066 CB DSNT N AND NE-SE T03780122 10383 20322 56019,M
WMC,2022-08-16 23:56,-117.8072,40.9019,1315.00,94.00,36.00,13.17,190.00,10.00,0.00,30.00,1010.60,10.00,18.00,CLR,M,M,M,M,M,M,M,M,M,M,M,M,M,M,89.40,KWMC 162356Z AUTO 19010G18KT 10SM CLR 34/02 A3000 RMK AO2 SLP106 60000 T03440022 10378 20322 56009,M
INS,2022-08-16 23:58,-115.6733,36.5872,955.00,97.30,48.20,18.99,60.00,7.00,0.00,29.88,1006.50,10.00,M,CLR,M,M,M,M,M,M,M,M,M,M,M,M,M,M,93.86,KINS 162358Z AUTO 06007KT 10SM CLR 36/09 A2988 RMK AO2 SLP065 T03630090 10366 20320 57017,M
LSV,2022-08-16 23:58,-115.0343,36.2362,570.00,103.50,54.50,19.88,80.00,6.00,0.00,29.77,M,10.00,M,SCT,M,M,M,18000.00,M,M,M,M,M,M,M,M,M,M,102.11,KLSV 162358Z 08006KT 10SM SCT180 40/13 A2977 RMK AO2A SLPNO T03970125 10407 20362 $,M
