station,valid,lon,lat,elevation,tmpf,dwpf,relh,drct,sknt,p01i,alti,mslp,vsby,gust,skyc1,skyc2,skyc3,skyc4,skyl1,skyl2,skyl3,skyl4,wxcodes,ice_accretion_1hr,ice_accretion_3hr,ice_accretion_6hr,peak_wind_gust,peak_wind_drct,peak_wind_time,feel,metar,snowdepth
BAM,2022-09-10 00:15,-116.8743,40.5990,1382.36,86.00,17.60,7.90,340.00,10.00,0.00,29.90,M,10.00,M,CLR,M,M,M,M,M,M,M,M,M,M,M,M,M,M,81.85,KBAM 100015Z AUTO 34010KT 10SM CLR 30/M08 A2990 RMK AO1,M
HTH,2022-09-10 00:15,-118.6315,38.5448,1282.89,87.80,23.00,9.39,320.00,13.00,0.00,29.81,M,10.00,M,CLR,M,M,M,M,M,M,M,M,M,M,M,M,M,M,83.43,KHTH 100015Z AUTO 32013KT 10SM CLR 31/M05 A2981 RMK A01,M
RTS,2022-09-10 00:15,-119.8764,39.6682,1539.00,84.20,17.60,8.37,0.00,0.00,0.00,29.91,M,10.00,M,CLR,M,M,M,M,M,M,M,M,M,M,M,M,M,M,80.59,KRTS 100015Z AUTO 00000KT 10SM CLR 29/M08 A2991 RMK AO2,M
05U,2022-09-10 00:15,-116.0051,39.6042,1811.23,84.20,24.80,11.35,20.00,8.00,0.00,29.98,M,10.00,M,M,M,M,M,M,M,M,M,M,M,M,M,M,M,M,81.00,K05U 100015Z AUTO 02008KT 10SM 29/M04 A2998 RMK A01,M
TMT,2022-09-10 00:15,-117.1971,39.4643,1749.34,M,M,M,30.00,9.00,0.00,29.96,M,10.00,M,CLR,M,M,M,M,M,M,M,M,M,M,M,M,M,M,M,KTMT 100015Z AUTO 03009KT 10SM CLR A2996 RMK AO2,M
CXP,2022-09-10 00:15,-119.7326,39.1923,1431.00,84.20,23.00,10.53,70.00,12.00,0.00,29.89,M,10.00,M,CLR,M,M,M,M,M,M,M,M,M,M,M,M,M,M,80.88,KCXP 100015Z AUTO 07012KT 10SM CLR 29/M05 A2989 RMK AO2,M
BVU,2022-09-10 00:15,-114.8611,35.9475,671.00,91.40,57.20,31.72,170.00,15.00,0.00,29.71,M,M,M,M,M,M,M,M,M,M,M,M,M,M,M,M,M,M,90.06,KBVU 100015Z AUTO 17015KT 33/14 A2971 RMK AO2 TSNO,M
MEV,2022-09-10 00:15,-119.7500,38.9963,1441.42,86.00,21.20,9.21,330.00,9.00,0.00,29.88,M,10.00,M,CLR,M,M,M,M,M,M,M,M,M,M,M,M,M,M,82.04,KMEV 100015Z AUTO 33009KT 10SM CLR 30/M06 A2988 RMK AO2,M
BAM,2022-09-10 00:35,-116.8743,40.5990,1382.36,86.00,17.60,7.90,350.00,10.00,0.00,29.90,M,10.00,14.00,CLR,M,M,M,M,M,M,M,M,M,M,M,M,M,M,81.85,KBAM 100035Z AUTO 35010G14KT 10SM CLR 30/M08 A2990 RMK AO1,M
HTH,2022-09-10 00:35,-118.6315,38.5448,1282.89,87.80,24.80,10.12,320.00,14.00,0.00,29.81,M,10.00,M,CLR,M,M,M,M,M,M,M,M,M,M,M,M,M,M,83.56,KHTH 100035Z AUTO 32014KT 10SM CLR 31/M04 A2981 RMK A01,M
BVU,2022-09-10 00:35,-114.8611,35.9475,671.00,89.60,57.20,33.56,170.00,14.00,0.00,29.71,M,M,M,M,M,M,M,M,M,M,M,M,M,M,M,M,M,M,88.28,KBVU 100035Z AUTO 17014KT 32/14 A2971 RMK AO2 TSNO,M
CXP,2022-09-10 00:35,-119.7326,39.1923,1431.00,84.20,23.00,10.53,70.00,8.00,0.00,29.89,M,10.00,M,CLR,M,M,M,M,M,M,M,M,M,M,M,M,M,M,80.88,KCXP 100035Z AUTO 07008KT 10SM CLR 29/M05 A2989 RMK AO2,M
RTS,2022-09-10 00:35,-119.8764,39.6682,1539.00,82.40,17.60,8.87,30.00,5.00,0.00,29.91,M,10.00,M,CLR,M,M,M,M,M,M,M,M,M,M,M,M,M,M,79.36,KRTS 100035Z AUTO 03005KT 10SM CLR 28/M08 A2991 RMK AO2,M
05U,2022-09-10 00:35,-116.0051,39.6042,1811.23,82.40,26.60,12.97,30.00,9.00,0.00,29.98,M,10.00,M,M,M,M,M,M,M,M,M,M,M,M,M,M,M,M,79.92,K05U 100035Z AUTO 03009KT 10SM 28/M03 A2998 RMK A01,M
TMT,2022-09-10 00:35,-117.1971,39.4643,1749.34,M,M,M,50.00,7.00,0.00,29.96,M,10.00,M,CLR,M,M,M,M,M,M,M,M,M,M,M,M,M,M,M,KTMT 100035Z AUTO 05007KT 10SM CLR A2996 RMK AO2,M
MEV,2022-09-10 00:35,-119.7500,38.9963,1441.42,84.20,23.00,10.53,350.00,10.00,0.00,29.87,M,10.00,M,CLR,M,M,M,M,M,M,M,M,M,M,M,M,M,M,80.88,KMEV 100035Z AUTO 35010KT 10SM CLR 29/M05 A2987 RMK AO2,M
DRA,2022-09-10 00:53,-116.0278,36.6206,1009.00,90.00,56.00,31.62,220.00,15.00,0.00,29.75,1002.20,10.00,21.00,CLR,M,M,M,M,M,M,M,M,M,M,M,M,M,M,88.29,KDRA 100053Z AUTO 22015G21KT 10SM CLR 32/13 A2975 RMK AO2 SLP022 T03220133,M
ELY,2022-09-10 00:53,-114.8453,39.2950,1909.00,82.00,23.00,11.31,10.00,14.00,0.00,29.96,1005.40,10.00,21.00,CLR,M,M,M,M,M,M,M,M,M,M,M,M,M,M,79.40,KELY 100053Z AUTO 01014G21KT 10SM CLR 28/M05 A2996 RMK AO2 SLP054 T02781050,M
LOL,2022-09-10 00:53,-118.5701,40.0684,1192.43,89.00,21.90,8.60,40.00,12.00,0.00,29.81,1005.20,10.00,M,CLR,M,M,M,M,M,M,M,M,M,M,M,M,M,M,84.31,KLOL 100053Z AUTO 04012KT 10SM CLR 32/M06 A2981 RMK AO2 SLP052 T03171056,M
P68,2022-09-10 00:53,-116.0056,39.6014,1993.00,81.00,28.00,14.38,40.00,10.00,0.00,29.96,1007.10,M,M,M,M,M,M,M,M,M,M,M,M,M,M,M,M,M,78.98,KP68 100053Z AUTO 04010KT 27/M02 A2996 RMK AO1 SLP071 T02721022,M
VGT,2022-09-10 00:53,-115.1933,36.2111,667.00,95.00,57.00,28.16,150.00,12.00,0.00,29.68,1003.30,10.00,M,CLR,M,M,M,M,M,M,M,M,M,M,M,M,M,M,93.75,KVGT 100053Z 15012KT 10SM CLR 35/14 A2968 RMK AO2 SLP033 T03500139,M
HTH,2022-09-10 00:55,-118.6315,38.5448,1282.89,87.80,23.00,9.39,320.00,14.00,0.00,29.81,M,10.00,19.00,CLR,M,M,M,M,M,M,M,M,M,M,M,M,M,M,83.43,KHTH 100055Z AUTO 32014G19KT 10SM CLR 31/M05 A2981 RMK A01,M
TMT,2022-09-10 00:55,-117.1971,39.4643,1749.34,M,M,M,10.00,5.00,0.00,29.96,M,10.00,M,CLR,M,M,M,M,M,M,M,M,M,M,M,M,M,M,M,KTMT 100055Z AUTO 01005KT 10SM CLR A2996 RMK AO2,M
BAM,2022-09-10 00:55,-116.8743,40.5990,1382.36,86.00,17.60,7.90,340.00,10.00,0.00,29.90,M,10.00,M,CLR,M,M,M,M,M,M,M,M,M,M,M,M,M,M,81.85,KBAM 100055Z AUTO 34010KT 10SM CLR 30/M08 A2990 RMK AO1,M
MEV,2022-09-10 00:55,-119.7500,38.9963,1441.42,84.20,23.00,10.53,350.00,9.00,0.00,29.87,M,10.00,M,CLR,M,M,M,M,M,M,M,M,M,M,M,M,M,M,80.88,KMEV 100055Z AUTO 35009KT 10SM CLR 29/M05 A2987 RMK AO2,M
05U,2022-09-10 00:55,-116.0051,39.6042,1811.23,80.60,28.40,14.81,40.00,8.00,0.00,29.98,M,10.00,M,M,M,M,M,M,M,M,M,M,M,M,M,M,M,M,78.72,K05U 100055Z AUTO 04008KT 10SM 27/M02 A2998 RMK A01,M
RTS,2022-09-10 00:55,-119.8764,39.6682,1539.00,82.40,17.60,8.87,M,5.00,0.00,29.91,M,10.00,M,CLR,M,M,M,M,M,M,M,M,M,M,M,M,M,M,79.36,KRTS 100055Z AUTO VRB05KT 10SM CLR 28/M08 A2991 RMK AO2,M
RNO,2022-09-10 00:55,-119.7711,39.4839,1341.00,87.00,28.90,12.26,120.00,4.00,0.00,29.85,1004.70,10.00,M,SCT,SCT,M,M,7000.00,12000.00,M,M,M,M,M,M,M,M,M,83.37,KRNO 100055Z 12004KT 10SM SCT070 SCT120 31/M02 A2985 RMK AO2 SLP047 FU SCT070 FU SCT120 FU OBSCG MTNS DSNT S T03061017,M
CXP,2022-09-10 00:55,-119.7326,39.1923,1431.00,82.40,23.00,11.16,70.00,10.00,0.00,29.89,M,10.00,M,CLR,M,M,M,M,M,M,M,M,M,M,M,M,M,M,79.67,KCXP 100055Z AUTO 07010KT 10SM CLR 28/M05 A2989 RMK AO2,M
BVU,2022-09-10 00:55,-114.8611,35.9475,671.00,89.60,57.20,33.56,170.00,13.00,0.00,29.71,M,M,M,M,M,M,M,M,M,M,M,M,M,M,M,M,M,M,88.28,KBVU 100055Z AUTO 17013KT 32/14 A2971 RMK AO2 TSNO,M
LSV,2022-09-10 00:56,-115.0343,36.2362,570.00,94.00,56.80,28.75,160.00,12.00,0.00,29.66,1001.60,10.00,M,FEW,FEW,M,M,15000.00,18000.00,M,M,M,M,M,M,M,M,M,92.72,KLSV 100056Z AUTO 16012KT 10SM FEW150 FEW180 35/14 A2966 RMK AO2 SLP016 T03450138 $,M
WMC,2022-09-10 00:56,-117.8072,40.9019,1315.00,85.00,12.90,6.67,10.00,11.00,0.00,29.88,1007.20,8.00,M,CLR,M,M,M,M,M,M,M,M,M,M,M,M,M,M,80.89,KWMC 100056Z AUTO 01011KT 8SM CLR 29/M11 A2988 RMK AO2 SLP072 T02941106,M
NFL,2022-09-10 00:56,-118.7010,39.4166,1199.00,89.00,23.00,9.01,10.00,4.00,0.00,29.80,1007.00,10.00,M,BKN,M,M,M,8000.00,M,M,M,M,M,M,M,M,M,M,84.38,KNFL 100056Z 01004KT 10SM BKN080 32/M05 A2980 RMK AO2 SLP070 FU BKN080 T03171050,M
TPH,2022-09-10 00:56,-117.0904,38.0505,1654.00,90.00,30.00,11.70,M,M,0.00,29.87,1002.60,10.00,M,CLR,M,M,M,M,M,M,M,M,M,M,M,M,M,M,85.63,KTPH 100056Z AUTO 10SM CLR 32/M01 A2987 RMK AO2 SLP026 T03221011,M
LAS,2022-09-10 00:56,-115.1634,36.0719,663.00,92.00,57.00,31.00,160.00,12.00,0.00,29.69,1002.20,10.00,23.00,FEW,SCT,OVC,M,14000.00,18000.00,20000.00,M,M,M,M,M,M,M,M,90.50,KLAS 100056Z 16012G23KT 10SM FEW140 SCT180 OVC200 33/14 A2969 RMK AO2 SLP022 ACSL W AND DSNT E T03330139,M
EKO,2022-09-10 00:56,-115.7860,40.8242,1367.00,85.00,17.10,8.01,0.00,0.00,0.00,29.91,1007.90,10.00,M,CLR,M,M,M,M,M,M,M,M,M,M,M,M,M,M,81.05,KEKO 100056Z AUTO 00000KT 10SM CLR 29/M08 A2991 RMK AO2 SLP079 T02941083,M
INS,2022-09-10 00:56,-115.6733,36.5872,955.00,90.30,53.80,29.02,110.00,16.00,0.00,29.72,1001.30,10.00,M,CLR,M,M,M,M,M,M,M,M,M,M,M,26.00,110.00,2022-09-10 00:22,88.06,KINS 100056Z AUTO 11016KT 10SM CLR 32/12 A2972 RMK AO2 PK WND 11026/22 SLP013 T03240121 $,M
05U,2022-09-10 01:15,-116.0051,39.6042,1811.23,78.80,28.40,15.71,20.00,8.00,0.00,29.98,M,10.00,M,M,M,M,M,M,M,M,M,M,M,M,M,M,M,M,78.80,K05U 100115Z AUTO 02008KT 10SM 26/M02 A2998 RMK A01,M
TMT,2022-09-10 01:15,-117.1971,39.4643,1749.34,M,M,M,40.00,7.00,0.00,29.95,M,10.00,M,CLR,M,M,M,M,M,M,M,M,M,M,M,M,M,M,M,KTMT 100115Z AUTO 04007KT 10SM CLR A2995 RMK AO2,M
MEV,2022-09-10 01:15,-119.7500,38.9963,1441.42,82.40,24.80,12.03,340.00,7.00,0.00,29.87,M,10.00,M,CLR,M,M,M,M,M,M,M,M,M,M,M,M,M,M,79.79,KMEV 100115Z AUTO 34007KT 10SM CLR 28/M04 A2987 RMK AO2,M
BAM,2022-09-10 01:15,-116.8743,40.5990,1382.36,84.20,17.60,8.37,340.00,8.00,0.00,29.90,M,10.00,M,CLR,M,M,M,M,M,M,M,M,M,M,M,M,M,M,80.59,KBAM 100115Z AUTO 34008KT 10SM CLR 29/M08 A2990 RMK AO1,M
HTH,2022-09-10 01:15,-118.6315,38.5448,1282.89,86.00,30.20,13.38,330.00,12.00,0.00,29.81,M,10.00,M,CLR,M,M,M,M,M,M,M,M,M,M,M,M,M,M,82.64,KHTH 100115Z AUTO 33012KT 10SM CLR 30/M01 A2981 RMK A01,M
BVU,2022-09-10 01:15,-114.8611,35.9475,671.00,89.60,55.40,31.45,180.00,12.00,0.00,29.71,M,M,18.00,M,M,M,M,M,M,M,M,M,M,M,M,M,M,M,87.78,KBVU 100115Z AUTO 18012G18KT 32/13 A2971 RMK AO2 TSNO,M
CXP,2022-09-10 01:15,-119.7326,39.1923,1431.00,82.40,23.00,11.16,60.00,7.00,0.00,29.89,M,10.00,M,CLR,M,M,M,M,M,M,M,M,M,M,M,M,M,M,79.67,KCXP 100115Z AUTO 06007KT 10SM CLR 28/M05 A2989 RMK AO2,M
RTS,2022-09-10 01:15,-119.8764,39.6682,1539.00,82.40,17.60,8.87,60.00,3.00,0.00,29.91,M,10.00,M,CLR,M,M,M,M,M,M,M,M,M,M,M,M,M,M,79.36,KRTS 100115Z AUTO 06003KT 10SM CLR 28/M08 A2991 RMK AO2,M
RTS,2022-09-10 01:35,-119.8764,39.6682,1539.00,80.60,17.60,9.40,80.00,3.00,0.00,29.91,M,10.00,M,CLR,M,M,M,M,M,M,M,M,M,M,M,M,M,M,78.45,KRTS 100135Z AUTO 08003KT 10SM CLR 27/M08 A2991 RMK AO2,M
CXP,2022-09-10 01:35,-119.7326,39.1923,1431.00,82.40,23.00,11.16,50.00,7.00,0.00,29.89,M,10.00,M,CLR,M,M,M,M,M,M,M,M,M,M,M,M,M,M,79.67,KCXP 100135Z AUTO 05007KT 10SM CLR 28/M05 A2989 RMK AO2,M
05U,2022-09-10 01:35,-116.0051,39.6042,1811.23,75.20,28.40,17.70,30.00,8.00,0.00,29.99,M,10.00,M,M,M,M,M,M,M,M,M,M,M,M,M,M,M,M,75.20,K05U 100135Z AUTO 03008KT 10SM 24/M02 A2999 RMK A01,M
MEV,2022-09-10 01:35,-119.7500,38.9963,1441.42,78.80,26.60,14.59,330.00,6.00,0.00,29.87,M,10.00,M,CLR,M,M,M,M,M,M,M,M,M,M,M,M,M,M,78.80,KMEV 100135Z AUTO 33006KT 10SM CLR 26/M03 A2987 RMK AO2,M
BAM,2022-09-10 01:35,-116.8743,40.5990,1382.36,82.40,19.40,9.58,330.00,7.00,0.00,29.90,M,10.00,M,CLR,M,M,M,M,M,M,M,M,M,M,M,M,M,M,79.45,KBAM 100135Z AUTO 33007KT 10SM CLR 28/M07 A2990 RMK AO1,M
HTH,2022-09-10 01:35,-118.6315,38.5448,1282.89,86.00,30.20,13.38,330.00,12.00,0.00,29.82,M,10.00,M,CLR,M,M,M,M,M,M,M,M,M,M,M,M,M,M,82.64,KHTH 100135Z AUTO 33012KT 10SM CLR 30/M01 A2982 RMK A01,M
TMT,2022-09-10 01:35,-117.1971,39.4643,1749.34,M,M,M,10.00,7.00,0.00,29.95,M,10.00,M,CLR,M,M,M,M,M,M,M,M,M,M,M,M,M,M,M,KTMT 100135Z AUTO 01007KT 10SM CLR A2995 RMK AO2,M
BVU,2022-09-10 01:35,-114.8611,35.9475,671.00,89.60,57.20,33.56,200.00,10.00,0.00,29.72,M,M,M,M,M,M,M,M,M,M,M,M,M,M,M,M,M,M,88.28,KBVU 100135Z AUTO 20010KT 32/14 A2972 RMK AO2 TSNO,M
VGT,2022-09-10 01:53,-115.1933,36.2111,667.00,92.00,57.00,31.00,150.00,14.00,0.00,29.68,1003.50,10.00,M,CLR,M,M,M,M,M,M,M,M,M,M,M,M,M,M,90.50,KVGT 100153Z 15014KT 10SM CLR 33/14 A2968 RMK AO2 SLP035 T03330139,M
ELY,2022-09-10 01:53,-114.8453,39.2950,1909.00,74.00,21.00,13.58,360.00,5.00,0.00,29.98,1006.50,10.00,M,CLR,M,M,M,M,M,M,M,M,M,M,M,M,M,M,73.90,KELY 100153Z AUTO 36005KT 10SM CLR 23/M06 A2998 RMK AO2 SLP065 T02331061,M
DRA,2022-09-10 01:53,-116.0278,36.6206,1009.00,88.00,56.00,33.68,210.00,14.00,0.00,29.75,1002.50,10.00,21.00,CLR,M,M,M,M,M,M,M,M,M,M,M,M,M,M,86.42,KDRA 100153Z AUTO 21014G21KT 10SM CLR 31/13 A2975 RMK AO2 SLP025 T03110133,M
LOL,2022-09-10 01:53,-118.5701,40.0684,1192.43,83.00,25.00,11.94,30.00,9.00,0.00,29.81,1005.50,10.00,M,CLR,M,M,M,M,M,M,M,M,M,M,M,M,M,M,80.13,KLOL 100153Z AUTO 03009KT 10SM CLR 28/M04 A2981 RMK AO2 SLP055 T02831039,M
P68,2022-09-10 01:53,-116.0056,39.6014,1993.00,73.00,28.00,18.74,30.00,8.00,0.00,29.96,1008.10,M,M,M,M,M,M,M,M,M,M,M,M,M,M,M,M,M,73.00,KP68 100153Z AUTO 03008KT 23/M02 A2996 RMK AO1 SLP081 T02281022,M
CXP,2022-09-10 01:55,-119.7326,39.1923,1431.00,80.60,23.00,11.83,40.00,6.00,0.00,29.89,M,10.00,M,CLR,M,M,M,M,M,M,M,M,M,M,M,M,M,M,78.80,KCXP 100155Z AUTO 04006KT 10SM CLR 27/M05 A2989 RMK AO2,M
RNO,2022-09-10 01:55,-119.7711,39.4839,1341.00,85.00,28.90,13.15,130.00,3.00,0.00,29.85,1005.00,10.00,M,FEW,SCT,BKN,M,6000.00,8000.00,13000.00,M,M,M,M,M,M,M,M,81.78,KRNO 100155Z 13003KT 10SM FEW060 SCT080 BKN130 29/M02 A2985 RMK AO2 SLP050 FU FEW060 FU SCT080 FU BKN130 FU OBSCG MTNS DSNT S AND MTN TOPS DSNT SW T02941017,M
TMT,2022-09-10 01:55,-117.1971,39.4643,1749.34,M,M,M,360.00,6.00,0.00,29.96,M,10.00,M,CLR,M,M,M,M,M,M,M,M,M,M,M,M,M,M,M,KTMT 100155Z AUTO 36006KT 10SM CLR A2996 RMK AO2,M
BVU,2022-09-10 01:55,-114.8611,35.9475,671.00,87.80,57.20,35.53,180.00,12.00,0.00,29.72,M,M,M,M,M,M,M,M,M,M,M,M,M,M,M,M,M,M,86.58,KBVU 100155Z AUTO 18012KT 31/14 A2972 RMK AO2 TSNO,M
RTS,2022-09-10 01:55,-119.8764,39.6682,1539.00,78.80,19.40,10.78,0.00,0.00,0.00,29.91,M,10.00,M,CLR,M,M,M,M,M,M,M,M,M,M,M,M,M,M,78.80,KRTS 100155Z AUTO 00000KT 10SM CLR 26/M07 A2991 RMK AO2,M
05U,2022-09-10 01:55,-116.0051,39.6042,1811.23,73.40,28.40,18.80,30.00,7.00,0.00,29.99,M,10.00,M,M,M,M,M,M,M,M,M,M,M,M,M,M,M,M,73.40,K05U 100155Z AUTO 03007KT 10SM 23/M02 A2999 RMK A01,M
MEV,2022-09-10 01:55,-119.7500,38.9963,1441.42,77.00,28.40,16.67,330.00,7.00,0.00,29.88,M,10.00,M,CLR,M,M,M,M,M,M,M,M,M,M,M,M,M,M,77.00,KMEV 100155Z AUTO 33007KT 10SM CLR 25/M02 A2988 RMK AO2,M
BAM,2022-09-10 01:55,-116.8743,40.5990,1382.36,80.60,19.40,10.16,330.00,6.00,0.00,29.90,M,10.00,M,CLR,M,M,M,M,M,M,M,M,M,M,M,M,M,M,78.56,KBAM 100155Z AUTO 33006KT 10SM CLR 27/M07 A2990 RMK AO1,M
HTH,2022-09-10 01:55,-118.6315,38.5448,1282.89,84.20,32.00,15.25,320.00,10.00,0.00,29.82,M,10.00,M,CLR,M,M,M,M,M,M,M,M,M,M,M,M,M,M,81.28,KHTH 100155Z AUTO 32010KT 10SM CLR 29/M00 A2982 RMK A01,M
NFL,2022-09-10 01:56,-118.7010,39.4166,1199.00,84.00,28.00,13.04,310.00,4.00,0.00,29.80,1007.00,10.00,M,BKN,M,M,M,8000.00,M,M,M,M,M,M,M,M,M,M,81.10,KNFL 100156Z 31004KT 10SM BKN080 29/M02 A2980 RMK AO2 SLP070 FU BKN080 T02891022,M
LAS,2022-09-10 01:56,-115.1634,36.0719,663.00,91.00,56.00,30.65,190.00,11.00,0.00,29.69,1002.50,10.00,19.00,FEW,FEW,SCT,OVC,12000.00,15000.00,18000.00,20000.00,M,M,M,M,M,M,M,89.27,KLAS 100156Z 19011G19KT 10SM FEW120 FEW150 SCT180 OVC200 33/13 A2969 RMK AO2 SLP025 T03280133,M
EKO,2022-09-10 01:56,-115.7860,40.8242,1367.00,78.00,19.90,11.27,150.00,3.00,0.00,29.91,1008.20,10.00,M,CLR,M,M,M,M,M,M,M,M,M,M,M,M,M,M,78.10,KEKO 100156Z AUTO 15003KT 10SM CLR 26/M07 A2991 RMK AO2 SLP082 T02561067,M
LSV,2022-09-10 01:56,-115.0343,36.2362,570.00,92.00,56.80,30.78,180.00,14.00,0.00,29.66,1001.70,10.00,M,SCT,M,M,M,18000.00,M,M,M,M,M,M,M,M,M,M,90.44,KLSV 100156Z AUTO 18014KT 10SM SCT180 33/14 A2966 RMK AO2 SLP017 T03330138 $,M
WMC,2022-09-10 01:56,-117.8072,40.9019,1315.00,80.00,12.90,7.79,20.00,9.00,0.00,29.88,1008.00,8.00,M,CLR,M,M,M,M,M,M,M,M,M,M,M,M,M,M,77.72,KWMC 100156Z AUTO 02009KT 8SM CLR 27/M11 A2988 RMK AO2 SLP080 T02671106,M
TPH,2022-09-10 01:56,-117.0904,38.0505,1654.00,86.00,39.00,19.01,210.00,11.00,0.00,29.88,1003.30,8.00,M,CLR,M,M,M,M,M,M,M,M,M,M,M,M,M,M,82.78,KTPH 100156Z AUTO 21011KT 8SM CLR 30/04 A2988 RMK AO2 SLP033 T03000039,M
INS,2022-09-10 01:56,-115.6733,36.5872,955.00,88.20,53.60,30.78,120.00,13.00,0.00,29.73,1001.60,10.00,M,CLR,M,M,M,M,M,M,M,M,M,M,M,M,M,M,86.08,KINS 100156Z AUTO 12013KT 10SM CLR 31/12 A2973 RMK AO2 SLP016 T03120120 $,M
05U,2022-09-10 02:15,-116.0051,39.6042,1811.23,68.00,28.40,22.59,20.00,4.00,0.00,29.99,M,10.00,M,M,M,M,M,M,M,M,M,M,M,M,M,M,M,M,68.00,K05U 100215Z AUTO 02004KT 10SM 20/M02 A2999 RMK A01,M
TMT,2022-09-10 02:15,-117.1971,39.4643,1749.34,M,M,M,10.00,7.00,0.00,29.96,M,10.00,M,CLR,M,M,M,M,M,M,M,M,M,M,M,M,M,M,M,KTMT 100215Z AUTO 01007KT 10SM CLR A2996 RMK AO2,M
HTH,2022-09-10 02:15,-118.6315,38.5448,1282.89,82.40,35.60,18.67,320.00,8.00,0.00,29.83,M,10.00,M,CLR,M,M,M,M,M,M,M,M,M,M,M,M,M,M,80.08,KHTH 100215Z AUTO 32008KT 10SM CLR 28/02 A2983 RMK A01,M
BAM,2022-09-10 02:15,-116.8743,40.5990,1382.36,78.80,19.40,10.78,330.00,7.00,0.00,29.89,M,10.00,M,CLR,M,M,M,M,M,M,M,M,M,M,M,M,M,M,78.80,KBAM 100215Z AUTO 33007KT 10SM CLR 26/M07 A2989 RMK AO1,M
BVU,2022-09-10 02:15,-114.8611,35.9475,671.00,87.80,57.20,35.53,200.00,7.00,0.00,29.72,M,M,M,M,M,M,M,M,M,M,M,M,M,M,M,M,M,M,86.58,KBVU 100215Z AUTO 20007KT 31/14 A2972 RMK AO2 TSNO,M
CXP,2022-09-10 02:15,-119.7326,39.1923,1431.00,80.60,23.00,11.83,50.00,5.00,0.00,29.89,M,10.00,M,SCT,M,M,M,6000.00,M,M,M,M,M,M,M,M,M,M,78.80,KCXP 100215Z AUTO 05005KT 10SM SCT060 27/M05 A2989 RMK AO2,M
RTS,2022-09-10 02:15,-119.8764,39.6682,1539.00,77.00,17.60,10.59,70.00,5.00,0.00,29.91,M,10.00,M,CLR,M,M,M,M,M,M,M,M,M,M,M,M,M,M,77.00,KRTS 100215Z AUTO 07005KT 10SM CLR 25/M08 A2991 RMK AO2,M
MEV,2022-09-10 02:15,-119.7500,38.9963,1441.42,75.20,26.60,16.43,320.00,7.00,0.00,29.88,M,10.00,M,SCT,M,M,M,6500.00,M,M,M,M,M,M,M,M,M,M,75.20,KMEV 100215Z AUTO 32007KT 10SM SCT065 24/M03 A2988 RMK AO2,M
05U,2022-09-10 02:35,-116.0051,39.6042,1811.23,64.40,30.20,27.55,360.00,4.00,0.00,30.00,M,10.00,M,M,M,M,M,M,M,M,M,M,M,M,M,M,M,M,64.40,K05U 100235Z AUTO 36004KT 10SM 18/M01 A3000 RMK A01,M
BVU,2022-09-10 02:35,-114.8611,35.9475,671.00,87.80,57.20,35.53,210.00,5.00,0.00,29.73,M,M,M,M,M,M,M,M,M,M,M,M,M,M,M,M,M,M,86.58,KBVU 100235Z AUTO 21005KT 31/14 A2973 RMK AO2 TSNO,M
CXP,2022-09-10 02:35,-119.7326,39.1923,1431.00,75.20,23.00,14.15,300.00,4.00,0.00,29.89,M,10.00,M,OVC,M,M,M,6000.00,M,M,M,M,M,M,M,M,M,M,75.20,KCXP 100235Z AUTO 30004KT 10SM OVC060 24/M05 A2989 RMK AO2,M
RTS,2022-09-10 02:35,-119.8764,39.6682,1539.00,73.40,17.60,11.94,120.00,4.00,0.00,29.92,M,10.00,M,BKN,M,M,M,5500.00,M,M,M,M,M,M,M,M,M,M,73.40,KRTS 100235Z AUTO 12004KT 10SM BKN055 23/M08 A2992 RMK AO2,M
MEV,2022-09-10 02:35,-119.7500,38.9963,1441.42,73.40,28.40,18.80,320.00,5.00,0.00,29.88,M,10.00,M,M,M,M,M,M,M,M,M,M,M,M,M,M,M,M,73.40,KMEV 100235Z AUTO 32005KT 10SM 23/M02 A2988 RMK AO2,M
BAM,2022-09-10 02:35,-116.8743,40.5990,1382.36,75.20,17.60,11.24,350.00,5.00,0.00,29.90,M,10.00,M,CLR,M,M,M,M,M,M,M,M,M,M,M,M,M,M,75.20,KBAM 100235Z AUTO 35005KT 10SM CLR 24/M08 A2990 RMK AO1,M
HTH,2022-09-10 02:35,-118.6315,38.5448,1282.89,82.40,41.00,23.07,340.00,10.00,0.00,29.83,M,10.00,M,CLR,M,M,M,M,M,M,M,M,M,M,M,M,M,M,80.29,KHTH 100235Z AUTO 34010KT 10SM CLR 28/05 A2983 RMK A01,M
TMT,2022-09-10 02:35,-117.1971,39.4643,1749.34,M,M,M,360.00,5.00,0.00,29.96,M,10.00,M,CLR,M,M,M,M,M,M,M,M,M,M,M,M,M,M,M,KTMT 100235Z AUTO 36005KT 10SM CLR A2996 RMK AO2,M
ELY,2022-09-10 02:53,-114.8453,39.2950,1909.00,68.00,21.90,17.24,310.00,5.00,0.00,30.00,1006.80,10.00,M,CLR,M,M,M,M,M,M,M,M,M,M,M,M,M,M,68.00,KELY 100253Z AUTO 31005KT 10SM CLR 20/M06 A3000 RMK AO2 SLP068 T02001056 53009,M
LOL,2022-09-10 02:53,-118.5701,40.0684,1192.43,79.00,18.00,10.08,30.00,9.00,0.00,29.82,1006.10,10.00,M,CLR,M,M,M,M,M,M,M,M,M,M,M,M,M,M,79.00,KLOL 100253Z AUTO 03009KT 10SM CLR 26/M08 A2982 RMK AO2 SLP061 T02611078 53001,M
P68,2022-09-10 02:53,-116.0056,39.6014,1993.00,64.00,28.90,26.50,M,3.00,0.00,29.98,1008.50,M,M,M,M,M,M,M,M,M,M,M,M,M,M,M,M,M,64.00,KP68 100253Z AUTO VRB03KT 18/M02 A2998 RMK AO1 SLP085 T01781017 53007,M
DRA,2022-09-10 02:53,-116.0278,36.6206,1009.00,86.00,57.00,37.35,220.00,10.00,0.00,29.77,1002.80,10.00,M,CLR,M,M,M,M,M,M,M,M,M,M,M,M,M,M,84.92,KDRA 100253Z AUTO 22010KT 10SM CLR 30/14 A2977 RMK AO2 SLP028 T03000139 53006,M
VGT,2022-09-10 02:53,-115.1933,36.2111,667.00,92.00,55.00,28.84,160.00,13.00,0.00,29.70,1004.20,10.00,M,CLR,M,M,M,M,M,M,M,M,M,M,M,M,M,M,89.92,KVGT 100253Z 16013KT 10SM CLR 33/13 A2970 RMK AO2 SLP042 T03330128 53007,M
RNO,2022-09-10 02:55,-119.7711,39.4839,1341.00,80.00,32.00,17.42,210.00,4.00,0.00,29.86,1005.60,10.00,M,FEW,SCT,BKN,M,6000.00,7000.00,11000.00,M,M,M,M,M,M,M,M,78.63,KRNO 100255Z 21004KT 10SM FEW060 SCT070 BKN110 27/00 A2986 RMK AO2 SLP056 FU FEW060 FU SCT070 FU BKN110 FU OBSCG MTNS DSNT S AND MTN TOPS DSNT SW T02670000 53003,M
MEV,2022-09-10 02:55,-119.7500,38.9963,1441.42,68.00,26.60,20.98,0.00,0.00,0.00,29.89,M,10.00,M,OVC,M,M,M,6500.00,M,M,M,M,M,M,M,M,M,M,68.00,KMEV 100255Z AUTO 00000KT 10SM OVC065 20/M03 A2989 RMK AO2,M
HTH,2022-09-10 02:55,-118.6315,38.5448,1282.89,80.60,35.60,19.79,350.00,11.00,0.00,29.83,M,10.00,M,CLR,M,M,M,M,M,M,M,M,M,M,M,M,M,M,78.94,KHTH 100255Z AUTO 35011KT 10SM CLR 27/02 A2983 RMK A01,M
BVU,2022-09-10 02:55,-114.8611,35.9475,671.00,87.80,57.20,35.53,210.00,6.00,0.00,29.73,M,M,M,M,M,M,M,M,M,M,M,M,M,M,M,M,M,M,86.58,KBVU 100255Z AUTO 21006KT 31/14 A2973 RMK AO2 TSNO,M
CXP,2022-09-10 02:55,-119.7326,39.1923,1431.00,77.00,24.80,14.37,0.00,0.00,0.00,29.90,M,10.00,M,OVC,M,M,M,6000.00,M,M,M,M,M,M,M,M,M,M,77.00,KCXP 100255Z AUTO 00000KT 10SM OVC060 25/M04 A2990 RMK AO2,M
BAM,2022-09-10 02:55,-116.8743,40.5990,1382.36,69.80,17.60,13.49,0.00,0.00,0.00,29.91,M,10.00,M,CLR,M,M,M,M,M,M,M,M,M,M,M,M,M,M,69.80,KBAM 100255Z AUTO 00000KT 10SM CLR 21/M08 A2991 RMK AO1,M
RTS,2022-09-10 02:55,-119.8764,39.6682,1539.00,71.60,17.60,12.69,100.00,4.00,0.00,29.92,M,10.00,M,OVC,M,M,M,5000.00,M,M,M,M,M,M,M,M,M,M,71.60,KRTS 100255Z AUTO 10004KT 10SM OVC050 22/M08 A2992 RMK AO2,M
05U,2022-09-10 02:55,-116.0051,39.6042,1811.23,64.40,28.40,25.60,0.00,0.00,0.00,30.00,M,10.00,M,M,M,M,M,M,M,M,M,M,M,M,M,M,M,M,64.40,K05U 100255Z AUTO 00000KT 10SM 18/M02 A3000 RMK A01,M
TMT,2022-09-10 02:55,-117.1971,39.4643,1749.34,M,M,M,340.00,4.00,0.00,29.97,M,10.00,M,CLR,M,M,M,M,M,M,M,M,M,M,M,M,M,M,M,KTMT 100255Z AUTO 34004KT 10SM CLR A2997 RMK AO2,M
TPH,2022-09-10 02:56,-117.0904,38.0505,1654.00,83.00,42.00,23.68,210.00,12.00,0.00,29.90,1003.80,10.00,M,CLR,M,M,M,M,M,M,M,M,M,M,M,M,M,M,80.68,KTPH 100256Z AUTO 21012KT 10SM CLR 28/06 A2990 RMK AO2 SLP038 T02830056 53005,M
EKO,2022-09-10 02:56,-115.7860,40.8242,1367.00,75.00,14.00,9.68,30.00,8.00,0.00,29.94,1009.10,10.00,M,CLR,M,M,M,M,M,M,M,M,M,M,M,M,M,M,75.00,KEKO 100256Z AUTO 03008KT 10SM CLR 24/M10 A2994 RMK AO2 SLP091 T02391100 53007,M
NFL,2022-09-10 02:56,-118.7010,39.4166,1199.00,75.00,37.00,25.17,280.00,4.00,0.00,29.82,1007.40,10.00,M,BKN,M,M,M,8000.00,M,M,M,M,M,M,M,M,M,M,75.00,KNFL 100256Z 28004KT 10SM BKN080 24/03 A2982 RMK AO2 SLP074 FU BKN080 T02390028 53002,M
WMC,2022-09-10 02:56,-117.8072,40.9019,1315.00,68.00,10.90,10.70,20.00,5.00,0.00,29.89,1008.10,10.00,M,CLR,M,M,M,M,M,M,M,M,M,M,M,M,M,M,68.00,KWMC 100256Z AUTO 02005KT 10SM CLR 20/M12 A2989 RMK AO2 SLP081 T02001117 53001,M
LAS,2022-09-10 02:56,-115.1634,36.0719,663.00,90.00,57.00,32.91,180.00,9.00,0.00,29.71,1003.10,10.00,16.00,FEW,FEW,SCT,OVC,12000.00,15000.00,18000.00,20000.00,M,M,M,M,M,M,M,88.61,KLAS 100256Z 18009G16KT 10SM FEW120 FEW150 SCT180 OVC200 32/14 A2971 RMK AO2 SLP031 T03220139 53007,M
LSV,2022-09-10 02:56,-115.0343,36.2362,570.00,91.00,56.80,31.76,170.00,12.00,0.00,29.68,1002.30,10.00,M,CLR,M,M,M,M,M,M,M,M,M,M,M,M,M,M,89.43,KLSV 100256Z AUTO 17012KT 10SM CLR 33/14 A2968 RMK AO2 SLP023 T03270138 52009 $,M
INS,2022-09-10 02:56,-115.6733,36.5872,955.00,86.20,53.00,31.97,110.00,12.00,0.00,29.75,1002.30,10.00,M,CLR,M,M,M,M,M,M,M,M,M,M,M,M,M,M,84.22,KINS 100256Z AUTO 11012KT 10SM CLR 30/12 A2975 RMK AO2 SLP023 T03010116 53009 $,M
05U,2022-09-10 03:15,-116.0051,39.6042,1811.23,64.40,26.60,23.77,100.00,3.00,0.00,30.01,M,10.00,M,M,M,M,M,M,M,M,M,M,M,M,M,M,M,M,64.40,K05U 100315Z AUTO 10003KT 10SM 18/M03 A3001 RMK A01,M
HTH,2022-09-10 03:15,-118.6315,38.5448,1282.89,78.80,41.00,25.95,310.00,7.00,0.00,29.85,M,10.00,M,CLR,M,M,M,M,M,M,M,M,M,M,M,M,M,M,78.80,KHTH 100315Z AUTO 31007KT 10SM CLR 26/05 A2985 RMK A01,M
BAM,2022-09-10 03:15,-116.8743,40.5990,1382.36,69.80,14.00,11.54,60.00,5.00,0.00,29.92,M,10.00,M,CLR,M,M,M,M,M,M,M,M,M,M,M,M,M,M,69.80,KBAM 100315Z AUTO 06005KT 10SM CLR 21/M10 A2992 RMK AO1,M
MEV,2022-09-10 03:15,-119.7500,38.9963,1441.42,60.80,35.60,38.85,0.00,0.00,0.00,29.90,M,10.00,M,M,M,M,M,M,M,M,M,M,M,M,M,M,M,M,60.80,KMEV 100315Z AUTO 00000KT 10SM 16/02 A2990 RMK AO2,M
RTS,2022-09-10 03:15,-119.8764,39.6682,1539.00,69.80,19.40,14.57,0.00,0.00,0.00,29.93,M,10.00,M,OVC,M,M,M,5000.00,M,M,M,M,M,M,M,M,M,M,69.80,KRTS 100315Z AUTO 00000KT 10SM OVC050 21/M07 A2993 RMK AO2,M
CXP,2022-09-10 03:15,-119.7326,39.1923,1431.00,73.40,26.60,17.46,0.00,0.00,0.00,29.91,M,10.00,M,OVC,M,M,M,5500.00,M,M,M,M,M,M,M,M,M,M,73.40,KCXP 100315Z AUTO 00000KT 10SM OVC055 23/M03 A2991 RMK AO2,M
BVU,2022-09-10 03:15,-114.8611,35.9475,671.00,87.80,57.20,35.53,200.00,8.00,0.00,29.74,M,M,M,M,M,M,M,M,M,M,M,M,M,M,M,M,M,M,86.58,KBVU 100315Z AUTO 20008KT 31/14 A2974 RMK AO2 TSNO,M
TMT,2022-09-10 03:15,-117.1971,39.4643,1749.34,M,M,M,0.00,0.00,0.00,29.98,M,10.00,M,CLR,M,M,M,M,M,M,M,M,M,M,M,M,M,M,M,KTMT 100315Z AUTO 00000KT 10SM CLR A2998 RMK AO2,M
BVU,2022-09-10 03:35,-114.8611,35.9475,671.00,86.00,57.20,37.62,180.00,7.00,0.00,29.75,M,M,M,M,M,M,M,M,M,M,M,M,M,M,M,M,M,M,84.97,KBVU 100335Z AUTO 18007KT 30/14 A2975 RMK AO2 TSNO,M
HTH,2022-09-10 03:35,-118.6315,38.5448,1282.89,80.60,33.80,18.42,310.00,10.00,0.00,29.85,M,10.00,M,CLR,M,M,M,M,M,M,M,M,M,M,M,M,M,M,78.88,KHTH 100335Z AUTO 31010KT 10SM CLR 27/01 A2985 RMK A01,M
CXP,2022-09-10 03:35,-119.7326,39.1923,1431.00,71.60,28.40,19.98,0.00,0.00,0.00,29.92,M,10.00,M,OVC,M,M,M,5500.00,M,M,M,M,M,M,M,M,M,M,71.60,KCXP 100335Z AUTO 00000KT 10SM OVC055 22/M02 A2992 RMK AO2,M
TMT,2022-09-10 03:35,-117.1971,39.4643,1749.34,M,M,M,170.00,4.00,0.00,29.99,M,10.00,M,CLR,M,M,M,M,M,M,M,M,M,M,M,M,M,M,M,KTMT 100335Z AUTO 17004KT 10SM CLR A2999 RMK AO2,M
RTS,2022-09-10 03:35,-119.8764,39.6682,1539.00,71.60,19.40,13.71,0.00,0.00,0.00,29.94,M,10.00,M,OVC,M,M,M,5000.00,M,M,M,M,M,M,M,M,M,M,71.60,KRTS 100335Z AUTO 00000KT 10SM OVC050 22/M07 A2994 RMK AO2,M
05U,2022-09-10 03:35,-116.0051,39.6042,1811.23,60.80,24.80,25.04,140.00,4.00,0.00,30.03,M,10.00,M,M,M,M,M,M,M,M,M,M,M,M,M,M,M,M,60.80,K05U 100335Z AUTO 14004KT 10SM 16/M04 A3003 RMK A01,M
MEV,2022-09-10 03:35,-119.7500,38.9963,1441.42,59.00,39.20,47.72,170.00,3.00,0.00,29.91,M,10.00,M,M,M,M,M,M,M,M,M,M,M,M,M,M,M,M,59.00,KMEV 100335Z AUTO 17003KT 10SM 15/04 A2991 RMK AO2,M
BAM,2022-09-10 03:35,-116.8743,40.5990,1382.36,68.00,12.20,11.34,60.00,7.00,0.00,29.93,M,10.00,M,CLR,M,M,M,M,M,M,M,M,M,M,M,M,M,M,68.00,KBAM 100335Z AUTO 06007KT 10SM CLR 20/M11 A2993 RMK AO1,M
VGT,2022-09-10 03:53,-115.1933,36.2111,667.00,91.00,56.00,30.65,160.00,14.00,0.00,29.73,1005.40,10.00,M,CLR,M,M,M,M,M,M,M,M,M,M,M,M,M,M,89.27,KVGT 100353Z AUTO 16014KT 10SM CLR 33/13 A2973 RMK AO2 SLP054 T03280133,M
DRA,2022-09-10 03:53,-116.0278,36.6206,1009.00,84.00,58.00,41.14,240.00,12.00,0.00,29.79,1003.60,10.00,18.00,CLR,M,M,M,M,M,M,M,M,M,M,M,M,M,M,83.47,KDRA 100353Z AUTO 24012G18KT 10SM CLR 29/14 A2979 RMK AO2 SLP036 T02890144,M
P68,2022-09-10 03:53,-116.0056,39.6014,1993.00,64.00,26.10,23.61,0.00,0.00,0.00,30.01,1008.60,M,M,M,M,M,M,M,M,M,M,M,M,M,M,M,M,M,64.00,KP68 100353Z AUTO 00000KT 18/M03 A3001 RMK AO1 SLP086 T01781033,M
LOL,2022-09-10 03:53,-118.5701,40.0684,1192.43,76.00,16.00,10.25,30.00,11.00,0.00,29.85,1006.90,9.00,M,CLR,M,M,M,M,M,M,M,M,M,M,M,M,M,M,75.90,KLOL 100353Z AUTO 03011KT 9SM CLR 24/M09 A2985 RMK AO2 SLP069 T02441089,M
ELY,2022-09-10 03:53,-114.8453,39.2950,1909.00,64.00,21.90,19.81,0.00,0.00,0.00,30.03,1007.40,10.00,M,FEW,M,M,M,10000.00,M,M,M,M,M,M,M,M,M,M,64.00,KELY 100353Z AUTO 00000KT 10SM FEW100 18/M06 A3003 RMK AO2 SLP074 T01781056,M
RNO,2022-09-10 03:55,-119.7711,39.4839,1341.00,77.00,33.00,20.17,210.00,5.00,0.00,29.89,1006.60,10.00,M,FEW,SCT,OVC,M,6000.00,8000.00,13000.00,M,M,M,M,M,M,M,M,77.00,KRNO 100355Z 21005KT 10SM FEW060 SCT080 OVC130 25/01 A2989 RMK AO2 SLP066 FU FEW060 FU SCT080 FU OVC130 T02500006,M
05U,2022-09-10 03:55,-116.0051,39.6042,1811.23,60.80,24.80,25.04,0.00,0.00,0.00,30.03,M,10.00,M,M,M,M,M,M,M,M,M,M,M,M,M,M,M,M,60.80,K05U 100355Z AUTO 00000KT 10SM 16/M04 A3003 RMK A01,M
MEV,2022-09-10 03:55,-119.7500,38.9963,1441.42,60.80,33.80,36.16,0.00,0.00,0.00,29.92,M,10.00,M,OVC,M,M,M,5000.00,M,M,M,M,M,M,M,M,M,M,60.80,KMEV 100355Z AUTO 00000KT 10SM OVC050 16/01 A2992 RMK AO2,M
CXP,2022-09-10 03:55,-119.7326,39.1923,1431.00,69.80,26.60,19.72,0.00,0.00,0.00,29.93,M,10.00,M,OVC,M,M,M,5000.00,M,M,M,M,M,M,M,M,M,M,69.80,KCXP 100355Z AUTO 00000KT 10SM OVC050 21/M03 A2993 RMK AO2,M
BVU,2022-09-10 03:55,-114.8611,35.9475,671.00,86.00,57.20,37.62,200.00,4.00,0.00,29.76,M,M,M,M,M,M,M,M,M,M,M,M,M,M,M,M,M,M,84.97,KBVU 100355Z AUTO 20004KT 30/14 A2976 RMK AO2 TSNO,M
BAM,2022-09-10 03:55,-116.8743,40.5990,1382.36,68.00,12.20,11.34,60.00,5.00,0.00,29.93,M,10.00,M,CLR,M,M,M,M,M,M,M,M,M,M,M,M,M,M,68.00,KBAM 100355Z AUTO 06005KT 10SM CLR 20/M11 A2993 RMK AO1,M
HTH,2022-09-10 03:55,-118.6315,38.5448,1282.89,80.60,32.00,17.14,310.00,11.00,0.00,29.86,M,10.00,M,CLR,M,M,M,M,M,M,M,M,M,M,M,M,M,M,78.82,KHTH 100355Z AUTO 31011KT 10SM CLR 27/00 A2986 RMK A01,M
RTS,2022-09-10 03:55,-119.8764,39.6682,1539.00,64.40,17.60,16.26,0.00,0.00,0.00,29.95,M,10.00,M,OVC,M,M,M,5000.00,M,M,M,M,M,M,M,M,M,M,64.40,KRTS 100355Z AUTO 00000KT 10SM OVC050 18/M08 A2995 RMK AO2,M
TMT,2022-09-10 03:55,-117.1971,39.4643,1749.34,M,M,M,0.00,0.00,0.00,30.00,M,10.00,M,CLR,M,M,M,M,M,M,M,M,M,M,M,M,M,M,M,KTMT 100355Z AUTO 00000KT 10SM CLR A3000 RMK AO2,M
LSV,2022-09-10 03:56,-115.0343,36.2362,570.00,90.30,57.20,32.83,160.00,11.00,0.00,29.72,1003.60,10.00,M,CLR,M,M,M,M,M,M,M,M,M,M,M,M,M,M,88.96,KLSV 100356Z AUTO 16011KT 10SM CLR 32/14 A2972 RMK AO2 SLP036 T03240140 $,M
EKO,2022-09-10 03:56,-115.7860,40.8242,1367.00,70.00,9.00,9.18,80.00,8.00,0.00,29.98,1010.40,10.00,M,CLR,M,M,M,M,M,M,M,M,M,M,M,M,M,M,70.00,KEKO 100356Z AUTO 08008KT 10SM CLR 21/M13 A2998 RMK AO2 SLP104 T02111128,M
WMC,2022-09-10 03:56,-117.8072,40.9019,1315.00,73.00,9.00,8.29,40.00,13.00,0.00,29.92,1008.70,10.00,M,CLR,M,M,M,M,M,M,M,M,M,M,M,M,M,M,73.00,KWMC 100356Z AUTO 04013KT 10SM CLR 23/M13 A2992 RMK AO2 SLP087 T02281128,M
NFL,2022-09-10 03:56,-118.7010,39.4166,1199.00,72.00,28.90,20.12,350.00,6.00,0.00,29.84,1008.10,10.00,M,BKN,M,M,M,8000.00,M,M,M,M,M,M,M,M,M,M,72.00,KNFL 100356Z 35006KT 10SM BKN080 22/M02 A2984 RMK AO2 SLP081 FU BKN080 T02221017,M
LAS,2022-09-10 03:56,-115.1634,36.0719,663.00,89.00,57.00,33.85,190.00,9.00,0.00,29.75,1004.20,10.00,16.00,FEW,FEW,SCT,OVC,12000.00,15000.00,18000.00,20000.00,M,M,M,M,M,M,M,87.74,KLAS 100356Z 19009G16KT 10SM FEW120 FEW150 SCT180 OVC200 32/14 A2975 RMK AO2 SLP042 T03170139,M
INS,2022-09-10 03:56,-115.6733,36.5872,955.00,84.60,53.80,34.78,110.00,12.00,0.00,29.78,1003.40,10.00,M,CLR,M,M,M,M,M,M,M,M,M,M,M,M,M,M,83.10,KINS 100356Z AUTO 11012KT 10SM CLR 29/12 A2978 RMK AO2 SLP034 T02920121 $,M
TPH,2022-09-10 03:56,-117.0904,38.0505,1654.00,81.00,47.00,30.24,170.00,12.00,0.00,29.95,1005.00,10.00,M,FEW,M,M,M,11000.00,M,M,M,M,M,M,M,M,M,M,79.83,KTPH 100356Z AUTO 17012KT 10SM FEW110 27/08 A2995 RMK AO2 WSHFT 0330 SLP050 T02720083,M
05U,2022-09-10 04:15,-116.0051,39.6042,1811.23,57.20,23.00,26.42,0.00,0.00,0.00,30.04,M,10.00,M,M,M,M,M,M,M,M,M,M,M,M,M,M,M,M,57.20,K05U 100415Z AUTO 00000KT 10SM 14/M05 A3004 RMK A01,M
MEV,2022-09-10 04:15,-119.7500,38.9963,1441.42,60.80,33.80,36.16,100.00,6.00,0.00,29.92,M,10.00,M,M,M,M,M,M,M,M,M,M,M,M,M,M,M,M,60.80,KMEV 100415Z AUTO 10006KT 10SM 16/01 A2992 RMK AO2,M
BAM,2022-09-10 04:15,-116.8743,40.5990,1382.36,68.00,12.20,11.34,80.00,6.00,0.00,29.95,M,10.00,M,CLR,M,M,M,M,M,M,M,M,M,M,M,M,M,M,68.00,KBAM 100415Z AUTO 08006KT 10SM CLR 20/M11 A2995 RMK AO1,M
RTS,2022-09-10 04:15,-119.8764,39.6682,1539.00,62.60,17.60,17.32,330.00,3.00,0.00,29.96,M,10.00,M,OVC,M,M,M,5000.00,M,M,M,M,M,M,M,M,M,M,62.60,KRTS 100415Z AUTO 33003KT 10SM OVC050 17/M08 A2996 RMK AO2,M
CXP,2022-09-10 04:15,-119.7326,39.1923,1431.00,68.00,28.40,22.59,0.00,0.00,0.00,29.94,M,10.00,M,OVC,M,M,M,5000.00,M,M,M,M,M,M,M,M,M,M,68.00,KCXP 100415Z AUTO 00000KT 10SM OVC050 20/M02 A2994 RMK AO2,M
BVU,2022-09-10 04:15,-114.8611,35.9475,671.00,86.00,57.20,37.62,190.00,5.00,0.00,29.77,M,M,M,M,M,M,M,M,M,M,M,M,M,M,M,M,M,M,84.97,KBVU 100415Z AUTO 19005KT 30/14 A2977 RMK AO2 TSNO,M
HTH,2022-09-10 04:15,-118.6315,38.5448,1282.89,78.80,32.00,18.18,310.00,10.00,0.00,29.87,M,10.00,M,CLR,M,M,M,M,M,M,M,M,M,M,M,M,M,M,78.80,KHTH 100415Z AUTO 31010KT 10SM CLR 26/M00 A2987 RMK A01,M
TMT,2022-09-10 04:15,-117.1971,39.4643,1749.34,M,M,M,0.00,0.00,0.00,30.01,M,10.00,M,CLR,M,M,M,M,M,M,M,M,M,M,M,M,M,M,M,KTMT 100415Z AUTO 00000KT 10SM CLR A3001 RMK AO2,M
BAM,2022-09-10 04:35,-116.8743,40.5990,1382.36,68.00,12.20,11.34,0.00,0.00,0.00,29.95,M,10.00,M,CLR,M,M,M,M,M,M,M,M,M,M,M,M,M,M,68.00,KBAM 100435Z AUTO 00000KT 10SM CLR 20/M11 A2995 RMK AO1,M
BVU,2022-09-10 04:35,-114.8611,35.9475,671.00,86.00,57.20,37.62,210.00,6.00,0.00,29.77,M,M,M,M,M,M,M,M,M,M,M,M,M,M,M,M,M,M,84.97,KBVU 100435Z AUTO 21006KT 30/14 A2977 RMK AO2 TSNO,M
CXP,2022-09-10 04:35,-119.7326,39.1923,1431.00,68.00,28.40,22.59,0.00,0.00,0.00,29.94,M,10.00,M,OVC,M,M,M,5000.00,M,M,M,M,M,M,M,M,M,M,68.00,KCXP 100435Z AUTO 00000KT 10SM OVC050 20/M02 A2994 RMK AO2,M
RTS,2022-09-10 04:35,-119.8764,39.6682,1539.00,60.80,15.80,17.07,350.00,4.00,0.00,29.96,M,10.00,M,OVC,M,M,M,5000.00,M,M,M,M,M,M,M,M,M,M,60.80,KRTS 100435Z AUTO 35004KT 10SM OVC050 16/M09 A2996 RMK AO2,M
05U,2022-09-10 04:35,-116.0051,39.6042,1811.23,55.40,23.00,28.20,210.00,6.00,0.00,30.04,M,9.00,M,M,M,M,M,M,M,M,M,M,M,M,M,M,M,M,55.40,K05U 100435Z AUTO 21006KT 9SM 13/M05 A3004 RMK A01,M
MEV,2022-09-10 04:35,-119.7500,38.9963,1441.42,59.00,28.40,30.98,110.00,7.00,0.00,29.93,M,10.00,M,M,M,M,M,M,M,M,M,M,M,M,M,M,M,M,59.00,KMEV 100435Z AUTO 11007KT 10SM 15/M02 A2993 RMK AO2,M
HTH,2022-09-10 04:35,-118.6315,38.5448,1282.89,78.80,33.80,19.55,300.00,8.00,0.00,29.88,M,10.00,M,CLR,M,M,M,M,M,M,M,M,M,M,M,M,M,M,78.80,KHTH 100435Z AUTO 30008KT 10SM CLR 26/01 A2988 RMK A01,M
TMT,2022-09-10 04:35,-117.1971,39.4643,1749.34,58.00,25.70,28.83,20.00,9.00,0.00,30.01,M,10.00,M,CLR,M,M,M,M,M,M,M,M,M,M,M,M,M,M,57.90,KTMT 100435Z AUTO 02009KT 10SM CLR 14/M03 A3001 RMK AO2 T01441035,M
LOL,2022-09-10 04:53,-118.5701,40.0684,1192.43,75.00,15.10,10.15,40.00,11.00,0.00,29.87,1007.20,8.00,M,CLR,M,M,M,M,M,M,M,M,M,M,M,M,M,M,75.00,KLOL 100453Z AUTO 04011KT 8SM CLR 24/M09 A2987 RMK AO2 SLP072 T02391094,M
DRA,2022-09-10 04:53,-116.0278,36.6206,1009.00,83.00,59.00,44.34,240.00,11.00,0.00,29.81,1003.90,10.00,17.00,CLR,M,M,M,M,M,M,M,M,M,M,M,M,M,M,82.86,KDRA 100453Z AUTO 24011G17KT 10SM CLR 28/15 A2981 RMK AO2 SLP039 T02830150,M
P68,2022-09-10 04:53,-116.0056,39.6014,1993.00,53.00,28.90,39.16,0.00,0.00,0.00,30.03,1009.90,M,M,M,M,M,M,M,M,M,M,M,M,M,M,M,M,M,53.10,KP68 100453Z AUTO 00000KT 12/M02 A3003 RMK AO1 SLP099 T01171017,M
ELY,2022-09-10 04:53,-114.8453,39.2950,1909.00,63.00,16.00,15.93,110.00,4.00,0.00,30.06,1008.00,10.00,M,CLR,M,M,M,M,M,M,M,M,M,M,M,M,M,M,63.00,KELY 100453Z AUTO 11004KT 10SM CLR 17/M09 A3006 RMK AO2 SLP080 T01721089,M
VGT,2022-09-10 04:53,-115.1933,36.2111,667.00,91.00,57.00,31.89,160.00,7.00,0.00,29.75,1005.90,10.00,M,CLR,M,M,M,M,M,M,M,M,M,M,M,M,M,M,89.59,KVGT 100453Z AUTO 16007KT 10SM CLR 33/14 A2975 RMK AO2 SLP059 T03280139,M
RTS,2022-09-10 04:55,-119.8764,39.6682,1539.00,62.60,17.60,17.32,0.00,0.00,0.00,29.96,M,10.00,M,OVC,M,M,M,5000.00,M,M,M,M,M,M,M,M,M,M,62.60,KRTS 100455Z AUTO 00000KT 10SM OVC050 17/M08 A2996 RMK AO2,M
BVU,2022-09-10 04:55,-114.8611,35.9475,671.00,86.00,59.00,40.14,0.00,0.00,0.00,29.78,M,M,M,M,M,M,M,M,M,M,M,M,M,M,M,M,M,M,85.47,KBVU 100455Z AUTO 00000KT 30/15 A2978 RMK AO2 TSNO,M
CXP,2022-09-10 04:55,-119.7326,39.1923,1431.00,68.00,28.40,22.59,0.00,0.00,0.00,29.94,M,10.00,M,OVC,M,M,M,5000.00,M,M,M,M,M,M,M,M,M,M,68.00,KCXP 100455Z AUTO 00000KT 10SM OVC050 20/M02 A2994 RMK AO2,M
RNO,2022-09-10 04:55,-119.7711,39.4839,1341.00,75.00,34.00,22.35,260.00,3.00,0.00,29.90,1007.00,10.00,M,FEW,SCT,OVC,M,6000.00,8000.00,13000.00,M,M,M,M,M,M,M,M,75.00,KRNO 100455Z 26003KT 10SM FEW060 SCT080 OVC130 24/01 A2990 RMK AO2 SLP070 FU FEW060 FU SCT080 FU OVC130 T02390011,M
05U,2022-09-10 04:55,-116.0051,39.6042,1811.23,51.80,28.40,40.25,M,M,0.00,30.05,M,9.00,M,M,M,M,M,M,M,M,M,M,M,M,M,M,M,M,51.80,K05U 100455Z AUTO 9SM 11/M02 A3005 RMK A01,M
MEV,2022-09-10 04:55,-119.7500,38.9963,1441.42,59.00,33.80,38.56,100.00,7.00,0.00,29.94,M,10.00,M,M,M,M,M,M,M,M,M,M,M,M,M,M,M,M,59.00,KMEV 100455Z AUTO 10007KT 10SM 15/01 A2994 RMK AO2,M
BAM,2022-09-10 04:55,-116.8743,40.5990,1382.36,68.00,12.20,11.34,340.00,5.00,0.00,29.96,M,10.00,M,CLR,M,M,M,M,M,M,M,M,M,M,M,M,M,M,68.00,KBAM 100455Z AUTO 34005KT 10SM CLR 20/M11 A2996 RMK AO1,M
HTH,2022-09-10 04:55,-118.6315,38.5448,1282.89,M,M,M,310.00,7.00,0.00,29.88,M,10.00,M,M,M,M,M,M,M,M,M,M,M,M,M,M,M,M,M,KHTH 100455Z AUTO 31007KT 10SM A2988 RMK A01,M
TMT,2022-09-10 04:55,-117.1971,39.4643,1749.34,65.30,25.30,21.83,20.00,7.00,0.00,30.02,M,10.00,M,CLR,M,M,M,M,M,M,M,M,M,M,M,M,M,M,65.30,KTMT 100455Z AUTO 02007KT 10SM CLR 19/M04 A3002 RMK AO2 T01851037,M
EKO,2022-09-10 04:56,-115.7860,40.8242,1367.00,66.00,8.10,10.12,80.00,9.00,0.00,30.00,1010.80,10.00,16.00,CLR,M,M,M,M,M,M,M,M,M,M,M,M,M,M,66.00,KEKO 100456Z AUTO 08009G16KT 10SM CLR 19/M13 A3000 RMK AO2 SLP108 T01891133,M
LAS,2022-09-10 04:56,-115.1634,36.0719,663.00,88.00,58.00,36.21,190.00,7.00,0.00,29.76,1004.60,10.00,M,SCT,SCT,OVC,M,12000.00,15000.00,20000.00,M,M,M,M,M,M,M,M,86.96,KLAS 100456Z 19007KT 10SM SCT120TCU SCT150 OVC200 31/14 A2976 RMK AO2 SLP046 TCU E-S T03110144,M
NFL,2022-09-10 04:56,-118.7010,39.4166,1199.00,68.00,26.10,20.55,350.00,4.00,0.00,29.86,1008.70,10.00,M,SCT,M,M,M,8000.00,M,M,M,M,M,M,M,M,M,M,68.00,KNFL 100456Z 35004KT 10SM SCT080 20/M03 A2986 RMK AO2 SLP087 FU SCT080 T02001033,M
WMC,2022-09-10 04:56,-117.8072,40.9019,1315.00,70.00,9.00,9.18,50.00,12.00,0.00,29.94,1009.30,10.00,21.00,CLR,M,M,M,M,M,M,M,M,M,M,M,M,M,M,70.00,KWMC 100456Z AUTO 05012G21KT 10SM CLR 21/M13 A2994 RMK AO2 SLP093 T02111128,M
INS,2022-09-10 04:56,-115.6733,36.5872,955.00,83.50,53.60,35.77,110.00,11.00,0.00,29.79,1003.40,10.00,M,CLR,M,M,M,M,M,M,M,M,M,M,M,M,M,M,82.23,KINS 100456Z AUTO 11011KT 10SM CLR 29/12 A2979 RMK AO2 SLP034 T02860120 $,M
LSV,2022-09-10 04:56,-115.0343,36.2362,570.00,89.80,58.50,34.95,180.00,9.00,0.00,29.73,1004.00,10.00,M,CLR,M,M,M,M,M,M,M,M,M,M,M,M,M,M,88.89,KLSV 100456Z AUTO 18009KT 10SM CLR 32/15 A2973 RMK AO2 SLP040 T03210147 $,M
TPH,2022-09-10 04:56,-117.0904,38.0505,1654.00,78.00,49.00,35.86,190.00,11.00,0.00,29.96,1005.10,10.00,M,CLR,M,M,M,M,M,M,M,M,M,M,M,M,M,M,78.10,KTPH 100456Z AUTO 19011KT 10SM CLR 26/09 A2996 RMK AO2 SLP051 T02560094,M
HTH,2022-09-10 05:15,-118.6315,38.5448,1282.89,77.00,35.60,22.28,300.00,6.00,0.00,29.88,M,10.00,M,M,M,M,M,M,M,M,M,M,M,M,M,M,M,M,77.00,KHTH 100515Z AUTO 30006KT 10SM 25/02 A2988 RMK A01,M
BVU,2022-09-10 05:15,-114.8611,35.9475,671.00,86.00,59.00,40.14,170.00,5.00,0.00,29.78,M,M,M,M,M,M,M,M,M,M,M,M,M,M,M,M,M,M,85.47,KBVU 100515Z AUTO 17005KT 30/15 A2978 RMK AO2 TSNO,M
CXP,2022-09-10 05:15,-119.7326,39.1923,1431.00,66.20,28.40,24.04,70.00,3.00,0.00,29.95,M,10.00,M,OVC,M,M,M,5000.00,M,M,M,M,M,M,M,M,M,M,66.20,KCXP 100515Z AUTO 07003KT 10SM OVC050 19/M02 A2995 RMK AO2,M
RTS,2022-09-10 05:15,-119.8764,39.6682,1539.00,62.60,17.60,17.32,0.00,0.00,0.00,29.97,M,10.00,M,OVC,M,M,M,5000.00,M,M,M,M,M,M,M,M,M,M,62.60,KRTS 100515Z AUTO 00000KT 10SM OVC050 17/M08 A2997 RMK AO2,M
05U,2022-09-10 05:15,-116.0051,39.6042,1811.23,55.40,23.00,28.20,0.00,0.00,0.00,30.05,M,10.00,M,M,M,M,M,M,M,M,M,M,M,M,M,M,M,M,55.40,K05U 100515Z AUTO 00000KT 10SM 13/M05 A3005 RMK A01,M
MEV,2022-09-10 05:15,-119.7500,38.9963,1441.42,57.20,28.40,33.05,110.00,4.00,0.00,29.94,M,10.00,M,M,M,M,M,M,M,M,M,M,M,M,M,M,M,M,57.20,KMEV 100515Z AUTO 11004KT 10SM 14/M02 A2994 RMK AO2,M
BAM,2022-09-10 05:15,-116.8743,40.5990,1382.36,68.00,12.20,11.34,350.00,5.00,0.00,29.97,M,10.00,M,CLR,M,M,M,M,M,M,M,M,M,M,M,M,M,M,68.00,KBAM 100515Z AUTO 35005KT 10SM CLR 20/M11 A2997 RMK AO1,M
TMT,2022-09-10 05:15,-117.1971,39.4643,1749.34,M,M,M,360.00,5.00,0.00,30.02,M,10.00,M,CLR,M,M,M,M,M,M,M,M,M,M,M,M,M,M,M,KTMT 100515Z AUTO 36005KT 10SM CLR A3002 RMK AO2,M
TMT,2022-09-10 05:35,-117.1971,39.4643,1749.34,M,M,M,170.00,3.00,0.00,30.02,M,10.00,M,CLR,M,M,M,M,M,M,M,M,M,M,M,M,M,M,M,KTMT 100535Z AUTO 17003KT 10SM CLR A3002 RMK AO2,M
BVU,2022-09-10 05:35,-114.8611,35.9475,671.00,86.00,59.00,40.14,170.00,6.00,0.00,29.79,M,M,M,M,M,M,M,M,M,M,M,M,M,M,M,M,M,M,85.47,KBVU 100535Z AUTO 17006KT 30/15 A2979 RMK AO2 TSNO,M
CXP,2022-09-10 05:35,-119.7326,39.1923,1431.00,62.60,28.40,27.27,0.00,0.00,0.00,29.96,M,10.00,M,OVC,M,M,M,5000.00,M,M,M,M,M,M,M,M,M,M,62.60,KCXP 100535Z AUTO 00000KT 10SM OVC050 17/M02 A2996 RMK AO2,M
RTS,2022-09-10 05:35,-119.8764,39.6682,1539.00,59.00,17.60,19.68,0.00,0.00,0.00,29.97,M,10.00,M,OVC,M,M,M,5000.00,M,M,M,M,M,M,M,M,M,M,59.00,KRTS 100535Z AUTO 00000KT 10SM OVC050 15/M08 A2997 RMK AO2,M
05U,2022-09-10 05:35,-116.0051,39.6042,1811.23,51.80,23.00,32.17,0.00,0.00,0.00,30.06,M,10.00,M,M,M,M,M,M,M,M,M,M,M,M,M,M,M,M,51.80,K05U 100535Z AUTO 00000KT 10SM 11/M05 A3006 RMK A01,M
MEV,2022-09-10 05:35,-119.7500,38.9963,1441.42,59.00,32.00,35.87,0.00,0.00,0.00,29.94,M,10.00,M,M,M,M,M,M,M,M,M,M,M,M,M,M,M,M,59.00,KMEV 100535Z AUTO 00000KT 10SM 15/M00 A2994 RMK AO2,M
BAM,2022-09-10 05:35,-116.8743,40.5990,1382.36,68.00,12.20,11.34,360.00,4.00,0.00,29.97,M,10.00,M,CLR,M,M,M,M,M,M,M,M,M,M,M,M,M,M,68.00,KBAM 100535Z AUTO 36004KT 10SM CLR 20/M11 A2997 RMK AO1,M
HTH,2022-09-10 05:35,-118.6315,38.5448,1282.89,77.00,35.60,22.28,240.00,6.00,0.00,29.89,M,10.00,M,SCT,M,M,M,8000.00,M,M,M,M,M,M,M,M,M,M,77.00,KHTH 100535Z AUTO 24006KT 10SM SCT080 25/02 A2989 RMK A01,M
LOL,2022-09-10 05:53,-118.5701,40.0684,1192.43,71.00,14.00,11.04,330.00,6.00,0.00,29.88,1007.80,8.00,M,CLR,M,M,M,M,M,M,M,M,M,M,M,M,M,M,71.10,KLOL 100553Z AUTO 33006KT 8SM CLR 22/M10 A2988 RMK AO2 SLP078 T02171100 10328 20178 51018,M
P68,2022-09-10 05:53,-116.0056,39.6014,1993.00,54.00,21.90,28.33,180.00,4.00,0.00,30.04,1009.90,M,M,M,M,M,M,M,M,M,M,M,M,M,M,M,M,M,54.00,KP68 100553Z AUTO 18004KT 12/M06 A3004 RMK AO1 SLP099 T01221056 10289 20100 51016,M
ELY,2022-09-10 05:53,-114.8453,39.2950,1909.00,62.00,12.90,14.36,20.00,14.00,0.00,30.07,1008.20,10.00,M,CLR,M,M,M,M,M,M,M,M,M,M,M,M,M,M,62.10,KELY 100553Z AUTO 02014KT 10SM CLR 17/M11 A3007 RMK AO2 SLP082 T01671106 10300 20150 51020,M
VGT,2022-09-10 05:53,-115.1933,36.2111,667.00,89.00,59.00,36.37,170.00,11.00,0.00,29.77,1006.40,10.00,M,CLR,M,M,M,M,M,M,M,M,M,M,M,M,M,M,88.37,KVGT 100553Z AUTO 17011KT 10SM CLR 32/15 A2977 RMK AO2 SLP064 T03170150 10356 20317 51021,M
DRA,2022-09-10 05:53,-116.0278,36.6206,1009.00,83.00,58.00,42.63,210.00,8.00,0.00,29.82,1004.00,10.00,M,CLR,M,M,M,M,M,M,M,M,M,M,M,M,M,M,82.60,KDRA 100553Z AUTO 21008KT 10SM CLR 28/14 A2982 RMK AO2 SLP040 T02830144 10333 20283 51016,M
BVU,2022-09-10 05:55,-114.8611,35.9475,671.00,86.00,59.00,40.14,190.00,6.00,0.00,29.79,M,M,M,M,M,M,M,M,M,M,M,M,M,M,M,M,M,M,85.47,KBVU 100555Z AUTO 19006KT 30/15 A2979 RMK AO2 TSNO,M
CXP,2022-09-10 05:55,-119.7326,39.1923,1431.00,64.40,28.40,25.60,320.00,5.00,0.00,29.96,M,10.00,M,OVC,M,M,M,5000.00,M,M,M,M,M,M,M,M,M,M,64.40,KCXP 100555Z AUTO 32005KT 10SM OVC050 18/M02 A2996 RMK AO2,M
RNO,2022-09-10 05:55,-119.7711,39.4839,1341.00,72.00,32.00,22.82,0.00,0.00,0.00,29.92,1007.10,10.00,M,FEW,SCT,OVC,M,6000.00,7000.00,12000.00,M,M,M,M,M,M,M,M,72.00,KRNO 100555Z 00000KT 10SM FEW060 SCT070 OVC120 22/00 A2992 RMK AO2 SLP071 FU FEW060 FU SCT070 FU OVC120 T02220000 10317 20222 51017,M
RTS,2022-09-10 05:55,-119.8764,39.6682,1539.00,60.80,17.60,18.46,340.00,5.00,0.00,29.98,M,10.00,M,OVC,M,M,M,5000.00,M,M,M,M,M,M,M,M,M,M,60.80,KRTS 100555Z AUTO 34005KT 10SM OVC050 16/M08 A2998 RMK AO2,M
05U,2022-09-10 05:55,-116.0051,39.6042,1811.23,53.60,21.20,27.91,180.00,3.00,0.00,30.06,M,10.00,M,M,M,M,M,M,M,M,M,M,M,M,M,M,M,M,53.60,K05U 100555Z AUTO 18003KT 10SM 12/M06 A3006 RMK A01,M
MEV,2022-09-10 05:55,-119.7500,38.9963,1441.42,57.20,33.80,41.13,0.00,0.00,0.00,29.94,M,10.00,M,M,M,M,M,M,M,M,M,M,M,M,M,M,M,M,57.20,KMEV 100555Z AUTO 00000KT 10SM 14/01 A2994 RMK AO2,M
BAM,2022-09-10 05:55,-116.8743,40.5990,1382.36,66.20,12.20,12.06,350.00,5.00,0.00,29.98,M,10.00,M,CLR,M,M,M,M,M,M,M,M,M,M,M,M,M,M,66.20,KBAM 100555Z AUTO 35005KT 10SM CLR 19/M11 A2998 RMK AO1,M
HTH,2022-09-10 05:55,-118.6315,38.5448,1282.89,77.00,32.00,19.30,240.00,5.00,0.00,29.90,M,10.00,M,SCT,M,M,M,8000.00,M,M,M,M,M,M,M,M,M,M,77.00,KHTH 100555Z AUTO 24005KT 10SM SCT080 25/00 A2990 RMK A01,M
TMT,2022-09-10 05:55,-117.1971,39.4643,1749.34,52.70,23.90,32.32,230.00,4.00,0.00,30.03,M,10.00,M,CLR,M,M,M,M,M,M,M,M,M,M,M,M,M,M,52.70,KTMT 100555Z AUTO 23004KT 10SM CLR 12/M04 A3003 RMK AO2 T01151045,M
WMC,2022-09-10 05:56,-117.8072,40.9019,1315.00,68.00,9.00,9.83,50.00,16.00,0.00,29.95,1009.50,9.00,25.00,CLR,M,M,M,M,M,M,M,M,M,M,M,26.00,50.00,2022-09-10 05:43,68.00,KWMC 100556Z AUTO 05016G25KT 9SM CLR 20/M13 A2995 RMK AO2 PK WND 05026/0543 SLP095 T02001128 10300 20200 51019,M
TPH,2022-09-10 05:56,-117.0904,38.0505,1654.00,76.00,52.00,43.28,180.00,7.00,0.00,29.97,1005.40,10.00,M,CLR,M,M,M,M,M,M,M,M,M,M,M,M,M,M,75.90,KTPH 100556Z AUTO 18007KT 10SM CLR 24/11 A2997 RMK AO2 SLP054 T02440111 10322 20244 51020,M
NFL,2022-09-10 05:56,-118.7010,39.4166,1199.00,67.00,24.10,19.64,330.00,7.00,0.00,29.86,1008.90,10.00,M,SCT,M,M,M,8000.00,M,M,M,M,M,M,M,M,M,M,66.90,KNFL 100556Z 33007KT 10SM SCT080 19/M04 A2986 RMK AO2 SLP089 FU SCT080 T01941044 10322 20189 51015,M
EKO,2022-09-10 05:56,-115.7860,40.8242,1367.00,64.00,7.00,10.32,50.00,9.00,0.00,30.02,1011.40,10.00,M,CLR,M,M,M,M,M,M,M,M,M,M,M,M,M,M,64.00,KEKO 100556Z AUTO 05009KT 10SM CLR 18/M14 A3002 RMK AO2 SLP114 T01781139 10306 20172 51024,M
INS,2022-09-10 05:56,-115.6733,36.5872,955.00,83.30,52.70,34.83,170.00,6.00,0.00,29.80,1003.60,10.00,M,CLR,M,M,M,M,M,M,M,M,M,M,M,M,M,M,81.95,KINS 100556Z AUTO 17006KT 10SM CLR 29/12 A2980 RMK AO2 SLP036 T02850115 10334 20283 52016 $,M
LSV,2022-09-10 05:56,-115.0343,36.2362,570.00,88.20,59.40,37.96,170.00,7.00,0.00,29.75,1004.60,10.00,M,FEW,M,M,M,19000.00,M,M,M,M,M,M,M,M,M,M,87.63,KLSV 100556Z AUTO 17007KT 10SM FEW190 31/15 A2975 RMK AO2 SLP046 T03120152 10358 20312 52022 $,M
LAS,2022-09-10 05:56,-115.1634,36.0719,663.00,87.00,60.00,40.31,M,M,0.00,29.78,1005.40,10.00,M,SCT,BKN,OVC,M,12000.00,15000.00,20000.00,M,M,M,M,M,M,M,M,86.83,KLAS 100556Z 10SM SCT120 BKN150 OVC200 31/16 A2978 RMK AO2 SLP054 T03060156 10339 20306 51021,M
LAS,2022-09-10 06:06,-115.1634,36.0719,663.00,87.00,60.00,40.31,190.00,6.00,0.00,29.79,M,10.00,M,SCT,BKN,OVC,M,12000.00,15000.00,20000.00,M,M,M,M,M,M,M,M,86.83,KLAS 100606Z 19006KT 10SM SCT120 BKN150 OVC200 31/16 A2979 RMK AO2 T03060156,M
TMT,2022-09-10 06:15,-117.1971,39.4643,1749.34,50.40,24.80,36.53,140.00,5.00,0.00,30.03,M,10.00,M,CLR,M,M,M,M,M,M,M,M,M,M,M,M,M,M,50.40,KTMT 100615Z AUTO 14005KT 10SM CLR 10/M04 A3003 RMK AO2 T01021040,M
BVU,2022-09-10 06:15,-114.8611,35.9475,671.00,84.20,59.00,42.52,180.00,7.00,0.00,29.80,M,M,M,M,M,M,M,M,M,M,M,M,M,M,M,M,M,M,83.92,KBVU 100615Z AUTO 18007KT 29/15 A2980 RMK AO2 TSNO,M
CXP,2022-09-10 06:15,-119.7326,39.1923,1431.00,66.20,24.80,20.72,340.00,3.00,0.00,29.96,M,10.00,M,OVC,M,M,M,5000.00,M,M,M,M,M,M,M,M,M,M,66.20,KCXP 100615Z AUTO 34003KT 10SM OVC050 19/M04 A2996 RMK AO2,M
RTS,2022-09-10 06:15,-119.8764,39.6682,1539.00,59.00,17.60,19.68,0.00,0.00,0.00,29.98,M,10.00,M,OVC,M,M,M,5000.00,M,M,M,M,M,M,M,M,M,M,59.00,KRTS 100615Z AUTO 00000KT 10SM OVC050 15/M08 A2998 RMK AO2,M
05U,2022-09-10 06:15,-116.0051,39.6042,1811.23,53.60,21.20,27.91,0.00,0.00,0.00,30.06,M,10.00,M,M,M,M,M,M,M,M,M,M,M,M,M,M,M,M,53.60,K05U 100615Z AUTO 00000KT 10SM 12/M06 A3006 RMK A01,M
MEV,2022-09-10 06:15,-119.7500,38.9963,1441.42,59.00,33.80,38.56,0.00,0.00,0.00,29.95,M,10.00,M,OVC,M,M,M,4600.00,M,M,M,M,M,M,M,M,M,M,59.00,KMEV 100615Z AUTO 00000KT 10SM OVC046 15/01 A2995 RMK AO2,M
BAM,2022-09-10 06:15,-116.8743,40.5990,1382.36,64.40,12.20,12.84,340.00,7.00,0.00,29.99,M,10.00,M,CLR,M,M,M,M,M,M,M,M,M,M,M,M,M,M,64.40,KBAM 100615Z AUTO 34007KT 10SM CLR 18/M11 A2999 RMK AO1,M
HTH,2022-09-10 06:15,-118.6315,38.5448,1282.89,75.20,30.20,19.05,230.00,7.00,0.00,29.90,M,10.00,M,CLR,M,M,M,M,M,M,M,M,M,M,M,M,M,M,75.20,KHTH 100615Z AUTO 23007KT 10SM CLR 24/M01 A2990 RMK A01,M
RTS,2022-09-10 06:35,-119.8764,39.6682,1539.00,57.20,17.60,20.99,350.00,3.00,0.00,29.98,M,10.00,M,OVC,M,M,M,5000.00,M,M,M,M,M,M,M,M,M,M,57.20,KRTS 100635Z AUTO 35003KT 10SM OVC050 14/M08 A2998 RMK AO2,M
TMT,2022-09-10 06:35,-117.1971,39.4643,1749.34,M,M,M,0.00,0.00,0.00,30.04,M,10.00,M,CLR,M,M,M,M,M,M,M,M,M,M,M,M,M,M,M,KTMT 100635Z AUTO 00000KT 10SM CLR A3004 RMK AO2,M
HTH,2022-09-10 06:35,-118.6315,38.5448,1282.89,75.20,28.40,17.70,250.00,4.00,0.00,29.91,M,10.00,M,CLR,M,M,M,M,M,M,M,M,M,M,M,M,M,M,75.20,KHTH 100635Z AUTO 25004KT 10SM CLR 24/M02 A2991 RMK A01,M
CXP,2022-09-10 06:35,-119.7326,39.1923,1431.00,64.40,24.80,22.06,0.00,0.00,0.00,29.97,M,10.00,M,OVC,M,M,M,5000.00,M,M,M,M,M,M,M,M,M,M,64.40,KCXP 100635Z AUTO 00000KT 10SM OVC050 18/M04 A2997 RMK AO2,M
BAM,2022-09-10 06:35,-116.8743,40.5990,1382.36,64.40,12.20,12.84,360.00,6.00,0.00,29.99,M,10.00,M,CLR,M,M,M,M,M,M,M,M,M,M,M,M,M,M,64.40,KBAM 100635Z AUTO 36006KT 10SM CLR 18/M11 A2999 RMK AO1,M
BVU,2022-09-10 06:35,-114.8611,35.9475,671.00,84.20,62.60,48.32,150.00,14.00,0.00,29.80,M,M,19.00,M,M,M,M,M,M,M,M,M,M,M,M,M,M,M,85.03,KBVU 100635Z AUTO 15014G19KT 29/17 A2980 RMK AO2 TSNO,M
MEV,2022-09-10 06:35,-119.7500,38.9963,1441.42,55.40,33.80,43.90,0.00,0.00,0.00,29.95,M,10.00,M,OVC,M,M,M,4600.00,M,M,M,M,M,M,M,M,M,M,55.40,KMEV 100635Z AUTO 00000KT 10SM OVC046 13/01 A2995 RMK AO2,M
05U,2022-09-10 06:35,-116.0051,39.6042,1811.23,50.00,21.20,31.87,0.00,0.00,0.00,30.07,M,10.00,M,M,M,M,M,M,M,M,M,M,M,M,M,M,M,M,50.00,K05U 100635Z AUTO 00000KT 10SM 10/M06 A3007 RMK A01,M
VGT,2022-09-10 06:53,-115.1933,36.2111,667.00,88.00,59.00,37.66,160.00,10.00,0.00,29.78,1006.80,10.00,M,CLR,M,M,M,M,M,M,M,M,M,M,M,M,M,M,87.31,KVGT 100653Z AUTO 16010KT 10SM CLR 31/15 A2978 RMK AO2 SLP068 T03110150,M
LOL,2022-09-10 06:53,-118.5701,40.0684,1192.43,71.00,10.00,9.25,30.00,15.00,0.00,29.89,1008.00,9.00,M,CLR,M,M,M,M,M,M,M,M,M,M,M,M,M,M,71.10,KLOL 100653Z AUTO 03015KT 9SM CLR 22/M12 A2989 RMK AO2 SLP080 T02171122,M
ELY,2022-09-10 06:53,-114.8453,39.2950,1909.00,58.00,10.90,15.27,110.00,6.00,0.00,30.11,1009.20,10.00,M,CLR,M,M,M,M,M,M,M,M,M,M,M,M,M,M,57.90,KELY 100653Z AUTO 11006KT 10SM CLR 14/M12 A3011 RMK AO2 SLP092 T01441117 403110067,M
DRA,2022-09-10 06:53,-116.0278,36.6206,1009.00,81.00,57.00,43.90,240.00,9.00,0.00,29.84,1004.70,10.00,M,CLR,M,M,M,M,M,M,M,M,M,M,M,M,M,M,81.05,KDRA 100653Z AUTO 24009KT 10SM CLR 27/14 A2984 RMK AO2 SLP047 T02720139,M
P68,2022-09-10 06:53,-116.0056,39.6014,1993.00,50.00,21.00,31.60,0.00,0.00,0.00,30.06,1010.60,M,M,M,M,M,M,M,M,M,M,M,M,M,M,M,M,M,50.00,KP68 100653Z AUTO 00000KT 10/M06 A3006 RMK AO1 SLP106 T01001061,M
BAM,2022-09-10 06:55,-116.8743,40.5990,1382.36,62.60,12.20,13.68,360.00,7.00,0.00,29.99,M,10.00,M,CLR,M,M,M,M,M,M,M,M,M,M,M,M,M,M,62.60,KBAM 100655Z AUTO 36007KT 10SM CLR 17/M11 A2999 RMK AO1,M
MEV,2022-09-10 06:55,-119.7500,38.9963,1441.42,59.00,32.00,35.87,0.00,0.00,0.00,29.95,M,10.00,M,OVC,M,M,M,4700.00,M,M,M,M,M,M,M,M,M,M,59.00,KMEV 100655Z AUTO 00000KT 10SM OVC047 15/M00 A2995 RMK AO2,M
05U,2022-09-10 06:55,-116.0051,39.6042,1811.23,50.00,21.20,31.87,0.00,0.00,0.00,30.08,M,10.00,M,M,M,M,M,M,M,M,M,M,M,M,M,M,M,M,50.00,K05U 100655Z AUTO 00000KT 10SM 10/M06 A3008 RMK A01,M
RNO,2022-09-10 06:55,-119.7711,39.4839,1341.00,69.00,32.00,25.18,280.00,3.00,0.00,29.93,1007.60,10.00,M,FEW,OVC,M,M,7000.00,11000.00,M,M,M,M,M,M,M,M,M,69.10,KRNO 100655Z 28003KT 10SM FEW070 OVC110 21/00 A2993 RMK AO2 SLP076 FU FEW070 FU OVC110 T02060000,M
BVU,2022-09-10 06:55,-114.8611,35.9475,671.00,84.20,64.40,51.47,150.00,13.00,0.00,29.81,M,M,M,M,M,M,M,M,M,M,M,M,M,M,M,M,M,M,85.71,KBVU 100655Z AUTO 15013KT 29/18 A2981 RMK AO2 TSNO,M
CXP,2022-09-10 06:55,-119.7326,39.1923,1431.00,60.80,28.40,29.06,0.00,0.00,0.00,29.97,M,10.00,M,OVC,M,M,M,5000.00,M,M,M,M,M,M,M,M,M,M,60.80,KCXP 100655Z AUTO 00000KT 10SM OVC050 16/M02 A2997 RMK AO2,M
RTS,2022-09-10 06:55,-119.8764,39.6682,1539.00,57.20,17.60,20.99,330.00,4.00,0.00,29.99,M,10.00,M,OVC,M,M,M,5000.00,M,M,M,M,M,M,M,M,M,M,57.20,KRTS 100655Z AUTO 33004KT 10SM OVC050 14/M08 A2999 RMK AO2,M
TMT,2022-09-10 06:55,-117.1971,39.4643,1749.34,50.20,24.30,36.04,260.00,3.00,0.00,30.04,M,10.00,M,CLR,M,M,M,M,M,M,M,M,M,M,M,M,M,M,50.20,KTMT 100655Z AUTO 26003KT 10SM CLR 10/M04 A3004 RMK AO2 T01011043,M
HTH,2022-09-10 06:55,-118.6315,38.5448,1282.89,75.20,28.40,17.70,250.00,5.00,0.00,29.91,M,10.00,M,CLR,M,M,M,M,M,M,M,M,M,M,M,M,M,M,75.20,KHTH 100655Z AUTO 25005KT 10SM CLR 24/M02 A2991 RMK A01,M
WMC,2022-09-10 06:56,-117.8072,40.9019,1315.00,66.00,9.00,10.53,50.00,15.00,0.00,29.97,1009.90,10.00,25.00,CLR,M,M,M,M,M,M,M,M,M,M,M,28.00,60.00,2022-09-10 06:27,66.00,KWMC 100656Z AUTO 05015G25KT 10SM CLR 19/M13 A2997 RMK AO2 PK WND 06028/0627 SLP099 T01891128,M
LAS,2022-09-10 06:56,-115.1634,36.0719,663.00,86.00,60.00,41.74,180.00,7.00,0.00,29.80,1005.90,10.00,M,SCT,BKN,OVC,M,12000.00,15000.00,20000.00,M,M,M,M,M,M,M,M,85.81,KLAS 100656Z 18007KT 10SM SCT120 BKN150 OVC200 30/16 A2980 RMK AO2 SLP059 T03000156,M
EKO,2022-09-10 06:56,-115.7860,40.8242,1367.00,61.00,6.00,11.01,50.00,10.00,0.00,30.03,1011.80,10.00,16.00,CLR,M,M,M,M,M,M,M,M,M,M,M,M,M,M,61.00,KEKO 100656Z AUTO 05010G16KT 10SM CLR 16/M14 A3003 RMK AO2 SLP118 T01611144,M
LSV,2022-09-10 06:56,-115.0343,36.2362,570.00,87.80,60.40,39.84,180.00,7.00,0.00,29.76,1004.90,10.00,M,BKN,BKN,M,M,18000.00,21000.00,M,M,M,M,M,M,M,M,M,87.60,KLSV 100656Z AUTO 18007KT 10SM BKN180 BKN210 31/16 A2976 RMK AO2 SLP049 T03100158 $,M
NFL,2022-09-10 06:56,-118.7010,39.4166,1199.00,65.00,30.00,26.85,230.00,4.00,0.00,29.89,1009.60,9.00,M,SCT,M,M,M,8000.00,M,M,M,M,M,M,M,M,M,M,64.90,KNFL 100656Z 23004KT 9SM SCT080 18/M01 A2989 RMK AO2 SLP096 FU SCT080 T01831011,M
TPH,2022-09-10 06:56,-117.0904,38.0505,1654.00,73.00,52.00,47.69,120.00,5.00,0.00,29.99,1006.30,10.00,M,CLR,M,M,M,M,M,M,M,M,M,M,M,M,M,M,73.00,KTPH 100656Z AUTO 12005KT 10SM CLR 23/11 A2999 RMK AO2 SLP063 T02280111,M
INS,2022-09-10 06:56,-115.6733,36.5872,955.00,83.00,53.20,35.94,130.00,7.00,0.00,29.83,1004.60,10.00,M,BKN,OVC,M,M,15000.00,19000.00,M,M,M,M,M,M,M,M,M,81.74,KINS 100656Z AUTO 13007KT 10SM BKN150 OVC190 28/12 A2983 RMK AO2 SLP046 T02830118 $,M
MEV,2022-09-10 07:15,-119.7500,38.9963,1441.42,53.60,30.20,40.54,0.00,0.00,0.00,29.95,M,10.00,M,OVC,M,M,M,4500.00,M,M,M,M,M,M,M,M,M,M,53.60,KMEV 100715Z AUTO 00000KT 10SM OVC045 12/M01 A2995 RMK AO2,M
HTH,2022-09-10 07:15,-118.6315,38.5448,1282.89,73.40,28.40,18.80,310.00,6.00,0.00,29.91,M,10.00,M,CLR,M,M,M,M,M,M,M,M,M,M,M,M,M,M,73.40,KHTH 100715Z AUTO 31006KT 10SM CLR 23/M02 A2991 RMK A01,M
TMT,2022-09-10 07:15,-117.1971,39.4643,1749.34,44.00,22.10,41.67,170.00,4.00,0.00,30.05,M,10.00,M,CLR,M,M,M,M,M,M,M,M,M,M,M,M,M,M,41.32,KTMT 100715Z AUTO 17004KT 10SM CLR 07/M05 A3005 RMK AO2 T00661055,M
BVU,2022-09-10 07:15,-114.8611,35.9475,671.00,82.40,64.40,54.55,160.00,13.00,0.00,29.82,M,M,M,M,M,M,M,M,M,M,M,M,M,M,M,M,M,M,83.98,KBVU 100715Z AUTO 16013KT 28/18 A2982 RMK AO2 TSNO,M
CXP,2022-09-10 07:15,-119.7326,39.1923,1431.00,60.80,28.40,29.06,0.00,0.00,0.00,29.97,M,10.00,M,OVC,M,M,M,4800.00,M,M,M,M,M,M,M,M,M,M,60.80,KCXP 100715Z AUTO 00000KT 10SM OVC048 16/M02 A2997 RMK AO2,M
RTS,2022-09-10 07:15,-119.8764,39.6682,1539.00,59.00,19.40,21.26,0.00,0.00,0.00,29.99,M,10.00,M,OVC,M,M,M,5000.00,M,M,M,M,M,M,M,M,M,M,59.00,KRTS 100715Z AUTO 00000KT 10SM OVC050 15/M07 A2999 RMK AO2,M
05U,2022-09-10 07:15,-116.0051,39.6042,1811.23,50.00,21.20,31.87,330.00,3.00,0.00,30.08,M,10.00,M,M,M,M,M,M,M,M,M,M,M,M,M,M,M,M,50.00,K05U 100715Z AUTO 33003KT 10SM 10/M06 A3008 RMK A01,M
BAM,2022-09-10 07:15,-116.8743,40.5990,1382.36,59.00,12.20,15.55,20.00,4.00,0.00,30.00,M,10.00,M,CLR,M,M,M,M,M,M,M,M,M,M,M,M,M,M,59.00,KBAM 100715Z AUTO 02004KT 10SM CLR 15/M11 A3000 RMK AO1,M
HTH,2022-09-10 07:35,-118.6315,38.5448,1282.89,73.40,33.80,23.39,310.00,3.00,0.00,29.91,M,10.00,M,CLR,M,M,M,M,M,M,M,M,M,M,M,M,M,M,73.40,KHTH 100735Z AUTO 31003KT 10SM CLR 23/01 A2991 RMK A01,M
BAM,2022-09-10 07:35,-116.8743,40.5990,1382.36,57.20,12.20,16.58,20.00,6.00,0.00,30.00,M,10.00,M,CLR,M,M,M,M,M,M,M,M,M,M,M,M,M,M,57.20,KBAM 100735Z AUTO 02006KT 10SM CLR 14/M11 A3000 RMK AO1,M
MEV,2022-09-10 07:35,-119.7500,38.9963,1441.42,51.80,30.20,43.32,0.00,0.00,0.00,29.96,M,10.00,M,OVC,M,M,M,4600.00,M,M,M,M,M,M,M,M,M,M,51.80,KMEV 100735Z AUTO 00000KT 10SM OVC046 11/M01 A2996 RMK AO2,M
05U,2022-09-10 07:35,-116.0051,39.6042,1811.23,50.00,26.60,39.95,90.00,4.00,0.00,30.09,M,10.00,M,M,M,M,M,M,M,M,M,M,M,M,M,M,M,M,50.00,K05U 100735Z AUTO 09004KT 10SM 10/M03 A3009 RMK A01,M
RTS,2022-09-10 07:35,-119.8764,39.6682,1539.00,59.00,21.20,22.95,340.00,4.00,0.00,29.99,M,10.00,M,OVC,M,M,M,5000.00,M,M,M,M,M,M,M,M,M,M,59.00,KRTS 100735Z AUTO 34004KT 10SM OVC050 15/M06 A2999 RMK AO2,M
BVU,2022-09-10 07:35,-114.8611,35.9475,671.00,82.40,64.40,54.55,160.00,13.00,0.00,29.83,M,M,19.00,M,M,M,M,M,M,M,M,M,M,M,M,M,M,M,83.98,KBVU 100735Z AUTO 16013G19KT 28/18 A2983 RMK AO2 TSNO,M
CXP,2022-09-10 07:35,-119.7326,39.1923,1431.00,60.80,30.20,31.28,0.00,0.00,0.00,29.97,M,10.00,M,OVC,M,M,M,4800.00,M,M,M,M,M,M,M,M,M,M,60.80,KCXP 100735Z AUTO 00000KT 10SM OVC048 16/M01 A2997 RMK AO2,M
TMT,2022-09-10 07:35,-117.1971,39.4643,1749.34,M,M,M,210.00,5.00,0.00,30.05,M,10.00,M,CLR,M,M,M,M,M,M,M,M,M,M,M,M,M,M,M,KTMT 100735Z AUTO 21005KT 10SM CLR A3005 RMK AO2,M
P68,2022-09-10 07:53,-116.0056,39.6014,1993.00,52.00,23.00,31.93,100.00,5.00,0.00,30.07,1010.30,M,M,M,M,M,M,M,M,M,M,M,M,M,M,M,M,M,52.00,KP68 100753Z AUTO 10005KT 11/M05 A3007 RMK AO1 SLP103 T01111050 403060067,M
ELY,2022-09-10 07:53,-114.8453,39.2950,1909.00,57.00,10.00,15.15,40.00,7.00,0.00,30.11,1008.90,9.00,M,CLR,M,M,M,M,M,M,M,M,M,M,M,M,M,M,57.00,KELY 100753Z AUTO 04007KT 9SM CLR 14/M12 A3011 RMK AO2 SLP089 T01391122,M
LOL,2022-09-10 07:53,-118.5701,40.0684,1192.43,68.00,10.90,10.70,50.00,11.00,0.00,29.91,1008.50,9.00,M,CLR,M,M,M,M,M,M,M,M,M,M,M,M,M,M,68.00,KLOL 100753Z AUTO 05011KT 9SM CLR 20/M12 A2991 RMK AO2 SLP085 T02001117 403330161,M
DRA,2022-09-10 07:53,-116.0278,36.6206,1009.00,81.00,57.00,43.90,240.00,14.00,0.00,29.86,1005.30,10.00,19.00,CLR,M,M,M,M,M,M,M,M,M,M,M,M,M,M,81.05,KDRA 100753Z AUTO 24014G19KT 10SM CLR 27/14 A2986 RMK AO2 SLP053 T02720139 403560217,M
VGT,2022-09-10 07:53,-115.1933,36.2111,667.00,87.00,61.00,41.62,150.00,13.00,0.00,29.80,1007.50,10.00,M,CLR,M,M,M,M,M,M,M,M,M,M,M,M,M,M,87.15,KVGT 100753Z AUTO 15013KT 10SM CLR 31/16 A2980 RMK AO2 SLP075 T03060161 403670300,M
HTH,2022-09-10 07:55,-118.6315,38.5448,1282.89,69.80,33.80,26.43,140.00,7.00,0.00,29.92,M,10.00,M,CLR,M,M,M,M,M,M,M,M,M,M,M,M,M,M,69.80,KHTH 100755Z AUTO 14007KT 10SM CLR 21/01 A2992 RMK A01,M
MEV,2022-09-10 07:55,-119.7500,38.9963,1441.42,50.00,32.00,49.81,80.00,5.00,0.00,29.96,M,10.00,M,M,M,M,M,M,M,M,M,M,M,M,M,M,M,M,50.00,KMEV 100755Z AUTO 08005KT 10SM 10/00 A2996 RMK AO2,M
RNO,2022-09-10 07:55,-119.7711,39.4839,1341.00,67.00,32.00,27.17,300.00,3.00,0.00,29.94,1007.80,10.00,M,FEW,OVC,M,M,7000.00,11000.00,M,M,M,M,M,M,M,M,M,66.90,KRNO 100755Z 30003KT 10SM FEW070 OVC110 19/00 A2994 RMK AO2 SLP078 FU FEW070 FU OVC110 T01940000 403220172,M
05U,2022-09-10 07:55,-116.0051,39.6042,1811.23,51.80,21.20,29.82,100.00,5.00,0.00,30.09,M,10.00,M,M,M,M,M,M,M,M,M,M,M,M,M,M,M,M,51.80,K05U 100755Z AUTO 10005KT 10SM 11/M06 A3009 RMK A01,M
RTS,2022-09-10 07:55,-119.8764,39.6682,1539.00,55.40,19.40,24.21,0.00,0.00,0.00,29.99,M,10.00,M,OVC,M,M,M,5000.00,M,M,M,M,M,M,M,M,M,M,55.40,KRTS 100755Z AUTO 00000KT 10SM OVC050 13/M07 A2999 RMK AO2,M
CXP,2022-09-10 07:55,-119.7326,39.1923,1431.00,59.00,30.20,33.35,0.00,0.00,0.00,29.97,M,10.00,M,OVC,M,M,M,4600.00,M,M,M,M,M,M,M,M,M,M,59.00,KCXP 100755Z AUTO 00000KT 10SM OVC046 15/M01 A2997 RMK AO2,M
BVU,2022-09-10 07:55,-114.8611,35.9475,671.00,82.40,64.40,54.55,190.00,12.00,0.00,29.84,M,M,M,M,M,M,M,M,M,M,M,M,M,M,M,M,M,M,83.98,KBVU 100755Z AUTO 19012KT 28/18 A2984 RMK AO2 TSNO,M
TMT,2022-09-10 07:55,-117.1971,39.4643,1749.34,45.00,23.20,41.85,220.00,5.00,0.00,30.05,M,10.00,M,CLR,M,M,M,M,M,M,M,M,M,M,M,M,M,M,41.83,KTMT 100755Z AUTO 22005KT 10SM CLR 07/M05 A3005 RMK AO2 T00721049,M
BAM,2022-09-10 07:55,-116.8743,40.5990,1382.36,57.20,12.20,16.58,350.00,7.00,0.00,30.01,M,10.00,M,CLR,M,M,M,M,M,M,M,M,M,M,M,M,M,M,57.20,KBAM 100755Z AUTO 35007KT 10SM CLR 14/M11 A3001 RMK AO1,M
LSV,2022-09-10 07:56,-115.0343,36.2362,570.00,86.70,62.80,44.92,140.00,13.00,0.00,29.79,1006.00,10.00,M,BKN,M,M,M,19000.00,M,M,M,M,M,M,M,M,M,M,87.48,KLSV 100756Z AUTO 14013KT 10SM BKN190 30/17 A2979 RMK AO2 SLP060 T03040171 403730300 $,M
NFL,2022-09-10 07:56,-118.7010,39.4166,1199.00,65.00,24.10,21.05,290.00,5.00,0.00,29.90,1010.00,8.00,M,CLR,M,M,M,M,M,M,M,M,M,M,M,M,M,M,64.90,KNFL 100756Z AUTO 29005KT 8SM CLR 18/M04 A2990 RMK AO2 SLP100 T01831044 403220150,M
TPH,2022-09-10 07:56,-117.0904,38.0505,1654.00,73.00,53.00,49.66,110.00,7.00,0.00,30.01,1006.70,10.00,M,CLR,M,M,M,M,M,M,M,M,M,M,M,M,M,M,73.00,KTPH 100756Z AUTO 11007KT 10SM CLR 23/12 A3001 RMK AO2 SLP067 T02280117 403390189,M
WMC,2022-09-10 07:56,-117.8072,40.9019,1315.00,65.00,9.00,10.94,50.00,12.00,0.00,29.98,1010.10,10.00,M,CLR,M,M,M,M,M,M,M,M,M,M,M,M,M,M,64.90,KWMC 100756Z AUTO 05012KT 10SM CLR 18/M13 A2998 RMK AO2 SLP101 T01831128 403110100,M
LAS,2022-09-10 07:56,-115.1634,36.0719,663.00,85.00,61.00,44.65,190.00,8.00,0.00,29.81,1006.50,10.00,16.00,SCT,BKN,OVC,M,12000.00,15000.00,20000.00,M,M,M,M,M,M,M,M,85.12,KLAS 100756Z 19008G16KT 10SM SCT120 BKN150 OVC200 29/16 A2981 RMK AO2 SLP065 T02940161 403560294,M
EKO,2022-09-10 07:56,-115.7860,40.8242,1367.00,60.00,7.00,11.84,10.00,4.00,0.00,30.05,1012.10,10.00,M,CLR,M,M,M,M,M,M,M,M,M,M,M,M,M,M,60.10,KEKO 100756Z AUTO 01004KT 10SM CLR 16/M14 A3005 RMK AO2 SLP121 T01561139 403060061,M
INS,2022-09-10 07:56,-115.6733,36.5872,955.00,81.70,55.60,40.79,110.00,4.00,0.00,29.84,1004.90,10.00,M,OVC,M,M,M,16000.00,M,M,M,M,M,M,M,M,M,M,81.29,KINS 100756Z AUTO 11004KT 10SM OVC160 28/13 A2984 RMK AO2 SLP049 T02760131 403480232 $,M
BVU,2022-09-10 08:15,-114.8611,35.9475,671.00,82.40,62.60,51.21,160.00,10.00,0.00,29.85,M,M,16.00,M,M,M,M,M,M,M,M,M,M,M,M,M,M,M,83.41,KBVU 100815Z AUTO 16010G16KT 28/17 A2985 RMK AO2 TSNO,M
CXP,2022-09-10 08:15,-119.7326,39.1923,1431.00,59.00,30.20,33.35,0.00,0.00,0.00,29.98,M,10.00,M,OVC,M,M,M,4700.00,M,M,M,M,M,M,M,M,M,M,59.00,KCXP 100815Z AUTO 00000KT 10SM OVC047 15/M01 A2998 RMK AO2,M
RTS,2022-09-10 08:15,-119.8764,39.6682,1539.00,57.20,19.40,22.68,0.00,0.00,0.00,29.99,M,10.00,M,OVC,M,M,M,5000.00,M,M,M,M,M,M,M,M,M,M,57.20,KRTS 100815Z AUTO 00000KT 10SM OVC050 14/M07 A2999 RMK AO2,M
05U,2022-09-10 08:15,-116.0051,39.6042,1811.23,53.60,15.80,22.13,70.00,3.00,0.00,30.09,M,10.00,M,M,M,M,M,M,M,M,M,M,M,M,M,M,M,M,53.60,K05U 100815Z AUTO 07003KT 10SM 12/M09 A3009 RMK A01,M
MEV,2022-09-10 08:15,-119.7500,38.9963,1441.42,51.80,33.80,50.08,110.00,5.00,0.00,29.97,M,10.00,M,M,M,M,M,M,M,M,M,M,M,M,M,M,M,M,51.80,KMEV 100815Z AUTO 11005KT 10SM 11/01 A2997 RMK AO2,M
BAM,2022-09-10 08:15,-116.8743,40.5990,1382.36,60.80,8.60,12.42,360.00,6.00,0.00,30.01,M,10.00,M,CLR,M,M,M,M,M,M,M,M,M,M,M,M,M,M,60.80,KBAM 100815Z AUTO 36006KT 10SM CLR 16/M13 A3001 RMK AO1,M
HTH,2022-09-10 08:15,-118.6315,38.5448,1282.89,71.60,32.00,23.13,230.00,4.00,0.00,29.92,M,10.00,M,CLR,M,M,M,M,M,M,M,M,M,M,M,M,M,M,71.60,KHTH 100815Z AUTO 23004KT 10SM CLR 22/M00 A2992 RMK A01,M
TMT,2022-09-10 08:15,-117.1971,39.4643,1749.34,M,M,M,210.00,5.00,0.00,30.06,M,10.00,M,CLR,M,M,M,M,M,M,M,M,M,M,M,M,M,M,M,KTMT 100815Z AUTO 21005KT 10SM CLR A3006 RMK AO2,M
CXP,2022-09-10 08:35,-119.7326,39.1923,1431.00,57.20,28.40,33.05,310.00,3.00,0.00,29.99,M,10.00,M,OVC,M,M,M,4800.00,M,M,M,M,M,M,M,M,M,M,57.20,KCXP 100835Z AUTO 31003KT 10SM OVC048 14/M02 A2999 RMK AO2,M
05U,2022-09-10 08:35,-116.0051,39.6042,1811.23,51.80,17.60,25.56,0.00,0.00,0.00,30.10,M,10.00,M,M,M,M,M,M,M,M,M,M,M,M,M,M,M,M,51.80,K05U 100835Z AUTO 00000KT 10SM 11/M08 A3010 RMK A01,M
MEV,2022-09-10 08:35,-119.7500,38.9963,1441.42,53.60,32.00,43.61,0.00,0.00,0.00,29.97,M,10.00,M,M,M,M,M,M,M,M,M,M,M,M,M,M,M,M,53.60,KMEV 100835Z AUTO 00000KT 10SM 12/00 A2997 RMK AO2,M
BAM,2022-09-10 08:35,-116.8743,40.5990,1382.36,60.80,10.40,13.46,20.00,9.00,0.00,30.01,M,10.00,M,CLR,M,M,M,M,M,M,M,M,M,M,M,M,M,M,60.80,KBAM 100835Z AUTO 02009KT 10SM CLR 16/M12 A3001 RMK AO1,M
HTH,2022-09-10 08:35,-118.6315,38.5448,1282.89,71.60,33.80,24.86,270.00,6.00,0.00,29.92,M,10.00,M,CLR,M,M,M,M,M,M,M,M,M,M,M,M,M,M,71.60,KHTH 100835Z AUTO 27006KT 10SM CLR 22/01 A2992 RMK A01,M
BVU,2022-09-10 08:35,-114.8611,35.9475,671.00,80.60,64.40,57.84,160.00,15.00,0.00,29.84,M,M,M,M,M,M,M,M,M,M,M,M,M,M,M,M,M,M,82.27,KBVU 100835Z AUTO 16015KT 27/18 A2984 RMK AO2 TSNO,M
RTS,2022-09-10 08:35,-119.8764,39.6682,1539.00,57.20,19.40,22.68,340.00,4.00,0.00,29.99,M,10.00,M,OVC,M,M,M,5000.00,M,M,M,M,M,M,M,M,M,M,57.20,KRTS 100835Z AUTO 34004KT 10SM OVC050 14/M07 A2999 RMK AO2,M
TMT,2022-09-10 08:35,-117.1971,39.4643,1749.34,42.00,21.00,42.95,180.00,4.00,0.00,30.06,M,10.00,M,CLR,M,M,M,M,M,M,M,M,M,M,M,M,M,M,38.98,KTMT 100835Z AUTO 18004KT 10SM CLR 06/M06 A3006 RMK AO2 T00551061,M
DRA,2022-09-10 08:53,-116.0278,36.6206,1009.00,80.00,59.00,48.58,230.00,14.00,0.00,29.87,1005.70,10.00,22.00,CLR,M,M,M,M,M,M,M,M,M,M,M,M,M,M,80.76,KDRA 100853Z AUTO 23014G22KT 10SM CLR 27/15 A2987 RMK AO2 SLP057 T02670150 51015,M
P68,2022-09-10 08:53,-116.0056,39.6014,1993.00,51.00,15.10,23.54,0.00,0.00,0.00,30.08,1010.40,M,M,M,M,M,M,M,M,M,M,M,M,M,M,M,M,M,51.10,KP68 100853Z AUTO 00000KT 11/M09 A3008 RMK AO1 SLP104 T01061094 51011,M
ELY,2022-09-10 08:53,-114.8453,39.2950,1909.00,46.00,14.00,27.15,0.00,0.00,0.00,30.12,1010.40,10.00,M,CLR,M,M,M,M,M,M,M,M,M,M,M,M,M,M,46.00,KELY 100853Z AUTO 00000KT 10SM CLR 08/M10 A3012 RMK AO2 SLP104 T00781100 51014,M
LOL,2022-09-10 08:53,-118.5701,40.0684,1192.43,66.00,10.00,11.02,40.00,10.00,0.00,29.91,1008.70,9.00,M,CLR,M,M,M,M,M,M,M,M,M,M,M,M,M,M,66.00,KLOL 100853Z AUTO 04010KT 9SM CLR 19/M12 A2991 RMK AO2 SLP087 T01891122 51009,M
VGT,2022-09-10 08:53,-115.1933,36.2111,667.00,86.00,62.00,44.81,160.00,11.00,0.00,29.82,1008.10,10.00,M,CLR,M,M,M,M,M,M,M,M,M,M,M,M,M,M,86.52,KVGT 100853Z AUTO 16011KT 10SM CLR 30/17 A2982 RMK AO2 SLP081 T03000167 53016,M
MEV,2022-09-10 08:55,-119.7500,38.9963,1441.42,51.80,30.20,43.32,0.00,0.00,0.00,29.98,M,10.00,M,M,M,M,M,M,M,M,M,M,M,M,M,M,M,M,51.80,KMEV 100855Z AUTO 00000KT 10SM 11/M01 A2998 RMK AO2,M
BAM,2022-09-10 08:55,-116.8743,40.5990,1382.36,60.80,12.20,14.58,10.00,9.00,0.00,30.01,M,10.00,M,CLR,M,M,M,M,M,M,M,M,M,M,M,M,M,M,60.80,KBAM 100855Z AUTO 01009KT 10SM CLR 16/M11 A3001 RMK AO1,M
HTH,2022-09-10 08:55,-118.6315,38.5448,1282.89,71.60,32.00,23.13,270.00,6.00,0.00,29.93,M,10.00,M,CLR,M,M,M,M,M,M,M,M,M,M,M,M,M,M,71.60,KHTH 100855Z AUTO 27006KT 10SM CLR 22/M00 A2993 RMK A01,M
TMT,2022-09-10 08:55,-117.1971,39.4643,1749.34,41.40,20.80,43.41,190.00,6.00,0.00,30.06,M,10.00,M,CLR,M,M,M,M,M,M,M,M,M,M,M,M,M,M,36.85,KTMT 100855Z AUTO 19006KT 10SM CLR 05/M06 A3006 RMK AO2 T00521062,M
BVU,2022-09-10 08:55,-114.8611,35.9475,671.00,80.60,64.40,57.84,160.00,13.00,0.00,29.85,M,M,M,M,M,M,M,M,M,M,M,M,M,M,M,M,M,M,82.27,KBVU 100855Z AUTO 16013KT 27/18 A2985 RMK AO2 TSNO,M
CXP,2022-09-10 08:55,-119.7326,39.1923,1431.00,59.00,26.60,28.77,0.00,0.00,0.00,29.99,M,10.00,M,OVC,M,M,M,4800.00,M,M,M,M,M,M,M,M,M,M,59.00,KCXP 100855Z AUTO 00000KT 10SM OVC048 15/M03 A2999 RMK AO2,M
RNO,2022-09-10 08:55,-119.7711,39.4839,1341.00,63.00,37.00,37.99,M,3.00,0.00,29.95,1008.40,10.00,M,SCT,OVC,M,M,7000.00,10000.00,M,M,M,M,M,M,M,M,M,63.00,KRNO 100855Z VRB03KT 10SM SCT070 OVC100 17/03 A2995 RMK AO2 SLP084 FU SCT070 FU OVC100 T01720028 52011,M
RTS,2022-09-10 08:55,-119.8764,39.6682,1539.00,53.60,19.40,25.85,0.00,0.00,0.00,30.00,M,10.00,M,OVC,M,M,M,5000.00,M,M,M,M,M,M,M,M,M,M,53.60,KRTS 100855Z AUTO 00000KT 10SM OVC050 12/M07 A3000 RMK AO2,M
05U,2022-09-10 08:55,-116.0051,39.6042,1811.23,50.00,14.00,23.37,0.00,0.00,0.00,30.10,M,10.00,M,M,M,M,M,M,M,M,M,M,M,M,M,M,M,M,50.00,K05U 100855Z AUTO 00000KT 10SM 10/M10 A3010 RMK A01,M
LSV,2022-09-10 08:56,-115.0343,36.2362,570.00,85.00,63.70,48.79,160.00,13.00,0.00,29.81,1006.70,10.00,20.00,BKN,M,M,M,18000.00,M,M,M,M,M,M,M,M,M,M,86.30,KLSV 100856Z AUTO 16013G20KT 10SM BKN180 30/18 A2981 RMK AO2 SLP067 T02950176 52017 $,M
TPH,2022-09-10 08:56,-117.0904,38.0505,1654.00,72.00,53.00,51.37,140.00,6.00,0.00,30.01,1006.70,10.00,M,CLR,M,M,M,M,M,M,M,M,M,M,M,M,M,M,72.00,KTPH 100856Z AUTO 14006KT 10SM CLR 22/12 A3001 RMK AO2 SLP067 T02220117 51010,M
EKO,2022-09-10 08:56,-115.7860,40.8242,1367.00,45.00,14.00,28.20,250.00,3.00,0.00,30.05,1013.20,10.00,M,CLR,M,M,M,M,M,M,M,M,M,M,M,M,M,M,43.55,KEKO 100856Z AUTO 25003KT 10SM CLR 07/M10 A3005 RMK AO2 SLP132 T00721100 51009,M
WMC,2022-09-10 08:56,-117.8072,40.9019,1315.00,63.00,7.00,10.69,30.00,12.00,0.00,29.99,1010.30,10.00,19.00,CLR,M,M,M,M,M,M,M,M,M,M,M,M,M,M,63.00,KWMC 100856Z AUTO 03012G19KT 10SM CLR 17/M14 A2999 RMK AO2 SLP103 T01721139 51010,M
NFL,2022-09-10 08:56,-118.7010,39.4166,1199.00,64.00,16.00,15.39,330.00,8.00,0.00,29.91,1010.10,6.00,M,CLR,M,M,M,M,M,M,M,HZ,M,M,M,M,M,M,64.00,KNFL 100856Z AUTO 33008KT 6SM HZ CLR 18/M09 A2991 RMK AO2 SLP101 T01781089 51013,M
INS,2022-09-10 08:56,-115.6733,36.5872,955.00,81.00,57.60,44.86,110.00,11.00,0.00,29.85,1005.30,10.00,M,FEW,SCT,M,M,15000.00,19000.00,M,M,M,M,M,M,M,M,M,81.15,KINS 100856Z AUTO 11011KT 10SM FEW150 SCT190 27/14 A2985 RMK AO2 SLP053 T02720142 52015 $,M
LAS,2022-09-10 08:56,-115.1634,36.0719,663.00,83.00,62.00,49.51,160.00,7.00,0.00,29.83,1007.00,10.00,17.00,SCT,BKN,OVC,M,12000.00,15000.00,20000.00,M,M,M,M,M,M,M,M,83.70,KLAS 100856Z 16007G17KT 10SM SCT120 BKN150 OVC200 28/17 A2983 RMK AO2 SLP070 T02830167 51014,M
CXP,2022-09-10 09:15,-119.7326,39.1923,1431.00,57.20,30.20,35.57,130.00,4.00,0.00,29.99,M,10.00,M,OVC,M,M,M,5000.00,M,M,M,M,M,M,M,M,M,M,57.20,KCXP 100915Z AUTO 13004KT 10SM OVC050 14/M01 A2999 RMK AO2,M
RTS,2022-09-10 09:15,-119.8764,39.6682,1539.00,55.40,19.40,24.21,0.00,0.00,0.00,30.00,M,10.00,M,OVC,M,M,M,5000.00,M,M,M,M,M,M,M,M,M,M,55.40,KRTS 100915Z AUTO 00000KT 10SM OVC050 13/M07 A3000 RMK AO2,M
05U,2022-09-10 09:15,-116.0051,39.6042,1811.23,48.20,14.00,24.99,0.00,0.00,0.00,30.09,M,10.00,M,M,M,M,M,M,M,M,M,M,M,M,M,M,M,M,48.20,K05U 100915Z AUTO 00000KT 10SM 09/M10 A3009 RMK A01,M
MEV,2022-09-10 09:15,-119.7500,38.9963,1441.42,50.00,32.00,49.81,0.00,0.00,0.00,29.98,M,10.00,M,M,M,M,M,M,M,M,M,M,M,M,M,M,M,M,50.00,KMEV 100915Z AUTO 00000KT 10SM 10/M00 A2998 RMK AO2,M
BVU,2022-09-10 09:15,-114.8611,35.9475,671.00,80.60,64.40,57.84,160.00,12.00,0.00,29.85,M,M,M,M,M,M,M,M,M,M,M,M,M,M,M,M,M,M,82.27,KBVU 100915Z AUTO 16012KT 27/18 A2985 RMK AO2 TSNO,M
BAM,2022-09-10 09:15,-116.8743,40.5990,1382.36,60.80,10.40,13.46,350.00,10.00,0.00,30.01,M,10.00,M,CLR,M,M,M,M,M,M,M,M,M,M,M,M,M,M,60.80,KBAM 100915Z AUTO 35010KT 10SM CLR 16/M12 A3001 RMK AO1,M
HTH,2022-09-10 09:15,-118.6315,38.5448,1282.89,71.60,32.00,23.13,270.00,5.00,0.00,29.93,M,10.00,M,CLR,M,M,M,M,M,M,M,M,M,M,M,M,M,M,71.60,KHTH 100915Z AUTO 27005KT 10SM CLR 22/00 A2993 RMK A01,M
TMT,2022-09-10 09:15,-117.1971,39.4643,1749.34,40.50,20.70,44.76,180.00,5.00,0.00,30.06,M,10.00,M,CLR,M,M,M,M,M,M,M,M,M,M,M,M,M,M,36.49,KTMT 100915Z AUTO 18005KT 10SM CLR 05/M06 A3006 RMK AO2 T00471063,M
RTS,2022-09-10 09:35,-119.8764,39.6682,1539.00,51.80,17.60,25.56,350.00,4.00,0.00,30.01,M,10.00,M,OVC,M,M,M,5000.00,M,M,M,M,M,M,M,M,M,M,51.80,KRTS 100935Z AUTO 35004KT 10SM OVC050 11/M08 A3001 RMK AO2,M
TMT,2022-09-10 09:35,-117.1971,39.4643,1749.34,44.40,23.70,43.73,220.00,6.00,0.00,30.07,M,10.00,M,CLR,M,M,M,M,M,M,M,M,M,M,M,M,M,M,40.46,KTMT 100935Z AUTO 22006KT 10SM CLR 07/M05 A3007 RMK AO2 T00691046,M
HTH,2022-09-10 09:35,-118.6315,38.5448,1282.89,71.60,30.20,21.50,310.00,4.00,0.00,29.93,M,10.00,M,CLR,M,M,M,M,M,M,M,M,M,M,M,M,M,M,71.60,KHTH 100935Z AUTO 31004KT 10SM CLR 22/M01 A2993 RMK A01,M
BAM,2022-09-10 09:35,-116.8743,40.5990,1382.36,57.20,12.20,16.58,350.00,8.00,0.00,30.02,M,10.00,M,CLR,M,M,M,M,M,M,M,M,M,M,M,M,M,M,57.20,KBAM 100935Z AUTO 35008KT 10SM CLR 14/M11 A3002 RMK AO1,M
MEV,2022-09-10 09:35,-119.7500,38.9963,1441.42,50.00,30.20,46.31,0.00,0.00,0.00,29.98,M,10.00,M,M,M,M,M,M,M,M,M,M,M,M,M,M,M,M,50.00,KMEV 100935Z AUTO 00000KT 10SM 10/M01 A2998 RMK AO2,M
05U,2022-09-10 09:35,-116.0051,39.6042,1811.23,48.20,14.00,24.99,200.00,4.00,0.00,30.10,M,10.00,M,M,M,M,M,M,M,M,M,M,M,M,M,M,M,M,46.34,K05U 100935Z AUTO 20004KT 10SM 09/M10 A3010 RMK A01,M
CXP,2022-09-10 09:35,-119.7326,39.1923,1431.00,57.20,33.80,41.13,0.00,0.00,0.00,30.00,M,10.00,M,OVC,M,M,M,5000.00,M,M,M,M,M,M,M,M,M,M,57.20,KCXP 100935Z AUTO 00000KT 10SM OVC050 14/01 A3000 RMK AO2,M
BVU,2022-09-10 09:35,-114.8611,35.9475,671.00,80.60,64.40,57.84,160.00,9.00,0.00,29.86,M,M,M,M,M,M,M,M,M,M,M,M,M,M,M,M,M,M,82.27,KBVU 100935Z AUTO 16009KT 27/18 A2986 RMK AO2 TSNO,M
DRA,2022-09-10 09:53,-116.0278,36.6206,1009.00,78.00,60.00,53.95,240.00,11.00,0.00,29.89,1006.60,10.00,20.00,SCT,M,M,M,8000.00,M,M,M,M,M,M,M,M,M,M,78.10,KDRA 100953Z AUTO 24011G20KT 10SM SCT080 26/16 A2989 RMK AO2 SLP066 T02560156,M
P68,2022-09-10 09:53,-116.0056,39.6014,1993.00,50.00,19.00,29.02,220.00,3.00,0.00,30.09,1010.60,M,M,M,M,M,M,M,M,M,M,M,M,M,M,M,M,M,50.00,KP68 100953Z AUTO 22003KT 10/M07 A3009 RMK AO1 SLP106 T01001072,M
ELY,2022-09-10 09:53,-114.8453,39.2950,1909.00,43.00,17.10,34.84,170.00,6.00,0.00,30.13,1010.90,10.00,M,CLR,M,M,M,M,M,M,M,M,M,M,M,M,M,M,38.78,KELY 100953Z AUTO 17006KT 10SM CLR 06/M08 A3013 RMK AO2 SLP109 T00611083,M
VGT,2022-09-10 09:53,-115.1933,36.2111,667.00,84.00,63.00,49.32,120.00,12.00,0.00,29.84,1009.00,10.00,M,CLR,M,M,M,M,M,M,M,M,M,M,M,M,M,M,84.99,KVGT 100953Z AUTO 12012KT 10SM CLR 29/17 A2984 RMK AO2 SLP090 T02890172,M
LOL,2022-09-10 09:53,-118.5701,40.0684,1192.43,65.00,10.00,11.45,20.00,5.00,0.00,29.93,1009.10,10.00,M,CLR,M,M,M,M,M,M,M,M,M,M,M,M,M,M,64.90,KLOL 100953Z AUTO 02005KT 10SM CLR 18/M12 A2993 RMK AO2 SLP091 T01831122,M
05U,2022-09-10 09:55,-116.0051,39.6042,1811.23,48.20,17.60,29.23,0.00,0.00,0.00,30.11,M,10.00,M,M,M,M,M,M,M,M,M,M,M,M,M,M,M,M,48.20,K05U 100955Z AUTO 00000KT 10SM 09/M08 A3011 RMK A01,M
MEV,2022-09-10 09:55,-119.7500,38.9963,1441.42,50.00,35.60,57.52,350.00,3.00,0.00,29.98,M,10.00,M,M,M,M,M,M,M,M,M,M,M,M,M,M,M,M,50.00,KMEV 100955Z AUTO 35003KT 10SM 10/02 A2998 RMK AO2,M
RTS,2022-09-10 09:55,-119.8764,39.6682,1539.00,53.60,17.60,23.93,330.00,4.00,0.00,30.01,M,10.00,M,OVC,M,M,M,5000.00,M,M,M,M,M,M,M,M,M,M,53.60,KRTS 100955Z AUTO 33004KT 10SM OVC050 12/M08 A3001 RMK AO2,M
HTH,2022-09-10 09:55,-118.6315,38.5448,1282.89,69.80,30.20,22.86,310.00,5.00,0.00,29.93,M,10.00,M,CLR,M,M,M,M,M,M,M,M,M,M,M,M,M,M,69.80,KHTH 100955Z AUTO 31005KT 10SM CLR 21/M01 A2993 RMK A01,M
BAM,2022-09-10 09:55,-116.8743,40.5990,1382.36,55.40,10.40,16.34,350.00,9.00,0.00,30.02,M,10.00,M,CLR,M,M,M,M,M,M,M,M,M,M,M,M,M,M,55.40,KBAM 100955Z AUTO 35009KT 10SM CLR 13/M12 A3002 RMK AO1,M
BVU,2022-09-10 09:55,-114.8611,35.9475,671.00,78.80,64.40,61.36,170.00,11.00,0.00,29.86,M,M,M,M,M,M,M,M,M,M,M,M,M,M,M,M,M,M,78.80,KBVU 100955Z AUTO 17011KT 26/18 A2986 RMK AO2 TSNO,M
CXP,2022-09-10 09:55,-119.7326,39.1923,1431.00,57.20,32.00,38.26,0.00,0.00,0.00,30.00,M,10.00,M,OVC,M,M,M,5500.00,M,M,M,M,M,M,M,M,M,M,57.20,KCXP 100955Z AUTO 00000KT 10SM OVC055 14/M00 A3000 RMK AO2,M
TMT,2022-09-10 09:55,-117.1971,39.4643,1749.34,40.60,22.10,47.31,200.00,7.00,0.00,30.07,M,10.00,M,CLR,M,M,M,M,M,M,M,M,M,M,M,M,M,M,35.26,KTMT 100955Z AUTO 20007KT 10SM CLR 05/M05 A3007 RMK AO2 T00481055,M
RNO,2022-09-10 09:55,-119.7711,39.4839,1341.00,63.00,38.00,39.36,0.00,0.00,0.00,29.96,1008.70,10.00,M,BKN,OVC,M,M,6500.00,9000.00,M,M,M,M,M,M,M,M,M,63.00,KRNO 100955Z 00000KT 10SM BKN065 OVC090 17/03 A2996 RMK AO2 SLP087 FU BKN065 FU OVC090 T01720033,M
NFL,2022-09-10 09:56,-118.7010,39.4166,1199.00,62.00,16.00,16.45,310.00,5.00,0.00,29.93,1010.90,5.00,M,CLR,M,M,M,M,M,M,M,HZ,M,M,M,M,M,M,62.10,KNFL 100956Z AUTO 31005KT 5SM HZ CLR 17/M09 A2993 RMK AO2 SLP109 T01671089,M
TPH,2022-09-10 09:56,-117.0904,38.0505,1654.00,70.00,54.00,56.82,160.00,6.00,0.00,30.02,1007.20,10.00,M,CLR,M,M,M,M,M,M,M,M,M,M,M,M,M,M,70.00,KTPH 100956Z AUTO 16006KT 10SM CLR 21/12 A3002 RMK AO2 SLP072 T02110122,M
LAS,2022-09-10 09:56,-115.1634,36.0719,663.00,81.00,63.00,54.36,170.00,8.00,0.00,29.85,1007.80,10.00,M,SCT,BKN,OVC,M,12000.00,15000.00,20000.00,M,M,M,M,M,M,M,M,82.28,KLAS 100956Z 17008KT 10SM SCT120 BKN150 OVC200 27/17 A2985 RMK AO2 SLP078 T02720172,M
WMC,2022-09-10 09:56,-117.8072,40.9019,1315.00,62.00,6.00,10.59,40.00,11.00,0.00,29.99,1010.70,10.00,18.00,CLR,M,M,M,M,M,M,M,M,M,M,M,M,M,M,62.10,KWMC 100956Z AUTO 04011G18KT 10SM CLR 17/M14 A2999 RMK AO2 SLP107 T01671144,M
INS,2022-09-10 09:56,-115.6733,36.5872,955.00,80.00,59.20,48.92,120.00,10.00,0.00,29.87,1006.00,10.00,M,OVC,M,M,M,17000.00,M,M,M,M,M,M,M,M,M,M,80.79,KINS 100956Z AUTO 12010KT 10SM OVC170 27/15 A2987 RMK AO2 SLP060 T02670151 $,M
LSV,2022-09-10 09:56,-115.0343,36.2362,570.00,83.30,63.00,50.62,170.00,17.00,0.00,29.82,1007.00,10.00,22.00,BKN,M,M,M,18000.00,M,M,M,M,M,M,M,M,M,M,84.38,KLSV 100956Z AUTO 17017G22KT 10SM BKN180 29/17 A2982 RMK AO2 SLP070 T02850173 $,M
EKO,2022-09-10 09:56,-115.7860,40.8242,1367.00,44.00,10.90,25.45,0.00,0.00,0.00,30.06,1013.50,10.00,M,CLR,M,M,M,M,M,M,M,M,M,M,M,M,M,M,44.10,KEKO 100956Z AUTO 00000KT 10SM CLR 07/M12 A3006 RMK AO2 SLP135 T00671117,M
HTH,2022-09-10 10:15,-118.6315,38.5448,1282.89,71.60,28.40,19.98,310.00,7.00,0.00,29.94,M,10.00,M,CLR,M,M,M,M,M,M,M,M,M,M,M,M,M,M,71.60,KHTH 101015Z AUTO 31007KT 10SM CLR 22/M02 A2994 RMK A01,M
BAM,2022-09-10 10:15,-116.8743,40.5990,1382.36,59.00,10.40,14.35,340.00,8.00,0.00,30.03,M,10.00,M,CLR,M,M,M,M,M,M,M,M,M,M,M,M,M,M,59.00,KBAM 101015Z AUTO 34008KT 10SM CLR 15/M12 A3003 RMK AO1,M
MEV,2022-09-10 10:15,-119.7500,38.9963,1441.42,48.20,32.00,53.27,90.00,4.00,0.00,29.98,M,10.00,M,M,M,M,M,M,M,M,M,M,M,M,M,M,M,M,46.34,KMEV 101015Z AUTO 09004KT 10SM 09/00 A2998 RMK AO2,M
05U,2022-09-10 10:15,-116.0051,39.6042,1811.23,48.20,14.00,24.99,0.00,0.00,0.00,30.11,M,10.00,M,M,M,M,M,M,M,M,M,M,M,M,M,M,M,M,48.20,K05U 101015Z AUTO 00000KT 10SM 09/M10 A3011 RMK A01,M
BVU,2022-09-10 10:15,-114.8611,35.9475,671.00,78.80,64.40,61.36,160.00,9.00,0.00,29.87,M,M,M,M,M,M,M,M,M,M,M,M,M,M,M,M,M,M,78.80,KBVU 101015Z AUTO 16009KT 26/18 A2987 RMK AO2 TSNO,M
RTS,2022-09-10 10:15,-119.8764,39.6682,1539.00,51.80,17.60,25.56,360.00,7.00,0.00,30.01,M,10.00,M,BKN,OVC,M,M,4400.00,4900.00,M,M,M,M,M,M,M,M,M,51.80,KRTS 101015Z AUTO 36007KT 10SM BKN044 OVC049 11/M08 A3001 RMK AO2,M
CXP,2022-09-10 10:15,-119.7326,39.1923,1431.00,57.20,28.40,33.05,0.00,0.00,0.00,30.00,M,10.00,M,OVC,M,M,M,5000.00,M,M,M,M,M,M,M,M,M,M,57.20,KCXP 101015Z AUTO 00000KT 10SM OVC050 14/M02 A3000 RMK AO2,M
TMT,2022-09-10 10:15,-117.1971,39.4643,1749.34,43.30,22.80,43.91,220.00,6.00,0.00,30.08,M,10.00,M,CLR,M,M,M,M,M,M,M,M,M,M,M,M,M,M,39.14,KTMT 101015Z AUTO 22006KT 10SM CLR 06/M05 A3008 RMK AO2 T00631051,M
05U,2022-09-10 10:35,-116.0051,39.6042,1811.23,48.20,17.60,29.23,80.00,4.00,0.00,30.11,M,10.00,M,M,M,M,M,M,M,M,M,M,M,M,M,M,M,M,46.34,K05U 101035Z AUTO 08004KT 10SM 09/M08 A3011 RMK A01,M
RTS,2022-09-10 10:35,-119.8764,39.6682,1539.00,55.40,19.40,24.21,0.00,0.00,0.00,30.02,M,10.00,M,OVC,M,M,M,4600.00,M,M,M,M,M,M,M,M,M,M,55.40,KRTS 101035Z AUTO 00000KT 10SM OVC046 13/M07 A3002 RMK AO2,M
CXP,2022-09-10 10:35,-119.7326,39.1923,1431.00,55.40,32.00,40.84,0.00,0.00,0.00,30.01,M,10.00,M,OVC,M,M,M,5000.00,M,M,M,M,M,M,M,M,M,M,55.40,KCXP 101035Z AUTO 00000KT 10SM OVC050 13/M00 A3001 RMK AO2,M
BVU,2022-09-10 10:35,-114.8611,35.9475,671.00,78.80,64.40,61.36,180.00,6.00,0.00,29.88,M,M,M,M,M,M,M,M,M,M,M,M,M,M,M,M,M,M,78.80,KBVU 101035Z AUTO 18006KT 26/18 A2988 RMK AO2 TSNO,M
TMT,2022-09-10 10:35,-117.1971,39.4643,1749.34,42.40,23.00,45.84,230.00,5.00,0.00,30.08,M,10.00,M,CLR,M,M,M,M,M,M,M,M,M,M,M,M,M,M,38.75,KTMT 101035Z AUTO 23005KT 10SM CLR 06/M05 A3008 RMK AO2 T00581050,M
HTH,2022-09-10 10:35,-118.6315,38.5448,1282.89,71.60,32.00,23.13,310.00,4.00,0.00,29.95,M,10.00,M,CLR,M,M,M,M,M,M,M,M,M,M,M,M,M,M,71.60,KHTH 101035Z AUTO 31004KT 10SM CLR 22/M00 A2995 RMK A01,M
BAM,2022-09-10 10:35,-116.8743,40.5990,1382.36,55.40,10.40,16.34,340.00,8.00,0.00,30.03,M,10.00,M,CLR,M,M,M,M,M,M,M,M,M,M,M,M,M,M,55.40,KBAM 101035Z AUTO 34008KT 10SM CLR 13/M12 A3003 RMK AO1,M
MEV,2022-09-10 10:35,-119.7500,38.9963,1441.42,51.80,30.20,43.32,0.00,0.00,0.00,29.99,M,10.00,M,M,M,M,M,M,M,M,M,M,M,M,M,M,M,M,51.80,KMEV 101035Z AUTO 00000KT 10SM 11/M01 A2999 RMK AO2,M
DRA,2022-09-10 10:53,-116.0278,36.6206,1009.00,78.00,61.00,55.71,310.00,6.00,0.00,29.90,1007.20,10.00,M,FEW,M,M,M,9000.00,M,M,M,M,M,M,M,M,M,M,78.10,KDRA 101053Z AUTO 31006KT 10SM FEW090 26/16 A2990 RMK AO2 SLP072 T02560161,M
ELY,2022-09-10 10:53,-114.8453,39.2950,1909.00,45.00,18.00,33.55,180.00,3.00,0.00,30.14,1011.30,10.00,M,CLR,M,M,M,M,M,M,M,M,M,M,M,M,M,M,43.55,KELY 101053Z AUTO 18003KT 10SM CLR 07/M08 A3014 RMK AO2 SLP113 T00721078,M
LOL,2022-09-10 10:53,-118.5701,40.0684,1192.43,62.00,9.00,12.07,20.00,4.00,0.00,29.95,1009.90,10.00,M,CLR,M,M,M,M,M,M,M,M,M,M,M,M,M,M,62.10,KLOL 101053Z AUTO 02004KT 10SM CLR 17/M13 A2995 RMK AO2 SLP099 T01671128,M
VGT,2022-09-10 10:53,-115.1933,36.2111,667.00,83.00,63.00,51.10,130.00,10.00,0.00,29.86,1009.60,10.00,M,CLR,M,M,M,M,M,M,M,M,M,M,M,M,M,M,83.98,KVGT 101053Z AUTO 13010KT 10SM CLR 28/17 A2986 RMK AO2 SLP096 T02830172,M
P68,2022-09-10 10:53,-116.0056,39.6014,1993.00,47.00,18.00,31.22,110.00,4.00,0.00,30.09,1011.30,M,M,M,M,M,M,M,M,M,M,M,M,M,M,M,M,M,44.82,KP68 101053Z AUTO 11004KT 08/M08 A3009 RMK AO1 SLP113 T00831078,M
HTH,2022-09-10 10:55,-118.6315,38.5448,1282.89,69.80,37.40,30.49,320.00,4.00,0.00,29.95,M,10.00,M,CLR,M,M,M,M,M,M,M,M,M,M,M,M,M,M,69.80,KHTH 101055Z AUTO 32004KT 10SM CLR 21/03 A2995 RMK A01,M
BVU,2022-09-10 10:55,-114.8611,35.9475,671.00,78.80,64.40,61.36,170.00,7.00,0.00,29.89,M,M,M,M,M,M,M,M,M,M,M,M,M,M,M,M,M,M,78.80,KBVU 101055Z AUTO 17007KT 26/18 A2989 RMK AO2 TSNO,M
CXP,2022-09-10 10:55,-119.7326,39.1923,1431.00,53.60,32.00,43.61,0.00,0.00,0.00,30.01,M,10.00,M,OVC,M,M,M,5000.00,M,M,M,M,M,M,M,M,M,M,53.60,KCXP 101055Z AUTO 00000KT 10SM OVC050 12/00 A3001 RMK AO2,M
RNO,2022-09-10 10:55,-119.7711,39.4839,1341.00,64.00,34.00,32.56,260.00,3.00,0.00,29.98,1009.10,10.00,M,OVC,M,M,M,6000.00,M,M,M,M,M,M,M,M,M,M,64.00,KRNO 101055Z COR 26003KT 10SM OVC060 18/01 A2998 RMK AO2 SLP091 FU OVC060 T01780011,M
RTS,2022-09-10 10:55,-119.8764,39.6682,1539.00,51.80,19.40,27.62,0.00,0.00,0.00,30.02,M,10.00,M,OVC,M,M,M,4700.00,M,M,M,M,M,M,M,M,M,M,51.80,KRTS 101055Z AUTO 00000KT 10SM OVC047 11/M07 A3002 RMK AO2,M
05U,2022-09-10 10:55,-116.0051,39.6042,1811.23,46.40,15.80,28.93,120.00,4.00,0.00,30.12,M,10.00,M,M,M,M,M,M,M,M,M,M,M,M,M,M,M,M,44.24,K05U 101055Z AUTO 12004KT 10SM 08/M09 A3012 RMK A01,M
MEV,2022-09-10 10:55,-119.7500,38.9963,1441.42,48.20,32.00,53.27,210.00,4.00,0.00,30.00,M,10.00,M,M,M,M,M,M,M,M,M,M,M,M,M,M,M,M,46.34,KMEV 101055Z AUTO 21004KT 10SM 09/00 A3000 RMK AO2,M
BAM,2022-09-10 10:55,-116.8743,40.5990,1382.36,55.40,10.40,16.34,360.00,6.00,0.00,30.04,M,10.00,M,CLR,M,M,M,M,M,M,M,M,M,M,M,M,M,M,55.40,KBAM 101055Z AUTO 36006KT 10SM CLR 13/M12 A3004 RMK AO1,M
TMT,2022-09-10 10:55,-117.1971,39.4643,1749.34,40.00,21.90,48.21,220.00,5.00,0.00,30.08,M,10.00,M,CLR,M,M,M,M,M,M,M,M,M,M,M,M,M,M,35.78,KTMT 101055Z AUTO 22005KT 10SM CLR 04/M06 A3008 RMK AO2 T00441056,M
INS,2022-09-10 10:56,-115.6733,36.5872,955.00,78.00,60.60,54.92,110.00,13.00,0.00,29.88,1006.50,10.00,16.00,OVC,M,M,M,18000.00,M,M,M,M,M,M,M,M,M,M,78.10,KINS 101056Z AUTO 11013G16KT 10SM OVC180 26/16 A2988 RMK AO2 SLP065 T02560159 $,M
LSV,2022-09-10 10:56,-115.0343,36.2362,570.00,82.40,63.50,52.86,180.00,15.00,0.00,29.84,1007.80,10.00,M,OVC,M,M,M,18000.00,M,M,M,M,M,M,M,M,M,M,83.68,KLSV 101056Z AUTO 18015KT 10SM OVC180 28/18 A2984 RMK AO2 SLP078 T02800175 $,M
EKO,2022-09-10 10:56,-115.7860,40.8242,1367.00,45.00,7.00,20.64,0.00,0.00,0.00,30.07,1013.60,10.00,M,CLR,M,M,M,M,M,M,M,M,M,M,M,M,M,M,45.00,KEKO 101056Z AUTO 00000KT 10SM CLR 07/M14 A3007 RMK AO2 SLP136 T00721139,M
LAS,2022-09-10 10:56,-115.1634,36.0719,663.00,80.00,63.00,55.98,160.00,8.00,0.00,29.87,1008.70,10.00,M,SCT,BKN,OVC,M,12000.00,15000.00,20000.00,M,M,M,M,M,M,M,M,81.50,KLAS 101056Z 16008KT 130V200 10SM SCT120 BKN150 OVC200 27/17 A2987 RMK AO2 SLP087 T02670172,M
TPH,2022-09-10 10:56,-117.0904,38.0505,1654.00,69.00,55.00,60.78,150.00,6.00,0.00,30.04,1007.80,10.00,M,CLR,M,M,M,M,M,M,M,M,M,M,M,M,M,M,69.10,KTPH 101056Z AUTO 15006KT 10SM CLR 21/13 A3004 RMK AO2 SLP078 T02060128,M
HND,2022-09-10 10:56,-115.1344,35.9729,742.79,77.00,64.00,64.21,170.00,7.00,0.00,29.91,1011.40,10.00,M,CLR,M,M,M,M,M,M,M,M,M,M,M,M,M,M,77.00,KHND 101056Z AUTO 17007KT 10SM CLR 25/18 A2991 RMK AO2 SLP114 T02500178,M
NFL,2022-09-10 10:56,-118.7010,39.4166,1199.00,59.00,24.10,25.93,320.00,7.00,0.00,29.94,1011.10,7.00,M,CLR,M,M,M,M,M,M,M,M,M,M,M,M,M,M,59.00,KNFL 101056Z AUTO 32007KT 7SM CLR 15/M04 A2994 RMK AO2 SLP111 T01501044,M
WMC,2022-09-10 10:56,-117.8072,40.9019,1315.00,59.00,9.00,13.48,40.00,11.00,0.00,29.99,1010.80,10.00,M,CLR,M,M,M,M,M,M,M,M,M,M,M,M,M,M,59.00,KWMC 101056Z AUTO 04011KT 10SM CLR 15/M13 A2999 RMK AO2 SLP108 T01501128,M
RTS,2022-09-10 11:15,-119.8764,39.6682,1539.00,50.00,19.40,29.52,30.00,3.00,0.00,30.03,M,10.00,M,OVC,M,M,M,4800.00,M,M,M,M,M,M,M,M,M,M,50.00,KRTS 101115Z AUTO 03003KT 10SM OVC048 10/M07 A3003 RMK AO2,M
05U,2022-09-10 11:15,-116.0051,39.6042,1811.23,42.80,15.80,33.18,0.00,0.00,0.00,30.12,M,10.00,M,M,M,M,M,M,M,M,M,M,M,M,M,M,M,M,42.80,K05U 101115Z AUTO 00000KT 10SM 06/M09 A3012 RMK A01,M
CXP,2022-09-10 11:15,-119.7326,39.1923,1431.00,53.60,32.00,43.61,0.00,0.00,0.00,30.01,M,10.00,M,OVC,M,M,M,5000.00,M,M,M,M,M,M,M,M,M,M,53.60,KCXP 101115Z AUTO 00000KT 10SM OVC050 12/00 A3001 RMK AO2,M
BVU,2022-09-10 11:15,-114.8611,35.9475,671.00,78.80,64.40,61.36,180.00,6.00,0.00,29.89,M,M,M,M,M,M,M,M,M,M,M,M,M,M,M,M,M,M,78.80,KBVU 101115Z AUTO 18006KT 26/18 A2989 RMK AO2 TSNO,M
TMT,2022-09-10 11:15,-117.1971,39.4643,1749.34,41.20,22.30,46.62,240.00,4.00,0.00,30.09,M,10.00,M,CLR,M,M,M,M,M,M,M,M,M,M,M,M,M,M,38.16,KTMT 101115Z AUTO 24004KT 10SM CLR 05/M05 A3009 RMK AO2 T00511054,M
MEV,2022-09-10 11:15,-119.7500,38.9963,1441.42,48.20,32.00,53.27,0.00,0.00,0.00,30.01,M,10.00,M,M,M,M,M,M,M,M,M,M,M,M,M,M,M,M,48.20,KMEV 101115Z AUTO 00000KT 10SM 09/M00 A3001 RMK AO2,M
BAM,2022-09-10 11:15,-116.8743,40.5990,1382.36,53.60,10.40,17.45,10.00,4.00,0.00,30.04,M,10.00,M,CLR,M,M,M,M,M,M,M,M,M,M,M,M,M,M,53.60,KBAM 101115Z AUTO 01004KT 10SM CLR 12/M12 A3004 RMK AO1,M
HTH,2022-09-10 11:15,-118.6315,38.5448,1282.89,68.00,33.80,28.11,290.00,5.00,0.00,29.96,M,10.00,M,CLR,M,M,M,M,M,M,M,M,M,M,M,M,M,M,68.00,KHTH 101115Z AUTO 29005KT 10SM CLR 20/01 A2996 RMK A01,M
MEV,2022-09-10 11:35,-119.7500,38.9963,1441.42,46.40,32.00,57.00,0.00,0.00,0.00,30.01,M,10.00,M,OVC,M,M,M,5500.00,M,M,M,M,M,M,M,M,M,M,46.40,KMEV 101135Z AUTO 00000KT 10SM OVC055 08/M00 A3001 RMK AO2,M
BVU,2022-09-10 11:35,-114.8611,35.9475,671.00,77.00,62.60,61.13,190.00,7.00,0.00,29.90,M,M,M,M,M,M,M,M,M,M,M,M,M,M,M,M,M,M,77.00,KBVU 101135Z AUTO 19007KT 25/17 A2990 RMK AO2 TSNO,M
CXP,2022-09-10 11:35,-119.7326,39.1923,1431.00,53.60,32.00,43.61,0.00,0.00,0.00,30.02,M,10.00,M,OVC,M,M,M,5500.00,M,M,M,M,M,M,M,M,M,M,53.60,KCXP 101135Z AUTO 00000KT 10SM OVC055 12/M00 A3002 RMK AO2,M
RTS,2022-09-10 11:35,-119.8764,39.6682,1539.00,50.00,21.20,31.87,360.00,5.00,0.00,30.03,M,10.00,M,BKN,OVC,M,M,4900.00,5500.00,M,M,M,M,M,M,M,M,M,50.00,KRTS 101135Z AUTO 36005KT 10SM BKN049 OVC055 10/M06 A3003 RMK AO2,M
TMT,2022-09-10 11:35,-117.1971,39.4643,1749.34,37.60,20.70,50.13,0.00,0.00,0.00,30.09,M,10.00,M,CLR,M,M,M,M,M,M,M,M,M,M,M,M,M,M,37.60,KTMT 101135Z AUTO 00000KT 10SM CLR 03/M06 A3009 RMK AO2 T00311063,M
05U,2022-09-10 11:35,-116.0051,39.6042,1811.23,41.00,15.80,35.57,0.00,0.00,0.00,30.12,M,10.00,M,M,M,M,M,M,M,M,M,M,M,M,M,M,M,M,41.00,K05U 101135Z AUTO 00000KT 10SM 05/M09 A3012 RMK A01,M
HTH,2022-09-10 11:35,-118.6315,38.5448,1282.89,68.00,28.40,22.59,310.00,7.00,0.00,29.97,M,10.00,M,CLR,M,M,M,M,M,M,M,M,M,M,M,M,M,M,68.00,KHTH 101135Z AUTO 31007KT 10SM CLR 20/M02 A2997 RMK A01,M
BAM,2022-09-10 11:35,-116.8743,40.5990,1382.36,50.00,10.40,19.93,40.00,3.00,0.00,30.04,M,10.00,M,CLR,M,M,M,M,M,M,M,M,M,M,M,M,M,M,50.00,KBAM 101135Z AUTO 04003KT 10SM CLR 10/M12 A3004 RMK AO1,M
LOL,2022-09-10 11:53,-118.5701,40.0684,1192.43,62.00,8.10,11.60,20.00,6.00,0.00,29.96,1010.10,10.00,M,CLR,M,M,M,M,M,M,M,M,M,M,M,M,M,M,62.10,KLOL 101153Z AUTO 02006KT 10SM CLR 17/M13 A2996 RMK AO2 SLP101 T01671133 10217 20156 51014,M
VGT,2022-09-10 11:53,-115.1933,36.2111,667.00,81.00,62.00,52.66,140.00,12.00,0.00,29.88,1010.50,10.00,M,CLR,M,M,M,M,M,M,M,M,M,M,M,M,M,M,82.06,KVGT 101153Z AUTO 14012KT 10SM CLR 27/17 A2988 RMK AO2 SLP105 T02720167 10317 20272 51019,M
DRA,2022-09-10 11:53,-116.0278,36.6206,1009.00,77.00,62.00,60.06,330.00,3.00,0.00,29.92,1007.90,10.00,M,SCT,M,M,M,8500.00,M,M,M,M,M,M,M,M,M,M,77.00,KDRA 101153Z AUTO 33003KT 10SM SCT085 25/17 A2992 RMK AO2 SLP079 T02500167 10283 20244 51017,M
P68,2022-09-10 11:53,-116.0056,39.6014,1993.00,46.00,18.00,32.30,0.00,0.00,0.00,30.11,1012.10,M,M,M,M,M,M,M,M,M,M,M,M,M,M,M,M,M,46.00,KP68 101153Z AUTO 00000KT 08/M08 A3011 RMK AO1 SLP121 T00781078 10139 20044 53008,M
ELY,2022-09-10 11:53,-114.8453,39.2950,1909.00,45.00,18.00,33.55,180.00,8.00,0.00,30.16,1011.80,10.00,M,CLR,M,M,M,M,M,M,M,M,M,M,M,M,M,M,40.13,KELY 101153Z AUTO 18008KT 10SM CLR 07/M08 A3016 RMK AO2 SLP118 T00721078 10167 20061 53011,M
RTS,2022-09-10 11:55,-119.8764,39.6682,1539.00,50.00,21.20,31.87,0.00,0.00,0.00,30.03,M,10.00,M,OVC,M,M,M,5000.00,M,M,M,M,M,M,M,M,M,M,50.00,KRTS 101155Z AUTO 00000KT 10SM OVC050 10/M06 A3003 RMK AO2,M
HTH,2022-09-10 11:55,-118.6315,38.5448,1282.89,66.20,30.20,25.88,0.00,0.00,0.00,29.98,M,10.00,M,CLR,M,M,M,M,M,M,M,M,M,M,M,M,M,M,66.20,KHTH 101155Z AUTO 00000KT 10SM CLR 19/M01 A2998 RMK A01,M
05U,2022-09-10 11:55,-116.0051,39.6042,1811.23,42.80,15.80,33.18,0.00,0.00,0.00,30.13,M,10.00,M,M,M,M,M,M,M,M,M,M,M,M,M,M,M,M,42.80,K05U 101155Z AUTO 00000KT 10SM 06/M09 A3013 RMK A01,M
MEV,2022-09-10 11:55,-119.7500,38.9963,1441.42,48.20,32.00,53.27,80.00,4.00,0.00,30.01,M,10.00,M,OVC,M,M,M,5500.00,M,M,M,M,M,M,M,M,M,M,46.34,KMEV 101155Z AUTO 08004KT 10SM OVC055 09/00 A3001 RMK AO2,M
RNO,2022-09-10 11:55,-119.7711,39.4839,1341.00,62.00,33.00,33.58,290.00,4.00,0.00,29.99,1009.60,10.00,M,OVC,M,M,M,6000.00,M,M,M,M,M,M,M,M,M,M,62.10,KRNO 101155Z 29004KT 10SM OVC060 17/01 A2999 RMK AO2 SLP096 FU OVC060 T01670006 10222 20161 53010,M
BVU,2022-09-10 11:55,-114.8611,35.9475,671.00,77.00,62.60,61.13,180.00,8.00,0.00,29.91,M,M,M,M,M,M,M,M,M,M,M,M,M,M,M,M,M,M,77.00,KBVU 101155Z AUTO 18008KT 25/17 A2991 RMK AO2 TSNO,M
CXP,2022-09-10 11:55,-119.7326,39.1923,1431.00,51.80,32.00,46.59,0.00,0.00,0.00,30.03,M,10.00,M,OVC,M,M,M,5500.00,M,M,M,M,M,M,M,M,M,M,51.80,KCXP 101155Z AUTO 00000KT 10SM OVC055 11/M00 A3003 RMK AO2,M
BAM,2022-09-10 11:55,-116.8743,40.5990,1382.36,46.40,12.20,24.71,20.00,3.00,0.00,30.05,M,10.00,M,CLR,M,M,M,M,M,M,M,M,M,M,M,M,M,M,45.15,KBAM 101155Z AUTO 02003KT 10SM CLR 08/M11 A3005 RMK AO1,M
TMT,2022-09-10 11:55,-117.1971,39.4643,1749.34,40.00,21.00,46.41,0.00,0.00,0.00,30.10,M,10.00,M,CLR,M,M,M,M,M,M,M,M,M,M,M,M,M,M,39.90,KTMT 101155Z AUTO 00000KT 10SM CLR 04/M06 A3010 RMK AO2 T00441061,M
EKO,2022-09-10 11:56,-115.7860,40.8242,1367.00,45.00,7.00,20.64,0.00,0.00,0.00,30.09,1014.40,10.00,M,CLR,M,M,M,M,M,M,M,M,M,M,M,M,M,M,45.00,KEKO 101156Z AUTO 00000KT 10SM CLR 07/M14 A3009 RMK AO2 SLP144 T00721139 10178 20044 53012,M
LAS,2022-09-10 11:56,-115.1634,36.0719,663.00,78.00,63.00,59.78,160.00,7.00,0.00,29.89,1009.40,10.00,M,SCT,BKN,OVC,M,12000.00,15000.00,20000.00,M,M,M,M,M,M,M,M,78.10,KLAS 101156Z 16007KT 10SM SCT120 BKN150 OVC200 26/17 A2989 RMK AO2 SLP094 T02560172 10306 20256 51020,M
INS,2022-09-10 11:56,-115.6733,36.5872,955.00,77.50,61.00,56.82,120.00,10.00,0.00,29.90,1007.30,10.00,M,BKN,OVC,M,M,15000.00,17000.00,M,M,M,M,M,M,M,M,M,77.50,KINS 101156Z AUTO 12010KT 10SM BKN150 OVC170 25/16 A2990 RMK AO2 SLP073 T02530161 10289 20251 52016 $,M
LSV,2022-09-10 11:56,-115.0343,36.2362,570.00,81.00,62.80,53.80,180.00,14.00,0.00,29.87,1008.90,10.00,M,OVC,M,M,M,18000.00,M,M,M,M,M,M,M,M,M,M,82.32,KLSV 101156Z AUTO 18014KT 10SM OVC180 27/17 A2987 RMK AO2 SLP089 T02730171 10313 20273 52020 $,M
WMC,2022-09-10 11:56,-117.8072,40.9019,1315.00,55.00,10.90,16.95,70.00,4.00,0.00,30.01,1011.70,10.00,M,CLR,M,M,M,M,M,M,M,M,M,M,M,M,M,M,55.00,KWMC 101156Z AUTO 07004KT 10SM CLR 13/M12 A3001 RMK AO2 SLP117 T01281117 10200 20111 53008,M
NFL,2022-09-10 11:56,-118.7010,39.4166,1199.00,54.00,23.00,29.67,170.00,4.00,0.00,29.96,1011.80,7.00,M,CLR,M,M,M,M,M,M,M,M,M,M,M,M,M,M,54.00,KNFL 101156Z AUTO 17004KT 7SM CLR 12/M05 A2996 RMK AO2 SLP118 T01221050 10194 20117 51016,M
HND,2022-09-10 11:56,-115.1344,35.9729,742.79,77.00,64.00,64.21,160.00,13.00,0.00,29.92,1011.70,10.00,M,CLR,M,M,M,M,M,M,M,M,M,M,M,M,M,M,77.00,KHND 101156Z AUTO 16013KT 10SM CLR 25/18 A2992 RMK AO2 SLP117 T02500178 10294 20250 53016,M
TPH,2022-09-10 11:56,-117.0904,38.0505,1654.00,67.00,55.00,65.56,110.00,5.00,0.00,30.06,1008.80,10.00,M,CLR,M,M,M,M,M,M,M,M,M,M,M,M,M,M,66.90,KTPH 101156Z AUTO 11005KT 10SM CLR 19/13 A3006 RMK AO2 SLP088 T01940128 10239 20194 53014,M
MEV,2022-09-10 12:15,-119.7500,38.9963,1441.42,50.00,33.80,53.54,0.00,0.00,0.00,30.02,M,10.00,M,OVC,M,M,M,5500.00,M,M,M,M,M,M,M,M,M,M,50.00,KMEV 101215Z AUTO 00000KT 10SM OVC055 10/01 A3002 RMK AO2,M
TMT,2022-09-10 12:15,-117.1971,39.4643,1749.34,41.20,21.20,44.50,0.00,0.00,0.00,30.10,M,10.00,M,CLR,M,M,M,M,M,M,M,M,M,M,M,M,M,M,41.20,KTMT 101215Z AUTO 00000KT 10SM CLR 05/M06 A3010 RMK AO2 T00511060,M
HTH,2022-09-10 12:15,-118.6315,38.5448,1282.89,68.00,30.20,24.32,0.00,0.00,0.00,29.98,M,10.00,M,CLR,M,M,M,M,M,M,M,M,M,M,M,M,M,M,68.00,KHTH 101215Z AUTO 00000KT 10SM CLR 20/M01 A2998 RMK A01,M
BAM,2022-09-10 12:15,-116.8743,40.5990,1382.36,48.20,12.20,23.09,350.00,4.00,0.00,30.05,M,10.00,M,CLR,M,M,M,M,M,M,M,M,M,M,M,M,M,M,46.34,KBAM 101215Z AUTO 35004KT 10SM CLR 09/M11 A3005 RMK AO1,M
05U,2022-09-10 12:15,-116.0051,39.6042,1811.23,42.80,15.80,33.18,150.00,3.00,0.00,30.13,M,10.00,M,M,M,M,M,M,M,M,M,M,M,M,M,M,M,M,41.03,K05U 101215Z AUTO 15003KT 10SM 06/M09 A3013 RMK A01,M
RTS,2022-09-10 12:15,-119.8764,39.6682,1539.00,51.80,19.40,27.62,0.00,0.00,0.00,30.04,M,10.00,M,OVC,M,M,M,5000.00,M,M,M,M,M,M,M,M,M,M,51.80,KRTS 101215Z AUTO 00000KT 10SM OVC050 11/M07 A3004 RMK AO2,M
CXP,2022-09-10 12:15,-119.7326,39.1923,1431.00,53.60,30.20,40.54,0.00,0.00,0.00,30.04,M,10.00,M,OVC,M,M,M,5500.00,M,M,M,M,M,M,M,M,M,M,53.60,KCXP 101215Z AUTO 00000KT 10SM OVC055 12/M01 A3004 RMK AO2,M
BVU,2022-09-10 12:15,-114.8611,35.9475,671.00,77.00,62.60,61.13,170.00,6.00,0.00,29.92,M,M,M,M,M,M,M,M,M,M,M,M,M,M,M,M,M,M,77.00,KBVU 101215Z AUTO 17006KT 25/17 A2992 RMK AO2 TSNO,M
05U,2022-09-10 12:35,-116.0051,39.6042,1811.23,44.60,15.80,30.98,150.00,4.00,0.00,30.14,M,10.00,M,M,M,M,M,M,M,M,M,M,M,M,M,M,M,M,42.13,K05U 101235Z AUTO 15004KT 10SM 07/M09 A3014 RMK A01,M
BVU,2022-09-10 12:35,-114.8611,35.9475,671.00,77.00,62.60,61.13,160.00,9.00,0.00,29.92,M,M,M,M,M,M,M,M,M,M,M,M,M,M,M,M,M,M,77.00,KBVU 101235Z AUTO 16009KT 25/17 A2992 RMK AO2 TSNO,M
HTH,2022-09-10 12:35,-118.6315,38.5448,1282.89,68.00,26.60,20.98,290.00,4.00,0.00,29.99,M,10.00,M,CLR,M,M,M,M,M,M,M,M,M,M,M,M,M,M,68.00,KHTH 101235Z AUTO 29004KT 10SM CLR 20/M03 A2999 RMK A01,M
TMT,2022-09-10 12:35,-117.1971,39.4643,1749.34,41.40,21.20,44.16,0.00,0.00,0.00,30.10,M,10.00,M,CLR,M,M,M,M,M,M,M,M,M,M,M,M,M,M,41.40,KTMT 101235Z AUTO 00000KT 10SM CLR 05/M06 A3010 RMK AO2 LTG DSNT SW T00521060,M
MEV,2022-09-10 12:35,-119.7500,38.9963,1441.42,46.40,33.80,61.28,0.00,0.00,0.00,30.02,M,7.00,M,OVC,M,M,M,5000.00,M,M,M,M,M,M,M,M,M,M,46.40,KMEV 101235Z AUTO 00000KT 7SM OVC050 08/01 A3002 RMK AO2,M
RTS,2022-09-10 12:35,-119.8764,39.6682,1539.00,51.80,24.80,34.69,0.00,0.00,0.00,30.05,M,10.00,M,OVC,M,M,M,4900.00,M,M,M,M,M,M,M,M,M,M,51.80,KRTS 101235Z AUTO 00000KT 10SM OVC049 11/M04 A3005 RMK AO2,M
CXP,2022-09-10 12:35,-119.7326,39.1923,1431.00,53.60,30.20,40.54,0.00,0.00,0.00,30.04,M,10.00,M,OVC,M,M,M,5500.00,M,M,M,M,M,M,M,M,M,M,53.60,KCXP 101235Z AUTO 00000KT 10SM OVC055 12/M01 A3004 RMK AO2,M
BAM,2022-09-10 12:35,-116.8743,40.5990,1382.36,46.40,12.20,24.71,350.00,5.00,0.00,30.05,M,10.00,M,CLR,M,M,M,M,M,M,M,M,M,M,M,M,M,M,43.50,KBAM 101235Z AUTO 35005KT 10SM CLR 08/M11 A3005 RMK AO1,M
LOL,2022-09-10 12:53,-118.5701,40.0684,1192.43,62.00,8.10,11.60,10.00,10.00,0.00,29.98,1011.00,10.00,M,CLR,M,M,M,M,M,M,M,M,M,M,M,M,M,M,62.10,KLOL 101253Z AUTO 01010KT 10SM CLR 17/M13 A2998 RMK AO2 SLP110 T01671133,M
P68,2022-09-10 12:53,-116.0056,39.6014,1993.00,42.00,16.00,34.39,0.00,0.00,0.00,30.13,1013.40,M,M,M,M,M,M,M,M,M,M,M,M,M,M,M,M,M,42.10,KP68 101253Z AUTO 00000KT 06/M09 A3013 RMK AO1 SLP134 T00561089,M
VGT,2022-09-10 12:53,-115.1933,36.2111,667.00,81.00,62.00,52.66,150.00,8.00,0.00,29.90,1011.40,10.00,M,CLR,M,M,M,M,M,M,M,M,M,M,M,M,M,M,82.06,KVGT 101253Z 15008KT 10SM CLR 27/17 A2990 RMK AO2 SLP114 T02720167,M
ELY,2022-09-10 12:53,-114.8453,39.2950,1909.00,42.00,18.00,37.49,200.00,3.00,0.00,30.17,1013.30,9.00,M,CLR,M,M,M,M,M,M,M,M,M,M,M,M,M,M,40.23,KELY 101253Z AUTO 20003KT 9SM CLR 06/M08 A3017 RMK AO2 SLP133 T00561078,M
DRA,2022-09-10 12:53,-116.0278,36.6206,1009.00,77.00,62.00,60.06,340.00,4.00,0.00,29.94,1008.70,10.00,M,SCT,M,M,M,8500.00,M,M,M,M,M,M,M,M,M,M,77.00,KDRA 101253Z AUTO 34004KT 10SM SCT085 25/17 A2994 RMK AO2 SLP087 T02500167,M
HTH,2022-09-10 12:55,-118.6315,38.5448,1282.89,66.20,30.20,25.88,280.00,6.00,0.00,29.99,M,10.00,M,CLR,M,M,M,M,M,M,M,M,M,M,M,M,M,M,66.20,KHTH 101255Z AUTO 28006KT 10SM CLR 19/M01 A2999 RMK A01,M
BVU,2022-09-10 12:55,-114.8611,35.9475,671.00,77.00,62.60,61.13,160.00,10.00,0.00,29.93,M,M,M,M,M,M,M,M,M,M,M,M,M,M,M,M,M,M,77.00,KBVU 101255Z AUTO 16010KT 25/17 A2993 RMK AO2 TSNO,M
CXP,2022-09-10 12:55,-119.7326,39.1923,1431.00,51.80,32.00,46.59,0.00,0.00,0.00,30.04,M,10.00,M,OVC,M,M,M,5500.00,M,M,M,M,M,M,M,M,M,M,51.80,KCXP 101255Z AUTO 00000KT 10SM OVC055 11/M00 A3004 RMK AO2,M
TMT,2022-09-10 12:55,-117.1971,39.4643,1749.34,36.00,18.30,48.19,190.00,3.00,0.00,30.11,M,10.00,M,CLR,M,M,M,M,M,M,M,M,M,M,M,M,M,M,33.26,KTMT 101255Z AUTO 19003KT 10SM CLR 02/M08 A3011 RMK AO2 T00221076,M
RNO,2022-09-10 12:55,-119.7711,39.4839,1341.00,58.00,39.00,49.26,170.00,3.00,0.00,30.01,1010.80,10.00,M,BKN,OVC,M,M,6000.00,9000.00,M,M,M,M,M,M,M,M,M,57.90,KRNO 101255Z 17003KT 10SM BKN060 OVC090 14/04 A3001 RMK AO2 SLP108 FU BKN060 FU OVC090 T01440039,M
RTS,2022-09-10 12:55,-119.8764,39.6682,1539.00,50.00,19.40,29.52,0.00,0.00,0.00,30.05,M,10.00,M,OVC,M,M,M,5000.00,M,M,M,M,M,M,M,M,M,M,50.00,KRTS 101255Z AUTO 00000KT 10SM OVC050 10/M07 A3005 RMK AO2,M
05U,2022-09-10 12:55,-116.0051,39.6042,1811.23,42.80,14.00,30.68,0.00,0.00,0.00,30.15,M,10.00,M,M,M,M,M,M,M,M,M,M,M,M,M,M,M,M,42.80,K05U 101255Z AUTO 00000KT 10SM 06/M10 A3015 RMK A01,M
MEV,2022-09-10 12:55,-119.7500,38.9963,1441.42,48.20,32.00,53.27,0.00,0.00,0.00,30.03,M,10.00,M,OVC,M,M,M,5500.00,M,M,M,M,M,M,M,M,M,M,48.20,KMEV 101255Z AUTO 00000KT 10SM OVC055 09/00 A3003 RMK AO2,M
BAM,2022-09-10 12:55,-116.8743,40.5990,1382.36,44.60,12.20,26.45,360.00,3.00,0.00,30.06,M,10.00,M,CLR,M,M,M,M,M,M,M,M,M,M,M,M,M,M,43.09,KBAM 101255Z AUTO 36003KT 10SM CLR 07/M11 A3006 RMK AO1,M
INS,2022-09-10 12:56,-115.6733,36.5872,955.00,76.30,60.40,57.88,120.00,10.00,0.00,29.92,1008.00,10.00,M,OVC,M,M,M,15000.00,M,M,M,M,M,M,M,M,M,M,76.30,KINS 101256Z AUTO 12010KT 10SM OVC150 25/16 A2992 RMK AO2 SLP080 T02460158 $,M
WMC,2022-09-10 12:56,-117.8072,40.9019,1315.00,48.00,10.90,21.96,20.00,5.00,0.00,30.03,1012.80,9.00,M,CLR,M,M,M,M,M,M,M,M,M,M,M,M,M,M,45.40,KWMC 101256Z AUTO 02005KT 9SM CLR 09/M12 A3003 RMK AO2 SLP128 T00891117,M
HND,2022-09-10 12:56,-115.1344,35.9729,742.79,76.00,61.00,59.92,150.00,12.00,0.00,29.94,1012.70,10.00,18.00,CLR,M,M,M,M,M,M,M,M,M,M,M,M,M,M,75.90,KHND 101256Z AUTO 15012G18KT 10SM CLR 24/16 A2994 RMK AO2 SLP127 T02440161,M
TPH,2022-09-10 12:56,-117.0904,38.0505,1654.00,66.00,55.00,67.64,120.00,7.00,0.00,30.07,1009.60,10.00,M,CLR,M,M,M,M,M,M,M,M,M,M,M,M,M,M,66.00,KTPH 101256Z AUTO 12007KT 10SM CLR 19/13 A3007 RMK AO2 SLP096 T01890128,M
NFL,2022-09-10 12:56,-118.7010,39.4166,1199.00,53.00,27.00,36.22,200.00,4.00,0.00,29.98,1012.20,8.00,M,CLR,M,M,M,M,M,M,M,M,M,M,M,M,M,M,53.10,KNFL 101256Z AUTO 20004KT 8SM CLR 12/M03 A2998 RMK AO2 SLP122 T01171028,M
LSV,2022-09-10 12:56,-115.0343,36.2362,570.00,80.80,62.60,53.95,160.00,8.00,0.00,29.89,1009.60,10.00,M,OVC,M,M,M,17000.00,M,M,M,M,M,M,M,M,M,M,82.01,KLSV 101256Z AUTO 16008KT 10SM OVC170 27/17 A2989 RMK AO2 SLP096 T02710170 $,M
LAS,2022-09-10 12:56,-115.1634,36.0719,663.00,79.00,62.00,56.23,180.00,6.00,0.00,29.91,1010.00,10.00,M,FEW,BKN,BKN,M,9000.00,14000.00,18000.00,M,M,M,M,M,M,M,M,79.00,KLAS 101256Z 18006KT 10SM FEW090 BKN140 BKN180 26/17 A2991 RMK AO2 SLP100 T02610167,M
EKO,2022-09-10 12:56,-115.7860,40.8242,1367.00,39.00,14.00,35.54,0.00,0.00,0.00,30.11,1015.60,10.00,M,CLR,M,M,M,M,M,M,M,M,M,M,M,M,M,M,39.00,KEKO 101256Z AUTO 00000KT 10SM CLR 04/M10 A3011 RMK AO2 SLP156 T00391100,M
MEV,2022-09-10 13:15,-119.7500,38.9963,1441.42,44.60,30.20,56.74,0.00,0.00,0.00,30.03,M,9.00,M,OVC,M,M,M,5500.00,M,M,M,M,M,M,M,M,M,M,44.60,KMEV 101315Z AUTO 00000KT 9SM OVC055 07/M01 A3003 RMK AO2,M
BAM,2022-09-10 13:15,-116.8743,40.5990,1382.36,44.60,12.20,26.45,0.00,0.00,0.00,30.07,M,10.00,M,CLR,M,M,M,M,M,M,M,M,M,M,M,M,M,M,44.60,KBAM 101315Z AUTO 00000KT 10SM CLR 07/M11 A3007 RMK AO1,M
HTH,2022-09-10 13:15,-118.6315,38.5448,1282.89,66.20,33.80,29.92,330.00,4.00,0.00,30.00,M,10.00,M,CLR,M,M,M,M,M,M,M,M,M,M,M,M,M,M,66.20,KHTH 101315Z AUTO 33004KT 10SM CLR 19/01 A3000 RMK A01,M
TMT,2022-09-10 13:15,-117.1971,39.4643,1749.34,34.50,17.20,48.79,170.00,3.00,0.00,30.11,M,10.00,M,CLR,M,M,M,M,M,M,M,M,M,M,M,M,M,M,31.55,KTMT 101315Z AUTO 17003KT 10SM CLR 01/M08 A3011 RMK AO2 T00141082,M
BVU,2022-09-10 13:15,-114.8611,35.9475,671.00,77.00,62.60,61.13,160.00,11.00,0.00,29.94,M,M,M,M,M,M,M,M,M,M,M,M,M,M,M,M,M,M,77.00,KBVU 101315Z AUTO 16011KT 25/17 A2994 RMK AO2 TSNO,M
CXP,2022-09-10 13:15,-119.7326,39.1923,1431.00,50.00,32.00,49.81,0.00,0.00,0.00,30.05,M,10.00,M,OVC,M,M,M,5500.00,M,M,M,M,M,M,M,M,M,M,50.00,KCXP 101315Z AUTO 00000KT 10SM OVC055 10/00 A3005 RMK AO2,M
RTS,2022-09-10 13:15,-119.8764,39.6682,1539.00,51.80,21.20,29.82,340.00,3.00,0.00,30.05,M,10.00,M,OVC,M,M,M,4900.00,M,M,M,M,M,M,M,M,M,M,51.80,KRTS 101315Z AUTO 34003KT 10SM OVC049 11/M06 A3005 RMK AO2,M
05U,2022-09-10 13:15,-116.0051,39.6042,1811.23,41.00,15.80,35.57,0.00,0.00,0.00,30.15,M,9.00,M,M,M,M,M,M,M,M,M,M,M,M,M,M,M,M,41.00,K05U 101315Z AUTO 00000KT 9SM 05/M09 A3015 RMK A01,M
CXP,2022-09-10 13:30,-119.7326,39.1923,1431.00,51.80,32.00,46.59,0.00,0.00,0.00,30.05,M,10.00,M,OVC,M,M,M,5000.00,M,M,M,M,M,M,M,M,M,M,51.80,KCXP 101330Z AUTO 00000KT 10SM OVC050 11/M00 A3005 RMK AO2,M
MEV,2022-09-10 13:35,-119.7500,38.9963,1441.42,42.80,30.20,60.79,130.00,5.00,0.00,30.04,M,10.00,M,M,M,M,M,M,M,M,M,M,M,M,M,M,M,M,39.22,KMEV 101335Z AUTO 13005KT 10SM 06/M01 A3004 RMK AO2,M
TMT,2022-09-10 13:35,-117.1971,39.4643,1749.34,37.20,21.90,53.58,0.00,0.00,0.00,30.12,M,10.00,M,CLR,M,M,M,M,M,M,M,M,M,M,M,M,M,M,37.20,KTMT 101335Z AUTO 00000KT 10SM CLR 03/M06 A3012 RMK AO2 T00291056,M
BVU,2022-09-10 13:35,-114.8611,35.9475,671.00,77.00,62.60,61.13,150.00,9.00,0.00,29.95,M,M,M,M,M,M,M,M,M,M,M,M,M,M,M,M,M,M,77.00,KBVU 101335Z AUTO 15009KT 25/17 A2995 RMK AO2 TSNO,M
BAM,2022-09-10 13:35,-116.8743,40.5990,1382.36,46.40,10.40,22.81,20.00,8.00,0.00,30.07,M,10.00,M,CLR,M,M,M,M,M,M,M,M,M,M,M,M,M,M,41.85,KBAM 101335Z AUTO 02008KT 10SM CLR 08/M12 A3007 RMK AO1,M
HTH,2022-09-10 13:35,-118.6315,38.5448,1282.89,62.60,33.80,33.93,140.00,5.00,0.00,30.01,M,10.00,M,CLR,M,M,M,M,M,M,M,M,M,M,M,M,M,M,62.60,KHTH 101335Z AUTO 14005KT 10SM CLR 17/01 A3001 RMK A01,M
RTS,2022-09-10 13:35,-119.8764,39.6682,1539.00,50.00,17.60,27.33,330.00,4.00,0.00,30.06,M,10.00,M,OVC,M,M,M,4800.00,M,M,M,M,M,M,M,M,M,M,50.00,KRTS 101335Z AUTO 33004KT 10SM OVC048 10/M08 A3006 RMK AO2,M
05U,2022-09-10 13:35,-116.0051,39.6042,1811.23,41.00,14.00,32.88,0.00,0.00,0.00,30.16,M,9.00,M,M,M,M,M,M,M,M,M,M,M,M,M,M,M,M,41.00,K05U 101335Z AUTO 00000KT 9SM 05/M10 A3016 RMK A01,M
ELY,2022-09-10 13:53,-114.8453,39.2950,1909.00,43.00,21.00,41.17,170.00,7.00,0.00,30.20,1014.90,9.00,M,CLR,M,M,M,M,M,M,M,M,M,M,M,M,M,M,38.19,KELY 101353Z AUTO 17007KT 9SM CLR 06/M06 A3020 RMK AO2 SLP149 T00611061 $,M
VGT,2022-09-10 13:53,-115.1933,36.2111,667.00,81.00,61.00,50.65,140.00,8.00,0.00,29.93,1012.30,10.00,M,SCT,M,M,M,5000.00,M,M,M,M,M,M,M,M,M,M,81.81,KVGT 101353Z 14008KT 10SM SCT050 27/16 A2993 RMK AO2 SLP123 T02720161,M
LOL,2022-09-10 13:53,-118.5701,40.0684,1192.43,61.00,8.10,12.06,30.00,5.00,0.00,30.00,1012.20,10.00,M,CLR,M,M,M,M,M,M,M,M,M,M,M,M,M,M,61.00,KLOL 101353Z AUTO 03005KT 10SM CLR 16/M13 A3000 RMK AO2 SLP122 T01611133,M
DRA,2022-09-10 13:53,-116.0278,36.6206,1009.00,75.00,63.00,66.27,320.00,4.00,0.00,29.96,1009.60,10.00,M,FEW,M,M,M,10000.00,M,M,M,M,M,M,M,M,M,M,75.00,KDRA 101353Z AUTO 32004KT 10SM FEW100 24/17 A2996 RMK AO2 SLP096 T02390172,M
P68,2022-09-10 13:53,-116.0056,39.6014,1993.00,43.00,17.10,34.84,0.00,0.00,0.00,30.15,1015.00,M,M,M,M,M,M,M,M,M,M,M,M,M,M,M,M,M,43.00,KP68 101353Z AUTO 00000KT 06/M08 A3015 RMK AO1 SLP150 T00611083,M
TMT,2022-09-10 13:55,-117.1971,39.4643,1749.34,39.70,22.50,49.83,0.00,0.00,0.00,30.13,M,10.00,M,CLR,M,M,M,M,M,M,M,M,M,M,M,M,M,M,39.70,KTMT 101355Z AUTO 00000KT 10SM CLR 04/M05 A3013 RMK AO2 T00431053,M
HTH,2022-09-10 13:55,-118.6315,38.5448,1282.89,66.20,33.80,29.92,0.00,0.00,0.00,30.02,M,9.00,M,CLR,M,M,M,M,M,M,M,M,M,M,M,M,M,M,66.20,KHTH 101355Z AUTO 00000KT 9SM CLR 19/01 A3002 RMK A01,M
RTS,2022-09-10 13:55,-119.8764,39.6682,1539.00,48.20,17.60,29.23,310.00,4.00,0.00,30.06,M,10.00,M,BKN,M,M,M,4600.00,M,M,M,M,M,M,M,M,M,M,46.34,KRTS 101355Z AUTO 31004KT 10SM BKN046 09/M08 A3006 RMK AO2,M
BVU,2022-09-10 13:55,-114.8611,35.9475,671.00,77.00,62.60,61.13,170.00,9.00,0.00,29.96,M,M,M,M,M,M,M,M,M,M,M,M,M,M,M,M,M,M,77.00,KBVU 101355Z AUTO 17009KT 25/17 A2996 RMK AO2 TSNO,M
05U,2022-09-10 13:55,-116.0051,39.6042,1811.23,41.00,14.00,32.88,0.00,0.00,0.00,30.17,M,9.00,M,M,M,M,M,M,M,M,M,M,M,M,M,M,M,M,41.00,K05U 101355Z AUTO 00000KT 9SM 05/M10 A3017 RMK A01,M
BAM,2022-09-10 13:55,-116.8743,40.5990,1382.36,53.60,10.40,17.45,360.00,5.00,0.00,30.08,M,10.00,M,CLR,M,M,M,M,M,M,M,M,M,M,M,M,M,M,53.60,KBAM 101355Z AUTO 36005KT 10SM CLR 12/M12 A3008 RMK AO1,M
MEV,2022-09-10 13:55,-119.7500,38.9963,1441.42,44.60,32.00,61.03,100.00,5.00,0.00,30.05,M,10.00,M,M,M,M,M,M,M,M,M,M,M,M,M,M,M,M,41.36,KMEV 101355Z AUTO 10005KT 10SM 07/M00 A3005 RMK AO2,M
RNO,2022-09-10 13:55,-119.7711,39.4839,1341.00,57.00,38.00,48.73,0.00,0.00,0.00,30.02,1011.50,10.00,M,BKN,BKN,M,M,6000.00,11000.00,M,M,M,M,M,M,M,M,M,57.00,KRNO 101355Z 00000KT 10SM BKN060 BKN110 14/03 A3002 RMK AO2 SLP115 FU BKN060 FU HZ OBSCG MTNS DSNT S THRU SW AND W T01390033,M
CXP,2022-09-10 13:55,-119.7326,39.1923,1431.00,51.80,30.20,43.32,0.00,0.00,0.00,30.06,M,9.00,M,OVC,M,M,M,5000.00,M,M,M,M,M,M,M,M,M,M,51.80,KCXP 101355Z AUTO 00000KT 9SM OVC050 11/M01 A3006 RMK AO2,M
LAS,2022-09-10 13:56,-115.1634,36.0719,663.00,78.00,61.00,55.71,170.00,7.00,0.00,29.94,1011.20,10.00,M,FEW,BKN,BKN,M,9000.00,14000.00,18000.00,M,M,M,M,M,M,M,M,78.10,KLAS 101356Z 17007KT 10SM FEW090 BKN140 BKN180 26/16 A2994 RMK AO2 SLP112 T02560161,M
WMC,2022-09-10 13:56,-117.8072,40.9019,1315.00,41.00,18.00,39.12,0.00,0.00,0.00,30.06,1014.60,8.00,M,CLR,M,M,M,M,M,M,M,M,M,M,M,M,M,M,41.00,KWMC 101356Z AUTO 00000KT 8SM CLR 05/M08 A3006 RMK AO2 SLP146 T00501078,M
HND,2022-09-10 13:56,-115.1344,35.9729,742.79,76.00,62.00,62.30,170.00,12.00,0.00,29.97,1013.60,10.00,M,CLR,M,M,M,M,M,M,M,M,M,M,M,M,M,M,75.90,KHND 101356Z 17012KT 10SM CLR 24/17 A2997 RMK AO2 SLP136 T02440167,M
LSV,2022-09-10 13:56,-115.0343,36.2362,570.00,80.00,62.00,53.85,140.00,10.00,0.00,29.92,1010.70,10.00,M,FEW,OVC,M,M,12000.00,17000.00,M,M,M,M,M,M,M,M,M,81.27,KLSV 101356Z AUTO 14010KT 10SM FEW120 OVC170 27/17 A2992 RMK AO2 SLP107 T02670166 $,M
NFL,2022-09-10 13:56,-118.7010,39.4166,1199.00,52.00,30.00,42.65,0.00,0.00,0.00,30.00,1013.00,5.00,M,SCT,BKN,M,M,1500.00,18000.00,M,M,HZ,M,M,M,M,M,M,52.00,KNFL 101356Z 00000KT 5SM HZ SCT015 BKN180 11/M01 A3000 RMK AO2 SLP130 FU SCT015 T01111011,M
EKO,2022-09-10 13:56,-115.7860,40.8242,1367.00,43.00,12.90,29.00,80.00,3.00,0.00,30.12,1016.30,7.00,M,CLR,M,M,M,M,M,M,M,M,M,M,M,M,M,M,41.26,KEKO 101356Z AUTO 08003KT 7SM CLR 06/M11 A3012 RMK AO2 SLP163 T00611106,M
TPH,2022-09-10 13:56,-117.0904,38.0505,1654.00,66.00,55.00,67.64,110.00,5.00,0.00,30.09,1010.70,10.00,M,FEW,M,M,M,11000.00,M,M,M,M,M,M,M,M,M,M,66.00,KTPH 101356Z AUTO 11005KT 10SM FEW110 19/13 A3009 RMK AO2 SLP107 T01890128,M
INS,2022-09-10 13:56,-115.6733,36.5872,955.00,75.60,60.30,59.04,100.00,12.00,0.00,29.95,1009.20,10.00,M,OVC,M,M,M,17000.00,M,M,M,M,M,M,M,M,M,M,75.60,KINS 101356Z AUTO 10012KT 10SM OVC170 24/16 A2995 RMK AO2 SLP092 T02420157 $,M
BAM,2022-09-10 14:15,-116.8743,40.5990,1382.36,53.60,10.40,17.45,60.00,5.00,0.00,30.08,M,10.00,M,CLR,M,M,M,M,M,M,M,M,M,M,M,M,M,M,53.60,KBAM 101415Z AUTO 06005KT 10SM CLR 12/M12 A3008 RMK AO1,M
BVU,2022-09-10 14:15,-114.8611,35.9475,671.00,77.00,62.60,61.13,160.00,7.00,0.00,29.97,M,M,M,M,M,M,M,M,M,M,M,M,M,M,M,M,M,M,77.00,KBVU 101415Z AUTO 16007KT 25/17 A2997 RMK AO2 TSNO,M
CXP,2022-09-10 14:15,-119.7326,39.1923,1431.00,50.00,33.80,53.54,0.00,0.00,0.00,30.07,M,10.00,M,OVC,M,M,M,5000.00,M,M,M,M,M,M,M,M,M,M,50.00,KCXP 101415Z AUTO 00000KT 10SM OVC050 10/01 A3007 RMK AO2,M
RTS,2022-09-10 14:15,-119.8764,39.6682,1539.00,48.20,17.60,29.23,350.00,4.00,0.00,30.07,M,10.00,M,FEW,M,M,M,4300.00,M,M,M,M,M,M,M,M,M,M,46.34,KRTS 101415Z AUTO 35004KT 10SM FEW043 09/M08 A3007 RMK AO2,M
05U,2022-09-10 14:15,-116.0051,39.6042,1811.23,42.80,15.80,33.18,200.00,3.00,0.00,30.17,M,10.00,M,M,M,M,M,M,M,M,M,M,M,M,M,M,M,M,41.03,K05U 101415Z AUTO 20003KT 10SM 06/M09 A3017 RMK A01,M
MEV,2022-09-10 14:15,-119.7500,38.9963,1441.42,44.60,32.00,61.03,110.00,5.00,0.00,30.05,M,10.00,M,FEW,M,M,M,5500.00,M,M,M,M,M,M,M,M,M,M,41.36,KMEV 101415Z AUTO 11005KT 10SM FEW055 07/M00 A3005 RMK AO2,M
HTH,2022-09-10 14:15,-118.6315,38.5448,1282.89,64.40,26.60,23.77,230.00,5.00,0.00,30.02,M,8.00,M,CLR,M,M,M,M,M,M,M,M,M,M,M,M,M,M,64.40,KHTH 101415Z AUTO 23005KT 8SM CLR 18/M03 A3002 RMK A01,M
TMT,2022-09-10 14:15,-117.1971,39.4643,1749.34,41.40,23.20,48.04,0.00,0.00,0.00,30.13,M,10.00,M,CLR,M,M,M,M,M,M,M,M,M,M,M,M,M,M,41.40,KTMT 101415Z AUTO 00000KT 10SM CLR 05/M05 A3013 RMK AO2 T00521049,M
RTS,2022-09-10 14:35,-119.8764,39.6682,1539.00,50.00,19.40,29.52,0.00,0.00,0.00,30.08,M,10.00,M,CLR,M,M,M,M,M,M,M,M,M,M,M,M,M,M,50.00,KRTS 101435Z AUTO 00000KT 10SM CLR 10/M07 A3008 RMK AO2,M
05U,2022-09-10 14:35,-116.0051,39.6042,1811.23,48.20,15.80,27.04,0.00,0.00,0.00,30.18,M,9.00,M,M,M,M,M,M,M,M,M,M,M,M,M,M,M,M,48.20,K05U 101435Z AUTO 00000KT 9SM 09/M09 A3018 RMK A01,M
BVU,2022-09-10 14:35,-114.8611,35.9475,671.00,77.00,62.60,61.13,170.00,8.00,0.00,29.98,M,M,M,M,M,M,M,M,M,M,M,M,M,M,M,M,M,M,77.00,KBVU 101435Z AUTO 17008KT 25/17 A2998 RMK AO2 TSNO,M
TMT,2022-09-10 14:35,-117.1971,39.4643,1749.34,42.30,23.40,46.80,0.00,0.00,0.00,30.15,M,10.00,M,CLR,M,M,M,M,M,M,M,M,M,M,M,M,M,M,42.30,KTMT 101435Z AUTO 00000KT 10SM CLR 06/M05 A3015 RMK AO2 T00571048,M
HTH,2022-09-10 14:35,-118.6315,38.5448,1282.89,66.20,30.20,25.88,260.00,4.00,0.00,30.03,M,10.00,M,CLR,M,M,M,M,M,M,M,M,M,M,M,M,M,M,66.20,KHTH 101435Z AUTO 26004KT 10SM CLR 19/M01 A3003 RMK A01,M
BAM,2022-09-10 14:35,-116.8743,40.5990,1382.36,55.40,12.20,17.70,20.00,5.00,0.00,30.09,M,10.00,M,CLR,M,M,M,M,M,M,M,M,M,M,M,M,M,M,55.40,KBAM 101435Z AUTO 02005KT 10SM CLR 13/M11 A3009 RMK AO1,M
MEV,2022-09-10 14:35,-119.7500,38.9963,1441.42,46.40,32.00,57.00,0.00,0.00,0.00,30.07,M,10.00,M,CLR,M,M,M,M,M,M,M,M,M,M,M,M,M,M,46.40,KMEV 101435Z AUTO 00000KT 10SM CLR 08/M00 A3007 RMK AO2,M
CXP,2022-09-10 14:35,-119.7326,39.1923,1431.00,51.80,33.80,50.08,0.00,0.00,0.00,30.08,M,10.00,M,SCT,M,M,M,5000.00,M,M,M,M,M,M,M,M,M,M,51.80,KCXP 101435Z AUTO 00000KT 10SM SCT050 11/01 A3008 RMK AO2,M
VGT,2022-09-10 14:53,-115.1933,36.2111,667.00,81.00,60.00,49.06,140.00,6.00,0.00,29.95,1013.20,10.00,M,BKN,M,M,M,11000.00,M,M,M,M,M,M,M,M,M,M,81.62,KVGT 101453Z 14006KT 10SM BKN110 27/16 A2995 RMK AO2 SLP132 T02720156 51024,M
ELY,2022-09-10 14:53,-114.8453,39.2950,1909.00,52.00,21.00,29.35,0.00,0.00,0.00,30.21,1015.00,8.00,M,CLR,M,M,M,M,M,M,M,M,M,M,M,M,M,M,52.00,KELY 101453Z AUTO 00000KT 8SM CLR 11/M06 A3021 RMK AO2 SLP150 T01111061 51015 $,M
P68,2022-09-10 14:53,-116.0056,39.6014,1993.00,52.00,18.00,25.82,0.00,0.00,0.00,30.15,1015.20,M,M,M,M,M,M,M,M,M,M,M,M,M,M,M,M,M,52.00,KP68 101453Z AUTO 00000KT 11/M08 A3015 RMK AO1 SLP152 T01111078 51013,M
DRA,2022-09-10 14:53,-116.0278,36.6206,1009.00,76.00,63.00,64.31,270.00,3.00,0.00,29.99,1010.70,10.00,M,CLR,M,M,M,M,M,M,M,M,M,M,M,M,M,M,75.90,KDRA 101453Z AUTO 27003KT 10SM CLR 24/17 A2999 RMK AO2 SLP107 T02440172 53021,M
LOL,2022-09-10 14:53,-118.5701,40.0684,1192.43,60.00,10.00,13.56,0.00,0.00,0.00,30.03,1013.40,10.00,M,CLR,M,M,M,M,M,M,M,M,M,M,M,M,M,M,60.10,KLOL 101453Z AUTO 00000KT 10SM CLR 16/M12 A3003 RMK AO2 SLP134 T01561122 53021,M
MEV,2022-09-10 14:55,-119.7500,38.9963,1441.42,50.00,32.00,49.81,0.00,0.00,0.00,30.07,M,10.00,M,CLR,M,M,M,M,M,M,M,M,M,M,M,M,M,M,50.00,KMEV 101455Z AUTO 00000KT 10SM CLR 10/M00 A3007 RMK AO2,M
BVU,2022-09-10 14:55,-114.8611,35.9475,671.00,73.40,66.20,78.19,180.00,6.00,0.00,29.98,M,M,M,M,M,M,M,M,M,M,M,-RA,M,M,M,M,M,M,73.40,KBVU 101455Z AUTO 18006KT -RA 23/19 A2998 RMK AO2 TSNO,M
CXP,2022-09-10 14:55,-119.7326,39.1923,1431.00,53.60,33.80,46.88,0.00,0.00,0.00,30.09,M,10.00,M,FEW,M,M,M,5000.00,M,M,M,M,M,M,M,M,M,M,53.60,KCXP 101455Z AUTO 00000KT 10SM FEW050 12/01 A3009 RMK AO2,M
05U,2022-09-10 14:55,-116.0051,39.6042,1811.23,53.60,15.80,22.13,0.00,0.00,0.00,30.18,M,10.00,M,M,M,M,M,M,M,M,M,M,M,M,M,M,M,M,53.60,K05U 101455Z AUTO 00000KT 10SM 12/M09 A3018 RMK A01,M
RNO,2022-09-10 14:55,-119.7711,39.4839,1341.00,59.00,38.00,45.36,0.00,0.00,0.00,30.05,1012.60,10.00,M,SCT,BKN,M,M,6500.00,13000.00,M,M,M,M,M,M,M,M,M,59.00,KRNO 101455Z 00000KT 10SM SCT065 BKN130 15/03 A3005 RMK AO2 SLP126 FU SCT065 FU ALQDS T01500033 53018,M
RTS,2022-09-10 14:55,-119.8764,39.6682,1539.00,51.80,28.40,40.25,0.00,0.00,0.00,30.09,M,10.00,M,CLR,M,M,M,M,M,M,M,M,M,M,M,M,M,M,51.80,KRTS 101455Z AUTO 00000KT 10SM CLR 11/M02 A3009 RMK AO2,M
TMT,2022-09-10 14:55,-117.1971,39.4643,1749.34,M,M,M,0.00,0.00,0.00,30.15,M,10.00,M,CLR,M,M,M,M,M,M,M,M,M,M,M,M,M,M,M,KTMT 101455Z AUTO 00000KT 10SM CLR A3015 RMK AO2,M
HTH,2022-09-10 14:55,-118.6315,38.5448,1282.89,66.20,32.00,27.83,270.00,3.00,0.00,30.04,M,10.00,M,CLR,M,M,M,M,M,M,M,M,M,M,M,M,M,M,66.20,KHTH 101455Z AUTO 27003KT 10SM CLR 19/M00 A3004 RMK A01,M
BAM,2022-09-10 14:55,-116.8743,40.5990,1382.36,59.00,12.20,15.55,30.00,7.00,0.00,30.09,M,10.00,M,CLR,M,M,M,M,M,M,M,M,M,M,M,M,M,M,59.00,KBAM 101455Z AUTO 03007KT 10SM CLR 15/M11 A3009 RMK AO1,M
INS,2022-09-10 14:56,-115.6733,36.5872,955.00,75.70,60.00,58.01,120.00,10.00,0.00,29.97,1010.10,10.00,M,SCT,BKN,BKN,M,11000.00,15000.00,18000.00,M,M,M,M,M,M,M,M,75.70,KINS 101456Z AUTO 12010KT 10SM SCT110 BKN150 BKN180 24/16 A2997 RMK AO2 SLP101 T02430155 52022 $,M
HND,2022-09-10 14:56,-115.1344,35.9729,742.79,75.00,62.00,64.20,160.00,11.00,T,29.99,1014.60,10.00,M,FEW,M,M,M,11000.00,M,M,M,M,M,M,M,M,M,M,75.00,KHND 101456Z 16011KT 10SM FEW110 24/17 A2999 RMK AO2 RAB10E41 SLP146 P0000 60000 T02390167 53024,M
EKO,2022-09-10 14:56,-115.7860,40.8242,1367.00,51.00,15.10,23.54,0.00,0.00,0.00,30.14,1016.60,8.00,M,CLR,M,M,M,M,M,M,M,M,M,M,M,M,M,M,51.10,KEKO 101456Z AUTO 00000KT 8SM CLR 11/M09 A3014 RMK AO2 SLP166 T01061094 52015,M
WMC,2022-09-10 14:56,-117.8072,40.9019,1315.00,60.00,16.00,17.66,60.00,10.00,0.00,30.07,1014.60,6.00,M,CLR,M,M,M,M,M,M,M,HZ,M,M,M,M,M,M,60.10,KWMC 101456Z AUTO 06010KT 6SM HZ CLR 16/M09 A3007 RMK AO2 SLP146 T01561089 52016,M
NFL,2022-09-10 14:56,-118.7010,39.4166,1199.00,59.00,27.00,29.25,0.00,0.00,0.00,30.03,1013.70,6.00,M,SCT,BKN,M,M,1500.00,18000.00,M,M,HZ FU,M,M,M,M,M,M,59.00,KNFL 101456Z 00000KT 6SM HZ FU SCT015 BKN180 15/M03 A3003 RMK AO2 SLP137 FU SCT015 T01501028 53019,M
LAS,2022-09-10 14:56,-115.1634,36.0719,663.00,78.00,61.00,55.71,180.00,9.00,0.00,29.96,1011.90,10.00,M,FEW,BKN,BKN,OVC,7000.00,11000.00,15000.00,20000.00,M,M,M,M,M,M,M,78.10,KLAS 101456Z 18009KT 10SM FEW070 BKN110 BKN150 OVC200 26/16 A2996 RMK AO2 SLP119 SH DSNT E-SE AND SW T02560161 53022,M
LSV,2022-09-10 14:56,-115.0343,36.2362,570.00,80.20,62.00,54.06,160.00,7.00,0.00,29.94,1011.40,10.00,M,FEW,FEW,M,M,11000.00,19000.00,M,M,M,M,M,M,M,M,M,81.40,KLSV 101456Z AUTO 16007KT 10SM FEW110 FEW190 27/17 A2994 RMK AO2 SLP114 T02680167 52022 $,M
TPH,2022-09-10 14:56,-117.0904,38.0505,1654.00,69.00,56.00,62.80,140.00,7.00,0.00,30.12,1011.40,10.00,M,CLR,M,M,M,M,M,M,M,M,M,M,M,M,M,M,69.10,KTPH 101456Z AUTO 14007KT 10SM CLR 21/13 A3012 RMK AO2 SLP114 T02060133 53017,M
BAM,2022-09-10 15:15,-116.8743,40.5990,1382.36,60.80,12.20,14.58,30.00,7.00,0.00,30.10,M,10.00,M,CLR,M,M,M,M,M,M,M,M,M,M,M,M,M,M,60.80,KBAM 101515Z AUTO 03007KT 10SM CLR 16/M11 A3010 RMK AO1,M
TMT,2022-09-10 15:15,-117.1971,39.4643,1749.34,51.00,25.30,36.34,0.00,0.00,0.00,30.15,M,10.00,M,CLR,M,M,M,M,M,M,M,M,M,M,M,M,M,M,51.10,KTMT 101515Z AUTO 00000KT 10SM CLR 11/M04 A3015 RMK AO2 LTG DSNT SE T01061037,M
HTH,2022-09-10 15:15,-118.6315,38.5448,1282.89,68.00,32.00,26.15,240.00,4.00,0.00,30.05,M,10.00,M,CLR,M,M,M,M,M,M,M,M,M,M,M,M,M,M,68.00,KHTH 101515Z AUTO 24004KT 10SM CLR 20/00 A3005 RMK A01,M
MEV,2022-09-10 15:15,-119.7500,38.9963,1441.42,51.80,30.20,43.32,0.00,0.00,0.00,30.08,M,10.00,M,CLR,M,M,M,M,M,M,M,M,M,M,M,M,M,M,51.80,KMEV 101515Z AUTO 00000KT 10SM CLR 11/M01 A3008 RMK AO2,M
05U,2022-09-10 15:15,-116.0051,39.6042,1811.23,57.20,12.20,16.58,0.00,0.00,0.00,30.18,M,10.00,M,M,M,M,M,M,M,M,M,M,M,M,M,M,M,M,57.20,K05U 101515Z AUTO 00000KT 10SM 14/M11 A3018 RMK A01,M
RTS,2022-09-10 15:15,-119.8764,39.6682,1539.00,51.80,26.60,37.38,0.00,0.00,0.00,30.09,M,8.00,M,CLR,M,M,M,M,M,M,M,M,M,M,M,M,M,M,51.80,KRTS 101515Z AUTO 00000KT 8SM CLR 11/M03 A3009 RMK AO2,M
CXP,2022-09-10 15:15,-119.7326,39.1923,1431.00,55.40,33.80,43.90,0.00,0.00,0.00,30.09,M,10.00,M,CLR,M,M,M,M,M,M,M,M,M,M,M,M,M,M,55.40,KCXP 101515Z AUTO 00000KT 10SM CLR 13/01 A3009 RMK AO2,M
BVU,2022-09-10 15:15,-114.8611,35.9475,671.00,73.40,66.20,78.19,210.00,3.00,0.00,29.98,M,M,M,M,M,M,M,M,M,M,M,RA,M,M,M,M,M,M,73.40,KBVU 101515Z AUTO 21003KT RA 23/19 A2998 RMK AO2 TSNO,M
BVU,2022-09-10 15:35,-114.8611,35.9475,671.00,73.40,66.20,78.19,0.00,0.00,0.00,29.98,M,M,M,M,M,M,M,M,M,M,M,-RA,M,M,M,M,M,M,73.40,KBVU 101535Z AUTO 00000KT -RA 23/19 A2998 RMK AO2 TSNO,M
CXP,2022-09-10 15:35,-119.7326,39.1923,1431.00,57.20,33.80,41.13,0.00,0.00,0.00,30.10,M,10.00,M,CLR,M,M,M,M,M,M,M,M,M,M,M,M,M,M,57.20,KCXP 101535Z AUTO 00000KT 10SM CLR 14/01 A3010 RMK AO2,M
RTS,2022-09-10 15:35,-119.8764,39.6682,1539.00,55.40,24.80,30.40,0.00,0.00,0.00,30.09,M,10.00,M,CLR,M,M,M,M,M,M,M,M,M,M,M,M,M,M,55.40,KRTS 101535Z AUTO 00000KT 10SM CLR 13/M04 A3009 RMK AO2,M
05U,2022-09-10 15:35,-116.0051,39.6042,1811.23,59.00,10.40,14.35,20.00,3.00,0.00,30.18,M,9.00,M,M,M,M,M,M,M,M,M,M,M,M,M,M,M,M,59.00,K05U 101535Z AUTO 02003KT 9SM 15/M12 A3018 RMK A01,M
MEV,2022-09-10 15:35,-119.7500,38.9963,1441.42,55.40,32.00,40.84,0.00,0.00,0.00,30.08,M,10.00,M,CLR,M,M,M,M,M,M,M,M,M,M,M,M,M,M,55.40,KMEV 101535Z AUTO 00000KT 10SM CLR 13/00 A3008 RMK AO2,M
BAM,2022-09-10 15:35,-116.8743,40.5990,1382.36,62.60,12.20,13.68,20.00,10.00,0.00,30.10,M,10.00,M,CLR,M,M,M,M,M,M,M,M,M,M,M,M,M,M,62.60,KBAM 101535Z AUTO 02010KT 10SM CLR 17/M11 A3010 RMK AO1,M
HTH,2022-09-10 15:35,-118.6315,38.5448,1282.89,68.00,32.00,26.15,290.00,4.00,0.00,30.05,M,10.00,M,CLR,M,M,M,M,M,M,M,M,M,M,M,M,M,M,68.00,KHTH 101535Z AUTO 29004KT 10SM CLR 20/M00 A3005 RMK A01,M
TMT,2022-09-10 15:35,-117.1971,39.4643,1749.34,M,M,M,0.00,0.00,0.00,30.16,M,10.00,M,CLR,M,M,M,M,M,M,M,M,M,M,M,M,M,M,M,KTMT 101535Z AUTO 00000KT 10SM CLR A3016 RMK AO2,M
DRA,2022-09-10 15:53,-116.0278,36.6206,1009.00,77.00,63.00,62.00,M,4.00,0.00,30.00,1011.10,10.00,M,CLR,M,M,M,M,M,M,M,M,M,M,M,M,M,M,77.00,KDRA 101553Z AUTO VRB04KT 10SM CLR 25/17 A3000 RMK AO2 SLP111 T02500172,M
P68,2022-09-10 15:53,-116.0056,39.6014,1993.00,59.00,12.00,15.41,0.00,0.00,0.00,30.16,1014.60,M,M,M,M,M,M,M,M,M,M,M,M,M,M,M,M,M,59.00,KP68 101553Z AUTO 00000KT 15/M11 A3016 RMK AO1 SLP146 T01501111,M
VGT,2022-09-10 15:53,-115.1933,36.2111,667.00,80.00,61.00,52.16,180.00,11.00,0.00,29.97,1013.80,10.00,M,OVC,M,M,M,11000.00,M,M,M,M,M,M,M,M,M,M,81.10,KVGT 101553Z 18011KT 10SM OVC110 27/16 A2997 RMK AO2 SLP138 T02670161,M
LOL,2022-09-10 15:53,-118.5701,40.0684,1192.43,67.00,9.00,10.21,30.00,6.00,0.00,30.04,1013.60,10.00,M,CLR,M,M,M,M,M,M,M,M,M,M,M,M,M,M,66.90,KLOL 101553Z AUTO 03006KT 10SM CLR 19/M13 A3004 RMK AO2 SLP136 T01941128,M
ELY,2022-09-10 15:53,-114.8453,39.2950,1909.00,60.00,17.10,18.52,0.00,0.00,0.00,30.22,1014.80,6.00,M,CLR,M,M,M,M,M,M,M,HZ,M,M,M,M,M,M,60.10,KELY 101553Z AUTO 00000KT 6SM HZ CLR 16/M08 A3022 RMK AO2 SLP148 T01561083 $,M
TMT,2022-09-10 15:55,-117.1971,39.4643,1749.34,57.40,23.00,26.23,0.00,0.00,0.00,30.16,M,10.00,M,CLR,M,M,M,M,M,M,M,M,M,M,M,M,M,M,57.40,KTMT 101555Z AUTO 00000KT 10SM CLR 14/M05 A3016 RMK AO2 LTG DSNT SW T01411050,M
RTS,2022-09-10 15:55,-119.8764,39.6682,1539.00,59.00,24.80,26.70,0.00,0.00,0.00,30.10,M,9.00,M,CLR,M,M,M,M,M,M,M,M,M,M,M,M,M,M,59.00,KRTS 101555Z AUTO 00000KT 9SM CLR 15/M04 A3010 RMK AO2,M
05U,2022-09-10 15:55,-116.0051,39.6042,1811.23,59.00,12.20,15.55,320.00,3.00,0.00,30.19,M,9.00,M,M,M,M,M,M,M,M,M,M,M,M,M,M,M,M,59.00,K05U 101555Z AUTO 32003KT 9SM 15/M11 A3019 RMK A01,M
MEV,2022-09-10 15:55,-119.7500,38.9963,1441.42,57.20,32.00,38.26,0.00,0.00,0.00,30.09,M,10.00,M,CLR,M,M,M,M,M,M,M,M,M,M,M,M,M,M,57.20,KMEV 101555Z AUTO 00000KT 10SM CLR 14/00 A3009 RMK AO2,M
BAM,2022-09-10 15:55,-116.8743,40.5990,1382.36,62.60,15.80,16.02,10.00,5.00,0.00,30.11,M,10.00,M,CLR,M,M,M,M,M,M,M,M,M,M,M,M,M,M,62.60,KBAM 101555Z AUTO 01005KT 10SM CLR 17/M09 A3011 RMK AO1,M
CXP,2022-09-10 15:55,-119.7326,39.1923,1431.00,59.00,33.80,38.56,0.00,0.00,0.00,30.10,M,10.00,M,CLR,M,M,M,M,M,M,M,M,M,M,M,M,M,M,59.00,KCXP 101555Z AUTO 00000KT 10SM CLR 15/01 A3010 RMK AO2,M
HTH,2022-09-10 15:55,-118.6315,38.5448,1282.89,69.80,26.60,19.72,320.00,6.00,0.00,30.06,M,10.00,M,CLR,M,M,M,M,M,M,M,M,M,M,M,M,M,M,69.80,KHTH 101555Z AUTO 32006KT 10SM CLR 21/M03 A3006 RMK A01,M
BVU,2022-09-10 15:55,-114.8611,35.9475,671.00,75.20,66.20,73.61,0.00,0.00,0.00,29.99,M,M,M,M,M,M,M,M,M,M,M,M,M,M,M,M,M,M,75.20,KBVU 101555Z AUTO 00000KT 24/19 A2999 RMK AO2 TSNO,M
RNO,2022-09-10 15:55,-119.7711,39.4839,1341.00,63.00,38.00,39.36,0.00,0.00,0.00,30.07,1013.20,9.00,M,SCT,BKN,M,M,6500.00,13000.00,M,M,M,M,M,M,M,M,M,63.00,KRNO 101555Z 00000KT 9SM SCT065 BKN130 17/03 A3007 RMK AO2 SLP132 FU SCT065 FU ALQDS T01720033,M
LSV,2022-09-10 15:56,-115.0343,36.2362,570.00,80.00,63.00,55.98,120.00,8.00,0.00,29.96,1012.10,10.00,M,OVC,M,M,M,10000.00,M,M,M,M,M,M,M,M,M,M,81.50,KLSV 101556Z AUTO 12008KT 10SM OVC100 27/17 A2996 RMK AO2 SLP121 T02670172 $,M
EKO,2022-09-10 15:56,-115.7860,40.8242,1367.00,56.00,14.00,18.82,0.00,0.00,0.00,30.14,1016.70,8.00,M,CLR,M,M,M,M,M,M,M,M,M,M,M,M,M,M,55.90,KEKO 101556Z AUTO 00000KT 8SM CLR 13/M10 A3014 RMK AO2 SLP167 T01331100,M
WMC,2022-09-10 15:56,-117.8072,40.9019,1315.00,64.00,18.00,16.77,60.00,11.00,0.00,30.08,1014.40,6.00,M,CLR,M,M,M,M,M,M,M,HZ,M,M,M,M,M,M,64.00,KWMC 101556Z AUTO 06011KT 6SM HZ CLR 18/M08 A3008 RMK AO2 SLP144 T01781078,M
NFL,2022-09-10 15:56,-118.7010,39.4166,1199.00,66.00,19.00,16.33,0.00,0.00,0.00,30.04,1014.20,6.00,M,BKN,BKN,M,M,1500.00,18000.00,M,M,HZ FU,M,M,M,M,M,M,66.00,KNFL 101556Z 00000KT 6SM HZ FU BKN015 BKN180 19/M07 A3004 RMK AO2 SLP142 FU BKN015 T01891072,M
HND,2022-09-10 15:56,-115.1344,35.9729,742.79,75.00,66.00,73.59,210.00,8.00,T,30.01,1015.10,10.00,M,FEW,M,M,M,3100.00,M,M,M,M,M,M,M,M,M,M,75.00,KHND 101556Z 21008KT 10SM FEW031 24/19 A3001 RMK AO2 LTG DSNT E RAB12E51 SLP151 P0000 T02390189,M
TPH,2022-09-10 15:56,-117.0904,38.0505,1654.00,73.00,57.00,57.23,160.00,8.00,0.00,30.13,1011.80,10.00,M,CLR,M,M,M,M,M,M,M,M,M,M,M,M,M,M,73.00,KTPH 101556Z AUTO 16008KT 10SM CLR 23/14 A3013 RMK AO2 SLP118 T02280139,M
LAS,2022-09-10 15:56,-115.1634,36.0719,663.00,76.00,64.00,66.60,180.00,5.00,T,29.98,1012.70,10.00,M,FEW,BKN,BKN,BKN,3400.00,7000.00,10000.00,16000.00,-RA,M,M,M,M,M,M,75.90,KLAS 101556Z 18005KT 10SM -RA FEW034 BKN070 BKN100 BKN160 24/18 A2998 RMK AO2 LTG DSNT E RAB28 SLP127 P0000 T02440178,M
INS,2022-09-10 15:56,-115.6733,36.5872,955.00,78.00,59.00,51.88,110.00,10.00,0.00,29.99,1010.60,10.00,M,FEW,SCT,BKN,M,15000.00,19000.00,21000.00,M,M,M,M,M,M,M,M,78.10,KINS 101556Z AUTO 11010KT 10SM FEW150 SCT190 BKN210 26/15 A2999 RMK AO2 SLP106 T02560150 $,M
LSV,2022-09-10 16:02,-115.0343,36.2362,570.00,80.60,62.60,54.30,160.00,9.00,0.00,29.96,1012.10,10.00,M,FEW,OVC,M,M,7000.00,10000.00,M,M,-RA,M,M,M,M,M,M,81.84,KLSV 101602Z AUTO 16009KT 10SM -RA FEW070 OVC100 27/17 A2996 RMK AO2 RAB02 SLP121 $,M
NFL,2022-09-10 16:03,-118.7010,39.4166,1199.00,67.00,17.10,14.59,0.00,0.00,0.00,30.04,M,7.00,M,CLR,M,M,M,M,M,M,M,FU,M,M,M,M,M,M,66.90,KNFL 101603Z 00000KT 7SM FU CLR 19/M08 A3004 RMK AO2 T01941083,M
LSV,2022-09-10 16:08,-115.0343,36.2362,570.00,78.80,66.20,65.33,150.00,12.00,0.00,29.96,1012.20,8.00,18.00,FEW,FEW,SCT,OVC,600.00,4500.00,6500.00,10000.00,-RA,M,M,M,M,M,M,78.80,KLSV 101608Z AUTO 15012G18KT 8SM -RA FEW006 FEW045 SCT065 OVC100 26/19 A2996 RMK AO2 RAB02 SLP122 $,M
05U,2022-09-10 16:15,-116.0051,39.6042,1811.23,62.60,12.20,13.68,10.00,5.00,0.00,30.19,M,9.00,M,M,M,M,M,M,M,M,M,M,M,M,M,M,M,M,62.60,K05U 101615Z AUTO 01005KT 9SM 17/M11 A3019 RMK A01,M
CXP,2022-09-10 16:15,-119.7326,39.1923,1431.00,60.80,33.80,36.16,0.00,0.00,0.00,30.11,M,10.00,M,CLR,M,M,M,M,M,M,M,M,M,M,M,M,M,M,60.80,KCXP 101615Z AUTO 00000KT 10SM CLR 16/01 A3011 RMK AO2,M
MEV,2022-09-10 16:15,-119.7500,38.9963,1441.42,59.00,33.80,38.56,0.00,0.00,0.00,30.09,M,10.00,M,CLR,M,M,M,M,M,M,M,M,M,M,M,M,M,M,59.00,KMEV 101615Z AUTO 00000KT 10SM CLR 15/01 A3009 RMK AO2,M
BAM,2022-09-10 16:15,-116.8743,40.5990,1382.36,62.60,15.80,16.02,330.00,5.00,0.00,30.11,M,10.00,M,CLR,M,M,M,M,M,M,M,M,M,M,M,M,M,M,62.60,KBAM 101615Z AUTO 33005KT 10SM CLR 17/M09 A3011 RMK AO1,M
TMT,2022-09-10 16:15,-117.1971,39.4643,1749.34,59.70,22.30,23.45,0.00,0.00,0.00,30.16,M,10.00,M,CLR,M,M,M,M,M,M,M,M,M,M,M,M,M,M,59.70,KTMT 101615Z AUTO 00000KT 10SM CLR 15/M05 A3016 RMK AO2 T01541054,M
HTH,2022-09-10 16:15,-118.6315,38.5448,1282.89,69.80,32.00,24.59,330.00,5.00,0.00,30.06,M,10.00,M,CLR,M,M,M,M,M,M,M,M,M,M,M,M,M,M,69.80,KHTH 101615Z AUTO 33005KT 10SM CLR 21/M00 A3006 RMK A01,M
BVU,2022-09-10 16:15,-114.8611,35.9475,671.00,75.20,64.40,69.14,0.00,0.00,0.00,30.01,M,M,M,M,M,M,M,M,M,M,M,M,M,M,M,M,M,M,75.20,KBVU 101615Z AUTO 00000KT 24/18 A3001 RMK AO2 TSNO,M
RTS,2022-09-10 16:15,-119.8764,39.6682,1539.00,62.60,28.40,27.27,0.00,0.00,0.00,30.11,M,10.00,M,CLR,M,M,M,M,M,M,M,M,M,M,M,M,M,M,62.60,KRTS 101615Z AUTO 00000KT 10SM CLR 17/M02 A3011 RMK AO2,M
05U,2022-09-10 16:35,-116.0051,39.6042,1811.23,62.60,15.80,16.02,30.00,5.00,0.00,30.20,M,9.00,M,M,M,M,M,M,M,M,M,M,M,M,M,M,M,M,62.60,K05U 101635Z AUTO 03005KT 9SM 17/M09 A3020 RMK A01,M
BVU,2022-09-10 16:35,-114.8611,35.9475,671.00,77.00,64.40,65.12,M,3.00,0.00,30.02,M,M,M,M,M,M,M,M,M,M,M,M,M,M,M,M,M,M,77.00,KBVU 101635Z AUTO VRB03KT 25/18 A3002 RMK AO2 TSNO,M
CXP,2022-09-10 16:35,-119.7326,39.1923,1431.00,62.60,33.80,33.93,0.00,0.00,0.00,30.11,M,10.00,M,CLR,M,M,M,M,M,M,M,M,M,M,M,M,M,M,62.60,KCXP 101635Z AUTO 00000KT 10SM CLR 17/01 A3011 RMK AO2,M
RTS,2022-09-10 16:35,-119.8764,39.6682,1539.00,66.20,26.60,22.33,0.00,0.00,0.00,30.11,M,10.00,M,CLR,M,M,M,M,M,M,M,M,M,M,M,M,M,M,66.20,KRTS 101635Z AUTO 00000KT 10SM CLR 19/M03 A3011 RMK AO2,M
MEV,2022-09-10 16:35,-119.7500,38.9963,1441.42,60.80,33.80,36.16,0.00,0.00,0.00,30.09,M,10.00,M,CLR,M,M,M,M,M,M,M,M,M,M,M,M,M,M,60.80,KMEV 101635Z AUTO 00000KT 10SM CLR 16/01 A3009 RMK AO2,M
BAM,2022-09-10 16:35,-116.8743,40.5990,1382.36,64.40,17.60,16.26,330.00,5.00,0.00,30.11,M,10.00,M,CLR,M,M,M,M,M,M,M,M,M,M,M,M,M,M,64.40,KBAM 101635Z AUTO 33005KT 10SM CLR 18/M08 A3011 RMK AO1,M
HTH,2022-09-10 16:35,-118.6315,38.5448,1282.89,71.60,24.80,17.22,340.00,5.00,0.00,30.07,M,10.00,M,M,M,M,M,M,M,M,M,M,M,M,M,M,M,M,71.60,KHTH 101635Z AUTO 34005KT 10SM 22/M04 A3007 RMK A01,M
TMT,2022-09-10 16:35,-117.1971,39.4643,1749.34,M,M,M,280.00,3.00,0.00,30.17,M,10.00,M,CLR,M,M,M,M,M,M,M,M,M,M,M,M,M,M,M,KTMT 101635Z AUTO 28003KT 10SM CLR A3017 RMK AO2,M
P68,2022-09-10 16:53,-116.0056,39.6014,1993.00,64.00,18.00,16.77,M,6.00,0.00,30.17,1015.70,M,M,M,M,M,M,M,M,M,M,M,M,M,M,M,M,M,64.00,KP68 101653Z AUTO VRB06KT 18/M08 A3017 RMK AO1 SLP157 T01781078,M
ELY,2022-09-10 16:53,-114.8453,39.2950,1909.00,65.00,16.00,14.91,0.00,0.00,0.00,30.22,1014.50,7.00,M,CLR,M,M,M,M,M,M,M,M,M,M,M,M,M,M,64.90,KELY 101653Z AUTO 00000KT 7SM CLR 18/M09 A3022 RMK AO2 SLP145 T01831089 $,M
LOL,2022-09-10 16:53,-118.5701,40.0684,1192.43,72.00,10.90,9.34,40.00,7.00,0.00,30.06,1014.00,10.00,M,CLR,M,M,M,M,M,M,M,M,M,M,M,M,M,M,72.00,KLOL 101653Z AUTO 04007KT 10SM CLR 22/M12 A3006 RMK AO2 SLP140 T02221117,M
DRA,2022-09-10 16:53,-116.0278,36.6206,1009.00,79.00,62.00,56.23,240.00,8.00,0.00,30.03,1011.90,10.00,M,SCT,M,M,M,6500.00,M,M,M,M,M,M,M,M,M,M,79.00,KDRA 101653Z AUTO 24008KT 10SM SCT065 26/17 A3003 RMK AO2 SLP119 T02610167,M
VGT,2022-09-10 16:53,-115.1933,36.2111,667.00,75.00,68.00,78.86,80.00,10.00,0.01,30.02,1016.00,10.00,M,FEW,FEW,OVC,M,6000.00,9000.00,11000.00,M,-RA,M,M,M,M,M,M,75.00,KVGT 101653Z 08010KT 10SM -RA FEW060 FEW090 OVC110 24/20 A3002 RMK AO2 RAB11 SLP160 P0001 T02390200,M
TMT,2022-09-10 16:55,-117.1971,39.4643,1749.34,M,M,M,0.00,0.00,0.00,30.18,M,10.00,M,CLR,M,M,M,M,M,M,M,M,M,M,M,M,M,M,M,KTMT 101655Z AUTO 00000KT 10SM CLR A3018 RMK AO2 LTG DSNT SW,M
BVU,2022-09-10 16:55,-114.8611,35.9475,671.00,77.00,64.40,65.12,0.00,0.00,0.00,30.02,M,M,M,M,M,M,M,M,M,M,M,M,M,M,M,M,M,M,77.00,KBVU 101655Z AUTO 00000KT 25/18 A3002 RMK AO2 TSNO,M
CXP,2022-09-10 16:55,-119.7326,39.1923,1431.00,64.40,33.80,31.85,0.00,0.00,0.00,30.11,M,10.00,M,CLR,M,M,M,M,M,M,M,M,M,M,M,M,M,M,64.40,KCXP 101655Z AUTO 00000KT 10SM CLR 18/01 A3011 RMK AO2,M
RNO,2022-09-10 16:55,-119.7711,39.4839,1341.00,69.00,37.00,30.74,0.00,0.00,0.00,30.08,1013.40,8.00,M,SCT,M,M,M,6500.00,M,M,M,M,M,M,M,M,M,M,69.10,KRNO 101655Z 00000KT 8SM SCT065 21/03 A3008 RMK AO2 SLP134 FU SCT065 FU ALQDS T02060028,M
RTS,2022-09-10 16:55,-119.8764,39.6682,1539.00,68.00,28.40,22.59,0.00,0.00,0.00,30.12,M,10.00,M,CLR,M,M,M,M,M,M,M,M,M,M,M,M,M,M,68.00,KRTS 101655Z AUTO 00000KT 10SM CLR 20/M02 A3012 RMK AO2,M
05U,2022-09-10 16:55,-116.0051,39.6042,1811.23,64.40,17.60,16.26,10.00,4.00,0.00,30.20,M,10.00,M,M,M,M,M,M,M,M,M,M,M,M,M,M,M,M,64.40,K05U 101655Z AUTO 01004KT 10SM 18/M08 A3020 RMK A01,M
MEV,2022-09-10 16:55,-119.7500,38.9963,1441.42,64.40,32.00,29.63,0.00,0.00,0.00,30.10,M,10.00,M,CLR,M,M,M,M,M,M,M,M,M,M,M,M,M,M,64.40,KMEV 101655Z AUTO 00000KT 10SM CLR 18/00 A3010 RMK AO2,M
BAM,2022-09-10 16:55,-116.8743,40.5990,1382.36,68.00,15.80,13.27,360.00,4.00,0.00,30.12,M,10.00,M,CLR,M,M,M,M,M,M,M,M,M,M,M,M,M,M,68.00,KBAM 101655Z AUTO 36004KT 10SM CLR 20/M09 A3012 RMK AO1,M
HTH,2022-09-10 16:55,-118.6315,38.5448,1282.89,73.40,21.20,13.93,330.00,6.00,0.00,30.07,M,10.00,M,CLR,M,M,M,M,M,M,M,M,M,M,M,M,M,M,73.40,KHTH 101655Z AUTO 33006KT 10SM CLR 23/M06 A3007 RMK A01,M
LSV,2022-09-10 16:56,-115.0343,36.2362,570.00,74.70,74.30,98.67,70.00,6.00,0.05,30.01,1014.00,10.00,M,FEW,M,M,M,3900.00,M,M,M,-RA,M,M,M,M,M,M,74.70,KLSV 101656Z AUTO 07006KT 10SM -RA FEW039 24/24 A3001 RMK AO2 RAB02E21DZB21E26RAB26 PRESRR SLP140 P0005 T02370235 $,M
EKO,2022-09-10 16:56,-115.7860,40.8242,1367.00,65.00,16.00,14.91,40.00,3.00,0.00,30.15,1016.40,8.00,M,CLR,M,M,M,M,M,M,M,M,M,M,M,M,M,M,64.90,KEKO 101656Z AUTO 04003KT 8SM CLR 18/M09 A3015 RMK AO2 SLP164 T01831089,M
WMC,2022-09-10 16:56,-117.8072,40.9019,1315.00,68.00,17.10,14.04,40.00,13.00,0.00,30.09,1014.60,6.00,M,CLR,M,M,M,M,M,M,M,HZ,M,M,M,M,M,M,68.00,KWMC 101656Z AUTO 04013KT 6SM HZ CLR 20/M08 A3009 RMK AO2 SLP146 T02001083,M
NFL,2022-09-10 16:56,-118.7010,39.4166,1199.00,71.00,10.00,9.25,350.00,4.00,0.00,30.06,1014.70,8.00,M,SCT,BKN,M,M,3000.00,20000.00,M,M,M,M,M,M,M,M,M,71.10,KNFL 101656Z 35004KT 8SM SCT030 BKN200 22/M12 A3006 RMK AO2 SLP147 FU SCT030 T02171122,M
HND,2022-09-10 16:56,-115.1344,35.9729,742.79,78.00,63.00,59.78,M,3.00,0.00,30.05,1016.50,10.00,M,BKN,BKN,M,M,7500.00,9500.00,M,M,M,M,M,M,M,M,M,78.10,KHND 101656Z VRB03KT 10SM BKN075 BKN095 26/17 A3005 RMK AO2 SLP165 T02560172,M
TPH,2022-09-10 16:56,-117.0904,38.0505,1654.00,74.00,57.00,55.53,M,M,0.00,30.14,1012.40,10.00,M,CLR,M,M,M,M,M,M,M,M,M,M,M,M,M,M,73.90,KTPH 101656Z AUTO 10SM CLR 23/14 A3014 RMK AO2 SLP124 T02330139,M
LAS,2022-09-10 16:56,-115.1634,36.0719,663.00,77.00,64.00,64.21,60.00,10.00,T,30.03,1014.40,10.00,M,FEW,BKN,BKN,BKN,5000.00,7000.00,12000.00,18000.00,M,M,M,M,M,M,M,77.00,KLAS 101656Z 06010KT 10SM FEW050 BKN070 BKN120 BKN180 25/18 A3003 RMK AO2 RAE09 SLP144 SH VC N-E AND DSNT NW P0000 T02500178,M
INS,2022-09-10 16:56,-115.6733,36.5872,955.00,80.20,58.60,47.73,100.00,12.00,0.00,30.01,1011.30,10.00,M,BKN,BKN,M,M,10000.00,20000.00,M,M,M,M,M,M,M,M,M,80.76,KINS 101656Z AUTO 10012KT 10SM BKN100 BKN200 27/15 A3001 RMK AO2 SLP113 T02680148 $,M
05U,2022-09-10 17:15,-116.0051,39.6042,1811.23,66.20,19.40,16.50,M,4.00,0.00,30.20,M,10.00,M,M,M,M,M,M,M,M,M,M,M,M,M,M,M,M,66.20,K05U 101715Z AUTO VRB04KT 10SM 19/M07 A3020 RMK A01,M
TMT,2022-09-10 17:15,-117.1971,39.4643,1749.34,64.80,25.70,22.58,0.00,0.00,0.00,30.18,M,10.00,M,CLR,M,M,M,M,M,M,M,M,M,M,M,M,M,M,64.80,KTMT 101715Z AUTO 00000KT 10SM CLR 18/M03 A3018 RMK AO2 T01821035,M
HTH,2022-09-10 17:15,-118.6315,38.5448,1282.89,73.40,19.40,12.90,340.00,7.00,0.00,30.08,M,9.00,M,CLR,M,M,M,M,M,M,M,M,M,M,M,M,M,M,73.40,KHTH 101715Z AUTO 34007KT 9SM CLR 23/M07 A3008 RMK A01,M
BAM,2022-09-10 17:15,-116.8743,40.5990,1382.36,69.80,17.60,13.49,350.00,5.00,0.00,30.12,M,10.00,M,CLR,M,M,M,M,M,M,M,M,M,M,M,M,M,M,69.80,KBAM 101715Z AUTO 35005KT 10SM CLR 21/M08 A3012 RMK AO1,M
MEV,2022-09-10 17:15,-119.7500,38.9963,1441.42,66.20,33.80,29.92,0.00,0.00,0.00,30.10,M,10.00,M,CLR,M,M,M,M,M,M,M,M,M,M,M,M,M,M,66.20,KMEV 101715Z AUTO 00000KT 10SM CLR 19/01 A3010 RMK AO2,M
RTS,2022-09-10 17:15,-119.8764,39.6682,1539.00,69.80,21.20,15.73,140.00,3.00,0.00,30.12,M,10.00,M,CLR,M,M,M,M,M,M,M,M,M,M,M,M,M,M,69.80,KRTS 101715Z AUTO 14003KT 10SM CLR 21/M06 A3012 RMK AO2,M
CXP,2022-09-10 17:15,-119.7326,39.1923,1431.00,68.00,28.40,22.59,0.00,0.00,0.00,30.12,M,10.00,M,CLR,M,M,M,M,M,M,M,M,M,M,M,M,M,M,68.00,KCXP 101715Z AUTO 00000KT 10SM CLR 20/M02 A3012 RMK AO2,M
BVU,2022-09-10 17:15,-114.8611,35.9475,671.00,78.80,64.40,61.36,0.00,0.00,0.00,30.02,M,M,M,M,M,M,M,M,M,M,M,M,M,M,M,M,M,M,78.80,KBVU 101715Z AUTO 00000KT 26/18 A3002 RMK AO2 TSNO,M
CXP,2022-09-10 17:35,-119.7326,39.1923,1431.00,69.80,32.00,24.59,0.00,0.00,0.00,30.12,M,10.00,M,CLR,M,M,M,M,M,M,M,M,M,M,M,M,M,M,69.80,KCXP 101735Z AUTO 00000KT 10SM CLR 21/M00 A3012 RMK AO2,M
HTH,2022-09-10 17:35,-118.6315,38.5448,1282.89,75.20,17.60,11.24,330.00,7.00,0.00,30.08,M,10.00,M,CLR,M,M,M,M,M,M,M,M,M,M,M,M,M,M,75.20,KHTH 101735Z AUTO 33007KT 10SM CLR 24/M08 A3008 RMK A01,M
BAM,2022-09-10 17:35,-116.8743,40.5990,1382.36,71.60,17.60,12.69,360.00,3.00,0.00,30.12,M,10.00,M,CLR,M,M,M,M,M,M,M,M,M,M,M,M,M,M,71.60,KBAM 101735Z AUTO 36003KT 10SM CLR 22/M08 A3012 RMK AO1,M
MEV,2022-09-10 17:35,-119.7500,38.9963,1441.42,68.00,33.80,28.11,0.00,0.00,0.00,30.10,M,10.00,M,CLR,M,M,M,M,M,M,M,M,M,M,M,M,M,M,68.00,KMEV 101735Z AUTO 00000KT 10SM CLR 20/01 A3010 RMK AO2,M
05U,2022-09-10 17:35,-116.0051,39.6042,1811.23,68.00,19.40,15.50,0.00,0.00,0.00,30.20,M,9.00,M,M,M,M,M,M,M,M,M,M,M,M,M,M,M,M,68.00,K05U 101735Z AUTO 00000KT 9SM 20/M07 A3020 RMK A01,M
RTS,2022-09-10 17:35,-119.8764,39.6682,1539.00,71.60,19.40,13.71,140.00,4.00,0.00,30.13,M,10.00,M,CLR,M,M,M,M,M,M,M,M,M,M,M,M,M,M,71.60,KRTS 101735Z AUTO 14004KT 10SM CLR 22/M07 A3013 RMK AO2,M
BVU,2022-09-10 17:35,-114.8611,35.9475,671.00,78.80,62.60,57.60,0.00,0.00,0.00,30.01,M,M,M,M,M,M,M,M,M,M,M,M,M,M,M,M,M,M,78.80,KBVU 101735Z AUTO 00000KT 26/17 A3001 RMK AO2 TSNO,M
TMT,2022-09-10 17:35,-117.1971,39.4643,1749.34,M,M,M,0.00,0.00,0.00,30.18,M,10.00,M,CLR,M,M,M,M,M,M,M,M,M,M,M,M,M,M,M,KTMT 101735Z AUTO 00000KT 10SM CLR A3018 RMK AO2,M
INS,2022-09-10 17:36,-115.6733,36.5872,955.00,78.80,59.00,50.69,110.00,15.00,0.00,30.03,1012.10,10.00,M,OVC,M,M,M,9500.00,M,M,M,M,M,M,M,M,M,M,78.80,KINS 101736Z AUTO 11015KT 10SM OVC095 26/15 A3003 RMK AO2 LTG DSNT S SLP121 $,M
INS,2022-09-10 17:41,-115.6733,36.5872,955.00,78.80,59.00,50.69,110.00,14.00,0.00,30.03,1012.10,10.00,M,OVC,M,M,M,9500.00,M,M,M,M,M,M,M,M,M,M,78.80,KINS 101741Z AUTO 11014KT 10SM OVC095 26/15 A3003 RMK AO2 LTG DSNT SW SLP121 $,M
INS,2022-09-10 17:46,-115.6733,36.5872,955.00,78.80,60.80,54.05,110.00,20.00,0.00,30.03,1012.10,10.00,M,FEW,OVC,M,M,7000.00,10000.00,M,M,M,M,M,M,M,M,M,78.80,KINS 101746Z AUTO 11020KT 10SM FEW070 OVC100 26/16 A3003 RMK AO2 LTG DSNT SW SLP121 $,M
INS,2022-09-10 17:47,-115.6733,36.5872,955.00,77.00,62.60,61.13,110.00,18.00,0.00,30.03,1012.10,9.00,M,FEW,OVC,M,M,7000.00,10000.00,M,M,-DZ,M,M,M,M,M,M,77.00,KINS 101747Z AUTO 11018KT 9SM -DZ FEW070 OVC100 25/17 A3003 RMK AO2 LTG DSNT SW DZB47 SLP121 $,M
ELY,2022-09-10 17:53,-114.8453,39.2950,1909.00,71.00,17.10,12.63,M,3.00,0.00,30.21,1013.50,8.00,M,CLR,M,M,M,M,M,M,M,M,M,M,M,M,M,M,71.10,KELY 101753Z AUTO VRB03KT 8SM CLR 22/M08 A3021 RMK AO2 SLP135 T02171083 10217 20056 50001 $,M
VGT,2022-09-10 17:53,-115.1933,36.2111,667.00,76.00,67.00,73.68,360.00,4.00,0.02,30.01,1015.60,10.00,M,OVC,M,M,M,11000.00,M,M,M,M,M,M,M,M,M,M,75.90,KVGT 101753Z 36004KT 10SM OVC110 24/19 A3001 RMK AO2 RAE52 SLP156 P0002 60003 T02440194 10272 20233 50020,M
P68,2022-09-10 17:53,-116.0056,39.6014,1993.00,69.00,21.90,16.60,M,3.00,0.00,30.18,1015.10,M,M,M,M,M,M,M,M,M,M,M,M,M,M,M,M,M,69.10,KP68 101753Z AUTO VRB03KT 21/M06 A3018 RMK AO1 SLP151 T02061056 10206 20044 51006,M
DRA,2022-09-10 17:53,-116.0278,36.6206,1009.00,78.00,62.00,57.92,240.00,7.00,T,30.05,1012.60,10.00,M,FEW,SCT,BKN,M,3700.00,6000.00,10000.00,M,M,M,M,M,M,M,M,78.10,KDRA 101753Z AUTO 24007KT 10SM FEW037 SCT060 BKN100 26/17 A3005 RMK AO2 RAB33E48 SLP126 P0000 60000 T02560167 10261 20239 53017,M
LOL,2022-09-10 17:53,-118.5701,40.0684,1192.43,77.00,12.90,8.63,50.00,7.00,0.00,30.06,1014.10,10.00,M,CLR,M,M,M,M,M,M,M,M,M,M,M,M,M,M,77.00,KLOL 101753Z AUTO 05007KT 10SM CLR 25/M11 A3006 RMK AO2 SLP141 T02501106 10250 20128 51010,M
HTH,2022-09-10 17:55,-118.6315,38.5448,1282.89,77.00,17.60,10.59,320.00,8.00,0.00,30.08,M,10.00,M,CLR,M,M,M,M,M,M,M,M,M,M,M,M,M,M,77.00,KHTH 101755Z AUTO 32008KT 10SM CLR 25/M08 A3008 RMK A01,M
RTS,2022-09-10 17:55,-119.8764,39.6682,1539.00,71.60,19.40,13.71,130.00,5.00,0.00,30.13,M,10.00,M,CLR,M,M,M,M,M,M,M,M,M,M,M,M,M,M,71.60,KRTS 101755Z AUTO 13005KT 10SM CLR 22/M07 A3013 RMK AO2,M
BAM,2022-09-10 17:55,-116.8743,40.5990,1382.36,75.20,17.60,11.24,340.00,5.00,0.00,30.12,M,10.00,M,CLR,M,M,M,M,M,M,M,M,M,M,M,M,M,M,75.20,KBAM 101755Z AUTO 34005KT 10SM CLR 24/M08 A3012 RMK AO1,M
CXP,2022-09-10 17:55,-119.7326,39.1923,1431.00,71.60,30.20,21.50,0.00,0.00,0.00,30.11,M,10.00,M,CLR,M,M,M,M,M,M,M,M,M,M,M,M,M,M,71.60,KCXP 101755Z AUTO 00000KT 10SM CLR 22/M01 A3011 RMK AO2,M
MEV,2022-09-10 17:55,-119.7500,38.9963,1441.42,69.80,33.80,26.43,0.00,0.00,0.00,30.10,M,10.00,M,CLR,M,M,M,M,M,M,M,M,M,M,M,M,M,M,69.80,KMEV 101755Z AUTO 00000KT 10SM CLR 21/01 A3010 RMK AO2,M
05U,2022-09-10 17:55,-116.0051,39.6042,1811.23,69.80,21.20,15.73,0.00,0.00,0.00,30.20,M,9.00,M,M,M,M,M,M,M,M,M,M,M,M,M,M,M,M,69.80,K05U 101755Z AUTO 00000KT 9SM 21/M06 A3020 RMK A01,M
BVU,2022-09-10 17:55,-114.8611,35.9475,671.00,80.60,62.60,54.30,0.00,0.00,0.00,30.01,M,M,M,M,M,M,M,M,M,M,M,M,M,M,M,M,M,M,81.84,KBVU 101755Z AUTO 00000KT 27/17 A3001 RMK AO2 TSNO,M
TMT,2022-09-10 17:55,-117.1971,39.4643,1749.34,M,M,M,0.00,0.00,0.00,30.17,M,10.00,M,CLR,M,M,M,M,M,M,M,M,M,M,M,M,M,M,M,KTMT 101755Z AUTO 00000KT 10SM CLR A3017 RMK AO2,M
RNO,2022-09-10 17:55,-119.7711,39.4839,1341.00,74.00,34.00,23.19,0.00,0.00,0.00,30.08,1013.30,8.00,M,SCT,M,M,M,6500.00,M,M,M,M,M,M,M,M,M,M,73.90,KRNO 101755Z 00000KT 8SM SCT065 23/01 A3008 RMK AO2 SLP133 FU SCT065 FU ALQDS T02330011 10233 20139 51010,M
INS,2022-09-10 17:56,-115.6733,36.5872,955.00,76.30,60.80,58.71,110.00,15.00,T,30.03,1012.10,10.00,21.00,FEW,BKN,BKN,OVC,5000.00,10000.00,11000.00,16000.00,-DZ,M,M,M,29.00,120.00,2022-09-10 17:55,76.30,KINS 101756Z AUTO 11015G21KT 10SM -DZ FEW050 BKN100 BKN110 OVC160 25/16 A3003 RMK AO2 PK WND 12029/55 LTG DSNT SW DZB47 SLP121 P0000 60000 T02460160 10271 20240 52018 $,M
EKO,2022-09-10 17:56,-115.7860,40.8242,1367.00,71.00,17.10,12.63,30.00,7.00,0.00,30.15,1016.00,8.00,M,CLR,M,M,M,M,M,M,M,M,M,M,M,M,M,M,71.10,KEKO 101756Z AUTO 03007KT 8SM CLR 22/M08 A3015 RMK AO2 SLP160 T02171083 10222 20028 50002,M
WMC,2022-09-10 17:56,-117.8072,40.9019,1315.00,75.00,17.10,11.07,30.00,7.00,0.00,30.09,1014.30,6.00,M,CLR,M,M,M,M,M,M,M,HZ,M,M,M,M,M,M,75.00,KWMC 101756Z AUTO 03007KT 6SM HZ CLR 24/M08 A3009 RMK AO2 SLP143 T02391083 10239 20050 51006,M
NFL,2022-09-10 17:56,-118.7010,39.4166,1199.00,74.00,14.00,10.04,M,4.00,0.00,30.06,1014.80,8.00,M,SCT,BKN,M,M,3000.00,20000.00,M,M,M,M,M,M,M,M,M,73.90,KNFL 101756Z VRB04KT 8SM SCT030 BKN200 23/M10 A3006 RMK AO2 SLP148 FU SCT030 T02331100 10233 20111 51011,M
HND,2022-09-10 17:56,-115.1344,35.9729,742.79,81.00,63.00,54.36,10.00,8.00,0.00,30.03,1015.80,10.00,M,FEW,M,M,M,12000.00,M,M,M,M,M,M,M,M,M,M,82.28,KHND 101756Z 01008KT 10SM FEW120 27/17 A3003 RMK AO2 SLP158 60000 T02720172 10272 20228 50013,M
TPH,2022-09-10 17:56,-117.0904,38.0505,1654.00,77.00,57.00,50.07,M,5.00,0.00,30.14,1012.20,10.00,M,CLR,M,M,M,M,M,M,M,M,M,M,M,M,M,M,77.00,KTPH 101756Z AUTO VRB05KT 10SM CLR 25/14 A3014 RMK AO2 SLP122 T02500139 10250 20189 50008,M
LAS,2022-09-10 17:56,-115.1634,36.0719,663.00,79.00,64.00,60.11,10.00,8.00,0.00,30.01,1013.90,10.00,M,FEW,BKN,BKN,BKN,7500.00,11000.00,17000.00,22000.00,M,M,M,M,M,M,M,79.00,KLAS 101756Z 01008KT 10SM FEW075 BKN110 BKN170 BKN220 26/18 A3001 RMK AO2 SLP139 SH DSNT NW-N 60000 T02610178 10261 20239 50017,M
LSV,2022-09-10 17:56,-115.0343,36.2362,570.00,72.50,72.50,100.00,0.00,0.00,0.07,29.99,1013.40,10.00,M,FEW,FEW,BKN,BKN,3200.00,4700.00,6000.00,9000.00,-RA,M,M,M,M,M,M,72.50,KLSV 101756Z AUTO 00000KT 10SM -RA FEW032 FEW047 BKN060 BKN090 23/23 A2999 RMK AO2 SLP134 P0007 60012 T02250225 10274 20221 50018 $,M
LSV,2022-09-10 18:10,-115.0343,36.2362,570.00,73.40,73.40,100.00,0.00,0.00,0.00,29.98,1013.10,10.00,M,FEW,SCT,BKN,BKN,5000.00,7000.00,8500.00,10000.00,M,M,M,M,M,M,M,73.40,KLSV 101810Z AUTO 00000KT 10SM FEW050 SCT070 BKN085 BKN100 BKN120 23/23 A2998 RMK AO2 RAE08DZB08E10 SLP131 $,M
INS,2022-09-10 18:12,-115.6733,36.5872,955.00,75.20,60.80,60.90,120.00,10.00,0.00,30.04,1012.60,10.00,M,FEW,BKN,OVC,M,4600.00,10000.00,16000.00,M,M,M,M,M,M,M,M,75.20,KINS 101812Z AUTO 12010KT 10SM FEW046 BKN100 OVC160 24/16 A3004 RMK AO2 LTG DSNT SW DZE1758RAB1758E12 SLP126 $,M
MEV,2022-09-10 18:15,-119.7500,38.9963,1441.42,71.60,33.80,24.86,300.00,3.00,0.00,30.10,M,10.00,M,CLR,M,M,M,M,M,M,M,M,M,M,M,M,M,M,71.60,KMEV 101815Z AUTO 30003KT 10SM CLR 22/01 A3010 RMK AO2,M
BVU,2022-09-10 18:15,-114.8611,35.9475,671.00,82.40,62.60,51.21,0.00,0.00,0.00,30.00,M,M,M,M,M,M,M,M,M,M,M,M,M,M,M,M,M,M,83.41,KBVU 101815Z AUTO 00000KT 28/17 A3000 RMK AO2 TSNO,M
CXP,2022-09-10 18:15,-119.7326,39.1923,1431.00,73.40,28.40,18.80,0.00,0.00,0.00,30.11,M,10.00,M,CLR,M,M,M,M,M,M,M,M,M,M,M,M,M,M,73.40,KCXP 101815Z AUTO 00000KT 10SM CLR 23/M02 A3011 RMK AO2,M
RTS,2022-09-10 18:15,-119.8764,39.6682,1539.00,73.40,17.60,11.94,110.00,5.00,0.00,30.12,M,10.00,M,CLR,M,M,M,M,M,M,M,M,M,M,M,M,M,M,73.40,KRTS 101815Z AUTO 11005KT 10SM CLR 23/M08 A3012 RMK AO2,M
05U,2022-09-10 18:15,-116.0051,39.6042,1811.23,71.60,21.20,14.80,70.00,3.00,0.00,30.20,M,9.00,M,M,M,M,M,M,M,M,M,M,M,M,M,M,M,M,71.60,K05U 101815Z AUTO 07003KT 9SM 22/M06 A3020 RMK A01,M
BAM,2022-09-10 18:15,-116.8743,40.5990,1382.36,77.00,17.60,10.59,40.00,5.00,0.00,30.11,M,10.00,M,CLR,M,M,M,M,M,M,M,M,M,M,M,M,M,M,77.00,KBAM 101815Z AUTO 04005KT 10SM CLR 25/M08 A3011 RMK AO1,M
HTH,2022-09-10 18:15,-118.6315,38.5448,1282.89,77.00,21.20,12.35,320.00,7.00,0.00,30.07,M,10.00,M,CLR,M,M,M,M,M,M,M,M,M,M,M,M,M,M,77.00,KHTH 101815Z AUTO 32007KT 10SM CLR 25/M06 A3007 RMK A01,M
TMT,2022-09-10 18:15,-117.1971,39.4643,1749.34,M,M,M,0.00,0.00,0.00,30.17,M,10.00,M,CLR,M,M,M,M,M,M,M,M,M,M,M,M,M,M,M,KTMT 101815Z AUTO 00000KT 10SM CLR A3017 RMK AO2,M
05U,2022-09-10 18:35,-116.0051,39.6042,1811.23,73.40,23.00,15.03,110.00,4.00,0.00,30.19,M,10.00,M,M,M,M,M,M,M,M,M,M,M,M,M,M,M,M,73.40,K05U 101835Z AUTO 11004KT 10SM 23/M05 A3019 RMK A01,M
RTS,2022-09-10 18:35,-119.8764,39.6682,1539.00,73.40,17.60,11.94,0.00,0.00,0.00,30.12,M,10.00,M,CLR,M,M,M,M,M,M,M,M,M,M,M,M,M,M,73.40,KRTS 101835Z AUTO 00000KT 10SM CLR 23/M08 A3012 RMK AO2,M
MEV,2022-09-10 18:35,-119.7500,38.9963,1441.42,73.40,32.00,21.76,0.00,0.00,0.00,30.09,M,10.00,M,CLR,M,M,M,M,M,M,M,M,M,M,M,M,M,M,73.40,KMEV 101835Z AUTO 00000KT 10SM CLR 23/00 A3009 RMK AO2,M
BAM,2022-09-10 18:35,-116.8743,40.5990,1382.36,78.80,17.60,9.98,50.00,4.00,0.00,30.10,M,10.00,M,CLR,M,M,M,M,M,M,M,M,M,M,M,M,M,M,78.80,KBAM 101835Z AUTO 05004KT 10SM CLR 26/M08 A3010 RMK AO1,M
TMT,2022-09-10 18:35,-117.1971,39.4643,1749.34,M,M,M,0.00,0.00,0.00,30.16,M,10.00,M,CLR,M,M,M,M,M,M,M,M,M,M,M,M,M,M,M,KTMT 101835Z AUTO 00000KT 10SM CLR A3016 RMK AO2,M
HTH,2022-09-10 18:35,-118.6315,38.5448,1282.89,78.80,21.20,11.64,340.00,8.00,0.00,30.07,M,10.00,M,CLR,M,M,M,M,M,M,M,M,M,M,M,M,M,M,78.80,KHTH 101835Z AUTO 34008KT 10SM CLR 26/M06 A3007 RMK A01,M
BVU,2022-09-10 18:35,-114.8611,35.9475,671.00,82.40,60.80,48.05,0.00,0.00,0.00,30.00,M,M,M,M,M,M,M,M,M,M,M,M,M,M,M,M,M,M,82.90,KBVU 101835Z AUTO 00000KT 28/16 A3000 RMK AO2 TSNO,M
CXP,2022-09-10 18:35,-119.7326,39.1923,1431.00,75.20,24.80,15.25,0.00,0.00,0.00,30.10,M,10.00,M,CLR,M,M,M,M,M,M,M,M,M,M,M,M,M,M,75.20,KCXP 101835Z AUTO 00000KT 10SM CLR 24/M04 A3010 RMK AO2,M
INS,2022-09-10 18:40,-115.6733,36.5872,955.00,75.20,60.80,60.90,100.00,12.00,0.00,30.04,1012.60,10.00,M,OVC,M,M,M,10000.00,M,M,M,-RA,M,M,M,M,M,M,75.20,KINS 101840Z AUTO 10012KT 10SM -RA OVC100 24/16 A3004 RMK AO2 DZE1758RAB1758E12RAB40 SLP126 $,M
ELY,2022-09-10 18:53,-114.8453,39.2950,1909.00,77.00,26.10,15.16,20.00,6.00,0.00,30.19,1012.50,9.00,M,CLR,M,M,M,M,M,M,M,M,M,M,M,M,M,M,77.00,KELY 101853Z AUTO 02006KT 9SM CLR 25/M03 A3019 RMK AO2 SLP125 T02501033 $,M
P68,2022-09-10 18:53,-116.0056,39.6014,1993.00,73.00,24.10,15.95,70.00,4.00,0.00,30.16,1014.40,M,M,M,M,M,M,M,M,M,M,M,M,M,M,M,M,M,73.00,KP68 101853Z AUTO 07004KT 23/M04 A3016 RMK AO1 SLP144 T02281044,M
DRA,2022-09-10 18:53,-116.0278,36.6206,1009.00,77.00,61.00,57.77,230.00,7.00,0.00,30.05,1012.70,10.00,M,FEW,BKN,BKN,M,3200.00,6000.00,7000.00,M,M,M,M,M,M,M,M,77.00,KDRA 101853Z AUTO 23007KT 10SM FEW032 BKN060 BKN070 25/16 A3005 RMK AO2 SLP127 T02500161,M
VGT,2022-09-10 18:53,-115.1933,36.2111,667.00,79.00,67.00,66.49,M,4.00,T,29.98,1014.50,10.00,M,CLR,M,M,M,M,M,M,M,M,M,M,M,M,M,M,79.00,KVGT 101853Z VRB04KT 10SM CLR 26/19 A2998 RMK AO2 RAB1754E17 SLP145 P0000 T02610194,M
LOL,2022-09-10 18:53,-118.5701,40.0684,1192.43,80.00,12.00,7.49,0.00,0.00,0.00,30.05,1013.50,9.00,M,CLR,M,M,M,M,M,M,M,M,M,M,M,M,M,M,77.68,KLOL 101853Z AUTO 00000KT 9SM CLR 27/M11 A3005 RMK AO2 SLP135 T02671111,M
MEV,2022-09-10 18:55,-119.7500,38.9963,1441.42,75.20,32.00,20.49,0.00,0.00,0.00,30.09,M,10.00,M,CLR,M,M,M,M,M,M,M,M,M,M,M,M,M,M,75.20,KMEV 101855Z AUTO 00000KT 10SM CLR 24/00 A3009 RMK AO2,M
TMT,2022-09-10 18:55,-117.1971,39.4643,1749.34,M,M,M,0.00,0.00,0.00,30.16,M,10.00,M,CLR,M,M,M,M,M,M,M,M,M,M,M,M,M,M,M,KTMT 101855Z AUTO 00000KT 10SM CLR A3016 RMK AO2 LTG DSNT SW,M
RNO,2022-09-10 18:55,-119.7711,39.4839,1341.00,79.00,28.00,15.35,0.00,0.00,0.00,30.07,1012.80,10.00,M,SCT,SCT,M,M,6500.00,17000.00,M,M,M,M,M,M,M,M,M,79.00,KRNO 101855Z 00000KT 10SM SCT065 SCT170 26/M02 A3007 RMK AO2 SLP128 FU SCT065 FU ALQDS T02611022,M
BAM,2022-09-10 18:55,-116.8743,40.5990,1382.36,80.60,17.60,9.40,50.00,4.00,0.00,30.10,M,10.00,M,CLR,M,M,M,M,M,M,M,M,M,M,M,M,M,M,78.45,KBAM 101855Z AUTO 05004KT 10SM CLR 27/M08 A3010 RMK AO1,M
RTS,2022-09-10 18:55,-119.8764,39.6682,1539.00,77.00,17.60,10.59,160.00,5.00,0.00,30.12,M,10.00,M,CLR,M,M,M,M,M,M,M,M,M,M,M,M,M,M,77.00,KRTS 101855Z AUTO 16005KT 10SM CLR 25/M08 A3012 RMK AO2,M
05U,2022-09-10 18:55,-116.0051,39.6042,1811.23,75.20,23.00,14.15,0.00,0.00,0.00,30.18,M,10.00,M,M,M,M,M,M,M,M,M,M,M,M,M,M,M,M,75.20,K05U 101855Z AUTO 00000KT 10SM 24/M05 A3018 RMK A01,M
BVU,2022-09-10 18:55,-114.8611,35.9475,671.00,82.40,60.80,48.05,M,3.00,0.00,29.99,M,M,M,M,M,M,M,M,M,M,M,M,M,M,M,M,M,M,82.90,KBVU 101855Z AUTO VRB03KT 28/16 A2999 RMK AO2 TSNO,M
CXP,2022-09-10 18:55,-119.7326,39.1923,1431.00,78.80,17.60,9.98,120.00,3.00,0.00,30.10,M,10.00,M,CLR,M,M,M,M,M,M,M,M,M,M,M,M,M,M,78.80,KCXP 101855Z AUTO 12003KT 10SM CLR 26/M08 A3010 RMK AO2,M
HTH,2022-09-10 18:55,-118.6315,38.5448,1282.89,78.80,14.00,8.53,320.00,6.00,0.00,30.06,M,10.00,M,CLR,M,M,M,M,M,M,M,M,M,M,M,M,M,M,78.80,KHTH 101855Z AUTO 32006KT 10SM CLR 26/M10 A3006 RMK A01,M
INS,2022-09-10 18:56,-115.6733,36.5872,955.00,73.60,62.80,68.97,70.00,4.00,0.01,30.03,1012.30,10.00,M,BKN,BKN,OVC,M,10000.00,11000.00,14000.00,M,-RA,M,M,M,27.00,120.00,2022-09-10 17:58,73.60,KINS 101856Z AUTO 07004KT 10SM -RA BKN100 BKN110 OVC140 23/17 A3003 RMK AO2 PK WND 12027/1758 DZE1758RAB1758E12RAB40 SLP123 P0001 T02310171 $,M
LSV,2022-09-10 18:56,-115.0343,36.2362,570.00,84.20,M,M,0.00,0.00,0.01,29.96,1012.10,10.00,M,FEW,SCT,SCT,SCT,4200.00,10000.00,13000.00,15000.00,M,M,M,M,M,M,M,M,KLSV 101856Z AUTO 00000KT 10SM FEW042 SCT100 SCT130 SCT150 BKN170 OVC200 29/ A2996 RMK AO2 RAE08DZB08E10 SLP121 P0001 $,M
LAS,2022-09-10 18:56,-115.1634,36.0719,663.00,81.00,63.00,54.36,60.00,3.00,0.00,29.99,1013.00,10.00,M,FEW,SCT,BKN,BKN,8000.00,13000.00,18000.00,22000.00,M,M,M,M,M,M,M,82.28,KLAS 101856Z 06003KT 10SM FEW080 SCT130 BKN180 BKN220 27/17 A2999 RMK AO2 SLP130 T02720172,M
TPH,2022-09-10 18:56,-117.0904,38.0505,1654.00,80.00,55.00,42.05,190.00,8.00,0.00,30.13,1011.90,10.00,M,CLR,M,M,M,M,M,M,M,M,M,M,M,M,M,M,80.17,KTPH 101856Z AUTO 19008KT 10SM CLR 27/13 A3013 RMK AO2 SLP119 T02670128,M
HND,2022-09-10 18:56,-115.1344,35.9729,742.79,82.00,63.00,52.62,330.00,4.00,0.00,30.02,1015.40,10.00,M,CLR,M,M,M,M,M,M,M,M,M,M,M,M,M,M,83.17,KHND 101856Z 33004KT 10SM CLR 28/17 A3002 RMK AO2 SLP154 T02780172,M
NFL,2022-09-10 18:56,-118.7010,39.4166,1199.00,76.00,15.10,9.85,M,3.00,0.00,30.05,1014.50,7.00,M,SCT,BKN,M,M,6000.00,20000.00,M,M,M,M,M,M,M,M,M,75.90,KNFL 101856Z VRB03KT 7SM SCT060 BKN200 24/M09 A3005 RMK AO2 SLP145 FU SCT060 T02441094,M
WMC,2022-09-10 18:56,-117.8072,40.9019,1315.00,79.00,17.10,9.70,60.00,6.00,0.00,30.08,1013.80,8.00,M,CLR,M,M,M,M,M,M,M,M,M,M,M,M,M,M,79.00,KWMC 101856Z AUTO 06006KT 8SM CLR 26/M08 A3008 RMK AO2 SLP138 T02611083,M
EKO,2022-09-10 18:56,-115.7860,40.8242,1367.00,77.00,18.00,10.77,20.00,5.00,0.00,30.13,1015.20,9.00,M,CLR,M,M,M,M,M,M,M,M,M,M,M,M,M,M,77.00,KEKO 101856Z AUTO 02005KT 9SM CLR 25/M08 A3013 RMK AO2 SLP152 T02501078,M
INS,2022-09-10 18:58,-115.6733,36.5872,955.00,73.40,62.60,68.94,90.00,6.00,0.00,30.03,1012.30,10.00,M,BKN,BKN,OVC,M,10000.00,12000.00,14000.00,M,M,M,M,M,M,M,M,73.40,KINS 101858Z AUTO 09006KT 10SM BKN100 BKN120 OVC140 23/17 A3003 RMK AO2 RAE56DZB56E58 SLP123 $,M
HTH,2022-09-10 19:15,-118.6315,38.5448,1282.89,80.60,12.20,7.43,330.00,8.00,0.00,30.06,M,10.00,M,CLR,M,M,M,M,M,M,M,M,M,M,M,M,M,M,78.16,KHTH 101915Z AUTO 33008KT 10SM CLR 27/M11 A3006 RMK A01,M
05U,2022-09-10 19:15,-116.0051,39.6042,1811.23,77.00,23.00,13.32,0.00,0.00,0.00,30.18,M,10.00,M,M,M,M,M,M,M,M,M,M,M,M,M,M,M,M,77.00,K05U 101915Z AUTO 00000KT 10SM 25/M05 A3018 RMK A01,M
BVU,2022-09-10 19:15,-114.8611,35.9475,671.00,84.20,62.60,48.32,210.00,6.00,0.00,29.99,M,M,M,M,M,M,M,M,M,M,M,M,M,M,M,M,M,M,85.03,KBVU 101915Z AUTO 21006KT 29/17 A2999 RMK AO2 TSNO,M
CXP,2022-09-10 19:15,-119.7326,39.1923,1431.00,80.60,17.60,9.40,M,5.00,0.00,30.09,M,10.00,M,CLR,M,M,M,M,M,M,M,M,M,M,M,M,M,M,78.45,KCXP 101915Z AUTO VRB05KT 10SM CLR 27/M08 A3009 RMK AO2,M
MEV,2022-09-10 19:15,-119.7500,38.9963,1441.42,77.00,32.00,19.30,M,3.00,0.00,30.08,M,10.00,M,CLR,M,M,M,M,M,M,M,M,M,M,M,M,M,M,77.00,KMEV 101915Z AUTO VRB03KT 10SM CLR 25/M00 A3008 RMK AO2,M
BAM,2022-09-10 19:15,-116.8743,40.5990,1382.36,82.40,17.60,8.87,130.00,4.00,0.00,30.09,M,10.00,M,CLR,M,M,M,M,M,M,M,M,M,M,M,M,M,M,79.36,KBAM 101915Z AUTO 13004KT 10SM CLR 28/M08 A3009 RMK AO1,M
TMT,2022-09-10 19:15,-117.1971,39.4643,1749.34,M,M,M,0.00,0.00,0.00,30.15,M,10.00,M,CLR,M,M,M,M,M,M,M,M,M,M,M,M,M,M,M,KTMT 101915Z AUTO 00000KT 10SM CLR A3015 RMK AO2,M
RTS,2022-09-10 19:15,-119.8764,39.6682,1539.00,77.00,17.60,10.59,130.00,6.00,0.00,30.12,M,10.00,M,CLR,M,M,M,M,M,M,M,M,M,M,M,M,M,M,77.00,KRTS 101915Z AUTO 13006KT 10SM CLR 25/M08 A3012 RMK AO2,M
05U,2022-09-10 19:35,-116.0051,39.6042,1811.23,80.60,24.80,12.76,0.00,0.00,0.00,30.17,M,10.00,M,M,M,M,M,M,M,M,M,M,M,M,M,M,M,M,78.94,K05U 101935Z AUTO 00000KT 10SM 27/M04 A3017 RMK A01,M
TMT,2022-09-10 19:35,-117.1971,39.4643,1749.34,M,M,M,0.00,0.00,0.00,30.15,M,10.00,M,CLR,M,M,M,M,M,M,M,M,M,M,M,M,M,M,M,KTMT 101935Z AUTO 00000KT 10SM CLR A3015 RMK AO2,M
CXP,2022-09-10 19:35,-119.7326,39.1923,1431.00,80.60,19.40,10.16,90.00,5.00,0.00,30.09,M,10.00,M,CLR,M,M,M,M,M,M,M,M,M,M,M,M,M,M,78.56,KCXP 101935Z AUTO 09005KT 10SM CLR 27/M07 A3009 RMK AO2,M
BVU,2022-09-10 19:35,-114.8611,35.9475,671.00,84.20,62.60,48.32,100.00,5.00,0.00,29.98,M,M,M,M,M,M,M,M,M,M,M,M,M,M,M,M,M,M,85.03,KBVU 101935Z AUTO 10005KT 29/17 A2998 RMK AO2 TSNO,M
BAM,2022-09-10 19:35,-116.8743,40.5990,1382.36,82.40,17.60,8.87,0.00,0.00,0.00,30.09,M,10.00,M,CLR,M,M,M,M,M,M,M,M,M,M,M,M,M,M,79.36,KBAM 101935Z AUTO 00000KT 10SM CLR 28/M08 A3009 RMK AO1,M
HTH,2022-09-10 19:35,-118.6315,38.5448,1282.89,80.60,14.00,8.04,340.00,5.00,0.00,30.05,M,10.00,M,CLR,M,M,M,M,M,M,M,M,M,M,M,M,M,M,78.25,KHTH 101935Z AUTO 34005KT 10SM CLR 27/M10 A3005 RMK A01,M
RTS,2022-09-10 19:35,-119.8764,39.6682,1539.00,78.80,14.00,8.53,M,4.00,0.00,30.11,M,10.00,M,CLR,M,M,M,M,M,M,M,M,M,M,M,M,M,M,78.80,KRTS 101935Z AUTO VRB04KT 10SM CLR 26/M10 A3011 RMK AO2,M
MEV,2022-09-10 19:35,-119.7500,38.9963,1441.42,78.80,30.20,16.90,M,3.00,0.00,30.08,M,10.00,M,CLR,M,M,M,M,M,M,M,M,M,M,M,M,M,M,78.80,KMEV 101935Z AUTO VRB03KT 10SM CLR 26/M01 A3008 RMK AO2,M
INS,2022-09-10 19:38,-115.6733,36.5872,955.00,77.00,60.80,57.36,60.00,4.00,0.00,30.00,1011.30,10.00,M,FEW,BKN,OVC,M,6500.00,8500.00,11000.00,M,M,M,M,M,M,M,M,77.00,KINS 101938Z AUTO 06004KT 10SM FEW065 BKN085 OVC110 25/16 A3000 RMK AO2 RAE1856DZB1856E1858 SLP113 $,M
ELY,2022-09-10 19:53,-114.8453,39.2950,1909.00,77.00,33.00,20.17,0.00,0.00,0.00,30.18,1012.40,10.00,M,CLR,M,M,M,M,M,M,M,M,M,M,M,M,M,M,77.00,KELY 101953Z AUTO 00000KT 10SM CLR 25/01 A3018 RMK AO2 SLP124 T02500006 $,M
P68,2022-09-10 19:53,-116.0056,39.6014,1993.00,80.00,28.00,14.81,M,4.00,0.00,30.14,1013.00,M,M,M,M,M,M,M,M,M,M,M,M,M,M,M,M,M,78.51,KP68 101953Z AUTO VRB04KT 27/M02 A3014 RMK AO1 SLP130 T02671022,M
LOL,2022-09-10 19:53,-118.5701,40.0684,1192.43,83.00,12.90,7.11,0.00,0.00,0.00,30.03,1012.90,10.00,M,CLR,M,M,M,M,M,M,M,M,M,M,M,M,M,M,79.50,KLOL 101953Z AUTO 00000KT 10SM CLR 28/M11 A3003 RMK AO2 SLP129 T02831106,M
VGT,2022-09-10 19:53,-115.1933,36.2111,667.00,82.00,65.00,56.24,M,M,0.00,29.97,1014.00,10.00,M,CLR,M,M,M,M,M,M,M,M,M,M,M,M,M,M,83.76,KVGT 101953Z 10SM CLR 28/18 A2997 RMK AO2 SLP140 T02780183,M
DRA,2022-09-10 19:53,-116.0278,36.6206,1009.00,76.00,65.00,68.73,220.00,11.00,T,30.00,1011.20,10.00,M,FEW,FEW,M,M,10000.00,11000.00,M,M,M,M,M,M,M,M,M,75.90,KDRA 101953Z AUTO 22011KT 10SM FEW100 FEW110 24/18 A3000 RMK AO2 RAB31E39 SLP112 P0000 T02440183,M
RTS,2022-09-10 19:55,-119.8764,39.6682,1539.00,78.80,14.00,8.53,M,5.00,0.00,30.11,M,10.00,M,CLR,M,M,M,M,M,M,M,M,M,M,M,M,M,M,78.80,KRTS 101955Z AUTO VRB05KT 10SM CLR 26/M10 A3011 RMK AO2,M
CXP,2022-09-10 19:55,-119.7326,39.1923,1431.00,82.40,19.40,9.58,90.00,5.00,0.00,30.08,M,10.00,M,CLR,M,M,M,M,M,M,M,M,M,M,M,M,M,M,79.45,KCXP 101955Z AUTO 09005KT 10SM CLR 28/M07 A3008 RMK AO2,M
HTH,2022-09-10 19:55,-118.6315,38.5448,1282.89,82.40,17.60,8.87,310.00,6.00,0.00,30.05,M,9.00,M,CLR,M,M,M,M,M,M,M,M,M,M,M,M,M,M,79.36,KHTH 101955Z AUTO 31006KT 9SM CLR 28/M08 A3005 RMK A01,M
TMT,2022-09-10 19:55,-117.1971,39.4643,1749.34,M,M,M,320.00,3.00,0.00,30.14,M,10.00,M,CLR,M,M,M,M,M,M,M,M,M,M,M,M,M,M,M,KTMT 101955Z AUTO 32003KT 10SM CLR A3014 RMK AO2,M
BVU,2022-09-10 19:55,-114.8611,35.9475,671.00,84.20,62.60,48.32,0.00,0.00,0.00,29.98,M,M,M,M,M,M,M,M,M,M,M,M,M,M,M,M,M,M,85.03,KBVU 101955Z AUTO 00000KT 29/17 A2998 RMK AO2 TSNO,M
BAM,2022-09-10 19:55,-116.8743,40.5990,1382.36,82.40,17.60,8.87,110.00,3.00,0.00,30.08,M,10.00,M,CLR,M,M,M,M,M,M,M,M,M,M,M,M,M,M,79.36,KBAM 101955Z AUTO 11003KT 10SM CLR 28/M08 A3008 RMK AO1,M
MEV,2022-09-10 19:55,-119.7500,38.9963,1441.42,80.60,30.20,15.94,M,4.00,0.00,30.07,M,10.00,M,CLR,M,M,M,M,M,M,M,M,M,M,M,M,M,M,78.77,KMEV 101955Z AUTO VRB04KT 10SM CLR 27/M01 A3007 RMK AO2,M
05U,2022-09-10 19:55,-116.0051,39.6042,1811.23,82.40,28.40,13.96,0.00,0.00,0.00,30.17,M,10.00,M,M,M,M,M,M,M,M,M,M,M,M,M,M,M,M,79.94,K05U 101955Z AUTO 00000KT 10SM 28/M02 A3017 RMK A01,M
RNO,2022-09-10 19:55,-119.7711,39.4839,1341.00,84.00,28.00,13.04,M,3.00,0.00,30.06,1012.00,10.00,M,SCT,BKN,M,M,6500.00,18000.00,M,M,M,M,M,M,M,M,M,81.10,KRNO 101955Z VRB03KT 10SM SCT065 BKN180 29/M02 A3006 RMK AO2 SLP120 FU SCT065 FU ALQDS T02891022,M
EKO,2022-09-10 19:56,-115.7860,40.8242,1367.00,81.00,18.00,9.44,20.00,5.00,0.00,30.12,1014.30,10.00,M,CLR,M,M,M,M,M,M,M,M,M,M,M,M,M,M,78.46,KEKO 101956Z AUTO 02005KT 10SM CLR 27/M08 A3012 RMK AO2 SLP143 T02721078,M
LSV,2022-09-10 19:56,-115.0343,36.2362,570.00,87.30,68.00,52.81,0.00,0.00,0.00,29.96,1012.00,10.00,M,FEW,SCT,BKN,BKN,8000.00,11000.00,14000.00,17000.00,M,M,M,M,M,M,M,90.87,KLSV 101956Z AUTO 00000KT 10SM FEW080 SCT110 BKN140 BKN170 OVC200 31/20 A2996 RMK AO2 SLP120 T03070200 $,M
LAS,2022-09-10 19:56,-115.1634,36.0719,663.00,84.00,62.00,47.78,80.00,6.00,0.00,29.98,1012.50,10.00,M,FEW,SCT,BKN,BKN,8000.00,13000.00,18000.00,22000.00,M,M,M,M,M,M,M,84.67,KLAS 101956Z 08006KT 10SM FEW080 SCT130 BKN180 BKN220 29/17 A2998 RMK AO2 SLP125 T02890167,M
TPH,2022-09-10 19:56,-117.0904,38.0505,1654.00,80.00,55.00,42.05,M,5.00,0.00,30.12,1011.30,10.00,M,CLR,M,M,M,M,M,M,M,M,M,M,M,M,M,M,80.17,KTPH 101956Z AUTO VRB05KT 10SM CLR 27/13 A3012 RMK AO2 SLP113 T02670128,M
WMC,2022-09-10 19:56,-117.8072,40.9019,1315.00,85.00,12.90,6.67,M,5.00,0.00,30.06,1012.90,10.00,M,CLR,M,M,M,M,M,M,M,M,M,M,M,M,M,M,80.89,KWMC 101956Z AUTO VRB05KT 10SM CLR 29/M11 A3006 RMK AO2 SLP129 T02941106,M
NFL,2022-09-10 19:56,-118.7010,39.4166,1199.00,80.00,12.90,7.79,310.00,4.00,0.00,30.04,1014.10,8.00,M,SCT,BKN,M,M,8000.00,20000.00,M,M,M,M,M,M,M,M,M,77.72,KNFL 101956Z 31004KT 8SM SCT080 BKN200 27/M11 A3004 RMK AO2 SLP141 FU SCT060 T02671106,M
HND,2022-09-10 19:56,-115.1344,35.9729,742.79,84.00,63.00,49.32,20.00,3.00,0.00,30.01,1014.90,10.00,M,CLR,M,M,M,M,M,M,M,M,M,M,M,M,M,M,84.99,KHND 101956Z 02003KT 10SM CLR 29/17 A3001 RMK AO2 SLP149 T02890172,M
INS,2022-09-10 19:56,-115.6733,36.5872,955.00,77.40,61.30,57.62,90.00,10.00,T,29.99,1010.90,10.00,M,FEW,SCT,BKN,BKN,7000.00,8000.00,10000.00,12000.00,M,M,M,M,M,M,M,77.40,KINS 101956Z AUTO 09010KT 10SM FEW070 SCT080 BKN100 BKN120 25/16 A2999 RMK AO2 RAE1856DZB1856E1858 SLP109 P0000 T02520163 $,M
INS,2022-09-10 20:01,-115.6733,36.5872,955.00,77.00,60.80,57.36,90.00,11.00,0.00,30.00,1011.30,10.00,M,FEW,FEW,SCT,BKN,6500.00,8000.00,10000.00,12000.00,M,M,M,M,M,M,M,77.00,KINS 102001Z AUTO 09011KT 10SM FEW065 FEW080 SCT100 BKN120 25/16 A3000 RMK AO2 SLP113 $,M
HTH,2022-09-10 20:15,-118.6315,38.5448,1282.89,82.40,15.80,8.20,310.00,7.00,0.00,30.03,M,10.00,M,CLR,M,M,M,M,M,M,M,M,M,M,M,M,M,M,79.28,KHTH 102015Z AUTO 31007KT 10SM CLR 28/M09 A3003 RMK A01,M
BAM,2022-09-10 20:15,-116.8743,40.5990,1382.36,86.00,17.60,7.90,0.00,0.00,0.00,30.08,M,10.00,M,CLR,M,M,M,M,M,M,M,M,M,M,M,M,M,M,81.85,KBAM 102015Z AUTO 00000KT 10SM CLR 30/M08 A3008 RMK AO1,M
BVU,2022-09-10 20:15,-114.8611,35.9475,671.00,84.20,64.40,51.47,50.00,7.00,0.00,29.98,M,M,M,M,M,M,M,M,M,M,M,M,M,M,M,M,M,M,85.71,KBVU 102015Z AUTO 05007KT 030V090 29/18 A2998 RMK AO2 TSNO,M
CXP,2022-09-10 20:15,-119.7326,39.1923,1431.00,82.40,19.40,9.58,M,6.00,0.00,30.08,M,10.00,M,CLR,M,M,M,M,M,M,M,M,M,M,M,M,M,M,79.45,KCXP 102015Z AUTO VRB06KT 10SM CLR 28/M07 A3008 RMK AO2,M
RTS,2022-09-10 20:15,-119.8764,39.6682,1539.00,80.60,15.80,8.70,M,6.00,0.00,30.10,M,10.00,M,CLR,M,M,M,M,M,M,M,M,M,M,M,M,M,M,78.35,KRTS 102015Z AUTO VRB06KT 10SM CLR 27/M09 A3010 RMK AO2,M
05U,2022-09-10 20:15,-116.0051,39.6042,1811.23,84.20,30.20,14.18,60.00,6.00,0.00,30.16,M,10.00,M,M,M,M,M,M,M,M,M,M,M,M,M,M,M,M,81.26,K05U 102015Z AUTO 06006KT 10SM 29/M01 A3016 RMK A01,M
TMT,2022-09-10 20:15,-117.1971,39.4643,1749.34,M,M,M,320.00,3.00,0.00,30.14,M,10.00,M,CLR,M,M,M,M,M,M,M,M,M,M,M,M,M,M,M,KTMT 102015Z AUTO 32003KT 10SM CLR A3014 RMK AO2,M
MEV,2022-09-10 20:15,-119.7500,38.9963,1441.42,80.60,30.20,15.94,0.00,0.00,0.00,30.06,M,8.00,M,CLR,M,M,M,M,M,M,M,M,M,M,M,M,M,M,78.77,KMEV 102015Z AUTO 00000KT 8SM CLR 27/M01 A3006 RMK AO2,M
BVU,2022-09-10 20:35,-114.8611,35.9475,671.00,84.20,64.40,51.47,30.00,11.00,0.00,29.98,M,M,M,M,M,M,M,M,M,M,M,M,M,M,M,M,M,M,85.71,KBVU 102035Z AUTO 03011KT 29/18 A2998 RMK AO2 TSNO,M
BAM,2022-09-10 20:35,-116.8743,40.5990,1382.36,86.00,17.60,7.90,10.00,4.00,0.00,30.08,M,10.00,M,CLR,M,M,M,M,M,M,M,M,M,M,M,M,M,M,81.85,KBAM 102035Z AUTO 01004KT 10SM CLR 30/M08 A3008 RMK AO1,M
MEV,2022-09-10 20:35,-119.7500,38.9963,1441.42,82.40,32.00,16.17,250.00,4.00,0.00,30.06,M,10.00,M,CLR,M,M,M,M,M,M,M,M,M,M,M,M,M,M,80.00,KMEV 102035Z AUTO 25004KT 10SM CLR 28/00 A3006 RMK AO2,M
05U,2022-09-10 20:35,-116.0051,39.6042,1811.23,82.40,28.40,13.96,90.00,4.00,0.00,30.16,M,10.00,M,M,M,M,M,M,M,M,M,M,M,M,M,M,M,M,79.94,K05U 102035Z AUTO 09004KT 10SM 28/M02 A3016 RMK A01,M
RTS,2022-09-10 20:35,-119.8764,39.6682,1539.00,80.60,15.80,8.70,0.00,0.00,0.00,30.11,M,10.00,M,CLR,M,M,M,M,M,M,M,M,M,M,M,M,M,M,78.35,KRTS 102035Z AUTO 00000KT 10SM CLR 27/M09 A3011 RMK AO2,M
CXP,2022-09-10 20:35,-119.7326,39.1923,1431.00,82.40,19.40,9.58,100.00,7.00,0.00,30.07,M,10.00,M,CLR,M,M,M,M,M,M,M,M,M,M,M,M,M,M,79.45,KCXP 102035Z AUTO 10007KT 10SM CLR 28/M07 A3007 RMK AO2,M
HTH,2022-09-10 20:35,-118.6315,38.5448,1282.89,84.20,17.60,8.37,280.00,7.00,0.00,30.02,M,10.00,12.00,CLR,M,M,M,M,M,M,M,M,M,M,M,M,M,M,80.59,KHTH 102035Z AUTO 28007G12KT 10SM CLR 29/M08 A3002 RMK A01,M
TMT,2022-09-10 20:35,-117.1971,39.4643,1749.34,M,M,M,20.00,4.00,0.00,30.13,M,10.00,M,CLR,M,M,M,M,M,M,M,M,M,M,M,M,M,M,M,KTMT 102035Z AUTO 02004KT 10SM CLR A3013 RMK AO2,M
LOL,2022-09-10 20:53,-118.5701,40.0684,1192.43,87.00,15.10,6.84,0.00,0.00,0.00,30.02,1012.10,10.00,M,CLR,M,M,M,M,M,M,M,M,M,M,M,M,M,M,82.53,KLOL 102053Z AUTO 00000KT 10SM CLR 31/M09 A3002 RMK AO2 SLP121 T03061094 58014,M
VGT,2022-09-10 20:53,-115.1933,36.2111,667.00,85.00,64.00,49.62,70.00,9.00,0.00,29.98,1014.30,10.00,M,CLR,M,M,M,M,M,M,M,M,M,M,M,M,M,M,86.23,KVGT 102053Z 07009KT 10SM CLR 29/18 A2998 RMK AO2 SLP143 60000 T02940178 55010,M
ELY,2022-09-10 20:53,-114.8453,39.2950,1909.00,80.00,38.00,22.03,M,4.00,0.00,30.17,1012.70,10.00,M,CLR,M,M,M,M,M,M,M,M,M,M,M,M,M,M,78.85,KELY 102053Z AUTO VRB04KT 10SM CLR 27/03 A3017 RMK AO2 SLP127 T02670033 56014 $,M
P68,2022-09-10 20:53,-116.0056,39.6014,1993.00,83.00,28.90,14.02,60.00,4.00,0.00,30.13,1012.30,M,M,M,M,M,M,M,M,M,M,M,M,M,M,M,M,M,80.30,KP68 102053Z AUTO 06004KT 28/M02 A3013 RMK AO1 SLP123 T02831017 56014,M
DRA,2022-09-10 20:53,-116.0278,36.6206,1009.00,76.00,63.00,64.31,230.00,9.00,0.00,30.03,1012.20,10.00,M,FEW,FEW,M,M,8000.00,12000.00,M,M,M,M,M,M,M,M,M,75.90,KDRA 102053Z AUTO 23009KT 10SM FEW080 FEW120 24/17 A3003 RMK AO2 SLP122 60000 T02440172 55006,M
RNO,2022-09-10 20:55,-119.7711,39.4839,1341.00,87.00,24.10,10.05,M,3.00,0.00,30.04,1011.70,10.00,M,SCT,BKN,M,M,6500.00,18000.00,M,M,M,M,M,M,M,M,M,83.00,KRNO 102055Z VRB03KT 10SM SCT065 BKN180 31/M04 A3004 RMK AO2 SLP117 FU SCT065 FU HZ ALQDS T03061044 57012,M
MEV,2022-09-10 20:55,-119.7500,38.9963,1441.42,82.40,30.20,15.03,M,4.00,0.00,30.06,M,10.00,M,CLR,M,M,M,M,M,M,M,M,M,M,M,M,M,M,79.97,KMEV 102055Z AUTO VRB04KT 10SM CLR 28/M01 A3006 RMK AO2,M
BAM,2022-09-10 20:55,-116.8743,40.5990,1382.36,86.00,19.40,8.53,30.00,3.00,0.00,30.07,M,10.00,M,CLR,M,M,M,M,M,M,M,M,M,M,M,M,M,M,81.94,KBAM 102055Z AUTO 03003KT 10SM CLR 30/M07 A3007 RMK AO1,M
HTH,2022-09-10 20:55,-118.6315,38.5448,1282.89,84.20,17.60,8.37,320.00,7.00,0.00,30.02,M,10.00,12.00,CLR,M,M,M,M,M,M,M,M,M,M,M,M,M,M,80.59,KHTH 102055Z AUTO 32007G12KT 10SM CLR 29/M08 A3002 RMK A01,M
TMT,2022-09-10 20:55,-117.1971,39.4643,1749.34,M,M,M,0.00,0.00,0.00,30.12,M,10.00,M,CLR,M,M,M,M,M,M,M,M,M,M,M,M,M,M,M,KTMT 102055Z AUTO 00000KT 10SM CLR A3012 RMK AO2,M
RTS,2022-09-10 20:55,-119.8764,39.6682,1539.00,80.60,15.80,8.70,190.00,5.00,0.00,30.10,M,10.00,M,CLR,M,M,M,M,M,M,M,M,M,M,M,M,M,M,78.35,KRTS 102055Z AUTO 19005KT 10SM CLR 27/M09 A3010 RMK AO2,M
BVU,2022-09-10 20:55,-114.8611,35.9475,671.00,84.20,64.40,51.47,30.00,14.00,0.00,29.98,M,M,M,M,M,M,M,M,M,M,M,M,M,M,M,M,M,M,85.71,KBVU 102055Z AUTO 03014KT 29/18 A2998 RMK AO2 TSNO,M
CXP,2022-09-10 20:55,-119.7326,39.1923,1431.00,84.20,19.40,9.04,80.00,6.00,0.00,30.07,M,10.00,M,CLR,M,M,M,M,M,M,M,M,M,M,M,M,M,M,80.68,KCXP 102055Z AUTO 08006KT 10SM CLR 29/M07 A3007 RMK AO2,M
05U,2022-09-10 20:55,-116.0051,39.6042,1811.23,84.20,28.40,13.18,100.00,3.00,0.00,30.15,M,10.00,M,M,M,M,M,M,M,M,M,M,M,M,M,M,M,M,81.25,K05U 102055Z AUTO 10003KT 10SM 29/M02 A3015 RMK A01,M
LAS,2022-09-10 20:56,-115.1634,36.0719,663.00,85.00,64.00,49.62,70.00,10.00,0.00,29.98,1012.70,10.00,M,FEW,SCT,BKN,BKN,8000.00,13000.00,18000.00,22000.00,M,M,M,M,M,M,M,86.23,KLAS 102056Z 07010KT 10SM FEW080 SCT130 BKN180 BKN220 29/18 A2998 RMK AO2 SLP127 T02940178 55010,M
NFL,2022-09-10 20:56,-118.7010,39.4166,1199.00,82.00,16.00,8.38,0.00,0.00,0.00,30.02,1013.50,8.00,M,SCT,BKN,M,M,8000.00,20000.00,M,M,M,M,M,M,M,M,M,79.02,KNFL 102056Z 00000KT 8SM SCT080 BKN200 28/M09 A3002 RMK AO2 SLP135 FU SCT080 T02781089 58013,M
INS,2022-09-10 20:56,-115.6733,36.5872,955.00,81.30,54.70,39.99,70.00,16.00,0.00,30.01,1011.40,10.00,M,BKN,OVC,M,M,15000.00,17000.00,M,M,M,M,M,M,M,M,M,80.88,KINS 102056Z AUTO 07016KT 10SM BKN150 OVC170 27/13 A3001 RMK AO2 SLP114 60001 T02740126 55008 $,M
TPH,2022-09-10 20:56,-117.0904,38.0505,1654.00,84.00,53.00,34.56,190.00,12.00,0.00,30.11,1010.80,10.00,17.00,FEW,M,M,M,8000.00,M,M,M,M,M,M,M,M,M,M,82.52,KTPH 102056Z AUTO 19012G17KT 10SM FEW080 29/12 A3011 RMK AO2 LTG DSNT NE-S SLP108 T02890117 56010,M
LSV,2022-09-10 20:56,-115.0343,36.2362,570.00,84.60,65.00,51.71,80.00,10.00,0.00,29.96,1012.20,10.00,M,FEW,SCT,SCT,BKN,8000.00,9000.00,12000.00,15000.00,M,M,M,M,M,M,M,86.32,KLSV 102056Z AUTO 08010KT 10SM FEW080 SCT090 SCT120 BKN150 OVC170 29/18 A2996 RMK AO2 SLP122 60001 T02920183 56009 $,M
HND,2022-09-10 20:56,-115.1344,35.9729,742.79,84.00,65.00,52.71,30.00,12.00,0.00,30.00,1014.80,10.00,M,CLR,M,M,M,M,M,M,M,M,M,M,M,M,M,M,85.72,KHND 102056Z 03012KT 10SM CLR 29/18 A3000 RMK AO2 SLP148 T02890183 56009,M
EKO,2022-09-10 20:56,-115.7860,40.8242,1367.00,85.00,18.00,8.32,0.00,0.00,0.00,30.10,1014.70,10.00,M,CLR,M,M,M,M,M,M,M,M,M,M,M,M,M,M,81.10,KEKO 102056Z AUTO 00000KT 10SM CLR 29/M08 A3010 RMK AO2 SLP147 T02941078 57015,M
WMC,2022-09-10 20:56,-117.8072,40.9019,1315.00,89.00,15.10,6.42,M,M,0.00,30.05,1012.30,10.00,M,CLR,M,M,M,M,M,M,M,M,M,M,M,M,M,M,83.98,KWMC 102056Z AUTO 10SM CLR 32/M09 A3005 RMK AO2 SLP123 T03171094 58012,M
TMT,2022-09-10 21:15,-117.1971,39.4643,1749.34,M,M,M,30.00,6.00,0.00,30.12,M,10.00,M,CLR,M,M,M,M,M,M,M,M,M,M,M,M,M,M,M,KTMT 102115Z AUTO 03006KT 10SM CLR A3012 RMK AO2,M
HTH,2022-09-10 21:15,-118.6315,38.5448,1282.89,86.00,15.80,7.31,330.00,8.00,0.00,30.01,M,10.00,M,CLR,M,M,M,M,M,M,M,M,M,M,M,M,M,M,81.78,KHTH 102115Z AUTO 33008KT 10SM CLR 30/M09 A3001 RMK A01,M
05U,2022-09-10 21:15,-116.0051,39.6042,1811.23,84.20,26.60,12.23,40.00,6.00,0.00,30.15,M,10.00,M,M,M,M,M,M,M,M,M,M,M,M,M,M,M,M,81.13,K05U 102115Z AUTO 04006KT 10SM 29/M03 A3015 RMK A01,M
MEV,2022-09-10 21:15,-119.7500,38.9963,1441.42,84.20,28.40,13.18,M,3.00,0.00,30.05,M,10.00,M,CLR,M,M,M,M,M,M,M,M,M,M,M,M,M,M,81.25,KMEV 102115Z AUTO VRB03KT 10SM CLR 29/M02 A3005 RMK AO2,M
BAM,2022-09-10 21:15,-116.8743,40.5990,1382.36,87.80,19.40,8.06,310.00,5.00,0.00,30.06,M,10.00,M,CLR,M,M,M,M,M,M,M,M,M,M,M,M,M,M,83.23,KBAM 102115Z AUTO 31005KT 10SM CLR 31/M07 A3006 RMK AO1,M
RTS,2022-09-10 21:15,-119.8764,39.6682,1539.00,82.40,15.80,8.20,M,3.00,0.00,30.10,M,10.00,M,CLR,M,M,M,M,M,M,M,M,M,M,M,M,M,M,79.28,KRTS 102115Z AUTO VRB03KT 10SM CLR 28/M09 A3010 RMK AO2,M
CXP,2022-09-10 21:15,-119.7326,39.1923,1431.00,84.20,21.20,9.76,90.00,8.00,0.00,30.07,M,10.00,M,CLR,M,M,M,M,M,M,M,M,M,M,M,M,M,M,80.77,KCXP 102115Z AUTO 09008KT 10SM CLR 29/M06 A3007 RMK AO2,M
BVU,2022-09-10 21:15,-114.8611,35.9475,671.00,84.20,64.40,51.47,30.00,16.00,0.00,29.98,M,M,M,M,M,M,M,M,M,M,M,M,M,M,M,M,M,M,85.71,KBVU 102115Z AUTO 03016KT 29/18 A2998 RMK AO2 TSNO,M
TPH,2022-09-10 21:19,-117.0904,38.0505,1654.00,77.00,57.00,50.07,190.00,27.00,0.00,30.12,M,5.00,40.00,FEW,BKN,M,M,2100.00,6500.00,M,M,VCTS HZ,M,M,M,40.00,200.00,2022-09-10 21:17,77.00,KTPH 102119Z AUTO 19027G40KT 5SM VCTS HZ FEW021 BKN065 25/14 A3012 RMK AO2 PK WND 20040/2117 LTG DSNT ALQDS T02500139,M
HTH,2022-09-10 21:35,-118.6315,38.5448,1282.89,86.00,17.60,7.90,320.00,9.00,0.00,30.01,M,10.00,M,CLR,M,M,M,M,M,M,M,M,M,M,M,M,M,M,81.85,KHTH 102135Z AUTO 32009KT 10SM CLR 30/M08 A3001 RMK A01,M
BAM,2022-09-10 21:35,-116.8743,40.5990,1382.36,89.60,19.40,7.61,340.00,3.00,0.00,30.06,M,10.00,M,CLR,M,M,M,M,M,M,M,M,M,M,M,M,M,M,84.54,KBAM 102135Z AUTO 34003KT 10SM CLR 32/M07 A3006 RMK AO1,M
TMT,2022-09-10 21:35,-117.1971,39.4643,1749.34,M,M,M,360.00,5.00,0.00,30.11,M,10.00,M,CLR,M,M,M,M,M,M,M,M,M,M,M,M,M,M,M,KTMT 102135Z AUTO 36005KT 10SM CLR A3011 RMK AO2,M
RTS,2022-09-10 21:35,-119.8764,39.6682,1539.00,82.40,15.80,8.20,0.00,0.00,0.00,30.09,M,10.00,M,CLR,M,M,M,M,M,M,M,M,M,M,M,M,M,M,79.28,KRTS 102135Z AUTO 00000KT 10SM CLR 28/M09 A3009 RMK AO2,M
CXP,2022-09-10 21:35,-119.7326,39.1923,1431.00,84.20,19.40,9.04,60.00,6.00,0.00,30.07,M,10.00,M,CLR,M,M,M,M,M,M,M,M,M,M,M,M,M,M,80.68,KCXP 102135Z AUTO 06006KT 10SM CLR 29/M07 A3007 RMK AO2,M
MEV,2022-09-10 21:35,-119.7500,38.9963,1441.42,84.20,28.40,13.18,M,3.00,0.00,30.05,M,10.00,M,CLR,M,M,M,M,M,M,M,M,M,M,M,M,M,M,81.25,KMEV 102135Z AUTO VRB03KT 10SM CLR 29/M02 A3005 RMK AO2,M
05U,2022-09-10 21:35,-116.0051,39.6042,1811.23,86.00,26.60,11.55,60.00,6.00,0.00,30.15,M,10.00,M,M,M,M,M,M,M,M,M,M,M,M,M,M,M,M,82.39,K05U 102135Z AUTO 06006KT 10SM 30/M03 A3015 RMK A01,M
BVU,2022-09-10 21:35,-114.8611,35.9475,671.00,84.20,64.40,51.47,40.00,13.00,0.00,29.99,M,M,21.00,M,M,M,M,M,M,M,M,M,M,M,M,M,M,M,85.71,KBVU 102135Z AUTO 04013G21KT 29/18 A2999 RMK AO2 TSNO,M
TPH,2022-09-10 21:39,-117.0904,38.0505,1654.00,66.00,61.00,83.91,180.00,22.00,T,30.15,M,1.50,37.00,FEW,BKN,OVC,M,1900.00,6500.00,9000.00,M,VCTS +RA,M,M,M,40.00,200.00,2022-09-10 21:17,66.00,KTPH 102139Z AUTO 18022G37KT 1 1/2SM VCTS +RA FEW019 BKN065 OVC090 19/16 A3015 RMK AO2 PK WND 20040/2117 LTG DSNT ALQDS RAB37 P0000 T01890161,M
TPH,2022-09-10 21:48,-117.0904,38.0505,1654.00,65.00,61.00,87.18,200.00,18.00,0.08,30.15,M,1.25,29.00,SCT,BKN,OVC,M,2500.00,5000.00,8500.00,M,+TSRA BR,M,M,M,40.00,200.00,2022-09-10 21:17,64.90,KTPH 102148Z AUTO 20018G29KT 1 1/4SM +TSRA BR SCT025 BKN050 OVC085 18/16 A3015 RMK AO2 PK WND 20040/2117 LTG DSNT ALQDS RAB37 TSB44 P0008 T01830161,M
DRA,2022-09-10 21:53,-116.0278,36.6206,1009.00,81.00,60.00,49.06,0.00,0.00,0.00,30.01,1011.60,10.00,M,CLR,M,M,M,M,M,M,M,M,M,M,M,M,M,M,81.62,KDRA 102153Z AUTO 00000KT 10SM CLR 27/16 A3001 RMK AO2 SLP116 T02720156,M
ELY,2022-09-10 21:53,-114.8453,39.2950,1909.00,82.00,37.00,19.99,50.00,5.00,0.00,30.15,1012.30,10.00,M,CLR,M,M,M,M,M,M,M,M,M,M,M,M,M,M,79.86,KELY 102153Z AUTO 05005KT 10SM CLR 28/03 A3015 RMK AO2 SLP123 T02780028 $,M
TPH,2022-09-10 21:53,-117.0904,38.0505,1654.00,64.40,60.80,88.09,210.00,12.00,0.09,30.14,M,3.00,29.00,FEW,BKN,OVC,M,2700.00,5000.00,10000.00,M,TSRA BR,M,M,M,40.00,200.00,2022-09-10 21:17,64.40,KTPH 102153Z AUTO 21012G29KT 3SM TSRA BR FEW027 BKN050 OVC100 18/16 A3014 RMK AO2 PK WND 20040/2117 LTG DSNT ALQDS RAB37 TSB44 P0009,M
LOL,2022-09-10 21:53,-118.5701,40.0684,1192.43,88.00,17.10,7.25,M,3.00,0.00,30.00,1011.60,10.00,M,CLR,M,M,M,M,M,M,M,M,M,M,M,M,M,M,83.27,KLOL 102153Z AUTO VRB03KT 10SM CLR 31/M08 A3000 RMK AO2 SLP116 T03111083,M
P68,2022-09-10 21:53,-116.0056,39.6014,1993.00,85.00,28.00,12.67,350.00,8.00,0.00,30.11,1011.60,M,M,M,M,M,M,M,M,M,M,M,M,M,M,M,M,M,81.73,KP68 102153Z AUTO 35008KT 29/M02 A3011 RMK AO1 SLP116 T02941022,M
VGT,2022-09-10 21:53,-115.1933,36.2111,667.00,85.00,62.00,46.42,70.00,13.00,0.00,29.99,1014.50,10.00,M,FEW,M,M,M,7000.00,M,M,M,M,M,M,M,M,M,M,85.49,KVGT 102153Z 07013KT 10SM FEW070 29/17 A2999 RMK AO2 SLP145 T02940167,M
RTS,2022-09-10 21:55,-119.8764,39.6682,1539.00,82.40,15.80,8.20,180.00,4.00,0.00,30.09,M,10.00,M,CLR,M,M,M,M,M,M,M,M,M,M,M,M,M,M,79.28,KRTS 102155Z AUTO 18004KT 10SM CLR 28/M09 A3009 RMK AO2,M
CXP,2022-09-10 21:55,-119.7326,39.1923,1431.00,84.20,19.40,9.04,M,6.00,0.00,30.06,M,10.00,M,CLR,M,M,M,M,M,M,M,M,M,M,M,M,M,M,80.68,KCXP 102155Z AUTO VRB06KT 10SM CLR 29/M07 A3006 RMK AO2,M
BVU,2022-09-10 21:55,-114.8611,35.9475,671.00,84.20,64.40,51.47,40.00,17.00,0.00,29.98,M,M,M,M,M,M,M,M,M,M,M,M,M,M,M,M,M,M,85.71,KBVU 102155Z AUTO 04017KT 29/18 A2998 RMK AO2 TSNO,M
TMT,2022-09-10 21:55,-117.1971,39.4643,1749.34,M,M,M,30.00,6.00,0.00,30.11,M,10.00,M,CLR,M,M,M,M,M,M,M,M,M,M,M,M,M,M,M,KTMT 102155Z AUTO 03006KT 10SM CLR A3011 RMK AO2 LTG DSNT S AND SW,M
05U,2022-09-10 21:55,-116.0051,39.6042,1811.23,86.00,26.60,11.55,360.00,6.00,0.00,30.14,M,10.00,M,M,M,M,M,M,M,M,M,M,M,M,M,M,M,M,82.39,K05U 102155Z AUTO 36006KT 10SM 30/M03 A3014 RMK A01,M
MEV,2022-09-10 21:55,-119.7500,38.9963,1441.42,86.00,26.60,11.55,320.00,6.00,0.00,30.04,M,10.00,M,CLR,M,M,M,M,M,M,M,M,M,M,M,M,M,M,82.39,KMEV 102155Z AUTO 32006KT 10SM CLR 30/M03 A3004 RMK AO2,M
BAM,2022-09-10 21:55,-116.8743,40.5990,1382.36,89.60,21.20,8.22,360.00,4.00,0.00,30.05,M,10.00,M,CLR,M,M,M,M,M,M,M,M,M,M,M,M,M,M,84.64,KBAM 102155Z AUTO 36004KT 10SM CLR 32/M06 A3005 RMK AO1,M
HTH,2022-09-10 21:55,-118.6315,38.5448,1282.89,87.80,17.60,7.46,320.00,12.00,0.00,29.99,M,10.00,M,CLR,M,M,M,M,M,M,M,M,M,M,M,M,M,M,83.14,KHTH 102155Z AUTO 32012KT 10SM CLR 31/M08 A2999 RMK A01,M
RNO,2022-09-10 21:55,-119.7711,39.4839,1341.00,88.00,25.00,10.14,0.00,0.00,0.00,30.03,1011.10,10.00,M,SCT,BKN,M,M,6500.00,18000.00,M,M,M,M,M,M,M,M,M,83.71,KRNO 102155Z 00000KT 10SM SCT065 BKN180 31/M04 A3003 RMK AO2 SLP111 FU SCT065 FU HZ ALQDS T03111039,M
NFL,2022-09-10 21:56,-118.7010,39.4166,1199.00,84.00,19.00,8.94,290.00,5.00,0.00,30.00,1013.10,8.00,M,SCT,BKN,M,M,8000.00,20000.00,M,M,M,M,M,M,M,M,M,80.52,KNFL 102156Z 29005KT 8SM SCT080 BKN200 29/M07 A3000 RMK AO2 SLP131 FU SCT080 T02891072,M
LSV,2022-09-10 21:56,-115.0343,36.2362,570.00,85.30,64.00,48.82,80.00,13.00,0.00,29.97,1012.50,10.00,M,FEW,BKN,BKN,BKN,5500.00,9000.00,10000.00,14000.00,M,M,M,M,M,M,M,86.58,KLSV 102156Z AUTO 08013KT 10SM FEW055 BKN090 BKN100 BKN140 OVC160 30/18 A2997 RMK AO2 SLP125 T02960177 $,M
TPH,2022-09-10 21:56,-117.0904,38.0505,1654.00,65.00,61.00,87.18,200.00,11.00,0.09,30.14,1014.10,5.00,25.00,FEW,BKN,OVC,M,2500.00,5000.00,11000.00,M,-TSRA BR,M,M,M,40.00,200.00,2022-09-10 21:17,64.90,KTPH 102156Z AUTO 20011G25KT 5SM -TSRA BR FEW025 BKN050 OVC110 18/16 A3014 RMK AO2 PK WND 20040/2117 LTG DSNT ALQDS RAB37 TSB44 SLP141 P0009 T01830161,M
WMC,2022-09-10 21:56,-117.8072,40.9019,1315.00,91.00,17.10,6.60,320.00,4.00,0.00,30.03,1011.70,10.00,M,CLR,M,M,M,M,M,M,M,M,M,M,M,M,M,M,85.45,KWMC 102156Z AUTO 32004KT 10SM CLR 33/M08 A3003 RMK AO2 SLP117 T03281083,M
EKO,2022-09-10 21:56,-115.7860,40.8242,1367.00,86.00,24.10,10.41,M,5.00,0.00,30.08,1014.10,10.00,M,CLR,M,M,M,M,M,M,M,M,M,M,M,M,M,M,82.21,KEKO 102156Z AUTO VRB05KT 10SM CLR 30/M04 A3008 RMK AO2 SLP141 T03001044,M
HND,2022-09-10 21:56,-115.1344,35.9729,742.79,84.00,63.00,49.32,30.00,14.00,0.00,30.01,1015.10,10.00,19.00,FEW,M,M,M,9000.00,M,M,M,M,M,M,M,M,M,M,84.99,KHND 102156Z 03014G19KT 10SM FEW090 29/17 A3001 RMK AO2 SLP151 T02890172,M
LAS,2022-09-10 21:56,-115.1634,36.0719,663.00,86.00,63.00,46.25,60.00,14.00,0.00,29.99,1012.90,10.00,M,FEW,SCT,BKN,BKN,8000.00,13000.00,18000.00,22000.00,M,M,M,M,M,M,M,86.88,KLAS 102156Z 06014KT 10SM FEW080 SCT130 BKN180 BKN220 30/17 A2999 RMK AO2 SLP129 T03000172,M
INS,2022-09-10 21:56,-115.6733,36.5872,955.00,82.00,53.80,37.95,120.00,19.00,0.00,29.99,1010.80,10.00,27.00,OVC,M,M,M,16000.00,M,M,M,M,M,M,M,30.00,130.00,2022-09-10 21:55,81.15,KINS 102156Z AUTO 12019G27KT 10SM OVC160 28/12 A2999 RMK AO2 PK WND 13030/55 SLP108 T02770121 $,M
TPH,2022-09-10 22:05,-117.0904,38.0505,1654.00,66.00,60.00,81.27,240.00,15.00,T,30.13,M,10.00,21.00,FEW,SCT,BKN,M,2500.00,7000.00,9000.00,M,-RA,M,M,M,M,M,M,66.00,KTPH 102205Z AUTO 24015G21KT 10SM -RA FEW025 SCT070 BKN090 19/16 A3013 RMK AO2 LTG DSNT N AND SW TSE2159 P0000 T01890156,M
LSV,2022-09-10 22:06,-115.0343,36.2362,570.00,86.00,64.40,48.58,40.00,12.00,0.00,29.97,1012.50,10.00,M,SCT,BKN,BKN,OVC,5000.00,9000.00,14000.00,16000.00,M,M,M,M,M,M,M,87.49,KLSV 102206Z AUTO 04012KT 10SM SCT050 BKN090 BKN140 OVC160 30/18 A2997 RMK AO2 WSHFT 2151 SLP125 $,M
BVU,2022-09-10 22:15,-114.8611,35.9475,671.00,84.20,66.20,54.80,50.00,14.00,0.00,29.98,M,M,19.00,M,M,M,M,M,M,M,M,M,M,M,M,M,M,M,86.50,KBVU 102215Z AUTO 05014G19KT 29/19 A2998 RMK AO2 TSNO,M
CXP,2022-09-10 22:15,-119.7326,39.1923,1431.00,86.00,19.40,8.53,80.00,8.00,0.00,30.06,M,10.00,M,CLR,M,M,M,M,M,M,M,M,M,M,M,M,M,M,81.94,KCXP 102215Z AUTO 08008KT 10SM CLR 30/M07 A3006 RMK AO2,M
RTS,2022-09-10 22:15,-119.8764,39.6682,1539.00,82.40,17.60,8.87,M,4.00,0.00,30.09,M,10.00,M,CLR,M,M,M,M,M,M,M,M,M,M,M,M,M,M,79.36,KRTS 102215Z AUTO VRB04KT 10SM CLR 28/M08 A3009 RMK AO2,M
05U,2022-09-10 22:15,-116.0051,39.6042,1811.23,84.20,26.60,12.23,M,4.00,0.00,30.14,M,10.00,M,M,M,M,M,M,M,M,M,M,M,M,M,M,M,M,81.13,K05U 102215Z AUTO VRB04KT 10SM 29/M03 A3014 RMK A01,M
MEV,2022-09-10 22:15,-119.7500,38.9963,1441.42,86.00,23.00,9.94,320.00,6.00,0.00,30.04,M,9.00,M,CLR,M,M,M,M,M,M,M,M,M,M,M,M,M,M,82.14,KMEV 102215Z AUTO 32006KT 9SM CLR 30/M05 A3004 RMK AO2,M
BAM,2022-09-10 22:15,-116.8743,40.5990,1382.36,89.60,21.20,8.22,30.00,3.00,0.00,30.04,M,10.00,M,CLR,M,M,M,M,M,M,M,M,M,M,M,M,M,M,84.64,KBAM 102215Z AUTO 03003KT 10SM CLR 32/M06 A3004 RMK AO1,M
HTH,2022-09-10 22:15,-118.6315,38.5448,1282.89,86.00,19.40,8.53,330.00,10.00,0.00,29.99,M,10.00,M,CLR,M,M,M,M,M,M,M,M,M,M,M,M,M,M,81.94,KHTH 102215Z AUTO 33010KT 10SM CLR 30/M07 A2999 RMK A01,M
TMT,2022-09-10 22:15,-117.1971,39.4643,1749.34,M,M,M,360.00,6.00,0.00,30.11,M,10.00,M,CLR,M,M,M,M,M,M,M,M,M,M,M,M,M,M,M,KTMT 102215Z AUTO 36006KT 10SM CLR A3011 RMK AO2,M
LSV,2022-09-10 22:23,-115.0343,36.2362,570.00,84.20,66.20,54.80,20.00,15.00,0.00,29.97,1012.50,10.00,M,BKN,BKN,BKN,OVC,5000.00,10000.00,13000.00,16000.00,-DZ,M,M,M,M,M,M,86.50,KLSV 102223Z AUTO 02015KT 10SM -DZ BKN050 BKN100 BKN130 OVC160 29/19 A2997 RMK AO2 DZB23 SLP125 $,M
LSV,2022-09-10 22:26,-115.0343,36.2362,570.00,84.20,66.20,54.80,10.00,14.00,0.00,29.97,1012.50,10.00,M,BKN,BKN,BKN,OVC,5000.00,10000.00,13000.00,15000.00,M,M,M,M,M,M,M,86.50,KLSV 102226Z AUTO 01014KT 10SM BKN050 BKN100 BKN130 OVC150 29/19 A2997 RMK AO2 DZB23E26 SLP125 $,M
BVU,2022-09-10 22:35,-114.8611,35.9475,671.00,82.40,64.40,54.55,40.00,16.00,0.00,29.98,M,M,M,M,M,M,M,M,M,M,M,M,M,M,M,M,M,M,83.98,KBVU 102235Z AUTO 04016KT 28/18 A2998 RMK AO2 TSNO,M
CXP,2022-09-10 22:35,-119.7326,39.1923,1431.00,86.00,19.40,8.53,80.00,7.00,0.00,30.05,M,10.00,M,CLR,M,M,M,M,M,M,M,M,M,M,M,M,M,M,81.94,KCXP 102235Z AUTO 08007KT 10SM CLR 30/M07 A3005 RMK AO2,M
RTS,2022-09-10 22:35,-119.8764,39.6682,1539.00,84.20,21.20,9.76,M,4.00,0.00,30.08,M,9.00,M,CLR,M,M,M,M,M,M,M,M,M,M,M,M,M,M,80.77,KRTS 102235Z AUTO VRB04KT 9SM CLR 29/M06 A3008 RMK AO2,M
05U,2022-09-10 22:35,-116.0051,39.6042,1811.23,84.20,24.80,11.35,40.00,5.00,0.00,30.14,M,10.00,M,M,M,M,M,M,M,M,M,M,M,M,M,M,M,M,81.00,K05U 102235Z AUTO 04005KT 10SM 29/M04 A3014 RMK A01,M
MEV,2022-09-10 22:35,-119.7500,38.9963,1441.42,86.00,23.00,9.94,360.00,6.00,0.00,30.03,M,10.00,M,CLR,M,M,M,M,M,M,M,M,M,M,M,M,M,M,82.14,KMEV 102235Z AUTO 36006KT 10SM CLR 30/M05 A3003 RMK AO2,M
BAM,2022-09-10 22:35,-116.8743,40.5990,1382.36,89.60,21.20,8.22,330.00,5.00,0.00,30.04,M,10.00,M,CLR,M,M,M,M,M,M,M,M,M,M,M,M,M,M,84.64,KBAM 102235Z AUTO 33005KT 10SM CLR 32/M06 A3004 RMK AO1,M
HTH,2022-09-10 22:35,-118.6315,38.5448,1282.89,86.00,21.20,9.21,330.00,10.00,0.00,29.99,M,10.00,M,CLR,M,M,M,M,M,M,M,M,M,M,M,M,M,M,82.04,KHTH 102235Z AUTO 33010KT 10SM CLR 30/M06 A2999 RMK A01,M
TMT,2022-09-10 22:35,-117.1971,39.4643,1749.34,M,M,M,330.00,6.00,0.00,30.10,M,10.00,M,CLR,M,M,M,M,M,M,M,M,M,M,M,M,M,M,M,KTMT 102235Z AUTO 33006KT 10SM CLR A3010 RMK AO2,M
LSV,2022-09-10 22:39,-115.0343,36.2362,570.00,84.20,66.20,54.80,80.00,11.00,0.00,29.96,1012.20,10.00,M,SCT,SCT,BKN,BKN,4900.00,7500.00,13000.00,15000.00,M,M,M,M,M,M,M,86.50,KLSV 102239Z AUTO 08011KT 10SM SCT049 SCT075 BKN130 BKN150 OVC200 29/19 A2996 RMK AO2 WSHFT 33 DZB23E26 SLP122 $,M
LOL,2022-09-10 22:53,-118.5701,40.0684,1192.43,90.00,18.00,7.08,0.00,0.00,0.00,29.98,1011.10,10.00,M,CLR,M,M,M,M,M,M,M,M,M,M,M,M,M,M,84.76,KLOL 102253Z AUTO 00000KT 10SM CLR 32/M08 A2998 RMK AO2 SLP111 T03221078,M
VGT,2022-09-10 22:53,-115.1933,36.2111,667.00,83.00,63.00,51.10,40.00,11.00,T,29.98,1014.50,10.00,M,FEW,BKN,M,M,4800.00,7000.00,M,M,M,M,M,M,M,M,M,83.98,KVGT 102253Z 04011KT 10SM FEW048 BKN070 28/17 A2998 RMK AO2 RAB38E47 SLP145 P0000 T02830172,M
ELY,2022-09-10 22:53,-114.8453,39.2950,1909.00,84.00,30.90,14.68,90.00,7.00,0.00,30.15,1011.50,9.00,M,CLR,M,M,M,M,M,M,M,M,M,M,M,M,M,M,81.12,KELY 102253Z AUTO 09007KT 9SM CLR 29/M01 A3015 RMK AO2 SLP115 T02891006 $,M
DRA,2022-09-10 22:53,-116.0278,36.6206,1009.00,84.00,54.00,35.72,80.00,15.00,0.00,30.01,1011.20,10.00,M,CLR,M,M,M,M,M,M,M,M,M,M,M,M,M,M,82.67,KDRA 102253Z AUTO 08015KT 10SM CLR 29/12 A3001 RMK AO2 SLP112 T02890122,M
P68,2022-09-10 22:53,-116.0056,39.6014,1993.00,85.00,27.00,12.16,M,4.00,0.00,30.11,1011.80,M,M,M,M,M,M,M,M,M,M,M,M,M,M,M,M,M,81.65,KP68 102253Z AUTO VRB04KT 29/M03 A3011 RMK AO1 SLP118 T02941028,M
RTS,2022-09-10 22:55,-119.8764,39.6682,1539.00,84.20,19.40,9.04,140.00,5.00,0.00,30.08,M,8.00,M,CLR,M,M,M,M,M,M,M,M,M,M,M,M,M,M,80.68,KRTS 102255Z AUTO 14005KT 8SM CLR 29/M07 A3008 RMK AO2,M
05U,2022-09-10 22:55,-116.0051,39.6042,1811.23,86.00,26.60,11.55,350.00,6.00,0.00,30.13,M,10.00,M,M,M,M,M,M,M,M,M,M,M,M,M,M,M,M,82.39,K05U 102255Z AUTO 35006KT 10SM 30/M03 A3013 RMK A01,M
BVU,2022-09-10 22:55,-114.8611,35.9475,671.00,82.40,62.60,51.21,30.00,13.00,0.00,29.99,M,M,M,M,M,M,M,M,M,M,M,M,M,M,M,M,M,M,83.41,KBVU 102255Z AUTO 03013KT 28/17 A2999 RMK AO2 TSNO,M
CXP,2022-09-10 22:55,-119.7326,39.1923,1431.00,86.00,19.40,8.53,90.00,7.00,0.00,30.05,M,10.00,M,CLR,M,M,M,M,M,M,M,M,M,M,M,M,M,M,81.94,KCXP 102255Z AUTO 09007KT 10SM CLR 30/M07 A3005 RMK AO2,M
HTH,2022-09-10 22:55,-118.6315,38.5448,1282.89,86.00,19.40,8.53,310.00,11.00,0.00,29.99,M,10.00,M,CLR,M,M,M,M,M,M,M,M,M,M,M,M,M,M,81.94,KHTH 102255Z AUTO 31011KT 10SM CLR 30/M07 A2999 RMK A01,M
BAM,2022-09-10 22:55,-116.8743,40.5990,1382.36,89.60,21.20,8.22,350.00,5.00,0.00,30.04,M,10.00,M,CLR,M,M,M,M,M,M,M,M,M,M,M,M,M,M,84.64,KBAM 102255Z AUTO 35005KT 10SM CLR 32/M06 A3004 RMK AO1,M
RNO,2022-09-10 22:55,-119.7711,39.4839,1341.00,89.00,26.10,10.25,0.00,0.00,0.00,30.02,1010.60,10.00,M,BKN,M,M,M,5000.00,M,M,M,M,M,M,M,M,M,M,84.60,KRNO 102255Z 00000KT 10SM BKN050 32/M03 A3002 RMK AO2 SLP106 HZ BKN050 HZ ALQDS T03171033,M
MEV,2022-09-10 22:55,-119.7500,38.9963,1441.42,87.80,23.00,9.39,350.00,9.00,0.00,30.03,M,10.00,M,CLR,M,M,M,M,M,M,M,M,M,M,M,M,M,M,83.43,KMEV 102255Z AUTO 35009KT 10SM CLR 31/M05 A3003 RMK AO2,M
TMT,2022-09-10 22:55,-117.1971,39.4643,1749.34,M,M,M,10.00,3.00,0.00,30.10,M,10.00,8.00,CLR,M,M,M,M,M,M,M,M,M,M,M,M,M,M,M,KTMT 102255Z AUTO 01003G08KT 10SM CLR A3010 RMK AO2 LTG DSNT S,M
INS,2022-09-10 22:56,-115.6733,36.5872,955.00,81.70,57.00,42.91,120.00,22.00,0.00,30.01,1011.40,10.00,29.00,FEW,SCT,M,M,13000.00,18000.00,M,M,M,M,M,M,34.00,140.00,2022-09-10 22:34,81.53,KINS 102256Z AUTO 12022G29KT 10SM FEW130 SCT180 28/14 A3001 RMK AO2 PK WND 14034/34 SLP114 T02760139 $,M
LSV,2022-09-10 22:56,-115.0343,36.2362,570.00,84.20,61.20,45.99,50.00,14.00,T,29.96,1012.20,10.00,M,FEW,SCT,BKN,BKN,7000.00,9500.00,12000.00,15000.00,M,M,M,M,M,M,M,84.56,KLSV 102256Z AUTO 05014KT 10SM FEW070 SCT095 BKN120 BKN150 BKN200 29/16 A2996 RMK AO2 DZB23E26 SLP122 P0000 T02900162 $,M
EKO,2022-09-10 22:56,-115.7860,40.8242,1367.00,88.00,17.10,7.25,M,M,0.00,30.07,1013.40,10.00,M,CLR,M,M,M,M,M,M,M,M,M,M,M,M,M,M,83.27,KEKO 102256Z AUTO 10SM CLR 31/M08 A3007 RMK AO2 SLP134 T03111083,M
WMC,2022-09-10 22:56,-117.8072,40.9019,1315.00,92.00,15.10,5.88,M,3.00,0.00,30.01,1011.20,10.00,M,CLR,M,M,M,M,M,M,M,M,M,M,M,M,M,M,86.01,KWMC 102256Z AUTO VRB03KT 10SM CLR 33/M09 A3001 RMK AO2 SLP112 T03331094,M
NFL,2022-09-10 22:56,-118.7010,39.4166,1199.00,87.00,16.00,7.12,M,4.00,0.00,29.98,1012.40,8.00,M,SCT,BKN,M,M,8000.00,20000.00,M,M,M,M,M,M,M,M,M,82.57,KNFL 102256Z VRB04KT 8SM SCT080 BKN200 31/M09 A2998 RMK AO2 SLP124 FU SCT080 T03061089,M
HND,2022-09-10 22:56,-115.1344,35.9729,742.79,82.00,64.00,54.50,60.00,13.00,0.00,30.02,1015.40,10.00,M,SCT,BKN,M,M,9500.00,11000.00,M,M,M,M,M,M,M,M,M,83.47,KHND 102256Z 06013KT 10SM SCT095 BKN110 28/18 A3002 RMK AO2 SLP154 T02780178,M
TPH,2022-09-10 22:56,-117.0904,38.0505,1654.00,69.00,61.00,75.40,70.00,16.00,T,30.13,1013.30,10.00,22.00,SCT,M,M,M,11000.00,M,M,M,M,M,M,M,26.00,140.00,2022-09-10 22:35,69.10,KTPH 102256Z AUTO 07016G22KT 10SM SCT110 21/16 A3013 RMK AO2 PK WND 14026/2235 LTG DSNT N RAE09 TSE2159 SLP133 P0000 T02060161,M
LAS,2022-09-10 22:56,-115.1634,36.0719,663.00,83.00,63.00,51.10,70.00,19.00,0.00,29.99,1013.00,10.00,M,FEW,FEW,BKN,M,7000.00,9000.00,16000.00,M,M,M,M,M,28.00,60.00,2022-09-10 22:25,83.98,KLAS 102256Z 07019KT 10SM FEW070 FEW090 BKN160 28/17 A2999 RMK AO2 PK WND 06028/2225 SLP130 SH DSNT SW T02830172,M
CXP,2022-09-10 23:15,-119.7326,39.1923,1431.00,86.00,17.60,7.90,80.00,8.00,0.00,30.04,M,10.00,M,CLR,M,M,M,M,M,M,M,M,M,M,M,M,M,M,81.85,KCXP 102315Z AUTO 08008KT 10SM CLR 30/M08 A3004 RMK AO2,M
BVU,2022-09-10 23:15,-114.8611,35.9475,671.00,80.60,62.60,54.30,40.00,11.00,0.00,29.98,M,M,M,M,M,M,M,M,M,M,M,M,M,M,M,M,M,M,81.84,KBVU 102315Z AUTO 04011KT 27/17 A2998 RMK AO2 TSNO,M
05U,2022-09-10 23:15,-116.0051,39.6042,1811.23,84.20,21.20,9.76,20.00,7.00,0.00,30.13,M,10.00,M,M,M,M,M,M,M,M,M,M,M,M,M,M,M,M,80.77,K05U 102315Z AUTO 02007KT 10SM 29/M06 A3013 RMK A01,M
RTS,2022-09-10 23:15,-119.8764,39.6682,1539.00,84.20,23.00,10.53,140.00,4.00,0.00,30.08,M,9.00,M,CLR,M,M,M,M,M,M,M,M,M,M,M,M,M,M,80.88,KRTS 102315Z AUTO 14004KT 9SM CLR 29/M05 A3008 RMK AO2,M
BAM,2022-09-10 23:15,-116.8743,40.5990,1382.36,91.40,21.20,7.77,320.00,5.00,0.00,30.03,M,10.00,M,CLR,M,M,M,M,M,M,M,M,M,M,M,M,M,M,85.96,KBAM 102315Z AUTO 32005KT 10SM CLR 33/M06 A3003 RMK AO1,M
MEV,2022-09-10 23:15,-119.7500,38.9963,1441.42,86.00,26.60,11.55,360.00,8.00,0.00,30.03,M,10.00,M,CLR,M,M,M,M,M,M,M,M,M,M,M,M,M,M,82.39,KMEV 102315Z AUTO 36008KT 10SM CLR 30/M03 A3003 RMK AO2,M
HTH,2022-09-10 23:15,-118.6315,38.5448,1282.89,86.00,19.40,8.53,320.00,11.00,0.00,29.98,M,10.00,M,CLR,M,M,M,M,M,M,M,M,M,M,M,M,M,M,81.94,KHTH 102315Z AUTO 32011KT 10SM CLR 30/M07 A2998 RMK A01,M
TMT,2022-09-10 23:15,-117.1971,39.4643,1749.34,M,M,M,0.00,0.00,0.00,30.11,M,10.00,M,CLR,M,M,M,M,M,M,M,M,M,M,M,M,M,M,M,KTMT 102315Z AUTO 00000KT 10SM CLR A3011 RMK AO2 LTG DSNT SW,M
TPH,2022-09-10 23:25,-117.0904,38.0505,1654.00,70.00,55.00,58.94,180.00,10.00,0.00,30.15,M,10.00,M,FEW,M,M,M,11000.00,M,M,M,M,M,M,M,M,M,M,70.00,KTPH 102325Z AUTO 18010KT 10SM FEW110 21/13 A3015 RMK AO2 WSHFT 2305 LTG DSNT NW T02110128,M
BAM,2022-09-10 23:35,-116.8743,40.5990,1382.36,91.40,19.40,7.19,330.00,5.00,0.00,30.03,M,10.00,M,CLR,M,M,M,M,M,M,M,M,M,M,M,M,M,M,85.86,KBAM 102335Z AUTO 33005KT 10SM CLR 33/M07 A3003 RMK AO1,M
BVU,2022-09-10 23:35,-114.8611,35.9475,671.00,80.60,60.80,50.95,30.00,11.00,0.00,29.97,M,M,M,M,M,M,M,M,M,M,M,M,M,M,M,M,M,M,81.46,KBVU 102335Z AUTO 03011KT 27/16 A2997 RMK AO2 TSNO,M
TMT,2022-09-10 23:35,-117.1971,39.4643,1749.34,M,M,M,360.00,8.00,0.00,30.11,M,10.00,M,CLR,M,M,M,M,M,M,M,M,M,M,M,M,M,M,M,KTMT 102335Z AUTO 36008KT 10SM CLR A3011 RMK AO2,M
HTH,2022-09-10 23:35,-118.6315,38.5448,1282.89,86.00,21.20,9.21,330.00,13.00,0.00,29.99,M,10.00,M,CLR,M,M,M,M,M,M,M,M,M,M,M,M,M,M,82.04,KHTH 102335Z AUTO 33013KT 10SM CLR 30/M06 A2999 RMK A01,M
CXP,2022-09-10 23:35,-119.7326,39.1923,1431.00,86.00,17.60,7.90,90.00,7.00,0.00,30.04,M,10.00,M,CLR,M,M,M,M,M,M,M,M,M,M,M,M,M,M,81.85,KCXP 102335Z AUTO 09007KT 10SM CLR 30/M08 A3004 RMK AO2,M
RTS,2022-09-10 23:35,-119.8764,39.6682,1539.00,84.20,23.00,10.53,140.00,5.00,0.00,30.07,M,9.00,M,CLR,M,M,M,M,M,M,M,M,M,M,M,M,M,M,80.88,KRTS 102335Z AUTO 14005KT 9SM CLR 29/M05 A3007 RMK AO2,M
MEV,2022-09-10 23:35,-119.7500,38.9963,1441.42,84.20,35.60,17.61,310.00,5.00,0.00,30.03,M,10.00,M,CLR,M,M,M,M,M,M,M,M,M,M,M,M,M,M,81.34,KMEV 102335Z AUTO 31005KT 10SM CLR 29/02 A3003 RMK AO2,M
05U,2022-09-10 23:35,-116.0051,39.6042,1811.23,84.20,15.80,7.74,10.00,5.00,0.00,30.13,M,10.00,M,M,M,M,M,M,M,M,M,M,M,M,M,M,M,M,80.51,K05U 102335Z AUTO 01005KT 10SM 29/M09 A3013 RMK A01,M
LOL,2022-09-10 23:53,-118.5701,40.0684,1192.43,89.00,19.90,7.90,0.00,0.00,0.00,29.97,1010.60,10.00,M,CLR,M,M,M,M,M,M,M,M,M,M,M,M,M,M,84.20,KLOL 102353Z AUTO 00000KT 10SM CLR 32/M07 A2997 RMK AO2 SLP106 T03171067 10322 20250 58014,M
ELY,2022-09-10 23:53,-114.8453,39.2950,1909.00,83.00,35.00,18.01,220.00,5.00,0.00,30.15,1011.70,10.00,M,CLR,M,M,M,M,M,M,M,M,M,M,M,M,M,M,80.41,KELY 102353Z AUTO 22005KT 10SM CLR 28/02 A3015 RMK AO2 SLP117 T02830017 10294 20217 56006 $,M
P68,2022-09-10 23:53,-116.0056,39.6014,1993.00,84.00,15.10,7.56,20.00,4.00,0.00,30.11,1012.30,M,M,M,M,M,M,M,M,M,M,M,M,M,M,M,M,M,80.34,KP68 102353Z AUTO 02004KT 29/M09 A3011 RMK AO1 SLP123 T02891094 10300 20200 55004,M
DRA,2022-09-10 23:53,-116.0278,36.6206,1009.00,83.00,57.00,41.27,100.00,19.00,0.00,30.01,1011.50,10.00,29.00,SCT,M,M,M,9500.00,M,M,M,M,M,M,M,29.00,110.00,2022-09-10 23:52,82.41,KDRA 102353Z AUTO 10019G29KT 10SM SCT095 28/14 A3001 RMK AO2 PK WND 11029/2352 SLP115 60000 T02830139 10289 20239 55005,M
VGT,2022-09-10 23:53,-115.1933,36.2111,667.00,84.00,57.00,39.83,150.00,4.00,0.00,29.96,1013.70,10.00,M,FEW,M,M,M,9500.00,M,M,M,M,M,M,M,M,M,M,83.26,KVGT 102353Z 15004KT 10SM FEW095 29/14 A2996 RMK AO2 LTG DSNT W SLP137 60000 T02890139 10300 20239 58007,M
BAM,2022-09-10 23:55,-116.8743,40.5990,1382.36,89.60,21.20,8.22,330.00,6.00,0.00,30.03,M,10.00,M,CLR,M,M,M,M,M,M,M,M,M,M,M,M,M,M,84.64,KBAM 102355Z AUTO 33006KT 10SM CLR 32/M06 A3003 RMK AO1,M
BVU,2022-09-10 23:55,-114.8611,35.9475,671.00,82.40,59.00,45.07,30.00,8.00,0.00,29.96,M,M,M,M,M,M,M,M,M,M,M,M,M,M,M,M,M,M,82.46,KBVU 102355Z AUTO 03008KT 28/15 A2996 RMK AO2 TSNO,M
CXP,2022-09-10 23:55,-119.7326,39.1923,1431.00,84.20,17.60,8.37,110.00,4.00,0.00,30.05,M,10.00,M,CLR,M,M,M,M,M,M,M,M,M,M,M,M,M,M,80.59,KCXP 102355Z AUTO 11004KT 10SM CLR 29/M08 A3005 RMK AO2,M
HTH,2022-09-10 23:55,-118.6315,38.5448,1282.89,86.00,26.60,11.55,350.00,6.00,0.00,30.03,M,10.00,M,FEW,M,M,M,11000.00,M,M,M,M,M,M,M,M,M,M,82.39,KHTH 102355Z AUTO 35006KT 10SM FEW110 30/M03 A3003 RMK A01,M
RNO,2022-09-10 23:55,-119.7711,39.4839,1341.00,88.00,27.00,11.02,330.00,3.00,0.00,30.01,1010.40,10.00,M,BKN,M,M,M,5000.00,M,M,M,M,M,M,M,M,M,M,83.87,KRNO 102355Z 33003KT 10SM BKN050 31/M03 A3001 RMK AO2 SLP104 HZ BKN050 HZ ALQDS T03111028 10322 20233 56011,M
TMT,2022-09-10 23:55,-117.1971,39.4643,1749.34,M,M,M,320.00,5.00,0.00,30.11,M,10.00,M,CLR,M,M,M,M,M,M,M,M,M,M,M,M,M,M,M,KTMT 102355Z AUTO 32005KT 10SM CLR A3011 RMK AO2 LTG DSNT SW,M
RTS,2022-09-10 23:55,-119.8764,39.6682,1539.00,84.20,21.20,9.76,140.00,4.00,0.00,30.07,M,9.00,M,CLR,M,M,M,M,M,M,M,M,M,M,M,M,M,M,80.77,KRTS 102355Z AUTO 14004KT 9SM CLR 29/M06 A3007 RMK AO2,M
05U,2022-09-10 23:55,-116.0051,39.6042,1811.23,84.20,15.80,7.74,40.00,3.00,0.00,30.14,M,10.00,M,M,M,M,M,M,M,M,M,M,M,M,M,M,M,M,80.51,K05U 102355Z AUTO 04003KT 10SM 29/M09 A3014 RMK A01,M
MEV,2022-09-10 23:55,-119.7500,38.9963,1441.42,84.20,44.60,24.99,290.00,8.00,0.00,30.04,M,10.00,M,CLR,M,M,M,M,M,M,M,M,M,M,M,M,M,M,81.73,KMEV 102355Z AUTO 29008KT 10SM CLR 29/07 A3004 RMK AO2,M
INS,2022-09-10 23:56,-115.6733,36.5872,955.00,82.60,54.30,37.78,140.00,14.00,0.00,30.01,1011.40,10.00,21.00,OVC,M,M,M,12000.00,M,M,M,M,M,M,M,31.00,130.00,2022-09-10 23:11,81.70,KINS 102356Z AUTO 14014G21KT 10SM OVC120 28/12 A3001 RMK AO2 PK WND 13031/11 SLP114 60001 T02810124 10283 20231 55001 $,M
LAS,2022-09-10 23:56,-115.1634,36.0719,663.00,83.00,56.00,39.66,60.00,8.00,0.00,29.97,1012.50,10.00,M,FEW,BKN,BKN,M,13000.00,16000.00,22000.00,M,M,M,M,M,M,M,M,82.20,KLAS 102356Z 06008KT 10SM FEW130 BKN160 BKN220 28/13 A2997 RMK AO2 LTG DSNT W SLP125 T02830133 10306 20256 58004,M
HND,2022-09-10 23:56,-115.1344,35.9729,742.79,82.00,59.00,45.66,50.00,7.00,0.00,30.00,1015.00,10.00,M,CLR,M,M,M,M,M,M,M,M,M,M,M,M,M,M,82.15,KHND 102356Z 05007KT 10SM CLR 28/15 A3000 RMK AO2 LTG DSNT W SLP150 T02780150 10294 20267 50000,M
LSV,2022-09-10 23:56,-115.0343,36.2362,570.00,83.00,59.40,44.98,140.00,7.00,0.00,29.93,1011.30,10.00,M,FEW,SCT,BKN,OVC,7000.00,9000.00,11000.00,14000.00,M,M,M,M,M,M,M,82.95,KLSV 102356Z AUTO 14007KT 10SM FEW070 SCT090 BKN110 OVC140 28/15 A2993 RMK AO2 SLP113 60001 T02830152 10317 20226 58010 $,M
NFL,2022-09-10 23:56,-118.7010,39.4166,1199.00,89.00,16.00,6.68,350.00,6.00,0.00,29.98,1012.40,8.00,M,CLR,M,M,M,M,M,M,M,M,M,M,M,M,M,M,84.01,KNFL 102356Z AUTO 35006KT 8SM CLR 32/M09 A2998 RMK AO2 SLP124 T03171089 10317 20239 55011,M
EKO,2022-09-10 23:56,-115.7860,40.8242,1367.00,88.00,16.00,6.92,M,3.00,0.00,30.06,1012.90,10.00,M,CLR,M,M,M,M,M,M,M,M,M,M,M,M,M,M,83.22,KEKO 102356Z AUTO VRB03KT 10SM CLR 31/M09 A3006 RMK AO2 SLP129 T03111089 10311 20217 56013,M
WMC,2022-09-10 23:56,-117.8072,40.9019,1315.00,91.00,12.90,5.49,340.00,5.00,0.00,30.01,1011.20,10.00,M,CLR,M,M,M,M,M,M,M,M,M,M,M,M,M,M,85.27,KWMC 102356Z AUTO 34005KT 10SM CLR 33/M11 A3001 RMK AO2 SLP112 T03281106 10339 20239 56013,M
TPH,2022-09-10 23:56,-117.0904,38.0505,1654.00,70.00,55.00,58.94,290.00,5.00,0.00,30.17,1014.80,10.00,M,CLR,M,M,M,M,M,M,M,M,M,M,M,M,M,M,70.00,KTPH 102356Z AUTO 29005KT 10SM CLR 21/13 A3017 RMK AO2 WSHFT 2305 SLP148 60009 T02110128 10289 20178 53018,M
