station,valid,lon,lat,elevation,tmpf,dwpf,relh,drct,sknt,p01i,alti,mslp,vsby,gust,skyc1,skyc2,skyc3,skyc4,skyl1,skyl2,skyl3,skyl4,wxcodes,ice_accretion_1hr,ice_accretion_3hr,ice_accretion_6hr,peak_wind_gust,peak_wind_drct,peak_wind_time,feel,metar,snowdepth
LSV,2023-07-18 00:04,-115.0343,36.2362,570.00,105.80,44.60,12.84,110.00,20.00,0.00,29.77,1004.90,9.00,32.00,FEW,FEW,FEW,M,14000.00,17000.00,20000.00,M,M,M,M,M,M,M,M,101.53,KLSV 180004Z AUTO 11020G32KT 9SM FEW140 FEW170 FEW200 41/07 A2977 RMK AO2 LTG DSNT S TSE04 SLP049 $,M
NFL,2023-07-18 00:07,-118.7010,39.4166,1199.00,89.00,53.00,29.36,110.00,9.00,T,29.96,M,10.00,M,SCT,BKN,BKN,BKN,7000.00,10000.00,15000.00,18000.00,TS,M,M,M,M,M,M,86.68,KNFL 180007Z 11009KT 10SM TS SCT070CB BKN100 BKN150 BKN180 32/12 A2996 RMK AO2 RAE03 TSB07 OCNL LTGICCCCG SW TS SW MOV NE P0000 T03170117,M
BVU,2023-07-18 00:15,-114.8611,35.9475,671.00,105.80,50.00,15.73,10.00,9.00,0.00,29.82,M,10.00,M,CLR,M,M,M,M,M,M,M,M,M,M,M,M,M,M,102.98,KBVU 180015Z AUTO 01009KT 10SM CLR 41/10 A2982 RMK AO2,M
CXP,2023-07-18 00:15,-119.7326,39.1923,1431.00,91.40,50.00,24.37,270.00,12.00,0.00,30.08,M,10.00,20.00,CLR,M,M,M,M,M,M,M,M,M,M,M,M,M,M,88.36,KCXP 180015Z AUTO 27012G20KT 10SM CLR 33/10 A3008 RMK AO2,M
RTS,2023-07-18 00:15,-119.8764,39.6682,1539.00,93.20,35.60,13.25,260.00,18.00,0.00,30.11,M,10.00,M,CLR,M,M,M,M,M,M,M,M,M,M,M,M,M,M,88.76,KRTS 180015Z AUTO 26018KT 10SM CLR 34/02 A3011 RMK AO2,M
05U,2023-07-18 00:15,-116.0051,39.6042,1811.23,91.40,35.60,14.02,M,M,0.00,30.17,M,10.00,M,FEW,M,M,M,12000.00,M,M,M,M,M,M,M,M,M,M,87.17,K05U 180015Z AUTO 10SM FEW120 33/02 A3017 RMK A01,M
MEV,2023-07-18 00:15,-119.7500,38.9963,1441.42,91.40,50.00,24.37,270.00,12.00,0.00,30.06,M,10.00,21.00,CLR,M,M,M,M,M,M,M,M,M,M,M,M,M,M,88.36,KMEV 180015Z AUTO 27012G21KT 10SM CLR 33/10 A3006 RMK AO2,M
BAM,2023-07-18 00:15,-116.8743,40.5990,1382.36,95.00,35.60,12.53,290.00,9.00,0.00,30.03,M,10.00,15.00,CLR,M,M,M,M,M,M,M,M,M,M,M,M,M,M,90.25,KBAM 180015Z AUTO 29009G15KT 10SM CLR 35/02 A3003 RMK AO1,M
HTH,2023-07-18 00:15,-118.6315,38.5448,1282.89,86.00,51.80,30.90,220.00,6.00,0.00,30.07,M,9.00,14.00,FEW,BKN,OVC,M,4800.00,7000.00,12000.00,M,M,M,M,M,M,M,M,83.87,KHTH 180015Z AUTO 22006G14KT 9SM FEW048 BKN070 OVC120 30/11 A3007 RMK A01,M
TMT,2023-07-18 00:15,-117.1971,39.4643,1749.34,89.60,39.40,17.22,300.00,3.00,0.00,30.15,M,10.00,M,CLR,M,M,M,M,M,M,M,M,M,M,M,M,M,M,85.74,KTMT 180015Z AUTO 30003KT 10SM CLR 32/04 A3015 RMK AO2 T03200041,M
NFL,2023-07-18 00:22,-118.7010,39.4166,1199.00,91.00,51.00,25.61,140.00,7.00,T,29.98,M,10.00,M,SCT,BKN,BKN,BKN,7000.00,10000.00,15000.00,18000.00,-TSRA,M,M,M,M,M,M,88.16,KNFL 180022Z 14007KT 10SM -TSRA SCT070CB BKN100 BKN150 BKN180 33/11 A2998 RMK AO2 RAE03B22 TSB07 OCNL LTGICCCCG OHD TS OHD MOV NE P0000 T03280106,M
HND,2023-07-18 00:32,-115.1344,35.9729,742.79,109.40,53.60,16.17,190.00,7.00,0.00,29.86,M,10.00,M,CLR,M,M,M,M,M,M,M,M,M,M,M,M,M,M,108.00,KHND 180032Z 19007KT 10SM CLR 43/12 A2986 RMK AO2 LTG DSNT NE TSE26,M
LAS,2023-07-18 00:33,-115.1634,36.0719,663.00,107.00,53.00,16.97,90.00,13.00,0.00,29.81,M,10.00,31.00,FEW,FEW,BKN,M,12000.00,16000.00,25000.00,M,M,M,M,M,31.00,70.00,2023-07-18 00:26,105.26,KLAS 180033Z 09013G31KT 10SM FEW120 FEW160 BKN250 42/12 A2981 RMK AO2 PK WND 07031/0026 LTG DSNT NE AND E TSE33 TS MOV NE CB DSNT NE T04170117,M
BVU,2023-07-18 00:35,-114.8611,35.9475,671.00,105.80,48.20,14.71,320.00,10.00,0.00,29.81,M,10.00,21.00,CLR,M,M,M,M,M,M,M,M,M,M,M,M,M,M,102.45,KBVU 180035Z AUTO 32010G21KT 10SM CLR 41/09 A2981 RMK AO2,M
CXP,2023-07-18 00:35,-119.7326,39.1923,1431.00,91.40,48.20,22.78,260.00,8.00,0.00,30.08,M,10.00,22.00,CLR,M,M,M,M,M,M,M,M,M,M,M,M,M,M,88.09,KCXP 180035Z AUTO 26008G22KT 10SM CLR 33/09 A3008 RMK AO2,M
RTS,2023-07-18 00:35,-119.8764,39.6682,1539.00,93.20,37.40,14.23,230.00,17.00,0.00,30.11,M,10.00,M,CLR,M,M,M,M,M,M,M,M,M,M,M,M,M,M,88.83,KRTS 180035Z AUTO 23017KT 10SM CLR 34/03 A3011 RMK AO2,M
05U,2023-07-18 00:35,-116.0051,39.6042,1811.23,86.00,39.20,19.15,M,M,0.00,30.17,M,9.00,M,CLR,M,M,M,M,M,M,M,M,M,M,M,M,M,M,82.79,K05U 180035Z AUTO 9SM CLR 30/04 A3017 RMK A01,M
MEV,2023-07-18 00:35,-119.7500,38.9963,1441.42,91.40,50.00,24.37,270.00,17.00,0.00,30.06,M,10.00,M,CLR,M,M,M,M,M,M,M,M,M,M,M,M,M,M,88.36,KMEV 180035Z AUTO 27017KT 10SM CLR 33/10 A3006 RMK AO2,M
BAM,2023-07-18 00:35,-116.8743,40.5990,1382.36,95.00,35.60,12.53,290.00,8.00,0.00,30.03,M,10.00,M,CLR,M,M,M,M,M,M,M,M,M,M,M,M,M,M,90.25,KBAM 180035Z AUTO 29008KT 10SM CLR 35/02 A3003 RMK AO1,M
HTH,2023-07-18 00:35,-118.6315,38.5448,1282.89,91.40,46.40,21.29,280.00,9.00,0.00,30.04,M,10.00,17.00,FEW,SCT,SCT,M,4800.00,6500.00,8500.00,M,M,M,M,M,M,M,M,87.86,KHTH 180035Z AUTO 28009G17KT 10SM FEW048 SCT065 SCT085 33/08 A3004 RMK A01,M
TMT,2023-07-18 00:35,-117.1971,39.4643,1749.34,87.60,40.60,19.22,240.00,16.00,0.00,30.17,M,7.00,29.00,CLR,M,M,M,M,M,M,M,VCTS,M,M,M,M,M,M,84.12,KTMT 180035Z AUTO 24016G29KT 7SM VCTS CLR 31/05 A3017 RMK AO2 LTG DSNT E AND NW T03090048,M
P68,2023-07-18 00:53,-116.0056,39.6014,1993.00,88.00,39.00,17.83,10.00,6.00,0.00,30.15,1011.30,M,M,M,M,M,M,M,M,M,M,M,M,M,M,33.00,340.00,2023-07-18 00:21,84.38,KP68 180053Z AUTO 01006KT 31/04 A3015 RMK AO1 PK WND 34033/0021 SLP113 T03110039,M
DRA,2023-07-18 00:53,-116.0278,36.6206,1009.00,105.00,45.00,13.35,220.00,12.00,0.00,29.91,1006.70,10.00,20.00,CLR,M,M,M,M,M,M,M,M,M,M,M,27.00,230.00,2023-07-18 00:24,100.87,KDRA 180053Z AUTO 22012G20KT 10SM CLR 41/07 A2991 RMK AO2 PK WND 23027/0024 SLP067 T04060072,M
ELY,2023-07-18 00:53,-114.8453,39.2950,1909.00,M,M,M,M,M,0.00,30.18,M,M,M,M,M,M,M,M,M,M,M,M,M,M,M,M,M,M,M,KELY 180053Z AUTO A3018 RMK AO2 SLPNO PWINO FZRANO,M
VGT,2023-07-18 00:53,-115.1933,36.2111,667.00,108.00,51.00,15.30,130.00,14.00,0.00,29.81,1007.50,10.00,M,CLR,M,M,M,M,M,M,M,M,M,M,M,27.00,100.00,2023-07-18 00:36,105.54,KVGT 180053Z 13014KT 10SM CLR 42/11 A2981 RMK AO2 PK WND 10027/0036 SLP075 T04220106,M
LOL,2023-07-18 00:53,-118.5701,40.0684,1192.43,99.00,43.00,14.80,M,6.00,0.00,29.95,1008.30,10.00,M,CLR,M,M,M,M,M,M,M,M,M,M,M,M,M,M,94.72,KLOL 180053Z AUTO VRB06KT 10SM CLR 37/06 A2995 RMK AO2 LTG DSNT S SLP083 T03720061,M
BVU,2023-07-18 00:55,-114.8611,35.9475,671.00,104.00,50.00,16.59,20.00,7.00,0.00,29.81,M,10.00,M,CLR,M,M,M,M,M,M,M,M,M,M,M,M,M,M,101.14,KBVU 180055Z AUTO 02007KT 10SM CLR 40/10 A2981 RMK AO2,M
CXP,2023-07-18 00:55,-119.7326,39.1923,1431.00,91.40,48.20,22.78,280.00,12.00,0.00,30.08,M,10.00,20.00,CLR,M,M,M,M,M,M,M,M,M,M,M,M,M,M,88.09,KCXP 180055Z AUTO 28012G20KT 230V300 10SM CLR 33/09 A3008 RMK AO2,M
INS,2023-07-18 00:55,-115.6733,36.5872,955.00,106.50,38.50,9.94,200.00,15.00,0.00,29.89,1006.20,10.00,M,CLR,M,M,M,M,M,M,M,M,M,M,M,28.00,210.00,2023-07-17 23:59,100.60,KINS 180055Z AUTO 20015KT 10SM CLR 41/04 A2989 RMK AO2 PK WND 21028/2359 SLP062 T04140036 $,M
RNO,2023-07-18 00:55,-119.7711,39.4839,1341.00,96.00,48.00,19.61,280.00,17.00,0.00,30.03,1009.80,10.00,22.00,FEW,FEW,M,M,12000.00,18000.00,M,M,M,M,M,M,M,M,M,92.52,KRNO 180055Z 28017G22KT 10SM FEW120 FEW180 36/09 A3003 RMK AO2 SLP098 TCU DSNT E THRU SE ACSL ALQDS T03560089,M
RTS,2023-07-18 00:55,-119.8764,39.6682,1539.00,91.40,39.20,16.15,230.00,16.00,0.00,30.11,M,10.00,M,CLR,M,M,M,M,M,M,M,M,M,M,M,M,M,M,87.30,KRTS 180055Z AUTO 23016KT 10SM CLR 33/04 A3011 RMK AO2,M
05U,2023-07-18 00:55,-116.0051,39.6042,1811.23,87.80,39.20,18.09,M,M,0.00,30.17,M,10.00,M,CLR,M,M,M,M,M,M,M,M,M,M,M,M,M,M,84.22,K05U 180055Z AUTO 10SM CLR 31/04 A3017 RMK A01,M
MEV,2023-07-18 00:55,-119.7500,38.9963,1441.42,93.20,50.00,23.04,280.00,16.00,0.00,30.06,M,10.00,25.00,CLR,M,M,M,M,M,M,M,M,M,M,M,M,M,M,90.10,KMEV 180055Z AUTO 28016G25KT 10SM CLR 34/10 A3006 RMK AO2,M
BAM,2023-07-18 00:55,-116.8743,40.5990,1382.36,95.00,37.40,13.46,270.00,7.00,0.00,30.03,M,10.00,10.00,CLR,M,M,M,M,M,M,M,M,M,M,M,M,M,M,90.46,KBAM 180055Z AUTO 27007G10KT 10SM CLR 35/03 A3003 RMK AO1,M
HTH,2023-07-18 00:55,-118.6315,38.5448,1282.89,89.60,48.20,24.11,M,5.00,0.00,30.04,M,10.00,M,CLR,M,M,M,M,M,M,M,M,M,M,M,M,M,M,86.44,KHTH 180055Z AUTO VRB05KT 10SM CLR 32/09 A3004 RMK A01,M
TMT,2023-07-18 00:55,-117.1971,39.4643,1749.34,75.70,54.30,47.40,180.00,7.00,0.04,30.19,M,10.00,M,SCT,SCT,BKN,M,1200.00,5500.00,7500.00,M,-RA,M,M,M,M,M,M,75.70,KTMT 180055Z AUTO 18007KT 10SM -RA SCT012 SCT055 BKN075 24/12 A3019 RMK AO2 LTG DSNT N THRU E P0004 T02430124,M
LSV,2023-07-18 00:55,-115.0343,36.2362,570.00,107.00,45.70,12.92,90.00,10.00,0.00,29.75,1004.40,10.00,M,FEW,M,M,M,22000.00,M,M,M,M,M,M,M,33.00,100.00,2023-07-18 00:29,102.95,KLSV 180055Z AUTO 09010KT 10SM FEW220 42/08 A2975 RMK AO2 PK WND 10033/29 TSE04 SLP044 T04160076 $,M
EKO,2023-07-18 00:56,-115.7860,40.8242,1367.00,92.00,34.00,12.91,290.00,17.00,0.00,30.06,1012.10,10.00,25.00,CLR,M,M,M,M,M,M,M,M,M,M,M,29.00,260.00,2023-07-18 00:04,87.64,KEKO 180056Z AUTO 29017G25KT 10SM CLR 33/01 A3006 RMK AO2 PK WND 26029/0004 SLP121 T03330011,M
WMC,2023-07-18 00:56,-117.8072,40.9019,1315.00,M,M,M,M,M,0.00,29.98,M,M,M,M,M,M,M,M,M,M,M,M,M,M,M,M,M,M,M,KWMC 180056Z AUTO A2998 RMK AO2 SLPNO PWINO FZRANO $,M
NFL,2023-07-18 00:56,-118.7010,39.4166,1199.00,84.00,67.00,56.70,140.00,8.00,0.04,29.96,1011.80,10.00,M,SCT,BKN,BKN,BKN,7000.00,10000.00,15000.00,18000.00,TS,M,M,M,M,M,M,86.67,KNFL 180056Z 14008KT 10SM TS SCT070CB BKN100 BKN150 BKN180 29/19 A2996 RMK AO2 RAE03B22E54 TSB07 SLP118 OCNL LTGICCCCG SE TS SE MOV NE CB E MOV NE P0004 T02890194,M
HND,2023-07-18 00:56,-115.1344,35.9729,742.79,111.00,50.00,13.51,220.00,11.00,0.00,29.85,1008.30,10.00,M,CLR,M,M,M,M,M,M,M,M,M,M,M,M,M,M,108.14,KHND 180056Z 22011KT 10SM CLR 44/10 A2985 RMK AO2 TSE26 SLP083 T04390100,M
TPH,2023-07-18 00:56,-117.0904,38.0505,1654.00,95.00,35.00,12.24,180.00,16.00,0.00,30.10,1010.00,10.00,28.00,CLR,M,M,M,M,M,M,M,M,M,M,M,28.00,200.00,2023-07-18 00:49,90.15,KTPH 180056Z AUTO 18016G28KT 10SM CLR 35/02 A3010 RMK AO2 PK WND 20028/0049 SLP100 T03500017,M
LAS,2023-07-18 00:56,-115.1634,36.0719,663.00,107.00,52.00,16.35,110.00,8.00,0.00,29.81,1005.90,10.00,M,FEW,FEW,BKN,M,12000.00,16000.00,25000.00,M,M,M,M,M,31.00,70.00,2023-07-18 00:26,104.89,KLAS 180056Z 11008KT 10SM FEW120 FEW160 BKN250 42/11 A2981 RMK AO2 PK WND 07031/0026 TSE33 SLP059 TS MOV NE CB DSNT NE T04170111,M
BVU,2023-07-18 01:15,-114.8611,35.9475,671.00,104.00,50.00,16.59,40.00,8.00,0.00,29.80,M,10.00,M,CLR,M,M,M,M,M,M,M,M,M,M,M,M,M,M,101.14,KBVU 180115Z AUTO 04008KT 10SM CLR 40/10 A2980 RMK AO2,M
CXP,2023-07-18 01:15,-119.7326,39.1923,1431.00,91.40,48.20,22.78,280.00,15.00,0.00,30.08,M,10.00,22.00,CLR,M,M,M,M,M,M,M,M,M,M,M,M,M,M,88.09,KCXP 180115Z AUTO 28015G22KT 10SM CLR 33/09 A3008 RMK AO2,M
NFL,2023-07-18 01:15,-118.7010,39.4166,1199.00,85.00,66.00,53.04,160.00,8.00,T,29.97,M,10.00,M,SCT,BKN,BKN,BKN,7000.00,10000.00,15000.00,18000.00,-TSRA,M,M,M,M,M,M,87.24,KNFL 180115Z 16008KT 10SM -TSRA SCT070CB BKN100 BKN150 BKN180 29/19 A2997 RMK AO2 RAB14 OCNL LTGICCCCG OHD TS OHD MOV NE CB DSNT ALQDS P0000 T02940189,M
RTS,2023-07-18 01:15,-119.8764,39.6682,1539.00,89.60,41.00,18.33,230.00,16.00,0.00,30.11,M,10.00,M,CLR,M,M,M,M,M,M,M,M,M,M,M,M,M,M,85.82,KRTS 180115Z AUTO 23016KT 10SM CLR 32/05 A3011 RMK AO2,M
05U,2023-07-18 01:15,-116.0051,39.6042,1811.23,87.80,41.00,19.40,M,M,0.00,30.17,M,10.00,M,CLR,M,M,M,M,M,M,M,M,M,M,M,M,M,M,84.30,K05U 180115Z AUTO 10SM CLR 31/05 A3017 RMK A01,M
MEV,2023-07-18 01:15,-119.7500,38.9963,1441.42,91.40,50.00,24.37,260.00,13.00,0.00,30.06,M,10.00,18.00,CLR,M,M,M,M,M,M,M,M,M,M,M,M,M,M,88.36,KMEV 180115Z AUTO 26013G18KT 10SM CLR 33/10 A3006 RMK AO2,M
BAM,2023-07-18 01:15,-116.8743,40.5990,1382.36,96.80,37.40,12.73,260.00,7.00,0.00,30.03,M,10.00,M,CLR,M,M,M,M,M,M,M,M,M,M,M,M,M,M,92.04,KBAM 180115Z AUTO 26007KT 10SM CLR 36/03 A3003 RMK AO1,M
HTH,2023-07-18 01:15,-118.6315,38.5448,1282.89,91.40,44.60,19.89,80.00,6.00,0.00,30.03,M,10.00,M,CLR,M,M,M,M,M,M,M,M,M,M,M,M,M,M,87.68,KHTH 180115Z AUTO 08006KT 10SM CLR 33/07 A3003 RMK A01,M
TMT,2023-07-18 01:15,-117.1971,39.4643,1749.34,80.00,48.00,32.57,70.00,4.00,0.00,30.19,M,10.00,M,SCT,SCT,BKN,M,7000.00,9000.00,12000.00,M,M,M,M,M,M,M,M,79.37,KTMT 180115Z AUTO 07004KT 10SM SCT070 SCT090 BKN120 27/09 A3019 RMK AO2 LTG DSNT NE T02660088,M
LOL,2023-07-18 01:24,-118.5701,40.0684,1192.43,96.00,44.00,16.86,180.00,13.00,0.00,29.95,M,4.00,24.00,SCT,BKN,M,M,2900.00,3700.00,M,M,HZ,M,M,M,M,M,M,91.95,KLOL 180124Z AUTO 18013G24KT 4SM HZ SCT029 BKN037 36/07 A2995 RMK AO2 WSHFT 0110 LTG DSNT S T03560067,M
WMC,2023-07-18 01:32,-117.8072,40.9019,1315.00,M,M,M,M,M,0.00,29.97,M,M,M,M,M,M,M,M,M,M,M,VCTS,M,M,M,M,M,M,M,KWMC 180132Z AUTO VCTS A2997 RMK AO2 LTG DSNT SW AND W PWINO FZRANO $,M
BVU,2023-07-18 01:35,-114.8611,35.9475,671.00,102.20,51.80,18.72,40.00,9.00,0.00,29.80,M,10.00,M,CLR,M,M,M,M,M,M,M,M,M,M,M,M,M,M,99.80,KBVU 180135Z AUTO 04009KT 10SM CLR 39/11 A2980 RMK AO2,M
CXP,2023-07-18 01:35,-119.7326,39.1923,1431.00,91.40,48.20,22.78,270.00,11.00,0.00,30.08,M,10.00,20.00,CLR,M,M,M,M,M,M,M,M,M,M,M,M,M,M,88.09,KCXP 180135Z AUTO 27011G20KT 10SM CLR 33/09 A3008 RMK AO2,M
RTS,2023-07-18 01:35,-119.8764,39.6682,1539.00,89.60,41.00,18.33,230.00,14.00,0.00,30.12,M,10.00,20.00,CLR,M,M,M,M,M,M,M,M,M,M,M,M,M,M,85.82,KRTS 180135Z AUTO 23014G20KT 10SM CLR 32/05 A3012 RMK AO2,M
05U,2023-07-18 01:35,-116.0051,39.6042,1811.23,86.00,41.00,20.54,M,M,0.00,30.18,M,10.00,M,CLR,M,M,M,M,M,M,M,M,M,M,M,M,M,M,82.86,K05U 180135Z AUTO 10SM CLR 30/05 A3018 RMK A01,M
MEV,2023-07-18 01:35,-119.7500,38.9963,1441.42,91.40,50.00,24.37,270.00,11.00,0.00,30.07,M,10.00,19.00,CLR,M,M,M,M,M,M,M,M,M,M,M,M,M,M,88.36,KMEV 180135Z AUTO 27011G19KT 10SM CLR 33/10 A3007 RMK AO2,M
BAM,2023-07-18 01:35,-116.8743,40.5990,1382.36,96.80,37.40,12.73,260.00,8.00,0.00,30.02,M,10.00,M,CLR,M,M,M,M,M,M,M,M,M,M,M,M,M,M,92.04,KBAM 180135Z AUTO 26008KT 10SM CLR 36/03 A3002 RMK AO1,M
HTH,2023-07-18 01:35,-118.6315,38.5448,1282.89,91.40,44.60,19.89,160.00,6.00,0.00,30.02,M,10.00,M,CLR,M,M,M,M,M,M,M,M,M,M,M,M,M,M,87.68,KHTH 180135Z AUTO 16006KT 10SM CLR 33/07 A3002 RMK A01,M
TMT,2023-07-18 01:35,-117.1971,39.4643,1749.34,76.60,51.00,40.75,40.00,18.00,0.00,30.16,M,10.00,M,SCT,SCT,OVC,M,4600.00,8000.00,11000.00,M,M,M,M,M,M,M,M,76.60,KTMT 180135Z AUTO 04018KT 10SM SCT046 SCT080 OVC110 25/11 A3016 RMK AO2 T02480105,M
LAS,2023-07-18 01:45,-115.1634,36.0719,663.00,107.00,51.00,15.76,100.00,10.00,0.00,29.80,M,10.00,M,FEW,FEW,BKN,M,12000.00,16000.00,25000.00,M,TS,M,M,M,M,M,M,104.53,KLAS 180145Z 10010KT 10SM TS FEW120CB FEW160 BKN250 42/11 A2980 RMK AO2 TSE41B45 OCNL LTGICCG E-SE TS E-SE MOV NE T04170106,M
HND,2023-07-18 01:47,-115.1344,35.9729,742.79,109.40,51.80,15.13,220.00,13.00,0.00,29.85,M,10.00,17.00,CLR,M,M,M,M,M,M,M,VCTS,M,M,M,M,M,M,107.25,KHND 180147Z 22013G17KT 10SM VCTS CLR 43/11 A2985 RMK AO2 TSB41,M
P68,2023-07-18 01:53,-116.0056,39.6014,1993.00,83.00,46.00,27.39,320.00,7.00,0.00,30.16,1012.10,M,M,M,M,M,M,M,M,M,M,M,M,M,M,M,M,M,81.00,KP68 180153Z AUTO 32007KT 28/08 A3016 RMK AO1 SLP121 T02830078,M
DRA,2023-07-18 01:53,-116.0278,36.6206,1009.00,104.00,47.00,14.83,190.00,12.00,0.00,29.91,1006.60,10.00,21.00,CLR,M,M,M,M,M,M,M,M,M,M,M,M,M,M,100.35,KDRA 180153Z AUTO 19012G21KT 10SM CLR 40/08 A2991 RMK AO2 SLP066 T04000083,M
ELY,2023-07-18 01:53,-114.8453,39.2950,1909.00,M,M,M,M,M,0.00,30.19,M,M,M,M,M,M,M,M,M,M,M,M,M,M,M,M,M,M,M,KELY 180153Z AUTO A3019 RMK AO2 SLPNO PWINO FZRANO,M
VGT,2023-07-18 01:53,-115.1933,36.2111,667.00,110.00,50.00,13.91,100.00,5.00,0.00,29.80,1007.30,10.00,M,CLR,M,M,M,M,M,M,M,M,M,M,M,M,M,M,107.17,KVGT 180153Z 10005KT 10SM CLR 43/10 A2980 RMK AO2 LTG DSNT SE SLP073 T04330100,M
LOL,2023-07-18 01:53,-118.5701,40.0684,1192.43,93.00,45.00,19.21,190.00,10.00,0.00,29.96,1009.20,10.00,M,FEW,M,M,M,3900.00,M,M,M,M,M,M,M,M,M,M,89.20,KLOL 180153Z AUTO 19010KT 10SM FEW039 34/07 A2996 RMK AO2 WSHFT 0110 LTG DSNT S SLP092 T03390072,M
BVU,2023-07-18 01:55,-114.8611,35.9475,671.00,102.20,51.80,18.72,30.00,9.00,0.00,29.81,M,10.00,M,CLR,M,M,M,M,M,M,M,M,M,M,M,M,M,M,99.80,KBVU 180155Z AUTO 03009KT 10SM CLR 39/11 A2981 RMK AO2 LTG DSNT NW,M
CXP,2023-07-18 01:55,-119.7326,39.1923,1431.00,89.60,48.20,24.11,270.00,9.00,0.00,30.09,M,10.00,15.00,CLR,M,M,M,M,M,M,M,M,M,M,M,M,M,M,86.44,KCXP 180155Z AUTO 27009G15KT 220V300 10SM CLR 32/09 A3009 RMK AO2,M
INS,2023-07-18 01:55,-115.6733,36.5872,955.00,104.40,39.40,10.95,190.00,16.00,0.00,29.89,1006.20,10.00,M,CLR,M,M,M,M,M,M,M,M,M,M,M,M,M,M,98.95,KINS 180155Z AUTO 19016KT 10SM CLR 40/04 A2989 RMK AO2 SLP062 T04020041 $,M
LSV,2023-07-18 01:55,-115.0343,36.2362,570.00,107.00,53.00,16.97,160.00,8.00,0.00,29.75,1004.30,10.00,M,CLR,M,M,M,M,M,M,M,M,M,M,M,M,M,M,105.26,KLSV 180155Z AUTO 16008KT 10SM CLR 42/12 A2975 RMK AO2 LTG DSNT S SLP043 T04170116 $,M
RTS,2023-07-18 01:55,-119.8764,39.6682,1539.00,89.60,41.00,18.33,240.00,16.00,0.00,30.12,M,10.00,22.00,CLR,M,M,M,M,M,M,M,M,M,M,M,M,M,M,85.82,KRTS 180155Z AUTO 24016G22KT 10SM CLR 32/05 A3012 RMK AO2,M
05U,2023-07-18 01:55,-116.0051,39.6042,1811.23,84.20,46.40,26.76,M,M,0.00,30.19,M,10.00,M,CLR,M,M,M,M,M,M,M,M,M,M,M,M,M,M,81.87,K05U 180155Z AUTO 10SM CLR 29/08 A3019 RMK A01,M
MEV,2023-07-18 01:55,-119.7500,38.9963,1441.42,89.60,50.00,25.79,260.00,14.00,0.00,30.07,M,10.00,22.00,CLR,M,M,M,M,M,M,M,M,M,M,M,M,M,M,86.70,KMEV 180155Z AUTO 26014G22KT 10SM CLR 32/10 A3007 RMK AO2,M
BAM,2023-07-18 01:55,-116.8743,40.5990,1382.36,96.80,37.40,12.73,280.00,10.00,0.00,30.03,M,10.00,15.00,CLR,M,M,M,M,M,M,M,M,M,M,M,M,M,M,92.04,KBAM 180155Z AUTO 28010G15KT 10SM CLR 36/03 A3003 RMK AO1,M
HTH,2023-07-18 01:55,-118.6315,38.5448,1282.89,89.60,48.20,24.11,250.00,6.00,0.00,30.02,M,10.00,M,CLR,M,M,M,M,M,M,M,M,M,M,M,M,M,M,86.44,KHTH 180155Z AUTO 25006KT 10SM CLR 32/09 A3002 RMK A01,M
TMT,2023-07-18 01:55,-117.1971,39.4643,1749.34,75.20,52.30,44.79,10.00,10.00,0.00,30.19,M,10.00,21.00,SCT,M,M,M,10000.00,M,M,M,M,M,M,M,M,M,M,75.20,KTMT 180155Z AUTO 01010G21KT 10SM SCT100 24/11 A3019 RMK AO2 T02400113,M
RNO,2023-07-18 01:55,-119.7711,39.4839,1341.00,94.00,47.00,20.09,290.00,17.00,0.00,30.04,1010.00,10.00,M,FEW,FEW,M,M,12000.00,18000.00,M,M,M,M,M,M,M,M,M,90.40,KRNO 180155Z COR 29017KT 10SM FEW120 FEW180 34/08 A3004 RMK AO2 SLP100 TCU DSNT E THRU SE ACSL NE THRU S T03440083,M
EKO,2023-07-18 01:56,-115.7860,40.8242,1367.00,88.00,36.00,15.85,210.00,5.00,0.00,30.06,1011.80,10.00,M,CLR,M,M,M,M,M,M,M,M,M,M,M,27.00,250.00,2023-07-18 01:08,84.29,KEKO 180156Z AUTO 21005KT 10SM CLR 31/02 A3006 RMK AO2 PK WND 25027/0108 SLP118 T03110022,M
WMC,2023-07-18 01:56,-117.8072,40.9019,1315.00,M,M,M,M,M,0.00,29.97,M,M,M,M,M,M,M,M,M,M,M,VCTS,M,M,M,M,M,M,M,KWMC 180156Z AUTO VCTS A2997 RMK AO2 LTG DSNT SW-N SLPNO PWINO FZRANO $,M
NFL,2023-07-18 01:56,-118.7010,39.4166,1199.00,80.00,61.00,52.33,180.00,17.00,0.07,30.00,1012.90,10.00,28.00,SCT,BKN,BKN,BKN,7000.00,10000.00,15000.00,18000.00,-TSRA,M,M,M,37.00,180.00,2023-07-18 01:21,81.03,KNFL 180156Z 18017G28KT 10SM -TSRA SCT070CB BKN100 BKN150 BKN180 27/16 A3000 RMK AO2 PK WND 18037/0121 RAB14 SLP129 OCNL LTGICCCCG OHD TS OHD MOV NE CB DSNT E-S P0007 T02670161,M
HND,2023-07-18 01:56,-115.1344,35.9729,742.79,109.00,52.00,15.42,210.00,11.00,0.00,29.86,1008.50,10.00,M,CLR,M,M,M,M,M,M,M,VCTS,M,M,M,M,M,M,106.93,KHND 180156Z 21011KT 10SM VCTS CLR 43/11 A2986 RMK AO2 TSB41 SLP085 T04280111,M
TPH,2023-07-18 01:56,-117.0904,38.0505,1654.00,93.00,36.00,13.55,220.00,11.00,0.00,30.11,1010.10,10.00,M,CLR,M,M,M,M,M,M,M,M,M,M,M,30.00,210.00,2023-07-18 01:01,88.59,KTPH 180156Z AUTO 22011KT 10SM CLR 34/02 A3011 RMK AO2 PK WND 21030/0101 SLP101 T03390022,M
LAS,2023-07-18 01:56,-115.1634,36.0719,663.00,107.00,52.00,16.35,110.00,8.00,0.00,29.81,1005.80,10.00,M,FEW,FEW,BKN,M,12000.00,16000.00,25000.00,M,TS,M,M,M,M,M,M,104.89,KLAS 180156Z 11008KT 10SM TS FEW120CB FEW160 BKN250 42/11 A2981 RMK AO2 TSE41B45 SLP058 OCNL LTGICCG E-SE TS E-SE MOV NE VCSH E-SE T04170111,M
WMC,2023-07-18 02:06,-117.8072,40.9019,1315.00,M,M,M,M,M,0.00,29.98,M,M,M,M,M,M,M,M,M,M,M,TS,M,M,M,M,M,M,M,KWMC 180206Z AUTO TS A2998 RMK AO2 LTG DSNT ALQDS TSB00 PWINO FZRANO $,M
BVU,2023-07-18 02:15,-114.8611,35.9475,671.00,100.40,53.60,21.11,30.00,9.00,0.00,29.81,M,10.00,M,CLR,M,M,M,M,M,M,M,M,M,M,M,M,M,M,98.44,KBVU 180215Z AUTO 03009KT 10SM CLR 38/12 A2981 RMK AO2,M
CXP,2023-07-18 02:15,-119.7326,39.1923,1431.00,89.60,48.20,24.11,270.00,9.00,0.00,30.10,M,10.00,19.00,CLR,M,M,M,M,M,M,M,M,M,M,M,M,M,M,86.44,KCXP 180215Z AUTO 27009G19KT 250V310 10SM CLR 32/09 A3010 RMK AO2,M
RTS,2023-07-18 02:15,-119.8764,39.6682,1539.00,87.80,42.80,20.79,230.00,16.00,0.00,30.12,M,10.00,M,CLR,M,M,M,M,M,M,M,M,M,M,M,M,M,M,84.40,KRTS 180215Z AUTO 23016KT 10SM CLR 31/06 A3012 RMK AO2,M
05U,2023-07-18 02:15,-116.0051,39.6042,1811.23,82.40,42.80,24.72,M,M,0.00,30.20,M,10.00,M,CLR,M,M,M,M,M,M,M,M,M,M,M,M,M,M,80.39,K05U 180215Z AUTO 10SM CLR 28/06 A3020 RMK A01,M
MEV,2023-07-18 02:15,-119.7500,38.9963,1441.42,89.60,50.00,25.79,280.00,9.00,0.00,30.08,M,10.00,15.00,CLR,M,M,M,M,M,M,M,M,M,M,M,M,M,M,86.70,KMEV 180215Z AUTO 28009G15KT 10SM CLR 32/10 A3008 RMK AO2,M
BAM,2023-07-18 02:15,-116.8743,40.5990,1382.36,96.80,37.40,12.73,280.00,12.00,0.00,30.02,M,10.00,16.00,CLR,M,M,M,M,M,M,M,M,M,M,M,M,M,M,92.04,KBAM 180215Z AUTO 28012G16KT 10SM CLR 36/03 A3002 RMK AO1,M
HTH,2023-07-18 02:15,-118.6315,38.5448,1282.89,89.60,46.40,22.53,220.00,6.00,0.00,30.02,M,10.00,M,CLR,M,M,M,M,M,M,M,M,M,M,M,M,M,M,86.24,KHTH 180215Z AUTO 22006KT 10SM CLR 32/08 A3002 RMK A01,M
TMT,2023-07-18 02:15,-117.1971,39.4643,1749.34,73.60,53.80,49.93,120.00,6.00,0.00,30.19,M,10.00,M,CLR,M,M,M,M,M,M,M,M,M,M,M,M,M,M,73.60,KTMT 180215Z AUTO 12006KT 10SM CLR 23/12 A3019 RMK AO2 T02310121,M
LAS,2023-07-18 02:16,-115.1634,36.0719,663.00,106.00,53.00,17.47,100.00,9.00,0.00,29.81,M,10.00,M,FEW,FEW,BKN,M,12000.00,16000.00,25000.00,M,M,M,M,M,M,M,M,104.21,KLAS 180216Z 10009KT 10SM FEW120 FEW160 BKN250 41/12 A2981 RMK AO2 TSE16 TS MOV NE CB DSNT NE T04110117,M
HND,2023-07-18 02:19,-115.1344,35.9729,742.79,107.60,53.60,17.04,210.00,14.00,0.00,29.86,M,10.00,M,CLR,M,M,M,M,M,M,M,M,M,M,M,M,M,M,106.13,KHND 180219Z 21014KT 10SM CLR 42/12 A2986 RMK AO2 TSE13,M
BVU,2023-07-18 02:35,-114.8611,35.9475,671.00,102.20,53.60,20.00,350.00,10.00,0.00,29.82,M,10.00,M,CLR,M,M,M,M,M,M,M,M,M,M,M,M,M,M,100.38,KBVU 180235Z AUTO 35010KT 10SM CLR 39/12 A2982 RMK AO2,M
CXP,2023-07-18 02:35,-119.7326,39.1923,1431.00,87.80,48.20,25.52,270.00,10.00,0.00,30.10,M,10.00,15.00,CLR,M,M,M,M,M,M,M,M,M,M,M,M,M,M,84.87,KCXP 180235Z AUTO 27010G15KT 250V310 10SM CLR 31/09 A3010 RMK AO2,M
RTS,2023-07-18 02:35,-119.8764,39.6682,1539.00,86.00,42.80,22.02,260.00,13.00,0.00,30.13,M,10.00,M,CLR,M,M,M,M,M,M,M,M,M,M,M,M,M,M,82.95,KRTS 180235Z AUTO 26013KT 10SM CLR 30/06 A3013 RMK AO2,M
05U,2023-07-18 02:35,-116.0051,39.6042,1811.23,82.40,42.80,24.72,M,M,0.00,30.21,M,10.00,M,CLR,M,M,M,M,M,M,M,M,M,M,M,M,M,M,80.39,K05U 180235Z AUTO 10SM CLR 28/06 A3021 RMK A01,M
MEV,2023-07-18 02:35,-119.7500,38.9963,1441.42,87.80,51.80,29.18,270.00,9.00,0.00,30.08,M,10.00,M,CLR,M,M,M,M,M,M,M,M,M,M,M,M,M,M,85.39,KMEV 180235Z AUTO 27009KT 10SM CLR 31/11 A3008 RMK AO2,M
BAM,2023-07-18 02:35,-116.8743,40.5990,1382.36,96.80,35.60,11.86,280.00,15.00,0.00,30.03,M,10.00,21.00,CLR,M,M,M,M,M,M,M,M,M,M,M,M,M,M,91.72,KBAM 180235Z AUTO 28015G21KT 10SM CLR 36/02 A3003 RMK AO1,M
HTH,2023-07-18 02:35,-118.6315,38.5448,1282.89,89.60,44.60,21.04,200.00,4.00,0.00,30.02,M,10.00,M,CLR,M,M,M,M,M,M,M,M,M,M,M,M,M,M,86.07,KHTH 180235Z AUTO 20004KT 10SM CLR 32/07 A3002 RMK A01,M
TMT,2023-07-18 02:35,-117.1971,39.4643,1749.34,72.00,55.60,56.28,0.00,0.00,0.00,30.19,M,10.00,M,CLR,M,M,M,M,M,M,M,M,M,M,M,M,M,M,72.00,KTMT 180235Z AUTO 00000KT 10SM CLR 22/13 A3019 RMK AO2 T02220131,M
WMC,2023-07-18 02:46,-117.8072,40.9019,1315.00,M,M,M,M,M,0.00,29.99,M,M,M,M,M,M,M,M,M,M,M,VCTS,M,M,M,M,M,M,M,KWMC 180246Z AUTO VCTS A2999 RMK AO2 LTG DSNT N-E TSB00E10E18E40 PWINO FZRANO $,M
P68,2023-07-18 02:53,-116.0056,39.6014,1993.00,82.00,41.00,23.37,310.00,6.00,0.00,30.20,1012.70,M,M,M,M,M,M,M,M,M,M,M,M,M,M,M,M,M,80.04,KP68 180253Z AUTO 31006KT 28/05 A3020 RMK AO1 SLP127 T02780050 53019,M
DRA,2023-07-18 02:53,-116.0278,36.6206,1009.00,101.00,47.00,16.22,180.00,10.00,0.00,29.91,1006.50,10.00,M,CLR,M,M,M,M,M,M,M,M,M,M,M,M,M,M,97.35,KDRA 180253Z AUTO 18010KT 10SM CLR 38/08 A2991 RMK AO2 SLP065 T03830083 55002,M
ELY,2023-07-18 02:53,-114.8453,39.2950,1909.00,M,M,M,M,M,0.00,30.21,M,M,M,M,M,M,M,M,M,M,M,M,M,M,M,M,M,M,M,KELY 180253Z AUTO A3021 RMK AO2 SLPNO 53006 PWINO FZRANO,M
VGT,2023-07-18 02:53,-115.1933,36.2111,667.00,107.00,53.00,16.97,140.00,9.00,0.00,29.81,1007.60,10.00,M,CLR,M,M,M,M,M,M,M,M,M,M,M,M,M,M,105.26,KVGT 180253Z 14009KT 10SM CLR 42/12 A2981 RMK AO2 SLP076 T04170117 55004,M
LOL,2023-07-18 02:53,-118.5701,40.0684,1192.43,90.00,47.00,22.76,220.00,8.00,0.00,29.98,1009.70,10.00,M,CLR,M,M,M,M,M,M,M,M,M,M,M,M,M,M,86.66,KLOL 180253Z AUTO 22008KT 10SM CLR 32/08 A2998 RMK AO2 LTG DSNT S SLP097 T03220083 53004,M
BVU,2023-07-18 02:55,-114.8611,35.9475,671.00,102.20,51.80,18.72,40.00,7.00,0.00,29.82,M,10.00,M,CLR,M,M,M,M,M,M,M,M,M,M,M,M,M,M,99.80,KBVU 180255Z AUTO 04007KT 10SM CLR 39/11 A2982 RMK AO2,M
CXP,2023-07-18 02:55,-119.7326,39.1923,1431.00,87.80,46.40,23.85,290.00,9.00,0.00,30.11,M,10.00,14.00,CLR,M,M,M,M,M,M,M,M,M,M,M,M,M,M,84.68,KCXP 180255Z AUTO 29009G14KT 10SM CLR 31/08 A3011 RMK AO2,M
INS,2023-07-18 02:55,-115.6733,36.5872,955.00,102.20,42.00,12.93,200.00,11.00,0.00,29.90,1006.40,10.00,M,CLR,M,M,M,M,M,M,M,M,M,M,M,M,M,M,97.63,KINS 180255Z AUTO 20011KT 10SM CLR 39/06 A2990 RMK AO2 SLP064 T03900055 53005 $,M
RNO,2023-07-18 02:55,-119.7711,39.4839,1341.00,92.00,46.00,20.58,270.00,12.00,0.00,30.05,1010.40,10.00,19.00,FEW,FEW,M,M,11000.00,18000.00,M,M,M,M,M,M,M,M,M,88.38,KRNO 180255Z 27012G19KT 10SM FEW110 FEW180 33/08 A3005 RMK AO2 SLP104 TCU DSNT E THRU SE T03330078 53005,M
LSV,2023-07-18 02:55,-115.0343,36.2362,570.00,106.00,48.70,14.90,160.00,5.00,0.00,29.76,1004.40,10.00,M,CLR,M,M,M,M,M,M,M,M,M,M,M,M,M,M,102.79,KLSV 180255Z AUTO 16005KT 10SM CLR 41/09 A2976 RMK AO2 SLP044 T04110093 55007 $,M
RTS,2023-07-18 02:55,-119.8764,39.6682,1539.00,86.00,42.80,22.02,250.00,11.00,0.00,30.13,M,10.00,17.00,CLR,M,M,M,M,M,M,M,M,M,M,M,M,M,M,82.95,KRTS 180255Z AUTO 25011G17KT 10SM CLR 30/06 A3013 RMK AO2,M
05U,2023-07-18 02:55,-116.0051,39.6042,1811.23,80.60,41.00,24.46,M,M,0.00,30.23,M,10.00,M,CLR,M,M,M,M,M,M,M,M,M,M,M,M,M,M,79.20,K05U 180255Z AUTO 10SM CLR 27/05 A3023 RMK A01,M
MEV,2023-07-18 02:55,-119.7500,38.9963,1441.42,86.00,51.80,30.90,280.00,10.00,0.00,30.09,M,10.00,M,CLR,M,M,M,M,M,M,M,M,M,M,M,M,M,M,83.87,KMEV 180255Z AUTO 28010KT 10SM CLR 30/11 A3009 RMK AO2,M
BAM,2023-07-18 02:55,-116.8743,40.5990,1382.36,95.00,37.40,13.46,260.00,12.00,0.00,30.03,M,10.00,17.00,CLR,M,M,M,M,M,M,M,M,M,M,M,M,M,M,90.46,KBAM 180255Z AUTO 26012G17KT 10SM CLR 35/03 A3003 RMK AO1,M
HTH,2023-07-18 02:55,-118.6315,38.5448,1282.89,89.60,48.20,24.11,340.00,5.00,0.00,30.03,M,10.00,M,CLR,M,M,M,M,M,M,M,M,M,M,M,M,M,M,86.44,KHTH 180255Z AUTO 34005KT 10SM CLR 32/09 A3003 RMK A01,M
TMT,2023-07-18 02:55,-117.1971,39.4643,1749.34,71.00,57.00,61.24,240.00,5.00,0.00,30.20,M,10.00,M,CLR,M,M,M,M,M,M,M,M,M,M,M,M,M,M,71.00,KTMT 180255Z AUTO 24005KT 10SM CLR 22/14 A3020 RMK AO2 60004 T02170139,M
EKO,2023-07-18 02:56,-115.7860,40.8242,1367.00,86.00,37.00,17.57,180.00,9.00,0.00,30.08,1011.80,10.00,M,CLR,M,M,M,M,M,M,M,M,M,M,M,M,M,M,82.72,KEKO 180256Z AUTO 18009KT 10SM CLR 30/03 A3008 RMK AO2 SLP118 T03000028 55002,M
WMC,2023-07-18 02:56,-117.8072,40.9019,1315.00,M,M,M,M,M,0.00,29.99,M,M,M,M,M,M,M,M,M,M,M,M,M,M,M,M,M,M,M,KWMC 180256Z AUTO A2999 RMK AO2 LTG DSNT NE AND E TSB00E10E18E40 SLPNO 55000 PWINO FZRANO $,M
NFL,2023-07-18 02:56,-118.7010,39.4166,1199.00,79.00,58.00,48.59,130.00,11.00,T,30.00,1013.10,10.00,M,SCT,BKN,BKN,BKN,7000.00,10000.00,15000.00,18000.00,M,M,M,M,35.00,150.00,2023-07-18 02:21,79.00,KNFL 180256Z 13011KT 10SM SCT070CB BKN100 BKN150 BKN180 26/14 A3000 RMK AO2 PK WND 15035/0221 RAE52 TSE52 SLP131 OCNL LTGICCC E TS E MOV NE CB DSNT NE-E-S P0000 60011 T02610144 53010,M
HND,2023-07-18 02:56,-115.1344,35.9729,742.79,107.00,53.00,16.97,210.00,13.00,0.00,29.87,1008.70,10.00,M,CLR,M,M,M,M,M,M,M,M,M,M,M,M,M,M,105.26,KHND 180256Z 21013KT 10SM CLR 42/12 A2987 RMK AO2 TSE13 SLP087 T04170117 55000,M
TPH,2023-07-18 02:56,-117.0904,38.0505,1654.00,91.00,37.00,15.00,270.00,14.00,0.00,30.12,1009.50,10.00,M,CLR,M,M,M,M,M,M,M,M,M,M,M,M,M,M,86.86,KTPH 180256Z AUTO 27014KT 10SM CLR 33/03 A3012 RMK AO2 SLP095 T03280028 53000,M
LAS,2023-07-18 02:56,-115.1634,36.0719,663.00,105.00,53.00,18.00,170.00,3.00,0.00,29.82,1006.10,10.00,M,FEW,FEW,SCT,M,12000.00,16000.00,20000.00,M,M,M,M,M,M,M,M,103.16,KLAS 180256Z 17003KT 10SM FEW120 FEW160 SCT200 41/12 A2982 RMK AO2 TSE16 SLP061 TS MOV NE CB DSNT NE T04060117 55002,M
WMC,2023-07-18 03:10,-117.8072,40.9019,1315.00,M,M,M,M,M,0.00,30.00,M,M,M,M,M,M,M,M,M,M,M,VCTS,M,M,M,M,M,M,M,KWMC 180310Z AUTO VCTS A3000 RMK AO2 LTG DSNT NE AND E PWINO FZRANO $,M
BVU,2023-07-18 03:15,-114.8611,35.9475,671.00,98.60,55.40,23.81,30.00,4.00,0.00,29.83,M,10.00,M,CLR,M,M,M,M,M,M,M,M,M,M,M,M,M,M,97.09,KBVU 180315Z AUTO 03004KT 10SM CLR 37/13 A2983 RMK AO2,M
CXP,2023-07-18 03:15,-119.7326,39.1923,1431.00,86.00,46.40,25.26,300.00,8.00,0.00,30.11,M,10.00,M,CLR,M,M,M,M,M,M,M,M,M,M,M,M,M,M,83.22,KCXP 180315Z AUTO 30008KT 10SM CLR 30/08 A3011 RMK AO2,M
RTS,2023-07-18 03:15,-119.8764,39.6682,1539.00,84.20,42.80,23.33,240.00,11.00,0.00,30.14,M,10.00,M,CLR,M,M,M,M,M,M,M,M,M,M,M,M,M,M,81.61,KRTS 180315Z AUTO 24011KT 10SM CLR 29/06 A3014 RMK AO2,M
05U,2023-07-18 03:15,-116.0051,39.6042,1811.23,80.60,41.00,24.46,M,M,0.00,30.23,M,10.00,M,CLR,M,M,M,M,M,M,M,M,M,M,M,M,M,M,79.20,K05U 180315Z AUTO 10SM CLR 27/05 A3023 RMK A01,M
MEV,2023-07-18 03:15,-119.7500,38.9963,1441.42,84.20,51.80,32.73,280.00,9.00,0.00,30.09,M,10.00,M,CLR,M,M,M,M,M,M,M,M,M,M,M,M,M,M,82.48,KMEV 180315Z AUTO 28009KT 10SM CLR 29/11 A3009 RMK AO2,M
BAM,2023-07-18 03:15,-116.8743,40.5990,1382.36,95.00,37.40,13.46,240.00,13.00,0.00,30.04,M,10.00,16.00,CLR,M,M,M,M,M,M,M,M,M,M,M,M,M,M,90.46,KBAM 180315Z AUTO 24013G16KT 10SM CLR 35/03 A3004 RMK AO1,M
HTH,2023-07-18 03:15,-118.6315,38.5448,1282.89,86.00,51.80,30.90,320.00,4.00,0.00,30.04,M,10.00,M,CLR,M,M,M,M,M,M,M,M,M,M,M,M,M,M,83.87,KHTH 180315Z AUTO 32004KT 10SM CLR 30/11 A3004 RMK A01,M
TMT,2023-07-18 03:15,-117.1971,39.4643,1749.34,71.40,56.50,59.34,230.00,7.00,0.00,30.21,M,10.00,M,CLR,M,M,M,M,M,M,M,M,M,M,M,M,M,M,71.40,KTMT 180315Z AUTO 23007KT 10SM CLR 22/14 A3021 RMK AO2 T02190136,M
BVU,2023-07-18 03:35,-114.8611,35.9475,671.00,96.80,55.40,25.15,M,4.00,0.00,29.84,M,10.00,M,CLR,M,M,M,M,M,M,M,M,M,M,M,M,M,M,95.14,KBVU 180335Z AUTO VRB04KT 10SM CLR 36/13 A2984 RMK AO2,M
CXP,2023-07-18 03:35,-119.7326,39.1923,1431.00,84.20,46.40,26.76,310.00,6.00,0.00,30.12,M,10.00,11.00,CLR,M,M,M,M,M,M,M,M,M,M,M,M,M,M,81.87,KCXP 180335Z AUTO 31006G11KT 10SM CLR 29/08 A3012 RMK AO2,M
RTS,2023-07-18 03:35,-119.8764,39.6682,1539.00,82.40,44.60,26.49,250.00,6.00,0.00,30.14,M,10.00,11.00,CLR,M,M,M,M,M,M,M,M,M,M,M,M,M,M,80.50,KRTS 180335Z AUTO 25006G11KT 10SM CLR 28/07 A3014 RMK AO2,M
05U,2023-07-18 03:35,-116.0051,39.6042,1811.23,77.00,42.80,29.51,M,M,0.00,30.25,M,10.00,M,CLR,M,M,M,M,M,M,M,M,M,M,M,M,M,M,77.00,K05U 180335Z AUTO 10SM CLR 25/06 A3025 RMK A01,M
MEV,2023-07-18 03:35,-119.7500,38.9963,1441.42,84.20,50.00,30.62,260.00,9.00,0.00,30.10,M,10.00,M,CLR,M,M,M,M,M,M,M,M,M,M,M,M,M,M,82.24,KMEV 180335Z AUTO 26009KT 10SM CLR 29/10 A3010 RMK AO2,M
BAM,2023-07-18 03:35,-116.8743,40.5990,1382.36,91.40,41.00,17.32,230.00,9.00,0.00,30.04,M,10.00,M,CLR,M,M,M,M,M,M,M,M,M,M,M,M,M,M,87.40,KBAM 180335Z AUTO 23009KT 10SM CLR 33/05 A3004 RMK AO1,M
HTH,2023-07-18 03:35,-118.6315,38.5448,1282.89,86.00,55.40,35.25,240.00,4.00,0.00,30.04,M,10.00,M,CLR,M,M,M,M,M,M,M,M,M,M,M,M,M,M,84.54,KHTH 180335Z AUTO 24004KT 10SM CLR 30/13 A3004 RMK A01,M
TMT,2023-07-18 03:35,-117.1971,39.4643,1749.34,71.20,54.50,55.55,280.00,5.00,0.00,30.21,M,10.00,M,BKN,M,M,M,12000.00,M,M,M,M,M,M,M,M,M,M,71.20,KTMT 180335Z AUTO 28005KT 10SM BKN120 22/13 A3021 RMK AO2 T02180125,M
P68,2023-07-18 03:53,-116.0056,39.6014,1993.00,73.00,47.00,39.58,90.00,5.00,0.00,30.22,1013.60,M,M,M,M,M,M,M,M,M,M,M,M,M,M,M,M,M,73.00,KP68 180353Z AUTO 09005KT 23/08 A3022 RMK AO1 SLP136 T02280083,M
DRA,2023-07-18 03:53,-116.0278,36.6206,1009.00,99.00,49.00,18.58,180.00,8.00,0.00,29.93,1007.00,10.00,M,CLR,M,M,M,M,M,M,M,M,M,M,M,M,M,M,95.75,KDRA 180353Z AUTO 18008KT 10SM CLR 37/09 A2993 RMK AO2 SLP070 T03720094,M
ELY,2023-07-18 03:53,-114.8453,39.2950,1909.00,M,M,M,M,M,0.00,30.24,M,M,M,M,M,M,M,M,M,M,M,M,M,M,M,M,M,M,M,KELY 180353Z AUTO A3024 RMK AO2 SLPNO PWINO FZRANO,M
VGT,2023-07-18 03:53,-115.1933,36.2111,667.00,106.00,52.00,16.84,170.00,7.00,0.00,29.83,1008.10,10.00,M,CLR,M,M,M,M,M,M,M,M,M,M,M,M,M,M,103.85,KVGT 180353Z AUTO 17007KT 10SM CLR 41/11 A2983 RMK AO2 SLP081 T04110111,M
LOL,2023-07-18 03:53,-118.5701,40.0684,1192.43,84.00,49.00,29.69,180.00,11.00,0.00,30.01,1011.00,10.00,M,CLR,M,M,M,M,M,M,M,M,M,M,M,M,M,M,81.98,KLOL 180353Z AUTO 18011KT 10SM CLR 29/09 A3001 RMK AO2 LTG DSNT SE AND S SLP110 T02890094,M
BVU,2023-07-18 03:55,-114.8611,35.9475,671.00,100.40,50.00,18.48,180.00,6.00,0.00,29.85,M,10.00,M,CLR,M,M,M,M,M,M,M,M,M,M,M,M,M,M,97.42,KBVU 180355Z AUTO 18006KT 10SM CLR 38/10 A2985 RMK AO2,M
CXP,2023-07-18 03:55,-119.7326,39.1923,1431.00,84.20,46.40,26.76,310.00,7.00,0.00,30.12,M,10.00,M,CLR,M,M,M,M,M,M,M,M,M,M,M,M,M,M,81.87,KCXP 180355Z AUTO 31007KT 10SM CLR 29/08 A3012 RMK AO2,M
INS,2023-07-18 03:55,-115.6733,36.5872,955.00,100.60,44.40,14.88,190.00,9.00,0.00,29.91,1006.60,10.00,M,CLR,M,M,M,M,M,M,M,M,M,M,M,M,M,M,96.48,KINS 180355Z AUTO 19009KT 10SM CLR 38/07 A2991 RMK AO2 SLP066 T03810069 $,M
RNO,2023-07-18 03:55,-119.7711,39.4839,1341.00,88.00,47.00,24.24,260.00,8.00,0.00,30.07,1011.30,10.00,M,FEW,SCT,M,M,10000.00,18000.00,M,M,M,M,M,M,M,M,M,84.91,KRNO 180355Z 26008KT 10SM FEW100 SCT180 31/08 A3007 RMK AO2 SLP113 T03110083,M
LSV,2023-07-18 03:55,-115.0343,36.2362,570.00,100.40,M,M,M,M,0.00,29.78,1005.10,M,M,M,M,M,M,M,M,M,M,M,M,M,M,M,M,M,M,KLSV 180355Z AUTO M M M M 38/ A2978 RMK AO2 SLP051 RVRNO $,M
RTS,2023-07-18 03:55,-119.8764,39.6682,1539.00,80.60,44.60,28.08,230.00,5.00,0.00,30.15,M,10.00,M,CLR,M,M,M,M,M,M,M,M,M,M,M,M,M,M,79.42,KRTS 180355Z AUTO 23005KT 10SM CLR 27/07 A3015 RMK AO2,M
05U,2023-07-18 03:55,-116.0051,39.6042,1811.23,73.40,46.40,38.18,M,M,0.00,30.25,M,10.00,M,CLR,M,M,M,M,M,M,M,M,M,M,M,M,M,M,73.40,K05U 180355Z AUTO 10SM CLR 23/08 A3025 RMK A01,M
MEV,2023-07-18 03:55,-119.7500,38.9963,1441.42,78.80,51.80,39.02,0.00,0.00,0.00,30.11,M,10.00,M,CLR,M,M,M,M,M,M,M,M,M,M,M,M,M,M,78.80,KMEV 180355Z AUTO 00000KT 10SM CLR 26/11 A3011 RMK AO2,M
BAM,2023-07-18 03:55,-116.8743,40.5990,1382.36,89.60,41.00,18.33,210.00,11.00,0.00,30.04,M,10.00,M,CLR,M,M,M,M,M,M,M,M,M,M,M,M,M,M,85.82,KBAM 180355Z AUTO 21011KT 10SM CLR 32/05 A3004 RMK AO1,M
HTH,2023-07-18 03:55,-118.6315,38.5448,1282.89,84.20,57.20,39.86,20.00,4.00,0.00,30.05,M,10.00,M,CLR,M,M,M,M,M,M,M,M,M,M,M,M,M,M,83.47,KHTH 180355Z AUTO 02004KT 10SM CLR 29/14 A3005 RMK A01,M
TMT,2023-07-18 03:55,-117.1971,39.4643,1749.34,72.00,53.00,51.18,310.00,8.00,0.00,30.22,M,10.00,M,BKN,M,M,M,12000.00,M,M,M,M,M,M,M,M,M,M,72.00,KTMT 180355Z AUTO 31008KT 10SM BKN120 22/12 A3022 RMK AO2 T02230116,M
EKO,2023-07-18 03:56,-115.7860,40.8242,1367.00,85.00,42.00,22.05,190.00,18.00,0.00,30.09,1011.90,10.00,31.00,CLR,M,M,M,M,M,M,M,M,M,M,M,31.00,190.00,2023-07-18 03:52,82.15,KEKO 180356Z AUTO 19018G31KT 10SM CLR 29/06 A3009 RMK AO2 PK WND 19031/0352 LTG DSNT NW SLP119 T02940056,M
WMC,2023-07-18 03:56,-117.8072,40.9019,1315.00,M,M,M,M,M,0.00,30.01,M,M,M,M,M,M,M,M,M,M,M,VCTS,M,M,M,M,M,M,M,KWMC 180356Z AUTO VCTS A3001 RMK AO2 LTG DSNT E AND SE SLPNO PWINO FZRANO $,M
NFL,2023-07-18 03:56,-118.7010,39.4166,1199.00,80.00,57.00,45.36,110.00,5.00,0.00,30.02,1013.40,10.00,M,SCT,SCT,BKN,BKN,7000.00,10000.00,15000.00,18000.00,M,M,M,M,M,M,M,80.38,KNFL 180356Z 11005KT 10SM SCT070 SCT100 BKN150 BKN180 27/14 A3002 RMK AO2 SLP134 CB DSNT NE-SE-S T02670139,M
HND,2023-07-18 03:56,-115.1344,35.9729,742.79,104.00,53.00,18.54,210.00,12.00,0.00,29.89,1009.40,10.00,M,CLR,M,M,M,M,M,M,M,M,M,M,M,M,M,M,102.10,KHND 180356Z AUTO 21012KT 10SM CLR 40/12 A2989 RMK AO2 SLP094 T04000117,M
TPH,2023-07-18 03:56,-117.0904,38.0505,1654.00,88.00,38.00,17.15,300.00,9.00,0.00,30.14,1010.00,10.00,M,CLR,M,M,M,M,M,M,M,M,M,M,M,M,M,M,84.35,KTPH 180356Z AUTO 30009KT 10SM CLR 31/03 A3014 RMK AO2 SLP100 T03110033,M
LAS,2023-07-18 03:56,-115.1634,36.0719,663.00,106.00,51.00,16.23,200.00,9.00,0.00,29.84,1006.60,10.00,16.00,FEW,FEW,SCT,M,12000.00,16000.00,20000.00,M,M,M,M,M,M,M,M,103.51,KLAS 180356Z 20009G16KT 10SM FEW120 FEW160 SCT200 41/11 A2984 RMK AO2 SLP066 T04110106,M
LSV,2023-07-18 04:00,-115.0343,36.2362,570.00,102.20,53.60,20.00,0.00,0.00,0.00,29.82,M,10.00,M,CLR,M,M,M,M,M,M,M,M,M,M,M,M,M,M,100.38,KLSV 180400Z 00000KT 10SM CLR 39/12 A2982 RMK SLPNO RVRNO $,M
LOL,2023-07-18 04:12,-118.5701,40.0684,1192.43,83.00,49.00,30.67,240.00,8.00,0.00,30.02,M,5.00,M,FEW,M,M,M,800.00,M,M,M,HZ,M,M,M,M,M,M,81.28,KLOL 180412Z AUTO 24008KT 5SM HZ FEW008 28/09 A3002 RMK AO2 LTG DSNT SE T02830094,M
BVU,2023-07-18 04:15,-114.8611,35.9475,671.00,100.40,50.00,18.48,190.00,4.00,0.00,29.85,M,10.00,M,CLR,M,M,M,M,M,M,M,M,M,M,M,M,M,M,97.42,KBVU 180415Z AUTO 19004KT 10SM CLR 38/10 A2985 RMK AO2,M
CXP,2023-07-18 04:15,-119.7326,39.1923,1431.00,84.20,46.40,26.76,300.00,5.00,0.00,30.13,M,10.00,11.00,CLR,M,M,M,M,M,M,M,M,M,M,M,M,M,M,81.87,KCXP 180415Z AUTO 30005G11KT 10SM CLR 29/08 A3013 RMK AO2,M
RTS,2023-07-18 04:15,-119.8764,39.6682,1539.00,80.60,42.80,26.22,250.00,6.00,0.00,30.15,M,10.00,M,CLR,M,M,M,M,M,M,M,M,M,M,M,M,M,M,79.30,KRTS 180415Z AUTO 25006KT 10SM CLR 27/06 A3015 RMK AO2,M
05U,2023-07-18 04:15,-116.0051,39.6042,1811.23,71.60,44.60,37.89,M,M,0.00,30.25,M,10.00,M,CLR,M,M,M,M,M,M,M,M,M,M,M,M,M,M,71.60,K05U 180415Z AUTO 10SM CLR 22/07 A3025 RMK A01,M
MEV,2023-07-18 04:15,-119.7500,38.9963,1441.42,80.60,51.80,36.79,350.00,3.00,0.00,30.11,M,10.00,M,CLR,M,M,M,M,M,M,M,M,M,M,M,M,M,M,80.08,KMEV 180415Z AUTO 35003KT 10SM CLR 27/11 A3011 RMK AO2,M
BAM,2023-07-18 04:15,-116.8743,40.5990,1382.36,87.80,39.20,18.09,210.00,7.00,0.00,30.05,M,10.00,M,CLR,M,M,M,M,M,M,M,M,M,M,M,M,M,M,84.22,KBAM 180415Z AUTO 21007KT 10SM CLR 31/04 A3005 RMK AO1,M
HTH,2023-07-18 04:15,-118.6315,38.5448,1282.89,84.20,53.60,34.97,0.00,0.00,0.00,30.06,M,10.00,M,CLR,M,M,M,M,M,M,M,M,M,M,M,M,M,M,82.76,KHTH 180415Z AUTO 00000KT 10SM CLR 29/12 A3006 RMK A01,M
TMT,2023-07-18 04:15,-117.1971,39.4643,1749.34,70.50,55.00,57.94,0.00,0.00,0.00,30.23,M,10.00,M,SCT,M,M,M,12000.00,M,M,M,M,M,M,M,M,M,M,70.50,KTMT 180415Z AUTO 00000KT 10SM SCT120 21/13 A3023 RMK AO2 T02140128,M
WMC,2023-07-18 04:18,-117.8072,40.9019,1315.00,M,M,M,M,M,0.00,30.02,M,M,M,M,M,M,M,M,M,M,M,M,M,M,M,M,M,M,M,KWMC 180418Z AUTO A3002 RMK AO2 LTG DSNT E-S PWINO FZRANO $,M
BVU,2023-07-18 04:35,-114.8611,35.9475,671.00,100.40,51.80,19.76,160.00,10.00,0.00,29.87,M,10.00,M,CLR,M,M,M,M,M,M,M,M,M,M,M,M,M,M,97.90,KBVU 180435Z AUTO 16010KT 10SM CLR 38/11 A2987 RMK AO2,M
CXP,2023-07-18 04:35,-119.7326,39.1923,1431.00,82.40,48.20,30.35,290.00,4.00,0.00,30.13,M,10.00,M,CLR,M,M,M,M,M,M,M,M,M,M,M,M,M,M,80.80,KCXP 180435Z AUTO 29004KT 10SM CLR 28/09 A3013 RMK AO2,M
RTS,2023-07-18 04:35,-119.8764,39.6682,1539.00,80.60,42.80,26.22,250.00,5.00,0.00,30.16,M,10.00,M,CLR,M,M,M,M,M,M,M,M,M,M,M,M,M,M,79.30,KRTS 180435Z AUTO 25005KT 10SM CLR 27/06 A3016 RMK AO2,M
05U,2023-07-18 04:35,-116.0051,39.6042,1811.23,71.60,44.60,37.89,M,M,0.00,30.26,M,10.00,M,CLR,M,M,M,M,M,M,M,M,M,M,M,M,M,M,71.60,K05U 180435Z AUTO 10SM CLR 22/07 A3026 RMK A01,M
MEV,2023-07-18 04:35,-119.7500,38.9963,1441.42,77.00,51.80,41.42,0.00,0.00,0.00,30.12,M,10.00,M,CLR,M,M,M,M,M,M,M,M,M,M,M,M,M,M,77.00,KMEV 180435Z AUTO 00000KT 10SM CLR 25/11 A3012 RMK AO2,M
BAM,2023-07-18 04:35,-116.8743,40.5990,1382.36,86.00,41.00,20.54,240.00,8.00,0.00,30.06,M,10.00,M,CLR,M,M,M,M,M,M,M,M,M,M,M,M,M,M,82.86,KBAM 180435Z AUTO 24008KT 10SM CLR 30/05 A3006 RMK AO1,M
HTH,2023-07-18 04:35,-118.6315,38.5448,1282.89,84.20,53.60,34.97,260.00,6.00,0.00,30.07,M,10.00,M,CLR,M,M,M,M,M,M,M,M,M,M,M,M,M,M,82.76,KHTH 180435Z AUTO 26006KT 10SM CLR 29/12 A3007 RMK A01,M
TMT,2023-07-18 04:35,-117.1971,39.4643,1749.34,72.30,50.40,46.03,300.00,3.00,0.00,30.24,M,10.00,M,CLR,M,M,M,M,M,M,M,M,M,M,M,M,M,M,72.30,KTMT 180435Z AUTO 30003KT 10SM CLR 22/10 A3024 RMK AO2 T02240102,M
P68,2023-07-18 04:53,-116.0056,39.6014,1993.00,73.00,45.00,36.70,190.00,4.00,0.00,30.22,1013.20,M,M,M,M,M,M,M,M,M,M,M,M,M,M,M,M,M,73.00,KP68 180453Z AUTO 19004KT 23/07 A3022 RMK AO1 SLP132 T02280072,M
DRA,2023-07-18 04:53,-116.0278,36.6206,1009.00,97.00,49.00,19.74,180.00,11.00,0.00,29.95,1007.60,10.00,M,CLR,M,M,M,M,M,M,M,M,M,M,M,M,M,M,93.71,KDRA 180453Z AUTO 18011KT 10SM CLR 36/09 A2995 RMK AO2 SLP076 T03610094,M
ELY,2023-07-18 04:53,-114.8453,39.2950,1909.00,M,M,M,M,M,0.00,30.22,M,M,M,M,M,M,M,M,M,M,M,M,M,M,M,M,M,M,M,KELY 180453Z AUTO A3022 RMK AO2 SLPNO PWINO FZRANO,M
VGT,2023-07-18 04:53,-115.1933,36.2111,667.00,106.00,52.00,16.84,200.00,10.00,0.00,29.85,1008.70,10.00,M,CLR,M,M,M,M,M,M,M,M,M,M,M,M,M,M,103.85,KVGT 180453Z AUTO 20010KT 10SM CLR 41/11 A2985 RMK AO2 SLP087 T04110111,M
LOL,2023-07-18 04:53,-118.5701,40.0684,1192.43,80.00,49.00,33.81,260.00,4.00,0.00,30.02,1011.60,10.00,M,CLR,M,M,M,M,M,M,M,M,M,M,M,M,M,M,79.46,KLOL 180453Z AUTO 26004KT 10SM CLR 27/09 A3002 RMK AO2 SLP116 T02670094,M
BVU,2023-07-18 04:55,-114.8611,35.9475,671.00,100.40,51.80,19.76,160.00,8.00,0.00,29.87,M,10.00,M,CLR,M,M,M,M,M,M,M,M,M,M,M,M,M,M,97.90,KBVU 180455Z AUTO 16008KT 10SM CLR 38/11 A2987 RMK AO2,M
CXP,2023-07-18 04:55,-119.7326,39.1923,1431.00,82.40,48.20,30.35,290.00,8.00,0.00,30.14,M,10.00,M,CLR,M,M,M,M,M,M,M,M,M,M,M,M,M,M,80.80,KCXP 180455Z AUTO 29008KT 10SM CLR 28/09 A3014 RMK AO2,M
INS,2023-07-18 04:55,-115.6733,36.5872,955.00,99.30,45.00,15.83,170.00,9.00,0.00,29.93,1007.20,10.00,M,CLR,M,M,M,M,M,M,M,M,M,M,M,M,M,M,95.30,KINS 180455Z AUTO 17009KT 10SM CLR 37/07 A2993 RMK AO2 SLP072 T03740073 $,M
RNO,2023-07-18 04:55,-119.7711,39.4839,1341.00,85.00,47.00,26.67,330.00,5.00,0.00,30.09,1012.30,10.00,M,FEW,M,M,M,10000.00,M,M,M,M,M,M,M,M,M,M,82.51,KRNO 180455Z 33005KT 10SM FEW100 29/08 A3009 RMK AO2 SLP123 T02940083,M
LSV,2023-07-18 04:55,-115.0343,36.2362,570.00,105.80,53.60,17.97,160.00,10.00,0.00,29.85,1007.40,10.00,M,CLR,M,M,M,M,M,M,M,M,M,M,M,M,M,M,104.23,KLSV 180455Z 16010KT 10SM CLR 41/12 A2985 RMK SLP074,M
RTS,2023-07-18 04:55,-119.8764,39.6682,1539.00,78.80,42.80,27.81,240.00,5.00,0.00,30.16,M,10.00,M,CLR,M,M,M,M,M,M,M,M,M,M,M,M,M,M,78.80,KRTS 180455Z AUTO 24005KT 10SM CLR 26/06 A3016 RMK AO2,M
05U,2023-07-18 04:55,-116.0051,39.6042,1811.23,71.60,44.60,37.89,M,M,0.00,30.25,M,10.00,M,CLR,M,M,M,M,M,M,M,M,M,M,M,M,M,M,71.60,K05U 180455Z AUTO 10SM CLR 22/07 A3025 RMK A01,M
MEV,2023-07-18 04:55,-119.7500,38.9963,1441.42,75.20,51.80,43.97,90.00,3.00,0.00,30.13,M,10.00,M,CLR,M,M,M,M,M,M,M,M,M,M,M,M,M,M,75.20,KMEV 180455Z AUTO 09003KT 10SM CLR 24/11 A3013 RMK AO2,M
BAM,2023-07-18 04:55,-116.8743,40.5990,1382.36,84.20,41.00,21.76,330.00,7.00,0.00,30.07,M,10.00,M,CLR,M,M,M,M,M,M,M,M,M,M,M,M,M,M,81.52,KBAM 180455Z AUTO 33007KT 10SM CLR 29/05 A3007 RMK AO1,M
HTH,2023-07-18 04:55,-118.6315,38.5448,1282.89,84.20,51.80,32.73,300.00,7.00,0.00,30.08,M,10.00,M,CLR,M,M,M,M,M,M,M,M,M,M,M,M,M,M,82.48,KHTH 180455Z AUTO 30007KT 10SM CLR 29/11 A3008 RMK A01,M
TMT,2023-07-18 04:55,-117.1971,39.4643,1749.34,70.00,52.00,52.80,140.00,6.00,0.00,30.23,M,10.00,M,CLR,M,M,M,M,M,M,M,M,M,M,M,M,M,M,70.00,KTMT 180455Z AUTO 14006KT 10SM CLR 21/11 A3023 RMK AO2 T02120111,M
EKO,2023-07-18 04:56,-115.7860,40.8242,1367.00,84.00,42.00,22.77,200.00,11.00,0.00,30.11,1011.90,10.00,18.00,CLR,M,M,M,M,M,M,M,M,M,M,M,27.00,200.00,2023-07-18 04:00,81.42,KEKO 180456Z AUTO 20011G18KT 10SM CLR 29/06 A3011 RMK AO2 PK WND 20027/0400 SLP119 T02890056,M
WMC,2023-07-18 04:56,-117.8072,40.9019,1315.00,M,M,M,M,M,0.00,30.02,M,M,M,M,M,M,M,M,M,M,M,M,M,M,M,M,M,M,M,KWMC 180456Z AUTO A3002 RMK AO2 LTG DSNT NE-SE SLPNO PWINO FZRANO $,M
NFL,2023-07-18 04:56,-118.7010,39.4166,1199.00,76.00,61.00,59.72,170.00,6.00,0.00,30.05,1014.30,10.00,M,SCT,SCT,SCT,M,7000.00,10000.00,15000.00,M,M,M,M,M,M,M,M,76.00,KNFL 180456Z 17006KT 10SM SCT070 SCT100 SCT150 24/16 A3005 RMK AO2 SLP143 OCNL LTGICCC DSNT SE TS DSNT SE MOV NE T02440161,M
HND,2023-07-18 04:56,-115.1344,35.9729,742.79,102.00,54.00,20.42,190.00,11.00,0.00,29.92,1010.30,10.00,M,CLR,M,M,M,M,M,M,M,M,M,M,M,M,M,M,100.30,KHND 180456Z AUTO 19011KT 10SM CLR 39/12 A2992 RMK AO2 SLP103 T03890122,M
TPH,2023-07-18 04:56,-117.0904,38.0505,1654.00,83.00,37.00,19.35,10.00,6.00,0.00,30.15,1010.00,10.00,M,CLR,M,M,M,M,M,M,M,M,M,M,M,M,M,M,80.53,KTPH 180456Z AUTO 01006KT 10SM CLR 28/03 A3015 RMK AO2 SLP100 T02830028,M
LAS,2023-07-18 04:56,-115.1634,36.0719,663.00,104.00,52.00,17.87,200.00,11.00,0.00,29.86,1007.40,10.00,16.00,FEW,SCT,SCT,M,12000.00,16000.00,20000.00,M,M,M,M,M,M,M,M,101.76,KLAS 180456Z 20011G16KT 10SM FEW120 SCT160 SCT200 40/11 A2986 RMK AO2 SLP074 T04000111,M
BVU,2023-07-18 05:15,-114.8611,35.9475,671.00,100.40,51.80,19.76,160.00,8.00,0.00,29.88,M,10.00,M,CLR,M,M,M,M,M,M,M,M,M,M,M,M,M,M,97.90,KBVU 180515Z AUTO 16008KT 10SM CLR 38/11 A2988 RMK AO2,M
CXP,2023-07-18 05:15,-119.7326,39.1923,1431.00,82.40,48.20,30.35,250.00,7.00,0.00,30.13,M,10.00,M,CLR,M,M,M,M,M,M,M,M,M,M,M,M,M,M,80.80,KCXP 180515Z AUTO 25007KT 10SM CLR 28/09 A3013 RMK AO2,M
RTS,2023-07-18 05:15,-119.8764,39.6682,1539.00,78.80,41.00,25.95,230.00,8.00,0.00,30.16,M,10.00,M,CLR,M,M,M,M,M,M,M,M,M,M,M,M,M,M,78.80,KRTS 180515Z AUTO 23008KT 10SM CLR 26/05 A3016 RMK AO2,M
05U,2023-07-18 05:15,-116.0051,39.6042,1811.23,71.60,44.60,37.89,M,M,0.00,30.25,M,10.00,M,CLR,M,M,M,M,M,M,M,M,M,M,M,M,M,M,71.60,K05U 180515Z AUTO 10SM CLR 22/07 A3025 RMK A01,M
MEV,2023-07-18 05:15,-119.7500,38.9963,1441.42,71.60,53.60,53.03,100.00,6.00,0.00,30.13,M,10.00,M,CLR,M,M,M,M,M,M,M,M,M,M,M,M,M,M,71.60,KMEV 180515Z AUTO 10006KT 10SM CLR 22/12 A3013 RMK AO2,M
BAM,2023-07-18 05:15,-116.8743,40.5990,1382.36,86.00,44.60,23.59,310.00,8.00,0.00,30.09,M,10.00,M,CLR,M,M,M,M,M,M,M,M,M,M,M,M,M,M,83.07,KBAM 180515Z AUTO 31008KT 10SM CLR 30/07 A3009 RMK AO1,M
HTH,2023-07-18 05:15,-118.6315,38.5448,1282.89,80.60,55.40,41.97,310.00,5.00,0.00,30.08,M,10.00,M,CLR,M,M,M,M,M,M,M,M,M,M,M,M,M,M,80.53,KHTH 180515Z AUTO 31005KT 10SM CLR 27/13 A3008 RMK A01,M
TMT,2023-07-18 05:15,-117.1971,39.4643,1749.34,67.60,51.30,55.87,140.00,6.00,0.00,30.22,M,10.00,M,CLR,M,M,M,M,M,M,M,M,M,M,M,M,M,M,67.60,KTMT 180515Z AUTO 14006KT 10SM CLR 20/11 A3022 RMK AO2 T01980107,M
05U,2023-07-18 05:30,-116.0051,39.6042,1811.23,73.40,44.60,35.66,M,M,0.00,30.25,M,10.00,M,CLR,M,M,M,M,M,M,M,M,M,M,M,M,M,M,73.40,K05U 180530Z AUTO 10SM CLR 23/07 A3025 RMK A01,M
BVU,2023-07-18 05:35,-114.8611,35.9475,671.00,100.40,50.00,18.48,180.00,8.00,0.00,29.88,M,10.00,M,CLR,M,M,M,M,M,M,M,M,M,M,M,M,M,M,97.42,KBVU 180535Z AUTO 18008KT 10SM CLR 38/10 A2988 RMK AO2,M
CXP,2023-07-18 05:35,-119.7326,39.1923,1431.00,82.40,48.20,30.35,M,4.00,0.00,30.13,M,10.00,M,CLR,M,M,M,M,M,M,M,M,M,M,M,M,M,M,80.80,KCXP 180535Z AUTO VRB04KT 10SM CLR 28/09 A3013 RMK AO2,M
RTS,2023-07-18 05:35,-119.8764,39.6682,1539.00,78.80,41.00,25.95,220.00,8.00,0.00,30.17,M,10.00,M,CLR,M,M,M,M,M,M,M,M,M,M,M,M,M,M,78.80,KRTS 180535Z AUTO 22008KT 10SM CLR 26/05 A3017 RMK AO2,M
MEV,2023-07-18 05:35,-119.7500,38.9963,1441.42,71.60,53.60,53.03,80.00,6.00,0.00,30.13,M,10.00,M,CLR,M,M,M,M,M,M,M,M,M,M,M,M,M,M,71.60,KMEV 180535Z AUTO 08006KT 10SM CLR 22/12 A3013 RMK AO2,M
BAM,2023-07-18 05:35,-116.8743,40.5990,1382.36,86.00,44.60,23.59,10.00,3.00,0.00,30.10,M,10.00,M,CLR,M,M,M,M,M,M,M,M,M,M,M,M,M,M,83.07,KBAM 180535Z AUTO 01003KT 10SM CLR 30/07 A3010 RMK AO1,M
HTH,2023-07-18 05:35,-118.6315,38.5448,1282.89,80.60,53.60,39.30,0.00,0.00,0.00,30.08,M,10.00,M,CLR,M,M,M,M,M,M,M,M,M,M,M,M,M,M,80.29,KHTH 180535Z AUTO 00000KT 10SM CLR 27/12 A3008 RMK A01,M
TMT,2023-07-18 05:35,-117.1971,39.4643,1749.34,66.70,50.40,55.74,160.00,6.00,0.00,30.22,M,10.00,M,CLR,M,M,M,M,M,M,M,M,M,M,M,M,M,M,66.70,KTMT 180535Z AUTO 16006KT 10SM CLR 19/10 A3022 RMK AO2 T01930102,M
WMC,2023-07-18 05:37,-117.8072,40.9019,1315.00,M,M,M,M,M,0.00,30.04,M,M,M,M,M,M,M,M,M,M,M,VCTS,M,M,M,M,M,M,M,KWMC 180537Z AUTO VCTS A3004 RMK AO2 LTG DSNT E PWINO FZRANO $,M
WMC,2023-07-18 05:52,-117.8072,40.9019,1315.00,M,M,M,M,M,0.00,30.04,M,M,M,M,M,M,M,M,M,M,M,TS,M,M,M,M,M,M,M,KWMC 180552Z AUTO TS A3004 RMK AO2 LTG DSNT E TSB50 PWINO FZRANO $,M
P68,2023-07-18 05:53,-116.0056,39.6014,1993.00,73.00,44.00,35.32,180.00,6.00,0.00,30.21,1012.70,M,M,M,M,M,M,M,M,M,M,M,M,M,M,M,M,M,73.00,KP68 180553Z AUTO 18006KT 23/07 A3021 RMK AO1 SLP127 T02280067 10328 20217 50004,M
DRA,2023-07-18 05:53,-116.0278,36.6206,1009.00,96.00,50.00,21.13,180.00,11.00,0.00,29.96,1007.70,10.00,17.00,CLR,M,M,M,M,M,M,M,M,M,M,M,M,M,M,92.89,KDRA 180553Z AUTO 18011G17KT 10SM CLR 36/10 A2996 RMK AO2 SLP077 T03560100 10411 20356 51013,M
ELY,2023-07-18 05:53,-114.8453,39.2950,1909.00,M,M,M,M,M,0.00,30.23,M,M,M,M,M,M,M,M,M,M,M,M,M,M,M,M,M,M,M,KELY 180553Z AUTO A3023 RMK AO2 SLPNO 51006 PWINO FZRANO,M
VGT,2023-07-18 05:53,-115.1933,36.2111,667.00,104.00,54.00,19.23,200.00,10.00,0.00,29.86,1008.80,10.00,M,CLR,M,M,M,M,M,M,M,M,M,M,M,M,M,M,102.46,KVGT 180553Z AUTO 20010KT 10SM CLR 40/12 A2986 RMK AO2 SLP088 T04000122 10439 20400 51014,M
LOL,2023-07-18 05:53,-118.5701,40.0684,1192.43,76.00,50.00,40.05,0.00,0.00,0.00,30.03,1012.10,10.00,M,CLR,M,M,M,M,M,M,M,M,M,M,M,M,M,M,76.00,KLOL 180553Z AUTO 00000KT 10SM CLR 24/10 A3003 RMK AO2 SLP121 T02440100 10383 20239 51016,M
BVU,2023-07-18 05:55,-114.8611,35.9475,671.00,98.60,50.00,19.52,210.00,5.00,0.00,29.88,M,10.00,M,CLR,M,M,M,M,M,M,M,M,M,M,M,M,M,M,95.56,KBVU 180555Z AUTO 21005KT 10SM CLR 37/10 A2988 RMK AO2,M
CXP,2023-07-18 05:55,-119.7326,39.1923,1431.00,80.60,50.00,34.41,M,5.00,0.00,30.13,M,10.00,M,CLR,M,M,M,M,M,M,M,M,M,M,M,M,M,M,79.88,KCXP 180555Z AUTO VRB05KT 10SM CLR 27/10 A3013 RMK AO2,M
INS,2023-07-18 05:55,-115.6733,36.5872,955.00,98.20,46.00,17.00,160.00,7.00,0.00,29.93,1007.00,10.00,M,CLR,M,M,M,M,M,M,M,M,M,M,M,M,M,M,94.37,KINS 180555Z AUTO 16007KT 10SM CLR 37/08 A2993 RMK AO2 SLP070 T03680077 10421 20367 50010 $,M
RNO,2023-07-18 05:55,-119.7711,39.4839,1341.00,83.00,46.00,27.39,0.00,0.00,0.00,30.09,1012.40,10.00,M,SCT,M,M,M,14000.00,M,M,M,M,M,M,M,M,M,M,81.00,KRNO 180555Z 00000KT 10SM SCT140 28/08 A3009 RMK AO2 SLP124 T02830078 10372 20283 51015,M
LSV,2023-07-18 05:55,-115.0343,36.2362,570.00,105.80,46.40,13.75,150.00,10.00,0.00,29.81,1006.00,10.00,M,CLR,M,M,M,M,M,M,M,M,M,M,M,M,M,M,101.97,KLSV 180555Z 15010KT 10SM CLR 41/08 A2981 RMK SLP060,M
RTS,2023-07-18 05:55,-119.8764,39.6682,1539.00,78.80,39.20,24.19,230.00,7.00,0.00,30.16,M,10.00,M,CLR,M,M,M,M,M,M,M,M,M,M,M,M,M,M,78.80,KRTS 180555Z AUTO 23007KT 10SM CLR 26/04 A3016 RMK AO2,M
05U,2023-07-18 05:55,-116.0051,39.6042,1811.23,73.40,42.80,33.29,M,M,0.00,30.24,M,10.00,M,CLR,M,M,M,M,M,M,M,M,M,M,M,M,M,M,73.40,K05U 180555Z AUTO 10SM CLR 23/06 A3024 RMK A01,M
MEV,2023-07-18 05:55,-119.7500,38.9963,1441.42,69.80,51.80,52.77,100.00,6.00,0.00,30.13,M,10.00,M,CLR,M,M,M,M,M,M,M,M,M,M,M,M,M,M,69.80,KMEV 180555Z AUTO 10006KT 10SM CLR 21/11 A3013 RMK AO2,M
BAM,2023-07-18 05:55,-116.8743,40.5990,1382.36,84.20,44.60,24.99,350.00,5.00,0.00,30.10,M,10.00,M,CLR,M,M,M,M,M,M,M,M,M,M,M,M,M,M,81.73,KBAM 180555Z AUTO 35005KT 10SM CLR 29/07 A3010 RMK AO1,M
HTH,2023-07-18 05:55,-118.6315,38.5448,1282.89,80.60,55.40,41.97,190.00,4.00,0.00,30.08,M,10.00,M,CLR,M,M,M,M,M,M,M,M,M,M,M,M,M,M,80.53,KHTH 180555Z AUTO 19004KT 10SM CLR 27/13 A3008 RMK A01,M
TMT,2023-07-18 05:55,-117.1971,39.4643,1749.34,67.60,48.70,50.72,170.00,8.00,0.00,30.21,M,10.00,M,CLR,M,M,M,M,M,M,M,M,M,M,M,M,M,M,67.60,KTMT 180555Z AUTO 17008KT 10SM CLR 20/09 A3021 RMK AO2 60004 T01980093 10322 20193,M
EKO,2023-07-18 05:56,-115.7860,40.8242,1367.00,81.00,44.00,27.09,340.00,10.00,0.00,30.13,1012.50,10.00,M,CLR,M,M,M,M,M,M,M,M,M,M,M,M,M,M,79.61,KEKO 180556Z AUTO 34010KT 10SM CLR 27/07 A3013 RMK AO2 SLP125 T02720067 10344 20272 53014,M
WMC,2023-07-18 05:56,-117.8072,40.9019,1315.00,M,M,M,M,M,0.00,30.04,M,M,M,M,M,M,M,M,M,M,M,TS,M,M,M,M,M,M,M,KWMC 180556Z AUTO TS A3004 RMK AO2 LTG DSNT E TSB50 SLPNO 51009 PWINO FZRANO $,M
NFL,2023-07-18 05:56,-118.7010,39.4166,1199.00,75.00,60.00,59.59,200.00,3.00,0.00,30.04,1014.10,10.00,M,FEW,SCT,M,M,7000.00,12000.00,M,M,M,M,M,M,M,M,M,75.00,KNFL 180556Z 20003KT 10SM FEW070 SCT120 24/16 A3004 RMK AO2 SLP141 60011 T02390156 10328 20233 50010,M
HND,2023-07-18 05:56,-115.1344,35.9729,742.79,100.00,54.00,21.68,190.00,12.00,0.00,29.92,1010.40,10.00,M,CLR,M,M,M,M,M,M,M,M,M,M,M,M,M,M,98.14,KHND 180556Z AUTO 19012KT 10SM CLR 38/12 A2992 RMK AO2 SLP104 T03780122 10444 20378 51016,M
TPH,2023-07-18 05:56,-117.0904,38.0505,1654.00,83.00,37.00,19.35,0.00,0.00,0.00,30.15,1010.00,10.00,M,CLR,M,M,M,M,M,M,M,M,M,M,M,M,M,M,80.53,KTPH 180556Z AUTO 00000KT 10SM CLR 28/03 A3015 RMK AO2 SLP100 T02830028 10350 20272 51008,M
LAS,2023-07-18 05:56,-115.1634,36.0719,663.00,102.00,53.00,19.68,210.00,6.00,0.00,29.86,1007.60,10.00,M,FEW,M,M,M,20000.00,M,M,M,M,M,M,M,M,M,M,99.96,KLAS 180556Z 21006KT 10SM FEW200 39/12 A2986 RMK AO2 SLP076 T03890117 10433 20389 51015,M
BVU,2023-07-18 06:15,-114.8611,35.9475,671.00,96.80,50.00,20.62,280.00,4.00,0.00,29.88,M,10.00,M,CLR,M,M,M,M,M,M,M,M,M,M,M,M,M,M,93.71,KBVU 180615Z AUTO 28004KT 10SM CLR 36/10 A2988 RMK AO2,M
CXP,2023-07-18 06:15,-119.7326,39.1923,1431.00,78.80,50.00,36.51,240.00,3.00,0.00,30.14,M,10.00,M,CLR,M,M,M,M,M,M,M,M,M,M,M,M,M,M,78.80,KCXP 180615Z AUTO 24003KT 10SM CLR 26/10 A3014 RMK AO2,M
RTS,2023-07-18 06:15,-119.8764,39.6682,1539.00,75.20,41.00,29.23,230.00,5.00,0.00,30.16,M,10.00,M,CLR,M,M,M,M,M,M,M,M,M,M,M,M,M,M,75.20,KRTS 180615Z AUTO 23005KT 10SM CLR 24/05 A3016 RMK AO2,M
05U,2023-07-18 06:15,-116.0051,39.6042,1811.23,69.80,42.80,37.61,M,M,0.00,30.24,M,10.00,M,CLR,M,M,M,M,M,M,M,M,M,M,M,M,M,M,69.80,K05U 180615Z AUTO 10SM CLR 21/06 A3024 RMK A01,M
MEV,2023-07-18 06:15,-119.7500,38.9963,1441.42,68.00,53.60,59.97,120.00,5.00,0.00,30.12,M,10.00,M,CLR,M,M,M,M,M,M,M,M,M,M,M,M,M,M,68.00,KMEV 180615Z AUTO 12005KT 10SM CLR 20/12 A3012 RMK AO2,M
BAM,2023-07-18 06:15,-116.8743,40.5990,1382.36,82.40,46.40,28.36,340.00,3.00,0.00,30.09,M,10.00,M,CLR,M,M,M,M,M,M,M,M,M,M,M,M,M,M,80.64,KBAM 180615Z AUTO 34003KT 10SM CLR 28/08 A3009 RMK AO1,M
HTH,2023-07-18 06:15,-118.6315,38.5448,1282.89,80.60,53.60,39.30,0.00,0.00,0.00,30.08,M,10.00,M,CLR,M,M,M,M,M,M,M,M,M,M,M,M,M,M,80.29,KHTH 180615Z AUTO 00000KT 10SM CLR 27/12 A3008 RMK A01,M
TMT,2023-07-18 06:15,-117.1971,39.4643,1749.34,69.00,47.30,45.86,220.00,4.00,0.00,30.21,M,10.00,M,CLR,M,M,M,M,M,M,M,M,M,M,M,M,M,M,69.00,KTMT 180615Z AUTO 22004KT 10SM CLR 21/09 A3021 RMK AO2 T02060085,M
WMC,2023-07-18 06:18,-117.8072,40.9019,1315.00,M,M,M,M,M,0.00,30.05,M,M,M,M,M,M,M,M,M,M,M,M,M,M,M,M,M,M,M,KWMC 180618Z AUTO A3005 RMK AO2 LTG DSNT E TSE12 PWINO FZRANO $,M
BVU,2023-07-18 06:35,-114.8611,35.9475,671.00,96.80,51.80,22.04,0.00,0.00,0.00,29.88,M,10.00,M,CLR,M,M,M,M,M,M,M,M,M,M,M,M,M,M,94.12,KBVU 180635Z AUTO 00000KT 10SM CLR 36/11 A2988 RMK AO2,M
CXP,2023-07-18 06:35,-119.7326,39.1923,1431.00,78.80,50.00,36.51,230.00,3.00,0.00,30.14,M,10.00,M,CLR,M,M,M,M,M,M,M,M,M,M,M,M,M,M,78.80,KCXP 180635Z AUTO 23003KT 10SM CLR 26/10 A3014 RMK AO2,M
RTS,2023-07-18 06:35,-119.8764,39.6682,1539.00,73.40,41.00,31.05,290.00,7.00,0.00,30.16,M,10.00,M,CLR,M,M,M,M,M,M,M,M,M,M,M,M,M,M,73.40,KRTS 180635Z AUTO 29007KT 10SM CLR 23/05 A3016 RMK AO2,M
05U,2023-07-18 06:35,-116.0051,39.6042,1811.23,71.60,42.80,35.37,M,M,0.00,30.24,M,10.00,M,CLR,M,M,M,M,M,M,M,M,M,M,M,M,M,M,71.60,K05U 180635Z AUTO 10SM CLR 22/06 A3024 RMK A01,M
MEV,2023-07-18 06:35,-119.7500,38.9963,1441.42,66.20,51.80,59.74,120.00,9.00,0.00,30.13,M,10.00,M,CLR,M,M,M,M,M,M,M,M,M,M,M,M,M,M,66.20,KMEV 180635Z AUTO 12009KT 10SM CLR 19/11 A3013 RMK AO2,M
BAM,2023-07-18 06:35,-116.8743,40.5990,1382.36,82.40,44.60,26.49,180.00,4.00,0.00,30.09,M,10.00,M,CLR,M,M,M,M,M,M,M,M,M,M,M,M,M,M,80.50,KBAM 180635Z AUTO 18004KT 10SM CLR 28/07 A3009 RMK AO1,M
HTH,2023-07-18 06:35,-118.6315,38.5448,1282.89,78.80,53.60,41.69,0.00,0.00,0.00,30.08,M,10.00,M,CLR,M,M,M,M,M,M,M,M,M,M,M,M,M,M,78.80,KHTH 180635Z AUTO 00000KT 10SM CLR 26/12 A3008 RMK A01,M
TMT,2023-07-18 06:35,-117.1971,39.4643,1749.34,69.60,47.50,45.27,240.00,7.00,0.00,30.22,M,10.00,M,CLR,M,M,M,M,M,M,M,M,M,M,M,M,M,M,69.60,KTMT 180635Z AUTO 24007KT 10SM CLR 21/09 A3022 RMK AO2 T02090086,M
P68,2023-07-18 06:53,-116.0056,39.6014,1993.00,70.00,44.00,39.11,0.00,0.00,0.00,30.21,1012.70,M,M,M,M,M,M,M,M,M,M,M,M,M,M,M,M,M,70.00,KP68 180653Z AUTO 00000KT 21/07 A3021 RMK AO1 SLP127 T02110067,M
DRA,2023-07-18 06:53,-116.0278,36.6206,1009.00,95.00,49.00,21.00,180.00,12.00,0.00,29.96,1008.00,10.00,M,CLR,M,M,M,M,M,M,M,M,M,M,M,M,M,M,91.70,KDRA 180653Z AUTO 18012KT 10SM CLR 35/09 A2996 RMK AO2 SLP080 T03500094,M
ELY,2023-07-18 06:53,-114.8453,39.2950,1909.00,M,M,M,M,M,0.00,30.24,M,M,M,M,M,M,M,M,M,M,M,M,M,M,M,M,M,M,M,KELY 180653Z AUTO A3024 RMK AO2 SLPNO PWINO FZRANO,M
VGT,2023-07-18 06:53,-115.1933,36.2111,667.00,102.00,55.00,21.17,170.00,13.00,0.00,29.87,1009.30,10.00,M,CLR,M,M,M,M,M,M,M,M,M,M,M,M,M,M,100.66,KVGT 180653Z AUTO 17013KT 10SM CLR 39/13 A2987 RMK AO2 SLP093 T03890128,M
LOL,2023-07-18 06:53,-118.5701,40.0684,1192.43,73.00,49.00,42.67,0.00,0.00,0.00,30.03,1012.10,10.00,M,CLR,M,M,M,M,M,M,M,M,M,M,M,M,M,M,73.00,KLOL 180653Z AUTO 00000KT 10SM CLR 23/09 A3003 RMK AO2 SLP121 T02280094,M
BVU,2023-07-18 06:55,-114.8611,35.9475,671.00,96.80,51.80,22.04,230.00,5.00,0.00,29.88,M,10.00,M,CLR,M,M,M,M,M,M,M,M,M,M,M,M,M,M,94.12,KBVU 180655Z AUTO 23005KT 10SM CLR 36/11 A2988 RMK AO2,M
CXP,2023-07-18 06:55,-119.7326,39.1923,1431.00,77.00,50.00,38.74,210.00,5.00,0.00,30.14,M,10.00,M,CLR,M,M,M,M,M,M,M,M,M,M,M,M,M,M,77.00,KCXP 180655Z AUTO 21005KT 10SM CLR 25/10 A3014 RMK AO2,M
INS,2023-07-18 06:55,-115.6733,36.5872,955.00,97.30,46.80,18.01,170.00,10.00,0.00,29.93,1007.00,10.00,M,CLR,M,M,M,M,M,M,M,M,M,M,M,M,M,M,93.61,KINS 180655Z AUTO 17010KT 10SM CLR 36/08 A2993 RMK AO2 SLP070 T03630082 $,M
RNO,2023-07-18 06:55,-119.7711,39.4839,1341.00,81.00,45.00,28.15,340.00,6.00,0.00,30.10,1012.50,10.00,M,FEW,M,M,M,14000.00,M,M,M,M,M,M,M,M,M,M,79.68,KRNO 180655Z 34006KT 10SM FEW140 27/07 A3010 RMK AO2 SLP125 T02720072,M
RTS,2023-07-18 06:55,-119.8764,39.6682,1539.00,73.40,39.20,28.96,290.00,8.00,0.00,30.16,M,10.00,M,CLR,M,M,M,M,M,M,M,M,M,M,M,M,M,M,73.40,KRTS 180655Z AUTO 29008KT 10SM CLR 23/04 A3016 RMK AO2,M
05U,2023-07-18 06:55,-116.0051,39.6042,1811.23,69.80,42.80,37.61,M,M,0.00,30.24,M,10.00,M,CLR,M,M,M,M,M,M,M,M,M,M,M,M,M,M,69.80,K05U 180655Z AUTO 10SM CLR 21/06 A3024 RMK A01,M
MEV,2023-07-18 06:55,-119.7500,38.9963,1441.42,66.20,51.80,59.74,110.00,8.00,0.00,30.13,M,10.00,M,CLR,M,M,M,M,M,M,M,M,M,M,M,M,M,M,66.20,KMEV 180655Z AUTO 11008KT 10SM CLR 19/11 A3013 RMK AO2,M
BAM,2023-07-18 06:55,-116.8743,40.5990,1382.36,80.60,44.60,28.08,220.00,8.00,0.00,30.08,M,10.00,M,CLR,M,M,M,M,M,M,M,M,M,M,M,M,M,M,79.42,KBAM 180655Z AUTO 22008KT 10SM CLR 27/07 A3008 RMK AO1,M
HTH,2023-07-18 06:55,-118.6315,38.5448,1282.89,77.00,51.80,41.42,140.00,5.00,0.00,30.08,M,10.00,M,CLR,M,M,M,M,M,M,M,M,M,M,M,M,M,M,77.00,KHTH 180655Z AUTO 14005KT 10SM CLR 25/11 A3008 RMK A01,M
TMT,2023-07-18 06:55,-117.1971,39.4643,1749.34,69.80,48.20,46.16,210.00,6.00,0.00,30.22,M,10.00,M,CLR,M,M,M,M,M,M,M,M,M,M,M,M,M,M,69.80,KTMT 180655Z AUTO 21006KT 10SM CLR 21/09 A3022 RMK AO2 T02100090,M
LSV,2023-07-18 06:55,-115.0343,36.2362,570.00,101.00,55.00,21.82,150.00,3.00,0.00,29.87,1004.60,10.00,M,CLR,M,M,M,M,M,M,M,M,M,M,M,M,M,M,99.57,KLSV 180655Z 15003KT 10SM CLR 38/13 A2987 RMK AO2A SLP046 WND DATA ESTMD ALTSG ESTMD T03840127,M
EKO,2023-07-18 06:56,-115.7860,40.8242,1367.00,79.00,45.00,30.05,180.00,5.00,0.00,30.13,1013.00,10.00,M,CLR,M,M,M,M,M,M,M,M,M,M,M,M,M,M,79.00,KEKO 180656Z AUTO 18005KT 10SM CLR 26/07 A3013 RMK AO2 SLP130 T02610072,M
WMC,2023-07-18 06:56,-117.8072,40.9019,1315.00,M,M,M,M,M,0.00,30.05,M,M,M,M,M,M,M,M,M,M,M,M,M,M,M,M,M,M,M,KWMC 180656Z AUTO A3005 RMK AO2 TSE12 SLPNO PWINO FZRANO $,M
NFL,2023-07-18 06:56,-118.7010,39.4166,1199.00,72.00,63.00,73.31,170.00,7.00,0.00,30.04,1014.20,10.00,M,FEW,SCT,M,M,7000.00,12000.00,M,M,M,M,M,M,M,M,M,72.00,KNFL 180656Z 17007KT 10SM FEW070 SCT120 22/17 A3004 RMK AO2 SLP142 T02220172,M
HND,2023-07-18 06:56,-115.1344,35.9729,742.79,98.00,55.00,23.89,200.00,12.00,0.00,29.93,1010.70,10.00,M,CLR,M,M,M,M,M,M,M,M,M,M,M,M,M,M,96.31,KHND 180656Z AUTO 20012KT 10SM CLR 37/13 A2993 RMK AO2 SLP107 T03670128 404500322,M
TPH,2023-07-18 06:56,-117.0904,38.0505,1654.00,84.00,39.00,20.27,20.00,8.00,0.00,30.15,1010.00,10.00,M,SCT,M,M,M,12000.00,M,M,M,M,M,M,M,M,M,M,81.29,KTPH 180656Z AUTO 02008KT 10SM SCT120 29/04 A3015 RMK AO2 SLP100 T02890039,M
LAS,2023-07-18 06:56,-115.1634,36.0719,663.00,101.00,54.00,21.04,190.00,15.00,0.00,29.87,1007.70,10.00,25.00,FEW,M,M,M,20000.00,M,M,M,M,M,M,M,M,M,M,99.22,KLAS 180656Z 19015G25KT 10SM FEW200 38/12 A2987 RMK AO2 SLP077 T03830122,M
BVU,2023-07-18 07:15,-114.8611,35.9475,671.00,98.60,51.80,20.87,210.00,5.00,0.00,29.89,M,10.00,M,CLR,M,M,M,M,M,M,M,M,M,M,M,M,M,M,96.00,KBVU 180715Z AUTO 21005KT 10SM CLR 37/11 A2989 RMK AO2,M
CXP,2023-07-18 07:15,-119.7326,39.1923,1431.00,78.80,50.00,36.51,210.00,4.00,0.00,30.14,M,10.00,M,CLR,M,M,M,M,M,M,M,M,M,M,M,M,M,M,78.80,KCXP 180715Z AUTO 21004KT 10SM CLR 26/10 A3014 RMK AO2,M
RTS,2023-07-18 07:15,-119.8764,39.6682,1539.00,71.60,41.00,33.00,300.00,9.00,0.00,30.16,M,10.00,M,CLR,M,M,M,M,M,M,M,M,M,M,M,M,M,M,71.60,KRTS 180715Z AUTO 30009KT 10SM CLR 22/05 A3016 RMK AO2,M
05U,2023-07-18 07:15,-116.0051,39.6042,1811.23,71.60,42.80,35.37,M,M,0.00,30.23,M,10.00,M,CLR,M,M,M,M,M,M,M,M,M,M,M,M,M,M,71.60,K05U 180715Z AUTO 10SM CLR 22/06 A3023 RMK A01,M
MEV,2023-07-18 07:15,-119.7500,38.9963,1441.42,66.20,51.80,59.74,120.00,7.00,0.00,30.12,M,10.00,M,CLR,M,M,M,M,M,M,M,M,M,M,M,M,M,M,66.20,KMEV 180715Z AUTO 12007KT 10SM CLR 19/11 A3012 RMK AO2,M
BAM,2023-07-18 07:15,-116.8743,40.5990,1382.36,82.40,44.60,26.49,220.00,10.00,0.00,30.08,M,10.00,M,CLR,M,M,M,M,M,M,M,M,M,M,M,M,M,M,80.50,KBAM 180715Z AUTO 22010KT 10SM CLR 28/07 A3008 RMK AO1,M
HTH,2023-07-18 07:15,-118.6315,38.5448,1282.89,77.00,50.00,38.74,0.00,0.00,0.00,30.08,M,10.00,M,CLR,M,M,M,M,M,M,M,M,M,M,M,M,M,M,77.00,KHTH 180715Z AUTO 00000KT 10SM CLR 25/10 A3008 RMK A01,M
TMT,2023-07-18 07:15,-117.1971,39.4643,1749.34,66.70,49.60,54.11,160.00,8.00,0.00,30.21,M,10.00,M,CLR,M,M,M,M,M,M,M,M,M,M,M,M,M,M,66.70,KTMT 180715Z AUTO 16008KT 10SM CLR 19/10 A3021 RMK AO2 T01930098,M
BVU,2023-07-18 07:35,-114.8611,35.9475,671.00,93.20,55.40,28.10,0.00,0.00,0.00,29.89,M,10.00,M,CLR,M,M,M,M,M,M,M,M,M,M,M,M,M,M,91.35,KBVU 180735Z AUTO 00000KT 10SM CLR 34/13 A2989 RMK AO2,M
CXP,2023-07-18 07:35,-119.7326,39.1923,1431.00,73.40,50.00,43.69,0.00,0.00,0.00,30.14,M,10.00,M,CLR,M,M,M,M,M,M,M,M,M,M,M,M,M,M,73.40,KCXP 180735Z AUTO 00000KT 10SM CLR 23/10 A3014 RMK AO2,M
RTS,2023-07-18 07:35,-119.8764,39.6682,1539.00,71.60,41.00,33.00,310.00,9.00,0.00,30.16,M,10.00,M,CLR,M,M,M,M,M,M,M,M,M,M,M,M,M,M,71.60,KRTS 180735Z AUTO 31009KT 10SM CLR 22/05 A3016 RMK AO2,M
05U,2023-07-18 07:35,-116.0051,39.6042,1811.23,71.60,42.80,35.37,M,M,0.00,30.23,M,10.00,M,BKN,M,M,M,12000.00,M,M,M,M,M,M,M,M,M,M,71.60,K05U 180735Z AUTO 10SM BKN120 22/06 A3023 RMK A01,M
MEV,2023-07-18 07:35,-119.7500,38.9963,1441.42,66.20,51.80,59.74,M,3.00,0.00,30.13,M,10.00,M,CLR,M,M,M,M,M,M,M,M,M,M,M,M,M,M,66.20,KMEV 180735Z AUTO VRB03KT 10SM CLR 19/11 A3013 RMK AO2,M
BAM,2023-07-18 07:35,-116.8743,40.5990,1382.36,78.80,42.80,27.81,200.00,3.00,0.00,30.08,M,10.00,M,CLR,M,M,M,M,M,M,M,M,M,M,M,M,M,M,78.80,KBAM 180735Z AUTO 20003KT 10SM CLR 26/06 A3008 RMK AO1,M
HTH,2023-07-18 07:35,-118.6315,38.5448,1282.89,77.00,51.80,41.42,0.00,0.00,0.00,30.08,M,10.00,M,CLR,M,M,M,M,M,M,M,M,M,M,M,M,M,M,77.00,KHTH 180735Z AUTO 00000KT 10SM CLR 25/11 A3008 RMK A01,M
TMT,2023-07-18 07:35,-117.1971,39.4643,1749.34,69.00,46.40,44.33,180.00,9.00,0.00,30.20,M,10.00,M,CLR,M,M,M,M,M,M,M,M,M,M,M,M,M,M,69.00,KTMT 180735Z AUTO 18009KT 10SM CLR 21/08 A3020 RMK AO2 T02050080,M
P68,2023-07-18 07:53,-116.0056,39.6014,1993.00,70.00,46.00,42.20,160.00,4.00,0.00,30.21,1012.50,M,M,M,M,M,M,M,M,M,M,M,M,M,M,M,M,M,70.00,KP68 180753Z AUTO 16004KT 21/08 A3021 RMK AO1 SLP125 T02110078 403610117,M
DRA,2023-07-18 07:53,-116.0278,36.6206,1009.00,93.00,49.00,22.34,220.00,10.00,0.00,29.96,1007.90,10.00,M,CLR,M,M,M,M,M,M,M,M,M,M,M,M,M,M,89.73,KDRA 180753Z AUTO 22010KT 10SM CLR 34/09 A2996 RMK AO2 SLP079 T03390094 404330267,M
ELY,2023-07-18 07:53,-114.8453,39.2950,1909.00,M,M,M,M,M,0.00,30.24,M,M,M,M,M,M,M,M,M,M,M,M,M,M,M,M,M,M,M,KELY 180753Z AUTO A3024 RMK AO2 SLPNO PWINO FZRANO,M
VGT,2023-07-18 07:53,-115.1933,36.2111,667.00,100.00,54.00,21.68,200.00,6.00,0.00,29.87,1009.50,10.00,M,CLR,M,M,M,M,M,M,M,M,M,M,M,M,M,M,98.14,KVGT 180753Z AUTO 20006KT 10SM CLR 38/12 A2987 RMK AO2 SLP095 T03780122 404670317,M
LOL,2023-07-18 07:53,-118.5701,40.0684,1192.43,69.00,49.00,48.88,60.00,5.00,0.00,30.03,1012.10,10.00,M,CLR,M,M,M,M,M,M,M,M,M,M,M,M,M,M,69.00,KLOL 180753Z AUTO 06005KT 10SM CLR 21/09 A3003 RMK AO2 SLP121 T02060094 403830206,M
BVU,2023-07-18 07:55,-114.8611,35.9475,671.00,95.00,53.60,24.89,0.00,0.00,0.00,29.89,M,10.00,M,CLR,M,M,M,M,M,M,M,M,M,M,M,M,M,M,92.71,KBVU 180755Z AUTO 00000KT 10SM CLR 35/12 A2989 RMK AO2,M
CXP,2023-07-18 07:55,-119.7326,39.1923,1431.00,73.40,50.00,43.69,0.00,0.00,0.00,30.14,M,10.00,M,CLR,M,M,M,M,M,M,M,M,M,M,M,M,M,M,73.40,KCXP 180755Z AUTO 00000KT 10SM CLR 23/10 A3014 RMK AO2,M
INS,2023-07-18 07:55,-115.6733,36.5872,955.00,94.00,48.00,20.86,80.00,8.00,0.00,29.94,1007.50,10.00,M,CLR,M,M,M,M,M,M,M,M,M,M,M,M,M,M,90.55,KINS 180755Z AUTO 08008KT 10SM CLR 34/09 A2994 RMK AO2 SLP075 T03440089 404340259 $,M
RNO,2023-07-18 07:55,-119.7711,39.4839,1341.00,78.00,47.00,33.50,220.00,3.00,0.00,30.10,1012.50,10.00,M,FEW,M,M,M,14000.00,M,M,M,M,M,M,M,M,M,M,78.00,KRNO 180755Z 22003KT 10SM FEW140 26/08 A3010 RMK AO2 SLP125 T02560083 403830250,M
RTS,2023-07-18 07:55,-119.8764,39.6682,1539.00,69.80,41.00,35.09,0.00,0.00,0.00,30.16,M,10.00,M,CLR,M,M,M,M,M,M,M,M,M,M,M,M,M,M,69.80,KRTS 180755Z AUTO 00000KT 10SM CLR 21/05 A3016 RMK AO2,M
05U,2023-07-18 07:55,-116.0051,39.6042,1811.23,69.80,44.60,40.29,M,M,0.00,30.23,M,10.00,M,SCT,M,M,M,12000.00,M,M,M,M,M,M,M,M,M,M,69.80,K05U 180755Z AUTO 10SM SCT120 21/07 A3023 RMK A01,M
MEV,2023-07-18 07:55,-119.7500,38.9963,1441.42,68.00,51.80,56.13,0.00,0.00,0.00,30.13,M,10.00,M,CLR,M,M,M,M,M,M,M,M,M,M,M,M,M,M,68.00,KMEV 180755Z AUTO 00000KT 10SM CLR 20/11 A3013 RMK AO2,M
BAM,2023-07-18 07:55,-116.8743,40.5990,1382.36,80.60,44.60,28.08,0.00,0.00,0.00,30.08,M,10.00,M,CLR,M,M,M,M,M,M,M,M,M,M,M,M,M,M,79.42,KBAM 180755Z AUTO 00000KT 10SM CLR 27/07 A3008 RMK AO1,M
HTH,2023-07-18 07:55,-118.6315,38.5448,1282.89,77.00,50.00,38.74,0.00,0.00,0.00,30.08,M,10.00,M,CLR,M,M,M,M,M,M,M,M,M,M,M,M,M,M,77.00,KHTH 180755Z AUTO 00000KT 10SM CLR 25/10 A3008 RMK A01,M
LSV,2023-07-18 07:55,-115.0343,36.2362,570.00,97.00,54.30,24.01,130.00,10.00,0.00,29.83,1006.70,10.00,M,CLR,M,M,M,M,M,M,M,M,M,M,M,M,M,M,95.01,KLSV 180755Z 13010KT 10SM CLR 36/12 A2983 RMK SLP067 WND DATA ESTMD ALTSG ESTMD T03620124 $,M
TMT,2023-07-18 07:55,-117.1971,39.4643,1749.34,71.00,46.00,40.78,190.00,8.00,0.00,30.20,M,10.00,M,CLR,M,M,M,M,M,M,M,M,M,M,M,M,M,M,71.00,KTMT 180755Z AUTO 19008KT 10SM CLR 22/08 A3020 RMK AO2 T02160077 403560087,M
EKO,2023-07-18 07:56,-115.7860,40.8242,1367.00,74.00,47.00,38.27,0.00,0.00,0.00,30.12,1012.90,10.00,M,CLR,M,M,M,M,M,M,M,M,M,M,M,M,M,M,74.00,KEKO 180756Z AUTO 00000KT 10SM CLR 23/08 A3012 RMK AO2 SLP129 T02330083 403440122,M
WMC,2023-07-18 07:56,-117.8072,40.9019,1315.00,M,M,M,M,M,0.00,30.06,M,M,M,M,M,M,M,M,M,M,M,M,M,M,M,M,M,M,M,KWMC 180756Z AUTO A3006 RMK AO2 SLPNO PWINO FZRANO $,M
NFL,2023-07-18 07:56,-118.7010,39.4166,1199.00,72.00,65.00,78.62,150.00,6.00,0.00,30.05,1014.30,10.00,M,CLR,M,M,M,M,M,M,M,M,M,M,M,M,M,M,72.00,KNFL 180756Z AUTO 15006KT 10SM CLR 22/18 A3005 RMK AO2 SLP143 T02220183 403890217,M
HND,2023-07-18 07:56,-115.1344,35.9729,742.79,98.00,55.00,23.89,210.00,14.00,0.00,29.93,1010.70,10.00,M,CLR,M,M,M,M,M,M,M,M,M,M,M,M,M,M,96.31,KHND 180756Z AUTO 21014KT 10SM CLR 37/13 A2993 RMK AO2 SLP107 T03670128,M
TPH,2023-07-18 07:56,-117.0904,38.0505,1654.00,80.00,39.00,23.08,10.00,4.00,0.00,30.15,1010.00,10.00,M,FEW,M,M,M,12000.00,M,M,M,M,M,M,M,M,M,M,78.78,KTPH 180756Z AUTO 01004KT 10SM FEW120 27/04 A3015 RMK AO2 SLP100 T02670039 403780194,M
LAS,2023-07-18 07:56,-115.1634,36.0719,663.00,99.00,53.00,21.54,200.00,9.00,0.00,29.88,1008.10,10.00,M,FEW,M,M,M,20000.00,M,M,M,M,M,M,M,M,M,M,96.76,KLAS 180756Z 20009KT 10SM FEW200 37/12 A2988 RMK AO2 SLP081 T03720117 404560333,M
BVU,2023-07-18 08:15,-114.8611,35.9475,671.00,96.80,51.80,22.04,190.00,4.00,0.00,29.90,M,10.00,M,CLR,M,M,M,M,M,M,M,M,M,M,M,M,M,M,94.12,KBVU 180815Z AUTO 19004KT 10SM CLR 36/11 A2990 RMK AO2,M
CXP,2023-07-18 08:15,-119.7326,39.1923,1431.00,71.60,50.00,46.43,0.00,0.00,0.00,30.14,M,10.00,M,FEW,M,M,M,12000.00,M,M,M,M,M,M,M,M,M,M,71.60,KCXP 180815Z AUTO 00000KT 10SM FEW120 22/10 A3014 RMK AO2,M
RTS,2023-07-18 08:15,-119.8764,39.6682,1539.00,69.80,41.00,35.09,330.00,8.00,0.00,30.15,M,10.00,M,CLR,M,M,M,M,M,M,M,M,M,M,M,M,M,M,69.80,KRTS 180815Z AUTO 33008KT 10SM CLR 21/05 A3015 RMK AO2,M
05U,2023-07-18 08:15,-116.0051,39.6042,1811.23,71.60,42.80,35.37,M,M,0.00,30.23,M,10.00,M,FEW,M,M,M,12000.00,M,M,M,M,M,M,M,M,M,M,71.60,K05U 180815Z AUTO 10SM FEW120 22/06 A3023 RMK A01,M
MEV,2023-07-18 08:15,-119.7500,38.9963,1441.42,66.20,51.80,59.74,0.00,0.00,0.00,30.13,M,10.00,M,CLR,M,M,M,M,M,M,M,M,M,M,M,M,M,M,66.20,KMEV 180815Z AUTO 00000KT 10SM CLR 19/11 A3013 RMK AO2,M
BAM,2023-07-18 08:15,-116.8743,40.5990,1382.36,77.00,44.60,31.62,140.00,3.00,0.00,30.08,M,10.00,M,CLR,M,M,M,M,M,M,M,M,M,M,M,M,M,M,77.00,KBAM 180815Z AUTO 14003KT 10SM CLR 25/07 A3008 RMK AO1,M
HTH,2023-07-18 08:15,-118.6315,38.5448,1282.89,78.80,51.80,39.02,280.00,5.00,0.00,30.09,M,10.00,M,FEW,M,M,M,12000.00,M,M,M,M,M,M,M,M,M,M,78.80,KHTH 180815Z AUTO 28005KT 10SM FEW120 26/11 A3009 RMK A01,M
TMT,2023-07-18 08:15,-117.1971,39.4643,1749.34,69.80,46.60,43.46,220.00,7.00,0.00,30.20,M,10.00,M,CLR,M,M,M,M,M,M,M,M,M,M,M,M,M,M,69.80,KTMT 180815Z AUTO 22007KT 10SM CLR 21/08 A3020 RMK AO2 T02100081,M
BVU,2023-07-18 08:35,-114.8611,35.9475,671.00,95.00,51.80,23.30,190.00,4.00,0.00,29.90,M,10.00,M,CLR,M,M,M,M,M,M,M,M,M,M,M,M,M,M,92.26,KBVU 180835Z AUTO 19004KT 10SM CLR 35/11 A2990 RMK AO2,M
CXP,2023-07-18 08:35,-119.7326,39.1923,1431.00,71.60,50.00,46.43,0.00,0.00,0.00,30.13,M,10.00,M,FEW,M,M,M,12000.00,M,M,M,M,M,M,M,M,M,M,71.60,KCXP 180835Z AUTO 00000KT 10SM FEW120 22/10 A3013 RMK AO2,M
RTS,2023-07-18 08:35,-119.8764,39.6682,1539.00,68.00,41.00,37.32,330.00,5.00,0.00,30.15,M,10.00,M,CLR,M,M,M,M,M,M,M,M,M,M,M,M,M,M,68.00,KRTS 180835Z AUTO 33005KT 10SM CLR 20/05 A3015 RMK AO2,M
05U,2023-07-18 08:35,-116.0051,39.6042,1811.23,71.60,42.80,35.37,M,M,0.00,30.22,M,10.00,M,SCT,M,M,M,11000.00,M,M,M,M,M,M,M,M,M,M,71.60,K05U 180835Z AUTO 10SM SCT110 22/06 A3022 RMK A01,M
MEV,2023-07-18 08:35,-119.7500,38.9963,1441.42,66.20,51.80,59.74,110.00,4.00,0.00,30.12,M,10.00,M,CLR,M,M,M,M,M,M,M,M,M,M,M,M,M,M,66.20,KMEV 180835Z AUTO 11004KT 10SM CLR 19/11 A3012 RMK AO2,M
BAM,2023-07-18 08:35,-116.8743,40.5990,1382.36,73.40,44.60,35.66,180.00,3.00,0.00,30.08,M,10.00,M,CLR,M,M,M,M,M,M,M,M,M,M,M,M,M,M,73.40,KBAM 180835Z AUTO 18003KT 10SM CLR 23/07 A3008 RMK AO1,M
HTH,2023-07-18 08:35,-118.6315,38.5448,1282.89,75.20,51.80,43.97,0.00,0.00,0.00,30.07,M,10.00,M,CLR,M,M,M,M,M,M,M,M,M,M,M,M,M,M,75.20,KHTH 180835Z AUTO 00000KT 10SM CLR 24/11 A3007 RMK A01,M
TMT,2023-07-18 08:35,-117.1971,39.4643,1749.34,68.00,46.20,45.54,260.00,7.00,0.00,30.20,M,10.00,M,CLR,M,M,M,M,M,M,M,M,M,M,M,M,M,M,68.00,KTMT 180835Z AUTO 26007KT 10SM CLR 20/08 A3020 RMK AO2 T02000079,M
P68,2023-07-18 08:53,-116.0056,39.6014,1993.00,70.00,43.00,37.64,0.00,0.00,0.00,30.20,1011.90,M,M,M,M,M,M,M,M,M,M,M,M,M,M,M,M,M,70.00,KP68 180853Z AUTO 00000KT 21/06 A3020 RMK AO1 SLP119 T02110061 58004,M
DRA,2023-07-18 08:53,-116.0278,36.6206,1009.00,93.00,50.00,23.18,230.00,11.00,0.00,29.96,1007.90,10.00,M,CLR,M,M,M,M,M,M,M,M,M,M,M,M,M,M,89.90,KDRA 180853Z AUTO 23011KT 10SM CLR 34/10 A2996 RMK AO2 SLP079 T03390100 51001,M
ELY,2023-07-18 08:53,-114.8453,39.2950,1909.00,M,M,M,M,M,0.00,30.22,M,M,M,M,M,M,M,M,M,M,M,M,M,M,M,M,M,M,M,KELY 180853Z AUTO A3022 RMK AO2 SLPNO 58003 PWINO FZRANO,M
VGT,2023-07-18 08:53,-115.1933,36.2111,667.00,99.00,54.00,22.35,170.00,7.00,0.00,29.88,1009.70,10.00,M,CLR,M,M,M,M,M,M,M,M,M,M,M,M,M,M,97.06,KVGT 180853Z AUTO 17007KT 10SM CLR 37/12 A2988 RMK AO2 SLP097 T03720122 51007,M
LOL,2023-07-18 08:53,-118.5701,40.0684,1192.43,68.00,49.00,50.59,M,5.00,0.00,30.03,1012.10,10.00,M,FEW,M,M,M,12000.00,M,M,M,M,M,M,M,M,M,M,68.00,KLOL 180853Z AUTO VRB05KT 10SM FEW120 20/09 A3003 RMK AO2 SLP121 T02000094 55000,M
BVU,2023-07-18 08:55,-114.8611,35.9475,671.00,96.80,53.60,23.55,150.00,4.00,0.00,29.89,M,10.00,M,CLR,M,M,M,M,M,M,M,M,M,M,M,M,M,M,94.59,KBVU 180855Z AUTO 15004KT 10SM CLR 36/12 A2989 RMK AO2,M
CXP,2023-07-18 08:55,-119.7326,39.1923,1431.00,69.80,50.00,49.37,0.00,0.00,0.00,30.13,M,10.00,M,CLR,M,M,M,M,M,M,M,M,M,M,M,M,M,M,69.80,KCXP 180855Z AUTO 00000KT 10SM CLR 21/10 A3013 RMK AO2,M
INS,2023-07-18 08:55,-115.6733,36.5872,955.00,90.50,47.70,23.00,0.00,0.00,0.00,29.94,1007.50,10.00,M,CLR,M,M,M,M,M,M,M,M,M,M,M,M,M,M,87.19,KINS 180855Z AUTO 00000KT 10SM CLR 33/09 A2994 RMK AO2 SLP075 T03250087 51004 $,M
RNO,2023-07-18 08:55,-119.7711,39.4839,1341.00,76.00,48.00,37.17,0.00,0.00,0.00,30.10,1012.30,10.00,M,FEW,M,M,M,14000.00,M,M,M,M,M,M,M,M,M,M,76.00,KRNO 180855Z 00000KT 10SM FEW140 24/09 A3010 RMK AO2 SLP123 T02440089 50001,M
RTS,2023-07-18 08:55,-119.8764,39.6682,1539.00,69.80,41.00,35.09,340.00,3.00,0.00,30.16,M,10.00,M,CLR,M,M,M,M,M,M,M,M,M,M,M,M,M,M,69.80,KRTS 180855Z AUTO 34003KT 10SM CLR 21/05 A3016 RMK AO2,M
05U,2023-07-18 08:55,-116.0051,39.6042,1811.23,69.80,42.80,37.61,M,M,0.00,30.22,M,10.00,M,FEW,M,M,M,11000.00,M,M,M,M,M,M,M,M,M,M,69.80,K05U 180855Z AUTO 10SM FEW110 21/06 A3022 RMK A01,M
MEV,2023-07-18 08:55,-119.7500,38.9963,1441.42,64.40,51.80,63.60,260.00,4.00,0.00,30.12,M,10.00,M,CLR,M,M,M,M,M,M,M,M,M,M,M,M,M,M,64.40,KMEV 180855Z AUTO 26004KT 10SM CLR 18/11 A3012 RMK AO2,M
BAM,2023-07-18 08:55,-116.8743,40.5990,1382.36,73.40,42.80,33.29,190.00,5.00,0.00,30.08,M,10.00,M,CLR,M,M,M,M,M,M,M,M,M,M,M,M,M,M,73.40,KBAM 180855Z AUTO 19005KT 10SM CLR 23/06 A3008 RMK AO1,M
HTH,2023-07-18 08:55,-118.6315,38.5448,1282.89,75.20,51.80,43.97,360.00,5.00,0.00,30.07,M,10.00,M,FEW,FEW,SCT,M,4900.00,7000.00,8500.00,M,M,M,M,M,M,M,M,75.20,KHTH 180855Z AUTO 36005KT 10SM FEW049 FEW070 SCT085 24/11 A3007 RMK A01,M
TMT,2023-07-18 08:55,-117.1971,39.4643,1749.34,69.00,45.00,42.04,260.00,4.00,0.00,30.20,M,10.00,M,CLR,M,M,M,M,M,M,M,M,M,M,M,M,M,M,69.00,KTMT 180855Z AUTO 26004KT 10SM CLR 21/07 A3020 RMK AO2 T02060073,M
LSV,2023-07-18 08:55,-115.0343,36.2362,570.00,98.20,55.00,23.75,150.00,6.00,0.00,29.83,1005.10,10.00,M,CLR,M,M,M,M,M,M,M,M,M,M,M,M,M,M,96.52,KLSV 180855Z COR 15006KT 10SM CLR 37/13 A2983 RMK A02A SLP051 WND DATA ESTMD ALTSG ESTMD T03680127 52008 COR 0859,M
EKO,2023-07-18 08:56,-115.7860,40.8242,1367.00,69.00,46.00,43.67,0.00,0.00,0.00,30.12,1013.00,10.00,M,CLR,M,M,M,M,M,M,M,M,M,M,M,M,M,M,69.00,KEKO 180856Z AUTO 00000KT 10SM CLR 21/08 A3012 RMK AO2 SLP130 T02060078 58003,M
WMC,2023-07-18 08:56,-117.8072,40.9019,1315.00,M,M,M,M,M,0.00,30.06,M,M,M,M,M,M,M,M,M,M,M,M,M,M,M,M,M,M,M,KWMC 180856Z AUTO A3006 RMK AO2 SLPNO 51006 PWINO FZRANO $,M
NFL,2023-07-18 08:56,-118.7010,39.4166,1199.00,71.00,61.00,70.66,160.00,6.00,0.00,30.04,1014.20,10.00,M,CLR,M,M,M,M,M,M,M,M,M,M,M,M,M,M,71.00,KNFL 180856Z AUTO 16006KT 10SM CLR 22/16 A3004 RMK AO2 SLP142 T02170161 50000,M
HND,2023-07-18 08:56,-115.1344,35.9729,742.79,95.00,53.00,24.35,180.00,9.00,0.00,29.94,1011.20,10.00,M,CLR,M,M,M,M,M,M,M,M,M,M,M,M,M,M,92.55,KHND 180856Z AUTO 18009KT 10SM CLR 35/12 A2994 RMK AO2 SLP112 T03500117 53006,M
TPH,2023-07-18 08:56,-117.0904,38.0505,1654.00,74.00,39.00,28.16,260.00,4.00,0.00,30.16,1010.60,10.00,M,FEW,M,M,M,12000.00,M,M,M,M,M,M,M,M,M,M,74.00,KTPH 180856Z AUTO 26004KT 10SM FEW120 23/04 A3016 RMK AO2 SLP106 T02330039 53002,M
LAS,2023-07-18 08:56,-115.1634,36.0719,663.00,97.00,52.00,22.07,180.00,8.00,0.00,29.88,1008.20,10.00,M,CLR,M,M,M,M,M,M,M,M,M,M,M,M,M,M,94.38,KLAS 180856Z 18008KT 10SM CLR 36/11 A2988 RMK AO2 SLP082 T03610111 51006,M
BVU,2023-07-18 09:15,-114.8611,35.9475,671.00,95.00,53.60,24.89,160.00,8.00,0.00,29.89,M,10.00,M,CLR,M,M,M,M,M,M,M,M,M,M,M,M,M,M,92.71,KBVU 180915Z AUTO 16008KT 10SM CLR 35/12 A2989 RMK AO2,M
CXP,2023-07-18 09:15,-119.7326,39.1923,1431.00,69.80,48.20,46.16,0.00,0.00,0.00,30.13,M,10.00,M,CLR,M,M,M,M,M,M,M,M,M,M,M,M,M,M,69.80,KCXP 180915Z AUTO 00000KT 10SM CLR 21/09 A3013 RMK AO2,M
RTS,2023-07-18 09:15,-119.8764,39.6682,1539.00,68.00,41.00,37.32,350.00,3.00,0.00,30.15,M,10.00,M,CLR,M,M,M,M,M,M,M,M,M,M,M,M,M,M,68.00,KRTS 180915Z AUTO 35003KT 10SM CLR 20/05 A3015 RMK AO2,M
05U,2023-07-18 09:15,-116.0051,39.6042,1811.23,69.80,42.80,37.61,M,M,0.00,30.23,M,10.00,M,SCT,M,M,M,12000.00,M,M,M,M,M,M,M,M,M,M,69.80,K05U 180915Z AUTO 10SM SCT120 21/06 A3023 RMK A01,M
MEV,2023-07-18 09:15,-119.7500,38.9963,1441.42,68.00,51.80,56.13,0.00,0.00,0.00,30.12,M,10.00,M,CLR,M,M,M,M,M,M,M,M,M,M,M,M,M,M,68.00,KMEV 180915Z AUTO 00000KT 10SM CLR 20/11 A3012 RMK AO2,M
HTH,2023-07-18 09:15,-118.6315,38.5448,1282.89,77.00,53.60,44.25,0.00,0.00,0.00,30.07,M,10.00,M,FEW,FEW,SCT,M,2700.00,4300.00,8500.00,M,M,M,M,M,M,M,M,77.00,KHTH 180915Z AUTO 00000KT 10SM FEW027 FEW043 SCT085 25/12 A3007 RMK A01,M
TMT,2023-07-18 09:15,-117.1971,39.4643,1749.34,65.50,47.70,52.54,80.00,6.00,0.00,30.20,M,10.00,M,SCT,M,M,M,12000.00,M,M,M,M,M,M,M,M,M,M,65.50,KTMT 180915Z AUTO 08006KT 10SM SCT120 19/09 A3020 RMK AO2 T01860087,M
BAM,2023-07-18 09:20,-116.8743,40.5990,1382.36,73.40,44.60,35.66,0.00,0.00,0.00,30.08,M,10.00,M,CLR,M,M,M,M,M,M,M,M,M,M,M,M,M,M,73.40,KBAM 180920Z AUTO 00000KT 10SM CLR 23/07 A3008 RMK AO1,M
BVU,2023-07-18 09:35,-114.8611,35.9475,671.00,95.00,53.60,24.89,M,4.00,0.00,29.89,M,10.00,M,CLR,M,M,M,M,M,M,M,M,M,M,M,M,M,M,92.71,KBVU 180935Z AUTO VRB04KT 10SM CLR 35/12 A2989 RMK AO2,M
CXP,2023-07-18 09:35,-119.7326,39.1923,1431.00,69.80,48.20,46.16,0.00,0.00,0.00,30.13,M,10.00,M,CLR,M,M,M,M,M,M,M,M,M,M,M,M,M,M,69.80,KCXP 180935Z AUTO 00000KT 10SM CLR 21/09 A3013 RMK AO2,M
RTS,2023-07-18 09:35,-119.8764,39.6682,1539.00,68.00,41.00,37.32,20.00,5.00,0.00,30.15,M,10.00,M,CLR,M,M,M,M,M,M,M,M,M,M,M,M,M,M,68.00,KRTS 180935Z AUTO 02005KT 10SM CLR 20/05 A3015 RMK AO2,M
05U,2023-07-18 09:35,-116.0051,39.6042,1811.23,68.00,44.60,42.85,M,M,0.00,30.22,M,10.00,M,BKN,M,M,M,12000.00,M,M,M,M,M,M,M,M,M,M,68.00,K05U 180935Z AUTO 10SM BKN120 20/07 A3022 RMK A01,M
MEV,2023-07-18 09:35,-119.7500,38.9963,1441.42,68.00,51.80,56.13,0.00,0.00,0.00,30.12,M,10.00,M,CLR,M,M,M,M,M,M,M,M,M,M,M,M,M,M,68.00,KMEV 180935Z AUTO 00000KT 10SM CLR 20/11 A3012 RMK AO2,M
BAM,2023-07-18 09:35,-116.8743,40.5990,1382.36,68.00,41.00,37.32,140.00,4.00,0.00,30.08,M,10.00,M,CLR,M,M,M,M,M,M,M,M,M,M,M,M,M,M,68.00,KBAM 180935Z AUTO 14004KT 10SM CLR 20/05 A3008 RMK AO1,M
HTH,2023-07-18 09:35,-118.6315,38.5448,1282.89,77.00,53.60,44.25,200.00,3.00,0.00,30.08,M,10.00,M,CLR,M,M,M,M,M,M,M,M,M,M,M,M,M,M,77.00,KHTH 180935Z AUTO 20003KT 10SM CLR 25/12 A3008 RMK A01,M
TMT,2023-07-18 09:35,-117.1971,39.4643,1749.34,62.00,50.40,65.70,90.00,7.00,0.00,30.20,M,10.00,M,SCT,M,M,M,12000.00,M,M,M,M,M,M,M,M,M,M,62.00,KTMT 180935Z AUTO 09007KT 10SM SCT120 17/10 A3020 RMK AO2 T01670102,M
P68,2023-07-18 09:53,-116.0056,39.6014,1993.00,70.00,45.00,40.63,170.00,6.00,0.00,30.20,1012.20,M,M,M,M,M,M,M,M,M,M,M,M,M,M,M,M,M,70.00,KP68 180953Z AUTO 17006KT 21/07 A3020 RMK AO1 SLP122 T02110072,M
DRA,2023-07-18 09:53,-116.0278,36.6206,1009.00,91.00,50.00,24.68,230.00,6.00,0.00,29.97,1008.20,10.00,M,CLR,M,M,M,M,M,M,M,M,M,M,M,M,M,M,87.99,KDRA 180953Z AUTO 23006KT 10SM CLR 33/10 A2997 RMK AO2 SLP082 T03280100,M
ELY,2023-07-18 09:53,-114.8453,39.2950,1909.00,M,M,M,M,M,0.00,30.23,M,M,M,M,M,M,M,M,M,M,M,M,M,M,M,M,M,M,M,KELY 180953Z AUTO A3023 RMK AO2 SLPNO PWINO FZRANO,M
VGT,2023-07-18 09:53,-115.1933,36.2111,667.00,96.00,53.00,23.61,140.00,5.00,0.00,29.89,1009.90,10.00,M,CLR,M,M,M,M,M,M,M,M,M,M,M,M,M,M,93.59,KVGT 180953Z AUTO 14005KT 10SM CLR 36/12 A2989 RMK AO2 SLP099 T03560117,M
LOL,2023-07-18 09:53,-118.5701,40.0684,1192.43,70.00,48.00,45.50,0.00,0.00,0.00,30.03,1012.00,10.00,M,CLR,M,M,M,M,M,M,M,M,M,M,M,M,M,M,70.00,KLOL 180953Z AUTO 00000KT 10SM CLR 21/09 A3003 RMK AO2 SLP120 T02110089,M
BVU,2023-07-18 09:55,-114.8611,35.9475,671.00,95.00,51.80,23.30,200.00,7.00,0.00,29.90,M,10.00,M,CLR,M,M,M,M,M,M,M,M,M,M,M,M,M,M,92.26,KBVU 180955Z AUTO 20007KT 10SM CLR 35/11 A2990 RMK AO2,M
CXP,2023-07-18 09:55,-119.7326,39.1923,1431.00,68.00,50.00,52.51,0.00,0.00,0.00,30.13,M,10.00,M,CLR,M,M,M,M,M,M,M,M,M,M,M,M,M,M,68.00,KCXP 180955Z AUTO 00000KT 10SM CLR 20/10 A3013 RMK AO2,M
INS,2023-07-18 09:55,-115.6733,36.5872,955.00,86.00,48.20,27.03,120.00,4.00,0.00,29.95,1008.00,10.00,M,CLR,M,M,M,M,M,M,M,M,M,M,M,M,M,M,83.40,KINS 180955Z AUTO 12004KT 10SM CLR 30/09 A2995 RMK AO2 SLP080 T03010090 $,M
RNO,2023-07-18 09:55,-119.7711,39.4839,1341.00,75.00,47.00,37.01,0.00,0.00,0.00,30.09,1011.80,10.00,M,FEW,M,M,M,14000.00,M,M,M,M,M,M,M,M,M,M,75.00,KRNO 180955Z 00000KT 10SM FEW140 24/08 A3009 RMK AO2 SLP118 T02390083,M
RTS,2023-07-18 09:55,-119.8764,39.6682,1539.00,68.00,39.20,34.80,340.00,4.00,0.00,30.15,M,10.00,M,CLR,M,M,M,M,M,M,M,M,M,M,M,M,M,M,68.00,KRTS 180955Z AUTO 34004KT 10SM CLR 20/04 A3015 RMK AO2,M
05U,2023-07-18 09:55,-116.0051,39.6042,1811.23,69.80,44.60,40.29,M,M,0.00,30.23,M,10.00,M,FEW,SCT,OVC,M,5500.00,7500.00,11000.00,M,M,M,M,M,M,M,M,69.80,K05U 180955Z AUTO 10SM FEW055 SCT075 OVC110 21/07 A3023 RMK A01,M
MEV,2023-07-18 09:55,-119.7500,38.9963,1441.42,66.20,50.00,55.88,0.00,0.00,0.00,30.12,M,10.00,M,CLR,M,M,M,M,M,M,M,M,M,M,M,M,M,M,66.20,KMEV 180955Z AUTO 00000KT 10SM CLR 19/10 A3012 RMK AO2,M
BAM,2023-07-18 09:55,-116.8743,40.5990,1382.36,66.20,41.00,39.72,170.00,4.00,0.00,30.08,M,10.00,M,CLR,M,M,M,M,M,M,M,M,M,M,M,M,M,M,66.20,KBAM 180955Z AUTO 17004KT 10SM CLR 19/05 A3008 RMK AO1,M
HTH,2023-07-18 09:55,-118.6315,38.5448,1282.89,77.00,53.60,44.25,230.00,5.00,0.00,30.08,M,10.00,M,FEW,M,M,M,12000.00,M,M,M,M,M,M,M,M,M,M,77.00,KHTH 180955Z AUTO 23005KT 10SM FEW120 25/12 A3008 RMK A01,M
TMT,2023-07-18 09:55,-117.1971,39.4643,1749.34,60.40,50.00,68.51,90.00,4.00,0.00,30.20,M,10.00,M,CLR,M,M,M,M,M,M,M,M,M,M,M,M,M,M,60.40,KTMT 180955Z AUTO 09004KT 10SM CLR 16/10 A3020 RMK AO2 T01580100,M
LSV,2023-07-18 09:55,-115.0343,36.2362,570.00,96.00,55.00,25.40,320.00,3.00,0.00,29.84,1005.30,10.00,M,CLR,M,M,M,M,M,M,M,M,M,M,M,M,M,M,94.16,KLSV 180955Z 32003KT 10SM CLR 36/13 A2984 RMK A02A SLP053 WND DATA ESTMD ALTSG ESTMD T03560128,M
EKO,2023-07-18 09:56,-115.7860,40.8242,1367.00,66.00,46.00,48.43,0.00,0.00,0.00,30.12,1013.30,10.00,M,CLR,M,M,M,M,M,M,M,M,M,M,M,M,M,M,66.00,KEKO 180956Z AUTO 00000KT 10SM CLR 19/08 A3012 RMK AO2 SLP133 T01890078,M
WMC,2023-07-18 09:56,-117.8072,40.9019,1315.00,M,M,M,M,M,0.00,30.06,M,M,M,M,M,M,M,M,M,M,M,M,M,M,M,M,M,M,M,KWMC 180956Z AUTO A3006 RMK AO2 SLPNO PWINO FZRANO $,M
NFL,2023-07-18 09:56,-118.7010,39.4166,1199.00,70.00,60.00,70.56,160.00,7.00,0.00,30.04,1014.00,10.00,M,CLR,M,M,M,M,M,M,M,M,M,M,M,M,M,M,70.00,KNFL 180956Z AUTO 16007KT 10SM CLR 21/16 A3004 RMK AO2 SLP140 T02110156,M
HND,2023-07-18 09:56,-115.1344,35.9729,742.79,93.00,53.00,25.90,200.00,9.00,0.00,29.94,1011.20,10.00,M,CLR,M,M,M,M,M,M,M,M,M,M,M,M,M,M,90.52,KHND 180956Z AUTO 20009KT 10SM CLR 34/12 A2994 RMK AO2 SLP112 T03390117,M
TPH,2023-07-18 09:56,-117.0904,38.0505,1654.00,73.00,41.00,31.47,340.00,4.00,0.00,30.15,1010.90,10.00,M,CLR,M,M,M,M,M,M,M,M,M,M,M,M,M,M,73.00,KTPH 180956Z AUTO 34004KT 10SM CLR 23/05 A3015 RMK AO2 SLP109 T02280050,M
LAS,2023-07-18 09:56,-115.1634,36.0719,663.00,95.00,51.00,22.62,210.00,4.00,0.00,29.89,1008.50,10.00,M,CLR,M,M,M,M,M,M,M,M,M,M,M,M,M,M,92.09,KLAS 180956Z 21004KT 10SM CLR 35/11 A2989 RMK AO2 SLP085 T03500106,M
BVU,2023-07-18 10:15,-114.8611,35.9475,671.00,93.20,51.80,24.63,170.00,6.00,0.00,29.89,M,10.00,M,CLR,M,M,M,M,M,M,M,M,M,M,M,M,M,M,90.45,KBVU 181015Z AUTO 17006KT 10SM CLR 34/11 A2989 RMK AO2,M
CXP,2023-07-18 10:15,-119.7326,39.1923,1431.00,68.00,50.00,52.51,0.00,0.00,0.00,30.13,M,10.00,M,CLR,M,M,M,M,M,M,M,M,M,M,M,M,M,M,68.00,KCXP 181015Z AUTO 00000KT 10SM CLR 20/10 A3013 RMK AO2,M
RTS,2023-07-18 10:15,-119.8764,39.6682,1539.00,69.80,39.20,32.72,M,3.00,0.00,30.14,M,10.00,M,CLR,M,M,M,M,M,M,M,M,M,M,M,M,M,M,69.80,KRTS 181015Z AUTO VRB03KT 10SM CLR 21/04 A3014 RMK AO2,M
05U,2023-07-18 10:15,-116.0051,39.6042,1811.23,69.80,42.80,37.61,M,M,0.00,30.23,M,10.00,M,FEW,FEW,OVC,M,6000.00,7500.00,12000.00,M,M,M,M,M,M,M,M,69.80,K05U 181015Z AUTO 10SM FEW060 FEW075 OVC120 21/06 A3023 RMK A01,M
MEV,2023-07-18 10:15,-119.7500,38.9963,1441.42,60.80,51.80,72.20,0.00,0.00,0.00,30.12,M,10.00,M,CLR,M,M,M,M,M,M,M,M,M,M,M,M,M,M,60.80,KMEV 181015Z AUTO 00000KT 10SM CLR 16/11 A3012 RMK AO2,M
BAM,2023-07-18 10:15,-116.8743,40.5990,1382.36,66.20,41.00,39.72,150.00,4.00,0.00,30.08,M,10.00,M,CLR,M,M,M,M,M,M,M,M,M,M,M,M,M,M,66.20,KBAM 181015Z AUTO 15004KT 10SM CLR 19/05 A3008 RMK AO1,M
HTH,2023-07-18 10:15,-118.6315,38.5448,1282.89,77.00,53.60,44.25,210.00,3.00,0.00,30.08,M,10.00,M,FEW,M,M,M,12000.00,M,M,M,M,M,M,M,M,M,M,77.00,KHTH 181015Z AUTO 21003KT 10SM FEW120 25/12 A3008 RMK A01,M
TMT,2023-07-18 10:15,-117.1971,39.4643,1749.34,60.30,50.00,68.75,0.00,0.00,0.00,30.20,M,10.00,M,CLR,M,M,M,M,M,M,M,M,M,M,M,M,M,M,60.30,KTMT 181015Z AUTO 00000KT 10SM CLR 16/10 A3020 RMK AO2 T01570100,M
BVU,2023-07-18 10:35,-114.8611,35.9475,671.00,93.20,51.80,24.63,180.00,7.00,0.00,29.89,M,10.00,M,CLR,M,M,M,M,M,M,M,M,M,M,M,M,M,M,90.45,KBVU 181035Z AUTO 18007KT 10SM CLR 34/11 A2989 RMK AO2,M
CXP,2023-07-18 10:35,-119.7326,39.1923,1431.00,68.00,50.00,52.51,0.00,0.00,0.00,30.13,M,10.00,M,CLR,M,M,M,M,M,M,M,M,M,M,M,M,M,M,68.00,KCXP 181035Z AUTO 00000KT 10SM CLR 20/10 A3013 RMK AO2,M
RTS,2023-07-18 10:35,-119.8764,39.6682,1539.00,68.00,39.20,34.80,0.00,0.00,0.00,30.15,M,10.00,M,CLR,M,M,M,M,M,M,M,M,M,M,M,M,M,M,68.00,KRTS 181035Z AUTO 00000KT 10SM CLR 20/04 A3015 RMK AO2,M
05U,2023-07-18 10:35,-116.0051,39.6042,1811.23,71.60,42.80,35.37,M,M,0.00,30.23,M,10.00,M,SCT,BKN,OVC,M,7500.00,10000.00,12000.00,M,M,M,M,M,M,M,M,71.60,K05U 181035Z AUTO 10SM SCT075 BKN100 OVC120 22/06 A3023 RMK A01,M
MEV,2023-07-18 10:35,-119.7500,38.9963,1441.42,60.80,51.80,72.20,0.00,0.00,0.00,30.12,M,10.00,M,CLR,M,M,M,M,M,M,M,M,M,M,M,M,M,M,60.80,KMEV 181035Z AUTO 00000KT 10SM CLR 16/11 A3012 RMK AO2,M
BAM,2023-07-18 10:35,-116.8743,40.5990,1382.36,68.00,41.00,37.32,160.00,7.00,0.00,30.08,M,10.00,M,CLR,M,M,M,M,M,M,M,M,M,M,M,M,M,M,68.00,KBAM 181035Z AUTO 16007KT 10SM CLR 20/05 A3008 RMK AO1,M
HTH,2023-07-18 10:35,-118.6315,38.5448,1282.89,77.00,55.40,47.25,130.00,5.00,0.00,30.08,M,10.00,M,FEW,M,M,M,12000.00,M,M,M,M,M,M,M,M,M,M,77.00,KHTH 181035Z AUTO 13005KT 10SM FEW120 25/13 A3008 RMK A01,M
TMT,2023-07-18 10:35,-117.1971,39.4643,1749.34,59.50,50.00,70.74,0.00,0.00,0.00,30.20,M,10.00,M,CLR,M,M,M,M,M,M,M,M,M,M,M,M,M,M,59.50,KTMT 181035Z AUTO 00000KT 10SM CLR 15/10 A3020 RMK AO2 T01530099,M
P68,2023-07-18 10:53,-116.0056,39.6014,1993.00,73.00,45.00,36.70,140.00,7.00,0.00,30.19,1011.80,M,M,M,M,M,M,M,M,M,M,M,M,M,M,M,M,M,73.00,KP68 181053Z AUTO 14007KT 23/07 A3019 RMK AO1 SLP118 T02280072,M
DRA,2023-07-18 10:53,-116.0278,36.6206,1009.00,88.00,50.00,27.12,170.00,10.00,0.00,29.97,1008.50,10.00,M,CLR,M,M,M,M,M,M,M,M,M,M,M,M,M,M,85.28,KDRA 181053Z AUTO 17010KT 10SM CLR 31/10 A2997 RMK AO2 SLP085 T03110100,M
ELY,2023-07-18 10:53,-114.8453,39.2950,1909.00,M,M,M,M,M,0.00,30.24,M,M,M,M,M,M,M,M,M,M,M,M,M,M,M,M,M,M,M,KELY 181053Z AUTO A3024 RMK AO2 SLPNO PWINO FZRANO,M
VGT,2023-07-18 10:53,-115.1933,36.2111,667.00,95.00,52.00,23.47,140.00,3.00,0.00,29.89,1009.90,10.00,M,CLR,M,M,M,M,M,M,M,M,M,M,M,M,M,M,92.31,KVGT 181053Z AUTO 14003KT 10SM CLR 35/11 A2989 RMK AO2 SLP099 T03500111,M
LOL,2023-07-18 10:53,-118.5701,40.0684,1192.43,61.00,45.00,55.57,120.00,5.00,0.00,30.03,1012.10,10.00,M,CLR,M,M,M,M,M,M,M,M,M,M,M,M,M,M,61.00,KLOL 181053Z AUTO 12005KT 10SM CLR 16/07 A3003 RMK AO2 SLP121 T01610072,M
BVU,2023-07-18 10:55,-114.8611,35.9475,671.00,93.20,51.80,24.63,M,4.00,0.00,29.90,M,10.00,M,CLR,M,M,M,M,M,M,M,M,M,M,M,M,M,M,90.45,KBVU 181055Z AUTO VRB04KT 10SM CLR 34/11 A2990 RMK AO2,M
CXP,2023-07-18 10:55,-119.7326,39.1923,1431.00,66.20,50.00,55.88,0.00,0.00,0.00,30.13,M,10.00,M,CLR,M,M,M,M,M,M,M,M,M,M,M,M,M,M,66.20,KCXP 181055Z AUTO 00000KT 10SM CLR 19/10 A3013 RMK AO2,M
INS,2023-07-18 10:55,-115.6733,36.5872,955.00,86.00,48.00,26.82,0.00,0.00,0.00,29.95,1007.80,10.00,M,CLR,M,M,M,M,M,M,M,M,M,M,M,M,M,M,83.38,KINS 181055Z AUTO 00000KT 10SM CLR 30/09 A2995 RMK AO2 SLP078 T02990089 $,M
RNO,2023-07-18 10:55,-119.7711,39.4839,1341.00,73.00,49.00,42.67,0.00,0.00,0.00,30.09,1011.90,10.00,M,FEW,M,M,M,14000.00,M,M,M,M,M,M,M,M,M,M,73.00,KRNO 181055Z 00000KT 10SM FEW140 23/09 A3009 RMK AO2 SLP119 T02280094,M
RTS,2023-07-18 10:55,-119.8764,39.6682,1539.00,66.20,39.20,37.03,350.00,5.00,0.00,30.15,M,10.00,M,CLR,M,M,M,M,M,M,M,M,M,M,M,M,M,M,66.20,KRTS 181055Z AUTO 35005KT 10SM CLR 19/04 A3015 RMK AO2,M
05U,2023-07-18 10:55,-116.0051,39.6042,1811.23,73.40,44.60,35.66,M,M,0.00,30.22,M,10.00,M,FEW,SCT,BKN,M,4500.00,7500.00,11000.00,M,M,M,M,M,M,M,M,73.40,K05U 181055Z AUTO 10SM FEW045 SCT075 BKN110 23/07 A3022 RMK A01,M
MEV,2023-07-18 10:55,-119.7500,38.9963,1441.42,59.00,51.80,76.98,0.00,0.00,0.00,30.12,M,10.00,M,CLR,M,M,M,M,M,M,M,M,M,M,M,M,M,M,59.00,KMEV 181055Z AUTO 00000KT 10SM CLR 15/11 A3012 RMK AO2,M
BAM,2023-07-18 10:55,-116.8743,40.5990,1382.36,68.00,42.80,40.00,210.00,3.00,0.00,30.08,M,10.00,M,CLR,M,M,M,M,M,M,M,M,M,M,M,M,M,M,68.00,KBAM 181055Z AUTO 21003KT 10SM CLR 20/06 A3008 RMK AO1,M
HTH,2023-07-18 10:55,-118.6315,38.5448,1282.89,77.00,51.80,41.42,140.00,5.00,0.00,30.08,M,10.00,M,FEW,M,M,M,11000.00,M,M,M,M,M,M,M,M,M,M,77.00,KHTH 181055Z AUTO 14005KT 10SM FEW110 25/11 A3008 RMK A01,M
TMT,2023-07-18 10:55,-117.1971,39.4643,1749.34,59.70,50.00,70.24,280.00,3.00,0.00,30.20,M,10.00,M,CLR,M,M,M,M,M,M,M,M,M,M,M,M,M,M,59.70,KTMT 181055Z AUTO 28003KT 10SM CLR 15/10 A3020 RMK AO2 T01540100,M
LSV,2023-07-18 10:55,-115.0343,36.2362,570.00,93.60,55.40,27.75,0.00,0.00,0.00,29.84,1005.70,10.00,M,CLR,M,M,M,M,M,M,M,M,M,M,M,M,M,M,91.76,KLSV 181055Z COR 00000KT 10SM CLR 34/13 A2984 RMK A02A SLP057 WND DATA ESTMD ALTSG ESTMD T03420130 $ COR 1110,M
EKO,2023-07-18 10:56,-115.7860,40.8242,1367.00,66.00,45.00,46.62,80.00,3.00,0.00,30.13,1013.70,10.00,M,CLR,M,M,M,M,M,M,M,M,M,M,M,M,M,M,66.00,KEKO 181056Z AUTO 08003KT 10SM CLR 19/07 A3013 RMK AO2 SLP137 T01890072,M
WMC,2023-07-18 10:56,-117.8072,40.9019,1315.00,M,M,M,M,M,0.00,30.07,M,M,M,M,M,M,M,M,M,M,M,M,M,M,M,M,M,M,M,KWMC 181056Z AUTO A3007 RMK AO2 SLPNO PWINO FZRANO $,M
NFL,2023-07-18 10:56,-118.7010,39.4166,1199.00,70.00,60.00,70.56,150.00,4.00,0.00,30.04,1014.00,10.00,M,CLR,M,M,M,M,M,M,M,M,M,M,M,M,M,M,70.00,KNFL 181056Z AUTO 15004KT 10SM CLR 21/16 A3004 RMK AO2 SLP140 T02110156,M
HND,2023-07-18 10:56,-115.1344,35.9729,742.79,92.00,52.00,25.76,200.00,4.00,0.00,29.94,1011.60,10.00,M,CLR,M,M,M,M,M,M,M,M,M,M,M,M,M,M,89.31,KHND 181056Z AUTO 20004KT 10SM CLR 33/11 A2994 RMK AO2 SLP116 T03330111,M
TPH,2023-07-18 10:56,-117.0904,38.0505,1654.00,71.00,42.00,35.01,330.00,5.00,0.00,30.16,1011.40,10.00,M,CLR,M,M,M,M,M,M,M,M,M,M,M,M,M,M,71.00,KTPH 181056Z AUTO 33005KT 10SM CLR 22/06 A3016 RMK AO2 SLP114 T02170056,M
LAS,2023-07-18 10:56,-115.1634,36.0719,663.00,94.00,51.00,23.33,190.00,6.00,0.00,29.89,1008.50,10.00,M,CLR,M,M,M,M,M,M,M,M,M,M,M,M,M,M,91.08,KLAS 181056Z 19006KT 10SM CLR 34/11 A2989 RMK AO2 SLP085 T03440106,M
05U,2023-07-18 11:10,-116.0051,39.6042,1811.23,71.60,42.80,35.37,M,M,0.00,30.23,M,10.00,M,BKN,M,M,M,11000.00,M,M,M,M,M,M,M,M,M,M,71.60,K05U 181110Z AUTO 10SM BKN110 22/06 A3023 RMK A01,M
BVU,2023-07-18 11:15,-114.8611,35.9475,671.00,89.60,53.60,29.45,0.00,0.00,0.00,29.89,M,10.00,M,CLR,M,M,M,M,M,M,M,M,M,M,M,M,M,M,87.36,KBVU 181115Z AUTO 00000KT 10SM CLR 32/12 A2989 RMK AO2,M
CXP,2023-07-18 11:15,-119.7326,39.1923,1431.00,66.20,50.00,55.88,0.00,0.00,0.00,30.13,M,10.00,M,CLR,M,M,M,M,M,M,M,M,M,M,M,M,M,M,66.20,KCXP 181115Z AUTO 00000KT 10SM CLR 19/10 A3013 RMK AO2,M
RTS,2023-07-18 11:15,-119.8764,39.6682,1539.00,66.20,39.20,37.03,20.00,4.00,0.00,30.15,M,10.00,M,CLR,M,M,M,M,M,M,M,M,M,M,M,M,M,M,66.20,KRTS 181115Z AUTO 02004KT 10SM CLR 19/04 A3015 RMK AO2,M
MEV,2023-07-18 11:15,-119.7500,38.9963,1441.42,57.20,50.00,76.82,0.00,0.00,0.00,30.12,M,10.00,M,CLR,M,M,M,M,M,M,M,M,M,M,M,M,M,M,57.20,KMEV 181115Z AUTO 00000KT 10SM CLR 14/10 A3012 RMK AO2,M
BAM,2023-07-18 11:15,-116.8743,40.5990,1382.36,66.20,41.00,39.72,0.00,0.00,0.00,30.08,M,10.00,M,CLR,M,M,M,M,M,M,M,M,M,M,M,M,M,M,66.20,KBAM 181115Z AUTO 00000KT 10SM CLR 19/05 A3008 RMK AO1,M
HTH,2023-07-18 11:15,-118.6315,38.5448,1282.89,75.20,51.80,43.97,0.00,0.00,0.00,30.08,M,10.00,M,FEW,M,M,M,12000.00,M,M,M,M,M,M,M,M,M,M,75.20,KHTH 181115Z AUTO 00000KT 10SM FEW120 24/11 A3008 RMK A01,M
TMT,2023-07-18 11:15,-117.1971,39.4643,1749.34,60.80,50.00,67.54,0.00,0.00,0.00,30.20,M,10.00,M,CLR,M,M,M,M,M,M,M,M,M,M,M,M,M,M,60.80,KTMT 181115Z AUTO 00000KT 10SM CLR 16/10 A3020 RMK AO2 T01600100,M
BVU,2023-07-18 11:35,-114.8611,35.9475,671.00,87.80,55.40,33.29,330.00,4.00,0.00,29.89,M,10.00,M,CLR,M,M,M,M,M,M,M,M,M,M,M,M,M,M,86.11,KBVU 181135Z AUTO 33004KT 10SM CLR 31/13 A2989 RMK AO2,M
CXP,2023-07-18 11:35,-119.7326,39.1923,1431.00,66.20,50.00,55.88,0.00,0.00,0.00,30.13,M,10.00,M,CLR,M,M,M,M,M,M,M,M,M,M,M,M,M,M,66.20,KCXP 181135Z AUTO 00000KT 10SM CLR 19/10 A3013 RMK AO2,M
RTS,2023-07-18 11:35,-119.8764,39.6682,1539.00,66.20,39.20,37.03,0.00,0.00,0.00,30.15,M,10.00,M,CLR,M,M,M,M,M,M,M,M,M,M,M,M,M,M,66.20,KRTS 181135Z AUTO 00000KT 10SM CLR 19/04 A3015 RMK AO2,M
05U,2023-07-18 11:35,-116.0051,39.6042,1811.23,69.80,42.80,37.61,M,M,0.00,30.23,M,10.00,M,CLR,M,M,M,M,M,M,M,M,M,M,M,M,M,M,69.80,K05U 181135Z AUTO 10SM CLR 21/06 A3023 RMK A01,M
MEV,2023-07-18 11:35,-119.7500,38.9963,1441.42,59.00,51.80,76.98,0.00,0.00,0.00,30.12,M,10.00,M,CLR,M,M,M,M,M,M,M,M,M,M,M,M,M,M,59.00,KMEV 181135Z AUTO 00000KT 10SM CLR 15/11 A3012 RMK AO2,M
BAM,2023-07-18 11:35,-116.8743,40.5990,1382.36,64.40,41.00,42.28,0.00,0.00,0.00,30.09,M,10.00,M,CLR,M,M,M,M,M,M,M,M,M,M,M,M,M,M,64.40,KBAM 181135Z AUTO 00000KT 10SM CLR 18/05 A3009 RMK AO1,M
HTH,2023-07-18 11:35,-118.6315,38.5448,1282.89,75.20,53.60,46.98,0.00,0.00,0.00,30.09,M,10.00,M,SCT,M,M,M,12000.00,M,M,M,M,M,M,M,M,M,M,75.20,KHTH 181135Z AUTO 00000KT 10SM SCT120 24/12 A3009 RMK A01,M
TMT,2023-07-18 11:35,-117.1971,39.4643,1749.34,61.00,49.00,64.61,360.00,3.00,0.00,30.21,M,10.00,M,SCT,M,M,M,12000.00,M,M,M,M,M,M,M,M,M,M,61.00,KTMT 181135Z AUTO 36003KT 10SM SCT120 16/09 A3021 RMK AO2 T01610094,M
P68,2023-07-18 11:53,-116.0056,39.6014,1993.00,74.00,43.00,32.87,0.00,0.00,0.00,30.20,1012.20,M,M,M,M,M,M,M,M,M,M,M,M,M,M,M,M,M,74.00,KP68 181153Z AUTO 00000KT 23/06 A3020 RMK AO1 SLP122 T02330061 10244 20194 53001,M
DRA,2023-07-18 11:53,-116.0278,36.6206,1009.00,88.00,50.00,27.12,190.00,12.00,0.00,29.98,1008.70,10.00,M,CLR,M,M,M,M,M,M,M,M,M,M,M,M,M,M,85.28,KDRA 181153Z AUTO 19012KT 10SM CLR 31/10 A2998 RMK AO2 SLP087 T03110100 10361 20306 51006,M
ELY,2023-07-18 11:53,-114.8453,39.2950,1909.00,M,M,M,M,M,0.00,30.25,M,M,M,M,M,M,M,M,M,M,M,M,M,M,M,M,M,M,M,KELY 181153Z AUTO A3025 RMK AO2 SLPNO 52008 PWINO FZRANO,M
VGT,2023-07-18 11:53,-115.1933,36.2111,667.00,93.00,52.00,24.97,150.00,6.00,0.00,29.89,1010.20,10.00,M,CLR,M,M,M,M,M,M,M,M,M,M,M,M,M,M,90.29,KVGT 181153Z AUTO 15006KT 10SM CLR 34/11 A2989 RMK AO2 SLP102 T03390111 10400 20339 51002,M
LOL,2023-07-18 11:53,-118.5701,40.0684,1192.43,61.00,49.00,64.61,320.00,3.00,0.00,30.04,1012.40,10.00,M,CLR,M,M,M,M,M,M,M,M,M,M,M,M,M,M,61.00,KLOL 181153Z AUTO 32003KT 10SM CLR 16/09 A3004 RMK AO2 SLP124 T01610094 10244 20156 53001,M
BVU,2023-07-18 11:55,-114.8611,35.9475,671.00,86.00,55.40,35.25,320.00,4.00,0.00,29.90,M,10.00,M,CLR,M,M,M,M,M,M,M,M,M,M,M,M,M,M,84.54,KBVU 181155Z AUTO 32004KT 10SM CLR 30/13 A2990 RMK AO2,M
CXP,2023-07-18 11:55,-119.7326,39.1923,1431.00,66.20,50.00,55.88,0.00,0.00,0.00,30.13,M,10.00,M,CLR,M,M,M,M,M,M,M,M,M,M,M,M,M,M,66.20,KCXP 181155Z AUTO 00000KT 10SM CLR 19/10 A3013 RMK AO2,M
INS,2023-07-18 11:55,-115.6733,36.5872,955.00,85.60,48.00,27.17,320.00,4.00,0.00,29.96,1008.30,10.00,M,CLR,M,M,M,M,M,M,M,M,M,M,M,M,M,M,83.06,KINS 181155Z AUTO 32004KT 10SM CLR 30/09 A2996 RMK AO2 SLP083 T02980088 10368 20296 52005 $,M
RNO,2023-07-18 11:55,-119.7711,39.4839,1341.00,72.00,46.00,39.42,280.00,5.00,0.00,30.10,1012.30,10.00,M,FEW,M,M,M,14000.00,M,M,M,M,M,M,M,M,M,M,72.00,KRNO 181155Z 28005KT 10SM FEW140 22/08 A3010 RMK AO2 SLP123 T02220078 10283 20217 55000,M
RTS,2023-07-18 11:55,-119.8764,39.6682,1539.00,66.20,42.80,42.57,0.00,0.00,0.00,30.15,M,10.00,M,CLR,M,M,M,M,M,M,M,M,M,M,M,M,M,M,66.20,KRTS 181155Z AUTO 00000KT 10SM CLR 19/06 A3015 RMK AO2,M
05U,2023-07-18 11:55,-116.0051,39.6042,1811.23,73.40,42.80,33.29,M,M,0.00,30.22,M,10.00,M,CLR,M,M,M,M,M,M,M,M,M,M,M,M,M,M,73.40,K05U 181155Z AUTO 10SM CLR 23/06 A3022 RMK A01,M
MEV,2023-07-18 11:55,-119.7500,38.9963,1441.42,59.00,51.80,76.98,0.00,0.00,0.00,30.12,M,10.00,M,CLR,M,M,M,M,M,M,M,M,M,M,M,M,M,M,59.00,KMEV 181155Z AUTO 00000KT 10SM CLR 15/11 A3012 RMK AO2,M
BAM,2023-07-18 11:55,-116.8743,40.5990,1382.36,66.20,42.80,42.57,0.00,0.00,0.00,30.10,M,10.00,M,CLR,M,M,M,M,M,M,M,M,M,M,M,M,M,M,66.20,KBAM 181155Z AUTO 00000KT 10SM CLR 19/06 A3010 RMK AO1,M
HTH,2023-07-18 11:55,-118.6315,38.5448,1282.89,77.00,51.80,41.42,0.00,0.00,0.00,30.08,M,10.00,M,FEW,M,M,M,12000.00,M,M,M,M,M,M,M,M,M,M,77.00,KHTH 181155Z AUTO 00000KT 10SM FEW120 25/11 A3008 RMK A01,M
LSV,2023-07-18 11:55,-115.0343,36.2362,570.00,91.60,54.00,28.07,170.00,5.00,0.00,29.89,1006.00,10.00,M,CLR,M,M,M,M,M,M,M,M,M,M,M,M,M,M,89.37,KLSV 181155Z 17005KT 10SM CLR 33/12 A2989 RMK AO2A A02A SLP060 WND DATA ESTMD ALTSG ESTMD 70087 T03310123 10386 20327 52003 $,M
TMT,2023-07-18 11:55,-117.1971,39.4643,1749.34,62.60,47.00,56.64,360.00,4.00,0.00,30.20,M,10.00,M,CLR,M,M,M,M,M,M,M,M,M,M,M,M,M,M,62.60,KTMT 181155Z AUTO 36004KT 10SM CLR 17/08 A3020 RMK AO2 70004 T01700083 10217 20151,M
EKO,2023-07-18 11:56,-115.7860,40.8242,1367.00,65.00,44.00,46.47,60.00,4.00,0.00,30.14,1013.90,10.00,M,CLR,M,M,M,M,M,M,M,M,M,M,M,M,M,M,65.00,KEKO 181156Z AUTO 06004KT 10SM CLR 18/07 A3014 RMK AO2 SLP139 T01830067 10272 20178 51006,M
WMC,2023-07-18 11:56,-117.8072,40.9019,1315.00,M,M,M,M,M,0.00,30.07,M,M,M,M,M,M,M,M,M,M,M,M,M,M,M,M,M,M,M,KWMC 181156Z AUTO A3007 RMK AO2 SLPNO 52003 PWINO FZRANO $,M
NFL,2023-07-18 11:56,-118.7010,39.4166,1199.00,68.00,59.00,72.92,150.00,7.00,0.00,30.04,1014.30,10.00,M,CLR,M,M,M,M,M,M,M,M,M,M,M,M,M,M,68.00,KNFL 181156Z AUTO 15007KT 10SM CLR 20/15 A3004 RMK AO2 SLP143 70011 T02000150 10239 20200 53001,M
HND,2023-07-18 11:56,-115.1344,35.9729,742.79,89.00,52.00,28.30,180.00,7.00,0.00,29.95,1011.70,10.00,M,CLR,M,M,M,M,M,M,M,M,M,M,M,M,M,M,86.49,KHND 181156Z AUTO 18007KT 10SM CLR 32/11 A2995 RMK AO2 SLP117 T03170111 10378 20317 53003,M
TPH,2023-07-18 11:56,-117.0904,38.0505,1654.00,71.00,47.00,42.35,10.00,3.00,T,30.16,1011.60,10.00,M,FEW,FEW,M,M,9000.00,11000.00,M,M,M,M,M,M,M,M,M,71.00,KTPH 181156Z AUTO 01003KT 10SM FEW090 FEW110 22/08 A3016 RMK AO2 RAB24E35 SLP116 P0000 60000 T02170083 10289 20211 53001,M
LAS,2023-07-18 11:56,-115.1634,36.0719,663.00,92.00,52.00,25.76,170.00,4.00,0.00,29.90,1008.80,10.00,M,FEW,M,M,M,20000.00,M,M,M,M,M,M,M,M,M,M,89.31,KLAS 181156Z 17004KT 10SM FEW200 33/11 A2990 RMK AO2 SLP088 T03330111 10389 20333 51004,M
BVU,2023-07-18 12:15,-114.8611,35.9475,671.00,86.00,55.40,35.25,300.00,4.00,0.00,29.90,M,10.00,M,CLR,M,M,M,M,M,M,M,M,M,M,M,M,M,M,84.54,KBVU 181215Z AUTO 30004KT 10SM CLR 30/13 A2990 RMK AO2,M
CXP,2023-07-18 12:15,-119.7326,39.1923,1431.00,64.40,50.00,59.50,0.00,0.00,0.00,30.13,M,10.00,M,CLR,M,M,M,M,M,M,M,M,M,M,M,M,M,M,64.40,KCXP 181215Z AUTO 00000KT 10SM CLR 18/10 A3013 RMK AO2,M
RTS,2023-07-18 12:15,-119.8764,39.6682,1539.00,64.40,39.20,39.43,M,3.00,0.00,30.15,M,10.00,M,CLR,M,M,M,M,M,M,M,M,M,M,M,M,M,M,64.40,KRTS 181215Z AUTO VRB03KT 10SM CLR 18/04 A3015 RMK AO2,M
05U,2023-07-18 12:15,-116.0051,39.6042,1811.23,69.80,44.60,40.29,M,M,0.00,30.22,M,10.00,M,CLR,M,M,M,M,M,M,M,M,M,M,M,M,M,M,69.80,K05U 181215Z AUTO 10SM CLR 21/07 A3022 RMK A01,M
MEV,2023-07-18 12:15,-119.7500,38.9963,1441.42,57.20,50.00,76.82,0.00,0.00,0.00,30.12,M,10.00,M,CLR,M,M,M,M,M,M,M,M,M,M,M,M,M,M,57.20,KMEV 181215Z AUTO 00000KT 10SM CLR 14/10 A3012 RMK AO2,M
BAM,2023-07-18 12:15,-116.8743,40.5990,1382.36,62.60,44.60,51.72,90.00,7.00,0.00,30.10,M,10.00,M,CLR,M,M,M,M,M,M,M,M,M,M,M,M,M,M,62.60,KBAM 181215Z AUTO 09007KT 10SM CLR 17/07 A3010 RMK AO1,M
HTH,2023-07-18 12:15,-118.6315,38.5448,1282.89,73.40,55.40,53.29,300.00,5.00,0.00,30.08,M,10.00,M,CLR,M,M,M,M,M,M,M,M,M,M,M,M,M,M,73.40,KHTH 181215Z AUTO 30005KT 10SM CLR 23/13 A3008 RMK A01,M
TMT,2023-07-18 12:15,-117.1971,39.4643,1749.34,58.00,48.20,69.79,0.00,0.00,0.00,30.21,M,10.00,M,CLR,M,M,M,M,M,M,M,M,M,M,M,M,M,M,58.00,KTMT 181215Z AUTO 00000KT 10SM CLR 15/09 A3021 RMK AO2 T01450090,M
BVU,2023-07-18 12:35,-114.8611,35.9475,671.00,86.00,51.80,30.90,300.00,5.00,0.00,29.90,M,10.00,M,CLR,M,M,M,M,M,M,M,M,M,M,M,M,M,M,83.87,KBVU 181235Z AUTO 30005KT 10SM CLR 30/11 A2990 RMK AO2,M
CXP,2023-07-18 12:35,-119.7326,39.1923,1431.00,64.40,51.80,63.60,0.00,0.00,0.00,30.13,M,10.00,M,CLR,M,M,M,M,M,M,M,M,M,M,M,M,M,M,64.40,KCXP 181235Z AUTO 00000KT 10SM CLR 18/11 A3013 RMK AO2,M
RTS,2023-07-18 12:35,-119.8764,39.6682,1539.00,66.20,39.20,37.03,340.00,5.00,0.00,30.16,M,10.00,M,CLR,M,M,M,M,M,M,M,M,M,M,M,M,M,M,66.20,KRTS 181235Z AUTO 34005KT 10SM CLR 19/04 A3016 RMK AO2,M
05U,2023-07-18 12:35,-116.0051,39.6042,1811.23,68.00,44.60,42.85,M,M,0.00,30.22,M,10.00,M,FEW,M,M,M,12000.00,M,M,M,M,M,M,M,M,M,M,68.00,K05U 181235Z AUTO 10SM FEW120 20/07 A3022 RMK A01,M
MEV,2023-07-18 12:35,-119.7500,38.9963,1441.42,59.00,50.00,72.01,80.00,3.00,0.00,30.12,M,10.00,M,CLR,M,M,M,M,M,M,M,M,M,M,M,M,M,M,59.00,KMEV 181235Z AUTO 08003KT 10SM CLR 15/10 A3012 RMK AO2,M
BAM,2023-07-18 12:35,-116.8743,40.5990,1382.36,62.60,44.60,51.72,0.00,0.00,0.00,30.11,M,10.00,M,CLR,M,M,M,M,M,M,M,M,M,M,M,M,M,M,62.60,KBAM 181235Z AUTO 00000KT 10SM CLR 17/07 A3011 RMK AO1,M
HTH,2023-07-18 12:35,-118.6315,38.5448,1282.89,73.40,57.20,56.88,0.00,0.00,0.00,30.08,M,10.00,M,CLR,M,M,M,M,M,M,M,M,M,M,M,M,M,M,73.40,KHTH 181235Z AUTO 00000KT 10SM CLR 23/14 A3008 RMK A01,M
TMT,2023-07-18 12:35,-117.1971,39.4643,1749.34,57.20,50.00,76.82,150.00,5.00,0.00,30.22,M,10.00,M,BKN,M,M,M,11000.00,M,M,M,M,M,M,M,M,M,M,57.20,KTMT 181235Z AUTO 15005KT 10SM BKN110 14/10 A3022 RMK AO2 LTG DSNT SW T01400100,M
P68,2023-07-18 12:53,-116.0056,39.6014,1993.00,67.00,45.00,45.04,0.00,0.00,0.00,30.20,1013.10,M,M,M,M,M,M,M,M,M,M,M,M,M,M,M,M,M,67.00,KP68 181253Z AUTO 00000KT 19/07 A3020 RMK AO1 SLP131 T01940072,M
DRA,2023-07-18 12:53,-116.0278,36.6206,1009.00,87.00,50.00,28.00,360.00,4.00,0.00,29.99,1009.20,10.00,M,CLR,M,M,M,M,M,M,M,M,M,M,M,M,M,M,84.43,KDRA 181253Z AUTO 36004KT 10SM CLR 31/10 A2999 RMK AO2 SLP092 T03060100,M
ELY,2023-07-18 12:53,-114.8453,39.2950,1909.00,M,M,M,M,M,0.00,30.25,M,M,M,M,M,M,M,M,M,M,M,M,M,M,M,M,M,M,M,KELY 181253Z AUTO A3025 RMK AO2 SLPNO PWINO FZRANO,M
VGT,2023-07-18 12:53,-115.1933,36.2111,667.00,91.00,52.00,26.57,120.00,5.00,0.00,29.90,1010.60,10.00,M,CLR,M,M,M,M,M,M,M,M,M,M,M,M,M,M,88.35,KVGT 181253Z AUTO 12005KT 10SM CLR 33/11 A2990 RMK AO2 SLP106 T03280111,M
LOL,2023-07-18 12:53,-118.5701,40.0684,1192.43,61.00,46.00,57.72,0.00,0.00,0.00,30.05,1012.90,10.00,M,CLR,M,M,M,M,M,M,M,M,M,M,M,M,M,M,61.00,KLOL 181253Z AUTO 00000KT 10SM CLR 16/08 A3005 RMK AO2 SLP129 T01610078,M
BVU,2023-07-18 12:55,-114.8611,35.9475,671.00,86.00,55.40,35.25,0.00,0.00,0.00,29.91,M,10.00,M,CLR,M,M,M,M,M,M,M,M,M,M,M,M,M,M,84.54,KBVU 181255Z AUTO 00000KT 10SM CLR 30/13 A2991 RMK AO2,M
CXP,2023-07-18 12:55,-119.7326,39.1923,1431.00,64.40,51.80,63.60,0.00,0.00,0.00,30.14,M,10.00,M,CLR,M,M,M,M,M,M,M,M,M,M,M,M,M,M,64.40,KCXP 181255Z AUTO 00000KT 10SM CLR 18/11 A3014 RMK AO2,M
INS,2023-07-18 12:55,-115.6733,36.5872,955.00,88.00,48.70,25.84,40.00,8.00,0.00,29.97,1008.70,10.00,M,CLR,M,M,M,M,M,M,M,M,M,M,M,M,M,M,85.11,KINS 181255Z AUTO 04008KT 10SM CLR 31/09 A2997 RMK AO2 SLP087 T03110093 $,M
RNO,2023-07-18 12:55,-119.7711,39.4839,1341.00,71.00,46.00,40.78,300.00,4.00,0.00,30.11,1012.80,10.00,M,FEW,M,M,M,14000.00,M,M,M,M,M,M,M,M,M,M,71.00,KRNO 181255Z 30004KT 10SM FEW140 22/08 A3011 RMK AO2 SLP128 T02170078,M
LSV,2023-07-18 12:55,-115.0343,36.2362,570.00,88.00,53.60,30.98,330.00,4.00,0.00,29.86,1008.10,10.00,M,CLR,M,M,M,M,M,M,M,M,M,M,M,M,M,M,85.90,KLSV 181255Z 33004KT 10SM CLR 31/12 A2986 RMK AO2A SLP081 T03120120 $,M
RTS,2023-07-18 12:55,-119.8764,39.6682,1539.00,64.40,39.20,39.43,330.00,6.00,0.00,30.16,M,10.00,M,CLR,M,M,M,M,M,M,M,M,M,M,M,M,M,M,64.40,KRTS 181255Z AUTO 33006KT 10SM CLR 18/04 A3016 RMK AO2,M
05U,2023-07-18 12:55,-116.0051,39.6042,1811.23,66.20,44.60,45.60,M,M,0.00,30.23,M,10.00,M,FEW,M,M,M,12000.00,M,M,M,M,M,M,M,M,M,M,66.20,K05U 181255Z AUTO 10SM FEW120 19/07 A3023 RMK A01,M
MEV,2023-07-18 12:55,-119.7500,38.9963,1441.42,59.00,50.00,72.01,0.00,0.00,0.00,30.12,M,10.00,M,CLR,M,M,M,M,M,M,M,M,M,M,M,M,M,M,59.00,KMEV 181255Z AUTO 00000KT 10SM CLR 15/10 A3012 RMK AO2,M
BAM,2023-07-18 12:55,-116.8743,40.5990,1382.36,60.80,44.60,55.12,0.00,0.00,0.00,30.11,M,10.00,M,CLR,M,M,M,M,M,M,M,M,M,M,M,M,M,M,60.80,KBAM 181255Z AUTO 00000KT 10SM CLR 16/07 A3011 RMK AO1,M
HTH,2023-07-18 12:55,-118.6315,38.5448,1282.89,73.40,53.60,49.90,0.00,0.00,0.00,30.08,M,10.00,M,M,M,M,M,M,M,M,M,M,M,M,M,M,M,M,73.40,KHTH 181255Z AUTO 00000KT 10SM 23/12 A3008 RMK A01,M
TMT,2023-07-18 12:55,-117.1971,39.4643,1749.34,58.00,51.40,78.62,170.00,3.00,0.00,30.23,M,10.00,M,OVC,M,M,M,11000.00,M,M,M,M,M,M,M,M,M,M,58.00,KTMT 181255Z AUTO 17003KT 10SM OVC110 14/11 A3023 RMK AO2 T01440108,M
EKO,2023-07-18 12:56,-115.7860,40.8242,1367.00,60.00,46.00,59.80,0.00,0.00,0.00,30.14,1014.40,10.00,M,CLR,M,M,M,M,M,M,M,M,M,M,M,M,M,M,60.00,KEKO 181256Z AUTO 00000KT 10SM CLR 16/08 A3014 RMK AO2 SLP144 T01560078,M
WMC,2023-07-18 12:56,-117.8072,40.9019,1315.00,M,M,M,M,M,0.00,30.09,M,M,M,M,M,M,M,M,M,M,M,M,M,M,M,M,M,M,M,KWMC 181256Z AUTO A3009 RMK AO2 SLPNO PWINO FZRANO $,M
NFL,2023-07-18 12:56,-118.7010,39.4166,1199.00,68.00,58.00,70.35,160.00,8.00,0.00,30.05,1014.60,10.00,M,CLR,M,M,M,M,M,M,M,M,M,M,M,M,M,M,68.00,KNFL 181256Z AUTO 16008KT 10SM CLR 20/14 A3005 RMK AO2 SLP146 T02000144,M
HND,2023-07-18 12:56,-115.1344,35.9729,742.79,89.00,53.00,29.36,230.00,8.00,0.00,29.96,1012.00,10.00,M,CLR,M,M,M,M,M,M,M,M,M,M,M,M,M,M,86.68,KHND 181256Z AUTO 23008KT 10SM CLR 32/12 A2996 RMK AO2 SLP120 T03170117,M
TPH,2023-07-18 12:56,-117.0904,38.0505,1654.00,69.00,49.00,48.88,360.00,7.00,0.00,30.17,1012.10,10.00,M,CLR,M,M,M,M,M,M,M,M,M,M,M,M,M,M,69.00,KTPH 181256Z AUTO 36007KT 10SM CLR 21/09 A3017 RMK AO2 SLP121 T02060094,M
LAS,2023-07-18 12:56,-115.1634,36.0719,663.00,91.00,52.00,26.57,170.00,9.00,0.00,29.90,1009.20,10.00,M,FEW,M,M,M,22000.00,M,M,M,M,M,M,M,M,M,M,88.35,KLAS 181256Z 17009KT 10SM FEW220 33/11 A2990 RMK AO2 SLP092 T03280111,M
BVU,2023-07-18 13:15,-114.8611,35.9475,671.00,86.00,57.20,37.62,0.00,0.00,0.00,29.91,M,10.00,M,CLR,M,M,M,M,M,M,M,M,M,M,M,M,M,M,84.97,KBVU 181315Z AUTO 00000KT 10SM CLR 30/14 A2991 RMK AO2,M
CXP,2023-07-18 13:15,-119.7326,39.1923,1431.00,64.40,51.80,63.60,0.00,0.00,0.00,30.14,M,10.00,M,CLR,M,M,M,M,M,M,M,M,M,M,M,M,M,M,64.40,KCXP 181315Z AUTO 00000KT 10SM CLR 18/11 A3014 RMK AO2,M
RTS,2023-07-18 13:15,-119.8764,39.6682,1539.00,60.80,39.20,44.76,330.00,6.00,0.00,30.16,M,10.00,M,CLR,M,M,M,M,M,M,M,M,M,M,M,M,M,M,60.80,KRTS 181315Z AUTO 33006KT 10SM CLR 16/04 A3016 RMK AO2,M
05U,2023-07-18 13:15,-116.0051,39.6042,1811.23,68.00,44.60,42.85,M,M,0.00,30.24,M,10.00,M,SCT,M,M,M,11000.00,M,M,M,M,M,M,M,M,M,M,68.00,K05U 181315Z AUTO 10SM SCT110 20/07 A3024 RMK A01,M
MEV,2023-07-18 13:15,-119.7500,38.9963,1441.42,59.00,50.00,72.01,0.00,0.00,0.00,30.12,M,10.00,M,CLR,M,M,M,M,M,M,M,M,M,M,M,M,M,M,59.00,KMEV 181315Z AUTO 00000KT 10SM CLR 15/10 A3012 RMK AO2,M
BAM,2023-07-18 13:15,-116.8743,40.5990,1382.36,60.80,46.40,59.01,30.00,4.00,0.00,30.11,M,10.00,M,CLR,M,M,M,M,M,M,M,M,M,M,M,M,M,M,60.80,KBAM 181315Z AUTO 03004KT 10SM CLR 16/08 A3011 RMK AO1,M
HTH,2023-07-18 13:15,-118.6315,38.5448,1282.89,75.20,55.40,50.17,210.00,5.00,0.00,30.09,M,10.00,M,M,M,M,M,M,M,M,M,M,M,M,M,M,M,M,75.20,KHTH 181315Z AUTO 21005KT 10SM 24/13 A3009 RMK A01,M
TMT,2023-07-18 13:15,-117.1971,39.4643,1749.34,60.00,52.50,76.22,320.00,3.00,0.00,30.23,M,10.00,M,BKN,M,M,M,11000.00,M,M,M,-RA,M,M,M,M,M,M,60.00,KTMT 181315Z AUTO 32003KT 10SM -RA BKN110 16/11 A3023 RMK AO2 LTG DSNT SE T01560114,M
BVU,2023-07-18 13:35,-114.8611,35.9475,671.00,87.80,59.00,37.90,0.00,0.00,0.00,29.91,M,10.00,M,CLR,M,M,M,M,M,M,M,M,M,M,M,M,M,M,87.12,KBVU 181335Z AUTO 00000KT 10SM CLR 31/15 A2991 RMK AO2,M
CXP,2023-07-18 13:35,-119.7326,39.1923,1431.00,66.20,51.80,59.74,0.00,0.00,0.00,30.14,M,10.00,M,CLR,M,M,M,M,M,M,M,M,M,M,M,M,M,M,66.20,KCXP 181335Z AUTO 00000KT 10SM CLR 19/11 A3014 RMK AO2,M
RTS,2023-07-18 13:35,-119.8764,39.6682,1539.00,62.60,39.20,42.00,0.00,0.00,0.00,30.17,M,10.00,M,CLR,M,M,M,M,M,M,M,M,M,M,M,M,M,M,62.60,KRTS 181335Z AUTO 00000KT 10SM CLR 17/04 A3017 RMK AO2,M
05U,2023-07-18 13:35,-116.0051,39.6042,1811.23,69.80,46.40,43.13,M,M,0.00,30.25,M,10.00,M,FEW,M,M,M,11000.00,M,M,M,M,M,M,M,M,M,M,69.80,K05U 181335Z AUTO 10SM FEW110 21/08 A3025 RMK A01,M
MEV,2023-07-18 13:35,-119.7500,38.9963,1441.42,60.80,51.80,72.20,0.00,0.00,0.00,30.13,M,10.00,M,CLR,M,M,M,M,M,M,M,M,M,M,M,M,M,M,60.80,KMEV 181335Z AUTO 00000KT 10SM CLR 16/11 A3013 RMK AO2,M
BAM,2023-07-18 13:35,-116.8743,40.5990,1382.36,62.60,46.40,55.37,40.00,4.00,0.00,30.11,M,10.00,M,CLR,M,M,M,M,M,M,M,M,M,M,M,M,M,M,62.60,KBAM 181335Z AUTO 04004KT 10SM CLR 17/08 A3011 RMK AO1,M
HTH,2023-07-18 13:35,-118.6315,38.5448,1282.89,75.20,55.40,50.17,0.00,0.00,0.00,30.09,M,10.00,M,M,M,M,M,M,M,M,M,M,M,M,M,M,M,M,75.20,KHTH 181335Z AUTO 00000KT 10SM 24/13 A3009 RMK A01,M
TMT,2023-07-18 13:35,-117.1971,39.4643,1749.34,62.20,53.00,71.81,240.00,7.00,0.00,30.27,M,10.00,M,BKN,M,M,M,10000.00,M,M,M,-RA,M,M,M,M,M,M,62.20,KTMT 181335Z AUTO 24007KT 10SM -RA BKN100 17/12 A3027 RMK AO2 LTG DSNT NW T01680116,M
P68,2023-07-18 13:53,-116.0056,39.6014,1993.00,70.00,48.00,45.50,10.00,9.00,0.00,30.21,1013.30,M,M,M,M,M,M,M,M,M,M,M,M,M,M,M,M,M,70.00,KP68 181353Z AUTO 01009KT 21/09 A3021 RMK AO1 SLP133 T02110089,M
DRA,2023-07-18 13:53,-116.0278,36.6206,1009.00,89.00,51.00,27.27,30.00,6.00,0.00,29.99,1009.10,10.00,M,CLR,M,M,M,M,M,M,M,M,M,M,M,M,M,M,86.31,KDRA 181353Z AUTO 03006KT 10SM CLR 32/11 A2999 RMK AO2 SLP091 T03170106,M
ELY,2023-07-18 13:53,-114.8453,39.2950,1909.00,M,M,M,M,M,0.00,30.26,M,M,M,M,M,M,M,M,M,M,M,M,M,M,M,M,M,M,M,KELY 181353Z AUTO A3026 RMK AO2 SLPNO PWINO FZRANO,M
VGT,2023-07-18 13:53,-115.1933,36.2111,667.00,94.00,53.00,25.11,0.00,0.00,0.00,29.91,1010.90,10.00,M,CLR,M,M,M,M,M,M,M,M,M,M,M,M,M,M,91.53,KVGT 181353Z 00000KT 10SM CLR 34/12 A2991 RMK AO2 SLP109 T03440117,M
LOL,2023-07-18 13:53,-118.5701,40.0684,1192.43,65.00,48.00,54.07,0.00,0.00,0.00,30.06,1013.50,10.00,M,CLR,M,M,M,M,M,M,M,M,M,M,M,M,M,M,65.00,KLOL 181353Z AUTO 00000KT 10SM CLR 18/09 A3006 RMK AO2 SLP135 T01830089,M
BVU,2023-07-18 13:55,-114.8611,35.9475,671.00,91.40,55.40,29.72,320.00,4.00,0.00,29.92,M,10.00,M,CLR,M,M,M,M,M,M,M,M,M,M,M,M,M,M,89.53,KBVU 181355Z AUTO 32004KT 10SM CLR 33/13 A2992 RMK AO2,M
CXP,2023-07-18 13:55,-119.7326,39.1923,1431.00,64.40,53.60,67.95,0.00,0.00,0.00,30.14,M,10.00,M,CLR,M,M,M,M,M,M,M,M,M,M,M,M,M,M,64.40,KCXP 181355Z AUTO 00000KT 10SM CLR 18/12 A3014 RMK AO2,M
INS,2023-07-18 13:55,-115.6733,36.5872,955.00,87.80,48.60,25.91,270.00,4.00,0.00,29.98,1009.00,10.00,M,CLR,M,M,M,M,M,M,M,M,M,M,M,M,M,M,84.92,KINS 181355Z AUTO 27004KT 10SM CLR 31/09 A2998 RMK AO2 SLP090 T03100092 $,M
RNO,2023-07-18 13:55,-119.7711,39.4839,1341.00,72.00,46.00,39.42,M,3.00,0.00,30.12,1013.30,10.00,M,FEW,FEW,M,M,10000.00,14000.00,M,M,M,M,M,M,M,M,M,72.00,KRNO 181355Z VRB03KT 10SM FEW100 FEW140 22/08 A3012 RMK AO2 SLP133 T02220078,M
RTS,2023-07-18 13:55,-119.8764,39.6682,1539.00,64.40,41.00,42.28,330.00,4.00,0.00,30.16,M,10.00,M,CLR,M,M,M,M,M,M,M,M,M,M,M,M,M,M,64.40,KRTS 181355Z AUTO 33004KT 10SM CLR 18/05 A3016 RMK AO2,M
05U,2023-07-18 13:55,-116.0051,39.6042,1811.23,69.80,48.20,46.16,M,M,0.00,30.23,M,9.00,M,FEW,FEW,SCT,M,2900.00,3900.00,5500.00,M,M,M,M,M,M,M,M,69.80,K05U 181355Z AUTO 9SM FEW029 FEW039 SCT055 21/09 A3023 RMK A01,M
MEV,2023-07-18 13:55,-119.7500,38.9963,1441.42,62.60,53.60,72.38,140.00,3.00,0.00,30.13,M,10.00,M,CLR,M,M,M,M,M,M,M,M,M,M,M,M,M,M,62.60,KMEV 181355Z AUTO 14003KT 10SM CLR 17/12 A3013 RMK AO2,M
BAM,2023-07-18 13:55,-116.8743,40.5990,1382.36,64.40,46.40,51.98,0.00,0.00,0.00,30.12,M,10.00,M,CLR,M,M,M,M,M,M,M,M,M,M,M,M,M,M,64.40,KBAM 181355Z AUTO 00000KT 10SM CLR 18/08 A3012 RMK AO1,M
HTH,2023-07-18 13:55,-118.6315,38.5448,1282.89,77.00,55.40,47.25,290.00,3.00,0.00,30.09,M,10.00,M,M,M,M,M,M,M,M,M,M,M,M,M,M,M,M,77.00,KHTH 181355Z AUTO 29003KT 10SM 25/13 A3009 RMK A01,M
TMT,2023-07-18 13:55,-117.1971,39.4643,1749.34,64.60,53.00,66.01,170.00,5.00,0.00,30.26,M,10.00,M,SCT,OVC,M,M,7000.00,10000.00,M,M,M,M,M,M,M,M,M,64.60,KTMT 181355Z AUTO 17005KT 10SM SCT070 OVC100 18/12 A3026 RMK AO2 T01810116,M
LSV,2023-07-18 13:55,-115.0343,36.2362,570.00,93.00,55.00,27.87,0.00,0.00,0.00,29.87,1008.30,10.00,M,CLR,M,M,M,M,M,M,M,M,M,M,M,M,M,M,91.03,KLSV 181355Z AUTO 00000KT 10SM CLR 34/13 A2987 RMK AO2 SLP083 T03380127 $,M
EKO,2023-07-18 13:56,-115.7860,40.8242,1367.00,65.00,47.00,52.07,0.00,0.00,0.00,30.15,1014.70,10.00,M,CLR,M,M,M,M,M,M,M,M,M,M,M,M,M,M,65.00,KEKO 181356Z AUTO 00000KT 10SM CLR 18/08 A3015 RMK AO2 SLP147 T01830083,M
WMC,2023-07-18 13:56,-117.8072,40.9019,1315.00,M,M,M,M,M,0.00,30.10,M,M,M,M,M,M,M,M,M,M,M,M,M,M,M,M,M,M,M,KWMC 181356Z AUTO A3010 RMK AO2 SLPNO PWINO FZRANO $,M
NFL,2023-07-18 13:56,-118.7010,39.4166,1199.00,72.00,58.00,61.37,160.00,6.00,0.00,30.06,1014.80,10.00,M,CLR,M,M,M,M,M,M,M,M,M,M,M,M,M,M,72.00,KNFL 181356Z AUTO 16006KT 10SM CLR 22/14 A3006 RMK AO2 SLP148 T02220144,M
HND,2023-07-18 13:56,-115.1344,35.9729,742.79,91.00,53.00,27.57,190.00,9.00,0.00,29.97,1012.30,10.00,M,CLR,M,M,M,M,M,M,M,M,M,M,M,M,M,M,88.55,KHND 181356Z 19009KT 10SM CLR 33/12 A2997 RMK AO2 SLP123 T03280117,M
TPH,2023-07-18 13:56,-117.0904,38.0505,1654.00,70.00,48.00,45.50,340.00,6.00,0.00,30.19,1012.70,10.00,M,SCT,M,M,M,11000.00,M,M,M,M,M,M,M,M,M,M,70.00,KTPH 181356Z AUTO 34006KT 10SM SCT110 21/09 A3019 RMK AO2 LTG DSNT E SLP127 T02110089,M
LAS,2023-07-18 13:56,-115.1634,36.0719,663.00,92.00,52.00,25.76,180.00,8.00,0.00,29.91,1009.50,10.00,M,FEW,M,M,M,22000.00,M,M,M,M,M,M,M,M,M,M,89.31,KLAS 181356Z 18008KT 10SM FEW220 33/11 A2991 RMK AO2 SLP095 T03330111,M
BVU,2023-07-18 14:15,-114.8611,35.9475,671.00,93.20,53.60,26.31,270.00,4.00,0.00,29.93,M,10.00,M,CLR,M,M,M,M,M,M,M,M,M,M,M,M,M,M,90.86,KBVU 181415Z AUTO 27004KT 10SM CLR 34/12 A2993 RMK AO2,M
CXP,2023-07-18 14:15,-119.7326,39.1923,1431.00,68.00,53.60,59.97,0.00,0.00,0.00,30.15,M,10.00,M,CLR,M,M,M,M,M,M,M,M,M,M,M,M,M,M,68.00,KCXP 181415Z AUTO 00000KT 10SM CLR 20/12 A3015 RMK AO2,M
RTS,2023-07-18 14:15,-119.8764,39.6682,1539.00,69.80,41.00,35.09,0.00,0.00,0.00,30.17,M,10.00,M,CLR,M,M,M,M,M,M,M,M,M,M,M,M,M,M,69.80,KRTS 181415Z AUTO 00000KT 10SM CLR 21/05 A3017 RMK AO2,M
05U,2023-07-18 14:15,-116.0051,39.6042,1811.23,71.60,48.20,43.42,M,M,0.00,30.23,M,10.00,M,CLR,M,M,M,M,M,M,M,M,M,M,M,M,M,M,71.60,K05U 181415Z AUTO 10SM CLR 22/09 A3023 RMK A01,M
MEV,2023-07-18 14:15,-119.7500,38.9963,1441.42,68.00,53.60,59.97,0.00,0.00,0.00,30.13,M,9.00,M,CLR,M,M,M,M,M,M,M,M,M,M,M,M,M,M,68.00,KMEV 181415Z AUTO 00000KT 9SM CLR 20/12 A3013 RMK AO2,M
BAM,2023-07-18 14:15,-116.8743,40.5990,1382.36,68.00,46.40,45.88,0.00,0.00,0.00,30.12,M,10.00,M,CLR,M,M,M,M,M,M,M,M,M,M,M,M,M,M,68.00,KBAM 181415Z AUTO 00000KT 10SM CLR 20/08 A3012 RMK AO1,M
HTH,2023-07-18 14:15,-118.6315,38.5448,1282.89,77.00,57.20,50.43,0.00,0.00,0.00,30.10,M,10.00,M,CLR,M,M,M,M,M,M,M,M,M,M,M,M,M,M,77.00,KHTH 181415Z AUTO 00000KT 10SM CLR 25/14 A3010 RMK A01,M
TMT,2023-07-18 14:15,-117.1971,39.4643,1749.34,61.30,54.50,78.32,120.00,7.00,0.00,30.26,M,10.00,M,OVC,M,M,M,10000.00,M,M,M,M,M,M,M,M,M,M,61.30,KTMT 181415Z AUTO 12007KT 10SM OVC100 16/13 A3026 RMK AO2 T01630125,M
BVU,2023-07-18 14:35,-114.8611,35.9475,671.00,95.00,53.60,24.89,0.00,0.00,0.00,29.93,M,10.00,M,CLR,M,M,M,M,M,M,M,M,M,M,M,M,M,M,92.71,KBVU 181435Z AUTO 00000KT 10SM CLR 35/12 A2993 RMK AO2,M
CXP,2023-07-18 14:35,-119.7326,39.1923,1431.00,69.80,51.80,52.77,0.00,0.00,0.00,30.15,M,10.00,M,CLR,M,M,M,M,M,M,M,M,M,M,M,M,M,M,69.80,KCXP 181435Z AUTO 00000KT 10SM CLR 21/11 A3015 RMK AO2,M
RTS,2023-07-18 14:35,-119.8764,39.6682,1539.00,M,M,M,0.00,0.00,0.00,30.17,M,M,M,M,M,M,M,M,M,M,M,M,M,M,M,M,M,M,M,KRTS 181435Z AUTO 00000KT A3017 RMK AO2 PWINO,M
05U,2023-07-18 14:35,-116.0051,39.6042,1811.23,73.40,46.40,38.18,M,M,0.00,30.24,M,10.00,M,SCT,M,M,M,11000.00,M,M,M,M,M,M,M,M,M,M,73.40,K05U 181435Z AUTO 10SM SCT110 23/08 A3024 RMK A01,M
MEV,2023-07-18 14:35,-119.7500,38.9963,1441.42,71.60,51.80,49.64,0.00,0.00,0.00,30.14,M,10.00,M,CLR,M,M,M,M,M,M,M,M,M,M,M,M,M,M,71.60,KMEV 181435Z AUTO 00000KT 10SM CLR 22/11 A3014 RMK AO2,M
BAM,2023-07-18 14:35,-116.8743,40.5990,1382.36,69.80,50.00,49.37,40.00,3.00,0.00,30.13,M,10.00,M,CLR,M,M,M,M,M,M,M,M,M,M,M,M,M,M,69.80,KBAM 181435Z AUTO 04003KT 10SM CLR 21/10 A3013 RMK AO1,M
HTH,2023-07-18 14:35,-118.6315,38.5448,1282.89,77.00,59.00,53.80,0.00,0.00,0.00,30.10,M,10.00,M,CLR,M,M,M,M,M,M,M,M,M,M,M,M,M,M,77.00,KHTH 181435Z AUTO 00000KT 10SM CLR 25/15 A3010 RMK A01,M
TMT,2023-07-18 14:35,-117.1971,39.4643,1749.34,63.00,54.50,73.76,130.00,9.00,0.00,30.25,M,10.00,M,SCT,SCT,OVC,M,3700.00,4700.00,11000.00,M,M,M,M,M,M,M,M,63.00,KTMT 181435Z AUTO 13009KT 10SM SCT037 SCT047 OVC110 17/13 A3025 RMK AO2 T01730125,M
NFL,2023-07-18 14:46,-118.7010,39.4166,1199.00,78.00,58.00,50.22,130.00,4.00,0.00,30.07,M,10.00,M,FEW,SCT,SCT,M,7000.00,10000.00,17000.00,M,M,M,M,M,M,M,M,78.00,KNFL 181446Z 13004KT 10SM FEW070 SCT100 SCT170 26/14 A3007 RMK AO2 T02560144,M
P68,2023-07-18 14:53,-116.0056,39.6014,1993.00,74.00,46.00,36.85,130.00,5.00,0.00,30.23,1013.80,M,M,M,M,M,M,M,M,M,M,M,M,M,M,M,M,M,74.00,KP68 181453Z AUTO 13005KT 23/08 A3023 RMK AO1 SLP138 T02330078 53007,M
DRA,2023-07-18 14:53,-116.0278,36.6206,1009.00,94.00,52.00,24.20,220.00,4.00,0.00,30.00,1009.40,10.00,M,CLR,M,M,M,M,M,M,M,M,M,M,M,M,M,M,91.30,KDRA 181453Z AUTO 22004KT 10SM CLR 34/11 A3000 RMK AO2 SLP094 T03440111 51007,M
ELY,2023-07-18 14:53,-114.8453,39.2950,1909.00,M,M,M,M,M,0.00,30.27,M,M,M,M,M,M,M,M,M,M,M,M,M,M,M,M,M,M,M,KELY 181453Z AUTO A3027 RMK AO2 SLPNO 53006 PWINO FZRANO,M
VGT,2023-07-18 14:53,-115.1933,36.2111,667.00,97.00,53.00,22.90,M,3.00,0.00,29.92,1011.40,10.00,M,CLR,M,M,M,M,M,M,M,M,M,M,M,M,M,M,94.64,KVGT 181453Z VRB03KT 10SM CLR 36/12 A2992 RMK AO2 SLP114 T03610117 53011,M
LOL,2023-07-18 14:53,-118.5701,40.0684,1192.43,75.00,50.00,41.41,0.00,0.00,0.00,30.07,1013.50,10.00,M,CLR,M,M,M,M,M,M,M,M,M,M,M,M,M,M,75.00,KLOL 181453Z AUTO 00000KT 10SM CLR 24/10 A3007 RMK AO2 SLP135 T02390100 52012,M
BVU,2023-07-18 14:55,-114.8611,35.9475,671.00,95.00,53.60,24.89,0.00,0.00,0.00,29.93,M,10.00,M,CLR,M,M,M,M,M,M,M,M,M,M,M,M,M,M,92.71,KBVU 181455Z AUTO 00000KT 10SM CLR 35/12 A2993 RMK AO2,M
CXP,2023-07-18 14:55,-119.7326,39.1923,1431.00,73.40,53.60,49.90,0.00,0.00,0.00,30.15,M,10.00,M,CLR,M,M,M,M,M,M,M,M,M,M,M,M,M,M,73.40,KCXP 181455Z AUTO 00000KT 10SM CLR 23/12 A3015 RMK AO2,M
INS,2023-07-18 14:55,-115.6733,36.5872,955.00,92.30,49.00,22.83,310.00,5.00,0.00,29.99,1009.20,10.00,M,CLR,M,M,M,M,M,M,M,M,M,M,M,M,M,M,89.06,KINS 181455Z AUTO 31005KT 10SM CLR 34/10 A2999 RMK AO2 SLP092 T03350095 52008 $,M
RNO,2023-07-18 14:55,-119.7711,39.4839,1341.00,74.00,49.00,41.26,0.00,0.00,0.00,30.13,1013.50,10.00,M,FEW,M,M,M,12000.00,M,M,M,M,M,M,M,M,M,M,74.00,KRNO 181455Z 00000KT 10SM FEW120 23/09 A3013 RMK AO2 SLP135 T02330094 51008,M
LSV,2023-07-18 14:55,-115.0343,36.2362,570.00,98.40,53.00,21.94,150.00,7.00,0.00,29.88,1008.50,10.00,M,CLR,M,M,M,M,M,M,M,M,M,M,M,M,M,M,96.12,KLSV 181455Z AUTO 15007KT 10SM CLR 37/12 A2988 RMK AO2 SLP085 T03690116 $,M
RTS,2023-07-18 14:55,-119.8764,39.6682,1539.00,73.40,41.00,31.05,0.00,0.00,0.00,30.17,M,10.00,M,M,M,M,M,M,M,M,M,M,M,M,M,M,M,M,73.40,KRTS 181455Z AUTO 00000KT 10SM 23/05 A3017 RMK AO2,M
05U,2023-07-18 14:55,-116.0051,39.6042,1811.23,73.40,46.40,38.18,M,M,0.00,30.25,M,10.00,M,FEW,M,M,M,11000.00,M,M,M,M,M,M,M,M,M,M,73.40,K05U 181455Z AUTO 10SM FEW110 23/08 A3025 RMK A01,M
MEV,2023-07-18 14:55,-119.7500,38.9963,1441.42,73.40,51.80,46.71,0.00,0.00,0.00,30.14,M,10.00,M,CLR,M,M,M,M,M,M,M,M,M,M,M,M,M,M,73.40,KMEV 181455Z AUTO 00000KT 10SM CLR 23/11 A3014 RMK AO2,M
BAM,2023-07-18 14:55,-116.8743,40.5990,1382.36,73.40,46.40,38.18,0.00,0.00,0.00,30.13,M,10.00,M,CLR,M,M,M,M,M,M,M,M,M,M,M,M,M,M,73.40,KBAM 181455Z AUTO 00000KT 10SM CLR 23/08 A3013 RMK AO1,M
HTH,2023-07-18 14:55,-118.6315,38.5448,1282.89,77.00,59.00,53.80,0.00,0.00,0.00,30.10,M,10.00,M,CLR,M,M,M,M,M,M,M,M,M,M,M,M,M,M,77.00,KHTH 181455Z AUTO 00000KT 10SM CLR 25/15 A3010 RMK A01,M
EKO,2023-07-18 14:56,-115.7860,40.8242,1367.00,72.00,48.00,42.51,90.00,4.00,0.00,30.16,1014.80,10.00,M,CLR,M,M,M,M,M,M,M,M,M,M,M,M,M,M,72.00,KEKO 181456Z AUTO 09004KT 10SM CLR 22/09 A3016 RMK AO2 SLP148 T02220089 53008,M
WMC,2023-07-18 14:56,-117.8072,40.9019,1315.00,M,M,M,M,M,0.00,30.11,M,M,M,M,M,M,M,M,M,M,M,M,M,M,M,M,M,M,M,KWMC 181456Z AUTO A3011 RMK AO2 SLPNO 51012 PWINO FZRANO $,M
NFL,2023-07-18 14:56,-118.7010,39.4166,1199.00,79.00,58.00,48.59,0.00,0.00,0.00,30.07,1015.00,10.00,M,FEW,SCT,SCT,M,7000.00,10000.00,17000.00,M,M,M,M,M,M,M,M,79.00,KNFL 181456Z 00000KT 10SM FEW070 SCT100 SCT170 26/14 A3007 RMK AO2 SLP150 T02610144 51007,M
HND,2023-07-18 14:56,-115.1344,35.9729,742.79,95.00,53.00,24.35,200.00,12.00,0.00,29.98,1012.60,10.00,M,CLR,M,M,M,M,M,M,M,M,M,M,M,M,M,M,92.55,KHND 181456Z 20012KT 10SM CLR 35/12 A2998 RMK AO2 SLP126 T03500117 52009,M
TPH,2023-07-18 14:56,-117.0904,38.0505,1654.00,80.00,47.00,31.37,0.00,0.00,0.00,30.19,1012.10,10.00,M,CLR,M,M,M,M,M,M,M,M,M,M,M,M,M,M,79.28,KTPH 181456Z AUTO 00000KT 10SM CLR 27/08 A3019 RMK AO2 SLP121 T02670083 51009,M
LAS,2023-07-18 14:56,-115.1634,36.0719,663.00,94.00,52.00,24.20,180.00,7.00,0.00,29.93,1010.00,10.00,16.00,SCT,M,M,M,22000.00,M,M,M,M,M,M,M,M,M,M,91.30,KLAS 181456Z 18007G16KT 10SM SCT220 34/11 A2993 RMK AO2 SLP100 T03440111 53010,M
BVU,2023-07-18 15:15,-114.8611,35.9475,671.00,95.00,53.60,24.89,90.00,4.00,0.00,29.94,M,10.00,M,CLR,M,M,M,M,M,M,M,M,M,M,M,M,M,M,92.71,KBVU 181515Z AUTO 09004KT 10SM CLR 35/12 A2994 RMK AO2,M
CXP,2023-07-18 15:15,-119.7326,39.1923,1431.00,77.00,51.80,41.42,0.00,0.00,0.00,30.15,M,10.00,M,CLR,M,M,M,M,M,M,M,M,M,M,M,M,M,M,77.00,KCXP 181515Z AUTO 00000KT 10SM CLR 25/11 A3015 RMK AO2,M
RTS,2023-07-18 15:15,-119.8764,39.6682,1539.00,75.20,41.00,29.23,0.00,0.00,0.00,30.17,M,10.00,M,CLR,M,M,M,M,M,M,M,M,M,M,M,M,M,M,75.20,KRTS 181515Z AUTO 00000KT 10SM CLR 24/05 A3017 RMK AO2,M
05U,2023-07-18 15:15,-116.0051,39.6042,1811.23,78.80,44.60,29.79,M,M,0.00,30.26,M,10.00,M,CLR,M,M,M,M,M,M,M,M,M,M,M,M,M,M,78.80,K05U 181515Z AUTO 10SM CLR 26/07 A3026 RMK A01,M
MEV,2023-07-18 15:15,-119.7500,38.9963,1441.42,75.20,51.80,43.97,0.00,0.00,0.00,30.13,M,10.00,M,CLR,M,M,M,M,M,M,M,M,M,M,M,M,M,M,75.20,KMEV 181515Z AUTO 00000KT 10SM CLR 24/11 A3013 RMK AO2,M
BAM,2023-07-18 15:15,-116.8743,40.5990,1382.36,77.00,46.40,33.85,0.00,0.00,0.00,30.14,M,10.00,M,CLR,M,M,M,M,M,M,M,M,M,M,M,M,M,M,77.00,KBAM 181515Z AUTO 00000KT 10SM CLR 25/08 A3014 RMK AO1,M
HTH,2023-07-18 15:15,-118.6315,38.5448,1282.89,78.80,60.80,54.05,0.00,0.00,0.00,30.11,M,10.00,M,CLR,M,M,M,M,M,M,M,M,M,M,M,M,M,M,78.80,KHTH 181515Z AUTO 00000KT 10SM CLR 26/16 A3011 RMK A01,M
TMT,2023-07-18 15:15,-117.1971,39.4643,1749.34,68.00,55.00,63.12,280.00,11.00,0.00,30.24,M,10.00,14.00,BKN,M,M,M,11000.00,M,M,M,M,M,M,M,M,M,M,68.00,KTMT 181515Z AUTO 28011G14KT 10SM BKN110 20/13 A3024 RMK AO2 T01990128,M
BVU,2023-07-18 15:35,-114.8611,35.9475,671.00,96.80,53.60,23.55,160.00,3.00,0.00,29.94,M,10.00,M,CLR,M,M,M,M,M,M,M,M,M,M,M,M,M,M,94.59,KBVU 181535Z AUTO 16003KT 10SM CLR 36/12 A2994 RMK AO2,M
CXP,2023-07-18 15:35,-119.7326,39.1923,1431.00,78.80,50.00,36.51,0.00,0.00,0.00,30.15,M,10.00,M,CLR,M,M,M,M,M,M,M,M,M,M,M,M,M,M,78.80,KCXP 181535Z AUTO 00000KT 10SM CLR 26/10 A3015 RMK AO2,M
RTS,2023-07-18 15:35,-119.8764,39.6682,1539.00,75.20,44.60,33.57,0.00,0.00,0.00,30.17,M,10.00,M,CLR,M,M,M,M,M,M,M,M,M,M,M,M,M,M,75.20,KRTS 181535Z AUTO 00000KT 10SM CLR 24/07 A3017 RMK AO2,M
05U,2023-07-18 15:35,-116.0051,39.6042,1811.23,78.80,44.60,29.79,M,M,0.00,30.27,M,10.00,M,CLR,M,M,M,M,M,M,M,M,M,M,M,M,M,M,78.80,K05U 181535Z AUTO 10SM CLR 26/07 A3027 RMK A01,M
MEV,2023-07-18 15:35,-119.7500,38.9963,1441.42,77.00,51.80,41.42,M,3.00,0.00,30.13,M,10.00,M,CLR,M,M,M,M,M,M,M,M,M,M,M,M,M,M,77.00,KMEV 181535Z AUTO VRB03KT 10SM CLR 25/11 A3013 RMK AO2,M
BAM,2023-07-18 15:35,-116.8743,40.5990,1382.36,78.80,48.20,34.13,10.00,3.00,0.00,30.14,M,10.00,M,CLR,M,M,M,M,M,M,M,M,M,M,M,M,M,M,78.80,KBAM 181535Z AUTO 01003KT 10SM CLR 26/09 A3014 RMK AO1,M
HTH,2023-07-18 15:35,-118.6315,38.5448,1282.89,78.80,64.40,61.36,320.00,4.00,0.00,30.10,M,10.00,M,CLR,M,M,M,M,M,M,M,M,M,M,M,M,M,M,78.80,KHTH 181535Z AUTO 32004KT 10SM CLR 26/18 A3010 RMK A01,M
TMT,2023-07-18 15:35,-117.1971,39.4643,1749.34,67.30,56.00,67.05,300.00,4.00,0.00,30.24,M,10.00,M,BKN,M,M,M,11000.00,M,M,M,M,M,M,M,M,M,M,67.30,KTMT 181535Z AUTO 30004KT 10SM BKN110 20/13 A3024 RMK AO2 T01960133,M
P68,2023-07-18 15:53,-116.0056,39.6014,1993.00,80.00,46.00,30.20,250.00,6.00,0.00,30.25,1014.80,M,M,M,M,M,M,M,M,M,M,M,M,M,M,M,M,M,79.20,KP68 181553Z AUTO 25006KT 27/08 A3025 RMK AO1 SLP148 T02670078,M
DRA,2023-07-18 15:53,-116.0278,36.6206,1009.00,97.00,51.00,21.27,190.00,13.00,0.00,30.00,1009.50,10.00,20.00,CLR,M,M,M,M,M,M,M,M,M,M,M,M,M,M,94.14,KDRA 181553Z AUTO 19013G20KT 10SM CLR 36/11 A3000 RMK AO2 SLP095 T03610106,M
ELY,2023-07-18 15:53,-114.8453,39.2950,1909.00,M,M,M,M,M,0.00,30.27,M,M,M,M,M,M,M,M,M,M,M,M,M,M,M,M,M,M,M,KELY 181553Z AUTO A3027 RMK AO2 SLPNO PWINO FZRANO,M
VGT,2023-07-18 15:53,-115.1933,36.2111,667.00,99.00,53.00,21.54,130.00,6.00,0.00,29.93,1011.50,10.00,M,CLR,M,M,M,M,M,M,M,M,M,M,M,M,M,M,96.76,KVGT 181553Z 13006KT 10SM CLR 37/12 A2993 RMK AO2 SLP115 T03720117,M
LOL,2023-07-18 15:53,-118.5701,40.0684,1192.43,83.00,47.00,28.45,M,4.00,0.00,30.07,1013.30,10.00,M,CLR,M,M,M,M,M,M,M,M,M,M,M,M,M,M,81.09,KLOL 181553Z AUTO VRB04KT 10SM CLR 28/08 A3007 RMK AO2 SLP133 T02830083,M
BVU,2023-07-18 15:55,-114.8611,35.9475,671.00,98.60,53.60,22.29,160.00,4.00,0.00,29.94,M,10.00,M,CLR,M,M,M,M,M,M,M,M,M,M,M,M,M,M,96.51,KBVU 181555Z AUTO 16004KT 10SM CLR 37/12 A2994 RMK AO2,M
CXP,2023-07-18 15:55,-119.7326,39.1923,1431.00,80.60,48.20,32.18,0.00,0.00,0.00,30.15,M,10.00,M,CLR,M,M,M,M,M,M,M,M,M,M,M,M,M,M,79.71,KCXP 181555Z AUTO 00000KT 10SM CLR 27/09 A3015 RMK AO2,M
INS,2023-07-18 15:55,-115.6733,36.5872,955.00,95.00,46.40,19.04,0.00,0.00,0.00,29.99,1009.20,10.00,M,CLR,M,M,M,M,M,M,M,M,M,M,M,M,M,M,91.29,KINS 181555Z AUTO 00000KT 10SM CLR 35/08 A2999 RMK AO2 SLP092 T03510080 $,M
RNO,2023-07-18 15:55,-119.7711,39.4839,1341.00,76.00,47.00,35.80,0.00,0.00,0.00,30.12,1013.60,10.00,M,FEW,M,M,M,12000.00,M,M,M,M,M,M,M,M,M,M,76.00,KRNO 181555Z 00000KT 10SM FEW120 24/08 A3012 RMK AO2 SLP136 T02440083,M
LSV,2023-07-18 15:55,-115.0343,36.2362,570.00,100.20,53.20,20.93,90.00,5.00,0.00,29.88,M,10.00,M,CLR,M,M,M,M,M,M,M,M,M,M,M,M,M,M,98.10,KLSV 181555Z AUTO 09005KT 10SM CLR 38/12 A2988 RMK AO2 SLPNO T03790118 $,M
RTS,2023-07-18 15:55,-119.8764,39.6682,1539.00,77.00,41.00,27.53,0.00,0.00,0.00,30.17,M,10.00,M,CLR,M,M,M,M,M,M,M,M,M,M,M,M,M,M,77.00,KRTS 181555Z AUTO 00000KT 10SM CLR 25/05 A3017 RMK AO2,M
05U,2023-07-18 15:55,-116.0051,39.6042,1811.23,80.60,44.60,28.08,M,M,0.00,30.28,M,10.00,M,FEW,M,M,M,11000.00,M,M,M,M,M,M,M,M,M,M,79.42,K05U 181555Z AUTO 10SM FEW110 27/07 A3028 RMK A01,M
MEV,2023-07-18 15:55,-119.7500,38.9963,1441.42,78.80,53.60,41.69,0.00,0.00,0.00,30.13,M,7.00,M,CLR,M,M,M,M,M,M,M,M,M,M,M,M,M,M,78.80,KMEV 181555Z AUTO 00000KT 7SM CLR 26/12 A3013 RMK AO2,M
BAM,2023-07-18 15:55,-116.8743,40.5990,1382.36,80.60,46.40,30.07,0.00,0.00,0.00,30.14,M,10.00,M,CLR,M,M,M,M,M,M,M,M,M,M,M,M,M,M,79.56,KBAM 181555Z AUTO 00000KT 10SM CLR 27/08 A3014 RMK AO1,M
HTH,2023-07-18 15:55,-118.6315,38.5448,1282.89,78.80,64.40,61.36,M,3.00,0.00,30.11,M,10.00,M,CLR,M,M,M,M,M,M,M,M,M,M,M,M,M,M,78.80,KHTH 181555Z AUTO VRB03KT 10SM CLR 26/18 A3011 RMK A01,M
TMT,2023-07-18 15:55,-117.1971,39.4643,1749.34,71.00,55.40,57.80,330.00,6.00,0.00,30.23,M,10.00,M,BKN,M,M,M,12000.00,M,M,M,M,M,M,M,M,M,M,71.00,KTMT 181555Z AUTO 33006KT 10SM BKN120 22/13 A3023 RMK AO2 T02160130,M
EKO,2023-07-18 15:56,-115.7860,40.8242,1367.00,78.00,47.00,33.50,100.00,4.00,0.00,30.16,1014.30,10.00,M,CLR,M,M,M,M,M,M,M,M,M,M,M,M,M,M,78.00,KEKO 181556Z AUTO 10004KT 10SM CLR 26/08 A3016 RMK AO2 SLP143 T02560083,M
WMC,2023-07-18 15:56,-117.8072,40.9019,1315.00,M,M,M,M,M,0.00,30.11,M,M,M,M,M,M,M,M,M,M,M,M,M,M,M,M,M,M,M,KWMC 181556Z AUTO A3011 RMK AO2 SLPNO PWINO FZRANO $,M
NFL,2023-07-18 15:56,-118.7010,39.4166,1199.00,84.00,56.00,38.42,M,3.00,0.00,30.07,1015.00,10.00,M,FEW,SCT,SCT,M,7000.00,12000.00,17000.00,M,M,M,M,M,M,M,M,83.05,KNFL 181556Z VRB03KT 10SM FEW070 SCT120 SCT170 29/13 A3007 RMK AO2 SLP150 T02890133,M
HND,2023-07-18 15:56,-115.1344,35.9729,742.79,99.00,54.00,22.35,200.00,9.00,0.00,29.98,1012.80,10.00,M,CLR,M,M,M,M,M,M,M,M,M,M,M,M,M,M,97.06,KHND 181556Z 20009KT 10SM CLR 37/12 A2998 RMK AO2 SLP128 T03720122,M
TPH,2023-07-18 15:56,-117.0904,38.0505,1654.00,83.00,48.00,29.54,130.00,9.00,0.00,30.19,1012.10,10.00,M,CLR,M,M,M,M,M,M,M,M,M,M,M,M,M,M,81.18,KTPH 181556Z AUTO 13009KT 10SM CLR 28/09 A3019 RMK AO2 SLP121 T02830089,M
LAS,2023-07-18 15:56,-115.1634,36.0719,663.00,97.00,52.00,22.07,170.00,7.00,0.00,29.94,1010.10,10.00,15.00,FEW,FEW,M,M,18000.00,22000.00,M,M,M,M,M,M,M,M,M,94.38,KLAS 181556Z 17007G15KT 10SM FEW180 FEW220 36/11 A2994 RMK AO2 SLP101 T03610111,M
BVU,2023-07-18 16:15,-114.8611,35.9475,671.00,98.60,51.80,20.87,250.00,6.00,0.00,29.94,M,10.00,M,CLR,M,M,M,M,M,M,M,M,M,M,M,M,M,M,96.00,KBVU 181615Z AUTO 25006KT 10SM CLR 37/11 A2994 RMK AO2,M
CXP,2023-07-18 16:15,-119.7326,39.1923,1431.00,82.40,48.20,30.35,0.00,0.00,0.00,30.14,M,10.00,M,CLR,M,M,M,M,M,M,M,M,M,M,M,M,M,M,80.80,KCXP 181615Z AUTO 00000KT 10SM CLR 28/09 A3014 RMK AO2,M
RTS,2023-07-18 16:15,-119.8764,39.6682,1539.00,80.60,39.20,22.81,0.00,0.00,0.00,30.17,M,10.00,M,CLR,M,M,M,M,M,M,M,M,M,M,M,M,M,M,79.10,KRTS 181615Z AUTO 00000KT 10SM CLR 27/04 A3017 RMK AO2,M
05U,2023-07-18 16:15,-116.0051,39.6042,1811.23,80.60,44.60,28.08,M,M,0.00,30.28,M,10.00,M,CLR,M,M,M,M,M,M,M,M,M,M,M,M,M,M,79.42,K05U 181615Z AUTO 10SM CLR 27/07 A3028 RMK A01,M
MEV,2023-07-18 16:15,-119.7500,38.9963,1441.42,80.60,51.80,36.79,0.00,0.00,0.00,30.13,M,10.00,M,CLR,M,M,M,M,M,M,M,M,M,M,M,M,M,M,80.08,KMEV 181615Z AUTO 00000KT 10SM CLR 27/11 A3013 RMK AO2,M
BAM,2023-07-18 16:15,-116.8743,40.5990,1382.36,80.60,46.40,30.07,0.00,0.00,0.00,30.14,M,10.00,M,CLR,M,M,M,M,M,M,M,M,M,M,M,M,M,M,79.56,KBAM 181615Z AUTO 00000KT 10SM CLR 27/08 A3014 RMK AO1,M
HTH,2023-07-18 16:15,-118.6315,38.5448,1282.89,80.60,60.80,50.95,0.00,0.00,0.00,30.11,M,10.00,M,CLR,M,M,M,M,M,M,M,M,M,M,M,M,M,M,81.46,KHTH 181615Z AUTO 00000KT 10SM CLR 27/16 A3011 RMK A01,M
BVU,2023-07-18 16:35,-114.8611,35.9475,671.00,100.40,51.80,19.76,M,4.00,0.00,29.94,M,10.00,M,CLR,M,M,M,M,M,M,M,M,M,M,M,M,M,M,97.90,KBVU 181635Z AUTO VRB04KT 10SM CLR 38/11 A2994 RMK AO2,M
RTS,2023-07-18 16:35,-119.8764,39.6682,1539.00,80.60,37.40,21.25,110.00,3.00,0.00,30.17,M,10.00,M,CLR,M,M,M,M,M,M,M,M,M,M,M,M,M,M,79.02,KRTS 181635Z AUTO 11003KT 10SM CLR 27/03 A3017 RMK AO2,M
BAM,2023-07-18 16:35,-116.8743,40.5990,1382.36,82.40,46.40,28.36,0.00,0.00,0.00,30.14,M,10.00,M,CLR,M,M,M,M,M,M,M,M,M,M,M,M,M,M,80.64,KBAM 181635Z AUTO 00000KT 10SM CLR 28/08 A3014 RMK AO1,M
TMT,2023-07-18 16:35,-117.1971,39.4643,1749.34,72.70,56.00,55.76,0.00,0.00,0.00,30.24,M,10.00,M,BKN,M,M,M,12000.00,M,M,M,M,M,M,M,M,M,M,72.70,KTMT 181635Z AUTO 00000KT 10SM BKN120 23/13 A3024 RMK AO2 T02260133,M
CXP,2023-07-18 16:35,-119.7326,39.1923,1431.00,84.20,48.20,28.63,0.00,0.00,0.00,30.14,M,10.00,M,CLR,M,M,M,M,M,M,M,M,M,M,M,M,M,M,82.04,KCXP 181635Z AUTO 00000KT 10SM CLR 29/09 A3014 RMK AO2,M
05U,2023-07-18 16:35,-116.0051,39.6042,1811.23,80.60,44.60,28.08,M,M,0.00,30.28,M,10.00,M,CLR,M,M,M,M,M,M,M,M,M,M,M,M,M,M,79.42,K05U 181635Z AUTO 10SM CLR 27/07 A3028 RMK A01,M
MEV,2023-07-18 16:35,-119.7500,38.9963,1441.42,82.40,51.80,34.69,0.00,0.00,0.00,30.13,M,9.00,M,CLR,M,M,M,M,M,M,M,M,M,M,M,M,M,M,81.20,KMEV 181635Z AUTO 00000KT 9SM CLR 28/11 A3013 RMK AO2,M
HTH,2023-07-18 16:35,-118.6315,38.5448,1282.89,82.40,60.80,48.05,0.00,0.00,0.00,30.10,M,10.00,M,CLR,M,M,M,M,M,M,M,M,M,M,M,M,M,M,82.90,KHTH 181635Z AUTO 00000KT 10SM CLR 28/16 A3010 RMK A01,M
05U,2023-07-18 16:50,-116.0051,39.6042,1811.23,84.20,44.60,24.99,M,M,0.00,30.27,M,10.00,M,CLR,M,M,M,M,M,M,M,M,M,M,M,M,M,M,81.73,K05U 181650Z AUTO 10SM CLR 29/07 A3027 RMK A01,M
P68,2023-07-18 16:53,-116.0056,39.6014,1993.00,82.00,45.00,27.24,280.00,5.00,0.00,30.24,1014.40,M,M,M,M,M,M,M,M,M,M,M,M,M,M,M,M,M,80.28,KP68 181653Z AUTO 28005KT 28/07 A3024 RMK AO1 SLP144 T02780072,M
DRA,2023-07-18 16:53,-116.0278,36.6206,1009.00,100.00,50.00,18.71,200.00,19.00,0.00,30.00,1009.30,10.00,26.00,CLR,M,M,M,M,M,M,M,M,M,M,M,27.00,200.00,2023-07-18 16:38,97.00,KDRA 181653Z AUTO 20019G26KT 10SM CLR 38/10 A3000 RMK AO2 PK WND 20027/1638 SLP093 T03780100,M
ELY,2023-07-18 16:53,-114.8453,39.2950,1909.00,M,M,M,M,M,0.00,30.28,M,M,M,M,M,M,M,M,M,M,M,M,M,M,M,M,M,M,M,KELY 181653Z AUTO A3028 RMK AO2 SLPNO PWINO FZRANO,M
VGT,2023-07-18 16:53,-115.1933,36.2111,667.00,103.00,53.00,19.10,130.00,11.00,0.00,29.93,1011.30,10.00,M,CLR,M,M,M,M,M,M,M,M,M,M,M,M,M,M,101.03,KVGT 181653Z 13011KT 10SM CLR 39/12 A2993 RMK AO2 SLP113 T03940117,M
LOL,2023-07-18 16:53,-118.5701,40.0684,1192.43,87.00,48.00,25.98,80.00,5.00,0.00,30.06,1012.90,10.00,M,CLR,M,M,M,M,M,M,M,M,M,M,M,M,M,M,84.18,KLOL 181653Z AUTO 08005KT 10SM CLR 31/09 A3006 RMK AO2 SLP129 T03060089,M
BVU,2023-07-18 16:55,-114.8611,35.9475,671.00,100.40,51.80,19.76,0.00,0.00,0.00,29.94,M,10.00,M,CLR,M,M,M,M,M,M,M,M,M,M,M,M,M,M,97.90,KBVU 181655Z AUTO 00000KT 10SM CLR 38/11 A2994 RMK AO2,M
CXP,2023-07-18 16:55,-119.7326,39.1923,1431.00,86.00,48.20,27.03,0.00,0.00,0.00,30.14,M,10.00,M,CLR,M,M,M,M,M,M,M,M,M,M,M,M,M,M,83.40,KCXP 181655Z AUTO 00000KT 10SM CLR 30/09 A3014 RMK AO2,M
INS,2023-07-18 16:55,-115.6733,36.5872,955.00,97.30,46.80,18.01,40.00,4.00,0.00,29.99,1009.20,10.00,M,CLR,M,M,M,M,M,M,M,M,M,M,M,M,M,M,93.61,KINS 181655Z AUTO 04004KT 10SM CLR 36/08 A2999 RMK AO2 SLP092 T03630082 $,M
RNO,2023-07-18 16:55,-119.7711,39.4839,1341.00,84.00,47.00,27.55,0.00,0.00,0.00,30.11,1012.90,10.00,M,FEW,M,M,M,15000.00,M,M,M,M,M,M,M,M,M,M,81.78,KRNO 181655Z 00000KT 10SM FEW150 29/08 A3011 RMK AO2 SLP129 T02890083,M
LSV,2023-07-18 16:55,-115.0343,36.2362,570.00,103.00,54.00,19.81,130.00,10.00,0.00,29.89,M,10.00,M,CLR,M,M,M,M,M,M,M,M,M,M,M,M,M,M,101.38,KLSV 181655Z AUTO 13010KT 10SM CLR 39/12 A2989 RMK AO2 SLPNO T03940122 $,M
RTS,2023-07-18 16:55,-119.8764,39.6682,1539.00,82.40,37.40,20.04,0.00,0.00,0.00,30.17,M,10.00,M,CLR,M,M,M,M,M,M,M,M,M,M,M,M,M,M,80.14,KRTS 181655Z AUTO 00000KT 10SM CLR 28/03 A3017 RMK AO2,M
MEV,2023-07-18 16:55,-119.7500,38.9963,1441.42,84.20,51.80,32.73,0.00,0.00,0.00,30.13,M,10.00,M,CLR,M,M,M,M,M,M,M,M,M,M,M,M,M,M,82.48,KMEV 181655Z AUTO 00000KT 10SM CLR 29/11 A3013 RMK AO2,M
BAM,2023-07-18 16:55,-116.8743,40.5990,1382.36,84.20,46.40,26.76,0.00,0.00,0.00,30.13,M,10.00,M,CLR,M,M,M,M,M,M,M,M,M,M,M,M,M,M,81.87,KBAM 181655Z AUTO 00000KT 10SM CLR 29/08 A3013 RMK AO1,M
HTH,2023-07-18 16:55,-118.6315,38.5448,1282.89,84.20,51.80,32.73,0.00,0.00,0.00,30.10,M,10.00,M,CLR,M,M,M,M,M,M,M,M,M,M,M,M,M,M,82.48,KHTH 181655Z AUTO 00000KT 10SM CLR 29/11 A3010 RMK A01,M
TMT,2023-07-18 16:55,-117.1971,39.4643,1749.34,72.70,56.70,57.19,90.00,4.00,0.00,30.22,M,10.00,M,SCT,M,M,M,12000.00,M,M,M,M,M,M,M,M,M,M,72.70,KTMT 181655Z AUTO 09004KT 10SM SCT120 23/14 A3022 RMK AO2 T02260137,M
EKO,2023-07-18 16:56,-115.7860,40.8242,1367.00,83.00,49.00,30.67,220.00,3.00,0.00,30.16,1014.00,10.00,M,SCT,M,M,M,12000.00,M,M,M,M,M,M,M,M,M,M,81.28,KEKO 181656Z AUTO 22003KT 10SM SCT120 28/09 A3016 RMK AO2 SLP140 T02830094,M
WMC,2023-07-18 16:56,-117.8072,40.9019,1315.00,M,M,M,M,M,0.00,30.11,M,M,M,M,M,M,M,M,M,M,M,M,M,M,M,M,M,M,M,KWMC 181656Z AUTO A3011 RMK AO2 SLPNO PWINO FZRANO $,M
NFL,2023-07-18 16:56,-118.7010,39.4166,1199.00,88.00,54.00,31.43,0.00,0.00,0.00,30.06,1014.80,10.00,M,SCT,SCT,M,M,10000.00,17000.00,M,M,M,M,M,M,M,M,M,85.98,KNFL 181656Z 00000KT 10SM SCT100 SCT170 31/12 A3006 RMK AO2 SLP148 T03110122,M
HND,2023-07-18 16:56,-115.1344,35.9729,742.79,101.00,53.00,20.28,210.00,11.00,0.00,29.98,1012.80,10.00,M,CLR,M,M,M,M,M,M,M,M,M,M,M,M,M,M,98.89,KHND 181656Z 21011KT 10SM CLR 38/12 A2998 RMK AO2 SLP128 T03830117,M
TPH,2023-07-18 16:56,-117.0904,38.0505,1654.00,86.00,48.00,26.82,190.00,8.00,0.00,30.19,1012.20,10.00,M,CLR,M,M,M,M,M,M,M,M,M,M,M,M,M,M,83.38,KTPH 181656Z AUTO 19008KT 150V220 10SM CLR 30/09 A3019 RMK AO2 SLP122 T03000089,M
LAS,2023-07-18 16:56,-115.1634,36.0719,663.00,101.00,52.00,19.55,180.00,7.00,0.00,29.93,1010.10,10.00,M,FEW,SCT,M,M,14000.00,23000.00,M,M,M,M,M,M,M,M,M,98.59,KLAS 181656Z 18007KT 10SM FEW140 SCT230 38/11 A2993 RMK AO2 SLP101 T03830111,M
BVU,2023-07-18 17:15,-114.8611,35.9475,671.00,100.40,53.60,21.11,0.00,0.00,0.00,29.94,M,10.00,M,CLR,M,M,M,M,M,M,M,M,M,M,M,M,M,M,98.44,KBVU 181715Z AUTO 00000KT 10SM CLR 38/12 A2994 RMK AO2,M
CXP,2023-07-18 17:15,-119.7326,39.1923,1431.00,86.00,48.20,27.03,0.00,0.00,0.00,30.14,M,10.00,M,CLR,M,M,M,M,M,M,M,M,M,M,M,M,M,M,83.40,KCXP 181715Z AUTO 00000KT 10SM CLR 30/09 A3014 RMK AO2,M
RTS,2023-07-18 17:15,-119.8764,39.6682,1539.00,84.20,37.40,18.91,240.00,4.00,0.00,30.17,M,10.00,M,CLR,M,M,M,M,M,M,M,M,M,M,M,M,M,M,81.38,KRTS 181715Z AUTO 24004KT 10SM CLR 29/03 A3017 RMK AO2,M
05U,2023-07-18 17:15,-116.0051,39.6042,1811.23,86.00,44.60,23.59,M,M,0.00,30.27,M,10.00,M,CLR,M,M,M,M,M,M,M,M,M,M,M,M,M,M,83.07,K05U 181715Z AUTO 10SM CLR 30/07 A3027 RMK A01,M
MEV,2023-07-18 17:15,-119.7500,38.9963,1441.42,86.00,46.40,25.26,0.00,0.00,0.00,30.12,M,10.00,M,CLR,M,M,M,M,M,M,M,M,M,M,M,M,M,M,83.22,KMEV 181715Z AUTO 00000KT 10SM CLR 30/08 A3012 RMK AO2,M
BAM,2023-07-18 17:15,-116.8743,40.5990,1382.36,86.00,46.40,25.26,0.00,0.00,0.00,30.13,M,10.00,M,CLR,M,M,M,M,M,M,M,M,M,M,M,M,M,M,83.22,KBAM 181715Z AUTO 00000KT 10SM CLR 30/08 A3013 RMK AO1,M
HTH,2023-07-18 17:15,-118.6315,38.5448,1282.89,86.00,53.60,33.01,M,3.00,0.00,30.10,M,10.00,M,CLR,M,M,M,M,M,M,M,M,M,M,M,M,M,M,84.18,KHTH 181715Z AUTO VRB03KT 10SM CLR 30/12 A3010 RMK A01,M
TMT,2023-07-18 17:15,-117.1971,39.4643,1749.34,74.00,53.80,49.27,0.00,0.00,0.00,30.22,M,10.00,M,SCT,M,M,M,12000.00,M,M,M,M,M,M,M,M,M,M,74.00,KTMT 181715Z AUTO 00000KT 10SM SCT120 23/12 A3022 RMK AO2 T02340121,M
BVU,2023-07-18 17:35,-114.8611,35.9475,671.00,102.20,51.80,18.72,0.00,0.00,0.00,29.93,M,10.00,M,CLR,M,M,M,M,M,M,M,M,M,M,M,M,M,M,99.80,KBVU 181735Z AUTO 00000KT 10SM CLR 39/11 A2993 RMK AO2,M
CXP,2023-07-18 17:35,-119.7326,39.1923,1431.00,87.80,48.20,25.52,10.00,4.00,0.00,30.14,M,10.00,M,CLR,M,M,M,M,M,M,M,M,M,M,M,M,M,M,84.87,KCXP 181735Z AUTO 01004KT 10SM CLR 31/09 A3014 RMK AO2,M
RTS,2023-07-18 17:35,-119.8764,39.6682,1539.00,84.20,39.20,20.29,M,3.00,0.00,30.17,M,10.00,M,CLR,M,M,M,M,M,M,M,M,M,M,M,M,M,M,81.44,KRTS 181735Z AUTO VRB03KT 10SM CLR 29/04 A3017 RMK AO2,M
05U,2023-07-18 17:35,-116.0051,39.6042,1811.23,84.20,44.60,24.99,M,M,0.00,30.27,M,10.00,M,CLR,M,M,M,M,M,M,M,M,M,M,M,M,M,M,81.73,K05U 181735Z AUTO 10SM CLR 29/07 A3027 RMK A01,M
MEV,2023-07-18 17:35,-119.7500,38.9963,1441.42,87.80,46.40,23.85,0.00,0.00,0.00,30.13,M,10.00,M,CLR,M,M,M,M,M,M,M,M,M,M,M,M,M,M,84.68,KMEV 181735Z AUTO 00000KT 10SM CLR 31/08 A3013 RMK AO2,M
BAM,2023-07-18 17:35,-116.8743,40.5990,1382.36,89.60,46.40,22.53,0.00,0.00,0.00,30.12,M,10.00,M,CLR,M,M,M,M,M,M,M,M,M,M,M,M,M,M,86.24,KBAM 181735Z AUTO 00000KT 10SM CLR 32/08 A3012 RMK AO1,M
HTH,2023-07-18 17:35,-118.6315,38.5448,1282.89,87.80,51.80,29.18,340.00,6.00,0.00,30.09,M,10.00,M,CLR,M,M,M,M,M,M,M,M,M,M,M,M,M,M,85.39,KHTH 181735Z AUTO 34006KT 10SM CLR 31/11 A3009 RMK A01,M
TMT,2023-07-18 17:35,-117.1971,39.4643,1749.34,75.20,54.00,47.67,0.00,0.00,0.00,30.22,M,10.00,M,SCT,M,M,M,12000.00,M,M,M,M,M,M,M,M,M,M,75.20,KTMT 181735Z AUTO 00000KT 10SM SCT120 24/12 A3022 RMK AO2 T02400122,M
P68,2023-07-18 17:53,-116.0056,39.6014,1993.00,84.00,45.00,25.54,100.00,7.00,0.00,30.23,1013.80,M,M,M,M,M,M,M,M,M,M,M,M,M,M,M,M,M,81.61,KP68 181753Z AUTO 10007KT 29/07 A3023 RMK AO1 SLP138 T02890072 10294 20189 50001,M
DRA,2023-07-18 17:53,-116.0278,36.6206,1009.00,101.00,49.00,17.49,210.00,14.00,0.00,30.00,1009.20,10.00,28.00,CLR,M,M,M,M,M,M,M,M,M,M,M,29.00,190.00,2023-07-18 16:56,97.79,KDRA 181753Z AUTO 21014G28KT 10SM CLR 38/09 A3000 RMK AO2 PK WND 19029/1656 SLP092 T03830094 10383 20294 58001,M
ELY,2023-07-18 17:53,-114.8453,39.2950,1909.00,M,M,M,M,M,0.00,30.28,M,M,M,M,M,M,M,M,M,M,M,M,M,M,M,M,M,M,M,KELY 181753Z AUTO A3028 RMK AO2 SLPNO 52003 PWINO FZRANO,M
VGT,2023-07-18 17:53,-115.1933,36.2111,667.00,105.00,53.00,18.00,140.00,13.00,0.00,29.92,1011.10,10.00,18.00,CLR,M,M,M,M,M,M,M,M,M,M,M,M,M,M,103.16,KVGT 181753Z 14013G18KT 10SM CLR 41/12 A2992 RMK AO2 SLP111 T04060117 10406 20328 58000,M
LOL,2023-07-18 17:53,-118.5701,40.0684,1192.43,91.00,46.00,21.24,M,6.00,0.00,30.05,1012.70,10.00,M,CLR,M,M,M,M,M,M,M,M,M,M,M,M,M,M,87.45,KLOL 181753Z AUTO VRB06KT 10SM CLR 33/08 A3005 RMK AO2 SLP127 T03280078 10328 20161 58006,M
BVU,2023-07-18 17:55,-114.8611,35.9475,671.00,102.20,51.80,18.72,0.00,0.00,0.00,29.93,M,10.00,15.00,CLR,M,M,M,M,M,M,M,M,M,M,M,M,M,M,99.80,KBVU 181755Z AUTO 00000G15KT 10SM CLR 39/11 A2993 RMK AO2,M
CXP,2023-07-18 17:55,-119.7326,39.1923,1431.00,89.60,46.40,22.53,10.00,5.00,0.00,30.13,M,10.00,M,CLR,M,M,M,M,M,M,M,M,M,M,M,M,M,M,86.24,KCXP 181755Z AUTO 01005KT 10SM CLR 32/08 A3013 RMK AO2,M
INS,2023-07-18 17:55,-115.6733,36.5872,955.00,99.70,47.00,16.87,140.00,8.00,0.00,29.99,1009.20,10.00,M,CLR,M,M,M,M,M,M,M,M,M,M,M,M,M,M,96.05,KINS 181755Z AUTO 14008KT 10SM CLR 38/08 A2999 RMK AO2 SLP092 T03760084 10376 20299 58001 $,M
RNO,2023-07-18 17:55,-119.7711,39.4839,1341.00,89.00,45.00,21.77,170.00,5.00,0.00,30.11,1012.40,10.00,M,FEW,M,M,M,15000.00,M,M,M,M,M,M,M,M,M,M,85.58,KRNO 181755Z 17005KT 10SM FEW150 32/07 A3011 RMK AO2 SLP124 T03170072 10317 20211 58006,M
RTS,2023-07-18 17:55,-119.8764,39.6682,1539.00,86.00,39.20,19.15,290.00,5.00,0.00,30.17,M,10.00,M,CLR,M,M,M,M,M,M,M,M,M,M,M,M,M,M,82.79,KRTS 181755Z AUTO 29005KT 10SM CLR 30/04 A3017 RMK AO2,M
05U,2023-07-18 17:55,-116.0051,39.6042,1811.23,87.80,46.40,23.85,M,M,0.00,30.26,M,10.00,M,CLR,M,M,M,M,M,M,M,M,M,M,M,M,M,M,84.68,K05U 181755Z AUTO 10SM CLR 31/08 A3026 RMK A01,M
MEV,2023-07-18 17:55,-119.7500,38.9963,1441.42,89.60,46.40,22.53,0.00,0.00,0.00,30.12,M,10.00,M,CLR,M,M,M,M,M,M,M,M,M,M,M,M,M,M,86.24,KMEV 181755Z AUTO 00000KT 10SM CLR 32/08 A3012 RMK AO2,M
BAM,2023-07-18 17:55,-116.8743,40.5990,1382.36,89.60,46.40,22.53,0.00,0.00,0.00,30.12,M,10.00,M,CLR,M,M,M,M,M,M,M,M,M,M,M,M,M,M,86.24,KBAM 181755Z AUTO 00000KT 10SM CLR 32/08 A3012 RMK AO1,M
HTH,2023-07-18 17:55,-118.6315,38.5448,1282.89,89.60,50.00,25.79,340.00,7.00,0.00,30.09,M,10.00,M,CLR,M,M,M,M,M,M,M,M,M,M,M,M,M,M,86.70,KHTH 181755Z AUTO 34007KT 10SM CLR 32/10 A3009 RMK A01,M
TMT,2023-07-18 17:55,-117.1971,39.4643,1749.34,78.00,54.30,43.92,340.00,3.00,0.00,30.22,M,7.00,M,CLR,M,M,M,M,M,M,M,M,M,M,M,M,M,M,78.00,KTMT 181755Z AUTO 34003KT 7SM CLR 26/12 A3022 RMK AO2 T02550124 10255 20140,M
LSV,2023-07-18 17:55,-115.0343,36.2362,570.00,105.00,52.70,17.80,110.00,6.00,0.00,29.88,M,10.00,M,CLR,M,M,M,M,M,M,M,M,M,M,M,M,M,M,103.05,KLSV 181755Z AUTO 11006KT 10SM CLR 41/12 A2988 RMK AO2 SLPNO T04050115 10405 20311 50001 $,M
EKO,2023-07-18 17:56,-115.7860,40.8242,1367.00,91.00,49.00,23.77,210.00,8.00,0.00,30.15,1013.30,10.00,M,CLR,M,M,M,M,M,M,M,M,M,M,M,M,M,M,87.83,KEKO 181756Z AUTO 21008KT 10SM CLR 33/09 A3015 RMK AO2 SLP133 T03280094 10328 20150 58005,M
WMC,2023-07-18 17:56,-117.8072,40.9019,1315.00,M,M,M,M,M,0.00,30.10,M,M,M,M,M,M,M,M,M,M,M,M,M,M,M,M,M,M,M,KWMC 181756Z AUTO A3010 RMK AO2 SLPNO 58003 PWINO FZRANO $,M
NFL,2023-07-18 17:56,-118.7010,39.4166,1199.00,91.00,52.00,26.57,0.00,0.00,0.00,30.06,1014.70,10.00,M,FEW,SCT,SCT,M,7000.00,10000.00,17000.00,M,M,M,M,M,M,M,M,88.35,KNFL 181756Z 00000KT 10SM FEW070 SCT100 SCT170 33/11 A3006 RMK AO2 SLP147 T03280111 10328 20200 58002,M
HND,2023-07-18 17:56,-115.1344,35.9729,742.79,103.00,53.00,19.10,210.00,11.00,0.00,29.98,1012.70,10.00,M,CLR,M,M,M,M,M,M,M,M,M,M,M,M,M,M,101.03,KHND 181756Z 21011KT 10SM CLR 39/12 A2998 RMK AO2 SLP127 T03940117 10400 20311 50001,M
TPH,2023-07-18 17:56,-117.0904,38.0505,1654.00,89.00,48.00,24.39,M,M,0.00,30.18,1011.70,10.00,M,CLR,M,M,M,M,M,M,M,M,M,M,M,M,M,M,85.89,KTPH 181756Z AUTO 10SM CLR 32/09 A3018 RMK AO2 SLP117 T03170089 10317 20206 58003,M
LAS,2023-07-18 17:56,-115.1634,36.0719,663.00,104.00,51.00,17.22,180.00,8.00,0.00,29.93,1009.80,10.00,17.00,FEW,SCT,M,M,14000.00,23000.00,M,M,M,M,M,M,M,M,M,101.44,KLAS 181756Z 18008G17KT 150V220 10SM FEW140 SCT230 40/11 A2993 RMK AO2 SLP098 T04000106 10400 20322 58001,M
ELY,2023-07-18 18:04,-114.8453,39.2950,1909.00,M,M,M,M,M,0.00,30.28,M,M,M,M,M,M,M,M,M,M,M,VCTS,M,M,M,M,M,M,M,KELY 181804Z AUTO VCTS A3028 RMK AO2 PWINO FZRANO,M
BVU,2023-07-18 18:15,-114.8611,35.9475,671.00,104.00,51.80,17.74,130.00,11.00,0.00,29.92,M,10.00,M,CLR,M,M,M,M,M,M,M,M,M,M,M,M,M,M,101.69,KBVU 181815Z AUTO 13011KT 120V190 10SM CLR 40/11 A2992 RMK AO2,M
CXP,2023-07-18 18:15,-119.7326,39.1923,1431.00,89.60,46.40,22.53,M,4.00,0.00,30.13,M,10.00,M,CLR,M,M,M,M,M,M,M,M,M,M,M,M,M,M,86.24,KCXP 181815Z AUTO VRB04KT 10SM CLR 32/08 A3013 RMK AO2,M
RTS,2023-07-18 18:15,-119.8764,39.6682,1539.00,87.80,39.20,18.09,220.00,8.00,0.00,30.16,M,10.00,M,CLR,M,M,M,M,M,M,M,M,M,M,M,M,M,M,84.22,KRTS 181815Z AUTO 22008KT 130V250 10SM CLR 31/04 A3016 RMK AO2,M
05U,2023-07-18 18:15,-116.0051,39.6042,1811.23,86.00,46.40,25.26,M,M,0.00,30.26,M,10.00,M,CLR,M,M,M,M,M,M,M,M,M,M,M,M,M,M,83.22,K05U 181815Z AUTO 10SM CLR 30/08 A3026 RMK A01,M
MEV,2023-07-18 18:15,-119.7500,38.9963,1441.42,89.60,46.40,22.53,M,4.00,0.00,30.12,M,10.00,M,CLR,M,M,M,M,M,M,M,M,M,M,M,M,M,M,86.24,KMEV 181815Z AUTO VRB04KT 10SM CLR 32/08 A3012 RMK AO2,M
BAM,2023-07-18 18:15,-116.8743,40.5990,1382.36,93.20,44.60,18.80,340.00,3.00,0.00,30.11,M,10.00,M,CLR,M,M,M,M,M,M,M,M,M,M,M,M,M,M,89.34,KBAM 181815Z AUTO 34003KT 10SM CLR 34/07 A3011 RMK AO1,M
HTH,2023-07-18 18:15,-118.6315,38.5448,1282.89,91.40,48.20,22.78,M,6.00,0.00,30.09,M,10.00,12.00,CLR,M,M,M,M,M,M,M,M,M,M,M,M,M,M,88.09,KHTH 181815Z AUTO VRB06G12KT 10SM CLR 33/09 A3009 RMK A01,M
TMT,2023-07-18 18:15,-117.1971,39.4643,1749.34,79.50,51.80,38.14,360.00,3.00,0.00,30.22,M,10.00,M,CLR,M,M,M,M,M,M,M,M,M,M,M,M,M,M,79.50,KTMT 181815Z AUTO 36003KT 10SM CLR 26/11 A3022 RMK AO2 T02640110,M
ELY,2023-07-18 18:19,-114.8453,39.2950,1909.00,M,M,M,M,M,0.00,30.28,M,M,M,M,M,M,M,M,M,M,M,M,M,M,M,M,M,M,M,KELY 181819Z AUTO A3028 RMK AO2 PWINO FZRANO,M
BVU,2023-07-18 18:35,-114.8611,35.9475,671.00,105.80,51.80,16.82,140.00,11.00,0.00,29.92,M,10.00,M,CLR,M,M,M,M,M,M,M,M,M,M,M,M,M,M,103.57,KBVU 181835Z AUTO 14011KT 10SM CLR 41/11 A2992 RMK AO2,M
CXP,2023-07-18 18:35,-119.7326,39.1923,1431.00,91.40,46.40,21.29,M,5.00,0.00,30.13,M,10.00,M,CLR,M,M,M,M,M,M,M,M,M,M,M,M,M,M,87.86,KCXP 181835Z AUTO VRB05KT 10SM CLR 33/08 A3013 RMK AO2,M
RTS,2023-07-18 18:35,-119.8764,39.6682,1539.00,87.80,39.20,18.09,260.00,15.00,0.00,30.16,M,10.00,M,CLR,M,M,M,M,M,M,M,M,M,M,M,M,M,M,84.22,KRTS 181835Z AUTO 26015KT 10SM CLR 31/04 A3016 RMK AO2,M
05U,2023-07-18 18:35,-116.0051,39.6042,1811.23,86.00,44.60,23.59,M,M,0.00,30.26,M,10.00,M,CLR,M,M,M,M,M,M,M,M,M,M,M,M,M,M,83.07,K05U 181835Z AUTO 10SM CLR 30/07 A3026 RMK A01,M
MEV,2023-07-18 18:35,-119.7500,38.9963,1441.42,89.60,46.40,22.53,M,4.00,0.00,30.12,M,10.00,M,CLR,M,M,M,M,M,M,M,M,M,M,M,M,M,M,86.24,KMEV 181835Z AUTO VRB04KT 10SM CLR 32/08 A3012 RMK AO2,M
BAM,2023-07-18 18:35,-116.8743,40.5990,1382.36,95.00,44.60,17.78,220.00,6.00,0.00,30.10,M,10.00,M,CLR,M,M,M,M,M,M,M,M,M,M,M,M,M,M,91.06,KBAM 181835Z AUTO 22006KT 10SM CLR 35/07 A3010 RMK AO1,M
HTH,2023-07-18 18:35,-118.6315,38.5448,1282.89,91.40,48.20,22.78,320.00,7.00,0.00,30.08,M,10.00,M,CLR,M,M,M,M,M,M,M,M,M,M,M,M,M,M,88.09,KHTH 181835Z AUTO 32007KT 10SM CLR 33/09 A3008 RMK A01,M
TMT,2023-07-18 18:35,-117.1971,39.4643,1749.34,82.60,48.00,29.92,0.00,0.00,0.00,30.22,M,10.00,M,CLR,M,M,M,M,M,M,M,M,M,M,M,M,M,M,80.91,KTMT 181835Z AUTO 00000KT 10SM CLR 28/09 A3022 RMK AO2 LTG DSNT E T02810088,M
P68,2023-07-18 18:53,-116.0056,39.6014,1993.00,84.00,43.00,23.66,90.00,4.00,0.00,30.22,1013.80,M,M,M,M,M,M,M,M,M,M,M,M,M,M,M,M,M,81.48,KP68 181853Z AUTO 09004KT 29/06 A3022 RMK AO1 SLP138 T02890061,M
DRA,2023-07-18 18:53,-116.0278,36.6206,1009.00,102.00,49.00,16.97,230.00,15.00,0.00,29.99,1009.00,10.00,23.00,CLR,M,M,M,M,M,M,M,M,M,M,M,30.00,220.00,2023-07-18 17:56,98.82,KDRA 181853Z AUTO 23015G23KT 10SM CLR 39/09 A2999 RMK AO2 PK WND 22030/1756 SLP090 T03890094,M
ELY,2023-07-18 18:53,-114.8453,39.2950,1909.00,M,M,M,M,M,0.00,30.27,M,M,M,M,M,M,M,M,M,M,M,M,M,M,M,M,M,M,M,KELY 181853Z AUTO A3027 RMK AO2 LTG DSNT SE SLPNO PWINO FZRANO,M
VGT,2023-07-18 18:53,-115.1933,36.2111,667.00,108.00,50.00,14.75,170.00,18.00,0.00,29.90,1010.40,10.00,23.00,CLR,M,M,M,M,M,M,M,M,M,M,M,M,M,M,105.19,KVGT 181853Z 17018G23KT 10SM CLR 42/10 A2990 RMK AO2 SLP104 T04220100,M
LOL,2023-07-18 18:53,-118.5701,40.0684,1192.43,93.00,45.00,19.21,M,3.00,0.00,30.04,1012.40,10.00,M,CLR,M,M,M,M,M,M,M,M,M,M,M,M,M,M,89.20,KLOL 181853Z AUTO VRB03KT 10SM CLR 34/07 A3004 RMK AO2 SLP124 T03390072,M
BVU,2023-07-18 18:55,-114.8611,35.9475,671.00,104.00,48.20,15.52,230.00,7.00,0.00,29.91,M,10.00,12.00,FEW,M,M,M,11000.00,M,M,M,M,M,M,M,M,M,M,100.65,KBVU 181855Z AUTO 23007G12KT 210V270 10SM FEW110 40/09 A2991 RMK AO2,M
CXP,2023-07-18 18:55,-119.7326,39.1923,1431.00,91.40,46.40,21.29,0.00,0.00,0.00,30.13,M,10.00,M,CLR,M,M,M,M,M,M,M,M,M,M,M,M,M,M,87.86,KCXP 181855Z AUTO 00000KT 10SM CLR 33/08 A3013 RMK AO2,M
INS,2023-07-18 18:55,-115.6733,36.5872,955.00,101.50,47.00,15.98,50.00,8.00,0.00,29.98,1008.70,10.00,M,CLR,M,M,M,M,M,M,M,M,M,M,M,M,M,M,97.85,KINS 181855Z AUTO 05008KT 10SM CLR 39/08 A2998 RMK AO2 SLP087 T03860083 $,M
RNO,2023-07-18 18:55,-119.7711,39.4839,1341.00,92.00,43.00,18.36,290.00,3.00,0.00,30.10,1012.00,10.00,M,SCT,M,M,M,14000.00,M,M,M,M,M,M,M,M,M,M,88.08,KRNO 181855Z 29003KT 10SM SCT140 33/06 A3010 RMK AO2 SLP120 T03330061,M
LSV,2023-07-18 18:55,-115.0343,36.2362,570.00,107.00,49.50,14.91,160.00,9.00,0.00,29.87,M,10.00,M,CLR,M,M,M,M,M,M,M,M,M,M,M,M,M,M,104.03,KLSV 181855Z AUTO 16009KT 10SM CLR 42/10 A2987 RMK AO2 SLPNO T04170097 $,M
RTS,2023-07-18 18:55,-119.8764,39.6682,1539.00,89.60,39.20,17.09,260.00,14.00,0.00,30.16,M,10.00,M,CLR,M,M,M,M,M,M,M,M,M,M,M,M,M,M,85.73,KRTS 181855Z AUTO 26014KT 10SM CLR 32/04 A3016 RMK AO2,M
05U,2023-07-18 18:55,-116.0051,39.6042,1811.23,86.00,44.60,23.59,M,M,0.00,30.25,M,10.00,M,CLR,M,M,M,M,M,M,M,M,M,M,M,M,M,M,83.07,K05U 181855Z AUTO 10SM CLR 30/07 A3025 RMK A01,M
MEV,2023-07-18 18:55,-119.7500,38.9963,1441.42,91.40,46.40,21.29,190.00,5.00,0.00,30.11,M,9.00,M,CLR,M,M,M,M,M,M,M,M,M,M,M,M,M,M,87.86,KMEV 181855Z AUTO 19005KT 9SM CLR 33/08 A3011 RMK AO2,M
BAM,2023-07-18 18:55,-116.8743,40.5990,1382.36,95.00,46.40,19.04,350.00,7.00,0.00,30.09,M,10.00,M,CLR,M,M,M,M,M,M,M,M,M,M,M,M,M,M,91.29,KBAM 181855Z AUTO 35007KT 10SM CLR 35/08 A3009 RMK AO1,M
HTH,2023-07-18 18:55,-118.6315,38.5448,1282.89,93.20,48.20,21.54,330.00,6.00,0.00,30.07,M,10.00,M,CLR,M,M,M,M,M,M,M,M,M,M,M,M,M,M,89.80,KHTH 181855Z AUTO 33006KT 10SM CLR 34/09 A3007 RMK A01,M
TMT,2023-07-18 18:55,-117.1971,39.4643,1749.34,84.20,45.70,26.06,280.00,3.00,0.00,30.21,M,10.00,M,CLR,M,M,M,M,M,M,M,M,M,M,M,M,M,M,81.81,KTMT 181855Z AUTO 28003KT 10SM CLR 29/08 A3021 RMK AO2 T02900076,M
EKO,2023-07-18 18:56,-115.7860,40.8242,1367.00,93.00,46.00,19.95,210.00,6.00,0.00,30.14,1012.80,10.00,M,FEW,M,M,M,12000.00,M,M,M,M,M,M,M,M,M,M,89.31,KEKO 181856Z AUTO 21006KT 10SM FEW120 34/08 A3014 RMK AO2 SLP128 T03390078,M
WMC,2023-07-18 18:56,-117.8072,40.9019,1315.00,M,M,M,M,M,0.00,30.09,M,M,M,M,M,M,M,M,M,M,M,M,M,M,M,M,M,M,M,KWMC 181856Z AUTO A3009 RMK AO2 SLPNO PWINO FZRANO $,M
NFL,2023-07-18 18:56,-118.7010,39.4166,1199.00,94.00,51.00,23.33,M,4.00,0.00,30.05,1014.50,10.00,M,FEW,SCT,SCT,M,7000.00,10000.00,17000.00,M,M,M,M,M,M,M,M,91.08,KNFL 181856Z VRB04KT 10SM FEW070 SCT100 SCT170 34/11 A3005 RMK AO2 SLP145 TCU DSNT SW T03440106,M
HND,2023-07-18 18:56,-115.1344,35.9729,742.79,106.00,52.00,16.84,240.00,18.00,0.00,29.96,1012.20,10.00,23.00,CLR,M,M,M,M,M,M,M,M,M,M,M,M,M,M,103.85,KHND 181856Z 24018G23KT 10SM CLR 41/11 A2996 RMK AO2 SLP122 T04110111,M
TPH,2023-07-18 18:56,-117.0904,38.0505,1654.00,91.00,48.00,22.90,M,4.00,0.00,30.17,1010.80,M,18.00,CLR,M,M,M,M,M,M,M,M,M,M,M,M,M,M,87.69,KTPH 181856Z AUTO VRB04G18KT CLR 33/09 A3017 RMK AO2 SLP108 T03280089 $,M
LAS,2023-07-18 18:56,-115.1634,36.0719,663.00,106.00,50.00,15.64,200.00,9.00,0.00,29.93,1009.70,10.00,17.00,FEW,FEW,SCT,M,14000.00,18000.00,24000.00,M,M,M,M,M,M,M,M,103.18,KLAS 181856Z 20009G17KT 160V230 10SM FEW140 FEW180 SCT240 41/10 A2993 RMK AO2 SLP097 T04110100,M
LSV,2023-07-18 19:05,-115.0343,36.2362,570.00,107.60,48.20,13.95,170.00,11.00,0.00,29.86,1007.80,10.00,15.00,CLR,M,M,M,M,M,M,M,M,M,M,M,M,M,M,104.23,KLSV 181905Z AUTO 17011G15KT 10SM CLR 42/09 A2986 RMK AO2 WSHFT 01 SLP078 $,M
VGT,2023-07-18 19:08,-115.1933,36.2111,667.00,109.00,49.00,13.80,210.00,20.00,0.00,29.90,M,10.00,27.00,CLR,M,M,M,M,M,M,M,M,M,M,M,27.00,210.00,2023-07-18 19:07,105.85,KVGT 181908Z 21020G27KT 10SM CLR 43/09 A2990 RMK AO2 PK WND 21027/1907 WSHFT 1848 T04280094,M
BVU,2023-07-18 19:15,-114.8611,35.9475,671.00,105.80,50.00,15.73,150.00,9.00,0.00,29.91,M,10.00,15.00,FEW,M,M,M,11000.00,M,M,M,M,M,M,M,M,M,M,102.98,KBVU 181915Z AUTO 15009G15KT 10SM FEW110 41/10 A2991 RMK AO2,M
CXP,2023-07-18 19:15,-119.7326,39.1923,1431.00,91.40,46.40,21.29,0.00,0.00,0.00,30.12,M,10.00,M,CLR,M,M,M,M,M,M,M,M,M,M,M,M,M,M,87.86,KCXP 181915Z AUTO 00000KT 10SM CLR 33/08 A3012 RMK AO2,M
RTS,2023-07-18 19:15,-119.8764,39.6682,1539.00,89.60,37.40,15.92,240.00,12.00,0.00,30.16,M,10.00,18.00,CLR,M,M,M,M,M,M,M,M,M,M,M,M,M,M,85.67,KRTS 181915Z AUTO 24012G18KT 10SM CLR 32/03 A3016 RMK AO2,M
05U,2023-07-18 19:15,-116.0051,39.6042,1811.23,86.00,46.40,25.26,M,M,0.00,30.24,M,10.00,M,CLR,M,M,M,M,M,M,M,M,M,M,M,M,M,M,83.22,K05U 181915Z AUTO 10SM CLR 30/08 A3024 RMK A01,M
MEV,2023-07-18 19:15,-119.7500,38.9963,1441.42,91.40,46.40,21.29,M,5.00,0.00,30.11,M,10.00,M,CLR,M,M,M,M,M,M,M,M,M,M,M,M,M,M,87.86,KMEV 181915Z AUTO VRB05KT 10SM CLR 33/08 A3011 RMK AO2,M
BAM,2023-07-18 19:15,-116.8743,40.5990,1382.36,95.00,46.40,19.04,350.00,11.00,0.00,30.09,M,10.00,M,CLR,M,M,M,M,M,M,M,M,M,M,M,M,M,M,91.29,KBAM 181915Z AUTO 35011KT 10SM CLR 35/08 A3009 RMK AO1,M
HTH,2023-07-18 19:15,-118.6315,38.5448,1282.89,93.20,46.40,20.13,330.00,9.00,0.00,30.07,M,10.00,M,CLR,M,M,M,M,M,M,M,M,M,M,M,M,M,M,89.55,KHTH 181915Z AUTO 33009KT 10SM CLR 34/08 A3007 RMK A01,M
TMT,2023-07-18 19:15,-117.1971,39.4643,1749.34,85.30,47.30,26.72,260.00,4.00,0.00,30.21,M,10.00,M,CLR,M,M,M,M,M,M,M,M,M,M,M,M,M,M,82.76,KTMT 181915Z AUTO 26004KT 10SM CLR 30/09 A3021 RMK AO2 T02960085,M
LSV,2023-07-18 19:25,-115.0343,36.2362,570.00,107.60,48.20,13.95,180.00,17.00,0.00,29.86,M,10.00,M,CLR,M,M,M,M,M,M,M,M,M,M,M,M,M,M,104.23,KLSV 181925Z AUTO 18017KT 10SM CLR 42/09 A2986 RMK AO2 WSHFT 17 SLPNO $,M
BVU,2023-07-18 19:35,-114.8611,35.9475,671.00,105.80,51.80,16.82,140.00,12.00,0.00,29.90,M,10.00,19.00,CLR,M,M,M,M,M,M,M,M,M,M,M,M,M,M,103.57,KBVU 181935Z AUTO 14012G19KT 100V170 10SM CLR 41/11 A2990 RMK AO2,M
CXP,2023-07-18 19:35,-119.7326,39.1923,1431.00,91.40,42.80,18.56,280.00,7.00,0.00,30.12,M,10.00,14.00,CLR,M,M,M,M,M,M,M,M,M,M,M,M,M,M,87.52,KCXP 181935Z AUTO 28007G14KT 10SM CLR 33/06 A3012 RMK AO2,M
RTS,2023-07-18 19:35,-119.8764,39.6682,1539.00,91.40,35.60,14.02,250.00,15.00,0.00,30.15,M,10.00,23.00,CLR,M,M,M,M,M,M,M,M,M,M,M,M,M,M,87.17,KRTS 181935Z AUTO 25015G23KT 10SM CLR 33/02 A3015 RMK AO2,M
05U,2023-07-18 19:35,-116.0051,39.6042,1811.23,91.40,44.60,19.89,M,M,0.00,30.23,M,10.00,M,CLR,M,M,M,M,M,M,M,M,M,M,M,M,M,M,87.68,K05U 181935Z AUTO 10SM CLR 33/07 A3023 RMK A01,M
MEV,2023-07-18 19:35,-119.7500,38.9963,1441.42,93.20,46.40,20.13,280.00,8.00,0.00,30.11,M,10.00,M,CLR,M,M,M,M,M,M,M,M,M,M,M,M,M,M,89.55,KMEV 181935Z AUTO 28008KT 10SM CLR 34/08 A3011 RMK AO2,M
BAM,2023-07-18 19:35,-116.8743,40.5990,1382.36,96.80,48.20,19.28,330.00,9.00,0.00,30.08,M,10.00,M,CLR,M,M,M,M,M,M,M,M,M,M,M,M,M,M,93.36,KBAM 181935Z AUTO 33009KT 310V010 10SM CLR 36/09 A3008 RMK AO1,M
HTH,2023-07-18 19:35,-118.6315,38.5448,1282.89,93.20,46.40,20.13,330.00,7.00,0.00,30.06,M,10.00,M,CLR,M,M,M,M,M,M,M,M,M,M,M,M,M,M,89.55,KHTH 181935Z AUTO 33007KT 10SM CLR 34/08 A3006 RMK A01,M
TMT,2023-07-18 19:35,-117.1971,39.4643,1749.34,87.80,46.60,24.03,310.00,3.00,0.00,30.20,M,10.00,M,CLR,M,M,M,M,M,M,M,M,M,M,M,M,M,M,84.70,KTMT 181935Z AUTO 31003KT 10SM CLR 31/08 A3020 RMK AO2 T03100081,M
LSV,2023-07-18 19:47,-115.0343,36.2362,570.00,109.40,48.20,13.24,150.00,19.00,0.00,29.85,M,10.00,22.00,CLR,M,M,M,M,M,M,M,M,M,M,M,M,M,M,105.97,KLSV 181947Z AUTO 15019G22KT 10SM CLR 43/09 A2985 RMK AO2 WSHFT 34 SLPNO $,M
P68,2023-07-18 19:53,-116.0056,39.6014,1993.00,86.00,45.00,23.95,120.00,5.00,0.00,30.20,1013.00,M,M,M,M,M,M,M,M,M,M,M,M,M,M,M,M,M,83.10,KP68 181953Z AUTO 12005KT 30/07 A3020 RMK AO1 SLP130 T03000072,M
DRA,2023-07-18 19:53,-116.0278,36.6206,1009.00,105.00,47.00,14.40,220.00,16.00,0.00,29.98,1008.70,10.00,29.00,CLR,M,M,M,M,M,M,M,M,M,M,M,29.00,220.00,2023-07-18 19:50,101.34,KDRA 181953Z AUTO 22016G29KT 10SM CLR 41/08 A2998 RMK AO2 PK WND 22029/1950 SLP087 T04060083,M
ELY,2023-07-18 19:53,-114.8453,39.2950,1909.00,M,M,M,M,M,0.00,30.24,M,M,M,M,M,M,M,M,M,M,M,M,M,M,M,M,M,M,M,KELY 181953Z AUTO A3024 RMK AO2 SLPNO PWINO FZRANO,M
VGT,2023-07-18 19:53,-115.1933,36.2111,667.00,109.00,50.00,14.32,200.00,14.00,0.00,29.89,1010.10,10.00,22.00,CLR,M,M,M,M,M,M,M,M,M,M,M,27.00,210.00,2023-07-18 19:07,106.19,KVGT 181953Z 20014G22KT 10SM CLR 43/10 A2989 RMK AO2 PK WND 21027/1907 WSHFT 1848 SLP101 T04280100,M
LOL,2023-07-18 19:53,-118.5701,40.0684,1192.43,96.00,46.00,18.19,80.00,8.00,0.00,30.03,1011.80,10.00,M,CLR,M,M,M,M,M,M,M,M,M,M,M,M,M,M,92.21,KLOL 181953Z AUTO 08008KT 10SM CLR 36/08 A3003 RMK AO2 SLP118 T03560078,M
BVU,2023-07-18 19:55,-114.8611,35.9475,671.00,107.60,50.00,14.92,150.00,9.00,0.00,29.89,M,10.00,16.00,CLR,M,M,M,M,M,M,M,M,M,M,M,M,M,M,104.80,KBVU 181955Z AUTO 15009G16KT 040V200 10SM CLR 42/10 A2989 RMK AO2,M
CXP,2023-07-18 19:55,-119.7326,39.1923,1431.00,93.20,42.80,17.55,270.00,10.00,0.00,30.12,M,10.00,M,CLR,M,M,M,M,M,M,M,M,M,M,M,M,M,M,89.17,KCXP 181955Z AUTO 27010KT 10SM CLR 34/06 A3012 RMK AO2,M
INS,2023-07-18 19:55,-115.6733,36.5872,955.00,103.30,44.80,13.93,60.00,12.00,0.00,29.96,1008.20,10.00,M,SCT,M,M,M,11000.00,M,M,M,M,M,M,M,M,M,M,99.18,KINS 181955Z AUTO 06012KT 10SM SCT110 40/07 A2996 RMK AO2 SLP082 T03960071 $,M
RNO,2023-07-18 19:55,-119.7711,39.4839,1341.00,94.00,44.00,17.93,290.00,5.00,0.00,30.08,1011.60,10.00,M,SCT,M,M,M,15000.00,M,M,M,M,M,M,M,M,M,M,90.04,KRNO 181955Z 29005KT 10SM SCT150 34/07 A3008 RMK AO2 SLP116 T03440067,M
LSV,2023-07-18 19:55,-115.0343,36.2362,570.00,109.00,49.00,13.80,130.00,10.00,0.00,29.85,1007.40,10.00,22.00,CLR,M,M,M,M,M,M,M,M,M,M,M,M,M,M,105.85,KLSV 181955Z AUTO 13010G22KT 10SM CLR 43/10 A2985 RMK AO2 SLP074 T04270095 $,M
RTS,2023-07-18 19:55,-119.8764,39.6682,1539.00,91.40,37.40,15.05,240.00,14.00,0.00,30.15,M,10.00,21.00,CLR,M,M,M,M,M,M,M,M,M,M,M,M,M,M,87.23,KRTS 181955Z AUTO 24014G21KT 200V260 10SM CLR 33/03 A3015 RMK AO2,M
05U,2023-07-18 19:55,-116.0051,39.6042,1811.23,87.80,44.60,22.27,M,M,0.00,30.23,M,10.00,M,CLR,M,M,M,M,M,M,M,M,M,M,M,M,M,M,84.53,K05U 181955Z AUTO 10SM CLR 31/07 A3023 RMK A01,M
MEV,2023-07-18 19:55,-119.7500,38.9963,1441.42,93.20,44.60,18.80,M,6.00,0.00,30.10,M,10.00,M,CLR,M,M,M,M,M,M,M,M,M,M,M,M,M,M,89.34,KMEV 181955Z AUTO VRB06KT 10SM CLR 34/07 A3010 RMK AO2,M
BAM,2023-07-18 19:55,-116.8743,40.5990,1382.36,95.00,48.20,20.38,10.00,8.00,0.00,30.08,M,10.00,M,SCT,M,M,M,12000.00,M,M,M,M,M,M,M,M,M,M,91.56,KBAM 181955Z AUTO 01008KT 10SM SCT120 35/09 A3008 RMK AO1,M
HTH,2023-07-18 19:55,-118.6315,38.5448,1282.89,93.20,46.40,20.13,340.00,6.00,0.00,30.05,M,10.00,M,CLR,M,M,M,M,M,M,M,M,M,M,M,M,M,M,89.55,KHTH 181955Z AUTO 34006KT 10SM CLR 34/08 A3005 RMK A01,M
TMT,2023-07-18 19:55,-117.1971,39.4643,1749.34,88.70,47.30,23.98,0.00,0.00,0.00,30.19,M,10.00,M,CLR,M,M,M,M,M,M,M,M,M,M,M,M,M,M,85.54,KTMT 181955Z AUTO 00000KT 10SM CLR 32/09 A3019 RMK AO2 LTG DSNT S T03150085,M
EKO,2023-07-18 19:56,-115.7860,40.8242,1367.00,96.00,47.00,18.89,230.00,10.00,0.00,30.12,1012.30,10.00,M,CLR,M,M,M,M,M,M,M,M,M,M,M,M,M,M,92.36,KEKO 181956Z AUTO 23010KT 10SM CLR 36/08 A3012 RMK AO2 SLP123 T03560083,M
WMC,2023-07-18 19:56,-117.8072,40.9019,1315.00,M,M,M,M,M,0.00,30.07,M,M,M,M,M,M,M,M,M,M,M,M,M,M,M,M,M,M,M,KWMC 181956Z AUTO A3007 RMK AO2 SLPNO PWINO FZRANO $,M
NFL,2023-07-18 19:56,-118.7010,39.4166,1199.00,95.00,52.00,23.47,0.00,0.00,0.00,30.03,1013.90,10.00,M,FEW,SCT,SCT,M,7000.00,12000.00,17000.00,M,M,M,M,M,M,M,M,92.31,KNFL 181956Z 00000KT 10SM FEW070 SCT120 SCT170 35/11 A3003 RMK AO2 SLP139 TCU DSNT E AND SW-NW T03500111,M
HND,2023-07-18 19:56,-115.1344,35.9729,742.79,107.00,53.00,16.97,190.00,9.00,0.00,29.95,1011.40,10.00,20.00,CLR,M,M,M,M,M,M,M,M,M,M,M,M,M,M,105.26,KHND 181956Z 19009G20KT 10SM CLR 42/12 A2995 RMK AO2 SLP114 T04170117,M
TPH,2023-07-18 19:56,-117.0904,38.0505,1654.00,94.00,47.00,20.09,180.00,10.00,0.00,30.15,1010.20,M,16.00,FEW,M,M,M,9500.00,M,M,M,M,M,M,M,M,M,M,90.40,KTPH 181956Z AUTO 18010G16KT FEW095 34/08 A3015 RMK AO2 SLP102 T03440083 $,M
LAS,2023-07-18 19:56,-115.1634,36.0719,663.00,108.00,49.00,14.21,220.00,13.00,0.00,29.90,1008.80,10.00,25.00,FEW,SCT,M,M,14000.00,24000.00,M,M,M,M,M,M,M,M,M,104.87,KLAS 181956Z 22013G25KT 10SM FEW140 SCT240 42/09 A2990 RMK AO2 SLP088 T04220094,M
INS,2023-07-18 20:03,-115.6733,36.5872,955.00,104.00,42.80,12.64,40.00,10.00,0.00,29.96,1008.00,10.00,M,FEW,FEW,M,M,11000.00,13000.00,M,M,M,M,M,M,M,M,M,99.42,KINS 182003Z AUTO 04010KT 10SM FEW110 FEW130 40/06 A2996 RMK AO2 WSHFT 1959 SLP080 $,M
BVU,2023-07-18 20:15,-114.8611,35.9475,671.00,109.40,50.00,14.16,170.00,19.00,0.00,29.88,M,10.00,24.00,CLR,M,M,M,M,M,M,M,M,M,M,M,M,M,M,106.58,KBVU 182015Z AUTO 17019G24KT 10SM CLR 43/10 A2988 RMK AO2,M
CXP,2023-07-18 20:15,-119.7326,39.1923,1431.00,93.20,42.80,17.55,230.00,7.00,0.00,30.12,M,10.00,17.00,CLR,M,M,M,M,M,M,M,M,M,M,M,M,M,M,89.17,KCXP 182015Z AUTO 23007G17KT 190V250 10SM CLR 34/06 A3012 RMK AO2,M
RTS,2023-07-18 20:15,-119.8764,39.6682,1539.00,91.40,37.40,15.05,250.00,14.00,0.00,30.15,M,10.00,20.00,CLR,M,M,M,M,M,M,M,M,M,M,M,M,M,M,87.23,KRTS 182015Z AUTO 25014G20KT 10SM CLR 33/03 A3015 RMK AO2,M
05U,2023-07-18 20:15,-116.0051,39.6042,1811.23,87.80,44.60,22.27,M,M,0.00,30.22,M,10.00,M,CLR,M,M,M,M,M,M,M,M,M,M,M,M,M,M,84.53,K05U 182015Z AUTO 10SM CLR 31/07 A3022 RMK A01,M
MEV,2023-07-18 20:15,-119.7500,38.9963,1441.42,91.40,44.60,19.89,M,4.00,0.00,30.10,M,10.00,10.00,CLR,M,M,M,M,M,M,M,M,M,M,M,M,M,M,87.68,KMEV 182015Z AUTO VRB04G10KT 10SM CLR 33/07 A3010 RMK AO2,M
BAM,2023-07-18 20:15,-116.8743,40.5990,1382.36,96.80,46.40,18.02,340.00,8.00,0.00,30.08,M,10.00,14.00,SCT,M,M,M,12000.00,M,M,M,M,M,M,M,M,M,M,93.05,KBAM 182015Z AUTO 34008G14KT 10SM SCT120 36/08 A3008 RMK AO1,M
HTH,2023-07-18 20:15,-118.6315,38.5448,1282.89,95.00,44.60,17.78,M,3.00,0.00,30.04,M,10.00,M,CLR,M,M,M,M,M,M,M,M,M,M,M,M,M,M,91.06,KHTH 182015Z AUTO VRB03KT 10SM CLR 35/07 A3004 RMK A01,M
TMT,2023-07-18 20:15,-117.1971,39.4643,1749.34,89.00,47.00,23.49,250.00,6.00,0.00,30.18,M,10.00,M,CLR,M,M,M,M,M,M,M,M,M,M,M,M,M,M,85.77,KTMT 182015Z AUTO 25006KT 10SM CLR 32/08 A3018 RMK AO2 LTG DSNT S T03170084,M
BVU,2023-07-18 20:35,-114.8611,35.9475,671.00,109.40,50.00,14.16,130.00,15.00,0.00,29.88,M,10.00,23.00,CLR,M,M,M,M,M,M,M,M,M,M,M,M,M,M,106.58,KBVU 182035Z AUTO 13015G23KT 10SM CLR 43/10 A2988 RMK AO2,M
CXP,2023-07-18 20:35,-119.7326,39.1923,1431.00,95.00,42.80,16.60,260.00,11.00,0.00,30.11,M,10.00,M,CLR,M,M,M,M,M,M,M,M,M,M,M,M,M,M,90.86,KCXP 182035Z AUTO 26011KT 10SM CLR 35/06 A3011 RMK AO2,M
RTS,2023-07-18 20:35,-119.8764,39.6682,1539.00,91.40,35.60,14.02,240.00,14.00,0.00,30.14,M,10.00,20.00,CLR,M,M,M,M,M,M,M,M,M,M,M,M,M,M,87.17,KRTS 182035Z AUTO 24014G20KT 10SM CLR 33/02 A3014 RMK AO2,M
05U,2023-07-18 20:35,-116.0051,39.6042,1811.23,87.80,44.60,22.27,M,M,0.00,30.21,M,10.00,M,CLR,M,M,M,M,M,M,M,M,M,M,M,M,M,M,84.53,K05U 182035Z AUTO 10SM CLR 31/07 A3021 RMK A01,M
MEV,2023-07-18 20:35,-119.7500,38.9963,1441.42,91.40,44.60,19.89,M,4.00,0.00,30.10,M,10.00,M,CLR,M,M,M,M,M,M,M,M,M,M,M,M,M,M,87.68,KMEV 182035Z AUTO VRB04KT 10SM CLR 33/07 A3010 RMK AO2,M
BAM,2023-07-18 20:35,-116.8743,40.5990,1382.36,96.80,48.20,19.28,360.00,8.00,0.00,30.07,M,10.00,M,SCT,M,M,M,11000.00,M,M,M,M,M,M,M,M,M,M,93.36,KBAM 182035Z AUTO 36008KT 340V040 10SM SCT110 36/09 A3007 RMK AO1,M
HTH,2023-07-18 20:35,-118.6315,38.5448,1282.89,95.00,46.40,19.04,320.00,14.00,0.00,30.04,M,10.00,M,CLR,M,M,M,M,M,M,M,M,M,M,M,M,M,M,91.29,KHTH 182035Z AUTO 32014KT 10SM CLR 35/08 A3004 RMK A01,M
TMT,2023-07-18 20:35,-117.1971,39.4643,1749.34,89.60,46.20,22.36,210.00,6.00,0.00,30.18,M,10.00,M,CLR,M,M,M,M,M,M,M,M,M,M,M,M,M,M,86.22,KTMT 182035Z AUTO 21006KT 180V250 10SM CLR 32/08 A3018 RMK AO2 LTG DSNT NE AND S T03200079,M
LSV,2023-07-18 20:38,-115.0343,36.2362,570.00,111.20,48.20,12.56,190.00,14.00,0.00,29.82,M,10.00,22.00,CLR,M,M,M,M,M,M,M,M,M,M,M,M,M,M,107.65,KLSV 182038Z AUTO 19014G22KT 10SM CLR 44/09 A2982 RMK AO2 WSHFT 35 SLPNO $,M
P68,2023-07-18 20:53,-116.0056,39.6014,1993.00,87.00,43.00,21.49,100.00,5.00,0.00,30.18,1011.90,M,M,M,M,M,M,M,M,M,M,M,M,M,M,M,M,M,83.76,KP68 182053Z AUTO 10005KT 31/06 A3018 RMK AO1 SLP119 T03060061 58015,M
DRA,2023-07-18 20:53,-116.0278,36.6206,1009.00,105.00,45.00,13.35,210.00,19.00,0.00,29.96,1007.90,10.00,26.00,CLR,M,M,M,M,M,M,M,M,M,M,M,31.00,220.00,2023-07-18 20:36,100.87,KDRA 182053Z AUTO 21019G26KT 10SM CLR 41/07 A2996 RMK AO2 PK WND 22031/2036 SLP079 T04060072 58011,M
ELY,2023-07-18 20:53,-114.8453,39.2950,1909.00,M,M,M,M,M,0.00,30.22,M,M,M,M,M,M,M,M,M,M,M,M,M,M,M,M,M,M,M,KELY 182053Z AUTO A3022 RMK AO2 LTG DSNT SE SLPNO 58017 PWINO FZRANO,M
VGT,2023-07-18 20:53,-115.1933,36.2111,667.00,109.00,50.00,14.32,150.00,8.00,0.00,29.86,1009.30,10.00,20.00,CLR,M,M,M,M,M,M,M,M,M,M,M,M,M,M,106.19,KVGT 182053Z 15008G20KT 10SM CLR 43/10 A2986 RMK AO2 SLP093 T04280100 58018,M
LOL,2023-07-18 20:53,-118.5701,40.0684,1192.43,97.00,44.00,16.35,200.00,7.00,0.00,30.00,1011.10,10.00,M,CLR,M,M,M,M,M,M,M,M,M,M,M,M,M,M,92.91,KLOL 182053Z AUTO 20007KT 10SM CLR 36/07 A3000 RMK AO2 SLP111 T03610067 58015,M
BVU,2023-07-18 20:55,-114.8611,35.9475,671.00,109.40,50.00,14.16,200.00,14.00,0.00,29.87,M,10.00,25.00,CLR,M,M,M,M,M,M,M,M,M,M,M,M,M,M,106.58,KBVU 182055Z AUTO 20014G25KT 10SM CLR 43/10 A2987 RMK AO2,M
CXP,2023-07-18 20:55,-119.7326,39.1923,1431.00,95.00,42.80,16.60,M,5.00,0.00,30.11,M,10.00,13.00,CLR,M,M,M,M,M,M,M,M,M,M,M,M,M,M,90.86,KCXP 182055Z AUTO VRB05G13KT 10SM CLR 35/06 A3011 RMK AO2 LTG DSNT SE,M
INS,2023-07-18 20:55,-115.6733,36.5872,955.00,103.00,42.60,12.92,350.00,5.00,0.00,29.93,1007.30,10.00,M,BKN,M,M,M,13000.00,M,M,M,M,M,M,M,M,M,M,98.48,KINS 182055Z AUTO 35005KT 10SM BKN130 39/06 A2993 RMK AO2 SLP073 T03940059 57017 $,M
RNO,2023-07-18 20:55,-119.7711,39.4839,1341.00,94.00,43.00,17.25,0.00,0.00,0.00,30.07,1011.20,10.00,M,FEW,SCT,M,M,10000.00,15000.00,M,M,M,M,M,M,M,M,M,89.94,KRNO 182055Z 00000KT 10SM FEW100 SCT150 34/06 A3007 RMK AO2 SLP112 T03440061 58012,M
LSV,2023-07-18 20:55,-115.0343,36.2362,570.00,111.40,47.00,11.94,170.00,18.00,0.00,29.81,M,10.00,25.00,CLR,M,M,M,M,M,M,M,M,M,M,M,M,M,M,107.41,KLSV 182055Z AUTO 17018G25KT 10SM CLR 44/08 A2981 RMK AO2 SLPNO T04410083 57022 $,M
RTS,2023-07-18 20:55,-119.8764,39.6682,1539.00,93.20,37.40,14.23,230.00,14.00,0.00,30.14,M,10.00,20.00,CLR,M,M,M,M,M,M,M,M,M,M,M,M,M,M,88.83,KRTS 182055Z AUTO 23014G20KT 10SM CLR 34/03 A3014 RMK AO2,M
05U,2023-07-18 20:55,-116.0051,39.6042,1811.23,89.60,44.60,21.04,M,M,0.00,30.20,M,10.00,M,CLR,M,M,M,M,M,M,M,M,M,M,M,M,M,M,86.07,K05U 182055Z AUTO 10SM CLR 32/07 A3020 RMK A01,M
MEV,2023-07-18 20:55,-119.7500,38.9963,1441.42,95.00,46.40,19.04,260.00,13.00,0.00,30.09,M,10.00,M,CLR,M,M,M,M,M,M,M,M,M,M,M,M,M,M,91.29,KMEV 182055Z AUTO 26013KT 10SM CLR 35/08 A3009 RMK AO2 LTG DSNT SE,M
BAM,2023-07-18 20:55,-116.8743,40.5990,1382.36,95.00,46.40,19.04,360.00,4.00,0.00,30.06,M,10.00,15.00,BKN,M,M,M,11000.00,M,M,M,M,M,M,M,M,M,M,91.29,KBAM 182055Z AUTO 36004G15KT 310V040 10SM BKN110 35/08 A3006 RMK AO1,M
HTH,2023-07-18 20:55,-118.6315,38.5448,1282.89,93.20,46.40,20.13,320.00,9.00,0.00,30.03,M,10.00,M,CLR,M,M,M,M,M,M,M,M,M,M,M,M,M,M,89.55,KHTH 182055Z AUTO 32009KT 10SM CLR 34/08 A3003 RMK A01,M
TMT,2023-07-18 20:55,-117.1971,39.4643,1749.34,89.40,46.80,23.02,200.00,4.00,0.00,30.17,M,10.00,M,CLR,M,M,M,M,M,M,M,M,M,M,M,M,M,M,86.10,KTMT 182055Z AUTO 20004KT 10SM CLR 32/08 A3017 RMK AO2 LTG DSNT N S AND SW T03190082,M
EKO,2023-07-18 20:56,-115.7860,40.8242,1367.00,93.00,46.00,19.95,250.00,8.00,0.00,30.10,1012.10,10.00,M,CLR,M,M,M,M,M,M,M,M,M,M,M,M,M,M,89.31,KEKO 182056Z AUTO 25008KT 10SM CLR 34/08 A3010 RMK AO2 SLP121 T03390078 58016,M
WMC,2023-07-18 20:56,-117.8072,40.9019,1315.00,M,M,M,M,M,0.00,30.05,M,M,M,M,M,M,M,M,M,M,M,M,M,M,M,M,M,M,M,KWMC 182056Z AUTO A3005 RMK AO2 SLPNO 58015 PWINO FZRANO $,M
NFL,2023-07-18 20:56,-118.7010,39.4166,1199.00,97.00,50.00,20.49,M,3.00,0.00,30.01,1013.20,10.00,M,SCT,SCT,BKN,M,7000.00,12000.00,17000.00,M,M,M,M,M,M,M,M,93.91,KNFL 182056Z VRB03KT 10SM SCT070 SCT120 BKN170 36/10 A3001 RMK AO2 SLP132 CB DSNT NE-SE-SW T03610100 58015,M
HND,2023-07-18 20:56,-115.1344,35.9729,742.79,109.00,51.00,14.86,210.00,16.00,0.00,29.92,1010.60,10.00,22.00,CLR,M,M,M,M,M,M,M,M,M,M,M,M,M,M,106.55,KHND 182056Z 21016G22KT 10SM CLR 43/11 A2992 RMK AO2 SLP106 T04280106 58019,M
TPH,2023-07-18 20:56,-117.0904,38.0505,1654.00,94.00,46.00,19.34,200.00,10.00,0.00,30.12,1010.10,10.00,19.00,M,M,M,M,M,M,M,M,M,M,M,M,M,M,M,90.27,KTPH 182056Z AUTO 20010G19KT 10SM 34/08 A3012 RMK AO2 SLP101 T03440078 58016,M
LAS,2023-07-18 20:56,-115.1634,36.0719,663.00,109.00,48.00,13.29,180.00,9.00,0.00,29.88,1008.20,10.00,20.00,FEW,FEW,M,M,14000.00,24000.00,M,M,M,M,M,M,M,M,M,105.52,KLAS 182056Z 18009G20KT 140V210 10SM FEW140 FEW240 43/09 A2988 RMK AO2 SLP082 T04280089 58015,M
LSV,2023-07-18 20:56,-115.0343,36.2362,570.00,111.20,46.40,11.74,160.00,16.00,0.00,29.81,M,10.00,25.00,CLR,M,M,M,M,M,M,M,M,M,M,M,M,M,M,107.02,KLSV 182056Z AUTO 16016G25KT 10SM CLR 44/08 A2981 RMK AO2 WSHFT 51 SLPNO $,M
LSV,2023-07-18 21:04,-115.0343,36.2362,570.00,111.20,48.20,12.56,150.00,18.00,0.00,29.80,M,10.00,25.00,CLR,M,M,M,M,M,M,M,M,M,M,M,M,M,M,107.65,KLSV 182104Z AUTO 15018G25KT 10SM CLR 44/09 A2980 RMK AO2 WSHFT 01 SLPNO $,M
LSV,2023-07-18 21:06,-115.0343,36.2362,570.00,111.20,48.20,12.56,100.00,15.00,0.00,29.81,M,10.00,25.00,CLR,M,M,M,M,M,M,M,M,M,M,M,M,M,M,107.65,KLSV 182106Z AUTO 10015G25KT 10SM CLR 44/09 A2981 RMK AO2 WSHFT 05 SLPNO $,M
BVU,2023-07-18 21:15,-114.8611,35.9475,671.00,107.60,50.00,14.92,130.00,14.00,0.00,29.86,M,10.00,22.00,CLR,M,M,M,M,M,M,M,M,M,M,M,M,M,M,104.80,KBVU 182115Z AUTO 13014G22KT 10SM CLR 42/10 A2986 RMK AO2,M
CXP,2023-07-18 21:15,-119.7326,39.1923,1431.00,93.20,42.80,17.55,210.00,7.00,0.00,30.11,M,10.00,M,CLR,M,M,M,M,M,M,M,M,M,M,M,M,M,M,89.17,KCXP 182115Z AUTO 21007KT 180V240 10SM CLR 34/06 A3011 RMK AO2,M
RTS,2023-07-18 21:15,-119.8764,39.6682,1539.00,91.40,35.60,14.02,230.00,14.00,0.00,30.14,M,10.00,22.00,CLR,M,M,M,M,M,M,M,M,M,M,M,M,M,M,87.17,KRTS 182115Z AUTO 23014G22KT 10SM CLR 33/02 A3014 RMK AO2,M
05U,2023-07-18 21:15,-116.0051,39.6042,1811.23,87.80,44.60,22.27,M,M,0.00,30.20,M,10.00,M,CLR,M,M,M,M,M,M,M,M,M,M,M,M,M,M,84.53,K05U 182115Z AUTO 10SM CLR 31/07 A3020 RMK A01,M
MEV,2023-07-18 21:15,-119.7500,38.9963,1441.42,95.00,46.40,19.04,300.00,15.00,0.00,30.09,M,10.00,20.00,CLR,M,M,M,M,M,M,M,M,M,M,M,M,M,M,91.29,KMEV 182115Z AUTO 30015G20KT 10SM CLR 35/08 A3009 RMK AO2,M
BAM,2023-07-18 21:15,-116.8743,40.5990,1382.36,96.80,46.40,18.02,350.00,7.00,0.00,30.05,M,10.00,M,SCT,M,M,M,12000.00,M,M,M,M,M,M,M,M,M,M,93.05,KBAM 182115Z AUTO 35007KT 10SM SCT120 36/08 A3005 RMK AO1,M
HTH,2023-07-18 21:15,-118.6315,38.5448,1282.89,91.40,51.80,26.05,280.00,8.00,0.00,30.04,M,9.00,M,FEW,FEW,SCT,M,6000.00,7500.00,11000.00,M,M,M,M,M,M,M,M,88.69,KHTH 182115Z AUTO 28008KT 9SM FEW060 FEW075 SCT110 33/11 A3004 RMK A01,M
TMT,2023-07-18 21:15,-117.1971,39.4643,1749.34,85.50,49.30,28.61,180.00,13.00,0.00,30.17,M,10.00,23.00,SCT,M,M,M,11000.00,M,M,M,TS,M,M,M,M,M,M,83.13,KTMT 182115Z AUTO 18013G23KT 10SM TS SCT110 30/10 A3017 RMK AO2 LTG DSNT SE THRU SW T02970096,M
ELY,2023-07-18 21:18,-114.8453,39.2950,1909.00,M,M,M,M,M,0.00,30.22,M,M,M,M,M,M,M,M,M,M,M,TS,M,M,M,M,M,M,M,KELY 182118Z AUTO TS A3022 RMK AO2 LTG DSNT SE TSB12 PWINO FZRANO,M
BVU,2023-07-18 21:35,-114.8611,35.9475,671.00,109.40,50.00,14.16,160.00,16.00,0.00,29.85,M,10.00,24.00,CLR,M,M,M,M,M,M,M,M,M,M,M,M,M,M,106.58,KBVU 182135Z AUTO 16016G24KT 10SM CLR 43/10 A2985 RMK AO2,M
CXP,2023-07-18 21:35,-119.7326,39.1923,1431.00,93.20,42.80,17.55,270.00,10.00,0.00,30.11,M,10.00,15.00,CLR,M,M,M,M,M,M,M,M,M,M,M,M,M,M,89.17,KCXP 182135Z AUTO 27010G15KT 10SM CLR 34/06 A3011 RMK AO2,M
RTS,2023-07-18 21:35,-119.8764,39.6682,1539.00,91.40,37.40,15.05,240.00,11.00,0.00,30.14,M,10.00,21.00,CLR,M,M,M,M,M,M,M,M,M,M,M,M,M,M,87.23,KRTS 182135Z AUTO 24011G21KT 10SM CLR 33/03 A3014 RMK AO2,M
05U,2023-07-18 21:35,-116.0051,39.6042,1811.23,86.00,44.60,23.59,M,M,0.00,30.20,M,10.00,M,CLR,M,M,M,M,M,M,M,M,M,M,M,M,M,M,83.07,K05U 182135Z AUTO 10SM CLR 30/07 A3020 RMK A01,M
MEV,2023-07-18 21:35,-119.7500,38.9963,1441.42,95.00,46.40,19.04,290.00,11.00,0.00,30.08,M,10.00,18.00,CLR,M,M,M,M,M,M,M,M,M,M,M,M,M,M,91.29,KMEV 182135Z AUTO 29011G18KT 10SM CLR 35/08 A3008 RMK AO2,M
BAM,2023-07-18 21:35,-116.8743,40.5990,1382.36,96.80,46.40,18.02,320.00,13.00,0.00,30.05,M,10.00,19.00,SCT,M,M,M,12000.00,M,M,M,M,M,M,M,M,M,M,93.05,KBAM 182135Z AUTO 32013G19KT 10SM SCT120 36/08 A3005 RMK AO1,M
HTH,2023-07-18 21:35,-118.6315,38.5448,1282.89,M,M,M,M,M,0.00,M,M,M,M,M,M,M,M,M,M,M,M,M,M,M,M,M,M,M,M,KHTH 182135Z AUTO RMK A01 PNO,M
TMT,2023-07-18 21:35,-117.1971,39.4643,1749.34,84.40,49.00,29.31,150.00,21.00,0.00,30.16,M,10.00,27.00,SCT,M,M,M,11000.00,M,M,M,VCTS,M,M,M,M,M,M,82.27,KTMT 182135Z AUTO 15021G27KT 10SM VCTS SCT110 29/10 A3016 RMK AO2 LTG DSNT NE SE AND NW T02910095,M
EKO,2023-07-18 21:40,-115.7860,40.8242,1367.00,90.00,53.00,28.45,150.00,7.00,T,30.09,M,10.00,M,FEW,SCT,OVC,M,2300.00,7000.00,11000.00,M,-TSRA,M,M,M,M,M,M,87.60,KEKO 182140Z AUTO 15007KT 10SM -TSRA FEW023 SCT070 OVC110 32/12 A3009 RMK AO2 LTG DSNT SW RAB29 TSB34 P0000 T03220117,M
ELY,2023-07-18 21:41,-114.8453,39.2950,1909.00,M,M,M,M,M,0.00,30.21,M,M,M,M,M,M,M,M,M,M,M,M,M,M,M,M,M,M,M,KELY 182141Z AUTO A3021 RMK AO2 LTG DSNT E AND SE TSB12E35 PWINO FZRANO,M
P68,2023-07-18 21:53,-116.0056,39.6014,1993.00,85.00,46.00,25.69,190.00,22.00,0.00,30.19,1012.40,M,28.00,M,M,M,M,M,M,M,M,M,M,M,M,28.00,190.00,2023-07-18 21:52,82.42,KP68 182153Z AUTO 19022G28KT 29/08 A3019 RMK AO1 PK WND 19028/2152 SLP124 T02940078,M
DRA,2023-07-18 21:53,-116.0278,36.6206,1009.00,106.00,45.00,12.96,210.00,19.00,0.00,29.94,1007.30,10.00,26.00,CLR,M,M,M,M,M,M,M,M,M,M,M,30.00,210.00,2023-07-18 21:17,101.83,KDRA 182153Z AUTO 21019G26KT 10SM CLR 41/07 A2994 RMK AO2 PK WND 21030/2117 SLP073 T04110072,M
ELY,2023-07-18 21:53,-114.8453,39.2950,1909.00,M,M,M,M,M,0.00,30.20,M,M,M,M,M,M,M,M,M,M,M,M,M,M,M,M,M,M,M,KELY 182153Z AUTO A3020 RMK AO2 TSB12E35 SLPNO PWINO FZRANO,M
VGT,2023-07-18 21:53,-115.1933,36.2111,667.00,112.00,48.00,12.18,240.00,9.00,0.00,29.84,1008.40,10.00,20.00,CLR,M,M,M,M,M,M,M,M,M,M,M,M,M,M,108.35,KVGT 182153Z 24009G20KT 10SM CLR 44/09 A2984 RMK AO2 SLP084 T04440089,M
LOL,2023-07-18 21:53,-118.5701,40.0684,1192.43,97.00,44.00,16.35,180.00,4.00,0.00,29.98,1010.20,10.00,M,FEW,M,M,M,12000.00,M,M,M,M,M,M,M,M,M,M,92.91,KLOL 182153Z AUTO 18004KT 10SM FEW120 36/07 A2998 RMK AO2 SLP102 T03610067,M
EKO,2023-07-18 21:54,-115.7860,40.8242,1367.00,89.60,50.00,25.79,120.00,9.91,M,30.08,M,10.00,17.11,FEW,SCT,M,M,7001.00,10000.00,M,M,VCTS,M,M,M,M,M,M,86.70,SPECI KEKO 182154Z 12010G17KT 10SM VCTS FEW070 SCT100 32/10 A3008 RMK AO2 LTG DSNT E-SW RAB29E50 TSB34E54 P0000 FIBI,M
BVU,2023-07-18 21:55,-114.8611,35.9475,671.00,109.40,48.20,13.24,180.00,18.00,0.00,29.83,M,10.00,24.00,CLR,M,M,M,M,M,M,M,M,M,M,M,M,M,M,105.97,KBVU 182155Z AUTO 18018G24KT 160V230 10SM CLR 43/09 A2983 RMK AO2,M
CXP,2023-07-18 21:55,-119.7326,39.1923,1431.00,93.20,44.60,18.80,280.00,10.00,0.00,30.10,M,10.00,16.00,CLR,M,M,M,M,M,M,M,M,M,M,M,M,M,M,89.34,KCXP 182155Z AUTO 28010G16KT 10SM CLR 34/07 A3010 RMK AO2,M
RNO,2023-07-18 21:55,-119.7711,39.4839,1341.00,96.00,45.00,17.51,270.00,11.00,0.00,30.05,1010.50,10.00,M,FEW,SCT,M,M,10000.00,15000.00,M,M,M,M,M,M,M,M,M,92.07,KRNO 182155Z 27011KT 10SM FEW100 SCT150 36/07 A3005 RMK AO2 SLP105 ACSL S TCU DSNT SE T03560072,M
RTS,2023-07-18 21:55,-119.8764,39.6682,1539.00,93.20,35.60,13.25,220.00,14.00,0.00,30.13,M,10.00,21.00,CLR,M,M,M,M,M,M,M,M,M,M,M,M,M,M,88.76,KRTS 182155Z AUTO 22014G21KT 10SM CLR 34/02 A3013 RMK AO2,M
05U,2023-07-18 21:55,-116.0051,39.6042,1811.23,84.20,48.20,28.63,M,M,0.00,30.22,M,10.00,M,SCT,M,M,M,10000.00,M,M,M,M,M,M,M,M,M,M,82.04,K05U 182155Z AUTO 10SM SCT100 29/09 A3022 RMK A01,M
MEV,2023-07-18 21:55,-119.7500,38.9963,1441.42,95.00,46.40,19.04,290.00,14.00,0.00,30.08,M,10.00,20.00,CLR,M,M,M,M,M,M,M,M,M,M,M,M,M,M,91.29,KMEV 182155Z AUTO 29014G20KT 10SM CLR 35/08 A3008 RMK AO2,M
BAM,2023-07-18 21:55,-116.8743,40.5990,1382.36,95.00,46.40,19.04,360.00,4.00,0.00,30.04,M,10.00,M,SCT,M,M,M,12000.00,M,M,M,M,M,M,M,M,M,M,91.29,KBAM 182155Z AUTO 36004KT 10SM SCT120 35/08 A3004 RMK AO1,M
HTH,2023-07-18 21:55,-118.6315,38.5448,1282.89,78.80,64.40,61.36,210.00,10.00,0.17,30.07,M,10.00,15.00,M,M,M,M,M,M,M,M,M,M,M,M,M,M,M,78.80,KHTH 182155Z AUTO 21010G15KT 10SM 26/18 A3007 RMK A01 P0017,M
TMT,2023-07-18 21:55,-117.1971,39.4643,1749.34,82.60,53.60,36.83,140.00,7.00,0.00,30.16,M,10.00,M,SCT,M,M,M,11000.00,M,M,M,TS,M,M,M,M,M,M,81.59,KTMT 182155Z AUTO 14007KT 10SM TS SCT110 28/12 A3016 RMK AO2 LTG DSNT NE T02810120,M
INS,2023-07-18 21:55,-115.6733,36.5872,955.00,104.00,39.20,11.00,10.00,5.00,0.00,29.91,1006.80,10.00,M,CLR,M,M,M,M,M,M,M,M,M,M,M,M,M,M,98.56,KINS 182155Z AUTO 01005KT 10SM CLR 40/04 A2991 RMK AO2 SLP068 T04010040 $,M
LSV,2023-07-18 21:55,-115.0343,36.2362,570.00,113.00,43.50,9.98,200.00,15.00,0.00,29.79,1005.40,10.00,21.00,FEW,M,M,M,20000.00,M,M,M,M,M,M,M,M,M,M,107.81,KLSV 182155Z COR 20015G21KT 10SM FEW200 45/06 A2979 RMK AO2 SLP054 T04510064 $ COR 2209,M
EKO,2023-07-18 21:56,-115.7860,40.8242,1367.00,89.00,51.00,27.27,120.00,13.00,T,30.08,1012.10,10.00,19.00,FEW,SCT,M,M,7000.00,10000.00,M,M,VCTS,M,M,M,M,M,M,86.31,KEKO 182156Z AUTO 12013G19KT 10SM VCTS FEW070 SCT100 32/11 A3008 RMK AO2 LTG DSNT E-SW RAB29E50 TSB34E54 SLP121 P0000 T03170106,M
WMC,2023-07-18 21:56,-117.8072,40.9019,1315.00,M,M,M,M,M,0.00,30.03,M,M,M,M,M,M,M,M,M,M,M,M,M,M,M,M,M,M,M,KWMC 182156Z AUTO A3003 RMK AO2 SLPNO PWINO FZRANO $,M
NFL,2023-07-18 21:56,-118.7010,39.4166,1199.00,100.00,49.00,18.02,210.00,8.00,0.00,29.99,1012.60,10.00,M,SCT,SCT,BKN,M,7000.00,12000.00,18000.00,M,M,M,M,M,M,M,M,96.77,KNFL 182156Z 21008KT 10SM SCT070 SCT120 BKN180 38/09 A2999 RMK AO2 SLP126 CB DSNT NE-SE-SW T03780094,M
HND,2023-07-18 21:56,-115.1344,35.9729,742.79,110.00,51.00,14.44,200.00,14.00,0.00,29.90,1009.80,10.00,17.00,CLR,M,M,M,M,M,M,M,M,M,M,M,26.00,240.00,2023-07-18 21:09,107.54,KHND 182156Z 20014G17KT 10SM CLR 43/11 A2990 RMK AO2 PK WND 24026/2109 SLP098 T04330106,M
TPH,2023-07-18 21:56,-117.0904,38.0505,1654.00,95.00,45.00,18.06,190.00,11.00,0.00,30.10,1009.10,10.00,19.00,CLR,M,M,M,M,M,M,M,M,M,M,M,M,M,M,91.10,KTPH 182156Z AUTO 19011G19KT 10SM CLR 35/07 A3010 RMK AO2 LTG DSNT W SLP091 T03500072,M
LAS,2023-07-18 21:56,-115.1634,36.0719,663.00,110.00,47.00,12.43,210.00,10.00,0.00,29.85,1007.20,10.00,23.00,FEW,FEW,M,M,14000.00,24000.00,M,M,M,M,M,M,M,M,M,106.11,KLAS 182156Z 21010G23KT 10SM FEW140 FEW240 43/08 A2985 RMK AO2 SLP072 T04330083,M
LSV,2023-07-18 22:00,-115.0343,36.2362,570.00,113.00,46.40,11.15,160.00,14.00,0.00,29.78,M,10.00,21.00,FEW,M,M,M,20000.00,M,M,M,M,M,M,M,M,M,M,108.71,KLSV 182200Z COR AUTO 16014G21KT 10SM FEW200 45/08 A2978 RMK AO2 WSHFT 2155 SLPNO $ COR 2208,M
EKO,2023-07-18 22:12,-115.7860,40.8242,1367.00,86.00,56.00,36.03,120.00,9.00,0.00,30.08,M,10.00,M,CLR,M,M,M,M,M,M,M,M,M,M,M,M,M,M,84.68,KEKO 182212Z AUTO 12009KT 10SM CLR 30/13 A3008 RMK AO2 LTG DSNT E-SW T03000133,M
BVU,2023-07-18 22:15,-114.8611,35.9475,671.00,111.20,46.40,11.74,190.00,13.00,0.00,29.83,M,10.00,25.00,CLR,M,M,M,M,M,M,M,M,M,M,M,M,M,M,107.02,KBVU 182215Z AUTO 19013G25KT 10SM CLR 44/08 A2983 RMK AO2,M
CXP,2023-07-18 22:15,-119.7326,39.1923,1431.00,93.20,44.60,18.80,280.00,12.00,0.00,30.10,M,10.00,20.00,CLR,M,M,M,M,M,M,M,M,M,M,M,M,M,M,89.34,KCXP 182215Z AUTO 28012G20KT 10SM CLR 34/07 A3010 RMK AO2 LTG DSNT SE,M
RTS,2023-07-18 22:15,-119.8764,39.6682,1539.00,93.20,37.40,14.23,210.00,15.00,0.00,30.13,M,10.00,M,CLR,M,M,M,M,M,M,M,M,M,M,M,M,M,M,88.83,KRTS 182215Z AUTO 21015KT 10SM CLR 34/03 A3013 RMK AO2,M
05U,2023-07-18 22:15,-116.0051,39.6042,1811.23,69.80,53.60,56.38,M,M,0.00,30.23,M,3.00,M,M,M,M,M,M,M,M,M,HZ,M,M,M,M,M,M,69.80,K05U 182215Z AUTO 3SM HZ 21/12 A3023 RMK A01,M
MEV,2023-07-18 22:15,-119.7500,38.9963,1441.42,93.20,46.40,20.13,290.00,13.00,0.00,30.07,M,10.00,M,CLR,M,M,M,M,M,M,M,M,M,M,M,M,M,M,89.55,KMEV 182215Z AUTO 29013KT 10SM CLR 34/08 A3007 RMK AO2 LTG DSNT SE,M
BAM,2023-07-18 22:15,-116.8743,40.5990,1382.36,95.00,50.00,21.79,10.00,3.00,0.00,30.04,M,10.00,M,BKN,M,M,M,12000.00,M,M,M,M,M,M,M,M,M,M,91.89,KBAM 182215Z AUTO 01003KT 10SM BKN120 35/10 A3004 RMK AO1,M
HTH,2023-07-18 22:15,-118.6315,38.5448,1282.89,M,M,M,M,M,0.00,30.08,M,M,M,M,M,M,M,M,M,M,M,M,M,M,M,M,M,M,M,KHTH 182215Z AUTO A3008 RMK A01,M
TMT,2023-07-18 22:15,-117.1971,39.4643,1749.34,86.00,52.30,31.47,40.00,14.00,0.00,30.16,M,10.00,17.00,SCT,M,M,M,11000.00,M,M,M,VCTS,M,M,M,M,M,M,83.95,KTMT 182215Z AUTO 04014G17KT 10SM VCTS SCT110 30/11 A3016 RMK AO2 LTG DSNT NE T03000113,M
ELY,2023-07-18 22:31,-114.8453,39.2950,1909.00,M,M,M,M,M,0.00,30.19,M,M,M,M,M,M,M,M,M,M,M,VCTS,M,M,M,M,M,M,M,KELY 182231Z AUTO VCTS A3019 RMK AO2 LTG DSNT W PWINO FZRANO,M
BVU,2023-07-18 22:35,-114.8611,35.9475,671.00,109.40,46.40,12.37,190.00,15.00,0.00,29.82,M,10.00,22.00,CLR,M,M,M,M,M,M,M,M,M,M,M,M,M,M,105.36,KBVU 182235Z AUTO 19015G22KT 10SM CLR 43/08 A2982 RMK AO2,M
CXP,2023-07-18 22:35,-119.7326,39.1923,1431.00,93.20,44.60,18.80,250.00,11.00,0.00,30.09,M,10.00,19.00,CLR,M,M,M,M,M,M,M,M,M,M,M,M,M,M,89.34,KCXP 182235Z AUTO 25011G19KT 230V290 10SM CLR 34/07 A3009 RMK AO2,M
RTS,2023-07-18 22:35,-119.8764,39.6682,1539.00,93.20,37.40,14.23,230.00,16.00,0.00,30.12,M,10.00,22.00,CLR,M,M,M,M,M,M,M,M,M,M,M,M,M,M,88.83,KRTS 182235Z AUTO 23016G22KT 10SM CLR 34/03 A3012 RMK AO2,M
05U,2023-07-18 22:35,-116.0051,39.6042,1811.23,69.80,59.00,68.55,M,M,0.00,30.26,M,9.00,M,M,M,M,M,M,M,M,M,M,M,M,M,M,M,M,69.80,K05U 182235Z AUTO 9SM 21/15 A3026 RMK A01,M
MEV,2023-07-18 22:35,-119.7500,38.9963,1441.42,93.20,46.40,20.13,290.00,15.00,0.00,30.07,M,10.00,20.00,CLR,M,M,M,M,M,M,M,M,M,M,M,M,M,M,89.55,KMEV 182235Z AUTO 29015G20KT 10SM CLR 34/08 A3007 RMK AO2,M
BAM,2023-07-18 22:35,-116.8743,40.5990,1382.36,96.80,46.40,18.02,20.00,6.00,0.00,30.04,M,10.00,M,SCT,M,M,M,12000.00,M,M,M,M,M,M,M,M,M,M,93.05,KBAM 182235Z AUTO 02006KT 10SM SCT120 36/08 A3004 RMK AO1,M
HTH,2023-07-18 22:35,-118.6315,38.5448,1282.89,75.20,59.00,57.12,250.00,16.00,0.00,30.07,M,8.00,M,M,M,M,M,M,M,M,M,M,M,M,M,M,M,M,75.20,KHTH 182235Z AUTO 25016KT 8SM 24/15 A3007 RMK A01,M
TMT,2023-07-18 22:35,-117.1971,39.4643,1749.34,83.70,53.40,35.28,30.00,14.00,0.00,30.16,M,10.00,M,SCT,M,M,M,11000.00,M,M,M,M,M,M,M,M,M,M,82.35,KTMT 182235Z AUTO 03014KT 10SM SCT110 29/12 A3016 RMK AO2 LTG DSNT N AND E T02870119,M
LSV,2023-07-18 22:39,-115.0343,36.2362,570.00,113.00,42.80,9.72,160.00,13.00,0.00,29.77,M,10.00,20.00,CLR,M,M,M,M,M,M,M,M,M,M,M,M,M,M,107.61,KLSV 182239Z AUTO 16013G20KT 10SM CLR 45/06 A2977 RMK AO2 WSHFT 35 SLPNO $,M
LSV,2023-07-18 22:46,-115.0343,36.2362,570.00,113.00,42.80,9.72,200.00,15.00,0.00,29.77,M,10.00,21.00,CLR,M,M,M,M,M,M,M,M,M,M,M,M,M,M,107.61,KLSV 182246Z AUTO 20015G21KT 10SM CLR 45/06 A2977 RMK AO2 WSHFT 39 SLPNO $,M
P68,2023-07-18 22:53,-116.0056,39.6014,1993.00,71.00,57.00,61.24,170.00,13.00,0.04,30.23,1014.90,M,M,M,M,M,M,M,M,M,M,M,M,M,M,33.00,240.00,2023-07-18 22:05,71.00,KP68 182253Z AUTO 17013KT 22/14 A3023 RMK AO1 PK WND 24033/2205 SLP149 P0004 T02170139 $,M
DRA,2023-07-18 22:53,-116.0278,36.6206,1009.00,106.00,46.00,13.46,190.00,14.00,0.00,29.93,1007.00,10.00,28.00,CLR,M,M,M,M,M,M,M,M,M,M,M,31.00,190.00,2023-07-18 22:28,102.07,KDRA 182253Z AUTO 19014G28KT 10SM CLR 41/08 A2993 RMK AO2 PK WND 19031/2228 SLP070 T04110078,M
ELY,2023-07-18 22:53,-114.8453,39.2950,1909.00,M,M,M,M,M,0.00,30.18,M,M,M,M,M,M,M,M,M,M,M,VCTS,M,M,M,M,M,M,M,KELY 182253Z AUTO VCTS A3018 RMK AO2 LTG DSNT SE AND W AND NW SLPNO PWINO FZRANO,M
VGT,2023-07-18 22:53,-115.1933,36.2111,667.00,111.00,44.00,10.78,200.00,13.00,0.00,29.82,1007.70,10.00,19.00,CLR,M,M,M,M,M,M,M,M,M,M,M,M,M,M,106.07,KVGT 182253Z 20013G19KT 10SM CLR 44/07 A2982 RMK AO2 SLP077 T04390067,M
LOL,2023-07-18 22:53,-118.5701,40.0684,1192.43,99.00,44.00,15.38,270.00,7.00,0.00,29.96,1009.80,10.00,M,FEW,M,M,M,12000.00,M,M,M,M,M,M,M,M,M,M,94.85,KLOL 182253Z AUTO 27007KT 10SM FEW120 37/07 A2996 RMK AO2 SLP098 T03720067,M
BVU,2023-07-18 22:55,-114.8611,35.9475,671.00,111.20,46.40,11.74,200.00,15.00,0.00,29.81,M,10.00,24.00,CLR,M,M,M,M,M,M,M,M,M,M,M,M,M,M,107.02,KBVU 182255Z AUTO 20015G24KT 10SM CLR 44/08 A2981 RMK AO2,M
CXP,2023-07-18 22:55,-119.7326,39.1923,1431.00,93.20,44.60,18.80,280.00,13.00,0.00,30.09,M,10.00,18.00,CLR,M,M,M,M,M,M,M,M,M,M,M,M,M,M,89.34,KCXP 182255Z AUTO 28013G18KT 240V300 10SM CLR 34/07 A3009 RMK AO2,M
INS,2023-07-18 22:55,-115.6733,36.5872,955.00,105.80,38.00,9.95,190.00,19.00,0.00,29.89,1006.10,10.00,24.00,CLR,M,M,M,M,M,M,M,M,M,M,M,26.00,220.00,2023-07-18 22:51,99.88,KINS 182255Z AUTO 19019G24KT 10SM CLR 41/03 A2989 RMK AO2 PK WND 22026/51 SLP061 T04100033 $,M
RNO,2023-07-18 22:55,-119.7711,39.4839,1341.00,96.00,44.00,16.86,270.00,19.00,0.00,30.03,1010.00,10.00,28.00,FEW,FEW,M,M,12000.00,18000.00,M,M,M,M,M,M,28.00,280.00,2023-07-18 22:53,91.95,KRNO 182255Z 27019G28KT 10SM FEW120 FEW180 36/07 A3003 RMK AO2 PK WND 28028/2253 SLP100 CB DSNT SE T03560067,M
LSV,2023-07-18 22:55,-115.0343,36.2362,570.00,112.60,43.00,9.91,190.00,16.00,0.00,29.76,M,10.00,21.00,CLR,M,M,M,M,M,M,M,M,M,M,M,M,M,M,107.32,KLSV 182255Z AUTO 19016G21KT 10SM CLR 45/06 A2976 RMK AO2 SLPNO T04480062 $,M
RTS,2023-07-18 22:55,-119.8764,39.6682,1539.00,91.40,39.20,16.15,240.00,13.00,0.00,30.12,M,10.00,18.00,CLR,M,M,M,M,M,M,M,M,M,M,M,M,M,M,87.30,KRTS 182255Z AUTO 24013G18KT 10SM CLR 33/04 A3012 RMK AO2,M
05U,2023-07-18 22:55,-116.0051,39.6042,1811.23,68.00,57.20,68.35,M,M,0.05,30.24,M,8.00,M,M,M,M,M,M,M,M,M,M,M,M,M,M,M,M,68.00,K05U 182255Z AUTO 8SM 20/14 A3024 RMK A01 P0005,M
MEV,2023-07-18 22:55,-119.7500,38.9963,1441.42,93.20,46.40,20.13,270.00,14.00,0.00,30.06,M,10.00,21.00,CLR,M,M,M,M,M,M,M,M,M,M,M,M,M,M,89.55,KMEV 182255Z AUTO 27014G21KT 10SM CLR 34/08 A3006 RMK AO2 LTG DSNT E AND SE,M
BAM,2023-07-18 22:55,-116.8743,40.5990,1382.36,96.80,46.40,18.02,10.00,8.00,0.00,30.03,M,10.00,M,SCT,M,M,M,12000.00,M,M,M,M,M,M,M,M,M,M,93.05,KBAM 182255Z AUTO 01008KT 10SM SCT120 36/08 A3003 RMK AO1,M
HTH,2023-07-18 22:55,-118.6315,38.5448,1282.89,80.60,59.00,47.79,270.00,9.00,0.05,30.06,M,8.00,15.00,CLR,M,M,M,M,M,M,M,M,M,M,M,M,M,M,81.11,KHTH 182255Z AUTO 27009G15KT 8SM CLR 27/15 A3006 RMK A01 P0005,M
TMT,2023-07-18 22:55,-117.1971,39.4643,1749.34,84.70,55.00,36.22,40.00,16.00,0.00,30.15,M,10.00,20.00,CLR,M,M,M,M,M,M,M,M,M,M,M,M,M,M,83.40,KTMT 182255Z AUTO 04016G20KT 10SM CLR 29/13 A3015 RMK AO2 LTG DSNT NE THRU SW T02930127,M
EKO,2023-07-18 22:56,-115.7860,40.8242,1367.00,90.00,51.00,26.43,160.00,4.00,0.00,30.07,1011.60,10.00,M,FEW,M,M,M,11000.00,M,M,M,M,M,M,M,M,M,M,87.22,KEKO 182256Z AUTO 16004KT 10SM FEW110 32/11 A3007 RMK AO2 LTG DSNT N AND SE AND S SLP116 T03220106,M
WMC,2023-07-18 22:56,-117.8072,40.9019,1315.00,M,M,M,M,M,0.00,30.00,M,M,M,M,M,M,M,M,M,M,M,M,M,M,M,M,M,M,M,KWMC 182256Z AUTO A3000 RMK AO2 SLPNO PWINO FZRANO $,M
NFL,2023-07-18 22:56,-118.7010,39.4166,1199.00,97.00,47.00,18.32,0.00,0.00,0.00,29.96,1011.80,10.00,M,BKN,BKN,BKN,M,7000.00,12000.00,18000.00,M,M,M,M,M,M,M,M,93.35,KNFL 182256Z 00000KT 10SM BKN070 BKN120 BKN180 36/08 A2996 RMK AO2 SLP118 CB DSNT E-S-SW MOV NE T03610083,M
HND,2023-07-18 22:56,-115.1344,35.9729,742.79,110.00,49.00,13.40,230.00,14.00,0.00,29.88,1009.10,10.00,21.00,CLR,M,M,M,M,M,M,M,M,M,M,M,M,M,M,106.81,KHND 182256Z 23014G21KT 10SM CLR 43/09 A2988 RMK AO2 SLP091 T04330094,M
TPH,2023-07-18 22:56,-117.0904,38.0505,1654.00,94.00,44.00,17.93,200.00,6.00,0.00,30.08,1008.80,10.00,22.00,FEW,M,M,M,11000.00,M,M,M,M,M,M,M,M,M,M,90.04,KTPH 182256Z AUTO 20006G22KT 10SM FEW110 34/07 A3008 RMK AO2 LTG DSNT W SLP088 T03440067,M
LAS,2023-07-18 22:56,-115.1634,36.0719,663.00,109.00,46.00,12.33,230.00,11.00,0.00,29.83,1006.50,10.00,18.00,FEW,FEW,M,M,14000.00,24000.00,M,M,M,M,M,M,M,M,M,104.86,KLAS 182256Z 23011G18KT 10SM FEW140 FEW240 43/08 A2983 RMK AO2 SLP065 T04280078,M
P68,2023-07-18 23:03,-116.0056,39.6014,1993.00,71.00,54.00,54.92,160.00,13.00,0.00,30.20,M,M,22.00,M,M,M,M,M,M,M,M,M,M,M,M,M,M,M,71.00,KP68 182303Z AUTO 16013G22KT 22/12 A3020 RMK AO1 WSHFT 2246 T02170122 $,M
05U,2023-07-18 23:10,-116.0051,39.6042,1811.23,69.80,57.20,64.26,M,M,0.00,30.21,M,8.00,M,M,M,M,M,M,M,M,M,M,M,M,M,M,M,M,69.80,K05U 182310Z AUTO 8SM 21/14 A3021 RMK A01,M
LSV,2023-07-18 23:12,-115.0343,36.2362,570.00,113.00,42.80,9.72,150.00,13.00,0.00,29.76,M,10.00,M,CLR,M,M,M,M,M,M,M,M,M,M,M,M,M,M,107.61,KLSV 182312Z AUTO 15013KT 10SM CLR 45/06 A2976 RMK AO2 WSHFT 08 SLPNO $,M
ELY,2023-07-18 23:14,-114.8453,39.2950,1909.00,M,M,M,M,M,0.00,30.19,M,M,M,M,M,M,M,M,M,M,M,TS,M,M,M,M,M,M,M,KELY 182314Z AUTO TS A3019 RMK AO2 LTG DSNT ALQDS TSB08 PWINO FZRANO,M
BVU,2023-07-18 23:15,-114.8611,35.9475,671.00,111.20,46.40,11.74,180.00,16.00,0.00,29.81,M,10.00,22.00,CLR,M,M,M,M,M,M,M,M,M,M,M,M,M,M,107.02,KBVU 182315Z AUTO 18016G22KT 10SM CLR 44/08 A2981 RMK AO2,M
CXP,2023-07-18 23:15,-119.7326,39.1923,1431.00,93.20,44.60,18.80,290.00,11.00,0.00,30.09,M,10.00,16.00,CLR,M,M,M,M,M,M,M,M,M,M,M,M,M,M,89.34,KCXP 182315Z AUTO 29011G16KT 10SM CLR 34/07 A3009 RMK AO2 LTG DSNT SE,M
RTS,2023-07-18 23:15,-119.8764,39.6682,1539.00,91.40,37.40,15.05,240.00,11.00,0.00,30.11,M,10.00,19.00,CLR,M,M,M,M,M,M,M,M,M,M,M,M,M,M,87.23,KRTS 182315Z AUTO 24011G19KT 10SM CLR 33/03 A3011 RMK AO2,M
MEV,2023-07-18 23:15,-119.7500,38.9963,1441.42,93.20,44.60,18.80,280.00,15.00,0.00,30.06,M,10.00,23.00,CLR,M,M,M,M,M,M,M,M,M,M,M,M,M,M,89.34,KMEV 182315Z AUTO 28015G23KT 10SM CLR 34/07 A3006 RMK AO2,M
BAM,2023-07-18 23:15,-116.8743,40.5990,1382.36,96.80,44.60,16.83,360.00,4.00,0.00,30.02,M,10.00,M,SCT,M,M,M,12000.00,M,M,M,M,M,M,M,M,M,M,92.79,KBAM 182315Z AUTO 36004KT 10SM SCT120 36/07 A3002 RMK AO1,M
HTH,2023-07-18 23:15,-118.6315,38.5448,1282.89,86.00,57.20,37.62,290.00,9.00,0.00,30.05,M,10.00,14.00,CLR,M,M,M,M,M,M,M,M,M,M,M,M,M,M,84.97,KHTH 182315Z AUTO 29009G14KT 10SM CLR 30/14 A3005 RMK A01,M
TMT,2023-07-18 23:15,-117.1971,39.4643,1749.34,84.00,55.40,37.59,50.00,11.00,0.00,30.15,M,10.00,M,CLR,M,M,M,M,M,M,M,M,M,M,M,M,M,M,82.93,KTMT 182315Z AUTO 05011KT 10SM CLR 29/13 A3015 RMK AO2 LTG DSNT ALQS T02890130,M
TPH,2023-07-18 23:18,-117.0904,38.0505,1654.00,94.00,44.00,17.93,190.00,13.00,0.00,30.07,M,10.00,19.00,FEW,M,M,M,12000.00,M,M,M,VCTS,M,M,M,M,M,M,90.04,KTPH 182318Z AUTO 19013G19KT 10SM VCTS FEW120 34/07 A3007 RMK AO2 LTG DSNT W-N T03440067,M
ELY,2023-07-18 23:29,-114.8453,39.2950,1909.00,M,M,M,M,M,0.00,30.20,M,M,M,M,M,M,M,M,M,M,M,VCTS,M,M,M,M,M,M,M,KELY 182329Z AUTO VCTS A3020 RMK AO2 LTG DSNT SW-N TSB08E23 PWINO FZRANO,M
NFL,2023-07-18 23:32,-118.7010,39.4166,1199.00,94.00,56.00,28.01,170.00,7.00,0.00,29.97,M,10.00,M,BKN,BKN,BKN,M,7000.00,12000.00,18000.00,M,TS,M,M,M,M,M,M,92.36,KNFL 182332Z 17007KT 10SM TS BKN070CB BKN120 BKN180 34/13 A2997 RMK AO2 TSB26 OCNL LTGICCCCG VC SW TS SW MOV NE T03440133,M
BVU,2023-07-18 23:35,-114.8611,35.9475,671.00,111.20,44.60,10.96,190.00,14.00,0.00,29.80,M,10.00,21.00,CLR,M,M,M,M,M,M,M,M,M,M,M,M,M,M,106.44,KBVU 182335Z AUTO 19014G21KT 10SM CLR 44/07 A2980 RMK AO2,M
CXP,2023-07-18 23:35,-119.7326,39.1923,1431.00,91.40,42.80,18.56,260.00,12.00,0.00,30.09,M,10.00,18.00,CLR,M,M,M,M,M,M,M,M,M,M,M,M,M,M,87.52,KCXP 182335Z AUTO 26012G18KT 10SM CLR 33/06 A3009 RMK AO2 LTG DSNT SE,M
RTS,2023-07-18 23:35,-119.8764,39.6682,1539.00,91.40,37.40,15.05,230.00,8.00,0.00,30.11,M,10.00,18.00,CLR,M,M,M,M,M,M,M,M,M,M,M,M,M,M,87.23,KRTS 182335Z AUTO 23008G18KT 10SM CLR 33/03 A3011 RMK AO2,M
05U,2023-07-18 23:35,-116.0051,39.6042,1811.23,71.60,57.20,60.44,M,M,0.00,30.20,M,10.00,M,M,M,M,M,M,M,M,M,M,M,M,M,M,M,M,71.60,K05U 182335Z AUTO 10SM 22/14 A3020 RMK A01,M
MEV,2023-07-18 23:35,-119.7500,38.9963,1441.42,93.20,44.60,18.80,280.00,15.00,0.00,30.07,M,10.00,M,CLR,M,M,M,M,M,M,M,M,M,M,M,M,M,M,89.34,KMEV 182335Z AUTO 28015KT 10SM CLR 34/07 A3007 RMK AO2,M
BAM,2023-07-18 23:35,-116.8743,40.5990,1382.36,98.60,44.60,15.93,310.00,5.00,0.00,30.02,M,10.00,M,CLR,M,M,M,M,M,M,M,M,M,M,M,M,M,M,94.55,KBAM 182335Z AUTO 31005KT 10SM CLR 37/07 A3002 RMK AO1,M
HTH,2023-07-18 23:35,-118.6315,38.5448,1282.89,86.00,57.20,37.62,340.00,13.00,0.00,30.05,M,10.00,M,CLR,M,M,M,M,M,M,M,M,M,M,M,M,M,M,84.97,KHTH 182335Z AUTO 34013KT 10SM CLR 30/14 A3005 RMK A01,M
TMT,2023-07-18 23:35,-117.1971,39.4643,1749.34,84.60,52.50,33.16,50.00,9.00,0.00,30.15,M,10.00,M,SCT,M,M,M,12000.00,M,M,M,VCTS,M,M,M,M,M,M,82.88,KTMT 182335Z AUTO 05009KT 10SM VCTS SCT120 29/11 A3015 RMK AO2 LTG DSNT SE AND NW T02920114,M
P68,2023-07-18 23:53,-116.0056,39.6014,1993.00,76.00,59.00,55.62,340.00,13.00,0.00,30.20,1013.30,M,20.00,M,M,M,M,M,M,M,M,M,M,M,M,M,M,M,76.00,KP68 182353Z AUTO 34013G20KT 24/15 A3020 RMK AO1 WSHFT 2246 SLP133 60004 T02440150 10317 20206 $,M
DRA,2023-07-18 23:53,-116.0278,36.6206,1009.00,105.00,46.00,13.86,170.00,14.00,0.00,29.92,1006.60,10.00,26.00,CLR,M,M,M,M,M,M,M,M,M,M,M,29.00,190.00,2023-07-18 23:09,101.10,KDRA 182353Z AUTO 17014G26KT 10SM CLR 41/08 A2992 RMK AO2 PK WND 19029/2309 SLP066 T04060078 10417 20383 56013,M
ELY,2023-07-18 23:53,-114.8453,39.2950,1909.00,M,M,M,M,M,0.00,30.21,M,M,M,M,M,M,M,M,M,M,M,VCTS,M,M,M,M,M,M,M,KELY 182353Z AUTO VCTS A3021 RMK AO2 LTG DSNT ALQDS TSB08E23 SLPNO 55003 PWINO FZRANO,M
VGT,2023-07-18 23:53,-115.1933,36.2111,667.00,111.00,45.00,11.20,240.00,14.00,0.00,29.81,1007.30,10.00,M,CLR,M,M,M,M,M,M,M,M,M,M,M,M,M,M,106.37,KVGT 182353Z 24014KT 10SM CLR 44/07 A2981 RMK AO2 SLP073 T04390072 10444 20406 56019,M
LOL,2023-07-18 23:53,-118.5701,40.0684,1192.43,99.00,42.00,14.24,290.00,11.00,0.00,29.96,1009.60,10.00,M,CLR,M,M,M,M,M,M,M,M,M,M,M,M,M,M,94.59,KLOL 182353Z AUTO 29011KT 10SM CLR 37/06 A2996 RMK AO2 SLP096 T03720056 10383 20328 56015,M
BVU,2023-07-18 23:55,-114.8611,35.9475,671.00,109.40,42.80,10.78,200.00,12.00,0.00,29.80,M,10.00,18.00,CLR,M,M,M,M,M,M,M,M,M,M,M,M,M,M,104.25,KBVU 182355Z AUTO 20012G18KT 10SM CLR 43/06 A2980 RMK AO2,M
CXP,2023-07-18 23:55,-119.7326,39.1923,1431.00,93.20,41.00,16.37,290.00,14.00,0.00,30.09,M,10.00,20.00,CLR,M,M,M,M,M,M,M,M,M,M,M,M,M,M,89.03,KCXP 182355Z AUTO 29014G20KT 10SM CLR 34/05 A3009 RMK AO2,M
INS,2023-07-18 23:55,-115.6733,36.5872,955.00,104.70,39.60,10.94,200.00,19.00,0.00,29.88,1005.70,10.00,25.00,CLR,M,M,M,M,M,M,M,M,M,M,M,M,M,M,99.26,KINS 182355Z AUTO 20019G25KT 10SM CLR 40/04 A2988 RMK AO2 SLP057 T04040042 10412 20374 57017 $,M
RNO,2023-07-18 23:55,-119.7711,39.4839,1341.00,95.00,42.00,16.10,280.00,18.00,0.00,30.04,1010.30,10.00,25.00,FEW,FEW,M,M,12000.00,18000.00,M,M,M,M,M,M,M,M,M,90.79,KRNO 182355Z 28018G25KT 10SM FEW120 FEW180 35/06 A3004 RMK AO2 SLP103 CB DSNT E THRU SE T03500056 10361 20311 55008,M
LSV,2023-07-18 23:55,-115.0343,36.2362,570.00,112.50,43.00,9.93,190.00,16.00,0.00,29.75,M,10.00,21.00,CLR,M,M,M,M,M,M,M,M,M,M,M,M,M,M,107.24,KLSV 182355Z AUTO 19016G21KT 10SM CLR 45/06 A2975 RMK AO2 SLPNO T04470061 10451 20406 57020 $,M
RTS,2023-07-18 23:55,-119.8764,39.6682,1539.00,91.40,35.60,14.02,290.00,12.00,0.00,30.12,M,10.00,20.00,CLR,M,M,M,M,M,M,M,M,M,M,M,M,M,M,87.17,KRTS 182355Z AUTO 29012G20KT 10SM CLR 33/02 A3012 RMK AO2,M
05U,2023-07-18 23:55,-116.0051,39.6042,1811.23,77.00,59.00,53.80,M,M,0.00,30.22,M,10.00,M,M,M,M,M,M,M,M,M,M,M,M,M,M,M,M,77.00,K05U 182355Z AUTO 10SM 25/15 A3022 RMK A01,M
MEV,2023-07-18 23:55,-119.7500,38.9963,1441.42,93.20,44.60,18.80,270.00,15.00,0.00,30.08,M,10.00,M,CLR,M,M,M,M,M,M,M,M,M,M,M,M,M,M,89.34,KMEV 182355Z AUTO 27015KT 10SM CLR 34/07 A3008 RMK AO2,M
BAM,2023-07-18 23:55,-116.8743,40.5990,1382.36,95.00,44.60,17.78,340.00,5.00,0.00,30.02,M,10.00,M,CLR,M,M,M,M,M,M,M,M,M,M,M,M,M,M,91.06,KBAM 182355Z AUTO 34005KT 10SM CLR 35/07 A3002 RMK AO1,M
HTH,2023-07-18 23:55,-118.6315,38.5448,1282.89,87.80,59.00,37.90,330.00,15.00,0.00,30.06,M,10.00,22.00,CLR,M,M,M,M,M,M,M,M,M,M,M,M,M,M,87.12,KHTH 182355Z AUTO 33015G22KT 10SM CLR 31/15 A3006 RMK A01,M
TMT,2023-07-18 23:55,-117.1971,39.4643,1749.34,85.30,50.40,30.00,340.00,9.00,0.00,30.16,M,10.00,M,SCT,M,M,M,11000.00,M,M,M,TS,M,M,M,M,M,M,83.12,KTMT 182355Z AUTO 34009KT 10SM TS SCT110 30/10 A3016 RMK AO2 LTG DSNT ALQS T02960102 10330 20254,M
EKO,2023-07-18 23:56,-115.7860,40.8242,1367.00,91.00,47.00,22.05,170.00,12.00,0.00,30.07,1011.50,10.00,M,CLR,M,M,M,M,M,M,M,M,M,M,M,M,M,M,87.57,KEKO 182356Z AUTO 17012KT 10SM CLR 33/08 A3007 RMK AO2 LTG DSNT SE SLP115 60000 T03280083 10356 20294 56007,M
WMC,2023-07-18 23:56,-117.8072,40.9019,1315.00,M,M,M,M,M,0.00,29.99,M,M,M,M,M,M,M,M,M,M,M,M,M,M,M,M,M,M,M,KWMC 182356Z AUTO A2999 RMK AO2 SLPNO 56018 PWINO FZRANO $,M
NFL,2023-07-18 23:56,-118.7010,39.4166,1199.00,87.00,54.00,32.45,190.00,28.00,0.00,30.00,1013.10,7.00,39.00,BKN,BKN,BKN,M,7000.00,12000.00,18000.00,M,TS,M,M,M,39.00,190.00,2023-07-18 23:55,85.10,KNFL 182356Z 19028G39KT 7SM TS BKN070CB BKN120 BKN180 31/12 A3000 RMK AO2 PK WND 19039/2355 TSB26 SLP131 OCNL LTGICCCCG OHD TS OHD MOV NE T03060122 10383 20306 55002,M
HND,2023-07-18 23:56,-115.1344,35.9729,742.79,109.00,49.00,13.80,250.00,19.00,0.00,29.86,1008.70,10.00,23.00,CLR,M,M,M,M,M,M,M,M,M,M,M,M,M,M,105.85,KHND 182356Z 25019G23KT 10SM CLR 43/09 A2986 RMK AO2 SLP087 T04280094 10439 20394 56018,M
TPH,2023-07-18 23:56,-117.0904,38.0505,1654.00,90.00,47.00,22.76,310.00,14.00,0.00,30.08,1009.20,10.00,23.00,BKN,M,M,M,11000.00,M,M,M,VCTS,M,M,M,26.00,290.00,2023-07-18 23:37,86.66,KTPH 182356Z AUTO 31014G23KT 10SM VCTS BKN110 32/08 A3008 RMK AO2 PK WND 29026/2337 LTG DSNT NW-NE SLP092 T03220083 10361 20311 55013,M
LAS,2023-07-18 23:56,-115.1634,36.0719,663.00,109.00,46.00,12.33,190.00,12.00,0.00,29.81,1006.00,10.00,27.00,FEW,M,M,M,14000.00,M,M,M,M,M,M,M,27.00,260.00,2023-07-18 23:40,104.86,KLAS 182356Z 19012G27KT 10SM FEW140 43/08 A2981 RMK AO2 PK WND 26027/2340 SLP060 T04280078 10439 20400 56021,M
