station,valid,lon,lat,elevation,tmpf,dwpf,relh,drct,sknt,p01i,alti,mslp,vsby,gust,skyc1,skyc2,skyc3,skyc4,skyl1,skyl2,skyl3,skyl4,wxcodes,ice_accretion_1hr,ice_accretion_3hr,ice_accretion_6hr,peak_wind_gust,peak_wind_drct,peak_wind_time,feel,metar,snowdepth
VGT,2024-01-23 00:05,-115.1933,36.2111,667.00,52.00,49.00,89.46,110.00,10.00,0.01,29.77,M,2.00,M,SCT,OVC,M,M,800.00,2400.00,M,M,-RA BR,M,M,M,M,M,M,52.00,KVGT 230005Z 11010KT 2SM -RA BR SCT008 OVC024 11/09 A2977 RMK AO2 P0001 T01110094,M
BVU,2024-01-23 00:15,-114.8611,35.9475,671.00,51.80,48.20,87.47,140.00,9.00,0.00,29.78,M,10.00,M,BKN,BKN,OVC,M,1300.00,2200.00,2900.00,M,M,M,M,M,M,M,M,51.80,KBVU 230015Z AUTO 14009KT 10SM BKN013 BKN022 OVC029 11/09 A2978 RMK AO2,M
CXP,2024-01-23 00:15,-119.7326,39.1923,1431.00,44.60,39.20,81.20,70.00,7.00,0.00,29.77,M,10.00,M,BKN,BKN,M,M,2600.00,7000.00,M,M,M,M,M,M,M,M,M,40.14,KCXP 230015Z AUTO 07007KT 10SM BKN026 BKN070 07/04 A2977 RMK AO2,M
RTS,2024-01-23 00:15,-119.8764,39.6682,1539.00,44.60,35.60,70.48,320.00,5.00,0.00,29.77,M,10.00,M,FEW,SCT,SCT,M,2200.00,4300.00,5000.00,M,M,M,M,M,M,M,M,41.36,KRTS 230015Z AUTO 32005KT 10SM FEW022 SCT043 SCT050 07/02 A2977 RMK AO2,M
05U,2024-01-23 00:15,-116.0051,39.6042,1811.23,37.40,33.80,86.69,290.00,8.00,0.00,29.79,M,9.00,M,M,M,M,M,M,M,M,M,M,M,M,M,M,M,M,30.76,K05U 230015Z AUTO 29008KT 9SM 03/01 A2979 RMK A01,M
MEV,2024-01-23 00:15,-119.7500,38.9963,1441.42,46.40,37.40,70.68,0.00,0.00,0.00,29.75,M,10.00,M,FEW,FEW,BKN,M,2800.00,3700.00,4600.00,M,M,M,M,M,M,M,M,46.40,KMEV 230015Z AUTO 00000KT 10SM FEW028 FEW037 BKN046 08/03 A2975 RMK AO2,M
BAM,2024-01-23 00:15,-116.8743,40.5990,1382.36,42.80,41.00,93.30,50.00,6.00,0.00,29.76,M,10.00,M,BKN,OVC,M,M,2700.00,3400.00,M,M,M,M,M,M,M,M,M,38.54,KBAM 230015Z AUTO 05006KT 10SM BKN027 OVC034 06/05 A2976 RMK AO1,M
HTH,2024-01-23 00:15,-118.6315,38.5448,1282.89,44.60,42.80,93.35,360.00,7.00,0.00,29.76,M,8.00,M,BKN,BKN,OVC,M,2000.00,2600.00,4300.00,M,M,M,M,M,M,M,M,40.14,KHTH 230015Z AUTO 36007KT 8SM BKN020 BKN026 OVC043 07/06 A2976 RMK A01,M
10U,2024-01-23 00:15,-116.1876,41.9532,1637.00,37.40,33.80,86.69,160.00,5.00,0.00,29.78,M,10.00,M,OVC,M,M,M,1900.00,M,M,M,M,M,M,M,M,M,M,32.81,K10U 230015Z AUTO 16005KT 10SM OVC019 03/01 A2978 RMK AO2,M
TMT,2024-01-23 00:15,-117.1971,39.4643,1749.34,38.00,37.00,96.14,0.00,0.00,0.01,29.77,M,7.00,M,SCT,BKN,OVC,M,1300.00,1900.00,3500.00,M,-RA,M,M,M,M,M,M,38.00,KTMT 230015Z AUTO 00000KT 7SM -RA SCT013 BKN019 OVC035 03/03 A2977 RMK AO2 P0001 T00340028,M
LSV,2024-01-23 00:15,-115.0343,36.2362,570.00,53.60,48.20,81.87,120.00,5.00,0.00,29.75,1007.00,10.00,M,SCT,BKN,M,M,2000.00,3200.00,M,M,-RA,M,M,M,M,M,M,53.60,KLSV 230015Z COR 12005KT 10SM -RA SCT020 BKN032 12/09 A2975 RMK AO2A SLP070 $ COR 0037,M
TPH,2024-01-23 00:18,-117.0904,38.0505,1654.00,34.00,33.00,96.08,60.00,4.00,0.02,29.78,M,2.50,M,FEW,OVC,M,M,400.00,1700.00,M,M,-SN BR,M,M,M,M,M,M,29.76,KTPH 230018Z AUTO 06004KT 2 1/2SM -SN BR FEW004 OVC017 01/01 A2978 RMK AO2 P0002 T00110006,M
VGT,2024-01-23 00:20,-115.1933,36.2111,667.00,52.00,49.00,89.46,110.00,9.00,0.01,29.77,M,3.00,M,SCT,OVC,M,M,700.00,2600.00,M,M,-RA BR,M,M,M,M,M,M,52.00,KVGT 230020Z 11009KT 3SM -RA BR SCT007 OVC026 11/09 A2977 RMK AO2 P0001 T01110094,M
LOL,2024-01-23 00:21,-118.5701,40.0684,1192.43,43.00,42.00,96.23,50.00,3.00,0.01,29.77,M,6.00,M,FEW,BKN,OVC,M,2600.00,3700.00,5000.00,M,-RA BR,M,M,M,M,M,M,41.26,KLOL 230021Z AUTO 05003KT 6SM -RA BR FEW026 BKN037 OVC050 06/06 A2977 RMK AO2 P0001 T00610056,M
DRA,2024-01-23 00:25,-116.0278,36.6206,1009.00,48.00,46.00,92.74,190.00,3.00,0.01,29.75,M,10.00,M,BKN,OVC,M,M,1600.00,4300.00,M,M,-RA,M,M,M,M,M,M,46.98,KDRA 230025Z AUTO 19003KT 10SM -RA BKN016 OVC043 09/08 A2975 RMK AO2 P0001 T00890078,M
RNO,2024-01-23 00:26,-119.7711,39.4839,1341.00,45.00,39.00,79.36,280.00,4.00,0.04,29.77,M,3.00,M,BKN,OVC,M,M,2500.00,4000.00,M,M,RA,M,M,M,M,M,M,42.60,KRNO 230026Z 28004KT 3SM RA BKN025 OVC040 07/04 A2977 RMK AO2 P0004 T00720039,M
INS,2024-01-23 00:26,-115.6733,36.5872,955.00,48.20,46.40,93.45,110.00,16.00,0.00,29.75,1006.10,10.00,20.00,FEW,SCT,BKN,OVC,600.00,2900.00,3600.00,4700.00,-RA,M,M,M,M,M,M,41.53,KINS 230026Z AUTO 11016G20KT 10SM -RA FEW006 SCT029 BKN036 OVC047 09/08 A2975 RMK AO2 RAB26 SLP061,M
TPH,2024-01-23 00:29,-117.0904,38.0505,1654.00,34.00,33.00,96.08,30.00,3.00,0.03,29.78,M,4.00,M,OVC,M,M,M,1700.00,M,M,M,-SN BR,M,M,M,M,M,M,30.97,KTPH 230029Z AUTO 03003KT 4SM -SN BR OVC017 01/01 A2978 RMK AO2 P0003 T00110006,M
MEV,2024-01-23 00:30,-119.7500,38.9963,1441.42,46.40,37.40,70.68,340.00,4.00,0.00,29.76,M,10.00,M,FEW,BKN,BKN,M,2700.00,4600.00,8000.00,M,M,M,M,M,M,M,M,44.24,KMEV 230030Z AUTO 34004KT 10SM FEW027 BKN046 BKN080 08/03 A2976 RMK AO2,M
BVU,2024-01-23 00:35,-114.8611,35.9475,671.00,51.80,48.20,87.47,150.00,12.00,0.00,29.79,M,10.00,M,BKN,OVC,M,M,1400.00,3200.00,M,M,M,M,M,M,M,M,M,51.80,KBVU 230035Z AUTO 15012KT 10SM BKN014 OVC032 11/09 A2979 RMK AO2,M
CXP,2024-01-23 00:35,-119.7326,39.1923,1431.00,44.60,39.20,81.20,70.00,6.00,0.00,29.78,M,10.00,M,BKN,OVC,M,M,2700.00,3200.00,M,M,M,M,M,M,M,M,M,40.71,KCXP 230035Z AUTO 07006KT 10SM BKN027 OVC032 07/04 A2978 RMK AO2,M
RTS,2024-01-23 00:35,-119.8764,39.6682,1539.00,42.80,33.80,70.28,280.00,6.00,0.00,29.78,M,10.00,M,FEW,SCT,M,M,4300.00,6000.00,M,M,M,M,M,M,M,M,M,38.54,KRTS 230035Z AUTO 28006KT 10SM FEW043 SCT060 06/01 A2978 RMK AO2,M
05U,2024-01-23 00:35,-116.0051,39.6042,1811.23,37.40,33.80,86.69,290.00,6.00,0.00,29.80,M,4.00,M,M,M,M,M,M,M,M,M,BR,M,M,M,M,M,M,32.03,K05U 230035Z AUTO 29006KT 4SM BR 03/01 A2980 RMK A01,M
BAM,2024-01-23 00:35,-116.8743,40.5990,1382.36,42.80,41.00,93.30,60.00,7.00,0.00,29.77,M,10.00,M,BKN,OVC,M,M,2600.00,3100.00,M,M,M,M,M,M,M,M,M,37.94,KBAM 230035Z AUTO 06007KT 10SM BKN026 OVC031 06/05 A2977 RMK AO1,M
HTH,2024-01-23 00:35,-118.6315,38.5448,1282.89,44.60,42.80,93.35,350.00,8.00,0.00,29.77,M,8.00,M,FEW,BKN,OVC,M,1400.00,1900.00,3300.00,M,M,M,M,M,M,M,M,39.63,KHTH 230035Z AUTO 35008KT 8SM FEW014 BKN019 OVC033 07/06 A2977 RMK A01,M
TMT,2024-01-23 00:35,-117.1971,39.4643,1749.34,37.40,36.70,97.28,0.00,0.00,0.01,29.77,M,10.00,M,BKN,BKN,OVC,M,1300.00,1900.00,3300.00,M,-RA,M,M,M,M,M,M,37.40,KTMT 230035Z AUTO 00000KT 10SM -RA BKN013 BKN019 OVC033 03/03 A2977 RMK AO2 P0001 T00300026,M
10U,2024-01-23 00:35,-116.1876,41.9532,1637.00,37.40,33.80,86.69,M,M,0.00,29.79,M,10.00,M,OVC,M,M,M,1900.00,M,M,M,M,M,M,M,M,M,M,M,K10U 230035Z AUTO 4/04166704KT 10SM OVC019 03/01 A2979 RMK AO2,M
DRA,2024-01-23 00:36,-116.0278,36.6206,1009.00,47.00,46.00,96.29,190.00,3.00,0.02,29.75,M,8.00,M,BKN,OVC,M,M,1400.00,4100.00,M,M,-RA,M,M,M,M,M,M,45.84,KDRA 230036Z AUTO 19003KT 8SM -RA BKN014 OVC041 08/08 A2975 RMK AO2 P0002 T00830078,M
RNO,2024-01-23 00:39,-119.7711,39.4839,1341.00,44.00,39.00,82.44,0.00,0.00,0.06,29.77,M,5.00,M,BKN,OVC,M,M,2700.00,4000.00,M,M,RA,M,M,M,M,M,M,44.00,KRNO 230039Z 00000KT 5SM RA BKN027 OVC040 07/04 A2977 RMK AO2 P0006 T00670039,M
INS,2024-01-23 00:41,-115.6733,36.5872,955.00,48.20,46.40,93.45,120.00,15.00,0.00,29.75,1006.10,5.00,M,BKN,BKN,OVC,M,600.00,2000.00,4700.00,M,-RA,M,M,M,M,M,M,41.78,KINS 230041Z AUTO 12015KT 5SM -RA BKN006 BKN020 OVC047 09/08 A2975 RMK AO2 RAB26 SLP061,M
P68,2024-01-23 00:53,-116.0056,39.6014,1993.00,36.00,34.00,92.35,130.00,6.00,0.01,29.77,1006.50,M,M,M,M,M,M,M,M,M,M,M,M,M,M,M,M,M,30.35,KP68 230053Z AUTO 13006KT 02/01 A2977 RMK AO1 SLP065 P0001 T00220011,M
DRA,2024-01-23 00:53,-116.0278,36.6206,1009.00,47.00,45.00,92.71,240.00,4.00,0.02,29.75,1006.00,6.00,M,OVC,M,M,M,1400.00,M,M,M,-RA BR,M,M,M,M,M,M,44.94,KDRA 230053Z AUTO 24004KT 6SM -RA BR OVC014 08/07 A2975 RMK AO2 SLP060 P0002 T00830072,M
ELY,2024-01-23 00:53,-114.8453,39.2950,1909.00,35.00,31.00,85.17,190.00,8.00,T,29.81,1008.50,10.00,M,OVC,M,M,M,4000.00,M,M,M,-RA,M,M,M,M,M,M,27.81,KELY 230053Z AUTO 19008KT 10SM -RA OVC040 02/M01 A2981 RMK AO2 RAB10UPB45E47 SLP085 P0000 T00171006,M
VGT,2024-01-23 00:53,-115.1933,36.2111,667.00,52.00,49.00,89.46,110.00,9.00,0.01,29.77,1009.50,8.00,M,FEW,OVC,M,M,900.00,2300.00,M,M,-RA,M,M,M,M,M,M,52.00,KVGT 230053Z 11009KT 8SM -RA FEW009 OVC023 11/09 A2977 RMK AO2 SLP095 P0001 T01110094,M
WMC,2024-01-23 00:53,-117.8072,40.9019,1315.00,41.00,37.40,86.89,300.00,5.00,0.03,29.78,M,10.00,M,BKN,OVC,M,M,2500.00,3000.00,M,M,-RA,M,M,M,M,M,M,37.08,KWMC 230053Z AUTO 30005KT 10SM -RA BKN025 OVC030 05/03 A2978 RMK AO2 P0003,M
LOL,2024-01-23 00:53,-118.5701,40.0684,1192.43,43.00,42.00,96.23,50.00,3.00,0.02,29.77,1008.20,10.00,M,FEW,OVC,M,M,4700.00,5500.00,M,M,M,M,M,M,M,M,M,41.26,KLOL 230053Z AUTO 05003KT 10SM FEW047 OVC055 06/06 A2977 RMK AO2 RAE41 SLP082 P0002 T00610056,M
BVU,2024-01-23 00:55,-114.8611,35.9475,671.00,51.80,48.20,87.47,150.00,7.00,0.00,29.79,M,10.00,M,FEW,OVC,M,M,1400.00,2900.00,M,M,M,M,M,M,M,M,M,51.80,KBVU 230055Z AUTO 15007KT 10SM FEW014 OVC029 11/09 A2979 RMK AO2,M
CXP,2024-01-23 00:55,-119.7326,39.1923,1431.00,44.60,39.20,81.20,70.00,3.00,0.00,29.79,M,10.00,M,SCT,BKN,OVC,M,2900.00,3700.00,4200.00,M,-RA,M,M,M,M,M,M,43.09,KCXP 230055Z AUTO 07003KT 10SM -RA SCT029 BKN037 OVC042 07/04 A2979 RMK AO2,M
INS,2024-01-23 00:55,-115.6733,36.5872,955.00,48.20,45.00,88.62,120.00,12.00,0.01,29.75,1006.10,6.00,19.00,SCT,BKN,OVC,M,600.00,1500.00,2400.00,M,-RA,M,M,M,M,M,M,42.62,KINS 230055Z AUTO 12012G19KT 6SM -RA SCT006 BKN015 OVC024 09/07 A2975 RMK AO2 RAB26 SLP061 P0001 T00900073,M
RNO,2024-01-23 00:55,-119.7711,39.4839,1341.00,45.00,40.00,82.51,0.00,0.00,0.07,29.78,1006.80,7.00,M,BKN,BKN,M,M,2500.00,3800.00,M,M,M,M,M,M,M,M,M,45.00,KRNO 230055Z 00000KT 7SM BKN025 BKN038 07/04 A2978 RMK AO2 RAE55 SLP068 P0007 T00720044,M
RTS,2024-01-23 00:55,-119.8764,39.6682,1539.00,42.80,35.60,75.50,240.00,6.00,0.00,29.78,M,10.00,M,BKN,BKN,M,M,4200.00,6000.00,M,M,M,M,M,M,M,M,M,38.54,KRTS 230055Z AUTO 24006KT 10SM BKN042 BKN060 06/02 A2978 RMK AO2,M
05U,2024-01-23 00:55,-116.0051,39.6042,1811.23,37.40,33.80,86.69,290.00,5.00,0.01,29.80,M,5.00,M,M,M,M,M,M,M,M,M,BR,M,M,M,M,M,M,32.81,K05U 230055Z AUTO 29005KT 5SM BR 03/01 A2980 RMK A01 P0001,M
MEV,2024-01-23 00:55,-119.7500,38.9963,1441.42,44.60,37.40,75.68,350.00,7.00,0.00,29.76,M,10.00,M,FEW,BKN,OVC,M,2700.00,4400.00,5000.00,M,M,M,M,M,M,M,M,40.14,KMEV 230055Z AUTO 35007KT 10SM FEW027 BKN044 OVC050 07/03 A2976 RMK AO2,M
BAM,2024-01-23 00:55,-116.8743,40.5990,1382.36,42.80,41.00,93.30,60.00,8.00,0.00,29.78,M,10.00,M,OVC,M,M,M,2300.00,M,M,M,M,M,M,M,M,M,M,37.42,KBAM 230055Z AUTO 06008KT 10SM OVC023 06/05 A2978 RMK AO1,M
HTH,2024-01-23 00:55,-118.6315,38.5448,1282.89,44.60,44.60,100.00,350.00,7.00,0.00,29.77,M,8.00,M,FEW,SCT,OVC,M,1400.00,2000.00,2900.00,M,M,M,M,M,M,M,M,40.14,KHTH 230055Z AUTO 35007KT 8SM FEW014 SCT020 OVC029 07/07 A2977 RMK A01,M
TMT,2024-01-23 00:55,-117.1971,39.4643,1749.34,37.00,36.00,96.13,0.00,0.00,0.01,29.78,M,10.00,M,OVC,M,M,M,1500.00,M,M,M,-DZ,M,M,M,M,M,M,37.00,KTMT 230055Z AUTO 00000KT 10SM -DZ OVC015 03/02 A2978 RMK AO2 P0001 T00270023,M
10U,2024-01-23 00:55,-116.1876,41.9532,1637.00,37.40,33.80,86.69,130.00,5.00,0.00,29.79,M,10.00,M,OVC,M,M,M,2200.00,M,M,M,M,M,M,M,M,M,M,32.81,K10U 230055Z AUTO 13005KT 10SM OVC022 03/01 A2979 RMK AO2,M
INS,2024-01-23 00:56,-115.6733,36.5872,955.00,48.20,44.60,87.28,120.00,12.00,0.00,29.75,1006.10,7.00,19.00,SCT,SCT,OVC,M,600.00,1500.00,2400.00,M,M,M,M,M,M,M,M,42.62,KINS 230056Z AUTO 12012G19KT 7SM SCT006 SCT015 OVC024 09/07 A2975 RMK AO2 RAE56 CIG 017 RWY26 SLP061,M
EKO,2024-01-23 00:56,-115.7860,40.8242,1367.00,37.00,34.00,88.78,40.00,5.00,T,29.79,1009.40,10.00,M,FEW,OVC,M,M,1700.00,2200.00,M,M,M,M,M,M,M,M,M,32.33,KEKO 230056Z AUTO 04005KT 10SM FEW017 OVC022 03/01 A2979 RMK AO2 UPE55 SLP094 P0000 T00280011,M
NFL,2024-01-23 00:56,-118.7010,39.4166,1199.00,45.00,42.00,89.15,200.00,3.00,0.01,29.77,1006.10,7.00,M,SCT,BKN,OVC,M,3000.00,5000.00,7000.00,M,M,M,M,M,M,M,M,43.55,KNFL 230056Z 20003KT 7SM SCT030 BKN050 OVC070 07/06 A2977 RMK AO2 RAE42 SLP061 WR// P0001 T00720056,M
HND,2024-01-23 00:56,-115.1344,35.9729,742.79,52.00,46.00,79.92,150.00,12.00,0.00,29.78,1009.90,10.00,M,FEW,OVC,M,M,4100.00,6500.00,M,M,M,M,M,M,M,M,M,52.00,KHND 230056Z 15012KT 10SM FEW041 OVC065 11/08 A2978 RMK AO2 SLP099 T01110078,M
TPH,2024-01-23 00:56,-117.0904,38.0505,1654.00,33.00,32.00,96.06,350.00,5.00,0.05,29.78,1008.40,4.00,M,FEW,OVC,M,M,700.00,1800.00,M,M,-SN BR,M,M,M,M,M,M,27.58,KTPH 230056Z AUTO 35005KT 4SM -SN BR FEW007 OVC018 01/00 A2978 RMK AO2 SLP084 P0005 T00060000,M
LAS,2024-01-23 00:56,-115.1634,36.0719,663.00,52.00,49.00,89.46,90.00,5.00,0.00,29.77,1007.70,10.00,M,FEW,BKN,OVC,M,1000.00,2100.00,4500.00,M,M,M,M,M,M,M,M,52.00,KLAS 230056Z 09005KT 10SM FEW010 BKN021 OVC045 11/09 A2977 RMK AO2 SLP077 T01110094,M
WMC,2024-01-23 00:56,-117.8072,40.9019,1315.00,41.00,38.00,88.97,300.00,5.00,0.03,29.78,1008.10,10.00,M,BKN,OVC,M,M,2500.00,3000.00,M,M,-RA,M,M,M,M,M,M,37.08,KWMC 230056Z AUTO 30005KT 10SM -RA BKN025 OVC030 05/03 A2978 RMK AO2 SLP081 P0003 T00500033,M
LSV,2024-01-23 00:58,-115.0343,36.2362,570.00,52.70,48.60,85.89,130.00,7.00,0.02,29.75,1007.00,10.00,M,SCT,BKN,M,M,2200.00,3000.00,M,M,-RA,M,M,M,M,M,M,52.70,KLSV 230058Z 13007KT 10SM -RA SCT022 BKN030 12/09 A2975 RMK AO2A SLP070 P0002 T01150092 $,M
INS,2024-01-23 01:01,-115.6733,36.5872,955.00,48.20,44.60,87.28,120.00,12.00,0.00,29.75,1006.10,9.00,M,SCT,SCT,BKN,OVC,600.00,1000.00,1700.00,2400.00,-RA,M,M,M,M,M,M,42.62,KINS 230101Z AUTO 12012KT 9SM -RA SCT006 SCT010 BKN017 OVC024 09/07 A2975 RMK AO2 RAE0056RAB01 SLP061,M
INS,2024-01-23 01:06,-115.6733,36.5872,955.00,48.20,44.60,87.28,120.00,13.00,0.00,29.75,1006.10,9.00,M,SCT,BKN,BKN,OVC,600.00,1000.00,1700.00,2400.00,-RA,M,M,M,M,M,M,42.32,KINS 230106Z AUTO 12013KT 9SM -RA SCT006 BKN010 BKN017 OVC024 09/07 A2975 RMK AO2 RAE0056RAB01 BKN010 V SCT SLP061,M
DRA,2024-01-23 01:10,-116.0278,36.6206,1009.00,47.00,46.00,96.29,200.00,3.00,0.02,29.76,M,7.00,M,SCT,OVC,M,M,1400.00,3700.00,M,M,-RA,M,M,M,M,M,M,45.84,KDRA 230110Z AUTO 20003KT 7SM -RA SCT014 OVC037 08/08 A2976 RMK AO2 P0002 T00830078,M
05U,2024-01-23 01:10,-116.0051,39.6042,1811.23,37.40,33.80,86.69,300.00,6.00,0.00,29.80,M,9.00,M,M,M,M,M,M,M,M,M,M,M,M,M,M,M,M,32.03,K05U 230110Z AUTO 30006KT 9SM 03/01 A2980 RMK A01,M
HTH,2024-01-23 01:10,-118.6315,38.5448,1282.89,44.60,44.60,100.00,320.00,6.00,0.00,29.78,M,10.00,M,FEW,FEW,OVC,M,600.00,2100.00,2900.00,M,M,M,M,M,M,M,M,40.71,KHTH 230110Z AUTO 32006KT 10SM FEW006 FEW021 OVC029 07/07 A2978 RMK A01,M
INS,2024-01-23 01:11,-115.6733,36.5872,955.00,48.20,44.60,87.28,110.00,13.00,0.00,29.75,1006.10,8.00,M,SCT,SCT,OVC,M,600.00,1000.00,1900.00,M,-RA,M,M,M,M,M,M,42.32,KINS 230111Z AUTO 11013KT 8SM -RA SCT006 SCT010 OVC019 09/07 A2975 RMK AO2 RAE0056RAB01 SLP061,M
BVU,2024-01-23 01:15,-114.8611,35.9475,671.00,51.80,48.20,87.47,160.00,8.00,0.00,29.79,M,10.00,M,BKN,BKN,OVC,M,1400.00,2000.00,2900.00,M,M,M,M,M,M,M,M,51.80,KBVU 230115Z AUTO 16008KT 10SM BKN014 BKN020 OVC029 11/09 A2979 RMK AO2,M
CXP,2024-01-23 01:15,-119.7326,39.1923,1431.00,44.60,39.20,81.20,50.00,4.00,0.00,29.79,M,10.00,M,FEW,BKN,OVC,M,2200.00,3600.00,4300.00,M,M,M,M,M,M,M,M,42.13,KCXP 230115Z AUTO 05004KT 10SM FEW022 BKN036 OVC043 07/04 A2979 RMK AO2,M
RTS,2024-01-23 01:15,-119.8764,39.6682,1539.00,42.80,35.60,75.50,320.00,5.00,0.00,29.79,M,10.00,M,SCT,BKN,OVC,M,2700.00,4200.00,6000.00,M,M,M,M,M,M,M,M,39.22,KRTS 230115Z AUTO 32005KT 10SM SCT027 BKN042 OVC060 06/02 A2979 RMK AO2,M
MEV,2024-01-23 01:15,-119.7500,38.9963,1441.42,44.60,39.20,81.20,350.00,7.00,0.00,29.77,M,10.00,M,OVC,M,M,M,3900.00,M,M,M,-RA,M,M,M,M,M,M,40.14,KMEV 230115Z AUTO 35007KT 10SM -RA OVC039 07/04 A2977 RMK AO2,M
BAM,2024-01-23 01:15,-116.8743,40.5990,1382.36,42.80,41.00,93.30,60.00,8.00,0.00,29.78,M,10.00,M,OVC,M,M,M,2500.00,M,M,M,M,M,M,M,M,M,M,37.42,KBAM 230115Z AUTO 06008KT 10SM OVC025 06/05 A2978 RMK AO1,M
10U,2024-01-23 01:15,-116.1876,41.9532,1637.00,37.40,33.80,86.69,140.00,5.00,0.00,29.80,M,10.00,M,FEW,SCT,OVC,M,1600.00,2200.00,2900.00,M,M,M,M,M,M,M,M,32.81,K10U 230115Z AUTO 14005KT 10SM FEW016 SCT022 OVC029 03/01 A2980 RMK AO2,M
TMT,2024-01-23 01:15,-117.1971,39.4643,1749.34,36.50,36.00,98.04,0.00,0.00,0.00,29.78,M,7.00,M,SCT,OVC,M,M,1000.00,1700.00,M,M,-RA,M,M,M,M,M,M,36.50,KTMT 230115Z AUTO 00000KT 7SM -RA SCT010 OVC017 03/02 A2978 RMK AO2 T00250023,M
DRA,2024-01-23 01:17,-116.0278,36.6206,1009.00,47.00,46.00,96.29,M,3.00,0.03,29.76,M,5.00,M,FEW,BKN,OVC,M,800.00,1200.00,3700.00,M,RA BR,M,M,M,M,M,M,45.84,KDRA 230117Z AUTO VRB03KT 5SM RA BR FEW008 BKN012 OVC037 08/08 A2976 RMK AO2 P0003 T00830078,M
TPH,2024-01-23 01:18,-117.0904,38.0505,1654.00,33.00,32.00,96.06,350.00,5.00,0.02,29.79,M,4.00,M,BKN,OVC,M,M,700.00,1400.00,M,M,-SN BR,M,M,M,M,M,M,27.58,KTPH 230118Z AUTO 35005KT 4SM -SN BR BKN007 OVC014 01/00 A2979 RMK AO2 P0002 T00060000,M
RNO,2024-01-23 01:20,-119.7711,39.4839,1341.00,44.00,40.00,85.71,0.00,0.00,0.00,29.78,M,10.00,M,SCT,BKN,M,M,3000.00,4200.00,M,M,M,M,M,M,M,M,M,44.00,KRNO 230120Z 00000KT 10SM SCT030 BKN042 07/04 A2978 RMK AO2 T00670044,M
LOL,2024-01-23 01:23,-118.5701,40.0684,1192.43,43.00,42.00,96.23,40.00,4.00,T,29.78,M,9.00,M,BKN,BKN,OVC,M,1400.00,3600.00,5500.00,M,-RA,M,M,M,M,M,M,40.27,KLOL 230123Z AUTO 04004KT 9SM -RA BKN014 BKN036 OVC055 06/06 A2978 RMK AO2 RAB23 P0000 T00610056,M
DRA,2024-01-23 01:29,-116.0278,36.6206,1009.00,46.00,45.00,96.28,250.00,6.00,0.05,29.76,M,4.00,M,FEW,BKN,OVC,M,300.00,1600.00,3700.00,M,RA BR,M,M,M,M,M,M,42.39,KDRA 230129Z AUTO 25006KT 4SM RA BR FEW003 BKN016 OVC037 08/07 A2976 RMK AO2 P0005 T00780072,M
05U,2024-01-23 01:30,-116.0051,39.6042,1811.23,37.40,33.80,86.69,290.00,6.00,0.00,29.81,M,9.00,M,M,M,M,M,M,M,M,M,M,M,M,M,M,M,M,32.03,K05U 230130Z AUTO 29006KT 9SM 03/01 A2981 RMK A01,M
LSV,2024-01-23 01:32,-115.0343,36.2362,570.00,53.60,48.20,81.87,110.00,9.00,0.00,29.76,1007.30,10.00,M,SCT,BKN,M,M,1300.00,3100.00,M,M,M,M,M,M,M,M,M,53.60,KLSV 230132Z 11009KT 10SM SCT013 BKN031 12/09 A2976 RMK RAE01 SLP073 $,M
BVU,2024-01-23 01:35,-114.8611,35.9475,671.00,51.80,48.20,87.47,160.00,10.00,0.00,29.79,M,10.00,M,BKN,OVC,M,M,1500.00,1900.00,M,M,M,M,M,M,M,M,M,51.80,KBVU 230135Z AUTO 16010KT 10SM BKN015 OVC019 11/09 A2979 RMK AO2,M
CXP,2024-01-23 01:35,-119.7326,39.1923,1431.00,44.60,39.20,81.20,70.00,3.00,0.00,29.80,M,8.00,M,BKN,BKN,OVC,M,2200.00,2800.00,4500.00,M,-RA,M,M,M,M,M,M,43.09,KCXP 230135Z AUTO 07003KT 8SM -RA BKN022 BKN028 OVC045 07/04 A2980 RMK AO2,M
RTS,2024-01-23 01:35,-119.8764,39.6682,1539.00,42.80,37.40,81.07,0.00,0.00,0.00,29.80,M,10.00,M,BKN,OVC,M,M,2500.00,3000.00,M,M,-RA,M,M,M,M,M,M,42.80,KRTS 230135Z AUTO 00000KT 10SM -RA BKN025 OVC030 06/03 A2980 RMK AO2,M
MEV,2024-01-23 01:35,-119.7500,38.9963,1441.42,44.60,39.20,81.20,360.00,5.00,0.00,29.78,M,10.00,M,FEW,BKN,OVC,M,2100.00,3700.00,4900.00,M,-RA,M,M,M,M,M,M,41.36,KMEV 230135Z AUTO 36005KT 10SM -RA FEW021 BKN037 OVC049 07/04 A2978 RMK AO2,M
BAM,2024-01-23 01:35,-116.8743,40.5990,1382.36,42.80,41.00,93.30,70.00,8.00,0.00,29.79,M,10.00,M,OVC,M,M,M,2500.00,M,M,M,M,M,M,M,M,M,M,37.42,KBAM 230135Z AUTO 07008KT 10SM OVC025 06/05 A2979 RMK AO1,M
HTH,2024-01-23 01:35,-118.6315,38.5448,1282.89,42.80,42.80,100.00,320.00,5.00,0.00,29.79,M,10.00,M,FEW,OVC,M,M,1900.00,3100.00,M,M,M,M,M,M,M,M,M,39.22,KHTH 230135Z AUTO 32005KT 10SM FEW019 OVC031 06/06 A2979 RMK A01,M
10U,2024-01-23 01:35,-116.1876,41.9532,1637.00,37.40,33.80,86.69,130.00,8.00,0.00,29.80,M,10.00,M,SCT,OVC,M,M,1600.00,3100.00,M,M,-RA,M,M,M,M,M,M,30.76,K10U 230135Z AUTO 13008KT 10SM -RA SCT016 OVC031 03/01 A2980 RMK AO2,M
TMT,2024-01-23 01:35,-117.1971,39.4643,1749.34,36.00,35.80,99.21,0.00,0.00,0.01,29.79,M,7.00,M,OVC,M,M,M,1000.00,M,M,M,-RA,M,M,M,M,M,M,36.00,KTMT 230135Z AUTO 00000KT 7SM -RA OVC010 02/02 A2979 RMK AO2 P0001 T00230021,M
LOL,2024-01-23 01:44,-118.5701,40.0684,1192.43,42.00,42.00,100.00,40.00,4.00,T,29.79,M,8.00,M,SCT,OVC,M,M,1400.00,4300.00,M,M,-RA,M,M,M,M,M,M,39.10,KLOL 230144Z AUTO 04004KT 8SM -RA SCT014 OVC043 06/06 A2979 RMK AO2 RAB23 P0000 T00560056,M
TPH,2024-01-23 01:45,-117.0904,38.0505,1654.00,33.00,32.00,96.06,350.00,4.00,0.04,29.80,M,3.00,M,SCT,OVC,M,M,700.00,1300.00,M,M,-SN BR,M,M,M,M,M,M,28.59,KTPH 230145Z AUTO 35004KT 3SM -SN BR SCT007 OVC013 01/00 A2980 RMK AO2 P0004 T00060000,M
DRA,2024-01-23 01:46,-116.0278,36.6206,1009.00,46.00,45.00,96.28,350.00,4.00,0.08,29.76,M,8.00,M,FEW,SCT,OVC,M,500.00,2600.00,3900.00,M,-RA,M,M,M,M,M,M,43.77,KDRA 230146Z AUTO 35004KT 8SM -RA FEW005 SCT026 OVC039 08/07 A2976 RMK AO2 P0008 T00780072,M
P68,2024-01-23 01:53,-116.0056,39.6014,1993.00,36.00,34.00,92.35,130.00,3.00,0.00,29.78,1006.80,M,M,M,M,M,M,M,M,M,M,M,M,M,M,M,M,M,33.26,KP68 230153Z AUTO 13003KT 02/01 A2978 RMK AO1 SLP068 T00220011,M
DRA,2024-01-23 01:53,-116.0278,36.6206,1009.00,46.00,46.00,100.00,360.00,3.00,0.08,29.76,1006.60,8.00,M,FEW,FEW,OVC,M,1500.00,2600.00,3800.00,M,-RA,M,M,M,M,M,M,44.69,KDRA 230153Z AUTO 36003KT 8SM -RA FEW015 FEW026 OVC038 08/08 A2976 RMK AO2 SLP066 P0008 T00780078,M
ELY,2024-01-23 01:53,-114.8453,39.2950,1909.00,34.00,32.00,92.29,190.00,6.00,T,29.82,1008.80,10.00,M,OVC,M,M,M,5000.00,M,M,M,M,M,M,M,M,M,M,27.94,KELY 230153Z AUTO 19006KT 10SM OVC050 01/00 A2982 RMK AO2 RAE42 SLP088 P0000 T00110000,M
VGT,2024-01-23 01:53,-115.1933,36.2111,667.00,52.00,48.00,86.17,100.00,8.00,T,29.78,1009.90,10.00,M,BKN,OVC,M,M,2400.00,2900.00,M,M,M,M,M,M,M,M,M,52.00,KVGT 230153Z 10008KT 10SM BKN024 OVC029 11/09 A2978 RMK AO2 RAE02 SLP099 P0000 T01110089,M
WMC,2024-01-23 01:53,-117.8072,40.9019,1315.00,41.00,37.40,86.89,300.00,4.00,0.01,29.80,M,10.00,M,FEW,OVC,M,M,2500.00,3600.00,M,M,-RA,M,M,M,M,M,M,37.93,KWMC 230153Z AUTO 30004KT 10SM -RA FEW025 OVC036 05/03 A2980 RMK AO2 P0001,M
LOL,2024-01-23 01:53,-118.5701,40.0684,1192.43,42.00,41.00,96.21,50.00,4.00,T,29.79,1009.00,8.00,M,FEW,OVC,M,M,1400.00,4300.00,M,M,-RA,M,M,M,M,M,M,39.10,KLOL 230153Z AUTO 05004KT 8SM -RA FEW014 OVC043 06/05 A2979 RMK AO2 RAB23 SLP090 P0000 T00560050,M
BVU,2024-01-23 01:55,-114.8611,35.9475,671.00,50.00,48.20,93.50,150.00,13.00,0.00,29.79,M,5.00,M,SCT,BKN,OVC,M,1500.00,2100.00,2800.00,M,-RA,M,M,M,M,M,M,50.00,KBVU 230155Z AUTO 15013KT 5SM -RA SCT015 BKN021 OVC028 10/09 A2979 RMK AO2,M
CXP,2024-01-23 01:55,-119.7326,39.1923,1431.00,42.80,39.20,86.99,0.00,0.00,0.00,29.81,M,10.00,M,FEW,BKN,OVC,M,2400.00,3500.00,4800.00,M,UP,M,M,M,M,M,M,42.80,KCXP 230155Z AUTO 00000KT 10SM UP FEW024 BKN035 OVC048 06/04 A2981 RMK AO2,M
INS,2024-01-23 01:55,-115.6733,36.5872,955.00,48.00,45.00,89.29,120.00,12.00,0.01,29.77,1006.80,10.00,M,FEW,BKN,BKN,OVC,500.00,2900.00,3600.00,4400.00,-RA,M,M,M,M,M,M,42.37,KINS 230155Z AUTO 12012KT 10SM -RA FEW005 BKN029 BKN036 OVC044 09/07 A2977 RMK AO2 RAE0056RAB01 SLP068 P0001 T00890073,M
RNO,2024-01-23 01:55,-119.7711,39.4839,1341.00,44.00,40.00,85.71,0.00,0.00,0.00,29.80,1007.80,10.00,M,OVC,M,M,M,4000.00,M,M,M,M,M,M,M,M,M,M,44.00,KRNO 230155Z 00000KT 10SM OVC040 07/04 A2980 RMK AO2 SLP078 T00670044,M
RTS,2024-01-23 01:55,-119.8764,39.6682,1539.00,41.00,39.20,93.24,110.00,4.00,0.00,29.81,M,10.00,M,OVC,M,M,M,2600.00,M,M,M,M,M,M,M,M,M,M,37.93,KRTS 230155Z AUTO 11004KT 10SM OVC026 05/04 A2981 RMK AO2,M
05U,2024-01-23 01:55,-116.0051,39.6042,1811.23,35.60,33.80,93.08,300.00,4.00,0.00,29.81,M,9.00,M,M,M,M,M,M,M,M,M,M,M,M,M,M,M,M,31.62,K05U 230155Z AUTO 30004KT 9SM 02/01 A2981 RMK A01,M
MEV,2024-01-23 01:55,-119.7500,38.9963,1441.42,42.80,39.20,86.99,350.00,6.00,0.00,29.79,M,10.00,M,SCT,BKN,OVC,M,2300.00,3200.00,4800.00,M,M,M,M,M,M,M,M,38.54,KMEV 230155Z AUTO 35006KT 10SM SCT023 BKN032 OVC048 06/04 A2979 RMK AO2,M
BAM,2024-01-23 01:55,-116.8743,40.5990,1382.36,41.00,41.00,100.00,70.00,6.00,0.00,29.80,M,10.00,M,BKN,OVC,M,M,2000.00,2500.00,M,M,M,M,M,M,M,M,M,36.37,KBAM 230155Z AUTO 07006KT 10SM BKN020 OVC025 05/05 A2980 RMK AO1,M
HTH,2024-01-23 01:55,-118.6315,38.5448,1282.89,42.80,42.80,100.00,300.00,4.00,0.01,29.80,M,8.00,M,FEW,BKN,OVC,M,2200.00,3100.00,3800.00,M,M,M,M,M,M,M,M,40.03,KHTH 230155Z AUTO 30004KT 8SM FEW022 BKN031 OVC038 06/06 A2980 RMK A01 P0001,M
TMT,2024-01-23 01:55,-117.1971,39.4643,1749.34,36.00,35.60,98.43,160.00,3.00,0.01,29.79,M,7.00,M,OVC,M,M,M,1200.00,M,M,M,-RA,M,M,M,M,M,M,33.26,KTMT 230155Z AUTO 16003KT 7SM -RA OVC012 02/02 A2979 RMK AO2 P0001 T00220020,M
10U,2024-01-23 01:55,-116.1876,41.9532,1637.00,35.60,33.80,93.08,140.00,6.00,0.00,29.81,M,10.00,M,FEW,OVC,M,M,1600.00,3100.00,M,M,UP,M,M,M,M,M,M,29.87,K10U 230155Z AUTO 14006KT 10SM UP FEW016 OVC031 02/01 A2981 RMK AO2,M
EKO,2024-01-23 01:56,-115.7860,40.8242,1367.00,36.00,34.00,92.35,80.00,3.00,0.00,29.80,1009.80,10.00,M,OVC,M,M,M,2000.00,M,M,M,M,M,M,M,M,M,M,33.26,KEKO 230156Z AUTO 08003KT 10SM OVC020 02/01 A2980 RMK AO2 SLP098 T00220011,M
NFL,2024-01-23 01:56,-118.7010,39.4166,1199.00,44.00,42.00,92.61,M,5.00,0.01,29.79,1006.60,6.00,M,SCT,BKN,OVC,M,3000.00,5000.00,7000.00,M,BR,M,M,M,M,M,M,40.65,KNFL 230156Z VRB05KT 6SM BR SCT030 BKN050 OVC070 07/06 A2979 RMK AO2 RAB0059E19 SLP066 WR// P0001 T00670056,M
HND,2024-01-23 01:56,-115.1344,35.9729,742.79,50.00,46.00,86.06,160.00,11.00,T,29.79,1010.30,10.00,M,BKN,OVC,M,M,6000.00,7500.00,M,M,-RA,M,M,M,M,M,M,50.00,KHND 230156Z 16011KT 10SM -RA BKN060 OVC075 10/08 A2979 RMK AO2 RAB32 SLP103 P0000 T01000078,M
TPH,2024-01-23 01:56,-117.0904,38.0505,1654.00,33.00,32.00,96.06,340.00,4.00,0.05,29.80,1009.10,4.00,M,SCT,OVC,M,M,700.00,1200.00,M,M,-SN BR,M,M,M,M,M,M,28.59,KTPH 230156Z AUTO 34004KT 4SM -SN BR SCT007 OVC012 01/00 A2980 RMK AO2 SLP091 P0005 T00060000,M
LAS,2024-01-23 01:56,-115.1634,36.0719,663.00,53.00,46.00,77.03,130.00,7.00,T,29.78,1007.90,10.00,M,SCT,BKN,OVC,M,2100.00,2700.00,3600.00,M,-RA,M,M,M,M,M,M,53.00,KLAS 230156Z 13007KT 10SM -RA SCT021 BKN027 OVC036 12/08 A2978 RMK AO2 RAB54 SLP079 P0000 T01170078,M
WMC,2024-01-23 01:56,-117.8072,40.9019,1315.00,41.00,38.00,88.97,300.00,4.00,0.01,29.80,1008.60,10.00,M,FEW,OVC,M,M,2500.00,3600.00,M,M,-RA,M,M,M,M,M,M,37.93,KWMC 230156Z AUTO 30004KT 10SM -RA FEW025 OVC036 05/03 A2980 RMK AO2 SLP086 P0001 T00500033,M
LSV,2024-01-23 01:58,-115.0343,36.2362,570.00,53.00,48.60,84.95,100.00,5.00,T,29.77,1007.70,10.00,M,SCT,SCT,BKN,M,1500.00,2600.00,3000.00,M,-DZ,M,M,M,M,M,M,53.00,KLSV 230158Z 10005KT 10SM -DZ SCT015 SCT026 BKN030 12/09 A2977 RMK AO2A RAE01 DZB55 SLP077 P0000 T01160092 $,M
INS,2024-01-23 02:00,-115.6733,36.5872,955.00,48.20,44.60,87.28,120.00,10.00,0.00,29.77,1006.80,10.00,M,FEW,SCT,OVC,M,500.00,2900.00,3700.00,M,-RA,M,M,M,M,M,M,43.28,KINS 230200Z AUTO 12010KT 10SM -RA FEW005 SCT029 OVC037 09/07 A2977 RMK AO2 SLP068,M
CXP,2024-01-23 02:10,-119.7326,39.1923,1431.00,42.80,39.20,86.99,0.00,0.00,0.00,29.81,M,10.00,M,SCT,BKN,OVC,M,3000.00,3600.00,4800.00,M,M,M,M,M,M,M,M,42.80,KCXP 230210Z AUTO 00000KT 10SM SCT030 BKN036 OVC048 06/04 A2981 RMK AO2,M
VGT,2024-01-23 02:10,-115.1933,36.2111,667.00,52.00,48.00,86.17,100.00,8.00,T,29.78,M,10.00,M,SCT,OVC,M,M,2400.00,3200.00,M,M,-RA,M,M,M,M,M,M,52.00,KVGT 230210Z 10008KT 10SM -RA SCT024 OVC032 11/09 A2978 RMK AO2 RAB0155 P0000 T01110089,M
TPH,2024-01-23 02:10,-117.0904,38.0505,1654.00,33.00,32.00,96.06,340.00,4.00,T,29.80,M,7.00,M,BKN,OVC,M,M,800.00,1200.00,M,M,-SN,M,M,M,M,M,M,28.59,KTPH 230210Z AUTO 34004KT 7SM -SN BKN008 OVC012 01/00 A2980 RMK AO2 P0000 T00060000,M
BVU,2024-01-23 02:15,-114.8611,35.9475,671.00,50.00,48.20,93.50,150.00,12.00,0.00,29.80,M,9.00,M,OVC,M,M,M,2700.00,M,M,M,M,M,M,M,M,M,M,50.00,KBVU 230215Z AUTO 15012KT 9SM OVC027 10/09 A2980 RMK AO2,M
RTS,2024-01-23 02:15,-119.8764,39.6682,1539.00,41.00,39.20,93.24,140.00,5.00,0.00,29.81,M,10.00,M,SCT,OVC,M,M,2300.00,2800.00,M,M,M,M,M,M,M,M,M,37.08,KRTS 230215Z AUTO 14005KT 10SM SCT023 OVC028 05/04 A2981 RMK AO2,M
05U,2024-01-23 02:15,-116.0051,39.6042,1811.23,35.60,33.80,93.08,320.00,3.00,0.00,29.81,M,10.00,M,M,M,M,M,M,M,M,M,M,M,M,M,M,M,M,32.80,K05U 230215Z AUTO 32003KT 10SM 02/01 A2981 RMK A01,M
MEV,2024-01-23 02:15,-119.7500,38.9963,1441.42,42.80,39.20,86.99,10.00,5.00,0.00,29.79,M,10.00,M,SCT,BKN,OVC,M,2400.00,3400.00,6500.00,M,M,M,M,M,M,M,M,39.22,KMEV 230215Z AUTO 01005KT 10SM SCT024 BKN034 OVC065 06/04 A2979 RMK AO2,M
HTH,2024-01-23 02:15,-118.6315,38.5448,1282.89,42.80,42.80,100.00,320.00,6.00,0.00,29.80,M,9.00,M,FEW,SCT,BKN,M,600.00,2100.00,3000.00,M,M,M,M,M,M,M,M,38.54,KHTH 230215Z AUTO 32006KT 9SM FEW006 SCT021 BKN030 06/06 A2980 RMK A01,M
BAM,2024-01-23 02:15,-116.8743,40.5990,1382.36,41.00,41.00,100.00,60.00,8.00,0.00,29.80,M,10.00,M,BKN,BKN,OVC,M,2000.00,2800.00,3400.00,M,M,M,M,M,M,M,M,35.20,KBAM 230215Z AUTO 06008KT 10SM BKN020 BKN028 OVC034 05/05 A2980 RMK AO1,M
VGT,2024-01-23 02:19,-115.1933,36.2111,667.00,52.00,48.00,86.17,110.00,9.00,T,29.78,M,10.00,M,BKN,OVC,M,M,2400.00,3300.00,M,M,-RA,M,M,M,M,M,M,52.00,KVGT 230219Z 11009KT 10SM -RA BKN024 OVC033 11/09 A2978 RMK AO2 RAB0155 P0000 T01110089,M
BVU,2024-01-23 02:35,-114.8611,35.9475,671.00,50.00,48.20,93.50,160.00,11.00,0.00,29.80,M,9.00,M,BKN,OVC,M,M,2400.00,2800.00,M,M,M,M,M,M,M,M,M,50.00,KBVU 230235Z AUTO 16011KT 9SM BKN024 OVC028 10/09 A2980 RMK AO2,M
CXP,2024-01-23 02:35,-119.7326,39.1923,1431.00,42.80,39.20,86.99,0.00,0.00,0.00,29.82,M,10.00,M,FEW,BKN,OVC,M,2800.00,3700.00,4500.00,M,M,M,M,M,M,M,M,42.80,KCXP 230235Z AUTO 00000KT 10SM FEW028 BKN037 OVC045 06/04 A2982 RMK AO2,M
RTS,2024-01-23 02:35,-119.8764,39.6682,1539.00,39.20,39.20,100.00,120.00,6.00,0.00,29.82,M,10.00,M,BKN,BKN,BKN,M,2400.00,3200.00,12000.00,M,M,M,M,M,M,M,M,34.20,KRTS 230235Z AUTO 12006KT 10SM BKN024 BKN032 BKN120 04/04 A2982 RMK AO2,M
05U,2024-01-23 02:35,-116.0051,39.6042,1811.23,35.60,33.80,93.08,0.00,0.00,0.00,29.81,M,10.00,M,M,M,M,M,M,M,M,M,M,M,M,M,M,M,M,35.60,K05U 230235Z AUTO 00000KT 10SM 02/01 A2981 RMK A01,M
MEV,2024-01-23 02:35,-119.7500,38.9963,1441.42,41.00,37.40,86.89,360.00,3.00,0.00,29.80,M,10.00,M,FEW,FEW,OVC,M,3400.00,4600.00,6000.00,M,M,M,M,M,M,M,M,38.98,KMEV 230235Z AUTO 36003KT 10SM FEW034 FEW046 OVC060 05/03 A2980 RMK AO2,M
HTH,2024-01-23 02:35,-118.6315,38.5448,1282.89,42.80,42.80,100.00,320.00,7.00,0.00,29.81,M,9.00,M,FEW,BKN,OVC,M,2000.00,2900.00,3500.00,M,M,M,M,M,M,M,M,37.94,KHTH 230235Z AUTO 32007KT 9SM FEW020 BKN029 OVC035 06/06 A2981 RMK A01,M
BAM,2024-01-23 02:35,-116.8743,40.5990,1382.36,41.00,41.00,100.00,50.00,6.00,0.00,29.80,M,10.00,M,SCT,SCT,OVC,M,2900.00,3400.00,4100.00,M,M,M,M,M,M,M,M,36.37,KBAM 230235Z AUTO 05006KT 10SM SCT029 SCT034 OVC041 05/05 A2980 RMK AO1,M
TPH,2024-01-23 02:40,-117.0904,38.0505,1654.00,33.00,32.00,96.06,340.00,4.00,0.02,29.80,M,7.00,M,SCT,OVC,M,M,800.00,2300.00,M,M,-RA,M,M,M,M,M,M,28.59,KTPH 230240Z AUTO 34004KT 7SM -RA SCT008 OVC023 01/00 A2980 RMK AO2 RAB11SNE11 P0002 T00060000,M
CXP,2024-01-23 02:50,-119.7326,39.1923,1431.00,42.80,39.20,86.99,100.00,3.00,0.00,29.82,M,10.00,M,SCT,OVC,M,M,2700.00,3500.00,M,M,M,M,M,M,M,M,M,41.03,KCXP 230250Z AUTO 10003KT 10SM SCT027 OVC035 06/04 A2982 RMK AO2,M
INS,2024-01-23 02:50,-115.6733,36.5872,955.00,48.20,44.60,87.28,130.00,10.00,0.00,29.78,1007.10,8.00,M,BKN,BKN,BKN,M,400.00,1800.00,3400.00,M,-RA,M,M,M,M,M,M,43.28,KINS 230250Z AUTO 13010KT 8SM -RA BKN004 BKN018 BKN034 09/07 A2978 RMK AO2 SLP071,M
VGT,2024-01-23 02:50,-115.1933,36.2111,667.00,51.80,48.20,87.47,110.00,8.00,0.01,29.78,M,10.00,M,SCT,BKN,OVC,M,2600.00,3200.00,3800.00,M,-RA,M,M,M,M,M,M,51.80,KVGT 230250Z 11008KT 10SM -RA SCT026 BKN032 OVC038 11/09 A2978 RMK AO2 RAB0155 P0001,M
10U,2024-01-23 02:50,-116.1876,41.9532,1637.00,35.60,33.80,93.08,140.00,5.00,0.00,29.82,M,10.00,M,CLR,M,M,M,M,M,M,M,UP,M,M,M,M,M,M,30.67,K10U 230250Z AUTO 14005KT 10SM UP CLR 02/01 A2982 RMK AO2,M
P68,2024-01-23 02:53,-116.0056,39.6014,1993.00,36.00,34.00,92.35,0.00,0.00,0.00,29.79,1007.40,M,M,M,M,M,M,M,M,M,M,M,M,M,M,M,M,M,36.00,KP68 230253Z AUTO 00000KT 02/01 A2979 RMK AO1 SLP074 60001 T00220011 51009,M
DRA,2024-01-23 02:53,-116.0278,36.6206,1009.00,46.00,45.00,96.28,0.00,0.00,0.05,29.77,1006.60,9.00,M,FEW,OVC,M,M,3500.00,4600.00,M,M,-RA,M,M,M,M,M,M,46.00,KDRA 230253Z AUTO 00000KT 9SM -RA FEW035 OVC046 08/07 A2977 RMK AO2 SLP066 P0005 60015 T00780072 51009,M
ELY,2024-01-23 02:53,-114.8453,39.2950,1909.00,33.00,31.00,92.25,180.00,6.00,0.00,29.82,1009.40,8.00,M,OVC,M,M,M,3800.00,M,M,M,M,M,M,M,M,M,M,26.73,KELY 230253Z AUTO 18006KT 8SM OVC038 01/M01 A2982 RMK AO2 SLP094 60000 T00061006 51007,M
VGT,2024-01-23 02:53,-115.1933,36.2111,667.00,51.00,48.00,89.42,100.00,8.00,0.01,29.78,1010.10,10.00,M,SCT,BKN,OVC,M,2600.00,3200.00,4600.00,M,-RA,M,M,M,M,M,M,51.00,KVGT 230253Z 10008KT 10SM -RA SCT026 BKN032 OVC046 11/09 A2978 RMK AO2 RAB0155 SLP101 P0001 60002 T01060089 51006,M
LOL,2024-01-23 02:53,-118.5701,40.0684,1192.43,42.00,41.00,96.21,40.00,4.00,T,29.81,1009.50,10.00,M,FEW,BKN,OVC,M,1000.00,3400.00,5500.00,M,M,M,M,M,M,M,M,39.10,KLOL 230253Z AUTO 04004KT 10SM FEW010 BKN034 OVC055 06/05 A2981 RMK AO2 RAE39 SLP095 P0000 60002 T00560050 51015,M
BVU,2024-01-23 02:55,-114.8611,35.9475,671.00,50.00,48.20,93.50,160.00,8.00,0.00,29.80,M,10.00,M,SCT,OVC,M,M,2400.00,3200.00,M,M,M,M,M,M,M,M,M,50.00,KBVU 230255Z AUTO 16008KT 10SM SCT024 OVC032 10/09 A2980 RMK AO2,M
INS,2024-01-23 02:55,-115.6733,36.5872,955.00,48.00,45.00,89.29,120.00,8.00,0.07,29.78,1007.10,8.00,M,BKN,BKN,OVC,M,400.00,1800.00,3400.00,M,-RA,M,M,M,M,M,M,43.82,KINS 230255Z AUTO 12008KT 8SM -RA BKN004 BKN018 OVC034 09/07 A2978 RMK AO2 SLP071 P0007 60009 T00890073 52010,M
RNO,2024-01-23 02:55,-119.7711,39.4839,1341.00,44.00,40.00,85.71,0.00,0.00,0.00,29.81,1008.20,10.00,M,BKN,BKN,M,M,3400.00,6000.00,M,M,M,M,M,M,M,M,M,44.00,KRNO 230255Z 00000KT 10SM BKN034 BKN060 07/04 A2981 RMK AO2 SLP082 60007 T00670044 51017,M
RTS,2024-01-23 02:55,-119.8764,39.6682,1539.00,39.20,39.20,100.00,140.00,5.00,0.00,29.82,M,10.00,M,SCT,BKN,BKN,M,2600.00,3300.00,12000.00,M,M,M,M,M,M,M,M,34.95,KRTS 230255Z AUTO 14005KT 10SM SCT026 BKN033 BKN120 04/04 A2982 RMK AO2,M
05U,2024-01-23 02:55,-116.0051,39.6042,1811.23,35.60,33.80,93.08,0.00,0.00,0.00,29.82,M,10.00,M,M,M,M,M,M,M,M,M,M,M,M,M,M,M,M,35.60,K05U 230255Z AUTO 00000KT 10SM 02/01 A2982 RMK A01,M
MEV,2024-01-23 02:55,-119.7500,38.9963,1441.42,41.00,37.40,86.89,360.00,4.00,0.00,29.80,M,10.00,M,OVC,M,M,M,6500.00,M,M,M,M,M,M,M,M,M,M,37.93,KMEV 230255Z AUTO 36004KT 10SM OVC065 05/03 A2980 RMK AO2,M
BAM,2024-01-23 02:55,-116.8743,40.5990,1382.36,41.00,39.20,93.24,60.00,7.00,0.00,29.81,M,7.00,M,OVC,M,M,M,3600.00,M,M,M,M,M,M,M,M,M,M,35.75,KBAM 230255Z AUTO 06007KT 7SM OVC036 05/04 A2981 RMK AO1,M
HTH,2024-01-23 02:55,-118.6315,38.5448,1282.89,42.80,42.80,100.00,320.00,8.00,0.01,29.81,M,9.00,M,FEW,OVC,M,M,2000.00,2800.00,M,M,M,M,M,M,M,M,M,37.42,KHTH 230255Z AUTO 32008KT 9SM FEW020 OVC028 06/06 A2981 RMK A01 P0001,M
TMT,2024-01-23 02:55,-117.1971,39.4643,1749.34,35.00,35.00,100.00,0.00,0.00,0.01,29.80,M,10.00,M,OVC,M,M,M,1400.00,M,M,M,-RA,M,M,M,M,M,M,35.00,KTMT 230255Z AUTO 00000KT 10SM -RA OVC014 02/02 A2980 RMK AO2 P0001 60003 T00170016,M
EKO,2024-01-23 02:56,-115.7860,40.8242,1367.00,36.00,34.00,92.35,80.00,4.00,0.00,29.81,1010.00,10.00,M,BKN,OVC,M,M,1800.00,2600.00,M,M,M,M,M,M,M,M,M,32.09,KEKO 230256Z AUTO 08004KT 10SM BKN018 OVC026 02/01 A2981 RMK AO2 SLP100 60000 T00220011 51008,M
HND,2024-01-23 02:56,-115.1344,35.9729,742.79,50.00,45.00,82.86,150.00,11.00,0.01,29.80,1010.70,10.00,M,OVC,M,M,M,4800.00,M,M,M,M,M,M,M,M,M,M,50.00,KHND 230256Z 15011KT 10SM OVC048 10/07 A2980 RMK AO2 RAE40 SLP107 P0001 60001 T01000072 53006,M
TPH,2024-01-23 02:56,-117.0904,38.0505,1654.00,33.00,32.00,96.06,330.00,4.00,0.03,29.80,1009.20,7.00,M,FEW,OVC,M,M,800.00,2500.00,M,M,-RA,M,M,M,M,M,M,28.59,KTPH 230256Z AUTO 33004KT 7SM -RA FEW008 OVC025 01/00 A2980 RMK AO2 RAB11SNE11 SLP092 P0003 60013 T00060000 51008,M
LAS,2024-01-23 02:56,-115.1634,36.0719,663.00,52.00,47.00,82.99,0.00,0.00,0.02,29.78,1008.00,10.00,M,SCT,BKN,OVC,M,2100.00,2700.00,3600.00,M,M,M,M,M,M,M,M,52.00,KLAS 230256Z 00000KT 10SM SCT021 BKN027 OVC036 11/08 A2978 RMK AO2 RAE41 SLP080 P0002 60002 T01110083 51005,M
WMC,2024-01-23 02:56,-117.8072,40.9019,1315.00,40.00,37.00,88.92,290.00,3.00,0.02,29.81,1009.10,9.00,M,OVC,M,M,M,3400.00,M,M,M,-RA,M,M,M,M,M,M,37.83,KWMC 230256Z AUTO 29003KT 9SM -RA OVC034 04/03 A2981 RMK AO2 SLP091 P0002 60006 T00440028 51009,M
NFL,2024-01-23 02:56,-118.7010,39.4166,1199.00,43.00,41.00,92.58,0.00,0.00,0.01,29.80,1007.00,10.00,M,SCT,BKN,OVC,M,3000.00,5000.00,7000.00,M,M,M,M,M,M,M,M,43.00,KNFL 230256Z 00000KT 10SM SCT030 BKN050 OVC070 06/05 A2980 RMK AO2 RAB10E29 SLP070 WR// P0001 60003 T00610050 51015,M
LSV,2024-01-23 02:58,-115.0343,36.2362,570.00,53.00,48.60,84.95,110.00,6.00,T,29.77,1007.50,10.00,M,SCT,BKN,BKN,M,2400.00,3100.00,5500.00,M,-DZ,M,M,M,M,M,M,53.00,KLSV 230258Z 11006KT 10SM -DZ SCT024 BKN031 BKN055 12/09 A2977 RMK AO2A SLP075 P0000 60002 T01160092 52007 $,M
INS,2024-01-23 03:10,-115.6733,36.5872,955.00,48.20,44.60,87.28,120.00,9.00,0.00,29.78,1006.90,9.00,M,SCT,BKN,BKN,BKN,400.00,900.00,1400.00,2100.00,-RA,M,M,M,M,M,M,43.66,KINS 230310Z AUTO 12009KT 9SM -RA SCT004 BKN009 BKN014 BKN021 OVC034 09/07 A2978 RMK AO2 CIG 004 RWY26 SLP069,M
BVU,2024-01-23 03:15,-114.8611,35.9475,671.00,50.00,48.20,93.50,150.00,8.00,0.00,29.80,M,10.00,M,OVC,M,M,M,3200.00,M,M,M,M,M,M,M,M,M,M,50.00,KBVU 230315Z AUTO 15008KT 10SM OVC032 10/09 A2980 RMK AO2,M
CXP,2024-01-23 03:15,-119.7326,39.1923,1431.00,42.80,39.20,86.99,0.00,0.00,0.00,29.83,M,10.00,M,OVC,M,M,M,2800.00,M,M,M,M,M,M,M,M,M,M,42.80,KCXP 230315Z AUTO 00000KT 10SM OVC028 06/04 A2983 RMK AO2,M
INS,2024-01-23 03:15,-115.6733,36.5872,955.00,48.20,44.60,87.28,110.00,7.00,0.00,29.78,1006.90,10.00,M,BKN,BKN,BKN,OVC,400.00,1500.00,2100.00,3500.00,-RA,M,M,M,M,M,M,44.53,KINS 230315Z AUTO 11007KT 10SM -RA BKN004 BKN015 BKN021 OVC035 09/07 A2978 RMK AO2 BKN004 V SCT SLP069,M
RTS,2024-01-23 03:15,-119.8764,39.6682,1539.00,39.20,39.20,100.00,150.00,4.00,0.00,29.83,M,10.00,M,FEW,OVC,M,M,2600.00,3400.00,M,M,M,M,M,M,M,M,M,35.83,KRTS 230315Z AUTO 15004KT 10SM FEW026 OVC034 04/04 A2983 RMK AO2,M
05U,2024-01-23 03:15,-116.0051,39.6042,1811.23,35.60,33.80,93.08,0.00,0.00,0.00,29.82,M,10.00,M,M,M,M,M,M,M,M,M,M,M,M,M,M,M,M,35.60,K05U 230315Z AUTO 00000KT 10SM 02/01 A2982 RMK A01,M
MEV,2024-01-23 03:15,-119.7500,38.9963,1441.42,41.00,37.40,86.89,350.00,6.00,0.00,29.81,M,10.00,M,FEW,BKN,OVC,M,3800.00,5000.00,6500.00,M,M,M,M,M,M,M,M,36.37,KMEV 230315Z AUTO 35006KT 10SM FEW038 BKN050 OVC065 05/03 A2981 RMK AO2,M
BAM,2024-01-23 03:15,-116.8743,40.5990,1382.36,41.00,39.20,93.24,60.00,7.00,0.00,29.81,M,7.00,M,SCT,SCT,OVC,M,2200.00,2700.00,3400.00,M,M,M,M,M,M,M,M,35.75,KBAM 230315Z AUTO 06007KT 7SM SCT022 SCT027 OVC034 05/04 A2981 RMK AO1,M
HTH,2024-01-23 03:15,-118.6315,38.5448,1282.89,42.80,42.80,100.00,320.00,6.00,0.00,29.82,M,6.00,M,SCT,OVC,M,M,1900.00,2600.00,M,M,BR,M,M,M,M,M,M,38.54,KHTH 230315Z AUTO 32006KT 6SM BR SCT019 OVC026 06/06 A2982 RMK A01,M
TMT,2024-01-23 03:15,-117.1971,39.4643,1749.34,35.00,35.00,100.00,0.00,0.00,0.00,29.81,M,5.00,M,OVC,M,M,M,1400.00,M,M,M,-RA,M,M,M,M,M,M,35.00,KTMT 230315Z AUTO 00000KT 5SM -RA OVC014 02/02 A2981 RMK AO2 T00170017,M
INS,2024-01-23 03:20,-115.6733,36.5872,955.00,48.20,44.60,87.28,110.00,9.00,0.00,29.78,1006.90,10.00,M,SCT,OVC,M,M,500.00,1500.00,M,M,-RA,M,M,M,M,M,M,43.66,KINS 230320Z AUTO 11009KT 10SM -RA SCT005 OVC015 09/07 A2978 RMK AO2 OVC V BKN SLP069,M
TPH,2024-01-23 03:32,-117.0904,38.0505,1654.00,33.00,32.00,96.06,350.00,4.00,0.01,29.81,M,10.00,M,SCT,OVC,M,M,900.00,3000.00,M,M,-RA,M,M,M,M,M,M,28.59,KTPH 230332Z AUTO 35004KT 10SM -RA SCT009 OVC030 01/00 A2981 RMK AO2 P0001 T00060000,M
BVU,2024-01-23 03:35,-114.8611,35.9475,671.00,50.00,48.20,93.50,150.00,9.00,0.00,29.81,M,10.00,M,BKN,OVC,M,M,3100.00,4300.00,M,M,M,M,M,M,M,M,M,50.00,KBVU 230335Z AUTO 15009KT 10SM BKN031 OVC043 10/09 A2981 RMK AO2,M
CXP,2024-01-23 03:35,-119.7326,39.1923,1431.00,42.80,39.20,86.99,30.00,4.00,0.00,29.83,M,10.00,M,FEW,SCT,OVC,M,1500.00,2000.00,2600.00,M,M,M,M,M,M,M,M,40.03,KCXP 230335Z AUTO 03004KT 10SM FEW015 SCT020 OVC026 06/04 A2983 RMK AO2,M
RTS,2024-01-23 03:35,-119.8764,39.6682,1539.00,39.20,39.20,100.00,0.00,0.00,0.00,29.83,M,10.00,M,BKN,OVC,M,M,2900.00,3400.00,M,M,M,M,M,M,M,M,M,39.20,KRTS 230335Z AUTO 00000KT 10SM BKN029 OVC034 04/04 A2983 RMK AO2,M
05U,2024-01-23 03:35,-116.0051,39.6042,1811.23,35.60,33.80,93.08,0.00,0.00,0.00,29.82,M,10.00,M,M,M,M,M,M,M,M,M,M,M,M,M,M,M,M,35.60,K05U 230335Z AUTO 00000KT 10SM 02/01 A2982 RMK A01,M
MEV,2024-01-23 03:35,-119.7500,38.9963,1441.42,39.20,35.60,86.79,0.00,0.00,0.00,29.82,M,10.00,M,SCT,BKN,OVC,M,3600.00,4300.00,5000.00,M,M,M,M,M,M,M,M,39.20,KMEV 230335Z AUTO 00000KT 10SM SCT036 BKN043 OVC050 04/02 A2982 RMK AO2,M
BAM,2024-01-23 03:35,-116.8743,40.5990,1382.36,41.00,39.20,93.24,60.00,7.00,0.00,29.81,M,10.00,M,OVC,M,M,M,2000.00,M,M,M,M,M,M,M,M,M,M,35.75,KBAM 230335Z AUTO 06007KT 10SM OVC020 05/04 A2981 RMK AO1,M
HTH,2024-01-23 03:35,-118.6315,38.5448,1282.89,42.80,42.80,100.00,310.00,7.00,0.00,29.82,M,10.00,M,FEW,OVC,M,M,1800.00,2900.00,M,M,M,M,M,M,M,M,M,37.94,KHTH 230335Z AUTO 31007KT 10SM FEW018 OVC029 06/06 A2982 RMK A01,M
10U,2024-01-23 03:35,-116.1876,41.9532,1637.00,35.60,33.80,93.08,150.00,4.00,0.00,29.82,M,9.00,M,FEW,SCT,BKN,M,2200.00,2700.00,4800.00,M,UP,M,M,M,M,M,M,31.62,K10U 230335Z AUTO 15004KT 9SM UP FEW022 SCT027 BKN048 02/01 A2982 RMK AO2,M
TMT,2024-01-23 03:35,-117.1971,39.4643,1749.34,35.00,35.00,100.00,0.00,0.00,0.00,29.81,M,7.00,M,OVC,M,M,M,1200.00,M,M,M,-RA,M,M,M,M,M,M,35.00,KTMT 230335Z AUTO 00000KT 7SM -RA OVC012 02/02 A2981 RMK AO2 T00160016,M
LAS,2024-01-23 03:43,-115.1634,36.0719,663.00,52.00,46.00,79.92,0.00,0.00,0.00,29.79,M,10.00,M,SCT,BKN,OVC,M,2700.00,4500.00,6000.00,M,M,M,M,M,M,M,M,52.00,KLAS 230343Z 00000KT 10SM SCT027 BKN045 OVC060 11/08 A2979 RMK AO2 T01110078,M
TPH,2024-01-23 03:46,-117.0904,38.0505,1654.00,33.00,32.00,96.06,340.00,4.00,0.01,29.81,M,10.00,M,BKN,OVC,M,M,900.00,3000.00,M,M,-RA,M,M,M,M,M,M,28.59,KTPH 230346Z AUTO 34004KT 10SM -RA BKN009 OVC030 01/00 A2981 RMK AO2 P0001 T00060000,M
05U,2024-01-23 03:50,-116.0051,39.6042,1811.23,35.60,33.80,93.08,0.00,0.00,0.00,29.82,M,10.00,M,M,M,M,M,M,M,M,M,M,M,M,M,M,M,M,35.60,K05U 230350Z AUTO 00000KT 10SM 02/01 A2982 RMK A01,M
10U,2024-01-23 03:50,-116.1876,41.9532,1637.00,35.60,33.80,93.08,140.00,5.00,0.00,29.82,M,10.00,M,SCT,BKN,OVC,M,2300.00,3000.00,4900.00,M,UP,M,M,M,M,M,M,30.67,K10U 230350Z AUTO 14005KT 10SM UP SCT023 BKN030 OVC049 02/01 A2982 RMK AO2,M
P68,2024-01-23 03:53,-116.0056,39.6014,1993.00,34.00,33.00,96.08,0.00,0.00,0.00,29.79,1008.10,M,M,M,M,M,M,M,M,M,M,M,M,M,M,M,M,M,34.00,KP68 230353Z AUTO 00000KT 01/01 A2979 RMK AO1 SLP081 T00110006,M
DRA,2024-01-23 03:53,-116.0278,36.6206,1009.00,46.00,46.00,100.00,300.00,3.00,0.02,29.77,1006.70,10.00,M,OVC,M,M,M,5000.00,M,M,M,-RA,M,M,M,M,M,M,44.69,KDRA 230353Z AUTO 30003KT 10SM -RA OVC050 08/08 A2977 RMK AO2 SLP067 P0002 T00780078,M
ELY,2024-01-23 03:53,-114.8453,39.2950,1909.00,33.00,31.00,92.25,200.00,7.00,0.00,29.83,1009.50,9.00,M,OVC,M,M,M,3900.00,M,M,M,M,M,M,M,M,M,M,26.00,KELY 230353Z AUTO 20007KT 9SM OVC039 01/M01 A2983 RMK AO2 SLP095 T00061006,M
VGT,2024-01-23 03:53,-115.1933,36.2111,667.00,51.00,48.00,89.42,110.00,8.00,T,29.79,1010.20,10.00,M,FEW,BKN,OVC,M,3600.00,4400.00,5500.00,M,M,M,M,M,M,M,M,51.00,KVGT 230353Z 11008KT 10SM FEW036 BKN044 OVC055 11/09 A2979 RMK AO2 RAE06 SLP102 P0000 T01060089,M
LOL,2024-01-23 03:53,-118.5701,40.0684,1192.43,41.00,40.00,96.19,30.00,3.00,0.00,29.82,1009.90,10.00,M,FEW,BKN,OVC,M,2300.00,2900.00,4900.00,M,M,M,M,M,M,M,M,38.98,KLOL 230353Z AUTO 03003KT 10SM FEW023 BKN029 OVC049 05/04 A2982 RMK AO2 SLP099 T00500044,M
LSV,2024-01-23 03:54,-115.0343,36.2362,570.00,53.00,47.70,82.13,90.00,5.00,T,29.77,1007.50,10.00,M,FEW,BKN,BKN,M,1900.00,3400.00,4500.00,M,-DZ,M,M,M,M,M,M,53.00,KLSV 230354Z 09005KT 10SM -DZ FEW019 BKN034 BKN045 12/09 A2977 RMK AO2A SLP075 P0000 T01170087 $,M
BVU,2024-01-23 03:55,-114.8611,35.9475,671.00,50.00,46.40,87.37,130.00,8.00,0.00,29.81,M,10.00,M,BKN,OVC,M,M,3100.00,3700.00,M,M,M,M,M,M,M,M,M,50.00,KBVU 230355Z AUTO 13008KT 10SM BKN031 OVC037 10/08 A2981 RMK AO2,M
CXP,2024-01-23 03:55,-119.7326,39.1923,1431.00,42.80,39.20,86.99,0.00,0.00,0.00,29.84,M,10.00,M,FEW,FEW,OVC,M,1600.00,2200.00,4200.00,M,M,M,M,M,M,M,M,42.80,KCXP 230355Z AUTO 00000KT 10SM FEW016 FEW022 OVC042 06/04 A2984 RMK AO2,M
RNO,2024-01-23 03:55,-119.7711,39.4839,1341.00,44.00,40.00,85.71,0.00,0.00,0.00,29.83,1008.70,10.00,M,SCT,BKN,M,M,2400.00,3800.00,M,M,M,M,M,M,M,M,M,44.00,KRNO 230355Z 00000KT 10SM SCT024 BKN038 07/04 A2983 RMK AO2 SLP087 T00670044,M
RTS,2024-01-23 03:55,-119.8764,39.6682,1539.00,39.20,39.20,100.00,120.00,3.00,0.00,29.84,M,10.00,M,OVC,M,M,M,2900.00,M,M,M,M,M,M,M,M,M,M,36.92,KRTS 230355Z AUTO 12003KT 10SM OVC029 04/04 A2984 RMK AO2,M
MEV,2024-01-23 03:55,-119.7500,38.9963,1441.42,35.60,32.00,86.59,150.00,6.00,0.00,29.82,M,10.00,M,FEW,SCT,OVC,M,3600.00,4300.00,7000.00,M,M,M,M,M,M,M,M,29.87,KMEV 230355Z AUTO 15006KT 10SM FEW036 SCT043 OVC070 02/00 A2982 RMK AO2,M
HTH,2024-01-23 03:55,-118.6315,38.5448,1282.89,42.80,42.80,100.00,300.00,7.00,0.00,29.83,M,10.00,M,FEW,SCT,OVC,M,2400.00,2900.00,4100.00,M,M,M,M,M,M,M,M,37.94,KHTH 230355Z AUTO 30007KT 10SM FEW024 SCT029 OVC041 06/06 A2983 RMK A01,M
INS,2024-01-23 03:55,-115.6733,36.5872,955.00,48.00,44.80,88.61,120.00,10.00,0.03,29.78,1006.90,10.00,M,FEW,OVC,M,M,700.00,1600.00,M,M,-RA,M,M,M,M,M,M,43.03,KINS 230355Z AUTO 12010KT 10SM -RA FEW007 OVC016 09/07 A2978 RMK AO2 SLP069 P0003 T00880071,M
BAM,2024-01-23 03:55,-116.8743,40.5990,1382.36,41.00,39.20,93.24,50.00,8.00,0.00,29.81,M,10.00,M,BKN,BKN,OVC,M,2000.00,2500.00,3000.00,M,M,M,M,M,M,M,M,35.20,KBAM 230355Z AUTO 05008KT 10SM BKN020 BKN025 OVC030 05/04 A2981 RMK AO1,M
TMT,2024-01-23 03:55,-117.1971,39.4643,1749.34,35.00,35.00,100.00,0.00,0.00,0.01,29.81,M,1.50,M,OVC,M,M,M,1200.00,M,M,M,-RA,M,M,M,M,M,M,35.00,KTMT 230355Z AUTO 00000KT 1 1/2SM -RA OVC012 02/02 A2981 RMK AO2 P0001 T00160016,M
EKO,2024-01-23 03:56,-115.7860,40.8242,1367.00,36.00,34.00,92.35,80.00,3.00,T,29.81,1010.20,10.00,M,FEW,OVC,M,M,1000.00,1700.00,M,M,-RA,M,M,M,M,M,M,33.26,KEKO 230356Z AUTO 08003KT 10SM -RA FEW010 OVC017 02/01 A2981 RMK AO2 RAB55 SLP102 P0000 T00220011,M
NFL,2024-01-23 03:56,-118.7010,39.4166,1199.00,43.00,40.00,89.06,M,5.00,0.00,29.81,1007.30,10.00,M,SCT,BKN,OVC,M,3000.00,5000.00,7000.00,M,M,M,M,M,M,M,M,39.46,KNFL 230356Z VRB05KT 10SM SCT030 BKN050 OVC070 06/04 A2981 RMK AO2 SLP073 T00610044,M
HND,2024-01-23 03:56,-115.1344,35.9729,742.79,51.00,45.00,79.84,160.00,12.00,0.00,29.80,1010.80,10.00,M,OVC,M,M,M,4800.00,M,M,M,M,M,M,M,M,M,M,51.00,KHND 230356Z 16012KT 10SM OVC048 11/07 A2980 RMK AO2 SLP108 T01060072,M
TPH,2024-01-23 03:56,-117.0904,38.0505,1654.00,33.00,32.00,96.06,340.00,4.00,0.02,29.81,1009.40,10.00,M,BKN,OVC,M,M,900.00,3000.00,M,M,-RA,M,M,M,M,M,M,28.59,KTPH 230356Z AUTO 34004KT 10SM -RA BKN009 OVC030 01/00 A2981 RMK AO2 SLP094 P0002 T00060000,M
LAS,2024-01-23 03:56,-115.1634,36.0719,663.00,52.00,46.00,79.92,80.00,3.00,0.00,29.79,1008.20,10.00,M,SCT,BKN,OVC,M,2700.00,4500.00,6000.00,M,M,M,M,M,M,M,M,52.00,KLAS 230356Z 08003KT 10SM SCT027 BKN045 OVC060 11/08 A2979 RMK AO2 SLP082 T01110078,M
WMC,2024-01-23 03:56,-117.8072,40.9019,1315.00,40.00,37.00,88.92,270.00,3.00,0.03,29.81,1009.40,7.00,M,OVC,M,M,M,3200.00,M,M,M,-RA,M,M,M,M,M,M,37.83,KWMC 230356Z AUTO 27003KT 7SM -RA OVC032 04/03 A2981 RMK AO2 SLP094 P0003 T00440028,M
CXP,2024-01-23 04:10,-119.7326,39.1923,1431.00,42.80,39.20,86.99,70.00,4.00,0.00,29.84,M,10.00,M,BKN,OVC,M,M,3400.00,4300.00,M,M,M,M,M,M,M,M,M,40.03,KCXP 230410Z AUTO 07004KT 10SM BKN034 OVC043 06/04 A2984 RMK AO2,M
05U,2024-01-23 04:10,-116.0051,39.6042,1811.23,33.80,33.80,100.00,0.00,0.00,0.00,29.82,M,10.00,M,M,M,M,M,M,M,M,M,M,M,M,M,M,M,M,33.80,K05U 230410Z AUTO 00000KT 10SM 01/01 A2982 RMK A01,M
HTH,2024-01-23 04:10,-118.6315,38.5448,1282.89,42.80,42.80,100.00,300.00,7.00,0.00,29.83,M,10.00,M,OVC,M,M,M,3800.00,M,M,M,M,M,M,M,M,M,M,37.94,KHTH 230410Z AUTO 30007KT 10SM OVC038 06/06 A2983 RMK A01,M
10U,2024-01-23 04:10,-116.1876,41.9532,1637.00,33.80,33.80,100.00,160.00,4.00,0.00,29.82,M,10.00,M,FEW,SCT,OVC,M,2500.00,3500.00,6000.00,M,M,M,M,M,M,M,M,29.52,K10U 230410Z AUTO 16004KT 10SM FEW025 SCT035 OVC060 01/01 A2982 RMK AO2,M
TPH,2024-01-23 04:15,-117.0904,38.0505,1654.00,33.00,33.00,100.00,340.00,4.00,T,29.81,M,10.00,M,FEW,OVC,M,M,900.00,3600.00,M,M,-RA,M,M,M,M,M,M,28.59,KTPH 230415Z AUTO 34004KT 10SM -RA FEW009 OVC036 01/01 A2981 RMK AO2 P0000 T00060006,M
BVU,2024-01-23 04:15,-114.8611,35.9475,671.00,50.00,46.40,87.37,140.00,6.00,0.00,29.81,M,10.00,M,BKN,OVC,M,M,3000.00,3500.00,M,M,M,M,M,M,M,M,M,50.00,KBVU 230415Z AUTO 14006KT 10SM BKN030 OVC035 10/08 A2981 RMK AO2,M
INS,2024-01-23 04:15,-115.6733,36.5872,955.00,48.20,44.60,87.28,120.00,11.00,0.00,29.78,1006.90,10.00,M,FEW,BKN,BKN,OVC,800.00,1800.00,3200.00,5500.00,M,M,M,M,M,M,M,42.94,KINS 230415Z AUTO 12011KT 10SM FEW008 BKN018 BKN032 OVC055 09/07 A2978 RMK AO2 RAE0356DZB0356E0359RAB0359E15 SLP069,M
RTS,2024-01-23 04:15,-119.8764,39.6682,1539.00,39.20,39.20,100.00,150.00,4.00,0.00,29.84,M,10.00,M,OVC,M,M,M,3200.00,M,M,M,M,M,M,M,M,M,M,35.83,KRTS 230415Z AUTO 15004KT 10SM OVC032 04/04 A2984 RMK AO2,M
TMT,2024-01-23 04:15,-117.1971,39.4643,1749.34,34.70,34.70,100.00,0.00,0.00,0.00,29.81,M,5.00,M,OVC,M,M,M,1000.00,M,M,M,-RA,M,M,M,M,M,M,34.70,KTMT 230415Z AUTO 00000KT 5SM -RA OVC010 02/02 A2981 RMK AO2 T00150015,M
MEV,2024-01-23 04:15,-119.7500,38.9963,1441.42,39.20,37.40,93.19,0.00,0.00,0.00,29.83,M,10.00,M,BKN,BKN,OVC,M,4700.00,5500.00,7000.00,M,M,M,M,M,M,M,M,39.20,KMEV 230415Z AUTO 00000KT 10SM BKN047 BKN055 OVC070 04/03 A2983 RMK AO2,M
BAM,2024-01-23 04:15,-116.8743,40.5990,1382.36,41.00,39.20,93.24,50.00,6.00,0.00,29.81,M,10.00,M,SCT,BKN,OVC,M,2000.00,2800.00,3500.00,M,M,M,M,M,M,M,M,36.37,KBAM 230415Z AUTO 05006KT 10SM SCT020 BKN028 OVC035 05/04 A2981 RMK AO1,M
BVU,2024-01-23 04:35,-114.8611,35.9475,671.00,50.00,48.20,93.50,110.00,4.00,0.00,29.81,M,10.00,M,OVC,M,M,M,2700.00,M,M,M,M,M,M,M,M,M,M,50.00,KBVU 230435Z AUTO 11004KT 10SM OVC027 10/09 A2981 RMK AO2,M
CXP,2024-01-23 04:35,-119.7326,39.1923,1431.00,42.80,39.20,86.99,0.00,0.00,0.00,29.85,M,10.00,M,FEW,BKN,OVC,M,3200.00,4100.00,4600.00,M,M,M,M,M,M,M,M,42.80,KCXP 230435Z AUTO 00000KT 10SM FEW032 BKN041 OVC046 06/04 A2985 RMK AO2,M
LOL,2024-01-23 04:35,-118.5701,40.0684,1192.43,41.00,39.00,92.52,0.00,0.00,0.00,29.82,M,10.00,M,SCT,OVC,M,M,2100.00,3300.00,M,M,M,M,M,M,M,M,M,41.00,KLOL 230435Z AUTO 00000KT 10SM SCT021 OVC033 05/04 A2982 RMK AO2 T00500039,M
RTS,2024-01-23 04:35,-119.8764,39.6682,1539.00,39.20,39.20,100.00,0.00,0.00,0.00,29.84,M,10.00,M,OVC,M,M,M,3300.00,M,M,M,M,M,M,M,M,M,M,39.20,KRTS 230435Z AUTO 00000KT 10SM OVC033 04/04 A2984 RMK AO2,M
05U,2024-01-23 04:35,-116.0051,39.6042,1811.23,33.80,33.80,100.00,0.00,0.00,0.00,29.83,M,10.00,M,M,M,M,M,M,M,M,M,M,M,M,M,M,M,M,33.80,K05U 230435Z AUTO 00000KT 10SM 01/01 A2983 RMK A01,M
MEV,2024-01-23 04:35,-119.7500,38.9963,1441.42,39.20,37.40,93.19,0.00,0.00,0.00,29.83,M,10.00,M,SCT,BKN,OVC,M,3800.00,4700.00,5500.00,M,M,M,M,M,M,M,M,39.20,KMEV 230435Z AUTO 00000KT 10SM SCT038 BKN047 OVC055 04/03 A2983 RMK AO2,M
BAM,2024-01-23 04:35,-116.8743,40.5990,1382.36,41.00,39.20,93.24,50.00,7.00,0.00,29.82,M,10.00,M,SCT,BKN,OVC,M,2900.00,3600.00,4400.00,M,M,M,M,M,M,M,M,35.75,KBAM 230435Z AUTO 05007KT 10SM SCT029 BKN036 OVC044 05/04 A2982 RMK AO1,M
HTH,2024-01-23 04:35,-118.6315,38.5448,1282.89,42.80,42.80,100.00,300.00,6.00,0.00,29.84,M,10.00,M,OVC,M,M,M,3600.00,M,M,M,M,M,M,M,M,M,M,38.54,KHTH 230435Z AUTO 30006KT 10SM OVC036 06/06 A2984 RMK A01,M
10U,2024-01-23 04:35,-116.1876,41.9532,1637.00,33.80,32.00,93.03,150.00,3.00,0.00,29.83,M,10.00,M,OVC,M,M,M,6000.00,M,M,M,M,M,M,M,M,M,M,30.75,K10U 230435Z AUTO 15003KT 10SM OVC060 01/00 A2983 RMK AO2,M
TMT,2024-01-23 04:35,-117.1971,39.4643,1749.34,34.50,34.50,100.00,0.00,0.00,0.01,29.82,M,7.00,M,SCT,BKN,OVC,M,200.00,1000.00,2200.00,M,-RA,M,M,M,M,M,M,34.50,KTMT 230435Z AUTO 00000KT 7SM -RA SCT002 BKN010 OVC022 01/01 A2982 RMK AO2 P0001 T00140014,M
LSV,2024-01-23 04:44,-115.0343,36.2362,570.00,53.60,48.20,81.87,40.00,3.00,0.00,29.77,1007.50,10.00,M,BKN,M,M,M,3800.00,M,M,M,M,M,M,M,M,M,M,53.60,KLSV 230444Z 04003KT 10SM BKN038 12/09 A2977 RMK AO2A DZE0335 SLP075 $,M
INS,2024-01-23 04:45,-115.6733,36.5872,955.00,46.40,44.60,93.40,110.00,11.00,0.00,29.78,1007.10,10.00,M,BKN,BKN,OVC,M,700.00,1900.00,2900.00,M,M,M,M,M,M,M,M,40.66,KINS 230445Z AUTO 11011KT 10SM BKN007 BKN019 OVC029 08/07 A2978 RMK AO2 RAE0356DZB0356E0359RAB0359E15 BKN007 V SCT SLP071,M
05U,2024-01-23 04:50,-116.0051,39.6042,1811.23,33.80,33.80,100.00,0.00,0.00,0.00,29.83,M,10.00,M,M,M,M,M,M,M,M,M,M,M,M,M,M,M,M,33.80,K05U 230450Z AUTO 00000KT 10SM 01/01 A2983 RMK A01,M
HTH,2024-01-23 04:50,-118.6315,38.5448,1282.89,42.80,42.80,100.00,310.00,6.00,0.00,29.84,M,10.00,M,OVC,M,M,M,3400.00,M,M,M,M,M,M,M,M,M,M,38.54,KHTH 230450Z AUTO 31006KT 10SM OVC034 06/06 A2984 RMK A01,M
10U,2024-01-23 04:50,-116.1876,41.9532,1637.00,33.80,32.00,93.03,0.00,0.00,0.00,29.83,M,10.00,M,BKN,OVC,M,M,6000.00,7500.00,M,M,M,M,M,M,M,M,M,33.80,K10U 230450Z AUTO 00000KT 10SM BKN060 OVC075 01/00 A2983 RMK AO2,M
INS,2024-01-23 04:52,-115.6733,36.5872,955.00,46.40,44.60,93.40,110.00,9.00,0.00,29.79,1007.50,10.00,M,BKN,BKN,OVC,M,700.00,1900.00,2700.00,M,-DZ BR,M,M,M,M,M,M,41.42,KINS 230452Z AUTO 11009KT 10SM -DZ BR BKN007 BKN019 OVC027 08/07 A2979 RMK AO2 RAE0356DZB0356E0359RAB0359E15DZB52 BKN007 V SCT SLP075,M
P68,2024-01-23 04:53,-116.0056,39.6014,1993.00,33.00,32.00,96.06,0.00,0.00,0.00,29.80,1008.20,M,M,M,M,M,M,M,M,M,M,M,M,M,M,M,M,M,33.00,KP68 230453Z AUTO 00000KT 01/00 A2980 RMK AO1 SLP082 T00060000,M
DRA,2024-01-23 04:53,-116.0278,36.6206,1009.00,46.00,45.00,96.28,350.00,3.00,0.02,29.78,1007.00,10.00,M,OVC,M,M,M,4300.00,M,M,M,-RA,M,M,M,M,M,M,44.69,KDRA 230453Z AUTO 35003KT 10SM -RA OVC043 08/07 A2978 RMK AO2 SLP070 P0002 T00780072,M
ELY,2024-01-23 04:53,-114.8453,39.2950,1909.00,34.00,32.00,92.29,190.00,6.00,0.00,29.83,1008.90,10.00,M,OVC,M,M,M,4300.00,M,M,M,M,M,M,M,M,M,M,27.94,KELY 230453Z AUTO 19006KT 10SM OVC043 01/00 A2983 RMK AO2 SLP089 T00110000,M
VGT,2024-01-23 04:53,-115.1933,36.2111,667.00,51.00,48.00,89.42,100.00,7.00,0.00,29.79,1010.20,10.00,M,OVC,M,M,M,3900.00,M,M,M,M,M,M,M,M,M,M,51.00,KVGT 230453Z AUTO 10007KT 10SM OVC039 11/09 A2979 RMK AO2 SLP102 T01060089,M
LOL,2024-01-23 04:53,-118.5701,40.0684,1192.43,40.00,38.00,92.49,0.00,0.00,0.00,29.83,1010.30,10.00,M,BKN,BKN,M,M,3300.00,6500.00,M,M,M,M,M,M,M,M,M,40.00,KLOL 230453Z AUTO 00000KT 10SM BKN033 BKN065 04/03 A2983 RMK AO2 SLP103 T00440033,M
BVU,2024-01-23 04:55,-114.8611,35.9475,671.00,50.00,48.20,93.50,110.00,5.00,0.00,29.81,M,10.00,M,BKN,OVC,M,M,2800.00,3200.00,M,M,M,M,M,M,M,M,M,50.00,KBVU 230455Z AUTO 11005KT 10SM BKN028 OVC032 10/09 A2981 RMK AO2,M
CXP,2024-01-23 04:55,-119.7326,39.1923,1431.00,41.00,39.20,93.24,0.00,0.00,0.00,29.85,M,10.00,M,OVC,M,M,M,4200.00,M,M,M,M,M,M,M,M,M,M,41.00,KCXP 230455Z AUTO 00000KT 10SM OVC042 05/04 A2985 RMK AO2,M
RNO,2024-01-23 04:55,-119.7711,39.4839,1341.00,43.00,40.00,89.06,0.00,0.00,T,29.84,1009.30,10.00,M,BKN,BKN,M,M,3200.00,4800.00,M,M,M,M,M,M,M,M,M,43.00,KRNO 230455Z 00000KT 10SM BKN032 BKN048 06/04 A2984 RMK AO2 RAB13E42 SLP093 P0000 T00610044,M
LSV,2024-01-23 04:55,-115.0343,36.2362,570.00,52.70,48.00,83.98,50.00,4.00,0.00,29.77,1007.50,10.00,M,FEW,OVC,M,M,1600.00,3700.00,M,M,M,M,M,M,M,M,M,52.70,KLSV 230455Z 05004KT 10SM FEW016 OVC037 12/09 A2977 RMK AO2A DZE0335 SLP075 T01150089 $,M
RTS,2024-01-23 04:55,-119.8764,39.6682,1539.00,39.20,37.40,93.19,0.00,0.00,0.00,29.85,M,10.00,M,OVC,M,M,M,3600.00,M,M,M,M,M,M,M,M,M,M,39.20,KRTS 230455Z AUTO 00000KT 10SM OVC036 04/03 A2985 RMK AO2,M
MEV,2024-01-23 04:55,-119.7500,38.9963,1441.42,37.40,35.60,93.14,0.00,0.00,0.00,29.84,M,10.00,M,FEW,BKN,OVC,M,2700.00,3700.00,4500.00,M,M,M,M,M,M,M,M,37.40,KMEV 230455Z AUTO 00000KT 10SM FEW027 BKN037 OVC045 03/02 A2984 RMK AO2,M
BAM,2024-01-23 04:55,-116.8743,40.5990,1382.36,41.00,37.40,86.89,50.00,8.00,0.00,29.82,M,10.00,M,SCT,OVC,M,M,3600.00,4400.00,M,M,M,M,M,M,M,M,M,35.20,KBAM 230455Z AUTO 05008KT 10SM SCT036 OVC044 05/03 A2982 RMK AO1,M
TMT,2024-01-23 04:55,-117.1971,39.4643,1749.34,34.00,34.00,100.00,340.00,3.00,0.01,29.82,M,7.00,M,BKN,OVC,M,M,1000.00,2500.00,M,M,-RA,M,M,M,M,M,M,30.97,KTMT 230455Z AUTO 34003KT 7SM -RA BKN010 OVC025 01/01 A2982 RMK AO2 P0001 T00110011,M
EKO,2024-01-23 04:56,-115.7860,40.8242,1367.00,36.00,34.00,92.35,90.00,4.00,0.02,29.82,1010.50,8.00,M,FEW,OVC,M,M,1000.00,1700.00,M,M,-RA,M,M,M,M,M,M,32.09,KEKO 230456Z AUTO 09004KT 8SM -RA FEW010 OVC017 02/01 A2982 RMK AO2 SLP105 P0002 T00220011,M
NFL,2024-01-23 04:56,-118.7010,39.4166,1199.00,43.00,40.00,89.06,220.00,5.00,0.00,29.83,1007.70,10.00,M,BKN,OVC,M,M,3000.00,5000.00,M,M,M,M,M,M,M,M,M,39.46,KNFL 230456Z 22005KT 10SM BKN030 OVC050 06/04 A2983 RMK AO2 SLP077 T00610044,M
HND,2024-01-23 04:56,-115.1344,35.9729,742.79,50.00,44.00,79.76,170.00,9.00,0.00,29.81,1011.00,10.00,M,FEW,OVC,M,M,3900.00,5500.00,M,M,M,M,M,M,M,M,M,50.00,KHND 230456Z AUTO 17009KT 10SM FEW039 OVC055 10/07 A2981 RMK AO2 SLP110 T01000067,M
TPH,2024-01-23 04:56,-117.0904,38.0505,1654.00,34.00,33.00,96.08,340.00,5.00,0.01,29.82,1009.50,10.00,M,OVC,M,M,M,3600.00,M,M,M,-RA,M,M,M,M,M,M,28.77,KTPH 230456Z AUTO 34005KT 10SM -RA OVC036 01/01 A2982 RMK AO2 SLP095 P0001 T00110006,M
LAS,2024-01-23 04:56,-115.1634,36.0719,663.00,52.00,47.00,82.99,0.00,0.00,0.00,29.79,1008.40,10.00,M,SCT,OVC,M,M,2700.00,3600.00,M,M,M,M,M,M,M,M,M,52.00,KLAS 230456Z 00000KT 10SM SCT027 OVC036 11/08 A2979 RMK AO2 SLP084 T01110083,M
WMC,2024-01-23 04:56,-117.8072,40.9019,1315.00,40.00,37.00,88.92,0.00,0.00,0.02,29.82,1009.60,10.00,M,OVC,M,M,M,4600.00,M,M,M,-RA,M,M,M,M,M,M,40.00,KWMC 230456Z AUTO 00000KT 10SM -RA OVC046 04/03 A2982 RMK AO2 SLP096 P0002 T00440028,M
INS,2024-01-23 05:00,-115.6733,36.5872,955.00,48.20,44.60,87.28,100.00,11.00,0.00,29.79,1007.20,10.00,M,OVC,M,M,M,600.00,M,M,M,-DZ BR,M,M,M,M,M,M,42.94,KINS 230500Z AUTO 10011KT 10SM -DZ BR OVC006 09/07 A2979 RMK AO2 SLP072,M
INS,2024-01-23 05:07,-115.6733,36.5872,955.00,48.20,44.60,87.28,100.00,11.00,0.00,29.79,1007.20,10.00,M,BKN,OVC,M,M,500.00,1800.00,M,M,M,M,M,M,M,M,M,42.94,KINS 230507Z AUTO 10011KT 10SM BKN005 OVC018 09/07 A2979 RMK AO2 DZE07 SLP072,M
DRA,2024-01-23 05:10,-116.0278,36.6206,1009.00,47.00,46.00,96.29,0.00,0.00,0.01,29.78,M,10.00,M,FEW,OVC,M,M,900.00,4200.00,M,M,-RA,M,M,M,M,M,M,47.00,KDRA 230510Z AUTO 00000KT 10SM -RA FEW009 OVC042 08/08 A2978 RMK AO2 P0001 T00830078,M
BVU,2024-01-23 05:15,-114.8611,35.9475,671.00,50.00,48.20,93.50,130.00,6.00,0.00,29.81,M,10.00,M,FEW,FEW,OVC,M,1800.00,2400.00,3100.00,M,M,M,M,M,M,M,M,50.00,KBVU 230515Z AUTO 13006KT 10SM FEW018 FEW024 OVC031 10/09 A2981 RMK AO2,M
CXP,2024-01-23 05:15,-119.7326,39.1923,1431.00,42.80,39.20,86.99,0.00,0.00,0.00,29.86,M,10.00,M,OVC,M,M,M,4200.00,M,M,M,M,M,M,M,M,M,M,42.80,KCXP 230515Z AUTO 00000KT 10SM OVC042 06/04 A2986 RMK AO2,M
RTS,2024-01-23 05:15,-119.8764,39.6682,1539.00,37.40,37.40,100.00,0.00,0.00,0.00,29.86,M,10.00,M,OVC,M,M,M,3500.00,M,M,M,M,M,M,M,M,M,M,37.40,KRTS 230515Z AUTO 00000KT 10SM OVC035 03/03 A2986 RMK AO2,M
05U,2024-01-23 05:15,-116.0051,39.6042,1811.23,33.80,33.80,100.00,0.00,0.00,0.00,29.83,M,10.00,M,M,M,M,M,M,M,M,M,M,M,M,M,M,M,M,33.80,K05U 230515Z AUTO 00000KT 10SM 01/01 A2983 RMK A01,M
MEV,2024-01-23 05:15,-119.7500,38.9963,1441.42,39.20,37.40,93.19,0.00,0.00,0.00,29.84,M,10.00,M,FEW,SCT,OVC,M,2900.00,3700.00,4600.00,M,M,M,M,M,M,M,M,39.20,KMEV 230515Z AUTO 00000KT 10SM FEW029 SCT037 OVC046 04/03 A2984 RMK AO2,M
BAM,2024-01-23 05:15,-116.8743,40.5990,1382.36,41.00,37.40,86.89,50.00,7.00,0.00,29.82,M,10.00,M,BKN,BKN,OVC,M,2100.00,2800.00,4400.00,M,M,M,M,M,M,M,M,35.75,KBAM 230515Z AUTO 05007KT 10SM BKN021 BKN028 OVC044 05/03 A2982 RMK AO1,M
HTH,2024-01-23 05:15,-118.6315,38.5448,1282.89,42.80,42.80,100.00,320.00,5.00,0.00,29.85,M,10.00,M,FEW,BKN,OVC,M,3300.00,4400.00,5500.00,M,M,M,M,M,M,M,M,39.22,KHTH 230515Z AUTO 32005KT 10SM FEW033 BKN044 OVC055 06/06 A2985 RMK A01,M
10U,2024-01-23 05:15,-116.1876,41.9532,1637.00,33.80,32.00,93.03,0.00,0.00,0.00,29.83,M,10.00,M,BKN,BKN,OVC,M,5500.00,6500.00,7500.00,M,M,M,M,M,M,M,M,33.80,K10U 230515Z AUTO 00000KT 10SM BKN055 BKN065 OVC075 01/M00 A2983 RMK AO2,M
TMT,2024-01-23 05:15,-117.1971,39.4643,1749.34,34.00,34.00,100.00,0.00,0.00,0.00,29.83,M,7.00,M,SCT,BKN,OVC,M,300.00,2000.00,2600.00,M,-RA,M,M,M,M,M,M,34.00,KTMT 230515Z AUTO 00000KT 7SM -RA SCT003 BKN020 OVC026 01/01 A2983 RMK AO2 T00110011,M
LSV,2024-01-23 05:16,-115.0343,36.2362,570.00,53.60,46.40,76.50,50.00,4.00,0.00,29.78,1007.90,10.00,M,FEW,OVC,M,M,1700.00,3800.00,M,M,-RA,M,M,M,M,M,M,53.60,KLSV 230516Z AUTO 05004KT 10SM -RA FEW017 OVC038 12/08 A2978 RMK AO2 RAB16 SLP079 $,M
INS,2024-01-23 05:22,-115.6733,36.5872,955.00,48.20,44.60,87.28,110.00,9.00,0.00,29.79,1007.20,10.00,M,SCT,BKN,OVC,M,500.00,1200.00,1900.00,M,M,M,M,M,M,M,M,43.66,KINS 230522Z AUTO 11009KT 10SM SCT005 BKN012 OVC019 09/07 A2979 RMK AO2 DZE07 SLP072,M
LSV,2024-01-23 05:25,-115.0343,36.2362,570.00,53.60,48.20,81.87,120.00,3.00,0.00,29.77,1007.50,10.00,M,OVC,M,M,M,3900.00,M,M,M,M,M,M,M,M,M,M,53.60,KLSV 230525Z AUTO 12003KT 10SM OVC039 12/09 A2977 RMK AO2 RAB16E25 SLP075 $,M
INS,2024-01-23 05:27,-115.6733,36.5872,955.00,46.40,44.60,93.40,110.00,9.00,0.00,29.79,1007.20,10.00,M,BKN,BKN,OVC,M,600.00,1200.00,1900.00,M,M,M,M,M,M,M,M,41.42,KINS 230527Z AUTO 11009KT 10SM BKN006 BKN012 OVC019 08/07 A2979 RMK AO2 DZE07 SLP072,M
INS,2024-01-23 05:28,-115.6733,36.5872,955.00,46.40,44.60,93.40,110.00,9.00,0.00,29.79,1007.20,10.00,M,BKN,BKN,OVC,M,600.00,1200.00,1900.00,M,-RA BR,M,M,M,M,M,M,41.42,KINS 230528Z AUTO 11009KT 10SM -RA BR BKN006 BKN012 OVC019 08/07 A2979 RMK AO2 DZE07RAB28 SLP072,M
EKO,2024-01-23 05:33,-115.7860,40.8242,1367.00,36.00,34.00,92.35,80.00,4.00,0.01,29.82,M,7.00,M,BKN,OVC,M,M,1300.00,2000.00,M,M,-RA,M,M,M,M,M,M,32.09,KEKO 230533Z AUTO 08004KT 7SM -RA BKN013 OVC020 02/01 A2982 RMK AO2 UPB22E31 P0001 T00220011,M
BVU,2024-01-23 05:35,-114.8611,35.9475,671.00,50.00,48.20,93.50,120.00,5.00,0.00,29.81,M,10.00,M,BKN,OVC,M,M,2800.00,3300.00,M,M,M,M,M,M,M,M,M,50.00,KBVU 230535Z AUTO 12005KT 10SM BKN028 OVC033 10/09 A2981 RMK AO2,M
CXP,2024-01-23 05:35,-119.7326,39.1923,1431.00,41.00,39.20,93.24,0.00,0.00,0.00,29.86,M,10.00,M,OVC,M,M,M,4300.00,M,M,M,M,M,M,M,M,M,M,41.00,KCXP 230535Z AUTO 00000KT 10SM OVC043 05/04 A2986 RMK AO2,M
RTS,2024-01-23 05:35,-119.8764,39.6682,1539.00,37.40,37.40,100.00,0.00,0.00,0.00,29.86,M,10.00,M,OVC,M,M,M,3600.00,M,M,M,M,M,M,M,M,M,M,37.40,KRTS 230535Z AUTO 00000KT 10SM OVC036 03/03 A2986 RMK AO2,M
05U,2024-01-23 05:35,-116.0051,39.6042,1811.23,33.80,33.80,100.00,200.00,4.00,0.00,29.84,M,1.50,M,M,M,M,M,M,M,M,M,BR,M,M,M,M,M,M,29.52,K05U 230535Z AUTO 20004KT 1 1/2SM BR 01/01 A2984 RMK A01 VIS 3/4V5,M
MEV,2024-01-23 05:35,-119.7500,38.9963,1441.42,37.40,35.60,93.14,0.00,0.00,0.00,29.85,M,10.00,M,OVC,M,M,M,4600.00,M,M,M,M,M,M,M,M,M,M,37.40,KMEV 230535Z AUTO 00000KT 10SM OVC046 03/02 A2985 RMK AO2,M
BAM,2024-01-23 05:35,-116.8743,40.5990,1382.36,41.00,37.40,86.89,40.00,7.00,0.00,29.83,M,10.00,M,OVC,M,M,M,2300.00,M,M,M,M,M,M,M,M,M,M,35.75,KBAM 230535Z AUTO 04007KT 10SM OVC023 05/03 A2983 RMK AO1,M
HTH,2024-01-23 05:35,-118.6315,38.5448,1282.89,42.80,42.80,100.00,300.00,4.00,0.00,29.85,M,10.00,M,SCT,SCT,OVC,M,3500.00,4100.00,6000.00,M,M,M,M,M,M,M,M,40.03,KHTH 230535Z AUTO 30004KT 10SM SCT035 SCT041 OVC060 06/06 A2985 RMK A01,M
10U,2024-01-23 05:35,-116.1876,41.9532,1637.00,33.80,32.00,93.03,0.00,0.00,0.00,29.83,M,10.00,M,SCT,OVC,M,M,2900.00,5000.00,M,M,M,M,M,M,M,M,M,33.80,K10U 230535Z AUTO 00000KT 10SM SCT029 OVC050 01/00 A2983 RMK AO2,M
INS,2024-01-23 05:38,-115.6733,36.5872,955.00,46.40,44.60,93.40,100.00,7.00,0.00,29.79,1007.20,10.00,M,SCT,OVC,M,M,500.00,1700.00,M,M,-RA,M,M,M,M,M,M,42.33,KINS 230538Z AUTO 10007KT 10SM -RA SCT005 OVC017 08/07 A2979 RMK AO2 DZE07RAB28E29DZB29E37RAB37E38 SLP072,M
INS,2024-01-23 05:39,-115.6733,36.5872,955.00,46.40,44.60,93.40,100.00,8.00,0.00,29.79,1007.20,10.00,M,SCT,OVC,M,M,500.00,1700.00,M,M,M,M,M,M,M,M,M,41.85,KINS 230539Z AUTO 10008KT 10SM SCT005 OVC017 08/07 A2979 RMK AO2 DZE07RAB28E29DZB29E37RAB37E38 SLP072,M
INS,2024-01-23 05:43,-115.6733,36.5872,955.00,46.40,44.60,93.40,120.00,8.00,0.00,29.79,1007.20,10.00,M,SCT,OVC,M,M,500.00,1700.00,M,M,-RA,M,M,M,M,M,M,41.85,KINS 230543Z AUTO 12008KT 10SM -RA SCT005 OVC017 08/07 A2979 RMK AO2 DZE07RAB28E29DZB29E37RAB37E38RAB43 SLP072,M
INS,2024-01-23 05:53,-115.6733,36.5872,955.00,46.40,44.60,93.40,120.00,9.00,0.00,29.79,1007.20,10.00,M,BKN,OVC,M,M,500.00,1700.00,M,M,-RA BR,M,M,M,M,M,M,41.42,KINS 230553Z AUTO 12009KT 10SM -RA BR BKN005 OVC017 08/07 A2979 RMK AO2 DZE07RAB28E29DZB29E37RAB37E38RAB43 BKN V SCT SLP072,M
P68,2024-01-23 05:53,-116.0056,39.6014,1993.00,34.00,34.00,100.00,20.00,3.00,0.00,29.81,1008.10,M,M,M,M,M,M,M,M,M,M,M,M,M,M,M,M,M,30.97,KP68 230553Z AUTO 02003KT 01/01 A2981 RMK AO1 SLP081 60001 T00110011 10033 20006 53005,M
DRA,2024-01-23 05:53,-116.0278,36.6206,1009.00,46.00,45.00,96.28,280.00,3.00,0.03,29.79,1007.20,10.00,M,OVC,M,M,M,4000.00,M,M,M,-RA,M,M,M,M,M,M,44.69,KDRA 230553Z AUTO 28003KT 10SM -RA OVC040 08/07 A2979 RMK AO2 SLP072 P0003 60022 T00780072 10089 20078 53005,M
ELY,2024-01-23 05:53,-114.8453,39.2950,1909.00,33.00,32.00,96.06,190.00,6.00,T,29.83,1009.10,10.00,M,OVC,M,M,M,4600.00,M,M,M,M,M,M,M,M,M,M,26.73,KELY 230553Z AUTO 19006KT 10SM OVC046 01/00 A2983 RMK AO2 RAB24E37 SLP091 P0000 60000 T00060000 10028 20006 53003,M
VGT,2024-01-23 05:53,-115.1933,36.2111,667.00,51.00,47.00,86.12,100.00,6.00,T,29.80,1010.40,10.00,M,OVC,M,M,M,3600.00,M,M,M,M,M,M,M,M,M,M,51.00,KVGT 230553Z AUTO 10006KT 10SM OVC036 11/08 A2980 RMK AO2 RAB0459E34 SLP104 P0000 60002 T01060083 10111 20106 53004,M
LOL,2024-01-23 05:53,-118.5701,40.0684,1192.43,38.00,38.00,100.00,0.00,0.00,0.00,29.84,1010.70,10.00,M,BKN,M,M,M,7500.00,M,M,M,M,M,M,M,M,M,M,38.00,KLOL 230553Z AUTO 00000KT 10SM BKN075 03/03 A2984 RMK AO2 SLP107 60002 T00330033 10061 20033 53010,M
EKO,2024-01-23 05:54,-115.7860,40.8242,1367.00,35.60,33.80,93.08,70.00,5.05,M,29.82,M,7.00,M,OVC,M,M,M,1499.00,M,M,M,-RA,M,M,M,M,M,M,30.62,SPECI KEKO 230554Z 07005KT 7SM -RA OVC015 02/01 A2982 RMK AO2 UPB22E31 P0001 FIBI,M
10U,2024-01-23 05:55,-116.1876,41.9532,1637.00,33.80,32.00,93.03,70.00,4.00,0.00,29.84,M,10.00,M,SCT,BKN,OVC,M,2800.00,4000.00,7000.00,M,M,M,M,M,M,M,M,29.52,K10U 230555Z AUTO 07004KT 10SM SCT028 BKN040 OVC070 01/00 A2984 RMK AO2,M
BVU,2024-01-23 05:55,-114.8611,35.9475,671.00,50.00,48.20,93.50,120.00,4.00,0.00,29.81,M,10.00,M,OVC,M,M,M,2700.00,M,M,M,M,M,M,M,M,M,M,50.00,KBVU 230555Z AUTO 12004KT 10SM OVC027 10/09 A2981 RMK AO2,M
CXP,2024-01-23 05:55,-119.7326,39.1923,1431.00,41.00,39.20,93.24,0.00,0.00,0.00,29.87,M,10.00,M,OVC,M,M,M,4300.00,M,M,M,M,M,M,M,M,M,M,41.00,KCXP 230555Z AUTO 00000KT 10SM OVC043 05/04 A2987 RMK AO2,M
INS,2024-01-23 05:55,-115.6733,36.5872,955.00,47.00,44.60,91.31,110.00,8.00,0.01,29.79,1007.20,10.00,M,BKN,OVC,M,M,500.00,1700.00,M,M,-RA BR,M,M,M,M,M,M,42.59,KINS 230555Z AUTO 11008KT 10SM -RA BR BKN005 OVC017 08/07 A2979 RMK AO2 DZE07RAB28E29DZB29E37RAB37E38RAB43 BKN V SCT SLP072 P0001 60013 T00840070 10095 20083 52005,M
RNO,2024-01-23 05:55,-119.7711,39.4839,1341.00,43.00,40.00,89.06,0.00,0.00,0.00,29.85,1009.70,10.00,M,BKN,M,M,M,4600.00,M,M,M,M,M,M,M,M,M,M,43.00,KRNO 230555Z 00000KT 10SM BKN046 06/04 A2985 RMK AO2 SLP097 60007 T00610044 10078 20061 52013,M
RTS,2024-01-23 05:55,-119.8764,39.6682,1539.00,37.40,37.40,100.00,0.00,0.00,0.00,29.87,M,10.00,M,OVC,M,M,M,3700.00,M,M,M,M,M,M,M,M,M,M,37.40,KRTS 230555Z AUTO 00000KT 10SM OVC037 03/03 A2987 RMK AO2,M
05U,2024-01-23 05:55,-116.0051,39.6042,1811.23,33.80,33.80,100.00,190.00,3.00,0.00,29.84,M,0.75,M,M,M,M,M,M,M,M,M,BR,M,M,M,M,M,M,30.75,K05U 230555Z AUTO 19003KT 3/4SM BR 01/01 A2984 RMK A01,M
MEV,2024-01-23 05:55,-119.7500,38.9963,1441.42,35.60,35.60,100.00,130.00,4.00,0.00,29.85,M,10.00,M,OVC,M,M,M,4600.00,M,M,M,M,M,M,M,M,M,M,31.62,KMEV 230555Z AUTO 13004KT 10SM OVC046 02/02 A2985 RMK AO2,M
HTH,2024-01-23 05:55,-118.6315,38.5448,1282.89,42.80,42.80,100.00,290.00,3.00,0.00,29.86,M,10.00,M,BKN,OVC,M,M,3600.00,4100.00,M,M,M,M,M,M,M,M,M,41.03,KHTH 230555Z AUTO 29003KT 10SM BKN036 OVC041 06/06 A2986 RMK A01,M
LSV,2024-01-23 05:55,-115.0343,36.2362,570.00,52.70,47.30,81.80,120.00,4.00,T,29.77,1007.50,10.00,M,OVC,M,M,M,4000.00,M,M,M,M,M,M,M,M,M,M,52.70,KLSV 230555Z AUTO 12004KT 10SM OVC040 12/09 A2977 RMK AO2 RAB16E25 SLP075 P0000 60002 T01150085 10119 20113 53001 $,M
BAM,2024-01-23 05:55,-116.8743,40.5990,1382.36,39.20,37.40,93.19,50.00,6.00,0.00,29.83,M,10.00,M,OVC,M,M,M,2500.00,M,M,M,M,M,M,M,M,M,M,34.20,KBAM 230555Z AUTO 05006KT 10SM OVC025 04/03 A2983 RMK AO1,M
TMT,2024-01-23 05:55,-117.1971,39.4643,1749.34,33.40,33.40,100.00,0.00,0.00,0.01,29.83,M,7.00,M,SCT,BKN,OVC,M,700.00,1400.00,2100.00,M,-RA,M,M,M,M,M,M,33.40,KTMT 230555Z AUTO 00000KT 7SM -RA SCT007 BKN014 OVC021 01/01 A2983 RMK AO2 P0001 60006 T00080008 10035 20008,M
EKO,2024-01-23 05:56,-115.7860,40.8242,1367.00,36.00,34.00,92.35,70.00,4.00,0.01,29.82,1010.50,7.00,M,OVC,M,M,M,1500.00,M,M,M,-RA,M,M,M,M,M,M,32.09,KEKO 230556Z AUTO 07004KT 7SM -RA OVC015 02/01 A2982 RMK AO2 UPB22E31 SLP105 P0001 60003 T00220011 10028 20022 51003,M
NFL,2024-01-23 05:56,-118.7010,39.4166,1199.00,42.00,41.00,96.21,M,5.00,0.00,29.84,1008.10,10.00,M,BKN,OVC,M,M,3000.00,5000.00,M,M,M,M,M,M,M,M,M,38.27,KNFL 230556Z VRB05KT 10SM BKN030 OVC050 06/05 A2984 RMK AO2 SLP081 60003 T00560050 10072 20056 53011,M
HND,2024-01-23 05:56,-115.1344,35.9729,742.79,50.00,45.00,82.86,170.00,7.00,0.00,29.81,1011.00,10.00,M,OVC,M,M,M,5000.00,M,M,M,M,M,M,M,M,M,M,50.00,KHND 230556Z AUTO 17007KT 10SM OVC050 10/07 A2981 RMK AO2 SLP110 60001 T01000072 10111 20100 53006,M
TPH,2024-01-23 05:56,-117.0904,38.0505,1654.00,33.00,32.00,96.06,330.00,5.00,0.01,29.82,1009.90,10.00,M,FEW,OVC,M,M,1400.00,4600.00,M,M,-RA,M,M,M,M,M,M,27.58,KTPH 230556Z AUTO 33005KT 10SM -RA FEW014 OVC046 01/00 A2982 RMK AO2 UPB27E28 SLP099 P0001 60017 T00060000 10011 20006 53006,M
LAS,2024-01-23 05:56,-115.1634,36.0719,663.00,52.00,47.00,82.99,0.00,0.00,T,29.80,1008.50,10.00,M,FEW,BKN,OVC,M,2700.00,4100.00,5000.00,M,-RA,M,M,M,M,M,M,52.00,KLAS 230556Z 00000KT 10SM -RA FEW027 BKN041 OVC050 11/08 A2980 RMK AO2 RAB49 SLP085 P0000 60002 T01110083 10122 20111 51005,M
WMC,2024-01-23 05:56,-117.8072,40.9019,1315.00,40.00,37.00,88.92,0.00,0.00,0.02,29.83,1009.70,10.00,M,OVC,M,M,M,4200.00,M,M,M,-RA,M,M,M,M,M,M,40.00,KWMC 230556Z AUTO 00000KT 10SM -RA OVC042 04/03 A2983 RMK AO2 SLP097 P0002 60013 T00440028 10056 20044 53007,M
CXP,2024-01-23 06:10,-119.7326,39.1923,1431.00,39.20,37.40,93.19,0.00,0.00,0.00,29.87,M,10.00,M,FEW,BKN,BKN,M,3600.00,4200.00,5000.00,M,M,M,M,M,M,M,M,39.20,KCXP 230610Z AUTO 00000KT 10SM FEW036 BKN042 BKN050 04/03 A2987 RMK AO2,M
05U,2024-01-23 06:10,-116.0051,39.6042,1811.23,33.80,33.80,100.00,0.00,0.00,0.00,29.84,M,0.50,M,M,M,M,M,M,M,M,M,FG,M,M,M,M,M,M,33.80,K05U 230610Z AUTO 00000KT 1/2SM FG 01/01 A2984 RMK A01,M
HTH,2024-01-23 06:10,-118.6315,38.5448,1282.89,42.80,42.80,100.00,260.00,4.00,0.00,29.86,M,10.00,M,BKN,OVC,M,M,3500.00,4000.00,M,M,M,M,M,M,M,M,M,40.03,KHTH 230610Z AUTO 26004KT 10SM BKN035 OVC040 06/06 A2986 RMK A01,M
10U,2024-01-23 06:10,-116.1876,41.9532,1637.00,32.00,32.00,100.00,40.00,4.00,0.00,29.84,M,10.00,M,SCT,BKN,OVC,M,4000.00,4700.00,7000.00,M,M,M,M,M,M,M,M,27.42,K10U 230610Z AUTO 04004KT 10SM SCT040 BKN047 OVC070 00/M00 A2984 RMK AO2,M
BVU,2024-01-23 06:15,-114.8611,35.9475,671.00,50.00,48.20,93.50,0.00,0.00,0.00,29.81,M,10.00,M,FEW,OVC,M,M,1700.00,2900.00,M,M,M,M,M,M,M,M,M,50.00,KBVU 230615Z AUTO 00000KT 10SM FEW017 OVC029 10/09 A2981 RMK AO2,M
RTS,2024-01-23 06:15,-119.8764,39.6682,1539.00,37.40,37.40,100.00,0.00,0.00,0.00,29.87,M,10.00,M,OVC,M,M,M,3500.00,M,M,M,M,M,M,M,M,M,M,37.40,KRTS 230615Z AUTO 00000KT 10SM OVC035 03/03 A2987 RMK AO2,M
MEV,2024-01-23 06:15,-119.7500,38.9963,1441.42,35.60,35.60,100.00,0.00,0.00,0.00,29.86,M,10.00,M,OVC,M,M,M,4800.00,M,M,M,M,M,M,M,M,M,M,35.60,KMEV 230615Z AUTO 00000KT 10SM OVC048 02/02 A2986 RMK AO2,M
BAM,2024-01-23 06:15,-116.8743,40.5990,1382.36,39.20,37.40,93.19,40.00,6.00,0.00,29.83,M,7.00,M,OVC,M,M,M,2300.00,M,M,M,M,M,M,M,M,M,M,34.20,KBAM 230615Z AUTO 04006KT 7SM OVC023 04/03 A2983 RMK AO1,M
TMT,2024-01-23 06:15,-117.1971,39.4643,1749.34,33.40,33.40,100.00,0.00,0.00,0.00,29.84,M,10.00,M,BKN,BKN,OVC,M,1200.00,1600.00,2600.00,M,-RA,M,M,M,M,M,M,33.40,KTMT 230615Z AUTO 00000KT 10SM -RA BKN012 BKN016 OVC026 01/01 A2984 RMK AO2 T00080008,M
DRA,2024-01-23 06:19,-116.0278,36.6206,1009.00,46.00,46.00,100.00,30.00,3.00,T,29.79,M,10.00,M,FEW,SCT,OVC,M,600.00,1200.00,4400.00,M,-RA,M,M,M,M,M,M,44.69,KDRA 230619Z AUTO 03003KT 10SM -RA FEW006 SCT012 OVC044 08/08 A2979 RMK AO2 P0000 T00780078,M
TPH,2024-01-23 06:19,-117.0904,38.0505,1654.00,34.00,33.00,96.08,330.00,3.00,T,29.83,M,10.00,M,BKN,OVC,M,M,1400.00,3900.00,M,M,-RA,M,M,M,M,M,M,30.97,KTPH 230619Z AUTO 33003KT 10SM -RA BKN014 OVC039 01/01 A2983 RMK AO2 P0000 T00110006,M
DRA,2024-01-23 06:27,-116.0278,36.6206,1009.00,46.00,45.00,96.28,70.00,3.00,T,29.79,M,9.00,M,FEW,BKN,OVC,M,600.00,1200.00,4200.00,M,-RA,M,M,M,M,M,M,44.69,KDRA 230627Z AUTO 07003KT 9SM -RA FEW006 BKN012 OVC042 08/07 A2979 RMK AO2 P0000 T00780072,M
INS,2024-01-23 06:28,-115.6733,36.5872,955.00,46.40,44.60,93.40,90.00,8.00,0.00,29.80,1007.60,10.00,M,BKN,OVC,M,M,500.00,1400.00,M,M,M,M,M,M,M,M,M,41.85,KINS 230628Z AUTO 09008KT 10SM BKN005 OVC014 08/07 A2980 RMK AO2 RAE28 SLP076,M
CXP,2024-01-23 06:30,-119.7326,39.1923,1431.00,39.20,35.60,86.79,0.00,0.00,0.00,29.87,M,10.00,M,BKN,OVC,M,M,4200.00,4800.00,M,M,M,M,M,M,M,M,M,39.20,KCXP 230630Z AUTO 00000KT 10SM BKN042 OVC048 04/02 A2987 RMK AO2,M
05U,2024-01-23 06:30,-116.0051,39.6042,1811.23,33.80,33.80,100.00,150.00,3.00,0.00,29.84,M,4.00,M,M,M,M,M,M,M,M,M,BR,M,M,M,M,M,M,30.75,K05U 230630Z AUTO 15003KT 4SM BR 01/01 A2984 RMK A01,M
MEV,2024-01-23 06:30,-119.7500,38.9963,1441.42,35.60,35.60,100.00,130.00,3.00,0.00,29.86,M,10.00,M,OVC,M,M,M,4700.00,M,M,M,M,M,M,M,M,M,M,32.80,KMEV 230630Z AUTO 13003KT 10SM OVC047 02/02 A2986 RMK AO2,M
HTH,2024-01-23 06:30,-118.6315,38.5448,1282.89,42.80,42.80,100.00,0.00,0.00,0.00,29.86,M,10.00,M,BKN,OVC,M,M,3100.00,4100.00,M,M,M,M,M,M,M,M,M,42.80,KHTH 230630Z AUTO 00000KT 10SM BKN031 OVC041 06/06 A2986 RMK A01,M
10U,2024-01-23 06:30,-116.1876,41.9532,1637.00,32.00,32.00,100.00,50.00,3.00,0.00,29.84,M,10.00,M,SCT,BKN,OVC,M,2900.00,4000.00,4700.00,M,M,M,M,M,M,M,M,28.69,K10U 230630Z AUTO 05003KT 10SM SCT029 BKN040 OVC047 00/M00 A2984 RMK AO2,M
INS,2024-01-23 06:32,-115.6733,36.5872,955.00,46.40,44.60,93.40,90.00,9.00,0.00,29.80,1007.60,10.00,M,BKN,OVC,M,M,500.00,1500.00,M,M,-RA,M,M,M,M,M,M,41.42,KINS 230632Z AUTO 09009KT 10SM -RA BKN005 OVC015 08/07 A2980 RMK AO2 RAE28RAB32 SLP076,M
TPH,2024-01-23 06:33,-117.0904,38.0505,1654.00,34.00,33.00,96.08,330.00,3.00,T,29.83,M,10.00,M,SCT,OVC,M,M,1400.00,2900.00,M,M,-RA,M,M,M,M,M,M,30.97,KTPH 230633Z AUTO 33003KT 10SM -RA SCT014 OVC029 01/01 A2983 RMK AO2 P0000 T00110006,M
DRA,2024-01-23 06:34,-116.0278,36.6206,1009.00,46.00,45.00,96.28,50.00,3.00,0.01,29.79,M,7.00,M,FEW,SCT,OVC,M,600.00,1200.00,4000.00,M,-RA,M,M,M,M,M,M,44.69,KDRA 230634Z AUTO 05003KT 7SM -RA FEW006 SCT012 OVC040 08/07 A2979 RMK AO2 P0001 T00780072,M
BVU,2024-01-23 06:35,-114.8611,35.9475,671.00,50.00,46.40,87.37,170.00,4.00,0.00,29.81,M,10.00,M,SCT,OVC,M,M,1600.00,3200.00,M,M,M,M,M,M,M,M,M,50.00,KBVU 230635Z AUTO 17004KT 10SM SCT016 OVC032 10/08 A2981 RMK AO2,M
RTS,2024-01-23 06:35,-119.8764,39.6682,1539.00,39.20,37.40,93.19,0.00,0.00,0.00,29.88,M,10.00,M,OVC,M,M,M,3400.00,M,M,M,M,M,M,M,M,M,M,39.20,KRTS 230635Z AUTO 00000KT 10SM OVC034 04/03 A2988 RMK AO2,M
BAM,2024-01-23 06:35,-116.8743,40.5990,1382.36,39.20,37.40,93.19,20.00,5.00,0.00,29.84,M,5.00,M,BKN,BKN,OVC,M,1400.00,1900.00,2300.00,M,M,M,M,M,M,M,M,34.95,KBAM 230635Z AUTO 02005KT 5SM BKN014 BKN019 OVC023 04/03 A2984 RMK AO1,M
TMT,2024-01-23 06:35,-117.1971,39.4643,1749.34,33.00,33.00,100.00,0.00,0.00,0.00,29.84,M,5.00,M,OVC,M,M,M,1000.00,M,M,M,-RA,M,M,M,M,M,M,33.00,KTMT 230635Z AUTO 00000KT 5SM -RA OVC010 01/01 A2984 RMK AO2 T00060006,M
INS,2024-01-23 06:49,-115.6733,36.5872,955.00,46.40,44.60,93.40,90.00,9.00,0.00,29.80,1007.60,10.00,M,BKN,OVC,M,M,600.00,1700.00,M,M,M,M,M,M,M,M,M,41.42,KINS 230649Z AUTO 09009KT 10SM BKN006 OVC017 08/07 A2980 RMK AO2 RAE28RAB32E49 SLP076,M
P68,2024-01-23 06:53,-116.0056,39.6014,1993.00,33.00,33.00,100.00,10.00,4.00,0.00,29.82,1008.30,M,M,M,M,M,M,M,M,M,M,M,M,M,M,M,M,M,28.59,KP68 230653Z AUTO 01004KT 01/01 A2982 RMK AO1 SLP083 T00060006,M
DRA,2024-01-23 06:53,-116.0278,36.6206,1009.00,46.00,45.00,96.28,20.00,6.00,0.01,29.79,1007.30,8.00,M,FEW,SCT,OVC,M,900.00,1600.00,4000.00,M,-RA,M,M,M,M,M,M,42.39,KDRA 230653Z AUTO 02006KT 8SM -RA FEW009 SCT016 OVC040 08/07 A2979 RMK AO2 SLP073 P0001 T00780072,M
ELY,2024-01-23 06:53,-114.8453,39.2950,1909.00,33.00,31.00,92.25,200.00,7.00,0.00,29.83,1009.00,10.00,M,OVC,M,M,M,4800.00,M,M,M,M,M,M,M,M,M,M,26.00,KELY 230653Z AUTO 20007KT 10SM OVC048 01/M01 A2983 RMK AO2 SLP090 T00061006,M
VGT,2024-01-23 06:53,-115.1933,36.2111,667.00,51.00,47.00,86.12,120.00,7.00,T,29.80,1010.60,10.00,M,OVC,M,M,M,5500.00,M,M,M,-RA,M,M,M,M,M,M,51.00,KVGT 230653Z AUTO 12007KT 10SM -RA OVC055 11/08 A2980 RMK AO2 RAB35 SLP106 P0000 T01060083,M
LOL,2024-01-23 06:53,-118.5701,40.0684,1192.43,37.00,36.00,96.13,0.00,0.00,0.00,29.85,1011.20,10.00,M,FEW,OVC,M,M,3100.00,8000.00,M,M,M,M,M,M,M,M,M,37.00,KLOL 230653Z AUTO 00000KT 10SM FEW031 OVC080 03/02 A2985 RMK AO2 SLP112 T00280022,M
INS,2024-01-23 06:54,-115.6733,36.5872,955.00,46.40,44.60,93.40,90.00,9.00,0.00,29.80,1007.60,10.00,M,SCT,OVC,M,M,600.00,1700.00,M,M,M,M,M,M,M,M,M,41.42,KINS 230654Z AUTO 09009KT 10SM SCT006 OVC017 08/07 A2980 RMK AO2 RAE28RAB32E49 SLP076,M
WMC,2024-01-23 06:54,-117.8072,40.9019,1315.00,39.20,37.40,93.19,280.00,3.00,0.01,29.85,M,10.00,M,BKN,OVC,M,M,2100.00,2600.00,M,M,-RA,M,M,M,M,M,M,36.92,KWMC 230654Z AUTO 28003KT 10SM -RA BKN021 OVC026 04/03 A2985 RMK AO2 P0001,M
10U,2024-01-23 06:55,-116.1876,41.9532,1637.00,32.00,32.00,100.00,0.00,0.00,0.00,29.84,M,9.00,M,SCT,OVC,M,M,3900.00,7000.00,M,M,M,M,M,M,M,M,M,32.00,K10U 230655Z AUTO 00000KT 9SM SCT039 OVC070 00/M00 A2984 RMK AO2,M
BVU,2024-01-23 06:55,-114.8611,35.9475,671.00,50.00,46.40,87.37,180.00,3.00,0.00,29.81,M,10.00,M,FEW,OVC,M,M,1500.00,3300.00,M,M,M,M,M,M,M,M,M,50.00,KBVU 230655Z AUTO 18003KT 10SM FEW015 OVC033 10/08 A2981 RMK AO2,M
CXP,2024-01-23 06:55,-119.7326,39.1923,1431.00,39.20,37.40,93.19,0.00,0.00,0.00,29.88,M,10.00,M,OVC,M,M,M,4900.00,M,M,M,M,M,M,M,M,M,M,39.20,KCXP 230655Z AUTO 00000KT 10SM OVC049 04/03 A2988 RMK AO2,M
INS,2024-01-23 06:55,-115.6733,36.5872,955.00,47.00,44.80,92.01,90.00,10.00,0.01,29.80,1007.60,10.00,M,SCT,OVC,M,M,600.00,1700.00,M,M,M,M,M,M,M,M,M,41.78,KINS 230655Z AUTO 09010KT 10SM SCT006 OVC017 08/07 A2980 RMK AO2 RAE28RAB32E49 SLP076 P0001 T00830071,M
RNO,2024-01-23 06:55,-119.7711,39.4839,1341.00,43.00,40.00,89.06,0.00,0.00,T,29.87,1010.20,10.00,M,BKN,BKN,M,M,3400.00,4700.00,M,M,-RA,M,M,M,M,M,M,43.00,KRNO 230655Z 00000KT 10SM -RA BKN034 BKN047 06/04 A2987 RMK AO2 RAB38 SLP102 P0000 T00610044,M
RTS,2024-01-23 06:55,-119.8764,39.6682,1539.00,39.20,37.40,93.19,0.00,0.00,0.00,29.88,M,10.00,M,FEW,BKN,OVC,M,2200.00,2800.00,3400.00,M,M,M,M,M,M,M,M,39.20,KRTS 230655Z AUTO 00000KT 10SM FEW022 BKN028 OVC034 04/03 A2988 RMK AO2,M
05U,2024-01-23 06:55,-116.0051,39.6042,1811.23,33.80,33.80,100.00,0.00,0.00,0.00,29.84,M,2.50,M,M,M,M,M,M,M,M,M,BR,M,M,M,M,M,M,33.80,K05U 230655Z AUTO 00000KT 2 1/2SM BR 01/01 A2984 RMK A01 VIS 1V4,M
MEV,2024-01-23 06:55,-119.7500,38.9963,1441.42,35.60,35.60,100.00,110.00,4.00,0.00,29.87,M,10.00,M,OVC,M,M,M,4600.00,M,M,M,M,M,M,M,M,M,M,31.62,KMEV 230655Z AUTO 11004KT 10SM OVC046 02/02 A2987 RMK AO2,M
BAM,2024-01-23 06:55,-116.8743,40.5990,1382.36,39.20,37.40,93.19,20.00,4.00,0.00,29.84,M,5.00,M,OVC,M,M,M,1400.00,M,M,M,M,M,M,M,M,M,M,35.83,KBAM 230655Z AUTO 02004KT 5SM OVC014 04/03 A2984 RMK AO1,M
HTH,2024-01-23 06:55,-118.6315,38.5448,1282.89,42.80,42.80,100.00,300.00,3.00,0.00,29.87,M,8.00,M,BKN,OVC,M,M,2400.00,2900.00,M,M,M,M,M,M,M,M,M,41.03,KHTH 230655Z AUTO 30003KT 8SM BKN024 OVC029 06/06 A2987 RMK A01,M
LSV,2024-01-23 06:55,-115.0343,36.2362,570.00,52.00,48.00,86.17,0.00,0.00,0.00,29.78,1007.90,10.00,M,SCT,BKN,M,M,4200.00,5000.00,M,M,M,M,M,M,M,M,M,52.00,KLSV 230655Z AUTO 00000KT 10SM SCT042 BKN050 11/09 A2978 RMK AO2 SLP079 T01120088 $,M
TMT,2024-01-23 06:55,-117.1971,39.4643,1749.34,33.00,33.00,100.00,200.00,3.00,0.00,29.84,M,7.00,M,OVC,M,M,M,1000.00,M,M,M,-RA,M,M,M,M,M,M,29.83,KTMT 230655Z AUTO 20003KT 7SM -RA OVC010 01/01 A2984 RMK AO2 T00050005,M
EKO,2024-01-23 06:56,-115.7860,40.8242,1367.00,36.00,34.00,92.35,70.00,5.00,0.01,29.83,1010.70,9.00,M,OVC,M,M,M,1600.00,M,M,M,-RA,M,M,M,M,M,M,31.15,KEKO 230656Z AUTO 07005KT 9SM -RA OVC016 02/01 A2983 RMK AO2 UPB03E15 SLP107 P0001 T00220011,M
NFL,2024-01-23 06:56,-118.7010,39.4166,1199.00,42.00,41.00,96.21,M,5.00,0.00,29.85,1008.50,10.00,M,BKN,OVC,M,M,3000.00,5000.00,M,M,M,M,M,M,M,M,M,38.27,KNFL 230656Z VRB05KT 10SM BKN030 OVC050 06/05 A2985 RMK AO2 SLP085 T00560050,M
HND,2024-01-23 06:56,-115.1344,35.9729,742.79,50.00,45.00,82.86,160.00,8.00,0.00,29.82,1011.10,10.00,M,BKN,OVC,M,M,3800.00,5000.00,M,M,M,M,M,M,M,M,M,50.00,KHND 230656Z AUTO 16008KT 10SM BKN038 OVC050 10/07 A2982 RMK AO2 SLP111 T01000072 401170072,M
TPH,2024-01-23 06:56,-117.0904,38.0505,1654.00,34.00,33.00,96.08,340.00,3.00,0.01,29.83,1009.90,10.00,M,OVC,M,M,M,2900.00,M,M,M,-RA,M,M,M,M,M,M,30.97,KTPH 230656Z AUTO 34003KT 10SM -RA OVC029 01/01 A2983 RMK AO2 SLP099 P0001 T00110006,M
LAS,2024-01-23 06:56,-115.1634,36.0719,663.00,51.00,46.00,82.93,110.00,3.00,0.01,29.80,1008.60,10.00,M,OVC,M,M,M,5000.00,M,M,M,M,M,M,M,M,M,M,51.00,KLAS 230656Z 11003KT 10SM OVC050 11/08 A2980 RMK AO2 RAE36 SLP086 P0001 T01060078,M
WMC,2024-01-23 06:56,-117.8072,40.9019,1315.00,39.00,37.00,92.45,280.00,3.00,0.01,29.85,1010.30,10.00,M,FEW,BKN,OVC,M,1100.00,2100.00,2600.00,M,-RA,M,M,M,M,M,M,36.69,KWMC 230656Z AUTO 28003KT 10SM -RA FEW011 BKN021 OVC026 04/03 A2985 RMK AO2 SLP103 P0001 T00390028,M
NFL,2024-01-23 07:03,-118.7010,39.4166,1199.00,42.00,41.00,96.21,0.00,0.00,0.00,29.85,M,10.00,M,OVC,M,M,M,2600.00,M,M,M,M,M,M,M,M,M,M,42.00,KNFL 230703Z AUTO 00000KT 10SM OVC026 06/05 A2985 RMK AO2 T00560050,M
TPH,2024-01-23 07:04,-117.0904,38.0505,1654.00,34.00,33.00,96.08,360.00,3.00,T,29.83,M,10.00,M,OVC,M,M,M,3700.00,M,M,M,-RA,M,M,M,M,M,M,30.97,KTPH 230704Z AUTO 36003KT 10SM -RA OVC037 01/01 A2983 RMK AO2 P0000 T00110006,M
LSV,2024-01-23 07:05,-115.0343,36.2362,570.00,51.80,48.20,87.47,0.00,0.00,0.00,29.78,1007.90,10.00,M,BKN,BKN,M,M,4200.00,5000.00,M,M,M,M,M,M,M,M,M,51.80,KLSV 230705Z AUTO 00000KT 10SM BKN042 BKN050 11/09 A2978 RMK AO2 SLP079 $,M
DRA,2024-01-23 07:10,-116.0278,36.6206,1009.00,45.00,43.00,92.65,30.00,9.00,0.01,29.79,M,10.00,M,BKN,BKN,OVC,M,1700.00,3100.00,4000.00,M,-RA,M,M,M,M,M,M,39.68,KDRA 230710Z AUTO 03009KT 10SM -RA BKN017 BKN031 OVC040 07/06 A2979 RMK AO2 P0001 T00720061,M
05U,2024-01-23 07:10,-116.0051,39.6042,1811.23,33.80,33.80,100.00,0.00,0.00,0.00,29.84,M,0.50,M,M,M,M,M,M,M,M,M,BR,M,M,M,M,M,M,33.80,K05U 230710Z AUTO 00000KT 1/2SM BR 01/01 A2984 RMK A01,M
WMC,2024-01-23 07:12,-117.8072,40.9019,1315.00,39.00,37.00,92.45,280.00,4.00,T,29.85,M,10.00,M,BKN,OVC,M,M,1100.00,2100.00,M,M,-RA,M,M,M,M,M,M,35.59,KWMC 230712Z AUTO 28004KT 10SM -RA BKN011 OVC021 04/03 A2985 RMK AO2 P0000 T00390028,M
BVU,2024-01-23 07:15,-114.8611,35.9475,671.00,50.00,46.40,87.37,120.00,3.00,0.00,29.81,M,10.00,M,OVC,M,M,M,3000.00,M,M,M,M,M,M,M,M,M,M,50.00,KBVU 230715Z AUTO 12003KT 10SM OVC030 10/08 A2981 RMK AO2,M
CXP,2024-01-23 07:15,-119.7326,39.1923,1431.00,37.40,35.60,93.14,0.00,0.00,0.00,29.89,M,10.00,M,BKN,M,M,M,5000.00,M,M,M,M,M,M,M,M,M,M,37.40,KCXP 230715Z AUTO 00000KT 10SM BKN050 03/02 A2989 RMK AO2,M
INS,2024-01-23 07:15,-115.6733,36.5872,955.00,46.40,44.60,93.40,100.00,10.00,0.00,29.79,1007.20,10.00,M,SCT,OVC,M,M,1800.00,4200.00,M,M,M,M,M,M,M,M,M,41.03,KINS 230715Z AUTO 10010KT 10SM SCT018 OVC042 08/07 A2979 RMK AO2 SLP072,M
RTS,2024-01-23 07:15,-119.8764,39.6682,1539.00,39.20,35.60,86.79,290.00,7.00,0.00,29.88,M,10.00,M,SCT,OVC,M,M,2600.00,3400.00,M,M,M,M,M,M,M,M,M,33.56,KRTS 230715Z AUTO 29007KT 10SM SCT026 OVC034 04/02 A2988 RMK AO2,M
MEV,2024-01-23 07:15,-119.7500,38.9963,1441.42,35.60,35.60,100.00,0.00,0.00,0.00,29.87,M,10.00,M,OVC,M,M,M,4200.00,M,M,M,M,M,M,M,M,M,M,35.60,KMEV 230715Z AUTO 00000KT 10SM OVC042 02/02 A2987 RMK AO2,M
BAM,2024-01-23 07:15,-116.8743,40.5990,1382.36,39.20,37.40,93.19,30.00,4.00,0.00,29.84,M,3.00,M,OVC,M,M,M,1000.00,M,M,M,M,M,M,M,M,M,M,35.83,KBAM 230715Z AUTO 03004KT 3SM OVC010 04/03 A2984 RMK AO1,M
HTH,2024-01-23 07:15,-118.6315,38.5448,1282.89,42.80,42.80,100.00,320.00,3.00,0.00,29.87,M,9.00,M,BKN,OVC,M,M,2300.00,2900.00,M,M,M,M,M,M,M,M,M,41.03,KHTH 230715Z AUTO 32003KT 9SM BKN023 OVC029 06/06 A2987 RMK A01,M
10U,2024-01-23 07:15,-116.1876,41.9532,1637.00,32.00,32.00,100.00,0.00,0.00,0.00,29.84,M,9.00,M,BKN,OVC,M,M,6000.00,7000.00,M,M,M,M,M,M,M,M,M,32.00,K10U 230715Z AUTO 00000KT 9SM BKN060 OVC070 00/M00 A2984 RMK AO2,M
TMT,2024-01-23 07:15,-117.1971,39.4643,1749.34,32.00,32.00,100.00,0.00,0.00,0.00,29.85,M,5.00,M,BKN,OVC,M,M,800.00,1200.00,M,M,-SN,M,M,M,M,M,M,32.00,KTMT 230715Z AUTO 00000KT 5SM -SN BKN008 OVC012 00/00 A2985 RMK AO2 T00010001,M
LSV,2024-01-23 07:25,-115.0343,36.2362,570.00,51.80,48.20,87.47,110.00,3.00,0.00,29.78,1007.90,10.00,M,SCT,OVC,M,M,4100.00,5000.00,M,M,M,M,M,M,M,M,M,51.80,KLSV 230725Z AUTO 11003KT 10SM SCT041 OVC050 11/09 A2978 RMK AO2 SLP079 $,M
WMC,2024-01-23 07:32,-117.8072,40.9019,1315.00,39.00,37.00,92.45,0.00,0.00,0.01,29.85,M,10.00,M,SCT,OVC,M,M,1100.00,2100.00,M,M,-RA,M,M,M,M,M,M,39.00,KWMC 230732Z AUTO 00000KT 10SM -RA SCT011 OVC021 04/03 A2985 RMK AO2 P0001 T00390028,M
NFL,2024-01-23 07:34,-118.7010,39.4166,1199.00,42.00,40.00,92.55,270.00,4.00,0.00,29.85,M,10.00,M,SCT,SCT,OVC,M,2600.00,3400.00,7000.00,M,M,M,M,M,M,M,M,39.10,KNFL 230734Z AUTO 27004KT 10SM SCT026 SCT034 OVC070 06/04 A2985 RMK AO2 T00560044,M
BVU,2024-01-23 07:35,-114.8611,35.9475,671.00,50.00,46.40,87.37,80.00,3.00,0.00,29.81,M,6.00,M,OVC,M,M,M,2900.00,M,M,M,BR,M,M,M,M,M,M,50.00,KBVU 230735Z AUTO 08003KT 6SM BR OVC029 10/08 A2981 RMK AO2,M
CXP,2024-01-23 07:35,-119.7326,39.1923,1431.00,35.60,35.60,100.00,0.00,0.00,0.00,29.88,M,10.00,M,OVC,M,M,M,4900.00,M,M,M,M,M,M,M,M,M,M,35.60,KCXP 230735Z AUTO 00000KT 10SM OVC049 02/02 A2988 RMK AO2,M
RTS,2024-01-23 07:35,-119.8764,39.6682,1539.00,39.20,35.60,86.79,270.00,5.00,0.00,29.88,M,10.00,M,FEW,SCT,BKN,M,1900.00,2300.00,2800.00,M,M,M,M,M,M,M,M,34.95,KRTS 230735Z AUTO 27005KT 10SM FEW019 SCT023 BKN028 04/02 A2988 RMK AO2,M
05U,2024-01-23 07:35,-116.0051,39.6042,1811.23,33.80,33.80,100.00,150.00,3.00,0.00,29.84,M,1.50,M,M,M,M,M,M,M,M,M,BR,M,M,M,M,M,M,30.75,K05U 230735Z AUTO 15003KT 1 1/2SM BR 01/01 A2984 RMK A01,M
MEV,2024-01-23 07:35,-119.7500,38.9963,1441.42,35.60,35.60,100.00,0.00,0.00,0.00,29.87,M,10.00,M,BKN,OVC,M,M,4000.00,4600.00,M,M,M,M,M,M,M,M,M,35.60,KMEV 230735Z AUTO 00000KT 10SM BKN040 OVC046 02/02 A2987 RMK AO2,M
BAM,2024-01-23 07:35,-116.8743,40.5990,1382.36,39.20,37.40,93.19,350.00,4.00,0.00,29.84,M,7.00,M,OVC,M,M,M,1000.00,M,M,M,M,M,M,M,M,M,M,35.83,KBAM 230735Z AUTO 35004KT 7SM OVC010 04/03 A2984 RMK AO1,M
HTH,2024-01-23 07:35,-118.6315,38.5448,1282.89,41.00,41.00,100.00,0.00,0.00,0.00,29.87,M,10.00,M,FEW,SCT,BKN,M,2300.00,3100.00,4000.00,M,M,M,M,M,M,M,M,41.00,KHTH 230735Z AUTO 00000KT 10SM FEW023 SCT031 BKN040 05/05 A2987 RMK A01,M
10U,2024-01-23 07:35,-116.1876,41.9532,1637.00,32.00,32.00,100.00,0.00,0.00,0.00,29.84,M,8.00,M,FEW,SCT,BKN,M,4200.00,4800.00,6000.00,M,M,M,M,M,M,M,M,32.00,K10U 230735Z AUTO 00000KT 8SM FEW042 SCT048 BKN060 00/00 A2984 RMK AO2,M
TMT,2024-01-23 07:35,-117.1971,39.4643,1749.34,32.00,32.00,100.00,0.00,0.00,0.01,29.85,M,5.00,M,OVC,M,M,M,800.00,M,M,M,-SN,M,M,M,M,M,M,32.00,KTMT 230735Z AUTO 00000KT 5SM -SN OVC008 00/00 A2985 RMK AO2 P0001 T00000000,M
DRA,2024-01-23 07:36,-116.0278,36.6206,1009.00,45.00,43.00,92.65,30.00,10.00,0.01,29.79,M,10.00,M,OVC,M,M,M,1300.00,M,M,M,M,M,M,M,M,M,M,39.27,KDRA 230736Z AUTO 03010KT 10SM OVC013 07/06 A2979 RMK AO2 RAE24 P0001 T00720061,M
INS,2024-01-23 07:40,-115.6733,36.5872,955.00,46.40,44.60,93.40,100.00,7.00,0.00,29.79,1007.20,10.00,M,BKN,OVC,M,M,1500.00,4300.00,M,M,M,M,M,M,M,M,M,42.33,KINS 230740Z AUTO 10007KT 10SM BKN015 OVC043 08/07 A2979 RMK AO2 BKN V FEW SLP072,M
ELY,2024-01-23 07:45,-114.8453,39.2950,1909.00,33.00,31.00,92.25,200.00,7.00,T,29.83,M,7.00,M,OVC,M,M,M,2600.00,M,M,M,-SN,M,M,M,M,M,M,26.00,KELY 230745Z AUTO 20007KT 7SM -SN OVC026 01/M01 A2983 RMK AO2 UPB15E38SNB38 P0000 T00061006,M
INS,2024-01-23 07:49,-115.6733,36.5872,955.00,46.40,44.60,93.40,110.00,7.00,0.00,29.79,1007.20,10.00,M,BKN,OVC,M,M,1500.00,4300.00,M,M,-DZ,M,M,M,M,M,M,42.33,KINS 230749Z AUTO 11007KT 10SM -DZ BKN015 OVC043 08/07 A2979 RMK AO2 DZB49 SLP072,M
LSV,2024-01-23 07:49,-115.0343,36.2362,570.00,51.80,46.40,81.74,50.00,3.00,0.00,29.78,1007.90,10.00,M,FEW,FEW,BKN,OVC,1400.00,2300.00,3800.00,5000.00,-RA,M,M,M,M,M,M,51.80,KLSV 230749Z 05003KT 10SM -RA FEW014 FEW023 BKN038 OVC050 11/08 A2978 RMK AO2A RAB49 SLP079 $,M
CXP,2024-01-23 07:50,-119.7326,39.1923,1431.00,35.60,35.60,100.00,0.00,0.00,0.00,29.89,M,10.00,M,FEW,OVC,M,M,3900.00,4800.00,M,M,M,M,M,M,M,M,M,35.60,KCXP 230750Z AUTO 00000KT 10SM FEW039 OVC048 02/02 A2989 RMK AO2,M
P68,2024-01-23 07:53,-116.0056,39.6014,1993.00,33.00,33.00,100.00,360.00,3.00,0.01,29.81,1007.80,M,M,M,M,M,M,M,M,M,M,M,M,M,M,M,M,M,29.83,KP68 230753Z AUTO 36003KT 01/01 A2981 RMK AO1 SLP078 P0001 T00060006 400440006,M
DRA,2024-01-23 07:53,-116.0278,36.6206,1009.00,45.00,43.00,92.65,30.00,7.00,0.01,29.79,1007.10,10.00,M,OVC,M,M,M,1300.00,M,M,M,M,M,M,M,M,M,M,40.63,KDRA 230753Z AUTO 03007KT 10SM OVC013 07/06 A2979 RMK AO2 RAE24 SLP071 P0001 T00720061 400940067,M
ELY,2024-01-23 07:53,-114.8453,39.2950,1909.00,33.00,31.00,92.25,200.00,6.00,0.01,29.83,1008.20,8.00,M,OVC,M,M,M,2800.00,M,M,M,-SN,M,M,M,M,M,M,26.73,KELY 230753Z AUTO 20006KT 8SM -SN OVC028 01/M01 A2983 RMK AO2 UPB15E38SNB38 SLP082 P0001 T00061006 400441028,M
VGT,2024-01-23 07:53,-115.1933,36.2111,667.00,51.00,47.00,86.12,110.00,4.00,T,29.80,1010.70,10.00,M,SCT,OVC,M,M,3800.00,5000.00,M,M,M,M,M,M,M,M,M,51.00,KVGT 230753Z AUTO 11004KT 10SM SCT038 OVC050 11/08 A2980 RMK AO2 RAE03 SLP107 P0000 T01060083 401220094,M
LOL,2024-01-23 07:53,-118.5701,40.0684,1192.43,34.00,34.00,100.00,0.00,0.00,0.00,29.85,1011.60,6.00,M,OVC,M,M,M,8000.00,M,M,M,BR,M,M,M,M,M,M,34.00,KLOL 230753Z AUTO 00000KT 6SM BR OVC080 01/01 A2985 RMK AO2 SLP116 T00110011 400720011,M
10U,2024-01-23 07:55,-116.1876,41.9532,1637.00,32.00,32.00,100.00,0.00,0.00,0.00,29.84,M,6.00,M,BKN,BKN,BKN,M,200.00,2700.00,3500.00,M,-DZ,M,M,M,M,M,M,32.00,K10U 230755Z AUTO 00000KT 6SM -DZ BKN002 BKN027 BKN035 00/M00 A2984 RMK AO2,M
LSV,2024-01-23 07:55,-115.0343,36.2362,570.00,51.80,47.70,85.84,0.00,0.00,T,29.78,1007.90,10.00,M,FEW,FEW,BKN,BKN,1400.00,2300.00,3800.00,5000.00,-RA,M,M,M,M,M,M,51.80,KLSV 230755Z 00000KT 10SM -RA FEW014 FEW023 BKN038 BKN050 11/09 A2978 RMK AO2A RAB49 SLP079 P0000 T01100087 401240102 $,M
BVU,2024-01-23 07:55,-114.8611,35.9475,671.00,50.00,46.40,87.37,90.00,4.00,0.00,29.81,M,7.00,M,BKN,OVC,M,M,2900.00,4300.00,M,M,M,M,M,M,M,M,M,50.00,KBVU 230755Z AUTO 09004KT 7SM BKN029 OVC043 10/08 A2981 RMK AO2,M
INS,2024-01-23 07:55,-115.6733,36.5872,955.00,46.80,44.20,90.61,100.00,7.00,T,29.79,1007.20,10.00,M,OVC,M,M,M,1600.00,M,M,M,-DZ,M,M,M,M,M,M,42.82,KINS 230755Z AUTO 10007KT 10SM -DZ OVC016 08/07 A2979 RMK AO2 DZB49 SLP072 P0000 T00820068 401020058,M
RNO,2024-01-23 07:55,-119.7711,39.4839,1341.00,42.00,39.00,89.01,110.00,3.00,T,29.87,1010.10,10.00,M,SCT,BKN,BKN,M,3400.00,4500.00,6000.00,M,M,M,M,M,M,M,M,40.12,KRNO 230755Z 11003KT 10SM SCT034 BKN045 BKN060 06/04 A2987 RMK AO2 RAE06B40E49 SLP101 P0000 T00560039 400890056,M
RTS,2024-01-23 07:55,-119.8764,39.6682,1539.00,37.40,35.60,93.14,230.00,3.00,0.00,29.88,M,10.00,M,FEW,BKN,OVC,M,2900.00,3600.00,4100.00,M,M,M,M,M,M,M,M,34.86,KRTS 230755Z AUTO 23003KT 10SM FEW029 BKN036 OVC041 03/02 A2988 RMK AO2,M
05U,2024-01-23 07:55,-116.0051,39.6042,1811.23,33.80,33.80,100.00,0.00,0.00,0.00,29.84,M,1.75,M,M,M,M,M,M,M,M,M,BR,M,M,M,M,M,M,33.80,K05U 230755Z AUTO 00000KT 1 3/4SM BR 01/01 A2984 RMK A01,M
MEV,2024-01-23 07:55,-119.7500,38.9963,1441.42,35.60,35.60,100.00,0.00,0.00,0.00,29.87,M,10.00,M,FEW,OVC,M,M,600.00,4400.00,M,M,M,M,M,M,M,M,M,35.60,KMEV 230755Z AUTO 00000KT 10SM FEW006 OVC044 02/02 A2987 RMK AO2,M
BAM,2024-01-23 07:55,-116.8743,40.5990,1382.36,39.20,37.40,93.19,340.00,4.00,0.00,29.84,M,10.00,M,OVC,M,M,M,1000.00,M,M,M,M,M,M,M,M,M,M,35.83,KBAM 230755Z AUTO 34004KT 10SM OVC010 04/03 A2984 RMK AO1,M
HTH,2024-01-23 07:55,-118.6315,38.5448,1282.89,41.00,41.00,100.00,0.00,0.00,0.00,29.87,M,10.00,M,BKN,OVC,M,M,3300.00,4000.00,M,M,M,M,M,M,M,M,M,41.00,KHTH 230755Z AUTO 00000KT 10SM BKN033 OVC040 05/05 A2987 RMK A01,M
TMT,2024-01-23 07:55,-117.1971,39.4643,1749.34,32.00,32.00,100.00,0.00,0.00,0.01,29.85,M,5.00,M,OVC,M,M,M,800.00,M,M,M,-SN,M,M,M,M,M,M,32.00,KTMT 230755Z AUTO 00000KT 5SM -SN OVC008 00/00 A2985 RMK AO2 P0001 T00000000 400411010,M
EKO,2024-01-23 07:56,-115.7860,40.8242,1367.00,35.00,33.00,92.32,70.00,4.00,0.01,29.82,1010.50,10.00,M,OVC,M,M,M,1600.00,M,M,M,UP,M,M,M,M,M,M,30.92,KEKO 230756Z AUTO 07004KT 10SM UP OVC016 02/01 A2982 RMK AO2 RAE53UPB53 SLP105 P0001 T00170006 400441006,M
NFL,2024-01-23 07:56,-118.7010,39.4166,1199.00,42.00,40.00,92.55,0.00,0.00,0.00,29.85,1008.50,10.00,M,OVC,M,M,M,7000.00,M,M,M,M,M,M,M,M,M,M,42.00,KNFL 230756Z AUTO 00000KT 10SM OVC070 06/04 A2985 RMK AO2 SLP085 T00560044 400940050,M
HND,2024-01-23 07:56,-115.1344,35.9729,742.79,49.00,45.00,86.00,180.00,7.00,0.00,29.82,1011.10,10.00,M,SCT,OVC,M,M,3300.00,4400.00,M,M,M,M,M,M,M,M,M,45.50,KHND 230756Z AUTO 18007KT 10SM SCT033 OVC044 09/07 A2982 RMK AO2 SLP111 T00940072,M
TPH,2024-01-23 07:56,-117.0904,38.0505,1654.00,34.00,33.00,96.08,340.00,4.00,0.01,29.83,1009.60,10.00,M,OVC,M,M,M,3300.00,M,M,M,-RA,M,M,M,M,M,M,29.76,KTPH 230756Z AUTO 34004KT 10SM -RA OVC033 01/01 A2983 RMK AO2 SLP096 P0001 T00110006 400440006,M
LAS,2024-01-23 07:56,-115.1634,36.0719,663.00,52.00,46.00,79.92,M,3.00,0.00,29.80,1008.60,10.00,M,FEW,OVC,M,M,3500.00,4100.00,M,M,M,M,M,M,M,M,M,52.00,KLAS 230756Z VRB03KT 10SM FEW035 OVC041 11/08 A2980 RMK AO2 SLP086 MTNS OBSCURED DSNT S-W-N T01110078 401220094,M
WMC,2024-01-23 07:56,-117.8072,40.9019,1315.00,40.00,37.00,88.92,0.00,0.00,0.01,29.85,1010.10,10.00,M,OVC,M,M,M,1700.00,M,M,M,-RA,M,M,M,M,M,M,40.00,KWMC 230756Z AUTO 00000KT 10SM -RA OVC017 04/03 A2985 RMK AO2 SLP101 P0001 T00440028 400780039,M
INS,2024-01-23 07:59,-115.6733,36.5872,955.00,46.40,44.60,93.40,100.00,7.00,0.00,29.79,1007.20,10.00,M,OVC,M,M,M,1600.00,M,M,M,M,M,M,M,M,M,M,42.33,KINS 230759Z AUTO 10007KT 10SM OVC016 08/07 A2979 RMK AO2 DZE57RAB57E59 SLP072,M
ELY,2024-01-23 08:03,-114.8453,39.2950,1909.00,33.00,31.00,92.25,200.00,6.00,T,29.83,M,10.00,M,OVC,M,M,M,3200.00,M,M,M,UP,M,M,M,M,M,M,26.73,KELY 230803Z AUTO 20006KT 10SM UP OVC032 01/M01 A2983 RMK AO2 UPB0754SNE0754 P0000 T00061006,M
LSV,2024-01-23 08:05,-115.0343,36.2362,570.00,51.80,48.20,87.47,0.00,0.00,0.00,29.78,1007.90,10.00,M,SCT,SCT,M,M,3800.00,4700.00,M,M,-RA,M,M,M,M,M,M,51.80,KLSV 230805Z AUTO 00000KT 10SM -RA SCT038 SCT047 11/09 A2978 RMK AO2 SLP079 $,M
DRA,2024-01-23 08:11,-116.0278,36.6206,1009.00,45.00,43.00,92.65,30.00,8.00,0.00,29.79,M,10.00,M,OVC,M,M,M,1600.00,M,M,M,M,M,M,M,M,M,M,40.13,KDRA 230811Z AUTO 03008KT 10SM OVC016 07/06 A2979 RMK AO2 T00720061,M
BVU,2024-01-23 08:15,-114.8611,35.9475,671.00,50.00,48.20,93.50,60.00,5.00,0.00,29.80,M,10.00,M,FEW,BKN,OVC,M,3300.00,4200.00,4900.00,M,-RA,M,M,M,M,M,M,50.00,KBVU 230815Z AUTO 06005KT 10SM -RA FEW033 BKN042 OVC049 10/09 A2980 RMK AO2,M
CXP,2024-01-23 08:15,-119.7326,39.1923,1431.00,35.60,35.60,100.00,0.00,0.00,0.00,29.89,M,10.00,M,BKN,OVC,M,M,3900.00,4900.00,M,M,M,M,M,M,M,M,M,35.60,KCXP 230815Z AUTO 00000KT 10SM BKN039 OVC049 02/02 A2989 RMK AO2,M
RTS,2024-01-23 08:15,-119.8764,39.6682,1539.00,39.20,35.60,86.79,270.00,5.00,0.00,29.89,M,10.00,M,OVC,M,M,M,4200.00,M,M,M,M,M,M,M,M,M,M,34.95,KRTS 230815Z AUTO 27005KT 10SM OVC042 04/02 A2989 RMK AO2,M
05U,2024-01-23 08:15,-116.0051,39.6042,1811.23,33.80,32.00,93.03,0.00,0.00,0.00,29.84,M,0.75,M,M,M,M,M,M,M,M,M,BR,M,M,M,M,M,M,33.80,K05U 230815Z AUTO 00000KT 3/4SM BR 01/00 A2984 RMK A01,M
MEV,2024-01-23 08:15,-119.7500,38.9963,1441.42,35.60,35.60,100.00,0.00,0.00,0.00,29.88,M,10.00,M,FEW,OVC,M,M,600.00,4300.00,M,M,M,M,M,M,M,M,M,35.60,KMEV 230815Z AUTO 00000KT 10SM FEW006 OVC043 02/02 A2988 RMK AO2,M
BAM,2024-01-23 08:15,-116.8743,40.5990,1382.36,39.20,37.40,93.19,340.00,3.00,0.00,29.84,M,10.00,M,OVC,M,M,M,1000.00,M,M,M,M,M,M,M,M,M,M,36.92,KBAM 230815Z AUTO 34003KT 10SM OVC010 04/03 A2984 RMK AO1,M
HTH,2024-01-23 08:15,-118.6315,38.5448,1282.89,41.00,41.00,100.00,0.00,0.00,0.00,29.87,M,10.00,M,BKN,OVC,M,M,3300.00,4000.00,M,M,M,M,M,M,M,M,M,41.00,KHTH 230815Z AUTO 00000KT 10SM BKN033 OVC040 05/05 A2987 RMK A01,M
TMT,2024-01-23 08:15,-117.1971,39.4643,1749.34,32.00,32.00,100.00,0.00,0.00,0.00,29.85,M,10.00,M,OVC,M,M,M,800.00,M,M,M,-SN,M,M,M,M,M,M,32.00,KTMT 230815Z AUTO 00000KT 10SM -SN OVC008 00/00 A2985 RMK AO2 T00000000,M
TPH,2024-01-23 08:18,-117.0904,38.0505,1654.00,33.00,32.00,96.06,330.00,4.00,T,29.83,M,10.00,M,SCT,BKN,OVC,M,1900.00,2500.00,3200.00,M,M,M,M,M,M,M,M,28.59,KTPH 230818Z AUTO 33004KT 10SM SCT019 BKN025 OVC032 01/00 A2983 RMK AO2 RAE17 P0000 T00060000,M
INS,2024-01-23 08:19,-115.6733,36.5872,955.00,46.40,44.60,93.40,100.00,10.00,0.00,29.79,1007.20,10.00,M,BKN,OVC,M,M,700.00,1700.00,M,M,M,M,M,M,M,M,M,41.03,KINS 230819Z AUTO 10010KT 10SM BKN007 OVC017 08/07 A2979 RMK AO2 DZE0757RAB0757E0759 BKN V SCT SLP072,M
INS,2024-01-23 08:26,-115.6733,36.5872,955.00,46.40,44.60,93.40,100.00,9.00,0.00,29.79,1007.20,10.00,M,BKN,OVC,M,M,700.00,1900.00,M,M,-RA,M,M,M,M,M,M,41.42,KINS 230826Z AUTO 10009KT 10SM -RA BKN007 OVC019 08/07 A2979 RMK AO2 DZE0757RAB0757E0759RAB26 SLP072,M
MEV,2024-01-23 08:30,-119.7500,38.9963,1441.42,33.80,33.80,100.00,0.00,0.00,0.00,29.87,M,10.00,M,FEW,BKN,OVC,M,700.00,4200.00,4900.00,M,M,M,M,M,M,M,M,33.80,KMEV 230830Z AUTO 00000KT 10SM FEW007 BKN042 OVC049 01/01 A2987 RMK AO2,M
HTH,2024-01-23 08:30,-118.6315,38.5448,1282.89,41.00,41.00,100.00,0.00,0.00,0.00,29.87,M,10.00,M,BKN,OVC,M,M,3400.00,7000.00,M,M,M,M,M,M,M,M,M,41.00,KHTH 230830Z AUTO 00000KT 10SM BKN034 OVC070 05/05 A2987 RMK A01,M
INS,2024-01-23 08:34,-115.6733,36.5872,955.00,46.40,44.60,93.40,100.00,10.00,0.00,29.80,1007.60,10.00,M,OVC,M,M,M,600.00,M,M,M,M,M,M,M,M,M,M,41.03,KINS 230834Z AUTO 10010KT 10SM OVC006 08/07 A2980 RMK AO2 DZE0757RAB0757E0759RAB26E34 SLP076,M
BVU,2024-01-23 08:35,-114.8611,35.9475,671.00,50.00,48.20,93.50,50.00,5.00,0.00,29.80,M,10.00,M,OVC,M,M,M,3600.00,M,M,M,M,M,M,M,M,M,M,50.00,KBVU 230835Z AUTO 05005KT 10SM OVC036 10/09 A2980 RMK AO2,M
CXP,2024-01-23 08:35,-119.7326,39.1923,1431.00,35.60,33.80,93.08,0.00,0.00,0.00,29.89,M,9.00,M,BKN,M,M,M,4200.00,M,M,M,M,M,M,M,M,M,M,35.60,KCXP 230835Z AUTO 00000KT 9SM BKN042 02/01 A2989 RMK AO2,M
RTS,2024-01-23 08:35,-119.8764,39.6682,1539.00,39.20,35.60,86.79,0.00,0.00,0.00,29.88,M,10.00,M,OVC,M,M,M,4400.00,M,M,M,M,M,M,M,M,M,M,39.20,KRTS 230835Z AUTO 00000KT 10SM OVC044 04/02 A2988 RMK AO2,M
05U,2024-01-23 08:35,-116.0051,39.6042,1811.23,33.80,33.80,100.00,0.00,0.00,0.00,29.84,M,0.50,M,M,M,M,M,M,M,M,M,BR,M,M,M,M,M,M,33.80,K05U 230835Z AUTO 00000KT 1/2SM BR 01/01 A2984 RMK A01,M
BAM,2024-01-23 08:35,-116.8743,40.5990,1382.36,39.20,37.40,93.19,0.00,0.00,0.00,29.84,M,10.00,M,OVC,M,M,M,1200.00,M,M,M,M,M,M,M,M,M,M,39.20,KBAM 230835Z AUTO 00000KT 10SM OVC012 04/03 A2984 RMK AO1,M
10U,2024-01-23 08:35,-116.1876,41.9532,1637.00,32.00,32.00,100.00,0.00,0.00,0.00,29.84,M,0.50,M,OVC,M,M,M,200.00,M,M,M,FG,M,M,M,M,M,M,32.00,K10U 230835Z AUTO 00000KT 1/2SM FG OVC002 00/M00 A2984 RMK AO2,M
LSV,2024-01-23 08:35,-115.0343,36.2362,570.00,51.80,46.40,81.74,140.00,3.00,0.00,29.78,1007.90,10.00,M,FEW,FEW,M,M,3300.00,4600.00,M,M,M,M,M,M,M,M,M,51.80,KLSV 230835Z AUTO 14003KT 10SM FEW033 FEW046 11/08 A2978 RMK AO2 RAE35 SLP079 $,M
TMT,2024-01-23 08:35,-117.1971,39.4643,1749.34,32.00,32.00,100.00,0.00,0.00,0.00,29.85,M,10.00,M,OVC,M,M,M,600.00,M,M,M,-RA,M,M,M,M,M,M,32.00,KTMT 230835Z AUTO 00000KT 10SM -RA OVC006 00/00 A2985 RMK AO2 T00000000,M
ELY,2024-01-23 08:48,-114.8453,39.2950,1909.00,33.80,30.20,86.49,110.00,5.00,T,29.83,M,7.00,M,SCT,OVC,M,M,700.00,4200.00,M,M,-SN,M,M,M,M,M,M,28.53,KELY 230848Z AUTO 11005KT 7SM -SN SCT007 OVC042 01/M01 A2983 RMK AO2 UPB0754E11SNE0754B40 P0000,M
P68,2024-01-23 08:53,-116.0056,39.6014,1993.00,32.00,32.00,100.00,0.00,0.00,0.00,29.81,1008.50,M,M,M,M,M,M,M,M,M,M,M,M,M,M,M,M,M,32.00,KP68 230853Z AUTO 00000KT 00/00 A2981 RMK AO1 SLP085 60001 T00000000 51000,M
DRA,2024-01-23 08:53,-116.0278,36.6206,1009.00,45.00,43.00,92.65,0.00,0.00,0.00,29.79,1007.30,10.00,M,OVC,M,M,M,1800.00,M,M,M,M,M,M,M,M,M,M,45.00,KDRA 230853Z AUTO 00000KT 10SM OVC018 07/06 A2979 RMK AO2 SLP073 60002 T00720061 53001,M
ELY,2024-01-23 08:53,-114.8453,39.2950,1909.00,33.00,31.00,92.25,100.00,4.00,T,29.83,1008.50,6.00,M,BKN,OVC,M,M,700.00,4200.00,M,M,-SN BR,M,M,M,M,M,M,28.59,KELY 230853Z AUTO 10004KT 6SM -SN BR BKN007 OVC042 01/M01 A2983 RMK AO2 UPB0754E11SNE0754B40 SLP085 P0000 60001 T00061006 55001,M
VGT,2024-01-23 08:53,-115.1933,36.2111,667.00,50.00,47.00,89.37,90.00,4.00,T,29.80,1010.60,10.00,M,SCT,OVC,M,M,2000.00,4500.00,M,M,M,M,M,M,M,M,M,50.00,KVGT 230853Z AUTO 09004KT 10SM SCT020 OVC045 10/08 A2980 RMK AO2 RAB18E38 SLP106 P0000 60000 T01000083 50002,M
LOL,2024-01-23 08:53,-118.5701,40.0684,1192.43,35.00,35.00,100.00,0.00,0.00,0.00,29.86,1011.50,10.00,M,FEW,OVC,M,M,100.00,8500.00,M,M,M,M,M,M,M,M,M,35.00,KLOL 230853Z AUTO 00000KT 10SM FEW001 OVC085 02/02 A2986 RMK AO2 SLP115 T00170017 51006,M
BVU,2024-01-23 08:55,-114.8611,35.9475,671.00,50.00,48.20,93.50,60.00,5.00,0.00,29.80,M,10.00,M,OVC,M,M,M,3400.00,M,M,M,M,M,M,M,M,M,M,50.00,KBVU 230855Z AUTO 06005KT 10SM OVC034 10/09 A2980 RMK AO2,M
CXP,2024-01-23 08:55,-119.7326,39.1923,1431.00,33.80,33.80,100.00,0.00,0.00,0.00,29.89,M,1.00,M,SCT,M,M,M,4200.00,M,M,M,BR,M,M,M,M,M,M,33.80,KCXP 230855Z AUTO 00000KT 1SM BR SCT042 01/01 A2989 RMK AO2,M
RNO,2024-01-23 08:55,-119.7711,39.4839,1341.00,41.00,38.00,88.97,180.00,6.00,0.00,29.88,1010.50,10.00,M,SCT,BKN,M,M,3500.00,5500.00,M,M,M,M,M,M,M,M,M,36.37,KRNO 230855Z 18006KT 10SM SCT035 BKN055 05/03 A2988 RMK AO2 SLP105 60000 T00500033 51007,M
RTS,2024-01-23 08:55,-119.8764,39.6682,1539.00,37.40,35.60,93.14,270.00,6.00,0.00,29.88,M,10.00,M,OVC,M,M,M,4200.00,M,M,M,M,M,M,M,M,M,M,32.03,KRTS 230855Z AUTO 27006KT 10SM OVC042 03/02 A2988 RMK AO2,M
05U,2024-01-23 08:55,-116.0051,39.6042,1811.23,33.80,33.80,100.00,0.00,0.00,0.00,29.84,M,0.50,M,M,M,M,M,M,M,M,M,FG,M,M,M,M,M,M,33.80,K05U 230855Z AUTO 00000KT 1/2SM FG 01/01 A2984 RMK A01,M
MEV,2024-01-23 08:55,-119.7500,38.9963,1441.42,32.00,32.00,100.00,90.00,5.00,0.00,29.87,M,10.00,M,FEW,BKN,OVC,M,2500.00,3700.00,4300.00,M,UP,M,M,M,M,M,M,26.40,KMEV 230855Z AUTO 09005KT 10SM UP FEW025 BKN037 OVC043 00/M00 A2987 RMK AO2,M
BAM,2024-01-23 08:55,-116.8743,40.5990,1382.36,39.20,37.40,93.19,330.00,5.00,0.00,29.84,M,10.00,M,OVC,M,M,M,1400.00,M,M,M,M,M,M,M,M,M,M,34.95,KBAM 230855Z AUTO 33005KT 10SM OVC014 04/03 A2984 RMK AO1,M
HTH,2024-01-23 08:55,-118.6315,38.5448,1282.89,41.00,41.00,100.00,0.00,0.00,0.00,29.87,M,10.00,M,OVC,M,M,M,3700.00,M,M,M,M,M,M,M,M,M,M,41.00,KHTH 230855Z AUTO 00000KT 10SM OVC037 05/05 A2987 RMK A01,M
10U,2024-01-23 08:55,-116.1876,41.9532,1637.00,32.00,32.00,100.00,0.00,0.00,0.00,29.84,M,0.25,M,OVC,M,M,M,200.00,M,M,M,FG,M,M,M,M,M,M,32.00,K10U 230855Z AUTO 00000KT 1/4SM FG OVC002 00/M00 A2984 RMK AO2,M
INS,2024-01-23 08:55,-115.6733,36.5872,955.00,46.60,44.00,90.60,100.00,10.00,T,29.80,1007.60,10.00,M,OVC,M,M,M,600.00,M,M,M,M,M,M,M,M,M,M,41.28,KINS 230855Z AUTO 10010KT 10SM OVC006 08/07 A2980 RMK AO2 DZE0757RAB0757E0759RAB26E34 SLP076 P0000 60001 T00810067 50002,M
LSV,2024-01-23 08:55,-115.0343,36.2362,570.00,51.60,47.30,85.19,0.00,0.00,0.01,29.78,1007.90,10.00,M,FEW,M,M,M,2100.00,M,M,M,M,M,M,M,M,M,M,51.60,KLSV 230855Z AUTO 00000KT 10SM FEW021 11/09 A2978 RMK AO2 RAE35 SLP079 P0001 60001 T01090085 51002 $,M
TMT,2024-01-23 08:55,-117.1971,39.4643,1749.34,32.00,32.00,100.00,0.00,0.00,0.00,29.85,M,10.00,M,OVC,M,M,M,400.00,M,M,M,-RA,M,M,M,M,M,M,32.00,KTMT 230855Z AUTO 00000KT 10SM -RA OVC004 00/00 A2985 RMK AO2 60001 T00000000,M
EKO,2024-01-23 08:56,-115.7860,40.8242,1367.00,35.00,33.00,92.32,60.00,5.00,0.02,29.82,1010.30,9.00,M,OVC,M,M,M,1600.00,M,M,M,-RA,M,M,M,M,M,M,29.96,KEKO 230856Z AUTO 06005KT 9SM -RA OVC016 02/01 A2982 RMK AO2 UPE14RAB14 SLP103 P0002 60004 T00170006 50000,M
NFL,2024-01-23 08:56,-118.7010,39.4166,1199.00,40.00,39.00,96.18,0.00,0.00,0.00,29.86,1008.60,5.00,M,SCT,BKN,OVC,M,2500.00,4500.00,7000.00,M,BR,M,M,M,M,M,M,40.00,KNFL 230856Z AUTO 00000KT 5SM BR SCT025 BKN045 OVC070 04/04 A2986 RMK AO2 SLP086 T00440039 51005,M
HND,2024-01-23 08:56,-115.1344,35.9729,742.79,49.00,45.00,86.00,150.00,4.00,0.00,29.81,1011.10,10.00,M,OVC,M,M,M,3800.00,M,M,M,M,M,M,M,M,M,M,47.27,KHND 230856Z AUTO 15004KT 10SM OVC038 09/07 A2981 RMK AO2 SLP111 T00940072 50000,M
TPH,2024-01-23 08:56,-117.0904,38.0505,1654.00,34.00,33.00,96.08,0.00,0.00,T,29.83,1010.10,10.00,M,SCT,OVC,M,M,1700.00,2500.00,M,M,M,M,M,M,M,M,M,34.00,KTPH 230856Z AUTO 00000KT 10SM SCT017 OVC025 01/01 A2983 RMK AO2 RAE17 SLP101 P0000 60002 T00110006 51002,M
LAS,2024-01-23 08:56,-115.1634,36.0719,663.00,50.00,47.00,89.37,60.00,7.00,0.00,29.80,1008.60,10.00,M,FEW,OVC,M,M,3700.00,4600.00,M,M,M,M,M,M,M,M,M,50.00,KLAS 230856Z 06007KT 10SM FEW037 OVC046 10/08 A2980 RMK AO2 SLP086 TOPS OF MTNS OBSCURED DSNT S-W-NW 60001 T01000083 50001,M
WMC,2024-01-23 08:56,-117.8072,40.9019,1315.00,40.00,37.00,88.92,0.00,0.00,T,29.85,1010.10,10.00,M,OVC,M,M,M,1600.00,M,M,M,-RA,M,M,M,M,M,M,40.00,KWMC 230856Z AUTO 00000KT 10SM -RA OVC016 04/03 A2985 RMK AO2 SLP101 P0000 60002 T00440028 53000,M
INS,2024-01-23 08:57,-115.6733,36.5872,955.00,46.40,44.60,93.40,100.00,11.00,0.00,29.80,1007.60,10.00,M,OVC,M,M,M,500.00,M,M,M,-DZ,M,M,M,M,M,M,40.66,KINS 230857Z AUTO 10011KT 10SM -DZ OVC005 08/07 A2980 RMK AO2 DZB57 SLP076,M
INS,2024-01-23 09:07,-115.6733,36.5872,955.00,46.40,44.60,93.40,100.00,10.00,0.00,29.80,1007.60,8.00,M,OVC,M,M,M,500.00,M,M,M,M,M,M,M,M,M,M,41.03,KINS 230907Z AUTO 10010KT 8SM OVC005 08/07 A2980 RMK AO2 DZB0857E07 SLP076,M
LOL,2024-01-23 09:08,-118.5701,40.0684,1192.43,34.00,34.00,100.00,0.00,0.00,0.00,29.86,M,10.00,M,BKN,OVC,M,M,100.00,8500.00,M,M,M,M,M,M,M,M,M,34.00,KLOL 230908Z AUTO 00000KT 10SM BKN001 OVC085 01/01 A2986 RMK AO2 T00110011,M
WMC,2024-01-23 09:09,-117.8072,40.9019,1315.00,40.00,37.00,88.92,0.00,0.00,T,29.85,M,10.00,M,OVC,M,M,M,1400.00,M,M,M,M,M,M,M,M,M,M,40.00,KWMC 230909Z AUTO 00000KT 10SM OVC014 04/03 A2985 RMK AO2 RAE09 P0000 T00440028,M
INS,2024-01-23 09:11,-115.6733,36.5872,955.00,46.40,44.60,93.40,100.00,10.00,0.00,29.80,1007.60,7.00,M,OVC,M,M,M,500.00,M,M,M,-DZ BR,M,M,M,M,M,M,41.03,KINS 230911Z AUTO 10010KT 7SM -DZ BR OVC005 08/07 A2980 RMK AO2 DZB0857E07DZB11 SLP076,M
BVU,2024-01-23 09:15,-114.8611,35.9475,671.00,50.00,48.20,93.50,70.00,6.00,0.00,29.81,M,9.00,M,OVC,M,M,M,2900.00,M,M,M,M,M,M,M,M,M,M,50.00,KBVU 230915Z AUTO 07006KT 9SM OVC029 10/09 A2981 RMK AO2,M
CXP,2024-01-23 09:15,-119.7326,39.1923,1431.00,33.80,33.80,100.00,0.00,0.00,0.00,29.89,M,0.50,M,VV ,M,M,M,500.00,M,M,M,BR,M,M,M,M,M,M,33.80,KCXP 230915Z AUTO 00000KT 1/2SM BR VV005 01/01 A2989 RMK AO2,M
ELY,2024-01-23 09:15,-114.8453,39.2950,1909.00,33.00,31.00,92.25,90.00,3.00,T,29.83,M,7.00,M,SCT,BKN,OVC,M,700.00,5500.00,7000.00,M,-SN,M,M,M,M,M,M,29.83,KELY 230915Z AUTO 09003KT 7SM -SN SCT007 BKN055 OVC070 01/M01 A2983 RMK AO2 P0000 T00061006,M
RTS,2024-01-23 09:15,-119.8764,39.6682,1539.00,37.40,33.80,86.69,320.00,6.00,0.00,29.88,M,10.00,M,FEW,M,M,M,4200.00,M,M,M,M,M,M,M,M,M,M,32.03,KRTS 230915Z AUTO 32006KT 10SM FEW042 03/01 A2988 RMK AO2,M
05U,2024-01-23 09:15,-116.0051,39.6042,1811.23,33.80,33.80,100.00,0.00,0.00,0.00,29.84,M,0.25,M,M,M,M,M,M,M,M,M,FG,M,M,M,M,M,M,33.80,K05U 230915Z AUTO 00000KT 1/4SM FG 01/01 A2984 RMK A01,M
MEV,2024-01-23 09:15,-119.7500,38.9963,1441.42,30.20,30.20,100.00,0.00,0.00,0.00,29.88,M,10.00,M,FEW,FEW,OVC,M,800.00,2400.00,3900.00,M,M,M,M,M,M,M,M,30.20,KMEV 230915Z AUTO 00000KT 10SM FEW008 FEW024 OVC039 M01/M01 A2988 RMK AO2,M
HTH,2024-01-23 09:15,-118.6315,38.5448,1282.89,41.00,41.00,100.00,260.00,4.00,0.00,29.88,M,10.00,M,SCT,OVC,M,M,4000.00,4900.00,M,M,M,M,M,M,M,M,M,37.93,KHTH 230915Z AUTO 26004KT 10SM SCT040 OVC049 05/05 A2988 RMK A01,M
10U,2024-01-23 09:15,-116.1876,41.9532,1637.00,32.00,32.00,100.00,0.00,0.00,0.00,29.85,M,0.25,M,OVC,M,M,M,200.00,M,M,M,FG,M,M,M,M,M,M,32.00,K10U 230915Z AUTO 00000KT 1/4SM FG OVC002 00/M00 A2985 RMK AO2,M
TMT,2024-01-23 09:15,-117.1971,39.4643,1749.34,32.00,32.00,100.00,0.00,0.00,0.00,29.86,M,10.00,M,SCT,SCT,OVC,M,400.00,1000.00,3000.00,M,-RA,M,M,M,M,M,M,32.00,KTMT 230915Z AUTO 00000KT 10SM -RA SCT004 SCT010 OVC030 00/00 A2986 RMK AO2 T00000000,M
BAM,2024-01-23 09:20,-116.8743,40.5990,1382.36,39.20,37.40,93.19,360.00,3.00,0.00,29.84,M,7.00,M,BKN,OVC,M,M,800.00,1400.00,M,M,M,M,M,M,M,M,M,36.92,KBAM 230920Z AUTO 36003KT 7SM BKN008 OVC014 04/03 A2984 RMK AO1,M
LOL,2024-01-23 09:20,-118.5701,40.0684,1192.43,34.00,34.00,100.00,0.00,0.00,0.00,29.86,M,10.00,M,SCT,BKN,OVC,M,100.00,4500.00,8500.00,M,M,M,M,M,M,M,M,34.00,KLOL 230920Z AUTO 00000KT 10SM SCT001 BKN045 OVC085 01/01 A2986 RMK AO2 T00110011,M
VGT,2024-01-23 09:23,-115.1933,36.2111,667.00,50.00,48.00,92.80,50.00,3.00,0.00,29.80,M,10.00,M,FEW,OVC,M,M,800.00,4200.00,M,M,M,M,M,M,M,M,M,50.00,KVGT 230923Z AUTO 05003KT 10SM FEW008 OVC042 10/09 A2980 RMK AO2 T01000089,M
CXP,2024-01-23 09:30,-119.7326,39.1923,1431.00,33.80,33.80,100.00,0.00,0.00,0.00,29.90,M,4.00,M,CLR,M,M,M,M,M,M,M,BR,M,M,M,M,M,M,33.80,KCXP 230930Z AUTO 00000KT 4SM BR CLR 01/01 A2990 RMK AO2,M
NFL,2024-01-23 09:30,-118.7010,39.4166,1199.00,41.00,39.00,92.52,0.00,0.00,0.00,29.86,M,2.00,M,OVC,M,M,M,4600.00,M,M,M,BR,M,M,M,M,M,M,41.00,KNFL 230930Z AUTO 00000KT 2SM BR OVC046 05/04 A2986 RMK AO2 T00500039,M
05U,2024-01-23 09:30,-116.0051,39.6042,1811.23,33.80,33.80,100.00,0.00,0.00,0.00,29.84,M,0.25,M,M,M,M,M,M,M,M,M,FG,M,M,M,M,M,M,33.80,K05U 230930Z AUTO 00000KT 1/4SM FG 01/01 A2984 RMK A01,M
HTH,2024-01-23 09:30,-118.6315,38.5448,1282.89,41.00,41.00,100.00,250.00,5.00,0.00,29.88,M,10.00,M,SCT,OVC,M,M,3600.00,4700.00,M,M,M,M,M,M,M,M,M,37.08,KHTH 230930Z AUTO 25005KT 10SM SCT036 OVC047 05/05 A2988 RMK A01,M
10U,2024-01-23 09:30,-116.1876,41.9532,1637.00,32.00,32.00,100.00,0.00,0.00,0.00,29.85,M,0.25,M,OVC,M,M,M,300.00,M,M,M,FG,M,M,M,M,M,M,32.00,K10U 230930Z AUTO 00000KT 1/4SM FG OVC003 00/M00 A2985 RMK AO2,M
INS,2024-01-23 09:31,-115.6733,36.5872,955.00,46.40,44.60,93.40,90.00,9.00,0.00,29.80,1007.60,7.00,M,OVC,M,M,M,400.00,M,M,M,-RA BR,M,M,M,M,M,M,41.42,KINS 230931Z AUTO 09009KT 7SM -RA BR OVC004 08/07 A2980 RMK AO2 DZB0857E07DZB11E13RAB13 SLP076,M
BVU,2024-01-23 09:35,-114.8611,35.9475,671.00,50.00,48.20,93.50,80.00,5.00,0.00,29.81,M,4.00,M,OVC,M,M,M,2900.00,M,M,M,BR,M,M,M,M,M,M,50.00,KBVU 230935Z AUTO 08005KT 4SM BR OVC029 10/09 A2981 RMK AO2,M
RTS,2024-01-23 09:35,-119.8764,39.6682,1539.00,37.40,33.80,86.69,290.00,7.00,0.00,29.89,M,10.00,M,CLR,M,M,M,M,M,M,M,M,M,M,M,M,M,M,31.36,KRTS 230935Z AUTO 29007KT 10SM CLR 03/01 A2989 RMK AO2,M
MEV,2024-01-23 09:35,-119.7500,38.9963,1441.42,30.20,30.20,100.00,100.00,4.00,0.00,29.89,M,10.00,M,FEW,OVC,M,M,800.00,4000.00,M,M,M,M,M,M,M,M,M,25.32,KMEV 230935Z AUTO 10004KT 10SM FEW008 OVC040 M01/M01 A2989 RMK AO2,M
BAM,2024-01-23 09:35,-116.8743,40.5990,1382.36,39.20,37.40,93.19,330.00,3.00,0.00,29.85,M,10.00,M,SCT,OVC,M,M,800.00,1200.00,M,M,M,M,M,M,M,M,M,36.92,KBAM 230935Z AUTO 33003KT 10SM SCT008 OVC012 04/03 A2985 RMK AO1,M
LSV,2024-01-23 09:35,-115.0343,36.2362,570.00,50.00,48.20,93.50,70.00,8.00,0.00,29.78,1008.00,10.00,M,FEW,BKN,M,M,3500.00,4700.00,M,M,M,M,M,M,M,M,M,50.00,KLSV 230935Z AUTO 07008KT 10SM FEW035 BKN047 10/09 A2978 RMK AO2 SLP080 $,M
TMT,2024-01-23 09:35,-117.1971,39.4643,1749.34,32.00,32.00,100.00,0.00,0.00,0.01,29.86,M,10.00,M,SCT,OVC,M,M,2000.00,3000.00,M,M,-RA,M,M,M,M,M,M,32.00,KTMT 230935Z AUTO 00000KT 10SM -RA SCT020 OVC030 00/00 A2986 RMK AO2 P0001 T00000000,M
WMC,2024-01-23 09:39,-117.8072,40.9019,1315.00,40.00,37.00,88.92,0.00,0.00,T,29.85,M,10.00,M,OVC,M,M,M,1500.00,M,M,M,M,M,M,M,M,M,M,40.00,KWMC 230939Z AUTO 00000KT 10SM OVC015 04/03 A2985 RMK AO2 RAE09 P0000 T00440028,M
INS,2024-01-23 09:42,-115.6733,36.5872,955.00,46.40,44.60,93.40,80.00,6.00,0.00,29.80,1007.60,7.00,M,OVC,M,M,M,400.00,M,M,M,M,M,M,M,M,M,M,42.87,KINS 230942Z AUTO 08006KT 7SM OVC004 08/07 A2980 RMK AO2 DZB0857E07DZB11E13RAB13E35DZB35E42 SLP076,M
LAS,2024-01-23 09:45,-115.1634,36.0719,663.00,50.00,48.00,92.80,80.00,6.00,0.00,29.80,M,10.00,M,FEW,OVC,M,M,400.00,4100.00,M,M,M,M,M,M,M,M,M,50.00,KLAS 230945Z 08006KT 10SM FEW004 OVC041 10/09 A2980 RMK AO2 TOPS OF MTNS OBSCURED DSNT S-W-NW T01000089,M
WMC,2024-01-23 09:47,-117.8072,40.9019,1315.00,40.00,37.00,88.92,0.00,0.00,T,29.86,M,10.00,M,BKN,OVC,M,M,1100.00,1700.00,M,M,M,M,M,M,M,M,M,40.00,KWMC 230947Z AUTO 00000KT 10SM BKN011 OVC017 04/03 A2986 RMK AO2 RAE09 P0000 T00440028,M
NFL,2024-01-23 09:48,-118.7010,39.4166,1199.00,41.00,39.00,92.52,60.00,3.00,0.00,29.86,M,1.00,M,SCT,OVC,M,M,2400.00,4700.00,M,M,BR,M,M,M,M,M,M,38.98,KNFL 230948Z AUTO 06003KT 1SM BR SCT024 OVC047 05/04 A2986 RMK AO2 T00500039,M
TPH,2024-01-23 09:49,-117.0904,38.0505,1654.00,33.00,32.00,96.06,320.00,3.00,0.00,29.84,M,10.00,M,BKN,BKN,OVC,M,1400.00,2700.00,3300.00,M,M,M,M,M,M,M,M,29.83,KTPH 230949Z AUTO 32003KT 10SM BKN014 BKN027 OVC033 01/00 A2984 RMK AO2 T00060000,M
10U,2024-01-23 09:50,-116.1876,41.9532,1637.00,32.00,32.00,100.00,0.00,0.00,0.00,29.85,M,1.25,M,OVC,M,M,M,500.00,M,M,M,UP,M,M,M,M,M,M,32.00,K10U 230950Z AUTO 00000KT 1 1/4SM UP OVC005 00/00 A2985 RMK AO2,M
P68,2024-01-23 09:53,-116.0056,39.6014,1993.00,33.00,32.00,96.06,0.00,0.00,0.00,29.82,1008.40,M,M,M,M,M,M,M,M,M,M,M,M,M,M,M,M,M,33.00,KP68 230953Z AUTO 00000KT 01/00 A2982 RMK AO1 SLP084 T00060000,M
DRA,2024-01-23 09:53,-116.0278,36.6206,1009.00,45.00,43.00,92.65,360.00,6.00,0.01,29.80,1007.50,10.00,M,OVC,M,M,M,1900.00,M,M,M,-RA,M,M,M,M,M,M,41.19,KDRA 230953Z AUTO 36006KT 10SM -RA OVC019 07/06 A2980 RMK AO2 RAB17 SLP075 P0001 T00720061,M
ELY,2024-01-23 09:53,-114.8453,39.2950,1909.00,32.00,31.00,96.04,90.00,3.00,T,29.83,1009.00,10.00,M,BKN,OVC,M,M,6500.00,7500.00,M,M,M,M,M,M,M,M,M,28.69,KELY 230953Z AUTO 09003KT 10SM BKN065 OVC075 00/M01 A2983 RMK AO2 SNE21 SLP090 P0000 T00001006,M
VGT,2024-01-23 09:53,-115.1933,36.2111,667.00,50.00,48.00,92.80,40.00,3.00,0.00,29.80,1010.60,10.00,M,SCT,OVC,M,M,4300.00,5000.00,M,M,M,M,M,M,M,M,M,50.00,KVGT 230953Z AUTO 04003KT 10SM SCT043 OVC050 10/09 A2980 RMK AO2 SLP106 T01000089,M
LOL,2024-01-23 09:53,-118.5701,40.0684,1192.43,34.00,34.00,100.00,0.00,0.00,0.00,29.86,1011.90,10.00,M,OVC,M,M,M,8000.00,M,M,M,M,M,M,M,M,M,M,34.00,KLOL 230953Z AUTO 00000KT 10SM OVC080 01/01 A2986 RMK AO2 SLP119 T00110011,M
BVU,2024-01-23 09:55,-114.8611,35.9475,671.00,50.00,48.20,93.50,80.00,6.00,0.00,29.81,M,5.00,M,BKN,OVC,M,M,3000.00,3700.00,M,M,-DZ,M,M,M,M,M,M,50.00,KBVU 230955Z AUTO 08006KT 5SM -DZ BKN030 OVC037 10/09 A2981 RMK AO2,M
CXP,2024-01-23 09:55,-119.7326,39.1923,1431.00,32.00,32.00,100.00,0.00,0.00,0.00,29.90,M,10.00,M,CLR,M,M,M,M,M,M,M,M,M,M,M,M,M,M,32.00,KCXP 230955Z AUTO 00000KT 10SM CLR 00/00 A2990 RMK AO2,M
INS,2024-01-23 09:55,-115.6733,36.5872,955.00,46.60,44.00,90.60,60.00,7.00,0.02,29.80,1007.60,6.00,M,OVC,M,M,M,400.00,M,M,M,BR,M,M,M,M,M,M,42.58,KINS 230955Z AUTO 06007KT 6SM BR OVC004 08/07 A2980 RMK AO2 DZB0857E07DZB11E13RAB13E35DZB35E42 SLP076 P0002 T00810067,M
RNO,2024-01-23 09:55,-119.7711,39.4839,1341.00,39.00,37.00,92.45,0.00,0.00,0.00,29.89,1011.20,10.00,M,SCT,M,M,M,4000.00,M,M,M,M,M,M,M,M,M,M,39.00,KRNO 230955Z 00000KT 10SM SCT040 04/03 A2989 RMK AO2 SLP112 T00390028,M
RTS,2024-01-23 09:55,-119.8764,39.6682,1539.00,35.60,32.00,86.59,290.00,6.00,0.00,29.90,M,10.00,M,CLR,M,M,M,M,M,M,M,M,M,M,M,M,M,M,29.87,KRTS 230955Z AUTO 29006KT 10SM CLR 02/00 A2990 RMK AO2,M
05U,2024-01-23 09:55,-116.0051,39.6042,1811.23,33.80,33.80,100.00,0.00,0.00,0.00,29.85,M,0.25,M,M,M,M,M,M,M,M,M,FG,M,M,M,M,M,M,33.80,K05U 230955Z AUTO 00000KT 1/4SM FG 01/01 A2985 RMK A01,M
MEV,2024-01-23 09:55,-119.7500,38.9963,1441.42,30.20,30.20,100.00,120.00,4.00,0.00,29.89,M,10.00,M,SCT,M,M,M,4100.00,M,M,M,M,M,M,M,M,M,M,25.32,KMEV 230955Z AUTO 12004KT 10SM SCT041 M01/M01 A2989 RMK AO2,M
BAM,2024-01-23 09:55,-116.8743,40.5990,1382.36,39.20,37.40,93.19,330.00,3.00,0.00,29.85,M,7.00,M,SCT,OVC,M,M,400.00,1400.00,M,M,M,M,M,M,M,M,M,36.92,KBAM 230955Z AUTO 33003KT 7SM SCT004 OVC014 04/03 A2985 RMK AO1,M
HTH,2024-01-23 09:55,-118.6315,38.5448,1282.89,41.00,41.00,100.00,0.00,0.00,0.00,29.88,M,10.00,M,FEW,BKN,OVC,M,2000.00,3600.00,5000.00,M,M,M,M,M,M,M,M,41.00,KHTH 230955Z AUTO 00000KT 10SM FEW020 BKN036 OVC050 05/05 A2988 RMK A01,M
LSV,2024-01-23 09:55,-115.0343,36.2362,570.00,51.00,48.00,89.42,70.00,5.00,0.00,29.78,1007.90,10.00,M,SCT,BKN,M,M,3700.00,4900.00,M,M,M,M,M,M,M,M,M,51.00,KLSV 230955Z AUTO 07005KT 10SM SCT037 BKN049 11/09 A2978 RMK AO2 SLP079 T01050089 $,M
TMT,2024-01-23 09:55,-117.1971,39.4643,1749.34,32.00,32.00,100.00,0.00,0.00,0.01,29.86,M,10.00,M,BKN,OVC,M,M,1500.00,2600.00,M,M,-RA,M,M,M,M,M,M,32.00,KTMT 230955Z AUTO 00000KT 10SM -RA BKN015 OVC026 00/00 A2986 RMK AO2 P0001 T00000000,M
EKO,2024-01-23 09:56,-115.7860,40.8242,1367.00,34.00,32.00,92.29,70.00,4.00,0.01,29.83,1010.50,10.00,M,OVC,M,M,M,1500.00,M,M,M,-RA,M,M,M,M,M,M,29.76,KEKO 230956Z AUTO 07004KT 10SM -RA OVC015 01/00 A2983 RMK AO2 RAE33B53UPB33E53 SLP105 P0001 T00110000,M
NFL,2024-01-23 09:56,-118.7010,39.4166,1199.00,41.00,40.00,96.19,0.00,0.00,0.00,29.86,1008.90,1.00,M,BKN,OVC,M,M,2400.00,4700.00,M,M,BR,M,M,M,M,M,M,41.00,KNFL 230956Z AUTO 00000KT 1SM BR BKN024 OVC047 05/04 A2986 RMK AO2 SLP089 T00500044,M
HND,2024-01-23 09:56,-115.1344,35.9729,742.79,48.00,46.00,92.74,0.00,0.00,0.00,29.82,1011.30,10.00,M,BKN,OVC,M,M,3400.00,4300.00,M,M,M,M,M,M,M,M,M,48.00,KHND 230956Z AUTO 00000KT 10SM BKN034 OVC043 09/08 A2982 RMK AO2 SLP113 T00890078,M
TPH,2024-01-23 09:56,-117.0904,38.0505,1654.00,33.00,32.00,96.06,330.00,3.00,0.00,29.83,1010.20,10.00,M,BKN,OVC,M,M,1400.00,2700.00,M,M,M,M,M,M,M,M,M,29.83,KTPH 230956Z AUTO 33003KT 10SM BKN014 OVC027 01/00 A2983 RMK AO2 SLP102 T00060000,M
LAS,2024-01-23 09:56,-115.1634,36.0719,663.00,50.00,48.00,92.80,80.00,6.00,0.00,29.80,1008.70,10.00,M,BKN,OVC,M,M,400.00,4300.00,M,M,M,M,M,M,M,M,M,50.00,KLAS 230956Z 08006KT 10SM BKN004 OVC043 10/09 A2980 RMK AO2 SLP087 MTNS OBSCURED DSNT S-W-N T01000089,M
WMC,2024-01-23 09:56,-117.8072,40.9019,1315.00,40.00,37.00,88.92,0.00,0.00,T,29.86,1010.60,10.00,M,BKN,OVC,M,M,1100.00,1500.00,M,M,M,M,M,M,M,M,M,40.00,KWMC 230956Z AUTO 00000KT 10SM BKN011 OVC015 04/03 A2986 RMK AO2 RAE09 CIG 009V012 SLP106 P0000 T00440028,M
INS,2024-01-23 09:58,-115.6733,36.5872,955.00,46.40,44.60,93.40,40.00,5.00,0.00,29.80,1007.60,7.00,M,OVC,M,M,M,400.00,M,M,M,-RA,M,M,M,M,M,M,43.50,KINS 230958Z AUTO 04005KT 7SM -RA OVC004 08/07 A2980 RMK AO2 RAB58 SLP076,M
INS,2024-01-23 10:03,-115.6733,36.5872,955.00,46.40,44.60,93.40,30.00,4.00,0.00,29.80,1007.60,9.00,M,OVC,M,M,M,500.00,M,M,M,-RA,M,M,M,M,M,M,44.24,KINS 231003Z AUTO 03004KT 9SM -RA OVC005 08/07 A2980 RMK AO2 RAB0958 SLP076,M
TPH,2024-01-23 10:07,-117.0904,38.0505,1654.00,34.00,33.00,96.08,0.00,0.00,0.00,29.83,M,10.00,M,BKN,OVC,M,M,1500.00,10000.00,M,M,M,M,M,M,M,M,M,34.00,KTPH 231007Z AUTO 00000KT 10SM BKN015 OVC100 01/01 A2983 RMK AO2 T00110006,M
LOL,2024-01-23 10:12,-118.5701,40.0684,1192.43,34.00,33.00,96.08,0.00,0.00,0.00,29.87,M,2.00,M,BKN,BKN,M,M,5500.00,8000.00,M,M,BR,M,M,M,M,M,M,34.00,KLOL 231012Z AUTO 00000KT 2SM BR BKN055 BKN080 01/01 A2987 RMK AO2 VIS 1 1/2V3 T00110006,M
BVU,2024-01-23 10:15,-114.8611,35.9475,671.00,50.00,48.20,93.50,70.00,5.00,0.00,29.80,M,6.00,M,BKN,OVC,M,M,2700.00,3300.00,M,M,BR,M,M,M,M,M,M,50.00,KBVU 231015Z AUTO 07005KT 6SM BR BKN027 OVC033 10/09 A2980 RMK AO2,M
CXP,2024-01-23 10:15,-119.7326,39.1923,1431.00,30.20,30.20,100.00,0.00,0.00,0.00,29.91,M,8.00,M,CLR,M,M,M,M,M,M,M,M,M,M,M,M,M,M,30.20,KCXP 231015Z AUTO 00000KT 8SM CLR M01/M01 A2991 RMK AO2,M
RTS,2024-01-23 10:15,-119.8764,39.6682,1539.00,32.00,32.00,100.00,330.00,5.00,0.00,29.90,M,10.00,M,CLR,M,M,M,M,M,M,M,M,M,M,M,M,M,M,26.40,KRTS 231015Z AUTO 33005KT 10SM CLR 00/M00 A2990 RMK AO2,M
05U,2024-01-23 10:15,-116.0051,39.6042,1811.23,33.80,33.80,100.00,0.00,0.00,0.00,29.85,M,0.25,M,M,M,M,M,M,M,M,M,FG,M,M,M,M,M,M,33.80,K05U 231015Z AUTO 00000KT 1/4SM FG 01/01 A2985 RMK A01,M
MEV,2024-01-23 10:15,-119.7500,38.9963,1441.42,30.20,30.20,100.00,0.00,0.00,0.00,29.89,M,10.00,M,FEW,FEW,FEW,M,2900.00,3600.00,4300.00,M,M,M,M,M,M,M,M,30.20,KMEV 231015Z AUTO 00000KT 10SM FEW029 FEW036 FEW043 M01/M01 A2989 RMK AO2,M
HTH,2024-01-23 10:15,-118.6315,38.5448,1282.89,41.00,41.00,100.00,0.00,0.00,0.00,29.88,M,6.00,M,SCT,OVC,M,M,2600.00,3600.00,M,M,BR,M,M,M,M,M,M,41.00,KHTH 231015Z AUTO 00000KT 6SM BR SCT026 OVC036 05/05 A2988 RMK A01,M
10U,2024-01-23 10:15,-116.1876,41.9532,1637.00,32.00,32.00,100.00,0.00,0.00,0.00,29.85,M,0.75,M,OVC,M,M,M,400.00,M,M,M,UP,M,M,M,M,M,M,32.00,K10U 231015Z AUTO 00000KT 3/4SM UP OVC004 00/M00 A2985 RMK AO2,M
BAM,2024-01-23 10:15,-116.8743,40.5990,1382.36,39.20,39.20,100.00,0.00,0.00,0.00,29.86,M,7.00,M,OVC,M,M,M,400.00,M,M,M,M,M,M,M,M,M,M,39.20,KBAM 231015Z AUTO 00000KT 7SM OVC004 04/04 A2986 RMK AO1,M
TMT,2024-01-23 10:15,-117.1971,39.4643,1749.34,32.00,32.00,100.00,0.00,0.00,0.00,29.86,M,10.00,M,OVC,M,M,M,1500.00,M,M,M,-RA,M,M,M,M,M,M,32.00,KTMT 231015Z AUTO 00000KT 10SM -RA OVC015 00/00 A2986 RMK AO2 T00000000,M
LAS,2024-01-23 10:18,-115.1634,36.0719,663.00,49.00,48.00,96.32,80.00,6.00,0.00,29.80,M,8.00,M,OVC,M,M,M,300.00,M,M,M,M,M,M,M,M,M,M,46.00,KLAS 231018Z 08006KT 8SM OVC003 09/09 A2980 RMK AO2 CIG HIR NW-NE MTNS OBSCURED DSNT S-W-N T00940089,M
NFL,2024-01-23 10:20,-118.7010,39.4166,1199.00,41.00,40.00,96.19,0.00,0.00,0.00,29.87,M,3.00,M,SCT,BKN,OVC,M,2100.00,2600.00,3500.00,M,BR,M,M,M,M,M,M,41.00,KNFL 231020Z AUTO 00000KT 3SM BR SCT021 BKN026 OVC035 05/04 A2987 RMK AO2 T00500044,M
LOL,2024-01-23 10:22,-118.5701,40.0684,1192.43,33.00,33.00,100.00,0.00,0.00,0.00,29.87,M,7.00,M,BKN,M,M,M,5500.00,M,M,M,M,M,M,M,M,M,M,33.00,KLOL 231022Z AUTO 00000KT 7SM BKN055 01/01 A2987 RMK AO2 T00060006,M
INS,2024-01-23 10:23,-115.6733,36.5872,955.00,46.40,44.60,93.40,50.00,5.00,0.00,29.80,1007.60,5.00,M,OVC,M,M,M,400.00,M,M,M,-DZ BR,M,M,M,M,M,M,43.50,KINS 231023Z AUTO 05005KT 5SM -DZ BR OVC004 08/07 A2980 RMK AO2 RAB0958E06DZB06E12RAB12E22DZB22 SLP076,M
EKO,2024-01-23 10:25,-115.7860,40.8242,1367.00,34.00,33.00,96.08,0.00,0.00,0.01,29.83,M,10.00,M,OVC,M,M,M,1400.00,M,M,M,-RA,M,M,M,M,M,M,34.00,KEKO 231025Z AUTO 00000KT 10SM -RA OVC014 01/01 A2983 RMK AO2 P0001 T00110006,M
NFL,2024-01-23 10:28,-118.7010,39.4166,1199.00,41.00,40.00,96.19,0.00,0.00,0.00,29.87,M,4.00,M,SCT,BKN,OVC,M,2000.00,3500.00,4400.00,M,BR,M,M,M,M,M,M,41.00,KNFL 231028Z AUTO 00000KT 4SM BR SCT020 BKN035 OVC044 05/04 A2987 RMK AO2 T00500044,M
05U,2024-01-23 10:30,-116.0051,39.6042,1811.23,33.80,32.00,93.03,0.00,0.00,0.00,29.85,M,0.25,M,M,M,M,M,M,M,M,M,FG,M,M,M,M,M,M,33.80,K05U 231030Z AUTO 00000KT 1/4SM FG 01/00 A2985 RMK A01,M
INS,2024-01-23 10:32,-115.6733,36.5872,955.00,46.40,44.60,93.40,40.00,4.00,0.00,29.80,1007.60,5.00,M,OVC,M,M,M,400.00,M,M,M,BR,M,M,M,M,M,M,44.24,KINS 231032Z AUTO 04004KT 5SM BR OVC004 08/07 A2980 RMK AO2 RAB0958E06DZB06E12RAB12E22DZB22E32 SLP076,M
BVU,2024-01-23 10:35,-114.8611,35.9475,671.00,48.20,48.20,100.00,80.00,4.00,0.00,29.80,M,5.00,M,OVC,M,M,M,2200.00,M,M,M,BR,M,M,M,M,M,M,46.34,KBVU 231035Z AUTO 08004KT 5SM BR OVC022 09/09 A2980 RMK AO2,M
CXP,2024-01-23 10:35,-119.7326,39.1923,1431.00,30.20,30.20,100.00,0.00,0.00,0.00,29.91,M,0.25,M,OVC,M,M,M,100.00,M,M,M,FZFG,M,M,M,M,M,M,30.20,KCXP 231035Z AUTO 00000KT M1/4SM FZFG OVC001 M01/M01 A2991 RMK AO2,M
INS,2024-01-23 10:35,-115.6733,36.5872,955.00,46.40,44.60,93.40,40.00,5.00,0.00,29.80,1007.60,4.00,M,OVC,M,M,M,400.00,M,M,M,-RA BR,M,M,M,M,M,M,43.50,KINS 231035Z AUTO 04005KT 4SM -RA BR OVC004 08/07 A2980 RMK AO2 RAB0958E06DZB06E12RAB12E22DZB22E32RAB35 SLP076,M
LOL,2024-01-23 10:35,-118.5701,40.0684,1192.43,33.00,33.00,100.00,40.00,4.00,0.00,29.87,M,1.75,M,OVC,M,M,M,5500.00,M,M,M,BR,M,M,M,M,M,M,28.59,KLOL 231035Z AUTO 04004KT 1 3/4SM BR OVC055 01/01 A2987 RMK AO2 T00060006,M
RTS,2024-01-23 10:35,-119.8764,39.6682,1539.00,32.00,32.00,100.00,320.00,5.00,0.00,29.91,M,10.00,M,FEW,FEW,M,M,3000.00,5000.00,M,M,M,M,M,M,M,M,M,26.40,KRTS 231035Z AUTO 32005KT 10SM FEW030 FEW050 00/M00 A2991 RMK AO2,M
MEV,2024-01-23 10:35,-119.7500,38.9963,1441.42,30.20,30.20,100.00,70.00,5.00,0.00,29.90,M,10.00,M,SCT,SCT,M,M,2600.00,3600.00,M,M,M,M,M,M,M,M,M,24.26,KMEV 231035Z AUTO 07005KT 10SM SCT026 SCT036 M01/M01 A2990 RMK AO2,M
BAM,2024-01-23 10:35,-116.8743,40.5990,1382.36,39.20,39.20,100.00,320.00,4.00,0.00,29.86,M,7.00,M,OVC,M,M,M,400.00,M,M,M,M,M,M,M,M,M,M,35.83,KBAM 231035Z AUTO 32004KT 7SM OVC004 04/04 A2986 RMK AO1,M
HTH,2024-01-23 10:35,-118.6315,38.5448,1282.89,41.00,41.00,100.00,240.00,4.00,0.00,29.88,M,10.00,M,FEW,SCT,BKN,M,2600.00,3700.00,4200.00,M,M,M,M,M,M,M,M,37.93,KHTH 231035Z AUTO 24004KT 10SM FEW026 SCT037 BKN042 05/05 A2988 RMK A01,M
10U,2024-01-23 10:35,-116.1876,41.9532,1637.00,32.00,32.00,100.00,0.00,0.00,0.00,29.85,M,0.75,M,OVC,M,M,M,300.00,M,M,M,UP,M,M,M,M,M,M,32.00,K10U 231035Z AUTO 00000KT 3/4SM UP OVC003 00/00 A2985 RMK AO2,M
TMT,2024-01-23 10:35,-117.1971,39.4643,1749.34,32.00,32.00,100.00,0.00,0.00,0.00,29.86,M,10.00,M,OVC,M,M,M,1500.00,M,M,M,-RA,M,M,M,M,M,M,32.00,KTMT 231035Z AUTO 00000KT 10SM -RA OVC015 00/00 A2986 RMK AO2 T00000000,M
NFL,2024-01-23 10:36,-118.7010,39.4166,1199.00,41.00,40.00,96.19,0.00,0.00,0.00,29.87,M,4.00,M,FEW,BKN,OVC,M,100.00,2000.00,4000.00,M,BR,M,M,M,M,M,M,41.00,KNFL 231036Z AUTO 00000KT 4SM BR FEW001 BKN020 OVC040 05/04 A2987 RMK AO2 T00500044,M
ELY,2024-01-23 10:39,-114.8453,39.2950,1909.00,32.00,31.00,96.04,0.00,0.00,T,29.83,M,4.00,M,SCT,BKN,OVC,M,500.00,4500.00,5500.00,M,-SN BR,M,M,M,M,M,M,32.00,KELY 231039Z AUTO 00000KT 4SM -SN BR SCT005 BKN045 OVC055 00/M01 A2983 RMK AO2 SNB23 P0000 T00001006,M
TPH,2024-01-23 10:40,-117.0904,38.0505,1654.00,34.00,33.00,96.08,0.00,0.00,0.00,29.84,M,10.00,M,OVC,M,M,M,1400.00,M,M,M,M,M,M,M,M,M,M,34.00,KTPH 231040Z AUTO 00000KT 10SM OVC014 01/01 A2984 RMK AO2 T00110006,M
NFL,2024-01-23 10:43,-118.7010,39.4166,1199.00,41.00,39.00,92.52,0.00,0.00,0.00,29.87,M,4.00,M,FEW,BKN,OVC,M,100.00,3400.00,4600.00,M,BR,M,M,M,M,M,M,41.00,KNFL 231043Z AUTO 00000KT 4SM BR FEW001 BKN034 OVC046 05/04 A2987 RMK AO2 T00500039,M
ELY,2024-01-23 10:48,-114.8453,39.2950,1909.00,32.00,30.20,92.97,0.00,0.00,T,29.83,M,5.00,M,BKN,OVC,M,M,500.00,4500.00,M,M,-SN BR,M,M,M,M,M,M,32.00,KELY 231048Z AUTO 00000KT 5SM -SN BR BKN005 OVC045 00/M01 A2983 RMK AO2 SNB23 P0000,M
LOL,2024-01-23 10:48,-118.5701,40.0684,1192.43,33.80,33.80,100.00,0.00,0.00,0.00,29.87,M,3.00,M,OVC,M,M,M,5500.00,M,M,M,BR,M,M,M,M,M,M,33.80,KLOL 231048Z AUTO 00000KT 3SM BR OVC055 01/01 A2987 RMK AO2,M
P68,2024-01-23 10:53,-116.0056,39.6014,1993.00,32.00,32.00,100.00,120.00,3.00,0.01,29.82,1008.70,M,M,M,M,M,M,M,M,M,M,M,M,M,M,M,M,M,28.69,KP68 231053Z AUTO 12003KT 00/00 A2982 RMK AO1 SLP087 P0001 T00000000,M
DRA,2024-01-23 10:53,-116.0278,36.6206,1009.00,44.00,43.00,96.24,10.00,7.00,0.02,29.80,1007.70,10.00,M,OVC,M,M,M,1700.00,M,M,M,-RA,M,M,M,M,M,M,39.41,KDRA 231053Z AUTO 01007KT 10SM -RA OVC017 07/06 A2980 RMK AO2 SLP077 P0002 T00670061,M
ELY,2024-01-23 10:53,-114.8453,39.2950,1909.00,32.00,31.00,96.04,0.00,0.00,T,29.83,1008.80,6.00,M,BKN,OVC,M,M,400.00,4800.00,M,M,-SN BR,M,M,M,M,M,M,32.00,KELY 231053Z AUTO 00000KT 6SM -SN BR BKN004 OVC048 00/M01 A2983 RMK AO2 SNB23 SLP088 P0000 T00001006,M
VGT,2024-01-23 10:53,-115.1933,36.2111,667.00,50.00,48.00,92.80,40.00,4.00,0.00,29.80,1010.70,10.00,M,SCT,OVC,M,M,1900.00,3600.00,M,M,M,M,M,M,M,M,M,50.00,KVGT 231053Z AUTO 04004KT 10SM SCT019 OVC036 10/09 A2980 RMK AO2 SLP107 T01000089,M
LOL,2024-01-23 10:53,-118.5701,40.0684,1192.43,34.00,34.00,100.00,0.00,0.00,0.00,29.87,1012.20,4.00,M,OVC,M,M,M,5500.00,M,M,M,BR,M,M,M,M,M,M,34.00,KLOL 231053Z AUTO 00000KT 4SM BR OVC055 01/01 A2987 RMK AO2 SLP122 T00110011,M
NFL,2024-01-23 10:53,-118.7010,39.4166,1199.00,41.00,39.20,93.24,0.00,0.00,0.00,29.87,M,1.75,M,FEW,BKN,OVC,M,300.00,3800.00,4800.00,M,BR,M,M,M,M,M,M,41.00,KNFL 231053Z AUTO 00000KT 1 3/4SM BR FEW003 BKN038 OVC048 05/04 A2987 RMK AO2,M
BVU,2024-01-23 10:55,-114.8611,35.9475,671.00,48.20,48.20,100.00,50.00,4.00,0.00,29.80,M,5.00,M,OVC,M,M,M,1900.00,M,M,M,BR,M,M,M,M,M,M,46.34,KBVU 231055Z AUTO 05004KT 5SM BR OVC019 09/09 A2980 RMK AO2,M
CXP,2024-01-23 10:55,-119.7326,39.1923,1431.00,30.20,30.20,100.00,0.00,0.00,0.00,29.91,M,0.50,M,BKN,OVC,M,M,200.00,4600.00,M,M,FZFG,M,M,M,M,M,M,30.20,KCXP 231055Z AUTO 00000KT 1/2SM FZFG BKN002 OVC046 M01/M01 A2991 RMK AO2,M
INS,2024-01-23 10:55,-115.6733,36.5872,955.00,46.60,44.00,90.60,10.00,5.00,0.01,29.80,1007.60,9.00,M,OVC,M,M,M,500.00,M,M,M,-RA BR,M,M,M,M,M,M,43.73,KINS 231055Z AUTO 01005KT 9SM -RA BR OVC005 08/07 A2980 RMK AO2 RAB0958E06DZB06E12RAB12E22DZB22E32RAB35 SLP076 P0001 T00810067,M
RNO,2024-01-23 10:55,-119.7711,39.4839,1341.00,37.00,33.00,85.29,0.00,0.00,0.00,29.90,1011.60,10.00,M,SCT,M,M,M,4000.00,M,M,M,M,M,M,M,M,M,M,37.00,KRNO 231055Z 00000KT 10SM SCT040 03/01 A2990 RMK AO2 SLP116 T00280006,M
RTS,2024-01-23 10:55,-119.8764,39.6682,1539.00,33.80,32.00,93.03,330.00,5.00,0.00,29.91,M,10.00,M,FEW,BKN,M,M,3000.00,4900.00,M,M,M,M,M,M,M,M,M,28.53,KRTS 231055Z AUTO 33005KT 10SM FEW030 BKN049 01/00 A2991 RMK AO2,M
05U,2024-01-23 10:55,-116.0051,39.6042,1811.23,33.80,32.00,93.03,0.00,0.00,0.00,29.85,M,1.25,M,M,M,M,M,M,M,M,M,BR,M,M,M,M,M,M,33.80,K05U 231055Z AUTO 00000KT 1 1/4SM BR 01/00 A2985 RMK A01,M
MEV,2024-01-23 10:55,-119.7500,38.9963,1441.42,30.20,28.40,92.92,0.00,0.00,0.00,29.90,M,10.00,M,SCT,SCT,BKN,M,900.00,1500.00,2500.00,M,M,M,M,M,M,M,M,30.20,KMEV 231055Z AUTO 00000KT 10SM SCT009 SCT015 BKN025 M01/M02 A2990 RMK AO2,M
BAM,2024-01-23 10:55,-116.8743,40.5990,1382.36,39.20,39.20,100.00,330.00,4.00,0.00,29.86,M,5.00,M,OVC,M,M,M,600.00,M,M,M,M,M,M,M,M,M,M,35.83,KBAM 231055Z AUTO 33004KT 5SM OVC006 04/04 A2986 RMK AO1,M
HTH,2024-01-23 10:55,-118.6315,38.5448,1282.89,39.20,39.20,100.00,220.00,5.00,0.01,29.88,M,10.00,M,FEW,OVC,M,M,4000.00,5000.00,M,M,M,M,M,M,M,M,M,34.95,KHTH 231055Z AUTO 22005KT 10SM FEW040 OVC050 04/04 A2988 RMK A01 P0001,M
LSV,2024-01-23 10:55,-115.0343,36.2362,570.00,50.50,48.40,92.47,40.00,6.00,0.00,29.78,1008.00,10.00,M,SCT,OVC,M,M,2300.00,3700.00,M,M,M,M,M,M,M,M,M,50.50,KLSV 231055Z AUTO 04006KT 10SM SCT023 OVC037 10/09 A2978 RMK AO2 SLP080 T01030091 $,M
TMT,2024-01-23 10:55,-117.1971,39.4643,1749.34,32.00,32.00,100.00,0.00,0.00,0.00,29.86,M,10.00,M,BKN,BKN,OVC,M,1500.00,2900.00,3700.00,M,-DZ,M,M,M,M,M,M,32.00,KTMT 231055Z AUTO 00000KT 10SM -DZ BKN015 BKN029 OVC037 00/00 A2986 RMK AO2 T00000000,M
10U,2024-01-23 10:55,-116.1876,41.9532,1637.00,32.00,32.00,100.00,0.00,0.00,0.00,29.85,M,0.75,M,OVC,M,M,M,300.00,M,M,M,UP,M,M,M,M,M,M,32.00,K10U 231055Z AUTO 00000KT 3/4SM UP OVC003 00/00 A2985 RMK AO2,M
EKO,2024-01-23 10:56,-115.7860,40.8242,1367.00,33.00,32.00,96.06,0.00,0.00,0.02,29.83,1010.70,4.00,M,OVC,M,M,M,1000.00,M,M,M,-SN BR,M,M,M,M,M,M,33.00,KEKO 231056Z AUTO 00000KT 4SM -SN BR OVC010 01/00 A2983 RMK AO2 RAE27UPB27E47SNB47 SLP107 P0002 T00060000,M
NFL,2024-01-23 10:56,-118.7010,39.4166,1199.00,41.00,39.00,92.52,0.00,0.00,0.00,29.87,1009.00,1.50,M,FEW,BKN,OVC,M,300.00,3800.00,4800.00,M,BR,M,M,M,M,M,M,41.00,KNFL 231056Z AUTO 00000KT 1 1/2SM BR FEW003 BKN038 OVC048 05/04 A2987 RMK AO2 SLP090 T00500039,M
HND,2024-01-23 10:56,-115.1344,35.9729,742.79,47.00,46.00,96.29,10.00,4.00,0.00,29.81,1011.10,7.00,M,FEW,OVC,M,M,3100.00,4200.00,M,M,M,M,M,M,M,M,M,44.94,KHND 231056Z AUTO 01004KT 7SM FEW031 OVC042 08/08 A2981 RMK AO2 SLP111 T00830078,M
TPH,2024-01-23 10:56,-117.0904,38.0505,1654.00,34.00,34.00,100.00,0.00,0.00,0.00,29.84,1010.50,10.00,M,OVC,M,M,M,1300.00,M,M,M,M,M,M,M,M,M,M,34.00,KTPH 231056Z AUTO 00000KT 10SM OVC013 01/01 A2984 RMK AO2 SLP105 T00110011,M
LAS,2024-01-23 10:56,-115.1634,36.0719,663.00,50.00,48.00,92.80,70.00,6.00,0.00,29.80,1008.70,8.00,M,OVC,M,M,M,300.00,M,M,M,M,M,M,M,M,M,M,50.00,KLAS 231056Z 07006KT 8SM OVC003 10/09 A2980 RMK AO2 SLP087 VIS LWR S-W CIG LWR S-W MTNS OBSCURED DSNT S-W-N T01000089,M
WMC,2024-01-23 10:56,-117.8072,40.9019,1315.00,39.00,36.00,88.87,280.00,3.00,0.00,29.86,1010.90,10.00,M,OVC,M,M,M,1300.00,M,M,M,M,M,M,M,M,M,M,36.69,KWMC 231056Z AUTO 28003KT 10SM OVC013 04/02 A2986 RMK AO2 SLP109 T00390022,M
VGT,2024-01-23 11:02,-115.1933,36.2111,667.00,50.00,48.00,92.80,60.00,3.00,0.00,29.80,M,10.00,M,FEW,BKN,OVC,M,1200.00,1900.00,3600.00,M,M,M,M,M,M,M,M,50.00,KVGT 231102Z AUTO 06003KT 10SM FEW012 BKN019 OVC036 10/09 A2980 RMK AO2 T01000089,M
LSV,2024-01-23 11:05,-115.0343,36.2362,570.00,50.00,48.20,93.50,40.00,6.00,0.00,29.78,1008.00,10.00,M,BKN,BKN,BKN,M,2300.00,2900.00,3600.00,M,M,M,M,M,M,M,M,50.00,KLSV 231105Z AUTO 04006KT 10SM BKN023 BKN029 BKN036 10/09 A2978 RMK AO2 CIG 023V037 BKN023 V SCT SLP080 $,M
NFL,2024-01-23 11:11,-118.7010,39.4166,1199.00,41.00,39.00,92.52,0.00,0.00,0.00,29.87,M,0.50,M,FEW,BKN,OVC,M,500.00,4000.00,4800.00,M,FG,M,M,M,M,M,M,41.00,KNFL 231111Z AUTO 00000KT 1/2SM FG FEW005 BKN040 OVC048 05/04 A2987 RMK AO2 T00500039,M
LOL,2024-01-23 11:14,-118.5701,40.0684,1192.43,34.00,34.00,100.00,50.00,3.00,0.00,29.87,M,1.75,M,FEW,OVC,M,M,100.00,5500.00,M,M,BR,M,M,M,M,M,M,30.97,KLOL 231114Z AUTO 05003KT 1 3/4SM BR FEW001 OVC055 01/01 A2987 RMK AO2 T00110011,M
HND,2024-01-23 11:14,-115.1344,35.9729,742.79,46.40,46.40,100.00,360.00,3.00,0.00,29.81,M,4.00,M,SCT,OVC,M,M,200.00,4200.00,M,M,BR,M,M,M,M,M,M,45.15,KHND 231114Z AUTO 36003KT 4SM BR SCT002 OVC042 08/08 A2981 RMK AO2,M
BVU,2024-01-23 11:15,-114.8611,35.9475,671.00,48.20,48.20,100.00,60.00,3.00,0.00,29.80,M,10.00,M,BKN,OVC,M,M,1200.00,1800.00,M,M,M,M,M,M,M,M,M,47.21,KBVU 231115Z AUTO 06003KT 10SM BKN012 OVC018 09/09 A2980 RMK AO2,M
CXP,2024-01-23 11:15,-119.7326,39.1923,1431.00,32.00,32.00,100.00,340.00,3.00,0.00,29.91,M,0.25,M,OVC,M,M,M,200.00,M,M,M,FZFG,M,M,M,M,M,M,28.69,KCXP 231115Z AUTO 34003KT M1/4SM FZFG OVC002 M00/M00 A2991 RMK AO2,M
INS,2024-01-23 11:15,-115.6733,36.5872,955.00,46.40,44.60,93.40,350.00,4.00,0.00,29.80,1007.60,6.00,M,OVC,M,M,M,400.00,M,M,M,-RA,M,M,M,M,M,M,44.24,KINS 231115Z AUTO 35004KT 6SM -RA OVC004 08/07 A2980 RMK AO2 SLP076,M
RTS,2024-01-23 11:15,-119.8764,39.6682,1539.00,35.60,33.80,93.08,310.00,4.00,0.00,29.90,M,10.00,M,BKN,M,M,M,4800.00,M,M,M,M,M,M,M,M,M,M,31.62,KRTS 231115Z AUTO 31004KT 10SM BKN048 02/01 A2990 RMK AO2,M
05U,2024-01-23 11:15,-116.0051,39.6042,1811.23,33.80,32.00,93.03,0.00,0.00,0.00,29.85,M,3.00,M,M,M,M,M,M,M,M,M,BR,M,M,M,M,M,M,33.80,K05U 231115Z AUTO 00000KT 3SM BR 01/00 A2985 RMK A01,M
MEV,2024-01-23 11:15,-119.7500,38.9963,1441.42,28.40,26.60,92.86,130.00,6.00,0.00,29.90,M,6.00,M,FEW,FEW,SCT,M,900.00,1400.00,3400.00,M,BR,M,M,M,M,M,M,21.19,KMEV 231115Z AUTO 13006KT 6SM BR FEW009 FEW014 SCT034 M02/M03 A2990 RMK AO2,M
BAM,2024-01-23 11:15,-116.8743,40.5990,1382.36,39.20,37.40,93.19,320.00,3.00,0.00,29.86,M,7.00,M,BKN,BKN,OVC,M,300.00,800.00,1700.00,M,M,M,M,M,M,M,M,36.92,KBAM 231115Z AUTO 32003KT 7SM BKN003 BKN008 OVC017 04/03 A2986 RMK AO1,M
HTH,2024-01-23 11:15,-118.6315,38.5448,1282.89,39.20,39.20,100.00,210.00,4.00,0.00,29.89,M,10.00,M,OVC,M,M,M,5000.00,M,M,M,M,M,M,M,M,M,M,35.83,KHTH 231115Z AUTO 21004KT 10SM OVC050 04/04 A2989 RMK A01,M
10U,2024-01-23 11:15,-116.1876,41.9532,1637.00,32.00,32.00,100.00,0.00,0.00,0.00,29.85,M,0.50,M,OVC,M,M,M,300.00,M,M,M,UP,M,M,M,M,M,M,32.00,K10U 231115Z AUTO 00000KT 1/2SM UP OVC003 00/00 A2985 RMK AO2,M
TMT,2024-01-23 11:15,-117.1971,39.4643,1749.34,32.00,32.00,100.00,0.00,0.00,0.00,29.86,M,10.00,M,OVC,M,M,M,1500.00,M,M,M,-DZ,M,M,M,M,M,M,32.00,KTMT 231115Z AUTO 00000KT 10SM -DZ OVC015 00/00 A2986 RMK AO2 T00000000,M
VGT,2024-01-23 11:23,-115.1933,36.2111,667.00,50.00,48.00,92.80,0.00,0.00,0.00,29.80,M,10.00,M,BKN,OVC,M,M,1200.00,2100.00,M,M,M,M,M,M,M,M,M,50.00,KVGT 231123Z AUTO 00000KT 10SM BKN012 OVC021 10/09 A2980 RMK AO2 T01000089,M
LOL,2024-01-23 11:26,-118.5701,40.0684,1192.43,34.00,34.00,100.00,0.00,0.00,0.00,29.88,M,0.75,M,OVC,M,M,M,5500.00,M,M,M,BR,M,M,M,M,M,M,34.00,KLOL 231126Z AUTO 00000KT 3/4SM BR OVC055 01/01 A2988 RMK AO2 T00110011,M
HND,2024-01-23 11:26,-115.1344,35.9729,742.79,46.40,46.40,100.00,0.00,0.00,0.00,29.81,M,3.00,M,BKN,OVC,M,M,200.00,4200.00,M,M,BR,M,M,M,M,M,M,46.40,KHND 231126Z AUTO 00000KT 3SM BR BKN002 OVC042 08/08 A2981 RMK AO2,M
BVU,2024-01-23 11:35,-114.8611,35.9475,671.00,48.20,48.20,100.00,80.00,4.00,0.00,29.80,M,3.00,M,OVC,M,M,M,1100.00,M,M,M,BR,M,M,M,M,M,M,46.34,KBVU 231135Z AUTO 08004KT 3SM BR OVC011 09/09 A2980 RMK AO2,M
CXP,2024-01-23 11:35,-119.7326,39.1923,1431.00,32.00,32.00,100.00,0.00,0.00,0.00,29.91,M,0.25,M,OVC,M,M,M,100.00,M,M,M,FZFG,M,M,M,M,M,M,32.00,KCXP 231135Z AUTO 00000KT M1/4SM FZFG OVC001 M00/M00 A2991 RMK AO2,M
ELY,2024-01-23 11:35,-114.8453,39.2950,1909.00,32.00,30.00,92.22,0.00,0.00,0.01,29.82,M,9.00,M,OVC,M,M,M,500.00,M,M,M,M,M,M,M,M,M,M,32.00,KELY 231135Z AUTO 00000KT 9SM OVC005 00/M01 A2982 RMK AO2 SNE1054 P0001 T00001011,M
RTS,2024-01-23 11:35,-119.8764,39.6682,1539.00,33.80,33.80,100.00,270.00,5.00,0.00,29.91,M,10.00,M,SCT,M,M,M,4700.00,M,M,M,M,M,M,M,M,M,M,28.53,KRTS 231135Z AUTO 27005KT 10SM SCT047 01/01 A2991 RMK AO2,M
05U,2024-01-23 11:35,-116.0051,39.6042,1811.23,32.00,32.00,100.00,0.00,0.00,0.00,29.85,M,3.00,M,M,M,M,M,M,M,M,M,BR,M,M,M,M,M,M,32.00,K05U 231135Z AUTO 00000KT 3SM BR 00/00 A2985 RMK A01,M
MEV,2024-01-23 11:35,-119.7500,38.9963,1441.42,28.40,28.40,100.00,0.00,0.00,0.00,29.90,M,10.00,M,BKN,BKN,M,M,600.00,3400.00,M,M,M,M,M,M,M,M,M,28.40,KMEV 231135Z AUTO 00000KT 10SM BKN006 BKN034 M02/M02 A2990 RMK AO2,M
BAM,2024-01-23 11:35,-116.8743,40.5990,1382.36,39.20,37.40,93.19,330.00,3.00,0.00,29.86,M,5.00,M,SCT,SCT,OVC,M,300.00,1000.00,1400.00,M,M,M,M,M,M,M,M,36.92,KBAM 231135Z AUTO 33003KT 5SM SCT003 SCT010 OVC014 04/03 A2986 RMK AO1,M
HTH,2024-01-23 11:35,-118.6315,38.5448,1282.89,39.20,39.20,100.00,240.00,5.00,0.00,29.89,M,10.00,M,FEW,OVC,M,M,1700.00,5500.00,M,M,M,M,M,M,M,M,M,34.95,KHTH 231135Z AUTO 24005KT 10SM FEW017 OVC055 04/04 A2989 RMK A01,M
10U,2024-01-23 11:35,-116.1876,41.9532,1637.00,33.80,32.00,93.03,0.00,0.00,0.00,29.85,M,1.00,M,OVC,M,M,M,300.00,M,M,M,-RA,M,M,M,M,M,M,33.80,K10U 231135Z AUTO 00000KT 1SM -RA OVC003 01/00 A2985 RMK AO2,M
TMT,2024-01-23 11:35,-117.1971,39.4643,1749.34,32.00,32.00,100.00,0.00,0.00,0.00,29.87,M,10.00,M,OVC,M,M,M,1300.00,M,M,M,-DZ,M,M,M,M,M,M,32.00,KTMT 231135Z AUTO 00000KT 10SM -DZ OVC013 00/00 A2987 RMK AO2 T00000000,M
EKO,2024-01-23 11:40,-115.7860,40.8242,1367.00,33.00,32.00,96.06,0.00,0.00,0.02,29.83,M,4.00,M,FEW,OVC,M,M,1300.00,2000.00,M,M,-SN BR,M,M,M,M,M,M,33.00,KEKO 231140Z AUTO 00000KT 4SM -SN BR FEW013 OVC020 01/00 A2983 RMK AO2 P0002 T00060000,M
P68,2024-01-23 11:53,-116.0056,39.6014,1993.00,32.00,32.00,100.00,0.00,0.00,0.00,29.82,1008.80,M,M,M,M,M,M,M,M,M,M,M,M,M,M,M,M,M,32.00,KP68 231153Z AUTO 00000KT 00/00 A2982 RMK AO1 SLP088 60002 70006 T00000000 10011 20000 51003,M
DRA,2024-01-23 11:53,-116.0278,36.6206,1009.00,44.00,42.00,92.61,30.00,11.00,0.04,29.80,1007.70,10.00,M,OVC,M,M,M,2200.00,M,M,M,-RA,M,M,M,M,M,M,37.63,KDRA 231153Z AUTO 03011KT 10SM -RA OVC022 07/06 A2980 RMK AO2 SLP077 P0004 60009 70047 T00670056 10078 20067 51003,M
ELY,2024-01-23 11:53,-114.8453,39.2950,1909.00,32.00,30.00,92.22,0.00,0.00,0.01,29.82,1008.70,10.00,M,BKN,BKN,OVC,M,600.00,1000.00,5000.00,M,M,M,M,M,M,M,M,32.00,KELY 231153Z AUTO 00000KT 10SM BKN006 BKN010 OVC050 00/M01 A2982 RMK AO2 SNE1054 SLP087 P0001 60002 70002 T00001011 10006 20000 56002,M
VGT,2024-01-23 11:53,-115.1933,36.2111,667.00,50.00,48.00,92.80,20.00,3.00,T,29.80,1010.50,6.00,M,SCT,BKN,OVC,M,1200.00,2300.00,3700.00,M,-RA BR,M,M,M,M,M,M,50.00,KVGT 231153Z AUTO 02003KT 6SM -RA BR SCT012 BKN023 OVC037 10/09 A2980 RMK AO2 RAB50 SLP105 P0000 60000 70008 T01000089 10106 20100 58002,M
LOL,2024-01-23 11:53,-118.5701,40.0684,1192.43,34.00,34.00,100.00,0.00,0.00,0.00,29.88,1012.50,0.50,M,SCT,OVC,M,M,1400.00,5500.00,M,M,FG,M,M,M,M,M,M,34.00,KLOL 231153Z AUTO 00000KT 1/2SM FG SCT014 OVC055 01/01 A2988 RMK AO2 SLP125 70016 T00110011 10044 20006 53007,M
BVU,2024-01-23 11:55,-114.8611,35.9475,671.00,48.20,48.20,100.00,80.00,4.00,0.00,29.79,M,10.00,M,OVC,M,M,M,1100.00,M,M,M,M,M,M,M,M,M,M,46.34,KBVU 231155Z AUTO 08004KT 10SM OVC011 09/09 A2979 RMK AO2,M
CXP,2024-01-23 11:55,-119.7326,39.1923,1431.00,32.00,32.00,100.00,0.00,0.00,0.00,29.91,M,0.75,M,BKN,BKN,OVC,M,100.00,900.00,7000.00,M,BR,M,M,M,M,M,M,32.00,KCXP 231155Z AUTO 00000KT 3/4SM BR BKN001 BKN009 OVC070 M00/M00 A2991 RMK AO2 VIS 1/4V5,M
RNO,2024-01-23 11:55,-119.7711,39.4839,1341.00,35.00,34.00,96.09,0.00,0.00,0.00,29.90,1011.90,10.00,M,SCT,M,M,M,5000.00,M,M,M,M,M,M,M,M,M,M,35.00,KRNO 231155Z 00000KT 10SM SCT050 02/01 A2990 RMK AO2 SLP119 60000 70010 T00170011 10061 20011 51007,M
RTS,2024-01-23 11:55,-119.8764,39.6682,1539.00,33.80,32.00,93.03,10.00,4.00,0.00,29.90,M,10.00,M,CLR,M,M,M,M,M,M,M,M,M,M,M,M,M,M,29.52,KRTS 231155Z AUTO 01004KT 10SM CLR 01/00 A2990 RMK AO2,M
05U,2024-01-23 11:55,-116.0051,39.6042,1811.23,33.80,32.00,93.03,0.00,0.00,0.01,29.85,M,5.00,M,M,M,M,M,M,M,M,M,BR,M,M,M,M,M,M,33.80,K05U 231155Z AUTO 00000KT 5SM BR 01/00 A2985 RMK A01 P0001,M
MEV,2024-01-23 11:55,-119.7500,38.9963,1441.42,30.20,30.20,100.00,0.00,0.00,0.00,29.90,M,10.00,M,BKN,OVC,M,M,600.00,1100.00,M,M,M,M,M,M,M,M,M,30.20,KMEV 231155Z AUTO 00000KT 10SM BKN006 OVC011 M01/M01 A2990 RMK AO2,M
BAM,2024-01-23 11:55,-116.8743,40.5990,1382.36,39.20,37.40,93.19,310.00,3.00,0.00,29.87,M,7.00,M,OVC,M,M,M,1400.00,M,M,M,M,M,M,M,M,M,M,36.92,KBAM 231155Z AUTO 31003KT 7SM OVC014 04/03 A2987 RMK AO1,M
HTH,2024-01-23 11:55,-118.6315,38.5448,1282.89,39.20,39.20,100.00,0.00,0.00,0.00,29.90,M,10.00,M,FEW,OVC,M,M,1700.00,5500.00,M,M,M,M,M,M,M,M,M,39.20,KHTH 231155Z AUTO 00000KT 10SM FEW017 OVC055 04/04 A2990 RMK A01,M
10U,2024-01-23 11:55,-116.1876,41.9532,1637.00,32.00,32.00,100.00,0.00,0.00,0.00,29.86,M,1.50,M,OVC,M,M,M,300.00,M,M,M,UP,M,M,M,M,M,M,32.00,K10U 231155Z AUTO 00000KT 1 1/2SM UP OVC003 00/00 A2986 RMK AO2,M
TMT,2024-01-23 11:55,-117.1971,39.4643,1749.34,32.00,32.00,100.00,0.00,0.00,0.00,29.87,M,10.00,M,OVC,M,M,M,1300.00,M,M,M,M,M,M,M,M,M,M,32.00,KTMT 231155Z AUTO 00000KT 10SM OVC013 00/00 A2987 RMK AO2 60002 70009 T00000000 10008 20000,M
INS,2024-01-23 11:55,-115.6733,36.5872,955.00,46.00,44.40,94.10,0.00,0.00,0.03,29.80,1007.60,10.00,M,OVC,M,M,M,400.00,M,M,M,-RA,M,M,M,M,M,M,46.00,KINS 231155Z AUTO 00000KT 10SM -RA OVC004 08/07 A2980 RMK AO2 SLP076 P0003 60007 70020 T00780069 10085 20078 50000,M
LSV,2024-01-23 11:55,-115.0343,36.2362,570.00,50.70,48.00,90.42,50.00,4.00,0.00,29.77,1007.70,10.00,M,BKN,BKN,M,M,2800.00,4200.00,M,M,M,M,M,M,M,M,M,50.70,KLSV 231155Z AUTO 05004KT 10SM BKN028 BKN042 10/09 A2977 RMK AO2 SLP077 60001 70011 T01040088 10116 20102 56003 $,M
EKO,2024-01-23 11:56,-115.7860,40.8242,1367.00,33.00,32.00,96.06,0.00,0.00,0.03,29.83,1010.90,5.00,M,SCT,OVC,M,M,1200.00,2200.00,M,M,-SN BR,M,M,M,M,M,M,33.00,KEKO 231156Z AUTO 00000KT 5SM -SN BR SCT012 OVC022 01/00 A2983 RMK AO2 SLP109 P0003 60010 70036 T00060000 10022 20006 51002,M
HND,2024-01-23 11:56,-115.1344,35.9729,742.79,47.00,47.00,100.00,0.00,0.00,0.00,29.81,1011.10,8.00,M,OVC,M,M,M,200.00,M,M,M,M,M,M,M,M,M,M,47.00,KHND 231156Z AUTO 00000KT 8SM OVC002 08/08 A2981 RMK AO2 SLP111 70002 T00830083 10100 20083 58001,M
TPH,2024-01-23 11:56,-117.0904,38.0505,1654.00,35.00,34.00,96.09,10.00,4.00,0.00,29.83,1010.30,10.00,M,OVC,M,M,M,1500.00,M,M,M,M,M,M,M,M,M,M,30.92,KTPH 231156Z AUTO 01004KT 10SM OVC015 02/01 A2983 RMK AO2 SLP103 60002 70054 T00170011 10017 20006 50001,M
LAS,2024-01-23 11:56,-115.1634,36.0719,663.00,50.00,48.00,92.80,60.00,5.00,0.00,29.79,1008.50,9.00,M,OVC,M,M,M,400.00,M,M,M,M,M,M,M,M,M,M,50.00,KLAS 231156Z 06005KT 9SM OVC004 10/09 A2979 RMK AO2 SLP085 VIS LWR S-W CIG LWR S-W MTNS OBSCURED DSNT S-W-N 60001 70013 T01000089 10111 20094 58002,M
WMC,2024-01-23 11:56,-117.8072,40.9019,1315.00,40.00,37.00,88.92,0.00,0.00,T,29.87,1011.10,10.00,M,OVC,M,M,M,1100.00,M,M,M,M,M,M,M,M,M,M,40.00,KWMC 231156Z AUTO 00000KT 10SM OVC011 04/03 A2987 RMK AO2 RAB20E33 SLP111 P0000 60002 70023 T00440028 10044 20039 51005,M
NFL,2024-01-23 11:56,-118.7010,39.4166,1199.00,41.00,39.00,92.52,0.00,0.00,0.00,29.88,1009.40,0.50,M,FEW,OVC,M,M,2700.00,3500.00,M,M,FG,M,M,M,M,M,M,41.00,KNFL 231156Z AUTO 00000KT 1/2SM FG FEW027 OVC035 05/04 A2988 RMK AO2 SLP094 70011 T00500039 10056 20044 53008,M
LOL,2024-01-23 11:57,-118.5701,40.0684,1192.43,34.00,34.00,100.00,0.00,0.00,0.00,29.88,M,0.50,M,BKN,BKN,OVC,M,800.00,4500.00,5500.00,M,FG,M,M,M,M,M,M,34.00,KLOL 231157Z AUTO 00000KT 1/2SM FG BKN008 BKN045 OVC055 01/01 A2988 RMK AO2 T00110011,M
VGT,2024-01-23 12:03,-115.1933,36.2111,667.00,50.00,48.00,92.80,10.00,3.00,T,29.80,M,8.00,M,BKN,BKN,OVC,M,1200.00,2600.00,3900.00,M,M,M,M,M,M,M,M,50.00,KVGT 231203Z AUTO 01003KT 8SM BKN012 BKN026 OVC039 10/09 A2980 RMK AO2 RAE00 P0000 T01000089,M
NFL,2024-01-23 12:04,-118.7010,39.4166,1199.00,41.00,40.00,96.19,0.00,0.00,0.00,29.88,M,1.00,M,FEW,FEW,OVC,M,200.00,2700.00,3500.00,M,BR,M,M,M,M,M,M,41.00,KNFL 231204Z AUTO 00000KT 1SM BR FEW002 FEW027 OVC035 05/04 A2988 RMK AO2 T00500044,M
ELY,2024-01-23 12:07,-114.8453,39.2950,1909.00,32.00,30.00,92.22,0.00,0.00,0.00,29.83,M,7.00,M,SCT,BKN,OVC,M,600.00,4800.00,10000.00,M,M,M,M,M,M,M,M,32.00,KELY 231207Z AUTO 00000KT 7SM SCT006 BKN048 OVC100 00/M01 A2983 RMK AO2 T00001011,M
LOL,2024-01-23 12:10,-118.5701,40.0684,1192.43,33.00,33.00,100.00,100.00,3.00,0.00,29.88,M,0.25,M,BKN,OVC,M,M,500.00,5500.00,M,M,FG,M,M,M,M,M,M,29.83,KLOL 231210Z AUTO 10003KT 1/4SM FG BKN005 OVC055 01/01 A2988 RMK AO2 T00060006,M
EKO,2024-01-23 12:14,-115.7860,40.8242,1367.00,33.00,32.00,96.06,0.00,0.00,T,29.83,M,2.50,M,SCT,OVC,M,M,1000.00,1600.00,M,M,-SN BR,M,M,M,M,M,M,33.00,KEKO 231214Z AUTO 00000KT 2 1/2SM -SN BR SCT010 OVC016 01/00 A2983 RMK AO2 P0000 T00060000,M
HND,2024-01-23 12:14,-115.1344,35.9729,742.79,46.40,46.40,100.00,0.00,0.00,0.00,29.82,M,9.00,M,OVC,M,M,M,400.00,M,M,M,M,M,M,M,M,M,M,46.40,KHND 231214Z AUTO 00000KT 9SM OVC004 08/08 A2982 RMK AO2,M
BVU,2024-01-23 12:15,-114.8611,35.9475,671.00,48.20,48.20,100.00,0.00,0.00,0.00,29.80,M,2.50,M,OVC,M,M,M,1400.00,M,M,M,BR,M,M,M,M,M,M,48.20,KBVU 231215Z AUTO 00000KT 2 1/2SM BR OVC014 09/09 A2980 RMK AO2,M
CXP,2024-01-23 12:15,-119.7326,39.1923,1431.00,30.20,30.20,100.00,0.00,0.00,0.00,29.92,M,0.75,M,BKN,OVC,M,M,700.00,1000.00,M,M,BR,M,M,M,M,M,M,30.20,KCXP 231215Z AUTO 00000KT 3/4SM BR BKN007 OVC010 M01/M01 A2992 RMK AO2 VIS 1/4V1 1/2,M
DRA,2024-01-23 12:15,-116.0278,36.6206,1009.00,44.00,42.00,92.61,30.00,9.00,0.02,29.80,M,10.00,M,SCT,OVC,M,M,2500.00,3300.00,M,M,-RA,M,M,M,M,M,M,38.44,KDRA 231215Z AUTO 03009KT 10SM -RA SCT025 OVC033 07/06 A2980 RMK AO2 P0002 T00670056,M
LOL,2024-01-23 12:15,-118.5701,40.0684,1192.43,32.00,32.00,100.00,80.00,3.00,0.00,29.88,M,0.25,M,VV ,M,M,M,300.00,M,M,M,FG,M,M,M,M,M,M,28.69,KLOL 231215Z AUTO 08003KT 1/4SM FG VV003 00/00 A2988 RMK AO2 T00000000,M
RTS,2024-01-23 12:15,-119.8764,39.6682,1539.00,33.80,32.00,93.03,0.00,0.00,0.00,29.91,M,10.00,M,CLR,M,M,M,M,M,M,M,M,M,M,M,M,M,M,33.80,KRTS 231215Z AUTO 00000KT 10SM CLR 01/00 A2991 RMK AO2,M
05U,2024-01-23 12:15,-116.0051,39.6042,1811.23,33.80,32.00,93.03,0.00,0.00,0.00,29.85,M,7.00,M,M,M,M,M,M,M,M,M,M,M,M,M,M,M,M,33.80,K05U 231215Z AUTO 00000KT 7SM 01/00 A2985 RMK A01,M
MEV,2024-01-23 12:15,-119.7500,38.9963,1441.42,30.20,30.20,100.00,100.00,3.00,0.00,29.90,M,10.00,M,SCT,OVC,M,M,500.00,1200.00,M,M,M,M,M,M,M,M,M,26.63,KMEV 231215Z AUTO 10003KT 10SM SCT005 OVC012 M01/M01 A2990 RMK AO2,M
BAM,2024-01-23 12:15,-116.8743,40.5990,1382.36,39.20,37.40,93.19,0.00,0.00,0.00,29.87,M,7.00,M,SCT,BKN,OVC,M,300.00,1400.00,3600.00,M,M,M,M,M,M,M,M,39.20,KBAM 231215Z AUTO 00000KT 7SM SCT003 BKN014 OVC036 04/03 A2987 RMK AO1,M
HTH,2024-01-23 12:15,-118.6315,38.5448,1282.89,39.20,39.20,100.00,0.00,0.00,0.00,29.89,M,10.00,M,FEW,OVC,M,M,4100.00,5500.00,M,M,M,M,M,M,M,M,M,39.20,KHTH 231215Z AUTO 00000KT 10SM FEW041 OVC055 04/04 A2989 RMK A01,M
10U,2024-01-23 12:15,-116.1876,41.9532,1637.00,32.00,32.00,100.00,0.00,0.00,0.00,29.86,M,2.00,M,OVC,M,M,M,300.00,M,M,M,UP,M,M,M,M,M,M,32.00,K10U 231215Z AUTO 00000KT 2SM UP OVC003 00/00 A2986 RMK AO2,M
TMT,2024-01-23 12:15,-117.1971,39.4643,1749.34,32.00,32.00,100.00,0.00,0.00,0.00,29.87,M,10.00,M,OVC,M,M,M,1300.00,M,M,M,M,M,M,M,M,M,M,32.00,KTMT 231215Z AUTO 00000KT 10SM OVC013 00/00 A2987 RMK AO2 T00000000,M
EKO,2024-01-23 12:18,-115.7860,40.8242,1367.00,33.00,32.00,96.06,0.00,0.00,T,29.83,M,3.00,M,BKN,OVC,M,M,800.00,1400.00,M,M,-SN BR,M,M,M,M,M,M,33.00,KEKO 231218Z AUTO 00000KT 3SM -SN BR BKN008 OVC014 01/00 A2983 RMK AO2 P0000 T00060000,M
NFL,2024-01-23 12:19,-118.7010,39.4166,1199.00,41.00,40.00,96.19,0.00,0.00,0.00,29.88,M,0.50,M,OVC,M,M,M,3500.00,M,M,M,FG,M,M,M,M,M,M,41.00,KNFL 231219Z AUTO 00000KT 1/2SM FG OVC035 05/04 A2988 RMK AO2 T00500044,M
WMC,2024-01-23 12:20,-117.8072,40.9019,1315.00,40.00,37.00,88.92,0.00,0.00,0.00,29.88,M,10.00,M,SCT,BKN,OVC,M,900.00,1400.00,3100.00,M,M,M,M,M,M,M,M,40.00,KWMC 231220Z AUTO 00000KT 10SM SCT009 BKN014 OVC031 04/03 A2988 RMK AO2 T00440028,M
EKO,2024-01-23 12:28,-115.7860,40.8242,1367.00,33.00,31.00,92.25,0.00,0.00,0.01,29.83,M,3.00,M,FEW,OVC,M,M,800.00,1400.00,M,M,-SN BR,M,M,M,M,M,M,33.00,KEKO 231228Z AUTO 00000KT 3SM -SN BR FEW008 OVC014 01/M01 A2983 RMK AO2 P0001 T00061006,M
05U,2024-01-23 12:30,-116.0051,39.6042,1811.23,33.80,32.00,93.03,0.00,0.00,0.00,29.85,M,9.00,M,M,M,M,M,M,M,M,M,M,M,M,M,M,M,M,33.80,K05U 231230Z AUTO 00000KT 9SM 01/00 A2985 RMK A01,M
LAS,2024-01-23 12:32,-115.1634,36.0719,663.00,49.00,48.00,96.32,80.00,4.00,0.00,29.80,M,10.00,M,SCT,BKN,OVC,M,500.00,1000.00,1400.00,M,M,M,M,M,M,M,M,47.27,KLAS 231232Z 08004KT 10SM SCT005 BKN010 OVC014 09/09 A2980 RMK AO2 CIG 009V013 VIS LWR S-W CIG LWR S-W MTNS OBSCURED DSNT S-W-N T00940089,M
BVU,2024-01-23 12:35,-114.8611,35.9475,671.00,48.20,48.20,100.00,0.00,0.00,0.00,29.80,M,10.00,M,OVC,M,M,M,1500.00,M,M,M,M,M,M,M,M,M,M,48.20,KBVU 231235Z AUTO 00000KT 10SM OVC015 09/09 A2980 RMK AO2,M
CXP,2024-01-23 12:35,-119.7326,39.1923,1431.00,32.00,32.00,100.00,0.00,0.00,0.00,29.92,M,8.00,M,OVC,M,M,M,600.00,M,M,M,M,M,M,M,M,M,M,32.00,KCXP 231235Z AUTO 00000KT 8SM OVC006 00/00 A2992 RMK AO2,M
RTS,2024-01-23 12:35,-119.8764,39.6682,1539.00,33.80,32.00,93.03,0.00,0.00,0.00,29.91,M,10.00,M,FEW,M,M,M,3600.00,M,M,M,M,M,M,M,M,M,M,33.80,KRTS 231235Z AUTO 00000KT 10SM FEW036 01/00 A2991 RMK AO2,M
MEV,2024-01-23 12:35,-119.7500,38.9963,1441.42,32.00,32.00,100.00,0.00,0.00,0.00,29.91,M,7.00,M,BKN,OVC,M,M,300.00,1300.00,M,M,M,M,M,M,M,M,M,32.00,KMEV 231235Z AUTO 00000KT 7SM BKN003 OVC013 M00/M00 A2991 RMK AO2,M
BAM,2024-01-23 12:35,-116.8743,40.5990,1382.36,39.20,37.40,93.19,0.00,0.00,0.00,29.87,M,7.00,M,BKN,OVC,M,M,300.00,1200.00,M,M,M,M,M,M,M,M,M,39.20,KBAM 231235Z AUTO 00000KT 7SM BKN003 OVC012 04/03 A2987 RMK AO1,M
HTH,2024-01-23 12:35,-118.6315,38.5448,1282.89,39.20,39.20,100.00,0.00,0.00,0.00,29.90,M,10.00,M,FEW,OVC,M,M,5000.00,6000.00,M,M,M,M,M,M,M,M,M,39.20,KHTH 231235Z AUTO 00000KT 10SM FEW050 OVC060 04/04 A2990 RMK A01,M
10U,2024-01-23 12:35,-116.1876,41.9532,1637.00,33.80,32.00,93.03,0.00,0.00,0.00,29.86,M,2.00,M,OVC,M,M,M,300.00,M,M,M,UP,M,M,M,M,M,M,33.80,K10U 231235Z AUTO 00000KT 2SM UP OVC003 01/00 A2986 RMK AO2,M
TMT,2024-01-23 12:35,-117.1971,39.4643,1749.34,32.00,32.00,100.00,0.00,0.00,0.00,29.87,M,10.00,M,BKN,OVC,M,M,1500.00,2300.00,M,M,M,M,M,M,M,M,M,32.00,KTMT 231235Z AUTO 00000KT 10SM BKN015 OVC023 00/00 A2987 RMK AO2 T00000000,M
EKO,2024-01-23 12:36,-115.7860,40.8242,1367.00,33.00,31.00,92.25,0.00,0.00,0.01,29.84,M,2.00,M,FEW,OVC,M,M,800.00,1300.00,M,M,-SN BR,M,M,M,M,M,M,33.00,KEKO 231236Z AUTO 00000KT 2SM -SN BR FEW008 OVC013 01/M01 A2984 RMK AO2 P0001 T00061006,M
TPH,2024-01-23 12:37,-117.0904,38.0505,1654.00,36.00,34.00,92.35,340.00,7.00,0.00,29.84,M,10.00,M,OVC,M,M,M,1400.00,M,M,M,M,M,M,M,M,M,M,29.65,KTPH 231237Z AUTO 34007KT 10SM OVC014 02/01 A2984 RMK AO2 T00220011,M
VGT,2024-01-23 12:48,-115.1933,36.2111,667.00,50.00,48.20,93.50,0.00,0.00,T,29.80,M,10.00,M,OVC,M,M,M,1600.00,M,M,M,M,M,M,M,M,M,M,50.00,KVGT 231248Z AUTO 00000KT 10SM OVC016 10/09 A2980 RMK AO2 RAE00 P0000,M
05U,2024-01-23 12:50,-116.0051,39.6042,1811.23,32.00,32.00,100.00,0.00,0.00,0.00,29.86,M,10.00,M,M,M,M,M,M,M,M,M,M,M,M,M,M,M,M,32.00,K05U 231250Z AUTO 00000KT 10SM 00/00 A2986 RMK A01,M
EKO,2024-01-23 12:51,-115.7860,40.8242,1367.00,33.80,32.00,93.03,0.00,0.00,0.02,29.84,M,2.50,M,FEW,FEW,OVC,M,200.00,800.00,1600.00,M,-SN BR,M,M,M,M,M,M,33.80,KEKO 231251Z AUTO 00000KT 2 1/2SM -SN BR FEW002 FEW008 OVC016 01/00 A2984 RMK AO2 P0002,M
LAS,2024-01-23 12:52,-115.1634,36.0719,663.00,50.00,48.20,93.50,80.00,4.00,0.00,29.80,M,10.00,M,FEW,BKN,OVC,M,300.00,800.00,1500.00,M,M,M,M,M,M,M,M,50.00,KLAS 231252Z 08004KT 10SM FEW003 BKN008 OVC015 10/09 A2980 RMK AO2 VIS LWR S-W CIG LWR S-W MTNS OBSCURED DSNT S-W-N,M
P68,2024-01-23 12:53,-116.0056,39.6014,1993.00,32.00,32.00,100.00,0.00,0.00,0.00,29.83,1009.50,M,M,M,M,M,M,M,M,M,M,M,M,M,M,M,M,M,32.00,KP68 231253Z AUTO 00000KT 00/00 A2983 RMK AO1 SLP095 T00000000,M
DRA,2024-01-23 12:53,-116.0278,36.6206,1009.00,44.00,41.00,89.11,40.00,9.00,0.06,29.81,1008.00,10.00,M,OVC,M,M,M,3900.00,M,M,M,-RA,M,M,M,M,M,M,38.44,KDRA 231253Z AUTO 04009KT 10SM -RA OVC039 07/05 A2981 RMK AO2 SLP080 P0006 T00670050,M
ELY,2024-01-23 12:53,-114.8453,39.2950,1909.00,31.00,30.00,96.02,230.00,3.00,0.00,29.83,1009.60,9.00,M,BKN,OVC,M,M,6000.00,7500.00,M,M,M,M,M,M,M,M,M,27.55,KELY 231253Z AUTO 23003KT 9SM BKN060 OVC075 M01/M01 A2983 RMK AO2 SLP096 T10061011,M
VGT,2024-01-23 12:53,-115.1933,36.2111,667.00,50.00,48.00,92.80,0.00,0.00,T,29.80,1010.70,10.00,M,OVC,M,M,M,1600.00,M,M,M,M,M,M,M,M,M,M,50.00,KVGT 231253Z AUTO 00000KT 10SM OVC016 10/09 A2980 RMK AO2 RAE00 SLP107 P0000 T01000089,M
LOL,2024-01-23 12:53,-118.5701,40.0684,1192.43,34.00,34.00,100.00,50.00,3.00,0.00,29.89,1013.00,0.25,M,BKN,OVC,M,M,200.00,5000.00,M,M,FG,M,M,M,M,M,M,30.97,KLOL 231253Z AUTO 05003KT 1/4SM FG BKN002 OVC050 01/01 A2989 RMK AO2 SLP130 T00110011,M
NFL,2024-01-23 12:53,-118.7010,39.4166,1199.00,41.00,39.20,93.24,0.00,0.00,0.00,29.89,M,0.50,M,BKN,OVC,M,M,3400.00,4800.00,M,M,FG,M,M,M,M,M,M,41.00,KNFL 231253Z AUTO 00000KT 1/2SM FG BKN034 OVC048 05/04 A2989 RMK AO2,M
BVU,2024-01-23 12:55,-114.8611,35.9475,671.00,48.20,48.20,100.00,0.00,0.00,0.00,29.80,M,4.00,M,OVC,M,M,M,1500.00,M,M,M,BR,M,M,M,M,M,M,48.20,KBVU 231255Z AUTO 00000KT 4SM BR OVC015 09/09 A2980 RMK AO2,M
CXP,2024-01-23 12:55,-119.7326,39.1923,1431.00,32.00,32.00,100.00,0.00,0.00,0.00,29.93,M,2.50,M,OVC,M,M,M,600.00,M,M,M,BR,M,M,M,M,M,M,32.00,KCXP 231255Z AUTO 00000KT 2 1/2SM BR OVC006 M00/M00 A2993 RMK AO2,M
INS,2024-01-23 12:55,-115.6733,36.5872,955.00,46.00,44.40,94.10,20.00,3.00,0.03,29.81,1007.90,7.00,M,OVC,M,M,M,300.00,M,M,M,-RA,M,M,M,M,M,M,44.69,KINS 231255Z AUTO 02003KT 7SM -RA OVC003 08/07 A2981 RMK AO2 SLP079 P0003 T00780069,M
RNO,2024-01-23 12:55,-119.7711,39.4839,1341.00,34.00,32.00,92.29,0.00,0.00,0.00,29.91,1012.50,10.00,M,FEW,M,M,M,4000.00,M,M,M,M,M,M,M,M,M,M,34.00,KRNO 231255Z 00000KT 10SM FEW040 01/00 A2991 RMK AO2 SLP125 T00110000,M
RTS,2024-01-23 12:55,-119.8764,39.6682,1539.00,32.00,30.20,92.97,0.00,0.00,0.00,29.92,M,10.00,M,FEW,M,M,M,3600.00,M,M,M,M,M,M,M,M,M,M,32.00,KRTS 231255Z AUTO 00000KT 10SM FEW036 00/M01 A2992 RMK AO2,M
MEV,2024-01-23 12:55,-119.7500,38.9963,1441.42,32.00,32.00,100.00,0.00,0.00,0.00,29.91,M,0.75,M,OVC,M,M,M,300.00,M,M,M,BR,M,M,M,M,M,M,32.00,KMEV 231255Z AUTO 00000KT 3/4SM BR OVC003 00/M00 A2991 RMK AO2,M
BAM,2024-01-23 12:55,-116.8743,40.5990,1382.36,39.20,39.20,100.00,0.00,0.00,0.00,29.88,M,5.00,M,OVC,M,M,M,300.00,M,M,M,M,M,M,M,M,M,M,39.20,KBAM 231255Z AUTO 00000KT 5SM OVC003 04/04 A2988 RMK AO1,M
HTH,2024-01-23 12:55,-118.6315,38.5448,1282.89,39.20,39.20,100.00,210.00,3.00,0.00,29.90,M,10.00,M,OVC,M,M,M,5500.00,M,M,M,M,M,M,M,M,M,M,36.92,KHTH 231255Z AUTO 21003KT 10SM OVC055 04/04 A2990 RMK A01,M
TMT,2024-01-23 12:55,-117.1971,39.4643,1749.34,32.00,32.00,100.00,0.00,0.00,0.00,29.87,M,10.00,M,OVC,M,M,M,1500.00,M,M,M,M,M,M,M,M,M,M,32.00,KTMT 231255Z AUTO 00000KT 10SM OVC015 00/00 A2987 RMK AO2 T00000000,M
10U,2024-01-23 12:55,-116.1876,41.9532,1637.00,32.00,32.00,100.00,0.00,0.00,0.00,29.87,M,5.00,M,OVC,M,M,M,300.00,M,M,M,-SN,M,M,M,M,M,M,32.00,K10U 231255Z AUTO 00000KT 5SM -SN OVC003 00/00 A2987 RMK AO2,M
LSV,2024-01-23 12:55,-115.0343,36.2362,570.00,50.50,47.70,90.07,80.00,5.00,0.00,29.78,1008.00,10.00,M,BKN,M,M,M,2700.00,M,M,M,M,M,M,M,M,M,M,50.50,KLSV 231255Z AUTO 08005KT 10SM BKN027 10/09 A2978 RMK AO2 BKN V OVC SLP080 T01030087 $,M
EKO,2024-01-23 12:56,-115.7860,40.8242,1367.00,33.00,32.00,96.06,0.00,0.00,0.02,29.84,1011.40,2.00,M,SCT,SCT,OVC,M,200.00,800.00,1600.00,M,-SN BR,M,M,M,M,M,M,33.00,KEKO 231256Z AUTO 00000KT 2SM -SN BR SCT002 SCT008 OVC016 01/00 A2984 RMK AO2 SLP114 P0002 T00060000,M
NFL,2024-01-23 12:56,-118.7010,39.4166,1199.00,41.00,39.00,92.52,0.00,0.00,0.00,29.89,1009.60,0.75,M,BKN,OVC,M,M,3400.00,5000.00,M,M,BR,M,M,M,M,M,M,41.00,KNFL 231256Z AUTO 00000KT 3/4SM BR BKN034 OVC050 05/04 A2989 RMK AO2 SLP096 T00500039,M
HND,2024-01-23 12:56,-115.1344,35.9729,742.79,47.00,46.00,96.29,0.00,0.00,0.00,29.82,1011.30,10.00,M,OVC,M,M,M,400.00,M,M,M,M,M,M,M,M,M,M,47.00,KHND 231256Z AUTO 00000KT 10SM OVC004 08/08 A2982 RMK AO2 SLP113 T00830078,M
TPH,2024-01-23 12:56,-117.0904,38.0505,1654.00,37.00,34.00,88.78,360.00,9.00,0.00,29.84,1010.50,10.00,M,OVC,M,M,M,1300.00,M,M,M,M,M,M,M,M,M,M,29.73,KTPH 231256Z AUTO 36009KT 10SM OVC013 03/01 A2984 RMK AO2 SLP105 T00280011,M
LAS,2024-01-23 12:56,-115.1634,36.0719,663.00,50.00,48.00,92.80,80.00,4.00,0.00,29.80,1008.70,10.00,M,FEW,BKN,OVC,M,300.00,800.00,1500.00,M,M,M,M,M,M,M,M,50.00,KLAS 231256Z 08004KT 10SM FEW003 BKN008 OVC015 10/09 A2980 RMK AO2 SLP087 VIS LWR S-W CIG LWR S-W MTNS OBSCURED DSNT S-W-N T01000089,M
WMC,2024-01-23 12:56,-117.8072,40.9019,1315.00,40.00,37.00,88.92,0.00,0.00,0.01,29.88,1011.70,8.00,M,SCT,OVC,M,M,1200.00,1700.00,M,M,-RA,M,M,M,M,M,M,40.00,KWMC 231256Z AUTO 00000KT 8SM -RA SCT012 OVC017 04/03 A2988 RMK AO2 RAB48 SLP117 P0001 T00440028,M
EKO,2024-01-23 12:58,-115.7860,40.8242,1367.00,33.00,32.00,96.06,0.00,0.00,T,29.84,M,2.00,M,BKN,OVC,M,M,200.00,1600.00,M,M,-SN BR,M,M,M,M,M,M,33.00,KEKO 231258Z AUTO 00000KT 2SM -SN BR BKN002 OVC016 01/00 A2984 RMK AO2 P0000 T00060000,M
LOL,2024-01-23 13:02,-118.5701,40.0684,1192.43,34.00,34.00,100.00,10.00,3.00,0.00,29.90,M,0.50,M,SCT,OVC,M,M,200.00,5500.00,M,M,FG,M,M,M,M,M,M,30.97,KLOL 231302Z AUTO 01003KT 1/2SM FG SCT002 OVC055 01/01 A2990 RMK AO2 T00110011,M
NFL,2024-01-23 13:05,-118.7010,39.4166,1199.00,41.00,40.00,96.19,200.00,3.00,0.00,29.89,M,1.75,M,SCT,OVC,M,M,3400.00,5000.00,M,M,BR,M,M,M,M,M,M,38.98,KNFL 231305Z AUTO 20003KT 1 3/4SM BR SCT034 OVC050 05/04 A2989 RMK AO2 T00500044,M
WMC,2024-01-23 13:08,-117.8072,40.9019,1315.00,40.00,37.00,88.92,0.00,0.00,T,29.89,M,10.00,M,SCT,OVC,M,M,900.00,1500.00,M,M,-RA,M,M,M,M,M,M,40.00,KWMC 231308Z AUTO 00000KT 10SM -RA SCT009 OVC015 04/03 A2989 RMK AO2 P0000 T00440028,M
NFL,2024-01-23 13:10,-118.7010,39.4166,1199.00,41.00,40.00,96.19,200.00,3.00,0.00,29.89,M,3.00,M,FEW,OVC,M,M,3400.00,5000.00,M,M,BR,M,M,M,M,M,M,38.98,KNFL 231310Z AUTO 20003KT 3SM BR FEW034 OVC050 05/04 A2989 RMK AO2 T00500044,M
BVU,2024-01-23 13:15,-114.8611,35.9475,671.00,48.20,48.20,100.00,360.00,3.00,0.00,29.80,M,10.00,M,BKN,OVC,M,M,1500.00,2200.00,M,M,M,M,M,M,M,M,M,47.21,KBVU 231315Z AUTO 36003KT 10SM BKN015 OVC022 09/09 A2980 RMK AO2,M
CXP,2024-01-23 13:15,-119.7326,39.1923,1431.00,32.00,32.00,100.00,0.00,0.00,0.00,29.93,M,3.00,M,OVC,M,M,M,500.00,M,M,M,BR,M,M,M,M,M,M,32.00,KCXP 231315Z AUTO 00000KT 3SM BR OVC005 M00/00 A2993 RMK AO2,M
RTS,2024-01-23 13:15,-119.8764,39.6682,1539.00,32.00,32.00,100.00,320.00,3.00,0.00,29.93,M,10.00,M,BKN,M,M,M,3200.00,M,M,M,M,M,M,M,M,M,M,28.69,KRTS 231315Z AUTO 32003KT 10SM BKN032 00/M00 A2993 RMK AO2,M
05U,2024-01-23 13:15,-116.0051,39.6042,1811.23,32.00,32.00,100.00,0.00,0.00,0.00,29.87,M,10.00,M,M,M,M,M,M,M,M,M,M,M,M,M,M,M,M,32.00,K05U 231315Z AUTO 00000KT 10SM 00/00 A2987 RMK A01,M
MEV,2024-01-23 13:15,-119.7500,38.9963,1441.42,32.00,32.00,100.00,0.00,0.00,0.00,29.92,M,0.25,M,OVC,M,M,M,200.00,M,M,M,FG,M,M,M,M,M,M,32.00,KMEV 231315Z AUTO 00000KT M1/4SM FG OVC002 00/00 A2992 RMK AO2,M
BAM,2024-01-23 13:15,-116.8743,40.5990,1382.36,39.20,37.40,93.19,240.00,3.00,0.00,29.88,M,5.00,M,OVC,M,M,M,300.00,M,M,M,M,M,M,M,M,M,M,36.92,KBAM 231315Z AUTO 24003KT 5SM OVC003 04/03 A2988 RMK AO1,M
HTH,2024-01-23 13:15,-118.6315,38.5448,1282.89,39.20,39.20,100.00,0.00,0.00,0.00,29.91,M,10.00,M,FEW,OVC,M,M,1900.00,5500.00,M,M,M,M,M,M,M,M,M,39.20,KHTH 231315Z AUTO 00000KT 10SM FEW019 OVC055 04/04 A2991 RMK A01,M
10U,2024-01-23 13:15,-116.1876,41.9532,1637.00,33.80,32.00,93.03,0.00,0.00,0.00,29.87,M,3.00,M,OVC,M,M,M,400.00,M,M,M,UP,M,M,M,M,M,M,33.80,K10U 231315Z AUTO 00000KT 3SM UP OVC004 01/00 A2987 RMK AO2,M
TMT,2024-01-23 13:15,-117.1971,39.4643,1749.34,32.00,32.00,100.00,0.00,0.00,0.00,29.87,M,10.00,M,OVC,M,M,M,1500.00,M,M,M,M,M,M,M,M,M,M,32.00,KTMT 231315Z AUTO 00000KT 10SM OVC015 00/00 A2987 RMK AO2 T00000000,M
WMC,2024-01-23 13:16,-117.8072,40.9019,1315.00,40.00,37.00,88.92,0.00,0.00,T,29.89,M,10.00,M,FEW,BKN,OVC,M,500.00,900.00,1700.00,M,-RA,M,M,M,M,M,M,40.00,KWMC 231316Z AUTO 00000KT 10SM -RA FEW005 BKN009 OVC017 04/03 A2989 RMK AO2 P0000 T00440028,M
LOL,2024-01-23 13:20,-118.5701,40.0684,1192.43,33.00,33.00,100.00,0.00,0.00,0.00,29.90,M,0.50,M,BKN,OVC,M,M,100.00,5500.00,M,M,FG,M,M,M,M,M,M,33.00,KLOL 231320Z AUTO 00000KT 1/2SM FG BKN001 OVC055 01/01 A2990 RMK AO2 T00060006,M
HND,2024-01-23 13:23,-115.1344,35.9729,742.79,46.40,46.40,100.00,0.00,0.00,0.00,29.83,M,10.00,M,OVC,M,M,M,600.00,M,M,M,M,M,M,M,M,M,M,46.40,KHND 231323Z AUTO 00000KT 10SM OVC006 08/08 A2983 RMK AO2 CIG 004V009,M
EKO,2024-01-23 13:26,-115.7860,40.8242,1367.00,33.00,32.00,96.06,0.00,0.00,0.01,29.85,M,1.75,M,BKN,OVC,M,M,200.00,700.00,M,M,-SN BR,M,M,M,M,M,M,33.00,KEKO 231326Z AUTO 00000KT 1 3/4SM -SN BR BKN002 OVC007 01/00 A2985 RMK AO2 P0001 T00060000,M
LOL,2024-01-23 13:32,-118.5701,40.0684,1192.43,33.00,32.00,96.06,50.00,3.00,0.00,29.90,M,1.25,M,SCT,BKN,OVC,M,100.00,3200.00,6000.00,M,BR,M,M,M,M,M,M,29.83,KLOL 231332Z AUTO 05003KT 1 1/4SM BR SCT001 BKN032 OVC060 01/00 A2990 RMK AO2 T00060000,M
BVU,2024-01-23 13:35,-114.8611,35.9475,671.00,48.20,48.20,100.00,0.00,0.00,0.00,29.81,M,10.00,M,BKN,OVC,M,M,1500.00,2200.00,M,M,M,M,M,M,M,M,M,48.20,KBVU 231335Z AUTO 00000KT 10SM BKN015 OVC022 09/09 A2981 RMK AO2,M
CXP,2024-01-23 13:35,-119.7326,39.1923,1431.00,32.00,32.00,100.00,0.00,0.00,0.00,29.94,M,4.00,M,OVC,M,M,M,500.00,M,M,M,BR,M,M,M,M,M,M,32.00,KCXP 231335Z AUTO 00000KT 4SM BR OVC005 00/00 A2994 RMK AO2,M
RTS,2024-01-23 13:35,-119.8764,39.6682,1539.00,30.20,28.40,92.92,340.00,6.00,0.00,29.93,M,10.00,M,OVC,M,M,M,3000.00,M,M,M,M,M,M,M,M,M,M,23.36,KRTS 231335Z AUTO 34006KT 10SM OVC030 M01/M02 A2993 RMK AO2,M
05U,2024-01-23 13:35,-116.0051,39.6042,1811.23,32.00,32.00,100.00,0.00,0.00,0.00,29.87,M,10.00,M,M,M,M,M,M,M,M,M,M,M,M,M,M,M,M,32.00,K05U 231335Z AUTO 00000KT 10SM 00/00 A2987 RMK A01,M
MEV,2024-01-23 13:35,-119.7500,38.9963,1441.42,32.00,32.00,100.00,0.00,0.00,0.00,29.93,M,0.25,M,OVC,M,M,M,200.00,M,M,M,FG,M,M,M,M,M,M,32.00,KMEV 231335Z AUTO 00000KT M1/4SM FG OVC002 00/00 A2993 RMK AO2,M
HTH,2024-01-23 13:35,-118.6315,38.5448,1282.89,39.20,39.20,100.00,0.00,0.00,0.00,29.91,M,10.00,M,FEW,OVC,M,M,2100.00,6000.00,M,M,M,M,M,M,M,M,M,39.20,KHTH 231335Z AUTO 00000KT 10SM FEW021 OVC060 04/04 A2991 RMK A01,M
10U,2024-01-23 13:35,-116.1876,41.9532,1637.00,33.80,32.00,93.03,0.00,0.00,0.00,29.88,M,1.50,M,OVC,M,M,M,300.00,M,M,M,UP,M,M,M,M,M,M,33.80,K10U 231335Z AUTO 00000KT 1 1/2SM UP OVC003 01/00 A2988 RMK AO2,M
LSV,2024-01-23 13:35,-115.0343,36.2362,570.00,50.00,48.20,93.50,80.00,6.00,0.00,29.79,1008.30,10.00,M,BKN,BKN,M,M,1800.00,2800.00,M,M,M,M,M,M,M,M,M,50.00,KLSV 231335Z AUTO 08006KT 10SM BKN018 BKN028 10/09 A2979 RMK AO2 CIG 018V028 SLP083 $,M
BAM,2024-01-23 13:35,-116.8743,40.5990,1382.36,39.20,37.40,93.19,250.00,3.00,0.00,29.89,M,5.00,M,OVC,M,M,M,500.00,M,M,M,M,M,M,M,M,M,M,36.92,KBAM 231335Z AUTO 25003KT 5SM OVC005 04/03 A2989 RMK AO1,M
TMT,2024-01-23 13:35,-117.1971,39.4643,1749.34,32.00,32.00,100.00,0.00,0.00,0.00,29.87,M,10.00,M,OVC,M,M,M,1500.00,M,M,M,M,M,M,M,M,M,M,32.00,KTMT 231335Z AUTO 00000KT 10SM OVC015 00/00 A2987 RMK AO2 T00000000,M
LAS,2024-01-23 13:36,-115.1634,36.0719,663.00,50.00,48.00,92.80,90.00,4.00,0.00,29.81,M,10.00,M,SCT,BKN,OVC,M,600.00,1200.00,2300.00,M,M,M,M,M,M,M,M,50.00,KLAS 231336Z 09004KT 10SM SCT006 BKN012 OVC023 10/09 A2981 RMK AO2 CIG LWR SW-W MTNS OBSCURED DSNT S-W-N T01000089,M
WMC,2024-01-23 13:39,-117.8072,40.9019,1315.00,39.00,37.00,92.45,0.00,0.00,T,29.90,M,10.00,M,FEW,SCT,OVC,M,500.00,900.00,1500.00,M,M,M,M,M,M,M,M,39.00,KWMC 231339Z AUTO 00000KT 10SM FEW005 SCT009 OVC015 04/03 A2990 RMK AO2 RAE22 P0000 T00390028,M
LOL,2024-01-23 13:43,-118.5701,40.0684,1192.43,33.00,33.00,100.00,0.00,0.00,0.00,29.91,M,3.00,M,SCT,OVC,M,M,100.00,3000.00,M,M,BR,M,M,M,M,M,M,33.00,KLOL 231343Z AUTO 00000KT 3SM BR SCT001 OVC030 01/01 A2991 RMK AO2 T00060006,M
INS,2024-01-23 13:45,-115.6733,36.5872,955.00,46.40,42.80,87.19,360.00,5.00,0.00,29.82,1008.30,10.00,M,SCT,BKN,OVC,M,400.00,800.00,1600.00,M,-RA,M,M,M,M,M,M,43.50,KINS 231345Z AUTO 36005KT 10SM -RA SCT004 BKN008 OVC016 08/06 A2982 RMK AO2 CIG 004 RWY26 SLP083,M
WMC,2024-01-23 13:48,-117.8072,40.9019,1315.00,40.00,36.00,85.48,0.00,0.00,T,29.90,M,10.00,M,OVC,M,M,M,1300.00,M,M,M,M,M,M,M,M,M,M,40.00,KWMC 231348Z AUTO 00000KT 10SM OVC013 04/02 A2990 RMK AO2 RAE22 P0000 T00440022,M
INS,2024-01-23 13:50,-115.6733,36.5872,955.00,46.40,42.80,87.19,360.00,7.00,0.00,29.83,1008.90,10.00,M,BKN,OVC,M,M,600.00,1500.00,M,M,-RA,M,M,M,M,M,M,42.33,KINS 231350Z AUTO 36007KT 10SM -RA BKN006 OVC015 08/06 A2983 RMK AO2 SLP089,M
05U,2024-01-23 13:50,-116.0051,39.6042,1811.23,32.00,32.00,100.00,0.00,0.00,0.00,29.88,M,7.00,M,M,M,M,M,M,M,M,M,M,M,M,M,M,M,M,32.00,K05U 231350Z AUTO 00000KT 7SM 00/00 A2988 RMK A01,M
HTH,2024-01-23 13:50,-118.6315,38.5448,1282.89,39.20,39.20,100.00,270.00,3.00,0.00,29.92,M,10.00,M,SCT,BKN,OVC,M,2200.00,3000.00,6000.00,M,M,M,M,M,M,M,M,36.92,KHTH 231350Z AUTO 27003KT 10SM SCT022 BKN030 OVC060 04/04 A2992 RMK A01,M
10U,2024-01-23 13:50,-116.1876,41.9532,1637.00,32.00,32.00,100.00,0.00,0.00,0.00,29.88,M,1.50,M,OVC,M,M,M,300.00,M,M,M,UP,M,M,M,M,M,M,32.00,K10U 231350Z AUTO 00000KT 1 1/2SM UP OVC003 00/00 A2988 RMK AO2,M
CXP,2024-01-23 13:50,-119.7326,39.1923,1431.00,32.00,32.00,100.00,0.00,0.00,0.00,29.95,M,4.00,M,OVC,M,M,M,500.00,M,M,M,BR,M,M,M,M,M,M,32.00,KCXP 231350Z AUTO 00000KT 4SM BR OVC005 00/00 A2995 RMK AO2,M
P68,2024-01-23 13:53,-116.0056,39.6014,1993.00,32.00,32.00,100.00,0.00,0.00,0.00,29.85,1010.20,M,M,M,M,M,M,M,M,M,M,M,M,M,M,M,M,M,32.00,KP68 231353Z AUTO 00000KT 00/00 A2985 RMK AO1 SLP102 T00000000,M
DRA,2024-01-23 13:53,-116.0278,36.6206,1009.00,44.00,41.00,89.11,40.00,8.00,0.02,29.82,1008.60,10.00,M,BKN,OVC,M,M,3400.00,4400.00,M,M,-RA,M,M,M,M,M,M,38.90,KDRA 231353Z AUTO 04008KT 10SM -RA BKN034 OVC044 07/05 A2982 RMK AO2 RAE31B53 SLP086 P0002 T00670050,M
ELY,2024-01-23 13:53,-114.8453,39.2950,1909.00,31.00,29.00,92.19,180.00,3.00,T,29.84,1010.10,4.00,M,OVC,M,M,M,5500.00,M,M,M,-SN BR,M,M,M,M,M,M,27.55,KELY 231353Z AUTO 18003KT 4SM -SN BR OVC055 M01/M02 A2984 RMK AO2 SNB1255 SLP101 P0000 T10061017,M
VGT,2024-01-23 13:53,-115.1933,36.2111,667.00,50.00,47.00,89.37,0.00,0.00,0.00,29.81,1011.20,10.00,M,OVC,M,M,M,2000.00,M,M,M,M,M,M,M,M,M,M,50.00,KVGT 231353Z 00000KT 10SM OVC020 10/08 A2981 RMK AO2 SLP112 T01000083,M
LOL,2024-01-23 13:53,-118.5701,40.0684,1192.43,31.00,31.00,100.00,0.00,0.00,0.00,29.91,1013.80,2.50,M,OVC,M,M,M,2900.00,M,M,M,BR,M,M,M,M,M,M,31.00,KLOL 231353Z AUTO 00000KT 2 1/2SM BR OVC029 M01/M01 A2991 RMK AO2 SLP138 T10061006,M
EKO,2024-01-23 13:54,-115.7860,40.8242,1367.00,33.80,30.20,86.49,0.00,0.00,M,29.86,M,2.00,M,BKN,OVC,M,M,400.00,1499.00,M,M,-SN BR,M,M,M,M,M,M,33.80,SPECI KEKO 231354Z 00000KT 2SM -SN BR BKN004 OVC015 01/M01 A2986 RMK AO2 P0002 FIBI,M
BVU,2024-01-23 13:55,-114.8611,35.9475,671.00,48.20,48.20,100.00,0.00,0.00,0.00,29.81,M,10.00,M,OVC,M,M,M,1400.00,M,M,M,M,M,M,M,M,M,M,48.20,KBVU 231355Z AUTO 00000KT 10SM OVC014 09/09 A2981 RMK AO2,M
INS,2024-01-23 13:55,-115.6733,36.5872,955.00,45.70,42.60,88.84,360.00,6.00,0.05,29.83,1008.90,10.00,M,BKN,OVC,M,M,600.00,1500.00,M,M,-RA,M,M,M,M,M,M,42.03,KINS 231355Z AUTO 36006KT 10SM -RA BKN006 OVC015 08/06 A2983 RMK AO2 SLP089 P0005 T00760059,M
RNO,2024-01-23 13:55,-119.7711,39.4839,1341.00,33.00,31.00,92.25,0.00,0.00,0.00,29.93,1013.20,10.00,M,SCT,M,M,M,3700.00,M,M,M,M,M,M,M,M,M,M,33.00,KRNO 231355Z 00000KT 10SM SCT037 01/M01 A2993 RMK AO2 SLP132 T00061006,M
RTS,2024-01-23 13:55,-119.8764,39.6682,1539.00,30.20,30.20,100.00,360.00,3.00,0.00,29.93,M,10.00,M,OVC,M,M,M,2800.00,M,M,M,M,M,M,M,M,M,M,26.63,KRTS 231355Z AUTO 36003KT 10SM OVC028 M01/M01 A2993 RMK AO2,M
MEV,2024-01-23 13:55,-119.7500,38.9963,1441.42,32.00,32.00,100.00,0.00,0.00,0.00,29.93,M,0.25,M,OVC,M,M,M,200.00,M,M,M,FZFG,M,M,M,M,M,M,32.00,KMEV 231355Z AUTO 00000KT M1/4SM FZFG OVC002 M00/M00 A2993 RMK AO2,M
BAM,2024-01-23 13:55,-116.8743,40.5990,1382.36,39.20,37.40,93.19,250.00,3.00,0.00,29.89,M,10.00,M,SCT,OVC,M,M,400.00,900.00,M,M,M,M,M,M,M,M,M,36.92,KBAM 231355Z AUTO 25003KT 10SM SCT004 OVC009 04/03 A2989 RMK AO1,M
TMT,2024-01-23 13:55,-117.1971,39.4643,1749.34,32.00,32.00,100.00,0.00,0.00,0.00,29.87,M,10.00,M,OVC,M,M,M,1500.00,M,M,M,-RA,M,M,M,M,M,M,32.00,KTMT 231355Z AUTO 00000KT 10SM -RA OVC015 00/00 A2987 RMK AO2 T00000000,M
LSV,2024-01-23 13:55,-115.0343,36.2362,570.00,50.00,48.00,92.80,80.00,8.00,0.00,29.80,1008.70,10.00,M,OVC,M,M,M,1900.00,M,M,M,M,M,M,M,M,M,M,50.00,KLSV 231355Z AUTO 08008KT 10SM OVC019 10/09 A2980 RMK AO2 OVC V BKN SLP087 T01000089 $,M
EKO,2024-01-23 13:56,-115.7860,40.8242,1367.00,33.00,31.00,92.25,0.00,0.00,0.02,29.86,1012.00,2.00,M,BKN,OVC,M,M,400.00,1500.00,M,M,-SN BR,M,M,M,M,M,M,33.00,KEKO 231356Z AUTO 00000KT 2SM -SN BR BKN004 OVC015 01/M01 A2986 RMK AO2 SLP120 P0002 T00061006,M
NFL,2024-01-23 13:56,-118.7010,39.4166,1199.00,41.00,39.00,92.52,0.00,0.00,0.00,29.90,1010.00,4.00,M,OVC,M,M,M,4900.00,M,M,M,BR,M,M,M,M,M,M,41.00,KNFL 231356Z AUTO 00000KT 4SM BR OVC049 05/04 A2990 RMK AO2 SLP100 T00500039,M
HND,2024-01-23 13:56,-115.1344,35.9729,742.79,47.00,46.00,96.29,0.00,0.00,0.00,29.83,1011.90,9.00,M,OVC,M,M,M,800.00,M,M,M,M,M,M,M,M,M,M,47.00,KHND 231356Z AUTO 00000KT 9SM OVC008 08/08 A2983 RMK AO2 CIG 006V010 SLP119 T00830078,M
TPH,2024-01-23 13:56,-117.0904,38.0505,1654.00,37.00,34.00,88.78,10.00,14.00,0.00,29.85,1010.90,10.00,25.00,OVC,M,M,M,1300.00,M,M,M,M,M,M,M,M,M,M,27.61,KTPH 231356Z AUTO 01014G25KT 10SM OVC013 03/01 A2985 RMK AO2 SLP109 T00280011,M
LAS,2024-01-23 13:56,-115.1634,36.0719,663.00,50.00,48.00,92.80,90.00,6.00,0.00,29.82,1009.30,10.00,M,SCT,OVC,M,M,900.00,1800.00,M,M,M,M,M,M,M,M,M,50.00,KLAS 231356Z 09006KT 10SM SCT009 OVC018 10/09 A2982 RMK AO2 SLP093 T01000089,M
WMC,2024-01-23 13:56,-117.8072,40.9019,1315.00,40.00,37.00,88.92,0.00,0.00,T,29.90,1012.40,10.00,M,BKN,OVC,M,M,1300.00,1700.00,M,M,M,M,M,M,M,M,M,40.00,KWMC 231356Z AUTO 00000KT 10SM BKN013 OVC017 04/03 A2990 RMK AO2 RAE22 SLP124 P0000 T00440028,M
LOL,2024-01-23 14:02,-118.5701,40.0684,1192.43,31.00,31.00,100.00,0.00,0.00,0.00,29.91,M,1.75,M,FEW,OVC,M,M,100.00,2900.00,M,M,BR,M,M,M,M,M,M,31.00,KLOL 231402Z AUTO 00000KT 1 3/4SM BR FEW001 OVC029 M01/M01 A2991 RMK AO2 T10061006,M
LSV,2024-01-23 14:05,-115.0343,36.2362,570.00,50.00,48.20,93.50,70.00,7.00,0.00,29.80,1008.70,10.00,M,BKN,M,M,M,2100.00,M,M,M,M,M,M,M,M,M,M,50.00,KLSV 231405Z AUTO 07007KT 10SM BKN021 10/09 A2980 RMK AO2 BKN V OVC SLP087 $,M
CXP,2024-01-23 14:10,-119.7326,39.1923,1431.00,32.00,32.00,100.00,0.00,0.00,0.00,29.95,M,5.00,M,OVC,M,M,M,400.00,M,M,M,BR,M,M,M,M,M,M,32.00,KCXP 231410Z AUTO 00000KT 5SM BR OVC004 00/00 A2995 RMK AO2,M
INS,2024-01-23 14:10,-115.6733,36.5872,955.00,44.60,42.80,93.35,360.00,5.00,0.00,29.83,1008.90,10.00,M,OVC,M,M,M,700.00,M,M,M,-RA,M,M,M,M,M,M,41.36,KINS 231410Z AUTO 36005KT 10SM -RA OVC007 07/06 A2983 RMK AO2 SLP089,M
05U,2024-01-23 14:10,-116.0051,39.6042,1811.23,32.00,32.00,100.00,0.00,0.00,0.00,29.88,M,6.00,M,M,M,M,M,M,M,M,M,BR,M,M,M,M,M,M,32.00,K05U 231410Z AUTO 00000KT 6SM BR 00/00 A2988 RMK A01,M
HTH,2024-01-23 14:10,-118.6315,38.5448,1282.89,39.20,39.20,100.00,270.00,4.00,0.00,29.92,M,10.00,M,FEW,BKN,OVC,M,2100.00,3100.00,5500.00,M,M,M,M,M,M,M,M,35.83,KHTH 231410Z AUTO 27004KT 10SM FEW021 BKN031 OVC055 04/04 A2992 RMK A01,M
10U,2024-01-23 14:10,-116.1876,41.9532,1637.00,33.80,32.00,93.03,0.00,0.00,0.00,29.89,M,1.50,M,OVC,M,M,M,300.00,M,M,M,UP,M,M,M,M,M,M,33.80,K10U 231410Z AUTO 00000KT 1 1/2SM UP OVC003 01/00 A2989 RMK AO2,M
LOL,2024-01-23 14:14,-118.5701,40.0684,1192.43,32.00,32.00,100.00,0.00,0.00,0.00,29.91,M,3.00,M,BKN,OVC,M,M,100.00,3000.00,M,M,BR,M,M,M,M,M,M,32.00,KLOL 231414Z AUTO 00000KT 3SM BR BKN001 OVC030 00/00 A2991 RMK AO2 T00000000,M
BVU,2024-01-23 14:15,-114.8611,35.9475,671.00,48.20,48.20,100.00,0.00,0.00,0.00,29.82,M,10.00,M,OVC,M,M,M,1700.00,M,M,M,M,M,M,M,M,M,M,48.20,KBVU 231415Z AUTO 00000KT 10SM OVC017 09/09 A2982 RMK AO2,M
RTS,2024-01-23 14:15,-119.8764,39.6682,1539.00,30.20,28.40,92.92,0.00,0.00,0.00,29.93,M,10.00,M,FEW,M,M,M,2900.00,M,M,M,M,M,M,M,M,M,M,30.20,KRTS 231415Z AUTO 00000KT 10SM FEW029 M01/M02 A2993 RMK AO2,M
MEV,2024-01-23 14:15,-119.7500,38.9963,1441.42,32.00,32.00,100.00,0.00,0.00,0.00,29.94,M,0.25,M,OVC,M,M,M,200.00,M,M,M,FZFG,M,M,M,M,M,M,32.00,KMEV 231415Z AUTO 00000KT 1/4SM FZFG OVC002 M00/M00 A2994 RMK AO2,M
BAM,2024-01-23 14:15,-116.8743,40.5990,1382.36,39.20,37.40,93.19,250.00,4.00,0.00,29.91,M,7.00,M,OVC,M,M,M,1100.00,M,M,M,M,M,M,M,M,M,M,35.83,KBAM 231415Z AUTO 25004KT 7SM OVC011 04/03 A2991 RMK AO1,M
TMT,2024-01-23 14:15,-117.1971,39.4643,1749.34,32.00,32.00,100.00,0.00,0.00,0.00,29.87,M,7.00,M,OVC,M,M,M,1500.00,M,M,M,M,M,M,M,M,M,M,32.00,KTMT 231415Z AUTO 00000KT 7SM OVC015 00/00 A2987 RMK AO2 T00000000,M
EKO,2024-01-23 14:17,-115.7860,40.8242,1367.00,33.00,31.00,92.25,240.00,3.00,T,29.86,M,2.00,M,BKN,OVC,M,M,600.00,1500.00,M,M,-SN BR,M,M,M,M,M,M,29.83,KEKO 231417Z AUTO 24003KT 2SM -SN BR BKN006 OVC015 01/M01 A2986 RMK AO2 CIG 002V010 P0000 T00061006,M
INS,2024-01-23 14:20,-115.6733,36.5872,955.00,46.40,42.80,87.19,10.00,4.00,0.00,29.83,1008.90,10.00,M,OVC,M,M,M,600.00,M,M,M,-RA,M,M,M,M,M,M,44.24,KINS 231420Z AUTO 01004KT 10SM -RA OVC006 08/06 A2983 RMK AO2 SLP089,M
LOL,2024-01-23 14:22,-118.5701,40.0684,1192.43,32.00,32.00,100.00,260.00,3.00,0.00,29.91,M,5.00,M,BKN,OVC,M,M,200.00,3000.00,M,M,BR,M,M,M,M,M,M,28.69,KLOL 231422Z AUTO 26003KT 5SM BR BKN002 OVC030 00/00 A2991 RMK AO2 T00000000,M
TPH,2024-01-23 14:23,-117.0904,38.0505,1654.00,35.00,32.00,88.68,10.00,7.00,0.00,29.86,M,10.00,23.00,SCT,BKN,M,M,1400.00,12000.00,M,M,M,M,M,M,26.00,360.00,2024-01-23 13:57,28.44,KTPH 231423Z AUTO 01007G23KT 10SM SCT014 BKN120 02/00 A2986 RMK AO2 PK WND 36026/1357 T00170000,M
LOL,2024-01-23 14:26,-118.5701,40.0684,1192.43,32.00,32.00,100.00,290.00,4.00,0.00,29.92,M,1.50,M,BKN,OVC,M,M,200.00,3000.00,M,M,BR,M,M,M,M,M,M,27.42,KLOL 231426Z AUTO 29004KT 1 1/2SM BR BKN002 OVC030 00/00 A2992 RMK AO2 T00000000,M
LAS,2024-01-23 14:28,-115.1634,36.0719,663.00,50.00,48.00,92.80,80.00,5.00,0.00,29.83,M,8.00,M,FEW,BKN,OVC,M,500.00,900.00,1800.00,M,M,M,M,M,M,M,M,50.00,KLAS 231428Z 08005KT 8SM FEW005 BKN009 OVC018 10/09 A2983 RMK AO2 T01000089,M
ELY,2024-01-23 14:29,-114.8453,39.2950,1909.00,30.00,29.00,96.00,190.00,3.00,T,29.85,M,4.00,M,SCT,BKN,OVC,M,900.00,1300.00,7500.00,M,-SN BR,M,M,M,M,M,M,26.40,KELY 231429Z AUTO 19003KT 4SM -SN BR SCT009 BKN013 OVC075 M01/M02 A2985 RMK AO2 P0000 T10111017,M
CXP,2024-01-23 14:30,-119.7326,39.1923,1431.00,32.00,32.00,100.00,0.00,0.00,0.00,29.95,M,6.00,M,OVC,M,M,M,300.00,M,M,M,BR,M,M,M,M,M,M,32.00,KCXP 231430Z AUTO 00000KT 6SM BR OVC003 00/00 A2995 RMK AO2,M
EKO,2024-01-23 14:30,-115.7860,40.8242,1367.00,33.00,31.00,92.25,240.00,3.00,0.01,29.87,M,1.75,M,BKN,OVC,M,M,400.00,800.00,M,M,-SN BR,M,M,M,M,M,M,29.83,KEKO 231430Z AUTO 24003KT 1 3/4SM -SN BR BKN004 OVC008 01/M01 A2987 RMK AO2 P0001 T00061006,M
05U,2024-01-23 14:30,-116.0051,39.6042,1811.23,32.00,32.00,100.00,0.00,0.00,0.00,29.89,M,2.00,M,M,M,M,M,M,M,M,M,BR,M,M,M,M,M,M,32.00,K05U 231430Z AUTO 00000KT 2SM BR 00/00 A2989 RMK A01,M
10U,2024-01-23 14:30,-116.1876,41.9532,1637.00,33.80,32.00,93.03,0.00,0.00,0.00,29.89,M,1.50,M,OVC,M,M,M,300.00,M,M,M,UP,M,M,M,M,M,M,33.80,K10U 231430Z AUTO 00000KT 1 1/2SM UP OVC003 01/00 A2989 RMK AO2,M
LSV,2024-01-23 14:32,-115.0343,36.2362,570.00,50.00,48.20,93.50,50.00,8.00,0.00,29.81,1009.00,8.00,M,BKN,M,M,M,2300.00,M,M,M,-RA,M,M,M,M,M,M,50.00,KLSV 231432Z AUTO 05008KT 8SM -RA BKN023 10/09 A2981 RMK AO2 RAB32 SLP090 $,M
LOL,2024-01-23 14:34,-118.5701,40.0684,1192.43,32.00,32.00,100.00,0.00,0.00,0.00,29.92,M,0.50,M,BKN,OVC,M,M,200.00,3200.00,M,M,FG,M,M,M,M,M,M,32.00,KLOL 231434Z AUTO 00000KT 1/2SM FG BKN002 OVC032 00/00 A2992 RMK AO2 T00000000,M
BVU,2024-01-23 14:35,-114.8611,35.9475,671.00,48.20,48.20,100.00,0.00,0.00,0.00,29.83,M,10.00,M,OVC,M,M,M,2100.00,M,M,M,M,M,M,M,M,M,M,48.20,KBVU 231435Z AUTO 00000KT 10SM OVC021 09/09 A2983 RMK AO2,M
NFL,2024-01-23 14:35,-118.7010,39.4166,1199.00,40.00,38.00,92.49,0.00,0.00,0.00,29.92,M,6.00,M,BKN,BKN,M,M,5000.00,10000.00,M,M,BR,M,M,M,M,M,M,40.00,KNFL 231435Z 00000KT 6SM BR BKN050 BKN100 04/03 A2992 RMK AO2 T00440033,M
RTS,2024-01-23 14:35,-119.8764,39.6682,1539.00,28.40,26.60,92.86,340.00,5.00,0.00,29.94,M,10.00,M,BKN,M,M,M,3200.00,M,M,M,M,M,M,M,M,M,M,22.12,KRTS 231435Z AUTO 34005KT 10SM BKN032 M02/M03 A2994 RMK AO2,M
MEV,2024-01-23 14:35,-119.7500,38.9963,1441.42,32.00,32.00,100.00,250.00,4.00,0.00,29.94,M,0.25,M,OVC,M,M,M,200.00,M,M,M,FZFG,M,M,M,M,M,M,27.42,KMEV 231435Z AUTO 25004KT M1/4SM FZFG OVC002 M00/M00 A2994 RMK AO2,M
BAM,2024-01-23 14:35,-116.8743,40.5990,1382.36,39.20,37.40,93.19,250.00,4.00,0.00,29.91,M,7.00,M,OVC,M,M,M,1100.00,M,M,M,M,M,M,M,M,M,M,35.83,KBAM 231435Z AUTO 25004KT 7SM OVC011 04/03 A2991 RMK AO1,M
HTH,2024-01-23 14:35,-118.6315,38.5448,1282.89,39.20,39.20,100.00,250.00,5.00,0.00,29.93,M,10.00,M,OVC,M,M,M,5000.00,M,M,M,M,M,M,M,M,M,M,34.95,KHTH 231435Z AUTO 25005KT 10SM OVC050 04/04 A2993 RMK A01,M
TMT,2024-01-23 14:35,-117.1971,39.4643,1749.34,32.00,32.00,100.00,0.00,0.00,0.00,29.87,M,10.00,M,OVC,M,M,M,1500.00,M,M,M,M,M,M,M,M,M,M,32.00,KTMT 231435Z AUTO 00000KT 10SM OVC015 00/00 A2987 RMK AO2 T00000000,M
ELY,2024-01-23 14:37,-114.8453,39.2950,1909.00,30.00,29.00,96.00,190.00,3.00,T,29.85,M,3.00,M,BKN,BKN,OVC,M,800.00,1300.00,5500.00,M,-SN BR,M,M,M,M,M,M,26.40,KELY 231437Z AUTO 19003KT 3SM -SN BR BKN008 BKN013 OVC055 M01/M02 A2985 RMK AO2 P0000 T10111017,M
EKO,2024-01-23 14:40,-115.7860,40.8242,1367.00,33.00,31.00,92.25,240.00,3.00,0.01,29.87,M,1.50,M,OVC,M,M,M,600.00,M,M,M,-SN BR,M,M,M,M,M,M,29.83,KEKO 231440Z AUTO 24003KT 1 1/2SM -SN BR OVC006 01/M01 A2987 RMK AO2 P0001 T00061006,M
LSV,2024-01-23 14:42,-115.0343,36.2362,570.00,50.00,48.20,93.50,50.00,8.00,0.00,29.81,1009.00,5.00,M,SCT,M,M,M,2300.00,M,M,M,-RA BR,M,M,M,M,M,M,50.00,KLSV 231442Z AUTO 05008KT 5SM -RA BR SCT023 10/09 A2981 RMK AO2 RAB32 SLP090 $,M
05U,2024-01-23 14:45,-116.0051,39.6042,1811.23,32.00,32.00,100.00,0.00,0.00,0.00,29.89,M,1.75,M,M,M,M,M,M,M,M,M,BR,M,M,M,M,M,M,32.00,K05U 231445Z AUTO 00000KT 1 3/4SM BR 00/00 A2989 RMK A01,M
HND,2024-01-23 14:47,-115.1344,35.9729,742.79,46.40,46.40,100.00,0.00,0.00,0.00,29.85,M,8.00,M,BKN,OVC,M,M,500.00,1000.00,M,M,M,M,M,M,M,M,M,46.40,KHND 231447Z 00000KT 8SM BKN005 OVC010 08/08 A2985 RMK AO2,M
VGT,2024-01-23 14:50,-115.1933,36.2111,667.00,50.00,46.40,87.37,0.00,0.00,0.00,29.83,M,10.00,M,FEW,BKN,OVC,M,900.00,1300.00,2200.00,M,M,M,M,M,M,M,M,50.00,KVGT 231450Z 00000KT 10SM FEW009 BKN013 OVC022 10/08 A2983 RMK AO2,M
LOL,2024-01-23 14:50,-118.5701,40.0684,1192.43,32.00,32.00,100.00,0.00,0.00,0.00,29.92,M,0.25,M,BKN,OVC,M,M,200.00,3400.00,M,M,FG,M,M,M,M,M,M,32.00,KLOL 231450Z AUTO 00000KT 1/4SM FG BKN002 OVC034 00/00 A2992 RMK AO2,M
10U,2024-01-23 14:50,-116.1876,41.9532,1637.00,32.00,32.00,100.00,0.00,0.00,0.00,29.90,M,1.50,M,OVC,M,M,M,300.00,M,M,M,-SN,M,M,M,M,M,M,32.00,K10U 231450Z AUTO 00000KT 1 1/2SM -SN OVC003 00/00 A2990 RMK AO2,M
EKO,2024-01-23 14:51,-115.7860,40.8242,1367.00,32.00,30.20,92.97,240.00,3.00,0.01,29.87,M,1.50,M,BKN,BKN,OVC,M,300.00,700.00,2200.00,M,-SN BR,M,M,M,M,M,M,28.69,KEKO 231451Z AUTO 24003KT 1 1/2SM -SN BR BKN003 BKN007 OVC022 00/M01 A2987 RMK AO2 P0001,M
DRA,2024-01-23 14:53,-116.0278,36.6206,1009.00,44.00,41.00,89.11,40.00,8.00,T,29.83,1009.00,10.00,M,OVC,M,M,M,4800.00,M,M,M,M,M,M,M,M,M,M,38.90,KDRA 231453Z AUTO 04008KT 10SM OVC048 07/05 A2983 RMK AO2 RAE13 SLP090 P0000 60008 T00670050 53010,M
ELY,2024-01-23 14:53,-114.8453,39.2950,1909.00,31.00,29.00,92.19,190.00,3.00,T,29.85,1010.60,2.00,M,BKN,OVC,M,M,800.00,3100.00,M,M,-SN BR,M,M,M,M,M,M,27.55,KELY 231453Z AUTO 19003KT 2SM -SN BR BKN008 OVC031 M01/M02 A2985 RMK AO2 SLP106 P0000 60000 T10061017 53008,M
VGT,2024-01-23 14:53,-115.1933,36.2111,667.00,50.00,47.00,89.37,80.00,3.00,0.00,29.83,1011.80,10.00,M,FEW,BKN,OVC,M,900.00,1300.00,2200.00,M,M,M,M,M,M,M,M,50.00,KVGT 231453Z 08003KT 10SM FEW009 BKN013 OVC022 10/08 A2983 RMK AO2 SLP118 60000 T01000083 53010,M
LOL,2024-01-23 14:53,-118.5701,40.0684,1192.43,32.00,32.00,100.00,0.00,0.00,0.00,29.92,1014.30,0.25,M,SCT,OVC,M,M,200.00,3400.00,M,M,FG,M,M,M,M,M,M,32.00,KLOL 231453Z AUTO 00000KT 1/4SM FG SCT002 OVC034 00/00 A2992 RMK AO2 SLP143 T00000000 51009,M
BVU,2024-01-23 14:55,-114.8611,35.9475,671.00,48.20,48.20,100.00,0.00,0.00,0.00,29.83,M,10.00,M,OVC,M,M,M,2200.00,M,M,M,M,M,M,M,M,M,M,48.20,KBVU 231455Z AUTO 00000KT 10SM OVC022 09/09 A2983 RMK AO2,M
CXP,2024-01-23 14:55,-119.7326,39.1923,1431.00,33.80,33.80,100.00,0.00,0.00,0.00,29.96,M,8.00,M,OVC,M,M,M,300.00,M,M,M,M,M,M,M,M,M,M,33.80,KCXP 231455Z AUTO 00000KT 8SM OVC003 01/01 A2996 RMK AO2,M
INS,2024-01-23 14:55,-115.6733,36.5872,955.00,45.30,42.80,90.89,30.00,3.00,0.02,29.84,1009.20,9.00,M,OVC,M,M,M,500.00,M,M,M,-RA,M,M,M,M,M,M,43.89,KINS 231455Z AUTO 03003KT 9SM -RA OVC005 07/06 A2984 RMK AO2 SLP092 P0002 60010 T00740060 52014,M
RNO,2024-01-23 14:55,-119.7711,39.4839,1341.00,35.00,32.00,88.68,0.00,0.00,0.00,29.95,1013.60,10.00,M,BKN,M,M,M,3800.00,M,M,M,M,M,M,M,M,M,M,35.00,KRNO 231455Z 00000KT 10SM BKN038 02/00 A2995 RMK AO2 SLP136 T00170000 53013,M
RTS,2024-01-23 14:55,-119.8764,39.6682,1539.00,30.20,28.40,92.92,40.00,3.00,0.00,29.94,M,10.00,M,BKN,M,M,M,3100.00,M,M,M,M,M,M,M,M,M,M,26.63,KRTS 231455Z AUTO 04003KT 10SM BKN031 M01/M02 A2994 RMK AO2,M
MEV,2024-01-23 14:55,-119.7500,38.9963,1441.42,32.00,32.00,100.00,0.00,0.00,0.00,29.95,M,0.25,M,OVC,M,M,M,200.00,M,M,M,FG,M,M,M,M,M,M,32.00,KMEV 231455Z AUTO 00000KT M1/4SM FG OVC002 00/00 A2995 RMK AO2,M
BAM,2024-01-23 14:55,-116.8743,40.5990,1382.36,39.20,37.40,93.19,260.00,3.00,0.00,29.91,M,4.00,M,OVC,M,M,M,700.00,M,M,M,M,M,M,M,M,M,M,36.92,KBAM 231455Z AUTO 26003KT 4SM OVC007 04/03 A2991 RMK AO1,M
HTH,2024-01-23 14:55,-118.6315,38.5448,1282.89,39.20,39.20,100.00,280.00,3.00,0.00,29.93,M,10.00,M,BKN,M,M,M,5000.00,M,M,M,M,M,M,M,M,M,M,36.92,KHTH 231455Z AUTO 28003KT 10SM BKN050 04/04 A2993 RMK A01,M
TMT,2024-01-23 14:55,-117.1971,39.4643,1749.34,32.00,32.00,100.00,0.00,0.00,0.00,29.87,M,7.00,M,OVC,M,M,M,1500.00,M,M,M,-RA,M,M,M,M,M,M,32.00,KTMT 231455Z AUTO 00000KT 7SM -RA OVC015 00/00 A2987 RMK AO2 T00000000,M
LSV,2024-01-23 14:55,-115.0343,36.2362,570.00,50.00,48.00,92.80,50.00,8.00,T,29.81,1009.00,5.00,M,FEW,M,M,M,2000.00,M,M,M,-RA BR,M,M,M,M,M,M,50.00,KLSV 231455Z AUTO 05008KT 5SM -RA BR FEW020 10/09 A2981 RMK AO2 RAB32 SLP090 P0000 60000 T01000089 52014 $,M
EKO,2024-01-23 14:56,-115.7860,40.8242,1367.00,33.00,31.00,92.25,240.00,4.00,0.01,29.87,1012.40,1.75,M,BKN,OVC,M,M,300.00,1200.00,M,M,-SN BR,M,M,M,M,M,M,28.59,KEKO 231456Z AUTO 24004KT 1 3/4SM -SN BR BKN003 OVC012 01/M01 A2987 RMK AO2 SLP124 P0001 60005 T00061006 53004,M
NFL,2024-01-23 14:56,-118.7010,39.4166,1199.00,40.00,39.00,96.18,0.00,0.00,0.00,29.92,1010.70,5.00,M,FEW,SCT,BKN,M,4000.00,5000.00,10000.00,M,BR,M,M,M,M,M,M,40.00,KNFL 231456Z 00000KT 5SM BR FEW040 SCT050 BKN100 04/04 A2992 RMK AO2 SLP107 T00440039 53011,M
HND,2024-01-23 14:56,-115.1344,35.9729,742.79,48.00,46.00,92.74,0.00,0.00,0.00,29.85,1012.50,7.00,M,OVC,M,M,M,600.00,M,M,M,M,M,M,M,M,M,M,48.00,KHND 231456Z 00000KT 7SM OVC006 09/08 A2985 RMK AO2 CIG 005V010 SLP125 T00890078 53012,M
TPH,2024-01-23 14:56,-117.0904,38.0505,1654.00,34.00,32.00,92.29,350.00,9.00,0.00,29.87,1011.90,10.00,M,SCT,BKN,M,M,1600.00,11000.00,M,M,M,M,M,M,26.00,360.00,2024-01-23 13:57,26.00,KTPH 231456Z AUTO 35009KT 10SM SCT016 BKN110 01/00 A2987 RMK AO2 PK WND 36026/1357 SLP119 T00110000 53011,M
LAS,2024-01-23 14:56,-115.1634,36.0719,663.00,49.00,48.00,96.32,80.00,6.00,0.00,29.84,1010.00,4.00,M,SCT,BKN,OVC,M,400.00,800.00,1800.00,M,BR,M,M,M,M,M,M,46.00,KLAS 231456Z 08006KT 4SM BR SCT004 BKN008 OVC018 09/09 A2984 RMK AO2 SLP100 VIS LWR E-SE T00940089 53011,M
WMC,2024-01-23 14:56,-117.8072,40.9019,1315.00,40.00,36.00,85.48,0.00,0.00,0.00,29.92,1012.90,10.00,M,OVC,M,M,M,1100.00,M,M,M,M,M,M,M,M,M,M,40.00,KWMC 231456Z AUTO 00000KT 10SM OVC011 04/02 A2992 RMK AO2 SLP129 60001 T00440022 51015,M
HND,2024-01-23 14:58,-115.1344,35.9729,742.79,48.20,46.40,93.45,0.00,0.00,0.00,29.85,M,7.00,M,BKN,OVC,M,M,500.00,1000.00,M,M,M,M,M,M,M,M,M,48.20,KHND 231458Z 00000KT 7SM BKN005 OVC010 09/08 A2985 RMK IM,M
ELY,2024-01-23 15:01,-114.8453,39.2950,1909.00,31.00,29.00,92.19,170.00,3.00,0.01,29.86,M,1.75,M,SCT,OVC,M,M,800.00,3300.00,M,M,-SN BR,M,M,M,M,M,M,27.55,KELY 231501Z AUTO 17003KT 1 3/4SM -SN BR SCT008 OVC033 M01/M02 A2986 RMK AO2 P0001 T10061017,M
LSV,2024-01-23 15:03,-115.0343,36.2362,570.00,50.00,48.20,93.50,50.00,8.00,0.00,29.81,1009.00,7.00,M,CLR,M,M,M,M,M,M,M,M,M,M,M,M,M,M,50.00,KLSV 231503Z AUTO 05008KT 7SM CLR 10/09 A2981 RMK AO2 RAE03 SLP090 $,M
EKO,2024-01-23 15:05,-115.7860,40.8242,1367.00,33.00,31.00,92.25,230.00,3.00,T,29.87,M,2.50,M,BKN,OVC,M,M,300.00,1900.00,M,M,-SN BR,M,M,M,M,M,M,29.83,KEKO 231505Z AUTO 23003KT 2 1/2SM -SN BR BKN003 OVC019 01/M01 A2987 RMK AO2 P0000 T00061006,M
INS,2024-01-23 15:10,-115.6733,36.5872,955.00,44.60,42.80,93.35,0.00,0.00,0.00,29.85,1009.50,10.00,M,SCT,OVC,M,M,500.00,1300.00,M,M,-RA,M,M,M,M,M,M,44.60,KINS 231510Z AUTO 00000KT 10SM -RA SCT005 OVC013 07/06 A2985 RMK AO2 SLP095,M
LSV,2024-01-23 15:14,-115.0343,36.2362,570.00,50.00,48.20,93.50,50.00,7.00,0.00,29.82,1009.40,6.00,M,BKN,M,M,M,2500.00,M,M,M,-RA,M,M,M,M,M,M,50.00,KLSV 231514Z 05007KT 6SM -RA BKN025 10/09 A2982 RMK RAE03RAB09 SLP094 $,M
BVU,2024-01-23 15:15,-114.8611,35.9475,671.00,48.20,48.20,100.00,0.00,0.00,0.00,29.84,M,10.00,M,FEW,OVC,M,M,1100.00,2400.00,M,M,M,M,M,M,M,M,M,48.20,KBVU 231515Z AUTO 00000KT 10SM FEW011 OVC024 09/09 A2984 RMK AO2,M
CXP,2024-01-23 15:15,-119.7326,39.1923,1431.00,33.80,33.80,100.00,0.00,0.00,0.00,29.97,M,3.00,M,OVC,M,M,M,300.00,M,M,M,BR,M,M,M,M,M,M,33.80,KCXP 231515Z AUTO 00000KT 3SM BR OVC003 01/01 A2997 RMK AO2,M
ELY,2024-01-23 15:15,-114.8453,39.2950,1909.00,31.00,30.00,96.02,0.00,0.00,0.01,29.86,M,2.50,M,FEW,BKN,OVC,M,800.00,3700.00,4800.00,M,-SN BR,M,M,M,M,M,M,31.00,KELY 231515Z AUTO 00000KT 2 1/2SM -SN BR FEW008 BKN037 OVC048 M01/M01 A2986 RMK AO2 P0001 T10061011,M
LOL,2024-01-23 15:15,-118.5701,40.0684,1192.43,32.00,32.00,100.00,0.00,0.00,0.00,29.93,M,0.25,M,BKN,BKN,OVC,M,200.00,3400.00,4600.00,M,FG,M,M,M,M,M,M,32.00,KLOL 231515Z AUTO 00000KT 1/4SM FG BKN002 BKN034 OVC046 00/00 A2993 RMK AO2 T00000000,M
RTS,2024-01-23 15:15,-119.8764,39.6682,1539.00,30.20,30.20,100.00,340.00,5.00,0.00,29.95,M,10.00,M,SCT,M,M,M,3100.00,M,M,M,M,M,M,M,M,M,M,24.26,KRTS 231515Z AUTO 34005KT 10SM SCT031 M01/M01 A2995 RMK AO2,M
05U,2024-01-23 15:15,-116.0051,39.6042,1811.23,32.00,32.00,100.00,0.00,0.00,0.00,29.90,M,2.50,M,M,M,M,M,M,M,M,M,BR,M,M,M,M,M,M,32.00,K05U 231515Z AUTO 00000KT 2 1/2SM BR 00/00 A2990 RMK A01,M
MEV,2024-01-23 15:15,-119.7500,38.9963,1441.42,32.00,32.00,100.00,0.00,0.00,0.00,29.96,M,0.25,M,OVC,M,M,M,200.00,M,M,M,FG,M,M,M,M,M,M,32.00,KMEV 231515Z AUTO 00000KT M1/4SM FG OVC002 00/00 A2996 RMK AO2,M
BAM,2024-01-23 15:15,-116.8743,40.5990,1382.36,39.20,37.40,93.19,0.00,0.00,0.00,29.92,M,4.00,M,OVC,M,M,M,700.00,M,M,M,M,M,M,M,M,M,M,39.20,KBAM 231515Z AUTO 00000KT 4SM OVC007 04/03 A2992 RMK AO1,M
HTH,2024-01-23 15:15,-118.6315,38.5448,1282.89,35.60,35.60,100.00,100.00,4.00,0.00,29.94,M,10.00,M,BKN,M,M,M,4800.00,M,M,M,M,M,M,M,M,M,M,31.62,KHTH 231515Z AUTO 10004KT 10SM BKN048 02/02 A2994 RMK A01,M
10U,2024-01-23 15:15,-116.1876,41.9532,1637.00,33.80,32.00,93.03,0.00,0.00,0.00,29.90,M,1.25,M,OVC,M,M,M,400.00,M,M,M,UP,M,M,M,M,M,M,33.80,K10U 231515Z AUTO 00000KT 1 1/4SM UP OVC004 01/00 A2990 RMK AO2,M
TMT,2024-01-23 15:15,-117.1971,39.4643,1749.34,32.00,32.00,100.00,120.00,3.00,0.00,29.87,M,10.00,M,OVC,M,M,M,1300.00,M,M,M,-RA,M,M,M,M,M,M,28.69,KTMT 231515Z AUTO 12003KT 10SM -RA OVC013 00/00 A2987 RMK AO2 T00000000,M
WMC,2024-01-23 15:18,-117.8072,40.9019,1315.00,39.00,36.00,88.87,0.00,0.00,0.00,29.92,M,10.00,M,SCT,OVC,M,M,1000.00,5000.00,M,M,M,M,M,M,M,M,M,39.00,KWMC 231518Z AUTO 00000KT 10SM SCT010 OVC050 04/02 A2992 RMK AO2 T00390022,M
LAS,2024-01-23 15:18,-115.1634,36.0719,663.00,49.00,48.00,96.32,80.00,5.00,0.00,29.84,M,4.00,M,BKN,OVC,M,M,400.00,800.00,M,M,BR,M,M,M,M,M,M,46.58,KLAS 231518Z 08005KT 4SM BR BKN004 OVC008 09/09 A2984 RMK AO2 CIG 002V006 VIS LWR E-SE T00940089,M
LSV,2024-01-23 15:20,-115.0343,36.2362,570.00,50.00,48.20,93.50,50.00,7.00,0.00,29.82,1009.40,10.00,M,BKN,M,M,M,3000.00,M,M,M,-RA,M,M,M,M,M,M,50.00,KLSV 231520Z 05007KT 10SM -RA BKN030 10/09 A2982 RMK AO2A RAE03RAB09 SLP094 $,M
ELY,2024-01-23 15:28,-114.8453,39.2950,1909.00,31.00,30.00,96.02,0.00,0.00,0.01,29.86,M,3.00,M,BKN,OVC,M,M,4100.00,4900.00,M,M,-SN BR,M,M,M,M,M,M,31.00,KELY 231528Z AUTO 00000KT 3SM -SN BR BKN041 OVC049 M01/M01 A2986 RMK AO2 P0001 T10061011,M
EKO,2024-01-23 15:29,-115.7860,40.8242,1367.00,33.00,32.00,96.06,240.00,3.00,T,29.88,M,1.50,M,OVC,M,M,M,300.00,M,M,M,-SN BR,M,M,M,M,M,M,29.83,KEKO 231529Z AUTO 24003KT 1 1/2SM -SN BR OVC003 01/00 A2988 RMK AO2 P0000 T00060000,M
WMC,2024-01-23 15:29,-117.8072,40.9019,1315.00,39.00,36.00,88.87,280.00,3.00,0.00,29.92,M,10.00,M,BKN,OVC,M,M,1000.00,5000.00,M,M,M,M,M,M,M,M,M,36.69,KWMC 231529Z AUTO 28003KT 10SM BKN010 OVC050 04/02 A2992 RMK AO2 T00390022,M
LOL,2024-01-23 15:30,-118.5701,40.0684,1192.43,31.00,31.00,100.00,100.00,3.00,0.00,29.93,M,0.25,M,VV ,M,M,M,100.00,M,M,M,FZFG,M,M,M,M,M,M,27.55,KLOL 231530Z AUTO 10003KT M1/4SM FZFG VV001 M01/M01 A2993 RMK AO2 T10061006,M
LSV,2024-01-23 15:31,-115.0343,36.2362,570.00,50.00,48.20,93.50,50.00,6.00,0.00,29.82,1009.40,10.00,M,FEW,BKN,M,M,1600.00,2500.00,M,M,-RA,M,M,M,M,M,M,50.00,KLSV 231531Z 05006KT 10SM -RA FEW016 BKN025 10/09 A2982 RMK AO2A RAE03RAB09E30DZB30E31RAB31 SLP094 $,M
LSV,2024-01-23 15:34,-115.0343,36.2362,570.00,50.00,48.20,93.50,60.00,6.00,0.00,29.82,1009.40,6.00,M,FEW,BKN,FEW,M,1600.00,2500.00,3000.00,M,-RA,M,M,M,M,M,M,50.00,KLSV 231534Z 06006KT 6SM -RA FEW016 BKN025 FEW030 10/09 A2982 RMK RAE03RAB09E30DZB30E31RAB31 SLP094 $,M
HND,2024-01-23 15:34,-115.1344,35.9729,742.79,48.20,46.40,93.45,340.00,3.00,0.00,29.86,M,5.00,M,OVC,M,M,M,400.00,M,M,M,BR,M,M,M,M,M,M,47.21,KHND 231534Z 34003KT 5SM BR OVC004 09/08 A2986 RMK AO2 CIG 003V009,M
BVU,2024-01-23 15:35,-114.8611,35.9475,671.00,48.20,48.20,100.00,0.00,0.00,0.00,29.84,M,10.00,M,SCT,BKN,OVC,M,1300.00,1900.00,2500.00,M,M,M,M,M,M,M,M,48.20,KBVU 231535Z AUTO 00000KT 10SM SCT013 BKN019 OVC025 09/09 A2984 RMK AO2,M
CXP,2024-01-23 15:35,-119.7326,39.1923,1431.00,33.80,33.80,100.00,0.00,0.00,0.00,29.97,M,0.25,M,OVC,M,M,M,200.00,M,M,M,FG,M,M,M,M,M,M,33.80,KCXP 231535Z AUTO 00000KT M1/4SM FG OVC002 01/01 A2997 RMK AO2,M
RTS,2024-01-23 15:35,-119.8764,39.6682,1539.00,30.20,30.20,100.00,0.00,0.00,0.00,29.96,M,10.00,M,BKN,M,M,M,3700.00,M,M,M,M,M,M,M,M,M,M,30.20,KRTS 231535Z AUTO 00000KT 10SM BKN037 M01/M01 A2996 RMK AO2,M
05U,2024-01-23 15:35,-116.0051,39.6042,1811.23,33.80,32.00,93.03,0.00,0.00,0.00,29.91,M,3.00,M,M,M,M,M,M,M,M,M,BR,M,M,M,M,M,M,33.80,K05U 231535Z AUTO 00000KT 3SM BR 01/00 A2991 RMK A01,M
MEV,2024-01-23 15:35,-119.7500,38.9963,1441.42,32.00,32.00,100.00,0.00,0.00,0.00,29.96,M,0.25,M,OVC,M,M,M,200.00,M,M,M,FG,M,M,M,M,M,M,32.00,KMEV 231535Z AUTO 00000KT M1/4SM FG OVC002 00/00 A2996 RMK AO2,M
BAM,2024-01-23 15:35,-116.8743,40.5990,1382.36,39.20,37.40,93.19,240.00,3.00,0.00,29.93,M,10.00,M,OVC,M,M,M,700.00,M,M,M,M,M,M,M,M,M,M,36.92,KBAM 231535Z AUTO 24003KT 10SM OVC007 04/03 A2993 RMK AO1,M
HTH,2024-01-23 15:35,-118.6315,38.5448,1282.89,35.60,35.60,100.00,160.00,5.00,0.00,29.95,M,10.00,M,OVC,M,M,M,4800.00,M,M,M,M,M,M,M,M,M,M,30.67,KHTH 231535Z AUTO 16005KT 10SM OVC048 02/02 A2995 RMK A01,M
10U,2024-01-23 15:35,-116.1876,41.9532,1637.00,33.80,32.00,93.03,0.00,0.00,0.00,29.91,M,2.00,M,OVC,M,M,M,400.00,M,M,M,-SN,M,M,M,M,M,M,33.80,K10U 231535Z AUTO 00000KT 2SM -SN OVC004 01/00 A2991 RMK AO2,M
TMT,2024-01-23 15:35,-117.1971,39.4643,1749.34,32.00,32.00,100.00,120.00,3.00,0.00,29.89,M,10.00,M,OVC,M,M,M,1300.00,M,M,M,-RA,M,M,M,M,M,M,28.69,KTMT 231535Z AUTO 12003KT 10SM -RA OVC013 00/00 A2989 RMK AO2 T00000000,M
HND,2024-01-23 15:40,-115.1344,35.9729,742.79,48.20,46.40,93.45,10.00,4.00,0.00,29.86,M,1.75,M,OVC,M,M,M,400.00,M,M,M,BR,M,M,M,M,M,M,46.34,KHND 231540Z 01004KT 1 3/4SM BR OVC004 09/08 A2986 RMK AO2 CIG 003V008,M
HND,2024-01-23 15:46,-115.1344,35.9729,742.79,48.20,46.40,93.45,10.00,3.00,T,29.87,M,0.75,M,BKN,OVC,M,M,400.00,1000.00,M,M,-RA BR,M,M,M,M,M,M,47.21,KHND 231546Z 01003KT 3/4SM -RA BR BKN004 OVC010 09/08 A2987 RMK AO2 RAB41 CIG 003V007 P0000,M
HND,2024-01-23 15:52,-115.1344,35.9729,742.79,48.20,46.40,93.45,0.00,0.00,0.00,29.87,M,0.75,M,BKN,OVC,M,M,400.00,1000.00,M,M,M,M,M,M,M,M,M,48.20,KHND 231552Z 00000KT 3/4SM BKN004 OVC010 09/08 A2987 RMK IM,M
P68,2024-01-23 15:53,-116.0056,39.6014,1993.00,33.00,32.00,96.06,0.00,0.00,0.00,29.89,1011.50,M,M,M,M,M,M,M,M,M,M,M,M,M,M,M,M,M,33.00,KP68 231553Z AUTO 00000KT 01/00 A2989 RMK AO1 SLP115 T00060000,M
DRA,2024-01-23 15:53,-116.0278,36.6206,1009.00,45.00,40.00,82.51,40.00,8.00,0.00,29.86,1009.60,10.00,M,OVC,M,M,M,3500.00,M,M,M,M,M,M,M,M,M,M,40.13,KDRA 231553Z AUTO 04008KT 10SM OVC035 07/04 A2986 RMK AO2 SLP096 T00720044,M
ELY,2024-01-23 15:53,-114.8453,39.2950,1909.00,31.00,31.00,100.00,0.00,0.00,0.01,29.87,1011.40,3.00,M,OVC,M,M,M,4100.00,M,M,M,-SN BR,M,M,M,M,M,M,31.00,KELY 231553Z AUTO 00000KT 3SM -SN BR OVC041 M01/M01 A2987 RMK AO2 SLP114 P0001 T10061006,M
VGT,2024-01-23 15:53,-115.1933,36.2111,667.00,51.00,47.00,86.12,70.00,5.00,0.00,29.85,1012.50,10.00,M,FEW,BKN,M,M,900.00,1300.00,M,M,M,M,M,M,M,M,M,51.00,KVGT 231553Z 07005KT 10SM FEW009 BKN013 11/08 A2985 RMK AO2 SLP125 T01060083,M
LOL,2024-01-23 15:53,-118.5701,40.0684,1192.43,30.00,30.00,100.00,0.00,0.00,0.00,29.94,1015.00,0.25,M,VV ,M,M,M,200.00,M,M,M,FZFG,M,M,M,M,M,M,30.00,KLOL 231553Z AUTO 00000KT M1/4SM FZFG VV002 M01/M01 A2994 RMK AO2 SLP150 T10111011,M
LSV,2024-01-23 15:53,-115.0343,36.2362,570.00,50.00,46.40,87.37,60.00,8.00,0.00,29.83,1009.70,10.00,M,BKN,M,M,M,1900.00,M,M,M,-DZ,M,M,M,M,M,M,50.00,KLSV 231553Z AUTO 06008KT 10SM -DZ BKN019 10/08 A2983 RMK AO2 RAE03RAB09E30DZB30E31RAB31E45DZB45 SLP097 $,M
EKO,2024-01-23 15:54,-115.7860,40.8242,1367.00,33.80,32.00,93.03,240.00,2.92,M,29.89,M,2.00,M,BKN,OVC,M,M,400.00,3300.00,M,M,-SN BR,M,M,M,M,M,M,30.86,SPECI KEKO 231554Z 24003KT 2SM -SN BR BKN004 OVC033 01/00 A2989 RMK AO2 P0001 FIBI,M
BVU,2024-01-23 15:55,-114.8611,35.9475,671.00,50.00,48.20,93.50,0.00,0.00,0.00,29.85,M,10.00,M,SCT,BKN,BKN,M,1500.00,2000.00,2600.00,M,M,M,M,M,M,M,M,50.00,KBVU 231555Z AUTO 00000KT 10SM SCT015 BKN020 BKN026 10/09 A2985 RMK AO2,M
CXP,2024-01-23 15:55,-119.7326,39.1923,1431.00,33.80,35.60,M,330.00,5.00,0.00,29.98,M,0.25,M,OVC,M,M,M,200.00,M,M,M,FG,M,M,M,M,M,M,M,KCXP 231555Z AUTO 33005KT M1/4SM FG OVC002 01/02 A2998 RMK AO2,M
INS,2024-01-23 15:55,-115.6733,36.5872,955.00,45.50,41.50,85.80,0.00,0.00,0.01,29.87,1010.20,10.00,M,OVC,M,M,M,1200.00,M,M,M,-RA,M,M,M,M,M,M,45.50,KINS 231555Z AUTO 00000KT 10SM -RA OVC012 08/05 A2987 RMK AO2 SLP102 P0001 T00750053,M
RNO,2024-01-23 15:55,-119.7711,39.4839,1341.00,34.00,31.00,88.63,0.00,0.00,0.00,29.96,1014.40,10.00,M,SCT,M,M,M,3700.00,M,M,M,M,M,M,M,M,M,M,34.00,KRNO 231555Z 00000KT 10SM SCT037 01/M01 A2996 RMK AO2 SLP144 T00111006,M
RTS,2024-01-23 15:55,-119.8764,39.6682,1539.00,32.00,30.20,92.97,350.00,5.00,0.00,29.97,M,10.00,M,OVC,M,M,M,3500.00,M,M,M,M,M,M,M,M,M,M,26.40,KRTS 231555Z AUTO 35005KT 10SM OVC035 M00/M01 A2997 RMK AO2,M
05U,2024-01-23 15:55,-116.0051,39.6042,1811.23,33.80,33.80,100.00,0.00,0.00,0.01,29.92,M,4.00,M,M,M,M,M,M,M,M,M,BR,M,M,M,M,M,M,33.80,K05U 231555Z AUTO 00000KT 4SM BR 01/01 A2992 RMK A01 P0001,M
MEV,2024-01-23 15:55,-119.7500,38.9963,1441.42,33.80,33.80,100.00,0.00,0.00,0.00,29.97,M,0.25,M,OVC,M,M,M,300.00,M,M,M,FG,M,M,M,M,M,M,33.80,KMEV 231555Z AUTO 00000KT M1/4SM FG OVC003 01/01 A2997 RMK AO2,M
BAM,2024-01-23 15:55,-116.8743,40.5990,1382.36,39.20,37.40,93.19,240.00,3.00,0.00,29.93,M,10.00,M,OVC,M,M,M,700.00,M,M,M,M,M,M,M,M,M,M,36.92,KBAM 231555Z AUTO 24003KT 10SM OVC007 04/03 A2993 RMK AO1,M
HTH,2024-01-23 15:55,-118.6315,38.5448,1282.89,37.40,37.40,100.00,0.00,0.00,0.00,29.96,M,10.00,M,OVC,M,M,M,4800.00,M,M,M,M,M,M,M,M,M,M,37.40,KHTH 231555Z AUTO 00000KT 10SM OVC048 03/03 A2996 RMK A01,M
10U,2024-01-23 15:55,-116.1876,41.9532,1637.00,33.80,32.00,93.03,0.00,0.00,0.00,29.92,M,2.50,M,OVC,M,M,M,400.00,M,M,M,-SN,M,M,M,M,M,M,33.80,K10U 231555Z AUTO 00000KT 2 1/2SM -SN OVC004 01/00 A2992 RMK AO2,M
TMT,2024-01-23 15:55,-117.1971,39.4643,1749.34,32.70,32.70,100.00,140.00,4.00,0.00,29.92,M,10.00,M,OVC,M,M,M,1500.00,M,M,M,-RA,M,M,M,M,M,M,28.24,KTMT 231555Z AUTO 14004KT 10SM -RA OVC015 00/00 A2992 RMK AO2 T00040004,M
LSV,2024-01-23 15:55,-115.0343,36.2362,570.00,50.50,47.00,87.73,60.00,8.00,T,29.83,1009.70,10.00,M,SCT,BKN,M,M,1500.00,2100.00,M,M,-DZ,M,M,M,M,M,M,50.50,KLSV 231555Z AUTO 06008KT 10SM -DZ SCT015 BKN021 10/08 A2983 RMK AO2 RAE03RAB09E30DZB30E31RAB31E45DZB45 SLP097 P0000 T01030084 $,M
EKO,2024-01-23 15:56,-115.7860,40.8242,1367.00,33.00,32.00,96.06,0.00,0.00,0.01,29.89,1013.10,2.00,M,BKN,OVC,M,M,400.00,3300.00,M,M,-SN BR,M,M,M,M,M,M,33.00,KEKO 231556Z AUTO 00000KT 2SM -SN BR BKN004 OVC033 01/00 A2989 RMK AO2 SLP131 P0001 T00060000,M
HND,2024-01-23 15:56,-115.1344,35.9729,742.79,48.00,47.00,96.31,20.00,4.00,T,29.87,1013.00,1.00,M,BKN,OVC,M,M,400.00,1000.00,M,M,-RA BR,M,M,M,M,M,M,46.10,KHND 231556Z 02004KT 1SM -RA BR BKN004 OVC010 09/08 A2987 RMK AO2 RAB41 CIG 003V007 SLP130 P0000 T00890083,M
TPH,2024-01-23 15:56,-117.0904,38.0505,1654.00,37.00,33.00,85.29,350.00,12.00,0.00,29.89,1012.20,10.00,21.00,CLR,M,M,M,M,M,M,M,M,M,M,M,M,M,M,28.37,KTPH 231556Z AUTO 35012G21KT 10SM CLR 03/01 A2989 RMK AO2 SLP122 T00280006,M
LAS,2024-01-23 15:56,-115.1634,36.0719,663.00,49.00,48.00,96.32,70.00,5.00,T,29.85,1010.60,2.00,M,BKN,OVC,M,M,400.00,1000.00,M,M,-DZ BR,M,M,M,M,M,M,46.58,KLAS 231556Z 07005KT 2SM -DZ BR BKN004 OVC010 09/09 A2985 RMK AO2 VIS 1V4 DZB42 SLP106 P0000 T00940089,M
WMC,2024-01-23 15:56,-117.8072,40.9019,1315.00,39.00,37.00,92.45,0.00,0.00,0.00,29.93,1013.40,10.00,M,OVC,M,M,M,1100.00,M,M,M,M,M,M,M,M,M,M,39.00,KWMC 231556Z AUTO 00000KT 10SM OVC011 04/03 A2993 RMK AO2 SLP134 T00390028,M
NFL,2024-01-23 15:56,-118.7010,39.4166,1199.00,39.00,38.00,96.16,0.00,0.00,0.00,29.94,1011.20,5.00,M,FEW,SCT,BKN,M,4000.00,5000.00,10000.00,M,BR,M,M,M,M,M,M,39.00,KNFL 231556Z 00000KT 5SM BR FEW040 SCT050 BKN100 04/03 A2994 RMK AO2 SLP112 VIS LWR SE-S T00390033,M
VGT,2024-01-23 16:00,-115.1933,36.2111,667.00,51.00,47.00,86.12,70.00,5.00,0.00,29.85,M,10.00,M,OVC,M,M,M,1700.00,M,M,M,M,M,M,M,M,M,M,51.00,KVGT 231600Z 07005KT 10SM OVC017 11/08 A2985 RMK AO2 T01060083,M
LOL,2024-01-23 16:01,-118.5701,40.0684,1192.43,31.00,31.00,100.00,280.00,3.00,0.00,29.94,M,0.25,M,VV ,M,M,M,200.00,M,M,M,FZFG,M,M,M,M,M,M,27.55,KLOL 231601Z AUTO 28003KT 1/4SM FZFG VV002 M01/M01 A2994 RMK AO2 T10061006,M
LSV,2024-01-23 16:05,-115.0343,36.2362,570.00,50.00,48.20,93.50,60.00,6.00,0.00,29.84,1010.10,10.00,M,BKN,BKN,M,M,1600.00,2100.00,M,M,-DZ,M,M,M,M,M,M,50.00,KLSV 231605Z AUTO 06006KT 10SM -DZ BKN016 BKN021 10/09 A2984 RMK AO2 CIG 016V021 SLP101 $,M
ELY,2024-01-23 16:09,-114.8453,39.2950,1909.00,32.00,31.00,96.04,0.00,0.00,T,29.88,M,2.50,M,OVC,M,M,M,4100.00,M,M,M,-SN BR,M,M,M,M,M,M,32.00,KELY 231609Z AUTO 00000KT 2 1/2SM -SN BR OVC041 00/M01 A2988 RMK AO2 P0000 T00001006,M
CXP,2024-01-23 16:10,-119.7326,39.1923,1431.00,35.60,35.60,100.00,350.00,4.00,0.00,29.99,M,4.00,M,OVC,M,M,M,300.00,M,M,M,BR,M,M,M,M,M,M,31.62,KCXP 231610Z AUTO 35004KT 4SM BR OVC003 02/02 A2999 RMK AO2,M
HND,2024-01-23 16:14,-115.1344,35.9729,742.79,48.20,46.40,93.45,0.00,0.00,T,29.88,M,0.75,M,OVC,M,M,M,400.00,M,M,M,-RA BR,M,M,M,M,M,M,48.20,KHND 231614Z 00000KT 3/4SM -RA BR OVC004 09/08 A2988 RMK AO2 CIG 003V007 P0000,M
BVU,2024-01-23 16:15,-114.8611,35.9475,671.00,50.00,48.20,93.50,M,M,0.00,29.85,M,10.00,M,SCT,OVC,M,M,1900.00,2700.00,M,M,M,M,M,M,M,M,M,50.00,KBVU 231615Z AUTO 10SM SCT019 OVC027 10/09 A2985 RMK AO2,M
RTS,2024-01-23 16:15,-119.8764,39.6682,1539.00,33.80,32.00,93.03,340.00,3.00,0.00,29.97,M,10.00,M,OVC,M,M,M,3300.00,M,M,M,M,M,M,M,M,M,M,30.75,KRTS 231615Z AUTO 34003KT 10SM OVC033 01/00 A2997 RMK AO2,M
05U,2024-01-23 16:15,-116.0051,39.6042,1811.23,33.80,33.80,100.00,0.00,0.00,0.00,29.92,M,3.00,M,M,M,M,M,M,M,M,M,BR,M,M,M,M,M,M,33.80,K05U 231615Z AUTO 00000KT 3SM BR 01/01 A2992 RMK A01,M
MEV,2024-01-23 16:15,-119.7500,38.9963,1441.42,33.80,33.80,100.00,100.00,3.00,0.00,29.97,M,0.25,M,OVC,M,M,M,300.00,M,M,M,FG,M,M,M,M,M,M,30.75,KMEV 231615Z AUTO 10003KT M1/4SM FG OVC003 01/01 A2997 RMK AO2,M
BAM,2024-01-23 16:15,-116.8743,40.5990,1382.36,39.20,37.40,93.19,240.00,5.00,0.00,29.93,M,10.00,M,OVC,M,M,M,900.00,M,M,M,M,M,M,M,M,M,M,34.95,KBAM 231615Z AUTO 24005KT 10SM OVC009 04/03 A2993 RMK AO1,M
HTH,2024-01-23 16:15,-118.6315,38.5448,1282.89,37.40,37.40,100.00,210.00,3.00,0.00,29.97,M,10.00,M,OVC,M,M,M,4700.00,M,M,M,M,M,M,M,M,M,M,34.86,KHTH 231615Z AUTO 21003KT 10SM OVC047 03/03 A2997 RMK A01,M
10U,2024-01-23 16:15,-116.1876,41.9532,1637.00,33.80,32.00,93.03,0.00,0.00,0.00,29.92,M,4.00,M,OVC,M,M,M,400.00,M,M,M,UP,M,M,M,M,M,M,33.80,K10U 231615Z AUTO 00000KT 4SM UP OVC004 01/00 A2992 RMK AO2,M
TMT,2024-01-23 16:15,-117.1971,39.4643,1749.34,33.30,33.30,100.00,0.00,0.00,0.00,29.97,M,10.00,M,OVC,M,M,M,1300.00,M,M,M,M,M,M,M,M,M,M,33.30,KTMT 231615Z AUTO 00000KT 10SM OVC013 01/01 A2997 RMK AO2 T00070007,M
EKO,2024-01-23 16:19,-115.7860,40.8242,1367.00,33.00,32.00,96.06,230.00,4.00,0.01,29.90,M,4.00,M,BKN,OVC,M,M,400.00,3800.00,M,M,-SN BR,M,M,M,M,M,M,28.59,KEKO 231619Z AUTO 23004KT 4SM -SN BR BKN004 OVC038 01/00 A2990 RMK AO2 P0001 T00060000,M
LOL,2024-01-23 16:21,-118.5701,40.0684,1192.43,33.00,33.00,100.00,280.00,3.00,0.00,29.95,M,0.25,M,VV ,M,M,M,200.00,M,M,M,FG,M,M,M,M,M,M,29.83,KLOL 231621Z AUTO 28003KT M1/4SM FG VV002 01/01 A2995 RMK AO2 T00060006,M
HND,2024-01-23 16:22,-115.1344,35.9729,742.79,48.20,46.40,93.45,20.00,6.00,0.01,29.88,M,1.25,M,OVC,M,M,M,400.00,M,M,M,-RA BR,M,M,M,M,M,M,45.04,KHND 231622Z 02006KT 1 1/4SM -RA BR OVC004 09/08 A2988 RMK AO2 CIG 002V007 P0001,M
HND,2024-01-23 16:26,-115.1344,35.9729,742.79,48.20,46.40,93.45,30.00,4.00,0.01,29.88,M,3.00,M,OVC,M,M,M,400.00,M,M,M,-RA BR,M,M,M,M,M,M,46.34,KHND 231626Z 03004KT 3SM -RA BR OVC004 09/08 A2988 RMK AO2 CIG 002V007 P0001,M
EKO,2024-01-23 16:31,-115.7860,40.8242,1367.00,33.00,32.00,96.06,230.00,4.00,0.01,29.90,M,6.00,M,SCT,OVC,M,M,400.00,3700.00,M,M,UP BR,M,M,M,M,M,M,28.59,KEKO 231631Z AUTO 23004KT 6SM UP BR SCT004 OVC037 01/00 A2990 RMK AO2 UPB29SNE29 P0001 T00060000,M
BVU,2024-01-23 16:35,-114.8611,35.9475,671.00,50.00,48.20,93.50,0.00,0.00,0.00,29.86,M,10.00,M,BKN,BKN,OVC,M,700.00,1400.00,2700.00,M,M,M,M,M,M,M,M,50.00,KBVU 231635Z AUTO 00000KT 10SM BKN007 BKN014 OVC027 10/09 A2986 RMK AO2,M
CXP,2024-01-23 16:35,-119.7326,39.1923,1431.00,35.60,35.60,100.00,270.00,3.00,0.00,29.99,M,7.00,M,OVC,M,M,M,400.00,M,M,M,M,M,M,M,M,M,M,32.80,KCXP 231635Z AUTO 27003KT 7SM OVC004 02/02 A2999 RMK AO2,M
INS,2024-01-23 16:35,-115.6733,36.5872,955.00,46.40,42.80,87.19,0.00,0.00,0.00,29.88,1010.60,10.00,M,BKN,BKN,OVC,M,1500.00,2200.00,3900.00,M,-DZ,M,M,M,M,M,M,46.40,KINS 231635Z AUTO 00000KT 10SM -DZ BKN015 BKN022 OVC039 08/06 A2988 RMK AO2 RAE13DZB13E17RAB17E34DZB34 SLP106,M
RTS,2024-01-23 16:35,-119.8764,39.6682,1539.00,33.80,32.00,93.03,0.00,0.00,0.00,29.98,M,10.00,M,OVC,M,M,M,3300.00,M,M,M,M,M,M,M,M,M,M,33.80,KRTS 231635Z AUTO 00000KT 10SM OVC033 01/00 A2998 RMK AO2,M
05U,2024-01-23 16:35,-116.0051,39.6042,1811.23,33.80,33.80,100.00,0.00,0.00,0.00,29.93,M,4.00,M,M,M,M,M,M,M,M,M,BR,M,M,M,M,M,M,33.80,K05U 231635Z AUTO 00000KT 4SM BR 01/01 A2993 RMK A01,M
MEV,2024-01-23 16:35,-119.7500,38.9963,1441.42,35.60,35.60,100.00,100.00,4.00,0.00,29.98,M,0.50,M,OVC,M,M,M,300.00,M,M,M,FG,M,M,M,M,M,M,31.62,KMEV 231635Z AUTO 10004KT 1/2SM FG OVC003 02/02 A2998 RMK AO2,M
BAM,2024-01-23 16:35,-116.8743,40.5990,1382.36,39.20,37.40,93.19,230.00,3.00,0.00,29.94,M,10.00,M,OVC,M,M,M,900.00,M,M,M,M,M,M,M,M,M,M,36.92,KBAM 231635Z AUTO 23003KT 10SM OVC009 04/03 A2994 RMK AO1,M
HTH,2024-01-23 16:35,-118.6315,38.5448,1282.89,39.20,39.20,100.00,210.00,3.00,0.00,29.98,M,10.00,M,OVC,M,M,M,4600.00,M,M,M,M,M,M,M,M,M,M,36.92,KHTH 231635Z AUTO 21003KT 10SM OVC046 04/04 A2998 RMK A01,M
10U,2024-01-23 16:35,-116.1876,41.9532,1637.00,33.80,33.80,100.00,0.00,0.00,0.00,29.93,M,6.00,M,OVC,M,M,M,400.00,M,M,M,UP,M,M,M,M,M,M,33.80,K10U 231635Z AUTO 00000KT 6SM UP OVC004 01/01 A2993 RMK AO2,M
TMT,2024-01-23 16:35,-117.1971,39.4643,1749.34,34.30,33.80,98.02,0.00,0.00,0.00,29.95,M,10.00,M,OVC,M,M,M,1300.00,M,M,M,M,M,M,M,M,M,M,34.30,KTMT 231635Z AUTO 00000KT 10SM OVC013 01/01 A2995 RMK AO2 T00130010,M
LAS,2024-01-23 16:36,-115.1634,36.0719,663.00,50.00,48.00,92.80,30.00,9.00,T,29.87,M,3.00,M,OVC,M,M,M,300.00,M,M,M,BR,M,M,M,M,M,M,50.00,KLAS 231636Z 03009KT 3SM BR OVC003 10/09 A2987 RMK AO2 DZE35 CIG 002V008 P0000 T01000089,M
LAS,2024-01-23 16:43,-115.1634,36.0719,663.00,50.00,48.00,92.80,30.00,7.00,T,29.87,M,4.00,M,OVC,M,M,M,500.00,M,M,M,BR,M,M,M,M,M,M,50.00,KLAS 231643Z 03007KT 4SM BR OVC005 10/09 A2987 RMK AO2 DZE35 CIG 002V007 P0000 T01000089,M
ELY,2024-01-23 16:48,-114.8453,39.2950,1909.00,33.80,32.00,93.03,0.00,0.00,0.01,29.89,M,3.00,M,FEW,BKN,OVC,M,3700.00,4500.00,5500.00,M,-SN BR,M,M,M,M,M,M,33.80,KELY 231648Z AUTO 00000KT 3SM -SN BR FEW037 BKN045 OVC055 01/00 A2989 RMK AO2 P0001,M
P68,2024-01-23 16:53,-116.0056,39.6014,1993.00,33.00,32.00,96.06,0.00,0.00,0.01,29.91,1012.50,M,M,M,M,M,M,M,M,M,M,M,M,M,M,M,M,M,33.00,KP68 231653Z AUTO 00000KT 01/00 A2991 RMK AO1 SLP125 P0001 T00060000,M
DRA,2024-01-23 16:53,-116.0278,36.6206,1009.00,45.00,41.00,85.77,30.00,8.00,0.00,29.89,1010.60,10.00,M,OVC,M,M,M,3800.00,M,M,M,M,M,M,M,M,M,M,40.13,KDRA 231653Z AUTO 03008KT 10SM OVC038 07/05 A2989 RMK AO2 SLP106 T00720050,M
ELY,2024-01-23 16:53,-114.8453,39.2950,1909.00,33.00,32.00,96.06,0.00,0.00,0.01,29.89,1011.40,4.00,M,FEW,BKN,OVC,M,1400.00,4700.00,5500.00,M,-SN BR,M,M,M,M,M,M,33.00,KELY 231653Z AUTO 00000KT 4SM -SN BR FEW014 BKN047 OVC055 01/00 A2989 RMK AO2 SLP114 P0001 T00060000,M
VGT,2024-01-23 16:53,-115.1933,36.2111,667.00,51.00,47.00,86.12,0.00,0.00,0.00,29.87,1013.20,6.00,M,FEW,OVC,M,M,1100.00,2600.00,M,M,BR,M,M,M,M,M,M,51.00,KVGT 231653Z 00000KT 6SM BR FEW011 OVC026 11/08 A2987 RMK AO2 SLP132 T01060083,M
LOL,2024-01-23 16:53,-118.5701,40.0684,1192.43,33.00,33.00,100.00,0.00,0.00,0.00,29.95,1015.30,0.25,M,VV ,M,M,M,200.00,M,M,M,FG,M,M,M,M,M,M,33.00,KLOL 231653Z AUTO 00000KT M1/4SM FG VV002 01/01 A2995 RMK AO2 SLP153 T00060006,M
HND,2024-01-23 16:53,-115.1344,35.9729,742.79,48.20,46.40,93.45,30.00,5.00,0.00,29.89,M,4.00,M,M,M,M,M,M,M,M,M,M,M,M,M,M,M,M,45.63,KHND 231653Z 03005KT 4SM OC004 09/08 A2989 RMK IM,M
BVU,2024-01-23 16:55,-114.8611,35.9475,671.00,50.00,48.20,93.50,0.00,0.00,0.00,29.87,M,4.00,M,OVC,M,M,M,600.00,M,M,M,BR,M,M,M,M,M,M,50.00,KBVU 231655Z AUTO 00000KT 4SM BR OVC006 10/09 A2987 RMK AO2,M
CXP,2024-01-23 16:55,-119.7326,39.1923,1431.00,37.40,37.40,100.00,0.00,0.00,0.00,30.00,M,8.00,M,OVC,M,M,M,500.00,M,M,M,M,M,M,M,M,M,M,37.40,KCXP 231655Z AUTO 00000KT 8SM OVC005 03/03 A3000 RMK AO2,M
RNO,2024-01-23 16:55,-119.7711,39.4839,1341.00,36.00,32.00,85.23,0.00,0.00,0.00,29.99,1015.00,10.00,M,FEW,M,M,M,3800.00,M,M,M,M,M,M,M,M,M,M,36.00,KRNO 231655Z 00000KT 10SM FEW038 02/00 A2999 RMK AO2 SLP150 T00220000,M
RTS,2024-01-23 16:55,-119.8764,39.6682,1539.00,33.80,32.00,93.03,0.00,0.00,0.00,29.99,M,10.00,M,OVC,M,M,M,3200.00,M,M,M,M,M,M,M,M,M,M,33.80,KRTS 231655Z AUTO 00000KT 10SM OVC032 01/00 A2999 RMK AO2,M
05U,2024-01-23 16:55,-116.0051,39.6042,1811.23,33.80,33.80,100.00,0.00,0.00,0.00,29.94,M,3.00,M,M,M,M,M,M,M,M,M,BR,M,M,M,M,M,M,33.80,K05U 231655Z AUTO 00000KT 3SM BR 01/01 A2994 RMK A01,M
MEV,2024-01-23 16:55,-119.7500,38.9963,1441.42,35.60,35.60,100.00,0.00,0.00,0.00,29.99,M,8.00,M,OVC,M,M,M,400.00,M,M,M,M,M,M,M,M,M,M,35.60,KMEV 231655Z AUTO 00000KT 8SM OVC004 02/02 A2999 RMK AO2,M
BAM,2024-01-23 16:55,-116.8743,40.5990,1382.36,39.20,37.40,93.19,250.00,4.00,0.00,29.95,M,10.00,M,OVC,M,M,M,900.00,M,M,M,M,M,M,M,M,M,M,35.83,KBAM 231655Z AUTO 25004KT 10SM OVC009 04/03 A2995 RMK AO1,M
HTH,2024-01-23 16:55,-118.6315,38.5448,1282.89,41.00,41.00,100.00,0.00,0.00,0.00,29.98,M,10.00,M,OVC,M,M,M,4700.00,M,M,M,M,M,M,M,M,M,M,41.00,KHTH 231655Z AUTO 00000KT 10SM OVC047 05/05 A2998 RMK A01,M
TMT,2024-01-23 16:55,-117.1971,39.4643,1749.34,34.70,33.80,96.47,240.00,3.00,0.00,29.98,M,10.00,M,OVC,M,M,M,1100.00,M,M,M,M,M,M,M,M,M,M,31.78,KTMT 231655Z AUTO 24003KT 10SM OVC011 02/01 A2998 RMK AO2 T00150010,M
10U,2024-01-23 16:55,-116.1876,41.9532,1637.00,33.80,33.80,100.00,0.00,0.00,0.00,29.94,M,9.00,M,OVC,M,M,M,400.00,M,M,M,UP,M,M,M,M,M,M,33.80,K10U 231655Z AUTO 00000KT 9SM UP OVC004 01/01 A2994 RMK AO2,M
INS,2024-01-23 16:55,-115.6733,36.5872,955.00,46.60,42.00,83.91,0.00,0.00,0.01,29.89,1010.90,10.00,M,BKN,OVC,M,M,1800.00,3800.00,M,M,-RA,M,M,M,M,M,M,46.60,KINS 231655Z AUTO 00000KT 10SM -RA BKN018 OVC038 08/06 A2989 RMK AO2 RAE13DZB13E17RAB17E34DZB34E36RAB36 SLP109 P0001 T00810056,M
LSV,2024-01-23 16:55,-115.0343,36.2362,570.00,51.60,47.00,84.23,50.00,6.00,T,29.86,1010.70,10.00,M,BKN,M,M,M,2700.00,M,M,M,M,M,M,M,M,M,M,51.60,KLSV 231655Z AUTO 05006KT 10SM BKN027 11/08 A2986 RMK AO2 DZE28RAB28E32DZB32E36RAB36E37 SLP107 P0000 T01090083 $,M
EKO,2024-01-23 16:56,-115.7860,40.8242,1367.00,35.00,33.00,92.32,210.00,6.00,0.01,29.91,1013.70,8.00,M,OVC,M,M,M,3700.00,M,M,M,UP,M,M,M,M,M,M,29.14,KEKO 231656Z AUTO 21006KT 8SM UP OVC037 02/01 A2991 RMK AO2 UPB29SNE29 SLP137 P0001 T00170006,M
NFL,2024-01-23 16:56,-118.7010,39.4166,1199.00,41.00,39.00,92.52,280.00,4.00,0.00,29.96,1011.80,10.00,M,SCT,BKN,M,M,4500.00,10000.00,M,M,M,M,M,M,M,M,M,37.93,KNFL 231656Z 28004KT 10SM SCT045 BKN100 05/04 A2996 RMK AO2 SLP118 T00500039,M
HND,2024-01-23 16:56,-115.1344,35.9729,742.79,48.00,47.00,96.31,40.00,6.00,0.01,29.89,1014.00,4.00,M,BKN,OVC,M,M,400.00,1500.00,M,M,-RA BR,M,M,M,M,M,M,44.80,KHND 231656Z 04006KT 4SM -RA BR BKN004 OVC015 09/08 A2989 RMK AO2 SLP140 P0001 T00890083,M
TPH,2024-01-23 16:56,-117.0904,38.0505,1654.00,35.00,32.00,88.68,20.00,8.00,0.00,29.91,1013.00,10.00,M,CLR,M,M,M,M,M,M,M,M,M,M,M,M,M,M,27.81,KTPH 231656Z AUTO 02008KT 10SM CLR 02/00 A2991 RMK AO2 SLP130 T00170000,M
LAS,2024-01-23 16:56,-115.1634,36.0719,663.00,50.00,48.00,92.80,40.00,6.00,T,29.88,1011.50,5.00,M,BKN,OVC,M,M,500.00,1000.00,M,M,BR,M,M,M,M,M,M,50.00,KLAS 231656Z 04006KT 5SM BR BKN005 OVC010 10/09 A2988 RMK AO2 DZE35 CIG 003V008 SLP115 P0000 T01000089,M
WMC,2024-01-23 16:56,-117.8072,40.9019,1315.00,41.00,38.00,88.97,130.00,3.00,0.00,29.95,1014.00,10.00,M,OVC,M,M,M,1200.00,M,M,M,M,M,M,M,M,M,M,38.98,KWMC 231656Z AUTO 13003KT 10SM OVC012 05/03 A2995 RMK AO2 SLP140 T00500033,M
LOL,2024-01-23 17:07,-118.5701,40.0684,1192.43,35.00,35.00,100.00,0.00,0.00,0.00,29.97,M,0.25,M,VV ,M,M,M,100.00,M,M,M,FG,M,M,M,M,M,M,35.00,KLOL 231707Z AUTO 00000KT 1/4SM FG VV001 02/02 A2997 RMK AO2 T00170017,M
ELY,2024-01-23 17:08,-114.8453,39.2950,1909.00,33.00,32.00,96.06,0.00,0.00,T,29.90,M,5.00,M,FEW,OVC,M,M,500.00,5000.00,M,M,-SN BR,M,M,M,M,M,M,33.00,KELY 231708Z AUTO 00000KT 5SM -SN BR FEW005 OVC050 01/00 A2990 RMK AO2 P0000 T00060000,M
VGT,2024-01-23 17:08,-115.1933,36.2111,667.00,50.00,47.00,89.37,330.00,4.00,0.01,29.88,M,1.75,M,FEW,BKN,OVC,M,1300.00,2400.00,2800.00,M,-RA BR,M,M,M,M,M,M,50.00,KVGT 231708Z 33004KT 1 3/4SM -RA BR FEW013 BKN024 OVC028 10/08 A2988 RMK AO2 RAB01 P0001 T01000083,M
INS,2024-01-23 17:10,-115.6733,36.5872,955.00,46.40,41.00,81.34,0.00,0.00,0.00,29.90,1011.30,10.00,M,SCT,OVC,M,M,1800.00,3700.00,M,M,-RA,M,M,M,M,M,M,46.40,KINS 231710Z AUTO 00000KT 10SM -RA SCT018 OVC037 08/05 A2990 RMK AO2 SLP113,M
BVU,2024-01-23 17:15,-114.8611,35.9475,671.00,50.00,48.20,93.50,0.00,0.00,0.00,29.88,M,6.00,M,OVC,M,M,M,600.00,M,M,M,BR,M,M,M,M,M,M,50.00,KBVU 231715Z AUTO 00000KT 6SM BR OVC006 10/09 A2988 RMK AO2,M
CXP,2024-01-23 17:15,-119.7326,39.1923,1431.00,35.60,35.60,100.00,0.00,0.00,0.00,30.01,M,9.00,M,OVC,M,M,M,500.00,M,M,M,M,M,M,M,M,M,M,35.60,KCXP 231715Z AUTO 00000KT 9SM OVC005 02/02 A3001 RMK AO2,M
RTS,2024-01-23 17:15,-119.8764,39.6682,1539.00,35.60,32.00,86.59,0.00,0.00,0.00,30.00,M,10.00,M,OVC,M,M,M,3100.00,M,M,M,M,M,M,M,M,M,M,35.60,KRTS 231715Z AUTO 00000KT 10SM OVC031 02/00 A3000 RMK AO2,M
05U,2024-01-23 17:15,-116.0051,39.6042,1811.23,33.80,33.80,100.00,0.00,0.00,0.00,29.95,M,3.00,M,M,M,M,M,M,M,M,M,BR,M,M,M,M,M,M,33.80,K05U 231715Z AUTO 00000KT 3SM BR 01/01 A2995 RMK A01,M
MEV,2024-01-23 17:15,-119.7500,38.9963,1441.42,35.60,35.60,100.00,0.00,0.00,0.00,29.99,M,10.00,M,BKN,OVC,M,M,600.00,900.00,M,M,M,M,M,M,M,M,M,35.60,KMEV 231715Z AUTO 00000KT 10SM BKN006 OVC009 02/02 A2999 RMK AO2,M
HTH,2024-01-23 17:15,-118.6315,38.5448,1282.89,42.80,42.80,100.00,0.00,0.00,0.00,29.99,M,10.00,M,OVC,M,M,M,4700.00,M,M,M,M,M,M,M,M,M,M,42.80,KHTH 231715Z AUTO 00000KT 10SM OVC047 06/06 A2999 RMK A01,M
10U,2024-01-23 17:15,-116.1876,41.9532,1637.00,33.80,33.80,100.00,200.00,3.00,0.00,29.94,M,7.00,M,OVC,M,M,M,400.00,M,M,M,M,M,M,M,M,M,M,30.75,K10U 231715Z AUTO 20003KT 7SM OVC004 01/01 A2994 RMK AO2,M
BAM,2024-01-23 17:15,-116.8743,40.5990,1382.36,39.20,37.40,93.19,0.00,0.00,0.00,29.96,M,10.00,M,OVC,M,M,M,900.00,M,M,M,M,M,M,M,M,M,M,39.20,KBAM 231715Z AUTO 00000KT 10SM OVC009 04/03 A2996 RMK AO1,M
TMT,2024-01-23 17:15,-117.1971,39.4643,1749.34,35.00,34.00,96.09,260.00,3.00,0.00,29.97,M,10.00,M,OVC,M,M,M,1100.00,M,M,M,M,M,M,M,M,M,M,32.12,KTMT 231715Z AUTO 26003KT 10SM OVC011 02/01 A2997 RMK AO2 T00170012,M
HND,2024-01-23 17:17,-115.1344,35.9729,742.79,48.20,46.40,93.45,40.00,7.00,0.01,29.90,M,1.75,M,BKN,OVC,M,M,400.00,1000.00,M,M,-RA BR,M,M,M,M,M,M,44.53,KHND 231717Z 04007KT 1 3/4SM -RA BR BKN004 OVC010 09/08 A2990 RMK AO2 P0001,M
WMC,2024-01-23 17:17,-117.8072,40.9019,1315.00,42.00,40.00,92.55,160.00,4.00,0.00,29.96,M,10.00,M,SCT,OVC,M,M,400.00,1200.00,M,M,M,M,M,M,M,M,M,39.10,KWMC 231717Z AUTO 16004KT 10SM SCT004 OVC012 06/04 A2996 RMK AO2 T00560044,M
LOL,2024-01-23 17:19,-118.5701,40.0684,1192.43,38.00,38.00,100.00,0.00,0.00,0.00,29.97,M,1.00,M,VV ,M,M,M,100.00,M,M,M,BR,M,M,M,M,M,M,38.00,KLOL 231719Z AUTO 00000KT 1SM BR VV001 03/03 A2997 RMK AO2 T00330033,M
LOL,2024-01-23 17:22,-118.5701,40.0684,1192.43,38.00,38.00,100.00,0.00,0.00,0.00,29.98,M,3.00,M,BKN,M,M,M,100.00,M,M,M,BR,M,M,M,M,M,M,38.00,KLOL 231722Z AUTO 00000KT 3SM BR BKN001 03/03 A2998 RMK AO2 T00330033,M
HND,2024-01-23 17:24,-115.1344,35.9729,742.79,48.20,48.20,100.00,40.00,7.00,0.01,29.91,M,2.00,M,BKN,OVC,M,M,600.00,1400.00,M,M,-RA BR,M,M,M,M,M,M,44.53,KHND 231724Z 04007KT 2SM -RA BR BKN006 OVC014 09/09 A2991 RMK AO2 CIG 003V010 P0001,M
WMC,2024-01-23 17:25,-117.8072,40.9019,1315.00,42.00,40.00,92.55,150.00,5.00,0.00,29.96,M,10.00,M,BKN,OVC,M,M,600.00,1300.00,M,M,M,M,M,M,M,M,M,38.27,KWMC 231725Z AUTO 15005KT 10SM BKN006 OVC013 06/04 A2996 RMK AO2 CIG 004V011 T00560044,M
05U,2024-01-23 17:30,-116.0051,39.6042,1811.23,35.60,33.80,93.08,0.00,0.00,0.00,29.96,M,7.00,M,M,M,M,M,M,M,M,M,M,M,M,M,M,M,M,35.60,K05U 231730Z AUTO 00000KT 7SM 02/01 A2996 RMK A01,M
10U,2024-01-23 17:30,-116.1876,41.9532,1637.00,35.60,33.80,93.08,0.00,0.00,0.00,29.95,M,10.00,M,OVC,M,M,M,400.00,M,M,M,M,M,M,M,M,M,M,35.60,K10U 231730Z AUTO 00000KT 10SM OVC004 02/01 A2995 RMK AO2,M
LOL,2024-01-23 17:32,-118.5701,40.0684,1192.43,39.00,39.00,100.00,0.00,0.00,0.00,29.98,M,10.00,M,SCT,SCT,M,M,100.00,3600.00,M,M,M,M,M,M,M,M,M,39.00,KLOL 231732Z AUTO 00000KT 10SM SCT001 SCT036 04/04 A2998 RMK AO2 T00390039,M
BVU,2024-01-23 17:35,-114.8611,35.9475,671.00,50.00,48.20,93.50,20.00,6.00,0.00,29.89,M,0.75,M,OVC,M,M,M,500.00,M,M,M,RA,M,M,M,M,M,M,50.00,KBVU 231735Z AUTO 02006KT 3/4SM RA OVC005 10/09 A2989 RMK AO2,M
CXP,2024-01-23 17:35,-119.7326,39.1923,1431.00,37.40,37.40,100.00,0.00,0.00,0.00,30.02,M,8.00,M,OVC,M,M,M,400.00,M,M,M,M,M,M,M,M,M,M,37.40,KCXP 231735Z AUTO 00000KT 8SM OVC004 03/03 A3002 RMK AO2,M
VGT,2024-01-23 17:35,-115.1933,36.2111,667.00,51.00,47.00,86.12,0.00,0.00,0.01,29.89,M,10.00,M,SCT,OVC,M,M,1600.00,2900.00,M,M,M,M,M,M,M,M,M,51.00,KVGT 231735Z 00000KT 10SM SCT016 OVC029 11/08 A2989 RMK AO2 RAB01E28 P0001 T01060083,M
RTS,2024-01-23 17:35,-119.8764,39.6682,1539.00,39.20,33.80,80.79,0.00,0.00,0.00,30.01,M,10.00,M,OVC,M,M,M,2900.00,M,M,M,M,M,M,M,M,M,M,39.20,KRTS 231735Z AUTO 00000KT 10SM OVC029 04/01 A3001 RMK AO2,M
MEV,2024-01-23 17:35,-119.7500,38.9963,1441.42,35.60,35.60,100.00,270.00,4.00,0.00,30.00,M,1.75,M,SCT,BKN,M,M,200.00,900.00,M,M,BR,M,M,M,M,M,M,31.62,KMEV 231735Z AUTO 27004KT 1 3/4SM BR SCT002 BKN009 02/02 A3000 RMK AO2 VIS 3/4V5,M
BAM,2024-01-23 17:35,-116.8743,40.5990,1382.36,41.00,37.40,86.89,0.00,0.00,0.00,29.97,M,10.00,M,OVC,M,M,M,900.00,M,M,M,M,M,M,M,M,M,M,41.00,KBAM 231735Z AUTO 00000KT 10SM OVC009 05/03 A2997 RMK AO1,M
HTH,2024-01-23 17:35,-118.6315,38.5448,1282.89,42.80,41.00,93.30,0.00,0.00,0.00,30.00,M,10.00,M,OVC,M,M,M,4900.00,M,M,M,M,M,M,M,M,M,M,42.80,KHTH 231735Z AUTO 00000KT 10SM OVC049 06/05 A3000 RMK A01,M
TMT,2024-01-23 17:35,-117.1971,39.4643,1749.34,35.60,34.00,93.83,0.00,0.00,0.00,29.99,M,10.00,M,OVC,M,M,M,1100.00,M,M,M,M,M,M,M,M,M,M,35.60,KTMT 231735Z AUTO 00000KT 10SM OVC011 02/01 A2999 RMK AO2 T00200012,M
HND,2024-01-23 17:36,-115.1344,35.9729,742.79,48.20,46.40,93.45,30.00,5.00,0.01,29.91,M,2.50,M,BKN,OVC,M,M,400.00,1000.00,M,M,-RA BR,M,M,M,M,M,M,45.63,KHND 231736Z 03005KT 2 1/2SM -RA BR BKN004 OVC010 09/08 A2991 RMK AO2 CIG 003V007 P0001,M
VGT,2024-01-23 17:49,-115.1933,36.2111,667.00,51.80,48.20,87.47,0.00,0.00,0.01,29.90,M,10.00,M,BKN,OVC,M,M,3000.00,3800.00,M,M,M,M,M,M,M,M,M,51.80,KVGT 231749Z 00000KT 10SM BKN030 OVC038 11/09 A2990 RMK AO2 RAB01E28 P0001,M
HTH,2024-01-23 17:50,-118.6315,38.5448,1282.89,42.80,41.00,93.30,350.00,3.00,0.00,30.01,M,10.00,M,OVC,M,M,M,5000.00,M,M,M,M,M,M,M,M,M,M,41.03,KHTH 231750Z AUTO 35003KT 10SM OVC050 06/05 A3001 RMK A01,M
10U,2024-01-23 17:50,-116.1876,41.9532,1637.00,35.60,35.60,100.00,0.00,0.00,0.00,29.96,M,9.00,M,OVC,M,M,M,400.00,M,M,M,M,M,M,M,M,M,M,35.60,K10U 231750Z AUTO 00000KT 9SM OVC004 02/02 A2996 RMK AO2,M
05U,2024-01-23 17:50,-116.0051,39.6042,1811.23,35.60,35.60,100.00,0.00,0.00,0.00,29.96,M,10.00,M,M,M,M,M,M,M,M,M,M,M,M,M,M,M,M,35.60,K05U 231750Z AUTO 00000KT 10SM 02/02 A2996 RMK A01,M
CXP,2024-01-23 17:50,-119.7326,39.1923,1431.00,37.40,37.40,100.00,280.00,4.00,0.00,30.03,M,8.00,M,OVC,M,M,M,400.00,M,M,M,M,M,M,M,M,M,M,33.73,KCXP 231750Z AUTO 28004KT 8SM OVC004 03/03 A3003 RMK AO2,M
P68,2024-01-23 17:53,-116.0056,39.6014,1993.00,36.00,33.00,88.73,0.00,0.00,0.00,29.93,1012.80,M,M,M,M,M,M,M,M,M,M,M,M,M,M,M,M,M,36.00,KP68 231753Z AUTO 00000KT 02/01 A2993 RMK AO1 SLP128 60003 T00220006 10022 20000 51019,M
DRA,2024-01-23 17:53,-116.0278,36.6206,1009.00,47.00,43.00,85.89,30.00,5.00,T,29.91,1011.30,10.00,M,OVC,M,M,M,4100.00,M,M,M,M,M,M,M,M,M,M,44.21,KDRA 231753Z AUTO 03005KT 10SM OVC041 08/06 A2991 RMK AO2 RAB10E40 SLP113 P0000 60008 T00830061 10083 20067 52022,M
ELY,2024-01-23 17:53,-114.8453,39.2950,1909.00,36.00,34.00,92.35,0.00,0.00,T,29.91,1011.80,10.00,M,SCT,BKN,OVC,M,500.00,1000.00,4600.00,M,M,M,M,M,M,M,M,36.00,KELY 231753Z AUTO 00000KT 10SM SCT005 BKN010 OVC046 02/01 A2991 RMK AO2 RAB20E26SNE17 SLP118 P0000 60002 T00220011 10022 21011 53010,M
VGT,2024-01-23 17:53,-115.1933,36.2111,667.00,52.00,48.00,86.17,0.00,0.00,0.01,29.90,1013.90,10.00,M,BKN,OVC,M,M,3000.00,3800.00,M,M,M,M,M,M,M,M,M,52.00,KVGT 231753Z 00000KT 10SM BKN030 OVC038 11/09 A2990 RMK AO2 RAB01E28 SLP139 P0001 60001 T01110089 10111 20100 51014,M
LOL,2024-01-23 17:53,-118.5701,40.0684,1192.43,40.00,40.00,100.00,160.00,3.00,0.00,29.99,1016.30,10.00,M,M,M,M,M,M,M,M,M,M,M,M,M,M,M,M,37.83,KLOL 231753Z AUTO 16003KT 10SM 04/04 A2999 RMK AO2 SLP163 6//// T00440044 10044 21011 53020 PNO $,M
BVU,2024-01-23 17:55,-114.8611,35.9475,671.00,50.00,48.20,93.50,30.00,4.00,0.00,29.89,M,1.00,M,SCT,SCT,OVC,M,400.00,700.00,2400.00,M,RA,M,M,M,M,M,M,50.00,KBVU 231755Z AUTO 03004KT 1SM RA SCT004 SCT007 OVC024 10/09 A2989 RMK AO2,M
INS,2024-01-23 17:55,-115.6733,36.5872,955.00,46.80,41.50,81.68,0.00,0.00,0.01,29.91,1011.60,10.00,M,SCT,BKN,OVC,M,2800.00,4000.00,6000.00,M,-RA,M,M,M,M,M,M,46.80,KINS 231755Z AUTO 00000KT 10SM -RA SCT028 BKN040 OVC060 08/05 A2991 RMK AO2 SLP116 P0001 60013 T00820053 10083 20074 52020,M
RNO,2024-01-23 17:55,-119.7711,39.4839,1341.00,40.00,35.00,82.15,0.00,0.00,0.00,30.01,1015.60,10.00,M,SCT,M,M,M,3900.00,M,M,M,M,M,M,M,M,M,M,40.00,KRNO 231755Z 00000KT 10SM SCT039 04/02 A3001 RMK AO2 SLP156 T00440017 10044 20000 53019,M
RTS,2024-01-23 17:55,-119.8764,39.6682,1539.00,39.20,33.80,80.79,0.00,0.00,0.00,30.02,M,10.00,M,OVC,M,M,M,3000.00,M,M,M,M,M,M,M,M,M,M,39.20,KRTS 231755Z AUTO 00000KT 10SM OVC030 04/01 A3002 RMK AO2,M
MEV,2024-01-23 17:55,-119.7500,38.9963,1441.42,35.60,35.60,100.00,260.00,4.00,0.00,30.01,M,2.50,M,BKN,BKN,M,M,300.00,1000.00,M,M,BR,M,M,M,M,M,M,31.62,KMEV 231755Z AUTO 26004KT 2 1/2SM BR BKN003 BKN010 02/02 A3001 RMK AO2 VIS 1 1/4V5,M
BAM,2024-01-23 17:55,-116.8743,40.5990,1382.36,41.00,39.20,93.24,250.00,4.00,0.00,29.98,M,10.00,M,OVC,M,M,M,900.00,M,M,M,M,M,M,M,M,M,M,37.93,KBAM 231755Z AUTO 25004KT 10SM OVC009 05/04 A2998 RMK AO1,M
TMT,2024-01-23 17:55,-117.1971,39.4643,1749.34,35.80,34.70,95.72,320.00,4.00,0.00,29.99,M,10.00,M,OVC,M,M,M,1100.00,M,M,M,M,M,M,M,M,M,M,31.86,KTMT 231755Z AUTO 32004KT 10SM OVC011 02/02 A2999 RMK AO2 T00210015 10021 20000,M
LSV,2024-01-23 17:55,-115.0343,36.2362,570.00,53.00,47.30,80.91,50.00,7.00,0.00,29.88,1011.30,10.00,M,SCT,BKN,M,M,2300.00,3100.00,M,M,M,M,M,M,M,M,M,53.00,KLSV 231755Z AUTO 05007KT 10SM SCT023 BKN031 12/09 A2988 RMK AO2 SLP113 60000 T01170085 10117 20099 52020 $,M
EKO,2024-01-23 17:56,-115.7860,40.8242,1367.00,38.00,36.00,92.42,210.00,7.00,0.01,29.93,1014.20,10.00,M,OVC,M,M,M,4800.00,M,M,M,M,M,M,M,M,M,M,32.09,KEKO 231756Z AUTO 21007KT 10SM OVC048 03/02 A2993 RMK AO2 UPE07 SLP142 P0001 60008 T00330022 10033 20000 53018,M
NFL,2024-01-23 17:56,-118.7010,39.4166,1199.00,45.00,39.00,79.36,270.00,4.00,0.00,29.99,1012.60,10.00,M,SCT,BKN,M,M,4500.00,10000.00,M,M,M,M,M,M,M,M,M,42.60,KNFL 231756Z 27004KT 10SM SCT045 BKN100 07/04 A2999 RMK AO2 SLP126 T00720039 10072 20039 53019,M
HND,2024-01-23 17:56,-115.1344,35.9729,742.79,48.00,48.00,100.00,20.00,6.00,0.01,29.92,1014.80,2.50,M,BKN,OVC,M,M,400.00,1000.00,M,M,-RA BR,M,M,M,M,M,M,44.80,KHND 231756Z 02006KT 2 1/2SM -RA BR BKN004 OVC010 09/09 A2992 RMK AO2 CIG 002V006 SLP148 P0001 60002 T00890089 10089 20083 53021,M
TPH,2024-01-23 17:56,-117.0904,38.0505,1654.00,40.00,35.00,82.15,20.00,8.00,0.00,29.94,1013.50,10.00,M,CLR,M,M,M,M,M,M,M,M,M,M,M,M,M,M,33.97,KTPH 231756Z AUTO 02008KT 10SM CLR 04/02 A2994 RMK AO2 SLP135 T00440017 10044 20006 53019,M
LAS,2024-01-23 17:56,-115.1634,36.0719,663.00,51.00,48.00,89.42,50.00,8.00,T,29.90,1012.10,7.00,M,BKN,BKN,M,M,500.00,1000.00,M,M,M,M,M,M,M,M,M,51.00,KLAS 231756Z 05008KT 7SM BKN005 BKN010 11/09 A2990 RMK AO2 RAB32E50 SLP121 VIS LWR SE P0000 60000 T01060089 10106 20094 53021,M
WMC,2024-01-23 17:56,-117.8072,40.9019,1315.00,42.00,39.00,89.01,M,3.00,0.00,29.98,1015.00,10.00,M,OVC,M,M,M,900.00,M,M,M,M,M,M,M,M,M,M,40.12,KWMC 231756Z AUTO VRB03KT 10SM OVC009 06/04 A2998 RMK AO2 CIG 005V012 SLP150 60001 T00560039 10056 20039 53019,M
ELY,2024-01-23 18:00,-114.8453,39.2950,1909.00,36.00,34.00,92.35,0.00,0.00,0.00,29.91,M,10.00,M,BKN,OVC,M,M,700.00,3700.00,M,M,M,M,M,M,M,M,M,36.00,KELY 231800Z AUTO 00000KT 10SM BKN007 OVC037 02/01 A2991 RMK AO2 T00220011,M
LAS,2024-01-23 18:08,-115.1634,36.0719,663.00,53.00,48.00,83.06,50.00,9.00,0.00,29.90,M,7.00,M,SCT,BKN,M,M,500.00,1200.00,M,M,M,M,M,M,M,M,M,53.00,KLAS 231808Z 05009KT 7SM SCT005 BKN012 12/09 A2990 RMK AO2 VIS LWR SE T01170089,M
CXP,2024-01-23 18:10,-119.7326,39.1923,1431.00,37.40,37.40,100.00,0.00,0.00,0.00,30.03,M,9.00,M,OVC,M,M,M,400.00,M,M,M,M,M,M,M,M,M,M,37.40,KCXP 231810Z AUTO 00000KT 9SM OVC004 03/03 A3003 RMK AO2,M
05U,2024-01-23 18:10,-116.0051,39.6042,1811.23,37.40,35.60,93.14,0.00,0.00,0.00,29.96,M,10.00,M,M,M,M,M,M,M,M,M,M,M,M,M,M,M,M,37.40,K05U 231810Z AUTO 00000KT 10SM 03/02 A2996 RMK A01,M
HTH,2024-01-23 18:10,-118.6315,38.5448,1282.89,42.80,41.00,93.30,0.00,0.00,0.00,30.01,M,10.00,M,BKN,BKN,M,M,5000.00,5500.00,M,M,M,M,M,M,M,M,M,42.80,KHTH 231810Z AUTO 00000KT 10SM BKN050 BKN055 06/05 A3001 RMK A01,M
10U,2024-01-23 18:10,-116.1876,41.9532,1637.00,35.60,33.80,93.08,0.00,0.00,0.00,29.96,M,1.75,M,OVC,M,M,M,300.00,M,M,M,BR,M,M,M,M,M,M,35.60,K10U 231810Z AUTO 00000KT 1 3/4SM BR OVC003 02/01 A2996 RMK AO2,M
BVU,2024-01-23 18:15,-114.8611,35.9475,671.00,50.00,50.00,100.00,30.00,6.00,0.00,29.90,M,4.00,M,BKN,BKN,M,M,2300.00,2800.00,M,M,BR,M,M,M,M,M,M,50.00,KBVU 231815Z AUTO 03006KT 4SM BR BKN023 BKN028 10/10 A2990 RMK AO2,M
RTS,2024-01-23 18:15,-119.8764,39.6682,1539.00,41.00,33.80,75.33,0.00,0.00,0.00,30.02,M,10.00,M,OVC,M,M,M,3000.00,M,M,M,M,M,M,M,M,M,M,41.00,KRTS 231815Z AUTO 00000KT 10SM OVC030 05/01 A3002 RMK AO2,M
MEV,2024-01-23 18:15,-119.7500,38.9963,1441.42,39.20,37.40,93.19,M,3.00,0.00,30.02,M,10.00,M,BKN,BKN,M,M,300.00,700.00,M,M,M,M,M,M,M,M,M,36.92,KMEV 231815Z AUTO VRB03KT 10SM BKN003 BKN007 04/03 A3002 RMK AO2,M
BAM,2024-01-23 18:15,-116.8743,40.5990,1382.36,41.00,39.20,93.24,240.00,4.00,0.00,29.99,M,10.00,M,OVC,M,M,M,900.00,M,M,M,M,M,M,M,M,M,M,37.93,KBAM 231815Z AUTO 24004KT 10SM OVC009 05/04 A2999 RMK AO1,M
LSV,2024-01-23 18:15,-115.0343,36.2362,570.00,53.60,46.40,76.50,30.00,7.00,0.00,29.88,1011.30,10.00,M,FEW,BKN,M,M,1800.00,2300.00,M,M,M,M,M,M,M,M,M,53.60,KLSV 231815Z AUTO 03007KT 10SM FEW018 BKN023 12/08 A2988 RMK AO2 CIG 023V032 BKN V SCT SLP113 $,M
TMT,2024-01-23 18:15,-117.1971,39.4643,1749.34,36.50,35.00,94.23,350.00,3.00,0.00,29.99,M,10.00,M,OVC,M,M,M,900.00,M,M,M,M,M,M,M,M,M,M,33.83,KTMT 231815Z AUTO 35003KT 10SM OVC009 03/02 A2999 RMK AO2 T00250017,M
WMC,2024-01-23 18:17,-117.8072,40.9019,1315.00,43.00,39.00,85.66,260.00,4.00,0.00,29.99,M,10.00,M,OVC,M,M,M,1100.00,M,M,M,M,M,M,M,M,M,M,40.27,KWMC 231817Z AUTO 26004KT 10SM OVC011 06/04 A2999 RMK AO2 T00610039,M
INS,2024-01-23 18:19,-115.6733,36.5872,955.00,48.20,42.80,81.47,0.00,0.00,0.00,29.92,1011.70,10.00,M,FEW,BKN,M,M,2800.00,4000.00,M,M,M,M,M,M,M,M,M,48.20,KINS 231819Z AUTO 00000KT 10SM FEW028 BKN040 09/06 A2992 RMK AO2 RAE09DZB09E19 SLP117,M
TPH,2024-01-23 18:23,-117.0904,38.0505,1654.00,41.00,35.00,79.02,340.00,11.00,0.00,29.95,M,10.00,17.00,BKN,M,M,M,2000.00,M,M,M,M,M,M,M,M,M,M,33.84,KTPH 231823Z AUTO 34011G17KT 10SM BKN020 05/02 A2995 RMK AO2 T00500017,M
LSV,2024-01-23 18:25,-115.0343,36.2362,570.00,53.60,46.40,76.50,30.00,7.00,0.00,29.88,1011.30,10.00,M,SCT,BKN,M,M,1900.00,2900.00,M,M,M,M,M,M,M,M,M,53.60,KLSV 231825Z 03007KT 10SM SCT019 BKN029 12/08 A2988 RMK AO2A CIG 019V025 SLP113 $,M
CXP,2024-01-23 18:30,-119.7326,39.1923,1431.00,37.40,37.40,100.00,0.00,0.00,0.00,30.04,M,10.00,M,OVC,M,M,M,600.00,M,M,M,M,M,M,M,M,M,M,37.40,KCXP 231830Z AUTO 00000KT 10SM OVC006 03/03 A3004 RMK AO2,M
05U,2024-01-23 18:30,-116.0051,39.6042,1811.23,37.40,35.60,93.14,0.00,0.00,0.00,29.97,M,10.00,M,M,M,M,M,M,M,M,M,M,M,M,M,M,M,M,37.40,K05U 231830Z AUTO 00000KT 10SM 03/02 A2997 RMK A01,M
HTH,2024-01-23 18:30,-118.6315,38.5448,1282.89,44.60,41.00,87.09,10.00,3.00,0.00,30.01,M,10.00,M,FEW,BKN,M,M,4000.00,5000.00,M,M,M,M,M,M,M,M,M,43.09,KHTH 231830Z AUTO 01003KT 10SM FEW040 BKN050 07/05 A3001 RMK A01,M
TPH,2024-01-23 18:34,-117.0904,38.0505,1654.00,42.00,35.00,76.03,330.00,13.00,0.00,29.94,M,10.00,M,SCT,M,M,M,2000.00,M,M,M,M,M,M,M,M,M,M,34.38,KTPH 231834Z AUTO 33013KT 10SM SCT020 06/02 A2994 RMK AO2 T00560017,M
BVU,2024-01-23 18:35,-114.8611,35.9475,671.00,50.00,48.20,93.50,40.00,8.00,0.00,29.89,M,8.00,M,BKN,OVC,M,M,1800.00,2300.00,M,M,M,M,M,M,M,M,M,50.00,KBVU 231835Z AUTO 04008KT 8SM BKN018 OVC023 10/09 A2989 RMK AO2,M
RTS,2024-01-23 18:35,-119.8764,39.6682,1539.00,42.80,32.00,65.38,240.00,5.00,0.00,30.03,M,10.00,M,FEW,OVC,M,M,2100.00,3100.00,M,M,M,M,M,M,M,M,M,39.22,KRTS 231835Z AUTO 24005KT 10SM FEW021 OVC031 06/00 A3003 RMK AO2,M
MEV,2024-01-23 18:35,-119.7500,38.9963,1441.42,39.20,37.40,93.19,M,4.00,0.00,30.02,M,10.00,M,SCT,M,M,M,700.00,M,M,M,M,M,M,M,M,M,M,35.83,KMEV 231835Z AUTO VRB04KT 10SM SCT007 04/03 A3002 RMK AO2,M
BAM,2024-01-23 18:35,-116.8743,40.5990,1382.36,42.80,41.00,93.30,230.00,5.00,0.00,29.99,M,10.00,M,OVC,M,M,M,1100.00,M,M,M,M,M,M,M,M,M,M,39.22,KBAM 231835Z AUTO 23005KT 10SM OVC011 06/05 A2999 RMK AO1,M
10U,2024-01-23 18:35,-116.1876,41.9532,1637.00,35.60,33.80,93.08,0.00,0.00,0.00,29.97,M,6.00,M,OVC,M,M,M,400.00,M,M,M,BR,M,M,M,M,M,M,35.60,K10U 231835Z AUTO 00000KT 6SM BR OVC004 02/01 A2997 RMK AO2,M
TMT,2024-01-23 18:35,-117.1971,39.4643,1749.34,37.20,35.40,93.13,340.00,3.00,0.00,29.99,M,10.00,M,OVC,M,M,M,900.00,M,M,M,M,M,M,M,M,M,M,34.63,KTMT 231835Z AUTO 34003KT 10SM OVC009 03/02 A2999 RMK AO2 T00290019,M
HND,2024-01-23 18:38,-115.1344,35.9729,742.79,48.20,48.20,100.00,20.00,5.00,T,29.92,M,5.00,M,BKN,OVC,M,M,400.00,1200.00,M,M,BR,M,M,M,M,M,M,45.63,KHND 231838Z 02005KT 5SM BR BKN004 OVC012 09/09 A2992 RMK AO2 RAE37 CIG 003V007 P0000,M
ELY,2024-01-23 18:42,-114.8453,39.2950,1909.00,37.00,34.00,88.78,0.00,0.00,0.00,29.92,M,10.00,M,SCT,BKN,BKN,M,800.00,1400.00,3800.00,M,M,M,M,M,M,M,M,37.00,KELY 231842Z AUTO 00000KT 10SM SCT008 BKN014 BKN038 03/01 A2992 RMK AO2 T00280011,M
HND,2024-01-23 18:47,-115.1344,35.9729,742.79,48.20,48.20,100.00,10.00,6.00,T,29.92,M,10.00,M,SCT,BKN,OVC,M,400.00,1100.00,1700.00,M,M,M,M,M,M,M,M,45.04,KHND 231847Z 01006KT 10SM SCT004 BKN011 OVC017 09/09 A2992 RMK AO2 RAE37 P0000,M
CXP,2024-01-23 18:50,-119.7326,39.1923,1431.00,41.00,37.40,86.89,0.00,0.00,0.00,30.03,M,10.00,M,BKN,M,M,M,600.00,M,M,M,M,M,M,M,M,M,M,41.00,KCXP 231850Z AUTO 00000KT 10SM BKN006 05/03 A3003 RMK AO2,M
05U,2024-01-23 18:50,-116.0051,39.6042,1811.23,37.40,35.60,93.14,0.00,0.00,0.00,29.97,M,10.00,M,M,M,M,M,M,M,M,M,M,M,M,M,M,M,M,37.40,K05U 231850Z AUTO 00000KT 10SM 03/02 A2997 RMK A01,M
HTH,2024-01-23 18:50,-118.6315,38.5448,1282.89,44.60,41.00,87.09,350.00,3.00,0.00,30.02,M,10.00,M,BKN,M,M,M,5000.00,M,M,M,M,M,M,M,M,M,M,43.09,KHTH 231850Z AUTO 35003KT 10SM BKN050 07/05 A3002 RMK A01,M
10U,2024-01-23 18:50,-116.1876,41.9532,1637.00,35.60,33.80,93.08,0.00,0.00,0.00,29.98,M,10.00,M,OVC,M,M,M,400.00,M,M,M,M,M,M,M,M,M,M,35.60,K10U 231850Z AUTO 00000KT 10SM OVC004 02/01 A2998 RMK AO2,M
P68,2024-01-23 18:53,-116.0056,39.6014,1993.00,37.00,34.00,88.78,340.00,3.00,0.00,29.95,1013.20,M,M,M,M,M,M,M,M,M,M,M,M,M,M,M,M,M,34.40,KP68 231853Z AUTO 34003KT 03/01 A2995 RMK AO1 SLP132 T00280011,M
DRA,2024-01-23 18:53,-116.0278,36.6206,1009.00,49.00,41.00,73.77,10.00,6.00,0.00,29.91,1011.10,10.00,M,OVC,M,M,M,4900.00,M,M,M,M,M,M,M,M,M,M,46.00,KDRA 231853Z AUTO 01006KT 10SM OVC049 09/05 A2991 RMK AO2 SLP111 T00940050,M
ELY,2024-01-23 18:53,-114.8453,39.2950,1909.00,39.00,34.00,82.08,0.00,0.00,0.00,29.91,1011.60,10.00,M,SCT,BKN,BKN,M,1000.00,1400.00,2000.00,M,M,M,M,M,M,M,M,39.00,KELY 231853Z AUTO 00000KT 10SM SCT010 BKN014 BKN020 04/01 A2991 RMK AO2 SLP116 T00390011,M
VGT,2024-01-23 18:53,-115.1933,36.2111,667.00,56.00,47.00,71.70,0.00,0.00,0.00,29.89,1013.50,10.00,M,SCT,OVC,M,M,2200.00,3600.00,M,M,M,M,M,M,M,M,M,56.00,KVGT 231853Z 00000KT 10SM SCT022 OVC036 13/08 A2989 RMK AO2 SLP135 T01330083,M
LOL,2024-01-23 18:53,-118.5701,40.0684,1192.43,41.00,41.00,100.00,180.00,4.00,0.00,30.00,1016.70,10.00,M,M,M,M,M,M,M,M,M,M,M,M,M,M,M,M,37.93,KLOL 231853Z AUTO 18004KT 10SM 05/05 A3000 RMK AO2 SLP167 T00500050,M
BVU,2024-01-23 18:55,-114.8611,35.9475,671.00,51.80,50.00,93.55,40.00,9.00,0.00,29.89,M,10.00,M,OVC,M,M,M,1700.00,M,M,M,M,M,M,M,M,M,M,51.80,KBVU 231855Z AUTO 04009KT 10SM OVC017 11/10 A2989 RMK AO2,M
INS,2024-01-23 18:55,-115.6733,36.5872,955.00,48.60,43.00,80.88,0.00,0.00,0.01,29.91,1011.40,10.00,M,FEW,SCT,BKN,OVC,2300.00,4000.00,6500.00,9000.00,M,M,M,M,M,M,M,48.60,KINS 231855Z AUTO 00000KT 10SM FEW023 SCT040 BKN065 OVC090 09/06 A2991 RMK AO2 RAE09DZB09E19 SLP114 P0001 T00920061,M
RNO,2024-01-23 18:55,-119.7711,39.4839,1341.00,46.00,36.00,67.90,0.00,0.00,0.00,30.02,1015.40,10.00,M,SCT,M,M,M,4000.00,M,M,M,M,M,M,M,M,M,M,46.00,KRNO 231855Z 00000KT 10SM SCT040 08/02 A3002 RMK AO2 SLP154 T00780022,M
RTS,2024-01-23 18:55,-119.8764,39.6682,1539.00,42.80,30.20,60.79,M,5.00,0.00,30.04,M,10.00,M,FEW,OVC,M,M,2100.00,2900.00,M,M,M,M,M,M,M,M,M,39.22,KRTS 231855Z AUTO VRB05KT 10SM FEW021 OVC029 06/M01 A3004 RMK AO2,M
MEV,2024-01-23 18:55,-119.7500,38.9963,1441.42,41.00,35.60,80.93,0.00,0.00,0.00,30.02,M,10.00,M,CLR,M,M,M,M,M,M,M,M,M,M,M,M,M,M,41.00,KMEV 231855Z AUTO 00000KT 10SM CLR 05/02 A3002 RMK AO2,M
BAM,2024-01-23 18:55,-116.8743,40.5990,1382.36,42.80,39.20,86.99,220.00,5.00,0.00,29.99,M,10.00,M,OVC,M,M,M,1100.00,M,M,M,M,M,M,M,M,M,M,39.22,KBAM 231855Z AUTO 22005KT 10SM OVC011 06/04 A2999 RMK AO1,M
TMT,2024-01-23 18:55,-117.1971,39.4643,1749.34,37.80,35.00,89.53,350.00,4.00,0.00,29.99,M,10.00,M,OVC,M,M,M,1200.00,M,M,M,M,M,M,M,M,M,M,34.19,KTMT 231855Z AUTO 35004KT 10SM OVC012 03/02 A2999 RMK AO2 T00320017,M
LSV,2024-01-23 18:55,-115.0343,36.2362,570.00,53.60,47.00,78.26,60.00,7.00,0.00,29.88,1011.30,10.00,M,FEW,FEW,OVC,M,1900.00,2700.00,3300.00,M,M,M,M,M,M,M,M,53.60,KLSV 231855Z 06007KT 10SM FEW019 FEW027 OVC033 12/08 A2988 RMK AO2A SLP113 T01200083 $,M
EKO,2024-01-23 18:56,-115.7860,40.8242,1367.00,39.00,36.00,88.87,220.00,8.00,0.00,29.94,1014.30,10.00,M,BKN,OVC,M,M,4300.00,6000.00,M,M,M,M,M,M,M,M,M,32.74,KEKO 231856Z AUTO 22008KT 10SM BKN043 OVC060 04/02 A2994 RMK AO2 SLP143 T00390022,M
NFL,2024-01-23 18:56,-118.7010,39.4166,1199.00,47.00,39.00,73.57,240.00,5.00,0.00,30.00,1013.00,10.00,M,SCT,BKN,BKN,M,1500.00,4000.00,10000.00,M,M,M,M,M,M,M,M,44.21,KNFL 231856Z 24005KT 10SM SCT015 BKN040 BKN100 08/04 A3000 RMK AO2 SLP130 T00830039,M
HND,2024-01-23 18:56,-115.1344,35.9729,742.79,50.00,48.00,92.80,20.00,5.00,T,29.92,1014.60,10.00,M,SCT,BKN,OVC,M,600.00,1100.00,1500.00,M,M,M,M,M,M,M,M,50.00,KHND 231856Z 02005KT 10SM SCT006 BKN011 OVC015 10/09 A2992 RMK AO2 RAE37 CIG 008V011 SLP146 P0000 T01000089,M
TPH,2024-01-23 18:56,-117.0904,38.0505,1654.00,43.00,36.00,76.12,320.00,15.00,0.00,29.94,1013.40,10.00,M,CLR,M,M,M,M,M,M,M,M,M,M,M,M,M,M,35.04,KTPH 231856Z AUTO 32015KT 10SM CLR 06/02 A2994 RMK AO2 SLP134 T00610022,M
LAS,2024-01-23 18:56,-115.1634,36.0719,663.00,51.00,48.00,89.42,30.00,7.00,T,29.90,1012.10,8.00,M,FEW,BKN,BKN,M,500.00,1400.00,20000.00,M,M,M,M,M,M,M,M,51.00,KLAS 231856Z 03007KT 8SM FEW005 BKN014 BKN200 11/09 A2990 RMK AO2 DZB38E53 SLP121 P0000 T01060089,M
WMC,2024-01-23 18:56,-117.8072,40.9019,1315.00,44.00,40.00,85.71,260.00,4.00,0.00,29.99,1015.10,10.00,M,SCT,BKN,OVC,M,1200.00,1800.00,2400.00,M,M,M,M,M,M,M,M,41.43,KWMC 231856Z AUTO 26004KT 10SM SCT012 BKN018 OVC024 07/04 A2999 RMK AO2 SLP151 T00670044,M
HND,2024-01-23 18:59,-115.1344,35.9729,742.79,51.80,48.20,87.47,40.00,6.00,0.00,29.91,M,10.00,M,M,M,M,M,M,M,M,M,M,M,M,M,M,M,M,51.80,KHND 231859Z 04006KT 10SM OC008 11/09 A2991 RMK IM,M
ELY,2024-01-23 19:00,-114.8453,39.2950,1909.00,40.00,35.00,82.15,310.00,4.00,0.00,29.91,M,10.00,M,FEW,SCT,BKN,M,1000.00,1400.00,2000.00,M,M,M,M,M,M,M,M,36.76,KELY 231900Z AUTO 31004KT 10SM FEW010 SCT014 BKN020 04/02 A2991 RMK AO2 T00440017,M
HND,2024-01-23 19:03,-115.1344,35.9729,742.79,50.00,48.20,93.50,30.00,6.00,0.00,29.91,M,10.00,M,BKN,OVC,M,M,800.00,1500.00,M,M,M,M,M,M,M,M,M,50.00,KHND 231903Z 03006KT 10SM BKN008 OVC015 10/09 A2991 RMK AO2,M
VGT,2024-01-23 19:05,-115.1933,36.2111,667.00,54.00,47.00,77.12,100.00,7.00,0.00,29.89,M,10.00,M,BKN,OVC,M,M,2100.00,3600.00,M,M,M,M,M,M,M,M,M,54.00,KVGT 231905Z 10007KT 10SM BKN021 OVC036 12/08 A2989 RMK AO2 T01220083,M
LAS,2024-01-23 19:07,-115.1634,36.0719,663.00,51.00,48.00,89.42,60.00,8.00,0.00,29.90,M,10.00,M,FEW,BKN,BKN,M,500.00,1800.00,2900.00,M,M,M,M,M,M,M,M,51.00,KLAS 231907Z 06008KT 10SM FEW005 BKN018 BKN029 11/09 A2990 RMK AO2 T01060089,M
CXP,2024-01-23 19:10,-119.7326,39.1923,1431.00,41.00,35.60,80.93,0.00,0.00,0.00,30.03,M,10.00,M,FEW,M,M,M,800.00,M,M,M,M,M,M,M,M,M,M,41.00,KCXP 231910Z AUTO 00000KT 10SM FEW008 05/02 A3003 RMK AO2,M
05U,2024-01-23 19:10,-116.0051,39.6042,1811.23,37.40,35.60,93.14,160.00,4.00,0.00,29.97,M,10.00,M,M,M,M,M,M,M,M,M,M,M,M,M,M,M,M,33.73,K05U 231910Z AUTO 16004KT 10SM 03/02 A2997 RMK A01,M
BVU,2024-01-23 19:15,-114.8611,35.9475,671.00,51.80,48.20,87.47,30.00,8.00,0.00,29.88,M,10.00,M,OVC,M,M,M,1600.00,M,M,M,M,M,M,M,M,M,M,51.80,KBVU 231915Z AUTO 03008KT 10SM OVC016 11/09 A2988 RMK AO2,M
RTS,2024-01-23 19:15,-119.8764,39.6682,1539.00,42.80,32.00,65.38,260.00,7.00,0.00,30.03,M,10.00,M,OVC,M,M,M,2800.00,M,M,M,M,M,M,M,M,M,M,37.94,KRTS 231915Z AUTO 26007KT 10SM OVC028 06/M00 A3003 RMK AO2,M
MEV,2024-01-23 19:15,-119.7500,38.9963,1441.42,42.80,35.60,75.50,0.00,0.00,0.00,30.02,M,10.00,M,CLR,M,M,M,M,M,M,M,M,M,M,M,M,M,M,42.80,KMEV 231915Z AUTO 00000KT 10SM CLR 06/02 A3002 RMK AO2,M
BAM,2024-01-23 19:15,-116.8743,40.5990,1382.36,42.80,39.20,86.99,240.00,3.00,0.00,29.99,M,10.00,M,OVC,M,M,M,1100.00,M,M,M,M,M,M,M,M,M,M,41.03,KBAM 231915Z AUTO 24003KT 10SM OVC011 06/04 A2999 RMK AO1,M
HTH,2024-01-23 19:15,-118.6315,38.5448,1282.89,44.60,41.00,87.09,20.00,3.00,0.00,30.02,M,10.00,M,OVC,M,M,M,5000.00,M,M,M,M,M,M,M,M,M,M,43.09,KHTH 231915Z AUTO 02003KT 10SM OVC050 07/05 A3002 RMK A01,M
10U,2024-01-23 19:15,-116.1876,41.9532,1637.00,35.60,33.80,93.08,300.00,3.00,0.00,29.97,M,10.00,M,OVC,M,M,M,400.00,M,M,M,M,M,M,M,M,M,M,32.80,K10U 231915Z AUTO 30003KT 10SM OVC004 02/01 A2997 RMK AO2,M
TMT,2024-01-23 19:15,-117.1971,39.4643,1749.34,37.80,35.20,90.24,40.00,3.00,0.00,29.99,M,10.00,M,OVC,M,M,M,1200.00,M,M,M,M,M,M,M,M,M,M,35.32,KTMT 231915Z AUTO 04003KT 10SM OVC012 03/02 A2999 RMK AO2 T00320018,M
ELY,2024-01-23 19:21,-114.8453,39.2950,1909.00,38.00,32.00,78.77,310.00,3.00,0.00,29.90,M,10.00,M,FEW,SCT,SCT,M,1400.00,2600.00,4000.00,M,M,M,M,M,M,M,M,35.55,KELY 231921Z AUTO 31003KT 10SM FEW014 SCT026 SCT040 03/00 A2990 RMK AO2 T00330000,M
LOL,2024-01-23 19:24,-118.5701,40.0684,1192.43,44.00,43.00,96.24,M,3.00,0.00,30.00,M,10.00,M,FEW,SCT,OVC,M,400.00,3900.00,5500.00,M,M,M,M,M,M,M,M,42.41,KLOL 231924Z AUTO VRB03KT 10SM FEW004 SCT039 OVC055 07/06 A3000 RMK AO2 T00670061,M
WMC,2024-01-23 19:29,-117.8072,40.9019,1315.00,45.00,38.00,76.31,290.00,5.00,0.00,29.98,M,10.00,M,FEW,SCT,BKN,M,1200.00,1700.00,4300.00,M,M,M,M,M,M,M,M,41.83,KWMC 231929Z AUTO 29005KT 10SM FEW012 SCT017 BKN043 07/03 A2998 RMK AO2 T00720033,M
VGT,2024-01-23 19:30,-115.1933,36.2111,667.00,54.00,47.00,77.12,110.00,6.00,0.00,29.88,M,10.00,M,SCT,BKN,OVC,M,2000.00,3500.00,4500.00,M,M,M,M,M,M,M,M,54.00,KVGT 231930Z 11006KT 10SM SCT020 BKN035 OVC045 12/08 A2988 RMK AO2 T01220083,M
HND,2024-01-23 19:30,-115.1344,35.9729,742.79,51.80,46.40,81.74,40.00,9.00,0.00,29.90,M,10.00,M,SCT,SCT,OVC,M,1000.00,1300.00,2100.00,M,M,M,M,M,M,M,M,51.80,KHND 231930Z 04009KT 10SM SCT010 SCT013 OVC021 11/08 A2990 RMK AO2,M
HTH,2024-01-23 19:30,-118.6315,38.5448,1282.89,44.60,41.00,87.09,M,4.00,0.00,30.01,M,10.00,M,OVC,M,M,M,5000.00,M,M,M,M,M,M,M,M,M,M,42.13,KHTH 231930Z AUTO VRB04KT 10SM OVC050 07/05 A3001 RMK A01,M
ELY,2024-01-23 19:33,-114.8453,39.2950,1909.00,42.00,34.00,73.06,350.00,5.00,0.00,29.90,M,10.00,M,BKN,BKN,M,M,1600.00,4000.00,M,M,M,M,M,M,M,M,M,38.27,KELY 231933Z AUTO 35005KT 10SM BKN016 BKN040 06/01 A2990 RMK AO2 T00560011,M
LAS,2024-01-23 19:33,-115.1634,36.0719,663.00,53.00,48.00,83.06,50.00,6.00,0.00,29.89,M,10.00,M,FEW,SCT,BKN,M,1100.00,2300.00,3500.00,M,M,M,M,M,M,M,M,53.00,KLAS 231933Z 05006KT 10SM FEW011 SCT023 BKN035 12/09 A2989 RMK AO2 T01170089,M
BVU,2024-01-23 19:35,-114.8611,35.9475,671.00,51.80,48.20,87.47,30.00,7.00,0.00,29.88,M,10.00,M,OVC,M,M,M,1800.00,M,M,M,M,M,M,M,M,M,M,51.80,KBVU 231935Z AUTO 03007KT 10SM OVC018 11/09 A2988 RMK AO2,M
CXP,2024-01-23 19:35,-119.7326,39.1923,1431.00,44.60,37.40,75.68,0.00,0.00,0.00,30.02,M,10.00,M,CLR,M,M,M,M,M,M,M,M,M,M,M,M,M,M,44.60,KCXP 231935Z AUTO 00000KT 10SM CLR 07/03 A3002 RMK AO2,M
RTS,2024-01-23 19:35,-119.8764,39.6682,1539.00,42.80,32.00,65.38,280.00,6.00,0.00,30.03,M,10.00,M,OVC,M,M,M,2700.00,M,M,M,M,M,M,M,M,M,M,38.54,KRTS 231935Z AUTO 28006KT 10SM OVC027 06/M00 A3003 RMK AO2,M
05U,2024-01-23 19:35,-116.0051,39.6042,1811.23,37.40,35.60,93.14,170.00,5.00,0.00,29.97,M,10.00,M,M,M,M,M,M,M,M,M,M,M,M,M,M,M,M,32.81,K05U 231935Z AUTO 17005KT 10SM 03/02 A2997 RMK A01,M
MEV,2024-01-23 19:35,-119.7500,38.9963,1441.42,44.60,33.80,65.61,0.00,0.00,0.00,30.01,M,10.00,M,CLR,M,M,M,M,M,M,M,M,M,M,M,M,M,M,44.60,KMEV 231935Z AUTO 00000KT 10SM CLR 07/01 A3001 RMK AO2,M
10U,2024-01-23 19:35,-116.1876,41.9532,1637.00,35.60,33.80,93.08,280.00,4.00,0.00,29.97,M,10.00,M,OVC,M,M,M,400.00,M,M,M,M,M,M,M,M,M,M,31.62,K10U 231935Z AUTO 28004KT 10SM OVC004 02/01 A2997 RMK AO2,M
BAM,2024-01-23 19:35,-116.8743,40.5990,1382.36,44.60,41.00,87.09,250.00,3.00,0.00,29.99,M,10.00,M,BKN,BKN,OVC,M,1100.00,1700.00,5000.00,M,M,M,M,M,M,M,M,43.09,KBAM 231935Z AUTO 25003KT 10SM BKN011 BKN017 OVC050 07/05 A2999 RMK AO1,M
TMT,2024-01-23 19:35,-117.1971,39.4643,1749.34,38.30,35.20,88.49,0.00,0.00,0.00,29.99,M,10.00,M,BKN,BKN,OVC,M,1000.00,1500.00,3800.00,M,M,M,M,M,M,M,M,38.30,KTMT 231935Z AUTO 00000KT 10SM BKN010 BKN015 OVC038 04/02 A2999 RMK AO2 T00350018,M
EKO,2024-01-23 19:44,-115.7860,40.8242,1367.00,40.00,35.00,82.15,270.00,6.00,0.00,29.94,M,10.00,M,FEW,BKN,OVC,M,1000.00,2300.00,6000.00,M,M,M,M,M,M,M,M,35.17,KEKO 231944Z AUTO 27006KT 10SM FEW010 BKN023 OVC060 04/02 A2994 RMK AO2 T00440017,M
P68,2024-01-23 19:53,-116.0056,39.6014,1993.00,39.00,35.00,85.42,360.00,6.00,0.00,29.94,1012.50,M,M,M,M,M,M,M,M,M,M,M,M,M,M,M,M,M,33.96,KP68 231953Z AUTO 36006KT 04/02 A2994 RMK AO1 SLP125 T00390017,M
DRA,2024-01-23 19:53,-116.0278,36.6206,1009.00,52.00,42.00,68.59,20.00,6.00,0.00,29.89,1010.50,10.00,M,BKN,OVC,M,M,6000.00,7000.00,M,M,M,M,M,M,M,M,M,52.00,KDRA 231953Z AUTO 02006KT 10SM BKN060 OVC070 11/06 A2989 RMK AO2 SLP105 T01110056,M
ELY,2024-01-23 19:53,-114.8453,39.2950,1909.00,38.00,32.00,78.77,290.00,3.00,0.00,29.90,1011.00,10.00,M,SCT,SCT,M,M,1700.00,2300.00,M,M,M,M,M,M,M,M,M,35.55,KELY 231953Z AUTO 29003KT 10SM SCT017 SCT023 03/00 A2990 RMK AO2 SLP110 T00330000,M
VGT,2024-01-23 19:53,-115.1933,36.2111,667.00,55.00,47.00,74.36,90.00,5.00,0.00,29.87,1013.00,10.00,M,SCT,BKN,M,M,3200.00,4200.00,M,M,M,M,M,M,M,M,M,55.00,KVGT 231953Z 09005KT 10SM SCT032 BKN042 13/08 A2987 RMK AO2 SLP130 T01280083,M
LOL,2024-01-23 19:53,-118.5701,40.0684,1192.43,45.00,42.00,89.15,0.00,0.00,0.00,30.00,1016.40,10.00,M,OVC,M,M,M,5000.00,M,M,M,M,M,M,M,M,M,M,45.00,KLOL 231953Z AUTO 00000KT 10SM OVC050 07/06 A3000 RMK AO2 SLP164 T00720056,M
BVU,2024-01-23 19:55,-114.8611,35.9475,671.00,53.60,48.20,81.87,360.00,7.00,0.00,29.87,M,10.00,M,BKN,OVC,M,M,1800.00,2400.00,M,M,M,M,M,M,M,M,M,53.60,KBVU 231955Z AUTO 36007KT 10SM BKN018 OVC024 12/09 A2987 RMK AO2,M
CXP,2024-01-23 19:55,-119.7326,39.1923,1431.00,46.40,35.60,65.83,0.00,0.00,0.00,30.02,M,10.00,M,CLR,M,M,M,M,M,M,M,M,M,M,M,M,M,M,46.40,KCXP 231955Z AUTO 00000KT 10SM CLR 08/02 A3002 RMK AO2,M
INS,2024-01-23 19:55,-115.6733,36.5872,955.00,50.50,42.30,73.35,0.00,0.00,0.00,29.89,1010.70,10.00,M,FEW,BKN,OVC,M,1600.00,4300.00,5000.00,M,M,M,M,M,M,M,M,50.50,KINS 231955Z AUTO 00000KT 10SM FEW016 BKN043 OVC050 10/06 A2989 RMK AO2 SLP107 T01030057,M
RNO,2024-01-23 19:55,-119.7711,39.4839,1341.00,48.00,35.00,60.52,80.00,4.00,0.00,30.01,1014.90,10.00,M,BKN,M,M,M,4200.00,M,M,M,M,M,M,M,M,M,M,46.10,KRNO 231955Z 08004KT 10SM BKN042 09/02 A3001 RMK AO2 SLP149 CLDS TPG MTNS DSNT SW T00890017,M
LSV,2024-01-23 19:55,-115.0343,36.2362,570.00,56.00,48.40,75.58,80.00,9.00,0.00,29.85,1010.30,10.00,M,BKN,M,M,M,4100.00,M,M,M,M,M,M,M,M,M,M,56.00,KLSV 231955Z 08009KT 10SM BKN041 13/09 A2985 RMK AO2A SLP103 T01340091 $,M
RTS,2024-01-23 19:55,-119.8764,39.6682,1539.00,42.80,30.20,60.79,290.00,6.00,0.00,30.02,M,10.00,M,OVC,M,M,M,2800.00,M,M,M,M,M,M,M,M,M,M,38.54,KRTS 231955Z AUTO 29006KT 10SM OVC028 06/M01 A3002 RMK AO2,M
05U,2024-01-23 19:55,-116.0051,39.6042,1811.23,39.20,35.60,86.79,180.00,4.00,0.00,29.96,M,10.00,M,M,M,M,M,M,M,M,M,M,M,M,M,M,M,M,35.83,K05U 231955Z AUTO 18004KT 10SM 04/02 A2996 RMK A01,M
MEV,2024-01-23 19:55,-119.7500,38.9963,1441.42,44.60,33.80,65.61,350.00,4.00,0.00,30.00,M,10.00,M,CLR,M,M,M,M,M,M,M,M,M,M,M,M,M,M,42.13,KMEV 231955Z AUTO 35004KT 10SM CLR 07/01 A3000 RMK AO2,M
BAM,2024-01-23 19:55,-116.8743,40.5990,1382.36,44.60,41.00,87.09,200.00,3.00,0.00,29.99,M,10.00,M,SCT,BKN,OVC,M,1100.00,2100.00,5000.00,M,M,M,M,M,M,M,M,43.09,KBAM 231955Z AUTO 20003KT 10SM SCT011 BKN021 OVC050 07/05 A2999 RMK AO1,M
HTH,2024-01-23 19:55,-118.6315,38.5448,1282.89,46.40,39.20,75.84,0.00,0.00,0.00,30.01,M,10.00,M,BKN,M,M,M,5000.00,M,M,M,M,M,M,M,M,M,M,46.40,KHTH 231955Z AUTO 00000KT 10SM BKN050 08/04 A3001 RMK A01,M
TMT,2024-01-23 19:55,-117.1971,39.4643,1749.34,38.30,34.50,86.06,0.00,0.00,0.00,29.99,M,10.00,M,SCT,SCT,OVC,M,1000.00,1400.00,3800.00,M,M,M,M,M,M,M,M,38.30,KTMT 231955Z AUTO 00000KT 10SM SCT010 SCT014 OVC038 04/01 A2999 RMK AO2 T00350014,M
10U,2024-01-23 19:55,-116.1876,41.9532,1637.00,35.60,33.80,93.08,280.00,3.00,0.00,29.98,M,10.00,M,OVC,M,M,M,400.00,M,M,M,M,M,M,M,M,M,M,32.80,K10U 231955Z AUTO 28003KT 10SM OVC004 02/01 A2998 RMK AO2,M
EKO,2024-01-23 19:56,-115.7860,40.8242,1367.00,40.00,35.00,82.15,250.00,5.00,0.00,29.94,1014.10,10.00,M,FEW,OVC,M,M,1000.00,2300.00,M,M,M,M,M,M,M,M,M,35.90,KEKO 231956Z AUTO 25005KT 10SM FEW010 OVC023 04/02 A2994 RMK AO2 SLP141 T00440017,M
NFL,2024-01-23 19:56,-118.7010,39.4166,1199.00,48.00,37.00,65.51,300.00,7.00,0.00,30.00,1012.80,10.00,M,SCT,BKN,BKN,M,1500.00,4000.00,10000.00,M,M,M,M,M,M,M,M,44.28,KNFL 231956Z 30007KT 10SM SCT015 BKN040 BKN100 09/03 A3000 RMK AO2 SLP128 T00890028,M
HND,2024-01-23 19:56,-115.1344,35.9729,742.79,51.00,47.00,86.12,30.00,7.00,0.00,29.90,1014.00,10.00,M,SCT,SCT,OVC,M,1000.00,1400.00,2100.00,M,M,M,M,M,M,M,M,51.00,KHND 231956Z 03007KT 10SM SCT010 SCT014 OVC021 11/08 A2990 RMK AO2 SLP140 T01060083,M
TPH,2024-01-23 19:56,-117.0904,38.0505,1654.00,46.00,35.00,65.26,310.00,14.00,0.00,29.93,1012.80,10.00,M,SCT,M,M,M,2600.00,M,M,M,M,M,M,M,M,M,M,39.21,KTPH 231956Z AUTO 31014KT 10SM SCT026 08/02 A2993 RMK AO2 SLP128 T00780017,M
LAS,2024-01-23 19:56,-115.1634,36.0719,663.00,54.00,47.00,77.12,60.00,5.00,0.00,29.88,1011.20,10.00,M,FEW,SCT,BKN,M,1100.00,2300.00,3700.00,M,M,M,M,M,M,M,M,54.00,KLAS 231956Z 06005KT 10SM FEW011 SCT023 BKN037 12/08 A2988 RMK AO2 SLP112 T01220083,M
WMC,2024-01-23 19:56,-117.8072,40.9019,1315.00,46.00,38.00,73.47,280.00,6.00,0.00,29.98,1014.90,10.00,M,FEW,SCT,BKN,M,1900.00,2900.00,5500.00,M,M,M,M,M,M,M,M,42.39,KWMC 231956Z AUTO 28006KT 10SM FEW019 SCT029 BKN055 08/03 A2998 RMK AO2 SLP149 T00780033,M
HND,2024-01-23 20:05,-115.1344,35.9729,742.79,51.80,46.40,81.74,30.00,5.00,0.00,29.89,M,10.00,M,SCT,BKN,OVC,M,1000.00,1400.00,1900.00,M,M,M,M,M,M,M,M,51.80,KHND 232005Z 03005KT 10SM SCT010 BKN014 OVC019 11/08 A2989 RMK AO2,M
BVU,2024-01-23 20:15,-114.8611,35.9475,671.00,53.60,48.20,81.87,30.00,7.00,0.00,29.87,M,10.00,M,BKN,BKN,OVC,M,1500.00,2000.00,2500.00,M,M,M,M,M,M,M,M,53.60,KBVU 232015Z AUTO 03007KT 10SM BKN015 BKN020 OVC025 12/09 A2987 RMK AO2,M
CXP,2024-01-23 20:15,-119.7326,39.1923,1431.00,48.20,33.80,57.26,0.00,0.00,0.00,30.01,M,10.00,M,CLR,M,M,M,M,M,M,M,M,M,M,M,M,M,M,48.20,KCXP 232015Z AUTO 00000KT 10SM CLR 09/01 A3001 RMK AO2,M
HND,2024-01-23 20:15,-115.1344,35.9729,742.79,51.80,46.40,81.74,30.00,5.00,0.00,29.89,M,10.00,M,SCT,BKN,M,M,1200.00,1900.00,M,M,M,M,M,M,M,M,M,51.80,KHND 232015Z 03005KT 10SM SCT012 BKN019 11/08 A2989 RMK AO2,M
RTS,2024-01-23 20:15,-119.8764,39.6682,1539.00,44.60,30.20,56.74,260.00,6.00,0.00,30.02,M,10.00,M,OVC,M,M,M,2900.00,M,M,M,M,M,M,M,M,M,M,40.71,KRTS 232015Z AUTO 26006KT 10SM OVC029 07/M01 A3002 RMK AO2,M
05U,2024-01-23 20:15,-116.0051,39.6042,1811.23,39.20,35.60,86.79,160.00,6.00,0.00,29.96,M,10.00,M,M,M,M,M,M,M,M,M,M,M,M,M,M,M,M,34.20,K05U 232015Z AUTO 16006KT 10SM 04/02 A2996 RMK A01,M
MEV,2024-01-23 20:15,-119.7500,38.9963,1441.42,46.40,33.80,61.28,330.00,3.00,0.00,30.00,M,10.00,M,CLR,M,M,M,M,M,M,M,M,M,M,M,M,M,M,45.15,KMEV 232015Z AUTO 33003KT 10SM CLR 08/01 A3000 RMK AO2,M
BAM,2024-01-23 20:15,-116.8743,40.5990,1382.36,44.60,39.20,81.20,0.00,0.00,0.00,29.98,M,10.00,M,SCT,OVC,M,M,1500.00,2100.00,M,M,M,M,M,M,M,M,M,44.60,KBAM 232015Z AUTO 00000KT 10SM SCT015 OVC021 07/04 A2998 RMK AO1,M
HTH,2024-01-23 20:15,-118.6315,38.5448,1282.89,46.40,37.40,70.68,M,5.00,0.00,30.01,M,10.00,M,BKN,M,M,M,5000.00,M,M,M,M,M,M,M,M,M,M,43.50,KHTH 232015Z AUTO VRB05KT 10SM BKN050 08/03 A3001 RMK A01,M
10U,2024-01-23 20:15,-116.1876,41.9532,1637.00,35.60,33.80,93.08,0.00,0.00,0.00,29.97,M,10.00,M,OVC,M,M,M,400.00,M,M,M,M,M,M,M,M,M,M,35.60,K10U 232015Z AUTO 00000KT 10SM OVC004 02/01 A2997 RMK AO2,M
TMT,2024-01-23 20:15,-117.1971,39.4643,1749.34,38.50,34.70,86.07,0.00,0.00,0.00,29.99,M,10.00,M,BKN,OVC,M,M,1200.00,3800.00,M,M,M,M,M,M,M,M,M,38.50,KTMT 232015Z AUTO 00000KT 10SM BKN012 OVC038 04/02 A2999 RMK AO2 T00360015,M
WMC,2024-01-23 20:18,-117.8072,40.9019,1315.00,45.00,38.00,76.31,310.00,6.00,0.00,29.98,M,10.00,M,FEW,BKN,OVC,M,1900.00,2800.00,4000.00,M,M,M,M,M,M,M,M,41.19,KWMC 232018Z AUTO 31006KT 10SM FEW019 BKN028 OVC040 07/03 A2998 RMK AO2 T00720033,M
INS,2024-01-23 20:20,-115.6733,36.5872,955.00,51.80,42.80,71.26,0.00,0.00,0.00,29.89,1010.50,10.00,M,SCT,SCT,BKN,BKN,1600.00,2200.00,2800.00,3500.00,M,M,M,M,M,M,M,51.80,KINS 232020Z AUTO 00000KT 10SM SCT016 SCT022 BKN028 BKN035 OVC060 11/06 A2989 RMK AO2 BKN028 V SCT CIG 022 RWY26 SLP105,M
VGT,2024-01-23 20:23,-115.1933,36.2111,667.00,56.00,47.00,71.70,80.00,5.00,0.00,29.87,M,10.00,M,FEW,BKN,M,M,2000.00,2700.00,M,M,M,M,M,M,M,M,M,56.00,KVGT 232023Z 08005KT 10SM FEW020 BKN027 13/08 A2987 RMK AO2 T01330083,M
HND,2024-01-23 20:23,-115.1344,35.9729,742.79,53.60,46.40,76.50,30.00,6.00,0.00,29.89,M,10.00,M,SCT,BKN,M,M,1200.00,6500.00,M,M,M,M,M,M,M,M,M,53.60,KHND 232023Z 03006KT 10SM SCT012 BKN065 12/08 A2989 RMK AO2,M
INS,2024-01-23 20:25,-115.6733,36.5872,955.00,51.80,42.80,71.26,350.00,4.00,0.00,29.89,1010.50,10.00,M,SCT,SCT,BKN,OVC,1600.00,2200.00,3400.00,6000.00,M,M,M,M,M,M,M,51.80,KINS 232025Z AUTO 35004KT 10SM SCT016 SCT022 BKN034 OVC060 11/06 A2989 RMK AO2 SLP105,M
WMC,2024-01-23 20:29,-117.8072,40.9019,1315.00,45.00,38.00,76.31,360.00,5.00,0.00,29.98,M,10.00,M,FEW,SCT,OVC,M,1900.00,3000.00,6000.00,M,M,M,M,M,M,M,M,41.83,KWMC 232029Z AUTO 36005KT 10SM FEW019 SCT030 OVC060 07/03 A2998 RMK AO2 T00720033,M
CXP,2024-01-23 20:30,-119.7326,39.1923,1431.00,48.20,32.00,53.27,320.00,5.00,0.00,30.01,M,10.00,M,CLR,M,M,M,M,M,M,M,M,M,M,M,M,M,M,45.63,KCXP 232030Z AUTO 32005KT 10SM CLR 09/M00 A3001 RMK AO2,M
BVU,2024-01-23 20:35,-114.8611,35.9475,671.00,53.60,48.20,81.87,20.00,6.00,0.00,29.86,M,10.00,M,SCT,BKN,OVC,M,1600.00,2300.00,3100.00,M,M,M,M,M,M,M,M,53.60,KBVU 232035Z AUTO 02006KT 10SM SCT016 BKN023 OVC031 12/09 A2986 RMK AO2,M
RTS,2024-01-23 20:35,-119.8764,39.6682,1539.00,44.60,30.20,56.74,250.00,6.00,0.00,30.01,M,10.00,M,OVC,M,M,M,3000.00,M,M,M,M,M,M,M,M,M,M,40.71,KRTS 232035Z AUTO 25006KT 10SM OVC030 07/M01 A3001 RMK AO2,M
05U,2024-01-23 20:35,-116.0051,39.6042,1811.23,39.20,35.60,86.79,190.00,6.00,0.00,29.96,M,10.00,M,M,M,M,M,M,M,M,M,M,M,M,M,M,M,M,34.20,K05U 232035Z AUTO 19006KT 10SM 04/02 A2996 RMK A01,M
MEV,2024-01-23 20:35,-119.7500,38.9963,1441.42,46.40,33.80,61.28,0.00,0.00,0.00,29.99,M,10.00,M,CLR,M,M,M,M,M,M,M,M,M,M,M,M,M,M,46.40,KMEV 232035Z AUTO 00000KT 10SM CLR 08/01 A2999 RMK AO2,M
BAM,2024-01-23 20:35,-116.8743,40.5990,1382.36,44.60,41.00,87.09,310.00,3.00,0.00,29.98,M,10.00,M,BKN,OVC,M,M,2000.00,3200.00,M,M,M,M,M,M,M,M,M,43.09,KBAM 232035Z AUTO 31003KT 10SM BKN020 OVC032 07/05 A2998 RMK AO1,M
HTH,2024-01-23 20:35,-118.6315,38.5448,1282.89,48.20,37.40,66.05,320.00,8.00,0.00,30.01,M,10.00,M,BKN,OVC,M,M,5000.00,5500.00,M,M,M,M,M,M,M,M,M,44.07,KHTH 232035Z AUTO 32008KT 10SM BKN050 OVC055 09/03 A3001 RMK A01,M
10U,2024-01-23 20:35,-116.1876,41.9532,1637.00,35.60,33.80,93.08,0.00,0.00,0.00,29.97,M,10.00,M,BKN,OVC,M,M,400.00,800.00,M,M,M,M,M,M,M,M,M,35.60,K10U 232035Z AUTO 00000KT 10SM BKN004 OVC008 02/01 A2997 RMK AO2,M
TMT,2024-01-23 20:35,-117.1971,39.4643,1749.34,39.00,34.50,83.73,0.00,0.00,0.00,29.99,M,10.00,M,SCT,BKN,OVC,M,1200.00,2800.00,3300.00,M,M,M,M,M,M,M,M,39.00,KTMT 232035Z AUTO 00000KT 10SM SCT012 BKN028 OVC033 04/01 A2999 RMK AO2 T00380014,M
INS,2024-01-23 20:40,-115.6733,36.5872,955.00,51.80,42.80,71.26,0.00,0.00,0.00,29.89,1010.50,10.00,M,FEW,BKN,BKN,OVC,1700.00,2800.00,3300.00,6500.00,M,M,M,M,M,M,M,51.80,KINS 232040Z AUTO 00000KT 10SM FEW017 BKN028 BKN033 OVC065 11/06 A2989 RMK AO2 SLP105,M
INS,2024-01-23 20:45,-115.6733,36.5872,955.00,51.80,42.80,71.26,0.00,0.00,0.00,29.88,1010.10,10.00,M,FEW,BKN,BKN,M,2400.00,3100.00,6500.00,M,M,M,M,M,M,M,M,51.80,KINS 232045Z AUTO 00000KT 10SM FEW024 BKN031 BKN065 11/06 A2988 RMK AO2 SLP101,M
HND,2024-01-23 20:49,-115.1344,35.9729,742.79,53.60,46.40,76.50,20.00,6.00,0.00,29.89,M,10.00,M,BKN,BKN,BKN,M,1800.00,2500.00,6500.00,M,M,M,M,M,M,M,M,53.60,KHND 232049Z 02006KT 10SM BKN018 BKN025 BKN065 12/08 A2989 RMK AO2,M
INS,2024-01-23 20:50,-115.6733,36.5872,955.00,51.80,42.80,71.26,330.00,4.00,0.00,29.88,1010.10,10.00,M,BKN,BKN,BKN,M,2900.00,3400.00,6500.00,M,M,M,M,M,M,M,M,51.80,KINS 232050Z AUTO 33004KT 10SM BKN029 BKN034 BKN065 11/06 A2988 RMK AO2 SLP101,M
P68,2024-01-23 20:53,-116.0056,39.6014,1993.00,39.00,35.00,85.42,360.00,6.00,0.00,29.94,1012.50,M,M,M,M,M,M,M,M,M,M,M,M,M,M,M,M,M,33.96,KP68 232053Z AUTO 36006KT 04/02 A2994 RMK AO1 SLP125 T00390017 50000,M
DRA,2024-01-23 20:53,-116.0278,36.6206,1009.00,54.00,42.00,63.74,30.00,4.00,0.00,29.88,1010.20,10.00,M,SCT,M,M,M,5500.00,M,M,M,M,M,M,M,M,M,M,54.00,KDRA 232053Z AUTO 03004KT 10SM SCT055 12/06 A2988 RMK AO2 SLP102 T01220056 58007,M
ELY,2024-01-23 20:53,-114.8453,39.2950,1909.00,39.00,33.00,78.86,330.00,6.00,T,29.90,1011.00,10.00,M,BKN,BKN,OVC,M,1800.00,2900.00,4000.00,M,-RA,M,M,M,M,M,M,33.96,KELY 232053Z AUTO 33006KT 10SM -RA BKN018 BKN029 OVC040 04/01 A2990 RMK AO2 RAB52 SLP110 P0000 60000 T00390006 56005,M
VGT,2024-01-23 20:53,-115.1933,36.2111,667.00,57.00,47.00,69.16,100.00,4.00,0.00,29.86,1012.40,10.00,M,FEW,SCT,M,M,2300.00,4100.00,M,M,M,M,M,M,M,M,M,57.00,KVGT 232053Z 10004KT 10SM FEW023 SCT041 14/08 A2986 RMK AO2 SLP124 T01390083 58012,M
LOL,2024-01-23 20:53,-118.5701,40.0684,1192.43,47.00,39.00,73.57,170.00,4.00,T,29.98,1015.70,10.00,M,BKN,BKN,M,M,4800.00,5500.00,M,M,M,M,M,M,M,M,M,44.94,KLOL 232053Z AUTO 17004KT 10SM BKN048 BKN055 08/04 A2998 RMK AO2 RAB13E48 SLP157 P0000 6//// T00830039 58003,M
BVU,2024-01-23 20:55,-114.8611,35.9475,671.00,53.60,48.20,81.87,20.00,6.00,0.00,29.86,M,10.00,M,BKN,BKN,OVC,M,1900.00,2300.00,3300.00,M,M,M,M,M,M,M,M,53.60,KBVU 232055Z AUTO 02006KT 10SM BKN019 BKN023 OVC033 12/09 A2986 RMK AO2,M
CXP,2024-01-23 20:55,-119.7326,39.1923,1431.00,48.20,30.20,49.53,0.00,0.00,0.00,30.00,M,10.00,M,CLR,M,M,M,M,M,M,M,M,M,M,M,M,M,M,48.20,KCXP 232055Z AUTO 00000KT 10SM CLR 09/M01 A3000 RMK AO2,M
INS,2024-01-23 20:55,-115.6733,36.5872,955.00,51.30,41.40,68.78,0.00,0.00,0.00,29.88,1010.10,10.00,M,BKN,BKN,BKN,OVC,2900.00,3800.00,4600.00,6500.00,M,M,M,M,M,M,M,51.30,KINS 232055Z AUTO 00000KT 10SM BKN029 BKN038 BKN046 OVC065 11/05 A2988 RMK AO2 SLP101 60001 T01070052 58008,M
RNO,2024-01-23 20:55,-119.7711,39.4839,1341.00,49.00,33.00,53.82,M,4.00,0.00,29.99,1014.40,10.00,M,BKN,M,M,M,4000.00,M,M,M,M,M,M,M,M,M,M,47.27,KRNO 232055Z VRB04KT 10SM BKN040 09/01 A2999 RMK AO2 SLP144 CLDS TPG MTNS DSNT SW T00940006 58005,M
LSV,2024-01-23 20:55,-115.0343,36.2362,570.00,58.00,45.00,61.85,50.00,9.00,0.00,29.84,1009.90,10.00,M,FEW,BKN,BKN,M,2900.00,3800.00,17000.00,M,M,M,M,M,M,M,M,58.00,KLSV 232055Z 05009KT 10SM FEW029 BKN038 BKN170 14/07 A2984 RMK AO2A SLP099 T01440072 58013 $,M
RTS,2024-01-23 20:55,-119.8764,39.6682,1539.00,46.40,32.00,57.00,M,6.00,0.00,30.01,M,10.00,M,OVC,M,M,M,3000.00,M,M,M,M,M,M,M,M,M,M,42.87,KRTS 232055Z AUTO VRB06KT 10SM OVC030 08/M00 A3001 RMK AO2,M
05U,2024-01-23 20:55,-116.0051,39.6042,1811.23,39.20,35.60,86.79,170.00,8.00,0.00,29.96,M,10.00,M,M,M,M,M,M,M,M,M,M,M,M,M,M,M,M,32.98,K05U 232055Z AUTO 17008KT 10SM 04/02 A2996 RMK A01,M
MEV,2024-01-23 20:55,-119.7500,38.9963,1441.42,48.20,33.80,57.26,0.00,0.00,0.00,29.99,M,10.00,M,CLR,M,M,M,M,M,M,M,M,M,M,M,M,M,M,48.20,KMEV 232055Z AUTO 00000KT 10SM CLR 09/01 A2999 RMK AO2,M
BAM,2024-01-23 20:55,-116.8743,40.5990,1382.36,44.60,39.20,81.20,0.00,0.00,0.00,29.99,M,10.00,M,BKN,BKN,OVC,M,1700.00,2200.00,5500.00,M,M,M,M,M,M,M,M,44.60,KBAM 232055Z AUTO 00000KT 10SM BKN017 BKN022 OVC055 07/04 A2999 RMK AO1,M
HTH,2024-01-23 20:55,-118.6315,38.5448,1282.89,48.20,35.60,61.52,330.00,10.00,0.00,30.01,M,10.00,M,OVC,M,M,M,5500.00,M,M,M,M,M,M,M,M,M,M,43.28,KHTH 232055Z AUTO 33010KT 10SM OVC055 09/02 A3001 RMK A01,M
TMT,2024-01-23 20:55,-117.1971,39.4643,1749.34,39.20,33.40,79.51,190.00,4.00,0.00,29.99,M,10.00,M,SCT,BKN,OVC,M,2800.00,3500.00,4200.00,M,M,M,M,M,M,M,M,35.83,KTMT 232055Z AUTO 19004KT 10SM SCT028 BKN035 OVC042 04/01 A2999 RMK AO2 T00400008,M
10U,2024-01-23 20:55,-116.1876,41.9532,1637.00,37.40,33.80,86.69,210.00,3.00,0.00,29.97,M,10.00,M,OVC,M,M,M,600.00,M,M,M,M,M,M,M,M,M,M,34.86,K10U 232055Z AUTO 21003KT 10SM OVC006 03/01 A2997 RMK AO2,M
EKO,2024-01-23 20:56,-115.7860,40.8242,1367.00,41.00,35.00,79.02,280.00,5.00,0.00,29.94,1014.10,10.00,M,OVC,M,M,M,2200.00,M,M,M,M,M,M,M,M,M,M,37.08,KEKO 232056Z AUTO 28005KT 10SM OVC022 05/02 A2994 RMK AO2 SLP141 T00500017 50001,M
NFL,2024-01-23 20:56,-118.7010,39.4166,1199.00,49.00,37.00,63.10,0.00,0.00,0.00,29.99,1012.50,10.00,M,SCT,BKN,BKN,M,1500.00,4000.00,10000.00,M,M,M,M,M,M,M,M,49.00,KNFL 232056Z 00000KT 10SM SCT015 BKN040 BKN100 09/03 A2999 RMK AO2 SLP125 T00940028 58001,M
HND,2024-01-23 20:56,-115.1344,35.9729,742.79,53.00,46.00,77.03,10.00,6.00,0.00,29.88,1013.40,10.00,M,BKN,BKN,BKN,M,1600.00,2300.00,4300.00,M,M,M,M,M,M,M,M,53.00,KHND 232056Z 01006KT 10SM BKN016 BKN023 BKN043 12/08 A2988 RMK AO2 SLP134 60000 T01170078 58010,M
TPH,2024-01-23 20:56,-117.0904,38.0505,1654.00,48.00,36.00,62.97,310.00,14.00,0.00,29.93,1012.50,10.00,20.00,SCT,M,M,M,3500.00,M,M,M,M,M,M,M,M,M,M,41.79,KTPH 232056Z AUTO 31014G20KT 10SM SCT035 09/02 A2993 RMK AO2 SLP125 T00890022 58001,M
LAS,2024-01-23 20:56,-115.1634,36.0719,663.00,55.00,46.00,71.60,10.00,5.00,0.00,29.87,1010.80,10.00,M,SCT,BKN,M,M,1800.00,4400.00,M,M,M,M,M,M,M,M,M,55.00,KLAS 232056Z 01005KT 10SM SCT018 BKN044 13/08 A2987 RMK AO2 SLP108 60000 T01280078 58011,M
WMC,2024-01-23 20:56,-117.8072,40.9019,1315.00,47.00,37.00,68.02,350.00,5.00,0.00,29.98,1014.40,10.00,M,SCT,OVC,M,M,2400.00,6000.00,M,M,M,M,M,M,M,M,M,44.21,KWMC 232056Z AUTO 35005KT 10SM SCT024 OVC060 08/03 A2998 RMK AO2 SLP144 T00830028 58001,M
WMC,2024-01-23 21:05,-117.8072,40.9019,1315.00,46.00,38.00,73.47,360.00,5.00,0.00,29.98,M,10.00,M,BKN,OVC,M,M,2200.00,6000.00,M,M,M,M,M,M,M,M,M,43.02,KWMC 232105Z AUTO 36005KT 10SM BKN022 OVC060 08/03 A2998 RMK AO2 T00780033,M
HND,2024-01-23 21:09,-115.1344,35.9729,742.79,53.60,44.60,71.45,10.00,5.00,0.00,29.89,M,10.00,M,SCT,SCT,BKN,M,1800.00,2300.00,4300.00,M,M,M,M,M,M,M,M,53.60,KHND 232109Z 01005KT 10SM SCT018 SCT023 BKN043 12/07 A2989 RMK AO2,M
BVU,2024-01-23 21:15,-114.8611,35.9475,671.00,53.60,48.20,81.87,30.00,7.00,0.00,29.86,M,10.00,M,BKN,OVC,M,M,1900.00,2700.00,M,M,M,M,M,M,M,M,M,53.60,KBVU 232115Z AUTO 03007KT 10SM BKN019 OVC027 12/09 A2986 RMK AO2,M
CXP,2024-01-23 21:15,-119.7326,39.1923,1431.00,50.00,32.00,49.81,0.00,0.00,0.00,29.99,M,10.00,M,CLR,M,M,M,M,M,M,M,M,M,M,M,M,M,M,50.00,KCXP 232115Z AUTO 00000KT 10SM CLR 10/M00 A2999 RMK AO2,M
RTS,2024-01-23 21:15,-119.8764,39.6682,1539.00,46.40,30.20,53.00,320.00,6.00,0.00,30.01,M,10.00,M,BKN,M,M,M,3000.00,M,M,M,M,M,M,M,M,M,M,42.87,KRTS 232115Z AUTO 32006KT 10SM BKN030 08/M01 A3001 RMK AO2,M
05U,2024-01-23 21:15,-116.0051,39.6042,1811.23,39.20,35.60,86.79,160.00,6.00,0.00,29.96,M,10.00,M,M,M,M,M,M,M,M,M,M,M,M,M,M,M,M,34.20,K05U 232115Z AUTO 16006KT 10SM 04/02 A2996 RMK A01,M
MEV,2024-01-23 21:15,-119.7500,38.9963,1441.42,48.20,33.80,57.26,0.00,0.00,0.00,29.98,M,10.00,M,CLR,M,M,M,M,M,M,M,M,M,M,M,M,M,M,48.20,KMEV 232115Z AUTO 00000KT 10SM CLR 09/01 A2998 RMK AO2,M
BAM,2024-01-23 21:15,-116.8743,40.5990,1382.36,46.40,39.20,75.84,280.00,4.00,0.00,29.98,M,10.00,M,BKN,BKN,OVC,M,1700.00,2200.00,5000.00,M,M,M,M,M,M,M,M,44.24,KBAM 232115Z AUTO 28004KT 10SM BKN017 BKN022 OVC050 08/04 A2998 RMK AO1,M
HTH,2024-01-23 21:15,-118.6315,38.5448,1282.89,50.00,37.40,61.76,330.00,9.00,0.00,30.00,M,10.00,M,OVC,M,M,M,6000.00,M,M,M,M,M,M,M,M,M,M,50.00,KHTH 232115Z AUTO 33009KT 10SM OVC060 10/03 A3000 RMK A01,M
10U,2024-01-23 21:15,-116.1876,41.9532,1637.00,37.40,33.80,86.69,240.00,4.00,0.00,29.97,M,10.00,M,OVC,M,M,M,600.00,M,M,M,M,M,M,M,M,M,M,33.73,K10U 232115Z AUTO 24004KT 10SM OVC006 03/01 A2997 RMK AO2,M
LSV,2024-01-23 21:15,-115.0343,36.2362,570.00,57.20,44.60,62.69,50.00,8.00,0.00,29.84,1009.90,10.00,M,FEW,M,M,M,4500.00,M,M,M,M,M,M,M,M,M,M,57.20,KLSV 232115Z AUTO 05008KT 10SM FEW045 14/07 A2984 RMK AO2 SLP099 $,M
TMT,2024-01-23 21:15,-117.1971,39.4643,1749.34,39.70,33.40,77.97,0.00,0.00,0.00,29.99,M,10.00,M,SCT,OVC,M,M,3500.00,4400.00,M,M,M,M,M,M,M,M,M,39.70,KTMT 232115Z AUTO 00000KT 10SM SCT035 OVC044 04/01 A2999 RMK AO2 T00430008,M
ELY,2024-01-23 21:22,-114.8453,39.2950,1909.00,39.00,33.00,78.86,310.00,10.00,T,29.90,M,10.00,M,SCT,BKN,OVC,M,2000.00,3200.00,4000.00,M,M,M,M,M,M,M,M,31.75,KELY 232122Z AUTO 31010KT 10SM SCT020 BKN032 OVC040 04/01 A2990 RMK AO2 RAE13 P0000 T00390006,M
HND,2024-01-23 21:22,-115.1344,35.9729,742.79,53.60,46.40,76.50,20.00,7.00,0.00,29.89,M,10.00,M,BKN,BKN,M,M,2000.00,4300.00,M,M,M,M,M,M,M,M,M,53.60,KHND 232122Z 02007KT 10SM BKN020 BKN043 12/08 A2989 RMK AO2,M
BVU,2024-01-23 21:35,-114.8611,35.9475,671.00,55.40,48.20,76.66,20.00,7.00,0.00,29.86,M,10.00,M,FEW,OVC,M,M,1900.00,3100.00,M,M,M,M,M,M,M,M,M,55.40,KBVU 232135Z AUTO 02007KT 10SM FEW019 OVC031 13/09 A2986 RMK AO2,M
CXP,2024-01-23 21:35,-119.7326,39.1923,1431.00,50.00,32.00,49.81,310.00,6.00,0.00,29.99,M,10.00,M,SCT,M,M,M,3800.00,M,M,M,M,M,M,M,M,M,M,50.00,KCXP 232135Z AUTO 31006KT 10SM SCT038 10/00 A2999 RMK AO2,M
RTS,2024-01-23 21:35,-119.8764,39.6682,1539.00,44.60,30.20,56.74,300.00,3.00,0.00,30.01,M,10.00,M,FEW,M,M,M,3000.00,M,M,M,M,M,M,M,M,M,M,43.09,KRTS 232135Z AUTO 30003KT 10SM FEW030 07/M01 A3001 RMK AO2,M
05U,2024-01-23 21:35,-116.0051,39.6042,1811.23,39.20,35.60,86.79,180.00,9.00,0.00,29.97,M,10.00,M,M,M,M,M,M,M,M,M,M,M,M,M,M,M,M,32.47,K05U 232135Z AUTO 18009KT 10SM 04/02 A2997 RMK A01,M
MEV,2024-01-23 21:35,-119.7500,38.9963,1441.42,50.00,33.80,53.54,0.00,0.00,0.00,29.98,M,10.00,M,CLR,M,M,M,M,M,M,M,M,M,M,M,M,M,M,50.00,KMEV 232135Z AUTO 00000KT 10SM CLR 10/01 A2998 RMK AO2,M
BAM,2024-01-23 21:35,-116.8743,40.5990,1382.36,44.60,39.20,81.20,330.00,4.00,0.00,29.98,M,3.00,M,BKN,BKN,OVC,M,1900.00,3100.00,5000.00,M,M,M,M,M,M,M,M,42.13,KBAM 232135Z AUTO 33004KT 3SM BKN019 BKN031 OVC050 07/04 A2998 RMK AO1,M
HTH,2024-01-23 21:35,-118.6315,38.5448,1282.89,50.00,37.40,61.76,330.00,8.00,0.00,30.00,M,10.00,M,OVC,M,M,M,6000.00,M,M,M,M,M,M,M,M,M,M,50.00,KHTH 232135Z AUTO 33008KT 10SM OVC060 10/03 A3000 RMK A01,M
10U,2024-01-23 21:35,-116.1876,41.9532,1637.00,37.40,33.80,86.69,0.00,0.00,0.00,29.98,M,10.00,M,OVC,M,M,M,600.00,M,M,M,M,M,M,M,M,M,M,37.40,K10U 232135Z AUTO 00000KT 10SM OVC006 03/01 A2998 RMK AO2,M
TMT,2024-01-23 21:35,-117.1971,39.4643,1749.34,39.70,33.40,77.97,340.00,3.00,0.00,29.99,M,10.00,M,BKN,BKN,OVC,M,1800.00,2400.00,4400.00,M,M,M,M,M,M,M,M,37.49,KTMT 232135Z AUTO 34003KT 10SM BKN018 BKN024 OVC044 04/01 A2999 RMK AO2 T00430008,M
INS,2024-01-23 21:50,-115.6733,36.5872,955.00,51.80,41.00,66.48,280.00,3.00,0.00,29.89,1010.50,10.00,M,OVC,M,M,M,2900.00,M,M,M,M,M,M,M,M,M,M,51.80,KINS 232150Z AUTO 28003KT 10SM OVC029 11/05 A2989 RMK AO2 SLP105,M
P68,2024-01-23 21:53,-116.0056,39.6014,1993.00,38.00,34.00,85.35,340.00,10.00,0.00,29.95,1013.00,M,M,M,M,M,M,M,M,M,M,M,M,M,M,M,M,M,30.49,KP68 232153Z AUTO 34010KT 03/01 A2995 RMK AO1 SLP130 T00330011,M
DRA,2024-01-23 21:53,-116.0278,36.6206,1009.00,53.00,40.00,61.19,70.00,4.00,0.00,29.88,1010.20,10.00,M,BKN,M,M,M,6500.00,M,M,M,M,M,M,M,M,M,M,53.00,KDRA 232153Z AUTO 07004KT 10SM BKN065 12/04 A2988 RMK AO2 SLP102 T01170044,M
ELY,2024-01-23 21:53,-114.8453,39.2950,1909.00,38.00,32.00,78.77,330.00,7.00,T,29.91,1011.90,9.00,M,BKN,OVC,M,M,2500.00,3000.00,M,M,-RA,M,M,M,M,M,M,32.09,KELY 232153Z AUTO 33007KT 9SM -RA BKN025 OVC030 03/00 A2991 RMK AO2 RAE13B33 SLP119 P0000 T00330000,M
VGT,2024-01-23 21:53,-115.1933,36.2111,667.00,58.00,45.00,61.85,30.00,6.00,0.00,29.87,1012.70,10.00,M,BKN,BKN,OVC,M,2900.00,3500.00,4400.00,M,M,M,M,M,M,M,M,58.00,KVGT 232153Z 03006KT 10SM BKN029 BKN035 OVC044 14/07 A2987 RMK AO2 SLP127 T01440072,M
LOL,2024-01-23 21:53,-118.5701,40.0684,1192.43,48.00,38.00,68.13,0.00,0.00,0.00,29.98,1015.70,10.00,M,OVC,M,M,M,5500.00,M,M,M,M,M,M,M,M,M,M,48.00,KLOL 232153Z AUTO 00000KT 10SM OVC055 09/03 A2998 RMK AO2 SLP157 T00890033,M
BVU,2024-01-23 21:55,-114.8611,35.9475,671.00,55.40,46.40,71.64,40.00,6.00,0.00,29.87,M,10.00,M,SCT,BKN,M,M,3200.00,3800.00,M,M,M,M,M,M,M,M,M,55.40,KBVU 232155Z AUTO 04006KT 10SM SCT032 BKN038 13/08 A2987 RMK AO2,M
CXP,2024-01-23 21:55,-119.7326,39.1923,1431.00,50.00,32.00,49.81,320.00,9.00,0.00,30.00,M,10.00,M,SCT,M,M,M,3700.00,M,M,M,M,M,M,M,M,M,M,50.00,KCXP 232155Z AUTO 32009KT 10SM SCT037 10/00 A3000 RMK AO2,M
INS,2024-01-23 21:55,-115.6733,36.5872,955.00,51.60,41.70,68.81,0.00,0.00,0.00,29.90,1010.80,10.00,M,OVC,M,M,M,2900.00,M,M,M,M,M,M,M,M,M,M,51.60,KINS 232155Z AUTO 00000KT 10SM OVC029 11/05 A2990 RMK AO2 SLP108 T01090054,M
RNO,2024-01-23 21:55,-119.7711,39.4839,1341.00,51.00,32.00,47.99,360.00,5.00,0.00,30.00,1014.60,10.00,M,SCT,M,M,M,4200.00,M,M,M,M,M,M,M,M,M,M,51.00,KRNO 232155Z 36005KT 10SM SCT042 11/00 A3000 RMK AO2 SLP146 T01060000,M
RTS,2024-01-23 21:55,-119.8764,39.6682,1539.00,46.40,30.20,53.00,260.00,6.00,0.00,30.01,M,10.00,M,CLR,M,M,M,M,M,M,M,M,M,M,M,M,M,M,42.87,KRTS 232155Z AUTO 26006KT 10SM CLR 08/M01 A3001 RMK AO2,M
05U,2024-01-23 21:55,-116.0051,39.6042,1811.23,39.20,35.60,86.79,130.00,8.00,0.00,29.98,M,6.00,M,M,M,M,M,M,M,M,M,HZ,M,M,M,M,M,M,32.98,K05U 232155Z AUTO 13008KT 6SM HZ 04/02 A2998 RMK A01,M
MEV,2024-01-23 21:55,-119.7500,38.9963,1441.42,50.00,33.80,53.54,0.00,0.00,0.00,29.98,M,10.00,M,CLR,M,M,M,M,M,M,M,M,M,M,M,M,M,M,50.00,KMEV 232155Z AUTO 00000KT 10SM CLR 10/01 A2998 RMK AO2,M
BAM,2024-01-23 21:55,-116.8743,40.5990,1382.36,44.60,41.00,87.09,220.00,3.00,0.00,29.98,M,10.00,M,SCT,SCT,OVC,M,1900.00,3000.00,4600.00,M,M,M,M,M,M,M,M,43.09,KBAM 232155Z AUTO 22003KT 10SM SCT019 SCT030 OVC046 07/05 A2998 RMK AO1,M
HTH,2024-01-23 21:55,-118.6315,38.5448,1282.89,48.20,35.60,61.52,340.00,7.00,0.00,30.00,M,10.00,M,OVC,M,M,M,5500.00,M,M,M,M,M,M,M,M,M,M,44.53,KHTH 232155Z AUTO 34007KT 10SM OVC055 09/02 A3000 RMK A01,M
LSV,2024-01-23 21:55,-115.0343,36.2362,570.00,58.00,44.00,59.54,20.00,4.00,0.00,29.85,1010.30,10.00,M,FEW,FEW,FEW,BKN,3100.00,3900.00,4700.00,6000.00,M,M,M,M,M,M,M,58.00,KLSV 232155Z AUTO 02004KT 10SM FEW031 FEW039 FEW047 BKN060 14/07 A2985 RMK AO2 SLP103 T01440067 $,M
TMT,2024-01-23 21:55,-117.1971,39.4643,1749.34,38.30,35.20,88.49,70.00,5.00,0.00,29.99,M,10.00,M,BKN,BKN,OVC,M,1800.00,2400.00,4400.00,M,M,M,M,M,M,M,M,33.88,KTMT 232155Z AUTO 07005KT 10SM BKN018 BKN024 OVC044 04/02 A2999 RMK AO2 T00350018,M
10U,2024-01-23 21:55,-116.1876,41.9532,1637.00,37.40,33.80,86.69,210.00,3.00,0.00,29.98,M,10.00,M,OVC,M,M,M,600.00,M,M,M,M,M,M,M,M,M,M,34.86,K10U 232155Z AUTO 21003KT 10SM OVC006 03/01 A2998 RMK AO2,M
EKO,2024-01-23 21:56,-115.7860,40.8242,1367.00,41.00,34.00,75.94,280.00,7.00,0.00,29.96,1014.70,10.00,M,OVC,M,M,M,2500.00,M,M,M,M,M,M,M,M,M,M,35.75,KEKO 232156Z AUTO 28007KT 10SM OVC025 05/01 A2996 RMK AO2 SLP147 T00500011,M
NFL,2024-01-23 21:56,-118.7010,39.4166,1199.00,50.00,36.00,58.44,0.00,0.00,0.00,29.98,1012.40,10.00,M,SCT,BKN,BKN,M,1500.00,4000.00,10000.00,M,M,M,M,M,M,M,M,50.00,KNFL 232156Z 00000KT 10SM SCT015 BKN040 BKN100 10/02 A2998 RMK AO2 SLP124 T01000022,M
HND,2024-01-23 21:56,-115.1344,35.9729,742.79,54.00,45.00,71.50,40.00,3.00,0.00,29.89,1013.80,10.00,M,SCT,BKN,BKN,M,2200.00,2800.00,7000.00,M,M,M,M,M,M,M,M,54.00,KHND 232156Z 04003KT 10SM SCT022 BKN028 BKN070 12/07 A2989 RMK AO2 SLP138 T01220072,M
TPH,2024-01-23 21:56,-117.0904,38.0505,1654.00,49.00,34.00,56.02,10.00,11.00,0.00,29.94,1012.60,10.00,M,BKN,OVC,M,M,3700.00,4500.00,M,M,M,M,M,M,M,M,M,43.95,KTPH 232156Z AUTO 01011KT 10SM BKN037 OVC045 09/01 A2994 RMK AO2 SLP126 T00940011,M
LAS,2024-01-23 21:56,-115.1634,36.0719,663.00,57.00,45.00,64.12,0.00,0.00,0.00,29.87,1010.90,10.00,M,SCT,BKN,BKN,M,2600.00,4500.00,20000.00,M,M,M,M,M,M,M,M,57.00,KLAS 232156Z 00000KT 10SM SCT026 BKN045 BKN200 14/07 A2987 RMK AO2 SLP109 T01390072,M
WMC,2024-01-23 21:56,-117.8072,40.9019,1315.00,46.00,38.00,73.47,110.00,3.00,0.00,29.98,1014.90,10.00,M,BKN,BKN,OVC,M,2100.00,2700.00,5500.00,M,M,M,M,M,M,M,M,44.69,KWMC 232156Z AUTO 11003KT 10SM BKN021 BKN027 OVC055 08/03 A2998 RMK AO2 SLP149 T00780033,M
VGT,2024-01-23 22:04,-115.1933,36.2111,667.00,58.00,45.00,61.85,330.00,4.00,0.00,29.87,M,10.00,M,FEW,BKN,OVC,M,2900.00,3800.00,9500.00,M,M,M,M,M,M,M,M,58.00,KVGT 232204Z 33004KT 10SM FEW029 BKN038 OVC095 14/07 A2987 RMK AO2 T01440072,M
05U,2024-01-23 22:10,-116.0051,39.6042,1811.23,37.40,35.60,93.14,160.00,6.00,0.00,29.98,M,2.00,M,M,M,M,M,M,M,M,M,BR,M,M,M,M,M,M,32.03,K05U 232210Z AUTO 16006KT 2SM BR 03/02 A2998 RMK A01,M
WMC,2024-01-23 22:12,-117.8072,40.9019,1315.00,46.00,38.00,73.47,150.00,3.00,0.00,29.98,M,10.00,M,SCT,OVC,M,M,2100.00,6000.00,M,M,M,M,M,M,M,M,M,44.69,KWMC 232212Z AUTO 15003KT 10SM SCT021 OVC060 08/03 A2998 RMK AO2 T00780033,M
HND,2024-01-23 22:12,-115.1344,35.9729,742.79,55.40,44.60,66.91,10.00,4.00,0.00,29.89,M,10.00,M,SCT,BKN,M,M,2200.00,7000.00,M,M,M,M,M,M,M,M,M,55.40,KHND 232212Z 01004KT 10SM SCT022 BKN070 13/07 A2989 RMK AO2,M
BVU,2024-01-23 22:15,-114.8611,35.9475,671.00,55.40,46.40,71.64,30.00,5.00,0.00,29.87,M,10.00,M,FEW,SCT,BKN,M,2200.00,3300.00,8000.00,M,M,M,M,M,M,M,M,55.40,KBVU 232215Z AUTO 03005KT 10SM FEW022 SCT033 BKN080 13/08 A2987 RMK AO2,M
CXP,2024-01-23 22:15,-119.7326,39.1923,1431.00,51.80,32.00,46.59,310.00,8.00,0.00,30.00,M,10.00,M,CLR,M,M,M,M,M,M,M,M,M,M,M,M,M,M,51.80,KCXP 232215Z AUTO 31008KT 10SM CLR 11/00 A3000 RMK AO2,M
INS,2024-01-23 22:15,-115.6733,36.5872,955.00,51.80,42.80,71.26,0.00,0.00,0.00,29.90,1010.80,10.00,M,FEW,OVC,M,M,2300.00,3500.00,M,M,M,M,M,M,M,M,M,51.80,KINS 232215Z AUTO 00000KT 10SM FEW023 OVC035 11/06 A2990 RMK AO2 SLP108,M
RTS,2024-01-23 22:15,-119.8764,39.6682,1539.00,46.40,30.20,53.00,M,6.00,0.00,30.01,M,10.00,M,CLR,M,M,M,M,M,M,M,M,M,M,M,M,M,M,42.87,KRTS 232215Z AUTO VRB06KT 10SM CLR 08/M01 A3001 RMK AO2,M
MEV,2024-01-23 22:15,-119.7500,38.9963,1441.42,50.00,32.00,49.81,30.00,5.00,0.00,29.99,M,10.00,M,CLR,M,M,M,M,M,M,M,M,M,M,M,M,M,M,50.00,KMEV 232215Z AUTO 03005KT 10SM CLR 10/00 A2999 RMK AO2,M
HTH,2024-01-23 22:15,-118.6315,38.5448,1282.89,50.00,35.60,57.52,330.00,6.00,0.00,30.01,M,10.00,12.00,BKN,M,M,M,5500.00,M,M,M,M,M,M,M,M,M,M,50.00,KHTH 232215Z AUTO 33006G12KT 10SM BKN055 10/02 A3001 RMK A01,M
10U,2024-01-23 22:15,-116.1876,41.9532,1637.00,37.40,33.80,86.69,0.00,0.00,0.00,29.98,M,10.00,M,OVC,M,M,M,700.00,M,M,M,M,M,M,M,M,M,M,37.40,K10U 232215Z AUTO 00000KT 10SM OVC007 03/01 A2998 RMK AO2,M
BAM,2024-01-23 22:15,-116.8743,40.5990,1382.36,46.40,39.20,75.84,0.00,0.00,0.00,29.98,M,10.00,M,SCT,OVC,M,M,4600.00,6000.00,M,M,M,M,M,M,M,M,M,46.40,KBAM 232215Z AUTO 00000KT 10SM SCT046 OVC060 08/04 A2998 RMK AO1,M
TMT,2024-01-23 22:15,-117.1971,39.4643,1749.34,39.00,34.30,83.07,110.00,4.00,0.00,29.99,M,10.00,M,SCT,BKN,OVC,M,2000.00,4400.00,5000.00,M,M,M,M,M,M,M,M,35.59,KTMT 232215Z AUTO 11004KT 10SM SCT020 BKN044 OVC050 04/01 A2999 RMK AO2 T00390013,M
ELY,2024-01-23 22:20,-114.8453,39.2950,1909.00,39.00,33.00,78.86,330.00,6.00,T,29.92,M,10.00,M,FEW,FEW,OVC,M,1900.00,2500.00,3000.00,M,M,M,M,M,M,M,M,33.96,KELY 232220Z AUTO 33006KT 10SM FEW019 FEW025 OVC030 04/01 A2992 RMK AO2 RAE15 P0000 T00390006,M
LSV,2024-01-23 22:25,-115.0343,36.2362,570.00,57.20,44.60,62.69,60.00,6.00,0.00,29.85,1010.30,10.00,M,BKN,BKN,M,M,3700.00,6000.00,M,M,M,M,M,M,M,M,M,57.20,KLSV 232225Z AUTO 06006KT 10SM BKN037 BKN060 14/07 A2985 RMK AO2 SLP103 $,M
CXP,2024-01-23 22:30,-119.7326,39.1923,1431.00,50.00,32.00,49.81,320.00,6.00,0.00,30.00,M,10.00,12.00,CLR,M,M,M,M,M,M,M,M,M,M,M,M,M,M,50.00,KCXP 232230Z AUTO 32006G12KT 10SM CLR 10/00 A3000 RMK AO2,M
RTS,2024-01-23 22:30,-119.8764,39.6682,1539.00,46.40,30.20,53.00,310.00,7.00,0.00,30.01,M,10.00,M,CLR,M,M,M,M,M,M,M,M,M,M,M,M,M,M,42.33,KRTS 232230Z AUTO 31007KT 10SM CLR 08/M01 A3001 RMK AO2,M
05U,2024-01-23 22:30,-116.0051,39.6042,1811.23,39.20,35.60,86.79,150.00,7.00,0.00,29.98,M,10.00,M,M,M,M,M,M,M,M,M,M,M,M,M,M,M,M,33.56,K05U 232230Z AUTO 15007KT 10SM 04/02 A2998 RMK A01,M
HTH,2024-01-23 22:30,-118.6315,38.5448,1282.89,50.00,35.60,57.52,320.00,7.00,0.00,30.00,M,10.00,M,FEW,M,M,M,5500.00,M,M,M,M,M,M,M,M,M,M,50.00,KHTH 232230Z AUTO 32007KT 10SM FEW055 10/02 A3000 RMK A01,M
BVU,2024-01-23 22:35,-114.8611,35.9475,671.00,55.40,46.40,71.64,350.00,6.00,0.00,29.87,M,10.00,M,FEW,SCT,BKN,M,2500.00,3300.00,4400.00,M,M,M,M,M,M,M,M,55.40,KBVU 232235Z AUTO 35006KT 10SM FEW025 SCT033 BKN044 13/08 A2987 RMK AO2,M
MEV,2024-01-23 22:35,-119.7500,38.9963,1441.42,50.00,32.00,49.81,M,3.00,0.00,29.99,M,10.00,M,CLR,M,M,M,M,M,M,M,M,M,M,M,M,M,M,50.00,KMEV 232235Z AUTO VRB03KT 10SM CLR 10/M00 A2999 RMK AO2,M
10U,2024-01-23 22:35,-116.1876,41.9532,1637.00,37.40,33.80,86.69,0.00,0.00,0.00,29.99,M,10.00,M,BKN,BKN,OVC,M,600.00,1500.00,5000.00,M,M,M,M,M,M,M,M,37.40,K10U 232235Z AUTO 00000KT 10SM BKN006 BKN015 OVC050 03/01 A2999 RMK AO2,M
BAM,2024-01-23 22:35,-116.8743,40.5990,1382.36,46.40,41.00,81.34,360.00,6.00,0.00,29.99,M,7.00,M,SCT,BKN,OVC,M,2000.00,2900.00,6000.00,M,M,M,M,M,M,M,M,42.87,KBAM 232235Z AUTO 36006KT 7SM SCT020 BKN029 OVC060 08/05 A2999 RMK AO1,M
TMT,2024-01-23 22:35,-117.1971,39.4643,1749.34,40.00,35.00,82.15,150.00,3.00,0.00,30.00,M,10.00,M,BKN,M,M,M,5000.00,M,M,M,M,M,M,M,M,M,M,37.83,KTMT 232235Z AUTO 15003KT 10SM BKN050 05/02 A3000 RMK AO2 T00450016,M
EKO,2024-01-23 22:40,-115.7860,40.8242,1367.00,41.00,34.00,75.94,180.00,5.00,0.00,29.96,M,10.00,M,OVC,M,M,M,3000.00,M,M,M,M,M,M,M,M,M,M,37.08,KEKO 232240Z AUTO 18005KT 10SM OVC030 05/01 A2996 RMK AO2 T00500011,M
HND,2024-01-23 22:42,-115.1344,35.9729,742.79,55.40,44.60,66.91,0.00,0.00,0.00,29.90,M,10.00,M,BKN,BKN,M,M,2400.00,7000.00,M,M,M,M,M,M,M,M,M,55.40,KHND 232242Z 00000KT 10SM BKN024 BKN070 13/07 A2990 RMK AO2,M
10U,2024-01-23 22:50,-116.1876,41.9532,1637.00,37.40,33.80,86.69,0.00,0.00,0.00,29.99,M,10.00,M,BKN,BKN,OVC,M,700.00,1800.00,2500.00,M,M,M,M,M,M,M,M,37.40,K10U 232250Z AUTO 00000KT 10SM BKN007 BKN018 OVC025 03/01 A2999 RMK AO2,M
P68,2024-01-23 22:53,-116.0056,39.6014,1993.00,38.00,36.00,92.42,350.00,6.00,0.02,29.97,1013.90,M,M,M,M,M,M,M,M,M,M,M,M,M,M,M,M,M,32.76,KP68 232253Z AUTO 35006KT 03/02 A2997 RMK AO1 SLP139 P0002 T00330022,M
DRA,2024-01-23 22:53,-116.0278,36.6206,1009.00,56.00,40.00,54.85,360.00,4.00,0.00,29.89,1010.40,10.00,M,SCT,M,M,M,6000.00,M,M,M,M,M,M,M,M,M,M,56.00,KDRA 232253Z AUTO 36004KT 10SM SCT060 13/04 A2989 RMK AO2 SLP104 T01330044,M
ELY,2024-01-23 22:53,-114.8453,39.2950,1909.00,39.00,32.00,75.75,40.00,5.00,T,29.92,1011.80,10.00,M,FEW,BKN,OVC,M,2300.00,3500.00,4900.00,M,M,M,M,M,M,M,M,34.71,KELY 232253Z AUTO 04005KT 10SM FEW023 BKN035 OVC049 04/00 A2992 RMK AO2 RAE15 SLP118 P0000 T00390000,M
VGT,2024-01-23 22:53,-115.1933,36.2111,667.00,58.00,42.00,55.14,350.00,9.00,0.00,29.87,1012.90,10.00,M,BKN,OVC,M,M,4900.00,10000.00,M,M,M,M,M,M,M,M,M,58.00,KVGT 232253Z 35009KT 10SM BKN049 OVC100 14/06 A2987 RMK AO2 SLP129 T01440056,M
LOL,2024-01-23 22:53,-118.5701,40.0684,1192.43,51.00,38.00,60.92,70.00,5.00,0.00,29.99,1015.60,10.00,M,BKN,BKN,OVC,M,3400.00,4700.00,6000.00,M,M,M,M,M,M,M,M,51.00,KLOL 232253Z AUTO 07005KT 10SM BKN034 BKN047 OVC060 11/03 A2999 RMK AO2 SLP156 T01060033,M
BVU,2024-01-23 22:55,-114.8611,35.9475,671.00,55.40,44.60,66.91,330.00,5.00,0.00,29.87,M,10.00,M,FEW,SCT,BKN,M,6000.00,7000.00,8500.00,M,M,M,M,M,M,M,M,55.40,KBVU 232255Z AUTO 33005KT 10SM FEW060 SCT070 BKN085 13/07 A2987 RMK AO2,M
CXP,2024-01-23 22:55,-119.7326,39.1923,1431.00,51.80,32.00,46.59,310.00,8.00,0.00,30.01,M,10.00,M,CLR,M,M,M,M,M,M,M,M,M,M,M,M,M,M,51.80,KCXP 232255Z AUTO 31008KT 10SM CLR 11/M00 A3001 RMK AO2,M
INS,2024-01-23 22:55,-115.6733,36.5872,955.00,52.50,40.60,63.80,0.00,0.00,0.00,29.90,1010.80,10.00,M,OVC,M,M,M,4800.00,M,M,M,M,M,M,M,M,M,M,52.50,KINS 232255Z AUTO 00000KT 10SM OVC048 11/05 A2990 RMK AO2 SLP108 T01140048,M
RNO,2024-01-23 22:55,-119.7711,39.4839,1341.00,51.00,32.00,47.99,0.00,0.00,0.00,30.01,1015.10,10.00,M,SCT,M,M,M,4500.00,M,M,M,M,M,M,M,M,M,M,51.00,KRNO 232255Z 00000KT 10SM SCT045 11/00 A3001 RMK AO2 SLP151 CLDS TPG MTNS DSNT SW T01060000,M
05U,2024-01-23 22:55,-116.0051,39.6042,1811.23,39.20,35.60,86.79,160.00,7.00,0.02,29.99,M,10.00,M,M,M,M,M,M,M,M,M,M,M,M,M,M,M,M,33.56,K05U 232255Z AUTO 16007KT 10SM 04/02 A2999 RMK A01 P0002,M
MEV,2024-01-23 22:55,-119.7500,38.9963,1441.42,50.00,32.00,49.81,0.00,0.00,0.00,29.99,M,10.00,M,CLR,M,M,M,M,M,M,M,M,M,M,M,M,M,M,50.00,KMEV 232255Z AUTO 00000KT 10SM CLR 10/M00 A2999 RMK AO2,M
BAM,2024-01-23 22:55,-116.8743,40.5990,1382.36,46.40,37.40,70.68,330.00,5.00,0.00,29.99,M,10.00,M,SCT,BKN,OVC,M,2000.00,4400.00,6000.00,M,M,M,M,M,M,M,M,43.50,KBAM 232255Z AUTO 33005KT 10SM SCT020 BKN044 OVC060 08/03 A2999 RMK AO1,M
HTH,2024-01-23 22:55,-118.6315,38.5448,1282.89,50.00,35.60,57.52,300.00,7.00,0.00,30.01,M,10.00,M,CLR,M,M,M,M,M,M,M,M,M,M,M,M,M,M,50.00,KHTH 232255Z AUTO 30007KT 10SM CLR 10/02 A3001 RMK A01,M
LSV,2024-01-23 22:55,-115.0343,36.2362,570.00,58.30,43.50,57.78,50.00,6.00,0.00,29.85,1010.20,10.00,M,BKN,M,M,M,3400.00,M,M,M,M,M,M,M,M,M,M,58.30,KLSV 232255Z AUTO 05006KT 10SM BKN034 15/06 A2985 RMK AO2 SLP102 T01460064 $,M
TMT,2024-01-23 22:55,-117.1971,39.4643,1749.34,37.20,34.70,90.57,60.00,5.00,0.00,30.01,M,7.00,M,SCT,BKN,OVC,M,1700.00,3400.00,5000.00,M,-RA,M,M,M,M,M,M,32.57,KTMT 232255Z AUTO 06005KT 7SM -RA SCT017 BKN034 OVC050 03/02 A3001 RMK AO2 T00290015,M
EKO,2024-01-23 22:56,-115.7860,40.8242,1367.00,41.00,35.00,79.02,M,4.00,0.00,29.96,1015.30,10.00,M,SCT,OVC,M,M,3200.00,4000.00,M,M,M,M,M,M,M,M,M,37.93,KEKO 232256Z AUTO VRB04KT 10SM SCT032 OVC040 05/02 A2996 RMK AO2 SLP153 T00500017,M
NFL,2024-01-23 22:56,-118.7010,39.4166,1199.00,50.00,36.00,58.44,M,5.00,0.00,30.00,1012.90,10.00,M,SCT,BKN,BKN,BKN,2000.00,3000.00,10000.00,25000.00,M,M,M,M,M,M,M,50.00,KNFL 232256Z VRB05KT 10SM SCT020 BKN030 BKN100 BKN250 10/02 A3000 RMK AO2 SLP129 T01000022,M
HND,2024-01-23 22:56,-115.1344,35.9729,742.79,55.00,45.00,68.93,20.00,6.00,0.00,29.91,1014.10,10.00,M,OVC,M,M,M,2600.00,M,M,M,M,M,M,M,M,M,M,55.00,KHND 232256Z 02006KT 10SM OVC026 13/07 A2991 RMK AO2 SLP141 T01280072,M
TPH,2024-01-23 22:56,-117.0904,38.0505,1654.00,46.00,32.00,57.87,10.00,11.00,0.00,29.95,1013.30,10.00,M,CLR,M,M,M,M,M,M,M,M,M,M,M,M,M,M,40.16,KTPH 232256Z AUTO 01011KT 10SM CLR 08/00 A2995 RMK AO2 SLP133 T00780000,M
LAS,2024-01-23 22:56,-115.1634,36.0719,663.00,57.00,45.00,64.12,80.00,3.00,0.00,29.88,1011.30,10.00,M,SCT,BKN,BKN,OVC,2400.00,3600.00,4800.00,18000.00,M,M,M,M,M,M,M,57.00,KLAS 232256Z 08003KT 10SM SCT024 BKN036 BKN048 OVC180 14/07 A2988 RMK AO2 SLP113 T01390072,M
WMC,2024-01-23 22:56,-117.8072,40.9019,1315.00,46.00,38.00,73.47,0.00,0.00,0.00,29.99,1015.10,10.00,M,OVC,M,M,M,6500.00,M,M,M,M,M,M,M,M,M,M,46.00,KWMC 232256Z AUTO 00000KT 10SM OVC065 08/03 A2999 RMK AO2 SLP151 T00780033,M
05U,2024-01-23 23:10,-116.0051,39.6042,1811.23,37.40,33.80,86.69,150.00,6.00,0.00,30.00,M,7.00,13.00,M,M,M,M,M,M,M,M,M,M,M,M,M,M,M,32.03,K05U 232310Z AUTO 15006G13KT 7SM 03/01 A3000 RMK A01,M
10U,2024-01-23 23:10,-116.1876,41.9532,1637.00,37.40,33.80,86.69,180.00,3.00,0.00,29.99,M,10.00,M,BKN,BKN,OVC,M,700.00,2400.00,4900.00,M,M,M,M,M,M,M,M,34.86,K10U 232310Z AUTO 18003KT 10SM BKN007 BKN024 OVC049 03/01 A2999 RMK AO2,M
BVU,2024-01-23 23:15,-114.8611,35.9475,671.00,55.40,46.40,71.64,20.00,6.00,0.00,29.88,M,10.00,M,FEW,BKN,OVC,M,2800.00,6500.00,7000.00,M,M,M,M,M,M,M,M,55.40,KBVU 232315Z AUTO 02006KT 10SM FEW028 BKN065 OVC070 13/08 A2988 RMK AO2,M
CXP,2024-01-23 23:15,-119.7326,39.1923,1431.00,51.80,32.00,46.59,320.00,9.00,0.00,30.01,M,10.00,M,CLR,M,M,M,M,M,M,M,M,M,M,M,M,M,M,51.80,KCXP 232315Z AUTO 32009KT 10SM CLR 11/M00 A3001 RMK AO2,M
MEV,2024-01-23 23:15,-119.7500,38.9963,1441.42,50.00,30.20,46.31,320.00,4.00,0.00,30.00,M,10.00,M,CLR,M,M,M,M,M,M,M,M,M,M,M,M,M,M,50.00,KMEV 232315Z AUTO 32004KT 10SM CLR 10/M01 A3000 RMK AO2,M
BAM,2024-01-23 23:15,-116.8743,40.5990,1382.36,44.60,39.20,81.20,30.00,6.00,0.00,30.00,M,10.00,M,SCT,SCT,OVC,M,2600.00,3700.00,6000.00,M,M,M,M,M,M,M,M,40.71,KBAM 232315Z AUTO 03006KT 10SM SCT026 SCT037 OVC060 07/04 A3000 RMK AO1,M
HTH,2024-01-23 23:15,-118.6315,38.5448,1282.89,50.00,33.80,53.54,330.00,6.00,0.00,30.02,M,10.00,M,CLR,M,M,M,M,M,M,M,M,M,M,M,M,M,M,50.00,KHTH 232315Z AUTO 33006KT 10SM CLR 10/01 A3002 RMK A01,M
TMT,2024-01-23 23:15,-117.1971,39.4643,1749.34,38.70,35.40,87.81,120.00,4.00,0.00,30.01,M,10.00,M,SCT,SCT,OVC,M,2600.00,3400.00,5000.00,M,M,M,M,M,M,M,M,35.24,KTMT 232315Z AUTO 12004KT 10SM SCT026 SCT034 OVC050 04/02 A3001 RMK AO2 T00370019,M
LSV,2024-01-23 23:25,-115.0343,36.2362,570.00,59.00,42.80,54.86,50.00,6.00,0.00,29.86,1010.50,10.00,M,SCT,BKN,M,M,3600.00,7000.00,M,M,M,M,M,M,M,M,M,59.00,KLSV 232325Z AUTO 05006KT 10SM SCT036 BKN070 15/06 A2986 RMK AO2 SLP105 $,M
BVU,2024-01-23 23:35,-114.8611,35.9475,671.00,55.40,46.40,71.64,20.00,5.00,0.00,29.88,M,10.00,M,FEW,BKN,OVC,M,2800.00,6000.00,7000.00,M,M,M,M,M,M,M,M,55.40,KBVU 232335Z AUTO 02005KT 10SM FEW028 BKN060 OVC070 13/08 A2988 RMK AO2,M
CXP,2024-01-23 23:35,-119.7326,39.1923,1431.00,50.00,32.00,49.81,310.00,7.00,0.00,30.01,M,10.00,M,CLR,M,M,M,M,M,M,M,M,M,M,M,M,M,M,50.00,KCXP 232335Z AUTO 31007KT 10SM CLR 10/M00 A3001 RMK AO2,M
05U,2024-01-23 23:35,-116.0051,39.6042,1811.23,37.40,35.60,93.14,190.00,3.00,0.00,30.00,M,10.00,M,M,M,M,M,M,M,M,M,M,M,M,M,M,M,M,34.86,K05U 232335Z AUTO 19003KT 10SM 03/02 A3000 RMK A01,M
MEV,2024-01-23 23:35,-119.7500,38.9963,1441.42,50.00,30.20,46.31,30.00,3.00,0.00,29.99,M,10.00,M,CLR,M,M,M,M,M,M,M,M,M,M,M,M,M,M,50.00,KMEV 232335Z AUTO 03003KT 10SM CLR 10/M01 A2999 RMK AO2,M
BAM,2024-01-23 23:35,-116.8743,40.5990,1382.36,44.60,37.40,75.68,60.00,3.00,0.00,30.00,M,10.00,M,SCT,BKN,OVC,M,2800.00,3600.00,6000.00,M,M,M,M,M,M,M,M,43.09,KBAM 232335Z AUTO 06003KT 10SM SCT028 BKN036 OVC060 07/03 A3000 RMK AO1,M
HTH,2024-01-23 23:35,-118.6315,38.5448,1282.89,48.20,33.80,57.26,320.00,8.00,0.00,30.02,M,10.00,M,FEW,M,M,M,6000.00,M,M,M,M,M,M,M,M,M,M,44.07,KHTH 232335Z AUTO 32008KT 10SM FEW060 09/01 A3002 RMK A01,M
10U,2024-01-23 23:35,-116.1876,41.9532,1637.00,35.60,33.80,93.08,0.00,0.00,0.00,30.00,M,10.00,M,OVC,M,M,M,700.00,M,M,M,M,M,M,M,M,M,M,35.60,K10U 232335Z AUTO 00000KT 10SM OVC007 02/01 A3000 RMK AO2,M
TMT,2024-01-23 23:35,-117.1971,39.4643,1749.34,38.50,34.30,84.71,150.00,3.00,0.00,30.02,M,10.00,M,SCT,SCT,OVC,M,2700.00,3200.00,5000.00,M,M,M,M,M,M,M,M,36.12,KTMT 232335Z AUTO 15003KT 10SM SCT027 SCT032 OVC050 04/01 A3002 RMK AO2 T00360013,M
HND,2024-01-23 23:41,-115.1344,35.9729,742.79,55.40,44.60,66.91,290.00,3.00,0.00,29.91,M,10.00,M,SCT,BKN,OVC,M,2600.00,3400.00,4300.00,M,M,M,M,M,M,M,M,55.40,KHND 232341Z 29003KT 10SM SCT026 BKN034 OVC043 13/07 A2991 RMK AO2,M
P68,2024-01-23 23:53,-116.0056,39.6014,1993.00,37.00,35.00,92.39,0.00,0.00,0.00,29.98,1014.40,M,M,M,M,M,M,M,M,M,M,M,M,M,M,M,M,M,37.00,KP68 232353Z AUTO 00000KT 03/02 A2998 RMK AO1 SLP144 60002 T00280017 10044 20022 52013,M
DRA,2024-01-23 23:53,-116.0278,36.6206,1009.00,55.00,39.00,54.70,20.00,8.00,0.00,29.90,1010.70,10.00,M,FEW,M,M,M,7000.00,M,M,M,M,M,M,M,M,M,M,55.00,KDRA 232353Z AUTO 02008KT 10SM FEW070 13/04 A2990 RMK AO2 SLP107 T01280039 10139 20083 53005,M
ELY,2024-01-23 23:53,-114.8453,39.2950,1909.00,39.00,32.00,75.75,350.00,4.00,0.00,29.94,1012.50,10.00,M,OVC,M,M,M,4000.00,M,M,M,M,M,M,M,M,M,M,35.59,KELY 232353Z AUTO 35004KT 10SM OVC040 04/00 A2994 RMK AO2 SLP125 60000 T00390000 10056 20017 53012,M
VGT,2024-01-23 23:53,-115.1933,36.2111,667.00,59.00,42.00,53.20,320.00,13.00,0.00,29.88,1013.10,10.00,20.00,OVC,M,M,M,6000.00,M,M,M,M,M,M,M,M,M,M,59.00,KVGT 232353Z 32013G20KT 10SM OVC060 15/06 A2988 RMK AO2 SLP131 T01500056 10156 20111 52007,M
LOL,2024-01-23 23:53,-118.5701,40.0684,1192.43,50.00,36.00,58.44,M,3.00,T,30.00,1016.20,10.00,M,OVC,M,M,M,3400.00,M,M,M,-RA,M,M,M,M,M,M,50.00,KLOL 232353Z AUTO VRB03KT 10SM -RA OVC034 10/02 A3000 RMK AO2 RAB48 SLP162 P0000 6//// T01000022 10106 20044 53005,M
BVU,2024-01-23 23:55,-114.8611,35.9475,671.00,55.40,44.60,66.91,10.00,6.00,0.00,29.89,M,10.00,M,FEW,OVC,M,M,3100.00,6000.00,M,M,M,M,M,M,M,M,M,55.40,KBVU 232355Z AUTO 01006KT 10SM FEW031 OVC060 13/07 A2989 RMK AO2,M
CXP,2024-01-23 23:55,-119.7326,39.1923,1431.00,50.00,32.00,49.81,330.00,7.00,0.00,30.01,M,10.00,M,CLR,M,M,M,M,M,M,M,M,M,M,M,M,M,M,50.00,KCXP 232355Z AUTO 33007KT 10SM CLR 10/00 A3001 RMK AO2,M
INS,2024-01-23 23:55,-115.6733,36.5872,955.00,53.40,40.30,61.01,0.00,0.00,0.00,29.91,1011.20,10.00,M,BKN,OVC,M,M,5000.00,7000.00,M,M,M,M,M,M,M,M,M,53.40,KINS 232355Z AUTO 00000KT 10SM BKN050 OVC070 12/05 A2991 RMK AO2 SLP112 60001 T01190046 10122 20082 52009,M
RNO,2024-01-23 23:55,-119.7711,39.4839,1341.00,50.00,32.00,49.81,0.00,0.00,0.00,30.01,1015.20,10.00,M,FEW,FEW,M,M,4500.00,25000.00,M,M,M,M,M,M,M,M,M,50.00,KRNO 232355Z 00000KT 10SM FEW045 FEW250 10/00 A3001 RMK AO2 SLP152 T01000000 10111 20044 50003,M
05U,2024-01-23 23:55,-116.0051,39.6042,1811.23,37.40,35.60,93.14,0.00,0.00,0.00,30.01,M,10.00,M,M,M,M,M,M,M,M,M,M,M,M,M,M,M,M,37.40,K05U 232355Z AUTO 00000KT 10SM 03/02 A3001 RMK A01,M
MEV,2024-01-23 23:55,-119.7500,38.9963,1441.42,50.00,30.20,46.31,20.00,5.00,0.00,30.00,M,10.00,M,CLR,M,M,M,M,M,M,M,M,M,M,M,M,M,M,50.00,KMEV 232355Z AUTO 02005KT 10SM CLR 10/M01 A3000 RMK AO2,M
BAM,2024-01-23 23:55,-116.8743,40.5990,1382.36,44.60,37.40,75.68,90.00,3.00,0.00,30.01,M,10.00,M,BKN,OVC,M,M,2600.00,3400.00,M,M,M,M,M,M,M,M,M,43.09,KBAM 232355Z AUTO 09003KT 10SM BKN026 OVC034 07/03 A3001 RMK AO1,M
HTH,2024-01-23 23:55,-118.6315,38.5448,1282.89,48.20,35.60,61.52,280.00,6.00,0.00,30.02,M,10.00,M,CLR,M,M,M,M,M,M,M,M,M,M,M,M,M,M,45.04,KHTH 232355Z AUTO 28006KT 10SM CLR 09/02 A3002 RMK A01,M
10U,2024-01-23 23:55,-116.1876,41.9532,1637.00,35.60,33.80,93.08,0.00,0.00,0.00,30.00,M,10.00,M,SCT,SCT,OVC,M,800.00,2000.00,4900.00,M,M,M,M,M,M,M,M,35.60,K10U 232355Z AUTO 00000KT 10SM SCT008 SCT020 OVC049 02/01 A3000 RMK AO2,M
TMT,2024-01-23 23:55,-117.1971,39.4643,1749.34,38.30,34.70,86.74,160.00,5.00,0.00,30.02,M,10.00,M,SCT,OVC,M,M,2700.00,5000.00,M,M,M,M,M,M,M,M,M,33.88,KTMT 232355Z AUTO 16005KT 10SM SCT027 OVC050 04/02 A3002 RMK AO2 T00350015 10046 20021,M
LSV,2024-01-23 23:55,-115.0343,36.2362,570.00,58.00,43.30,57.96,50.00,7.00,0.00,29.87,1010.80,10.00,M,BKN,BKN,M,M,4000.00,7500.00,M,M,M,M,M,M,M,M,M,58.00,KLSV 232355Z 05007KT 10SM BKN040 BKN075 15/06 A2987 RMK AO2A SLP108 T01450063 10146 20118 52010 $,M
EKO,2024-01-23 23:56,-115.7860,40.8242,1367.00,40.00,32.00,72.85,0.00,0.00,0.00,29.98,1015.90,10.00,M,OVC,M,M,M,3300.00,M,M,M,M,M,M,M,M,M,M,40.00,KEKO 232356Z AUTO 00000KT 10SM OVC033 04/00 A2998 RMK AO2 SLP159 T00440000 10056 20028 52013,M
NFL,2024-01-23 23:56,-118.7010,39.4166,1199.00,51.00,36.00,56.31,M,5.00,0.00,30.00,1012.90,10.00,M,SCT,BKN,BKN,BKN,2000.00,3000.00,10000.00,25000.00,M,M,M,M,M,M,M,51.00,KNFL 232356Z VRB05KT 10SM SCT020 BKN030 BKN100 BKN250 11/02 A3000 RMK AO2 SLP129 T01060022 10106 20072 53004,M
HND,2024-01-23 23:56,-115.1344,35.9729,742.79,55.00,45.00,68.93,340.00,4.00,0.00,29.92,1014.60,10.00,M,BKN,BKN,M,M,3000.00,3800.00,M,M,M,M,M,M,M,M,M,55.00,KHND 232356Z 34004KT 10SM BKN030 BKN038 13/07 A2992 RMK AO2 SLP146 60000 T01280072 10128 20089 53010,M
TPH,2024-01-23 23:56,-117.0904,38.0505,1654.00,46.00,35.00,65.26,320.00,16.00,0.00,29.97,1013.90,10.00,24.00,FEW,SCT,M,M,3300.00,5000.00,M,M,M,M,M,M,M,M,M,38.67,KTPH 232356Z AUTO 32016G24KT 10SM FEW033 SCT050 08/02 A2997 RMK AO2 SLP139 T00780017 10094 20044 53012,M
LAS,2024-01-23 23:56,-115.1634,36.0719,663.00,57.00,43.00,59.40,20.00,5.00,0.00,29.89,1011.70,10.00,M,FEW,SCT,BKN,BKN,3200.00,4800.00,6000.00,18000.00,M,M,M,M,M,M,M,57.00,KLAS 232356Z 02005KT 10SM FEW032 SCT048 BKN060 BKN180 14/06 A2989 RMK AO2 SLP117 60000 T01390061 10144 20106 53009,M
WMC,2024-01-23 23:56,-117.8072,40.9019,1315.00,45.00,39.00,79.36,160.00,5.00,0.00,30.00,1015.50,10.00,M,OVC,M,M,M,6000.00,M,M,M,M,M,M,M,M,M,M,41.83,KWMC 232356Z AUTO 16005KT 10SM OVC060 07/04 A3000 RMK AO2 SLP155 T00720039 10083 20056 53008,M
