station,valid,lon,lat,elevation,tmpf,dwpf,relh,drct,sknt,p01i,alti,mslp,vsby,gust,skyc1,skyc2,skyc3,skyc4,skyl1,skyl2,skyl3,skyl4,wxcodes,ice_accretion_1hr,ice_accretion_3hr,ice_accretion_6hr,peak_wind_gust,peak_wind_drct,peak_wind_time,feel,metar,snowdepth
05U,2023-07-21 00:10,-116.0051,39.6042,1811.23,93.20,41.00,16.37,360.00,7.00,0.00,30.24,M,10.00,M,M,M,M,M,M,M,M,M,M,M,M,M,M,M,M,89.03,K05U 210010Z AUTO 36007KT 10SM 34/05 A3024 RMK A01,M
BVU,2023-07-21 00:15,-114.8611,35.9475,671.00,109.40,44.60,11.55,80.00,4.00,0.00,29.85,M,10.00,M,CLR,M,M,M,M,M,M,M,M,M,M,M,M,M,M,104.78,KBVU 210015Z AUTO 08004KT 10SM CLR 43/07 A2985 RMK AO2,M
CXP,2023-07-21 00:15,-119.7326,39.1923,1431.00,95.00,30.20,10.09,260.00,8.00,0.00,30.18,M,10.00,15.00,CLR,M,M,M,M,M,M,M,M,M,M,M,M,M,M,89.48,KCXP 210015Z AUTO 26008G15KT 220V290 10SM CLR 35/M01 A3018 RMK AO2,M
RTS,2023-07-21 00:15,-119.8764,39.6682,1539.00,91.40,24.80,9.04,320.00,11.00,0.00,30.22,M,10.00,19.00,CLR,M,M,M,M,M,M,M,M,M,M,M,M,M,M,86.21,KRTS 210015Z AUTO 32011G19KT 10SM CLR 33/M04 A3022 RMK AO2,M
MEV,2023-07-21 00:15,-119.7500,38.9963,1441.42,91.40,39.20,16.15,300.00,13.00,0.00,30.17,M,10.00,M,CLR,M,M,M,M,M,M,M,M,M,M,M,M,M,M,87.30,KMEV 210015Z AUTO 30013KT 10SM CLR 33/04 A3017 RMK AO2,M
HTH,2023-07-21 00:15,-118.6315,38.5448,1282.89,96.80,46.40,18.02,320.00,8.00,0.00,30.09,M,10.00,M,CLR,M,M,M,M,M,M,M,M,M,M,M,M,M,M,93.05,KHTH 210015Z AUTO 32008KT 10SM CLR 36/08 A3009 RMK A01,M
TMT,2023-07-21 00:15,-117.1971,39.4643,1749.34,91.20,42.40,18.40,10.00,4.00,0.00,30.22,M,10.00,M,SCT,M,M,M,12000.00,M,M,M,M,M,M,M,M,M,M,87.31,KTMT 210015Z AUTO 01004KT 10SM SCT120 33/06 A3022 RMK AO2 T03290058,M
10U,2023-07-21 00:15,-116.1876,41.9532,1637.00,93.20,32.00,11.48,260.00,8.00,0.00,30.19,M,10.00,M,CLR,M,M,M,M,M,M,M,M,M,M,M,M,M,M,88.31,K10U 210015Z AUTO 26008KT 200V290 10SM CLR 34/M00 A3019 RMK AO2,M
BAM,2023-07-21 00:15,-116.8743,40.5990,1382.36,98.60,33.80,10.45,290.00,8.00,0.00,30.12,M,10.00,M,CLR,M,M,M,M,M,M,M,M,M,M,M,M,M,M,92.94,KBAM 210015Z AUTO 29008KT 10SM CLR 37/01 A3012 RMK AO1,M
HND,2023-07-21 00:25,-115.1344,35.9729,742.79,111.20,46.40,11.74,240.00,8.00,0.00,29.90,M,10.00,M,CLR,M,M,M,M,M,M,M,VCTS,M,M,M,M,M,M,107.02,KHND 210025Z 24008KT 10SM VCTS CLR 44/08 A2990 RMK AO2 TSB19,M
LAS,2023-07-21 00:25,-115.1634,36.0719,663.00,111.00,44.00,10.78,M,5.00,0.00,29.85,M,10.00,15.00,FEW,FEW,M,M,14000.00,25000.00,M,M,VCTS,M,M,M,M,M,M,106.07,KLAS 210025Z VRB05G15KT 10SM VCTS FEW140 FEW250 44/07 A2985 RMK AO2 TSE19 T04390067,M
BVU,2023-07-21 00:35,-114.8611,35.9475,671.00,107.60,44.60,12.18,0.00,0.00,0.00,29.85,M,10.00,M,CLR,M,M,M,M,M,M,M,M,M,M,M,M,M,M,103.15,KBVU 210035Z AUTO 00000KT 10SM CLR 42/07 A2985 RMK AO2 LTG DSNT NW,M
CXP,2023-07-21 00:35,-119.7326,39.1923,1431.00,93.20,30.20,10.67,270.00,8.00,0.00,30.18,M,10.00,14.00,CLR,M,M,M,M,M,M,M,M,M,M,M,M,M,M,88.09,KCXP 210035Z AUTO 27008G14KT 230V290 10SM CLR 34/M01 A3018 RMK AO2,M
RTS,2023-07-21 00:35,-119.8764,39.6682,1539.00,91.40,24.80,9.04,310.00,13.00,0.00,30.21,M,10.00,19.00,CLR,M,M,M,M,M,M,M,M,M,M,M,M,M,M,86.21,KRTS 210035Z AUTO 31013G19KT 10SM CLR 33/M04 A3021 RMK AO2,M
LAS,2023-07-21 00:35,-115.1634,36.0719,663.00,111.00,42.00,9.98,260.00,7.00,0.00,29.85,M,10.00,M,FEW,FEW,M,M,14000.00,25000.00,M,M,TS,M,M,M,M,M,M,105.50,KLAS 210035Z 26007KT 210V280 10SM TS FEW140CB FEW250 44/06 A2985 RMK AO2 LTG DSNT SE TSE19B35 OCNL LTGICCG OHD-E TS OHD-E MOV E T04390056,M
05U,2023-07-21 00:35,-116.0051,39.6042,1811.23,93.20,39.20,15.27,10.00,6.00,0.00,30.24,M,10.00,M,M,M,M,M,M,M,M,M,M,M,M,M,M,M,M,88.92,K05U 210035Z AUTO 01006KT 10SM 34/04 A3024 RMK A01,M
MEV,2023-07-21 00:35,-119.7500,38.9963,1441.42,91.40,39.20,16.15,300.00,11.00,0.00,30.17,M,10.00,16.00,CLR,M,M,M,M,M,M,M,M,M,M,M,M,M,M,87.30,KMEV 210035Z AUTO 30011G16KT 10SM CLR 33/04 A3017 RMK AO2,M
HTH,2023-07-21 00:35,-118.6315,38.5448,1282.89,96.80,46.40,18.02,320.00,9.00,0.00,30.09,M,10.00,M,CLR,M,M,M,M,M,M,M,M,M,M,M,M,M,M,93.05,KHTH 210035Z AUTO 32009KT 10SM CLR 36/08 A3009 RMK A01,M
10U,2023-07-21 00:35,-116.1876,41.9532,1637.00,91.40,32.00,12.14,220.00,8.00,0.00,30.18,M,10.00,14.00,CLR,M,M,M,M,M,M,M,M,M,M,M,M,M,M,86.91,K10U 210035Z AUTO 22008G14KT 10SM CLR 33/M00 A3018 RMK AO2,M
BAM,2023-07-21 00:35,-116.8743,40.5990,1382.36,98.60,33.80,10.45,280.00,6.00,0.00,30.12,M,10.00,M,CLR,M,M,M,M,M,M,M,M,M,M,M,M,M,M,92.94,KBAM 210035Z AUTO 28006KT 10SM CLR 37/01 A3012 RMK AO1,M
TMT,2023-07-21 00:35,-117.1971,39.4643,1749.34,91.60,42.60,18.31,10.00,5.00,0.00,30.22,M,10.00,M,SCT,M,M,M,12000.00,M,M,M,M,M,M,M,M,M,M,87.69,KTMT 210035Z AUTO 01005KT 10SM SCT120 33/06 A3022 RMK AO2 T03310059,M
P68,2023-07-21 00:53,-116.0056,39.6014,1993.00,90.00,39.00,16.74,M,3.00,0.00,30.21,1014.30,M,M,M,M,M,M,M,M,M,M,M,M,M,M,M,M,M,86.07,KP68 210053Z AUTO VRB03KT 32/04 A3021 RMK AO1 SLP143 T03220039,M
DRA,2023-07-21 00:53,-116.0278,36.6206,1009.00,106.00,37.00,9.51,220.00,9.00,0.00,29.97,1008.50,10.00,M,CLR,M,M,M,M,M,M,M,M,M,M,M,M,M,M,99.86,KDRA 210053Z AUTO 22009KT 10SM CLR 41/03 A2997 RMK AO2 SLP085 T04110028,M
ELY,2023-07-21 00:53,-114.8453,39.2950,1909.00,87.00,46.00,24.10,200.00,9.00,0.00,30.27,1014.90,10.00,M,CLR,M,M,M,M,M,M,M,M,M,M,M,M,M,M,83.98,KELY 210053Z AUTO 20009KT 10SM CLR 31/08 A3027 RMK AO2 SLP149 T03060078,M
VGT,2023-07-21 00:53,-115.1933,36.2111,667.00,112.00,42.00,9.70,200.00,8.00,0.00,29.84,1008.40,10.00,M,CLR,M,M,M,M,M,M,M,M,M,M,M,M,M,M,106.54,KVGT 210053Z 20008KT 10SM CLR 44/06 A2984 RMK AO2 LTG DSNT SE SLP084 T04440056,M
LOL,2023-07-21 00:53,-118.5701,40.0684,1192.43,98.00,22.00,6.55,300.00,5.00,0.00,30.07,1013.60,10.00,18.00,CLR,M,M,M,M,M,M,M,M,M,M,M,M,M,M,91.17,KLOL 210053Z AUTO 30005G18KT 10SM CLR 37/M06 A3007 RMK AO2 SLP136 T03671056,M
BVU,2023-07-21 00:55,-114.8611,35.9475,671.00,107.60,46.40,13.04,60.00,10.00,0.00,29.84,M,10.00,M,CLR,M,M,M,M,M,M,M,M,M,M,M,M,M,M,103.71,KBVU 210055Z AUTO 06010KT 020V080 10SM CLR 42/08 A2984 RMK AO2,M
CXP,2023-07-21 00:55,-119.7326,39.1923,1431.00,93.20,28.40,9.91,260.00,9.00,0.00,30.17,M,10.00,M,CLR,M,M,M,M,M,M,M,M,M,M,M,M,M,M,87.89,KCXP 210055Z AUTO 26009KT 10SM CLR 34/M02 A3017 RMK AO2,M
INS,2023-07-21 00:55,-115.6733,36.5872,955.00,105.60,35.20,8.96,260.00,3.00,0.00,29.93,1007.60,10.00,M,CLR,M,M,M,M,M,M,M,M,M,M,M,M,M,M,99.17,KINS 210055Z AUTO 26003KT 10SM CLR 41/02 A2993 RMK AO2 SLP076 T04090018 $,M
RNO,2023-07-21 00:55,-119.7711,39.4839,1341.00,97.00,28.00,8.67,290.00,11.00,0.00,30.13,1013.90,10.00,M,FEW,M,M,M,13000.00,M,M,M,M,M,M,M,M,M,M,90.87,KRNO 210055Z 29011KT 10SM FEW130 36/M02 A3013 RMK AO2 SLP139 T03611022,M
LSV,2023-07-21 00:55,-115.0343,36.2362,570.00,111.40,44.60,10.90,0.00,0.00,0.00,29.78,1005.20,10.00,M,CLR,M,M,M,M,M,M,M,M,M,M,M,M,M,M,106.63,KLSV 210055Z AUTO 00000KT 10SM CLR 44/07 A2978 RMK AO2 SLP052 T04410070 $,M
RTS,2023-07-21 00:55,-119.8764,39.6682,1539.00,91.40,24.80,9.04,290.00,13.00,0.00,30.21,M,10.00,20.00,CLR,M,M,M,M,M,M,M,M,M,M,M,M,M,M,86.21,KRTS 210055Z AUTO 29013G20KT 10SM CLR 33/M04 A3021 RMK AO2,M
05U,2023-07-21 00:55,-116.0051,39.6042,1811.23,93.20,39.20,15.27,360.00,3.00,0.00,30.24,M,10.00,M,M,M,M,M,M,M,M,M,M,M,M,M,M,M,M,88.92,K05U 210055Z AUTO 36003KT 10SM 34/04 A3024 RMK A01,M
MEV,2023-07-21 00:55,-119.7500,38.9963,1441.42,91.40,39.20,16.15,300.00,13.00,0.00,30.17,M,10.00,M,CLR,M,M,M,M,M,M,M,M,M,M,M,M,M,M,87.30,KMEV 210055Z AUTO 30013KT 10SM CLR 33/04 A3017 RMK AO2,M
HTH,2023-07-21 00:55,-118.6315,38.5448,1282.89,96.80,46.40,18.02,340.00,9.00,0.00,30.08,M,10.00,M,CLR,M,M,M,M,M,M,M,M,M,M,M,M,M,M,93.05,KHTH 210055Z AUTO 34009KT 10SM CLR 36/08 A3008 RMK A01,M
BAM,2023-07-21 00:55,-116.8743,40.5990,1382.36,98.60,33.80,10.45,260.00,7.00,0.00,30.11,M,10.00,M,CLR,M,M,M,M,M,M,M,M,M,M,M,M,M,M,92.94,KBAM 210055Z AUTO 26007KT 10SM CLR 37/01 A3011 RMK AO1,M
TMT,2023-07-21 00:55,-117.1971,39.4643,1749.34,91.80,42.40,18.05,290.00,5.00,0.00,30.22,M,10.00,M,SCT,M,M,M,12000.00,M,M,M,M,M,M,M,M,M,M,87.86,KTMT 210055Z AUTO 29005KT 10SM SCT120 33/06 A3022 RMK AO2 T03320058,M
10U,2023-07-21 00:55,-116.1876,41.9532,1637.00,93.20,33.80,12.34,230.00,9.00,0.00,30.18,M,10.00,16.00,CLR,M,M,M,M,M,M,M,M,M,M,M,M,M,M,88.55,K10U 210055Z AUTO 23009G16KT 10SM CLR 34/01 A3018 RMK AO2,M
EKO,2023-07-21 00:56,-115.7860,40.8242,1367.00,94.00,42.00,16.60,210.00,7.00,0.00,30.15,1014.60,10.00,M,CLR,M,M,M,M,M,M,M,M,M,M,M,M,M,M,89.85,KEKO 210056Z AUTO 21007KT 10SM CLR 34/06 A3015 RMK AO2 SLP146 T03440056,M
WMC,2023-07-21 00:56,-117.8072,40.9019,1315.00,M,M,M,M,M,0.00,30.10,M,M,M,M,M,M,M,M,M,M,M,M,M,M,M,M,M,M,M,KWMC 210056Z AUTO A3010 RMK AO2 SLPNO PWINO FZRANO $,M
NFL,2023-07-21 00:56,-118.7010,39.4166,1199.00,98.00,40.00,13.59,260.00,7.00,0.00,30.07,1015.00,10.00,M,FEW,M,M,M,8000.00,M,M,M,M,M,M,M,M,M,M,93.42,KNFL 210056Z 26007KT 10SM FEW080 37/04 A3007 RMK AO2 SLP150 TCU DSNT SE-S T03670044,M
HND,2023-07-21 00:56,-115.1344,35.9729,742.79,110.00,45.00,11.53,280.00,7.00,0.00,29.90,1010.00,10.00,17.00,CLR,M,M,M,M,M,M,M,M,M,M,M,M,M,M,105.45,KHND 210056Z 28007G17KT 10SM CLR 43/07 A2990 RMK AO2 TSB19E56 SLP100 T04330072,M
TPH,2023-07-21 00:56,-117.0904,38.0505,1654.00,94.00,48.00,20.86,M,M,0.00,30.18,1013.50,10.00,M,CLR,M,M,M,M,M,M,M,M,M,M,M,M,M,M,90.55,KTPH 210056Z AUTO 10SM CLR 34/09 A3018 RMK AO2 SLP135 T03440089 $,M
LAS,2023-07-21 00:56,-115.1634,36.0719,663.00,111.00,43.00,10.37,M,3.00,0.00,29.84,1007.10,10.00,M,FEW,FEW,M,M,14000.00,25000.00,M,M,TS,M,M,M,M,M,M,105.78,KLAS 210056Z VRB03KT 10SM TS FEW140CB FEW250 44/06 A2984 RMK AO2 TSE19B35 SLP071 OCNL LTGICCG OHD-E TS OHD-E MOV E VCSH E-SE T04390061,M
BVU,2023-07-21 01:15,-114.8611,35.9475,671.00,107.60,46.40,13.04,30.00,5.00,0.00,29.84,M,10.00,M,CLR,M,M,M,M,M,M,M,M,M,M,M,M,M,M,103.71,KBVU 210115Z AUTO 03005KT 10SM CLR 42/08 A2984 RMK AO2,M
CXP,2023-07-21 01:15,-119.7326,39.1923,1431.00,93.20,30.20,10.67,250.00,10.00,0.00,30.18,M,10.00,M,CLR,M,M,M,M,M,M,M,M,M,M,M,M,M,M,88.09,KCXP 210115Z AUTO 25010KT 10SM CLR 34/M01 A3018 RMK AO2,M
RTS,2023-07-21 01:15,-119.8764,39.6682,1539.00,89.60,24.80,9.56,320.00,15.00,0.00,30.21,M,10.00,21.00,CLR,M,M,M,M,M,M,M,M,M,M,M,M,M,M,84.88,KRTS 210115Z AUTO 32015G21KT 10SM CLR 32/M04 A3021 RMK AO2,M
05U,2023-07-21 01:15,-116.0051,39.6042,1811.23,91.40,39.20,16.15,0.00,0.00,0.00,30.24,M,10.00,M,M,M,M,M,M,M,M,M,M,M,M,M,M,M,M,87.30,K05U 210115Z AUTO 00000KT 10SM 33/04 A3024 RMK A01,M
MEV,2023-07-21 01:15,-119.7500,38.9963,1441.42,89.60,41.00,18.33,300.00,10.00,0.00,30.17,M,10.00,16.00,CLR,M,M,M,M,M,M,M,M,M,M,M,M,M,M,85.82,KMEV 210115Z AUTO 30010G16KT 10SM CLR 32/05 A3017 RMK AO2,M
HTH,2023-07-21 01:15,-118.6315,38.5448,1282.89,95.00,48.20,20.38,330.00,11.00,0.00,30.08,M,10.00,M,CLR,M,M,M,M,M,M,M,M,M,M,M,M,M,M,91.56,KHTH 210115Z AUTO 33011KT 10SM CLR 35/09 A3008 RMK A01,M
TMT,2023-07-21 01:15,-117.1971,39.4643,1749.34,89.00,41.00,18.68,320.00,6.00,0.00,30.22,M,10.00,M,SCT,M,M,M,12000.00,M,M,M,M,M,M,M,M,M,M,85.30,KTMT 210115Z AUTO 32006KT 10SM SCT120 32/05 A3022 RMK AO2 T03160051,M
10U,2023-07-21 01:15,-116.1876,41.9532,1637.00,93.20,32.00,11.48,250.00,9.00,0.00,30.18,M,10.00,17.00,CLR,M,M,M,M,M,M,M,M,M,M,M,M,M,M,88.31,K10U 210115Z AUTO 25009G17KT 10SM CLR 34/M00 A3018 RMK AO2,M
BAM,2023-07-21 01:15,-116.8743,40.5990,1382.36,98.60,32.00,9.72,260.00,7.00,0.00,30.12,M,10.00,14.00,CLR,M,M,M,M,M,M,M,M,M,M,M,M,M,M,92.69,KBAM 210115Z AUTO 26007G14KT 10SM CLR 37/00 A3012 RMK AO1,M
LAS,2023-07-21 01:25,-115.1634,36.0719,663.00,110.00,41.00,9.89,220.00,8.00,0.00,29.84,M,10.00,M,FEW,FEW,M,M,14000.00,20000.00,M,M,M,M,M,M,M,M,M,104.31,KLAS 210125Z 22008KT 10SM FEW140 FEW200 43/05 A2984 RMK AO2 TSE25 TS DSIPTD VIRGA E-SE T04330050,M
INS,2023-07-21 01:30,-115.6733,36.5872,955.00,105.80,32.00,7.84,240.00,13.00,0.00,29.93,1007.60,10.00,16.00,CLR,M,M,M,M,M,M,M,M,M,M,M,M,M,M,98.82,KINS 210130Z AUTO 24013G16KT 10SM CLR 41/00 A2993 RMK AO2 WSHFT 20 SLP076 $,M
BVU,2023-07-21 01:35,-114.8611,35.9475,671.00,107.60,48.20,13.95,40.00,8.00,0.00,29.84,M,10.00,M,CLR,M,M,M,M,M,M,M,M,M,M,M,M,M,M,104.23,KBVU 210135Z AUTO 04008KT 10SM CLR 42/09 A2984 RMK AO2,M
CXP,2023-07-21 01:35,-119.7326,39.1923,1431.00,91.40,30.20,11.28,250.00,7.00,0.00,30.18,M,10.00,16.00,CLR,M,M,M,M,M,M,M,M,M,M,M,M,M,M,86.71,KCXP 210135Z AUTO 25007G16KT 220V290 10SM CLR 33/M01 A3018 RMK AO2,M
RTS,2023-07-21 01:35,-119.8764,39.6682,1539.00,89.60,26.60,10.30,300.00,15.00,0.00,30.22,M,10.00,M,CLR,M,M,M,M,M,M,M,M,M,M,M,M,M,M,85.02,KRTS 210135Z AUTO 30015KT 10SM CLR 32/M03 A3022 RMK AO2,M
05U,2023-07-21 01:35,-116.0051,39.6042,1811.23,91.40,39.20,16.15,360.00,5.00,0.00,30.24,M,10.00,M,M,M,M,M,M,M,M,M,M,M,M,M,M,M,M,87.30,K05U 210135Z AUTO 36005KT 10SM 33/04 A3024 RMK A01,M
MEV,2023-07-21 01:35,-119.7500,38.9963,1441.42,89.60,39.20,17.09,300.00,12.00,0.00,30.17,M,10.00,M,CLR,M,M,M,M,M,M,M,M,M,M,M,M,M,M,85.73,KMEV 210135Z AUTO 30012KT 10SM CLR 32/04 A3017 RMK AO2,M
HTH,2023-07-21 01:35,-118.6315,38.5448,1282.89,95.00,46.40,19.04,330.00,10.00,0.00,30.08,M,10.00,M,CLR,M,M,M,M,M,M,M,M,M,M,M,M,M,M,91.29,KHTH 210135Z AUTO 33010KT 10SM CLR 35/08 A3008 RMK A01,M
TMT,2023-07-21 01:35,-117.1971,39.4643,1749.34,90.70,40.00,17.03,350.00,6.00,0.00,30.22,M,10.00,M,CLR,M,M,M,M,M,M,M,M,M,M,M,M,M,M,86.72,KTMT 210135Z AUTO 35006KT 10SM CLR 33/05 A3022 RMK AO2 T03260045,M
10U,2023-07-21 01:35,-116.1876,41.9532,1637.00,93.20,32.00,11.48,260.00,12.00,0.00,30.19,M,10.00,M,CLR,M,M,M,M,M,M,M,M,M,M,M,M,M,M,88.31,K10U 210135Z AUTO 26012KT 10SM CLR 34/00 A3019 RMK AO2,M
BAM,2023-07-21 01:35,-116.8743,40.5990,1382.36,96.80,35.60,11.86,230.00,8.00,0.00,30.12,M,10.00,M,CLR,M,M,M,M,M,M,M,M,M,M,M,M,M,M,91.72,KBAM 210135Z AUTO 23008KT 10SM CLR 36/02 A3012 RMK AO1,M
P68,2023-07-21 01:53,-116.0056,39.6014,1993.00,88.00,44.00,21.63,160.00,15.00,0.00,30.22,1013.90,M,22.00,M,M,M,M,M,M,M,M,M,M,M,M,M,M,M,84.65,KP68 210153Z AUTO 16015G22KT 31/07 A3022 RMK AO1 SLP139 T03110067,M
DRA,2023-07-21 01:53,-116.0278,36.6206,1009.00,104.00,34.00,8.96,250.00,8.00,0.00,29.97,1008.50,10.00,M,CLR,M,M,M,M,M,M,M,M,M,M,M,M,M,M,97.58,KDRA 210153Z AUTO 25008KT 10SM CLR 40/01 A2997 RMK AO2 SLP085 T04000011,M
ELY,2023-07-21 01:53,-114.8453,39.2950,1909.00,85.00,46.00,25.69,200.00,7.00,0.00,30.27,1014.60,10.00,M,CLR,M,M,M,M,M,M,M,M,M,M,M,M,M,M,82.42,KELY 210153Z AUTO 20007KT 10SM CLR 29/08 A3027 RMK AO2 SLP146 T02940078,M
VGT,2023-07-21 01:53,-115.1933,36.2111,667.00,111.00,41.00,9.60,230.00,8.00,0.00,29.83,1008.30,10.00,M,CLR,M,M,M,M,M,M,M,M,M,M,M,M,M,M,105.24,KVGT 210153Z 23008KT 190V270 10SM CLR 44/05 A2983 RMK AO2 SLP083 T04390050,M
LOL,2023-07-21 01:53,-118.5701,40.0684,1192.43,97.00,21.00,6.48,320.00,8.00,0.00,30.07,1013.70,10.00,M,CLR,M,M,M,M,M,M,M,M,M,M,M,M,M,M,90.27,KLOL 210153Z AUTO 32008KT 10SM CLR 36/M06 A3007 RMK AO2 SLP137 T03611061,M
BVU,2023-07-21 01:55,-114.8611,35.9475,671.00,107.60,46.40,13.04,40.00,5.00,0.00,29.84,M,10.00,M,CLR,M,M,M,M,M,M,M,M,M,M,M,M,M,M,103.71,KBVU 210155Z AUTO 04005KT 10SM CLR 42/08 A2984 RMK AO2,M
CXP,2023-07-21 01:55,-119.7326,39.1923,1431.00,89.60,30.20,11.94,260.00,8.00,0.00,30.18,M,10.00,M,CLR,M,M,M,M,M,M,M,M,M,M,M,M,M,M,85.34,KCXP 210155Z AUTO 26008KT 10SM CLR 32/M01 A3018 RMK AO2,M
INS,2023-07-21 01:55,-115.6733,36.5872,955.00,104.00,31.00,7.94,250.00,10.00,0.00,29.94,1008.00,10.00,M,CLR,M,M,M,M,M,M,M,M,M,M,M,M,M,M,97.14,KINS 210155Z AUTO 25010KT 10SM CLR 40/M00 A2994 RMK AO2 SLP080 T04001005 $,M
RNO,2023-07-21 01:55,-119.7711,39.4839,1341.00,94.00,35.00,12.62,270.00,14.00,0.00,30.14,1014.30,10.00,19.00,CLR,M,M,M,M,M,M,M,M,M,M,M,M,M,M,89.36,KRNO 210155Z 27014G19KT 10SM CLR 34/02 A3014 RMK AO2 SLP143 T03440017,M
RTS,2023-07-21 01:55,-119.8764,39.6682,1539.00,89.60,24.80,9.56,300.00,13.00,0.00,30.22,M,10.00,20.00,CLR,M,M,M,M,M,M,M,M,M,M,M,M,M,M,84.88,KRTS 210155Z AUTO 30013G20KT 10SM CLR 32/M04 A3022 RMK AO2,M
05U,2023-07-21 01:55,-116.0051,39.6042,1811.23,89.60,44.60,21.04,360.00,13.00,0.00,30.25,M,10.00,M,M,M,M,M,M,M,M,M,M,M,M,M,M,M,M,86.07,K05U 210155Z AUTO 36013KT 10SM 32/07 A3025 RMK A01,M
MEV,2023-07-21 01:55,-119.7500,38.9963,1441.42,87.80,39.20,18.09,300.00,10.00,0.00,30.17,M,10.00,M,CLR,M,M,M,M,M,M,M,M,M,M,M,M,M,M,84.22,KMEV 210155Z AUTO 30010KT 10SM CLR 31/04 A3017 RMK AO2,M
HTH,2023-07-21 01:55,-118.6315,38.5448,1282.89,95.00,46.40,19.04,330.00,11.00,0.00,30.09,M,10.00,M,CLR,M,M,M,M,M,M,M,M,M,M,M,M,M,M,91.29,KHTH 210155Z AUTO 33011KT 10SM CLR 35/08 A3009 RMK A01,M
10U,2023-07-21 01:55,-116.1876,41.9532,1637.00,91.40,32.00,12.14,250.00,11.00,0.00,30.19,M,10.00,17.00,CLR,M,M,M,M,M,M,M,M,M,M,M,M,M,M,86.91,K10U 210155Z AUTO 25011G17KT 230V290 10SM CLR 33/M00 A3019 RMK AO2,M
BAM,2023-07-21 01:55,-116.8743,40.5990,1382.36,96.80,33.80,11.04,280.00,8.00,0.00,30.12,M,10.00,M,CLR,M,M,M,M,M,M,M,M,M,M,M,M,M,M,91.44,KBAM 210155Z AUTO 28008KT 10SM CLR 36/01 A3012 RMK AO1,M
TMT,2023-07-21 01:55,-117.1971,39.4643,1749.34,90.00,44.40,20.62,360.00,11.00,0.00,30.22,M,10.00,M,SCT,M,M,M,12000.00,M,M,M,M,M,M,M,M,M,M,86.40,KTMT 210155Z AUTO 36011KT 10SM SCT120 32/07 A3022 RMK AO2 T03220069,M
LSV,2023-07-21 01:55,-115.0343,36.2362,570.00,109.60,47.70,12.91,150.00,9.00,0.00,29.78,1005.20,10.00,M,CLR,M,M,M,M,M,M,M,M,M,M,M,M,M,M,105.99,KLSV 210155Z AUTO 15009KT 10SM CLR 43/09 A2978 RMK AO2 SLP052 T04310087 $,M
EKO,2023-07-21 01:56,-115.7860,40.8242,1367.00,94.00,41.00,15.97,310.00,7.00,0.00,30.15,1014.40,10.00,M,CLR,M,M,M,M,M,M,M,M,M,M,M,M,M,M,89.77,KEKO 210156Z AUTO 31007KT 10SM CLR 34/05 A3015 RMK AO2 SLP144 T03440050,M
WMC,2023-07-21 01:56,-117.8072,40.9019,1315.00,M,M,M,M,M,0.00,30.11,M,M,M,M,M,M,M,M,M,M,M,M,M,M,M,M,M,M,M,KWMC 210156Z AUTO A3011 RMK AO2 SLPNO PWINO FZRANO $,M
NFL,2023-07-21 01:56,-118.7010,39.4166,1199.00,98.00,40.00,13.59,20.00,8.00,0.00,30.07,1014.90,10.00,M,FEW,M,M,M,8000.00,M,M,M,M,M,M,M,M,M,M,93.42,KNFL 210156Z 02008KT 10SM FEW080 37/04 A3007 RMK AO2 SLP149 TCU DSNT SE-S T03670044,M
HND,2023-07-21 01:56,-115.1344,35.9729,742.79,109.00,44.00,11.42,270.00,7.00,0.00,29.89,1009.90,10.00,M,CLR,M,M,M,M,M,M,M,M,M,M,M,M,M,M,104.23,KHND 210156Z 27007KT 10SM CLR 43/07 A2989 RMK AO2 SLP099 T04280067,M
TPH,2023-07-21 01:56,-117.0904,38.0505,1654.00,94.00,48.00,20.86,M,M,0.00,30.18,1013.10,10.00,M,CLR,M,M,M,M,M,M,M,M,M,M,M,M,M,M,90.55,KTPH 210156Z AUTO 10SM CLR 34/09 A3018 RMK AO2 SLP131 T03440089 $,M
LAS,2023-07-21 01:56,-115.1634,36.0719,663.00,110.00,38.00,8.80,260.00,13.00,0.00,29.84,1007.00,10.00,17.00,FEW,FEW,M,M,14000.00,20000.00,M,M,M,M,M,M,M,M,M,103.60,KLAS 210156Z 26013G17KT 10SM FEW140 FEW200 43/03 A2984 RMK AO2 TSE25 SLP070 TS DSIPTD VIRGA E-SE T04330033,M
05U,2023-07-21 02:10,-116.0051,39.6042,1811.23,87.80,44.60,22.27,M,M,0.00,30.24,M,10.00,M,M,M,M,M,M,M,M,M,M,M,M,M,M,M,M,84.53,K05U 210210Z AUTO 10SM 31/07 A3024 RMK A01,M
BVU,2023-07-21 02:15,-114.8611,35.9475,671.00,107.60,46.40,13.04,40.00,6.00,0.00,29.84,M,10.00,M,CLR,M,M,M,M,M,M,M,M,M,M,M,M,M,M,103.71,KBVU 210215Z AUTO 04006KT 10SM CLR 42/08 A2984 RMK AO2,M
CXP,2023-07-21 02:15,-119.7326,39.1923,1431.00,89.60,32.00,12.84,280.00,9.00,0.00,30.18,M,10.00,M,CLR,M,M,M,M,M,M,M,M,M,M,M,M,M,M,85.54,KCXP 210215Z AUTO 28009KT 10SM CLR 32/M00 A3018 RMK AO2,M
RTS,2023-07-21 02:15,-119.8764,39.6682,1539.00,87.80,23.00,9.39,300.00,13.00,0.00,30.22,M,10.00,20.00,CLR,M,M,M,M,M,M,M,M,M,M,M,M,M,M,83.43,KRTS 210215Z AUTO 30013G20KT 10SM CLR 31/M05 A3022 RMK AO2,M
MEV,2023-07-21 02:15,-119.7500,38.9963,1441.42,86.00,37.40,17.85,280.00,9.00,0.00,30.17,M,10.00,17.00,CLR,M,M,M,M,M,M,M,M,M,M,M,M,M,M,82.73,KMEV 210215Z AUTO 28009G17KT 10SM CLR 30/03 A3017 RMK AO2,M
HTH,2023-07-21 02:15,-118.6315,38.5448,1282.89,93.20,46.40,20.13,330.00,8.00,0.00,30.09,M,10.00,M,CLR,M,M,M,M,M,M,M,M,M,M,M,M,M,M,89.55,KHTH 210215Z AUTO 33008KT 10SM CLR 34/08 A3009 RMK A01,M
10U,2023-07-21 02:15,-116.1876,41.9532,1637.00,89.60,32.00,12.84,260.00,8.00,0.00,30.19,M,10.00,14.00,CLR,M,M,M,M,M,M,M,M,M,M,M,M,M,M,85.54,K10U 210215Z AUTO 26008G14KT 10SM CLR 32/M00 A3019 RMK AO2,M
BAM,2023-07-21 02:15,-116.8743,40.5990,1382.36,96.80,33.80,11.04,300.00,6.00,0.00,30.12,M,10.00,M,CLR,M,M,M,M,M,M,M,M,M,M,M,M,M,M,91.44,KBAM 210215Z AUTO 30006KT 10SM CLR 36/01 A3012 RMK AO1,M
TMT,2023-07-21 02:15,-117.1971,39.4643,1749.34,88.70,45.30,22.23,350.00,8.00,0.00,30.22,M,10.00,M,BKN,M,M,M,12000.00,M,M,M,M,M,M,M,M,M,M,85.34,KTMT 210215Z AUTO 35008KT 10SM BKN120 32/07 A3022 RMK AO2 T03150074,M
BVU,2023-07-21 02:35,-114.8611,35.9475,671.00,105.80,46.40,13.75,10.00,4.00,0.00,29.84,M,10.00,M,CLR,M,M,M,M,M,M,M,M,M,M,M,M,M,M,101.97,KBVU 210235Z AUTO 01004KT 10SM CLR 41/08 A2984 RMK AO2,M
CXP,2023-07-21 02:35,-119.7326,39.1923,1431.00,87.80,32.00,13.59,280.00,11.00,0.00,30.19,M,10.00,M,CLR,M,M,M,M,M,M,M,M,M,M,M,M,M,M,84.08,KCXP 210235Z AUTO 28011KT 10SM CLR 31/00 A3019 RMK AO2,M
RTS,2023-07-21 02:35,-119.8764,39.6682,1539.00,86.00,23.00,9.94,300.00,11.00,0.00,30.23,M,10.00,M,CLR,M,M,M,M,M,M,M,M,M,M,M,M,M,M,82.14,KRTS 210235Z AUTO 30011KT 10SM CLR 30/M05 A3023 RMK AO2,M
05U,2023-07-21 02:35,-116.0051,39.6042,1811.23,84.20,46.40,26.76,360.00,9.00,0.00,30.25,M,10.00,M,M,M,M,M,M,M,M,M,M,M,M,M,M,M,M,81.87,K05U 210235Z AUTO 36009KT 10SM 29/08 A3025 RMK A01,M
MEV,2023-07-21 02:35,-119.7500,38.9963,1441.42,86.00,37.40,17.85,290.00,10.00,0.00,30.18,M,10.00,16.00,CLR,M,M,M,M,M,M,M,M,M,M,M,M,M,M,82.73,KMEV 210235Z AUTO 29010G16KT 10SM CLR 30/03 A3018 RMK AO2,M
HTH,2023-07-21 02:35,-118.6315,38.5448,1282.89,93.20,50.00,23.04,310.00,8.00,0.00,30.09,M,10.00,M,CLR,M,M,M,M,M,M,M,M,M,M,M,M,M,M,90.10,KHTH 210235Z AUTO 31008KT 10SM CLR 34/10 A3009 RMK A01,M
10U,2023-07-21 02:35,-116.1876,41.9532,1637.00,87.80,32.00,13.59,260.00,6.00,0.00,30.19,M,10.00,M,CLR,M,M,M,M,M,M,M,M,M,M,M,M,M,M,84.08,K10U 210235Z AUTO 26006KT 10SM CLR 31/M00 A3019 RMK AO2,M
BAM,2023-07-21 02:35,-116.8743,40.5990,1382.36,95.00,33.80,11.67,310.00,9.00,0.00,30.12,M,10.00,M,CLR,M,M,M,M,M,M,M,M,M,M,M,M,M,M,89.97,KBAM 210235Z AUTO 31009KT 10SM CLR 35/01 A3012 RMK AO1,M
TMT,2023-07-21 02:35,-117.1971,39.4643,1749.34,87.00,44.00,22.33,330.00,11.00,0.00,30.23,M,10.00,16.00,SCT,M,M,M,12000.00,M,M,M,M,M,M,M,M,M,M,83.82,KTMT 210235Z AUTO 33011G16KT 10SM SCT120 31/07 A3023 RMK AO2 T03060067,M
P68,2023-07-21 02:53,-116.0056,39.6014,1993.00,82.00,46.00,28.30,160.00,5.00,0.00,30.23,1014.20,M,M,M,M,M,M,M,M,M,M,M,M,M,M,M,M,M,80.36,KP68 210253Z AUTO 16005KT 28/08 A3023 RMK AO1 SLP142 T02780078 53002,M
DRA,2023-07-21 02:53,-116.0278,36.6206,1009.00,99.00,33.00,10.00,260.00,6.00,0.00,29.97,1008.60,10.00,M,CLR,M,M,M,M,M,M,M,M,M,M,M,M,M,M,93.16,KDRA 210253Z AUTO 26006KT 10SM CLR 37/01 A2997 RMK AO2 SLP086 T03720006 55002,M
ELY,2023-07-21 02:53,-114.8453,39.2950,1909.00,80.00,49.00,33.81,160.00,9.00,0.00,30.28,1014.50,10.00,M,CLR,M,M,M,M,M,M,M,M,M,M,M,M,M,M,79.46,KELY 210253Z AUTO 16009KT 10SM CLR 27/09 A3028 RMK AO2 SLP145 T02670094 55000,M
VGT,2023-07-21 02:53,-115.1933,36.2111,667.00,109.00,39.00,9.42,250.00,8.00,0.00,29.84,1008.50,10.00,M,CLR,M,M,M,M,M,M,M,M,M,M,M,M,M,M,102.93,KVGT 210253Z 25008KT 10SM CLR 43/04 A2984 RMK AO2 SLP085 T04280039 55004,M
LOL,2023-07-21 02:53,-118.5701,40.0684,1192.43,93.00,23.00,7.97,320.00,9.00,0.00,30.08,1013.80,10.00,M,CLR,M,M,M,M,M,M,M,M,M,M,M,M,M,M,87.27,KLOL 210253Z AUTO 32009KT 10SM CLR 34/M05 A3008 RMK AO2 SLP138 T03391050 53001,M
BVU,2023-07-21 02:55,-114.8611,35.9475,671.00,105.80,44.60,12.84,0.00,0.00,0.00,29.84,M,10.00,M,CLR,M,M,M,M,M,M,M,M,M,M,M,M,M,M,101.53,KBVU 210255Z AUTO 00000KT 10SM CLR 41/07 A2984 RMK AO2,M
CXP,2023-07-21 02:55,-119.7326,39.1923,1431.00,86.00,33.80,15.48,290.00,9.00,0.00,30.19,M,10.00,M,CLR,M,M,M,M,M,M,M,M,M,M,M,M,M,M,82.66,KCXP 210255Z AUTO 29009KT 10SM CLR 30/01 A3019 RMK AO2,M
INS,2023-07-21 02:55,-115.6733,36.5872,955.00,101.00,28.80,7.94,230.00,12.00,0.00,29.94,1008.00,10.00,M,CLR,M,M,M,M,M,M,M,M,M,M,M,M,M,M,94.32,KINS 210255Z AUTO 23012KT 10SM CLR 38/M02 A2994 RMK AO2 SLP080 T03831018 55004 $,M
RNO,2023-07-21 02:55,-119.7711,39.4839,1341.00,91.00,36.00,14.42,290.00,14.00,0.00,30.15,1014.80,10.00,M,CLR,M,M,M,M,M,M,M,M,M,M,M,M,M,M,86.83,KRNO 210255Z 29014KT 10SM CLR 33/02 A3015 RMK AO2 SLP148 T03280022 53005,M
RTS,2023-07-21 02:55,-119.8764,39.6682,1539.00,84.20,28.40,13.18,300.00,8.00,0.00,30.23,M,10.00,M,CLR,M,M,M,M,M,M,M,M,M,M,M,M,M,M,81.25,KRTS 210255Z AUTO 30008KT 10SM CLR 29/M02 A3023 RMK AO2,M
05U,2023-07-21 02:55,-116.0051,39.6042,1811.23,82.40,46.40,28.36,M,M,0.00,30.26,M,10.00,M,M,M,M,M,M,M,M,M,M,M,M,M,M,M,M,80.64,K05U 210255Z AUTO 10SM 28/08 A3026 RMK A01,M
MEV,2023-07-21 02:55,-119.7500,38.9963,1441.42,84.20,37.40,18.91,280.00,10.00,0.00,30.18,M,10.00,M,CLR,M,M,M,M,M,M,M,M,M,M,M,M,M,M,81.38,KMEV 210255Z AUTO 28010KT 10SM CLR 29/03 A3018 RMK AO2,M
HTH,2023-07-21 02:55,-118.6315,38.5448,1282.89,89.60,48.20,24.11,310.00,7.00,0.00,30.09,M,10.00,M,CLR,M,M,M,M,M,M,M,M,M,M,M,M,M,M,86.44,KHTH 210255Z AUTO 31007KT 10SM CLR 32/09 A3009 RMK A01,M
TMT,2023-07-21 02:55,-117.1971,39.4643,1749.34,85.30,43.50,23.13,320.00,9.00,0.00,30.24,M,10.00,M,CLR,M,M,M,M,M,M,M,M,M,M,M,M,M,M,82.46,KTMT 210255Z AUTO 32009KT 10SM CLR 30/06 A3024 RMK AO2 T02960064,M
LSV,2023-07-21 02:55,-115.0343,36.2362,570.00,107.60,48.20,13.95,140.00,6.00,0.00,M,M,10.00,M,CLR,M,M,M,M,M,M,M,M,M,M,M,M,M,M,104.23,KLSV 210255Z COR AUTO 14006KT 10SM CLR 42/09 RMK AO2A SLPNO $ COR 0258,M
BAM,2023-07-21 02:55,-116.8743,40.5990,1382.36,91.40,33.80,13.05,310.00,6.00,0.00,30.13,M,10.00,M,CLR,M,M,M,M,M,M,M,M,M,M,M,M,M,M,87.13,KBAM 210255Z AUTO 31006KT 10SM CLR 33/01 A3013 RMK AO1,M
10U,2023-07-21 02:55,-116.1876,41.9532,1637.00,86.00,32.00,14.40,270.00,7.00,0.00,30.19,M,10.00,M,CLR,M,M,M,M,M,M,M,M,M,M,M,M,M,M,82.64,K10U 210255Z AUTO 27007KT 10SM CLR 30/M00 A3019 RMK AO2,M
EKO,2023-07-21 02:56,-115.7860,40.8242,1367.00,87.00,44.00,22.33,280.00,3.00,0.00,30.15,1014.70,10.00,M,CLR,M,M,M,M,M,M,M,M,M,M,M,M,M,M,83.82,KEKO 210256Z AUTO 28003KT 10SM CLR 31/07 A3015 RMK AO2 SLP147 T03060067 55002,M
WMC,2023-07-21 02:56,-117.8072,40.9019,1315.00,M,M,M,M,M,0.00,30.11,M,M,M,M,M,M,M,M,M,M,M,M,M,M,M,M,M,M,M,KWMC 210256Z AUTO A3011 RMK AO2 SLPNO 55000 PWINO FZRANO $,M
NFL,2023-07-21 02:56,-118.7010,39.4166,1199.00,92.00,46.00,20.58,40.00,6.00,0.00,30.07,1015.10,10.00,M,FEW,M,M,M,8000.00,M,M,M,M,M,M,M,M,M,M,88.38,KNFL 210256Z 04006KT 10SM FEW080 33/08 A3007 RMK AO2 SLP151 TCU DSNT SE T03330078 55003,M
HND,2023-07-21 02:56,-115.1344,35.9729,742.79,107.00,40.00,10.38,270.00,8.00,0.00,29.90,1009.90,10.00,M,CLR,M,M,M,M,M,M,M,M,M,M,M,M,M,M,101.38,KHND 210256Z 27008KT 10SM CLR 42/04 A2990 RMK AO2 SLP099 T04170044 55002,M
TPH,2023-07-21 02:56,-117.0904,38.0505,1654.00,90.00,45.00,21.10,320.00,7.00,0.00,30.19,1013.00,10.00,M,CLR,M,M,M,M,M,M,M,M,M,M,M,M,M,M,86.45,KTPH 210256Z AUTO 32007KT 10SM CLR 32/07 A3019 RMK AO2 SLP130 T03220072 55002 $,M
LAS,2023-07-21 02:56,-115.1634,36.0719,663.00,108.00,36.00,8.62,260.00,11.00,0.00,29.85,1007.10,10.00,M,FEW,FEW,M,M,14000.00,22000.00,M,M,M,M,M,M,M,M,M,101.41,KLAS 210256Z 26011KT 10SM FEW140 FEW220 42/02 A2985 RMK AO2 SLP071 T04220022 55003,M
BVU,2023-07-21 03:15,-114.8611,35.9475,671.00,102.20,48.20,16.37,0.00,0.00,0.00,29.84,M,10.00,M,CLR,M,M,M,M,M,M,M,M,M,M,M,M,M,M,98.83,KBVU 210315Z AUTO 00000KT 10SM CLR 39/09 A2984 RMK AO2,M
CXP,2023-07-21 03:15,-119.7326,39.1923,1431.00,86.00,33.80,15.48,280.00,6.00,0.00,30.19,M,10.00,M,CLR,M,M,M,M,M,M,M,M,M,M,M,M,M,M,82.66,KCXP 210315Z AUTO 28006KT 10SM CLR 30/01 A3019 RMK AO2,M
RTS,2023-07-21 03:15,-119.8764,39.6682,1539.00,80.60,32.00,17.14,290.00,9.00,0.00,30.23,M,10.00,M,CLR,M,M,M,M,M,M,M,M,M,M,M,M,M,M,78.82,KRTS 210315Z AUTO 29009KT 10SM CLR 27/M00 A3023 RMK AO2,M
05U,2023-07-21 03:15,-116.0051,39.6042,1811.23,82.40,44.60,26.49,M,M,0.00,30.26,M,10.00,M,M,M,M,M,M,M,M,M,M,M,M,M,M,M,M,80.50,K05U 210315Z AUTO 10SM 28/07 A3026 RMK A01,M
MEV,2023-07-21 03:15,-119.7500,38.9963,1441.42,82.40,37.40,20.04,270.00,10.00,0.00,30.19,M,10.00,M,CLR,M,M,M,M,M,M,M,M,M,M,M,M,M,M,80.14,KMEV 210315Z AUTO 27010KT 10SM CLR 28/03 A3019 RMK AO2,M
HTH,2023-07-21 03:15,-118.6315,38.5448,1282.89,87.80,48.20,25.52,320.00,8.00,0.00,30.09,M,10.00,M,CLR,M,M,M,M,M,M,M,M,M,M,M,M,M,M,84.87,KHTH 210315Z AUTO 32008KT 10SM CLR 31/09 A3009 RMK A01,M
10U,2023-07-21 03:15,-116.1876,41.9532,1637.00,82.40,32.00,16.17,260.00,6.00,0.00,30.19,M,10.00,M,CLR,M,M,M,M,M,M,M,M,M,M,M,M,M,M,80.00,K10U 210315Z AUTO 26006KT 10SM CLR 28/M00 A3019 RMK AO2,M
BAM,2023-07-21 03:15,-116.8743,40.5990,1382.36,89.60,35.60,14.83,330.00,9.00,0.00,30.13,M,10.00,M,CLR,M,M,M,M,M,M,M,M,M,M,M,M,M,M,85.62,KBAM 210315Z AUTO 33009KT 10SM CLR 32/02 A3013 RMK AO1,M
TMT,2023-07-21 03:15,-117.1971,39.4643,1749.34,82.40,44.20,26.09,350.00,7.00,0.00,30.24,M,10.00,M,CLR,M,M,M,M,M,M,M,M,M,M,M,M,M,M,80.48,KTMT 210315Z AUTO 35007KT 10SM CLR 28/07 A3024 RMK AO2 T02800068,M
BVU,2023-07-21 03:35,-114.8611,35.9475,671.00,100.40,50.00,18.48,50.00,5.00,0.00,29.84,M,10.00,M,CLR,M,M,M,M,M,M,M,M,M,M,M,M,M,M,97.42,KBVU 210335Z AUTO 05005KT 10SM CLR 38/10 A2984 RMK AO2,M
CXP,2023-07-21 03:35,-119.7326,39.1923,1431.00,84.20,35.60,17.61,M,3.00,0.00,30.20,M,10.00,M,CLR,M,M,M,M,M,M,M,M,M,M,M,M,M,M,81.34,KCXP 210335Z AUTO VRB03KT 10SM CLR 29/02 A3020 RMK AO2,M
RTS,2023-07-21 03:35,-119.8764,39.6682,1539.00,78.80,32.00,18.18,300.00,8.00,0.00,30.24,M,10.00,M,CLR,M,M,M,M,M,M,M,M,M,M,M,M,M,M,78.80,KRTS 210335Z AUTO 30008KT 10SM CLR 26/00 A3024 RMK AO2,M
05U,2023-07-21 03:35,-116.0051,39.6042,1811.23,80.60,46.40,30.07,M,M,0.00,30.26,M,10.00,M,M,M,M,M,M,M,M,M,M,M,M,M,M,M,M,79.56,K05U 210335Z AUTO 10SM 27/08 A3026 RMK A01,M
MEV,2023-07-21 03:35,-119.7500,38.9963,1441.42,80.60,39.20,22.81,320.00,5.00,0.00,30.19,M,10.00,12.00,CLR,M,M,M,M,M,M,M,M,M,M,M,M,M,M,79.10,KMEV 210335Z AUTO 32005G12KT 10SM CLR 27/04 A3019 RMK AO2,M
HTH,2023-07-21 03:35,-118.6315,38.5448,1282.89,87.80,44.60,22.27,320.00,9.00,0.00,30.10,M,10.00,M,CLR,M,M,M,M,M,M,M,M,M,M,M,M,M,M,84.53,KHTH 210335Z AUTO 32009KT 10SM CLR 31/07 A3010 RMK A01,M
10U,2023-07-21 03:35,-116.1876,41.9532,1637.00,77.00,32.00,19.30,280.00,8.00,0.00,30.20,M,10.00,M,CLR,M,M,M,M,M,M,M,M,M,M,M,M,M,M,77.00,K10U 210335Z AUTO 28008KT 10SM CLR 25/M00 A3020 RMK AO2,M
BAM,2023-07-21 03:35,-116.8743,40.5990,1382.36,87.80,35.60,15.70,330.00,7.00,0.00,30.13,M,10.00,M,CLR,M,M,M,M,M,M,M,M,M,M,M,M,M,M,84.12,KBAM 210335Z AUTO 33007KT 10SM CLR 31/02 A3013 RMK AO1,M
TMT,2023-07-21 03:35,-117.1971,39.4643,1749.34,80.00,44.60,28.64,10.00,7.00,0.00,30.25,M,10.00,M,CLR,M,M,M,M,M,M,M,M,M,M,M,M,M,M,79.10,KTMT 210335Z AUTO 01007KT 10SM CLR 27/07 A3025 RMK AO2 T02660070,M
P68,2023-07-21 03:53,-116.0056,39.6014,1993.00,79.00,44.00,28.93,190.00,4.00,0.00,30.24,1014.20,M,M,M,M,M,M,M,M,M,M,M,M,M,M,M,M,M,79.00,KP68 210353Z AUTO 19004KT 26/07 A3024 RMK AO1 SLP142 T02610067,M
DRA,2023-07-21 03:53,-116.0278,36.6206,1009.00,94.00,33.00,11.65,10.00,3.00,0.00,29.98,1008.90,10.00,M,CLR,M,M,M,M,M,M,M,M,M,M,M,M,M,M,89.06,KDRA 210353Z AUTO 01003KT 10SM CLR 34/01 A2998 RMK AO2 SLP089 T03440006,M
ELY,2023-07-21 03:53,-114.8453,39.2950,1909.00,72.00,48.00,42.51,200.00,7.00,0.00,30.28,1014.80,10.00,M,CLR,M,M,M,M,M,M,M,M,M,M,M,M,M,M,72.00,KELY 210353Z AUTO 20007KT 10SM CLR 22/09 A3028 RMK AO2 SLP148 T02220089,M
VGT,2023-07-21 03:53,-115.1933,36.2111,667.00,107.00,38.00,9.60,260.00,8.00,0.00,29.85,1008.60,10.00,M,CLR,M,M,M,M,M,M,M,M,M,M,M,M,M,M,100.94,KVGT 210353Z AUTO 26008KT 10SM CLR 42/03 A2985 RMK AO2 SLP086 T04170033,M
LOL,2023-07-21 03:53,-118.5701,40.0684,1192.43,83.00,23.00,10.95,330.00,5.00,0.00,30.09,1014.20,10.00,M,CLR,M,M,M,M,M,M,M,M,M,M,M,M,M,M,80.07,KLOL 210353Z AUTO 33005KT 10SM CLR 28/M05 A3009 RMK AO2 SLP142 T02831050,M
BVU,2023-07-21 03:55,-114.8611,35.9475,671.00,100.40,48.20,17.28,60.00,4.00,0.00,29.84,M,10.00,M,CLR,M,M,M,M,M,M,M,M,M,M,M,M,M,M,97.00,KBVU 210355Z AUTO 06004KT 10SM CLR 38/09 A2984 RMK AO2,M
CXP,2023-07-21 03:55,-119.7326,39.1923,1431.00,82.40,35.60,18.67,0.00,0.00,0.00,30.20,M,10.00,M,CLR,M,M,M,M,M,M,M,M,M,M,M,M,M,M,80.08,KCXP 210355Z AUTO 00000KT 10SM CLR 28/02 A3020 RMK AO2,M
INS,2023-07-21 03:55,-115.6733,36.5872,955.00,95.50,30.20,9.94,240.00,8.00,0.00,29.95,1008.30,10.00,M,CLR,M,M,M,M,M,M,M,M,M,M,M,M,M,M,89.89,KINS 210355Z AUTO 24008KT 10SM CLR 35/M01 A2995 RMK AO2 SLP083 T03531010 $,M
RNO,2023-07-21 03:55,-119.7711,39.4839,1341.00,87.00,37.00,17.02,330.00,16.00,0.00,30.17,1015.20,10.00,M,CLR,M,M,M,M,M,M,M,M,M,M,M,M,M,M,83.51,KRNO 210355Z 33016KT 10SM CLR 31/03 A3017 RMK AO2 SLP152 T03060028,M
RTS,2023-07-21 03:55,-119.8764,39.6682,1539.00,77.00,33.80,20.74,270.00,7.00,0.00,30.24,M,10.00,M,CLR,M,M,M,M,M,M,M,M,M,M,M,M,M,M,77.00,KRTS 210355Z AUTO 27007KT 10SM CLR 25/01 A3024 RMK AO2,M
05U,2023-07-21 03:55,-116.0051,39.6042,1811.23,78.80,44.60,29.79,M,M,0.00,30.27,M,10.00,M,M,M,M,M,M,M,M,M,M,M,M,M,M,M,M,78.80,K05U 210355Z AUTO 10SM 26/07 A3027 RMK A01,M
MEV,2023-07-21 03:55,-119.7500,38.9963,1441.42,78.80,37.40,22.54,0.00,0.00,0.00,30.19,M,10.00,M,CLR,M,M,M,M,M,M,M,M,M,M,M,M,M,M,78.80,KMEV 210355Z AUTO 00000KT 10SM CLR 26/03 A3019 RMK AO2,M
HTH,2023-07-21 03:55,-118.6315,38.5448,1282.89,86.00,46.40,25.26,320.00,5.00,0.00,30.11,M,10.00,M,CLR,M,M,M,M,M,M,M,M,M,M,M,M,M,M,83.22,KHTH 210355Z AUTO 32005KT 10SM CLR 30/08 A3011 RMK A01,M
BAM,2023-07-21 03:55,-116.8743,40.5990,1382.36,84.20,35.60,17.61,330.00,7.00,0.00,30.14,M,10.00,M,CLR,M,M,M,M,M,M,M,M,M,M,M,M,M,M,81.34,KBAM 210355Z AUTO 33007KT 10SM CLR 29/02 A3014 RMK AO1,M
TMT,2023-07-21 03:55,-117.1971,39.4643,1749.34,79.50,43.00,27.39,350.00,6.00,0.00,30.26,M,10.00,M,CLR,M,M,M,M,M,M,M,M,M,M,M,M,M,M,79.50,KTMT 210355Z AUTO 35006KT 10SM CLR 26/06 A3026 RMK AO2 T02640061,M
10U,2023-07-21 03:55,-116.1876,41.9532,1637.00,75.20,32.00,20.49,310.00,5.00,0.00,30.20,M,10.00,M,CLR,M,M,M,M,M,M,M,M,M,M,M,M,M,M,75.20,K10U 210355Z AUTO 31005KT 10SM CLR 24/M00 A3020 RMK AO2,M
LSV,2023-07-21 03:55,-115.0343,36.2362,570.00,102.20,41.00,12.44,173.00,5.00,0.00,29.80,M,10.00,M,CLR,M,M,M,M,M,M,M,M,M,M,M,M,M,M,97.39,KLSV 210355Z COR 17305KT 10SM CLR 39/05 A2980 RMK AO2 SLPNO RVRNO $ COR 0410,M
EKO,2023-07-21 03:56,-115.7860,40.8242,1367.00,79.00,44.00,28.93,0.00,0.00,0.00,30.17,1015.30,10.00,M,CLR,M,M,M,M,M,M,M,M,M,M,M,M,M,M,79.00,KEKO 210356Z AUTO 00000KT 10SM CLR 26/07 A3017 RMK AO2 SLP153 T02610067,M
WMC,2023-07-21 03:56,-117.8072,40.9019,1315.00,M,M,M,M,M,0.00,30.13,M,M,M,M,M,M,M,M,M,M,M,M,M,M,M,M,M,M,M,KWMC 210356Z AUTO A3013 RMK AO2 SLPNO PWINO FZRANO $,M
NFL,2023-07-21 03:56,-118.7010,39.4166,1199.00,83.00,49.00,30.67,10.00,5.00,0.00,30.09,1015.50,10.00,M,CLR,M,M,M,M,M,M,M,M,M,M,M,M,M,M,81.28,KNFL 210356Z 01005KT 10SM CLR 28/09 A3009 RMK AO2 SLP155 T02830094,M
HND,2023-07-21 03:56,-115.1344,35.9729,742.79,104.00,39.00,10.91,250.00,5.00,0.00,29.91,1010.30,10.00,M,CLR,M,M,M,M,M,M,M,M,M,M,M,M,M,M,98.51,KHND 210356Z AUTO 25005KT 10SM CLR 40/04 A2991 RMK AO2 SLP103 T04000039,M
TPH,2023-07-21 03:56,-117.0904,38.0505,1654.00,84.00,44.00,24.58,330.00,7.00,0.00,30.19,1013.10,10.00,M,CLR,M,M,M,M,M,M,M,M,M,M,M,M,M,M,81.54,KTPH 210356Z AUTO 33007KT 10SM CLR 29/07 A3019 RMK AO2 SLP131 T02890067 $,M
LAS,2023-07-21 03:56,-115.1634,36.0719,663.00,105.00,37.00,9.79,270.00,7.00,0.00,29.85,1007.40,10.00,M,FEW,FEW,M,M,14000.00,25000.00,M,M,M,M,M,M,M,M,M,98.98,KLAS 210356Z 27007KT 10SM FEW140 FEW250 41/03 A2985 RMK AO2 SLP074 T04060028,M
BVU,2023-07-21 04:15,-114.8611,35.9475,671.00,98.60,46.40,17.05,320.00,5.00,0.00,29.85,M,10.00,M,CLR,M,M,M,M,M,M,M,M,M,M,M,M,M,M,94.84,KBVU 210415Z AUTO 32005KT 10SM CLR 37/08 A2985 RMK AO2,M
CXP,2023-07-21 04:15,-119.7326,39.1923,1431.00,78.80,35.60,21.00,50.00,4.00,0.00,30.21,M,10.00,M,CLR,M,M,M,M,M,M,M,M,M,M,M,M,M,M,78.80,KCXP 210415Z AUTO 05004KT 10SM CLR 26/02 A3021 RMK AO2,M
RTS,2023-07-21 04:15,-119.8764,39.6682,1539.00,77.00,35.60,22.28,260.00,7.00,0.00,30.25,M,10.00,M,CLR,M,M,M,M,M,M,M,M,M,M,M,M,M,M,77.00,KRTS 210415Z AUTO 26007KT 10SM CLR 25/02 A3025 RMK AO2,M
05U,2023-07-21 04:15,-116.0051,39.6042,1811.23,75.20,46.40,35.94,360.00,4.00,0.00,30.27,M,10.00,M,M,M,M,M,M,M,M,M,M,M,M,M,M,M,M,75.20,K05U 210415Z AUTO 36004KT 10SM 24/08 A3027 RMK A01,M
MEV,2023-07-21 04:15,-119.7500,38.9963,1441.42,75.20,37.40,25.40,150.00,4.00,0.00,30.20,M,10.00,M,SCT,M,M,M,5500.00,M,M,M,M,M,M,M,M,M,M,75.20,KMEV 210415Z AUTO 15004KT 10SM SCT055 24/03 A3020 RMK AO2,M
HTH,2023-07-21 04:15,-118.6315,38.5448,1282.89,82.40,53.60,37.07,340.00,3.00,0.00,30.12,M,10.00,M,CLR,M,M,M,M,M,M,M,M,M,M,M,M,M,M,81.46,KHTH 210415Z AUTO 34003KT 10SM CLR 28/12 A3012 RMK A01,M
10U,2023-07-21 04:15,-116.1876,41.9532,1637.00,71.60,28.40,19.98,320.00,5.00,0.00,30.21,M,10.00,M,CLR,M,M,M,M,M,M,M,M,M,M,M,M,M,M,71.60,K10U 210415Z AUTO 32005KT 10SM CLR 22/M02 A3021 RMK AO2,M
BAM,2023-07-21 04:15,-116.8743,40.5990,1382.36,82.40,33.80,17.38,340.00,7.00,0.00,30.15,M,10.00,M,CLR,M,M,M,M,M,M,M,M,M,M,M,M,M,M,80.03,KBAM 210415Z AUTO 34007KT 10SM CLR 28/01 A3015 RMK AO1,M
TMT,2023-07-21 04:15,-117.1971,39.4643,1749.34,76.60,44.20,31.55,0.00,0.00,0.00,30.27,M,10.00,M,SCT,M,M,M,12000.00,M,M,M,M,M,M,M,M,M,M,76.60,KTMT 210415Z AUTO 00000KT 10SM SCT120 25/07 A3027 RMK AO2 T02480068,M
BVU,2023-07-21 04:35,-114.8611,35.9475,671.00,100.40,39.20,12.25,330.00,6.00,0.00,29.85,M,10.00,M,CLR,M,M,M,M,M,M,M,M,M,M,M,M,M,M,95.43,KBVU 210435Z AUTO 33006KT 10SM CLR 38/04 A2985 RMK AO2,M
CXP,2023-07-21 04:35,-119.7326,39.1923,1431.00,80.60,35.60,19.79,60.00,5.00,0.00,30.22,M,10.00,M,CLR,M,M,M,M,M,M,M,M,M,M,M,M,M,M,78.94,KCXP 210435Z AUTO 06005KT 10SM CLR 27/02 A3022 RMK AO2,M
RTS,2023-07-21 04:35,-119.8764,39.6682,1539.00,77.00,37.40,23.93,250.00,9.00,0.00,30.25,M,10.00,M,CLR,M,M,M,M,M,M,M,M,M,M,M,M,M,M,77.00,KRTS 210435Z AUTO 25009KT 10SM CLR 25/03 A3025 RMK AO2,M
05U,2023-07-21 04:35,-116.0051,39.6042,1811.23,77.00,44.60,31.62,M,M,0.00,30.28,M,10.00,M,M,M,M,M,M,M,M,M,M,M,M,M,M,M,M,77.00,K05U 210435Z AUTO 10SM 25/07 A3028 RMK A01,M
MEV,2023-07-21 04:35,-119.7500,38.9963,1441.42,69.80,42.80,37.61,130.00,3.00,0.00,30.21,M,10.00,M,SCT,M,M,M,5500.00,M,M,M,M,M,M,M,M,M,M,69.80,KMEV 210435Z AUTO 13003KT 10SM SCT055 21/06 A3021 RMK AO2,M
HTH,2023-07-21 04:35,-118.6315,38.5448,1282.89,84.20,46.40,26.76,330.00,4.00,0.00,30.13,M,10.00,M,CLR,M,M,M,M,M,M,M,M,M,M,M,M,M,M,81.87,KHTH 210435Z AUTO 33004KT 10SM CLR 29/08 A3013 RMK A01,M
TMT,2023-07-21 04:35,-117.1971,39.4643,1749.34,76.30,43.00,30.44,0.00,0.00,0.00,30.28,M,10.00,M,SCT,M,M,M,12000.00,M,M,M,M,M,M,M,M,M,M,76.30,KTMT 210435Z AUTO 00000KT 10SM SCT120 25/06 A3028 RMK AO2 T02460062,M
10U,2023-07-21 04:35,-116.1876,41.9532,1637.00,69.80,26.60,19.72,130.00,4.00,0.00,30.22,M,10.00,M,CLR,M,M,M,M,M,M,M,M,M,M,M,M,M,M,69.80,K10U 210435Z AUTO 13004KT 10SM CLR 21/M03 A3022 RMK AO2,M
BAM,2023-07-21 04:35,-116.8743,40.5990,1382.36,80.60,32.00,17.14,340.00,7.00,0.00,30.16,M,10.00,M,CLR,M,M,M,M,M,M,M,M,M,M,M,M,M,M,78.82,KBAM 210435Z AUTO 34007KT 10SM CLR 27/00 A3016 RMK AO1,M
P68,2023-07-21 04:53,-116.0056,39.6014,1993.00,75.00,46.00,35.64,150.00,6.00,0.00,30.25,1014.90,M,M,M,M,M,M,M,M,M,M,M,M,M,M,M,M,M,75.00,KP68 210453Z AUTO 15006KT 24/08 A3025 RMK AO1 SLP149 T02390078,M
DRA,2023-07-21 04:53,-116.0278,36.6206,1009.00,91.00,33.00,12.79,20.00,6.00,0.00,29.98,1009.10,10.00,M,CLR,M,M,M,M,M,M,M,M,M,M,M,M,M,M,86.73,KDRA 210453Z AUTO 02006KT 10SM CLR 33/01 A2998 RMK AO2 SLP091 T03280006,M
ELY,2023-07-21 04:53,-114.8453,39.2950,1909.00,70.00,46.00,42.20,180.00,7.00,0.00,30.30,1015.00,10.00,M,CLR,M,M,M,M,M,M,M,M,M,M,M,M,M,M,70.00,KELY 210453Z AUTO 18007KT 10SM CLR 21/08 A3030 RMK AO2 SLP150 T02110078,M
VGT,2023-07-21 04:53,-115.1933,36.2111,667.00,105.00,38.00,10.19,260.00,8.00,0.00,29.86,1009.10,10.00,M,CLR,M,M,M,M,M,M,M,M,M,M,M,M,M,M,99.18,KVGT 210453Z AUTO 26008KT 10SM CLR 41/03 A2986 RMK AO2 SLP091 T04060033,M
LOL,2023-07-21 04:53,-118.5701,40.0684,1192.43,81.00,21.00,10.73,320.00,9.00,0.00,30.11,1014.70,10.00,M,CLR,M,M,M,M,M,M,M,M,M,M,M,M,M,M,78.63,KLOL 210453Z AUTO 32009KT 10SM CLR 27/M06 A3011 RMK AO2 SLP147 T02721061,M
BVU,2023-07-21 04:55,-114.8611,35.9475,671.00,100.40,33.80,9.90,0.00,0.00,0.00,29.86,M,10.00,M,CLR,M,M,M,M,M,M,M,M,M,M,M,M,M,M,94.47,KBVU 210455Z AUTO 00000KT 10SM CLR 38/01 A2986 RMK AO2,M
CXP,2023-07-21 04:55,-119.7326,39.1923,1431.00,80.60,37.40,21.25,0.00,0.00,0.00,30.22,M,10.00,M,CLR,M,M,M,M,M,M,M,M,M,M,M,M,M,M,79.02,KCXP 210455Z AUTO 00000KT 10SM CLR 27/03 A3022 RMK AO2,M
INS,2023-07-21 04:55,-115.6733,36.5872,955.00,93.60,28.80,9.95,240.00,9.00,0.00,29.96,1008.60,10.00,M,CLR,M,M,M,M,M,M,M,M,M,M,M,M,M,M,88.24,KINS 210455Z AUTO 24009KT 10SM CLR 34/M02 A2996 RMK AO2 SLP086 T03421018 $,M
RNO,2023-07-21 04:55,-119.7711,39.4839,1341.00,84.00,40.00,21.07,320.00,9.00,0.00,30.19,1015.80,10.00,M,CLR,M,M,M,M,M,M,M,M,M,M,M,M,M,M,81.33,KRNO 210455Z 32009KT 10SM CLR 29/04 A3019 RMK AO2 SLP158 T02890044,M
LSV,2023-07-21 04:55,-115.0343,36.2362,570.00,M,M,M,M,M,0.00,29.81,M,M,M,M,M,M,M,M,M,M,M,M,M,M,M,M,M,M,M,KLSV 210455Z AUTO M M M M M A2981 RMK AO2 SLPNO ALSTG ESTMD RVRNO $,M
RTS,2023-07-21 04:55,-119.8764,39.6682,1539.00,73.40,37.40,26.98,270.00,7.00,0.00,30.26,M,10.00,M,CLR,M,M,M,M,M,M,M,M,M,M,M,M,M,M,73.40,KRTS 210455Z AUTO 27007KT 10SM CLR 23/03 A3026 RMK AO2,M
05U,2023-07-21 04:55,-116.0051,39.6042,1811.23,73.40,44.60,35.66,M,M,0.00,30.28,M,10.00,M,M,M,M,M,M,M,M,M,M,M,M,M,M,M,M,73.40,K05U 210455Z AUTO 10SM 23/07 A3028 RMK A01,M
MEV,2023-07-21 04:55,-119.7500,38.9963,1441.42,73.40,41.00,31.05,M,4.00,0.00,30.21,M,10.00,M,CLR,M,M,M,M,M,M,M,M,M,M,M,M,M,M,73.40,KMEV 210455Z AUTO VRB04KT 10SM CLR 23/05 A3021 RMK AO2,M
HTH,2023-07-21 04:55,-118.6315,38.5448,1282.89,82.40,51.80,34.69,120.00,4.00,0.00,30.13,M,10.00,M,CLR,M,M,M,M,M,M,M,M,M,M,M,M,M,M,81.20,KHTH 210455Z AUTO 12004KT 10SM CLR 28/11 A3013 RMK A01,M
TMT,2023-07-21 04:55,-117.1971,39.4643,1749.34,71.80,42.80,35.13,130.00,4.00,0.00,30.28,M,10.00,M,SCT,M,M,M,11000.00,M,M,M,M,M,M,M,M,M,M,71.80,KTMT 210455Z AUTO 13004KT 10SM SCT110 22/06 A3028 RMK AO2 T02210060,M
BAM,2023-07-21 04:55,-116.8743,40.5990,1382.36,80.60,30.20,15.94,330.00,10.00,0.00,30.17,M,10.00,M,CLR,M,M,M,M,M,M,M,M,M,M,M,M,M,M,78.77,KBAM 210455Z AUTO 33010KT 10SM CLR 27/M01 A3017 RMK AO1,M
10U,2023-07-21 04:55,-116.1876,41.9532,1637.00,68.00,28.40,22.59,0.00,0.00,0.00,30.22,M,10.00,M,CLR,M,M,M,M,M,M,M,M,M,M,M,M,M,M,68.00,K10U 210455Z AUTO 00000KT 10SM CLR 20/M02 A3022 RMK AO2,M
EKO,2023-07-21 04:56,-115.7860,40.8242,1367.00,74.00,45.00,35.48,0.00,0.00,0.00,30.18,1015.70,10.00,M,CLR,M,M,M,M,M,M,M,M,M,M,M,M,M,M,74.00,KEKO 210456Z AUTO 00000KT 10SM CLR 23/07 A3018 RMK AO2 SLP157 T02330072,M
WMC,2023-07-21 04:56,-117.8072,40.9019,1315.00,M,M,M,M,M,0.00,30.14,M,M,M,M,M,M,M,M,M,M,M,M,M,M,M,M,M,M,M,KWMC 210456Z AUTO A3014 RMK AO2 SLPNO PWINO FZRANO $,M
NFL,2023-07-21 04:56,-118.7010,39.4166,1199.00,80.00,39.00,23.08,310.00,8.00,0.00,30.11,1016.20,10.00,M,CLR,M,M,M,M,M,M,M,M,M,M,M,M,M,M,78.78,KNFL 210456Z 31008KT 10SM CLR 27/04 A3011 RMK AO2 SLP162 T02670039,M
HND,2023-07-21 04:56,-115.1344,35.9729,742.79,99.00,41.00,13.70,160.00,6.00,0.00,29.92,1010.90,10.00,M,CLR,M,M,M,M,M,M,M,M,M,M,M,M,M,M,94.47,KHND 210456Z AUTO 16006KT 10SM CLR 37/05 A2992 RMK AO2 SLP109 T03720050,M
TPH,2023-07-21 04:56,-117.0904,38.0505,1654.00,79.00,40.00,24.79,10.00,6.00,0.00,30.20,1013.60,10.00,M,CLR,M,M,M,M,M,M,M,M,M,M,M,M,M,M,79.00,KTPH 210456Z AUTO 01006KT 10SM CLR 26/04 A3020 RMK AO2 SLP136 T02610044 $,M
LAS,2023-07-21 04:56,-115.1634,36.0719,663.00,103.00,38.00,10.81,200.00,3.00,0.00,29.87,1007.80,10.00,M,CLR,M,M,M,M,M,M,M,M,M,M,M,M,M,M,97.44,KLAS 210456Z 20003KT 10SM CLR 39/03 A2987 RMK AO2 SLP078 T03940033,M
LSV,2023-07-21 05:01,-115.0343,36.2362,570.00,102.20,48.20,16.37,177.00,3.00,0.00,29.79,M,10.00,M,CLR,M,M,M,M,M,M,M,M,M,M,M,M,M,M,98.83,KLSV 210501Z 17703KT 10SM CLR 39/09 A2979 RMK SLPNO ALSTG ESTMD 10460 20391 RVRNO $,M
BVU,2023-07-21 05:15,-114.8611,35.9475,671.00,100.40,37.40,11.41,0.00,0.00,0.00,29.87,M,10.00,M,CLR,M,M,M,M,M,M,M,M,M,M,M,M,M,M,95.08,KBVU 210515Z AUTO 00000KT 10SM CLR 38/03 A2987 RMK AO2,M
CXP,2023-07-21 05:15,-119.7326,39.1923,1431.00,75.20,39.20,27.26,0.00,0.00,0.00,30.23,M,10.00,M,CLR,M,M,M,M,M,M,M,M,M,M,M,M,M,M,75.20,KCXP 210515Z AUTO 00000KT 10SM CLR 24/04 A3023 RMK AO2,M
RTS,2023-07-21 05:15,-119.8764,39.6682,1539.00,69.80,37.40,30.49,10.00,5.00,0.00,30.26,M,10.00,M,CLR,M,M,M,M,M,M,M,M,M,M,M,M,M,M,69.80,KRTS 210515Z AUTO 01005KT 10SM CLR 21/03 A3026 RMK AO2,M
05U,2023-07-21 05:15,-116.0051,39.6042,1811.23,71.60,44.60,37.89,M,M,0.00,30.28,M,10.00,M,M,M,M,M,M,M,M,M,M,M,M,M,M,M,M,71.60,K05U 210515Z AUTO 10SM 22/07 A3028 RMK A01,M
MEV,2023-07-21 05:15,-119.7500,38.9963,1441.42,69.80,41.00,35.09,130.00,4.00,0.00,30.22,M,10.00,M,FEW,M,M,M,5500.00,M,M,M,M,M,M,M,M,M,M,69.80,KMEV 210515Z AUTO 13004KT 10SM FEW055 21/05 A3022 RMK AO2,M
HTH,2023-07-21 05:15,-118.6315,38.5448,1282.89,80.60,53.60,39.30,40.00,5.00,0.00,30.14,M,10.00,M,CLR,M,M,M,M,M,M,M,M,M,M,M,M,M,M,80.29,KHTH 210515Z AUTO 04005KT 10SM CLR 27/12 A3014 RMK A01,M
10U,2023-07-21 05:15,-116.1876,41.9532,1637.00,64.40,32.00,29.63,140.00,5.00,0.00,30.22,M,10.00,M,CLR,M,M,M,M,M,M,M,M,M,M,M,M,M,M,64.40,K10U 210515Z AUTO 14005KT 10SM CLR 18/00 A3022 RMK AO2,M
BAM,2023-07-21 05:15,-116.8743,40.5990,1382.36,82.40,23.00,11.16,320.00,8.00,0.00,30.16,M,10.00,M,CLR,M,M,M,M,M,M,M,M,M,M,M,M,M,M,79.67,KBAM 210515Z AUTO 32008KT 10SM CLR 28/M05 A3016 RMK AO1,M
TMT,2023-07-21 05:15,-117.1971,39.4643,1749.34,69.80,42.30,36.89,180.00,4.00,0.00,30.28,M,10.00,M,CLR,M,M,M,M,M,M,M,M,M,M,M,M,M,M,69.80,KTMT 210515Z AUTO 18004KT 10SM CLR 21/06 A3028 RMK AO2 T02100057,M
BVU,2023-07-21 05:35,-114.8611,35.9475,671.00,95.00,46.40,19.04,130.00,3.00,0.00,29.87,M,10.00,M,CLR,M,M,M,M,M,M,M,M,M,M,M,M,M,M,91.29,KBVU 210535Z AUTO 13003KT 10SM CLR 35/08 A2987 RMK AO2,M
CXP,2023-07-21 05:35,-119.7326,39.1923,1431.00,75.20,39.20,27.26,0.00,0.00,0.00,30.24,M,10.00,M,CLR,M,M,M,M,M,M,M,M,M,M,M,M,M,M,75.20,KCXP 210535Z AUTO 00000KT 10SM CLR 24/04 A3024 RMK AO2,M
RTS,2023-07-21 05:35,-119.8764,39.6682,1539.00,71.60,37.40,28.68,300.00,5.00,0.00,30.26,M,10.00,M,CLR,M,M,M,M,M,M,M,M,M,M,M,M,M,M,71.60,KRTS 210535Z AUTO 30005KT 10SM CLR 22/03 A3026 RMK AO2,M
05U,2023-07-21 05:35,-116.0051,39.6042,1811.23,69.80,46.40,43.13,M,M,0.00,30.28,M,10.00,M,M,M,M,M,M,M,M,M,M,M,M,M,M,M,M,69.80,K05U 210535Z AUTO 10SM 21/08 A3028 RMK A01,M
MEV,2023-07-21 05:35,-119.7500,38.9963,1441.42,68.00,42.80,40.00,160.00,4.00,0.00,30.22,M,10.00,M,SCT,M,M,M,5500.00,M,M,M,M,M,M,M,M,M,M,68.00,KMEV 210535Z AUTO 16004KT 10SM SCT055 20/06 A3022 RMK AO2,M
HTH,2023-07-21 05:35,-118.6315,38.5448,1282.89,84.20,46.40,26.76,360.00,9.00,0.00,30.15,M,10.00,M,CLR,M,M,M,M,M,M,M,M,M,M,M,M,M,M,81.87,KHTH 210535Z AUTO 36009KT 10SM CLR 29/08 A3015 RMK A01,M
TMT,2023-07-21 05:35,-117.1971,39.4643,1749.34,64.40,41.00,42.28,160.00,6.00,0.00,30.28,M,10.00,M,CLR,M,M,M,M,M,M,M,M,M,M,M,M,M,M,64.40,KTMT 210535Z AUTO 16006KT 10SM CLR 18/05 A3028 RMK AO2 T01800050,M
10U,2023-07-21 05:35,-116.1876,41.9532,1637.00,62.60,33.80,33.93,110.00,5.00,0.00,30.23,M,10.00,M,CLR,M,M,M,M,M,M,M,M,M,M,M,M,M,M,62.60,K10U 210535Z AUTO 11005KT 10SM CLR 17/01 A3023 RMK AO2,M
BAM,2023-07-21 05:35,-116.8743,40.5990,1382.36,82.40,21.20,10.34,320.00,8.00,0.00,30.16,M,10.00,M,CLR,M,M,M,M,M,M,M,M,M,M,M,M,M,M,79.55,KBAM 210535Z AUTO 32008KT 10SM CLR 28/M06 A3016 RMK AO1,M
P68,2023-07-21 05:53,-116.0056,39.6014,1993.00,69.00,45.00,42.04,170.00,5.00,0.00,30.26,1015.10,M,M,M,M,M,M,M,M,M,M,M,M,M,M,M,M,M,69.00,KP68 210553Z AUTO 17005KT 21/07 A3026 RMK AO1 SLP151 T02060072 10333 20200 51008,M
DRA,2023-07-21 05:53,-116.0278,36.6206,1009.00,88.00,34.00,14.64,40.00,6.00,0.00,29.99,1009.30,10.00,M,CLR,M,M,M,M,M,M,M,M,M,M,M,M,M,M,84.26,KDRA 210553Z AUTO 04006KT 10SM CLR 31/01 A2999 RMK AO2 SLP093 T03110011 10422 20311 51005,M
ELY,2023-07-21 05:53,-114.8453,39.2950,1909.00,66.00,49.00,54.21,170.00,8.00,0.00,30.31,1015.40,10.00,M,CLR,M,M,M,M,M,M,M,M,M,M,M,M,M,M,66.00,KELY 210553Z AUTO 17008KT 10SM CLR 19/09 A3031 RMK AO2 SLP154 T01890094 10317 20189 53009,M
VGT,2023-07-21 05:53,-115.1933,36.2111,667.00,101.00,42.00,13.41,280.00,6.00,0.00,29.86,1009.30,10.00,M,CLR,M,M,M,M,M,M,M,M,M,M,M,M,M,M,96.50,KVGT 210553Z AUTO 28006KT 10SM CLR 38/06 A2986 RMK AO2 SLP093 T03830056 10450 20383 51008,M
LOL,2023-07-21 05:53,-118.5701,40.0684,1192.43,71.00,32.00,23.60,100.00,4.00,0.00,30.11,1015.10,10.00,M,CLR,M,M,M,M,M,M,M,M,M,M,M,M,M,M,71.00,KLOL 210553Z AUTO 10004KT 10SM CLR 22/00 A3011 RMK AO2 SLP151 T02170000 10372 20217 51009,M
BVU,2023-07-21 05:55,-114.8611,35.9475,671.00,95.00,44.60,17.78,0.00,0.00,0.00,29.87,M,10.00,M,CLR,M,M,M,M,M,M,M,M,M,M,M,M,M,M,91.06,KBVU 210555Z AUTO 00000KT 10SM CLR 35/07 A2987 RMK AO2,M
CXP,2023-07-21 05:55,-119.7326,39.1923,1431.00,73.40,37.40,26.98,0.00,0.00,0.00,30.23,M,10.00,M,CLR,M,M,M,M,M,M,M,M,M,M,M,M,M,M,73.40,KCXP 210555Z AUTO 00000KT 10SM CLR 23/03 A3023 RMK AO2,M
INS,2023-07-21 05:55,-115.6733,36.5872,955.00,90.70,29.00,10.98,0.00,0.00,0.00,29.97,1009.00,10.00,M,CLR,M,M,M,M,M,M,M,M,M,M,M,M,M,M,86.05,KINS 210555Z AUTO 00000KT 10SM CLR 33/M02 A2997 RMK AO2 SLP090 T03261017 10417 20321 52009 $,M
RNO,2023-07-21 05:55,-119.7711,39.4839,1341.00,82.00,41.00,23.37,320.00,7.00,0.00,30.20,1015.70,10.00,M,CLR,M,M,M,M,M,M,M,M,M,M,M,M,M,M,80.04,KRNO 210555Z 32007KT 10SM CLR 28/05 A3020 RMK AO2 SLP157 T02780050 10372 20278 51013,M
LSV,2023-07-21 05:55,-115.0343,36.2362,570.00,95.00,42.80,16.60,150.00,5.00,0.00,29.79,M,10.00,M,CLR,M,M,M,M,M,M,M,M,M,M,M,M,M,M,90.86,KLSV 210555Z COR 15005KT 10SM CLR 35/06 A2979 RMK AO2A SLPNO 10446 20391 RVRNO $ COR 0558,M
RTS,2023-07-21 05:55,-119.8764,39.6682,1539.00,71.60,37.40,28.68,310.00,7.00,0.00,30.26,M,10.00,M,CLR,M,M,M,M,M,M,M,M,M,M,M,M,M,M,71.60,KRTS 210555Z AUTO 31007KT 10SM CLR 22/03 A3026 RMK AO2,M
05U,2023-07-21 05:55,-116.0051,39.6042,1811.23,68.00,44.60,42.85,M,M,0.00,30.28,M,10.00,M,M,M,M,M,M,M,M,M,M,M,M,M,M,M,M,68.00,K05U 210555Z AUTO 10SM 20/07 A3028 RMK A01,M
MEV,2023-07-21 05:55,-119.7500,38.9963,1441.42,64.40,44.60,48.55,150.00,5.00,0.00,30.22,M,10.00,M,FEW,SCT,M,M,4800.00,5500.00,M,M,M,M,M,M,M,M,M,64.40,KMEV 210555Z AUTO 15005KT 10SM FEW048 SCT055 18/07 A3022 RMK AO2,M
HTH,2023-07-21 05:55,-118.6315,38.5448,1282.89,82.40,46.40,28.36,360.00,8.00,0.00,30.15,M,10.00,M,CLR,M,M,M,M,M,M,M,M,M,M,M,M,M,M,80.64,KHTH 210555Z AUTO 36008KT 10SM CLR 28/08 A3015 RMK A01,M
BAM,2023-07-21 05:55,-116.8743,40.5990,1382.36,82.40,19.40,9.58,320.00,7.00,0.00,30.17,M,10.00,M,CLR,M,M,M,M,M,M,M,M,M,M,M,M,M,M,79.45,KBAM 210555Z AUTO 32007KT 10SM CLR 28/M07 A3017 RMK AO1,M
TMT,2023-07-21 05:55,-117.1971,39.4643,1749.34,62.00,42.00,47.82,230.00,6.00,0.00,30.28,M,10.00,M,CLR,M,M,M,M,M,M,M,M,M,M,M,M,M,M,62.00,KTMT 210555Z AUTO 23006KT 10SM CLR 17/06 A3028 RMK AO2 T01660055 10336 20165,M
10U,2023-07-21 05:55,-116.1876,41.9532,1637.00,62.60,33.80,33.93,160.00,7.00,0.00,30.23,M,10.00,M,CLR,M,M,M,M,M,M,M,M,M,M,M,M,M,M,62.60,K10U 210555Z AUTO 16007KT 10SM CLR 17/01 A3023 RMK AO2,M
EKO,2023-07-21 05:56,-115.7860,40.8242,1367.00,72.00,42.00,33.84,90.00,4.00,0.00,30.19,1015.70,10.00,M,CLR,M,M,M,M,M,M,M,M,M,M,M,M,M,M,72.00,KEKO 210556Z AUTO 09004KT 10SM CLR 22/06 A3019 RMK AO2 SLP157 T02220056 10356 20211 51010,M
WMC,2023-07-21 05:56,-117.8072,40.9019,1315.00,M,M,M,M,M,0.00,30.14,M,M,M,M,M,M,M,M,M,M,M,M,M,M,M,M,M,M,M,KWMC 210556Z AUTO A3014 RMK AO2 SLPNO 51009 PWINO FZRANO $,M
NFL,2023-07-21 05:56,-118.7010,39.4166,1199.00,77.00,35.00,21.76,360.00,3.00,0.00,30.12,1016.60,10.00,M,CLR,M,M,M,M,M,M,M,M,M,M,M,M,M,M,77.00,KNFL 210556Z 36003KT 10SM CLR 25/02 A3012 RMK AO2 SLP166 T02500017 10372 20244 52016,M
HND,2023-07-21 05:56,-115.1344,35.9729,742.79,97.00,42.00,15.14,160.00,7.00,0.00,29.93,1011.10,10.00,M,CLR,M,M,M,M,M,M,M,M,M,M,M,M,M,M,92.68,KHND 210556Z AUTO 16007KT 10SM CLR 36/06 A2993 RMK AO2 SLP111 T03610056 10444 20361 51009,M
TPH,2023-07-21 05:56,-117.0904,38.0505,1654.00,79.00,39.00,23.85,360.00,9.00,0.00,30.21,1013.60,10.00,M,FEW,M,M,M,12000.00,M,M,M,M,M,M,M,M,M,M,79.00,KTPH 210556Z AUTO 36009KT 10SM FEW120 26/04 A3021 RMK AO2 SLP136 T02610039 10356 20256 51006 $,M
LAS,2023-07-21 05:56,-115.1634,36.0719,663.00,100.00,39.00,12.30,200.00,3.00,0.00,29.88,1008.10,10.00,M,CLR,M,M,M,M,M,M,M,M,M,M,M,M,M,M,95.05,KLAS 210556Z 20003KT 10SM CLR 38/04 A2988 RMK AO2 SLP081 T03780039 10444 20378 53009,M
BVU,2023-07-21 06:15,-114.8611,35.9475,671.00,93.20,44.60,18.80,0.00,0.00,0.00,29.87,M,10.00,M,CLR,M,M,M,M,M,M,M,M,M,M,M,M,M,M,89.34,KBVU 210615Z AUTO 00000KT 10SM CLR 34/07 A2987 RMK AO2,M
CXP,2023-07-21 06:15,-119.7326,39.1923,1431.00,73.40,37.40,26.98,320.00,4.00,0.00,30.23,M,10.00,M,CLR,M,M,M,M,M,M,M,M,M,M,M,M,M,M,73.40,KCXP 210615Z AUTO 32004KT 10SM CLR 23/03 A3023 RMK AO2,M
RTS,2023-07-21 06:15,-119.8764,39.6682,1539.00,71.60,37.40,28.68,290.00,7.00,0.00,30.26,M,10.00,M,CLR,M,M,M,M,M,M,M,M,M,M,M,M,M,M,71.60,KRTS 210615Z AUTO 29007KT 10SM CLR 22/03 A3026 RMK AO2,M
05U,2023-07-21 06:15,-116.0051,39.6042,1811.23,69.80,44.60,40.29,M,M,0.00,30.28,M,10.00,M,M,M,M,M,M,M,M,M,M,M,M,M,M,M,M,69.80,K05U 210615Z AUTO 10SM 21/07 A3028 RMK A01,M
MEV,2023-07-21 06:15,-119.7500,38.9963,1441.42,64.40,41.00,42.28,150.00,8.00,0.00,30.22,M,10.00,M,FEW,M,M,M,4700.00,M,M,M,M,M,M,M,M,M,M,64.40,KMEV 210615Z AUTO 15008KT 10SM FEW047 18/05 A3022 RMK AO2,M
HTH,2023-07-21 06:15,-118.6315,38.5448,1282.89,80.60,48.20,32.18,350.00,5.00,0.00,30.16,M,10.00,M,CLR,M,M,M,M,M,M,M,M,M,M,M,M,M,M,79.71,KHTH 210615Z AUTO 35005KT 10SM CLR 27/09 A3016 RMK A01,M
10U,2023-07-21 06:15,-116.1876,41.9532,1637.00,62.60,32.00,31.56,160.00,4.00,0.00,30.23,M,10.00,M,CLR,M,M,M,M,M,M,M,M,M,M,M,M,M,M,62.60,K10U 210615Z AUTO 16004KT 10SM CLR 17/M00 A3023 RMK AO2,M
BAM,2023-07-21 06:15,-116.8743,40.5990,1382.36,73.40,23.00,15.03,80.00,3.00,0.00,30.17,M,10.00,M,CLR,M,M,M,M,M,M,M,M,M,M,M,M,M,M,73.40,KBAM 210615Z AUTO 08003KT 10SM CLR 23/M05 A3017 RMK AO1,M
TMT,2023-07-21 06:15,-117.1971,39.4643,1749.34,66.70,44.00,43.81,240.00,7.00,0.00,30.28,M,10.00,M,CLR,M,M,M,M,M,M,M,M,M,M,M,M,M,M,66.70,KTMT 210615Z AUTO 24007KT 10SM CLR 19/07 A3028 RMK AO2 T01930066,M
BVU,2023-07-21 06:35,-114.8611,35.9475,671.00,91.40,44.60,19.89,350.00,6.00,0.00,29.87,M,10.00,M,CLR,M,M,M,M,M,M,M,M,M,M,M,M,M,M,87.68,KBVU 210635Z AUTO 35006KT 10SM CLR 33/07 A2987 RMK AO2,M
CXP,2023-07-21 06:35,-119.7326,39.1923,1431.00,69.80,37.40,30.49,0.00,0.00,0.00,30.24,M,10.00,M,CLR,M,M,M,M,M,M,M,M,M,M,M,M,M,M,69.80,KCXP 210635Z AUTO 00000KT 10SM CLR 21/03 A3024 RMK AO2,M
RTS,2023-07-21 06:35,-119.8764,39.6682,1539.00,64.40,35.60,34.22,340.00,4.00,0.00,30.27,M,10.00,M,CLR,M,M,M,M,M,M,M,M,M,M,M,M,M,M,64.40,KRTS 210635Z AUTO 34004KT 10SM CLR 18/02 A3027 RMK AO2,M
05U,2023-07-21 06:35,-116.0051,39.6042,1811.23,69.80,44.60,40.29,M,M,0.00,30.29,M,10.00,M,M,M,M,M,M,M,M,M,M,M,M,M,M,M,M,69.80,K05U 210635Z AUTO 10SM 21/07 A3029 RMK A01,M
MEV,2023-07-21 06:35,-119.7500,38.9963,1441.42,64.40,41.00,42.28,150.00,3.00,0.00,30.22,M,10.00,M,CLR,M,M,M,M,M,M,M,M,M,M,M,M,M,M,64.40,KMEV 210635Z AUTO 15003KT 10SM CLR 18/05 A3022 RMK AO2,M
HTH,2023-07-21 06:35,-118.6315,38.5448,1282.89,80.60,37.40,21.25,350.00,9.00,0.00,30.16,M,10.00,M,CLR,M,M,M,M,M,M,M,M,M,M,M,M,M,M,79.02,KHTH 210635Z AUTO 35009KT 10SM CLR 27/03 A3016 RMK A01,M
TMT,2023-07-21 06:35,-117.1971,39.4643,1749.34,65.30,44.00,45.99,240.00,4.00,0.00,30.28,M,10.00,M,CLR,M,M,M,M,M,M,M,M,M,M,M,M,M,M,65.30,KTMT 210635Z AUTO 24004KT 10SM CLR 19/07 A3028 RMK AO2 T01850066,M
10U,2023-07-21 06:35,-116.1876,41.9532,1637.00,64.40,30.20,27.55,140.00,8.00,0.00,30.23,M,10.00,M,CLR,M,M,M,M,M,M,M,M,M,M,M,M,M,M,64.40,K10U 210635Z AUTO 14008KT 10SM CLR 18/M01 A3023 RMK AO2,M
BAM,2023-07-21 06:35,-116.8743,40.5990,1382.36,75.20,21.20,13.11,230.00,4.00,0.00,30.17,M,10.00,M,CLR,M,M,M,M,M,M,M,M,M,M,M,M,M,M,75.20,KBAM 210635Z AUTO 23004KT 10SM CLR 24/M06 A3017 RMK AO1,M
P68,2023-07-21 06:53,-116.0056,39.6014,1993.00,72.00,45.00,37.96,200.00,6.00,0.00,30.27,1015.30,M,M,M,M,M,M,M,M,M,M,M,M,M,M,M,M,M,72.00,KP68 210653Z AUTO 20006KT 22/07 A3027 RMK AO1 SLP153 T02220072,M
DRA,2023-07-21 06:53,-116.0278,36.6206,1009.00,86.00,34.00,15.60,90.00,3.00,0.00,29.99,1009.20,10.00,M,CLR,M,M,M,M,M,M,M,M,M,M,M,M,M,M,82.66,KDRA 210653Z AUTO 09003KT 10SM CLR 30/01 A2999 RMK AO2 SLP092 T03000011,M
ELY,2023-07-21 06:53,-114.8453,39.2950,1909.00,68.00,48.00,48.73,170.00,10.00,0.00,30.31,1015.00,10.00,M,CLR,M,M,M,M,M,M,M,M,M,M,M,M,M,M,68.00,KELY 210653Z AUTO 17010KT 10SM CLR 20/09 A3031 RMK AO2 SLP150 T02000089,M
VGT,2023-07-21 06:53,-115.1933,36.2111,667.00,100.00,41.00,13.30,0.00,0.00,0.00,29.87,1009.50,10.00,M,CLR,M,M,M,M,M,M,M,M,M,M,M,M,M,M,95.42,KVGT 210653Z AUTO 00000KT 10SM CLR 38/05 A2987 RMK AO2 SLP095 T03780050,M
LOL,2023-07-21 06:53,-118.5701,40.0684,1192.43,71.00,28.00,20.06,40.00,3.00,0.00,30.12,1015.20,10.00,M,CLR,M,M,M,M,M,M,M,M,M,M,M,M,M,M,71.00,KLOL 210653Z AUTO 04003KT 10SM CLR 22/M02 A3012 RMK AO2 SLP152 T02171022,M
BVU,2023-07-21 06:55,-114.8611,35.9475,671.00,91.40,42.80,18.56,350.00,4.00,0.00,29.87,M,10.00,M,CLR,M,M,M,M,M,M,M,M,M,M,M,M,M,M,87.52,KBVU 210655Z AUTO 35004KT 10SM CLR 33/06 A2987 RMK AO2,M
CXP,2023-07-21 06:55,-119.7326,39.1923,1431.00,68.00,39.20,34.80,0.00,0.00,0.00,30.24,M,10.00,M,CLR,M,M,M,M,M,M,M,M,M,M,M,M,M,M,68.00,KCXP 210655Z AUTO 00000KT 10SM CLR 20/04 A3024 RMK AO2,M
INS,2023-07-21 06:55,-115.6733,36.5872,955.00,89.00,32.00,13.09,0.00,0.00,0.00,29.97,1009.00,10.00,M,CLR,M,M,M,M,M,M,M,M,M,M,M,M,M,M,85.07,KINS 210655Z AUTO 00000KT 10SM CLR 32/M00 A2997 RMK AO2 SLP090 T03171001 $,M
RNO,2023-07-21 06:55,-119.7711,39.4839,1341.00,79.00,39.00,23.85,320.00,4.00,0.00,30.21,1016.00,10.00,M,CLR,M,M,M,M,M,M,M,M,M,M,M,M,M,M,79.00,KRNO 210655Z 32004KT 10SM CLR 26/04 A3021 RMK AO2 SLP160 T02610039,M
LSV,2023-07-21 06:55,-115.0343,36.2362,570.00,M,M,M,M,M,0.00,M,M,M,M,M,M,M,M,M,M,M,M,M,M,M,M,M,M,M,M,KLSV 210655Z AUTO M M M M M M RMK AO2 SLPNO RVRNO PWINO $,M
RTS,2023-07-21 06:55,-119.8764,39.6682,1539.00,62.60,32.00,31.56,350.00,7.00,0.00,30.27,M,10.00,M,CLR,M,M,M,M,M,M,M,M,M,M,M,M,M,M,62.60,KRTS 210655Z AUTO 35007KT 10SM CLR 17/00 A3027 RMK AO2,M
05U,2023-07-21 06:55,-116.0051,39.6042,1811.23,71.60,44.60,37.89,M,M,0.00,30.29,M,10.00,M,M,M,M,M,M,M,M,M,M,M,M,M,M,M,M,71.60,K05U 210655Z AUTO 10SM 22/07 A3029 RMK A01,M
MEV,2023-07-21 06:55,-119.7500,38.9963,1441.42,59.00,41.00,51.18,100.00,8.00,0.00,30.22,M,10.00,M,CLR,M,M,M,M,M,M,M,M,M,M,M,M,M,M,59.00,KMEV 210655Z AUTO 10008KT 10SM CLR 15/05 A3022 RMK AO2,M
HTH,2023-07-21 06:55,-118.6315,38.5448,1282.89,80.60,39.20,22.81,300.00,7.00,0.00,30.17,M,10.00,M,CLR,M,M,M,M,M,M,M,M,M,M,M,M,M,M,79.10,KHTH 210655Z AUTO 30007KT 10SM CLR 27/04 A3017 RMK A01,M
TMT,2023-07-21 06:55,-117.1971,39.4643,1749.34,60.00,42.30,51.93,200.00,3.00,0.00,30.29,M,10.00,M,CLR,M,M,M,M,M,M,M,M,M,M,M,M,M,M,60.00,KTMT 210655Z AUTO 20003KT 10SM CLR 16/06 A3029 RMK AO2 T01560057,M
BAM,2023-07-21 06:55,-116.8743,40.5990,1382.36,69.80,23.00,16.98,190.00,4.00,0.00,30.18,M,10.00,M,CLR,M,M,M,M,M,M,M,M,M,M,M,M,M,M,69.80,KBAM 210655Z AUTO 19004KT 10SM CLR 21/M05 A3018 RMK AO1,M
10U,2023-07-21 06:55,-116.1876,41.9532,1637.00,60.80,28.40,29.06,0.00,0.00,0.00,30.24,M,10.00,M,CLR,M,M,M,M,M,M,M,M,M,M,M,M,M,M,60.80,K10U 210655Z AUTO 00000KT 10SM CLR 16/M02 A3024 RMK AO2,M
EKO,2023-07-21 06:56,-115.7860,40.8242,1367.00,65.00,46.00,50.14,200.00,3.00,0.00,30.20,1016.40,10.00,M,CLR,M,M,M,M,M,M,M,M,M,M,M,M,M,M,65.00,KEKO 210656Z AUTO 20003KT 10SM CLR 18/08 A3020 RMK AO2 SLP164 T01830078,M
WMC,2023-07-21 06:56,-117.8072,40.9019,1315.00,M,M,M,M,M,0.00,30.15,M,M,M,M,M,M,M,M,M,M,M,M,M,M,M,M,M,M,M,KWMC 210656Z AUTO A3015 RMK AO2 SLPNO PWINO FZRANO $,M
NFL,2023-07-21 06:56,-118.7010,39.4166,1199.00,74.00,35.00,24.05,350.00,4.00,0.00,30.13,1016.70,10.00,M,CLR,M,M,M,M,M,M,M,M,M,M,M,M,M,M,74.00,KNFL 210656Z 35004KT 10SM CLR 23/02 A3013 RMK AO2 SLP167 T02330017,M
HND,2023-07-21 06:56,-115.1344,35.9729,742.79,95.00,41.00,15.49,190.00,6.00,0.00,29.93,1011.30,10.00,M,CLR,M,M,M,M,M,M,M,M,M,M,M,M,M,M,90.70,KHND 210656Z AUTO 19006KT 10SM CLR 35/05 A2993 RMK AO2 SLP113 T03500050 404440294,M
TPH,2023-07-21 06:56,-117.0904,38.0505,1654.00,75.00,34.00,22.35,360.00,9.00,0.00,30.21,1013.50,10.00,M,CLR,M,M,M,M,M,M,M,M,M,M,M,M,M,M,75.00,KTPH 210656Z AUTO 36009KT 10SM CLR 24/01 A3021 RMK AO2 SLP135 T02390011 $,M
LAS,2023-07-21 06:56,-115.1634,36.0719,663.00,99.00,40.00,13.18,200.00,5.00,0.00,29.87,1008.00,10.00,M,CLR,M,M,M,M,M,M,M,M,M,M,M,M,M,M,94.36,KLAS 210656Z 20005KT 10SM CLR 37/04 A2987 RMK AO2 SLP080 T03720044,M
LSV,2023-07-21 06:56,-115.0343,36.2362,570.00,96.80,42.80,15.71,0.00,0.00,0.00,29.86,1004.60,10.00,M,CLR,M,M,M,M,M,M,M,M,M,M,M,M,M,M,92.57,KLSV 210656Z 00000KT 10SM CLR 36/06 A2986 RMK A02A SLP046 WND DATA ESTMD RVRNO PWINO $,M
BVU,2023-07-21 07:15,-114.8611,35.9475,671.00,93.20,39.20,15.27,310.00,7.00,0.00,29.87,M,10.00,M,CLR,M,M,M,M,M,M,M,M,M,M,M,M,M,M,88.92,KBVU 210715Z AUTO 31007KT 10SM CLR 34/04 A2987 RMK AO2,M
CXP,2023-07-21 07:15,-119.7326,39.1923,1431.00,66.20,39.20,37.03,0.00,0.00,0.00,30.24,M,10.00,M,CLR,M,M,M,M,M,M,M,M,M,M,M,M,M,M,66.20,KCXP 210715Z AUTO 00000KT 10SM CLR 19/04 A3024 RMK AO2,M
RTS,2023-07-21 07:15,-119.8764,39.6682,1539.00,64.40,32.00,29.63,350.00,6.00,0.00,30.27,M,10.00,M,CLR,M,M,M,M,M,M,M,M,M,M,M,M,M,M,64.40,KRTS 210715Z AUTO 35006KT 10SM CLR 18/00 A3027 RMK AO2,M
05U,2023-07-21 07:15,-116.0051,39.6042,1811.23,66.20,42.80,42.57,M,M,0.00,30.30,M,10.00,M,M,M,M,M,M,M,M,M,M,M,M,M,M,M,M,66.20,K05U 210715Z AUTO 10SM 19/06 A3030 RMK A01,M
MEV,2023-07-21 07:15,-119.7500,38.9963,1441.42,62.60,37.40,39.14,120.00,7.00,0.00,30.23,M,10.00,M,CLR,M,M,M,M,M,M,M,M,M,M,M,M,M,M,62.60,KMEV 210715Z AUTO 12007KT 10SM CLR 17/03 A3023 RMK AO2,M
HTH,2023-07-21 07:15,-118.6315,38.5448,1282.89,80.60,42.80,26.22,240.00,5.00,0.00,30.17,M,10.00,10.00,CLR,M,M,M,M,M,M,M,M,M,M,M,M,M,M,79.30,KHTH 210715Z AUTO 24005G10KT 10SM CLR 27/06 A3017 RMK A01,M
TMT,2023-07-21 07:15,-117.1971,39.4643,1749.34,60.80,42.80,51.45,240.00,5.00,0.00,30.29,M,10.00,M,CLR,M,M,M,M,M,M,M,M,M,M,M,M,M,M,60.80,KTMT 210715Z AUTO 24005KT 10SM CLR 16/06 A3029 RMK AO2 T01600060,M
10U,2023-07-21 07:15,-116.1876,41.9532,1637.00,62.60,28.40,27.27,180.00,3.00,0.00,30.23,M,10.00,M,CLR,M,M,M,M,M,M,M,M,M,M,M,M,M,M,62.60,K10U 210715Z AUTO 18003KT 10SM CLR 17/M02 A3023 RMK AO2,M
BAM,2023-07-21 07:15,-116.8743,40.5990,1382.36,64.40,24.80,22.06,140.00,6.00,0.00,30.18,M,10.00,M,CLR,M,M,M,M,M,M,M,M,M,M,M,M,M,M,64.40,KBAM 210715Z AUTO 14006KT 10SM CLR 18/M04 A3018 RMK AO1,M
BVU,2023-07-21 07:35,-114.8611,35.9475,671.00,96.80,35.60,11.86,M,6.00,0.00,29.87,M,10.00,M,CLR,M,M,M,M,M,M,M,M,M,M,M,M,M,M,91.72,KBVU 210735Z AUTO VRB06KT 10SM CLR 36/02 A2987 RMK AO2,M
CXP,2023-07-21 07:35,-119.7326,39.1923,1431.00,68.00,37.40,32.43,0.00,0.00,0.00,30.24,M,10.00,M,CLR,M,M,M,M,M,M,M,M,M,M,M,M,M,M,68.00,KCXP 210735Z AUTO 00000KT 10SM CLR 20/03 A3024 RMK AO2,M
RTS,2023-07-21 07:35,-119.8764,39.6682,1539.00,64.40,35.60,34.22,320.00,7.00,0.00,30.27,M,10.00,M,CLR,M,M,M,M,M,M,M,M,M,M,M,M,M,M,64.40,KRTS 210735Z AUTO 32007KT 10SM CLR 18/02 A3027 RMK AO2,M
05U,2023-07-21 07:35,-116.0051,39.6042,1811.23,64.40,42.80,45.32,M,M,0.00,30.30,M,10.00,M,M,M,M,M,M,M,M,M,M,M,M,M,M,M,M,64.40,K05U 210735Z AUTO 10SM 18/06 A3030 RMK A01,M
MEV,2023-07-21 07:35,-119.7500,38.9963,1441.42,60.80,41.00,48.00,190.00,4.00,0.00,30.23,M,10.00,M,CLR,M,M,M,M,M,M,M,M,M,M,M,M,M,M,60.80,KMEV 210735Z AUTO 19004KT 10SM CLR 16/05 A3023 RMK AO2,M
HTH,2023-07-21 07:35,-118.6315,38.5448,1282.89,77.00,48.20,36.22,230.00,6.00,0.00,30.17,M,10.00,M,CLR,M,M,M,M,M,M,M,M,M,M,M,M,M,M,77.00,KHTH 210735Z AUTO 23006KT 10SM CLR 25/09 A3017 RMK A01,M
TMT,2023-07-21 07:35,-117.1971,39.4643,1749.34,57.60,42.40,56.80,220.00,5.00,0.00,30.29,M,10.00,M,CLR,M,M,M,M,M,M,M,M,M,M,M,M,M,M,57.60,KTMT 210735Z AUTO 22005KT 10SM CLR 14/06 A3029 RMK AO2 T01420058,M
10U,2023-07-21 07:35,-116.1876,41.9532,1637.00,59.00,30.20,33.35,140.00,4.00,0.00,30.24,M,10.00,M,CLR,M,M,M,M,M,M,M,M,M,M,M,M,M,M,59.00,K10U 210735Z AUTO 14004KT 10SM CLR 15/M01 A3024 RMK AO2,M
BAM,2023-07-21 07:35,-116.8743,40.5990,1382.36,64.40,23.00,20.46,140.00,5.00,0.00,30.18,M,10.00,M,CLR,M,M,M,M,M,M,M,M,M,M,M,M,M,M,64.40,KBAM 210735Z AUTO 14005KT 10SM CLR 18/M05 A3018 RMK AO1,M
05U,2023-07-21 07:50,-116.0051,39.6042,1811.23,62.60,42.80,48.28,M,M,0.00,30.30,M,10.00,M,M,M,M,M,M,M,M,M,M,M,M,M,M,M,M,62.60,K05U 210750Z AUTO 10SM 17/06 A3030 RMK A01,M
P68,2023-07-21 07:53,-116.0056,39.6014,1993.00,63.00,43.00,47.97,190.00,6.00,0.00,30.27,1015.80,M,M,M,M,M,M,M,M,M,M,M,M,M,M,M,M,M,63.00,KP68 210753Z AUTO 19006KT 17/06 A3027 RMK AO1 SLP158 T01720061 403330106,M
DRA,2023-07-21 07:53,-116.0278,36.6206,1009.00,84.00,35.00,17.31,60.00,6.00,0.00,29.99,1009.40,10.00,M,CLR,M,M,M,M,M,M,M,M,M,M,M,M,M,M,81.18,KDRA 210753Z AUTO 06006KT 10SM CLR 29/02 A2999 RMK AO2 SLP094 T02890017 404220272,M
ELY,2023-07-21 07:53,-114.8453,39.2950,1909.00,66.00,45.00,46.62,200.00,8.00,0.00,30.31,1014.80,10.00,M,CLR,M,M,M,M,M,M,M,M,M,M,M,M,M,M,66.00,KELY 210753Z AUTO 20008KT 10SM CLR 19/07 A3031 RMK AO2 SLP148 T01890072 403280100,M
VGT,2023-07-21 07:53,-115.1933,36.2111,667.00,99.00,42.00,14.24,280.00,7.00,0.00,29.87,1009.50,10.00,M,CLR,M,M,M,M,M,M,M,M,M,M,M,M,M,M,94.59,KVGT 210753Z AUTO 28007KT 10SM CLR 37/06 A2987 RMK AO2 SLP095 T03720056 404500328,M
LOL,2023-07-21 07:53,-118.5701,40.0684,1192.43,66.00,27.00,22.86,130.00,3.00,0.00,30.12,1015.40,10.00,M,CLR,M,M,M,M,M,M,M,M,M,M,M,M,M,M,66.00,KLOL 210753Z AUTO 13003KT 10SM CLR 19/M03 A3012 RMK AO2 SLP154 T01891028 403720139,M
BVU,2023-07-21 07:55,-114.8611,35.9475,671.00,96.80,35.60,11.86,0.00,0.00,0.00,29.87,M,10.00,M,CLR,M,M,M,M,M,M,M,M,M,M,M,M,M,M,91.72,KBVU 210755Z AUTO 00000KT 10SM CLR 36/02 A2987 RMK AO2,M
CXP,2023-07-21 07:55,-119.7326,39.1923,1431.00,68.00,35.60,30.20,280.00,3.00,0.00,30.24,M,10.00,M,CLR,M,M,M,M,M,M,M,M,M,M,M,M,M,M,68.00,KCXP 210755Z AUTO 28003KT 10SM CLR 20/02 A3024 RMK AO2,M
INS,2023-07-21 07:55,-115.6733,36.5872,955.00,86.00,34.50,15.91,140.00,5.00,0.00,29.98,1009.30,10.00,M,CLR,M,M,M,M,M,M,M,M,M,M,M,M,M,M,82.67,KINS 210755Z AUTO 14005KT 10SM CLR 30/01 A2998 RMK AO2 SLP093 T03000014 404170257 $,M
RNO,2023-07-21 07:55,-119.7711,39.4839,1341.00,76.00,40.00,27.38,0.00,0.00,0.00,30.21,1016.50,10.00,M,CLR,M,M,M,M,M,M,M,M,M,M,M,M,M,M,76.00,KRNO 210755Z 00000KT 10SM CLR 24/04 A3021 RMK AO2 SLP165 T02440044 403780183,M
LSV,2023-07-21 07:55,-115.0343,36.2362,570.00,95.00,41.00,15.49,0.00,0.00,0.00,29.83,1004.90,10.00,M,CLR,M,M,M,M,M,M,M,M,M,M,M,M,M,M,90.70,KLSV 210755Z 00000KT 10SM CLR 35/05 A2983 RMK A02A SLP049 WND DATA ESTMD ALSTG ESTMD 404600315 RVRNO PWINO $,M
RTS,2023-07-21 07:55,-119.8764,39.6682,1539.00,62.60,33.80,33.93,340.00,6.00,0.00,30.27,M,10.00,M,CLR,M,M,M,M,M,M,M,M,M,M,M,M,M,M,62.60,KRTS 210755Z AUTO 34006KT 10SM CLR 17/01 A3027 RMK AO2,M
MEV,2023-07-21 07:55,-119.7500,38.9963,1441.42,60.80,41.00,48.00,70.00,3.00,0.00,30.23,M,10.00,M,FEW,M,M,M,3300.00,M,M,M,M,M,M,M,M,M,M,60.80,KMEV 210755Z AUTO 07003KT 10SM FEW033 16/05 A3023 RMK AO2,M
HTH,2023-07-21 07:55,-118.6315,38.5448,1282.89,75.20,48.20,38.46,230.00,6.00,0.00,30.17,M,10.00,M,CLR,M,M,M,M,M,M,M,M,M,M,M,M,M,M,75.20,KHTH 210755Z AUTO 23006KT 10SM CLR 24/09 A3017 RMK A01,M
TMT,2023-07-21 07:55,-117.1971,39.4643,1749.34,57.40,43.00,58.55,210.00,5.00,0.00,30.29,M,10.00,M,CLR,M,M,M,M,M,M,M,M,M,M,M,M,M,M,57.40,KTMT 210755Z AUTO 21005KT 10SM CLR 14/06 A3029 RMK AO2 T01410061 403360080,M
BAM,2023-07-21 07:55,-116.8743,40.5990,1382.36,62.60,23.00,21.79,0.00,0.00,0.00,30.18,M,10.00,M,CLR,M,M,M,M,M,M,M,M,M,M,M,M,M,M,62.60,KBAM 210755Z AUTO 00000KT 10SM CLR 17/M05 A3018 RMK AO1,M
10U,2023-07-21 07:55,-116.1876,41.9532,1637.00,59.00,30.20,33.35,140.00,4.00,0.00,30.23,M,10.00,M,CLR,M,M,M,M,M,M,M,M,M,M,M,M,M,M,59.00,K10U 210755Z AUTO 14004KT 10SM CLR 15/M01 A3023 RMK AO2,M
EKO,2023-07-21 07:56,-115.7860,40.8242,1367.00,66.00,43.00,43.20,0.00,0.00,0.00,30.21,1016.40,10.00,M,CLR,M,M,M,M,M,M,M,M,M,M,M,M,M,M,66.00,KEKO 210756Z AUTO 00000KT 10SM CLR 19/06 A3021 RMK AO2 SLP164 T01890061 403560122,M
WMC,2023-07-21 07:56,-117.8072,40.9019,1315.00,M,M,M,M,M,0.00,30.15,M,M,M,M,M,M,M,M,M,M,M,M,M,M,M,M,M,M,M,KWMC 210756Z AUTO A3015 RMK AO2 SLPNO PWINO FZRANO $,M
NFL,2023-07-21 07:56,-118.7010,39.4166,1199.00,72.00,36.00,26.77,0.00,0.00,0.00,30.13,1017.00,10.00,M,CLR,M,M,M,M,M,M,M,M,M,M,M,M,M,M,72.00,KNFL 210756Z AUTO 00000KT 10SM CLR 22/02 A3013 RMK AO2 SLP170 T02220022 403720167,M
HND,2023-07-21 07:56,-115.1344,35.9729,742.79,95.00,39.00,14.33,210.00,8.00,0.00,29.93,1011.20,10.00,M,CLR,M,M,M,M,M,M,M,M,M,M,M,M,M,M,90.55,KHND 210756Z AUTO 21008KT 10SM CLR 35/04 A2993 RMK AO2 SLP112 T03500039,M
TPH,2023-07-21 07:56,-117.0904,38.0505,1654.00,73.00,35.00,24.87,330.00,11.00,0.00,30.23,1014.00,10.00,M,CLR,M,M,M,M,M,M,M,M,M,M,M,M,M,M,73.00,KTPH 210756Z AUTO 33011KT 10SM CLR 23/02 A3023 RMK AO2 SLP140 T02280017 403610150 $,M
LAS,2023-07-21 07:56,-115.1634,36.0719,663.00,97.00,40.00,14.01,200.00,4.00,0.00,29.88,1008.20,10.00,M,CLR,M,M,M,M,M,M,M,M,M,M,M,M,M,M,92.49,KLAS 210756Z 20004KT 10SM CLR 36/04 A2988 RMK AO2 SLP082 T03610044 404440328,M
BVU,2023-07-21 08:15,-114.8611,35.9475,671.00,91.40,42.80,18.56,0.00,0.00,0.00,29.87,M,10.00,M,CLR,M,M,M,M,M,M,M,M,M,M,M,M,M,M,87.52,KBVU 210815Z AUTO 00000KT 10SM CLR 33/06 A2987 RMK AO2,M
CXP,2023-07-21 08:15,-119.7326,39.1923,1431.00,66.20,37.40,34.51,0.00,0.00,0.00,30.24,M,10.00,M,CLR,M,M,M,M,M,M,M,M,M,M,M,M,M,M,66.20,KCXP 210815Z AUTO 00000KT 10SM CLR 19/03 A3024 RMK AO2,M
RTS,2023-07-21 08:15,-119.8764,39.6682,1539.00,60.80,33.80,36.16,340.00,7.00,0.00,30.27,M,10.00,M,CLR,M,M,M,M,M,M,M,M,M,M,M,M,M,M,60.80,KRTS 210815Z AUTO 34007KT 10SM CLR 16/01 A3027 RMK AO2,M
05U,2023-07-21 08:15,-116.0051,39.6042,1811.23,60.80,42.80,51.45,M,M,0.00,30.30,M,10.00,M,M,M,M,M,M,M,M,M,M,M,M,M,M,M,M,60.80,K05U 210815Z AUTO 10SM 16/06 A3030 RMK A01,M
MEV,2023-07-21 08:15,-119.7500,38.9963,1441.42,57.20,39.20,50.91,70.00,4.00,0.00,30.23,M,10.00,M,CLR,M,M,M,M,M,M,M,M,M,M,M,M,M,M,57.20,KMEV 210815Z AUTO 07004KT 10SM CLR 14/04 A3023 RMK AO2,M
HTH,2023-07-21 08:15,-118.6315,38.5448,1282.89,75.20,44.60,33.57,240.00,6.00,0.00,30.17,M,10.00,M,CLR,M,M,M,M,M,M,M,M,M,M,M,M,M,M,75.20,KHTH 210815Z AUTO 24006KT 10SM CLR 24/07 A3017 RMK A01,M
TMT,2023-07-21 08:15,-117.1971,39.4643,1749.34,58.00,44.20,59.99,0.00,0.00,0.00,30.29,M,10.00,M,CLR,M,M,M,M,M,M,M,M,M,M,M,M,M,M,58.00,KTMT 210815Z AUTO 00000KT 10SM CLR 15/07 A3029 RMK AO2 T01450068,M
10U,2023-07-21 08:15,-116.1876,41.9532,1637.00,60.80,32.00,33.64,120.00,7.00,0.00,30.24,M,10.00,M,CLR,M,M,M,M,M,M,M,M,M,M,M,M,M,M,60.80,K10U 210815Z AUTO 12007KT 10SM CLR 16/M00 A3024 RMK AO2,M
BAM,2023-07-21 08:15,-116.8743,40.5990,1382.36,64.40,23.00,20.46,180.00,3.00,0.00,30.18,M,10.00,M,CLR,M,M,M,M,M,M,M,M,M,M,M,M,M,M,64.40,KBAM 210815Z AUTO 18003KT 10SM CLR 18/M05 A3018 RMK AO1,M
BVU,2023-07-21 08:35,-114.8611,35.9475,671.00,91.40,41.00,17.32,0.00,0.00,0.00,29.88,M,10.00,M,CLR,M,M,M,M,M,M,M,M,M,M,M,M,M,M,87.40,KBVU 210835Z AUTO 00000KT 10SM CLR 33/05 A2988 RMK AO2,M
CXP,2023-07-21 08:35,-119.7326,39.1923,1431.00,62.60,42.80,48.28,0.00,0.00,0.00,30.25,M,10.00,M,CLR,M,M,M,M,M,M,M,M,M,M,M,M,M,M,62.60,KCXP 210835Z AUTO 00000KT 10SM CLR 17/06 A3025 RMK AO2,M
RTS,2023-07-21 08:35,-119.8764,39.6682,1539.00,62.60,35.60,36.45,340.00,7.00,0.00,30.27,M,10.00,M,CLR,M,M,M,M,M,M,M,M,M,M,M,M,M,M,62.60,KRTS 210835Z AUTO 34007KT 10SM CLR 17/02 A3027 RMK AO2,M
05U,2023-07-21 08:35,-116.0051,39.6042,1811.23,59.00,42.80,54.86,M,M,0.00,30.30,M,10.00,M,M,M,M,M,M,M,M,M,M,M,M,M,M,M,M,59.00,K05U 210835Z AUTO 10SM 15/06 A3030 RMK A01,M
MEV,2023-07-21 08:35,-119.7500,38.9963,1441.42,55.40,42.80,62.46,80.00,3.00,0.00,30.23,M,10.00,M,FEW,M,M,M,3400.00,M,M,M,M,M,M,M,M,M,M,55.40,KMEV 210835Z AUTO 08003KT 10SM FEW034 13/06 A3023 RMK AO2,M
HTH,2023-07-21 08:35,-118.6315,38.5448,1282.89,73.40,44.60,35.66,230.00,5.00,0.00,30.17,M,10.00,M,CLR,M,M,M,M,M,M,M,M,M,M,M,M,M,M,73.40,KHTH 210835Z AUTO 23005KT 10SM CLR 23/07 A3017 RMK A01,M
TMT,2023-07-21 08:35,-117.1971,39.4643,1749.34,53.60,41.00,62.23,0.00,0.00,0.00,30.30,M,10.00,M,CLR,M,M,M,M,M,M,M,M,M,M,M,M,M,M,53.60,KTMT 210835Z AUTO 00000KT 10SM CLR 12/05 A3030 RMK AO2 T01200050,M
10U,2023-07-21 08:35,-116.1876,41.9532,1637.00,59.00,33.80,38.56,130.00,7.00,0.00,30.23,M,10.00,M,CLR,M,M,M,M,M,M,M,M,M,M,M,M,M,M,59.00,K10U 210835Z AUTO 13007KT 10SM CLR 15/01 A3023 RMK AO2,M
BAM,2023-07-21 08:35,-116.8743,40.5990,1382.36,64.40,23.00,20.46,190.00,4.00,0.00,30.18,M,10.00,M,CLR,M,M,M,M,M,M,M,M,M,M,M,M,M,M,64.40,KBAM 210835Z AUTO 19004KT 10SM CLR 18/M05 A3018 RMK AO1,M
P68,2023-07-21 08:53,-116.0056,39.6014,1993.00,58.00,43.00,57.30,150.00,4.00,0.00,30.28,1016.10,M,M,M,M,M,M,M,M,M,M,M,M,M,M,M,M,M,58.00,KP68 210853Z AUTO 15004KT 14/06 A3028 RMK AO1 SLP161 T01440061 51006,M
DRA,2023-07-21 08:53,-116.0278,36.6206,1009.00,78.00,34.00,20.23,0.00,0.00,0.00,29.99,1009.60,10.00,M,CLR,M,M,M,M,M,M,M,M,M,M,M,M,M,M,78.00,KDRA 210853Z AUTO 00000KT 10SM CLR 26/01 A2999 RMK AO2 SLP096 T02560011 50002,M
ELY,2023-07-21 08:53,-114.8453,39.2950,1909.00,61.00,45.00,55.57,110.00,4.00,0.00,30.31,1015.00,10.00,M,CLR,M,M,M,M,M,M,M,M,M,M,M,M,M,M,61.00,KELY 210853Z AUTO 11004KT 10SM CLR 16/07 A3031 RMK AO2 SLP150 T01610072 52000,M
VGT,2023-07-21 08:53,-115.1933,36.2111,667.00,97.00,43.00,15.73,0.00,0.00,0.00,29.87,1009.50,10.00,M,CLR,M,M,M,M,M,M,M,M,M,M,M,M,M,M,92.79,KVGT 210853Z AUTO 00000KT 10SM CLR 36/06 A2987 RMK AO2 SLP095 T03610061 51003,M
LOL,2023-07-21 08:53,-118.5701,40.0684,1192.43,63.00,30.00,28.70,360.00,3.00,0.00,30.13,1015.80,10.00,M,CLR,M,M,M,M,M,M,M,M,M,M,M,M,M,M,63.00,KLOL 210853Z AUTO 36003KT 10SM CLR 17/M01 A3013 RMK AO2 SLP158 T01721011 51004,M
BVU,2023-07-21 08:55,-114.8611,35.9475,671.00,91.40,42.80,18.56,0.00,0.00,0.00,29.88,M,10.00,M,CLR,M,M,M,M,M,M,M,M,M,M,M,M,M,M,87.52,KBVU 210855Z AUTO 00000KT 10SM CLR 33/06 A2988 RMK AO2,M
CXP,2023-07-21 08:55,-119.7326,39.1923,1431.00,64.40,39.20,39.43,0.00,0.00,0.00,30.25,M,10.00,M,CLR,M,M,M,M,M,M,M,M,M,M,M,M,M,M,64.40,KCXP 210855Z AUTO 00000KT 10SM CLR 18/04 A3025 RMK AO2,M
INS,2023-07-21 08:55,-115.6733,36.5872,955.00,82.20,31.50,15.95,250.00,5.00,0.00,29.98,1009.30,10.00,M,CLR,M,M,M,M,M,M,M,M,M,M,M,M,M,M,79.85,KINS 210855Z AUTO 25005KT 10SM CLR 28/M00 A2998 RMK AO2 SLP093 T02791003 52004 $,M
RNO,2023-07-21 08:55,-119.7711,39.4839,1341.00,73.00,36.00,25.88,250.00,5.00,0.00,30.21,1016.50,10.00,M,CLR,M,M,M,M,M,M,M,M,M,M,M,M,M,M,73.00,KRNO 210855Z 25005KT 10SM CLR 23/02 A3021 RMK AO2 SLP165 T02280022 51006,M
LSV,2023-07-21 08:55,-115.0343,36.2362,570.00,95.00,41.00,15.49,0.00,0.00,0.00,29.83,1005.30,10.00,M,CLR,M,M,M,M,M,M,M,M,M,M,M,M,M,M,90.70,KLSV 210855Z 00000KT 10SM CLR 35/05 A2983 RMK A02A SLP053 WND DATA ESTMD ALSTG ESTMD 52006 $,M
RTS,2023-07-21 08:55,-119.8764,39.6682,1539.00,62.60,35.60,36.45,340.00,7.00,0.00,30.27,M,10.00,M,CLR,M,M,M,M,M,M,M,M,M,M,M,M,M,M,62.60,KRTS 210855Z AUTO 34007KT 10SM CLR 17/02 A3027 RMK AO2,M
05U,2023-07-21 08:55,-116.0051,39.6042,1811.23,59.00,42.80,54.86,M,M,0.00,30.30,M,10.00,M,M,M,M,M,M,M,M,M,M,M,M,M,M,M,M,59.00,K05U 210855Z AUTO 10SM 15/06 A3030 RMK A01,M
MEV,2023-07-21 08:55,-119.7500,38.9963,1441.42,57.20,39.20,50.91,0.00,0.00,0.00,30.23,M,10.00,M,FEW,FEW,FEW,M,3300.00,6000.00,7000.00,M,M,M,M,M,M,M,M,57.20,KMEV 210855Z AUTO 00000KT 10SM FEW033 FEW060 FEW070 14/04 A3023 RMK AO2,M
HTH,2023-07-21 08:55,-118.6315,38.5448,1282.89,75.20,44.60,33.57,230.00,7.00,0.00,30.17,M,10.00,M,CLR,M,M,M,M,M,M,M,M,M,M,M,M,M,M,75.20,KHTH 210855Z AUTO 23007KT 10SM CLR 24/07 A3017 RMK A01,M
TMT,2023-07-21 08:55,-117.1971,39.4643,1749.34,56.70,43.00,60.05,0.00,0.00,0.00,30.30,M,10.00,M,CLR,M,M,M,M,M,M,M,M,M,M,M,M,M,M,56.70,KTMT 210855Z AUTO 00000KT 10SM CLR 14/06 A3030 RMK AO2 T01370062,M
BAM,2023-07-21 08:55,-116.8743,40.5990,1382.36,64.40,21.20,18.96,190.00,4.00,0.00,30.18,M,10.00,M,CLR,M,M,M,M,M,M,M,M,M,M,M,M,M,M,64.40,KBAM 210855Z AUTO 19004KT 10SM CLR 18/M06 A3018 RMK AO1,M
10U,2023-07-21 08:55,-116.1876,41.9532,1637.00,59.00,33.80,38.56,140.00,8.00,0.00,30.23,M,10.00,M,CLR,M,M,M,M,M,M,M,M,M,M,M,M,M,M,59.00,K10U 210855Z AUTO 14008KT 10SM CLR 15/01 A3023 RMK AO2,M
EKO,2023-07-21 08:56,-115.7860,40.8242,1367.00,65.00,41.00,41.41,70.00,5.00,0.00,30.22,1016.50,10.00,M,CLR,M,M,M,M,M,M,M,M,M,M,M,M,M,M,65.00,KEKO 210856Z AUTO 07005KT 10SM CLR 18/05 A3022 RMK AO2 SLP165 T01830050 51009,M
WMC,2023-07-21 08:56,-117.8072,40.9019,1315.00,M,M,M,M,M,0.00,30.16,M,M,M,M,M,M,M,M,M,M,M,M,M,M,M,M,M,M,M,KWMC 210856Z AUTO A3016 RMK AO2 SLPNO 52006 PWINO FZRANO $,M
NFL,2023-07-21 08:56,-118.7010,39.4166,1199.00,67.00,40.00,37.16,130.00,4.00,0.00,30.13,1017.00,10.00,M,CLR,M,M,M,M,M,M,M,M,M,M,M,M,M,M,67.00,KNFL 210856Z AUTO 13004KT 10SM CLR 19/04 A3013 RMK AO2 SLP170 T01940044 51004,M
HND,2023-07-21 08:56,-115.1344,35.9729,742.79,92.00,38.00,15.12,210.00,7.00,0.00,29.94,1011.20,10.00,M,CLR,M,M,M,M,M,M,M,M,M,M,M,M,M,M,87.78,KHND 210856Z AUTO 21007KT 10SM CLR 33/03 A2994 RMK AO2 SLP112 T03330033 51003,M
TPH,2023-07-21 08:56,-117.0904,38.0505,1654.00,72.00,34.00,24.72,M,M,0.00,30.22,1013.90,10.00,M,BKN,M,M,M,12000.00,M,M,M,M,M,M,M,M,M,M,72.00,KTPH 210856Z AUTO 10SM BKN120 22/01 A3022 RMK AO2 SLP139 T02220011 50004 $,M
LAS,2023-07-21 08:56,-115.1634,36.0719,663.00,96.00,39.00,13.90,210.00,4.00,0.00,29.88,1008.20,10.00,M,CLR,M,M,M,M,M,M,M,M,M,M,M,M,M,M,91.48,KLAS 210856Z 21004KT 10SM CLR 36/04 A2988 RMK AO2 SLP082 T03560039 53002,M
BVU,2023-07-21 09:15,-114.8611,35.9475,671.00,87.80,46.40,23.85,30.00,3.00,0.00,29.88,M,10.00,M,CLR,M,M,M,M,M,M,M,M,M,M,M,M,M,M,84.68,KBVU 210915Z AUTO 03003KT 10SM CLR 31/08 A2988 RMK AO2,M
CXP,2023-07-21 09:15,-119.7326,39.1923,1431.00,64.40,37.40,36.74,0.00,0.00,0.00,30.24,M,10.00,M,CLR,M,M,M,M,M,M,M,M,M,M,M,M,M,M,64.40,KCXP 210915Z AUTO 00000KT 10SM CLR 18/03 A3024 RMK AO2,M
RTS,2023-07-21 09:15,-119.8764,39.6682,1539.00,60.80,35.60,38.85,350.00,7.00,0.00,30.26,M,10.00,M,CLR,M,M,M,M,M,M,M,M,M,M,M,M,M,M,60.80,KRTS 210915Z AUTO 35007KT 10SM CLR 16/02 A3026 RMK AO2,M
05U,2023-07-21 09:15,-116.0051,39.6042,1811.23,59.00,42.80,54.86,M,M,0.00,30.30,M,10.00,M,M,M,M,M,M,M,M,M,M,M,M,M,M,M,M,59.00,K05U 210915Z AUTO 10SM 15/06 A3030 RMK A01,M
MEV,2023-07-21 09:15,-119.7500,38.9963,1441.42,59.00,39.20,47.72,0.00,0.00,0.00,30.23,M,10.00,M,FEW,FEW,FEW,M,3200.00,6000.00,7500.00,M,M,M,M,M,M,M,M,59.00,KMEV 210915Z AUTO 00000KT 10SM FEW032 FEW060 FEW075 15/04 A3023 RMK AO2,M
HTH,2023-07-21 09:15,-118.6315,38.5448,1282.89,73.40,44.60,35.66,230.00,6.00,0.00,30.17,M,10.00,M,CLR,M,M,M,M,M,M,M,M,M,M,M,M,M,M,73.40,KHTH 210915Z AUTO 23006KT 10SM CLR 23/07 A3017 RMK A01,M
TMT,2023-07-21 09:15,-117.1971,39.4643,1749.34,54.70,44.40,68.12,250.00,3.00,0.00,30.29,M,10.00,M,CLR,M,M,M,M,M,M,M,M,M,M,M,M,M,M,54.70,KTMT 210915Z AUTO 25003KT 10SM CLR 13/07 A3029 RMK AO2 T01260069,M
10U,2023-07-21 09:15,-116.1876,41.9532,1637.00,59.00,32.00,35.87,130.00,4.00,0.00,30.23,M,10.00,M,CLR,M,M,M,M,M,M,M,M,M,M,M,M,M,M,59.00,K10U 210915Z AUTO 13004KT 10SM CLR 15/00 A3023 RMK AO2,M
BAM,2023-07-21 09:15,-116.8743,40.5990,1382.36,59.00,23.00,24.76,190.00,6.00,0.00,30.18,M,10.00,M,CLR,M,M,M,M,M,M,M,M,M,M,M,M,M,M,59.00,KBAM 210915Z AUTO 19006KT 10SM CLR 15/M05 A3018 RMK AO1,M
BVU,2023-07-21 09:35,-114.8611,35.9475,671.00,91.40,39.20,16.15,0.00,0.00,0.00,29.87,M,10.00,M,CLR,M,M,M,M,M,M,M,M,M,M,M,M,M,M,87.30,KBVU 210935Z AUTO 00000KT 10SM CLR 33/04 A2987 RMK AO2,M
CXP,2023-07-21 09:35,-119.7326,39.1923,1431.00,62.60,39.20,42.00,0.00,0.00,0.00,30.24,M,10.00,M,CLR,M,M,M,M,M,M,M,M,M,M,M,M,M,M,62.60,KCXP 210935Z AUTO 00000KT 10SM CLR 17/04 A3024 RMK AO2,M
RTS,2023-07-21 09:35,-119.8764,39.6682,1539.00,60.80,35.60,38.85,350.00,7.00,0.00,30.26,M,10.00,M,CLR,M,M,M,M,M,M,M,M,M,M,M,M,M,M,60.80,KRTS 210935Z AUTO 35007KT 10SM CLR 16/02 A3026 RMK AO2,M
05U,2023-07-21 09:35,-116.0051,39.6042,1811.23,57.20,44.60,62.69,M,M,0.00,30.31,M,10.00,M,M,M,M,M,M,M,M,M,M,M,M,M,M,M,M,57.20,K05U 210935Z AUTO 10SM 14/07 A3031 RMK A01,M
MEV,2023-07-21 09:35,-119.7500,38.9963,1441.42,57.20,39.20,50.91,0.00,0.00,0.00,30.23,M,10.00,M,FEW,FEW,SCT,M,3400.00,4000.00,7500.00,M,M,M,M,M,M,M,M,57.20,KMEV 210935Z AUTO 00000KT 10SM FEW034 FEW040 SCT075 14/04 A3023 RMK AO2,M
HTH,2023-07-21 09:35,-118.6315,38.5448,1282.89,71.60,44.60,37.89,230.00,6.00,0.00,30.16,M,10.00,M,CLR,M,M,M,M,M,M,M,M,M,M,M,M,M,M,71.60,KHTH 210935Z AUTO 23006KT 10SM CLR 22/07 A3016 RMK A01,M
10U,2023-07-21 09:35,-116.1876,41.9532,1637.00,53.60,32.00,43.61,190.00,6.00,0.00,30.24,M,10.00,M,CLR,M,M,M,M,M,M,M,M,M,M,M,M,M,M,53.60,K10U 210935Z AUTO 19006KT 10SM CLR 12/M00 A3024 RMK AO2,M
BAM,2023-07-21 09:35,-116.8743,40.5990,1382.36,57.20,26.60,30.69,210.00,4.00,0.00,30.18,M,10.00,M,CLR,M,M,M,M,M,M,M,M,M,M,M,M,M,M,57.20,KBAM 210935Z AUTO 21004KT 10SM CLR 14/M03 A3018 RMK AO1,M
TMT,2023-07-21 09:35,-117.1971,39.4643,1749.34,54.50,43.70,66.81,230.00,3.00,0.00,30.29,M,10.00,M,CLR,M,M,M,M,M,M,M,M,M,M,M,M,M,M,54.50,KTMT 210935Z AUTO 23003KT 10SM CLR 13/07 A3029 RMK AO2 T01250065,M
P68,2023-07-21 09:53,-116.0056,39.6014,1993.00,58.00,40.00,51.03,160.00,4.00,0.00,30.28,1016.40,M,M,M,M,M,M,M,M,M,M,M,M,M,M,M,M,M,58.00,KP68 210953Z AUTO 16004KT 14/04 A3028 RMK AO1 SLP164 T01440044,M
DRA,2023-07-21 09:53,-116.0278,36.6206,1009.00,80.00,35.00,19.71,0.00,0.00,0.00,29.99,1009.40,10.00,M,CLR,M,M,M,M,M,M,M,M,M,M,M,M,M,M,78.63,KDRA 210953Z AUTO 00000KT 10SM CLR 27/02 A2999 RMK AO2 SLP094 T02670017,M
ELY,2023-07-21 09:53,-114.8453,39.2950,1909.00,57.00,43.00,59.40,170.00,6.00,0.00,30.31,1015.50,10.00,M,CLR,M,M,M,M,M,M,M,M,M,M,M,M,M,M,57.00,KELY 210953Z AUTO 17006KT 10SM CLR 14/06 A3031 RMK AO2 SLP155 T01390061,M
VGT,2023-07-21 09:53,-115.1933,36.2111,667.00,95.00,43.00,16.73,90.00,3.00,0.00,29.88,1009.90,10.00,M,CLR,M,M,M,M,M,M,M,M,M,M,M,M,M,M,90.88,KVGT 210953Z AUTO 09003KT 10SM CLR 35/06 A2988 RMK AO2 SLP099 T03500061,M
LOL,2023-07-21 09:53,-118.5701,40.0684,1192.43,58.00,29.00,32.91,130.00,6.00,0.00,30.12,1015.80,10.00,M,CLR,M,M,M,M,M,M,M,M,M,M,M,M,M,M,58.00,KLOL 210953Z AUTO 13006KT 10SM CLR 14/M02 A3012 RMK AO2 SLP158 T01441017,M
BVU,2023-07-21 09:55,-114.8611,35.9475,671.00,89.60,41.00,18.33,M,3.00,0.00,29.87,M,10.00,M,CLR,M,M,M,M,M,M,M,M,M,M,M,M,M,M,85.82,KBVU 210955Z AUTO VRB03KT 10SM CLR 32/05 A2987 RMK AO2,M
CXP,2023-07-21 09:55,-119.7326,39.1923,1431.00,60.80,39.20,44.76,0.00,0.00,0.00,30.24,M,10.00,M,CLR,M,M,M,M,M,M,M,M,M,M,M,M,M,M,60.80,KCXP 210955Z AUTO 00000KT 10SM CLR 16/04 A3024 RMK AO2,M
INS,2023-07-21 09:55,-115.6733,36.5872,955.00,83.50,34.00,16.90,210.00,5.00,0.00,29.99,1009.70,10.00,M,CLR,M,M,M,M,M,M,M,M,M,M,M,M,M,M,80.80,KINS 210955Z AUTO 21005KT 10SM CLR 29/01 A2999 RMK AO2 SLP097 T02860011 $,M
RNO,2023-07-21 09:55,-119.7711,39.4839,1341.00,70.00,37.00,29.81,0.00,0.00,0.00,30.21,1016.30,10.00,M,CLR,M,M,M,M,M,M,M,M,M,M,M,M,M,M,70.00,KRNO 210955Z 00000KT 10SM CLR 21/03 A3021 RMK AO2 SLP163 T02110028,M
LSV,2023-07-21 09:55,-115.0343,36.2362,570.00,89.60,41.00,18.33,70.00,4.00,0.00,29.83,1005.60,10.00,M,CLR,M,M,M,M,M,M,M,M,M,M,M,M,M,M,85.82,KLSV 210955Z 07004KT 10SM CLR 32/05 A2983 RMK A02A SLP056 WND DATA ESTMD ALSTG ESTMD RVRNO PWINO $,M
RTS,2023-07-21 09:55,-119.8764,39.6682,1539.00,59.00,35.60,41.42,350.00,7.00,0.00,30.26,M,10.00,M,CLR,M,M,M,M,M,M,M,M,M,M,M,M,M,M,59.00,KRTS 210955Z AUTO 35007KT 10SM CLR 15/02 A3026 RMK AO2,M
05U,2023-07-21 09:55,-116.0051,39.6042,1811.23,57.20,41.00,54.60,M,M,0.00,30.30,M,10.00,M,M,M,M,M,M,M,M,M,M,M,M,M,M,M,M,57.20,K05U 210955Z AUTO 10SM 14/05 A3030 RMK A01,M
MEV,2023-07-21 09:55,-119.7500,38.9963,1441.42,55.40,39.20,54.34,130.00,4.00,0.00,30.23,M,10.00,M,CLR,M,M,M,M,M,M,M,M,M,M,M,M,M,M,55.40,KMEV 210955Z AUTO 13004KT 10SM CLR 13/04 A3023 RMK AO2,M
HTH,2023-07-21 09:55,-118.6315,38.5448,1282.89,73.40,42.80,33.29,230.00,4.00,0.00,30.17,M,10.00,M,CLR,M,M,M,M,M,M,M,M,M,M,M,M,M,M,73.40,KHTH 210955Z AUTO 23004KT 10SM CLR 23/06 A3017 RMK A01,M
TMT,2023-07-21 09:55,-117.1971,39.4643,1749.34,52.30,42.80,69.96,0.00,0.00,0.00,30.29,M,10.00,M,CLR,M,M,M,M,M,M,M,M,M,M,M,M,M,M,52.30,KTMT 210955Z AUTO 00000KT 10SM CLR 11/06 A3029 RMK AO2 T01130060,M
BAM,2023-07-21 09:55,-116.8743,40.5990,1382.36,55.40,26.60,32.76,190.00,6.00,0.00,30.18,M,10.00,M,CLR,M,M,M,M,M,M,M,M,M,M,M,M,M,M,55.40,KBAM 210955Z AUTO 19006KT 10SM CLR 13/M03 A3018 RMK AO1,M
10U,2023-07-21 09:55,-116.1876,41.9532,1637.00,57.20,32.00,38.26,140.00,7.00,0.00,30.24,M,10.00,M,CLR,M,M,M,M,M,M,M,M,M,M,M,M,M,M,57.20,K10U 210955Z AUTO 14007KT 10SM CLR 14/M00 A3024 RMK AO2,M
EKO,2023-07-21 09:56,-115.7860,40.8242,1367.00,63.00,40.00,42.72,70.00,3.00,0.00,30.21,1016.70,10.00,M,CLR,M,M,M,M,M,M,M,M,M,M,M,M,M,M,63.00,KEKO 210956Z AUTO 07003KT 10SM CLR 17/04 A3021 RMK AO2 SLP167 T01720044,M
WMC,2023-07-21 09:56,-117.8072,40.9019,1315.00,M,M,M,M,M,0.00,30.16,M,M,M,M,M,M,M,M,M,M,M,M,M,M,M,M,M,M,M,KWMC 210956Z AUTO A3016 RMK AO2 SLPNO PWINO FZRANO $,M
NFL,2023-07-21 09:56,-118.7010,39.4166,1199.00,68.00,41.00,37.32,230.00,4.00,0.00,30.13,1016.90,10.00,M,CLR,M,M,M,M,M,M,M,M,M,M,M,M,M,M,68.00,KNFL 210956Z AUTO 23004KT 10SM CLR 20/05 A3013 RMK AO2 SLP169 T02000050,M
HND,2023-07-21 09:56,-115.1344,35.9729,742.79,91.00,38.00,15.60,200.00,6.00,0.00,29.93,1011.20,10.00,M,CLR,M,M,M,M,M,M,M,M,M,M,M,M,M,M,86.90,KHND 210956Z AUTO 20006KT 10SM CLR 33/03 A2993 RMK AO2 SLP112 T03280033,M
TPH,2023-07-21 09:56,-117.0904,38.0505,1654.00,73.00,33.00,22.96,M,M,0.00,30.22,1013.70,10.00,M,CLR,M,M,M,M,M,M,M,M,M,M,M,M,M,M,73.00,KTPH 210956Z AUTO 10SM CLR 23/01 A3022 RMK AO2 SLP137 T02280006 $,M
LAS,2023-07-21 09:56,-115.1634,36.0719,663.00,94.00,37.00,13.66,210.00,4.00,0.00,29.88,1008.30,10.00,M,CLR,M,M,M,M,M,M,M,M,M,M,M,M,M,M,89.53,KLAS 210956Z 21004KT 10SM CLR 34/03 A2988 RMK AO2 SLP083 T03440028,M
BVU,2023-07-21 10:15,-114.8611,35.9475,671.00,87.80,44.60,22.27,10.00,5.00,0.00,29.87,M,10.00,M,CLR,M,M,M,M,M,M,M,M,M,M,M,M,M,M,84.53,KBVU 211015Z AUTO 01005KT 10SM CLR 31/07 A2987 RMK AO2,M
CXP,2023-07-21 10:15,-119.7326,39.1923,1431.00,62.60,37.40,39.14,0.00,0.00,0.00,30.23,M,10.00,M,CLR,M,M,M,M,M,M,M,M,M,M,M,M,M,M,62.60,KCXP 211015Z AUTO 00000KT 10SM CLR 17/03 A3023 RMK AO2,M
RTS,2023-07-21 10:15,-119.8764,39.6682,1539.00,57.20,35.60,44.19,360.00,5.00,0.00,30.25,M,10.00,M,CLR,M,M,M,M,M,M,M,M,M,M,M,M,M,M,57.20,KRTS 211015Z AUTO 36005KT 10SM CLR 14/02 A3025 RMK AO2,M
05U,2023-07-21 10:15,-116.0051,39.6042,1811.23,57.20,39.20,50.91,M,M,0.00,30.30,M,10.00,M,M,M,M,M,M,M,M,M,M,M,M,M,M,M,M,57.20,K05U 211015Z AUTO 10SM 14/04 A3030 RMK A01,M
MEV,2023-07-21 10:15,-119.7500,38.9963,1441.42,51.80,39.20,61.99,140.00,6.00,0.00,30.23,M,10.00,M,CLR,M,M,M,M,M,M,M,M,M,M,M,M,M,M,51.80,KMEV 211015Z AUTO 14006KT 10SM CLR 11/04 A3023 RMK AO2,M
HTH,2023-07-21 10:15,-118.6315,38.5448,1282.89,71.60,44.60,37.89,0.00,0.00,0.00,30.17,M,10.00,M,CLR,M,M,M,M,M,M,M,M,M,M,M,M,M,M,71.60,KHTH 211015Z AUTO 00000KT 10SM CLR 22/07 A3017 RMK A01,M
10U,2023-07-21 10:15,-116.1876,41.9532,1637.00,59.00,32.00,35.87,150.00,4.00,0.00,30.24,M,10.00,M,CLR,M,M,M,M,M,M,M,M,M,M,M,M,M,M,59.00,K10U 211015Z AUTO 15004KT 10SM CLR 15/00 A3024 RMK AO2,M
BAM,2023-07-21 10:15,-116.8743,40.5990,1382.36,59.00,26.60,28.77,180.00,6.00,0.00,30.18,M,10.00,M,CLR,M,M,M,M,M,M,M,M,M,M,M,M,M,M,59.00,KBAM 211015Z AUTO 18006KT 10SM CLR 15/M03 A3018 RMK AO1,M
TMT,2023-07-21 10:15,-117.1971,39.4643,1749.34,51.40,42.30,70.95,260.00,3.00,0.00,30.29,M,10.00,M,CLR,M,M,M,M,M,M,M,M,M,M,M,M,M,M,51.40,KTMT 211015Z AUTO 26003KT 10SM CLR 11/06 A3029 RMK AO2 T01080057,M
BVU,2023-07-21 10:35,-114.8611,35.9475,671.00,86.00,48.20,27.03,40.00,7.00,0.00,29.88,M,10.00,M,CLR,M,M,M,M,M,M,M,M,M,M,M,M,M,M,83.40,KBVU 211035Z AUTO 04007KT 10SM CLR 30/09 A2988 RMK AO2,M
CXP,2023-07-21 10:35,-119.7326,39.1923,1431.00,60.80,37.40,41.71,0.00,0.00,0.00,30.24,M,10.00,M,CLR,M,M,M,M,M,M,M,M,M,M,M,M,M,M,60.80,KCXP 211035Z AUTO 00000KT 10SM CLR 16/03 A3024 RMK AO2,M
RTS,2023-07-21 10:35,-119.8764,39.6682,1539.00,59.00,35.60,41.42,0.00,0.00,0.00,30.25,M,10.00,M,CLR,M,M,M,M,M,M,M,M,M,M,M,M,M,M,59.00,KRTS 211035Z AUTO 00000KT 10SM CLR 15/02 A3025 RMK AO2,M
05U,2023-07-21 10:35,-116.0051,39.6042,1811.23,55.40,39.20,54.34,M,M,0.00,30.30,M,10.00,M,M,M,M,M,M,M,M,M,M,M,M,M,M,M,M,55.40,K05U 211035Z AUTO 10SM 13/04 A3030 RMK A01,M
MEV,2023-07-21 10:35,-119.7500,38.9963,1441.42,53.60,41.00,62.23,140.00,5.00,0.00,30.23,M,10.00,M,FEW,M,M,M,4900.00,M,M,M,M,M,M,M,M,M,M,53.60,KMEV 211035Z AUTO 14005KT 10SM FEW049 12/05 A3023 RMK AO2,M
HTH,2023-07-21 10:35,-118.6315,38.5448,1282.89,69.80,44.60,40.29,0.00,0.00,0.00,30.17,M,10.00,M,CLR,M,M,M,M,M,M,M,M,M,M,M,M,M,M,69.80,KHTH 211035Z AUTO 00000KT 10SM CLR 21/07 A3017 RMK A01,M
TMT,2023-07-21 10:35,-117.1971,39.4643,1749.34,52.70,44.00,72.18,220.00,7.00,0.00,30.29,M,10.00,M,CLR,M,M,M,M,M,M,M,M,M,M,M,M,M,M,52.70,KTMT 211035Z AUTO 22007KT 10SM CLR 12/07 A3029 RMK AO2 T01150066,M
10U,2023-07-21 10:35,-116.1876,41.9532,1637.00,53.60,32.00,43.61,160.00,6.00,0.00,30.23,M,10.00,M,CLR,M,M,M,M,M,M,M,M,M,M,M,M,M,M,53.60,K10U 211035Z AUTO 16006KT 10SM CLR 12/M00 A3023 RMK AO2,M
BAM,2023-07-21 10:35,-116.8743,40.5990,1382.36,55.40,26.60,32.76,180.00,6.00,0.00,30.18,M,10.00,M,CLR,M,M,M,M,M,M,M,M,M,M,M,M,M,M,55.40,KBAM 211035Z AUTO 18006KT 10SM CLR 13/M03 A3018 RMK AO1,M
P68,2023-07-21 10:53,-116.0056,39.6014,1993.00,55.00,42.00,61.46,160.00,5.00,0.00,30.28,1016.50,M,M,M,M,M,M,M,M,M,M,M,M,M,M,M,M,M,55.00,KP68 211053Z AUTO 16005KT 13/06 A3028 RMK AO1 SLP165 T01280056,M
DRA,2023-07-21 10:53,-116.0278,36.6206,1009.00,79.00,35.00,20.37,0.00,0.00,0.00,30.00,1009.80,10.00,M,CLR,M,M,M,M,M,M,M,M,M,M,M,M,M,M,79.00,KDRA 211053Z AUTO 00000KT 10SM CLR 26/02 A3000 RMK AO2 SLP098 T02610017,M
ELY,2023-07-21 10:53,-114.8453,39.2950,1909.00,55.00,44.00,66.36,170.00,5.00,0.00,30.31,1015.80,10.00,M,CLR,M,M,M,M,M,M,M,M,M,M,M,M,M,M,55.00,KELY 211053Z AUTO 17005KT 10SM CLR 13/07 A3031 RMK AO2 SLP158 T01280067,M
VGT,2023-07-21 10:53,-115.1933,36.2111,667.00,95.00,42.00,16.10,330.00,8.00,0.00,29.88,1009.80,10.00,M,CLR,M,M,M,M,M,M,M,M,M,M,M,M,M,M,90.79,KVGT 211053Z AUTO 33008KT 10SM CLR 35/06 A2988 RMK AO2 SLP098 T03500056,M
LOL,2023-07-21 10:53,-118.5701,40.0684,1192.43,60.00,33.00,36.03,0.00,0.00,0.00,30.12,1015.50,10.00,M,CLR,M,M,M,M,M,M,M,M,M,M,M,M,M,M,60.00,KLOL 211053Z AUTO 00000KT 10SM CLR 16/01 A3012 RMK AO2 SLP155 T01560006,M
BVU,2023-07-21 10:55,-114.8611,35.9475,671.00,86.00,44.60,23.59,30.00,6.00,0.00,29.88,M,10.00,M,CLR,M,M,M,M,M,M,M,M,M,M,M,M,M,M,83.07,KBVU 211055Z AUTO 03006KT 10SM CLR 30/07 A2988 RMK AO2,M
CXP,2023-07-21 10:55,-119.7326,39.1923,1431.00,60.80,37.40,41.71,0.00,0.00,0.00,30.24,M,10.00,M,CLR,M,M,M,M,M,M,M,M,M,M,M,M,M,M,60.80,KCXP 211055Z AUTO 00000KT 10SM CLR 16/03 A3024 RMK AO2,M
INS,2023-07-21 10:55,-115.6733,36.5872,955.00,79.50,33.60,18.95,230.00,4.00,0.00,29.99,1009.80,10.00,M,CLR,M,M,M,M,M,M,M,M,M,M,M,M,M,M,79.50,KINS 211055Z AUTO 23004KT 10SM CLR 26/01 A2999 RMK AO2 SLP098 T02640009 $,M
RNO,2023-07-21 10:55,-119.7711,39.4839,1341.00,69.00,35.00,28.50,260.00,5.00,0.00,30.20,1016.10,10.00,M,CLR,M,M,M,M,M,M,M,M,M,M,M,M,M,M,69.00,KRNO 211055Z 26005KT 10SM CLR 21/02 A3020 RMK AO2 SLP161 T02060017,M
LSV,2023-07-21 10:55,-115.0343,36.2362,570.00,89.60,42.80,19.64,0.00,0.00,0.00,29.83,1005.60,10.00,M,CLR,M,M,M,M,M,M,M,M,M,M,M,M,M,M,85.93,KLSV 211055Z 00000KT 10SM CLR 32/06 A2983 RMK A02A SLP056 WND DATA ESTMD ALSTG ESTMD RVRNO PWINO $,M
RTS,2023-07-21 10:55,-119.8764,39.6682,1539.00,60.80,37.40,41.71,0.00,0.00,0.00,30.25,M,10.00,M,CLR,M,M,M,M,M,M,M,M,M,M,M,M,M,M,60.80,KRTS 211055Z AUTO 00000KT 10SM CLR 16/03 A3025 RMK AO2,M
05U,2023-07-21 10:55,-116.0051,39.6042,1811.23,55.40,41.00,58.27,M,M,0.00,30.30,M,10.00,M,M,M,M,M,M,M,M,M,M,M,M,M,M,M,M,55.40,K05U 211055Z AUTO 10SM 13/05 A3030 RMK A01,M
MEV,2023-07-21 10:55,-119.7500,38.9963,1441.42,53.60,41.00,62.23,120.00,5.00,0.00,30.23,M,10.00,M,FEW,M,M,M,5000.00,M,M,M,M,M,M,M,M,M,M,53.60,KMEV 211055Z AUTO 12005KT 10SM FEW050 12/05 A3023 RMK AO2,M
HTH,2023-07-21 10:55,-118.6315,38.5448,1282.89,69.80,44.60,40.29,220.00,4.00,0.00,30.17,M,10.00,M,CLR,M,M,M,M,M,M,M,M,M,M,M,M,M,M,69.80,KHTH 211055Z AUTO 22004KT 10SM CLR 21/07 A3017 RMK A01,M
TMT,2023-07-21 10:55,-117.1971,39.4643,1749.34,47.70,39.20,72.22,200.00,4.00,0.00,30.29,M,10.00,M,CLR,M,M,M,M,M,M,M,M,M,M,M,M,M,M,45.75,KTMT 211055Z AUTO 20004KT 10SM CLR 09/04 A3029 RMK AO2 T00870040,M
BAM,2023-07-21 10:55,-116.8743,40.5990,1382.36,55.40,23.00,28.20,160.00,5.00,0.00,30.18,M,10.00,M,CLR,M,M,M,M,M,M,M,M,M,M,M,M,M,M,55.40,KBAM 211055Z AUTO 16005KT 10SM CLR 13/M05 A3018 RMK AO1,M
10U,2023-07-21 10:55,-116.1876,41.9532,1637.00,53.60,32.00,43.61,150.00,8.00,0.00,30.23,M,10.00,M,CLR,M,M,M,M,M,M,M,M,M,M,M,M,M,M,53.60,K10U 211055Z AUTO 15008KT 10SM CLR 12/M00 A3023 RMK AO2,M
EKO,2023-07-21 10:56,-115.7860,40.8242,1367.00,56.00,42.00,59.26,0.00,0.00,0.00,30.21,1017.00,10.00,M,CLR,M,M,M,M,M,M,M,M,M,M,M,M,M,M,56.00,KEKO 211056Z AUTO 00000KT 10SM CLR 13/06 A3021 RMK AO2 SLP170 T01330056,M
WMC,2023-07-21 10:56,-117.8072,40.9019,1315.00,M,M,M,M,M,0.00,30.16,M,M,M,M,M,M,M,M,M,M,M,M,M,M,M,M,M,M,M,KWMC 211056Z AUTO A3016 RMK AO2 SLPNO PWINO FZRANO $,M
NFL,2023-07-21 10:56,-118.7010,39.4166,1199.00,67.00,40.00,37.16,250.00,4.00,0.00,30.12,1016.70,10.00,M,CLR,M,M,M,M,M,M,M,M,M,M,M,M,M,M,67.00,KNFL 211056Z AUTO 25004KT 10SM CLR 19/04 A3012 RMK AO2 SLP167 T01940044,M
HND,2023-07-21 10:56,-115.1344,35.9729,742.79,91.00,39.00,16.23,230.00,8.00,0.00,29.94,1011.20,10.00,M,CLR,M,M,M,M,M,M,M,M,M,M,M,M,M,M,86.94,KHND 211056Z AUTO 23008KT 10SM CLR 33/04 A2994 RMK AO2 SLP112 T03280039,M
TPH,2023-07-21 10:56,-117.0904,38.0505,1654.00,67.00,36.00,31.76,M,M,0.00,30.22,1014.20,10.00,M,CLR,M,M,M,M,M,M,M,M,M,M,M,M,M,M,67.00,KTPH 211056Z AUTO 10SM CLR 19/02 A3022 RMK AO2 SLP142 T01940022 $,M
LAS,2023-07-21 10:56,-115.1634,36.0719,663.00,92.00,39.00,15.73,250.00,3.00,0.00,29.89,1008.50,10.00,M,CLR,M,M,M,M,M,M,M,M,M,M,M,M,M,M,87.83,KLAS 211056Z 25003KT 10SM CLR 33/04 A2989 RMK AO2 SLP085 T03330039,M
BVU,2023-07-21 11:15,-114.8611,35.9475,671.00,86.00,44.60,23.59,20.00,6.00,0.00,29.88,M,10.00,M,CLR,M,M,M,M,M,M,M,M,M,M,M,M,M,M,83.07,KBVU 211115Z AUTO 02006KT 10SM CLR 30/07 A2988 RMK AO2,M
CXP,2023-07-21 11:15,-119.7326,39.1923,1431.00,60.80,37.40,41.71,310.00,3.00,0.00,30.24,M,10.00,M,CLR,M,M,M,M,M,M,M,M,M,M,M,M,M,M,60.80,KCXP 211115Z AUTO 31003KT 10SM CLR 16/03 A3024 RMK AO2,M
RTS,2023-07-21 11:15,-119.8764,39.6682,1539.00,57.20,35.60,44.19,0.00,0.00,0.00,30.25,M,10.00,M,CLR,M,M,M,M,M,M,M,M,M,M,M,M,M,M,57.20,KRTS 211115Z AUTO 00000KT 10SM CLR 14/02 A3025 RMK AO2,M
05U,2023-07-21 11:15,-116.0051,39.6042,1811.23,55.40,39.20,54.34,M,M,0.00,30.31,M,10.00,M,M,M,M,M,M,M,M,M,M,M,M,M,M,M,M,55.40,K05U 211115Z AUTO 10SM 13/04 A3031 RMK A01,M
MEV,2023-07-21 11:15,-119.7500,38.9963,1441.42,53.60,41.00,62.23,0.00,0.00,0.00,30.23,M,10.00,M,FEW,FEW,M,M,5000.00,7000.00,M,M,M,M,M,M,M,M,M,53.60,KMEV 211115Z AUTO 00000KT 10SM FEW050 FEW070 12/05 A3023 RMK AO2,M
HTH,2023-07-21 11:15,-118.6315,38.5448,1282.89,69.80,42.80,37.61,220.00,3.00,0.00,30.17,M,10.00,M,CLR,M,M,M,M,M,M,M,M,M,M,M,M,M,M,69.80,KHTH 211115Z AUTO 22003KT 10SM CLR 21/06 A3017 RMK A01,M
TMT,2023-07-21 11:15,-117.1971,39.4643,1749.34,48.60,40.00,72.03,0.00,0.00,0.00,30.29,M,10.00,M,CLR,M,M,M,M,M,M,M,M,M,M,M,M,M,M,48.60,KTMT 211115Z AUTO 00000KT 10SM CLR 09/05 A3029 RMK AO2 T00920045,M
10U,2023-07-21 11:15,-116.1876,41.9532,1637.00,53.60,32.00,43.61,150.00,8.00,0.00,30.23,M,10.00,M,CLR,M,M,M,M,M,M,M,M,M,M,M,M,M,M,53.60,K10U 211115Z AUTO 15008KT 10SM CLR 12/00 A3023 RMK AO2,M
BAM,2023-07-21 11:15,-116.8743,40.5990,1382.36,55.40,24.80,30.40,200.00,3.00,0.00,30.19,M,10.00,M,CLR,M,M,M,M,M,M,M,M,M,M,M,M,M,M,55.40,KBAM 211115Z AUTO 20003KT 10SM CLR 13/M04 A3019 RMK AO1,M
BVU,2023-07-21 11:35,-114.8611,35.9475,671.00,86.00,48.20,27.03,20.00,5.00,0.00,29.88,M,10.00,M,CLR,M,M,M,M,M,M,M,M,M,M,M,M,M,M,83.40,KBVU 211135Z AUTO 02005KT 10SM CLR 30/09 A2988 RMK AO2,M
CXP,2023-07-21 11:35,-119.7326,39.1923,1431.00,62.60,37.40,39.14,0.00,0.00,0.00,30.24,M,10.00,M,CLR,M,M,M,M,M,M,M,M,M,M,M,M,M,M,62.60,KCXP 211135Z AUTO 00000KT 10SM CLR 17/03 A3024 RMK AO2,M
RTS,2023-07-21 11:35,-119.8764,39.6682,1539.00,53.60,33.80,46.88,350.00,6.00,0.00,30.25,M,10.00,M,CLR,M,M,M,M,M,M,M,M,M,M,M,M,M,M,53.60,KRTS 211135Z AUTO 35006KT 10SM CLR 12/01 A3025 RMK AO2,M
05U,2023-07-21 11:35,-116.0051,39.6042,1811.23,55.40,37.40,50.64,M,M,0.00,30.31,M,10.00,M,M,M,M,M,M,M,M,M,M,M,M,M,M,M,M,55.40,K05U 211135Z AUTO 10SM 13/03 A3031 RMK A01,M
MEV,2023-07-21 11:35,-119.7500,38.9963,1441.42,53.60,42.80,66.70,0.00,0.00,0.00,30.23,M,10.00,M,FEW,FEW,M,M,2900.00,5000.00,M,M,M,M,M,M,M,M,M,53.60,KMEV 211135Z AUTO 00000KT 10SM FEW029 FEW050 12/06 A3023 RMK AO2,M
HTH,2023-07-21 11:35,-118.6315,38.5448,1282.89,66.20,48.20,52.25,150.00,4.00,0.00,30.18,M,10.00,M,CLR,M,M,M,M,M,M,M,M,M,M,M,M,M,M,66.20,KHTH 211135Z AUTO 15004KT 10SM CLR 19/09 A3018 RMK A01,M
TMT,2023-07-21 11:35,-117.1971,39.4643,1749.34,49.60,40.50,70.75,0.00,0.00,0.00,30.29,M,10.00,M,CLR,M,M,M,M,M,M,M,M,M,M,M,M,M,M,49.60,KTMT 211135Z AUTO 00000KT 10SM CLR 10/05 A3029 RMK AO2 T00980047,M
10U,2023-07-21 11:35,-116.1876,41.9532,1637.00,57.20,33.80,41.13,150.00,8.00,0.00,30.23,M,10.00,M,CLR,M,M,M,M,M,M,M,M,M,M,M,M,M,M,57.20,K10U 211135Z AUTO 15008KT 10SM CLR 14/01 A3023 RMK AO2,M
BAM,2023-07-21 11:35,-116.8743,40.5990,1382.36,59.00,26.60,28.77,0.00,0.00,0.00,30.19,M,10.00,M,CLR,M,M,M,M,M,M,M,M,M,M,M,M,M,M,59.00,KBAM 211135Z AUTO 00000KT 10SM CLR 15/M03 A3019 RMK AO1,M
P68,2023-07-21 11:53,-116.0056,39.6014,1993.00,59.00,38.00,45.53,170.00,5.00,0.00,30.28,1016.30,M,M,M,M,M,M,M,M,M,M,M,M,M,M,M,M,M,59.00,KP68 211153Z AUTO 17005KT 15/03 A3028 RMK AO1 SLP163 T01500033 10222 20128 52001,M
DRA,2023-07-21 11:53,-116.0278,36.6206,1009.00,80.00,37.00,21.34,100.00,4.00,0.00,30.01,1010.10,10.00,M,CLR,M,M,M,M,M,M,M,M,M,M,M,M,M,M,78.70,KDRA 211153Z AUTO 10004KT 10SM CLR 27/03 A3001 RMK AO2 SLP101 T02670028 10311 20256 53006,M
ELY,2023-07-21 11:53,-114.8453,39.2950,1909.00,53.00,43.00,68.71,180.00,8.00,0.00,30.32,1016.30,10.00,M,CLR,M,M,M,M,M,M,M,M,M,M,M,M,M,M,53.00,KELY 211153Z AUTO 18008KT 10SM CLR 12/06 A3032 RMK AO2 SLP163 T01170061 10200 20117 53003,M
VGT,2023-07-21 11:53,-115.1933,36.2111,667.00,93.00,41.00,16.48,340.00,7.00,0.00,29.89,1010.20,10.00,M,CLR,M,M,M,M,M,M,M,M,M,M,M,M,M,M,88.85,KVGT 211153Z AUTO 34007KT 10SM CLR 34/05 A2989 RMK AO2 SLP102 T03390050 10389 20339 51005,M
LOL,2023-07-21 11:53,-118.5701,40.0684,1192.43,57.00,29.00,34.12,150.00,5.00,0.00,30.13,1015.90,10.00,M,CLR,M,M,M,M,M,M,M,M,M,M,M,M,M,M,57.00,KLOL 211153Z AUTO 15005KT 10SM CLR 14/M02 A3013 RMK AO2 SLP159 T01391017 10222 20133 55000,M
BVU,2023-07-21 11:55,-114.8611,35.9475,671.00,86.00,46.40,25.26,30.00,9.00,0.00,29.89,M,10.00,M,CLR,M,M,M,M,M,M,M,M,M,M,M,M,M,M,83.22,KBVU 211155Z AUTO 03009KT 10SM CLR 30/08 A2989 RMK AO2,M
CXP,2023-07-21 11:55,-119.7326,39.1923,1431.00,60.80,39.20,44.76,0.00,0.00,0.00,30.24,M,10.00,M,CLR,M,M,M,M,M,M,M,M,M,M,M,M,M,M,60.80,KCXP 211155Z AUTO 00000KT 10SM CLR 16/04 A3024 RMK AO2,M
INS,2023-07-21 11:55,-115.6733,36.5872,955.00,81.50,35.20,18.92,230.00,10.00,0.00,29.99,1009.70,10.00,M,CLR,M,M,M,M,M,M,M,M,M,M,M,M,M,M,79.48,KINS 211155Z AUTO 23010KT 10SM CLR 28/02 A2999 RMK AO2 SLP097 T02750018 10333 20263 50003 $,M
RNO,2023-07-21 11:55,-119.7711,39.4839,1341.00,67.00,36.00,31.76,280.00,5.00,0.00,30.20,1016.20,10.00,M,CLR,M,M,M,M,M,M,M,M,M,M,M,M,M,M,67.00,KRNO 211155Z 28005KT 10SM CLR 19/02 A3020 RMK AO2 SLP162 T01940022 10278 20183 55003,M
RTS,2023-07-21 11:55,-119.8764,39.6682,1539.00,55.40,35.60,47.16,340.00,5.00,0.00,30.25,M,10.00,M,CLR,M,M,M,M,M,M,M,M,M,M,M,M,M,M,55.40,KRTS 211155Z AUTO 34005KT 10SM CLR 13/02 A3025 RMK AO2,M
05U,2023-07-21 11:55,-116.0051,39.6042,1811.23,59.00,37.40,44.47,M,M,0.00,30.31,M,10.00,M,M,M,M,M,M,M,M,M,M,M,M,M,M,M,M,59.00,K05U 211155Z AUTO 10SM 15/03 A3031 RMK A01,M
MEV,2023-07-21 11:55,-119.7500,38.9963,1441.42,53.60,39.20,58.02,90.00,4.00,0.00,30.23,M,10.00,M,FEW,FEW,FEW,M,2800.00,3700.00,4900.00,M,M,M,M,M,M,M,M,53.60,KMEV 211155Z AUTO 09004KT 10SM FEW028 FEW037 FEW049 12/04 A3023 RMK AO2,M
HTH,2023-07-21 11:55,-118.6315,38.5448,1282.89,68.00,44.60,42.85,140.00,3.00,0.00,30.18,M,10.00,M,CLR,M,M,M,M,M,M,M,M,M,M,M,M,M,M,68.00,KHTH 211155Z AUTO 14003KT 10SM CLR 20/07 A3018 RMK A01,M
TMT,2023-07-21 11:55,-117.1971,39.4643,1749.34,49.00,40.00,70.96,0.00,0.00,0.00,30.29,M,10.00,M,CLR,M,M,M,M,M,M,M,M,M,M,M,M,M,M,49.00,KTMT 211155Z AUTO 00000KT 10SM CLR 10/05 A3029 RMK AO2 T00950045 10193 20086,M
BAM,2023-07-21 11:55,-116.8743,40.5990,1382.36,55.40,30.20,37.97,50.00,6.00,0.00,30.19,M,10.00,M,CLR,M,M,M,M,M,M,M,M,M,M,M,M,M,M,55.40,KBAM 211155Z AUTO 05006KT 10SM CLR 13/M01 A3019 RMK AO1,M
10U,2023-07-21 11:55,-116.1876,41.9532,1637.00,57.20,33.80,41.13,130.00,7.00,0.00,30.23,M,10.00,M,CLR,M,M,M,M,M,M,M,M,M,M,M,M,M,M,57.20,K10U 211155Z AUTO 13007KT 10SM CLR 14/01 A3023 RMK AO2,M
LSV,2023-07-21 11:55,-115.0343,36.2362,570.00,87.80,42.80,20.79,0.00,0.00,0.00,29.84,1005.90,10.00,M,CLR,M,M,M,M,M,M,M,M,M,M,M,M,M,M,84.40,KLSV 211155Z 00000KT 10SM CLR 31/06 A2984 RMK A02A SLP059 WND DATA ESTMD ALSTG ESTMD 10372 20309 52005 RVRNO PWINO $,M
EKO,2023-07-21 11:56,-115.7860,40.8242,1367.00,57.00,40.00,52.90,80.00,3.00,0.00,30.22,1017.10,10.00,M,CLR,M,M,M,M,M,M,M,M,M,M,M,M,M,M,57.00,KEKO 211156Z AUTO 08003KT 10SM CLR 14/04 A3022 RMK AO2 SLP171 T01390044 10228 20122 53000,M
WMC,2023-07-21 11:56,-117.8072,40.9019,1315.00,M,M,M,M,M,0.00,30.16,M,M,M,M,M,M,M,M,M,M,M,M,M,M,M,M,M,M,M,KWMC 211156Z AUTO A3016 RMK AO2 SLPNO 54000 PWINO FZRANO $,M
NFL,2023-07-21 11:56,-118.7010,39.4166,1199.00,66.00,42.00,41.57,200.00,4.00,0.00,30.13,1016.80,10.00,M,CLR,M,M,M,M,M,M,M,M,M,M,M,M,M,M,66.00,KNFL 211156Z AUTO 20004KT 10SM CLR 19/06 A3013 RMK AO2 SLP168 T01890056 10256 20167 55002,M
HND,2023-07-21 11:56,-115.1344,35.9729,742.79,90.00,40.00,17.41,210.00,14.00,0.00,29.94,1011.50,10.00,M,CLR,M,M,M,M,M,M,M,M,M,M,M,M,M,M,86.11,KHND 211156Z AUTO 21014KT 10SM CLR 32/04 A2994 RMK AO2 SLP115 T03220044 10361 20317 53002,M
TPH,2023-07-21 11:56,-117.0904,38.0505,1654.00,69.00,36.00,29.65,360.00,12.00,0.00,30.23,1013.80,10.00,M,CLR,M,M,M,M,M,M,M,M,M,M,M,M,M,M,69.00,KTPH 211156Z AUTO 36012KT 10SM CLR 21/02 A3023 RMK AO2 SLP138 T02060022 10261 20194 53001 $,M
LAS,2023-07-21 11:56,-115.1634,36.0719,663.00,91.00,41.00,17.54,200.00,4.00,0.00,29.90,1008.80,10.00,M,CLR,M,M,M,M,M,M,M,M,M,M,M,M,M,M,87.04,KLAS 211156Z 20004KT 10SM CLR 33/05 A2990 RMK AO2 SLP088 T03280050 10378 20328 53006,M
BVU,2023-07-21 12:15,-114.8611,35.9475,671.00,86.00,44.60,23.59,30.00,6.00,0.00,29.89,M,10.00,M,CLR,M,M,M,M,M,M,M,M,M,M,M,M,M,M,83.07,KBVU 211215Z AUTO 03006KT 10SM CLR 30/07 A2989 RMK AO2,M
CXP,2023-07-21 12:15,-119.7326,39.1923,1431.00,60.80,39.20,44.76,0.00,0.00,0.00,30.25,M,10.00,M,CLR,M,M,M,M,M,M,M,M,M,M,M,M,M,M,60.80,KCXP 211215Z AUTO 00000KT 10SM CLR 16/04 A3025 RMK AO2,M
RTS,2023-07-21 12:15,-119.8764,39.6682,1539.00,53.60,33.80,46.88,0.00,0.00,0.00,30.25,M,10.00,M,CLR,M,M,M,M,M,M,M,M,M,M,M,M,M,M,53.60,KRTS 211215Z AUTO 00000KT 10SM CLR 12/01 A3025 RMK AO2,M
05U,2023-07-21 12:15,-116.0051,39.6042,1811.23,57.20,37.40,47.44,M,M,0.00,30.31,M,10.00,M,M,M,M,M,M,M,M,M,M,M,M,M,M,M,M,57.20,K05U 211215Z AUTO 10SM 14/03 A3031 RMK A01,M
MEV,2023-07-21 12:15,-119.7500,38.9963,1441.42,51.80,39.20,61.99,0.00,0.00,0.00,30.23,M,10.00,M,FEW,FEW,SCT,M,3800.00,4800.00,5500.00,M,M,M,M,M,M,M,M,51.80,KMEV 211215Z AUTO 00000KT 10SM FEW038 FEW048 SCT055 11/04 A3023 RMK AO2,M
HTH,2023-07-21 12:15,-118.6315,38.5448,1282.89,68.00,48.20,49.10,220.00,5.00,0.00,30.18,M,10.00,M,CLR,M,M,M,M,M,M,M,M,M,M,M,M,M,M,68.00,KHTH 211215Z AUTO 22005KT 10SM CLR 20/09 A3018 RMK A01,M
TMT,2023-07-21 12:15,-117.1971,39.4643,1749.34,50.00,41.40,72.18,0.00,0.00,0.00,30.29,M,10.00,M,CLR,M,M,M,M,M,M,M,M,M,M,M,M,M,M,50.00,KTMT 211215Z AUTO 00000KT 10SM CLR 10/05 A3029 RMK AO2 T01010052,M
10U,2023-07-21 12:15,-116.1876,41.9532,1637.00,60.80,33.80,36.16,130.00,9.00,0.00,30.23,M,10.00,M,CLR,M,M,M,M,M,M,M,M,M,M,M,M,M,M,60.80,K10U 211215Z AUTO 13009KT 10SM CLR 16/01 A3023 RMK AO2,M
BAM,2023-07-21 12:15,-116.8743,40.5990,1382.36,57.20,30.20,35.57,60.00,8.00,0.00,30.19,M,10.00,M,CLR,M,M,M,M,M,M,M,M,M,M,M,M,M,M,57.20,KBAM 211215Z AUTO 06008KT 10SM CLR 14/M01 A3019 RMK AO1,M
BVU,2023-07-21 12:35,-114.8611,35.9475,671.00,86.00,46.40,25.26,20.00,4.00,0.00,29.89,M,10.00,M,CLR,M,M,M,M,M,M,M,M,M,M,M,M,M,M,83.22,KBVU 211235Z AUTO 02004KT 10SM CLR 30/08 A2989 RMK AO2,M
CXP,2023-07-21 12:35,-119.7326,39.1923,1431.00,60.80,39.20,44.76,0.00,0.00,0.00,30.25,M,10.00,M,CLR,M,M,M,M,M,M,M,M,M,M,M,M,M,M,60.80,KCXP 211235Z AUTO 00000KT 10SM CLR 16/04 A3025 RMK AO2,M
RTS,2023-07-21 12:35,-119.8764,39.6682,1539.00,50.00,33.80,53.54,360.00,5.00,0.00,30.26,M,10.00,M,CLR,M,M,M,M,M,M,M,M,M,M,M,M,M,M,50.00,KRTS 211235Z AUTO 36005KT 10SM CLR 10/01 A3026 RMK AO2,M
05U,2023-07-21 12:35,-116.0051,39.6042,1811.23,55.40,35.60,47.16,M,M,0.00,30.32,M,10.00,M,M,M,M,M,M,M,M,M,M,M,M,M,M,M,M,55.40,K05U 211235Z AUTO 10SM 13/02 A3032 RMK A01,M
MEV,2023-07-21 12:35,-119.7500,38.9963,1441.42,51.80,39.20,61.99,0.00,0.00,0.00,30.24,M,10.00,M,CLR,M,M,M,M,M,M,M,M,M,M,M,M,M,M,51.80,KMEV 211235Z AUTO 00000KT 10SM CLR 11/04 A3024 RMK AO2,M
HTH,2023-07-21 12:35,-118.6315,38.5448,1282.89,66.20,46.40,48.83,210.00,5.00,0.00,30.18,M,10.00,M,CLR,M,M,M,M,M,M,M,M,M,M,M,M,M,M,66.20,KHTH 211235Z AUTO 21005KT 10SM CLR 19/08 A3018 RMK A01,M
TMT,2023-07-21 12:35,-117.1971,39.4643,1749.34,45.00,38.30,77.21,130.00,4.00,0.00,30.31,M,10.00,M,CLR,M,M,M,M,M,M,M,M,M,M,M,M,M,M,42.60,KTMT 211235Z AUTO 13004KT 10SM CLR 07/04 A3031 RMK AO2 T00720035,M
10U,2023-07-21 12:35,-116.1876,41.9532,1637.00,57.20,35.60,44.19,0.00,0.00,0.00,30.25,M,10.00,M,CLR,M,M,M,M,M,M,M,M,M,M,M,M,M,M,57.20,K10U 211235Z AUTO 00000KT 10SM CLR 14/02 A3025 RMK AO2,M
BAM,2023-07-21 12:35,-116.8743,40.5990,1382.36,59.00,28.40,30.98,210.00,4.00,0.00,30.20,M,10.00,M,CLR,M,M,M,M,M,M,M,M,M,M,M,M,M,M,59.00,KBAM 211235Z AUTO 21004KT 10SM CLR 15/M02 A3020 RMK AO1,M
P68,2023-07-21 12:53,-116.0056,39.6014,1993.00,57.00,36.00,45.22,180.00,6.00,0.00,30.29,1016.80,M,M,M,M,M,M,M,M,M,M,M,M,M,M,M,M,M,57.00,KP68 211253Z AUTO 18006KT 14/02 A3029 RMK AO1 SLP168 T01390022,M
DRA,2023-07-21 12:53,-116.0278,36.6206,1009.00,78.00,37.00,22.79,M,4.00,0.00,30.02,1010.50,10.00,M,CLR,M,M,M,M,M,M,M,M,M,M,M,M,M,M,78.00,KDRA 211253Z AUTO VRB04KT 10SM CLR 26/03 A3002 RMK AO2 SLP105 T02560028,M
ELY,2023-07-21 12:53,-114.8453,39.2950,1909.00,52.00,44.00,74.07,170.00,8.00,0.00,30.33,1016.90,10.00,M,CLR,M,M,M,M,M,M,M,M,M,M,M,M,M,M,52.00,KELY 211253Z AUTO 17008KT 10SM CLR 11/07 A3033 RMK AO2 SLP169 T01110067,M
VGT,2023-07-21 12:53,-115.1933,36.2111,667.00,93.00,40.00,15.85,330.00,6.00,0.00,29.90,1010.50,10.00,M,CLR,M,M,M,M,M,M,M,M,M,M,M,M,M,M,88.78,KVGT 211253Z AUTO 33006KT 10SM CLR 34/04 A2990 RMK AO2 SLP105 T03390044,M
LOL,2023-07-21 12:53,-118.5701,40.0684,1192.43,54.00,32.00,42.98,0.00,0.00,0.00,30.14,1016.60,10.00,M,CLR,M,M,M,M,M,M,M,M,M,M,M,M,M,M,54.00,KLOL 211253Z AUTO 00000KT 10SM CLR 12/00 A3014 RMK AO2 SLP166 T01220000,M
BVU,2023-07-21 12:55,-114.8611,35.9475,671.00,86.00,42.80,22.02,0.00,0.00,0.00,29.90,M,10.00,M,CLR,M,M,M,M,M,M,M,M,M,M,M,M,M,M,82.95,KBVU 211255Z AUTO 00000KT 10SM CLR 30/06 A2990 RMK AO2,M
CXP,2023-07-21 12:55,-119.7326,39.1923,1431.00,59.00,39.20,47.72,0.00,0.00,0.00,30.25,M,10.00,M,CLR,M,M,M,M,M,M,M,M,M,M,M,M,M,M,59.00,KCXP 211255Z AUTO 00000KT 10SM CLR 15/04 A3025 RMK AO2,M
RNO,2023-07-21 12:55,-119.7711,39.4839,1341.00,66.00,37.00,34.21,270.00,3.00,0.00,30.22,1016.90,10.00,M,CLR,M,M,M,M,M,M,M,M,M,M,M,M,M,M,66.00,KRNO 211255Z 27003KT 10SM CLR 19/03 A3022 RMK AO2 SLP169 T01890028,M
RTS,2023-07-21 12:55,-119.8764,39.6682,1539.00,51.80,33.80,50.08,350.00,3.00,0.00,30.26,M,10.00,M,CLR,M,M,M,M,M,M,M,M,M,M,M,M,M,M,51.80,KRTS 211255Z AUTO 35003KT 10SM CLR 11/01 A3026 RMK AO2,M
05U,2023-07-21 12:55,-116.0051,39.6042,1811.23,57.20,35.60,44.19,M,M,0.00,30.32,M,10.00,M,M,M,M,M,M,M,M,M,M,M,M,M,M,M,M,57.20,K05U 211255Z AUTO 10SM 14/02 A3032 RMK A01,M
MEV,2023-07-21 12:55,-119.7500,38.9963,1441.42,53.60,39.20,58.02,0.00,0.00,0.00,30.24,M,10.00,M,CLR,M,M,M,M,M,M,M,M,M,M,M,M,M,M,53.60,KMEV 211255Z AUTO 00000KT 10SM CLR 12/04 A3024 RMK AO2,M
HTH,2023-07-21 12:55,-118.6315,38.5448,1282.89,66.20,48.20,52.25,200.00,4.00,0.00,30.19,M,10.00,M,CLR,M,M,M,M,M,M,M,M,M,M,M,M,M,M,66.20,KHTH 211255Z AUTO 20004KT 10SM CLR 19/09 A3019 RMK A01,M
BAM,2023-07-21 12:55,-116.8743,40.5990,1382.36,55.40,28.40,35.28,220.00,3.00,0.00,30.21,M,10.00,M,CLR,M,M,M,M,M,M,M,M,M,M,M,M,M,M,55.40,KBAM 211255Z AUTO 22003KT 10SM CLR 13/M02 A3021 RMK AO1,M
TMT,2023-07-21 12:55,-117.1971,39.4643,1749.34,45.00,37.80,75.71,0.00,0.00,0.00,30.30,M,10.00,M,CLR,M,M,M,M,M,M,M,M,M,M,M,M,M,M,45.00,KTMT 211255Z AUTO 00000KT 10SM CLR 07/03 A3030 RMK AO2 T00730032,M
10U,2023-07-21 12:55,-116.1876,41.9532,1637.00,51.80,35.60,53.81,M,4.00,0.00,30.26,M,10.00,M,CLR,M,M,M,M,M,M,M,M,M,M,M,M,M,M,51.80,K10U 211255Z AUTO VRB04KT 10SM CLR 11/02 A3026 RMK AO2,M
INS,2023-07-21 12:55,-115.6733,36.5872,955.00,79.50,35.00,20.04,0.00,0.00,0.00,30.00,1010.20,10.00,M,CLR,M,M,M,M,M,M,M,M,M,M,M,M,M,M,79.50,KINS 211255Z AUTO 00000KT 10SM CLR 26/02 A3000 RMK AO2 SLP102 T02640016 $,M
LSV,2023-07-21 12:55,-115.0343,36.2362,570.00,84.40,40.00,20.80,30.00,4.00,0.00,29.86,1008.00,10.00,M,M,M,M,M,M,M,M,M,M,M,M,M,M,M,M,81.62,KLSV 211255Z AUTO 03004KT 10SM M 29/05 A2986 RMK AO2 SLP080 T02910045 $,M
EKO,2023-07-21 12:56,-115.7860,40.8242,1367.00,58.00,39.00,49.08,20.00,3.00,0.00,30.24,1017.90,10.00,M,CLR,M,M,M,M,M,M,M,M,M,M,M,M,M,M,58.00,KEKO 211256Z AUTO 02003KT 10SM CLR 14/04 A3024 RMK AO2 SLP179 T01440039,M
WMC,2023-07-21 12:56,-117.8072,40.9019,1315.00,M,M,M,M,M,0.00,30.18,M,M,M,M,M,M,M,M,M,M,M,M,M,M,M,M,M,M,M,KWMC 211256Z AUTO A3018 RMK AO2 SLPNO PWINO FZRANO $,M
NFL,2023-07-21 12:56,-118.7010,39.4166,1199.00,61.00,41.00,47.66,150.00,8.00,0.00,30.14,1017.30,10.00,M,CLR,M,M,M,M,M,M,M,M,M,M,M,M,M,M,61.00,KNFL 211256Z AUTO 15008KT 10SM CLR 16/05 A3014 RMK AO2 SLP173 T01610050,M
HND,2023-07-21 12:56,-115.1344,35.9729,742.79,88.00,40.00,18.54,190.00,9.00,0.00,29.96,1012.30,10.00,M,CLR,M,M,M,M,M,M,M,M,M,M,M,M,M,M,84.42,KHND 211256Z 19009KT 10SM CLR 31/04 A2996 RMK AO2 SLP123 T03110044,M
TPH,2023-07-21 12:56,-117.0904,38.0505,1654.00,65.00,38.00,36.84,350.00,8.00,0.00,30.25,1015.20,10.00,M,CLR,M,M,M,M,M,M,M,M,M,M,M,M,M,M,65.00,KTPH 211256Z AUTO 35008KT 10SM CLR 18/03 A3025 RMK AO2 SLP152 T01830033 $,M
LAS,2023-07-21 12:56,-115.1634,36.0719,663.00,91.00,40.00,16.87,210.00,3.00,0.00,29.91,1009.30,10.00,M,CLR,M,M,M,M,M,M,M,M,M,M,M,M,M,M,86.99,KLAS 211256Z 21003KT 10SM CLR 33/04 A2991 RMK AO2 SLP093 T03280044,M
LSV,2023-07-21 13:02,-115.0343,36.2362,570.00,84.20,41.00,21.76,40.00,3.00,0.00,29.86,1008.00,10.00,M,FEW,M,M,M,14000.00,M,M,M,M,M,M,M,M,M,M,81.52,KLSV 211302Z 04003KT 10SM FEW140 29/05 A2986 RMK SLP080 $,M
BVU,2023-07-21 13:15,-114.8611,35.9475,671.00,86.00,46.40,25.26,0.00,0.00,0.00,29.91,M,10.00,M,CLR,M,M,M,M,M,M,M,M,M,M,M,M,M,M,83.22,KBVU 211315Z AUTO 00000KT 10SM CLR 30/08 A2991 RMK AO2,M
CXP,2023-07-21 13:15,-119.7326,39.1923,1431.00,59.00,39.20,47.72,0.00,0.00,0.00,30.25,M,10.00,M,CLR,M,M,M,M,M,M,M,M,M,M,M,M,M,M,59.00,KCXP 211315Z AUTO 00000KT 10SM CLR 15/04 A3025 RMK AO2,M
RTS,2023-07-21 13:15,-119.8764,39.6682,1539.00,51.80,33.80,50.08,0.00,0.00,0.00,30.26,M,8.00,M,CLR,M,M,M,M,M,M,M,M,M,M,M,M,M,M,51.80,KRTS 211315Z AUTO 00000KT 8SM CLR 11/01 A3026 RMK AO2,M
05U,2023-07-21 13:15,-116.0051,39.6042,1811.23,59.00,35.60,41.42,M,M,0.00,30.32,M,10.00,M,M,M,M,M,M,M,M,M,M,M,M,M,M,M,M,59.00,K05U 211315Z AUTO 10SM 15/02 A3032 RMK A01,M
MEV,2023-07-21 13:15,-119.7500,38.9963,1441.42,50.00,39.20,66.27,0.00,0.00,0.00,30.24,M,10.00,M,CLR,M,M,M,M,M,M,M,M,M,M,M,M,M,M,50.00,KMEV 211315Z AUTO 00000KT 10SM CLR 10/04 A3024 RMK AO2,M
HTH,2023-07-21 13:15,-118.6315,38.5448,1282.89,66.20,50.00,55.88,0.00,0.00,0.00,30.19,M,10.00,M,CLR,M,M,M,M,M,M,M,M,M,M,M,M,M,M,66.20,KHTH 211315Z AUTO 00000KT 10SM CLR 19/10 A3019 RMK A01,M
10U,2023-07-21 13:15,-116.1876,41.9532,1637.00,50.00,35.60,57.52,120.00,4.00,0.00,30.27,M,10.00,M,CLR,M,M,M,M,M,M,M,M,M,M,M,M,M,M,50.00,K10U 211315Z AUTO 12004KT 10SM CLR 10/02 A3027 RMK AO2,M
BAM,2023-07-21 13:15,-116.8743,40.5990,1382.36,55.40,28.40,35.28,270.00,3.00,0.00,30.21,M,10.00,M,CLR,M,M,M,M,M,M,M,M,M,M,M,M,M,M,55.40,KBAM 211315Z AUTO 27003KT 10SM CLR 13/M02 A3021 RMK AO1,M
TMT,2023-07-21 13:15,-117.1971,39.4643,1749.34,48.60,41.00,74.88,270.00,3.00,0.00,30.30,M,10.00,M,CLR,M,M,M,M,M,M,M,M,M,M,M,M,M,M,47.67,KTMT 211315Z AUTO 27003KT 10SM CLR 09/05 A3030 RMK AO2 T00920050,M
05U,2023-07-21 13:30,-116.0051,39.6042,1811.23,60.80,35.60,38.85,M,M,0.00,30.32,M,10.00,M,M,M,M,M,M,M,M,M,M,M,M,M,M,M,M,60.80,K05U 211330Z AUTO 10SM 16/02 A3032 RMK A01,M
BVU,2023-07-21 13:35,-114.8611,35.9475,671.00,89.60,42.80,19.64,0.00,0.00,0.00,29.91,M,10.00,M,CLR,M,M,M,M,M,M,M,M,M,M,M,M,M,M,85.93,KBVU 211335Z AUTO 00000KT 10SM CLR 32/06 A2991 RMK AO2,M
CXP,2023-07-21 13:35,-119.7326,39.1923,1431.00,59.00,39.20,47.72,0.00,0.00,0.00,30.26,M,10.00,M,CLR,M,M,M,M,M,M,M,M,M,M,M,M,M,M,59.00,KCXP 211335Z AUTO 00000KT 10SM CLR 15/04 A3026 RMK AO2,M
RTS,2023-07-21 13:35,-119.8764,39.6682,1539.00,51.80,35.60,53.81,340.00,4.00,0.00,30.27,M,9.00,M,CLR,M,M,M,M,M,M,M,M,M,M,M,M,M,M,51.80,KRTS 211335Z AUTO 34004KT 9SM CLR 11/02 A3027 RMK AO2,M
MEV,2023-07-21 13:35,-119.7500,38.9963,1441.42,51.80,41.00,66.48,90.00,4.00,0.00,30.24,M,10.00,M,CLR,M,M,M,M,M,M,M,M,M,M,M,M,M,M,51.80,KMEV 211335Z AUTO 09004KT 10SM CLR 11/05 A3024 RMK AO2,M
HTH,2023-07-21 13:35,-118.6315,38.5448,1282.89,68.00,50.00,52.51,0.00,0.00,0.00,30.19,M,10.00,M,CLR,M,M,M,M,M,M,M,M,M,M,M,M,M,M,68.00,KHTH 211335Z AUTO 00000KT 10SM CLR 20/10 A3019 RMK A01,M
10U,2023-07-21 13:35,-116.1876,41.9532,1637.00,55.40,39.20,54.34,0.00,0.00,0.00,30.27,M,10.00,M,CLR,M,M,M,M,M,M,M,M,M,M,M,M,M,M,55.40,K10U 211335Z AUTO 00000KT 10SM CLR 13/04 A3027 RMK AO2,M
BAM,2023-07-21 13:35,-116.8743,40.5990,1382.36,62.60,30.20,29.35,30.00,5.00,0.00,30.22,M,10.00,M,CLR,M,M,M,M,M,M,M,M,M,M,M,M,M,M,62.60,KBAM 211335Z AUTO 03005KT 10SM CLR 17/M01 A3022 RMK AO1,M
TMT,2023-07-21 13:35,-117.1971,39.4643,1749.34,49.60,42.00,74.98,0.00,0.00,0.00,30.31,M,10.00,M,CLR,M,M,M,M,M,M,M,M,M,M,M,M,M,M,49.60,KTMT 211335Z AUTO 00000KT 10SM CLR 10/06 A3031 RMK AO2 T00980056,M
P68,2023-07-21 13:53,-116.0056,39.6014,1993.00,66.00,38.00,35.58,190.00,8.00,0.00,30.29,1016.40,M,M,M,M,M,M,M,M,M,M,M,M,M,M,M,M,M,66.00,KP68 211353Z AUTO 19008KT 19/03 A3029 RMK AO1 SLP164 T01890033,M
DRA,2023-07-21 13:53,-116.0278,36.6206,1009.00,81.00,37.00,20.65,0.00,0.00,0.00,30.03,1010.70,10.00,M,CLR,M,M,M,M,M,M,M,M,M,M,M,M,M,M,79.24,KDRA 211353Z AUTO 00000KT 10SM CLR 27/03 A3003 RMK AO2 SLP107 T02720028,M
ELY,2023-07-21 13:53,-114.8453,39.2950,1909.00,59.00,47.00,64.36,170.00,5.00,0.00,30.34,1016.60,10.00,M,CLR,M,M,M,M,M,M,M,M,M,M,M,M,M,M,59.00,KELY 211353Z AUTO 17005KT 10SM CLR 15/08 A3034 RMK AO2 SLP166 T01500083,M
VGT,2023-07-21 13:53,-115.1933,36.2111,667.00,93.00,44.00,18.49,190.00,4.00,0.00,29.92,1011.30,10.00,M,CLR,M,M,M,M,M,M,M,M,M,M,M,M,M,M,89.10,KVGT 211353Z 19004KT 10SM CLR 34/07 A2992 RMK AO2 SLP113 T03390067,M
LOL,2023-07-21 13:53,-118.5701,40.0684,1192.43,61.00,36.00,39.19,0.00,0.00,0.00,30.15,1016.60,10.00,M,CLR,M,M,M,M,M,M,M,M,M,M,M,M,M,M,61.00,KLOL 211353Z AUTO 00000KT 10SM CLR 16/02 A3015 RMK AO2 SLP166 T01610022,M
BVU,2023-07-21 13:55,-114.8611,35.9475,671.00,91.40,39.20,16.15,0.00,0.00,0.00,29.92,M,10.00,M,CLR,M,M,M,M,M,M,M,M,M,M,M,M,M,M,87.30,KBVU 211355Z AUTO 00000KT 10SM CLR 33/04 A2992 RMK AO2,M
CXP,2023-07-21 13:55,-119.7326,39.1923,1431.00,62.60,42.80,48.28,0.00,0.00,0.00,30.26,M,10.00,M,CLR,M,M,M,M,M,M,M,M,M,M,M,M,M,M,62.60,KCXP 211355Z AUTO 00000KT 10SM CLR 17/06 A3026 RMK AO2,M
RNO,2023-07-21 13:55,-119.7711,39.4839,1341.00,68.00,38.00,33.20,0.00,0.00,0.00,30.23,1017.20,10.00,M,CLR,M,M,M,M,M,M,M,M,M,M,M,M,M,M,68.00,KRNO 211355Z 00000KT 10SM CLR 20/03 A3023 RMK AO2 SLP172 T02000033,M
RTS,2023-07-21 13:55,-119.8764,39.6682,1539.00,57.20,35.60,44.19,350.00,4.00,0.00,30.27,M,10.00,M,CLR,M,M,M,M,M,M,M,M,M,M,M,M,M,M,57.20,KRTS 211355Z AUTO 35004KT 10SM CLR 14/02 A3027 RMK AO2,M
05U,2023-07-21 13:55,-116.0051,39.6042,1811.23,66.20,39.20,37.03,M,M,0.00,30.32,M,10.00,M,M,M,M,M,M,M,M,M,M,M,M,M,M,M,M,66.20,K05U 211355Z AUTO 10SM 19/04 A3032 RMK A01,M
MEV,2023-07-21 13:55,-119.7500,38.9963,1441.42,55.40,44.60,66.91,0.00,0.00,0.00,30.25,M,10.00,M,CLR,M,M,M,M,M,M,M,M,M,M,M,M,M,M,55.40,KMEV 211355Z AUTO 00000KT 10SM CLR 13/07 A3025 RMK AO2,M
HTH,2023-07-21 13:55,-118.6315,38.5448,1282.89,71.60,51.80,49.64,210.00,4.00,0.00,30.19,M,10.00,M,CLR,M,M,M,M,M,M,M,M,M,M,M,M,M,M,71.60,KHTH 211355Z AUTO 21004KT 10SM CLR 22/11 A3019 RMK A01,M
TMT,2023-07-21 13:55,-117.1971,39.4643,1749.34,53.60,42.00,64.68,0.00,0.00,0.00,30.31,M,10.00,M,CLR,M,M,M,M,M,M,M,M,M,M,M,M,M,M,53.60,KTMT 211355Z AUTO 00000KT 10SM CLR 12/06 A3031 RMK AO2 T01200055,M
BAM,2023-07-21 13:55,-116.8743,40.5990,1382.36,60.80,32.00,33.64,0.00,0.00,0.00,30.22,M,10.00,M,CLR,M,M,M,M,M,M,M,M,M,M,M,M,M,M,60.80,KBAM 211355Z AUTO 00000KT 10SM CLR 16/00 A3022 RMK AO1,M
10U,2023-07-21 13:55,-116.1876,41.9532,1637.00,60.80,39.20,44.76,0.00,0.00,0.00,30.27,M,10.00,M,CLR,M,M,M,M,M,M,M,M,M,M,M,M,M,M,60.80,K10U 211355Z AUTO 00000KT 10SM CLR 16/04 A3027 RMK AO2,M
EKO,2023-07-21 13:56,-115.7860,40.8242,1367.00,61.00,42.00,49.54,90.00,6.00,0.00,30.25,1017.90,10.00,M,CLR,M,M,M,M,M,M,M,M,M,M,M,M,M,M,61.00,KEKO 211356Z AUTO 09006KT 10SM CLR 16/06 A3025 RMK AO2 SLP179 T01610056,M
WMC,2023-07-21 13:56,-117.8072,40.9019,1315.00,M,M,M,M,M,0.00,30.19,M,M,M,M,M,M,M,M,M,M,M,M,M,M,M,M,M,M,M,KWMC 211356Z AUTO A3019 RMK AO2 SLPNO PWINO FZRANO $,M
NFL,2023-07-21 13:56,-118.7010,39.4166,1199.00,69.00,41.00,36.06,140.00,4.00,0.00,30.15,1017.50,10.00,M,CLR,M,M,M,M,M,M,M,M,M,M,M,M,M,M,69.00,KNFL 211356Z AUTO 14004KT 10SM CLR 21/05 A3015 RMK AO2 SLP175 T02060050,M
HND,2023-07-21 13:56,-115.1344,35.9729,742.79,91.00,41.00,17.54,180.00,6.00,0.00,29.97,1012.60,10.00,M,CLR,M,M,M,M,M,M,M,M,M,M,M,M,M,M,87.04,KHND 211356Z 18006KT 10SM CLR 33/05 A2997 RMK AO2 SLP126 T03280050,M
TPH,2023-07-21 13:56,-117.0904,38.0505,1654.00,71.00,39.00,31.16,10.00,5.00,0.00,30.26,1014.90,10.00,M,CLR,M,M,M,M,M,M,M,M,M,M,M,M,M,M,71.00,KTPH 211356Z AUTO 01005KT 10SM CLR 22/04 A3026 RMK AO2 SLP149 T02170039 $,M
LAS,2023-07-21 13:56,-115.1634,36.0719,663.00,91.00,41.00,17.54,200.00,3.00,0.00,29.93,1009.90,10.00,M,FEW,M,M,M,15000.00,M,M,M,M,M,M,M,M,M,M,87.04,KLAS 211356Z 20003KT 10SM FEW150 33/05 A2993 RMK AO2 SLP099 T03280050,M
BVU,2023-07-21 14:15,-114.8611,35.9475,671.00,93.20,46.40,20.13,0.00,0.00,0.00,29.92,M,10.00,M,CLR,M,M,M,M,M,M,M,M,M,M,M,M,M,M,89.55,KBVU 211415Z AUTO 00000KT 10SM CLR 34/08 A2992 RMK AO2,M
CXP,2023-07-21 14:15,-119.7326,39.1923,1431.00,64.40,41.00,42.28,0.00,0.00,0.00,30.26,M,10.00,M,CLR,M,M,M,M,M,M,M,M,M,M,M,M,M,M,64.40,KCXP 211415Z AUTO 00000KT 10SM CLR 18/05 A3026 RMK AO2,M
RTS,2023-07-21 14:15,-119.8764,39.6682,1539.00,60.80,37.40,41.71,0.00,0.00,0.00,30.27,M,10.00,M,CLR,M,M,M,M,M,M,M,M,M,M,M,M,M,M,60.80,KRTS 211415Z AUTO 00000KT 10SM CLR 16/03 A3027 RMK AO2,M
05U,2023-07-21 14:15,-116.0051,39.6042,1811.23,68.00,42.80,40.00,M,M,0.00,30.32,M,10.00,M,M,M,M,M,M,M,M,M,M,M,M,M,M,M,M,68.00,K05U 211415Z AUTO 10SM 20/06 A3032 RMK A01,M
MEV,2023-07-21 14:15,-119.7500,38.9963,1441.42,60.80,46.40,59.01,0.00,0.00,0.00,30.25,M,10.00,M,CLR,M,M,M,M,M,M,M,M,M,M,M,M,M,M,60.80,KMEV 211415Z AUTO 00000KT 10SM CLR 16/08 A3025 RMK AO2,M
HTH,2023-07-21 14:15,-118.6315,38.5448,1282.89,69.80,50.00,49.37,0.00,0.00,0.00,30.19,M,10.00,M,CLR,M,M,M,M,M,M,M,M,M,M,M,M,M,M,69.80,KHTH 211415Z AUTO 00000KT 10SM CLR 21/10 A3019 RMK A01,M
TMT,2023-07-21 14:15,-117.1971,39.4643,1749.34,55.00,42.60,62.89,0.00,0.00,0.00,30.31,M,10.00,M,CLR,M,M,M,M,M,M,M,M,M,M,M,M,M,M,55.00,KTMT 211415Z AUTO 00000KT 10SM CLR 13/06 A3031 RMK AO2 T01270059,M
10U,2023-07-21 14:15,-116.1876,41.9532,1637.00,62.60,35.60,36.45,140.00,5.00,0.00,30.27,M,10.00,M,CLR,M,M,M,M,M,M,M,M,M,M,M,M,M,M,62.60,K10U 211415Z AUTO 14005KT 10SM CLR 17/02 A3027 RMK AO2,M
BAM,2023-07-21 14:15,-116.8743,40.5990,1382.36,62.60,33.80,33.93,0.00,0.00,0.00,30.22,M,10.00,M,CLR,M,M,M,M,M,M,M,M,M,M,M,M,M,M,62.60,KBAM 211415Z AUTO 00000KT 10SM CLR 17/01 A3022 RMK AO1,M
BVU,2023-07-21 14:35,-114.8611,35.9475,671.00,95.00,39.20,14.44,150.00,4.00,0.00,29.92,M,10.00,M,CLR,M,M,M,M,M,M,M,M,M,M,M,M,M,M,90.57,KBVU 211435Z AUTO 15004KT 10SM CLR 35/04 A2992 RMK AO2,M
CXP,2023-07-21 14:35,-119.7326,39.1923,1431.00,66.20,39.20,37.03,0.00,0.00,0.00,30.26,M,10.00,M,CLR,M,M,M,M,M,M,M,M,M,M,M,M,M,M,66.20,KCXP 211435Z AUTO 00000KT 10SM CLR 19/04 A3026 RMK AO2,M
RTS,2023-07-21 14:35,-119.8764,39.6682,1539.00,64.40,39.20,39.43,0.00,0.00,0.00,30.27,M,10.00,M,CLR,M,M,M,M,M,M,M,M,M,M,M,M,M,M,64.40,KRTS 211435Z AUTO 00000KT 10SM CLR 18/04 A3027 RMK AO2,M
05U,2023-07-21 14:35,-116.0051,39.6042,1811.23,73.40,41.00,31.05,M,M,0.00,30.32,M,10.00,M,M,M,M,M,M,M,M,M,M,M,M,M,M,M,M,73.40,K05U 211435Z AUTO 10SM 23/05 A3032 RMK A01,M
MEV,2023-07-21 14:35,-119.7500,38.9963,1441.42,64.40,42.80,45.32,0.00,0.00,0.00,30.25,M,10.00,M,CLR,M,M,M,M,M,M,M,M,M,M,M,M,M,M,64.40,KMEV 211435Z AUTO 00000KT 10SM CLR 18/06 A3025 RMK AO2,M
HTH,2023-07-21 14:35,-118.6315,38.5448,1282.89,73.40,48.20,40.85,0.00,0.00,0.00,30.19,M,10.00,M,CLR,M,M,M,M,M,M,M,M,M,M,M,M,M,M,73.40,KHTH 211435Z AUTO 00000KT 10SM CLR 23/09 A3019 RMK A01,M
TMT,2023-07-21 14:35,-117.1971,39.4643,1749.34,60.00,43.00,53.34,0.00,0.00,0.00,30.31,M,10.00,M,CLR,M,M,M,M,M,M,M,M,M,M,M,M,M,M,60.00,KTMT 211435Z AUTO 00000KT 10SM CLR 16/06 A3031 RMK AO2 T01560062,M
10U,2023-07-21 14:35,-116.1876,41.9532,1637.00,68.00,35.60,30.20,130.00,5.00,0.00,30.27,M,10.00,M,CLR,M,M,M,M,M,M,M,M,M,M,M,M,M,M,68.00,K10U 211435Z AUTO 13005KT 10SM CLR 20/02 A3027 RMK AO2,M
BAM,2023-07-21 14:35,-116.8743,40.5990,1382.36,64.40,35.60,34.22,0.00,0.00,0.00,30.22,M,10.00,M,CLR,M,M,M,M,M,M,M,M,M,M,M,M,M,M,64.40,KBAM 211435Z AUTO 00000KT 10SM CLR 18/02 A3022 RMK AO1,M
NFL,2023-07-21 14:40,-118.7010,39.4166,1199.00,75.00,40.00,28.31,170.00,5.00,0.00,30.16,M,10.00,M,CLR,M,M,M,M,M,M,M,M,M,M,M,M,M,M,75.00,KNFL 211440Z 17005KT 10SM CLR 24/04 A3016 RMK AO2 T02390044,M
P68,2023-07-21 14:53,-116.0056,39.6014,1993.00,72.00,42.00,33.84,210.00,6.00,0.00,30.30,1016.60,M,M,M,M,M,M,M,M,M,M,M,M,M,M,M,M,M,72.00,KP68 211453Z AUTO 21006KT 22/06 A3030 RMK AO1 SLP166 T02220056 51005,M
DRA,2023-07-21 14:53,-116.0278,36.6206,1009.00,88.00,39.00,17.83,0.00,0.00,0.00,30.04,1010.90,10.00,M,CLR,M,M,M,M,M,M,M,M,M,M,M,M,M,M,84.38,KDRA 211453Z AUTO 00000KT 10SM CLR 31/04 A3004 RMK AO2 SLP109 T03110039 52007,M
ELY,2023-07-21 14:53,-114.8453,39.2950,1909.00,71.00,51.00,49.18,M,4.00,0.00,30.33,1015.70,10.00,M,CLR,M,M,M,M,M,M,M,M,M,M,M,M,M,M,71.00,KELY 211453Z AUTO VRB04KT 10SM CLR 22/11 A3033 RMK AO2 SLP157 T02170106 50003,M
VGT,2023-07-21 14:53,-115.1933,36.2111,667.00,98.00,42.00,14.68,70.00,3.00,0.00,29.93,1011.60,10.00,M,CLR,M,M,M,M,M,M,M,M,M,M,M,M,M,M,93.63,KVGT 211453Z 07003KT 10SM CLR 37/06 A2993 RMK AO2 SLP116 T03670056 52014,M
LOL,2023-07-21 14:53,-118.5701,40.0684,1192.43,72.00,35.00,25.73,0.00,0.00,0.00,30.16,1016.30,10.00,M,CLR,M,M,M,M,M,M,M,M,M,M,M,M,M,M,72.00,KLOL 211453Z AUTO 00000KT 10SM CLR 22/02 A3016 RMK AO2 SLP163 T02220017 51008,M
BVU,2023-07-21 14:55,-114.8611,35.9475,671.00,95.00,39.20,14.44,0.00,0.00,0.00,29.92,M,10.00,M,CLR,M,M,M,M,M,M,M,M,M,M,M,M,M,M,90.57,KBVU 211455Z AUTO 00000KT 10SM CLR 35/04 A2992 RMK AO2,M
CXP,2023-07-21 14:55,-119.7326,39.1923,1431.00,68.00,41.00,37.32,0.00,0.00,0.00,30.26,M,10.00,M,CLR,M,M,M,M,M,M,M,M,M,M,M,M,M,M,68.00,KCXP 211455Z AUTO 00000KT 10SM CLR 20/05 A3026 RMK AO2,M
INS,2023-07-21 14:55,-115.6733,36.5872,955.00,89.20,33.80,13.98,0.00,0.00,0.00,30.02,1010.60,10.00,M,CLR,M,M,M,M,M,M,M,M,M,M,M,M,M,M,85.25,KINS 211455Z AUTO 00000KT 10SM CLR 32/01 A3002 RMK AO2 SLP106 T03180010 52009 $,M
RNO,2023-07-21 14:55,-119.7711,39.4839,1341.00,71.00,39.00,31.16,260.00,3.00,0.00,30.22,1017.10,10.00,M,CLR,M,M,M,M,M,M,M,M,M,M,M,M,M,M,71.00,KRNO 211455Z 26003KT 10SM CLR 22/04 A3022 RMK AO2 SLP171 T02170039 50005,M
LSV,2023-07-21 14:55,-115.0343,36.2362,570.00,95.70,42.30,15.94,0.00,0.00,0.00,29.89,1009.00,10.00,M,CLR,M,M,M,M,M,M,M,M,M,M,M,M,M,M,91.47,KLSV 211455Z AUTO 00000KT 10SM CLR 35/06 A2989 RMK AO2 SLP090 T03540057 $,M
RTS,2023-07-21 14:55,-119.8764,39.6682,1539.00,66.20,39.20,37.03,0.00,0.00,0.00,30.27,M,10.00,M,CLR,M,M,M,M,M,M,M,M,M,M,M,M,M,M,66.20,KRTS 211455Z AUTO 00000KT 10SM CLR 19/04 A3027 RMK AO2,M
05U,2023-07-21 14:55,-116.0051,39.6042,1811.23,75.20,42.80,31.34,M,M,0.00,30.33,M,10.00,M,M,M,M,M,M,M,M,M,M,M,M,M,M,M,M,75.20,K05U 211455Z AUTO 10SM 24/06 A3033 RMK A01,M
MEV,2023-07-21 14:55,-119.7500,38.9963,1441.42,68.00,42.80,40.00,0.00,0.00,0.00,30.25,M,10.00,M,CLR,M,M,M,M,M,M,M,M,M,M,M,M,M,M,68.00,KMEV 211455Z AUTO 00000KT 10SM CLR 20/06 A3025 RMK AO2,M
HTH,2023-07-21 14:55,-118.6315,38.5448,1282.89,75.20,46.40,35.94,0.00,0.00,0.00,30.20,M,10.00,M,CLR,M,M,M,M,M,M,M,M,M,M,M,M,M,M,75.20,KHTH 211455Z AUTO 00000KT 10SM CLR 24/08 A3020 RMK A01,M
TMT,2023-07-21 14:55,-117.1971,39.4643,1749.34,64.00,41.50,43.72,0.00,0.00,0.00,30.31,M,10.00,M,CLR,M,M,M,M,M,M,M,M,M,M,M,M,M,M,64.00,KTMT 211455Z AUTO 00000KT 10SM CLR 18/05 A3031 RMK AO2 T01780053,M
BAM,2023-07-21 14:55,-116.8743,40.5990,1382.36,68.00,32.00,26.15,0.00,0.00,0.00,30.23,M,10.00,M,CLR,M,M,M,M,M,M,M,M,M,M,M,M,M,M,68.00,KBAM 211455Z AUTO 00000KT 10SM CLR 20/00 A3023 RMK AO1,M
10U,2023-07-21 14:55,-116.1876,41.9532,1637.00,69.80,35.60,28.39,140.00,7.00,0.00,30.27,M,10.00,M,CLR,M,M,M,M,M,M,M,M,M,M,M,M,M,M,69.80,K10U 211455Z AUTO 14007KT 10SM CLR 21/02 A3027 RMK AO2,M
EKO,2023-07-21 14:56,-115.7860,40.8242,1367.00,68.00,42.00,38.79,80.00,3.00,0.00,30.25,1018.10,10.00,M,CLR,M,M,M,M,M,M,M,M,M,M,M,M,M,M,68.00,KEKO 211456Z AUTO 08003KT 10SM CLR 20/06 A3025 RMK AO2 SLP181 T02000056 51011,M
WMC,2023-07-21 14:56,-117.8072,40.9019,1315.00,M,M,M,M,M,0.00,30.19,M,M,M,M,M,M,M,M,M,M,M,M,M,M,M,M,M,M,M,KWMC 211456Z AUTO A3019 RMK AO2 SLPNO 51009 PWINO FZRANO $,M
NFL,2023-07-21 14:56,-118.7010,39.4166,1199.00,78.00,40.00,25.62,150.00,3.00,0.00,30.16,1017.80,10.00,M,CLR,M,M,M,M,M,M,M,M,M,M,M,M,M,M,78.00,KNFL 211456Z 15003KT 10SM CLR 26/04 A3016 RMK AO2 SLP178 T02560044 51010,M
HND,2023-07-21 14:56,-115.1344,35.9729,742.79,96.00,42.00,15.61,210.00,6.00,0.00,29.98,1012.70,10.00,M,CLR,M,M,M,M,M,M,M,M,M,M,M,M,M,M,91.73,KHND 211456Z 21006KT 10SM CLR 36/06 A2998 RMK AO2 SLP127 T03560056 51012,M
TPH,2023-07-21 14:56,-117.0904,38.0505,1654.00,79.00,41.00,25.78,M,M,0.00,30.26,1014.50,10.00,M,CLR,M,M,M,M,M,M,M,M,M,M,M,M,M,M,79.00,KTPH 211456Z AUTO 10SM CLR 26/05 A3026 RMK AO2 SLP145 T02610050 51009 $,M
LAS,2023-07-21 14:56,-115.1634,36.0719,663.00,96.00,42.00,15.61,0.00,0.00,0.00,29.94,1010.20,10.00,M,FEW,M,M,M,22000.00,M,M,M,M,M,M,M,M,M,M,91.73,KLAS 211456Z 00000KT 10SM FEW220 36/06 A2994 RMK AO2 SLP102 T03560056 53013,M
10U,2023-07-21 15:10,-116.1876,41.9532,1637.00,71.60,37.40,28.68,120.00,6.00,0.00,30.27,M,10.00,M,CLR,M,M,M,M,M,M,M,M,M,M,M,M,M,M,71.60,K10U 211510Z AUTO 12006KT 10SM CLR 22/03 A3027 RMK AO2,M
BVU,2023-07-21 15:15,-114.8611,35.9475,671.00,98.60,37.40,12.05,0.00,0.00,0.00,29.92,M,10.00,M,CLR,M,M,M,M,M,M,M,M,M,M,M,M,M,M,93.54,KBVU 211515Z AUTO 00000KT 10SM CLR 37/03 A2992 RMK AO2,M
CXP,2023-07-21 15:15,-119.7326,39.1923,1431.00,69.80,41.00,35.09,0.00,0.00,0.00,30.26,M,10.00,M,CLR,M,M,M,M,M,M,M,M,M,M,M,M,M,M,69.80,KCXP 211515Z AUTO 00000KT 10SM CLR 21/05 A3026 RMK AO2,M
RTS,2023-07-21 15:15,-119.8764,39.6682,1539.00,68.00,39.20,34.80,0.00,0.00,0.00,30.27,M,10.00,M,CLR,M,M,M,M,M,M,M,M,M,M,M,M,M,M,68.00,KRTS 211515Z AUTO 00000KT 10SM CLR 20/04 A3027 RMK AO2,M
05U,2023-07-21 15:15,-116.0051,39.6042,1811.23,78.80,41.00,25.95,M,M,0.00,30.33,M,10.00,M,M,M,M,M,M,M,M,M,M,M,M,M,M,M,M,78.80,K05U 211515Z AUTO 10SM 26/05 A3033 RMK A01,M
MEV,2023-07-21 15:15,-119.7500,38.9963,1441.42,69.80,41.00,35.09,0.00,0.00,0.00,30.24,M,9.00,M,CLR,M,M,M,M,M,M,M,M,M,M,M,M,M,M,69.80,KMEV 211515Z AUTO 00000KT 9SM CLR 21/05 A3024 RMK AO2,M
HTH,2023-07-21 15:15,-118.6315,38.5448,1282.89,75.20,48.20,38.46,250.00,3.00,0.00,30.20,M,10.00,M,CLR,M,M,M,M,M,M,M,M,M,M,M,M,M,M,75.20,KHTH 211515Z AUTO 25003KT 10SM CLR 24/09 A3020 RMK A01,M
TMT,2023-07-21 15:15,-117.1971,39.4643,1749.34,67.00,42.30,40.62,0.00,0.00,0.00,30.31,M,10.00,M,CLR,M,M,M,M,M,M,M,M,M,M,M,M,M,M,67.00,KTMT 211515Z AUTO 00000KT 10SM CLR 20/06 A3031 RMK AO2 T01950057,M
BAM,2023-07-21 15:15,-116.8743,40.5990,1382.36,69.80,30.20,22.86,0.00,0.00,0.00,30.23,M,10.00,M,CLR,M,M,M,M,M,M,M,M,M,M,M,M,M,M,69.80,KBAM 211515Z AUTO 00000KT 10SM CLR 21/M01 A3023 RMK AO1,M
BVU,2023-07-21 15:35,-114.8611,35.9475,671.00,100.40,39.20,12.25,310.00,8.00,0.00,29.92,M,10.00,M,CLR,M,M,M,M,M,M,M,M,M,M,M,M,M,M,95.43,KBVU 211535Z AUTO 31008KT 10SM CLR 38/04 A2992 RMK AO2,M
CXP,2023-07-21 15:35,-119.7326,39.1923,1431.00,71.60,41.00,33.00,0.00,0.00,0.00,30.26,M,10.00,M,CLR,M,M,M,M,M,M,M,M,M,M,M,M,M,M,71.60,KCXP 211535Z AUTO 00000KT 10SM CLR 22/05 A3026 RMK AO2,M
RTS,2023-07-21 15:35,-119.8764,39.6682,1539.00,71.60,37.40,28.68,0.00,0.00,0.00,30.27,M,10.00,M,CLR,M,M,M,M,M,M,M,M,M,M,M,M,M,M,71.60,KRTS 211535Z AUTO 00000KT 10SM CLR 22/03 A3027 RMK AO2,M
05U,2023-07-21 15:35,-116.0051,39.6042,1811.23,80.60,32.00,17.14,M,M,0.00,30.33,M,10.00,M,M,M,M,M,M,M,M,M,M,M,M,M,M,M,M,78.82,K05U 211535Z AUTO 10SM 27/00 A3033 RMK A01,M
MEV,2023-07-21 15:35,-119.7500,38.9963,1441.42,69.80,41.00,35.09,0.00,0.00,0.00,30.24,M,10.00,M,CLR,M,M,M,M,M,M,M,M,M,M,M,M,M,M,69.80,KMEV 211535Z AUTO 00000KT 10SM CLR 21/05 A3024 RMK AO2,M
HTH,2023-07-21 15:35,-118.6315,38.5448,1282.89,75.20,46.40,35.94,0.00,0.00,0.00,30.20,M,10.00,M,CLR,M,M,M,M,M,M,M,M,M,M,M,M,M,M,75.20,KHTH 211535Z AUTO 00000KT 10SM CLR 24/08 A3020 RMK A01,M
TMT,2023-07-21 15:35,-117.1971,39.4643,1749.34,70.50,42.00,35.61,0.00,0.00,0.00,30.31,M,10.00,M,CLR,M,M,M,M,M,M,M,M,M,M,M,M,M,M,70.50,KTMT 211535Z AUTO 00000KT 10SM CLR 21/06 A3031 RMK AO2 T02140056,M
BAM,2023-07-21 15:35,-116.8743,40.5990,1382.36,73.40,32.00,21.76,0.00,0.00,0.00,30.22,M,10.00,M,CLR,M,M,M,M,M,M,M,M,M,M,M,M,M,M,73.40,KBAM 211535Z AUTO 00000KT 10SM CLR 23/00 A3022 RMK AO1,M
P68,2023-07-21 15:53,-116.0056,39.6014,1993.00,81.00,33.00,17.61,M,3.00,0.00,30.30,1016.10,M,M,M,M,M,M,M,M,M,M,M,M,M,M,M,M,M,79.10,KP68 211553Z AUTO VRB03KT 27/01 A3030 RMK AO1 SLP161 T02720006,M
DRA,2023-07-21 15:53,-116.0278,36.6206,1009.00,96.00,40.00,14.45,340.00,3.00,0.00,30.04,1011.00,10.00,M,CLR,M,M,M,M,M,M,M,M,M,M,M,M,M,M,91.55,KDRA 211553Z AUTO 34003KT 10SM CLR 36/04 A3004 RMK AO2 SLP110 T03560044,M
ELY,2023-07-21 15:53,-114.8453,39.2950,1909.00,81.00,48.00,31.52,200.00,8.00,0.00,30.33,1015.30,10.00,M,CLR,M,M,M,M,M,M,M,M,M,M,M,M,M,M,79.92,KELY 211553Z AUTO 20008KT 10SM CLR 27/09 A3033 RMK AO2 SLP153 T02720089,M
VGT,2023-07-21 15:53,-115.1933,36.2111,667.00,102.00,41.00,12.52,350.00,5.00,0.00,29.93,1011.60,10.00,M,CLR,M,M,M,M,M,M,M,M,M,M,M,M,M,M,97.21,KVGT 211553Z 35005KT 10SM CLR 39/05 A2993 RMK AO2 SLP116 T03890050,M
LOL,2023-07-21 15:53,-118.5701,40.0684,1192.43,81.00,32.00,16.92,70.00,3.00,0.00,30.16,1016.50,10.00,M,CLR,M,M,M,M,M,M,M,M,M,M,M,M,M,M,79.07,KLOL 211553Z AUTO 07003KT 10SM CLR 27/00 A3016 RMK AO2 SLP165 T02720000,M
BVU,2023-07-21 15:55,-114.8611,35.9475,671.00,102.20,37.40,10.81,340.00,5.00,0.00,29.93,M,10.00,10.00,CLR,M,M,M,M,M,M,M,M,M,M,M,M,M,M,96.63,KBVU 211555Z AUTO 34005G10KT 10SM CLR 39/03 A2993 RMK AO2,M
CXP,2023-07-21 15:55,-119.7326,39.1923,1431.00,73.40,41.00,31.05,0.00,0.00,0.00,30.25,M,10.00,M,CLR,M,M,M,M,M,M,M,M,M,M,M,M,M,M,73.40,KCXP 211555Z AUTO 00000KT 10SM CLR 23/05 A3025 RMK AO2,M
INS,2023-07-21 15:55,-115.6733,36.5872,955.00,92.00,34.00,12.91,0.00,0.00,0.00,30.02,1010.70,10.00,M,CLR,M,M,M,M,M,M,M,M,M,M,M,M,M,M,87.64,KINS 211555Z AUTO 00000KT 10SM CLR 33/01 A3002 RMK AO2 SLP107 T03330011 $,M
RNO,2023-07-21 15:55,-119.7711,39.4839,1341.00,74.00,39.00,28.16,0.00,0.00,0.00,30.22,1016.90,10.00,M,CLR,M,M,M,M,M,M,M,M,M,M,M,M,M,M,74.00,KRNO 211555Z 00000KT 10SM CLR 23/04 A3022 RMK AO2 SLP169 T02330039,M
LSV,2023-07-21 15:55,-115.0343,36.2362,570.00,103.30,42.80,12.91,0.00,0.00,0.00,29.88,1008.40,10.00,M,CLR,M,M,M,M,M,M,M,M,M,M,M,M,M,M,98.80,KLSV 211555Z AUTO 00000KT 10SM CLR 40/06 A2988 RMK AO2 SLP084 T03960060 $,M
RTS,2023-07-21 15:55,-119.8764,39.6682,1539.00,73.40,37.40,26.98,0.00,0.00,0.00,30.26,M,10.00,M,CLR,M,M,M,M,M,M,M,M,M,M,M,M,M,M,73.40,KRTS 211555Z AUTO 00000KT 10SM CLR 23/03 A3026 RMK AO2,M
05U,2023-07-21 15:55,-116.0051,39.6042,1811.23,84.20,32.00,15.25,M,M,0.00,30.33,M,10.00,M,M,M,M,M,M,M,M,M,M,M,M,M,M,M,M,81.28,K05U 211555Z AUTO 10SM 29/M00 A3033 RMK A01,M
MEV,2023-07-21 15:55,-119.7500,38.9963,1441.42,71.60,44.60,37.89,M,3.00,0.00,30.24,M,10.00,M,CLR,M,M,M,M,M,M,M,M,M,M,M,M,M,M,71.60,KMEV 211555Z AUTO VRB03KT 10SM CLR 22/07 A3024 RMK AO2,M
HTH,2023-07-21 15:55,-118.6315,38.5448,1282.89,77.00,44.60,31.62,0.00,0.00,0.00,30.20,M,10.00,M,CLR,M,M,M,M,M,M,M,M,M,M,M,M,M,M,77.00,KHTH 211555Z AUTO 00000KT 10SM CLR 25/07 A3020 RMK A01,M
TMT,2023-07-21 15:55,-117.1971,39.4643,1749.34,70.30,46.60,42.73,310.00,4.00,0.00,30.31,M,10.00,M,CLR,M,M,M,M,M,M,M,M,M,M,M,M,M,M,70.30,KTMT 211555Z AUTO 31004KT 10SM CLR 21/08 A3031 RMK AO2 T02130081,M
BAM,2023-07-21 15:55,-116.8743,40.5990,1382.36,77.00,30.20,17.94,0.00,0.00,0.00,30.21,M,10.00,M,CLR,M,M,M,M,M,M,M,M,M,M,M,M,M,M,77.00,KBAM 211555Z AUTO 00000KT 10SM CLR 25/M01 A3021 RMK AO1,M
EKO,2023-07-21 15:56,-115.7860,40.8242,1367.00,75.00,45.00,34.31,50.00,4.00,0.00,30.26,1018.40,10.00,M,CLR,M,M,M,M,M,M,M,M,M,M,M,M,M,M,75.00,KEKO 211556Z AUTO 05004KT 10SM CLR 24/07 A3026 RMK AO2 SLP184 T02390072,M
WMC,2023-07-21 15:56,-117.8072,40.9019,1315.00,M,M,M,M,M,0.00,30.18,M,M,M,M,M,M,M,M,M,M,M,M,M,M,M,M,M,M,M,KWMC 211556Z AUTO A3018 RMK AO2 SLPNO PWINO FZRANO $,M
NFL,2023-07-21 15:56,-118.7010,39.4166,1199.00,83.00,42.00,23.51,220.00,3.00,0.00,30.16,1017.80,10.00,M,CLR,M,M,M,M,M,M,M,M,M,M,M,M,M,M,80.74,KNFL 211556Z 22003KT 10SM CLR 28/06 A3016 RMK AO2 SLP178 T02830056,M
HND,2023-07-21 15:56,-115.1344,35.9729,742.79,100.00,44.00,14.92,350.00,5.00,0.00,29.99,1013.00,10.00,M,CLR,M,M,M,M,M,M,M,M,M,M,M,M,M,M,95.83,KHND 211556Z 35005KT 10SM CLR 38/07 A2999 RMK AO2 SLP130 T03780067,M
TPH,2023-07-21 15:56,-117.0904,38.0505,1654.00,84.00,41.00,21.90,0.00,0.00,0.00,30.26,1014.70,10.00,M,CLR,M,M,M,M,M,M,M,M,M,M,M,M,M,M,81.37,KTPH 211556Z AUTO 00000KT 10SM CLR 29/05 A3026 RMK AO2 SLP147 T02890050 $,M
LAS,2023-07-21 15:56,-115.1634,36.0719,663.00,100.00,42.00,13.82,10.00,4.00,0.00,29.94,1010.30,10.00,M,FEW,FEW,M,M,14000.00,19000.00,M,M,M,M,M,M,M,M,M,95.54,KLAS 211556Z 01004KT 10SM FEW140 FEW190 38/06 A2994 RMK AO2 SLP103 T03780056,M
BVU,2023-07-21 16:15,-114.8611,35.9475,671.00,100.40,41.00,13.14,50.00,5.00,0.00,29.93,M,10.00,M,CLR,M,M,M,M,M,M,M,M,M,M,M,M,M,M,95.79,KBVU 211615Z AUTO 05005KT 10SM CLR 38/05 A2993 RMK AO2,M
CXP,2023-07-21 16:15,-119.7326,39.1923,1431.00,75.20,41.00,29.23,0.00,0.00,0.00,30.25,M,10.00,M,CLR,M,M,M,M,M,M,M,M,M,M,M,M,M,M,75.20,KCXP 211615Z AUTO 00000KT 10SM CLR 24/05 A3025 RMK AO2,M
RTS,2023-07-21 16:15,-119.8764,39.6682,1539.00,75.20,39.20,27.26,0.00,0.00,0.00,30.26,M,10.00,M,CLR,M,M,M,M,M,M,M,M,M,M,M,M,M,M,75.20,KRTS 211615Z AUTO 00000KT 10SM CLR 24/04 A3026 RMK AO2,M
05U,2023-07-21 16:15,-116.0051,39.6042,1811.23,84.20,30.20,14.18,0.00,0.00,0.00,30.33,M,10.00,M,M,M,M,M,M,M,M,M,M,M,M,M,M,M,M,81.26,K05U 211615Z AUTO 00000KT 10SM 29/M01 A3033 RMK A01,M
MEV,2023-07-21 16:15,-119.7500,38.9963,1441.42,73.40,42.80,33.29,0.00,0.00,0.00,30.24,M,10.00,M,CLR,M,M,M,M,M,M,M,M,M,M,M,M,M,M,73.40,KMEV 211615Z AUTO 00000KT 10SM CLR 23/06 A3024 RMK AO2,M
HTH,2023-07-21 16:15,-118.6315,38.5448,1282.89,80.60,42.80,26.22,0.00,0.00,0.00,30.20,M,10.00,M,CLR,M,M,M,M,M,M,M,M,M,M,M,M,M,M,79.30,KHTH 211615Z AUTO 00000KT 10SM CLR 27/06 A3020 RMK A01,M
TMT,2023-07-21 16:15,-117.1971,39.4643,1749.34,72.00,45.00,37.96,0.00,0.00,0.00,30.31,M,10.00,M,CLR,M,M,M,M,M,M,M,M,M,M,M,M,M,M,72.00,KTMT 211615Z AUTO 00000KT 10SM CLR 22/07 A3031 RMK AO2 T02230072,M
10U,2023-07-21 16:15,-116.1876,41.9532,1637.00,80.60,28.40,14.81,0.00,0.00,0.00,30.26,M,10.00,M,CLR,M,M,M,M,M,M,M,M,M,M,M,M,M,M,78.72,K10U 211615Z AUTO 00000KT 10SM CLR 27/M02 A3026 RMK AO2,M
BAM,2023-07-21 16:15,-116.8743,40.5990,1382.36,80.60,30.20,15.94,0.00,0.00,0.00,30.21,M,10.00,M,CLR,M,M,M,M,M,M,M,M,M,M,M,M,M,M,78.77,KBAM 211615Z AUTO 00000KT 10SM CLR 27/M01 A3021 RMK AO1,M
BVU,2023-07-21 16:35,-114.8611,35.9475,671.00,102.20,41.00,12.44,0.00,0.00,0.00,29.93,M,10.00,M,CLR,M,M,M,M,M,M,M,M,M,M,M,M,M,M,97.39,KBVU 211635Z AUTO 00000KT 10SM CLR 39/05 A2993 RMK AO2,M
CXP,2023-07-21 16:35,-119.7326,39.1923,1431.00,77.00,41.00,27.53,0.00,0.00,0.00,30.24,M,10.00,M,CLR,M,M,M,M,M,M,M,M,M,M,M,M,M,M,77.00,KCXP 211635Z AUTO 00000KT 10SM CLR 25/05 A3024 RMK AO2,M
RTS,2023-07-21 16:35,-119.8764,39.6682,1539.00,77.00,39.20,25.67,140.00,3.00,0.00,30.25,M,10.00,M,CLR,M,M,M,M,M,M,M,M,M,M,M,M,M,M,77.00,KRTS 211635Z AUTO 14003KT 10SM CLR 25/04 A3025 RMK AO2,M
05U,2023-07-21 16:35,-116.0051,39.6042,1811.23,86.00,30.20,13.38,M,M,0.00,30.33,M,10.00,M,M,M,M,M,M,M,M,M,M,M,M,M,M,M,M,82.64,K05U 211635Z AUTO 10SM 30/M01 A3033 RMK A01,M
MEV,2023-07-21 16:35,-119.7500,38.9963,1441.42,75.20,42.80,31.34,0.00,0.00,0.00,30.23,M,10.00,M,CLR,M,M,M,M,M,M,M,M,M,M,M,M,M,M,75.20,KMEV 211635Z AUTO 00000KT 10SM CLR 24/06 A3023 RMK AO2,M
HTH,2023-07-21 16:35,-118.6315,38.5448,1282.89,80.60,42.80,26.22,320.00,4.00,0.00,30.19,M,10.00,M,CLR,M,M,M,M,M,M,M,M,M,M,M,M,M,M,79.30,KHTH 211635Z AUTO 32004KT 10SM CLR 27/06 A3019 RMK A01,M
TMT,2023-07-21 16:35,-117.1971,39.4643,1749.34,75.20,44.20,33.06,0.00,0.00,0.00,30.30,M,10.00,M,CLR,M,M,M,M,M,M,M,M,M,M,M,M,M,M,75.20,KTMT 211635Z AUTO 00000KT 10SM CLR 24/07 A3030 RMK AO2 T02400068,M
10U,2023-07-21 16:35,-116.1876,41.9532,1637.00,84.20,28.40,13.18,0.00,0.00,0.00,30.26,M,M,M,CLR,M,M,M,M,M,M,M,M,M,M,M,M,M,M,81.25,K10U 211635Z AUTO 00000KT CLR 29/M02 A3026 RMK AO2,M
BAM,2023-07-21 16:35,-116.8743,40.5990,1382.36,82.40,26.60,12.97,0.00,0.00,0.00,30.21,M,10.00,M,CLR,M,M,M,M,M,M,M,M,M,M,M,M,M,M,79.92,KBAM 211635Z AUTO 00000KT 10SM CLR 28/M03 A3021 RMK AO1,M
P68,2023-07-21 16:53,-116.0056,39.6014,1993.00,86.00,26.00,11.27,M,3.00,0.00,30.29,1015.70,M,M,M,M,M,M,M,M,M,M,M,M,M,M,M,M,M,82.35,KP68 211653Z AUTO VRB03KT 30/M03 A3029 RMK AO1 SLP157 T03001033,M
DRA,2023-07-21 16:53,-116.0278,36.6206,1009.00,99.00,40.00,13.18,270.00,3.00,0.00,30.03,1010.60,10.00,M,CLR,M,M,M,M,M,M,M,M,M,M,M,M,M,M,94.36,KDRA 211653Z AUTO 27003KT 10SM CLR 37/04 A3003 RMK AO2 SLP106 T03720044,M
ELY,2023-07-21 16:53,-114.8453,39.2950,1909.00,86.00,46.00,24.88,210.00,6.00,0.00,30.32,1014.80,10.00,M,CLR,M,M,M,M,M,M,M,M,M,M,M,M,M,M,83.19,KELY 211653Z AUTO 21006KT 10SM CLR 30/08 A3032 RMK AO2 SLP148 T03000078,M
VGT,2023-07-21 16:53,-115.1933,36.2111,667.00,103.00,43.00,13.12,180.00,5.00,0.00,29.93,1011.50,10.00,M,CLR,M,M,M,M,M,M,M,M,M,M,M,M,M,M,98.56,KVGT 211653Z 18005KT 10SM CLR 39/06 A2993 RMK AO2 SLP115 T03940061,M
LOL,2023-07-21 16:53,-118.5701,40.0684,1192.43,86.00,32.00,14.40,100.00,4.00,0.00,30.15,1015.90,10.00,M,CLR,M,M,M,M,M,M,M,M,M,M,M,M,M,M,82.64,KLOL 211653Z AUTO 10004KT 10SM CLR 30/00 A3015 RMK AO2 SLP159 T03000000,M
BVU,2023-07-21 16:55,-114.8611,35.9475,671.00,102.20,39.20,11.60,M,3.00,0.00,29.93,M,10.00,M,CLR,M,M,M,M,M,M,M,M,M,M,M,M,M,M,96.99,KBVU 211655Z AUTO VRB03KT 10SM CLR 39/04 A2993 RMK AO2,M
CXP,2023-07-21 16:55,-119.7326,39.1923,1431.00,78.80,41.00,25.95,0.00,0.00,0.00,30.23,M,10.00,M,CLR,M,M,M,M,M,M,M,M,M,M,M,M,M,M,78.80,KCXP 211655Z AUTO 00000KT 10SM CLR 26/05 A3023 RMK AO2,M
INS,2023-07-21 16:55,-115.6733,36.5872,955.00,97.50,32.00,10.05,0.00,0.00,0.00,30.01,1010.20,10.00,M,CLR,M,M,M,M,M,M,M,M,M,M,M,M,M,M,91.77,KINS 211655Z AUTO 00000KT 10SM CLR 36/M00 A3001 RMK AO2 SLP102 T03641001 $,M
RNO,2023-07-21 16:55,-119.7711,39.4839,1341.00,81.00,38.00,21.48,0.00,0.00,0.00,30.20,1016.10,10.00,M,CLR,M,M,M,M,M,M,M,M,M,M,M,M,M,M,79.28,KRNO 211655Z 00000KT 10SM CLR 27/03 A3020 RMK AO2 SLP161 T02720033,M
LSV,2023-07-21 16:55,-115.0343,36.2362,570.00,109.20,43.00,10.93,270.00,3.00,0.00,29.88,M,10.00,M,CLR,M,M,M,M,M,M,M,M,M,M,M,M,M,M,104.12,KLSV 211655Z AUTO 27003KT 10SM CLR 43/06 A2988 RMK AO2 SLPNO T04290061 $,M
RTS,2023-07-21 16:55,-119.8764,39.6682,1539.00,78.80,33.80,19.55,0.00,0.00,0.00,30.25,M,10.00,M,CLR,M,M,M,M,M,M,M,M,M,M,M,M,M,M,78.80,KRTS 211655Z AUTO 00000KT 10SM CLR 26/01 A3025 RMK AO2,M
05U,2023-07-21 16:55,-116.0051,39.6042,1811.23,87.80,28.40,11.74,M,M,0.00,30.32,M,10.00,M,M,M,M,M,M,M,M,M,M,M,M,M,M,M,M,83.84,K05U 211655Z AUTO 10SM 31/M02 A3032 RMK A01,M
MEV,2023-07-21 16:55,-119.7500,38.9963,1441.42,77.00,42.80,29.51,0.00,0.00,0.00,30.22,M,10.00,M,CLR,M,M,M,M,M,M,M,M,M,M,M,M,M,M,77.00,KMEV 211655Z AUTO 00000KT 10SM CLR 25/06 A3022 RMK AO2,M
HTH,2023-07-21 16:55,-118.6315,38.5448,1282.89,82.40,42.80,24.72,M,5.00,0.00,30.19,M,10.00,M,CLR,M,M,M,M,M,M,M,M,M,M,M,M,M,M,80.39,KHTH 211655Z AUTO VRB05KT 10SM CLR 28/06 A3019 RMK A01,M
10U,2023-07-21 16:55,-116.1876,41.9532,1637.00,86.00,24.80,10.72,0.00,0.00,0.00,30.26,M,M,M,CLR,M,M,M,M,M,M,M,M,M,M,M,M,M,M,82.26,K10U 211655Z AUTO 00000KT CLR 30/M04 A3026 RMK AO2,M
BAM,2023-07-21 16:55,-116.8743,40.5990,1382.36,86.00,24.80,10.72,0.00,0.00,0.00,30.20,M,10.00,M,CLR,M,M,M,M,M,M,M,M,M,M,M,M,M,M,82.26,KBAM 211655Z AUTO 00000KT 10SM CLR 30/M04 A3020 RMK AO1,M
TMT,2023-07-21 16:55,-117.1971,39.4643,1749.34,77.40,42.30,28.57,0.00,0.00,0.00,30.29,M,10.00,M,CLR,M,M,M,M,M,M,M,M,M,M,M,M,M,M,77.40,KTMT 211655Z AUTO 00000KT 10SM CLR 25/06 A3029 RMK AO2 T02520057,M
EKO,2023-07-21 16:56,-115.7860,40.8242,1367.00,81.00,40.00,23.22,0.00,0.00,0.00,30.24,1017.70,10.00,M,CLR,M,M,M,M,M,M,M,M,M,M,M,M,M,M,79.38,KEKO 211656Z AUTO 00000KT 10SM CLR 27/04 A3024 RMK AO2 SLP177 T02720044,M
WMC,2023-07-21 16:56,-117.8072,40.9019,1315.00,M,M,M,M,M,0.00,30.17,M,M,M,M,M,M,M,M,M,M,M,M,M,M,M,M,M,M,M,KWMC 211656Z AUTO A3017 RMK AO2 SLPNO PWINO FZRANO $,M
NFL,2023-07-21 16:56,-118.7010,39.4166,1199.00,86.00,39.00,19.01,260.00,4.00,0.00,30.15,1017.40,10.00,M,CLR,M,M,M,M,M,M,M,M,M,M,M,M,M,M,82.78,KNFL 211656Z 26004KT 10SM CLR 30/04 A3015 RMK AO2 SLP174 T03000039,M
HND,2023-07-21 16:56,-115.1344,35.9729,742.79,103.00,47.00,15.28,350.00,4.00,0.00,29.99,1012.90,10.00,M,CLR,M,M,M,M,M,M,M,M,M,M,M,M,M,M,99.35,KHND 211656Z 35004KT 10SM CLR 39/08 A2999 RMK AO2 SLP129 T03940083,M
TPH,2023-07-21 16:56,-117.0904,38.0505,1654.00,88.00,42.00,20.03,M,4.00,0.00,30.25,1014.50,10.00,M,CLR,M,M,M,M,M,M,M,M,M,M,M,M,M,M,84.52,KTPH 211656Z AUTO VRB04KT 10SM CLR 31/06 A3025 RMK AO2 SLP145 T03110056 $,M
LAS,2023-07-21 16:56,-115.1634,36.0719,663.00,102.00,44.00,14.05,60.00,6.00,0.00,29.94,1010.20,10.00,M,FEW,FEW,M,M,14000.00,19000.00,M,M,M,M,M,M,M,M,M,97.77,KLAS 211656Z 06006KT 10SM FEW140 FEW190 39/07 A2994 RMK AO2 SLP102 T03890067,M
BVU,2023-07-21 17:15,-114.8611,35.9475,671.00,102.20,39.20,11.60,0.00,0.00,0.00,29.93,M,10.00,M,CLR,M,M,M,M,M,M,M,M,M,M,M,M,M,M,96.99,KBVU 211715Z AUTO 00000KT 10SM CLR 39/04 A2993 RMK AO2,M
CXP,2023-07-21 17:15,-119.7326,39.1923,1431.00,80.60,41.00,24.46,M,4.00,0.00,30.23,M,10.00,M,CLR,M,M,M,M,M,M,M,M,M,M,M,M,M,M,79.20,KCXP 211715Z AUTO VRB04KT 10SM CLR 27/05 A3023 RMK AO2,M
RTS,2023-07-21 17:15,-119.8764,39.6682,1539.00,80.60,28.40,14.81,0.00,0.00,0.00,30.25,M,10.00,M,CLR,M,M,M,M,M,M,M,M,M,M,M,M,M,M,78.72,KRTS 211715Z AUTO 00000KT 10SM CLR 27/M02 A3025 RMK AO2,M
05U,2023-07-21 17:15,-116.0051,39.6042,1811.23,87.80,28.40,11.74,M,M,0.00,30.32,M,10.00,M,M,M,M,M,M,M,M,M,M,M,M,M,M,M,M,83.84,K05U 211715Z AUTO 10SM 31/M02 A3032 RMK A01,M
MEV,2023-07-21 17:15,-119.7500,38.9963,1441.42,80.60,41.00,24.46,0.00,0.00,0.00,30.22,M,10.00,M,CLR,M,M,M,M,M,M,M,M,M,M,M,M,M,M,79.20,KMEV 211715Z AUTO 00000KT 10SM CLR 27/05 A3022 RMK AO2,M
HTH,2023-07-21 17:15,-118.6315,38.5448,1282.89,84.20,42.80,23.33,M,4.00,0.00,30.18,M,10.00,M,CLR,M,M,M,M,M,M,M,M,M,M,M,M,M,M,81.61,KHTH 211715Z AUTO VRB04KT 10SM CLR 29/06 A3018 RMK A01,M
TMT,2023-07-21 17:15,-117.1971,39.4643,1749.34,80.00,39.70,23.72,0.00,0.00,0.00,30.29,M,10.00,M,CLR,M,M,M,M,M,M,M,M,M,M,M,M,M,M,78.81,KTMT 211715Z AUTO 00000KT 10SM CLR 27/04 A3029 RMK AO2 T02670043,M
10U,2023-07-21 17:15,-116.1876,41.9532,1637.00,86.00,17.60,7.90,0.00,0.00,0.00,30.26,M,M,M,M,M,M,M,M,M,M,M,M,M,M,M,M,M,M,81.85,K10U 211715Z AUTO 00000KT 30/M08 A3026 RMK AO2 PWINO,M
BAM,2023-07-21 17:15,-116.8743,40.5990,1382.36,87.80,26.60,10.91,0.00,0.00,0.00,30.20,M,10.00,M,CLR,M,M,M,M,M,M,M,M,M,M,M,M,M,M,83.69,KBAM 211715Z AUTO 00000KT 10SM CLR 31/M03 A3020 RMK AO1,M
BVU,2023-07-21 17:35,-114.8611,35.9475,671.00,104.00,41.00,11.79,50.00,6.00,0.00,29.92,M,10.00,M,CLR,M,M,M,M,M,M,M,M,M,M,M,M,M,M,98.97,KBVU 211735Z AUTO 05006KT 10SM CLR 40/05 A2992 RMK AO2,M
CXP,2023-07-21 17:35,-119.7326,39.1923,1431.00,84.20,39.20,20.29,M,3.00,0.00,30.22,M,10.00,M,CLR,M,M,M,M,M,M,M,M,M,M,M,M,M,M,81.44,KCXP 211735Z AUTO VRB03KT 10SM CLR 29/04 A3022 RMK AO2,M
RTS,2023-07-21 17:35,-119.8764,39.6682,1539.00,82.40,23.00,11.16,0.00,0.00,0.00,30.25,M,10.00,M,CLR,M,M,M,M,M,M,M,M,M,M,M,M,M,M,79.67,KRTS 211735Z AUTO 00000KT 10SM CLR 28/M05 A3025 RMK AO2,M
05U,2023-07-21 17:35,-116.0051,39.6042,1811.23,89.60,30.20,11.94,M,M,0.00,30.32,M,10.00,M,M,M,M,M,M,M,M,M,M,M,M,M,M,M,M,85.34,K05U 211735Z AUTO 10SM 32/M01 A3032 RMK A01,M
MEV,2023-07-21 17:35,-119.7500,38.9963,1441.42,82.40,42.80,24.72,0.00,0.00,0.00,30.21,M,10.00,M,CLR,M,M,M,M,M,M,M,M,M,M,M,M,M,M,80.39,KMEV 211735Z AUTO 00000KT 10SM CLR 28/06 A3021 RMK AO2,M
HTH,2023-07-21 17:35,-118.6315,38.5448,1282.89,84.20,42.80,23.33,0.00,0.00,0.00,30.18,M,10.00,M,CLR,M,M,M,M,M,M,M,M,M,M,M,M,M,M,81.61,KHTH 211735Z AUTO 00000KT 10SM CLR 29/06 A3018 RMK A01,M
10U,2023-07-21 17:35,-116.1876,41.9532,1637.00,87.80,17.60,7.46,0.00,0.00,0.00,30.25,M,10.00,M,M,M,M,M,M,M,M,M,M,M,M,M,M,M,M,83.14,K10U 211735Z AUTO 00000KT 10SM 31/M08 A3025 RMK AO2,M
BAM,2023-07-21 17:35,-116.8743,40.5990,1382.36,89.60,24.80,9.56,0.00,0.00,0.00,30.20,M,10.00,M,CLR,M,M,M,M,M,M,M,M,M,M,M,M,M,M,84.88,KBAM 211735Z AUTO 00000KT 10SM CLR 32/M04 A3020 RMK AO1,M
TMT,2023-07-21 17:35,-117.1971,39.4643,1749.34,82.60,40.00,22.05,0.00,0.00,0.00,30.29,M,10.00,M,CLR,M,M,M,M,M,M,M,M,M,M,M,M,M,M,80.37,KTMT 211735Z AUTO 00000KT 10SM CLR 28/05 A3029 RMK AO2 T02810045,M
P68,2023-07-21 17:53,-116.0056,39.6014,1993.00,89.00,30.00,12.07,360.00,5.00,0.00,30.28,1015.70,M,M,M,M,M,M,M,M,M,M,M,M,M,M,M,M,M,84.88,KP68 211753Z AUTO 36005KT 32/M01 A3028 RMK AO1 SLP157 T03171011 10317 20122 58004,M
DRA,2023-07-21 17:53,-116.0278,36.6206,1009.00,103.00,40.00,11.69,210.00,12.00,0.00,30.03,1010.40,10.00,18.00,CLR,M,M,M,M,M,M,M,M,M,M,M,M,M,M,97.86,KDRA 211753Z AUTO 21012G18KT 10SM CLR 39/04 A3003 RMK AO2 SLP104 T03940044 10394 20239 58003,M
ELY,2023-07-21 17:53,-114.8453,39.2950,1909.00,88.00,40.00,18.54,120.00,5.00,0.00,30.31,1014.60,10.00,M,CLR,M,M,M,M,M,M,M,M,M,M,M,M,M,M,84.42,KELY 211753Z AUTO 12005KT 10SM CLR 31/04 A3031 RMK AO2 SLP146 T03110044 10317 20111 58007,M
VGT,2023-07-21 17:53,-115.1933,36.2111,667.00,106.00,45.00,12.96,0.00,0.00,0.00,29.93,1011.40,10.00,M,CLR,M,M,M,M,M,M,M,M,M,M,M,M,M,M,101.83,KVGT 211753Z 00000KT 10SM CLR 41/07 A2993 RMK AO2 SLP114 T04110072 10417 20328 58002,M
LOL,2023-07-21 17:53,-118.5701,40.0684,1192.43,90.00,31.00,12.18,10.00,4.00,0.00,30.13,1015.70,10.00,M,CLR,M,M,M,M,M,M,M,M,M,M,M,M,M,M,85.73,KLOL 211753Z AUTO 01004KT 10SM CLR 32/M01 A3013 RMK AO2 SLP157 T03221006 10322 20117 58007,M
BVU,2023-07-21 17:55,-114.8611,35.9475,671.00,105.80,41.00,11.18,M,5.00,0.00,29.92,M,10.00,M,CLR,M,M,M,M,M,M,M,M,M,M,M,M,M,M,100.56,KBVU 211755Z AUTO VRB05KT 10SM CLR 41/05 A2992 RMK AO2,M
CXP,2023-07-21 17:55,-119.7326,39.1923,1431.00,86.00,37.40,17.85,0.00,0.00,0.00,30.21,M,10.00,M,CLR,M,M,M,M,M,M,M,M,M,M,M,M,M,M,82.73,KCXP 211755Z AUTO 00000KT 10SM CLR 30/03 A3021 RMK AO2,M
INS,2023-07-21 17:55,-115.6733,36.5872,955.00,101.30,32.00,8.96,0.00,0.00,0.00,30.00,1009.70,10.00,M,CLR,M,M,M,M,M,M,M,M,M,M,M,M,M,M,94.97,KINS 211755Z AUTO 00000KT 10SM CLR 39/00 A3000 RMK AO2 SLP097 T03850000 10385 20257 58005 $,M
RNO,2023-07-21 17:55,-119.7711,39.4839,1341.00,86.00,38.00,18.28,0.00,0.00,0.00,30.19,1015.50,10.00,M,CLR,M,M,M,M,M,M,M,M,M,M,M,M,M,M,82.75,KRNO 211755Z 00000KT 10SM CLR 30/03 A3019 RMK AO2 SLP155 T03000033 10300 20183 58011,M
LSV,2023-07-21 17:55,-115.0343,36.2362,570.00,109.40,43.00,10.87,20.00,7.00,0.00,29.87,M,10.00,M,FEW,FEW,M,M,15000.00,19000.00,M,M,M,M,M,M,M,M,M,104.31,KLSV 211755Z AUTO 02007KT 10SM FEW150 FEW190 43/06 A2987 RMK AO2 SLPNO T04300062 10438 20290 57005 $,M
RTS,2023-07-21 17:55,-119.8764,39.6682,1539.00,82.40,32.00,16.17,130.00,4.00,0.00,30.24,M,10.00,M,CLR,M,M,M,M,M,M,M,M,M,M,M,M,M,M,80.00,KRTS 211755Z AUTO 13004KT 10SM CLR 28/M00 A3024 RMK AO2,M
05U,2023-07-21 17:55,-116.0051,39.6042,1811.23,91.40,32.00,12.14,M,M,0.00,30.32,M,10.00,M,M,M,M,M,M,M,M,M,M,M,M,M,M,M,M,86.91,K05U 211755Z AUTO 10SM 33/M00 A3032 RMK A01,M
MEV,2023-07-21 17:55,-119.7500,38.9963,1441.42,84.20,41.00,21.76,0.00,0.00,0.00,30.20,M,10.00,M,CLR,M,M,M,M,M,M,M,M,M,M,M,M,M,M,81.52,KMEV 211755Z AUTO 00000KT 10SM CLR 29/05 A3020 RMK AO2,M
HTH,2023-07-21 17:55,-118.6315,38.5448,1282.89,86.00,42.80,22.02,0.00,0.00,0.00,30.18,M,10.00,M,CLR,M,M,M,M,M,M,M,M,M,M,M,M,M,M,82.95,KHTH 211755Z AUTO 00000KT 10SM CLR 30/06 A3018 RMK A01,M
TMT,2023-07-21 17:55,-117.1971,39.4643,1749.34,85.00,36.00,17.44,0.00,0.00,0.00,30.28,M,10.00,M,CLR,M,M,M,M,M,M,M,M,M,M,M,M,M,M,81.93,KTMT 211755Z AUTO 00000KT 10SM CLR 30/02 A3028 RMK AO2 T02950022 10295 20067,M
BAM,2023-07-21 17:55,-116.8743,40.5990,1382.36,91.40,26.60,9.74,0.00,0.00,0.00,30.19,M,10.00,M,CLR,M,M,M,M,M,M,M,M,M,M,M,M,M,M,86.36,KBAM 211755Z AUTO 00000KT 10SM CLR 33/M03 A3019 RMK AO1,M
10U,2023-07-21 17:55,-116.1876,41.9532,1637.00,89.60,19.40,7.61,M,3.00,0.00,30.25,M,10.00,M,CLR,M,M,M,M,M,M,M,M,M,M,M,M,M,M,84.54,K10U 211755Z AUTO VRB03KT 10SM CLR 32/M07 A3025 RMK AO2,M
EKO,2023-07-21 17:56,-115.7860,40.8242,1367.00,86.00,40.00,19.76,190.00,3.00,0.00,30.23,1017.20,10.00,M,CLR,M,M,M,M,M,M,M,M,M,M,M,M,M,M,82.82,KEKO 211756Z AUTO 19003KT 10SM CLR 30/04 A3023 RMK AO2 SLP172 T03000044 10300 20106 58007,M
WMC,2023-07-21 17:56,-117.8072,40.9019,1315.00,M,M,M,M,M,0.00,30.16,M,M,M,M,M,M,M,M,M,M,M,M,M,M,M,M,M,M,M,KWMC 211756Z AUTO A3016 RMK AO2 SLPNO 57009 PWINO FZRANO $,M
NFL,2023-07-21 17:56,-118.7010,39.4166,1199.00,90.00,35.00,14.30,M,3.00,0.00,30.14,1017.00,10.00,M,CLR,M,M,M,M,M,M,M,M,M,M,M,M,M,M,85.95,KNFL 211756Z VRB03KT 10SM CLR 32/02 A3014 RMK AO2 SLP170 T03220017 10328 20161 58008,M
HND,2023-07-21 17:56,-115.1344,35.9729,742.79,105.00,48.00,14.95,120.00,3.00,0.00,29.98,1012.60,10.00,M,CLR,M,M,M,M,M,M,M,M,M,M,M,M,M,M,101.60,KHND 211756Z 12003KT 10SM CLR 41/09 A2998 RMK AO2 SLP126 T04060089 10406 20306 58001,M
TPH,2023-07-21 17:56,-117.0904,38.0505,1654.00,91.00,44.00,19.68,M,M,0.00,30.25,1014.10,10.00,M,CLR,M,M,M,M,M,M,M,M,M,M,M,M,M,M,87.26,KTPH 211756Z AUTO 10SM CLR 33/07 A3025 RMK AO2 SLP141 T03280067 10328 20183 58003 $,M
LAS,2023-07-21 17:56,-115.1634,36.0719,663.00,105.00,45.00,13.35,20.00,6.00,0.00,29.93,1009.90,10.00,M,FEW,FEW,M,M,14000.00,19000.00,M,M,M,M,M,M,M,M,M,100.87,KLAS 211756Z 02006KT 10SM FEW140 FEW190 41/07 A2993 RMK AO2 SLP099 ACC E-SE T04060072 10406 20322 58003,M
BVU,2023-07-21 18:15,-114.8611,35.9475,671.00,105.80,39.20,10.43,M,4.00,0.00,29.92,M,10.00,M,CLR,M,M,M,M,M,M,M,M,M,M,M,M,M,M,100.14,KBVU 211815Z AUTO VRB04KT 10SM CLR 41/04 A2992 RMK AO2,M
CXP,2023-07-21 18:15,-119.7326,39.1923,1431.00,86.00,33.80,15.48,0.00,0.00,0.00,30.21,M,10.00,M,CLR,M,M,M,M,M,M,M,M,M,M,M,M,M,M,82.66,KCXP 211815Z AUTO 00000KT 10SM CLR 30/01 A3021 RMK AO2,M
RTS,2023-07-21 18:15,-119.8764,39.6682,1539.00,84.20,35.60,17.61,M,5.00,0.00,30.24,M,10.00,M,CLR,M,M,M,M,M,M,M,M,M,M,M,M,M,M,81.34,KRTS 211815Z AUTO VRB05KT 10SM CLR 29/02 A3024 RMK AO2,M
05U,2023-07-21 18:15,-116.0051,39.6042,1811.23,91.40,30.20,11.28,M,M,0.00,30.31,M,10.00,M,M,M,M,M,M,M,M,M,M,M,M,M,M,M,M,86.71,K05U 211815Z AUTO 10SM 33/M01 A3031 RMK A01,M
MEV,2023-07-21 18:15,-119.7500,38.9963,1441.42,86.00,35.60,16.63,0.00,0.00,0.00,30.19,M,10.00,M,CLR,M,M,M,M,M,M,M,M,M,M,M,M,M,M,82.69,KMEV 211815Z AUTO 00000KT 10SM CLR 30/02 A3019 RMK AO2,M
HTH,2023-07-21 18:15,-118.6315,38.5448,1282.89,87.80,37.40,16.86,330.00,3.00,0.00,30.17,M,10.00,M,CLR,M,M,M,M,M,M,M,M,M,M,M,M,M,M,84.16,KHTH 211815Z AUTO 33003KT 10SM CLR 31/03 A3017 RMK A01,M
TMT,2023-07-21 18:15,-117.1971,39.4643,1749.34,87.60,33.30,14.41,0.00,0.00,0.00,30.28,M,10.00,M,CLR,M,M,M,M,M,M,M,M,M,M,M,M,M,M,83.93,KTMT 211815Z AUTO 00000KT 10SM CLR 31/01 A3028 RMK AO2 T03090007,M
10U,2023-07-21 18:15,-116.1876,41.9532,1637.00,89.60,17.60,7.05,M,3.00,0.00,30.25,M,10.00,M,CLR,M,M,M,M,M,M,M,M,M,M,M,M,M,M,84.45,K10U 211815Z AUTO VRB03KT 10SM CLR 32/M08 A3025 RMK AO2,M
BAM,2023-07-21 18:15,-116.8743,40.5990,1382.36,91.40,28.40,10.48,0.00,0.00,0.00,30.19,M,10.00,M,CLR,M,M,M,M,M,M,M,M,M,M,M,M,M,M,86.53,KBAM 211815Z AUTO 00000KT 10SM CLR 33/M02 A3019 RMK AO1,M
BVU,2023-07-21 18:35,-114.8611,35.9475,671.00,107.60,39.20,9.89,0.00,0.00,0.00,29.91,M,10.00,M,CLR,M,M,M,M,M,M,M,M,M,M,M,M,M,M,101.73,KBVU 211835Z AUTO 00000KT 10SM CLR 42/04 A2991 RMK AO2,M
CXP,2023-07-21 18:35,-119.7326,39.1923,1431.00,87.80,35.60,15.70,0.00,0.00,0.00,30.20,M,10.00,M,CLR,M,M,M,M,M,M,M,M,M,M,M,M,M,M,84.12,KCXP 211835Z AUTO 00000KT 10SM CLR 31/02 A3020 RMK AO2,M
RTS,2023-07-21 18:35,-119.8764,39.6682,1539.00,86.00,33.80,15.48,190.00,5.00,0.00,30.23,M,10.00,M,CLR,M,M,M,M,M,M,M,M,M,M,M,M,M,M,82.66,KRTS 211835Z AUTO 19005KT 10SM CLR 30/01 A3023 RMK AO2,M
05U,2023-07-21 18:35,-116.0051,39.6042,1811.23,93.20,33.80,12.34,M,M,0.00,30.30,M,10.00,M,M,M,M,M,M,M,M,M,M,M,M,M,M,M,M,88.55,K05U 211835Z AUTO 10SM 34/01 A3030 RMK A01,M
MEV,2023-07-21 18:35,-119.7500,38.9963,1441.42,87.80,35.60,15.70,0.00,0.00,0.00,30.19,M,10.00,M,CLR,M,M,M,M,M,M,M,M,M,M,M,M,M,M,84.12,KMEV 211835Z AUTO 00000KT 10SM CLR 31/02 A3019 RMK AO2,M
HTH,2023-07-21 18:35,-118.6315,38.5448,1282.89,87.80,33.80,14.61,M,3.00,0.00,30.17,M,10.00,M,CLR,M,M,M,M,M,M,M,M,M,M,M,M,M,M,84.10,KHTH 211835Z AUTO VRB03KT 10SM CLR 31/01 A3017 RMK A01,M
TMT,2023-07-21 18:35,-117.1971,39.4643,1749.34,88.50,36.70,16.04,0.00,0.00,0.00,30.28,M,10.00,M,CLR,M,M,M,M,M,M,M,M,M,M,M,M,M,M,84.72,KTMT 211835Z AUTO 00000KT 10SM CLR 31/03 A3028 RMK AO2 T03140026,M
10U,2023-07-21 18:35,-116.1876,41.9532,1637.00,89.60,15.80,6.52,M,6.00,0.00,30.24,M,10.00,M,CLR,M,M,M,M,M,M,M,M,M,M,M,M,M,M,84.37,K10U 211835Z AUTO VRB06KT 10SM CLR 32/M09 A3024 RMK AO2,M
BAM,2023-07-21 18:35,-116.8743,40.5990,1382.36,95.00,30.20,10.09,0.00,0.00,0.00,30.19,M,10.00,M,CLR,M,M,M,M,M,M,M,M,M,M,M,M,M,M,89.48,KBAM 211835Z AUTO 00000KT 10SM CLR 35/M01 A3019 RMK AO1,M
05U,2023-07-21 18:45,-116.0051,39.6042,1811.23,93.20,35.60,13.25,M,M,0.00,30.30,M,10.00,M,M,M,M,M,M,M,M,M,M,M,M,M,M,M,M,88.76,K05U 211845Z AUTO 10SM 34/02 A3030 RMK A01,M
P68,2023-07-21 18:53,-116.0056,39.6014,1993.00,91.00,36.00,14.42,M,4.00,0.00,30.27,1014.60,M,M,M,M,M,M,M,M,M,M,M,M,M,M,M,M,M,86.83,KP68 211853Z AUTO VRB04KT 33/02 A3027 RMK AO1 SLP146 T03280022,M
DRA,2023-07-21 18:53,-116.0278,36.6206,1009.00,105.00,39.00,10.59,220.00,12.00,0.00,30.02,1010.20,10.00,19.00,CLR,M,M,M,M,M,M,M,M,M,M,M,M,M,M,99.39,KDRA 211853Z AUTO 22012G19KT 10SM CLR 41/04 A3002 RMK AO2 SLP102 T04060039,M
ELY,2023-07-21 18:53,-114.8453,39.2950,1909.00,92.00,38.00,15.12,230.00,8.00,0.00,30.30,1013.80,10.00,M,CLR,M,M,M,M,M,M,M,M,M,M,M,M,M,M,87.78,KELY 211853Z AUTO 23008KT 10SM CLR 33/03 A3030 RMK AO2 SLP138 T03330033,M
VGT,2023-07-21 18:53,-115.1933,36.2111,667.00,109.00,45.00,11.87,10.00,3.00,0.00,29.91,1010.60,10.00,M,CLR,M,M,M,M,M,M,M,M,M,M,M,M,M,M,104.54,KVGT 211853Z 01003KT 10SM CLR 43/07 A2991 RMK AO2 SLP106 T04280072,M
LOL,2023-07-21 18:53,-118.5701,40.0684,1192.43,94.00,31.00,10.75,190.00,4.00,0.00,30.12,1015.00,10.00,M,CLR,M,M,M,M,M,M,M,M,M,M,M,M,M,M,88.80,KLOL 211853Z AUTO 19004KT 10SM CLR 34/M01 A3012 RMK AO2 SLP150 T03441006,M
BVU,2023-07-21 18:55,-114.8611,35.9475,671.00,107.60,37.40,9.21,30.00,6.00,0.00,29.90,M,10.00,M,CLR,M,M,M,M,M,M,M,M,M,M,M,M,M,M,101.34,KBVU 211855Z AUTO 03006KT 10SM CLR 42/03 A2990 RMK AO2,M
CXP,2023-07-21 18:55,-119.7326,39.1923,1431.00,89.60,35.60,14.83,0.00,0.00,0.00,30.20,M,10.00,M,CLR,M,M,M,M,M,M,M,M,M,M,M,M,M,M,85.62,KCXP 211855Z AUTO 00000KT 10SM CLR 32/02 A3020 RMK AO2,M
INS,2023-07-21 18:55,-115.6733,36.5872,955.00,103.00,30.20,7.92,0.00,0.00,0.00,29.99,1009.50,10.00,M,CLR,M,M,M,M,M,M,M,M,M,M,M,M,M,M,96.18,KINS 211855Z AUTO 00000KT 10SM CLR 39/M01 A2999 RMK AO2 SLP095 T03941010 $,M
RNO,2023-07-21 18:55,-119.7711,39.4839,1341.00,92.00,36.00,13.98,270.00,4.00,0.00,30.16,1014.50,10.00,M,CLR,M,M,M,M,M,M,M,M,M,M,M,M,M,M,87.71,KRNO 211855Z 27004KT 10SM CLR 33/02 A3016 RMK AO2 SLP145 T03330022,M
LSV,2023-07-21 18:55,-115.0343,36.2362,570.00,112.00,40.00,8.98,50.00,5.00,0.00,29.85,M,10.00,M,CLR,M,M,M,M,M,M,M,M,M,M,M,M,M,M,106.05,KLSV 211855Z AUTO 05005KT 10SM CLR 45/04 A2985 RMK AO2 SLPNO T04450044 $,M
RTS,2023-07-21 18:55,-119.8764,39.6682,1539.00,87.80,32.00,13.59,M,4.00,0.00,30.23,M,10.00,M,CLR,M,M,M,M,M,M,M,M,M,M,M,M,M,M,84.08,KRTS 211855Z AUTO VRB04KT 10SM CLR 31/M00 A3023 RMK AO2,M
MEV,2023-07-21 18:55,-119.7500,38.9963,1441.42,89.60,35.60,14.83,M,4.00,0.00,30.18,M,10.00,M,CLR,M,M,M,M,M,M,M,M,M,M,M,M,M,M,85.62,KMEV 211855Z AUTO VRB04KT 10SM CLR 32/02 A3018 RMK AO2,M
HTH,2023-07-21 18:55,-118.6315,38.5448,1282.89,89.60,32.00,12.84,M,5.00,0.00,30.16,M,10.00,M,CLR,M,M,M,M,M,M,M,M,M,M,M,M,M,M,85.54,KHTH 211855Z AUTO VRB05KT 10SM CLR 32/00 A3016 RMK A01,M
TMT,2023-07-21 18:55,-117.1971,39.4643,1749.34,89.80,38.00,16.20,0.00,0.00,0.00,30.27,M,10.00,M,CLR,M,M,M,M,M,M,M,M,M,M,M,M,M,M,85.86,KTMT 211855Z AUTO 00000KT 10SM CLR 32/03 A3027 RMK AO2 T03210034,M
BAM,2023-07-21 18:55,-116.8743,40.5990,1382.36,96.80,28.40,8.87,360.00,3.00,0.00,30.18,M,10.00,M,CLR,M,M,M,M,M,M,M,M,M,M,M,M,M,M,90.75,KBAM 211855Z AUTO 36003KT 10SM CLR 36/M02 A3018 RMK AO1,M
05U,2023-07-21 18:55,-116.0051,39.6042,1811.23,93.20,35.60,13.25,M,M,0.00,30.30,M,10.00,M,M,M,M,M,M,M,M,M,M,M,M,M,M,M,M,88.76,K05U 211855Z AUTO 10SM 34/02 A3030 RMK A01,M
10U,2023-07-21 18:55,-116.1876,41.9532,1637.00,91.40,15.80,6.16,M,3.00,0.00,30.24,M,10.00,11.00,CLR,M,M,M,M,M,M,M,M,M,M,M,M,M,M,85.68,K10U 211855Z AUTO VRB03G11KT 10SM CLR 33/M09 A3024 RMK AO2,M
EKO,2023-07-21 18:56,-115.7860,40.8242,1367.00,91.00,32.00,12.29,M,4.00,0.00,30.21,1016.60,10.00,M,CLR,M,M,M,M,M,M,M,M,M,M,M,M,M,M,86.61,KEKO 211856Z AUTO VRB04KT 10SM CLR 33/00 A3021 RMK AO2 SLP166 T03280000,M
WMC,2023-07-21 18:56,-117.8072,40.9019,1315.00,M,M,M,M,M,0.00,30.15,M,M,M,M,M,M,M,M,M,M,M,M,M,M,M,M,M,M,M,KWMC 211856Z AUTO A3015 RMK AO2 SLPNO PWINO FZRANO $,M
NFL,2023-07-21 18:56,-118.7010,39.4166,1199.00,94.00,34.00,12.13,M,4.00,0.00,30.12,1016.60,10.00,M,FEW,M,M,M,8000.00,M,M,M,M,M,M,M,M,M,M,89.21,KNFL 211856Z VRB04KT 10SM FEW080 34/01 A3012 RMK AO2 SLP166 T03440011,M
HND,2023-07-21 18:56,-115.1344,35.9729,742.79,107.00,48.00,14.09,30.00,5.00,0.00,29.96,1012.10,10.00,M,CLR,M,M,M,M,M,M,M,M,M,M,M,M,M,M,103.58,KHND 211856Z 03005KT 10SM CLR 42/09 A2996 RMK AO2 SLP121 T04170089,M
TPH,2023-07-21 18:56,-117.0904,38.0505,1654.00,93.00,48.00,21.51,M,M,0.00,30.23,1013.80,10.00,M,CLR,M,M,M,M,M,M,M,M,M,M,M,M,M,M,89.58,KTPH 211856Z AUTO 10SM CLR 34/09 A3023 RMK AO2 SLP138 T03390089 $,M
LAS,2023-07-21 18:56,-115.1634,36.0719,663.00,108.00,45.00,12.22,70.00,6.00,0.00,29.91,1009.20,10.00,M,FEW,FEW,M,M,14000.00,19000.00,M,M,M,M,M,M,M,M,M,103.63,KLAS 211856Z 07006KT 10SM FEW140 FEW190 42/07 A2991 RMK AO2 SLP092 T04220072,M
BVU,2023-07-21 19:15,-114.8611,35.9475,671.00,107.60,37.40,9.21,M,6.00,0.00,29.90,M,10.00,M,CLR,M,M,M,M,M,M,M,M,M,M,M,M,M,M,101.34,KBVU 211915Z AUTO VRB06KT 10SM CLR 42/03 A2990 RMK AO2,M
CXP,2023-07-21 19:15,-119.7326,39.1923,1431.00,93.20,37.40,14.23,0.00,0.00,0.00,30.19,M,10.00,M,CLR,M,M,M,M,M,M,M,M,M,M,M,M,M,M,88.83,KCXP 211915Z AUTO 00000KT 10SM CLR 34/03 A3019 RMK AO2,M
RTS,2023-07-21 19:15,-119.8764,39.6682,1539.00,87.80,32.00,13.59,M,4.00,0.00,30.22,M,10.00,M,CLR,M,M,M,M,M,M,M,M,M,M,M,M,M,M,84.08,KRTS 211915Z AUTO VRB04KT 10SM CLR 31/M00 A3022 RMK AO2,M
MEV,2023-07-21 19:15,-119.7500,38.9963,1441.42,91.40,35.60,14.02,240.00,4.00,0.00,30.18,M,10.00,M,CLR,M,M,M,M,M,M,M,M,M,M,M,M,M,M,87.17,KMEV 211915Z AUTO 24004KT 10SM CLR 33/02 A3018 RMK AO2,M
HTH,2023-07-21 19:15,-118.6315,38.5448,1282.89,91.40,26.60,9.74,310.00,5.00,0.00,30.15,M,10.00,M,CLR,M,M,M,M,M,M,M,M,M,M,M,M,M,M,86.36,KHTH 211915Z AUTO 31005KT 10SM CLR 33/M03 A3015 RMK A01,M
10U,2023-07-21 19:15,-116.1876,41.9532,1637.00,91.40,15.80,6.16,230.00,9.00,0.00,30.24,M,10.00,M,CLR,M,M,M,M,M,M,M,M,M,M,M,M,M,M,85.68,K10U 211915Z AUTO 23009KT 10SM CLR 33/M09 A3024 RMK AO2,M
BAM,2023-07-21 19:15,-116.8743,40.5990,1382.36,96.80,28.40,8.87,350.00,4.00,0.00,30.17,M,10.00,M,CLR,M,M,M,M,M,M,M,M,M,M,M,M,M,M,90.75,KBAM 211915Z AUTO 35004KT 10SM CLR 36/M02 A3017 RMK AO1,M
TMT,2023-07-21 19:15,-117.1971,39.4643,1749.34,90.30,38.00,15.95,320.00,3.00,0.00,30.27,M,10.00,M,CLR,M,M,M,M,M,M,M,M,M,M,M,M,M,M,86.29,KTMT 211915Z AUTO 32003KT 10SM CLR 32/03 A3027 RMK AO2 T03240033,M
05U,2023-07-21 19:30,-116.0051,39.6042,1811.23,93.20,32.00,11.48,M,M,0.00,30.29,M,10.00,M,M,M,M,M,M,M,M,M,M,M,M,M,M,M,M,88.31,K05U 211930Z AUTO 10SM 34/00 A3029 RMK A01,M
BVU,2023-07-21 19:35,-114.8611,35.9475,671.00,109.40,37.40,8.74,M,3.00,0.00,29.89,M,10.00,M,CLR,M,M,M,M,M,M,M,M,M,M,M,M,M,M,102.93,KBVU 211935Z AUTO VRB03KT 10SM CLR 43/03 A2989 RMK AO2,M
CXP,2023-07-21 19:35,-119.7326,39.1923,1431.00,91.40,37.40,15.05,70.00,6.00,0.00,30.18,M,10.00,M,CLR,M,M,M,M,M,M,M,M,M,M,M,M,M,M,87.23,KCXP 211935Z AUTO 07006KT 10SM CLR 33/03 A3018 RMK AO2,M
RTS,2023-07-21 19:35,-119.8764,39.6682,1539.00,89.60,32.00,12.84,100.00,7.00,0.00,30.22,M,10.00,M,CLR,M,M,M,M,M,M,M,M,M,M,M,M,M,M,85.54,KRTS 211935Z AUTO 10007KT 10SM CLR 32/00 A3022 RMK AO2,M
MEV,2023-07-21 19:35,-119.7500,38.9963,1441.42,91.40,35.60,14.02,0.00,0.00,0.00,30.17,M,10.00,M,CLR,M,M,M,M,M,M,M,M,M,M,M,M,M,M,87.17,KMEV 211935Z AUTO 00000KT 10SM CLR 33/02 A3017 RMK AO2,M
HTH,2023-07-21 19:35,-118.6315,38.5448,1282.89,91.40,26.60,9.74,330.00,5.00,0.00,30.14,M,10.00,M,CLR,M,M,M,M,M,M,M,M,M,M,M,M,M,M,86.36,KHTH 211935Z AUTO 33005KT 10SM CLR 33/M03 A3014 RMK A01,M
TMT,2023-07-21 19:35,-117.1971,39.4643,1749.34,91.00,39.60,16.61,250.00,6.00,0.00,30.26,M,10.00,M,CLR,M,M,M,M,M,M,M,M,M,M,M,M,M,M,86.97,KTMT 211935Z AUTO 25006KT 10SM CLR 33/04 A3026 RMK AO2 T03270042,M
10U,2023-07-21 19:35,-116.1876,41.9532,1637.00,91.40,15.80,6.16,0.00,0.00,0.00,30.24,M,10.00,10.00,CLR,M,M,M,M,M,M,M,M,M,M,M,M,M,M,85.68,K10U 211935Z AUTO 00000G10KT 10SM CLR 33/M09 A3024 RMK AO2,M
BAM,2023-07-21 19:35,-116.8743,40.5990,1382.36,98.60,30.20,9.04,280.00,4.00,0.00,30.16,M,10.00,M,CLR,M,M,M,M,M,M,M,M,M,M,M,M,M,M,92.46,KBAM 211935Z AUTO 28004KT 10SM CLR 37/M01 A3016 RMK AO1,M
05U,2023-07-21 19:50,-116.0051,39.6042,1811.23,93.20,32.00,11.48,0.00,0.00,0.00,30.28,M,10.00,M,M,M,M,M,M,M,M,M,M,M,M,M,M,M,M,88.31,K05U 211950Z AUTO 00000KT 10SM 34/00 A3028 RMK A01,M
HTH,2023-07-21 19:50,-118.6315,38.5448,1282.89,93.20,26.60,9.21,M,5.00,0.00,30.13,M,10.00,M,CLR,M,M,M,M,M,M,M,M,M,M,M,M,M,M,87.72,KHTH 211950Z AUTO VRB05KT 10SM CLR 34/M03 A3013 RMK A01,M
P68,2023-07-21 19:53,-116.0056,39.6014,1993.00,91.00,31.00,11.80,0.00,0.00,0.00,30.25,1014.70,M,M,M,M,M,M,M,M,M,M,M,M,M,M,M,M,M,86.49,KP68 211953Z AUTO 00000KT 33/M01 A3025 RMK AO1 SLP147 T03281006,M
DRA,2023-07-21 19:53,-116.0278,36.6206,1009.00,106.00,39.00,10.28,210.00,6.00,0.00,30.00,1009.70,10.00,M,CLR,M,M,M,M,M,M,M,M,M,M,M,M,M,M,100.27,KDRA 211953Z AUTO 21006KT 10SM CLR 41/04 A3000 RMK AO2 SLP097 T04110039,M
ELY,2023-07-21 19:53,-114.8453,39.2950,1909.00,89.00,37.00,15.97,M,6.00,0.00,30.28,1013.60,10.00,M,FEW,M,M,M,12000.00,M,M,M,M,M,M,M,M,M,M,85.15,KELY 211953Z AUTO VRB06KT 10SM FEW120 32/03 A3028 RMK AO2 SLP136 T03170028,M
VGT,2023-07-21 19:53,-115.1933,36.2111,667.00,112.00,45.00,10.88,M,4.00,0.00,29.89,1010.00,10.00,M,CLR,M,M,M,M,M,M,M,M,M,M,M,M,M,M,107.38,KVGT 211953Z VRB04KT 10SM CLR 44/07 A2989 RMK AO2 SLP100 T04440072,M
LOL,2023-07-21 19:53,-118.5701,40.0684,1192.43,97.00,28.00,8.67,M,M,0.00,30.10,1014.40,10.00,M,CLR,M,M,M,M,M,M,M,M,M,M,M,M,M,M,90.87,KLOL 211953Z AUTO 10SM CLR 36/M02 A3010 RMK AO2 SLP144 T03611022,M
BVU,2023-07-21 19:55,-114.8611,35.9475,671.00,109.40,37.40,8.74,0.00,0.00,0.00,29.88,M,10.00,M,CLR,M,M,M,M,M,M,M,M,M,M,M,M,M,M,102.93,KBVU 211955Z AUTO 00000KT 10SM CLR 43/03 A2988 RMK AO2,M
CXP,2023-07-21 19:55,-119.7326,39.1923,1431.00,95.00,37.40,13.46,160.00,5.00,0.00,30.18,M,10.00,M,CLR,M,M,M,M,M,M,M,M,M,M,M,M,M,M,90.46,KCXP 211955Z AUTO 16005KT 10SM CLR 35/03 A3018 RMK AO2,M
INS,2023-07-21 19:55,-115.6733,36.5872,955.00,106.30,32.70,7.94,240.00,3.00,0.00,29.97,1008.80,10.00,M,CLR,M,M,M,M,M,M,M,M,M,M,M,M,M,M,99.36,KINS 211955Z AUTO 24003KT 10SM CLR 41/00 A2997 RMK AO2 SLP088 T04130004 $,M
RNO,2023-07-21 19:55,-119.7711,39.4839,1341.00,95.00,37.00,13.25,0.00,0.00,0.00,30.14,1013.80,10.00,M,CLR,M,M,M,M,M,M,M,M,M,M,M,M,M,M,90.44,KRNO 211955Z 00000KT 10SM CLR 35/03 A3014 RMK AO2 SLP138 T03500028,M
LSV,2023-07-21 19:55,-115.0343,36.2362,570.00,114.30,38.50,7.92,120.00,3.00,0.00,29.83,M,10.00,M,FEW,M,M,M,20000.00,M,M,M,M,M,M,M,M,M,M,107.55,KLSV 211955Z AUTO 12003KT 10SM FEW200 46/04 A2983 RMK AO2 SLPNO T04570036 $,M
RTS,2023-07-21 19:55,-119.8764,39.6682,1539.00,91.40,32.00,12.14,M,6.00,0.00,30.21,M,10.00,12.00,CLR,M,M,M,M,M,M,M,M,M,M,M,M,M,M,86.91,KRTS 211955Z AUTO VRB06G12KT 040V110 10SM CLR 33/00 A3021 RMK AO2,M
MEV,2023-07-21 19:55,-119.7500,38.9963,1441.42,91.40,37.40,15.05,0.00,0.00,0.00,30.16,M,10.00,M,CLR,M,M,M,M,M,M,M,M,M,M,M,M,M,M,87.23,KMEV 211955Z AUTO 00000KT 10SM CLR 33/03 A3016 RMK AO2,M
BAM,2023-07-21 19:55,-116.8743,40.5990,1382.36,98.60,32.00,9.72,290.00,5.00,0.00,30.16,M,10.00,10.00,CLR,M,M,M,M,M,M,M,M,M,M,M,M,M,M,92.69,KBAM 211955Z AUTO 29005G10KT 10SM CLR 37/00 A3016 RMK AO1,M
TMT,2023-07-21 19:55,-117.1971,39.4643,1749.34,92.50,39.70,15.91,250.00,9.00,0.00,30.26,M,M,14.00,CLR,M,M,M,M,M,M,M,M,M,M,M,M,M,M,88.31,KTMT 211955Z AUTO 25009G14KT CLR 34/04 A3026 RMK AO2 T03360043 PWINO,M
10U,2023-07-21 19:55,-116.1876,41.9532,1637.00,93.20,15.80,5.82,240.00,6.00,0.00,30.23,M,10.00,15.00,CLR,M,M,M,M,M,M,M,M,M,M,M,M,M,M,86.99,K10U 211955Z AUTO 24006G15KT 10SM CLR 34/M09 A3023 RMK AO2,M
EKO,2023-07-21 19:56,-115.7860,40.8242,1367.00,94.00,32.00,11.19,M,M,0.00,30.20,1015.70,10.00,M,CLR,M,M,M,M,M,M,M,M,M,M,M,M,M,M,88.93,KEKO 211956Z AUTO 10SM CLR 34/00 A3020 RMK AO2 SLP157 T03440000,M
WMC,2023-07-21 19:56,-117.8072,40.9019,1315.00,99.00,27.00,7.83,M,M,0.00,30.13,M,M,M,M,M,M,M,M,M,M,M,M,M,M,M,M,M,M,92.44,KWMC 211956Z AUTO 37/M03 A3013 RMK AO2 SLPNO T03721028 PWINO $,M
NFL,2023-07-21 19:56,-118.7010,39.4166,1199.00,98.00,34.00,10.73,M,4.00,0.00,30.10,1016.10,10.00,M,FEW,M,M,M,7000.00,M,M,M,M,M,M,M,M,M,M,92.47,KNFL 211956Z VRB04KT 10SM FEW070 37/01 A3010 RMK AO2 SLP161 T03670011,M
HND,2023-07-21 19:56,-115.1344,35.9729,742.79,108.00,47.00,13.18,10.00,6.00,0.00,29.94,1011.40,10.00,M,CLR,M,M,M,M,M,M,M,M,M,M,M,M,M,M,104.26,KHND 211956Z 01006KT 10SM CLR 42/08 A2994 RMK AO2 SLP114 T04220083,M
TPH,2023-07-21 19:56,-117.0904,38.0505,1654.00,95.00,49.00,21.00,M,M,0.00,30.21,1013.10,10.00,M,CLR,M,M,M,M,M,M,M,M,M,M,M,M,M,M,91.70,KTPH 211956Z AUTO 10SM CLR 35/09 A3021 RMK AO2 SLP131 T03500094 $,M
LAS,2023-07-21 19:56,-115.1634,36.0719,663.00,109.00,43.00,10.99,M,6.00,0.00,29.89,1008.70,10.00,M,FEW,M,M,M,14000.00,M,M,M,M,M,M,M,M,M,M,103.94,KLAS 211956Z VRB06KT 10SM FEW140 43/06 A2989 RMK AO2 SLP087 T04280061,M
05U,2023-07-21 20:05,-116.0051,39.6042,1811.23,95.00,33.80,11.67,10.00,8.00,0.00,30.27,M,10.00,M,M,M,M,M,M,M,M,M,M,M,M,M,M,M,M,89.97,K05U 212005Z AUTO 01008KT 10SM 35/01 A3027 RMK A01,M
BVU,2023-07-21 20:15,-114.8611,35.9475,671.00,111.20,37.40,8.30,M,3.00,0.00,29.87,M,10.00,M,CLR,M,M,M,M,M,M,M,M,M,M,M,M,M,M,104.58,KBVU 212015Z AUTO VRB03KT 10SM CLR 44/03 A2987 RMK AO2,M
CXP,2023-07-21 20:15,-119.7326,39.1923,1431.00,95.00,37.40,13.46,0.00,0.00,0.00,30.17,M,10.00,M,CLR,M,M,M,M,M,M,M,M,M,M,M,M,M,M,90.46,KCXP 212015Z AUTO 00000KT 10SM CLR 35/03 A3017 RMK AO2,M
RTS,2023-07-21 20:15,-119.8764,39.6682,1539.00,91.40,32.00,12.14,120.00,8.00,0.00,30.20,M,10.00,14.00,CLR,M,M,M,M,M,M,M,M,M,M,M,M,M,M,86.91,KRTS 212015Z AUTO 12008G14KT 10SM CLR 33/00 A3020 RMK AO2,M
MEV,2023-07-21 20:15,-119.7500,38.9963,1441.42,93.20,37.40,14.23,M,6.00,0.00,30.16,M,10.00,M,CLR,M,M,M,M,M,M,M,M,M,M,M,M,M,M,88.83,KMEV 212015Z AUTO VRB06KT 10SM CLR 34/03 A3016 RMK AO2,M
HTH,2023-07-21 20:15,-118.6315,38.5448,1282.89,95.00,26.60,8.71,300.00,8.00,0.00,30.12,M,10.00,M,CLR,M,M,M,M,M,M,M,M,M,M,M,M,M,M,89.08,KHTH 212015Z AUTO 30008KT 10SM CLR 35/M03 A3012 RMK A01,M
TMT,2023-07-21 20:15,-117.1971,39.4643,1749.34,93.00,37.00,14.09,270.00,7.00,0.00,30.25,M,M,M,CLR,M,M,M,M,M,M,M,M,M,M,M,M,M,M,88.63,KTMT 212015Z AUTO 27007KT CLR 34/03 A3025 RMK AO2 T03380028 PWINO,M
10U,2023-07-21 20:15,-116.1876,41.9532,1637.00,93.20,15.80,5.82,M,4.00,0.00,30.22,M,10.00,11.00,CLR,M,M,M,M,M,M,M,M,M,M,M,M,M,M,86.99,K10U 212015Z AUTO VRB04G11KT 10SM CLR 34/M09 A3022 RMK AO2,M
BAM,2023-07-21 20:15,-116.8743,40.5990,1382.36,100.40,32.00,9.21,250.00,10.00,0.00,30.15,M,10.00,16.00,CLR,M,M,M,M,M,M,M,M,M,M,M,M,M,M,94.21,KBAM 212015Z AUTO 25010G16KT 10SM CLR 38/00 A3015 RMK AO1,M
05U,2023-07-21 20:20,-116.0051,39.6042,1811.23,95.00,33.80,11.67,360.00,5.00,0.00,30.27,M,10.00,M,M,M,M,M,M,M,M,M,M,M,M,M,M,M,M,89.97,K05U 212020Z AUTO 36005KT 10SM 35/01 A3027 RMK A01,M
BVU,2023-07-21 20:35,-114.8611,35.9475,671.00,111.20,37.40,8.30,M,6.00,0.00,29.87,M,10.00,12.00,CLR,M,M,M,M,M,M,M,M,M,M,M,M,M,M,104.58,KBVU 212035Z AUTO VRB06G12KT 10SM CLR 44/03 A2987 RMK AO2,M
CXP,2023-07-21 20:35,-119.7326,39.1923,1431.00,96.80,37.40,12.73,M,3.00,0.00,30.16,M,10.00,M,CLR,M,M,M,M,M,M,M,M,M,M,M,M,M,M,92.04,KCXP 212035Z AUTO VRB03KT 10SM CLR 36/03 A3016 RMK AO2,M
RTS,2023-07-21 20:35,-119.8764,39.6682,1539.00,93.20,30.20,10.67,M,4.00,0.00,30.19,M,10.00,14.00,CLR,M,M,M,M,M,M,M,M,M,M,M,M,M,M,88.09,KRTS 212035Z AUTO VRB04G14KT 10SM CLR 34/M01 A3019 RMK AO2,M
MEV,2023-07-21 20:35,-119.7500,38.9963,1441.42,95.00,39.20,14.44,340.00,7.00,0.00,30.15,M,10.00,M,CLR,M,M,M,M,M,M,M,M,M,M,M,M,M,M,90.57,KMEV 212035Z AUTO 34007KT 10SM CLR 35/04 A3015 RMK AO2,M
HTH,2023-07-21 20:35,-118.6315,38.5448,1282.89,95.00,28.40,9.38,290.00,5.00,0.00,30.12,M,10.00,10.00,CLR,M,M,M,M,M,M,M,M,M,M,M,M,M,M,89.27,KHTH 212035Z AUTO 29005G10KT 10SM CLR 35/M02 A3012 RMK A01,M
TMT,2023-07-21 20:35,-117.1971,39.4643,1749.34,92.70,37.80,14.68,320.00,6.00,0.00,30.24,M,M,M,CLR,M,M,M,M,M,M,M,M,M,M,M,M,M,M,88.40,KTMT 212035Z AUTO 32006KT CLR 34/03 A3024 RMK AO2 T03370032 PWINO,M
10U,2023-07-21 20:35,-116.1876,41.9532,1637.00,93.20,14.00,5.38,190.00,7.00,0.00,30.22,M,10.00,13.00,CLR,M,M,M,M,M,M,M,M,M,M,M,M,M,M,86.90,K10U 212035Z AUTO 19007G13KT 140V230 10SM CLR 34/M10 A3022 RMK AO2,M
BAM,2023-07-21 20:35,-116.8743,40.5990,1382.36,100.40,33.80,9.90,270.00,15.00,0.00,30.14,M,10.00,18.00,CLR,M,M,M,M,M,M,M,M,M,M,M,M,M,M,94.47,KBAM 212035Z AUTO 27015G18KT 10SM CLR 38/01 A3014 RMK AO1,M
05U,2023-07-21 20:40,-116.0051,39.6042,1811.23,95.00,33.80,11.67,360.00,5.00,0.00,30.27,M,10.00,M,M,M,M,M,M,M,M,M,M,M,M,M,M,M,M,89.97,K05U 212040Z AUTO 36005KT 10SM 35/01 A3027 RMK A01,M
P68,2023-07-21 20:53,-116.0056,39.6014,1993.00,93.00,30.00,10.65,90.00,10.00,0.00,30.23,1014.30,M,18.00,M,M,M,M,M,M,M,M,M,M,M,M,M,M,M,87.91,KP68 212053Z AUTO 09010G18KT 070V130 34/M01 A3023 RMK AO1 SLP143 T03391011 58016,M
DRA,2023-07-21 20:53,-116.0278,36.6206,1009.00,109.00,39.00,9.42,220.00,13.00,0.00,29.98,1009.00,10.00,18.00,CLR,M,M,M,M,M,M,M,M,M,M,M,M,M,M,102.93,KDRA 212053Z AUTO 22013G18KT 10SM CLR 43/04 A2998 RMK AO2 SLP090 T04280039 58014,M
ELY,2023-07-21 20:53,-114.8453,39.2950,1909.00,94.00,40.00,15.37,280.00,15.00,0.00,30.26,1012.90,10.00,21.00,CLR,M,M,M,M,M,M,M,M,M,M,M,M,M,M,89.70,KELY 212053Z AUTO 28015G21KT 10SM CLR 34/04 A3026 RMK AO2 SLP129 T03440044 58012,M
VGT,2023-07-21 20:53,-115.1933,36.2111,667.00,112.00,44.00,10.47,M,5.00,0.00,29.87,1009.40,10.00,M,CLR,M,M,M,M,M,M,M,M,M,M,M,M,M,M,107.08,KVGT 212053Z VRB05KT 10SM CLR 44/07 A2987 RMK AO2 SLP094 T04440067 56018,M
LOL,2023-07-21 20:53,-118.5701,40.0684,1192.43,98.00,29.00,8.77,0.00,0.00,0.00,30.08,1013.80,10.00,M,CLR,M,M,M,M,M,M,M,M,M,M,M,M,M,M,91.82,KLOL 212053Z AUTO 00000KT 10SM CLR 37/M02 A3008 RMK AO2 SLP138 T03671017 58017,M
BVU,2023-07-21 20:55,-114.8611,35.9475,671.00,111.20,37.40,8.30,40.00,7.00,0.00,29.86,M,10.00,M,CLR,M,M,M,M,M,M,M,M,M,M,M,M,M,M,104.58,KBVU 212055Z AUTO 04007KT 360V060 10SM CLR 44/03 A2986 RMK AO2,M
CXP,2023-07-21 20:55,-119.7326,39.1923,1431.00,96.80,33.80,11.04,0.00,0.00,0.00,30.16,M,10.00,M,CLR,M,M,M,M,M,M,M,M,M,M,M,M,M,M,91.44,KCXP 212055Z AUTO 00000KT 10SM CLR 36/01 A3016 RMK AO2,M
INS,2023-07-21 20:55,-115.6733,36.5872,955.00,107.00,33.00,7.87,90.00,14.00,0.00,29.95,1008.10,10.00,19.00,CLR,M,M,M,M,M,M,M,M,M,M,M,M,M,M,100.01,KINS 212055Z AUTO 09014G19KT 10SM CLR 42/01 A2995 RMK AO2 SLP081 T04160006 57016 $,M
RNO,2023-07-21 20:55,-119.7711,39.4839,1341.00,98.00,37.00,12.08,230.00,3.00,0.00,30.13,1013.10,10.00,M,FEW,M,M,M,10000.00,M,M,M,M,M,M,M,M,M,M,92.97,KRNO 212055Z 23003KT 10SM FEW100 37/03 A3013 RMK AO2 SLP131 T03670028 56018,M
LSV,2023-07-21 20:55,-115.0343,36.2362,570.00,115.00,39.20,7.98,10.00,5.00,0.00,29.81,M,10.00,M,CLR,M,M,M,M,M,M,M,M,M,M,M,M,M,M,108.27,KLSV 212055Z AUTO 01005KT 10SM CLR 46/04 A2981 RMK AO2 SLPNO T04620040 57018 $,M
RTS,2023-07-21 20:55,-119.8764,39.6682,1539.00,93.20,30.20,10.67,160.00,7.00,0.00,30.19,M,10.00,M,CLR,M,M,M,M,M,M,M,M,M,M,M,M,M,M,88.09,KRTS 212055Z AUTO 16007KT 130V190 10SM CLR 34/M01 A3019 RMK AO2,M
MEV,2023-07-21 20:55,-119.7500,38.9963,1441.42,95.00,39.20,14.44,280.00,6.00,0.00,30.15,M,10.00,M,CLR,M,M,M,M,M,M,M,M,M,M,M,M,M,M,90.57,KMEV 212055Z AUTO 28006KT 10SM CLR 35/04 A3015 RMK AO2,M
HTH,2023-07-21 20:55,-118.6315,38.5448,1282.89,96.80,28.40,8.87,M,5.00,0.00,30.11,M,10.00,10.00,CLR,M,M,M,M,M,M,M,M,M,M,M,M,M,M,90.75,KHTH 212055Z AUTO VRB05G10KT 10SM CLR 36/M02 A3011 RMK A01,M
TMT,2023-07-21 20:55,-117.1971,39.4643,1749.34,93.70,39.00,14.92,0.00,0.00,0.00,30.24,M,M,M,CLR,M,M,M,M,M,M,M,M,M,M,M,M,M,M,89.36,KTMT 212055Z AUTO 00000KT CLR 34/04 A3024 RMK AO2 T03430038 PWINO,M
BAM,2023-07-21 20:55,-116.8743,40.5990,1382.36,100.40,32.00,9.21,280.00,6.00,0.00,30.14,M,10.00,M,CLR,M,M,M,M,M,M,M,M,M,M,M,M,M,M,94.21,KBAM 212055Z AUTO 28006KT 10SM CLR 38/00 A3014 RMK AO1,M
10U,2023-07-21 20:55,-116.1876,41.9532,1637.00,93.20,14.00,5.38,200.00,10.00,0.00,30.22,M,10.00,15.00,CLR,M,M,M,M,M,M,M,M,M,M,M,M,M,M,86.90,K10U 212055Z AUTO 20010G15KT 10SM CLR 34/M10 A3022 RMK AO2,M
EKO,2023-07-21 20:56,-115.7860,40.8242,1367.00,97.00,35.00,11.51,240.00,9.00,0.00,30.18,1015.10,10.00,20.00,CLR,M,M,M,M,M,M,M,M,M,M,M,M,M,M,91.79,KEKO 212056Z AUTO 24009G20KT 10SM CLR 36/02 A3018 RMK AO2 SLP151 T03610017 56015,M
WMC,2023-07-21 20:56,-117.8072,40.9019,1315.00,102.00,28.00,7.46,140.00,9.00,0.00,30.09,M,10.00,14.00,CLR,M,M,M,M,M,M,M,M,M,M,M,M,M,M,95.07,KWMC 212056Z AUTO 14009G14KT 080V210 10SM CLR 39/M02 A3009 RMK AO2 PRESFR SLPNO T03891022 58022,M
NFL,2023-07-21 20:56,-118.7010,39.4166,1199.00,100.00,33.00,9.70,260.00,8.00,0.00,30.08,1015.50,10.00,M,FEW,M,M,M,7000.00,M,M,M,M,M,M,M,M,M,M,94.01,KNFL 212056Z 26008KT 10SM FEW070 38/01 A3008 RMK AO2 SLP155 T03780006 58016,M
HND,2023-07-21 20:56,-115.1344,35.9729,742.79,110.00,46.00,11.97,30.00,7.00,0.00,29.92,1010.60,10.00,M,CLR,M,M,M,M,M,M,M,M,M,M,M,M,M,M,105.77,KHND 212056Z 03007KT 10SM CLR 43/08 A2992 RMK AO2 SLP106 T04330078 58019,M
TPH,2023-07-21 20:56,-117.0904,38.0505,1654.00,98.00,50.00,19.88,M,M,0.00,30.19,1012.30,10.00,M,CLR,M,M,M,M,M,M,M,M,M,M,M,M,M,M,94.94,KTPH 212056Z AUTO 10SM CLR 37/10 A3019 RMK AO2 SLP123 T03670100 58015 $,M
LAS,2023-07-21 20:56,-115.1634,36.0719,663.00,111.00,42.00,9.98,70.00,6.00,0.00,29.88,1008.00,10.00,M,FEW,FEW,M,M,14000.00,25000.00,M,M,M,M,M,M,M,M,M,105.50,KLAS 212056Z 07006KT 10SM FEW140 FEW250 44/06 A2988 RMK AO2 SLP080 T04390056 58017,M
BVU,2023-07-21 21:15,-114.8611,35.9475,671.00,111.20,37.40,8.30,M,6.00,0.00,29.85,M,10.00,M,CLR,M,M,M,M,M,M,M,M,M,M,M,M,M,M,104.58,KBVU 212115Z AUTO VRB06KT 10SM CLR 44/03 A2985 RMK AO2,M
CXP,2023-07-21 21:15,-119.7326,39.1923,1431.00,96.80,33.80,11.04,M,4.00,0.00,30.16,M,10.00,M,CLR,M,M,M,M,M,M,M,M,M,M,M,M,M,M,91.44,KCXP 212115Z AUTO VRB04KT 10SM CLR 36/01 A3016 RMK AO2,M
RTS,2023-07-21 21:15,-119.8764,39.6682,1539.00,93.20,30.20,10.67,M,4.00,0.00,30.18,M,10.00,M,CLR,M,M,M,M,M,M,M,M,M,M,M,M,M,M,88.09,KRTS 212115Z AUTO VRB04KT 10SM CLR 34/M01 A3018 RMK AO2,M
05U,2023-07-21 21:15,-116.0051,39.6042,1811.23,96.80,32.00,10.27,M,M,0.00,30.26,M,10.00,M,M,M,M,M,M,M,M,M,M,M,M,M,M,M,M,91.19,K05U 212115Z AUTO 10SM 36/M00 A3026 RMK A01,M
MEV,2023-07-21 21:15,-119.7500,38.9963,1441.42,96.80,39.20,13.66,M,5.00,0.00,30.14,M,10.00,M,CLR,M,M,M,M,M,M,M,M,M,M,M,M,M,M,92.23,KMEV 212115Z AUTO VRB05KT 10SM CLR 36/04 A3014 RMK AO2,M
HTH,2023-07-21 21:15,-118.6315,38.5448,1282.89,96.80,28.40,8.87,300.00,6.00,0.00,30.10,M,10.00,M,CLR,M,M,M,M,M,M,M,M,M,M,M,M,M,M,90.75,KHTH 212115Z AUTO 30006KT 10SM CLR 36/M02 A3010 RMK A01,M
TMT,2023-07-21 21:15,-117.1971,39.4643,1749.34,94.00,40.30,15.55,190.00,4.00,0.00,30.23,M,M,M,CLR,M,M,M,M,M,M,M,M,M,M,M,M,M,M,89.72,KTMT 212115Z AUTO 19004KT CLR 35/05 A3023 RMK AO2 T03450046 PWINO,M
10U,2023-07-21 21:15,-116.1876,41.9532,1637.00,93.20,14.00,5.38,0.00,0.00,0.00,30.21,M,10.00,10.00,CLR,M,M,M,M,M,M,M,M,M,M,M,M,M,M,86.90,K10U 212115Z AUTO 00000G10KT 10SM CLR 34/M10 A3021 RMK AO2,M
BAM,2023-07-21 21:15,-116.8743,40.5990,1382.36,100.40,32.00,9.21,300.00,8.00,0.00,30.13,M,10.00,17.00,CLR,M,M,M,M,M,M,M,M,M,M,M,M,M,M,94.21,KBAM 212115Z AUTO 30008G17KT 260V340 10SM CLR 38/00 A3013 RMK AO1,M
05U,2023-07-21 21:30,-116.0051,39.6042,1811.23,96.80,32.00,10.27,M,M,0.00,30.25,M,10.00,M,M,M,M,M,M,M,M,M,M,M,M,M,M,M,M,91.19,K05U 212130Z AUTO 10SM 36/M00 A3025 RMK A01,M
BVU,2023-07-21 21:35,-114.8611,35.9475,671.00,111.20,35.60,7.73,320.00,5.00,0.00,29.84,M,10.00,M,CLR,M,M,M,M,M,M,M,M,M,M,M,M,M,M,104.21,KBVU 212135Z AUTO 32005KT 10SM CLR 44/02 A2984 RMK AO2,M
CXP,2023-07-21 21:35,-119.7326,39.1923,1431.00,98.60,33.80,10.45,M,5.00,0.00,30.15,M,10.00,11.00,CLR,M,M,M,M,M,M,M,M,M,M,M,M,M,M,92.94,KCXP 212135Z AUTO VRB05G11KT 10SM CLR 37/01 A3015 RMK AO2,M
RTS,2023-07-21 21:35,-119.8764,39.6682,1539.00,95.00,32.00,10.85,0.00,0.00,0.00,30.18,M,10.00,M,CLR,M,M,M,M,M,M,M,M,M,M,M,M,M,M,89.71,KRTS 212135Z AUTO 00000KT 10SM CLR 35/M00 A3018 RMK AO2,M
MEV,2023-07-21 21:35,-119.7500,38.9963,1441.42,96.80,37.40,12.73,M,3.00,0.00,30.14,M,10.00,13.00,CLR,M,M,M,M,M,M,M,M,M,M,M,M,M,M,92.04,KMEV 212135Z AUTO VRB03G13KT 10SM CLR 36/03 A3014 RMK AO2,M
HTH,2023-07-21 21:35,-118.6315,38.5448,1282.89,98.60,30.20,9.04,340.00,8.00,0.00,30.09,M,10.00,M,CLR,M,M,M,M,M,M,M,M,M,M,M,M,M,M,92.46,KHTH 212135Z AUTO 34008KT 10SM CLR 37/M01 A3009 RMK A01,M
TMT,2023-07-21 21:35,-117.1971,39.4643,1749.34,93.70,40.00,15.51,210.00,4.00,0.00,30.22,M,M,M,CLR,M,M,M,M,M,M,M,M,M,M,M,M,M,M,89.42,KTMT 212135Z AUTO 21004KT CLR 34/04 A3022 RMK AO2 T03430044 PWINO,M
10U,2023-07-21 21:35,-116.1876,41.9532,1637.00,95.00,15.80,5.51,M,5.00,0.00,30.20,M,10.00,12.00,CLR,M,M,M,M,M,M,M,M,M,M,M,M,M,M,88.29,K10U 212135Z AUTO VRB05G12KT 10SM CLR 35/M09 A3020 RMK AO2,M
BAM,2023-07-21 21:35,-116.8743,40.5990,1382.36,102.20,32.00,8.72,250.00,6.00,0.00,30.13,M,10.00,14.00,CLR,M,M,M,M,M,M,M,M,M,M,M,M,M,M,95.74,KBAM 212135Z AUTO 25006G14KT 10SM CLR 39/00 A3013 RMK AO1,M
05U,2023-07-21 21:45,-116.0051,39.6042,1811.23,96.80,33.80,11.04,M,M,0.00,30.25,M,10.00,M,M,M,M,M,M,M,M,M,M,M,M,M,M,M,M,91.44,K05U 212145Z AUTO 10SM 36/01 A3025 RMK A01,M
P68,2023-07-21 21:53,-116.0056,39.6014,1993.00,95.00,29.00,9.61,M,4.00,0.00,30.21,1013.60,M,16.00,M,M,M,M,M,M,M,M,M,M,M,M,M,M,M,89.34,KP68 212153Z AUTO VRB04G16KT 35/M02 A3021 RMK AO1 SLP136 T03501017,M
DRA,2023-07-21 21:53,-116.0278,36.6206,1009.00,109.00,39.00,9.42,210.00,12.00,0.00,29.96,1008.30,10.00,21.00,CLR,M,M,M,M,M,M,M,M,M,M,M,M,M,M,102.93,KDRA 212153Z AUTO 21012G21KT 10SM CLR 43/04 A2996 RMK AO2 SLP083 T04280039,M
ELY,2023-07-21 21:53,-114.8453,39.2950,1909.00,93.00,39.00,15.24,M,5.00,0.00,30.25,1013.00,10.00,14.00,CLR,M,M,M,M,M,M,M,M,M,M,M,M,M,M,88.73,KELY 212153Z AUTO VRB05G14KT 10SM CLR 34/04 A3025 RMK AO2 SLP130 T03390039,M
VGT,2023-07-21 21:53,-115.1933,36.2111,667.00,112.00,42.00,9.70,210.00,7.00,0.00,29.85,1008.80,10.00,M,CLR,M,M,M,M,M,M,M,M,M,M,M,M,M,M,106.54,KVGT 212153Z 21007KT 10SM CLR 44/06 A2985 RMK AO2 SLP088 T04440056,M
LOL,2023-07-21 21:53,-118.5701,40.0684,1192.43,100.00,33.00,9.70,M,M,0.00,30.06,1013.60,10.00,M,CLR,M,M,M,M,M,M,M,M,M,M,M,M,M,M,94.01,KLOL 212153Z AUTO 10SM CLR 38/01 A3006 RMK AO2 SLP136 T03780006,M
BVU,2023-07-21 21:55,-114.8611,35.9475,671.00,113.00,35.60,7.34,180.00,9.00,0.00,29.83,M,10.00,M,CLR,M,M,M,M,M,M,M,M,M,M,M,M,M,M,105.91,KBVU 212155Z AUTO 18009KT 10SM CLR 45/02 A2983 RMK AO2,M
CXP,2023-07-21 21:55,-119.7326,39.1923,1431.00,98.60,26.60,7.80,270.00,9.00,0.00,30.15,M,10.00,16.00,CLR,M,M,M,M,M,M,M,M,M,M,M,M,M,M,92.07,KCXP 212155Z AUTO 27009G16KT 10SM CLR 37/M03 A3015 RMK AO2,M
INS,2023-07-21 21:55,-115.6733,36.5872,955.00,107.00,30.00,6.98,30.00,6.00,0.00,29.93,1007.50,10.00,M,CLR,M,M,M,M,M,M,M,M,M,M,M,M,M,M,99.56,KINS 212155Z AUTO 03006KT 10SM CLR 42/M01 A2993 RMK AO2 SLP075 T04171011 $,M
RNO,2023-07-21 21:55,-119.7711,39.4839,1341.00,101.00,36.00,10.61,300.00,5.00,0.00,30.11,1012.50,10.00,M,FEW,M,M,M,11000.00,M,M,M,M,M,M,M,M,M,M,95.34,KRNO 212155Z 30005KT 10SM FEW110 38/02 A3011 RMK AO2 SLP125 T03830022,M
LSV,2023-07-21 21:55,-115.0343,36.2362,570.00,116.60,40.30,7.96,220.00,10.00,0.00,29.79,M,10.00,M,CLR,M,M,M,M,M,M,M,M,M,M,M,M,M,M,109.80,KLSV 212155Z AUTO 22010KT 10SM CLR 47/05 A2979 RMK AO2 SLPNO T04700046 $,M
RTS,2023-07-21 21:55,-119.8764,39.6682,1539.00,95.00,30.20,10.09,270.00,8.00,0.00,30.18,M,10.00,M,CLR,M,M,M,M,M,M,M,M,M,M,M,M,M,M,89.48,KRTS 212155Z AUTO 27008KT 10SM CLR 35/M01 A3018 RMK AO2,M
MEV,2023-07-21 21:55,-119.7500,38.9963,1441.42,96.80,35.60,11.86,320.00,9.00,0.00,30.13,M,10.00,15.00,CLR,M,M,M,M,M,M,M,M,M,M,M,M,M,M,91.72,KMEV 212155Z AUTO 32009G15KT 290V350 10SM CLR 36/02 A3013 RMK AO2,M
HTH,2023-07-21 21:55,-118.6315,38.5448,1282.89,98.60,32.00,9.72,310.00,7.00,0.00,30.08,M,10.00,M,CLR,M,M,M,M,M,M,M,M,M,M,M,M,M,M,92.69,KHTH 212155Z AUTO 31007KT 10SM CLR 37/M00 A3008 RMK A01,M
TMT,2023-07-21 21:55,-117.1971,39.4643,1749.34,95.40,39.60,14.49,170.00,8.00,0.00,30.22,M,M,20.00,CLR,M,M,M,M,M,M,M,M,M,M,M,M,M,M,90.96,KTMT 212155Z AUTO 17008G20KT CLR 35/04 A3022 RMK AO2 T03520042 PWINO,M
BAM,2023-07-21 21:55,-116.8743,40.5990,1382.36,102.20,32.00,8.72,270.00,11.00,0.00,30.12,M,10.00,18.00,CLR,M,M,M,M,M,M,M,M,M,M,M,M,M,M,95.74,KBAM 212155Z AUTO 27011G18KT 10SM CLR 39/00 A3012 RMK AO1,M
10U,2023-07-21 21:55,-116.1876,41.9532,1637.00,95.00,14.00,5.09,200.00,13.00,0.00,30.19,M,10.00,18.00,CLR,M,M,M,M,M,M,M,M,M,M,M,M,M,M,88.20,K10U 212155Z AUTO 20013G18KT 150V230 10SM CLR 35/M10 A3019 RMK AO2,M
EKO,2023-07-21 21:56,-115.7860,40.8242,1367.00,98.00,35.00,11.16,220.00,11.00,0.00,30.16,1014.50,10.00,18.00,CLR,M,M,M,M,M,M,M,M,M,M,M,M,M,M,92.63,KEKO 212156Z AUTO 22011G18KT 10SM CLR 37/02 A3016 RMK AO2 SLP145 T03670017,M
WMC,2023-07-21 21:56,-117.8072,40.9019,1315.00,102.00,25.00,6.59,280.00,6.00,0.00,30.09,M,10.00,23.00,CLR,M,M,M,M,M,M,M,M,M,M,M,M,M,M,94.76,KWMC 212156Z AUTO 28006G23KT 10SM CLR 39/M04 A3009 RMK AO2 SLPNO T03891039,M
NFL,2023-07-21 21:56,-118.7010,39.4166,1199.00,100.00,33.00,9.70,M,5.00,0.00,30.06,1014.80,10.00,M,FEW,M,M,M,7000.00,M,M,M,M,M,M,M,M,M,M,94.01,KNFL 212156Z VRB05KT 10SM FEW070 38/01 A3006 RMK AO2 SLP148 T03780006,M
HND,2023-07-21 21:56,-115.1344,35.9729,742.79,113.00,46.00,10.98,320.00,9.00,0.00,29.90,1009.80,10.00,M,CLR,M,M,M,M,M,M,M,M,M,M,M,M,M,M,108.58,KHND 212156Z 32009KT 280V350 10SM CLR 45/08 A2990 RMK AO2 SLP098 T04500078,M
TPH,2023-07-21 21:56,-117.0904,38.0505,1654.00,97.00,52.00,22.07,M,M,0.00,30.17,1011.60,10.00,M,CLR,M,M,M,M,M,M,M,M,M,M,M,M,M,M,94.38,KTPH 212156Z AUTO 10SM CLR 36/11 A3017 RMK AO2 SLP116 T03610111 $,M
LAS,2023-07-21 21:56,-115.1634,36.0719,663.00,112.00,42.00,9.70,M,M,0.00,29.85,1007.30,10.00,M,FEW,FEW,SCT,M,14000.00,20000.00,25000.00,M,M,M,M,M,M,M,M,106.54,KLAS 212156Z 10SM FEW140 FEW200 SCT250 44/06 A2985 RMK AO2 SLP073 CB DSNT N-NE T04440056,M
LAS,2023-07-21 22:00,-115.1634,36.0719,663.00,112.00,42.00,9.70,50.00,5.00,0.00,29.85,M,10.00,M,FEW,FEW,SCT,M,14000.00,20000.00,25000.00,M,M,M,M,M,M,M,M,106.54,KLAS 212200Z 05005KT 10SM FEW140 FEW200 SCT250 44/06 A2985 RMK AO2 CB DSNT N-NE T04440056,M
05U,2023-07-21 22:05,-116.0051,39.6042,1811.23,96.80,32.00,10.27,M,M,0.00,30.24,M,10.00,M,M,M,M,M,M,M,M,M,M,M,M,M,M,M,M,91.19,K05U 212205Z AUTO 10SM 36/M00 A3024 RMK A01,M
BVU,2023-07-21 22:15,-114.8611,35.9475,671.00,113.00,35.60,7.34,170.00,7.00,0.00,29.83,M,10.00,M,CLR,M,M,M,M,M,M,M,M,M,M,M,M,M,M,105.91,KBVU 212215Z AUTO 17007KT 140V200 10SM CLR 45/02 A2983 RMK AO2,M
CXP,2023-07-21 22:15,-119.7326,39.1923,1431.00,98.60,19.40,5.76,270.00,10.00,0.00,30.14,M,10.00,M,CLR,M,M,M,M,M,M,M,M,M,M,M,M,M,M,91.49,KCXP 212215Z AUTO 27010KT 10SM CLR 37/M07 A3014 RMK AO2,M
RTS,2023-07-21 22:15,-119.8764,39.6682,1539.00,95.00,30.20,10.09,0.00,0.00,0.00,30.17,M,10.00,12.00,CLR,M,M,M,M,M,M,M,M,M,M,M,M,M,M,89.48,KRTS 212215Z AUTO 00000G12KT 10SM CLR 35/M01 A3017 RMK AO2,M
MEV,2023-07-21 22:15,-119.7500,38.9963,1441.42,98.60,32.00,9.72,270.00,12.00,0.00,30.13,M,10.00,M,CLR,M,M,M,M,M,M,M,M,M,M,M,M,M,M,92.69,KMEV 212215Z AUTO 27012KT 10SM CLR 37/M00 A3013 RMK AO2,M
HTH,2023-07-21 22:15,-118.6315,38.5448,1282.89,98.60,32.00,9.72,M,5.00,0.00,30.07,M,10.00,M,CLR,M,M,M,M,M,M,M,M,M,M,M,M,M,M,92.69,KHTH 212215Z AUTO VRB05KT 10SM CLR 37/M00 A3007 RMK A01,M
10U,2023-07-21 22:15,-116.1876,41.9532,1637.00,95.00,14.00,5.09,M,3.00,0.00,30.19,M,10.00,12.00,CLR,M,M,M,M,M,M,M,M,M,M,M,M,M,M,88.20,K10U 212215Z AUTO VRB03G12KT 10SM CLR 35/M10 A3019 RMK AO2,M
BAM,2023-07-21 22:15,-116.8743,40.5990,1382.36,100.40,32.00,9.21,0.00,0.00,0.00,30.11,M,10.00,M,CLR,M,M,M,M,M,M,M,M,M,M,M,M,M,M,94.21,KBAM 212215Z AUTO 00000KT 10SM CLR 38/00 A3011 RMK AO1,M
TMT,2023-07-21 22:15,-117.1971,39.4643,1749.34,95.40,39.40,14.38,170.00,5.00,0.00,30.21,M,M,M,CLR,M,M,M,M,M,M,M,M,M,M,M,M,M,M,90.95,KTMT 212215Z AUTO 17005KT CLR 35/04 A3021 RMK AO2 T03520041 PWINO,M
05U,2023-07-21 22:20,-116.0051,39.6042,1811.23,96.80,30.20,9.55,M,M,0.00,30.23,M,10.00,M,M,M,M,M,M,M,M,M,M,M,M,M,M,M,M,90.96,K05U 212220Z AUTO 10SM 36/M01 A3023 RMK A01,M
BVU,2023-07-21 22:35,-114.8611,35.9475,671.00,113.00,35.60,7.34,100.00,8.00,0.00,29.82,M,10.00,M,CLR,M,M,M,M,M,M,M,M,M,M,M,M,M,M,105.91,KBVU 212235Z AUTO 10008KT 10SM CLR 45/02 A2982 RMK AO2,M
CXP,2023-07-21 22:35,-119.7326,39.1923,1431.00,98.60,19.40,5.76,240.00,7.00,0.00,30.14,M,10.00,17.00,CLR,M,M,M,M,M,M,M,M,M,M,M,M,M,M,91.49,KCXP 212235Z AUTO 24007G17KT 10SM CLR 37/M07 A3014 RMK AO2,M
RTS,2023-07-21 22:35,-119.8764,39.6682,1539.00,95.00,32.00,10.85,250.00,8.00,0.00,30.17,M,10.00,M,CLR,M,M,M,M,M,M,M,M,M,M,M,M,M,M,89.71,KRTS 212235Z AUTO 25008KT 10SM CLR 35/00 A3017 RMK AO2,M
MEV,2023-07-21 22:35,-119.7500,38.9963,1441.42,98.60,30.20,9.04,300.00,13.00,0.00,30.12,M,10.00,M,CLR,M,M,M,M,M,M,M,M,M,M,M,M,M,M,92.46,KMEV 212235Z AUTO 30013KT 10SM CLR 37/M01 A3012 RMK AO2,M
HTH,2023-07-21 22:35,-118.6315,38.5448,1282.89,100.40,32.00,9.21,340.00,7.00,0.00,30.06,M,10.00,M,CLR,M,M,M,M,M,M,M,M,M,M,M,M,M,M,94.21,KHTH 212235Z AUTO 34007KT 10SM CLR 38/00 A3006 RMK A01,M
10U,2023-07-21 22:35,-116.1876,41.9532,1637.00,96.80,15.80,5.21,200.00,10.00,0.00,30.18,M,10.00,18.00,CLR,M,M,M,M,M,M,M,M,M,M,M,M,M,M,89.78,K10U 212235Z AUTO 20010G18KT 10SM CLR 36/M09 A3018 RMK AO2,M
BAM,2023-07-21 22:35,-116.8743,40.5990,1382.36,100.40,32.00,9.21,270.00,9.00,0.00,30.10,M,10.00,M,CLR,M,M,M,M,M,M,M,M,M,M,M,M,M,M,94.21,KBAM 212235Z AUTO 27009KT 10SM CLR 38/00 A3010 RMK AO1,M
TMT,2023-07-21 22:35,-117.1971,39.4643,1749.34,95.50,38.00,13.57,210.00,4.00,0.00,30.20,M,M,15.00,CLR,M,M,M,M,M,M,M,M,M,M,M,M,M,M,90.95,KTMT 212235Z AUTO 21004G15KT CLR 35/03 A3020 RMK AO2 T03530033 PWINO,M
05U,2023-07-21 22:40,-116.0051,39.6042,1811.23,98.60,32.00,9.72,M,M,0.00,30.23,M,10.00,M,M,M,M,M,M,M,M,M,M,M,M,M,M,M,M,92.69,K05U 212240Z AUTO 10SM 37/M00 A3023 RMK A01,M
P68,2023-07-21 22:53,-116.0056,39.6014,1993.00,95.00,29.00,9.61,130.00,5.00,0.00,30.19,1013.00,M,M,M,M,M,M,M,M,M,M,M,M,M,M,M,M,M,89.34,KP68 212253Z AUTO 13005KT 35/M02 A3019 RMK AO1 SLP130 T03501017,M
DRA,2023-07-21 22:53,-116.0278,36.6206,1009.00,109.00,38.00,9.06,M,M,0.00,29.94,1007.60,10.00,M,CLR,M,M,M,M,M,M,M,M,M,M,M,M,M,M,102.70,KDRA 212253Z AUTO 10SM CLR 43/03 A2994 RMK AO2 SLP076 T04280033,M
ELY,2023-07-21 22:53,-114.8453,39.2950,1909.00,94.00,38.00,14.21,210.00,5.00,0.00,30.23,1012.20,10.00,16.00,CLR,M,M,M,M,M,M,M,M,M,M,M,M,M,M,89.58,KELY 212253Z AUTO 21005G16KT 10SM CLR 34/03 A3023 RMK AO2 SLP122 T03440033,M
VGT,2023-07-21 22:53,-115.1933,36.2111,667.00,113.00,40.00,8.72,210.00,4.00,0.00,29.83,1008.00,10.00,M,CLR,M,M,M,M,M,M,M,M,M,M,M,M,M,M,106.88,KVGT 212253Z 21004KT 10SM CLR 45/04 A2983 RMK AO2 SLP080 T04500044,M
LOL,2023-07-21 22:53,-118.5701,40.0684,1192.43,101.00,31.00,8.68,220.00,7.00,0.00,30.04,1012.60,10.00,M,CLR,M,M,M,M,M,M,M,M,M,M,M,M,M,M,94.59,KLOL 212253Z AUTO 22007KT 10SM CLR 38/M01 A3004 RMK AO2 SLP126 T03831006,M
BVU,2023-07-21 22:55,-114.8611,35.9475,671.00,113.00,35.60,7.34,230.00,8.00,0.00,29.81,M,10.00,M,CLR,M,M,M,M,M,M,M,M,M,M,M,M,M,M,105.91,KBVU 212255Z AUTO 23008KT 220V290 10SM CLR 45/02 A2981 RMK AO2,M
CXP,2023-07-21 22:55,-119.7326,39.1923,1431.00,98.60,21.20,6.22,240.00,11.00,0.00,30.13,M,10.00,M,CLR,M,M,M,M,M,M,M,M,M,M,M,M,M,M,91.61,KCXP 212255Z AUTO 24011KT 200V270 10SM CLR 37/M06 A3013 RMK AO2,M
INS,2023-07-21 22:55,-115.6733,36.5872,955.00,108.30,31.00,6.99,20.00,4.00,0.00,29.91,1006.90,10.00,M,CLR,M,M,M,M,M,M,M,M,M,M,M,M,M,M,100.82,KINS 212255Z AUTO 02004KT 10SM CLR 42/M01 A2991 RMK AO2 SLP069 T04241006 $,M
RNO,2023-07-21 22:55,-119.7711,39.4839,1341.00,100.00,34.00,10.10,200.00,6.00,0.00,30.09,1012.00,10.00,M,FEW,M,M,M,13000.00,M,M,M,M,M,M,M,M,M,M,94.16,KRNO 212255Z 20006KT 10SM FEW130 38/01 A3009 RMK AO2 SLP120 T03780011,M
LSV,2023-07-21 22:55,-115.0343,36.2362,570.00,116.00,36.30,6.92,20.00,5.00,0.00,29.77,1004.80,10.00,M,CLR,M,M,M,M,M,M,M,M,M,M,M,M,M,M,108.32,KLSV 212255Z AUTO 02005KT 10SM CLR 47/02 A2977 RMK AO2 SLP048 T04660024 $,M
RTS,2023-07-21 22:55,-119.8764,39.6682,1539.00,96.80,33.80,11.04,290.00,10.00,0.00,30.16,M,10.00,17.00,CLR,M,M,M,M,M,M,M,M,M,M,M,M,M,M,91.44,KRTS 212255Z AUTO 29010G17KT 10SM CLR 36/01 A3016 RMK AO2,M
MEV,2023-07-21 22:55,-119.7500,38.9963,1441.42,98.60,28.40,8.40,300.00,10.00,0.00,30.12,M,10.00,19.00,CLR,M,M,M,M,M,M,M,M,M,M,M,M,M,M,92.25,KMEV 212255Z AUTO 30010G19KT 10SM CLR 37/M02 A3012 RMK AO2,M
HTH,2023-07-21 22:55,-118.6315,38.5448,1282.89,100.40,32.00,9.21,320.00,10.00,0.00,30.05,M,10.00,M,CLR,M,M,M,M,M,M,M,M,M,M,M,M,M,M,94.21,KHTH 212255Z AUTO 32010KT 10SM CLR 38/00 A3005 RMK A01,M
BAM,2023-07-21 22:55,-116.8743,40.5990,1382.36,100.40,30.20,8.56,0.00,0.00,0.00,30.10,M,10.00,M,CLR,M,M,M,M,M,M,M,M,M,M,M,M,M,M,93.98,KBAM 212255Z AUTO 00000KT 10SM CLR 38/M01 A3010 RMK AO1,M
TMT,2023-07-21 22:55,-117.1971,39.4643,1749.34,96.80,38.70,13.40,240.00,7.00,0.00,30.20,M,M,M,CLR,M,M,M,M,M,M,M,M,M,M,M,M,M,M,92.19,KTMT 212255Z AUTO 24007KT CLR 36/04 A3020 RMK AO2 T03600037 PWINO,M
10U,2023-07-21 22:55,-116.1876,41.9532,1637.00,96.80,14.00,4.82,200.00,11.00,0.00,30.18,M,10.00,M,CLR,M,M,M,M,M,M,M,M,M,M,M,M,M,M,89.69,K10U 212255Z AUTO 20011KT 10SM CLR 36/M10 A3018 RMK AO2,M
EKO,2023-07-21 22:56,-115.7860,40.8242,1367.00,98.00,35.00,11.16,270.00,11.00,0.00,30.15,1014.40,10.00,15.00,CLR,M,M,M,M,M,M,M,M,M,M,M,M,M,M,92.63,KEKO 212256Z AUTO 27011G15KT 10SM CLR 37/02 A3015 RMK AO2 SLP144 T03670017,M
WMC,2023-07-21 22:56,-117.8072,40.9019,1315.00,103.00,26.00,6.66,270.00,14.00,0.00,30.07,M,10.00,21.00,CLR,M,M,M,M,M,M,M,M,M,M,M,M,M,M,95.70,KWMC 212256Z AUTO 27014G21KT 10SM CLR 39/M03 A3007 RMK AO2 SLPNO T03941033,M
NFL,2023-07-21 22:56,-118.7010,39.4166,1199.00,103.00,25.00,6.39,310.00,9.00,0.00,30.04,1014.20,10.00,M,FEW,M,M,M,7000.00,M,M,M,M,M,M,M,M,M,M,95.60,KNFL 212256Z 31009KT 10SM FEW070 39/M04 A3004 RMK AO2 SLP142 T03941039,M
HND,2023-07-21 22:56,-115.1344,35.9729,742.79,112.00,46.00,11.30,10.00,9.00,0.00,29.87,1008.90,10.00,M,CLR,M,M,M,M,M,M,M,M,M,M,M,M,M,M,107.69,KHND 212256Z 01009KT 10SM CLR 44/08 A2987 RMK AO2 SLP089 T04440078,M
TPH,2023-07-21 22:56,-117.0904,38.0505,1654.00,99.00,53.00,21.54,M,M,0.00,30.15,1011.30,10.00,M,CLR,M,M,M,M,M,M,M,M,M,M,M,M,M,M,96.76,KTPH 212256Z AUTO 10SM CLR 37/12 A3015 RMK AO2 SLP113 T03720117,M
LAS,2023-07-21 22:56,-115.1634,36.0719,663.00,113.00,41.00,9.07,40.00,7.00,0.00,29.83,1006.40,10.00,M,FEW,FEW,SCT,M,14000.00,20000.00,25000.00,M,M,M,M,M,M,M,M,107.12,KLAS 212256Z 04007KT 10SM FEW140 FEW200 SCT250 45/05 A2983 RMK AO2 SLP064 CB DSNT N-NE AND SE T04500050,M
05U,2023-07-21 23:10,-116.0051,39.6042,1811.23,98.60,32.00,9.72,360.00,5.00,0.00,30.22,M,10.00,M,M,M,M,M,M,M,M,M,M,M,M,M,M,M,M,92.69,K05U 212310Z AUTO 36005KT 10SM 37/M00 A3022 RMK A01,M
BVU,2023-07-21 23:15,-114.8611,35.9475,671.00,114.80,33.80,6.49,M,5.00,0.00,29.80,M,10.00,14.00,CLR,M,M,M,M,M,M,M,M,M,M,M,M,M,M,106.91,KBVU 212315Z AUTO VRB05G14KT 10SM CLR 46/01 A2980 RMK AO2,M
CXP,2023-07-21 23:15,-119.7326,39.1923,1431.00,98.60,23.00,6.71,290.00,12.00,0.00,30.13,M,10.00,M,CLR,M,M,M,M,M,M,M,M,M,M,M,M,M,M,91.75,KCXP 212315Z AUTO 29012KT 10SM CLR 37/M05 A3013 RMK AO2,M
RTS,2023-07-21 23:15,-119.8764,39.6682,1539.00,95.00,30.20,10.09,0.00,0.00,0.00,30.16,M,10.00,18.00,CLR,M,M,M,M,M,M,M,M,M,M,M,M,M,M,89.48,KRTS 212315Z AUTO 00000G18KT 10SM CLR 35/M01 A3016 RMK AO2,M
MEV,2023-07-21 23:15,-119.7500,38.9963,1441.42,96.80,28.40,8.87,290.00,12.00,0.00,30.11,M,10.00,18.00,CLR,M,M,M,M,M,M,M,M,M,M,M,M,M,M,90.75,KMEV 212315Z AUTO 29012G18KT 10SM CLR 36/M02 A3011 RMK AO2,M
HTH,2023-07-21 23:15,-118.6315,38.5448,1282.89,100.40,32.00,9.21,330.00,10.00,0.00,30.04,M,10.00,17.00,CLR,M,M,M,M,M,M,M,M,M,M,M,M,M,M,94.21,KHTH 212315Z AUTO 33010G17KT 10SM CLR 38/00 A3004 RMK A01,M
10U,2023-07-21 23:15,-116.1876,41.9532,1637.00,95.00,15.80,5.51,M,4.00,0.00,30.17,M,10.00,10.00,CLR,M,M,M,M,M,M,M,M,M,M,M,M,M,M,88.29,K10U 212315Z AUTO VRB04G10KT 10SM CLR 35/M09 A3017 RMK AO2,M
BAM,2023-07-21 23:15,-116.8743,40.5990,1382.36,102.20,32.00,8.72,270.00,7.00,0.00,30.09,M,10.00,16.00,CLR,M,M,M,M,M,M,M,M,M,M,M,M,M,M,95.74,KBAM 212315Z AUTO 27007G16KT 240V300 10SM CLR 39/00 A3009 RMK AO1,M
TMT,2023-07-21 23:15,-117.1971,39.4643,1749.34,93.40,37.00,13.92,300.00,4.00,0.00,30.19,M,M,M,CLR,M,M,M,M,M,M,M,M,M,M,M,M,M,M,88.99,KTMT 212315Z AUTO 30004KT CLR 34/03 A3019 RMK AO2 T03410027 PWINO,M
05U,2023-07-21 23:30,-116.0051,39.6042,1811.23,96.80,33.80,11.04,M,M,0.00,30.21,M,10.00,M,M,M,M,M,M,M,M,M,M,M,M,M,M,M,M,91.44,K05U 212330Z AUTO 10SM 36/01 A3021 RMK A01,M
BVU,2023-07-21 23:35,-114.8611,35.9475,671.00,114.80,33.80,6.49,270.00,9.00,0.00,29.80,M,10.00,15.00,CLR,M,M,M,M,M,M,M,M,M,M,M,M,M,M,106.91,KBVU 212335Z AUTO 27009G15KT 10SM CLR 46/01 A2980 RMK AO2,M
CXP,2023-07-21 23:35,-119.7326,39.1923,1431.00,98.60,23.00,6.71,290.00,15.00,0.00,30.12,M,10.00,M,CLR,M,M,M,M,M,M,M,M,M,M,M,M,M,M,91.75,KCXP 212335Z AUTO 29015KT 10SM CLR 37/M05 A3012 RMK AO2,M
RTS,2023-07-21 23:35,-119.8764,39.6682,1539.00,96.80,28.40,8.87,320.00,11.00,0.00,30.15,M,10.00,M,CLR,M,M,M,M,M,M,M,M,M,M,M,M,M,M,90.75,KRTS 212335Z AUTO 32011KT 270V330 10SM CLR 36/M02 A3015 RMK AO2,M
MEV,2023-07-21 23:35,-119.7500,38.9963,1441.42,98.60,30.20,9.04,290.00,12.00,0.00,30.11,M,10.00,M,CLR,M,M,M,M,M,M,M,M,M,M,M,M,M,M,92.46,KMEV 212335Z AUTO 29012KT 10SM CLR 37/M01 A3011 RMK AO2,M
HTH,2023-07-21 23:35,-118.6315,38.5448,1282.89,102.20,33.80,9.37,330.00,11.00,0.00,30.04,M,10.00,M,CLR,M,M,M,M,M,M,M,M,M,M,M,M,M,M,96.01,KHTH 212335Z AUTO 33011KT 10SM CLR 39/01 A3004 RMK A01,M
TMT,2023-07-21 23:35,-117.1971,39.4643,1749.34,94.00,37.00,13.66,290.00,4.00,0.00,30.18,M,M,M,CLR,M,M,M,M,M,M,M,M,M,M,M,M,M,M,89.53,KTMT 212335Z AUTO 29004KT CLR 35/03 A3018 RMK AO2 T03450028 PWINO,M
10U,2023-07-21 23:35,-116.1876,41.9532,1637.00,95.00,14.00,5.09,200.00,10.00,0.00,30.17,M,10.00,M,CLR,M,M,M,M,M,M,M,M,M,M,M,M,M,M,88.20,K10U 212335Z AUTO 20010KT 10SM CLR 35/M10 A3017 RMK AO2,M
BAM,2023-07-21 23:35,-116.8743,40.5990,1382.36,100.40,32.00,9.21,230.00,6.00,0.00,30.08,M,10.00,M,CLR,M,M,M,M,M,M,M,M,M,M,M,M,M,M,94.21,KBAM 212335Z AUTO 23006KT 10SM CLR 38/00 A3008 RMK AO1,M
05U,2023-07-21 23:45,-116.0051,39.6042,1811.23,96.80,32.00,10.27,M,M,0.00,30.20,M,10.00,M,M,M,M,M,M,M,M,M,M,M,M,M,M,M,M,91.19,K05U 212345Z AUTO 10SM 36/00 A3020 RMK A01,M
P68,2023-07-21 23:53,-116.0056,39.6014,1993.00,95.00,32.00,10.85,80.00,4.00,0.00,30.17,1012.10,M,M,M,M,M,M,M,M,M,M,M,M,M,M,M,M,M,89.71,KP68 212353Z AUTO 08004KT 35/00 A3017 RMK AO1 SLP121 T03500000 10361 20311 58016,M
DRA,2023-07-21 23:53,-116.0278,36.6206,1009.00,108.00,37.00,8.96,M,6.00,0.00,29.92,1007.00,10.00,16.00,CLR,M,M,M,M,M,M,M,M,M,M,M,M,M,M,101.61,KDRA 212353Z AUTO VRB06G16KT 10SM CLR 42/03 A2992 RMK AO2 SLP070 T04220028 10433 20389 56018,M
ELY,2023-07-21 23:53,-114.8453,39.2950,1909.00,96.00,40.00,14.45,10.00,10.00,0.00,30.20,1011.40,10.00,21.00,CLR,M,M,M,M,M,M,M,M,M,M,M,M,M,M,91.55,KELY 212353Z AUTO 01010G21KT 10SM CLR 36/04 A3020 RMK AO2 LTG DSNT SE SLP114 T03560044 10356 20311 58017,M
VGT,2023-07-21 23:53,-115.1933,36.2111,667.00,113.00,39.00,8.39,0.00,0.00,0.00,29.80,1007.20,10.00,M,CLR,M,M,M,M,M,M,M,M,M,M,M,M,M,M,106.64,KVGT 212353Z 00000KT 10SM CLR 45/04 A2980 RMK AO2 SLP072 T04500039 10461 20417 58021,M
LOL,2023-07-21 23:53,-118.5701,40.0684,1192.43,100.00,26.00,7.29,180.00,6.00,0.00,30.02,1012.00,10.00,M,CLR,M,M,M,M,M,M,M,M,M,M,M,M,M,M,93.18,KLOL 212353Z AUTO 18006KT 10SM CLR 38/M03 A3002 RMK AO2 SLP120 T03781033 10389 20322 58019,M
BVU,2023-07-21 23:55,-114.8611,35.9475,671.00,113.00,33.80,6.83,0.00,0.00,0.00,29.79,M,10.00,13.00,CLR,M,M,M,M,M,M,M,M,M,M,M,M,M,M,105.58,KBVU 212355Z AUTO 00000G13KT 10SM CLR 45/01 A2979 RMK AO2,M
CXP,2023-07-21 23:55,-119.7326,39.1923,1431.00,98.60,21.20,6.22,280.00,11.00,0.00,30.12,M,10.00,19.00,CLR,M,M,M,M,M,M,M,M,M,M,M,M,M,M,91.61,KCXP 212355Z AUTO 28011G19KT 10SM CLR 37/M06 A3012 RMK AO2,M
INS,2023-07-21 23:55,-115.6733,36.5872,955.00,105.60,32.00,7.88,70.00,5.00,0.00,29.89,1006.20,10.00,M,FEW,M,M,M,15000.00,M,M,M,M,M,M,M,M,M,M,98.65,KINS 212355Z AUTO 07005KT 10SM FEW150 41/00 A2989 RMK AO2 SLP062 T04090001 10427 20387 $,M
RNO,2023-07-21 23:55,-119.7711,39.4839,1341.00,101.00,20.00,5.50,290.00,9.00,0.00,30.07,1011.60,10.00,16.00,CLR,M,M,M,M,M,M,M,M,M,M,M,M,M,M,93.52,KRNO 212355Z COR 29009G16KT 10SM CLR 38/M07 A3007 RMK AO2 SLP116 T03831067 10400 20300 56016,M
LSV,2023-07-21 23:55,-115.0343,36.2362,570.00,114.40,35.20,6.94,340.00,5.00,0.00,29.75,M,10.00,M,CLR,M,M,M,M,M,M,M,M,M,M,M,M,M,M,106.90,KLSV 212355Z AUTO 34005KT 10SM CLR 46/02 A2975 RMK AO2 SLPNO T04580018 10470 20430 $,M
RTS,2023-07-21 23:55,-119.8764,39.6682,1539.00,96.80,24.80,7.65,330.00,11.00,0.00,30.15,M,10.00,20.00,CLR,M,M,M,M,M,M,M,M,M,M,M,M,M,M,90.40,KRTS 212355Z AUTO 33011G20KT 10SM CLR 36/M04 A3015 RMK AO2,M
MEV,2023-07-21 23:55,-119.7500,38.9963,1441.42,96.80,28.40,8.87,290.00,14.00,0.00,30.11,M,10.00,M,CLR,M,M,M,M,M,M,M,M,M,M,M,M,M,M,90.75,KMEV 212355Z AUTO 29014KT 10SM CLR 36/M02 A3011 RMK AO2,M
HTH,2023-07-21 23:55,-118.6315,38.5448,1282.89,102.20,32.00,8.72,330.00,9.00,0.00,30.03,M,10.00,14.00,CLR,M,M,M,M,M,M,M,M,M,M,M,M,M,M,95.74,KHTH 212355Z AUTO 33009G14KT 10SM CLR 39/00 A3003 RMK A01,M
TMT,2023-07-21 23:55,-117.1971,39.4643,1749.34,95.40,37.40,13.29,290.00,6.00,0.00,30.18,M,M,10.00,CLR,M,M,M,M,M,M,M,M,M,M,M,M,M,M,90.82,KTMT 212355Z AUTO 29006G10KT CLR 35/03 A3018 RMK AO2 T03520030 10362 20304 PWINO,M
BAM,2023-07-21 23:55,-116.8743,40.5990,1382.36,102.20,30.20,8.11,250.00,15.00,0.00,30.08,M,10.00,18.00,CLR,M,M,M,M,M,M,M,M,M,M,M,M,M,M,95.50,KBAM 212355Z AUTO 25015G18KT 10SM CLR 39/M01 A3008 RMK AO1,M
10U,2023-07-21 23:55,-116.1876,41.9532,1637.00,95.00,15.80,5.51,210.00,9.00,0.00,30.16,M,10.00,M,CLR,M,M,M,M,M,M,M,M,M,M,M,M,M,M,88.29,K10U 212355Z AUTO 21009KT 10SM CLR 35/M09 A3016 RMK AO2,M
EKO,2023-07-21 23:56,-115.7860,40.8242,1367.00,98.00,30.00,9.13,280.00,8.00,0.00,30.13,1013.50,10.00,18.00,CLR,M,M,M,M,M,M,M,M,M,M,M,M,M,M,91.93,KEKO 212356Z AUTO 28008G18KT 10SM CLR 37/M01 A3013 RMK AO2 SLP135 T03671011 10372 20300 58016,M
WMC,2023-07-21 23:56,-117.8072,40.9019,1315.00,103.00,24.00,6.13,230.00,11.00,0.00,30.05,M,10.00,19.00,CLR,M,M,M,M,M,M,M,M,M,M,M,M,M,M,95.50,KWMC 212356Z AUTO 23011G19KT 10SM CLR 39/M04 A3005 RMK AO2 SLPNO T03941044 58010,M
NFL,2023-07-21 23:56,-118.7010,39.4166,1199.00,103.00,28.00,7.24,330.00,8.00,0.00,30.02,1013.40,10.00,M,FEW,M,M,M,7000.00,M,M,M,M,M,M,M,M,M,M,95.91,KNFL 212356Z 33008KT 10SM FEW070 39/M02 A3002 RMK AO2 SLP134 T03941022 10400 20322 58021,M
HND,2023-07-21 23:56,-115.1344,35.9729,742.79,113.00,44.00,10.17,M,5.00,0.00,29.86,1008.40,10.00,M,CLR,M,M,M,M,M,M,M,M,M,M,M,M,M,M,107.95,KHND 212356Z VRB05KT 10SM CLR 45/07 A2986 RMK AO2 SLP084 T04500067 10456 20394 56020,M
TPH,2023-07-21 23:56,-117.0904,38.0505,1654.00,99.00,53.00,21.54,M,M,0.00,30.13,1010.20,10.00,M,CLR,M,M,M,M,M,M,M,M,M,M,M,M,M,M,96.76,KTPH 212356Z AUTO 10SM CLR 37/12 A3013 RMK AO2 SLP102 T03720117 10378 20328 58018,M
LAS,2023-07-21 23:56,-115.1634,36.0719,663.00,112.00,40.00,8.98,0.00,0.00,0.00,29.81,1005.80,10.00,M,FEW,FEW,SCT,M,14000.00,20000.00,25000.00,M,M,M,M,M,M,M,M,106.05,KLAS 212356Z 00000KT 10SM FEW140 FEW200 SCT250 44/04 A2981 RMK AO2 SLP058 CB DSNT N-NE AND SE T04440044 10450 20406 56021,M
