station,valid,lon,lat,elevation,tmpf,dwpf,relh,drct,sknt,p01i,alti,mslp,vsby,gust,skyc1,skyc2,skyc3,skyc4,skyl1,skyl2,skyl3,skyl4,wxcodes,ice_accretion_1hr,ice_accretion_3hr,ice_accretion_6hr,peak_wind_gust,peak_wind_drct,peak_wind_time,feel,metar,snowdepth
BVU,2024-02-20 00:15,-114.8611,35.9475,671.00,68.00,35.60,30.20,160.00,18.00,0.00,29.97,M,10.00,24.00,CLR,M,M,M,M,M,M,M,M,M,M,M,M,M,M,68.00,KBVU 200015Z AUTO 16018G24KT 10SM CLR 20/02 A2997 RMK AO2,M
CXP,2024-02-20 00:15,-119.7326,39.1923,1431.00,46.40,33.80,61.28,190.00,8.00,0.00,29.91,M,10.00,16.00,FEW,FEW,SCT,M,2500.00,4000.00,6500.00,M,M,M,M,M,M,M,M,41.85,KCXP 200015Z AUTO 19008G16KT 10SM FEW025 FEW040 SCT065 08/01 A2991 RMK AO2,M
RTS,2024-02-20 00:15,-119.8764,39.6682,1539.00,46.40,26.60,45.73,210.00,22.00,0.00,29.83,M,10.00,37.00,CLR,M,M,M,M,M,M,M,M,M,M,M,M,M,M,37.86,KRTS 200015Z AUTO 21022G37KT 10SM CLR 08/M03 A2983 RMK AO2,M
05U,2024-02-20 00:15,-116.0051,39.6042,1811.23,35.60,33.80,93.08,0.00,0.00,0.00,29.98,M,10.00,M,M,M,M,M,M,M,M,M,M,M,M,M,M,M,M,35.60,K05U 200015Z AUTO 00000KT 10SM 02/01 A2998 RMK A01,M
MEV,2024-02-20 00:15,-119.7500,38.9963,1441.42,46.40,33.80,61.28,160.00,9.00,0.00,29.89,M,10.00,M,CLR,M,M,M,M,M,M,M,M,M,M,M,M,M,M,41.42,KMEV 200015Z AUTO 16009KT 10SM CLR 08/01 A2989 RMK AO2,M
BAM,2024-02-20 00:15,-116.8743,40.5990,1382.36,51.80,41.00,66.48,110.00,9.00,0.00,29.89,M,10.00,M,CLR,M,M,M,M,M,M,M,M,M,M,M,M,M,M,51.80,KBAM 200015Z AUTO 11009KT 10SM CLR 11/05 A2989 RMK AO1,M
HTH,2024-02-20 00:15,-118.6315,38.5448,1282.89,51.80,28.40,40.25,210.00,15.00,0.00,29.91,M,10.00,21.00,CLR,M,M,M,M,M,M,M,M,M,M,M,M,M,M,51.80,KHTH 200015Z AUTO 21015G21KT 10SM CLR 11/M02 A2991 RMK A01,M
10U,2024-02-20 00:15,-116.1876,41.9532,1637.00,44.60,32.00,61.03,200.00,14.00,0.00,29.91,M,10.00,19.00,FEW,BKN,BKN,M,4100.00,4900.00,5500.00,M,M,M,M,M,M,M,M,37.40,K10U 200015Z AUTO 20014G19KT 10SM FEW041 BKN049 BKN055 07/00 A2991 RMK AO2,M
TMT,2024-02-20 00:15,-117.1971,39.4643,1749.34,48.40,32.70,54.38,190.00,13.00,0.00,29.91,M,10.00,M,CLR,M,M,M,M,M,M,M,M,M,M,M,M,M,M,42.58,KTMT 200015Z AUTO 19013KT 10SM CLR 09/00 A2991 RMK AO2 T00910004,M
TPH,2024-02-20 00:29,-117.0904,38.0505,1654.00,45.00,41.00,85.77,180.00,17.00,0.04,29.96,M,1.75,25.00,SCT,BKN,OVC,M,2400.00,3500.00,6500.00,M,+RA BR,M,M,M,M,M,M,37.11,KTPH 200029Z AUTO 18017G25KT 1 3/4SM +RA BR SCT024 BKN035 OVC065 07/05 A2996 RMK AO2 RAB2357 P0004 T00720050,M
10U,2024-02-20 00:30,-116.1876,41.9532,1637.00,42.80,32.00,65.38,210.00,9.00,0.00,29.92,M,10.00,17.00,BKN,SCT,M,M,5000.00,5500.00,M,M,M,M,M,M,M,M,M,36.94,K10U 200030Z AUTO 21009G17KT 10SM BKN050 SCT055 06/00 A2992 RMK AO2,M
BVU,2024-02-20 00:35,-114.8611,35.9475,671.00,68.00,35.60,30.20,160.00,12.00,0.00,29.98,M,10.00,20.00,CLR,M,M,M,M,M,M,M,M,M,M,M,M,M,M,68.00,KBVU 200035Z AUTO 16012G20KT 10SM CLR 20/02 A2998 RMK AO2,M
CXP,2024-02-20 00:35,-119.7326,39.1923,1431.00,46.40,33.80,61.28,160.00,5.00,0.00,29.90,M,10.00,13.00,CLR,M,M,M,M,M,M,M,M,M,M,M,M,M,M,43.50,KCXP 200035Z AUTO 16005G13KT 10SM CLR 08/01 A2990 RMK AO2,M
RTS,2024-02-20 00:35,-119.8764,39.6682,1539.00,46.40,26.60,45.73,190.00,21.00,0.00,29.84,M,10.00,33.00,CLR,M,M,M,M,M,M,M,M,M,M,M,M,M,M,38.06,KRTS 200035Z AUTO 19021G33KT 10SM CLR 08/M03 A2984 RMK AO2,M
05U,2024-02-20 00:35,-116.0051,39.6042,1811.23,35.60,35.60,100.00,0.00,0.00,0.00,29.98,M,10.00,M,M,M,M,M,M,M,M,M,M,M,M,M,M,M,M,35.60,K05U 200035Z AUTO 00000KT 10SM 02/02 A2998 RMK A01,M
MEV,2024-02-20 00:35,-119.7500,38.9963,1441.42,46.40,30.20,53.00,160.00,13.00,0.00,29.89,M,10.00,19.00,FEW,M,M,M,6500.00,M,M,M,M,M,M,M,M,M,M,40.02,KMEV 200035Z AUTO 16013G19KT 10SM FEW065 08/M01 A2989 RMK AO2,M
BAM,2024-02-20 00:35,-116.8743,40.5990,1382.36,50.00,39.20,66.27,50.00,10.00,0.00,29.91,M,10.00,M,SCT,SCT,SCT,M,3600.00,7000.00,8000.00,M,M,M,M,M,M,M,M,50.00,KBAM 200035Z AUTO 05010KT 10SM SCT036 SCT070 SCT080 10/04 A2991 RMK AO1,M
HTH,2024-02-20 00:35,-118.6315,38.5448,1282.89,51.80,30.20,43.32,210.00,19.00,0.00,29.92,M,10.00,27.00,CLR,M,M,M,M,M,M,M,M,M,M,M,M,M,M,51.80,KHTH 200035Z AUTO 21019G27KT 10SM CLR 11/M01 A2992 RMK A01,M
TMT,2024-02-20 00:35,-117.1971,39.4643,1749.34,48.00,33.00,55.87,200.00,11.00,0.00,29.92,M,10.00,18.00,CLR,M,M,M,M,M,M,M,M,M,M,M,M,M,M,42.69,KTMT 200035Z AUTO 20011G18KT 10SM CLR 09/01 A2992 RMK AO2 T00880006,M
TPH,2024-02-20 00:38,-117.0904,38.0505,1654.00,45.00,42.00,89.15,210.00,10.00,0.06,29.96,M,3.00,21.00,SCT,BKN,OVC,M,2000.00,2800.00,6500.00,M,-RA BR,M,M,M,M,M,M,39.27,KTPH 200038Z AUTO 21010G21KT 3SM -RA BR SCT020 BKN028 OVC065 07/06 A2996 RMK AO2 RAB2357 P0006 T00720056,M
P68,2024-02-20 00:53,-116.0056,39.6014,1993.00,36.00,34.00,92.35,0.00,0.00,0.00,29.96,1012.90,M,M,M,M,M,M,M,M,M,M,M,M,M,M,M,M,M,36.00,KP68 200053Z AUTO 00000KT 02/01 A2996 RMK AO1 SLP129 T00220011,M
DRA,2024-02-20 00:53,-116.0278,36.6206,1009.00,59.00,41.00,51.18,200.00,17.00,0.00,30.00,1013.70,10.00,24.00,OVC,M,M,M,9000.00,M,M,M,M,M,M,M,M,M,M,59.00,KDRA 200053Z AUTO 20017G24KT 10SM OVC090 15/05 A3000 RMK AO2 SLP137 T01500050,M
ELY,2024-02-20 00:53,-114.8453,39.2950,1909.00,38.00,35.00,88.83,170.00,15.00,0.01,29.98,1013.80,10.00,24.00,FEW,BKN,OVC,M,2900.00,4700.00,6000.00,M,-RA,M,M,M,M,M,M,28.56,KELY 200053Z AUTO 17015G24KT 10SM -RA FEW029 BKN047 OVC060 03/02 A2998 RMK AO2 LTG DSNT W RAB01 SLP138 P0001 T00330017,M
VGT,2024-02-20 00:53,-115.1933,36.2111,667.00,69.00,40.00,34.69,230.00,8.00,0.00,29.97,1015.90,10.00,M,OVC,M,M,M,8500.00,M,M,M,M,M,M,M,M,M,M,69.00,KVGT 200053Z 23008KT 10SM OVC085 21/04 A2997 RMK AO2 SLP159 T02060044,M
LOL,2024-02-20 00:53,-118.5701,40.0684,1192.43,52.00,28.00,39.30,210.00,17.00,0.00,29.85,1010.40,10.00,28.00,FEW,M,M,M,8000.00,M,M,M,M,M,M,M,28.00,200.00,2024-02-20 00:28,52.00,KLOL 200053Z AUTO 21017G28KT 10SM FEW080 11/M02 A2985 RMK AO2 PK WND 20028/0028 SLP104 T01111022,M
10U,2024-02-20 00:55,-116.1876,41.9532,1637.00,42.80,32.00,65.38,200.00,8.00,0.00,29.92,M,10.00,M,FEW,M,M,M,5500.00,M,M,M,M,M,M,M,M,M,M,37.42,K10U 200055Z AUTO 20008KT 10SM FEW055 06/00 A2992 RMK AO2,M
INS,2024-02-20 00:55,-115.6733,36.5872,955.00,62.00,37.20,39.66,230.00,12.00,0.00,29.98,1013.00,10.00,M,FEW,M,M,M,7500.00,M,M,M,M,M,M,M,M,M,M,62.00,KINS 200055Z AUTO 23012KT 10SM FEW075 17/03 A2998 RMK AO2 SLP130 T01660029,M
LSV,2024-02-20 00:55,-115.0343,36.2362,570.00,68.50,39.70,34.88,230.00,6.00,0.00,29.94,1012.80,10.00,M,OVC,M,M,M,8000.00,M,M,M,M,M,M,M,M,M,M,68.50,KLSV 200055Z AUTO 23006KT 10SM OVC080 20/04 A2994 RMK AO2 SLP128 T02030043 $,M
BVU,2024-02-20 00:55,-114.8611,35.9475,671.00,66.20,35.60,32.14,170.00,10.00,0.00,29.98,M,10.00,17.00,CLR,M,M,M,M,M,M,M,M,M,M,M,M,M,M,66.20,KBVU 200055Z AUTO 17010G17KT 10SM CLR 19/02 A2998 RMK AO2,M
CXP,2024-02-20 00:55,-119.7326,39.1923,1431.00,46.40,32.00,57.00,170.00,6.00,0.00,29.90,M,10.00,M,CLR,M,M,M,M,M,M,M,M,M,M,M,M,M,M,42.87,KCXP 200055Z AUTO 17006KT 10SM CLR 08/M00 A2990 RMK AO2,M
RNO,2024-02-20 00:55,-119.7711,39.4839,1341.00,48.00,30.00,49.49,180.00,19.00,0.00,29.84,1009.30,10.00,29.00,FEW,FEW,M,M,6000.00,11000.00,M,M,M,M,M,M,35.00,170.00,2024-02-20 00:18,40.60,KRNO 200055Z 18019G29KT 10SM FEW060 FEW110 09/M01 A2984 RMK AO2 PK WND 17035/0018 SLP093 T00891011,M
RTS,2024-02-20 00:55,-119.8764,39.6682,1539.00,44.60,26.60,48.96,170.00,16.00,0.00,29.84,M,10.00,31.00,CLR,M,M,M,M,M,M,M,M,M,M,M,M,M,M,36.84,KRTS 200055Z AUTO 17016G31KT 150V210 10SM CLR 07/M03 A2984 RMK AO2,M
05U,2024-02-20 00:55,-116.0051,39.6042,1811.23,35.60,35.60,100.00,0.00,0.00,0.00,29.99,M,10.00,M,M,M,M,M,M,M,M,M,M,M,M,M,M,M,M,35.60,K05U 200055Z AUTO 00000KT 10SM 02/02 A2999 RMK A01,M
MEV,2024-02-20 00:55,-119.7500,38.9963,1441.42,42.80,32.00,65.38,180.00,18.00,0.00,29.90,M,10.00,26.00,SCT,M,M,M,6500.00,M,M,M,M,M,M,M,M,M,M,33.97,KMEV 200055Z AUTO 18018G26KT 10SM SCT065 06/00 A2990 RMK AO2,M
BAM,2024-02-20 00:55,-116.8743,40.5990,1382.36,50.00,37.40,61.76,60.00,7.00,0.00,29.91,M,10.00,M,SCT,SCT,SCT,M,6000.00,7000.00,8000.00,M,M,M,M,M,M,M,M,50.00,KBAM 200055Z AUTO 06007KT 10SM SCT060 SCT070 SCT080 10/03 A2991 RMK AO1,M
HTH,2024-02-20 00:55,-118.6315,38.5448,1282.89,50.00,28.40,43.03,210.00,23.00,0.00,29.91,M,10.00,M,CLR,M,M,M,M,M,M,M,M,M,M,M,M,M,M,50.00,KHTH 200055Z AUTO 21023KT 10SM CLR 10/M02 A2991 RMK A01,M
TMT,2024-02-20 00:55,-117.1971,39.4643,1749.34,46.40,32.00,57.00,210.00,12.00,0.00,29.93,M,10.00,16.00,SCT,M,M,M,12000.00,M,M,M,M,M,M,M,M,M,M,40.33,KTMT 200055Z AUTO 21012G16KT 10SM SCT120 08/00 A2993 RMK AO2 T00800000,M
EKO,2024-02-20 00:56,-115.7860,40.8242,1367.00,41.00,36.00,82.22,50.00,5.00,0.00,29.95,1014.70,10.00,M,BKN,M,M,M,5500.00,M,M,M,M,M,M,M,M,M,M,37.08,KEKO 200056Z AUTO 05005KT 10SM BKN055 05/02 A2995 RMK AO2 SLP147 T00500022,M
WMC,2024-02-20 00:56,-117.8072,40.9019,1315.00,53.00,36.00,52.30,180.00,6.00,0.00,29.85,1009.60,10.00,M,FEW,BKN,M,M,8000.00,9000.00,M,M,M,M,M,M,M,M,M,53.00,KWMC 200056Z AUTO 18006KT 10SM FEW080 BKN090 12/02 A2985 RMK AO2 SLP096 T01170022 $,M
NFL,2024-02-20 00:56,-118.7010,39.4166,1199.00,55.00,22.00,27.43,220.00,19.00,0.00,29.87,1008.90,10.00,29.00,CLR,M,M,M,M,M,M,M,M,M,M,M,32.00,220.00,2024-02-20 00:22,55.00,KNFL 200056Z AUTO 22019G29KT 10SM CLR 13/M06 A2987 RMK AO2 PK WND 22032/0022 SLP089 T01281056,M
HND,2024-02-20 00:56,-115.1344,35.9729,742.79,67.00,41.00,38.63,230.00,5.00,0.00,30.01,1016.80,10.00,M,CLR,M,M,M,M,M,M,M,M,M,M,M,M,M,M,67.00,KHND 200056Z 23005KT 10SM CLR 19/05 A3001 RMK AO2 SLP168 T01940050,M
TPH,2024-02-20 00:56,-117.0904,38.0505,1654.00,45.00,42.00,89.15,200.00,11.00,0.08,29.97,1013.00,9.00,M,SCT,BKN,OVC,M,1900.00,2600.00,3200.00,M,-RA,M,M,M,M,M,M,38.89,KTPH 200056Z AUTO 20011KT 9SM -RA SCT019 BKN026 OVC032 07/06 A2997 RMK AO2 RAB2357 SLP130 P0008 T00720056,M
LAS,2024-02-20 00:56,-115.1634,36.0719,663.00,67.00,40.00,37.16,220.00,6.00,0.00,29.98,1014.30,10.00,M,BKN,BKN,BKN,M,7000.00,9000.00,20000.00,M,M,M,M,M,M,M,M,67.00,KLAS 200056Z 22006KT 10SM BKN070 BKN090 BKN200 19/04 A2998 RMK AO2 SLP143 T01940044,M
TPH,2024-02-20 01:12,-117.0904,38.0505,1654.00,46.00,40.00,79.44,200.00,12.00,T,29.97,M,10.00,20.00,FEW,BKN,OVC,M,2100.00,3200.00,3800.00,M,-RA,M,M,M,M,M,M,39.82,KTPH 200112Z AUTO 20012G20KT 10SM -RA FEW021 BKN032 OVC038 08/04 A2997 RMK AO2 P0000 T00780044,M
BVU,2024-02-20 01:15,-114.8611,35.9475,671.00,66.20,33.80,29.92,160.00,13.00,0.00,29.99,M,10.00,18.00,FEW,M,M,M,7500.00,M,M,M,M,M,M,M,M,M,M,66.20,KBVU 200115Z AUTO 16013G18KT 10SM FEW075 19/01 A2999 RMK AO2,M
CXP,2024-02-20 01:15,-119.7326,39.1923,1431.00,44.60,32.00,61.03,190.00,13.00,0.00,29.91,M,10.00,18.00,FEW,M,M,M,7000.00,M,M,M,M,M,M,M,M,M,M,37.71,KCXP 200115Z AUTO 19013G18KT 10SM FEW070 07/M00 A2991 RMK AO2,M
RTS,2024-02-20 01:15,-119.8764,39.6682,1539.00,42.80,28.40,56.48,180.00,12.00,0.00,29.86,M,10.00,M,CLR,M,M,M,M,M,M,M,M,M,M,M,M,M,M,35.75,KRTS 200115Z AUTO 18012KT 10SM CLR 06/M02 A2986 RMK AO2,M
05U,2024-02-20 01:15,-116.0051,39.6042,1811.23,35.60,35.60,100.00,0.00,0.00,0.00,29.99,M,10.00,M,M,M,M,M,M,M,M,M,M,M,M,M,M,M,M,35.60,K05U 200115Z AUTO 00000KT 10SM 02/02 A2999 RMK A01,M
MEV,2024-02-20 01:15,-119.7500,38.9963,1441.42,42.80,32.00,65.38,150.00,14.00,0.00,29.90,M,10.00,M,SCT,SCT,SCT,M,6500.00,7000.00,8000.00,M,M,M,M,M,M,M,M,35.08,KMEV 200115Z AUTO 15014KT 10SM SCT065 SCT070 SCT080 06/00 A2990 RMK AO2,M
BAM,2024-02-20 01:15,-116.8743,40.5990,1382.36,48.20,39.20,70.88,60.00,10.00,0.00,29.91,M,10.00,M,SCT,SCT,SCT,M,5000.00,7000.00,8000.00,M,M,M,M,M,M,M,M,43.28,KBAM 200115Z AUTO 06010KT 10SM SCT050 SCT070 SCT080 09/04 A2991 RMK AO1,M
HTH,2024-02-20 01:15,-118.6315,38.5448,1282.89,48.20,26.60,42.73,220.00,21.00,0.00,29.91,M,10.00,28.00,CLR,M,M,M,M,M,M,M,M,M,M,M,M,M,M,40.46,KHTH 200115Z AUTO 22021G28KT 10SM CLR 09/M03 A2991 RMK A01,M
10U,2024-02-20 01:15,-116.1876,41.9532,1637.00,41.00,32.00,70.08,150.00,4.00,0.00,29.93,M,10.00,M,CLR,M,M,M,M,M,M,M,M,M,M,M,M,M,M,37.93,K10U 200115Z AUTO 15004KT 10SM CLR 05/00 A2993 RMK AO2,M
TMT,2024-02-20 01:15,-117.1971,39.4643,1749.34,46.40,33.00,59.34,210.00,11.00,0.00,29.93,M,10.00,M,BKN,M,M,M,11000.00,M,M,M,M,M,M,M,M,M,M,40.66,KTMT 200115Z AUTO 21011KT 10SM BKN110 08/01 A2993 RMK AO2 T00800006,M
10U,2024-02-20 01:30,-116.1876,41.9532,1637.00,37.40,32.00,80.65,120.00,7.00,0.00,29.93,M,10.00,M,FEW,M,M,M,4300.00,M,M,M,M,M,M,M,M,M,M,31.36,K10U 200130Z AUTO 12007KT 10SM FEW043 03/M00 A2993 RMK AO2,M
TMT,2024-02-20 01:35,-117.1971,39.4643,1749.34,44.20,33.40,65.56,220.00,19.00,0.00,29.95,M,10.00,M,SCT,BKN,OVC,M,3700.00,4600.00,11000.00,M,M,M,M,M,M,M,M,35.57,KTMT 200135Z AUTO 22019KT 10SM SCT037 BKN046 OVC110 07/01 A2995 RMK AO2 T00680008,M
BVU,2024-02-20 01:35,-114.8611,35.9475,671.00,66.20,33.80,29.92,160.00,13.00,0.00,29.99,M,10.00,M,SCT,M,M,M,8000.00,M,M,M,M,M,M,M,M,M,M,66.20,KBVU 200135Z AUTO 16013KT 10SM SCT080 19/01 A2999 RMK AO2,M
CXP,2024-02-20 01:35,-119.7326,39.1923,1431.00,42.80,32.00,65.38,190.00,6.00,0.00,29.91,M,10.00,12.00,FEW,M,M,M,6500.00,M,M,M,M,M,M,M,M,M,M,38.54,KCXP 200135Z AUTO 19006G12KT 10SM FEW065 06/M00 A2991 RMK AO2,M
RTS,2024-02-20 01:35,-119.8764,39.6682,1539.00,42.80,26.60,52.45,M,5.00,0.00,29.87,M,10.00,11.00,CLR,M,M,M,M,M,M,M,M,M,M,M,M,M,M,39.22,KRTS 200135Z AUTO VRB05G11KT 10SM CLR 06/M03 A2987 RMK AO2,M
05U,2024-02-20 01:35,-116.0051,39.6042,1811.23,35.60,35.60,100.00,0.00,0.00,0.00,30.00,M,10.00,M,M,M,M,M,M,M,M,M,M,M,M,M,M,M,M,35.60,K05U 200135Z AUTO 00000KT 10SM 02/02 A3000 RMK A01,M
MEV,2024-02-20 01:35,-119.7500,38.9963,1441.42,42.80,30.20,60.79,160.00,14.00,0.00,29.91,M,10.00,M,SCT,SCT,SCT,M,6500.00,7500.00,8000.00,M,M,M,M,M,M,M,M,35.08,KMEV 200135Z AUTO 16014KT 10SM SCT065 SCT075 SCT080 06/M01 A2991 RMK AO2,M
BAM,2024-02-20 01:35,-116.8743,40.5990,1382.36,46.40,39.20,75.84,70.00,9.00,0.00,29.91,M,10.00,M,SCT,SCT,M,M,7000.00,8000.00,M,M,M,M,M,M,M,M,M,41.42,KBAM 200135Z AUTO 07009KT 10SM SCT070 SCT080 08/04 A2991 RMK AO1,M
HTH,2024-02-20 01:35,-118.6315,38.5448,1282.89,48.20,24.80,39.66,220.00,22.00,0.00,29.91,M,10.00,29.00,CLR,M,M,M,M,M,M,M,M,M,M,M,M,M,M,40.27,KHTH 200135Z AUTO 22022G29KT 10SM CLR 09/M04 A2991 RMK A01,M
EKO,2024-02-20 01:40,-115.7860,40.8242,1367.00,39.00,35.00,85.42,70.00,6.00,0.00,29.96,M,10.00,M,BKN,OVC,M,M,2000.00,5000.00,M,M,M,M,M,M,M,M,M,33.96,KEKO 200140Z AUTO 07006KT 10SM BKN020 OVC050 04/02 A2996 RMK AO2 T00390017,M
P68,2024-02-20 01:53,-116.0056,39.6014,1993.00,36.00,35.00,96.11,0.00,0.00,0.00,29.99,1014.20,M,M,M,M,M,M,M,M,M,M,M,M,M,M,M,M,M,36.00,KP68 200153Z AUTO 00000KT 02/02 A2999 RMK AO1 SLP142 T00220017,M
DRA,2024-02-20 01:53,-116.0278,36.6206,1009.00,57.00,41.00,54.99,190.00,15.00,0.00,29.99,1013.70,10.00,M,FEW,M,M,M,8500.00,M,M,M,M,M,M,M,M,M,M,57.00,KDRA 200153Z AUTO 19015KT 10SM FEW085 14/05 A2999 RMK AO2 SLP137 T01390050,M
ELY,2024-02-20 01:53,-114.8453,39.2950,1909.00,39.00,33.00,78.86,150.00,17.00,T,29.99,1013.80,10.00,32.00,FEW,SCT,M,M,4500.00,5500.00,M,M,M,M,M,M,32.00,190.00,2024-02-20 01:46,29.25,KELY 200153Z AUTO 15017G32KT 10SM FEW045 SCT055 04/01 A2999 RMK AO2 PK WND 19032/0146 RAE06 SLP138 P0000 T00390006,M
VGT,2024-02-20 01:53,-115.1933,36.2111,667.00,67.00,40.00,37.16,210.00,7.00,0.00,29.99,1016.50,10.00,M,OVC,M,M,M,8000.00,M,M,M,M,M,M,M,M,M,M,67.00,KVGT 200153Z 21007KT 10SM OVC080 19/04 A2999 RMK AO2 SLP165 T01940044,M
LOL,2024-02-20 01:53,-118.5701,40.0684,1192.43,45.00,30.00,55.43,200.00,9.00,0.00,29.86,1011.30,10.00,M,CLR,M,M,M,M,M,M,M,M,M,M,M,M,M,M,39.68,KLOL 200153Z AUTO 20009KT 10SM CLR 07/M01 A2986 RMK AO2 SLP113 T00721011,M
10U,2024-02-20 01:55,-116.1876,41.9532,1637.00,37.40,32.00,80.65,140.00,7.00,0.00,29.93,M,10.00,M,FEW,SCT,SCT,M,4000.00,4500.00,6000.00,M,M,M,M,M,M,M,M,31.36,K10U 200155Z AUTO 14007KT 10SM FEW040 SCT045 SCT060 03/M00 A2993 RMK AO2,M
LSV,2024-02-20 01:55,-115.0343,36.2362,570.00,67.50,39.00,35.13,210.00,6.00,0.00,29.96,1013.40,10.00,M,BKN,OVC,M,M,7500.00,10000.00,M,M,M,M,M,M,M,M,M,67.50,KLSV 200155Z AUTO 21006KT 10SM BKN075 OVC100 20/04 A2996 RMK AO2 SLP134 T01970038 $,M
BVU,2024-02-20 01:55,-114.8611,35.9475,671.00,66.20,33.80,29.92,170.00,9.00,0.00,30.00,M,10.00,M,BKN,M,M,M,8000.00,M,M,M,M,M,M,M,M,M,M,66.20,KBVU 200155Z AUTO 17009KT 10SM BKN080 19/01 A3000 RMK AO2,M
CXP,2024-02-20 01:55,-119.7326,39.1923,1431.00,42.80,32.00,65.38,220.00,5.00,0.00,29.92,M,10.00,M,CLR,M,M,M,M,M,M,M,VCTS,M,M,M,M,M,M,39.22,KCXP 200155Z AUTO 22005KT 10SM VCTS CLR 06/M00 A2992 RMK AO2 LTG DSNT W,M
RNO,2024-02-20 01:55,-119.7711,39.4839,1341.00,46.00,30.00,53.37,170.00,20.00,0.00,29.85,1010.00,10.00,29.00,FEW,SCT,M,M,5000.00,11000.00,M,M,M,M,M,M,31.00,190.00,2024-02-20 01:01,37.73,KRNO 200155Z 17020G29KT 10SM FEW050 SCT110 08/M01 A2985 RMK AO2 PK WND 19031/0101 SLP100 T00781011,M
RTS,2024-02-20 01:55,-119.8764,39.6682,1539.00,42.80,26.60,52.45,210.00,12.00,0.00,29.88,M,10.00,19.00,CLR,M,M,M,M,M,M,M,M,M,M,M,M,M,M,35.75,KRTS 200155Z AUTO 21012G19KT 10SM CLR 06/M03 A2988 RMK AO2,M
05U,2024-02-20 01:55,-116.0051,39.6042,1811.23,35.60,35.60,100.00,0.00,0.00,0.00,30.02,M,10.00,M,M,M,M,M,M,M,M,M,M,M,M,M,M,M,M,35.60,K05U 200155Z AUTO 00000KT 10SM 02/02 A3002 RMK A01,M
MEV,2024-02-20 01:55,-119.7500,38.9963,1441.42,42.80,30.20,60.79,160.00,12.00,0.00,29.91,M,10.00,20.00,FEW,SCT,M,M,5500.00,6500.00,M,M,VCTS,M,M,M,M,M,M,35.75,KMEV 200155Z AUTO 16012G20KT 10SM VCTS FEW055 SCT065 06/M01 A2991 RMK AO2 LTG DSNT W AND NW,M
BAM,2024-02-20 01:55,-116.8743,40.5990,1382.36,46.40,39.20,75.84,80.00,8.00,0.00,29.91,M,10.00,M,CLR,M,M,M,M,M,M,M,M,M,M,M,M,M,M,41.85,KBAM 200155Z AUTO 08008KT 10SM CLR 08/04 A2991 RMK AO1,M
HTH,2024-02-20 01:55,-118.6315,38.5448,1282.89,48.20,23.00,36.78,220.00,22.00,0.00,29.91,M,10.00,38.00,CLR,M,M,M,M,M,M,M,M,M,M,M,M,M,M,40.27,KHTH 200155Z AUTO 22022G38KT 10SM CLR 09/M05 A2991 RMK A01,M
EKO,2024-02-20 01:56,-115.7860,40.8242,1367.00,38.00,35.00,88.83,0.00,0.00,0.00,29.96,1015.40,10.00,M,BKN,M,M,M,2200.00,M,M,M,M,M,M,M,M,M,M,38.00,KEKO 200156Z AUTO 00000KT 10SM BKN022 03/02 A2996 RMK AO2 SLP154 T00330017,M
WMC,2024-02-20 01:56,-117.8072,40.9019,1315.00,47.00,36.00,65.38,170.00,7.00,0.00,29.86,1010.50,10.00,M,FEW,M,M,M,8500.00,M,M,M,M,M,M,M,M,M,M,43.06,KWMC 200156Z AUTO 17007KT 10SM FEW085 08/02 A2986 RMK AO2 SLP105 T00830022 $,M
NFL,2024-02-20 01:56,-118.7010,39.4166,1199.00,51.00,26.00,37.55,210.00,8.00,0.00,29.87,1009.10,10.00,M,CLR,M,M,M,M,M,M,M,M,M,M,M,26.00,220.00,2024-02-20 01:11,51.00,KNFL 200156Z AUTO 21008KT 10SM CLR 11/M03 A2987 RMK AO2 PK WND 22026/0111 SLP091 T01061033,M
HND,2024-02-20 01:56,-115.1344,35.9729,742.79,65.00,41.00,41.41,230.00,7.00,0.00,30.02,1017.50,10.00,M,OVC,M,M,M,8500.00,M,M,M,M,M,M,M,M,M,M,65.00,KHND 200156Z 23007KT 10SM OVC085 18/05 A3002 RMK AO2 SLP175 T01830050,M
TPH,2024-02-20 01:56,-117.0904,38.0505,1654.00,45.00,39.00,79.36,200.00,8.00,T,29.98,1013.50,10.00,M,FEW,BKN,OVC,M,3400.00,4900.00,6500.00,M,M,M,M,M,M,M,M,40.13,KTPH 200156Z AUTO 20008KT 10SM FEW034 BKN049 OVC065 07/04 A2998 RMK AO2 RAE29 SLP135 P0000 T00720039,M
LAS,2024-02-20 01:56,-115.1634,36.0719,663.00,66.00,40.00,38.47,240.00,10.00,0.00,29.99,1014.80,10.00,M,BKN,BKN,BKN,M,7000.00,9000.00,20000.00,M,M,M,M,M,M,M,M,66.00,KLAS 200156Z 24010KT 10SM BKN070 BKN090 BKN200 19/04 A2999 RMK AO2 SLP148 T01890044,M
BVU,2024-02-20 02:15,-114.8611,35.9475,671.00,66.20,33.80,29.92,170.00,9.00,0.00,30.00,M,10.00,M,OVC,M,M,M,8000.00,M,M,M,M,M,M,M,M,M,M,66.20,KBVU 200215Z AUTO 17009KT 10SM OVC080 19/01 A3000 RMK AO2,M
CXP,2024-02-20 02:15,-119.7326,39.1923,1431.00,42.80,28.40,56.48,220.00,10.00,0.00,29.92,M,10.00,M,CLR,M,M,M,M,M,M,M,M,M,M,M,M,M,M,36.51,KCXP 200215Z AUTO 22010KT 10SM CLR 06/M02 A2992 RMK AO2 LTG DSNT W,M
RTS,2024-02-20 02:15,-119.8764,39.6682,1539.00,41.00,28.40,60.54,130.00,6.00,0.00,29.89,M,10.00,16.00,CLR,M,M,M,M,M,M,M,M,M,M,M,M,M,M,36.37,KRTS 200215Z AUTO 13006G16KT 10SM CLR 05/M02 A2989 RMK AO2,M
05U,2024-02-20 02:15,-116.0051,39.6042,1811.23,35.60,35.60,100.00,0.00,0.00,0.00,30.02,M,9.00,M,M,M,M,M,M,M,M,M,M,M,M,M,M,M,M,35.60,K05U 200215Z AUTO 00000KT 9SM 02/02 A3002 RMK A01,M
MEV,2024-02-20 02:15,-119.7500,38.9963,1441.42,42.80,28.40,56.48,160.00,13.00,0.00,29.91,M,10.00,20.00,SCT,SCT,M,M,5000.00,6000.00,M,M,M,M,M,M,M,M,M,35.40,KMEV 200215Z AUTO 16013G20KT 10SM SCT050 SCT060 06/M02 A2991 RMK AO2 LTG DSNT W AND NW,M
BAM,2024-02-20 02:15,-116.8743,40.5990,1382.36,44.60,39.20,81.20,60.00,12.00,0.00,29.92,M,10.00,15.00,CLR,M,M,M,M,M,M,M,M,M,M,M,M,M,M,38.04,KBAM 200215Z AUTO 06012G15KT 10SM CLR 07/04 A2992 RMK AO1,M
HTH,2024-02-20 02:15,-118.6315,38.5448,1282.89,48.20,19.40,31.57,210.00,29.00,0.00,29.91,M,10.00,36.00,CLR,M,M,M,M,M,M,M,M,M,M,M,M,M,M,39.12,KHTH 200215Z AUTO 21029G36KT 10SM CLR 09/M07 A2991 RMK A01,M
10U,2024-02-20 02:15,-116.1876,41.9532,1637.00,35.60,30.20,80.51,130.00,8.00,0.00,29.93,M,10.00,M,CLR,M,M,M,M,M,M,M,M,M,M,M,M,M,M,28.55,K10U 200215Z AUTO 13008KT 10SM CLR 02/M01 A2993 RMK AO2,M
TMT,2024-02-20 02:15,-117.1971,39.4643,1749.34,38.70,32.00,76.64,200.00,7.00,0.00,29.96,M,10.00,M,CLR,M,M,M,M,M,M,M,M,M,M,M,M,M,M,32.95,KTMT 200215Z AUTO 20007KT 10SM CLR 04/00 A2996 RMK AO2 T00370000,M
10U,2024-02-20 02:30,-116.1876,41.9532,1637.00,37.40,30.20,74.98,130.00,10.00,0.00,29.93,M,10.00,M,CLR,M,M,M,M,M,M,M,M,M,M,M,M,M,M,29.74,K10U 200230Z AUTO 13010KT 10SM CLR 03/M01 A2993 RMK AO2,M
BVU,2024-02-20 02:35,-114.8611,35.9475,671.00,64.40,33.80,31.85,190.00,8.00,0.00,30.01,M,10.00,M,BKN,OVC,M,M,7500.00,9000.00,M,M,M,M,M,M,M,M,M,64.40,KBVU 200235Z AUTO 19008KT 10SM BKN075 OVC090 18/01 A3001 RMK AO2,M
CXP,2024-02-20 02:35,-119.7326,39.1923,1431.00,42.80,28.40,56.48,200.00,9.00,0.00,29.93,M,10.00,M,CLR,M,M,M,M,M,M,M,M,M,M,M,M,M,M,36.94,KCXP 200235Z AUTO 20009KT 10SM CLR 06/M02 A2993 RMK AO2,M
RTS,2024-02-20 02:35,-119.8764,39.6682,1539.00,41.00,26.60,56.22,180.00,9.00,0.00,29.90,M,10.00,18.00,FEW,FEW,FEW,M,3600.00,4500.00,8000.00,M,M,M,M,M,M,M,M,34.70,KRTS 200235Z AUTO 18009G18KT 150V210 10SM FEW036 FEW045 FEW080 05/M03 A2990 RMK AO2,M
05U,2024-02-20 02:35,-116.0051,39.6042,1811.23,35.60,33.80,93.08,0.00,0.00,0.00,30.02,M,10.00,M,M,M,M,M,M,M,M,M,M,M,M,M,M,M,M,35.60,K05U 200235Z AUTO 00000KT 10SM 02/01 A3002 RMK A01,M
MEV,2024-02-20 02:35,-119.7500,38.9963,1441.42,42.80,28.40,56.48,160.00,12.00,0.00,29.91,M,10.00,M,FEW,SCT,BKN,M,4900.00,5500.00,7000.00,M,M,M,M,M,M,M,M,35.75,KMEV 200235Z AUTO 16012KT 10SM FEW049 SCT055 BKN070 06/M02 A2991 RMK AO2,M
BAM,2024-02-20 02:35,-116.8743,40.5990,1382.36,44.60,37.40,75.68,70.00,13.00,0.00,29.92,M,10.00,M,CLR,M,M,M,M,M,M,M,M,M,M,M,M,M,M,37.71,KBAM 200235Z AUTO 07013KT 10SM CLR 07/03 A2992 RMK AO1,M
HTH,2024-02-20 02:35,-118.6315,38.5448,1282.89,48.20,17.60,29.23,220.00,26.00,0.00,29.92,M,10.00,36.00,CLR,M,M,M,M,M,M,M,M,M,M,M,M,M,M,39.58,KHTH 200235Z AUTO 22026G36KT 10SM CLR 09/M08 A2992 RMK A01,M
TMT,2024-02-20 02:35,-117.1971,39.4643,1749.34,38.00,32.00,78.77,210.00,10.00,0.00,29.96,M,10.00,M,CLR,M,M,M,M,M,M,M,M,M,M,M,M,M,M,30.49,KTMT 200235Z AUTO 21010KT 10SM CLR 03/00 A2996 RMK AO2 T00330001,M
EKO,2024-02-20 02:45,-115.7860,40.8242,1367.00,38.00,35.00,88.83,90.00,6.00,T,29.98,M,10.00,M,FEW,BKN,OVC,M,1900.00,3900.00,8500.00,M,-RA,M,M,M,M,M,M,32.76,KEKO 200245Z AUTO 09006KT 10SM -RA FEW019 BKN039 OVC085 03/02 A2998 RMK AO2 RAB45 P0000 T00330017,M
10U,2024-02-20 02:50,-116.1876,41.9532,1637.00,35.60,30.20,80.51,130.00,9.00,0.00,29.94,M,10.00,M,BKN,BKN,M,M,6500.00,7500.00,M,M,M,M,M,M,M,M,M,27.99,K10U 200250Z AUTO 13009KT 10SM BKN065 BKN075 02/M01 A2994 RMK AO2,M
P68,2024-02-20 02:53,-116.0056,39.6014,1993.00,35.00,33.00,92.32,90.00,5.00,0.00,30.00,1014.40,M,M,M,M,M,M,M,M,M,M,M,M,M,M,M,M,M,29.96,KP68 200253Z AUTO 09005KT 02/01 A3000 RMK AO1 SLP144 T00170006 53011,M
DRA,2024-02-20 02:53,-116.0278,36.6206,1009.00,57.00,41.00,54.99,210.00,13.00,0.00,30.01,1014.30,10.00,23.00,CLR,M,M,M,M,M,M,M,M,M,M,M,27.00,190.00,2024-02-20 02:12,57.00,KDRA 200253Z AUTO 21013G23KT 10SM CLR 14/05 A3001 RMK AO2 PK WND 19027/0212 SLP143 T01390050 53005,M
ELY,2024-02-20 02:53,-114.8453,39.2950,1909.00,39.00,33.00,78.86,140.00,18.00,T,30.00,1014.10,10.00,27.00,FEW,M,M,M,4200.00,M,M,M,M,M,M,M,32.00,170.00,2024-02-20 02:18,28.96,KELY 200253Z AUTO 14018G27KT 10SM FEW042 04/01 A3000 RMK AO2 PK WND 17032/0218 RAB19E30 SLP141 P0000 60001 T00390006 53005,M
VGT,2024-02-20 02:53,-115.1933,36.2111,667.00,67.00,41.00,38.63,230.00,8.00,0.00,29.99,1016.60,10.00,M,BKN,OVC,M,M,8000.00,9500.00,M,M,M,M,M,M,M,M,M,67.00,KVGT 200253Z 23008KT 10SM BKN080 OVC095 19/05 A2999 RMK AO2 SLP166 T01940050 51010,M
LOL,2024-02-20 02:53,-118.5701,40.0684,1192.43,40.00,30.00,67.18,170.00,6.00,0.00,29.89,1012.70,10.00,M,CLR,M,M,M,M,M,M,M,M,M,M,M,M,M,M,35.17,KLOL 200253Z AUTO 17006KT 10SM CLR 04/M01 A2989 RMK AO2 SLP127 T00441011 53018,M
EKO,2024-02-20 02:54,-115.7860,40.8242,1367.00,37.40,35.60,93.14,100.00,6.03,M,29.99,M,10.00,M,BKN,BKN,OVC,M,2201.00,4301.00,6000.00,M,-RA,M,M,M,M,M,M,32.02,SPECI KEKO 200254Z 10006KT 10SM -RA BKN022 BKN043 OVC060 03/02 A2999 RMK AO2 RAB45 P0000 FIBI,M
INS,2024-02-20 02:55,-115.6733,36.5872,955.00,58.00,39.00,49.08,360.00,7.00,0.00,30.00,1013.70,10.00,M,BKN,BKN,M,M,8000.00,9500.00,M,M,M,M,M,M,M,M,M,58.00,KINS 200255Z AUTO 36007KT 10SM BKN080 BKN095 15/04 A3000 RMK AO2 SLP137 T01450039 53008,M
LSV,2024-02-20 02:55,-115.0343,36.2362,570.00,65.70,40.00,38.87,200.00,5.00,0.00,29.97,1013.90,10.00,M,BKN,BKN,M,M,7500.00,9000.00,M,M,M,M,M,M,M,M,M,65.70,KLSV 200255Z AUTO 20005KT 10SM BKN075 BKN090 19/05 A2997 RMK AO2 SLP139 T01870045 52013 $,M
BVU,2024-02-20 02:55,-114.8611,35.9475,671.00,64.40,32.00,29.63,190.00,7.00,0.00,30.01,M,10.00,M,FEW,BKN,M,M,7000.00,9000.00,M,M,M,M,M,M,M,M,M,64.40,KBVU 200255Z AUTO 19007KT 10SM FEW070 BKN090 18/00 A3001 RMK AO2,M
CXP,2024-02-20 02:55,-119.7326,39.1923,1431.00,42.80,30.20,60.79,210.00,6.00,0.00,29.94,M,10.00,M,FEW,SCT,BKN,M,4700.00,7500.00,9000.00,M,M,M,M,M,M,M,M,38.54,KCXP 200255Z AUTO 21006KT 10SM FEW047 SCT075 BKN090 06/M01 A2994 RMK AO2,M
RNO,2024-02-20 02:55,-119.7711,39.4839,1341.00,46.00,29.00,51.24,180.00,18.00,0.00,29.89,1011.20,10.00,M,SCT,BKN,M,M,5000.00,15000.00,M,M,M,M,M,M,30.00,180.00,2024-02-20 01:58,38.18,KRNO 200255Z 18018KT 10SM SCT050 BKN150 08/M02 A2989 RMK AO2 PK WND 18030/0158 SLP112 T00781017 53016,M
RTS,2024-02-20 02:55,-119.8764,39.6682,1539.00,42.80,26.60,52.45,340.00,6.00,0.00,29.91,M,10.00,11.00,SCT,SCT,BKN,M,3500.00,4600.00,7500.00,M,M,M,M,M,M,M,M,38.54,KRTS 200255Z AUTO 34006G11KT 10SM SCT035 SCT046 BKN075 06/M03 A2991 RMK AO2,M
05U,2024-02-20 02:55,-116.0051,39.6042,1811.23,35.60,33.80,93.08,260.00,5.00,0.00,30.02,M,10.00,M,M,M,M,M,M,M,M,M,M,M,M,M,M,M,M,30.67,K05U 200255Z AUTO 26005KT 10SM 02/01 A3002 RMK A01,M
MEV,2024-02-20 02:55,-119.7500,38.9963,1441.42,41.00,32.00,70.08,150.00,13.00,0.00,29.92,M,10.00,M,FEW,SCT,SCT,M,5500.00,7000.00,12000.00,M,M,M,M,M,M,M,M,33.10,KMEV 200255Z AUTO 15013KT 10SM FEW055 SCT070 SCT120 05/M00 A2992 RMK AO2,M
BAM,2024-02-20 02:55,-116.8743,40.5990,1382.36,42.80,37.40,81.07,60.00,11.00,0.00,29.93,M,10.00,16.00,CLR,M,M,M,M,M,M,M,M,M,M,M,M,M,M,36.11,KBAM 200255Z AUTO 06011G16KT 10SM CLR 06/03 A2993 RMK AO1,M
HTH,2024-02-20 02:55,-118.6315,38.5448,1282.89,48.20,17.60,29.23,210.00,26.00,0.00,29.93,M,10.00,32.00,CLR,M,M,M,M,M,M,M,M,M,M,M,M,M,M,39.58,KHTH 200255Z AUTO 21026G32KT 10SM CLR 09/M08 A2993 RMK A01,M
TMT,2024-02-20 02:55,-117.1971,39.4643,1749.34,38.00,33.00,82.00,220.00,9.00,0.00,29.97,M,10.00,M,CLR,M,M,M,M,M,M,M,M,M,M,M,M,M,M,30.97,KTMT 200255Z AUTO 22009KT 10SM CLR 03/01 A2997 RMK AO2 T00330005,M
EKO,2024-02-20 02:56,-115.7860,40.8242,1367.00,38.00,35.00,88.83,100.00,6.00,T,29.99,1016.20,10.00,M,BKN,BKN,OVC,M,2200.00,4300.00,6000.00,M,M,M,M,M,M,M,M,32.76,KEKO 200256Z AUTO 10006KT 10SM BKN022 BKN043 OVC060 03/02 A2999 RMK AO2 RAB45E55 SLP162 P0000 60000 T00330017 53013,M
WMC,2024-02-20 02:56,-117.8072,40.9019,1315.00,47.00,36.00,65.38,160.00,9.00,0.00,29.89,1011.40,10.00,M,FEW,M,M,M,8000.00,M,M,M,M,M,M,M,M,M,M,42.17,KWMC 200256Z AUTO 16009KT 10SM FEW080 08/02 A2989 RMK AO2 SLP114 T00830022 53013 $,M
NFL,2024-02-20 02:56,-118.7010,39.4166,1199.00,49.00,29.00,45.77,210.00,12.00,0.00,29.90,1009.90,10.00,M,CLR,M,M,M,M,M,M,M,M,M,M,M,M,M,M,43.64,KNFL 200256Z AUTO 21012KT 10SM CLR 09/M02 A2990 RMK AO2 SLP099 T00941017 53016,M
HND,2024-02-20 02:56,-115.1344,35.9729,742.79,63.00,41.00,44.41,200.00,10.00,0.00,30.03,1018.00,10.00,M,FEW,BKN,M,M,7000.00,8000.00,M,M,M,M,M,M,M,M,M,63.00,KHND 200256Z 20010KT 10SM FEW070 BKN080 17/05 A3003 RMK AO2 SLP180 T01720050 51013,M
TPH,2024-02-20 02:56,-117.0904,38.0505,1654.00,44.00,39.00,82.44,170.00,9.00,0.00,30.00,1014.50,10.00,M,BKN,OVC,M,M,3600.00,6000.00,M,M,M,M,M,M,M,M,M,38.44,KTPH 200256Z AUTO 17009KT 10SM BKN036 OVC060 07/04 A3000 RMK AO2 SLP145 60008 T00670039 51017,M
LAS,2024-02-20 02:56,-115.1634,36.0719,663.00,65.00,41.00,41.41,220.00,9.00,0.00,30.00,1015.20,10.00,M,BKN,BKN,BKN,M,7000.00,9000.00,20000.00,M,M,M,M,M,M,M,M,65.00,KLAS 200256Z 22009KT 10SM BKN070 BKN090 BKN200 18/05 A3000 RMK AO2 SLP152 T01830050 53011,M
10U,2024-02-20 03:10,-116.1876,41.9532,1637.00,35.60,30.20,80.51,130.00,10.00,0.00,29.93,M,10.00,M,BKN,BKN,M,M,6000.00,7500.00,M,M,M,M,M,M,M,M,M,27.48,K10U 200310Z AUTO 13010KT 10SM BKN060 BKN075 02/M01 A2993 RMK AO2,M
BVU,2024-02-20 03:15,-114.8611,35.9475,671.00,64.40,32.00,29.63,200.00,8.00,0.00,30.02,M,10.00,M,BKN,M,M,M,10000.00,M,M,M,M,M,M,M,M,M,M,64.40,KBVU 200315Z AUTO 20008KT 10SM BKN100 18/00 A3002 RMK AO2,M
CXP,2024-02-20 03:15,-119.7326,39.1923,1431.00,42.80,28.40,56.48,200.00,6.00,0.00,29.94,M,10.00,M,FEW,BKN,OVC,M,4500.00,7000.00,9000.00,M,M,M,M,M,M,M,M,38.54,KCXP 200315Z AUTO 20006KT 10SM FEW045 BKN070 OVC090 06/M02 A2994 RMK AO2 LTG DSNT SW,M
RTS,2024-02-20 03:15,-119.8764,39.6682,1539.00,42.80,26.60,52.45,210.00,10.00,0.00,29.92,M,10.00,19.00,SCT,BKN,OVC,M,3500.00,4800.00,7000.00,M,M,M,M,M,M,M,M,36.51,KRTS 200315Z AUTO 21010G19KT 10SM SCT035 BKN048 OVC070 06/M03 A2992 RMK AO2,M
05U,2024-02-20 03:15,-116.0051,39.6042,1811.23,33.80,33.80,100.00,270.00,3.00,0.00,30.03,M,10.00,M,M,M,M,M,M,M,M,M,M,M,M,M,M,M,M,30.75,K05U 200315Z AUTO 27003KT 10SM 01/01 A3003 RMK A01,M
MEV,2024-02-20 03:15,-119.7500,38.9963,1441.42,42.80,32.00,65.38,210.00,16.00,0.00,29.93,M,9.00,24.00,SCT,BKN,OVC,M,1600.00,3400.00,12000.00,M,-RA,M,M,M,M,M,M,34.50,KMEV 200315Z AUTO 21016G24KT 9SM -RA SCT016 BKN034 OVC120 06/M00 A2993 RMK AO2 LTG DSNT W,M
BAM,2024-02-20 03:15,-116.8743,40.5990,1382.36,42.80,37.40,81.07,70.00,10.00,0.00,29.93,M,10.00,M,CLR,M,M,M,M,M,M,M,M,M,M,M,M,M,M,36.51,KBAM 200315Z AUTO 07010KT 10SM CLR 06/03 A2993 RMK AO1,M
HTH,2024-02-20 03:15,-118.6315,38.5448,1282.89,48.20,17.60,29.23,220.00,25.00,0.00,29.93,M,10.00,36.00,CLR,M,M,M,M,M,M,M,M,M,M,M,M,M,M,39.75,KHTH 200315Z AUTO 22025G36KT 10SM CLR 09/M08 A2993 RMK A01,M
TMT,2024-02-20 03:15,-117.1971,39.4643,1749.34,37.60,32.00,80.02,230.00,6.00,0.00,29.97,M,10.00,M,CLR,M,M,M,M,M,M,M,M,M,M,M,M,M,M,32.27,KTMT 200315Z AUTO 23006KT 10SM CLR 03/00 A2997 RMK AO2 T00310001,M
EKO,2024-02-20 03:24,-115.7860,40.8242,1367.00,37.00,35.00,92.39,60.00,7.00,0.00,29.99,M,10.00,M,SCT,SCT,BKN,M,1900.00,4800.00,7000.00,M,M,M,M,M,M,M,M,30.87,KEKO 200324Z AUTO 06007KT 10SM SCT019 SCT048 BKN070 03/02 A2999 RMK AO2 T00280017,M
BVU,2024-02-20 03:35,-114.8611,35.9475,671.00,64.40,33.80,31.85,210.00,7.00,0.00,30.03,M,10.00,M,FEW,OVC,M,M,7500.00,10000.00,M,M,M,M,M,M,M,M,M,64.40,KBVU 200335Z AUTO 21007KT 10SM FEW075 OVC100 18/01 A3003 RMK AO2,M
CXP,2024-02-20 03:35,-119.7326,39.1923,1431.00,41.00,33.80,75.33,170.00,10.00,0.00,29.97,M,6.00,27.00,SCT,BKN,OVC,M,1400.00,4400.00,7000.00,M,-RA HZ,M,M,M,M,M,M,34.25,KCXP 200335Z AUTO 17010G27KT 6SM -RA HZ SCT014 BKN044 OVC070 05/01 A2997 RMK AO2,M
RTS,2024-02-20 03:35,-119.8764,39.6682,1539.00,41.00,28.40,60.54,190.00,4.00,0.00,29.93,M,10.00,M,SCT,BKN,OVC,M,3500.00,6500.00,10000.00,M,M,M,M,M,M,M,M,37.93,KRTS 200335Z AUTO 19004KT 10SM SCT035 BKN065 OVC100 05/M02 A2993 RMK AO2,M
05U,2024-02-20 03:35,-116.0051,39.6042,1811.23,35.60,33.80,93.08,280.00,8.00,0.00,30.03,M,10.00,M,M,M,M,M,M,M,M,M,M,M,M,M,M,M,M,28.55,K05U 200335Z AUTO 28008KT 10SM 02/01 A3003 RMK A01,M
MEV,2024-02-20 03:35,-119.7500,38.9963,1441.42,39.20,33.80,80.79,210.00,9.00,0.00,29.96,M,10.00,M,SCT,BKN,OVC,M,1400.00,3200.00,7000.00,M,M,M,M,M,M,M,M,32.47,KMEV 200335Z AUTO 21009KT 10SM SCT014 BKN032 OVC070 04/01 A2996 RMK AO2,M
BAM,2024-02-20 03:35,-116.8743,40.5990,1382.36,42.80,37.40,81.07,70.00,11.00,0.00,29.94,M,10.00,M,CLR,M,M,M,M,M,M,M,M,M,M,M,M,M,M,36.11,KBAM 200335Z AUTO 07011KT 10SM CLR 06/03 A2994 RMK AO1,M
HTH,2024-02-20 03:35,-118.6315,38.5448,1282.89,48.20,19.40,31.57,210.00,21.00,0.00,29.93,M,10.00,34.00,CLR,M,M,M,M,M,M,M,M,M,M,M,M,M,M,40.46,KHTH 200335Z AUTO 21021G34KT 10SM CLR 09/M07 A2993 RMK A01,M
10U,2024-02-20 03:35,-116.1876,41.9532,1637.00,35.60,32.00,86.59,120.00,8.00,0.00,29.94,M,10.00,14.00,BKN,BKN,M,M,6000.00,7000.00,M,M,M,M,M,M,M,M,M,28.55,K10U 200335Z AUTO 12008G14KT 10SM BKN060 BKN070 02/M00 A2994 RMK AO2,M
TMT,2024-02-20 03:35,-117.1971,39.4643,1749.34,36.00,32.00,85.23,230.00,7.00,0.00,29.98,M,10.00,M,CLR,M,M,M,M,M,M,M,M,M,M,M,M,M,M,29.65,KTMT 200335Z AUTO 23007KT 10SM CLR 02/00 A2998 RMK AO2 T00220000,M
P68,2024-02-20 03:53,-116.0056,39.6014,1993.00,35.00,34.00,96.09,150.00,6.00,0.00,30.01,1015.00,M,M,M,M,M,M,M,M,M,M,M,M,M,M,M,M,M,29.14,KP68 200353Z AUTO 15006KT 02/01 A3001 RMK AO1 SLP150 T00170011,M
DRA,2024-02-20 03:53,-116.0278,36.6206,1009.00,57.00,41.00,54.99,190.00,13.00,0.00,30.02,1014.10,10.00,24.00,CLR,M,M,M,M,M,M,M,M,M,M,M,27.00,200.00,2024-02-20 03:39,57.00,KDRA 200353Z AUTO 19013G24KT 10SM CLR 14/05 A3002 RMK AO2 PK WND 20027/0339 SLP141 T01390050,M
ELY,2024-02-20 03:53,-114.8453,39.2950,1909.00,39.00,32.00,75.75,160.00,14.00,0.00,30.02,1014.00,10.00,26.00,FEW,BKN,M,M,2600.00,8000.00,M,M,M,M,M,M,33.00,140.00,2024-02-20 03:29,30.19,KELY 200353Z AUTO 16014G26KT 10SM FEW026 BKN080 04/00 A3002 RMK AO2 PK WND 14033/0329 SLP140 T00390000,M
VGT,2024-02-20 03:53,-115.1933,36.2111,667.00,66.00,42.00,41.57,220.00,7.00,0.00,30.02,1017.40,10.00,M,OVC,M,M,M,8000.00,M,M,M,M,M,M,M,M,M,M,66.00,KVGT 200353Z 22007KT 10SM OVC080 19/06 A3002 RMK AO2 SLP174 T01890056,M
LOL,2024-02-20 03:53,-118.5701,40.0684,1192.43,41.00,29.00,62.04,0.00,0.00,0.00,29.93,1013.80,10.00,M,CLR,M,M,M,M,M,M,M,M,M,M,M,M,M,M,41.00,KLOL 200353Z AUTO 00000KT 10SM CLR 05/M02 A2993 RMK AO2 SLP138 T00501017,M
INS,2024-02-20 03:55,-115.6733,36.5872,955.00,58.00,38.50,48.13,160.00,3.00,0.00,30.02,1014.20,10.00,M,FEW,M,M,M,8000.00,M,M,M,M,M,M,M,M,M,M,58.00,KINS 200355Z AUTO 16003KT 10SM FEW080 15/04 A3002 RMK AO2 SLP142 T01450036,M
LSV,2024-02-20 03:55,-115.0343,36.2362,570.00,66.00,36.00,32.88,180.00,10.00,0.00,29.99,1014.50,10.00,M,SCT,M,M,M,8500.00,M,M,M,M,M,M,M,M,M,M,66.00,KLSV 200355Z AUTO 18010KT 10SM SCT085 19/02 A2999 RMK AO2 SLP145 T01890023 $,M
BVU,2024-02-20 03:55,-114.8611,35.9475,671.00,64.40,33.80,31.85,200.00,8.00,0.00,30.04,M,10.00,M,SCT,OVC,M,M,7500.00,9500.00,M,M,M,M,M,M,M,M,M,64.40,KBVU 200355Z AUTO 20008KT 10SM SCT075 OVC095 18/01 A3004 RMK AO2,M
CXP,2024-02-20 03:55,-119.7326,39.1923,1431.00,39.20,33.80,80.79,170.00,8.00,0.01,29.99,M,9.00,M,FEW,SCT,BKN,M,1400.00,2700.00,3600.00,M,-RA,M,M,M,M,M,M,32.98,KCXP 200355Z AUTO 17008KT 9SM -RA FEW014 SCT027 BKN036 04/01 A2999 RMK AO2 P0001,M
RNO,2024-02-20 03:55,-119.7711,39.4839,1341.00,44.00,31.00,59.97,190.00,19.00,T,29.93,1012.40,10.00,27.00,SCT,BKN,M,M,5500.00,14000.00,M,M,M,M,M,M,27.00,200.00,2024-02-20 03:10,35.31,KRNO 200355Z 19019G27KT 10SM SCT055 BKN140 07/M01 A2993 RMK AO2 PK WND 20027/0310 RAB18E27 SLP124 P0000 T00671006,M
RTS,2024-02-20 03:55,-119.8764,39.6682,1539.00,41.00,28.40,60.54,80.00,10.00,0.00,29.94,M,10.00,17.00,FEW,SCT,BKN,M,3700.00,7000.00,11000.00,M,M,M,M,M,M,M,M,34.25,KRTS 200355Z AUTO 08010G17KT 060V130 10SM FEW037 SCT070 BKN110 05/M02 A2994 RMK AO2,M
05U,2024-02-20 03:55,-116.0051,39.6042,1811.23,35.60,35.60,100.00,310.00,6.00,0.00,30.04,M,10.00,M,M,M,M,M,M,M,M,M,M,M,M,M,M,M,M,29.87,K05U 200355Z AUTO 31006KT 10SM 02/02 A3004 RMK A01,M
MEV,2024-02-20 03:55,-119.7500,38.9963,1441.42,39.20,35.60,86.79,160.00,12.00,0.00,29.96,M,7.00,20.00,SCT,BKN,OVC,M,1200.00,2000.00,4700.00,M,-RA,M,M,M,M,M,M,31.17,KMEV 200355Z AUTO 16012G20KT 7SM -RA SCT012 BKN020 OVC047 04/02 A2996 RMK AO2,M
BAM,2024-02-20 03:55,-116.8743,40.5990,1382.36,42.80,37.40,81.07,70.00,7.00,0.00,29.95,M,10.00,M,CLR,M,M,M,M,M,M,M,M,M,M,M,M,M,M,37.94,KBAM 200355Z AUTO 07007KT 10SM CLR 06/03 A2995 RMK AO1,M
HTH,2024-02-20 03:55,-118.6315,38.5448,1282.89,48.20,21.20,34.09,210.00,23.00,0.00,29.94,M,10.00,32.00,CLR,M,M,M,M,M,M,M,M,M,M,M,M,M,M,40.09,KHTH 200355Z AUTO 21023G32KT 10SM CLR 09/M06 A2994 RMK A01,M
10U,2024-02-20 03:55,-116.1876,41.9532,1637.00,35.60,32.00,86.59,120.00,10.00,0.00,29.95,M,10.00,M,SCT,BKN,M,M,5000.00,6000.00,M,M,M,M,M,M,M,M,M,27.48,K10U 200355Z AUTO 12010KT 10SM SCT050 BKN060 02/M00 A2995 RMK AO2,M
TMT,2024-02-20 03:55,-117.1971,39.4643,1749.34,35.80,31.50,84.19,240.00,7.00,0.00,29.99,M,10.00,M,CLR,M,M,M,M,M,M,M,M,M,M,M,M,M,M,29.41,KTMT 200355Z AUTO 24007KT 10SM CLR 02/00 A2999 RMK AO2 T00211003,M
EKO,2024-02-20 03:56,-115.7860,40.8242,1367.00,36.00,34.00,92.35,100.00,5.00,T,30.00,1016.80,10.00,M,SCT,SCT,BKN,M,3600.00,7000.00,9000.00,M,M,M,M,M,M,M,M,31.15,KEKO 200356Z AUTO 10005KT 10SM SCT036 SCT070 BKN090 02/01 A3000 RMK AO2 RAB44E54UPB45E53 SLP168 P0000 T00220011,M
WMC,2024-02-20 03:56,-117.8072,40.9019,1315.00,42.00,35.00,76.03,150.00,8.00,0.00,29.91,1012.90,10.00,M,CLR,M,M,M,M,M,M,M,M,M,M,M,M,M,M,36.43,KWMC 200356Z AUTO 15008KT 10SM CLR 06/02 A2991 RMK AO2 SLP129 T00560017 $,M
NFL,2024-02-20 03:56,-118.7010,39.4166,1199.00,49.00,25.00,38.81,210.00,11.00,0.00,29.92,1010.70,10.00,M,CLR,M,M,M,M,M,M,M,M,M,M,M,M,M,M,43.95,KNFL 200356Z AUTO 21011KT 10SM CLR 09/M04 A2992 RMK AO2 SLP107 T00941039,M
HND,2024-02-20 03:56,-115.1344,35.9729,742.79,60.00,41.00,49.39,190.00,6.00,0.00,30.06,1018.80,10.00,M,CLR,M,M,M,M,M,M,M,M,M,M,M,M,M,M,60.00,KHND 200356Z 19006KT 10SM CLR 16/05 A3006 RMK AO2 SLP188 T01560050,M
TPH,2024-02-20 03:56,-117.0904,38.0505,1654.00,43.00,38.00,82.37,160.00,4.00,0.00,30.02,1015.00,10.00,M,FEW,BKN,OVC,M,3600.00,4700.00,5500.00,M,M,M,M,M,M,M,M,40.27,KTPH 200356Z AUTO 16004KT 10SM FEW036 BKN047 OVC055 06/03 A3002 RMK AO2 SLP150 T00610033,M
LAS,2024-02-20 03:56,-115.1634,36.0719,663.00,63.00,42.00,46.16,230.00,6.00,0.00,30.03,1016.10,10.00,M,FEW,SCT,BKN,M,8000.00,10000.00,20000.00,M,M,M,M,M,M,M,M,63.00,KLAS 200356Z 23006KT 10SM FEW080 SCT100 BKN200 17/06 A3003 RMK AO2 SLP161 T01720056,M
BVU,2024-02-20 04:15,-114.8611,35.9475,671.00,62.60,33.80,33.93,0.00,0.00,0.00,30.04,M,10.00,M,OVC,M,M,M,7000.00,M,M,M,M,M,M,M,M,M,M,62.60,KBVU 200415Z AUTO 00000KT 10SM OVC070 17/01 A3004 RMK AO2,M
CXP,2024-02-20 04:15,-119.7326,39.1923,1431.00,39.20,33.80,80.79,160.00,7.00,0.00,29.99,M,3.00,18.00,SCT,BKN,BKN,M,1400.00,2800.00,3700.00,M,-RA HZ,M,M,M,M,M,M,33.56,KCXP 200415Z AUTO 16007G18KT 3SM -RA HZ SCT014 BKN028 BKN037 04/01 A2999 RMK AO2,M
RTS,2024-02-20 04:15,-119.8764,39.6682,1539.00,41.00,28.40,60.54,240.00,15.00,0.00,29.96,M,10.00,20.00,FEW,SCT,BKN,M,2500.00,4000.00,6500.00,M,M,M,M,M,M,M,M,32.45,KRTS 200415Z AUTO 24015G20KT 10SM FEW025 SCT040 BKN065 05/M02 A2996 RMK AO2,M
05U,2024-02-20 04:15,-116.0051,39.6042,1811.23,35.60,35.60,100.00,310.00,8.00,0.00,30.04,M,10.00,M,M,M,M,M,M,M,M,M,M,M,M,M,M,M,M,28.55,K05U 200415Z AUTO 31008KT 10SM 02/02 A3004 RMK A01,M
MEV,2024-02-20 04:15,-119.7500,38.9963,1441.42,37.40,35.60,93.14,160.00,5.00,0.00,29.98,M,8.00,12.00,BKN,OVC,M,M,1300.00,2700.00,M,M,UP,M,M,M,M,M,M,32.81,KMEV 200415Z AUTO 16005G12KT 8SM UP BKN013 OVC027 03/02 A2998 RMK AO2,M
BAM,2024-02-20 04:15,-116.8743,40.5990,1382.36,42.80,35.60,75.50,50.00,7.00,0.00,29.96,M,10.00,M,CLR,M,M,M,M,M,M,M,M,M,M,M,M,M,M,37.94,KBAM 200415Z AUTO 05007KT 10SM CLR 06/02 A2996 RMK AO1,M
HTH,2024-02-20 04:15,-118.6315,38.5448,1282.89,48.20,21.20,34.09,210.00,25.00,0.00,29.95,M,10.00,36.00,CLR,M,M,M,M,M,M,M,M,M,M,M,M,M,M,39.75,KHTH 200415Z AUTO 21025G36KT 10SM CLR 09/M06 A2995 RMK A01,M
10U,2024-02-20 04:15,-116.1876,41.9532,1637.00,35.60,32.00,86.59,130.00,11.00,0.00,29.96,M,10.00,19.00,SCT,SCT,SCT,M,5000.00,5500.00,7000.00,M,M,M,M,M,M,M,M,27.02,K10U 200415Z AUTO 13011G19KT 10SM SCT050 SCT055 SCT070 02/M00 A2996 RMK AO2,M
TMT,2024-02-20 04:15,-117.1971,39.4643,1749.34,32.00,29.00,88.53,110.00,3.00,0.00,30.01,M,10.00,M,CLR,M,M,M,M,M,M,M,M,M,M,M,M,M,M,28.69,KTMT 200415Z AUTO 11003KT 10SM CLR 00/M02 A3001 RMK AO2 T00011016,M
05U,2024-02-20 04:30,-116.0051,39.6042,1811.23,37.40,35.60,93.14,300.00,8.00,0.00,30.04,M,10.00,M,M,M,M,M,M,M,M,M,M,M,M,M,M,M,M,30.76,K05U 200430Z AUTO 30008KT 10SM 03/02 A3004 RMK A01,M
10U,2024-02-20 04:30,-116.1876,41.9532,1637.00,35.60,32.00,86.59,120.00,13.00,0.00,29.96,M,10.00,M,CLR,M,M,M,M,M,M,M,M,M,M,M,M,M,M,26.18,K10U 200430Z AUTO 12013KT 10SM CLR 02/M00 A2996 RMK AO2,M
BVU,2024-02-20 04:35,-114.8611,35.9475,671.00,62.60,35.60,36.45,M,4.00,0.00,30.04,M,10.00,M,BKN,OVC,M,M,7000.00,9500.00,M,M,M,M,M,M,M,M,M,62.60,KBVU 200435Z AUTO VRB04KT 10SM BKN070 OVC095 17/02 A3004 RMK AO2,M
CXP,2024-02-20 04:35,-119.7326,39.1923,1431.00,37.40,35.60,93.14,190.00,8.00,0.00,30.00,M,10.00,M,FEW,SCT,BKN,M,1100.00,1800.00,2700.00,M,VCTS UP,M,M,M,M,M,M,30.76,KCXP 200435Z AUTO 19008KT 10SM VCTS UP FEW011 SCT018 BKN027 03/02 A3000 RMK AO2 LTG DSNT NW,M
RTS,2024-02-20 04:35,-119.8764,39.6682,1539.00,41.00,30.20,65.16,180.00,6.00,0.00,29.95,M,10.00,M,FEW,BKN,OVC,M,2400.00,3200.00,8500.00,M,M,M,M,M,M,M,M,36.37,KRTS 200435Z AUTO 18006KT 10SM FEW024 BKN032 OVC085 05/M01 A2995 RMK AO2,M
MEV,2024-02-20 04:35,-119.7500,38.9963,1441.42,37.40,35.60,93.14,140.00,10.00,0.00,29.99,M,10.00,M,FEW,SCT,BKN,M,1300.00,1900.00,3100.00,M,VCTS UP,M,M,M,M,M,M,29.74,KMEV 200435Z AUTO 14010KT 10SM VCTS UP FEW013 SCT019 BKN031 03/02 A2999 RMK AO2 LTG DSNT NW,M
BAM,2024-02-20 04:35,-116.8743,40.5990,1382.36,42.80,35.60,75.50,70.00,12.00,0.00,29.96,M,10.00,M,CLR,M,M,M,M,M,M,M,M,M,M,M,M,M,M,35.75,KBAM 200435Z AUTO 07012KT 10SM CLR 06/02 A2996 RMK AO1,M
HTH,2024-02-20 04:35,-118.6315,38.5448,1282.89,46.40,24.80,42.44,150.00,24.00,0.00,29.97,M,10.00,30.00,CLR,M,M,M,M,M,M,M,M,M,M,M,M,M,M,37.49,KHTH 200435Z AUTO 15024G30KT 10SM CLR 08/M04 A2997 RMK A01,M
TMT,2024-02-20 04:35,-117.1971,39.4643,1749.34,32.00,29.30,89.63,110.00,5.00,0.00,30.01,M,10.00,M,CLR,M,M,M,M,M,M,M,M,M,M,M,M,M,M,26.40,KTMT 200435Z AUTO 11005KT 10SM CLR 00/M01 A3001 RMK AO2 T10011015,M
INS,2024-02-20 04:42,-115.6733,36.5872,955.00,59.00,35.60,41.42,210.00,27.00,0.00,30.01,1013.80,10.00,M,CLR,M,M,M,M,M,M,M,M,M,M,M,M,M,M,59.00,KINS 200442Z AUTO 21027KT 10SM CLR 15/02 A3001 RMK AO2 WSHFT 28 SLP138,M
P68,2024-02-20 04:53,-116.0056,39.6014,1993.00,37.00,34.00,88.78,150.00,7.00,0.00,30.02,1014.20,M,M,M,M,M,M,M,M,M,M,M,M,M,M,M,M,M,30.87,KP68 200453Z AUTO 15007KT 03/01 A3002 RMK AO1 SLP142 T00280011,M
DRA,2024-02-20 04:53,-116.0278,36.6206,1009.00,58.00,38.00,47.20,200.00,16.00,0.00,30.03,1014.40,10.00,25.00,CLR,M,M,M,M,M,M,M,M,M,M,M,29.00,200.00,2024-02-20 04:03,58.00,KDRA 200453Z AUTO 20016G25KT 10SM CLR 14/03 A3003 RMK AO2 PK WND 20029/0403 SLP144 T01440033,M
ELY,2024-02-20 04:53,-114.8453,39.2950,1909.00,40.00,32.00,72.85,170.00,11.00,0.00,30.05,1014.80,10.00,24.00,FEW,M,M,M,3300.00,M,M,M,M,M,M,M,28.00,150.00,2024-02-20 04:19,32.58,KELY 200453Z AUTO 17011G24KT 130V200 10SM FEW033 04/00 A3005 RMK AO2 PK WND 15028/0419 SLP148 T00440000,M
VGT,2024-02-20 04:53,-115.1933,36.2111,667.00,65.00,43.00,44.73,230.00,5.00,0.00,30.03,1017.70,10.00,M,OVC,M,M,M,9000.00,M,M,M,M,M,M,M,M,M,M,65.00,KVGT 200453Z AUTO 23005KT 10SM OVC090 18/06 A3003 RMK AO2 SLP177 T01830061,M
LOL,2024-02-20 04:53,-118.5701,40.0684,1192.43,37.00,28.00,69.63,220.00,6.00,0.00,29.95,1014.70,10.00,M,CLR,M,M,M,M,M,M,M,M,M,M,M,M,M,M,31.55,KLOL 200453Z AUTO 22006KT 10SM CLR 03/M02 A2995 RMK AO2 SLP147 T00281022,M
10U,2024-02-20 04:55,-116.1876,41.9532,1637.00,37.40,32.00,80.65,120.00,12.00,0.00,29.97,M,10.00,19.00,BKN,BKN,M,M,5500.00,6500.00,M,M,M,M,M,M,M,M,M,28.87,K10U 200455Z AUTO 12012G19KT 10SM BKN055 BKN065 03/M00 A2997 RMK AO2,M
INS,2024-02-20 04:55,-115.6733,36.5872,955.00,60.40,34.00,36.97,180.00,24.00,0.00,30.02,1014.00,10.00,33.00,CLR,M,M,M,M,M,M,M,M,M,M,M,38.00,220.00,2024-02-20 04:47,60.40,KINS 200455Z AUTO 18024G33KT 10SM CLR 16/01 A3002 RMK AO2 PK WND 22038/47 SLP140 T01580011,M
LSV,2024-02-20 04:55,-115.0343,36.2362,570.00,62.00,38.70,42.07,210.00,6.00,0.00,30.01,1015.20,10.00,M,SCT,M,M,M,10000.00,M,M,M,M,M,M,M,M,M,M,62.00,KLSV 200455Z AUTO 21006KT 10SM SCT100 17/04 A3001 RMK AO2 SLP152 T01670037 $,M
BVU,2024-02-20 04:55,-114.8611,35.9475,671.00,62.60,35.60,36.45,190.00,7.00,0.00,30.03,M,10.00,M,SCT,M,M,M,9000.00,M,M,M,M,M,M,M,M,M,M,62.60,KBVU 200455Z AUTO 19007KT 10SM SCT090 17/02 A3003 RMK AO2,M
CXP,2024-02-20 04:55,-119.7326,39.1923,1431.00,37.40,33.80,86.69,210.00,8.00,0.01,30.01,M,10.00,M,FEW,BKN,OVC,M,2600.00,4300.00,7000.00,M,M,M,M,M,M,M,M,30.76,KCXP 200455Z AUTO 21008KT 10SM FEW026 BKN043 OVC070 03/01 A3001 RMK AO2 P0001,M
RNO,2024-02-20 04:55,-119.7711,39.4839,1341.00,41.00,34.00,75.94,220.00,6.00,T,29.97,1013.90,10.00,22.00,BKN,BKN,M,M,6000.00,11000.00,M,M,-RA,M,M,M,28.00,170.00,2024-02-20 04:00,36.37,KRNO 200455Z 22006G22KT 10SM -RA BKN060 BKN110 05/01 A2997 RMK AO2 PK WND 17028/0400 RAB42 SLP139 P0000 T00500011,M
RTS,2024-02-20 04:55,-119.8764,39.6682,1539.00,41.00,30.20,65.16,190.00,13.00,0.00,29.98,M,10.00,M,FEW,BKN,OVC,M,1600.00,3500.00,4400.00,M,M,M,M,M,M,M,M,33.10,KRTS 200455Z AUTO 19013KT 10SM FEW016 BKN035 OVC044 05/M01 A2998 RMK AO2,M
05U,2024-02-20 04:55,-116.0051,39.6042,1811.23,37.40,35.60,93.14,310.00,7.00,0.00,30.05,M,10.00,M,M,M,M,M,M,M,M,M,M,M,M,M,M,M,M,31.36,K05U 200455Z AUTO 31007KT 10SM 03/02 A3005 RMK A01,M
MEV,2024-02-20 04:55,-119.7500,38.9963,1441.42,37.40,35.60,93.14,200.00,8.00,0.02,29.99,M,7.00,17.00,BKN,BKN,OVC,M,1600.00,2200.00,3200.00,M,UP,M,M,M,M,M,M,30.76,KMEV 200455Z AUTO 20008G17KT 7SM UP BKN016 BKN022 OVC032 03/02 A2999 RMK AO2 P0002,M
BAM,2024-02-20 04:55,-116.8743,40.5990,1382.36,41.00,35.60,80.93,60.00,10.00,0.00,29.97,M,10.00,M,SCT,M,M,M,7000.00,M,M,M,M,M,M,M,M,M,M,34.25,KBAM 200455Z AUTO 06010KT 10SM SCT070 05/02 A2997 RMK AO1,M
HTH,2024-02-20 04:55,-118.6315,38.5448,1282.89,46.40,21.20,36.48,190.00,22.00,0.00,29.97,M,10.00,33.00,CLR,M,M,M,M,M,M,M,M,M,M,M,M,M,M,37.86,KHTH 200455Z AUTO 19022G33KT 160V220 10SM CLR 08/M06 A2997 RMK A01,M
TMT,2024-02-20 04:55,-117.1971,39.4643,1749.34,32.00,30.20,92.97,140.00,4.00,0.00,30.02,M,10.00,M,CLR,M,M,M,M,M,M,M,M,M,M,M,M,M,M,27.42,KTMT 200455Z AUTO 14004KT 10SM CLR 00/M01 A3002 RMK AO2 T00001010,M
EKO,2024-02-20 04:56,-115.7860,40.8242,1367.00,36.00,33.00,88.73,50.00,5.00,0.00,30.01,1017.30,10.00,M,FEW,FEW,BKN,M,4700.00,5500.00,8000.00,M,M,M,M,M,M,M,M,31.15,KEKO 200456Z AUTO 05005KT 10SM FEW047 FEW055 BKN080 02/01 A3001 RMK AO2 SLP173 T00220006,M
WMC,2024-02-20 04:56,-117.8072,40.9019,1315.00,41.00,29.00,62.04,160.00,10.00,0.00,29.94,1013.80,10.00,M,CLR,M,M,M,M,M,M,M,M,M,M,M,M,M,M,34.25,KWMC 200456Z AUTO 16010KT 10SM CLR 05/M02 A2994 RMK AO2 SLP138 T00501017 $,M
NFL,2024-02-20 04:56,-118.7010,39.4166,1199.00,46.00,24.00,41.67,110.00,7.00,0.00,29.95,1011.40,10.00,M,CLR,M,M,M,M,M,M,M,M,M,M,M,M,M,M,41.84,KNFL 200456Z AUTO 11007KT 10SM CLR 08/M04 A2995 RMK AO2 SLP114 T00781044,M
HND,2024-02-20 04:56,-115.1344,35.9729,742.79,58.00,40.00,51.03,190.00,7.00,0.00,30.06,1018.90,10.00,M,CLR,M,M,M,M,M,M,M,M,M,M,M,M,M,M,58.00,KHND 200456Z AUTO 19007KT 10SM CLR 14/04 A3006 RMK AO2 SLP189 T01440044,M
TPH,2024-02-20 04:56,-117.0904,38.0505,1654.00,40.00,37.00,88.92,130.00,4.00,0.00,30.05,1016.40,10.00,M,CLR,M,M,M,M,M,M,M,M,M,M,M,M,M,M,36.76,KTPH 200456Z AUTO 13004KT 10SM CLR 04/03 A3005 RMK AO2 SLP164 T00440028,M
LAS,2024-02-20 04:56,-115.1634,36.0719,663.00,62.00,41.00,46.00,200.00,3.00,0.00,30.04,1016.10,10.00,M,FEW,SCT,BKN,M,8000.00,10000.00,20000.00,M,M,M,M,M,M,M,M,62.00,KLAS 200456Z 20003KT 10SM FEW080 SCT100 BKN200 17/05 A3004 RMK AO2 SLP161 T01670050,M
BVU,2024-02-20 05:15,-114.8611,35.9475,671.00,60.80,35.60,38.85,250.00,5.00,0.00,30.05,M,10.00,10.00,CLR,M,M,M,M,M,M,M,M,M,M,M,M,M,M,60.80,KBVU 200515Z AUTO 25005G10KT 10SM CLR 16/02 A3005 RMK AO2,M
CXP,2024-02-20 05:15,-119.7326,39.1923,1431.00,37.40,35.60,93.14,150.00,6.00,0.00,30.01,M,5.00,M,BKN,BKN,OVC,M,1300.00,2800.00,7000.00,M,UP BR,M,M,M,M,M,M,32.03,KCXP 200515Z AUTO 15006KT 5SM UP BR BKN013 BKN028 OVC070 03/02 A3001 RMK AO2,M
RTS,2024-02-20 05:15,-119.8764,39.6682,1539.00,37.40,32.00,80.65,M,5.00,0.00,29.96,M,5.00,16.00,SCT,BKN,OVC,M,900.00,2000.00,4900.00,M,-RA,M,M,M,M,M,M,32.81,KRTS 200515Z AUTO VRB05G16KT 5SM -RA SCT009 BKN020 OVC049 03/00 A2996 RMK AO2,M
05U,2024-02-20 05:15,-116.0051,39.6042,1811.23,37.40,35.60,93.14,330.00,4.00,0.00,30.05,M,10.00,M,M,M,M,M,M,M,M,M,M,M,M,M,M,M,M,33.73,K05U 200515Z AUTO 33004KT 10SM 03/02 A3005 RMK A01,M
MEV,2024-02-20 05:15,-119.7500,38.9963,1441.42,37.40,35.60,93.14,170.00,5.00,0.00,30.00,M,6.00,M,FEW,BKN,OVC,M,400.00,1400.00,2100.00,M,UP BR,M,M,M,M,M,M,32.81,KMEV 200515Z AUTO 17005KT 6SM UP BR FEW004 BKN014 OVC021 03/02 A3000 RMK AO2,M
BAM,2024-02-20 05:15,-116.8743,40.5990,1382.36,41.00,35.60,80.93,60.00,10.00,0.00,29.98,M,10.00,M,SCT,M,M,M,7000.00,M,M,M,M,M,M,M,M,M,M,34.25,KBAM 200515Z AUTO 06010KT 10SM SCT070 05/02 A2998 RMK AO1,M
HTH,2024-02-20 05:15,-118.6315,38.5448,1282.89,48.20,19.40,31.57,210.00,26.00,0.00,29.96,M,10.00,M,CLR,M,M,M,M,M,M,M,M,M,M,M,M,M,M,39.58,KHTH 200515Z AUTO 21026KT 10SM CLR 09/M07 A2996 RMK A01,M
10U,2024-02-20 05:15,-116.1876,41.9532,1637.00,37.40,32.00,80.65,120.00,13.00,0.00,29.97,M,10.00,19.00,BKN,OVC,M,M,5500.00,7000.00,M,M,M,M,M,M,M,M,M,28.49,K10U 200515Z AUTO 12013G19KT 10SM BKN055 OVC070 03/M00 A2997 RMK AO2,M
TMT,2024-02-20 05:15,-117.1971,39.4643,1749.34,34.30,29.50,82.40,170.00,3.00,0.00,30.01,M,10.00,M,CLR,M,M,M,M,M,M,M,M,M,M,M,M,M,M,31.32,KTMT 200515Z AUTO 17003KT 10SM CLR 01/M01 A3001 RMK AO2 T00131014,M
10U,2024-02-20 05:30,-116.1876,41.9532,1637.00,37.40,32.00,80.65,120.00,13.00,0.00,29.97,M,10.00,22.00,SCT,BKN,OVC,M,5500.00,6500.00,8000.00,M,M,M,M,M,M,M,M,28.49,K10U 200530Z AUTO 12013G22KT 10SM SCT055 BKN065 OVC080 03/M00 A2997 RMK AO2,M
INS,2024-02-20 05:30,-115.6733,36.5872,955.00,60.80,33.80,36.16,150.00,14.00,0.00,30.04,1014.60,10.00,28.00,SCT,M,M,M,8000.00,M,M,M,M,M,M,M,M,M,M,60.80,KINS 200530Z AUTO 15014G28KT 10SM SCT080 16/01 A3004 RMK AO2 WSHFT 17 SLP146,M
BVU,2024-02-20 05:35,-114.8611,35.9475,671.00,62.60,35.60,36.45,200.00,9.00,0.00,30.05,M,10.00,15.00,CLR,M,M,M,M,M,M,M,M,M,M,M,M,M,M,62.60,KBVU 200535Z AUTO 20009G15KT 10SM CLR 17/02 A3005 RMK AO2,M
CXP,2024-02-20 05:35,-119.7326,39.1923,1431.00,37.40,33.80,86.69,M,5.00,0.00,30.02,M,9.00,10.00,FEW,BKN,OVC,M,1000.00,1300.00,5500.00,M,UP,M,M,M,M,M,M,32.81,KCXP 200535Z AUTO VRB05G10KT 9SM UP FEW010 BKN013 OVC055 03/01 A3002 RMK AO2,M
RTS,2024-02-20 05:35,-119.8764,39.6682,1539.00,39.20,32.00,75.16,140.00,8.00,0.00,29.97,M,10.00,15.00,FEW,SCT,BKN,M,1800.00,5500.00,8500.00,M,M,M,M,M,M,M,M,32.98,KRTS 200535Z AUTO 14008G15KT 10SM FEW018 SCT055 BKN085 04/M00 A2997 RMK AO2,M
05U,2024-02-20 05:35,-116.0051,39.6042,1811.23,35.60,33.80,93.08,0.00,0.00,0.00,30.06,M,10.00,M,M,M,M,M,M,M,M,M,M,M,M,M,M,M,M,35.60,K05U 200535Z AUTO 00000KT 10SM 02/01 A3006 RMK A01,M
MEV,2024-02-20 05:35,-119.7500,38.9963,1441.42,37.40,35.60,93.14,110.00,4.00,0.00,29.99,M,8.00,M,BKN,BKN,OVC,M,1300.00,2200.00,3800.00,M,UP,M,M,M,M,M,M,33.73,KMEV 200535Z AUTO 11004KT 8SM UP BKN013 BKN022 OVC038 03/02 A2999 RMK AO2,M
BAM,2024-02-20 05:35,-116.8743,40.5990,1382.36,41.00,35.60,80.93,70.00,6.00,0.00,29.99,M,10.00,M,CLR,M,M,M,M,M,M,M,M,M,M,M,M,M,M,36.37,KBAM 200535Z AUTO 07006KT 10SM CLR 05/02 A2999 RMK AO1,M
HTH,2024-02-20 05:35,-118.6315,38.5448,1282.89,48.20,19.40,31.57,210.00,28.00,0.00,29.96,M,10.00,42.00,CLR,M,M,M,M,M,M,M,M,M,M,M,M,M,M,39.27,KHTH 200535Z AUTO 21028G42KT 10SM CLR 09/M07 A2996 RMK A01,M
TMT,2024-02-20 05:35,-117.1971,39.4643,1749.34,32.00,29.30,89.63,0.00,0.00,0.00,30.02,M,10.00,M,CLR,M,M,M,M,M,M,M,M,M,M,M,M,M,M,32.00,KTMT 200535Z AUTO 00000KT 10SM CLR 00/M01 A3002 RMK AO2 T10011015,M
EKO,2024-02-20 05:38,-115.7860,40.8242,1367.00,35.00,33.00,92.32,70.00,6.00,0.00,30.02,M,5.00,M,SCT,BKN,BKN,M,300.00,6500.00,8000.00,M,BR,M,M,M,M,M,M,29.14,KEKO 200538Z AUTO 07006KT 5SM BR SCT003 BKN065 BKN080 02/01 A3002 RMK AO2 T00170006,M
EKO,2024-02-20 05:44,-115.7860,40.8242,1367.00,35.00,33.00,92.32,80.00,6.00,0.00,30.02,M,1.75,M,BKN,BKN,BKN,M,100.00,6500.00,8500.00,M,BR,M,M,M,M,M,M,29.14,KEKO 200544Z AUTO 08006KT 1 3/4SM BR BKN001 BKN065 BKN085 02/01 A3002 RMK AO2 T00170006,M
P68,2024-02-20 05:53,-116.0056,39.6014,1993.00,35.00,34.00,96.09,300.00,4.00,0.00,30.04,1015.10,M,M,M,M,M,M,M,M,M,M,M,M,M,M,M,M,M,30.92,KP68 200553Z AUTO 30004KT 02/01 A3004 RMK AO1 SLP151 T00170011 10028 20011 51012,M
DRA,2024-02-20 05:53,-116.0278,36.6206,1009.00,57.00,37.00,47.04,190.00,20.00,0.00,30.04,1014.50,10.00,29.00,CLR,M,M,M,M,M,M,M,M,M,M,M,29.00,190.00,2024-02-20 05:52,57.00,KDRA 200553Z AUTO 19020G29KT 10SM CLR 14/03 A3004 RMK AO2 PK WND 19029/0552 SLP145 T01390028 10156 20139 51008,M
ELY,2024-02-20 05:53,-114.8453,39.2950,1909.00,39.00,33.00,78.86,160.00,15.00,T,30.06,1015.40,10.00,24.00,SCT,BKN,M,M,4700.00,9500.00,M,M,M,M,M,M,31.00,150.00,2024-02-20 05:12,29.85,KELY 200553Z AUTO 16015G24KT 10SM SCT047 BKN095 04/01 A3006 RMK AO2 PK WND 15031/0512 RAB40E49 SLP154 P0000 60001 T00390006 10044 20033 53018,M
VGT,2024-02-20 05:53,-115.1933,36.2111,667.00,64.00,43.00,46.32,220.00,8.00,0.00,30.04,1018.00,10.00,M,OVC,M,M,M,9000.00,M,M,M,M,M,M,M,M,M,M,64.00,KVGT 200553Z AUTO 22008KT 10SM OVC090 18/06 A3004 RMK AO2 SLP180 T01780061 10211 20178 51015,M
LOL,2024-02-20 05:53,-118.5701,40.0684,1192.43,35.00,28.00,75.36,M,4.00,0.00,29.98,1015.50,10.00,M,CLR,M,M,M,M,M,M,M,M,M,M,M,M,M,M,30.92,KLOL 200553Z AUTO VRB04KT 10SM CLR 02/M02 A2998 RMK AO2 SLP155 T00171022 10133 20011 51025,M
EKO,2024-02-20 05:54,-115.7860,40.8242,1367.00,33.80,33.80,100.00,80.00,7.00,M,30.02,M,0.50,M,BKN,BKN,M,M,98.00,8999.00,M,M,FG,M,M,M,M,M,M,26.97,SPECI KEKO 200554Z 08007KT 1/2SM FG BKN001 BKN090 01/01 A3002 RMK AO2 FIBI,M
10U,2024-02-20 05:55,-116.1876,41.9532,1637.00,37.40,32.00,80.65,130.00,14.00,0.00,29.98,M,10.00,20.00,FEW,SCT,BKN,M,3500.00,5500.00,7000.00,M,M,M,M,M,M,M,M,28.12,K10U 200555Z AUTO 13014G20KT 10SM FEW035 SCT055 BKN070 03/M00 A2998 RMK AO2,M
INS,2024-02-20 05:55,-115.6733,36.5872,955.00,60.30,34.50,37.85,200.00,9.00,0.00,30.04,1014.40,10.00,18.00,OVC,M,M,M,7500.00,M,M,M,M,M,M,M,38.00,220.00,2024-02-20 05:25,60.30,KINS 200555Z AUTO 20009G18KT 10SM OVC075 16/01 A3004 RMK AO2 PK WND 22038/25 SLP144 T01570014 10182 20135 51011,M
LSV,2024-02-20 05:55,-115.0343,36.2362,570.00,63.00,40.00,42.72,210.00,7.00,0.00,30.01,1015.20,10.00,M,OVC,M,M,M,10000.00,M,M,M,M,M,M,M,M,M,M,63.00,KLSV 200555Z AUTO 21007KT 10SM OVC100 17/05 A3001 RMK AO2 SLP152 T01720045 10215 20162 52014 $,M
BVU,2024-02-20 05:55,-114.8611,35.9475,671.00,62.60,35.60,36.45,M,3.00,0.00,30.05,M,10.00,M,CLR,M,M,M,M,M,M,M,M,M,M,M,M,M,M,62.60,KBVU 200555Z AUTO VRB03KT 10SM CLR 17/02 A3005 RMK AO2,M
CXP,2024-02-20 05:55,-119.7326,39.1923,1431.00,37.40,35.60,93.14,0.00,0.00,0.03,30.02,M,9.00,M,FEW,SCT,BKN,M,1200.00,2800.00,3400.00,M,-RA,M,M,M,M,M,M,37.40,KCXP 200555Z AUTO 00000KT 9SM -RA FEW012 SCT028 BKN034 03/02 A3002 RMK AO2 P0003,M
RNO,2024-02-20 05:55,-119.7711,39.4839,1341.00,40.00,33.00,75.84,170.00,7.00,T,29.97,1013.90,10.00,M,SCT,BKN,M,M,6000.00,13000.00,M,M,M,M,M,M,M,M,M,34.53,KRNO 200555Z 17007KT 10SM SCT060 BKN130 04/01 A2997 RMK AO2 RAE10 SLP139 P0000 60000 T00440006 10106 20044 51026,M
RTS,2024-02-20 05:55,-119.8764,39.6682,1539.00,37.40,33.80,86.69,150.00,7.00,0.02,29.98,M,10.00,12.00,SCT,BKN,OVC,M,3000.00,3700.00,10000.00,M,M,M,M,M,M,M,M,31.36,KRTS 200555Z AUTO 15007G12KT 10SM SCT030 BKN037 OVC100 03/01 A2998 RMK AO2 P0002,M
05U,2024-02-20 05:55,-116.0051,39.6042,1811.23,35.60,33.80,93.08,0.00,0.00,0.00,30.06,M,10.00,M,M,M,M,M,M,M,M,M,M,M,M,M,M,M,M,35.60,K05U 200555Z AUTO 00000KT 10SM 02/01 A3006 RMK A01,M
MEV,2024-02-20 05:55,-119.7500,38.9963,1441.42,37.40,35.60,93.14,200.00,6.00,0.03,30.00,M,9.00,16.00,BKN,BKN,OVC,M,1100.00,2100.00,4500.00,M,UP,M,M,M,M,M,M,32.03,KMEV 200555Z AUTO 20006G16KT 9SM UP BKN011 BKN021 OVC045 03/02 A3000 RMK AO2 P0003,M
BAM,2024-02-20 05:55,-116.8743,40.5990,1382.36,41.00,35.60,80.93,70.00,10.00,0.00,29.99,M,10.00,M,CLR,M,M,M,M,M,M,M,M,M,M,M,M,M,M,34.25,KBAM 200555Z AUTO 07010KT 10SM CLR 05/02 A2999 RMK AO1,M
HTH,2024-02-20 05:55,-118.6315,38.5448,1282.89,46.40,19.40,33.79,200.00,21.00,0.00,29.98,M,10.00,32.00,CLR,M,M,M,M,M,M,M,M,M,M,M,M,M,M,38.06,KHTH 200555Z AUTO 20021G32KT 10SM CLR 08/M07 A2998 RMK A01,M
TMT,2024-02-20 05:55,-117.1971,39.4643,1749.34,31.50,29.00,90.34,0.00,0.00,0.00,30.03,M,10.00,M,CLR,M,M,M,M,M,M,M,M,M,M,M,M,M,M,31.50,KTMT 200555Z AUTO 00000KT 10SM CLR 00/M02 A3003 RMK AO2 T10031017 10098 21006,M
EKO,2024-02-20 05:56,-115.7860,40.8242,1367.00,34.00,33.00,96.08,70.00,7.00,0.00,30.02,1017.60,0.50,M,VV ,M,M,M,100.00,M,M,M,FG,M,M,M,M,M,M,27.22,KEKO 200556Z AUTO 07007KT 1/2SM FG VV001 01/01 A3002 RMK AO2 SLP176 60000 T00110006 10056 20011 51010,M
WMC,2024-02-20 05:56,-117.8072,40.9019,1315.00,41.00,27.00,57.15,170.00,7.00,0.00,29.96,1014.50,10.00,M,CLR,M,M,M,M,M,M,M,M,M,M,M,M,M,M,35.75,KWMC 200556Z AUTO 17007KT 10SM CLR 05/M03 A2996 RMK AO2 SLP145 T00501028 10122 20039 51023 $,M
NFL,2024-02-20 05:56,-118.7010,39.4166,1199.00,48.00,21.00,34.05,M,4.00,0.00,29.98,1012.20,10.00,17.00,CLR,M,M,M,M,M,M,M,M,M,M,M,M,M,M,46.10,KNFL 200556Z AUTO VRB04G17KT 10SM CLR 09/M06 A2998 RMK AO2 SLP122 T00891061 10144 20061 53023,M
HND,2024-02-20 05:56,-115.1344,35.9729,742.79,60.00,40.00,47.51,150.00,8.00,0.00,30.07,1019.00,10.00,M,BKN,M,M,M,10000.00,M,M,M,M,M,M,M,M,M,M,60.00,KHND 200556Z AUTO 15008KT 10SM BKN100 16/04 A3007 RMK AO2 SLP190 T01560044 10200 20144 51013,M
TPH,2024-02-20 05:56,-117.0904,38.0505,1654.00,40.00,37.00,88.92,130.00,4.00,0.00,30.06,1016.40,10.00,M,BKN,BKN,OVC,M,1800.00,6000.00,7500.00,M,M,M,M,M,M,M,M,36.76,KTPH 200556Z AUTO 13004KT 10SM BKN018 BKN060 OVC075 04/03 A3006 RMK AO2 SLP164 60008 T00440028 10089 20039 51016,M
LAS,2024-02-20 05:56,-115.1634,36.0719,663.00,61.00,42.00,49.54,240.00,7.00,0.00,30.05,1016.40,10.00,M,FEW,BKN,BKN,M,8000.00,10000.00,20000.00,M,M,M,M,M,M,M,M,61.00,KLAS 200556Z 24007KT 10SM FEW080 BKN100 BKN200 16/06 A3005 RMK AO2 SLP164 T01610056 10200 20161 51013,M
BVU,2024-02-20 06:15,-114.8611,35.9475,671.00,59.00,35.60,41.42,300.00,5.00,0.00,30.05,M,10.00,M,FEW,M,M,M,8000.00,M,M,M,M,M,M,M,M,M,M,59.00,KBVU 200615Z AUTO 30005KT 10SM FEW080 15/02 A3005 RMK AO2,M
CXP,2024-02-20 06:15,-119.7326,39.1923,1431.00,37.40,35.60,93.14,0.00,0.00,0.00,30.03,M,10.00,M,BKN,BKN,OVC,M,1300.00,2100.00,3900.00,M,M,M,M,M,M,M,M,37.40,KCXP 200615Z AUTO 00000KT 10SM BKN013 BKN021 OVC039 03/02 A3003 RMK AO2,M
RTS,2024-02-20 06:15,-119.8764,39.6682,1539.00,37.40,33.80,86.69,M,5.00,0.00,29.99,M,10.00,12.00,FEW,BKN,OVC,M,1200.00,3000.00,3500.00,M,M,M,M,M,M,M,M,32.81,KRTS 200615Z AUTO VRB05G12KT 10SM FEW012 BKN030 OVC035 03/01 A2999 RMK AO2,M
05U,2024-02-20 06:15,-116.0051,39.6042,1811.23,33.80,33.80,100.00,70.00,4.00,0.00,30.06,M,10.00,M,M,M,M,M,M,M,M,M,M,M,M,M,M,M,M,29.52,K05U 200615Z AUTO 07004KT 10SM 01/01 A3006 RMK A01,M
MEV,2024-02-20 06:15,-119.7500,38.9963,1441.42,37.40,35.60,93.14,190.00,8.00,0.00,30.01,M,9.00,M,SCT,BKN,OVC,M,1200.00,3200.00,4600.00,M,UP,M,M,M,M,M,M,30.76,KMEV 200615Z AUTO 19008KT 9SM UP SCT012 BKN032 OVC046 03/02 A3001 RMK AO2,M
BAM,2024-02-20 06:15,-116.8743,40.5990,1382.36,41.00,35.60,80.93,50.00,6.00,0.00,29.99,M,10.00,M,CLR,M,M,M,M,M,M,M,M,M,M,M,M,M,M,36.37,KBAM 200615Z AUTO 05006KT 10SM CLR 05/02 A2999 RMK AO1,M
HTH,2024-02-20 06:15,-118.6315,38.5448,1282.89,46.40,19.40,33.79,210.00,22.00,0.00,29.97,M,10.00,29.00,CLR,M,M,M,M,M,M,M,M,M,M,M,M,M,M,37.86,KHTH 200615Z AUTO 21022G29KT 10SM CLR 08/M07 A2997 RMK A01,M
10U,2024-02-20 06:15,-116.1876,41.9532,1637.00,37.40,32.00,80.65,120.00,10.00,0.00,29.98,M,10.00,17.00,FEW,BKN,OVC,M,3100.00,4800.00,8000.00,M,M,M,M,M,M,M,M,29.74,K10U 200615Z AUTO 12010G17KT 10SM FEW031 BKN048 OVC080 03/00 A2998 RMK AO2,M
TMT,2024-02-20 06:15,-117.1971,39.4643,1749.34,32.70,29.50,87.85,0.00,0.00,0.00,30.03,M,10.00,M,CLR,M,M,M,M,M,M,M,M,M,M,M,M,M,M,32.70,KTMT 200615Z AUTO 00000KT 10SM CLR 00/M01 A3003 RMK AO2 T00041014,M
10U,2024-02-20 06:30,-116.1876,41.9532,1637.00,37.40,32.00,80.65,100.00,8.00,0.00,29.99,M,10.00,M,SCT,BKN,BKN,M,4700.00,5500.00,7500.00,M,M,M,M,M,M,M,M,30.76,K10U 200630Z AUTO 10008KT 10SM SCT047 BKN055 BKN075 03/00 A2999 RMK AO2,M
BVU,2024-02-20 06:35,-114.8611,35.9475,671.00,60.80,35.60,38.85,300.00,5.00,0.00,30.05,M,10.00,M,FEW,FEW,M,M,8000.00,10000.00,M,M,M,M,M,M,M,M,M,60.80,KBVU 200635Z AUTO 30005KT 10SM FEW080 FEW100 16/02 A3005 RMK AO2,M
CXP,2024-02-20 06:35,-119.7326,39.1923,1431.00,37.40,35.60,93.14,0.00,0.00,0.00,30.03,M,10.00,M,SCT,SCT,OVC,M,1300.00,2600.00,6000.00,M,-RA,M,M,M,M,M,M,37.40,KCXP 200635Z AUTO 00000KT 10SM -RA SCT013 SCT026 OVC060 03/02 A3003 RMK AO2,M
RTS,2024-02-20 06:35,-119.8764,39.6682,1539.00,37.40,32.00,80.65,130.00,6.00,0.00,29.99,M,10.00,M,OVC,M,M,M,2700.00,M,M,M,M,M,M,M,M,M,M,32.03,KRTS 200635Z AUTO 13006KT 10SM OVC027 03/00 A2999 RMK AO2,M
05U,2024-02-20 06:35,-116.0051,39.6042,1811.23,33.80,33.80,100.00,320.00,3.00,0.00,30.06,M,10.00,M,M,M,M,M,M,M,M,M,M,M,M,M,M,M,M,30.75,K05U 200635Z AUTO 32003KT 10SM 01/01 A3006 RMK A01,M
MEV,2024-02-20 06:35,-119.7500,38.9963,1441.42,37.40,35.60,93.14,210.00,4.00,0.00,30.02,M,10.00,M,SCT,BKN,OVC,M,1700.00,3400.00,7500.00,M,M,M,M,M,M,M,M,33.73,KMEV 200635Z AUTO 21004KT 10SM SCT017 BKN034 OVC075 03/02 A3002 RMK AO2,M
BAM,2024-02-20 06:35,-116.8743,40.5990,1382.36,41.00,35.60,80.93,130.00,4.00,0.00,30.00,M,10.00,M,CLR,M,M,M,M,M,M,M,M,M,M,M,M,M,M,37.93,KBAM 200635Z AUTO 13004KT 10SM CLR 05/02 A3000 RMK AO1,M
HTH,2024-02-20 06:35,-118.6315,38.5448,1282.89,46.40,15.80,28.93,210.00,25.00,0.00,29.97,M,10.00,36.00,CLR,M,M,M,M,M,M,M,M,M,M,M,M,M,M,37.31,KHTH 200635Z AUTO 21025G36KT 10SM CLR 08/M09 A2997 RMK A01,M
TMT,2024-02-20 06:35,-117.1971,39.4643,1749.34,32.00,29.00,88.53,140.00,3.00,0.00,30.03,M,10.00,M,CLR,M,M,M,M,M,M,M,M,M,M,M,M,M,M,28.69,KTMT 200635Z AUTO 14003KT 10SM CLR 00/M02 A3003 RMK AO2 T10011017,M
TPH,2024-02-20 06:47,-117.0904,38.0505,1654.00,42.00,38.00,85.60,0.00,0.00,T,30.05,M,10.00,M,FEW,OVC,M,M,1700.00,3300.00,M,M,M,M,M,M,M,M,M,42.00,KTPH 200647Z AUTO 00000KT 10SM FEW017 OVC033 06/03 A3005 RMK AO2 RAB26E44 P0000 T00560033,M
P68,2024-02-20 06:53,-116.0056,39.6014,1993.00,34.00,33.00,96.08,180.00,6.00,0.00,30.04,1014.80,M,M,M,M,M,M,M,M,M,M,M,M,M,M,M,M,M,27.94,KP68 200653Z AUTO 18006KT 01/01 A3004 RMK AO1 SLP148 T00110006,M
DRA,2024-02-20 06:53,-116.0278,36.6206,1009.00,58.00,36.00,43.62,200.00,17.00,0.00,30.03,1014.20,10.00,29.00,CLR,M,M,M,M,M,M,M,M,M,M,M,30.00,190.00,2024-02-20 05:55,58.00,KDRA 200653Z AUTO 20017G29KT 10SM CLR 14/02 A3003 RMK AO2 PK WND 19030/0555 SLP142 T01440022,M
ELY,2024-02-20 06:53,-114.8453,39.2950,1909.00,40.00,32.00,72.85,170.00,7.00,0.00,30.07,1015.40,10.00,20.00,FEW,SCT,SCT,M,3200.00,4800.00,7500.00,M,M,M,M,M,27.00,150.00,2024-02-20 06:01,34.53,KELY 200653Z AUTO 17007G20KT 10SM FEW032 SCT048 SCT075 04/00 A3007 RMK AO2 PK WND 15027/0601 SLP154 T00440000,M
VGT,2024-02-20 06:53,-115.1933,36.2111,667.00,64.00,43.00,46.32,240.00,5.00,0.00,30.04,1017.90,10.00,M,OVC,M,M,M,9000.00,M,M,M,M,M,M,M,M,M,M,64.00,KVGT 200653Z AUTO 24005KT 10SM OVC090 18/06 A3004 RMK AO2 SLP179 T01780061,M
LOL,2024-02-20 06:53,-118.5701,40.0684,1192.43,37.00,28.00,69.63,260.00,5.00,0.00,29.99,1015.70,10.00,M,CLR,M,M,M,M,M,M,M,M,M,M,M,M,M,M,32.33,KLOL 200653Z AUTO 26005KT 10SM CLR 03/M02 A2999 RMK AO2 SLP157 T00281022,M
10U,2024-02-20 06:55,-116.1876,41.9532,1637.00,35.60,30.20,80.51,130.00,5.00,0.00,29.99,M,10.00,11.00,CLR,M,M,M,M,M,M,M,M,M,M,M,M,M,M,30.67,K10U 200655Z AUTO 13005G11KT 10SM CLR 02/M01 A2999 RMK AO2,M
INS,2024-02-20 06:55,-115.6733,36.5872,955.00,59.40,38.00,44.89,50.00,5.00,0.00,30.05,1014.80,10.00,M,CLR,M,M,M,M,M,M,M,M,M,M,M,35.00,210.00,2024-02-20 06:10,59.40,KINS 200655Z AUTO 05005KT 10SM CLR 15/03 A3005 RMK AO2 PK WND 21035/10 SLP148 T01520033,M
LSV,2024-02-20 06:55,-115.0343,36.2362,570.00,61.70,40.60,45.78,200.00,6.00,0.00,30.02,1015.40,10.00,M,BKN,M,M,M,9500.00,M,M,M,M,M,M,M,M,M,M,61.70,KLSV 200655Z AUTO 20006KT 10SM BKN095 17/05 A3002 RMK AO2 SLP154 T01650048 $,M
BVU,2024-02-20 06:55,-114.8611,35.9475,671.00,60.80,35.60,38.85,240.00,5.00,0.00,30.06,M,10.00,M,FEW,M,M,M,9000.00,M,M,M,M,M,M,M,M,M,M,60.80,KBVU 200655Z AUTO 24005KT 10SM FEW090 16/02 A3006 RMK AO2,M
CXP,2024-02-20 06:55,-119.7326,39.1923,1431.00,37.40,35.60,93.14,190.00,7.00,0.00,30.04,M,9.00,M,SCT,BKN,OVC,M,3000.00,4100.00,5500.00,M,-RA,M,M,M,M,M,M,31.36,KCXP 200655Z AUTO 19007KT 9SM -RA SCT030 BKN041 OVC055 03/02 A3004 RMK AO2,M
RNO,2024-02-20 06:55,-119.7711,39.4839,1341.00,40.00,33.00,75.84,M,5.00,0.00,29.98,1014.00,10.00,M,BKN,M,M,M,6000.00,M,M,M,M,M,M,M,M,M,M,35.90,KRNO 200655Z VRB05KT 10SM BKN060 04/01 A2998 RMK AO2 SLP140 T00440006,M
RTS,2024-02-20 06:55,-119.8764,39.6682,1539.00,37.40,32.00,80.65,0.00,0.00,0.00,29.99,M,10.00,M,BKN,OVC,M,M,2700.00,3500.00,M,M,M,M,M,M,M,M,M,37.40,KRTS 200655Z AUTO 00000KT 10SM BKN027 OVC035 03/00 A2999 RMK AO2,M
05U,2024-02-20 06:55,-116.0051,39.6042,1811.23,33.80,33.80,100.00,330.00,5.00,0.00,30.06,M,10.00,M,M,M,M,M,M,M,M,M,M,M,M,M,M,M,M,28.53,K05U 200655Z AUTO 33005KT 10SM 01/01 A3006 RMK A01,M
MEV,2024-02-20 06:55,-119.7500,38.9963,1441.42,37.40,35.60,93.14,150.00,6.00,0.00,30.02,M,10.00,M,BKN,BKN,OVC,M,1600.00,3800.00,5500.00,M,-RA,M,M,M,M,M,M,32.03,KMEV 200655Z AUTO 15006KT 10SM -RA BKN016 BKN038 OVC055 03/02 A3002 RMK AO2,M
BAM,2024-02-20 06:55,-116.8743,40.5990,1382.36,41.00,33.80,75.33,0.00,0.00,0.00,30.01,M,10.00,M,CLR,M,M,M,M,M,M,M,M,M,M,M,M,M,M,41.00,KBAM 200655Z AUTO 00000KT 10SM CLR 05/01 A3001 RMK AO1,M
HTH,2024-02-20 06:55,-118.6315,38.5448,1282.89,46.40,15.80,28.93,200.00,20.00,0.00,29.98,M,10.00,29.00,CLR,M,M,M,M,M,M,M,M,M,M,M,M,M,M,38.26,KHTH 200655Z AUTO 20020G29KT 10SM CLR 08/M09 A2998 RMK A01,M
TMT,2024-02-20 06:55,-117.1971,39.4643,1749.34,29.00,27.00,92.12,0.00,0.00,0.00,30.03,M,10.00,M,CLR,M,M,M,M,M,M,M,M,M,M,M,M,M,M,29.00,KTMT 200655Z AUTO 00000KT 10SM CLR M02/M03 A3003 RMK AO2 T10171027,M
EKO,2024-02-20 06:56,-115.7860,40.8242,1367.00,34.00,33.00,96.08,50.00,7.00,0.00,30.04,1018.40,0.50,M,VV ,M,M,M,100.00,M,M,M,FG,M,M,M,M,M,M,27.22,KEKO 200656Z AUTO 05007KT 1/2SM FG VV001 01/01 A3004 RMK AO2 SLP184 T00110006,M
WMC,2024-02-20 06:56,-117.8072,40.9019,1315.00,41.00,27.00,57.15,190.00,9.00,0.00,29.98,1014.70,10.00,M,CLR,M,M,M,M,M,M,M,M,M,M,M,M,M,M,34.70,KWMC 200656Z AUTO 19009KT 10SM CLR 05/M03 A2998 RMK AO2 SLP147 T00501028 $,M
NFL,2024-02-20 06:56,-118.7010,39.4166,1199.00,43.00,23.00,44.80,0.00,0.00,0.00,29.99,1012.50,10.00,M,CLR,M,M,M,M,M,M,M,M,M,M,M,M,M,M,43.00,KNFL 200656Z AUTO 00000KT 10SM CLR 06/M05 A2999 RMK AO2 SLP125 T00611050,M
HND,2024-02-20 06:56,-115.1344,35.9729,742.79,58.00,42.00,55.14,190.00,7.00,0.00,30.07,1019.00,10.00,M,SCT,M,M,M,9500.00,M,M,M,M,M,M,M,M,M,M,58.00,KHND 200656Z AUTO 19007KT 10SM SCT095 14/06 A3007 RMK AO2 SLP190 T01440056 402170100,M
TPH,2024-02-20 06:56,-117.0904,38.0505,1654.00,42.00,38.00,85.60,0.00,0.00,T,30.05,1015.80,10.00,M,BKN,OVC,M,M,2800.00,3500.00,M,M,M,M,M,M,M,M,M,42.00,KTPH 200656Z AUTO 00000KT 10SM BKN028 OVC035 06/03 A3005 RMK AO2 RAB26E44 SLP158 P0000 T00560033,M
LAS,2024-02-20 06:56,-115.1634,36.0719,663.00,60.00,42.00,51.33,M,3.00,0.00,30.05,1016.30,10.00,M,BKN,BKN,M,M,10000.00,20000.00,M,M,M,M,M,M,M,M,M,60.00,KLAS 200656Z VRB03KT 10SM BKN100 BKN200 16/06 A3005 RMK AO2 SLP163 T01560056,M
BVU,2024-02-20 07:15,-114.8611,35.9475,671.00,60.80,35.60,38.85,M,4.00,0.00,30.06,M,10.00,M,FEW,SCT,M,M,7500.00,9000.00,M,M,M,M,M,M,M,M,M,60.80,KBVU 200715Z AUTO VRB04KT 10SM FEW075 SCT090 16/02 A3006 RMK AO2,M
CXP,2024-02-20 07:15,-119.7326,39.1923,1431.00,37.40,35.60,93.14,0.00,0.00,0.00,30.03,M,9.00,M,FEW,SCT,BKN,M,1500.00,2300.00,3000.00,M,-RA,M,M,M,M,M,M,37.40,KCXP 200715Z AUTO 00000KT 9SM -RA FEW015 SCT023 BKN030 03/02 A3003 RMK AO2,M
RTS,2024-02-20 07:15,-119.8764,39.6682,1539.00,39.20,30.20,69.88,60.00,4.00,0.00,29.98,M,10.00,M,BKN,BKN,OVC,M,2600.00,3100.00,4100.00,M,M,M,M,M,M,M,M,35.83,KRTS 200715Z AUTO 06004KT 10SM BKN026 BKN031 OVC041 04/M01 A2998 RMK AO2,M
05U,2024-02-20 07:15,-116.0051,39.6042,1811.23,33.80,33.80,100.00,340.00,4.00,0.00,30.06,M,10.00,M,M,M,M,M,M,M,M,M,M,M,M,M,M,M,M,29.52,K05U 200715Z AUTO 34004KT 10SM 01/01 A3006 RMK A01,M
MEV,2024-02-20 07:15,-119.7500,38.9963,1441.42,37.40,35.60,93.14,180.00,8.00,0.00,30.02,M,9.00,15.00,BKN,BKN,OVC,M,1500.00,4200.00,5500.00,M,-RA,M,M,M,M,M,M,30.76,KMEV 200715Z AUTO 18008G15KT 9SM -RA BKN015 BKN042 OVC055 03/02 A3002 RMK AO2,M
BAM,2024-02-20 07:15,-116.8743,40.5990,1382.36,37.40,33.80,86.69,100.00,5.00,0.00,30.02,M,10.00,M,CLR,M,M,M,M,M,M,M,M,M,M,M,M,M,M,32.81,KBAM 200715Z AUTO 10005KT 10SM CLR 03/01 A3002 RMK AO1,M
HTH,2024-02-20 07:15,-118.6315,38.5448,1282.89,46.40,17.60,31.28,210.00,23.00,0.00,29.98,M,10.00,33.00,CLR,M,M,M,M,M,M,M,M,M,M,M,M,M,M,37.67,KHTH 200715Z AUTO 21023G33KT 10SM CLR 08/M08 A2998 RMK A01,M
10U,2024-02-20 07:15,-116.1876,41.9532,1637.00,35.60,30.20,80.51,120.00,6.00,0.00,30.00,M,10.00,M,CLR,M,M,M,M,M,M,M,M,M,M,M,M,M,M,29.87,K10U 200715Z AUTO 12006KT 10SM CLR 02/M01 A3000 RMK AO2,M
TMT,2024-02-20 07:15,-117.1971,39.4643,1749.34,29.00,27.70,94.81,320.00,4.00,0.00,30.03,M,10.00,M,CLR,M,M,M,M,M,M,M,M,M,M,M,M,M,M,23.92,KTMT 200715Z AUTO 32004KT 10SM CLR M02/M02 A3003 RMK AO2 T10161024,M
INS,2024-02-20 07:26,-115.6733,36.5872,955.00,60.80,33.80,36.16,160.00,15.00,0.00,30.03,1014.10,10.00,20.00,CLR,M,M,M,M,M,M,M,M,M,M,M,M,M,M,60.80,KINS 200726Z AUTO 16015G20KT 10SM CLR 16/01 A3003 RMK AO2 WSHFT 22 SLP141,M
INS,2024-02-20 07:28,-115.6733,36.5872,955.00,60.80,35.60,38.85,120.00,11.00,0.00,30.04,1014.40,10.00,20.00,CLR,M,M,M,M,M,M,M,M,M,M,M,M,M,M,60.80,KINS 200728Z AUTO 12011G20KT 10SM CLR 16/02 A3004 RMK AO2 WSHFT 26 SLP144,M
BVU,2024-02-20 07:35,-114.8611,35.9475,671.00,62.60,35.60,36.45,220.00,5.00,0.00,30.05,M,10.00,11.00,FEW,OVC,M,M,7500.00,9000.00,M,M,M,M,M,M,M,M,M,62.60,KBVU 200735Z AUTO 22005G11KT 10SM FEW075 OVC090 17/02 A3005 RMK AO2,M
CXP,2024-02-20 07:35,-119.7326,39.1923,1431.00,37.40,35.60,93.14,200.00,6.00,0.00,30.04,M,9.00,12.00,SCT,BKN,OVC,M,1800.00,3700.00,11000.00,M,-RA,M,M,M,M,M,M,32.03,KCXP 200735Z AUTO 20006G12KT 9SM -RA SCT018 BKN037 OVC110 03/02 A3004 RMK AO2,M
RTS,2024-02-20 07:35,-119.8764,39.6682,1539.00,37.40,33.80,86.69,60.00,4.00,0.00,29.99,M,10.00,M,BKN,OVC,M,M,2600.00,3100.00,M,M,M,M,M,M,M,M,M,33.73,KRTS 200735Z AUTO 06004KT 10SM BKN026 OVC031 03/01 A2999 RMK AO2,M
05U,2024-02-20 07:35,-116.0051,39.6042,1811.23,33.80,33.80,100.00,20.00,5.00,0.00,30.07,M,10.00,M,M,M,M,M,M,M,M,M,M,M,M,M,M,M,M,28.53,K05U 200735Z AUTO 02005KT 10SM 01/01 A3007 RMK A01,M
MEV,2024-02-20 07:35,-119.7500,38.9963,1441.42,37.40,35.60,93.14,160.00,8.00,0.00,30.03,M,7.00,14.00,BKN,BKN,OVC,M,1300.00,1800.00,2700.00,M,UP,M,M,M,M,M,M,30.76,KMEV 200735Z AUTO 16008G14KT 7SM UP BKN013 BKN018 OVC027 03/02 A3003 RMK AO2,M
BAM,2024-02-20 07:35,-116.8743,40.5990,1382.36,39.20,33.80,80.79,60.00,7.00,0.00,30.02,M,10.00,M,CLR,M,M,M,M,M,M,M,M,M,M,M,M,M,M,33.56,KBAM 200735Z AUTO 06007KT 10SM CLR 04/01 A3002 RMK AO1,M
HTH,2024-02-20 07:35,-118.6315,38.5448,1282.89,46.40,17.60,31.28,200.00,28.00,0.00,29.98,M,10.00,34.00,CLR,M,M,M,M,M,M,M,M,M,M,M,M,M,M,36.81,KHTH 200735Z AUTO 20028G34KT 10SM CLR 08/M08 A2998 RMK A01,M
10U,2024-02-20 07:35,-116.1876,41.9532,1637.00,35.60,30.20,80.51,130.00,4.00,0.00,30.00,M,10.00,M,CLR,M,M,M,M,M,M,M,M,M,M,M,M,M,M,31.62,K10U 200735Z AUTO 13004KT 10SM CLR 02/M01 A3000 RMK AO2,M
TMT,2024-02-20 07:35,-117.1971,39.4643,1749.34,29.00,27.70,94.81,0.00,0.00,0.00,30.05,M,10.00,M,CLR,M,M,M,M,M,M,M,M,M,M,M,M,M,M,29.00,KTMT 200735Z AUTO 00000KT 10SM CLR M02/M02 A3005 RMK AO2 LTG DSNT W T10161024,M
TPH,2024-02-20 07:42,-117.0904,38.0505,1654.00,41.00,38.00,88.97,140.00,5.00,0.00,30.05,M,10.00,M,BKN,OVC,M,M,1300.00,2000.00,M,M,M,M,M,M,M,M,M,37.08,KTPH 200742Z AUTO 14005KT 10SM BKN013 OVC020 05/03 A3005 RMK AO2 T00500033,M
EKO,2024-02-20 07:49,-115.7860,40.8242,1367.00,34.00,33.00,96.08,40.00,7.00,0.00,30.05,M,0.50,M,VV ,M,M,M,200.00,M,M,M,FG,M,M,M,M,M,M,27.22,KEKO 200749Z AUTO 04007KT 1/2SM FG VV002 01/01 A3005 RMK AO2 T00110006,M
P68,2024-02-20 07:53,-116.0056,39.6014,1993.00,33.00,32.00,96.06,220.00,4.00,0.00,30.03,1016.00,M,M,M,M,M,M,M,M,M,M,M,M,M,M,M,M,M,28.59,KP68 200753Z AUTO 22004KT 01/00 A3003 RMK AO1 SLP160 T00060000 400940006,M
DRA,2024-02-20 07:53,-116.0278,36.6206,1009.00,57.00,37.00,47.04,220.00,18.00,0.00,30.04,1014.50,10.00,27.00,FEW,SCT,M,M,8000.00,11000.00,M,M,M,M,M,M,36.00,220.00,2024-02-20 07:43,57.00,KDRA 200753Z AUTO 22018G27KT 10SM FEW080 SCT110 14/03 A3004 RMK AO2 PK WND 22036/0743 SLP145 T01390028 401610072,M
ELY,2024-02-20 07:53,-114.8453,39.2950,1909.00,39.00,31.00,72.75,220.00,7.00,T,30.07,1015.80,10.00,M,SCT,SCT,OVC,M,4000.00,5000.00,7000.00,M,M,M,M,M,M,M,M,33.31,KELY 200753Z AUTO 22007KT 10SM SCT040 SCT050 OVC070 04/M01 A3007 RMK AO2 RAB36E46 SLP158 P0000 T00391006 400721011,M
VGT,2024-02-20 07:53,-115.1933,36.2111,667.00,61.00,43.00,51.48,130.00,6.00,0.00,30.04,1017.90,10.00,M,OVC,M,M,M,9000.00,M,M,M,M,M,M,M,M,M,M,61.00,KVGT 200753Z AUTO 13006KT 10SM OVC090 16/06 A3004 RMK AO2 SLP179 T01610061 402170100,M
LOL,2024-02-20 07:53,-118.5701,40.0684,1192.43,33.00,27.00,78.34,100.00,3.00,0.00,29.99,1016.00,10.00,M,CLR,M,M,M,M,M,M,M,M,M,M,M,M,M,M,29.83,KLOL 200753Z AUTO 10003KT 10SM CLR 01/M03 A2999 RMK AO2 SLP160 T00061028 401391028,M
LSV,2024-02-20 07:55,-115.0343,36.2362,570.00,62.20,41.70,46.93,180.00,6.00,0.00,30.02,1015.30,10.00,M,OVC,M,M,M,8000.00,M,M,M,M,M,M,M,M,M,M,62.20,KLSV 200755Z AUTO 18006KT 10SM OVC080 17/05 A3002 RMK AO2 SLP153 T01680054 402180118 $,M
BVU,2024-02-20 07:55,-114.8611,35.9475,671.00,60.80,35.60,38.85,M,4.00,0.00,30.06,M,10.00,M,SCT,OVC,M,M,7500.00,9000.00,M,M,M,M,M,M,M,M,M,60.80,KBVU 200755Z AUTO VRB04KT 10SM SCT075 OVC090 16/02 A3006 RMK AO2,M
CXP,2024-02-20 07:55,-119.7326,39.1923,1431.00,37.40,35.60,93.14,180.00,7.00,0.02,30.05,M,2.50,13.00,BKN,BKN,OVC,M,900.00,1600.00,4100.00,M,RA BR,M,M,M,M,M,M,31.36,KCXP 200755Z AUTO 18007G13KT 2 1/2SM RA BR BKN009 BKN016 OVC041 03/02 A3005 RMK AO2 P0002,M
RNO,2024-02-20 07:55,-119.7711,39.4839,1341.00,39.00,33.00,78.86,160.00,8.00,T,30.00,1014.30,10.00,M,FEW,BKN,BKN,M,1700.00,4000.00,6500.00,M,M,M,M,M,M,M,M,32.74,KRNO 200755Z 16008KT 10SM FEW017 BKN040 BKN065 04/01 A3000 RMK AO2 RAB31E49 SLP143 P0000 T00390006 401220033,M
RTS,2024-02-20 07:55,-119.8764,39.6682,1539.00,37.40,32.00,80.65,60.00,5.00,0.00,29.99,M,10.00,M,SCT,BKN,OVC,M,2800.00,3400.00,4000.00,M,M,M,M,M,M,M,M,32.81,KRTS 200755Z AUTO 06005KT 10SM SCT028 BKN034 OVC040 03/M00 A2999 RMK AO2,M
05U,2024-02-20 07:55,-116.0051,39.6042,1811.23,33.80,32.00,93.03,20.00,5.00,0.00,30.07,M,10.00,M,M,M,M,M,M,M,M,M,M,M,M,M,M,M,M,28.53,K05U 200755Z AUTO 02005KT 10SM 01/00 A3007 RMK A01,M
MEV,2024-02-20 07:55,-119.7500,38.9963,1441.42,37.40,35.60,93.14,170.00,3.00,0.01,30.02,M,7.00,M,BKN,BKN,OVC,M,1200.00,1800.00,3000.00,M,UP,M,M,M,M,M,M,34.86,KMEV 200755Z AUTO 17003KT 7SM UP BKN012 BKN018 OVC030 03/02 A3002 RMK AO2 P0001,M
BAM,2024-02-20 07:55,-116.8743,40.5990,1382.36,37.40,33.80,86.69,70.00,3.00,0.00,30.02,M,10.00,M,CLR,M,M,M,M,M,M,M,M,M,M,M,M,M,M,34.86,KBAM 200755Z AUTO 07003KT 10SM CLR 03/01 A3002 RMK AO1,M
HTH,2024-02-20 07:55,-118.6315,38.5448,1282.89,46.40,17.60,31.28,200.00,28.00,0.00,29.98,M,10.00,35.00,CLR,M,M,M,M,M,M,M,M,M,M,M,M,M,M,36.81,KHTH 200755Z AUTO 20028G35KT 10SM CLR 08/M08 A2998 RMK A01,M
10U,2024-02-20 07:55,-116.1876,41.9532,1637.00,33.80,30.20,86.49,130.00,5.00,0.00,30.00,M,10.00,M,CLR,M,M,M,M,M,M,M,M,M,M,M,M,M,M,28.53,K10U 200755Z AUTO 13005KT 10SM CLR 01/M01 A3000 RMK AO2,M
INS,2024-02-20 07:55,-115.6733,36.5872,955.00,57.40,40.00,52.14,0.00,0.00,0.00,30.04,1014.60,10.00,M,FEW,M,M,M,10000.00,M,M,M,M,M,M,M,31.00,220.00,2024-02-20 07:26,57.40,KINS 200755Z AUTO 00000KT 10SM FEW100 14/04 A3004 RMK AO2 PK WND 22031/26 SLP146 T01410044 401830077,M
TMT,2024-02-20 07:55,-117.1971,39.4643,1749.34,27.70,26.60,95.57,40.00,4.00,0.00,30.05,M,10.00,M,CLR,M,M,M,M,M,M,M,M,M,M,M,M,M,M,22.40,KTMT 200755Z AUTO 04004KT 10SM CLR M02/M03 A3005 RMK AO2 T10241030 401001042,M
EKO,2024-02-20 07:56,-115.7860,40.8242,1367.00,33.00,32.00,96.06,60.00,7.00,0.00,30.04,1018.70,0.50,M,VV ,M,M,M,200.00,M,M,M,FG,M,M,M,M,M,M,26.00,KEKO 200756Z AUTO 06007KT 1/2SM FG VV002 01/00 A3004 RMK AO2 SLP187 T00060000 400611028,M
WMC,2024-02-20 07:56,-117.8072,40.9019,1315.00,39.00,27.00,61.78,180.00,9.00,0.00,29.98,1014.50,10.00,M,SCT,M,M,M,7500.00,M,M,M,M,M,M,M,M,M,M,32.22,KWMC 200756Z AUTO 18009KT 10SM SCT075 04/M03 A2998 RMK AO2 SLP145 T00391028 401330028 $,M
NFL,2024-02-20 07:56,-118.7010,39.4166,1199.00,39.00,24.00,54.54,280.00,6.00,0.00,29.99,1012.60,10.00,M,CLR,M,M,M,M,M,M,M,M,M,M,M,M,M,M,33.96,KNFL 200756Z AUTO 28006KT 10SM CLR 04/M04 A2999 RMK AO2 SLP126 T00391044 401610039,M
HND,2024-02-20 07:56,-115.1344,35.9729,742.79,60.00,42.00,51.33,150.00,7.00,0.00,30.08,1018.90,10.00,M,OVC,M,M,M,7500.00,M,M,M,M,M,M,M,M,M,M,60.00,KHND 200756Z AUTO 15007KT 10SM OVC075 16/06 A3008 RMK AO2 SLP189 T01560056,M
TPH,2024-02-20 07:56,-117.0904,38.0505,1654.00,41.00,38.00,88.97,140.00,3.00,0.00,30.05,1015.90,10.00,M,BKN,OVC,M,M,1300.00,1700.00,M,M,M,M,M,M,M,M,M,38.98,KTPH 200756Z AUTO 14003KT 10SM BKN013 OVC017 05/03 A3005 RMK AO2 SLP159 T00500033 401061006,M
LAS,2024-02-20 07:56,-115.1634,36.0719,663.00,59.00,43.00,55.28,150.00,4.00,0.00,30.05,1016.50,10.00,M,SCT,OVC,M,M,8000.00,10000.00,M,M,M,M,M,M,M,M,M,59.00,KLAS 200756Z 15004KT 10SM SCT080 OVC100 15/06 A3005 RMK AO2 SLP165 T01500061 402110100,M
EKO,2024-02-20 08:04,-115.7860,40.8242,1367.00,33.00,32.00,96.06,60.00,6.00,0.00,30.04,M,0.50,M,VV ,M,M,M,100.00,M,M,M,FG,M,M,M,M,M,M,26.73,KEKO 200804Z AUTO 06006KT 1/2SM FG VV001 01/00 A3004 RMK AO2 T00060000,M
BVU,2024-02-20 08:15,-114.8611,35.9475,671.00,59.00,35.60,41.42,0.00,0.00,0.00,30.06,M,10.00,M,BKN,BKN,M,M,8000.00,9000.00,M,M,M,M,M,M,M,M,M,59.00,KBVU 200815Z AUTO 00000KT 10SM BKN080 BKN090 15/02 A3006 RMK AO2,M
CXP,2024-02-20 08:15,-119.7326,39.1923,1431.00,35.60,33.80,93.08,0.00,0.00,0.00,30.03,M,5.00,M,SCT,BKN,OVC,M,800.00,1400.00,3000.00,M,UP BR,M,M,M,M,M,M,35.60,KCXP 200815Z AUTO 00000KT 5SM UP BR SCT008 BKN014 OVC030 02/01 A3003 RMK AO2 LTG DSNT W AND NW,M
RTS,2024-02-20 08:15,-119.8764,39.6682,1539.00,37.40,32.00,80.65,70.00,7.00,0.00,30.00,M,10.00,M,FEW,OVC,M,M,2700.00,3400.00,M,M,M,M,M,M,M,M,M,31.36,KRTS 200815Z AUTO 07007KT 10SM FEW027 OVC034 03/00 A3000 RMK AO2,M
05U,2024-02-20 08:15,-116.0051,39.6042,1811.23,32.00,32.00,100.00,330.00,4.00,0.00,30.07,M,10.00,M,M,M,M,M,M,M,M,M,M,M,M,M,M,M,M,27.42,K05U 200815Z AUTO 33004KT 10SM 00/M00 A3007 RMK A01,M
MEV,2024-02-20 08:15,-119.7500,38.9963,1441.42,35.60,35.60,100.00,150.00,4.00,0.00,30.02,M,9.00,M,FEW,BKN,OVC,M,1400.00,2600.00,6000.00,M,-RA,M,M,M,M,M,M,31.62,KMEV 200815Z AUTO 15004KT 9SM -RA FEW014 BKN026 OVC060 02/02 A3002 RMK AO2 LTG DSNT NW,M
BAM,2024-02-20 08:15,-116.8743,40.5990,1382.36,35.60,33.80,93.08,50.00,6.00,0.00,30.01,M,10.00,M,CLR,M,M,M,M,M,M,M,M,M,M,M,M,M,M,29.87,KBAM 200815Z AUTO 05006KT 10SM CLR 02/01 A3001 RMK AO1,M
HTH,2024-02-20 08:15,-118.6315,38.5448,1282.89,46.40,17.60,31.28,200.00,27.00,0.00,29.98,M,10.00,40.00,CLR,M,M,M,M,M,M,M,M,M,M,M,M,M,M,36.97,KHTH 200815Z AUTO 20027G40KT 10SM CLR 08/M08 A2998 RMK A01,M
10U,2024-02-20 08:15,-116.1876,41.9532,1637.00,35.60,30.20,80.51,120.00,8.00,0.00,30.00,M,10.00,M,CLR,M,M,M,M,M,M,M,M,M,M,M,M,M,M,28.55,K10U 200815Z AUTO 12008KT 10SM CLR 02/M01 A3000 RMK AO2,M
TMT,2024-02-20 08:15,-117.1971,39.4643,1749.34,27.50,26.40,95.56,0.00,0.00,0.00,30.04,M,10.00,M,CLR,M,M,M,M,M,M,M,M,M,M,M,M,M,M,27.50,KTMT 200815Z AUTO 00000KT 10SM CLR M02/M03 A3004 RMK AO2 T10251031,M
BVU,2024-02-20 08:35,-114.8611,35.9475,671.00,59.00,35.60,41.42,0.00,0.00,0.00,30.05,M,10.00,M,FEW,FEW,M,M,7500.00,9500.00,M,M,M,M,M,M,M,M,M,59.00,KBVU 200835Z AUTO 00000KT 10SM FEW075 FEW095 15/02 A3005 RMK AO2,M
CXP,2024-02-20 08:35,-119.7326,39.1923,1431.00,35.60,33.80,93.08,340.00,5.00,0.00,30.04,M,9.00,M,BKN,BKN,OVC,M,600.00,900.00,3000.00,M,-RA,M,M,M,M,M,M,30.67,KCXP 200835Z AUTO 34005KT 9SM -RA BKN006 BKN009 OVC030 02/01 A3004 RMK AO2,M
RTS,2024-02-20 08:35,-119.8764,39.6682,1539.00,39.20,30.20,69.88,0.00,0.00,0.00,30.00,M,10.00,M,SCT,OVC,M,M,2600.00,3400.00,M,M,M,M,M,M,M,M,M,39.20,KRTS 200835Z AUTO 00000KT 10SM SCT026 OVC034 04/M01 A3000 RMK AO2,M
05U,2024-02-20 08:35,-116.0051,39.6042,1811.23,33.80,32.00,93.03,0.00,0.00,0.00,30.06,M,10.00,M,M,M,M,M,M,M,M,M,M,M,M,M,M,M,M,33.80,K05U 200835Z AUTO 00000KT 10SM 01/M00 A3006 RMK A01,M
MEV,2024-02-20 08:35,-119.7500,38.9963,1441.42,35.60,35.60,100.00,230.00,3.00,0.00,30.03,M,6.00,M,BKN,BKN,OVC,M,1200.00,2200.00,4800.00,M,-RA BR,M,M,M,M,M,M,32.80,KMEV 200835Z AUTO 23003KT 6SM -RA BR BKN012 BKN022 OVC048 02/02 A3003 RMK AO2,M
BAM,2024-02-20 08:35,-116.8743,40.5990,1382.36,35.60,33.80,93.08,50.00,4.00,0.00,30.01,M,10.00,M,CLR,M,M,M,M,M,M,M,M,M,M,M,M,M,M,31.62,KBAM 200835Z AUTO 05004KT 10SM CLR 02/01 A3001 RMK AO1,M
HTH,2024-02-20 08:35,-118.6315,38.5448,1282.89,46.40,17.60,31.28,210.00,28.00,0.00,29.97,M,10.00,39.00,CLR,M,M,M,M,M,M,M,M,M,M,M,M,M,M,36.81,KHTH 200835Z AUTO 21028G39KT 10SM CLR 08/M08 A2997 RMK A01,M
10U,2024-02-20 08:35,-116.1876,41.9532,1637.00,33.80,30.20,86.49,130.00,5.00,0.00,30.01,M,10.00,M,CLR,M,M,M,M,M,M,M,M,M,M,M,M,M,M,28.53,K10U 200835Z AUTO 13005KT 10SM CLR 01/M01 A3001 RMK AO2,M
TMT,2024-02-20 08:35,-117.1971,39.4643,1749.34,27.50,26.40,95.56,0.00,0.00,0.00,30.04,M,10.00,M,CLR,M,M,M,M,M,M,M,M,M,M,M,M,M,M,27.50,KTMT 200835Z AUTO 00000KT 10SM CLR M02/M03 A3004 RMK AO2 T10251031,M
EKO,2024-02-20 08:38,-115.7860,40.8242,1367.00,33.00,32.00,96.06,70.00,6.00,0.00,30.05,M,1.00,M,OVC,M,M,M,100.00,M,M,M,BR,M,M,M,M,M,M,26.73,KEKO 200838Z AUTO 07006KT 1SM BR OVC001 01/00 A3005 RMK AO2 T00060000,M
EKO,2024-02-20 08:46,-115.7860,40.8242,1367.00,33.00,32.00,96.06,60.00,7.00,0.00,30.05,M,0.75,M,OVC,M,M,M,100.00,M,M,M,BR,M,M,M,M,M,M,26.00,KEKO 200846Z AUTO 06007KT 3/4SM BR OVC001 01/00 A3005 RMK AO2 T00060000,M
CXP,2024-02-20 08:50,-119.7326,39.1923,1431.00,35.60,33.80,93.08,310.00,4.00,0.00,30.04,M,10.00,M,OVC,M,M,M,600.00,M,M,M,M,M,M,M,M,M,M,31.62,KCXP 200850Z AUTO 31004KT 10SM OVC006 02/01 A3004 RMK AO2,M
P68,2024-02-20 08:53,-116.0056,39.6014,1993.00,34.00,31.00,88.63,200.00,5.00,0.00,30.04,1016.00,M,M,M,M,M,M,M,M,M,M,M,M,M,M,M,M,M,28.77,KP68 200853Z AUTO 20005KT 01/M01 A3004 RMK AO1 SLP160 T00111006 57000,M
DRA,2024-02-20 08:53,-116.0278,36.6206,1009.00,57.00,38.00,48.93,200.00,18.00,0.00,30.04,1014.70,10.00,23.00,BKN,OVC,M,M,8000.00,11000.00,M,M,M,M,M,M,28.00,230.00,2024-02-20 08:16,57.00,KDRA 200853Z AUTO 20018G23KT 10SM BKN080 OVC110 14/03 A3004 RMK AO2 PK WND 23028/0816 SLP147 T01390033 53002,M
ELY,2024-02-20 08:53,-114.8453,39.2950,1909.00,39.00,31.00,72.75,190.00,8.00,0.00,30.07,1015.90,10.00,M,BKN,M,M,M,4100.00,M,M,M,M,M,M,M,M,M,M,32.74,KELY 200853Z AUTO 19008KT 10SM BKN041 04/M01 A3007 RMK AO2 SLP159 60000 T00391006 50002,M
VGT,2024-02-20 08:53,-115.1933,36.2111,667.00,61.00,43.00,51.48,150.00,6.00,0.00,30.05,1017.90,10.00,M,BKN,OVC,M,M,7000.00,10000.00,M,M,M,M,M,M,M,M,M,61.00,KVGT 200853Z AUTO 15006KT 10SM BKN070 OVC100 16/06 A3005 RMK AO2 SLP179 T01610061 53002,M
LOL,2024-02-20 08:53,-118.5701,40.0684,1192.43,32.00,27.00,81.55,120.00,4.00,0.00,30.00,1016.20,10.00,M,CLR,M,M,M,M,M,M,M,M,M,M,M,M,M,M,27.42,KLOL 200853Z AUTO 12004KT 10SM CLR 00/M03 A3000 RMK AO2 SLP162 T00001028 51007,M
EKO,2024-02-20 08:54,-115.7860,40.8242,1367.00,33.80,32.00,93.03,50.00,7.00,M,30.05,M,1.00,M,OVC,M,M,M,98.00,M,M,M,BR,M,M,M,M,M,M,26.97,SPECI KEKO 200854Z 05007KT 1SM BR OVC001 01/00 A3005 RMK AO2 FIBI,M
INS,2024-02-20 08:55,-115.6733,36.5872,955.00,57.00,39.00,50.88,80.00,4.00,0.00,30.04,1014.60,10.00,M,SCT,BKN,M,M,7000.00,10000.00,M,M,M,M,M,M,M,M,M,57.00,KINS 200855Z AUTO 08004KT 10SM SCT070 BKN100 14/04 A3004 RMK AO2 SLP146 T01390039 50002,M
LSV,2024-02-20 08:55,-115.0343,36.2362,570.00,62.20,41.70,46.93,0.00,0.00,0.00,30.02,1015.30,10.00,M,BKN,M,M,M,10000.00,M,M,M,M,M,M,M,M,M,M,62.20,KLSV 200855Z AUTO 00000KT 10SM BKN100 17/05 A3002 RMK AO2 SLP153 T01680054 50001 $,M
BVU,2024-02-20 08:55,-114.8611,35.9475,671.00,57.20,35.60,44.19,0.00,0.00,0.00,30.05,M,10.00,M,CLR,M,M,M,M,M,M,M,M,M,M,M,M,M,M,57.20,KBVU 200855Z AUTO 00000KT 10SM CLR 14/02 A3005 RMK AO2,M
RNO,2024-02-20 08:55,-119.7711,39.4839,1341.00,40.00,32.00,72.85,40.00,3.00,0.01,29.99,1014.00,10.00,M,SCT,BKN,M,M,2300.00,5000.00,M,M,M,M,M,M,M,M,M,37.83,KRNO 200855Z 04003KT 10SM SCT023 BKN050 04/00 A2999 RMK AO2 RAB15E40 SLP140 P0001 60001 T00440000 50005,M
RTS,2024-02-20 08:55,-119.8764,39.6682,1539.00,37.40,32.00,80.65,70.00,10.00,0.00,29.99,M,10.00,M,FEW,BKN,OVC,M,2300.00,3000.00,3500.00,M,M,M,M,M,M,M,M,29.74,KRTS 200855Z AUTO 07010KT 10SM FEW023 BKN030 OVC035 03/M00 A2999 RMK AO2,M
05U,2024-02-20 08:55,-116.0051,39.6042,1811.23,32.00,32.00,100.00,350.00,3.00,0.00,30.06,M,10.00,M,M,M,M,M,M,M,M,M,M,M,M,M,M,M,M,28.69,K05U 200855Z AUTO 35003KT 10SM 00/M00 A3006 RMK A01,M
MEV,2024-02-20 08:55,-119.7500,38.9963,1441.42,37.40,35.60,93.14,170.00,7.00,0.01,30.03,M,6.00,13.00,BKN,OVC,M,M,1100.00,1800.00,M,M,-RA BR,M,M,M,M,M,M,31.36,KMEV 200855Z AUTO 17007G13KT 6SM -RA BR BKN011 OVC018 03/02 A3003 RMK AO2 P0001,M
BAM,2024-02-20 08:55,-116.8743,40.5990,1382.36,35.60,33.80,93.08,80.00,3.00,0.00,30.02,M,10.00,M,CLR,M,M,M,M,M,M,M,M,M,M,M,M,M,M,32.80,KBAM 200855Z AUTO 08003KT 10SM CLR 02/01 A3002 RMK AO1,M
HTH,2024-02-20 08:55,-118.6315,38.5448,1282.89,46.40,17.60,31.28,200.00,22.00,0.00,29.99,M,10.00,34.00,CLR,M,M,M,M,M,M,M,M,M,M,M,M,M,M,37.86,KHTH 200855Z AUTO 20022G34KT 10SM CLR 08/M08 A2999 RMK A01,M
10U,2024-02-20 08:55,-116.1876,41.9532,1637.00,33.80,30.20,86.49,110.00,5.00,0.00,30.01,M,10.00,M,SCT,M,M,M,3700.00,M,M,M,M,M,M,M,M,M,M,28.53,K10U 200855Z AUTO 11005KT 10SM SCT037 01/M01 A3001 RMK AO2,M
TMT,2024-02-20 08:55,-117.1971,39.4643,1749.34,27.00,25.70,94.76,0.00,0.00,0.00,30.05,M,10.00,M,CLR,M,M,M,M,M,M,M,M,M,M,M,M,M,M,27.00,KTMT 200855Z AUTO 00000KT 10SM CLR M03/M03 A3005 RMK AO2 T10281035,M
EKO,2024-02-20 08:56,-115.7860,40.8242,1367.00,33.00,32.00,96.06,50.00,7.00,0.00,30.05,1018.80,1.25,M,OVC,M,M,M,100.00,M,M,M,BR,M,M,M,M,M,M,26.00,KEKO 200856Z AUTO 05007KT 1 1/4SM BR OVC001 01/00 A3005 RMK AO2 SLP188 T00060000 51009,M
WMC,2024-02-20 08:56,-117.8072,40.9019,1315.00,39.00,26.00,59.27,190.00,8.00,0.00,29.98,1014.20,10.00,M,FEW,M,M,M,7500.00,M,M,M,M,M,M,M,M,M,M,32.74,KWMC 200856Z AUTO 19008KT 10SM FEW075 04/M03 A2998 RMK AO2 SLP142 T00391033 51005 $,M
NFL,2024-02-20 08:56,-118.7010,39.4166,1199.00,37.00,25.00,61.50,260.00,8.00,0.00,29.99,1012.70,10.00,M,CLR,M,M,M,M,M,M,M,M,M,M,M,M,M,M,30.27,KNFL 200856Z AUTO 26008KT 10SM CLR 03/M04 A2999 RMK AO2 SLP127 T00281039 51005,M
HND,2024-02-20 08:56,-115.1344,35.9729,742.79,58.00,43.00,57.30,200.00,8.00,0.00,30.08,1019.20,10.00,M,OVC,M,M,M,9000.00,M,M,M,M,M,M,M,M,M,M,58.00,KHND 200856Z AUTO 20008KT 10SM OVC090 14/06 A3008 RMK AO2 SLP192 T01440061 53004,M
TPH,2024-02-20 08:56,-117.0904,38.0505,1654.00,41.00,39.00,92.52,140.00,5.00,0.00,30.06,1015.80,10.00,M,BKN,BKN,OVC,M,1400.00,3600.00,4800.00,M,M,M,M,M,M,M,M,37.08,KTPH 200856Z AUTO 14005KT 10SM BKN014 BKN036 OVC048 05/04 A3006 RMK AO2 SLP158 60000 T00500039 55000,M
LAS,2024-02-20 08:56,-115.1634,36.0719,663.00,60.00,43.00,53.34,160.00,3.00,0.00,30.05,1016.30,10.00,M,FEW,OVC,M,M,7500.00,10000.00,M,M,M,M,M,M,M,M,M,60.00,KLAS 200856Z 16003KT 10SM FEW075 OVC100 16/06 A3005 RMK AO2 SLP163 T01560061 50002,M
EKO,2024-02-20 09:02,-115.7860,40.8242,1367.00,33.00,32.00,96.06,50.00,7.00,0.00,30.05,M,3.00,M,OVC,M,M,M,100.00,M,M,M,BR,M,M,M,M,M,M,26.00,KEKO 200902Z AUTO 05007KT 3SM BR OVC001 01/00 A3005 RMK AO2 T00060000,M
TPH,2024-02-20 09:14,-117.0904,38.0505,1654.00,40.00,38.00,92.49,140.00,5.00,0.00,30.06,M,10.00,M,FEW,SCT,BKN,M,1400.00,3600.00,4700.00,M,M,M,M,M,M,M,M,35.90,KTPH 200914Z AUTO 14005KT 10SM FEW014 SCT036 BKN047 04/03 A3006 RMK AO2 T00440033,M
BVU,2024-02-20 09:15,-114.8611,35.9475,671.00,57.20,35.60,44.19,280.00,3.00,0.00,30.05,M,10.00,M,FEW,M,M,M,7000.00,M,M,M,M,M,M,M,M,M,M,57.20,KBVU 200915Z AUTO 28003KT 10SM FEW070 14/02 A3005 RMK AO2,M
CXP,2024-02-20 09:15,-119.7326,39.1923,1431.00,35.60,33.80,93.08,M,4.00,0.00,30.04,M,10.00,M,BKN,OVC,M,M,800.00,1400.00,M,M,UP,M,M,M,M,M,M,31.62,KCXP 200915Z AUTO VRB04KT 10SM UP BKN008 OVC014 02/01 A3004 RMK AO2,M
RTS,2024-02-20 09:15,-119.8764,39.6682,1539.00,37.40,30.20,74.98,160.00,7.00,0.00,30.00,M,10.00,M,OVC,M,M,M,2800.00,M,M,M,M,M,M,M,M,M,M,31.36,KRTS 200915Z AUTO 16007KT 10SM OVC028 03/M01 A3000 RMK AO2,M
05U,2024-02-20 09:15,-116.0051,39.6042,1811.23,32.00,30.20,92.97,0.00,0.00,0.00,30.06,M,10.00,M,M,M,M,M,M,M,M,M,M,M,M,M,M,M,M,32.00,K05U 200915Z AUTO 00000KT 10SM M00/M01 A3006 RMK A01,M
MEV,2024-02-20 09:15,-119.7500,38.9963,1441.42,35.60,33.80,93.08,150.00,6.00,0.00,30.03,M,9.00,M,BKN,OVC,M,M,1200.00,1700.00,M,M,UP,M,M,M,M,M,M,29.87,KMEV 200915Z AUTO 15006KT 9SM UP BKN012 OVC017 02/01 A3003 RMK AO2,M
BAM,2024-02-20 09:15,-116.8743,40.5990,1382.36,37.40,33.80,86.69,90.00,3.00,0.00,30.03,M,10.00,M,SCT,SCT,SCT,M,7000.00,8000.00,9000.00,M,M,M,M,M,M,M,M,34.86,KBAM 200915Z AUTO 09003KT 10SM SCT070 SCT080 SCT090 03/01 A3003 RMK AO1,M
HTH,2024-02-20 09:15,-118.6315,38.5448,1282.89,46.40,17.60,31.28,170.00,17.00,0.00,30.00,M,10.00,27.00,CLR,M,M,M,M,M,M,M,M,M,M,M,M,M,M,38.94,KHTH 200915Z AUTO 17017G27KT 10SM CLR 08/M08 A3000 RMK A01,M
10U,2024-02-20 09:15,-116.1876,41.9532,1637.00,33.80,28.40,80.36,M,3.00,0.00,30.01,M,10.00,M,FEW,FEW,M,M,3500.00,4100.00,M,M,M,M,M,M,M,M,M,30.75,K10U 200915Z AUTO VRB03KT 10SM FEW035 FEW041 01/M02 A3001 RMK AO2,M
TMT,2024-02-20 09:15,-117.1971,39.4643,1749.34,27.00,25.70,94.76,0.00,0.00,0.00,30.05,M,10.00,M,CLR,M,M,M,M,M,M,M,M,M,M,M,M,M,M,27.00,KTMT 200915Z AUTO 00000KT 10SM CLR M03/M03 A3005 RMK AO2 T10281035,M
EKO,2024-02-20 09:16,-115.7860,40.8242,1367.00,33.00,31.00,92.25,60.00,8.00,0.00,30.05,M,1.75,M,OVC,M,M,M,100.00,M,M,M,BR,M,M,M,M,M,M,25.34,KEKO 200916Z AUTO 06008KT 1 3/4SM BR OVC001 01/M01 A3005 RMK AO2 T00061006,M
EKO,2024-02-20 09:28,-115.7860,40.8242,1367.00,33.00,32.00,96.06,50.00,7.00,0.00,30.05,M,0.75,M,OVC,M,M,M,100.00,M,M,M,BR,M,M,M,M,M,M,26.00,KEKO 200928Z AUTO 05007KT 3/4SM BR OVC001 01/00 A3005 RMK AO2 T00060000,M
BVU,2024-02-20 09:35,-114.8611,35.9475,671.00,57.20,37.40,47.44,60.00,3.00,0.00,30.05,M,10.00,M,SCT,SCT,M,M,7000.00,9500.00,M,M,M,M,M,M,M,M,M,57.20,KBVU 200935Z AUTO 06003KT 10SM SCT070 SCT095 14/03 A3005 RMK AO2,M
CXP,2024-02-20 09:35,-119.7326,39.1923,1431.00,35.60,33.80,93.08,0.00,0.00,0.00,30.05,M,10.00,M,SCT,BKN,OVC,M,1000.00,1300.00,4500.00,M,M,M,M,M,M,M,M,35.60,KCXP 200935Z AUTO 00000KT 10SM SCT010 BKN013 OVC045 02/01 A3005 RMK AO2,M
RTS,2024-02-20 09:35,-119.8764,39.6682,1539.00,37.40,30.20,74.98,110.00,11.00,0.00,29.99,M,10.00,M,BKN,OVC,M,M,2500.00,2900.00,M,M,M,M,M,M,M,M,M,29.29,KRTS 200935Z AUTO 11011KT 10SM BKN025 OVC029 03/M01 A2999 RMK AO2,M
05U,2024-02-20 09:35,-116.0051,39.6042,1811.23,32.00,32.00,100.00,0.00,0.00,0.00,30.06,M,10.00,M,M,M,M,M,M,M,M,M,M,M,M,M,M,M,M,32.00,K05U 200935Z AUTO 00000KT 10SM 00/M00 A3006 RMK A01,M
MEV,2024-02-20 09:35,-119.7500,38.9963,1441.42,35.60,35.60,100.00,200.00,7.00,0.00,30.04,M,9.00,M,BKN,BKN,OVC,M,1200.00,1900.00,4200.00,M,UP,M,M,M,M,M,M,29.17,KMEV 200935Z AUTO 20007KT 9SM UP BKN012 BKN019 OVC042 02/02 A3004 RMK AO2,M
BAM,2024-02-20 09:35,-116.8743,40.5990,1382.36,37.40,33.80,86.69,90.00,5.00,0.00,30.02,M,10.00,M,SCT,SCT,SCT,M,7000.00,8000.00,9000.00,M,M,M,M,M,M,M,M,32.81,KBAM 200935Z AUTO 09005KT 10SM SCT070 SCT080 SCT090 03/01 A3002 RMK AO1,M
HTH,2024-02-20 09:35,-118.6315,38.5448,1282.89,44.60,19.40,36.18,80.00,19.00,0.00,29.99,M,10.00,32.00,CLR,M,M,M,M,M,M,M,M,M,M,M,M,M,M,36.10,KHTH 200935Z AUTO 08019G32KT 10SM CLR 07/M07 A2999 RMK A01,M
10U,2024-02-20 09:35,-116.1876,41.9532,1637.00,32.00,28.40,86.39,110.00,5.00,0.00,30.01,M,10.00,M,CLR,M,M,M,M,M,M,M,M,M,M,M,M,M,M,26.40,K10U 200935Z AUTO 11005KT 10SM CLR 00/M02 A3001 RMK AO2,M
TMT,2024-02-20 09:35,-117.1971,39.4643,1749.34,25.70,24.80,96.33,160.00,3.00,0.00,30.05,M,10.00,M,CLR,M,M,M,M,M,M,M,M,M,M,M,M,M,M,21.49,KTMT 200935Z AUTO 16003KT 10SM CLR M03/M04 A3005 RMK AO2 T10351040,M
TPH,2024-02-20 09:43,-117.0904,38.0505,1654.00,40.00,37.00,88.92,150.00,6.00,0.00,30.06,M,10.00,M,BKN,M,M,M,1900.00,M,M,M,M,M,M,M,M,M,M,35.17,KTPH 200943Z AUTO 15006KT 10SM BKN019 04/03 A3006 RMK AO2 T00440028,M
10U,2024-02-20 09:50,-116.1876,41.9532,1637.00,33.80,28.40,80.36,120.00,5.00,0.00,30.01,M,10.00,M,CLR,M,M,M,M,M,M,M,M,M,M,M,M,M,M,28.53,K10U 200950Z AUTO 12005KT 10SM CLR 01/M02 A3001 RMK AO2,M
P68,2024-02-20 09:53,-116.0056,39.6014,1993.00,33.00,32.00,96.06,M,4.00,0.00,30.03,1016.20,M,M,M,M,M,M,M,M,M,M,M,M,M,M,M,M,M,28.59,KP68 200953Z AUTO VRB04KT 01/00 A3003 RMK AO1 SLP162 T00060000,M
DRA,2024-02-20 09:53,-116.0278,36.6206,1009.00,55.00,41.00,59.13,210.00,14.00,T,30.06,1015.30,10.00,25.00,BKN,BKN,OVC,M,6000.00,7500.00,9000.00,M,M,M,M,M,M,M,M,55.00,KDRA 200953Z AUTO 21014G25KT 10SM BKN060 BKN075 OVC090 13/05 A3006 RMK AO2 RAB22E53 SLP153 P0000 T01280050,M
ELY,2024-02-20 09:53,-114.8453,39.2950,1909.00,39.00,31.00,72.75,210.00,9.00,0.00,30.07,1015.80,10.00,M,OVC,M,M,M,4100.00,M,M,M,M,M,M,M,M,M,M,32.22,KELY 200953Z AUTO 21009KT 10SM OVC041 04/M01 A3007 RMK AO2 SLP158 T00391006,M
VGT,2024-02-20 09:53,-115.1933,36.2111,667.00,61.00,44.00,53.49,200.00,6.00,0.00,30.04,1017.60,10.00,M,FEW,M,M,M,10000.00,M,M,M,M,M,M,M,M,M,M,61.00,KVGT 200953Z AUTO 20006KT 10SM FEW100 16/07 A3004 RMK AO2 SLP176 T01610067,M
LOL,2024-02-20 09:53,-118.5701,40.0684,1192.43,31.00,27.00,84.92,100.00,4.00,0.00,30.00,1016.00,10.00,M,FEW,M,M,M,8500.00,M,M,M,M,M,M,M,M,M,M,26.25,KLOL 200953Z AUTO 10004KT 10SM FEW085 M01/M03 A3000 RMK AO2 SLP160 T10061028,M
INS,2024-02-20 09:55,-115.6733,36.5872,955.00,56.00,40.00,54.85,30.00,6.00,0.00,30.05,1015.00,10.00,M,OVC,M,M,M,8000.00,M,M,M,M,M,M,M,M,M,M,56.00,KINS 200955Z AUTO 03006KT 10SM OVC080 13/05 A3005 RMK AO2 SLP150 T01340045,M
LSV,2024-02-20 09:55,-115.0343,36.2362,570.00,60.80,42.00,49.89,300.00,4.00,0.00,30.01,1014.90,10.00,M,SCT,BKN,M,M,7000.00,17000.00,M,M,M,M,M,M,M,M,M,60.80,KLSV 200955Z AUTO 30004KT 10SM SCT070 BKN170 16/06 A3001 RMK AO2 SLP149 T01600056 $,M
BVU,2024-02-20 09:55,-114.8611,35.9475,671.00,57.20,37.40,47.44,0.00,0.00,0.00,30.06,M,10.00,M,FEW,BKN,M,M,7500.00,9000.00,M,M,M,M,M,M,M,M,M,57.20,KBVU 200955Z AUTO 00000KT 10SM FEW075 BKN090 14/03 A3006 RMK AO2,M
CXP,2024-02-20 09:55,-119.7326,39.1923,1431.00,35.60,33.80,93.08,0.00,0.00,0.00,30.04,M,10.00,10.00,SCT,SCT,BKN,M,1300.00,2900.00,12000.00,M,UP,M,M,M,M,M,M,35.60,KCXP 200955Z AUTO 00000G10KT 10SM UP SCT013 SCT029 BKN120 02/01 A3004 RMK AO2,M
RNO,2024-02-20 09:55,-119.7711,39.4839,1341.00,40.00,32.00,72.85,140.00,5.00,0.00,29.99,1014.10,10.00,M,SCT,SCT,M,M,2500.00,5000.00,M,M,M,M,M,M,M,M,M,35.90,KRNO 200955Z 14005KT 10SM SCT025 SCT050 04/00 A2999 RMK AO2 SLP141 T00440000,M
RTS,2024-02-20 09:55,-119.8764,39.6682,1539.00,37.40,30.20,74.98,120.00,6.00,0.00,29.99,M,10.00,12.00,FEW,OVC,M,M,2400.00,3000.00,M,M,M,M,M,M,M,M,M,32.03,KRTS 200955Z AUTO 12006G12KT 10SM FEW024 OVC030 03/M01 A2999 RMK AO2,M
05U,2024-02-20 09:55,-116.0051,39.6042,1811.23,33.80,32.00,93.03,0.00,0.00,0.00,30.06,M,10.00,M,M,M,M,M,M,M,M,M,M,M,M,M,M,M,M,33.80,K05U 200955Z AUTO 00000KT 10SM 01/00 A3006 RMK A01,M
MEV,2024-02-20 09:55,-119.7500,38.9963,1441.42,35.60,33.80,93.08,170.00,9.00,0.03,30.03,M,5.00,15.00,BKN,BKN,OVC,M,1000.00,1500.00,2200.00,M,UP BR,M,M,M,M,M,M,27.99,KMEV 200955Z AUTO 17009G15KT 5SM UP BR BKN010 BKN015 OVC022 02/01 A3003 RMK AO2 P0003,M
BAM,2024-02-20 09:55,-116.8743,40.5990,1382.36,37.40,33.80,86.69,70.00,6.00,0.00,30.03,M,10.00,M,CLR,M,M,M,M,M,M,M,M,M,M,M,M,M,M,32.03,KBAM 200955Z AUTO 07006KT 10SM CLR 03/01 A3003 RMK AO1,M
HTH,2024-02-20 09:55,-118.6315,38.5448,1282.89,44.60,17.60,33.49,160.00,15.00,0.00,30.00,M,10.00,25.00,CLR,M,M,M,M,M,M,M,M,M,M,M,M,M,M,37.11,KHTH 200955Z AUTO 16015G25KT 10SM CLR 07/M08 A3000 RMK A01,M
TMT,2024-02-20 09:55,-117.1971,39.4643,1749.34,28.20,26.80,94.40,0.00,0.00,0.00,30.04,M,10.00,M,CLR,M,M,M,M,M,M,M,M,M,M,M,M,M,M,28.20,KTMT 200955Z AUTO 00000KT 10SM CLR M02/M03 A3004 RMK AO2 T10211029,M
EKO,2024-02-20 09:56,-115.7860,40.8242,1367.00,33.00,32.00,96.06,70.00,6.00,T,30.05,1018.30,0.75,M,OVC,M,M,M,100.00,M,M,M,BR,M,M,M,M,M,M,26.73,KEKO 200956Z AUTO 07006KT 3/4SM BR OVC001 01/00 A3005 RMK AO2 SNB34E45 SLP183 P0000 T00060000,M
WMC,2024-02-20 09:56,-117.8072,40.9019,1315.00,39.00,26.00,59.27,190.00,8.00,0.00,29.99,1014.40,10.00,M,FEW,M,M,M,7500.00,M,M,M,M,M,M,M,M,M,M,32.74,KWMC 200956Z AUTO 19008KT 10SM FEW075 04/M03 A2999 RMK AO2 SLP144 T00391033 $,M
NFL,2024-02-20 09:56,-118.7010,39.4166,1199.00,38.00,26.00,61.64,300.00,7.00,0.00,29.99,1012.80,10.00,M,CLR,M,M,M,M,M,M,M,M,M,M,M,M,M,M,32.09,KNFL 200956Z AUTO 30007KT 10SM CLR 03/M03 A2999 RMK AO2 SLP128 T00331033,M
HND,2024-02-20 09:56,-115.1344,35.9729,742.79,56.00,43.00,61.59,210.00,6.00,0.00,30.07,1018.80,10.00,M,FEW,M,M,M,10000.00,M,M,M,M,M,M,M,M,M,M,56.00,KHND 200956Z AUTO 21006KT 10SM FEW100 13/06 A3007 RMK AO2 SLP188 T01330061,M
TPH,2024-02-20 09:56,-117.0904,38.0505,1654.00,40.00,37.00,88.92,180.00,4.00,0.00,30.05,1016.10,10.00,M,BKN,OVC,M,M,1900.00,2400.00,M,M,M,M,M,M,M,M,M,36.76,KTPH 200956Z AUTO 18004KT 10SM BKN019 OVC024 04/03 A3005 RMK AO2 SLP161 T00440028,M
LAS,2024-02-20 09:56,-115.1634,36.0719,663.00,58.00,44.00,59.54,190.00,3.00,0.00,30.04,1016.10,10.00,M,BKN,OVC,M,M,10000.00,18000.00,M,M,M,M,M,M,M,M,M,58.00,KLAS 200956Z 19003KT 10SM BKN100 OVC180 14/07 A3004 RMK AO2 SLP161 T01440067,M
EKO,2024-02-20 10:03,-115.7860,40.8242,1367.00,33.00,32.00,96.06,60.00,6.00,0.00,30.04,M,2.00,M,OVC,M,M,M,100.00,M,M,M,BR,M,M,M,M,M,M,26.73,KEKO 201003Z AUTO 06006KT 2SM BR OVC001 01/00 A3004 RMK AO2 T00060000,M
05U,2024-02-20 10:10,-116.0051,39.6042,1811.23,32.00,32.00,100.00,0.00,0.00,0.00,30.06,M,10.00,M,M,M,M,M,M,M,M,M,M,M,M,M,M,M,M,32.00,K05U 201010Z AUTO 00000KT 10SM 00/M00 A3006 RMK A01,M
EKO,2024-02-20 10:11,-115.7860,40.8242,1367.00,33.00,32.00,96.06,70.00,5.00,0.00,30.04,M,9.00,M,OVC,M,M,M,100.00,M,M,M,M,M,M,M,M,M,M,27.58,KEKO 201011Z AUTO 07005KT 9SM OVC001 01/00 A3004 RMK AO2 T00060000,M
BVU,2024-02-20 10:15,-114.8611,35.9475,671.00,57.20,37.40,47.44,0.00,0.00,0.00,30.05,M,10.00,M,FEW,M,M,M,8000.00,M,M,M,M,M,M,M,M,M,M,57.20,KBVU 201015Z AUTO 00000KT 10SM FEW080 14/03 A3005 RMK AO2,M
CXP,2024-02-20 10:15,-119.7326,39.1923,1431.00,35.60,35.60,100.00,0.00,0.00,0.00,30.04,M,10.00,M,BKN,BKN,BKN,M,900.00,4700.00,8000.00,M,M,M,M,M,M,M,M,35.60,KCXP 201015Z AUTO 00000KT 10SM BKN009 BKN047 BKN080 02/02 A3004 RMK AO2,M
RTS,2024-02-20 10:15,-119.8764,39.6682,1539.00,37.40,28.40,69.67,70.00,5.00,0.00,29.99,M,10.00,M,FEW,OVC,M,M,2900.00,3800.00,M,M,M,M,M,M,M,M,M,32.81,KRTS 201015Z AUTO 07005KT 10SM FEW029 OVC038 03/M02 A2999 RMK AO2,M
MEV,2024-02-20 10:15,-119.7500,38.9963,1441.42,35.60,33.80,93.08,160.00,10.00,0.00,30.03,M,10.00,M,SCT,BKN,OVC,M,1100.00,4700.00,6500.00,M,M,M,M,M,M,M,M,27.48,KMEV 201015Z AUTO 16010KT 10SM SCT011 BKN047 OVC065 02/01 A3003 RMK AO2,M
BAM,2024-02-20 10:15,-116.8743,40.5990,1382.36,35.60,33.80,93.08,50.00,4.00,0.00,30.02,M,10.00,M,CLR,M,M,M,M,M,M,M,M,M,M,M,M,M,M,31.62,KBAM 201015Z AUTO 05004KT 10SM CLR 02/01 A3002 RMK AO1,M
HTH,2024-02-20 10:15,-118.6315,38.5448,1282.89,44.60,17.60,33.49,140.00,17.00,0.00,30.00,M,10.00,23.00,CLR,M,M,M,M,M,M,M,M,M,M,M,M,M,M,36.58,KHTH 201015Z AUTO 14017G23KT 10SM CLR 07/M08 A3000 RMK A01,M
10U,2024-02-20 10:15,-116.1876,41.9532,1637.00,33.80,30.20,86.49,120.00,7.00,0.00,30.01,M,10.00,M,CLR,M,M,M,M,M,M,M,M,M,M,M,M,M,M,26.97,K10U 201015Z AUTO 12007KT 10SM CLR 01/M01 A3001 RMK AO2,M
TMT,2024-02-20 10:15,-117.1971,39.4643,1749.34,28.00,26.40,93.62,310.00,4.00,0.00,30.04,M,10.00,M,CLR,M,M,M,M,M,M,M,M,M,M,M,M,M,M,22.75,KTMT 201015Z AUTO 31004KT 10SM CLR M02/M03 A3004 RMK AO2 T10231031,M
EKO,2024-02-20 10:23,-115.7860,40.8242,1367.00,33.00,32.00,96.06,70.00,6.00,0.00,30.04,M,1.75,M,OVC,M,M,M,100.00,M,M,M,BR,M,M,M,M,M,M,26.73,KEKO 201023Z AUTO 07006KT 1 3/4SM BR OVC001 01/00 A3004 RMK AO2 T00060000,M
BVU,2024-02-20 10:35,-114.8611,35.9475,671.00,59.00,37.40,44.47,0.00,0.00,0.00,30.04,M,10.00,M,CLR,M,M,M,M,M,M,M,M,M,M,M,M,M,M,59.00,KBVU 201035Z AUTO 00000KT 10SM CLR 15/03 A3004 RMK AO2,M
CXP,2024-02-20 10:35,-119.7326,39.1923,1431.00,35.60,35.60,100.00,M,4.00,0.00,30.04,M,10.00,M,BKN,OVC,M,M,800.00,1200.00,M,M,M,M,M,M,M,M,M,31.62,KCXP 201035Z AUTO VRB04KT 10SM BKN008 OVC012 02/02 A3004 RMK AO2,M
RTS,2024-02-20 10:35,-119.8764,39.6682,1539.00,37.40,26.60,64.70,80.00,3.00,0.00,29.99,M,10.00,M,OVC,M,M,M,3900.00,M,M,M,M,M,M,M,M,M,M,34.86,KRTS 201035Z AUTO 08003KT 10SM OVC039 03/M03 A2999 RMK AO2,M
05U,2024-02-20 10:35,-116.0051,39.6042,1811.23,32.00,32.00,100.00,0.00,0.00,0.00,30.06,M,10.00,M,M,M,M,M,M,M,M,M,M,M,M,M,M,M,M,32.00,K05U 201035Z AUTO 00000KT 10SM 00/M00 A3006 RMK A01,M
MEV,2024-02-20 10:35,-119.7500,38.9963,1441.42,35.60,33.80,93.08,180.00,12.00,0.00,30.04,M,7.00,20.00,BKN,BKN,OVC,M,800.00,1600.00,6000.00,M,-RA,M,M,M,M,M,M,26.58,KMEV 201035Z AUTO 18012G20KT 7SM -RA BKN008 BKN016 OVC060 02/01 A3004 RMK AO2,M
BAM,2024-02-20 10:35,-116.8743,40.5990,1382.36,35.60,33.80,93.08,70.00,6.00,0.00,30.02,M,10.00,M,CLR,M,M,M,M,M,M,M,M,M,M,M,M,M,M,29.87,KBAM 201035Z AUTO 07006KT 10SM CLR 02/01 A3002 RMK AO1,M
HTH,2024-02-20 10:35,-118.6315,38.5448,1282.89,44.60,17.60,33.49,120.00,16.00,0.00,30.00,M,10.00,23.00,CLR,M,M,M,M,M,M,M,M,M,M,M,M,M,M,36.84,KHTH 201035Z AUTO 12016G23KT 10SM CLR 07/M08 A3000 RMK A01,M
10U,2024-02-20 10:35,-116.1876,41.9532,1637.00,33.80,30.20,86.49,130.00,7.00,0.00,30.01,M,10.00,M,CLR,M,M,M,M,M,M,M,M,M,M,M,M,M,M,26.97,K10U 201035Z AUTO 13007KT 10SM CLR 01/M01 A3001 RMK AO2,M
TMT,2024-02-20 10:35,-117.1971,39.4643,1749.34,28.80,27.00,92.87,0.00,0.00,0.00,30.04,M,10.00,M,CLR,M,M,M,M,M,M,M,M,M,M,M,M,M,M,28.80,KTMT 201035Z AUTO 00000KT 10SM CLR M02/M03 A3004 RMK AO2 T10181028,M
INS,2024-02-20 10:39,-115.6733,36.5872,955.00,55.40,41.00,58.27,10.00,5.00,0.00,30.06,1015.30,10.00,M,FEW,SCT,BKN,OVC,4600.00,6000.00,7500.00,9000.00,-RA,M,M,M,M,M,M,55.40,KINS 201039Z AUTO 01005KT 10SM -RA FEW046 SCT060 BKN075 OVC090 13/05 A3006 RMK AO2 RAB39 SLP153,M
P68,2024-02-20 10:53,-116.0056,39.6014,1993.00,35.00,32.00,88.68,0.00,0.00,0.00,30.03,1016.40,M,M,M,M,M,M,M,M,M,M,M,M,M,M,M,M,M,35.00,KP68 201053Z AUTO 00000KT 02/00 A3003 RMK AO1 SLP164 T00170000,M
DRA,2024-02-20 10:53,-116.0278,36.6206,1009.00,53.00,42.00,66.12,200.00,8.00,T,30.04,1014.70,10.00,M,FEW,M,M,M,10000.00,M,M,M,M,M,M,M,M,M,M,53.00,KDRA 201053Z AUTO 20008KT 10SM FEW100 12/06 A3004 RMK AO2 RAB08E21 SLP147 P0000 T01170056,M
ELY,2024-02-20 10:53,-114.8453,39.2950,1909.00,40.00,31.00,69.97,180.00,9.00,0.00,30.06,1015.30,10.00,18.00,OVC,M,M,M,4200.00,M,M,M,M,M,M,M,M,M,M,33.46,KELY 201053Z AUTO 18009G18KT 10SM OVC042 04/M01 A3006 RMK AO2 SLP153 T00441006,M
VGT,2024-02-20 10:53,-115.1933,36.2111,667.00,60.00,44.00,55.42,180.00,7.00,0.00,30.03,1017.40,10.00,M,SCT,BKN,M,M,10000.00,12000.00,M,M,M,M,M,M,M,M,M,60.00,KVGT 201053Z AUTO 18007KT 10SM SCT100 BKN120 16/07 A3003 RMK AO2 SLP174 T01560067,M
LOL,2024-02-20 10:53,-118.5701,40.0684,1192.43,29.00,26.00,88.38,0.00,0.00,0.00,29.99,1015.90,10.00,M,CLR,M,M,M,M,M,M,M,M,M,M,M,M,M,M,29.00,KLOL 201053Z AUTO 00000KT 10SM CLR M02/M03 A2999 RMK AO2 SLP159 T10171033,M
EKO,2024-02-20 10:54,-115.7860,40.8242,1367.00,32.00,30.20,92.97,80.00,6.03,M,30.04,M,0.75,M,VV ,M,M,M,98.00,M,M,M,BR,M,M,M,M,M,M,25.51,SPECI KEKO 201054Z 08006KT 3/4SM BR VV001 00/M01 A3004 RMK AO2 FIBI,M
10U,2024-02-20 10:55,-116.1876,41.9532,1637.00,33.80,28.40,80.36,150.00,7.00,0.00,30.01,M,10.00,M,CLR,M,M,M,M,M,M,M,M,M,M,M,M,M,M,26.97,K10U 201055Z AUTO 15007KT 10SM CLR 01/M02 A3001 RMK AO2,M
INS,2024-02-20 10:55,-115.6733,36.5872,955.00,55.20,42.40,61.96,10.00,3.00,T,30.05,1015.00,10.00,M,FEW,OVC,M,M,2900.00,6500.00,M,M,-RA,M,M,M,M,M,M,55.20,KINS 201055Z AUTO 01003KT 10SM -RA FEW029 OVC065 13/06 A3005 RMK AO2 RAB39 SLP150 P0000 T01290058,M
LSV,2024-02-20 10:55,-115.0343,36.2362,570.00,59.50,38.70,45.97,30.00,4.00,0.00,30.01,1015.00,10.00,M,FEW,M,M,M,6500.00,M,M,M,M,M,M,M,M,M,M,59.50,KLSV 201055Z AUTO 03004KT 10SM FEW065 15/04 A3001 RMK AO2 SLP150 T01530037 $,M
BVU,2024-02-20 10:55,-114.8611,35.9475,671.00,59.00,37.40,44.47,0.00,0.00,0.00,30.05,M,10.00,M,CLR,M,M,M,M,M,M,M,M,M,M,M,M,M,M,59.00,KBVU 201055Z AUTO 00000KT 10SM CLR 15/03 A3005 RMK AO2,M
CXP,2024-02-20 10:55,-119.7326,39.1923,1431.00,35.60,33.80,93.08,0.00,0.00,0.00,30.04,M,10.00,M,FEW,BKN,OVC,M,900.00,1500.00,9500.00,M,M,M,M,M,M,M,M,35.60,KCXP 201055Z AUTO 00000KT 10SM FEW009 BKN015 OVC095 02/01 A3004 RMK AO2,M
RNO,2024-02-20 10:55,-119.7711,39.4839,1341.00,40.00,30.00,67.18,140.00,6.00,0.00,29.97,1013.50,10.00,18.00,FEW,SCT,M,M,2500.00,5000.00,M,M,M,M,M,M,M,M,M,35.17,KRNO 201055Z 14006G18KT 10SM FEW025 SCT050 04/M01 A2997 RMK AO2 SLP135 T00441011,M
RTS,2024-02-20 10:55,-119.8764,39.6682,1539.00,39.20,26.60,60.29,40.00,6.00,0.00,29.98,M,10.00,15.00,BKN,OVC,M,M,3800.00,4500.00,M,M,M,M,M,M,M,M,M,34.20,KRTS 201055Z AUTO 04006G15KT 10SM BKN038 OVC045 04/M03 A2998 RMK AO2,M
05U,2024-02-20 10:55,-116.0051,39.6042,1811.23,33.80,32.00,93.03,0.00,0.00,0.00,30.05,M,10.00,M,M,M,M,M,M,M,M,M,M,M,M,M,M,M,M,33.80,K05U 201055Z AUTO 00000KT 10SM 01/00 A3005 RMK A01,M
MEV,2024-02-20 10:55,-119.7500,38.9963,1441.42,33.80,33.80,100.00,170.00,6.00,0.02,30.04,M,7.00,M,SCT,BKN,OVC,M,700.00,1000.00,3100.00,M,UP,M,M,M,M,M,M,27.70,KMEV 201055Z AUTO 17006KT 7SM UP SCT007 BKN010 OVC031 01/01 A3004 RMK AO2 P0002,M
BAM,2024-02-20 10:55,-116.8743,40.5990,1382.36,35.60,33.80,93.08,90.00,4.00,0.00,30.02,M,10.00,M,CLR,M,M,M,M,M,M,M,M,M,M,M,M,M,M,31.62,KBAM 201055Z AUTO 09004KT 10SM CLR 02/01 A3002 RMK AO1,M
HTH,2024-02-20 10:55,-118.6315,38.5448,1282.89,42.80,19.40,38.75,170.00,9.00,0.00,30.00,M,10.00,22.00,CLR,M,M,M,M,M,M,M,M,M,M,M,M,M,M,36.94,KHTH 201055Z AUTO 17009G22KT 10SM CLR 06/M07 A3000 RMK A01,M
TMT,2024-02-20 10:55,-117.1971,39.4643,1749.34,26.80,26.00,96.74,0.00,0.00,0.00,30.03,M,10.00,M,CLR,M,M,M,M,M,M,M,M,M,M,M,M,M,M,26.80,KTMT 201055Z AUTO 00000KT 10SM CLR M03/M03 A3003 RMK AO2 T10291034,M
EKO,2024-02-20 10:56,-115.7860,40.8242,1367.00,32.00,31.00,96.04,80.00,6.00,0.00,30.04,1017.80,0.50,M,VV ,M,M,M,100.00,M,M,M,FG,M,M,M,M,M,M,25.53,KEKO 201056Z AUTO 08006KT 1/2SM FG VV001 00/M01 A3004 RMK AO2 SLP178 T00001006,M
WMC,2024-02-20 10:56,-117.8072,40.9019,1315.00,37.00,26.00,64.11,190.00,9.00,0.00,29.99,1014.40,10.00,M,CLR,M,M,M,M,M,M,M,M,M,M,M,M,M,M,29.73,KWMC 201056Z AUTO 19009KT 10SM CLR 03/M03 A2999 RMK AO2 SLP144 T00281033 $,M
NFL,2024-02-20 10:56,-118.7010,39.4166,1199.00,33.00,25.00,72.11,40.00,6.00,0.00,30.00,1013.00,10.00,M,CLR,M,M,M,M,M,M,M,M,M,M,M,M,M,M,26.73,KNFL 201056Z AUTO 04006KT 10SM CLR 01/M04 A3000 RMK AO2 SLP130 T00061039,M
HND,2024-02-20 10:56,-115.1344,35.9729,742.79,57.00,43.00,59.40,210.00,6.00,0.00,30.07,1018.70,10.00,M,CLR,M,M,M,M,M,M,M,M,M,M,M,M,M,M,57.00,KHND 201056Z AUTO 21006KT 10SM CLR 14/06 A3007 RMK AO2 SLP187 T01390061,M
TPH,2024-02-20 10:56,-117.0904,38.0505,1654.00,40.00,37.00,88.92,140.00,6.00,0.00,30.05,1015.90,10.00,M,BKN,OVC,M,M,1600.00,4100.00,M,M,M,M,M,M,M,M,M,35.17,KTPH 201056Z AUTO 14006KT 10SM BKN016 OVC041 04/03 A3005 RMK AO2 SLP159 T00440028,M
LAS,2024-02-20 10:56,-115.1634,36.0719,663.00,58.00,43.00,57.30,180.00,3.00,0.00,30.04,1016.10,10.00,M,SCT,OVC,M,M,12000.00,15000.00,M,M,M,M,M,M,M,M,M,58.00,KLAS 201056Z 18003KT 10SM SCT120 OVC150 14/06 A3004 RMK AO2 SLP161 T01440061,M
INS,2024-02-20 11:13,-115.6733,36.5872,955.00,53.60,44.60,71.45,20.00,4.00,0.00,30.04,1014.60,10.00,M,FEW,SCT,OVC,M,1300.00,5500.00,9000.00,M,M,M,M,M,M,M,M,53.60,KINS 201113Z AUTO 02004KT 10SM FEW013 SCT055 OVC090 12/07 A3004 RMK AO2 RAE13 SLP146,M
BVU,2024-02-20 11:15,-114.8611,35.9475,671.00,59.00,37.40,44.47,0.00,0.00,0.00,30.05,M,10.00,M,FEW,SCT,BKN,M,7500.00,8000.00,11000.00,M,M,M,M,M,M,M,M,59.00,KBVU 201115Z AUTO 00000KT 10SM FEW075 SCT080 BKN110 15/03 A3005 RMK AO2,M
CXP,2024-02-20 11:15,-119.7326,39.1923,1431.00,35.60,33.80,93.08,200.00,10.00,0.00,30.05,M,10.00,17.00,SCT,BKN,OVC,M,1200.00,3300.00,4000.00,M,UP,M,M,M,M,M,M,27.48,KCXP 201115Z AUTO 20010G17KT 10SM UP SCT012 BKN033 OVC040 02/01 A3005 RMK AO2,M
RTS,2024-02-20 11:15,-119.8764,39.6682,1539.00,37.40,26.60,64.70,M,5.00,0.00,29.99,M,10.00,M,BKN,OVC,M,M,4100.00,4700.00,M,M,M,M,M,M,M,M,M,32.81,KRTS 201115Z AUTO VRB05KT 10SM BKN041 OVC047 03/M03 A2999 RMK AO2,M
05U,2024-02-20 11:15,-116.0051,39.6042,1811.23,32.00,30.20,92.97,0.00,0.00,0.00,30.05,M,10.00,M,M,M,M,M,M,M,M,M,M,M,M,M,M,M,M,32.00,K05U 201115Z AUTO 00000KT 10SM M00/M01 A3005 RMK A01,M
MEV,2024-02-20 11:15,-119.7500,38.9963,1441.42,33.80,33.80,100.00,0.00,0.00,0.00,30.04,M,10.00,M,SCT,BKN,OVC,M,1100.00,3000.00,3700.00,M,UP,M,M,M,M,M,M,33.80,KMEV 201115Z AUTO 00000KT 10SM UP SCT011 BKN030 OVC037 01/01 A3004 RMK AO2,M
BAM,2024-02-20 11:15,-116.8743,40.5990,1382.36,35.60,33.80,93.08,60.00,7.00,0.00,30.03,M,10.00,M,CLR,M,M,M,M,M,M,M,M,M,M,M,M,M,M,29.17,KBAM 201115Z AUTO 06007KT 10SM CLR 02/01 A3003 RMK AO1,M
HTH,2024-02-20 11:15,-118.6315,38.5448,1282.89,44.60,17.60,33.49,150.00,12.00,0.00,30.00,M,10.00,23.00,CLR,M,M,M,M,M,M,M,M,M,M,M,M,M,M,38.04,KHTH 201115Z AUTO 15012G23KT 10SM CLR 07/M08 A3000 RMK A01,M
10U,2024-02-20 11:15,-116.1876,41.9532,1637.00,33.80,26.60,74.63,150.00,4.00,0.00,30.01,M,10.00,M,CLR,M,M,M,M,M,M,M,M,M,M,M,M,M,M,29.52,K10U 201115Z AUTO 15004KT 10SM CLR 01/M03 A3001 RMK AO2,M
TMT,2024-02-20 11:15,-117.1971,39.4643,1749.34,24.80,23.50,94.71,0.00,0.00,0.00,30.04,M,10.00,M,CLR,M,M,M,M,M,M,M,M,M,M,M,M,M,M,24.80,KTMT 201115Z AUTO 00000KT 10SM CLR M04/M05 A3004 RMK AO2 T10401047,M
EKO,2024-02-20 11:28,-115.7860,40.8242,1367.00,32.00,31.00,96.04,60.00,5.00,0.00,30.04,M,0.25,M,VV ,M,M,M,100.00,M,M,M,FG,0.01,M,M,M,M,M,26.40,KEKO 201128Z AUTO 06005KT 1/4SM FG VV001 00/M01 A3004 RMK AO2 I1001 T00001006,M
10U,2024-02-20 11:30,-116.1876,41.9532,1637.00,32.00,26.60,80.22,160.00,4.00,0.00,30.02,M,10.00,M,CLR,M,M,M,M,M,M,M,M,M,M,M,M,M,M,27.42,K10U 201130Z AUTO 16004KT 10SM CLR M00/M03 A3002 RMK AO2,M
BVU,2024-02-20 11:35,-114.8611,35.9475,671.00,59.00,37.40,44.47,0.00,0.00,0.00,30.05,M,10.00,M,FEW,SCT,OVC,M,4100.00,8000.00,10000.00,M,M,M,M,M,M,M,M,59.00,KBVU 201135Z AUTO 00000KT 10SM FEW041 SCT080 OVC100 15/03 A3005 RMK AO2,M
CXP,2024-02-20 11:35,-119.7326,39.1923,1431.00,35.60,33.80,93.08,220.00,5.00,0.00,30.04,M,9.00,M,FEW,BKN,OVC,M,2200.00,2900.00,6500.00,M,UP,M,M,M,M,M,M,30.67,KCXP 201135Z AUTO 22005KT 9SM UP FEW022 BKN029 OVC065 02/01 A3004 RMK AO2,M
RTS,2024-02-20 11:35,-119.8764,39.6682,1539.00,37.40,24.80,60.04,30.00,8.00,0.00,29.99,M,10.00,13.00,SCT,OVC,M,M,4200.00,4800.00,M,M,M,M,M,M,M,M,M,30.76,KRTS 201135Z AUTO 03008G13KT 10SM SCT042 OVC048 03/M04 A2999 RMK AO2,M
05U,2024-02-20 11:35,-116.0051,39.6042,1811.23,30.20,30.20,100.00,0.00,0.00,0.00,30.06,M,10.00,M,M,M,M,M,M,M,M,M,M,M,M,M,M,M,M,30.20,K05U 201135Z AUTO 00000KT 10SM M01/M01 A3006 RMK A01,M
MEV,2024-02-20 11:35,-119.7500,38.9963,1441.42,33.80,32.00,93.03,80.00,8.00,0.00,30.02,M,10.00,M,FEW,SCT,BKN,M,1100.00,4300.00,6000.00,M,M,M,M,M,M,M,M,26.33,KMEV 201135Z AUTO 08008KT 10SM FEW011 SCT043 BKN060 01/00 A3002 RMK AO2,M
BAM,2024-02-20 11:35,-116.8743,40.5990,1382.36,35.60,33.80,93.08,80.00,4.00,0.00,30.03,M,10.00,M,CLR,M,M,M,M,M,M,M,M,M,M,M,M,M,M,31.62,KBAM 201135Z AUTO 08004KT 10SM CLR 02/01 A3003 RMK AO1,M
HTH,2024-02-20 11:35,-118.6315,38.5448,1282.89,42.80,19.40,38.75,90.00,20.00,0.00,30.00,M,10.00,30.00,CLR,M,M,M,M,M,M,M,M,M,M,M,M,M,M,33.48,KHTH 201135Z AUTO 09020G30KT 10SM CLR 06/M07 A3000 RMK A01,M
TMT,2024-02-20 11:35,-117.1971,39.4643,1749.34,24.80,23.50,94.71,0.00,0.00,0.00,30.05,M,10.00,M,CLR,M,M,M,M,M,M,M,M,M,M,M,M,M,M,24.80,KTMT 201135Z AUTO 00000KT 10SM CLR M04/M05 A3005 RMK AO2 T10401047,M
EKO,2024-02-20 11:41,-115.7860,40.8242,1367.00,32.00,31.00,96.04,80.00,7.00,0.00,30.05,M,0.50,M,VV ,M,M,M,100.00,M,M,M,FG,0.01,M,M,M,M,M,24.78,KEKO 201141Z AUTO 08007KT 1/2SM FG VV001 00/M01 A3005 RMK AO2 I1001 T00001006,M
LSV,2024-02-20 11:42,-115.0343,36.2362,570.00,59.00,39.20,47.72,0.00,0.00,0.00,30.01,1015.00,10.00,M,SCT,M,M,M,6000.00,M,M,M,-DZ,M,M,M,M,M,M,59.00,KLSV 201142Z AUTO 00000KT 10SM -DZ SCT060 15/04 A3001 RMK AO2 DZB42 SLP150 $,M
TPH,2024-02-20 11:42,-117.0904,38.0505,1654.00,39.00,37.00,92.45,130.00,8.00,0.00,30.04,M,10.00,M,FEW,OVC,M,M,1700.00,4200.00,M,M,M,M,M,M,M,M,M,32.74,KTPH 201142Z AUTO 13008KT 10SM FEW017 OVC042 04/03 A3004 RMK AO2 T00390028,M
EKO,2024-02-20 11:49,-115.7860,40.8242,1367.00,32.00,31.00,96.04,80.00,6.00,0.00,30.05,M,2.50,M,BKN,OVC,M,M,100.00,1200.00,M,M,BR,0.01,M,M,M,M,M,25.53,KEKO 201149Z AUTO 08006KT 2 1/2SM BR BKN001 OVC012 00/M01 A3005 RMK AO2 I1001 T00001006,M
EKO,2024-02-20 11:52,-115.7860,40.8242,1367.00,32.00,30.20,92.97,80.00,6.00,0.00,30.05,M,6.00,M,SCT,OVC,M,M,100.00,1200.00,M,M,BR,0.01,M,M,M,M,M,25.53,KEKO 201152Z AUTO 08006KT 6SM BR SCT001 OVC012 00/M01 A3005 RMK AO2 I1001,M
P68,2024-02-20 11:53,-116.0056,39.6014,1993.00,31.00,30.00,96.02,360.00,3.00,0.00,30.03,1016.60,M,M,M,M,M,M,M,M,M,M,M,M,M,M,M,M,M,27.55,KP68 201153Z AUTO 36003KT M01/M01 A3003 RMK AO1 SLP166 70031 T10061011 10022 21011 55002,M
DRA,2024-02-20 11:53,-116.0278,36.6206,1009.00,52.00,42.00,68.59,200.00,5.00,0.00,30.02,1014.20,10.00,M,SCT,M,M,M,12000.00,M,M,M,M,M,M,M,M,M,M,52.00,KDRA 201153Z AUTO 20005KT 10SM SCT120 11/06 A3002 RMK AO2 SLP142 60000 T01110056 10144 20111 58007,M
ELY,2024-02-20 11:53,-114.8453,39.2950,1909.00,38.00,30.00,72.64,190.00,7.00,0.00,30.06,1015.70,10.00,M,BKN,OVC,M,M,4200.00,5000.00,M,M,M,M,M,M,M,M,M,32.09,KELY 201153Z AUTO 19007KT 10SM BKN042 OVC050 03/M01 A3006 RMK AO2 SLP157 60000 70001 T00331011 10050 20033 58004,M
VGT,2024-02-20 11:53,-115.1933,36.2111,667.00,60.00,46.00,59.80,190.00,4.00,T,30.03,1017.50,10.00,M,FEW,BKN,OVC,M,5500.00,8000.00,9500.00,M,-RA,M,M,M,M,M,M,60.00,KVGT 201153Z AUTO 19004KT 10SM -RA FEW055 BKN080 OVC095 16/08 A3003 RMK AO2 RAB39 SLP175 P0000 60000 T01560078 10178 20156 56004,M
LOL,2024-02-20 11:53,-118.5701,40.0684,1192.43,29.00,26.00,88.38,0.00,0.00,0.00,30.00,1016.10,10.00,M,CLR,M,M,M,M,M,M,M,M,M,M,M,M,M,M,29.00,KLOL 201153Z AUTO 00000KT 10SM CLR M02/M03 A3000 RMK AO2 SLP161 70022 T10171033 10050 21022 53001,M
INS,2024-02-20 11:55,-115.6733,36.5872,955.00,50.70,44.00,77.71,0.00,0.00,T,30.03,1014.50,10.00,M,BKN,BKN,M,M,10000.00,16000.00,M,M,M,M,M,M,M,M,M,50.70,KINS 201155Z AUTO 00000KT 10SM BKN100 BKN160 10/07 A3003 RMK AO2 RAE13 SLP145 P0000 60000 T01040067 10159 20104 58004,M
LSV,2024-02-20 11:55,-115.0343,36.2362,570.00,60.30,41.50,49.82,340.00,3.00,T,30.01,1014.90,10.00,M,FEW,M,M,M,6000.00,M,M,M,-DZ,M,M,M,M,M,M,60.30,KLSV 201155Z AUTO 34003KT 10SM -DZ FEW060 16/05 A3001 RMK AO2 DZB42 SLP149 P0000 60000 T01570053 10177 20150 55002 $,M
BVU,2024-02-20 11:55,-114.8611,35.9475,671.00,57.20,37.40,47.44,280.00,3.00,0.00,30.05,M,10.00,M,SCT,BKN,OVC,M,7000.00,7500.00,10000.00,M,M,M,M,M,M,M,M,57.20,KBVU 201155Z AUTO 28003KT 10SM SCT070 BKN075 OVC100 14/03 A3005 RMK AO2,M
CXP,2024-02-20 11:55,-119.7326,39.1923,1431.00,33.80,33.80,100.00,240.00,4.00,0.00,30.02,M,10.00,M,FEW,SCT,BKN,M,2200.00,3100.00,4200.00,M,M,M,M,M,M,M,M,29.52,KCXP 201155Z AUTO 24004KT 10SM FEW022 SCT031 BKN042 01/01 A3002 RMK AO2,M
RNO,2024-02-20 11:55,-119.7711,39.4839,1341.00,39.00,31.00,72.75,160.00,15.00,0.00,29.99,1014.20,10.00,24.00,SCT,SCT,M,M,2500.00,5000.00,M,M,M,M,M,M,M,M,M,29.85,KRNO 201155Z 16015G24KT 10SM SCT025 SCT050 04/M01 A2999 RMK AO2 SLP142 60001 70019 T00391006 10050 20039 55000,M
RTS,2024-02-20 11:55,-119.8764,39.6682,1539.00,39.20,24.80,55.95,M,5.00,0.00,30.00,M,10.00,M,OVC,M,M,M,4500.00,M,M,M,M,M,M,M,M,M,M,34.95,KRTS 201155Z AUTO VRB05KT 10SM OVC045 04/M04 A3000 RMK AO2,M
05U,2024-02-20 11:55,-116.0051,39.6042,1811.23,30.20,30.20,100.00,0.00,0.00,0.00,30.06,M,10.00,M,M,M,M,M,M,M,M,M,M,M,M,M,M,M,M,30.20,K05U 201155Z AUTO 00000KT 10SM M01/M01 A3006 RMK A01,M
MEV,2024-02-20 11:55,-119.7500,38.9963,1441.42,32.00,32.00,100.00,0.00,0.00,0.00,30.02,M,10.00,M,FEW,FEW,FEW,M,4200.00,4900.00,7000.00,M,M,M,M,M,M,M,M,32.00,KMEV 201155Z AUTO 00000KT 10SM FEW042 FEW049 FEW070 00/M00 A3002 RMK AO2,M
BAM,2024-02-20 11:55,-116.8743,40.5990,1382.36,35.60,33.80,93.08,110.00,5.00,0.00,30.03,M,10.00,M,CLR,M,M,M,M,M,M,M,M,M,M,M,M,M,M,30.67,KBAM 201155Z AUTO 11005KT 10SM CLR 02/01 A3003 RMK AO1,M
HTH,2024-02-20 11:55,-118.6315,38.5448,1282.89,42.80,19.40,38.75,130.00,16.00,0.00,30.01,M,10.00,25.00,CLR,M,M,M,M,M,M,M,M,M,M,M,M,M,M,34.50,KHTH 201155Z AUTO 13016G25KT 10SM CLR 06/M07 A3001 RMK A01,M
10U,2024-02-20 11:55,-116.1876,41.9532,1637.00,33.80,26.60,74.63,140.00,4.00,0.00,30.01,M,10.00,M,CLR,M,M,M,M,M,M,M,M,M,M,M,M,M,M,29.52,K10U 201155Z AUTO 14004KT 10SM CLR 01/M03 A3001 RMK AO2,M
TMT,2024-02-20 11:55,-117.1971,39.4643,1749.34,25.00,24.00,95.91,0.00,0.00,0.00,30.05,M,10.00,M,CLR,M,M,M,M,M,M,M,M,M,M,M,M,M,M,25.00,KTMT 201155Z AUTO 00000KT 10SM CLR M04/M04 A3005 RMK AO2 70011 T10381045 10005 21041,M
EKO,2024-02-20 11:56,-115.7860,40.8242,1367.00,32.00,31.00,96.04,80.00,6.00,0.00,30.05,1018.30,9.00,M,SCT,OVC,M,M,100.00,1200.00,M,M,M,0.01,M,0.01,M,M,M,25.53,KEKO 201156Z AUTO 08006KT 9SM SCT001 OVC012 00/M01 A3005 RMK AO2 SLP183 60000 70022 I1001 I6001 T00001006 10011 20000 55001,M
WMC,2024-02-20 11:56,-117.8072,40.9019,1315.00,35.00,24.00,63.85,M,3.00,0.00,30.00,1015.10,10.00,M,CLR,M,M,M,M,M,M,M,M,M,M,M,M,M,M,32.12,KWMC 201156Z AUTO VRB03KT 10SM CLR 02/M04 A3000 RMK AO2 SLP151 70012 T00171044 10056 20017 53005 $,M
NFL,2024-02-20 11:56,-118.7010,39.4166,1199.00,35.00,24.00,63.85,70.00,4.00,0.00,30.00,1012.90,10.00,M,CLR,M,M,M,M,M,M,M,M,M,M,M,M,M,M,30.92,KNFL 201156Z AUTO 07004KT 10SM CLR 02/M04 A3000 RMK AO2 SLP129 70016 T00171044 10100 20006 50002,M
HND,2024-02-20 11:56,-115.1344,35.9729,742.79,57.00,46.00,66.59,150.00,3.00,T,30.05,1018.10,10.00,M,BKN,OVC,M,M,7000.00,9000.00,M,M,-RA,M,M,M,M,M,M,57.00,KHND 201156Z AUTO 15003KT 10SM -RA BKN070 OVC090 14/08 A3005 RMK AO2 RAB23 SLP181 P0000 60000 T01390078 10161 20133 58010,M
TPH,2024-02-20 11:56,-117.0904,38.0505,1654.00,38.00,35.00,88.83,140.00,7.00,0.00,30.04,1016.00,10.00,M,FEW,SCT,M,M,1700.00,4200.00,M,M,M,M,M,M,M,M,M,32.09,KTPH 201156Z AUTO 14007KT 10SM FEW017 SCT042 03/02 A3004 RMK AO2 SLP160 60000 70008 T00330017 10056 20033 58003,M
LAS,2024-02-20 11:56,-115.1634,36.0719,663.00,58.00,44.00,59.54,200.00,3.00,0.00,30.03,1015.90,10.00,M,SCT,OVC,M,M,7500.00,11000.00,M,M,M,M,M,M,M,M,M,58.00,KLAS 201156Z 20003KT 10SM SCT075 OVC110 14/07 A3003 RMK AO2 SLP159 T01440067 10161 20144 57006,M
LSV,2024-02-20 12:03,-115.0343,36.2362,570.00,59.00,44.60,58.77,0.00,0.00,0.00,30.01,1015.00,10.00,M,FEW,M,M,M,6000.00,M,M,M,M,M,M,M,M,M,M,59.00,KLSV 201203Z AUTO 00000KT 10SM FEW060 15/07 A3001 RMK AO2 DZE03 SLP150 $,M
LSV,2024-02-20 12:09,-115.0343,36.2362,570.00,59.00,42.80,54.86,0.00,0.00,0.00,30.01,1015.00,10.00,M,FEW,M,M,M,6500.00,M,M,M,-DZ,M,M,M,M,M,M,59.00,KLSV 201209Z AUTO 00000KT 10SM -DZ FEW065 15/06 A3001 RMK AO2 DZE03DZB09 SLP150 $,M
LSV,2024-02-20 12:10,-115.0343,36.2362,570.00,60.80,42.80,51.45,0.00,0.00,0.00,30.01,1014.90,10.00,M,FEW,M,M,M,6500.00,M,M,M,M,M,M,M,M,M,M,60.80,KLSV 201210Z AUTO 00000KT 10SM FEW065 16/06 A3001 RMK AO2 DZE03DZB09E10 SLP149 $,M
BVU,2024-02-20 12:15,-114.8611,35.9475,671.00,57.20,42.80,58.52,350.00,4.00,0.00,30.04,M,10.00,M,FEW,SCT,BKN,M,3600.00,4800.00,5500.00,M,M,M,M,M,M,M,M,57.20,KBVU 201215Z AUTO 35004KT 10SM FEW036 SCT048 BKN055 14/06 A3004 RMK AO2,M
CXP,2024-02-20 12:15,-119.7326,39.1923,1431.00,33.80,33.80,100.00,220.00,3.00,0.00,30.02,M,10.00,M,FEW,M,M,M,2200.00,M,M,M,M,M,M,M,M,M,M,30.75,KCXP 201215Z AUTO 22003KT 10SM FEW022 01/01 A3002 RMK AO2,M
RTS,2024-02-20 12:15,-119.8764,39.6682,1539.00,39.20,24.80,55.95,0.00,0.00,0.00,29.99,M,10.00,M,OVC,M,M,M,4300.00,M,M,M,M,M,M,M,M,M,M,39.20,KRTS 201215Z AUTO 00000KT 10SM OVC043 04/M04 A2999 RMK AO2,M
05U,2024-02-20 12:15,-116.0051,39.6042,1811.23,30.20,30.20,100.00,0.00,0.00,0.00,30.06,M,10.00,M,M,M,M,M,M,M,M,M,M,M,M,M,M,M,M,30.20,K05U 201215Z AUTO 00000KT 10SM M01/M01 A3006 RMK A01,M
MEV,2024-02-20 12:15,-119.7500,38.9963,1441.42,32.00,32.00,100.00,70.00,6.00,0.00,30.01,M,10.00,M,CLR,M,M,M,M,M,M,M,M,M,M,M,M,M,M,25.53,KMEV 201215Z AUTO 07006KT 10SM CLR 00/M00 A3001 RMK AO2,M
BAM,2024-02-20 12:15,-116.8743,40.5990,1382.36,35.60,32.00,86.59,100.00,4.00,0.00,30.03,M,10.00,M,CLR,M,M,M,M,M,M,M,M,M,M,M,M,M,M,31.62,KBAM 201215Z AUTO 10004KT 10SM CLR 02/00 A3003 RMK AO1,M
HTH,2024-02-20 12:15,-118.6315,38.5448,1282.89,44.60,17.60,33.49,150.00,14.00,0.00,30.02,M,10.00,21.00,CLR,M,M,M,M,M,M,M,M,M,M,M,M,M,M,37.40,KHTH 201215Z AUTO 15014G21KT 10SM CLR 07/M08 A3002 RMK A01,M
10U,2024-02-20 12:15,-116.1876,41.9532,1637.00,32.00,24.80,74.44,150.00,5.00,0.00,30.01,M,10.00,M,CLR,M,M,M,M,M,M,M,M,M,M,M,M,M,M,26.40,K10U 201215Z AUTO 15005KT 10SM CLR M00/M04 A3001 RMK AO2,M
TMT,2024-02-20 12:15,-117.1971,39.4643,1749.34,23.70,22.50,95.08,130.00,3.00,0.00,30.05,M,10.00,M,CLR,M,M,M,M,M,M,M,M,M,M,M,M,M,M,19.20,KTMT 201215Z AUTO 13003KT 10SM CLR M05/M05 A3005 RMK AO2 T10461053,M
10U,2024-02-20 12:30,-116.1876,41.9532,1637.00,32.00,28.40,86.39,140.00,7.00,0.00,30.02,M,10.00,M,CLR,M,M,M,M,M,M,M,M,M,M,M,M,M,M,24.78,K10U 201230Z AUTO 14007KT 10SM CLR 00/M02 A3002 RMK AO2,M
BVU,2024-02-20 12:35,-114.8611,35.9475,671.00,55.40,44.60,66.91,20.00,5.00,0.00,30.04,M,10.00,M,FEW,SCT,BKN,M,3800.00,5000.00,7000.00,M,M,M,M,M,M,M,M,55.40,KBVU 201235Z AUTO 02005KT 10SM FEW038 SCT050 BKN070 13/07 A3004 RMK AO2,M
CXP,2024-02-20 12:35,-119.7326,39.1923,1431.00,33.80,33.80,100.00,340.00,5.00,0.00,30.03,M,10.00,M,CLR,M,M,M,M,M,M,M,M,M,M,M,M,M,M,28.53,KCXP 201235Z AUTO 34005KT 10SM CLR 01/01 A3003 RMK AO2,M
RTS,2024-02-20 12:35,-119.8764,39.6682,1539.00,37.40,28.40,69.67,100.00,6.00,0.00,29.99,M,10.00,M,OVC,M,M,M,4100.00,M,M,M,M,M,M,M,M,M,M,32.03,KRTS 201235Z AUTO 10006KT 10SM OVC041 03/M02 A2999 RMK AO2,M
05U,2024-02-20 12:35,-116.0051,39.6042,1811.23,32.00,30.20,92.97,0.00,0.00,0.00,30.06,M,10.00,M,M,M,M,M,M,M,M,M,M,M,M,M,M,M,M,32.00,K05U 201235Z AUTO 00000KT 10SM M00/M01 A3006 RMK A01,M
MEV,2024-02-20 12:35,-119.7500,38.9963,1441.42,33.80,30.20,86.49,0.00,0.00,0.00,30.02,M,10.00,M,FEW,FEW,M,M,3400.00,4100.00,M,M,M,M,M,M,M,M,M,33.80,KMEV 201235Z AUTO 00000KT 10SM FEW034 FEW041 01/M01 A3002 RMK AO2,M
BAM,2024-02-20 12:35,-116.8743,40.5990,1382.36,32.00,32.00,100.00,130.00,6.00,0.00,30.03,M,10.00,M,CLR,M,M,M,M,M,M,M,M,M,M,M,M,M,M,25.53,KBAM 201235Z AUTO 13006KT 10SM CLR 00/00 A3003 RMK AO1,M
HTH,2024-02-20 12:35,-118.6315,38.5448,1282.89,41.00,21.20,44.85,120.00,3.00,0.00,30.02,M,10.00,15.00,CLR,M,M,M,M,M,M,M,M,M,M,M,M,M,M,38.98,KHTH 201235Z AUTO 12003G15KT 10SM CLR 05/M06 A3002 RMK A01,M
TMT,2024-02-20 12:35,-117.1971,39.4643,1749.34,24.00,23.00,95.89,120.00,5.00,0.00,30.05,M,10.00,M,CLR,M,M,M,M,M,M,M,M,M,M,M,M,M,M,16.89,KTMT 201235Z AUTO 12005KT 10SM CLR M04/M05 A3005 RMK AO2 T10441050,M
P68,2024-02-20 12:53,-116.0056,39.6014,1993.00,31.00,29.00,92.19,0.00,0.00,0.00,30.04,1016.90,M,M,M,M,M,M,M,M,M,M,M,M,M,M,M,M,M,31.00,KP68 201253Z AUTO 00000KT M01/M02 A3004 RMK AO1 SLP169 T10061017,M
DRA,2024-02-20 12:53,-116.0278,36.6206,1009.00,52.00,42.00,68.59,230.00,6.00,0.00,30.04,1014.70,10.00,M,SCT,SCT,M,M,6500.00,9500.00,M,M,M,M,M,M,M,M,M,52.00,KDRA 201253Z AUTO 23006KT 10SM SCT065 SCT095 11/06 A3004 RMK AO2 SLP147 T01110056,M
ELY,2024-02-20 12:53,-114.8453,39.2950,1909.00,37.00,31.00,78.69,220.00,7.00,0.00,30.06,1016.30,10.00,M,OVC,M,M,M,4000.00,M,M,M,M,M,M,M,M,M,M,30.87,KELY 201253Z AUTO 22007KT 10SM OVC040 03/M01 A3006 RMK AO2 SLP163 T00281006,M
VGT,2024-02-20 12:53,-115.1933,36.2111,667.00,57.00,45.00,64.12,90.00,7.00,T,30.02,1017.40,10.00,M,CLR,M,M,M,M,M,M,M,M,M,M,M,M,M,M,57.00,KVGT 201253Z AUTO 09007KT 10SM CLR 14/07 A3002 RMK AO2 RAE1159 SLP174 P0000 T01390072,M
LOL,2024-02-20 12:53,-118.5701,40.0684,1192.43,28.00,26.00,92.08,300.00,6.00,0.00,30.00,1016.70,10.00,M,CLR,M,M,M,M,M,M,M,M,M,M,M,M,M,M,20.71,KLOL 201253Z AUTO 30006KT 10SM CLR M02/M03 A3000 RMK AO2 SLP167 T10221033,M
INS,2024-02-20 12:55,-115.6733,36.5872,955.00,51.00,44.60,78.63,270.00,3.00,0.00,30.04,1014.90,10.00,M,FEW,OVC,M,M,7000.00,9500.00,M,M,M,M,M,M,M,M,M,51.00,KINS 201255Z AUTO 27003KT 10SM FEW070 OVC095 11/07 A3004 RMK AO2 SLP149 T01050070,M
LSV,2024-02-20 12:55,-115.0343,36.2362,570.00,58.50,43.70,57.81,0.00,0.00,T,30.00,1014.70,10.00,M,CLR,M,M,M,M,M,M,M,M,M,M,M,M,M,M,58.50,KLSV 201255Z AUTO 00000KT 10SM CLR 15/07 A3000 RMK AO2 DZE03DZB09E10 SLP147 P0000 T01470065 $,M
BVU,2024-02-20 12:55,-114.8611,35.9475,671.00,57.20,41.00,54.60,50.00,4.00,0.00,30.04,M,10.00,M,BKN,OVC,M,M,9000.00,12000.00,M,M,M,M,M,M,M,M,M,57.20,KBVU 201255Z AUTO 05004KT 10SM BKN090 OVC120 14/05 A3004 RMK AO2,M
CXP,2024-02-20 12:55,-119.7326,39.1923,1431.00,33.80,32.00,93.03,0.00,0.00,0.00,30.03,M,10.00,M,CLR,M,M,M,M,M,M,M,M,M,M,M,M,M,M,33.80,KCXP 201255Z AUTO 00000KT 10SM CLR 01/00 A3003 RMK AO2,M
RNO,2024-02-20 12:55,-119.7711,39.4839,1341.00,38.00,30.00,72.64,10.00,4.00,0.00,29.98,1014.30,10.00,M,SCT,M,M,M,5000.00,M,M,M,M,M,M,M,M,M,M,34.43,KRNO 201255Z 01004KT 10SM SCT050 03/M01 A2998 RMK AO2 SLP143 T00331011,M
RTS,2024-02-20 12:55,-119.8764,39.6682,1539.00,39.20,24.80,55.95,M,4.00,0.00,30.00,M,10.00,10.00,OVC,M,M,M,3800.00,M,M,M,M,M,M,M,M,M,M,35.83,KRTS 201255Z AUTO VRB04G10KT 10SM OVC038 04/M04 A3000 RMK AO2,M
05U,2024-02-20 12:55,-116.0051,39.6042,1811.23,30.20,30.20,100.00,230.00,3.00,0.00,30.07,M,10.00,M,M,M,M,M,M,M,M,M,M,M,M,M,M,M,M,26.63,K05U 201255Z AUTO 23003KT 10SM M01/M01 A3007 RMK A01,M
MEV,2024-02-20 12:55,-119.7500,38.9963,1441.42,33.80,32.00,93.03,330.00,4.00,0.00,30.02,M,10.00,M,FEW,FEW,M,M,3600.00,4200.00,M,M,M,M,M,M,M,M,M,29.52,KMEV 201255Z AUTO 33004KT 10SM FEW036 FEW042 01/M00 A3002 RMK AO2,M
BAM,2024-02-20 12:55,-116.8743,40.5990,1382.36,33.80,32.00,93.03,140.00,6.00,0.00,30.03,M,10.00,M,CLR,M,M,M,M,M,M,M,M,M,M,M,M,M,M,27.70,KBAM 201255Z AUTO 14006KT 10SM CLR 01/00 A3003 RMK AO1,M
HTH,2024-02-20 12:55,-118.6315,38.5448,1282.89,41.00,19.40,41.54,0.00,0.00,0.00,30.03,M,10.00,M,CLR,M,M,M,M,M,M,M,M,M,M,M,M,M,M,41.00,KHTH 201255Z AUTO 00000KT 10SM CLR 05/M07 A3003 RMK A01,M
10U,2024-02-20 12:55,-116.1876,41.9532,1637.00,32.00,28.40,86.39,150.00,7.00,0.00,30.02,M,10.00,M,CLR,M,M,M,M,M,M,M,M,M,M,M,M,M,M,24.78,K10U 201255Z AUTO 15007KT 10SM CLR 00/M02 A3002 RMK AO2,M
TMT,2024-02-20 12:55,-117.1971,39.4643,1749.34,24.30,23.00,94.70,280.00,3.00,0.00,30.05,M,10.00,M,CLR,M,M,M,M,M,M,M,M,M,M,M,M,M,M,19.89,KTMT 201255Z AUTO 28003KT 10SM CLR M04/M05 A3005 RMK AO2 T10431050,M
EKO,2024-02-20 12:56,-115.7860,40.8242,1367.00,33.00,31.00,92.25,60.00,4.00,0.00,30.05,1018.30,10.00,M,FEW,OVC,M,M,300.00,1100.00,M,M,M,M,M,M,M,M,M,28.59,KEKO 201256Z AUTO 06004KT 10SM FEW003 OVC011 01/M01 A3005 RMK AO2 SLP183 T00061006,M
WMC,2024-02-20 12:56,-117.8072,40.9019,1315.00,30.00,23.00,74.87,0.00,0.00,0.00,30.01,1015.80,10.00,M,FEW,M,M,M,7500.00,M,M,M,M,M,M,M,M,M,M,30.00,KWMC 201256Z AUTO 00000KT 10SM FEW075 M01/M05 A3001 RMK AO2 SLP158 T10111050 $,M
NFL,2024-02-20 12:56,-118.7010,39.4166,1199.00,30.00,24.00,78.07,340.00,3.00,0.00,30.01,1013.10,10.00,M,CLR,M,M,M,M,M,M,M,M,M,M,M,M,M,M,26.40,KNFL 201256Z AUTO 34003KT 10SM CLR M01/M04 A3001 RMK AO2 SLP131 T10111044,M
HND,2024-02-20 12:56,-115.1344,35.9729,742.79,55.00,47.00,74.36,160.00,5.00,T,30.07,1018.70,10.00,M,CLR,M,M,M,M,M,M,M,M,M,M,M,M,M,M,55.00,KHND 201256Z AUTO 16005KT 10SM CLR 13/08 A3007 RMK AO2 RAE15 SLP187 P0000 T01280083,M
TPH,2024-02-20 12:56,-117.0904,38.0505,1654.00,36.00,34.00,92.35,130.00,6.00,0.00,30.05,1016.60,10.00,M,CLR,M,M,M,M,M,M,M,M,M,M,M,M,M,M,30.35,KTPH 201256Z AUTO 13006KT 10SM CLR 02/01 A3005 RMK AO2 SLP166 T00220011,M
LAS,2024-02-20 12:56,-115.1634,36.0719,663.00,57.00,46.00,66.59,150.00,6.00,0.00,30.03,1015.90,10.00,M,FEW,SCT,OVC,M,7500.00,11000.00,19000.00,M,M,M,M,M,M,M,M,57.00,KLAS 201256Z 15006KT 10SM FEW075 SCT110 OVC190 14/08 A3003 RMK AO2 SLP159 T01390078,M
BVU,2024-02-20 13:15,-114.8611,35.9475,671.00,57.20,41.00,54.60,60.00,3.00,0.00,30.05,M,10.00,M,OVC,M,M,M,8500.00,M,M,M,M,M,M,M,M,M,M,57.20,KBVU 201315Z AUTO 06003KT 10SM OVC085 14/05 A3005 RMK AO2,M
CXP,2024-02-20 13:15,-119.7326,39.1923,1431.00,33.80,32.00,93.03,40.00,3.00,0.00,30.03,M,10.00,M,CLR,M,M,M,M,M,M,M,M,M,M,M,M,M,M,30.75,KCXP 201315Z AUTO 04003KT 10SM CLR 01/00 A3003 RMK AO2,M
RTS,2024-02-20 13:15,-119.8764,39.6682,1539.00,39.20,24.80,55.95,M,4.00,0.00,30.00,M,10.00,M,OVC,M,M,M,3900.00,M,M,M,M,M,M,M,M,M,M,35.83,KRTS 201315Z AUTO VRB04KT 10SM OVC039 04/M04 A3000 RMK AO2,M
05U,2024-02-20 13:15,-116.0051,39.6042,1811.23,30.20,30.20,100.00,0.00,0.00,0.00,30.07,M,10.00,M,M,M,M,M,M,M,M,M,M,M,M,M,M,M,M,30.20,K05U 201315Z AUTO 00000KT 10SM M01/M01 A3007 RMK A01,M
MEV,2024-02-20 13:15,-119.7500,38.9963,1441.42,32.00,32.00,100.00,350.00,5.00,0.00,30.02,M,10.00,M,CLR,M,M,M,M,M,M,M,M,M,M,M,M,M,M,26.40,KMEV 201315Z AUTO 35005KT 10SM CLR 00/M00 A3002 RMK AO2,M
BAM,2024-02-20 13:15,-116.8743,40.5990,1382.36,32.00,30.20,92.97,140.00,5.00,0.00,30.03,M,10.00,M,CLR,M,M,M,M,M,M,M,M,M,M,M,M,M,M,26.40,KBAM 201315Z AUTO 14005KT 10SM CLR 00/M01 A3003 RMK AO1,M
HTH,2024-02-20 13:15,-118.6315,38.5448,1282.89,44.60,17.60,33.49,180.00,12.00,0.00,30.02,M,10.00,M,CLR,M,M,M,M,M,M,M,M,M,M,M,M,M,M,38.04,KHTH 201315Z AUTO 18012KT 10SM CLR 07/M08 A3002 RMK A01,M
10U,2024-02-20 13:15,-116.1876,41.9532,1637.00,32.00,26.60,80.22,140.00,7.00,0.00,30.02,M,10.00,M,CLR,M,M,M,M,M,M,M,M,M,M,M,M,M,M,24.78,K10U 201315Z AUTO 14007KT 10SM CLR M00/M03 A3002 RMK AO2,M
TMT,2024-02-20 13:15,-117.1971,39.4643,1749.34,24.40,23.00,94.30,270.00,5.00,0.00,30.06,M,10.00,M,SCT,M,M,M,3900.00,M,M,M,M,M,M,M,M,M,M,17.37,KTMT 201315Z AUTO 27005KT 10SM SCT039 M04/M05 A3006 RMK AO2 T10421050,M
BVU,2024-02-20 13:35,-114.8611,35.9475,671.00,57.20,39.20,50.91,100.00,5.00,0.00,30.05,M,10.00,M,FEW,SCT,M,M,8500.00,12000.00,M,M,M,M,M,M,M,M,M,57.20,KBVU 201335Z AUTO 10005KT 10SM FEW085 SCT120 14/04 A3005 RMK AO2,M
CXP,2024-02-20 13:35,-119.7326,39.1923,1431.00,35.60,32.00,86.59,0.00,0.00,0.00,30.03,M,10.00,M,SCT,M,M,M,5500.00,M,M,M,M,M,M,M,M,M,M,35.60,KCXP 201335Z AUTO 00000KT 10SM SCT055 02/M00 A3003 RMK AO2,M
RTS,2024-02-20 13:35,-119.8764,39.6682,1539.00,39.20,24.80,55.95,250.00,7.00,0.00,30.01,M,10.00,M,OVC,M,M,M,3800.00,M,M,M,M,M,M,M,M,M,M,33.56,KRTS 201335Z AUTO 25007KT 10SM OVC038 04/M04 A3001 RMK AO2,M
05U,2024-02-20 13:35,-116.0051,39.6042,1811.23,30.20,30.20,100.00,0.00,0.00,0.00,30.08,M,10.00,M,M,M,M,M,M,M,M,M,M,M,M,M,M,M,M,30.20,K05U 201335Z AUTO 00000KT 10SM M01/M01 A3008 RMK A01,M
MEV,2024-02-20 13:35,-119.7500,38.9963,1441.42,32.00,30.20,92.97,20.00,3.00,0.00,30.02,M,10.00,M,FEW,M,M,M,4200.00,M,M,M,M,M,M,M,M,M,M,28.69,KMEV 201335Z AUTO 02003KT 10SM FEW042 M00/M01 A3002 RMK AO2,M
BAM,2024-02-20 13:35,-116.8743,40.5990,1382.36,32.00,30.20,92.97,130.00,4.00,0.00,30.04,M,10.00,M,CLR,M,M,M,M,M,M,M,M,M,M,M,M,M,M,27.42,KBAM 201335Z AUTO 13004KT 10SM CLR 00/M01 A3004 RMK AO1,M
HTH,2024-02-20 13:35,-118.6315,38.5448,1282.89,44.60,17.60,33.49,180.00,6.00,0.00,30.02,M,10.00,19.00,CLR,M,M,M,M,M,M,M,M,M,M,M,M,M,M,40.71,KHTH 201335Z AUTO 18006G19KT 10SM CLR 07/M08 A3002 RMK A01,M
10U,2024-02-20 13:35,-116.1876,41.9532,1637.00,30.20,24.80,80.07,140.00,7.00,0.00,30.02,M,10.00,M,CLR,M,M,M,M,M,M,M,M,M,M,M,M,M,M,22.59,K10U 201335Z AUTO 14007KT 10SM CLR M01/M04 A3002 RMK AO2,M
TMT,2024-02-20 13:35,-117.1971,39.4643,1749.34,24.40,23.00,94.30,0.00,0.00,0.00,30.05,M,10.00,M,SCT,M,M,M,3900.00,M,M,M,M,M,M,M,M,M,M,24.40,KTMT 201335Z AUTO 00000KT 10SM SCT039 M04/M05 A3005 RMK AO2 T10421050,M
P68,2024-02-20 13:53,-116.0056,39.6014,1993.00,29.00,28.00,95.99,0.00,0.00,0.00,30.05,1017.40,M,M,M,M,M,M,M,M,M,M,M,M,M,M,M,M,M,29.00,KP68 201353Z AUTO 00000KT M02/M02 A3005 RMK AO1 SLP174 T10171022,M
DRA,2024-02-20 13:53,-116.0278,36.6206,1009.00,50.00,44.00,79.76,30.00,4.00,0.00,30.05,1015.30,10.00,M,FEW,BKN,OVC,M,4800.00,6000.00,7500.00,M,M,M,M,M,M,M,M,50.00,KDRA 201353Z AUTO 03004KT 10SM FEW048 BKN060 OVC075 10/07 A3005 RMK AO2 SLP153 T01000067,M
ELY,2024-02-20 13:53,-114.8453,39.2950,1909.00,37.00,31.00,78.69,230.00,7.00,0.00,30.08,1016.80,10.00,M,BKN,BKN,OVC,M,3700.00,4400.00,6000.00,M,M,M,M,M,M,M,M,30.87,KELY 201353Z AUTO 23007KT 10SM BKN037 BKN044 OVC060 03/M01 A3008 RMK AO2 SLP168 T00281006,M
VGT,2024-02-20 13:53,-115.1933,36.2111,667.00,59.00,45.00,59.67,0.00,0.00,0.00,30.05,1018.20,10.00,M,FEW,BKN,OVC,M,6500.00,8000.00,10000.00,M,M,M,M,M,M,M,M,59.00,KVGT 201353Z AUTO 00000KT 10SM FEW065 BKN080 OVC100 15/07 A3005 RMK AO2 SLP182 T01500072,M
LOL,2024-02-20 13:53,-118.5701,40.0684,1192.43,28.00,26.00,92.08,320.00,3.00,0.00,30.02,1017.60,10.00,M,CLR,M,M,M,M,M,M,M,M,M,M,M,M,M,M,24.12,KLOL 201353Z AUTO 32003KT 10SM CLR M02/M03 A3002 RMK AO2 SLP176 T10221033,M
INS,2024-02-20 13:55,-115.6733,36.5872,955.00,48.70,44.00,83.72,260.00,4.00,0.00,30.04,1015.30,10.00,M,SCT,M,M,M,7500.00,M,M,M,M,M,M,M,M,M,M,46.92,KINS 201355Z AUTO 26004KT 10SM SCT075 09/07 A3004 RMK AO2 SLP153 T00930066,M
LSV,2024-02-20 13:55,-115.0343,36.2362,570.00,59.50,41.00,50.27,130.00,4.00,0.00,30.02,1015.50,10.00,M,CLR,M,M,M,M,M,M,M,M,M,M,M,M,M,M,59.50,KLSV 201355Z AUTO 13004KT 10SM CLR 15/05 A3002 RMK AO2 SLP155 T01530049 $,M
BVU,2024-02-20 13:55,-114.8611,35.9475,671.00,57.20,39.20,50.91,140.00,4.00,0.00,30.06,M,10.00,M,FEW,SCT,BKN,M,8000.00,9000.00,12000.00,M,M,M,M,M,M,M,M,57.20,KBVU 201355Z AUTO 14004KT 10SM FEW080 SCT090 BKN120 14/04 A3006 RMK AO2,M
CXP,2024-02-20 13:55,-119.7326,39.1923,1431.00,35.60,30.20,80.51,0.00,0.00,0.00,30.03,M,10.00,M,FEW,M,M,M,5500.00,M,M,M,M,M,M,M,M,M,M,35.60,KCXP 201355Z AUTO 00000KT 10SM FEW055 02/M01 A3003 RMK AO2,M
RNO,2024-02-20 13:55,-119.7711,39.4839,1341.00,37.00,30.00,75.56,10.00,3.00,0.00,29.99,1014.90,10.00,M,FEW,M,M,M,5000.00,M,M,M,M,M,M,M,M,M,M,34.40,KRNO 201355Z 01003KT 10SM FEW050 03/M01 A2999 RMK AO2 SLP149 T00281011,M
RTS,2024-02-20 13:55,-119.8764,39.6682,1539.00,37.40,24.80,60.04,200.00,7.00,0.00,30.02,M,10.00,20.00,SCT,OVC,M,M,3900.00,4800.00,M,M,M,M,M,M,M,M,M,31.36,KRTS 201355Z AUTO 20007G20KT 10SM SCT039 OVC048 03/M04 A3002 RMK AO2,M
05U,2024-02-20 13:55,-116.0051,39.6042,1811.23,30.20,28.40,92.92,0.00,0.00,0.00,30.08,M,10.00,M,M,M,M,M,M,M,M,M,M,M,M,M,M,M,M,30.20,K05U 201355Z AUTO 00000KT 10SM M01/M02 A3008 RMK A01,M
MEV,2024-02-20 13:55,-119.7500,38.9963,1441.42,32.00,32.00,100.00,80.00,7.00,0.00,30.02,M,10.00,M,FEW,M,M,M,4200.00,M,M,M,M,M,M,M,M,M,M,24.78,KMEV 201355Z AUTO 08007KT 10SM FEW042 M00/M00 A3002 RMK AO2,M
BAM,2024-02-20 13:55,-116.8743,40.5990,1382.36,32.00,30.20,92.97,150.00,3.00,0.00,30.04,M,10.00,M,CLR,M,M,M,M,M,M,M,M,M,M,M,M,M,M,28.69,KBAM 201355Z AUTO 15003KT 10SM CLR 00/M01 A3004 RMK AO1,M
HTH,2024-02-20 13:55,-118.6315,38.5448,1282.89,37.40,23.00,55.68,60.00,5.00,0.00,30.03,M,10.00,M,CLR,M,M,M,M,M,M,M,M,M,M,M,M,M,M,32.81,KHTH 201355Z AUTO 06005KT 10SM CLR 03/M05 A3003 RMK A01,M
10U,2024-02-20 13:55,-116.1876,41.9532,1637.00,30.20,24.80,80.07,130.00,6.00,0.00,30.03,M,10.00,M,CLR,M,M,M,M,M,M,M,M,M,M,M,M,M,M,23.36,K10U 201355Z AUTO 13006KT 10SM CLR M01/M04 A3003 RMK AO2,M
TMT,2024-02-20 13:55,-117.1971,39.4643,1749.34,24.00,23.00,95.89,310.00,5.00,0.00,30.06,M,10.00,M,CLR,M,M,M,M,M,M,M,M,M,M,M,M,M,M,16.89,KTMT 201355Z AUTO 31005KT 10SM CLR M04/M05 A3006 RMK AO2 T10451051,M
EKO,2024-02-20 13:56,-115.7860,40.8242,1367.00,33.00,32.00,96.06,100.00,3.00,0.00,30.06,1018.80,10.00,M,OVC,M,M,M,1000.00,M,M,M,M,M,M,M,M,M,M,29.83,KEKO 201356Z AUTO 10003KT 10SM OVC010 01/00 A3006 RMK AO2 SLP188 T00060000,M
WMC,2024-02-20 13:56,-117.8072,40.9019,1315.00,28.00,22.00,77.89,0.00,0.00,0.00,30.02,1016.80,10.00,M,CLR,M,M,M,M,M,M,M,M,M,M,M,M,M,M,28.00,KWMC 201356Z AUTO 00000KT 10SM CLR M02/M06 A3002 RMK AO2 SLP168 T10221056 $,M
NFL,2024-02-20 13:56,-118.7010,39.4166,1199.00,29.00,24.00,81.32,0.00,0.00,0.00,30.02,1013.40,10.00,M,CLR,M,M,M,M,M,M,M,M,M,M,M,M,M,M,29.00,KNFL 201356Z AUTO 00000KT 10SM CLR M02/M04 A3002 RMK AO2 SLP134 T10171044,M
HND,2024-02-20 13:56,-115.1344,35.9729,742.79,56.00,46.00,69.05,210.00,10.00,0.00,30.08,1019.10,10.00,M,OVC,M,M,M,8500.00,M,M,M,M,M,M,M,M,M,M,56.00,KHND 201356Z 21010KT 10SM OVC085 13/08 A3008 RMK AO2 SLP191 T01330078,M
TPH,2024-02-20 13:56,-117.0904,38.0505,1654.00,35.00,33.00,92.32,300.00,4.00,0.00,30.06,1017.10,10.00,M,FEW,SCT,M,M,3300.00,5000.00,M,M,M,M,M,M,M,M,M,30.92,KTPH 201356Z AUTO 30004KT 10SM FEW033 SCT050 02/01 A3006 RMK AO2 SLP171 T00170006,M
LAS,2024-02-20 13:56,-115.1634,36.0719,663.00,57.00,46.00,66.59,0.00,0.00,0.00,30.05,1016.60,10.00,M,FEW,BKN,OVC,M,7500.00,9500.00,13000.00,M,M,M,M,M,M,M,M,57.00,KLAS 201356Z 00000KT 10SM FEW075 BKN095 OVC130 14/08 A3005 RMK AO2 SLP166 T01390078,M
RTS,2024-02-20 14:05,-119.8764,39.6682,1539.00,37.40,24.80,60.04,M,6.00,0.00,30.02,M,10.00,15.00,OVC,M,M,M,4700.00,M,M,M,M,M,M,M,M,M,M,32.03,KRTS 201405Z AUTO VRB06G15KT 10SM OVC047 03/M04 A3002 RMK AO2,M
MEV,2024-02-20 14:05,-119.7500,38.9963,1441.42,32.00,30.20,92.97,80.00,5.00,0.00,30.02,M,10.00,M,CLR,M,M,M,M,M,M,M,M,M,M,M,M,M,M,26.40,KMEV 201405Z AUTO 08005KT 10SM CLR M00/M01 A3002 RMK AO2,M
LSV,2024-02-20 14:10,-115.0343,36.2362,570.00,59.00,42.80,54.86,0.00,0.00,0.00,30.03,1015.80,10.00,M,FEW,M,M,M,6500.00,M,M,M,-RA,M,M,M,M,M,M,59.00,KLSV 201410Z AUTO 00000KT 10SM -RA FEW065 15/06 A3003 RMK AO2 RAB10 SLP158 $,M
BVU,2024-02-20 14:15,-114.8611,35.9475,671.00,57.20,39.20,50.91,0.00,0.00,0.00,30.06,M,10.00,M,FEW,BKN,OVC,M,6500.00,7500.00,9000.00,M,M,M,M,M,M,M,M,57.20,KBVU 201415Z AUTO 00000KT 10SM FEW065 BKN075 OVC090 14/04 A3006 RMK AO2,M
CXP,2024-02-20 14:15,-119.7326,39.1923,1431.00,33.80,30.20,86.49,320.00,6.00,0.00,30.03,M,10.00,M,CLR,M,M,M,M,M,M,M,M,M,M,M,M,M,M,27.70,KCXP 201415Z AUTO 32006KT 10SM CLR 01/M01 A3003 RMK AO2,M
05U,2024-02-20 14:15,-116.0051,39.6042,1811.23,30.20,28.40,92.92,M,3.00,0.00,30.09,M,10.00,M,M,M,M,M,M,M,M,M,M,M,M,M,M,M,M,26.63,K05U 201415Z AUTO VRB03KT 10SM M01/M02 A3009 RMK A01,M
BAM,2024-02-20 14:15,-116.8743,40.5990,1382.36,32.00,30.20,92.97,0.00,0.00,0.00,30.05,M,10.00,M,CLR,M,M,M,M,M,M,M,M,M,M,M,M,M,M,32.00,KBAM 201415Z AUTO 00000KT 10SM CLR 00/M01 A3005 RMK AO1,M
HTH,2024-02-20 14:15,-118.6315,38.5448,1282.89,33.80,23.00,64.23,90.00,4.00,0.00,30.04,M,10.00,M,CLR,M,M,M,M,M,M,M,M,M,M,M,M,M,M,29.52,KHTH 201415Z AUTO 09004KT 10SM CLR 01/M05 A3004 RMK A01,M
10U,2024-02-20 14:15,-116.1876,41.9532,1637.00,30.20,24.80,80.07,100.00,7.00,0.00,30.03,M,10.00,M,CLR,M,M,M,M,M,M,M,M,M,M,M,M,M,M,22.59,K10U 201415Z AUTO 10007KT 10SM CLR M01/M04 A3003 RMK AO2,M
TMT,2024-02-20 14:15,-117.1971,39.4643,1749.34,24.40,23.00,94.30,260.00,3.00,0.00,30.07,M,10.00,M,CLR,M,M,M,M,M,M,M,M,M,M,M,M,M,M,20.00,KTMT 201415Z AUTO 26003KT 10SM CLR M04/M05 A3007 RMK AO2 T10421050,M
LSV,2024-02-20 14:21,-115.0343,36.2362,570.00,59.00,44.60,58.77,70.00,3.00,0.00,30.04,1016.20,10.00,M,CLR,M,M,M,M,M,M,M,M,M,M,M,M,M,M,59.00,KLSV 201421Z AUTO 07003KT 10SM CLR 15/07 A3004 RMK AO2 RAB10E21 SLP162 $,M
BVU,2024-02-20 14:35,-114.8611,35.9475,671.00,57.20,41.00,54.60,0.00,0.00,0.00,30.07,M,10.00,M,FEW,BKN,OVC,M,5000.00,7500.00,8000.00,M,M,M,M,M,M,M,M,57.20,KBVU 201435Z AUTO 00000KT 10SM FEW050 BKN075 OVC080 14/05 A3007 RMK AO2,M
CXP,2024-02-20 14:35,-119.7326,39.1923,1431.00,33.80,30.20,86.49,0.00,0.00,0.00,30.03,M,10.00,M,BKN,M,M,M,6000.00,M,M,M,M,M,M,M,M,M,M,33.80,KCXP 201435Z AUTO 00000KT 10SM BKN060 01/M01 A3003 RMK AO2,M
05U,2024-02-20 14:35,-116.0051,39.6042,1811.23,30.20,28.40,92.92,0.00,0.00,0.00,30.09,M,10.00,M,M,M,M,M,M,M,M,M,M,M,M,M,M,M,M,30.20,K05U 201435Z AUTO 00000KT 10SM M01/M02 A3009 RMK A01,M
BAM,2024-02-20 14:35,-116.8743,40.5990,1382.36,32.00,30.20,92.97,90.00,4.00,0.00,30.05,M,10.00,M,CLR,M,M,M,M,M,M,M,M,M,M,M,M,M,M,27.42,KBAM 201435Z AUTO 09004KT 10SM CLR 00/M01 A3005 RMK AO1,M
HTH,2024-02-20 14:35,-118.6315,38.5448,1282.89,35.60,23.00,59.79,170.00,7.00,0.00,30.04,M,10.00,M,CLR,M,M,M,M,M,M,M,M,M,M,M,M,M,M,29.17,KHTH 201435Z AUTO 17007KT 10SM CLR 02/M05 A3004 RMK A01,M
10U,2024-02-20 14:35,-116.1876,41.9532,1637.00,32.00,28.40,86.39,130.00,8.00,0.00,30.04,M,10.00,M,CLR,M,M,M,M,M,M,M,M,M,M,M,M,M,M,24.11,K10U 201435Z AUTO 13008KT 10SM CLR M00/M02 A3004 RMK AO2,M
TMT,2024-02-20 14:35,-117.1971,39.4643,1749.34,23.70,22.60,95.49,0.00,0.00,0.00,30.07,M,10.00,M,CLR,M,M,M,M,M,M,M,M,M,M,M,M,M,M,23.70,KTMT 201435Z AUTO 00000KT 10SM CLR M05/M05 A3007 RMK AO2 T10461052,M
NFL,2024-02-20 14:36,-118.7010,39.4166,1199.00,28.00,23.00,81.25,0.00,0.00,0.00,30.03,M,10.00,M,FEW,M,M,M,5000.00,M,M,M,M,M,M,M,M,M,M,28.00,KNFL 201436Z 00000KT 10SM FEW050 M02/M05 A3003 RMK AO2 T10221050,M
TPH,2024-02-20 14:37,-117.0904,38.0505,1654.00,34.00,33.00,96.08,360.00,3.00,0.00,30.06,M,10.00,M,BKN,OVC,M,M,2600.00,3200.00,M,M,M,M,M,M,M,M,M,30.97,KTPH 201437Z AUTO 36003KT 10SM BKN026 OVC032 01/01 A3006 RMK AO2 T00110006,M
P68,2024-02-20 14:53,-116.0056,39.6014,1993.00,30.00,28.00,92.15,210.00,3.00,0.00,30.07,1018.20,M,M,M,M,M,M,M,M,M,M,M,M,M,M,M,M,M,26.40,KP68 201453Z AUTO 21003KT M01/M02 A3007 RMK AO1 SLP182 T10111022 53013,M
DRA,2024-02-20 14:53,-116.0278,36.6206,1009.00,51.00,45.00,79.84,220.00,4.00,0.00,30.07,1016.00,10.00,M,OVC,M,M,M,4200.00,M,M,M,M,M,M,M,M,M,M,51.00,KDRA 201453Z AUTO 22004KT 10SM OVC042 11/07 A3007 RMK AO2 SLP160 T01060072 53014,M
ELY,2024-02-20 14:53,-114.8453,39.2950,1909.00,36.00,30.00,78.60,190.00,4.00,0.00,30.09,1017.10,10.00,M,BKN,OVC,M,M,4200.00,4900.00,M,M,M,M,M,M,M,M,M,32.09,KELY 201453Z AUTO 19004KT 10SM BKN042 OVC049 02/M01 A3009 RMK AO2 SLP171 T00221011 53008,M
VGT,2024-02-20 14:53,-115.1933,36.2111,667.00,58.00,47.00,66.71,40.00,4.00,T,30.07,1018.90,10.00,M,FEW,BKN,OVC,M,6000.00,7500.00,11000.00,M,M,M,M,M,M,M,M,58.00,KVGT 201453Z 04004KT 10SM FEW060 BKN075 OVC110 14/08 A3007 RMK AO2 RAB1355E42 SLP189 P0000 60000 T01440083 53011,M
LOL,2024-02-20 14:53,-118.5701,40.0684,1192.43,25.00,23.00,91.97,30.00,3.00,0.00,30.04,1019.20,10.00,M,CLR,M,M,M,M,M,M,M,M,M,M,M,M,M,M,20.69,KLOL 201453Z AUTO 03003KT 10SM CLR M04/M05 A3004 RMK AO2 SLP192 T10391050 53012,M
TMT,2024-02-20 14:55,-117.1971,39.4643,1749.34,23.40,22.00,94.28,160.00,3.00,0.00,30.08,M,10.00,M,CLR,M,M,M,M,M,M,M,M,M,M,M,M,M,M,18.86,KTMT 201455Z AUTO 16003KT 10SM CLR M05/M05 A3008 RMK AO2 T10481055,M
10U,2024-02-20 14:55,-116.1876,41.9532,1637.00,30.20,26.60,86.28,130.00,8.00,0.00,30.04,M,10.00,M,CLR,M,M,M,M,M,M,M,M,M,M,M,M,M,M,21.90,K10U 201455Z AUTO 13008KT 10SM CLR M01/M03 A3004 RMK AO2,M
INS,2024-02-20 14:55,-115.6733,36.5872,955.00,49.60,44.00,80.96,270.00,4.00,0.00,30.07,1016.30,10.00,M,SCT,BKN,OVC,M,8000.00,12000.00,14000.00,M,M,M,M,M,M,M,M,47.97,KINS 201455Z AUTO 27004KT 10SM SCT080 BKN120 OVC140 10/07 A3007 RMK AO2 SLP163 T00980067 52012,M
BVU,2024-02-20 14:55,-114.8611,35.9475,671.00,57.20,41.00,54.60,250.00,3.00,0.00,30.08,M,10.00,M,BKN,M,M,M,8000.00,M,M,M,M,M,M,M,M,M,M,57.20,KBVU 201455Z AUTO 25003KT 10SM BKN080 14/05 A3008 RMK AO2,M
CXP,2024-02-20 14:55,-119.7326,39.1923,1431.00,33.80,28.40,80.36,170.00,4.00,0.00,30.04,M,10.00,M,SCT,M,M,M,6000.00,M,M,M,M,M,M,M,M,M,M,29.52,KCXP 201455Z AUTO 17004KT 10SM SCT060 01/M02 A3004 RMK AO2,M
RNO,2024-02-20 14:55,-119.7711,39.4839,1341.00,36.00,29.00,75.46,330.00,3.00,0.00,30.01,1015.70,10.00,M,SCT,M,M,M,5000.00,M,M,M,M,M,M,M,M,M,M,33.26,KRNO 201455Z 33003KT 10SM SCT050 02/M02 A3001 RMK AO2 SLP157 T00221017 53006,M
LSV,2024-02-20 14:55,-115.0343,36.2362,570.00,57.00,47.00,69.16,20.00,4.00,T,30.04,1016.30,10.00,M,CLR,M,M,M,M,M,M,M,M,M,M,M,M,M,M,57.00,KLSV 201455Z AUTO 02004KT 10SM CLR 14/08 A3004 RMK AO2 RAB10E21 SLP163 P0000 60000 T01380084 53010 $,M
RTS,2024-02-20 14:55,-119.8764,39.6682,1539.00,37.40,24.80,60.04,200.00,8.00,0.00,30.01,M,10.00,M,SCT,BKN,M,M,5000.00,6000.00,M,M,M,M,M,M,M,M,M,30.76,KRTS 201455Z AUTO 20008KT 10SM SCT050 BKN060 03/M04 A3001 RMK AO2,M
05U,2024-02-20 14:55,-116.0051,39.6042,1811.23,28.40,28.40,100.00,0.00,0.00,0.00,30.10,M,10.00,M,M,M,M,M,M,M,M,M,M,M,M,M,M,M,M,28.40,K05U 201455Z AUTO 00000KT 10SM M02/M02 A3010 RMK A01,M
MEV,2024-02-20 14:55,-119.7500,38.9963,1441.42,32.00,28.40,86.39,0.00,0.00,0.00,30.03,M,10.00,M,CLR,M,M,M,M,M,M,M,M,M,M,M,M,M,M,32.00,KMEV 201455Z AUTO 00000KT 10SM CLR M00/M02 A3003 RMK AO2,M
BAM,2024-02-20 14:55,-116.8743,40.5990,1382.36,32.00,30.20,92.97,0.00,0.00,0.00,30.05,M,10.00,M,CLR,M,M,M,M,M,M,M,M,M,M,M,M,M,M,32.00,KBAM 201455Z AUTO 00000KT 10SM CLR 00/M01 A3005 RMK AO1,M
HTH,2024-02-20 14:55,-118.6315,38.5448,1282.89,42.80,19.40,38.75,M,5.00,0.00,30.04,M,10.00,17.00,CLR,M,M,M,M,M,M,M,M,M,M,M,M,M,M,39.22,KHTH 201455Z AUTO VRB05G17KT 10SM CLR 06/M07 A3004 RMK A01,M
EKO,2024-02-20 14:56,-115.7860,40.8242,1367.00,34.00,32.00,92.29,0.00,0.00,0.00,30.08,1019.60,10.00,M,OVC,M,M,M,1000.00,M,M,M,M,M,M,M,M,M,M,34.00,KEKO 201456Z AUTO 00000KT 10SM OVC010 01/00 A3008 RMK AO2 SLP196 T00110000 53009,M
WMC,2024-02-20 14:56,-117.8072,40.9019,1315.00,26.00,21.00,81.09,130.00,5.00,0.00,30.04,1017.70,10.00,M,CLR,M,M,M,M,M,M,M,M,M,M,M,M,M,M,19.27,KWMC 201456Z AUTO 13005KT 10SM CLR M03/M06 A3004 RMK AO2 SLP177 T10331061 53013 $,M
NFL,2024-02-20 14:56,-118.7010,39.4166,1199.00,28.00,25.00,88.33,10.00,3.00,0.00,30.03,1014.00,10.00,M,FEW,SCT,M,M,5000.00,12000.00,M,M,M,M,M,M,M,M,M,24.12,KNFL 201456Z 01003KT 10SM FEW050 SCT120 M02/M04 A3003 RMK AO2 SLP140 T10221039 53010,M
HND,2024-02-20 14:56,-115.1344,35.9729,742.79,56.00,46.00,69.05,230.00,6.00,T,30.09,1019.60,10.00,M,OVC,M,M,M,11000.00,M,M,M,M,M,M,M,M,M,M,56.00,KHND 201456Z 23006KT 10SM OVC110 13/08 A3009 RMK AO2 RAB14E28 SLP196 P0000 60000 T01330078 51012,M
TPH,2024-02-20 14:56,-117.0904,38.0505,1654.00,35.00,34.00,96.09,0.00,0.00,T,30.07,1017.40,10.00,M,SCT,BKN,OVC,M,2600.00,3500.00,5000.00,M,M,M,M,M,M,M,M,35.00,KTPH 201456Z AUTO 00000KT 10SM SCT026 BKN035 OVC050 02/01 A3007 RMK AO2 RAB46E56 SLP174 P0000 60000 T00170011 53006,M
LAS,2024-02-20 14:56,-115.1634,36.0719,663.00,57.00,47.00,69.16,210.00,4.00,T,30.07,1017.30,10.00,M,FEW,SCT,OVC,M,5500.00,7000.00,9000.00,M,M,M,M,M,M,M,M,57.00,KLAS 201456Z 21004KT 10SM FEW055 SCT070 OVC090 14/08 A3007 RMK AO2 RAB05E18 SLP173 P0000 60000 T01390083 53013,M
LSV,2024-02-20 14:58,-115.0343,36.2362,570.00,57.20,46.40,67.12,30.00,4.00,0.00,30.04,1016.30,10.00,M,CLR,M,M,M,M,M,M,M,-RA,M,M,M,M,M,M,57.20,KLSV 201458Z AUTO 03004KT 10SM -RA CLR 14/08 A3004 RMK AO2 RAB58 SLP163 $,M
LSV,2024-02-20 14:59,-115.0343,36.2362,570.00,57.20,46.40,67.12,30.00,4.00,0.00,30.04,1016.30,10.00,M,FEW,M,M,M,7000.00,M,M,M,M,M,M,M,M,M,M,57.20,KLSV 201459Z AUTO 03004KT 10SM FEW070 14/08 A3004 RMK AO2 RAB58E59 SLP163 $,M
BVU,2024-02-20 15:15,-114.8611,35.9475,671.00,57.20,42.80,58.52,0.00,0.00,0.00,30.09,M,10.00,M,FEW,SCT,SCT,M,5000.00,7500.00,9000.00,M,M,M,M,M,M,M,M,57.20,KBVU 201515Z AUTO 00000KT 10SM FEW050 SCT075 SCT090 14/06 A3009 RMK AO2,M
CXP,2024-02-20 15:15,-119.7326,39.1923,1431.00,33.80,30.20,86.49,0.00,0.00,0.00,30.04,M,10.00,M,FEW,M,M,M,6000.00,M,M,M,M,M,M,M,M,M,M,33.80,KCXP 201515Z AUTO 00000KT 10SM FEW060 01/M01 A3004 RMK AO2,M
RTS,2024-02-20 15:15,-119.8764,39.6682,1539.00,35.60,26.60,69.46,300.00,3.00,0.00,30.03,M,10.00,M,BKN,M,M,M,5500.00,M,M,M,M,M,M,M,M,M,M,32.80,KRTS 201515Z AUTO 30003KT 10SM BKN055 02/M03 A3003 RMK AO2,M
05U,2024-02-20 15:15,-116.0051,39.6042,1811.23,32.00,30.20,92.97,0.00,0.00,0.00,30.11,M,10.00,M,M,M,M,M,M,M,M,M,M,M,M,M,M,M,M,32.00,K05U 201515Z AUTO 00000KT 10SM M00/M01 A3011 RMK A01,M
MEV,2024-02-20 15:15,-119.7500,38.9963,1441.42,32.00,28.40,86.39,0.00,0.00,0.00,30.03,M,10.00,M,CLR,M,M,M,M,M,M,M,M,M,M,M,M,M,M,32.00,KMEV 201515Z AUTO 00000KT 10SM CLR M00/M02 A3003 RMK AO2,M
BAM,2024-02-20 15:15,-116.8743,40.5990,1382.36,32.00,32.00,100.00,0.00,0.00,0.00,30.06,M,10.00,M,CLR,M,M,M,M,M,M,M,M,M,M,M,M,M,M,32.00,KBAM 201515Z AUTO 00000KT 10SM CLR 00/00 A3006 RMK AO1,M
HTH,2024-02-20 15:15,-118.6315,38.5448,1282.89,37.40,23.00,55.68,50.00,6.00,0.00,30.04,M,10.00,M,CLR,M,M,M,M,M,M,M,M,M,M,M,M,M,M,32.03,KHTH 201515Z AUTO 05006KT 10SM CLR 03/M05 A3004 RMK A01,M
10U,2024-02-20 15:15,-116.1876,41.9532,1637.00,32.00,28.40,86.39,130.00,5.00,0.00,30.05,M,10.00,M,CLR,M,M,M,M,M,M,M,M,M,M,M,M,M,M,26.40,K10U 201515Z AUTO 13005KT 10SM CLR 00/M02 A3005 RMK AO2,M
TMT,2024-02-20 15:15,-117.1971,39.4643,1749.34,25.30,24.40,96.32,0.00,0.00,0.00,30.09,M,10.00,M,CLR,M,M,M,M,M,M,M,M,M,M,M,M,M,M,25.30,KTMT 201515Z AUTO 00000KT 10SM CLR M04/M04 A3009 RMK AO2 T10371042,M
TPH,2024-02-20 15:19,-117.0904,38.0505,1654.00,35.00,34.00,96.09,340.00,3.00,T,30.08,M,9.00,M,SCT,BKN,OVC,M,1700.00,2400.00,5000.00,M,-RA,M,M,M,M,M,M,32.12,KTPH 201519Z AUTO 34003KT 9SM -RA SCT017 BKN024 OVC050 02/01 A3008 RMK AO2 RAB01 P0000 T00170011,M
BVU,2024-02-20 15:35,-114.8611,35.9475,671.00,57.20,42.80,58.52,140.00,5.00,0.00,30.10,M,10.00,M,FEW,FEW,SCT,M,4900.00,5500.00,7000.00,M,M,M,M,M,M,M,M,57.20,KBVU 201535Z AUTO 14005KT 10SM FEW049 FEW055 SCT070 14/06 A3010 RMK AO2,M
CXP,2024-02-20 15:35,-119.7326,39.1923,1431.00,35.60,30.20,80.51,0.00,0.00,0.00,30.05,M,10.00,M,CLR,M,M,M,M,M,M,M,M,M,M,M,M,M,M,35.60,KCXP 201535Z AUTO 00000KT 10SM CLR 02/M01 A3005 RMK AO2,M
RTS,2024-02-20 15:35,-119.8764,39.6682,1539.00,37.40,28.40,69.67,340.00,7.00,0.00,30.03,M,10.00,M,BKN,M,M,M,5000.00,M,M,M,M,M,M,M,M,M,M,31.36,KRTS 201535Z AUTO 34007KT 10SM BKN050 03/M02 A3003 RMK AO2,M
05U,2024-02-20 15:35,-116.0051,39.6042,1811.23,33.80,32.00,93.03,0.00,0.00,0.00,30.11,M,10.00,M,M,M,M,M,M,M,M,M,M,M,M,M,M,M,M,33.80,K05U 201535Z AUTO 00000KT 10SM 01/00 A3011 RMK A01,M
BAM,2024-02-20 15:35,-116.8743,40.5990,1382.36,33.80,32.00,93.03,140.00,3.00,0.00,30.07,M,10.00,M,CLR,M,M,M,M,M,M,M,M,M,M,M,M,M,M,30.75,KBAM 201535Z AUTO 14003KT 10SM CLR 01/00 A3007 RMK AO1,M
HTH,2024-02-20 15:35,-118.6315,38.5448,1282.89,39.20,21.20,48.10,140.00,4.00,0.00,30.05,M,10.00,M,CLR,M,M,M,M,M,M,M,M,M,M,M,M,M,M,35.83,KHTH 201535Z AUTO 14004KT 10SM CLR 04/M06 A3005 RMK A01,M
10U,2024-02-20 15:35,-116.1876,41.9532,1637.00,33.80,28.40,80.36,120.00,10.00,0.00,30.05,M,10.00,M,CLR,M,M,M,M,M,M,M,M,M,M,M,M,M,M,25.23,K10U 201535Z AUTO 12010KT 10SM CLR 01/M02 A3005 RMK AO2,M
TMT,2024-02-20 15:35,-117.1971,39.4643,1749.34,26.40,25.00,94.36,140.00,5.00,0.00,30.09,M,10.00,M,CLR,M,M,M,M,M,M,M,M,M,M,M,M,M,M,19.74,KTMT 201535Z AUTO 14005KT 10SM CLR M03/M04 A3009 RMK AO2 T10311039,M
05U,2024-02-20 15:50,-116.0051,39.6042,1811.23,35.60,33.80,93.08,0.00,0.00,0.00,30.11,M,10.00,M,M,M,M,M,M,M,M,M,M,M,M,M,M,M,M,35.60,K05U 201550Z AUTO 00000KT 10SM 02/01 A3011 RMK A01,M
P68,2024-02-20 15:53,-116.0056,39.6014,1993.00,35.00,32.00,88.68,0.00,0.00,0.00,30.09,1018.20,M,M,M,M,M,M,M,M,M,M,M,M,M,M,M,M,M,35.00,KP68 201553Z AUTO 00000KT 02/00 A3009 RMK AO1 SLP182 T00170000,M
DRA,2024-02-20 15:53,-116.0278,36.6206,1009.00,53.00,44.00,71.39,220.00,9.00,T,30.08,1016.40,10.00,M,SCT,OVC,M,M,4000.00,6500.00,M,M,M,M,M,M,M,M,M,53.00,KDRA 201553Z AUTO 22009KT 10SM SCT040 OVC065 12/07 A3008 RMK AO2 RAB40E49 SLP164 P0000 T01170067,M
ELY,2024-02-20 15:53,-114.8453,39.2950,1909.00,38.00,32.00,78.77,190.00,7.00,0.00,30.11,1017.50,10.00,M,BKN,OVC,M,M,4200.00,7000.00,M,M,M,M,M,M,M,M,M,32.09,KELY 201553Z AUTO 19007KT 10SM BKN042 OVC070 03/00 A3011 RMK AO2 SLP175 T00330000,M
VGT,2024-02-20 15:53,-115.1933,36.2111,667.00,56.00,48.00,74.45,40.00,5.00,0.02,30.10,1020.30,6.00,M,FEW,OVC,M,M,4800.00,6500.00,M,M,-RA,M,M,M,M,M,M,56.00,KVGT 201553Z 04005KT 6SM -RA FEW048 OVC065 13/09 A3010 RMK AO2 RAB15 SLP203 P0002 T01330089,M
LOL,2024-02-20 15:53,-118.5701,40.0684,1192.43,32.00,30.00,92.22,330.00,3.00,0.00,30.05,1018.80,10.00,M,CLR,M,M,M,M,M,M,M,M,M,M,M,M,M,M,28.69,KLOL 201553Z AUTO 33003KT 10SM CLR 00/M01 A3005 RMK AO2 SLP188 T00001011,M
BVU,2024-02-20 15:55,-114.8611,35.9475,671.00,57.20,44.60,62.69,90.00,4.00,0.00,30.10,M,10.00,M,FEW,M,M,M,7000.00,M,M,M,M,M,M,M,M,M,M,57.20,KBVU 201555Z AUTO 09004KT 10SM FEW070 14/07 A3010 RMK AO2,M
CXP,2024-02-20 15:55,-119.7326,39.1923,1431.00,37.40,28.40,69.67,0.00,0.00,0.00,30.05,M,10.00,M,FEW,M,M,M,5500.00,M,M,M,M,M,M,M,M,M,M,37.40,KCXP 201555Z AUTO 00000KT 10SM FEW055 03/M02 A3005 RMK AO2,M
RNO,2024-02-20 15:55,-119.7711,39.4839,1341.00,39.00,32.00,75.75,40.00,5.00,0.00,30.04,1016.40,10.00,M,FEW,M,M,M,5000.00,M,M,M,M,M,M,M,M,M,M,34.71,KRNO 201555Z 04005KT 10SM FEW050 04/00 A3004 RMK AO2 SLP164 T00390000,M
RTS,2024-02-20 15:55,-119.8764,39.6682,1539.00,39.20,26.60,60.29,120.00,5.00,0.00,30.04,M,10.00,12.00,FEW,SCT,M,M,5000.00,6000.00,M,M,M,M,M,M,M,M,M,34.95,KRTS 201555Z AUTO 12005G12KT 10SM FEW050 SCT060 04/M03 A3004 RMK AO2,M
MEV,2024-02-20 15:55,-119.7500,38.9963,1441.42,35.60,32.00,86.59,0.00,0.00,0.00,30.04,M,10.00,M,CLR,M,M,M,M,M,M,M,M,M,M,M,M,M,M,35.60,KMEV 201555Z AUTO 00000KT 10SM CLR 02/M00 A3004 RMK AO2,M
BAM,2024-02-20 15:55,-116.8743,40.5990,1382.36,33.80,32.00,93.03,120.00,4.00,0.00,30.08,M,10.00,M,CLR,M,M,M,M,M,M,M,M,M,M,M,M,M,M,29.52,KBAM 201555Z AUTO 12004KT 10SM CLR 01/00 A3008 RMK AO1,M
HTH,2024-02-20 15:55,-118.6315,38.5448,1282.89,42.80,21.20,41.84,160.00,8.00,0.00,30.04,M,10.00,M,CLR,M,M,M,M,M,M,M,M,M,M,M,M,M,M,37.42,KHTH 201555Z AUTO 16008KT 10SM CLR 06/M06 A3004 RMK A01,M
TMT,2024-02-20 15:55,-117.1971,39.4643,1749.34,29.70,28.20,94.05,0.00,0.00,0.00,30.10,M,10.00,M,CLR,M,M,M,M,M,M,M,M,M,M,M,M,M,M,29.70,KTMT 201555Z AUTO 00000KT 10SM CLR M01/M02 A3010 RMK AO2 T10131021,M
10U,2024-02-20 15:55,-116.1876,41.9532,1637.00,35.60,28.40,74.80,120.00,9.00,0.00,30.06,M,10.00,M,CLR,M,M,M,M,M,M,M,M,M,M,M,M,M,M,27.99,K10U 201555Z AUTO 12009KT 10SM CLR 02/M02 A3006 RMK AO2,M
INS,2024-02-20 15:55,-115.6733,36.5872,955.00,50.70,45.70,82.91,0.00,0.00,0.00,30.09,1017.00,10.00,M,FEW,OVC,M,M,6000.00,8000.00,M,M,M,M,M,M,M,M,M,50.70,KINS 201555Z AUTO 00000KT 10SM FEW060 OVC080 10/08 A3009 RMK AO2 SLP170 T01040076,M
LSV,2024-02-20 15:55,-115.0343,36.2362,570.00,58.00,46.60,65.71,20.00,5.00,T,30.09,1018.00,10.00,M,BKN,M,M,M,7000.00,M,M,M,M,M,M,M,M,M,M,58.00,KLSV 201555Z AUTO 02005KT 10SM BKN070 14/08 A3009 RMK AO2 RAB1458E1459 SLP180 P0000 T01440081 $,M
EKO,2024-02-20 15:56,-115.7860,40.8242,1367.00,35.00,33.00,92.32,0.00,0.00,0.00,30.10,1020.20,10.00,M,OVC,M,M,M,1300.00,M,M,M,M,M,M,M,M,M,M,35.00,KEKO 201556Z AUTO 00000KT 10SM OVC013 02/01 A3010 RMK AO2 SLP202 T00170006,M
WMC,2024-02-20 15:56,-117.8072,40.9019,1315.00,36.00,27.00,69.51,170.00,5.00,0.00,30.06,1018.10,10.00,M,CLR,M,M,M,M,M,M,M,M,M,M,M,M,M,M,31.15,KWMC 201556Z AUTO 17005KT 10SM CLR 02/M03 A3006 RMK AO2 SLP181 T00221028 $,M
HND,2024-02-20 15:56,-115.1344,35.9729,742.79,56.00,47.00,71.70,230.00,8.00,T,30.13,1021.30,10.00,M,BKN,OVC,M,M,8000.00,10000.00,M,M,M,M,M,M,M,M,M,56.00,KHND 201556Z 23008KT 10SM BKN080 OVC100 13/08 A3013 RMK AO2 RAB19E33 SLP213 P0000 T01330083,M
TPH,2024-02-20 15:56,-117.0904,38.0505,1654.00,38.00,37.00,96.14,0.00,0.00,T,30.09,1018.00,8.00,M,SCT,BKN,OVC,M,1600.00,2600.00,3300.00,M,-RA,M,M,M,M,M,M,38.00,KTPH 201556Z AUTO 00000KT 8SM -RA SCT016 BKN026 OVC033 03/03 A3009 RMK AO2 RAB01 SLP180 P0000 T00330028,M
LAS,2024-02-20 15:56,-115.1634,36.0719,663.00,58.00,47.00,66.71,210.00,3.00,T,30.12,1018.90,10.00,M,BKN,OVC,M,M,6500.00,8000.00,M,M,-RA,M,M,M,M,M,M,58.00,KLAS 201556Z 21003KT 10SM -RA BKN065 OVC080 14/08 A3012 RMK AO2 RAB52 SLP189 P0000 T01440083,M
NFL,2024-02-20 15:56,-118.7010,39.4166,1199.00,36.00,28.00,72.43,0.00,0.00,0.00,30.05,1014.40,10.00,M,CLR,M,M,M,M,M,M,M,M,M,M,M,M,M,M,36.00,KNFL 201556Z 00000KT 10SM CLR 02/M02 A3005 RMK AO2 SLP144 T00221022,M
LSV,2024-02-20 16:00,-115.0343,36.2362,570.00,57.20,48.20,71.83,40.00,4.00,0.00,30.09,1018.00,10.00,M,SCT,M,M,M,7000.00,M,M,M,-RA,M,M,M,M,M,M,57.20,KLSV 201600Z AUTO 04004KT 10SM -RA SCT070 14/09 A3009 RMK AO2 RAB00 SLP180 $,M
TPH,2024-02-20 16:14,-117.0904,38.0505,1654.00,38.00,37.00,96.14,0.00,0.00,T,30.08,M,10.00,M,BKN,BKN,OVC,M,1300.00,1800.00,3400.00,M,-RA,M,M,M,M,M,M,38.00,KTPH 201614Z AUTO 00000KT 10SM -RA BKN013 BKN018 OVC034 03/03 A3008 RMK AO2 P0000 T00330028,M
BVU,2024-02-20 16:15,-114.8611,35.9475,671.00,59.00,44.60,58.77,70.00,5.00,0.00,30.11,M,10.00,M,SCT,M,M,M,7500.00,M,M,M,M,M,M,M,M,M,M,59.00,KBVU 201615Z AUTO 07005KT 10SM SCT075 15/07 A3011 RMK AO2,M
CXP,2024-02-20 16:15,-119.7326,39.1923,1431.00,39.20,30.20,69.88,10.00,3.00,0.00,30.06,M,10.00,M,CLR,M,M,M,M,M,M,M,M,M,M,M,M,M,M,36.92,KCXP 201615Z AUTO 01003KT 10SM CLR 04/M01 A3006 RMK AO2,M
RTS,2024-02-20 16:15,-119.8764,39.6682,1539.00,41.00,26.60,56.22,110.00,9.00,0.00,30.05,M,10.00,M,CLR,M,M,M,M,M,M,M,M,M,M,M,M,M,M,34.70,KRTS 201615Z AUTO 11009KT 10SM CLR 05/M03 A3005 RMK AO2,M
05U,2024-02-20 16:15,-116.0051,39.6042,1811.23,39.20,35.60,86.79,0.00,0.00,0.00,30.12,M,10.00,M,M,M,M,M,M,M,M,M,M,M,M,M,M,M,M,39.20,K05U 201615Z AUTO 00000KT 10SM 04/02 A3012 RMK A01,M
MEV,2024-02-20 16:15,-119.7500,38.9963,1441.42,37.40,32.00,80.65,0.00,0.00,0.00,30.05,M,10.00,M,CLR,M,M,M,M,M,M,M,M,M,M,M,M,M,M,37.40,KMEV 201615Z AUTO 00000KT 10SM CLR 03/00 A3005 RMK AO2,M
BAM,2024-02-20 16:15,-116.8743,40.5990,1382.36,35.60,32.00,86.59,0.00,0.00,0.00,30.08,M,10.00,M,CLR,M,M,M,M,M,M,M,M,M,M,M,M,M,M,35.60,KBAM 201615Z AUTO 00000KT 10SM CLR 02/00 A3008 RMK AO1,M
HTH,2024-02-20 16:15,-118.6315,38.5448,1282.89,44.60,23.00,42.14,140.00,10.00,0.00,30.05,M,10.00,M,CLR,M,M,M,M,M,M,M,M,M,M,M,M,M,M,38.77,KHTH 201615Z AUTO 14010KT 10SM CLR 07/M05 A3005 RMK A01,M
10U,2024-02-20 16:15,-116.1876,41.9532,1637.00,37.40,30.20,74.98,120.00,9.00,0.00,30.07,M,10.00,M,CLR,M,M,M,M,M,M,M,M,M,M,M,M,M,M,30.23,K10U 201615Z AUTO 12009KT 10SM CLR 03/M01 A3007 RMK AO2,M
TMT,2024-02-20 16:15,-117.1971,39.4643,1749.34,32.00,29.30,89.63,0.00,0.00,0.00,30.10,M,10.00,M,CLR,M,M,M,M,M,M,M,M,M,M,M,M,M,M,32.00,KTMT 201615Z AUTO 00000KT 10SM CLR 00/M01 A3010 RMK AO2 T10011015,M
LSV,2024-02-20 16:22,-115.0343,36.2362,570.00,57.20,48.20,71.83,50.00,5.00,0.00,30.09,1018.00,10.00,M,CLR,M,M,M,M,M,M,M,M,M,M,M,M,M,M,57.20,KLSV 201622Z AUTO 05005KT 10SM CLR 14/09 A3009 RMK AO2 RAB00E22 SLP180 $,M
TPH,2024-02-20 16:33,-117.0904,38.0505,1654.00,40.00,38.00,92.49,0.00,0.00,T,30.08,M,10.00,M,BKN,OVC,M,M,800.00,1200.00,M,M,-RA,M,M,M,M,M,M,40.00,KTPH 201633Z AUTO 00000KT 10SM -RA BKN008 OVC012 04/03 A3008 RMK AO2 CIG 006V011 P0000 T00440033,M
BVU,2024-02-20 16:35,-114.8611,35.9475,671.00,59.00,42.80,54.86,60.00,6.00,0.00,30.11,M,10.00,M,SCT,M,M,M,7500.00,M,M,M,M,M,M,M,M,M,M,59.00,KBVU 201635Z AUTO 06006KT 10SM SCT075 15/06 A3011 RMK AO2,M
CXP,2024-02-20 16:35,-119.7326,39.1923,1431.00,41.00,28.40,60.54,0.00,0.00,0.00,30.06,M,10.00,M,CLR,M,M,M,M,M,M,M,M,M,M,M,M,M,M,41.00,KCXP 201635Z AUTO 00000KT 10SM CLR 05/M02 A3006 RMK AO2,M
RTS,2024-02-20 16:35,-119.8764,39.6682,1539.00,41.00,23.00,48.39,180.00,9.00,0.00,30.05,M,10.00,16.00,CLR,M,M,M,M,M,M,M,M,M,M,M,M,M,M,34.70,KRTS 201635Z AUTO 18009G16KT 140V230 10SM CLR 05/M05 A3005 RMK AO2,M
05U,2024-02-20 16:35,-116.0051,39.6042,1811.23,41.00,35.60,80.93,0.00,0.00,0.00,30.12,M,10.00,M,M,M,M,M,M,M,M,M,M,M,M,M,M,M,M,41.00,K05U 201635Z AUTO 00000KT 10SM 05/02 A3012 RMK A01,M
MEV,2024-02-20 16:35,-119.7500,38.9963,1441.42,37.40,32.00,80.65,0.00,0.00,0.00,30.05,M,10.00,M,CLR,M,M,M,M,M,M,M,M,M,M,M,M,M,M,37.40,KMEV 201635Z AUTO 00000KT 10SM CLR 03/00 A3005 RMK AO2,M
BAM,2024-02-20 16:35,-116.8743,40.5990,1382.36,37.40,33.80,86.69,0.00,0.00,0.00,30.08,M,10.00,M,CLR,M,M,M,M,M,M,M,M,M,M,M,M,M,M,37.40,KBAM 201635Z AUTO 00000KT 10SM CLR 03/01 A3008 RMK AO1,M
HTH,2024-02-20 16:35,-118.6315,38.5448,1282.89,46.40,19.40,33.79,180.00,6.00,0.00,30.06,M,10.00,M,CLR,M,M,M,M,M,M,M,M,M,M,M,M,M,M,42.87,KHTH 201635Z AUTO 18006KT 10SM CLR 08/M07 A3006 RMK A01,M
10U,2024-02-20 16:35,-116.1876,41.9532,1637.00,39.20,28.40,64.93,120.00,5.00,0.00,30.07,M,10.00,M,CLR,M,M,M,M,M,M,M,M,M,M,M,M,M,M,34.95,K10U 201635Z AUTO 12005KT 10SM CLR 04/M02 A3007 RMK AO2,M
TMT,2024-02-20 16:35,-117.1971,39.4643,1749.34,33.00,30.60,90.77,0.00,0.00,0.00,30.09,M,10.00,M,CLR,M,M,M,M,M,M,M,M,M,M,M,M,M,M,33.00,KTMT 201635Z AUTO 00000KT 10SM CLR 01/M01 A3009 RMK AO2 T00051008,M
EKO,2024-02-20 16:38,-115.7860,40.8242,1367.00,36.00,34.00,92.35,0.00,0.00,0.00,30.10,M,10.00,M,FEW,OVC,M,M,600.00,1400.00,M,M,M,M,M,M,M,M,M,36.00,KEKO 201638Z AUTO 00000KT 10SM FEW006 OVC014 02/01 A3010 RMK AO2 T00220011,M
TPH,2024-02-20 16:44,-117.0904,38.0505,1654.00,40.00,38.00,92.49,0.00,0.00,T,30.09,M,10.00,M,OVC,M,M,M,1000.00,M,M,M,M,M,M,M,M,M,M,40.00,KTPH 201644Z AUTO 00000KT 10SM OVC010 04/03 A3009 RMK AO2 RAE34 CIG 006V013 P0000 T00440033,M
TPH,2024-02-20 16:51,-117.0904,38.0505,1654.00,39.20,37.40,93.19,290.00,4.00,T,30.09,M,10.00,M,BKN,OVC,M,M,700.00,1100.00,M,M,M,M,M,M,M,M,M,35.83,KTPH 201651Z AUTO 29004KT 10SM BKN007 OVC011 04/03 A3009 RMK AO2 RAE34 P0000,M
P68,2024-02-20 16:53,-116.0056,39.6014,1993.00,41.00,34.00,75.94,140.00,5.00,0.00,30.09,1017.30,M,M,M,M,M,M,M,M,M,M,M,M,M,M,M,M,M,37.08,KP68 201653Z AUTO 14005KT 05/01 A3009 RMK AO1 SLP173 T00500011,M
DRA,2024-02-20 16:53,-116.0278,36.6206,1009.00,54.00,45.00,71.50,220.00,10.00,0.00,30.09,1016.70,10.00,M,FEW,FEW,M,M,4200.00,5500.00,M,M,M,M,M,M,M,M,M,54.00,KDRA 201653Z AUTO 22010KT 10SM FEW042 FEW055 12/07 A3009 RMK AO2 SLP167 T01220072,M
ELY,2024-02-20 16:53,-114.8453,39.2950,1909.00,41.00,33.00,72.96,220.00,11.00,0.00,30.11,1017.20,10.00,15.00,BKN,OVC,M,M,4200.00,8000.00,M,M,M,M,M,M,M,M,M,33.84,KELY 201653Z AUTO 22011G15KT 10SM BKN042 OVC080 05/01 A3011 RMK AO2 SLP172 T00500006,M
VGT,2024-02-20 16:53,-115.1933,36.2111,667.00,56.00,48.00,74.45,50.00,5.00,T,30.11,1020.50,10.00,M,BKN,OVC,M,M,7500.00,9000.00,M,M,M,M,M,M,M,M,M,56.00,KVGT 201653Z 05005KT 10SM BKN075 OVC090 13/09 A3011 RMK AO2 RAE53 SLP205 P0000 T01330089,M
LOL,2024-02-20 16:53,-118.5701,40.0684,1192.43,37.00,32.00,81.93,0.00,0.00,0.00,30.07,1019.20,10.00,M,CLR,M,M,M,M,M,M,M,M,M,M,M,M,M,M,37.00,KLOL 201653Z AUTO 00000KT 10SM CLR 03/00 A3007 RMK AO2 SLP192 T00280000,M
BVU,2024-02-20 16:55,-114.8611,35.9475,671.00,59.00,44.60,58.77,80.00,6.00,0.00,30.12,M,10.00,M,SCT,SCT,M,M,6000.00,7500.00,M,M,-RA,M,M,M,M,M,M,59.00,KBVU 201655Z AUTO 08006KT 10SM -RA SCT060 SCT075 15/07 A3012 RMK AO2,M
CXP,2024-02-20 16:55,-119.7326,39.1923,1431.00,41.00,30.20,65.16,0.00,0.00,0.00,30.07,M,10.00,M,CLR,M,M,M,M,M,M,M,M,M,M,M,M,M,M,41.00,KCXP 201655Z AUTO 00000KT 10SM CLR 05/M01 A3007 RMK AO2,M
RNO,2024-02-20 16:55,-119.7711,39.4839,1341.00,43.00,31.00,62.31,0.00,0.00,0.00,30.04,1016.70,10.00,M,FEW,M,M,M,5000.00,M,M,M,M,M,M,M,M,M,M,43.00,KRNO 201655Z 00000KT 10SM FEW050 06/M01 A3004 RMK AO2 SLP167 T00611006,M
RTS,2024-02-20 16:55,-119.8764,39.6682,1539.00,41.00,21.20,44.85,210.00,9.00,0.00,30.05,M,10.00,16.00,CLR,M,M,M,M,M,M,M,M,M,M,M,M,M,M,34.70,KRTS 201655Z AUTO 21009G16KT 10SM CLR 05/M06 A3005 RMK AO2,M
05U,2024-02-20 16:55,-116.0051,39.6042,1811.23,42.80,35.60,75.50,300.00,5.00,0.00,30.12,M,10.00,M,M,M,M,M,M,M,M,M,M,M,M,M,M,M,M,39.22,K05U 201655Z AUTO 30005KT 10SM 06/02 A3012 RMK A01,M
MEV,2024-02-20 16:55,-119.7500,38.9963,1441.42,41.00,32.00,70.08,M,3.00,0.00,30.05,M,10.00,M,CLR,M,M,M,M,M,M,M,M,M,M,M,M,M,M,38.98,KMEV 201655Z AUTO VRB03KT 10SM CLR 05/M00 A3005 RMK AO2,M
BAM,2024-02-20 16:55,-116.8743,40.5990,1382.36,41.00,33.80,75.33,0.00,0.00,0.00,30.08,M,10.00,M,CLR,M,M,M,M,M,M,M,M,M,M,M,M,M,M,41.00,KBAM 201655Z AUTO 00000KT 10SM CLR 05/01 A3008 RMK AO1,M
HTH,2024-02-20 16:55,-118.6315,38.5448,1282.89,48.20,19.40,31.57,170.00,4.00,0.00,30.06,M,10.00,M,CLR,M,M,M,M,M,M,M,M,M,M,M,M,M,M,46.34,KHTH 201655Z AUTO 17004KT 10SM CLR 09/M07 A3006 RMK A01,M
TMT,2024-02-20 16:55,-117.1971,39.4643,1749.34,33.80,30.00,85.79,330.00,4.00,0.00,30.10,M,10.00,M,CLR,M,M,M,M,M,M,M,M,M,M,M,M,M,M,29.52,KTMT 201655Z AUTO 33004KT 10SM CLR 01/M01 A3010 RMK AO2 T00101011,M
10U,2024-02-20 16:55,-116.1876,41.9532,1637.00,41.00,30.20,65.16,M,3.00,0.00,30.08,M,10.00,10.00,CLR,M,M,M,M,M,M,M,M,M,M,M,M,M,M,38.98,K10U 201655Z AUTO VRB03G10KT 10SM CLR 05/M01 A3008 RMK AO2,M
INS,2024-02-20 16:55,-115.6733,36.5872,955.00,53.00,45.00,74.16,360.00,3.00,0.00,30.09,1016.60,10.00,M,SCT,BKN,OVC,M,6000.00,10000.00,14000.00,M,M,M,M,M,M,M,M,53.00,KINS 201655Z AUTO 36003KT 10SM SCT060 BKN100 OVC140 12/07 A3009 RMK AO2 SLP166 T01160073,M
LSV,2024-02-20 16:55,-115.0343,36.2362,570.00,57.60,48.60,71.87,40.00,6.00,0.01,30.09,1018.10,10.00,M,CLR,M,M,M,M,M,M,M,M,M,M,M,M,M,M,57.60,KLSV 201655Z AUTO 04006KT 10SM CLR 14/09 A3009 RMK AO2 RAB00E22 SLP181 P0001 T01420092 $,M
EKO,2024-02-20 16:56,-115.7860,40.8242,1367.00,37.00,33.00,85.29,70.00,3.00,0.00,30.10,1020.20,10.00,M,SCT,OVC,M,M,600.00,1300.00,M,M,M,M,M,M,M,M,M,34.40,KEKO 201656Z AUTO 07003KT 10SM SCT006 OVC013 03/01 A3010 RMK AO2 SLP202 T00280006,M
WMC,2024-02-20 16:56,-117.8072,40.9019,1315.00,43.00,26.00,50.77,0.00,0.00,0.00,30.06,1017.70,10.00,M,CLR,M,M,M,M,M,M,M,M,M,M,M,M,M,M,43.00,KWMC 201656Z AUTO 00000KT 10SM CLR 06/M03 A3006 RMK AO2 SLP177 T00611033,M
NFL,2024-02-20 16:56,-118.7010,39.4166,1199.00,42.00,29.00,59.69,330.00,3.00,0.00,30.06,1014.80,10.00,M,FEW,SCT,M,M,5000.00,12000.00,M,M,M,M,M,M,M,M,M,40.12,KNFL 201656Z 33003KT 10SM FEW050 SCT120 06/M02 A3006 RMK AO2 SLP148 T00561017,M
HND,2024-02-20 16:56,-115.1344,35.9729,742.79,57.00,47.00,69.16,180.00,10.00,T,30.14,1021.60,10.00,M,OVC,M,M,M,7000.00,M,M,M,-RA,M,M,M,M,M,M,57.00,KHND 201656Z 18010KT 10SM -RA OVC070 14/08 A3014 RMK AO2 RAB28 SLP216 P0000 T01390083,M
TPH,2024-02-20 16:56,-117.0904,38.0505,1654.00,39.00,38.00,96.16,310.00,3.00,T,30.09,1018.30,10.00,M,OVC,M,M,M,700.00,M,M,M,M,M,M,M,M,M,M,36.69,KTPH 201656Z AUTO 31003KT 10SM OVC007 04/03 A3009 RMK AO2 RAE34 CIG 005V010 SLP183 P0000 T00390033,M
LAS,2024-02-20 16:56,-115.1634,36.0719,663.00,58.00,48.00,69.27,150.00,3.00,T,30.13,1019.30,10.00,M,FEW,OVC,M,M,5000.00,7500.00,M,M,-RA,M,M,M,M,M,M,58.00,KLAS 201656Z 15003KT 10SM -RA FEW050 OVC075 14/09 A3013 RMK AO2 RAE28B52 SLP193 P0000 T01440089,M
LSV,2024-02-20 17:06,-115.0343,36.2362,570.00,57.20,48.20,71.83,40.00,4.00,0.00,30.10,1018.50,10.00,M,CLR,M,M,M,M,M,M,M,-RA,M,M,M,M,M,M,57.20,KLSV 201706Z AUTO 04004KT 10SM -RA CLR 14/09 A3010 RMK AO2 RAB06 SLP185 $,M
LSV,2024-02-20 17:12,-115.0343,36.2362,570.00,57.20,48.20,71.83,60.00,5.00,0.00,30.10,1018.50,10.00,M,BKN,OVC,M,M,7000.00,11000.00,M,M,M,M,M,M,M,M,M,57.20,KLSV 201712Z COR 06005KT 10SM BKN070 OVC110 14/09 A3010 RMK AO2 RAB06E12 SLP185 $ COR 1724,M
BVU,2024-02-20 17:15,-114.8611,35.9475,671.00,59.00,44.60,58.77,150.00,8.00,0.00,30.13,M,9.00,M,FEW,FEW,SCT,M,3800.00,4600.00,6500.00,M,M,M,M,M,M,M,M,59.00,KBVU 201715Z AUTO 15008KT 9SM FEW038 FEW046 SCT065 15/07 A3013 RMK AO2,M
CXP,2024-02-20 17:15,-119.7326,39.1923,1431.00,41.00,28.40,60.54,0.00,0.00,0.00,30.07,M,10.00,M,CLR,M,M,M,M,M,M,M,M,M,M,M,M,M,M,41.00,KCXP 201715Z AUTO 00000KT 10SM CLR 05/M02 A3007 RMK AO2,M
RTS,2024-02-20 17:15,-119.8764,39.6682,1539.00,42.80,21.20,41.84,210.00,8.00,0.00,30.06,M,10.00,M,CLR,M,M,M,M,M,M,M,M,M,M,M,M,M,M,37.42,KRTS 201715Z AUTO 21008KT 10SM CLR 06/M06 A3006 RMK AO2,M
05U,2024-02-20 17:15,-116.0051,39.6042,1811.23,42.80,33.80,70.28,300.00,4.00,0.00,30.12,M,10.00,M,M,M,M,M,M,M,M,M,M,M,M,M,M,M,M,40.03,K05U 201715Z AUTO 30004KT 10SM 06/01 A3012 RMK A01,M
MEV,2024-02-20 17:15,-119.7500,38.9963,1441.42,42.80,28.40,56.48,170.00,6.00,0.00,30.05,M,10.00,M,CLR,M,M,M,M,M,M,M,M,M,M,M,M,M,M,38.54,KMEV 201715Z AUTO 17006KT 10SM CLR 06/M02 A3005 RMK AO2,M
BAM,2024-02-20 17:15,-116.8743,40.5990,1382.36,42.80,35.60,75.50,70.00,3.00,0.00,30.08,M,10.00,M,CLR,M,M,M,M,M,M,M,M,M,M,M,M,M,M,41.03,KBAM 201715Z AUTO 07003KT 10SM CLR 06/02 A3008 RMK AO1,M
HTH,2024-02-20 17:15,-118.6315,38.5448,1282.89,50.00,15.80,25.28,240.00,9.00,0.00,30.06,M,10.00,15.00,CLR,M,M,M,M,M,M,M,M,M,M,M,M,M,M,50.00,KHTH 201715Z AUTO 24009G15KT 10SM CLR 10/M09 A3006 RMK A01,M
10U,2024-02-20 17:15,-116.1876,41.9532,1637.00,44.60,28.40,52.72,200.00,7.00,0.00,30.08,M,10.00,M,CLR,M,M,M,M,M,M,M,M,M,M,M,M,M,M,40.14,K10U 201715Z AUTO 20007KT 160V220 10SM CLR 07/M02 A3008 RMK AO2,M
TMT,2024-02-20 17:15,-117.1971,39.4643,1749.34,35.80,29.50,77.63,0.00,0.00,0.00,30.10,M,10.00,M,CLR,M,M,M,M,M,M,M,M,M,M,M,M,M,M,35.80,KTMT 201715Z AUTO 00000KT 10SM CLR 02/M01 A3010 RMK AO2 T00211014,M
BVU,2024-02-20 17:35,-114.8611,35.9475,671.00,59.00,44.60,58.77,170.00,5.00,0.00,30.14,M,8.00,11.00,BKN,BKN,BKN,M,4700.00,5500.00,6500.00,M,M,M,M,M,M,M,M,59.00,KBVU 201735Z AUTO 17005G11KT 8SM BKN047 BKN055 BKN065 15/07 A3014 RMK AO2,M
CXP,2024-02-20 17:35,-119.7326,39.1923,1431.00,44.60,28.40,52.72,M,3.00,0.00,30.08,M,10.00,M,CLR,M,M,M,M,M,M,M,M,M,M,M,M,M,M,43.09,KCXP 201735Z AUTO VRB03KT 10SM CLR 07/M02 A3008 RMK AO2,M
RTS,2024-02-20 17:35,-119.8764,39.6682,1539.00,42.80,24.80,48.67,150.00,5.00,0.00,30.06,M,10.00,M,CLR,M,M,M,M,M,M,M,M,M,M,M,M,M,M,39.22,KRTS 201735Z AUTO 15005KT 10SM CLR 06/M04 A3006 RMK AO2,M
05U,2024-02-20 17:35,-116.0051,39.6042,1811.23,44.60,32.00,61.03,0.00,0.00,0.00,30.12,M,10.00,M,M,M,M,M,M,M,M,M,M,M,M,M,M,M,M,44.60,K05U 201735Z AUTO 00000KT 10SM 07/00 A3012 RMK A01,M
MEV,2024-02-20 17:35,-119.7500,38.9963,1441.42,44.60,28.40,52.72,180.00,5.00,0.00,30.06,M,10.00,M,CLR,M,M,M,M,M,M,M,M,M,M,M,M,M,M,41.36,KMEV 201735Z AUTO 18005KT 10SM CLR 07/M02 A3006 RMK AO2,M
BAM,2024-02-20 17:35,-116.8743,40.5990,1382.36,44.60,35.60,70.48,60.00,7.00,0.00,30.08,M,10.00,M,CLR,M,M,M,M,M,M,M,M,M,M,M,M,M,M,40.14,KBAM 201735Z AUTO 06007KT 10SM CLR 07/02 A3008 RMK AO1,M
HTH,2024-02-20 17:35,-118.6315,38.5448,1282.89,51.80,17.60,25.56,240.00,10.00,0.00,30.06,M,10.00,M,CLR,M,M,M,M,M,M,M,M,M,M,M,M,M,M,51.80,KHTH 201735Z AUTO 24010KT 10SM CLR 11/M08 A3006 RMK A01,M
10U,2024-02-20 17:35,-116.1876,41.9532,1637.00,44.60,28.40,52.72,200.00,11.00,0.00,30.07,M,10.00,M,CLR,M,M,M,M,M,M,M,M,M,M,M,M,M,M,38.39,K10U 201735Z AUTO 20011KT 10SM CLR 07/M02 A3007 RMK AO2,M
TMT,2024-02-20 17:35,-117.1971,39.4643,1749.34,38.30,30.60,73.56,0.00,0.00,0.00,30.09,M,10.00,M,CLR,M,M,M,M,M,M,M,M,M,M,M,M,M,M,38.30,KTMT 201735Z AUTO 00000KT 10SM CLR 04/M01 A3009 RMK AO2 T00351008,M
P68,2024-02-20 17:53,-116.0056,39.6014,1993.00,44.00,33.00,65.01,150.00,5.00,0.00,30.09,1016.80,M,M,M,M,M,M,M,M,M,M,M,M,M,M,M,M,M,40.65,KP68 201753Z AUTO 15005KT 07/01 A3009 RMK AO1 SLP168 T00670006 10067 21017 50003,M
DRA,2024-02-20 17:53,-116.0278,36.6206,1009.00,54.00,46.00,74.26,240.00,11.00,0.00,30.11,1017.30,10.00,M,SCT,M,M,M,5500.00,M,M,M,M,M,M,M,M,M,M,54.00,KDRA 201753Z AUTO 24011KT 10SM SCT055 12/08 A3011 RMK AO2 SLP173 60000 T01220078 10122 20100 53013,M
ELY,2024-02-20 17:53,-114.8453,39.2950,1909.00,45.00,32.00,60.11,170.00,12.00,0.00,30.10,1016.40,10.00,M,SCT,OVC,M,M,4500.00,8000.00,M,M,M,M,M,M,M,M,M,38.55,KELY 201753Z AUTO 17012KT 10SM SCT045 OVC080 07/00 A3010 RMK AO2 SLP164 T00720000 10078 20017 50004,M
VGT,2024-02-20 17:53,-115.1933,36.2111,667.00,57.00,49.00,74.55,120.00,5.00,0.01,30.12,1020.90,10.00,M,BKN,OVC,M,M,6500.00,7500.00,M,M,-RA,M,M,M,M,M,M,57.00,KVGT 201753Z 12005KT 10SM -RA BKN065 OVC075 14/09 A3012 RMK AO2 RAB14 SLP209 P0001 60003 T01390094 10156 20133 51018,M
LOL,2024-02-20 17:53,-118.5701,40.0684,1192.43,45.00,34.00,65.13,0.00,0.00,0.00,30.07,1018.80,10.00,M,CLR,M,M,M,M,M,M,M,M,M,M,M,M,M,M,45.00,KLOL 201753Z AUTO 00000KT 10SM CLR 07/01 A3007 RMK AO2 SLP188 T00720011 10072 21044 51007,M
BVU,2024-02-20 17:55,-114.8611,35.9475,671.00,57.20,46.40,67.12,180.00,5.00,0.00,30.15,M,8.00,M,FEW,SCT,BKN,M,3900.00,4800.00,6000.00,M,-RA,M,M,M,M,M,M,57.20,KBVU 201755Z AUTO 18005KT 8SM -RA FEW039 SCT048 BKN060 14/08 A3015 RMK AO2,M
CXP,2024-02-20 17:55,-119.7326,39.1923,1431.00,46.40,28.40,49.24,150.00,6.00,0.00,30.07,M,10.00,M,CLR,M,M,M,M,M,M,M,M,M,M,M,M,M,M,42.87,KCXP 201755Z AUTO 15006KT 10SM CLR 08/M02 A3007 RMK AO2,M
RNO,2024-02-20 17:55,-119.7711,39.4839,1341.00,48.00,29.00,47.52,170.00,4.00,0.00,30.05,1016.40,10.00,M,FEW,M,M,M,5000.00,M,M,M,M,M,M,M,M,M,M,46.10,KRNO 201755Z 17004KT 10SM FEW050 09/M02 A3005 RMK AO2 SLP164 T00891017 10094 20011 51010,M
RTS,2024-02-20 17:55,-119.8764,39.6682,1539.00,42.80,24.80,48.67,160.00,5.00,0.00,30.05,M,10.00,10.00,CLR,M,M,M,M,M,M,M,M,M,M,M,M,M,M,39.22,KRTS 201755Z AUTO 16005G10KT 10SM CLR 06/M04 A3005 RMK AO2,M
05U,2024-02-20 17:55,-116.0051,39.6042,1811.23,46.40,33.80,61.28,300.00,6.00,0.00,30.11,M,10.00,M,M,M,M,M,M,M,M,M,M,M,M,M,M,M,M,42.87,K05U 201755Z AUTO 30006KT 10SM 08/01 A3011 RMK A01,M
MEV,2024-02-20 17:55,-119.7500,38.9963,1441.42,44.60,26.60,48.96,M,4.00,0.00,30.05,M,10.00,M,CLR,M,M,M,M,M,M,M,M,M,M,M,M,M,M,42.13,KMEV 201755Z AUTO VRB04KT 10SM CLR 07/M03 A3005 RMK AO2,M
BAM,2024-02-20 17:55,-116.8743,40.5990,1382.36,44.60,37.40,75.68,60.00,8.00,0.00,30.08,M,10.00,M,CLR,M,M,M,M,M,M,M,M,M,M,M,M,M,M,39.63,KBAM 201755Z AUTO 06008KT 10SM CLR 07/03 A3008 RMK AO1,M
HTH,2024-02-20 17:55,-118.6315,38.5448,1282.89,51.80,17.60,25.56,160.00,7.00,0.00,30.06,M,10.00,M,CLR,M,M,M,M,M,M,M,M,M,M,M,M,M,M,51.80,KHTH 201755Z AUTO 16007KT 10SM CLR 11/M08 A3006 RMK A01,M
TMT,2024-02-20 17:55,-117.1971,39.4643,1749.34,39.70,30.60,69.65,0.00,0.00,0.00,30.09,M,10.00,M,CLR,M,M,M,M,M,M,M,M,M,M,M,M,M,M,39.70,KTMT 201755Z AUTO 00000KT 10SM CLR 04/M01 A3009 RMK AO2 T00431008 10043 21049,M
10U,2024-02-20 17:55,-116.1876,41.9532,1637.00,44.60,30.20,56.74,190.00,9.00,0.00,30.07,M,10.00,15.00,CLR,M,M,M,M,M,M,M,M,M,M,M,M,M,M,39.18,K10U 201755Z AUTO 19009G15KT 170V230 10SM CLR 07/M01 A3007 RMK AO2,M
INS,2024-02-20 17:55,-115.6733,36.5872,955.00,54.00,46.20,74.82,120.00,7.00,0.00,30.10,1016.90,10.00,M,SCT,BKN,M,M,4700.00,12000.00,M,M,M,M,M,M,M,M,M,54.00,KINS 201755Z AUTO 12007KT 10SM SCT047 BKN120 12/08 A3010 RMK AO2 SLP169 T01220079 10125 20092 52010,M
EKO,2024-02-20 17:56,-115.7860,40.8242,1367.00,40.00,35.00,82.15,0.00,0.00,0.00,30.10,1020.00,10.00,M,OVC,M,M,M,1300.00,M,M,M,M,M,M,M,M,M,M,40.00,KEKO 201756Z AUTO 00000KT 10SM OVC013 04/02 A3010 RMK AO2 SLP200 T00440017 10044 20000 50005,M
WMC,2024-02-20 17:56,-117.8072,40.9019,1315.00,47.00,27.00,45.45,0.00,0.00,0.00,30.06,1017.40,10.00,M,CLR,M,M,M,M,M,M,M,M,M,M,M,M,M,M,47.00,KWMC 201756Z AUTO 00000KT 10SM CLR 08/M03 A3006 RMK AO2 SLP174 T00831028 10083 21033 51007,M
NFL,2024-02-20 17:56,-118.7010,39.4166,1199.00,47.00,27.00,45.45,0.00,0.00,0.00,30.06,1014.90,10.00,M,FEW,SCT,M,M,5000.00,12000.00,M,M,M,M,M,M,M,M,M,47.00,KNFL 201756Z 00000KT 10SM FEW050 SCT120 08/M03 A3006 RMK AO2 SLP149 T00831028 10089 21028 51009,M
HND,2024-02-20 17:56,-115.1344,35.9729,742.79,56.00,48.00,74.45,200.00,13.00,T,30.16,1022.40,10.00,M,OVC,M,M,M,6500.00,M,M,M,-RA,M,M,M,M,M,M,56.00,KHND 201756Z 20013KT 10SM -RA OVC065 13/09 A3016 RMK AO2 RAE08B44 SLP224 P0000 60000 T01330089 10144 20122 51024,M
TPH,2024-02-20 17:56,-117.0904,38.0505,1654.00,42.00,40.00,92.55,0.00,0.00,0.02,30.08,1017.80,4.00,M,BKN,BKN,OVC,M,800.00,1200.00,2100.00,M,-RA BR,M,M,M,M,M,M,42.00,KTPH 201756Z AUTO 00000KT 4SM -RA BR BKN008 BKN012 OVC021 06/04 A3008 RMK AO2 RAB10 CIG 005V010 SLP178 P0002 60002 T00560044 10056 20006 58001,M
LAS,2024-02-20 17:56,-115.1634,36.0719,663.00,57.00,49.00,74.55,170.00,5.00,T,30.14,1019.70,10.00,M,FEW,BKN,OVC,M,4000.00,6000.00,7500.00,M,-RA,M,M,M,M,M,M,57.00,KLAS 201756Z 17005KT 10SM -RA FEW040 BKN060 OVC075 14/09 A3014 RMK AO2 SLP197 P0000 60000 T01390094 10144 20139 51020,M
LSV,2024-02-20 17:56,-115.0343,36.2362,570.00,57.40,50.50,77.70,110.00,4.00,0.01,30.10,1018.40,6.00,M,SCT,OVC,M,M,5000.00,10000.00,M,M,M,M,M,M,M,M,M,57.40,KLSV 201756Z 11004KT 6SM SCT050 OVC100 14/10 A3010 RMK RAB06E12 SLP184 P0001 60002 T01410103 10158 20135 50018 $,M
LSV,2024-02-20 17:57,-115.0343,36.2362,570.00,57.20,50.00,76.82,110.00,4.00,0.00,30.10,1018.50,10.00,M,CLR,M,M,M,M,M,M,M,-DZ,M,M,M,M,M,M,57.20,KLSV 201757Z AUTO 11004KT 10SM -DZ CLR 14/10 A3010 RMK AO2 DZB56 SLP185 $,M
LSV,2024-02-20 17:59,-115.0343,36.2362,570.00,57.20,50.00,76.82,0.00,0.00,0.00,30.10,1018.50,10.00,M,CLR,M,M,M,M,M,M,M,M,M,M,M,M,M,M,57.20,KLSV 201759Z AUTO 00000KT 10SM CLR 14/10 A3010 RMK AO2 DZB56E59 SLP185 $,M
TPH,2024-02-20 18:13,-117.0904,38.0505,1654.00,42.00,40.00,92.55,300.00,3.00,T,30.09,M,9.00,M,SCT,BKN,OVC,M,700.00,1500.00,2000.00,M,-RA,M,M,M,M,M,M,40.12,KTPH 201813Z AUTO 30003KT 9SM -RA SCT007 BKN015 OVC020 06/04 A3009 RMK AO2 P0000 T00560044,M
BVU,2024-02-20 18:15,-114.8611,35.9475,671.00,57.20,50.00,76.82,260.00,5.00,0.00,30.16,M,5.00,M,FEW,BKN,OVC,M,3100.00,4800.00,7000.00,M,-RA,M,M,M,M,M,M,57.20,KBVU 201815Z AUTO 26005KT 5SM -RA FEW031 BKN048 OVC070 14/10 A3016 RMK AO2,M
CXP,2024-02-20 18:15,-119.7326,39.1923,1431.00,46.40,26.60,45.73,220.00,4.00,0.00,30.07,M,10.00,M,CLR,M,M,M,M,M,M,M,M,M,M,M,M,M,M,44.24,KCXP 201815Z AUTO 22004KT 10SM CLR 08/M03 A3007 RMK AO2,M
RTS,2024-02-20 18:15,-119.8764,39.6682,1539.00,42.80,23.00,45.14,0.00,0.00,0.00,30.05,M,10.00,M,SCT,M,M,M,4900.00,M,M,M,M,M,M,M,M,M,M,42.80,KRTS 201815Z AUTO 00000KT 10SM SCT049 06/M05 A3005 RMK AO2,M
05U,2024-02-20 18:15,-116.0051,39.6042,1811.23,46.40,32.00,57.00,M,3.00,0.00,30.11,M,10.00,M,M,M,M,M,M,M,M,M,M,M,M,M,M,M,M,45.15,K05U 201815Z AUTO VRB03KT 10SM 08/M00 A3011 RMK A01,M
MEV,2024-02-20 18:15,-119.7500,38.9963,1441.42,44.60,26.60,48.96,250.00,5.00,0.00,30.05,M,10.00,M,CLR,M,M,M,M,M,M,M,M,M,M,M,M,M,M,41.36,KMEV 201815Z AUTO 25005KT 10SM CLR 07/M03 A3005 RMK AO2,M
BAM,2024-02-20 18:15,-116.8743,40.5990,1382.36,46.40,37.40,70.68,60.00,8.00,0.00,30.08,M,10.00,M,CLR,M,M,M,M,M,M,M,M,M,M,M,M,M,M,41.85,KBAM 201815Z AUTO 06008KT 10SM CLR 08/03 A3008 RMK AO1,M
HTH,2024-02-20 18:15,-118.6315,38.5448,1282.89,53.60,19.40,25.85,130.00,8.00,0.00,30.06,M,10.00,13.00,CLR,M,M,M,M,M,M,M,M,M,M,M,M,M,M,53.60,KHTH 201815Z AUTO 13008G13KT 10SM CLR 12/M07 A3006 RMK A01,M
10U,2024-02-20 18:15,-116.1876,41.9532,1637.00,46.40,28.40,49.24,210.00,12.00,0.00,30.07,M,10.00,M,CLR,M,M,M,M,M,M,M,M,M,M,M,M,M,M,40.33,K10U 201815Z AUTO 21012KT 10SM CLR 08/M02 A3007 RMK AO2,M
LSV,2024-02-20 18:17,-115.0343,36.2362,570.00,59.00,50.00,72.01,180.00,13.00,0.00,30.11,1018.70,10.00,M,SCT,OVC,M,M,5000.00,9000.00,M,M,M,M,M,M,M,M,M,59.00,KLSV 201817Z 18013KT 10SM SCT050 OVC090 15/10 A3011 RMK DZB1756E1759 SLP187 $,M
HTH,2024-02-20 18:30,-118.6315,38.5448,1282.89,53.60,21.20,27.91,110.00,7.00,0.00,30.06,M,10.00,14.00,CLR,M,M,M,M,M,M,M,M,M,M,M,M,M,M,53.60,KHTH 201830Z AUTO 11007G14KT 10SM CLR 12/M06 A3006 RMK A01,M
BVU,2024-02-20 18:35,-114.8611,35.9475,671.00,55.40,50.00,81.99,0.00,0.00,0.00,30.15,M,7.00,M,FEW,SCT,OVC,M,3000.00,4300.00,6000.00,M,-RA,M,M,M,M,M,M,55.40,KBVU 201835Z AUTO 00000KT 7SM -RA FEW030 SCT043 OVC060 13/10 A3015 RMK AO2,M
CXP,2024-02-20 18:35,-119.7326,39.1923,1431.00,46.40,24.80,42.44,140.00,6.00,0.00,30.06,M,10.00,M,CLR,M,M,M,M,M,M,M,M,M,M,M,M,M,M,42.87,KCXP 201835Z AUTO 14006KT 10SM CLR 08/M04 A3006 RMK AO2,M
RTS,2024-02-20 18:35,-119.8764,39.6682,1539.00,44.60,24.80,45.44,M,5.00,0.00,30.06,M,10.00,11.00,SCT,M,M,M,4900.00,M,M,M,M,M,M,M,M,M,M,41.36,KRTS 201835Z AUTO VRB05G11KT 10SM SCT049 07/M04 A3006 RMK AO2,M
05U,2024-02-20 18:35,-116.0051,39.6042,1811.23,48.20,32.00,53.27,310.00,9.00,0.00,30.11,M,10.00,M,M,M,M,M,M,M,M,M,M,M,M,M,M,M,M,43.66,K05U 201835Z AUTO 31009KT 10SM 09/00 A3011 RMK A01,M
MEV,2024-02-20 18:35,-119.7500,38.9963,1441.42,46.40,28.40,49.24,0.00,0.00,0.00,30.05,M,10.00,M,CLR,M,M,M,M,M,M,M,M,M,M,M,M,M,M,46.40,KMEV 201835Z AUTO 00000KT 10SM CLR 08/M02 A3005 RMK AO2,M
BAM,2024-02-20 18:35,-116.8743,40.5990,1382.36,50.00,35.60,57.52,100.00,5.00,0.00,30.08,M,10.00,M,CLR,M,M,M,M,M,M,M,M,M,M,M,M,M,M,50.00,KBAM 201835Z AUTO 10005KT 10SM CLR 10/02 A3008 RMK AO1,M
10U,2024-02-20 18:35,-116.1876,41.9532,1637.00,46.40,28.40,49.24,M,M,0.00,30.07,M,10.00,M,CLR,M,M,M,M,M,M,M,M,M,M,M,M,M,M,M,K10U 201835Z AUTO 9/66666710KT 10SM CLR 08/M02 A3007 RMK AO2,M
TMT,2024-02-20 18:35,-117.1971,39.4643,1749.34,41.70,27.70,57.25,0.00,0.00,0.00,30.08,M,10.00,M,CLR,M,M,M,M,M,M,M,M,M,M,M,M,M,M,41.70,KTMT 201835Z AUTO 00000KT 10SM CLR 05/M02 A3008 RMK AO2 T00541024,M
05U,2024-02-20 18:50,-116.0051,39.6042,1811.23,48.20,33.80,57.26,290.00,8.00,0.00,30.10,M,10.00,M,M,M,M,M,M,M,M,M,M,M,M,M,M,M,M,44.07,K05U 201850Z AUTO 29008KT 10SM 09/01 A3010 RMK A01,M
P68,2024-02-20 18:53,-116.0056,39.6014,1993.00,46.00,33.00,60.25,140.00,10.00,0.00,30.07,1016.30,M,M,M,M,M,M,M,M,M,M,M,M,M,M,M,M,M,40.52,KP68 201853Z AUTO 14010KT 08/01 A3007 RMK AO1 SLP163 T00780006,M
DRA,2024-02-20 18:53,-116.0278,36.6206,1009.00,56.00,42.00,59.26,200.00,14.00,0.00,30.11,1017.10,10.00,22.00,BKN,M,M,M,12000.00,M,M,M,M,M,M,M,M,M,M,56.00,KDRA 201853Z AUTO 20014G22KT 10SM BKN120 13/06 A3011 RMK AO2 SLP171 T01330056,M
ELY,2024-02-20 18:53,-114.8453,39.2950,1909.00,44.00,33.00,65.01,170.00,9.00,T,30.09,1016.00,10.00,19.00,FEW,BKN,OVC,M,1800.00,4300.00,6000.00,M,M,M,M,M,M,M,M,38.44,KELY 201853Z AUTO 17009G19KT 10SM FEW018 BKN043 OVC060 07/01 A3009 RMK AO2 RAB23E44 SLP160 P0000 T00670006,M
VGT,2024-02-20 18:53,-115.1933,36.2111,667.00,57.00,52.00,83.33,140.00,11.00,0.01,30.12,1020.90,10.00,M,OVC,M,M,M,7000.00,M,M,M,-RA,M,M,M,M,M,M,57.00,KVGT 201853Z 14011KT 10SM -RA OVC070 14/11 A3012 RMK AO2 SLP209 P0001 T01390111,M
LOL,2024-02-20 18:53,-118.5701,40.0684,1192.43,48.00,33.00,55.87,220.00,4.00,0.00,30.06,1018.10,10.00,M,CLR,M,M,M,M,M,M,M,M,M,M,M,M,M,M,46.10,KLOL 201853Z AUTO 22004KT 10SM CLR 09/01 A3006 RMK AO2 SLP181 T00890006,M
BVU,2024-02-20 18:55,-114.8611,35.9475,671.00,57.20,50.00,76.82,0.00,0.00,0.00,30.16,M,7.00,M,FEW,BKN,M,M,5000.00,6000.00,M,M,-RA,M,M,M,M,M,M,57.20,KBVU 201855Z AUTO 00000KT 7SM -RA FEW050 BKN060 14/10 A3016 RMK AO2,M
CXP,2024-02-20 18:55,-119.7326,39.1923,1431.00,48.20,28.40,46.02,190.00,10.00,0.00,30.06,M,10.00,M,CLR,M,M,M,M,M,M,M,M,M,M,M,M,M,M,43.28,KCXP 201855Z AUTO 19010KT 10SM CLR 09/M02 A3006 RMK AO2,M
RNO,2024-02-20 18:55,-119.7711,39.4839,1341.00,49.00,27.00,42.16,0.00,0.00,0.00,30.04,1016.00,10.00,M,FEW,M,M,M,5000.00,M,M,M,M,M,M,M,M,M,M,49.00,KRNO 201855Z 00000KT 10SM FEW050 09/M03 A3004 RMK AO2 SLP160 T00941028,M
RTS,2024-02-20 18:55,-119.8764,39.6682,1539.00,42.80,23.00,45.14,200.00,5.00,0.00,30.06,M,10.00,M,CLR,M,M,M,M,M,M,M,M,M,M,M,M,M,M,39.22,KRTS 201855Z AUTO 20005KT 10SM CLR 06/M05 A3006 RMK AO2,M
MEV,2024-02-20 18:55,-119.7500,38.9963,1441.42,46.40,28.40,49.24,M,4.00,0.00,30.05,M,10.00,M,CLR,M,M,M,M,M,M,M,M,M,M,M,M,M,M,44.24,KMEV 201855Z AUTO VRB04KT 10SM CLR 08/M02 A3005 RMK AO2,M
BAM,2024-02-20 18:55,-116.8743,40.5990,1382.36,50.00,35.60,57.52,0.00,0.00,0.00,30.08,M,10.00,M,CLR,M,M,M,M,M,M,M,M,M,M,M,M,M,M,50.00,KBAM 201855Z AUTO 00000KT 10SM CLR 10/02 A3008 RMK AO1,M
HTH,2024-02-20 18:55,-118.6315,38.5448,1282.89,53.60,23.00,30.11,140.00,10.00,0.00,30.06,M,10.00,M,CLR,M,M,M,M,M,M,M,M,M,M,M,M,M,M,53.60,KHTH 201855Z AUTO 14010KT 10SM CLR 12/M05 A3006 RMK A01,M
10U,2024-02-20 18:55,-116.1876,41.9532,1637.00,46.40,24.80,42.44,210.00,8.00,0.00,30.07,M,10.00,14.00,CLR,M,M,M,M,M,M,M,M,M,M,M,M,M,M,41.85,K10U 201855Z AUTO 21008G14KT 10SM CLR 08/M04 A3007 RMK AO2,M
TMT,2024-02-20 18:55,-117.1971,39.4643,1749.34,44.00,28.00,53.07,0.00,0.00,0.00,30.08,M,10.00,M,CLR,M,M,M,M,M,M,M,M,M,M,M,M,M,M,44.00,KTMT 201855Z AUTO 00000KT 10SM CLR 07/M02 A3008 RMK AO2 T00661022,M
INS,2024-02-20 18:55,-115.6733,36.5872,955.00,55.20,46.00,71.08,120.00,5.00,0.00,30.11,1017.30,10.00,M,FEW,SCT,BKN,M,7000.00,10000.00,13000.00,M,M,M,M,M,M,M,M,55.20,KINS 201855Z AUTO 12005KT 10SM FEW070 SCT100 BKN130 13/08 A3011 RMK AO2 SLP173 T01290078,M
EKO,2024-02-20 18:56,-115.7860,40.8242,1367.00,42.00,37.00,82.30,260.00,4.00,0.00,30.09,1019.50,10.00,M,BKN,M,M,M,1400.00,M,M,M,M,M,M,M,M,M,M,39.10,KEKO 201856Z AUTO 26004KT 10SM BKN014 06/03 A3009 RMK AO2 SLP195 T00560028,M
WMC,2024-02-20 18:56,-117.8072,40.9019,1315.00,50.00,26.00,38.97,0.00,0.00,0.00,30.06,1016.90,10.00,M,CLR,M,M,M,M,M,M,M,M,M,M,M,M,M,M,50.00,KWMC 201856Z AUTO 00000KT 10SM CLR 10/M03 A3006 RMK AO2 SLP169 T01001033,M
NFL,2024-02-20 18:56,-118.7010,39.4166,1199.00,51.00,27.00,39.14,100.00,3.00,0.00,30.05,1014.50,10.00,M,SCT,SCT,SCT,M,5000.00,12000.00,18000.00,M,M,M,M,M,M,M,M,51.00,KNFL 201856Z 10003KT 10SM SCT050 SCT120 SCT180 11/M03 A3005 RMK AO2 SLP145 T01061028,M
HND,2024-02-20 18:56,-115.1344,35.9729,742.79,55.00,48.00,77.21,190.00,12.00,T,30.17,1022.60,10.00,M,OVC,M,M,M,6000.00,M,M,M,-RA,M,M,M,M,M,M,55.00,KHND 201856Z 19012KT 10SM -RA OVC060 13/09 A3017 RMK AO2 SLP226 P0000 T01280089,M
TPH,2024-02-20 18:56,-117.0904,38.0505,1654.00,44.00,40.00,85.71,160.00,4.00,0.02,30.08,1017.30,10.00,M,SCT,SCT,OVC,M,2100.00,2800.00,4300.00,M,-RA,M,M,M,M,M,M,41.43,KTPH 201856Z AUTO 16004KT 10SM -RA SCT021 SCT028 OVC043 07/04 A3008 RMK AO2 SLP173 P0002 T00670044,M
LAS,2024-02-20 18:56,-115.1634,36.0719,663.00,56.00,49.00,77.29,190.00,8.00,0.02,30.13,1019.60,10.00,17.00,FEW,OVC,M,M,2500.00,6500.00,M,M,-RA,M,M,M,M,M,M,56.00,KLAS 201856Z 19008G17KT 10SM -RA FEW025 OVC065 13/09 A3013 RMK AO2 SLP196 P0002 T01330094,M
LSV,2024-02-20 18:57,-115.0343,36.2362,570.00,58.60,48.60,69.34,180.00,13.00,0.01,30.10,1018.40,6.00,M,SCT,OVC,M,M,3500.00,8000.00,M,M,VCSH,M,M,M,M,M,M,58.60,KLSV 201857Z 18013KT 6SM VCSH SCT035 OVC080 15/09 A3010 RMK DZB1756E1759RAB31E37 SLP184 P0001 T01480092 $,M
05U,2024-02-20 19:10,-116.0051,39.6042,1811.23,46.40,32.00,57.00,280.00,9.00,0.00,30.10,M,10.00,M,M,M,M,M,M,M,M,M,M,M,M,M,M,M,M,41.42,K05U 201910Z AUTO 28009KT 10SM 08/00 A3010 RMK A01,M
BVU,2024-02-20 19:15,-114.8611,35.9475,671.00,55.40,50.00,81.99,170.00,3.00,0.00,30.16,M,4.00,M,FEW,FEW,OVC,M,3600.00,4400.00,5500.00,M,RA,M,M,M,M,M,M,55.40,KBVU 201915Z AUTO 17003KT 4SM RA FEW036 FEW044 OVC055 13/10 A3016 RMK AO2,M
CXP,2024-02-20 19:15,-119.7326,39.1923,1431.00,50.00,24.80,37.08,170.00,7.00,0.00,30.06,M,10.00,M,CLR,M,M,M,M,M,M,M,M,M,M,M,M,M,M,50.00,KCXP 201915Z AUTO 17007KT 10SM CLR 10/M04 A3006 RMK AO2,M
RTS,2024-02-20 19:15,-119.8764,39.6682,1539.00,44.60,23.00,42.14,M,6.00,0.00,30.05,M,10.00,12.00,CLR,M,M,M,M,M,M,M,M,M,M,M,M,M,M,40.71,KRTS 201915Z AUTO VRB06G12KT 10SM CLR 07/M05 A3005 RMK AO2,M
MEV,2024-02-20 19:15,-119.7500,38.9963,1441.42,46.40,26.60,45.73,M,4.00,0.00,30.04,M,10.00,M,CLR,M,M,M,M,M,M,M,M,M,M,M,M,M,M,44.24,KMEV 201915Z AUTO VRB04KT 10SM CLR 08/M03 A3004 RMK AO2,M
BAM,2024-02-20 19:15,-116.8743,40.5990,1382.36,51.80,35.60,53.81,0.00,0.00,0.00,30.08,M,10.00,M,CLR,M,M,M,M,M,M,M,M,M,M,M,M,M,M,51.80,KBAM 201915Z AUTO 00000KT 10SM CLR 11/02 A3008 RMK AO1,M
HTH,2024-02-20 19:15,-118.6315,38.5448,1282.89,53.60,23.00,30.11,120.00,8.00,0.00,30.05,M,10.00,M,CLR,M,M,M,M,M,M,M,M,M,M,M,M,M,M,53.60,KHTH 201915Z AUTO 12008KT 10SM CLR 12/M05 A3005 RMK A01,M
10U,2024-02-20 19:15,-116.1876,41.9532,1637.00,46.40,26.60,45.73,220.00,9.00,0.00,30.07,M,10.00,M,CLR,M,M,M,M,M,M,M,M,M,M,M,M,M,M,41.42,K10U 201915Z AUTO 22009KT 10SM CLR 08/M03 A3007 RMK AO2,M
TMT,2024-02-20 19:15,-117.1971,39.4643,1749.34,44.80,25.50,46.42,0.00,0.00,0.00,30.08,M,10.00,M,CLR,M,M,M,M,M,M,M,M,M,M,M,M,M,M,44.80,KTMT 201915Z AUTO 00000KT 10SM CLR 07/M04 A3008 RMK AO2 T00711036,M
05U,2024-02-20 19:30,-116.0051,39.6042,1811.23,46.40,30.20,53.00,310.00,9.00,0.00,30.09,M,10.00,M,M,M,M,M,M,M,M,M,M,M,M,M,M,M,M,41.42,K05U 201930Z AUTO 31009KT 10SM 08/M01 A3009 RMK A01,M
TPH,2024-02-20 19:33,-117.0904,38.0505,1654.00,42.00,38.00,85.60,210.00,9.00,0.07,30.09,M,1.75,17.00,FEW,BKN,OVC,M,1400.00,3000.00,4500.00,M,+RA BR,M,M,M,M,M,M,35.95,KTPH 201933Z AUTO 21009G17KT 1 3/4SM +RA BR FEW014 BKN030 OVC045 06/03 A3009 RMK AO2 RAE1857B22 P0007 T00560033,M
BVU,2024-02-20 19:35,-114.8611,35.9475,671.00,55.40,51.80,87.65,130.00,4.00,0.00,30.16,M,4.00,M,SCT,BKN,OVC,M,3500.00,4200.00,5500.00,M,RA,M,M,M,M,M,M,55.40,KBVU 201935Z AUTO 13004KT 4SM RA SCT035 BKN042 OVC055 13/11 A3016 RMK AO2,M
CXP,2024-02-20 19:35,-119.7326,39.1923,1431.00,48.20,26.60,42.73,M,6.00,0.00,30.05,M,10.00,M,CLR,M,M,M,M,M,M,M,M,M,M,M,M,M,M,45.04,KCXP 201935Z AUTO VRB06KT 10SM CLR 09/M03 A3005 RMK AO2,M
RTS,2024-02-20 19:35,-119.8764,39.6682,1539.00,44.60,21.20,39.06,0.00,0.00,0.00,30.04,M,10.00,M,FEW,M,M,M,6000.00,M,M,M,M,M,M,M,M,M,M,44.60,KRTS 201935Z AUTO 00000KT 10SM FEW060 07/M06 A3004 RMK AO2,M
MEV,2024-02-20 19:35,-119.7500,38.9963,1441.42,46.40,28.40,49.24,M,3.00,0.00,30.03,M,10.00,M,CLR,M,M,M,M,M,M,M,M,M,M,M,M,M,M,45.15,KMEV 201935Z AUTO VRB03KT 10SM CLR 08/M02 A3003 RMK AO2,M
BAM,2024-02-20 19:35,-116.8743,40.5990,1382.36,51.80,35.60,53.81,100.00,3.00,0.00,30.07,M,10.00,M,CLR,M,M,M,M,M,M,M,M,M,M,M,M,M,M,51.80,KBAM 201935Z AUTO 10003KT 10SM CLR 11/02 A3007 RMK AO1,M
HTH,2024-02-20 19:35,-118.6315,38.5448,1282.89,55.40,24.80,30.40,110.00,7.00,0.00,30.04,M,10.00,15.00,CLR,M,M,M,M,M,M,M,M,M,M,M,M,M,M,55.40,KHTH 201935Z AUTO 11007G15KT 10SM CLR 13/M04 A3004 RMK A01,M
10U,2024-02-20 19:35,-116.1876,41.9532,1637.00,48.20,26.60,42.73,220.00,9.00,0.00,30.07,M,10.00,15.00,CLR,M,M,M,M,M,M,M,M,M,M,M,M,M,M,43.66,K10U 201935Z AUTO 22009G15KT 180V240 10SM CLR 09/M03 A3007 RMK AO2,M
TMT,2024-02-20 19:35,-117.1971,39.4643,1749.34,46.80,24.30,40.94,280.00,3.00,0.00,30.07,M,10.00,M,CLR,M,M,M,M,M,M,M,M,M,M,M,M,M,M,45.61,KTMT 201935Z AUTO 28003KT 10SM CLR 08/M04 A3007 RMK AO2 T00821043,M
TPH,2024-02-20 19:39,-117.0904,38.0505,1654.00,42.00,38.00,85.60,0.00,0.00,0.09,30.08,M,2.00,M,SCT,BKN,OVC,M,1400.00,2100.00,3600.00,M,+RA BR,M,M,M,M,M,M,42.00,KTPH 201939Z AUTO 00000KT 2SM +RA BR SCT014 BKN021 OVC036 06/03 A3008 RMK AO2 VIS 1V5 RAE1857B22 P0009 T00560033,M
TPH,2024-02-20 19:47,-117.0904,38.0505,1654.00,43.00,40.00,89.06,230.00,3.00,0.09,30.08,M,9.00,M,SCT,BKN,OVC,M,1400.00,2500.00,3600.00,M,-RA,M,M,M,M,M,M,41.26,KTPH 201947Z AUTO 23003KT 9SM -RA SCT014 BKN025 OVC036 06/04 A3008 RMK AO2 RAE1857B22 P0009 T00610044,M
05U,2024-02-20 19:50,-116.0051,39.6042,1811.23,48.20,32.00,53.27,300.00,9.00,0.00,30.09,M,10.00,M,M,M,M,M,M,M,M,M,M,M,M,M,M,M,M,43.66,K05U 201950Z AUTO 30009KT 10SM 09/M00 A3009 RMK A01,M
CXP,2024-02-20 19:50,-119.7326,39.1923,1431.00,50.00,28.40,43.03,190.00,7.00,0.00,30.04,M,10.00,M,CLR,M,M,M,M,M,M,M,M,M,M,M,M,M,M,50.00,KCXP 201950Z AUTO 19007KT 160V220 10SM CLR 10/M02 A3004 RMK AO2,M
P68,2024-02-20 19:53,-116.0056,39.6014,1993.00,47.00,31.00,53.52,140.00,7.00,0.00,30.06,1015.90,M,M,M,M,M,M,M,M,M,M,M,M,M,M,M,M,M,43.06,KP68 201953Z AUTO 14007KT 08/M01 A3006 RMK AO1 SLP159 T00831006,M
DRA,2024-02-20 19:53,-116.0278,36.6206,1009.00,57.00,43.00,59.40,200.00,14.00,0.00,30.08,1016.20,10.00,19.00,OVC,M,M,M,10000.00,M,M,M,M,M,M,M,M,M,M,57.00,KDRA 201953Z AUTO 20014G19KT 10SM OVC100 14/06 A3008 RMK AO2 SLP162 T01390061,M
ELY,2024-02-20 19:53,-114.8453,39.2950,1909.00,46.00,32.00,57.87,170.00,15.00,0.00,30.07,1015.10,10.00,22.00,BKN,OVC,M,M,5500.00,9500.00,M,M,M,M,M,M,M,M,M,38.93,KELY 201953Z AUTO 17015G22KT 10SM BKN055 OVC095 08/00 A3007 RMK AO2 SLP151 T00780000,M
VGT,2024-02-20 19:53,-115.1933,36.2111,667.00,57.00,49.00,74.55,160.00,12.00,0.01,30.11,1020.70,10.00,M,OVC,M,M,M,7000.00,M,M,M,-RA,M,M,M,M,M,M,57.00,KVGT 201953Z 16012KT 10SM -RA OVC070 14/09 A3011 RMK AO2 SLP207 P0001 T01390094,M
LOL,2024-02-20 19:53,-118.5701,40.0684,1192.43,50.00,26.00,38.97,200.00,8.00,0.00,30.04,1017.50,10.00,M,CLR,M,M,M,M,M,M,M,M,M,M,M,M,M,M,50.00,KLOL 201953Z AUTO 20008KT 10SM CLR 10/M03 A3004 RMK AO2 SLP175 T01001033,M
EKO,2024-02-20 19:54,-115.7860,40.8242,1367.00,44.60,37.40,75.68,230.00,2.92,M,30.07,M,10.00,M,SCT,M,M,M,1200.00,M,M,M,M,M,M,M,M,M,M,43.19,SPECI KEKO 201954Z 23003KT 10SM SCT012 07/03 A3007 RMK AO2 FIBI,M
BVU,2024-02-20 19:55,-114.8611,35.9475,671.00,55.40,50.00,81.99,140.00,5.00,0.00,30.15,M,4.00,M,SCT,BKN,OVC,M,3100.00,3800.00,6000.00,M,-RA,M,M,M,M,M,M,55.40,KBVU 201955Z AUTO 14005KT 4SM -RA SCT031 BKN038 OVC060 13/10 A3015 RMK AO2,M
RNO,2024-02-20 19:55,-119.7711,39.4839,1341.00,52.00,26.00,36.19,150.00,18.00,0.00,30.01,1014.90,10.00,22.00,SCT,M,M,M,5000.00,M,M,M,M,M,M,M,M,M,M,52.00,KRNO 201955Z 15018G22KT 10SM SCT050 11/M03 A3001 RMK AO2 SLP149 T01111033,M
RTS,2024-02-20 19:55,-119.8764,39.6682,1539.00,44.60,23.00,42.14,140.00,7.00,0.00,30.03,M,10.00,M,FEW,FEW,FEW,M,5000.00,6000.00,7000.00,M,M,M,M,M,M,M,M,40.14,KRTS 201955Z AUTO 14007KT 10SM FEW050 FEW060 FEW070 07/M05 A3003 RMK AO2,M
MEV,2024-02-20 19:55,-119.7500,38.9963,1441.42,48.20,26.60,42.73,170.00,5.00,0.00,30.02,M,10.00,M,CLR,M,M,M,M,M,M,M,M,M,M,M,M,M,M,45.63,KMEV 201955Z AUTO 17005KT 10SM CLR 09/M03 A3002 RMK AO2,M
BAM,2024-02-20 19:55,-116.8743,40.5990,1382.36,51.80,32.00,46.59,220.00,7.00,0.00,30.06,M,10.00,M,SCT,M,M,M,4300.00,M,M,M,M,M,M,M,M,M,M,51.80,KBAM 201955Z AUTO 22007KT 190V250 10SM SCT043 11/00 A3006 RMK AO1,M
HTH,2024-02-20 19:55,-118.6315,38.5448,1282.89,55.40,23.00,28.20,180.00,7.00,0.00,30.02,M,10.00,13.00,CLR,M,M,M,M,M,M,M,M,M,M,M,M,M,M,55.40,KHTH 201955Z AUTO 18007G13KT 150V210 10SM CLR 13/M05 A3002 RMK A01,M
TMT,2024-02-20 19:55,-117.1971,39.4643,1749.34,47.50,24.30,39.87,0.00,0.00,0.00,30.06,M,10.00,M,CLR,M,M,M,M,M,M,M,M,M,M,M,M,M,M,47.50,KTMT 201955Z AUTO 00000KT 10SM CLR 09/M04 A3006 RMK AO2 T00861043,M
10U,2024-02-20 19:55,-116.1876,41.9532,1637.00,48.20,26.60,42.73,240.00,12.00,0.00,30.06,M,10.00,M,FEW,M,M,M,5000.00,M,M,M,M,M,M,M,M,M,M,42.62,K10U 201955Z AUTO 24012KT 10SM FEW050 09/M03 A3006 RMK AO2,M
INS,2024-02-20 19:55,-115.6733,36.5872,955.00,55.00,46.60,73.24,70.00,18.00,0.00,30.08,1016.20,10.00,M,FEW,OVC,M,M,6500.00,11000.00,M,M,M,M,M,M,M,M,M,55.00,KINS 201955Z AUTO 07018KT 10SM FEW065 OVC110 13/08 A3008 RMK AO2 SLP162 T01280081,M
LSV,2024-02-20 19:55,-115.0343,36.2362,570.00,58.00,48.20,69.79,180.00,14.00,0.02,30.09,1018.00,10.00,M,SCT,OVC,M,M,4000.00,7000.00,M,M,M,M,M,M,M,M,M,58.00,KLSV 201955Z 18014KT 10SM SCT040 OVC070 14/09 A3009 RMK RAB1907E1913RAB1933E1939RAB1954E00 SLP180 P0002 60005 T01440090 58001 $,M
EKO,2024-02-20 19:56,-115.7860,40.8242,1367.00,44.00,37.00,76.22,220.00,3.00,0.00,30.07,1018.60,10.00,M,SCT,M,M,M,1200.00,M,M,M,M,M,M,M,M,M,M,42.41,KEKO 201956Z AUTO 22003KT 10SM SCT012 07/03 A3007 RMK AO2 SLP186 T00670028,M
WMC,2024-02-20 19:56,-117.8072,40.9019,1315.00,52.00,24.00,33.30,210.00,5.00,0.00,30.03,1016.10,10.00,M,CLR,M,M,M,M,M,M,M,M,M,M,M,M,M,M,52.00,KWMC 201956Z AUTO 21005KT 10SM CLR 11/M04 A3003 RMK AO2 SLP161 T01111044,M
NFL,2024-02-20 19:56,-118.7010,39.4166,1199.00,54.00,23.00,29.67,140.00,6.00,0.00,30.02,1013.50,10.00,M,SCT,SCT,SCT,M,5000.00,12000.00,18000.00,M,M,M,M,M,M,M,M,54.00,KNFL 201956Z 14006KT 10SM SCT050 SCT120 SCT180 12/M05 A3002 RMK AO2 SLP135 T01221050,M
HND,2024-02-20 19:56,-115.1344,35.9729,742.79,54.00,48.00,80.07,170.00,11.00,0.03,30.15,1022.10,10.00,M,OVC,M,M,M,6000.00,M,M,M,-RA,M,M,M,M,M,M,54.00,KHND 201956Z 17011KT 10SM -RA OVC060 12/09 A3015 RMK AO2 SLP221 P0003 T01220089,M
TPH,2024-02-20 19:56,-117.0904,38.0505,1654.00,45.00,41.00,85.77,210.00,14.00,0.09,30.07,1017.10,10.00,19.00,FEW,BKN,BKN,M,1400.00,2300.00,2900.00,M,M,M,M,M,M,M,M,37.92,KTPH 201956Z AUTO 21014G19KT 10SM FEW014 BKN023 BKN029 07/05 A3007 RMK AO2 RAE1857B22E50 SLP171 P0009 T00720050,M
LAS,2024-02-20 19:56,-115.1634,36.0719,663.00,55.00,50.00,83.20,180.00,7.00,0.02,30.13,1019.50,10.00,M,FEW,BKN,OVC,M,2000.00,6500.00,8000.00,M,M,M,M,M,M,M,M,55.00,KLAS 201956Z 18007KT 10SM FEW020 BKN065 OVC080 13/10 A3013 RMK AO2 RAE54 SLP195 P0002 T01280100,M
05U,2024-02-20 20:10,-116.0051,39.6042,1811.23,50.00,30.20,46.31,300.00,8.00,0.00,30.07,M,10.00,M,M,M,M,M,M,M,M,M,M,M,M,M,M,M,M,50.00,K05U 202010Z AUTO 30008KT 10SM 10/M01 A3007 RMK A01,M
TPH,2024-02-20 20:14,-117.0904,38.0505,1654.00,47.00,41.00,79.52,220.00,14.00,0.00,30.05,M,10.00,M,FEW,BKN,OVC,M,2100.00,3300.00,4100.00,M,M,M,M,M,M,M,M,40.50,KTPH 202014Z AUTO 22014KT 10SM FEW021 BKN033 OVC041 08/05 A3005 RMK AO2 T00830050,M
BVU,2024-02-20 20:15,-114.8611,35.9475,671.00,55.40,51.80,87.65,M,M,0.00,30.15,M,7.00,M,FEW,SCT,OVC,M,3400.00,4300.00,6000.00,M,-RA,M,M,M,M,M,M,55.40,KBVU 202015Z AUTO 7SM -RA FEW034 SCT043 OVC060 13/11 A3015 RMK AO2,M
CXP,2024-02-20 20:15,-119.7326,39.1923,1431.00,51.80,28.40,40.25,180.00,10.00,0.00,30.02,M,9.00,15.00,CLR,M,M,M,M,M,M,M,M,M,M,M,M,M,M,51.80,KCXP 202015Z AUTO 18010G15KT 9SM CLR 11/M02 A3002 RMK AO2,M
RTS,2024-02-20 20:15,-119.8764,39.6682,1539.00,46.40,23.00,39.36,220.00,5.00,0.00,30.03,M,10.00,M,FEW,M,M,M,6000.00,M,M,M,M,M,M,M,M,M,M,43.50,KRTS 202015Z AUTO 22005KT 10SM FEW060 08/M05 A3003 RMK AO2,M
MEV,2024-02-20 20:15,-119.7500,38.9963,1441.42,48.20,28.40,46.02,280.00,5.00,0.00,30.01,M,10.00,M,CLR,M,M,M,M,M,M,M,M,M,M,M,M,M,M,45.63,KMEV 202015Z AUTO 28005KT 10SM CLR 09/M02 A3001 RMK AO2,M
BAM,2024-02-20 20:15,-116.8743,40.5990,1382.36,53.60,32.00,43.61,220.00,5.00,0.00,30.05,M,10.00,M,SCT,M,M,M,4500.00,M,M,M,M,M,M,M,M,M,M,53.60,KBAM 202015Z AUTO 22005KT 10SM SCT045 12/00 A3005 RMK AO1,M
HTH,2024-02-20 20:15,-118.6315,38.5448,1282.89,55.40,26.60,32.76,140.00,10.00,0.00,30.00,M,10.00,15.00,CLR,M,M,M,M,M,M,M,M,M,M,M,M,M,M,55.40,KHTH 202015Z AUTO 14010G15KT 130V190 10SM CLR 13/M03 A3000 RMK A01,M
10U,2024-02-20 20:15,-116.1876,41.9532,1637.00,48.20,26.60,42.73,230.00,7.00,0.00,30.05,M,10.00,M,SCT,SCT,M,M,5000.00,6000.00,M,M,M,M,M,M,M,M,M,44.53,K10U 202015Z AUTO 23007KT 10SM SCT050 SCT060 09/M03 A3005 RMK AO2,M
TMT,2024-02-20 20:15,-117.1971,39.4643,1749.34,47.50,24.40,40.04,220.00,4.00,0.00,30.05,M,10.00,M,SCT,M,M,M,7000.00,M,M,M,M,M,M,M,M,M,M,45.52,KTMT 202015Z AUTO 22004KT 10SM SCT070 09/M04 A3005 RMK AO2 T00861042,M
BVU,2024-02-20 20:35,-114.8611,35.9475,671.00,55.40,51.80,87.65,130.00,4.00,0.00,30.14,M,6.00,M,FEW,FEW,OVC,M,4200.00,4700.00,6000.00,M,-RA,M,M,M,M,M,M,55.40,KBVU 202035Z AUTO 13004KT 6SM -RA FEW042 FEW047 OVC060 13/11 A3014 RMK AO2,M
CXP,2024-02-20 20:35,-119.7326,39.1923,1431.00,51.80,26.60,37.38,210.00,7.00,0.00,30.01,M,10.00,M,CLR,M,M,M,M,M,M,M,M,M,M,M,M,M,M,51.80,KCXP 202035Z AUTO 21007KT 160V230 10SM CLR 11/M03 A3001 RMK AO2,M
RTS,2024-02-20 20:35,-119.8764,39.6682,1539.00,46.40,23.00,39.36,M,5.00,0.00,30.01,M,10.00,M,FEW,M,M,M,6000.00,M,M,M,M,M,M,M,M,M,M,43.50,KRTS 202035Z AUTO VRB05KT 10SM FEW060 08/M05 A3001 RMK AO2,M
05U,2024-02-20 20:35,-116.0051,39.6042,1811.23,48.20,32.00,53.27,290.00,11.00,0.00,30.07,M,10.00,M,M,M,M,M,M,M,M,M,M,M,M,M,M,M,M,42.94,K05U 202035Z AUTO 29011KT 10SM 09/M00 A3007 RMK A01,M
MEV,2024-02-20 20:35,-119.7500,38.9963,1441.42,48.20,28.40,46.02,310.00,4.00,0.00,30.00,M,10.00,M,CLR,M,M,M,M,M,M,M,M,M,M,M,M,M,M,46.34,KMEV 202035Z AUTO 31004KT 10SM CLR 09/M02 A3000 RMK AO2,M
BAM,2024-02-20 20:35,-116.8743,40.5990,1382.36,53.60,32.00,43.61,250.00,4.00,0.00,30.05,M,10.00,M,CLR,M,M,M,M,M,M,M,M,M,M,M,M,M,M,53.60,KBAM 202035Z AUTO 25004KT 10SM CLR 12/00 A3005 RMK AO1,M
HTH,2024-02-20 20:35,-118.6315,38.5448,1282.89,57.20,17.60,20.99,200.00,6.00,0.00,29.99,M,10.00,14.00,CLR,M,M,M,M,M,M,M,M,M,M,M,M,M,M,57.20,KHTH 202035Z AUTO 20006G14KT 10SM CLR 14/M08 A2999 RMK A01,M
10U,2024-02-20 20:35,-116.1876,41.9532,1637.00,46.40,26.60,45.73,260.00,9.00,0.00,30.04,M,10.00,18.00,FEW,BKN,BKN,M,4300.00,5000.00,6000.00,M,M,M,M,M,M,M,M,41.42,K10U 202035Z AUTO 26009G18KT 10SM FEW043 BKN050 BKN060 08/M03 A3004 RMK AO2,M
TMT,2024-02-20 20:35,-117.1971,39.4643,1749.34,49.30,26.40,40.67,170.00,4.00,0.00,30.04,M,10.00,M,SCT,BKN,BKN,M,5000.00,7000.00,8500.00,M,M,M,M,M,M,M,M,47.62,KTMT 202035Z AUTO 17004KT 10SM SCT050 BKN070 BKN085 10/M03 A3004 RMK AO2 T00961031,M
TPH,2024-02-20 20:44,-117.0904,38.0505,1654.00,48.00,39.00,70.85,200.00,13.00,0.00,30.04,M,10.00,20.00,FEW,BKN,OVC,M,2100.00,2800.00,4400.00,M,M,M,M,M,M,M,M,42.07,KTPH 202044Z AUTO 20013G20KT 10SM FEW021 BKN028 OVC044 09/04 A3004 RMK AO2 T00890039,M
P68,2024-02-20 20:53,-116.0056,39.6014,1993.00,48.00,32.00,53.67,150.00,11.00,0.00,30.04,1014.90,M,M,M,M,M,M,M,M,M,M,M,M,M,M,M,M,M,42.69,KP68 202053Z AUTO 15011KT 09/00 A3004 RMK AO1 SLP149 T00890000 58014,M
DRA,2024-02-20 20:53,-116.0278,36.6206,1009.00,57.00,42.00,57.16,200.00,13.00,0.00,30.07,1015.60,10.00,23.00,FEW,OVC,M,M,4900.00,11000.00,M,M,M,M,M,M,26.00,230.00,2024-02-20 20:23,57.00,KDRA 202053Z AUTO 20013G23KT 10SM FEW049 OVC110 14/06 A3007 RMK AO2 PK WND 23026/2023 SLP156 T01390056 58013,M
ELY,2024-02-20 20:53,-114.8453,39.2950,1909.00,46.00,31.00,55.58,150.00,11.00,0.00,30.06,1014.70,10.00,19.00,BKN,BKN,M,M,4500.00,5500.00,M,M,M,M,M,M,M,M,M,40.16,KELY 202053Z AUTO 15011G19KT 10SM BKN045 BKN055 08/M01 A3006 RMK AO2 SLP147 60000 T00781006 57011,M
VGT,2024-02-20 20:53,-115.1933,36.2111,667.00,57.00,50.00,77.38,140.00,14.00,0.01,30.10,1020.30,10.00,M,OVC,M,M,M,6500.00,M,M,M,-RA,M,M,M,M,M,M,57.00,KVGT 202053Z 14014KT 10SM -RA OVC065 14/10 A3010 RMK AO2 SLP203 P0001 60003 T01390100 58008,M
LOL,2024-02-20 20:53,-118.5701,40.0684,1192.43,53.00,26.00,34.88,170.00,5.00,0.00,30.00,1016.00,10.00,M,CLR,M,M,M,M,M,M,M,M,M,M,M,M,M,M,53.00,KLOL 202053Z AUTO 17005KT 10SM CLR 12/M03 A3000 RMK AO2 SLP160 T01171033 58020,M
BVU,2024-02-20 20:55,-114.8611,35.9475,671.00,55.40,51.80,87.65,150.00,6.00,0.00,30.13,M,5.00,M,FEW,FEW,BKN,M,3100.00,4100.00,6000.00,M,-RA,M,M,M,M,M,M,55.40,KBVU 202055Z AUTO 15006KT 5SM -RA FEW031 FEW041 BKN060 13/11 A3013 RMK AO2,M
CXP,2024-02-20 20:55,-119.7326,39.1923,1431.00,51.80,24.80,34.69,190.00,7.00,0.00,30.00,M,10.00,14.00,CLR,M,M,M,M,M,M,M,M,M,M,M,M,M,M,51.80,KCXP 202055Z AUTO 19007G14KT 10SM CLR 11/M04 A3000 RMK AO2,M
RNO,2024-02-20 20:55,-119.7711,39.4839,1341.00,54.00,23.00,29.67,200.00,9.00,0.00,29.98,1013.70,10.00,20.00,SCT,M,M,M,5000.00,M,M,M,M,M,M,M,M,M,M,54.00,KRNO 202055Z 20009G20KT 10SM SCT050 12/M05 A2998 RMK AO2 SLP137 T01221050 58020,M
RTS,2024-02-20 20:55,-119.8764,39.6682,1539.00,46.40,24.80,42.44,140.00,9.00,0.00,30.01,M,10.00,M,SCT,SCT,SCT,M,6500.00,7500.00,8000.00,M,M,M,M,M,M,M,M,41.42,KRTS 202055Z AUTO 14009KT 10SM SCT065 SCT075 SCT080 08/M04 A3001 RMK AO2,M
05U,2024-02-20 20:55,-116.0051,39.6042,1811.23,48.20,32.00,53.27,310.00,9.00,0.00,30.06,M,10.00,M,M,M,M,M,M,M,M,M,M,M,M,M,M,M,M,43.66,K05U 202055Z AUTO 31009KT 10SM 09/M00 A3006 RMK A01,M
MEV,2024-02-20 20:55,-119.7500,38.9963,1441.42,50.00,30.20,46.31,260.00,5.00,0.00,29.99,M,10.00,12.00,CLR,M,M,M,M,M,M,M,M,M,M,M,M,M,M,50.00,KMEV 202055Z AUTO 26005G12KT 10SM CLR 10/M01 A2999 RMK AO2,M
BAM,2024-02-20 20:55,-116.8743,40.5990,1382.36,53.60,33.80,46.88,250.00,5.00,0.00,30.04,M,10.00,M,SCT,M,M,M,5000.00,M,M,M,M,M,M,M,M,M,M,53.60,KBAM 202055Z AUTO 25005KT 10SM SCT050 12/01 A3004 RMK AO1,M
HTH,2024-02-20 20:55,-118.6315,38.5448,1282.89,55.40,21.20,26.13,230.00,13.00,0.00,29.98,M,10.00,19.00,FEW,M,M,M,7500.00,M,M,M,M,M,M,M,M,M,M,55.40,KHTH 202055Z AUTO 23013G19KT 10SM FEW075 13/M06 A2998 RMK A01,M
TMT,2024-02-20 20:55,-117.1971,39.4643,1749.34,46.60,25.50,43.36,250.00,7.00,0.00,30.03,M,10.00,M,SCT,SCT,BKN,M,5000.00,7000.00,8500.00,M,M,M,M,M,M,M,M,42.58,KTMT 202055Z AUTO 25007KT 10SM SCT050 SCT070 BKN085 08/M04 A3003 RMK AO2 T00811036,M
10U,2024-02-20 20:55,-116.1876,41.9532,1637.00,48.20,26.60,42.73,200.00,7.00,0.00,30.03,M,10.00,M,SCT,SCT,BKN,M,5000.00,6000.00,7000.00,M,M,M,M,M,M,M,M,44.53,K10U 202055Z AUTO 20007KT 150V220 10SM SCT050 SCT060 BKN070 09/M03 A3003 RMK AO2,M
INS,2024-02-20 20:55,-115.6733,36.5872,955.00,54.50,46.80,75.15,60.00,15.00,0.00,30.05,1015.40,10.00,M,OVC,M,M,M,10000.00,M,M,M,M,M,M,M,M,M,M,54.50,KINS 202055Z AUTO 06015KT 10SM OVC100 13/08 A3005 RMK AO2 SLP154 T01250082 58014,M
LSV,2024-02-20 20:55,-115.0343,36.2362,570.00,56.50,50.70,80.87,170.00,6.00,0.01,30.10,1018.50,8.00,M,SCT,OVC,M,M,1000.00,3000.00,M,M,M,M,M,M,M,M,M,56.50,KLSV 202055Z 17006KT 8SM SCT010 OVC030 14/10 A3010 RMK RAB1955E00RAB41E47 SLP185 P0001 60005 T01360104 50001 $,M
EKO,2024-02-20 20:56,-115.7860,40.8242,1367.00,49.00,38.00,65.63,100.00,3.00,0.00,30.04,1017.10,10.00,M,FEW,M,M,M,2100.00,M,M,M,M,M,M,M,M,M,M,48.12,KEKO 202056Z AUTO 10003KT 10SM FEW021 09/03 A3004 RMK AO2 SLP171 T00940033 58017,M
WMC,2024-02-20 20:56,-117.8072,40.9019,1315.00,54.00,22.00,28.45,200.00,11.00,0.00,30.00,1014.80,10.00,20.00,FEW,M,M,M,7000.00,M,M,M,M,M,M,M,M,M,M,54.00,KWMC 202056Z AUTO 20011G20KT 10SM FEW070 12/M06 A3000 RMK AO2 SLP148 T01221056 58018,M
NFL,2024-02-20 20:56,-118.7010,39.4166,1199.00,55.00,21.00,26.29,180.00,4.00,0.00,29.98,1012.30,10.00,M,SCT,SCT,BKN,M,5000.00,12000.00,22000.00,M,M,M,M,M,M,M,M,55.00,KNFL 202056Z 18004KT 10SM SCT050 SCT120 BKN220 13/M06 A2998 RMK AO2 SLP123 T01281061 58025,M
HND,2024-02-20 20:56,-115.1344,35.9729,742.79,54.00,47.00,77.12,190.00,13.00,0.02,30.14,1021.60,10.00,M,OVC,M,M,M,6000.00,M,M,M,-RA,M,M,M,M,M,M,54.00,KHND 202056Z 19013KT 10SM -RA OVC060 12/08 A3014 RMK AO2 SLP216 P0002 60005 T01220083 58008,M
TPH,2024-02-20 20:56,-117.0904,38.0505,1654.00,47.00,40.00,76.49,180.00,14.00,0.00,30.03,1015.30,10.00,M,FEW,BKN,OVC,M,2100.00,2900.00,4400.00,M,M,M,M,M,M,M,M,40.50,KTPH 202056Z AUTO 18014KT 10SM FEW021 BKN029 OVC044 08/04 A3003 RMK AO2 SLP153 60011 T00830044 58015,M
LAS,2024-02-20 20:56,-115.1634,36.0719,663.00,54.00,50.00,86.29,180.00,7.00,0.01,30.12,1019.10,10.00,M,FEW,BKN,OVC,M,2000.00,6500.00,9000.00,M,-RA,M,M,M,M,M,M,54.00,KLAS 202056Z 18007KT 10SM -RA FEW020 BKN065 OVC090 12/10 A3012 RMK AO2 RAB18 SLP191 P0001 60005 T01220100 58006,M
TPH,2024-02-20 21:09,-117.0904,38.0505,1654.00,47.00,37.00,68.02,200.00,13.00,T,30.03,M,10.00,M,SCT,BKN,OVC,M,2400.00,3200.00,5500.00,M,-RA,M,M,M,M,M,M,40.79,KTPH 202109Z AUTO 20013KT 10SM -RA SCT024 BKN032 OVC055 08/03 A3003 RMK AO2 RAB02 P0000 T00830028,M
BVU,2024-02-20 21:15,-114.8611,35.9475,671.00,53.60,50.00,87.56,170.00,5.00,0.00,30.13,M,7.00,M,FEW,FEW,BKN,M,3300.00,3900.00,6000.00,M,-RA,M,M,M,M,M,M,53.60,KBVU 202115Z AUTO 17005KT 7SM -RA FEW033 FEW039 BKN060 12/10 A3013 RMK AO2,M
CXP,2024-02-20 21:15,-119.7326,39.1923,1431.00,51.80,24.80,34.69,180.00,7.00,0.00,29.99,M,10.00,12.00,CLR,M,M,M,M,M,M,M,M,M,M,M,M,M,M,51.80,KCXP 202115Z AUTO 18007G12KT 10SM CLR 11/M04 A2999 RMK AO2,M
RTS,2024-02-20 21:15,-119.8764,39.6682,1539.00,48.20,23.00,36.78,0.00,0.00,0.00,29.99,M,10.00,11.00,SCT,BKN,BKN,M,5500.00,7000.00,8000.00,M,M,M,M,M,M,M,M,48.20,KRTS 202115Z AUTO 00000G11KT 10SM SCT055 BKN070 BKN080 09/M05 A2999 RMK AO2,M
05U,2024-02-20 21:15,-116.0051,39.6042,1811.23,48.20,32.00,53.27,310.00,12.00,0.00,30.05,M,10.00,M,M,M,M,M,M,M,M,M,M,M,M,M,M,M,M,42.62,K05U 202115Z AUTO 31012KT 10SM 09/00 A3005 RMK A01,M
MEV,2024-02-20 21:15,-119.7500,38.9963,1441.42,51.80,19.40,27.62,220.00,12.00,0.00,29.97,M,10.00,M,CLR,M,M,M,M,M,M,M,M,M,M,M,M,M,M,51.80,KMEV 202115Z AUTO 22012KT 10SM CLR 11/M07 A2997 RMK AO2,M
BAM,2024-02-20 21:15,-116.8743,40.5990,1382.36,53.60,30.20,40.54,0.00,0.00,0.00,30.03,M,10.00,M,SCT,M,M,M,5000.00,M,M,M,M,M,M,M,M,M,M,53.60,KBAM 202115Z AUTO 00000KT 10SM SCT050 12/M01 A3003 RMK AO1,M
HTH,2024-02-20 21:15,-118.6315,38.5448,1282.89,57.20,21.20,24.49,230.00,12.00,0.00,29.97,M,10.00,20.00,SCT,M,M,M,7500.00,M,M,M,M,M,M,M,M,M,M,57.20,KHTH 202115Z AUTO 23012G20KT 10SM SCT075 14/M06 A2997 RMK A01,M
10U,2024-02-20 21:15,-116.1876,41.9532,1637.00,48.20,26.60,42.73,220.00,7.00,0.00,30.03,M,10.00,M,SCT,BKN,BKN,M,5000.00,7000.00,9000.00,M,M,M,M,M,M,M,M,44.53,K10U 202115Z AUTO 22007KT 10SM SCT050 BKN070 BKN090 09/M03 A3003 RMK AO2,M
TMT,2024-02-20 21:15,-117.1971,39.4643,1749.34,47.30,27.30,45.50,240.00,6.00,0.00,30.02,M,10.00,M,SCT,SCT,BKN,M,3600.00,5000.00,7000.00,M,M,M,M,M,M,M,M,43.96,KTMT 202115Z AUTO 24006KT 10SM SCT036 SCT050 BKN070 09/M03 A3002 RMK AO2 T00851026,M
EKO,2024-02-20 21:29,-115.7860,40.8242,1367.00,49.00,37.00,63.10,320.00,3.00,0.00,30.03,M,10.00,M,BKN,BKN,BKN,M,2500.00,3300.00,4300.00,M,M,M,M,M,M,M,M,48.12,KEKO 202129Z AUTO 32003KT 10SM BKN025 BKN033 BKN043 09/03 A3003 RMK AO2 T00940028,M
05U,2024-02-20 21:30,-116.0051,39.6042,1811.23,48.20,33.80,57.26,310.00,14.00,0.00,30.04,M,10.00,M,M,M,M,M,M,M,M,M,M,M,M,M,M,M,M,42.04,K05U 202130Z AUTO 31014KT 10SM 09/01 A3004 RMK A01,M
BVU,2024-02-20 21:35,-114.8611,35.9475,671.00,53.60,50.00,87.56,200.00,5.00,0.00,30.13,M,3.00,M,FEW,SCT,OVC,M,3300.00,4000.00,6000.00,M,-RA,M,M,M,M,M,M,53.60,KBVU 202135Z AUTO 20005KT 3SM -RA FEW033 SCT040 OVC060 12/10 A3013 RMK AO2,M
CXP,2024-02-20 21:35,-119.7326,39.1923,1431.00,51.80,24.80,34.69,160.00,10.00,0.00,29.98,M,10.00,M,CLR,M,M,M,M,M,M,M,M,M,M,M,M,M,M,51.80,KCXP 202135Z AUTO 16010KT 10SM CLR 11/M04 A2998 RMK AO2,M
RTS,2024-02-20 21:35,-119.8764,39.6682,1539.00,48.20,24.80,39.66,250.00,9.00,0.00,29.98,M,10.00,M,BKN,BKN,BKN,M,5500.00,7000.00,12000.00,M,M,M,M,M,M,M,M,43.66,KRTS 202135Z AUTO 25009KT 10SM BKN055 BKN070 BKN120 09/M04 A2998 RMK AO2,M
MEV,2024-02-20 21:35,-119.7500,38.9963,1441.42,51.80,19.40,27.62,200.00,14.00,0.00,29.96,M,10.00,M,CLR,M,M,M,M,M,M,M,M,M,M,M,M,M,M,51.80,KMEV 202135Z AUTO 20014KT 10SM CLR 11/M07 A2996 RMK AO2,M
BAM,2024-02-20 21:35,-116.8743,40.5990,1382.36,55.40,30.20,37.97,220.00,7.00,0.00,30.01,M,10.00,M,CLR,M,M,M,M,M,M,M,M,M,M,M,M,M,M,55.40,KBAM 202135Z AUTO 22007KT 10SM CLR 13/M01 A3001 RMK AO1,M
HTH,2024-02-20 21:35,-118.6315,38.5448,1282.89,59.00,23.00,24.76,130.00,9.00,0.00,29.96,M,10.00,M,BKN,BKN,M,M,8000.00,9000.00,M,M,M,M,M,M,M,M,M,59.00,KHTH 202135Z AUTO 13009KT 10SM BKN080 BKN090 15/M05 A2996 RMK A01,M
10U,2024-02-20 21:35,-116.1876,41.9532,1637.00,48.20,26.60,42.73,160.00,9.00,0.00,30.02,M,10.00,15.00,SCT,BKN,BKN,M,5500.00,6500.00,7500.00,M,M,M,M,M,M,M,M,43.66,K10U 202135Z AUTO 16009G15KT 10SM SCT055 BKN065 BKN075 09/M03 A3002 RMK AO2,M
TMT,2024-02-20 21:35,-117.1971,39.4643,1749.34,49.30,26.40,40.67,190.00,5.00,0.00,30.00,M,10.00,M,BKN,BKN,BKN,M,6000.00,7000.00,11000.00,M,M,M,M,M,M,M,M,46.94,KTMT 202135Z AUTO 19005KT 10SM BKN060 BKN070 BKN110 10/M03 A3000 RMK AO2 T00961031,M
EKO,2024-02-20 21:36,-115.7860,40.8242,1367.00,48.00,36.00,62.97,0.00,0.00,0.00,30.02,M,10.00,M,SCT,BKN,OVC,M,2700.00,3600.00,4300.00,M,M,M,M,M,M,M,M,48.00,KEKO 202136Z AUTO 00000KT 10SM SCT027 BKN036 OVC043 09/02 A3002 RMK AO2 T00890022,M
P68,2024-02-20 21:53,-116.0056,39.6014,1993.00,46.00,35.00,65.26,150.00,14.00,0.00,30.01,1014.10,M,M,M,M,M,M,M,M,M,M,M,M,M,M,M,M,M,39.21,KP68 202153Z AUTO 15014KT 08/02 A3001 RMK AO1 SLP141 T00780017,M
DRA,2024-02-20 21:53,-116.0278,36.6206,1009.00,56.00,42.00,59.26,230.00,15.00,0.00,30.05,1015.30,10.00,19.00,FEW,SCT,BKN,M,5000.00,9500.00,11000.00,M,M,M,M,M,M,M,M,56.00,KDRA 202153Z AUTO 23015G19KT 10SM FEW050 SCT095 BKN110 13/06 A3005 RMK AO2 SLP153 T01330056,M
ELY,2024-02-20 21:53,-114.8453,39.2950,1909.00,44.00,31.00,59.97,150.00,10.00,0.00,30.04,1014.30,10.00,M,OVC,M,M,M,4500.00,M,M,M,M,M,M,M,M,M,M,38.02,KELY 202153Z AUTO 15010KT 10SM OVC045 07/M01 A3004 RMK AO2 SLP143 T00671006,M
VGT,2024-02-20 21:53,-115.1933,36.2111,667.00,56.00,49.00,77.29,120.00,10.00,0.01,30.10,1020.40,10.00,M,OVC,M,M,M,7500.00,M,M,M,-RA,M,M,M,M,M,M,56.00,KVGT 202153Z 12010KT 10SM -RA OVC075 13/09 A3010 RMK AO2 SLP204 P0001 T01330094,M
LOL,2024-02-20 21:53,-118.5701,40.0684,1192.43,53.00,25.00,33.46,230.00,9.00,0.00,29.97,1015.20,10.00,M,CLR,M,M,M,M,M,M,M,M,M,M,M,M,M,M,53.00,KLOL 202153Z AUTO 23009KT 10SM CLR 12/M04 A2997 RMK AO2 SLP152 T01171039,M
BVU,2024-02-20 21:55,-114.8611,35.9475,671.00,53.60,50.00,87.56,260.00,4.00,0.00,30.13,M,5.00,M,FEW,SCT,BKN,M,3300.00,4000.00,4900.00,M,-RA,M,M,M,M,M,M,53.60,KBVU 202155Z AUTO 26004KT 5SM -RA FEW033 SCT040 BKN049 12/10 A3013 RMK AO2,M
CXP,2024-02-20 21:55,-119.7326,39.1923,1431.00,51.80,23.00,32.17,210.00,6.00,0.00,29.97,M,10.00,M,CLR,M,M,M,M,M,M,M,M,M,M,M,M,M,M,51.80,KCXP 202155Z AUTO 21006KT 10SM CLR 11/M05 A2997 RMK AO2,M
RNO,2024-02-20 21:55,-119.7711,39.4839,1341.00,55.00,25.00,31.11,150.00,13.00,0.00,29.95,1012.50,10.00,17.00,SCT,BKN,M,M,6500.00,18000.00,M,M,M,M,M,M,M,M,M,55.00,KRNO 202155Z 15013G17KT 10SM SCT065 BKN180 13/M04 A2995 RMK AO2 SLP125 ACSL DSNT S AND NW T01281039,M
RTS,2024-02-20 21:55,-119.8764,39.6682,1539.00,48.20,26.60,42.73,M,6.00,0.00,29.97,M,10.00,M,FEW,FEW,SCT,M,5500.00,7000.00,12000.00,M,M,M,M,M,M,M,M,45.04,KRTS 202155Z AUTO VRB06KT 10SM FEW055 FEW070 SCT120 09/M03 A2997 RMK AO2,M
05U,2024-02-20 21:55,-116.0051,39.6042,1811.23,48.20,35.60,61.52,300.00,12.00,0.00,30.04,M,10.00,18.00,M,M,M,M,M,M,M,M,M,M,M,M,M,M,M,42.62,K05U 202155Z AUTO 30012G18KT 10SM 09/02 A3004 RMK A01,M
MEV,2024-02-20 21:55,-119.7500,38.9963,1441.42,51.80,21.20,29.82,240.00,13.00,0.00,29.96,M,10.00,M,BKN,M,M,M,11000.00,M,M,M,M,M,M,M,M,M,M,51.80,KMEV 202155Z AUTO 24013KT 10SM BKN110 11/M06 A2996 RMK AO2,M
BAM,2024-02-20 21:55,-116.8743,40.5990,1382.36,55.40,30.20,37.97,240.00,3.00,0.00,30.00,M,10.00,9.00,CLR,M,M,M,M,M,M,M,M,M,M,M,M,M,M,55.40,KBAM 202155Z AUTO 24003G09KT 10SM CLR 13/M01 A3000 RMK AO1,M
HTH,2024-02-20 21:55,-118.6315,38.5448,1282.89,59.00,24.80,26.70,150.00,13.00,0.00,29.94,M,10.00,M,BKN,BKN,M,M,7500.00,8500.00,M,M,M,M,M,M,M,M,M,59.00,KHTH 202155Z AUTO 15013KT 100V170 10SM BKN075 BKN085 15/M04 A2994 RMK A01,M
TMT,2024-02-20 21:55,-117.1971,39.4643,1749.34,49.00,25.70,39.95,320.00,3.00,0.00,29.99,M,10.00,M,SCT,SCT,SCT,M,6000.00,7500.00,11000.00,M,M,M,M,M,M,M,M,48.12,KTMT 202155Z AUTO 32003KT 10SM SCT060 SCT075 SCT110 10/M03 A2999 RMK AO2 T00951035,M
10U,2024-02-20 21:55,-116.1876,41.9532,1637.00,48.20,26.60,42.73,170.00,9.00,0.00,30.01,M,10.00,14.00,BKN,OVC,M,M,6000.00,7000.00,M,M,M,M,M,M,M,M,M,43.66,K10U 202155Z AUTO 17009G14KT 140V200 10SM BKN060 OVC070 09/M03 A3001 RMK AO2,M
INS,2024-02-20 21:55,-115.6733,36.5872,955.00,55.40,44.60,66.91,110.00,17.00,0.00,30.05,1015.40,10.00,M,FEW,SCT,OVC,M,5500.00,7000.00,10000.00,M,M,M,M,M,M,M,M,55.40,KINS 202155Z AUTO 11017KT 10SM FEW055 SCT070 OVC100 13/07 A3005 RMK AO2 SLP154 T01300070,M
LSV,2024-02-20 21:55,-115.0343,36.2362,570.00,56.00,50.70,82.34,M,5.00,0.00,30.09,1018.10,10.00,M,SCT,BKN,M,M,1000.00,5000.00,M,M,-RA,M,M,M,M,M,M,56.00,KLSV 202155Z VRB05KT 10SM -RA SCT010 BKN050 13/10 A3009 RMK RAB2055E02RAB37E39RAB40 SLP181 P//// T01340104 $,M
EKO,2024-02-20 21:56,-115.7860,40.8242,1367.00,50.00,35.00,56.16,0.00,0.00,0.00,30.02,1016.20,10.00,M,SCT,BKN,BKN,M,3100.00,3900.00,4800.00,M,M,M,M,M,M,M,M,50.00,KEKO 202156Z AUTO 00000KT 10SM SCT031 BKN039 BKN048 10/02 A3002 RMK AO2 SLP162 T01000017,M
WMC,2024-02-20 21:56,-117.8072,40.9019,1315.00,55.00,21.00,26.29,200.00,7.00,0.00,29.97,1013.80,10.00,M,CLR,M,M,M,M,M,M,M,M,M,M,M,M,M,M,55.00,KWMC 202156Z AUTO 20007KT 10SM CLR 13/M06 A2997 RMK AO2 SLP138 T01281061,M
NFL,2024-02-20 21:56,-118.7010,39.4166,1199.00,56.00,21.00,25.35,M,4.00,0.00,29.94,1011.20,10.00,M,SCT,SCT,BKN,M,5000.00,12000.00,22000.00,M,M,M,M,M,M,M,M,56.00,KNFL 202156Z VRB04KT 10SM SCT050 SCT120 BKN220 13/M06 A2994 RMK AO2 SLP112 T01331061,M
HND,2024-02-20 21:56,-115.1344,35.9729,742.79,53.00,48.00,83.06,170.00,11.00,0.02,30.13,1021.70,10.00,M,OVC,M,M,M,6000.00,M,M,M,-RA,M,M,M,M,M,M,53.00,KHND 202156Z 17011KT 10SM -RA OVC060 12/09 A3013 RMK AO2 SLP217 P0002 T01170089,M
TPH,2024-02-20 21:56,-117.0904,38.0505,1654.00,49.00,36.00,60.66,190.00,17.00,T,30.00,1014.20,10.00,24.00,SCT,BKN,BKN,M,3300.00,4400.00,5500.00,M,M,M,M,M,M,M,M,42.35,KTPH 202156Z AUTO 19017G24KT 10SM SCT033 BKN044 BKN055 09/02 A3000 RMK AO2 RAB02E12 SLP142 P0000 T00940022 $,M
LAS,2024-02-20 21:56,-115.1634,36.0719,663.00,54.00,48.00,80.07,180.00,11.00,0.01,30.11,1019.00,10.00,19.00,FEW,OVC,M,M,1500.00,7000.00,M,M,-RA,M,M,M,M,M,M,54.00,KLAS 202156Z 18011G19KT 10SM -RA FEW015 OVC070 12/09 A3011 RMK AO2 SLP190 P0001 T01220089,M
BVU,2024-02-20 22:15,-114.8611,35.9475,671.00,53.60,50.00,87.56,0.00,0.00,0.00,30.12,M,4.00,M,SCT,BKN,OVC,M,3500.00,4700.00,5500.00,M,-RA,M,M,M,M,M,M,53.60,KBVU 202215Z AUTO 00000KT 4SM -RA SCT035 BKN047 OVC055 12/10 A3012 RMK AO2,M
CXP,2024-02-20 22:15,-119.7326,39.1923,1431.00,50.00,24.80,37.08,250.00,8.00,0.00,29.97,M,10.00,14.00,CLR,M,M,M,M,M,M,M,M,M,M,M,M,M,M,50.00,KCXP 202215Z AUTO 25008G14KT 10SM CLR 10/M04 A2997 RMK AO2,M
RTS,2024-02-20 22:15,-119.8764,39.6682,1539.00,48.20,23.00,36.78,250.00,9.00,0.00,29.97,M,10.00,M,FEW,FEW,M,M,6000.00,7000.00,M,M,M,M,M,M,M,M,M,43.66,KRTS 202215Z AUTO 25009KT 10SM FEW060 FEW070 09/M05 A2997 RMK AO2,M
05U,2024-02-20 22:15,-116.0051,39.6042,1811.23,46.40,35.60,65.83,310.00,12.00,0.00,30.03,M,10.00,M,M,M,M,M,M,M,M,M,M,M,M,M,M,M,M,40.33,K05U 202215Z AUTO 31012KT 10SM 08/02 A3003 RMK A01,M
MEV,2024-02-20 22:15,-119.7500,38.9963,1441.42,51.80,28.40,40.25,250.00,9.00,0.00,29.96,M,10.00,M,BKN,M,M,M,11000.00,M,M,M,M,M,M,M,M,M,M,51.80,KMEV 202215Z AUTO 25009KT 10SM BKN110 11/M02 A2996 RMK AO2,M
BAM,2024-02-20 22:15,-116.8743,40.5990,1382.36,55.40,30.20,37.97,230.00,6.00,0.00,30.00,M,10.00,M,CLR,M,M,M,M,M,M,M,M,M,M,M,M,M,M,55.40,KBAM 202215Z AUTO 23006KT 10SM CLR 13/M01 A3000 RMK AO1,M
HTH,2024-02-20 22:15,-118.6315,38.5448,1282.89,57.20,24.80,28.48,130.00,10.00,0.00,29.94,M,10.00,17.00,BKN,BKN,M,M,8000.00,9000.00,M,M,M,M,M,M,M,M,M,57.20,KHTH 202215Z AUTO 13010G17KT 10SM BKN080 BKN090 14/M04 A2994 RMK A01,M
10U,2024-02-20 22:15,-116.1876,41.9532,1637.00,50.00,24.80,37.08,210.00,10.00,0.00,30.01,M,10.00,M,SCT,BKN,BKN,M,6000.00,6500.00,7500.00,M,M,M,M,M,M,M,M,50.00,K10U 202215Z AUTO 21010KT 10SM SCT060 BKN065 BKN075 10/M04 A3001 RMK AO2,M
TMT,2024-02-20 22:15,-117.1971,39.4643,1749.34,49.60,26.80,40.89,250.00,3.00,0.00,29.99,M,10.00,M,SCT,M,M,M,10000.00,M,M,M,M,M,M,M,M,M,M,48.81,KTMT 202215Z AUTO 25003KT 10SM SCT100 10/M03 A2999 RMK AO2 T00981029,M
05U,2024-02-20 22:30,-116.0051,39.6042,1811.23,48.20,33.80,57.26,300.00,11.00,0.00,30.03,M,10.00,M,M,M,M,M,M,M,M,M,M,M,M,M,M,M,M,42.94,K05U 202230Z AUTO 30011KT 10SM 09/01 A3003 RMK A01,M
BVU,2024-02-20 22:35,-114.8611,35.9475,671.00,53.60,50.00,87.56,130.00,4.00,0.00,30.12,M,7.00,M,SCT,SCT,OVC,M,3500.00,4200.00,5500.00,M,-RA,M,M,M,M,M,M,53.60,KBVU 202235Z AUTO 13004KT 7SM -RA SCT035 SCT042 OVC055 12/10 A3012 RMK AO2,M
CXP,2024-02-20 22:35,-119.7326,39.1923,1431.00,51.80,21.20,29.82,230.00,7.00,0.00,29.97,M,10.00,13.00,FEW,M,M,M,11000.00,M,M,M,M,M,M,M,M,M,M,51.80,KCXP 202235Z AUTO 23007G13KT 10SM FEW110 11/M06 A2997 RMK AO2,M
RTS,2024-02-20 22:35,-119.8764,39.6682,1539.00,51.80,21.20,29.82,220.00,13.00,0.00,29.97,M,10.00,20.00,FEW,FEW,BKN,M,6000.00,7500.00,11000.00,M,M,M,M,M,M,M,M,51.80,KRTS 202235Z AUTO 22013G20KT 10SM FEW060 FEW075 BKN110 11/M06 A2997 RMK AO2,M
MEV,2024-02-20 22:35,-119.7500,38.9963,1441.42,51.80,23.00,32.17,220.00,12.00,0.00,29.96,M,10.00,M,SCT,M,M,M,11000.00,M,M,M,M,M,M,M,M,M,M,51.80,KMEV 202235Z AUTO 22012KT 10SM SCT110 11/M05 A2996 RMK AO2,M
BAM,2024-02-20 22:35,-116.8743,40.5990,1382.36,55.40,30.20,37.97,280.00,4.00,0.00,29.99,M,10.00,M,CLR,M,M,M,M,M,M,M,M,M,M,M,M,M,M,55.40,KBAM 202235Z AUTO 28004KT 10SM CLR 13/M01 A2999 RMK AO1,M
HTH,2024-02-20 22:35,-118.6315,38.5448,1282.89,59.00,23.00,24.76,180.00,8.00,0.00,29.94,M,10.00,18.00,BKN,BKN,M,M,7500.00,9000.00,M,M,M,M,M,M,M,M,M,59.00,KHTH 202235Z AUTO 18008G18KT 140V210 10SM BKN075 BKN090 15/M05 A2994 RMK A01,M
10U,2024-02-20 22:35,-116.1876,41.9532,1637.00,48.20,24.80,39.66,220.00,10.00,0.00,30.01,M,10.00,M,FEW,FEW,M,M,6000.00,7500.00,M,M,M,M,M,M,M,M,M,43.28,K10U 202235Z AUTO 22010KT 10SM FEW060 FEW075 09/M04 A3001 RMK AO2,M
TMT,2024-02-20 22:35,-117.1971,39.4643,1749.34,48.00,28.40,46.36,290.00,5.00,0.00,29.97,M,10.00,M,SCT,SCT,BKN,M,6000.00,7000.00,10000.00,M,M,M,M,M,M,M,M,45.40,KTMT 202235Z AUTO 29005KT 10SM SCT060 SCT070 BKN100 09/M02 A2997 RMK AO2 T00891020,M
05U,2024-02-20 22:50,-116.0051,39.6042,1811.23,46.40,35.60,65.83,300.00,15.00,0.00,30.03,M,10.00,M,M,M,M,M,M,M,M,M,M,M,M,M,M,M,M,39.45,K05U 202250Z AUTO 30015KT 10SM 08/02 A3003 RMK A01,M
P68,2024-02-20 22:53,-116.0056,39.6014,1993.00,45.00,34.00,65.13,140.00,16.00,0.00,30.00,1013.80,M,22.00,M,M,M,M,M,M,M,M,M,M,M,M,M,M,M,37.36,KP68 202253Z AUTO 14016G22KT 07/01 A3000 RMK AO1 SLP138 T00720011,M
DRA,2024-02-20 22:53,-116.0278,36.6206,1009.00,57.00,37.00,47.04,190.00,14.00,0.00,30.04,1015.00,10.00,20.00,BKN,OVC,M,M,7000.00,9000.00,M,M,M,M,M,M,M,M,M,57.00,KDRA 202253Z AUTO 19014G20KT 10SM BKN070 OVC090 14/03 A3004 RMK AO2 SLP150 T01390028,M
ELY,2024-02-20 22:53,-114.8453,39.2950,1909.00,39.00,35.00,85.42,190.00,10.00,T,30.05,1015.10,10.00,22.00,FEW,BKN,OVC,M,2300.00,3400.00,4300.00,M,-RA,M,M,M,28.00,170.00,2024-02-20 22:32,31.75,KELY 202253Z AUTO 19010G22KT 10SM -RA FEW023 BKN034 OVC043 04/02 A3005 RMK AO2 PK WND 17028/2232 RAB31 SLP151 P0000 T00390017,M
VGT,2024-02-20 22:53,-115.1933,36.2111,667.00,55.00,51.00,86.34,110.00,8.00,T,30.09,1020.30,10.00,M,FEW,SCT,OVC,M,1300.00,2100.00,7000.00,M,-RA,M,M,M,M,M,M,55.00,KVGT 202253Z 11008KT 10SM -RA FEW013 SCT021 OVC070 13/11 A3009 RMK AO2 SLP203 P0000 T01280106,M
LOL,2024-02-20 22:53,-118.5701,40.0684,1192.43,54.00,21.00,27.27,M,3.00,0.00,29.95,1014.50,10.00,M,CLR,M,M,M,M,M,M,M,M,M,M,M,M,M,M,54.00,KLOL 202253Z AUTO VRB03KT 10SM CLR 12/M06 A2995 RMK AO2 SLP145 T01221061,M
BVU,2024-02-20 22:55,-114.8611,35.9475,671.00,53.60,50.00,87.56,120.00,3.00,0.00,30.10,M,5.00,M,BKN,BKN,OVC,M,3500.00,4100.00,6000.00,M,-RA,M,M,M,M,M,M,53.60,KBVU 202255Z AUTO 12003KT 5SM -RA BKN035 BKN041 OVC060 12/10 A3010 RMK AO2,M
CXP,2024-02-20 22:55,-119.7326,39.1923,1431.00,50.00,21.20,31.87,210.00,8.00,0.00,29.97,M,10.00,M,CLR,M,M,M,M,M,M,M,M,M,M,M,M,M,M,50.00,KCXP 202255Z AUTO 21008KT 10SM CLR 10/M06 A2997 RMK AO2,M
RNO,2024-02-20 22:55,-119.7711,39.4839,1341.00,54.00,18.00,23.99,190.00,15.00,0.00,29.95,1012.70,10.00,21.00,SCT,SCT,BKN,M,10000.00,16000.00,25000.00,M,M,M,M,M,M,M,M,54.00,KRNO 202255Z 19015G21KT 10SM SCT100 SCT160 BKN250 12/M08 A2995 RMK AO2 SLP127 ACSL DSNT ALQDS T01221078,M
RTS,2024-02-20 22:55,-119.8764,39.6682,1539.00,50.00,24.80,37.08,240.00,14.00,0.00,29.97,M,10.00,20.00,SCT,M,M,M,11000.00,M,M,M,M,M,M,M,M,M,M,50.00,KRTS 202255Z AUTO 24014G20KT 10SM SCT110 10/M04 A2997 RMK AO2,M
MEV,2024-02-20 22:55,-119.7500,38.9963,1441.42,50.00,24.80,37.08,220.00,12.00,0.00,29.95,M,10.00,M,CLR,M,M,M,M,M,M,M,M,M,M,M,M,M,M,50.00,KMEV 202255Z AUTO 22012KT 10SM CLR 10/M04 A2995 RMK AO2,M
BAM,2024-02-20 22:55,-116.8743,40.5990,1382.36,53.60,26.60,34.98,280.00,3.00,0.00,29.99,M,10.00,M,CLR,M,M,M,M,M,M,M,M,M,M,M,M,M,M,53.60,KBAM 202255Z AUTO 28003KT 10SM CLR 12/M03 A2999 RMK AO1,M
HTH,2024-02-20 22:55,-118.6315,38.5448,1282.89,59.00,21.20,22.95,M,5.00,0.00,29.93,M,10.00,11.00,SCT,BKN,BKN,M,8000.00,9000.00,12000.00,M,M,M,M,M,M,M,M,59.00,KHTH 202255Z AUTO VRB05G11KT 10SM SCT080 BKN090 BKN120 15/M06 A2993 RMK A01,M
TMT,2024-02-20 22:55,-117.1971,39.4643,1749.34,47.50,25.50,41.91,340.00,4.00,0.00,29.97,M,10.00,M,SCT,SCT,BKN,M,6000.00,7000.00,9000.00,M,M,M,M,M,M,M,M,45.52,KTMT 202255Z AUTO 34004KT 10SM SCT060 SCT070 BKN090 09/M04 A2997 RMK AO2 T00861036,M
10U,2024-02-20 22:55,-116.1876,41.9532,1637.00,48.20,24.80,39.66,190.00,4.00,0.00,30.00,M,10.00,M,FEW,M,M,M,6000.00,M,M,M,M,M,M,M,M,M,M,46.34,K10U 202255Z AUTO 19004KT 10SM FEW060 09/M04 A3000 RMK AO2,M
INS,2024-02-20 22:55,-115.6733,36.5872,955.00,53.20,46.20,77.05,100.00,16.00,0.00,30.06,1015.90,10.00,M,OVC,M,M,M,6500.00,M,M,M,M,M,M,M,M,M,M,53.20,KINS 202255Z AUTO 10016KT 10SM OVC065 12/08 A3006 RMK AO2 SLP159 T01180079,M
LSV,2024-02-20 22:55,-115.0343,36.2362,570.00,55.60,50.00,81.40,130.00,10.00,0.02,30.07,1017.60,10.00,M,SCT,BKN,M,M,1000.00,5000.00,M,M,M,M,M,M,M,M,M,55.60,KLSV 202255Z 13010KT 10SM SCT010 BKN050 13/10 A3007 RMK RAE2155DZB2155E2156RAB2156E2157DZB2157E2158RAB2158E05RAB13E19 SLP176 P0002 T01310101 $,M
EKO,2024-02-20 22:56,-115.7860,40.8242,1367.00,51.00,35.00,54.12,80.00,6.00,0.00,29.99,1015.00,10.00,M,SCT,BKN,M,M,4600.00,6500.00,M,M,M,M,M,M,M,M,M,51.00,KEKO 202256Z AUTO 08006KT 10SM SCT046 BKN065 11/02 A2999 RMK AO2 SLP150 T01060017,M
WMC,2024-02-20 22:56,-117.8072,40.9019,1315.00,55.00,20.00,25.20,200.00,6.00,0.00,29.96,1013.60,10.00,14.00,CLR,M,M,M,M,M,M,M,M,M,M,M,M,M,M,55.00,KWMC 202256Z AUTO 20006G14KT 10SM CLR 13/M07 A2996 RMK AO2 SLP136 T01281067,M
NFL,2024-02-20 22:56,-118.7010,39.4166,1199.00,58.00,21.00,23.59,M,5.00,0.00,29.93,1010.70,10.00,M,SCT,BKN,BKN,M,5000.00,12000.00,25000.00,M,M,M,M,M,M,M,M,58.00,KNFL 202256Z VRB05KT 10SM SCT050 BKN120 BKN250 14/M06 A2993 RMK AO2 SLP107 T01441061,M
HND,2024-02-20 22:56,-115.1344,35.9729,742.79,53.00,48.00,83.06,180.00,8.00,0.01,30.12,1021.20,10.00,M,OVC,M,M,M,5500.00,M,M,M,-RA,M,M,M,M,M,M,53.00,KHND 202256Z 18008KT 10SM -RA OVC055 12/09 A3012 RMK AO2 SLP212 P0001 T01170089,M
TPH,2024-02-20 22:56,-117.0904,38.0505,1654.00,50.00,36.00,58.44,190.00,15.00,0.00,29.98,1013.20,10.00,M,FEW,M,M,M,3700.00,M,M,M,M,M,M,M,26.00,200.00,2024-02-20 22:16,50.00,KTPH 202256Z AUTO 19015KT 10SM FEW037 10/02 A2998 RMK AO2 PK WND 20026/2216 SLP132 T01000022,M
LAS,2024-02-20 22:56,-115.1634,36.0719,663.00,54.00,48.00,80.07,180.00,8.00,0.01,30.10,1018.70,10.00,M,FEW,OVC,M,M,1500.00,7000.00,M,M,-RA,M,M,M,M,M,M,54.00,KLAS 202256Z 18008KT 10SM -RA FEW015 OVC070 12/09 A3010 RMK AO2 RAE16B41 SLP187 P0001 T01220089,M
05U,2024-02-20 23:10,-116.0051,39.6042,1811.23,46.40,35.60,65.83,290.00,12.00,0.00,30.02,M,10.00,M,M,M,M,M,M,M,M,M,M,M,M,M,M,M,M,40.33,K05U 202310Z AUTO 29012KT 10SM 08/02 A3002 RMK A01,M
BVU,2024-02-20 23:15,-114.8611,35.9475,671.00,53.60,48.20,81.87,0.00,0.00,0.00,30.11,M,9.00,M,FEW,OVC,M,M,3900.00,6000.00,M,M,M,M,M,M,M,M,M,53.60,KBVU 202315Z AUTO 00000KT 9SM FEW039 OVC060 12/09 A3011 RMK AO2,M
CXP,2024-02-20 23:15,-119.7326,39.1923,1431.00,50.00,21.20,31.87,M,4.00,0.00,29.97,M,10.00,M,FEW,M,M,M,11000.00,M,M,M,M,M,M,M,M,M,M,50.00,KCXP 202315Z AUTO VRB04KT 10SM FEW110 10/M06 A2997 RMK AO2,M
ELY,2024-02-20 23:15,-114.8453,39.2950,1909.00,38.00,34.00,85.35,180.00,8.00,T,30.06,M,10.00,M,BKN,OVC,M,M,2400.00,3600.00,M,M,-RA,M,M,M,M,M,M,31.50,KELY 202315Z AUTO 18008KT 10SM -RA BKN024 OVC036 03/01 A3006 RMK AO2 P0000 T00330011,M
RTS,2024-02-20 23:15,-119.8764,39.6682,1539.00,50.00,21.20,31.87,230.00,14.00,0.00,29.96,M,10.00,M,SCT,M,M,M,11000.00,M,M,M,M,M,M,M,M,M,M,50.00,KRTS 202315Z AUTO 23014KT 10SM SCT110 10/M06 A2996 RMK AO2,M
MEV,2024-02-20 23:15,-119.7500,38.9963,1441.42,50.00,24.80,37.08,220.00,15.00,0.00,29.95,M,10.00,20.00,FEW,FEW,M,M,8500.00,11000.00,M,M,M,M,M,M,M,M,M,50.00,KMEV 202315Z AUTO 22015G20KT 10SM FEW085 FEW110 10/M04 A2995 RMK AO2,M
BAM,2024-02-20 23:15,-116.8743,40.5990,1382.36,55.40,28.40,35.28,0.00,0.00,0.00,29.98,M,10.00,M,CLR,M,M,M,M,M,M,M,M,M,M,M,M,M,M,55.40,KBAM 202315Z AUTO 00000KT 10SM CLR 13/M02 A2998 RMK AO1,M
HTH,2024-02-20 23:15,-118.6315,38.5448,1282.89,59.00,21.20,22.95,220.00,13.00,0.00,29.93,M,10.00,M,BKN,BKN,M,M,7500.00,9000.00,M,M,M,M,M,M,M,M,M,59.00,KHTH 202315Z AUTO 22013KT 10SM BKN075 BKN090 15/M06 A2993 RMK A01,M
10U,2024-02-20 23:15,-116.1876,41.9532,1637.00,46.40,28.40,49.24,160.00,10.00,0.00,30.00,M,10.00,M,SCT,BKN,M,M,7000.00,8000.00,M,M,M,M,M,M,M,M,M,41.03,K10U 202315Z AUTO 16010KT 10SM SCT070 BKN080 08/M02 A3000 RMK AO2,M
TMT,2024-02-20 23:15,-117.1971,39.4643,1749.34,48.00,29.00,47.52,330.00,6.00,0.00,29.97,M,10.00,M,SCT,OVC,M,M,8000.00,9000.00,M,M,M,M,M,M,M,M,M,44.80,KTMT 202315Z AUTO 33006KT 10SM SCT080 OVC090 09/M02 A2997 RMK AO2 T00891017,M
05U,2024-02-20 23:30,-116.0051,39.6042,1811.23,44.60,33.80,65.61,310.00,11.00,0.00,30.02,M,10.00,17.00,M,M,M,M,M,M,M,M,M,M,M,M,M,M,M,38.39,K05U 202330Z AUTO 31011G17KT 10SM 07/01 A3002 RMK A01,M
RTS,2024-02-20 23:35,-119.8764,39.6682,1539.00,46.40,19.40,33.79,230.00,16.00,0.00,29.97,M,10.00,22.00,FEW,FEW,BKN,M,8000.00,9000.00,11000.00,M,M,M,M,M,M,M,M,39.19,KRTS 202335Z AUTO 23016G22KT 10SM FEW080 FEW090 BKN110 08/M07 A2997 RMK AO2,M
BVU,2024-02-20 23:35,-114.8611,35.9475,671.00,53.60,48.20,81.87,200.00,5.00,0.00,30.11,M,9.00,M,FEW,OVC,M,M,4500.00,6000.00,M,M,-DZ,M,M,M,M,M,M,53.60,KBVU 202335Z AUTO 20005KT 9SM -DZ FEW045 OVC060 12/09 A3011 RMK AO2,M
CXP,2024-02-20 23:35,-119.7326,39.1923,1431.00,50.00,21.20,31.87,M,6.00,0.00,29.96,M,10.00,M,FEW,SCT,M,M,9500.00,11000.00,M,M,M,M,M,M,M,M,M,50.00,KCXP 202335Z AUTO VRB06KT 10SM FEW095 SCT110 10/M06 A2996 RMK AO2,M
MEV,2024-02-20 23:35,-119.7500,38.9963,1441.42,48.20,26.60,42.73,200.00,16.00,0.00,29.95,M,10.00,M,BKN,BKN,M,M,8000.00,11000.00,M,M,M,M,M,M,M,M,M,41.53,KMEV 202335Z AUTO 20016KT 10SM BKN080 BKN110 09/M03 A2995 RMK AO2,M
BAM,2024-02-20 23:35,-116.8743,40.5990,1382.36,55.40,26.60,32.76,0.00,0.00,0.00,29.97,M,10.00,M,CLR,M,M,M,M,M,M,M,M,M,M,M,M,M,M,55.40,KBAM 202335Z AUTO 00000KT 10SM CLR 13/M03 A2997 RMK AO1,M
HTH,2024-02-20 23:35,-118.6315,38.5448,1282.89,59.00,19.40,21.26,220.00,14.00,0.00,29.93,M,10.00,21.00,BKN,BKN,M,M,8000.00,9500.00,M,M,M,M,M,M,M,M,M,59.00,KHTH 202335Z AUTO 22014G21KT 10SM BKN080 BKN095 15/M07 A2993 RMK A01,M
10U,2024-02-20 23:35,-116.1876,41.9532,1637.00,48.20,30.20,49.53,120.00,13.00,0.00,30.00,M,10.00,M,BKN,OVC,M,M,6000.00,7000.00,M,M,M,M,M,M,M,M,M,42.32,K10U 202335Z AUTO 12013KT 10SM BKN060 OVC070 09/M01 A3000 RMK AO2,M
TMT,2024-02-20 23:35,-117.1971,39.4643,1749.34,46.60,30.00,52.17,340.00,3.00,0.00,29.96,M,10.00,M,SCT,M,M,M,9000.00,M,M,M,M,M,M,M,M,M,M,45.38,KTMT 202335Z AUTO 34003KT 10SM SCT090 08/M01 A2996 RMK AO2 T00811012,M
05U,2024-02-20 23:50,-116.0051,39.6042,1811.23,42.80,33.80,70.28,300.00,10.00,0.00,30.01,M,10.00,15.00,M,M,M,M,M,M,M,M,M,M,M,M,M,M,M,36.51,K05U 202350Z AUTO 30010G15KT 10SM 06/01 A3001 RMK A01,M
P68,2024-02-20 23:53,-116.0056,39.6014,1993.00,43.00,34.00,70.30,140.00,12.00,0.00,29.98,1013.80,M,M,M,M,M,M,M,M,M,M,M,M,M,M,M,M,M,36.00,KP68 202353Z AUTO 14012KT 06/01 A2998 RMK AO1 SLP138 T00610011 10094 20061 56016,M
DRA,2024-02-20 23:53,-116.0278,36.6206,1009.00,53.00,40.00,61.19,180.00,18.00,0.00,30.05,1015.60,10.00,27.00,OVC,M,M,M,7000.00,M,M,M,M,M,M,M,30.00,180.00,2024-02-20 22:58,53.00,KDRA 202353Z AUTO 18018G27KT 10SM OVC070 12/04 A3005 RMK AO2 PK WND 18030/2258 SLP156 T01170044 10150 20117 55004,M
ELY,2024-02-20 23:53,-114.8453,39.2950,1909.00,39.00,36.00,88.87,240.00,6.00,0.03,30.04,1015.00,10.00,M,BKN,OVC,M,M,3000.00,4400.00,M,M,M,M,M,M,M,M,M,33.96,KELY 202353Z AUTO 24006KT 10SM BKN030 OVC044 04/02 A3004 RMK AO2 RAE47 SLP150 P0003 60003 T00390022 10083 20033 56007,M
VGT,2024-02-20 23:53,-115.1933,36.2111,667.00,55.00,50.00,83.20,90.00,8.00,0.01,30.11,1020.70,10.00,M,FEW,OVC,M,M,1300.00,3800.00,M,M,-RA,M,M,M,M,M,M,55.00,KVGT 202353Z 09008KT 10SM -RA FEW013 OVC038 13/10 A3011 RMK AO2 SLP207 P0001 60005 T01280100 10144 20128 53003,M
LOL,2024-02-20 23:53,-118.5701,40.0684,1192.43,52.00,23.00,31.93,330.00,4.00,0.00,29.94,1014.10,10.00,M,CLR,M,M,M,M,M,M,M,M,M,M,M,M,M,M,52.00,KLOL 202353Z AUTO 33004KT 10SM CLR 11/M05 A2994 RMK AO2 SLP141 T01111050 10122 20072 56019,M
LSV,2024-02-20 23:54,-115.0343,36.2362,570.00,55.20,50.50,84.14,90.00,4.00,0.01,30.09,1018.30,10.00,M,SCT,BKN,OVC,M,1000.00,4000.00,8000.00,M,M,M,M,M,M,M,M,55.20,KLSV 202354Z 09004KT 10SM SCT010 BKN040 OVC080 13/10 A3009 RMK RAB22E28 SLP183 P0001 6//// T01290103 10153 20128 55004 $,M
BVU,2024-02-20 23:55,-114.8611,35.9475,671.00,51.80,50.00,93.55,180.00,4.00,0.00,30.12,M,3.00,M,FEW,BKN,OVC,M,2900.00,3500.00,6000.00,M,RA,M,M,M,M,M,M,51.80,KBVU 202355Z AUTO 18004KT 3SM RA FEW029 BKN035 OVC060 11/10 A3012 RMK AO2,M
CXP,2024-02-20 23:55,-119.7326,39.1923,1431.00,50.00,21.20,31.87,230.00,7.00,0.00,29.97,M,10.00,12.00,FEW,FEW,BKN,M,6000.00,7500.00,9500.00,M,M,M,M,M,M,M,M,50.00,KCXP 202355Z AUTO 23007G12KT 10SM FEW060 FEW075 BKN095 10/M06 A2997 RMK AO2,M
RNO,2024-02-20 23:55,-119.7711,39.4839,1341.00,52.00,20.00,28.13,210.00,10.00,0.00,29.95,1012.60,10.00,19.00,FEW,SCT,BKN,M,6000.00,11000.00,19000.00,M,M,M,M,M,M,M,M,52.00,KRNO 202355Z 21010G19KT 10SM FEW060 SCT110 BKN190 11/M07 A2995 RMK AO2 SLP126 ACSL DSNT ALQDS T01111067 10133 20083 56009,M
RTS,2024-02-20 23:55,-119.8764,39.6682,1539.00,46.40,23.00,39.36,230.00,14.00,0.00,29.97,M,10.00,M,BKN,BKN,M,M,8000.00,11000.00,M,M,M,M,M,M,M,M,M,39.72,KRTS 202355Z AUTO 23014KT 10SM BKN080 BKN110 08/M05 A2997 RMK AO2,M
MEV,2024-02-20 23:55,-119.7500,38.9963,1441.42,48.20,26.60,42.73,190.00,13.00,0.00,29.96,M,10.00,19.00,SCT,SCT,M,M,8000.00,10000.00,M,M,M,M,M,M,M,M,M,42.32,KMEV 202355Z AUTO 19013G19KT 10SM SCT080 SCT100 09/M03 A2996 RMK AO2,M
BAM,2024-02-20 23:55,-116.8743,40.5990,1382.36,53.60,24.80,32.46,0.00,0.00,0.00,29.96,M,10.00,M,CLR,M,M,M,M,M,M,M,M,M,M,M,M,M,M,53.60,KBAM 202355Z AUTO 00000KT 10SM CLR 12/M04 A2996 RMK AO1,M
HTH,2024-02-20 23:55,-118.6315,38.5448,1282.89,57.20,19.40,22.68,160.00,12.00,0.00,29.93,M,10.00,19.00,FEW,FEW,M,M,8000.00,9000.00,M,M,M,M,M,M,M,M,M,57.20,KHTH 202355Z AUTO 16012G19KT 10SM FEW080 FEW090 14/M07 A2993 RMK A01,M
TMT,2024-02-20 23:55,-117.1971,39.4643,1749.34,46.00,30.70,54.91,330.00,3.00,0.00,29.96,M,10.00,M,SCT,M,M,M,12000.00,M,M,M,M,M,M,M,M,M,M,44.69,KTMT 202355Z AUTO 33003KT 10SM SCT120 08/M01 A2996 RMK AO2 T00771007 10099 20043,M
10U,2024-02-20 23:55,-116.1876,41.9532,1637.00,44.60,30.20,56.74,130.00,13.00,0.00,30.00,M,10.00,M,SCT,OVC,M,M,5500.00,7000.00,M,M,M,M,M,M,M,M,M,37.71,K10U 202355Z AUTO 13013KT 10SM SCT055 OVC070 07/M01 A3000 RMK AO2,M
INS,2024-02-20 23:55,-115.6733,36.5872,955.00,53.80,43.50,68.01,240.00,10.00,0.00,30.08,1016.80,10.00,M,BKN,OVC,M,M,6500.00,8000.00,M,M,M,M,M,M,M,M,M,53.80,KINS 202355Z AUTO 24010KT 10SM BKN065 OVC080 12/06 A3008 RMK AO2 SLP168 T01210064 10142 20117 53008,M
EKO,2024-02-20 23:56,-115.7860,40.8242,1367.00,51.00,32.00,47.99,100.00,3.00,0.00,29.97,1014.40,10.00,M,CLR,M,M,M,M,M,M,M,M,M,M,M,M,M,M,51.00,KEKO 202356Z AUTO 10003KT 10SM CLR 11/00 A2997 RMK AO2 SLP144 T01060000 10111 20044 56021,M
WMC,2024-02-20 23:56,-117.8072,40.9019,1315.00,54.00,19.00,25.04,M,4.00,0.00,29.94,1013.10,10.00,M,CLR,M,M,M,M,M,M,M,M,M,M,M,M,M,M,54.00,KWMC 202356Z AUTO VRB04KT 10SM CLR 12/M07 A2994 RMK AO2 SLP131 T01221072 10128 20083 56017,M
NFL,2024-02-20 23:56,-118.7010,39.4166,1199.00,55.00,30.00,38.21,60.00,11.00,0.00,29.91,1010.30,10.00,M,SCT,BKN,BKN,M,5000.00,12000.00,25000.00,M,M,M,M,M,M,M,M,55.00,KNFL 202356Z 06011KT 10SM SCT050 BKN120 BKN250 13/M01 A2991 RMK AO2 SLP103 T01281011 10150 20083 56020,M
HND,2024-02-20 23:56,-115.1344,35.9729,742.79,52.00,47.00,82.99,190.00,14.00,0.01,30.12,1021.20,10.00,M,OVC,M,M,M,6500.00,M,M,M,-RA,M,M,M,M,M,M,52.00,KHND 202356Z 19014KT 10SM -RA OVC065 11/08 A3012 RMK AO2 SLP212 P0001 60009 T01110083 10133 20111 55005,M
TPH,2024-02-20 23:56,-117.0904,38.0505,1654.00,49.00,36.00,60.66,180.00,18.00,0.00,30.00,1014.10,10.00,26.00,FEW,M,M,M,5000.00,M,M,M,M,M,M,M,26.00,190.00,2024-02-20 23:42,42.13,KTPH 202356Z AUTO 18018G26KT 10SM FEW050 09/02 A3000 RMK AO2 PK WND 19026/2342 SLP141 60011 T00940022 10100 20050 55010,M
LAS,2024-02-20 23:56,-115.1634,36.0719,663.00,53.00,48.00,83.06,190.00,8.00,T,30.11,1018.90,10.00,M,FEW,BKN,OVC,M,1500.00,6500.00,8000.00,M,-RA,M,M,M,M,M,M,53.00,KLAS 202356Z 19008KT 10SM -RA FEW015 BKN065 OVC080 12/09 A3011 RMK AO2 SLP189 P0000 60007 T01170089 10139 20117 55003,M
