station,valid,lon,lat,elevation,tmpf,dwpf,relh,drct,sknt,p01i,alti,mslp,vsby,gust,skyc1,skyc2,skyc3,skyc4,skyl1,skyl2,skyl3,skyl4,wxcodes,ice_accretion_1hr,ice_accretion_3hr,ice_accretion_6hr,peak_wind_gust,peak_wind_drct,peak_wind_time,feel,metar,snowdepth
MEV,2022-08-12 00:15,-119.7500,38.9963,1441.42,89.60,37.40,15.92,280.00,9.00,0.00,30.11,M,10.00,15.00,CLR,M,M,M,M,M,M,M,M,M,M,M,M,M,M,85.67,KMEV 120015Z AUTO 28009G15KT 10SM CLR 32/03 A3011 RMK AO2,M
HTH,2022-08-12 00:15,-118.6315,38.5448,1282.89,93.20,46.40,20.13,320.00,10.00,0.00,30.02,M,10.00,M,CLR,M,M,M,M,M,M,M,M,M,M,M,M,M,M,89.55,KHTH 120015Z AUTO 32010KT 10SM CLR 34/08 A3002 RMK A01,M
TMT,2022-08-12 00:15,-117.1971,39.4643,1749.34,M,M,M,0.00,0.00,0.00,30.19,M,10.00,M,SCT,M,M,M,11000.00,M,M,M,M,M,M,M,M,M,M,M,KTMT 120015Z AUTO 00000KT 10SM SCT110 A3019 RMK AO2,M
CXP,2022-08-12 00:15,-119.7326,39.1923,1431.00,87.80,35.60,15.70,260.00,12.00,0.00,30.13,M,10.00,18.00,CLR,M,M,M,M,M,M,M,M,M,M,M,M,M,M,84.12,KCXP 120015Z AUTO 26012G18KT 240V310 10SM CLR 31/02 A3013 RMK AO2,M
BVU,2022-08-12 00:15,-114.8611,35.9475,671.00,96.80,57.20,26.84,90.00,3.00,0.00,29.94,M,M,M,M,M,M,M,M,M,M,M,M,M,M,M,M,M,M,95.77,KBVU 120015Z AUTO 09003KT 36/14 A2994 RMK AO2 PWINO TSNO,M
RTS,2022-08-12 00:15,-119.8764,39.6682,1539.00,86.00,26.60,11.55,260.00,16.00,0.00,30.16,M,10.00,22.00,CLR,M,M,M,M,M,M,M,M,M,M,M,M,M,M,82.39,KRTS 120015Z AUTO 26016G22KT 10SM CLR 30/M03 A3016 RMK AO2,M
BAM,2022-08-12 00:15,-116.8743,40.5990,1382.36,93.20,50.00,23.04,200.00,6.00,0.00,30.09,M,10.00,M,CLR,M,M,M,M,M,M,M,M,M,M,M,M,M,M,90.10,KBAM 120015Z AUTO 20006KT 10SM CLR 34/10 A3009 RMK AO1,M
TPH,2022-08-12 00:16,-117.0904,38.0505,1654.00,89.00,41.00,18.62,180.00,15.00,0.00,30.16,M,10.00,20.00,FEW,M,M,M,10000.00,M,M,M,M,M,M,M,M,M,M,85.39,KTPH 120016Z AUTO 18015G20KT 10SM FEW100 32/05 A3016 RMK AO2 WSHFT 2356 T03170050,M
HTH,2022-08-12 00:35,-118.6315,38.5448,1282.89,93.20,44.60,18.80,330.00,9.00,0.00,30.02,M,10.00,M,CLR,M,M,M,M,M,M,M,M,M,M,M,M,M,M,89.34,KHTH 120035Z AUTO 33009KT 10SM CLR 34/07 A3002 RMK A01,M
TMT,2022-08-12 00:35,-117.1971,39.4643,1749.34,M,M,M,0.00,0.00,0.00,30.19,M,10.00,M,SCT,M,M,M,10000.00,M,M,M,M,M,M,M,M,M,M,M,KTMT 120035Z AUTO 00000KT 10SM SCT100 A3019 RMK AO2,M
BAM,2022-08-12 00:35,-116.8743,40.5990,1382.36,93.20,50.00,23.04,0.00,0.00,0.00,30.08,M,10.00,M,CLR,M,M,M,M,M,M,M,M,M,M,M,M,M,M,90.10,KBAM 120035Z AUTO 00000KT 10SM CLR 34/10 A3008 RMK AO1,M
BVU,2022-08-12 00:35,-114.8611,35.9475,671.00,96.80,57.20,26.84,180.00,7.00,0.00,29.93,M,M,M,M,M,M,M,M,M,M,M,M,M,M,M,M,M,M,95.77,KBVU 120035Z AUTO 18007KT 36/14 A2993 RMK AO2 PWINO TSNO,M
CXP,2022-08-12 00:35,-119.7326,39.1923,1431.00,87.80,35.60,15.70,270.00,10.00,0.00,30.13,M,10.00,16.00,CLR,M,M,M,M,M,M,M,M,M,M,M,M,M,M,84.12,KCXP 120035Z AUTO 27010G16KT 10SM CLR 31/02 A3013 RMK AO2,M
RTS,2022-08-12 00:35,-119.8764,39.6682,1539.00,86.00,26.60,11.55,260.00,16.00,0.00,30.15,M,10.00,24.00,CLR,M,M,M,M,M,M,M,M,M,M,M,M,M,M,82.39,KRTS 120035Z AUTO 26016G24KT 10SM CLR 30/M03 A3015 RMK AO2,M
MEV,2022-08-12 00:35,-119.7500,38.9963,1441.42,87.80,39.20,18.09,300.00,9.00,0.00,30.11,M,10.00,M,CLR,M,M,M,M,M,M,M,M,M,M,M,M,M,M,84.22,KMEV 120035Z AUTO 30009KT 270V330 10SM CLR 31/04 A3011 RMK AO2,M
ELY,2022-08-12 00:51,-114.8453,39.2950,1909.00,77.00,55.40,47.25,170.00,7.00,0.00,30.25,M,10.00,M,CLR,M,M,M,M,M,M,M,VCTS,M,M,M,M,M,M,77.00,KELY 120051Z AUTO 17007KT 10SM VCTS CLR 25/13 A3025 RMK AO2 LTG DSNT W-NE,M
LOL,2022-08-12 00:53,-118.5701,40.0684,1192.43,94.00,40.00,15.35,200.00,7.00,0.00,30.01,1012.20,10.00,M,CLR,M,M,M,M,M,M,M,M,M,M,M,M,M,M,89.60,KLOL 120053Z AUTO 20007KT 10SM CLR 34/04 A3001 RMK AO2 SLP122 T03440044,M
P68,2022-08-12 00:53,-116.0056,39.6014,1993.00,85.00,46.00,25.77,140.00,5.00,0.00,30.18,1013.70,M,M,M,M,M,M,M,M,M,M,M,M,M,M,M,M,M,82.35,KP68 120053Z AUTO 14005KT 29/08 A3018 RMK AO1 SLP137 T02940078,M
DRA,2022-08-12 00:53,-116.0278,36.6206,1009.00,97.00,50.00,20.49,250.00,13.00,0.00,29.99,1009.90,10.00,17.00,CLR,M,M,M,M,M,M,M,M,M,M,M,M,M,M,93.91,KDRA 120053Z AUTO 25013G17KT 10SM CLR 36/10 A2999 RMK AO2 SLP099 T03610100,M
ELY,2022-08-12 00:53,-114.8453,39.2950,1909.00,77.00,55.00,46.57,170.00,5.00,0.00,30.25,1015.40,10.00,M,CLR,M,M,M,M,M,M,M,VCTS,M,M,M,M,M,M,77.00,KELY 120053Z AUTO 17005KT 10SM VCTS CLR 25/13 A3025 RMK AO2 LTG DSNT W-NE SLP154 T02500128,M
VGT,2022-08-12 00:53,-115.1933,36.2111,667.00,99.00,59.00,26.78,150.00,6.00,0.00,29.91,1011.60,10.00,M,CLR,M,M,M,M,M,M,M,M,M,M,M,M,M,M,98.97,KVGT 120053Z 15006KT 10SM CLR 37/15 A2991 RMK AO2 SLP116 T03720150,M
MEV,2022-08-12 00:55,-119.7500,38.9963,1441.42,86.00,41.00,20.54,300.00,15.00,0.00,30.11,M,10.00,M,CLR,M,M,M,M,M,M,M,M,M,M,M,M,M,M,82.86,KMEV 120055Z AUTO 30015KT 10SM CLR 30/05 A3011 RMK AO2,M
BAM,2022-08-12 00:55,-116.8743,40.5990,1382.36,91.40,48.20,22.78,10.00,3.00,0.00,30.08,M,10.00,M,CLR,M,M,M,M,M,M,M,M,M,M,M,M,M,M,88.09,KBAM 120055Z AUTO 01003KT 10SM CLR 33/09 A3008 RMK AO1,M
HTH,2022-08-12 00:55,-118.6315,38.5448,1282.89,91.40,44.60,19.89,330.00,9.00,0.00,30.02,M,10.00,M,CLR,M,M,M,M,M,M,M,M,M,M,M,M,M,M,87.68,KHTH 120055Z AUTO 33009KT 10SM CLR 33/07 A3002 RMK A01,M
TMT,2022-08-12 00:55,-117.1971,39.4643,1749.34,M,M,M,290.00,5.00,0.00,30.18,M,10.00,M,OVC,M,M,M,10000.00,M,M,M,M,M,M,M,M,M,M,M,KTMT 120055Z AUTO 29005KT 10SM OVC100 A3018 RMK AO2,M
RNO,2022-08-12 00:55,-119.7711,39.4839,1341.00,90.00,37.00,15.48,270.00,17.00,0.00,30.07,1012.20,10.00,27.00,FEW,FEW,M,M,12000.00,25000.00,M,M,M,M,M,M,27.00,270.00,2022-08-12 00:55,86.00,KRNO 120055Z 27017G27KT 10SM FEW120 FEW250 32/03 A3007 RMK AO2 PK WND 27027/0055 SLP122 T03220028,M
RTS,2022-08-12 00:55,-119.8764,39.6682,1539.00,86.00,26.60,11.55,250.00,16.00,0.00,30.15,M,10.00,25.00,CLR,M,M,M,M,M,M,M,M,M,M,M,M,M,M,82.39,KRTS 120055Z AUTO 25016G25KT 10SM CLR 30/M03 A3015 RMK AO2,M
BVU,2022-08-12 00:55,-114.8611,35.9475,671.00,96.80,59.00,28.63,220.00,6.00,0.00,29.93,M,M,M,M,M,M,M,M,M,M,M,M,M,M,M,M,M,M,96.50,KBVU 120055Z AUTO 22006KT 36/15 A2993 RMK AO2 PWINO TSNO,M
CXP,2022-08-12 00:55,-119.7326,39.1923,1431.00,86.00,35.60,16.63,280.00,9.00,0.00,30.13,M,10.00,M,CLR,M,M,M,M,M,M,M,M,M,M,M,M,M,M,82.69,KCXP 120055Z AUTO 28009KT 10SM CLR 30/02 A3013 RMK AO2,M
NFL,2022-08-12 00:56,-118.7010,39.4166,1199.00,93.00,47.00,20.64,360.00,6.00,0.00,30.01,1013.30,10.00,M,SCT,SCT,M,M,8000.00,18000.00,M,M,M,M,M,M,M,M,M,89.43,KNFL 120056Z 36006KT 10SM SCT080 SCT180 34/08 A3001 RMK AO2 SLP133 T03390083,M
TPH,2022-08-12 00:56,-117.0904,38.0505,1654.00,88.00,41.00,19.28,180.00,13.00,0.00,30.15,1012.70,10.00,M,CLR,M,M,M,M,M,M,M,M,M,M,M,M,M,M,84.46,KTPH 120056Z AUTO 18013KT 10SM CLR 31/05 A3015 RMK AO2 WSHFT 2356 SLP127 T03110050,M
LAS,2022-08-12 00:56,-115.1634,36.0719,663.00,98.00,57.00,25.61,200.00,7.00,0.00,29.93,1010.40,10.00,M,FEW,SCT,BKN,M,10000.00,18000.00,22000.00,M,M,M,M,M,M,M,M,97.13,KLAS 120056Z 20007KT 10SM FEW100 SCT180 BKN220 37/14 A2993 RMK AO2 SLP104 CB DSNT NE AND SE-S ACC DSNT N T03670139,M
WMC,2022-08-12 00:56,-117.8072,40.9019,1315.00,94.00,49.00,21.64,260.00,13.00,0.00,30.05,1012.30,10.00,M,BKN,M,M,M,10000.00,M,M,M,M,M,M,M,M,M,M,90.59,KWMC 120056Z AUTO 26013KT 10SM BKN100 34/09 A3005 RMK AO2 SLP123 T03440094 $,M
HND,2022-08-12 00:56,-115.1344,35.9729,742.79,98.00,57.00,25.61,150.00,4.00,0.00,29.97,1013.20,10.00,M,CLR,M,M,M,M,M,M,M,M,M,M,M,M,M,M,97.13,KHND 120056Z 15004KT 10SM CLR 37/14 A2997 RMK AO2 SLP132 T03670139,M
EKO,2022-08-12 00:56,-115.7860,40.8242,1367.00,84.00,48.00,28.60,230.00,7.00,0.00,30.12,1014.60,10.00,M,CLR,M,M,M,M,M,M,M,M,M,M,M,M,M,M,81.87,KEKO 120056Z AUTO 23007KT 10SM CLR 29/09 A3012 RMK AO2 SLP146 T02890089,M
INS,2022-08-12 00:58,-115.6733,36.5872,955.00,95.70,53.00,23.92,110.00,9.00,0.00,29.97,1009.70,10.00,M,CLR,M,M,M,M,M,M,M,M,M,M,M,M,M,M,93.30,KINS 120058Z AUTO 11009KT 10SM CLR 35/12 A2997 RMK AO2 SLP097 T03540117,M
LSV,2022-08-12 00:58,-115.0343,36.2362,570.00,101.30,57.70,23.84,110.00,3.00,0.00,29.89,M,10.00,M,FEW,SCT,M,M,12000.00,15000.00,M,M,M,M,M,M,M,M,M,100.99,KLSV 120058Z COR AUTO 11003KT 10SM FEW120 SCT150 39/14 A2989 RMK AO2 SLPNO T03850143 $ COR 0100,M
ELY,2022-08-12 01:06,-114.8453,39.2950,1909.00,77.00,57.00,50.07,170.00,4.00,0.00,30.25,M,10.00,M,BKN,M,M,M,9500.00,M,M,M,M,M,M,M,M,M,M,77.00,KELY 120106Z AUTO 17004KT 10SM BKN095 25/14 A3025 RMK AO2 LTG DSNT W-NE T02500139,M
RTS,2022-08-12 01:15,-119.8764,39.6682,1539.00,84.20,26.60,12.23,240.00,17.00,0.00,30.15,M,10.00,25.00,CLR,M,M,M,M,M,M,M,M,M,M,M,M,M,M,81.13,KRTS 120115Z AUTO 24017G25KT 10SM CLR 29/M03 A3015 RMK AO2,M
MEV,2022-08-12 01:15,-119.7500,38.9963,1441.42,86.00,41.00,20.54,300.00,11.00,0.00,30.11,M,10.00,M,CLR,M,M,M,M,M,M,M,M,M,M,M,M,M,M,82.86,KMEV 120115Z AUTO 30011KT 10SM CLR 30/05 A3011 RMK AO2,M
BAM,2022-08-12 01:15,-116.8743,40.5990,1382.36,91.40,50.00,24.37,180.00,7.00,0.00,30.08,M,10.00,M,CLR,M,M,M,M,M,M,M,M,M,M,M,M,M,M,88.36,KBAM 120115Z AUTO 18007KT 10SM CLR 33/10 A3008 RMK AO1,M
HTH,2022-08-12 01:15,-118.6315,38.5448,1282.89,91.40,46.40,21.29,320.00,10.00,0.00,30.01,M,10.00,M,CLR,M,M,M,M,M,M,M,M,M,M,M,M,M,M,87.86,KHTH 120115Z AUTO 32010KT 10SM CLR 33/08 A3001 RMK A01,M
TMT,2022-08-12 01:15,-117.1971,39.4643,1749.34,M,M,M,0.00,0.00,0.00,30.18,M,10.00,M,BKN,M,M,M,9000.00,M,M,M,M,M,M,M,M,M,M,M,KTMT 120115Z AUTO 00000KT 10SM BKN090 A3018 RMK AO2,M
BVU,2022-08-12 01:15,-114.8611,35.9475,671.00,96.80,57.20,26.84,220.00,7.00,0.00,29.94,M,M,M,M,M,M,M,M,M,M,M,M,M,M,M,M,M,M,95.77,KBVU 120115Z AUTO 22007KT 36/14 A2994 RMK AO2 PWINO TSNO,M
CXP,2022-08-12 01:15,-119.7326,39.1923,1431.00,86.00,37.40,17.85,270.00,12.00,0.00,30.12,M,10.00,19.00,CLR,M,M,M,M,M,M,M,M,M,M,M,M,M,M,82.73,KCXP 120115Z AUTO 27012G19KT 10SM CLR 30/03 A3012 RMK AO2,M
ELY,2022-08-12 01:25,-114.8453,39.2950,1909.00,77.00,55.00,46.57,170.00,6.00,0.00,30.26,M,10.00,M,BKN,M,M,M,10000.00,M,M,M,VCTS,M,M,M,M,M,M,77.00,KELY 120125Z AUTO 17006KT 10SM VCTS BKN100 25/13 A3026 RMK AO2 LTG DSNT ALQDS T02500128,M
CXP,2022-08-12 01:35,-119.7326,39.1923,1431.00,86.00,37.40,17.85,280.00,10.00,0.00,30.12,M,10.00,M,CLR,M,M,M,M,M,M,M,M,M,M,M,M,M,M,82.73,KCXP 120135Z AUTO 28010KT 10SM CLR 30/03 A3012 RMK AO2,M
RTS,2022-08-12 01:35,-119.8764,39.6682,1539.00,82.40,28.40,13.96,250.00,17.00,0.00,30.15,M,10.00,M,CLR,M,M,M,M,M,M,M,M,M,M,M,M,M,M,79.94,KRTS 120135Z AUTO 25017KT 10SM CLR 28/M02 A3015 RMK AO2,M
MEV,2022-08-12 01:35,-119.7500,38.9963,1441.42,84.20,41.00,21.76,280.00,7.00,0.00,30.11,M,10.00,17.00,CLR,M,M,M,M,M,M,M,M,M,M,M,M,M,M,81.52,KMEV 120135Z AUTO 28007G17KT 10SM CLR 29/05 A3011 RMK AO2,M
BAM,2022-08-12 01:35,-116.8743,40.5990,1382.36,91.40,50.00,24.37,240.00,5.00,0.00,30.08,M,10.00,M,CLR,M,M,M,M,M,M,M,M,M,M,M,M,M,M,88.36,KBAM 120135Z AUTO 24005KT 10SM CLR 33/10 A3008 RMK AO1,M
HTH,2022-08-12 01:35,-118.6315,38.5448,1282.89,91.40,48.20,22.78,330.00,8.00,0.00,30.01,M,10.00,M,CLR,M,M,M,M,M,M,M,M,M,M,M,M,M,M,88.09,KHTH 120135Z AUTO 33008KT 10SM CLR 33/09 A3001 RMK A01,M
TMT,2022-08-12 01:35,-117.1971,39.4643,1749.34,M,M,M,330.00,4.00,0.00,30.18,M,10.00,M,SCT,BKN,M,M,9000.00,12000.00,M,M,M,M,M,M,M,M,M,M,KTMT 120135Z AUTO 33004KT 10SM SCT090 BKN120 A3018 RMK AO2,M
BVU,2022-08-12 01:35,-114.8611,35.9475,671.00,96.80,57.20,26.84,210.00,7.00,0.00,29.94,M,M,M,M,M,M,M,M,M,M,M,M,M,M,M,M,M,M,95.77,KBVU 120135Z AUTO 21007KT 36/14 A2994 RMK AO2 PWINO TSNO,M
LOL,2022-08-12 01:53,-118.5701,40.0684,1192.43,93.00,39.00,15.24,0.00,0.00,0.00,30.00,1011.60,10.00,M,CLR,M,M,M,M,M,M,M,M,M,M,M,M,M,M,88.73,KLOL 120153Z AUTO 00000KT 10SM CLR 34/04 A3000 RMK AO2 SLP116 T03390039,M
P68,2022-08-12 01:53,-116.0056,39.6014,1993.00,81.00,52.00,36.58,360.00,4.00,0.00,30.19,1013.80,M,M,M,M,M,M,M,M,M,M,M,M,M,M,M,M,M,80.34,KP68 120153Z AUTO 36004KT 27/11 A3019 RMK AO1 SLP138 T02720111,M
VGT,2022-08-12 01:53,-115.1933,36.2111,667.00,99.00,58.00,25.74,140.00,7.00,0.00,29.92,1011.80,10.00,M,CLR,M,M,M,M,M,M,M,M,M,M,M,M,M,M,98.49,KVGT 120153Z 14007KT 10SM CLR 37/14 A2992 RMK AO2 LTG DSNT NE SLP118 T03720144,M
DRA,2022-08-12 01:53,-116.0278,36.6206,1009.00,95.00,49.00,20.92,210.00,12.00,0.00,29.99,1010.10,10.00,19.00,FEW,M,M,M,10000.00,M,M,M,M,M,M,M,M,M,M,91.68,KDRA 120153Z AUTO 21012G19KT 10SM FEW100 35/09 A2999 RMK AO2 SLP101 T03500094,M
ELY,2022-08-12 01:53,-114.8453,39.2950,1909.00,71.00,56.00,58.65,310.00,9.00,0.00,30.27,1016.60,10.00,17.00,SCT,BKN,M,M,8500.00,10000.00,M,M,M,M,M,M,M,M,M,71.10,KELY 120153Z AUTO 31009G17KT 10SM SCT085 BKN100 22/13 A3027 RMK AO2 LTG DSNT NW SLP166 T02170133,M
BAM,2022-08-12 01:55,-116.8743,40.5990,1382.36,91.40,50.00,24.37,240.00,7.00,0.00,30.08,M,10.00,M,CLR,M,M,M,M,M,M,M,M,M,M,M,M,M,M,88.36,KBAM 120155Z AUTO 24007KT 10SM CLR 33/10 A3008 RMK AO1,M
TMT,2022-08-12 01:55,-117.1971,39.4643,1749.34,M,M,M,350.00,3.00,0.00,30.18,M,10.00,M,BKN,BKN,M,M,10000.00,12000.00,M,M,M,M,M,M,M,M,M,M,KTMT 120155Z AUTO 35003KT 10SM BKN100 BKN120 A3018 RMK AO2,M
BVU,2022-08-12 01:55,-114.8611,35.9475,671.00,96.80,55.40,25.15,190.00,5.00,0.00,29.94,M,M,M,M,M,M,M,M,M,M,M,M,M,M,M,M,M,M,95.14,KBVU 120155Z AUTO 19005KT 36/13 A2994 RMK AO2 PWINO TSNO,M
CXP,2022-08-12 01:55,-119.7326,39.1923,1431.00,84.20,37.40,18.91,290.00,9.00,0.00,30.13,M,10.00,M,CLR,M,M,M,M,M,M,M,M,M,M,M,M,M,M,81.38,KCXP 120155Z AUTO 29009KT 10SM CLR 29/03 A3013 RMK AO2,M
RTS,2022-08-12 01:55,-119.8764,39.6682,1539.00,82.40,28.40,13.96,250.00,18.00,0.00,30.15,M,10.00,26.00,CLR,M,M,M,M,M,M,M,M,M,M,M,M,M,M,79.94,KRTS 120155Z AUTO 25018G26KT 10SM CLR 28/M02 A3015 RMK AO2,M
MEV,2022-08-12 01:55,-119.7500,38.9963,1441.42,82.40,41.00,23.07,290.00,13.00,0.00,30.11,M,10.00,M,CLR,M,M,M,M,M,M,M,M,M,M,M,M,M,M,80.29,KMEV 120155Z AUTO 29013KT 10SM CLR 28/05 A3011 RMK AO2,M
HTH,2022-08-12 01:55,-118.6315,38.5448,1282.89,89.60,50.00,25.79,330.00,6.00,0.00,30.01,M,10.00,M,CLR,M,M,M,M,M,M,M,M,M,M,M,M,M,M,86.70,KHTH 120155Z AUTO 33006KT 10SM CLR 32/10 A3001 RMK A01,M
RNO,2022-08-12 01:55,-119.7711,39.4839,1341.00,87.00,38.00,17.58,280.00,19.00,0.00,30.07,1012.30,10.00,M,FEW,FEW,M,M,12000.00,25000.00,M,M,M,M,M,M,26.00,280.00,2022-08-12 01:04,83.61,KRNO 120155Z 28019KT 10SM FEW120 FEW250 31/03 A3007 RMK AO2 PK WND 28026/0104 SLP123 T03060033,M
LAS,2022-08-12 01:56,-115.1634,36.0719,663.00,97.00,55.00,24.63,0.00,0.00,0.00,29.93,1010.60,10.00,M,FEW,SCT,BKN,M,10000.00,18000.00,22000.00,M,M,M,M,M,M,M,M,95.23,KLAS 120156Z 00000KT 10SM FEW100 SCT180 BKN220 36/13 A2993 RMK AO2 SLP106 CB DSNT N-NE AND SE AND W T03610128,M
HND,2022-08-12 01:56,-115.1344,35.9729,742.79,97.00,58.00,27.36,230.00,4.00,0.00,29.97,1013.40,10.00,M,CLR,M,M,M,M,M,M,M,M,M,M,M,M,M,M,96.26,KHND 120156Z 23004KT 10SM CLR 36/14 A2997 RMK AO2 SLP134 T03610144,M
WMC,2022-08-12 01:56,-117.8072,40.9019,1315.00,91.00,48.00,22.90,250.00,9.00,0.00,30.05,1012.10,10.00,M,CLR,M,M,M,M,M,M,M,M,M,M,M,M,M,M,87.69,KWMC 120156Z AUTO 25009KT 10SM CLR 33/09 A3005 RMK AO2 SLP121 T03280089 $,M
NFL,2022-08-12 01:56,-118.7010,39.4166,1199.00,93.00,46.00,19.95,20.00,5.00,0.00,30.00,1013.10,10.00,M,SCT,SCT,M,M,8000.00,18000.00,M,M,M,M,M,M,M,M,M,89.31,KNFL 120156Z 02005KT 10SM SCT080 SCT180 34/08 A3000 RMK AO2 SLP131 T03390078,M
EKO,2022-08-12 01:56,-115.7860,40.8242,1367.00,82.00,48.00,30.51,0.00,0.00,0.00,30.12,1014.70,10.00,M,SCT,M,M,M,9500.00,M,M,M,M,M,M,M,M,M,M,80.53,KEKO 120156Z AUTO 00000KT 10SM SCT095 28/09 A3012 RMK AO2 SLP147 T02780089,M
TPH,2022-08-12 01:56,-117.0904,38.0505,1654.00,86.00,41.00,20.54,180.00,8.00,0.00,30.15,1012.50,10.00,M,CLR,M,M,M,M,M,M,M,M,M,M,M,M,M,M,82.86,KTPH 120156Z AUTO 18008KT 10SM CLR 30/05 A3015 RMK AO2 SLP125 T03000050,M
LSV,2022-08-12 01:58,-115.0343,36.2362,570.00,100.80,57.20,23.77,0.00,0.00,0.00,29.90,1009.80,10.00,M,CLR,M,M,M,M,M,M,M,M,M,M,M,M,M,M,100.21,KLSV 120158Z AUTO 00000KT 10SM CLR 38/14 A2990 RMK AO2 SLP098 T03820140 $,M
INS,2022-08-12 01:58,-115.6733,36.5872,955.00,94.00,54.00,25.97,120.00,11.00,0.00,29.98,1009.90,10.00,M,CLR,M,M,M,M,M,M,M,M,M,M,M,M,M,M,91.88,KINS 120158Z AUTO 12011KT 10SM CLR 35/12 A2998 RMK AO2 SLP099 T03450122,M
BVU,2022-08-12 02:15,-114.8611,35.9475,671.00,96.80,57.20,26.84,170.00,5.00,0.00,29.95,M,M,M,M,M,M,M,M,M,M,M,M,M,M,M,M,M,M,95.77,KBVU 120215Z AUTO 17005KT 36/14 A2995 RMK AO2 PWINO TSNO,M
BAM,2022-08-12 02:15,-116.8743,40.5990,1382.36,89.60,50.00,25.79,270.00,3.00,0.00,30.08,M,10.00,M,CLR,M,M,M,M,M,M,M,M,M,M,M,M,M,M,86.70,KBAM 120215Z AUTO 27003KT 10SM CLR 32/10 A3008 RMK AO1,M
MEV,2022-08-12 02:15,-119.7500,38.9963,1441.42,80.60,42.80,26.22,290.00,11.00,0.00,30.11,M,10.00,20.00,CLR,M,M,M,M,M,M,M,M,M,M,M,M,M,M,79.30,KMEV 120215Z AUTO 29011G20KT 10SM CLR 27/06 A3011 RMK AO2,M
CXP,2022-08-12 02:15,-119.7326,39.1923,1431.00,82.40,39.20,21.51,290.00,8.00,0.00,30.12,M,10.00,M,CLR,M,M,M,M,M,M,M,M,M,M,M,M,M,M,80.21,KCXP 120215Z AUTO 29008KT 260V320 10SM CLR 28/04 A3012 RMK AO2,M
RTS,2022-08-12 02:15,-119.8764,39.6682,1539.00,80.60,28.40,14.81,260.00,20.00,0.00,30.15,M,10.00,M,SCT,M,M,M,12000.00,M,M,M,M,M,M,M,M,M,M,78.72,KRTS 120215Z AUTO 26020KT 10SM SCT120 27/M02 A3015 RMK AO2,M
HTH,2022-08-12 02:15,-118.6315,38.5448,1282.89,89.60,50.00,25.79,330.00,5.00,0.00,30.01,M,10.00,M,CLR,M,M,M,M,M,M,M,M,M,M,M,M,M,M,86.70,KHTH 120215Z AUTO 33005KT 10SM CLR 32/10 A3001 RMK A01,M
TMT,2022-08-12 02:15,-117.1971,39.4643,1749.34,M,M,M,350.00,3.00,0.00,30.18,M,10.00,M,SCT,M,M,M,10000.00,M,M,M,M,M,M,M,M,M,M,M,KTMT 120215Z AUTO 35003KT 10SM SCT100 A3018 RMK AO2,M
TMT,2022-08-12 02:35,-117.1971,39.4643,1749.34,M,M,M,0.00,0.00,0.00,30.19,M,10.00,M,CLR,M,M,M,M,M,M,M,M,M,M,M,M,M,M,M,KTMT 120235Z AUTO 00000KT 10SM CLR A3019 RMK AO2,M
RTS,2022-08-12 02:35,-119.8764,39.6682,1539.00,80.60,28.40,14.81,250.00,18.00,0.00,30.16,M,10.00,23.00,BKN,M,M,M,12000.00,M,M,M,M,M,M,M,M,M,M,78.72,KRTS 120235Z AUTO 25018G23KT 10SM BKN120 27/M02 A3016 RMK AO2,M
CXP,2022-08-12 02:35,-119.7326,39.1923,1431.00,80.60,39.20,22.81,260.00,6.00,0.00,30.13,M,10.00,13.00,CLR,M,M,M,M,M,M,M,M,M,M,M,M,M,M,79.10,KCXP 120235Z AUTO 26006G13KT 10SM CLR 27/04 A3013 RMK AO2,M
BVU,2022-08-12 02:35,-114.8611,35.9475,671.00,95.00,59.00,30.26,150.00,7.00,0.00,29.95,M,M,M,M,M,M,M,M,M,M,M,M,M,M,M,M,M,M,94.51,KBVU 120235Z AUTO 15007KT 35/15 A2995 RMK AO2 PWINO TSNO,M
MEV,2022-08-12 02:35,-119.7500,38.9963,1441.42,80.60,41.00,24.46,280.00,13.00,0.00,30.12,M,10.00,19.00,CLR,M,M,M,M,M,M,M,M,M,M,M,M,M,M,79.20,KMEV 120235Z AUTO 28013G19KT 10SM CLR 27/05 A3012 RMK AO2,M
BAM,2022-08-12 02:35,-116.8743,40.5990,1382.36,89.60,50.00,25.79,260.00,4.00,0.00,30.09,M,10.00,M,CLR,M,M,M,M,M,M,M,M,M,M,M,M,M,M,86.70,KBAM 120235Z AUTO 26004KT 10SM CLR 32/10 A3009 RMK AO1,M
HTH,2022-08-12 02:35,-118.6315,38.5448,1282.89,87.80,48.20,25.52,310.00,7.00,0.00,30.02,M,10.00,M,CLR,M,M,M,M,M,M,M,M,M,M,M,M,M,M,84.87,KHTH 120235Z AUTO 31007KT 10SM CLR 31/09 A3002 RMK A01,M
P68,2022-08-12 02:53,-116.0056,39.6014,1993.00,76.00,53.00,45.06,90.00,5.00,0.00,30.20,1014.00,M,M,M,M,M,M,M,M,M,M,M,M,M,M,M,M,M,75.90,KP68 120253Z AUTO 09005KT 24/12 A3020 RMK AO1 SLP140 T02440117 53002,M
LOL,2022-08-12 02:53,-118.5701,40.0684,1192.43,86.00,41.00,20.54,100.00,5.00,0.00,30.01,1011.80,10.00,M,CLR,M,M,M,M,M,M,M,M,M,M,M,M,M,M,82.86,KLOL 120253Z AUTO 10005KT 10SM CLR 30/05 A3001 RMK AO2 SLP118 T03000050 55006,M
DRA,2022-08-12 02:53,-116.0278,36.6206,1009.00,92.00,49.00,23.03,210.00,6.00,0.00,30.00,1010.40,10.00,M,CLR,M,M,M,M,M,M,M,M,M,M,M,M,M,M,88.66,KDRA 120253Z AUTO 21006KT 10SM CLR 33/09 A3000 RMK AO2 SLP104 T03330094 53002,M
ELY,2022-08-12 02:53,-114.8453,39.2950,1909.00,68.00,57.00,67.86,M,M,0.00,30.27,1016.20,10.00,M,FEW,M,M,M,10000.00,M,M,M,M,M,M,M,M,M,M,68.00,KELY 120253Z AUTO 10SM FEW100 20/14 A3027 RMK AO2 SLP162 T02000139 50005,M
VGT,2022-08-12 02:53,-115.1933,36.2111,667.00,98.00,57.00,25.61,160.00,5.00,0.00,29.93,1012.20,10.00,M,FEW,M,M,M,11000.00,M,M,M,M,M,M,M,M,M,M,97.13,KVGT 120253Z 16005KT 10SM FEW110 37/14 A2993 RMK AO2 LTG DSNT SW-N SLP122 T03670139 53004,M
BAM,2022-08-12 02:55,-116.8743,40.5990,1382.36,86.00,50.00,28.90,250.00,4.00,0.00,30.09,M,10.00,M,CLR,M,M,M,M,M,M,M,M,M,M,M,M,M,M,83.62,KBAM 120255Z AUTO 25004KT 10SM CLR 30/10 A3009 RMK AO1,M
HTH,2022-08-12 02:55,-118.6315,38.5448,1282.89,86.00,48.20,27.03,310.00,6.00,0.00,30.02,M,10.00,M,CLR,M,M,M,M,M,M,M,M,M,M,M,M,M,M,83.40,KHTH 120255Z AUTO 31006KT 10SM CLR 30/09 A3002 RMK A01,M
BVU,2022-08-12 02:55,-114.8611,35.9475,671.00,95.00,59.00,30.26,160.00,7.00,0.00,29.96,M,M,M,M,M,M,M,M,M,M,M,M,M,M,M,M,M,M,94.51,KBVU 120255Z AUTO 16007KT 35/15 A2996 RMK AO2 PWINO TSNO,M
CXP,2022-08-12 02:55,-119.7326,39.1923,1431.00,80.60,39.20,22.81,M,5.00,0.00,30.13,M,10.00,M,FEW,M,M,M,1600.00,M,M,M,M,M,M,M,M,M,M,79.10,KCXP 120255Z AUTO VRB05KT 10SM FEW016 27/04 A3013 RMK AO2,M
TMT,2022-08-12 02:55,-117.1971,39.4643,1749.34,M,M,M,50.00,3.00,0.00,30.19,M,10.00,M,CLR,M,M,M,M,M,M,M,M,M,M,M,M,M,M,M,KTMT 120255Z AUTO 05003KT 10SM CLR A3019 RMK AO2,M
RNO,2022-08-12 02:55,-119.7711,39.4839,1341.00,83.00,38.00,20.11,290.00,13.00,0.00,30.08,1012.90,10.00,20.00,FEW,FEW,M,M,11000.00,25000.00,M,M,M,M,M,M,M,M,M,80.49,KRNO 120255Z 29013G20KT 10SM FEW110 FEW250 28/03 A3008 RMK AO2 SLP129 T02830033 53003,M
RTS,2022-08-12 02:55,-119.8764,39.6682,1539.00,78.80,28.40,15.71,270.00,12.00,0.00,30.17,M,10.00,24.00,OVC,M,M,M,12000.00,M,M,M,M,M,M,M,M,M,M,78.80,KRTS 120255Z AUTO 27012G24KT 10SM OVC120 26/M02 A3017 RMK AO2,M
MEV,2022-08-12 02:55,-119.7500,38.9963,1441.42,78.80,41.00,25.95,280.00,12.00,0.00,30.12,M,10.00,18.00,CLR,M,M,M,M,M,M,M,M,M,M,M,M,M,M,78.80,KMEV 120255Z AUTO 28012G18KT 10SM CLR 26/05 A3012 RMK AO2,M
NFL,2022-08-12 02:56,-118.7010,39.4166,1199.00,87.00,54.00,32.34,50.00,4.00,0.00,30.01,1013.20,10.00,M,FEW,SCT,SCT,M,8000.00,12000.00,18000.00,M,M,M,M,M,M,M,M,85.19,KNFL 120256Z 05004KT 10SM FEW080 SCT120 SCT180 31/12 A3001 RMK AO2 SLP132 T03060122 55004,M
EKO,2022-08-12 02:56,-115.7860,40.8242,1367.00,77.00,50.00,38.74,150.00,7.00,0.00,30.13,1015.10,10.00,M,SCT,M,M,M,12000.00,M,M,M,M,M,M,M,M,M,M,77.00,KEKO 120256Z AUTO 15007KT 10SM SCT120 25/10 A3013 RMK AO2 SLP151 T02500100 53000,M
HND,2022-08-12 02:56,-115.1344,35.9729,742.79,95.00,59.00,30.26,140.00,7.00,0.00,29.99,1013.80,10.00,M,CLR,M,M,M,M,M,M,M,M,M,M,M,M,M,M,94.51,KHND 120256Z 14007KT 10SM CLR 35/15 A2999 RMK AO2 LTG DSNT N AND W SLP138 T03500150 53004,M
WMC,2022-08-12 02:56,-117.8072,40.9019,1315.00,82.00,51.00,34.25,250.00,4.00,0.00,30.05,1012.60,10.00,M,CLR,M,M,M,M,M,M,M,M,M,M,M,M,M,M,80.85,KWMC 120256Z AUTO 25004KT 10SM CLR 28/11 A3005 RMK AO2 SLP126 T02780106 55004 $,M
TPH,2022-08-12 02:56,-117.0904,38.0505,1654.00,82.00,42.00,24.38,170.00,7.00,0.00,30.17,1013.00,10.00,M,CLR,M,M,M,M,M,M,M,M,M,M,M,M,M,M,80.09,KTPH 120256Z AUTO 17007KT 10SM CLR 28/06 A3017 RMK AO2 SLP130 T02780056 53001,M
LAS,2022-08-12 02:56,-115.1634,36.0719,663.00,97.00,56.00,25.45,150.00,3.00,0.00,29.95,1011.00,10.00,M,FEW,SCT,BKN,M,10000.00,18000.00,22000.00,M,M,M,M,M,M,M,M,95.53,KLAS 120256Z 15003KT 10SM FEW100 SCT180 BKN220 36/13 A2995 RMK AO2 LTG DSNT N AND W SLP110 ACC E-SE CB DSNT N-NE AND SE AND W T03610133 53003,M
INS,2022-08-12 02:58,-115.6733,36.5872,955.00,92.00,55.20,28.87,130.00,11.00,0.00,29.99,1010.20,10.00,M,CLR,M,M,M,M,M,M,M,M,M,M,M,M,M,M,90.17,KINS 120258Z AUTO 13011KT 10SM CLR 33/13 A2999 RMK AO2 SLP102 T03340129,M
LSV,2022-08-12 02:58,-115.0343,36.2362,570.00,98.00,59.20,27.89,110.00,9.00,0.00,29.91,1010.00,10.00,M,SCT,M,M,M,10000.00,M,M,M,M,M,M,M,M,M,M,97.82,KLSV 120258Z AUTO 11009KT 10SM SCT100 37/15 A2991 RMK AO2 SLP100 T03660151 $,M
LSV,2022-08-12 03:09,-115.0343,36.2362,570.00,96.80,59.00,28.63,120.00,9.00,0.00,29.92,1010.40,10.00,M,FEW,M,M,M,10000.00,M,M,M,VCTS,M,M,M,M,M,M,96.50,KLSV 120309Z 12009KT 10SM VCTS FEW100 36/15 A2992 RMK LTG DSNT NW-N SLP104 $,M
CXP,2022-08-12 03:15,-119.7326,39.1923,1431.00,78.80,39.20,24.19,M,4.00,0.00,30.14,M,10.00,M,CLR,M,M,M,M,M,M,M,M,M,M,M,M,M,M,78.80,KCXP 120315Z AUTO VRB04KT 10SM CLR 26/04 A3014 RMK AO2,M
TMT,2022-08-12 03:15,-117.1971,39.4643,1749.34,M,M,M,20.00,4.00,0.00,30.19,M,10.00,M,CLR,M,M,M,M,M,M,M,M,M,M,M,M,M,M,M,KTMT 120315Z AUTO 02004KT 10SM CLR A3019 RMK AO2,M
HTH,2022-08-12 03:15,-118.6315,38.5448,1282.89,86.00,48.20,27.03,260.00,4.00,0.00,30.03,M,10.00,M,SCT,M,M,M,12000.00,M,M,M,M,M,M,M,M,M,M,83.40,KHTH 120315Z AUTO 26004KT 10SM SCT120 30/09 A3003 RMK A01,M
MEV,2022-08-12 03:15,-119.7500,38.9963,1441.42,77.00,41.00,27.53,280.00,13.00,0.00,30.13,M,10.00,M,CLR,M,M,M,M,M,M,M,M,M,M,M,M,M,M,77.00,KMEV 120315Z AUTO 28013KT 10SM CLR 25/05 A3013 RMK AO2,M
RTS,2022-08-12 03:15,-119.8764,39.6682,1539.00,77.00,28.40,16.67,280.00,11.00,0.00,30.18,M,10.00,M,BKN,M,M,M,12000.00,M,M,M,M,M,M,M,M,M,M,77.00,KRTS 120315Z AUTO 28011KT 10SM BKN120 25/M02 A3018 RMK AO2,M
BVU,2022-08-12 03:15,-114.8611,35.9475,671.00,95.00,59.00,30.26,150.00,7.00,0.00,29.96,M,M,M,M,M,M,M,M,M,M,M,M,M,M,M,M,M,M,94.51,KBVU 120315Z AUTO 15007KT 35/15 A2996 RMK AO2 PWINO TSNO,M
BAM,2022-08-12 03:15,-116.8743,40.5990,1382.36,82.40,51.80,34.69,250.00,5.00,0.00,30.09,M,10.00,M,BKN,M,M,M,11000.00,M,M,M,M,M,M,M,M,M,M,81.20,KBAM 120315Z AUTO 25005KT 10SM BKN110 28/11 A3009 RMK AO1,M
VGT,2022-08-12 03:17,-115.1933,36.2111,667.00,98.00,57.00,25.61,170.00,4.00,0.00,29.95,M,10.00,M,OVC,M,M,M,10000.00,M,M,M,VCTS,M,M,M,M,M,M,97.13,KVGT 120317Z 17004KT 10SM VCTS OVC100 37/14 A2995 RMK AO2 LTG DSNT N T03670139,M
HTH,2022-08-12 03:35,-118.6315,38.5448,1282.89,86.00,46.40,25.26,280.00,4.00,0.00,30.04,M,10.00,M,SCT,M,M,M,12000.00,M,M,M,M,M,M,M,M,M,M,83.22,KHTH 120335Z AUTO 28004KT 10SM SCT120 30/08 A3004 RMK A01,M
RTS,2022-08-12 03:35,-119.8764,39.6682,1539.00,75.20,28.40,17.70,290.00,8.00,0.00,30.18,M,10.00,14.00,BKN,M,M,M,12000.00,M,M,M,M,M,M,M,M,M,M,75.20,KRTS 120335Z AUTO 29008G14KT 10SM BKN120 24/M02 A3018 RMK AO2,M
CXP,2022-08-12 03:35,-119.7326,39.1923,1431.00,78.80,39.20,24.19,260.00,7.00,0.00,30.14,M,10.00,13.00,CLR,M,M,M,M,M,M,M,M,M,M,M,M,M,M,78.80,KCXP 120335Z AUTO 26007G13KT 10SM CLR 26/04 A3014 RMK AO2,M
BVU,2022-08-12 03:35,-114.8611,35.9475,671.00,95.00,59.00,30.26,140.00,6.00,0.00,29.97,M,M,M,M,M,M,M,M,M,M,M,M,M,M,M,M,M,M,94.51,KBVU 120335Z AUTO 14006KT 35/15 A2997 RMK AO2 PWINO TSNO,M
MEV,2022-08-12 03:35,-119.7500,38.9963,1441.42,77.00,41.00,27.53,270.00,12.00,0.00,30.14,M,10.00,17.00,CLR,M,M,M,M,M,M,M,M,M,M,M,M,M,M,77.00,KMEV 120335Z AUTO 27012G17KT 10SM CLR 25/05 A3014 RMK AO2,M
BAM,2022-08-12 03:35,-116.8743,40.5990,1382.36,80.60,51.80,36.79,250.00,5.00,0.00,30.10,M,10.00,M,BKN,M,M,M,11000.00,M,M,M,M,M,M,M,M,M,M,80.08,KBAM 120335Z AUTO 25005KT 10SM BKN110 27/11 A3010 RMK AO1,M
TMT,2022-08-12 03:35,-117.1971,39.4643,1749.34,M,M,M,290.00,3.00,0.00,30.20,M,10.00,M,CLR,M,M,M,M,M,M,M,M,M,M,M,M,M,M,M,KTMT 120335Z AUTO 29003KT 10SM CLR A3020 RMK AO2,M
LAS,2022-08-12 03:43,-115.1634,36.0719,663.00,96.00,56.00,26.16,170.00,4.00,0.00,29.96,M,10.00,M,FEW,SCT,BKN,M,10000.00,18000.00,22000.00,M,TS,M,M,M,M,M,M,94.55,KLAS 120343Z 17004KT 10SM TS FEW100CB SCT180 BKN220 36/13 A2996 RMK AO2 LTG DSNT N TSE41B43 OCNL LTGICCCCG N-NE TS N-NE MOV N T03560133,M
LOL,2022-08-12 03:53,-118.5701,40.0684,1192.43,81.00,30.90,16.18,310.00,8.00,0.00,30.03,1012.50,10.00,M,CLR,M,M,M,M,M,M,M,M,M,M,M,M,M,M,79.04,KLOL 120353Z AUTO 31008KT 10SM CLR 27/M01 A3003 RMK AO2 SLP125 T02721006,M
P68,2022-08-12 03:53,-116.0056,39.6014,1993.00,70.00,54.00,56.82,160.00,6.00,0.00,30.22,1014.80,M,M,M,M,M,M,M,M,M,M,M,M,M,M,M,M,M,70.00,KP68 120353Z AUTO 16006KT 21/12 A3022 RMK AO1 SLP148 T02110122,M
DRA,2022-08-12 03:53,-116.0278,36.6206,1009.00,91.00,49.00,23.68,190.00,10.00,0.00,30.02,1011.00,10.00,M,CLR,M,M,M,M,M,M,M,M,M,M,M,M,M,M,87.82,KDRA 120353Z AUTO 19010KT 10SM CLR 33/09 A3002 RMK AO2 SLP110 T03280094,M
ELY,2022-08-12 03:53,-114.8453,39.2950,1909.00,63.00,56.00,77.61,240.00,4.00,0.00,30.29,1016.80,10.00,M,CLR,M,M,M,M,M,M,M,M,M,M,M,M,M,M,63.00,KELY 120353Z AUTO 24004KT 10SM CLR 17/13 A3029 RMK AO2 SLP168 T01720133,M
VGT,2022-08-12 03:53,-115.1933,36.2111,667.00,87.00,65.00,47.73,80.00,32.00,0.05,29.96,1013.50,6.00,45.00,OVC,M,M,M,9500.00,M,M,M,TSRA,M,M,M,45.00,80.00,2022-08-12 03:53,88.86,KVGT 120353Z AUTO 08032G45KT 6SM TSRA OVC095 31/18 A2996 RMK AO2 PK WND 08045/0353 RAB48 TSB41 SLP135 P0005 T03060183,M
BAM,2022-08-12 03:55,-116.8743,40.5990,1382.36,78.80,51.80,39.02,240.00,4.00,0.00,30.11,M,10.00,M,CLR,M,M,M,M,M,M,M,M,M,M,M,M,M,M,78.80,KBAM 120355Z AUTO 24004KT 10SM CLR 26/11 A3011 RMK AO1,M
CXP,2022-08-12 03:55,-119.7326,39.1923,1431.00,78.80,39.20,24.19,270.00,6.00,0.00,30.15,M,10.00,M,CLR,M,M,M,M,M,M,M,M,M,M,M,M,M,M,78.80,KCXP 120355Z AUTO 27006KT 10SM CLR 26/04 A3015 RMK AO2,M
BVU,2022-08-12 03:55,-114.8611,35.9475,671.00,93.20,59.00,31.99,130.00,6.00,0.00,29.98,M,M,M,M,M,M,M,M,M,M,M,M,M,M,M,M,M,M,92.57,KBVU 120355Z AUTO 13006KT 34/15 A2998 RMK AO2 PWINO TSNO,M
MEV,2022-08-12 03:55,-119.7500,38.9963,1441.42,71.60,42.80,35.37,0.00,0.00,0.00,30.15,M,10.00,M,CLR,M,M,M,M,M,M,M,M,M,M,M,M,M,M,71.60,KMEV 120355Z AUTO 00000KT 10SM CLR 22/06 A3015 RMK AO2,M
HTH,2022-08-12 03:55,-118.6315,38.5448,1282.89,86.00,50.00,28.90,330.00,10.00,0.00,30.05,M,10.00,M,BKN,M,M,M,11000.00,M,M,M,M,M,M,M,M,M,M,83.62,KHTH 120355Z AUTO 33010KT 10SM BKN110 30/10 A3005 RMK A01,M
RTS,2022-08-12 03:55,-119.8764,39.6682,1539.00,75.20,30.20,19.05,270.00,8.00,0.00,30.19,M,10.00,M,FEW,M,M,M,12000.00,M,M,M,M,M,M,M,M,M,M,75.20,KRTS 120355Z AUTO 27008KT 10SM FEW120 24/M01 A3019 RMK AO2,M
RNO,2022-08-12 03:55,-119.7711,39.4839,1341.00,81.00,39.00,22.33,280.00,10.00,0.00,30.11,1013.80,10.00,M,FEW,M,M,M,11000.00,M,M,M,M,M,M,M,M,M,M,79.33,KRNO 120355Z 28010KT 10SM FEW110 27/04 A3011 RMK AO2 SLP138 T02720039,M
TMT,2022-08-12 03:55,-117.1971,39.4643,1749.34,M,M,M,300.00,3.00,0.00,30.21,M,10.00,M,CLR,M,M,M,M,M,M,M,M,M,M,M,M,M,M,M,KTMT 120355Z AUTO 30003KT 10SM CLR A3021 RMK AO2,M
NFL,2022-08-12 03:56,-118.7010,39.4166,1199.00,82.00,52.00,35.41,310.00,6.00,0.00,30.03,1014.00,10.00,M,SCT,SCT,M,M,12000.00,18000.00,M,M,M,M,M,M,M,M,M,80.97,KNFL 120356Z 31006KT 10SM SCT120 SCT180 28/11 A3003 RMK AO2 SLP140 T02780111,M
EKO,2022-08-12 03:56,-115.7860,40.8242,1367.00,74.00,50.00,42.97,M,5.00,0.00,30.15,1015.50,10.00,M,BKN,M,M,M,11000.00,M,M,M,M,M,M,M,M,M,M,73.90,KEKO 120356Z AUTO VRB05KT 10SM BKN110 23/10 A3015 RMK AO2 SLP155 T02330100,M
WMC,2022-08-12 03:56,-117.8072,40.9019,1315.00,75.00,52.00,44.59,0.00,0.00,0.00,30.07,1013.30,10.00,M,CLR,M,M,M,M,M,M,M,M,M,M,M,M,M,M,75.00,KWMC 120356Z AUTO 00000KT 10SM CLR 24/11 A3007 RMK AO2 SLP133 T02390111 $,M
HND,2022-08-12 03:56,-115.1344,35.9729,742.79,93.00,59.00,32.19,150.00,5.00,0.00,30.01,1014.40,10.00,M,CLR,M,M,M,M,M,M,M,M,M,M,M,M,M,M,92.35,KHND 120356Z AUTO 15005KT 10SM CLR 34/15 A3001 RMK AO2 LTG DSNT N SLP144 T03390150,M
LAS,2022-08-12 03:56,-115.1634,36.0719,663.00,96.00,57.00,27.23,130.00,5.00,0.00,29.96,1011.50,10.00,M,FEW,SCT,BKN,M,10000.00,18000.00,22000.00,M,TS,M,M,M,M,M,M,94.94,KLAS 120356Z 13005KT 10SM TS FEW100CB SCT180 BKN220 36/14 A2996 RMK AO2 LTG DSNT N AND NW TSE41B43 SLP115 FRQ LTGICCCCG N-NE TS N-NE MOV N T03560139,M
TPH,2022-08-12 03:56,-117.0904,38.0505,1654.00,78.00,44.00,29.91,180.00,8.00,0.00,30.18,1013.70,10.00,M,CLR,M,M,M,M,M,M,M,M,M,M,M,M,M,M,78.10,KTPH 120356Z AUTO 18008KT 10SM CLR 26/07 A3018 RMK AO2 SLP137 T02560067,M
LSV,2022-08-12 03:58,-115.0343,36.2362,570.00,96.00,60.30,30.83,340.00,13.00,0.00,29.95,1011.30,10.00,19.00,FEW,SCT,M,M,13000.00,19000.00,M,M,VCTS,M,M,M,M,M,M,96.08,KLSV 120358Z AUTO 34013G19KT 10SM VCTS FEW130 SCT190 36/16 A2995 RMK AO2 SLP113 T03550157 $,M
INS,2022-08-12 03:58,-115.6733,36.5872,955.00,89.80,56.00,31.82,120.00,16.00,0.00,30.02,1011.10,10.00,M,FEW,M,M,M,11000.00,M,M,M,M,M,M,M,26.00,130.00,2022-08-12 03:56,88.10,KINS 120358Z AUTO 12016KT 10SM FEW110 32/13 A3002 RMK AO2 PK WND 13026/56 LTG DSNT SE SLP111 T03210133,M
LSV,2022-08-12 03:59,-115.0343,36.2362,570.00,95.00,60.80,32.27,340.00,11.00,0.00,29.95,1011.40,10.00,M,FEW,SCT,M,M,13000.00,19000.00,M,M,TS,M,M,M,M,M,M,95.30,KLSV 120359Z AUTO 34011KT 10SM TS FEW130 SCT190 35/16 A2995 RMK AO2 TSB59 SLP114 $,M
VGT,2022-08-12 04:00,-115.1933,36.2111,667.00,84.00,61.00,45.96,60.00,18.00,0.21,30.01,M,1.75,56.00,SCT,OVC,M,M,3100.00,9500.00,M,M,+TSRA,M,M,M,56.00,70.00,2022-08-12 03:56,84.32,KVGT 120400Z AUTO 06018G56KT 300V120 1 3/4SM +TSRA SCT031 OVC095 29/16 A3001 RMK AO2 PK WND 07056/0356 PRESRR P0021 T02890161,M
VGT,2022-08-12 04:09,-115.1933,36.2111,667.00,85.00,60.00,43.24,140.00,20.00,0.52,29.99,M,1.25,44.00,SCT,OVC,M,M,3500.00,9500.00,M,M,+TSRA,M,M,M,56.00,70.00,2022-08-12 03:56,84.83,KVGT 120409Z AUTO 14020G44KT 1 1/4SM +TSRA SCT035 OVC095 29/16 A2999 RMK AO2 PK WND 07056/0356 P0052 T02940156,M
LSV,2022-08-12 04:14,-115.0343,36.2362,570.00,93.20,59.00,31.99,320.00,10.00,0.00,29.96,M,10.00,M,FEW,M,M,M,19000.00,M,M,M,VCTS,M,M,M,M,M,M,92.57,KLSV 120414Z AUTO 32010KT 10SM VCTS FEW190 34/15 A2996 RMK AO2 TSB0359E14 SLPNO $,M
MEV,2022-08-12 04:15,-119.7500,38.9963,1441.42,69.80,42.80,37.61,120.00,6.00,0.00,30.15,M,10.00,M,CLR,M,M,M,M,M,M,M,M,M,M,M,M,M,M,69.80,KMEV 120415Z AUTO 12006KT 10SM CLR 21/06 A3015 RMK AO2,M
TMT,2022-08-12 04:15,-117.1971,39.4643,1749.34,M,M,M,310.00,4.00,0.00,30.21,M,10.00,M,CLR,M,M,M,M,M,M,M,M,M,M,M,M,M,M,M,KTMT 120415Z AUTO 31004KT 10SM CLR A3021 RMK AO2,M
BVU,2022-08-12 04:15,-114.8611,35.9475,671.00,93.20,59.00,31.99,130.00,7.00,0.00,29.98,M,M,M,M,M,M,M,M,M,M,M,M,M,M,M,M,M,M,92.57,KBVU 120415Z AUTO 13007KT 34/15 A2998 RMK AO2 PWINO TSNO,M
RTS,2022-08-12 04:15,-119.8764,39.6682,1539.00,73.40,30.20,20.23,M,3.00,0.00,30.20,M,10.00,M,CLR,M,M,M,M,M,M,M,M,M,M,M,M,M,M,73.40,KRTS 120415Z AUTO VRB03KT 10SM CLR 23/M01 A3020 RMK AO2,M
BAM,2022-08-12 04:15,-116.8743,40.5990,1382.36,77.00,51.80,41.42,180.00,6.00,0.00,30.11,M,10.00,M,CLR,M,M,M,M,M,M,M,M,M,M,M,M,M,M,77.00,KBAM 120415Z AUTO 18006KT 10SM CLR 25/11 A3011 RMK AO1,M
CXP,2022-08-12 04:15,-119.7326,39.1923,1431.00,78.80,39.20,24.19,260.00,4.00,0.00,30.16,M,10.00,M,CLR,M,M,M,M,M,M,M,M,M,M,M,M,M,M,78.80,KCXP 120415Z AUTO 26004KT 10SM CLR 26/04 A3016 RMK AO2,M
VGT,2022-08-12 04:15,-115.1933,36.2111,667.00,85.00,60.00,43.24,170.00,14.00,0.62,30.01,M,2.00,31.00,SCT,BKN,OVC,M,4500.00,7500.00,9500.00,M,+TSRA,M,M,M,56.00,70.00,2022-08-12 03:56,84.83,KVGT 120415Z AUTO 17014G31KT 2SM +TSRA SCT045 BKN075 OVC095 29/16 A3001 RMK AO2 PK WND 07056/0356 P0062 T02940156,M
HTH,2022-08-12 04:15,-118.6315,38.5448,1282.89,87.80,39.20,18.09,330.00,11.00,0.00,30.06,M,10.00,16.00,BKN,M,M,M,11000.00,M,M,M,M,M,M,M,M,M,M,84.22,KHTH 120415Z AUTO 33011G16KT 10SM BKN110 31/04 A3006 RMK A01,M
VGT,2022-08-12 04:22,-115.1933,36.2111,667.00,79.00,65.00,62.03,240.00,18.00,0.70,30.01,M,2.50,23.00,SCT,BKN,OVC,M,4300.00,7000.00,9000.00,M,+TSRA,M,M,M,56.00,70.00,2022-08-12 03:56,79.00,KVGT 120422Z AUTO 24018G23KT 2 1/2SM +TSRA SCT043 BKN070 OVC090 26/18 A3001 RMK AO2 PK WND 07056/0356 WSHFT 0408 P0070 T02610183,M
HND,2022-08-12 04:27,-115.1344,35.9729,742.79,93.20,59.00,31.99,150.00,10.00,0.00,30.01,M,10.00,14.00,BKN,M,M,M,10000.00,M,M,M,VCTS,M,M,M,M,M,M,92.57,KHND 120427Z AUTO 15010G14KT 10SM VCTS BKN100 34/15 A3001 RMK AO2 LTG DSNT N AND NW TSB21,M
VGT,2022-08-12 04:29,-115.1933,36.2111,667.00,80.00,64.00,57.98,210.00,22.00,0.73,29.99,M,4.00,31.00,FEW,SCT,OVC,M,4600.00,7000.00,10000.00,M,TSRA,M,M,M,56.00,70.00,2022-08-12 03:56,81.71,KVGT 120429Z AUTO 21022G31KT 4SM TSRA FEW046 SCT070 OVC100 27/18 A2999 RMK AO2 PK WND 07056/0356 WSHFT 0408 P0073 T02670178,M
LAS,2022-08-12 04:33,-115.1634,36.0719,663.00,85.00,63.00,47.91,350.00,29.00,T,30.02,M,8.00,36.00,BKN,OVC,M,M,9500.00,18000.00,M,M,-TSRA,M,M,M,36.00,350.00,2022-08-12 04:30,85.83,KLAS 120433Z 35029G36KT 8SM -TSRA BKN095CB OVC180 29/17 A3002 RMK AO2 PK WND 35036/0430 WSHFT 0413 LTG DSNT NW RAB23 PRESRR VIS NW 3 FRQ LTGICCCCG N-NE TS N-NE MOV N P0000 T02940172,M
BAM,2022-08-12 04:35,-116.8743,40.5990,1382.36,73.40,50.00,43.69,140.00,6.00,0.00,30.11,M,10.00,M,CLR,M,M,M,M,M,M,M,M,M,M,M,M,M,M,73.40,KBAM 120435Z AUTO 14006KT 10SM CLR 23/10 A3011 RMK AO1,M
TMT,2022-08-12 04:35,-117.1971,39.4643,1749.34,M,M,M,320.00,5.00,0.00,30.22,M,10.00,M,CLR,M,M,M,M,M,M,M,M,M,M,M,M,M,M,M,KTMT 120435Z AUTO 32005KT 10SM CLR A3022 RMK AO2,M
HTH,2022-08-12 04:35,-118.6315,38.5448,1282.89,87.80,41.00,19.40,340.00,11.00,0.00,30.06,M,10.00,17.00,FEW,M,M,M,11000.00,M,M,M,M,M,M,M,M,M,M,84.30,KHTH 120435Z AUTO 34011G17KT 10SM FEW110 31/05 A3006 RMK A01,M
BVU,2022-08-12 04:35,-114.8611,35.9475,671.00,93.20,59.00,31.99,140.00,6.00,0.00,29.98,M,M,M,M,M,M,M,M,M,M,M,M,M,M,M,M,M,M,92.57,KBVU 120435Z AUTO 14006KT 34/15 A2998 RMK AO2 PWINO TSNO,M
MEV,2022-08-12 04:35,-119.7500,38.9963,1441.42,69.80,42.80,37.61,0.00,0.00,0.00,30.15,M,10.00,M,CLR,M,M,M,M,M,M,M,M,M,M,M,M,M,M,69.80,KMEV 120435Z AUTO 00000KT 10SM CLR 21/06 A3015 RMK AO2,M
RTS,2022-08-12 04:35,-119.8764,39.6682,1539.00,71.60,30.20,21.50,330.00,7.00,0.00,30.21,M,10.00,M,CLR,M,M,M,M,M,M,M,M,M,M,M,M,M,M,71.60,KRTS 120435Z AUTO 33007KT 10SM CLR 22/M01 A3021 RMK AO2,M
CXP,2022-08-12 04:35,-119.7326,39.1923,1431.00,75.20,39.20,27.26,20.00,4.00,0.00,30.16,M,10.00,M,CLR,M,M,M,M,M,M,M,M,M,M,M,M,M,M,75.20,KCXP 120435Z AUTO 02004KT 10SM CLR 24/04 A3016 RMK AO2,M
LOL,2022-08-12 04:53,-118.5701,40.0684,1192.43,82.00,24.10,11.84,320.00,14.00,0.00,30.04,1012.40,10.00,M,CLR,M,M,M,M,M,M,M,M,M,M,M,M,M,M,79.47,KLOL 120453Z AUTO 32014KT 10SM CLR 28/M04 A3004 RMK AO2 SLP124 T02781044,M
P68,2022-08-12 04:53,-116.0056,39.6014,1993.00,73.00,52.00,47.69,150.00,8.00,0.00,30.23,1014.50,M,M,M,M,M,M,M,M,M,M,M,M,M,M,M,M,M,73.00,KP68 120453Z AUTO 15008KT 23/11 A3023 RMK AO1 SLP145 T02280111,M
DRA,2022-08-12 04:53,-116.0278,36.6206,1009.00,88.00,50.00,27.12,190.00,6.00,0.00,30.03,1011.40,10.00,M,CLR,M,M,M,M,M,M,M,M,M,M,M,M,M,M,85.28,KDRA 120453Z AUTO 19006KT 10SM CLR 31/10 A3003 RMK AO2 SLP114 T03110100,M
VGT,2022-08-12 04:53,-115.1933,36.2111,667.00,81.00,61.00,50.65,190.00,12.00,0.76,29.99,1014.70,8.00,M,SCT,M,M,M,11000.00,M,M,M,-TSRA,M,M,M,56.00,70.00,2022-08-12 03:56,81.81,KVGT 120453Z AUTO 19012KT 8SM -TSRA SCT110 27/16 A2999 RMK AO2 PK WND 07056/0356 WSHFT 0408 SLP147 P0076 T02720161,M
ELY,2022-08-12 04:53,-114.8453,39.2950,1909.00,62.00,58.00,86.11,0.00,0.00,0.00,30.31,1016.80,10.00,M,CLR,M,M,M,M,M,M,M,M,M,M,M,M,M,M,62.10,KELY 120453Z AUTO 00000KT 10SM CLR 17/14 A3031 RMK AO2 SLP168 T01670144,M
BVU,2022-08-12 04:55,-114.8611,35.9475,671.00,91.40,60.80,36.08,140.00,4.00,0.00,29.99,M,M,M,M,M,M,M,M,M,M,M,M,M,M,M,M,M,M,91.40,KBVU 120455Z AUTO 14004KT 33/16 A2999 RMK AO2 PWINO TSNO,M
RNO,2022-08-12 04:55,-119.7711,39.4839,1341.00,79.00,40.00,24.70,10.00,5.00,0.00,30.14,1014.60,10.00,M,CLR,M,M,M,M,M,M,M,M,M,M,M,M,M,M,79.00,KRNO 120455Z 01005KT 10SM CLR 26/04 A3014 RMK AO2 SLP146 T02610044,M
TMT,2022-08-12 04:55,-117.1971,39.4643,1749.34,68.40,59.50,73.22,330.00,6.00,0.00,30.22,M,10.00,M,CLR,M,M,M,M,M,M,M,M,M,M,M,M,M,M,68.40,KTMT 120455Z AUTO 33006KT 10SM CLR 20/15 A3022 RMK AO2 T02020153,M
HTH,2022-08-12 04:55,-118.6315,38.5448,1282.89,86.00,44.60,23.59,350.00,11.00,0.00,30.07,M,10.00,M,CLR,M,M,M,M,M,M,M,M,M,M,M,M,M,M,83.07,KHTH 120455Z AUTO 35011KT 10SM CLR 30/07 A3007 RMK A01,M
BAM,2022-08-12 04:55,-116.8743,40.5990,1382.36,75.20,51.80,43.97,140.00,3.00,0.00,30.12,M,10.00,M,CLR,M,M,M,M,M,M,M,M,M,M,M,M,M,M,75.20,KBAM 120455Z AUTO 14003KT 10SM CLR 24/11 A3012 RMK AO1,M
MEV,2022-08-12 04:55,-119.7500,38.9963,1441.42,64.40,42.80,45.32,0.00,0.00,0.00,30.16,M,10.00,M,CLR,M,M,M,M,M,M,M,M,M,M,M,M,M,M,64.40,KMEV 120455Z AUTO 00000KT 10SM CLR 18/06 A3016 RMK AO2,M
RTS,2022-08-12 04:55,-119.8764,39.6682,1539.00,71.60,32.00,23.13,270.00,10.00,0.00,30.20,M,10.00,M,CLR,M,M,M,M,M,M,M,M,M,M,M,M,M,M,71.60,KRTS 120455Z AUTO 27010KT 10SM CLR 22/M00 A3020 RMK AO2,M
CXP,2022-08-12 04:55,-119.7326,39.1923,1431.00,75.20,39.20,27.26,0.00,0.00,0.00,30.17,M,10.00,M,CLR,M,M,M,M,M,M,M,M,M,M,M,M,M,M,75.20,KCXP 120455Z AUTO 00000KT 10SM CLR 24/04 A3017 RMK AO2,M
NFL,2022-08-12 04:56,-118.7010,39.4166,1199.00,80.00,38.00,22.03,310.00,8.00,0.00,30.05,1014.60,10.00,M,FEW,FEW,M,M,12000.00,18000.00,M,M,M,M,M,M,M,M,M,78.85,KNFL 120456Z 31008KT 10SM FEW120 FEW180 27/03 A3005 RMK AO2 SLP146 T02670033,M
TPH,2022-08-12 04:56,-117.0904,38.0505,1654.00,74.00,45.00,35.60,260.00,4.00,0.00,30.20,1014.30,10.00,M,CLR,M,M,M,M,M,M,M,M,M,M,M,M,M,M,73.90,KTPH 120456Z AUTO 26004KT 10SM CLR 23/07 A3020 RMK AO2 SLP143 T02330072,M
WMC,2022-08-12 04:56,-117.8072,40.9019,1315.00,76.00,48.00,37.29,280.00,4.00,0.00,30.09,1013.70,10.00,M,CLR,M,M,M,M,M,M,M,M,M,M,M,M,M,M,75.90,KWMC 120456Z AUTO 28004KT 10SM CLR 24/09 A3009 RMK AO2 SLP137 T02440089 $,M
EKO,2022-08-12 04:56,-115.7860,40.8242,1367.00,70.00,52.00,52.80,0.00,0.00,0.00,30.15,1015.40,10.00,M,FEW,M,M,M,12000.00,M,M,M,M,M,M,M,M,M,M,70.00,KEKO 120456Z AUTO 00000KT 10SM FEW120 21/11 A3015 RMK AO2 SLP154 T02110111,M
LAS,2022-08-12 04:56,-115.1634,36.0719,663.00,78.00,59.00,51.88,320.00,15.00,0.04,30.05,1014.90,3.00,48.00,OVC,M,M,M,9000.00,M,M,M,+TSRA,M,M,M,48.00,320.00,2022-08-12 04:47,78.10,KLAS 120456Z COR 32015G48KT 290V360 3SM +TSRA OVC090CB 26/15 A3005 RMK AO2 PK WND 32048/0447 WSHFT 0413 VIS 1V4 RAB23 SLP149 FRQ LTGICCCCG OHD AND ALQDS TS OHD AND ALQDS MOV N MTNS OBSCURED DSNT SW-NW P0004 T02560150 /,M
HND,2022-08-12 04:56,-115.1344,35.9729,742.79,86.00,61.00,43.10,350.00,19.00,0.00,30.04,1015.70,10.00,26.00,OVC,M,M,M,9500.00,M,M,M,VCTS,M,M,M,26.00,330.00,2022-08-12 04:54,86.12,KHND 120456Z AUTO 35019G26KT 10SM VCTS OVC095 30/16 A3004 RMK AO2 PK WND 33026/0454 WSHFT 0437 LTG DSNT N AND NW TSB21 SLP157 T03000161,M
LSV,2022-08-12 04:58,-115.0343,36.2362,570.00,89.80,60.00,36.74,270.00,10.00,0.00,29.99,M,10.00,M,FEW,M,M,M,21000.00,M,M,M,VCTS,M,M,M,M,M,M,89.39,KLSV 120458Z AUTO 27010KT 10SM VCTS FEW210 32/16 A2999 RMK AO2 TSB0359E14 SLPNO T03210155 $,M
INS,2022-08-12 04:58,-115.6733,36.5872,955.00,87.00,53.60,31.87,110.00,12.00,0.00,30.03,M,10.00,M,CLR,M,M,M,M,M,M,M,M,M,M,M,M,M,M,85.11,KINS 120458Z AUTO 11012KT 10SM CLR 31/12 A3003 RMK AO2 SLPNO T03060120,M
VGT,2022-08-12 05:06,-115.1933,36.2111,667.00,81.00,62.00,52.66,160.00,13.00,T,29.99,M,10.00,M,SCT,M,M,M,12000.00,M,M,M,VCTS -RA,M,M,M,M,M,M,82.06,KVGT 120506Z AUTO 16013KT 10SM VCTS -RA SCT120 27/17 A2999 RMK AO2 LTG DSNT SE AND SW TSE00 P0000 T02720167,M
HTH,2022-08-12 05:15,-118.6315,38.5448,1282.89,86.00,39.20,19.15,340.00,11.00,0.00,30.08,M,10.00,M,SCT,M,M,M,12000.00,M,M,M,M,M,M,M,M,M,M,82.79,KHTH 120515Z AUTO 34011KT 10SM SCT120 30/04 A3008 RMK A01,M
TMT,2022-08-12 05:15,-117.1971,39.4643,1749.34,M,M,M,140.00,3.00,0.00,30.22,M,10.00,M,CLR,M,M,M,M,M,M,M,M,M,M,M,M,M,M,M,KTMT 120515Z AUTO 14003KT 10SM CLR A3022 RMK AO2,M
BAM,2022-08-12 05:15,-116.8743,40.5990,1382.36,73.40,53.60,49.90,140.00,4.00,0.00,30.11,M,10.00,M,CLR,M,M,M,M,M,M,M,M,M,M,M,M,M,M,73.40,KBAM 120515Z AUTO 14004KT 10SM CLR 23/12 A3011 RMK AO1,M
RTS,2022-08-12 05:15,-119.8764,39.6682,1539.00,69.80,32.00,24.59,270.00,8.00,0.00,30.21,M,10.00,M,CLR,M,M,M,M,M,M,M,M,M,M,M,M,M,M,69.80,KRTS 120515Z AUTO 27008KT 10SM CLR 21/00 A3021 RMK AO2,M
CXP,2022-08-12 05:15,-119.7326,39.1923,1431.00,71.60,41.00,33.00,120.00,4.00,0.00,30.17,M,10.00,M,CLR,M,M,M,M,M,M,M,M,M,M,M,M,M,M,71.60,KCXP 120515Z AUTO 12004KT 10SM CLR 22/05 A3017 RMK AO2,M
BVU,2022-08-12 05:15,-114.8611,35.9475,671.00,91.40,60.80,36.08,0.00,0.00,0.00,29.99,M,M,M,M,M,M,M,M,M,M,M,M,M,M,M,M,M,M,91.40,KBVU 120515Z AUTO 00000KT 33/16 A2999 RMK AO2 PWINO TSNO,M
MEV,2022-08-12 05:15,-119.7500,38.9963,1441.42,64.40,42.80,45.32,110.00,8.00,0.00,30.16,M,10.00,M,CLR,M,M,M,M,M,M,M,M,M,M,M,M,M,M,64.40,KMEV 120515Z AUTO 11008KT 10SM CLR 18/06 A3016 RMK AO2,M
LAS,2022-08-12 05:18,-115.1634,36.0719,663.00,79.00,59.00,50.36,180.00,13.00,0.53,30.01,M,4.00,21.00,BKN,BKN,OVC,M,4500.00,7000.00,9000.00,M,TSRA,M,M,M,40.00,190.00,2022-08-12 05:06,79.00,KLAS 120518Z 18013G21KT 4SM TSRA BKN045 BKN070CB OVC090 26/15 A3001 RMK AO2 PK WND 19040/0506 LTG DSNT W PRESFR VIS LWR SW FRQ LTGICCG ALQDS TS ALQDS MOV N P0053 T02610150 $,M
VGT,2022-08-12 05:27,-115.1933,36.2111,667.00,82.00,64.00,54.50,280.00,11.00,T,30.00,M,10.00,15.00,BKN,M,M,M,11000.00,M,M,M,-RA,M,M,M,M,M,M,83.47,KVGT 120527Z AUTO 28011G15KT 10SM -RA BKN110 28/18 A3000 RMK AO2 LTG DSNT SE AND S TSE00 P0000 T02780178,M
RTS,2022-08-12 05:35,-119.8764,39.6682,1539.00,68.00,33.80,28.11,310.00,8.00,0.00,30.20,M,10.00,M,CLR,M,M,M,M,M,M,M,M,M,M,M,M,M,M,68.00,KRTS 120535Z AUTO 31008KT 10SM CLR 20/01 A3020 RMK AO2,M
HTH,2022-08-12 05:35,-118.6315,38.5448,1282.89,84.20,37.40,18.91,350.00,10.00,0.00,30.08,M,10.00,M,BKN,M,M,M,12000.00,M,M,M,M,M,M,M,M,M,M,81.38,KHTH 120535Z AUTO 35010KT 10SM BKN120 29/03 A3008 RMK A01,M
BVU,2022-08-12 05:35,-114.8611,35.9475,671.00,91.40,60.80,36.08,330.00,4.00,0.00,30.00,M,M,M,M,M,M,M,M,M,M,M,M,M,M,M,M,M,M,91.40,KBVU 120535Z AUTO 33004KT 33/16 A3000 RMK AO2 PWINO TSNO,M
TMT,2022-08-12 05:35,-117.1971,39.4643,1749.34,66.00,59.20,78.70,170.00,4.00,0.00,30.22,M,10.00,M,CLR,M,M,M,M,M,M,M,M,M,M,M,M,M,M,66.00,KTMT 120535Z AUTO 17004KT 10SM CLR 19/15 A3022 RMK AO2 T01890151,M
BAM,2022-08-12 05:35,-116.8743,40.5990,1382.36,73.40,53.60,49.90,160.00,3.00,0.00,30.11,M,10.00,M,CLR,M,M,M,M,M,M,M,M,M,M,M,M,M,M,73.40,KBAM 120535Z AUTO 16003KT 10SM CLR 23/12 A3011 RMK AO1,M
CXP,2022-08-12 05:35,-119.7326,39.1923,1431.00,71.60,41.00,33.00,0.00,0.00,0.00,30.17,M,10.00,M,CLR,M,M,M,M,M,M,M,M,M,M,M,M,M,M,71.60,KCXP 120535Z AUTO 00000KT 10SM CLR 22/05 A3017 RMK AO2,M
MEV,2022-08-12 05:35,-119.7500,38.9963,1441.42,66.20,42.80,42.57,80.00,7.00,0.00,30.15,M,10.00,M,CLR,M,M,M,M,M,M,M,M,M,M,M,M,M,M,66.20,KMEV 120535Z AUTO 08007KT 10SM CLR 19/06 A3015 RMK AO2,M
DRA,2022-08-12 05:53,-116.0278,36.6206,1009.00,86.00,54.00,33.50,0.00,0.00,0.00,30.03,1011.20,10.00,M,CLR,M,M,M,M,M,M,M,M,M,M,M,M,M,M,84.26,KDRA 120553Z AUTO 00000KT 10SM CLR 30/12 A3003 RMK AO2 SLP112 T03000122 10372 20300 50008,M
P68,2022-08-12 05:53,-116.0056,39.6014,1993.00,72.00,54.00,53.09,130.00,12.00,0.00,30.23,1014.30,M,M,M,M,M,M,M,M,M,M,M,M,M,M,M,M,M,72.00,KP68 120553Z AUTO 13012KT 22/12 A3023 RMK AO1 SLP143 T02220122 10300 20206 50007,M
ELY,2022-08-12 05:53,-114.8453,39.2950,1909.00,63.00,57.00,80.76,170.00,7.00,0.00,30.30,1015.80,10.00,M,SCT,M,M,M,11000.00,M,M,M,M,M,M,M,M,M,M,63.00,KELY 120553Z AUTO 17007KT 10SM SCT110 17/14 A3030 RMK AO2 SLP158 T01720139 10256 20161 50010,M
HND,2022-08-12 05:53,-115.1344,35.9729,742.79,84.20,60.80,45.34,250.00,12.00,T,30.02,M,10.00,M,FEW,BKN,OVC,M,5500.00,9000.00,11000.00,M,-RA,M,M,M,28.00,330.00,2022-08-12 05:29,84.43,KHND 120553Z AUTO 25012KT 10SM -RA FEW055 BKN090 OVC110 29/16 A3002 RMK AO2 PK WND 33028/0529 TSE47RAB10E25B43 P0000,M
LOL,2022-08-12 05:53,-118.5701,40.0684,1192.43,82.00,25.00,12.29,M,4.00,0.00,30.05,1012.70,10.00,M,CLR,M,M,M,M,M,M,M,M,M,M,M,M,M,M,79.54,KLOL 120553Z AUTO VRB04KT 10SM CLR 28/M04 A3005 RMK AO2 SLP127 T02781039 10350 20261 51013,M
VGT,2022-08-12 05:53,-115.1933,36.2111,667.00,84.00,62.00,47.78,260.00,5.00,T,29.99,1014.20,10.00,M,BKN,M,M,M,10000.00,M,M,M,M,M,M,M,M,M,M,84.67,KVGT 120553Z AUTO 26005KT 10SM BKN100 29/17 A2999 RMK AO2 RAE34 TSE00 SLP142 P0000 60081 T02890167 10372 20261 50017,M
RTS,2022-08-12 05:55,-119.8764,39.6682,1539.00,68.00,33.80,28.11,330.00,7.00,0.00,30.20,M,10.00,13.00,CLR,M,M,M,M,M,M,M,M,M,M,M,M,M,M,68.00,KRTS 120555Z AUTO 33007G13KT 10SM CLR 20/01 A3020 RMK AO2,M
RNO,2022-08-12 05:55,-119.7711,39.4839,1341.00,76.00,41.00,28.56,320.00,6.00,0.00,30.14,1014.40,10.00,M,FEW,M,M,M,15000.00,M,M,M,M,M,M,M,M,M,M,75.90,KRNO 120555Z 32006KT 10SM FEW150 24/05 A3014 RMK AO2 SLP144 T02440050 10333 20244 51017,M
TMT,2022-08-12 05:55,-117.1971,39.4643,1749.34,64.00,58.50,82.29,210.00,5.00,0.00,30.22,M,10.00,M,CLR,M,M,M,M,M,M,M,M,M,M,M,M,M,M,64.00,KTMT 120555Z AUTO 21005KT 10SM CLR 18/15 A3022 RMK AO2 T01780147,M
CXP,2022-08-12 05:55,-119.7326,39.1923,1431.00,69.80,41.00,35.09,0.00,0.00,0.00,30.17,M,10.00,M,CLR,M,M,M,M,M,M,M,M,M,M,M,M,M,M,69.80,KCXP 120555Z AUTO 00000KT 10SM CLR 21/05 A3017 RMK AO2,M
BVU,2022-08-12 05:55,-114.8611,35.9475,671.00,89.60,60.80,38.18,330.00,8.00,0.00,29.99,M,M,M,M,M,M,M,M,M,M,M,M,M,M,M,M,M,M,89.54,KBVU 120555Z AUTO 33008KT 32/16 A2999 RMK AO2 PWINO TSNO,M
MEV,2022-08-12 05:55,-119.7500,38.9963,1441.42,66.20,42.80,42.57,70.00,6.00,0.00,30.15,M,10.00,M,CLR,M,M,M,M,M,M,M,M,M,M,M,M,M,M,66.20,KMEV 120555Z AUTO 07006KT 10SM CLR 19/06 A3015 RMK AO2,M
HTH,2022-08-12 05:55,-118.6315,38.5448,1282.89,84.20,33.80,16.39,360.00,14.00,0.00,30.08,M,10.00,M,SCT,M,M,M,11000.00,M,M,M,M,M,M,M,M,M,M,81.30,KHTH 120555Z AUTO 36014KT 10SM SCT110 29/01 A3008 RMK A01,M
BAM,2022-08-12 05:55,-116.8743,40.5990,1382.36,71.60,53.60,53.03,150.00,7.00,0.00,30.11,M,10.00,M,CLR,M,M,M,M,M,M,M,M,M,M,M,M,M,M,71.60,KBAM 120555Z AUTO 15007KT 10SM CLR 22/12 A3011 RMK AO1,M
EKO,2022-08-12 05:56,-115.7860,40.8242,1367.00,65.00,53.00,65.56,0.00,0.00,0.00,30.15,1015.70,10.00,M,CLR,M,M,M,M,M,M,M,M,M,M,M,M,M,M,64.90,KEKO 120556Z AUTO 00000KT 10SM CLR 18/12 A3015 RMK AO2 SLP157 T01830117 10322 20178 51007,M
LAS,2022-08-12 05:56,-115.1634,36.0719,663.00,83.00,61.00,47.62,210.00,4.00,0.54,29.98,1012.50,10.00,M,FEW,BKN,OVC,M,6500.00,12000.00,15000.00,M,-TSRA,M,M,M,40.00,190.00,2022-08-12 05:06,83.37,KLAS 120556Z 21004KT 10SM -TSRA FEW065CB BKN120 OVC150 28/16 A2998 RMK AO2 PK WND 19040/0506 SLP125 OCNL LTGICCG SW-NW TS SW-NW MOV N P0054 60058 T02830161 10367 20244 50012 $,M
HND,2022-08-12 05:56,-115.1344,35.9729,742.79,82.00,61.00,49.03,230.00,13.00,T,30.02,1015.10,10.00,M,FEW,BKN,OVC,M,5500.00,10000.00,12000.00,M,-RA,M,M,M,28.00,330.00,2022-08-12 05:29,82.62,KHND 120556Z AUTO 23013KT 10SM -RA FEW055 BKN100 OVC120 28/16 A3002 RMK AO2 PK WND 33028/0529 TSE47RAB10E25B43 SLP151 P0000 60000 T02780161 10367 20267 50005,M
NFL,2022-08-12 05:56,-118.7010,39.4166,1199.00,77.00,39.00,25.47,320.00,4.00,0.00,30.06,1014.90,10.00,M,FEW,SCT,M,M,12000.00,25000.00,M,M,M,M,M,M,M,M,M,77.00,KNFL 120556Z 32004KT 10SM FEW120 SCT250 25/04 A3006 RMK AO2 SLP149 T02500039 10350 20250 51017,M
WMC,2022-08-12 05:56,-117.8072,40.9019,1315.00,67.00,50.00,54.54,220.00,6.00,0.00,30.09,1013.70,10.00,M,CLR,M,M,M,M,M,M,M,M,M,M,M,M,M,M,66.90,KWMC 120556Z AUTO 22006KT 10SM CLR 19/10 A3009 RMK AO2 SLP137 T01940100 10350 20194 50009 $,M
TPH,2022-08-12 05:56,-117.0904,38.0505,1654.00,71.00,49.00,45.33,0.00,0.00,0.00,30.20,1014.20,10.00,M,CLR,M,M,M,M,M,M,M,M,M,M,M,M,M,M,71.10,KTPH 120556Z AUTO 00000KT 10SM CLR 22/09 A3020 RMK AO2 SLP142 T02170094 10317 20211 50009,M
INS,2022-08-12 05:58,-115.6733,36.5872,955.00,84.60,53.80,34.78,90.00,15.00,0.00,30.03,M,10.00,M,CLR,M,M,M,M,M,M,M,M,M,M,M,M,M,M,83.10,KINS 120558Z AUTO 09015KT 10SM CLR 29/12 A3003 RMK AO2 SLPNO T02920121 10357 20292 51012,M
LSV,2022-08-12 05:58,-115.0343,36.2362,570.00,86.50,58.00,37.97,290.00,4.00,0.00,29.97,M,10.00,M,FEW,M,M,M,19000.00,M,M,M,M,M,M,M,M,M,M,85.60,KLSV 120558Z 29004KT 10SM FEW190 30/14 A2997 RMK AO2A SLPNO T03030144 10398 20303 50021 $,M
LAS,2022-08-12 06:01,-115.1634,36.0719,663.00,82.00,63.00,52.62,110.00,7.00,T,29.98,M,10.00,M,FEW,BKN,OVC,M,7000.00,12000.00,15000.00,M,M,M,M,M,M,M,M,83.17,KLAS 120601Z 11007KT 10SM FEW070 BKN120 OVC150 28/17 A2998 RMK AO2 RAE0558 TSE01 TS DSIPTD VCSH CB DSNT SW-W P0000 T02780172 $,M
RTS,2022-08-12 06:15,-119.8764,39.6682,1539.00,68.00,33.80,28.11,350.00,9.00,0.00,30.20,M,10.00,M,CLR,M,M,M,M,M,M,M,M,M,M,M,M,M,M,68.00,KRTS 120615Z AUTO 35009KT 10SM CLR 20/01 A3020 RMK AO2,M
MEV,2022-08-12 06:15,-119.7500,38.9963,1441.42,62.60,41.00,45.04,20.00,5.00,0.00,30.15,M,10.00,M,CLR,M,M,M,M,M,M,M,M,M,M,M,M,M,M,62.60,KMEV 120615Z AUTO 02005KT 10SM CLR 17/05 A3015 RMK AO2,M
BAM,2022-08-12 06:15,-116.8743,40.5990,1382.36,71.60,53.60,53.03,200.00,3.00,0.00,30.11,M,10.00,M,CLR,M,M,M,M,M,M,M,M,M,M,M,M,M,M,71.60,KBAM 120615Z AUTO 20003KT 10SM CLR 22/12 A3011 RMK AO1,M
HTH,2022-08-12 06:15,-118.6315,38.5448,1282.89,80.60,42.80,26.22,320.00,10.00,0.00,30.08,M,10.00,M,CLR,M,M,M,M,M,M,M,M,M,M,M,M,M,M,79.30,KHTH 120615Z AUTO 32010KT 10SM CLR 27/06 A3008 RMK A01,M
TMT,2022-08-12 06:15,-117.1971,39.4643,1749.34,M,M,M,190.00,6.00,0.00,30.21,M,10.00,M,CLR,M,M,M,M,M,M,M,M,M,M,M,M,M,M,M,KTMT 120615Z AUTO 19006KT 10SM CLR A3021 RMK AO2,M
BVU,2022-08-12 06:15,-114.8611,35.9475,671.00,87.80,62.60,43.07,340.00,6.00,0.00,29.99,M,M,M,M,M,M,M,M,M,M,M,M,M,M,M,M,M,M,88.48,KBVU 120615Z AUTO 34006KT 31/17 A2999 RMK AO2 PWINO TSNO,M
CXP,2022-08-12 06:15,-119.7326,39.1923,1431.00,68.00,41.00,37.32,0.00,0.00,0.00,30.16,M,10.00,M,CLR,M,M,M,M,M,M,M,M,M,M,M,M,M,M,68.00,KCXP 120615Z AUTO 00000KT 10SM CLR 20/05 A3016 RMK AO2,M
HTH,2022-08-12 06:35,-118.6315,38.5448,1282.89,80.60,39.20,22.81,310.00,14.00,0.00,30.08,M,10.00,M,CLR,M,M,M,M,M,M,M,M,M,M,M,M,M,M,79.10,KHTH 120635Z AUTO 31014KT 10SM CLR 27/04 A3008 RMK A01,M
BVU,2022-08-12 06:35,-114.8611,35.9475,671.00,87.80,62.60,43.07,30.00,5.00,0.00,29.99,M,M,M,M,M,M,M,M,M,M,M,M,M,M,M,M,M,M,88.48,KBVU 120635Z AUTO 03005KT 31/17 A2999 RMK AO2 PWINO TSNO,M
CXP,2022-08-12 06:35,-119.7326,39.1923,1431.00,68.00,39.20,34.80,0.00,0.00,0.00,30.16,M,10.00,M,CLR,M,M,M,M,M,M,M,M,M,M,M,M,M,M,68.00,KCXP 120635Z AUTO 00000KT 10SM CLR 20/04 A3016 RMK AO2,M
RTS,2022-08-12 06:35,-119.8764,39.6682,1539.00,68.00,33.80,28.11,300.00,12.00,0.00,30.20,M,10.00,M,CLR,M,M,M,M,M,M,M,M,M,M,M,M,M,M,68.00,KRTS 120635Z AUTO 30012KT 10SM CLR 20/01 A3020 RMK AO2,M
MEV,2022-08-12 06:35,-119.7500,38.9963,1441.42,64.40,41.00,42.28,70.00,4.00,0.00,30.15,M,10.00,M,SCT,M,M,M,12000.00,M,M,M,M,M,M,M,M,M,M,64.40,KMEV 120635Z AUTO 07004KT 10SM SCT120 18/05 A3015 RMK AO2,M
BAM,2022-08-12 06:35,-116.8743,40.5990,1382.36,71.60,53.60,53.03,0.00,0.00,0.00,30.11,M,10.00,M,CLR,M,M,M,M,M,M,M,M,M,M,M,M,M,M,71.60,KBAM 120635Z AUTO 00000KT 10SM CLR 22/12 A3011 RMK AO1,M
TMT,2022-08-12 06:35,-117.1971,39.4643,1749.34,64.60,58.60,80.88,230.00,5.00,0.00,30.21,M,10.00,M,CLR,M,M,M,M,M,M,M,M,M,M,M,M,M,M,64.60,KTMT 120635Z AUTO 23005KT 10SM CLR 18/15 A3021 RMK AO2 T01810148,M
P68,2022-08-12 06:53,-116.0056,39.6014,1993.00,70.00,54.00,56.82,140.00,8.00,0.00,30.22,1014.00,M,M,M,M,M,M,M,M,M,M,M,M,M,M,M,M,M,70.00,KP68 120653Z AUTO 14008KT 21/12 A3022 RMK AO1 SLP140 T02110122,M
DRA,2022-08-12 06:53,-116.0278,36.6206,1009.00,84.00,55.00,37.05,110.00,6.00,0.00,30.03,1011.30,10.00,M,CLR,M,M,M,M,M,M,M,M,M,M,M,M,M,M,82.85,KDRA 120653Z AUTO 11006KT 10SM CLR 29/13 A3003 RMK AO2 SLP113 T02890128,M
ELY,2022-08-12 06:53,-114.8453,39.2950,1909.00,63.00,56.00,77.61,180.00,6.00,0.00,30.30,1015.40,10.00,M,CLR,M,M,M,M,M,M,M,M,M,M,M,M,M,M,63.00,KELY 120653Z AUTO 18006KT 10SM CLR 17/13 A3030 RMK AO2 SLP154 T01720133 402830106,M
LOL,2022-08-12 06:53,-118.5701,40.0684,1192.43,75.00,24.10,14.91,50.00,6.00,0.00,30.06,1013.20,10.00,M,FEW,M,M,M,12000.00,M,M,M,M,M,M,M,M,M,M,75.00,KLOL 120653Z AUTO 05006KT 10SM FEW120 24/M04 A3006 RMK AO2 SLP132 T02391044,M
VGT,2022-08-12 06:53,-115.1933,36.2111,667.00,83.00,64.00,52.93,70.00,3.00,T,29.98,1013.90,10.00,M,CLR,M,M,M,M,M,M,M,M,M,M,M,M,M,M,84.32,KVGT 120653Z AUTO 07003KT 10SM CLR 28/18 A2998 RMK AO2 RAB0554E03 SLP139 P0000 T02830178,M
BVU,2022-08-12 06:55,-114.8611,35.9475,671.00,86.00,62.60,45.61,70.00,6.00,0.00,29.99,M,M,M,M,M,M,M,M,M,M,M,M,M,M,M,M,M,M,86.72,KBVU 120655Z AUTO 07006KT 30/17 A2999 RMK AO2 PWINO TSNO,M
CXP,2022-08-12 06:55,-119.7326,39.1923,1431.00,68.00,39.20,34.80,0.00,0.00,0.00,30.16,M,10.00,M,SCT,M,M,M,12000.00,M,M,M,M,M,M,M,M,M,M,68.00,KCXP 120655Z AUTO 00000KT 10SM SCT120 20/04 A3016 RMK AO2,M
RNO,2022-08-12 06:55,-119.7711,39.4839,1341.00,73.00,39.00,29.12,10.00,6.00,0.00,30.14,1014.40,10.00,M,FEW,M,M,M,15000.00,M,M,M,M,M,M,M,M,M,M,73.00,KRNO 120655Z 01006KT 10SM FEW150 23/04 A3014 RMK AO2 SLP144 T02280039,M
RTS,2022-08-12 06:55,-119.8764,39.6682,1539.00,68.00,33.80,28.11,300.00,10.00,0.00,30.20,M,10.00,M,CLR,M,M,M,M,M,M,M,M,M,M,M,M,M,M,68.00,KRTS 120655Z AUTO 30010KT 10SM CLR 20/01 A3020 RMK AO2,M
MEV,2022-08-12 06:55,-119.7500,38.9963,1441.42,64.40,42.80,45.32,0.00,0.00,0.00,30.15,M,10.00,M,BKN,M,M,M,12000.00,M,M,M,M,M,M,M,M,M,M,64.40,KMEV 120655Z AUTO 00000KT 10SM BKN120 18/06 A3015 RMK AO2,M
BAM,2022-08-12 06:55,-116.8743,40.5990,1382.36,71.60,53.60,53.03,130.00,4.00,0.00,30.11,M,10.00,M,CLR,M,M,M,M,M,M,M,M,M,M,M,M,M,M,71.60,KBAM 120655Z AUTO 13004KT 10SM CLR 22/12 A3011 RMK AO1,M
HTH,2022-08-12 06:55,-118.6315,38.5448,1282.89,82.40,37.40,20.04,330.00,12.00,0.00,30.09,M,10.00,20.00,M,M,M,M,M,M,M,M,M,M,M,M,M,M,M,80.14,KHTH 120655Z AUTO 33012G20KT 10SM 28/03 A3009 RMK A01,M
TMT,2022-08-12 06:55,-117.1971,39.4643,1749.34,62.80,58.50,85.84,240.00,7.00,0.00,30.21,M,10.00,M,CLR,M,M,M,M,M,M,M,M,M,M,M,M,M,M,62.80,KTMT 120655Z AUTO 24007KT 10SM CLR 17/15 A3021 RMK AO2 T01710147,M
LAS,2022-08-12 06:56,-115.1634,36.0719,663.00,81.00,66.00,60.37,130.00,5.00,T,29.99,1012.80,10.00,M,FEW,FEW,BKN,M,8000.00,11000.00,19000.00,M,M,M,M,M,M,M,M,83.11,KLAS 120656Z 13005KT 10SM FEW080 FEW110 BKN190 27/19 A2999 RMK AO2 RAE0558 TSE01 SLP128 P0000 T02720189 $,M
NFL,2022-08-12 06:56,-118.7010,39.4166,1199.00,73.00,44.00,35.46,40.00,4.00,0.00,30.08,1015.30,10.00,M,FEW,SCT,M,M,12000.00,25000.00,M,M,M,M,M,M,M,M,M,73.00,KNFL 120656Z 04004KT 10SM FEW120 SCT250 23/07 A3008 RMK AO2 SLP153 T02280067,M
WMC,2022-08-12 06:56,-117.8072,40.9019,1315.00,68.00,49.00,50.40,300.00,4.00,0.00,30.09,1013.80,10.00,M,CLR,M,M,M,M,M,M,M,M,M,M,M,M,M,M,68.00,KWMC 120656Z AUTO 30004KT 10SM CLR 20/09 A3009 RMK AO2 SLP138 T02000094 $,M
EKO,2022-08-12 06:56,-115.7860,40.8242,1367.00,67.00,54.00,63.21,80.00,4.00,0.00,30.15,1015.50,10.00,M,CLR,M,M,M,M,M,M,M,M,M,M,M,M,M,M,66.90,KEKO 120656Z AUTO 08004KT 10SM CLR 19/12 A3015 RMK AO2 SLP155 T01940122,M
HND,2022-08-12 06:56,-115.1344,35.9729,742.79,81.00,64.00,56.30,0.00,0.00,T,30.03,1015.40,10.00,M,CLR,M,M,M,M,M,M,M,M,M,M,M,M,M,M,82.54,KHND 120656Z AUTO 00000KT 10SM CLR 27/18 A3003 RMK AO2 RAE08 SLP154 P0000 T02720178 403670250,M
TPH,2022-08-12 06:56,-117.0904,38.0505,1654.00,70.00,48.00,45.50,130.00,7.00,0.00,30.20,1014.10,10.00,M,CLR,M,M,M,M,M,M,M,M,M,M,M,M,M,M,70.00,KTPH 120656Z AUTO 13007KT 10SM CLR 21/09 A3020 RMK AO2 SLP141 T02110089,M
LSV,2022-08-12 06:58,-115.0343,36.2362,570.00,86.00,57.20,37.62,0.00,0.00,0.00,29.96,M,10.00,M,FEW,M,M,M,19000.00,M,M,M,M,M,M,M,M,M,M,84.97,KLSV 120658Z COR 00000KT 10SM FEW190 30/14 A2996 RMK AO2 SLPNO WND DATA ESTMD ALSTG/SLP ESTMD $ COR 0753,M
INS,2022-08-12 06:58,-115.6733,36.5872,955.00,82.40,53.40,36.80,100.00,15.00,0.00,30.03,M,10.00,M,CLR,M,M,M,M,M,M,M,M,M,M,M,M,M,M,81.43,KINS 120658Z AUTO 10015KT 10SM CLR 28/12 A3003 RMK AO2 SLPNO T02800119,M
MEV,2022-08-12 07:15,-119.7500,38.9963,1441.42,60.80,42.80,51.45,0.00,0.00,0.00,30.15,M,10.00,M,SCT,M,M,M,12000.00,M,M,M,M,M,M,M,M,M,M,60.80,KMEV 120715Z AUTO 00000KT 10SM SCT120 16/06 A3015 RMK AO2,M
BAM,2022-08-12 07:15,-116.8743,40.5990,1382.36,69.80,53.60,56.38,0.00,0.00,0.00,30.10,M,10.00,M,CLR,M,M,M,M,M,M,M,M,M,M,M,M,M,M,69.80,KBAM 120715Z AUTO 00000KT 10SM CLR 21/12 A3010 RMK AO1,M
HTH,2022-08-12 07:15,-118.6315,38.5448,1282.89,80.60,39.20,22.81,310.00,13.00,0.00,30.10,M,10.00,M,M,M,M,M,M,M,M,M,M,M,M,M,M,M,M,79.10,KHTH 120715Z AUTO 31013KT 10SM 27/04 A3010 RMK A01,M
TMT,2022-08-12 07:15,-117.1971,39.4643,1749.34,M,M,M,220.00,7.00,0.00,30.21,M,10.00,M,CLR,M,M,M,M,M,M,M,M,M,M,M,M,M,M,M,KTMT 120715Z AUTO 22007KT 10SM CLR A3021 RMK AO2,M
RTS,2022-08-12 07:15,-119.8764,39.6682,1539.00,66.20,35.60,32.14,300.00,10.00,0.00,30.20,M,10.00,M,CLR,M,M,M,M,M,M,M,M,M,M,M,M,M,M,66.20,KRTS 120715Z AUTO 30010KT 10SM CLR 19/02 A3020 RMK AO2,M
CXP,2022-08-12 07:15,-119.7326,39.1923,1431.00,68.00,41.00,37.32,0.00,0.00,0.00,30.16,M,10.00,M,BKN,M,M,M,12000.00,M,M,M,M,M,M,M,M,M,M,68.00,KCXP 120715Z AUTO 00000KT 10SM BKN120 20/05 A3016 RMK AO2,M
BVU,2022-08-12 07:15,-114.8611,35.9475,671.00,86.00,64.40,48.58,50.00,5.00,0.00,29.99,M,M,M,M,M,M,M,M,M,M,M,M,M,M,M,M,M,M,87.49,KBVU 120715Z AUTO 05005KT 30/18 A2999 RMK AO2 PWINO TSNO,M
BVU,2022-08-12 07:35,-114.8611,35.9475,671.00,84.20,64.40,51.47,20.00,7.00,0.00,29.98,M,M,M,M,M,M,M,M,M,M,M,M,M,M,M,M,M,M,85.71,KBVU 120735Z AUTO 02007KT 29/18 A2998 RMK AO2 PWINO TSNO,M
TMT,2022-08-12 07:35,-117.1971,39.4643,1749.34,63.00,55.60,76.77,220.00,4.00,0.00,30.21,M,10.00,M,CLR,M,M,M,M,M,M,M,M,M,M,M,M,M,M,63.00,KTMT 120735Z AUTO 22004KT 10SM CLR 17/13 A3021 RMK AO2 T01720131,M
HTH,2022-08-12 07:35,-118.6315,38.5448,1282.89,80.60,39.20,22.81,310.00,9.00,0.00,30.10,M,10.00,14.00,CLR,M,M,M,M,M,M,M,M,M,M,M,M,M,M,79.10,KHTH 120735Z AUTO 31009G14KT 10SM CLR 27/04 A3010 RMK A01,M
BAM,2022-08-12 07:35,-116.8743,40.5990,1382.36,68.00,53.60,59.97,0.00,0.00,0.00,30.10,M,10.00,M,CLR,M,M,M,M,M,M,M,M,M,M,M,M,M,M,68.00,KBAM 120735Z AUTO 00000KT 10SM CLR 20/12 A3010 RMK AO1,M
MEV,2022-08-12 07:35,-119.7500,38.9963,1441.42,60.80,41.00,48.00,130.00,4.00,0.00,30.15,M,10.00,M,SCT,M,M,M,12000.00,M,M,M,M,M,M,M,M,M,M,60.80,KMEV 120735Z AUTO 13004KT 10SM SCT120 16/05 A3015 RMK AO2,M
RTS,2022-08-12 07:35,-119.8764,39.6682,1539.00,66.20,35.60,32.14,280.00,7.00,0.00,30.19,M,10.00,13.00,CLR,M,M,M,M,M,M,M,M,M,M,M,M,M,M,66.20,KRTS 120735Z AUTO 28007G13KT 10SM CLR 19/02 A3019 RMK AO2,M
CXP,2022-08-12 07:35,-119.7326,39.1923,1431.00,64.40,41.00,42.28,0.00,0.00,0.00,30.16,M,10.00,M,BKN,M,M,M,12000.00,M,M,M,M,M,M,M,M,M,M,64.40,KCXP 120735Z AUTO 00000KT 10SM BKN120 18/05 A3016 RMK AO2,M
CXP,2022-08-12 07:50,-119.7326,39.1923,1431.00,66.20,41.00,39.72,0.00,0.00,0.00,30.17,M,10.00,M,BKN,M,M,M,12000.00,M,M,M,M,M,M,M,M,M,M,66.20,KCXP 120750Z AUTO 00000KT 10SM BKN120 19/05 A3017 RMK AO2,M
P68,2022-08-12 07:53,-116.0056,39.6014,1993.00,72.00,54.00,53.09,170.00,10.00,0.00,30.21,1013.40,M,M,M,M,M,M,M,M,M,M,M,M,M,M,M,M,M,72.00,KP68 120753Z AUTO 17010KT 22/12 A3021 RMK AO1 SLP134 T02220122 403000117,M
DRA,2022-08-12 07:53,-116.0278,36.6206,1009.00,83.00,55.00,38.38,M,3.00,0.00,30.04,1011.30,10.00,M,CLR,M,M,M,M,M,M,M,M,M,M,M,M,M,M,82.03,KDRA 120753Z AUTO VRB03KT 10SM CLR 28/13 A3004 RMK AO2 SLP113 T02830128 403780233,M
ELY,2022-08-12 07:53,-114.8453,39.2950,1909.00,61.00,55.00,80.61,190.00,9.00,0.00,30.28,1014.90,10.00,M,CLR,M,M,M,M,M,M,M,M,M,M,M,M,M,M,61.00,KELY 120753Z AUTO 19009KT 10SM CLR 16/13 A3028 RMK AO2 SLP149 T01610128,M
LOL,2022-08-12 07:53,-118.5701,40.0684,1192.43,73.00,27.00,17.99,50.00,8.00,0.00,30.07,1013.40,10.00,M,SCT,M,M,M,12000.00,M,M,M,M,M,M,M,M,M,M,73.00,KLOL 120753Z AUTO 05008KT 10SM SCT120 23/M03 A3007 RMK AO2 SLP134 T02281028 403560133,M
VGT,2022-08-12 07:53,-115.1933,36.2111,667.00,82.00,67.00,60.28,230.00,5.00,0.00,29.97,1013.50,10.00,M,FEW,M,M,M,12000.00,M,M,M,M,M,M,M,M,M,M,84.48,KVGT 120753Z AUTO 23005KT 10SM FEW120 28/19 A2997 RMK AO2 SLP135 T02780194 403780261,M
RNO,2022-08-12 07:55,-119.7711,39.4839,1341.00,72.00,40.00,31.20,350.00,5.00,0.00,30.14,1014.40,10.00,M,SCT,M,M,M,15000.00,M,M,M,M,M,M,M,M,M,M,72.00,KRNO 120755Z 35005KT 10SM SCT150 22/04 A3014 RMK AO2 SLP144 T02220044 403500183,M
TMT,2022-08-12 07:55,-117.1971,39.4643,1749.34,60.40,55.60,84.16,240.00,5.00,0.00,30.21,M,10.00,M,CLR,M,M,M,M,M,M,M,M,M,M,M,M,M,M,60.40,KTMT 120755Z AUTO 24005KT 10SM CLR 16/13 A3021 RMK AO2 T01580131,M
BVU,2022-08-12 07:55,-114.8611,35.9475,671.00,84.20,64.40,51.47,20.00,6.00,0.00,29.98,M,M,M,M,M,M,M,M,M,M,M,M,M,M,M,M,M,M,85.71,KBVU 120755Z AUTO 02006KT 29/18 A2998 RMK AO2 PWINO TSNO,M
RTS,2022-08-12 07:55,-119.8764,39.6682,1539.00,64.40,35.60,34.22,280.00,6.00,0.00,30.20,M,10.00,M,CLR,M,M,M,M,M,M,M,M,M,M,M,M,M,M,64.40,KRTS 120755Z AUTO 28006KT 10SM CLR 18/02 A3020 RMK AO2,M
MEV,2022-08-12 07:55,-119.7500,38.9963,1441.42,59.00,42.80,54.86,0.00,0.00,0.00,30.15,M,10.00,M,SCT,M,M,M,12000.00,M,M,M,M,M,M,M,M,M,M,59.00,KMEV 120755Z AUTO 00000KT 10SM SCT120 15/06 A3015 RMK AO2,M
BAM,2022-08-12 07:55,-116.8743,40.5990,1382.36,66.20,53.60,63.82,50.00,4.00,0.00,30.10,M,10.00,M,CLR,M,M,M,M,M,M,M,M,M,M,M,M,M,M,66.20,KBAM 120755Z AUTO 05004KT 10SM CLR 19/12 A3010 RMK AO1,M
HTH,2022-08-12 07:55,-118.6315,38.5448,1282.89,78.80,39.20,24.19,310.00,8.00,0.00,30.10,M,10.00,M,CLR,M,M,M,M,M,M,M,M,M,M,M,M,M,M,78.80,KHTH 120755Z AUTO 31008KT 10SM CLR 26/04 A3010 RMK A01,M
NFL,2022-08-12 07:56,-118.7010,39.4166,1199.00,70.00,49.00,47.06,310.00,3.00,0.00,30.07,1015.10,10.00,M,CLR,M,M,M,M,M,M,M,M,M,M,M,M,M,M,70.00,KNFL 120756Z AUTO 31003KT 10SM CLR 21/09 A3007 RMK AO2 SLP151 T02110094 403500172,M
WMC,2022-08-12 07:56,-117.8072,40.9019,1315.00,65.00,46.00,50.32,70.00,4.00,0.00,30.09,1013.60,10.00,M,CLR,M,M,M,M,M,M,M,M,M,M,M,M,M,M,64.90,KWMC 120756Z AUTO 07004KT 10SM CLR 18/08 A3009 RMK AO2 SLP136 T01830078 403500144 $,M
EKO,2022-08-12 07:56,-115.7860,40.8242,1367.00,64.00,51.00,62.85,0.00,0.00,0.00,30.15,1015.30,10.00,M,CLR,M,M,M,M,M,M,M,M,M,M,M,M,M,M,64.00,KEKO 120756Z AUTO 00000KT 10SM CLR 18/11 A3015 RMK AO2 SLP153 T01780106 403220117,M
LAS,2022-08-12 07:56,-115.1634,36.0719,663.00,80.00,67.00,64.14,270.00,3.00,0.00,29.97,1012.10,10.00,M,FEW,FEW,BKN,M,8000.00,13000.00,20000.00,M,M,M,M,M,M,M,M,82.40,KLAS 120756Z 27003KT 10SM FEW080 FEW130 BKN200 27/19 A2997 RMK AO2 SLP121 T02670194 403720244 $,M
TPH,2022-08-12 07:56,-117.0904,38.0505,1654.00,69.00,50.00,50.56,0.00,0.00,0.00,30.21,1014.20,10.00,M,CLR,M,M,M,M,M,M,M,M,M,M,M,M,M,M,69.10,KTPH 120756Z AUTO 00000KT 10SM CLR 21/10 A3021 RMK AO2 SLP142 T02060100 403170172,M
HND,2022-08-12 07:56,-115.1344,35.9729,742.79,81.00,63.00,54.36,220.00,4.00,0.00,30.01,1014.80,10.00,M,CLR,M,M,M,M,M,M,M,M,M,M,M,M,M,M,82.28,KHND 120756Z AUTO 22004KT 10SM CLR 27/17 A3001 RMK AO2 SLP148 T02720172,M
LSV,2022-08-12 07:58,-115.0343,36.2362,570.00,86.00,59.00,40.14,0.00,0.00,0.00,29.95,M,10.00,M,FEW,M,M,M,19000.00,M,M,M,M,M,M,M,M,M,M,85.47,KLSV 120758Z COR 00000KT 10SM FEW190 30/15 A2995 RMK SLPNO WND DATA ESTMD ALSTG/SLP ESTMD 0800,M
INS,2022-08-12 07:58,-115.6733,36.5872,955.00,82.40,52.00,34.95,120.00,6.00,0.00,30.02,M,10.00,M,CLR,M,M,M,M,M,M,M,M,M,M,M,M,M,M,81.23,KINS 120758Z AUTO 12006KT 10SM CLR 28/11 A3002 RMK AO2 SLPNO T02800111 403570237,M
RTS,2022-08-12 08:15,-119.8764,39.6682,1539.00,64.40,33.80,31.85,110.00,4.00,0.00,30.20,M,10.00,M,FEW,M,M,M,12000.00,M,M,M,M,M,M,M,M,M,M,64.40,KRTS 120815Z AUTO 11004KT 10SM FEW120 18/01 A3020 RMK AO2,M
TMT,2022-08-12 08:15,-117.1971,39.4643,1749.34,60.00,55.20,84.44,220.00,5.00,0.00,30.21,M,10.00,M,CLR,M,M,M,M,M,M,M,M,M,M,M,M,M,M,59.90,KTMT 120815Z AUTO 22005KT 10SM CLR 16/13 A3021 RMK AO2 T01550129,M
CXP,2022-08-12 08:15,-119.7326,39.1923,1431.00,64.40,41.00,42.28,0.00,0.00,0.00,30.17,M,10.00,M,BKN,M,M,M,12000.00,M,M,M,M,M,M,M,M,M,M,64.40,KCXP 120815Z AUTO 00000KT 10SM BKN120 18/05 A3017 RMK AO2,M
BVU,2022-08-12 08:15,-114.8611,35.9475,671.00,82.40,64.40,54.55,340.00,4.00,0.00,29.97,M,M,M,M,M,M,M,M,M,M,M,M,M,M,M,M,M,M,83.98,KBVU 120815Z AUTO 34004KT 28/18 A2997 RMK AO2 PWINO TSNO,M
HTH,2022-08-12 08:15,-118.6315,38.5448,1282.89,77.00,41.00,27.53,310.00,8.00,0.00,30.10,M,10.00,M,CLR,M,M,M,M,M,M,M,M,M,M,M,M,M,M,77.00,KHTH 120815Z AUTO 31008KT 10SM CLR 25/05 A3010 RMK A01,M
MEV,2022-08-12 08:15,-119.7500,38.9963,1441.42,57.20,44.60,62.69,0.00,0.00,0.00,30.15,M,10.00,M,SCT,M,M,M,11000.00,M,M,M,M,M,M,M,M,M,M,57.20,KMEV 120815Z AUTO 00000KT 10SM SCT110 14/07 A3015 RMK AO2,M
BAM,2022-08-12 08:20,-116.8743,40.5990,1382.36,68.00,53.60,59.97,0.00,0.00,0.00,30.09,M,10.00,M,SCT,M,M,M,10000.00,M,M,M,M,M,M,M,M,M,M,68.00,KBAM 120820Z AUTO 00000KT 10SM SCT100 20/12 A3009 RMK AO1,M
TMT,2022-08-12 08:35,-117.1971,39.4643,1749.34,60.00,54.50,82.31,220.00,6.00,0.00,30.21,M,10.00,M,CLR,M,M,M,M,M,M,M,M,M,M,M,M,M,M,59.90,KTMT 120835Z AUTO 22006KT 10SM CLR 16/13 A3021 RMK AO2 T01550125,M
RTS,2022-08-12 08:35,-119.8764,39.6682,1539.00,62.60,33.80,33.93,350.00,6.00,0.00,30.20,M,10.00,M,BKN,M,M,M,11000.00,M,M,M,M,M,M,M,M,M,M,62.60,KRTS 120835Z AUTO 35006KT 10SM BKN110 17/01 A3020 RMK AO2,M
MEV,2022-08-12 08:35,-119.7500,38.9963,1441.42,59.00,42.80,54.86,0.00,0.00,0.00,30.15,M,10.00,M,FEW,FEW,M,M,8000.00,12000.00,M,M,M,M,M,M,M,M,M,59.00,KMEV 120835Z AUTO 00000KT 10SM FEW080 FEW120 15/06 A3015 RMK AO2,M
CXP,2022-08-12 08:35,-119.7326,39.1923,1431.00,64.40,41.00,42.28,0.00,0.00,0.00,30.17,M,10.00,M,BKN,M,M,M,12000.00,M,M,M,M,M,M,M,M,M,M,64.40,KCXP 120835Z AUTO 00000KT 10SM BKN120 18/05 A3017 RMK AO2,M
BVU,2022-08-12 08:35,-114.8611,35.9475,671.00,84.20,64.40,51.47,40.00,6.00,0.00,29.97,M,M,M,M,M,M,M,M,M,M,M,M,M,M,M,M,M,M,85.71,KBVU 120835Z AUTO 04006KT 29/18 A2997 RMK AO2 PWINO TSNO,M
BAM,2022-08-12 08:35,-116.8743,40.5990,1382.36,68.00,53.60,59.97,60.00,4.00,0.00,30.09,M,10.00,M,SCT,M,M,M,10000.00,M,M,M,M,M,M,M,M,M,M,68.00,KBAM 120835Z AUTO 06004KT 10SM SCT100 20/12 A3009 RMK AO1,M
HTH,2022-08-12 08:35,-118.6315,38.5448,1282.89,77.00,41.00,27.53,320.00,7.00,0.00,30.10,M,10.00,M,CLR,M,M,M,M,M,M,M,M,M,M,M,M,M,M,77.00,KHTH 120835Z AUTO 32007KT 10SM CLR 25/05 A3010 RMK A01,M
CXP,2022-08-12 08:50,-119.7326,39.1923,1431.00,64.40,41.00,42.28,M,3.00,0.00,30.16,M,10.00,M,BKN,M,M,M,11000.00,M,M,M,M,M,M,M,M,M,M,64.40,KCXP 120850Z AUTO VRB03KT 10SM BKN110 18/05 A3016 RMK AO2,M
VGT,2022-08-12 08:53,-115.1933,36.2111,667.00,82.00,66.00,58.43,0.00,0.00,0.00,29.96,1013.30,10.00,M,CLR,M,M,M,M,M,M,M,M,M,M,M,M,M,M,84.15,KVGT 120853Z AUTO 00000KT 10SM CLR 28/19 A2996 RMK AO2 SLP133 60000 T02780189 56007,M
P68,2022-08-12 08:53,-116.0056,39.6014,1993.00,66.00,54.00,65.21,130.00,8.00,0.00,30.21,1013.90,M,M,M,M,M,M,M,M,M,M,M,M,M,M,M,M,M,66.00,KP68 120853Z AUTO 13008KT 19/12 A3021 RMK AO1 SLP139 T01890122 56003,M
DRA,2022-08-12 08:53,-116.0278,36.6206,1009.00,79.00,55.00,43.59,30.00,4.00,0.00,30.03,1011.30,10.00,M,CLR,M,M,M,M,M,M,M,M,M,M,M,M,M,M,79.00,KDRA 120853Z AUTO 03004KT 10SM CLR 26/13 A3003 RMK AO2 SLP113 T02610128 50000,M
ELY,2022-08-12 08:53,-114.8453,39.2950,1909.00,58.00,55.00,90.04,150.00,6.00,0.00,30.28,1015.20,10.00,M,CLR,M,M,M,M,M,M,M,M,M,M,M,M,M,M,57.90,KELY 120853Z AUTO 15006KT 10SM CLR 14/13 A3028 RMK AO2 SLP152 T01440128 56005,M
LOL,2022-08-12 08:53,-118.5701,40.0684,1192.43,72.00,27.00,18.61,40.00,10.00,0.00,30.06,1013.10,10.00,M,FEW,M,M,M,12000.00,M,M,M,M,M,M,M,M,M,M,72.00,KLOL 120853Z AUTO 04010KT 10SM FEW120 22/M03 A3006 RMK AO2 SLP131 T02221028 50002,M
RTS,2022-08-12 08:55,-119.8764,39.6682,1539.00,60.80,33.80,36.16,30.00,3.00,0.00,30.20,M,10.00,M,FEW,BKN,M,M,9000.00,11000.00,M,M,M,M,M,M,M,M,M,60.80,KRTS 120855Z AUTO 03003KT 10SM FEW090 BKN110 16/01 A3020 RMK AO2,M
MEV,2022-08-12 08:55,-119.7500,38.9963,1441.42,57.20,42.80,58.52,100.00,6.00,0.00,30.15,M,10.00,M,FEW,BKN,M,M,8000.00,11000.00,M,M,M,M,M,M,M,M,M,57.20,KMEV 120855Z AUTO 10006KT 10SM FEW080 BKN110 14/06 A3015 RMK AO2,M
BAM,2022-08-12 08:55,-116.8743,40.5990,1382.36,66.20,53.60,63.82,50.00,4.00,0.00,30.09,M,10.00,M,CLR,M,M,M,M,M,M,M,M,M,M,M,M,M,M,66.20,KBAM 120855Z AUTO 05004KT 10SM CLR 19/12 A3009 RMK AO1,M
BVU,2022-08-12 08:55,-114.8611,35.9475,671.00,84.20,64.40,51.47,50.00,5.00,0.00,29.97,M,M,M,M,M,M,M,M,M,M,M,M,M,M,M,M,M,M,85.71,KBVU 120855Z AUTO 05005KT 29/18 A2997 RMK AO2 PWINO TSNO,M
TMT,2022-08-12 08:55,-117.1971,39.4643,1749.34,57.70,53.80,86.81,210.00,5.00,0.00,30.21,M,10.00,M,CLR,M,M,M,M,M,M,M,M,M,M,M,M,M,M,57.70,KTMT 120855Z AUTO 21005KT 10SM CLR 14/12 A3021 RMK AO2 T01430121,M
HTH,2022-08-12 08:55,-118.6315,38.5448,1282.89,75.20,42.80,31.34,330.00,7.00,0.00,30.11,M,10.00,M,CLR,M,M,M,M,M,M,M,M,M,M,M,M,M,M,75.20,KHTH 120855Z AUTO 33007KT 10SM CLR 24/06 A3011 RMK A01,M
RNO,2022-08-12 08:55,-119.7711,39.4839,1341.00,70.00,43.00,37.64,0.00,0.00,0.00,30.14,1014.30,10.00,M,SCT,BKN,M,M,10000.00,12000.00,M,M,M,M,M,M,M,M,M,70.00,KRNO 120855Z 00000KT 10SM SCT100 BKN120 21/06 A3014 RMK AO2 SLP143 T02110061 53000,M
LAS,2022-08-12 08:56,-115.1634,36.0719,663.00,80.00,66.00,62.17,190.00,3.00,0.00,29.98,1012.20,10.00,M,FEW,SCT,M,M,13000.00,20000.00,M,M,M,M,M,M,M,M,M,82.17,KLAS 120856Z 19003KT 10SM FEW130 SCT200 27/19 A2998 RMK AO2 SLP122 60000 T02670189 58002 $,M
EKO,2022-08-12 08:56,-115.7860,40.8242,1367.00,63.00,52.00,67.29,70.00,5.00,0.00,30.15,1015.40,10.00,M,CLR,M,M,M,M,M,M,M,M,M,M,M,M,M,M,63.00,KEKO 120856Z AUTO 07005KT 10SM CLR 17/11 A3015 RMK AO2 SLP154 T01720111 58001,M
NFL,2022-08-12 08:56,-118.7010,39.4166,1199.00,69.00,47.00,45.02,230.00,4.00,0.00,30.08,1015.30,10.00,M,BKN,M,M,M,12000.00,M,M,M,M,M,M,M,M,M,M,69.10,KNFL 120856Z AUTO 23004KT 10SM BKN120 21/08 A3008 RMK AO2 SLP153 T02060083 51004,M
HND,2022-08-12 08:56,-115.1344,35.9729,742.79,80.00,63.00,55.98,0.00,0.00,0.00,30.01,1014.80,10.00,M,CLR,M,M,M,M,M,M,M,M,M,M,M,M,M,M,81.50,KHND 120856Z AUTO 00000KT 10SM CLR 27/17 A3001 RMK AO2 SLP148 60000 T02670172 58002,M
WMC,2022-08-12 08:56,-117.8072,40.9019,1315.00,71.00,37.00,28.71,30.00,3.00,0.00,30.09,1013.10,10.00,M,CLR,M,M,M,M,M,M,M,M,M,M,M,M,M,M,71.10,KWMC 120856Z AUTO 03003KT 10SM CLR 22/03 A3009 RMK AO2 SLP131 T02170028 50001 $,M
TPH,2022-08-12 08:56,-117.0904,38.0505,1654.00,67.00,50.00,54.54,0.00,0.00,0.00,30.20,1014.10,10.00,M,CLR,M,M,M,M,M,M,M,M,M,M,M,M,M,M,66.90,KTPH 120856Z AUTO 00000KT 10SM CLR 19/10 A3020 RMK AO2 SLP141 T01940100 50001,M
INS,2022-08-12 08:58,-115.6733,36.5872,955.00,79.70,51.80,37.89,0.00,0.00,0.00,30.02,M,10.00,M,CLR,M,M,M,M,M,M,M,M,M,M,M,M,M,M,79.70,KINS 120858Z AUTO 00000KT 10SM CLR 27/11 A3002 RMK AO2 SLPNO T02650110 58003,M
LSV,2022-08-12 08:58,-115.0343,36.2362,570.00,86.00,57.20,37.62,60.00,2.00,0.00,29.93,M,10.00,M,FEW,M,M,M,19000.00,M,M,M,M,M,M,M,M,M,M,84.97,KLSV 120858Z 06002KT 10SM FEW190 30/14 A2993 RMK SLPNO WND DATA ESTMD ALSTG/SLP ESTMD,M
TMT,2022-08-12 09:15,-117.1971,39.4643,1749.34,58.80,53.80,83.45,0.00,0.00,0.00,30.21,M,10.00,M,CLR,M,M,M,M,M,M,M,M,M,M,M,M,M,M,58.80,KTMT 120915Z AUTO 00000KT 10SM CLR 15/12 A3021 RMK AO2 T01490121,M
BVU,2022-08-12 09:15,-114.8611,35.9475,671.00,82.40,62.60,51.21,30.00,5.00,0.00,29.97,M,M,M,M,M,M,M,M,M,M,M,M,M,M,M,M,M,M,83.41,KBVU 120915Z AUTO 03005KT 28/17 A2997 RMK AO2 PWINO TSNO,M
HTH,2022-08-12 09:15,-118.6315,38.5448,1282.89,75.20,42.80,31.34,320.00,6.00,0.00,30.11,M,10.00,M,CLR,M,M,M,M,M,M,M,M,M,M,M,M,M,M,75.20,KHTH 120915Z AUTO 32006KT 10SM CLR 24/06 A3011 RMK A01,M
RTS,2022-08-12 09:15,-119.8764,39.6682,1539.00,60.80,33.80,36.16,0.00,0.00,0.00,30.20,M,10.00,M,SCT,SCT,M,M,9500.00,12000.00,M,M,M,M,M,M,M,M,M,60.80,KRTS 120915Z AUTO 00000KT 10SM SCT095 SCT120 16/01 A3020 RMK AO2,M
CXP,2022-08-12 09:15,-119.7326,39.1923,1431.00,62.60,42.80,48.28,0.00,0.00,0.00,30.17,M,10.00,M,BKN,M,M,M,11000.00,M,M,M,M,M,M,M,M,M,M,62.60,KCXP 120915Z AUTO 00000KT 10SM BKN110 17/06 A3017 RMK AO2,M
BAM,2022-08-12 09:15,-116.8743,40.5990,1382.36,64.40,53.60,67.95,60.00,4.00,0.00,30.10,M,10.00,M,CLR,M,M,M,M,M,M,M,M,M,M,M,M,M,M,64.40,KBAM 120915Z AUTO 06004KT 10SM CLR 18/12 A3010 RMK AO1,M
MEV,2022-08-12 09:15,-119.7500,38.9963,1441.42,57.20,42.80,58.52,0.00,0.00,0.00,30.15,M,10.00,M,BKN,M,M,M,11000.00,M,M,M,M,M,M,M,M,M,M,57.20,KMEV 120915Z AUTO 00000KT 10SM BKN110 14/06 A3015 RMK AO2,M
MEV,2022-08-12 09:35,-119.7500,38.9963,1441.42,55.40,42.80,62.46,0.00,0.00,0.00,30.15,M,10.00,M,SCT,M,M,M,11000.00,M,M,M,M,M,M,M,M,M,M,55.40,KMEV 120935Z AUTO 00000KT 10SM SCT110 13/06 A3015 RMK AO2,M
RTS,2022-08-12 09:35,-119.8764,39.6682,1539.00,59.00,33.80,38.56,0.00,0.00,0.00,30.20,M,10.00,M,SCT,SCT,M,M,9500.00,11000.00,M,M,M,M,M,M,M,M,M,59.00,KRTS 120935Z AUTO 00000KT 10SM SCT095 SCT110 15/01 A3020 RMK AO2,M
TMT,2022-08-12 09:35,-117.1971,39.4643,1749.34,56.80,52.70,86.12,0.00,0.00,0.00,30.22,M,10.00,M,CLR,M,M,M,M,M,M,M,M,M,M,M,M,M,M,56.80,KTMT 120935Z AUTO 00000KT 10SM CLR 14/12 A3022 RMK AO2 T01380115,M
CXP,2022-08-12 09:35,-119.7326,39.1923,1431.00,62.60,42.80,48.28,0.00,0.00,0.00,30.17,M,10.00,M,OVC,M,M,M,11000.00,M,M,M,M,M,M,M,M,M,M,62.60,KCXP 120935Z AUTO 00000KT 10SM OVC110 17/06 A3017 RMK AO2,M
BVU,2022-08-12 09:35,-114.8611,35.9475,671.00,84.20,62.60,48.32,50.00,6.00,0.00,29.98,M,M,M,M,M,M,M,M,M,M,M,M,M,M,M,M,M,M,85.03,KBVU 120935Z AUTO 05006KT 29/17 A2998 RMK AO2 PWINO TSNO,M
HTH,2022-08-12 09:35,-118.6315,38.5448,1282.89,75.20,44.60,33.57,290.00,5.00,0.00,30.11,M,10.00,M,CLR,M,M,M,M,M,M,M,M,M,M,M,M,M,M,75.20,KHTH 120935Z AUTO 29005KT 10SM CLR 24/07 A3011 RMK A01,M
BAM,2022-08-12 09:35,-116.8743,40.5990,1382.36,66.20,53.60,63.82,360.00,5.00,0.00,30.10,M,10.00,M,CLR,M,M,M,M,M,M,M,M,M,M,M,M,M,M,66.20,KBAM 120935Z AUTO 36005KT 10SM CLR 19/12 A3010 RMK AO1,M
DRA,2022-08-12 09:53,-116.0278,36.6206,1009.00,78.00,57.00,48.28,100.00,5.00,0.00,30.03,1011.60,10.00,M,CLR,M,M,M,M,M,M,M,M,M,M,M,M,M,M,78.10,KDRA 120953Z AUTO 10005KT 10SM CLR 26/14 A3003 RMK AO2 SLP116 T02560139,M
ELY,2022-08-12 09:53,-114.8453,39.2950,1909.00,56.00,54.00,93.32,170.00,3.00,0.00,30.28,1015.30,10.00,M,CLR,M,M,M,M,M,M,M,M,M,M,M,M,M,M,55.90,KELY 120953Z AUTO 17003KT 10SM CLR 13/12 A3028 RMK AO2 SLP153 T01330122,M
VGT,2022-08-12 09:53,-115.1933,36.2111,667.00,82.00,68.00,62.62,0.00,0.00,0.00,29.97,1013.50,10.00,M,CLR,M,M,M,M,M,M,M,M,M,M,M,M,M,M,84.92,KVGT 120953Z AUTO 00000KT 10SM CLR 28/20 A2997 RMK AO2 SLP135 T02780200,M
LOL,2022-08-12 09:53,-118.5701,40.0684,1192.43,67.00,27.00,22.15,310.00,4.00,0.00,30.06,1013.40,10.00,M,FEW,M,M,M,12000.00,M,M,M,M,M,M,M,M,M,M,66.90,KLOL 120953Z AUTO 31004KT 10SM FEW120 19/M03 A3006 RMK AO2 SLP134 T01941028,M
P68,2022-08-12 09:53,-116.0056,39.6014,1993.00,67.00,54.00,63.21,120.00,7.00,0.00,30.22,1013.80,M,M,M,M,M,M,M,M,M,M,M,M,M,M,M,M,M,66.90,KP68 120953Z AUTO 12007KT 19/12 A3022 RMK AO1 SLP138 T01940122,M
BVU,2022-08-12 09:55,-114.8611,35.9475,671.00,82.40,62.60,51.21,40.00,6.00,0.00,29.97,M,M,M,M,M,M,M,M,M,M,M,M,M,M,M,M,M,M,83.41,KBVU 120955Z AUTO 04006KT 28/17 A2997 RMK AO2 PWINO TSNO,M
RTS,2022-08-12 09:55,-119.8764,39.6682,1539.00,59.00,33.80,38.56,10.00,4.00,0.00,30.20,M,10.00,M,FEW,SCT,M,M,9500.00,11000.00,M,M,M,M,M,M,M,M,M,59.00,KRTS 120955Z AUTO 01004KT 10SM FEW095 SCT110 15/01 A3020 RMK AO2,M
MEV,2022-08-12 09:55,-119.7500,38.9963,1441.42,51.80,42.80,71.26,220.00,4.00,0.00,30.16,M,10.00,M,FEW,M,M,M,11000.00,M,M,M,M,M,M,M,M,M,M,51.80,KMEV 120955Z AUTO 22004KT 10SM FEW110 11/06 A3016 RMK AO2,M
BAM,2022-08-12 09:55,-116.8743,40.5990,1382.36,66.20,53.60,63.82,350.00,4.00,0.00,30.10,M,10.00,M,CLR,M,M,M,M,M,M,M,M,M,M,M,M,M,M,66.20,KBAM 120955Z AUTO 35004KT 10SM CLR 19/12 A3010 RMK AO1,M
HTH,2022-08-12 09:55,-118.6315,38.5448,1282.89,73.40,42.80,33.29,0.00,0.00,0.00,30.11,M,10.00,M,CLR,M,M,M,M,M,M,M,M,M,M,M,M,M,M,73.40,KHTH 120955Z AUTO 00000KT 10SM CLR 23/06 A3011 RMK A01,M
TMT,2022-08-12 09:55,-117.1971,39.4643,1749.34,56.70,54.30,91.65,0.00,0.00,0.00,30.22,M,10.00,M,CLR,M,M,M,M,M,M,M,M,M,M,M,M,M,M,56.70,KTMT 120955Z AUTO 00000KT 10SM CLR 14/12 A3022 RMK AO2 T01370124,M
CXP,2022-08-12 09:55,-119.7326,39.1923,1431.00,62.60,42.80,48.28,0.00,0.00,0.00,30.17,M,10.00,M,BKN,M,M,M,11000.00,M,M,M,M,M,M,M,M,M,M,62.60,KCXP 120955Z AUTO 00000KT 10SM BKN110 17/06 A3017 RMK AO2,M
RNO,2022-08-12 09:55,-119.7711,39.4839,1341.00,69.00,42.00,37.50,280.00,4.00,0.00,30.15,1014.60,10.00,M,BKN,M,M,M,12000.00,M,M,M,M,M,M,M,M,M,M,69.10,KRNO 120955Z 28004KT 10SM BKN120 21/06 A3015 RMK AO2 SLP146 T02060056,M
NFL,2022-08-12 09:56,-118.7010,39.4166,1199.00,66.00,46.00,48.43,250.00,3.00,0.00,30.08,1015.30,10.00,M,CLR,M,M,M,M,M,M,M,M,M,M,M,M,M,M,66.00,KNFL 120956Z AUTO 25003KT 10SM CLR 19/08 A3008 RMK AO2 SLP153 T01890078,M
TPH,2022-08-12 09:56,-117.0904,38.0505,1654.00,66.00,51.00,58.62,10.00,6.00,0.00,30.20,1014.30,10.00,M,CLR,M,M,M,M,M,M,M,M,M,M,M,M,M,M,66.00,KTPH 120956Z AUTO 01006KT 10SM CLR 19/11 A3020 RMK AO2 SLP143 T01890106,M
EKO,2022-08-12 09:56,-115.7860,40.8242,1367.00,63.00,52.00,67.29,40.00,6.00,0.00,30.16,1015.30,10.00,M,CLR,M,M,M,M,M,M,M,M,M,M,M,M,M,M,63.00,KEKO 120956Z AUTO 04006KT 10SM CLR 17/11 A3016 RMK AO2 SLP153 T01720111,M
HND,2022-08-12 09:56,-115.1344,35.9729,742.79,78.00,66.00,66.39,170.00,3.00,0.00,30.02,1015.10,10.00,M,CLR,M,M,M,M,M,M,M,M,M,M,M,M,M,M,78.10,KHND 120956Z AUTO 17003KT 10SM CLR 26/19 A3002 RMK AO2 SLP151 T02560189,M
LAS,2022-08-12 09:56,-115.1634,36.0719,663.00,81.00,64.00,56.30,220.00,4.00,0.00,29.98,1012.20,10.00,M,SCT,M,M,M,20000.00,M,M,M,M,M,M,M,M,M,M,82.54,KLAS 120956Z 22004KT 10SM SCT200 27/18 A2998 RMK AO2 SLP122 T02720178 $,M
WMC,2022-08-12 09:56,-117.8072,40.9019,1315.00,64.00,43.00,46.32,20.00,4.00,0.00,30.09,1013.50,10.00,M,CLR,M,M,M,M,M,M,M,M,M,M,M,M,M,M,64.00,KWMC 120956Z AUTO 02004KT 10SM CLR 18/06 A3009 RMK AO2 SLP135 T01780061 $,M
INS,2022-08-12 09:58,-115.6733,36.5872,955.00,80.00,52.00,37.92,0.00,0.00,0.00,30.03,M,10.00,M,CLR,M,M,M,M,M,M,M,M,M,M,M,M,M,M,79.90,KINS 120958Z AUTO 00000KT 10SM CLR 27/11 A3003 RMK AO2 SLPNO T02660111,M
LSV,2022-08-12 09:58,-115.0343,36.2362,570.00,84.20,59.00,42.52,230.00,3.00,0.00,29.94,M,10.00,M,FEW,M,M,M,19000.00,M,M,M,M,M,M,M,M,M,M,83.92,KLSV 120958Z COR 23003KT 10SM FEW190 29/15 A2994 RMK AO2 SLPNO WND DATA ESTMD ALSTG/SLP ESTMD $ COR 1010,M
TMT,2022-08-12 10:15,-117.1971,39.4643,1749.34,59.00,53.60,82.25,0.00,0.00,0.00,30.22,M,10.00,M,CLR,M,M,M,M,M,M,M,M,M,M,M,M,M,M,59.00,KTMT 121015Z AUTO 00000KT 10SM CLR 15/12 A3022 RMK AO2 T01500120,M
BVU,2022-08-12 10:15,-114.8611,35.9475,671.00,82.40,62.60,51.21,50.00,6.00,0.00,29.98,M,M,M,M,M,M,M,M,M,M,M,M,M,M,M,M,M,M,83.41,KBVU 121015Z AUTO 05006KT 28/17 A2998 RMK AO2 PWINO TSNO,M
CXP,2022-08-12 10:15,-119.7326,39.1923,1431.00,62.60,42.80,48.28,0.00,0.00,0.00,30.17,M,10.00,M,SCT,M,M,M,11000.00,M,M,M,M,M,M,M,M,M,M,62.60,KCXP 121015Z AUTO 00000KT 10SM SCT110 17/06 A3017 RMK AO2,M
HTH,2022-08-12 10:15,-118.6315,38.5448,1282.89,73.40,41.00,31.05,0.00,0.00,0.00,30.11,M,10.00,M,CLR,M,M,M,M,M,M,M,M,M,M,M,M,M,M,73.40,KHTH 121015Z AUTO 00000KT 10SM CLR 23/05 A3011 RMK A01,M
BAM,2022-08-12 10:15,-116.8743,40.5990,1382.36,64.40,53.60,67.95,30.00,3.00,0.00,30.11,M,10.00,M,CLR,M,M,M,M,M,M,M,M,M,M,M,M,M,M,64.40,KBAM 121015Z AUTO 03003KT 10SM CLR 18/12 A3011 RMK AO1,M
MEV,2022-08-12 10:15,-119.7500,38.9963,1441.42,51.80,44.60,76.34,0.00,0.00,0.00,30.15,M,10.00,M,SCT,M,M,M,11000.00,M,M,M,M,M,M,M,M,M,M,51.80,KMEV 121015Z AUTO 00000KT 10SM SCT110 11/07 A3015 RMK AO2,M
RTS,2022-08-12 10:15,-119.8764,39.6682,1539.00,59.00,33.80,38.56,340.00,5.00,0.00,30.20,M,10.00,M,SCT,M,M,M,11000.00,M,M,M,M,M,M,M,M,M,M,59.00,KRTS 121015Z AUTO 34005KT 10SM SCT110 15/01 A3020 RMK AO2,M
BAM,2022-08-12 10:35,-116.8743,40.5990,1382.36,62.60,51.80,67.75,170.00,3.00,0.00,30.11,M,10.00,M,CLR,M,M,M,M,M,M,M,M,M,M,M,M,M,M,62.60,KBAM 121035Z AUTO 17003KT 10SM CLR 17/11 A3011 RMK AO1,M
RTS,2022-08-12 10:35,-119.8764,39.6682,1539.00,57.20,33.80,41.13,360.00,5.00,0.00,30.20,M,10.00,M,SCT,M,M,M,11000.00,M,M,M,M,M,M,M,M,M,M,57.20,KRTS 121035Z AUTO 36005KT 10SM SCT110 14/01 A3020 RMK AO2,M
CXP,2022-08-12 10:35,-119.7326,39.1923,1431.00,60.80,42.80,51.45,0.00,0.00,0.00,30.17,M,10.00,M,SCT,M,M,M,11000.00,M,M,M,M,M,M,M,M,M,M,60.80,KCXP 121035Z AUTO 00000KT 10SM SCT110 16/06 A3017 RMK AO2,M
TMT,2022-08-12 10:35,-117.1971,39.4643,1749.34,59.00,53.60,82.25,240.00,4.00,0.00,30.22,M,10.00,M,CLR,M,M,M,M,M,M,M,M,M,M,M,M,M,M,59.00,KTMT 121035Z AUTO 24004KT 10SM CLR 15/12 A3022 RMK AO2 T01500120,M
BVU,2022-08-12 10:35,-114.8611,35.9475,671.00,80.60,62.60,54.30,50.00,5.00,0.00,29.98,M,M,M,M,M,M,M,M,M,M,M,M,M,M,M,M,M,M,81.84,KBVU 121035Z AUTO 05005KT 27/17 A2998 RMK AO2 PWINO TSNO,M
HTH,2022-08-12 10:35,-118.6315,38.5448,1282.89,73.40,42.80,33.29,0.00,0.00,0.00,30.11,M,10.00,M,CLR,M,M,M,M,M,M,M,M,M,M,M,M,M,M,73.40,KHTH 121035Z AUTO 00000KT 10SM CLR 23/06 A3011 RMK A01,M
MEV,2022-08-12 10:35,-119.7500,38.9963,1441.42,50.00,42.80,76.18,0.00,0.00,0.00,30.16,M,10.00,M,SCT,M,M,M,11000.00,M,M,M,M,M,M,M,M,M,M,50.00,KMEV 121035Z AUTO 00000KT 10SM SCT110 10/06 A3016 RMK AO2,M
P68,2022-08-12 10:53,-116.0056,39.6014,1993.00,66.00,53.00,63.10,190.00,3.00,0.00,30.22,1014.10,M,M,M,M,M,M,M,M,M,M,M,M,M,M,M,M,M,66.00,KP68 121053Z AUTO 19003KT 19/12 A3022 RMK AO1 SLP141 T01890117,M
LOL,2022-08-12 10:53,-118.5701,40.0684,1192.43,63.00,28.90,27.44,300.00,5.00,0.00,30.08,1014.20,10.00,M,CLR,M,M,M,M,M,M,M,M,M,M,M,M,M,M,63.00,KLOL 121053Z AUTO 30005KT 10SM CLR 17/M02 A3008 RMK AO2 SLP142 T01721017,M
VGT,2022-08-12 10:53,-115.1933,36.2111,667.00,80.00,69.00,69.18,320.00,5.00,0.00,29.97,1013.50,10.00,M,CLR,M,M,M,M,M,M,M,M,M,M,M,M,M,M,83.01,KVGT 121053Z AUTO 32005KT 10SM CLR 27/21 A2997 RMK AO2 SLP135 T02670206,M
DRA,2022-08-12 10:53,-116.0278,36.6206,1009.00,78.00,57.00,48.28,100.00,3.00,0.00,30.03,1011.30,10.00,M,CLR,M,M,M,M,M,M,M,M,M,M,M,M,M,M,78.10,KDRA 121053Z AUTO 10003KT 10SM CLR 26/14 A3003 RMK AO2 SLP113 T02560139,M
ELY,2022-08-12 10:53,-114.8453,39.2950,1909.00,55.00,54.00,96.42,190.00,5.00,0.00,30.28,1015.90,10.00,M,CLR,M,M,M,M,M,M,M,M,M,M,M,M,M,M,55.00,KELY 121053Z AUTO 19005KT 10SM CLR 13/12 A3028 RMK AO2 SLP159 T01280122,M
MEV,2022-08-12 10:55,-119.7500,38.9963,1441.42,51.80,42.80,71.26,160.00,5.00,0.00,30.16,M,10.00,M,BKN,M,M,M,11000.00,M,M,M,M,M,M,M,M,M,M,51.80,KMEV 121055Z AUTO 16005KT 10SM BKN110 11/06 A3016 RMK AO2,M
BAM,2022-08-12 10:55,-116.8743,40.5990,1382.36,62.60,51.80,67.75,0.00,0.00,0.00,30.12,M,10.00,M,CLR,M,M,M,M,M,M,M,M,M,M,M,M,M,M,62.60,KBAM 121055Z AUTO 00000KT 10SM CLR 17/11 A3012 RMK AO1,M
TMT,2022-08-12 10:55,-117.1971,39.4643,1749.34,54.00,51.30,90.22,0.00,0.00,0.00,30.22,M,10.00,M,CLR,M,M,M,M,M,M,M,M,M,M,M,M,M,M,54.10,KTMT 121055Z AUTO 00000KT 10SM CLR 12/11 A3022 RMK AO2 T01230107,M
CXP,2022-08-12 10:55,-119.7326,39.1923,1431.00,60.80,41.00,48.00,0.00,0.00,0.00,30.17,M,10.00,M,SCT,M,M,M,11000.00,M,M,M,M,M,M,M,M,M,M,60.80,KCXP 121055Z AUTO 00000KT 10SM SCT110 16/05 A3017 RMK AO2,M
RNO,2022-08-12 10:55,-119.7711,39.4839,1341.00,66.00,43.00,43.20,180.00,4.00,0.00,30.15,1014.80,10.00,M,SCT,M,M,M,15000.00,M,M,M,M,M,M,M,M,M,M,66.00,KRNO 121055Z COR 18004KT 10SM SCT150 19/06 A3015 RMK AO2 SLP148 T01890061,M
BVU,2022-08-12 10:55,-114.8611,35.9475,671.00,80.60,62.60,54.30,60.00,7.00,0.00,29.98,M,M,M,M,M,M,M,M,M,M,M,M,M,M,M,M,M,M,81.84,KBVU 121055Z AUTO 06007KT 27/17 A2998 RMK AO2 PWINO TSNO,M
HTH,2022-08-12 10:55,-118.6315,38.5448,1282.89,71.60,42.80,35.37,0.00,0.00,0.00,30.11,M,10.00,M,CLR,M,M,M,M,M,M,M,M,M,M,M,M,M,M,71.60,KHTH 121055Z AUTO 00000KT 10SM CLR 22/06 A3011 RMK A01,M
RTS,2022-08-12 10:55,-119.8764,39.6682,1539.00,57.20,33.80,41.13,360.00,8.00,0.00,30.20,M,10.00,M,FEW,M,M,M,11000.00,M,M,M,M,M,M,M,M,M,M,57.20,KRTS 121055Z AUTO 36008KT 10SM FEW110 14/01 A3020 RMK AO2,M
EKO,2022-08-12 10:56,-115.7860,40.8242,1367.00,61.00,51.00,69.86,70.00,8.00,0.00,30.16,1015.60,10.00,M,SCT,M,M,M,9000.00,M,M,M,M,M,M,M,M,M,M,61.00,KEKO 121056Z AUTO 07008KT 10SM SCT090 16/11 A3016 RMK AO2 SLP156 T01610106,M
TPH,2022-08-12 10:56,-117.0904,38.0505,1654.00,64.00,50.00,60.34,360.00,7.00,0.00,30.20,1014.40,10.00,M,CLR,M,M,M,M,M,M,M,M,M,M,M,M,M,M,64.00,KTPH 121056Z AUTO 36007KT 10SM CLR 18/10 A3020 RMK AO2 SLP144 T01780100,M
LAS,2022-08-12 10:56,-115.1634,36.0719,663.00,80.00,64.00,57.98,200.00,3.00,0.00,29.98,1012.10,10.00,M,BKN,M,M,M,20000.00,M,M,M,M,M,M,M,M,M,M,81.71,KLAS 121056Z 20003KT 10SM BKN200 27/18 A2998 RMK AO2 SLP121 T02670178 $,M
HND,2022-08-12 10:56,-115.1344,35.9729,742.79,78.00,62.00,57.92,170.00,4.00,0.00,30.01,1014.70,10.00,M,CLR,M,M,M,M,M,M,M,M,M,M,M,M,M,M,78.10,KHND 121056Z AUTO 17004KT 10SM CLR 26/17 A3001 RMK AO2 SLP147 T02560167,M
WMC,2022-08-12 10:56,-117.8072,40.9019,1315.00,62.00,44.00,51.64,30.00,3.00,0.00,30.10,1013.90,10.00,M,FEW,M,M,M,11000.00,M,M,M,M,M,M,M,M,M,M,62.10,KWMC 121056Z AUTO 03003KT 10SM FEW110 17/07 A3010 RMK AO2 SLP139 T01670067 $,M
NFL,2022-08-12 10:56,-118.7010,39.4166,1199.00,63.00,49.00,59.98,160.00,3.00,0.00,30.08,1015.40,10.00,M,CLR,M,M,M,M,M,M,M,M,M,M,M,M,M,M,63.00,KNFL 121056Z AUTO 16003KT 10SM CLR 17/09 A3008 RMK AO2 SLP154 T01720094,M
INS,2022-08-12 10:58,-115.6733,36.5872,955.00,75.40,56.00,50.75,0.00,0.00,0.00,30.03,M,10.00,M,CLR,M,M,M,M,M,M,M,M,M,M,M,M,M,M,75.40,KINS 121058Z AUTO 00000KT 10SM CLR 24/13 A3003 RMK AO2 SLPNO T02410133,M
LSV,2022-08-12 10:58,-115.0343,36.2362,570.00,84.20,60.80,45.34,60.00,2.00,0.00,29.94,M,10.00,M,FEW,M,M,M,19000.00,M,M,M,M,M,M,M,M,M,M,84.43,KLSV 121058Z 06002KT 10SM FEW190 29/16 A2994 RMK SLPNO WND DATA ESTMD ALSTG/SLP ESTMD,M
BVU,2022-08-12 11:15,-114.8611,35.9475,671.00,82.40,62.60,51.21,80.00,4.00,0.00,29.98,M,M,M,M,M,M,M,M,M,M,M,M,M,M,M,M,M,M,83.41,KBVU 121115Z AUTO 08004KT 28/17 A2998 RMK AO2 PWINO TSNO,M
MEV,2022-08-12 11:15,-119.7500,38.9963,1441.42,51.80,41.00,66.48,M,6.00,0.00,30.16,M,10.00,M,FEW,M,M,M,11000.00,M,M,M,M,M,M,M,M,M,M,51.80,KMEV 121115Z AUTO VRB06KT 10SM FEW110 11/05 A3016 RMK AO2,M
BAM,2022-08-12 11:15,-116.8743,40.5990,1382.36,60.80,51.80,72.20,230.00,3.00,0.00,30.12,M,10.00,M,CLR,M,M,M,M,M,M,M,M,M,M,M,M,M,M,60.80,KBAM 121115Z AUTO 23003KT 10SM CLR 16/11 A3012 RMK AO1,M
HTH,2022-08-12 11:15,-118.6315,38.5448,1282.89,71.60,42.80,35.37,0.00,0.00,0.00,30.11,M,10.00,M,CLR,M,M,M,M,M,M,M,M,M,M,M,M,M,M,71.60,KHTH 121115Z AUTO 00000KT 10SM CLR 22/06 A3011 RMK A01,M
TMT,2022-08-12 11:15,-117.1971,39.4643,1749.34,51.80,50.20,94.25,130.00,3.00,0.00,30.22,M,10.00,M,CLR,M,M,M,M,M,M,M,M,M,M,M,M,M,M,51.80,KTMT 121115Z AUTO 13003KT 10SM CLR 11/10 A3022 RMK AO2 T01100101,M
RTS,2022-08-12 11:15,-119.8764,39.6682,1539.00,57.20,33.80,41.13,360.00,7.00,0.00,30.20,M,10.00,M,CLR,M,M,M,M,M,M,M,M,M,M,M,M,M,M,57.20,KRTS 121115Z AUTO 36007KT 10SM CLR 14/01 A3020 RMK AO2,M
CXP,2022-08-12 11:15,-119.7326,39.1923,1431.00,60.80,41.00,48.00,0.00,0.00,0.00,30.17,M,10.00,M,SCT,M,M,M,11000.00,M,M,M,M,M,M,M,M,M,M,60.80,KCXP 121115Z AUTO 00000KT 10SM SCT110 16/05 A3017 RMK AO2,M
RTS,2022-08-12 11:35,-119.8764,39.6682,1539.00,57.20,35.60,44.19,340.00,8.00,0.00,30.19,M,10.00,M,CLR,M,M,M,M,M,M,M,M,M,M,M,M,M,M,57.20,KRTS 121135Z AUTO 34008KT 10SM CLR 14/02 A3019 RMK AO2,M
MEV,2022-08-12 11:35,-119.7500,38.9963,1441.42,50.00,41.00,71.07,0.00,0.00,0.00,30.16,M,10.00,M,CLR,M,M,M,M,M,M,M,M,M,M,M,M,M,M,50.00,KMEV 121135Z AUTO 00000KT 10SM CLR 10/05 A3016 RMK AO2,M
BAM,2022-08-12 11:35,-116.8743,40.5990,1382.36,60.80,51.80,72.20,240.00,6.00,0.00,30.12,M,10.00,M,CLR,M,M,M,M,M,M,M,M,M,M,M,M,M,M,60.80,KBAM 121135Z AUTO 24006KT 10SM CLR 16/11 A3012 RMK AO1,M
HTH,2022-08-12 11:35,-118.6315,38.5448,1282.89,71.60,44.60,37.89,250.00,4.00,0.00,30.11,M,10.00,M,CLR,M,M,M,M,M,M,M,M,M,M,M,M,M,M,71.60,KHTH 121135Z AUTO 25004KT 10SM CLR 22/07 A3011 RMK A01,M
TMT,2022-08-12 11:35,-117.1971,39.4643,1749.34,53.80,51.40,91.55,0.00,0.00,0.00,30.22,M,10.00,M,CLR,M,M,M,M,M,M,M,M,M,M,M,M,M,M,53.80,KTMT 121135Z AUTO 00000KT 10SM CLR 12/11 A3022 RMK AO2 T01210108,M
BVU,2022-08-12 11:35,-114.8611,35.9475,671.00,80.60,64.40,57.84,40.00,3.00,0.00,29.98,M,M,M,M,M,M,M,M,M,M,M,M,M,M,M,M,M,M,82.27,KBVU 121135Z AUTO 04003KT 27/18 A2998 RMK AO2 PWINO TSNO,M
CXP,2022-08-12 11:35,-119.7326,39.1923,1431.00,60.80,41.00,48.00,0.00,0.00,0.00,30.17,M,10.00,M,FEW,M,M,M,11000.00,M,M,M,M,M,M,M,M,M,M,60.80,KCXP 121135Z AUTO 00000KT 10SM FEW110 16/05 A3017 RMK AO2,M
DRA,2022-08-12 11:53,-116.0278,36.6206,1009.00,75.00,58.00,55.28,60.00,3.00,0.00,30.04,1011.60,10.00,M,CLR,M,M,M,M,M,M,M,M,M,M,M,M,M,M,75.00,KDRA 121153Z AUTO 06003KT 10SM CLR 24/14 A3004 RMK AO2 SLP116 T02390144 10311 20239 53002,M
ELY,2022-08-12 11:53,-114.8453,39.2950,1909.00,55.00,53.00,93.29,180.00,5.00,0.00,30.28,1016.10,10.00,M,CLR,M,M,M,M,M,M,M,M,M,M,M,M,M,M,55.00,KELY 121153Z AUTO 18005KT 10SM CLR 13/12 A3028 RMK AO2 SLP161 T01280117 10172 20128 57000,M
LOL,2022-08-12 11:53,-118.5701,40.0684,1192.43,59.00,27.00,29.25,0.00,0.00,0.00,30.08,1014.30,10.00,M,CLR,M,M,M,M,M,M,M,M,M,M,M,M,M,M,59.00,KLOL 121153Z AUTO 00000KT 10SM CLR 15/M03 A3008 RMK AO2 SLP143 T01501028 10289 20139 50005,M
VGT,2022-08-12 11:53,-115.1933,36.2111,667.00,80.00,67.00,64.14,0.00,0.00,0.00,29.97,1013.60,10.00,M,CLR,M,M,M,M,M,M,M,M,M,M,M,M,M,M,82.40,KVGT 121153Z AUTO 00000KT 10SM CLR 27/19 A2997 RMK AO2 SLP136 60000 70081 T02670194 10289 20261 51002,M
P68,2022-08-12 11:53,-116.0056,39.6014,1993.00,61.00,53.00,75.20,200.00,7.00,0.00,30.22,1014.50,M,M,M,M,M,M,M,M,M,M,M,M,M,M,M,M,M,61.00,KP68 121153Z AUTO 20007KT 16/12 A3022 RMK AO1 SLP145 T01610117 10228 20161 51002,M
BVU,2022-08-12 11:55,-114.8611,35.9475,671.00,78.80,64.40,61.36,50.00,5.00,0.00,29.98,M,M,M,M,M,M,M,M,M,M,M,M,M,M,M,M,M,M,78.80,KBVU 121155Z AUTO 05005KT 26/18 A2998 RMK AO2 PWINO TSNO,M
TMT,2022-08-12 11:55,-117.1971,39.4643,1749.34,52.00,49.80,92.17,0.00,0.00,0.00,30.22,M,10.00,M,CLR,M,M,M,M,M,M,M,M,M,M,M,M,M,M,52.00,KTMT 121155Z AUTO 00000KT 10SM CLR 11/10 A3022 RMK AO2 T01110099 10191 20106,M
MEV,2022-08-12 11:55,-119.7500,38.9963,1441.42,50.00,41.00,71.07,100.00,5.00,0.00,30.16,M,10.00,M,CLR,M,M,M,M,M,M,M,M,M,M,M,M,M,M,50.00,KMEV 121155Z AUTO 10005KT 10SM CLR 10/05 A3016 RMK AO2,M
RNO,2022-08-12 11:55,-119.7711,39.4839,1341.00,65.00,45.00,48.44,0.00,0.00,0.00,30.15,1014.80,10.00,M,FEW,M,M,M,12000.00,M,M,M,M,M,M,M,M,M,M,64.90,KRNO 121155Z COR 00000KT 10SM FEW120 18/07 A3015 RMK AO2 SLP148 T01830072 10244 20183 50001,M
CXP,2022-08-12 11:55,-119.7326,39.1923,1431.00,57.20,41.00,54.60,0.00,0.00,0.00,30.17,M,10.00,M,CLR,M,M,M,M,M,M,M,M,M,M,M,M,M,M,57.20,KCXP 121155Z AUTO 00000KT 10SM CLR 14/05 A3017 RMK AO2,M
RTS,2022-08-12 11:55,-119.8764,39.6682,1539.00,59.00,33.80,38.56,330.00,9.00,0.00,30.19,M,10.00,M,CLR,M,M,M,M,M,M,M,M,M,M,M,M,M,M,59.00,KRTS 121155Z AUTO 33009KT 10SM CLR 15/01 A3019 RMK AO2,M
BAM,2022-08-12 11:55,-116.8743,40.5990,1382.36,62.60,55.40,77.29,240.00,4.00,0.00,30.12,M,10.00,M,CLR,M,M,M,M,M,M,M,M,M,M,M,M,M,M,62.60,KBAM 121155Z AUTO 24004KT 10SM CLR 17/13 A3012 RMK AO1,M
HTH,2022-08-12 11:55,-118.6315,38.5448,1282.89,69.80,44.60,40.29,220.00,5.00,0.00,30.11,M,10.00,M,CLR,M,M,M,M,M,M,M,M,M,M,M,M,M,M,69.80,KHTH 121155Z AUTO 22005KT 10SM CLR 21/07 A3011 RMK A01,M
NFL,2022-08-12 11:56,-118.7010,39.4166,1199.00,60.00,50.00,69.24,140.00,3.00,0.00,30.09,1015.50,10.00,M,CLR,M,M,M,M,M,M,M,M,M,M,M,M,M,M,60.10,KNFL 121156Z AUTO 14003KT 10SM CLR 16/10 A3009 RMK AO2 SLP155 T01560100 10244 20156 53003,M
LAS,2022-08-12 11:56,-115.1634,36.0719,663.00,80.00,63.00,55.98,230.00,3.00,0.00,29.98,1012.20,10.00,M,SCT,M,M,M,20000.00,M,M,M,M,M,M,M,M,M,M,81.50,KLAS 121156Z 23003KT 10SM SCT200 27/17 A2998 RMK AO2 SLP122 60000 70058 T02670172 10289 20267 51001 $,M
EKO,2022-08-12 11:56,-115.7860,40.8242,1367.00,59.00,51.00,75.02,90.00,5.00,0.00,30.16,1015.90,10.00,M,FEW,M,M,M,9000.00,M,M,M,M,M,M,M,M,M,M,59.00,KEKO 121156Z AUTO 09005KT 10SM FEW090 15/11 A3016 RMK AO2 SLP159 T01500106 10222 20150 51004,M
TPH,2022-08-12 11:56,-117.0904,38.0505,1654.00,64.00,49.00,57.91,360.00,8.00,0.00,30.20,1014.30,10.00,M,CLR,M,M,M,M,M,M,M,M,M,M,M,M,M,M,64.00,KTPH 121156Z AUTO 36008KT 10SM CLR 18/09 A3020 RMK AO2 SLP143 T01780094 10217 20178 55000,M
WMC,2022-08-12 11:56,-117.8072,40.9019,1315.00,58.00,44.00,59.98,0.00,0.00,0.00,30.10,1014.10,10.00,M,BKN,M,M,M,11000.00,M,M,M,M,M,M,M,M,M,M,57.90,KWMC 121156Z AUTO 00000KT 10SM BKN110 14/07 A3010 RMK AO2 SLP141 T01440067 10222 20144 50003 $,M
HND,2022-08-12 11:56,-115.1344,35.9729,742.79,78.00,60.00,53.95,190.00,5.00,0.00,30.02,1014.90,10.00,M,CLR,M,M,M,M,M,M,M,M,M,M,M,M,M,M,78.10,KHND 121156Z AUTO 19005KT 10SM CLR 26/16 A3002 RMK AO2 SLP149 60000 T02560156 10289 20250 51001,M
LSV,2022-08-12 11:58,-115.0343,36.2362,570.00,84.20,59.00,42.52,30.00,6.00,0.00,29.95,M,10.00,M,FEW,M,M,M,19000.00,M,M,M,M,M,M,M,M,M,M,83.92,KLSV 121158Z 03006KT 10SM FEW190 29/15 A2995 RMK SLPNO WND DATA ESTMD ALSTG/SLP ESTMD,M
INS,2022-08-12 11:58,-115.6733,36.5872,955.00,78.30,52.50,40.71,0.00,0.00,0.00,30.04,M,10.00,M,CLR,M,M,M,M,M,M,M,M,M,M,M,M,M,M,78.30,KINS 121158Z AUTO 00000KT 10SM CLR 26/11 A3004 RMK AO2 SLPNO T02570114 10291 20240 50005,M
RTS,2022-08-12 12:15,-119.8764,39.6682,1539.00,59.00,35.60,41.42,0.00,0.00,0.00,30.19,M,10.00,M,CLR,M,M,M,M,M,M,M,M,M,M,M,M,M,M,59.00,KRTS 121215Z AUTO 00000KT 10SM CLR 15/02 A3019 RMK AO2,M
CXP,2022-08-12 12:15,-119.7326,39.1923,1431.00,59.00,41.00,51.18,90.00,3.00,0.00,30.17,M,10.00,M,CLR,M,M,M,M,M,M,M,M,M,M,M,M,M,M,59.00,KCXP 121215Z AUTO 09003KT 10SM CLR 15/05 A3017 RMK AO2,M
BVU,2022-08-12 12:15,-114.8611,35.9475,671.00,80.60,62.60,54.30,60.00,4.00,0.00,29.98,M,M,M,M,M,M,M,M,M,M,M,M,M,M,M,M,M,M,81.84,KBVU 121215Z AUTO 06004KT 27/17 A2998 RMK AO2 PWINO TSNO,M
BAM,2022-08-12 12:15,-116.8743,40.5990,1382.36,62.60,55.40,77.29,0.00,0.00,0.00,30.12,M,10.00,M,CLR,M,M,M,M,M,M,M,M,M,M,M,M,M,M,62.60,KBAM 121215Z AUTO 00000KT 10SM CLR 17/13 A3012 RMK AO1,M
TMT,2022-08-12 12:15,-117.1971,39.4643,1749.34,53.00,50.70,92.20,0.00,0.00,0.00,30.22,M,10.00,M,CLR,M,M,M,M,M,M,M,M,M,M,M,M,M,M,52.90,KTMT 121215Z AUTO 00000KT 10SM CLR 12/10 A3022 RMK AO2 T01160104,M
HTH,2022-08-12 12:15,-118.6315,38.5448,1282.89,69.80,44.60,40.29,230.00,3.00,0.00,30.12,M,10.00,M,CLR,M,M,M,M,M,M,M,M,M,M,M,M,M,M,69.80,KHTH 121215Z AUTO 23003KT 10SM CLR 21/07 A3012 RMK A01,M
MEV,2022-08-12 12:15,-119.7500,38.9963,1441.42,48.20,41.00,76.01,150.00,4.00,0.00,30.16,M,10.00,M,CLR,M,M,M,M,M,M,M,M,M,M,M,M,M,M,46.34,KMEV 121215Z AUTO 15004KT 10SM CLR 09/05 A3016 RMK AO2,M
CXP,2022-08-12 12:35,-119.7326,39.1923,1431.00,59.00,41.00,51.18,60.00,3.00,0.00,30.17,M,10.00,M,CLR,M,M,M,M,M,M,M,M,M,M,M,M,M,M,59.00,KCXP 121235Z AUTO 06003KT 10SM CLR 15/05 A3017 RMK AO2,M
HTH,2022-08-12 12:35,-118.6315,38.5448,1282.89,69.80,42.80,37.61,210.00,5.00,0.00,30.12,M,10.00,M,CLR,M,M,M,M,M,M,M,M,M,M,M,M,M,M,69.80,KHTH 121235Z AUTO 21005KT 10SM CLR 21/06 A3012 RMK A01,M
BAM,2022-08-12 12:35,-116.8743,40.5990,1382.36,59.00,51.80,76.98,0.00,0.00,0.00,30.12,M,10.00,M,CLR,M,M,M,M,M,M,M,M,M,M,M,M,M,M,59.00,KBAM 121235Z AUTO 00000KT 10SM CLR 15/11 A3012 RMK AO1,M
MEV,2022-08-12 12:35,-119.7500,38.9963,1441.42,50.00,41.00,71.07,0.00,0.00,0.00,30.17,M,10.00,M,CLR,M,M,M,M,M,M,M,M,M,M,M,M,M,M,50.00,KMEV 121235Z AUTO 00000KT 10SM CLR 10/05 A3017 RMK AO2,M
RTS,2022-08-12 12:35,-119.8764,39.6682,1539.00,55.40,33.80,43.90,350.00,4.00,0.00,30.20,M,10.00,M,CLR,M,M,M,M,M,M,M,M,M,M,M,M,M,M,55.40,KRTS 121235Z AUTO 35004KT 10SM CLR 13/01 A3020 RMK AO2,M
TMT,2022-08-12 12:35,-117.1971,39.4643,1749.34,53.00,51.00,93.58,0.00,0.00,0.00,30.22,M,10.00,M,CLR,M,M,M,M,M,M,M,M,M,M,M,M,M,M,52.90,KTMT 121235Z AUTO 00000KT 10SM CLR 12/11 A3022 RMK AO2 T01160106,M
BVU,2022-08-12 12:35,-114.8611,35.9475,671.00,80.60,62.60,54.30,50.00,5.00,0.00,29.99,M,M,M,M,M,M,M,M,M,M,M,M,M,M,M,M,M,M,81.84,KBVU 121235Z AUTO 05005KT 27/17 A2999 RMK AO2 PWINO TSNO,M
ELY,2022-08-12 12:53,-114.8453,39.2950,1909.00,54.00,53.00,96.76,170.00,5.00,0.00,30.29,1016.40,10.00,M,CLR,M,M,M,M,M,M,M,M,M,M,M,M,M,M,54.00,KELY 121253Z AUTO 17005KT 10SM CLR 12/12 A3029 RMK AO2 SLP164 T01220117,M
VGT,2022-08-12 12:53,-115.1933,36.2111,667.00,80.00,68.00,66.62,310.00,4.00,0.00,29.98,1014.00,10.00,M,CLR,M,M,M,M,M,M,M,M,M,M,M,M,M,M,82.70,KVGT 121253Z 31004KT 10SM CLR 27/20 A2998 RMK AO2 SLP140 T02670200,M
LOL,2022-08-12 12:53,-118.5701,40.0684,1192.43,56.00,27.00,32.71,0.00,0.00,0.00,30.09,1014.90,10.00,M,CLR,M,M,M,M,M,M,M,M,M,M,M,M,M,M,55.90,KLOL 121253Z AUTO 00000KT 10SM CLR 13/M03 A3009 RMK AO2 SLP149 T01331028,M
DRA,2022-08-12 12:53,-116.0278,36.6206,1009.00,74.00,59.00,59.66,90.00,4.00,0.00,30.05,1012.10,10.00,M,CLR,M,M,M,M,M,M,M,M,M,M,M,M,M,M,73.90,KDRA 121253Z AUTO 09004KT 10SM CLR 23/15 A3005 RMK AO2 SLP121 T02330150,M
P68,2022-08-12 12:53,-116.0056,39.6014,1993.00,58.00,52.00,80.67,220.00,6.00,0.00,30.23,1015.10,M,M,M,M,M,M,M,M,M,M,M,M,M,M,M,M,M,57.90,KP68 121253Z AUTO 22006KT 14/11 A3023 RMK AO1 SLP151 T01440111,M
BVU,2022-08-12 12:55,-114.8611,35.9475,671.00,78.80,64.40,61.36,40.00,3.00,0.00,30.00,M,M,M,M,M,M,M,M,M,M,M,M,M,M,M,M,M,M,78.80,KBVU 121255Z AUTO 04003KT 26/18 A3000 RMK AO2 PWINO TSNO,M
CXP,2022-08-12 12:55,-119.7326,39.1923,1431.00,59.00,39.20,47.72,0.00,0.00,0.00,30.18,M,10.00,M,CLR,M,M,M,M,M,M,M,M,M,M,M,M,M,M,59.00,KCXP 121255Z AUTO 00000KT 10SM CLR 15/04 A3018 RMK AO2,M
HTH,2022-08-12 12:55,-118.6315,38.5448,1282.89,68.00,44.60,42.85,220.00,5.00,0.00,30.13,M,10.00,M,CLR,M,M,M,M,M,M,M,M,M,M,M,M,M,M,68.00,KHTH 121255Z AUTO 22005KT 10SM CLR 20/07 A3013 RMK A01,M
BAM,2022-08-12 12:55,-116.8743,40.5990,1382.36,59.00,51.80,76.98,130.00,3.00,0.00,30.12,M,10.00,M,CLR,M,M,M,M,M,M,M,M,M,M,M,M,M,M,59.00,KBAM 121255Z AUTO 13003KT 10SM CLR 15/11 A3012 RMK AO1,M
MEV,2022-08-12 12:55,-119.7500,38.9963,1441.42,50.00,41.00,71.07,0.00,0.00,0.00,30.17,M,10.00,M,CLR,M,M,M,M,M,M,M,M,M,M,M,M,M,M,50.00,KMEV 121255Z AUTO 00000KT 10SM CLR 10/05 A3017 RMK AO2,M
TMT,2022-08-12 12:55,-117.1971,39.4643,1749.34,49.80,47.80,92.79,0.00,0.00,0.00,30.23,M,10.00,M,CLR,M,M,M,M,M,M,M,M,M,M,M,M,M,M,49.80,KTMT 121255Z AUTO 00000KT 10SM CLR 10/09 A3023 RMK AO2 T00990088,M
RTS,2022-08-12 12:55,-119.8764,39.6682,1539.00,55.40,33.80,43.90,0.00,0.00,0.00,30.20,M,10.00,M,CLR,M,M,M,M,M,M,M,M,M,M,M,M,M,M,55.40,KRTS 121255Z AUTO 00000KT 10SM CLR 13/01 A3020 RMK AO2,M
RNO,2022-08-12 12:55,-119.7711,39.4839,1341.00,64.00,44.00,48.31,0.00,0.00,0.00,30.15,1015.30,10.00,M,FEW,M,M,M,12000.00,M,M,M,M,M,M,M,M,M,M,64.00,KRNO 121255Z 00000KT 10SM FEW120 18/07 A3015 RMK AO2 SLP153 T01780067,M
NFL,2022-08-12 12:56,-118.7010,39.4166,1199.00,59.00,49.00,69.12,180.00,5.00,0.00,30.10,1015.90,10.00,M,CLR,M,M,M,M,M,M,M,M,M,M,M,M,M,M,59.00,KNFL 121256Z AUTO 18005KT 10SM CLR 15/09 A3010 RMK AO2 SLP159 T01500094,M
LAS,2022-08-12 12:56,-115.1634,36.0719,663.00,80.00,64.00,57.98,0.00,0.00,0.00,29.99,1012.70,10.00,M,FEW,SCT,M,M,14000.00,22000.00,M,M,M,M,M,M,M,M,M,81.71,KLAS 121256Z 00000KT 10SM FEW140 SCT220 27/18 A2999 RMK AO2 SLP127 ACC DSNT N-E T02670178 $,M
TPH,2022-08-12 12:56,-117.0904,38.0505,1654.00,63.00,50.00,62.49,360.00,8.00,0.00,30.21,1014.80,10.00,M,CLR,M,M,M,M,M,M,M,M,M,M,M,M,M,M,63.00,KTPH 121256Z AUTO 36008KT 10SM CLR 17/10 A3021 RMK AO2 SLP148 T01720100,M
EKO,2022-08-12 12:56,-115.7860,40.8242,1367.00,59.00,52.00,77.55,50.00,6.00,0.00,30.17,1016.10,10.00,M,SCT,M,M,M,10000.00,M,M,M,M,M,M,M,M,M,M,59.00,KEKO 121256Z AUTO 05006KT 10SM SCT100 15/11 A3017 RMK AO2 SLP161 T01500111,M
WMC,2022-08-12 12:56,-117.8072,40.9019,1315.00,57.00,44.00,61.95,40.00,3.00,0.00,30.11,1014.50,10.00,M,SCT,M,M,M,11000.00,M,M,M,M,M,M,M,M,M,M,57.00,KWMC 121256Z AUTO 04003KT 10SM SCT110 14/07 A3011 RMK AO2 SLP145 T01390067 $,M
HND,2022-08-12 12:56,-115.1344,35.9729,742.79,77.00,64.00,64.21,170.00,4.00,0.00,30.03,1015.30,10.00,M,CLR,M,M,M,M,M,M,M,M,M,M,M,M,M,M,77.00,KHND 121256Z AUTO 17004KT 10SM CLR 25/18 A3003 RMK AO2 SLP153 T02500178,M
LSV,2022-08-12 12:58,-115.0343,36.2362,570.00,84.20,60.80,45.34,70.00,9.00,0.00,29.97,1012.10,10.00,M,SCT,M,M,M,20000.00,M,M,M,M,M,M,M,M,M,M,84.43,KLSV 121258Z 07009KT 10SM SCT200 29/16 A2997 RMK SLP121 WND DATA ESTMD ALSTG/SLP121 ESTMD,M
INS,2022-08-12 12:58,-115.6733,36.5872,955.00,76.50,53.00,43.85,0.00,0.00,0.00,30.05,1012.30,10.00,M,CLR,M,M,M,M,M,M,M,M,M,M,M,M,M,M,76.50,KINS 121258Z AUTO 00000KT 10SM CLR 25/12 A3005 RMK AO2 SLP123 T02470116,M
BAM,2022-08-12 13:15,-116.8743,40.5990,1382.36,59.00,51.80,76.98,160.00,4.00,0.00,30.13,M,10.00,M,CLR,M,M,M,M,M,M,M,M,M,M,M,M,M,M,59.00,KBAM 121315Z AUTO 16004KT 10SM CLR 15/11 A3013 RMK AO1,M
TMT,2022-08-12 13:15,-117.1971,39.4643,1749.34,50.00,49.30,97.43,0.00,0.00,0.00,30.24,M,10.00,M,CLR,M,M,M,M,M,M,M,M,M,M,M,M,M,M,50.00,KTMT 121315Z AUTO 00000KT 10SM CLR 10/10 A3024 RMK AO2 T01000096,M
BVU,2022-08-12 13:15,-114.8611,35.9475,671.00,78.80,64.40,61.36,40.00,3.00,0.00,30.00,M,M,M,M,M,M,M,M,M,M,M,M,M,M,M,M,M,M,78.80,KBVU 121315Z AUTO 04003KT 26/18 A3000 RMK AO2 PWINO TSNO,M
CXP,2022-08-12 13:15,-119.7326,39.1923,1431.00,57.20,39.20,50.91,0.00,0.00,0.00,30.18,M,10.00,M,CLR,M,M,M,M,M,M,M,M,M,M,M,M,M,M,57.20,KCXP 121315Z AUTO 00000KT 10SM CLR 14/04 A3018 RMK AO2,M
RTS,2022-08-12 13:15,-119.8764,39.6682,1539.00,53.60,37.40,54.07,0.00,0.00,0.00,30.20,M,10.00,M,CLR,M,M,M,M,M,M,M,M,M,M,M,M,M,M,53.60,KRTS 121315Z AUTO 00000KT 10SM CLR 12/03 A3020 RMK AO2,M
MEV,2022-08-12 13:15,-119.7500,38.9963,1441.42,46.40,39.20,75.84,130.00,5.00,0.00,30.17,M,10.00,M,CLR,M,M,M,M,M,M,M,M,M,M,M,M,M,M,43.50,KMEV 121315Z AUTO 13005KT 10SM CLR 08/04 A3017 RMK AO2,M
HTH,2022-08-12 13:15,-118.6315,38.5448,1282.89,68.00,42.80,40.00,230.00,6.00,0.00,30.13,M,10.00,M,CLR,M,M,M,M,M,M,M,M,M,M,M,M,M,M,68.00,KHTH 121315Z AUTO 23006KT 10SM CLR 20/06 A3013 RMK A01,M
MEV,2022-08-12 13:35,-119.7500,38.9963,1441.42,48.20,41.00,76.01,0.00,0.00,0.00,30.18,M,10.00,M,CLR,M,M,M,M,M,M,M,M,M,M,M,M,M,M,48.20,KMEV 121335Z AUTO 00000KT 10SM CLR 09/05 A3018 RMK AO2,M
RTS,2022-08-12 13:35,-119.8764,39.6682,1539.00,53.60,35.60,50.36,10.00,4.00,0.00,30.21,M,10.00,M,CLR,M,M,M,M,M,M,M,M,M,M,M,M,M,M,53.60,KRTS 121335Z AUTO 01004KT 10SM CLR 12/02 A3021 RMK AO2,M
CXP,2022-08-12 13:35,-119.7326,39.1923,1431.00,57.20,41.00,54.60,0.00,0.00,0.00,30.19,M,10.00,M,CLR,M,M,M,M,M,M,M,M,M,M,M,M,M,M,57.20,KCXP 121335Z AUTO 00000KT 10SM CLR 14/05 A3019 RMK AO2,M
HTH,2022-08-12 13:35,-118.6315,38.5448,1282.89,68.00,41.00,37.32,240.00,5.00,0.00,30.14,M,10.00,M,CLR,M,M,M,M,M,M,M,M,M,M,M,M,M,M,68.00,KHTH 121335Z AUTO 24005KT 10SM CLR 20/05 A3014 RMK A01,M
BVU,2022-08-12 13:35,-114.8611,35.9475,671.00,80.60,62.60,54.30,0.00,0.00,0.00,30.00,M,M,M,M,M,M,M,M,M,M,M,M,M,M,M,M,M,M,81.84,KBVU 121335Z AUTO 00000KT 27/17 A3000 RMK AO2 PWINO TSNO,M
TMT,2022-08-12 13:35,-117.1971,39.4643,1749.34,51.00,49.30,94.22,0.00,0.00,0.00,30.24,M,10.00,M,CLR,M,M,M,M,M,M,M,M,M,M,M,M,M,M,50.90,KTMT 121335Z AUTO 00000KT 10SM CLR 11/10 A3024 RMK AO2 T01050096,M
BAM,2022-08-12 13:35,-116.8743,40.5990,1382.36,59.00,51.80,76.98,150.00,5.00,0.00,30.13,M,10.00,M,CLR,M,M,M,M,M,M,M,M,M,M,M,M,M,M,59.00,KBAM 121335Z AUTO 15005KT 10SM CLR 15/11 A3013 RMK AO1,M
LOL,2022-08-12 13:53,-118.5701,40.0684,1192.43,58.00,27.00,30.43,210.00,4.00,0.00,30.10,1015.30,10.00,M,CLR,M,M,M,M,M,M,M,M,M,M,M,M,M,M,57.90,KLOL 121353Z AUTO 21004KT 10SM CLR 14/M03 A3010 RMK AO2 SLP153 T01441028,M
DRA,2022-08-12 13:53,-116.0278,36.6206,1009.00,78.00,57.00,48.28,M,3.00,0.00,30.07,1012.50,10.00,M,CLR,M,M,M,M,M,M,M,M,M,M,M,M,M,M,78.10,KDRA 121353Z AUTO VRB03KT 10SM CLR 26/14 A3007 RMK AO2 SLP125 T02560139,M
P68,2022-08-12 13:53,-116.0056,39.6014,1993.00,63.00,53.00,70.07,220.00,4.00,0.00,30.25,1015.60,M,M,M,M,M,M,M,M,M,M,M,M,M,M,M,M,M,63.00,KP68 121353Z AUTO 22004KT 17/12 A3025 RMK AO1 SLP156 T01720117,M
ELY,2022-08-12 13:53,-114.8453,39.2950,1909.00,56.00,54.00,93.32,170.00,8.00,0.00,30.30,1017.10,10.00,M,CLR,M,M,M,M,M,M,M,M,M,M,M,M,M,M,55.90,KELY 121353Z AUTO 17008KT 10SM CLR 13/12 A3030 RMK AO2 SLP171 T01330122,M
VGT,2022-08-12 13:53,-115.1933,36.2111,667.00,81.00,68.00,64.69,300.00,3.00,0.00,30.00,1014.60,10.00,M,CLR,M,M,M,M,M,M,M,M,M,M,M,M,M,M,83.76,KVGT 121353Z 30003KT 10SM CLR 27/20 A3000 RMK AO2 SLP146 T02720200,M
HTH,2022-08-12 13:55,-118.6315,38.5448,1282.89,68.00,44.60,42.85,0.00,0.00,0.00,30.14,M,10.00,M,CLR,M,M,M,M,M,M,M,M,M,M,M,M,M,M,68.00,KHTH 121355Z AUTO 00000KT 10SM CLR 20/07 A3014 RMK A01,M
TMT,2022-08-12 13:55,-117.1971,39.4643,1749.34,55.00,52.30,90.59,0.00,0.00,0.00,30.24,M,10.00,M,CLR,M,M,M,M,M,M,M,M,M,M,M,M,M,M,55.00,KTMT 121355Z AUTO 00000KT 10SM CLR 13/11 A3024 RMK AO2 T01280113,M
BVU,2022-08-12 13:55,-114.8611,35.9475,671.00,82.40,62.60,51.21,70.00,3.00,0.00,30.01,M,M,M,M,M,M,M,M,M,M,M,M,M,M,M,M,M,M,83.41,KBVU 121355Z AUTO 07003KT 28/17 A3001 RMK AO2 PWINO TSNO,M
CXP,2022-08-12 13:55,-119.7326,39.1923,1431.00,59.00,41.00,51.18,0.00,0.00,0.00,30.19,M,10.00,M,CLR,M,M,M,M,M,M,M,M,M,M,M,M,M,M,59.00,KCXP 121355Z AUTO 00000KT 10SM CLR 15/05 A3019 RMK AO2,M
RTS,2022-08-12 13:55,-119.8764,39.6682,1539.00,55.40,35.60,47.16,0.00,0.00,0.00,30.21,M,10.00,M,CLR,M,M,M,M,M,M,M,M,M,M,M,M,M,M,55.40,KRTS 121355Z AUTO 00000KT 10SM CLR 13/02 A3021 RMK AO2,M
MEV,2022-08-12 13:55,-119.7500,38.9963,1441.42,50.00,41.00,71.07,0.00,0.00,0.00,30.18,M,10.00,M,CLR,M,M,M,M,M,M,M,M,M,M,M,M,M,M,50.00,KMEV 121355Z AUTO 00000KT 10SM CLR 10/05 A3018 RMK AO2,M
BAM,2022-08-12 13:55,-116.8743,40.5990,1382.36,62.60,53.60,72.38,0.00,0.00,0.00,30.13,M,10.00,M,SCT,M,M,M,12000.00,M,M,M,M,M,M,M,M,M,M,62.60,KBAM 121355Z AUTO 00000KT 10SM SCT120 17/12 A3013 RMK AO1,M
RNO,2022-08-12 13:55,-119.7711,39.4839,1341.00,64.00,42.00,44.74,0.00,0.00,0.00,30.16,1015.70,10.00,M,FEW,M,M,M,12000.00,M,M,M,M,M,M,M,M,M,M,64.00,KRNO 121355Z 00000KT 10SM FEW120 18/06 A3016 RMK AO2 SLP157 T01780056,M
EKO,2022-08-12 13:56,-115.7860,40.8242,1367.00,62.00,52.00,69.46,90.00,5.00,0.00,30.18,1016.50,10.00,M,CLR,M,M,M,M,M,M,M,M,M,M,M,M,M,M,62.10,KEKO 121356Z AUTO 09005KT 10SM CLR 17/11 A3018 RMK AO2 SLP165 T01670111,M
LAS,2022-08-12 13:56,-115.1634,36.0719,663.00,81.00,65.00,58.10,0.00,0.00,0.00,30.01,1013.20,10.00,M,FEW,FEW,M,M,14000.00,22000.00,M,M,M,M,M,M,M,M,M,82.79,KLAS 121356Z 00000KT 10SM FEW140 FEW220 27/18 A3001 RMK AO2 SLP132 ACC DSNT N-E T02720183 $,M
TPH,2022-08-12 13:56,-117.0904,38.0505,1654.00,66.00,50.00,56.27,20.00,8.00,0.00,30.22,1015.20,10.00,M,CLR,M,M,M,M,M,M,M,M,M,M,M,M,M,M,66.00,KTPH 121356Z AUTO 02008KT 10SM CLR 19/10 A3022 RMK AO2 SLP152 T01890100,M
WMC,2022-08-12 13:56,-117.8072,40.9019,1315.00,66.00,40.00,38.32,0.00,0.00,0.00,30.12,1014.60,10.00,M,CLR,M,M,M,M,M,M,M,M,M,M,M,M,M,M,66.00,KWMC 121356Z AUTO 00000KT 10SM CLR 19/04 A3012 RMK AO2 SLP146 T01890044 $,M
HND,2022-08-12 13:56,-115.1344,35.9729,742.79,78.00,65.00,63.90,150.00,3.00,0.00,30.04,1015.90,10.00,M,CLR,M,M,M,M,M,M,M,M,M,M,M,M,M,M,78.10,KHND 121356Z 15003KT 10SM CLR 26/18 A3004 RMK AO2 SLP159 T02560183,M
LSV,2022-08-12 13:58,-115.0343,36.2362,570.00,85.00,61.70,45.77,180.00,4.00,0.00,29.98,1012.40,10.00,M,CLR,M,M,M,M,M,M,M,M,M,M,M,M,M,M,85.35,KLSV 121358Z AUTO 18004KT 10SM CLR 29/17 A2998 RMK AO2 SLP124 T02940165 $,M
INS,2022-08-12 13:58,-115.6733,36.5872,955.00,75.60,53.20,45.68,110.00,3.00,0.00,30.07,1013.20,10.00,M,CLR,M,M,M,M,M,M,M,M,M,M,M,M,M,M,75.60,KINS 121358Z AUTO 11003KT 10SM CLR 24/12 A3007 RMK AO2 SLP132 T02420118,M
TMT,2022-08-12 14:15,-117.1971,39.4643,1749.34,56.80,54.00,90.66,0.00,0.00,0.00,30.25,M,10.00,M,CLR,M,M,M,M,M,M,M,M,M,M,M,M,M,M,56.80,KTMT 121415Z AUTO 00000KT 10SM CLR 14/12 A3025 RMK AO2 T01380123,M
HTH,2022-08-12 14:15,-118.6315,38.5448,1282.89,69.80,44.60,40.29,280.00,6.00,0.00,30.14,M,10.00,M,CLR,M,M,M,M,M,M,M,M,M,M,M,M,M,M,69.80,KHTH 121415Z AUTO 28006KT 10SM CLR 21/07 A3014 RMK A01,M
BAM,2022-08-12 14:15,-116.8743,40.5990,1382.36,64.40,53.60,67.95,0.00,0.00,0.00,30.14,M,10.00,M,CLR,M,M,M,M,M,M,M,M,M,M,M,M,M,M,64.40,KBAM 121415Z AUTO 00000KT 10SM CLR 18/12 A3014 RMK AO1,M
MEV,2022-08-12 14:15,-119.7500,38.9963,1441.42,55.40,42.80,62.46,0.00,0.00,0.00,30.18,M,10.00,M,CLR,M,M,M,M,M,M,M,M,M,M,M,M,M,M,55.40,KMEV 121415Z AUTO 00000KT 10SM CLR 13/06 A3018 RMK AO2,M
RTS,2022-08-12 14:15,-119.8764,39.6682,1539.00,57.20,35.60,44.19,0.00,0.00,0.00,30.21,M,10.00,M,CLR,M,M,M,M,M,M,M,M,M,M,M,M,M,M,57.20,KRTS 121415Z AUTO 00000KT 10SM CLR 14/02 A3021 RMK AO2,M
CXP,2022-08-12 14:15,-119.7326,39.1923,1431.00,60.80,41.00,48.00,0.00,0.00,0.00,30.19,M,10.00,M,CLR,M,M,M,M,M,M,M,M,M,M,M,M,M,M,60.80,KCXP 121415Z AUTO 00000KT 10SM CLR 16/05 A3019 RMK AO2,M
BVU,2022-08-12 14:15,-114.8611,35.9475,671.00,82.40,62.60,51.21,70.00,4.00,0.00,30.02,M,M,M,M,M,M,M,M,M,M,M,M,M,M,M,M,M,M,83.41,KBVU 121415Z AUTO 07004KT 28/17 A3002 RMK AO2 PWINO TSNO,M
NFL,2022-08-12 14:29,-118.7010,39.4166,1199.00,67.00,46.00,46.94,0.00,0.00,0.00,30.12,M,10.00,M,CLR,M,M,M,M,M,M,M,M,M,M,M,M,M,M,66.90,KNFL 121429Z 00000KT 10SM CLR 19/08 A3012 RMK AO2 T01940078,M
TMT,2022-08-12 14:35,-117.1971,39.4643,1749.34,59.50,54.30,82.89,0.00,0.00,0.00,30.25,M,10.00,M,CLR,M,M,M,M,M,M,M,M,M,M,M,M,M,M,59.50,KTMT 121435Z AUTO 00000KT 10SM CLR 15/12 A3025 RMK AO2 T01530124,M
BVU,2022-08-12 14:35,-114.8611,35.9475,671.00,82.40,62.60,51.21,0.00,0.00,0.00,30.02,M,M,M,M,M,M,M,M,M,M,M,M,M,M,M,M,M,M,83.41,KBVU 121435Z AUTO 00000KT 28/17 A3002 RMK AO2 PWINO TSNO,M
CXP,2022-08-12 14:35,-119.7326,39.1923,1431.00,62.60,41.00,45.04,0.00,0.00,0.00,30.20,M,10.00,M,CLR,M,M,M,M,M,M,M,M,M,M,M,M,M,M,62.60,KCXP 121435Z AUTO 00000KT 10SM CLR 17/05 A3020 RMK AO2,M
RTS,2022-08-12 14:35,-119.8764,39.6682,1539.00,60.80,37.40,41.71,0.00,0.00,0.00,30.21,M,10.00,M,CLR,M,M,M,M,M,M,M,M,M,M,M,M,M,M,60.80,KRTS 121435Z AUTO 00000KT 10SM CLR 16/03 A3021 RMK AO2,M
MEV,2022-08-12 14:35,-119.7500,38.9963,1441.42,60.80,42.80,51.45,0.00,0.00,0.00,30.19,M,10.00,M,CLR,M,M,M,M,M,M,M,M,M,M,M,M,M,M,60.80,KMEV 121435Z AUTO 00000KT 10SM CLR 16/06 A3019 RMK AO2,M
HTH,2022-08-12 14:35,-118.6315,38.5448,1282.89,69.80,44.60,40.29,0.00,0.00,0.00,30.15,M,10.00,M,CLR,M,M,M,M,M,M,M,M,M,M,M,M,M,M,69.80,KHTH 121435Z AUTO 00000KT 10SM CLR 21/07 A3015 RMK A01,M
BAM,2022-08-12 14:35,-116.8743,40.5990,1382.36,68.00,53.60,59.97,0.00,0.00,0.00,30.15,M,10.00,M,CLR,M,M,M,M,M,M,M,M,M,M,M,M,M,M,68.00,KBAM 121435Z AUTO 00000KT 10SM CLR 20/12 A3015 RMK AO1,M
VGT,2022-08-12 14:53,-115.1933,36.2111,667.00,85.00,65.00,51.21,0.00,0.00,0.00,30.01,1014.90,10.00,M,CLR,M,M,M,M,M,M,M,M,M,M,M,M,M,M,86.62,KVGT 121453Z 00000KT 10SM CLR 29/18 A3001 RMK AO2 SLP149 T02940183 52013,M
DRA,2022-08-12 14:53,-116.0278,36.6206,1009.00,83.00,56.00,39.66,0.00,0.00,0.00,30.08,1012.90,10.00,M,CLR,M,M,M,M,M,M,M,M,M,M,M,M,M,M,82.20,KDRA 121453Z AUTO 00000KT 10SM CLR 28/13 A3008 RMK AO2 SLP129 T02830133 53012,M
ELY,2022-08-12 14:53,-114.8453,39.2950,1909.00,65.00,56.00,72.61,170.00,3.00,0.00,30.31,1016.70,10.00,M,CLR,M,M,M,M,M,M,M,M,M,M,M,M,M,M,64.90,KELY 121453Z AUTO 17003KT 10SM CLR 18/13 A3031 RMK AO2 SLP167 T01830133 51007,M
LOL,2022-08-12 14:53,-118.5701,40.0684,1192.43,69.00,32.00,25.18,170.00,3.00,0.00,30.11,1015.40,10.00,M,CLR,M,M,M,M,M,M,M,M,M,M,M,M,M,M,69.10,KLOL 121453Z AUTO 17003KT 10SM CLR 21/00 A3011 RMK AO2 SLP154 T02060000 52011,M
P68,2022-08-12 14:53,-116.0056,39.6014,1993.00,70.00,53.00,54.98,190.00,3.00,0.00,30.24,1015.30,M,M,M,M,M,M,M,M,M,M,M,M,M,M,M,M,M,70.00,KP68 121453Z AUTO 19003KT 21/12 A3024 RMK AO1 SLP153 T02110117 50006,M
TMT,2022-08-12 14:55,-117.1971,39.4643,1749.34,62.80,52.20,68.27,0.00,0.00,0.00,30.25,M,10.00,M,CLR,M,M,M,M,M,M,M,M,M,M,M,M,M,M,62.80,KTMT 121455Z AUTO 00000KT 10SM CLR 17/11 A3025 RMK AO2 T01710112,M
BAM,2022-08-12 14:55,-116.8743,40.5990,1382.36,71.60,55.40,56.63,0.00,0.00,0.00,30.15,M,10.00,M,CLR,M,M,M,M,M,M,M,M,M,M,M,M,M,M,71.60,KBAM 121455Z AUTO 00000KT 10SM CLR 22/13 A3015 RMK AO1,M
HTH,2022-08-12 14:55,-118.6315,38.5448,1282.89,71.60,44.60,37.89,0.00,0.00,0.00,30.15,M,10.00,M,CLR,M,M,M,M,M,M,M,M,M,M,M,M,M,M,71.60,KHTH 121455Z AUTO 00000KT 10SM CLR 22/07 A3015 RMK A01,M
BVU,2022-08-12 14:55,-114.8611,35.9475,671.00,82.40,62.60,51.21,0.00,0.00,0.00,30.02,M,M,M,M,M,M,M,M,M,M,M,M,M,M,M,M,M,M,83.41,KBVU 121455Z AUTO 00000KT 28/17 A3002 RMK AO2 PWINO TSNO,M
CXP,2022-08-12 14:55,-119.7326,39.1923,1431.00,64.40,41.00,42.28,0.00,0.00,0.00,30.20,M,10.00,M,CLR,M,M,M,M,M,M,M,M,M,M,M,M,M,M,64.40,KCXP 121455Z AUTO 00000KT 10SM CLR 18/05 A3020 RMK AO2,M
RNO,2022-08-12 14:55,-119.7711,39.4839,1341.00,67.00,44.00,43.67,0.00,0.00,0.00,30.17,1016.20,10.00,M,CLR,M,M,M,M,M,M,M,M,M,M,M,M,M,M,66.90,KRNO 121455Z 00000KT 10SM CLR 19/07 A3017 RMK AO2 SLP162 T01940067 53007,M
RTS,2022-08-12 14:55,-119.8764,39.6682,1539.00,62.60,37.40,39.14,0.00,0.00,0.00,30.22,M,10.00,M,CLR,M,M,M,M,M,M,M,M,M,M,M,M,M,M,62.60,KRTS 121455Z AUTO 00000KT 10SM CLR 17/03 A3022 RMK AO2,M
MEV,2022-08-12 14:55,-119.7500,38.9963,1441.42,62.60,42.80,48.28,0.00,0.00,0.00,30.19,M,10.00,M,CLR,M,M,M,M,M,M,M,M,M,M,M,M,M,M,62.60,KMEV 121455Z AUTO 00000KT 10SM CLR 17/06 A3019 RMK AO2,M
LAS,2022-08-12 14:56,-115.1634,36.0719,663.00,85.00,64.00,49.62,0.00,0.00,0.00,30.02,1013.60,10.00,M,FEW,FEW,M,M,14000.00,22000.00,M,M,M,M,M,M,M,M,M,86.23,KLAS 121456Z 00000KT 10SM FEW140 FEW220 29/18 A3002 RMK AO2 SLP136 ACC DSNT N-E T02940178 51014 $,M
HND,2022-08-12 14:56,-115.1344,35.9729,742.79,84.00,60.00,44.51,0.00,0.00,0.00,30.06,1016.30,9.00,M,CLR,M,M,M,M,M,M,M,M,M,M,M,M,M,M,84.05,KHND 121456Z 00000KT 9SM CLR 29/16 A3006 RMK AO2 SLP163 T02890156 52014,M
TPH,2022-08-12 14:56,-117.0904,38.0505,1654.00,73.00,50.00,44.29,M,3.00,0.00,30.23,1015.10,10.00,M,CLR,M,M,M,M,M,M,M,M,M,M,M,M,M,M,73.00,KTPH 121456Z AUTO VRB03KT 10SM CLR 23/10 A3023 RMK AO2 SLP151 T02280100 51009,M
NFL,2022-08-12 14:56,-118.7010,39.4166,1199.00,70.00,43.00,37.64,0.00,0.00,0.00,30.12,1016.60,10.00,M,CLR,M,M,M,M,M,M,M,M,M,M,M,M,M,M,70.00,KNFL 121456Z 00000KT 10SM CLR 21/06 A3012 RMK SLP166 T02110061 53011,M
EKO,2022-08-12 14:56,-115.7860,40.8242,1367.00,67.00,53.00,61.16,60.00,6.00,0.00,30.19,1016.80,10.00,M,CLR,M,M,M,M,M,M,M,M,M,M,M,M,M,M,66.90,KEKO 121456Z AUTO 06006KT 10SM CLR 19/12 A3019 RMK AO2 SLP168 T01940117 53008,M
WMC,2022-08-12 14:56,-117.8072,40.9019,1315.00,75.00,30.90,19.73,0.00,0.00,0.00,30.13,1015.00,10.00,M,CLR,M,M,M,M,M,M,M,M,M,M,M,M,M,M,75.00,KWMC 121456Z AUTO 00000KT 10SM CLR 24/M01 A3013 RMK AO2 SLP150 T02391006 51011 $,M
INS,2022-08-12 14:58,-115.6733,36.5872,955.00,81.00,54.50,39.96,90.00,6.00,0.00,30.08,1013.30,10.00,M,CLR,M,M,M,M,M,M,M,M,M,M,M,M,M,M,80.73,KINS 121458Z AUTO 09006KT 10SM CLR 27/13 A3008 RMK AO2 SLP133 T02730125 52012,M
LSV,2022-08-12 14:58,-115.0343,36.2362,570.00,87.00,64.80,47.87,0.00,0.00,0.00,29.99,1012.80,10.00,M,CLR,M,M,M,M,M,M,M,M,M,M,M,M,M,M,88.60,KLSV 121458Z AUTO 00000KT 10SM CLR 31/18 A2999 RMK AO2 SLP128 T03050182 $,M
BVU,2022-08-12 15:15,-114.8611,35.9475,671.00,82.40,64.40,54.55,0.00,0.00,0.00,30.03,M,M,M,M,M,M,M,M,M,M,M,M,M,M,M,M,M,M,83.98,KBVU 121515Z AUTO 00000KT 28/18 A3003 RMK AO2 PWINO TSNO,M
HTH,2022-08-12 15:15,-118.6315,38.5448,1282.89,73.40,44.60,35.66,0.00,0.00,0.00,30.15,M,10.00,M,CLR,M,M,M,M,M,M,M,M,M,M,M,M,M,M,73.40,KHTH 121515Z AUTO 00000KT 10SM CLR 23/07 A3015 RMK A01,M
BAM,2022-08-12 15:15,-116.8743,40.5990,1382.36,73.40,55.40,53.29,0.00,0.00,0.00,30.15,M,10.00,M,CLR,M,M,M,M,M,M,M,M,M,M,M,M,M,M,73.40,KBAM 121515Z AUTO 00000KT 10SM CLR 23/13 A3015 RMK AO1,M
TMT,2022-08-12 15:15,-117.1971,39.4643,1749.34,65.30,53.00,64.65,0.00,0.00,0.00,30.25,M,10.00,M,CLR,M,M,M,M,M,M,M,M,M,M,M,M,M,M,65.30,KTMT 121515Z AUTO 00000KT 10SM CLR 19/12 A3025 RMK AO2 T01850117,M
MEV,2022-08-12 15:15,-119.7500,38.9963,1441.42,64.40,42.80,45.32,0.00,0.00,0.00,30.19,M,10.00,M,CLR,M,M,M,M,M,M,M,M,M,M,M,M,M,M,64.40,KMEV 121515Z AUTO 00000KT 10SM CLR 18/06 A3019 RMK AO2,M
RTS,2022-08-12 15:15,-119.8764,39.6682,1539.00,64.40,37.40,36.74,0.00,0.00,0.00,30.22,M,10.00,M,CLR,M,M,M,M,M,M,M,M,M,M,M,M,M,M,64.40,KRTS 121515Z AUTO 00000KT 10SM CLR 18/03 A3022 RMK AO2,M
CXP,2022-08-12 15:15,-119.7326,39.1923,1431.00,66.20,41.00,39.72,0.00,0.00,0.00,30.20,M,10.00,M,CLR,M,M,M,M,M,M,M,M,M,M,M,M,M,M,66.20,KCXP 121515Z AUTO 00000KT 10SM CLR 19/05 A3020 RMK AO2,M
MEV,2022-08-12 15:35,-119.7500,38.9963,1441.42,68.00,42.80,40.00,0.00,0.00,0.00,30.19,M,10.00,M,CLR,M,M,M,M,M,M,M,M,M,M,M,M,M,M,68.00,KMEV 121535Z AUTO 00000KT 10SM CLR 20/06 A3019 RMK AO2,M
RTS,2022-08-12 15:35,-119.8764,39.6682,1539.00,68.00,37.40,32.43,0.00,0.00,0.00,30.22,M,10.00,M,CLR,M,M,M,M,M,M,M,M,M,M,M,M,M,M,68.00,KRTS 121535Z AUTO 00000KT 10SM CLR 20/03 A3022 RMK AO2,M
BAM,2022-08-12 15:35,-116.8743,40.5990,1382.36,77.00,55.40,47.25,0.00,0.00,0.00,30.15,M,10.00,M,CLR,M,M,M,M,M,M,M,M,M,M,M,M,M,M,77.00,KBAM 121535Z AUTO 00000KT 10SM CLR 25/13 A3015 RMK AO1,M
HTH,2022-08-12 15:35,-118.6315,38.5448,1282.89,75.20,42.80,31.34,M,3.00,0.00,30.15,M,10.00,M,CLR,M,M,M,M,M,M,M,M,M,M,M,M,M,M,75.20,KHTH 121535Z AUTO VRB03KT 10SM CLR 24/06 A3015 RMK A01,M
TMT,2022-08-12 15:35,-117.1971,39.4643,1749.34,M,M,M,0.00,0.00,0.00,30.25,M,10.00,M,CLR,M,M,M,M,M,M,M,M,M,M,M,M,M,M,M,KTMT 121535Z AUTO 00000KT 10SM CLR A3025 RMK AO2,M
CXP,2022-08-12 15:35,-119.7326,39.1923,1431.00,68.00,41.00,37.32,0.00,0.00,0.00,30.20,M,10.00,M,CLR,M,M,M,M,M,M,M,M,M,M,M,M,M,M,68.00,KCXP 121535Z AUTO 00000KT 10SM CLR 20/05 A3020 RMK AO2,M
BVU,2022-08-12 15:35,-114.8611,35.9475,671.00,84.20,64.40,51.47,0.00,0.00,0.00,30.03,M,M,M,M,M,M,M,M,M,M,M,M,M,M,M,M,M,M,85.71,KBVU 121535Z AUTO 00000KT 29/18 A3003 RMK AO2 PWINO TSNO,M
LOL,2022-08-12 15:53,-118.5701,40.0684,1192.43,77.00,28.90,17.01,0.00,0.00,0.00,30.12,1015.50,10.00,M,CLR,M,M,M,M,M,M,M,M,M,M,M,M,M,M,77.00,KLOL 121553Z AUTO 00000KT 10SM CLR 25/M02 A3012 RMK AO2 SLP155 T02501017,M
P68,2022-08-12 15:53,-116.0056,39.6014,1993.00,77.00,51.00,40.36,0.00,0.00,0.00,30.25,1015.20,M,M,M,M,M,M,M,M,M,M,M,M,M,M,M,M,M,77.00,KP68 121553Z AUTO 00000KT 25/11 A3025 RMK AO1 SLP152 T02500106,M
VGT,2022-08-12 15:53,-115.1933,36.2111,667.00,88.00,64.00,44.95,90.00,4.00,0.00,30.02,1015.40,10.00,M,FEW,M,M,M,12000.00,M,M,M,M,M,M,M,M,M,M,89.34,KVGT 121553Z 09004KT 10SM FEW120 31/18 A3002 RMK AO2 SLP154 T03110178,M
ELY,2022-08-12 15:53,-114.8453,39.2950,1909.00,70.00,58.00,65.45,190.00,4.00,0.00,30.31,1016.70,10.00,M,CLR,M,M,M,M,M,M,M,M,M,M,M,M,M,M,70.00,KELY 121553Z AUTO 19004KT 10SM CLR 21/14 A3031 RMK AO2 SLP167 T02110144,M
DRA,2022-08-12 15:53,-116.0278,36.6206,1009.00,87.00,56.00,34.66,40.00,5.00,0.00,30.08,1012.90,10.00,M,CLR,M,M,M,M,M,M,M,M,M,M,M,M,M,M,85.61,KDRA 121553Z AUTO 04005KT 10SM CLR 31/13 A3008 RMK AO2 SLP129 T03060133,M
MEV,2022-08-12 15:55,-119.7500,38.9963,1441.42,68.00,42.80,40.00,310.00,3.00,0.00,30.19,M,9.00,M,CLR,M,M,M,M,M,M,M,M,M,M,M,M,M,M,68.00,KMEV 121555Z AUTO 31003KT 9SM CLR 20/06 A3019 RMK AO2,M
RNO,2022-08-12 15:55,-119.7711,39.4839,1341.00,71.00,42.00,35.02,150.00,3.00,0.00,30.18,1016.20,10.00,M,CLR,M,M,M,M,M,M,M,M,M,M,M,M,M,M,71.10,KRNO 121555Z 15003KT 10SM CLR 22/06 A3018 RMK AO2 SLP162 T02170056,M
CXP,2022-08-12 15:55,-119.7326,39.1923,1431.00,71.60,41.00,33.00,0.00,0.00,0.00,30.20,M,10.00,M,CLR,M,M,M,M,M,M,M,M,M,M,M,M,M,M,71.60,KCXP 121555Z AUTO 00000KT 10SM CLR 22/05 A3020 RMK AO2,M
BVU,2022-08-12 15:55,-114.8611,35.9475,671.00,86.00,62.60,45.61,0.00,0.00,0.00,30.03,M,M,M,M,M,M,M,M,M,M,M,M,M,M,M,M,M,M,86.72,KBVU 121555Z AUTO 00000KT 30/17 A3003 RMK AO2 PWINO TSNO,M
BAM,2022-08-12 15:55,-116.8743,40.5990,1382.36,78.80,53.60,41.69,0.00,0.00,0.00,30.16,M,10.00,M,CLR,M,M,M,M,M,M,M,M,M,M,M,M,M,M,78.80,KBAM 121555Z AUTO 00000KT 10SM CLR 26/12 A3016 RMK AO1,M
HTH,2022-08-12 15:55,-118.6315,38.5448,1282.89,77.00,41.00,27.53,0.00,0.00,0.00,30.16,M,10.00,M,CLR,M,M,M,M,M,M,M,M,M,M,M,M,M,M,77.00,KHTH 121555Z AUTO 00000KT 10SM CLR 25/05 A3016 RMK A01,M
TMT,2022-08-12 15:55,-117.1971,39.4643,1749.34,M,M,M,0.00,0.00,0.00,30.24,M,10.00,M,CLR,M,M,M,M,M,M,M,M,M,M,M,M,M,M,M,KTMT 121555Z AUTO 00000KT 10SM CLR A3024 RMK AO2,M
RTS,2022-08-12 15:55,-119.8764,39.6682,1539.00,68.00,39.20,34.80,0.00,0.00,0.00,30.22,M,10.00,M,CLR,M,M,M,M,M,M,M,M,M,M,M,M,M,M,68.00,KRTS 121555Z AUTO 00000KT 10SM CLR 20/04 A3022 RMK AO2,M
WMC,2022-08-12 15:56,-117.8072,40.9019,1315.00,79.00,34.00,19.57,360.00,3.00,0.00,30.14,1015.30,10.00,M,CLR,M,M,M,M,M,M,M,M,M,M,M,M,M,M,79.00,KWMC 121556Z AUTO 36003KT 10SM CLR 26/01 A3014 RMK AO2 SLP153 T02610011 $,M
HND,2022-08-12 15:56,-115.1344,35.9729,742.79,89.00,60.00,37.83,0.00,0.00,0.00,30.07,1016.40,10.00,M,CLR,M,M,M,M,M,M,M,M,M,M,M,M,M,M,88.76,KHND 121556Z 00000KT 10SM CLR 32/16 A3007 RMK AO2 SLP164 T03170156,M
TPH,2022-08-12 15:56,-117.0904,38.0505,1654.00,78.00,50.00,37.36,170.00,6.00,0.00,30.24,1015.20,10.00,M,CLR,M,M,M,M,M,M,M,M,M,M,M,M,M,M,78.10,KTPH 121556Z AUTO 17006KT 10SM CLR 26/10 A3024 RMK AO2 SLP152 T02560100,M
LAS,2022-08-12 15:56,-115.1634,36.0719,663.00,87.00,62.00,43.27,100.00,3.00,0.00,30.03,1013.80,10.00,M,FEW,SCT,SCT,M,10000.00,14000.00,22000.00,M,M,M,M,M,M,M,M,87.58,KLAS 121556Z 10003KT 10SM FEW100 SCT140 SCT220 31/17 A3003 RMK AO2 SLP138 ACC DSNT N-E AND SW T03060167 $,M
NFL,2022-08-12 15:56,-118.7010,39.4166,1199.00,77.00,42.00,28.73,280.00,4.00,0.00,30.12,1016.70,10.00,M,CLR,M,M,M,M,M,M,M,M,M,M,M,M,M,M,77.00,KNFL 121556Z 28004KT 10SM CLR 25/06 A3012 RMK AO2 SLP167 T02500056,M
EKO,2022-08-12 15:56,-115.7860,40.8242,1367.00,74.00,53.00,48.18,60.00,3.00,0.00,30.19,1016.50,10.00,M,CLR,M,M,M,M,M,M,M,M,M,M,M,M,M,M,73.90,KEKO 121556Z AUTO 06003KT 10SM CLR 23/12 A3019 RMK AO2 SLP165 T02330117,M
INS,2022-08-12 15:58,-115.6733,36.5872,955.00,86.00,56.70,36.95,0.00,0.00,0.00,30.07,1012.80,10.00,M,CLR,M,M,M,M,M,M,M,M,M,M,M,M,M,M,84.85,KINS 121558Z AUTO 00000KT 10SM CLR 30/14 A3007 RMK AO2 SLP128 T03000137,M
LSV,2022-08-12 15:58,-115.0343,36.2362,570.00,92.00,62.00,36.93,50.00,8.00,0.00,29.99,1012.80,10.00,M,SCT,M,M,M,14000.00,M,M,M,M,M,M,M,M,M,M,92.43,KLSV 121558Z AUTO 05008KT 10SM SCT140 33/17 A2999 RMK AO2 SLP128 T03330166 $,M
CXP,2022-08-12 16:15,-119.7326,39.1923,1431.00,73.40,39.20,28.96,0.00,0.00,0.00,30.20,M,10.00,M,CLR,M,M,M,M,M,M,M,M,M,M,M,M,M,M,73.40,KCXP 121615Z AUTO 00000KT 10SM CLR 23/04 A3020 RMK AO2,M
TMT,2022-08-12 16:15,-117.1971,39.4643,1749.34,M,M,M,210.00,3.00,0.00,30.24,M,10.00,M,CLR,M,M,M,M,M,M,M,M,M,M,M,M,M,M,M,KTMT 121615Z AUTO 21003KT 10SM CLR A3024 RMK AO2,M
HTH,2022-08-12 16:15,-118.6315,38.5448,1282.89,77.00,41.00,27.53,340.00,4.00,0.00,30.15,M,10.00,M,CLR,M,M,M,M,M,M,M,M,M,M,M,M,M,M,77.00,KHTH 121615Z AUTO 34004KT 10SM CLR 25/05 A3015 RMK A01,M
BAM,2022-08-12 16:15,-116.8743,40.5990,1382.36,80.60,50.00,34.41,0.00,0.00,0.00,30.15,M,10.00,M,CLR,M,M,M,M,M,M,M,M,M,M,M,M,M,M,79.88,KBAM 121615Z AUTO 00000KT 10SM CLR 27/10 A3015 RMK AO1,M
MEV,2022-08-12 16:15,-119.7500,38.9963,1441.42,69.80,42.80,37.61,M,3.00,0.00,30.19,M,10.00,M,CLR,M,M,M,M,M,M,M,M,M,M,M,M,M,M,69.80,KMEV 121615Z AUTO VRB03KT 10SM CLR 21/06 A3019 RMK AO2,M
RTS,2022-08-12 16:15,-119.8764,39.6682,1539.00,69.80,37.40,30.49,0.00,0.00,0.00,30.22,M,10.00,M,CLR,M,M,M,M,M,M,M,M,M,M,M,M,M,M,69.80,KRTS 121615Z AUTO 00000KT 10SM CLR 21/03 A3022 RMK AO2,M
BVU,2022-08-12 16:15,-114.8611,35.9475,671.00,87.80,60.80,40.41,100.00,3.00,0.00,30.03,M,M,M,M,M,M,M,M,M,M,M,M,M,M,M,M,M,M,87.75,KBVU 121615Z AUTO 10003KT 31/16 A3003 RMK AO2 PWINO TSNO,M
RTS,2022-08-12 16:35,-119.8764,39.6682,1539.00,73.40,35.60,25.13,M,3.00,0.00,30.22,M,10.00,M,CLR,M,M,M,M,M,M,M,M,M,M,M,M,M,M,73.40,KRTS 121635Z AUTO VRB03KT 10SM CLR 23/02 A3022 RMK AO2,M
TMT,2022-08-12 16:35,-117.1971,39.4643,1749.34,M,M,M,0.00,0.00,0.00,30.24,M,10.00,M,SCT,M,M,M,100.00,M,M,M,M,M,M,M,M,M,M,M,KTMT 121635Z AUTO 00000KT 10SM SCT001 A3024 RMK AO2,M
BVU,2022-08-12 16:35,-114.8611,35.9475,671.00,87.80,60.80,40.41,0.00,0.00,0.00,30.03,M,M,M,M,M,M,M,M,M,M,M,M,M,M,M,M,M,M,87.75,KBVU 121635Z AUTO 00000KT 31/16 A3003 RMK AO2 PWINO TSNO,M
HTH,2022-08-12 16:35,-118.6315,38.5448,1282.89,78.80,39.20,24.19,350.00,4.00,0.00,30.15,M,10.00,M,CLR,M,M,M,M,M,M,M,M,M,M,M,M,M,M,78.80,KHTH 121635Z AUTO 35004KT 10SM CLR 26/04 A3015 RMK A01,M
BAM,2022-08-12 16:35,-116.8743,40.5990,1382.36,80.60,46.40,30.07,0.00,0.00,0.00,30.15,M,10.00,M,CLR,M,M,M,M,M,M,M,M,M,M,M,M,M,M,79.56,KBAM 121635Z AUTO 00000KT 10SM CLR 27/08 A3015 RMK AO1,M
MEV,2022-08-12 16:35,-119.7500,38.9963,1441.42,73.40,42.80,33.29,290.00,3.00,0.00,30.18,M,10.00,M,CLR,M,M,M,M,M,M,M,M,M,M,M,M,M,M,73.40,KMEV 121635Z AUTO 29003KT 10SM CLR 23/06 A3018 RMK AO2,M
CXP,2022-08-12 16:35,-119.7326,39.1923,1431.00,77.00,37.40,23.93,0.00,0.00,0.00,30.19,M,10.00,M,CLR,M,M,M,M,M,M,M,M,M,M,M,M,M,M,77.00,KCXP 121635Z AUTO 00000KT 10SM CLR 25/03 A3019 RMK AO2,M
LOL,2022-08-12 16:53,-118.5701,40.0684,1192.43,84.00,27.00,12.52,0.00,0.00,0.00,30.12,1015.00,10.00,M,CLR,M,M,M,M,M,M,M,M,M,M,M,M,M,M,81.03,KLOL 121653Z AUTO 00000KT 10SM CLR 29/M03 A3012 RMK AO2 SLP150 T02891028,M
ELY,2022-08-12 16:53,-114.8453,39.2950,1909.00,76.00,56.00,49.91,0.00,0.00,0.00,30.30,1015.90,10.00,M,CLR,M,M,M,M,M,M,M,M,M,M,M,M,M,M,75.90,KELY 121653Z AUTO 00000KT 10SM CLR 24/13 A3030 RMK AO2 SLP159 T02440133,M
DRA,2022-08-12 16:53,-116.0278,36.6206,1009.00,90.00,57.00,32.91,130.00,13.00,0.00,30.08,1012.70,10.00,M,SCT,M,M,M,12000.00,M,M,M,M,M,M,M,M,M,M,88.61,KDRA 121653Z AUTO 13013KT 10SM SCT120 32/14 A3008 RMK AO2 SLP127 T03220139,M
P68,2022-08-12 16:53,-116.0056,39.6014,1993.00,81.00,48.00,31.52,M,3.00,0.00,30.24,1014.50,M,M,M,M,M,M,M,M,M,M,M,M,M,M,M,M,M,79.92,KP68 121653Z AUTO VRB03KT 27/09 A3024 RMK AO1 SLP145 T02720089,M
VGT,2022-08-12 16:53,-115.1933,36.2111,667.00,90.00,64.00,42.20,120.00,5.00,0.00,30.02,1015.60,10.00,M,FEW,M,M,M,12000.00,M,M,M,M,M,M,M,M,M,M,91.44,KVGT 121653Z 12005KT 10SM FEW120 32/18 A3002 RMK AO2 LTG DSNT N SLP156 T03220178,M
RTS,2022-08-12 16:55,-119.8764,39.6682,1539.00,73.40,35.60,25.13,120.00,4.00,0.00,30.22,M,10.00,M,CLR,M,M,M,M,M,M,M,M,M,M,M,M,M,M,73.40,KRTS 121655Z AUTO 12004KT 10SM CLR 23/02 A3022 RMK AO2,M
RNO,2022-08-12 16:55,-119.7711,39.4839,1341.00,78.00,41.00,26.55,330.00,3.00,0.00,30.17,1015.50,10.00,M,CLR,M,M,M,M,M,M,M,M,M,M,M,M,M,M,78.10,KRNO 121655Z 33003KT 10SM CLR 26/05 A3017 RMK AO2 SLP155 T02560050,M
MEV,2022-08-12 16:55,-119.7500,38.9963,1441.42,75.20,42.80,31.34,0.00,0.00,0.00,30.18,M,10.00,M,CLR,M,M,M,M,M,M,M,M,M,M,M,M,M,M,75.20,KMEV 121655Z AUTO 00000KT 10SM CLR 24/06 A3018 RMK AO2,M
BAM,2022-08-12 16:55,-116.8743,40.5990,1382.36,84.20,44.60,24.99,0.00,0.00,0.00,30.15,M,10.00,M,CLR,M,M,M,M,M,M,M,M,M,M,M,M,M,M,81.73,KBAM 121655Z AUTO 00000KT 10SM CLR 29/07 A3015 RMK AO1,M
HTH,2022-08-12 16:55,-118.6315,38.5448,1282.89,80.60,39.20,22.81,0.00,0.00,0.00,30.15,M,10.00,M,CLR,M,M,M,M,M,M,M,M,M,M,M,M,M,M,79.10,KHTH 121655Z AUTO 00000KT 10SM CLR 27/04 A3015 RMK A01,M
TMT,2022-08-12 16:55,-117.1971,39.4643,1749.34,M,M,M,220.00,5.00,0.00,30.24,M,10.00,M,CLR,M,M,M,M,M,M,M,M,M,M,M,M,M,M,M,KTMT 121655Z AUTO 22005KT 10SM CLR A3024 RMK AO2,M
BVU,2022-08-12 16:55,-114.8611,35.9475,671.00,89.60,60.80,38.18,0.00,0.00,0.00,30.03,M,M,M,M,M,M,M,M,M,M,M,M,M,M,M,M,M,M,89.54,KBVU 121655Z AUTO 00000KT 32/16 A3003 RMK AO2 PWINO TSNO,M
CXP,2022-08-12 16:55,-119.7326,39.1923,1431.00,78.80,39.20,24.19,0.00,0.00,0.00,30.19,M,10.00,M,CLR,M,M,M,M,M,M,M,M,M,M,M,M,M,M,78.80,KCXP 121655Z AUTO 00000KT 10SM CLR 26/04 A3019 RMK AO2,M
TPH,2022-08-12 16:56,-117.0904,38.0505,1654.00,81.00,49.00,32.60,M,5.00,0.00,30.23,1015.20,10.00,M,CLR,M,M,M,M,M,M,M,M,M,M,M,M,M,M,80.01,KTPH 121656Z AUTO VRB05KT 10SM CLR 27/09 A3023 RMK AO2 SLP152 T02720094,M
EKO,2022-08-12 16:56,-115.7860,40.8242,1367.00,82.00,53.00,36.74,10.00,2.92,M,30.18,1015.80,10.00,M,CLR,M,M,M,M,M,M,M,M,M,M,M,M,M,M,81.10,METAR KEKO 121656Z 01003KT 10SM CLR 28/12 A3018 RMK AO2 SLP158 T02780117 TSNO FIBI,M
LAS,2022-08-12 16:56,-115.1634,36.0719,663.00,90.00,62.00,39.47,0.00,0.00,0.00,30.03,1014.40,10.00,M,FEW,SCT,BKN,M,10000.00,14000.00,22000.00,M,M,M,M,M,M,M,M,90.51,KLAS 121656Z 00000KT 10SM FEW100 SCT140 BKN220 32/17 A3003 RMK AO2 SLP144 TCU DSNT N AND NE ACC DSNT SW T03220167 $,M
NFL,2022-08-12 16:56,-118.7010,39.4166,1199.00,81.00,35.00,19.15,M,4.00,0.00,30.13,1016.70,10.00,M,CLR,M,M,M,M,M,M,M,M,M,M,M,M,M,M,79.17,KNFL 121656Z VRB04KT 10SM CLR 27/02 A3013 RMK AO2 SLP167 T02720017,M
HND,2022-08-12 16:56,-115.1344,35.9729,742.79,91.00,61.00,36.80,310.00,4.00,0.00,30.06,1016.40,10.00,M,CLR,M,M,M,M,M,M,M,M,M,M,M,M,M,M,91.06,KHND 121656Z 31004KT 10SM CLR 33/16 A3006 RMK AO2 SLP164 T03280161,M
WMC,2022-08-12 16:56,-117.8072,40.9019,1315.00,84.00,30.90,14.68,M,4.00,0.00,30.13,1014.80,10.00,M,CLR,M,M,M,M,M,M,M,M,M,M,M,M,M,M,81.12,KWMC 121656Z AUTO VRB04KT 10SM CLR 29/M01 A3013 RMK AO2 SLP148 T02891006 $,M
INS,2022-08-12 16:58,-115.6733,36.5872,955.00,90.00,56.00,31.85,110.00,10.00,0.00,30.06,1012.50,10.00,M,SCT,M,M,M,11000.00,M,M,M,M,M,M,M,M,M,M,88.35,KINS 121658Z AUTO 11010KT 10SM SCT110 32/13 A3006 RMK AO2 SLP125 T03220134,M
LSV,2022-08-12 16:58,-115.0343,36.2362,570.00,93.60,61.00,33.93,100.00,5.00,0.00,30.00,1013.20,10.00,M,CLR,M,M,M,M,M,M,M,M,M,M,M,M,M,M,93.85,KLSV 121658Z AUTO 10005KT 10SM CLR 34/16 A3000 RMK AO2 SLP132 T03420161 $,M
RTS,2022-08-12 17:15,-119.8764,39.6682,1539.00,75.20,35.60,23.66,140.00,4.00,0.00,30.21,M,10.00,M,CLR,M,M,M,M,M,M,M,M,M,M,M,M,M,M,75.20,KRTS 121715Z AUTO 14004KT 10SM CLR 24/02 A3021 RMK AO2,M
HTH,2022-08-12 17:15,-118.6315,38.5448,1282.89,80.60,37.40,21.25,M,4.00,0.00,30.15,M,10.00,M,CLR,M,M,M,M,M,M,M,M,M,M,M,M,M,M,79.02,KHTH 121715Z AUTO VRB04KT 10SM CLR 27/03 A3015 RMK A01,M
TMT,2022-08-12 17:15,-117.1971,39.4643,1749.34,M,M,M,0.00,0.00,0.00,30.24,M,10.00,M,CLR,M,M,M,M,M,M,M,M,M,M,M,M,M,M,M,KTMT 121715Z AUTO 00000KT 10SM CLR A3024 RMK AO2,M
BAM,2022-08-12 17:15,-116.8743,40.5990,1382.36,86.00,50.00,28.90,210.00,4.00,0.00,30.15,M,10.00,M,CLR,M,M,M,M,M,M,M,M,M,M,M,M,M,M,83.62,KBAM 121715Z AUTO 21004KT 10SM CLR 30/10 A3015 RMK AO1,M
BVU,2022-08-12 17:15,-114.8611,35.9475,671.00,89.60,60.80,38.18,0.00,0.00,0.00,30.03,M,M,M,M,M,M,M,M,M,M,M,M,M,M,M,M,M,M,89.54,KBVU 121715Z AUTO 00000KT 32/16 A3003 RMK AO2 PWINO TSNO,M
CXP,2022-08-12 17:15,-119.7326,39.1923,1431.00,78.80,37.40,22.54,0.00,0.00,0.00,30.19,M,10.00,M,CLR,M,M,M,M,M,M,M,M,M,M,M,M,M,M,78.80,KCXP 121715Z AUTO 00000KT 10SM CLR 26/03 A3019 RMK AO2,M
MEV,2022-08-12 17:15,-119.7500,38.9963,1441.42,77.00,41.00,27.53,0.00,0.00,0.00,30.17,M,10.00,M,CLR,M,M,M,M,M,M,M,M,M,M,M,M,M,M,77.00,KMEV 121715Z AUTO 00000KT 10SM CLR 25/05 A3017 RMK AO2,M
BVU,2022-08-12 17:35,-114.8611,35.9475,671.00,91.40,60.80,36.08,0.00,0.00,0.00,30.03,M,M,M,M,M,M,M,M,M,M,M,M,M,M,M,M,M,M,91.40,KBVU 121735Z AUTO 00000KT 33/16 A3003 RMK AO2 PWINO TSNO,M
TMT,2022-08-12 17:35,-117.1971,39.4643,1749.34,M,M,M,0.00,0.00,0.00,30.24,M,10.00,M,CLR,M,M,M,M,M,M,M,M,M,M,M,M,M,M,M,KTMT 121735Z AUTO 00000KT 10SM CLR A3024 RMK AO2,M
CXP,2022-08-12 17:35,-119.7326,39.1923,1431.00,80.60,37.40,21.25,0.00,0.00,0.00,30.18,M,10.00,M,CLR,M,M,M,M,M,M,M,M,M,M,M,M,M,M,79.02,KCXP 121735Z AUTO 00000KT 10SM CLR 27/03 A3018 RMK AO2,M
RTS,2022-08-12 17:35,-119.8764,39.6682,1539.00,77.00,35.60,22.28,M,4.00,0.00,30.21,M,10.00,M,CLR,M,M,M,M,M,M,M,M,M,M,M,M,M,M,77.00,KRTS 121735Z AUTO VRB04KT 10SM CLR 25/02 A3021 RMK AO2,M
MEV,2022-08-12 17:35,-119.7500,38.9963,1441.42,80.60,41.00,24.46,0.00,0.00,0.00,30.17,M,10.00,M,CLR,M,M,M,M,M,M,M,M,M,M,M,M,M,M,79.20,KMEV 121735Z AUTO 00000KT 10SM CLR 27/05 A3017 RMK AO2,M
BAM,2022-08-12 17:35,-116.8743,40.5990,1382.36,87.80,50.00,27.29,270.00,3.00,0.00,30.15,M,10.00,M,CLR,M,M,M,M,M,M,M,M,M,M,M,M,M,M,85.11,KBAM 121735Z AUTO 27003KT 10SM CLR 31/10 A3015 RMK AO1,M
HTH,2022-08-12 17:35,-118.6315,38.5448,1282.89,82.40,33.80,17.38,M,6.00,0.00,30.14,M,10.00,M,CLR,M,M,M,M,M,M,M,M,M,M,M,M,M,M,80.03,KHTH 121735Z AUTO VRB06KT 10SM CLR 28/01 A3014 RMK A01,M
ELY,2022-08-12 17:53,-114.8453,39.2950,1909.00,81.00,56.00,42.19,0.00,0.00,0.00,30.29,1014.90,10.00,M,CLR,M,M,M,M,M,M,M,M,M,M,M,M,M,M,80.87,KELY 121753Z AUTO 00000KT 10SM CLR 27/13 A3029 RMK AO2 SLP149 T02720133 10272 20122 58005,M
DRA,2022-08-12 17:53,-116.0278,36.6206,1009.00,92.00,55.00,28.84,M,4.00,0.00,30.07,1012.50,10.00,M,CLR,M,M,M,M,M,M,M,M,M,M,M,M,M,M,89.92,KDRA 121753Z AUTO VRB04KT 10SM CLR 33/13 A3007 RMK AO2 SLP125 T03330128 10339 20233 58002,M
LOL,2022-08-12 17:53,-118.5701,40.0684,1192.43,87.00,27.00,11.34,M,6.00,0.00,30.11,1014.30,10.00,M,CLR,M,M,M,M,M,M,M,M,M,M,M,M,M,M,83.21,KLOL 121753Z AUTO VRB06KT 10SM CLR 31/M03 A3011 RMK AO2 SLP143 T03061028 10306 20133 58002,M
VGT,2022-08-12 17:53,-115.1933,36.2111,667.00,93.00,62.00,35.94,50.00,4.00,0.00,30.01,1015.10,10.00,M,CLR,M,M,M,M,M,M,M,M,M,M,M,M,M,M,93.72,KVGT 121753Z 05004KT 10SM CLR 34/17 A3001 RMK AO2 LTG DSNT W SLP151 T03390167 10339 20261 58000,M
P68,2022-08-12 17:53,-116.0056,39.6014,1993.00,84.00,48.00,28.60,M,3.00,0.00,30.23,1014.00,M,M,M,M,M,M,M,M,M,M,M,M,M,M,M,M,M,81.87,KP68 121753Z AUTO VRB03KT 29/09 A3023 RMK AO1 SLP140 T02890089 10294 20139 58004,M
RNO,2022-08-12 17:55,-119.7711,39.4839,1341.00,83.00,41.00,22.70,250.00,4.00,0.00,30.16,1015.10,10.00,M,CLR,M,M,M,M,M,M,M,M,M,M,M,M,M,M,80.62,KRNO 121755Z 25004KT 10SM CLR 28/05 A3016 RMK AO2 SLP151 T02830050 10283 20172 58004,M
CXP,2022-08-12 17:55,-119.7326,39.1923,1431.00,82.40,37.40,20.04,M,3.00,0.00,30.18,M,10.00,M,CLR,M,M,M,M,M,M,M,M,M,M,M,M,M,M,80.14,KCXP 121755Z AUTO VRB03KT 10SM CLR 28/03 A3018 RMK AO2,M
BVU,2022-08-12 17:55,-114.8611,35.9475,671.00,91.40,60.80,36.08,0.00,0.00,0.00,30.02,M,M,M,M,M,M,M,M,M,M,M,M,M,M,M,M,M,M,91.40,KBVU 121755Z AUTO 00000KT 33/16 A3002 RMK AO2 PWINO TSNO,M
RTS,2022-08-12 17:55,-119.8764,39.6682,1539.00,77.00,33.80,20.74,0.00,0.00,0.00,30.22,M,10.00,M,CLR,M,M,M,M,M,M,M,M,M,M,M,M,M,M,77.00,KRTS 121755Z AUTO 00000KT 10SM CLR 25/01 A3022 RMK AO2,M
MEV,2022-08-12 17:55,-119.7500,38.9963,1441.42,82.40,39.20,21.51,0.00,0.00,0.00,30.16,M,10.00,10.00,CLR,M,M,M,M,M,M,M,M,M,M,M,M,M,M,80.21,KMEV 121755Z AUTO 00000G10KT 10SM CLR 28/04 A3016 RMK AO2,M
BAM,2022-08-12 17:55,-116.8743,40.5990,1382.36,87.80,50.00,27.29,210.00,4.00,0.00,30.14,M,10.00,M,CLR,M,M,M,M,M,M,M,M,M,M,M,M,M,M,85.11,KBAM 121755Z AUTO 21004KT 10SM CLR 31/10 A3014 RMK AO1,M
HTH,2022-08-12 17:55,-118.6315,38.5448,1282.89,84.20,32.00,15.25,330.00,4.00,0.00,30.14,M,10.00,M,CLR,M,M,M,M,M,M,M,M,M,M,M,M,M,M,81.28,KHTH 121755Z AUTO 33004KT 10SM CLR 29/00 A3014 RMK A01,M
TMT,2022-08-12 17:55,-117.1971,39.4643,1749.34,M,M,M,0.00,0.00,0.00,30.24,M,10.00,M,CLR,M,M,M,M,M,M,M,M,M,M,M,M,M,M,M,KTMT 121755Z AUTO 00000KT 10SM CLR A3024 RMK AO2,M
EKO,2022-08-12 17:56,-115.7860,40.8242,1367.00,82.00,49.00,31.68,130.00,4.08,M,30.17,1015.70,10.00,M,CLR,M,M,M,M,M,M,M,M,M,M,M,M,M,M,80.62,METAR KEKO 121756Z 13004KT 10SM CLR 28/09 A3017 RMK AO2 SLP157 T02780094 10283 20144 58007 TSNO FIBI,M
LAS,2022-08-12 17:56,-115.1634,36.0719,663.00,91.00,62.00,38.26,50.00,3.00,0.00,30.02,1014.00,10.00,M,FEW,SCT,BKN,M,10000.00,14000.00,22000.00,M,M,M,M,M,M,M,M,91.56,KLAS 121756Z 05003KT 10SM FEW100 SCT140 BKN220 33/17 A3002 RMK AO2 LTG DSNT NW SLP140 CB DSNT S AND NW TCU DSNT N T03280167 10328 20261 50000 $,M
WMC,2022-08-12 17:56,-117.8072,40.9019,1315.00,88.00,27.00,11.02,M,M,0.00,30.13,1014.80,10.00,M,CLR,M,M,M,M,M,M,M,M,M,M,M,M,M,M,83.87,KWMC 121756Z AUTO 10SM CLR 31/M03 A3013 RMK AO2 SLP148 T03111028 10311 20133 58002 $,M
HND,2022-08-12 17:56,-115.1344,35.9729,742.79,93.00,61.00,34.57,0.00,0.00,0.00,30.06,1016.30,10.00,M,CLR,M,M,M,M,M,M,M,M,M,M,M,M,M,M,93.20,KHND 121756Z 00000KT 10SM CLR 34/16 A3006 RMK AO2 SLP163 T03390161 10339 20244 58001,M
NFL,2022-08-12 17:56,-118.7010,39.4166,1199.00,84.00,37.00,18.74,M,4.00,0.00,30.12,1016.50,10.00,M,FEW,FEW,M,M,1000.00,10000.00,M,M,M,M,M,M,M,M,M,81.23,KNFL 121756Z VRB04KT 10SM FEW010 FEW100 29/03 A3012 RMK AO2 SLP165 FU FEW010 T02890028 10294 20144 58001,M
TPH,2022-08-12 17:56,-117.0904,38.0505,1654.00,84.00,48.00,28.60,M,5.00,0.00,30.23,1014.90,10.00,M,CLR,M,M,M,M,M,M,M,M,M,M,M,M,M,M,81.87,KTPH 121756Z AUTO VRB05KT 10SM CLR 29/09 A3023 RMK AO2 SLP149 T02890089 10289 20172 58002,M
LSV,2022-08-12 17:58,-115.0343,36.2362,570.00,94.50,60.00,31.73,60.00,4.00,0.00,29.99,1012.90,10.00,M,CLR,M,M,M,M,M,M,M,M,M,M,M,M,M,M,94.34,KLSV 121758Z AUTO 06004KT 10SM CLR 35/16 A2999 RMK AO2 SLP129 T03470155 10351 20285 58001 $,M
INS,2022-08-12 17:58,-115.6733,36.5872,955.00,89.40,55.60,31.88,90.00,15.00,0.00,30.06,1012.50,10.00,M,CLR,M,M,M,M,M,M,M,M,M,M,M,M,M,M,87.64,KINS 121758Z AUTO 09015KT 10SM CLR 32/13 A3006 RMK AO2 SLP125 T03190131 10330 20240 57005,M
HTH,2022-08-12 18:15,-118.6315,38.5448,1282.89,86.00,33.80,15.48,350.00,6.00,0.00,30.13,M,10.00,M,CLR,M,M,M,M,M,M,M,M,M,M,M,M,M,M,82.66,KHTH 121815Z AUTO 35006KT 10SM CLR 30/01 A3013 RMK A01,M
BAM,2022-08-12 18:15,-116.8743,40.5990,1382.36,87.80,51.80,29.18,220.00,4.00,0.00,30.13,M,10.00,M,CLR,M,M,M,M,M,M,M,M,M,M,M,M,M,M,85.39,KBAM 121815Z AUTO 22004KT 10SM CLR 31/11 A3013 RMK AO1,M
RTS,2022-08-12 18:15,-119.8764,39.6682,1539.00,78.80,32.00,18.18,M,3.00,0.00,30.21,M,10.00,M,CLR,M,M,M,M,M,M,M,M,M,M,M,M,M,M,78.80,KRTS 121815Z AUTO VRB03KT 10SM CLR 26/00 A3021 RMK AO2,M
CXP,2022-08-12 18:15,-119.7326,39.1923,1431.00,84.20,35.60,17.61,M,4.00,0.00,30.18,M,10.00,M,CLR,M,M,M,M,M,M,M,M,M,M,M,M,M,M,81.34,KCXP 121815Z AUTO VRB04KT 10SM CLR 29/02 A3018 RMK AO2,M
BVU,2022-08-12 18:15,-114.8611,35.9475,671.00,93.20,60.80,34.11,M,3.00,0.00,30.01,M,M,M,M,M,M,M,M,M,M,M,M,M,M,M,M,M,M,93.32,KBVU 121815Z AUTO VRB03KT 34/16 A3001 RMK AO2 PWINO TSNO,M
TMT,2022-08-12 18:15,-117.1971,39.4643,1749.34,M,M,M,340.00,5.00,0.00,30.23,M,10.00,M,CLR,M,M,M,M,M,M,M,M,M,M,M,M,M,M,M,KTMT 121815Z AUTO 34005KT 10SM CLR A3023 RMK AO2,M
MEV,2022-08-12 18:15,-119.7500,38.9963,1441.42,82.40,35.60,18.67,M,4.00,0.00,30.16,M,10.00,M,CLR,M,M,M,M,M,M,M,M,M,M,M,M,M,M,80.08,KMEV 121815Z AUTO VRB04KT 10SM CLR 28/02 A3016 RMK AO2,M
RTS,2022-08-12 18:35,-119.8764,39.6682,1539.00,80.60,30.20,15.94,0.00,0.00,0.00,30.21,M,10.00,11.00,CLR,M,M,M,M,M,M,M,M,M,M,M,M,M,M,78.77,KRTS 121835Z AUTO 00000G11KT 10SM CLR 27/M01 A3021 RMK AO2,M
TMT,2022-08-12 18:35,-117.1971,39.4643,1749.34,M,M,M,270.00,6.00,0.00,30.23,M,10.00,M,CLR,M,M,M,M,M,M,M,M,M,M,M,M,M,M,M,KTMT 121835Z AUTO 27006KT 10SM CLR A3023 RMK AO2,M
HTH,2022-08-12 18:35,-118.6315,38.5448,1282.89,84.20,33.80,16.39,10.00,5.00,0.00,30.13,M,10.00,M,CLR,M,M,M,M,M,M,M,M,M,M,M,M,M,M,81.30,KHTH 121835Z AUTO 01005KT 10SM CLR 29/01 A3013 RMK A01,M
BAM,2022-08-12 18:35,-116.8743,40.5990,1382.36,89.60,51.80,27.56,0.00,0.00,0.00,30.13,M,10.00,M,CLR,M,M,M,M,M,M,M,M,M,M,M,M,M,M,87.00,KBAM 121835Z AUTO 00000KT 10SM CLR 32/11 A3013 RMK AO1,M
MEV,2022-08-12 18:35,-119.7500,38.9963,1441.42,86.00,35.60,16.63,280.00,5.00,0.00,30.16,M,10.00,M,CLR,M,M,M,M,M,M,M,M,M,M,M,M,M,M,82.69,KMEV 121835Z AUTO 28005KT 10SM CLR 30/02 A3016 RMK AO2,M
BVU,2022-08-12 18:35,-114.8611,35.9475,671.00,95.00,59.00,30.26,0.00,0.00,0.00,30.01,M,M,M,M,M,M,M,M,M,M,M,M,M,M,M,M,M,M,94.51,KBVU 121835Z AUTO 00000KT 35/15 A3001 RMK AO2 PWINO TSNO,M
CXP,2022-08-12 18:35,-119.7326,39.1923,1431.00,86.00,32.00,14.40,M,5.00,0.00,30.17,M,10.00,M,CLR,M,M,M,M,M,M,M,M,M,M,M,M,M,M,82.64,KCXP 121835Z AUTO VRB05KT 10SM CLR 30/M00 A3017 RMK AO2,M
ELY,2022-08-12 18:42,-114.8453,39.2950,1909.00,82.00,53.00,36.87,0.00,0.00,0.00,30.28,M,10.00,M,CLR,M,M,M,M,M,M,M,VCTS,M,M,M,M,M,M,81.11,KELY 121842Z AUTO 00000KT 10SM VCTS CLR 28/12 A3028 RMK AO2 LTG DSNT E-SW T02780117,M
LOL,2022-08-12 18:53,-118.5701,40.0684,1192.43,91.00,28.90,10.84,0.00,0.00,0.00,30.10,1014.30,10.00,M,CLR,M,M,M,M,M,M,M,M,M,M,M,M,M,M,86.27,KLOL 121853Z AUTO 00000KT 10SM CLR 33/M02 A3010 RMK AO2 SLP143 T03281017,M
VGT,2022-08-12 18:53,-115.1933,36.2111,667.00,94.00,61.00,33.62,M,4.00,0.00,30.00,1014.60,10.00,M,CLR,M,M,M,M,M,M,M,M,M,M,M,M,M,M,94.18,KVGT 121853Z VRB04KT 10SM CLR 34/16 A3000 RMK AO2 LTG DSNT W SLP146 T03440161,M
ELY,2022-08-12 18:53,-114.8453,39.2950,1909.00,83.00,52.00,34.39,40.00,5.00,0.00,30.28,1014.30,10.00,M,CLR,M,M,M,M,M,M,M,M,M,M,M,M,M,M,81.57,KELY 121853Z AUTO 04005KT 10SM CLR 28/11 A3028 RMK AO2 LTG DSNT E SLP143 T02830111,M
DRA,2022-08-12 18:53,-116.0278,36.6206,1009.00,94.00,54.00,26.13,M,3.00,0.00,30.06,1012.10,10.00,M,FEW,M,M,M,11000.00,M,M,M,M,M,M,M,M,M,M,91.68,KDRA 121853Z AUTO VRB03KT 10SM FEW110 34/12 A3006 RMK AO2 SLP121 T03440122,M
P68,2022-08-12 18:53,-116.0056,39.6014,1993.00,84.00,48.00,28.60,340.00,4.00,0.00,30.22,1013.80,M,M,M,M,M,M,M,M,M,M,M,M,M,M,M,M,M,81.87,KP68 121853Z AUTO 34004KT 29/09 A3022 RMK AO1 SLP138 T02890089,M
RNO,2022-08-12 18:55,-119.7711,39.4839,1341.00,84.00,37.00,18.74,M,3.00,0.00,30.14,1014.60,10.00,M,CLR,M,M,M,M,M,M,M,M,M,M,M,M,M,M,81.23,KRNO 121855Z VRB03KT 10SM CLR 29/03 A3014 RMK AO2 SLP146 T02890028,M
CXP,2022-08-12 18:55,-119.7326,39.1923,1431.00,86.00,32.00,14.40,60.00,4.00,0.00,30.17,M,10.00,M,CLR,M,M,M,M,M,M,M,M,M,M,M,M,M,M,82.64,KCXP 121855Z AUTO 06004KT 10SM CLR 30/M00 A3017 RMK AO2,M
HTH,2022-08-12 18:55,-118.6315,38.5448,1282.89,86.00,32.00,14.40,40.00,6.00,0.00,30.12,M,10.00,M,CLR,M,M,M,M,M,M,M,M,M,M,M,M,M,M,82.64,KHTH 121855Z AUTO 04006KT 10SM CLR 30/00 A3012 RMK A01,M
BAM,2022-08-12 18:55,-116.8743,40.5990,1382.36,91.40,50.00,24.37,170.00,5.00,0.00,30.13,M,10.00,M,CLR,M,M,M,M,M,M,M,M,M,M,M,M,M,M,88.36,KBAM 121855Z AUTO 17005KT 10SM CLR 33/10 A3013 RMK AO1,M
MEV,2022-08-12 18:55,-119.7500,38.9963,1441.42,86.00,33.80,15.48,250.00,7.00,0.00,30.15,M,9.00,M,CLR,M,M,M,M,M,M,M,M,M,M,M,M,M,M,82.66,KMEV 121855Z AUTO 25007KT 9SM CLR 30/01 A3015 RMK AO2,M
TMT,2022-08-12 18:55,-117.1971,39.4643,1749.34,M,M,M,260.00,7.00,0.00,30.22,M,10.00,M,CLR,M,M,M,M,M,M,M,M,M,M,M,M,M,M,M,KTMT 121855Z AUTO 26007KT 10SM CLR A3022 RMK AO2,M
RTS,2022-08-12 18:55,-119.8764,39.6682,1539.00,80.60,30.20,15.94,M,4.00,0.00,30.20,M,10.00,M,CLR,M,M,M,M,M,M,M,M,M,M,M,M,M,M,78.77,KRTS 121855Z AUTO VRB04KT 10SM CLR 27/M01 A3020 RMK AO2,M
BVU,2022-08-12 18:55,-114.8611,35.9475,671.00,95.00,59.00,30.26,0.00,0.00,0.00,30.01,M,M,M,M,M,M,M,M,M,M,M,M,M,M,M,M,M,M,94.51,KBVU 121855Z AUTO 00000KT 35/15 A3001 RMK AO2 PWINO TSNO,M
NFL,2022-08-12 18:56,-118.7010,39.4166,1199.00,87.00,33.00,14.53,M,3.00,0.00,30.11,1016.10,10.00,M,FEW,M,M,M,18000.00,M,M,M,M,M,M,M,M,M,M,83.52,KNFL 121856Z COR VRB03KT 10SM FEW180 31/01 A3011 RMK AO2 SLP161 FU VC SW T03060006,M
WMC,2022-08-12 18:56,-117.8072,40.9019,1315.00,91.00,24.10,8.89,290.00,9.00,0.00,30.12,1014.20,10.00,15.00,CLR,M,M,M,M,M,M,M,M,M,M,M,M,M,M,85.86,KWMC 121856Z AUTO 29009G15KT 10SM CLR 33/M04 A3012 RMK AO2 SLP142 T03281044 $,M
HND,2022-08-12 18:56,-115.1344,35.9729,742.79,95.00,63.00,34.87,40.00,5.00,0.00,30.04,1015.80,10.00,M,CLR,M,M,M,M,M,M,M,M,M,M,M,M,M,M,96.44,KHND 121856Z 04005KT 10SM CLR 35/17 A3004 RMK AO2 LTG DSNT S SLP158 T03500172,M
EKO,2022-08-12 18:56,-115.7860,40.8242,1367.00,86.00,49.00,27.85,M,6.03,M,30.15,1014.70,10.00,M,FEW,M,M,M,11000.00,M,M,M,M,M,M,M,M,M,M,83.49,METAR KEKO 121856Z VRB06KT 10SM FEW110 30/09 A3015 RMK AO2 SLP147 T03000094 TSNO FIBI,M
LAS,2022-08-12 18:56,-115.1634,36.0719,663.00,93.00,61.00,34.57,0.00,0.00,0.00,30.01,1013.40,10.00,M,FEW,SCT,BKN,M,10000.00,14000.00,22000.00,M,M,M,M,M,M,M,M,93.20,KLAS 121856Z 00000KT 10SM FEW100 SCT140 BKN220 34/16 A3001 RMK AO2 LTG DSNT S SLP134 CB DSNT NE-SE-S AND NW TCU DSNT W T03390161 $,M
TPH,2022-08-12 18:56,-117.0904,38.0505,1654.00,88.00,43.00,20.82,200.00,11.00,0.00,30.21,1014.10,10.00,M,CLR,M,M,M,M,M,M,M,M,M,M,M,M,M,M,84.58,KTPH 121856Z AUTO 20011KT 10SM CLR 31/06 A3021 RMK AO2 SLP141 T03110061,M
INS,2022-08-12 18:58,-115.6733,36.5872,955.00,90.00,54.30,29.83,90.00,10.00,0.00,30.06,1012.70,10.00,M,FEW,SCT,M,M,10000.00,18000.00,M,M,M,M,M,M,M,M,M,87.89,KINS 121858Z AUTO 09010KT 10SM FEW100 SCT180 32/12 A3006 RMK AO2 LTG DSNT SE SLP127 T03220124,M
LSV,2022-08-12 18:58,-115.0343,36.2362,570.00,101.30,60.00,25.80,70.00,4.00,0.00,29.98,M,10.00,M,FEW,M,M,M,21000.00,M,M,M,M,M,M,M,M,M,M,102.04,KLSV 121858Z AUTO 07004KT 10SM FEW210 39/16 A2998 RMK AO2 SLPNO T03850155 $,M
ELY,2022-08-12 19:10,-114.8453,39.2950,1909.00,83.00,53.00,35.81,0.00,0.00,0.00,30.27,M,10.00,M,FEW,M,M,M,7000.00,M,M,M,VCTS,M,M,M,M,M,M,81.73,KELY 121910Z AUTO 00000KT 10SM VCTS FEW070 28/12 A3027 RMK AO2 LTG DSNT SE T02830117,M
BAM,2022-08-12 19:15,-116.8743,40.5990,1382.36,93.20,46.40,20.13,180.00,3.00,0.00,30.12,M,10.00,M,CLR,M,M,M,M,M,M,M,M,M,M,M,M,M,M,89.55,KBAM 121915Z AUTO 18003KT 10SM CLR 34/08 A3012 RMK AO1,M
HTH,2022-08-12 19:15,-118.6315,38.5448,1282.89,87.80,33.80,14.61,M,6.00,0.00,30.11,M,10.00,12.00,CLR,M,M,M,M,M,M,M,M,M,M,M,M,M,M,84.10,KHTH 121915Z AUTO VRB06G12KT 10SM CLR 31/01 A3011 RMK A01,M
MEV,2022-08-12 19:15,-119.7500,38.9963,1441.42,86.00,30.20,13.38,M,4.00,0.00,30.15,M,10.00,10.00,CLR,M,M,M,M,M,M,M,M,M,M,M,M,M,M,82.64,KMEV 121915Z AUTO VRB04G10KT 10SM CLR 30/M01 A3015 RMK AO2,M
RTS,2022-08-12 19:15,-119.8764,39.6682,1539.00,82.40,26.60,12.97,M,4.00,0.00,30.19,M,10.00,14.00,CLR,M,M,M,M,M,M,M,M,M,M,M,M,M,M,79.92,KRTS 121915Z AUTO VRB04G14KT 10SM CLR 28/M03 A3019 RMK AO2,M
CXP,2022-08-12 19:15,-119.7326,39.1923,1431.00,89.60,26.60,10.30,M,3.00,0.00,30.16,M,9.00,M,CLR,M,M,M,M,M,M,M,M,M,M,M,M,M,M,85.02,KCXP 121915Z AUTO VRB03KT 9SM CLR 32/M03 A3016 RMK AO2,M
BVU,2022-08-12 19:15,-114.8611,35.9475,671.00,98.60,59.00,27.10,M,3.00,0.00,29.99,M,M,M,M,M,M,M,M,M,M,M,M,M,M,M,M,M,M,98.52,KBVU 121915Z AUTO VRB03KT 37/15 A2999 RMK AO2 PWINO TSNO,M
TMT,2022-08-12 19:15,-117.1971,39.4643,1749.34,M,M,M,250.00,9.00,0.00,30.22,M,10.00,M,CLR,M,M,M,M,M,M,M,M,M,M,M,M,M,M,M,KTMT 121915Z AUTO 25009KT 10SM CLR A3022 RMK AO2,M
CXP,2022-08-12 19:35,-119.7326,39.1923,1431.00,91.40,28.40,10.48,170.00,6.00,0.00,30.15,M,10.00,M,CLR,M,M,M,M,M,M,M,M,M,M,M,M,M,M,86.53,KCXP 121935Z AUTO 17006KT 10SM CLR 33/M02 A3015 RMK AO2,M
TMT,2022-08-12 19:35,-117.1971,39.4643,1749.34,M,M,M,270.00,8.00,0.00,30.21,M,10.00,M,CLR,M,M,M,M,M,M,M,M,M,M,M,M,M,M,M,KTMT 121935Z AUTO 27008KT 10SM CLR A3021 RMK AO2,M
HTH,2022-08-12 19:35,-118.6315,38.5448,1282.89,87.80,33.80,14.61,320.00,8.00,0.00,30.10,M,10.00,M,CLR,M,M,M,M,M,M,M,M,M,M,M,M,M,M,84.10,KHTH 121935Z AUTO 32008KT 10SM CLR 31/01 A3010 RMK A01,M
BVU,2022-08-12 19:35,-114.8611,35.9475,671.00,96.80,59.00,28.63,0.00,0.00,0.00,29.98,M,M,M,M,M,M,M,M,M,M,M,M,M,M,M,M,M,M,96.50,KBVU 121935Z AUTO 00000KT 36/15 A2998 RMK AO2 PWINO TSNO,M
BAM,2022-08-12 19:35,-116.8743,40.5990,1382.36,91.40,44.60,19.89,240.00,9.00,0.00,30.12,M,10.00,14.00,CLR,M,M,M,M,M,M,M,M,M,M,M,M,M,M,87.68,KBAM 121935Z AUTO 24009G14KT 230V360 10SM CLR 33/07 A3012 RMK AO1,M
MEV,2022-08-12 19:35,-119.7500,38.9963,1441.42,86.00,32.00,14.40,0.00,0.00,0.00,30.14,M,9.00,10.00,CLR,M,M,M,M,M,M,M,M,M,M,M,M,M,M,82.64,KMEV 121935Z AUTO 00000G10KT 9SM CLR 30/M00 A3014 RMK AO2,M
RTS,2022-08-12 19:35,-119.8764,39.6682,1539.00,86.00,19.40,8.53,260.00,11.00,0.00,30.19,M,10.00,M,CLR,M,M,M,M,M,M,M,M,M,M,M,M,M,M,81.94,KRTS 121935Z AUTO 26011KT 10SM CLR 30/M07 A3019 RMK AO2,M
VGT,2022-08-12 19:46,-115.1933,36.2111,667.00,97.00,60.00,29.60,0.00,0.00,0.00,29.98,M,10.00,M,CLR,M,M,M,M,M,M,M,TS,M,M,M,M,M,M,97.22,KVGT 121946Z 00000KT 10SM TS CLR 36/16 A2998 RMK AO2 LTG DSNT SE AND W TSB40 T03610156,M
LAS,2022-08-12 19:46,-115.1634,36.0719,663.00,95.00,62.00,33.79,0.00,0.00,0.00,29.99,M,10.00,M,FEW,SCT,BKN,M,10000.00,14000.00,22000.00,M,VCTS,M,M,M,M,M,M,95.95,KLAS 121946Z 00000KT 10SM VCTS FEW100 SCT140 BKN220 35/17 A2999 RMK AO2 LTG DSNT SE AND NW TSE40 CB DSNT NE-SE-S AND NW TCU DSNT W T03500167 $,M
ELY,2022-08-12 19:50,-114.8453,39.2950,1909.00,80.60,51.80,36.79,330.00,6.00,0.00,30.25,M,10.00,M,FEW,M,M,M,7500.00,M,M,M,M,M,M,M,M,M,M,80.08,KELY 121950Z AUTO 33006KT 10SM FEW075 27/11 A3025 RMK AO2 LTG DSNT NW,M
ELY,2022-08-12 19:53,-114.8453,39.2950,1909.00,81.00,51.00,35.38,M,4.00,0.00,30.25,1013.90,10.00,M,FEW,M,M,M,7500.00,M,M,M,M,M,M,M,M,M,M,80.23,KELY 121953Z AUTO VRB04KT 10SM FEW075 27/11 A3025 RMK AO2 LTG DSNT SE AND NW SLP139 T02720106,M
LOL,2022-08-12 19:53,-118.5701,40.0684,1192.43,91.00,28.90,10.84,M,4.00,0.00,30.08,1013.70,10.00,M,CLR,M,M,M,M,M,M,M,M,M,M,M,M,M,M,86.27,KLOL 121953Z AUTO VRB04KT 10SM CLR 33/M02 A3008 RMK AO2 SLP137 T03281017,M
P68,2022-08-12 19:53,-116.0056,39.6014,1993.00,86.00,44.00,23.14,200.00,7.00,0.00,30.20,1012.80,M,M,M,M,M,M,M,M,M,M,M,M,M,M,M,M,M,83.04,KP68 121953Z AUTO 20007KT 30/07 A3020 RMK AO1 SLP128 T03000067,M
DRA,2022-08-12 19:53,-116.0278,36.6206,1009.00,93.00,55.00,27.87,120.00,13.00,0.00,30.04,1011.60,10.00,20.00,FEW,M,M,M,10000.00,M,M,M,M,M,M,M,M,M,M,91.03,KDRA 121953Z AUTO 12013G20KT 10SM FEW100 34/13 A3004 RMK AO2 SLP116 T03390128,M
VGT,2022-08-12 19:53,-115.1933,36.2111,667.00,97.00,60.00,29.60,M,M,0.00,29.98,1013.90,10.00,M,CLR,M,M,M,M,M,M,M,TS,M,M,M,M,M,M,97.22,KVGT 121953Z 10SM TS CLR 36/16 A2998 RMK AO2 LTG DSNT SE AND W TSB40 SLP139 T03610156,M
CXP,2022-08-12 19:55,-119.7326,39.1923,1431.00,89.60,28.40,11.09,M,4.00,0.00,30.15,M,10.00,10.00,CLR,M,M,M,M,M,M,M,M,M,M,M,M,M,M,85.17,KCXP 121955Z AUTO VRB04G10KT 10SM CLR 32/M02 A3015 RMK AO2,M
RTS,2022-08-12 19:55,-119.8764,39.6682,1539.00,86.00,19.40,8.53,270.00,8.00,0.00,30.19,M,10.00,17.00,CLR,M,M,M,M,M,M,M,M,M,M,M,M,M,M,81.94,KRTS 121955Z AUTO 27008G17KT 10SM CLR 30/M07 A3019 RMK AO2,M
TMT,2022-08-12 19:55,-117.1971,39.4643,1749.34,M,M,M,250.00,6.00,0.00,30.21,M,10.00,M,CLR,M,M,M,M,M,M,M,M,M,M,M,M,M,M,M,KTMT 121955Z AUTO 25006KT 10SM CLR A3021 RMK AO2,M
RNO,2022-08-12 19:55,-119.7711,39.4839,1341.00,90.00,35.00,14.36,M,3.00,0.00,30.12,1013.70,10.00,M,CLR,M,M,M,M,M,M,M,M,M,M,M,M,M,M,85.95,KRNO 121955Z VRB03KT 10SM CLR 32/02 A3012 RMK AO2 SLP137 T03220017,M
HTH,2022-08-12 19:55,-118.6315,38.5448,1282.89,87.80,33.80,14.61,M,4.00,0.00,30.09,M,10.00,11.00,CLR,M,M,M,M,M,M,M,M,M,M,M,M,M,M,84.10,KHTH 121955Z AUTO VRB04G11KT 10SM CLR 31/01 A3009 RMK A01,M
BAM,2022-08-12 19:55,-116.8743,40.5990,1382.36,95.00,46.40,19.04,280.00,5.00,0.00,30.11,M,10.00,M,CLR,M,M,M,M,M,M,M,M,M,M,M,M,M,M,91.29,KBAM 121955Z AUTO 28005KT 10SM CLR 35/08 A3011 RMK AO1,M
MEV,2022-08-12 19:55,-119.7500,38.9963,1441.42,89.60,30.20,11.94,270.00,7.00,0.00,30.14,M,10.00,M,CLR,M,M,M,M,M,M,M,M,M,M,M,M,M,M,85.34,KMEV 121955Z AUTO 27007KT 10SM CLR 32/M01 A3014 RMK AO2,M
BVU,2022-08-12 19:55,-114.8611,35.9475,671.00,98.60,59.00,27.10,M,5.00,0.00,29.98,M,M,M,M,M,M,M,M,M,M,M,M,M,M,M,M,M,M,98.52,KBVU 121955Z AUTO VRB05KT 37/15 A2998 RMK AO2 PWINO TSNO,M
EKO,2022-08-12 19:56,-115.7860,40.8242,1367.00,85.00,49.00,28.74,M,3.00,0.00,30.14,1014.40,10.00,M,BKN,BKN,M,M,9000.00,11000.00,M,M,M,M,M,M,M,M,M,82.63,KEKO 121956Z AUTO VRB03KT 10SM BKN090 BKN110 29/09 A3014 RMK AO2 SLP144 T02940094,M
WMC,2022-08-12 19:56,-117.8072,40.9019,1315.00,92.00,26.10,9.39,0.00,0.00,0.00,30.10,1013.90,10.00,M,CLR,M,M,M,M,M,M,M,M,M,M,M,M,M,M,86.69,KWMC 121956Z AUTO 00000KT 10SM CLR 33/M03 A3010 RMK AO2 SLP139 T03331033 $,M
NFL,2022-08-12 19:56,-118.7010,39.4166,1199.00,90.00,32.00,12.68,M,4.00,0.00,30.08,1015.50,10.00,M,FEW,M,M,M,18000.00,M,M,M,M,M,M,M,M,M,M,85.84,KNFL 121956Z VRB04KT 10SM FEW180 32/00 A3008 RMK AO2 SLP155 FU VC SW T03220000,M
HND,2022-08-12 19:56,-115.1344,35.9729,742.79,95.00,61.00,32.50,210.00,7.00,0.00,30.03,1015.20,10.00,M,CLR,M,M,M,M,M,M,M,M,M,M,M,M,M,M,95.40,KHND 121956Z 21007KT 10SM CLR 35/16 A3003 RMK AO2 LTG DSNT SE AND NW SLP152 T03500161,M
LAS,2022-08-12 19:56,-115.1634,36.0719,663.00,95.00,62.00,33.79,M,3.00,0.00,29.99,1012.70,10.00,M,FEW,SCT,BKN,M,10000.00,14000.00,22000.00,M,M,M,M,M,M,M,M,95.95,KLAS 121956Z VRB03KT 10SM FEW100 SCT140 BKN220 35/17 A2999 RMK AO2 LTG DSNT SE AND NW TSE40 SLP127 CB DSNT ALQDS T03500167 $,M
TPH,2022-08-12 19:56,-117.0904,38.0505,1654.00,88.00,38.00,17.08,170.00,8.00,0.00,30.20,1013.70,10.00,21.00,CLR,M,M,M,M,M,M,M,M,M,M,M,M,M,M,84.34,KTPH 121956Z AUTO 17008G21KT 10SM CLR 31/03 A3020 RMK AO2 SLP137 T03110033,M
LSV,2022-08-12 19:58,-115.0343,36.2362,570.00,104.00,60.00,23.80,0.00,0.00,0.00,29.95,M,10.00,M,CLR,M,M,M,M,M,M,M,M,M,M,M,M,M,M,105.15,KLSV 121958Z AUTO 00000KT 10SM CLR 40/16 A2995 RMK AO2 SLPNO T04000155 $,M
INS,2022-08-12 19:58,-115.6733,36.5872,955.00,91.20,48.20,22.93,190.00,14.00,0.00,30.04,1011.80,10.00,M,FEW,BKN,M,M,13000.00,16000.00,M,M,M,M,M,M,M,M,M,87.91,KINS 121958Z AUTO 19014KT 10SM FEW130 BKN160 33/09 A3004 RMK AO2 SLP118 T03290090,M
VGT,2022-08-12 20:01,-115.1933,36.2111,667.00,96.00,60.00,30.43,M,M,0.00,29.98,M,10.00,M,CLR,M,M,M,M,M,M,M,M,M,M,M,M,M,M,96.21,KVGT 122001Z 10SM CLR 36/16 A2998 RMK AO2 LTG DSNT SE AND W TSE1955 T03560156,M
ELY,2022-08-12 20:01,-114.8453,39.2950,1909.00,81.00,51.00,35.38,0.00,0.00,0.00,30.25,M,10.00,M,BKN,M,M,M,7000.00,M,M,M,VCTS,M,M,M,M,M,M,80.23,KELY 122001Z AUTO 00000KT 10SM VCTS BKN070 27/11 A3025 RMK AO2 LTG DSNT SE AND S AND NW T02720106,M
CXP,2022-08-12 20:15,-119.7326,39.1923,1431.00,89.60,30.20,11.94,310.00,5.00,0.00,30.15,M,10.00,11.00,CLR,M,M,M,M,M,M,M,M,M,M,M,M,M,M,85.34,KCXP 122015Z AUTO 31005G11KT 10SM CLR 32/M01 A3015 RMK AO2,M
BVU,2022-08-12 20:15,-114.8611,35.9475,671.00,93.20,60.80,34.11,200.00,19.00,0.00,29.98,M,M,M,M,M,M,M,M,M,M,M,M,M,M,M,M,M,M,93.32,KBVU 122015Z AUTO 20019KT 34/16 A2998 RMK AO2 PWINO TSNO,M
RTS,2022-08-12 20:15,-119.8764,39.6682,1539.00,86.00,17.60,7.90,280.00,8.00,0.00,30.18,M,10.00,M,CLR,M,M,M,M,M,M,M,M,M,M,M,M,M,M,81.85,KRTS 122015Z AUTO 28008KT 250V310 10SM CLR 30/M08 A3018 RMK AO2,M
MEV,2022-08-12 20:15,-119.7500,38.9963,1441.42,89.60,30.20,11.94,280.00,7.00,0.00,30.13,M,10.00,13.00,CLR,M,M,M,M,M,M,M,M,M,M,M,M,M,M,85.34,KMEV 122015Z AUTO 28007G13KT 250V310 10SM CLR 32/M01 A3013 RMK AO2,M
BAM,2022-08-12 20:15,-116.8743,40.5990,1382.36,95.00,44.60,17.78,210.00,10.00,0.00,30.10,M,10.00,M,CLR,M,M,M,M,M,M,M,M,M,M,M,M,M,M,91.06,KBAM 122015Z AUTO 21010KT 10SM CLR 35/07 A3010 RMK AO1,M
HTH,2022-08-12 20:15,-118.6315,38.5448,1282.89,89.60,33.80,13.80,340.00,10.00,0.00,30.09,M,10.00,15.00,CLR,M,M,M,M,M,M,M,M,M,M,M,M,M,M,85.59,KHTH 122015Z AUTO 34010G15KT 300V010 10SM CLR 32/01 A3009 RMK A01,M
TMT,2022-08-12 20:15,-117.1971,39.4643,1749.34,M,M,M,260.00,8.00,0.00,30.21,M,10.00,15.00,CLR,M,M,M,M,M,M,M,M,M,M,M,M,M,M,M,KTMT 122015Z AUTO 26008G15KT 10SM CLR A3021 RMK AO2,M
ELY,2022-08-12 20:16,-114.8453,39.2950,1909.00,80.00,52.00,36.79,210.00,9.00,0.00,30.25,M,10.00,M,BKN,M,M,M,7500.00,M,M,M,M,M,M,M,M,M,M,80.08,KELY 122016Z AUTO 21009KT 10SM BKN075 27/11 A3025 RMK AO2 LTG DSNT SE AND S AND NW T02670111,M
TMT,2022-08-12 20:35,-117.1971,39.4643,1749.34,M,M,M,250.00,8.00,0.00,30.20,M,10.00,M,CLR,M,M,M,M,M,M,M,M,M,M,M,M,M,M,M,KTMT 122035Z AUTO 25008KT 10SM CLR A3020 RMK AO2 LTG DSNT E,M
BVU,2022-08-12 20:35,-114.8611,35.9475,671.00,86.00,68.00,55.04,160.00,12.00,0.00,29.99,M,M,22.00,M,M,M,M,M,M,M,M,M,M,M,M,M,M,M,89.41,KBVU 122035Z AUTO 16012G22KT 30/20 A2999 RMK AO2 PWINO TSNO,M
CXP,2022-08-12 20:35,-119.7326,39.1923,1431.00,91.40,28.40,10.48,190.00,9.00,0.00,30.14,M,10.00,M,CLR,M,M,M,M,M,M,M,M,M,M,M,M,M,M,86.53,KCXP 122035Z AUTO 19009KT 160V220 10SM CLR 33/M02 A3014 RMK AO2,M
RTS,2022-08-12 20:35,-119.8764,39.6682,1539.00,86.00,19.40,8.53,250.00,7.00,0.00,30.18,M,10.00,16.00,CLR,M,M,M,M,M,M,M,M,M,M,M,M,M,M,81.94,KRTS 122035Z AUTO 25007G16KT 210V290 10SM CLR 30/M07 A3018 RMK AO2,M
MEV,2022-08-12 20:35,-119.7500,38.9963,1441.42,89.60,30.20,11.94,270.00,6.00,0.00,30.13,M,10.00,14.00,CLR,M,M,M,M,M,M,M,M,M,M,M,M,M,M,85.34,KMEV 122035Z AUTO 27006G14KT 10SM CLR 32/M01 A3013 RMK AO2,M
BAM,2022-08-12 20:35,-116.8743,40.5990,1382.36,96.80,44.60,16.83,240.00,9.00,0.00,30.09,M,10.00,15.00,CLR,M,M,M,M,M,M,M,M,M,M,M,M,M,M,92.79,KBAM 122035Z AUTO 24009G15KT 10SM CLR 36/07 A3009 RMK AO1,M
HTH,2022-08-12 20:35,-118.6315,38.5448,1282.89,91.40,33.80,13.05,330.00,8.00,0.00,30.08,M,10.00,M,CLR,M,M,M,M,M,M,M,M,M,M,M,M,M,M,87.13,KHTH 122035Z AUTO 33008KT 10SM CLR 33/01 A3008 RMK A01,M
LSV,2022-08-12 20:37,-115.0343,36.2362,570.00,105.80,60.80,23.29,20.00,17.00,0.00,29.94,M,10.00,28.00,FEW,SCT,M,M,10000.00,20000.00,M,M,M,M,M,M,M,M,M,107.75,KLSV 122037Z AUTO 02017G28KT 10SM FEW100 SCT200 41/16 A2994 RMK AO2 WSHFT 35 LTG DSNT N SLPNO $,M
VGT,2022-08-12 20:53,-115.1933,36.2111,667.00,98.00,60.00,28.62,320.00,5.00,0.00,29.96,1013.20,10.00,M,SCT,M,M,M,9500.00,M,M,M,M,M,M,M,M,M,M,98.47,KVGT 122053Z 32005KT 10SM SCT095 37/16 A2996 RMK AO2 LTG DSNT ALQDS TSE1955 SLP132 T03670156 58016,M
P68,2022-08-12 20:53,-116.0056,39.6014,1993.00,85.00,45.00,24.81,190.00,3.00,0.00,30.20,1013.10,M,M,M,M,M,M,M,M,M,M,M,M,M,M,M,M,M,82.27,KP68 122053Z AUTO 19003KT 29/07 A3020 RMK AO1 SLP131 T02940072 56010,M
DRA,2022-08-12 20:53,-116.0278,36.6206,1009.00,94.00,52.00,24.28,110.00,6.00,0.00,30.02,1011.00,10.00,M,CLR,M,M,M,M,M,M,M,M,M,M,M,M,M,M,91.19,KDRA 122053Z AUTO 11006KT 10SM CLR 34/11 A3002 RMK AO2 SLP110 T03440111 58015,M
ELY,2022-08-12 20:53,-114.8453,39.2950,1909.00,78.00,52.00,40.23,190.00,8.00,0.00,30.27,1015.10,10.00,M,SCT,M,M,M,8000.00,M,M,M,M,M,M,M,M,M,M,78.10,KELY 122053Z AUTO 19008KT 10SM SCT080 26/11 A3027 RMK AO2 LTG DSNT SW AND NW SLP151 T02560111 55003,M
LOL,2022-08-12 20:53,-118.5701,40.0684,1192.43,94.00,30.90,10.74,230.00,12.00,0.00,30.06,1013.10,10.00,16.00,CLR,M,M,M,M,M,M,M,M,M,M,M,M,M,M,88.71,KLOL 122053Z AUTO 23012G16KT 10SM CLR 34/M01 A3006 RMK AO2 SLP131 T03441006 58013,M
RTS,2022-08-12 20:55,-119.8764,39.6682,1539.00,86.00,19.40,8.53,280.00,10.00,0.00,30.17,M,10.00,19.00,CLR,M,M,M,M,M,M,M,M,M,M,M,M,M,M,81.94,KRTS 122055Z AUTO 28010G19KT 10SM CLR 30/M07 A3017 RMK AO2,M
RNO,2022-08-12 20:55,-119.7711,39.4839,1341.00,91.00,33.00,12.85,330.00,4.00,0.00,30.10,1013.00,10.00,M,CLR,M,M,M,M,M,M,M,M,M,M,M,M,M,M,86.74,KRNO 122055Z 33004KT 10SM CLR 33/01 A3010 RMK AO2 SLP130 T03280006 58017,M
BVU,2022-08-12 20:55,-114.8611,35.9475,671.00,91.40,64.40,40.96,0.00,0.00,0.00,29.98,M,M,M,M,M,M,M,M,M,M,M,M,M,M,M,M,M,M,93.19,KBVU 122055Z AUTO 00000KT 33/18 A2998 RMK AO2 PWINO TSNO,M
CXP,2022-08-12 20:55,-119.7326,39.1923,1431.00,91.40,28.40,10.48,270.00,8.00,0.00,30.14,M,10.00,17.00,CLR,M,M,M,M,M,M,M,M,M,M,M,M,M,M,86.53,KCXP 122055Z AUTO 27008G17KT 10SM CLR 33/M02 A3014 RMK AO2,M
TMT,2022-08-12 20:55,-117.1971,39.4643,1749.34,M,M,M,270.00,9.00,0.00,30.20,M,10.00,M,CLR,M,M,M,M,M,M,M,M,M,M,M,M,M,M,M,KTMT 122055Z AUTO 27009KT 10SM CLR A3020 RMK AO2,M
HTH,2022-08-12 20:55,-118.6315,38.5448,1282.89,91.40,33.80,13.05,320.00,7.00,0.00,30.07,M,10.00,M,CLR,M,M,M,M,M,M,M,M,M,M,M,M,M,M,87.13,KHTH 122055Z AUTO 32007KT 300V360 10SM CLR 33/01 A3007 RMK A01,M
BAM,2022-08-12 20:55,-116.8743,40.5990,1382.36,96.80,44.60,16.83,230.00,9.00,0.00,30.08,M,10.00,21.00,CLR,M,M,M,M,M,M,M,M,M,M,M,M,M,M,92.79,KBAM 122055Z AUTO 23009G21KT 190V250 10SM CLR 36/07 A3008 RMK AO1,M
MEV,2022-08-12 20:55,-119.7500,38.9963,1441.42,89.60,30.20,11.94,270.00,10.00,0.00,30.13,M,10.00,15.00,CLR,M,M,M,M,M,M,M,M,M,M,M,M,M,M,85.34,KMEV 122055Z AUTO 27010G15KT 10SM CLR 32/M01 A3013 RMK AO2,M
EKO,2022-08-12 20:56,-115.7860,40.8242,1367.00,86.00,47.00,25.74,M,3.00,0.00,30.12,1013.70,10.00,M,CLR,M,M,M,M,M,M,M,M,M,M,M,M,M,M,83.27,KEKO 122056Z AUTO VRB03KT 10SM CLR 30/08 A3012 RMK AO2 SLP137 T03000083 58015,M
HND,2022-08-12 20:56,-115.1344,35.9729,742.79,94.00,61.00,33.62,0.00,0.00,0.00,30.01,1014.60,10.00,M,CLR,M,M,M,M,M,M,M,M,M,M,M,M,M,M,94.18,KHND 122056Z 00000KT 10SM CLR 34/16 A3001 RMK AO2 LTG DSNT NW-E SLP146 T03440161 58017,M
TPH,2022-08-12 20:56,-117.0904,38.0505,1654.00,91.00,36.00,14.42,210.00,16.00,0.00,30.18,1012.90,10.00,22.00,CLR,M,M,M,M,M,M,M,M,M,M,M,M,M,M,86.83,KTPH 122056Z AUTO 21016G22KT 10SM CLR 33/02 A3018 RMK AO2 SLP129 T03280022 58015,M
LAS,2022-08-12 20:56,-115.1634,36.0719,663.00,94.00,60.00,32.56,0.00,0.00,0.00,29.97,1012.00,10.00,M,SCT,SCT,BKN,M,10000.00,14000.00,22000.00,M,M,M,M,M,M,M,M,93.77,KLAS 122056Z 00000KT 10SM SCT100CB SCT140 BKN220 34/16 A2997 RMK AO2 LTG DSNT NW-E SLP120 CB VC N-E MOV N VCSH NE-E CB DSNT ALQDS T03440156 58018 $,M
WMC,2022-08-12 20:56,-117.8072,40.9019,1315.00,94.00,30.00,10.36,260.00,11.00,0.00,30.08,1012.80,10.00,16.00,CLR,M,M,M,M,M,M,M,M,M,M,M,M,M,M,88.60,KWMC 122056Z AUTO 26011G16KT 10SM CLR 34/M01 A3008 RMK AO2 SLP128 T03441011 58013 $,M
NFL,2022-08-12 20:56,-118.7010,39.4166,1199.00,93.00,35.00,13.07,50.00,5.00,0.00,30.07,1015.00,10.00,M,FEW,FEW,M,M,9000.00,18000.00,M,M,M,M,M,M,M,M,M,88.56,KNFL 122056Z 05005KT 10SM FEW090 FEW180 34/02 A3007 RMK AO2 SLP150 FU VC SW T03390017 58016,M
INS,2022-08-12 20:58,-115.6733,36.5872,955.00,90.50,47.70,23.00,180.00,12.00,0.00,30.03,1011.60,10.00,M,BKN,OVC,M,M,10000.00,13000.00,M,M,M,M,M,M,M,M,M,87.19,KINS 122058Z AUTO 18012KT 10SM BKN100 OVC130 33/09 A3003 RMK AO2 LTG DSNT E SLP116 T03250087 58010,M
LSV,2022-08-12 20:58,-115.0343,36.2362,570.00,100.60,61.50,27.89,40.00,27.00,0.00,29.93,M,10.00,33.00,FEW,FEW,M,M,9000.00,19000.00,M,M,M,M,M,M,M,M,M,102.09,KLSV 122058Z AUTO 04027G33KT 10SM FEW090 FEW190 38/16 A2993 RMK AO2 LTG DSNT N-E AND S-SW SLPNO T03810164 57019 $,M
LSV,2022-08-12 20:59,-115.0343,36.2362,570.00,100.40,62.60,29.17,40.00,28.00,0.00,29.93,M,5.00,33.00,FEW,FEW,M,M,9000.00,19000.00,M,M,BLDU VCTS,M,M,M,M,M,M,102.50,KLSV 122059Z 04028G33KT 5SM BLDU VCTS FEW090 FEW190 38/17 A2993 RMK LTG DSNT N-E AND S-SW SLPNO $,M
CXP,2022-08-12 21:15,-119.7326,39.1923,1431.00,89.60,30.20,11.94,280.00,12.00,0.00,30.14,M,10.00,17.00,CLR,M,M,M,M,M,M,M,M,M,M,M,M,M,M,85.34,KCXP 122115Z AUTO 28012G17KT 10SM CLR 32/M01 A3014 RMK AO2,M
BVU,2022-08-12 21:15,-114.8611,35.9475,671.00,91.40,62.60,38.45,30.00,7.00,0.00,29.97,M,M,12.00,M,M,M,M,M,M,M,M,M,M,M,M,M,M,M,92.23,KBVU 122115Z AUTO 03007G12KT 33/17 A2997 RMK AO2 PWINO TSNO,M
RTS,2022-08-12 21:15,-119.8764,39.6682,1539.00,87.80,21.20,8.70,260.00,12.00,0.00,30.17,M,10.00,20.00,CLR,M,M,M,M,M,M,M,M,M,M,M,M,M,M,83.33,KRTS 122115Z AUTO 26012G20KT 10SM CLR 31/M06 A3017 RMK AO2,M
MEV,2022-08-12 21:15,-119.7500,38.9963,1441.42,91.40,32.00,12.14,290.00,11.00,0.00,30.12,M,10.00,M,CLR,M,M,M,M,M,M,M,M,M,M,M,M,M,M,86.91,KMEV 122115Z AUTO 29011KT 10SM CLR 33/M00 A3012 RMK AO2,M
BAM,2022-08-12 21:15,-116.8743,40.5990,1382.36,96.80,44.60,16.83,210.00,9.00,0.00,30.08,M,10.00,22.00,CLR,M,M,M,M,M,M,M,M,M,M,M,M,M,M,92.79,KBAM 122115Z AUTO 21009G22KT 10SM CLR 36/07 A3008 RMK AO1,M
HTH,2022-08-12 21:15,-118.6315,38.5448,1282.89,91.40,33.80,13.05,M,3.00,0.00,30.06,M,10.00,M,CLR,M,M,M,M,M,M,M,M,M,M,M,M,M,M,87.13,KHTH 122115Z AUTO VRB03KT 10SM CLR 33/01 A3006 RMK A01,M
TMT,2022-08-12 21:15,-117.1971,39.4643,1749.34,M,M,M,270.00,9.00,0.00,30.19,M,10.00,14.00,CLR,M,M,M,M,M,M,M,M,M,M,M,M,M,M,M,KTMT 122115Z AUTO 27009G14KT 10SM CLR A3019 RMK AO2,M
ELY,2022-08-12 21:17,-114.8453,39.2950,1909.00,79.00,53.00,40.67,190.00,7.00,0.00,30.25,M,10.00,M,FEW,M,M,M,8000.00,M,M,M,VCTS,M,M,M,M,M,M,79.00,KELY 122117Z AUTO 19007KT 10SM VCTS FEW080 26/12 A3025 RMK AO2 LTG DSNT N AND S T02610117,M
VGT,2022-08-12 21:20,-115.1933,36.2111,667.00,98.00,59.00,27.52,340.00,6.00,0.00,29.97,M,10.00,M,SCT,M,M,M,10000.00,M,M,M,TS,M,M,M,M,M,M,97.96,KVGT 122120Z 34006KT 10SM TS SCT100 37/15 A2997 RMK AO2 LTG DSNT N-SE TSB14 T03670150,M
LSV,2022-08-12 21:24,-115.0343,36.2362,570.00,95.00,62.60,34.39,40.00,20.00,0.00,29.96,M,9.00,M,FEW,BKN,M,M,5000.00,9000.00,M,M,+RA,M,M,M,M,M,M,96.22,KLSV 122124Z AUTO 04020KT 9SM +RA FEW050 BKN090 35/17 A2996 RMK AO2 LTG DSNT SE RAB24 PRESRR SLPNO $,M
LSV,2022-08-12 21:26,-115.0343,36.2362,570.00,93.20,62.60,36.35,40.00,16.00,0.00,29.97,M,7.00,M,FEW,BKN,M,M,5000.00,9000.00,M,M,+TSRA,M,M,M,M,M,M,94.20,KLSV 122126Z AUTO 04016KT 7SM +TSRA FEW050 BKN090 34/17 A2997 RMK AO2 RAB24 TSB26 SLPNO $,M
RTS,2022-08-12 21:35,-119.8764,39.6682,1539.00,87.80,19.40,8.06,240.00,12.00,0.00,30.16,M,10.00,19.00,CLR,M,M,M,M,M,M,M,M,M,M,M,M,M,M,83.23,KRTS 122135Z AUTO 24012G19KT 10SM CLR 31/M07 A3016 RMK AO2,M
TMT,2022-08-12 21:35,-117.1971,39.4643,1749.34,M,M,M,250.00,7.00,0.00,30.19,M,10.00,M,CLR,M,M,M,M,M,M,M,M,M,M,M,M,M,M,M,KTMT 122135Z AUTO 25007KT 10SM CLR A3019 RMK AO2 LTG DSNT SE,M
BVU,2022-08-12 21:35,-114.8611,35.9475,671.00,89.60,66.20,46.14,40.00,21.00,0.00,29.98,M,M,29.00,M,M,M,M,M,M,M,M,M,M,M,M,M,M,M,92.27,KBVU 122135Z AUTO 04021G29KT 32/19 A2998 RMK AO2 PWINO TSNO,M
CXP,2022-08-12 21:35,-119.7326,39.1923,1431.00,89.60,30.20,11.94,280.00,13.00,0.00,30.13,M,10.00,22.00,CLR,M,M,M,M,M,M,M,M,M,M,M,M,M,M,85.34,KCXP 122135Z AUTO 28013G22KT 10SM CLR 32/M01 A3013 RMK AO2,M
MEV,2022-08-12 21:35,-119.7500,38.9963,1441.42,91.40,30.20,11.28,280.00,12.00,0.00,30.12,M,10.00,M,CLR,M,M,M,M,M,M,M,M,M,M,M,M,M,M,86.71,KMEV 122135Z AUTO 28012KT 10SM CLR 33/M01 A3012 RMK AO2,M
VGT,2022-08-12 21:35,-115.1933,36.2111,667.00,94.00,62.00,34.95,30.00,15.00,0.00,29.97,M,10.00,30.00,BKN,M,M,M,10000.00,M,M,M,VCTS,M,M,M,30.00,40.00,2022-08-12 21:32,94.72,KVGT 122135Z 03015G30KT 10SM VCTS BKN100 34/17 A2997 RMK AO2 PK WND 04030/2132 LTG DSNT N-SE TSB14E29 T03440167,M
HTH,2022-08-12 21:35,-118.6315,38.5448,1282.89,93.20,33.80,12.34,M,6.00,0.00,30.05,M,10.00,12.00,CLR,M,M,M,M,M,M,M,M,M,M,M,M,M,M,88.55,KHTH 122135Z AUTO VRB06G12KT 10SM CLR 34/01 A3005 RMK A01,M
BAM,2022-08-12 21:35,-116.8743,40.5990,1382.36,96.80,42.80,15.71,230.00,13.00,0.00,30.08,M,10.00,17.00,CLR,M,M,M,M,M,M,M,M,M,M,M,M,M,M,92.57,KBAM 122135Z AUTO 23013G17KT 10SM CLR 36/06 A3008 RMK AO1,M
LSV,2022-08-12 21:37,-115.0343,36.2362,570.00,86.00,69.80,58.55,30.00,16.00,0.00,29.98,M,6.00,M,SCT,BKN,BKN,M,3600.00,4600.00,9500.00,M,+TSRA,M,M,M,M,M,M,90.58,KLSV 122137Z 03016KT 6SM +TSRA SCT036 BKN046 BKN095 30/21 A2998 RMK AO2A RAB24 TSB26 SLPNO $,M
LSV,2022-08-12 21:38,-115.0343,36.2362,570.00,84.20,69.80,62.03,40.00,14.00,0.00,29.98,M,6.00,M,SCT,SCT,BKN,M,3600.00,4600.00,9500.00,M,+TSRA,M,M,M,M,M,M,88.43,KLSV 122138Z 04014KT 6SM +TSRA SCT036 SCT046 BKN095 29/21 A2998 RMK AO2A RAB24 TSB26 SLPNO $,M
LSV,2022-08-12 21:41,-115.0343,36.2362,570.00,84.20,69.80,62.03,70.00,10.00,0.00,29.99,M,6.00,M,FEW,SCT,BKN,M,3500.00,4600.00,9500.00,M,+TSRA,M,M,M,M,M,M,88.43,KLSV 122141Z AUTO 07010KT 6SM +TSRA FEW035 SCT046 BKN095 29/21 A2999 RMK AO2 WSHFT 32 RAB24 TSB26 SLPNO $,M
LSV,2022-08-12 21:42,-115.0343,36.2362,570.00,84.20,69.80,62.03,80.00,10.00,0.00,29.99,M,6.00,M,FEW,SCT,BKN,M,3500.00,4600.00,9500.00,M,VCTS +RA,M,M,M,M,M,M,88.43,KLSV 122142Z AUTO 08010KT 6SM VCTS +RA FEW035 SCT046 BKN095 29/21 A2999 RMK AO2 RAB24 TSB26E42 SLPNO $,M
LSV,2022-08-12 21:46,-115.0343,36.2362,570.00,82.40,71.60,69.90,100.00,12.00,0.00,29.99,M,5.00,20.00,FEW,SCT,SCT,M,3500.00,4600.00,8500.00,M,-TSRA,M,M,M,M,M,M,87.18,KLSV 122146Z AUTO 10012G20KT 5SM -TSRA FEW035 SCT046 SCT085 28/22 A2999 RMK AO2 RAB24 TSB26E42TSB46 SLPNO $,M
LSV,2022-08-12 21:48,-115.0343,36.2362,570.00,82.40,69.80,65.74,120.00,20.00,0.00,29.99,M,5.00,24.00,FEW,SCT,M,M,3500.00,4600.00,M,M,-TSRA,M,M,M,M,M,M,86.22,KLSV 122148Z AUTO 12020G24KT 5SM -TSRA FEW035 SCT046 28/21 A2999 RMK AO2 WSHFT 44 RAB24 TSB26E42TSB46 SLPNO $,M
LAS,2022-08-12 21:51,-115.1634,36.0719,663.00,89.60,66.20,46.14,60.00,33.00,0.00,30.00,M,10.00,41.00,SCT,SCT,BKN,M,10000.00,14000.00,22000.00,M,VCTS,M,M,M,41.00,60.00,2022-08-12 21:49,92.27,KLAS 122151Z AUTO 06033G41KT 10SM VCTS SCT100CB SCT140 BKN220 32/19 A3000 RMK AO2 PK WND 06041/2149 LTG DSNT NE AND E CB VC N-E MOV N VCSH NE-E CB DSNT ALQDS,M
VGT,2022-08-12 21:53,-115.1933,36.2111,667.00,94.00,63.00,36.08,60.00,22.00,0.00,29.99,1014.40,10.00,31.00,FEW,SCT,M,M,9000.00,11000.00,M,M,VCTS,M,M,M,31.00,70.00,2022-08-12 21:53,95.19,KVGT 122153Z 06022G31KT 10SM VCTS FEW090 SCT110 34/17 A2999 RMK AO2 PK WND 07031/2153 LTG DSNT E TSB14E29 PRESRR SLP144 T03440172,M
P68,2022-08-12 21:53,-116.0056,39.6014,1993.00,86.00,44.00,23.14,110.00,4.00,0.00,30.17,1011.90,M,M,M,M,M,M,M,M,M,M,M,M,M,M,M,M,M,83.04,KP68 122153Z AUTO 11004KT 30/07 A3017 RMK AO1 SLP119 T03000067,M
LOL,2022-08-12 21:53,-118.5701,40.0684,1192.43,94.00,30.90,10.74,240.00,7.00,0.00,30.04,1012.50,10.00,19.00,CLR,M,M,M,M,M,M,M,M,M,M,M,M,M,M,88.71,KLOL 122153Z AUTO 24007G19KT 210V270 10SM CLR 34/M01 A3004 RMK AO2 SLP125 T03441006,M
DRA,2022-08-12 21:53,-116.0278,36.6206,1009.00,96.00,51.00,21.95,100.00,14.00,0.00,29.99,1010.00,10.00,17.00,FEW,M,M,M,11000.00,M,M,M,M,M,M,M,M,M,M,93.23,KDRA 122153Z AUTO 10014G17KT 10SM FEW110 36/11 A2999 RMK AO2 SLP100 T03560106,M
ELY,2022-08-12 21:53,-114.8453,39.2950,1909.00,80.00,53.00,39.23,M,M,0.00,30.24,1014.30,10.00,M,FEW,M,M,M,11000.00,M,M,M,M,M,M,M,M,M,M,79.94,KELY 122153Z AUTO 10SM FEW110 27/12 A3024 RMK AO2 LTG DSNT S AND NW SLP143 T02670117,M
BVU,2022-08-12 21:55,-114.8611,35.9475,671.00,89.60,64.40,43.34,40.00,24.00,0.00,29.97,M,M,31.00,M,M,M,M,M,M,M,M,M,M,M,M,M,M,M,91.23,KBVU 122155Z AUTO 04024G31KT 32/18 A2997 RMK AO2 PWINO TSNO,M
CXP,2022-08-12 21:55,-119.7326,39.1923,1431.00,89.60,28.40,11.09,270.00,11.00,0.00,30.12,M,10.00,18.00,CLR,M,M,M,M,M,M,M,M,M,M,M,M,M,M,85.17,KCXP 122155Z AUTO 27011G18KT 250V310 10SM CLR 32/M02 A3012 RMK AO2,M
TMT,2022-08-12 21:55,-117.1971,39.4643,1749.34,M,M,M,220.00,10.00,0.00,30.18,M,10.00,M,SCT,M,M,M,10000.00,M,M,M,M,M,M,M,M,M,M,M,KTMT 122155Z AUTO 22010KT 10SM SCT100 A3018 RMK AO2,M
RNO,2022-08-12 21:55,-119.7711,39.4839,1341.00,95.00,32.00,10.85,190.00,6.00,0.00,30.09,1012.40,10.00,M,CLR,M,M,M,M,M,M,M,M,M,M,M,M,M,M,89.71,KRNO 122155Z 19006KT 10SM CLR 35/00 A3009 RMK AO2 SLP124 FU W T03500000,M
HTH,2022-08-12 21:55,-118.6315,38.5448,1282.89,93.20,33.80,12.34,350.00,9.00,0.00,30.04,M,10.00,M,CLR,M,M,M,M,M,M,M,M,M,M,M,M,M,M,88.55,KHTH 122155Z AUTO 35009KT 10SM CLR 34/01 A3004 RMK A01,M
BAM,2022-08-12 21:55,-116.8743,40.5990,1382.36,96.80,42.80,15.71,270.00,8.00,0.00,30.07,M,10.00,12.00,CLR,M,M,M,M,M,M,M,M,M,M,M,M,M,M,92.57,KBAM 122155Z AUTO 27008G12KT 10SM CLR 36/06 A3007 RMK AO1,M
MEV,2022-08-12 21:55,-119.7500,38.9963,1441.42,91.40,30.20,11.28,290.00,12.00,0.00,30.12,M,10.00,20.00,CLR,M,M,M,M,M,M,M,M,M,M,M,M,M,M,86.71,KMEV 122155Z AUTO 29012G20KT 10SM CLR 33/M01 A3012 RMK AO2,M
RTS,2022-08-12 21:55,-119.8764,39.6682,1539.00,87.80,19.40,8.06,270.00,9.00,0.00,30.16,M,10.00,19.00,CLR,M,M,M,M,M,M,M,M,M,M,M,M,M,M,83.23,KRTS 122155Z AUTO 27009G19KT 10SM CLR 31/M07 A3016 RMK AO2,M
LAS,2022-08-12 21:56,-115.1634,36.0719,663.00,85.00,67.00,54.89,70.00,25.00,0.00,30.00,1013.60,10.00,41.00,SCT,SCT,BKN,M,10000.00,14000.00,22000.00,M,TS,M,M,M,41.00,60.00,2022-08-12 21:49,87.59,KLAS 122156Z 07025G41KT 10SM TS SCT100CB SCT140 BKN220 29/19 A3000 RMK AO2 PK WND 06041/2149 LTG DSNT NE AND SE TSB55 SLP136 OCNL LTGICCG N-E TS N-E MOV N VCSH N-E CB DSNT ALQDS T02940194,M
HND,2022-08-12 21:56,-115.1344,35.9729,742.79,88.00,66.00,48.20,40.00,25.00,0.00,30.02,1015.20,9.00,34.00,BKN,M,M,M,10000.00,M,M,M,M,M,M,M,34.00,50.00,2022-08-12 21:52,90.41,KHND 122156Z 04025G34KT 9SM BKN100 31/19 A3002 RMK AO2 PK WND 05034/2152 LTG DSNT NE-SE SLP152 T03110189,M
WMC,2022-08-12 21:56,-117.8072,40.9019,1315.00,94.00,33.00,11.74,M,3.00,0.00,30.06,1012.40,10.00,M,CLR,M,M,M,M,M,M,M,M,M,M,M,M,M,M,89.00,KWMC 122156Z AUTO VRB03KT 10SM CLR 34/01 A3006 RMK AO2 SLP124 T03440006 $,M
TPH,2022-08-12 21:56,-117.0904,38.0505,1654.00,92.00,35.00,13.53,180.00,13.00,0.00,30.15,1012.00,10.00,21.00,CLR,M,M,M,M,M,M,M,M,M,M,M,M,M,M,87.60,KTPH 122156Z AUTO 18013G21KT 10SM CLR 33/02 A3015 RMK AO2 SLP120 T03330017,M
NFL,2022-08-12 21:56,-118.7010,39.4166,1199.00,93.00,33.00,12.07,M,3.00,0.00,30.05,1014.30,10.00,M,FEW,M,M,M,9000.00,M,M,M,M,M,M,M,M,M,M,88.29,KNFL 122156Z VRB03KT 10SM FEW090 34/01 A3005 RMK AO2 SLP143 T03390006,M
EKO,2022-08-12 21:56,-115.7860,40.8242,1367.00,88.00,46.00,23.34,210.00,7.00,0.00,30.09,1012.60,10.00,M,FEW,M,M,M,10000.00,M,M,M,M,M,M,M,M,M,M,84.81,KEKO 122156Z AUTO 21007KT 10SM FEW100 31/08 A3009 RMK AO2 SLP126 T03110078,M
LSV,2022-08-12 21:58,-115.0343,36.2362,570.00,79.00,70.70,75.75,130.00,19.00,0.25,29.98,M,10.00,M,FEW,SCT,M,M,3500.00,10000.00,M,M,-TSRA,M,M,M,31.00,30.00,2022-08-12 20:58,79.00,KLSV 122158Z 13019KT 10SM -TSRA FEW035 SCT100 26/22 A2998 RMK AO2A PK WND 03031/2058 RAB24 TSB26E42TSB46 SLPNO P0025 T02610215 $,M
INS,2022-08-12 21:58,-115.6733,36.5872,955.00,90.00,52.50,27.84,120.00,10.00,0.00,30.00,1010.80,10.00,M,OVC,M,M,M,13000.00,M,M,M,M,M,M,M,M,M,M,87.59,KINS 122158Z AUTO 12010KT 10SM OVC130 32/11 A3000 RMK AO2 SLP108 T03230114,M
LSV,2022-08-12 22:01,-115.0343,36.2362,570.00,78.80,71.60,78.62,120.00,18.00,0.00,29.98,M,10.00,M,FEW,FEW,M,M,3300.00,10000.00,M,M,TS,M,M,M,M,M,M,78.80,KLSV 122201Z AUTO 12018KT 10SM TS FEW033 FEW100 26/22 A2998 RMK AO2 RAE01 SLPNO $,M
LSV,2022-08-12 22:02,-115.0343,36.2362,570.00,78.80,71.60,78.62,120.00,17.00,0.00,29.98,M,10.00,M,FEW,FEW,M,M,3300.00,10000.00,M,M,VCTS,M,M,M,M,M,M,78.80,KLSV 122202Z AUTO 12017KT 10SM VCTS FEW033 FEW100 26/22 A2998 RMK AO2 RAE01 TSE02 SLPNO $,M
LSV,2022-08-12 22:13,-115.0343,36.2362,570.00,78.80,73.40,83.55,100.00,20.00,0.00,29.97,M,10.00,23.00,FEW,M,M,M,10000.00,M,M,M,VCTS -RA,M,M,M,M,M,M,78.80,KLSV 122213Z AUTO 10020G23KT 10SM VCTS -RA FEW100 26/23 A2997 RMK AO2 RAE01RAB13 TSE02 SLPNO $,M
CXP,2022-08-12 22:15,-119.7326,39.1923,1431.00,89.60,28.40,11.09,260.00,13.00,0.00,30.12,M,10.00,22.00,CLR,M,M,M,M,M,M,M,M,M,M,M,M,M,M,85.17,KCXP 122215Z AUTO 26013G22KT 10SM CLR 32/M02 A3012 RMK AO2,M
BVU,2022-08-12 22:15,-114.8611,35.9475,671.00,87.80,62.60,43.07,30.00,24.00,0.00,29.98,M,M,32.00,M,M,M,M,M,M,M,M,M,M,M,M,M,M,M,88.48,KBVU 122215Z AUTO 03024G32KT 31/17 A2998 RMK AO2 PWINO TSNO,M
TMT,2022-08-12 22:15,-117.1971,39.4643,1749.34,M,M,M,0.00,0.00,0.00,30.17,M,10.00,M,SCT,M,M,M,10000.00,M,M,M,M,M,M,M,M,M,M,M,KTMT 122215Z AUTO 00000KT 10SM SCT100 A3017 RMK AO2,M
MEV,2022-08-12 22:15,-119.7500,38.9963,1441.42,91.40,32.00,12.14,250.00,16.00,0.00,30.11,M,10.00,21.00,CLR,M,M,M,M,M,M,M,M,M,M,M,M,M,M,86.91,KMEV 122215Z AUTO 25016G21KT 10SM CLR 33/M00 A3011 RMK AO2,M
RTS,2022-08-12 22:15,-119.8764,39.6682,1539.00,87.80,17.60,7.46,250.00,15.00,0.00,30.15,M,10.00,M,CLR,M,M,M,M,M,M,M,M,M,M,M,M,M,M,83.14,KRTS 122215Z AUTO 25015KT 10SM CLR 31/M08 A3015 RMK AO2,M
HTH,2022-08-12 22:15,-118.6315,38.5448,1282.89,95.00,33.80,11.67,340.00,9.00,0.00,30.03,M,10.00,M,CLR,M,M,M,M,M,M,M,M,M,M,M,M,M,M,89.97,KHTH 122215Z AUTO 34009KT 10SM CLR 35/01 A3003 RMK A01,M
BAM,2022-08-12 22:15,-116.8743,40.5990,1382.36,96.80,42.80,15.71,300.00,3.00,0.00,30.06,M,10.00,M,CLR,M,M,M,M,M,M,M,M,M,M,M,M,M,M,92.57,KBAM 122215Z AUTO 30003KT 10SM CLR 36/06 A3006 RMK AO1,M
LSV,2022-08-12 22:21,-115.0343,36.2362,570.00,78.80,73.40,83.55,100.00,16.00,0.00,29.95,M,7.00,23.00,BKN,M,M,M,12000.00,M,M,M,M,M,M,M,M,M,M,78.80,KLSV 122221Z COR AUTO 10016G23KT BKN120 7SM CLR 26/23 A2995 RMK AO2 LTG DSNT N AND E AND S-SW RAE01RAB13E21 TSE02 PRESFR SLPNO $ COR 2234,M
VGT,2022-08-12 22:23,-115.1933,36.2111,667.00,87.00,63.00,44.66,80.00,14.00,0.00,29.98,M,10.00,M,CLR,M,M,M,M,M,M,M,M,M,M,M,32.00,90.00,2022-08-12 21:56,87.96,KVGT 122223Z 08014KT 10SM CLR 31/17 A2998 RMK AO2 PK WND 09032/2156 LTG DSNT E T03060172,M
LAS,2022-08-12 22:26,-115.1634,36.0719,663.00,87.00,63.00,44.66,60.00,14.00,0.00,29.99,M,10.00,M,SCT,SCT,BKN,M,10000.00,14000.00,22000.00,M,TS,M,M,M,32.00,60.00,2022-08-12 21:59,87.96,KLAS 122226Z 06014KT 10SM TS SCT100CB SCT140 BKN220 31/17 A2999 RMK AO2 PK WND 06032/2159 LTG DSNT ALQDS OCNL LTGICCG N-E TS N-E MOV N VCSH N-E CB DSNT ALQDS T03060172,M
BAM,2022-08-12 22:35,-116.8743,40.5990,1382.36,96.80,42.80,15.71,230.00,13.00,0.00,30.05,M,10.00,M,CLR,M,M,M,M,M,M,M,M,M,M,M,M,M,M,92.57,KBAM 122235Z AUTO 23013KT 10SM CLR 36/06 A3005 RMK AO1,M
BVU,2022-08-12 22:35,-114.8611,35.9475,671.00,87.80,64.40,45.88,30.00,20.00,0.00,29.97,M,M,28.00,M,M,M,M,M,M,M,M,M,M,M,M,M,M,M,89.33,KBVU 122235Z AUTO 03020G28KT 31/18 A2997 RMK AO2 PWINO TSNO,M
CXP,2022-08-12 22:35,-119.7326,39.1923,1431.00,89.60,28.40,11.09,270.00,9.00,0.00,30.12,M,10.00,17.00,CLR,M,M,M,M,M,M,M,M,M,M,M,M,M,M,85.17,KCXP 122235Z AUTO 27009G17KT 10SM CLR 32/M02 A3012 RMK AO2,M
RTS,2022-08-12 22:35,-119.8764,39.6682,1539.00,87.80,17.60,7.46,270.00,11.00,0.00,30.15,M,10.00,20.00,CLR,M,M,M,M,M,M,M,M,M,M,M,M,M,M,83.14,KRTS 122235Z AUTO 27011G20KT 10SM CLR 31/M08 A3015 RMK AO2,M
MEV,2022-08-12 22:35,-119.7500,38.9963,1441.42,91.40,32.00,12.14,260.00,17.00,0.00,30.10,M,10.00,22.00,CLR,M,M,M,M,M,M,M,M,M,M,M,M,M,M,86.91,KMEV 122235Z AUTO 26017G22KT 240V300 10SM CLR 33/M00 A3010 RMK AO2,M
HTH,2022-08-12 22:35,-118.6315,38.5448,1282.89,95.00,33.80,11.67,300.00,8.00,0.00,30.02,M,10.00,13.00,CLR,M,M,M,M,M,M,M,M,M,M,M,M,M,M,89.97,KHTH 122235Z AUTO 30008G13KT 10SM CLR 35/01 A3002 RMK A01,M
TMT,2022-08-12 22:35,-117.1971,39.4643,1749.34,M,M,M,0.00,0.00,0.00,30.16,M,10.00,M,CLR,M,M,M,M,M,M,M,M,M,M,M,M,M,M,M,KTMT 122235Z AUTO 00000KT 10SM CLR A3016 RMK AO2,M
HND,2022-08-12 22:45,-115.1344,35.9729,742.79,84.20,64.40,51.47,60.00,12.00,0.00,30.02,M,10.00,18.00,CLR,M,M,M,M,M,M,M,VCTS,M,M,M,31.00,50.00,2022-08-12 22:06,85.71,KHND 122245Z 06012G18KT 10SM VCTS CLR 29/18 A3002 RMK AO2 PK WND 05031/2206 LTG DSNT ALQDS TSB39,M
CXP,2022-08-12 22:50,-119.7326,39.1923,1431.00,89.60,30.20,11.94,260.00,11.00,0.00,30.12,M,10.00,18.00,CLR,M,M,M,M,M,M,M,M,M,M,M,M,M,M,85.34,KCXP 122250Z AUTO 26011G18KT 10SM CLR 32/M01 A3012 RMK AO2,M
DRA,2022-08-12 22:53,-116.0278,36.6206,1009.00,96.00,49.00,20.22,100.00,17.00,0.00,29.98,1009.70,10.00,28.00,CLR,M,M,M,M,M,M,M,M,M,M,M,28.00,90.00,2022-08-12 22:46,92.78,KDRA 122253Z AUTO 10017G28KT 10SM CLR 36/09 A2998 RMK AO2 PK WND 09028/2246 SLP097 T03560094,M
VGT,2022-08-12 22:53,-115.1933,36.2111,667.00,87.00,65.00,47.73,60.00,11.00,0.00,29.97,1013.90,10.00,M,CLR,M,M,M,M,M,M,M,M,M,M,M,32.00,90.00,2022-08-12 21:56,88.86,KVGT 122253Z 06011KT 10SM CLR 31/18 A2997 RMK AO2 PK WND 09032/2156 LTG DSNT S SLP139 T03060183,M
P68,2022-08-12 22:53,-116.0056,39.6014,1993.00,87.00,43.00,21.42,180.00,12.00,0.00,30.14,1011.00,M,M,M,M,M,M,M,M,M,M,M,M,M,M,M,M,M,83.84,KP68 122253Z AUTO 18012KT 31/06 A3014 RMK AO1 SLP110 T03060061,M
ELY,2022-08-12 22:53,-114.8453,39.2950,1909.00,83.00,51.00,33.27,M,3.00,0.00,30.21,1013.00,10.00,M,CLR,M,M,M,M,M,M,M,M,M,M,M,M,M,M,81.45,KELY 122253Z AUTO VRB03KT 10SM CLR 28/11 A3021 RMK AO2 LTG DSNT NW SLP130 T02830106,M
LOL,2022-08-12 22:53,-118.5701,40.0684,1192.43,95.00,28.00,9.22,0.00,0.00,0.00,30.01,1011.90,10.00,M,CLR,M,M,M,M,M,M,M,M,M,M,M,M,M,M,89.22,KLOL 122253Z AUTO 00000KT 10SM CLR 35/M02 A3001 RMK AO2 SLP119 T03501022,M
BAM,2022-08-12 22:55,-116.8743,40.5990,1382.36,96.80,42.80,15.71,250.00,8.00,0.00,30.05,M,10.00,M,CLR,M,M,M,M,M,M,M,M,M,M,M,M,M,M,92.57,KBAM 122255Z AUTO 25008KT 220V290 10SM CLR 36/06 A3005 RMK AO1,M
BVU,2022-08-12 22:55,-114.8611,35.9475,671.00,86.00,62.60,45.61,50.00,14.00,0.00,29.99,M,M,21.00,M,M,M,M,M,M,M,M,M,M,M,M,M,M,M,86.72,KBVU 122255Z AUTO 05014G21KT 30/17 A2999 RMK AO2 PWINO TSNO,M
RNO,2022-08-12 22:55,-119.7711,39.4839,1341.00,96.00,28.00,8.92,250.00,5.00,0.00,30.07,1011.80,10.00,M,CLR,M,M,M,M,M,M,M,M,M,M,M,M,M,M,90.13,KRNO 122255Z 25005KT 10SM CLR 36/M02 A3007 RMK AO2 SLP118 T03561022,M
RTS,2022-08-12 22:55,-119.8764,39.6682,1539.00,87.80,19.40,8.06,250.00,14.00,0.00,30.15,M,10.00,20.00,CLR,M,M,M,M,M,M,M,M,M,M,M,M,M,M,83.23,KRTS 122255Z AUTO 25014G20KT 10SM CLR 31/M07 A3015 RMK AO2,M
MEV,2022-08-12 22:55,-119.7500,38.9963,1441.42,89.60,32.00,12.84,280.00,14.00,0.00,30.10,M,10.00,22.00,CLR,M,M,M,M,M,M,M,M,M,M,M,M,M,M,85.54,KMEV 122255Z AUTO 28014G22KT 10SM CLR 32/00 A3010 RMK AO2,M
HTH,2022-08-12 22:55,-118.6315,38.5448,1282.89,95.00,33.80,11.67,320.00,8.00,0.00,30.01,M,10.00,M,CLR,M,M,M,M,M,M,M,M,M,M,M,M,M,M,89.97,KHTH 122255Z AUTO 32008KT 10SM CLR 35/01 A3001 RMK A01,M
TMT,2022-08-12 22:55,-117.1971,39.4643,1749.34,M,M,M,250.00,9.00,0.00,30.16,M,10.00,M,CLR,M,M,M,M,M,M,M,M,M,M,M,M,M,M,M,KTMT 122255Z AUTO 25009KT 10SM CLR A3016 RMK AO2 LTG DSNT S,M
WMC,2022-08-12 22:56,-117.8072,40.9019,1315.00,96.00,33.00,10.97,280.00,12.00,0.00,30.04,1011.60,10.00,19.00,CLR,M,M,M,M,M,M,M,M,M,M,M,26.00,240.00,2022-08-12 22:21,90.76,KWMC 122256Z AUTO 28012G19KT 10SM CLR 36/01 A3004 RMK AO2 PK WND 24026/2221 SLP116 T03560006,M
EKO,2022-08-12 22:56,-115.7860,40.8242,1367.00,92.00,44.00,19.21,M,M,0.00,30.07,1011.60,10.00,M,CLR,M,M,M,M,M,M,M,M,M,M,M,M,M,M,88.09,KEKO 122256Z AUTO 10SM CLR 33/07 A3007 RMK AO2 SLP116 T03330067,M
NFL,2022-08-12 22:56,-118.7010,39.4166,1199.00,94.00,33.00,11.74,240.00,6.00,0.00,30.02,1013.60,10.00,M,FEW,M,M,M,9000.00,M,M,M,M,M,M,M,M,M,M,89.00,KNFL 122256Z 24006KT 10SM FEW090 34/01 A3002 RMK AO2 SLP136 T03440006,M
LAS,2022-08-12 22:56,-115.1634,36.0719,663.00,83.00,66.00,56.75,110.00,6.00,0.00,30.00,1013.30,10.00,M,FEW,SCT,BKN,OVC,10000.00,12000.00,16000.00,22000.00,TS,M,M,M,32.00,60.00,2022-08-12 21:59,85.07,KLAS 122256Z 11006KT 10SM TS FEW100CB SCT120 BKN160 OVC220 28/19 A3000 RMK AO2 PK WND 06032/2159 LTG DSNT S AND SW SLP133 OCNL LTGICCG NE AND SE-SW TS NE AND SE-SW MOV N ACSL E-SE VCSH N-E CB DSNT ALQDS T02830189,M
TPH,2022-08-12 22:56,-117.0904,38.0505,1654.00,92.00,32.00,11.95,250.00,12.00,0.00,30.13,1011.50,10.00,21.00,CLR,M,M,M,M,M,M,M,M,M,M,M,M,M,M,87.30,KTPH 122256Z AUTO 25012G21KT 10SM CLR 33/00 A3013 RMK AO2 SLP115 T03330000,M
HND,2022-08-12 22:56,-115.1344,35.9729,742.79,85.00,63.00,47.91,M,4.00,0.00,30.05,1016.50,10.00,M,CLR,M,M,M,M,M,M,M,VCTS,M,M,M,31.00,50.00,2022-08-12 22:06,85.83,KHND 122256Z VRB04KT 10SM VCTS CLR 29/17 A3005 RMK AO2 PK WND 05031/2206 LTG DSNT S AND SW TSB39 PRESRR SLP165 T02940172,M
INS,2022-08-12 22:58,-115.6733,36.5872,955.00,93.20,52.20,25.00,100.00,19.00,0.00,29.99,1010.40,10.00,23.00,BKN,M,M,M,15000.00,M,M,M,M,M,M,M,M,M,M,90.54,KINS 122258Z AUTO 10019G23KT 10SM BKN150 34/11 A2999 RMK AO2 SLP104 T03400112,M
LSV,2022-08-12 23:09,-115.0343,36.2362,570.00,78.30,75.00,89.62,50.00,5.00,0.01,29.96,M,10.00,M,SCT,M,M,M,14000.00,M,M,M,M,M,M,M,M,M,M,78.30,KLSV 122309Z 05005KT 10SM SCT140 26/24 A2996 RMK LTG DSNT S RAB2213E2221 SLPNO P0001 60018 T02570239 10416 20255 53003 $,M
CXP,2022-08-12 23:10,-119.7326,39.1923,1431.00,89.60,30.20,11.94,270.00,14.00,0.00,30.11,M,10.00,M,CLR,M,M,M,M,M,M,M,M,M,M,M,M,M,M,85.34,KCXP 122310Z AUTO 27014KT 10SM CLR 32/M01 A3011 RMK AO2,M
BAM,2022-08-12 23:15,-116.8743,40.5990,1382.36,96.80,41.00,14.66,280.00,9.00,0.00,30.04,M,10.00,M,CLR,M,M,M,M,M,M,M,M,M,M,M,M,M,M,92.39,KBAM 122315Z AUTO 28009KT 10SM CLR 36/05 A3004 RMK AO1,M
BVU,2022-08-12 23:15,-114.8611,35.9475,671.00,86.00,62.60,45.61,90.00,10.00,0.00,30.02,M,M,M,M,M,M,M,M,M,M,M,M,M,M,M,M,M,M,86.72,KBVU 122315Z AUTO 09010KT 30/17 A3002 RMK AO2 PWINO TSNO,M
RTS,2022-08-12 23:15,-119.8764,39.6682,1539.00,87.80,17.60,7.46,240.00,15.00,0.00,30.14,M,10.00,20.00,CLR,M,M,M,M,M,M,M,M,M,M,M,M,M,M,83.14,KRTS 122315Z AUTO 24015G20KT 10SM CLR 31/M08 A3014 RMK AO2,M
MEV,2022-08-12 23:15,-119.7500,38.9963,1441.42,89.60,33.80,13.80,270.00,16.00,0.00,30.10,M,10.00,M,CLR,M,M,M,M,M,M,M,M,M,M,M,M,M,M,85.59,KMEV 122315Z AUTO 27016KT 10SM CLR 32/01 A3010 RMK AO2,M
TMT,2022-08-12 23:15,-117.1971,39.4643,1749.34,M,M,M,0.00,0.00,0.00,30.15,M,10.00,M,CLR,M,M,M,M,M,M,M,M,M,M,M,M,M,M,M,KTMT 122315Z AUTO 00000KT 10SM CLR A3015 RMK AO2,M
HTH,2022-08-12 23:15,-118.6315,38.5448,1282.89,95.00,32.00,10.85,310.00,10.00,0.00,30.01,M,10.00,M,CLR,M,M,M,M,M,M,M,M,M,M,M,M,M,M,89.71,KHTH 122315Z AUTO 31010KT 10SM CLR 35/00 A3001 RMK A01,M
HND,2022-08-12 23:16,-115.1344,35.9729,742.79,80.60,66.20,61.58,200.00,21.00,0.00,30.06,M,9.00,30.00,BKN,M,M,M,8500.00,M,M,M,M,M,M,M,35.00,210.00,2022-08-12 23:06,82.75,KHND 122316Z 20021G30KT 9SM BKN085 27/19 A3006 RMK AO2 PK WND 21035/2306 LTG DSNT SE AND S TSE10,M
HND,2022-08-12 23:23,-115.1344,35.9729,742.79,80.60,68.00,65.54,190.00,20.00,T,30.05,M,9.00,M,BKN,M,M,M,8500.00,M,M,M,-RA,M,M,M,35.00,210.00,2022-08-12 23:06,83.29,KHND 122323Z 19020KT 9SM -RA BKN085 27/20 A3005 RMK AO2 PK WND 21035/2306 WSHFT 2303 LTG DSNT SE AND S TSE10RAB22 P0000,M
HND,2022-08-12 23:34,-115.1344,35.9729,742.79,80.60,68.00,65.54,170.00,13.00,T,30.05,M,10.00,M,BKN,BKN,BKN,M,8000.00,9500.00,11000.00,M,VCTS -RA,M,M,M,35.00,210.00,2022-08-12 23:06,83.29,KHND 122334Z 17013KT 10SM VCTS -RA BKN080 BKN095 BKN110 27/20 A3005 RMK AO2 PK WND 21035/2306 WSHFT 2303 LTG DSNT S TSE10B28RAB22 P0000,M
TMT,2022-08-12 23:35,-117.1971,39.4643,1749.34,M,M,M,240.00,6.00,0.00,30.15,M,10.00,M,SCT,M,M,M,12000.00,M,M,M,M,M,M,M,M,M,M,M,KTMT 122335Z AUTO 24006KT 10SM SCT120 A3015 RMK AO2,M
BVU,2022-08-12 23:35,-114.8611,35.9475,671.00,84.20,66.20,54.80,170.00,12.00,0.00,30.02,M,M,M,M,M,M,M,M,M,M,M,M,M,M,M,M,M,M,86.50,KBVU 122335Z AUTO 17012KT 29/19 A3002 RMK AO2 PWINO TSNO,M
CXP,2022-08-12 23:35,-119.7326,39.1923,1431.00,89.60,32.00,12.84,280.00,10.00,0.00,30.11,M,10.00,20.00,CLR,M,M,M,M,M,M,M,M,M,M,M,M,M,M,85.54,KCXP 122335Z AUTO 28010G20KT 10SM CLR 32/00 A3011 RMK AO2,M
RTS,2022-08-12 23:35,-119.8764,39.6682,1539.00,87.80,19.40,8.06,250.00,16.00,0.00,30.14,M,10.00,M,CLR,M,M,M,M,M,M,M,M,M,M,M,M,M,M,83.23,KRTS 122335Z AUTO 25016KT 10SM CLR 31/M07 A3014 RMK AO2,M
MEV,2022-08-12 23:35,-119.7500,38.9963,1441.42,89.60,33.80,13.80,270.00,19.00,0.00,30.10,M,10.00,M,CLR,M,M,M,M,M,M,M,M,M,M,M,M,M,M,85.59,KMEV 122335Z AUTO 27019KT 10SM CLR 32/01 A3010 RMK AO2,M
HTH,2022-08-12 23:35,-118.6315,38.5448,1282.89,95.00,30.20,10.09,350.00,10.00,0.00,30.00,M,10.00,M,CLR,M,M,M,M,M,M,M,M,M,M,M,M,M,M,89.48,KHTH 122335Z AUTO 35010KT 10SM CLR 35/M01 A3000 RMK A01,M
BAM,2022-08-12 23:35,-116.8743,40.5990,1382.36,96.80,42.80,15.71,250.00,9.00,0.00,30.04,M,10.00,14.00,CLR,M,M,M,M,M,M,M,M,M,M,M,M,M,M,92.57,KBAM 122335Z AUTO 25009G14KT 10SM CLR 36/06 A3004 RMK AO1,M
RNO,2022-08-12 23:48,-119.7711,39.4839,1341.00,93.00,30.90,11.04,280.00,18.00,0.00,30.06,M,10.00,24.00,CLR,M,M,M,M,M,M,M,M,M,M,M,28.00,270.00,2022-08-12 23:13,88.02,KRNO 122348Z 28018G24KT 10SM CLR 34/M01 A3006 RMK AO2 PK WND 27028/2313 WSHFT 2333 T03391006,M
HND,2022-08-12 23:52,-115.1344,35.9729,742.79,80.60,68.00,65.54,160.00,13.00,T,30.04,M,10.00,M,FEW,SCT,SCT,M,7500.00,9000.00,11000.00,M,-RA,M,M,M,35.00,210.00,2022-08-12 23:06,83.29,KHND 122352Z 16013KT 10SM -RA FEW075 SCT090 SCT110 27/20 A3004 RMK AO2 PK WND 21035/2306 WSHFT 2303 TSE10B28E46RAB22 P0000,M
ELY,2022-08-12 23:53,-114.8453,39.2950,1909.00,83.00,47.00,28.43,0.00,0.00,0.00,30.20,1012.60,10.00,M,FEW,M,M,M,11000.00,M,M,M,M,M,M,M,M,M,M,81.01,KELY 122353Z AUTO 00000KT 10SM FEW110 28/08 A3020 RMK AO2 SLP126 T02830083 10294 20256 56018,M
P68,2022-08-12 23:53,-116.0056,39.6014,1993.00,84.00,48.00,28.60,50.00,11.00,0.00,30.14,1011.50,M,M,M,M,M,M,M,M,M,M,M,M,M,M,M,M,M,81.87,KP68 122353Z AUTO 05011KT 29/09 A3014 RMK AO1 SLP115 T02890089 10317 20283 56017,M
VGT,2022-08-12 23:53,-115.1933,36.2111,667.00,87.00,63.00,44.66,190.00,12.00,0.00,30.00,1015.10,10.00,M,CLR,M,M,M,M,M,M,M,M,M,M,M,M,M,M,87.96,KVGT 122353Z 19012KT 10SM CLR 31/17 A3000 RMK AO2 SLP151 T03060172 10367 20289 53013,M
LOL,2022-08-12 23:53,-118.5701,40.0684,1192.43,96.00,30.00,9.68,M,4.00,0.00,30.00,1011.40,10.00,M,CLR,M,M,M,M,M,M,M,M,M,M,M,M,M,M,90.35,KLOL 122353Z AUTO VRB04KT 10SM CLR 36/M01 A3000 RMK AO2 SLP114 T03561011 10361 20306 56019,M
DRA,2022-08-12 23:53,-116.0278,36.6206,1009.00,97.00,49.00,19.67,110.00,15.00,0.00,29.97,1009.40,10.00,M,CLR,M,M,M,M,M,M,M,M,M,M,M,27.00,120.00,2022-08-12 23:05,93.69,KDRA 122353Z AUTO 11015KT 10SM CLR 36/09 A2997 RMK AO2 PK WND 12027/2305 SLP094 T03610094 10372 20333 56016,M
TMT,2022-08-12 23:55,-117.1971,39.4643,1749.34,M,M,M,250.00,5.00,0.00,30.15,M,10.00,M,SCT,M,M,M,12000.00,M,M,M,M,M,M,M,M,M,M,M,KTMT 122355Z AUTO 25005KT 10SM SCT120 A3015 RMK AO2,M
BVU,2022-08-12 23:55,-114.8611,35.9475,671.00,80.60,69.80,69.71,190.00,13.00,0.00,30.02,M,M,19.00,M,M,M,M,M,M,M,M,M,M,M,M,M,M,M,83.90,KBVU 122355Z AUTO 19013G19KT 27/21 A3002 RMK AO2 PWINO TSNO,M
CXP,2022-08-12 23:55,-119.7326,39.1923,1431.00,87.80,33.80,14.61,270.00,7.00,0.00,30.11,M,10.00,18.00,CLR,M,M,M,M,M,M,M,M,M,M,M,M,M,M,84.10,KCXP 122355Z AUTO 27007G18KT 230V300 10SM CLR 31/01 A3011 RMK AO2,M
RNO,2022-08-12 23:55,-119.7711,39.4839,1341.00,92.00,30.90,11.43,290.00,16.00,0.00,30.06,1011.60,10.00,27.00,CLR,M,M,M,M,M,M,M,M,M,M,M,28.00,270.00,2022-08-12 23:13,87.17,KRNO 122355Z 29016G27KT 10SM CLR 33/M01 A3006 RMK AO2 PK WND 27028/2313 WSHFT 2333 SLP116 T03331006 10356 20278 56015,M
RTS,2022-08-12 23:55,-119.8764,39.6682,1539.00,87.80,21.20,8.70,240.00,15.00,0.00,30.14,M,10.00,20.00,CLR,M,M,M,M,M,M,M,M,M,M,M,M,M,M,83.33,KRTS 122355Z AUTO 24015G20KT 10SM CLR 31/M06 A3014 RMK AO2,M
MEV,2022-08-12 23:55,-119.7500,38.9963,1441.42,87.80,35.60,15.70,270.00,13.00,0.00,30.10,M,10.00,22.00,CLR,M,M,M,M,M,M,M,M,M,M,M,M,M,M,84.12,KMEV 122355Z AUTO 27013G22KT 10SM CLR 31/02 A3010 RMK AO2,M
BAM,2022-08-12 23:55,-116.8743,40.5990,1382.36,96.80,42.80,15.71,270.00,13.00,0.00,30.03,M,10.00,16.00,CLR,M,M,M,M,M,M,M,M,M,M,M,M,M,M,92.57,KBAM 122355Z AUTO 27013G16KT 10SM CLR 36/06 A3003 RMK AO1,M
HTH,2022-08-12 23:55,-118.6315,38.5448,1282.89,96.80,28.40,8.87,330.00,10.00,0.00,29.99,M,10.00,M,CLR,M,M,M,M,M,M,M,M,M,M,M,M,M,M,90.75,KHTH 122355Z AUTO 33010KT 10SM CLR 36/M02 A2999 RMK A01,M
LAS,2022-08-12 23:56,-115.1634,36.0719,663.00,84.00,65.00,52.71,200.00,8.00,0.00,30.01,1013.60,10.00,16.00,FEW,FEW,BKN,OVC,10000.00,12000.00,16000.00,20000.00,TS,M,M,M,M,M,M,85.72,KLAS 122356Z 20008G16KT 10SM TS FEW100CB FEW120 BKN160 OVC200 29/18 A3001 RMK AO2 SLP136 OCNL LTGICCCCG E-S-SW TS E-S-SW MOV N VCSH N AND SE-SW T02890183 10361 20283 53001,M
TPH,2022-08-12 23:56,-117.0904,38.0505,1654.00,92.00,30.00,11.02,210.00,12.00,0.00,30.12,1011.10,10.00,M,CLR,M,M,M,M,M,M,M,M,M,M,M,M,M,M,87.07,KTPH 122356Z AUTO 21012KT 10SM CLR 33/M01 A3012 RMK AO2 SLP111 T03331011 10339 20289 56016,M
NFL,2022-08-12 23:56,-118.7010,39.4166,1199.00,95.00,30.90,10.38,360.00,6.00,0.00,30.00,1012.90,10.00,M,FEW,M,M,M,8000.00,M,M,M,M,M,M,M,M,M,M,89.56,KNFL 122356Z 36006KT 10SM FEW080 35/M01 A3000 RMK AO2 SLP129 T03501006 10350 20289 56020,M
EKO,2022-08-12 23:56,-115.7860,40.8242,1367.00,88.00,46.00,23.34,240.00,6.00,0.00,30.05,1011.40,10.00,M,CLR,M,M,M,M,M,M,M,M,M,M,M,M,M,M,84.81,KEKO 122356Z AUTO 24006KT 10SM CLR 31/08 A3005 RMK AO2 SLP114 T03110078 10339 20278 56021,M
HND,2022-08-12 23:56,-115.1344,35.9729,742.79,80.00,67.00,64.14,160.00,12.00,T,30.04,1016.30,10.00,M,FEW,SCT,M,M,7500.00,11000.00,M,M,-RA,M,M,M,35.00,210.00,2022-08-12 23:06,82.40,KHND 122356Z 16012KT 10SM -RA FEW075 SCT110 27/19 A3004 RMK AO2 PK WND 21035/2306 WSHFT 2303 TSE10B28E46RAB22 SLP163 P0000 60000 T02670194 10361 20267 50007,M
WMC,2022-08-12 23:56,-117.8072,40.9019,1315.00,96.00,35.00,11.88,270.00,11.00,0.00,30.02,1011.20,10.00,M,CLR,M,M,M,M,M,M,M,M,M,M,M,31.00,250.00,2022-08-12 23:23,91.07,KWMC 122356Z AUTO 27011KT 10SM CLR 36/02 A3002 RMK AO2 PK WND 25031/2323 SLP112 T03560017 10361 20306 56020,M
INS,2022-08-12 23:58,-115.6733,36.5872,955.00,93.40,56.30,28.85,110.00,15.00,0.00,29.97,1009.60,10.00,21.00,CLR,M,M,M,M,M,M,M,M,M,M,M,27.00,90.00,2022-08-12 23:15,91.83,KINS 122358Z AUTO 11015G21KT 10SM CLR 34/14 A2997 RMK AO2 PK WND 09027/15 SLP096 T03410135 10343 20316 57018,M
LSV,2022-08-12 23:58,-115.0343,36.2362,570.00,84.60,67.00,55.81,210.00,7.00,0.00,29.99,M,10.00,M,BKN,M,M,M,13000.00,M,M,M,M,M,M,M,M,M,M,87.37,KLSV 122358Z 21007KT 10SM BKN130 29/20 A2999 RMK AO2A SLPNO 60018 T02920195 10416 20255 50017 $,M
