station,valid,lon,lat,elevation,tmpf,dwpf,relh,drct,sknt,p01i,alti,mslp,vsby,gust,skyc1,skyc2,skyc3,skyc4,skyl1,skyl2,skyl3,skyl4,wxcodes,ice_accretion_1hr,ice_accretion_3hr,ice_accretion_6hr,peak_wind_gust,peak_wind_drct,peak_wind_time,feel,metar,snowdepth
BVU,2025-05-03 00:15,-114.8611,35.9475,671.00,87.80,21.20,8.70,M,5.00,0.00,29.79,M,10.00,M,CLR,M,M,M,M,M,M,M,M,M,M,M,M,M,M,83.33,KBVU 030015Z AUTO VRB05KT 10SM CLR 31/M06 A2979 RMK AO2,M
BAM,2025-05-03 00:15,-116.8743,40.5990,1382.36,78.80,26.60,14.59,290.00,9.00,0.00,29.94,M,10.00,M,CLR,M,M,M,M,M,M,M,M,M,M,M,M,M,M,78.80,KBAM 030015Z AUTO 29009KT 10SM CLR 26/M03 A2994 RMK AO1,M
CXP,2025-05-03 00:15,-119.7326,39.1923,1431.00,71.60,33.80,24.86,240.00,9.00,0.00,29.96,M,10.00,19.00,CLR,M,M,M,M,M,M,M,M,M,M,M,M,M,M,71.60,KCXP 030015Z AUTO 24009G19KT 10SM CLR 22/01 A2996 RMK AO2,M
RTS,2025-05-03 00:15,-119.8764,39.6682,1539.00,69.80,32.00,24.59,240.00,14.00,0.00,29.97,M,10.00,M,FEW,SCT,M,M,9500.00,12000.00,M,M,M,M,M,M,M,M,M,69.80,KRTS 030015Z AUTO 24014KT 10SM FEW095 SCT120 21/M00 A2997 RMK AO2,M
MEV,2025-05-03 00:15,-119.7500,38.9963,1441.42,66.20,41.00,39.72,280.00,11.00,0.00,29.95,M,6.00,20.00,FEW,FEW,BKN,M,6500.00,7500.00,8500.00,M,VCTS RA HZ,M,M,M,M,M,M,66.20,KMEV 030015Z AUTO 28011G20KT 6SM VCTS RA HZ FEW065 FEW075 BKN085 19/05 A2995 RMK AO2 LTG DSNT SE,M
HTH,2025-05-03 00:15,-118.6315,38.5448,1282.89,78.80,23.00,12.55,280.00,5.00,0.00,29.87,M,10.00,M,CLR,M,M,M,M,M,M,M,M,M,M,M,M,M,M,78.80,KHTH 030015Z AUTO 28005KT 10SM CLR 26/M05 A2987 RMK A01,M
TMT,2025-05-03 00:15,-117.1971,39.4643,1749.34,73.00,24.30,16.08,250.00,9.00,0.00,29.99,M,10.00,M,CLR,M,M,M,M,M,M,M,M,M,M,M,M,M,M,73.00,KTMT 030015Z AUTO 25009KT 10SM CLR 23/M04 A2999 RMK AO2 T02271043,M
10U,2025-05-03 00:15,-116.1876,41.9532,1637.00,71.60,30.20,21.50,210.00,7.00,0.00,29.99,M,10.00,13.00,CLR,M,M,M,M,M,M,M,M,M,M,M,M,M,M,71.60,K10U 030015Z AUTO 21007G13KT 10SM CLR 22/M01 A2999 RMK AO2,M
BVU,2025-05-03 00:35,-114.8611,35.9475,671.00,87.80,21.20,8.70,110.00,5.00,0.00,29.79,M,10.00,M,CLR,M,M,M,M,M,M,M,M,M,M,M,M,M,M,83.33,KBVU 030035Z AUTO 11005KT 10SM CLR 31/M06 A2979 RMK AO2,M
BAM,2025-05-03 00:35,-116.8743,40.5990,1382.36,78.80,24.80,13.54,270.00,6.00,0.00,29.93,M,10.00,M,CLR,M,M,M,M,M,M,M,M,M,M,M,M,M,M,78.80,KBAM 030035Z AUTO 27006KT 10SM CLR 26/M04 A2993 RMK AO1,M
CXP,2025-05-03 00:35,-119.7326,39.1923,1431.00,69.80,33.80,26.43,M,5.00,0.00,29.97,M,10.00,14.00,FEW,M,M,M,10000.00,M,M,M,M,M,M,M,M,M,M,69.80,KCXP 030035Z AUTO VRB05G14KT 10SM FEW100 21/01 A2997 RMK AO2,M
RTS,2025-05-03 00:35,-119.8764,39.6682,1539.00,69.80,30.20,22.86,270.00,14.00,0.00,29.97,M,10.00,19.00,SCT,BKN,M,M,9500.00,11000.00,M,M,M,M,M,M,M,M,M,69.80,KRTS 030035Z AUTO 27014G19KT 10SM SCT095 BKN110 21/M01 A2997 RMK AO2,M
MEV,2025-05-03 00:35,-119.7500,38.9963,1441.42,64.40,42.80,45.32,80.00,15.00,0.00,29.98,M,10.00,M,FEW,BKN,M,M,6000.00,8000.00,M,M,M,M,M,M,M,M,M,64.40,KMEV 030035Z AUTO 08015KT 10SM FEW060 BKN080 18/06 A2998 RMK AO2,M
HTH,2025-05-03 00:35,-118.6315,38.5448,1282.89,78.80,23.00,12.55,0.00,0.00,0.00,29.87,M,10.00,M,CLR,M,M,M,M,M,M,M,M,M,M,M,M,M,M,78.80,KHTH 030035Z AUTO 00000KT 10SM CLR 26/M05 A2987 RMK A01,M
TMT,2025-05-03 00:35,-117.1971,39.4643,1749.34,71.60,24.30,16.86,270.00,3.00,0.00,29.97,M,10.00,M,SCT,M,M,M,12000.00,M,M,M,M,M,M,M,M,M,M,71.60,KTMT 030035Z AUTO 27003KT 10SM SCT120 22/M04 A2997 RMK AO2 T02201043,M
10U,2025-05-03 00:35,-116.1876,41.9532,1637.00,71.60,30.20,21.50,200.00,8.00,0.00,29.99,M,10.00,M,CLR,M,M,M,M,M,M,M,M,M,M,M,M,M,M,71.60,K10U 030035Z AUTO 20008KT 10SM CLR 22/M01 A2999 RMK AO2,M
HTH,2025-05-03 00:50,-118.6315,38.5448,1282.89,78.80,21.20,11.64,M,4.00,0.00,29.86,M,10.00,M,CLR,M,M,M,M,M,M,M,M,M,M,M,M,M,M,78.80,KHTH 030050Z AUTO VRB04KT 10SM CLR 26/M06 A2986 RMK A01,M
P68,2025-05-03 00:53,-116.0056,39.6014,1993.00,74.00,22.00,14.12,330.00,7.00,0.00,29.96,1009.30,M,M,M,M,M,M,M,M,M,M,M,M,M,M,M,M,M,74.00,KP68 030053Z AUTO 33007KT 23/M06 A2996 RMK AO1 SLP093 T02331056,M
DRA,2025-05-03 00:53,-116.0278,36.6206,1009.00,84.00,32.00,15.35,M,5.00,0.00,29.85,1006.70,10.00,M,CLR,M,M,M,M,M,M,M,M,M,M,M,M,M,M,81.13,KDRA 030053Z AUTO VRB05KT 10SM CLR 29/00 A2985 RMK AO2 SLP067 T02890000,M
ELY,2025-05-03 00:53,-114.8453,39.2950,1909.00,70.00,17.00,13.06,200.00,5.00,0.00,30.00,1010.80,10.00,M,CLR,M,M,M,M,M,M,M,M,M,M,M,M,M,M,70.00,KELY 030053Z AUTO 20005KT 10SM CLR 21/M08 A3000 RMK AO2 SLP108 T02111083,M
VGT,2025-05-03 00:53,-115.1933,36.2111,667.00,89.00,23.00,9.04,40.00,3.00,0.00,29.79,1008.20,10.00,M,CLR,M,M,M,M,M,M,M,M,M,M,M,M,M,M,84.31,KVGT 030053Z 04003KT 10SM CLR 32/M05 A2979 RMK AO2 SLP082 T03171050,M
LOL,2025-05-03 00:53,-118.5701,40.0684,1192.43,80.00,20.00,10.63,200.00,7.00,0.00,29.86,1009.10,10.00,M,CLR,M,M,M,M,M,M,M,M,M,M,M,M,M,M,78.00,KLOL 030053Z AUTO 20007KT 10SM CLR 27/M07 A2986 RMK AO2 SLP091 T02671067,M
BVU,2025-05-03 00:55,-114.8611,35.9475,671.00,87.80,21.20,8.70,80.00,9.00,0.00,29.79,M,10.00,M,CLR,M,M,M,M,M,M,M,M,M,M,M,M,M,M,83.33,KBVU 030055Z AUTO 08009KT 10SM CLR 31/M06 A2979 RMK AO2,M
RNO,2025-05-03 00:55,-119.7711,39.4839,1341.00,74.00,33.00,22.20,290.00,17.00,0.00,29.91,1009.00,10.00,27.00,BKN,BKN,BKN,M,9000.00,12000.00,20000.00,M,M,M,M,M,28.00,290.00,2025-05-03 00:12,74.00,KRNO 030055Z 29017G27KT 10SM BKN090 BKN120 BKN200 23/01 A2991 RMK AO2 PK WND 29028/0012 SLP090 T02330006,M
BAM,2025-05-03 00:55,-116.8743,40.5990,1382.36,78.80,24.80,13.54,270.00,6.00,0.00,29.93,M,10.00,M,CLR,M,M,M,M,M,M,M,M,M,M,M,M,M,M,78.80,KBAM 030055Z AUTO 27006KT 10SM CLR 26/M04 A2993 RMK AO1,M
CXP,2025-05-03 00:55,-119.7326,39.1923,1431.00,68.00,35.60,30.20,170.00,7.00,0.00,30.00,M,8.00,17.00,FEW,SCT,BKN,M,4600.00,7500.00,8500.00,M,-RA,M,M,M,M,M,M,68.00,KCXP 030055Z AUTO 17007G17KT 8SM -RA FEW046 SCT075 BKN085 20/02 A3000 RMK AO2,M
RTS,2025-05-03 00:55,-119.8764,39.6682,1539.00,68.00,30.20,24.32,270.00,14.00,0.00,29.97,M,10.00,M,SCT,BKN,M,M,9000.00,12000.00,M,M,M,M,M,M,M,M,M,68.00,KRTS 030055Z AUTO 27014KT 10SM SCT090 BKN120 20/M01 A2997 RMK AO2,M
MEV,2025-05-03 00:55,-119.7500,38.9963,1441.42,59.00,44.60,58.77,70.00,15.00,0.00,29.98,M,10.00,21.00,BKN,OVC,M,M,8000.00,9000.00,M,M,M,M,M,M,M,M,M,59.00,KMEV 030055Z AUTO 07015G21KT 10SM BKN080 OVC090 15/07 A2998 RMK AO2,M
TMT,2025-05-03 00:55,-117.1971,39.4643,1749.34,72.00,24.80,16.98,270.00,5.00,0.00,29.97,M,10.00,M,CLR,M,M,M,M,M,M,M,M,M,M,M,M,M,M,72.00,KTMT 030055Z AUTO 27005KT 10SM CLR 22/M04 A2997 RMK AO2 T02231040,M
10U,2025-05-03 00:55,-116.1876,41.9532,1637.00,71.60,30.20,21.50,210.00,7.00,0.00,29.98,M,10.00,13.00,CLR,M,M,M,M,M,M,M,M,M,M,M,M,M,M,71.60,K10U 030055Z AUTO 21007G13KT 10SM CLR 22/M01 A2998 RMK AO2,M
INS,2025-05-03 00:55,-115.6733,36.5872,955.00,84.00,16.00,7.86,0.00,0.00,0.00,29.84,1006.80,10.00,M,CLR,M,M,M,M,M,M,M,M,M,M,M,M,M,M,80.38,KINS 030055Z AUTO 00000KT 10SM CLR 29/M09 A2984 RMK AO2 SLP068 T02881088 $,M
LSV,2025-05-03 00:55,-115.0343,36.2362,570.00,90.00,14.00,5.95,250.00,6.00,0.00,29.74,1004.70,10.00,M,FEW,M,M,M,14000.00,M,M,M,M,M,M,M,M,M,M,84.59,KLSV 030055Z 25006KT 10SM FEW140 32/M10 A2974 RMK AO2A SLP047 T03221100 $,M
EKO,2025-05-03 00:56,-115.7860,40.8242,1367.00,74.00,25.00,16.01,0.00,0.00,0.00,29.95,1011.50,10.00,M,CLR,M,M,M,M,M,M,M,M,M,M,M,M,M,M,74.00,KEKO 030056Z AUTO 00000KT 10SM CLR 23/M04 A2995 RMK AO2 SLP115 T02331039,M
WMC,2025-05-03 00:56,-117.8072,40.9019,1315.00,77.00,23.00,13.32,130.00,5.00,0.00,29.90,1009.80,10.00,M,CLR,M,M,M,M,M,M,M,M,M,M,M,M,M,M,77.00,KWMC 030056Z AUTO 13005KT 10SM CLR 25/M05 A2990 RMK AO2 SLP098 T02501050,M
HND,2025-05-03 00:56,-115.1344,35.9729,742.79,87.00,27.00,11.37,200.00,3.00,0.00,29.84,1009.70,10.00,M,CLR,M,M,M,M,M,M,M,M,M,M,M,M,M,M,83.14,KHND 030056Z 20003KT 10SM CLR 31/M03 A2984 RMK AO2 SLP097 T03061028 $,M
TPH,2025-05-03 00:56,-117.0904,38.0505,1654.00,72.00,22.00,15.10,200.00,8.00,0.00,29.97,1009.80,10.00,M,BKN,M,M,M,11000.00,M,M,M,M,M,M,M,M,M,M,72.00,KTPH 030056Z AUTO 20008KT 10SM BKN110 22/M06 A2997 RMK AO2 SLP098 T02221056,M
LAS,2025-05-03 00:56,-115.1634,36.0719,663.00,87.00,23.00,9.63,0.00,0.00,0.00,29.81,1007.10,10.00,M,FEW,M,M,M,12000.00,M,M,M,M,M,M,M,M,M,M,82.86,KLAS 030056Z 00000KT 10SM FEW120 31/M05 A2981 RMK AO2 SLP071 T03061050,M
NFL,2025-05-03 00:57,-118.7010,39.4166,1199.00,80.00,24.00,12.59,270.00,10.00,0.00,29.85,1008.40,10.00,15.00,SCT,SCT,SCT,M,7000.00,10000.00,25000.00,M,M,M,M,M,M,M,M,78.26,KNFL 030057Z 27010G15KT 10SM SCT070 SCT100 SCT250 27/M04 A2985 RMK AO2 SLP084 T02671044,M
RTS,2025-05-03 01:05,-119.8764,39.6682,1539.00,68.00,28.40,22.59,240.00,16.00,0.00,29.97,M,10.00,23.00,BKN,BKN,M,M,9000.00,12000.00,M,M,M,M,M,M,M,M,M,68.00,KRTS 030105Z AUTO 24016G23KT 10SM BKN090 BKN120 20/M02 A2997 RMK AO2,M
MEV,2025-05-03 01:05,-119.7500,38.9963,1441.42,59.00,44.60,58.77,60.00,12.00,0.00,29.98,M,10.00,M,OVC,M,M,M,8000.00,M,M,M,M,M,M,M,M,M,M,59.00,KMEV 030105Z AUTO 06012KT 10SM OVC080 15/07 A2998 RMK AO2,M
CXP,2025-05-03 01:10,-119.7326,39.1923,1431.00,60.80,46.40,59.01,170.00,9.00,0.00,30.03,M,6.00,27.00,FEW,SCT,BKN,M,3300.00,4400.00,7000.00,M,-RA HZ,M,M,M,M,M,M,60.80,KCXP 030110Z AUTO 17009G27KT 6SM -RA HZ FEW033 SCT044 BKN070 16/08 A3003 RMK AO2,M
BVU,2025-05-03 01:15,-114.8611,35.9475,671.00,87.80,19.40,8.06,140.00,5.00,0.00,29.79,M,10.00,M,CLR,M,M,M,M,M,M,M,M,M,M,M,M,M,M,83.23,KBVU 030115Z AUTO 14005KT 10SM CLR 31/M07 A2979 RMK AO2,M
BAM,2025-05-03 01:15,-116.8743,40.5990,1382.36,78.80,26.60,14.59,260.00,7.00,0.00,29.92,M,10.00,M,CLR,M,M,M,M,M,M,M,M,M,M,M,M,M,M,78.80,KBAM 030115Z AUTO 26007KT 10SM CLR 26/M03 A2992 RMK AO1,M
HTH,2025-05-03 01:15,-118.6315,38.5448,1282.89,78.80,21.20,11.64,0.00,0.00,0.00,29.86,M,10.00,M,CLR,M,M,M,M,M,M,M,M,M,M,M,M,M,M,78.80,KHTH 030115Z AUTO 00000KT 10SM CLR 26/M06 A2986 RMK A01,M
TMT,2025-05-03 01:15,-117.1971,39.4643,1749.34,72.00,25.70,17.63,340.00,8.00,0.00,29.97,M,10.00,M,CLR,M,M,M,M,M,M,M,M,M,M,M,M,M,M,72.00,KTMT 030115Z AUTO 34008KT 10SM CLR 22/M03 A2997 RMK AO2 T02221035,M
10U,2025-05-03 01:15,-116.1876,41.9532,1637.00,69.80,30.20,22.86,180.00,8.00,0.00,29.98,M,10.00,M,CLR,M,M,M,M,M,M,M,M,M,M,M,M,M,M,69.80,K10U 030115Z AUTO 18008KT 10SM CLR 21/M01 A2998 RMK AO2,M
BVU,2025-05-03 01:35,-114.8611,35.9475,671.00,87.80,17.60,7.46,130.00,5.00,0.00,29.79,M,10.00,10.00,CLR,M,M,M,M,M,M,M,M,M,M,M,M,M,M,83.14,KBVU 030135Z AUTO 13005G10KT 10SM CLR 31/M08 A2979 RMK AO2,M
BAM,2025-05-03 01:35,-116.8743,40.5990,1382.36,77.00,26.60,15.48,290.00,3.00,0.00,29.91,M,10.00,M,CLR,M,M,M,M,M,M,M,M,M,M,M,M,M,M,77.00,KBAM 030135Z AUTO 29003KT 10SM CLR 25/M03 A2991 RMK AO1,M
CXP,2025-05-03 01:35,-119.7326,39.1923,1431.00,60.80,46.40,59.01,330.00,9.00,0.00,30.00,M,10.00,M,FEW,SCT,BKN,M,3200.00,4400.00,6000.00,M,M,M,M,M,M,M,M,60.80,KCXP 030135Z AUTO 33009KT 10SM FEW032 SCT044 BKN060 16/08 A3000 RMK AO2,M
RTS,2025-05-03 01:35,-119.8764,39.6682,1539.00,66.20,28.40,24.04,250.00,19.00,0.00,29.97,M,10.00,24.00,BKN,M,M,M,9000.00,M,M,M,M,M,M,M,M,M,M,66.20,KRTS 030135Z AUTO 25019G24KT 10SM BKN090 19/M02 A2997 RMK AO2,M
MEV,2025-05-03 01:35,-119.7500,38.9963,1441.42,59.00,46.40,62.92,90.00,7.00,0.00,29.98,M,10.00,M,FEW,FEW,BKN,M,7000.00,8000.00,9500.00,M,M,M,M,M,M,M,M,59.00,KMEV 030135Z AUTO 09007KT 10SM FEW070 FEW080 BKN095 15/08 A2998 RMK AO2,M
HTH,2025-05-03 01:35,-118.6315,38.5448,1282.89,78.80,23.00,12.55,340.00,7.00,0.00,29.86,M,10.00,M,FEW,M,M,M,12000.00,M,M,M,M,M,M,M,M,M,M,78.80,KHTH 030135Z AUTO 34007KT 10SM FEW120 26/M05 A2986 RMK A01,M
TMT,2025-05-03 01:35,-117.1971,39.4643,1749.34,71.00,24.80,17.57,290.00,5.00,0.00,29.97,M,10.00,M,CLR,M,M,M,M,M,M,M,M,M,M,M,M,M,M,71.00,KTMT 030135Z AUTO 29005KT 10SM CLR 22/M04 A2997 RMK AO2 T02161040,M
10U,2025-05-03 01:35,-116.1876,41.9532,1637.00,69.80,30.20,22.86,210.00,6.00,0.00,29.97,M,10.00,M,CLR,M,M,M,M,M,M,M,M,M,M,M,M,M,M,69.80,K10U 030135Z AUTO 21006KT 10SM CLR 21/M01 A2997 RMK AO2,M
RNO,2025-05-03 01:43,-119.7711,39.4839,1341.00,68.00,37.00,31.92,180.00,23.00,0.00,29.95,M,10.00,37.00,BKN,BKN,M,M,7500.00,11000.00,M,M,M,M,M,M,37.00,180.00,2025-05-03 01:40,68.00,KRNO 030143Z 18023G37KT 10SM BKN075 BKN110 20/03 A2995 RMK AO2 PK WND 18037/0140 WSHFT 0127 T02000028,M
P68,2025-05-03 01:53,-116.0056,39.6014,1993.00,69.00,26.00,19.77,360.00,5.00,0.00,29.96,1008.90,M,M,M,M,M,M,M,M,M,M,M,M,M,M,M,M,M,69.00,KP68 030153Z AUTO 36005KT 21/M03 A2996 RMK AO1 SLP089 T02061033,M
DRA,2025-05-03 01:53,-116.0278,36.6206,1009.00,82.00,31.00,15.73,230.00,12.00,0.00,29.85,1006.60,10.00,M,FEW,M,M,M,12000.00,M,M,M,M,M,M,M,M,M,M,79.71,KDRA 030153Z AUTO 23012KT 10SM FEW120 28/M01 A2985 RMK AO2 SLP066 T02781006,M
ELY,2025-05-03 01:53,-114.8453,39.2950,1909.00,68.00,17.00,13.98,0.00,0.00,0.00,30.00,1010.10,10.00,M,CLR,M,M,M,M,M,M,M,M,M,M,M,M,M,M,68.00,KELY 030153Z AUTO 00000KT 10SM CLR 20/M08 A3000 RMK AO2 SLP101 T02001083 $,M
VGT,2025-05-03 01:53,-115.1933,36.2111,667.00,87.00,24.00,10.04,M,3.00,0.00,29.79,1008.20,10.00,M,CLR,M,M,M,M,M,M,M,M,M,M,M,M,M,M,82.92,KVGT 030153Z VRB03KT 10SM CLR 31/M04 A2979 RMK AO2 SLP082 T03061044,M
LOL,2025-05-03 01:53,-118.5701,40.0684,1192.43,78.00,22.00,12.36,190.00,7.00,0.00,29.84,1007.90,10.00,M,CLR,M,M,M,M,M,M,M,M,M,M,M,M,M,M,78.00,KLOL 030153Z AUTO 19007KT 10SM CLR 26/M06 A2984 RMK AO2 SLP079 T02561056,M
BVU,2025-05-03 01:55,-114.8611,35.9475,671.00,86.00,17.60,7.90,0.00,0.00,0.00,29.78,M,10.00,M,CLR,M,M,M,M,M,M,M,M,M,M,M,M,M,M,81.85,KBVU 030155Z AUTO 00000KT 10SM CLR 30/M08 A2978 RMK AO2,M
RNO,2025-05-03 01:55,-119.7711,39.4839,1341.00,68.00,37.00,31.92,190.00,18.00,0.00,29.96,1011.30,10.00,27.00,BKN,BKN,M,M,7500.00,11000.00,M,M,M,M,M,M,37.00,180.00,2025-05-03 01:40,68.00,KRNO 030155Z 19018G27KT 10SM BKN075 BKN110 20/03 A2996 RMK AO2 PK WND 18037/0140 WSHFT 0127 SLP113 SH VC T02000028,M
BAM,2025-05-03 01:55,-116.8743,40.5990,1382.36,77.00,26.60,15.48,0.00,0.00,0.00,29.91,M,10.00,M,CLR,M,M,M,M,M,M,M,M,M,M,M,M,M,M,77.00,KBAM 030155Z AUTO 00000KT 10SM CLR 25/M03 A2991 RMK AO1,M
CXP,2025-05-03 01:55,-119.7326,39.1923,1431.00,60.80,48.20,63.15,280.00,3.00,0.00,29.99,M,10.00,M,FEW,SCT,BKN,M,3200.00,6000.00,10000.00,M,-RA,M,M,M,M,M,M,60.80,KCXP 030155Z AUTO 28003KT 10SM -RA FEW032 SCT060 BKN100 16/09 A2999 RMK AO2,M
RTS,2025-05-03 01:55,-119.8764,39.6682,1539.00,66.20,30.20,25.88,230.00,12.00,0.00,29.98,M,10.00,22.00,OVC,M,M,M,8500.00,M,M,M,M,M,M,M,M,M,M,66.20,KRTS 030155Z AUTO 23012G22KT 10SM OVC085 19/M01 A2998 RMK AO2,M
MEV,2025-05-03 01:55,-119.7500,38.9963,1441.42,M,M,M,M,M,0.00,M,M,10.00,M,FEW,SCT,BKN,M,6000.00,8000.00,9000.00,M,M,M,M,M,M,M,M,M,KMEV 030155Z AUTO 10SM FEW060 SCT080 BKN090 RMK AO2 PNO PWINO TSNO,M
HTH,2025-05-03 01:55,-118.6315,38.5448,1282.89,77.00,26.60,15.48,340.00,10.00,0.00,29.86,M,10.00,M,FEW,M,M,M,12000.00,M,M,M,M,M,M,M,M,M,M,77.00,KHTH 030155Z AUTO 34010KT 10SM FEW120 25/M03 A2986 RMK A01,M
TMT,2025-05-03 01:55,-117.1971,39.4643,1749.34,69.60,25.50,18.97,330.00,3.00,0.00,29.97,M,10.00,M,CLR,M,M,M,M,M,M,M,M,M,M,M,M,M,M,69.60,KTMT 030155Z AUTO 33003KT 10SM CLR 21/M04 A2997 RMK AO2 T02091036,M
10U,2025-05-03 01:55,-116.1876,41.9532,1637.00,68.00,30.20,24.32,210.00,5.00,0.00,29.97,M,10.00,M,CLR,M,M,M,M,M,M,M,M,M,M,M,M,M,M,68.00,K10U 030155Z AUTO 21005KT 10SM CLR 20/M01 A2997 RMK AO2,M
INS,2025-05-03 01:55,-115.6733,36.5872,955.00,80.80,16.70,8.99,250.00,4.00,0.00,29.84,1006.80,10.00,M,CLR,M,M,M,M,M,M,M,M,M,M,M,M,M,M,78.27,KINS 030155Z AUTO 25004KT 10SM CLR 27/M08 A2984 RMK AO2 SLP068 T02711085 $,M
LSV,2025-05-03 01:55,-115.0343,36.2362,570.00,88.50,16.50,6.96,250.00,6.00,0.00,29.74,1004.70,10.00,M,FEW,M,M,M,14000.00,M,M,M,M,M,M,M,M,M,M,83.60,KLSV 030155Z 25006KT 10SM FEW140 31/M09 A2974 RMK AO2A SLP047 T03141086 $,M
EKO,2025-05-03 01:56,-115.7860,40.8242,1367.00,72.00,25.00,17.13,110.00,4.00,0.00,29.94,1010.50,10.00,M,CLR,M,M,M,M,M,M,M,M,M,M,M,M,M,M,72.00,KEKO 030156Z AUTO 11004KT 10SM CLR 22/M04 A2994 RMK AO2 SLP105 T02221039,M
WMC,2025-05-03 01:56,-117.8072,40.9019,1315.00,75.00,24.00,14.85,240.00,5.00,0.00,29.88,1008.80,10.00,M,CLR,M,M,M,M,M,M,M,M,M,M,M,M,M,M,75.00,KWMC 030156Z AUTO 24005KT 10SM CLR 24/M04 A2988 RMK AO2 SLP088 T02391044,M
HND,2025-05-03 01:56,-115.1344,35.9729,742.79,85.00,25.00,11.16,0.00,0.00,0.00,29.83,1009.50,10.00,M,CLR,M,M,M,M,M,M,M,M,M,M,M,M,M,M,81.57,KHND 030156Z 00000KT 10SM CLR 29/M04 A2983 RMK AO2 SLP095 T02941039 $,M
TPH,2025-05-03 01:56,-117.0904,38.0505,1654.00,72.00,23.00,15.75,180.00,7.00,0.00,29.96,1009.20,10.00,M,FEW,M,M,M,11000.00,M,M,M,M,M,M,M,M,M,M,72.00,KTPH 030156Z AUTO 18007KT 10SM FEW110 22/M05 A2996 RMK AO2 SLP092 T02221050,M
LAS,2025-05-03 01:56,-115.1634,36.0719,663.00,87.00,23.00,9.63,M,3.00,0.00,29.81,1007.00,10.00,M,FEW,M,M,M,12000.00,M,M,M,M,M,M,M,M,M,M,82.86,KLAS 030156Z VRB03KT 10SM FEW120 31/M05 A2981 RMK AO2 SLP070 T03061050,M
NFL,2025-05-03 01:57,-118.7010,39.4166,1199.00,78.00,27.00,15.22,320.00,5.00,0.00,29.84,1008.20,10.00,M,SCT,BKN,BKN,M,7000.00,10000.00,25000.00,M,M,M,M,M,M,M,M,78.00,KNFL 030157Z 32005KT 10SM SCT070 BKN100 BKN250 26/M03 A2984 RMK AO2 WSHFT 0130 SLP082 CB DSNT W SH DSNT S-SW T02561028,M
BVU,2025-05-03 02:15,-114.8611,35.9475,671.00,86.00,19.40,8.53,60.00,4.00,0.00,29.79,M,10.00,M,CLR,M,M,M,M,M,M,M,M,M,M,M,M,M,M,81.94,KBVU 030215Z AUTO 06004KT 10SM CLR 30/M07 A2979 RMK AO2,M
BAM,2025-05-03 02:15,-116.8743,40.5990,1382.36,75.20,30.20,19.05,250.00,3.00,0.00,29.90,M,10.00,M,CLR,M,M,M,M,M,M,M,M,M,M,M,M,M,M,75.20,KBAM 030215Z AUTO 25003KT 10SM CLR 24/M01 A2990 RMK AO1,M
CXP,2025-05-03 02:15,-119.7326,39.1923,1431.00,60.80,48.20,63.15,0.00,0.00,0.00,29.99,M,10.00,M,BKN,M,M,M,10000.00,M,M,M,M,M,M,M,M,M,M,60.80,KCXP 030215Z AUTO 00000KT 10SM BKN100 16/09 A2999 RMK AO2,M
RTS,2025-05-03 02:15,-119.8764,39.6682,1539.00,64.40,33.80,31.85,230.00,13.00,0.00,29.99,M,10.00,25.00,FEW,SCT,BKN,M,4200.00,6500.00,8000.00,M,-DZ,M,M,M,M,M,M,64.40,KRTS 030215Z AUTO 23013G25KT 10SM -DZ FEW042 SCT065 BKN080 18/01 A2999 RMK AO2,M
MEV,2025-05-03 02:15,-119.7500,38.9963,1441.42,59.00,50.00,72.01,80.00,5.00,0.00,29.98,M,10.00,M,FEW,SCT,BKN,M,4500.00,6000.00,8500.00,M,M,M,M,M,M,M,M,59.00,KMEV 030215Z AUTO 08005KT 10SM FEW045 SCT060 BKN085 15/10 A2998 RMK AO2,M
HTH,2025-05-03 02:15,-118.6315,38.5448,1282.89,75.20,30.20,19.05,320.00,8.00,0.00,29.87,M,10.00,M,SCT,M,M,M,12000.00,M,M,M,M,M,M,M,M,M,M,75.20,KHTH 030215Z AUTO 32008KT 10SM SCT120 24/M01 A2987 RMK A01,M
TMT,2025-05-03 02:15,-117.1971,39.4643,1749.34,67.30,27.30,22.12,320.00,4.00,0.00,29.97,M,10.00,M,CLR,M,M,M,M,M,M,M,M,M,M,M,M,M,M,67.30,KTMT 030215Z AUTO 32004KT 10SM CLR 20/M03 A2997 RMK AO2 T01961026,M
10U,2025-05-03 02:15,-116.1876,41.9532,1637.00,66.20,37.40,34.51,220.00,4.00,0.00,29.97,M,10.00,M,CLR,M,M,M,M,M,M,M,M,M,M,M,M,M,M,66.20,K10U 030215Z AUTO 22004KT 10SM CLR 19/03 A2997 RMK AO2,M
BVU,2025-05-03 02:35,-114.8611,35.9475,671.00,86.00,21.20,9.21,80.00,4.00,0.00,29.79,M,10.00,M,CLR,M,M,M,M,M,M,M,M,M,M,M,M,M,M,82.04,KBVU 030235Z AUTO 08004KT 10SM CLR 30/M06 A2979 RMK AO2,M
BAM,2025-05-03 02:35,-116.8743,40.5990,1382.36,73.40,32.00,21.76,300.00,4.00,0.00,29.90,M,10.00,M,CLR,M,M,M,M,M,M,M,M,M,M,M,M,M,M,73.40,KBAM 030235Z AUTO 30004KT 10SM CLR 23/00 A2990 RMK AO1,M
CXP,2025-05-03 02:35,-119.7326,39.1923,1431.00,60.80,48.20,63.15,0.00,0.00,0.00,29.98,M,10.00,M,FEW,SCT,BKN,M,4700.00,6500.00,10000.00,M,M,M,M,M,M,M,M,60.80,KCXP 030235Z AUTO 00000KT 10SM FEW047 SCT065 BKN100 16/09 A2998 RMK AO2,M
RTS,2025-05-03 02:35,-119.8764,39.6682,1539.00,64.40,32.00,29.63,190.00,13.00,0.00,29.99,M,10.00,19.00,FEW,SCT,BKN,M,6500.00,8000.00,9500.00,M,M,M,M,M,M,M,M,64.40,KRTS 030235Z AUTO 19013G19KT 10SM FEW065 SCT080 BKN095 18/00 A2999 RMK AO2,M
MEV,2025-05-03 02:35,-119.7500,38.9963,1441.42,57.20,50.00,76.82,120.00,4.00,0.00,29.98,M,10.00,M,FEW,SCT,BKN,M,4600.00,6000.00,10000.00,M,M,M,M,M,M,M,M,57.20,KMEV 030235Z AUTO 12004KT 10SM FEW046 SCT060 BKN100 14/10 A2998 RMK AO2,M
HTH,2025-05-03 02:35,-118.6315,38.5448,1282.89,75.20,32.00,20.49,0.00,0.00,0.00,29.87,M,10.00,M,FEW,M,M,M,12000.00,M,M,M,M,M,M,M,M,M,M,75.20,KHTH 030235Z AUTO 00000KT 10SM FEW120 24/M00 A2987 RMK A01,M
TMT,2025-05-03 02:35,-117.1971,39.4643,1749.34,64.40,28.00,25.18,360.00,5.00,0.00,29.97,M,10.00,M,SCT,M,M,M,12000.00,M,M,M,M,M,M,M,M,M,M,64.40,KTMT 030235Z AUTO 36005KT 10SM SCT120 18/M02 A2997 RMK AO2 T01801023,M
10U,2025-05-03 02:35,-116.1876,41.9532,1637.00,62.60,37.40,39.14,210.00,4.00,0.00,29.97,M,10.00,M,CLR,M,M,M,M,M,M,M,M,M,M,M,M,M,M,62.60,K10U 030235Z AUTO 21004KT 10SM CLR 17/03 A2997 RMK AO2,M
10U,2025-05-03 02:50,-116.1876,41.9532,1637.00,59.00,37.40,44.47,0.00,0.00,0.00,29.97,M,10.00,M,CLR,M,M,M,M,M,M,M,M,M,M,M,M,M,M,59.00,K10U 030250Z AUTO 00000KT 10SM CLR 15/03 A2997 RMK AO2,M
CXP,2025-05-03 02:50,-119.7326,39.1923,1431.00,60.80,48.20,63.15,0.00,0.00,0.00,29.98,M,10.00,M,FEW,SCT,BKN,M,4500.00,7000.00,12000.00,M,M,M,M,M,M,M,M,60.80,KCXP 030250Z AUTO 00000KT 10SM FEW045 SCT070 BKN120 16/09 A2998 RMK AO2,M
P68,2025-05-03 02:53,-116.0056,39.6014,1993.00,64.00,27.00,24.51,180.00,7.00,0.00,29.97,1008.80,M,M,M,M,M,M,M,M,M,M,M,M,M,M,M,M,M,64.00,KP68 030253Z AUTO 18007KT 18/M03 A2997 RMK AO1 SLP088 T01781028 55002,M
DRA,2025-05-03 02:53,-116.0278,36.6206,1009.00,79.00,32.00,18.06,240.00,7.00,0.00,29.86,1006.80,10.00,M,CLR,M,M,M,M,M,M,M,M,M,M,M,M,M,M,79.00,KDRA 030253Z AUTO 24007KT 10SM CLR 26/00 A2986 RMK AO2 SLP068 T02610000 55000,M
ELY,2025-05-03 02:53,-114.8453,39.2950,1909.00,60.00,17.00,18.50,200.00,7.00,0.00,30.01,1010.10,10.00,M,BKN,M,M,M,12000.00,M,M,M,M,M,M,M,M,M,M,60.00,KELY 030253Z AUTO 20007KT 10SM BKN120 16/M08 A3001 RMK AO2 SLP101 T01561083 55001 $,M
VGT,2025-05-03 02:53,-115.1933,36.2111,667.00,84.00,24.00,11.05,150.00,4.00,0.00,29.80,1008.50,10.00,M,CLR,M,M,M,M,M,M,M,M,M,M,M,M,M,M,80.81,KVGT 030253Z 15004KT 10SM CLR 29/M04 A2980 RMK AO2 SLP085 T02891044 55002,M
LOL,2025-05-03 02:53,-118.5701,40.0684,1192.43,73.00,22.00,14.60,250.00,3.00,0.00,29.84,1007.80,10.00,M,CLR,M,M,M,M,M,M,M,M,M,M,M,M,M,M,73.00,KLOL 030253Z AUTO 25003KT 10SM CLR 23/M06 A2984 RMK AO2 SLP078 T02281056 56013,M
BVU,2025-05-03 02:55,-114.8611,35.9475,671.00,82.40,26.60,12.97,60.00,4.00,0.00,29.80,M,10.00,M,CLR,M,M,M,M,M,M,M,M,M,M,M,M,M,M,79.92,KBVU 030255Z AUTO 06004KT 10SM CLR 28/M03 A2980 RMK AO2,M
RNO,2025-05-03 02:55,-119.7711,39.4839,1341.00,67.00,37.00,33.04,240.00,6.00,T,29.95,1010.40,10.00,M,BKN,BKN,M,M,7500.00,12000.00,M,M,M,M,M,M,28.00,200.00,2025-05-03 02:04,67.00,KRNO 030255Z 24006KT 10SM BKN075 BKN120 19/03 A2995 RMK AO2 PK WND 20028/0204 RAB03E21 SLP104 P0000 60000 T01940028 50009,M
RTS,2025-05-03 02:55,-119.8764,39.6682,1539.00,62.60,32.00,31.56,270.00,10.00,0.00,29.98,M,10.00,M,FEW,SCT,BKN,M,6000.00,8000.00,10000.00,M,M,M,M,M,M,M,M,62.60,KRTS 030255Z AUTO 27010KT 10SM FEW060 SCT080 BKN100 17/00 A2998 RMK AO2,M
MEV,2025-05-03 02:55,-119.7500,38.9963,1441.42,57.20,51.80,82.12,210.00,6.00,0.00,29.98,M,10.00,M,OVC,M,M,M,9000.00,M,M,M,M,M,M,M,M,M,M,57.20,KMEV 030255Z AUTO 21006KT 10SM OVC090 14/11 A2998 RMK AO2,M
BAM,2025-05-03 02:55,-116.8743,40.5990,1382.36,69.80,32.00,24.59,0.00,0.00,0.00,29.90,M,10.00,M,CLR,M,M,M,M,M,M,M,M,M,M,M,M,M,M,69.80,KBAM 030255Z AUTO 00000KT 10SM CLR 21/00 A2990 RMK AO1,M
HTH,2025-05-03 02:55,-118.6315,38.5448,1282.89,75.20,30.20,19.05,M,4.00,0.00,29.88,M,10.00,M,SCT,M,M,M,12000.00,M,M,M,M,M,M,M,M,M,M,75.20,KHTH 030255Z AUTO VRB04KT 10SM SCT120 24/M01 A2988 RMK A01,M
TMT,2025-05-03 02:55,-117.1971,39.4643,1749.34,62.00,28.40,27.85,300.00,4.00,0.00,29.97,M,10.00,M,BKN,M,M,M,12000.00,M,M,M,M,M,M,M,M,M,M,62.00,KTMT 030255Z AUTO 30004KT 10SM BKN120 17/M02 A2997 RMK AO2 T01661020,M
INS,2025-05-03 02:55,-115.6733,36.5872,955.00,80.40,26.80,13.95,200.00,10.00,0.00,29.84,1006.30,10.00,M,OVC,M,M,M,13000.00,M,M,M,M,M,M,M,M,M,M,78.80,KINS 030255Z AUTO 20010KT 10SM OVC130 27/M03 A2984 RMK AO2 SLP063 T02691029 55001 $,M
LSV,2025-05-03 02:55,-115.0343,36.2362,570.00,85.60,14.50,6.99,190.00,5.00,0.00,29.75,1005.10,10.00,M,FEW,M,M,M,12000.00,M,M,M,M,M,M,M,M,M,M,81.44,KLSV 030255Z 19005KT 10SM FEW120 30/M10 A2975 RMK AO2A SLP051 T02981097 55001 $,M
WMC,2025-05-03 02:56,-117.8072,40.9019,1315.00,67.00,27.00,22.08,230.00,4.00,0.00,29.88,1008.60,10.00,M,CLR,M,M,M,M,M,M,M,M,M,M,M,M,M,M,67.00,KWMC 030256Z AUTO 23004KT 10SM CLR 19/M03 A2988 RMK AO2 SLP086 T01941028 55010,M
EKO,2025-05-03 02:56,-115.7860,40.8242,1367.00,65.00,29.00,25.69,330.00,4.00,0.00,29.93,1010.40,10.00,M,CLR,M,M,M,M,M,M,M,M,M,M,M,M,M,M,65.00,KEKO 030256Z AUTO 33004KT 10SM CLR 18/M02 A2993 RMK AO2 SLP104 T01831017 56008,M
HND,2025-05-03 02:56,-115.1344,35.9729,742.79,84.00,25.00,11.52,0.00,0.00,0.00,29.84,1009.60,10.00,M,CLR,M,M,M,M,M,M,M,M,M,M,M,M,M,M,80.88,KHND 030256Z 00000KT 10SM CLR 29/M04 A2984 RMK AO2 SLP096 T02891039 55002 $,M
TPH,2025-05-03 02:56,-117.0904,38.0505,1654.00,66.00,23.00,19.35,180.00,5.00,0.00,29.96,1009.20,10.00,M,CLR,M,M,M,M,M,M,M,M,M,M,M,M,M,M,66.00,KTPH 030256Z AUTO 18005KT 10SM CLR 19/M05 A2996 RMK AO2 SLP092 T01891050 55004,M
LAS,2025-05-03 02:56,-115.1634,36.0719,663.00,86.00,25.00,10.81,0.00,0.00,0.00,29.81,1007.20,10.00,M,FEW,M,M,M,12000.00,M,M,M,M,M,M,M,M,M,M,82.27,KLAS 030256Z 00000KT 10SM FEW120 30/M04 A2981 RMK AO2 SLP072 T03001039 55002,M
NFL,2025-05-03 02:57,-118.7010,39.4166,1199.00,71.00,37.00,28.81,280.00,16.00,0.00,29.86,1008.70,10.00,M,SCT,BKN,BKN,M,7000.00,10000.00,25000.00,M,M,M,M,M,33.00,260.00,2025-05-03 02:36,71.00,KNFL 030257Z 28016KT 10SM SCT070 BKN100 BKN250 22/03 A2986 RMK AO2 PK WND 26033/0236 SLP087 SH DSNT SW-W T02170028 55002,M
RTS,2025-05-03 03:05,-119.8764,39.6682,1539.00,62.60,32.00,31.56,260.00,10.00,0.00,29.98,M,10.00,M,FEW,OVC,M,M,8000.00,10000.00,M,M,M,M,M,M,M,M,M,62.60,KRTS 030305Z AUTO 26010KT 10SM FEW080 OVC100 17/M00 A2998 RMK AO2,M
MEV,2025-05-03 03:05,-119.7500,38.9963,1441.42,57.20,50.00,76.82,210.00,5.00,0.00,29.97,M,10.00,M,FEW,OVC,M,M,7000.00,9000.00,M,M,M,M,M,M,M,M,M,57.20,KMEV 030305Z AUTO 21005KT 10SM FEW070 OVC090 14/10 A2997 RMK AO2,M
CXP,2025-05-03 03:10,-119.7326,39.1923,1431.00,59.00,48.20,67.33,0.00,0.00,0.00,29.98,M,10.00,M,BKN,M,M,M,11000.00,M,M,M,M,M,M,M,M,M,M,59.00,KCXP 030310Z AUTO 00000KT 10SM BKN110 15/09 A2998 RMK AO2,M
BVU,2025-05-03 03:15,-114.8611,35.9475,671.00,78.80,30.20,16.90,80.00,4.00,0.00,29.80,M,10.00,M,CLR,M,M,M,M,M,M,M,M,M,M,M,M,M,M,78.80,KBVU 030315Z AUTO 08004KT 10SM CLR 26/M01 A2980 RMK AO2,M
BAM,2025-05-03 03:15,-116.8743,40.5990,1382.36,68.00,32.00,26.15,0.00,0.00,0.00,29.90,M,10.00,M,CLR,M,M,M,M,M,M,M,M,M,M,M,M,M,M,68.00,KBAM 030315Z AUTO 00000KT 10SM CLR 20/00 A2990 RMK AO1,M
TMT,2025-05-03 03:15,-117.1971,39.4643,1749.34,61.00,28.00,28.38,350.00,4.00,0.00,29.97,M,10.00,M,SCT,M,M,M,12000.00,M,M,M,M,M,M,M,M,M,M,61.00,KTMT 030315Z AUTO 35004KT 10SM SCT120 16/M02 A2997 RMK AO2 T01621022,M
HTH,2025-05-03 03:15,-118.6315,38.5448,1282.89,73.40,35.60,25.13,10.00,14.00,0.00,29.88,M,10.00,M,SCT,BKN,M,M,10000.00,12000.00,M,M,M,M,M,M,M,M,M,73.40,KHTH 030315Z AUTO 01014KT 10SM SCT100 BKN120 23/02 A2988 RMK A01,M
10U,2025-05-03 03:15,-116.1876,41.9532,1637.00,55.40,37.40,50.64,100.00,5.00,0.00,29.97,M,10.00,M,CLR,M,M,M,M,M,M,M,M,M,M,M,M,M,M,55.40,K10U 030315Z AUTO 10005KT 10SM CLR 13/03 A2997 RMK AO2,M
BVU,2025-05-03 03:35,-114.8611,35.9475,671.00,80.60,23.00,11.83,260.00,4.00,0.00,29.81,M,10.00,M,CLR,M,M,M,M,M,M,M,M,M,M,M,M,M,M,78.80,KBVU 030335Z AUTO 26004KT 10SM CLR 27/M05 A2981 RMK AO2,M
BAM,2025-05-03 03:35,-116.8743,40.5990,1382.36,66.20,33.80,29.92,70.00,5.00,0.00,29.91,M,10.00,M,CLR,M,M,M,M,M,M,M,M,M,M,M,M,M,M,66.20,KBAM 030335Z AUTO 07005KT 10SM CLR 19/01 A2991 RMK AO1,M
CXP,2025-05-03 03:35,-119.7326,39.1923,1431.00,59.00,48.20,67.33,90.00,3.00,0.00,29.98,M,10.00,M,OVC,M,M,M,10000.00,M,M,M,M,M,M,M,M,M,M,59.00,KCXP 030335Z AUTO 09003KT 10SM OVC100 15/09 A2998 RMK AO2,M
RTS,2025-05-03 03:35,-119.8764,39.6682,1539.00,60.80,32.00,33.64,270.00,11.00,0.00,29.99,M,10.00,M,FEW,OVC,M,M,8000.00,11000.00,M,M,M,M,M,M,M,M,M,60.80,KRTS 030335Z AUTO 27011KT 10SM FEW080 OVC110 16/M00 A2999 RMK AO2,M
MEV,2025-05-03 03:35,-119.7500,38.9963,1441.42,57.20,48.20,71.83,160.00,4.00,0.00,29.97,M,10.00,M,SCT,BKN,OVC,M,8000.00,9000.00,11000.00,M,M,M,M,M,M,M,M,57.20,KMEV 030335Z AUTO 16004KT 10SM SCT080 BKN090 OVC110 14/09 A2997 RMK AO2,M
HTH,2025-05-03 03:35,-118.6315,38.5448,1282.89,69.80,37.40,30.49,10.00,11.00,0.00,29.89,M,10.00,M,SCT,BKN,M,M,9000.00,11000.00,M,M,M,M,M,M,M,M,M,69.80,KHTH 030335Z AUTO 01011KT 10SM SCT090 BKN110 21/03 A2989 RMK A01,M
TMT,2025-05-03 03:35,-117.1971,39.4643,1749.34,58.00,27.30,30.70,120.00,5.00,0.00,29.98,M,10.00,M,BKN,M,M,M,11000.00,M,M,M,M,M,M,M,M,M,M,58.00,KTMT 030335Z AUTO 12005KT 10SM BKN110 14/M03 A2998 RMK AO2 T01441026,M
10U,2025-05-03 03:35,-116.1876,41.9532,1637.00,53.60,37.40,54.07,100.00,4.00,0.00,29.97,M,10.00,M,CLR,M,M,M,M,M,M,M,M,M,M,M,M,M,M,53.60,K10U 030335Z AUTO 10004KT 10SM CLR 12/03 A2997 RMK AO2,M
P68,2025-05-03 03:53,-116.0056,39.6014,1993.00,60.00,25.00,25.98,170.00,5.00,0.00,29.98,1009.00,M,M,M,M,M,M,M,M,M,M,M,M,M,M,M,M,M,60.00,KP68 030353Z AUTO 17005KT 16/M04 A2998 RMK AO1 SLP090 T01561039,M
DRA,2025-05-03 03:53,-116.0278,36.6206,1009.00,75.00,31.00,19.81,230.00,4.00,0.00,29.87,1007.20,10.00,M,CLR,M,M,M,M,M,M,M,M,M,M,M,M,M,M,75.00,KDRA 030353Z AUTO 23004KT 10SM CLR 24/M01 A2987 RMK AO2 SLP072 T02391006,M
ELY,2025-05-03 03:53,-114.8453,39.2950,1909.00,51.00,17.00,25.66,180.00,8.00,0.00,30.02,1010.70,10.00,M,CLR,M,M,M,M,M,M,M,M,M,M,M,M,M,M,51.00,KELY 030353Z AUTO 18008KT 10SM CLR 11/M08 A3002 RMK AO2 SLP107 T01061083 $,M
VGT,2025-05-03 03:53,-115.1933,36.2111,667.00,82.00,24.00,11.79,0.00,0.00,0.00,29.81,1008.80,10.00,M,CLR,M,M,M,M,M,M,M,M,M,M,M,M,M,M,79.47,KVGT 030353Z 00000KT 10SM CLR 28/M04 A2981 RMK AO2 SLP088 T02781044,M
LOL,2025-05-03 03:53,-118.5701,40.0684,1192.43,70.00,33.00,25.42,300.00,16.00,0.00,29.86,1008.30,10.00,M,CLR,M,M,M,M,M,M,M,M,M,M,M,27.00,270.00,2025-05-03 03:10,70.00,KLOL 030353Z AUTO 30016KT 10SM CLR 21/01 A2986 RMK AO2 PK WND 27027/0310 SLP083 T02110006,M
BVU,2025-05-03 03:55,-114.8611,35.9475,671.00,82.40,24.80,12.03,180.00,4.00,0.00,29.81,M,10.00,M,CLR,M,M,M,M,M,M,M,M,M,M,M,M,M,M,79.79,KBVU 030355Z AUTO 18004KT 10SM CLR 28/M04 A2981 RMK AO2,M
RNO,2025-05-03 03:55,-119.7711,39.4839,1341.00,66.00,32.00,28.03,300.00,12.00,0.00,29.95,1010.10,10.00,22.00,BKN,BKN,M,M,8000.00,12000.00,M,M,M,M,M,M,M,M,M,66.00,KRNO 030355Z 30012G22KT 10SM BKN080 BKN120 19/00 A2995 RMK AO2 SLP101 T01890000,M
BAM,2025-05-03 03:55,-116.8743,40.5990,1382.36,60.80,35.60,38.85,140.00,9.00,0.00,29.91,M,10.00,M,CLR,M,M,M,M,M,M,M,M,M,M,M,M,M,M,60.80,KBAM 030355Z AUTO 14009KT 10SM CLR 16/02 A2991 RMK AO1,M
CXP,2025-05-03 03:55,-119.7326,39.1923,1431.00,59.00,44.60,58.77,140.00,4.00,0.00,29.98,M,10.00,M,OVC,M,M,M,10000.00,M,M,M,M,M,M,M,M,M,M,59.00,KCXP 030355Z AUTO 14004KT 10SM OVC100 15/07 A2998 RMK AO2,M
RTS,2025-05-03 03:55,-119.8764,39.6682,1539.00,60.80,32.00,33.64,280.00,9.00,0.00,30.00,M,10.00,M,BKN,OVC,M,M,9000.00,11000.00,M,M,M,M,M,M,M,M,M,60.80,KRTS 030355Z AUTO 28009KT 10SM BKN090 OVC110 16/M00 A3000 RMK AO2,M
MEV,2025-05-03 03:55,-119.7500,38.9963,1441.42,53.60,48.20,81.87,150.00,4.00,0.00,29.98,M,10.00,M,SCT,OVC,M,M,8000.00,10000.00,M,M,M,M,M,M,M,M,M,53.60,KMEV 030355Z AUTO 15004KT 10SM SCT080 OVC100 12/09 A2998 RMK AO2,M
HTH,2025-05-03 03:55,-118.6315,38.5448,1282.89,69.80,37.40,30.49,100.00,5.00,0.00,29.90,M,10.00,M,BKN,M,M,M,12000.00,M,M,M,M,M,M,M,M,M,M,69.80,KHTH 030355Z AUTO 10005KT 10SM BKN120 21/03 A2990 RMK A01,M
TMT,2025-05-03 03:55,-117.1971,39.4643,1749.34,56.00,29.30,35.81,220.00,3.00,0.00,29.99,M,10.00,M,SCT,M,M,M,12000.00,M,M,M,M,M,M,M,M,M,M,56.00,KTMT 030355Z AUTO 22003KT 10SM SCT120 13/M01 A2999 RMK AO2 T01331015,M
10U,2025-05-03 03:55,-116.1876,41.9532,1637.00,50.00,35.60,57.52,140.00,5.00,0.00,29.97,M,10.00,M,CLR,M,M,M,M,M,M,M,M,M,M,M,M,M,M,50.00,K10U 030355Z AUTO 14005KT 10SM CLR 10/02 A2997 RMK AO2,M
INS,2025-05-03 03:55,-115.6733,36.5872,955.00,78.00,26.60,14.98,170.00,6.00,0.00,29.86,1006.60,10.00,M,CLR,M,M,M,M,M,M,M,M,M,M,M,M,M,M,78.00,KINS 030355Z AUTO 17006KT 10SM CLR 26/M03 A2986 RMK AO2 SLP066 T02561030 $,M
LSV,2025-05-03 03:55,-115.0343,36.2362,570.00,82.80,15.40,7.96,160.00,5.00,0.00,29.76,1005.40,10.00,M,FEW,M,M,M,12000.00,M,M,M,M,M,M,M,M,M,M,79.53,KLSV 030355Z 16005KT 10SM FEW120 28/M09 A2976 RMK AO2A SLP054 T02821092 $,M
EKO,2025-05-03 03:56,-115.7860,40.8242,1367.00,61.00,30.00,30.80,80.00,5.00,0.00,29.94,1010.60,10.00,M,CLR,M,M,M,M,M,M,M,M,M,M,M,M,M,M,61.00,KEKO 030356Z AUTO 08005KT 10SM CLR 16/M01 A2994 RMK AO2 SLP106 T01611011,M
WMC,2025-05-03 03:56,-117.8072,40.9019,1315.00,57.00,30.00,35.54,90.00,3.00,0.00,29.88,1008.90,10.00,M,CLR,M,M,M,M,M,M,M,M,M,M,M,M,M,M,57.00,KWMC 030356Z AUTO 09003KT 10SM CLR 14/M01 A2988 RMK AO2 SLP089 T01391011,M
HND,2025-05-03 03:56,-115.1344,35.9729,742.79,81.00,30.00,15.60,170.00,6.00,0.00,29.86,1010.10,10.00,M,CLR,M,M,M,M,M,M,M,M,M,M,M,M,M,M,79.02,KHND 030356Z AUTO 17006KT 10SM CLR 27/M01 A2986 RMK AO2 SLP101 T02721011 $,M
TPH,2025-05-03 03:56,-117.0904,38.0505,1654.00,60.00,23.00,23.90,220.00,4.00,0.00,29.97,1009.70,10.00,M,CLR,M,M,M,M,M,M,M,M,M,M,M,M,M,M,60.00,KTPH 030356Z AUTO 22004KT 10SM CLR 16/M05 A2997 RMK AO2 SLP097 T01561050,M
LAS,2025-05-03 03:56,-115.1634,36.0719,663.00,84.00,27.00,12.52,180.00,6.00,0.00,29.82,1007.60,10.00,M,FEW,M,M,M,12000.00,M,M,M,M,M,M,M,M,M,M,81.03,KLAS 030356Z 18006KT 10SM FEW120 29/M03 A2982 RMK AO2 SLP076 T02891028,M
NFL,2025-05-03 03:57,-118.7010,39.4166,1199.00,68.00,38.00,33.20,280.00,12.00,0.00,29.88,1009.40,10.00,18.00,SCT,BKN,BKN,M,7000.00,10000.00,25000.00,M,M,M,M,M,30.00,280.00,2025-05-03 02:59,68.00,KNFL 030357Z 28012G18KT 10SM SCT070 BKN100 BKN250 20/03 A2988 RMK AO2 PK WND 28030/0259 SLP094 SH DSNT SW-W T02000033,M
MEV,2025-05-03 04:05,-119.7500,38.9963,1441.42,55.40,48.20,76.66,100.00,3.00,0.00,29.98,M,10.00,M,FEW,OVC,M,M,7500.00,9500.00,M,M,M,M,M,M,M,M,M,55.40,KMEV 030405Z AUTO 10003KT 10SM FEW075 OVC095 13/09 A2998 RMK AO2,M
BVU,2025-05-03 04:15,-114.8611,35.9475,671.00,82.40,26.60,12.97,140.00,4.00,0.00,29.82,M,10.00,M,CLR,M,M,M,M,M,M,M,M,M,M,M,M,M,M,79.92,KBVU 030415Z AUTO 14004KT 10SM CLR 28/M03 A2982 RMK AO2,M
BAM,2025-05-03 04:15,-116.8743,40.5990,1382.36,59.00,35.60,41.42,0.00,0.00,0.00,29.92,M,10.00,M,CLR,M,M,M,M,M,M,M,M,M,M,M,M,M,M,59.00,KBAM 030415Z AUTO 00000KT 10SM CLR 15/02 A2992 RMK AO1,M
CXP,2025-05-03 04:15,-119.7326,39.1923,1431.00,60.80,39.20,44.76,M,5.00,0.00,29.99,M,10.00,M,OVC,M,M,M,9500.00,M,M,M,M,M,M,M,M,M,M,60.80,KCXP 030415Z AUTO VRB05KT 10SM OVC095 16/04 A2999 RMK AO2,M
RTS,2025-05-03 04:15,-119.8764,39.6682,1539.00,60.80,30.20,31.28,290.00,14.00,0.00,30.00,M,10.00,M,FEW,SCT,OVC,M,6500.00,8000.00,9500.00,M,M,M,M,M,M,M,M,60.80,KRTS 030415Z AUTO 29014KT 10SM FEW065 SCT080 OVC095 16/M01 A3000 RMK AO2,M
HTH,2025-05-03 04:15,-118.6315,38.5448,1282.89,69.80,35.60,28.39,70.00,5.00,0.00,29.91,M,10.00,M,BKN,M,M,M,12000.00,M,M,M,M,M,M,M,M,M,M,69.80,KHTH 030415Z AUTO 07005KT 10SM BKN120 21/02 A2991 RMK A01,M
TMT,2025-05-03 04:15,-117.1971,39.4643,1749.34,56.00,30.60,37.76,270.00,3.00,0.00,29.99,M,10.00,M,SCT,M,M,M,11000.00,M,M,M,M,M,M,M,M,M,M,56.00,KTMT 030415Z AUTO 27003KT 10SM SCT110 13/M01 A2999 RMK AO2 T01341008,M
10U,2025-05-03 04:15,-116.1876,41.9532,1637.00,50.00,33.80,53.54,120.00,6.00,0.00,29.97,M,10.00,M,CLR,M,M,M,M,M,M,M,M,M,M,M,M,M,M,50.00,K10U 030415Z AUTO 12006KT 10SM CLR 10/01 A2997 RMK AO2,M
BVU,2025-05-03 04:35,-114.8611,35.9475,671.00,80.60,24.80,12.76,150.00,4.00,0.00,29.82,M,10.00,M,CLR,M,M,M,M,M,M,M,M,M,M,M,M,M,M,78.94,KBVU 030435Z AUTO 15004KT 10SM CLR 27/M04 A2982 RMK AO2,M
BAM,2025-05-03 04:35,-116.8743,40.5990,1382.36,59.00,37.40,44.47,0.00,0.00,0.00,29.93,M,10.00,M,CLR,M,M,M,M,M,M,M,M,M,M,M,M,M,M,59.00,KBAM 030435Z AUTO 00000KT 10SM CLR 15/03 A2993 RMK AO1,M
CXP,2025-05-03 04:35,-119.7326,39.1923,1431.00,62.60,37.40,39.14,230.00,7.00,0.00,29.99,M,10.00,M,FEW,BKN,OVC,M,7000.00,8000.00,10000.00,M,M,M,M,M,M,M,M,62.60,KCXP 030435Z AUTO 23007KT 10SM FEW070 BKN080 OVC100 17/03 A2999 RMK AO2,M
RTS,2025-05-03 04:35,-119.8764,39.6682,1539.00,59.00,28.40,30.98,280.00,14.00,0.00,30.01,M,10.00,20.00,SCT,BKN,OVC,M,6500.00,7500.00,9000.00,M,M,M,M,M,M,M,M,59.00,KRTS 030435Z AUTO 28014G20KT 10SM SCT065 BKN075 OVC090 15/M02 A3001 RMK AO2,M
MEV,2025-05-03 04:35,-119.7500,38.9963,1441.42,55.40,48.20,76.66,0.00,0.00,0.00,29.98,M,10.00,M,SCT,BKN,OVC,M,6000.00,7500.00,10000.00,M,M,M,M,M,M,M,M,55.40,KMEV 030435Z AUTO 00000KT 10SM SCT060 BKN075 OVC100 13/09 A2998 RMK AO2,M
HTH,2025-05-03 04:35,-118.6315,38.5448,1282.89,69.80,35.60,28.39,80.00,4.00,0.00,29.91,M,10.00,M,FEW,M,M,M,12000.00,M,M,M,M,M,M,M,M,M,M,69.80,KHTH 030435Z AUTO 08004KT 10SM FEW120 21/02 A2991 RMK A01,M
TMT,2025-05-03 04:35,-117.1971,39.4643,1749.34,55.40,32.00,40.84,280.00,6.00,0.00,29.99,M,10.00,M,BKN,M,M,M,11000.00,M,M,M,M,M,M,M,M,M,M,55.40,KTMT 030435Z AUTO 28006KT 10SM BKN110 13/00 A2999 RMK AO2 T01300000,M
10U,2025-05-03 04:35,-116.1876,41.9532,1637.00,48.20,35.60,61.52,150.00,7.00,0.00,29.97,M,10.00,M,CLR,M,M,M,M,M,M,M,M,M,M,M,M,M,M,44.53,K10U 030435Z AUTO 15007KT 10SM CLR 09/02 A2997 RMK AO2,M
RTS,2025-05-03 04:45,-119.8764,39.6682,1539.00,59.00,28.40,30.98,290.00,10.00,0.00,30.01,M,10.00,17.00,BKN,OVC,M,M,7000.00,8500.00,M,M,M,M,M,M,M,M,M,59.00,KRTS 030445Z AUTO 29010G17KT 10SM BKN070 OVC085 15/M02 A3001 RMK AO2,M
MEV,2025-05-03 04:45,-119.7500,38.9963,1441.42,55.40,50.00,81.99,30.00,6.00,0.00,29.98,M,10.00,M,FEW,SCT,BKN,M,2000.00,3800.00,6000.00,M,-RA,M,M,M,M,M,M,55.40,KMEV 030445Z AUTO 03006KT 10SM -RA FEW020 SCT038 BKN060 13/10 A2998 RMK AO2,M
CXP,2025-05-03 04:50,-119.7326,39.1923,1431.00,60.80,41.00,48.00,20.00,4.00,0.00,29.99,M,10.00,M,FEW,BKN,OVC,M,7000.00,8000.00,9000.00,M,M,M,M,M,M,M,M,60.80,KCXP 030450Z AUTO 02004KT 10SM FEW070 BKN080 OVC090 16/05 A2999 RMK AO2,M
P68,2025-05-03 04:53,-116.0056,39.6014,1993.00,57.00,21.00,24.45,130.00,6.00,0.00,29.99,1008.90,M,M,M,M,M,M,M,M,M,M,M,M,M,M,M,M,M,57.00,KP68 030453Z AUTO 13006KT 14/M06 A2999 RMK AO1 SLP089 T01391061,M
DRA,2025-05-03 04:53,-116.0278,36.6206,1009.00,72.00,31.00,21.91,170.00,3.00,0.00,29.88,1007.40,10.00,M,CLR,M,M,M,M,M,M,M,M,M,M,M,M,M,M,72.00,KDRA 030453Z AUTO 17003KT 10SM CLR 22/M01 A2988 RMK AO2 SLP074 T02221006,M
ELY,2025-05-03 04:53,-114.8453,39.2950,1909.00,49.00,18.00,28.86,180.00,10.00,0.00,30.03,1010.40,10.00,M,CLR,M,M,M,M,M,M,M,M,M,M,M,M,M,M,44.29,KELY 030453Z AUTO 18010KT 10SM CLR 09/M08 A3003 RMK AO2 SLP104 T00941078 $,M
VGT,2025-05-03 04:53,-115.1933,36.2111,667.00,80.00,29.00,15.48,0.00,0.00,0.00,29.82,1009.30,10.00,M,CLR,M,M,M,M,M,M,M,M,M,M,M,M,M,M,78.43,KVGT 030453Z AUTO 00000KT 10SM CLR 27/M02 A2982 RMK AO2 SLP093 T02671017,M
LOL,2025-05-03 04:53,-118.5701,40.0684,1192.43,67.00,35.00,30.53,290.00,12.00,0.00,29.88,1008.70,10.00,18.00,CLR,M,M,M,M,M,M,M,M,M,M,M,M,M,M,67.00,KLOL 030453Z AUTO 29012G18KT 10SM CLR 19/02 A2988 RMK AO2 SLP087 T01940017,M
BVU,2025-05-03 04:55,-114.8611,35.9475,671.00,80.60,26.60,13.75,180.00,3.00,0.00,29.83,M,10.00,M,CLR,M,M,M,M,M,M,M,M,M,M,M,M,M,M,78.68,KBVU 030455Z AUTO 18003KT 10SM CLR 27/M03 A2983 RMK AO2,M
RNO,2025-05-03 04:55,-119.7711,39.4839,1341.00,64.00,32.00,30.05,270.00,11.00,0.00,29.96,1010.50,10.00,M,BKN,OVC,M,M,7000.00,11000.00,M,M,M,M,M,M,M,M,M,64.00,KRNO 030455Z 27011KT 10SM BKN070 OVC110 18/00 A2996 RMK AO2 SLP105 T01780000,M
BAM,2025-05-03 04:55,-116.8743,40.5990,1382.36,60.80,35.60,38.85,0.00,0.00,0.00,29.92,M,10.00,M,CLR,M,M,M,M,M,M,M,M,M,M,M,M,M,M,60.80,KBAM 030455Z AUTO 00000KT 10SM CLR 16/02 A2992 RMK AO1,M
HTH,2025-05-03 04:55,-118.6315,38.5448,1282.89,68.00,35.60,30.20,140.00,6.00,0.00,29.92,M,10.00,M,FEW,M,M,M,12000.00,M,M,M,M,M,M,M,M,M,M,68.00,KHTH 030455Z AUTO 14006KT 10SM FEW120 20/02 A2992 RMK A01,M
TMT,2025-05-03 04:55,-117.1971,39.4643,1749.34,55.00,31.00,39.80,290.00,4.00,0.00,29.99,M,10.00,M,SCT,M,M,M,11000.00,M,M,M,M,M,M,M,M,M,M,55.00,KTMT 030455Z AUTO 29004KT 10SM SCT110 13/00 A2999 RMK AO2 T01281005,M
10U,2025-05-03 04:55,-116.1876,41.9532,1637.00,48.20,35.60,61.52,140.00,9.00,0.00,29.97,M,10.00,M,CLR,M,M,M,M,M,M,M,M,M,M,M,M,M,M,43.66,K10U 030455Z AUTO 14009KT 10SM CLR 09/02 A2997 RMK AO2,M
INS,2025-05-03 04:55,-115.6733,36.5872,955.00,75.00,27.00,16.82,280.00,3.00,0.00,29.88,1007.20,10.00,M,CLR,M,M,M,M,M,M,M,M,M,M,M,M,M,M,75.00,KINS 030455Z AUTO 28003KT 10SM CLR 24/M03 A2988 RMK AO2 SLP072 T02381027 $,M
LSV,2025-05-03 04:55,-115.0343,36.2362,570.00,82.00,20.00,9.96,120.00,3.00,0.00,29.77,1005.50,10.00,M,FEW,M,M,M,14000.00,M,M,M,M,M,M,M,M,M,M,79.22,KLSV 030455Z 12003KT 10SM FEW140 28/M07 A2977 RMK AO2A SLP055 T02771067 $,M
EKO,2025-05-03 04:56,-115.7860,40.8242,1367.00,57.00,31.00,37.01,0.00,0.00,0.00,29.95,1010.60,10.00,M,CLR,M,M,M,M,M,M,M,M,M,M,M,M,M,M,57.00,KEKO 030456Z AUTO 00000KT 10SM CLR 14/M01 A2995 RMK AO2 SLP106 T01391006,M
WMC,2025-05-03 04:56,-117.8072,40.9019,1315.00,54.00,32.00,42.98,360.00,4.00,0.00,29.89,1009.10,10.00,M,CLR,M,M,M,M,M,M,M,M,M,M,M,M,M,M,54.00,KWMC 030456Z AUTO 36004KT 10SM CLR 12/00 A2989 RMK AO2 SLP091 T01220000,M
HND,2025-05-03 04:56,-115.1344,35.9729,742.79,78.00,29.00,16.53,210.00,6.00,0.00,29.87,1010.50,10.00,M,CLR,M,M,M,M,M,M,M,M,M,M,M,M,M,M,78.00,KHND 030456Z AUTO 21006KT 10SM CLR 26/M02 A2987 RMK AO2 SLP105 T02561017 $,M
TPH,2025-05-03 04:56,-117.0904,38.0505,1654.00,59.00,24.00,25.82,0.00,0.00,0.00,29.99,1009.90,10.00,M,CLR,M,M,M,M,M,M,M,M,M,M,M,M,M,M,59.00,KTPH 030456Z AUTO 00000KT 10SM CLR 15/M04 A2999 RMK AO2 SLP099 T01501044,M
LAS,2025-05-03 04:56,-115.1634,36.0719,663.00,81.00,28.00,14.38,210.00,3.00,0.00,29.84,1008.10,10.00,M,FEW,M,M,M,12000.00,M,M,M,M,M,M,M,M,M,M,78.98,KLAS 030456Z 21003KT 10SM FEW120 27/M02 A2984 RMK AO2 SLP081 T02721022,M
NFL,2025-05-03 04:57,-118.7010,39.4166,1199.00,62.00,38.00,40.93,0.00,0.00,0.00,29.91,1010.20,10.00,M,CLR,M,M,M,M,M,M,M,M,M,M,M,M,M,M,62.00,KNFL 030457Z AUTO 00000KT 10SM CLR 17/03 A2991 RMK AO2 SLP102 T01670033,M
BVU,2025-05-03 05:15,-114.8611,35.9475,671.00,77.00,26.60,15.48,190.00,3.00,0.00,29.83,M,10.00,M,CLR,M,M,M,M,M,M,M,M,M,M,M,M,M,M,77.00,KBVU 030515Z AUTO 19003KT 10SM CLR 25/M03 A2983 RMK AO2,M
BAM,2025-05-03 05:15,-116.8743,40.5990,1382.36,59.00,35.60,41.42,0.00,0.00,0.00,29.92,M,10.00,M,CLR,M,M,M,M,M,M,M,M,M,M,M,M,M,M,59.00,KBAM 030515Z AUTO 00000KT 10SM CLR 15/02 A2992 RMK AO1,M
TMT,2025-05-03 05:15,-117.1971,39.4643,1749.34,50.70,28.80,42.61,180.00,5.00,0.00,29.99,M,10.00,M,SCT,M,M,M,11000.00,M,M,M,M,M,M,M,M,M,M,50.70,KTMT 030515Z AUTO 18005KT 10SM SCT110 10/M02 A2999 RMK AO2 T01041018,M
CXP,2025-05-03 05:15,-119.7326,39.1923,1431.00,60.80,39.20,44.76,30.00,5.00,0.00,30.00,M,10.00,M,FEW,OVC,M,M,7500.00,9000.00,M,M,M,M,M,M,M,M,M,60.80,KCXP 030515Z AUTO 03005KT 10SM FEW075 OVC090 16/04 A3000 RMK AO2,M
HTH,2025-05-03 05:15,-118.6315,38.5448,1282.89,69.80,33.80,26.43,0.00,0.00,0.00,29.92,M,10.00,11.00,FEW,BKN,M,M,8500.00,11000.00,M,M,M,M,M,M,M,M,M,69.80,KHTH 030515Z AUTO 00000G11KT 10SM FEW085 BKN110 21/01 A2992 RMK A01,M
10U,2025-05-03 05:15,-116.1876,41.9532,1637.00,50.00,33.80,53.54,130.00,7.00,0.00,29.97,M,10.00,M,CLR,M,M,M,M,M,M,M,M,M,M,M,M,M,M,50.00,K10U 030515Z AUTO 13007KT 10SM CLR 10/01 A2997 RMK AO2,M
BVU,2025-05-03 05:35,-114.8611,35.9475,671.00,77.00,30.20,17.94,0.00,0.00,0.00,29.83,M,10.00,M,CLR,M,M,M,M,M,M,M,M,M,M,M,M,M,M,77.00,KBVU 030535Z AUTO 00000KT 10SM CLR 25/M01 A2983 RMK AO2,M
BAM,2025-05-03 05:35,-116.8743,40.5990,1382.36,55.40,35.60,47.16,0.00,0.00,0.00,29.92,M,10.00,M,CLR,M,M,M,M,M,M,M,M,M,M,M,M,M,M,55.40,KBAM 030535Z AUTO 00000KT 10SM CLR 13/02 A2992 RMK AO1,M
CXP,2025-05-03 05:35,-119.7326,39.1923,1431.00,60.80,35.60,38.85,M,4.00,0.00,30.00,M,10.00,M,OVC,M,M,M,8500.00,M,M,M,M,M,M,M,M,M,M,60.80,KCXP 030535Z AUTO VRB04KT 10SM OVC085 16/02 A3000 RMK AO2,M
RTS,2025-05-03 05:35,-119.8764,39.6682,1539.00,57.20,28.40,33.05,300.00,6.00,0.00,30.02,M,10.00,M,FEW,SCT,BKN,M,3300.00,5000.00,7000.00,M,M,M,M,M,M,M,M,57.20,KRTS 030535Z AUTO 30006KT 10SM FEW033 SCT050 BKN070 14/M02 A3002 RMK AO2,M
MEV,2025-05-03 05:35,-119.7500,38.9963,1441.42,55.40,46.40,71.64,0.00,0.00,0.00,29.98,M,10.00,M,FEW,SCT,OVC,M,7500.00,9500.00,11000.00,M,M,M,M,M,M,M,M,55.40,KMEV 030535Z AUTO 00000KT 10SM FEW075 SCT095 OVC110 13/08 A2998 RMK AO2,M
HTH,2025-05-03 05:35,-118.6315,38.5448,1282.89,68.00,35.60,30.20,40.00,3.00,0.00,29.92,M,10.00,M,OVC,M,M,M,11000.00,M,M,M,M,M,M,M,M,M,M,68.00,KHTH 030535Z AUTO 04003KT 10SM OVC110 20/02 A2992 RMK A01,M
TMT,2025-05-03 05:35,-117.1971,39.4643,1749.34,50.00,28.80,43.74,220.00,5.00,0.00,29.99,M,10.00,M,SCT,M,M,M,11000.00,M,M,M,M,M,M,M,M,M,M,50.00,KTMT 030535Z AUTO 22005KT 10SM SCT110 10/M02 A2999 RMK AO2 T01011018,M
10U,2025-05-03 05:35,-116.1876,41.9532,1637.00,50.00,33.80,53.54,150.00,6.00,0.00,29.98,M,10.00,M,CLR,M,M,M,M,M,M,M,M,M,M,M,M,M,M,50.00,K10U 030535Z AUTO 15006KT 10SM CLR 10/01 A2998 RMK AO2,M
P68,2025-05-03 05:53,-116.0056,39.6014,1993.00,52.00,23.00,31.93,180.00,5.00,0.00,29.98,1008.70,M,M,M,M,M,M,M,M,M,M,M,M,M,M,M,M,M,52.00,KP68 030553Z AUTO 18005KT 11/M05 A2998 RMK AO1 SLP087 T01111050 10244 20100 50003,M
DRA,2025-05-03 05:53,-116.0278,36.6206,1009.00,68.00,29.00,23.16,100.00,4.00,0.00,29.88,1007.50,10.00,M,CLR,M,M,M,M,M,M,M,M,M,M,M,M,M,M,68.00,KDRA 030553Z AUTO 10004KT 10SM CLR 20/M02 A2988 RMK AO2 SLP075 T02001017 10306 20200 51006,M
ELY,2025-05-03 05:53,-114.8453,39.2950,1909.00,47.00,17.00,29.79,190.00,11.00,0.00,30.04,1010.30,10.00,M,CLR,M,M,M,M,M,M,M,M,M,M,M,M,M,M,41.42,KELY 030553Z AUTO 19011KT 10SM CLR 08/M08 A3004 RMK AO2 SLP103 T00831083 10217 20078 51007 $,M
VGT,2025-05-03 05:53,-115.1933,36.2111,667.00,77.00,32.00,19.30,350.00,3.00,0.00,29.82,1009.30,10.00,M,CLR,M,M,M,M,M,M,M,M,M,M,M,M,M,M,77.00,KVGT 030553Z AUTO 35003KT 10SM CLR 25/00 A2982 RMK AO2 SLP093 T02500000 10317 20250 51008,M
LOL,2025-05-03 05:53,-118.5701,40.0684,1192.43,66.00,36.00,32.88,320.00,8.00,0.00,29.89,1008.80,10.00,M,CLR,M,M,M,M,M,M,M,M,M,M,M,M,M,M,66.00,KLOL 030553Z AUTO 32008KT 10SM CLR 19/02 A2989 RMK AO2 SLP088 T01890022 10272 20189 51016,M
BVU,2025-05-03 05:55,-114.8611,35.9475,671.00,77.00,28.40,16.67,0.00,0.00,0.00,29.83,M,10.00,M,CLR,M,M,M,M,M,M,M,M,M,M,M,M,M,M,77.00,KBVU 030555Z AUTO 00000KT 10SM CLR 25/M02 A2983 RMK AO2,M
RNO,2025-05-03 05:55,-119.7711,39.4839,1341.00,63.00,32.00,31.12,300.00,9.00,0.00,29.95,1009.80,10.00,M,BKN,OVC,M,M,8000.00,12000.00,M,M,M,M,M,M,M,M,M,63.00,KRNO 030555Z 30009KT 10SM BKN080 OVC120 17/00 A2995 RMK AO2 SLP098 60000 T01720000 10250 20172 50002,M
BAM,2025-05-03 05:55,-116.8743,40.5990,1382.36,53.60,35.60,50.36,0.00,0.00,0.00,29.91,M,10.00,M,CLR,M,M,M,M,M,M,M,M,M,M,M,M,M,M,53.60,KBAM 030555Z AUTO 00000KT 10SM CLR 12/02 A2991 RMK AO1,M
CXP,2025-05-03 05:55,-119.7326,39.1923,1431.00,59.00,37.40,44.47,0.00,0.00,0.00,30.00,M,10.00,M,BKN,OVC,M,M,8000.00,9000.00,M,M,M,M,M,M,M,M,M,59.00,KCXP 030555Z AUTO 00000KT 10SM BKN080 OVC090 15/03 A3000 RMK AO2,M
RTS,2025-05-03 05:55,-119.8764,39.6682,1539.00,57.20,28.40,33.05,290.00,8.00,0.00,30.01,M,10.00,M,FEW,BKN,OVC,M,3600.00,5500.00,10000.00,M,M,M,M,M,M,M,M,57.20,KRTS 030555Z AUTO 29008KT 10SM FEW036 BKN055 OVC100 14/M02 A3001 RMK AO2,M
MEV,2025-05-03 05:55,-119.7500,38.9963,1441.42,53.60,48.20,81.87,110.00,5.00,0.00,29.99,M,10.00,M,FEW,SCT,OVC,M,7500.00,10000.00,12000.00,M,M,M,M,M,M,M,M,53.60,KMEV 030555Z AUTO 11005KT 10SM FEW075 SCT100 OVC120 12/09 A2999 RMK AO2,M
HTH,2025-05-03 05:55,-118.6315,38.5448,1282.89,66.20,33.80,29.92,360.00,3.00,0.00,29.92,M,10.00,M,BKN,M,M,M,11000.00,M,M,M,M,M,M,M,M,M,M,66.20,KHTH 030555Z AUTO 36003KT 10SM BKN110 19/01 A2992 RMK A01,M
TMT,2025-05-03 05:55,-117.1971,39.4643,1749.34,48.00,29.00,47.52,230.00,7.00,0.00,29.99,M,10.00,M,SCT,M,M,M,12000.00,M,M,M,M,M,M,M,M,M,M,44.28,KTMT 030555Z AUTO 23007KT 10SM SCT120 09/M02 A2999 RMK AO2 T00891016 10237 20089,M
10U,2025-05-03 05:55,-116.1876,41.9532,1637.00,48.20,33.80,57.26,140.00,8.00,0.00,29.97,M,10.00,M,CLR,M,M,M,M,M,M,M,M,M,M,M,M,M,M,44.07,K10U 030555Z AUTO 14008KT 10SM CLR 09/01 A2997 RMK AO2,M
INS,2025-05-03 05:55,-115.6733,36.5872,955.00,72.00,26.20,18.00,320.00,4.00,0.00,29.88,1007.20,10.00,M,CLR,M,M,M,M,M,M,M,M,M,M,M,M,M,M,72.00,KINS 030555Z AUTO 32004KT 10SM CLR 22/M03 A2988 RMK AO2 SLP072 T02231032 10296 20218 51010 $,M
LSV,2025-05-03 05:55,-115.0343,36.2362,570.00,79.70,24.40,12.92,210.00,6.00,0.00,29.77,1005.50,10.00,M,CLR,M,M,M,M,M,M,M,M,M,M,M,M,M,M,79.70,KLSV 030555Z AUTO 21006KT 10SM CLR 27/M04 A2977 RMK AO2 SLP055 T02651042 10325 20258 51009 $,M
EKO,2025-05-03 05:56,-115.7860,40.8242,1367.00,52.00,32.00,46.25,80.00,4.00,0.00,29.95,1010.70,10.00,M,CLR,M,M,M,M,M,M,M,M,M,M,M,M,M,M,52.00,KEKO 030556Z AUTO 08004KT 10SM CLR 11/00 A2995 RMK AO2 SLP107 T01110000 10239 20111 50004,M
WMC,2025-05-03 05:56,-117.8072,40.9019,1315.00,50.00,31.00,47.83,260.00,9.00,0.00,29.90,1009.70,10.00,M,CLR,M,M,M,M,M,M,M,M,M,M,M,M,M,M,50.00,KWMC 030556Z AUTO 26009KT 10SM CLR 10/M01 A2990 RMK AO2 SLP097 T01001006 10256 20094 53007,M
HND,2025-05-03 05:56,-115.1344,35.9729,742.79,76.00,30.00,18.40,220.00,8.00,0.00,29.87,1010.40,10.00,M,CLR,M,M,M,M,M,M,M,M,M,M,M,M,M,M,76.00,KHND 030556Z AUTO 22008KT 10SM CLR 24/M01 A2987 RMK AO2 SLP104 T02441011 10311 20233 51008 $,M
TPH,2025-05-03 05:56,-117.0904,38.0505,1654.00,54.00,23.00,29.67,80.00,4.00,0.00,29.99,1010.20,10.00,M,CLR,M,M,M,M,M,M,M,M,M,M,M,M,M,M,54.00,KTPH 030556Z AUTO 08004KT 10SM CLR 12/M05 A2999 RMK AO2 SLP102 T01221050 10239 20122 51007,M
LAS,2025-05-03 05:56,-115.1634,36.0719,663.00,79.00,29.00,15.99,210.00,4.00,0.00,29.84,1008.10,10.00,M,FEW,M,M,M,12000.00,M,M,M,M,M,M,M,M,M,M,79.00,KLAS 030556Z 21004KT 10SM FEW120 26/M02 A2984 RMK AO2 SLP081 T02611017 10317 20261 51009,M
NFL,2025-05-03 05:57,-118.7010,39.4166,1199.00,64.00,38.00,38.15,310.00,4.00,0.00,29.91,1010.20,10.00,M,FEW,M,M,M,12000.00,M,M,M,M,M,M,M,M,M,M,64.00,KNFL 030557Z AUTO 31004KT 10SM FEW120 18/03 A2991 RMK AO2 SLP102 T01780033 10278 20161 50015,M
MEV,2025-05-03 06:05,-119.7500,38.9963,1441.42,53.60,48.20,81.87,110.00,7.00,0.00,29.99,M,10.00,M,FEW,FEW,BKN,M,3700.00,7500.00,11000.00,M,M,M,M,M,M,M,M,53.60,KMEV 030605Z AUTO 11007KT 10SM FEW037 FEW075 BKN110 12/09 A2999 RMK AO2,M
BVU,2025-05-03 06:15,-114.8611,35.9475,671.00,77.00,26.60,15.48,0.00,0.00,0.00,29.83,M,10.00,M,CLR,M,M,M,M,M,M,M,M,M,M,M,M,M,M,77.00,KBVU 030615Z AUTO 00000KT 10SM CLR 25/M03 A2983 RMK AO2,M
BAM,2025-05-03 06:15,-116.8743,40.5990,1382.36,53.60,35.60,50.36,70.00,4.00,0.00,29.91,M,10.00,M,SCT,M,M,M,12000.00,M,M,M,M,M,M,M,M,M,M,53.60,KBAM 030615Z AUTO 07004KT 10SM SCT120 12/02 A2991 RMK AO1,M
CXP,2025-05-03 06:15,-119.7326,39.1923,1431.00,59.00,39.20,47.72,100.00,5.00,0.00,29.99,M,10.00,M,FEW,BKN,OVC,M,7500.00,8500.00,10000.00,M,M,M,M,M,M,M,M,59.00,KCXP 030615Z AUTO 10005KT 10SM FEW075 BKN085 OVC100 15/04 A2999 RMK AO2,M
RTS,2025-05-03 06:15,-119.8764,39.6682,1539.00,57.20,30.20,35.57,280.00,9.00,0.00,30.00,M,10.00,M,FEW,SCT,OVC,M,6000.00,7500.00,8500.00,M,M,M,M,M,M,M,M,57.20,KRTS 030615Z AUTO 28009KT 10SM FEW060 SCT075 OVC085 14/M01 A3000 RMK AO2,M
HTH,2025-05-03 06:15,-118.6315,38.5448,1282.89,66.20,33.80,29.92,310.00,4.00,0.00,29.93,M,10.00,M,OVC,M,M,M,9500.00,M,M,M,M,M,M,M,M,M,M,66.20,KHTH 030615Z AUTO 31004KT 10SM OVC095 19/01 A2993 RMK A01,M
TMT,2025-05-03 06:15,-117.1971,39.4643,1749.34,46.80,29.50,50.74,260.00,3.00,0.00,29.99,M,10.00,M,SCT,M,M,M,12000.00,M,M,M,M,M,M,M,M,M,M,45.61,KTMT 030615Z AUTO 26003KT 10SM SCT120 08/M01 A2999 RMK AO2 T00821014,M
10U,2025-05-03 06:15,-116.1876,41.9532,1637.00,48.20,33.80,57.26,140.00,8.00,0.00,29.97,M,10.00,M,CLR,M,M,M,M,M,M,M,M,M,M,M,M,M,M,44.07,K10U 030615Z AUTO 14008KT 10SM CLR 09/01 A2997 RMK AO2,M
MEV,2025-05-03 06:25,-119.7500,38.9963,1441.42,53.60,46.40,76.50,70.00,9.00,0.00,29.98,M,10.00,M,FEW,SCT,M,M,4800.00,11000.00,M,M,M,M,M,M,M,M,M,53.60,KMEV 030625Z AUTO 07009KT 10SM FEW048 SCT110 12/08 A2998 RMK AO2,M
RTS,2025-05-03 06:25,-119.8764,39.6682,1539.00,57.20,30.20,35.57,270.00,11.00,0.00,30.00,M,10.00,M,FEW,FEW,OVC,M,6000.00,7500.00,9000.00,M,M,M,M,M,M,M,M,57.20,KRTS 030625Z AUTO 27011KT 10SM FEW060 FEW075 OVC090 14/M01 A3000 RMK AO2,M
10U,2025-05-03 06:35,-116.1876,41.9532,1637.00,46.40,33.80,61.28,130.00,8.00,0.00,29.96,M,10.00,M,CLR,M,M,M,M,M,M,M,M,M,M,M,M,M,M,41.85,K10U 030635Z AUTO 13008KT 10SM CLR 08/01 A2996 RMK AO2,M
BVU,2025-05-03 06:35,-114.8611,35.9475,671.00,73.40,30.20,20.23,0.00,0.00,0.00,29.83,M,10.00,M,CLR,M,M,M,M,M,M,M,M,M,M,M,M,M,M,73.40,KBVU 030635Z AUTO 00000KT 10SM CLR 23/M01 A2983 RMK AO2,M
BAM,2025-05-03 06:35,-116.8743,40.5990,1382.36,53.60,37.40,54.07,0.00,0.00,0.00,29.92,M,10.00,M,SCT,M,M,M,12000.00,M,M,M,M,M,M,M,M,M,M,53.60,KBAM 030635Z AUTO 00000KT 10SM SCT120 12/03 A2992 RMK AO1,M
CXP,2025-05-03 06:35,-119.7326,39.1923,1431.00,57.20,41.00,54.60,0.00,0.00,0.00,29.99,M,10.00,M,OVC,M,M,M,9500.00,M,M,M,M,M,M,M,M,M,M,57.20,KCXP 030635Z AUTO 00000KT 10SM OVC095 14/05 A2999 RMK AO2,M
HTH,2025-05-03 06:35,-118.6315,38.5448,1282.89,64.40,35.60,34.22,240.00,6.00,0.00,29.92,M,10.00,M,BKN,OVC,M,M,10000.00,12000.00,M,M,M,M,M,M,M,M,M,64.40,KHTH 030635Z AUTO 24006KT 10SM BKN100 OVC120 18/02 A2992 RMK A01,M
TMT,2025-05-03 06:35,-117.1971,39.4643,1749.34,46.20,30.00,52.97,220.00,3.00,0.00,29.99,M,10.00,M,SCT,M,M,M,12000.00,M,M,M,M,M,M,M,M,M,M,44.92,KTMT 030635Z AUTO 22003KT 10SM SCT120 08/M01 A2999 RMK AO2 T00791012,M
P68,2025-05-03 06:53,-116.0056,39.6014,1993.00,55.00,22.00,27.43,210.00,4.00,0.00,29.98,1008.10,M,M,M,M,M,M,M,M,M,M,M,M,M,M,M,M,M,55.00,KP68 030653Z AUTO 21004KT 13/M06 A2998 RMK AO1 SLP081 T01281056,M
DRA,2025-05-03 06:53,-116.0278,36.6206,1009.00,67.00,28.00,23.01,30.00,3.00,0.00,29.88,1007.30,10.00,M,CLR,M,M,M,M,M,M,M,M,M,M,M,M,M,M,67.00,KDRA 030653Z AUTO 03003KT 10SM CLR 19/M02 A2988 RMK AO2 SLP073 T01941022,M
ELY,2025-05-03 06:53,-114.8453,39.2950,1909.00,42.00,19.00,39.29,190.00,11.00,0.00,30.04,1010.60,10.00,M,CLR,M,M,M,M,M,M,M,M,M,M,M,M,M,M,35.10,KELY 030653Z AUTO 19011KT 10SM CLR 06/M07 A3004 RMK AO2 SLP106 T00561072 $,M
VGT,2025-05-03 06:53,-115.1933,36.2111,667.00,75.00,31.00,19.81,350.00,5.00,0.00,29.82,1009.20,10.00,M,CLR,M,M,M,M,M,M,M,M,M,M,M,M,M,M,75.00,KVGT 030653Z AUTO 35005KT 10SM CLR 24/M01 A2982 RMK AO2 SLP092 T02391006,M
LOL,2025-05-03 06:53,-118.5701,40.0684,1192.43,61.00,36.00,39.19,220.00,3.00,0.00,29.91,1009.80,10.00,M,CLR,M,M,M,M,M,M,M,M,M,M,M,M,M,M,61.00,KLOL 030653Z AUTO 22003KT 10SM CLR 16/02 A2991 RMK AO2 SLP098 T01610022,M
BVU,2025-05-03 06:55,-114.8611,35.9475,671.00,69.80,37.40,30.49,0.00,0.00,0.00,29.82,M,10.00,M,CLR,M,M,M,M,M,M,M,M,M,M,M,M,M,M,69.80,KBVU 030655Z AUTO 00000KT 10SM CLR 21/03 A2982 RMK AO2,M
RNO,2025-05-03 06:55,-119.7711,39.4839,1341.00,62.00,32.00,32.24,210.00,6.00,0.00,29.97,1010.00,10.00,M,OVC,M,M,M,10000.00,M,M,M,M,M,M,M,M,M,M,62.00,KRNO 030655Z 21006KT 10SM OVC100 17/00 A2997 RMK AO2 SLP100 T01670000,M
BAM,2025-05-03 06:55,-116.8743,40.5990,1382.36,51.80,39.20,61.99,220.00,3.00,0.00,29.92,M,10.00,M,BKN,M,M,M,12000.00,M,M,M,M,M,M,M,M,M,M,51.80,KBAM 030655Z AUTO 22003KT 10SM BKN120 11/04 A2992 RMK AO1,M
CXP,2025-05-03 06:55,-119.7326,39.1923,1431.00,57.20,39.20,50.91,0.00,0.00,0.00,29.99,M,10.00,M,OVC,M,M,M,10000.00,M,M,M,M,M,M,M,M,M,M,57.20,KCXP 030655Z AUTO 00000KT 10SM OVC100 14/04 A2999 RMK AO2,M
HTH,2025-05-03 06:55,-118.6315,38.5448,1282.89,64.40,35.60,34.22,240.00,4.00,0.00,29.93,M,10.00,M,BKN,M,M,M,11000.00,M,M,M,M,M,M,M,M,M,M,64.40,KHTH 030655Z AUTO 24004KT 10SM BKN110 18/02 A2993 RMK A01,M
TMT,2025-05-03 06:55,-117.1971,39.4643,1749.34,46.60,27.00,46.14,230.00,6.00,0.00,29.99,M,10.00,M,SCT,M,M,M,12000.00,M,M,M,M,M,M,M,M,M,M,43.11,KTMT 030655Z AUTO 23006KT 10SM SCT120 08/M03 A2999 RMK AO2 T00811027,M
10U,2025-05-03 06:55,-116.1876,41.9532,1637.00,48.20,33.80,57.26,130.00,7.00,0.00,29.96,M,10.00,M,CLR,M,M,M,M,M,M,M,M,M,M,M,M,M,M,44.53,K10U 030655Z AUTO 13007KT 10SM CLR 09/01 A2996 RMK AO2,M
INS,2025-05-03 06:55,-115.6733,36.5872,955.00,70.00,27.00,19.92,0.00,0.00,0.00,29.87,1006.90,10.00,M,CLR,M,M,M,M,M,M,M,M,M,M,M,M,M,M,70.00,KINS 030655Z AUTO 00000KT 10SM CLR 21/M03 A2987 RMK AO2 SLP069 T02111027 $,M
LSV,2025-05-03 06:55,-115.0343,36.2362,570.00,78.60,23.70,13.01,30.00,3.00,0.00,29.77,1005.50,10.00,M,CLR,M,M,M,M,M,M,M,M,M,M,M,M,M,M,78.60,KLSV 030655Z AUTO 03003KT 10SM CLR 26/M05 A2977 RMK AO2 SLP055 T02591046 $,M
EKO,2025-05-03 06:56,-115.7860,40.8242,1367.00,50.00,30.00,45.93,80.00,3.00,0.00,29.94,1010.50,10.00,M,CLR,M,M,M,M,M,M,M,M,M,M,M,M,M,M,50.00,KEKO 030656Z AUTO 08003KT 10SM CLR 10/M01 A2994 RMK AO2 SLP105 T01001011,M
WMC,2025-05-03 06:56,-117.8072,40.9019,1315.00,58.00,35.00,41.92,70.00,3.00,0.00,29.92,1009.30,10.00,M,CLR,M,M,M,M,M,M,M,M,M,M,M,M,M,M,58.00,KWMC 030656Z AUTO 07003KT 10SM CLR 14/02 A2992 RMK AO2 SLP093 T01440017,M
HND,2025-05-03 06:56,-115.1344,35.9729,742.79,75.00,31.00,19.81,210.00,8.00,0.00,29.86,1010.30,10.00,M,CLR,M,M,M,M,M,M,M,M,M,M,M,M,M,M,75.00,KHND 030656Z AUTO 21008KT 10SM CLR 24/M01 A2986 RMK AO2 SLP103 T02391006 403110161 $,M
TPH,2025-05-03 06:56,-117.0904,38.0505,1654.00,54.00,23.00,29.67,100.00,4.00,0.00,29.99,1009.90,10.00,M,CLR,M,M,M,M,M,M,M,M,M,M,M,M,M,M,54.00,KTPH 030656Z AUTO 10004KT 10SM CLR 12/M05 A2999 RMK AO2 SLP099 T01221050,M
LAS,2025-05-03 06:56,-115.1634,36.0719,663.00,78.00,30.00,17.22,200.00,5.00,0.00,29.83,1007.70,10.00,M,FEW,M,M,M,12000.00,M,M,M,M,M,M,M,M,M,M,78.00,KLAS 030656Z 20005KT 10SM FEW120 26/M01 A2983 RMK AO2 SLP077 T02561011,M
NFL,2025-05-03 06:57,-118.7010,39.4166,1199.00,63.00,38.00,39.51,360.00,3.00,0.00,29.91,1010.30,10.00,M,FEW,M,M,M,12000.00,M,M,M,M,M,M,M,M,M,M,63.00,KNFL 030657Z AUTO 36003KT 10SM FEW120 17/03 A2991 RMK AO2 SLP103 T01720033,M
BVU,2025-05-03 07:15,-114.8611,35.9475,671.00,69.80,33.80,26.43,0.00,0.00,0.00,29.83,M,10.00,M,CLR,M,M,M,M,M,M,M,M,M,M,M,M,M,M,69.80,KBVU 030715Z AUTO 00000KT 10SM CLR 21/01 A2983 RMK AO2,M
BAM,2025-05-03 07:15,-116.8743,40.5990,1382.36,51.80,41.00,66.48,240.00,3.00,0.00,29.91,M,10.00,M,SCT,M,M,M,12000.00,M,M,M,M,M,M,M,M,M,M,51.80,KBAM 030715Z AUTO 24003KT 10SM SCT120 11/05 A2991 RMK AO1,M
CXP,2025-05-03 07:15,-119.7326,39.1923,1431.00,57.20,39.20,50.91,50.00,5.00,0.00,29.99,M,10.00,M,OVC,M,M,M,10000.00,M,M,M,M,M,M,M,M,M,M,57.20,KCXP 030715Z AUTO 05005KT 10SM OVC100 14/04 A2999 RMK AO2,M
RTS,2025-05-03 07:15,-119.8764,39.6682,1539.00,55.40,28.40,35.28,280.00,10.00,0.00,30.01,M,10.00,M,FEW,SCT,OVC,M,5500.00,7500.00,10000.00,M,M,M,M,M,M,M,M,55.40,KRTS 030715Z AUTO 28010KT 10SM FEW055 SCT075 OVC100 13/M02 A3001 RMK AO2,M
MEV,2025-05-03 07:15,-119.7500,38.9963,1441.42,53.60,46.40,76.50,70.00,7.00,0.00,29.97,M,10.00,M,FEW,SCT,BKN,M,2500.00,6500.00,8000.00,M,M,M,M,M,M,M,M,53.60,KMEV 030715Z AUTO 07007KT 10SM FEW025 SCT065 BKN080 12/08 A2997 RMK AO2,M
HTH,2025-05-03 07:15,-118.6315,38.5448,1282.89,64.40,35.60,34.22,300.00,6.00,0.00,29.93,M,10.00,M,BKN,BKN,M,M,10000.00,12000.00,M,M,M,M,M,M,M,M,M,64.40,KHTH 030715Z AUTO 30006KT 10SM BKN100 BKN120 18/02 A2993 RMK A01,M
TMT,2025-05-03 07:15,-117.1971,39.4643,1749.34,44.00,25.70,48.26,190.00,4.00,0.00,29.99,M,10.00,M,CLR,M,M,M,M,M,M,M,M,M,M,M,M,M,M,41.43,KTMT 030715Z AUTO 19004KT 10SM CLR 07/M03 A2999 RMK AO2 T00671035,M
10U,2025-05-03 07:15,-116.1876,41.9532,1637.00,46.40,33.80,61.28,0.00,0.00,0.00,29.96,M,10.00,M,CLR,M,M,M,M,M,M,M,M,M,M,M,M,M,M,46.40,K10U 030715Z AUTO 00000KT 10SM CLR 08/01 A2996 RMK AO2,M
BVU,2025-05-03 07:35,-114.8611,35.9475,671.00,71.60,32.00,23.13,0.00,0.00,0.00,29.83,M,10.00,M,CLR,M,M,M,M,M,M,M,M,M,M,M,M,M,M,71.60,KBVU 030735Z AUTO 00000KT 10SM CLR 22/M00 A2983 RMK AO2,M
BAM,2025-05-03 07:35,-116.8743,40.5990,1382.36,51.80,37.40,57.77,220.00,3.00,0.00,29.92,M,10.00,M,SCT,M,M,M,12000.00,M,M,M,M,M,M,M,M,M,M,51.80,KBAM 030735Z AUTO 22003KT 10SM SCT120 11/03 A2992 RMK AO1,M
CXP,2025-05-03 07:35,-119.7326,39.1923,1431.00,59.00,37.40,44.47,40.00,4.00,0.00,29.99,M,10.00,M,FEW,FEW,OVC,M,3300.00,5500.00,10000.00,M,M,M,M,M,M,M,M,59.00,KCXP 030735Z AUTO 04004KT 10SM FEW033 FEW055 OVC100 15/03 A2999 RMK AO2,M
RTS,2025-05-03 07:35,-119.8764,39.6682,1539.00,55.40,30.20,37.97,260.00,10.00,0.00,30.01,M,10.00,M,OVC,M,M,M,11000.00,M,M,M,M,M,M,M,M,M,M,55.40,KRTS 030735Z AUTO 26010KT 10SM OVC110 13/M01 A3001 RMK AO2,M
MEV,2025-05-03 07:35,-119.7500,38.9963,1441.42,53.60,44.60,71.45,60.00,6.00,0.00,29.97,M,10.00,M,FEW,SCT,BKN,M,6000.00,7500.00,8500.00,M,M,M,M,M,M,M,M,53.60,KMEV 030735Z AUTO 06006KT 10SM FEW060 SCT075 BKN085 12/07 A2997 RMK AO2,M
HTH,2025-05-03 07:35,-118.6315,38.5448,1282.89,64.40,37.40,36.74,330.00,5.00,0.00,29.93,M,10.00,M,SCT,BKN,M,M,10000.00,12000.00,M,M,M,M,M,M,M,M,M,64.40,KHTH 030735Z AUTO 33005KT 10SM SCT100 BKN120 18/03 A2993 RMK A01,M
TMT,2025-05-03 07:35,-117.1971,39.4643,1749.34,42.40,26.40,52.82,170.00,3.00,0.00,29.99,M,10.00,M,CLR,M,M,M,M,M,M,M,M,M,M,M,M,M,M,40.58,KTMT 030735Z AUTO 17003KT 10SM CLR 06/M03 A2999 RMK AO2 T00581031,M
10U,2025-05-03 07:35,-116.1876,41.9532,1637.00,42.80,33.80,70.28,120.00,4.00,0.00,29.96,M,10.00,M,CLR,M,M,M,M,M,M,M,M,M,M,M,M,M,M,40.03,K10U 030735Z AUTO 12004KT 10SM CLR 06/01 A2996 RMK AO2,M
10U,2025-05-03 07:50,-116.1876,41.9532,1637.00,44.60,33.80,65.61,120.00,6.00,0.00,29.96,M,10.00,M,CLR,M,M,M,M,M,M,M,M,M,M,M,M,M,M,40.71,K10U 030750Z AUTO 12006KT 10SM CLR 07/01 A2996 RMK AO2,M
CXP,2025-05-03 07:50,-119.7326,39.1923,1431.00,59.00,37.40,44.47,100.00,4.00,0.00,29.99,M,10.00,M,FEW,FEW,OVC,M,3400.00,7500.00,11000.00,M,M,M,M,M,M,M,M,59.00,KCXP 030750Z AUTO 10004KT 10SM FEW034 FEW075 OVC110 15/03 A2999 RMK AO2,M
P68,2025-05-03 07:53,-116.0056,39.6014,1993.00,45.00,24.00,43.28,0.00,0.00,0.00,29.98,1009.10,M,M,M,M,M,M,M,M,M,M,M,M,M,M,M,M,M,45.00,KP68 030753Z AUTO 00000KT 07/M04 A2998 RMK AO1 SLP091 T00721044 402501011,M
DRA,2025-05-03 07:53,-116.0278,36.6206,1009.00,64.00,28.00,25.54,40.00,3.00,0.00,29.87,1007.30,10.00,M,CLR,M,M,M,M,M,M,M,M,M,M,M,M,M,M,64.00,KDRA 030753Z AUTO 04003KT 10SM CLR 18/M02 A2987 RMK AO2 SLP073 T01781022 403060128,M
ELY,2025-05-03 07:53,-114.8453,39.2950,1909.00,41.00,19.00,40.83,180.00,10.00,0.00,30.04,1010.60,10.00,M,CLR,M,M,M,M,M,M,M,M,M,M,M,M,M,M,34.25,KELY 030753Z AUTO 18010KT 10SM CLR 05/M07 A3004 RMK AO2 SLP106 T00501072 402221022 $,M
VGT,2025-05-03 07:53,-115.1933,36.2111,667.00,73.00,32.00,22.06,270.00,5.00,0.00,29.82,1009.20,10.00,M,CLR,M,M,M,M,M,M,M,M,M,M,M,M,M,M,73.00,KVGT 030753Z AUTO 27005KT 10SM CLR 23/00 A2982 RMK AO2 SLP092 T02280000 403220211,M
LOL,2025-05-03 07:53,-118.5701,40.0684,1192.43,58.00,36.00,43.62,140.00,3.00,0.00,29.91,1009.40,10.00,M,SCT,SCT,M,M,10000.00,12000.00,M,M,M,M,M,M,M,M,M,58.00,KLOL 030753Z AUTO 14003KT 10SM SCT100 SCT120 14/02 A2991 RMK AO2 SLP094 T01440022 402780017,M
BVU,2025-05-03 07:55,-114.8611,35.9475,671.00,69.80,33.80,26.43,330.00,3.00,0.00,29.82,M,10.00,M,CLR,M,M,M,M,M,M,M,M,M,M,M,M,M,M,69.80,KBVU 030755Z AUTO 33003KT 10SM CLR 21/01 A2982 RMK AO2,M
RNO,2025-05-03 07:55,-119.7711,39.4839,1341.00,61.00,32.00,33.40,340.00,6.00,0.00,29.95,1009.40,10.00,M,OVC,M,M,M,10000.00,M,M,M,M,M,M,M,M,M,M,61.00,KRNO 030755Z 34006KT 10SM OVC100 16/00 A2995 RMK AO2 SLP094 T01610000 402610078,M
BAM,2025-05-03 07:55,-116.8743,40.5990,1382.36,51.80,39.20,61.99,0.00,0.00,0.00,29.92,M,10.00,M,BKN,M,M,M,11000.00,M,M,M,M,M,M,M,M,M,M,51.80,KBAM 030755Z AUTO 00000KT 10SM BKN110 11/04 A2992 RMK AO1,M
RTS,2025-05-03 07:55,-119.8764,39.6682,1539.00,55.40,30.20,37.97,270.00,11.00,0.00,30.00,M,10.00,M,OVC,M,M,M,11000.00,M,M,M,M,M,M,M,M,M,M,55.40,KRTS 030755Z AUTO 27011KT 10SM OVC110 13/M01 A3000 RMK AO2,M
MEV,2025-05-03 07:55,-119.7500,38.9963,1441.42,51.80,44.60,76.34,20.00,4.00,0.00,29.97,M,10.00,M,FEW,FEW,OVC,M,6000.00,7500.00,10000.00,M,M,M,M,M,M,M,M,51.80,KMEV 030755Z AUTO 02004KT 10SM FEW060 FEW075 OVC100 11/07 A2997 RMK AO2,M
HTH,2025-05-03 07:55,-118.6315,38.5448,1282.89,64.40,39.20,39.43,350.00,7.00,0.00,29.93,M,10.00,M,FEW,M,M,M,12000.00,M,M,M,M,M,M,M,M,M,M,64.40,KHTH 030755Z AUTO 35007KT 10SM FEW120 18/04 A2993 RMK A01,M
TMT,2025-05-03 07:55,-117.1971,39.4643,1749.34,40.50,24.00,51.44,180.00,5.00,0.00,29.99,M,10.00,M,CLR,M,M,M,M,M,M,M,M,M,M,M,M,M,M,36.49,KTMT 030755Z AUTO 18005KT 10SM CLR 05/M04 A2999 RMK AO2 T00471044 402371058,M
INS,2025-05-03 07:55,-115.6733,36.5872,955.00,66.40,24.00,19.90,0.00,0.00,0.00,29.87,1006.90,10.00,M,CLR,M,M,M,M,M,M,M,M,M,M,M,M,M,M,66.40,KINS 030755Z AUTO 00000KT 10SM CLR 19/M04 A2987 RMK AO2 SLP069 T01911044 403000114 $,M
LSV,2025-05-03 07:55,-115.0343,36.2362,570.00,74.00,25.00,16.01,40.00,4.00,0.00,29.77,1005.60,10.00,M,CLR,M,M,M,M,M,M,M,M,M,M,M,M,M,M,74.00,KLSV 030755Z AUTO 04004KT 10SM CLR 23/M04 A2977 RMK AO2 SLP056 T02331039 403270187 $,M
EKO,2025-05-03 07:56,-115.7860,40.8242,1367.00,49.00,31.00,49.65,50.00,5.00,0.00,29.94,1010.30,10.00,M,CLR,M,M,M,M,M,M,M,M,M,M,M,M,M,M,46.58,KEKO 030756Z AUTO 05005KT 10SM CLR 09/M01 A2994 RMK AO2 SLP103 T00941006 402440006,M
WMC,2025-05-03 07:56,-117.8072,40.9019,1315.00,56.00,36.00,46.88,0.00,0.00,0.00,29.91,1009.00,10.00,M,CLR,M,M,M,M,M,M,M,M,M,M,M,M,M,M,56.00,KWMC 030756Z AUTO 00000KT 10SM CLR 13/02 A2991 RMK AO2 SLP090 T01330022 402610011,M
HND,2025-05-03 07:56,-115.1344,35.9729,742.79,74.00,30.00,19.67,180.00,8.00,0.00,29.86,1010.10,10.00,M,CLR,M,M,M,M,M,M,M,M,M,M,M,M,M,M,74.00,KHND 030756Z AUTO 18008KT 10SM CLR 23/M01 A2986 RMK AO2 SLP101 T02331011 $,M
TPH,2025-05-03 07:56,-117.0904,38.0505,1654.00,49.00,23.00,35.69,340.00,5.00,0.00,30.00,1010.50,10.00,M,CLR,M,M,M,M,M,M,M,M,M,M,M,M,M,M,46.58,KTPH 030756Z AUTO 34005KT 10SM CLR 09/M05 A3000 RMK AO2 SLP105 T00941050 402440067,M
LAS,2025-05-03 07:56,-115.1634,36.0719,663.00,76.00,31.00,19.16,190.00,4.00,0.00,29.83,1007.70,10.00,M,FEW,M,M,M,12000.00,M,M,M,M,M,M,M,M,M,M,76.00,KLAS 030756Z 19004KT 10SM FEW120 24/M01 A2983 RMK AO2 SLP077 T02441006 403170194,M
NFL,2025-05-03 07:57,-118.7010,39.4166,1199.00,64.00,39.00,39.67,300.00,10.00,T,29.93,1011.00,10.00,M,FEW,SCT,SCT,M,5500.00,7000.00,12000.00,M,M,M,M,M,M,M,M,64.00,KNFL 030757Z AUTO 30010KT 10SM FEW055 SCT070 SCT120 18/04 A2993 RMK AO2 RAB40E49 SLP110 P0000 T01780039 402830050,M
BVU,2025-05-03 08:15,-114.8611,35.9475,671.00,69.80,33.80,26.43,350.00,4.00,0.00,29.82,M,10.00,M,CLR,M,M,M,M,M,M,M,M,M,M,M,M,M,M,69.80,KBVU 030815Z AUTO 35004KT 10SM CLR 21/01 A2982 RMK AO2,M
BAM,2025-05-03 08:15,-116.8743,40.5990,1382.36,50.00,41.00,71.07,0.00,0.00,0.00,29.91,M,10.00,M,SCT,M,M,M,11000.00,M,M,M,M,M,M,M,M,M,M,50.00,KBAM 030815Z AUTO 00000KT 10SM SCT110 10/05 A2991 RMK AO1,M
CXP,2025-05-03 08:15,-119.7326,39.1923,1431.00,57.20,39.20,50.91,110.00,3.00,0.00,29.99,M,10.00,10.00,BKN,M,M,M,11000.00,M,M,M,M,M,M,M,M,M,M,57.20,KCXP 030815Z AUTO 11003G10KT 10SM BKN110 14/04 A2999 RMK AO2,M
RTS,2025-05-03 08:15,-119.8764,39.6682,1539.00,57.20,28.40,33.05,280.00,9.00,0.00,29.99,M,10.00,M,FEW,SCT,OVC,M,6500.00,8000.00,10000.00,M,M,M,M,M,M,M,M,57.20,KRTS 030815Z AUTO 28009KT 10SM FEW065 SCT080 OVC100 14/M02 A2999 RMK AO2,M
MEV,2025-05-03 08:15,-119.7500,38.9963,1441.42,53.60,42.80,66.70,60.00,6.00,0.00,29.97,M,10.00,M,FEW,OVC,M,M,7500.00,11000.00,M,M,M,M,M,M,M,M,M,53.60,KMEV 030815Z AUTO 06006KT 10SM FEW075 OVC110 12/06 A2997 RMK AO2,M
HTH,2025-05-03 08:15,-118.6315,38.5448,1282.89,62.60,41.00,45.04,10.00,4.00,0.00,29.93,M,10.00,M,SCT,M,M,M,11000.00,M,M,M,M,M,M,M,M,M,M,62.60,KHTH 030815Z AUTO 01004KT 10SM SCT110 17/05 A2993 RMK A01,M
TMT,2025-05-03 08:15,-117.1971,39.4643,1749.34,40.00,23.00,50.30,220.00,4.00,0.00,29.99,M,10.00,M,CLR,M,M,M,M,M,M,M,M,M,M,M,M,M,M,36.76,KTMT 030815Z AUTO 22004KT 10SM CLR 05/M05 A2999 RMK AO2 T00451050,M
10U,2025-05-03 08:15,-116.1876,41.9532,1637.00,41.00,33.80,75.33,110.00,7.00,0.00,29.96,M,10.00,M,CLR,M,M,M,M,M,M,M,M,M,M,M,M,M,M,35.75,K10U 030815Z AUTO 11007KT 10SM CLR 05/01 A2996 RMK AO2,M
BVU,2025-05-03 08:35,-114.8611,35.9475,671.00,69.80,33.80,26.43,0.00,0.00,0.00,29.82,M,10.00,M,CLR,M,M,M,M,M,M,M,M,M,M,M,M,M,M,69.80,KBVU 030835Z AUTO 00000KT 10SM CLR 21/01 A2982 RMK AO2,M
BAM,2025-05-03 08:35,-116.8743,40.5990,1382.36,48.20,41.00,76.01,80.00,6.00,0.00,29.91,M,10.00,M,SCT,M,M,M,12000.00,M,M,M,M,M,M,M,M,M,M,45.04,KBAM 030835Z AUTO 08006KT 10SM SCT120 09/05 A2991 RMK AO1,M
CXP,2025-05-03 08:35,-119.7326,39.1923,1431.00,57.20,37.40,47.44,M,3.00,0.00,29.98,M,10.00,M,OVC,M,M,M,11000.00,M,M,M,M,M,M,M,M,M,M,57.20,KCXP 030835Z AUTO VRB03KT 10SM OVC110 14/03 A2998 RMK AO2,M
RTS,2025-05-03 08:35,-119.8764,39.6682,1539.00,55.40,30.20,37.97,280.00,7.00,0.00,30.00,M,10.00,M,FEW,OVC,M,M,8000.00,11000.00,M,M,M,M,M,M,M,M,M,55.40,KRTS 030835Z AUTO 28007KT 10SM FEW080 OVC110 13/M01 A3000 RMK AO2,M
MEV,2025-05-03 08:35,-119.7500,38.9963,1441.42,53.60,41.00,62.23,50.00,6.00,0.00,29.97,M,10.00,M,OVC,M,M,M,11000.00,M,M,M,M,M,M,M,M,M,M,53.60,KMEV 030835Z AUTO 05006KT 10SM OVC110 12/05 A2997 RMK AO2,M
HTH,2025-05-03 08:35,-118.6315,38.5448,1282.89,62.60,39.20,42.00,240.00,5.00,0.00,29.93,M,10.00,M,SCT,M,M,M,11000.00,M,M,M,M,M,M,M,M,M,M,62.60,KHTH 030835Z AUTO 24005KT 10SM SCT110 17/04 A2993 RMK A01,M
TMT,2025-05-03 08:35,-117.1971,39.4643,1749.34,39.60,26.00,57.90,330.00,5.00,0.00,29.99,M,10.00,M,CLR,M,M,M,M,M,M,M,M,M,M,M,M,M,M,35.42,KTMT 030835Z AUTO 33005KT 10SM CLR 04/M03 A2999 RMK AO2 T00421033,M
10U,2025-05-03 08:35,-116.1876,41.9532,1637.00,42.80,33.80,70.28,100.00,8.00,0.00,29.95,M,10.00,M,BKN,M,M,M,10000.00,M,M,M,M,M,M,M,M,M,M,37.42,K10U 030835Z AUTO 10008KT 10SM BKN100 06/01 A2995 RMK AO2,M
P68,2025-05-03 08:53,-116.0056,39.6014,1993.00,43.00,22.00,42.95,220.00,3.00,0.00,29.97,1008.70,M,M,M,M,M,M,M,M,M,M,M,M,M,M,M,M,M,41.26,KP68 030853Z AUTO 22003KT 06/M06 A2997 RMK AO1 SLP087 T00611056 58002 $,M
DRA,2025-05-03 08:53,-116.0278,36.6206,1009.00,64.00,28.00,25.54,30.00,5.00,0.00,29.86,1006.90,10.00,M,CLR,M,M,M,M,M,M,M,M,M,M,M,M,M,M,64.00,KDRA 030853Z AUTO 03005KT 10SM CLR 18/M02 A2986 RMK AO2 SLP069 T01781022 58005,M
ELY,2025-05-03 08:53,-114.8453,39.2950,1909.00,40.00,18.00,40.67,170.00,12.00,0.00,30.03,1010.20,10.00,M,CLR,M,M,M,M,M,M,M,M,M,M,M,M,M,M,32.18,KELY 030853Z AUTO 17012KT 10SM CLR 04/M08 A3003 RMK AO2 SLP102 T00441078 58001 $,M
VGT,2025-05-03 08:53,-115.1933,36.2111,667.00,71.00,32.00,23.60,310.00,5.00,0.00,29.81,1008.80,10.00,M,CLR,M,M,M,M,M,M,M,M,M,M,M,M,M,M,71.00,KVGT 030853Z AUTO 31005KT 10SM CLR 22/00 A2981 RMK AO2 SLP088 T02170000 58005,M
LOL,2025-05-03 08:53,-118.5701,40.0684,1192.43,56.00,35.00,45.06,200.00,8.00,0.00,29.94,1010.50,10.00,M,SCT,OVC,M,M,9500.00,11000.00,M,M,M,M,M,M,M,M,M,56.00,KLOL 030853Z AUTO 20008KT 10SM SCT095 OVC110 13/02 A2994 RMK AO2 SLP105 T01330017 53014,M
BVU,2025-05-03 08:55,-114.8611,35.9475,671.00,68.00,33.80,28.11,0.00,0.00,0.00,29.81,M,10.00,M,CLR,M,M,M,M,M,M,M,M,M,M,M,M,M,M,68.00,KBVU 030855Z AUTO 00000KT 10SM CLR 20/01 A2981 RMK AO2,M
RNO,2025-05-03 08:55,-119.7711,39.4839,1341.00,60.00,34.00,37.50,0.00,0.00,0.00,29.96,1009.40,10.00,M,BKN,M,M,M,11000.00,M,M,M,M,M,M,M,M,M,M,60.00,KRNO 030855Z 00000KT 10SM BKN110 16/01 A2996 RMK AO2 SLP094 T01560011 51001 $,M
BAM,2025-05-03 08:55,-116.8743,40.5990,1382.36,50.00,39.20,66.27,0.00,0.00,0.00,29.90,M,10.00,M,CLR,M,M,M,M,M,M,M,M,M,M,M,M,M,M,50.00,KBAM 030855Z AUTO 00000KT 10SM CLR 10/04 A2990 RMK AO1,M
CXP,2025-05-03 08:55,-119.7326,39.1923,1431.00,57.20,39.20,50.91,0.00,0.00,0.00,29.98,M,10.00,M,OVC,M,M,M,11000.00,M,M,M,M,M,M,M,M,M,M,57.20,KCXP 030855Z AUTO 00000KT 10SM OVC110 14/04 A2998 RMK AO2,M
RTS,2025-05-03 08:55,-119.8764,39.6682,1539.00,55.40,28.40,35.28,280.00,10.00,0.00,29.99,M,10.00,M,OVC,M,M,M,11000.00,M,M,M,M,M,M,M,M,M,M,55.40,KRTS 030855Z AUTO 28010KT 10SM OVC110 13/M02 A2999 RMK AO2,M
MEV,2025-05-03 08:55,-119.7500,38.9963,1441.42,53.60,41.00,62.23,30.00,6.00,0.00,29.96,M,10.00,M,BKN,M,M,M,11000.00,M,M,M,M,M,M,M,M,M,M,53.60,KMEV 030855Z AUTO 03006KT 10SM BKN110 12/05 A2996 RMK AO2,M
HTH,2025-05-03 08:55,-118.6315,38.5448,1282.89,64.40,35.60,34.22,270.00,5.00,0.00,29.93,M,10.00,M,BKN,M,M,M,11000.00,M,M,M,M,M,M,M,M,M,M,64.40,KHTH 030855Z AUTO 27005KT 10SM BKN110 18/02 A2993 RMK A01,M
TMT,2025-05-03 08:55,-117.1971,39.4643,1749.34,39.40,26.20,58.84,0.00,0.00,0.00,29.99,M,10.00,M,CLR,M,M,M,M,M,M,M,M,M,M,M,M,M,M,39.40,KTMT 030855Z AUTO 00000KT 10SM CLR 04/M03 A2999 RMK AO2 T00411032,M
10U,2025-05-03 08:55,-116.1876,41.9532,1637.00,46.40,33.80,61.28,120.00,9.00,0.00,29.95,M,10.00,M,OVC,M,M,M,10000.00,M,M,M,M,M,M,M,M,M,M,41.42,K10U 030855Z AUTO 12009KT 10SM OVC100 08/01 A2995 RMK AO2,M
INS,2025-05-03 08:55,-115.6733,36.5872,955.00,60.40,22.50,23.07,0.00,0.00,0.00,29.87,1007.40,10.00,M,SCT,M,M,M,13000.00,M,M,M,M,M,M,M,M,M,M,60.40,KINS 030855Z AUTO 00000KT 10SM SCT130 16/M05 A2987 RMK AO2 SLP074 T01581053 56003 $,M
LSV,2025-05-03 08:55,-115.0343,36.2362,570.00,72.00,26.20,18.00,40.00,4.00,0.00,29.76,1005.30,10.00,M,CLR,M,M,M,M,M,M,M,M,M,M,M,M,M,M,72.00,KLSV 030855Z AUTO 04004KT 10SM CLR 22/M03 A2976 RMK AO2 SLP053 T02231032 58004 $,M
EKO,2025-05-03 08:56,-115.7860,40.8242,1367.00,47.00,31.00,53.52,80.00,6.00,0.00,29.93,1009.70,10.00,M,CLR,M,M,M,M,M,M,M,M,M,M,M,M,M,M,43.60,KEKO 030856Z AUTO 08006KT 10SM CLR 08/M01 A2993 RMK AO2 SLP097 T00831006 58005,M
WMC,2025-05-03 08:56,-117.8072,40.9019,1315.00,54.00,37.00,52.45,210.00,5.00,0.00,29.92,1009.30,10.00,M,FEW,M,M,M,12000.00,M,M,M,M,M,M,M,M,M,M,54.00,KWMC 030856Z AUTO 21005KT 10SM FEW120 12/03 A2992 RMK AO2 SLP093 T01220028 51004,M
HND,2025-05-03 08:56,-115.1344,35.9729,742.79,71.00,30.00,21.77,200.00,9.00,0.00,29.85,1009.70,10.00,M,CLR,M,M,M,M,M,M,M,M,M,M,M,M,M,M,71.00,KHND 030856Z AUTO 20009KT 10SM CLR 22/M01 A2985 RMK AO2 SLP097 T02171011 58006 $,M
TPH,2025-05-03 08:56,-117.0904,38.0505,1654.00,47.00,23.00,38.48,320.00,5.00,0.00,29.99,1010.20,10.00,M,FEW,M,M,M,12000.00,M,M,M,M,M,M,M,M,M,M,44.21,KTPH 030856Z AUTO 32005KT 10SM FEW120 08/M05 A2999 RMK AO2 SLP102 T00831050 50001,M
LAS,2025-05-03 08:56,-115.1634,36.0719,663.00,74.00,31.00,20.48,210.00,3.00,0.00,29.82,1007.50,10.00,M,FEW,M,M,M,12000.00,M,M,M,M,M,M,M,M,M,M,74.00,KLAS 030856Z 21003KT 10SM FEW120 23/M01 A2982 RMK AO2 SLP075 T02331006 56006,M
NFL,2025-05-03 08:57,-118.7010,39.4166,1199.00,60.00,39.00,45.69,350.00,6.00,0.00,29.92,1010.50,10.00,M,BKN,M,M,M,10000.00,M,M,M,M,M,M,M,M,M,M,60.00,KNFL 030857Z AUTO 35006KT 10SM BKN100 16/04 A2992 RMK AO2 SLP105 60000 T01560039 50003,M
BVU,2025-05-03 09:15,-114.8611,35.9475,671.00,68.00,33.80,28.11,0.00,0.00,0.00,29.81,M,10.00,M,CLR,M,M,M,M,M,M,M,M,M,M,M,M,M,M,68.00,KBVU 030915Z AUTO 00000KT 10SM CLR 20/01 A2981 RMK AO2,M
CXP,2025-05-03 09:15,-119.7326,39.1923,1431.00,55.40,39.20,54.34,0.00,0.00,0.00,29.98,M,10.00,M,BKN,M,M,M,12000.00,M,M,M,M,M,M,M,M,M,M,55.40,KCXP 030915Z AUTO 00000KT 10SM BKN120 13/04 A2998 RMK AO2,M
RTS,2025-05-03 09:15,-119.8764,39.6682,1539.00,53.60,28.40,37.67,280.00,10.00,0.00,29.99,M,10.00,M,BKN,M,M,M,12000.00,M,M,M,M,M,M,M,M,M,M,53.60,KRTS 030915Z AUTO 28010KT 10SM BKN120 12/M02 A2999 RMK AO2,M
MEV,2025-05-03 09:15,-119.7500,38.9963,1441.42,50.00,42.80,76.18,70.00,5.00,0.00,29.96,M,10.00,M,OVC,M,M,M,12000.00,M,M,M,M,M,M,M,M,M,M,50.00,KMEV 030915Z AUTO 07005KT 10SM OVC120 10/06 A2996 RMK AO2,M
HTH,2025-05-03 09:15,-118.6315,38.5448,1282.89,64.40,35.60,34.22,330.00,8.00,0.00,29.93,M,10.00,M,SCT,BKN,OVC,M,8000.00,9000.00,11000.00,M,M,M,M,M,M,M,M,64.40,KHTH 030915Z AUTO 33008KT 10SM SCT080 BKN090 OVC110 18/02 A2993 RMK A01,M
TMT,2025-05-03 09:15,-117.1971,39.4643,1749.34,35.00,24.00,63.85,120.00,3.00,0.00,29.99,M,10.00,M,SCT,M,M,M,12000.00,M,M,M,M,M,M,M,M,M,M,32.12,KTMT 030915Z AUTO 12003KT 10SM SCT120 02/M04 A2999 RMK AO2 T00161045,M
10U,2025-05-03 09:15,-116.1876,41.9532,1637.00,48.20,32.00,53.27,120.00,11.00,0.00,29.94,M,10.00,M,FEW,M,M,M,11000.00,M,M,M,M,M,M,M,M,M,M,42.94,K10U 030915Z AUTO 12011KT 10SM FEW110 09/M00 A2994 RMK AO2,M
BAM,2025-05-03 09:20,-116.8743,40.5990,1382.36,50.00,37.40,61.76,330.00,4.00,0.00,29.91,M,10.00,M,CLR,M,M,M,M,M,M,M,M,M,M,M,M,M,M,50.00,KBAM 030920Z AUTO 33004KT 10SM CLR 10/03 A2991 RMK AO1,M
LOL,2025-05-03 09:32,-118.5701,40.0684,1192.43,59.00,40.00,49.23,300.00,8.00,0.00,29.92,M,10.00,M,CLR,M,M,M,M,M,M,M,M,M,M,M,M,M,M,59.00,KLOL 030932Z AUTO 30008KT 10SM CLR 15/04 A2992 RMK AO2 WSHFT 0912 T01500044,M
BVU,2025-05-03 09:35,-114.8611,35.9475,671.00,66.20,35.60,32.14,0.00,0.00,0.00,29.81,M,10.00,M,CLR,M,M,M,M,M,M,M,M,M,M,M,M,M,M,66.20,KBVU 030935Z AUTO 00000KT 10SM CLR 19/02 A2981 RMK AO2,M
BAM,2025-05-03 09:35,-116.8743,40.5990,1382.36,50.00,37.40,61.76,240.00,4.00,0.00,29.91,M,10.00,M,CLR,M,M,M,M,M,M,M,M,M,M,M,M,M,M,50.00,KBAM 030935Z AUTO 24004KT 10SM CLR 10/03 A2991 RMK AO1,M
CXP,2025-05-03 09:35,-119.7326,39.1923,1431.00,55.40,39.20,54.34,0.00,0.00,0.00,29.97,M,10.00,M,BKN,M,M,M,12000.00,M,M,M,M,M,M,M,M,M,M,55.40,KCXP 030935Z AUTO 00000KT 10SM BKN120 13/04 A2997 RMK AO2,M
RTS,2025-05-03 09:35,-119.8764,39.6682,1539.00,53.60,28.40,37.67,280.00,11.00,0.00,29.98,M,10.00,M,OVC,M,M,M,12000.00,M,M,M,M,M,M,M,M,M,M,53.60,KRTS 030935Z AUTO 28011KT 10SM OVC120 12/M02 A2998 RMK AO2,M
MEV,2025-05-03 09:35,-119.7500,38.9963,1441.42,50.00,41.00,71.07,70.00,6.00,0.00,29.96,M,10.00,M,FEW,FEW,BKN,M,3700.00,4300.00,12000.00,M,M,M,M,M,M,M,M,50.00,KMEV 030935Z AUTO 07006KT 10SM FEW037 FEW043 BKN120 10/05 A2996 RMK AO2,M
HTH,2025-05-03 09:35,-118.6315,38.5448,1282.89,64.40,35.60,34.22,0.00,0.00,0.00,29.93,M,10.00,M,SCT,BKN,OVC,M,7500.00,9500.00,12000.00,M,M,M,M,M,M,M,M,64.40,KHTH 030935Z AUTO 00000KT 10SM SCT075 BKN095 OVC120 18/02 A2993 RMK A01,M
TMT,2025-05-03 09:35,-117.1971,39.4643,1749.34,38.00,25.30,59.87,0.00,0.00,0.00,29.99,M,10.00,M,BKN,M,M,M,12000.00,M,M,M,M,M,M,M,M,M,M,38.00,KTMT 030935Z AUTO 00000KT 10SM BKN120 03/M04 A2999 RMK AO2 T00331037,M
10U,2025-05-03 09:35,-116.1876,41.9532,1637.00,48.20,32.00,53.27,60.00,6.00,0.00,29.94,M,10.00,M,SCT,M,M,M,11000.00,M,M,M,M,M,M,M,M,M,M,45.04,K10U 030935Z AUTO 06006KT 10SM SCT110 09/00 A2994 RMK AO2,M
P68,2025-05-03 09:53,-116.0056,39.6014,1993.00,45.00,24.00,43.28,190.00,6.00,0.00,29.98,1008.70,M,M,M,M,M,M,M,M,M,M,M,M,M,M,M,M,M,41.19,KP68 030953Z AUTO 19006KT 07/M04 A2998 RMK AO1 SLP087 T00721044 $,M
DRA,2025-05-03 09:53,-116.0278,36.6206,1009.00,61.00,28.00,28.38,40.00,4.00,0.00,29.86,1006.90,10.00,M,CLR,M,M,M,M,M,M,M,M,M,M,M,M,M,M,61.00,KDRA 030953Z AUTO 04004KT 10SM CLR 16/M02 A2986 RMK AO2 SLP069 T01611022,M
ELY,2025-05-03 09:53,-114.8453,39.2950,1909.00,39.00,17.00,40.50,180.00,10.00,0.00,30.03,1010.00,10.00,M,CLR,M,M,M,M,M,M,M,M,M,M,M,M,M,M,31.75,KELY 030953Z AUTO 18010KT 10SM CLR 04/M08 A3003 RMK AO2 SLP100 T00391083 $,M
VGT,2025-05-03 09:53,-115.1933,36.2111,667.00,70.00,34.00,26.46,300.00,5.00,0.00,29.81,1009.00,10.00,M,CLR,M,M,M,M,M,M,M,M,M,M,M,M,M,M,70.00,KVGT 030953Z AUTO 30005KT 10SM CLR 21/01 A2981 RMK AO2 SLP090 T02110011,M
LOL,2025-05-03 09:53,-118.5701,40.0684,1192.43,58.00,40.00,51.03,360.00,6.00,0.00,29.92,1009.70,10.00,M,BKN,M,M,M,11000.00,M,M,M,M,M,M,M,M,M,M,58.00,KLOL 030953Z AUTO 36006KT 10SM BKN110 14/04 A2992 RMK AO2 WSHFT 0912 SLP097 T01440044,M
BVU,2025-05-03 09:55,-114.8611,35.9475,671.00,66.20,35.60,32.14,0.00,0.00,0.00,29.81,M,10.00,M,CLR,M,M,M,M,M,M,M,M,M,M,M,M,M,M,66.20,KBVU 030955Z AUTO 00000KT 10SM CLR 19/02 A2981 RMK AO2,M
RNO,2025-05-03 09:55,-119.7711,39.4839,1341.00,59.00,33.00,37.34,290.00,3.00,0.00,29.95,1009.40,10.00,M,SCT,M,M,M,12000.00,M,M,M,M,M,M,M,M,M,M,59.00,KRNO 030955Z 29003KT 10SM SCT120 15/01 A2995 RMK AO2 SLP094 T01500006 $,M
BAM,2025-05-03 09:55,-116.8743,40.5990,1382.36,50.00,41.00,71.07,350.00,4.00,0.00,29.92,M,10.00,M,SCT,M,M,M,12000.00,M,M,M,M,M,M,M,M,M,M,50.00,KBAM 030955Z AUTO 35004KT 10SM SCT120 10/05 A2992 RMK AO1,M
CXP,2025-05-03 09:55,-119.7326,39.1923,1431.00,53.60,39.20,58.02,0.00,0.00,0.00,29.98,M,10.00,M,BKN,M,M,M,12000.00,M,M,M,M,M,M,M,M,M,M,53.60,KCXP 030955Z AUTO 00000KT 10SM BKN120 12/04 A2998 RMK AO2,M
RTS,2025-05-03 09:55,-119.8764,39.6682,1539.00,53.60,28.40,37.67,280.00,12.00,0.00,29.98,M,10.00,M,BKN,M,M,M,12000.00,M,M,M,M,M,M,M,M,M,M,53.60,KRTS 030955Z AUTO 28012KT 10SM BKN120 12/M02 A2998 RMK AO2,M
MEV,2025-05-03 09:55,-119.7500,38.9963,1441.42,48.20,41.00,76.01,M,4.00,0.00,29.96,M,10.00,M,SCT,SCT,BKN,M,3700.00,4200.00,12000.00,M,M,M,M,M,M,M,M,46.34,KMEV 030955Z AUTO VRB04KT 10SM SCT037 SCT042 BKN120 09/05 A2996 RMK AO2,M
HTH,2025-05-03 09:55,-118.6315,38.5448,1282.89,64.40,37.40,36.74,340.00,4.00,0.00,29.93,M,10.00,M,FEW,BKN,OVC,M,3400.00,7500.00,9500.00,M,M,M,M,M,M,M,M,64.40,KHTH 030955Z AUTO 34004KT 10SM FEW034 BKN075 OVC095 18/03 A2993 RMK A01,M
TMT,2025-05-03 09:55,-117.1971,39.4643,1749.34,39.00,25.50,58.06,0.00,0.00,0.00,29.99,M,10.00,M,BKN,M,M,M,11000.00,M,M,M,M,M,M,M,M,M,M,39.00,KTMT 030955Z AUTO 00000KT 10SM BKN110 04/M04 A2999 RMK AO2 T00391036,M
10U,2025-05-03 09:55,-116.1876,41.9532,1637.00,48.20,32.00,53.27,90.00,9.00,0.00,29.94,M,10.00,M,OVC,M,M,M,11000.00,M,M,M,M,M,M,M,M,M,M,43.66,K10U 030955Z AUTO 09009KT 10SM OVC110 09/00 A2994 RMK AO2,M
INS,2025-05-03 09:55,-115.6733,36.5872,955.00,64.40,25.70,22.90,0.00,0.00,0.00,29.86,1006.60,10.00,M,CLR,M,M,M,M,M,M,M,M,M,M,M,M,M,M,64.40,KINS 030955Z AUTO 00000KT 10SM CLR 18/M03 A2986 RMK AO2 SLP066 T01801035 $,M
LSV,2025-05-03 09:55,-115.0343,36.2362,570.00,72.50,26.60,18.00,360.00,3.00,0.00,29.77,1005.60,10.00,M,CLR,M,M,M,M,M,M,M,M,M,M,M,M,M,M,72.50,KLSV 030955Z AUTO 36003KT 10SM CLR 23/M03 A2977 RMK AO2 SLP056 T02251030 $,M
EKO,2025-05-03 09:56,-115.7860,40.8242,1367.00,40.00,34.00,78.94,0.00,0.00,0.00,29.94,1010.40,10.00,M,CLR,M,M,M,M,M,M,M,M,M,M,M,M,M,M,40.00,KEKO 030956Z AUTO 00000KT 10SM CLR 04/01 A2994 RMK AO2 SLP104 T00440011,M
WMC,2025-05-03 09:56,-117.8072,40.9019,1315.00,49.00,38.00,65.63,0.00,0.00,0.00,29.92,1009.60,10.00,M,FEW,SCT,M,M,8500.00,11000.00,M,M,M,M,M,M,M,M,M,49.00,KWMC 030956Z AUTO 00000KT 10SM FEW085 SCT110 09/03 A2992 RMK AO2 SLP096 T00940033,M
HND,2025-05-03 09:56,-115.1344,35.9729,742.79,74.00,31.00,20.48,180.00,10.00,0.00,29.85,1009.50,10.00,M,CLR,M,M,M,M,M,M,M,M,M,M,M,M,M,M,74.00,KHND 030956Z AUTO 18010KT 10SM CLR 23/M01 A2985 RMK AO2 SLP095 T02331006 $,M
TPH,2025-05-03 09:56,-117.0904,38.0505,1654.00,47.00,23.00,38.48,350.00,7.00,0.00,29.98,1010.20,10.00,M,CLR,M,M,M,M,M,M,M,M,M,M,M,M,M,M,43.06,KTPH 030956Z AUTO 35007KT 10SM CLR 08/M05 A2998 RMK AO2 SLP102 T00831050,M
LAS,2025-05-03 09:56,-115.1634,36.0719,663.00,73.00,31.00,21.18,220.00,3.00,0.00,29.83,1007.70,10.00,M,FEW,M,M,M,12000.00,M,M,M,M,M,M,M,M,M,M,73.00,KLAS 030956Z 22003KT 10SM FEW120 23/M01 A2983 RMK AO2 SLP077 T02281006,M
NFL,2025-05-03 09:57,-118.7010,39.4166,1199.00,58.00,42.00,55.14,80.00,7.00,T,29.93,1011.00,10.00,M,BKN,OVC,M,M,7500.00,9500.00,M,M,-RA,M,M,M,M,M,M,58.00,KNFL 030957Z AUTO 08007KT 10SM -RA BKN075 OVC095 14/06 A2993 RMK AO2 RAB55 SLP110 P0000 T01440056,M
BVU,2025-05-03 10:15,-114.8611,35.9475,671.00,68.00,33.80,28.11,0.00,0.00,0.00,29.82,M,10.00,M,CLR,M,M,M,M,M,M,M,M,M,M,M,M,M,M,68.00,KBVU 031015Z AUTO 00000KT 10SM CLR 20/01 A2982 RMK AO2,M
BAM,2025-05-03 10:15,-116.8743,40.5990,1382.36,50.00,39.20,66.27,0.00,0.00,0.00,29.92,M,10.00,M,SCT,M,M,M,12000.00,M,M,M,M,M,M,M,M,M,M,50.00,KBAM 031015Z AUTO 00000KT 10SM SCT120 10/04 A2992 RMK AO1,M
CXP,2025-05-03 10:15,-119.7326,39.1923,1431.00,51.80,39.20,61.99,0.00,0.00,0.00,29.98,M,10.00,M,SCT,BKN,M,M,7500.00,12000.00,M,M,M,M,M,M,M,M,M,51.80,KCXP 031015Z AUTO 00000KT 10SM SCT075 BKN120 11/04 A2998 RMK AO2,M
RTS,2025-05-03 10:15,-119.8764,39.6682,1539.00,53.60,28.40,37.67,270.00,12.00,0.00,29.98,M,10.00,M,M,M,M,M,M,M,M,M,M,M,M,M,M,M,M,53.60,KRTS 031015Z AUTO 27012KT 10SM 12/M02 A2998 RMK AO2,M
MEV,2025-05-03 10:15,-119.7500,38.9963,1441.42,48.20,41.00,76.01,0.00,0.00,0.00,29.97,M,10.00,M,SCT,BKN,BKN,M,3700.00,4800.00,12000.00,M,M,M,M,M,M,M,M,48.20,KMEV 031015Z AUTO 00000KT 10SM SCT037 BKN048 BKN120 09/05 A2997 RMK AO2,M
HTH,2025-05-03 10:15,-118.6315,38.5448,1282.89,62.60,39.20,42.00,320.00,9.00,0.00,29.93,M,10.00,M,FEW,SCT,OVC,M,3900.00,6000.00,8000.00,M,M,M,M,M,M,M,M,62.60,KHTH 031015Z AUTO 32009KT 10SM FEW039 SCT060 OVC080 17/04 A2993 RMK A01,M
TMT,2025-05-03 10:15,-117.1971,39.4643,1749.34,39.00,25.50,58.06,130.00,3.00,0.00,29.99,M,10.00,M,SCT,M,M,M,11000.00,M,M,M,M,M,M,M,M,M,M,36.69,KTMT 031015Z AUTO 13003KT 10SM SCT110 04/M04 A2999 RMK AO2 T00391036,M
10U,2025-05-03 10:15,-116.1876,41.9532,1637.00,50.00,32.00,49.81,110.00,12.00,0.00,29.94,M,10.00,M,OVC,M,M,M,11000.00,M,M,M,M,M,M,M,M,M,M,50.00,K10U 031015Z AUTO 11012KT 10SM OVC110 10/M00 A2994 RMK AO2,M
BVU,2025-05-03 10:35,-114.8611,35.9475,671.00,68.00,33.80,28.11,0.00,0.00,0.00,29.81,M,10.00,M,CLR,M,M,M,M,M,M,M,M,M,M,M,M,M,M,68.00,KBVU 031035Z AUTO 00000KT 10SM CLR 20/01 A2981 RMK AO2,M
BAM,2025-05-03 10:35,-116.8743,40.5990,1382.36,46.40,37.40,70.68,0.00,0.00,0.00,29.92,M,10.00,M,CLR,M,M,M,M,M,M,M,M,M,M,M,M,M,M,46.40,KBAM 031035Z AUTO 00000KT 10SM CLR 08/03 A2992 RMK AO1,M
CXP,2025-05-03 10:35,-119.7326,39.1923,1431.00,53.60,39.20,58.02,0.00,0.00,0.00,29.98,M,10.00,M,OVC,M,M,M,7500.00,M,M,M,M,M,M,M,M,M,M,53.60,KCXP 031035Z AUTO 00000KT 10SM OVC075 12/04 A2998 RMK AO2,M
RTS,2025-05-03 10:35,-119.8764,39.6682,1539.00,51.80,28.40,40.25,270.00,8.00,0.00,29.98,M,10.00,M,SCT,BKN,M,M,7000.00,12000.00,M,M,M,M,M,M,M,M,M,51.80,KRTS 031035Z AUTO 27008KT 10SM SCT070 BKN120 11/M02 A2998 RMK AO2,M
MEV,2025-05-03 10:35,-119.7500,38.9963,1441.42,50.00,41.00,71.07,0.00,0.00,0.00,29.96,M,10.00,M,FEW,BKN,BKN,M,3500.00,4300.00,5500.00,M,M,M,M,M,M,M,M,50.00,KMEV 031035Z AUTO 00000KT 10SM FEW035 BKN043 BKN055 10/05 A2996 RMK AO2,M
HTH,2025-05-03 10:35,-118.6315,38.5448,1282.89,62.60,39.20,42.00,340.00,13.00,0.00,29.92,M,10.00,M,FEW,BKN,OVC,M,6000.00,8000.00,10000.00,M,M,M,M,M,M,M,M,62.60,KHTH 031035Z AUTO 34013KT 10SM FEW060 BKN080 OVC100 17/04 A2992 RMK A01,M
TMT,2025-05-03 10:35,-117.1971,39.4643,1749.34,39.00,26.00,59.27,0.00,0.00,0.00,29.99,M,10.00,M,BKN,M,M,M,11000.00,M,M,M,M,M,M,M,M,M,M,39.00,KTMT 031035Z AUTO 00000KT 10SM BKN110 04/M03 A2999 RMK AO2 T00381034,M
10U,2025-05-03 10:35,-116.1876,41.9532,1637.00,51.80,32.00,46.59,100.00,11.00,0.00,29.94,M,10.00,M,FEW,OVC,M,M,9000.00,11000.00,M,M,M,M,M,M,M,M,M,51.80,K10U 031035Z AUTO 10011KT 10SM FEW090 OVC110 11/M00 A2994 RMK AO2,M
P68,2025-05-03 10:53,-116.0056,39.6014,1993.00,45.00,23.00,41.50,0.00,0.00,0.00,29.97,1008.50,M,M,M,M,M,M,M,M,M,M,M,M,M,M,M,M,M,45.00,KP68 031053Z AUTO 00000KT 07/M05 A2997 RMK AO1 SLP085 T00721050 $,M
DRA,2025-05-03 10:53,-116.0278,36.6206,1009.00,59.00,27.00,29.25,80.00,4.00,0.00,29.86,1006.80,10.00,M,CLR,M,M,M,M,M,M,M,M,M,M,M,M,M,M,59.00,KDRA 031053Z AUTO 08004KT 10SM CLR 15/M03 A2986 RMK AO2 SLP068 T01501028,M
ELY,2025-05-03 10:53,-114.8453,39.2950,1909.00,41.00,16.00,35.88,180.00,10.00,0.00,30.03,1009.80,10.00,M,CLR,M,M,M,M,M,M,M,M,M,M,M,M,M,M,34.25,KELY 031053Z AUTO 18010KT 10SM CLR 05/M09 A3003 RMK AO2 SLP098 T00501089 $,M
VGT,2025-05-03 10:53,-115.1933,36.2111,667.00,68.00,31.00,25.12,340.00,3.00,0.00,29.81,1008.90,10.00,M,CLR,M,M,M,M,M,M,M,M,M,M,M,M,M,M,68.00,KVGT 031053Z AUTO 34003KT 10SM CLR 20/M01 A2981 RMK AO2 SLP089 T02001006,M
LOL,2025-05-03 10:53,-118.5701,40.0684,1192.43,52.00,38.00,58.71,180.00,4.00,0.00,29.93,1010.60,10.00,M,FEW,M,M,M,10000.00,M,M,M,M,M,M,M,M,M,M,52.00,KLOL 031053Z AUTO 18004KT 10SM FEW100 11/03 A2993 RMK AO2 SLP106 T01110033,M
BVU,2025-05-03 10:55,-114.8611,35.9475,671.00,66.20,35.60,32.14,0.00,0.00,0.00,29.81,M,10.00,M,CLR,M,M,M,M,M,M,M,M,M,M,M,M,M,M,66.20,KBVU 031055Z AUTO 00000KT 10SM CLR 19/02 A2981 RMK AO2,M
RNO,2025-05-03 10:55,-119.7711,39.4839,1341.00,58.00,31.00,35.70,0.00,0.00,0.00,29.96,1009.80,10.00,M,SCT,BKN,M,M,8000.00,14000.00,M,M,M,M,M,M,M,M,M,58.00,KRNO 031055Z 00000KT 10SM SCT080 BKN140 14/M01 A2996 RMK AO2 SLP098 T01441006 $,M
BAM,2025-05-03 10:55,-116.8743,40.5990,1382.36,46.40,39.20,75.84,180.00,4.00,0.00,29.92,M,10.00,M,CLR,M,M,M,M,M,M,M,M,M,M,M,M,M,M,44.24,KBAM 031055Z AUTO 18004KT 10SM CLR 08/04 A2992 RMK AO1,M
CXP,2025-05-03 10:55,-119.7326,39.1923,1431.00,53.60,37.40,54.07,290.00,3.00,0.00,29.98,M,10.00,M,BKN,BKN,M,M,7500.00,8500.00,M,M,M,M,M,M,M,M,M,53.60,KCXP 031055Z AUTO 29003KT 10SM BKN075 BKN085 12/03 A2998 RMK AO2,M
RTS,2025-05-03 10:55,-119.8764,39.6682,1539.00,51.80,28.40,40.25,280.00,7.00,0.00,29.98,M,10.00,M,OVC,M,M,M,7000.00,M,M,M,M,M,M,M,M,M,M,51.80,KRTS 031055Z AUTO 28007KT 10SM OVC070 11/M02 A2998 RMK AO2,M
MEV,2025-05-03 10:55,-119.7500,38.9963,1441.42,46.40,39.20,75.84,0.00,0.00,0.00,29.96,M,10.00,M,FEW,SCT,BKN,M,4100.00,4600.00,7500.00,M,M,M,M,M,M,M,M,46.40,KMEV 031055Z AUTO 00000KT 10SM FEW041 SCT046 BKN075 08/04 A2996 RMK AO2,M
HTH,2025-05-03 10:55,-118.6315,38.5448,1282.89,62.60,39.20,42.00,330.00,12.00,0.00,29.93,M,10.00,M,FEW,SCT,BKN,M,4000.00,7500.00,9000.00,M,M,M,M,M,M,M,M,62.60,KHTH 031055Z AUTO 33012KT 10SM FEW040 SCT075 BKN090 17/04 A2993 RMK A01,M
TMT,2025-05-03 10:55,-117.1971,39.4643,1749.34,38.50,26.60,61.96,360.00,3.00,0.00,29.99,M,10.00,M,BKN,M,M,M,11000.00,M,M,M,M,M,M,M,M,M,M,36.12,KTMT 031055Z AUTO 36003KT 10SM BKN110 04/M03 A2999 RMK AO2 T00361030,M
10U,2025-05-03 10:55,-116.1876,41.9532,1637.00,51.80,32.00,46.59,0.00,0.00,0.00,29.93,M,10.00,11.00,FEW,BKN,OVC,M,7500.00,9500.00,11000.00,M,M,M,M,M,M,M,M,51.80,K10U 031055Z AUTO 00000G11KT 10SM FEW075 BKN095 OVC110 11/M00 A2993 RMK AO2,M
INS,2025-05-03 10:55,-115.6733,36.5872,955.00,62.80,25.50,24.02,0.00,0.00,0.00,29.86,1006.80,10.00,M,CLR,M,M,M,M,M,M,M,M,M,M,M,M,M,M,62.80,KINS 031055Z AUTO 00000KT 10SM CLR 17/M04 A2986 RMK AO2 SLP068 T01711036 $,M
LSV,2025-05-03 10:55,-115.0343,36.2362,570.00,70.30,26.00,18.91,60.00,5.00,0.00,29.77,1005.60,10.00,M,CLR,M,M,M,M,M,M,M,M,M,M,M,M,M,M,70.30,KLSV 031055Z AUTO 06005KT 10SM CLR 21/M03 A2977 RMK AO2 SLP056 T02131033 $,M
EKO,2025-05-03 10:56,-115.7860,40.8242,1367.00,44.00,31.00,59.97,90.00,3.00,0.00,29.94,1010.20,10.00,M,CLR,M,M,M,M,M,M,M,M,M,M,M,M,M,M,42.41,KEKO 031056Z AUTO 09003KT 10SM CLR 07/M01 A2994 RMK AO2 SLP102 T00671006,M
WMC,2025-05-03 10:56,-117.8072,40.9019,1315.00,53.00,39.00,58.85,330.00,4.00,0.00,29.94,1009.80,10.00,M,FEW,BKN,M,M,8500.00,12000.00,M,M,M,M,M,M,M,M,M,53.00,KWMC 031056Z AUTO 33004KT 10SM FEW085 BKN120 12/04 A2994 RMK AO2 SLP098 T01170039,M
HND,2025-05-03 10:56,-115.1344,35.9729,742.79,70.00,31.00,23.45,280.00,7.00,0.00,29.85,1009.90,10.00,M,CLR,M,M,M,M,M,M,M,M,M,M,M,M,M,M,70.00,KHND 031056Z AUTO 28007KT 10SM CLR 21/M01 A2985 RMK AO2 SLP099 T02111006 $,M
TPH,2025-05-03 10:56,-117.0904,38.0505,1654.00,44.00,25.00,46.88,340.00,7.00,0.00,29.97,1010.10,10.00,M,CLR,M,M,M,M,M,M,M,M,M,M,M,M,M,M,39.41,KTPH 031056Z AUTO 34007KT 10SM CLR 07/M04 A2997 RMK AO2 SLP101 T00671039,M
LAS,2025-05-03 10:56,-115.1634,36.0719,663.00,71.00,31.00,22.67,0.00,0.00,0.00,29.83,1007.70,10.00,M,FEW,M,M,M,12000.00,M,M,M,M,M,M,M,M,M,M,71.00,KLAS 031056Z 00000KT 10SM FEW120 22/M01 A2983 RMK AO2 SLP077 T02171006,M
NFL,2025-05-03 10:57,-118.7010,39.4166,1199.00,54.00,47.00,77.12,80.00,9.00,0.05,29.94,1011.10,5.00,M,BKN,OVC,M,M,6500.00,8000.00,M,M,+RA,M,M,M,M,M,M,54.00,KNFL 031057Z AUTO 08009KT 5SM +RA BKN065 OVC080 12/08 A2994 RMK AO2 RAE20B52 SLP111 P0005 T01220083,M
BVU,2025-05-03 11:15,-114.8611,35.9475,671.00,66.20,33.80,29.92,340.00,3.00,0.00,29.81,M,10.00,M,CLR,M,M,M,M,M,M,M,M,M,M,M,M,M,M,66.20,KBVU 031115Z AUTO 34003KT 10SM CLR 19/01 A2981 RMK AO2,M
BAM,2025-05-03 11:15,-116.8743,40.5990,1382.36,48.20,39.20,70.88,190.00,5.00,0.00,29.92,M,10.00,M,CLR,M,M,M,M,M,M,M,M,M,M,M,M,M,M,45.63,KBAM 031115Z AUTO 19005KT 10SM CLR 09/04 A2992 RMK AO1,M
CXP,2025-05-03 11:15,-119.7326,39.1923,1431.00,51.80,37.40,57.77,0.00,0.00,0.00,29.97,M,10.00,M,BKN,BKN,M,M,7500.00,8500.00,M,M,M,M,M,M,M,M,M,51.80,KCXP 031115Z AUTO 00000KT 10SM BKN075 BKN085 11/03 A2997 RMK AO2,M
RTS,2025-05-03 11:15,-119.8764,39.6682,1539.00,51.80,30.20,43.32,280.00,6.00,0.00,29.98,M,10.00,M,OVC,M,M,M,7000.00,M,M,M,M,M,M,M,M,M,M,51.80,KRTS 031115Z AUTO 28006KT 10SM OVC070 11/M01 A2998 RMK AO2,M
MEV,2025-05-03 11:15,-119.7500,38.9963,1441.42,46.40,39.20,75.84,0.00,0.00,0.00,29.96,M,10.00,M,FEW,FEW,BKN,M,4200.00,5500.00,7500.00,M,M,M,M,M,M,M,M,46.40,KMEV 031115Z AUTO 00000KT 10SM FEW042 FEW055 BKN075 08/04 A2996 RMK AO2,M
HTH,2025-05-03 11:15,-118.6315,38.5448,1282.89,60.80,41.00,48.00,310.00,12.00,0.00,29.93,M,10.00,17.00,FEW,BKN,OVC,M,4200.00,5500.00,9000.00,M,M,M,M,M,M,M,M,60.80,KHTH 031115Z AUTO 31012G17KT 10SM FEW042 BKN055 OVC090 16/05 A2993 RMK A01,M
TMT,2025-05-03 11:15,-117.1971,39.4643,1749.34,39.40,26.40,59.33,0.00,0.00,0.00,29.99,M,10.00,M,SCT,M,M,M,12000.00,M,M,M,M,M,M,M,M,M,M,39.40,KTMT 031115Z AUTO 00000KT 10SM SCT120 04/M03 A2999 RMK AO2 T00411031,M
10U,2025-05-03 11:15,-116.1876,41.9532,1637.00,46.40,35.60,65.83,260.00,11.00,0.00,29.94,M,10.00,M,FEW,OVC,M,M,7500.00,10000.00,M,M,M,M,M,M,M,M,M,40.66,K10U 031115Z AUTO 26011KT 10SM FEW075 OVC100 08/02 A2994 RMK AO2,M
BVU,2025-05-03 11:35,-114.8611,35.9475,671.00,66.20,32.00,27.83,20.00,4.00,0.00,29.81,M,10.00,M,CLR,M,M,M,M,M,M,M,M,M,M,M,M,M,M,66.20,KBVU 031135Z AUTO 02004KT 10SM CLR 19/00 A2981 RMK AO2,M
BAM,2025-05-03 11:35,-116.8743,40.5990,1382.36,46.40,37.40,70.68,180.00,7.00,0.00,29.93,M,10.00,M,CLR,M,M,M,M,M,M,M,M,M,M,M,M,M,M,42.33,KBAM 031135Z AUTO 18007KT 10SM CLR 08/03 A2993 RMK AO1,M
CXP,2025-05-03 11:35,-119.7326,39.1923,1431.00,53.60,37.40,54.07,0.00,0.00,0.00,29.97,M,10.00,M,OVC,M,M,M,7500.00,M,M,M,M,M,M,M,M,M,M,53.60,KCXP 031135Z AUTO 00000KT 10SM OVC075 12/03 A2997 RMK AO2,M
RTS,2025-05-03 11:35,-119.8764,39.6682,1539.00,51.80,30.20,43.32,300.00,3.00,0.00,29.98,M,10.00,M,BKN,OVC,M,M,6500.00,7500.00,M,M,M,M,M,M,M,M,M,51.80,KRTS 031135Z AUTO 30003KT 10SM BKN065 OVC075 11/M01 A2998 RMK AO2,M
MEV,2025-05-03 11:35,-119.7500,38.9963,1441.42,46.40,41.00,81.34,50.00,5.00,0.00,29.96,M,10.00,M,FEW,BKN,M,M,6500.00,7500.00,M,M,M,M,M,M,M,M,M,43.50,KMEV 031135Z AUTO 05005KT 10SM FEW065 BKN075 08/05 A2996 RMK AO2,M
HTH,2025-05-03 11:35,-118.6315,38.5448,1282.89,60.80,39.20,44.76,310.00,10.00,0.00,29.92,M,10.00,17.00,FEW,SCT,BKN,M,3000.00,4200.00,6000.00,M,M,M,M,M,M,M,M,60.80,KHTH 031135Z AUTO 31010G17KT 10SM FEW030 SCT042 BKN060 16/04 A2992 RMK A01,M
TMT,2025-05-03 11:35,-117.1971,39.4643,1749.34,38.30,26.40,61.94,320.00,3.00,0.00,29.99,M,10.00,M,BKN,M,M,M,12000.00,M,M,M,M,M,M,M,M,M,M,35.89,KTMT 031135Z AUTO 32003KT 10SM BKN120 04/M03 A2999 RMK AO2 T00351031,M
10U,2025-05-03 11:35,-116.1876,41.9532,1637.00,46.40,35.60,65.83,0.00,0.00,0.00,29.94,M,10.00,M,OVC,M,M,M,10000.00,M,M,M,M,M,M,M,M,M,M,46.40,K10U 031135Z AUTO 00000KT 10SM OVC100 08/02 A2994 RMK AO2,M
RTS,2025-05-03 11:45,-119.8764,39.6682,1539.00,51.80,32.00,46.59,320.00,5.00,0.00,29.98,M,10.00,M,BKN,OVC,M,M,6000.00,7000.00,M,M,M,M,M,M,M,M,M,51.80,KRTS 031145Z AUTO 32005KT 10SM BKN060 OVC070 11/M00 A2998 RMK AO2,M
MEV,2025-05-03 11:45,-119.7500,38.9963,1441.42,44.60,41.00,87.09,50.00,7.00,0.00,29.95,M,10.00,M,FEW,BKN,M,M,5500.00,7500.00,M,M,M,M,M,M,M,M,M,40.14,KMEV 031145Z AUTO 05007KT 10SM FEW055 BKN075 07/05 A2995 RMK AO2,M
CXP,2025-05-03 11:50,-119.7326,39.1923,1431.00,50.00,39.20,66.27,0.00,0.00,0.00,29.96,M,10.00,M,OVC,M,M,M,7500.00,M,M,M,M,M,M,M,M,M,M,50.00,KCXP 031150Z AUTO 00000KT 10SM OVC075 10/04 A2996 RMK AO2,M
P68,2025-05-03 11:53,-116.0056,39.6014,1993.00,40.00,23.00,50.30,140.00,6.00,0.00,29.97,1009.00,M,M,M,M,M,M,M,M,M,M,M,M,M,M,M,M,M,35.17,KP68 031153Z AUTO 14006KT 04/M05 A2997 RMK AO1 SLP090 T00441050 10133 20039 58001 $,M
DRA,2025-05-03 11:53,-116.0278,36.6206,1009.00,58.00,28.00,31.59,0.00,0.00,0.00,29.86,1006.90,10.00,M,CLR,M,M,M,M,M,M,M,M,M,M,M,M,M,M,58.00,KDRA 031153Z AUTO 00000KT 10SM CLR 14/M02 A2986 RMK AO2 SLP069 T01441022 10211 20144 58002,M
ELY,2025-05-03 11:53,-114.8453,39.2950,1909.00,36.00,17.00,45.57,150.00,3.00,0.00,30.03,1010.50,10.00,M,CLR,M,M,M,M,M,M,M,M,M,M,M,M,M,M,33.26,KELY 031153Z AUTO 15003KT 10SM CLR 02/M08 A3003 RMK AO2 SLP105 T00221083 10083 20017 57001 $,M
VGT,2025-05-03 11:53,-115.1933,36.2111,667.00,67.00,33.00,28.18,290.00,4.00,0.00,29.81,1009.00,10.00,M,CLR,M,M,M,M,M,M,M,M,M,M,M,M,M,M,67.00,KVGT 031153Z AUTO 29004KT 10SM CLR 19/01 A2981 RMK AO2 SLP090 T01940006 10256 20194 51001,M
LOL,2025-05-03 11:53,-118.5701,40.0684,1192.43,53.00,43.00,68.71,200.00,6.00,T,29.93,1010.50,10.00,M,FEW,M,M,M,12000.00,M,M,M,M,M,M,M,M,M,M,53.00,KLOL 031153Z AUTO 20006KT 10SM FEW120 12/06 A2993 RMK AO2 RAB15E35 SLP105 P0000 60000 T01170061 10189 20111 56001,M
BVU,2025-05-03 11:55,-114.8611,35.9475,671.00,66.20,33.80,29.92,50.00,3.00,0.00,29.81,M,10.00,M,CLR,M,M,M,M,M,M,M,M,M,M,M,M,M,M,66.20,KBVU 031155Z AUTO 05003KT 10SM CLR 19/01 A2981 RMK AO2,M
RNO,2025-05-03 11:55,-119.7711,39.4839,1341.00,57.00,34.00,41.76,0.00,0.00,0.00,29.94,1009.30,10.00,M,SCT,BKN,M,M,8000.00,14000.00,M,M,M,M,M,M,M,M,M,57.00,KRNO 031155Z 00000KT 10SM SCT080 BKN140 14/01 A2994 RMK AO2 SLP093 T01390011 10172 20133 58004 $,M
BAM,2025-05-03 11:55,-116.8743,40.5990,1382.36,48.20,37.40,66.05,190.00,3.00,0.00,29.92,M,10.00,M,CLR,M,M,M,M,M,M,M,M,M,M,M,M,M,M,47.21,KBAM 031155Z AUTO 19003KT 10SM CLR 09/03 A2992 RMK AO1,M
LSV,2025-05-03 11:55,-115.0343,36.2362,570.00,71.00,26.80,19.09,20.00,5.00,0.00,29.77,1005.60,10.00,M,CLR,M,M,M,M,M,M,M,M,M,M,M,M,M,M,71.00,KLSV 031155Z AUTO 02005KT 10SM CLR 22/M03 A2977 RMK AO2 SLP056 T02171029 10267 20200 51002 $,M
HTH,2025-05-03 11:55,-118.6315,38.5448,1282.89,60.80,39.20,44.76,320.00,12.00,0.00,29.92,M,10.00,M,FEW,FEW,OVC,M,3000.00,5000.00,7000.00,M,M,M,M,M,M,M,M,60.80,KHTH 031155Z AUTO 32012KT 10SM FEW030 FEW050 OVC070 16/04 A2992 RMK A01,M
TMT,2025-05-03 11:55,-117.1971,39.4643,1749.34,37.40,25.30,61.30,0.00,0.00,0.00,29.99,M,10.00,M,SCT,M,M,M,12000.00,M,M,M,M,M,M,M,M,M,M,37.40,KTMT 031155Z AUTO 00000KT 10SM SCT120 03/M04 A2999 RMK AO2 T00301037 10090 20014,M
10U,2025-05-03 11:55,-116.1876,41.9532,1637.00,44.60,35.60,70.48,140.00,5.00,0.00,29.94,M,10.00,M,SCT,SCT,BKN,M,7500.00,8500.00,10000.00,M,M,M,M,M,M,M,M,41.36,K10U 031155Z AUTO 14005KT 10SM SCT075 SCT085 BKN100 07/02 A2994 RMK AO2,M
INS,2025-05-03 11:55,-115.6733,36.5872,955.00,60.40,25.30,25.94,0.00,0.00,0.00,29.86,1006.80,10.00,M,CLR,M,M,M,M,M,M,M,M,M,M,M,M,M,M,60.40,KINS 031155Z AUTO 00000KT 10SM CLR 16/M04 A2986 RMK AO2 SLP068 T01581037 10221 20145 55002 $,M
EKO,2025-05-03 11:56,-115.7860,40.8242,1367.00,44.00,31.00,59.97,90.00,4.00,0.00,29.93,1010.20,10.00,M,FEW,M,M,M,12000.00,M,M,M,M,M,M,M,M,M,M,41.43,KEKO 031156Z AUTO 09004KT 10SM FEW120 07/M01 A2993 RMK AO2 SLP102 T00671006 10117 20044 50002,M
WMC,2025-05-03 11:56,-117.8072,40.9019,1315.00,52.00,37.00,56.45,280.00,8.00,0.00,29.93,1009.60,10.00,M,CLR,M,M,M,M,M,M,M,M,M,M,M,M,M,M,52.00,KWMC 031156Z AUTO 28008KT 10SM CLR 11/03 A2993 RMK AO2 SLP096 T01110028 10150 20089 50003,M
HND,2025-05-03 11:56,-115.1344,35.9729,742.79,70.00,34.00,26.46,200.00,10.00,0.00,29.85,1009.70,10.00,M,CLR,M,M,M,M,M,M,M,M,M,M,M,M,M,M,70.00,KHND 031156Z AUTO 20010KT 10SM CLR 21/01 A2985 RMK AO2 SLP097 T02110011 10250 20206 50000 $,M
TPH,2025-05-03 11:56,-117.0904,38.0505,1654.00,43.00,25.00,48.70,340.00,7.00,0.00,29.97,1009.80,10.00,M,CLR,M,M,M,M,M,M,M,M,M,M,M,M,M,M,38.19,KTPH 031156Z AUTO 34007KT 10SM CLR 06/M04 A2997 RMK AO2 SLP098 T00611039 10122 20061 58007,M
LAS,2025-05-03 11:56,-115.1634,36.0719,663.00,70.00,32.00,24.42,210.00,3.00,0.00,29.82,1007.70,10.00,M,FEW,M,M,M,12000.00,M,M,M,M,M,M,M,M,M,M,70.00,KLAS 031156Z 21003KT 10SM FEW120 21/00 A2982 RMK AO2 SLP077 T02110000 10261 20206 50001,M
NFL,2025-05-03 11:57,-118.7010,39.4166,1199.00,54.00,48.00,80.07,40.00,9.00,0.01,29.91,1010.10,10.00,M,FEW,BKN,OVC,M,6500.00,9500.00,12000.00,M,-RA,M,M,M,M,M,M,54.00,KNFL 031157Z AUTO 04009KT 10SM -RA FEW065 BKN095 OVC120 12/09 A2991 RMK AO2 RAE32B52 SLP101 P0001 60006 70006 T01220089 10183 20122 58004,M
BVU,2025-05-03 12:15,-114.8611,35.9475,671.00,69.80,30.20,22.86,80.00,5.00,0.00,29.81,M,10.00,M,CLR,M,M,M,M,M,M,M,M,M,M,M,M,M,M,69.80,KBVU 031215Z AUTO 08005KT 10SM CLR 21/M01 A2981 RMK AO2,M
BAM,2025-05-03 12:15,-116.8743,40.5990,1382.36,48.20,37.40,66.05,180.00,3.00,0.00,29.93,M,10.00,M,CLR,M,M,M,M,M,M,M,M,M,M,M,M,M,M,47.21,KBAM 031215Z AUTO 18003KT 10SM CLR 09/03 A2993 RMK AO1,M
CXP,2025-05-03 12:15,-119.7326,39.1923,1431.00,48.20,41.00,76.01,0.00,0.00,0.00,29.96,M,10.00,M,BKN,M,M,M,7500.00,M,M,M,M,M,M,M,M,M,M,48.20,KCXP 031215Z AUTO 00000KT 10SM BKN075 09/05 A2996 RMK AO2,M
HTH,2025-05-03 12:15,-118.6315,38.5448,1282.89,60.80,39.20,44.76,320.00,10.00,0.00,29.93,M,10.00,M,FEW,SCT,BKN,M,3800.00,5500.00,7500.00,M,M,M,M,M,M,M,M,60.80,KHTH 031215Z AUTO 32010KT 10SM FEW038 SCT055 BKN075 16/04 A2993 RMK A01,M
TMT,2025-05-03 12:15,-117.1971,39.4643,1749.34,35.80,24.80,63.95,0.00,0.00,0.00,29.98,M,10.00,M,CLR,M,M,M,M,M,M,M,M,M,M,M,M,M,M,35.80,KTMT 031215Z AUTO 00000KT 10SM CLR 02/M04 A2998 RMK AO2 T00211040,M
10U,2025-05-03 12:15,-116.1876,41.9532,1637.00,44.60,37.40,75.68,20.00,4.00,0.00,29.93,M,10.00,11.00,FEW,SCT,BKN,M,7000.00,8000.00,11000.00,M,M,M,M,M,M,M,M,42.13,K10U 031215Z AUTO 02004G11KT 10SM FEW070 SCT080 BKN110 07/03 A2993 RMK AO2,M
BVU,2025-05-03 12:35,-114.8611,35.9475,671.00,71.60,28.40,19.98,90.00,6.00,0.00,29.81,M,10.00,M,CLR,M,M,M,M,M,M,M,M,M,M,M,M,M,M,71.60,KBVU 031235Z AUTO 09006KT 10SM CLR 22/M02 A2981 RMK AO2,M
BAM,2025-05-03 12:35,-116.8743,40.5990,1382.36,46.40,37.40,70.68,0.00,0.00,0.00,29.93,M,10.00,M,SCT,M,M,M,12000.00,M,M,M,M,M,M,M,M,M,M,46.40,KBAM 031235Z AUTO 00000KT 10SM SCT120 08/03 A2993 RMK AO1,M
CXP,2025-05-03 12:35,-119.7326,39.1923,1431.00,50.00,39.20,66.27,0.00,0.00,0.00,29.96,M,10.00,M,SCT,BKN,M,M,7000.00,7500.00,M,M,M,M,M,M,M,M,M,50.00,KCXP 031235Z AUTO 00000KT 10SM SCT070 BKN075 10/04 A2996 RMK AO2,M
RTS,2025-05-03 12:35,-119.8764,39.6682,1539.00,50.00,32.00,49.81,270.00,5.00,0.00,29.97,M,10.00,M,OVC,M,M,M,8000.00,M,M,M,M,M,M,M,M,M,M,50.00,KRTS 031235Z AUTO 27005KT 10SM OVC080 10/M00 A2997 RMK AO2,M
MEV,2025-05-03 12:35,-119.7500,38.9963,1441.42,46.40,41.00,81.34,120.00,6.00,0.00,29.95,M,10.00,M,FEW,FEW,FEW,M,4800.00,6000.00,7500.00,M,M,M,M,M,M,M,M,42.87,KMEV 031235Z AUTO 12006KT 10SM FEW048 FEW060 FEW075 08/05 A2995 RMK AO2,M
HTH,2025-05-03 12:35,-118.6315,38.5448,1282.89,60.80,39.20,44.76,320.00,9.00,0.00,29.93,M,10.00,M,FEW,SCT,BKN,M,3900.00,5500.00,7500.00,M,M,M,M,M,M,M,M,60.80,KHTH 031235Z AUTO 32009KT 10SM FEW039 SCT055 BKN075 16/04 A2993 RMK A01,M
TMT,2025-05-03 12:35,-117.1971,39.4643,1749.34,36.70,25.70,64.07,0.00,0.00,0.00,29.99,M,10.00,M,CLR,M,M,M,M,M,M,M,M,M,M,M,M,M,M,36.70,KTMT 031235Z AUTO 00000KT 10SM CLR 03/M03 A2999 RMK AO2 T00261035,M
10U,2025-05-03 12:35,-116.1876,41.9532,1637.00,41.00,35.60,80.93,250.00,4.00,0.00,29.94,M,10.00,M,FEW,BKN,M,M,8000.00,11000.00,M,M,M,M,M,M,M,M,M,37.93,K10U 031235Z AUTO 25004KT 10SM FEW080 BKN110 05/02 A2994 RMK AO2,M
CXP,2025-05-03 12:50,-119.7326,39.1923,1431.00,50.00,39.20,66.27,0.00,0.00,0.00,29.96,M,10.00,M,SCT,SCT,M,M,7000.00,8500.00,M,M,M,M,M,M,M,M,M,50.00,KCXP 031250Z AUTO 00000KT 10SM SCT070 SCT085 10/04 A2996 RMK AO2,M
P68,2025-05-03 12:53,-116.0056,39.6014,1993.00,42.00,24.00,48.55,200.00,6.00,0.00,29.97,1008.90,M,M,M,M,M,M,M,M,M,M,M,M,M,M,M,M,M,37.57,KP68 031253Z AUTO 20006KT 06/M04 A2997 RMK AO1 SLP089 T00561044 $,M
DRA,2025-05-03 12:53,-116.0278,36.6206,1009.00,57.00,28.00,32.75,30.00,6.00,0.00,29.86,1007.10,10.00,M,CLR,M,M,M,M,M,M,M,M,M,M,M,M,M,M,57.00,KDRA 031253Z AUTO 03006KT 10SM CLR 14/M02 A2986 RMK AO2 SLP071 T01391022,M
ELY,2025-05-03 12:53,-114.8453,39.2950,1909.00,33.00,18.00,53.62,130.00,3.00,0.00,30.03,1010.90,10.00,M,CLR,M,M,M,M,M,M,M,M,M,M,M,M,M,M,29.83,KELY 031253Z AUTO 13003KT 10SM CLR 01/M08 A3003 RMK AO2 SLP109 T00061078 $,M
VGT,2025-05-03 12:53,-115.1933,36.2111,667.00,66.00,31.00,26.92,350.00,5.00,0.00,29.81,1009.10,10.00,M,CLR,M,M,M,M,M,M,M,M,M,M,M,M,M,M,66.00,KVGT 031253Z AUTO 35005KT 10SM CLR 19/M01 A2981 RMK AO2 SLP091 T01891006,M
LOL,2025-05-03 12:53,-118.5701,40.0684,1192.43,54.00,44.00,68.82,270.00,9.00,0.02,29.95,1010.90,10.00,M,SCT,BKN,M,M,5500.00,8000.00,M,M,M,M,M,M,M,M,M,54.00,KLOL 031253Z AUTO 27009KT 10SM SCT055 BKN080 12/07 A2995 RMK AO2 RAB22E46 SLP109 P0002 T01220067,M
BVU,2025-05-03 12:55,-114.8611,35.9475,671.00,69.80,30.20,22.86,70.00,3.00,0.00,29.82,M,10.00,M,CLR,M,M,M,M,M,M,M,M,M,M,M,M,M,M,69.80,KBVU 031255Z AUTO 07003KT 10SM CLR 21/M01 A2982 RMK AO2,M
RNO,2025-05-03 12:55,-119.7711,39.4839,1341.00,56.00,33.00,41.60,260.00,4.00,0.00,29.94,1009.50,10.00,M,FEW,SCT,BKN,M,7500.00,14000.00,24000.00,M,M,M,M,M,M,M,M,56.00,KRNO 031255Z 26004KT 10SM FEW075 SCT140 BKN240 13/01 A2994 RMK AO2 SLP095 T01330006 $,M
BAM,2025-05-03 12:55,-116.8743,40.5990,1382.36,46.40,39.20,75.84,0.00,0.00,0.00,29.93,M,10.00,M,SCT,M,M,M,12000.00,M,M,M,M,M,M,M,M,M,M,46.40,KBAM 031255Z AUTO 00000KT 10SM SCT120 08/04 A2993 RMK AO1,M
RTS,2025-05-03 12:55,-119.8764,39.6682,1539.00,50.00,32.00,49.81,300.00,4.00,0.00,29.97,M,10.00,M,FEW,SCT,M,M,7500.00,8500.00,M,M,M,M,M,M,M,M,M,50.00,KRTS 031255Z AUTO 30004KT 10SM FEW075 SCT085 10/M00 A2997 RMK AO2,M
MEV,2025-05-03 12:55,-119.7500,38.9963,1441.42,44.60,41.00,87.09,110.00,4.00,0.00,29.95,M,10.00,M,CLR,M,M,M,M,M,M,M,M,M,M,M,M,M,M,42.13,KMEV 031255Z AUTO 11004KT 10SM CLR 07/05 A2995 RMK AO2,M
HTH,2025-05-03 12:55,-118.6315,38.5448,1282.89,60.80,39.20,44.76,320.00,10.00,0.00,29.93,M,10.00,M,FEW,SCT,BKN,M,300.00,5500.00,7500.00,M,M,M,M,M,M,M,M,60.80,KHTH 031255Z AUTO 32010KT 10SM FEW003 SCT055 BKN075 16/04 A2993 RMK A01,M
TMT,2025-05-03 12:55,-117.1971,39.4643,1749.34,33.40,23.70,67.21,0.00,0.00,0.00,29.99,M,10.00,M,BKN,M,M,M,12000.00,M,M,M,M,M,M,M,M,M,M,33.40,KTMT 031255Z AUTO 00000KT 10SM BKN120 01/M05 A2999 RMK AO2 T00081046,M
10U,2025-05-03 12:55,-116.1876,41.9532,1637.00,42.80,35.60,75.50,0.00,0.00,0.00,29.96,M,10.00,M,BKN,BKN,M,M,9000.00,11000.00,M,M,M,M,M,M,M,M,M,42.80,K10U 031255Z AUTO 00000KT 10SM BKN090 BKN110 06/02 A2996 RMK AO2,M
INS,2025-05-03 12:55,-115.6733,36.5872,955.00,59.00,24.00,25.82,220.00,3.00,0.00,29.86,1007.00,10.00,M,CLR,M,M,M,M,M,M,M,M,M,M,M,M,M,M,59.00,KINS 031255Z AUTO 22003KT 10SM CLR 15/M04 A2986 RMK AO2 SLP070 T01501044 $,M
LSV,2025-05-03 12:55,-115.0343,36.2362,570.00,65.70,25.70,21.89,60.00,6.00,0.00,29.78,1006.10,10.00,M,CLR,M,M,M,M,M,M,M,M,M,M,M,M,M,M,65.70,KLSV 031255Z AUTO 06006KT 10SM CLR 19/M03 A2978 RMK AO2 SLP061 T01871035 $,M
EKO,2025-05-03 12:56,-115.7860,40.8242,1367.00,40.00,33.00,75.84,250.00,3.00,0.00,29.94,1010.80,10.00,M,CLR,M,M,M,M,M,M,M,M,M,M,M,M,M,M,37.83,KEKO 031256Z AUTO 25003KT 10SM CLR 04/01 A2994 RMK AO2 SLP108 T00440006,M
WMC,2025-05-03 12:56,-117.8072,40.9019,1315.00,52.00,38.00,58.71,60.00,3.00,0.00,29.94,1009.90,10.00,M,FEW,FEW,M,M,5000.00,7000.00,M,M,M,M,M,M,M,M,M,52.00,KWMC 031256Z AUTO 06003KT 10SM FEW050 FEW070 11/03 A2994 RMK AO2 SLP099 T01110033,M
HND,2025-05-03 12:56,-115.1344,35.9729,742.79,67.00,35.00,30.53,190.00,8.00,0.00,29.85,1010.10,10.00,M,CLR,M,M,M,M,M,M,M,M,M,M,M,M,M,M,67.00,KHND 031256Z 19008KT 10SM CLR 19/02 A2985 RMK AO2 SLP101 T01940017 $,M
TPH,2025-05-03 12:56,-117.0904,38.0505,1654.00,44.00,28.00,53.07,340.00,7.00,0.00,29.97,1010.00,10.00,M,CLR,M,M,M,M,M,M,M,M,M,M,M,M,M,M,39.41,KTPH 031256Z AUTO 34007KT 10SM CLR 07/M02 A2997 RMK AO2 SLP100 T00671022,M
LAS,2025-05-03 12:56,-115.1634,36.0719,663.00,69.00,32.00,25.27,0.00,0.00,0.00,29.83,1008.00,10.00,M,FEW,FEW,M,M,12000.00,20000.00,M,M,M,M,M,M,M,M,M,69.00,KLAS 031256Z 00000KT 10SM FEW120 FEW200 21/00 A2983 RMK AO2 SLP080 T02060000,M
NFL,2025-05-03 12:57,-118.7010,39.4166,1199.00,55.00,48.00,77.21,M,3.00,T,29.93,1010.80,10.00,M,BKN,OVC,M,M,8500.00,10000.00,M,M,M,M,M,M,M,M,M,55.00,KNFL 031257Z AUTO VRB03KT 10SM BKN085 OVC100 13/09 A2993 RMK AO2 RAE06 SLP108 P0000 T01280089,M
BVU,2025-05-03 13:15,-114.8611,35.9475,671.00,71.60,30.20,21.50,90.00,4.00,0.00,29.82,M,10.00,M,CLR,M,M,M,M,M,M,M,M,M,M,M,M,M,M,71.60,KBVU 031315Z AUTO 09004KT 10SM CLR 22/M01 A2982 RMK AO2,M
BAM,2025-05-03 13:15,-116.8743,40.5990,1382.36,46.40,39.20,75.84,0.00,0.00,0.00,29.93,M,10.00,M,SCT,M,M,M,12000.00,M,M,M,M,M,M,M,M,M,M,46.40,KBAM 031315Z AUTO 00000KT 10SM SCT120 08/04 A2993 RMK AO1,M
CXP,2025-05-03 13:15,-119.7326,39.1923,1431.00,51.80,39.20,61.99,0.00,0.00,0.00,29.96,M,10.00,M,BKN,M,M,M,7000.00,M,M,M,M,M,M,M,M,M,M,51.80,KCXP 031315Z AUTO 00000KT 10SM BKN070 11/04 A2996 RMK AO2,M
RTS,2025-05-03 13:15,-119.8764,39.6682,1539.00,50.00,32.00,49.81,0.00,0.00,0.00,29.97,M,10.00,M,CLR,M,M,M,M,M,M,M,M,M,M,M,M,M,M,50.00,KRTS 031315Z AUTO 00000KT 10SM CLR 10/M00 A2997 RMK AO2,M
MEV,2025-05-03 13:15,-119.7500,38.9963,1441.42,44.60,41.00,87.09,0.00,0.00,0.00,29.95,M,10.00,M,CLR,M,M,M,M,M,M,M,M,M,M,M,M,M,M,44.60,KMEV 031315Z AUTO 00000KT 10SM CLR 07/05 A2995 RMK AO2,M
HTH,2025-05-03 13:15,-118.6315,38.5448,1282.89,60.80,41.00,48.00,330.00,9.00,0.00,29.93,M,10.00,M,FEW,OVC,M,M,6000.00,10000.00,M,M,M,M,M,M,M,M,M,60.80,KHTH 031315Z AUTO 33009KT 10SM FEW060 OVC100 16/05 A2993 RMK A01,M
TMT,2025-05-03 13:15,-117.1971,39.4643,1749.34,35.60,25.00,65.00,0.00,0.00,0.00,29.99,M,10.00,M,OVC,M,M,M,12000.00,M,M,M,M,M,M,M,M,M,M,35.60,KTMT 031315Z AUTO 00000KT 10SM OVC120 02/M04 A2999 RMK AO2 T00201038,M
10U,2025-05-03 13:15,-116.1876,41.9532,1637.00,46.40,37.40,70.68,300.00,4.00,0.00,29.97,M,10.00,10.00,OVC,M,M,M,9500.00,M,M,M,M,M,M,M,M,M,M,44.24,K10U 031315Z AUTO 30004G10KT 10SM OVC095 08/03 A2997 RMK AO2,M
MEV,2025-05-03 13:20,-119.7500,38.9963,1441.42,44.60,41.00,87.09,130.00,4.00,0.00,29.95,M,10.00,M,CLR,M,M,M,M,M,M,M,M,M,M,M,M,M,M,42.13,KMEV 031320Z AUTO 13004KT 10SM CLR 07/05 A2995 RMK AO2,M
RTS,2025-05-03 13:25,-119.8764,39.6682,1539.00,51.80,32.00,46.59,290.00,4.00,0.00,29.97,M,10.00,M,CLR,M,M,M,M,M,M,M,M,M,M,M,M,M,M,51.80,KRTS 031325Z AUTO 29004KT 10SM CLR 11/00 A2997 RMK AO2,M
CXP,2025-05-03 13:30,-119.7326,39.1923,1431.00,51.80,39.20,61.99,0.00,0.00,0.00,29.97,M,10.00,M,BKN,M,M,M,7000.00,M,M,M,M,M,M,M,M,M,M,51.80,KCXP 031330Z AUTO 00000KT 10SM BKN070 11/04 A2997 RMK AO2,M
HTH,2025-05-03 13:30,-118.6315,38.5448,1282.89,59.00,41.00,51.18,330.00,8.00,0.00,29.94,M,10.00,M,FEW,OVC,M,M,6500.00,10000.00,M,M,M,M,M,M,M,M,M,59.00,KHTH 031330Z AUTO 33008KT 10SM FEW065 OVC100 15/05 A2994 RMK A01,M
BVU,2025-05-03 13:35,-114.8611,35.9475,671.00,73.40,30.20,20.23,100.00,5.00,0.00,29.82,M,10.00,M,CLR,M,M,M,M,M,M,M,M,M,M,M,M,M,M,73.40,KBVU 031335Z AUTO 10005KT 10SM CLR 23/M01 A2982 RMK AO2,M
BAM,2025-05-03 13:35,-116.8743,40.5990,1382.36,51.80,41.00,66.48,0.00,0.00,0.00,29.95,M,10.00,M,SCT,M,M,M,12000.00,M,M,M,M,M,M,M,M,M,M,51.80,KBAM 031335Z AUTO 00000KT 10SM SCT120 11/05 A2995 RMK AO1,M
TMT,2025-05-03 13:35,-117.1971,39.4643,1749.34,43.00,27.50,54.02,0.00,0.00,0.00,30.00,M,10.00,M,BKN,M,M,M,12000.00,M,M,M,M,M,M,M,M,M,M,43.00,KTMT 031335Z AUTO 00000KT 10SM BKN120 06/M02 A3000 RMK AO2 T00611025,M
10U,2025-05-03 13:35,-116.1876,41.9532,1637.00,50.00,37.40,61.76,0.00,0.00,0.00,29.97,M,10.00,11.00,FEW,SCT,BKN,M,8000.00,10000.00,12000.00,M,M,M,M,M,M,M,M,50.00,K10U 031335Z AUTO 00000G11KT 10SM FEW080 SCT100 BKN120 10/03 A2997 RMK AO2,M
P68,2025-05-03 13:53,-116.0056,39.6014,1993.00,47.00,26.00,43.61,200.00,4.00,0.00,29.98,1009.30,M,M,M,M,M,M,M,M,M,M,M,M,M,M,M,M,M,44.94,KP68 031353Z AUTO 20004KT 08/M03 A2998 RMK AO1 SLP093 T00831033 $,M
DRA,2025-05-03 13:53,-116.0278,36.6206,1009.00,60.00,28.00,29.41,0.00,0.00,0.00,29.87,1007.40,10.00,M,CLR,M,M,M,M,M,M,M,M,M,M,M,M,M,M,60.00,KDRA 031353Z AUTO 00000KT 10SM CLR 16/M02 A2987 RMK AO2 SLP074 T01561022,M
ELY,2025-05-03 13:53,-114.8453,39.2950,1909.00,42.00,18.00,37.64,0.00,0.00,0.00,30.03,1010.20,10.00,M,CLR,M,M,M,M,M,M,M,M,M,M,M,M,M,M,42.00,KELY 031353Z AUTO 00000KT 10SM CLR 06/M08 A3003 RMK AO2 SLP102 T00561078 $,M
VGT,2025-05-03 13:53,-115.1933,36.2111,667.00,69.00,29.00,22.37,330.00,4.00,0.00,29.83,1009.70,10.00,M,CLR,M,M,M,M,M,M,M,M,M,M,M,M,M,M,69.00,KVGT 031353Z 33004KT 10SM CLR 21/M02 A2983 RMK AO2 SLP097 T02061017,M
LOL,2025-05-03 13:53,-118.5701,40.0684,1192.43,52.00,47.00,82.99,100.00,7.00,0.01,29.94,1011.00,10.00,M,FEW,FEW,OVC,M,6000.00,7500.00,10000.00,M,M,M,M,M,M,M,M,52.00,KLOL 031353Z AUTO 10007KT 10SM FEW060 FEW075 OVC100 11/08 A2994 RMK AO2 RAB11E43 SLP110 P0001 T01110083,M
BVU,2025-05-03 13:55,-114.8611,35.9475,671.00,73.40,30.20,20.23,110.00,5.00,0.00,29.83,M,10.00,M,CLR,M,M,M,M,M,M,M,M,M,M,M,M,M,M,73.40,KBVU 031355Z AUTO 11005KT 10SM CLR 23/M01 A2983 RMK AO2,M
RNO,2025-05-03 13:55,-119.7711,39.4839,1341.00,55.00,35.00,46.73,0.00,0.00,0.00,29.95,1010.30,10.00,M,SCT,BKN,BKN,M,7500.00,14000.00,24000.00,M,M,M,M,M,M,M,M,55.00,KRNO 031355Z 00000KT 10SM SCT075 BKN140 BKN240 13/02 A2995 RMK AO2 SLP103 T01280017 $,M
BAM,2025-05-03 13:55,-116.8743,40.5990,1382.36,53.60,39.20,58.02,0.00,0.00,0.00,29.93,M,10.00,M,SCT,M,M,M,11000.00,M,M,M,M,M,M,M,M,M,M,53.60,KBAM 031355Z AUTO 00000KT 10SM SCT110 12/04 A2993 RMK AO1,M
CXP,2025-05-03 13:55,-119.7326,39.1923,1431.00,51.80,41.00,66.48,0.00,0.00,0.00,29.97,M,10.00,M,BKN,M,M,M,6500.00,M,M,M,M,M,M,M,M,M,M,51.80,KCXP 031355Z AUTO 00000KT 10SM BKN065 11/05 A2997 RMK AO2,M
RTS,2025-05-03 13:55,-119.8764,39.6682,1539.00,51.80,33.80,50.08,270.00,10.00,0.00,29.98,M,10.00,M,SCT,SCT,M,M,6000.00,8000.00,M,M,M,M,M,M,M,M,M,51.80,KRTS 031355Z AUTO 27010KT 10SM SCT060 SCT080 11/01 A2998 RMK AO2,M
MEV,2025-05-03 13:55,-119.7500,38.9963,1441.42,48.20,42.80,81.47,80.00,4.00,0.00,29.95,M,10.00,M,CLR,M,M,M,M,M,M,M,M,M,M,M,M,M,M,46.34,KMEV 031355Z AUTO 08004KT 10SM CLR 09/06 A2995 RMK AO2,M
HTH,2025-05-03 13:55,-118.6315,38.5448,1282.89,59.00,44.60,58.77,330.00,7.00,0.00,29.94,M,9.00,M,FEW,FEW,BKN,M,6000.00,7500.00,10000.00,M,M,M,M,M,M,M,M,59.00,KHTH 031355Z AUTO 33007KT 9SM FEW060 FEW075 BKN100 15/07 A2994 RMK A01,M
TMT,2025-05-03 13:55,-117.1971,39.4643,1749.34,44.60,29.50,55.15,150.00,3.00,0.00,30.01,M,10.00,M,SCT,M,M,M,12000.00,M,M,M,M,M,M,M,M,M,M,43.09,KTMT 031355Z AUTO 15003KT 10SM SCT120 07/M01 A3001 RMK AO2 T00701014,M
10U,2025-05-03 13:55,-116.1876,41.9532,1637.00,50.00,37.40,61.76,190.00,5.00,0.00,29.98,M,10.00,M,FEW,M,M,M,11000.00,M,M,M,M,M,M,M,M,M,M,50.00,K10U 031355Z AUTO 19005KT 10SM FEW110 10/03 A2998 RMK AO2,M
INS,2025-05-03 13:55,-115.6733,36.5872,955.00,60.00,25.00,25.98,90.00,3.00,0.00,29.87,1007.40,10.00,M,CLR,M,M,M,M,M,M,M,M,M,M,M,M,M,M,60.00,KINS 031355Z AUTO 09003KT 10SM CLR 16/M04 A2987 RMK AO2 SLP074 T01551039 $,M
LSV,2025-05-03 13:55,-115.0343,36.2362,570.00,69.30,27.70,21.00,40.00,5.00,0.00,29.80,1006.80,10.00,M,CLR,M,M,M,M,M,M,M,M,M,M,M,M,M,M,69.30,KLSV 031355Z AUTO 04005KT 10SM CLR 21/M02 A2980 RMK AO2 SLP068 T02071024 $,M
EKO,2025-05-03 13:56,-115.7860,40.8242,1367.00,44.00,34.00,67.66,220.00,3.00,0.00,29.96,1011.30,10.00,M,CLR,M,M,M,M,M,M,M,M,M,M,M,M,M,M,42.41,KEKO 031356Z AUTO 22003KT 10SM CLR 07/01 A2996 RMK AO2 SLP113 T00670011,M
WMC,2025-05-03 13:56,-117.8072,40.9019,1315.00,57.00,39.00,50.88,300.00,4.00,0.00,29.96,1010.50,10.00,M,BKN,M,M,M,10000.00,M,M,M,M,M,M,M,M,M,M,57.00,KWMC 031356Z AUTO 30004KT 10SM BKN100 14/04 A2996 RMK AO2 SLP105 T01390039,M
HND,2025-05-03 13:56,-115.1344,35.9729,742.79,71.00,38.00,29.96,210.00,9.00,0.00,29.87,1010.50,10.00,M,CLR,M,M,M,M,M,M,M,M,M,M,M,M,M,M,71.00,KHND 031356Z 21009KT 10SM CLR 22/03 A2987 RMK AO2 SLP105 T02170033 $,M
TPH,2025-05-03 13:56,-117.0904,38.0505,1654.00,52.00,29.00,40.95,340.00,7.00,0.00,29.96,1009.20,10.00,M,CLR,M,M,M,M,M,M,M,M,M,M,M,M,M,M,52.00,KTPH 031356Z AUTO 34007KT 10SM CLR 11/M02 A2996 RMK AO2 SLP092 T01111017,M
LAS,2025-05-03 13:56,-115.1634,36.0719,663.00,71.00,33.00,24.57,220.00,3.00,0.00,29.84,1008.30,10.00,M,FEW,FEW,M,M,12000.00,20000.00,M,M,M,M,M,M,M,M,M,71.00,KLAS 031356Z 22003KT 10SM FEW120 FEW200 22/01 A2984 RMK AO2 SLP083 T02170006,M
NFL,2025-05-03 13:57,-118.7010,39.4166,1199.00,56.00,48.00,74.45,40.00,4.00,T,29.93,1010.80,10.00,M,FEW,SCT,BKN,M,7500.00,9000.00,12000.00,M,M,M,M,M,M,M,M,56.00,KNFL 031357Z AUTO 04004KT 10SM FEW075 SCT090 BKN120 13/09 A2993 RMK AO2 RAB15E25 SLP108 P0000 T01330089,M
BVU,2025-05-03 14:15,-114.8611,35.9475,671.00,73.40,28.40,18.80,120.00,4.00,0.00,29.83,M,10.00,M,CLR,M,M,M,M,M,M,M,M,M,M,M,M,M,M,73.40,KBVU 031415Z AUTO 12004KT 10SM CLR 23/M02 A2983 RMK AO2,M
BAM,2025-05-03 14:15,-116.8743,40.5990,1382.36,55.40,41.00,58.27,180.00,4.00,0.00,29.95,M,10.00,M,SCT,M,M,M,12000.00,M,M,M,M,M,M,M,M,M,M,55.40,KBAM 031415Z AUTO 18004KT 10SM SCT120 13/05 A2995 RMK AO1,M
CXP,2025-05-03 14:15,-119.7326,39.1923,1431.00,53.60,41.00,62.23,0.00,0.00,0.00,29.97,M,10.00,M,BKN,M,M,M,6500.00,M,M,M,M,M,M,M,M,M,M,53.60,KCXP 031415Z AUTO 00000KT 10SM BKN065 12/05 A2997 RMK AO2,M
RTS,2025-05-03 14:15,-119.8764,39.6682,1539.00,53.60,33.80,46.88,270.00,9.00,0.00,29.98,M,10.00,M,FEW,BKN,M,M,6000.00,8000.00,M,M,M,M,M,M,M,M,M,53.60,KRTS 031415Z AUTO 27009KT 10SM FEW060 BKN080 12/01 A2998 RMK AO2,M
MEV,2025-05-03 14:15,-119.7500,38.9963,1441.42,50.00,42.80,76.18,50.00,3.00,0.00,29.96,M,10.00,M,CLR,M,M,M,M,M,M,M,M,M,M,M,M,M,M,50.00,KMEV 031415Z AUTO 05003KT 10SM CLR 10/06 A2996 RMK AO2,M
HTH,2025-05-03 14:15,-118.6315,38.5448,1282.89,59.00,44.60,58.77,320.00,8.00,0.00,29.94,M,10.00,M,SCT,M,M,M,10000.00,M,M,M,M,M,M,M,M,M,M,59.00,KHTH 031415Z AUTO 32008KT 10SM SCT100 15/07 A2994 RMK A01,M
TMT,2025-05-03 14:15,-117.1971,39.4643,1749.34,49.00,30.40,48.46,120.00,5.00,0.00,30.00,M,10.00,M,CLR,M,M,M,M,M,M,M,M,M,M,M,M,M,M,46.58,KTMT 031415Z AUTO 12005KT 10SM CLR 10/M01 A3000 RMK AO2 T00951009,M
10U,2025-05-03 14:15,-116.1876,41.9532,1637.00,53.60,35.60,50.36,0.00,0.00,0.00,29.99,M,10.00,M,CLR,M,M,M,M,M,M,M,M,M,M,M,M,M,M,53.60,K10U 031415Z AUTO 00000KT 10SM CLR 12/02 A2999 RMK AO2,M
RTS,2025-05-03 14:25,-119.8764,39.6682,1539.00,53.60,33.80,46.88,270.00,9.00,0.00,29.98,M,10.00,M,SCT,BKN,M,M,7000.00,8500.00,M,M,M,M,M,M,M,M,M,53.60,KRTS 031425Z AUTO 27009KT 10SM SCT070 BKN085 12/01 A2998 RMK AO2,M
MEV,2025-05-03 14:25,-119.7500,38.9963,1441.42,51.80,42.80,71.26,0.00,0.00,0.00,29.95,M,10.00,M,CLR,M,M,M,M,M,M,M,M,M,M,M,M,M,M,51.80,KMEV 031425Z AUTO 00000KT 10SM CLR 11/06 A2995 RMK AO2,M
BVU,2025-05-03 14:35,-114.8611,35.9475,671.00,73.40,28.40,18.80,0.00,0.00,0.00,29.84,M,10.00,M,CLR,M,M,M,M,M,M,M,M,M,M,M,M,M,M,73.40,KBVU 031435Z AUTO 00000KT 10SM CLR 23/M02 A2984 RMK AO2,M
CXP,2025-05-03 14:35,-119.7326,39.1923,1431.00,53.60,41.00,62.23,0.00,0.00,0.00,29.98,M,10.00,M,FEW,M,M,M,6500.00,M,M,M,M,M,M,M,M,M,M,53.60,KCXP 031435Z AUTO 00000KT 10SM FEW065 12/05 A2998 RMK AO2,M
BAM,2025-05-03 14:35,-116.8743,40.5990,1382.36,59.00,41.00,51.18,240.00,3.00,0.00,29.96,M,10.00,M,SCT,M,M,M,12000.00,M,M,M,M,M,M,M,M,M,M,59.00,KBAM 031435Z AUTO 24003KT 10SM SCT120 15/05 A2996 RMK AO1,M
HTH,2025-05-03 14:35,-118.6315,38.5448,1282.89,59.00,42.80,54.86,330.00,8.00,0.00,29.94,M,10.00,M,SCT,M,M,M,10000.00,M,M,M,M,M,M,M,M,M,M,59.00,KHTH 031435Z AUTO 33008KT 10SM SCT100 15/06 A2994 RMK A01,M
TMT,2025-05-03 14:35,-117.1971,39.4643,1749.34,53.00,31.00,42.81,140.00,4.00,0.00,30.00,M,10.00,M,CLR,M,M,M,M,M,M,M,M,M,M,M,M,M,M,53.00,KTMT 031435Z AUTO 14004KT 10SM CLR 12/00 A3000 RMK AO2 T01171005,M
10U,2025-05-03 14:35,-116.1876,41.9532,1637.00,55.40,35.60,47.16,90.00,4.00,0.00,29.98,M,10.00,M,FEW,M,M,M,11000.00,M,M,M,M,M,M,M,M,M,M,55.40,K10U 031435Z AUTO 09004KT 10SM FEW110 13/02 A2998 RMK AO2,M
P68,2025-05-03 14:53,-116.0056,39.6014,1993.00,58.00,27.00,30.32,0.00,0.00,0.00,29.98,1008.30,M,M,M,M,M,M,M,M,M,M,M,M,M,M,M,M,M,58.00,KP68 031453Z AUTO 00000KT 14/M03 A2998 RMK AO1 SLP083 T01441028 50002 $,M
DRA,2025-05-03 14:53,-116.0278,36.6206,1009.00,69.00,31.00,24.27,0.00,0.00,0.00,29.87,1007.30,10.00,M,CLR,M,M,M,M,M,M,M,M,M,M,M,M,M,M,69.00,KDRA 031453Z AUTO 00000KT 10SM CLR 21/M01 A2987 RMK AO2 SLP073 T02061006 53005,M
ELY,2025-05-03 14:53,-114.8453,39.2950,1909.00,51.00,19.00,27.96,160.00,8.00,0.00,30.03,1009.80,10.00,M,BKN,M,M,M,12000.00,M,M,M,M,M,M,M,M,M,M,51.00,KELY 031453Z AUTO 16008KT 10SM BKN120 11/M07 A3003 RMK AO2 SLP098 T01061072 50000 $,M
VGT,2025-05-03 14:53,-115.1933,36.2111,667.00,72.00,32.00,22.82,60.00,3.00,0.00,29.84,1010.00,10.00,M,CLR,M,M,M,M,M,M,M,M,M,M,M,M,M,M,72.00,KVGT 031453Z 06003KT 10SM CLR 22/00 A2984 RMK AO2 SLP100 T02220000 53009,M
LOL,2025-05-03 14:53,-118.5701,40.0684,1192.43,54.00,47.00,77.12,20.00,5.00,T,29.94,1011.20,10.00,M,SCT,OVC,M,M,6000.00,10000.00,M,M,-RA,M,M,M,M,M,M,54.00,KLOL 031453Z AUTO 02005KT 10SM -RA SCT060 OVC100 12/08 A2994 RMK AO2 RAB01 SLP112 P0000 60003 T01220083 50002,M
BVU,2025-05-03 14:55,-114.8611,35.9475,671.00,73.40,28.40,18.80,0.00,0.00,0.00,29.84,M,10.00,M,CLR,M,M,M,M,M,M,M,M,M,M,M,M,M,M,73.40,KBVU 031455Z AUTO 00000KT 10SM CLR 23/M02 A2984 RMK AO2,M
RNO,2025-05-03 14:55,-119.7711,39.4839,1341.00,57.00,34.00,41.76,0.00,0.00,0.00,29.96,1010.50,10.00,M,SCT,BKN,BKN,M,8000.00,14000.00,22000.00,M,M,M,M,M,M,M,M,57.00,KRNO 031455Z 00000KT 10SM SCT080 BKN140 BKN220 14/01 A2996 RMK AO2 SLP105 T01390011 53004 $,M
BAM,2025-05-03 14:55,-116.8743,40.5990,1382.36,59.00,41.00,51.18,340.00,4.00,0.00,29.96,M,10.00,M,CLR,M,M,M,M,M,M,M,M,M,M,M,M,M,M,59.00,KBAM 031455Z AUTO 34004KT 10SM CLR 15/05 A2996 RMK AO1,M
CXP,2025-05-03 14:55,-119.7326,39.1923,1431.00,53.60,41.00,62.23,0.00,0.00,0.00,29.97,M,10.00,M,SCT,M,M,M,7000.00,M,M,M,M,M,M,M,M,M,M,53.60,KCXP 031455Z AUTO 00000KT 10SM SCT070 12/05 A2997 RMK AO2,M
RTS,2025-05-03 14:55,-119.8764,39.6682,1539.00,53.60,32.00,43.61,270.00,12.00,0.00,29.98,M,10.00,M,FEW,M,M,M,8000.00,M,M,M,M,M,M,M,M,M,M,53.60,KRTS 031455Z AUTO 27012KT 10SM FEW080 12/00 A2998 RMK AO2,M
MEV,2025-05-03 14:55,-119.7500,38.9963,1441.42,51.80,42.80,71.26,0.00,0.00,0.00,29.96,M,10.00,M,CLR,M,M,M,M,M,M,M,M,M,M,M,M,M,M,51.80,KMEV 031455Z AUTO 00000KT 10SM CLR 11/06 A2996 RMK AO2,M
HTH,2025-05-03 14:55,-118.6315,38.5448,1282.89,60.80,44.60,55.12,330.00,8.00,0.00,29.94,M,10.00,M,FEW,M,M,M,10000.00,M,M,M,M,M,M,M,M,M,M,60.80,KHTH 031455Z AUTO 33008KT 10SM FEW100 16/07 A2994 RMK A01,M
TMT,2025-05-03 14:55,-117.1971,39.4643,1749.34,55.40,32.00,40.84,0.00,0.00,0.00,29.99,M,10.00,M,CLR,M,M,M,M,M,M,M,M,M,M,M,M,M,M,55.40,KTMT 031455Z AUTO 00000KT 10SM CLR 13/00 A2999 RMK AO2 T01300000,M
10U,2025-05-03 14:55,-116.1876,41.9532,1637.00,53.60,37.40,54.07,20.00,3.00,0.00,29.97,M,10.00,M,FEW,M,M,M,11000.00,M,M,M,M,M,M,M,M,M,M,53.60,K10U 031455Z AUTO 02003KT 10SM FEW110 12/03 A2997 RMK AO2,M
INS,2025-05-03 14:55,-115.6733,36.5872,955.00,68.00,25.50,20.05,0.00,0.00,0.00,29.88,1007.20,10.00,M,CLR,M,M,M,M,M,M,M,M,M,M,M,M,M,M,68.00,KINS 031455Z AUTO 00000KT 10SM CLR 20/M04 A2988 RMK AO2 SLP072 T02011036 52006 $,M
LSV,2025-05-03 14:55,-115.0343,36.2362,570.00,75.20,28.80,17.99,60.00,4.00,0.00,29.80,1006.60,10.00,M,FEW,M,M,M,14000.00,M,M,M,M,M,M,M,M,M,M,75.20,KLSV 031455Z 06004KT 10SM FEW140 24/M02 A2980 RMK AO2A SLP066 T02401018 52012 $,M
EKO,2025-05-03 14:56,-115.7860,40.8242,1367.00,50.00,31.00,47.83,0.00,0.00,0.00,29.96,1011.10,10.00,M,CLR,M,M,M,M,M,M,M,M,M,M,M,M,M,M,50.00,KEKO 031456Z AUTO 00000KT 10SM CLR 10/M01 A2996 RMK AO2 SLP111 T01001006 50007,M
WMC,2025-05-03 14:56,-117.8072,40.9019,1315.00,57.00,43.00,59.40,0.00,0.00,0.00,29.97,1011.40,10.00,M,OVC,M,M,M,7000.00,M,M,M,M,M,M,M,M,M,M,57.00,KWMC 031456Z AUTO 00000KT 10SM OVC070 14/06 A2997 RMK AO2 SLP114 T01390061 53012,M
HND,2025-05-03 14:56,-115.1344,35.9729,742.79,75.00,41.00,29.43,220.00,8.00,0.00,29.87,1010.50,10.00,M,CLR,M,M,M,M,M,M,M,M,M,M,M,M,M,M,75.00,KHND 031456Z 22008KT 10SM CLR 24/05 A2987 RMK AO2 SLP105 T02390050 51007 $,M
TPH,2025-05-03 14:56,-117.0904,38.0505,1654.00,56.00,28.00,33.96,320.00,3.00,0.00,29.97,1009.40,10.00,M,FEW,M,M,M,11000.00,M,M,M,M,M,M,M,M,M,M,56.00,KTPH 031456Z AUTO 32003KT 10SM FEW110 13/M02 A2997 RMK AO2 SLP094 T01331022 53001 $,M
LAS,2025-05-03 14:56,-115.1634,36.0719,663.00,74.00,32.00,21.33,0.00,0.00,0.00,29.85,1008.60,10.00,M,FEW,FEW,SCT,SCT,12000.00,16000.00,20000.00,25000.00,M,M,M,M,M,M,M,74.00,KLAS 031456Z 00000KT 10SM FEW120 FEW160 SCT200 SCT250 23/00 A2985 RMK AO2 SLP086 T02330000 52009,M
NFL,2025-05-03 14:57,-118.7010,39.4166,1199.00,59.00,49.00,69.38,360.00,4.00,0.00,29.93,1010.70,10.00,M,SCT,M,M,M,12000.00,M,M,M,M,M,M,M,M,M,M,59.00,KNFL 031457Z AUTO 36004KT 10SM SCT120 15/09 A2993 RMK AO2 SLP107 60000 T01500094 50006,M
MEV,2025-05-03 15:05,-119.7500,38.9963,1441.42,53.60,42.80,66.70,80.00,4.00,0.00,29.95,M,10.00,M,CLR,M,M,M,M,M,M,M,M,M,M,M,M,M,M,53.60,KMEV 031505Z AUTO 08004KT 10SM CLR 12/06 A2995 RMK AO2,M
BVU,2025-05-03 15:15,-114.8611,35.9475,671.00,71.60,26.60,18.55,0.00,0.00,0.00,29.84,M,10.00,M,CLR,M,M,M,M,M,M,M,M,M,M,M,M,M,M,71.60,KBVU 031515Z AUTO 00000KT 10SM CLR 22/M03 A2984 RMK AO2,M
BAM,2025-05-03 15:15,-116.8743,40.5990,1382.36,62.60,41.00,45.04,340.00,10.00,0.00,29.96,M,10.00,M,CLR,M,M,M,M,M,M,M,M,M,M,M,M,M,M,62.60,KBAM 031515Z AUTO 34010KT 10SM CLR 17/05 A2996 RMK AO1,M
CXP,2025-05-03 15:15,-119.7326,39.1923,1431.00,53.60,41.00,62.23,0.00,0.00,0.00,29.97,M,10.00,M,SCT,M,M,M,7000.00,M,M,M,M,M,M,M,M,M,M,53.60,KCXP 031515Z AUTO 00000KT 10SM SCT070 12/05 A2997 RMK AO2,M
RTS,2025-05-03 15:15,-119.8764,39.6682,1539.00,53.60,32.00,43.61,260.00,11.00,0.00,29.98,M,10.00,M,SCT,M,M,M,8000.00,M,M,M,M,M,M,M,M,M,M,53.60,KRTS 031515Z AUTO 26011KT 10SM SCT080 12/M00 A2998 RMK AO2,M
HTH,2025-05-03 15:15,-118.6315,38.5448,1282.89,62.60,41.00,45.04,330.00,9.00,0.00,29.94,M,10.00,M,BKN,M,M,M,9500.00,M,M,M,M,M,M,M,M,M,M,62.60,KHTH 031515Z AUTO 33009KT 10SM BKN095 17/05 A2994 RMK A01,M
TMT,2025-05-03 15:15,-117.1971,39.4643,1749.34,57.20,32.00,38.26,0.00,0.00,0.00,29.99,M,10.00,M,SCT,SCT,BKN,M,5000.00,7000.00,9000.00,M,M,M,M,M,M,M,M,57.20,KTMT 031515Z AUTO 00000KT 10SM SCT050 SCT070 BKN090 14/00 A2999 RMK AO2 T01400000,M
10U,2025-05-03 15:15,-116.1876,41.9532,1637.00,55.40,35.60,47.16,M,4.00,0.00,29.98,M,10.00,M,CLR,M,M,M,M,M,M,M,M,M,M,M,M,M,M,55.40,K10U 031515Z AUTO VRB04KT 10SM CLR 13/02 A2998 RMK AO2,M
CXP,2025-05-03 15:30,-119.7326,39.1923,1431.00,55.40,39.20,54.34,0.00,0.00,0.00,29.97,M,10.00,M,CLR,M,M,M,M,M,M,M,M,M,M,M,M,M,M,55.40,KCXP 031530Z AUTO 00000KT 10SM CLR 13/04 A2997 RMK AO2,M
10U,2025-05-03 15:30,-116.1876,41.9532,1637.00,57.20,37.40,47.44,10.00,4.00,0.00,29.99,M,10.00,M,CLR,M,M,M,M,M,M,M,M,M,M,M,M,M,M,57.20,K10U 031530Z AUTO 01004KT 10SM CLR 14/03 A2999 RMK AO2,M
BVU,2025-05-03 15:35,-114.8611,35.9475,671.00,75.20,28.40,17.70,70.00,4.00,0.00,29.84,M,10.00,M,CLR,M,M,M,M,M,M,M,M,M,M,M,M,M,M,75.20,KBVU 031535Z AUTO 07004KT 10SM CLR 24/M02 A2984 RMK AO2,M
BAM,2025-05-03 15:35,-116.8743,40.5990,1382.36,62.60,41.00,45.04,340.00,9.00,0.00,29.96,M,10.00,M,CLR,M,M,M,M,M,M,M,M,M,M,M,M,M,M,62.60,KBAM 031535Z AUTO 34009KT 10SM CLR 17/05 A2996 RMK AO1,M
RTS,2025-05-03 15:35,-119.8764,39.6682,1539.00,55.40,32.00,40.84,270.00,10.00,0.00,29.98,M,10.00,M,OVC,M,M,M,8000.00,M,M,M,M,M,M,M,M,M,M,55.40,KRTS 031535Z AUTO 27010KT 10SM OVC080 13/M00 A2998 RMK AO2,M
MEV,2025-05-03 15:35,-119.7500,38.9963,1441.42,57.20,41.00,54.60,60.00,4.00,0.00,29.95,M,10.00,M,FEW,M,M,M,7500.00,M,M,M,M,M,M,M,M,M,M,57.20,KMEV 031535Z AUTO 06004KT 10SM FEW075 14/05 A2995 RMK AO2,M
HTH,2025-05-03 15:35,-118.6315,38.5448,1282.89,64.40,41.00,42.28,350.00,9.00,0.00,29.93,M,10.00,M,SCT,M,M,M,9500.00,M,M,M,M,M,M,M,M,M,M,64.40,KHTH 031535Z AUTO 35009KT 10SM SCT095 18/05 A2993 RMK A01,M
TMT,2025-05-03 15:35,-117.1971,39.4643,1749.34,56.50,33.00,40.85,270.00,6.00,0.00,29.99,M,10.00,M,SCT,SCT,M,M,7500.00,9000.00,M,M,M,M,M,M,M,M,M,56.50,KTMT 031535Z AUTO 27006KT 10SM SCT075 SCT090 14/01 A2999 RMK AO2 T01360006,M
P68,2025-05-03 15:53,-116.0056,39.6014,1993.00,67.00,27.00,22.08,150.00,12.00,0.00,29.96,1007.10,M,22.00,M,M,M,M,M,M,M,M,M,M,M,M,M,M,M,67.00,KP68 031553Z AUTO 15012G22KT 19/M03 A2996 RMK AO1 SLP071 T01941028 $,M
DRA,2025-05-03 15:53,-116.0278,36.6206,1009.00,75.00,31.00,19.81,270.00,5.00,0.00,29.87,1007.00,10.00,M,CLR,M,M,M,M,M,M,M,M,M,M,M,M,M,M,75.00,KDRA 031553Z AUTO 27005KT 10SM CLR 24/M01 A2987 RMK AO2 SLP070 T02391006,M
ELY,2025-05-03 15:53,-114.8453,39.2950,1909.00,64.00,19.00,17.51,220.00,5.00,0.00,30.01,1008.60,10.00,M,CLR,M,M,M,M,M,M,M,M,M,M,M,M,M,M,64.00,KELY 031553Z AUTO 22005KT 10SM CLR 18/M07 A3001 RMK AO2 SLP086 T01781072 $,M
VGT,2025-05-03 15:53,-115.1933,36.2111,667.00,76.00,33.00,20.77,130.00,3.00,0.00,29.84,1009.90,10.00,M,CLR,M,M,M,M,M,M,M,M,M,M,M,M,M,M,76.00,KVGT 031553Z 13003KT 10SM CLR 24/01 A2984 RMK AO2 SLP099 T02440006,M
LOL,2025-05-03 15:53,-118.5701,40.0684,1192.43,56.00,47.00,71.70,20.00,7.00,T,29.94,1011.30,10.00,M,SCT,BKN,M,M,8500.00,12000.00,M,M,M,M,M,M,M,M,M,56.00,KLOL 031553Z AUTO 02007KT 10SM SCT085 BKN120 13/08 A2994 RMK AO2 RAE1454 SLP113 P0000 T01330083,M
BVU,2025-05-03 15:55,-114.8611,35.9475,671.00,75.20,30.20,19.05,0.00,0.00,0.00,29.84,M,10.00,M,CLR,M,M,M,M,M,M,M,M,M,M,M,M,M,M,75.20,KBVU 031555Z AUTO 00000KT 10SM CLR 24/M01 A2984 RMK AO2,M
RNO,2025-05-03 15:55,-119.7711,39.4839,1341.00,58.00,35.00,41.92,M,3.00,0.00,29.95,1010.30,10.00,M,BKN,BKN,BKN,M,8000.00,14000.00,22000.00,M,M,M,M,M,M,M,M,58.00,KRNO 031555Z VRB03KT 10SM BKN080 BKN140 BKN220 14/02 A2995 RMK AO2 SLP103 T01440017 $,M
BAM,2025-05-03 15:55,-116.8743,40.5990,1382.36,64.40,41.00,42.28,340.00,11.00,0.00,29.96,M,10.00,M,CLR,M,M,M,M,M,M,M,M,M,M,M,M,M,M,64.40,KBAM 031555Z AUTO 34011KT 10SM CLR 18/05 A2996 RMK AO1,M
CXP,2025-05-03 15:55,-119.7326,39.1923,1431.00,57.20,41.00,54.60,100.00,4.00,0.00,29.97,M,10.00,M,CLR,M,M,M,M,M,M,M,M,M,M,M,M,M,M,57.20,KCXP 031555Z AUTO 10004KT 10SM CLR 14/05 A2997 RMK AO2,M
RTS,2025-05-03 15:55,-119.8764,39.6682,1539.00,55.40,32.00,40.84,270.00,10.00,0.00,29.98,M,10.00,M,BKN,BKN,M,M,8000.00,11000.00,M,M,M,M,M,M,M,M,M,55.40,KRTS 031555Z AUTO 27010KT 10SM BKN080 BKN110 13/M00 A2998 RMK AO2,M
MEV,2025-05-03 15:55,-119.7500,38.9963,1441.42,59.00,41.00,51.18,M,3.00,0.00,29.95,M,10.00,M,FEW,SCT,SCT,M,7000.00,9000.00,12000.00,M,M,M,M,M,M,M,M,59.00,KMEV 031555Z AUTO VRB03KT 10SM FEW070 SCT090 SCT120 15/05 A2995 RMK AO2,M
HTH,2025-05-03 15:55,-118.6315,38.5448,1282.89,64.40,39.20,39.43,340.00,9.00,0.00,29.93,M,10.00,M,CLR,M,M,M,M,M,M,M,M,M,M,M,M,M,M,64.40,KHTH 031555Z AUTO 34009KT 10SM CLR 18/04 A2993 RMK A01,M
TMT,2025-05-03 15:55,-117.1971,39.4643,1749.34,57.70,33.00,39.12,260.00,8.00,0.00,29.99,M,10.00,M,SCT,M,M,M,10000.00,M,M,M,M,M,M,M,M,M,M,57.70,KTMT 031555Z AUTO 26008KT 10SM SCT100 14/01 A2999 RMK AO2 T01430005,M
10U,2025-05-03 15:55,-116.1876,41.9532,1637.00,57.20,37.40,47.44,0.00,0.00,0.00,29.98,M,10.00,M,CLR,M,M,M,M,M,M,M,M,M,M,M,M,M,M,57.20,K10U 031555Z AUTO 00000KT 10SM CLR 14/03 A2998 RMK AO2,M
INS,2025-05-03 15:55,-115.6733,36.5872,955.00,71.00,25.00,17.72,360.00,3.00,0.00,29.87,1006.90,10.00,M,OVC,M,M,M,13000.00,M,M,M,M,M,M,M,M,M,M,71.00,KINS 031555Z AUTO 36003KT 10SM OVC130 22/M04 A2987 RMK AO2 SLP069 T02161038 $,M
LSV,2025-05-03 15:55,-115.0343,36.2362,570.00,80.60,27.00,13.98,80.00,6.00,0.00,29.79,1006.20,10.00,M,FEW,M,M,M,12000.00,M,M,M,M,M,M,M,M,M,M,78.69,KLSV 031555Z 08006KT 10SM FEW120 27/M03 A2979 RMK AO2A SLP062 T02701028 $,M
EKO,2025-05-03 15:56,-115.7860,40.8242,1367.00,59.00,31.00,34.45,0.00,0.00,0.00,29.94,1010.30,10.00,M,FEW,M,M,M,11000.00,M,M,M,M,M,M,M,M,M,M,59.00,KEKO 031556Z AUTO 00000KT 10SM FEW110 15/M01 A2994 RMK AO2 SLP103 T01501006,M
WMC,2025-05-03 15:56,-117.8072,40.9019,1315.00,63.00,41.00,44.41,270.00,10.00,0.00,29.96,1011.60,10.00,20.00,FEW,BKN,BKN,M,4600.00,6000.00,11000.00,M,M,M,M,M,M,M,M,63.00,KWMC 031556Z AUTO 27010G20KT 10SM FEW046 BKN060 BKN110 17/05 A2996 RMK AO2 SLP116 T01720050,M
HND,2025-05-03 15:56,-115.1344,35.9729,742.79,79.00,41.00,25.78,260.00,4.00,0.00,29.87,1010.40,10.00,M,CLR,M,M,M,M,M,M,M,M,M,M,M,M,M,M,79.00,KHND 031556Z 26004KT 10SM CLR 26/05 A2987 RMK AO2 SLP104 T02610050 $,M
TPH,2025-05-03 15:56,-117.0904,38.0505,1654.00,61.00,28.00,28.38,150.00,5.00,0.00,29.96,1009.30,10.00,M,CLR,M,M,M,M,M,M,M,M,M,M,M,M,M,M,61.00,KTPH 031556Z AUTO 15005KT 10SM CLR 16/M02 A2996 RMK AO2 SLP093 T01611022 $,M
LAS,2025-05-03 15:56,-115.1634,36.0719,663.00,77.00,32.00,19.30,0.00,0.00,0.00,29.85,1008.30,10.00,M,FEW,FEW,SCT,SCT,12000.00,16000.00,20000.00,25000.00,M,M,M,M,M,M,M,77.00,KLAS 031556Z 00000KT 10SM FEW120 FEW160 SCT200 SCT250 25/00 A2985 RMK AO2 SLP083 T02500000,M
NFL,2025-05-03 15:57,-118.7010,39.4166,1199.00,61.00,47.00,59.94,350.00,6.00,0.00,29.92,1010.40,10.00,M,SCT,M,M,M,12000.00,M,M,M,M,M,M,M,M,M,M,61.00,KNFL 031557Z AUTO 35006KT 10SM SCT120 16/08 A2992 RMK AO2 SLP104 T01610083,M
BVU,2025-05-03 16:15,-114.8611,35.9475,671.00,77.00,30.20,17.94,0.00,0.00,0.00,29.83,M,10.00,M,CLR,M,M,M,M,M,M,M,M,M,M,M,M,M,M,77.00,KBVU 031615Z AUTO 00000KT 10SM CLR 25/M01 A2983 RMK AO2,M
BAM,2025-05-03 16:15,-116.8743,40.5990,1382.36,64.40,41.00,42.28,350.00,10.00,0.00,29.95,M,10.00,M,CLR,M,M,M,M,M,M,M,M,M,M,M,M,M,M,64.40,KBAM 031615Z AUTO 35010KT 10SM CLR 18/05 A2995 RMK AO1,M
CXP,2025-05-03 16:15,-119.7326,39.1923,1431.00,59.00,39.20,47.72,120.00,3.00,0.00,29.97,M,10.00,M,FEW,SCT,M,M,7000.00,11000.00,M,M,M,M,M,M,M,M,M,59.00,KCXP 031615Z AUTO 12003KT 10SM FEW070 SCT110 15/04 A2997 RMK AO2,M
RTS,2025-05-03 16:15,-119.8764,39.6682,1539.00,57.20,32.00,38.26,230.00,6.00,0.00,29.98,M,10.00,M,SCT,SCT,M,M,8500.00,11000.00,M,M,M,M,M,M,M,M,M,57.20,KRTS 031615Z AUTO 23006KT 10SM SCT085 SCT110 14/00 A2998 RMK AO2,M
MEV,2025-05-03 16:15,-119.7500,38.9963,1441.42,59.00,37.40,44.47,70.00,3.00,0.00,29.95,M,10.00,M,FEW,SCT,BKN,M,7500.00,9000.00,11000.00,M,M,M,M,M,M,M,M,59.00,KMEV 031615Z AUTO 07003KT 10SM FEW075 SCT090 BKN110 15/03 A2995 RMK AO2,M
HTH,2025-05-03 16:15,-118.6315,38.5448,1282.89,64.40,41.00,42.28,340.00,8.00,0.00,29.93,M,10.00,M,FEW,FEW,M,M,9000.00,11000.00,M,M,M,M,M,M,M,M,M,64.40,KHTH 031615Z AUTO 34008KT 10SM FEW090 FEW110 18/05 A2993 RMK A01,M
TMT,2025-05-03 16:15,-117.1971,39.4643,1749.34,57.70,33.80,40.40,330.00,4.00,0.00,29.99,M,10.00,M,SCT,M,M,M,10000.00,M,M,M,M,M,M,M,M,M,M,57.70,KTMT 031615Z AUTO 33004KT 10SM SCT100 14/01 A2999 RMK AO2 T01430010,M
10U,2025-05-03 16:15,-116.1876,41.9532,1637.00,59.00,39.20,47.72,10.00,6.00,0.00,29.97,M,10.00,M,CLR,M,M,M,M,M,M,M,M,M,M,M,M,M,M,59.00,K10U 031615Z AUTO 01006KT 10SM CLR 15/04 A2997 RMK AO2,M
BVU,2025-05-03 16:35,-114.8611,35.9475,671.00,80.60,30.20,15.94,140.00,7.00,0.00,29.83,M,10.00,M,CLR,M,M,M,M,M,M,M,M,M,M,M,M,M,M,78.77,KBVU 031635Z AUTO 14007KT 10SM CLR 27/M01 A2983 RMK AO2,M
BAM,2025-05-03 16:35,-116.8743,40.5990,1382.36,66.20,39.20,37.03,330.00,10.00,0.00,29.95,M,10.00,M,CLR,M,M,M,M,M,M,M,M,M,M,M,M,M,M,66.20,KBAM 031635Z AUTO 33010KT 10SM CLR 19/04 A2995 RMK AO1,M
CXP,2025-05-03 16:35,-119.7326,39.1923,1431.00,59.00,37.40,44.47,90.00,3.00,0.00,29.96,M,10.00,M,SCT,M,M,M,11000.00,M,M,M,M,M,M,M,M,M,M,59.00,KCXP 031635Z AUTO 09003KT 10SM SCT110 15/03 A2996 RMK AO2,M
RTS,2025-05-03 16:35,-119.8764,39.6682,1539.00,59.00,32.00,35.87,M,6.00,0.00,29.97,M,10.00,11.00,CLR,M,M,M,M,M,M,M,M,M,M,M,M,M,M,59.00,KRTS 031635Z AUTO VRB06G11KT 10SM CLR 15/00 A2997 RMK AO2,M
MEV,2025-05-03 16:35,-119.7500,38.9963,1441.42,60.80,39.20,44.76,180.00,5.00,0.00,29.95,M,10.00,M,BKN,BKN,M,M,7000.00,11000.00,M,M,M,M,M,M,M,M,M,60.80,KMEV 031635Z AUTO 18005KT 10SM BKN070 BKN110 16/04 A2995 RMK AO2,M
HTH,2025-05-03 16:35,-118.6315,38.5448,1282.89,64.40,41.00,42.28,320.00,10.00,0.00,29.92,M,10.00,M,FEW,FEW,M,M,9000.00,11000.00,M,M,M,M,M,M,M,M,M,64.40,KHTH 031635Z AUTO 32010KT 10SM FEW090 FEW110 18/05 A2992 RMK A01,M
TMT,2025-05-03 16:35,-117.1971,39.4643,1749.34,59.00,33.60,38.25,330.00,5.00,0.00,29.97,M,10.00,M,SCT,SCT,M,M,9000.00,11000.00,M,M,M,M,M,M,M,M,M,59.00,KTMT 031635Z AUTO 33005KT 10SM SCT090 SCT110 15/01 A2997 RMK AO2 T01500009,M
10U,2025-05-03 16:35,-116.1876,41.9532,1637.00,60.80,39.20,44.76,340.00,6.00,0.00,29.97,M,10.00,M,CLR,M,M,M,M,M,M,M,M,M,M,M,M,M,M,60.80,K10U 031635Z AUTO 34006KT 10SM CLR 16/04 A2997 RMK AO2,M
MEV,2025-05-03 16:45,-119.7500,38.9963,1441.42,59.00,39.20,47.72,190.00,5.00,0.00,29.95,M,10.00,M,BKN,BKN,OVC,M,6500.00,7500.00,10000.00,M,M,M,M,M,M,M,M,59.00,KMEV 031645Z AUTO 19005KT 10SM BKN065 BKN075 OVC100 15/04 A2995 RMK AO2,M
P68,2025-05-03 16:53,-116.0056,39.6014,1993.00,69.00,27.00,20.61,150.00,13.00,0.00,29.95,1006.70,M,M,M,M,M,M,M,M,M,M,M,M,M,M,M,M,M,69.00,KP68 031653Z AUTO 15013KT 21/M03 A2995 RMK AO1 SLP067 T02061028 $,M
DRA,2025-05-03 16:53,-116.0278,36.6206,1009.00,80.00,33.00,18.20,340.00,3.00,0.00,29.86,1006.50,10.00,M,CLR,M,M,M,M,M,M,M,M,M,M,M,M,M,M,78.56,KDRA 031653Z AUTO 34003KT 10SM CLR 27/01 A2986 RMK AO2 SLP065 T02670006,M
ELY,2025-05-03 16:53,-114.8453,39.2950,1909.00,69.00,21.00,16.03,150.00,9.00,0.00,29.99,1007.60,10.00,19.00,SCT,M,M,M,12000.00,M,M,M,M,M,M,M,M,M,M,69.00,KELY 031653Z AUTO 15009G19KT 10SM SCT120 21/M06 A2999 RMK AO2 SLP076 T02061061 $,M
VGT,2025-05-03 16:53,-115.1933,36.2111,667.00,80.00,37.00,21.34,100.00,4.00,0.00,29.83,1009.50,10.00,M,CLR,M,M,M,M,M,M,M,M,M,M,M,M,M,M,78.70,KVGT 031653Z 10004KT 10SM CLR 27/03 A2983 RMK AO2 SLP095 T02670028,M
LOL,2025-05-03 16:53,-118.5701,40.0684,1192.43,60.00,47.00,62.11,10.00,6.00,T,29.92,1010.60,10.00,M,FEW,BKN,OVC,M,4300.00,7000.00,11000.00,M,-RA,M,M,M,M,M,M,60.00,KLOL 031653Z AUTO 01006KT 10SM -RA FEW043 BKN070 OVC110 16/08 A2992 RMK AO2 LTG DSNT E RAB42 SLP106 P0000 T01560083,M
BVU,2025-05-03 16:55,-114.8611,35.9475,671.00,80.60,30.20,15.94,0.00,0.00,0.00,29.82,M,10.00,M,CLR,M,M,M,M,M,M,M,M,M,M,M,M,M,M,78.77,KBVU 031655Z AUTO 00000KT 10SM CLR 27/M01 A2982 RMK AO2,M
CXP,2025-05-03 16:55,-119.7326,39.1923,1431.00,60.80,37.40,41.71,0.00,0.00,0.00,29.96,M,10.00,M,FEW,SCT,BKN,M,6500.00,7000.00,11000.00,M,M,M,M,M,M,M,M,60.80,KCXP 031655Z AUTO 00000KT 10SM FEW065 SCT070 BKN110 16/03 A2996 RMK AO2,M
RNO,2025-05-03 16:55,-119.7711,39.4839,1341.00,62.00,34.00,34.93,330.00,4.00,0.00,29.94,1009.80,10.00,M,BKN,BKN,BKN,M,8500.00,14000.00,23000.00,M,M,M,M,M,M,M,M,62.00,KRNO 031655Z 33004KT 10SM BKN085 BKN140 BKN230 17/01 A2994 RMK AO2 SLP098 T01670011 $,M
RTS,2025-05-03 16:55,-119.8764,39.6682,1539.00,59.00,30.20,33.35,250.00,7.00,0.00,29.97,M,10.00,M,SCT,M,M,M,6500.00,M,M,M,M,M,M,M,M,M,M,59.00,KRTS 031655Z AUTO 25007KT 210V320 10SM SCT065 15/M01 A2997 RMK AO2,M
BAM,2025-05-03 16:55,-116.8743,40.5990,1382.36,68.00,39.20,34.80,330.00,13.00,0.00,29.95,M,10.00,18.00,CLR,M,M,M,M,M,M,M,M,M,M,M,M,M,M,68.00,KBAM 031655Z AUTO 33013G18KT 10SM CLR 20/04 A2995 RMK AO1,M
HTH,2025-05-03 16:55,-118.6315,38.5448,1282.89,64.40,39.20,39.43,330.00,10.00,0.00,29.92,M,10.00,M,BKN,BKN,M,M,9000.00,11000.00,M,M,M,M,M,M,M,M,M,64.40,KHTH 031655Z AUTO 33010KT 10SM BKN090 BKN110 18/04 A2992 RMK A01,M
TMT,2025-05-03 16:55,-117.1971,39.4643,1749.34,59.40,34.50,39.09,360.00,6.00,0.00,29.97,M,10.00,M,SCT,M,M,M,10000.00,M,M,M,M,M,M,M,M,M,M,59.40,KTMT 031655Z AUTO 36006KT 10SM SCT100 15/01 A2997 RMK AO2 T01520014,M
10U,2025-05-03 16:55,-116.1876,41.9532,1637.00,60.80,39.20,44.76,350.00,9.00,0.00,29.97,M,10.00,M,CLR,M,M,M,M,M,M,M,M,M,M,M,M,M,M,60.80,K10U 031655Z AUTO 35009KT 10SM CLR 16/04 A2997 RMK AO2,M
INS,2025-05-03 16:55,-115.6733,36.5872,955.00,76.30,26.80,15.97,70.00,12.00,0.00,29.86,1006.60,10.00,M,BKN,M,M,M,14000.00,M,M,M,M,M,M,M,M,M,M,76.30,KINS 031655Z AUTO 07012KT 10SM BKN140 25/M03 A2986 RMK AO2 SLP066 T02461029 $,M
LSV,2025-05-03 16:55,-115.0343,36.2362,570.00,80.80,27.00,13.89,80.00,3.00,0.00,29.79,1006.30,10.00,M,FEW,M,M,M,15000.00,M,M,M,M,M,M,M,M,M,M,78.82,KLSV 031655Z 08003KT 10SM FEW150 27/M03 A2979 RMK AO2A SLP063 T02711027 $,M
WMC,2025-05-03 16:56,-117.8072,40.9019,1315.00,62.00,40.00,44.25,270.00,9.00,0.00,29.96,1011.60,10.00,19.00,BKN,BKN,M,M,6000.00,8000.00,M,M,M,M,M,M,M,M,M,62.00,KWMC 031656Z AUTO 27009G19KT 10SM BKN060 BKN080 17/04 A2996 RMK AO2 SLP116 T01670044,M
EKO,2025-05-03 16:56,-115.7860,40.8242,1367.00,63.00,35.00,35.10,230.00,4.00,0.00,29.93,1009.90,10.00,M,FEW,M,M,M,12000.00,M,M,M,M,M,M,M,M,M,M,63.00,KEKO 031656Z AUTO 23004KT 10SM FEW120 17/02 A2993 RMK AO2 SLP099 T01720017,M
HND,2025-05-03 16:56,-115.1344,35.9729,742.79,81.00,39.00,22.33,30.00,5.00,0.00,29.86,1010.00,10.00,M,CLR,M,M,M,M,M,M,M,M,M,M,M,M,M,M,79.33,KHND 031656Z 03005KT 10SM CLR 27/04 A2986 RMK AO2 SLP100 T02720039 $,M
TPH,2025-05-03 16:56,-117.0904,38.0505,1654.00,65.00,30.00,26.76,0.00,0.00,0.00,29.95,1008.80,10.00,M,CLR,M,M,M,M,M,M,M,M,M,M,M,M,M,M,65.00,KTPH 031656Z AUTO 00000KT 10SM CLR 18/M01 A2995 RMK AO2 SLP088 T01831011 $,M
LAS,2025-05-03 16:56,-115.1634,36.0719,663.00,80.00,38.00,22.19,M,3.00,0.00,29.84,1008.10,10.00,M,FEW,FEW,SCT,SCT,12000.00,16000.00,20000.00,25000.00,M,M,M,M,M,M,M,78.74,KLAS 031656Z VRB03KT 10SM FEW120 FEW160 SCT200 SCT250 27/03 A2984 RMK AO2 SLP081 T02670033,M
NFL,2025-05-03 16:57,-118.7010,39.4166,1199.00,65.00,47.00,52.07,M,4.00,0.00,29.91,1010.30,10.00,M,SCT,BKN,M,M,8000.00,9500.00,M,M,M,M,M,M,M,M,M,65.00,KNFL 031657Z AUTO VRB04KT 10SM SCT080 BKN095 18/08 A2991 RMK AO2 SLP103 T01830083,M
BVU,2025-05-03 17:15,-114.8611,35.9475,671.00,82.40,30.20,15.03,190.00,6.00,0.00,29.82,M,10.00,M,CLR,M,M,M,M,M,M,M,M,M,M,M,M,M,M,79.97,KBVU 031715Z AUTO 19006KT 10SM CLR 28/M01 A2982 RMK AO2,M
BAM,2025-05-03 17:15,-116.8743,40.5990,1382.36,68.00,39.20,34.80,320.00,12.00,0.00,29.95,M,10.00,17.00,CLR,M,M,M,M,M,M,M,M,M,M,M,M,M,M,68.00,KBAM 031715Z AUTO 32012G17KT 10SM CLR 20/04 A2995 RMK AO1,M
CXP,2025-05-03 17:15,-119.7326,39.1923,1431.00,62.60,37.40,39.14,0.00,0.00,0.00,29.96,M,10.00,M,SCT,SCT,BKN,M,6000.00,7000.00,8000.00,M,M,M,M,M,M,M,M,62.60,KCXP 031715Z AUTO 00000KT 10SM SCT060 SCT070 BKN080 17/03 A2996 RMK AO2,M
RTS,2025-05-03 17:15,-119.8764,39.6682,1539.00,60.80,30.20,31.28,220.00,15.00,0.00,29.96,M,10.00,M,FEW,M,M,M,6500.00,M,M,M,M,M,M,M,M,M,M,60.80,KRTS 031715Z AUTO 22015KT 10SM FEW065 16/M01 A2996 RMK AO2,M
MEV,2025-05-03 17:15,-119.7500,38.9963,1441.42,59.00,39.20,47.72,190.00,14.00,0.00,29.96,M,10.00,M,FEW,SCT,M,M,6000.00,10000.00,M,M,M,M,M,M,M,M,M,59.00,KMEV 031715Z AUTO 19014KT 10SM FEW060 SCT100 15/04 A2996 RMK AO2,M
HTH,2025-05-03 17:15,-118.6315,38.5448,1282.89,64.40,39.20,39.43,330.00,10.00,0.00,29.92,M,10.00,M,BKN,M,M,M,9000.00,M,M,M,M,M,M,M,M,M,M,64.40,KHTH 031715Z AUTO 33010KT 10SM BKN090 18/04 A2992 RMK A01,M
TMT,2025-05-03 17:15,-117.1971,39.4643,1749.34,62.00,35.00,36.35,310.00,4.00,0.00,29.98,M,10.00,M,SCT,M,M,M,10000.00,M,M,M,M,M,M,M,M,M,M,62.00,KTMT 031715Z AUTO 31004KT 10SM SCT100 17/02 A2998 RMK AO2 T01660016,M
10U,2025-05-03 17:15,-116.1876,41.9532,1637.00,60.80,39.20,44.76,M,6.00,0.00,29.97,M,10.00,M,CLR,M,M,M,M,M,M,M,M,M,M,M,M,M,M,60.80,K10U 031715Z AUTO VRB06KT 10SM CLR 16/04 A2997 RMK AO2,M
CXP,2025-05-03 17:30,-119.7326,39.1923,1431.00,60.80,41.00,48.00,0.00,0.00,0.00,29.96,M,9.00,M,BKN,BKN,BKN,M,5500.00,7000.00,8500.00,M,-RA,M,M,M,M,M,M,60.80,KCXP 031730Z AUTO 00000KT 9SM -RA BKN055 BKN070 BKN085 16/05 A2996 RMK AO2,M
BVU,2025-05-03 17:35,-114.8611,35.9475,671.00,84.20,30.20,14.18,160.00,9.00,0.00,29.82,M,10.00,14.00,CLR,M,M,M,M,M,M,M,M,M,M,M,M,M,M,81.26,KBVU 031735Z AUTO 16009G14KT 140V200 10SM CLR 29/M01 A2982 RMK AO2,M
BAM,2025-05-03 17:35,-116.8743,40.5990,1382.36,68.00,39.20,34.80,350.00,10.00,0.00,29.95,M,10.00,16.00,CLR,M,M,M,M,M,M,M,M,M,M,M,M,M,M,68.00,KBAM 031735Z AUTO 35010G16KT 10SM CLR 20/04 A2995 RMK AO1,M
RTS,2025-05-03 17:35,-119.8764,39.6682,1539.00,60.80,30.20,31.28,190.00,7.00,0.00,29.96,M,10.00,14.00,CLR,M,M,M,M,M,M,M,M,M,M,M,M,M,M,60.80,KRTS 031735Z AUTO 19007G14KT 10SM CLR 16/M01 A2996 RMK AO2,M
MEV,2025-05-03 17:35,-119.7500,38.9963,1441.42,57.20,37.40,47.44,170.00,11.00,0.00,29.96,M,10.00,M,CLR,M,M,M,M,M,M,M,M,M,M,M,M,M,M,57.20,KMEV 031735Z AUTO 17011KT 10SM CLR 14/03 A2996 RMK AO2,M
HTH,2025-05-03 17:35,-118.6315,38.5448,1282.89,66.20,39.20,37.03,320.00,10.00,0.00,29.92,M,10.00,M,BKN,M,M,M,9000.00,M,M,M,M,M,M,M,M,M,M,66.20,KHTH 031735Z AUTO 32010KT 10SM BKN090 19/04 A2992 RMK A01,M
TMT,2025-05-03 17:35,-117.1971,39.4643,1749.34,61.30,34.00,35.81,340.00,6.00,0.00,29.97,M,10.00,M,BKN,BKN,M,M,9000.00,11000.00,M,M,M,M,M,M,M,M,M,61.30,KTMT 031735Z AUTO 34006KT 10SM BKN090 BKN110 16/01 A2997 RMK AO2 T01630012,M
10U,2025-05-03 17:35,-116.1876,41.9532,1637.00,60.80,39.20,44.76,M,3.00,0.00,29.97,M,10.00,M,CLR,M,M,M,M,M,M,M,M,M,M,M,M,M,M,60.80,K10U 031735Z AUTO VRB03KT 10SM CLR 16/04 A2997 RMK AO2,M
P68,2025-05-03 17:53,-116.0056,39.6014,1993.00,72.00,27.00,18.61,160.00,14.00,0.00,29.93,1006.60,M,25.00,M,M,M,M,M,M,M,M,M,M,M,M,26.00,160.00,2025-05-03 17:42,72.00,KP68 031753Z AUTO 16014G25KT 22/M03 A2993 RMK AO1 PK WND 16026/1742 SLP066 T02221028 10222 20044 56012 $,M
DRA,2025-05-03 17:53,-116.0278,36.6206,1009.00,82.00,32.00,16.38,120.00,10.00,0.00,29.84,1006.20,10.00,20.00,CLR,M,M,M,M,M,M,M,M,M,M,M,M,M,M,79.73,KDRA 031753Z AUTO 12010G20KT 10SM CLR 28/00 A2984 RMK AO2 SLP062 T02780000 10278 20122 58009,M
ELY,2025-05-03 17:53,-114.8453,39.2950,1909.00,70.00,19.00,14.23,160.00,18.00,0.00,29.98,1007.40,10.00,26.00,CLR,M,M,M,M,M,M,M,M,M,M,M,29.00,180.00,2025-05-03 17:07,70.00,KELY 031753Z AUTO 16018G26KT 10SM CLR 21/M07 A2998 RMK AO2 PK WND 18029/1707 SLP074 T02111072 10222 20006 56013 $,M
VGT,2025-05-03 17:53,-115.1933,36.2111,667.00,82.00,36.00,19.21,M,M,0.00,29.82,1009.30,10.00,M,CLR,M,M,M,M,M,M,M,M,M,M,M,M,M,M,79.83,KVGT 031753Z 10SM CLR 28/02 A2982 RMK AO2 SLP093 T02780022 10283 20183 58006,M
LOL,2025-05-03 17:53,-118.5701,40.0684,1192.43,63.00,45.00,51.78,20.00,3.00,T,29.92,1010.20,10.00,M,SCT,M,M,M,9000.00,M,M,M,M,M,M,M,M,M,M,63.00,KLOL 031753Z AUTO 02003KT 10SM SCT090 17/07 A2992 RMK AO2 RAE24 SLP102 P0000 60003 T01720072 10172 20106 58007,M
BVU,2025-05-03 17:55,-114.8611,35.9475,671.00,86.00,30.20,13.38,160.00,8.00,0.00,29.82,M,10.00,M,CLR,M,M,M,M,M,M,M,M,M,M,M,M,M,M,82.64,KBVU 031755Z AUTO 16008KT 10SM CLR 30/M01 A2982 RMK AO2,M
RNO,2025-05-03 17:55,-119.7711,39.4839,1341.00,64.00,34.00,32.56,190.00,3.00,0.00,29.93,1009.40,10.00,M,FEW,SCT,BKN,OVC,6000.00,8500.00,13000.00,21000.00,M,M,M,M,M,M,M,64.00,KRNO 031755Z 19003KT 10SM FEW060 SCT085 BKN130 OVC210 18/01 A2993 RMK AO2 SLP094 T01780011 10178 20122 58007 $,M
BAM,2025-05-03 17:55,-116.8743,40.5990,1382.36,68.00,39.20,34.80,330.00,12.00,0.00,29.94,M,10.00,17.00,CLR,M,M,M,M,M,M,M,M,M,M,M,M,M,M,68.00,KBAM 031755Z AUTO 33012G17KT 10SM CLR 20/04 A2994 RMK AO1,M
CXP,2025-05-03 17:55,-119.7326,39.1923,1431.00,62.60,35.60,36.45,200.00,9.00,0.00,29.97,M,10.00,M,FEW,BKN,M,M,5500.00,8000.00,M,M,M,M,M,M,M,M,M,62.60,KCXP 031755Z AUTO 20009KT 160V220 10SM FEW055 BKN080 17/02 A2997 RMK AO2,M
RTS,2025-05-03 17:55,-119.8764,39.6682,1539.00,60.80,26.60,26.98,250.00,16.00,0.00,29.96,M,10.00,M,FEW,FEW,M,M,7000.00,11000.00,M,M,M,M,M,M,M,M,M,60.80,KRTS 031755Z AUTO 25016KT 10SM FEW070 FEW110 16/M03 A2996 RMK AO2,M
MEV,2025-05-03 17:55,-119.7500,38.9963,1441.42,59.00,37.40,44.47,180.00,9.00,0.00,29.96,M,10.00,M,CLR,M,M,M,M,M,M,M,M,M,M,M,M,M,M,59.00,KMEV 031755Z AUTO 18009KT 10SM CLR 15/03 A2996 RMK AO2,M
HTH,2025-05-03 17:55,-118.6315,38.5448,1282.89,66.20,39.20,37.03,330.00,13.00,0.00,29.91,M,10.00,M,BKN,M,M,M,8500.00,M,M,M,M,M,M,M,M,M,M,66.20,KHTH 031755Z AUTO 33013KT 10SM BKN085 19/04 A2991 RMK A01,M
TMT,2025-05-03 17:55,-117.1971,39.4643,1749.34,61.30,34.50,36.53,50.00,5.00,0.00,29.97,M,10.00,M,SCT,SCT,BKN,M,5000.00,6000.00,9000.00,M,M,M,M,M,M,M,M,61.30,KTMT 031755Z AUTO 05005KT 10SM SCT050 SCT060 BKN090 16/01 A2997 RMK AO2 T01630014 10168 20001,M
10U,2025-05-03 17:55,-116.1876,41.9532,1637.00,62.60,41.00,45.04,0.00,0.00,0.00,29.97,M,10.00,M,CLR,M,M,M,M,M,M,M,M,M,M,M,M,M,M,62.60,K10U 031755Z AUTO 00000KT 10SM CLR 17/05 A2997 RMK AO2,M
INS,2025-05-03 17:55,-115.6733,36.5872,955.00,80.20,28.40,15.00,100.00,14.00,0.00,29.83,1005.30,10.00,M,FEW,BKN,OVC,M,10000.00,13000.00,16000.00,M,M,M,M,M,M,M,M,78.63,KINS 031755Z AUTO 10014KT 10SM FEW100 BKN130 OVC160 27/M02 A2983 RMK AO2 SLP053 T02681020 10268 20143 57014 $,M
LSV,2025-05-03 17:55,-115.0343,36.2362,570.00,84.40,30.00,13.97,0.00,0.00,0.00,29.77,1005.50,10.00,M,FEW,BKN,BKN,M,11000.00,15000.00,20000.00,M,M,M,M,M,M,M,M,81.41,KLSV 031755Z 00000KT 10SM FEW110 BKN150 BKN200 29/M01 A2977 RMK AO2A SLP055 T02911011 10294 20185 57009 $,M
EKO,2025-05-03 17:56,-115.7860,40.8242,1367.00,69.00,33.00,26.31,M,M,0.00,29.92,1009.10,10.00,M,CLR,M,M,M,M,M,M,M,M,M,M,M,M,M,M,69.00,KEKO 031756Z AUTO 10SM CLR 21/01 A2992 RMK AO2 SLP091 T02060006 10206 20039 58013,M
WMC,2025-05-03 17:56,-117.8072,40.9019,1315.00,63.00,39.00,41.09,280.00,12.00,0.00,29.94,1011.30,10.00,M,OVC,M,M,M,7000.00,M,M,M,M,M,M,M,M,M,M,63.00,KWMC 031756Z AUTO 28012KT 10SM OVC070 17/04 A2994 RMK AO2 SLP113 T01720039 10178 20089 58007,M
HND,2025-05-03 17:56,-115.1344,35.9729,742.79,85.00,38.00,18.87,60.00,8.00,0.00,29.85,1009.50,10.00,M,CLR,M,M,M,M,M,M,M,M,M,M,M,M,M,M,81.99,KHND 031756Z 06008KT 10SM CLR 29/03 A2985 RMK AO2 SLP095 T02940033 10294 20194 58008 $,M
TPH,2025-05-03 17:56,-117.0904,38.0505,1654.00,69.00,30.00,23.30,200.00,11.00,0.00,29.94,1008.30,10.00,17.00,BKN,M,M,M,11000.00,M,M,M,M,M,M,M,M,M,M,69.00,KTPH 031756Z AUTO 20011G17KT 10SM BKN110 21/M01 A2994 RMK AO2 SLP083 T02061011 10206 20061 58008 $,M
LAS,2025-05-03 17:56,-115.1634,36.0719,663.00,82.00,36.00,19.21,90.00,7.00,0.00,29.83,1007.80,10.00,M,FEW,FEW,SCT,SCT,12000.00,16000.00,20000.00,25000.00,M,M,M,M,M,M,M,79.83,KLAS 031756Z 09007KT 10SM FEW120 FEW160 SCT200 SCT250 28/02 A2983 RMK AO2 SLP078 T02780022 10278 20200 58006,M
NFL,2025-05-03 17:57,-118.7010,39.4166,1199.00,65.00,46.00,50.14,M,4.00,0.00,29.91,1010.30,10.00,M,BKN,OVC,M,M,8000.00,9500.00,M,M,M,M,M,M,M,M,M,65.00,KNFL 031757Z AUTO VRB04KT 10SM BKN080 OVC095 18/08 A2991 RMK AO2 SLP103 60000 T01830078 10189 20122 55004,M
RTS,2025-05-03 18:05,-119.8764,39.6682,1539.00,60.80,28.40,29.06,250.00,15.00,0.00,29.96,M,10.00,21.00,FEW,SCT,M,M,7000.00,11000.00,M,M,M,M,M,M,M,M,M,60.80,KRTS 031805Z AUTO 25015G21KT 10SM FEW070 SCT110 16/M02 A2996 RMK AO2,M
MEV,2025-05-03 18:05,-119.7500,38.9963,1441.42,60.80,37.40,41.71,170.00,9.00,0.00,29.96,M,10.00,M,CLR,M,M,M,M,M,M,M,M,M,M,M,M,M,M,60.80,KMEV 031805Z AUTO 17009KT 10SM CLR 16/03 A2996 RMK AO2,M
P68,2025-05-03 18:13,-116.0056,39.6014,1993.00,66.00,28.00,23.82,240.00,23.00,0.00,29.94,M,M,32.00,M,M,M,M,M,M,M,M,M,M,M,M,32.00,240.00,2025-05-03 18:11,66.00,KP68 031813Z AUTO 24023G32KT 19/M02 A2994 RMK AO1 PK WND 24032/1811 WSHFT 1756 T01891022 $,M
BVU,2025-05-03 18:15,-114.8611,35.9475,671.00,86.00,30.20,13.38,170.00,7.00,0.00,29.80,M,10.00,13.00,CLR,M,M,M,M,M,M,M,M,M,M,M,M,M,M,82.64,KBVU 031815Z AUTO 17007G13KT 10SM CLR 30/M01 A2980 RMK AO2,M
BAM,2025-05-03 18:15,-116.8743,40.5990,1382.36,69.80,39.20,32.72,340.00,9.00,0.00,29.93,M,10.00,M,CLR,M,M,M,M,M,M,M,M,M,M,M,M,M,M,69.80,KBAM 031815Z AUTO 34009KT 10SM CLR 21/04 A2993 RMK AO1,M
CXP,2025-05-03 18:15,-119.7326,39.1923,1431.00,62.60,37.40,39.14,170.00,10.00,0.00,29.97,M,10.00,18.00,FEW,M,M,M,8000.00,M,M,M,M,M,M,M,M,M,M,62.60,KCXP 031815Z AUTO 17010G18KT 10SM FEW080 17/03 A2997 RMK AO2,M
HTH,2025-05-03 18:15,-118.6315,38.5448,1282.89,64.40,39.20,39.43,320.00,12.00,0.00,29.91,M,10.00,M,BKN,M,M,M,8500.00,M,M,M,M,M,M,M,M,M,M,64.40,KHTH 031815Z AUTO 32012KT 10SM BKN085 18/04 A2991 RMK A01,M
TMT,2025-05-03 18:15,-117.1971,39.4643,1749.34,64.00,35.00,33.89,30.00,7.00,0.00,29.95,M,10.00,M,SCT,SCT,SCT,M,6500.00,7500.00,9500.00,M,M,M,M,M,M,M,M,64.00,KTMT 031815Z AUTO 03007KT 010V070 10SM SCT065 SCT075 SCT095 18/02 A2995 RMK AO2 T01780017,M
10U,2025-05-03 18:15,-116.1876,41.9532,1637.00,64.40,39.20,39.43,M,3.00,0.00,29.96,M,10.00,M,CLR,M,M,M,M,M,M,M,M,M,M,M,M,M,M,64.40,K10U 031815Z AUTO VRB03KT 10SM CLR 18/04 A2996 RMK AO2,M
BVU,2025-05-03 18:35,-114.8611,35.9475,671.00,86.00,30.20,13.38,190.00,8.00,0.00,29.79,M,10.00,13.00,CLR,M,M,M,M,M,M,M,M,M,M,M,M,M,M,82.64,KBVU 031835Z AUTO 19008G13KT 10SM CLR 30/M01 A2979 RMK AO2,M
BAM,2025-05-03 18:35,-116.8743,40.5990,1382.36,69.80,41.00,35.09,350.00,12.00,0.00,29.93,M,10.00,M,CLR,M,M,M,M,M,M,M,M,M,M,M,M,M,M,69.80,KBAM 031835Z AUTO 35012KT 10SM CLR 21/05 A2993 RMK AO1,M
CXP,2025-05-03 18:35,-119.7326,39.1923,1431.00,62.60,37.40,39.14,140.00,7.00,0.00,29.96,M,10.00,14.00,CLR,M,M,M,M,M,M,M,M,M,M,M,M,M,M,62.60,KCXP 031835Z AUTO 14007G14KT 10SM CLR 17/03 A2996 RMK AO2,M
RTS,2025-05-03 18:35,-119.8764,39.6682,1539.00,60.80,28.40,29.06,260.00,15.00,0.00,29.96,M,10.00,M,CLR,M,M,M,M,M,M,M,M,M,M,M,M,M,M,60.80,KRTS 031835Z AUTO 26015KT 10SM CLR 16/M02 A2996 RMK AO2,M
MEV,2025-05-03 18:35,-119.7500,38.9963,1441.42,60.80,35.60,38.85,M,4.00,0.00,29.94,M,10.00,M,CLR,M,M,M,M,M,M,M,M,M,M,M,M,M,M,60.80,KMEV 031835Z AUTO VRB04KT 10SM CLR 16/02 A2994 RMK AO2,M
HTH,2025-05-03 18:35,-118.6315,38.5448,1282.89,64.40,39.20,39.43,320.00,10.00,0.00,29.91,M,10.00,M,BKN,BKN,M,M,8500.00,11000.00,M,M,M,M,M,M,M,M,M,64.40,KHTH 031835Z AUTO 32010KT 10SM BKN085 BKN110 18/04 A2991 RMK A01,M
TMT,2025-05-03 18:35,-117.1971,39.4643,1749.34,65.00,35.20,32.98,0.00,0.00,0.00,29.94,M,10.00,M,CLR,M,M,M,M,M,M,M,M,M,M,M,M,M,M,65.00,KTMT 031835Z AUTO 00000KT 10SM CLR 18/02 A2994 RMK AO2 T01830018,M
10U,2025-05-03 18:35,-116.1876,41.9532,1637.00,62.60,39.20,42.00,310.00,5.00,0.00,29.96,M,10.00,M,CLR,M,M,M,M,M,M,M,M,M,M,M,M,M,M,62.60,K10U 031835Z AUTO 31005KT 10SM CLR 17/04 A2996 RMK AO2,M
INS,2025-05-03 18:38,-115.6733,36.5872,955.00,78.80,26.60,14.59,190.00,5.00,0.00,29.83,1005.50,10.00,M,BKN,OVC,M,M,11000.00,14000.00,M,M,-RA,M,M,M,M,M,M,78.80,KINS 031838Z AUTO 19005KT 10SM -RA BKN110 OVC140 26/M03 A2983 RMK AO2 RAB38 SLP055 $,M
WMC,2025-05-03 18:45,-117.8072,40.9019,1315.00,52.00,47.00,82.99,250.00,12.00,0.01,29.97,M,3.00,30.00,SCT,OVC,M,M,4700.00,6000.00,M,M,TSRA,M,M,M,30.00,250.00,2025-05-03 18:36,52.00,KWMC 031845Z AUTO 25012G30KT 3SM TSRA SCT047 OVC060 11/08 A2997 RMK AO2 PK WND 25030/1836 RAB39 TSB39 P0001 T01110083,M
RTS,2025-05-03 18:45,-119.8764,39.6682,1539.00,60.80,26.60,26.98,250.00,13.00,0.00,29.96,M,10.00,M,CLR,M,M,M,M,M,M,M,M,M,M,M,M,M,M,60.80,KRTS 031845Z AUTO 25013KT 10SM CLR 16/M03 A2996 RMK AO2,M
MEV,2025-05-03 18:45,-119.7500,38.9963,1441.42,60.80,35.60,38.85,80.00,7.00,0.00,29.94,M,10.00,M,CLR,M,M,M,M,M,M,M,M,M,M,M,M,M,M,60.80,KMEV 031845Z AUTO 08007KT 10SM CLR 16/02 A2994 RMK AO2,M
P68,2025-05-03 18:53,-116.0056,39.6014,1993.00,63.00,32.00,31.12,M,5.00,0.00,29.94,1007.30,M,M,M,M,M,M,M,M,M,M,M,M,M,M,35.00,230.00,2025-05-03 18:17,63.00,KP68 031853Z AUTO VRB05KT 17/00 A2994 RMK AO1 PK WND 23035/1817 WSHFT 1756 SLP073 T01720000 $,M
DRA,2025-05-03 18:53,-116.0278,36.6206,1009.00,83.00,34.00,17.18,210.00,14.00,0.00,29.82,1005.40,10.00,27.00,CLR,M,M,M,M,M,M,M,M,M,M,M,27.00,200.00,2025-05-03 18:47,80.45,KDRA 031853Z AUTO 21014G27KT 10SM CLR 28/01 A2982 RMK AO2 PK WND 20027/1847 SLP054 T02830011,M
ELY,2025-05-03 18:53,-114.8453,39.2950,1909.00,68.00,20.00,15.90,140.00,15.00,0.00,29.97,1008.10,10.00,28.00,OVC,M,M,M,11000.00,M,M,M,M,M,M,M,28.00,150.00,2025-05-03 18:50,68.00,KELY 031853Z AUTO 14015G28KT 10SM OVC110 20/M07 A2997 RMK AO2 PK WND 15028/1850 WSHFT 1827 SLP081 T02001067 $,M
VGT,2025-05-03 18:53,-115.1933,36.2111,667.00,86.00,35.00,16.23,80.00,8.00,0.00,29.79,1007.90,10.00,M,CLR,M,M,M,M,M,M,M,M,M,M,M,M,M,M,82.68,KVGT 031853Z 08008KT 10SM CLR 30/02 A2979 RMK AO2 SLP079 T03000017,M
LOL,2025-05-03 18:53,-118.5701,40.0684,1192.43,65.00,46.00,50.14,100.00,9.00,T,29.90,1009.90,10.00,M,FEW,SCT,BKN,M,4100.00,7500.00,10000.00,M,M,M,M,M,M,M,M,65.00,KLOL 031853Z AUTO 10009KT 10SM FEW041 SCT075 BKN100 18/08 A2990 RMK AO2 RAB1757E08 SLP099 P0000 T01830078,M
BVU,2025-05-03 18:55,-114.8611,35.9475,671.00,87.80,28.40,11.74,150.00,13.00,0.00,29.78,M,10.00,M,CLR,M,M,M,M,M,M,M,M,M,M,M,M,M,M,83.84,KBVU 031855Z AUTO 15013KT 10SM CLR 31/M02 A2978 RMK AO2,M
RNO,2025-05-03 18:55,-119.7711,39.4839,1341.00,65.00,32.00,29.02,190.00,5.00,0.00,29.92,1009.00,10.00,M,SCT,BKN,OVC,M,8000.00,13000.00,21000.00,M,M,M,M,M,M,M,M,65.00,KRNO 031855Z 19005KT 10SM SCT080 BKN130 OVC210 18/00 A2992 RMK AO2 SLP090 CB DSNT NE T01830000 $,M
BAM,2025-05-03 18:55,-116.8743,40.5990,1382.36,68.00,39.20,34.80,360.00,4.00,0.00,29.92,M,10.00,M,SCT,M,M,M,11000.00,M,M,M,M,M,M,M,M,M,M,68.00,KBAM 031855Z AUTO 36004KT 10SM SCT110 20/04 A2992 RMK AO1,M
CXP,2025-05-03 18:55,-119.7326,39.1923,1431.00,64.40,33.80,31.85,120.00,6.00,0.00,29.95,M,10.00,12.00,CLR,M,M,M,M,M,M,M,M,M,M,M,M,M,M,64.40,KCXP 031855Z AUTO 12006G12KT 10SM CLR 18/01 A2995 RMK AO2,M
HTH,2025-05-03 18:55,-118.6315,38.5448,1282.89,64.40,41.00,42.28,340.00,10.00,0.00,29.89,M,10.00,15.00,SCT,BKN,BKN,M,6000.00,8000.00,9000.00,M,M,M,M,M,M,M,M,64.40,KHTH 031855Z AUTO 34010G15KT 10SM SCT060 BKN080 BKN090 18/05 A2989 RMK A01,M
TMT,2025-05-03 18:55,-117.1971,39.4643,1749.34,65.00,34.00,31.44,0.00,0.00,0.00,29.93,M,10.00,M,CLR,M,M,M,M,M,M,M,M,M,M,M,M,M,M,65.00,KTMT 031855Z AUTO 00000KT 10SM CLR 18/01 A2993 RMK AO2 T01840012,M
10U,2025-05-03 18:55,-116.1876,41.9532,1637.00,64.40,41.00,42.28,M,5.00,0.00,29.95,M,10.00,M,CLR,M,M,M,M,M,M,M,M,M,M,M,M,M,M,64.40,K10U 031855Z AUTO VRB05KT 10SM CLR 18/05 A2995 RMK AO2,M
INS,2025-05-03 18:55,-115.6733,36.5872,955.00,77.00,36.30,22.91,90.00,7.00,T,29.82,1005.40,10.00,18.00,FEW,SCT,OVC,M,3800.00,6000.00,10000.00,M,-RA,M,M,M,27.00,230.00,2025-05-03 18:31,77.00,KINS 031855Z AUTO 09007G18KT 10SM -RA FEW038 SCT060 OVC100 25/02 A2982 RMK AO2 PK WND 23027/31 RAE1755RAB38 SLP054 P0000 T02500024 $,M
LSV,2025-05-03 18:55,-115.0343,36.2362,570.00,87.60,28.80,12.01,130.00,6.00,0.00,29.74,1004.40,10.00,M,SCT,M,M,M,15000.00,M,M,M,VCTS,M,M,M,M,M,M,83.73,KLSV 031855Z 13006KT 10SM VCTS SCT150CB 31/M02 A2974 RMK AO2A LTG DSNT SW SLP044 T03091018 $,M
EKO,2025-05-03 18:56,-115.7860,40.8242,1367.00,72.00,31.00,21.91,M,5.00,0.00,29.87,1007.60,10.00,M,CLR,M,M,M,M,M,M,M,M,M,M,M,M,M,M,72.00,KEKO 031856Z AUTO VRB05KT 10SM CLR 22/M01 A2987 RMK AO2 SLP076 T02221006,M
WMC,2025-05-03 18:56,-117.8072,40.9019,1315.00,53.00,49.00,86.23,280.00,4.00,0.03,29.95,1011.60,5.00,M,SCT,OVC,M,M,5000.00,6000.00,M,M,VCTS -RA BR,M,M,M,30.00,250.00,2025-05-03 18:36,53.00,KWMC 031856Z AUTO 28004KT 5SM VCTS -RA BR SCT050 OVC060 12/09 A2995 RMK AO2 PK WND 25030/1836 RAB39 TSB39E54 SLP116 P0003 T01170094,M
HND,2025-05-03 18:56,-115.1344,35.9729,742.79,83.00,33.00,16.50,230.00,16.00,0.00,29.82,1008.80,10.00,22.00,BKN,M,M,M,11000.00,M,M,M,M,M,M,M,M,M,M,80.43,KHND 031856Z 23016G22KT 10SM BKN110 28/01 A2982 RMK AO2 LTG DSNT SW SLP088 T02830006 $,M
TPH,2025-05-03 18:56,-117.0904,38.0505,1654.00,65.00,32.00,29.02,170.00,14.00,T,29.93,1008.40,10.00,30.00,FEW,BKN,OVC,M,6500.00,8000.00,9000.00,M,M,M,M,M,31.00,220.00,2025-05-03 18:33,65.00,KTPH 031856Z AUTO 17014G30KT 10SM FEW065 BKN080 OVC090 18/00 A2993 RMK AO2 PK WND 22031/1833 RAB31E40 SLP084 P0000 T01830000 $,M
LAS,2025-05-03 18:56,-115.1634,36.0719,663.00,84.00,35.00,17.31,M,3.00,0.00,29.80,1006.70,10.00,M,FEW,SCT,M,M,11000.00,25000.00,M,M,TS,M,M,M,M,M,M,81.18,KLAS 031856Z COR VRB03KT 10SM TS FEW110CB SCT250 29/02 A2980 RMK AO2 TSB56 SLP067 OCNL LGT OHD CB DSNT NW T02890017,M
NFL,2025-05-03 18:57,-118.7010,39.4166,1199.00,68.00,41.00,37.32,M,6.00,T,29.89,1009.80,10.00,M,FEW,FEW,FEW,M,4100.00,7000.00,10000.00,M,M,M,M,M,M,M,M,68.00,KNFL 031857Z AUTO VRB06KT 10SM FEW041 FEW070 FEW100 20/05 A2989 RMK AO2 RAB14E23 SLP098 P0000 T02000050,M
INS,2025-05-03 19:04,-115.6733,36.5872,955.00,77.00,35.60,22.28,110.00,13.00,0.00,29.82,1005.60,10.00,17.00,FEW,OVC,M,M,3800.00,10000.00,M,M,-RA,M,M,M,M,M,M,77.00,KINS 031904Z AUTO 11013G17KT 10SM -RA FEW038 OVC100 25/02 A2982 RMK AO2 WSHFT 03 SLP056 $,M
HND,2025-05-03 19:04,-115.1344,35.9729,742.79,82.40,33.80,17.38,220.00,13.00,0.00,29.82,M,10.00,20.00,BKN,M,M,M,11000.00,M,M,M,M,M,M,M,M,M,M,80.03,KHND 031904Z 22013G20KT 10SM BKN110 28/01 A2982 RMK AO2 WSHFT 1844 LTG DSNT S AND SW $,M
WMC,2025-05-03 19:09,-117.8072,40.9019,1315.00,58.00,48.00,69.27,290.00,6.00,T,29.94,M,10.00,M,SCT,SCT,BKN,M,4500.00,5500.00,7500.00,M,M,M,M,M,M,M,M,58.00,KWMC 031909Z AUTO 29006KT 10SM SCT045 SCT055 BKN075 14/09 A2994 RMK AO2 RAE05 P0000 T01440089,M
BVU,2025-05-03 19:15,-114.8611,35.9475,671.00,87.80,28.40,11.74,130.00,18.00,0.00,29.77,M,10.00,M,CLR,M,M,M,M,M,M,M,M,M,M,M,M,M,M,83.84,KBVU 031915Z AUTO 13018KT 10SM CLR 31/M02 A2977 RMK AO2,M
LAS,2025-05-03 19:15,-115.1634,36.0719,663.00,79.00,45.00,30.05,220.00,10.00,0.03,29.80,M,10.00,18.00,FEW,FEW,SCT,M,3400.00,11000.00,25000.00,M,M,M,M,M,32.00,300.00,2025-05-03 19:01,79.00,KLAS 031915Z 22010G18KT 10SM FEW034CB FEW110 SCT250 26/07 A2980 RMK AO2 PK WND 30032/1901 RAB00E13 TSE13 CB OHD MOV N AND DSNT NW P0003 T02610072,M
BAM,2025-05-03 19:15,-116.8743,40.5990,1382.36,69.80,39.20,32.72,50.00,4.00,0.00,29.91,M,10.00,M,SCT,M,M,M,11000.00,M,M,M,M,M,M,M,M,M,M,69.80,KBAM 031915Z AUTO 05004KT 10SM SCT110 21/04 A2991 RMK AO1,M
CXP,2025-05-03 19:15,-119.7326,39.1923,1431.00,64.40,32.00,29.63,0.00,0.00,0.00,29.94,M,10.00,M,CLR,M,M,M,M,M,M,M,VCTS,M,M,M,M,M,M,64.40,KCXP 031915Z AUTO 00000KT 10SM VCTS CLR 18/00 A2994 RMK AO2 LTG DSNT S,M
HTH,2025-05-03 19:15,-118.6315,38.5448,1282.89,64.40,39.20,39.43,10.00,8.00,0.00,29.90,M,10.00,M,FEW,BKN,OVC,M,4800.00,6500.00,7500.00,M,M,M,M,M,M,M,M,64.40,KHTH 031915Z AUTO 01008KT 10SM FEW048 BKN065 OVC075 18/04 A2990 RMK A01,M
TMT,2025-05-03 19:15,-117.1971,39.4643,1749.34,64.00,33.00,31.28,350.00,3.00,0.00,29.92,M,10.00,M,SCT,SCT,M,M,8000.00,11000.00,M,M,M,M,M,M,M,M,M,64.00,KTMT 031915Z AUTO 35003KT 10SM SCT080 SCT110 18/01 A2992 RMK AO2 T01780005,M
10U,2025-05-03 19:15,-116.1876,41.9532,1637.00,66.20,39.20,37.03,350.00,5.00,0.00,29.94,M,10.00,M,CLR,M,M,M,M,M,M,M,M,M,M,M,M,M,M,66.20,K10U 031915Z AUTO 35005KT 10SM CLR 19/04 A2994 RMK AO2,M
INS,2025-05-03 19:23,-115.6733,36.5872,955.00,78.80,32.00,18.18,0.00,0.00,0.00,29.81,1005.10,10.00,M,FEW,BKN,M,M,6500.00,11000.00,M,M,M,M,M,M,M,M,M,78.80,KINS 031923Z AUTO 00000KT 10SM FEW065 BKN110 26/M00 A2981 RMK AO2 RAE23 SLP051 $,M
RTS,2025-05-03 19:25,-119.8764,39.6682,1539.00,62.60,23.00,21.79,250.00,12.00,0.00,29.94,M,10.00,M,CLR,M,M,M,M,M,M,M,M,M,M,M,M,M,M,62.60,KRTS 031925Z AUTO 25012KT 230V290 10SM CLR 17/M05 A2994 RMK AO2,M
MEV,2025-05-03 19:25,-119.7500,38.9963,1441.42,62.60,32.00,31.56,70.00,6.00,0.00,29.92,M,10.00,M,FEW,M,M,M,6500.00,M,M,M,M,M,M,M,M,M,M,62.60,KMEV 031925Z AUTO 07006KT 10SM FEW065 17/00 A2992 RMK AO2 LTG DSNT E AND S,M
ELY,2025-05-03 19:31,-114.8453,39.2950,1909.00,70.00,22.00,16.17,190.00,13.00,0.00,29.95,M,10.00,34.00,CLR,M,M,M,M,M,M,M,M,M,M,M,35.00,180.00,2025-05-03 19:15,70.00,KELY 031931Z AUTO 19013G34KT 10SM CLR 21/M06 A2995 RMK AO2 PK WND 18035/1915 WSHFT 1911 T02111056 $,M
BVU,2025-05-03 19:35,-114.8611,35.9475,671.00,87.80,28.40,11.74,140.00,17.00,0.00,29.77,M,10.00,23.00,CLR,M,M,M,M,M,M,M,M,M,M,M,M,M,M,83.84,KBVU 031935Z AUTO 14017G23KT 10SM CLR 31/M02 A2977 RMK AO2,M
BAM,2025-05-03 19:35,-116.8743,40.5990,1382.36,68.00,37.40,32.43,110.00,6.00,0.00,29.92,M,10.00,M,SCT,BKN,BKN,M,7500.00,9000.00,11000.00,M,M,M,M,M,M,M,M,68.00,KBAM 031935Z AUTO 11006KT 10SM SCT075 BKN090 BKN110 20/03 A2992 RMK AO1,M
CXP,2025-05-03 19:35,-119.7326,39.1923,1431.00,66.20,26.60,22.33,270.00,8.00,0.00,29.93,M,10.00,M,FEW,M,M,M,11000.00,M,M,M,VCTS,M,M,M,M,M,M,66.20,KCXP 031935Z AUTO 27008KT 10SM VCTS FEW110 19/M03 A2993 RMK AO2 LTG DSNT S,M
HTH,2025-05-03 19:35,-118.6315,38.5448,1282.89,62.60,41.00,45.04,300.00,14.00,0.00,29.90,M,9.00,20.00,FEW,BKN,OVC,M,5000.00,6500.00,7500.00,M,M,M,M,M,M,M,M,62.60,KHTH 031935Z AUTO 30014G20KT 9SM FEW050 BKN065 OVC075 17/05 A2990 RMK A01,M
TMT,2025-05-03 19:35,-117.1971,39.4643,1749.34,66.00,32.00,28.03,120.00,17.00,0.00,29.90,M,10.00,22.00,SCT,BKN,M,M,7500.00,8500.00,M,M,M,M,M,M,M,M,M,66.00,KTMT 031935Z AUTO 12017G22KT 10SM SCT075 BKN085 19/00 A2990 RMK AO2 T01890000,M
10U,2025-05-03 19:35,-116.1876,41.9532,1637.00,66.20,39.20,37.03,M,6.00,0.00,29.93,M,10.00,M,CLR,M,M,M,M,M,M,M,M,M,M,M,M,M,M,66.20,K10U 031935Z AUTO VRB06KT 10SM CLR 19/04 A2993 RMK AO2,M
TPH,2025-05-03 19:36,-117.0904,38.0505,1654.00,62.00,34.00,34.93,220.00,6.00,T,29.92,M,10.00,34.00,FEW,BKN,BKN,M,5500.00,8000.00,11000.00,M,-TSRA,M,M,M,34.00,210.00,2025-05-03 19:27,62.00,KTPH 031936Z AUTO 22006G34KT 10SM -TSRA FEW055 BKN080 BKN110 17/01 A2992 RMK AO2 PK WND 21034/1927 LTG DSNT N AND NE RAB1857 TSB30 P0000 T01670011 $,M
VGT,2025-05-03 19:37,-115.1933,36.2111,667.00,83.00,33.00,16.50,210.00,10.00,T,29.78,M,10.00,M,FEW,BKN,M,M,9000.00,11000.00,M,M,-RA,M,M,M,31.00,180.00,2025-05-03 19:25,80.43,KVGT 031937Z 21010KT 10SM -RA FEW090 BKN110 28/01 A2978 RMK AO2 PK WND 18031/1925 WSHFT 1917 RAB29 P0000 T02830006,M
TPH,2025-05-03 19:52,-117.0904,38.0505,1654.00,66.20,30.20,25.88,180.00,6.00,T,29.91,M,10.00,M,FEW,FEW,BKN,M,5500.00,7500.00,11000.00,M,VCTS,M,M,M,34.00,210.00,2025-05-03 19:27,66.20,KTPH 031952Z AUTO 18006KT 10SM VCTS FEW055 FEW075 BKN110 19/M01 A2991 RMK AO2 PK WND 21034/1927 LTG DSNT N RAB1857E42 TSB30E46 P0000 $,M
P68,2025-05-03 19:53,-116.0056,39.6014,1993.00,66.00,31.00,26.92,180.00,6.00,0.00,29.91,1007.00,M,33.00,M,M,M,M,M,M,M,M,M,M,M,M,43.00,180.00,2025-05-03 19:41,66.00,KP68 031953Z AUTO 18006G33KT 19/M01 A2991 RMK AO1 PK WND 18043/1941 SLP070 T01891006 $,M
DRA,2025-05-03 19:53,-116.0278,36.6206,1009.00,86.00,33.00,14.99,180.00,20.00,0.00,29.80,1004.60,10.00,28.00,CLR,M,M,M,M,M,M,M,M,M,M,M,28.00,180.00,2025-05-03 19:50,82.65,KDRA 031953Z AUTO 18020G28KT 10SM CLR 30/01 A2980 RMK AO2 PK WND 18028/1950 SLP046 T03000006,M
ELY,2025-05-03 19:53,-114.8453,39.2950,1909.00,68.00,21.00,16.60,180.00,11.00,0.00,29.94,1007.00,10.00,23.00,SCT,M,M,M,10000.00,M,M,M,M,M,M,M,35.00,180.00,2025-05-03 19:15,68.00,KELY 031953Z AUTO 18011G23KT 10SM SCT100 20/M06 A2994 RMK AO2 PK WND 18035/1915 WSHFT 1911 SLP070 T02001061 $,M
VGT,2025-05-03 19:53,-115.1933,36.2111,667.00,83.00,35.00,17.88,M,5.00,T,29.77,1007.70,10.00,M,FEW,FEW,BKN,M,6500.00,8000.00,11000.00,M,M,M,M,M,31.00,180.00,2025-05-03 19:25,80.47,KVGT 031953Z VRB05KT 10SM FEW065 FEW080 BKN110 28/02 A2977 RMK AO2 PK WND 18031/1925 WSHFT 1917 LTG DSNT SW RAB29E53 SLP077 P0000 T02830017,M
LOL,2025-05-03 19:53,-118.5701,40.0684,1192.43,66.00,45.00,46.62,90.00,10.00,0.00,29.86,1008.70,10.00,M,BKN,M,M,M,10000.00,M,M,M,M,M,M,M,M,M,M,66.00,KLOL 031953Z AUTO 09010KT 10SM BKN100 19/07 A2986 RMK AO2 LTG DSNT SW AND W SLP087 T01890072,M
BVU,2025-05-03 19:55,-114.8611,35.9475,671.00,89.60,24.80,9.56,130.00,17.00,0.00,29.76,M,10.00,23.00,CLR,M,M,M,M,M,M,M,M,M,M,M,M,M,M,84.88,KBVU 031955Z AUTO 13017G23KT 10SM CLR 32/M04 A2976 RMK AO2,M
RNO,2025-05-03 19:55,-119.7711,39.4839,1341.00,68.00,28.00,22.23,320.00,4.00,0.00,29.89,1007.70,10.00,M,SCT,BKN,BKN,M,8000.00,13000.00,21000.00,M,M,M,M,M,M,M,M,68.00,KRNO 031955Z 32004KT 10SM SCT080 BKN130 BKN210 20/M02 A2989 RMK AO2 SLP077 T02001022 $,M
LSV,2025-05-03 19:55,-115.0343,36.2362,570.00,87.40,24.00,9.91,200.00,5.00,0.00,29.71,1003.60,10.00,M,FEW,SCT,M,M,15000.00,20000.00,M,M,M,M,M,M,M,M,M,83.21,KLSV 031955Z 20005KT 10SM FEW150 SCT200 31/M04 A2971 RMK AO2A LTG DSNT SW-W SLP036 T03081044 $,M
BAM,2025-05-03 19:55,-116.8743,40.5990,1382.36,62.60,42.80,48.28,160.00,21.00,0.00,29.93,M,10.00,28.00,SCT,BKN,OVC,M,2600.00,7500.00,9000.00,M,M,M,M,M,M,M,M,62.60,KBAM 031955Z AUTO 16021G28KT 10SM SCT026 BKN075 OVC090 17/06 A2993 RMK AO1,M
CXP,2025-05-03 19:55,-119.7326,39.1923,1431.00,64.40,26.60,23.77,250.00,10.00,0.00,29.92,M,10.00,M,FEW,M,M,M,8000.00,M,M,M,M,M,M,M,M,M,M,64.40,KCXP 031955Z AUTO 25010KT 10SM FEW080 18/M03 A2992 RMK AO2 LTG DSNT NE AND S,M
RTS,2025-05-03 19:55,-119.8764,39.6682,1539.00,62.60,26.60,25.32,280.00,13.00,0.00,29.93,M,10.00,19.00,BKN,M,M,M,8000.00,M,M,M,M,M,M,M,M,M,M,62.60,KRTS 031955Z AUTO 28013G19KT 10SM BKN080 17/M03 A2993 RMK AO2,M
MEV,2025-05-03 19:55,-119.7500,38.9963,1441.42,64.40,32.00,29.63,M,6.00,0.00,29.91,M,10.00,M,CLR,M,M,M,M,M,M,M,M,M,M,M,M,M,M,64.40,KMEV 031955Z AUTO VRB06KT 10SM CLR 18/00 A2991 RMK AO2,M
HTH,2025-05-03 19:55,-118.6315,38.5448,1282.89,62.60,41.00,45.04,310.00,14.00,0.00,29.89,M,10.00,M,SCT,SCT,M,M,7000.00,8000.00,M,M,M,M,M,M,M,M,M,62.60,KHTH 031955Z AUTO 31014KT 10SM SCT070 SCT080 17/05 A2989 RMK A01,M
TMT,2025-05-03 19:55,-117.1971,39.4643,1749.34,66.60,31.60,27.01,180.00,7.00,0.00,29.89,M,10.00,14.00,SCT,M,M,M,9500.00,M,M,M,M,M,M,M,M,M,M,66.60,KTMT 031955Z AUTO 18007G14KT 120V220 10SM SCT095 19/00 A2989 RMK AO2 T01921002,M
10U,2025-05-03 19:55,-116.1876,41.9532,1637.00,66.20,39.20,37.03,320.00,5.00,0.00,29.92,M,10.00,M,CLR,M,M,M,M,M,M,M,M,M,M,M,M,M,M,66.20,K10U 031955Z AUTO 32005KT 10SM CLR 19/04 A2992 RMK AO2,M
INS,2025-05-03 19:55,-115.6733,36.5872,955.00,79.00,30.60,17.07,0.00,0.00,T,29.79,1004.40,10.00,M,BKN,OVC,M,M,11000.00,13000.00,M,M,M,M,M,M,M,M,M,79.00,KINS 031955Z AUTO 00000KT 10SM BKN110 OVC130 26/M01 A2979 RMK AO2 RAB1855E23 SLP044 P0000 T02621008 $,M
EKO,2025-05-03 19:56,-115.7860,40.8242,1367.00,68.00,34.00,28.34,230.00,12.00,T,29.87,1007.70,9.00,M,FEW,OVC,M,M,7500.00,10000.00,M,M,VCTS -RA,M,M,M,M,M,M,68.00,KEKO 031956Z AUTO 23012KT 9SM VCTS -RA FEW075 OVC100 20/01 A2987 RMK AO2 LTG DSNT W RAB55 SLP077 P0000 T02000011,M
WMC,2025-05-03 19:56,-117.8072,40.9019,1315.00,58.00,46.00,64.24,M,3.00,T,29.92,1010.40,10.00,M,BKN,OVC,M,M,7500.00,9500.00,M,M,-RA,M,M,M,M,M,M,58.00,KWMC 031956Z AUTO VRB03KT 10SM -RA BKN075 OVC095 14/08 A2992 RMK AO2 LTG DSNT E AND SE RAE05B55 SLP104 P0000 T01440078,M
HND,2025-05-03 19:56,-115.1344,35.9729,742.79,81.00,35.00,19.08,220.00,18.00,0.00,29.81,1008.40,10.00,26.00,SCT,M,M,M,12000.00,M,M,M,M,M,M,M,26.00,230.00,2025-05-03 19:47,79.16,KHND 031956Z 22018G26KT 10SM SCT120 27/02 A2981 RMK AO2 PK WND 23026/1947 WSHFT 1844 LTG DSNT SW AND W SLP084 T02720017 $,M
TPH,2025-05-03 19:56,-117.0904,38.0505,1654.00,66.00,31.00,26.92,190.00,6.00,T,29.90,1007.80,10.00,M,FEW,BKN,M,M,5500.00,11000.00,M,M,M,M,M,M,34.00,210.00,2025-05-03 19:27,66.00,KTPH 031956Z AUTO 19006KT 10SM FEW055 BKN110 19/M01 A2990 RMK AO2 PK WND 21034/1927 LTG DSNT N RAB1857E42 TSB30E46 SLP078 P0000 T01891006 $,M
LAS,2025-05-03 19:56,-115.1634,36.0719,663.00,82.00,37.00,19.99,260.00,8.00,0.03,29.78,1006.30,10.00,M,FEW,BKN,BKN,M,4200.00,11000.00,25000.00,M,M,M,M,M,32.00,300.00,2025-05-03 19:01,79.86,KLAS 031956Z 26008KT 10SM FEW042 BKN110 BKN250 28/03 A2978 RMK AO2 PK WND 30032/1901 RAB00E13B18E33 TSE13 SLP063 CB DSNT SW P0003 T02780028,M
NFL,2025-05-03 19:57,-118.7010,39.4166,1199.00,62.00,45.00,53.63,270.00,17.00,T,29.88,1009.40,9.00,25.00,SCT,BKN,OVC,M,2400.00,2900.00,8000.00,M,-RA,M,M,M,34.00,280.00,2025-05-03 19:12,62.00,KNFL 031957Z AUTO 27017G25KT 9SM -RA SCT024 BKN029 OVC080 17/07 A2988 RMK AO2 PK WND 28034/1912 RAB49 SLP094 P0000 T01670072,M
LSV,2025-05-03 19:59,-115.0343,36.2362,570.00,87.80,28.40,11.74,250.00,15.00,0.00,29.71,1003.60,10.00,M,FEW,SCT,M,M,14000.00,20000.00,M,M,M,M,M,M,M,M,M,83.84,KLSV 031959Z 25015KT 10SM FEW140 SCT200 31/M02 A2971 RMK AO2A WSHFT 56 LTG DSNT SW-W SLP036 $,M
INS,2025-05-03 20:04,-115.6733,36.5872,955.00,78.80,32.00,18.18,70.00,18.00,0.00,29.79,1004.40,10.00,22.00,FEW,BKN,OVC,M,8000.00,10000.00,13000.00,M,M,M,M,M,M,M,M,78.80,KINS 032004Z AUTO 07018G22KT 10SM FEW080 BKN100 OVC130 26/M00 A2979 RMK AO2 WSHFT 02 LTG DSNT SE SLP044 $,M
EKO,2025-05-03 20:04,-115.7860,40.8242,1367.00,61.00,40.00,45.85,200.00,15.00,T,29.90,M,5.00,37.00,FEW,BKN,OVC,M,5000.00,9000.00,11000.00,M,-TSRA,M,M,M,37.00,230.00,2025-05-03 20:00,61.00,KEKO 032004Z AUTO 20015G37KT 5SM -TSRA FEW050 BKN090 OVC110 16/04 A2990 RMK AO2 PK WND 23037/2000 LTG DSNT W AND NW TSB1958 PRESRR P0000 T01610044,M
INS,2025-05-03 20:05,-115.6733,36.5872,955.00,78.80,32.00,18.18,120.00,15.00,0.00,29.79,1004.40,10.00,22.00,FEW,OVC,M,M,8000.00,10000.00,M,M,M,M,M,M,M,M,M,78.80,KINS 032005Z AUTO 12015G22KT 10SM FEW080 OVC100 26/M00 A2979 RMK AO2 WSHFT 04 LTG DSNT SE SLP044 $,M
NFL,2025-05-03 20:05,-118.7010,39.4166,1199.00,64.00,42.00,44.57,260.00,17.00,T,29.88,M,10.00,25.00,FEW,SCT,SCT,M,2400.00,2900.00,7500.00,M,M,M,M,M,M,M,M,64.00,KNFL 032005Z AUTO 26017G25KT 10SM FEW024 SCT029 SCT075 18/06 A2988 RMK AO2 RAE02 P0000 T01780056,M
RTS,2025-05-03 20:05,-119.8764,39.6682,1539.00,62.60,24.80,23.50,260.00,14.00,0.00,29.92,M,10.00,20.00,BKN,M,M,M,8500.00,M,M,M,M,M,M,M,M,M,M,62.60,KRTS 032005Z AUTO 26014G20KT 10SM BKN085 17/M04 A2992 RMK AO2,M
INS,2025-05-03 20:08,-115.6733,36.5872,955.00,78.80,32.00,18.18,110.00,18.00,0.00,29.79,1004.40,10.00,25.00,OVC,M,M,M,10000.00,M,M,M,-DZ,M,M,M,M,M,M,78.80,KINS 032008Z AUTO 11018G25KT 10SM -DZ OVC100 26/M00 A2979 RMK AO2 LTG DSNT SE DZB08 SLP044 $,M
BVU,2025-05-03 20:15,-114.8611,35.9475,671.00,89.60,32.00,12.84,230.00,19.00,0.00,29.76,M,6.00,33.00,FEW,M,M,M,12000.00,M,M,M,HZ,M,M,M,M,M,M,85.54,KBVU 032015Z AUTO 23019G33KT 6SM HZ FEW120 32/00 A2976 RMK AO2,M
LAS,2025-05-03 20:15,-115.1634,36.0719,663.00,76.00,41.00,28.47,230.00,27.00,0.00,29.80,M,5.00,47.00,FEW,BKN,BKN,M,4200.00,11000.00,25000.00,M,BLDU,M,M,M,47.00,220.00,2025-05-03 20:14,76.00,KLAS 032015Z 23027G47KT 5SM BLDU FEW042 BKN110 BKN250 24/05 A2980 RMK AO2 PK WND 22047/2014 CB DSNT SW T02440050,M
BAM,2025-05-03 20:15,-116.8743,40.5990,1382.36,60.80,41.00,48.00,150.00,22.00,0.00,29.91,M,10.00,28.00,SCT,OVC,M,M,6000.00,9000.00,M,M,M,M,M,M,M,M,M,60.80,KBAM 032015Z AUTO 15022G28KT 10SM SCT060 OVC090 16/05 A2991 RMK AO1,M
CXP,2025-05-03 20:15,-119.7326,39.1923,1431.00,66.20,24.80,20.72,250.00,9.00,0.00,29.91,M,10.00,18.00,FEW,M,M,M,8500.00,M,M,M,M,M,M,M,M,M,M,66.20,KCXP 032015Z AUTO 25009G18KT 10SM FEW085 19/M04 A2991 RMK AO2,M
MEV,2025-05-03 20:15,-119.7500,38.9963,1441.42,64.40,32.00,29.63,160.00,7.00,0.00,29.90,M,10.00,M,CLR,M,M,M,M,M,M,M,M,M,M,M,M,M,M,64.40,KMEV 032015Z AUTO 16007KT 120V190 10SM CLR 18/00 A2990 RMK AO2,M
HTH,2025-05-03 20:15,-118.6315,38.5448,1282.89,64.40,41.00,42.28,360.00,16.00,0.00,29.89,M,10.00,24.00,CLR,M,M,M,M,M,M,M,M,M,M,M,M,M,M,64.40,KHTH 032015Z AUTO 36016G24KT 10SM CLR 18/05 A2989 RMK A01,M
TMT,2025-05-03 20:15,-117.1971,39.4643,1749.34,68.00,32.00,26.15,170.00,11.00,0.00,29.89,M,10.00,16.00,SCT,SCT,M,M,6000.00,8500.00,M,M,M,M,M,M,M,M,M,68.00,KTMT 032015Z AUTO 17011G16KT 10SM SCT060 SCT085 20/00 A2989 RMK AO2 T02000000,M
10U,2025-05-03 20:15,-116.1876,41.9532,1637.00,68.00,39.20,34.80,M,4.00,0.00,29.90,M,10.00,M,CLR,M,M,M,M,M,M,M,M,M,M,M,M,M,M,68.00,K10U 032015Z AUTO VRB04KT 10SM CLR 20/04 A2990 RMK AO2,M
INS,2025-05-03 20:16,-115.6733,36.5872,955.00,77.00,28.40,16.67,0.00,0.00,0.00,29.79,1004.60,10.00,M,FEW,BKN,OVC,M,6500.00,9500.00,12000.00,M,M,M,M,M,M,M,M,77.00,KINS 032016Z AUTO 00000KT 10SM FEW065 BKN095 OVC120 25/M02 A2979 RMK AO2 LTG DSNT SE-S DZE1955DZB08E16 SLP046 $,M
LSV,2025-05-03 20:17,-115.0343,36.2362,570.00,87.80,30.20,12.64,270.00,11.00,0.00,29.71,1003.60,10.00,M,FEW,FEW,M,M,13000.00,16000.00,M,M,M,M,M,M,M,M,M,84.01,KLSV 032017Z 27011KT 10SM FEW130 FEW160 31/M01 A2971 RMK AO2A WSHFT 12 LTG DSNT W SLP036 $,M
VGT,2025-05-03 20:25,-115.1933,36.2111,667.00,82.00,38.00,20.79,220.00,21.00,0.00,29.77,M,9.00,37.00,FEW,FEW,M,M,2600.00,11000.00,M,M,M,M,M,M,37.00,230.00,2025-05-03 20:14,79.90,KVGT 032025Z 22021G37KT 9SM FEW026 FEW110 28/03 A2977 RMK AO2 PK WND 23037/2014 WSHFT 2005 LTG DSNT W T02780033,M
EKO,2025-05-03 20:30,-115.7860,40.8242,1367.00,63.00,48.00,57.99,250.00,8.00,0.07,29.89,M,10.00,20.00,FEW,SCT,BKN,M,2500.00,6000.00,8000.00,M,VCTS -RA,M,M,M,37.00,230.00,2025-05-03 20:00,63.00,KEKO 032030Z AUTO 25008G20KT 10SM VCTS -RA FEW025 SCT060 BKN080 17/09 A2989 RMK AO2 PK WND 23037/2000 LTG DSNT NW TSB1958E24 P0007 T01720089,M
LSV,2025-05-03 20:30,-115.0343,36.2362,570.00,84.20,33.80,16.39,250.00,25.00,0.00,29.71,1003.70,10.00,33.00,FEW,FEW,M,M,12000.00,14000.00,M,M,M,M,M,M,M,M,M,81.30,KLSV 032030Z 25025G33KT 10SM FEW120 FEW140 29/01 A2971 RMK LTG DSNT W SLP037 $,M
BVU,2025-05-03 20:35,-114.8611,35.9475,671.00,87.80,30.20,12.64,240.00,15.00,0.00,29.75,M,10.00,21.00,CLR,M,M,M,M,M,M,M,M,M,M,M,M,M,M,84.01,KBVU 032035Z AUTO 24015G21KT 10SM CLR 31/M01 A2975 RMK AO2,M
BAM,2025-05-03 20:35,-116.8743,40.5990,1382.36,62.60,44.60,51.72,110.00,17.00,0.00,29.88,M,10.00,21.00,BKN,BKN,M,M,9000.00,12000.00,M,M,M,M,M,M,M,M,M,62.60,KBAM 032035Z AUTO 11017G21KT 10SM BKN090 BKN120 17/07 A2988 RMK AO1,M
CXP,2025-05-03 20:35,-119.7326,39.1923,1431.00,66.20,26.60,22.33,240.00,7.00,0.00,29.91,M,10.00,14.00,CLR,M,M,M,M,M,M,M,M,M,M,M,M,M,M,66.20,KCXP 032035Z AUTO 24007G14KT 210V290 10SM CLR 19/M03 A2991 RMK AO2,M
RTS,2025-05-03 20:35,-119.8764,39.6682,1539.00,64.40,26.60,23.77,240.00,10.00,0.00,29.92,M,10.00,20.00,CLR,M,M,M,M,M,M,M,M,M,M,M,M,M,M,64.40,KRTS 032035Z AUTO 24010G20KT 10SM CLR 18/M03 A2992 RMK AO2,M
MEV,2025-05-03 20:35,-119.7500,38.9963,1441.42,64.40,32.00,29.63,310.00,5.00,0.00,29.89,M,10.00,M,CLR,M,M,M,M,M,M,M,M,M,M,M,M,M,M,64.40,KMEV 032035Z AUTO 31005KT 10SM CLR 18/00 A2989 RMK AO2,M
HTH,2025-05-03 20:35,-118.6315,38.5448,1282.89,62.60,41.00,45.04,350.00,15.00,0.00,29.88,M,10.00,22.00,SCT,M,M,M,10000.00,M,M,M,M,M,M,M,M,M,M,62.60,KHTH 032035Z AUTO 35015G22KT 10SM SCT100 17/05 A2988 RMK A01,M
TMT,2025-05-03 20:35,-117.1971,39.4643,1749.34,68.50,33.40,27.20,270.00,5.00,0.00,29.88,M,10.00,20.00,SCT,M,M,M,9000.00,M,M,M,M,M,M,M,M,M,M,68.50,KTMT 032035Z AUTO 27005G20KT 10SM SCT090 20/01 A2988 RMK AO2 T02030008,M
10U,2025-05-03 20:35,-116.1876,41.9532,1637.00,68.00,41.00,37.32,M,4.00,0.00,29.89,M,10.00,11.00,CLR,M,M,M,M,M,M,M,M,M,M,M,M,M,M,68.00,K10U 032035Z AUTO VRB04G11KT 10SM CLR 20/05 A2989 RMK AO2,M
LSV,2025-05-03 20:35,-115.0343,36.2362,570.00,84.20,33.80,16.39,250.00,25.00,0.00,29.71,1003.70,10.00,36.00,FEW,SCT,M,M,11000.00,14000.00,M,M,M,M,M,M,M,M,M,81.30,KLSV 032035Z 25025G36KT 10SM FEW110 SCT140 29/01 A2971 RMK LTG DSNT W SLP037 $,M
EKO,2025-05-03 20:39,-115.7860,40.8242,1367.00,66.00,46.00,48.43,270.00,14.00,0.07,29.88,M,10.00,19.00,FEW,SCT,M,M,4500.00,7500.00,M,M,M,M,M,M,37.00,230.00,2025-05-03 20:00,66.00,KEKO 032039Z AUTO 27014G19KT 10SM FEW045 SCT075 19/08 A2988 RMK AO2 PK WND 23037/2000 LTG DSNT NW RAE31 TSB1958E24 P0007 T01890078,M
ELY,2025-05-03 20:48,-114.8453,39.2950,1909.00,69.80,26.60,19.72,240.00,13.00,0.00,29.92,M,10.00,20.00,CLR,M,M,M,M,M,M,M,M,M,M,M,40.00,120.00,2025-05-03 20:10,69.80,KELY 032048Z AUTO 24013G20KT 10SM CLR 21/M03 A2992 RMK AO2 PK WND 12040/2010 WSHFT 2028 $,M
DRA,2025-05-03 20:53,-116.0278,36.6206,1009.00,84.00,31.00,14.74,210.00,18.00,0.00,29.78,1004.00,10.00,29.00,SCT,M,M,M,11000.00,M,M,M,M,M,M,M,31.00,210.00,2025-05-03 20:31,81.12,KDRA 032053Z AUTO 21018G29KT 10SM SCT110 29/M01 A2978 RMK AO2 PK WND 21031/2031 SLP040 T02891006 56020,M
ELY,2025-05-03 20:53,-114.8453,39.2950,1909.00,70.00,26.00,19.11,200.00,7.00,0.00,29.92,1006.10,10.00,23.00,CLR,M,M,M,M,M,M,M,M,M,M,M,40.00,120.00,2025-05-03 20:10,70.00,KELY 032053Z AUTO 20007G23KT 170V230 10SM CLR 21/M03 A2992 RMK AO2 PK WND 12040/2010 WSHFT 2028 SLP061 T02111033 56016 $,M
VGT,2025-05-03 20:53,-115.1933,36.2111,667.00,80.00,39.00,23.08,230.00,24.00,T,29.76,1007.30,10.00,36.00,FEW,M,M,M,10000.00,M,M,M,-RA,M,M,M,47.00,210.00,2025-05-03 20:29,78.78,KVGT 032053Z 23024G36KT 10SM -RA FEW100 27/04 A2976 RMK AO2 PK WND 21047/2029 WSHFT 2005 LTG DSNT W AND NW RAB53 SLP073 P0000 60000 T02670039 56020,M
LOL,2025-05-03 20:53,-118.5701,40.0684,1192.43,58.00,44.00,59.54,290.00,21.00,0.03,29.88,1009.90,10.00,34.00,FEW,BKN,BKN,M,2400.00,6000.00,7000.00,M,-RA,M,M,M,35.00,260.00,2025-05-03 20:31,58.00,KLOL 032053Z AUTO 29021G34KT 10SM -RA FEW024 BKN060 BKN070 14/07 A2988 RMK AO2 PK WND 26035/2031 LTG DSNT N AND NW RAB27 SLP099 P0003 60003 T01440067 55011,M
BVU,2025-05-03 20:55,-114.8611,35.9475,671.00,87.80,30.20,12.64,250.00,16.00,0.00,29.75,M,10.00,24.00,CLR,M,M,M,M,M,M,M,M,M,M,M,M,M,M,84.01,KBVU 032055Z AUTO 25016G24KT 10SM CLR 31/M01 A2975 RMK AO2,M
RNO,2025-05-03 20:55,-119.7711,39.4839,1341.00,69.00,26.00,19.77,280.00,17.00,0.00,29.86,1006.80,10.00,24.00,SCT,SCT,BKN,OVC,8500.00,12000.00,16000.00,21000.00,M,M,M,M,M,M,M,69.00,KRNO 032055Z 28017G24KT 10SM SCT085 SCT120 BKN160 OVC210 21/M03 A2986 RMK AO2 SLP068 T02061033 58021 $,M
BAM,2025-05-03 20:55,-116.8743,40.5990,1382.36,69.80,42.80,37.61,90.00,7.00,0.00,29.88,M,10.00,M,CLR,M,M,M,M,M,M,M,M,M,M,M,M,M,M,69.80,KBAM 032055Z AUTO 09007KT 10SM CLR 21/06 A2988 RMK AO1,M
CXP,2025-05-03 20:55,-119.7326,39.1923,1431.00,64.40,24.80,22.06,290.00,15.00,0.00,29.90,M,10.00,M,BKN,BKN,M,M,8500.00,11000.00,M,M,M,M,M,M,M,M,M,64.40,KCXP 032055Z AUTO 29015KT 10SM BKN085 BKN110 18/M04 A2990 RMK AO2,M
RTS,2025-05-03 20:55,-119.8764,39.6682,1539.00,62.60,28.40,27.27,280.00,8.00,0.00,29.91,M,10.00,20.00,SCT,M,M,M,7000.00,M,M,M,M,M,M,M,M,M,M,62.60,KRTS 032055Z AUTO 28008G20KT 10SM SCT070 17/M02 A2991 RMK AO2,M
MEV,2025-05-03 20:55,-119.7500,38.9963,1441.42,64.40,26.60,23.77,270.00,11.00,0.00,29.90,M,10.00,21.00,SCT,SCT,M,M,6500.00,7500.00,M,M,M,M,M,M,M,M,M,64.40,KMEV 032055Z AUTO 27011G21KT 10SM SCT065 SCT075 18/M03 A2990 RMK AO2,M
HTH,2025-05-03 20:55,-118.6315,38.5448,1282.89,62.60,39.20,42.00,350.00,19.00,0.00,29.87,M,10.00,25.00,FEW,M,M,M,10000.00,M,M,M,M,M,M,M,M,M,M,62.60,KHTH 032055Z AUTO 35019G25KT 10SM FEW100 17/04 A2987 RMK A01,M
TMT,2025-05-03 20:55,-117.1971,39.4643,1749.34,64.80,33.00,30.42,250.00,9.00,0.00,29.89,M,10.00,14.00,BKN,M,M,M,9000.00,M,M,M,M,M,M,M,M,M,M,64.80,KTMT 032055Z AUTO 25009G14KT 220V280 10SM BKN090 18/01 A2989 RMK AO2 T01820005,M
10U,2025-05-03 20:55,-116.1876,41.9532,1637.00,68.00,41.00,37.32,M,5.00,0.00,29.87,M,10.00,12.00,CLR,M,M,M,M,M,M,M,M,M,M,M,M,M,M,68.00,K10U 032055Z AUTO VRB05G12KT 10SM CLR 20/05 A2987 RMK AO2 LTG DSNT S-W,M
INS,2025-05-03 20:55,-115.6733,36.5872,955.00,78.00,31.00,17.93,110.00,21.00,T,29.80,1005.20,10.00,26.00,OVC,M,M,M,11000.00,M,M,M,M,M,M,M,M,M,M,78.00,KINS 032055Z AUTO 11021G26KT 10SM OVC110 26/M00 A2980 RMK AO2 LTG DSNT S-SW DZB08E16 SLP052 P0000 60000 T02561005 55012 $,M
LSV,2025-05-03 20:55,-115.0343,36.2362,570.00,84.00,34.30,16.83,250.00,18.00,0.00,29.71,1003.70,10.00,M,FEW,SCT,M,M,10000.00,14000.00,M,M,M,M,M,M,36.00,260.00,2025-05-03 20:33,81.16,KLSV 032055Z 25018KT 10SM FEW100 SCT140CB 29/01 A2971 RMK AO2A PK WND 26036/33 LTG DSNT W SLP037 T02880013 56020 $,M
EKO,2025-05-03 20:56,-115.7860,40.8242,1367.00,67.00,42.00,40.15,280.00,12.00,0.07,29.87,1008.20,10.00,22.00,CLR,M,M,M,M,M,M,M,M,M,M,M,37.00,230.00,2025-05-03 20:00,67.00,KEKO 032056Z AUTO 28012G22KT 10SM CLR 19/06 A2987 RMK AO2 PK WND 23037/2000 RAE31 TSB1958E24 SLP082 P0007 60007 T01940056 55013,M
WMC,2025-05-03 20:56,-117.8072,40.9019,1315.00,63.00,44.00,49.84,M,M,T,29.88,1008.90,10.00,M,FEW,M,M,M,10000.00,M,M,M,M,M,M,M,M,M,M,63.00,KWMC 032056Z AUTO 10SM FEW100 17/07 A2988 RMK AO2 RAE21 SLP089 P0000 60003 T01720067 58018,M
HND,2025-05-03 20:56,-115.1344,35.9729,742.79,81.00,33.00,17.61,240.00,17.00,T,29.80,1008.30,10.00,34.00,FEW,M,M,M,1300.00,M,M,M,-RA,M,M,M,34.00,230.00,2025-05-03 20:50,79.10,KHND 032056Z 24017G34KT 200V270 10SM -RA FEW013 27/01 A2980 RMK AO2 PK WND 23034/2050 WSHFT 2041 LTG DSNT NW RAB52 SLP083 P0000 60000 T02720006 56014 $,M
TPH,2025-05-03 20:56,-117.0904,38.0505,1654.00,65.00,34.00,31.44,230.00,22.00,T,29.89,1007.70,10.00,39.00,FEW,BKN,M,M,5500.00,9500.00,M,M,M,M,M,M,39.00,230.00,2025-05-03 20:50,65.00,KTPH 032056Z AUTO 23022G39KT 10SM FEW055 BKN095 18/01 A2989 RMK AO2 PK WND 23039/2050 LTG DSNT E RAB41E55 SLP077 P0000 60000 T01830011 56013 $,M
LAS,2025-05-03 20:56,-115.1634,36.0719,663.00,76.00,41.00,28.47,260.00,20.00,0.00,29.80,1007.00,10.00,33.00,FEW,BKN,M,M,8000.00,11000.00,M,M,M,M,M,M,47.00,220.00,2025-05-03 20:14,76.00,KLAS 032056Z 26020G33KT 10SM FEW080 BKN110 24/05 A2980 RMK AO2 PK WND 22047/2014 LTG DSNT W AND NW SLP070 CB DSNT W-NW VCSH 60003 T02440050 55010,M
NFL,2025-05-03 20:57,-118.7010,39.4166,1199.00,62.00,45.00,53.63,280.00,11.00,T,29.89,1009.60,10.00,M,FEW,BKN,BKN,M,3600.00,7000.00,12000.00,M,-RA,M,M,M,M,M,M,62.00,KNFL 032057Z AUTO 28011KT 10SM -RA FEW036 BKN070 BKN120 17/07 A2989 RMK AO2 RAE02B43 SLP096 P0000 60000 T01670072 55008,M
RTS,2025-05-03 21:05,-119.8764,39.6682,1539.00,64.40,26.60,23.77,270.00,15.00,0.00,29.92,M,10.00,M,SCT,M,M,M,7000.00,M,M,M,M,M,M,M,M,M,M,64.40,KRTS 032105Z AUTO 27015KT 10SM SCT070 18/M03 A2992 RMK AO2,M
MEV,2025-05-03 21:05,-119.7500,38.9963,1441.42,64.40,26.60,23.77,250.00,14.00,0.00,29.90,M,10.00,23.00,SCT,SCT,M,M,6500.00,7500.00,M,M,M,M,M,M,M,M,M,64.40,KMEV 032105Z AUTO 25014G23KT 10SM SCT065 SCT075 18/M03 A2990 RMK AO2,M
INS,2025-05-03 21:08,-115.6733,36.5872,955.00,75.20,42.80,31.34,110.00,24.00,0.00,29.81,1005.50,9.00,28.00,FEW,OVC,M,M,4100.00,11000.00,M,M,-RA,M,M,M,M,M,M,75.20,KINS 032108Z AUTO 11024G28KT 9SM -RA FEW041 OVC110 24/06 A2981 RMK AO2 LTG DSNT S-SW RAB08 SLP055 $,M
INS,2025-05-03 21:11,-115.6733,36.5872,955.00,71.60,44.60,37.89,130.00,20.00,0.00,29.81,1005.70,9.00,28.00,FEW,OVC,M,M,4100.00,11000.00,M,M,-VCTSRA,M,M,M,M,M,M,71.60,KINS 032111Z AUTO 13020G28KT 9SM -VCTSRA FEW041 OVC110 22/07 A2981 RMK AO2 LTG DSNT S RAE2055RAB08 SLP057 $,M
HND,2025-05-03 21:12,-115.1344,35.9729,742.79,78.80,39.20,24.19,290.00,18.00,T,29.79,M,10.00,23.00,CLR,M,M,M,M,M,M,M,M,M,M,M,26.00,280.00,2025-05-03 20:59,78.80,KHND 032112Z 29018G23KT 10SM CLR 26/04 A2979 RMK AO2 PK WND 28026/2059 WSHFT 2052 RAE02 P0000 $,M
BVU,2025-05-03 21:15,-114.8611,35.9475,671.00,86.00,30.20,13.38,270.00,11.00,0.00,29.74,M,10.00,19.00,CLR,M,M,M,M,M,M,M,M,M,M,M,M,M,M,82.64,KBVU 032115Z AUTO 27011G19KT 10SM CLR 30/M01 A2974 RMK AO2,M
BAM,2025-05-03 21:15,-116.8743,40.5990,1382.36,68.00,41.00,37.32,20.00,11.00,0.00,29.87,M,10.00,M,SCT,M,M,M,10000.00,M,M,M,M,M,M,M,M,M,M,68.00,KBAM 032115Z AUTO 02011KT 10SM SCT100 20/05 A2987 RMK AO1,M
CXP,2025-05-03 21:15,-119.7326,39.1923,1431.00,64.40,24.80,22.06,290.00,9.00,0.00,29.90,M,10.00,17.00,OVC,M,M,M,8500.00,M,M,M,VCTS,M,M,M,M,M,M,64.40,KCXP 032115Z AUTO 29009G17KT 10SM VCTS OVC085 18/M04 A2990 RMK AO2 LTG DSNT SW,M
HTH,2025-05-03 21:15,-118.6315,38.5448,1282.89,60.80,39.20,44.76,350.00,12.00,0.00,29.89,M,10.00,18.00,FEW,SCT,BKN,M,5500.00,7000.00,8500.00,M,M,M,M,M,M,M,M,60.80,KHTH 032115Z AUTO 35012G18KT 10SM FEW055 SCT070 BKN085 16/04 A2989 RMK A01,M
TMT,2025-05-03 21:15,-117.1971,39.4643,1749.34,53.80,41.70,63.47,170.00,20.00,0.00,29.95,M,10.00,37.00,SCT,BKN,OVC,M,5000.00,6500.00,9000.00,M,-RA,M,M,M,M,M,M,53.80,KTMT 032115Z AUTO 17020G37KT 10SM -RA SCT050 BKN065 OVC090 12/05 A2995 RMK AO2 T01210054,M
10U,2025-05-03 21:15,-116.1876,41.9532,1637.00,66.20,39.20,37.03,350.00,9.00,0.00,29.86,M,10.00,M,FEW,M,M,M,12000.00,M,M,M,VCTS,M,M,M,M,M,M,66.20,K10U 032115Z AUTO 35009KT 10SM VCTS FEW120 19/04 A2986 RMK AO2 LTG DSNT SW AND W,M
INS,2025-05-03 21:18,-115.6733,36.5872,955.00,73.40,39.20,28.96,140.00,21.00,0.00,29.83,1006.20,10.00,M,FEW,OVC,M,M,4000.00,10000.00,M,M,TS,M,M,M,M,M,M,73.40,KINS 032118Z AUTO 14021KT 10SM TS FEW040 OVC100 23/04 A2983 RMK AO2 RAB08E12 TSB18 PRESRR SLP062 $,M
INS,2025-05-03 21:23,-115.6733,36.5872,955.00,73.40,37.40,26.98,160.00,21.00,0.00,29.83,1006.20,10.00,28.00,FEW,OVC,M,M,4000.00,10000.00,M,M,TS,M,M,M,M,M,M,73.40,KINS 032123Z AUTO 16021G28KT 10SM TS FEW040 OVC100 23/03 A2983 RMK AO2 WSHFT 09 RAB08E12 TSE2055TSB18 SLP062 $,M
P68,2025-05-03 21:25,-116.0056,39.6014,1993.00,62.00,36.00,37.83,220.00,16.00,0.00,29.92,M,M,28.00,M,M,M,M,M,M,M,M,M,M,M,M,30.00,200.00,2025-05-03 21:12,62.00,KP68 032125Z AUTO 22016G28KT 17/02 A2992 RMK AO1 PK WND 20030/2112 WSHFT 2108 T01670022 $,M
INS,2025-05-03 21:30,-115.6733,36.5872,955.00,71.60,41.00,33.00,160.00,23.00,0.00,29.84,1006.80,9.00,32.00,FEW,FEW,OVC,M,5000.00,8000.00,10000.00,M,-TSRA,M,M,M,M,M,M,71.60,KINS 032130Z AUTO 16023G32KT 9SM -TSRA FEW050 FEW080 OVC100 22/05 A2984 RMK AO2 RAB08E12RAB30 TSE2055TSB18 SLP068 $,M
BVU,2025-05-03 21:35,-114.8611,35.9475,671.00,84.20,32.00,15.25,250.00,16.00,0.00,29.73,M,10.00,M,CLR,M,M,M,M,M,M,M,M,M,M,M,M,M,M,81.28,KBVU 032135Z AUTO 25016KT 10SM CLR 29/M00 A2973 RMK AO2,M
INS,2025-05-03 21:35,-115.6733,36.5872,955.00,69.80,42.80,37.61,150.00,21.00,0.00,29.84,1006.80,10.00,32.00,SCT,OVC,M,M,6000.00,10000.00,M,M,TS,M,M,M,M,M,M,69.80,KINS 032135Z AUTO 15021G32KT 10SM TS SCT060 OVC100 21/06 A2984 RMK AO2 VIS 2 3/4 RWY08 RAE2055RAB08E12RAB30E35 TSE2055TSB18 SLP068 $,M
DRA,2025-05-03 21:35,-116.0278,36.6206,1009.00,74.00,36.00,25.02,140.00,23.00,0.00,29.79,M,7.00,60.00,FEW,BKN,M,M,9000.00,11000.00,M,M,M,M,M,M,60.00,130.00,2025-05-03 21:29,74.00,KDRA 032135Z AUTO 14023G60KT 7SM FEW090 BKN110 23/02 A2979 RMK AO2 PK WND 13060/2129 WSHFT 2118 T02330022,M
BAM,2025-05-03 21:35,-116.8743,40.5990,1382.36,68.00,42.80,40.00,340.00,16.00,0.00,29.86,M,10.00,22.00,SCT,M,M,M,10000.00,M,M,M,M,M,M,M,M,M,M,68.00,KBAM 032135Z AUTO 34016G22KT 10SM SCT100 20/06 A2986 RMK AO1,M
CXP,2025-05-03 21:35,-119.7326,39.1923,1431.00,64.40,24.80,22.06,250.00,7.00,0.00,29.91,M,10.00,15.00,FEW,FEW,OVC,M,6000.00,7000.00,8500.00,M,M,M,M,M,M,M,M,64.40,KCXP 032135Z AUTO 25007G15KT 200V290 10SM FEW060 FEW070 OVC085 18/M04 A2991 RMK AO2,M
RTS,2025-05-03 21:35,-119.8764,39.6682,1539.00,62.60,26.60,25.32,290.00,14.00,0.00,29.90,M,10.00,M,SCT,SCT,M,M,7500.00,8500.00,M,M,M,M,M,M,M,M,M,62.60,KRTS 032135Z AUTO 29014KT 10SM SCT075 SCT085 17/M03 A2990 RMK AO2,M
MEV,2025-05-03 21:35,-119.7500,38.9963,1441.42,60.80,33.80,36.16,220.00,8.00,0.00,29.92,M,10.00,M,FEW,SCT,BKN,M,4300.00,5500.00,7000.00,M,M,M,M,M,M,M,M,60.80,KMEV 032135Z AUTO 22008KT 10SM FEW043 SCT055 BKN070 16/01 A2992 RMK AO2,M
HTH,2025-05-03 21:35,-118.6315,38.5448,1282.89,59.00,44.60,58.77,350.00,13.00,0.00,29.88,M,6.00,19.00,FEW,SCT,BKN,M,3300.00,5500.00,8500.00,M,HZ,M,M,M,M,M,M,59.00,KHTH 032135Z AUTO 35013G19KT 6SM HZ FEW033 SCT055 BKN085 15/07 A2988 RMK A01,M
TMT,2025-05-03 21:35,-117.1971,39.4643,1749.34,49.30,45.70,87.34,200.00,8.00,0.00,29.97,M,5.00,12.00,BKN,BKN,OVC,M,4300.00,4900.00,6500.00,M,RA,M,M,M,M,M,M,45.42,KTMT 032135Z AUTO 20008G12KT 5SM RA BKN043 BKN049 OVC065 10/08 A2997 RMK AO2 T00960076,M
10U,2025-05-03 21:35,-116.1876,41.9532,1637.00,64.40,42.80,45.32,340.00,8.00,0.00,29.86,M,10.00,M,FEW,SCT,BKN,M,5000.00,7000.00,9000.00,M,VCTS RA,M,M,M,M,M,M,64.40,K10U 032135Z AUTO 34008KT 10SM VCTS RA FEW050 SCT070 BKN090 18/06 A2986 RMK AO2 LTG DSNT ALQDS,M
INS,2025-05-03 21:36,-115.6733,36.5872,955.00,69.80,42.80,37.61,150.00,19.00,0.00,29.85,1007.10,9.00,32.00,SCT,OVC,M,M,6500.00,10000.00,M,M,-TSRA,M,M,M,M,M,M,69.80,KINS 032136Z AUTO 15019G32KT 9SM -TSRA SCT065 OVC100 21/06 A2985 RMK AO2 RAB08E12RAB30E35RAB36 TSE2055TSB18 SLP071 $,M
INS,2025-05-03 21:37,-115.6733,36.5872,955.00,68.00,42.80,40.00,150.00,18.00,0.00,29.85,1007.30,9.00,32.00,SCT,OVC,M,M,6500.00,10000.00,M,M,-VCTSRA,M,M,M,M,M,M,68.00,KINS 032137Z AUTO 15018G32KT 9SM -VCTSRA SCT065 OVC100 20/06 A2985 RMK AO2 LTG DSNT W-NW RAB08E12RAB30E35RAB36E37 TSE2055TSB18E37 SLP073 $,M
INS,2025-05-03 21:44,-115.6733,36.5872,955.00,68.00,42.80,40.00,140.00,22.00,0.00,29.86,1007.70,10.00,27.00,FEW,OVC,M,M,7000.00,9000.00,M,M,-RA,M,M,M,M,M,M,68.00,KINS 032144Z AUTO 14022G27KT 10SM -RA FEW070 OVC090 20/06 A2986 RMK AO2 LTG DSNT W-NW RAB08E12RAB30E35RAB36E37RAB44 TSB18E37 SLP077 $,M
RTS,2025-05-03 21:45,-119.8764,39.6682,1539.00,62.60,28.40,27.27,300.00,12.00,0.00,29.90,M,10.00,18.00,SCT,SCT,M,M,7500.00,9000.00,M,M,M,M,M,M,M,M,M,62.60,KRTS 032145Z AUTO 30012G18KT 260V320 10SM SCT075 SCT090 17/M02 A2990 RMK AO2,M
ELY,2025-05-03 21:48,-114.8453,39.2950,1909.00,57.20,37.40,47.44,100.00,16.00,T,29.93,M,9.00,35.00,OVC,M,M,M,9000.00,M,M,M,-TSRA,M,M,M,44.00,110.00,2025-05-03 21:38,57.20,KELY 032148Z AUTO 10016G35KT 9SM -TSRA OVC090 14/03 A2993 RMK AO2 PK WND 11044/2138 WSHFT 2129 LTG DSNT NW RAB20 TSB48 P0000 $,M
ELY,2025-05-03 21:49,-114.8453,39.2950,1909.00,57.00,38.00,48.93,90.00,16.00,T,29.92,1008.30,9.00,35.00,SCT,OVC,M,M,8000.00,10000.00,M,M,-TSRA,M,M,M,44.00,110.00,2025-05-03 21:38,57.00,KELY 032149Z AUTO 09016G35KT 9SM -TSRA SCT080 OVC100 14/03 A2992 RMK AO2 PK WND 11044/2138 WSHFT 2129 LTG DSNT NW RAB20 TSB48 SLP083 P0000 T01390033 $,M
P68,2025-05-03 21:53,-116.0056,39.6014,1993.00,62.00,35.00,36.35,230.00,8.00,0.00,29.90,1007.00,M,M,M,M,M,M,M,M,M,M,M,M,M,M,30.00,200.00,2025-05-03 21:12,62.00,KP68 032153Z AUTO 23008KT 17/02 A2990 RMK AO1 PK WND 20030/2112 WSHFT 2108 SLP070 T01670017 $,M
DRA,2025-05-03 21:53,-116.0278,36.6206,1009.00,74.00,34.00,23.11,90.00,16.00,T,29.78,1004.60,10.00,34.00,FEW,SCT,OVC,M,5000.00,7000.00,10000.00,M,M,M,M,M,60.00,130.00,2025-05-03 21:29,74.00,KDRA 032153Z AUTO 09016G34KT 10SM FEW050 SCT070 OVC100 23/01 A2978 RMK AO2 PK WND 13060/2129 WSHFT 2118 RAB43E52 SLP046 P0000 T02330011,M
VGT,2025-05-03 21:53,-115.1933,36.2111,667.00,81.00,37.00,20.65,260.00,16.00,T,29.74,1006.70,10.00,26.00,FEW,M,M,M,4700.00,M,M,M,M,M,M,M,41.00,270.00,2025-05-03 21:21,79.24,KVGT 032153Z 26016G26KT 10SM FEW047 27/03 A2974 RMK AO2 PK WND 27041/2121 RAE03 SLP067 P0000 T02720028,M
LOL,2025-05-03 21:53,-118.5701,40.0684,1192.43,61.00,40.00,45.85,30.00,6.00,T,29.88,1009.50,10.00,M,BKN,OVC,M,M,6500.00,8500.00,M,M,M,M,M,M,27.00,300.00,2025-05-03 20:54,61.00,KLOL 032153Z AUTO 03006KT 10SM BKN065 OVC085 16/04 A2988 RMK AO2 PK WND 30027/2054 RAE2054 SLP095 P0000 T01610044,M
BVU,2025-05-03 21:55,-114.8611,35.9475,671.00,82.40,37.40,20.04,M,4.00,0.00,29.72,M,8.00,10.00,FEW,SCT,BKN,M,3700.00,7500.00,12000.00,M,-RA,M,M,M,M,M,M,80.14,KBVU 032155Z AUTO VRB04G10KT 8SM -RA FEW037 SCT075 BKN120 28/03 A2972 RMK AO2,M
RNO,2025-05-03 21:55,-119.7711,39.4839,1341.00,68.00,27.00,21.33,320.00,12.00,0.00,29.86,1006.80,10.00,19.00,BKN,BKN,OVC,M,8500.00,13000.00,18000.00,M,M,M,M,M,35.00,290.00,2025-05-03 21:08,68.00,KRNO 032155Z 32012G19KT 10SM BKN085 BKN130 OVC180 20/M03 A2986 RMK AO2 PK WND 29035/2108 SLP068 VIRGA T02001028 $,M
BAM,2025-05-03 21:55,-116.8743,40.5990,1382.36,68.00,42.80,40.00,360.00,18.00,0.00,29.85,M,10.00,24.00,CLR,M,M,M,M,M,M,M,M,M,M,M,M,M,M,68.00,KBAM 032155Z AUTO 36018G24KT 10SM CLR 20/06 A2985 RMK AO1,M
CXP,2025-05-03 21:55,-119.7326,39.1923,1431.00,64.40,26.60,23.77,200.00,13.00,0.00,29.92,M,10.00,20.00,FEW,BKN,M,M,7000.00,8000.00,M,M,M,M,M,M,M,M,M,64.40,KCXP 032155Z AUTO 20013G20KT 10SM FEW070 BKN080 18/M03 A2992 RMK AO2,M
MEV,2025-05-03 21:55,-119.7500,38.9963,1441.42,60.80,30.20,31.28,240.00,10.00,0.00,29.92,M,10.00,M,FEW,FEW,SCT,M,5500.00,7000.00,8500.00,M,M,M,M,M,M,M,M,60.80,KMEV 032155Z AUTO 24010KT 10SM FEW055 FEW070 SCT085 16/M01 A2992 RMK AO2,M
HTH,2025-05-03 21:55,-118.6315,38.5448,1282.89,59.00,42.80,54.86,360.00,13.00,0.00,29.90,M,10.00,18.00,SCT,BKN,BKN,M,5000.00,6500.00,7500.00,M,M,M,M,M,M,M,M,59.00,KHTH 032155Z AUTO 36013G18KT 10SM SCT050 BKN065 BKN075 15/06 A2990 RMK A01,M
TMT,2025-05-03 21:55,-117.1971,39.4643,1749.34,49.50,46.60,89.69,50.00,5.00,0.00,29.93,M,10.00,M,SCT,BKN,OVC,M,4200.00,5000.00,7000.00,M,-RA,M,M,M,M,M,M,47.18,KTMT 032155Z AUTO 05005KT 10SM -RA SCT042 BKN050 OVC070 10/08 A2993 RMK AO2 T00970081,M
10U,2025-05-03 21:55,-116.1876,41.9532,1637.00,60.80,42.80,51.45,210.00,11.00,0.00,29.91,M,10.00,20.00,FEW,BKN,OVC,M,5000.00,6500.00,7500.00,M,VCTS,M,M,M,M,M,M,60.80,K10U 032155Z AUTO 21011G20KT 180V250 10SM VCTS FEW050 BKN065 OVC075 16/06 A2991 RMK AO2 LTG DSNT ALQDS,M
INS,2025-05-03 21:55,-115.6733,36.5872,955.00,66.70,43.50,42.98,130.00,21.00,0.03,29.86,1007.90,10.00,26.00,BKN,OVC,M,M,7000.00,8500.00,M,M,-RA,M,M,M,35.00,170.00,2025-05-03 21:19,66.70,KINS 032155Z AUTO 13021G26KT 10SM -RA BKN070 OVC085 19/06 A2986 RMK AO2 PK WND 17035/19 LTG DSNT NW RAE2055RAB08E12RAB30E35RAB36E37RAB44E48DZB48E52RAB52 TSB18E37 SLP079 P0003 T01930064 $,M
LSV,2025-05-03 21:55,-115.0343,36.2362,570.00,84.00,33.00,15.98,270.00,16.00,0.00,29.69,1003.00,10.00,24.00,SCT,BKN,M,M,15000.00,25000.00,M,M,M,M,M,M,33.00,240.00,2025-05-03 21:10,81.14,KLSV 032155Z COR AUTO 27016G24KT 10SM SCT150CB BKN250 29/01 A2969 RMK AO2 PK WND 24033/10 LTG DSNT SE SLP030 T02890005 $ COR 2203,M
EKO,2025-05-03 21:56,-115.7860,40.8242,1367.00,67.00,36.00,31.76,240.00,9.00,0.00,29.85,1007.80,10.00,M,CLR,M,M,M,M,M,M,M,M,M,M,M,M,M,M,67.00,KEKO 032156Z AUTO 24009KT 10SM CLR 19/02 A2985 RMK AO2 SLP078 T01940022,M
WMC,2025-05-03 21:56,-117.8072,40.9019,1315.00,63.00,38.00,39.51,30.00,6.00,0.00,29.87,1008.80,10.00,M,FEW,SCT,BKN,M,7500.00,9000.00,11000.00,M,M,M,M,M,M,M,M,63.00,KWMC 032156Z AUTO 03006KT 10SM FEW075 SCT090 BKN110 17/03 A2987 RMK AO2 LTG DSNT SE AND S SLP088 T01720033,M
HND,2025-05-03 21:56,-115.1344,35.9729,742.79,79.00,38.00,22.93,260.00,11.00,T,29.80,1008.20,10.00,M,BKN,M,M,M,11000.00,M,M,M,M,M,M,M,27.00,280.00,2025-05-03 21:22,79.00,KHND 032156Z 26011KT 10SM BKN110 26/03 A2980 RMK AO2 PK WND 28027/2122 WSHFT 2052 RAE02 SLP082 P0000 T02610033 $,M
TPH,2025-05-03 21:56,-117.0904,38.0505,1654.00,64.00,30.00,27.71,210.00,18.00,0.00,29.87,1007.30,10.00,31.00,FEW,BKN,OVC,M,4800.00,8000.00,10000.00,M,M,M,M,M,34.00,230.00,2025-05-03 20:59,64.00,KTPH 032156Z AUTO 21018G31KT 10SM FEW048 BKN080 OVC100 18/M01 A2987 RMK AO2 PK WND 23034/2059 SLP073 T01781011 $,M
LAS,2025-05-03 21:56,-115.1634,36.0719,663.00,79.00,39.00,23.85,270.00,18.00,0.00,29.76,1005.80,10.00,26.00,FEW,SCT,BKN,M,8000.00,10000.00,15000.00,M,M,M,M,M,34.00,280.00,2025-05-03 21:22,79.00,KLAS 032156Z 27018G26KT 10SM FEW080 SCT100 BKN150 26/04 A2976 RMK AO2 PK WND 28034/2122 SLP058 CB DSNT SE-SW AND W-NW SH DSNT SE-SW AND W-NW T02610039,M
ELY,2025-05-03 21:56,-114.8453,39.2950,1909.00,57.00,38.00,48.93,60.00,14.00,T,29.91,M,10.00,21.00,SCT,OVC,M,M,7500.00,9500.00,M,M,-TSRA,M,M,M,M,M,M,57.00,KELY 032156Z AUTO 06014G21KT 10SM -TSRA SCT075 OVC095 14/03 A2991 RMK AO2 WSHFT 2136 P0000 T01390033 $,M
NFL,2025-05-03 21:57,-118.7010,39.4166,1199.00,63.00,39.00,41.09,260.00,8.00,T,29.88,1009.20,10.00,M,FEW,BKN,M,M,8000.00,10000.00,M,M,M,M,M,M,M,M,M,63.00,KNFL 032157Z AUTO 26008KT 10SM FEW080 BKN100 17/04 A2988 RMK AO2 RAE2058 SLP092 P0000 T01720039,M
INS,2025-05-03 22:01,-115.6733,36.5872,955.00,66.20,44.60,45.60,100.00,16.00,0.00,29.84,1007.20,10.00,26.00,BKN,M,M,M,6500.00,M,M,M,-RA,M,M,M,M,M,M,66.20,KINS 032201Z AUTO 10016G26KT 10SM -RA BKN065 19/07 A2984 RMK AO2 WSHFT 2148 LTG DSNT NW PRESFR SLP072 $,M
INS,2025-05-03 22:06,-115.6733,36.5872,955.00,66.20,42.80,42.57,50.00,13.00,0.00,29.82,1006.50,8.00,24.00,OVC,M,M,M,6500.00,M,M,M,-RA,M,M,M,M,M,M,66.20,KINS 032206Z AUTO 05013G24KT 8SM -RA OVC065 19/06 A2982 RMK AO2 WSHFT 02 LTG DSNT NW PRESFR SLP065 $,M
ELY,2025-05-03 22:07,-114.8453,39.2950,1909.00,58.00,36.00,43.62,40.00,9.00,T,29.91,M,10.00,M,BKN,OVC,M,M,8000.00,9500.00,M,M,VCTS -RA,M,M,M,M,M,M,58.00,KELY 032207Z AUTO 04009KT 10SM VCTS -RA BKN080 OVC095 14/02 A2991 RMK AO2 WSHFT 2150 TSE07 P0000 T01440022 $,M
HND,2025-05-03 22:07,-115.1344,35.9729,742.79,75.20,42.80,31.34,240.00,16.00,T,29.80,M,10.00,31.00,FEW,SCT,OVC,M,1800.00,8500.00,11000.00,M,-RA,M,M,M,31.00,220.00,2025-05-03 22:00,75.20,KHND 032207Z 24016G31KT 10SM -RA FEW018 SCT085 OVC110 24/06 A2980 RMK AO2 PK WND 22031/2200 WSHFT 2147 RAB01 P0000 $,M
LSV,2025-05-03 22:10,-115.0343,36.2362,570.00,82.40,32.00,16.17,230.00,28.00,0.00,29.69,1003.10,10.00,38.00,BKN,BKN,M,M,15000.00,25000.00,M,M,-SHRA,M,M,M,M,M,M,80.00,KLSV 032210Z 23028G38KT 10SM -SHRA BKN150CB BKN250 28/00 A2969 RMK AO2A WSHFT 2159 SLP031 $,M
BVU,2025-05-03 22:15,-114.8611,35.9475,671.00,77.00,44.60,31.62,310.00,15.00,0.00,29.72,M,4.00,23.00,FEW,SCT,BKN,M,4200.00,7000.00,12000.00,M,-RA,M,M,M,M,M,M,77.00,KBVU 032215Z AUTO 31015G23KT 4SM -RA FEW042 SCT070 BKN120 25/07 A2972 RMK AO2,M
BAM,2025-05-03 22:15,-116.8743,40.5990,1382.36,66.20,42.80,42.57,340.00,18.00,0.00,29.84,M,10.00,25.00,CLR,M,M,M,M,M,M,M,M,M,M,M,M,M,M,66.20,KBAM 032215Z AUTO 34018G25KT 10SM CLR 19/06 A2984 RMK AO1,M
CXP,2025-05-03 22:15,-119.7326,39.1923,1431.00,64.40,26.60,23.77,220.00,7.00,0.00,29.91,M,10.00,13.00,BKN,M,M,M,8000.00,M,M,M,M,M,M,M,M,M,M,64.40,KCXP 032215Z AUTO 22007G13KT 180V240 10SM BKN080 18/M03 A2991 RMK AO2,M
RTS,2025-05-03 22:15,-119.8764,39.6682,1539.00,62.60,28.40,27.27,300.00,14.00,0.00,29.90,M,10.00,22.00,FEW,M,M,M,7500.00,M,M,M,M,M,M,M,M,M,M,62.60,KRTS 032215Z AUTO 30014G22KT 10SM FEW075 17/M02 A2990 RMK AO2,M
MEV,2025-05-03 22:15,-119.7500,38.9963,1441.42,60.80,32.00,33.64,200.00,11.00,0.00,29.91,M,10.00,M,FEW,M,M,M,8500.00,M,M,M,M,M,M,M,M,M,M,60.80,KMEV 032215Z AUTO 20011KT 10SM FEW085 16/00 A2991 RMK AO2,M
HTH,2025-05-03 22:15,-118.6315,38.5448,1282.89,57.20,44.60,62.69,20.00,12.00,0.00,29.90,M,4.00,17.00,SCT,OVC,M,M,3400.00,5000.00,M,M,HZ,M,M,M,M,M,M,57.20,KHTH 032215Z AUTO 02012G17KT 4SM HZ SCT034 OVC050 14/07 A2990 RMK A01,M
TMT,2025-05-03 22:15,-117.1971,39.4643,1749.34,51.30,46.00,82.01,10.00,6.00,0.00,29.90,M,10.00,M,SCT,SCT,BKN,M,6000.00,6500.00,7500.00,M,M,M,M,M,M,M,M,51.30,KTMT 032215Z AUTO 01006KT 10SM SCT060 SCT065 BKN075 11/08 A2990 RMK AO2 T01070078,M
10U,2025-05-03 22:15,-116.1876,41.9532,1637.00,51.80,44.60,76.34,200.00,18.00,0.00,29.93,M,5.00,24.00,FEW,SCT,BKN,M,2600.00,5000.00,6500.00,M,VCTS RA,M,M,M,M,M,M,51.80,K10U 032215Z AUTO 20018G24KT 5SM VCTS RA FEW026 SCT050 BKN065 11/07 A2993 RMK AO2 LTG DSNT ALQDS,M
INS,2025-05-03 22:18,-115.6733,36.5872,955.00,68.00,41.00,37.32,10.00,5.00,0.00,29.81,1006.10,10.00,M,FEW,SCT,OVC,M,5000.00,6500.00,11000.00,M,M,M,M,M,M,M,M,68.00,KINS 032218Z AUTO 01005KT 10SM FEW050 SCT065 OVC110 20/05 A2981 RMK AO2 RAE18 SLP061 $,M
LSV,2025-05-03 22:18,-115.0343,36.2362,570.00,82.40,30.20,15.03,260.00,13.00,0.00,29.68,1002.80,10.00,38.00,BKN,BKN,M,M,15000.00,25000.00,M,M,M,M,M,M,M,M,M,79.97,KLSV 032218Z 26013G38KT 10SM BKN150CB BKN250 28/M01 A2968 RMK AO2A SHRAE2155 SLP028 $,M
ELY,2025-05-03 22:23,-114.8453,39.2950,1909.00,60.00,34.00,37.50,230.00,10.00,T,29.91,M,10.00,17.00,FEW,BKN,OVC,M,6000.00,8000.00,9500.00,M,-RA,M,M,M,M,M,M,60.00,KELY 032223Z AUTO 23010G17KT 10SM -RA FEW060 BKN080 OVC095 16/01 A2991 RMK AO2 WSHFT 2150 LTG DSNT NW TSE07 P0000 T01560011 $,M
NFL,2025-05-03 22:30,-118.7010,39.4166,1199.00,57.00,43.00,59.40,290.00,8.00,0.03,29.89,M,2.50,15.00,FEW,OVC,M,M,4100.00,6500.00,M,M,-RA,M,M,M,M,M,M,57.00,KNFL 032230Z AUTO 29008G15KT 2 1/2SM -RA FEW041 OVC065 14/06 A2989 RMK AO2 RAB22 P0003 T01390061,M
BVU,2025-05-03 22:35,-114.8611,35.9475,671.00,78.80,41.00,25.95,310.00,13.00,0.00,29.71,M,10.00,23.00,FEW,M,M,M,12000.00,M,M,M,M,M,M,M,M,M,M,78.80,KBVU 032235Z AUTO 31013G23KT 10SM FEW120 26/05 A2971 RMK AO2,M
BAM,2025-05-03 22:35,-116.8743,40.5990,1382.36,66.20,42.80,42.57,330.00,20.00,0.00,29.84,M,10.00,23.00,SCT,BKN,M,M,9500.00,11000.00,M,M,M,M,M,M,M,M,M,66.20,KBAM 032235Z AUTO 33020G23KT 10SM SCT095 BKN110 19/06 A2984 RMK AO1,M
CXP,2025-05-03 22:35,-119.7326,39.1923,1431.00,62.60,33.80,33.93,220.00,9.00,0.00,29.91,M,10.00,23.00,FEW,SCT,BKN,M,4900.00,6000.00,8000.00,M,M,M,M,M,M,M,M,62.60,KCXP 032235Z AUTO 22009G23KT 10SM FEW049 SCT060 BKN080 17/01 A2991 RMK AO2,M
RTS,2025-05-03 22:35,-119.8764,39.6682,1539.00,60.80,28.40,29.06,330.00,12.00,0.00,29.89,M,10.00,18.00,SCT,M,M,M,7000.00,M,M,M,M,M,M,M,M,M,M,60.80,KRTS 032235Z AUTO 33012G18KT 10SM SCT070 16/M02 A2989 RMK AO2,M
MEV,2025-05-03 22:35,-119.7500,38.9963,1441.42,59.00,33.80,38.56,270.00,9.00,0.00,29.92,M,10.00,22.00,FEW,SCT,SCT,M,5000.00,6000.00,7500.00,M,M,M,M,M,M,M,M,59.00,KMEV 032235Z AUTO 27009G22KT 10SM FEW050 SCT060 SCT075 15/01 A2992 RMK AO2,M
HTH,2025-05-03 22:35,-118.6315,38.5448,1282.89,55.40,46.40,71.64,0.00,0.00,0.00,29.91,M,2.00,M,SCT,BKN,OVC,M,3300.00,4200.00,5000.00,M,HZ,M,M,M,M,M,M,55.40,KHTH 032235Z AUTO 00000KT 2SM HZ SCT033 BKN042 OVC050 13/08 A2991 RMK A01,M
TMT,2025-05-03 22:35,-117.1971,39.4643,1749.34,53.60,44.60,71.45,340.00,8.00,0.00,29.90,M,10.00,M,CLR,M,M,M,M,M,M,M,M,M,M,M,M,M,M,53.60,KTMT 032235Z AUTO 34008KT 10SM CLR 12/07 A2990 RMK AO2 T01200070,M
10U,2025-05-03 22:35,-116.1876,41.9532,1637.00,50.00,46.40,87.37,240.00,8.00,0.00,29.91,M,4.00,14.00,FEW,SCT,BKN,M,2400.00,6500.00,11000.00,M,VCTS RA,M,M,M,M,M,M,50.00,K10U 032235Z AUTO 24008G14KT 4SM VCTS RA FEW024 SCT065 BKN110 10/08 A2991 RMK AO2 LTG DSNT ALQDS,M
NFL,2025-05-03 22:37,-118.7010,39.4166,1199.00,57.00,45.00,64.12,310.00,5.00,0.03,29.88,M,9.00,M,FEW,OVC,M,M,4100.00,7000.00,M,M,-RA,M,M,M,M,M,M,57.00,KNFL 032237Z AUTO 31005KT 9SM -RA FEW041 OVC070 14/07 A2988 RMK AO2 RAB22 P0003 T01390072,M
VGT,2025-05-03 22:45,-115.1933,36.2111,667.00,79.00,38.00,22.93,230.00,21.00,T,29.75,M,10.00,49.00,FEW,FEW,OVC,M,7500.00,10000.00,12000.00,M,-RA,M,M,M,49.00,190.00,2025-05-03 22:43,79.00,KVGT 032245Z 23021G49KT 190V250 10SM -RA FEW075 FEW100 OVC120 26/03 A2975 RMK AO2 PK WND 19049/2243 WSHFT 2225 RAB32 P0000 T02610033,M
WMC,2025-05-03 22:45,-117.8072,40.9019,1315.00,53.00,47.00,80.00,230.00,12.00,0.01,29.91,M,8.00,M,OVC,M,M,M,5500.00,M,M,M,-RA,M,M,M,26.00,240.00,2025-05-03 22:29,53.00,KWMC 032245Z AUTO 23012KT 8SM -RA OVC055 12/08 A2991 RMK AO2 PK WND 24026/2229 WSHFT 2225 RAB21 P0001 T01170083,M
P68,2025-05-03 22:53,-116.0056,39.6014,1993.00,67.00,32.00,27.07,260.00,10.00,0.00,29.85,1004.90,M,16.00,M,M,M,M,M,M,M,M,M,M,M,M,M,M,M,67.00,KP68 032253Z AUTO 26010G16KT 19/00 A2985 RMK AO1 SLP049 T01940000 $,M
DRA,2025-05-03 22:53,-116.0278,36.6206,1009.00,72.00,39.00,30.12,90.00,12.00,0.00,29.77,1004.50,10.00,23.00,FEW,M,M,M,12000.00,M,M,M,M,M,M,M,32.00,100.00,2025-05-03 22:24,72.00,KDRA 032253Z AUTO 09012G23KT 10SM FEW120 22/04 A2977 RMK AO2 PK WND 10032/2224 SLP045 T02220039,M
ELY,2025-05-03 22:53,-114.8453,39.2950,1909.00,60.00,34.00,37.50,230.00,9.00,T,29.90,1006.50,10.00,M,OVC,M,M,M,10000.00,M,M,M,M,M,M,M,M,M,M,60.00,KELY 032253Z AUTO 23009KT 10SM OVC100 16/01 A2990 RMK AO2 WSHFT 2150 LTG DSNT NW RAE36 TSE07 SLP065 P0000 T01560011 $,M
VGT,2025-05-03 22:53,-115.1933,36.2111,667.00,78.00,40.00,25.62,240.00,16.00,T,29.73,1006.70,10.00,27.00,FEW,BKN,OVC,M,3400.00,10000.00,11000.00,M,-RA,M,M,M,49.00,190.00,2025-05-03 22:43,78.00,KVGT 032253Z 24016G27KT 10SM -RA FEW034 BKN100 OVC110 26/04 A2973 RMK AO2 PK WND 19049/2243 WSHFT 2225 RAB32 SLP067 P0000 T02560044,M
LOL,2025-05-03 22:53,-118.5701,40.0684,1192.43,58.00,43.00,57.30,10.00,6.00,0.02,29.87,1009.70,10.00,M,SCT,OVC,M,M,4700.00,6000.00,M,M,M,M,M,M,M,M,M,58.00,KLOL 032253Z AUTO 01006KT 10SM SCT047 OVC060 14/06 A2987 RMK AO2 RAB2157E35 SLP097 P0002 T01440061,M
BVU,2025-05-03 22:55,-114.8611,35.9475,671.00,78.80,39.20,24.19,320.00,11.00,0.00,29.73,M,10.00,21.00,FEW,BKN,M,M,7000.00,10000.00,M,M,M,M,M,M,M,M,M,78.80,KBVU 032255Z AUTO 32011G21KT 10SM FEW070 BKN100 26/04 A2973 RMK AO2,M
RNO,2025-05-03 22:55,-119.7711,39.4839,1341.00,64.00,28.00,25.54,270.00,6.00,0.00,29.87,1007.40,10.00,M,BKN,BKN,M,M,4000.00,8000.00,M,M,M,M,M,M,27.00,260.00,2025-05-03 22:12,64.00,KRNO 032255Z 27006KT 10SM BKN040 BKN080 18/M02 A2987 RMK AO2 PK WND 26027/2212 SLP074 VIRGA T01781022 $,M
LSV,2025-05-03 22:55,-115.0343,36.2362,570.00,82.00,33.00,17.05,270.00,10.00,0.00,29.68,1002.80,10.00,M,BKN,M,M,M,15000.00,M,M,M,M,M,M,M,38.00,210.00,2025-05-03 22:10,79.75,KLSV 032255Z 27010KT 10SM BKN150 28/01 A2968 RMK AO2A PK WND 21038/10 SLP028 T02780005 $,M
BAM,2025-05-03 22:55,-116.8743,40.5990,1382.36,64.40,42.80,45.32,330.00,19.00,0.00,29.84,M,10.00,25.00,BKN,BKN,M,M,8500.00,12000.00,M,M,M,M,M,M,M,M,M,64.40,KBAM 032255Z AUTO 33019G25KT 10SM BKN085 BKN120 18/06 A2984 RMK AO1,M
CXP,2025-05-03 22:55,-119.7326,39.1923,1431.00,60.80,33.80,36.16,250.00,8.00,0.00,29.92,M,10.00,15.00,FEW,FEW,M,M,5500.00,6500.00,M,M,M,M,M,M,M,M,M,60.80,KCXP 032255Z AUTO 25008G15KT 10SM FEW055 FEW065 16/01 A2992 RMK AO2,M
RTS,2025-05-03 22:55,-119.8764,39.6682,1539.00,59.00,30.20,33.35,280.00,18.00,0.00,29.90,M,10.00,26.00,BKN,M,M,M,7000.00,M,M,M,M,M,M,M,M,M,M,59.00,KRTS 032255Z AUTO 28018G26KT 10SM BKN070 15/M01 A2990 RMK AO2,M
MEV,2025-05-03 22:55,-119.7500,38.9963,1441.42,57.20,35.60,44.19,240.00,13.00,0.00,29.92,M,10.00,20.00,FEW,FEW,M,M,5000.00,6000.00,M,M,M,M,M,M,M,M,M,57.20,KMEV 032255Z AUTO 24013G20KT 10SM FEW050 FEW060 14/02 A2992 RMK AO2,M
HTH,2025-05-03 22:55,-118.6315,38.5448,1282.89,53.60,46.40,76.50,40.00,6.00,0.12,29.89,M,3.00,M,SCT,BKN,BKN,M,3300.00,4200.00,5000.00,M,HZ,M,M,M,M,M,M,53.60,KHTH 032255Z AUTO 04006KT 3SM HZ SCT033 BKN042 BKN050 12/08 A2989 RMK A01 P0012,M
TMT,2025-05-03 22:55,-117.1971,39.4643,1749.34,53.60,44.00,69.84,350.00,9.00,0.00,29.89,M,10.00,M,CLR,M,M,M,M,M,M,M,M,M,M,M,M,M,M,53.60,KTMT 032255Z AUTO 35009KT 10SM CLR 12/07 A2989 RMK AO2 T01200067,M
10U,2025-05-03 22:55,-116.1876,41.9532,1637.00,50.00,46.40,87.37,100.00,3.00,0.00,29.92,M,10.00,M,BKN,M,M,M,11000.00,M,M,M,VCTS,M,M,M,M,M,M,50.00,K10U 032255Z AUTO 10003KT 10SM VCTS BKN110 10/08 A2992 RMK AO2 LTG DSNT N AND NW,M
INS,2025-05-03 22:55,-115.6733,36.5872,955.00,70.00,42.60,37.07,0.00,0.00,0.01,29.77,1004.60,10.00,M,BKN,BKN,OVC,M,12000.00,14000.00,17000.00,M,M,M,M,M,M,M,M,70.00,KINS 032255Z AUTO 00000KT 10SM BKN120 BKN140 OVC170 21/06 A2977 RMK AO2 LTG DSNT W RAB2155E18 PRESFR SLP046 P0001 T02120059 $,M
EKO,2025-05-03 22:56,-115.7860,40.8242,1367.00,68.00,36.00,30.69,200.00,7.00,0.00,29.83,1006.70,10.00,M,SCT,SCT,BKN,M,8000.00,9000.00,12000.00,M,M,M,M,M,M,M,M,68.00,KEKO 032256Z AUTO 20007KT 10SM SCT080 SCT090 BKN120 20/02 A2983 RMK AO2 SLP067 T02000022,M
WMC,2025-05-03 22:56,-117.8072,40.9019,1315.00,52.00,46.00,79.92,280.00,15.00,0.02,29.91,1010.70,10.00,23.00,BKN,OVC,M,M,5500.00,7000.00,M,M,-RA,M,M,M,26.00,240.00,2025-05-03 22:29,52.00,KWMC 032256Z AUTO 28015G23KT 10SM -RA BKN055 OVC070 11/08 A2991 RMK AO2 PK WND 24026/2229 WSHFT 2225 RAB21 SLP107 P0002 T01110078,M
HND,2025-05-03 22:56,-115.1344,35.9729,742.79,78.00,39.00,24.65,240.00,9.00,T,29.77,1007.40,10.00,M,SCT,M,M,M,12000.00,M,M,M,M,M,M,M,31.00,220.00,2025-05-03 22:00,78.00,KHND 032256Z 24009KT 10SM SCT120 26/04 A2977 RMK AO2 PK WND 22031/2200 WSHFT 2147 RAB01E18 SLP074 P0000 T02560039 $,M
TPH,2025-05-03 22:56,-117.0904,38.0505,1654.00,63.00,36.00,36.52,120.00,13.00,T,29.85,1006.80,10.00,M,OVC,M,M,M,10000.00,M,M,M,M,M,M,M,43.00,200.00,2025-05-03 21:57,63.00,KTPH 032256Z AUTO 12013KT 10SM OVC100 17/02 A2985 RMK AO2 PK WND 20043/2157 RAB2158E22 SLP068 P0000 T01720022 $,M
LAS,2025-05-03 22:56,-115.1634,36.0719,663.00,78.00,38.00,23.70,260.00,12.00,T,29.75,1005.20,10.00,M,FEW,BKN,BKN,M,7500.00,11000.00,15000.00,M,M,M,M,M,27.00,230.00,2025-05-03 22:22,78.00,KLAS 032256Z 26012KT 10SM FEW075 BKN110 BKN150 26/03 A2975 RMK AO2 PK WND 23027/2222 RAB12E30 SLP052 VCSH P0000 T02560033,M
NFL,2025-05-03 22:57,-118.7010,39.4166,1199.00,58.00,45.00,61.85,280.00,3.00,0.03,29.88,1009.40,10.00,M,OVC,M,M,M,8000.00,M,M,M,-RA,M,M,M,M,M,M,58.00,KNFL 032257Z AUTO 28003KT 10SM -RA OVC080 14/07 A2988 RMK AO2 RAB22 SLP094 P0003 T01440072,M
RTS,2025-05-03 23:05,-119.8764,39.6682,1539.00,59.00,32.00,35.87,270.00,13.00,0.00,29.91,M,10.00,24.00,SCT,M,M,M,7000.00,M,M,M,M,M,M,M,M,M,M,59.00,KRTS 032305Z AUTO 27013G24KT 10SM SCT070 15/M00 A2991 RMK AO2,M
MEV,2025-05-03 23:05,-119.7500,38.9963,1441.42,55.40,35.60,47.16,280.00,15.00,0.00,29.91,M,10.00,22.00,CLR,M,M,M,M,M,M,M,M,M,M,M,M,M,M,55.40,KMEV 032305Z AUTO 28015G22KT 230V290 10SM CLR 13/02 A2991 RMK AO2,M
BVU,2025-05-03 23:15,-114.8611,35.9475,671.00,78.80,39.20,24.19,340.00,9.00,0.00,29.72,M,10.00,18.00,FEW,SCT,OVC,M,4300.00,5500.00,9500.00,M,M,M,M,M,M,M,M,78.80,KBVU 032315Z AUTO 34009G18KT 310V030 10SM FEW043 SCT055 OVC095 26/04 A2972 RMK AO2,M
BAM,2025-05-03 23:15,-116.8743,40.5990,1382.36,62.60,46.40,55.37,290.00,18.00,0.00,29.88,M,10.00,23.00,SCT,BKN,OVC,M,5000.00,7500.00,8500.00,M,M,M,M,M,M,M,M,62.60,KBAM 032315Z AUTO 29018G23KT 10SM SCT050 BKN075 OVC085 17/08 A2988 RMK AO1,M
CXP,2025-05-03 23:15,-119.7326,39.1923,1431.00,59.00,33.80,38.56,260.00,11.00,0.00,29.92,M,10.00,17.00,CLR,M,M,M,M,M,M,M,M,M,M,M,M,M,M,59.00,KCXP 032315Z AUTO 26011G17KT 10SM CLR 15/01 A2992 RMK AO2,M
HTH,2025-05-03 23:15,-118.6315,38.5448,1282.89,55.40,48.20,76.66,10.00,3.00,0.00,29.90,M,8.00,M,FEW,FEW,BKN,M,3400.00,4300.00,5000.00,M,M,M,M,M,M,M,M,55.40,KHTH 032315Z AUTO 01003KT 8SM FEW034 FEW043 BKN050 13/09 A2990 RMK A01,M
TMT,2025-05-03 23:15,-117.1971,39.4643,1749.34,54.70,43.00,64.57,340.00,8.00,0.00,29.89,M,10.00,M,CLR,M,M,M,M,M,M,M,M,M,M,M,M,M,M,54.70,KTMT 032315Z AUTO 34008KT 10SM CLR 13/06 A2989 RMK AO2 T01260061,M
10U,2025-05-03 23:15,-116.1876,41.9532,1637.00,51.80,46.40,81.74,40.00,5.00,0.00,29.91,M,10.00,M,BKN,M,M,M,11000.00,M,M,M,M,M,M,M,M,M,M,51.80,K10U 032315Z AUTO 04005KT 10SM BKN110 11/08 A2991 RMK AO2,M
LSV,2025-05-03 23:20,-115.0343,36.2362,570.00,82.40,33.80,17.38,290.00,13.00,0.00,29.67,1002.60,10.00,M,BKN,M,M,M,15000.00,M,M,M,M,M,M,M,M,M,M,80.03,KLSV 032320Z 29013KT 10SM BKN150CB 28/01 A2967 RMK AO2A WSHFT 15 SLP026 $,M
P68,2025-05-03 23:24,-116.0056,39.6014,1993.00,53.00,45.00,74.16,130.00,20.00,0.00,29.90,M,M,30.00,M,M,M,M,M,M,M,M,M,M,M,M,30.00,130.00,2025-05-03 23:23,53.00,KP68 032324Z AUTO 13020G30KT 12/07 A2990 RMK AO1 PK WND 13030/2323 WSHFT 2307 T01170072 $,M
BVU,2025-05-03 23:35,-114.8611,35.9475,671.00,78.80,37.40,22.54,260.00,7.00,0.00,29.70,M,10.00,M,FEW,SCT,BKN,M,4000.00,6500.00,8500.00,M,M,M,M,M,M,M,M,78.80,KBVU 032335Z AUTO 26007KT 10SM FEW040 SCT065 BKN085 26/03 A2970 RMK AO2,M
BAM,2025-05-03 23:35,-116.8743,40.5990,1382.36,55.40,50.00,81.99,250.00,10.00,0.00,29.92,M,4.00,16.00,SCT,BKN,OVC,M,3000.00,5000.00,6000.00,M,M,M,M,M,M,M,M,55.40,KBAM 032335Z AUTO 25010G16KT 190V290 4SM SCT030 BKN050 OVC060 13/10 A2992 RMK AO1,M
CXP,2025-05-03 23:35,-119.7326,39.1923,1431.00,57.20,35.60,44.19,270.00,11.00,0.00,29.91,M,10.00,17.00,CLR,M,M,M,M,M,M,M,M,M,M,M,M,M,M,57.20,KCXP 032335Z AUTO 27011G17KT 10SM CLR 14/02 A2991 RMK AO2 LTG DSNT E AND NW,M
HTH,2025-05-03 23:35,-118.6315,38.5448,1282.89,53.60,46.40,76.50,310.00,4.00,0.00,29.91,M,4.00,M,SCT,SCT,OVC,M,3400.00,4300.00,5000.00,M,HZ,M,M,M,M,M,M,53.60,KHTH 032335Z AUTO 31004KT 4SM HZ SCT034 SCT043 OVC050 12/08 A2991 RMK A01,M
TMT,2025-05-03 23:35,-117.1971,39.4643,1749.34,55.00,42.00,61.46,350.00,7.00,0.00,29.89,M,10.00,M,SCT,M,M,M,7500.00,M,M,M,M,M,M,M,M,M,M,55.00,KTMT 032335Z AUTO 35007KT 10SM SCT075 13/06 A2989 RMK AO2 T01280056,M
10U,2025-05-03 23:35,-116.1876,41.9532,1637.00,55.40,48.20,76.66,350.00,8.00,0.00,29.91,M,10.00,M,BKN,M,M,M,11000.00,M,M,M,M,M,M,M,M,M,M,55.40,K10U 032335Z AUTO 35008KT 320V020 10SM BKN110 13/09 A2991 RMK AO2 LTG DSNT N,M
P68,2025-05-03 23:53,-116.0056,39.6014,1993.00,53.00,45.00,74.16,200.00,10.00,0.12,29.90,1008.80,M,M,M,M,M,M,M,M,M,M,M,M,M,M,30.00,130.00,2025-05-03 23:23,53.00,KP68 032353Z AUTO 20010KT 12/07 A2990 RMK AO1 PK WND 13030/2323 WSHFT 2307 SLP088 P0012 60012 T01170072 10217 20106 55001 $,M
DRA,2025-05-03 23:53,-116.0278,36.6206,1009.00,71.00,39.00,31.16,30.00,13.00,0.00,29.75,1003.80,10.00,M,OVC,M,M,M,10000.00,M,M,M,M,M,M,M,M,M,M,71.00,KDRA 032353Z AUTO 03013KT 10SM OVC100 22/04 A2975 RMK AO2 SLP038 60000 T02170039 10300 20217 58009,M
ELY,2025-05-03 23:53,-114.8453,39.2950,1909.00,59.00,33.00,37.34,180.00,9.00,T,29.90,1007.60,10.00,M,FEW,BKN,BKN,M,5000.00,9000.00,11000.00,M,M,M,M,M,35.00,190.00,2025-05-03 23:29,59.00,KELY 032353Z AUTO 18009KT 10SM FEW050 BKN090 BKN110 15/01 A2990 RMK AO2 PK WND 19035/2329 LTG DSNT E RAB31E44 SLP076 P0000 60000 T01500006 10222 20139 57004 $,M
VGT,2025-05-03 23:53,-115.1933,36.2111,667.00,80.00,36.00,20.51,270.00,12.00,T,29.71,1005.80,10.00,M,FEW,BKN,M,M,6500.00,11000.00,M,M,M,M,M,M,M,M,M,78.66,KVGT 032353Z 27012KT 10SM FEW065 BKN110 27/02 A2971 RMK AO2 RAE17 SLP058 P0000 60000 T02670022 10306 20250 58016,M
LOL,2025-05-03 23:53,-118.5701,40.0684,1192.43,57.00,46.00,66.59,70.00,7.00,0.00,29.88,1010.20,10.00,M,FEW,OVC,M,M,7000.00,8500.00,M,M,M,M,M,M,M,M,M,57.00,KLOL 032353Z AUTO 07007KT 10SM FEW070 OVC085 14/08 A2988 RMK AO2 SLP102 60005 T01390078 10194 20128 55000,M
BVU,2025-05-03 23:55,-114.8611,35.9475,671.00,80.60,35.60,19.79,230.00,9.00,0.00,29.68,M,10.00,M,CLR,M,M,M,M,M,M,M,M,M,M,M,M,M,M,78.94,KBVU 032355Z AUTO 23009KT 10SM CLR 27/02 A2968 RMK AO2,M
RNO,2025-05-03 23:55,-119.7711,39.4839,1341.00,62.00,33.00,33.56,260.00,9.00,0.00,29.87,1007.80,10.00,17.00,BKN,BKN,M,M,4000.00,7000.00,M,M,M,M,M,M,M,M,M,62.00,KRNO 032355Z 26009G17KT 230V290 10SM BKN040 BKN070 17/01 A2987 RMK AO2 SLP078 VIRGA T01670006 10211 20167 53003 $,M
BAM,2025-05-03 23:55,-116.8743,40.5990,1382.36,53.60,50.00,87.56,230.00,22.00,0.00,29.92,M,10.00,29.00,SCT,BKN,OVC,M,3000.00,5000.00,7000.00,M,M,M,M,M,M,M,M,53.60,KBAM 032355Z AUTO 23022G29KT 10SM SCT030 BKN050 OVC070 12/10 A2992 RMK AO1,M
CXP,2025-05-03 23:55,-119.7326,39.1923,1431.00,57.20,33.80,41.13,280.00,9.00,0.00,29.91,M,10.00,17.00,CLR,M,M,M,M,M,M,M,M,M,M,M,M,M,M,57.20,KCXP 032355Z AUTO 28009G17KT 10SM CLR 14/01 A2991 RMK AO2,M
RTS,2025-05-03 23:55,-119.8764,39.6682,1539.00,59.00,33.80,38.56,300.00,20.00,0.00,29.91,M,10.00,25.00,FEW,FEW,M,M,5500.00,7000.00,M,M,M,M,M,M,M,M,M,59.00,KRTS 032355Z AUTO 30020G25KT 10SM FEW055 FEW070 15/01 A2991 RMK AO2,M
MEV,2025-05-03 23:55,-119.7500,38.9963,1441.42,57.20,35.60,44.19,260.00,13.00,0.00,29.91,M,10.00,M,FEW,M,M,M,9000.00,M,M,M,M,M,M,M,M,M,M,57.20,KMEV 032355Z AUTO 26013KT 10SM FEW090 14/02 A2991 RMK AO2,M
HTH,2025-05-03 23:55,-118.6315,38.5448,1282.89,53.60,46.40,76.50,310.00,6.00,0.06,29.93,M,3.00,M,FEW,SCT,OVC,M,3000.00,3600.00,4500.00,M,HZ,M,M,M,M,M,M,53.60,KHTH 032355Z AUTO 31006KT 3SM HZ FEW030 SCT036 OVC045 12/08 A2993 RMK A01 P0006,M
TMT,2025-05-03 23:55,-117.1971,39.4643,1749.34,52.00,44.40,75.20,360.00,12.00,0.00,29.89,M,10.00,M,SCT,SCT,BKN,M,4600.00,6000.00,7000.00,M,M,M,M,M,M,M,M,52.00,KTMT 032355Z AUTO 36012KT 10SM SCT046 SCT060 BKN070 11/07 A2989 RMK AO2 T01120069 10210 20095,M
10U,2025-05-03 23:55,-116.1876,41.9532,1637.00,55.40,46.40,71.64,340.00,10.00,0.00,29.91,M,10.00,M,SCT,BKN,M,M,1900.00,11000.00,M,M,M,M,M,M,M,M,M,55.40,K10U 032355Z AUTO 34010KT 10SM SCT019 BKN110 13/08 A2991 RMK AO2,M
INS,2025-05-03 23:55,-115.6733,36.5872,955.00,69.00,48.40,47.80,0.00,0.00,0.00,29.77,1004.80,10.00,M,SCT,OVC,M,M,10000.00,14000.00,M,M,M,M,M,M,M,M,M,69.00,KINS 032355Z AUTO 00000KT 10SM SCT100 OVC140 21/09 A2977 RMK AO2 SLP048 60004 T02050091 10284 20188 58008 $,M
LSV,2025-05-03 23:55,-115.0343,36.2362,570.00,82.60,33.30,16.92,260.00,9.00,0.00,29.65,1001.80,10.00,M,FEW,BKN,M,M,13000.00,15000.00,M,M,M,M,M,M,M,M,M,80.16,KLSV 032355Z 26009KT 10SM FEW130 BKN150 28/01 A2965 RMK AO2A SLP018 T02810007 10316 20277 57019 $,M
EKO,2025-05-03 23:56,-115.7860,40.8242,1367.00,60.00,43.00,53.34,M,4.00,0.01,29.85,1008.30,8.00,M,BKN,OVC,M,M,5500.00,7500.00,M,M,-RA,M,M,M,36.00,200.00,2025-05-03 23:09,60.00,KEKO 032356Z AUTO VRB04KT 8SM -RA BKN055 OVC075 16/06 A2985 RMK AO2 PK WND 20036/2309 LTG DSNT NW RAB11E25B41 PRESFR SLP083 P0001 60008 T01560061 10222 20139 55006,M
WMC,2025-05-03 23:56,-117.8072,40.9019,1315.00,51.00,47.00,86.12,140.00,5.00,0.01,29.92,1011.10,10.00,M,SCT,OVC,M,M,4700.00,7000.00,M,M,-RA,M,M,M,M,M,M,51.00,KWMC 032356Z AUTO 14005KT 10SM -RA SCT047 OVC070 11/08 A2992 RMK AO2 RAE16B41 SLP111 P0001 60006 T01060083 10183 20100 53010,M
HND,2025-05-03 23:56,-115.1344,35.9729,742.79,79.00,37.00,22.05,0.00,0.00,0.00,29.74,1006.30,10.00,M,FEW,M,M,M,12000.00,M,M,M,M,M,M,M,M,M,M,79.00,KHND 032356Z 00000KT 10SM FEW120 26/03 A2974 RMK AO2 SLP063 60000 T02610028 10300 20239 58019 $,M
TPH,2025-05-03 23:56,-117.0904,38.0505,1654.00,63.00,37.00,37.99,70.00,14.00,0.00,29.83,1006.20,10.00,M,BKN,M,M,M,11000.00,M,M,M,M,M,M,M,M,M,M,63.00,KTPH 032356Z AUTO 07014KT 10SM BKN110 17/03 A2983 RMK AO2 SLP062 60000 T01720028 10217 20161 58018 $,M
LAS,2025-05-03 23:56,-115.1634,36.0719,663.00,80.00,36.00,20.51,170.00,4.00,0.00,29.72,1004.30,10.00,M,FEW,SCT,BKN,M,8000.00,11000.00,15000.00,M,M,M,M,M,M,M,M,78.66,KLAS 032356Z 17004KT 10SM FEW080 SCT110 BKN150 27/02 A2972 RMK AO2 SLP043 CB DSNT SW-W VCSH 60003 T02670022 10300 20244 56026,M
NFL,2025-05-03 23:57,-118.7010,39.4166,1199.00,56.00,46.00,69.05,100.00,5.00,0.02,29.89,1009.50,10.00,M,OVC,M,M,M,7000.00,M,M,M,M,M,M,M,M,M,M,56.00,KNFL 032357Z AUTO 10005KT 10SM OVC070 13/08 A2989 RMK AO2 RAE41 SLP095 P0002 60005 T01330078 10206 20128 55000,M
