station,valid,lon,lat,elevation,tmpf,dwpf,relh,drct,sknt,p01i,alti,mslp,vsby,gust,skyc1,skyc2,skyc3,skyc4,skyl1,skyl2,skyl3,skyl4,wxcodes,ice_accretion_1hr,ice_accretion_3hr,ice_accretion_6hr,peak_wind_gust,peak_wind_drct,peak_wind_time,feel,metar,snowdepth
INS,2021-08-10 00:08,-115.6733,36.5872,955.00,102.20,17.60,4.79,290.00,13.00,0.00,29.84,1004.90,10.00,25.00,CLR,M,M,M,M,M,M,M,M,M,M,M,M,M,M,94.35,KINS 100008Z AUTO 29013G25KT 10SM CLR 39/M08 A2984 RMK AO2 WSHFT 06 PRESFR SLP049 $,M
BVU,2021-08-10 00:15,-114.8611,35.9475,671.00,102.20,48.20,16.37,210.00,7.00,0.00,29.80,M,10.00,16.00,CLR,M,M,M,M,M,M,M,M,M,M,M,M,M,M,98.83,KBVU 100015Z AUTO 21007G16KT 160V280 10SM CLR 39/09 A2980 RMK AO2,M
RTS,2021-08-10 00:15,-119.8764,39.6682,1539.00,87.80,26.60,10.91,30.00,7.00,0.00,30.05,M,8.00,M,CLR,M,M,M,M,M,M,M,M,M,M,M,M,M,M,83.69,KRTS 100015Z AUTO 03007KT 8SM CLR 31/M03 A3005 RMK AO2,M
TMT,2021-08-10 00:15,-117.1971,39.4643,1749.34,87.40,33.00,14.39,30.00,7.00,0.00,30.09,M,7.00,M,CLR,M,M,M,M,M,M,M,M,M,M,M,M,M,M,83.76,KTMT 100015Z AUTO 03007KT 7SM CLR 31/01 A3009 RMK AO2 T03080006,M
BAM,2021-08-10 00:15,-116.8743,40.5990,1382.36,89.60,32.00,12.84,340.00,10.00,0.00,30.05,M,10.00,16.00,CLR,M,M,M,M,M,M,M,M,M,M,M,M,M,M,85.54,KBAM 100015Z AUTO 34010G16KT 10SM CLR 32/00 A3005 RMK AO1,M
HTH,2021-08-10 00:15,-118.6315,38.5448,1282.89,93.20,28.40,9.91,320.00,14.00,0.00,29.96,M,7.00,M,CLR,M,M,M,M,M,M,M,M,M,M,M,M,M,M,87.89,KHTH 100015Z AUTO 32014KT 7SM CLR 34/M02 A2996 RMK A01,M
MEV,2021-08-10 00:15,-119.7500,38.9963,1441.42,91.40,35.60,14.02,270.00,9.00,0.00,30.01,M,10.00,15.00,CLR,M,M,M,M,M,M,M,M,M,M,M,M,M,M,87.17,KMEV 100015Z AUTO 27009G15KT 10SM CLR 33/02 A3001 RMK AO2,M
CXP,2021-08-10 00:15,-119.7326,39.1923,1431.00,95.00,26.60,8.71,270.00,6.00,0.00,30.01,M,10.00,M,CLR,M,M,M,M,M,M,M,M,M,M,M,M,M,M,89.08,KCXP 100015Z AUTO 27006KT 10SM CLR 35/M03 A3001 RMK AO2,M
CXP,2021-08-10 00:30,-119.7326,39.1923,1431.00,93.20,26.60,9.21,M,5.00,0.00,30.01,M,10.00,M,CLR,M,M,M,M,M,M,M,M,M,M,M,M,M,M,87.72,KCXP 100030Z AUTO VRB05KT 10SM CLR 34/M03 A3001 RMK AO2,M
MEV,2021-08-10 00:35,-119.7500,38.9963,1441.42,91.40,37.40,15.05,270.00,8.00,0.00,30.01,M,10.00,14.00,CLR,M,M,M,M,M,M,M,M,M,M,M,M,M,M,87.23,KMEV 100035Z AUTO 27008G14KT 10SM CLR 33/03 A3001 RMK AO2,M
BVU,2021-08-10 00:35,-114.8611,35.9475,671.00,104.00,30.20,7.68,250.00,9.00,0.00,29.80,M,10.00,18.00,CLR,M,M,M,M,M,M,M,M,M,M,M,M,M,M,97.03,KBVU 100035Z AUTO 25009G18KT 10SM CLR 40/M01 A2980 RMK AO2,M
RTS,2021-08-10 00:35,-119.8764,39.6682,1539.00,87.80,26.60,10.91,90.00,10.00,0.00,30.05,M,8.00,M,CLR,M,M,M,M,M,M,M,M,M,M,M,M,M,M,83.69,KRTS 100035Z AUTO 09010KT 8SM CLR 31/M03 A3005 RMK AO2,M
BAM,2021-08-10 00:35,-116.8743,40.5990,1382.36,89.60,30.20,11.94,360.00,9.00,0.00,30.04,M,10.00,15.00,CLR,M,M,M,M,M,M,M,M,M,M,M,M,M,M,85.34,KBAM 100035Z AUTO 36009G15KT 10SM CLR 32/M01 A3004 RMK AO1,M
HTH,2021-08-10 00:35,-118.6315,38.5448,1282.89,91.40,26.60,9.74,330.00,15.00,0.00,29.96,M,7.00,M,CLR,M,M,M,M,M,M,M,M,M,M,M,M,M,M,86.36,KHTH 100035Z AUTO 33015KT 7SM CLR 33/M03 A2996 RMK A01,M
TMT,2021-08-10 00:35,-117.1971,39.4643,1749.34,87.00,32.20,14.10,360.00,11.00,0.00,30.09,M,10.00,15.00,CLR,M,M,M,M,M,M,M,M,M,M,M,M,M,M,83.36,KTMT 100035Z AUTO 36011G15KT 10SM CLR 31/00 A3009 RMK AO2 T03050001,M
CXP,2021-08-10 00:50,-119.7326,39.1923,1431.00,93.20,26.60,9.21,0.00,0.00,0.00,30.01,M,10.00,M,CLR,M,M,M,M,M,M,M,M,M,M,M,M,M,M,87.72,KCXP 100050Z AUTO 00000KT 10SM CLR 34/M03 A3001 RMK AO2,M
ELY,2021-08-10 00:53,-114.8453,39.2950,1909.00,88.00,19.00,7.87,220.00,6.00,0.00,30.09,1009.10,10.00,M,CLR,M,M,M,M,M,M,M,M,M,M,M,M,M,M,83.35,KELY 100053Z AUTO 22006KT 10SM CLR 31/M07 A3009 RMK AO2 SLP091 T03111072,M
VGT,2021-08-10 00:53,-115.1933,36.2111,667.00,105.00,28.90,7.05,180.00,14.00,0.00,29.77,1006.60,10.00,M,CLR,M,M,M,M,M,M,M,FU,M,M,M,M,M,M,97.80,KVGT 100053Z 18014KT 10SM FU CLR 41/M02 A2977 RMK AO2 SLP066 T04061017 PNO,M
P68,2021-08-10 00:53,-116.0056,39.6014,1993.00,83.00,36.00,18.66,10.00,8.00,0.00,30.08,1011.00,M,M,M,M,M,M,M,M,M,M,M,M,M,M,M,M,M,80.43,KP68 100053Z AUTO 01008KT 28/02 A3008 RMK AO1 SLP110 T02830022,M
LOL,2021-08-10 00:53,-118.5701,40.0684,1192.43,95.00,28.00,9.22,60.00,7.00,0.00,29.96,1009.90,10.00,M,CLR,M,M,M,M,M,M,M,M,M,M,M,M,M,M,89.22,KLOL 100053Z AUTO 06007KT 10SM CLR 35/M02 A2996 RMK AO2 SLP099 T03501022,M
DRA,2021-08-10 00:53,-116.0278,36.6206,1009.00,99.00,19.90,5.82,240.00,11.00,0.00,29.89,1006.30,10.00,M,CLR,M,M,M,M,M,M,M,M,M,M,M,M,M,M,91.85,KDRA 100053Z AUTO 24011KT 10SM CLR 37/M07 A2989 RMK AO2 SLP063 T03721067,M
RNO,2021-08-10 00:55,-119.7711,39.4839,1341.00,91.00,32.00,12.29,20.00,8.00,0.00,29.98,1009.20,5.00,M,FEW,M,M,M,13000.00,M,M,M,HZ FU,M,M,M,M,M,M,86.61,KRNO 100055Z 02008KT 5SM HZ FU FEW130 33/00 A2998 RMK AO2 SLP092 HZ FU ALQDS T03280000,M
TMT,2021-08-10 00:55,-117.1971,39.4643,1749.34,86.40,32.00,14.21,340.00,11.00,0.00,30.10,M,10.00,M,CLR,M,M,M,M,M,M,M,M,M,M,M,M,M,M,82.96,KTMT 100055Z AUTO 34011KT 10SM CLR 30/00 A3010 RMK AO2 T03020000,M
RTS,2021-08-10 00:55,-119.8764,39.6682,1539.00,86.00,24.80,10.72,50.00,12.00,0.00,30.06,M,9.00,M,CLR,M,M,M,M,M,M,M,M,M,M,M,M,M,M,82.26,KRTS 100055Z AUTO 05012KT 9SM CLR 30/M04 A3006 RMK AO2,M
MEV,2021-08-10 00:55,-119.7500,38.9963,1441.42,91.40,37.40,15.05,280.00,9.00,0.00,30.01,M,10.00,M,CLR,M,M,M,M,M,M,M,M,M,M,M,M,M,M,87.23,KMEV 100055Z AUTO 28009KT 10SM CLR 33/03 A3001 RMK AO2,M
BAM,2021-08-10 00:55,-116.8743,40.5990,1382.36,89.60,32.00,12.84,350.00,10.00,0.00,30.04,M,7.00,M,CLR,M,M,M,M,M,M,M,M,M,M,M,M,M,M,85.54,KBAM 100055Z AUTO 35010KT 7SM CLR 32/00 A3004 RMK AO1,M
HTH,2021-08-10 00:55,-118.6315,38.5448,1282.89,91.40,28.40,10.48,330.00,13.00,0.00,29.96,M,7.00,M,CLR,M,M,M,M,M,M,M,M,M,M,M,M,M,M,86.53,KHTH 100055Z AUTO 33013KT 7SM CLR 33/M02 A2996 RMK A01,M
BVU,2021-08-10 00:55,-114.8611,35.9475,671.00,104.00,30.20,7.68,250.00,13.00,0.00,29.80,M,10.00,21.00,CLR,M,M,M,M,M,M,M,M,M,M,M,M,M,M,97.03,KBVU 100055Z AUTO 25013G21KT 10SM CLR 40/M01 A2980 RMK AO2,M
WMC,2021-08-10 00:56,-117.8072,40.9019,1315.00,88.00,33.00,14.12,350.00,10.00,0.00,30.03,1012.60,5.00,M,CLR,M,M,M,M,M,M,M,HZ,M,M,M,M,M,M,84.25,KWMC 100056Z AUTO 35010KT 310V020 5SM HZ CLR 31/01 A3003 RMK AO2 SLP126 T03110006 $,M
NFL,2021-08-10 00:56,-118.7010,39.4166,1199.00,95.00,28.00,9.22,10.00,8.00,0.00,29.95,1011.50,6.00,M,BKN,M,M,M,5000.00,M,M,M,FU,M,M,M,M,M,M,89.22,KNFL 100056Z 01008KT 6SM FU BKN050 35/M02 A2995 RMK AO2 SLP115 FU BKN050 T03501022,M
HND,2021-08-10 00:56,-115.1344,35.9729,742.79,102.00,30.90,8.39,210.00,14.00,0.00,29.84,1008.50,10.00,M,CLR,M,M,M,M,M,M,M,M,M,M,M,M,M,M,95.42,KHND 100056Z 21014KT 10SM CLR 39/M01 A2984 RMK AO2 SLP085 T03891006,M
TPH,2021-08-10 00:56,-117.0904,38.0505,1654.00,92.00,19.90,7.24,M,M,0.00,30.04,1009.10,10.00,M,CLR,M,M,M,M,M,M,M,M,M,M,M,M,M,M,86.25,KTPH 100056Z AUTO 10SM CLR 33/M07 A3004 RMK AO2 SLP091 T03331067,M
LAS,2021-08-10 00:56,-115.1634,36.0719,663.00,103.00,28.00,7.26,200.00,9.00,0.00,29.80,1005.90,10.00,18.00,FEW,M,M,M,12000.00,M,M,M,M,M,M,M,M,M,M,95.83,KLAS 100056Z 20009G18KT 10SM FEW120 39/M02 A2980 RMK AO2 SLP059 T03941022,M
EKO,2021-08-10 00:56,-115.7860,40.8242,1367.00,89.00,30.00,12.03,10.00,9.00,0.00,30.05,1011.90,10.00,M,CLR,M,M,M,M,M,M,M,M,M,M,M,M,M,M,84.95,KEKO 100056Z AUTO 01009KT 10SM CLR 32/M01 A3005 RMK AO2 SLP119 T03171011,M
INS,2021-08-10 00:58,-115.6733,36.5872,955.00,99.50,16.70,4.99,300.00,13.00,0.00,29.85,1005.40,10.00,22.00,CLR,M,M,M,M,M,M,M,M,M,M,M,M,M,M,92.07,KINS 100058Z AUTO 30013G22KT 10SM CLR 38/M08 A2985 RMK AO2 SLP054 T03751085 $,M
LSV,2021-08-10 00:58,-115.0343,36.2362,570.00,104.20,27.90,6.95,200.00,14.00,0.00,29.76,1004.80,10.00,18.00,CLR,M,M,M,M,M,M,M,M,M,M,M,M,M,M,96.92,KLSV 100058Z AUTO 20014G18KT 10SM CLR 40/M02 A2976 RMK AO2 SLP048 T04011023 $,M
CXP,2021-08-10 01:10,-119.7326,39.1923,1431.00,91.40,28.40,10.48,270.00,6.00,0.00,30.01,M,10.00,M,CLR,M,M,M,M,M,M,M,M,M,M,M,M,M,M,86.53,KCXP 100110Z AUTO 27006KT 10SM CLR 33/M02 A3001 RMK AO2,M
HTH,2021-08-10 01:15,-118.6315,38.5448,1282.89,91.40,26.60,9.74,320.00,11.00,0.00,29.96,M,7.00,M,CLR,M,M,M,M,M,M,M,M,M,M,M,M,M,M,86.36,KHTH 100115Z AUTO 32011KT 7SM CLR 33/M03 A2996 RMK A01,M
BAM,2021-08-10 01:15,-116.8743,40.5990,1382.36,87.80,32.00,13.59,340.00,11.00,0.00,30.04,M,7.00,16.00,CLR,M,M,M,M,M,M,M,M,M,M,M,M,M,M,84.08,KBAM 100115Z AUTO 34011G16KT 7SM CLR 31/00 A3004 RMK AO1,M
TMT,2021-08-10 01:15,-117.1971,39.4643,1749.34,85.50,32.20,14.75,350.00,10.00,0.00,30.10,M,10.00,M,CLR,M,M,M,M,M,M,M,M,M,M,M,M,M,M,82.26,KTMT 100115Z AUTO 35010KT 10SM CLR 30/00 A3010 RMK AO2 T02970001,M
MEV,2021-08-10 01:15,-119.7500,38.9963,1441.42,89.60,37.40,15.92,280.00,8.00,0.00,30.01,M,10.00,15.00,CLR,M,M,M,M,M,M,M,M,M,M,M,M,M,M,85.67,KMEV 100115Z AUTO 28008G15KT 10SM CLR 32/03 A3001 RMK AO2,M
RTS,2021-08-10 01:15,-119.8764,39.6682,1539.00,86.00,23.00,9.94,50.00,10.00,0.00,30.06,M,9.00,M,CLR,M,M,M,M,M,M,M,M,M,M,M,M,M,M,82.14,KRTS 100115Z AUTO 05010KT 9SM CLR 30/M05 A3006 RMK AO2,M
BVU,2021-08-10 01:15,-114.8611,35.9475,671.00,104.00,30.20,7.68,220.00,13.00,0.00,29.80,M,10.00,M,CLR,M,M,M,M,M,M,M,M,M,M,M,M,M,M,97.03,KBVU 100115Z AUTO 22013KT 10SM CLR 40/M01 A2980 RMK AO2,M
CXP,2021-08-10 01:30,-119.7326,39.1923,1431.00,91.40,30.20,11.28,260.00,6.00,0.00,30.01,M,10.00,12.00,CLR,M,M,M,M,M,M,M,M,M,M,M,M,M,M,86.71,KCXP 100130Z AUTO 26006G12KT 10SM CLR 33/M01 A3001 RMK AO2,M
BAM,2021-08-10 01:35,-116.8743,40.5990,1382.36,87.80,32.00,13.59,350.00,13.00,0.00,30.04,M,7.00,M,CLR,M,M,M,M,M,M,M,M,M,M,M,M,M,M,84.08,KBAM 100135Z AUTO 35013KT 7SM CLR 31/00 A3004 RMK AO1,M
BVU,2021-08-10 01:35,-114.8611,35.9475,671.00,102.20,28.40,7.53,250.00,14.00,0.00,29.80,M,10.00,M,CLR,M,M,M,M,M,M,M,M,M,M,M,M,M,M,95.28,KBVU 100135Z AUTO 25014KT 10SM CLR 39/M02 A2980 RMK AO2,M
RTS,2021-08-10 01:35,-119.8764,39.6682,1539.00,84.20,23.00,10.53,50.00,10.00,0.00,30.06,M,9.00,M,CLR,M,M,M,M,M,M,M,M,M,M,M,M,M,M,80.88,KRTS 100135Z AUTO 05010KT 9SM CLR 29/M05 A3006 RMK AO2,M
MEV,2021-08-10 01:35,-119.7500,38.9963,1441.42,89.60,39.20,17.09,280.00,8.00,0.00,30.01,M,10.00,M,CLR,M,M,M,M,M,M,M,M,M,M,M,M,M,M,85.73,KMEV 100135Z AUTO 28008KT 10SM CLR 32/04 A3001 RMK AO2,M
HTH,2021-08-10 01:35,-118.6315,38.5448,1282.89,91.40,26.60,9.74,320.00,12.00,0.00,29.96,M,8.00,M,CLR,M,M,M,M,M,M,M,M,M,M,M,M,M,M,86.36,KHTH 100135Z AUTO 32012KT 8SM CLR 33/M03 A2996 RMK A01,M
TMT,2021-08-10 01:35,-117.1971,39.4643,1749.34,85.00,32.20,15.03,350.00,8.00,0.00,30.10,M,10.00,M,CLR,M,M,M,M,M,M,M,M,M,M,M,M,M,M,81.80,KTMT 100135Z AUTO 35008KT 10SM CLR 29/00 A3010 RMK AO2 T02940001,M
CXP,2021-08-10 01:50,-119.7326,39.1923,1431.00,91.40,32.00,12.14,270.00,7.00,0.00,30.02,M,10.00,M,CLR,M,M,M,M,M,M,M,M,M,M,M,M,M,M,86.91,KCXP 100150Z AUTO 27007KT 10SM CLR 33/M00 A3002 RMK AO2,M
P68,2021-08-10 01:53,-116.0056,39.6014,1993.00,78.00,39.00,24.56,10.00,8.00,0.00,30.09,1011.60,M,M,M,M,M,M,M,M,M,M,M,M,M,M,M,M,M,78.10,KP68 100153Z AUTO 01008KT 26/04 A3009 RMK AO1 SLP116 T02560039,M
DRA,2021-08-10 01:53,-116.0278,36.6206,1009.00,97.00,21.00,6.48,210.00,12.00,0.00,29.88,1006.20,10.00,M,CLR,M,M,M,M,M,M,M,M,M,M,M,M,M,M,90.27,KDRA 100153Z AUTO 21012KT 10SM CLR 36/M06 A2988 RMK AO2 SLP062 T03611061,M
VGT,2021-08-10 01:53,-115.1933,36.2111,667.00,104.00,27.00,6.74,220.00,10.00,0.00,29.78,1006.80,10.00,M,CLR,M,M,M,M,M,M,M,FU,M,M,M,M,M,M,96.64,KVGT 100153Z 22010KT 10SM FU CLR 40/M03 A2978 RMK AO2 SLP068 T04001028 PNO,M
ELY,2021-08-10 01:53,-114.8453,39.2950,1909.00,83.00,23.00,10.98,20.00,7.00,0.00,30.10,1009.70,6.00,M,CLR,M,M,M,M,M,M,M,HZ,M,M,M,M,M,M,80.00,KELY 100153Z AUTO 02007KT 6SM HZ CLR 28/M05 A3010 RMK AO2 SLP097 T02831050,M
LOL,2021-08-10 01:53,-118.5701,40.0684,1192.43,92.00,28.00,10.15,40.00,11.00,0.00,29.96,1009.90,10.00,M,CLR,M,M,M,M,M,M,M,M,M,M,M,M,M,M,86.87,KLOL 100153Z AUTO 04011KT 10SM CLR 33/M02 A2996 RMK AO2 SLP099 T03331022,M
RTS,2021-08-10 01:55,-119.8764,39.6682,1539.00,84.20,23.00,10.53,40.00,8.00,0.00,30.06,M,10.00,M,CLR,M,M,M,M,M,M,M,M,M,M,M,M,M,M,80.88,KRTS 100155Z AUTO 04008KT 10SM CLR 29/M05 A3006 RMK AO2,M
RNO,2021-08-10 01:55,-119.7711,39.4839,1341.00,90.00,30.00,11.70,20.00,10.00,0.00,29.98,1009.50,6.00,M,SCT,M,M,M,14000.00,M,M,M,HZ FU,M,M,M,M,M,M,85.63,KRNO 100155Z 02010KT 6SM HZ FU SCT140 32/M01 A2998 RMK AO2 SLP095 FU ALF ALQDS T03221011,M
BAM,2021-08-10 01:55,-116.8743,40.5990,1382.36,86.00,32.00,14.40,340.00,11.00,0.00,30.04,M,7.00,M,CLR,M,M,M,M,M,M,M,M,M,M,M,M,M,M,82.64,KBAM 100155Z AUTO 34011KT 7SM CLR 30/00 A3004 RMK AO1,M
HTH,2021-08-10 01:55,-118.6315,38.5448,1282.89,89.60,26.60,10.30,320.00,12.00,0.00,29.96,M,8.00,M,CLR,M,M,M,M,M,M,M,M,M,M,M,M,M,M,85.02,KHTH 100155Z AUTO 32012KT 8SM CLR 32/M03 A2996 RMK A01,M
TMT,2021-08-10 01:55,-117.1971,39.4643,1749.34,83.80,32.40,15.70,360.00,7.00,0.00,30.10,M,10.00,M,CLR,M,M,M,M,M,M,M,M,M,M,M,M,M,M,80.99,KTMT 100155Z AUTO 36007KT 10SM CLR 29/00 A3010 RMK AO2 T02880002,M
MEV,2021-08-10 01:55,-119.7500,38.9963,1441.42,87.80,39.20,18.09,270.00,11.00,0.00,30.01,M,10.00,M,CLR,M,M,M,M,M,M,M,M,M,M,M,M,M,M,84.22,KMEV 100155Z AUTO 27011KT 10SM CLR 31/04 A3001 RMK AO2,M
BVU,2021-08-10 01:55,-114.8611,35.9475,671.00,102.20,24.80,6.49,260.00,11.00,0.00,29.80,M,10.00,M,CLR,M,M,M,M,M,M,M,M,M,M,M,M,M,M,94.91,KBVU 100155Z AUTO 26011KT 10SM CLR 39/M04 A2980 RMK AO2,M
TPH,2021-08-10 01:56,-117.0904,38.0505,1654.00,90.00,19.00,7.39,190.00,8.00,0.00,30.04,1009.00,10.00,M,CLR,M,M,M,M,M,M,M,M,M,M,M,M,M,M,84.81,KTPH 100156Z AUTO 19008KT 10SM CLR 32/M07 A3004 RMK AO2 SLP090 T03221072,M
HND,2021-08-10 01:56,-115.1344,35.9729,742.79,100.00,30.90,8.91,230.00,10.00,0.00,29.84,1008.60,10.00,M,CLR,M,M,M,M,M,M,M,M,M,M,M,M,M,M,93.73,KHND 100156Z 23010KT 10SM CLR 38/M01 A2984 RMK AO2 SLP086 T03781006,M
LAS,2021-08-10 01:56,-115.1634,36.0719,663.00,102.00,28.00,7.46,210.00,6.00,0.00,29.80,1005.80,10.00,M,FEW,M,M,M,12000.00,M,M,M,M,M,M,M,M,M,M,95.07,KLAS 100156Z 21006KT 10SM FEW120 39/M02 A2980 RMK AO2 SLP058 T03891022,M
NFL,2021-08-10 01:56,-118.7010,39.4166,1199.00,92.00,28.90,10.54,10.00,5.00,0.00,29.95,1011.50,6.00,M,BKN,M,M,M,5000.00,M,M,M,FU,M,M,M,M,M,M,86.95,KNFL 100156Z 01005KT 6SM FU BKN050 33/M02 A2995 RMK AO2 SLP115 FU BKN050 T03331017,M
EKO,2021-08-10 01:56,-115.7860,40.8242,1367.00,85.00,30.00,13.75,360.00,9.00,0.00,30.06,1012.10,7.00,M,CLR,M,M,M,M,M,M,M,M,M,M,M,M,M,M,81.79,KEKO 100156Z AUTO 36009KT 7SM CLR 29/M01 A3006 RMK AO2 SLP121 T02941011,M
WMC,2021-08-10 01:56,-117.8072,40.9019,1315.00,86.00,34.00,15.60,10.00,8.00,0.00,30.03,1012.40,5.00,M,FEW,M,M,M,5500.00,M,M,M,HZ,M,M,M,M,M,M,82.66,KWMC 100156Z AUTO 01008KT 5SM HZ FEW055 30/01 A3003 RMK AO2 SLP124 T03000011 $,M
INS,2021-08-10 01:58,-115.6733,36.5872,955.00,97.30,19.40,6.00,260.00,15.00,0.00,29.86,1005.90,10.00,M,CLR,M,M,M,M,M,M,M,M,M,M,M,M,M,M,90.41,KINS 100158Z AUTO 26015KT 10SM CLR 36/M07 A2986 RMK AO2 SLP059 T03631070 $,M
LSV,2021-08-10 01:58,-115.0343,36.2362,570.00,102.70,26.80,6.95,190.00,11.00,0.00,29.76,1004.80,10.00,M,CLR,M,M,M,M,M,M,M,M,M,M,M,M,M,M,95.53,KLSV 100158Z AUTO 19011KT 10SM CLR 39/M03 A2976 RMK AO2 SLP048 T03931029 $,M
CXP,2021-08-10 02:10,-119.7326,39.1923,1431.00,89.60,32.00,12.84,280.00,4.00,0.00,30.02,M,10.00,M,CLR,M,M,M,M,M,M,M,M,M,M,M,M,M,M,85.54,KCXP 100210Z AUTO 28004KT 10SM CLR 32/00 A3002 RMK AO2,M
BAM,2021-08-10 02:15,-116.8743,40.5990,1382.36,84.20,32.00,15.25,340.00,10.00,0.00,30.04,M,7.00,M,CLR,M,M,M,M,M,M,M,M,M,M,M,M,M,M,81.28,KBAM 100215Z AUTO 34010KT 7SM CLR 29/00 A3004 RMK AO1,M
TMT,2021-08-10 02:15,-117.1971,39.4643,1749.34,82.60,32.00,16.06,350.00,6.00,0.00,30.10,M,10.00,M,CLR,M,M,M,M,M,M,M,M,M,M,M,M,M,M,80.13,KTMT 100215Z AUTO 35006KT 10SM CLR 28/00 A3010 RMK AO2 T02810000,M
HTH,2021-08-10 02:15,-118.6315,38.5448,1282.89,89.60,30.20,11.94,320.00,11.00,0.00,29.97,M,9.00,M,CLR,M,M,M,M,M,M,M,M,M,M,M,M,M,M,85.34,KHTH 100215Z AUTO 32011KT 9SM CLR 32/M01 A2997 RMK A01,M
BVU,2021-08-10 02:15,-114.8611,35.9475,671.00,100.40,24.80,6.85,240.00,7.00,0.00,29.81,M,10.00,12.00,CLR,M,M,M,M,M,M,M,M,M,M,M,M,M,M,93.40,KBVU 100215Z AUTO 24007G12KT 10SM CLR 38/M04 A2981 RMK AO2,M
MEV,2021-08-10 02:15,-119.7500,38.9963,1441.42,86.00,41.00,20.54,280.00,11.00,0.00,30.01,M,10.00,17.00,CLR,M,M,M,M,M,M,M,M,M,M,M,M,M,M,82.86,KMEV 100215Z AUTO 28011G17KT 10SM CLR 30/05 A3001 RMK AO2,M
RTS,2021-08-10 02:15,-119.8764,39.6682,1539.00,84.20,21.20,9.76,30.00,8.00,0.00,30.07,M,9.00,M,CLR,M,M,M,M,M,M,M,M,M,M,M,M,M,M,80.77,KRTS 100215Z AUTO 03008KT 9SM CLR 29/M06 A3007 RMK AO2,M
CXP,2021-08-10 02:30,-119.7326,39.1923,1431.00,87.80,33.80,14.61,280.00,4.00,0.00,30.03,M,10.00,M,CLR,M,M,M,M,M,M,M,M,M,M,M,M,M,M,84.10,KCXP 100230Z AUTO 28004KT 10SM CLR 31/01 A3003 RMK AO2,M
RTS,2021-08-10 02:35,-119.8764,39.6682,1539.00,84.20,21.20,9.76,10.00,7.00,0.00,30.07,M,10.00,M,CLR,M,M,M,M,M,M,M,M,M,M,M,M,M,M,80.77,KRTS 100235Z AUTO 01007KT 10SM CLR 29/M06 A3007 RMK AO2,M
BVU,2021-08-10 02:35,-114.8611,35.9475,671.00,98.60,26.60,7.80,210.00,7.00,0.00,29.82,M,10.00,M,CLR,M,M,M,M,M,M,M,M,M,M,M,M,M,M,92.07,KBVU 100235Z AUTO 21007KT 10SM CLR 37/M03 A2982 RMK AO2,M
MEV,2021-08-10 02:35,-119.7500,38.9963,1441.42,84.20,41.00,21.76,260.00,10.00,0.00,30.02,M,10.00,M,CLR,M,M,M,M,M,M,M,M,M,M,M,M,M,M,81.52,KMEV 100235Z AUTO 26010KT 10SM CLR 29/05 A3002 RMK AO2,M
BAM,2021-08-10 02:35,-116.8743,40.5990,1382.36,82.40,32.00,16.17,340.00,10.00,0.00,30.04,M,7.00,M,CLR,M,M,M,M,M,M,M,M,M,M,M,M,M,M,80.00,KBAM 100235Z AUTO 34010KT 7SM CLR 28/00 A3004 RMK AO1,M
HTH,2021-08-10 02:35,-118.6315,38.5448,1282.89,87.80,32.00,13.59,320.00,11.00,0.00,29.97,M,9.00,M,CLR,M,M,M,M,M,M,M,M,M,M,M,M,M,M,84.08,KHTH 100235Z AUTO 32011KT 9SM CLR 31/M00 A2997 RMK A01,M
TMT,2021-08-10 02:35,-117.1971,39.4643,1749.34,78.80,32.00,18.18,350.00,5.00,0.00,30.10,M,10.00,M,CLR,M,M,M,M,M,M,M,M,M,M,M,M,M,M,78.80,KTMT 100235Z AUTO 35005KT 10SM CLR 26/00 A3010 RMK AO2 T02600000,M
CXP,2021-08-10 02:50,-119.7326,39.1923,1431.00,86.00,35.60,16.63,360.00,6.00,0.00,30.04,M,10.00,M,CLR,M,M,M,M,M,M,M,M,M,M,M,M,M,M,82.69,KCXP 100250Z AUTO 36006KT 10SM CLR 30/02 A3004 RMK AO2,M
P68,2021-08-10 02:53,-116.0056,39.6014,1993.00,76.00,36.00,23.48,10.00,4.00,0.00,30.12,1011.70,M,M,M,M,M,M,M,M,M,M,M,M,M,M,M,M,M,75.90,KP68 100253Z AUTO 01004KT 24/02 A3012 RMK AO1 SLP117 T02440022 53010,M
VGT,2021-08-10 02:53,-115.1933,36.2111,667.00,102.00,28.00,7.46,200.00,6.00,0.00,29.79,1007.30,10.00,M,CLR,M,M,M,M,M,M,M,FU,M,M,M,M,M,M,95.07,KVGT 100253Z 20006KT 10SM FU CLR 39/M02 A2979 RMK AO2 SLP073 6//// T03891022 53004 PNO,M
ELY,2021-08-10 02:53,-114.8453,39.2950,1909.00,76.00,26.10,15.73,10.00,7.00,0.00,30.12,1010.20,5.00,M,CLR,M,M,M,M,M,M,M,HZ,M,M,M,M,M,M,75.90,KELY 100253Z AUTO 01007KT 5SM HZ CLR 24/M03 A3012 RMK AO2 SLP102 T02441033 53005,M
LOL,2021-08-10 02:53,-118.5701,40.0684,1192.43,85.00,30.90,14.26,30.00,9.00,0.00,29.97,1010.60,7.00,M,CLR,M,M,M,M,M,M,M,M,M,M,M,M,M,M,81.79,KLOL 100253Z AUTO 03009KT 7SM CLR 29/M01 A2997 RMK AO2 SLP106 T02941006 53002,M
DRA,2021-08-10 02:53,-116.0278,36.6206,1009.00,92.00,21.90,7.88,190.00,6.00,0.00,29.90,1006.60,10.00,M,CLR,M,M,M,M,M,M,M,M,M,M,M,M,M,M,86.38,KDRA 100253Z AUTO 19006KT 10SM CLR 33/M06 A2990 RMK AO2 SLP066 T03331056 53001,M
TMT,2021-08-10 02:55,-117.1971,39.4643,1749.34,73.60,31.10,20.84,340.00,7.00,0.00,30.11,M,10.00,M,CLR,M,M,M,M,M,M,M,M,M,M,M,M,M,M,73.60,KTMT 100255Z AUTO 34007KT 10SM CLR 23/00 A3011 RMK AO2 T02311005,M
RTS,2021-08-10 02:55,-119.8764,39.6682,1539.00,80.60,21.20,10.97,10.00,5.00,0.00,30.08,M,10.00,M,CLR,M,M,M,M,M,M,M,M,M,M,M,M,M,M,78.68,KRTS 100255Z AUTO 01005KT 10SM CLR 27/M06 A3008 RMK AO2,M
MEV,2021-08-10 02:55,-119.7500,38.9963,1441.42,82.40,41.00,23.07,270.00,6.00,0.00,30.03,M,10.00,11.00,CLR,M,M,M,M,M,M,M,M,M,M,M,M,M,M,80.29,KMEV 100255Z AUTO 27006G11KT 10SM CLR 28/05 A3003 RMK AO2,M
RNO,2021-08-10 02:55,-119.7711,39.4839,1341.00,87.00,28.00,11.81,20.00,8.00,0.00,30.01,1010.60,9.00,M,SCT,M,M,M,14000.00,M,M,M,M,M,M,M,M,M,M,83.29,KRNO 100255Z 02008KT 9SM SCT140 31/M02 A3001 RMK AO2 SLP106 HZ ALQDS FU ALF ALQDS T03061022 53007,M
BVU,2021-08-10 02:55,-114.8611,35.9475,671.00,96.80,26.60,8.24,220.00,6.00,0.00,29.82,M,10.00,M,CLR,M,M,M,M,M,M,M,M,M,M,M,M,M,M,90.57,KBVU 100255Z AUTO 22006KT 10SM CLR 36/M03 A2982 RMK AO2,M
BAM,2021-08-10 02:55,-116.8743,40.5990,1382.36,80.60,32.00,17.14,340.00,9.00,0.00,30.05,M,5.00,M,CLR,M,M,M,M,M,M,M,M,M,M,M,M,M,M,78.82,KBAM 100255Z AUTO 34009KT 5SM CLR 27/00 A3005 RMK AO1,M
HTH,2021-08-10 02:55,-118.6315,38.5448,1282.89,86.00,32.00,14.40,320.00,10.00,0.00,29.98,M,9.00,M,CLR,M,M,M,M,M,M,M,M,M,M,M,M,M,M,82.64,KHTH 100255Z AUTO 32010KT 9SM CLR 30/00 A2998 RMK A01,M
WMC,2021-08-10 02:56,-117.8072,40.9019,1315.00,80.00,34.00,18.88,360.00,5.00,0.00,30.04,1012.50,4.00,M,BKN,M,M,M,5000.00,M,M,M,HZ,M,M,M,M,M,M,78.70,KWMC 100256Z AUTO 36005KT 4SM HZ BKN050 27/01 A3004 RMK AO2 SLP125 T02670011 53001 $,M
EKO,2021-08-10 02:56,-115.7860,40.8242,1367.00,80.00,30.00,16.07,70.00,6.00,0.00,30.08,1013.10,7.00,M,CLR,M,M,M,M,M,M,M,M,M,M,M,M,M,M,78.57,KEKO 100256Z AUTO 07006KT 7SM CLR 27/M01 A3008 RMK AO2 SLP131 T02671011 53005,M
NFL,2021-08-10 02:56,-118.7010,39.4166,1199.00,83.00,34.00,17.23,40.00,4.00,0.00,29.96,1011.70,6.00,M,BKN,M,M,M,5000.00,M,M,M,FU,M,M,M,M,M,M,80.38,KNFL 100256Z 04004KT 6SM FU BKN050 28/01 A2996 RMK AO2 SLP117 FU BKN050 T02830011 55000,M
HND,2021-08-10 02:56,-115.1344,35.9729,742.79,96.00,34.00,11.37,190.00,7.00,0.00,29.86,1009.10,10.00,M,CLR,M,M,M,M,M,M,M,M,M,M,M,M,M,M,90.89,KHND 100256Z 19007KT 10SM CLR 36/01 A2986 RMK AO2 SLP091 T03560011 53003,M
TPH,2021-08-10 02:56,-117.0904,38.0505,1654.00,83.00,19.90,9.63,190.00,7.00,0.00,30.05,1009.40,10.00,M,CLR,M,M,M,M,M,M,M,M,M,M,M,M,M,M,79.82,KTPH 100256Z AUTO 19007KT 10SM CLR 28/M07 A3005 RMK AO2 SLP094 T02831067 53001,M
LAS,2021-08-10 02:56,-115.1634,36.0719,663.00,100.00,30.90,8.91,200.00,5.00,0.00,29.82,1006.40,10.00,M,FEW,FEW,M,M,12000.00,22000.00,M,M,M,M,M,M,M,M,M,93.73,KLAS 100256Z 20005KT 10SM FEW120 FEW220 38/M01 A2982 RMK AO2 SLP064 T03781006 53003,M
INS,2021-08-10 02:58,-115.6733,36.5872,955.00,94.00,17.10,5.99,250.00,9.00,0.00,29.88,1006.30,10.00,M,CLR,M,M,M,M,M,M,M,M,M,M,M,M,M,M,87.71,KINS 100258Z AUTO 25009KT 10SM CLR 35/M08 A2988 RMK AO2 SLP063 T03451083 53006 $,M
LSV,2021-08-10 02:58,-115.0343,36.2362,570.00,100.60,27.90,7.74,160.00,6.00,0.00,29.79,1003.20,10.00,M,CLR,M,M,M,M,M,M,M,M,M,M,M,M,M,M,93.88,KLSV 100258Z 16006KT 10SM CLR 38/M02 A2979 RMK AO2A SLP032 WND DATA ESTMD ALSTG/SLP ESTMD T03811023 53003 $,M
CXP,2021-08-10 03:10,-119.7326,39.1923,1431.00,84.20,37.40,18.91,360.00,8.00,0.00,30.05,M,10.00,M,CLR,M,M,M,M,M,M,M,M,M,M,M,M,M,M,81.38,KCXP 100310Z AUTO 36008KT 10SM CLR 29/03 A3005 RMK AO2,M
HTH,2021-08-10 03:15,-118.6315,38.5448,1282.89,86.00,33.80,15.48,320.00,10.00,0.00,29.99,M,10.00,M,CLR,M,M,M,M,M,M,M,M,M,M,M,M,M,M,82.66,KHTH 100315Z AUTO 32010KT 10SM CLR 30/01 A2999 RMK A01,M
TMT,2021-08-10 03:15,-117.1971,39.4643,1749.34,71.00,29.80,21.66,330.00,6.00,0.00,30.12,M,10.00,M,CLR,M,M,M,M,M,M,M,M,M,M,M,M,M,M,70.90,KTMT 100315Z AUTO 33006KT 10SM CLR 22/M01 A3012 RMK AO2 T02161012,M
RTS,2021-08-10 03:15,-119.8764,39.6682,1539.00,78.80,23.00,12.55,320.00,9.00,0.00,30.09,M,10.00,M,CLR,M,M,M,M,M,M,M,M,M,M,M,M,M,M,78.80,KRTS 100315Z AUTO 32009KT 10SM CLR 26/M05 A3009 RMK AO2,M
MEV,2021-08-10 03:15,-119.7500,38.9963,1441.42,78.80,42.80,27.81,50.00,4.00,0.00,30.04,M,10.00,M,CLR,M,M,M,M,M,M,M,M,M,M,M,M,M,M,78.80,KMEV 100315Z AUTO 05004KT 10SM CLR 26/06 A3004 RMK AO2,M
BAM,2021-08-10 03:15,-116.8743,40.5990,1382.36,78.80,32.00,18.18,340.00,9.00,0.00,30.06,M,5.00,M,CLR,M,M,M,M,M,M,M,M,M,M,M,M,M,M,78.80,KBAM 100315Z AUTO 34009KT 5SM CLR 26/00 A3006 RMK AO1,M
BVU,2021-08-10 03:15,-114.8611,35.9475,671.00,95.00,32.00,10.85,150.00,7.00,0.00,29.83,M,10.00,M,CLR,M,M,M,M,M,M,M,M,M,M,M,M,M,M,89.71,KBVU 100315Z AUTO 15007KT 10SM CLR 35/00 A2983 RMK AO2,M
BAM,2021-08-10 03:35,-116.8743,40.5990,1382.36,77.00,32.00,19.30,350.00,7.00,0.00,30.07,M,5.00,M,CLR,M,M,M,M,M,M,M,M,M,M,M,M,M,M,77.00,KBAM 100335Z AUTO 35007KT 5SM CLR 25/00 A3007 RMK AO1,M
HTH,2021-08-10 03:35,-118.6315,38.5448,1282.89,86.00,26.60,11.55,310.00,10.00,0.00,29.99,M,10.00,M,CLR,M,M,M,M,M,M,M,M,M,M,M,M,M,M,82.39,KHTH 100335Z AUTO 31010KT 10SM CLR 30/M03 A2999 RMK A01,M
CXP,2021-08-10 03:35,-119.7326,39.1923,1431.00,84.20,35.60,17.61,340.00,7.00,0.00,30.06,M,10.00,M,CLR,M,M,M,M,M,M,M,M,M,M,M,M,M,M,81.34,KCXP 100335Z AUTO 34007KT 10SM CLR 29/02 A3006 RMK AO2,M
BVU,2021-08-10 03:35,-114.8611,35.9475,671.00,95.00,50.00,21.79,150.00,9.00,0.00,29.84,M,10.00,M,CLR,M,M,M,M,M,M,M,M,M,M,M,M,M,M,91.89,KBVU 100335Z AUTO 15009KT 10SM CLR 35/10 A2984 RMK AO2,M
RTS,2021-08-10 03:35,-119.8764,39.6682,1539.00,75.20,24.80,15.25,340.00,7.00,0.00,30.10,M,10.00,M,CLR,M,M,M,M,M,M,M,M,M,M,M,M,M,M,75.20,KRTS 100335Z AUTO 34007KT 10SM CLR 24/M04 A3010 RMK AO2,M
MEV,2021-08-10 03:35,-119.7500,38.9963,1441.42,78.80,41.00,25.95,70.00,4.00,0.00,30.05,M,10.00,M,CLR,M,M,M,M,M,M,M,M,M,M,M,M,M,M,78.80,KMEV 100335Z AUTO 07004KT 10SM CLR 26/05 A3005 RMK AO2,M
TMT,2021-08-10 03:35,-117.1971,39.4643,1749.34,67.00,29.30,24.18,40.00,4.00,0.00,30.13,M,10.00,M,CLR,M,M,M,M,M,M,M,M,M,M,M,M,M,M,67.10,KTMT 100335Z AUTO 04004KT 10SM CLR 20/M01 A3013 RMK AO2 T01951015,M
CXP,2021-08-10 03:50,-119.7326,39.1923,1431.00,84.20,33.80,16.39,340.00,7.00,0.00,30.06,M,10.00,M,CLR,M,M,M,M,M,M,M,M,M,M,M,M,M,M,81.30,KCXP 100350Z AUTO 34007KT 10SM CLR 29/01 A3006 RMK AO2,M
LOL,2021-08-10 03:53,-118.5701,40.0684,1192.43,81.00,30.00,15.60,10.00,9.00,0.00,30.00,1011.30,7.00,M,CLR,M,M,M,M,M,M,M,M,M,M,M,M,M,M,79.02,KLOL 100353Z AUTO 01009KT 7SM CLR 27/M01 A3000 RMK AO2 SLP113 T02721011,M
VGT,2021-08-10 03:53,-115.1933,36.2111,667.00,99.00,30.90,9.19,190.00,7.00,0.00,29.81,1007.90,10.00,M,CLR,M,M,M,M,M,M,M,FU,M,M,M,M,M,M,92.88,KVGT 100353Z AUTO 19007KT 10SM FU CLR 37/M01 A2981 RMK AO2 SLP079 T03721006 PNO,M
P68,2021-08-10 03:53,-116.0056,39.6014,1993.00,71.00,30.90,22.50,340.00,8.00,0.00,30.14,1012.20,M,M,M,M,M,M,M,M,M,M,M,M,M,M,M,M,M,71.10,KP68 100353Z AUTO 34008KT 22/M01 A3014 RMK AO1 SLP122 T02171006,M
DRA,2021-08-10 03:53,-116.0278,36.6206,1009.00,88.00,23.00,9.33,60.00,3.00,0.00,29.92,1007.30,10.00,M,CLR,M,M,M,M,M,M,M,M,M,M,M,M,M,M,83.58,KDRA 100353Z AUTO 06003KT 10SM CLR 31/M05 A2992 RMK AO2 SLP073 T03111050,M
ELY,2021-08-10 03:53,-114.8453,39.2950,1909.00,75.00,32.00,20.63,20.00,14.00,0.00,30.16,1010.90,7.00,18.00,CLR,M,M,M,M,M,M,M,M,M,M,M,M,M,M,75.00,KELY 100353Z AUTO 02014G18KT 7SM CLR 24/00 A3016 RMK AO2 SLP109 T02390000,M
BAM,2021-08-10 03:55,-116.8743,40.5990,1382.36,71.60,32.00,23.13,20.00,4.00,0.00,30.08,M,5.00,M,CLR,M,M,M,M,M,M,M,M,M,M,M,M,M,M,71.60,KBAM 100355Z AUTO 02004KT 5SM CLR 22/00 A3008 RMK AO1,M
BVU,2021-08-10 03:55,-114.8611,35.9475,671.00,95.00,50.00,21.79,150.00,5.00,0.00,29.84,M,10.00,10.00,CLR,M,M,M,M,M,M,M,M,M,M,M,M,M,M,91.89,KBVU 100355Z AUTO 15005G10KT 10SM CLR 35/10 A2984 RMK AO2,M
RTS,2021-08-10 03:55,-119.8764,39.6682,1539.00,73.40,32.00,21.76,320.00,7.00,0.00,30.11,M,10.00,M,CLR,M,M,M,M,M,M,M,M,M,M,M,M,M,M,73.40,KRTS 100355Z AUTO 32007KT 10SM CLR 23/M00 A3011 RMK AO2,M
HTH,2021-08-10 03:55,-118.6315,38.5448,1282.89,86.00,23.00,9.94,320.00,10.00,0.00,30.00,M,10.00,M,CLR,M,M,M,M,M,M,M,M,M,M,M,M,M,M,82.14,KHTH 100355Z AUTO 32010KT 10SM CLR 30/M05 A3000 RMK A01,M
TMT,2021-08-10 03:55,-117.1971,39.4643,1749.34,64.40,29.10,26.34,130.00,6.00,0.00,30.14,M,10.00,M,CLR,M,M,M,M,M,M,M,M,M,M,M,M,M,M,64.40,KTMT 100355Z AUTO 13006KT 10SM CLR 18/M02 A3014 RMK AO2 T01801016,M
MEV,2021-08-10 03:55,-119.7500,38.9963,1441.42,71.60,44.60,37.89,80.00,6.00,0.00,30.06,M,10.00,M,SCT,BKN,BKN,M,3600.00,4500.00,5500.00,M,M,M,M,M,M,M,M,71.60,KMEV 100355Z AUTO 08006KT 10SM SCT036 BKN045 BKN055 22/07 A3006 RMK AO2,M
RNO,2021-08-10 03:55,-119.7711,39.4839,1341.00,83.00,28.00,13.52,310.00,5.00,0.00,30.04,1011.60,10.00,M,FEW,M,M,M,14000.00,M,M,M,M,M,M,M,M,M,M,80.29,KRNO 100355Z 31005KT 10SM FEW140 28/M02 A3004 RMK AO2 SLP116 HZ ALQDS FU ALF ALQDS T02831022,M
EKO,2021-08-10 03:56,-115.7860,40.8242,1367.00,75.00,30.90,19.73,80.00,5.00,0.00,30.11,1014.30,8.00,M,CLR,M,M,M,M,M,M,M,M,M,M,M,M,M,M,75.00,KEKO 100356Z AUTO 08005KT 8SM CLR 24/M01 A3011 RMK AO2 SLP143 T02391006,M
TPH,2021-08-10 03:56,-117.0904,38.0505,1654.00,80.00,19.00,10.15,210.00,6.00,0.00,30.08,1010.00,10.00,M,CLR,M,M,M,M,M,M,M,M,M,M,M,M,M,M,78.04,KTPH 100356Z AUTO 21006KT 10SM CLR 27/M07 A3008 RMK AO2 SLP100 T02671072,M
HND,2021-08-10 03:56,-115.1344,35.9729,742.79,92.00,37.00,14.58,190.00,5.00,0.00,29.88,1009.80,10.00,M,CLR,M,M,M,M,M,M,M,M,M,M,M,M,M,M,87.65,KHND 100356Z AUTO 19005KT 10SM CLR 33/03 A2988 RMK AO2 SLP098 T03330028,M
WMC,2021-08-10 03:56,-117.8072,40.9019,1315.00,73.00,35.00,24.97,0.00,0.00,0.00,30.06,1013.20,5.00,M,BKN,M,M,M,5500.00,M,M,M,HZ,M,M,M,M,M,M,73.00,KWMC 100356Z AUTO 00000KT 5SM HZ BKN055 23/02 A3006 RMK AO2 SLP132 T02280017 $,M
LAS,2021-08-10 03:56,-115.1634,36.0719,663.00,97.00,32.00,10.21,200.00,4.00,0.00,29.83,1006.80,10.00,M,CLR,M,M,M,M,M,M,M,M,M,M,M,M,M,M,91.35,KLAS 100356Z 20004KT 10SM CLR 36/00 A2983 RMK AO2 SLP068 T03610000,M
NFL,2021-08-10 03:56,-118.7010,39.4166,1199.00,77.00,33.00,20.17,10.00,6.00,0.00,29.98,1012.40,6.00,M,BKN,M,M,M,5000.00,M,M,M,FU,M,M,M,M,M,M,77.00,KNFL 100356Z 01006KT 6SM FU BKN050 25/01 A2998 RMK AO2 SLP124 FU BKN050 T02500006,M
INS,2021-08-10 03:58,-115.6733,36.5872,955.00,91.40,18.70,6.98,270.00,5.00,0.00,29.90,1007.00,10.00,M,CLR,M,M,M,M,M,M,M,M,M,M,M,M,M,M,85.82,KINS 100358Z AUTO 27005KT 10SM CLR 33/M07 A2990 RMK AO2 SLP070 T03301074 $,M
LSV,2021-08-10 03:58,-115.0343,36.2362,570.00,98.20,29.70,8.96,160.00,6.00,0.00,29.81,1003.70,10.00,M,CLR,M,M,M,M,M,M,M,M,M,M,M,M,M,M,92.06,KLSV 100358Z 16006KT 10SM CLR 37/M01 A2981 RMK AO2A SLP037 WND DATA ESTMD ALSTG/SLP ESTMD T03681013 $,M
CXP,2021-08-10 04:10,-119.7326,39.1923,1431.00,82.40,28.40,13.96,350.00,8.00,0.00,30.07,M,10.00,M,CLR,M,M,M,M,M,M,M,M,M,M,M,M,M,M,79.94,KCXP 100410Z AUTO 35008KT 10SM CLR 28/M02 A3007 RMK AO2,M
RTS,2021-08-10 04:15,-119.8764,39.6682,1539.00,73.40,33.80,23.39,320.00,5.00,0.00,30.12,M,10.00,M,CLR,M,M,M,M,M,M,M,M,M,M,M,M,M,M,73.40,KRTS 100415Z AUTO 32005KT 10SM CLR 23/01 A3012 RMK AO2,M
MEV,2021-08-10 04:15,-119.7500,38.9963,1441.42,77.00,41.00,27.53,350.00,6.00,0.00,30.07,M,10.00,M,FEW,SCT,BKN,M,3300.00,4000.00,5000.00,M,M,M,M,M,M,M,M,77.00,KMEV 100415Z AUTO 35006KT 10SM FEW033 SCT040 BKN050 25/05 A3007 RMK AO2,M
TMT,2021-08-10 04:15,-117.1971,39.4643,1749.34,65.50,29.80,26.09,50.00,3.00,0.00,30.15,M,10.00,M,CLR,M,M,M,M,M,M,M,M,M,M,M,M,M,M,65.50,KTMT 100415Z AUTO 05003KT 10SM CLR 19/M01 A3015 RMK AO2 T01861012,M
BAM,2021-08-10 04:15,-116.8743,40.5990,1382.36,73.40,32.00,21.76,30.00,4.00,0.00,30.08,M,5.00,M,CLR,M,M,M,M,M,M,M,M,M,M,M,M,M,M,73.40,KBAM 100415Z AUTO 03004KT 5SM CLR 23/00 A3008 RMK AO1,M
BVU,2021-08-10 04:15,-114.8611,35.9475,671.00,95.00,51.80,23.30,150.00,9.00,0.00,29.85,M,10.00,M,CLR,M,M,M,M,M,M,M,M,M,M,M,M,M,M,92.26,KBVU 100415Z AUTO 15009KT 10SM CLR 35/11 A2985 RMK AO2,M
HTH,2021-08-10 04:15,-118.6315,38.5448,1282.89,86.00,23.00,9.94,320.00,9.00,0.00,30.01,M,10.00,M,CLR,M,M,M,M,M,M,M,M,M,M,M,M,M,M,82.14,KHTH 100415Z AUTO 32009KT 10SM CLR 30/M05 A3001 RMK A01,M
CXP,2021-08-10 04:30,-119.7326,39.1923,1431.00,80.60,30.20,15.94,360.00,6.00,0.00,30.08,M,10.00,M,CLR,M,M,M,M,M,M,M,M,M,M,M,M,M,M,78.77,KCXP 100430Z AUTO 36006KT 10SM CLR 27/M01 A3008 RMK AO2,M
MEV,2021-08-10 04:35,-119.7500,38.9963,1441.42,77.00,39.20,25.67,0.00,0.00,0.00,30.08,M,10.00,M,FEW,SCT,BKN,M,3400.00,4000.00,12000.00,M,M,M,M,M,M,M,M,77.00,KMEV 100435Z AUTO 00000KT 10SM FEW034 SCT040 BKN120 25/04 A3008 RMK AO2,M
TMT,2021-08-10 04:35,-117.1971,39.4643,1749.34,69.30,29.30,22.42,360.00,5.00,0.00,30.16,M,10.00,M,CLR,M,M,M,M,M,M,M,M,M,M,M,M,M,M,69.30,KTMT 100435Z AUTO 36005KT 10SM CLR 21/M01 A3016 RMK AO2 T02071015,M
HTH,2021-08-10 04:35,-118.6315,38.5448,1282.89,84.20,24.80,11.35,320.00,10.00,0.00,30.01,M,10.00,M,CLR,M,M,M,M,M,M,M,M,M,M,M,M,M,M,81.00,KHTH 100435Z AUTO 32010KT 10SM CLR 29/M04 A3001 RMK A01,M
BAM,2021-08-10 04:35,-116.8743,40.5990,1382.36,71.60,32.00,23.13,20.00,4.00,0.00,30.09,M,7.00,M,CLR,M,M,M,M,M,M,M,M,M,M,M,M,M,M,71.60,KBAM 100435Z AUTO 02004KT 7SM CLR 22/00 A3009 RMK AO1,M
BVU,2021-08-10 04:35,-114.8611,35.9475,671.00,93.20,51.80,24.63,150.00,10.00,0.00,29.85,M,10.00,M,CLR,M,M,M,M,M,M,M,M,M,M,M,M,M,M,90.45,KBVU 100435Z AUTO 15010KT 10SM CLR 34/11 A2985 RMK AO2,M
RTS,2021-08-10 04:35,-119.8764,39.6682,1539.00,71.60,33.80,24.86,330.00,7.00,0.00,30.12,M,10.00,M,FEW,M,M,M,3400.00,M,M,M,M,M,M,M,M,M,M,71.60,KRTS 100435Z AUTO 33007KT 10SM FEW034 22/01 A3012 RMK AO2,M
CXP,2021-08-10 04:50,-119.7326,39.1923,1431.00,78.80,28.40,15.71,M,6.00,0.00,30.09,M,10.00,M,CLR,M,M,M,M,M,M,M,M,M,M,M,M,M,M,78.80,KCXP 100450Z AUTO VRB06KT 10SM CLR 26/M02 A3009 RMK AO2,M
ELY,2021-08-10 04:53,-114.8453,39.2950,1909.00,70.00,33.00,25.53,30.00,11.00,0.00,30.17,1011.40,7.00,M,CLR,M,M,M,M,M,M,M,M,M,M,M,M,M,M,70.00,KELY 100453Z AUTO 03011KT 7SM CLR 21/01 A3017 RMK AO2 SLP114 T02110006,M
LOL,2021-08-10 04:53,-118.5701,40.0684,1192.43,82.00,30.90,15.66,20.00,11.00,0.00,30.01,1011.60,6.00,M,CLR,M,M,M,M,M,M,M,HZ,M,M,M,M,M,M,79.70,KLOL 100453Z AUTO 02011KT 6SM HZ CLR 28/M01 A3001 RMK AO2 SLP116 T02781006,M
P68,2021-08-10 04:53,-116.0056,39.6014,1993.00,65.00,35.00,32.97,70.00,9.00,0.00,30.16,1013.10,M,M,M,M,M,M,M,M,M,M,M,M,M,M,M,M,M,64.90,KP68 100453Z AUTO 07009KT 18/02 A3016 RMK AO1 SLP131 T01830017,M
DRA,2021-08-10 04:53,-116.0278,36.6206,1009.00,84.00,24.10,11.10,50.00,4.00,0.00,29.93,1007.70,10.00,M,CLR,M,M,M,M,M,M,M,M,M,M,M,M,M,M,80.82,KDRA 100453Z AUTO 05004KT 10SM CLR 29/M04 A2993 RMK AO2 SLP077 T02891044,M
VGT,2021-08-10 04:53,-115.1933,36.2111,667.00,96.00,34.00,11.37,180.00,7.00,0.00,29.82,1008.10,10.00,M,CLR,M,M,M,M,M,M,M,FU,M,M,M,M,M,M,90.89,KVGT 100453Z AUTO 18007KT 10SM FU CLR 36/01 A2982 RMK AO2 SLP081 T03560011 PNO,M
RNO,2021-08-10 04:55,-119.7711,39.4839,1341.00,80.00,37.00,21.27,290.00,4.00,0.00,30.07,1012.50,10.00,M,CLR,M,M,M,M,M,M,M,M,M,M,M,M,M,M,78.81,KRNO 100455Z 29004KT 10SM CLR 27/03 A3007 RMK AO2 SLP125 HZ ALQDS FU ALF ALQDS T02670028,M
BAM,2021-08-10 04:55,-116.8743,40.5990,1382.36,69.80,32.00,24.59,0.00,0.00,0.00,30.10,M,7.00,M,CLR,M,M,M,M,M,M,M,M,M,M,M,M,M,M,69.80,KBAM 100455Z AUTO 00000KT 7SM CLR 21/00 A3010 RMK AO1,M
MEV,2021-08-10 04:55,-119.7500,38.9963,1441.42,68.00,41.00,37.32,160.00,7.00,0.00,30.09,M,10.00,M,SCT,BKN,BKN,M,3800.00,4400.00,5000.00,M,M,M,M,M,M,M,M,68.00,KMEV 100455Z AUTO 16007KT 10SM SCT038 BKN044 BKN050 20/05 A3009 RMK AO2,M
HTH,2021-08-10 04:55,-118.6315,38.5448,1282.89,82.40,26.60,12.97,330.00,5.00,0.00,30.02,M,10.00,M,CLR,M,M,M,M,M,M,M,M,M,M,M,M,M,M,79.92,KHTH 100455Z AUTO 33005KT 10SM CLR 28/M03 A3002 RMK A01,M
BVU,2021-08-10 04:55,-114.8611,35.9475,671.00,93.20,51.80,24.63,M,3.00,0.00,29.86,M,10.00,M,CLR,M,M,M,M,M,M,M,M,M,M,M,M,M,M,90.45,KBVU 100455Z AUTO VRB03KT 10SM CLR 34/11 A2986 RMK AO2,M
RTS,2021-08-10 04:55,-119.8764,39.6682,1539.00,71.60,33.80,24.86,310.00,6.00,0.00,30.13,M,10.00,M,FEW,M,M,M,3200.00,M,M,M,M,M,M,M,M,M,M,71.60,KRTS 100455Z AUTO 31006KT 10SM FEW032 22/01 A3013 RMK AO2,M
TMT,2021-08-10 04:55,-117.1971,39.4643,1749.34,66.40,29.70,25.18,0.00,0.00,0.00,30.16,M,10.00,M,CLR,M,M,M,M,M,M,M,M,M,M,M,M,M,M,66.40,KTMT 100455Z AUTO 00000KT 10SM CLR 19/M01 A3016 RMK AO2 T01911013,M
LAS,2021-08-10 04:56,-115.1634,36.0719,663.00,94.00,35.00,12.71,190.00,5.00,0.00,29.84,1007.20,10.00,M,CLR,M,M,M,M,M,M,M,M,M,M,M,M,M,M,89.29,KLAS 100456Z 19005KT 10SM CLR 34/02 A2984 RMK AO2 SLP072 T03440017,M
TPH,2021-08-10 04:56,-117.0904,38.0505,1654.00,76.00,18.00,11.17,200.00,4.00,0.00,30.10,1010.70,10.00,M,CLR,M,M,M,M,M,M,M,M,M,M,M,M,M,M,75.90,KTPH 100456Z AUTO 20004KT 10SM CLR 24/M08 A3010 RMK AO2 SLP107 T02441078,M
EKO,2021-08-10 04:56,-115.7860,40.8242,1367.00,70.00,30.00,22.52,70.00,4.00,0.00,30.12,1014.90,7.00,M,CLR,M,M,M,M,M,M,M,M,M,M,M,M,M,M,70.00,KEKO 100456Z AUTO 07004KT 7SM CLR 21/M01 A3012 RMK AO2 SLP149 T02111011,M
NFL,2021-08-10 04:56,-118.7010,39.4166,1199.00,77.00,28.90,17.01,360.00,7.00,0.00,30.00,1013.00,7.00,M,BKN,M,M,M,5000.00,M,M,M,M,M,M,M,M,M,M,77.00,KNFL 100456Z 36007KT 7SM BKN050 25/M02 A3000 RMK AO2 SLP130 FU BKN050 T02501017,M
WMC,2021-08-10 04:56,-117.8072,40.9019,1315.00,65.00,30.00,26.85,290.00,5.00,0.00,30.07,1013.80,5.00,M,CLR,M,M,M,M,M,M,M,HZ,M,M,M,M,M,M,64.90,KWMC 100456Z AUTO 29005KT 5SM HZ CLR 18/M01 A3007 RMK AO2 SLP138 T01831011 $,M
HND,2021-08-10 04:56,-115.1344,35.9729,742.79,89.00,38.00,16.50,210.00,8.00,0.00,29.89,1010.20,10.00,M,CLR,M,M,M,M,M,M,M,M,M,M,M,M,M,M,85.26,KHND 100456Z AUTO 21008KT 10SM CLR 32/03 A2989 RMK AO2 SLP102 T03170033,M
LSV,2021-08-10 04:58,-115.0343,36.2362,570.00,M,M,M,M,M,0.00,M,M,M,M,M,M,M,M,M,M,M,M,M,M,M,M,M,M,M,M,KLSV 100458Z AUTO M M M M M M RMK AO2 SLPNO RVRNO $,M
INS,2021-08-10 04:58,-115.6733,36.5872,955.00,87.00,21.20,8.95,30.00,3.00,0.00,29.92,1007.70,10.00,M,CLR,M,M,M,M,M,M,M,M,M,M,M,M,M,M,82.68,KINS 100458Z AUTO 03003KT 10SM CLR 31/M06 A2992 RMK AO2 SLP077 T03051060 $,M
CXP,2021-08-10 05:10,-119.7326,39.1923,1431.00,78.80,32.00,18.18,0.00,0.00,0.00,30.09,M,10.00,M,CLR,M,M,M,M,M,M,M,M,M,M,M,M,M,M,78.80,KCXP 100510Z AUTO 00000KT 10SM CLR 26/M00 A3009 RMK AO2,M
HTH,2021-08-10 05:15,-118.6315,38.5448,1282.89,80.60,39.20,22.81,330.00,5.00,0.00,30.03,M,10.00,M,CLR,M,M,M,M,M,M,M,M,M,M,M,M,M,M,79.10,KHTH 100515Z AUTO 33005KT 10SM CLR 27/04 A3003 RMK A01,M
BVU,2021-08-10 05:15,-114.8611,35.9475,671.00,93.20,50.00,23.04,170.00,9.00,0.00,29.86,M,10.00,M,CLR,M,M,M,M,M,M,M,M,M,M,M,M,M,M,90.10,KBVU 100515Z AUTO 17009KT 10SM CLR 34/10 A2986 RMK AO2,M
TMT,2021-08-10 05:15,-117.1971,39.4643,1749.34,67.50,29.80,24.34,40.00,4.00,0.00,30.17,M,10.00,M,CLR,M,M,M,M,M,M,M,M,M,M,M,M,M,M,67.50,KTMT 100515Z AUTO 04004KT 10SM CLR 20/M01 A3017 RMK AO2 T01971012,M
BAM,2021-08-10 05:15,-116.8743,40.5990,1382.36,69.80,30.20,22.86,100.00,4.00,0.00,30.10,M,7.00,M,CLR,M,M,M,M,M,M,M,M,M,M,M,M,M,M,69.80,KBAM 100515Z AUTO 10004KT 7SM CLR 21/M01 A3010 RMK AO1,M
MEV,2021-08-10 05:15,-119.7500,38.9963,1441.42,77.00,41.00,27.53,0.00,0.00,0.00,30.09,M,10.00,M,FEW,BKN,OVC,M,3900.00,4400.00,5000.00,M,M,M,M,M,M,M,M,77.00,KMEV 100515Z AUTO 00000KT 10SM FEW039 BKN044 OVC050 25/05 A3009 RMK AO2,M
RTS,2021-08-10 05:15,-119.8764,39.6682,1539.00,69.80,33.80,26.43,320.00,5.00,0.00,30.13,M,10.00,M,SCT,M,M,M,3000.00,M,M,M,M,M,M,M,M,M,M,69.80,KRTS 100515Z AUTO 32005KT 10SM SCT030 21/01 A3013 RMK AO2,M
CXP,2021-08-10 05:30,-119.7326,39.1923,1431.00,75.20,33.80,22.02,0.00,0.00,0.00,30.10,M,10.00,M,CLR,M,M,M,M,M,M,M,M,M,M,M,M,M,M,75.20,KCXP 100530Z AUTO 00000KT 10SM CLR 24/01 A3010 RMK AO2,M
TMT,2021-08-10 05:35,-117.1971,39.4643,1749.34,65.00,30.00,26.85,0.00,0.00,0.00,30.18,M,10.00,M,CLR,M,M,M,M,M,M,M,M,M,M,M,M,M,M,64.90,KTMT 100535Z AUTO 00000KT 10SM CLR 18/M01 A3018 RMK AO2 T01831011,M
BAM,2021-08-10 05:35,-116.8743,40.5990,1382.36,64.40,28.40,25.60,130.00,5.00,0.00,30.10,M,7.00,M,CLR,M,M,M,M,M,M,M,M,M,M,M,M,M,M,64.40,KBAM 100535Z AUTO 13005KT 7SM CLR 18/M02 A3010 RMK AO1,M
RTS,2021-08-10 05:35,-119.8764,39.6682,1539.00,73.40,33.80,23.39,310.00,4.00,0.00,30.13,M,10.00,M,BKN,M,M,M,3000.00,M,M,M,M,M,M,M,M,M,M,73.40,KRTS 100535Z AUTO 31004KT 10SM BKN030 23/01 A3013 RMK AO2,M
BVU,2021-08-10 05:35,-114.8611,35.9475,671.00,91.40,50.00,24.37,170.00,8.00,0.00,29.86,M,10.00,M,CLR,M,M,M,M,M,M,M,M,M,M,M,M,M,M,88.36,KBVU 100535Z AUTO 17008KT 10SM CLR 33/10 A2986 RMK AO2,M
MEV,2021-08-10 05:35,-119.7500,38.9963,1441.42,71.60,39.20,30.77,0.00,0.00,0.00,30.09,M,10.00,M,SCT,BKN,OVC,M,3800.00,4700.00,5500.00,M,M,M,M,M,M,M,M,71.60,KMEV 100535Z AUTO 00000KT 10SM SCT038 BKN047 OVC055 22/04 A3009 RMK AO2,M
HTH,2021-08-10 05:35,-118.6315,38.5448,1282.89,80.60,32.00,17.14,0.00,0.00,0.00,30.03,M,10.00,M,CLR,M,M,M,M,M,M,M,M,M,M,M,M,M,M,78.82,KHTH 100535Z AUTO 00000KT 10SM CLR 27/M00 A3003 RMK A01,M
CXP,2021-08-10 05:50,-119.7326,39.1923,1431.00,73.40,33.80,23.39,0.00,0.00,0.00,30.10,M,10.00,M,CLR,M,M,M,M,M,M,M,M,M,M,M,M,M,M,73.40,KCXP 100550Z AUTO 00000KT 10SM CLR 23/01 A3010 RMK AO2,M
LOL,2021-08-10 05:53,-118.5701,40.0684,1192.43,68.00,34.00,28.34,150.00,8.00,0.00,30.02,1012.30,6.00,M,CLR,M,M,M,M,M,M,M,HZ,M,M,M,M,M,M,68.00,KLOL 100553Z AUTO 15008KT 6SM HZ CLR 20/01 A3002 RMK AO2 SLP123 T02000011 10356 20194 51013,M
DRA,2021-08-10 05:53,-116.0278,36.6206,1009.00,85.00,25.00,11.19,0.00,0.00,0.00,29.93,1007.70,10.00,M,CLR,M,M,M,M,M,M,M,M,M,M,M,M,M,M,81.50,KDRA 100553Z AUTO 00000KT 10SM CLR 29/M04 A2993 RMK AO2 SLP077 T02941039 10383 20283 51012,M
VGT,2021-08-10 05:53,-115.1933,36.2111,667.00,95.00,34.00,11.76,350.00,6.00,0.00,29.84,1008.50,10.00,M,CLR,M,M,M,M,M,M,M,FU,M,M,M,M,M,M,90.00,KVGT 100553Z AUTO 35006KT 10SM FU CLR 35/01 A2984 RMK AO2 SLP085 6//// T03500011 10411 20344 51013 PNO,M
P68,2021-08-10 05:53,-116.0056,39.6014,1993.00,62.00,32.00,32.13,0.00,0.00,0.00,30.16,1013.10,M,M,M,M,M,M,M,M,M,M,M,M,M,M,M,M,M,62.10,KP68 100553Z AUTO 00000KT 17/00 A3016 RMK AO1 SLP131 T01670000 10306 20167 51014,M
ELY,2021-08-10 05:53,-114.8453,39.2950,1909.00,67.00,33.00,28.39,40.00,7.00,0.00,30.18,1011.30,7.00,M,CLR,M,M,M,M,M,M,M,M,M,M,M,M,M,M,66.90,KELY 100553Z AUTO 04007KT 7SM CLR 19/01 A3018 RMK AO2 SLP113 T01940006 10317 20194 51018,M
HTH,2021-08-10 05:55,-118.6315,38.5448,1282.89,80.60,32.00,17.14,280.00,6.00,0.00,30.03,M,10.00,M,CLR,M,M,M,M,M,M,M,M,M,M,M,M,M,M,78.82,KHTH 100555Z AUTO 28006KT 10SM CLR 27/M00 A3003 RMK A01,M
BVU,2021-08-10 05:55,-114.8611,35.9475,671.00,93.20,48.20,21.54,160.00,7.00,0.00,29.86,M,10.00,M,CLR,M,M,M,M,M,M,M,M,M,M,M,M,M,M,89.80,KBVU 100555Z AUTO 16007KT 10SM CLR 34/09 A2986 RMK AO2,M
RTS,2021-08-10 05:55,-119.8764,39.6682,1539.00,71.60,33.80,24.86,330.00,5.00,0.00,30.14,M,10.00,M,BKN,M,M,M,3300.00,M,M,M,M,M,M,M,M,M,M,71.60,KRTS 100555Z AUTO 33005KT 10SM BKN033 22/01 A3014 RMK AO2,M
MEV,2021-08-10 05:55,-119.7500,38.9963,1441.42,64.40,41.00,42.28,100.00,5.00,0.00,30.09,M,10.00,M,FEW,SCT,BKN,M,3000.00,3500.00,4100.00,M,M,M,M,M,M,M,M,64.40,KMEV 100555Z AUTO 10005KT 10SM FEW030 SCT035 BKN041 18/05 A3009 RMK AO2,M
BAM,2021-08-10 05:55,-116.8743,40.5990,1382.36,66.20,30.20,25.88,130.00,4.00,0.00,30.10,M,7.00,M,CLR,M,M,M,M,M,M,M,M,M,M,M,M,M,M,66.20,KBAM 100555Z AUTO 13004KT 7SM CLR 19/M01 A3010 RMK AO1,M
TMT,2021-08-10 05:55,-117.1971,39.4643,1749.34,62.20,28.80,28.11,0.00,0.00,0.00,30.18,M,10.00,M,CLR,M,M,M,M,M,M,M,M,M,M,M,M,M,M,62.20,KTMT 100555Z AUTO 00000KT 10SM CLR 17/M02 A3018 RMK AO2 T01681018 10308 20168,M
RNO,2021-08-10 05:55,-119.7711,39.4839,1341.00,77.00,38.00,24.40,150.00,3.00,0.00,30.07,1012.30,10.00,M,CLR,M,M,M,M,M,M,M,M,M,M,M,M,M,M,77.00,KRNO 100555Z 15003KT 10SM CLR 25/03 A3007 RMK AO2 SLP123 HZ ALQDS FU ALF ALQDS T02500033 10339 20250 51019,M
WMC,2021-08-10 05:56,-117.8072,40.9019,1315.00,64.00,30.90,28.74,350.00,5.00,0.00,30.08,1014.00,6.00,M,CLR,M,M,M,M,M,M,M,HZ,M,M,M,M,M,M,64.00,KWMC 100556Z AUTO 35005KT 6SM HZ CLR 18/M01 A3008 RMK AO2 SLP140 T01781006 10322 20172 51012 $,M
EKO,2021-08-10 05:56,-115.7860,40.8242,1367.00,67.00,28.90,23.95,0.00,0.00,0.00,30.13,1015.00,9.00,M,CLR,M,M,M,M,M,M,M,M,M,M,M,M,M,M,66.90,KEKO 100556Z AUTO 00000KT 9SM CLR 19/M02 A3013 RMK AO2 SLP150 T01941017 10322 20194 51016,M
NFL,2021-08-10 05:56,-118.7010,39.4166,1199.00,76.00,32.00,20.01,20.00,8.00,0.00,30.00,1012.90,5.00,M,BKN,M,M,M,5000.00,M,M,M,FU,M,M,M,M,M,M,75.90,KNFL 100556Z 02008KT 5SM FU BKN050 24/00 A3000 RMK AO2 SLP129 FU BKN050 T02440000 10350 20233 50012,M
HND,2021-08-10 05:56,-115.1344,35.9729,742.79,89.00,42.00,19.42,190.00,9.00,0.00,29.89,1010.20,10.00,M,CLR,M,M,M,M,M,M,M,M,M,M,M,M,M,M,85.45,KHND 100556Z AUTO 19009KT 10SM CLR 32/06 A2989 RMK AO2 SLP102 T03170056 10394 20306 51011,M
LAS,2021-08-10 05:56,-115.1634,36.0719,663.00,93.00,36.00,13.55,200.00,5.00,0.00,29.85,1007.60,10.00,M,CLR,M,M,M,M,M,M,M,M,M,M,M,M,M,M,88.59,KLAS 100556Z 20005KT 10SM CLR 34/02 A2985 RMK AO2 SLP076 T03390022 10400 20339 51012,M
TPH,2021-08-10 05:56,-117.0904,38.0505,1654.00,72.00,18.00,12.74,10.00,5.00,0.00,30.12,1011.30,10.00,M,CLR,M,M,M,M,M,M,M,M,M,M,M,M,M,M,72.00,KTPH 100556Z AUTO 01005KT 10SM CLR 22/M08 A3012 RMK AO2 SLP113 T02221078 10344 20217 51019,M
INS,2021-08-10 05:58,-115.6733,36.5872,955.00,85.80,23.00,10.00,130.00,3.00,0.00,29.92,1007.50,10.00,M,CLR,M,M,M,M,M,M,M,M,M,M,M,M,M,M,82.00,KINS 100558Z AUTO 13003KT 10SM CLR 30/M05 A2992 RMK AO2 SLP075 T02991050 10386 20298 52014 $,M
LSV,2021-08-10 05:58,-115.0343,36.2362,570.00,93.20,37.00,13.95,290.00,3.00,0.00,29.83,1004.40,10.00,M,CLR,M,M,M,M,M,M,M,M,M,M,M,M,M,M,88.81,KLSV 100558Z 29003KT 10SM CLR 34/03 A2983 RMK AO2A SLP044 WND DATA ESTMD ALSTG/SLP ESTMD T03400027 10406 20333 52012 $,M
CXP,2021-08-10 06:10,-119.7326,39.1923,1431.00,73.40,33.80,23.39,0.00,0.00,0.00,30.10,M,10.00,M,CLR,M,M,M,M,M,M,M,M,M,M,M,M,M,M,73.40,KCXP 100610Z AUTO 00000KT 10SM CLR 23/01 A3010 RMK AO2,M
TMT,2021-08-10 06:15,-117.1971,39.4643,1749.34,58.00,28.00,31.71,0.00,0.00,0.00,30.18,M,10.00,M,CLR,M,M,M,M,M,M,M,M,M,M,M,M,M,M,57.90,KTMT 100615Z AUTO 00000KT 10SM CLR 14/M02 A3018 RMK AO2 T01441022,M
MEV,2021-08-10 06:15,-119.7500,38.9963,1441.42,66.20,39.20,37.03,0.00,0.00,0.00,30.09,M,10.00,M,SCT,BKN,OVC,M,3200.00,4800.00,5500.00,M,M,M,M,M,M,M,M,66.20,KMEV 100615Z AUTO 00000KT 10SM SCT032 BKN048 OVC055 19/04 A3009 RMK AO2,M
BAM,2021-08-10 06:15,-116.8743,40.5990,1382.36,64.40,30.20,27.55,0.00,0.00,0.00,30.11,M,7.00,M,CLR,M,M,M,M,M,M,M,M,M,M,M,M,M,M,64.40,KBAM 100615Z AUTO 00000KT 7SM CLR 18/M01 A3011 RMK AO1,M
HTH,2021-08-10 06:15,-118.6315,38.5448,1282.89,78.80,37.40,22.54,250.00,4.00,0.00,30.03,M,10.00,M,CLR,M,M,M,M,M,M,M,M,M,M,M,M,M,M,78.80,KHTH 100615Z AUTO 25004KT 10SM CLR 26/03 A3003 RMK A01,M
BVU,2021-08-10 06:15,-114.8611,35.9475,671.00,89.60,50.00,25.79,310.00,3.00,0.00,29.87,M,10.00,M,CLR,M,M,M,M,M,M,M,M,M,M,M,M,M,M,86.70,KBVU 100615Z AUTO 31003KT 10SM CLR 32/10 A2987 RMK AO2,M
RTS,2021-08-10 06:15,-119.8764,39.6682,1539.00,69.80,35.60,28.39,310.00,6.00,0.00,30.14,M,10.00,M,BKN,M,M,M,3400.00,M,M,M,M,M,M,M,M,M,M,69.80,KRTS 100615Z AUTO 31006KT 10SM BKN034 21/02 A3014 RMK AO2,M
HTH,2021-08-10 06:35,-118.6315,38.5448,1282.89,77.00,35.60,22.28,240.00,4.00,0.00,30.04,M,10.00,M,CLR,M,M,M,M,M,M,M,M,M,M,M,M,M,M,77.00,KHTH 100635Z AUTO 24004KT 10SM CLR 25/02 A3004 RMK A01,M
RTS,2021-08-10 06:35,-119.8764,39.6682,1539.00,68.00,33.80,28.11,320.00,6.00,0.00,30.14,M,10.00,M,SCT,SCT,M,M,2900.00,3500.00,M,M,M,M,M,M,M,M,M,68.00,KRTS 100635Z AUTO 32006KT 10SM SCT029 SCT035 20/01 A3014 RMK AO2,M
MEV,2021-08-10 06:35,-119.7500,38.9963,1441.42,62.60,35.60,36.45,130.00,6.00,0.00,30.10,M,9.00,M,FEW,SCT,BKN,M,2700.00,3700.00,4500.00,M,M,M,M,M,M,M,M,62.60,KMEV 100635Z AUTO 13006KT 9SM FEW027 SCT037 BKN045 17/02 A3010 RMK AO2,M
CXP,2021-08-10 06:35,-119.7326,39.1923,1431.00,71.60,32.00,23.13,50.00,4.00,0.00,30.11,M,10.00,M,CLR,M,M,M,M,M,M,M,M,M,M,M,M,M,M,71.60,KCXP 100635Z AUTO 05004KT 10SM CLR 22/00 A3011 RMK AO2,M
TMT,2021-08-10 06:35,-117.1971,39.4643,1749.34,58.00,28.60,32.50,0.00,0.00,0.00,30.18,M,10.00,M,CLR,M,M,M,M,M,M,M,M,M,M,M,M,M,M,57.90,KTMT 100635Z AUTO 00000KT 10SM CLR 14/M02 A3018 RMK AO2 T01441019,M
BAM,2021-08-10 06:35,-116.8743,40.5990,1382.36,69.80,30.20,22.86,90.00,3.00,0.00,30.11,M,10.00,M,CLR,M,M,M,M,M,M,M,M,M,M,M,M,M,M,69.80,KBAM 100635Z AUTO 09003KT 10SM CLR 21/M01 A3011 RMK AO1,M
BVU,2021-08-10 06:35,-114.8611,35.9475,671.00,87.80,51.80,29.18,M,3.00,0.00,29.87,M,10.00,M,CLR,M,M,M,M,M,M,M,M,M,M,M,M,M,M,85.39,KBVU 100635Z AUTO VRB03KT 10SM CLR 31/11 A2987 RMK AO2,M
CXP,2021-08-10 06:50,-119.7326,39.1923,1431.00,71.60,32.00,23.13,0.00,0.00,0.00,30.11,M,10.00,M,CLR,M,M,M,M,M,M,M,M,M,M,M,M,M,M,71.60,KCXP 100650Z AUTO 00000KT 10SM CLR 22/M00 A3011 RMK AO2,M
DRA,2021-08-10 06:53,-116.0278,36.6206,1009.00,89.00,48.00,24.31,200.00,12.00,0.00,29.94,1007.50,10.00,21.00,CLR,M,M,M,M,M,M,M,M,M,M,M,M,M,M,85.97,KDRA 100653Z AUTO 20012G21KT 10SM CLR 32/09 A2994 RMK AO2 SLP075 T03170089,M
ELY,2021-08-10 06:53,-114.8453,39.2950,1909.00,63.00,33.00,32.53,0.00,0.00,0.00,30.21,1011.80,7.00,M,CLR,M,M,M,M,M,M,M,M,M,M,M,M,M,M,63.00,KELY 100653Z AUTO 00000KT 7SM CLR 17/01 A3021 RMK AO2 SLP118 T01720006,M
VGT,2021-08-10 06:53,-115.1933,36.2111,667.00,90.00,36.00,14.88,0.00,0.00,0.00,29.85,1008.90,10.00,M,CLR,M,M,M,M,M,M,M,FU,M,M,M,M,M,M,85.97,KVGT 100653Z AUTO 00000KT 10SM FU CLR 32/02 A2985 RMK AO2 SLP089 T03220022 PNO,M
LOL,2021-08-10 06:53,-118.5701,40.0684,1192.43,66.00,33.00,29.29,0.00,0.00,0.00,30.03,1012.80,6.00,M,CLR,M,M,M,M,M,M,M,HZ,M,M,M,M,M,M,66.00,KLOL 100653Z AUTO 00000KT 6SM HZ CLR 19/01 A3003 RMK AO2 SLP128 T01890006,M
P68,2021-08-10 06:53,-116.0056,39.6014,1993.00,60.00,33.00,36.05,100.00,4.00,0.00,30.18,1013.40,M,M,M,M,M,M,M,M,M,M,M,M,M,M,M,M,M,60.10,KP68 100653Z AUTO 10004KT 16/01 A3018 RMK AO1 SLP134 T01560006,M
TMT,2021-08-10 06:55,-117.1971,39.4643,1749.34,53.00,25.50,34.29,160.00,4.00,0.00,30.19,M,10.00,M,CLR,M,M,M,M,M,M,M,M,M,M,M,M,M,M,52.90,KTMT 100655Z AUTO 16004KT 10SM CLR 12/M04 A3019 RMK AO2 T01161036,M
RNO,2021-08-10 06:55,-119.7711,39.4839,1341.00,75.00,41.00,29.43,0.00,0.00,0.00,30.09,1012.80,6.00,M,CLR,M,M,M,M,M,M,M,HZ,M,M,M,M,M,M,75.00,KRNO 100655Z 00000KT 6SM HZ CLR 24/05 A3009 RMK AO2 SLP128 FU ALF ALQDS T02390050,M
RTS,2021-08-10 06:55,-119.8764,39.6682,1539.00,68.00,33.80,28.11,10.00,4.00,0.00,30.15,M,10.00,M,FEW,SCT,M,M,2800.00,3600.00,M,M,M,M,M,M,M,M,M,68.00,KRTS 100655Z AUTO 01004KT 10SM FEW028 SCT036 20/01 A3015 RMK AO2,M
MEV,2021-08-10 06:55,-119.7500,38.9963,1441.42,60.80,33.80,36.16,110.00,7.00,0.00,30.10,M,9.00,M,FEW,SCT,BKN,M,2800.00,3700.00,4300.00,M,M,M,M,M,M,M,M,60.80,KMEV 100655Z AUTO 11007KT 9SM FEW028 SCT037 BKN043 16/01 A3010 RMK AO2,M
BAM,2021-08-10 06:55,-116.8743,40.5990,1382.36,66.20,28.40,24.04,80.00,3.00,0.00,30.12,M,10.00,M,CLR,M,M,M,M,M,M,M,M,M,M,M,M,M,M,66.20,KBAM 100655Z AUTO 08003KT 10SM CLR 19/M02 A3012 RMK AO1,M
HTH,2021-08-10 06:55,-118.6315,38.5448,1282.89,77.00,33.80,20.74,0.00,0.00,0.00,30.04,M,10.00,M,M,M,M,M,M,M,M,M,M,M,M,M,M,M,M,77.00,KHTH 100655Z AUTO 000KT 10SM 25/01 A3004 RMK A01,M
BVU,2021-08-10 06:55,-114.8611,35.9475,671.00,86.00,53.60,33.01,0.00,0.00,0.00,29.88,M,10.00,M,CLR,M,M,M,M,M,M,M,M,M,M,M,M,M,M,84.18,KBVU 100655Z AUTO 00000KT 10SM CLR 30/12 A2988 RMK AO2,M
TPH,2021-08-10 06:56,-117.0904,38.0505,1654.00,75.00,18.00,11.51,0.00,0.00,0.00,30.13,1010.90,10.00,M,CLR,M,M,M,M,M,M,M,M,M,M,M,M,M,M,75.00,KTPH 100656Z AUTO 00000KT 10SM CLR 24/M08 A3013 RMK AO2 SLP109 T02391078,M
WMC,2021-08-10 06:56,-117.8072,40.9019,1315.00,73.00,27.00,17.99,50.00,11.00,0.00,30.10,1013.80,8.00,M,CLR,M,M,M,M,M,M,M,M,M,M,M,M,M,M,73.00,KWMC 100656Z AUTO 05011KT 8SM CLR 23/M03 A3010 RMK AO2 SLP138 T02281028 $,M
EKO,2021-08-10 06:56,-115.7860,40.8242,1367.00,65.00,26.10,22.88,100.00,4.00,0.00,30.15,1015.40,10.00,M,CLR,M,M,M,M,M,M,M,M,M,M,M,M,M,M,64.90,KEKO 100656Z AUTO 10004KT 10SM CLR 18/M03 A3015 RMK AO2 SLP154 T01831033,M
HND,2021-08-10 06:56,-115.1344,35.9729,742.79,88.00,52.00,29.21,180.00,11.00,0.00,29.91,1010.70,10.00,M,CLR,M,M,M,M,M,M,M,M,M,M,M,M,M,M,85.60,KHND 100656Z AUTO 18011KT 10SM CLR 31/11 A2991 RMK AO2 SLP107 T03110111 404060272,M
LAS,2021-08-10 06:56,-115.1634,36.0719,663.00,93.00,48.00,21.51,200.00,6.00,0.00,29.86,1007.80,10.00,M,CLR,M,M,M,M,M,M,M,M,M,M,M,M,M,M,89.58,KLAS 100656Z 20006KT 10SM CLR 34/09 A2986 RMK AO2 SLP078 T03390089,M
LSV,2021-08-10 06:58,-115.0343,36.2362,570.00,93.40,46.20,19.86,190.00,11.00,0.00,29.82,1006.70,10.00,M,CLR,M,M,M,M,M,M,M,M,M,M,M,M,M,M,89.72,KLSV 100658Z 19011KT 10SM CLR 34/08 A2982 RMK AO2A SLP067 T03410079 $,M
INS,2021-08-10 06:58,-115.6733,36.5872,955.00,83.50,25.50,11.96,30.00,4.00,0.00,29.92,1007.50,10.00,M,CLR,M,M,M,M,M,M,M,M,M,M,M,M,M,M,80.57,KINS 100658Z AUTO 03004KT 10SM CLR 29/M04 A2992 RMK AO2 SLP075 T02861036 $,M
CXP,2021-08-10 07:10,-119.7326,39.1923,1431.00,69.80,32.00,24.59,0.00,0.00,0.00,30.12,M,10.00,M,CLR,M,M,M,M,M,M,M,M,M,M,M,M,M,M,69.80,KCXP 100710Z AUTO 00000KT 10SM CLR 21/M00 A3012 RMK AO2,M
BVU,2021-08-10 07:15,-114.8611,35.9475,671.00,84.20,53.60,34.97,0.00,0.00,0.00,29.88,M,10.00,M,CLR,M,M,M,M,M,M,M,M,M,M,M,M,M,M,82.76,KBVU 100715Z AUTO 00000KT 10SM CLR 29/12 A2988 RMK AO2,M
BAM,2021-08-10 07:15,-116.8743,40.5990,1382.36,64.40,30.20,27.55,350.00,7.00,0.00,30.13,M,10.00,M,CLR,M,M,M,M,M,M,M,M,M,M,M,M,M,M,64.40,KBAM 100715Z AUTO 35007KT 10SM CLR 18/M01 A3013 RMK AO1,M
TMT,2021-08-10 07:15,-117.1971,39.4643,1749.34,50.70,26.20,38.29,150.00,4.00,0.00,30.19,M,10.00,M,CLR,M,M,M,M,M,M,M,M,M,M,M,M,M,M,50.70,KTMT 100715Z AUTO 15004KT 10SM CLR 10/M03 A3019 RMK AO2 T01041032,M
RTS,2021-08-10 07:15,-119.8764,39.6682,1539.00,66.20,32.00,27.83,320.00,5.00,0.00,30.15,M,9.00,M,FEW,FEW,M,M,3600.00,4400.00,M,M,M,M,M,M,M,M,M,66.20,KRTS 100715Z AUTO 32005KT 9SM FEW036 FEW044 19/00 A3015 RMK AO2,M
MEV,2021-08-10 07:15,-119.7500,38.9963,1441.42,60.80,30.20,31.28,110.00,7.00,0.00,30.11,M,9.00,M,SCT,BKN,OVC,M,3600.00,4400.00,5500.00,M,M,M,M,M,M,M,M,60.80,KMEV 100715Z AUTO 11007KT 9SM SCT036 BKN044 OVC055 16/M01 A3011 RMK AO2,M
HTH,2021-08-10 07:15,-118.6315,38.5448,1282.89,77.00,33.80,20.74,0.00,0.00,0.00,30.05,M,10.00,M,M,M,M,M,M,M,M,M,M,M,M,M,M,M,M,77.00,KHTH 100715Z AUTO 00000KT 10SM 25/01 A3005 RMK A01,M
CXP,2021-08-10 07:30,-119.7326,39.1923,1431.00,69.80,30.20,22.86,0.00,0.00,0.00,30.12,M,10.00,M,CLR,M,M,M,M,M,M,M,M,M,M,M,M,M,M,69.80,KCXP 100730Z AUTO 00000KT 10SM CLR 21/M01 A3012 RMK AO2,M
TMT,2021-08-10 07:35,-117.1971,39.4643,1749.34,52.70,26.80,36.46,0.00,0.00,0.00,30.19,M,10.00,M,CLR,M,M,M,M,M,M,M,M,M,M,M,M,M,M,52.70,KTMT 100735Z AUTO 00000KT 10SM CLR 12/M03 A3019 RMK AO2 T01151029,M
BAM,2021-08-10 07:35,-116.8743,40.5990,1382.36,64.40,32.00,29.63,330.00,7.00,0.00,30.13,M,7.00,M,CLR,M,M,M,M,M,M,M,M,M,M,M,M,M,M,64.40,KBAM 100735Z AUTO 33007KT 7SM CLR 18/00 A3013 RMK AO1,M
MEV,2021-08-10 07:35,-119.7500,38.9963,1441.42,59.00,37.40,44.47,90.00,4.00,0.00,30.11,M,10.00,M,SCT,BKN,BKN,M,3700.00,4200.00,4800.00,M,M,M,M,M,M,M,M,59.00,KMEV 100735Z AUTO 09004KT 10SM SCT037 BKN042 BKN048 15/03 A3011 RMK AO2,M
RTS,2021-08-10 07:35,-119.8764,39.6682,1539.00,64.40,33.80,31.85,360.00,4.00,0.00,30.15,M,10.00,M,FEW,SCT,SCT,M,2700.00,3200.00,3800.00,M,M,M,M,M,M,M,M,64.40,KRTS 100735Z AUTO 36004KT 10SM FEW027 SCT032 SCT038 18/01 A3015 RMK AO2,M
HTH,2021-08-10 07:35,-118.6315,38.5448,1282.89,77.00,33.80,20.74,240.00,7.00,0.00,30.06,M,10.00,M,CLR,M,M,M,M,M,M,M,M,M,M,M,M,M,M,77.00,KHTH 100735Z AUTO 24007KT 10SM CLR 25/01 A3006 RMK A01,M
BVU,2021-08-10 07:35,-114.8611,35.9475,671.00,84.20,53.60,34.97,0.00,0.00,0.00,29.88,M,10.00,M,CLR,M,M,M,M,M,M,M,M,M,M,M,M,M,M,82.76,KBVU 100735Z AUTO 00000KT 10SM CLR 29/12 A2988 RMK AO2,M
P68,2021-08-10 07:53,-116.0056,39.6014,1993.00,56.00,33.00,41.92,M,3.00,0.00,30.19,1013.80,M,M,M,M,M,M,M,M,M,M,M,M,M,M,M,M,M,55.90,KP68 100753Z AUTO VRB03KT 13/01 A3019 RMK AO1 SLP138 T01330006 403170089,M
VGT,2021-08-10 07:53,-115.1933,36.2111,667.00,88.00,36.00,15.85,0.00,0.00,0.00,29.86,1009.40,10.00,M,CLR,M,M,M,M,M,M,M,FU,M,M,M,M,M,M,84.29,KVGT 100753Z AUTO 00000KT 10SM FU CLR 31/02 A2986 RMK AO2 SLP094 T03110022 404220272 PNO,M
ELY,2021-08-10 07:53,-114.8453,39.2950,1909.00,57.00,32.00,38.54,170.00,8.00,0.00,30.22,1012.60,7.00,M,CLR,M,M,M,M,M,M,M,M,M,M,M,M,M,M,57.00,KELY 100753Z AUTO 17008KT 7SM CLR 14/00 A3022 RMK AO2 SLP126 T01390000 403280078,M
LOL,2021-08-10 07:53,-118.5701,40.0684,1192.43,61.00,32.00,33.40,170.00,7.00,0.00,30.04,1013.10,5.00,M,CLR,M,M,M,M,M,M,M,HZ,M,M,M,M,M,M,61.00,KLOL 100753Z AUTO 17007KT 5SM HZ CLR 16/00 A3004 RMK AO2 SLP131 T01610000 403560161,M
DRA,2021-08-10 07:53,-116.0278,36.6206,1009.00,88.00,48.00,25.17,200.00,13.00,0.00,29.94,1007.60,10.00,M,CLR,M,M,M,M,M,M,M,M,M,M,M,M,M,M,85.02,KDRA 100753Z AUTO 20013KT 10SM CLR 31/09 A2994 RMK AO2 SLP076 T03110089 403890239,M
MEV,2021-08-10 07:55,-119.7500,38.9963,1441.42,60.80,35.60,38.85,0.00,0.00,0.00,30.12,M,10.00,M,BKN,BKN,BKN,M,4000.00,4800.00,6000.00,M,M,M,M,M,M,M,M,60.80,KMEV 100755Z AUTO 00000KT 10SM BKN040 BKN048 BKN060 16/02 A3012 RMK AO2,M
RNO,2021-08-10 07:55,-119.7711,39.4839,1341.00,73.00,41.00,31.47,0.00,0.00,0.00,30.10,1012.90,6.00,M,CLR,M,M,M,M,M,M,M,HZ,M,M,M,M,M,M,73.00,KRNO 100755Z 00000KT 6SM HZ CLR 23/05 A3010 RMK AO2 SLP129 T02280050 403390150,M
HTH,2021-08-10 07:55,-118.6315,38.5448,1282.89,77.00,35.60,22.28,290.00,5.00,0.00,30.06,M,10.00,M,CLR,M,M,M,M,M,M,M,M,M,M,M,M,M,M,77.00,KHTH 100755Z AUTO 29005KT 10SM CLR 25/02 A3006 RMK A01,M
CXP,2021-08-10 07:55,-119.7326,39.1923,1431.00,69.80,28.40,21.24,0.00,0.00,0.00,30.13,M,10.00,M,CLR,M,M,M,M,M,M,M,M,M,M,M,M,M,M,69.80,KCXP 100755Z AUTO 00000KT 10SM CLR 21/M02 A3013 RMK AO2,M
BVU,2021-08-10 07:55,-114.8611,35.9475,671.00,86.00,51.80,30.90,270.00,3.00,0.00,29.88,M,10.00,M,CLR,M,M,M,M,M,M,M,M,M,M,M,M,M,M,83.87,KBVU 100755Z AUTO 27003KT 10SM CLR 30/11 A2988 RMK AO2,M
BAM,2021-08-10 07:55,-116.8743,40.5990,1382.36,64.40,30.20,27.55,320.00,5.00,0.00,30.13,M,10.00,M,CLR,M,M,M,M,M,M,M,M,M,M,M,M,M,M,64.40,KBAM 100755Z AUTO 32005KT 10SM CLR 18/M01 A3013 RMK AO1,M
TMT,2021-08-10 07:55,-117.1971,39.4643,1749.34,51.30,28.40,41.00,250.00,6.00,0.00,30.20,M,10.00,M,CLR,M,M,M,M,M,M,M,M,M,M,M,M,M,M,51.30,KTMT 100755Z AUTO 25006KT 10SM CLR 11/M02 A3020 RMK AO2 T01071020 403190028,M
RTS,2021-08-10 07:55,-119.8764,39.6682,1539.00,60.80,32.00,33.64,340.00,7.00,0.00,30.16,M,7.00,M,SCT,SCT,M,M,2800.00,3300.00,M,M,M,M,M,M,M,M,M,60.80,KRTS 100755Z AUTO 34007KT 7SM SCT028 SCT033 16/M00 A3016 RMK AO2,M
NFL,2021-08-10 07:56,-118.7010,39.4166,1199.00,68.00,34.00,28.34,260.00,4.00,0.00,30.04,1014.20,5.00,M,CLR,M,M,M,M,M,M,M,HZ,M,M,M,M,M,M,68.00,KNFL 100756Z AUTO 26004KT 5SM HZ CLR 20/01 A3004 RMK AO2 SLP142 T02000011 403560139,M
LAS,2021-08-10 07:56,-115.1634,36.0719,663.00,92.00,51.00,24.99,220.00,8.00,0.00,29.88,1008.40,10.00,M,CLR,M,M,M,M,M,M,M,M,M,M,M,M,M,M,89.04,KLAS 100756Z 22008KT 10SM CLR 33/11 A2988 RMK AO2 SLP084 T03330106 404110294,M
HND,2021-08-10 07:56,-115.1344,35.9729,742.79,87.00,53.00,31.30,180.00,10.00,0.00,29.92,1011.10,10.00,M,CLR,M,M,M,M,M,M,M,M,M,M,M,M,M,M,85.01,KHND 100756Z AUTO 18010KT 10SM CLR 31/12 A2992 RMK AO2 SLP111 T03060117,M
TPH,2021-08-10 07:56,-117.0904,38.0505,1654.00,65.00,16.00,14.91,350.00,5.00,0.00,30.14,1012.00,10.00,M,CLR,M,M,M,M,M,M,M,M,M,M,M,M,M,M,64.90,KTPH 100756Z AUTO 35005KT 10SM CLR 18/M09 A3014 RMK AO2 SLP120 T01831089 403440139,M
EKO,2021-08-10 07:56,-115.7860,40.8242,1367.00,58.00,27.00,30.43,0.00,0.00,0.00,30.15,1015.70,10.00,M,CLR,M,M,M,M,M,M,M,M,M,M,M,M,M,M,57.90,KEKO 100756Z AUTO 00000KT 10SM CLR 14/M03 A3015 RMK AO2 SLP157 T01441028 403280111,M
WMC,2021-08-10 07:56,-117.8072,40.9019,1315.00,73.00,24.10,15.95,40.00,12.00,0.00,30.10,1014.00,10.00,M,CLR,M,M,M,M,M,M,M,M,M,M,M,M,M,M,73.00,KWMC 100756Z AUTO 04012KT 10SM CLR 23/M04 A3010 RMK AO2 SLP140 T02281044 403280094 $,M
INS,2021-08-10 07:58,-115.6733,36.5872,955.00,80.80,27.10,13.95,40.00,7.00,0.00,29.93,1007.90,10.00,M,CLR,M,M,M,M,M,M,M,M,M,M,M,M,M,M,78.82,KINS 100758Z AUTO 04007KT 10SM CLR 27/M03 A2993 RMK AO2 SLP079 T02711027 403880201 $,M
LSV,2021-08-10 07:58,-115.0343,36.2362,570.00,92.00,50.00,23.84,190.00,11.00,0.00,29.84,1007.40,10.00,M,CLR,M,M,M,M,M,M,M,M,M,M,M,M,M,M,89.03,KLSV 100758Z AUTO 19011KT 10SM CLR 33/10 A2984 RMK AO2 SLP074 T03340100 404120288 $,M
CXP,2021-08-10 08:10,-119.7326,39.1923,1431.00,66.20,30.20,25.88,0.00,0.00,0.00,30.13,M,10.00,M,CLR,M,M,M,M,M,M,M,M,M,M,M,M,M,M,66.20,KCXP 100810Z AUTO 00000KT 10SM CLR 19/M01 A3013 RMK AO2,M
BVU,2021-08-10 08:15,-114.8611,35.9475,671.00,84.20,53.60,34.97,0.00,0.00,0.00,29.89,M,10.00,M,CLR,M,M,M,M,M,M,M,M,M,M,M,M,M,M,82.76,KBVU 100815Z AUTO 00000KT 10SM CLR 29/12 A2989 RMK AO2,M
TMT,2021-08-10 08:15,-117.1971,39.4643,1749.34,52.00,28.90,40.78,220.00,6.00,0.00,30.20,M,10.00,M,CLR,M,M,M,M,M,M,M,M,M,M,M,M,M,M,52.00,KTMT 100815Z AUTO 22006KT 10SM CLR 11/M02 A3020 RMK AO2 T01111017,M
BAM,2021-08-10 08:15,-116.8743,40.5990,1382.36,62.60,28.40,27.27,10.00,5.00,0.00,30.13,M,10.00,M,CLR,M,M,M,M,M,M,M,M,M,M,M,M,M,M,62.60,KBAM 100815Z AUTO 01005KT 10SM CLR 17/M02 A3013 RMK AO1,M
HTH,2021-08-10 08:15,-118.6315,38.5448,1282.89,77.00,33.80,20.74,310.00,8.00,0.00,30.06,M,10.00,M,CLR,M,M,M,M,M,M,M,M,M,M,M,M,M,M,77.00,KHTH 100815Z AUTO 31008KT 10SM CLR 25/01 A3006 RMK A01,M
RTS,2021-08-10 08:15,-119.8764,39.6682,1539.00,60.80,30.20,31.28,340.00,5.00,0.00,30.16,M,5.00,M,SCT,SCT,M,M,3000.00,3600.00,M,M,HZ,M,M,M,M,M,M,60.80,KRTS 100815Z AUTO 34005KT 5SM HZ SCT030 SCT036 16/M01 A3016 RMK AO2,M
MEV,2021-08-10 08:15,-119.7500,38.9963,1441.42,59.00,32.00,35.87,360.00,3.00,0.00,30.12,M,10.00,M,BKN,BKN,BKN,M,3900.00,4500.00,7000.00,M,M,M,M,M,M,M,M,59.00,KMEV 100815Z AUTO 36003KT 10SM BKN039 BKN045 BKN070 15/M00 A3012 RMK AO2,M
CXP,2021-08-10 08:30,-119.7326,39.1923,1431.00,64.40,32.00,29.63,0.00,0.00,0.00,30.13,M,10.00,M,FEW,FEW,M,M,3600.00,4400.00,M,M,M,M,M,M,M,M,M,64.40,KCXP 100830Z AUTO 00000KT 10SM FEW036 FEW044 18/M00 A3013 RMK AO2,M
BAM,2021-08-10 08:35,-116.8743,40.5990,1382.36,60.80,30.20,31.28,350.00,5.00,0.00,30.14,M,7.00,M,CLR,M,M,M,M,M,M,M,M,M,M,M,M,M,M,60.80,KBAM 100835Z AUTO 35005KT 7SM CLR 16/M01 A3014 RMK AO1,M
BVU,2021-08-10 08:35,-114.8611,35.9475,671.00,82.40,55.40,39.58,0.00,0.00,0.00,29.89,M,10.00,M,CLR,M,M,M,M,M,M,M,M,M,M,M,M,M,M,81.75,KBVU 100835Z AUTO 00000KT 10SM CLR 28/13 A2989 RMK AO2,M
MEV,2021-08-10 08:35,-119.7500,38.9963,1441.42,59.00,35.60,41.42,0.00,0.00,0.00,30.13,M,9.00,M,SCT,BKN,OVC,M,3500.00,4600.00,7000.00,M,M,M,M,M,M,M,M,59.00,KMEV 100835Z AUTO 00000KT 9SM SCT035 BKN046 OVC070 15/02 A3013 RMK AO2,M
RTS,2021-08-10 08:35,-119.8764,39.6682,1539.00,60.80,30.20,31.28,350.00,6.00,0.00,30.16,M,5.00,M,FEW,FEW,M,M,2600.00,3300.00,M,M,HZ,M,M,M,M,M,M,60.80,KRTS 100835Z AUTO 35006KT 5SM HZ FEW026 FEW033 16/M01 A3016 RMK AO2,M
HTH,2021-08-10 08:35,-118.6315,38.5448,1282.89,75.20,33.80,22.02,320.00,3.00,0.00,30.07,M,10.00,M,CLR,M,M,M,M,M,M,M,M,M,M,M,M,M,M,75.20,KHTH 100835Z AUTO 32003KT 10SM CLR 24/01 A3007 RMK A01,M
TMT,2021-08-10 08:35,-117.1971,39.4643,1749.34,52.00,28.90,40.78,210.00,6.00,0.00,30.21,M,10.00,M,CLR,M,M,M,M,M,M,M,M,M,M,M,M,M,M,52.00,KTMT 100835Z AUTO 21006KT 10SM CLR 11/M02 A3021 RMK AO2 T01111017,M
DRA,2021-08-10 08:53,-116.0278,36.6206,1009.00,87.00,46.00,24.02,200.00,9.00,0.00,29.95,1008.00,10.00,18.00,CLR,M,M,M,M,M,M,M,M,M,M,M,M,M,M,84.07,KDRA 100853Z AUTO 20009G18KT 10SM CLR 31/08 A2995 RMK AO2 SLP080 T03060078 53005,M
LOL,2021-08-10 08:53,-118.5701,40.0684,1192.43,73.00,33.00,23.06,30.00,7.00,0.00,30.05,1012.80,5.00,M,CLR,M,M,M,M,M,M,M,HZ,M,M,M,M,M,M,73.00,KLOL 100853Z AUTO 03007KT 5SM HZ CLR 23/01 A3005 RMK AO2 SLP128 T02280006 53010,M
VGT,2021-08-10 08:53,-115.1933,36.2111,667.00,88.00,40.00,18.47,M,3.00,0.00,29.86,1009.50,10.00,M,CLR,M,M,M,M,M,M,M,FU,M,M,M,M,M,M,84.41,KVGT 100853Z AUTO VRB03KT 10SM FU CLR 31/04 A2986 RMK AO2 SLP095 6//// T03110044 51009 PNO,M
ELY,2021-08-10 08:53,-114.8453,39.2950,1909.00,54.00,32.00,42.98,170.00,8.00,0.00,30.22,1012.70,7.00,M,CLR,M,M,M,M,M,M,M,M,M,M,M,M,M,M,54.00,KELY 100853Z AUTO 17008KT 7SM CLR 12/00 A3022 RMK AO2 SLP127 T01220000 51011,M
P68,2021-08-10 08:53,-116.0056,39.6014,1993.00,56.00,32.00,40.10,180.00,5.00,0.00,30.20,1014.00,M,M,M,M,M,M,M,M,M,M,M,M,M,M,M,M,M,55.90,KP68 100853Z AUTO 18005KT 13/00 A3020 RMK AO1 SLP140 T01330000 51011,M
BVU,2021-08-10 08:55,-114.8611,35.9475,671.00,82.40,55.40,39.58,0.00,0.00,0.00,29.89,M,10.00,M,CLR,M,M,M,M,M,M,M,M,M,M,M,M,M,M,81.75,KBVU 100855Z AUTO 00000KT 10SM CLR 28/13 A2989 RMK AO2,M
TMT,2021-08-10 08:55,-117.1971,39.4643,1749.34,49.50,27.90,42.94,210.00,6.00,0.00,30.21,M,10.00,M,CLR,M,M,M,M,M,M,M,M,M,M,M,M,M,M,46.61,KTMT 100855Z AUTO 21006KT 10SM CLR 10/M02 A3021 RMK AO2 T00971023,M
RTS,2021-08-10 08:55,-119.8764,39.6682,1539.00,60.80,32.00,33.64,330.00,7.00,0.00,30.16,M,6.00,M,BKN,BKN,M,M,2400.00,3000.00,M,M,HZ,M,M,M,M,M,M,60.80,KRTS 100855Z AUTO 33007KT 6SM HZ BKN024 BKN030 16/00 A3016 RMK AO2,M
CXP,2021-08-10 08:55,-119.7326,39.1923,1431.00,64.40,30.20,27.55,0.00,0.00,0.00,30.14,M,10.00,M,FEW,FEW,M,M,3800.00,4400.00,M,M,M,M,M,M,M,M,M,64.40,KCXP 100855Z AUTO 00000KT 10SM FEW038 FEW044 18/M01 A3014 RMK AO2,M
HTH,2021-08-10 08:55,-118.6315,38.5448,1282.89,73.40,41.00,31.05,30.00,4.00,0.00,30.07,M,10.00,M,CLR,M,M,M,M,M,M,M,M,M,M,M,M,M,M,73.40,KHTH 100855Z AUTO 03004KT 10SM CLR 23/05 A3007 RMK A01,M
BAM,2021-08-10 08:55,-116.8743,40.5990,1382.36,55.40,28.40,35.28,70.00,4.00,0.00,30.14,M,10.00,M,CLR,M,M,M,M,M,M,M,M,M,M,M,M,M,M,55.40,KBAM 100855Z AUTO 07004KT 10SM CLR 13/M02 A3014 RMK AO1,M
MEV,2021-08-10 08:55,-119.7500,38.9963,1441.42,55.40,37.40,50.64,0.00,0.00,0.00,30.13,M,10.00,M,FEW,SCT,BKN,M,3400.00,4200.00,5500.00,M,M,M,M,M,M,M,M,55.40,KMEV 100855Z AUTO 00000KT 10SM FEW034 SCT042 BKN055 13/03 A3013 RMK AO2,M
RNO,2021-08-10 08:55,-119.7711,39.4839,1341.00,72.00,40.00,31.20,270.00,6.00,0.00,30.11,1013.10,6.00,M,FEW,M,M,M,3900.00,M,M,M,HZ,M,M,M,M,M,M,72.00,KRNO 100855Z 27006KT 6SM HZ FEW039 22/04 A3011 RMK AO2 SLP131 T02220044 51010,M
LAS,2021-08-10 08:56,-115.1634,36.0719,663.00,89.00,52.00,28.21,190.00,6.00,0.00,29.88,1008.50,10.00,M,CLR,M,M,M,M,M,M,M,M,M,M,M,M,M,M,86.58,KLAS 100856Z 19006KT 10SM CLR 32/11 A2988 RMK AO2 SLP085 T03170111 51008,M
HND,2021-08-10 08:56,-115.1344,35.9729,742.79,87.00,55.00,33.55,170.00,8.00,0.00,29.92,1011.10,10.00,M,CLR,M,M,M,M,M,M,M,M,M,M,M,M,M,M,85.40,KHND 100856Z AUTO 17008KT 10SM CLR 31/13 A2992 RMK AO2 SLP111 T03060128 51008,M
EKO,2021-08-10 08:56,-115.7860,40.8242,1367.00,54.00,28.90,37.89,0.00,0.00,0.00,30.16,1016.30,9.00,M,CLR,M,M,M,M,M,M,M,M,M,M,M,M,M,M,54.00,KEKO 100856Z AUTO 00000KT 9SM CLR 12/M02 A3016 RMK AO2 SLP163 T01221017 51010,M
NFL,2021-08-10 08:56,-118.7010,39.4166,1199.00,70.00,32.00,24.42,320.00,8.00,0.00,30.05,1014.40,5.00,M,CLR,M,M,M,M,M,M,M,HZ,M,M,M,M,M,M,70.00,KNFL 100856Z AUTO 32008KT 5SM HZ CLR 21/00 A3005 RMK AO2 SLP144 T02110000 51016,M
TPH,2021-08-10 08:56,-117.0904,38.0505,1654.00,64.00,18.00,16.77,360.00,9.00,0.00,30.14,1012.20,10.00,M,CLR,M,M,M,M,M,M,M,M,M,M,M,M,M,M,64.00,KTPH 100856Z AUTO 36009KT 10SM CLR 18/M08 A3014 RMK AO2 SLP122 T01781078 51007,M
WMC,2021-08-10 08:56,-117.8072,40.9019,1315.00,71.00,21.90,15.51,40.00,7.00,0.00,30.11,1014.00,10.00,M,CLR,M,M,M,M,M,M,M,M,M,M,M,M,M,M,71.10,KWMC 100856Z AUTO 04007KT 10SM CLR 22/M06 A3011 RMK AO2 SLP140 T02171056 51008 $,M
LSV,2021-08-10 08:58,-115.0343,36.2362,570.00,91.60,51.80,25.89,180.00,11.00,0.00,29.84,1007.40,10.00,M,CLR,M,M,M,M,M,M,M,M,M,M,M,M,M,M,88.88,KLSV 100858Z AUTO 18011KT 10SM CLR 33/11 A2984 RMK AO2 SLP074 T03310110 $,M
INS,2021-08-10 08:58,-115.6733,36.5872,955.00,79.50,30.90,17.00,330.00,5.00,0.00,29.94,1008.20,10.00,M,CLR,M,M,M,M,M,M,M,M,M,M,M,M,M,M,79.50,KINS 100858Z AUTO 33005KT 10SM CLR 26/M01 A2994 RMK AO2 SLP082 T02641006 53006 $,M
CXP,2021-08-10 09:10,-119.7326,39.1923,1431.00,64.40,30.20,27.55,0.00,0.00,0.00,30.14,M,10.00,M,FEW,M,M,M,4100.00,M,M,M,M,M,M,M,M,M,M,64.40,KCXP 100910Z AUTO 00000KT 10SM FEW041 18/M01 A3014 RMK AO2,M
BVU,2021-08-10 09:15,-114.8611,35.9475,671.00,80.60,55.40,41.97,360.00,4.00,0.00,29.89,M,10.00,M,CLR,M,M,M,M,M,M,M,M,M,M,M,M,M,M,80.53,KBVU 100915Z AUTO 36004KT 10SM CLR 27/13 A2989 RMK AO2,M
MEV,2021-08-10 09:15,-119.7500,38.9963,1441.42,53.60,33.80,46.88,130.00,3.00,0.00,30.13,M,10.00,M,SCT,SCT,BKN,M,3600.00,4400.00,5500.00,M,M,M,M,M,M,M,M,53.60,KMEV 100915Z AUTO 13003KT 10SM SCT036 SCT044 BKN055 12/01 A3013 RMK AO2,M
BAM,2021-08-10 09:15,-116.8743,40.5990,1382.36,55.40,26.60,32.76,50.00,4.00,0.00,30.14,M,10.00,M,CLR,M,M,M,M,M,M,M,M,M,M,M,M,M,M,55.40,KBAM 100915Z AUTO 05004KT 10SM CLR 13/M03 A3014 RMK AO1,M
HTH,2021-08-10 09:15,-118.6315,38.5448,1282.89,73.40,39.20,28.96,0.00,0.00,0.00,30.07,M,10.00,M,CLR,M,M,M,M,M,M,M,M,M,M,M,M,M,M,73.40,KHTH 100915Z AUTO 00000KT 10SM CLR 23/04 A3007 RMK A01,M
TMT,2021-08-10 09:15,-117.1971,39.4643,1749.34,47.30,27.10,45.12,0.00,0.00,0.00,30.22,M,10.00,M,CLR,M,M,M,M,M,M,M,M,M,M,M,M,M,M,47.30,KTMT 100915Z AUTO 00000KT 10SM CLR 09/M03 A3022 RMK AO2 T00851027,M
RTS,2021-08-10 09:15,-119.8764,39.6682,1539.00,62.60,33.80,33.93,340.00,6.00,0.00,30.16,M,7.00,M,FEW,SCT,M,M,2100.00,2700.00,M,M,M,M,M,M,M,M,M,62.60,KRTS 100915Z AUTO 34006KT 7SM FEW021 SCT027 17/01 A3016 RMK AO2,M
CXP,2021-08-10 09:30,-119.7326,39.1923,1431.00,62.60,30.20,29.35,0.00,0.00,0.00,30.14,M,10.00,M,BKN,M,M,M,4000.00,M,M,M,M,M,M,M,M,M,M,62.60,KCXP 100930Z AUTO 00000KT 10SM BKN040 17/M01 A3014 RMK AO2,M
HTH,2021-08-10 09:35,-118.6315,38.5448,1282.89,71.60,35.60,26.71,210.00,5.00,0.00,30.07,M,10.00,M,CLR,M,M,M,M,M,M,M,M,M,M,M,M,M,M,71.60,KHTH 100935Z AUTO 21005KT 10SM CLR 22/02 A3007 RMK A01,M
BVU,2021-08-10 09:35,-114.8611,35.9475,671.00,80.60,57.20,44.80,40.00,6.00,0.00,29.89,M,10.00,M,CLR,M,M,M,M,M,M,M,M,M,M,M,M,M,M,80.81,KBVU 100935Z AUTO 04006KT 10SM CLR 27/14 A2989 RMK AO2,M
TMT,2021-08-10 09:35,-117.1971,39.4643,1749.34,46.00,26.40,46.22,0.00,0.00,0.00,30.22,M,10.00,M,CLR,M,M,M,M,M,M,M,M,M,M,M,M,M,M,45.90,KTMT 100935Z AUTO 00000KT 10SM CLR 08/M03 A3022 RMK AO2 T00771031,M
RTS,2021-08-10 09:35,-119.8764,39.6682,1539.00,64.40,33.80,31.85,340.00,5.00,0.00,30.16,M,9.00,M,SCT,SCT,M,M,2500.00,3200.00,M,M,M,M,M,M,M,M,M,64.40,KRTS 100935Z AUTO 34005KT 9SM SCT025 SCT032 18/01 A3016 RMK AO2,M
MEV,2021-08-10 09:35,-119.7500,38.9963,1441.42,53.60,33.80,46.88,110.00,8.00,0.00,30.14,M,10.00,M,SCT,BKN,BKN,M,3700.00,4300.00,5500.00,M,M,M,M,M,M,M,M,53.60,KMEV 100935Z AUTO 11008KT 10SM SCT037 BKN043 BKN055 12/01 A3014 RMK AO2,M
BAM,2021-08-10 09:35,-116.8743,40.5990,1382.36,59.00,26.60,28.77,30.00,4.00,0.00,30.14,M,10.00,M,CLR,M,M,M,M,M,M,M,M,M,M,M,M,M,M,59.00,KBAM 100935Z AUTO 03004KT 10SM CLR 15/M03 A3014 RMK AO1,M
CXP,2021-08-10 09:50,-119.7326,39.1923,1431.00,62.60,30.20,29.35,0.00,0.00,0.00,30.15,M,10.00,M,SCT,SCT,M,M,3900.00,4700.00,M,M,M,M,M,M,M,M,M,62.60,KCXP 100950Z AUTO 00000KT 10SM SCT039 SCT047 17/M01 A3015 RMK AO2,M
VGT,2021-08-10 09:53,-115.1933,36.2111,667.00,86.00,43.00,22.19,280.00,5.00,0.00,29.87,1009.80,10.00,M,CLR,M,M,M,M,M,M,M,FU,M,M,M,M,M,M,82.97,KVGT 100953Z AUTO 28005KT 10SM FU CLR 30/06 A2987 RMK AO2 SLP098 T03000061 PNO,M
LOL,2021-08-10 09:53,-118.5701,40.0684,1192.43,68.00,32.00,26.15,340.00,7.00,0.00,30.07,1013.50,6.00,M,CLR,M,M,M,M,M,M,M,HZ,M,M,M,M,M,M,68.00,KLOL 100953Z AUTO 34007KT 6SM HZ CLR 20/00 A3007 RMK AO2 SLP135 T02000000,M
ELY,2021-08-10 09:53,-114.8453,39.2950,1909.00,52.00,32.00,46.25,200.00,6.00,0.00,30.23,1013.20,7.00,M,CLR,M,M,M,M,M,M,M,M,M,M,M,M,M,M,52.00,KELY 100953Z AUTO 20006KT 7SM CLR 11/00 A3023 RMK AO2 SLP132 T01110000,M
P68,2021-08-10 09:53,-116.0056,39.6014,1993.00,53.00,33.00,46.42,200.00,4.00,0.00,30.21,1014.50,M,M,M,M,M,M,M,M,M,M,M,M,M,M,M,M,M,53.10,KP68 100953Z AUTO 20004KT 12/01 A3021 RMK AO1 SLP145 T01170006,M
DRA,2021-08-10 09:53,-116.0278,36.6206,1009.00,87.00,44.00,22.34,190.00,10.00,0.00,29.95,1008.00,10.00,M,CLR,M,M,M,M,M,M,M,M,M,M,M,M,M,M,83.91,KDRA 100953Z AUTO 19010KT 10SM CLR 31/07 A2995 RMK AO2 SLP080 T03060067,M
BVU,2021-08-10 09:55,-114.8611,35.9475,671.00,80.60,57.20,44.80,50.00,4.00,0.00,29.89,M,10.00,M,CLR,M,M,M,M,M,M,M,M,M,M,M,M,M,M,80.81,KBVU 100955Z AUTO 05004KT 10SM CLR 27/14 A2989 RMK AO2,M
BAM,2021-08-10 09:55,-116.8743,40.5990,1382.36,53.60,24.80,32.46,70.00,3.00,0.00,30.15,M,10.00,M,CLR,M,M,M,M,M,M,M,M,M,M,M,M,M,M,53.60,KBAM 100955Z AUTO 07003KT 10SM CLR 12/M04 A3015 RMK AO1,M
HTH,2021-08-10 09:55,-118.6315,38.5448,1282.89,73.40,37.40,26.98,280.00,5.00,0.00,30.07,M,10.00,M,CLR,M,M,M,M,M,M,M,M,M,M,M,M,M,M,73.40,KHTH 100955Z AUTO 28005KT 10SM CLR 23/03 A3007 RMK A01,M
RNO,2021-08-10 09:55,-119.7711,39.4839,1341.00,69.00,39.00,33.25,260.00,3.00,0.00,30.12,1013.40,6.00,M,CLR,M,M,M,M,M,M,M,HZ,M,M,M,M,M,M,69.10,KRNO 100955Z 26003KT 6SM HZ CLR 21/04 A3012 RMK AO2 SLP134 FU ALF ALQDS T02060039,M
TMT,2021-08-10 09:55,-117.1971,39.4643,1749.34,45.30,27.00,48.47,240.00,4.00,0.00,30.22,M,10.00,M,CLR,M,M,M,M,M,M,M,M,M,M,M,M,M,M,42.95,KTMT 100955Z AUTO 24004KT 10SM CLR 07/M03 A3022 RMK AO2 T00741028,M
MEV,2021-08-10 09:55,-119.7500,38.9963,1441.42,57.20,33.80,41.13,0.00,0.00,0.00,30.14,M,9.00,M,SCT,BKN,BKN,M,4000.00,4700.00,5500.00,M,M,M,M,M,M,M,M,57.20,KMEV 100955Z AUTO 00000KT 9SM SCT040 BKN047 BKN055 14/01 A3014 RMK AO2,M
RTS,2021-08-10 09:55,-119.8764,39.6682,1539.00,62.60,33.80,33.93,0.00,0.00,0.00,30.17,M,8.00,M,FEW,SCT,M,M,2300.00,2900.00,M,M,M,M,M,M,M,M,M,62.60,KRTS 100955Z AUTO 00000KT 8SM FEW023 SCT029 17/01 A3017 RMK AO2,M
HND,2021-08-10 09:56,-115.1344,35.9729,742.79,85.00,57.00,38.69,190.00,6.00,0.00,29.93,1011.60,10.00,M,CLR,M,M,M,M,M,M,M,M,M,M,M,M,M,M,83.99,KHND 100956Z AUTO 19006KT 10SM CLR 29/14 A2993 RMK AO2 SLP116 T02940139,M
EKO,2021-08-10 09:56,-115.7860,40.8242,1367.00,52.00,30.00,42.65,0.00,0.00,0.00,30.17,1016.40,10.00,M,CLR,M,M,M,M,M,M,M,M,M,M,M,M,M,M,52.00,KEKO 100956Z AUTO 00000KT 10SM CLR 11/M01 A3017 RMK AO2 SLP164 T01111011,M
LAS,2021-08-10 09:56,-115.1634,36.0719,663.00,88.00,55.00,32.60,190.00,7.00,0.00,29.88,1008.60,10.00,M,CLR,M,M,M,M,M,M,M,M,M,M,M,M,M,M,86.20,KLAS 100956Z 19007KT 10SM CLR 31/13 A2988 RMK AO2 SLP086 T03110128,M
TPH,2021-08-10 09:56,-117.0904,38.0505,1654.00,63.00,19.90,18.85,360.00,11.00,0.00,30.15,1012.20,10.00,M,CLR,M,M,M,M,M,M,M,M,M,M,M,M,M,M,63.00,KTPH 100956Z AUTO 36011KT 10SM CLR 17/M07 A3015 RMK AO2 SLP122 T01721067,M
WMC,2021-08-10 09:56,-117.8072,40.9019,1315.00,67.00,25.00,20.39,50.00,7.00,0.00,30.11,1014.20,10.00,M,FEW,M,M,M,12000.00,M,M,M,M,M,M,M,M,M,M,66.90,KWMC 100956Z AUTO 05007KT 10SM FEW120 19/M04 A3011 RMK AO2 SLP142 T01941039 $,M
NFL,2021-08-10 09:56,-118.7010,39.4166,1199.00,62.00,34.00,34.81,200.00,3.00,0.00,30.07,1014.90,5.00,M,CLR,M,M,M,M,M,M,M,HZ,M,M,M,M,M,M,62.10,KNFL 100956Z AUTO 20003KT 5SM HZ CLR 17/01 A3007 RMK AO2 SLP149 T01670011,M
INS,2021-08-10 09:58,-115.6733,36.5872,955.00,73.40,25.90,16.96,0.00,0.00,0.00,29.95,1008.70,10.00,M,CLR,M,M,M,M,M,M,M,M,M,M,M,M,M,M,73.40,KINS 100958Z AUTO 00000KT 10SM CLR 23/M03 A2995 RMK AO2 SLP087 T02301034 $,M
LSV,2021-08-10 09:58,-115.0343,36.2362,570.00,91.00,53.40,27.98,180.00,11.00,0.00,29.85,1007.70,10.00,M,CLR,M,M,M,M,M,M,M,M,M,M,M,M,M,M,88.64,KLSV 100958Z AUTO 18011KT 10SM CLR 33/12 A2985 RMK AO2 SLP077 T03280119 $,M
CXP,2021-08-10 10:10,-119.7326,39.1923,1431.00,62.60,30.20,29.35,0.00,0.00,0.00,30.15,M,10.00,M,FEW,M,M,M,3600.00,M,M,M,M,M,M,M,M,M,M,62.60,KCXP 101010Z AUTO 00000KT 10SM FEW036 17/M01 A3015 RMK AO2,M
MEV,2021-08-10 10:15,-119.7500,38.9963,1441.42,53.60,32.00,43.61,0.00,0.00,0.00,30.14,M,9.00,M,SCT,BKN,BKN,M,4100.00,4800.00,5500.00,M,M,M,M,M,M,M,M,53.60,KMEV 101015Z AUTO 00000KT 9SM SCT041 BKN048 BKN055 12/M00 A3014 RMK AO2,M
BAM,2021-08-10 10:15,-116.8743,40.5990,1382.36,53.60,24.80,32.46,70.00,4.00,0.00,30.15,M,10.00,M,CLR,M,M,M,M,M,M,M,M,M,M,M,M,M,M,53.60,KBAM 101015Z AUTO 07004KT 10SM CLR 12/M04 A3015 RMK AO1,M
HTH,2021-08-10 10:15,-118.6315,38.5448,1282.89,71.60,35.60,26.71,0.00,0.00,0.00,30.08,M,10.00,M,CLR,M,M,M,M,M,M,M,M,M,M,M,M,M,M,71.60,KHTH 101015Z AUTO 00000KT 10SM CLR 22/02 A3008 RMK A01,M
BVU,2021-08-10 10:15,-114.8611,35.9475,671.00,80.60,57.20,44.80,40.00,5.00,0.00,29.89,M,10.00,M,CLR,M,M,M,M,M,M,M,M,M,M,M,M,M,M,80.81,KBVU 101015Z AUTO 04005KT 10SM CLR 27/14 A2989 RMK AO2,M
TMT,2021-08-10 10:15,-117.1971,39.4643,1749.34,46.60,27.70,47.49,250.00,5.00,0.00,30.22,M,10.00,M,CLR,M,M,M,M,M,M,M,M,M,M,M,M,M,M,43.73,KTMT 101015Z AUTO 25005KT 10SM CLR 08/M02 A3022 RMK AO2 T00811024,M
RTS,2021-08-10 10:15,-119.8764,39.6682,1539.00,59.00,32.00,35.87,0.00,0.00,0.00,30.17,M,7.00,M,FEW,FEW,M,M,2400.00,3100.00,M,M,M,M,M,M,M,M,M,59.00,KRTS 101015Z AUTO 00000KT 7SM FEW024 FEW031 15/00 A3017 RMK AO2,M
RTS,2021-08-10 10:35,-119.8764,39.6682,1539.00,57.20,30.20,35.57,0.00,0.00,0.00,30.17,M,7.00,M,SCT,M,M,M,2400.00,M,M,M,M,M,M,M,M,M,M,57.20,KRTS 101035Z AUTO 00000KT 7SM SCT024 14/M01 A3017 RMK AO2,M
MEV,2021-08-10 10:35,-119.7500,38.9963,1441.42,53.60,35.60,50.36,0.00,0.00,0.00,30.15,M,10.00,M,BKN,BKN,M,M,4100.00,4800.00,M,M,M,M,M,M,M,M,M,53.60,KMEV 101035Z AUTO 00000KT 10SM BKN041 BKN048 12/02 A3015 RMK AO2,M
BAM,2021-08-10 10:35,-116.8743,40.5990,1382.36,50.00,24.80,37.08,40.00,4.00,0.00,30.16,M,10.00,M,CLR,M,M,M,M,M,M,M,M,M,M,M,M,M,M,50.00,KBAM 101035Z AUTO 04004KT 10SM CLR 10/M04 A3016 RMK AO1,M
BVU,2021-08-10 10:35,-114.8611,35.9475,671.00,82.40,57.20,42.25,50.00,6.00,0.00,29.89,M,10.00,M,CLR,M,M,M,M,M,M,M,M,M,M,M,M,M,M,82.08,KBVU 101035Z AUTO 05006KT 10SM CLR 28/14 A2989 RMK AO2,M
CXP,2021-08-10 10:35,-119.7326,39.1923,1431.00,60.80,32.00,33.64,0.00,0.00,0.00,30.16,M,10.00,M,CLR,M,M,M,M,M,M,M,M,M,M,M,M,M,M,60.80,KCXP 101035Z AUTO 00000KT 10SM CLR 16/M00 A3016 RMK AO2,M
TMT,2021-08-10 10:35,-117.1971,39.4643,1749.34,45.50,26.60,47.31,230.00,3.00,0.00,30.22,M,10.00,M,CLR,M,M,M,M,M,M,M,M,M,M,M,M,M,M,44.12,KTMT 101035Z AUTO 23003KT 10SM CLR 08/M03 A3022 RMK AO2 T00751030,M
HTH,2021-08-10 10:35,-118.6315,38.5448,1282.89,73.40,37.40,26.98,0.00,0.00,0.00,30.08,M,10.00,M,CLR,M,M,M,M,M,M,M,M,M,M,M,M,M,M,73.40,KHTH 101035Z AUTO 00000KT 10SM CLR 23/03 A3008 RMK A01,M
CXP,2021-08-10 10:50,-119.7326,39.1923,1431.00,62.60,30.20,29.35,0.00,0.00,0.00,30.16,M,10.00,M,FEW,M,M,M,3900.00,M,M,M,M,M,M,M,M,M,M,62.60,KCXP 101050Z AUTO 00000KT 10SM FEW039 17/M01 A3016 RMK AO2,M
VGT,2021-08-10 10:53,-115.1933,36.2111,667.00,84.00,44.00,24.68,300.00,6.00,0.00,29.88,1010.10,10.00,M,CLR,M,M,M,M,M,M,M,FU,M,M,M,M,M,M,81.55,KVGT 101053Z AUTO 30006KT 10SM FU CLR 29/07 A2988 RMK AO2 SLP101 T02890067 PNO,M
P68,2021-08-10 10:53,-116.0056,39.6014,1993.00,52.00,33.00,48.34,190.00,5.00,0.00,30.22,1014.70,M,M,M,M,M,M,M,M,M,M,M,M,M,M,M,M,M,52.00,KP68 101053Z AUTO 19005KT 11/01 A3022 RMK AO1 SLP147 T01110006,M
ELY,2021-08-10 10:53,-114.8453,39.2950,1909.00,49.00,30.90,49.63,160.00,7.00,0.00,30.24,1014.10,7.00,M,CLR,M,M,M,M,M,M,M,M,M,M,M,M,M,M,45.38,KELY 101053Z AUTO 16007KT 7SM CLR 09/M01 A3024 RMK AO2 SLP141 T00941006,M
LOL,2021-08-10 10:53,-118.5701,40.0684,1192.43,64.00,30.90,28.74,340.00,4.00,0.00,30.08,1014.10,6.00,M,CLR,M,M,M,M,M,M,M,HZ,M,M,M,M,M,M,64.00,KLOL 101053Z AUTO 34004KT 6SM HZ CLR 18/M01 A3008 RMK AO2 SLP141 T01781006,M
DRA,2021-08-10 10:53,-116.0278,36.6206,1009.00,82.00,42.00,24.38,50.00,3.00,0.00,29.97,1008.70,10.00,M,CLR,M,M,M,M,M,M,M,M,M,M,M,M,M,M,80.09,KDRA 101053Z AUTO 05003KT 10SM CLR 28/06 A2997 RMK AO2 SLP087 T02780056,M
TMT,2021-08-10 10:55,-117.1971,39.4643,1749.34,42.00,25.20,50.84,170.00,4.00,0.00,30.23,M,10.00,M,CLR,M,M,M,M,M,M,M,M,M,M,M,M,M,M,39.21,KTMT 101055Z AUTO 17004KT 10SM CLR 06/M04 A3023 RMK AO2 T00561038,M
HTH,2021-08-10 10:55,-118.6315,38.5448,1282.89,71.60,35.60,26.71,230.00,3.00,0.00,30.09,M,10.00,M,CLR,M,M,M,M,M,M,M,M,M,M,M,M,M,M,71.60,KHTH 101055Z AUTO 23003KT 10SM CLR 22/02 A3009 RMK A01,M
BAM,2021-08-10 10:55,-116.8743,40.5990,1382.36,53.60,30.20,40.54,30.00,3.00,0.00,30.15,M,10.00,M,CLR,M,M,M,M,M,M,M,M,M,M,M,M,M,M,53.60,KBAM 101055Z AUTO 03003KT 10SM CLR 12/M01 A3015 RMK AO1,M
MEV,2021-08-10 10:55,-119.7500,38.9963,1441.42,55.40,33.80,43.90,0.00,0.00,0.00,30.15,M,9.00,M,BKN,BKN,M,M,3900.00,5000.00,M,M,M,M,M,M,M,M,M,55.40,KMEV 101055Z AUTO 00000KT 9SM BKN039 BKN050 13/01 A3015 RMK AO2,M
RNO,2021-08-10 10:55,-119.7711,39.4839,1341.00,66.00,39.00,37.00,0.00,0.00,0.00,30.13,1014.20,6.00,M,CLR,M,M,M,M,M,M,M,HZ,M,M,M,M,M,M,66.00,KRNO 101055Z 00000KT 6SM HZ CLR 19/04 A3013 RMK AO2 SLP142 FU ALF ALQDS T01890039,M
RTS,2021-08-10 10:55,-119.8764,39.6682,1539.00,59.00,33.80,38.56,110.00,3.00,0.00,30.18,M,7.00,M,BKN,BKN,BKN,M,2400.00,2900.00,3800.00,M,M,M,M,M,M,M,M,59.00,KRTS 101055Z AUTO 11003KT 7SM BKN024 BKN029 BKN038 15/01 A3018 RMK AO2,M
BVU,2021-08-10 10:55,-114.8611,35.9475,671.00,84.20,57.20,39.86,90.00,6.00,0.00,29.90,M,10.00,M,CLR,M,M,M,M,M,M,M,M,M,M,M,M,M,M,83.47,KBVU 101055Z AUTO 09006KT 10SM CLR 29/14 A2990 RMK AO2,M
HND,2021-08-10 10:56,-115.1344,35.9729,742.79,86.00,55.00,34.74,190.00,10.00,0.00,29.93,1011.40,10.00,M,CLR,M,M,M,M,M,M,M,M,M,M,M,M,M,M,84.46,KHND 101056Z AUTO 19010KT 10SM CLR 30/13 A2993 RMK AO2 SLP114 T03000128,M
EKO,2021-08-10 10:56,-115.7860,40.8242,1367.00,51.00,28.00,40.63,0.00,0.00,0.00,30.18,1016.80,10.00,M,CLR,M,M,M,M,M,M,M,M,M,M,M,M,M,M,51.10,KEKO 101056Z AUTO 00000KT 10SM CLR 11/M02 A3018 RMK AO2 SLP168 T01061022,M
WMC,2021-08-10 10:56,-117.8072,40.9019,1315.00,67.00,26.10,21.35,M,4.00,0.00,30.12,1014.60,10.00,M,FEW,M,M,M,10000.00,M,M,M,M,M,M,M,M,M,M,66.90,KWMC 101056Z AUTO VRB04KT 10SM FEW100 19/M03 A3012 RMK AO2 SLP146 T01941033 $,M
NFL,2021-08-10 10:56,-118.7010,39.4166,1199.00,59.00,39.00,47.35,190.00,3.00,0.00,30.07,1015.10,6.00,M,CLR,M,M,M,M,M,M,M,HZ,M,M,M,M,M,M,59.00,KNFL 101056Z AUTO 19003KT 6SM HZ CLR 15/04 A3007 RMK AO2 SLP151 T01500039,M
TPH,2021-08-10 10:56,-117.0904,38.0505,1654.00,63.00,21.00,19.75,10.00,11.00,0.00,30.16,1012.50,10.00,M,CLR,M,M,M,M,M,M,M,M,M,M,M,M,M,M,63.00,KTPH 101056Z AUTO 01011KT 10SM CLR 17/M06 A3016 RMK AO2 SLP125 T01721061,M
LAS,2021-08-10 10:56,-115.1634,36.0719,663.00,87.00,54.00,32.34,190.00,6.00,0.00,29.89,1008.70,10.00,M,CLR,M,M,M,M,M,M,M,M,M,M,M,M,M,M,85.19,KLAS 101056Z 19006KT 10SM CLR 31/12 A2989 RMK AO2 SLP087 T03060122,M
INS,2021-08-10 10:58,-115.6733,36.5872,955.00,75.70,29.10,17.91,0.00,0.00,0.00,29.97,1009.40,10.00,M,CLR,M,M,M,M,M,M,M,M,M,M,M,M,M,M,75.70,KINS 101058Z AUTO 00000KT 10SM CLR 24/M02 A2997 RMK AO2 SLP094 T02431016 $,M
LSV,2021-08-10 10:58,-115.0343,36.2362,570.00,89.00,54.30,30.89,0.00,0.00,0.00,29.86,1008.10,10.00,M,CLR,M,M,M,M,M,M,M,M,M,M,M,M,M,M,86.86,KLSV 101058Z AUTO 00000KT 10SM CLR 32/12 A2986 RMK AO2 SLP081 T03160124 $,M
CXP,2021-08-10 11:10,-119.7326,39.1923,1431.00,60.80,30.20,31.28,0.00,0.00,0.00,30.16,M,10.00,M,FEW,FEW,M,M,3700.00,4300.00,M,M,M,M,M,M,M,M,M,60.80,KCXP 101110Z AUTO 00000KT 10SM FEW037 FEW043 16/M01 A3016 RMK AO2,M
MEV,2021-08-10 11:15,-119.7500,38.9963,1441.42,50.00,32.00,49.81,0.00,0.00,0.00,30.15,M,9.00,M,FEW,FEW,SCT,M,3500.00,4100.00,4900.00,M,M,M,M,M,M,M,M,50.00,KMEV 101115Z AUTO 00000KT 9SM FEW035 FEW041 SCT049 10/00 A3015 RMK AO2,M
TMT,2021-08-10 11:15,-117.1971,39.4643,1749.34,40.50,26.80,57.79,190.00,4.00,0.00,30.23,M,10.00,M,CLR,M,M,M,M,M,M,M,M,M,M,M,M,M,M,37.35,KTMT 101115Z AUTO 19004KT 10SM CLR 05/M03 A3023 RMK AO2 T00471029,M
RTS,2021-08-10 11:15,-119.8764,39.6682,1539.00,55.40,30.20,37.97,280.00,3.00,0.00,30.18,M,6.00,M,BKN,OVC,M,M,2200.00,2700.00,M,M,HZ,M,M,M,M,M,M,55.40,KRTS 101115Z AUTO 28003KT 6SM HZ BKN022 OVC027 13/M01 A3018 RMK AO2,M
BVU,2021-08-10 11:15,-114.8611,35.9475,671.00,82.40,59.00,45.07,70.00,5.00,0.00,29.90,M,10.00,M,CLR,M,M,M,M,M,M,M,M,M,M,M,M,M,M,82.46,KBVU 101115Z AUTO 07005KT 10SM CLR 28/15 A2990 RMK AO2,M
HTH,2021-08-10 11:15,-118.6315,38.5448,1282.89,71.60,33.80,24.86,0.00,0.00,0.00,30.09,M,10.00,M,CLR,M,M,M,M,M,M,M,M,M,M,M,M,M,M,71.60,KHTH 101115Z AUTO 00000KT 10SM CLR 22/01 A3009 RMK A01,M
BAM,2021-08-10 11:15,-116.8743,40.5990,1382.36,53.60,28.40,37.67,0.00,0.00,0.00,30.15,M,10.00,M,CLR,M,M,M,M,M,M,M,M,M,M,M,M,M,M,53.60,KBAM 101115Z AUTO 00000KT 10SM CLR 12/M02 A3015 RMK AO1,M
BVU,2021-08-10 11:35,-114.8611,35.9475,671.00,84.20,57.20,39.86,110.00,8.00,0.00,29.91,M,10.00,M,CLR,M,M,M,M,M,M,M,M,M,M,M,M,M,M,83.47,KBVU 101135Z AUTO 11008KT 10SM CLR 29/14 A2991 RMK AO2,M
MEV,2021-08-10 11:35,-119.7500,38.9963,1441.42,50.00,37.40,61.76,90.00,5.00,0.00,30.15,M,9.00,M,SCT,SCT,M,M,4100.00,4900.00,M,M,M,M,M,M,M,M,M,50.00,KMEV 101135Z AUTO 09005KT 9SM SCT041 SCT049 10/03 A3015 RMK AO2,M
RTS,2021-08-10 11:35,-119.8764,39.6682,1539.00,53.60,32.00,43.61,330.00,5.00,0.00,30.18,M,6.00,M,BKN,BKN,M,M,2300.00,3200.00,M,M,HZ,M,M,M,M,M,M,53.60,KRTS 101135Z AUTO 33005KT 6SM HZ BKN023 BKN032 12/M00 A3018 RMK AO2,M
HTH,2021-08-10 11:35,-118.6315,38.5448,1282.89,71.60,37.40,28.68,0.00,0.00,0.00,30.10,M,10.00,M,CLR,M,M,M,M,M,M,M,M,M,M,M,M,M,M,71.60,KHTH 101135Z AUTO 00000KT 10SM CLR 22/03 A3010 RMK A01,M
TMT,2021-08-10 11:35,-117.1971,39.4643,1749.34,42.00,26.20,53.00,0.00,0.00,0.00,30.23,M,10.00,M,CLR,M,M,M,M,M,M,M,M,M,M,M,M,M,M,42.10,KTMT 101135Z AUTO 00000KT 10SM CLR 06/M03 A3023 RMK AO2 T00561032,M
CXP,2021-08-10 11:35,-119.7326,39.1923,1431.00,60.80,32.00,33.64,0.00,0.00,0.00,30.16,M,10.00,M,FEW,M,M,M,3900.00,M,M,M,M,M,M,M,M,M,M,60.80,KCXP 101135Z AUTO 00000KT 10SM FEW039 16/00 A3016 RMK AO2,M
BAM,2021-08-10 11:35,-116.8743,40.5990,1382.36,50.00,24.80,37.08,120.00,3.00,0.00,30.16,M,10.00,M,CLR,M,M,M,M,M,M,M,M,M,M,M,M,M,M,50.00,KBAM 101135Z AUTO 12003KT 10SM CLR 10/M04 A3016 RMK AO1,M
CXP,2021-08-10 11:50,-119.7326,39.1923,1431.00,59.00,35.60,41.42,0.00,0.00,0.00,30.16,M,10.00,M,CLR,M,M,M,M,M,M,M,M,M,M,M,M,M,M,59.00,KCXP 101150Z AUTO 00000KT 10SM CLR 15/02 A3016 RMK AO2,M
DRA,2021-08-10 11:53,-116.0278,36.6206,1009.00,75.00,40.00,28.20,70.00,5.00,0.00,29.98,1009.50,10.00,M,CLR,M,M,M,M,M,M,M,M,M,M,M,M,M,M,75.00,KDRA 101153Z AUTO 07005KT 10SM CLR 24/04 A2998 RMK AO2 SLP095 T02390044 10317 20239 53009,M
P68,2021-08-10 11:53,-116.0056,39.6014,1993.00,47.00,30.90,53.50,260.00,3.00,0.00,30.22,1015.80,M,M,M,M,M,M,M,M,M,M,M,M,M,M,M,M,M,45.72,KP68 101153Z AUTO 26003KT 08/M01 A3022 RMK AO1 SLP158 T00831006 10167 20083 51006,M
LOL,2021-08-10 11:53,-118.5701,40.0684,1192.43,65.00,28.90,25.68,0.00,0.00,0.00,30.09,1014.20,6.00,M,CLR,M,M,M,M,M,M,M,HZ,M,M,M,M,M,M,64.90,KLOL 101153Z AUTO 00000KT 6SM HZ CLR 18/M02 A3009 RMK AO2 SLP142 T01831017 10233 20156 51011,M
VGT,2021-08-10 11:53,-115.1933,36.2111,667.00,82.00,48.00,30.51,330.00,6.00,0.00,29.88,1010.40,10.00,M,CLR,M,M,M,M,M,M,M,FU,M,M,M,M,M,M,80.53,KVGT 101153Z AUTO 33006KT 10SM FU CLR 28/09 A2988 RMK AO2 SLP104 6//// 7//// T02780089 10350 20278 51007 PNO,M
ELY,2021-08-10 11:53,-114.8453,39.2950,1909.00,48.00,30.90,51.34,180.00,8.00,0.00,30.25,1014.50,8.00,M,CLR,M,M,M,M,M,M,M,M,M,M,M,M,M,M,43.82,KELY 101153Z AUTO 18008KT 8SM CLR 09/M01 A3025 RMK AO2 SLP145 T00891006 10194 20083 51007,M
RTS,2021-08-10 11:55,-119.8764,39.6682,1539.00,53.60,32.00,43.61,350.00,5.00,0.00,30.19,M,6.00,M,CLR,M,M,M,M,M,M,M,HZ,M,M,M,M,M,M,53.60,KRTS 101155Z AUTO 35005KT 6SM HZ CLR 12/M00 A3019 RMK AO2,M
TMT,2021-08-10 11:55,-117.1971,39.4643,1749.34,42.60,27.00,53.73,0.00,0.00,0.00,30.24,M,10.00,M,CLR,M,M,M,M,M,M,M,M,M,M,M,M,M,M,42.60,KTMT 101155Z AUTO 00000KT 10SM CLR 06/M03 A3024 RMK AO2 T00591028 10174 20045,M
RNO,2021-08-10 11:55,-119.7711,39.4839,1341.00,62.00,39.00,42.41,190.00,3.00,0.00,30.13,1014.40,6.00,M,CLR,M,M,M,M,M,M,M,HZ,M,M,M,M,M,M,62.10,KRNO 101155Z 19003KT 6SM HZ CLR 17/04 A3013 RMK AO2 SLP144 FU ALF ALQDS T01670039 10256 20167 51008,M
HTH,2021-08-10 11:55,-118.6315,38.5448,1282.89,71.60,37.40,28.68,230.00,4.00,0.00,30.10,M,9.00,M,CLR,M,M,M,M,M,M,M,M,M,M,M,M,M,M,71.60,KHTH 101155Z AUTO 23004KT 9SM CLR 22/03 A3010 RMK A01,M
BAM,2021-08-10 11:55,-116.8743,40.5990,1382.36,46.40,23.00,39.36,0.00,0.00,0.00,30.16,M,10.00,M,CLR,M,M,M,M,M,M,M,M,M,M,M,M,M,M,46.40,KBAM 101155Z AUTO 00000KT 10SM CLR 08/M05 A3016 RMK AO1,M
MEV,2021-08-10 11:55,-119.7500,38.9963,1441.42,51.80,35.60,53.81,120.00,6.00,0.00,30.15,M,9.00,M,SCT,BKN,BKN,M,3500.00,4200.00,4800.00,M,M,M,M,M,M,M,M,51.80,KMEV 101155Z AUTO 12006KT 9SM SCT035 BKN042 BKN048 11/02 A3015 RMK AO2,M
BVU,2021-08-10 11:55,-114.8611,35.9475,671.00,86.00,57.20,37.62,120.00,6.00,0.00,29.91,M,10.00,M,CLR,M,M,M,M,M,M,M,M,M,M,M,M,M,M,84.97,KBVU 101155Z AUTO 12006KT 10SM CLR 30/14 A2991 RMK AO2,M
NFL,2021-08-10 11:56,-118.7010,39.4166,1199.00,58.00,38.00,47.18,180.00,4.00,0.00,30.08,1015.30,6.00,M,CLR,M,M,M,M,M,M,M,HZ,M,M,M,M,M,M,57.90,KNFL 101156Z AUTO 18004KT 6SM HZ CLR 14/03 A3008 RMK AO2 SLP153 T01440033 10250 20144 51009,M
LAS,2021-08-10 11:56,-115.1634,36.0719,663.00,86.00,53.00,32.41,290.00,4.00,0.00,29.90,1009.20,10.00,M,CLR,M,M,M,M,M,M,M,M,M,M,M,M,M,M,84.09,KLAS 101156Z 29004KT 10SM CLR 30/12 A2990 RMK AO2 SLP092 T03000117 10339 20300 53006,M
WMC,2021-08-10 11:56,-117.8072,40.9019,1315.00,66.00,28.00,23.82,M,4.00,0.00,30.14,1015.30,10.00,M,SCT,M,M,M,10000.00,M,M,M,M,M,M,M,M,M,M,66.00,KWMC 101156Z AUTO VRB04KT 10SM SCT100 19/M02 A3014 RMK AO2 SLP153 T01891022 10228 20156 53010 $,M
EKO,2021-08-10 11:56,-115.7860,40.8242,1367.00,54.00,28.90,37.89,50.00,5.00,0.00,30.19,1016.80,10.00,M,CLR,M,M,M,M,M,M,M,M,M,M,M,M,M,M,54.00,KEKO 101156Z AUTO 05005KT 10SM CLR 12/M02 A3019 RMK AO2 SLP168 T01221017 10217 20100 51008,M
TPH,2021-08-10 11:56,-117.0904,38.0505,1654.00,62.00,24.10,23.23,10.00,10.00,0.00,30.16,1012.70,10.00,M,CLR,M,M,M,M,M,M,M,M,M,M,M,M,M,M,62.10,KTPH 101156Z AUTO 01010KT 10SM CLR 17/M04 A3016 RMK AO2 SLP127 T01671044 10239 20156 51006,M
HND,2021-08-10 11:56,-115.1344,35.9729,742.79,83.00,53.00,35.81,200.00,8.00,0.00,29.93,1011.70,10.00,M,CLR,M,M,M,M,M,M,M,M,M,M,M,M,M,M,81.73,KHND 101156Z AUTO 20008KT 10SM CLR 28/12 A2993 RMK AO2 SLP117 T02830117 10317 20283 51004,M
LSV,2021-08-10 11:58,-115.0343,36.2362,570.00,85.50,52.20,31.86,30.00,8.00,0.00,29.87,1008.60,10.00,M,CLR,M,M,M,M,M,M,M,M,M,M,M,M,M,M,83.54,KLSV 101158Z AUTO 03008KT 10SM CLR 30/11 A2987 RMK AO2 SLP086 T02970112 10343 20296 52009 $,M
INS,2021-08-10 11:58,-115.6733,36.5872,955.00,74.80,29.80,18.99,0.00,0.00,0.00,29.98,1009.70,10.00,M,CLR,M,M,M,M,M,M,M,M,M,M,M,M,M,M,74.80,KINS 101158Z AUTO 00000KT 10SM CLR 24/M01 A2998 RMK AO2 SLP097 T02381012 10309 20219 52012 $,M
CXP,2021-08-10 12:10,-119.7326,39.1923,1431.00,60.80,35.60,38.85,0.00,0.00,0.00,30.17,M,10.00,M,CLR,M,M,M,M,M,M,M,M,M,M,M,M,M,M,60.80,KCXP 101210Z AUTO 00000KT 10SM CLR 16/02 A3017 RMK AO2,M
BVU,2021-08-10 12:15,-114.8611,35.9475,671.00,84.20,59.00,42.52,110.00,6.00,0.00,29.91,M,10.00,M,CLR,M,M,M,M,M,M,M,M,M,M,M,M,M,M,83.92,KBVU 101215Z AUTO 11006KT 10SM CLR 29/15 A2991 RMK AO2,M
TMT,2021-08-10 12:15,-117.1971,39.4643,1749.34,42.30,26.60,53.47,260.00,3.00,0.00,30.24,M,10.00,M,CLR,M,M,M,M,M,M,M,M,M,M,M,M,M,M,40.46,KTMT 101215Z AUTO 26003KT 10SM CLR 06/M03 A3024 RMK AO2 T00571030,M
BAM,2021-08-10 12:15,-116.8743,40.5990,1382.36,50.00,24.80,37.08,0.00,0.00,0.00,30.17,M,10.00,M,CLR,M,M,M,M,M,M,M,M,M,M,M,M,M,M,50.00,KBAM 101215Z AUTO 00000KT 10SM CLR 10/M04 A3017 RMK AO1,M
MEV,2021-08-10 12:15,-119.7500,38.9963,1441.42,51.80,32.00,46.59,0.00,0.00,0.00,30.16,M,9.00,M,SCT,BKN,BKN,M,3300.00,4000.00,4500.00,M,M,M,M,M,M,M,M,51.80,KMEV 101215Z AUTO 00000KT 9SM SCT033 BKN040 BKN045 11/M00 A3016 RMK AO2,M
HTH,2021-08-10 12:15,-118.6315,38.5448,1282.89,69.80,33.80,26.43,210.00,5.00,0.00,30.10,M,10.00,M,FEW,M,M,M,5000.00,M,M,M,M,M,M,M,M,M,M,69.80,KHTH 101215Z AUTO 21005KT 10SM FEW050 21/01 A3010 RMK A01,M
RTS,2021-08-10 12:15,-119.8764,39.6682,1539.00,57.20,33.80,41.13,300.00,3.00,0.00,30.19,M,7.00,M,CLR,M,M,M,M,M,M,M,M,M,M,M,M,M,M,57.20,KRTS 101215Z AUTO 30003KT 7SM CLR 14/01 A3019 RMK AO2,M
CXP,2021-08-10 12:30,-119.7326,39.1923,1431.00,59.00,33.80,38.56,0.00,0.00,0.00,30.17,M,10.00,M,CLR,M,M,M,M,M,M,M,M,M,M,M,M,M,M,59.00,KCXP 101230Z AUTO 00000KT 10SM CLR 15/01 A3017 RMK AO2,M
HTH,2021-08-10 12:35,-118.6315,38.5448,1282.89,68.00,30.20,24.32,250.00,6.00,0.00,30.11,M,9.00,M,CLR,M,M,M,M,M,M,M,M,M,M,M,M,M,M,68.00,KHTH 101235Z AUTO 25006KT 9SM CLR 20/M01 A3011 RMK A01,M
BVU,2021-08-10 12:35,-114.8611,35.9475,671.00,84.20,57.20,39.86,0.00,0.00,0.00,29.92,M,10.00,M,CLR,M,M,M,M,M,M,M,M,M,M,M,M,M,M,83.47,KBVU 101235Z AUTO 00000KT 10SM CLR 29/14 A2992 RMK AO2,M
RTS,2021-08-10 12:35,-119.8764,39.6682,1539.00,55.40,30.20,37.97,340.00,4.00,0.00,30.19,M,6.00,M,CLR,M,M,M,M,M,M,M,HZ,M,M,M,M,M,M,55.40,KRTS 101235Z AUTO 34004KT 6SM HZ CLR 13/M01 A3019 RMK AO2,M
BAM,2021-08-10 12:35,-116.8743,40.5990,1382.36,51.80,26.60,37.38,210.00,4.00,0.00,30.18,M,10.00,M,CLR,M,M,M,M,M,M,M,M,M,M,M,M,M,M,51.80,KBAM 101235Z AUTO 21004KT 10SM CLR 11/M03 A3018 RMK AO1,M
TMT,2021-08-10 12:35,-117.1971,39.4643,1749.34,42.00,26.60,54.30,0.00,0.00,0.00,30.24,M,10.00,M,CLR,M,M,M,M,M,M,M,M,M,M,M,M,M,M,41.90,KTMT 101235Z AUTO 00000KT 10SM CLR 06/M03 A3024 RMK AO2 T00551030,M
MEV,2021-08-10 12:35,-119.7500,38.9963,1441.42,51.80,35.60,53.81,0.00,0.00,0.00,30.16,M,9.00,M,FEW,OVC,M,M,3000.00,3800.00,M,M,M,M,M,M,M,M,M,51.80,KMEV 101235Z AUTO 00000KT 9SM FEW030 OVC038 11/02 A3016 RMK AO2,M
CXP,2021-08-10 12:50,-119.7326,39.1923,1431.00,59.00,33.80,38.56,0.00,0.00,0.00,30.17,M,10.00,M,CLR,M,M,M,M,M,M,M,M,M,M,M,M,M,M,59.00,KCXP 101250Z AUTO 00000KT 10SM CLR 15/01 A3017 RMK AO2,M
LOL,2021-08-10 12:53,-118.5701,40.0684,1192.43,57.00,28.90,33.98,0.00,0.00,0.00,30.10,1015.20,6.00,M,CLR,M,M,M,M,M,M,M,HZ,M,M,M,M,M,M,57.00,KLOL 101253Z AUTO 00000KT 6SM HZ CLR 14/M02 A3010 RMK AO2 SLP152 T01391017,M
P68,2021-08-10 12:53,-116.0056,39.6014,1993.00,49.00,30.90,49.63,180.00,6.00,0.00,30.24,1016.30,M,M,M,M,M,M,M,M,M,M,M,M,M,M,M,M,M,45.88,KP68 101253Z AUTO 18006KT 09/M01 A3024 RMK AO1 SLP163 T00941006,M
VGT,2021-08-10 12:53,-115.1933,36.2111,667.00,83.00,44.00,25.57,340.00,7.00,0.00,29.90,1011.00,10.00,M,CLR,M,M,M,M,M,M,M,FU,M,M,M,M,M,M,80.80,KVGT 101253Z 34007KT 10SM FU CLR 28/07 A2990 RMK AO2 SLP110 T02830067 PNO,M
DRA,2021-08-10 12:53,-116.0278,36.6206,1009.00,76.00,40.00,27.37,60.00,3.00,0.00,29.99,1010.00,10.00,M,CLR,M,M,M,M,M,M,M,M,M,M,M,M,M,M,75.90,KDRA 101253Z AUTO 06003KT 10SM CLR 24/04 A2999 RMK AO2 SLP100 T02440044,M
ELY,2021-08-10 12:53,-114.8453,39.2950,1909.00,49.00,30.90,49.63,190.00,6.00,0.00,30.26,1014.70,7.00,M,CLR,M,M,M,M,M,M,M,M,M,M,M,M,M,M,45.88,KELY 101253Z AUTO 19006KT 7SM CLR 09/M01 A3026 RMK AO2 SLP147 T00941006,M
BVU,2021-08-10 12:55,-114.8611,35.9475,671.00,78.80,60.80,54.05,360.00,4.00,0.00,29.92,M,10.00,M,CLR,M,M,M,M,M,M,M,M,M,M,M,M,M,M,78.80,KBVU 101255Z AUTO 36004KT 10SM CLR 26/16 A2992 RMK AO2,M
MEV,2021-08-10 12:55,-119.7500,38.9963,1441.42,48.20,33.80,57.26,130.00,3.00,0.00,30.16,M,9.00,M,BKN,M,M,M,4100.00,M,M,M,M,M,M,M,M,M,M,47.21,KMEV 101255Z AUTO 13003KT 9SM BKN041 09/01 A3016 RMK AO2,M
BAM,2021-08-10 12:55,-116.8743,40.5990,1382.36,50.00,26.60,39.95,210.00,3.00,0.00,30.18,M,10.00,M,CLR,M,M,M,M,M,M,M,M,M,M,M,M,M,M,50.00,KBAM 101255Z AUTO 21003KT 10SM CLR 10/M03 A3018 RMK AO1,M
HTH,2021-08-10 12:55,-118.6315,38.5448,1282.89,69.80,35.60,28.39,270.00,6.00,0.00,30.11,M,10.00,M,FEW,M,M,M,4600.00,M,M,M,M,M,M,M,M,M,M,69.80,KHTH 101255Z AUTO 27006KT 10SM FEW046 21/02 A3011 RMK A01,M
RTS,2021-08-10 12:55,-119.8764,39.6682,1539.00,57.20,32.00,38.26,50.00,3.00,0.00,30.20,M,6.00,M,CLR,M,M,M,M,M,M,M,HZ,M,M,M,M,M,M,57.20,KRTS 101255Z AUTO 05003KT 6SM HZ CLR 14/00 A3020 RMK AO2,M
TMT,2021-08-10 12:55,-117.1971,39.4643,1749.34,40.30,25.90,56.11,0.00,0.00,0.00,30.24,M,10.00,M,CLR,M,M,M,M,M,M,M,M,M,M,M,M,M,M,40.30,KTMT 101255Z AUTO 00000KT 10SM CLR 05/M03 A3024 RMK AO2 T00461034,M
RNO,2021-08-10 12:55,-119.7711,39.4839,1341.00,65.00,39.00,38.44,290.00,4.00,0.00,30.15,1014.90,6.00,M,CLR,M,M,M,M,M,M,M,HZ,M,M,M,M,M,M,64.90,KRNO 101255Z 29004KT 6SM HZ CLR 18/04 A3015 RMK AO2 SLP149 FU ALF ALQDS T01830039,M
HND,2021-08-10 12:56,-115.1344,35.9729,742.79,83.00,50.00,31.93,190.00,9.00,0.00,29.95,1012.40,10.00,M,CLR,M,M,M,M,M,M,M,M,M,M,M,M,M,M,81.32,KHND 101256Z AUTO 19009KT 10SM CLR 28/10 A2995 RMK AO2 SLP124 T02830100,M
EKO,2021-08-10 12:56,-115.7860,40.8242,1367.00,52.00,27.00,37.72,70.00,6.00,0.00,30.21,1017.50,10.00,M,CLR,M,M,M,M,M,M,M,M,M,M,M,M,M,M,52.00,KEKO 101256Z AUTO 07006KT 10SM CLR 11/M03 A3021 RMK AO2 SLP175 T01111028,M
NFL,2021-08-10 12:56,-118.7010,39.4166,1199.00,57.00,37.00,47.04,0.00,0.00,0.00,30.09,1015.80,6.00,M,CLR,M,M,M,M,M,M,M,HZ,M,M,M,M,M,M,57.00,KNFL 101256Z AUTO 00000KT 6SM HZ CLR 14/03 A3009 RMK AO2 SLP158 T01390028,M
TPH,2021-08-10 12:56,-117.0904,38.0505,1654.00,61.00,24.10,24.15,360.00,8.00,0.00,30.18,1013.50,10.00,M,CLR,M,M,M,M,M,M,M,M,M,M,M,M,M,M,61.00,KTPH 101256Z AUTO 36008KT 10SM CLR 16/M04 A3018 RMK AO2 SLP135 T01611044,M
LAS,2021-08-10 12:56,-115.1634,36.0719,663.00,85.00,49.00,28.74,0.00,0.00,0.00,29.92,1010.10,10.00,M,FEW,M,M,M,12000.00,M,M,M,M,M,M,M,M,M,M,82.63,KLAS 101256Z 00000KT 10SM FEW120 29/09 A2992 RMK AO2 SLP101 ACC DSNT E T02940094,M
WMC,2021-08-10 12:56,-117.8072,40.9019,1315.00,56.00,27.00,32.71,0.00,0.00,0.00,30.15,1016.50,10.00,M,BKN,M,M,M,10000.00,M,M,M,M,M,M,M,M,M,M,55.90,KWMC 101256Z AUTO 00000KT 10SM BKN100 13/M03 A3015 RMK AO2 SLP165 T01331028 $,M
LSV,2021-08-10 12:58,-115.0343,36.2362,570.00,83.50,56.00,38.90,40.00,8.00,0.00,29.89,1009.30,10.00,M,CLR,M,M,M,M,M,M,M,M,M,M,M,M,M,M,82.65,KLSV 101258Z AUTO 04008KT 10SM CLR 29/13 A2989 RMK AO2 SLP093 T02860133 $,M
INS,2021-08-10 12:58,-115.6733,36.5872,955.00,71.20,33.60,25.00,0.00,0.00,0.00,29.99,1010.20,10.00,M,CLR,M,M,M,M,M,M,M,M,M,M,M,M,M,M,71.20,KINS 101258Z AUTO 00000KT 10SM CLR 22/01 A2999 RMK AO2 SLP102 T02180009 $,M
RTS,2021-08-10 13:15,-119.8764,39.6682,1539.00,55.40,32.00,40.84,0.00,0.00,0.00,30.20,M,5.00,M,CLR,M,M,M,M,M,M,M,HZ,M,M,M,M,M,M,55.40,KRTS 101315Z AUTO 00000KT 5SM HZ CLR 13/00 A3020 RMK AO2,M
CXP,2021-08-10 13:15,-119.7326,39.1923,1431.00,55.40,37.40,50.64,0.00,0.00,0.00,30.18,M,9.00,M,CLR,M,M,M,M,M,M,M,M,M,M,M,M,M,M,55.40,KCXP 101315Z AUTO 00000KT 9SM CLR 13/03 A3018 RMK AO2,M
BVU,2021-08-10 13:15,-114.8611,35.9475,671.00,80.60,60.80,50.95,0.00,0.00,0.00,29.94,M,10.00,M,CLR,M,M,M,M,M,M,M,M,M,M,M,M,M,M,81.46,KBVU 101315Z AUTO 00000KT 10SM CLR 27/16 A2994 RMK AO2,M
MEV,2021-08-10 13:15,-119.7500,38.9963,1441.42,46.40,35.60,65.83,50.00,3.00,0.00,30.17,M,8.00,M,FEW,M,M,M,4200.00,M,M,M,M,M,M,M,M,M,M,45.15,KMEV 101315Z AUTO 05003KT 8SM FEW042 08/02 A3017 RMK AO2,M
TMT,2021-08-10 13:15,-117.1971,39.4643,1749.34,36.70,25.50,63.54,0.00,0.00,0.00,30.25,M,10.00,M,CLR,M,M,M,M,M,M,M,M,M,M,M,M,M,M,36.70,KTMT 101315Z AUTO 00000KT 10SM CLR 03/M04 A3025 RMK AO2 T00261036,M
HTH,2021-08-10 13:15,-118.6315,38.5448,1282.89,68.00,37.40,32.43,260.00,6.00,0.00,30.12,M,8.00,M,CLR,M,M,M,M,M,M,M,M,M,M,M,M,M,M,68.00,KHTH 101315Z AUTO 26006KT 8SM CLR 20/03 A3012 RMK A01,M
BAM,2021-08-10 13:15,-116.8743,40.5990,1382.36,48.20,26.60,42.73,220.00,4.00,0.00,30.19,M,7.00,M,CLR,M,M,M,M,M,M,M,M,M,M,M,M,M,M,46.34,KBAM 101315Z AUTO 22004KT 7SM CLR 09/M03 A3019 RMK AO1,M
CXP,2021-08-10 13:30,-119.7326,39.1923,1431.00,57.20,37.40,47.44,0.00,0.00,0.00,30.19,M,9.00,M,CLR,M,M,M,M,M,M,M,M,M,M,M,M,M,M,57.20,KCXP 101330Z AUTO 00000KT 9SM CLR 14/03 A3019 RMK AO2,M
BVU,2021-08-10 13:35,-114.8611,35.9475,671.00,86.00,57.20,37.62,160.00,3.00,0.00,29.94,M,10.00,M,CLR,M,M,M,M,M,M,M,M,M,M,M,M,M,M,84.97,KBVU 101335Z AUTO 16003KT 10SM CLR 30/14 A2994 RMK AO2,M
MEV,2021-08-10 13:35,-119.7500,38.9963,1441.42,48.20,37.40,66.05,60.00,4.00,0.00,30.18,M,8.00,M,CLR,M,M,M,M,M,M,M,M,M,M,M,M,M,M,46.34,KMEV 101335Z AUTO 06004KT 8SM CLR 09/03 A3018 RMK AO2,M
BAM,2021-08-10 13:35,-116.8743,40.5990,1382.36,50.00,26.60,39.95,0.00,0.00,0.00,30.20,M,10.00,M,CLR,M,M,M,M,M,M,M,M,M,M,M,M,M,M,50.00,KBAM 101335Z AUTO 00000KT 10SM CLR 10/M03 A3020 RMK AO1,M
HTH,2021-08-10 13:35,-118.6315,38.5448,1282.89,69.80,37.40,30.49,250.00,5.00,0.00,30.12,M,8.00,M,CLR,M,M,M,M,M,M,M,M,M,M,M,M,M,M,69.80,KHTH 101335Z AUTO 25005KT 8SM CLR 21/03 A3012 RMK A01,M
TMT,2021-08-10 13:35,-117.1971,39.4643,1749.34,39.00,26.20,59.77,0.00,0.00,0.00,30.26,M,10.00,M,CLR,M,M,M,M,M,M,M,M,M,M,M,M,M,M,39.00,KTMT 101335Z AUTO 00000KT 10SM CLR 04/M03 A3026 RMK AO2 T00391032,M
RTS,2021-08-10 13:35,-119.8764,39.6682,1539.00,53.60,30.20,40.54,360.00,4.00,0.00,30.20,M,4.00,M,CLR,M,M,M,M,M,M,M,HZ,M,M,M,M,M,M,53.60,KRTS 101335Z AUTO 36004KT 4SM HZ CLR 12/M01 A3020 RMK AO2,M
CXP,2021-08-10 13:50,-119.7326,39.1923,1431.00,59.00,37.40,44.47,330.00,3.00,0.00,30.20,M,9.00,M,CLR,M,M,M,M,M,M,M,M,M,M,M,M,M,M,59.00,KCXP 101350Z AUTO 33003KT 9SM CLR 15/03 A3020 RMK AO2,M
P68,2021-08-10 13:53,-116.0056,39.6014,1993.00,53.00,33.00,46.42,170.00,4.00,0.00,30.25,1016.80,M,M,M,M,M,M,M,M,M,M,M,M,M,M,M,M,M,53.10,KP68 101353Z AUTO 17004KT 12/01 A3025 RMK AO1 SLP168 T01170006,M
VGT,2021-08-10 13:53,-115.1933,36.2111,667.00,84.00,45.00,25.54,340.00,4.00,0.00,29.93,1012.10,10.00,M,CLR,M,M,M,M,M,M,M,FU,M,M,M,M,M,M,81.61,KVGT 101353Z 34004KT 10SM FU CLR 29/07 A2993 RMK AO2 SLP121 T02890072 PNO,M
LOL,2021-08-10 13:53,-118.5701,40.0684,1192.43,55.00,32.00,41.44,60.00,3.00,0.00,30.12,1016.00,5.00,M,CLR,M,M,M,M,M,M,M,HZ,M,M,M,M,M,M,55.00,KLOL 101353Z AUTO 06003KT 5SM HZ CLR 13/00 A3012 RMK AO2 SLP160 T01280000,M
ELY,2021-08-10 13:53,-114.8453,39.2950,1909.00,50.00,30.90,47.64,170.00,8.00,0.00,30.27,1015.60,7.00,M,CLR,M,M,M,M,M,M,M,M,M,M,M,M,M,M,50.00,KELY 101353Z AUTO 17008KT 7SM CLR 10/M01 A3027 RMK AO2 SLP156 T01001006,M
DRA,2021-08-10 13:53,-116.0278,36.6206,1009.00,79.00,40.00,24.70,0.00,0.00,0.00,30.01,1010.70,10.00,M,CLR,M,M,M,M,M,M,M,M,M,M,M,M,M,M,79.00,KDRA 101353Z AUTO 00000KT 10SM CLR 26/04 A3001 RMK AO2 SLP107 T02610044,M
RNO,2021-08-10 13:55,-119.7711,39.4839,1341.00,61.00,41.00,47.66,0.00,0.00,0.00,30.16,1015.70,5.00,M,CLR,M,M,M,M,M,M,M,HZ,M,M,M,M,M,M,61.00,KRNO 101355Z 00000KT 5SM HZ CLR 16/05 A3016 RMK AO2 SLP157 FU ALF ALQDS T01610050,M
BVU,2021-08-10 13:55,-114.8611,35.9475,671.00,86.00,55.40,35.25,180.00,7.00,0.00,29.95,M,10.00,M,CLR,M,M,M,M,M,M,M,M,M,M,M,M,M,M,84.54,KBVU 101355Z AUTO 18007KT 10SM CLR 30/13 A2995 RMK AO2,M
HTH,2021-08-10 13:55,-118.6315,38.5448,1282.89,69.80,35.60,28.39,260.00,5.00,0.00,30.13,M,8.00,M,CLR,M,M,M,M,M,M,M,M,M,M,M,M,M,M,69.80,KHTH 101355Z AUTO 26005KT 8SM CLR 21/02 A3013 RMK A01,M
BAM,2021-08-10 13:55,-116.8743,40.5990,1382.36,51.80,26.60,37.38,0.00,0.00,0.00,30.20,M,10.00,M,CLR,M,M,M,M,M,M,M,M,M,M,M,M,M,M,51.80,KBAM 101355Z AUTO 00000KT 10SM CLR 11/M03 A3020 RMK AO1,M
TMT,2021-08-10 13:55,-117.1971,39.4643,1749.34,41.20,27.00,56.71,0.00,0.00,0.00,30.26,M,10.00,M,CLR,M,M,M,M,M,M,M,M,M,M,M,M,M,M,41.20,KTMT 101355Z AUTO 00000KT 10SM CLR 05/M03 A3026 RMK AO2 T00511028,M
MEV,2021-08-10 13:55,-119.7500,38.9963,1441.42,50.00,37.40,61.76,0.00,0.00,0.00,30.18,M,7.00,M,CLR,M,M,M,M,M,M,M,M,M,M,M,M,M,M,50.00,KMEV 101355Z AUTO 00000KT 7SM CLR 10/03 A3018 RMK AO2,M
RTS,2021-08-10 13:55,-119.8764,39.6682,1539.00,53.60,32.00,43.61,340.00,5.00,0.00,30.21,M,4.00,M,CLR,M,M,M,M,M,M,M,HZ,M,M,M,M,M,M,53.60,KRTS 101355Z AUTO 34005KT 4SM HZ CLR 12/M00 A3021 RMK AO2,M
LAS,2021-08-10 13:56,-115.1634,36.0719,663.00,86.00,50.00,28.90,270.00,4.00,0.00,29.94,1010.80,10.00,M,FEW,M,M,M,12000.00,M,M,M,M,M,M,M,M,M,M,83.62,KLAS 101356Z 27004KT 10SM FEW120 30/10 A2994 RMK AO2 SLP108 T03000100,M
WMC,2021-08-10 13:56,-117.8072,40.9019,1315.00,51.00,30.90,45.73,150.00,4.00,0.00,30.17,1017.40,5.00,M,CLR,M,M,M,M,M,M,M,HZ,M,M,M,M,M,M,51.10,KWMC 101356Z AUTO 15004KT 5SM HZ CLR 11/M01 A3017 RMK AO2 SLP174 T01061006 $,M
NFL,2021-08-10 13:56,-118.7010,39.4166,1199.00,58.00,37.00,45.54,200.00,4.00,0.00,30.11,1016.40,4.00,M,CLR,M,M,M,M,M,M,M,HZ,M,M,M,M,M,M,57.90,KNFL 101356Z AUTO 20004KT 4SM HZ CLR 14/03 A3011 RMK AO2 SLP164 T01440028,M
EKO,2021-08-10 13:56,-115.7860,40.8242,1367.00,53.00,26.10,34.90,60.00,5.00,0.00,30.23,1018.70,10.00,M,CLR,M,M,M,M,M,M,M,M,M,M,M,M,M,M,53.10,KEKO 101356Z AUTO 06005KT 10SM CLR 12/M03 A3023 RMK AO2 SLP187 T01171033,M
HND,2021-08-10 13:56,-115.1344,35.9729,742.79,84.00,51.00,32.10,230.00,7.00,0.00,29.98,1013.30,10.00,M,CLR,M,M,M,M,M,M,M,M,M,M,M,M,M,M,82.23,KHND 101356Z 23007KT 10SM CLR 29/11 A2998 RMK AO2 SLP133 T02890106,M
TPH,2021-08-10 13:56,-117.0904,38.0505,1654.00,62.00,25.00,24.12,20.00,8.00,0.00,30.20,1014.30,10.00,M,CLR,M,M,M,M,M,M,M,M,M,M,M,M,M,M,62.10,KTPH 101356Z AUTO 02008KT 10SM CLR 17/M04 A3020 RMK AO2 SLP143 T01671039,M
LSV,2021-08-10 13:58,-115.0343,36.2362,570.00,84.40,60.00,43.94,50.00,5.00,0.00,29.92,1010.40,10.00,M,CLR,M,M,M,M,M,M,M,M,M,M,M,M,M,M,84.39,KLSV 101358Z AUTO 05005KT 10SM CLR 29/16 A2992 RMK AO2 SLP104 T02910156 $,M
INS,2021-08-10 13:58,-115.6733,36.5872,955.00,72.50,37.60,28.03,0.00,0.00,0.00,30.01,1010.90,10.00,M,CLR,M,M,M,M,M,M,M,M,M,M,M,M,M,M,72.50,KINS 101358Z AUTO 00000KT 10SM CLR 23/03 A3001 RMK AO2 SLP109 T02250031 $,M
CXP,2021-08-10 14:10,-119.7326,39.1923,1431.00,60.80,35.60,38.85,310.00,3.00,0.00,30.20,M,8.00,M,CLR,M,M,M,M,M,M,M,M,M,M,M,M,M,M,60.80,KCXP 101410Z AUTO 31003KT 8SM CLR 16/02 A3020 RMK AO2,M
BAM,2021-08-10 14:15,-116.8743,40.5990,1382.36,53.60,28.40,37.67,360.00,3.00,0.00,30.20,M,10.00,M,CLR,M,M,M,M,M,M,M,M,M,M,M,M,M,M,53.60,KBAM 101415Z AUTO 36003KT 10SM CLR 12/M02 A3020 RMK AO1,M
MEV,2021-08-10 14:15,-119.7500,38.9963,1441.42,53.60,37.40,54.07,0.00,0.00,0.00,30.19,M,7.00,M,CLR,M,M,M,M,M,M,M,M,M,M,M,M,M,M,53.60,KMEV 101415Z AUTO 00000KT 7SM CLR 12/03 A3019 RMK AO2,M
RTS,2021-08-10 14:15,-119.8764,39.6682,1539.00,55.40,32.00,40.84,340.00,3.00,0.00,30.21,M,4.00,M,CLR,M,M,M,M,M,M,M,HZ,M,M,M,M,M,M,55.40,KRTS 101415Z AUTO 34003KT 4SM HZ CLR 13/00 A3021 RMK AO2,M
BVU,2021-08-10 14:15,-114.8611,35.9475,671.00,84.20,51.80,32.73,0.00,0.00,0.00,29.96,M,10.00,M,CLR,M,M,M,M,M,M,M,M,M,M,M,M,M,M,82.48,KBVU 101415Z AUTO 00000KT 10SM CLR 29/11 A2996 RMK AO2,M
HTH,2021-08-10 14:15,-118.6315,38.5448,1282.89,69.80,35.60,28.39,0.00,0.00,0.00,30.14,M,8.00,M,CLR,M,M,M,M,M,M,M,M,M,M,M,M,M,M,69.80,KHTH 101415Z AUTO 00000KT 8SM CLR 21/02 A3014 RMK A01,M
TMT,2021-08-10 14:15,-117.1971,39.4643,1749.34,44.80,28.60,52.75,0.00,0.00,0.00,30.27,M,10.00,M,CLR,M,M,M,M,M,M,M,M,M,M,M,M,M,M,44.80,KTMT 101415Z AUTO 00000KT 10SM CLR 07/M02 A3027 RMK AO2 T00711019,M
CXP,2021-08-10 14:30,-119.7326,39.1923,1431.00,62.60,37.40,39.14,240.00,3.00,0.00,30.20,M,8.00,M,CLR,M,M,M,M,M,M,M,M,M,M,M,M,M,M,62.60,KCXP 101430Z AUTO 24003KT 8SM CLR 17/03 A3020 RMK AO2,M
HTH,2021-08-10 14:35,-118.6315,38.5448,1282.89,71.60,35.60,26.71,250.00,5.00,0.00,30.15,M,8.00,M,CLR,M,M,M,M,M,M,M,M,M,M,M,M,M,M,71.60,KHTH 101435Z AUTO 25005KT 8SM CLR 22/02 A3015 RMK A01,M
TMT,2021-08-10 14:35,-117.1971,39.4643,1749.34,48.40,29.80,48.36,0.00,0.00,0.00,30.27,M,10.00,M,CLR,M,M,M,M,M,M,M,M,M,M,M,M,M,M,48.40,KTMT 101435Z AUTO 00000KT 10SM CLR 09/M01 A3027 RMK AO2 T00911012,M
MEV,2021-08-10 14:35,-119.7500,38.9963,1441.42,57.20,39.20,50.91,0.00,0.00,0.00,30.19,M,6.00,M,CLR,M,M,M,M,M,M,M,HZ,M,M,M,M,M,M,57.20,KMEV 101435Z AUTO 00000KT 6SM HZ CLR 14/04 A3019 RMK AO2,M
RTS,2021-08-10 14:35,-119.8764,39.6682,1539.00,59.00,35.60,41.42,100.00,3.00,0.00,30.22,M,4.00,M,CLR,M,M,M,M,M,M,M,HZ,M,M,M,M,M,M,59.00,KRTS 101435Z AUTO 10003KT 4SM HZ CLR 15/02 A3022 RMK AO2,M
BVU,2021-08-10 14:35,-114.8611,35.9475,671.00,86.00,50.00,28.90,0.00,0.00,0.00,29.96,M,10.00,M,CLR,M,M,M,M,M,M,M,M,M,M,M,M,M,M,83.62,KBVU 101435Z AUTO 00000KT 10SM CLR 30/10 A2996 RMK AO2,M
BAM,2021-08-10 14:35,-116.8743,40.5990,1382.36,55.40,28.40,35.28,50.00,3.00,0.00,30.21,M,10.00,M,CLR,M,M,M,M,M,M,M,M,M,M,M,M,M,M,55.40,KBAM 101435Z AUTO 05003KT 10SM CLR 13/M02 A3021 RMK AO1,M
NFL,2021-08-10 14:45,-118.7010,39.4166,1199.00,66.00,36.00,32.88,0.00,0.00,0.00,30.13,M,5.00,M,CLR,M,M,M,M,M,M,M,FU,M,M,M,M,M,M,66.00,KNFL 101445Z 00000KT 5SM FU CLR 19/02 A3013 RMK AO2 T01890022,M
LOL,2021-08-10 14:53,-118.5701,40.0684,1192.43,71.00,26.10,18.48,30.00,5.00,0.00,30.13,1016.00,10.00,M,CLR,M,M,M,M,M,M,M,M,M,M,M,M,M,M,71.10,KLOL 101453Z AUTO 03005KT 10SM CLR 22/M03 A3013 RMK AO2 SLP160 T02171033 53013,M
VGT,2021-08-10 14:53,-115.1933,36.2111,667.00,89.00,53.00,29.37,360.00,4.00,0.00,29.95,1012.60,10.00,M,CLR,M,M,M,M,M,M,M,FU,M,M,M,M,M,M,86.79,KVGT 101453Z 36004KT 10SM FU CLR 32/12 A2995 RMK AO2 SLP126 6//// T03170117 51021 PNO,M
DRA,2021-08-10 14:53,-116.0278,36.6206,1009.00,82.00,42.00,24.38,0.00,0.00,0.00,30.03,1011.30,10.00,M,CLR,M,M,M,M,M,M,M,M,M,M,M,M,M,M,80.09,KDRA 101453Z AUTO 00000KT 10SM CLR 28/06 A3003 RMK AO2 SLP113 T02780056 51015,M
ELY,2021-08-10 14:53,-114.8453,39.2950,1909.00,57.00,34.00,41.76,180.00,10.00,0.00,30.28,1016.00,7.00,M,CLR,M,M,M,M,M,M,M,M,M,M,M,M,M,M,57.00,KELY 101453Z AUTO 18010KT 7SM CLR 14/01 A3028 RMK AO2 SLP160 T01390011 51010,M
P68,2021-08-10 14:53,-116.0056,39.6014,1993.00,62.00,30.90,30.73,0.00,0.00,0.00,30.26,1016.50,M,M,M,M,M,M,M,M,M,M,M,M,M,M,M,M,M,62.10,KP68 101453Z AUTO 00000KT 17/M01 A3026 RMK AO1 SLP165 T01671006 53010,M
HTH,2021-08-10 14:55,-118.6315,38.5448,1282.89,71.60,37.40,28.68,0.00,0.00,0.00,30.15,M,8.00,M,CLR,M,M,M,M,M,M,M,M,M,M,M,M,M,M,71.60,KHTH 101455Z AUTO 00000KT 8SM CLR 22/03 A3015 RMK A01,M
BVU,2021-08-10 14:55,-114.8611,35.9475,671.00,87.80,55.40,33.29,0.00,0.00,0.00,29.97,M,10.00,M,CLR,M,M,M,M,M,M,M,M,M,M,M,M,M,M,86.11,KBVU 101455Z AUTO 00000KT 10SM CLR 31/13 A2997 RMK AO2,M
RNO,2021-08-10 14:55,-119.7711,39.4839,1341.00,65.00,40.00,39.82,0.00,0.00,0.00,30.18,1016.10,5.00,M,FEW,M,M,M,4300.00,M,M,M,HZ FU,M,M,M,M,M,M,64.90,KRNO 101455Z 00000KT 5SM HZ FU FEW043 18/04 A3018 RMK AO2 SLP161 FU FEW043 T01830044 51013,M
CXP,2021-08-10 14:55,-119.7326,39.1923,1431.00,64.40,39.20,39.43,0.00,0.00,0.00,30.20,M,9.00,M,CLR,M,M,M,M,M,M,M,M,M,M,M,M,M,M,64.40,KCXP 101455Z AUTO 00000KT 9SM CLR 18/04 A3020 RMK AO2,M
RTS,2021-08-10 14:55,-119.8764,39.6682,1539.00,60.80,39.20,44.76,0.00,0.00,0.00,30.22,M,5.00,M,CLR,M,M,M,M,M,M,M,HZ,M,M,M,M,M,M,60.80,KRTS 101455Z AUTO 00000KT 5SM HZ CLR 16/04 A3022 RMK AO2,M
MEV,2021-08-10 14:55,-119.7500,38.9963,1441.42,60.80,37.40,41.71,0.00,0.00,0.00,30.20,M,6.00,M,CLR,M,M,M,M,M,M,M,HZ,M,M,M,M,M,M,60.80,KMEV 101455Z AUTO 00000KT 6SM HZ CLR 16/03 A3020 RMK AO2,M
TMT,2021-08-10 14:55,-117.1971,39.4643,1749.34,51.40,31.10,45.60,0.00,0.00,0.00,30.27,M,10.00,M,CLR,M,M,M,M,M,M,M,M,M,M,M,M,M,M,51.40,KTMT 101455Z AUTO 00000KT 10SM CLR 11/00 A3027 RMK AO2 T01081005,M
BAM,2021-08-10 14:55,-116.8743,40.5990,1382.36,55.40,28.40,35.28,0.00,0.00,0.00,30.21,M,10.00,M,CLR,M,M,M,M,M,M,M,M,M,M,M,M,M,M,55.40,KBAM 101455Z AUTO 00000KT 10SM CLR 13/M02 A3021 RMK AO1,M
EKO,2021-08-10 14:56,-115.7860,40.8242,1367.00,58.00,28.00,31.71,0.00,0.00,0.00,30.24,1019.10,10.00,M,CLR,M,M,M,M,M,M,M,M,M,M,M,M,M,M,57.90,KEKO 101456Z AUTO 00000KT 10SM CLR 14/M02 A3024 RMK AO2 SLP191 T01441022 51015,M
HND,2021-08-10 14:56,-115.1344,35.9729,742.79,88.00,51.00,28.25,240.00,8.00,0.00,30.00,1013.90,10.00,M,CLR,M,M,M,M,M,M,M,M,M,M,M,M,M,M,85.45,KHND 101456Z 24008KT 10SM CLR 31/11 A3000 RMK AO2 SLP139 T03110106 51020,M
WMC,2021-08-10 14:56,-117.8072,40.9019,1315.00,61.00,32.00,33.40,0.00,0.00,0.00,30.18,1017.60,6.00,M,CLR,M,M,M,M,M,M,M,HZ,M,M,M,M,M,M,61.00,KWMC 101456Z AUTO 00000KT 6SM HZ CLR 16/00 A3018 RMK AO2 SLP176 T01610000 53013 $,M
TPH,2021-08-10 14:56,-117.0904,38.0505,1654.00,71.00,26.10,18.48,10.00,7.00,0.00,30.21,1014.40,9.00,M,CLR,M,M,M,M,M,M,M,M,M,M,M,M,M,M,71.10,KTPH 101456Z AUTO 01007KT 9SM CLR 22/M03 A3021 RMK AO2 SLP144 T02171033 51013,M
NFL,2021-08-10 14:56,-118.7010,39.4166,1199.00,68.00,35.00,29.61,0.00,0.00,0.00,30.13,1016.90,5.00,M,CLR,M,M,M,M,M,M,M,FU,M,M,M,M,M,M,68.00,KNFL 101456Z 00000KT 5SM FU CLR 20/02 A3013 RMK AO2 SLP169 T02000017 52016,M
LAS,2021-08-10 14:56,-115.1634,36.0719,663.00,88.00,50.00,27.12,0.00,0.00,0.00,29.97,1011.50,10.00,M,FEW,M,M,M,15000.00,M,M,M,M,M,M,M,M,M,M,85.28,KLAS 101456Z 00000KT 10SM FEW150 31/10 A2997 RMK AO2 SLP115 T03110100 51021,M
LSV,2021-08-10 14:58,-115.0343,36.2362,570.00,88.30,57.20,34.97,0.00,0.00,0.00,29.94,M,10.00,M,CLR,M,M,M,M,M,M,M,M,M,M,M,M,M,M,87.04,KLSV 101458Z AUTO 00000KT 10SM CLR 31/14 A2994 RMK AO2 SLPNO T03130140 52021 $,M
INS,2021-08-10 14:58,-115.6733,36.5872,955.00,78.60,36.50,21.90,0.00,0.00,0.00,30.03,1011.60,10.00,M,CLR,M,M,M,M,M,M,M,M,M,M,M,M,M,M,78.60,KINS 101458Z AUTO 00000KT 10SM CLR 26/03 A3003 RMK AO2 SLP116 T02590025 52014 $,M
CXP,2021-08-10 15:10,-119.7326,39.1923,1431.00,64.40,39.20,39.43,0.00,0.00,0.00,30.21,M,9.00,M,CLR,M,M,M,M,M,M,M,M,M,M,M,M,M,M,64.40,KCXP 101510Z AUTO 00000KT 9SM CLR 18/04 A3021 RMK AO2,M
BVU,2021-08-10 15:15,-114.8611,35.9475,671.00,87.80,57.20,35.53,190.00,5.00,0.00,29.97,M,10.00,M,CLR,M,M,M,M,M,M,M,M,M,M,M,M,M,M,86.58,KBVU 101515Z AUTO 19005KT 10SM CLR 31/14 A2997 RMK AO2,M
HTH,2021-08-10 15:15,-118.6315,38.5448,1282.89,73.40,35.60,25.13,300.00,3.00,0.00,30.16,M,7.00,M,CLR,M,M,M,M,M,M,M,M,M,M,M,M,M,M,73.40,KHTH 101515Z AUTO 30003KT 7SM CLR 23/02 A3016 RMK A01,M
BAM,2021-08-10 15:15,-116.8743,40.5990,1382.36,59.00,28.40,30.98,0.00,0.00,0.00,30.21,M,10.00,M,CLR,M,M,M,M,M,M,M,M,M,M,M,M,M,M,59.00,KBAM 101515Z AUTO 00000KT 10SM CLR 15/M02 A3021 RMK AO1,M
TMT,2021-08-10 15:15,-117.1971,39.4643,1749.34,55.20,32.00,41.14,0.00,0.00,0.00,30.28,M,10.00,M,CLR,M,M,M,M,M,M,M,M,M,M,M,M,M,M,55.20,KTMT 101515Z AUTO 00000KT 10SM CLR 13/00 A3028 RMK AO2 T01290000,M
MEV,2021-08-10 15:15,-119.7500,38.9963,1441.42,64.40,37.40,36.74,0.00,0.00,0.00,30.20,M,7.00,M,CLR,M,M,M,M,M,M,M,M,M,M,M,M,M,M,64.40,KMEV 101515Z AUTO 00000KT 7SM CLR 18/03 A3020 RMK AO2,M
RTS,2021-08-10 15:15,-119.8764,39.6682,1539.00,62.60,35.60,36.45,0.00,0.00,0.00,30.22,M,5.00,M,CLR,M,M,M,M,M,M,M,HZ,M,M,M,M,M,M,62.60,KRTS 101515Z AUTO 00000KT 5SM HZ CLR 17/02 A3022 RMK AO2,M
CXP,2021-08-10 15:30,-119.7326,39.1923,1431.00,66.20,39.20,37.03,0.00,0.00,0.00,30.21,M,9.00,M,CLR,M,M,M,M,M,M,M,M,M,M,M,M,M,M,66.20,KCXP 101530Z AUTO 00000KT 9SM CLR 19/04 A3021 RMK AO2,M
MEV,2021-08-10 15:35,-119.7500,38.9963,1441.42,64.40,37.40,36.74,0.00,0.00,0.00,30.20,M,5.00,M,CLR,M,M,M,M,M,M,M,HZ,M,M,M,M,M,M,64.40,KMEV 101535Z AUTO 00000KT 5SM HZ CLR 18/03 A3020 RMK AO2,M
TMT,2021-08-10 15:35,-117.1971,39.4643,1749.34,60.00,32.40,35.30,0.00,0.00,0.00,30.27,M,10.00,M,CLR,M,M,M,M,M,M,M,M,M,M,M,M,M,M,59.90,KTMT 101535Z AUTO 00000KT 10SM CLR 16/00 A3027 RMK AO2 T01550002,M
BAM,2021-08-10 15:35,-116.8743,40.5990,1382.36,62.60,30.20,29.35,360.00,4.00,0.00,30.22,M,10.00,M,CLR,M,M,M,M,M,M,M,M,M,M,M,M,M,M,62.60,KBAM 101535Z AUTO 36004KT 10SM CLR 17/M01 A3022 RMK AO1,M
HTH,2021-08-10 15:35,-118.6315,38.5448,1282.89,75.20,35.60,23.66,0.00,0.00,0.00,30.16,M,8.00,M,CLR,M,M,M,M,M,M,M,M,M,M,M,M,M,M,75.20,KHTH 101535Z AUTO 00000KT 8SM CLR 24/02 A3016 RMK A01,M
BVU,2021-08-10 15:35,-114.8611,35.9475,671.00,89.60,60.80,38.18,150.00,13.00,0.00,29.98,M,10.00,M,CLR,M,M,M,M,M,M,M,M,M,M,M,M,M,M,89.54,KBVU 101535Z AUTO 15013KT 10SM CLR 32/16 A2998 RMK AO2,M
RTS,2021-08-10 15:35,-119.8764,39.6682,1539.00,66.20,35.60,32.14,0.00,0.00,0.00,30.22,M,5.00,M,CLR,M,M,M,M,M,M,M,HZ,M,M,M,M,M,M,66.20,KRTS 101535Z AUTO 00000KT 5SM HZ CLR 19/02 A3022 RMK AO2,M
CXP,2021-08-10 15:50,-119.7326,39.1923,1431.00,69.80,37.40,30.49,0.00,0.00,0.00,30.21,M,10.00,M,CLR,M,M,M,M,M,M,M,M,M,M,M,M,M,M,69.80,KCXP 101550Z AUTO 00000KT 10SM CLR 21/03 A3021 RMK AO2,M
P68,2021-08-10 15:53,-116.0056,39.6014,1993.00,70.00,32.00,24.42,40.00,4.00,0.00,30.27,1016.40,M,M,M,M,M,M,M,M,M,M,M,M,M,M,M,M,M,70.00,KP68 101553Z AUTO 04004KT 21/00 A3027 RMK AO1 SLP164 T02110000,M
VGT,2021-08-10 15:53,-115.1933,36.2111,667.00,92.00,53.00,26.90,130.00,5.00,0.00,29.96,1012.80,10.00,M,CLR,M,M,M,M,M,M,M,FU,M,M,M,M,M,M,89.45,KVGT 101553Z 13005KT 10SM FU CLR 33/12 A2996 RMK AO2 SLP128 T03330117 PNO,M
DRA,2021-08-10 15:53,-116.0278,36.6206,1009.00,89.00,40.00,17.84,0.00,0.00,0.00,30.03,1011.30,10.00,M,CLR,M,M,M,M,M,M,M,M,M,M,M,M,M,M,85.34,KDRA 101553Z AUTO 00000KT 10SM CLR 32/04 A3003 RMK AO2 SLP113 T03170044,M
ELY,2021-08-10 15:53,-114.8453,39.2950,1909.00,67.00,35.00,30.75,210.00,3.00,0.00,30.28,1014.90,7.00,M,CLR,M,M,M,M,M,M,M,M,M,M,M,M,M,M,66.90,KELY 101553Z AUTO 21003KT 7SM CLR 19/02 A3028 RMK AO2 SLP149 T01940017,M
LOL,2021-08-10 15:53,-118.5701,40.0684,1192.43,75.00,25.00,15.48,20.00,9.00,0.00,30.13,1016.10,10.00,M,CLR,M,M,M,M,M,M,M,M,M,M,M,M,M,M,75.00,KLOL 101553Z AUTO 02009KT 10SM CLR 24/M04 A3013 RMK AO2 SLP161 T02391039,M
MEV,2021-08-10 15:55,-119.7500,38.9963,1441.42,66.20,39.20,37.03,0.00,0.00,0.00,30.20,M,7.00,M,CLR,M,M,M,M,M,M,M,M,M,M,M,M,M,M,66.20,KMEV 101555Z AUTO 00000KT 7SM CLR 19/04 A3020 RMK AO2,M
RNO,2021-08-10 15:55,-119.7711,39.4839,1341.00,70.00,40.00,33.39,0.00,0.00,0.00,30.17,1016.00,5.00,M,FEW,M,M,M,4300.00,M,M,M,HZ FU,M,M,M,M,M,M,70.00,KRNO 101555Z 00000KT 5SM HZ FU FEW043 21/04 A3017 RMK AO2 SLP160 FU FEW043 T02110044,M
BAM,2021-08-10 15:55,-116.8743,40.5990,1382.36,66.20,28.40,24.04,10.00,3.00,0.00,30.21,M,10.00,M,CLR,M,M,M,M,M,M,M,M,M,M,M,M,M,M,66.20,KBAM 101555Z AUTO 01003KT 10SM CLR 19/M02 A3021 RMK AO1,M
HTH,2021-08-10 15:55,-118.6315,38.5448,1282.89,75.20,35.60,23.66,290.00,4.00,0.00,30.16,M,7.00,M,CLR,M,M,M,M,M,M,M,M,M,M,M,M,M,M,75.20,KHTH 101555Z AUTO 29004KT 7SM CLR 24/02 A3016 RMK A01,M
BVU,2021-08-10 15:55,-114.8611,35.9475,671.00,91.40,60.80,36.08,150.00,14.00,0.00,29.98,M,10.00,M,CLR,M,M,M,M,M,M,M,M,M,M,M,M,M,M,91.40,KBVU 101555Z AUTO 15014KT 10SM CLR 33/16 A2998 RMK AO2,M
TMT,2021-08-10 15:55,-117.1971,39.4643,1749.34,63.30,33.80,33.11,0.00,0.00,0.00,30.27,M,10.00,M,CLR,M,M,M,M,M,M,M,M,M,M,M,M,M,M,63.30,KTMT 101555Z AUTO 00000KT 10SM CLR 17/01 A3027 RMK AO2 T01740010,M
RTS,2021-08-10 15:55,-119.8764,39.6682,1539.00,68.00,33.80,28.11,0.00,0.00,0.00,30.22,M,5.00,M,CLR,M,M,M,M,M,M,M,HZ,M,M,M,M,M,M,68.00,KRTS 101555Z AUTO 00000KT 5SM HZ CLR 20/01 A3022 RMK AO2,M
NFL,2021-08-10 15:56,-118.7010,39.4166,1199.00,74.00,30.00,19.73,0.00,0.00,0.00,30.14,1017.00,5.00,M,BKN,M,M,M,5000.00,M,M,M,FU,M,M,M,M,M,M,73.90,KNFL 101556Z 00000KT 5SM FU BKN050 23/M01 A3014 RMK AO2 SLP170 FU BKN050 T02331011,M
HND,2021-08-10 15:56,-115.1344,35.9729,742.79,91.00,51.00,25.70,280.00,4.00,0.00,30.01,1014.20,10.00,M,CLR,M,M,M,M,M,M,M,M,M,M,M,M,M,M,88.18,KHND 101556Z 28004KT 10SM CLR 33/11 A3001 RMK AO2 SLP142 T03280106,M
EKO,2021-08-10 15:56,-115.7860,40.8242,1367.00,63.00,28.00,26.45,0.00,0.00,0.00,30.24,1018.90,10.00,M,CLR,M,M,M,M,M,M,M,M,M,M,M,M,M,M,63.00,KEKO 101556Z AUTO 00000KT 10SM CLR 17/M02 A3024 RMK AO2 SLP189 T01721022,M
TPH,2021-08-10 15:56,-117.0904,38.0505,1654.00,79.00,24.10,13.06,60.00,4.00,0.00,30.21,1014.10,10.00,M,CLR,M,M,M,M,M,M,M,M,M,M,M,M,M,M,79.00,KTPH 101556Z AUTO 06004KT 10SM CLR 26/M04 A3021 RMK AO2 SLP141 T02611044,M
LAS,2021-08-10 15:56,-115.1634,36.0719,663.00,90.00,49.00,24.44,270.00,3.00,0.00,29.97,1011.80,10.00,M,FEW,M,M,M,15000.00,M,M,M,M,M,M,M,M,M,M,86.90,KLAS 101556Z 27003KT 10SM FEW150 32/09 A2997 RMK AO2 SLP118 T03220094,M
WMC,2021-08-10 15:56,-117.8072,40.9019,1315.00,71.00,28.90,20.74,60.00,10.00,0.00,30.18,1017.50,10.00,M,CLR,M,M,M,M,M,M,M,M,M,M,M,M,M,M,71.10,KWMC 101556Z AUTO 06010KT 10SM CLR 22/M02 A3018 RMK AO2 SLP175 T02171017,M
INS,2021-08-10 15:58,-115.6733,36.5872,955.00,86.40,35.00,15.96,100.00,6.00,0.00,30.03,1011.50,10.00,M,CLR,M,M,M,M,M,M,M,M,M,M,M,M,M,M,82.99,KINS 101558Z AUTO 10006KT 10SM CLR 30/02 A3003 RMK AO2 SLP115 T03020016 $,M
CXP,2021-08-10 16:10,-119.7326,39.1923,1431.00,71.60,37.40,28.68,0.00,0.00,0.00,30.20,M,6.00,M,CLR,M,M,M,M,M,M,M,HZ,M,M,M,M,M,M,71.60,KCXP 101610Z AUTO 00000KT 6SM HZ CLR 22/03 A3020 RMK AO2,M
BVU,2021-08-10 16:15,-114.8611,35.9475,671.00,91.40,60.80,36.08,150.00,14.00,0.00,29.98,M,9.00,M,CLR,M,M,M,M,M,M,M,M,M,M,M,M,M,M,91.40,KBVU 101615Z AUTO 15014KT 9SM CLR 33/16 A2998 RMK AO2,M
RTS,2021-08-10 16:15,-119.8764,39.6682,1539.00,71.60,35.60,26.71,0.00,0.00,0.00,30.22,M,5.00,M,CLR,M,M,M,M,M,M,M,HZ,M,M,M,M,M,M,71.60,KRTS 101615Z AUTO 00000KT 5SM HZ CLR 22/02 A3022 RMK AO2,M
TMT,2021-08-10 16:15,-117.1971,39.4643,1749.34,66.60,34.20,29.98,0.00,0.00,0.00,30.27,M,10.00,M,CLR,M,M,M,M,M,M,M,M,M,M,M,M,M,M,66.60,KTMT 101615Z AUTO 00000KT 10SM CLR 19/01 A3027 RMK AO2 T01920012,M
BAM,2021-08-10 16:15,-116.8743,40.5990,1382.36,69.80,28.40,21.24,40.00,3.00,0.00,30.21,M,10.00,M,CLR,M,M,M,M,M,M,M,M,M,M,M,M,M,M,69.80,KBAM 101615Z AUTO 04003KT 10SM CLR 21/M02 A3021 RMK AO1,M
HTH,2021-08-10 16:15,-118.6315,38.5448,1282.89,75.20,33.80,22.02,0.00,0.00,0.00,30.16,M,7.00,M,CLR,M,M,M,M,M,M,M,M,M,M,M,M,M,M,75.20,KHTH 101615Z AUTO 00000KT 7SM CLR 24/01 A3016 RMK A01,M
MEV,2021-08-10 16:15,-119.7500,38.9963,1441.42,69.80,39.20,32.72,0.00,0.00,0.00,30.19,M,7.00,M,CLR,M,M,M,M,M,M,M,M,M,M,M,M,M,M,69.80,KMEV 101615Z AUTO 00000KT 7SM CLR 21/04 A3019 RMK AO2,M
BVU,2021-08-10 16:35,-114.8611,35.9475,671.00,93.20,60.80,34.11,150.00,12.00,0.00,29.98,M,10.00,M,CLR,M,M,M,M,M,M,M,M,M,M,M,M,M,M,93.32,KBVU 101635Z AUTO 15012KT 10SM CLR 34/16 A2998 RMK AO2,M
CXP,2021-08-10 16:35,-119.7326,39.1923,1431.00,73.40,37.40,26.98,0.00,0.00,0.00,30.20,M,9.00,M,CLR,M,M,M,M,M,M,M,M,M,M,M,M,M,M,73.40,KCXP 101635Z AUTO 00000KT 9SM CLR 23/03 A3020 RMK AO2,M
MEV,2021-08-10 16:35,-119.7500,38.9963,1441.42,71.60,41.00,33.00,160.00,4.00,0.00,30.19,M,9.00,M,CLR,M,M,M,M,M,M,M,M,M,M,M,M,M,M,71.60,KMEV 101635Z AUTO 16004KT 9SM CLR 22/05 A3019 RMK AO2,M
RTS,2021-08-10 16:35,-119.8764,39.6682,1539.00,73.40,35.60,25.13,0.00,0.00,0.00,30.22,M,5.00,M,CLR,M,M,M,M,M,M,M,HZ,M,M,M,M,M,M,73.40,KRTS 101635Z AUTO 00000KT 5SM HZ CLR 23/02 A3022 RMK AO2,M
HTH,2021-08-10 16:35,-118.6315,38.5448,1282.89,77.00,33.80,20.74,330.00,4.00,0.00,30.15,M,7.00,M,CLR,M,M,M,M,M,M,M,M,M,M,M,M,M,M,77.00,KHTH 101635Z AUTO 33004KT 7SM CLR 25/01 A3015 RMK A01,M
BAM,2021-08-10 16:35,-116.8743,40.5990,1382.36,71.60,28.40,19.98,10.00,3.00,0.00,30.21,M,10.00,M,CLR,M,M,M,M,M,M,M,M,M,M,M,M,M,M,71.60,KBAM 101635Z AUTO 01003KT 10SM CLR 22/M02 A3021 RMK AO1,M
TMT,2021-08-10 16:35,-117.1971,39.4643,1749.34,69.60,34.70,27.59,0.00,0.00,0.00,30.27,M,10.00,M,CLR,M,M,M,M,M,M,M,M,M,M,M,M,M,M,69.60,KTMT 101635Z AUTO 00000KT 10SM CLR 21/02 A3027 RMK AO2 T02090015,M
CXP,2021-08-10 16:50,-119.7326,39.1923,1431.00,75.20,37.40,25.40,0.00,0.00,0.00,30.20,M,9.00,M,CLR,M,M,M,M,M,M,M,M,M,M,M,M,M,M,75.20,KCXP 101650Z AUTO 00000KT 9SM CLR 24/03 A3020 RMK AO2,M
VGT,2021-08-10 16:53,-115.1933,36.2111,667.00,95.00,52.00,23.47,110.00,8.00,0.00,29.97,1013.10,10.00,M,CLR,M,M,M,M,M,M,M,FU,M,M,M,M,M,M,92.31,KVGT 101653Z 11008KT 10SM FU CLR 35/11 A2997 RMK AO2 SLP131 T03500111 PNO,M
ELY,2021-08-10 16:53,-114.8453,39.2950,1909.00,74.00,34.00,23.19,0.00,0.00,0.00,30.28,1014.60,7.00,M,CLR,M,M,M,M,M,M,M,M,M,M,M,M,M,M,73.90,KELY 101653Z AUTO 00000KT 7SM CLR 23/01 A3028 RMK AO2 SLP146 T02330011,M
P68,2021-08-10 16:53,-116.0056,39.6014,1993.00,73.00,30.00,20.34,30.00,3.00,0.00,30.27,1016.90,M,M,M,M,M,M,M,M,M,M,M,M,M,M,M,M,M,73.00,KP68 101653Z AUTO 03003KT 23/M01 A3027 RMK AO1 SLP169 T02281011,M
LOL,2021-08-10 16:53,-118.5701,40.0684,1192.43,79.00,28.00,15.35,30.00,8.00,0.00,30.14,1015.80,10.00,M,CLR,M,M,M,M,M,M,M,M,M,M,M,M,M,M,79.00,KLOL 101653Z AUTO 03008KT 10SM CLR 26/M02 A3014 RMK AO2 SLP158 T02611022,M
RNO,2021-08-10 16:55,-119.7711,39.4839,1341.00,77.00,40.00,26.38,0.00,0.00,0.00,30.17,1015.60,6.00,M,FEW,M,M,M,4000.00,M,M,M,HZ FU,M,M,M,M,M,M,77.00,KRNO 101655Z 00000KT 6SM HZ FU FEW040 25/04 A3017 RMK AO2 SLP156 FU FEW040 T02500044,M
BVU,2021-08-10 16:55,-114.8611,35.9475,671.00,93.20,59.00,31.99,160.00,8.00,0.00,29.98,M,10.00,16.00,CLR,M,M,M,M,M,M,M,M,M,M,M,M,M,M,92.57,KBVU 101655Z AUTO 16008G16KT 10SM CLR 34/15 A2998 RMK AO2,M
RTS,2021-08-10 16:55,-119.8764,39.6682,1539.00,77.00,33.80,20.74,M,3.00,0.00,30.22,M,4.00,M,CLR,M,M,M,M,M,M,M,HZ,M,M,M,M,M,M,77.00,KRTS 101655Z AUTO VRB03KT 4SM HZ CLR 25/01 A3022 RMK AO2,M
MEV,2021-08-10 16:55,-119.7500,38.9963,1441.42,73.40,41.00,31.05,0.00,0.00,0.00,30.19,M,8.00,M,CLR,M,M,M,M,M,M,M,M,M,M,M,M,M,M,73.40,KMEV 101655Z AUTO 00000KT 8SM CLR 23/05 A3019 RMK AO2,M
TMT,2021-08-10 16:55,-117.1971,39.4643,1749.34,71.80,33.30,24.20,0.00,0.00,0.00,30.27,M,10.00,M,CLR,M,M,M,M,M,M,M,M,M,M,M,M,M,M,71.80,KTMT 101655Z AUTO 00000KT 10SM CLR 22/01 A3027 RMK AO2 T02210007,M
BAM,2021-08-10 16:55,-116.8743,40.5990,1382.36,73.40,28.40,18.80,10.00,4.00,0.00,30.21,M,10.00,M,CLR,M,M,M,M,M,M,M,M,M,M,M,M,M,M,73.40,KBAM 101655Z AUTO 01004KT 10SM CLR 23/M02 A3021 RMK AO1,M
HTH,2021-08-10 16:55,-118.6315,38.5448,1282.89,78.80,33.80,19.55,0.00,0.00,0.00,30.16,M,7.00,M,CLR,M,M,M,M,M,M,M,M,M,M,M,M,M,M,78.80,KHTH 101655Z AUTO 00000KT 7SM CLR 26/01 A3016 RMK A01,M
LAS,2021-08-10 16:56,-115.1634,36.0719,663.00,93.00,49.00,22.25,110.00,4.00,0.00,29.98,1012.00,10.00,M,FEW,M,M,M,15000.00,M,M,M,M,M,M,M,M,M,M,89.72,KLAS 101656Z 11004KT 10SM FEW150 34/09 A2998 RMK AO2 SLP120 T03390094,M
EKO,2021-08-10 16:56,-115.7860,40.8242,1367.00,71.00,30.90,22.50,0.00,0.00,0.00,30.23,1018.40,10.00,M,CLR,M,M,M,M,M,M,M,M,M,M,M,M,M,M,71.10,KEKO 101656Z AUTO 00000KT 10SM CLR 22/M01 A3023 RMK AO2 SLP184 T02171006,M
WMC,2021-08-10 16:56,-117.8072,40.9019,1315.00,76.00,30.00,18.46,60.00,11.00,0.00,30.18,1017.60,10.00,M,CLR,M,M,M,M,M,M,M,M,M,M,M,M,M,M,75.90,KWMC 101656Z AUTO 06011KT 10SM CLR 24/M01 A3018 RMK AO2 SLP176 T02441011,M
HND,2021-08-10 16:56,-115.1344,35.9729,742.79,95.00,46.00,18.76,230.00,7.00,0.00,30.01,1014.30,10.00,M,CLR,M,M,M,M,M,M,M,M,M,M,M,M,M,M,91.23,KHND 101656Z 23007KT 10SM CLR 35/08 A3001 RMK AO2 SLP143 T03500078,M
NFL,2021-08-10 16:56,-118.7010,39.4166,1199.00,79.00,28.90,15.93,M,4.00,0.00,30.13,1017.00,5.00,M,BKN,M,M,M,5000.00,M,M,M,FU,M,M,M,M,M,M,79.00,KNFL 101656Z VRB04KT 5SM FU BKN050 26/M02 A3013 RMK AO2 SLP170 FU BKN050 T02611017,M
TPH,2021-08-10 16:56,-117.0904,38.0505,1654.00,81.00,26.10,13.29,M,3.00,0.00,30.22,1014.40,10.00,M,CLR,M,M,M,M,M,M,M,M,M,M,M,M,M,M,78.94,KTPH 101656Z AUTO VRB03KT 10SM CLR 27/M03 A3022 RMK AO2 SLP144 T02721033,M
LSV,2021-08-10 16:58,-115.0343,36.2362,570.00,95.00,56.70,27.86,130.00,7.00,0.00,29.95,M,10.00,M,CLR,M,M,M,M,M,M,M,M,M,M,M,M,M,M,93.65,KLSV 101658Z AUTO 13007KT 10SM CLR 35/14 A2995 RMK AO2 SLPNO T03500137 $,M
INS,2021-08-10 16:58,-115.6733,36.5872,955.00,91.00,38.70,16.04,90.00,8.00,0.00,30.03,1011.30,10.00,M,CLR,M,M,M,M,M,M,M,M,M,M,M,M,M,M,86.93,KINS 101658Z AUTO 09008KT 10SM CLR 33/04 A3003 RMK AO2 SLP113 T03280037 $,M
BAM,2021-08-10 17:15,-116.8743,40.5990,1382.36,77.00,26.60,15.48,10.00,4.00,0.00,30.21,M,10.00,M,CLR,M,M,M,M,M,M,M,M,M,M,M,M,M,M,77.00,KBAM 101715Z AUTO 01004KT 10SM CLR 25/M03 A3021 RMK AO1,M
TMT,2021-08-10 17:15,-117.1971,39.4643,1749.34,73.20,34.00,23.74,0.00,0.00,0.00,30.27,M,10.00,M,CLR,M,M,M,M,M,M,M,M,M,M,M,M,M,M,73.20,KTMT 101715Z AUTO 00000KT 10SM CLR 23/01 A3027 RMK AO2 T02290011,M
MEV,2021-08-10 17:15,-119.7500,38.9963,1441.42,77.00,41.00,27.53,M,3.00,0.00,30.19,M,8.00,M,CLR,M,M,M,M,M,M,M,M,M,M,M,M,M,M,77.00,KMEV 101715Z AUTO VRB03KT 8SM CLR 25/05 A3019 RMK AO2,M
RTS,2021-08-10 17:15,-119.8764,39.6682,1539.00,78.80,32.00,18.18,150.00,4.00,0.00,30.22,M,5.00,M,CLR,M,M,M,M,M,M,M,HZ,M,M,M,M,M,M,78.80,KRTS 101715Z AUTO 15004KT 5SM HZ CLR 26/00 A3022 RMK AO2,M
CXP,2021-08-10 17:15,-119.7326,39.1923,1431.00,77.00,37.40,23.93,0.00,0.00,0.00,30.20,M,9.00,M,CLR,M,M,M,M,M,M,M,M,M,M,M,M,M,M,77.00,KCXP 101715Z AUTO 00000KT 9SM CLR 25/03 A3020 RMK AO2,M
BVU,2021-08-10 17:15,-114.8611,35.9475,671.00,95.00,59.00,30.26,160.00,10.00,0.00,29.98,M,10.00,M,CLR,M,M,M,M,M,M,M,M,M,M,M,M,M,M,94.51,KBVU 101715Z AUTO 16010KT 10SM CLR 35/15 A2998 RMK AO2,M
HTH,2021-08-10 17:15,-118.6315,38.5448,1282.89,80.60,33.80,18.42,320.00,6.00,0.00,30.16,M,6.00,M,CLR,M,M,M,M,M,M,M,HZ,M,M,M,M,M,M,78.88,KHTH 101715Z AUTO 32006KT 6SM HZ CLR 27/01 A3016 RMK A01,M
CXP,2021-08-10 17:30,-119.7326,39.1923,1431.00,78.80,35.60,21.00,0.00,0.00,0.00,30.20,M,8.00,M,CLR,M,M,M,M,M,M,M,M,M,M,M,M,M,M,78.80,KCXP 101730Z AUTO 00000KT 8SM CLR 26/02 A3020 RMK AO2,M
TMT,2021-08-10 17:35,-117.1971,39.4643,1749.34,76.00,33.40,21.03,0.00,0.00,0.00,30.27,M,10.00,M,CLR,M,M,M,M,M,M,M,M,M,M,M,M,M,M,76.10,KTMT 101735Z AUTO 00000KT 10SM CLR 25/01 A3027 RMK AO2 T02450008,M
MEV,2021-08-10 17:35,-119.7500,38.9963,1441.42,78.80,41.00,25.95,290.00,3.00,0.00,30.19,M,7.00,M,CLR,M,M,M,M,M,M,M,M,M,M,M,M,M,M,78.80,KMEV 101735Z AUTO 29003KT 7SM CLR 26/05 A3019 RMK AO2,M
BAM,2021-08-10 17:35,-116.8743,40.5990,1382.36,78.80,26.60,14.59,10.00,3.00,0.00,30.21,M,10.00,M,CLR,M,M,M,M,M,M,M,M,M,M,M,M,M,M,78.80,KBAM 101735Z AUTO 01003KT 10SM CLR 26/M03 A3021 RMK AO1,M
BVU,2021-08-10 17:35,-114.8611,35.9475,671.00,95.00,59.00,30.26,160.00,12.00,0.00,29.98,M,10.00,M,CLR,M,M,M,M,M,M,M,M,M,M,M,M,M,M,94.51,KBVU 101735Z AUTO 16012KT 10SM CLR 35/15 A2998 RMK AO2,M
RTS,2021-08-10 17:35,-119.8764,39.6682,1539.00,80.60,32.00,17.14,M,6.00,0.00,30.22,M,5.00,M,CLR,M,M,M,M,M,M,M,HZ,M,M,M,M,M,M,78.82,KRTS 101735Z AUTO VRB06KT 5SM HZ CLR 27/00 A3022 RMK AO2,M
HTH,2021-08-10 17:35,-118.6315,38.5448,1282.89,82.40,30.20,15.03,350.00,8.00,0.00,30.16,M,6.00,M,CLR,M,M,M,M,M,M,M,HZ,M,M,M,M,M,M,79.97,KHTH 101735Z AUTO 35008KT 6SM HZ CLR 28/M01 A3016 RMK A01,M
CXP,2021-08-10 17:50,-119.7326,39.1923,1431.00,80.60,35.60,19.79,0.00,0.00,0.00,30.20,M,8.00,M,CLR,M,M,M,M,M,M,M,M,M,M,M,M,M,M,78.94,KCXP 101750Z AUTO 00000KT 8SM CLR 27/02 A3020 RMK AO2,M
LOL,2021-08-10 17:53,-118.5701,40.0684,1192.43,85.00,28.90,13.15,20.00,12.00,0.00,30.14,1016.20,10.00,M,CLR,M,M,M,M,M,M,M,M,M,M,M,M,M,M,81.78,KLOL 101753Z AUTO 02012KT 10SM CLR 29/M02 A3014 RMK AO2 SLP162 T02941017 10294 20117 51001,M
P68,2021-08-10 17:53,-116.0056,39.6014,1993.00,78.00,28.00,15.81,M,5.00,0.00,30.27,1016.70,M,M,M,M,M,M,M,M,M,M,M,M,M,M,M,M,M,78.10,KP68 101753Z AUTO VRB05KT 26/M02 A3027 RMK AO1 SLP167 T02561022 10256 20083 51003,M
DRA,2021-08-10 17:53,-116.0278,36.6206,1009.00,96.00,38.00,13.27,M,M,0.00,30.04,1011.30,10.00,M,CLR,M,M,M,M,M,M,M,M,M,M,M,M,M,M,91.49,KDRA 101753Z AUTO 10SM CLR 36/03 A3004 RMK AO2 SLP113 T03560033 10361 20233 51004,M
VGT,2021-08-10 17:53,-115.1933,36.2111,667.00,96.00,50.00,21.07,M,6.00,0.00,29.97,1013.10,10.00,M,CLR,M,M,M,M,M,M,M,FU,M,M,M,M,M,M,93.00,KVGT 101753Z VRB06KT 10SM FU CLR 36/10 A2997 RMK AO2 SLP131 6//// T03560100 10361 20278 50005,M
ELY,2021-08-10 17:53,-114.8453,39.2950,1909.00,80.00,32.00,17.42,50.00,6.00,0.00,30.27,1014.00,9.00,M,CLR,M,M,M,M,M,M,M,M,M,M,M,M,M,M,78.63,KELY 101753Z AUTO 05006KT 9SM CLR 27/00 A3027 RMK AO2 SLP140 T02670000 10267 20089 57003,M
MEV,2021-08-10 17:55,-119.7500,38.9963,1441.42,80.60,39.20,22.81,M,3.00,0.00,30.19,M,6.00,M,CLR,M,M,M,M,M,M,M,HZ,M,M,M,M,M,M,79.10,KMEV 101755Z AUTO VRB03KT 6SM HZ CLR 27/04 A3019 RMK AO2,M
BVU,2021-08-10 17:55,-114.8611,35.9475,671.00,95.00,59.00,30.26,140.00,10.00,0.00,29.98,M,10.00,M,CLR,M,M,M,M,M,M,M,M,M,M,M,M,M,M,94.51,KBVU 101755Z AUTO 14010KT 10SM CLR 35/15 A2998 RMK AO2,M
RNO,2021-08-10 17:55,-119.7711,39.4839,1341.00,82.00,40.00,22.39,0.00,0.00,0.00,30.17,1015.30,5.00,M,SCT,M,M,M,4000.00,M,M,M,FU HZ,M,M,M,M,M,M,79.98,KRNO 101755Z 00000KT 5SM FU HZ SCT040 28/04 A3017 RMK AO2 SLP153 FU SCT040 T02780044 10278 20161 58002,M
TMT,2021-08-10 17:55,-117.1971,39.4643,1749.34,79.20,32.70,18.46,40.00,5.00,0.00,30.26,M,10.00,M,CLR,M,M,M,M,M,M,M,M,M,M,M,M,M,M,79.20,KTMT 101755Z AUTO 04005KT 10SM CLR 26/00 A3026 RMK AO2 T02620004 10264 20023,M
RTS,2021-08-10 17:55,-119.8764,39.6682,1539.00,80.60,30.20,15.94,M,5.00,0.00,30.22,M,7.00,M,CLR,M,M,M,M,M,M,M,M,M,M,M,M,M,M,78.77,KRTS 101755Z AUTO VRB05KT 7SM CLR 27/M01 A3022 RMK AO2,M
HTH,2021-08-10 17:55,-118.6315,38.5448,1282.89,82.40,32.00,16.17,300.00,7.00,0.00,30.16,M,6.00,M,CLR,M,M,M,M,M,M,M,HZ,M,M,M,M,M,M,80.00,KHTH 101755Z AUTO 30007KT 6SM HZ CLR 28/M00 A3016 RMK A01,M
BAM,2021-08-10 17:55,-116.8743,40.5990,1382.36,80.60,26.60,13.75,360.00,4.00,0.00,30.21,M,10.00,M,CLR,M,M,M,M,M,M,M,M,M,M,M,M,M,M,78.68,KBAM 101755Z AUTO 36004KT 10SM CLR 27/M03 A3021 RMK AO1,M
LAS,2021-08-10 17:56,-115.1634,36.0719,663.00,97.00,46.00,17.64,M,3.00,0.00,29.98,1012.10,10.00,M,FEW,FEW,M,M,12000.00,15000.00,M,M,M,M,M,M,M,M,M,93.19,KLAS 101756Z VRB03KT 10SM FEW120 FEW150 36/08 A2998 RMK AO2 SLP121 T03610078 10367 20294 51005,M
WMC,2021-08-10 17:56,-117.8072,40.9019,1315.00,82.00,28.00,13.92,50.00,10.00,0.00,30.18,1017.30,10.00,M,CLR,M,M,M,M,M,M,M,M,M,M,M,M,M,M,79.66,KWMC 101756Z AUTO 05010KT 10SM CLR 28/M02 A3018 RMK AO2 SLP173 T02781022 10278 20100 57000 $,M
NFL,2021-08-10 17:56,-118.7010,39.4166,1199.00,83.00,28.00,13.52,M,5.00,0.00,30.14,1017.10,6.00,M,BKN,M,M,M,5000.00,M,M,M,FU,M,M,M,M,M,M,80.29,KNFL 101756Z VRB05KT 6SM FU BKN050 28/M02 A3014 RMK AO2 SLP171 FU BKN050 T02831022 10283 20128 51002,M
TPH,2021-08-10 17:56,-117.0904,38.0505,1654.00,84.00,26.10,12.06,240.00,6.00,0.00,30.22,1014.70,10.00,M,CLR,M,M,M,M,M,M,M,M,M,M,M,M,M,M,80.96,KTPH 101756Z AUTO 24006KT 10SM CLR 29/M03 A3022 RMK AO2 SLP147 T02891033 10289 20156 51004,M
EKO,2021-08-10 17:56,-115.7860,40.8242,1367.00,78.00,30.00,17.16,M,3.00,0.00,30.23,1018.00,10.00,M,CLR,M,M,M,M,M,M,M,M,M,M,M,M,M,M,78.10,KEKO 101756Z AUTO VRB03KT 10SM CLR 26/M01 A3023 RMK AO2 SLP180 T02561011 10256 20100 56004,M
HND,2021-08-10 17:56,-115.1344,35.9729,742.79,96.00,51.00,21.95,0.00,0.00,0.00,30.01,1014.30,10.00,M,CLR,M,M,M,M,M,M,M,M,M,M,M,M,M,M,93.23,KHND 101756Z 00000KT 10SM CLR 36/11 A3001 RMK AO2 SLP143 T03560106 10367 20278 51004,M
INS,2021-08-10 17:58,-115.6733,36.5872,955.00,95.20,43.50,16.95,80.00,9.00,0.00,30.03,1011.30,10.00,M,FEW,M,M,M,20000.00,M,M,M,M,M,M,M,M,M,M,91.12,KINS 101758Z AUTO 08009KT 10SM FEW200 35/06 A3003 RMK AO2 SLP113 T03510064 10351 20206 50000 $,M
LSV,2021-08-10 17:58,-115.0343,36.2362,570.00,95.50,58.00,28.85,0.00,0.00,0.00,29.95,M,10.00,M,FEW,M,M,M,16000.00,M,M,M,M,M,M,M,M,M,M,94.70,KLSV 101758Z AUTO 00000KT 10SM FEW160 35/15 A2995 RMK AO2 SLPNO T03530145 10356 20278 50003 $,M
CXP,2021-08-10 18:10,-119.7326,39.1923,1431.00,84.20,32.00,15.25,0.00,0.00,0.00,30.19,M,8.00,M,CLR,M,M,M,M,M,M,M,M,M,M,M,M,M,M,81.28,KCXP 101810Z AUTO 00000KT 8SM CLR 29/M00 A3019 RMK AO2,M
RTS,2021-08-10 18:15,-119.8764,39.6682,1539.00,82.40,30.20,15.03,140.00,5.00,0.00,30.22,M,7.00,M,CLR,M,M,M,M,M,M,M,M,M,M,M,M,M,M,79.97,KRTS 101815Z AUTO 14005KT 7SM CLR 28/M01 A3022 RMK AO2,M
HTH,2021-08-10 18:15,-118.6315,38.5448,1282.89,84.20,30.20,14.18,M,6.00,0.00,30.15,M,7.00,M,CLR,M,M,M,M,M,M,M,M,M,M,M,M,M,M,81.26,KHTH 101815Z AUTO VRB06KT 7SM CLR 29/M01 A3015 RMK A01,M
BAM,2021-08-10 18:15,-116.8743,40.5990,1382.36,80.60,26.60,13.75,340.00,3.00,0.00,30.21,M,10.00,M,CLR,M,M,M,M,M,M,M,M,M,M,M,M,M,M,78.68,KBAM 101815Z AUTO 34003KT 10SM CLR 27/M03 A3021 RMK AO1,M
MEV,2021-08-10 18:15,-119.7500,38.9963,1441.42,82.40,39.20,21.51,0.00,0.00,0.00,30.18,M,6.00,M,CLR,M,M,M,M,M,M,M,HZ,M,M,M,M,M,M,80.21,KMEV 101815Z AUTO 00000KT 6SM HZ CLR 28/04 A3018 RMK AO2,M
BVU,2021-08-10 18:15,-114.8611,35.9475,671.00,96.80,59.00,28.63,130.00,10.00,0.00,29.98,M,10.00,16.00,CLR,M,M,M,M,M,M,M,M,M,M,M,M,M,M,96.50,KBVU 101815Z AUTO 13010G16KT 10SM CLR 36/15 A2998 RMK AO2,M
CXP,2021-08-10 18:30,-119.7326,39.1923,1431.00,87.80,28.40,11.74,100.00,8.00,0.00,30.19,M,7.00,M,CLR,M,M,M,M,M,M,M,M,M,M,M,M,M,M,83.84,KCXP 101830Z AUTO 10008KT 7SM CLR 31/M02 A3019 RMK AO2,M
RTS,2021-08-10 18:35,-119.8764,39.6682,1539.00,82.40,30.20,15.03,0.00,0.00,0.00,30.22,M,7.00,M,CLR,M,M,M,M,M,M,M,M,M,M,M,M,M,M,79.97,KRTS 101835Z AUTO 00000KT 7SM CLR 28/M01 A3022 RMK AO2,M
BVU,2021-08-10 18:35,-114.8611,35.9475,671.00,96.80,57.20,26.84,110.00,5.00,0.00,29.97,M,10.00,14.00,CLR,M,M,M,M,M,M,M,M,M,M,M,M,M,M,95.77,KBVU 101835Z AUTO 11005G14KT 10SM CLR 36/14 A2997 RMK AO2,M
MEV,2021-08-10 18:35,-119.7500,38.9963,1441.42,84.20,37.40,18.91,M,3.00,0.00,30.18,M,6.00,M,CLR,M,M,M,M,M,M,M,HZ,M,M,M,M,M,M,81.38,KMEV 101835Z AUTO VRB03KT 6SM HZ CLR 29/03 A3018 RMK AO2,M
BAM,2021-08-10 18:35,-116.8743,40.5990,1382.36,82.40,28.40,13.96,0.00,0.00,0.00,30.20,M,10.00,M,CLR,M,M,M,M,M,M,M,M,M,M,M,M,M,M,79.94,KBAM 101835Z AUTO 00000KT 10SM CLR 28/M02 A3020 RMK AO1,M
HTH,2021-08-10 18:35,-118.6315,38.5448,1282.89,86.00,28.40,12.44,M,6.00,0.00,30.15,M,6.00,M,CLR,M,M,M,M,M,M,M,HZ,M,M,M,M,M,M,82.54,KHTH 101835Z AUTO VRB06KT 6SM HZ CLR 30/M02 A3015 RMK A01,M
P68,2021-08-10 18:53,-116.0056,39.6014,1993.00,82.00,30.00,15.10,10.00,7.00,0.00,30.26,1016.20,M,M,M,M,M,M,M,M,M,M,M,M,M,M,M,M,M,79.69,KP68 101853Z AUTO 01007KT 340V040 28/M01 A3026 RMK AO1 SLP162 T02781011,M
ELY,2021-08-10 18:53,-114.8453,39.2950,1909.00,84.00,30.00,14.16,M,3.00,0.00,30.26,1013.60,10.00,M,CLR,M,M,M,M,M,M,M,M,M,M,M,M,M,M,81.11,KELY 101853Z AUTO VRB03KT 10SM CLR 29/M01 A3026 RMK AO2 SLP136 T02891011,M
DRA,2021-08-10 18:53,-116.0278,36.6206,1009.00,99.00,34.00,10.41,250.00,9.00,0.00,30.03,1010.80,10.00,M,CLR,M,M,M,M,M,M,M,M,M,M,M,M,M,M,93.31,KDRA 101853Z AUTO 25009KT 10SM CLR 37/01 A3003 RMK AO2 SLP108 T03720011,M
VGT,2021-08-10 18:53,-115.1933,36.2111,667.00,100.00,48.00,17.36,200.00,7.00,0.00,29.95,1012.60,10.00,M,CLR,M,M,M,M,M,M,M,FU,M,M,M,M,M,M,96.55,KVGT 101853Z AUTO 20007KT 10SM FU CLR 38/09 A2995 RMK AO2 SLP126 T03780089,M
LOL,2021-08-10 18:53,-118.5701,40.0684,1192.43,90.00,30.00,11.70,20.00,6.00,0.00,30.13,1016.00,7.00,M,CLR,M,M,M,M,M,M,M,M,M,M,M,M,M,M,85.63,KLOL 101853Z AUTO 02006KT 7SM CLR 32/M01 A3013 RMK AO2 SLP160 T03221011,M
RTS,2021-08-10 18:55,-119.8764,39.6682,1539.00,84.20,30.20,14.18,M,5.00,0.00,30.22,M,7.00,10.00,CLR,M,M,M,M,M,M,M,M,M,M,M,M,M,M,81.26,KRTS 101855Z AUTO VRB05G10KT 7SM CLR 29/M01 A3022 RMK AO2,M
MEV,2021-08-10 18:55,-119.7500,38.9963,1441.42,86.00,33.80,15.48,M,6.00,0.00,30.17,M,5.00,M,CLR,M,M,M,M,M,M,M,HZ,M,M,M,M,M,M,82.66,KMEV 101855Z AUTO VRB06KT 5SM HZ CLR 30/01 A3017 RMK AO2,M
BAM,2021-08-10 18:55,-116.8743,40.5990,1382.36,84.20,26.60,12.23,350.00,3.00,0.00,30.20,M,10.00,M,CLR,M,M,M,M,M,M,M,M,M,M,M,M,M,M,81.13,KBAM 101855Z AUTO 35003KT 10SM CLR 29/M03 A3020 RMK AO1,M
HTH,2021-08-10 18:55,-118.6315,38.5448,1282.89,87.80,28.40,11.74,330.00,8.00,0.00,30.14,M,7.00,M,CLR,M,M,M,M,M,M,M,M,M,M,M,M,M,M,83.84,KHTH 101855Z AUTO 33008KT 270V010 7SM CLR 31/M02 A3014 RMK A01,M
RNO,2021-08-10 18:55,-119.7711,39.4839,1341.00,87.00,35.00,15.74,10.00,4.00,0.00,30.16,1014.90,5.00,M,SCT,M,M,M,4000.00,M,M,M,FU HZ,M,M,M,M,M,M,83.55,KRNO 101855Z 01004KT 5SM FU HZ SCT040 31/02 A3016 RMK AO2 SLP149 FU SCT040 T03060017,M
CXP,2021-08-10 18:55,-119.7326,39.1923,1431.00,91.40,28.40,10.48,90.00,7.00,0.00,30.18,M,7.00,13.00,CLR,M,M,M,M,M,M,M,M,M,M,M,M,M,M,86.53,KCXP 101855Z AUTO 09007G13KT 7SM CLR 33/M02 A3018 RMK AO2,M
BVU,2021-08-10 18:55,-114.8611,35.9475,671.00,96.80,57.20,26.84,160.00,8.00,0.00,29.96,M,10.00,14.00,CLR,M,M,M,M,M,M,M,M,M,M,M,M,M,M,95.77,KBVU 101855Z AUTO 16008G14KT 110V220 10SM CLR 36/14 A2996 RMK AO2,M
WMC,2021-08-10 18:56,-117.8072,40.9019,1315.00,87.00,26.10,10.92,70.00,6.00,0.00,30.17,1016.10,10.00,M,CLR,M,M,M,M,M,M,M,M,M,M,M,M,M,M,83.14,KWMC 101856Z AUTO 07006KT 10SM CLR 31/M03 A3017 RMK AO2 SLP161 T03061033 /,M
NFL,2021-08-10 18:56,-118.7010,39.4166,1199.00,88.00,28.00,11.48,M,4.00,0.00,30.12,1016.70,6.00,M,BKN,M,M,M,6000.00,M,M,M,FU,M,M,M,M,M,M,83.95,KNFL 101856Z VRB04KT 6SM FU BKN060 31/M02 A3012 RMK AO2 SLP167 FU BKN060 T03111022,M
EKO,2021-08-10 18:56,-115.7860,40.8242,1367.00,84.00,25.00,11.52,M,3.00,0.00,30.22,1017.10,10.00,M,CLR,M,M,M,M,M,M,M,M,M,M,M,M,M,M,80.88,KEKO 101856Z AUTO VRB03KT 10SM CLR 29/M04 A3022 RMK AO2 SLP171 T02891039,M
HND,2021-08-10 18:56,-115.1344,35.9729,742.79,100.00,55.00,22.49,130.00,7.00,0.00,29.99,1013.70,10.00,M,CLR,M,M,M,M,M,M,M,M,M,M,M,M,M,M,98.48,KHND 101856Z 13007KT 10SM CLR 38/13 A2999 RMK AO2 SLP137 T03780128,M
LAS,2021-08-10 18:56,-115.1634,36.0719,663.00,99.00,49.00,18.51,20.00,4.00,0.00,29.96,1011.30,10.00,M,FEW,FEW,M,M,12000.00,15000.00,M,M,M,M,M,M,M,M,M,95.72,KLAS 101856Z 02004KT 10SM FEW120 FEW150 37/09 A2996 RMK AO2 SLP113 CB DSNT E T03720094,M
TPH,2021-08-10 18:56,-117.0904,38.0505,1654.00,87.00,25.00,10.43,0.00,0.00,0.00,30.21,1013.80,10.00,M,CLR,M,M,M,M,M,M,M,M,M,M,M,M,M,M,83.06,KTPH 101856Z AUTO 00000KT 10SM CLR 31/M04 A3021 RMK AO2 SLP138 T03061039,M
INS,2021-08-10 18:58,-115.6733,36.5872,955.00,96.40,41.20,14.95,60.00,4.00,0.00,30.02,1011.00,10.00,M,FEW,M,M,M,19000.00,M,M,M,M,M,M,M,M,M,M,92.03,KINS 101858Z AUTO 06004KT 10SM FEW190 36/05 A3002 RMK AO2 SLP110 T03580051 $,M
LSV,2021-08-10 18:58,-115.0343,36.2362,570.00,98.00,59.20,27.89,90.00,7.00,0.00,29.93,1010.50,10.00,M,CLR,M,M,M,M,M,M,M,M,M,M,M,M,M,M,97.82,KLSV 101858Z AUTO 09007KT 10SM CLR 37/15 A2993 RMK AO2 SLP105 T03660151 $,M
CXP,2021-08-10 19:10,-119.7326,39.1923,1431.00,91.40,26.60,9.74,80.00,9.00,0.00,30.18,M,8.00,16.00,CLR,M,M,M,M,M,M,M,M,M,M,M,M,M,M,86.36,KCXP 101910Z AUTO 08009G16KT 8SM CLR 33/M03 A3018 RMK AO2,M
BAM,2021-08-10 19:15,-116.8743,40.5990,1382.36,86.00,26.60,11.55,0.00,0.00,0.00,30.20,M,10.00,M,CLR,M,M,M,M,M,M,M,M,M,M,M,M,M,M,82.39,KBAM 101915Z AUTO 00000KT 10SM CLR 30/M03 A3020 RMK AO1,M
MEV,2021-08-10 19:15,-119.7500,38.9963,1441.42,87.80,33.80,14.61,290.00,7.00,0.00,30.17,M,5.00,M,CLR,M,M,M,M,M,M,M,HZ,M,M,M,M,M,M,84.10,KMEV 101915Z AUTO 29007KT 5SM HZ CLR 31/01 A3017 RMK AO2,M
HTH,2021-08-10 19:15,-118.6315,38.5448,1282.89,87.80,28.40,11.74,M,4.00,0.00,30.14,M,6.00,10.00,CLR,M,M,M,M,M,M,M,HZ,M,M,M,M,M,M,83.84,KHTH 101915Z AUTO VRB04G10KT 6SM HZ CLR 31/M02 A3014 RMK A01,M
BVU,2021-08-10 19:15,-114.8611,35.9475,671.00,98.60,57.20,25.41,120.00,9.00,0.00,29.96,M,10.00,17.00,CLR,M,M,M,M,M,M,M,M,M,M,M,M,M,M,97.76,KBVU 101915Z AUTO 12009G17KT 10SM CLR 37/14 A2996 RMK AO2,M
RTS,2021-08-10 19:15,-119.8764,39.6682,1539.00,84.20,30.20,14.18,0.00,0.00,0.00,30.22,M,7.00,M,CLR,M,M,M,M,M,M,M,M,M,M,M,M,M,M,81.26,KRTS 101915Z AUTO 00000KT 7SM CLR 29/M01 A3022 RMK AO2,M
CXP,2021-08-10 19:30,-119.7326,39.1923,1431.00,91.40,26.60,9.74,40.00,9.00,0.00,30.18,M,8.00,15.00,CLR,M,M,M,M,M,M,M,M,M,M,M,M,M,M,86.36,KCXP 101930Z AUTO 04009G15KT 8SM CLR 33/M03 A3018 RMK AO2,M
RTS,2021-08-10 19:35,-119.8764,39.6682,1539.00,86.00,30.20,13.38,80.00,7.00,0.00,30.21,M,6.00,M,CLR,M,M,M,M,M,M,M,HZ,M,M,M,M,M,M,82.64,KRTS 101935Z AUTO 08007KT 040V130 6SM HZ CLR 30/M01 A3021 RMK AO2,M
HTH,2021-08-10 19:35,-118.6315,38.5448,1282.89,89.60,28.40,11.09,310.00,6.00,0.00,30.13,M,7.00,M,CLR,M,M,M,M,M,M,M,M,M,M,M,M,M,M,85.17,KHTH 101935Z AUTO 31006KT 7SM CLR 32/M02 A3013 RMK A01,M
BVU,2021-08-10 19:35,-114.8611,35.9475,671.00,98.60,57.20,25.41,120.00,8.00,0.00,29.95,M,10.00,14.00,CLR,M,M,M,M,M,M,M,M,M,M,M,M,M,M,97.76,KBVU 101935Z AUTO 12008G14KT 10SM CLR 37/14 A2995 RMK AO2,M
MEV,2021-08-10 19:35,-119.7500,38.9963,1441.42,87.80,32.00,13.59,M,6.00,0.00,30.17,M,5.00,M,CLR,M,M,M,M,M,M,M,HZ,M,M,M,M,M,M,84.08,KMEV 101935Z AUTO VRB06KT 5SM HZ CLR 31/00 A3017 RMK AO2,M
BAM,2021-08-10 19:35,-116.8743,40.5990,1382.36,87.80,26.60,10.91,310.00,3.00,0.00,30.20,M,10.00,M,CLR,M,M,M,M,M,M,M,M,M,M,M,M,M,M,83.69,KBAM 101935Z AUTO 31003KT 10SM CLR 31/M03 A3020 RMK AO1,M
CXP,2021-08-10 19:50,-119.7326,39.1923,1431.00,93.20,26.60,9.21,80.00,12.00,0.00,30.17,M,7.00,M,CLR,M,M,M,M,M,M,M,M,M,M,M,M,M,M,87.72,KCXP 101950Z AUTO 08012KT 7SM CLR 34/M03 A3017 RMK AO2,M
DRA,2021-08-10 19:53,-116.0278,36.6206,1009.00,98.00,35.00,11.17,240.00,7.00,0.00,30.01,1010.20,10.00,M,CLR,M,M,M,M,M,M,M,M,M,M,M,M,M,M,92.73,KDRA 101953Z AUTO 24007KT 200V300 10SM CLR 37/02 A3001 RMK AO2 SLP102 T03670017,M
LOL,2021-08-10 19:53,-118.5701,40.0684,1192.43,93.00,32.00,11.55,60.00,8.00,0.00,30.12,1015.60,6.00,M,CLR,M,M,M,M,M,M,M,HZ,M,M,M,M,M,M,88.15,KLOL 101953Z AUTO 06008KT 6SM HZ CLR 34/00 A3012 RMK AO2 SLP156 T03390000,M
VGT,2021-08-10 19:53,-115.1933,36.2111,667.00,101.00,51.00,18.97,130.00,5.00,0.00,29.93,1011.80,10.00,M,CLR,M,M,M,M,M,M,M,FU,M,M,M,M,M,M,98.23,KVGT 101953Z AUTO 13005KT 10SM FU CLR 38/11 A2993 RMK AO2 SLP118 T03830106,M
P68,2021-08-10 19:53,-116.0056,39.6014,1993.00,84.00,27.00,12.52,10.00,5.00,0.00,30.25,1015.90,M,M,M,M,M,M,M,M,M,M,M,M,M,M,M,M,M,81.03,KP68 101953Z AUTO 01005KT 29/M03 A3025 RMK AO1 SLP159 T02891028,M
ELY,2021-08-10 19:53,-114.8453,39.2950,1909.00,86.00,30.00,13.28,M,M,0.00,30.25,1013.60,8.00,M,CLR,M,M,M,M,M,M,M,M,M,M,M,M,M,M,82.64,KELY 101953Z AUTO 8SM CLR 30/M01 A3025 RMK AO2 SLP136 T03001011,M
MEV,2021-08-10 19:55,-119.7500,38.9963,1441.42,89.60,32.00,12.84,M,5.00,0.00,30.16,M,5.00,11.00,CLR,M,M,M,M,M,M,M,HZ,M,M,M,M,M,M,85.54,KMEV 101955Z AUTO VRB05G11KT 5SM HZ CLR 32/M00 A3016 RMK AO2,M
RNO,2021-08-10 19:55,-119.7711,39.4839,1341.00,91.00,32.00,12.29,0.00,0.00,0.00,30.14,1014.20,5.00,M,SCT,M,M,M,4000.00,M,M,M,FU HZ,M,M,M,M,M,M,86.61,KRNO 101955Z 00000KT 5SM FU HZ SCT040 33/00 A3014 RMK AO2 SLP142 FU SCT040 T03280000,M
RTS,2021-08-10 19:55,-119.8764,39.6682,1539.00,86.00,30.20,13.38,M,7.00,0.00,30.21,M,7.00,12.00,CLR,M,M,M,M,M,M,M,M,M,M,M,M,M,M,82.64,KRTS 101955Z AUTO VRB07G12KT 040V130 7SM CLR 30/M01 A3021 RMK AO2,M
BAM,2021-08-10 19:55,-116.8743,40.5990,1382.36,87.80,24.80,10.12,260.00,3.00,0.00,30.19,M,10.00,M,CLR,M,M,M,M,M,M,M,M,M,M,M,M,M,M,83.56,KBAM 101955Z AUTO 26003KT 10SM CLR 31/M04 A3019 RMK AO1,M
HTH,2021-08-10 19:55,-118.6315,38.5448,1282.89,89.60,26.60,10.30,M,6.00,0.00,30.13,M,7.00,M,CLR,M,M,M,M,M,M,M,M,M,M,M,M,M,M,85.02,KHTH 101955Z AUTO VRB06KT 7SM CLR 32/M03 A3013 RMK A01,M
BVU,2021-08-10 19:55,-114.8611,35.9475,671.00,100.40,55.40,22.54,M,5.00,0.00,29.94,M,10.00,12.00,CLR,M,M,M,M,M,M,M,M,M,M,M,M,M,M,99.06,KBVU 101955Z AUTO VRB05G12KT 10SM CLR 38/13 A2994 RMK AO2 LTG DSNT E AND SW,M
NFL,2021-08-10 19:56,-118.7010,39.4166,1199.00,92.00,28.00,10.15,M,3.00,0.00,30.11,1016.40,5.00,M,OVC,M,M,M,6000.00,M,M,M,FU,M,M,M,M,M,M,86.87,KNFL 101956Z VRB03KT 5SM FU OVC060 33/M02 A3011 RMK AO2 SLP164 FU OVC060 T03331022,M
TPH,2021-08-10 19:56,-117.0904,38.0505,1654.00,89.00,24.10,9.43,0.00,0.00,0.00,30.20,1014.20,10.00,M,CLR,M,M,M,M,M,M,M,M,M,M,M,M,M,M,84.46,KTPH 101956Z AUTO 00000KT 10SM CLR 32/M04 A3020 RMK AO2 SLP142 T03171044,M
WMC,2021-08-10 19:56,-117.8072,40.9019,1315.00,88.00,25.00,10.14,0.00,0.00,0.00,30.16,1015.50,10.00,M,CLR,M,M,M,M,M,M,M,M,M,M,M,M,M,M,83.71,KWMC 101956Z AUTO 00000KT 10SM CLR 31/M04 A3016 RMK AO2 SLP155 T03111039 /,M
LAS,2021-08-10 19:56,-115.1634,36.0719,663.00,102.00,50.00,17.62,60.00,6.00,0.00,29.94,1010.50,10.00,M,FEW,FEW,M,M,12000.00,15000.00,M,M,M,M,M,M,M,M,M,99.07,KLAS 101956Z 06006KT 10SM FEW120 FEW150 39/10 A2994 RMK AO2 LTG DSNT S SLP105 CB DSNT N AND E AND S T03890100,M
EKO,2021-08-10 19:56,-115.7860,40.8242,1367.00,87.00,25.00,10.43,M,5.00,0.00,30.20,1016.90,10.00,M,CLR,M,M,M,M,M,M,M,M,M,M,M,M,M,M,83.06,KEKO 101956Z AUTO VRB05KT 10SM CLR 31/M04 A3020 RMK AO2 SLP169 T03061039,M
HND,2021-08-10 19:56,-115.1344,35.9729,742.79,101.00,53.00,20.42,190.00,4.00,0.00,29.97,1012.90,10.00,M,CLR,M,M,M,M,M,M,M,M,M,M,M,M,M,M,98.82,KHND 101956Z 19004KT 10SM CLR 38/12 A2997 RMK AO2 LTG DSNT S SLP129 T03830117,M
LSV,2021-08-10 19:58,-115.0343,36.2362,570.00,100.80,56.00,22.85,210.00,5.00,0.00,29.90,1009.50,10.00,M,CLR,M,M,M,M,M,M,M,M,M,M,M,M,M,M,99.77,KLSV 101958Z AUTO 21005KT 10SM CLR 38/13 A2990 RMK AO2 SLP095 T03820134 $,M
INS,2021-08-10 19:58,-115.6733,36.5872,955.00,97.50,38.30,12.91,80.00,5.00,0.00,30.00,1010.40,10.00,M,CLR,M,M,M,M,M,M,M,M,M,M,M,M,M,M,92.79,KINS 101958Z AUTO 08005KT 10SM CLR 36/04 A3000 RMK AO2 SLP104 T03640035 $,M
LSV,2021-08-10 19:59,-115.0343,36.2362,570.00,100.80,56.00,22.85,210.00,5.00,0.00,29.90,1009.50,10.00,M,CLR,M,M,M,M,M,M,M,M,M,M,M,M,M,M,99.77,KLSV 101959Z AUTO 21005KT 10SM CLR 38/13 A2990 RMK AO2 SLP095 T03820134 $,M
CXP,2021-08-10 20:10,-119.7326,39.1923,1431.00,93.20,26.60,9.21,70.00,14.00,0.00,30.17,M,7.00,19.00,CLR,M,M,M,M,M,M,M,M,M,M,M,M,M,M,87.72,KCXP 102010Z AUTO 07014G19KT 7SM CLR 34/M03 A3017 RMK AO2,M
BVU,2021-08-10 20:15,-114.8611,35.9475,671.00,100.40,55.40,22.54,130.00,8.00,0.00,29.93,M,10.00,13.00,CLR,M,M,M,M,M,M,M,M,M,M,M,M,M,M,99.06,KBVU 102015Z AUTO 13008G13KT 110V170 10SM CLR 38/13 A2993 RMK AO2,M
RTS,2021-08-10 20:15,-119.8764,39.6682,1539.00,87.80,28.40,11.74,100.00,7.00,0.00,30.21,M,7.00,M,CLR,M,M,M,M,M,M,M,M,M,M,M,M,M,M,83.84,KRTS 102015Z AUTO 10007KT 7SM CLR 31/M02 A3021 RMK AO2,M
MEV,2021-08-10 20:15,-119.7500,38.9963,1441.42,91.40,30.20,11.28,340.00,8.00,0.00,30.15,M,5.00,M,CLR,M,M,M,M,M,M,M,HZ,M,M,M,M,M,M,86.71,KMEV 102015Z AUTO 34008KT 5SM HZ CLR 33/M01 A3015 RMK AO2,M
BAM,2021-08-10 20:15,-116.8743,40.5990,1382.36,87.80,26.60,10.91,0.00,0.00,0.00,30.19,M,10.00,M,CLR,M,M,M,M,M,M,M,M,M,M,M,M,M,M,83.69,KBAM 102015Z AUTO 00000KT 10SM CLR 31/M03 A3019 RMK AO1,M
HTH,2021-08-10 20:15,-118.6315,38.5448,1282.89,91.40,28.40,10.48,360.00,6.00,0.00,30.12,M,7.00,13.00,CLR,M,M,M,M,M,M,M,M,M,M,M,M,M,M,86.53,KHTH 102015Z AUTO 36006G13KT 7SM CLR 33/M02 A3012 RMK A01,M
CXP,2021-08-10 20:30,-119.7326,39.1923,1431.00,93.20,26.60,9.21,60.00,13.00,0.00,30.16,M,8.00,18.00,CLR,M,M,M,M,M,M,M,M,M,M,M,M,M,M,87.72,KCXP 102030Z AUTO 06013G18KT 8SM CLR 34/M03 A3016 RMK AO2,M
MEV,2021-08-10 20:35,-119.7500,38.9963,1441.42,91.40,30.20,11.28,280.00,8.00,0.00,30.14,M,5.00,M,CLR,M,M,M,M,M,M,M,HZ,M,M,M,M,M,M,86.71,KMEV 102035Z AUTO 28008KT 5SM HZ CLR 33/M01 A3014 RMK AO2,M
BAM,2021-08-10 20:35,-116.8743,40.5990,1382.36,87.80,24.80,10.12,0.00,0.00,0.00,30.17,M,10.00,M,CLR,M,M,M,M,M,M,M,M,M,M,M,M,M,M,83.56,KBAM 102035Z AUTO 00000KT 10SM CLR 31/M04 A3017 RMK AO1,M
RTS,2021-08-10 20:35,-119.8764,39.6682,1539.00,87.80,28.40,11.74,60.00,8.00,0.00,30.20,M,7.00,14.00,CLR,M,M,M,M,M,M,M,M,M,M,M,M,M,M,83.84,KRTS 102035Z AUTO 06008G14KT 7SM CLR 31/M02 A3020 RMK AO2,M
HTH,2021-08-10 20:35,-118.6315,38.5448,1282.89,91.40,26.60,9.74,300.00,7.00,0.00,30.11,M,7.00,M,CLR,M,M,M,M,M,M,M,M,M,M,M,M,M,M,86.36,KHTH 102035Z AUTO 30007KT 7SM CLR 33/M03 A3011 RMK A01,M
BVU,2021-08-10 20:35,-114.8611,35.9475,671.00,100.40,53.60,21.11,100.00,7.00,0.00,29.93,M,10.00,14.00,CLR,M,M,M,M,M,M,M,M,M,M,M,M,M,M,98.44,KBVU 102035Z AUTO 10007G14KT 10SM CLR 38/12 A2993 RMK AO2,M
CXP,2021-08-10 20:50,-119.7326,39.1923,1431.00,93.20,26.60,9.21,50.00,9.00,0.00,30.16,M,8.00,19.00,CLR,M,M,M,M,M,M,M,M,M,M,M,M,M,M,87.72,KCXP 102050Z AUTO 05009G19KT 030V090 8SM CLR 34/M03 A3016 RMK AO2,M
ELY,2021-08-10 20:53,-114.8453,39.2950,1909.00,88.00,28.90,11.91,M,5.00,0.00,30.23,1013.00,8.00,M,CLR,M,M,M,M,M,M,M,M,M,M,M,M,M,M,84.03,KELY 102053Z AUTO VRB05KT 8SM CLR 31/M02 A3023 RMK AO2 SLP130 T03111017 58013,M
DRA,2021-08-10 20:53,-116.0278,36.6206,1009.00,101.00,33.00,9.48,M,M,0.00,30.00,1009.50,10.00,M,CLR,M,M,M,M,M,M,M,M,M,M,M,M,M,M,94.79,KDRA 102053Z AUTO 10SM CLR 38/01 A3000 RMK AO2 SLP095 T03830006 58014,M
P68,2021-08-10 20:53,-116.0056,39.6014,1993.00,87.00,26.10,10.92,40.00,7.00,0.00,30.23,1015.00,M,M,M,M,M,M,M,M,M,M,M,M,M,M,M,M,M,83.14,KP68 102053Z AUTO 04007KT 31/M03 A3023 RMK AO1 SLP150 T03061033 58011,M
VGT,2021-08-10 20:53,-115.1933,36.2111,667.00,104.00,52.00,17.87,110.00,8.00,0.00,29.90,1010.90,10.00,M,CLR,M,M,M,M,M,M,M,FU,M,M,M,M,M,M,101.76,KVGT 102053Z 11008KT 10SM FU CLR 40/11 A2990 RMK AO2 SLP109 T04000111 58021,M
LOL,2021-08-10 20:53,-118.5701,40.0684,1192.43,96.00,30.00,9.68,M,5.00,0.00,30.10,1014.10,5.00,M,CLR,M,M,M,M,M,M,M,HZ,M,M,M,M,M,M,90.35,KLOL 102053Z AUTO VRB05KT 5SM HZ CLR 36/M01 A3010 RMK AO2 SLP141 T03561011 58011,M
RTS,2021-08-10 20:55,-119.8764,39.6682,1539.00,87.80,28.40,11.74,70.00,9.00,0.00,30.20,M,7.00,M,CLR,M,M,M,M,M,M,M,M,M,M,M,M,M,M,83.84,KRTS 102055Z AUTO 07009KT 7SM CLR 31/M02 A3020 RMK AO2,M
RNO,2021-08-10 20:55,-119.7711,39.4839,1341.00,94.00,32.00,11.23,70.00,11.00,0.00,30.13,1013.50,6.00,M,SCT,M,M,M,4000.00,M,M,M,HZ FU,M,M,M,M,M,M,88.85,KRNO 102055Z 07011KT 6SM HZ FU SCT040 34/00 A3013 RMK AO2 SLP135 FU SCT040 T03440000 58013,M
BVU,2021-08-10 20:55,-114.8611,35.9475,671.00,100.40,53.60,21.11,160.00,10.00,0.00,29.92,M,10.00,M,CLR,M,M,M,M,M,M,M,M,M,M,M,M,M,M,98.44,KBVU 102055Z AUTO 16010KT 10SM CLR 38/12 A2992 RMK AO2,M
HTH,2021-08-10 20:55,-118.6315,38.5448,1282.89,93.20,26.60,9.21,330.00,8.00,0.00,30.11,M,7.00,M,CLR,M,M,M,M,M,M,M,M,M,M,M,M,M,M,87.72,KHTH 102055Z AUTO 33008KT 7SM CLR 34/M03 A3011 RMK A01,M
BAM,2021-08-10 20:55,-116.8743,40.5990,1382.36,89.60,24.80,9.56,340.00,5.00,0.00,30.17,M,10.00,M,CLR,M,M,M,M,M,M,M,M,M,M,M,M,M,M,84.88,KBAM 102055Z AUTO 34005KT 10SM CLR 32/M04 A3017 RMK AO1,M
MEV,2021-08-10 20:55,-119.7500,38.9963,1441.42,93.20,30.20,10.67,310.00,12.00,0.00,30.14,M,5.00,M,CLR,M,M,M,M,M,M,M,HZ,M,M,M,M,M,M,88.09,KMEV 102055Z AUTO 31012KT 5SM HZ CLR 34/M01 A3014 RMK AO2,M
LAS,2021-08-10 20:56,-115.1634,36.0719,663.00,104.00,48.00,15.40,90.00,8.00,0.00,29.92,1010.00,10.00,M,FEW,FEW,M,M,12000.00,15000.00,M,M,M,M,M,M,M,M,M,100.60,KLAS 102056Z 09008KT 10SM FEW120 FEW150 40/09 A2992 RMK AO2 LTG DSNT S SLP100 CB DSNT E-S T04000089 56018,M
WMC,2021-08-10 20:56,-117.8072,40.9019,1315.00,92.00,26.10,9.39,0.00,0.00,0.00,30.14,1014.80,10.00,M,CLR,M,M,M,M,M,M,M,M,M,M,M,M,M,M,86.69,KWMC 102056Z AUTO 00000KT 10SM CLR 33/M03 A3014 RMK AO2 SLP148 T03331033 58013 $,M
NFL,2021-08-10 20:56,-118.7010,39.4166,1199.00,95.00,30.00,10.01,20.00,9.00,0.00,30.09,1015.70,5.00,M,OVC,M,M,M,6000.00,M,M,M,FU,M,M,M,M,M,M,89.45,KNFL 102056Z 02009KT 5SM FU OVC060 35/M01 A3009 RMK AO2 SLP157 FU OVC060 T03501011 58014,M
HND,2021-08-10 20:56,-115.1344,35.9729,742.79,101.00,48.00,16.90,M,4.00,0.00,29.96,1012.40,10.00,M,CLR,M,M,M,M,M,M,M,M,M,M,M,M,M,M,97.46,KHND 102056Z VRB04KT 10SM CLR 38/09 A2996 RMK AO2 LTG DSNT S SLP124 T03830089 56017,M
TPH,2021-08-10 20:56,-117.0904,38.0505,1654.00,92.00,21.90,7.88,110.00,8.00,0.00,30.18,1013.30,10.00,15.00,CLR,M,M,M,M,M,M,M,M,M,M,M,M,M,M,86.38,KTPH 102056Z AUTO 11008G15KT 10SM CLR 33/M06 A3018 RMK AO2 SLP133 T03331056 58011,M
EKO,2021-08-10 20:56,-115.7860,40.8242,1367.00,88.00,27.00,11.02,M,4.00,0.00,30.18,1016.40,10.00,M,CLR,M,M,M,M,M,M,M,M,M,M,M,M,M,M,83.87,KEKO 102056Z AUTO VRB04KT 10SM CLR 31/M03 A3018 RMK AO2 SLP164 T03111028 58015,M
CXP,2021-08-10 21:10,-119.7326,39.1923,1431.00,95.00,26.60,8.71,80.00,13.00,0.00,30.15,M,8.00,M,CLR,M,M,M,M,M,M,M,M,M,M,M,M,M,M,89.08,KCXP 102110Z AUTO 08013KT 030V100 8SM CLR 35/M03 A3015 RMK AO2,M
BAM,2021-08-10 21:15,-116.8743,40.5990,1382.36,89.60,23.00,8.87,300.00,6.00,0.00,30.16,M,10.00,M,CLR,M,M,M,M,M,M,M,M,M,M,M,M,M,M,84.75,KBAM 102115Z AUTO 30006KT 10SM CLR 32/M05 A3016 RMK AO1,M
RTS,2021-08-10 21:15,-119.8764,39.6682,1539.00,89.60,28.40,11.09,120.00,7.00,0.00,30.19,M,8.00,14.00,CLR,M,M,M,M,M,M,M,M,M,M,M,M,M,M,85.17,KRTS 102115Z AUTO 12007G14KT 8SM CLR 32/M02 A3019 RMK AO2,M
HTH,2021-08-10 21:15,-118.6315,38.5448,1282.89,93.20,26.60,9.21,330.00,8.00,0.00,30.10,M,8.00,M,CLR,M,M,M,M,M,M,M,M,M,M,M,M,M,M,87.72,KHTH 102115Z AUTO 33008KT 8SM CLR 34/M03 A3010 RMK A01,M
MEV,2021-08-10 21:15,-119.7500,38.9963,1441.42,93.20,28.40,9.91,300.00,7.00,0.00,30.13,M,5.00,M,CLR,M,M,M,M,M,M,M,HZ,M,M,M,M,M,M,87.89,KMEV 102115Z AUTO 30007KT 5SM HZ CLR 34/M02 A3013 RMK AO2,M
BVU,2021-08-10 21:15,-114.8611,35.9475,671.00,98.60,55.40,23.81,170.00,7.00,0.00,29.92,M,10.00,12.00,CLR,M,M,M,M,M,M,M,M,M,M,M,M,M,M,97.09,KBVU 102115Z AUTO 17007G12KT 10SM CLR 37/13 A2992 RMK AO2,M
CXP,2021-08-10 21:30,-119.7326,39.1923,1431.00,95.00,24.80,8.08,70.00,11.00,0.00,30.15,M,7.00,18.00,CLR,M,M,M,M,M,M,M,M,M,M,M,M,M,M,88.91,KCXP 102130Z AUTO 07011G18KT 7SM CLR 35/M04 A3015 RMK AO2,M
MEV,2021-08-10 21:35,-119.7500,38.9963,1441.42,95.00,30.20,10.09,330.00,9.00,0.00,30.12,M,5.00,17.00,CLR,M,M,M,M,M,M,M,HZ,M,M,M,M,M,M,89.48,KMEV 102135Z AUTO 33009G17KT 5SM HZ CLR 35/M01 A3012 RMK AO2,M
RTS,2021-08-10 21:35,-119.8764,39.6682,1539.00,89.60,28.40,11.09,80.00,9.00,0.00,30.19,M,7.00,15.00,CLR,M,M,M,M,M,M,M,M,M,M,M,M,M,M,85.17,KRTS 102135Z AUTO 08009G15KT 050V110 7SM CLR 32/M02 A3019 RMK AO2,M
BVU,2021-08-10 21:35,-114.8611,35.9475,671.00,95.00,50.00,21.79,220.00,13.00,0.00,29.92,M,10.00,18.00,CLR,M,M,M,M,M,M,M,M,M,M,M,M,M,M,91.89,KBVU 102135Z AUTO 22013G18KT 10SM CLR 35/10 A2992 RMK AO2,M
BAM,2021-08-10 21:35,-116.8743,40.5990,1382.36,91.40,21.20,7.77,280.00,7.00,0.00,30.16,M,10.00,M,CLR,M,M,M,M,M,M,M,M,M,M,M,M,M,M,85.96,KBAM 102135Z AUTO 28007KT 10SM CLR 33/M06 A3016 RMK AO1,M
HTH,2021-08-10 21:35,-118.6315,38.5448,1282.89,93.20,26.60,9.21,340.00,9.00,0.00,30.09,M,7.00,M,CLR,M,M,M,M,M,M,M,M,M,M,M,M,M,M,87.72,KHTH 102135Z AUTO 34009KT 7SM CLR 34/M03 A3009 RMK A01,M
CXP,2021-08-10 21:50,-119.7326,39.1923,1431.00,95.00,24.80,8.08,50.00,13.00,0.00,30.14,M,8.00,19.00,CLR,M,M,M,M,M,M,M,M,M,M,M,M,M,M,88.91,KCXP 102150Z AUTO 05013G19KT 8SM CLR 35/M04 A3014 RMK AO2,M
VGT,2021-08-10 21:53,-115.1933,36.2111,667.00,105.00,43.00,12.33,160.00,10.00,0.00,29.88,1010.00,10.00,M,CLR,M,M,M,M,M,M,M,FU,M,M,M,M,M,M,100.45,KVGT 102153Z 16010KT 10SM FU CLR 41/06 A2988 RMK AO2 SLP100 T04060061,M
LOL,2021-08-10 21:53,-118.5701,40.0684,1192.43,97.00,30.00,9.41,70.00,9.00,0.00,30.08,1013.70,4.00,M,CLR,M,M,M,M,M,M,M,HZ,M,M,M,M,M,M,91.10,KLOL 102153Z AUTO 07009KT 4SM HZ CLR 36/M01 A3008 RMK AO2 SLP137 T03611011,M
DRA,2021-08-10 21:53,-116.0278,36.6206,1009.00,102.00,33.00,9.17,250.00,9.00,0.00,29.98,1008.80,10.00,15.00,CLR,M,M,M,M,M,M,M,M,M,M,M,M,M,M,95.73,KDRA 102153Z AUTO 25009G15KT 10SM CLR 39/01 A2998 RMK AO2 SLP088 T03890006,M
ELY,2021-08-10 21:53,-114.8453,39.2950,1909.00,89.00,30.00,12.03,360.00,11.00,0.00,30.21,1012.50,8.00,25.00,CLR,M,M,M,M,M,M,M,M,M,M,M,M,M,M,84.95,KELY 102153Z AUTO 36011G25KT 8SM CLR 32/M01 A3021 RMK AO2 SLP125 T03171011,M
P68,2021-08-10 21:53,-116.0056,39.6014,1993.00,89.00,26.10,10.25,30.00,9.00,0.00,30.21,1014.50,M,15.00,M,M,M,M,M,M,M,M,M,M,M,M,M,M,M,84.60,KP68 102153Z AUTO 03009G15KT 32/M03 A3021 RMK AO1 SLP145 T03171033,M
MEV,2021-08-10 21:55,-119.7500,38.9963,1441.42,95.00,28.40,9.38,320.00,15.00,0.00,30.12,M,5.00,M,CLR,M,M,M,M,M,M,M,HZ,M,M,M,M,M,M,89.27,KMEV 102155Z AUTO 32015KT 5SM HZ CLR 35/M02 A3012 RMK AO2,M
BVU,2021-08-10 21:55,-114.8611,35.9475,671.00,96.80,53.60,23.55,190.00,8.00,0.00,29.92,M,10.00,14.00,CLR,M,M,M,M,M,M,M,M,M,M,M,M,M,M,94.59,KBVU 102155Z AUTO 19008G14KT 10SM CLR 36/12 A2992 RMK AO2,M
RTS,2021-08-10 21:55,-119.8764,39.6682,1539.00,89.60,28.40,11.09,80.00,7.00,0.00,30.18,M,7.00,M,CLR,M,M,M,M,M,M,M,M,M,M,M,M,M,M,85.17,KRTS 102155Z AUTO 08007KT 7SM CLR 32/M02 A3018 RMK AO2,M
BAM,2021-08-10 21:55,-116.8743,40.5990,1382.36,91.40,19.40,7.19,320.00,10.00,0.00,30.15,M,10.00,M,CLR,M,M,M,M,M,M,M,M,M,M,M,M,M,M,85.86,KBAM 102155Z AUTO 32010KT 10SM CLR 33/M07 A3015 RMK AO1,M
HTH,2021-08-10 21:55,-118.6315,38.5448,1282.89,93.20,26.60,9.21,340.00,8.00,0.00,30.09,M,8.00,15.00,CLR,M,M,M,M,M,M,M,M,M,M,M,M,M,M,87.72,KHTH 102155Z AUTO 34008G15KT 320V020 8SM CLR 34/M03 A3009 RMK A01,M
RNO,2021-08-10 21:55,-119.7711,39.4839,1341.00,94.00,30.90,10.74,80.00,11.00,0.00,30.11,1013.10,6.00,M,SCT,M,M,M,4000.00,M,M,M,FU HZ,M,M,M,M,M,M,88.71,KRNO 102155Z 08011KT 6SM FU HZ SCT040 34/M01 A3011 RMK AO2 SLP131 FU SCT040 FU ALF ALQDS T03441006,M
EKO,2021-08-10 21:56,-115.7860,40.8242,1367.00,92.00,23.00,8.25,260.00,12.00,0.00,30.15,1015.40,10.00,M,CLR,M,M,M,M,M,M,M,M,M,M,M,M,M,M,86.45,KEKO 102156Z AUTO 26012KT 10SM CLR 33/M05 A3015 RMK AO2 SLP154 T03331050,M
NFL,2021-08-10 21:56,-118.7010,39.4166,1199.00,97.00,27.00,8.32,10.00,7.00,0.00,30.07,1015.20,4.00,M,FEW,M,M,M,4400.00,M,M,M,FU,M,M,M,M,M,M,90.77,KNFL 102156Z 01007KT 4SM FU FEW044 36/M03 A3007 RMK AO2 SLP152 T03611028,M
HND,2021-08-10 21:56,-115.1344,35.9729,742.79,104.00,56.00,20.61,160.00,9.00,0.00,29.93,1011.50,10.00,16.00,CLR,M,M,M,M,M,M,M,M,M,M,M,M,M,M,103.22,KHND 102156Z 16009G16KT 10SM CLR 40/13 A2993 RMK AO2 SLP115 T04000133,M
TPH,2021-08-10 21:56,-117.0904,38.0505,1654.00,92.00,23.00,8.25,160.00,15.00,0.00,30.17,1012.90,10.00,20.00,CLR,M,M,M,M,M,M,M,M,M,M,M,M,M,M,86.45,KTPH 102156Z AUTO 16015G20KT 10SM CLR 33/M05 A3017 RMK AO2 SLP129 T03331050,M
LAS,2021-08-10 21:56,-115.1634,36.0719,663.00,105.00,45.00,13.31,100.00,6.00,0.00,29.89,1008.80,10.00,M,FEW,FEW,M,M,12000.00,15000.00,M,M,M,M,M,M,M,M,M,100.97,KLAS 102156Z 10006KT 10SM FEW120CB FEW150 41/07 A2989 RMK AO2 SLP088 CBMAM E-S CB DSNT E-S T04060072,M
WMC,2021-08-10 21:56,-117.8072,40.9019,1315.00,94.00,21.90,7.40,M,M,0.00,30.12,1014.30,10.00,M,CLR,M,M,M,M,M,M,M,M,M,M,M,M,M,M,87.86,KWMC 102156Z AUTO 10SM CLR 34/M06 A3012 RMK AO2 SLP143 T03441056 /,M
LSV,2021-08-10 21:58,-115.0343,36.2362,570.00,104.70,39.60,10.94,200.00,4.00,0.00,29.85,1007.80,10.00,M,CLR,M,M,M,M,M,M,M,M,M,M,M,M,M,M,99.26,KLSV 102158Z AUTO 20004KT 10SM CLR 40/04 A2985 RMK AO2 SLP078 T04040042 $,M
CXP,2021-08-10 22:10,-119.7326,39.1923,1431.00,95.00,24.80,8.08,50.00,12.00,0.00,30.14,M,8.00,M,CLR,M,M,M,M,M,M,M,M,M,M,M,M,M,M,88.91,KCXP 102210Z AUTO 05012KT 8SM CLR 35/M04 A3014 RMK AO2,M
RTS,2021-08-10 22:15,-119.8764,39.6682,1539.00,89.60,26.60,10.30,M,5.00,0.00,30.18,M,8.00,11.00,CLR,M,M,M,M,M,M,M,M,M,M,M,M,M,M,85.02,KRTS 102215Z AUTO VRB05G11KT 8SM CLR 32/M03 A3018 RMK AO2,M
MEV,2021-08-10 22:15,-119.7500,38.9963,1441.42,95.00,28.40,9.38,320.00,14.00,0.00,30.11,M,5.00,21.00,CLR,M,M,M,M,M,M,M,HZ,M,M,M,M,M,M,89.27,KMEV 102215Z AUTO 32014G21KT 5SM HZ CLR 35/M02 A3011 RMK AO2,M
BAM,2021-08-10 22:15,-116.8743,40.5990,1382.36,91.40,21.20,7.77,320.00,10.00,0.00,30.15,M,10.00,M,CLR,M,M,M,M,M,M,M,M,M,M,M,M,M,M,85.96,KBAM 102215Z AUTO 32010KT 10SM CLR 33/M06 A3015 RMK AO1,M
HTH,2021-08-10 22:15,-118.6315,38.5448,1282.89,95.00,26.60,8.71,330.00,10.00,0.00,30.08,M,8.00,M,CLR,M,M,M,M,M,M,M,M,M,M,M,M,M,M,89.08,KHTH 102215Z AUTO 33010KT 8SM CLR 35/M03 A3008 RMK A01,M
BVU,2021-08-10 22:15,-114.8611,35.9475,671.00,100.40,53.60,21.11,210.00,6.00,0.00,29.91,M,9.00,M,CLR,M,M,M,M,M,M,M,M,M,M,M,M,M,M,98.44,KBVU 102215Z AUTO 21006KT 9SM CLR 38/12 A2991 RMK AO2 LTG DSNT SE,M
CXP,2021-08-10 22:30,-119.7326,39.1923,1431.00,95.00,24.80,8.08,50.00,12.00,0.00,30.13,M,8.00,M,CLR,M,M,M,M,M,M,M,M,M,M,M,M,M,M,88.91,KCXP 102230Z AUTO 05012KT 8SM CLR 35/M04 A3013 RMK AO2,M
RTS,2021-08-10 22:35,-119.8764,39.6682,1539.00,89.60,26.60,10.30,120.00,6.00,0.00,30.17,M,8.00,12.00,CLR,M,M,M,M,M,M,M,M,M,M,M,M,M,M,85.02,KRTS 102235Z AUTO 12006G12KT 8SM CLR 32/M03 A3017 RMK AO2,M
HTH,2021-08-10 22:35,-118.6315,38.5448,1282.89,95.00,26.60,8.71,330.00,10.00,0.00,30.07,M,8.00,17.00,CLR,M,M,M,M,M,M,M,M,M,M,M,M,M,M,89.08,KHTH 102235Z AUTO 33010G17KT 8SM CLR 35/M03 A3007 RMK A01,M
BAM,2021-08-10 22:35,-116.8743,40.5990,1382.36,91.40,21.20,7.77,360.00,7.00,0.00,30.14,M,10.00,M,CLR,M,M,M,M,M,M,M,M,M,M,M,M,M,M,85.96,KBAM 102235Z AUTO 36007KT 10SM CLR 33/M06 A3014 RMK AO1,M
BVU,2021-08-10 22:35,-114.8611,35.9475,671.00,100.40,51.80,19.76,150.00,8.00,0.00,29.90,M,10.00,M,CLR,M,M,M,M,M,M,M,M,M,M,M,M,M,M,97.90,KBVU 102235Z AUTO 15008KT 10SM CLR 38/11 A2990 RMK AO2 LTG DSNT E AND SE,M
MEV,2021-08-10 22:35,-119.7500,38.9963,1441.42,95.00,28.40,9.38,360.00,14.00,0.00,30.10,M,5.00,19.00,CLR,M,M,M,M,M,M,M,HZ,M,M,M,M,M,M,89.27,KMEV 102235Z AUTO 36014G19KT 5SM HZ CLR 35/M02 A3010 RMK AO2,M
CXP,2021-08-10 22:50,-119.7326,39.1923,1431.00,95.00,24.80,8.08,70.00,10.00,0.00,30.13,M,8.00,19.00,CLR,M,M,M,M,M,M,M,M,M,M,M,M,M,M,88.91,KCXP 102250Z AUTO 07010G19KT 8SM CLR 35/M04 A3013 RMK AO2,M
LOL,2021-08-10 22:53,-118.5701,40.0684,1192.43,95.00,28.00,9.22,0.00,0.00,0.00,30.06,1013.20,5.00,M,CLR,M,M,M,M,M,M,M,HZ,M,M,M,M,M,M,89.22,KLOL 102253Z AUTO 00000KT 5SM HZ CLR 35/M02 A3006 RMK AO2 SLP132 T03501022,M
P68,2021-08-10 22:53,-116.0056,39.6014,1993.00,89.00,25.00,9.79,M,5.00,0.00,30.20,1013.90,M,15.00,M,M,M,M,M,M,M,M,M,M,M,M,M,M,M,84.52,KP68 102253Z AUTO VRB05G15KT 32/M04 A3020 RMK AO1 SLP139 T03171039,M
ELY,2021-08-10 22:53,-114.8453,39.2950,1909.00,89.00,30.00,12.03,M,5.00,0.00,30.20,1012.60,8.00,M,CLR,M,M,M,M,M,M,M,M,M,M,M,M,M,M,84.95,KELY 102253Z AUTO VRB05KT 8SM CLR 32/M01 A3020 RMK AO2 SLP126 T03171011,M
VGT,2021-08-10 22:53,-115.1933,36.2111,667.00,106.00,47.00,13.93,80.00,6.00,0.00,29.86,1009.50,10.00,M,CLR,M,M,M,M,M,M,M,FU,M,M,M,M,M,M,102.30,KVGT 102253Z 08006KT 10SM FU CLR 41/08 A2986 RMK AO2 SLP095 T04110083,M
DRA,2021-08-10 22:53,-116.0278,36.6206,1009.00,100.00,33.00,9.74,M,5.00,0.00,29.97,1008.70,10.00,16.00,CLR,M,M,M,M,M,M,M,M,M,M,M,M,M,M,94.03,KDRA 102253Z AUTO VRB05G16KT 10SM CLR 38/01 A2997 RMK AO2 SLP087 T03780006,M
MEV,2021-08-10 22:55,-119.7500,38.9963,1441.42,95.00,28.40,9.38,350.00,18.00,0.00,30.08,M,5.00,M,CLR,M,M,M,M,M,M,M,HZ,M,M,M,M,M,M,89.27,KMEV 102255Z AUTO 35018KT 320V040 5SM HZ CLR 35/M02 A3008 RMK AO2,M
BAM,2021-08-10 22:55,-116.8743,40.5990,1382.36,91.40,21.20,7.77,10.00,6.00,0.00,30.13,M,10.00,M,CLR,M,M,M,M,M,M,M,M,M,M,M,M,M,M,85.96,KBAM 102255Z AUTO 01006KT 10SM CLR 33/M06 A3013 RMK AO1,M
RNO,2021-08-10 22:55,-119.7711,39.4839,1341.00,95.00,30.90,10.38,90.00,8.00,0.00,30.09,1012.60,6.00,15.00,FEW,M,M,M,4400.00,M,M,M,FU HZ,M,M,M,M,M,M,89.56,KRNO 102255Z 09008G15KT 6SM FU HZ FEW044 35/M01 A3009 RMK AO2 SLP126 FU FEW044 FU ALF ALQDS T03501006,M
BVU,2021-08-10 22:55,-114.8611,35.9475,671.00,100.40,51.80,19.76,170.00,3.00,0.00,29.89,M,10.00,15.00,CLR,M,M,M,M,M,M,M,M,M,M,M,M,M,M,97.90,KBVU 102255Z AUTO 17003G15KT 10SM CLR 38/11 A2989 RMK AO2,M
HTH,2021-08-10 22:55,-118.6315,38.5448,1282.89,95.00,26.60,8.71,310.00,8.00,0.00,30.06,M,8.00,14.00,CLR,M,M,M,M,M,M,M,M,M,M,M,M,M,M,89.08,KHTH 102255Z AUTO 31008G14KT 8SM CLR 35/M03 A3006 RMK A01,M
RTS,2021-08-10 22:55,-119.8764,39.6682,1539.00,89.60,26.60,10.30,M,3.00,0.00,30.16,M,8.00,M,CLR,M,M,M,M,M,M,M,M,M,M,M,M,M,M,85.02,KRTS 102255Z AUTO VRB03KT 8SM CLR 32/M03 A3016 RMK AO2,M
EKO,2021-08-10 22:56,-115.7860,40.8242,1367.00,92.00,19.00,6.96,240.00,9.00,0.00,30.14,1014.80,10.00,M,CLR,M,M,M,M,M,M,M,M,M,M,M,M,M,M,86.20,KEKO 102256Z AUTO 24009KT 10SM CLR 33/M07 A3014 RMK AO2 SLP148 T03331072,M
TPH,2021-08-10 22:56,-117.0904,38.0505,1654.00,94.00,24.10,8.12,M,M,0.00,30.15,1011.90,10.00,M,CLR,M,M,M,M,M,M,M,M,M,M,M,M,M,M,88.03,KTPH 102256Z AUTO 10SM CLR 34/M04 A3015 RMK AO2 SLP119 T03441044,M
NFL,2021-08-10 22:56,-118.7010,39.4166,1199.00,98.00,27.00,8.05,330.00,6.00,0.00,30.05,1014.50,4.00,M,BKN,M,M,M,4000.00,M,M,M,FU,M,M,M,M,M,M,91.69,KNFL 102256Z 33006KT 4SM FU BKN040 37/M03 A3005 RMK AO2 SLP145 FU BKN040 T03671028,M
LAS,2021-08-10 22:56,-115.1634,36.0719,663.00,104.00,52.00,17.87,110.00,9.00,0.00,29.88,1008.50,10.00,M,FEW,FEW,M,M,12000.00,15000.00,M,M,M,M,M,M,M,M,M,101.76,KLAS 102256Z 11009KT 10SM FEW120CB FEW150 40/11 A2988 RMK AO2 SLP085 CBMAM E-S CB DSNT E-S T04000111,M
WMC,2021-08-10 22:56,-117.8072,40.9019,1315.00,94.00,23.00,7.75,M,3.00,0.00,30.11,1013.70,10.00,M,CLR,M,M,M,M,M,M,M,M,M,M,M,M,M,M,87.94,KWMC 102256Z AUTO VRB03KT 10SM CLR 34/M05 A3011 RMK AO2 SLP137 T03441050 /,M
HND,2021-08-10 22:56,-115.1344,35.9729,742.79,103.00,53.00,19.23,120.00,11.00,0.00,29.92,1010.80,10.00,15.00,CLR,M,M,M,M,M,M,M,M,M,M,M,M,M,M,100.96,KHND 102256Z 12011G15KT 10SM CLR 39/12 A2992 RMK AO2 SLP108 T03940117,M
CXP,2021-08-10 23:10,-119.7326,39.1923,1431.00,95.00,24.80,8.08,60.00,7.00,0.00,30.12,M,9.00,15.00,CLR,M,M,M,M,M,M,M,M,M,M,M,M,M,M,88.91,KCXP 102310Z AUTO 06007G15KT 9SM CLR 35/M04 A3012 RMK AO2,M
RTS,2021-08-10 23:15,-119.8764,39.6682,1539.00,89.60,26.60,10.30,0.00,0.00,0.00,30.15,M,8.00,M,CLR,M,M,M,M,M,M,M,M,M,M,M,M,M,M,85.02,KRTS 102315Z AUTO 00000KT 8SM CLR 32/M03 A3015 RMK AO2,M
MEV,2021-08-10 23:15,-119.7500,38.9963,1441.42,95.00,26.60,8.71,360.00,11.00,0.00,30.09,M,6.00,18.00,CLR,M,M,M,M,M,M,M,HZ,M,M,M,M,M,M,89.08,KMEV 102315Z AUTO 36011G18KT 6SM HZ CLR 35/M03 A3009 RMK AO2,M
BAM,2021-08-10 23:15,-116.8743,40.5990,1382.36,91.40,21.20,7.77,320.00,10.00,0.00,30.13,M,10.00,15.00,CLR,M,M,M,M,M,M,M,M,M,M,M,M,M,M,85.96,KBAM 102315Z AUTO 32010G15KT 10SM CLR 33/M06 A3013 RMK AO1,M
HTH,2021-08-10 23:15,-118.6315,38.5448,1282.89,95.00,26.60,8.71,320.00,11.00,0.00,30.06,M,8.00,M,CLR,M,M,M,M,M,M,M,M,M,M,M,M,M,M,89.08,KHTH 102315Z AUTO 32011KT 8SM CLR 35/M03 A3006 RMK A01,M
BVU,2021-08-10 23:15,-114.8611,35.9475,671.00,102.20,53.60,20.00,220.00,8.00,0.00,29.87,M,10.00,M,CLR,M,M,M,M,M,M,M,M,M,M,M,M,M,M,100.38,KBVU 102315Z AUTO 22008KT 10SM CLR 39/12 A2987 RMK AO2,M
CXP,2021-08-10 23:30,-119.7326,39.1923,1431.00,95.00,24.80,8.08,50.00,7.00,0.00,30.12,M,8.00,13.00,CLR,M,M,M,M,M,M,M,M,M,M,M,M,M,M,88.91,KCXP 102330Z AUTO 05007G13KT 8SM CLR 35/M04 A3012 RMK AO2,M
RTS,2021-08-10 23:35,-119.8764,39.6682,1539.00,91.40,26.60,9.74,100.00,5.00,0.00,30.15,M,8.00,11.00,CLR,M,M,M,M,M,M,M,M,M,M,M,M,M,M,86.36,KRTS 102335Z AUTO 10005G11KT 8SM CLR 33/M03 A3015 RMK AO2,M
MEV,2021-08-10 23:35,-119.7500,38.9963,1441.42,93.20,26.60,9.21,340.00,9.00,0.00,30.09,M,6.00,M,CLR,M,M,M,M,M,M,M,HZ,M,M,M,M,M,M,87.72,KMEV 102335Z AUTO 34009KT 6SM HZ CLR 34/M03 A3009 RMK AO2,M
BAM,2021-08-10 23:35,-116.8743,40.5990,1382.36,91.40,21.20,7.77,340.00,9.00,0.00,30.13,M,10.00,M,CLR,M,M,M,M,M,M,M,M,M,M,M,M,M,M,85.96,KBAM 102335Z AUTO 34009KT 10SM CLR 33/M06 A3013 RMK AO1,M
HTH,2021-08-10 23:35,-118.6315,38.5448,1282.89,95.00,24.80,8.08,310.00,10.00,0.00,30.05,M,8.00,15.00,CLR,M,M,M,M,M,M,M,M,M,M,M,M,M,M,88.91,KHTH 102335Z AUTO 31010G15KT 8SM CLR 35/M04 A3005 RMK A01,M
BVU,2021-08-10 23:35,-114.8611,35.9475,671.00,100.40,53.60,21.11,190.00,11.00,0.00,29.87,M,10.00,M,CLR,M,M,M,M,M,M,M,M,M,M,M,M,M,M,98.44,KBVU 102335Z AUTO 19011KT 10SM CLR 38/12 A2987 RMK AO2,M
CXP,2021-08-10 23:50,-119.7326,39.1923,1431.00,95.00,24.80,8.08,90.00,8.00,0.00,30.11,M,9.00,14.00,CLR,M,M,M,M,M,M,M,M,M,M,M,M,M,M,88.91,KCXP 102350Z AUTO 09008G14KT 9SM CLR 35/M04 A3011 RMK AO2,M
P68,2021-08-10 23:53,-116.0056,39.6014,1993.00,88.00,21.90,8.90,40.00,12.00,0.00,30.19,1014.30,M,19.00,M,M,M,M,M,M,M,M,M,M,M,M,M,M,M,83.51,KP68 102353Z AUTO 04012G19KT 31/M06 A3019 RMK AO1 SLP143 T03111056 10322 20256 56012,M
ELY,2021-08-10 23:53,-114.8453,39.2950,1909.00,88.00,26.10,10.61,50.00,9.00,0.00,30.19,1012.50,8.00,M,CLR,M,M,M,M,M,M,M,M,M,M,M,M,M,M,83.80,KELY 102353Z AUTO 05009KT 8SM CLR 31/M03 A3019 RMK AO2 SLP125 T03111033 10322 20267 56010,M
VGT,2021-08-10 23:53,-115.1933,36.2111,667.00,104.00,51.00,17.29,140.00,7.00,0.00,29.84,1009.10,10.00,M,CLR,M,M,M,M,M,M,M,FU,M,M,M,M,M,M,101.47,KVGT 102353Z 14007KT 10SM FU CLR 40/11 A2984 RMK AO2 SLP091 T04000106 10417 20356 56018,M
LOL,2021-08-10 23:53,-118.5701,40.0684,1192.43,98.00,28.00,8.39,60.00,8.00,0.00,30.05,1012.60,5.00,M,CLR,M,M,M,M,M,M,M,HZ,M,M,M,M,M,M,91.79,KLOL 102353Z AUTO 06008KT 5SM HZ CLR 37/M02 A3005 RMK AO2 SLP126 T03671022 10367 20300 56016,M
DRA,2021-08-10 23:53,-116.0278,36.6206,1009.00,101.00,33.00,9.48,200.00,3.00,0.00,29.95,1008.50,10.00,M,CLR,M,M,M,M,M,M,M,M,M,M,M,M,M,M,94.79,KDRA 102353Z AUTO 20003KT 10SM CLR 38/01 A2995 RMK AO2 SLP085 T03830006 10394 20356 56014,M
RNO,2021-08-10 23:55,-119.7711,39.4839,1341.00,94.00,30.00,10.36,M,5.00,0.00,30.08,1012.60,6.00,M,FEW,M,M,M,4400.00,M,M,M,HZ FU,M,M,M,M,M,M,88.60,KRNO 102355Z VRB05KT 6SM HZ FU FEW044 34/M01 A3008 RMK AO2 SLP126 FU FEW044 FU ALF ALQDS HZ ALQDS T03441011 10356 20272 56013,M
BAM,2021-08-10 23:55,-116.8743,40.5990,1382.36,91.40,19.40,7.19,340.00,11.00,0.00,30.12,M,10.00,M,CLR,M,M,M,M,M,M,M,M,M,M,M,M,M,M,85.86,KBAM 102355Z AUTO 34011KT 10SM CLR 33/M07 A3012 RMK AO1,M
HTH,2021-08-10 23:55,-118.6315,38.5448,1282.89,95.00,24.80,8.08,320.00,11.00,0.00,30.05,M,9.00,M,M,M,M,M,M,M,M,M,M,M,M,M,M,M,M,88.91,KHTH 102355Z AUTO 32011KT 9SM 35/M04 A3005 RMK A01,M
RTS,2021-08-10 23:55,-119.8764,39.6682,1539.00,91.40,26.60,9.74,110.00,7.00,0.00,30.15,M,9.00,M,CLR,M,M,M,M,M,M,M,M,M,M,M,M,M,M,86.36,KRTS 102355Z AUTO 11007KT 9SM CLR 33/M03 A3015 RMK AO2,M
MEV,2021-08-10 23:55,-119.7500,38.9963,1441.42,93.20,26.60,9.21,50.00,6.00,0.00,30.09,M,6.00,17.00,CLR,M,M,M,M,M,M,M,HZ,M,M,M,M,M,M,87.72,KMEV 102355Z AUTO 05006G17KT 6SM HZ CLR 34/M03 A3009 RMK AO2,M
BVU,2021-08-10 23:55,-114.8611,35.9475,671.00,102.20,55.40,21.36,180.00,11.00,0.00,29.87,M,10.00,M,CLR,M,M,M,M,M,M,M,M,M,M,M,M,M,M,101.04,KBVU 102355Z AUTO 18011KT 10SM CLR 39/13 A2987 RMK AO2,M
HND,2021-08-10 23:56,-115.1344,35.9729,742.79,103.00,53.00,19.23,160.00,9.00,0.00,29.90,1010.50,10.00,M,CLR,M,M,M,M,M,M,M,M,M,M,M,M,M,M,100.96,KHND 102356Z 16009KT 10SM CLR 39/12 A2990 RMK AO2 SLP105 T03940117 10400 20356 56018,M
EKO,2021-08-10 23:56,-115.7860,40.8242,1367.00,92.00,17.10,6.42,320.00,11.00,0.00,30.13,1014.40,10.00,16.00,CLR,M,M,M,M,M,M,M,M,M,M,M,M,M,M,86.10,KEKO 102356Z AUTO 32011G16KT 10SM CLR 33/M08 A3013 RMK AO2 SLP144 T03331083 10339 20261 56014,M
WMC,2021-08-10 23:56,-117.8072,40.9019,1315.00,95.00,18.00,6.06,310.00,8.00,0.00,30.09,1013.30,10.00,M,CLR,M,M,M,M,M,M,M,M,M,M,M,M,M,M,88.41,KWMC 102356Z AUTO 31008KT 10SM CLR 35/M08 A3009 RMK AO2 SLP133 T03501078 10350 20278 56014 $,M
NFL,2021-08-10 23:56,-118.7010,39.4166,1199.00,99.00,28.00,8.16,30.00,8.00,0.00,30.03,1014.00,4.00,M,BKN,M,M,M,4000.00,M,M,M,FU,M,M,M,M,M,M,92.54,KNFL 102356Z 03008KT 4SM FU BKN040 37/M02 A3003 RMK AO2 SLP140 FU BKN040 T03721022 10372 20289 57017,M
TPH,2021-08-10 23:56,-117.0904,38.0505,1654.00,94.00,24.10,8.12,180.00,7.00,0.00,30.13,1011.70,10.00,M,CLR,M,M,M,M,M,M,M,M,M,M,M,M,M,M,88.03,KTPH 102356Z AUTO 18007KT 10SM CLR 34/M04 A3013 RMK AO2 SLP117 T03441044 10350 20289 56014,M
LAS,2021-08-10 23:56,-115.1634,36.0719,663.00,103.00,50.00,17.15,100.00,10.00,0.00,29.86,1007.90,10.00,15.00,FEW,FEW,SCT,M,12000.00,15000.00,22000.00,M,M,M,M,M,M,M,M,100.01,KLAS 102356Z 10010G15KT 10SM FEW120 FEW150 SCT220 39/10 A2986 RMK AO2 SLP079 CB DSNT SE-S T03940100 10406 20361 56020,M
