station,valid,lon,lat,elevation,tmpf,dwpf,relh,drct,sknt,p01i,alti,mslp,vsby,gust,skyc1,skyc2,skyc3,skyc4,skyl1,skyl2,skyl3,skyl4,wxcodes,ice_accretion_1hr,ice_accretion_3hr,ice_accretion_6hr,peak_wind_gust,peak_wind_drct,peak_wind_time,feel,metar,snowdepth
TMT,2022-09-28 00:15,-117.1971,39.4643,1749.34,M,M,M,230.00,6.00,0.00,30.16,M,10.00,M,CLR,M,M,M,M,M,M,M,M,M,M,M,M,M,M,M,KTMT 280015Z AUTO 23006KT 10SM CLR A3016 RMK AO2,M
CXP,2022-09-28 00:15,-119.7326,39.1923,1431.00,82.40,37.40,20.04,280.00,14.00,0.00,30.09,M,10.00,23.00,CLR,M,M,M,M,M,M,M,M,M,M,M,M,M,M,80.14,KCXP 280015Z AUTO 28014G23KT 10SM CLR 28/03 A3009 RMK AO2,M
BVU,2022-09-28 00:15,-114.8611,35.9475,671.00,95.00,39.20,14.44,30.00,4.00,0.00,29.93,M,M,M,M,M,M,M,M,M,M,M,M,M,M,M,M,M,M,90.57,KBVU 280015Z AUTO 03004KT 35/04 A2993 RMK AO2 TSNO,M
RTS,2022-09-28 00:15,-119.8764,39.6682,1539.00,80.60,37.40,21.25,240.00,17.00,0.00,30.11,M,10.00,M,CLR,M,M,M,M,M,M,M,M,M,M,M,M,M,M,79.02,KRTS 280015Z AUTO 24017KT 10SM CLR 27/03 A3011 RMK AO2,M
05U,2022-09-28 00:15,-116.0051,39.6042,1811.23,80.60,17.60,9.40,110.00,3.00,0.00,30.19,M,10.00,M,CLR,M,M,M,M,M,M,M,M,M,M,M,M,M,M,78.45,K05U 280015Z AUTO 11003KT 10SM CLR 27/M08 A3019 RMK A01,M
MEV,2022-09-28 00:15,-119.7500,38.9963,1441.42,82.40,28.40,13.96,250.00,14.00,0.00,30.09,M,10.00,21.00,CLR,M,M,M,M,M,M,M,M,M,M,M,M,M,M,79.94,KMEV 280015Z AUTO 25014G21KT 10SM CLR 28/M02 A3009 RMK AO2,M
HTH,2022-09-28 00:15,-118.6315,38.5448,1282.89,89.60,26.60,10.30,170.00,9.00,0.00,30.01,M,10.00,M,CLR,M,M,M,M,M,M,M,M,M,M,M,M,M,M,85.02,KHTH 280015Z AUTO 17009KT 10SM CLR 32/M03 A3001 RMK A01,M
BAM,2022-09-28 00:15,-116.8743,40.5990,1382.36,86.00,30.20,13.38,150.00,4.00,0.00,30.07,M,10.00,M,CLR,M,M,M,M,M,M,M,M,M,M,M,M,M,M,82.64,KBAM 280015Z AUTO 15004KT 10SM CLR 30/M01 A3007 RMK AO1,M
HTH,2022-09-28 00:35,-118.6315,38.5448,1282.89,87.80,28.40,11.74,180.00,10.00,0.00,30.01,M,10.00,M,CLR,M,M,M,M,M,M,M,M,M,M,M,M,M,M,83.84,KHTH 280035Z AUTO 18010KT 10SM CLR 31/M02 A3001 RMK A01,M
BVU,2022-09-28 00:35,-114.8611,35.9475,671.00,95.00,39.20,14.44,30.00,5.00,0.00,29.93,M,M,M,M,M,M,M,M,M,M,M,M,M,M,M,M,M,M,90.57,KBVU 280035Z AUTO 03005KT 35/04 A2993 RMK AO2 TSNO,M
CXP,2022-09-28 00:35,-119.7326,39.1923,1431.00,80.60,37.40,21.25,280.00,15.00,0.00,30.10,M,10.00,22.00,CLR,M,M,M,M,M,M,M,M,M,M,M,M,M,M,79.02,KCXP 280035Z AUTO 28015G22KT 10SM CLR 27/03 A3010 RMK AO2,M
RTS,2022-09-28 00:35,-119.8764,39.6682,1539.00,78.80,35.60,21.00,240.00,14.00,0.00,30.12,M,10.00,20.00,CLR,M,M,M,M,M,M,M,M,M,M,M,M,M,M,78.80,KRTS 280035Z AUTO 24014G20KT 10SM CLR 26/02 A3012 RMK AO2,M
05U,2022-09-28 00:35,-116.0051,39.6042,1811.23,78.80,19.40,10.78,0.00,0.00,0.00,30.19,M,10.00,M,CLR,M,M,M,M,M,M,M,M,M,M,M,M,M,M,78.80,K05U 280035Z AUTO 00000KT 10SM CLR 26/M07 A3019 RMK A01,M
MEV,2022-09-28 00:35,-119.7500,38.9963,1441.42,80.60,30.20,15.94,280.00,15.00,0.00,30.09,M,10.00,21.00,CLR,M,M,M,M,M,M,M,M,M,M,M,M,M,M,78.77,KMEV 280035Z AUTO 28015G21KT 10SM CLR 27/M01 A3009 RMK AO2,M
BAM,2022-09-28 00:35,-116.8743,40.5990,1382.36,86.00,30.20,13.38,0.00,0.00,0.00,30.07,M,10.00,M,CLR,M,M,M,M,M,M,M,M,M,M,M,M,M,M,82.64,KBAM 280035Z AUTO 00000KT 10SM CLR 30/M01 A3007 RMK AO1,M
TMT,2022-09-28 00:35,-117.1971,39.4643,1749.34,M,M,M,230.00,6.00,0.00,30.16,M,10.00,M,CLR,M,M,M,M,M,M,M,M,M,M,M,M,M,M,M,KTMT 280035Z AUTO 23006KT 10SM CLR A3016 RMK AO2,M
ELY,2022-09-28 00:53,-114.8453,39.2950,1909.00,73.00,24.10,15.95,220.00,7.00,0.00,30.22,1016.30,10.00,M,CLR,M,M,M,M,M,M,M,M,M,M,M,M,M,M,73.00,KELY 280053Z AUTO 22007KT 10SM CLR 23/M04 A3022 RMK AO2 SLP163 T02281044,M
P68,2022-09-28 00:53,-116.0056,39.6014,1993.00,78.00,19.00,10.84,190.00,11.00,0.00,30.17,1014.70,M,14.00,M,M,M,M,M,M,M,M,M,M,M,M,M,M,M,78.10,KP68 280053Z AUTO 19011G14KT 26/M07 A3017 RMK AO1 SLP147 T02561072,M
LOL,2022-09-28 00:53,-118.5701,40.0684,1192.43,88.00,32.00,13.51,220.00,7.00,0.00,29.99,1012.10,10.00,M,CLR,M,M,M,M,M,M,M,M,M,M,M,M,M,M,84.24,KLOL 280053Z AUTO 22007KT 10SM CLR 31/00 A2999 RMK AO2 SLP121 T03110000,M
DRA,2022-09-28 00:53,-116.0278,36.6206,1009.00,92.00,30.00,11.02,240.00,11.00,0.00,29.99,1011.20,10.00,M,CLR,M,M,M,M,M,M,M,M,M,M,M,M,M,M,87.07,KDRA 280053Z AUTO 24011KT 10SM CLR 33/M01 A2999 RMK AO2 SLP112 T03331011,M
VGT,2022-09-28 00:53,-115.1933,36.2111,667.00,97.00,41.00,14.57,120.00,8.00,0.00,29.92,1012.10,10.00,M,CLR,M,M,M,M,M,M,M,M,M,M,M,M,M,M,92.58,KVGT 280053Z 12008KT 10SM CLR 36/05 A2992 RMK AO2 SLP121 T03610050,M
05U,2022-09-28 00:55,-116.0051,39.6042,1811.23,77.00,17.60,10.59,230.00,6.00,0.00,30.19,M,10.00,12.00,CLR,M,M,M,M,M,M,M,M,M,M,M,M,M,M,77.00,K05U 280055Z AUTO 23006G12KT 10SM CLR 25/M08 A3019 RMK A01,M
BVU,2022-09-28 00:55,-114.8611,35.9475,671.00,95.00,41.00,15.49,40.00,6.00,0.00,29.93,M,M,M,M,M,M,M,M,M,M,M,M,M,M,M,M,M,M,90.70,KBVU 280055Z AUTO 04006KT 35/05 A2993 RMK AO2 TSNO,M
CXP,2022-09-28 00:55,-119.7326,39.1923,1431.00,78.80,35.60,21.00,260.00,12.00,0.00,30.10,M,10.00,24.00,CLR,M,M,M,M,M,M,M,M,M,M,M,M,M,M,78.80,KCXP 280055Z AUTO 26012G24KT 230V290 10SM CLR 26/02 A3010 RMK AO2,M
RTS,2022-09-28 00:55,-119.8764,39.6682,1539.00,77.00,28.40,16.67,250.00,16.00,0.00,30.12,M,10.00,23.00,CLR,M,M,M,M,M,M,M,M,M,M,M,M,M,M,77.00,KRTS 280055Z AUTO 25016G23KT 10SM CLR 25/M02 A3012 RMK AO2,M
MEV,2022-09-28 00:55,-119.7500,38.9963,1441.42,78.80,33.80,19.55,260.00,12.00,0.00,30.09,M,10.00,20.00,CLR,M,M,M,M,M,M,M,M,M,M,M,M,M,M,78.80,KMEV 280055Z AUTO 26012G20KT 10SM CLR 26/01 A3009 RMK AO2,M
BAM,2022-09-28 00:55,-116.8743,40.5990,1382.36,84.20,30.20,14.18,160.00,4.00,0.00,30.07,M,10.00,M,CLR,M,M,M,M,M,M,M,M,M,M,M,M,M,M,81.26,KBAM 280055Z AUTO 16004KT 10SM CLR 29/M01 A3007 RMK AO1,M
HTH,2022-09-28 00:55,-118.6315,38.5448,1282.89,87.80,28.40,11.74,140.00,10.00,0.00,30.01,M,10.00,16.00,CLR,M,M,M,M,M,M,M,M,M,M,M,M,M,M,83.84,KHTH 280055Z AUTO 14010G16KT 10SM CLR 31/M02 A3001 RMK A01,M
TMT,2022-09-28 00:55,-117.1971,39.4643,1749.34,M,M,M,230.00,4.00,0.00,30.16,M,10.00,M,CLR,M,M,M,M,M,M,M,M,M,M,M,M,M,M,M,KTMT 280055Z AUTO 23004KT 10SM CLR A3016 RMK AO2,M
LSV,2022-09-28 00:55,-115.0343,36.2362,570.00,96.00,41.00,14.97,120.00,8.00,0.00,29.88,M,10.00,M,CLR,M,M,M,M,M,M,M,M,M,M,M,M,M,M,91.73,KLSV 280055Z AUTO 12008KT 10SM CLR 36/05 A2988 RMK AO2 SLPNO T03560050 $,M
RNO,2022-09-28 00:55,-119.7711,39.4839,1341.00,83.00,40.00,21.75,280.00,12.00,0.00,30.05,1012.80,10.00,19.00,FEW,FEW,SCT,SCT,9000.00,15000.00,20000.00,25000.00,M,M,M,M,27.00,280.00,2022-09-28 00:23,80.57,KRNO 280055Z 28012G19KT 10SM FEW090 FEW150 SCT200 SCT250 28/04 A3005 RMK AO2 PK WND 28027/0023 SLP128 ACSL DSNT W THRU NW T02830044,M
LAS,2022-09-28 00:56,-115.1634,36.0719,663.00,94.00,40.00,15.35,90.00,7.00,0.00,29.93,1011.10,10.00,M,FEW,FEW,SCT,M,13000.00,16000.00,22000.00,M,M,M,M,M,M,M,M,89.60,KLAS 280056Z 09007KT 10SM FEW130 FEW160 SCT220 34/04 A2993 RMK AO2 SLP111 T03440044,M
EKO,2022-09-28 00:56,-115.7860,40.8242,1367.00,78.00,28.00,15.81,340.00,3.00,0.00,30.10,1015.40,10.00,M,CLR,M,M,M,M,M,M,M,M,M,M,M,M,M,M,78.10,KEKO 280056Z AUTO 34003KT 10SM CLR 26/M02 A3010 RMK AO2 SLP154 T02561022,M
NFL,2022-09-28 00:56,-118.7010,39.4166,1199.00,90.00,28.90,11.18,20.00,6.00,0.00,29.98,1012.30,10.00,M,SCT,SCT,SCT,M,9000.00,12000.00,25000.00,M,M,M,M,M,M,M,M,85.52,KNFL 280056Z 02006KT 10SM SCT090 SCT120 SCT250 32/M02 A2998 RMK AO2 SLP123 T03221017,M
HND,2022-09-28 00:56,-115.1344,35.9729,742.79,94.00,43.00,17.31,100.00,5.00,0.00,29.97,1013.70,10.00,M,CLR,M,M,M,M,M,M,M,M,M,M,M,M,M,M,89.84,KHND 280056Z 10005KT 10SM CLR 34/06 A2997 RMK AO2 SLP137 T03440061,M
TPH,2022-09-28 00:56,-117.0904,38.0505,1654.00,82.00,23.00,11.31,180.00,8.00,0.00,30.15,1014.70,10.00,M,CLR,M,M,M,M,M,M,M,M,M,M,M,M,M,M,79.40,KTPH 280056Z AUTO 18008KT 10SM CLR 28/M05 A3015 RMK AO2 SLP147 T02781050,M
WMC,2022-09-28 00:56,-117.8072,40.9019,1315.00,87.00,30.00,12.82,240.00,8.00,0.00,30.03,1012.90,10.00,M,CLR,M,M,M,M,M,M,M,M,M,M,M,M,M,M,83.48,KWMC 280056Z AUTO 24008KT 10SM CLR 31/M01 A3003 RMK AO2 SLP129 T03061011,M
INS,2022-09-28 00:56,-115.6733,36.5872,955.00,89.00,29.80,11.93,120.00,6.00,0.00,29.99,1011.40,10.00,M,CLR,M,M,M,M,M,M,M,M,M,M,M,M,M,M,84.93,KINS 280056Z AUTO 12006KT 10SM CLR 32/M01 A2999 RMK AO2 SLP114 T03171012 $,M
BAM,2022-09-28 01:15,-116.8743,40.5990,1382.36,82.40,30.20,15.03,0.00,0.00,0.00,30.07,M,10.00,M,CLR,M,M,M,M,M,M,M,M,M,M,M,M,M,M,79.97,KBAM 280115Z AUTO 00000KT 10SM CLR 28/M01 A3007 RMK AO1,M
HTH,2022-09-28 01:15,-118.6315,38.5448,1282.89,87.80,26.60,10.91,210.00,13.00,0.00,30.02,M,10.00,M,CLR,M,M,M,M,M,M,M,M,M,M,M,M,M,M,83.69,KHTH 280115Z AUTO 21013KT 10SM CLR 31/M03 A3002 RMK A01,M
TMT,2022-09-28 01:15,-117.1971,39.4643,1749.34,M,M,M,230.00,4.00,0.00,30.16,M,10.00,M,CLR,M,M,M,M,M,M,M,M,M,M,M,M,M,M,M,KTMT 280115Z AUTO 23004KT 10SM CLR A3016 RMK AO2,M
BVU,2022-09-28 01:15,-114.8611,35.9475,671.00,93.20,41.00,16.37,30.00,6.00,0.00,29.93,M,M,M,M,M,M,M,M,M,M,M,M,M,M,M,M,M,M,89.03,KBVU 280115Z AUTO 03006KT 34/05 A2993 RMK AO2 TSNO,M
CXP,2022-09-28 01:15,-119.7326,39.1923,1431.00,78.80,35.60,21.00,260.00,8.00,0.00,30.11,M,10.00,19.00,CLR,M,M,M,M,M,M,M,M,M,M,M,M,M,M,78.80,KCXP 280115Z AUTO 26008G19KT 220V290 10SM CLR 26/02 A3011 RMK AO2,M
RTS,2022-09-28 01:15,-119.8764,39.6682,1539.00,77.00,26.60,15.48,250.00,16.00,0.00,30.13,M,10.00,21.00,CLR,M,M,M,M,M,M,M,M,M,M,M,M,M,M,77.00,KRTS 280115Z AUTO 25016G21KT 10SM CLR 25/M03 A3013 RMK AO2,M
05U,2022-09-28 01:15,-116.0051,39.6042,1811.23,77.00,17.60,10.59,150.00,6.00,0.00,30.19,M,10.00,M,CLR,M,M,M,M,M,M,M,M,M,M,M,M,M,M,77.00,K05U 280115Z AUTO 15006KT 10SM CLR 25/M08 A3019 RMK A01,M
MEV,2022-09-28 01:15,-119.7500,38.9963,1441.42,77.00,33.80,20.74,260.00,11.00,0.00,30.10,M,10.00,22.00,CLR,M,M,M,M,M,M,M,M,M,M,M,M,M,M,77.00,KMEV 280115Z AUTO 26011G22KT 10SM CLR 25/01 A3010 RMK AO2,M
RTS,2022-09-28 01:35,-119.8764,39.6682,1539.00,75.20,26.60,16.43,260.00,11.00,0.00,30.13,M,10.00,18.00,SCT,M,M,M,12000.00,M,M,M,M,M,M,M,M,M,M,75.20,KRTS 280135Z AUTO 26011G18KT 10SM SCT120 24/M03 A3013 RMK AO2,M
BVU,2022-09-28 01:35,-114.8611,35.9475,671.00,91.40,39.20,16.15,30.00,7.00,0.00,29.93,M,M,M,M,M,M,M,M,M,M,M,M,M,M,M,M,M,M,87.30,KBVU 280135Z AUTO 03007KT 33/04 A2993 RMK AO2 TSNO,M
CXP,2022-09-28 01:35,-119.7326,39.1923,1431.00,77.00,35.60,22.28,M,4.00,0.00,30.11,M,10.00,10.00,CLR,M,M,M,M,M,M,M,M,M,M,M,M,M,M,77.00,KCXP 280135Z AUTO VRB04G10KT 10SM CLR 25/02 A3011 RMK AO2,M
05U,2022-09-28 01:35,-116.0051,39.6042,1811.23,71.60,19.40,13.71,180.00,5.00,0.00,30.20,M,10.00,M,CLR,M,M,M,M,M,M,M,M,M,M,M,M,M,M,71.60,K05U 280135Z AUTO 18005KT 10SM CLR 22/M07 A3020 RMK A01,M
MEV,2022-09-28 01:35,-119.7500,38.9963,1441.42,75.20,35.60,23.66,250.00,7.00,0.00,30.10,M,10.00,M,CLR,M,M,M,M,M,M,M,M,M,M,M,M,M,M,75.20,KMEV 280135Z AUTO 25007KT 10SM CLR 24/02 A3010 RMK AO2,M
BAM,2022-09-28 01:35,-116.8743,40.5990,1382.36,80.60,32.00,17.14,0.00,0.00,0.00,30.07,M,10.00,M,CLR,M,M,M,M,M,M,M,M,M,M,M,M,M,M,78.82,KBAM 280135Z AUTO 00000KT 10SM CLR 27/00 A3007 RMK AO1,M
HTH,2022-09-28 01:35,-118.6315,38.5448,1282.89,86.00,30.20,13.38,280.00,8.00,0.00,30.03,M,10.00,M,CLR,M,M,M,M,M,M,M,M,M,M,M,M,M,M,82.64,KHTH 280135Z AUTO 28008KT 10SM CLR 30/M01 A3003 RMK A01,M
TMT,2022-09-28 01:35,-117.1971,39.4643,1749.34,M,M,M,210.00,5.00,0.00,30.16,M,10.00,M,CLR,M,M,M,M,M,M,M,M,M,M,M,M,M,M,M,KTMT 280135Z AUTO 21005KT 10SM CLR A3016 RMK AO2,M
DRA,2022-09-28 01:53,-116.0278,36.6206,1009.00,87.00,30.90,13.30,170.00,4.00,0.00,30.00,1011.80,10.00,M,CLR,M,M,M,M,M,M,M,M,M,M,M,M,M,M,83.51,KDRA 280153Z AUTO 17004KT 10SM CLR 31/M01 A3000 RMK AO2 SLP118 T03061006,M
ELY,2022-09-28 01:53,-114.8453,39.2950,1909.00,61.00,27.00,27.24,200.00,6.00,0.00,30.23,1018.10,10.00,M,CLR,M,M,M,M,M,M,M,M,M,M,M,M,M,M,61.00,KELY 280153Z AUTO 20006KT 10SM CLR 16/M03 A3023 RMK AO2 SLP181 T01611028,M
LOL,2022-09-28 01:53,-118.5701,40.0684,1192.43,82.00,34.00,17.74,0.00,0.00,0.00,29.99,1012.40,10.00,M,CLR,M,M,M,M,M,M,M,M,M,M,M,M,M,M,79.77,KLOL 280153Z AUTO 00000KT 10SM CLR 28/01 A2999 RMK AO2 SLP124 T02780011,M
VGT,2022-09-28 01:53,-115.1933,36.2111,667.00,94.00,41.00,16.02,120.00,5.00,0.00,29.93,1012.40,10.00,M,CLR,M,M,M,M,M,M,M,M,M,M,M,M,M,M,89.68,KVGT 280153Z 12005KT 10SM CLR 34/05 A2993 RMK AO2 SLP124 T03440050,M
P68,2022-09-28 01:53,-116.0056,39.6014,1993.00,70.00,19.90,14.79,0.00,0.00,0.00,30.18,1016.20,M,M,M,M,M,M,M,M,M,M,M,M,M,M,M,M,M,70.00,KP68 280153Z AUTO 00000KT 21/M07 A3018 RMK AO1 SLP162 T02111067,M
TMT,2022-09-28 01:55,-117.1971,39.4643,1749.34,M,M,M,180.00,5.00,0.00,30.16,M,10.00,M,CLR,M,M,M,M,M,M,M,M,M,M,M,M,M,M,M,KTMT 280155Z AUTO 18005KT 10SM CLR A3016 RMK AO2,M
RNO,2022-09-28 01:55,-119.7711,39.4839,1341.00,79.00,32.00,18.06,290.00,12.00,0.00,30.07,1013.70,10.00,21.00,FEW,FEW,SCT,SCT,10000.00,12000.00,15000.00,20000.00,M,M,M,M,M,M,M,79.00,KRNO 280155Z 29012G21KT 10SM FEW100 FEW120 SCT150 SCT200 SCT250 26/00 A3007 RMK AO2 SLP137 ACSL DSNT W THRU NW T02610000,M
LSV,2022-09-28 01:55,-115.0343,36.2362,570.00,M,M,M,M,M,0.00,29.88,M,M,M,M,M,M,M,M,M,M,M,M,M,M,M,M,M,M,M,KLSV 280155Z AUTO M M M M M A2988 RMK AO2 SLPNO ALSTG ESTMD RVRNO $,M
RTS,2022-09-28 01:55,-119.8764,39.6682,1539.00,73.40,26.60,17.46,280.00,11.00,0.00,30.14,M,10.00,17.00,BKN,M,M,M,12000.00,M,M,M,M,M,M,M,M,M,M,73.40,KRTS 280155Z AUTO 28011G17KT 10SM BKN120 23/M03 A3014 RMK AO2,M
05U,2022-09-28 01:55,-116.0051,39.6042,1811.23,68.00,19.40,15.50,0.00,0.00,0.00,30.20,M,10.00,M,CLR,M,M,M,M,M,M,M,M,M,M,M,M,M,M,68.00,K05U 280155Z AUTO 00000KT 10SM CLR 20/M07 A3020 RMK A01,M
MEV,2022-09-28 01:55,-119.7500,38.9963,1441.42,73.40,35.60,25.13,250.00,9.00,0.00,30.11,M,10.00,M,CLR,M,M,M,M,M,M,M,M,M,M,M,M,M,M,73.40,KMEV 280155Z AUTO 25009KT 10SM CLR 23/02 A3011 RMK AO2,M
BAM,2022-09-28 01:55,-116.8743,40.5990,1382.36,78.80,32.00,18.18,330.00,5.00,0.00,30.07,M,10.00,M,CLR,M,M,M,M,M,M,M,M,M,M,M,M,M,M,78.80,KBAM 280155Z AUTO 33005KT 10SM CLR 26/00 A3007 RMK AO1,M
HTH,2022-09-28 01:55,-118.6315,38.5448,1282.89,84.20,30.20,14.18,240.00,10.00,0.00,30.03,M,10.00,M,CLR,M,M,M,M,M,M,M,M,M,M,M,M,M,M,81.26,KHTH 280155Z AUTO 24010KT 10SM CLR 29/M01 A3003 RMK A01,M
CXP,2022-09-28 01:55,-119.7326,39.1923,1431.00,75.20,35.60,23.66,250.00,5.00,0.00,30.12,M,10.00,11.00,CLR,M,M,M,M,M,M,M,M,M,M,M,M,M,M,75.20,KCXP 280155Z AUTO 25005G11KT 10SM CLR 24/02 A3012 RMK AO2,M
BVU,2022-09-28 01:55,-114.8611,35.9475,671.00,91.40,41.00,17.32,30.00,6.00,0.00,29.94,M,M,M,M,M,M,M,M,M,M,M,M,M,M,M,M,M,M,87.40,KBVU 280155Z AUTO 03006KT 33/05 A2994 RMK AO2 TSNO,M
HND,2022-09-28 01:56,-115.1344,35.9729,742.79,91.00,44.00,19.76,120.00,3.00,0.00,29.97,1013.90,10.00,M,CLR,M,M,M,M,M,M,M,M,M,M,M,M,M,M,87.27,KHND 280156Z 12003KT 10SM CLR 33/07 A2997 RMK AO2 SLP139 T03280067,M
LSV,2022-09-28 01:56,-115.0343,36.2362,570.00,96.00,41.00,14.97,120.00,5.00,0.00,29.88,M,10.00,M,FEW,M,M,M,15000.00,M,M,M,M,M,M,M,M,M,M,91.73,KLSV 280156Z 12005KT 10SM FEW150 36/05 A2988 RMK AO2 SLPNO T03560050 $,M
NFL,2022-09-28 01:56,-118.7010,39.4166,1199.00,84.00,34.00,16.63,260.00,11.00,0.00,30.00,1012.80,10.00,M,BKN,BKN,BKN,M,9000.00,12000.00,25000.00,M,M,M,M,M,M,M,M,81.16,KNFL 280156Z 26011KT 10SM BKN090 BKN120 BKN250 29/01 A3000 RMK AO2 WSHFT 0141 SLP128 SH VC SW T02890011,M
TPH,2022-09-28 01:56,-117.0904,38.0505,1654.00,74.00,26.10,16.81,180.00,8.00,0.00,30.16,1015.60,10.00,M,CLR,M,M,M,M,M,M,M,M,M,M,M,M,M,M,73.90,KTPH 280156Z AUTO 18008KT 10SM CLR 23/M03 A3016 RMK AO2 SLP156 T02331033,M
LAS,2022-09-28 01:56,-115.1634,36.0719,663.00,93.00,41.00,16.48,80.00,6.00,0.00,29.94,1011.10,10.00,M,SCT,SCT,M,M,15000.00,22000.00,M,M,M,M,M,M,M,M,M,88.85,KLAS 280156Z 08006KT 10SM SCT150 SCT220 34/05 A2994 RMK AO2 SLP111 T03390050,M
WMC,2022-09-28 01:56,-117.8072,40.9019,1315.00,75.00,28.90,18.19,240.00,7.00,0.00,30.03,1013.90,10.00,M,CLR,M,M,M,M,M,M,M,M,M,M,M,M,M,M,75.00,KWMC 280156Z AUTO 24007KT 10SM CLR 24/M02 A3003 RMK AO2 SLP139 T02391017,M
EKO,2022-09-28 01:56,-115.7860,40.8242,1367.00,72.00,27.00,18.61,0.00,0.00,0.00,30.10,1016.10,10.00,M,CLR,M,M,M,M,M,M,M,M,M,M,M,M,M,M,72.00,KEKO 280156Z AUTO 00000KT 10SM CLR 22/M03 A3010 RMK AO2 SLP161 T02221028,M
INS,2022-09-28 01:56,-115.6733,36.5872,955.00,85.80,34.30,15.89,110.00,6.00,0.00,29.99,1011.40,10.00,M,FEW,M,M,M,13000.00,M,M,M,M,M,M,M,M,M,M,82.51,KINS 280156Z AUTO 11006KT 10SM FEW130 30/01 A2999 RMK AO2 SLP114 T02990013 $,M
LSV,2022-09-28 01:58,-115.0343,36.2362,570.00,96.00,41.00,14.97,120.00,5.00,0.00,29.88,M,10.00,M,FEW,M,M,M,15000.00,M,M,M,M,M,M,M,M,M,M,91.73,KLSV 280158Z 12005KT 10SM FEW150 36/05 A2988 RMK AO2 SLPNO T03560050 $,M
TMT,2022-09-28 02:15,-117.1971,39.4643,1749.34,M,M,M,200.00,3.00,0.00,30.17,M,10.00,M,CLR,M,M,M,M,M,M,M,M,M,M,M,M,M,M,M,KTMT 280215Z AUTO 20003KT 10SM CLR A3017 RMK AO2,M
BAM,2022-09-28 02:15,-116.8743,40.5990,1382.36,77.00,32.00,19.30,340.00,4.00,0.00,30.07,M,10.00,M,CLR,M,M,M,M,M,M,M,M,M,M,M,M,M,M,77.00,KBAM 280215Z AUTO 34004KT 10SM CLR 25/00 A3007 RMK AO1,M
HTH,2022-09-28 02:15,-118.6315,38.5448,1282.89,84.20,28.40,13.18,240.00,6.00,0.00,30.04,M,10.00,M,CLR,M,M,M,M,M,M,M,M,M,M,M,M,M,M,81.25,KHTH 280215Z AUTO 24006KT 10SM CLR 29/M02 A3004 RMK A01,M
BVU,2022-09-28 02:15,-114.8611,35.9475,671.00,89.60,39.20,17.09,30.00,5.00,0.00,29.94,M,M,M,M,M,M,M,M,M,M,M,M,M,M,M,M,M,M,85.73,KBVU 280215Z AUTO 03005KT 32/04 A2994 RMK AO2 TSNO,M
CXP,2022-09-28 02:15,-119.7326,39.1923,1431.00,75.20,35.60,23.66,260.00,6.00,0.00,30.12,M,10.00,13.00,CLR,M,M,M,M,M,M,M,M,M,M,M,M,M,M,75.20,KCXP 280215Z AUTO 26006G13KT 10SM CLR 24/02 A3012 RMK AO2,M
RTS,2022-09-28 02:15,-119.8764,39.6682,1539.00,71.60,26.60,18.55,300.00,12.00,0.00,30.14,M,10.00,19.00,SCT,M,M,M,12000.00,M,M,M,M,M,M,M,M,M,M,71.60,KRTS 280215Z AUTO 30012G19KT 10SM SCT120 22/M03 A3014 RMK AO2,M
05U,2022-09-28 02:15,-116.0051,39.6042,1811.23,64.40,19.40,17.56,170.00,3.00,0.00,30.21,M,10.00,M,CLR,M,M,M,M,M,M,M,M,M,M,M,M,M,M,64.40,K05U 280215Z AUTO 17003KT 10SM CLR 18/M07 A3021 RMK A01,M
MEV,2022-09-28 02:15,-119.7500,38.9963,1441.42,73.40,35.60,25.13,230.00,6.00,0.00,30.12,M,10.00,M,CLR,M,M,M,M,M,M,M,M,M,M,M,M,M,M,73.40,KMEV 280215Z AUTO 23006KT 10SM CLR 23/02 A3012 RMK AO2,M
CXP,2022-09-28 02:30,-119.7326,39.1923,1431.00,75.20,35.60,23.66,270.00,7.00,0.00,30.13,M,10.00,12.00,CLR,M,M,M,M,M,M,M,M,M,M,M,M,M,M,75.20,KCXP 280230Z AUTO 27007G12KT 10SM CLR 24/02 A3013 RMK AO2,M
RTS,2022-09-28 02:35,-119.8764,39.6682,1539.00,71.60,23.00,15.97,310.00,17.00,0.00,30.15,M,10.00,23.00,FEW,M,M,M,12000.00,M,M,M,M,M,M,M,M,M,M,71.60,KRTS 280235Z AUTO 31017G23KT 10SM FEW120 22/M05 A3015 RMK AO2,M
BVU,2022-09-28 02:35,-114.8611,35.9475,671.00,89.60,41.00,18.33,40.00,6.00,0.00,29.95,M,M,M,M,M,M,M,M,M,M,M,M,M,M,M,M,M,M,85.82,KBVU 280235Z AUTO 04006KT 32/05 A2995 RMK AO2 TSNO,M
05U,2022-09-28 02:35,-116.0051,39.6042,1811.23,66.20,19.40,16.50,90.00,3.00,0.00,30.21,M,10.00,M,CLR,M,M,M,M,M,M,M,M,M,M,M,M,M,M,66.20,K05U 280235Z AUTO 09003KT 10SM CLR 19/M07 A3021 RMK A01,M
MEV,2022-09-28 02:35,-119.7500,38.9963,1441.42,71.60,33.80,24.86,280.00,7.00,0.00,30.12,M,10.00,M,BKN,BKN,M,M,5500.00,6000.00,M,M,M,M,M,M,M,M,M,71.60,KMEV 280235Z AUTO 28007KT 10SM BKN055 BKN060 22/01 A3012 RMK AO2,M
BAM,2022-09-28 02:35,-116.8743,40.5990,1382.36,77.00,32.00,19.30,10.00,4.00,0.00,30.08,M,10.00,M,CLR,M,M,M,M,M,M,M,M,M,M,M,M,M,M,77.00,KBAM 280235Z AUTO 01004KT 10SM CLR 25/00 A3008 RMK AO1,M
HTH,2022-09-28 02:35,-118.6315,38.5448,1282.89,82.40,28.40,13.96,220.00,9.00,0.00,30.05,M,10.00,M,CLR,M,M,M,M,M,M,M,M,M,M,M,M,M,M,79.94,KHTH 280235Z AUTO 22009KT 10SM CLR 28/M02 A3005 RMK A01,M
TMT,2022-09-28 02:35,-117.1971,39.4643,1749.34,M,M,M,200.00,3.00,0.00,30.18,M,10.00,M,CLR,M,M,M,M,M,M,M,M,M,M,M,M,M,M,M,KTMT 280235Z AUTO 20003KT 10SM CLR A3018 RMK AO2,M
DRA,2022-09-28 02:53,-116.0278,36.6206,1009.00,82.00,28.90,14.44,100.00,6.00,0.00,30.02,1012.10,10.00,M,CLR,M,M,M,M,M,M,M,M,M,M,M,M,M,M,79.67,KDRA 280253Z AUTO 10006KT 10SM CLR 28/M02 A3002 RMK AO2 SLP121 T02781017 53007,M
ELY,2022-09-28 02:53,-114.8453,39.2950,1909.00,57.00,26.10,30.28,180.00,10.00,0.00,30.25,1018.00,10.00,M,CLR,M,M,M,M,M,M,M,M,M,M,M,M,M,M,57.00,KELY 280253Z AUTO 18010KT 10SM CLR 14/M03 A3025 RMK AO2 SLP180 T01391033 53008,M
LOL,2022-09-28 02:53,-118.5701,40.0684,1192.43,75.00,34.00,22.35,130.00,3.00,0.00,30.00,1012.80,10.00,M,CLR,M,M,M,M,M,M,M,M,M,M,M,M,M,M,75.00,KLOL 280253Z AUTO 13003KT 10SM CLR 24/01 A3000 RMK AO2 SLP128 T02390011 53001,M
P68,2022-09-28 02:53,-116.0056,39.6014,1993.00,63.00,21.00,19.75,0.00,0.00,0.00,30.19,1016.40,M,M,M,M,M,M,M,M,M,M,M,M,M,M,M,M,M,63.00,KP68 280253Z AUTO 00000KT 17/M06 A3019 RMK AO1 SLP164 T01721061 53007,M
VGT,2022-09-28 02:53,-115.1933,36.2111,667.00,93.00,42.00,17.19,0.00,0.00,0.00,29.94,1013.00,10.00,M,CLR,M,M,M,M,M,M,M,M,M,M,M,M,M,M,88.93,KVGT 280253Z 00000KT 10SM CLR 34/06 A2994 RMK AO2 SLP130 T03390056 53007,M
HTH,2022-09-28 02:55,-118.6315,38.5448,1282.89,80.60,30.20,15.94,180.00,6.00,0.00,30.05,M,10.00,M,CLR,M,M,M,M,M,M,M,M,M,M,M,M,M,M,78.77,KHTH 280255Z AUTO 18006KT 10SM CLR 27/M01 A3005 RMK A01,M
TMT,2022-09-28 02:55,-117.1971,39.4643,1749.34,M,M,M,220.00,6.00,0.00,30.18,M,10.00,M,CLR,M,M,M,M,M,M,M,M,M,M,M,M,M,M,M,KTMT 280255Z AUTO 22006KT 10SM CLR A3018 RMK AO2,M
BVU,2022-09-28 02:55,-114.8611,35.9475,671.00,86.00,42.80,22.02,30.00,6.00,0.00,29.95,M,M,M,M,M,M,M,M,M,M,M,M,M,M,M,M,M,M,82.95,KBVU 280255Z AUTO 03006KT 30/06 A2995 RMK AO2 TSNO,M
LSV,2022-09-28 02:55,-115.0343,36.2362,570.00,93.20,41.00,16.37,350.00,4.00,0.00,29.91,M,10.00,M,FEW,M,M,M,15000.00,M,M,M,M,M,M,M,M,M,M,89.03,KLSV 280255Z COR 35004KT 10SM FEW150 34/05 A2991 RMK SLPNO AO2 5//// WND DATA ESTMD ALSTG ESTMD $ COR 0313,M
CXP,2022-09-28 02:55,-119.7326,39.1923,1431.00,73.40,35.60,25.13,M,6.00,0.00,30.14,M,10.00,11.00,CLR,M,M,M,M,M,M,M,M,M,M,M,M,M,M,73.40,KCXP 280255Z AUTO VRB06G11KT 10SM CLR 23/02 A3014 RMK AO2,M
MEV,2022-09-28 02:55,-119.7500,38.9963,1441.42,68.00,35.60,30.20,0.00,0.00,0.00,30.13,M,10.00,M,BKN,BKN,M,M,5500.00,6000.00,M,M,M,M,M,M,M,M,M,68.00,KMEV 280255Z AUTO 00000KT 10SM BKN055 BKN060 20/02 A3013 RMK AO2,M
RTS,2022-09-28 02:55,-119.8764,39.6682,1539.00,71.60,17.60,12.69,310.00,11.00,0.00,30.15,M,10.00,22.00,FEW,M,M,M,12000.00,M,M,M,M,M,M,M,M,M,M,71.60,KRTS 280255Z AUTO 31011G22KT 10SM FEW120 22/M08 A3015 RMK AO2,M
05U,2022-09-28 02:55,-116.0051,39.6042,1811.23,62.60,19.40,18.71,M,M,0.00,30.21,M,10.00,M,CLR,M,M,M,M,M,M,M,M,M,M,M,M,M,M,62.60,K05U 280255Z AUTO 10SM CLR 17/M07 A3021 RMK A01,M
RNO,2022-09-28 02:55,-119.7711,39.4839,1341.00,78.00,28.90,16.41,260.00,8.00,0.00,30.09,1014.20,10.00,M,FEW,FEW,SCT,SCT,10000.00,12000.00,15000.00,20000.00,M,M,M,M,M,M,M,78.10,KRNO 280255Z 26008KT 10SM FEW100 FEW120 SCT150 SCT200 26/M02 A3009 RMK AO2 SLP142 ACSL DSNT W THRU NW T02561017 53015,M
BAM,2022-09-28 02:55,-116.8743,40.5990,1382.36,69.80,30.20,22.86,130.00,4.00,0.00,30.08,M,10.00,M,CLR,M,M,M,M,M,M,M,M,M,M,M,M,M,M,69.80,KBAM 280255Z AUTO 13004KT 10SM CLR 21/M01 A3008 RMK AO1,M
EKO,2022-09-28 02:56,-115.7860,40.8242,1367.00,62.00,30.90,30.73,0.00,0.00,0.00,30.12,1017.10,10.00,M,CLR,M,M,M,M,M,M,M,M,M,M,M,M,M,M,62.10,KEKO 280256Z AUTO 00000KT 10SM CLR 17/M01 A3012 RMK AO2 SLP171 T01671006 53005,M
HND,2022-09-28 02:56,-115.1344,35.9729,742.79,88.00,45.00,22.47,0.00,0.00,0.00,29.99,1014.40,10.00,M,CLR,M,M,M,M,M,M,M,M,M,M,M,M,M,M,84.72,KHND 280256Z 00000KT 10SM CLR 31/07 A2999 RMK AO2 SLP144 T03110072 53006,M
TPH,2022-09-28 02:56,-117.0904,38.0505,1654.00,67.00,26.10,21.35,250.00,4.00,0.00,30.17,1016.30,10.00,M,CLR,M,M,M,M,M,M,M,M,M,M,M,M,M,M,66.90,KTPH 280256Z AUTO 25004KT 10SM CLR 19/M03 A3017 RMK AO2 SLP163 T01941033 53006,M
LAS,2022-09-28 02:56,-115.1634,36.0719,663.00,91.00,43.00,18.94,0.00,0.00,0.00,29.95,1011.60,10.00,M,SCT,SCT,M,M,15000.00,22000.00,M,M,M,M,M,M,M,M,M,87.18,KLAS 280256Z 00000KT 10SM SCT150 SCT220 33/06 A2995 RMK AO2 SLP116 T03280061 53006,M
WMC,2022-09-28 02:56,-117.8072,40.9019,1315.00,71.00,30.90,22.50,130.00,5.00,0.00,30.04,1014.10,10.00,M,CLR,M,M,M,M,M,M,M,M,M,M,M,M,M,M,71.10,KWMC 280256Z AUTO 13005KT 10SM CLR 22/M01 A3004 RMK AO2 SLP141 T02171006 53005,M
NFL,2022-09-28 02:56,-118.7010,39.4166,1199.00,80.00,35.00,19.72,270.00,12.00,0.00,30.02,1013.60,10.00,M,BKN,BKN,BKN,M,9000.00,12000.00,25000.00,M,M,M,M,M,M,M,M,78.74,KNFL 280256Z 27012KT 10SM BKN090 BKN120 BKN250 27/02 A3002 RMK AO2 SLP136 T02670017 53013,M
INS,2022-09-28 02:56,-115.6733,36.5872,955.00,84.20,33.00,15.94,130.00,7.00,0.00,30.01,1012.10,10.00,M,CLR,M,M,M,M,M,M,M,M,M,M,M,M,M,M,81.29,KINS 280256Z AUTO 13007KT 10SM CLR 29/01 A3001 RMK AO2 SLP121 T02900006 53007 $,M
CXP,2022-09-28 03:15,-119.7326,39.1923,1431.00,73.40,35.60,25.13,0.00,0.00,0.00,30.14,M,10.00,M,CLR,M,M,M,M,M,M,M,M,M,M,M,M,M,M,73.40,KCXP 280315Z AUTO 00000KT 10SM CLR 23/02 A3014 RMK AO2,M
BAM,2022-09-28 03:15,-116.8743,40.5990,1382.36,68.00,30.20,24.32,180.00,5.00,0.00,30.09,M,10.00,M,CLR,M,M,M,M,M,M,M,M,M,M,M,M,M,M,68.00,KBAM 280315Z AUTO 18005KT 10SM CLR 20/M01 A3009 RMK AO1,M
HTH,2022-09-28 03:15,-118.6315,38.5448,1282.89,80.60,28.40,14.81,240.00,13.00,0.00,30.05,M,10.00,M,CLR,M,M,M,M,M,M,M,M,M,M,M,M,M,M,78.72,KHTH 280315Z AUTO 24013KT 10SM CLR 27/M02 A3005 RMK A01,M
TMT,2022-09-28 03:15,-117.1971,39.4643,1749.34,M,M,M,240.00,4.00,0.00,30.18,M,10.00,M,CLR,M,M,M,M,M,M,M,M,M,M,M,M,M,M,M,KTMT 280315Z AUTO 24004KT 10SM CLR A3018 RMK AO2,M
RTS,2022-09-28 03:15,-119.8764,39.6682,1539.00,71.60,14.00,10.85,290.00,12.00,0.00,30.16,M,10.00,19.00,SCT,M,M,M,12000.00,M,M,M,M,M,M,M,M,M,M,71.60,KRTS 280315Z AUTO 29012G19KT 10SM SCT120 22/M10 A3016 RMK AO2,M
05U,2022-09-28 03:15,-116.0051,39.6042,1811.23,62.60,17.60,17.32,160.00,7.00,0.00,30.22,M,10.00,M,CLR,M,M,M,M,M,M,M,M,M,M,M,M,M,M,62.60,K05U 280315Z AUTO 16007KT 10SM CLR 17/M08 A3022 RMK A01,M
BVU,2022-09-28 03:15,-114.8611,35.9475,671.00,84.20,46.40,26.76,30.00,6.00,0.00,29.96,M,M,M,M,M,M,M,M,M,M,M,M,M,M,M,M,M,M,81.87,KBVU 280315Z AUTO 03006KT 29/08 A2996 RMK AO2 TSNO,M
MEV,2022-09-28 03:15,-119.7500,38.9963,1441.42,62.60,33.80,33.93,100.00,5.00,0.00,30.14,M,10.00,M,OVC,M,M,M,6000.00,M,M,M,M,M,M,M,M,M,M,62.60,KMEV 280315Z AUTO 10005KT 10SM OVC060 17/01 A3014 RMK AO2,M
TMT,2022-09-28 03:35,-117.1971,39.4643,1749.34,57.40,29.80,34.75,0.00,0.00,0.00,30.19,M,10.00,M,CLR,M,M,M,M,M,M,M,M,M,M,M,M,M,M,57.40,KTMT 280335Z AUTO 00000KT 10SM CLR 14/M01 A3019 RMK AO2 T01411012,M
RTS,2022-09-28 03:35,-119.8764,39.6682,1539.00,71.60,8.60,8.54,270.00,11.00,0.00,30.17,M,10.00,20.00,FEW,M,M,M,12000.00,M,M,M,M,M,M,M,M,M,M,71.60,KRTS 280335Z AUTO 27011G20KT 10SM FEW120 22/M13 A3017 RMK AO2,M
CXP,2022-09-28 03:35,-119.7326,39.1923,1431.00,73.40,35.60,25.13,0.00,0.00,0.00,30.15,M,10.00,M,CLR,M,M,M,M,M,M,M,M,M,M,M,M,M,M,73.40,KCXP 280335Z AUTO 00000KT 10SM CLR 23/02 A3015 RMK AO2,M
BVU,2022-09-28 03:35,-114.8611,35.9475,671.00,84.20,44.60,24.99,40.00,7.00,0.00,29.96,M,M,M,M,M,M,M,M,M,M,M,M,M,M,M,M,M,M,81.73,KBVU 280335Z AUTO 04007KT 29/07 A2996 RMK AO2 TSNO,M
MEV,2022-09-28 03:35,-119.7500,38.9963,1441.42,60.80,37.40,41.71,M,3.00,0.00,30.14,M,10.00,M,FEW,OVC,M,M,4800.00,6000.00,M,M,M,M,M,M,M,M,M,60.80,KMEV 280335Z AUTO VRB03KT 10SM FEW048 OVC060 16/03 A3014 RMK AO2,M
BAM,2022-09-28 03:35,-116.8743,40.5990,1382.36,66.20,28.40,24.04,150.00,6.00,0.00,30.09,M,10.00,M,CLR,M,M,M,M,M,M,M,M,M,M,M,M,M,M,66.20,KBAM 280335Z AUTO 15006KT 10SM CLR 19/M02 A3009 RMK AO1,M
05U,2022-09-28 03:35,-116.0051,39.6042,1811.23,62.60,19.40,18.71,170.00,4.00,0.00,30.22,M,10.00,M,CLR,M,M,M,M,M,M,M,M,M,M,M,M,M,M,62.60,K05U 280335Z AUTO 17004KT 10SM CLR 17/M07 A3022 RMK A01,M
HTH,2022-09-28 03:35,-118.6315,38.5448,1282.89,80.60,28.40,14.81,240.00,11.00,0.00,30.06,M,10.00,19.00,CLR,M,M,M,M,M,M,M,M,M,M,M,M,M,M,78.72,KHTH 280335Z AUTO 24011G19KT 10SM CLR 27/M02 A3006 RMK A01,M
ELY,2022-09-28 03:53,-114.8453,39.2950,1909.00,58.00,26.10,29.32,200.00,10.00,0.00,30.26,1017.70,10.00,M,CLR,M,M,M,M,M,M,M,M,M,M,M,M,M,M,57.90,KELY 280353Z AUTO 20010KT 10SM CLR 14/M03 A3026 RMK AO2 SLP177 T01441033,M
P68,2022-09-28 03:53,-116.0056,39.6014,1993.00,66.00,18.00,15.64,160.00,10.00,0.00,30.20,1015.40,M,M,M,M,M,M,M,M,M,M,M,M,M,M,M,M,M,66.00,KP68 280353Z AUTO 16010KT 19/M08 A3020 RMK AO1 SLP154 T01891078,M
DRA,2022-09-28 03:53,-116.0278,36.6206,1009.00,80.00,30.90,16.67,100.00,6.00,0.00,30.03,1012.50,10.00,M,CLR,M,M,M,M,M,M,M,M,M,M,M,M,M,M,78.59,KDRA 280353Z AUTO 10006KT 10SM CLR 27/M01 A3003 RMK AO2 SLP125 T02671006,M
VGT,2022-09-28 03:53,-115.1933,36.2111,667.00,90.00,43.00,19.55,280.00,4.00,0.00,29.96,1013.50,10.00,M,CLR,M,M,M,M,M,M,M,M,M,M,M,M,M,M,86.29,KVGT 280353Z 28004KT 10SM CLR 32/06 A2996 RMK AO2 SLP135 T03220061,M
LOL,2022-09-28 03:53,-118.5701,40.0684,1192.43,77.00,36.00,22.64,310.00,5.00,0.00,30.03,1013.30,10.00,M,CLR,M,M,M,M,M,M,M,M,M,M,M,M,M,M,77.00,KLOL 280353Z AUTO 31005KT 10SM CLR 25/02 A3003 RMK AO2 SLP133 T02500022,M
BAM,2022-09-28 03:55,-116.8743,40.5990,1382.36,62.60,28.40,27.27,160.00,7.00,0.00,30.09,M,10.00,M,CLR,M,M,M,M,M,M,M,M,M,M,M,M,M,M,62.60,KBAM 280355Z AUTO 16007KT 10SM CLR 17/M02 A3009 RMK AO1,M
HTH,2022-09-28 03:55,-118.6315,38.5448,1282.89,80.60,28.40,14.81,250.00,16.00,0.00,30.06,M,10.00,M,CLR,M,M,M,M,M,M,M,M,M,M,M,M,M,M,78.72,KHTH 280355Z AUTO 25016KT 10SM CLR 27/M02 A3006 RMK A01,M
TMT,2022-09-28 03:55,-117.1971,39.4643,1749.34,M,M,M,0.00,0.00,0.00,30.20,M,10.00,M,CLR,M,M,M,M,M,M,M,M,M,M,M,M,M,M,M,KTMT 280355Z AUTO 00000KT 10SM CLR A3020 RMK AO2,M
MEV,2022-09-28 03:55,-119.7500,38.9963,1441.42,64.40,35.60,34.22,0.00,0.00,0.00,30.15,M,10.00,M,SCT,BKN,M,M,4800.00,6000.00,M,M,M,M,M,M,M,M,M,64.40,KMEV 280355Z AUTO 00000KT 10SM SCT048 BKN060 18/02 A3015 RMK AO2,M
05U,2022-09-28 03:55,-116.0051,39.6042,1811.23,64.40,17.60,16.26,160.00,7.00,0.00,30.23,M,10.00,M,CLR,M,M,M,M,M,M,M,M,M,M,M,M,M,M,64.40,K05U 280355Z AUTO 16007KT 10SM CLR 18/M08 A3023 RMK A01,M
RTS,2022-09-28 03:55,-119.8764,39.6682,1539.00,71.60,5.00,7.25,270.00,14.00,0.00,30.17,M,10.00,22.00,CLR,M,M,M,M,M,M,M,M,M,M,M,M,M,M,71.60,KRTS 280355Z AUTO 27014G22KT 10SM CLR 22/M15 A3017 RMK AO2,M
LSV,2022-09-28 03:55,-115.0343,36.2362,570.00,M,M,M,M,M,0.00,M,M,M,M,M,M,M,M,M,M,M,M,M,M,M,M,M,M,M,M,KLSV 280355Z AUTO M M M M M M RMK AO2 SLPNO RVRNO $,M
RNO,2022-09-28 03:55,-119.7711,39.4839,1341.00,74.00,30.90,20.47,60.00,3.00,0.00,30.12,1015.00,10.00,M,FEW,SCT,BKN,M,12000.00,15000.00,20000.00,M,M,M,M,M,M,M,M,73.90,KRNO 280355Z 06003KT 10SM FEW120 SCT150 BKN200 23/M01 A3012 RMK AO2 SLP150 T02331006,M
CXP,2022-09-28 03:55,-119.7326,39.1923,1431.00,69.80,35.60,28.39,0.00,0.00,0.00,30.16,M,10.00,M,CLR,M,M,M,M,M,M,M,M,M,M,M,M,M,M,69.80,KCXP 280355Z AUTO 00000KT 10SM CLR 21/02 A3016 RMK AO2,M
BVU,2022-09-28 03:55,-114.8611,35.9475,671.00,84.20,46.40,26.76,50.00,6.00,0.00,29.96,M,M,M,M,M,M,M,M,M,M,M,M,M,M,M,M,M,M,81.87,KBVU 280355Z AUTO 05006KT 29/08 A2996 RMK AO2 TSNO,M
LSV,2022-09-28 03:56,-115.0343,36.2362,570.00,87.80,41.00,19.40,20.00,5.00,0.00,29.92,M,10.00,M,FEW,M,M,M,15000.00,M,M,M,M,M,M,M,M,M,M,84.30,KLSV 280356Z 02005KT 10SM FEW150 31/05 A2992 RMK SLPNO AO2 WND DATA ESTMD ALSTG ESTMD $,M
NFL,2022-09-28 03:56,-118.7010,39.4166,1199.00,77.00,33.00,20.17,270.00,9.00,0.00,30.05,1014.50,10.00,M,BKN,BKN,BKN,M,9000.00,12000.00,25000.00,M,M,M,M,M,M,M,M,77.00,KNFL 280356Z 27009KT 10SM BKN090 BKN120 BKN250 25/01 A3005 RMK AO2 SLP145 T02500006,M
EKO,2022-09-28 03:56,-115.7860,40.8242,1367.00,63.00,28.00,26.45,0.00,0.00,0.00,30.14,1016.90,10.00,M,CLR,M,M,M,M,M,M,M,M,M,M,M,M,M,M,63.00,KEKO 280356Z AUTO 00000KT 10SM CLR 17/M02 A3014 RMK AO2 SLP169 T01721022,M
LAS,2022-09-28 03:56,-115.1634,36.0719,663.00,89.00,44.00,20.97,0.00,0.00,0.00,29.97,1012.20,10.00,M,BKN,BKN,M,M,15000.00,22000.00,M,M,M,M,M,M,M,M,M,85.59,KLAS 280356Z 00000KT 10SM BKN150 BKN220 32/07 A2997 RMK AO2 SLP122 T03170067,M
INS,2022-09-28 03:56,-115.6733,36.5872,955.00,83.00,30.70,14.99,170.00,9.00,0.00,30.03,1012.50,10.00,M,CLR,M,M,M,M,M,M,M,M,M,M,M,M,M,M,80.46,KINS 280356Z AUTO 17009KT 10SM CLR 28/M01 A3003 RMK AO2 SLP125 T02841007 $,M
TPH,2022-09-28 03:56,-117.0904,38.0505,1654.00,64.00,26.10,23.61,360.00,3.00,0.00,30.20,1016.40,10.00,M,CLR,M,M,M,M,M,M,M,M,M,M,M,M,M,M,64.00,KTPH 280356Z AUTO 36003KT 10SM CLR 18/M03 A3020 RMK AO2 SLP164 T01781033,M
WMC,2022-09-28 03:56,-117.8072,40.9019,1315.00,66.00,30.90,26.81,0.00,0.00,0.00,30.06,1014.10,10.00,M,CLR,M,M,M,M,M,M,M,M,M,M,M,M,M,M,66.00,KWMC 280356Z AUTO 00000KT 10SM CLR 19/M01 A3006 RMK AO2 SLP141 T01891006,M
HND,2022-09-28 03:56,-115.1344,35.9729,742.79,85.00,45.00,24.81,0.00,0.00,0.00,30.01,1014.80,10.00,M,CLR,M,M,M,M,M,M,M,M,M,M,M,M,M,M,82.27,KHND 280356Z AUTO 00000KT 10SM CLR 29/07 A3001 RMK AO2 SLP148 T02940072,M
HTH,2022-09-28 04:15,-118.6315,38.5448,1282.89,78.80,30.20,16.90,90.00,5.00,0.00,30.08,M,10.00,M,M,M,M,M,M,M,M,M,M,M,M,M,M,M,M,78.80,KHTH 280415Z AUTO 09005KT 10SM 26/M01 A3008 RMK A01,M
BVU,2022-09-28 04:15,-114.8611,35.9475,671.00,84.20,46.40,26.76,50.00,6.00,0.00,29.97,M,M,M,M,M,M,M,M,M,M,M,M,M,M,M,M,M,M,81.87,KBVU 280415Z AUTO 05006KT 29/08 A2997 RMK AO2 TSNO,M
CXP,2022-09-28 04:15,-119.7326,39.1923,1431.00,68.00,33.80,28.11,0.00,0.00,0.00,30.17,M,10.00,M,CLR,M,M,M,M,M,M,M,M,M,M,M,M,M,M,68.00,KCXP 280415Z AUTO 00000KT 10SM CLR 20/01 A3017 RMK AO2,M
RTS,2022-09-28 04:15,-119.8764,39.6682,1539.00,71.60,3.20,6.67,270.00,11.00,0.00,30.18,M,10.00,19.00,CLR,M,M,M,M,M,M,M,M,M,M,M,M,M,M,71.60,KRTS 280415Z AUTO 27011G19KT 10SM CLR 22/M16 A3018 RMK AO2,M
05U,2022-09-28 04:15,-116.0051,39.6042,1811.23,66.20,19.40,16.50,170.00,7.00,0.00,30.24,M,10.00,M,CLR,M,M,M,M,M,M,M,M,M,M,M,M,M,M,66.20,K05U 280415Z AUTO 17007KT 10SM CLR 19/M07 A3024 RMK A01,M
MEV,2022-09-28 04:15,-119.7500,38.9963,1441.42,64.40,35.60,34.22,90.00,4.00,0.00,30.16,M,10.00,M,FEW,OVC,M,M,5000.00,6500.00,M,M,M,M,M,M,M,M,M,64.40,KMEV 280415Z AUTO 09004KT 10SM FEW050 OVC065 18/02 A3016 RMK AO2,M
BAM,2022-09-28 04:15,-116.8743,40.5990,1382.36,62.60,28.40,27.27,140.00,6.00,0.00,30.09,M,10.00,M,CLR,M,M,M,M,M,M,M,M,M,M,M,M,M,M,62.60,KBAM 280415Z AUTO 14006KT 10SM CLR 17/M02 A3009 RMK AO1,M
TMT,2022-09-28 04:15,-117.1971,39.4643,1749.34,54.00,29.80,39.17,320.00,3.00,0.00,30.20,M,10.00,M,CLR,M,M,M,M,M,M,M,M,M,M,M,M,M,M,54.10,KTMT 280415Z AUTO 32003KT 10SM CLR 12/M01 A3020 RMK AO2 T01231012,M
TMT,2022-09-28 04:35,-117.1971,39.4643,1749.34,52.50,30.60,42.91,280.00,4.00,0.00,30.20,M,10.00,M,CLR,M,M,M,M,M,M,M,M,M,M,M,M,M,M,52.50,KTMT 280435Z AUTO 28004KT 10SM CLR 11/M01 A3020 RMK AO2 T01141008,M
BVU,2022-09-28 04:35,-114.8611,35.9475,671.00,84.20,46.40,26.76,M,4.00,0.00,29.98,M,M,M,M,M,M,M,M,M,M,M,M,M,M,M,M,M,M,81.87,KBVU 280435Z AUTO VRB04KT 29/08 A2998 RMK AO2 TSNO,M
CXP,2022-09-28 04:35,-119.7326,39.1923,1431.00,68.00,33.80,28.11,0.00,0.00,0.00,30.17,M,10.00,M,CLR,M,M,M,M,M,M,M,M,M,M,M,M,M,M,68.00,KCXP 280435Z AUTO 00000KT 10SM CLR 20/01 A3017 RMK AO2,M
RTS,2022-09-28 04:35,-119.8764,39.6682,1539.00,69.80,3.20,7.10,250.00,13.00,0.00,30.19,M,10.00,M,CLR,M,M,M,M,M,M,M,M,M,M,M,M,M,M,69.80,KRTS 280435Z AUTO 25013KT 10SM CLR 21/M16 A3019 RMK AO2,M
05U,2022-09-28 04:35,-116.0051,39.6042,1811.23,64.40,19.40,17.56,150.00,7.00,0.00,30.24,M,10.00,M,CLR,M,M,M,M,M,M,M,M,M,M,M,M,M,M,64.40,K05U 280435Z AUTO 15007KT 10SM CLR 18/M07 A3024 RMK A01,M
MEV,2022-09-28 04:35,-119.7500,38.9963,1441.42,59.00,35.60,41.42,70.00,5.00,0.00,30.16,M,10.00,M,OVC,M,M,M,6500.00,M,M,M,M,M,M,M,M,M,M,59.00,KMEV 280435Z AUTO 07005KT 10SM OVC065 15/02 A3016 RMK AO2,M
BAM,2022-09-28 04:35,-116.8743,40.5990,1382.36,60.80,28.40,29.06,0.00,0.00,0.00,30.10,M,10.00,M,CLR,M,M,M,M,M,M,M,M,M,M,M,M,M,M,60.80,KBAM 280435Z AUTO 00000KT 10SM CLR 16/M02 A3010 RMK AO1,M
HTH,2022-09-28 04:35,-118.6315,38.5448,1282.89,78.80,28.40,15.71,M,3.00,0.00,30.09,M,10.00,12.00,CLR,M,M,M,M,M,M,M,M,M,M,M,M,M,M,78.80,KHTH 280435Z AUTO VRB03G12KT 10SM CLR 26/M02 A3009 RMK A01,M
VGT,2022-09-28 04:53,-115.1933,36.2111,667.00,87.00,44.00,22.34,290.00,4.00,0.00,29.97,1013.80,10.00,M,CLR,M,M,M,M,M,M,M,M,M,M,M,M,M,M,83.91,KVGT 280453Z AUTO 29004KT 10SM CLR 31/07 A2997 RMK AO2 SLP138 T03060067,M
ELY,2022-09-28 04:53,-114.8453,39.2950,1909.00,52.00,28.00,39.30,180.00,10.00,0.00,30.28,1017.70,10.00,M,CLR,M,M,M,M,M,M,M,M,M,M,M,M,M,M,52.00,KELY 280453Z AUTO 18010KT 10SM CLR 11/M02 A3028 RMK AO2 SLP177 T01111022,M
P68,2022-09-28 04:53,-116.0056,39.6014,1993.00,66.00,19.90,16.97,170.00,4.00,0.00,30.22,1015.30,M,M,M,M,M,M,M,M,M,M,M,M,M,M,M,M,M,66.00,KP68 280453Z AUTO 17004KT 19/M07 A3022 RMK AO1 SLP153 T01891067,M
DRA,2022-09-28 04:53,-116.0278,36.6206,1009.00,77.00,33.00,20.17,110.00,7.00,0.00,30.05,1012.70,10.00,M,CLR,M,M,M,M,M,M,M,M,M,M,M,M,M,M,77.00,KDRA 280453Z AUTO 11007KT 10SM CLR 25/01 A3005 RMK AO2 SLP127 T02500006,M
LOL,2022-09-28 04:53,-118.5701,40.0684,1192.43,66.00,35.00,31.73,120.00,7.00,0.00,30.06,1014.40,10.00,M,CLR,M,M,M,M,M,M,M,M,M,M,M,M,M,M,66.00,KLOL 280453Z AUTO 12007KT 10SM CLR 19/02 A3006 RMK AO2 SLP144 T01890017,M
RNO,2022-09-28 04:55,-119.7711,39.4839,1341.00,70.00,32.00,24.42,210.00,3.00,0.00,30.13,1015.50,10.00,M,FEW,FEW,SCT,M,12000.00,15000.00,20000.00,M,M,M,M,M,M,M,M,70.00,KRNO 280455Z 21003KT 10SM FEW120 FEW150 SCT200 21/00 A3013 RMK AO2 SLP155 T02110000,M
05U,2022-09-28 04:55,-116.0051,39.6042,1811.23,64.40,19.40,17.56,0.00,0.00,0.00,30.24,M,10.00,M,CLR,M,M,M,M,M,M,M,M,M,M,M,M,M,M,64.40,K05U 280455Z AUTO 00000KT 10SM CLR 18/M07 A3024 RMK A01,M
MEV,2022-09-28 04:55,-119.7500,38.9963,1441.42,55.40,35.60,47.16,80.00,7.00,0.00,30.17,M,10.00,M,OVC,M,M,M,6500.00,M,M,M,M,M,M,M,M,M,M,55.40,KMEV 280455Z AUTO 08007KT 10SM OVC065 13/02 A3017 RMK AO2,M
BAM,2022-09-28 04:55,-116.8743,40.5990,1382.36,64.40,28.40,25.60,90.00,4.00,0.00,30.10,M,10.00,M,CLR,M,M,M,M,M,M,M,M,M,M,M,M,M,M,64.40,KBAM 280455Z AUTO 09004KT 10SM CLR 18/M02 A3010 RMK AO1,M
CXP,2022-09-28 04:55,-119.7326,39.1923,1431.00,66.20,33.80,29.92,0.00,0.00,0.00,30.17,M,10.00,M,CLR,M,M,M,M,M,M,M,M,M,M,M,M,M,M,66.20,KCXP 280455Z AUTO 00000KT 10SM CLR 19/01 A3017 RMK AO2,M
BVU,2022-09-28 04:55,-114.8611,35.9475,671.00,82.40,44.60,26.49,0.00,0.00,0.00,29.98,M,M,M,M,M,M,M,M,M,M,M,M,M,M,M,M,M,M,80.50,KBVU 280455Z AUTO 00000KT 28/07 A2998 RMK AO2 TSNO,M
TMT,2022-09-28 04:55,-117.1971,39.4643,1749.34,51.00,29.10,42.50,0.00,0.00,0.00,30.21,M,7.00,M,CLR,M,M,M,M,M,M,M,M,M,M,M,M,M,M,51.10,KTMT 280455Z AUTO 00000KT 7SM CLR 11/M02 A3021 RMK AO2 T01061016,M
HTH,2022-09-28 04:55,-118.6315,38.5448,1282.89,80.60,28.40,14.81,0.00,0.00,0.00,30.10,M,10.00,11.00,CLR,M,M,M,M,M,M,M,M,M,M,M,M,M,M,78.72,KHTH 280455Z AUTO 00000G11KT 10SM CLR 27/M02 A3010 RMK A01,M
LSV,2022-09-28 04:55,-115.0343,36.2362,570.00,M,M,M,M,M,0.00,29.93,M,M,M,M,M,M,M,M,M,M,M,M,M,M,M,M,M,M,M,KLSV 280455Z AUTO M M M M M A2993 RMK AO2 SLPNO ALSTG ESTMD RVRNO $,M
RTS,2022-09-28 04:55,-119.8764,39.6682,1539.00,69.80,5.00,7.71,260.00,12.00,0.00,30.19,M,10.00,18.00,CLR,M,M,M,M,M,M,M,M,M,M,M,M,M,M,69.80,KRTS 280455Z AUTO 26012G18KT 10SM CLR 21/M15 A3019 RMK AO2,M
TPH,2022-09-28 04:56,-117.0904,38.0505,1654.00,61.00,25.00,25.07,50.00,5.00,0.00,30.21,1016.70,10.00,M,CLR,M,M,M,M,M,M,M,M,M,M,M,M,M,M,61.00,KTPH 280456Z AUTO 05005KT 10SM CLR 16/M04 A3021 RMK AO2 SLP167 T01611039,M
NFL,2022-09-28 04:56,-118.7010,39.4166,1199.00,67.00,37.00,33.16,60.00,5.00,0.00,30.08,1015.20,10.00,M,BKN,BKN,BKN,M,9000.00,12000.00,25000.00,M,M,M,M,M,M,M,M,66.90,KNFL 280456Z 06005KT 10SM BKN090 BKN120 BKN250 19/03 A3008 RMK AO2 SLP152 T01940028,M
HND,2022-09-28 04:56,-115.1344,35.9729,742.79,82.00,45.00,27.24,110.00,4.00,0.00,30.02,1015.20,10.00,M,CLR,M,M,M,M,M,M,M,M,M,M,M,M,M,M,80.28,KHND 280456Z AUTO 11004KT 10SM CLR 28/07 A3002 RMK AO2 SLP152 T02780072,M
LAS,2022-09-28 04:56,-115.1634,36.0719,663.00,86.00,42.00,21.43,290.00,4.00,0.00,29.98,1012.60,10.00,M,SCT,BKN,M,M,15000.00,22000.00,M,M,M,M,M,M,M,M,M,82.92,KLAS 280456Z 29004KT 10SM SCT150 BKN220 30/06 A2998 RMK AO2 SLP126 T03000056,M
EKO,2022-09-28 04:56,-115.7860,40.8242,1367.00,61.00,27.00,27.24,40.00,4.00,0.00,30.15,1016.70,10.00,M,CLR,M,M,M,M,M,M,M,M,M,M,M,M,M,M,61.00,KEKO 280456Z AUTO 04004KT 10SM CLR 16/M03 A3015 RMK AO2 SLP167 T01611028,M
LSV,2022-09-28 04:56,-115.0343,36.2362,570.00,84.20,41.00,21.76,50.00,8.00,0.00,29.93,M,10.00,M,SCT,M,M,M,15000.00,M,M,M,M,M,M,M,M,M,M,81.52,KLSV 280456Z COR 05008KT 10SM SCT150 29/05 A2993 RMK SLPNO AO2 WND DATA ESTMD ALSTG ESTMD $ COR 0502,M
INS,2022-09-28 04:56,-115.6733,36.5872,955.00,80.00,32.70,17.92,250.00,7.00,0.00,30.04,1012.50,10.00,M,FEW,M,M,M,15000.00,M,M,M,M,M,M,M,M,M,M,78.65,KINS 280456Z AUTO 25007KT 10SM FEW150 27/00 A3004 RMK AO2 SLP125 T02670004 $,M
WMC,2022-09-28 04:56,-117.8072,40.9019,1315.00,63.00,30.90,29.77,120.00,6.00,0.00,30.06,1013.70,10.00,M,CLR,M,M,M,M,M,M,M,M,M,M,M,M,M,M,63.00,KWMC 280456Z AUTO 12006KT 10SM CLR 17/M01 A3006 RMK AO2 SLP137 T01721006,M
MEV,2022-09-28 05:15,-119.7500,38.9963,1441.42,55.40,33.80,43.90,110.00,8.00,0.00,30.17,M,10.00,M,OVC,M,M,M,6500.00,M,M,M,M,M,M,M,M,M,M,55.40,KMEV 280515Z AUTO 11008KT 10SM OVC065 13/01 A3017 RMK AO2,M
BVU,2022-09-28 05:15,-114.8611,35.9475,671.00,80.60,48.20,32.18,20.00,3.00,0.00,29.99,M,M,M,M,M,M,M,M,M,M,M,M,M,M,M,M,M,M,79.71,KBVU 280515Z AUTO 02003KT 27/09 A2999 RMK AO2 TSNO,M
HTH,2022-09-28 05:15,-118.6315,38.5448,1282.89,78.80,28.40,15.71,M,4.00,0.00,30.10,M,10.00,M,CLR,M,M,M,M,M,M,M,M,M,M,M,M,M,M,78.80,KHTH 280515Z AUTO VRB04KT 10SM CLR 26/M02 A3010 RMK A01,M
BAM,2022-09-28 05:15,-116.8743,40.5990,1382.36,68.00,30.20,24.32,0.00,0.00,0.00,30.11,M,10.00,M,CLR,M,M,M,M,M,M,M,M,M,M,M,M,M,M,68.00,KBAM 280515Z AUTO 00000KT 10SM CLR 20/M01 A3011 RMK AO1,M
CXP,2022-09-28 05:15,-119.7326,39.1923,1431.00,64.40,33.80,31.85,0.00,0.00,0.00,30.17,M,10.00,M,SCT,M,M,M,6500.00,M,M,M,M,M,M,M,M,M,M,64.40,KCXP 280515Z AUTO 00000KT 10SM SCT065 18/01 A3017 RMK AO2,M
TMT,2022-09-28 05:15,-117.1971,39.4643,1749.34,52.00,28.40,39.95,210.00,3.00,0.00,30.21,M,10.00,M,CLR,M,M,M,M,M,M,M,M,M,M,M,M,M,M,52.00,KTMT 280515Z AUTO 21003KT 10SM CLR 11/M02 A3021 RMK AO2 T01111020,M
RTS,2022-09-28 05:15,-119.8764,39.6682,1539.00,68.00,10.40,10.47,260.00,11.00,0.00,30.19,M,10.00,M,FEW,M,M,M,12000.00,M,M,M,M,M,M,M,M,M,M,68.00,KRTS 280515Z AUTO 26011KT 10SM FEW120 20/M12 A3019 RMK AO2,M
05U,2022-09-28 05:15,-116.0051,39.6042,1811.23,62.60,19.40,18.71,150.00,3.00,0.00,30.24,M,10.00,M,CLR,M,M,M,M,M,M,M,M,M,M,M,M,M,M,62.60,K05U 280515Z AUTO 15003KT 10SM CLR 17/M07 A3024 RMK A01,M
TMT,2022-09-28 05:35,-117.1971,39.4643,1749.34,51.00,27.50,39.81,180.00,5.00,0.00,30.21,M,10.00,M,CLR,M,M,M,M,M,M,M,M,M,M,M,M,M,M,51.10,KTMT 280535Z AUTO 18005KT 10SM CLR 11/M02 A3021 RMK AO2 T01061025,M
RTS,2022-09-28 05:35,-119.8764,39.6682,1539.00,66.20,12.20,12.06,260.00,11.00,0.00,30.19,M,10.00,M,CLR,M,M,M,M,M,M,M,M,M,M,M,M,M,M,66.20,KRTS 280535Z AUTO 26011KT 10SM CLR 19/M11 A3019 RMK AO2,M
CXP,2022-09-28 05:35,-119.7326,39.1923,1431.00,64.40,32.00,29.63,0.00,0.00,0.00,30.17,M,10.00,M,BKN,M,M,M,6500.00,M,M,M,M,M,M,M,M,M,M,64.40,KCXP 280535Z AUTO 00000KT 10SM BKN065 18/M00 A3017 RMK AO2,M
BVU,2022-09-28 05:35,-114.8611,35.9475,671.00,78.80,48.20,34.13,0.00,0.00,0.00,29.99,M,M,M,M,M,M,M,M,M,M,M,M,M,M,M,M,M,M,78.80,KBVU 280535Z AUTO 00000KT 26/09 A2999 RMK AO2 TSNO,M
HTH,2022-09-28 05:35,-118.6315,38.5448,1282.89,78.80,28.40,15.71,120.00,9.00,0.00,30.10,M,10.00,M,CLR,M,M,M,M,M,M,M,M,M,M,M,M,M,M,78.80,KHTH 280535Z AUTO 12009KT 10SM CLR 26/M02 A3010 RMK A01,M
BAM,2022-09-28 05:35,-116.8743,40.5990,1382.36,69.80,30.20,22.86,50.00,5.00,0.00,30.10,M,10.00,M,CLR,M,M,M,M,M,M,M,M,M,M,M,M,M,M,69.80,KBAM 280535Z AUTO 05005KT 10SM CLR 21/M01 A3010 RMK AO1,M
MEV,2022-09-28 05:35,-119.7500,38.9963,1441.42,57.20,33.80,41.13,100.00,8.00,0.00,30.17,M,10.00,M,BKN,OVC,M,M,6000.00,6500.00,M,M,M,M,M,M,M,M,M,57.20,KMEV 280535Z AUTO 10008KT 10SM BKN060 OVC065 14/01 A3017 RMK AO2,M
05U,2022-09-28 05:35,-116.0051,39.6042,1811.23,60.80,21.20,21.53,140.00,4.00,0.00,30.25,M,10.00,M,FEW,M,M,M,12000.00,M,M,M,M,M,M,M,M,M,M,60.80,K05U 280535Z AUTO 14004KT 10SM FEW120 16/M06 A3025 RMK A01,M
LOL,2022-09-28 05:53,-118.5701,40.0684,1192.43,63.00,35.00,35.24,0.00,0.00,0.00,30.08,1015.10,10.00,M,CLR,M,M,M,M,M,M,M,M,M,M,M,M,M,M,63.00,KLOL 280553Z AUTO 00000KT 10SM CLR 17/02 A3008 RMK AO2 SLP151 T01720017 10322 20167 51024,M
DRA,2022-09-28 05:53,-116.0278,36.6206,1009.00,78.00,33.00,19.45,90.00,10.00,0.00,30.06,1012.60,10.00,M,CLR,M,M,M,M,M,M,M,M,M,M,M,M,M,M,78.10,KDRA 280553Z AUTO 09010KT 10SM CLR 26/01 A3006 RMK AO2 SLP126 T02560006 10339 20244 51012,M
VGT,2022-09-28 05:53,-115.1933,36.2111,667.00,86.00,45.00,23.95,330.00,5.00,0.00,29.98,1014.10,10.00,M,CLR,M,M,M,M,M,M,M,M,M,M,M,M,M,M,83.10,KVGT 280553Z AUTO 33005KT 10SM CLR 30/07 A2998 RMK AO2 SLP141 T03000072 10367 20300 51012,M
P68,2022-09-28 05:53,-116.0056,39.6014,1993.00,61.00,21.90,22.02,150.00,5.00,0.00,30.22,1015.20,M,M,M,M,M,M,M,M,M,M,M,M,M,M,M,M,M,61.00,KP68 280553Z AUTO 15005KT 16/M06 A3022 RMK AO1 SLP152 T01611056 10272 20156 51010,M
ELY,2022-09-28 05:53,-114.8453,39.2950,1909.00,53.00,28.00,37.74,200.00,11.00,0.00,30.29,1016.90,10.00,M,CLR,M,M,M,M,M,M,M,M,M,M,M,M,M,M,53.10,KELY 280553Z AUTO 20011KT 10SM CLR 12/M02 A3029 RMK AO2 SLP169 T01171022 10256 20106 51011,M
BVU,2022-09-28 05:55,-114.8611,35.9475,671.00,78.80,46.40,31.90,360.00,4.00,0.00,29.99,M,M,M,M,M,M,M,M,M,M,M,M,M,M,M,M,M,M,78.80,KBVU 280555Z AUTO 36004KT 26/08 A2999 RMK AO2 TSNO,M
CXP,2022-09-28 05:55,-119.7326,39.1923,1431.00,68.00,26.60,20.98,210.00,4.00,0.00,30.18,M,10.00,M,SCT,M,M,M,6000.00,M,M,M,M,M,M,M,M,M,M,68.00,KCXP 280555Z AUTO 21004KT 10SM SCT060 20/M03 A3018 RMK AO2,M
RNO,2022-09-28 05:55,-119.7711,39.4839,1341.00,67.00,32.00,27.17,120.00,4.00,0.00,30.14,1015.30,10.00,M,FEW,SCT,M,M,15000.00,20000.00,M,M,M,M,M,M,M,M,M,66.90,KRNO 280555Z 12004KT 10SM FEW150 SCT200 19/00 A3014 RMK AO2 SLP153 T01940000 10306 20194 51013,M
RTS,2022-09-28 05:55,-119.8764,39.6682,1539.00,66.20,15.80,14.13,250.00,15.00,0.00,30.18,M,10.00,M,CLR,M,M,M,M,M,M,M,M,M,M,M,M,M,M,66.20,KRTS 280555Z AUTO 25015KT 10SM CLR 19/M09 A3018 RMK AO2,M
05U,2022-09-28 05:55,-116.0051,39.6042,1811.23,60.80,23.00,23.23,140.00,4.00,0.00,30.25,M,10.00,M,FEW,M,M,M,12000.00,M,M,M,M,M,M,M,M,M,M,60.80,K05U 280555Z AUTO 14004KT 10SM FEW120 16/M05 A3025 RMK A01,M
MEV,2022-09-28 05:55,-119.7500,38.9963,1441.42,53.60,33.80,46.88,110.00,6.00,0.00,30.17,M,10.00,M,BKN,M,M,M,5500.00,M,M,M,M,M,M,M,M,M,M,53.60,KMEV 280555Z AUTO 11006KT 10SM BKN055 12/01 A3017 RMK AO2,M
BAM,2022-09-28 05:55,-116.8743,40.5990,1382.36,68.00,30.20,24.32,0.00,0.00,0.00,30.10,M,10.00,M,CLR,M,M,M,M,M,M,M,M,M,M,M,M,M,M,68.00,KBAM 280555Z AUTO 00000KT 10SM CLR 20/M01 A3010 RMK AO1,M
HTH,2022-09-28 05:55,-118.6315,38.5448,1282.89,77.00,30.20,17.94,0.00,0.00,0.00,30.11,M,10.00,M,CLR,M,M,M,M,M,M,M,M,M,M,M,M,M,M,77.00,KHTH 280555Z AUTO 00000KT 10SM CLR 25/M01 A3011 RMK A01,M
TMT,2022-09-28 05:55,-117.1971,39.4643,1749.34,44.80,26.10,47.59,170.00,6.00,0.00,30.22,M,10.00,M,CLR,M,M,M,M,M,M,M,M,M,M,M,M,M,M,40.95,KTMT 280555Z AUTO 17006KT 10SM CLR 07/M03 A3022 RMK AO2 T00711033,M
LSV,2022-09-28 05:55,-115.0343,36.2362,570.00,84.20,41.00,21.76,50.00,8.00,0.00,29.94,M,10.00,M,SCT,M,M,M,15000.00,M,M,M,M,M,M,M,M,M,M,81.52,KLSV 280555Z COR 05008KT 10SM SCT150 29/05 A2994 RMK AO2 SLPNO 5//// WND DATA ESTMD ALSTG ESTMD $ COR 0605,M
INS,2022-09-28 05:56,-115.6733,36.5872,955.00,76.30,30.90,18.89,300.00,4.00,0.00,30.06,1013.20,10.00,M,BKN,M,M,M,14000.00,M,M,M,M,M,M,M,M,M,M,76.30,KINS 280556Z AUTO 30004KT 10SM BKN140 25/M01 A3006 RMK AO2 SLP132 T02461006 10329 20238 52015 $,M
WMC,2022-09-28 05:56,-117.8072,40.9019,1315.00,59.00,30.00,33.08,310.00,5.00,0.00,30.08,1014.30,10.00,M,CLR,M,M,M,M,M,M,M,M,M,M,M,M,M,M,59.00,KWMC 280556Z AUTO 31005KT 10SM CLR 15/M01 A3008 RMK AO2 SLP143 T01501011 10317 20133 53011,M
NFL,2022-09-28 05:56,-118.7010,39.4166,1199.00,68.00,36.00,30.69,360.00,3.00,0.00,30.09,1015.80,10.00,M,BKN,BKN,BKN,M,9000.00,12000.00,25000.00,M,M,M,M,M,M,M,M,68.00,KNFL 280556Z 36003KT 10SM BKN090 BKN120 BKN250 20/02 A3009 RMK AO2 SLP158 T02000022 10322 20189 51021,M
LAS,2022-09-28 05:56,-115.1634,36.0719,663.00,86.00,42.00,21.43,250.00,3.00,0.00,29.99,1012.90,10.00,M,BKN,BKN,M,M,15000.00,22000.00,M,M,M,M,M,M,M,M,M,82.92,KLAS 280556Z 25003KT 10SM BKN150 BKN220 30/06 A2999 RMK AO2 SLP129 T03000056 10350 20294 51013,M
HND,2022-09-28 05:56,-115.1344,35.9729,742.79,81.00,45.00,28.15,180.00,4.00,0.00,30.03,1015.50,10.00,M,CLR,M,M,M,M,M,M,M,M,M,M,M,M,M,M,79.68,KHND 280556Z AUTO 18004KT 10SM CLR 27/07 A3003 RMK AO2 SLP155 T02720072 10350 20272 51013,M
TPH,2022-09-28 05:56,-117.0904,38.0505,1654.00,59.00,24.10,25.93,10.00,7.00,0.00,30.22,1016.70,10.00,M,CLR,M,M,M,M,M,M,M,M,M,M,M,M,M,M,59.00,KTPH 280556Z AUTO 01007KT 10SM CLR 15/M04 A3022 RMK AO2 SLP167 T01501044 10289 20139 51013,M
EKO,2022-09-28 05:56,-115.7860,40.8242,1367.00,57.00,26.10,30.28,60.00,5.00,0.00,30.16,1016.80,10.00,M,CLR,M,M,M,M,M,M,M,M,M,M,M,M,M,M,57.00,KEKO 280556Z AUTO 06005KT 10SM CLR 14/M03 A3016 RMK AO2 SLP168 T01391033 10294 20139 51013,M
HTH,2022-09-28 06:15,-118.6315,38.5448,1282.89,77.00,30.20,17.94,0.00,0.00,0.00,30.11,M,10.00,M,CLR,M,M,M,M,M,M,M,M,M,M,M,M,M,M,77.00,KHTH 280615Z AUTO 00000KT 10SM CLR 25/M01 A3011 RMK A01,M
TMT,2022-09-28 06:15,-117.1971,39.4643,1749.34,46.00,26.20,45.66,140.00,4.00,0.00,30.22,M,10.00,M,CLR,M,M,M,M,M,M,M,M,M,M,M,M,M,M,43.77,KTMT 280615Z AUTO 14004KT 10SM CLR 08/M03 A3022 RMK AO2 T00781032,M
RTS,2022-09-28 06:15,-119.8764,39.6682,1539.00,64.40,17.60,16.26,260.00,10.00,0.00,30.18,M,10.00,M,CLR,M,M,M,M,M,M,M,M,M,M,M,M,M,M,64.40,KRTS 280615Z AUTO 26010KT 10SM CLR 18/M08 A3018 RMK AO2,M
CXP,2022-09-28 06:15,-119.7326,39.1923,1431.00,68.00,26.60,20.98,0.00,0.00,0.00,30.17,M,10.00,M,CLR,M,M,M,M,M,M,M,M,M,M,M,M,M,M,68.00,KCXP 280615Z AUTO 00000KT 10SM CLR 20/M03 A3017 RMK AO2,M
MEV,2022-09-28 06:15,-119.7500,38.9963,1441.42,53.60,32.00,43.61,110.00,7.00,0.00,30.17,M,10.00,M,BKN,M,M,M,6000.00,M,M,M,M,M,M,M,M,M,M,53.60,KMEV 280615Z AUTO 11007KT 10SM BKN060 12/00 A3017 RMK AO2,M
BVU,2022-09-28 06:15,-114.8611,35.9475,671.00,80.60,46.40,30.07,10.00,5.00,0.00,29.99,M,M,M,M,M,M,M,M,M,M,M,M,M,M,M,M,M,M,79.56,KBVU 280615Z AUTO 01005KT 27/08 A2999 RMK AO2 TSNO,M
05U,2022-09-28 06:15,-116.0051,39.6042,1811.23,55.40,23.00,28.20,130.00,4.00,0.00,30.25,M,10.00,M,CLR,M,M,M,M,M,M,M,M,M,M,M,M,M,M,55.40,K05U 280615Z AUTO 13004KT 10SM CLR 13/M05 A3025 RMK A01,M
BAM,2022-09-28 06:15,-116.8743,40.5990,1382.36,66.20,28.40,24.04,80.00,6.00,0.00,30.11,M,10.00,M,CLR,M,M,M,M,M,M,M,M,M,M,M,M,M,M,66.20,KBAM 280615Z AUTO 08006KT 10SM CLR 19/M02 A3011 RMK AO1,M
HTH,2022-09-28 06:35,-118.6315,38.5448,1282.89,71.60,30.20,21.50,60.00,7.00,0.00,30.12,M,10.00,M,CLR,M,M,M,M,M,M,M,M,M,M,M,M,M,M,71.60,KHTH 280635Z AUTO 06007KT 10SM CLR 22/M01 A3012 RMK A01,M
BVU,2022-09-28 06:35,-114.8611,35.9475,671.00,82.40,44.60,26.49,0.00,0.00,0.00,29.99,M,M,M,M,M,M,M,M,M,M,M,M,M,M,M,M,M,M,80.50,KBVU 280635Z AUTO 00000KT 28/07 A2999 RMK AO2 TSNO,M
RTS,2022-09-28 06:35,-119.8764,39.6682,1539.00,60.80,19.40,19.94,260.00,8.00,0.00,30.19,M,10.00,M,CLR,M,M,M,M,M,M,M,M,M,M,M,M,M,M,60.80,KRTS 280635Z AUTO 26008KT 10SM CLR 16/M07 A3019 RMK AO2,M
05U,2022-09-28 06:35,-116.0051,39.6042,1811.23,55.40,21.20,26.13,0.00,0.00,0.00,30.25,M,10.00,M,CLR,M,M,M,M,M,M,M,M,M,M,M,M,M,M,55.40,K05U 280635Z AUTO 00000KT 10SM CLR 13/M06 A3025 RMK A01,M
MEV,2022-09-28 06:35,-119.7500,38.9963,1441.42,51.80,32.00,46.59,110.00,8.00,0.00,30.17,M,10.00,M,FEW,M,M,M,6000.00,M,M,M,M,M,M,M,M,M,M,51.80,KMEV 280635Z AUTO 11008KT 10SM FEW060 11/M00 A3017 RMK AO2,M
BAM,2022-09-28 06:35,-116.8743,40.5990,1382.36,64.40,28.40,25.60,140.00,3.00,0.00,30.11,M,10.00,M,CLR,M,M,M,M,M,M,M,M,M,M,M,M,M,M,64.40,KBAM 280635Z AUTO 14003KT 10SM CLR 18/M02 A3011 RMK AO1,M
TMT,2022-09-28 06:35,-117.1971,39.4643,1749.34,45.70,27.90,49.54,120.00,4.00,0.00,30.24,M,10.00,M,CLR,M,M,M,M,M,M,M,M,M,M,M,M,M,M,43.42,KTMT 280635Z AUTO 12004KT 10SM CLR 08/M02 A3024 RMK AO2 T00761023,M
CXP,2022-09-28 06:35,-119.7326,39.1923,1431.00,66.20,30.20,25.88,0.00,0.00,0.00,30.18,M,10.00,M,CLR,M,M,M,M,M,M,M,M,M,M,M,M,M,M,66.20,KCXP 280635Z AUTO 00000KT 10SM CLR 19/M01 A3018 RMK AO2,M
P68,2022-09-28 06:53,-116.0056,39.6014,1993.00,56.00,23.00,27.69,0.00,0.00,0.00,30.23,1015.70,M,M,M,M,M,M,M,M,M,M,M,M,M,M,M,M,M,55.90,KP68 280653Z AUTO 00000KT 13/M05 A3023 RMK AO1 SLP157 T01331050,M
VGT,2022-09-28 06:53,-115.1933,36.2111,667.00,84.00,43.00,23.66,310.00,4.00,0.00,29.99,1014.20,10.00,M,CLR,M,M,M,M,M,M,M,M,M,M,M,M,M,M,81.48,KVGT 280653Z AUTO 31004KT 10SM CLR 29/06 A2999 RMK AO2 SLP142 T02890061,M
ELY,2022-09-28 06:53,-114.8453,39.2950,1909.00,49.00,28.90,45.75,180.00,9.00,0.00,30.29,1017.00,10.00,M,CLR,M,M,M,M,M,M,M,M,M,M,M,M,M,M,44.53,KELY 280653Z AUTO 18009KT 10SM CLR 09/M02 A3029 RMK AO2 SLP170 T00941017 402780039,M
LOL,2022-09-28 06:53,-118.5701,40.0684,1192.43,61.00,36.00,39.19,40.00,5.00,0.00,30.08,1015.20,10.00,M,CLR,M,M,M,M,M,M,M,M,M,M,M,M,M,M,61.00,KLOL 280653Z AUTO 04005KT 10SM CLR 16/02 A3008 RMK AO2 SLP152 T01610022,M
DRA,2022-09-28 06:53,-116.0278,36.6206,1009.00,75.00,32.00,20.63,80.00,7.00,0.00,30.06,1012.70,10.00,M,CLR,M,M,M,M,M,M,M,M,M,M,M,M,M,M,75.00,KDRA 280653Z AUTO 08007KT 10SM CLR 24/00 A3006 RMK AO2 SLP127 T02390000,M
LSV,2022-09-28 06:55,-115.0343,36.2362,570.00,80.60,M,M,M,M,0.00,29.95,M,M,M,M,M,M,M,M,M,M,M,M,M,M,M,M,M,M,M,KLSV 280655Z AUTO M M M M 27/ A2995 RMK AO2 SLPNO RVRNO $,M
RNO,2022-09-28 06:55,-119.7711,39.4839,1341.00,66.00,30.90,26.81,180.00,3.00,0.00,30.14,1015.10,10.00,M,FEW,SCT,M,M,14000.00,22000.00,M,M,M,M,M,M,M,M,M,66.00,KRNO 280655Z 18003KT 10SM FEW140 SCT220 19/M01 A3014 RMK AO2 SLP151 T01891006,M
RTS,2022-09-28 06:55,-119.8764,39.6682,1539.00,62.60,19.40,18.71,260.00,9.00,0.00,30.19,M,10.00,M,CLR,M,M,M,M,M,M,M,M,M,M,M,M,M,M,62.60,KRTS 280655Z AUTO 26009KT 10SM CLR 17/M07 A3019 RMK AO2,M
05U,2022-09-28 06:55,-116.0051,39.6042,1811.23,55.40,23.00,28.20,M,M,0.00,30.25,M,10.00,M,CLR,M,M,M,M,M,M,M,M,M,M,M,M,M,M,55.40,K05U 280655Z AUTO 10SM CLR 13/M05 A3025 RMK A01,M
MEV,2022-09-28 06:55,-119.7500,38.9963,1441.42,51.80,28.40,40.25,130.00,7.00,0.00,30.17,M,10.00,M,CLR,M,M,M,M,M,M,M,M,M,M,M,M,M,M,51.80,KMEV 280655Z AUTO 13007KT 10SM CLR 11/M02 A3017 RMK AO2,M
BAM,2022-09-28 06:55,-116.8743,40.5990,1382.36,59.00,28.40,30.98,0.00,0.00,0.00,30.10,M,10.00,M,CLR,M,M,M,M,M,M,M,M,M,M,M,M,M,M,59.00,KBAM 280655Z AUTO 00000KT 10SM CLR 15/M02 A3010 RMK AO1,M
HTH,2022-09-28 06:55,-118.6315,38.5448,1282.89,73.40,30.20,20.23,120.00,5.00,0.00,30.12,M,10.00,M,CLR,M,M,M,M,M,M,M,M,M,M,M,M,M,M,73.40,KHTH 280655Z AUTO 12005KT 10SM CLR 23/M01 A3012 RMK A01,M
TMT,2022-09-28 06:55,-117.1971,39.4643,1749.34,48.40,26.80,42.76,0.00,0.00,0.00,30.24,M,10.00,M,SCT,M,M,M,12000.00,M,M,M,M,M,M,M,M,M,M,48.40,KTMT 280655Z AUTO 00000KT 10SM SCT120 09/M03 A3024 RMK AO2 T00911029,M
CXP,2022-09-28 06:55,-119.7326,39.1923,1431.00,64.40,32.00,29.63,210.00,4.00,0.00,30.18,M,10.00,M,CLR,M,M,M,M,M,M,M,M,M,M,M,M,M,M,64.40,KCXP 280655Z AUTO 21004KT 10SM CLR 18/00 A3018 RMK AO2,M
BVU,2022-09-28 06:55,-114.8611,35.9475,671.00,80.60,48.20,32.18,0.00,0.00,0.00,29.99,M,M,M,M,M,M,M,M,M,M,M,M,M,M,M,M,M,M,79.71,KBVU 280655Z AUTO 00000KT 27/09 A2999 RMK AO2 TSNO,M
NFL,2022-09-28 06:56,-118.7010,39.4166,1199.00,67.00,37.00,33.16,M,5.00,0.00,30.10,1016.00,10.00,M,BKN,BKN,BKN,M,9000.00,12000.00,25000.00,M,M,M,M,M,M,M,M,66.90,KNFL 280656Z VRB05KT 10SM BKN090 BKN120 BKN250 19/03 A3010 RMK AO2 SLP160 T01940028,M
LSV,2022-09-28 06:56,-115.0343,36.2362,570.00,80.60,41.00,24.46,0.00,0.00,0.00,29.95,M,10.00,M,BKN,M,M,M,15000.00,M,M,M,M,M,M,M,M,M,M,79.20,KLSV 280656Z 00000KT 10SM BKN150 27/05 A2995 RMK AO2 SLPNO WND DATA ESTMD ALSTG ESTMD $,M
INS,2022-09-28 06:56,-115.6733,36.5872,955.00,75.70,33.00,21.06,0.00,0.00,0.00,30.06,1013.00,10.00,M,SCT,BKN,M,M,13000.00,15000.00,M,M,M,M,M,M,M,M,M,75.70,KINS 280656Z AUTO 00000KT 10SM SCT130 BKN150 24/01 A3006 RMK AO2 SLP130 T02430006 $,M
EKO,2022-09-28 06:56,-115.7860,40.8242,1367.00,56.00,25.00,30.10,70.00,6.00,0.00,30.16,1016.40,10.00,M,CLR,M,M,M,M,M,M,M,M,M,M,M,M,M,M,55.90,KEKO 280656Z AUTO 07006KT 10SM CLR 13/M04 A3016 RMK AO2 SLP164 T01331039,M
LAS,2022-09-28 06:56,-115.1634,36.0719,663.00,84.00,42.00,22.85,230.00,4.00,0.00,30.00,1013.00,10.00,M,FEW,SCT,M,M,16000.00,22000.00,M,M,M,M,M,M,M,M,M,81.43,KLAS 280656Z 23004KT 10SM FEW160 SCT220 29/06 A3000 RMK AO2 SLP130 T02890056,M
TPH,2022-09-28 06:56,-117.0904,38.0505,1654.00,56.00,25.00,30.10,340.00,5.00,0.00,30.22,1016.40,10.00,M,CLR,M,M,M,M,M,M,M,M,M,M,M,M,M,M,55.90,KTPH 280656Z AUTO 34005KT 10SM CLR 13/M04 A3022 RMK AO2 SLP164 T01331039,M
HND,2022-09-28 06:56,-115.1344,35.9729,742.79,79.00,44.00,29.04,170.00,5.00,0.00,30.03,1015.70,10.00,M,CLR,M,M,M,M,M,M,M,M,M,M,M,M,M,M,79.00,KHND 280656Z AUTO 17005KT 10SM CLR 26/07 A3003 RMK AO2 SLP157 T02610067 403560200,M
WMC,2022-09-28 06:56,-117.8072,40.9019,1315.00,60.00,30.90,32.99,M,M,0.00,30.09,1014.30,10.00,M,CLR,M,M,M,M,M,M,M,M,M,M,M,M,M,M,60.10,KWMC 280656Z AUTO 10SM CLR 16/M01 A3009 RMK AO2 SLP143 T01561006,M
CXP,2022-09-28 07:15,-119.7326,39.1923,1431.00,64.40,30.20,27.55,210.00,6.00,0.00,30.18,M,10.00,M,CLR,M,M,M,M,M,M,M,M,M,M,M,M,M,M,64.40,KCXP 280715Z AUTO 21006KT 10SM CLR 18/M01 A3018 RMK AO2,M
TMT,2022-09-28 07:15,-117.1971,39.4643,1749.34,46.80,26.80,45.42,0.00,0.00,0.00,30.24,M,10.00,M,SCT,M,M,M,12000.00,M,M,M,M,M,M,M,M,M,M,46.80,KTMT 280715Z AUTO 00000KT 10SM SCT120 08/M03 A3024 RMK AO2 T00821029,M
RTS,2022-09-28 07:15,-119.8764,39.6682,1539.00,59.00,19.40,21.26,270.00,6.00,0.00,30.19,M,10.00,M,CLR,M,M,M,M,M,M,M,M,M,M,M,M,M,M,59.00,KRTS 280715Z AUTO 27006KT 10SM CLR 15/M07 A3019 RMK AO2,M
05U,2022-09-28 07:15,-116.0051,39.6042,1811.23,57.20,21.20,24.49,100.00,3.00,0.00,30.25,M,10.00,M,CLR,M,M,M,M,M,M,M,M,M,M,M,M,M,M,57.20,K05U 280715Z AUTO 10003KT 10SM CLR 14/M06 A3025 RMK A01,M
MEV,2022-09-28 07:15,-119.7500,38.9963,1441.42,55.40,26.60,32.76,130.00,8.00,0.00,30.17,M,10.00,M,CLR,M,M,M,M,M,M,M,M,M,M,M,M,M,M,55.40,KMEV 280715Z AUTO 13008KT 10SM CLR 13/M03 A3017 RMK AO2,M
BAM,2022-09-28 07:15,-116.8743,40.5990,1382.36,55.40,26.60,32.76,0.00,0.00,0.00,30.11,M,10.00,M,CLR,M,M,M,M,M,M,M,M,M,M,M,M,M,M,55.40,KBAM 280715Z AUTO 00000KT 10SM CLR 13/M03 A3011 RMK AO1,M
BVU,2022-09-28 07:15,-114.8611,35.9475,671.00,78.80,48.20,34.13,0.00,0.00,0.00,29.99,M,M,M,M,M,M,M,M,M,M,M,M,M,M,M,M,M,M,78.80,KBVU 280715Z AUTO 00000KT 26/09 A2999 RMK AO2 TSNO,M
HTH,2022-09-28 07:15,-118.6315,38.5448,1282.89,71.60,30.20,21.50,130.00,9.00,0.00,30.12,M,10.00,M,CLR,M,M,M,M,M,M,M,M,M,M,M,M,M,M,71.60,KHTH 280715Z AUTO 13009KT 10SM CLR 22/M01 A3012 RMK A01,M
RTS,2022-09-28 07:35,-119.8764,39.6682,1539.00,60.80,19.40,19.94,0.00,0.00,0.00,30.19,M,10.00,M,CLR,M,M,M,M,M,M,M,M,M,M,M,M,M,M,60.80,KRTS 280735Z AUTO 00000KT 10SM CLR 16/M07 A3019 RMK AO2,M
BAM,2022-09-28 07:35,-116.8743,40.5990,1382.36,57.20,28.40,33.05,50.00,4.00,0.00,30.11,M,10.00,M,CLR,M,M,M,M,M,M,M,M,M,M,M,M,M,M,57.20,KBAM 280735Z AUTO 05004KT 10SM CLR 14/M02 A3011 RMK AO1,M
MEV,2022-09-28 07:35,-119.7500,38.9963,1441.42,53.60,30.20,40.54,100.00,10.00,0.00,30.17,M,10.00,M,CLR,M,M,M,M,M,M,M,M,M,M,M,M,M,M,53.60,KMEV 280735Z AUTO 10010KT 10SM CLR 12/M01 A3017 RMK AO2,M
05U,2022-09-28 07:35,-116.0051,39.6042,1811.23,57.20,23.00,26.42,0.00,0.00,0.00,30.25,M,10.00,M,CLR,M,M,M,M,M,M,M,M,M,M,M,M,M,M,57.20,K05U 280735Z AUTO 00000KT 10SM CLR 14/M05 A3025 RMK A01,M
BVU,2022-09-28 07:35,-114.8611,35.9475,671.00,80.60,50.00,34.41,0.00,0.00,0.00,29.99,M,M,M,M,M,M,M,M,M,M,M,M,M,M,M,M,M,M,79.88,KBVU 280735Z AUTO 00000KT 27/10 A2999 RMK AO2 TSNO,M
CXP,2022-09-28 07:35,-119.7326,39.1923,1431.00,60.80,28.40,29.06,0.00,0.00,0.00,30.18,M,10.00,M,CLR,M,M,M,M,M,M,M,M,M,M,M,M,M,M,60.80,KCXP 280735Z AUTO 00000KT 10SM CLR 16/M02 A3018 RMK AO2,M
TMT,2022-09-28 07:35,-117.1971,39.4643,1749.34,46.80,27.00,45.79,320.00,3.00,0.00,30.24,M,10.00,M,SCT,M,M,M,12000.00,M,M,M,M,M,M,M,M,M,M,45.61,KTMT 280735Z AUTO 32003KT 10SM SCT120 08/M03 A3024 RMK AO2 T00821028,M
HTH,2022-09-28 07:35,-118.6315,38.5448,1282.89,71.60,28.40,19.98,140.00,8.00,0.00,30.12,M,10.00,M,CLR,M,M,M,M,M,M,M,M,M,M,M,M,M,M,71.60,KHTH 280735Z AUTO 14008KT 10SM CLR 22/M02 A3012 RMK A01,M
P68,2022-09-28 07:53,-116.0056,39.6014,1993.00,53.00,24.10,32.11,0.00,0.00,0.00,30.22,1015.80,M,M,M,M,M,M,M,M,M,M,M,M,M,M,M,M,M,53.10,KP68 280753Z AUTO 00000KT 12/M04 A3022 RMK AO1 SLP158 T01171044 402890044,M
VGT,2022-09-28 07:53,-115.1933,36.2111,667.00,83.00,45.00,26.46,300.00,5.00,0.00,29.98,1014.10,10.00,M,CLR,M,M,M,M,M,M,M,M,M,M,M,M,M,M,80.86,KVGT 280753Z AUTO 30005KT 10SM CLR 28/07 A2998 RMK AO2 SLP141 T02830072 403720228,M
ELY,2022-09-28 07:53,-114.8453,39.2950,1909.00,50.00,28.90,43.92,190.00,9.00,0.00,30.29,1016.80,10.00,M,CLR,M,M,M,M,M,M,M,M,M,M,M,M,M,M,50.00,KELY 280753Z AUTO 19009KT 10SM CLR 10/M02 A3029 RMK AO2 SLP168 T01001017,M
DRA,2022-09-28 07:53,-116.0278,36.6206,1009.00,73.00,32.00,22.06,0.00,0.00,0.00,30.06,1012.80,10.00,M,CLR,M,M,M,M,M,M,M,M,M,M,M,M,M,M,73.00,KDRA 280753Z AUTO 00000KT 10SM CLR 23/00 A3006 RMK AO2 SLP128 T02280000 403560144,M
LOL,2022-09-28 07:53,-118.5701,40.0684,1192.43,60.00,34.00,37.37,0.00,0.00,0.00,30.09,1015.10,10.00,M,CLR,M,M,M,M,M,M,M,M,M,M,M,M,M,M,60.10,KLOL 280753Z AUTO 00000KT 10SM CLR 16/01 A3009 RMK AO2 SLP151 T01560011 403280083,M
LSV,2022-09-28 07:55,-115.0343,36.2362,570.00,M,M,M,M,M,0.00,M,M,M,M,M,M,M,M,M,M,M,M,M,M,M,M,M,M,M,M,KLSV 280755Z AUTO M M M M M M RMK AO2 SLPNO 403840200 RVRNO $,M
CXP,2022-09-28 07:55,-119.7326,39.1923,1431.00,62.60,28.40,27.27,0.00,0.00,0.00,30.19,M,10.00,M,CLR,M,M,M,M,M,M,M,M,M,M,M,M,M,M,62.60,KCXP 280755Z AUTO 00000KT 10SM CLR 17/M02 A3019 RMK AO2,M
TMT,2022-09-28 07:55,-117.1971,39.4643,1749.34,46.40,27.10,46.68,320.00,4.00,0.00,30.24,M,10.00,M,CLR,M,M,M,M,M,M,M,M,M,M,M,M,M,M,44.24,KTMT 280755Z AUTO 32004KT 10SM CLR 08/M03 A3024 RMK AO2 T00801027,M
HTH,2022-09-28 07:55,-118.6315,38.5448,1282.89,68.00,28.40,22.59,120.00,5.00,0.00,30.12,M,10.00,M,CLR,M,M,M,M,M,M,M,M,M,M,M,M,M,M,68.00,KHTH 280755Z AUTO 12005KT 10SM CLR 20/M02 A3012 RMK A01,M
BAM,2022-09-28 07:55,-116.8743,40.5990,1382.36,55.40,26.60,32.76,220.00,8.00,0.00,30.12,M,10.00,15.00,CLR,M,M,M,M,M,M,M,M,M,M,M,M,M,M,55.40,KBAM 280755Z AUTO 22008G15KT 10SM CLR 13/M03 A3012 RMK AO1,M
MEV,2022-09-28 07:55,-119.7500,38.9963,1441.42,53.60,32.00,43.61,100.00,8.00,0.00,30.17,M,10.00,M,CLR,M,M,M,M,M,M,M,M,M,M,M,M,M,M,53.60,KMEV 280755Z AUTO 10008KT 10SM CLR 12/00 A3017 RMK AO2,M
05U,2022-09-28 07:55,-116.0051,39.6042,1811.23,53.60,23.00,30.11,0.00,0.00,0.00,30.25,M,10.00,M,CLR,M,M,M,M,M,M,M,M,M,M,M,M,M,M,53.60,K05U 280755Z AUTO 00000KT 10SM CLR 12/M05 A3025 RMK A01,M
RTS,2022-09-28 07:55,-119.8764,39.6682,1539.00,60.80,21.20,21.53,0.00,0.00,0.00,30.19,M,10.00,M,CLR,M,M,M,M,M,M,M,M,M,M,M,M,M,M,60.80,KRTS 280755Z AUTO 00000KT 10SM CLR 16/M06 A3019 RMK AO2,M
RNO,2022-09-28 07:55,-119.7711,39.4839,1341.00,61.00,34.00,36.19,190.00,4.00,0.00,30.15,1015.50,10.00,M,FEW,M,M,M,11000.00,M,M,M,M,M,M,M,M,M,M,61.00,KRNO 280755Z 19004KT 10SM FEW110 16/01 A3015 RMK AO2 SLP155 T01610011 403280128,M
BVU,2022-09-28 07:55,-114.8611,35.9475,671.00,78.80,51.80,39.02,70.00,4.00,0.00,29.99,M,M,M,M,M,M,M,M,M,M,M,M,M,M,M,M,M,M,78.80,KBVU 280755Z AUTO 07004KT 26/11 A2999 RMK AO2 TSNO,M
INS,2022-09-28 07:56,-115.6733,36.5872,955.00,72.00,32.40,23.11,0.00,0.00,0.00,30.06,1013.00,9.00,M,OVC,M,M,M,13000.00,M,M,M,M,M,M,M,M,M,M,72.10,KINS 280756Z AUTO 00000KT 9SM OVC130 22/00 A3006 RMK AO2 SLP130 T02230002 403450135 $,M
HND,2022-09-28 07:56,-115.1344,35.9729,742.79,79.00,45.00,30.05,200.00,6.00,0.00,30.03,1015.30,10.00,M,CLR,M,M,M,M,M,M,M,M,M,M,M,M,M,M,79.00,KHND 280756Z AUTO 20006KT 10SM CLR 26/07 A3003 RMK AO2 SLP153 T02610072,M
NFL,2022-09-28 07:56,-118.7010,39.4166,1199.00,67.00,37.00,33.16,280.00,6.00,0.00,30.11,1016.20,10.00,M,CLR,M,M,M,M,M,M,M,M,M,M,M,M,M,M,66.90,KNFL 280756Z AUTO 28006KT 10SM CLR 19/03 A3011 RMK AO2 SLP162 T01940028 403330144,M
EKO,2022-09-28 07:56,-115.7860,40.8242,1367.00,54.00,24.10,31.07,60.00,7.00,0.00,30.16,1016.20,10.00,M,CLR,M,M,M,M,M,M,M,M,M,M,M,M,M,M,54.00,KEKO 280756Z AUTO 06007KT 10SM CLR 12/M04 A3016 RMK AO2 SLP162 T01221044 403110061,M
WMC,2022-09-28 07:56,-117.8072,40.9019,1315.00,52.00,28.90,40.78,170.00,6.00,0.00,30.10,1015.10,10.00,M,CLR,M,M,M,M,M,M,M,M,M,M,M,M,M,M,52.00,KWMC 280756Z AUTO 17006KT 10SM CLR 11/M02 A3010 RMK AO2 SLP151 T01111017 403330061,M
LAS,2022-09-28 07:56,-115.1634,36.0719,663.00,84.00,43.00,23.66,0.00,0.00,0.00,29.99,1012.70,10.00,M,BKN,M,M,M,16000.00,M,M,M,M,M,M,M,M,M,M,81.48,KLAS 280756Z 00000KT 10SM BKN160 29/06 A2999 RMK AO2 SLP127 T02890061 403610233,M
TPH,2022-09-28 07:56,-117.0904,38.0505,1654.00,56.00,25.00,30.10,10.00,8.00,0.00,30.22,1016.40,10.00,M,CLR,M,M,M,M,M,M,M,M,M,M,M,M,M,M,55.90,KTPH 280756Z AUTO 01008KT 10SM CLR 13/M04 A3022 RMK AO2 SLP164 T01331039 403000106,M
LSV,2022-09-28 07:56,-115.0343,36.2362,570.00,80.60,41.00,24.46,50.00,3.00,0.00,29.96,M,10.00,M,BKN,M,M,M,15000.00,M,M,M,M,M,M,M,M,M,M,79.20,KLSV 280756Z 05003KT 10SM BKN150 27/05 A2996 RMK AO2 SLPNO WND DATA ESTMD ALSTG ESTMD $,M
CXP,2022-09-28 08:15,-119.7326,39.1923,1431.00,59.00,26.60,28.77,290.00,4.00,0.00,30.18,M,10.00,M,CLR,M,M,M,M,M,M,M,M,M,M,M,M,M,M,59.00,KCXP 280815Z AUTO 29004KT 10SM CLR 15/M03 A3018 RMK AO2,M
BVU,2022-09-28 08:15,-114.8611,35.9475,671.00,78.80,50.00,36.51,60.00,4.00,0.00,29.99,M,M,M,M,M,M,M,M,M,M,M,M,M,M,M,M,M,M,78.80,KBVU 280815Z AUTO 06004KT 26/10 A2999 RMK AO2 TSNO,M
RTS,2022-09-28 08:15,-119.8764,39.6682,1539.00,60.80,21.20,21.53,0.00,0.00,0.00,30.19,M,10.00,M,CLR,M,M,M,M,M,M,M,M,M,M,M,M,M,M,60.80,KRTS 280815Z AUTO 00000KT 10SM CLR 16/M06 A3019 RMK AO2,M
05U,2022-09-28 08:15,-116.0051,39.6042,1811.23,53.60,23.00,30.11,170.00,3.00,0.00,30.25,M,10.00,M,CLR,M,M,M,M,M,M,M,M,M,M,M,M,M,M,53.60,K05U 280815Z AUTO 17003KT 10SM CLR 12/M05 A3025 RMK A01,M
MEV,2022-09-28 08:15,-119.7500,38.9963,1441.42,53.60,30.20,40.54,100.00,8.00,0.00,30.17,M,10.00,M,CLR,M,M,M,M,M,M,M,M,M,M,M,M,M,M,53.60,KMEV 280815Z AUTO 10008KT 10SM CLR 12/M01 A3017 RMK AO2,M
BAM,2022-09-28 08:15,-116.8743,40.5990,1382.36,57.20,28.40,33.05,210.00,8.00,0.00,30.12,M,10.00,M,CLR,M,M,M,M,M,M,M,M,M,M,M,M,M,M,57.20,KBAM 280815Z AUTO 21008KT 10SM CLR 14/M02 A3012 RMK AO1,M
HTH,2022-09-28 08:15,-118.6315,38.5448,1282.89,66.20,28.40,24.04,190.00,5.00,0.00,30.13,M,10.00,M,CLR,M,M,M,M,M,M,M,M,M,M,M,M,M,M,66.20,KHTH 280815Z AUTO 19005KT 10SM CLR 19/M02 A3013 RMK A01,M
TMT,2022-09-28 08:15,-117.1971,39.4643,1749.34,45.00,26.20,47.43,280.00,4.00,0.00,30.24,M,10.00,M,CLR,M,M,M,M,M,M,M,M,M,M,M,M,M,M,42.60,KTMT 280815Z AUTO 28004KT 10SM CLR 07/M03 A3024 RMK AO2 T00721032,M
TMT,2022-09-28 08:35,-117.1971,39.4643,1749.34,40.80,25.20,53.46,100.00,3.00,0.00,30.24,M,10.00,M,CLR,M,M,M,M,M,M,M,M,M,M,M,M,M,M,38.75,KTMT 280835Z AUTO 10003KT 10SM CLR 05/M04 A3024 RMK AO2 T00491038,M
BAM,2022-09-28 08:35,-116.8743,40.5990,1382.36,59.00,28.40,30.98,220.00,7.00,0.00,30.12,M,10.00,M,CLR,M,M,M,M,M,M,M,M,M,M,M,M,M,M,59.00,KBAM 280835Z AUTO 22007KT 10SM CLR 15/M02 A3012 RMK AO1,M
BVU,2022-09-28 08:35,-114.8611,35.9475,671.00,78.80,51.80,39.02,0.00,0.00,0.00,30.00,M,M,M,M,M,M,M,M,M,M,M,M,M,M,M,M,M,M,78.80,KBVU 280835Z AUTO 00000KT 26/11 A3000 RMK AO2 TSNO,M
CXP,2022-09-28 08:35,-119.7326,39.1923,1431.00,60.80,26.60,26.98,0.00,0.00,0.00,30.19,M,10.00,M,CLR,M,M,M,M,M,M,M,M,M,M,M,M,M,M,60.80,KCXP 280835Z AUTO 00000KT 10SM CLR 16/M03 A3019 RMK AO2,M
RTS,2022-09-28 08:35,-119.8764,39.6682,1539.00,57.20,21.20,24.49,0.00,0.00,0.00,30.19,M,10.00,M,CLR,M,M,M,M,M,M,M,M,M,M,M,M,M,M,57.20,KRTS 280835Z AUTO 00000KT 10SM CLR 14/M06 A3019 RMK AO2,M
05U,2022-09-28 08:35,-116.0051,39.6042,1811.23,55.40,23.00,28.20,180.00,4.00,0.00,30.25,M,10.00,M,CLR,M,M,M,M,M,M,M,M,M,M,M,M,M,M,55.40,K05U 280835Z AUTO 18004KT 10SM CLR 13/M05 A3025 RMK A01,M
MEV,2022-09-28 08:35,-119.7500,38.9963,1441.42,53.60,30.20,40.54,M,4.00,0.00,30.18,M,10.00,M,CLR,M,M,M,M,M,M,M,M,M,M,M,M,M,M,53.60,KMEV 280835Z AUTO VRB04KT 10SM CLR 12/M01 A3018 RMK AO2,M
HTH,2022-09-28 08:35,-118.6315,38.5448,1282.89,68.00,30.20,24.32,250.00,5.00,0.00,30.13,M,10.00,M,CLR,M,M,M,M,M,M,M,M,M,M,M,M,M,M,68.00,KHTH 280835Z AUTO 25005KT 10SM CLR 20/M01 A3013 RMK A01,M
VGT,2022-09-28 08:53,-115.1933,36.2111,667.00,82.00,45.00,27.24,290.00,4.00,0.00,29.98,1014.10,10.00,M,CLR,M,M,M,M,M,M,M,M,M,M,M,M,M,M,80.28,KVGT 280853Z AUTO 29004KT 10SM CLR 28/07 A2998 RMK AO2 SLP141 T02780072 51000,M
DRA,2022-09-28 08:53,-116.0278,36.6206,1009.00,75.00,34.00,22.35,0.00,0.00,0.00,30.07,1012.90,10.00,M,CLR,M,M,M,M,M,M,M,M,M,M,M,M,M,M,75.00,KDRA 280853Z AUTO 00000KT 10SM CLR 24/01 A3007 RMK AO2 SLP129 T02390011 52003,M
ELY,2022-09-28 08:53,-114.8453,39.2950,1909.00,51.00,32.00,47.81,0.00,0.00,0.00,30.30,1016.60,10.00,M,CLR,M,M,M,M,M,M,M,M,M,M,M,M,M,M,51.10,KELY 280853Z AUTO 00000KT 10SM CLR 11/00 A3030 RMK AO2 SLP166 T01060000 53003,M
LOL,2022-09-28 08:53,-118.5701,40.0684,1192.43,56.00,34.00,43.46,200.00,5.00,0.00,30.10,1015.70,10.00,M,CLR,M,M,M,M,M,M,M,M,M,M,M,M,M,M,55.90,KLOL 280853Z AUTO 20005KT 10SM CLR 13/01 A3010 RMK AO2 SLP157 T01330011 53008,M
P68,2022-09-28 08:53,-116.0056,39.6014,1993.00,52.00,26.10,36.34,150.00,4.00,0.00,30.24,1016.20,M,M,M,M,M,M,M,M,M,M,M,M,M,M,M,M,M,52.00,KP68 280853Z AUTO 15004KT 11/M03 A3024 RMK AO1 SLP162 T01111033 53003,M
TMT,2022-09-28 08:55,-117.1971,39.4643,1749.34,41.00,24.80,52.17,140.00,4.00,0.00,30.24,M,10.00,M,CLR,M,M,M,M,M,M,M,M,M,M,M,M,M,M,37.93,KTMT 280855Z AUTO 14004KT 10SM CLR 05/M04 A3024 RMK AO2 T00501040,M
RNO,2022-09-28 08:55,-119.7711,39.4839,1341.00,60.00,32.00,34.49,0.00,0.00,0.00,30.15,1015.60,10.00,M,FEW,FEW,M,M,10000.00,21000.00,M,M,M,M,M,M,M,M,M,60.10,KRNO 280855Z 00000KT 10SM FEW100 FEW210 16/00 A3015 RMK AO2 SLP156 T01560000 51005,M
RTS,2022-09-28 08:55,-119.8764,39.6682,1539.00,62.60,23.00,21.79,0.00,0.00,0.00,30.19,M,10.00,16.00,CLR,M,M,M,M,M,M,M,M,M,M,M,M,M,M,62.60,KRTS 280855Z AUTO 00000G16KT 10SM CLR 17/M05 A3019 RMK AO2,M
LSV,2022-09-28 08:55,-115.0343,36.2362,570.00,78.80,39.20,24.19,10.00,2.00,0.00,29.97,M,10.00,M,SCT,BKN,M,M,14000.00,18000.00,M,M,M,M,M,M,M,M,M,78.80,KLSV 280855Z COR 01002KT 10SM SCT140 BKN180 26/04 A2997 RMK AO2A SLPNO WND DATA ESTMD ALSTG ESTMD $ COR 0857,M
HTH,2022-09-28 08:55,-118.6315,38.5448,1282.89,66.20,30.20,25.88,240.00,6.00,0.00,30.13,M,10.00,M,CLR,M,M,M,M,M,M,M,M,M,M,M,M,M,M,66.20,KHTH 280855Z AUTO 24006KT 10SM CLR 19/M01 A3013 RMK A01,M
BAM,2022-09-28 08:55,-116.8743,40.5990,1382.36,59.00,30.20,33.35,0.00,0.00,0.00,30.13,M,10.00,M,CLR,M,M,M,M,M,M,M,M,M,M,M,M,M,M,59.00,KBAM 280855Z AUTO 00000KT 10SM CLR 15/M01 A3013 RMK AO1,M
MEV,2022-09-28 08:55,-119.7500,38.9963,1441.42,53.60,28.40,37.67,M,6.00,0.00,30.18,M,10.00,M,CLR,M,M,M,M,M,M,M,M,M,M,M,M,M,M,53.60,KMEV 280855Z AUTO VRB06KT 10SM CLR 12/M02 A3018 RMK AO2,M
05U,2022-09-28 08:55,-116.0051,39.6042,1811.23,51.80,24.80,34.69,140.00,4.00,0.00,30.26,M,10.00,M,CLR,M,M,M,M,M,M,M,M,M,M,M,M,M,M,51.80,K05U 280855Z AUTO 14004KT 10SM CLR 11/M04 A3026 RMK A01,M
CXP,2022-09-28 08:55,-119.7326,39.1923,1431.00,59.00,24.80,26.70,0.00,0.00,0.00,30.19,M,10.00,M,CLR,M,M,M,M,M,M,M,M,M,M,M,M,M,M,59.00,KCXP 280855Z AUTO 00000KT 10SM CLR 15/M04 A3019 RMK AO2,M
BVU,2022-09-28 08:55,-114.8611,35.9475,671.00,77.00,51.80,41.42,50.00,3.00,0.00,30.00,M,M,M,M,M,M,M,M,M,M,M,M,M,M,M,M,M,M,77.00,KBVU 280855Z AUTO 05003KT 25/11 A3000 RMK AO2 TSNO,M
NFL,2022-09-28 08:56,-118.7010,39.4166,1199.00,61.00,37.00,40.77,190.00,3.00,0.00,30.12,1016.40,10.00,M,CLR,M,M,M,M,M,M,M,M,M,M,M,M,M,M,61.00,KNFL 280856Z AUTO 19003KT 10SM CLR 16/03 A3012 RMK AO2 SLP164 T01610028 53006,M
EKO,2022-09-28 08:56,-115.7860,40.8242,1367.00,51.00,24.10,34.57,80.00,6.00,0.00,30.17,1016.40,10.00,M,CLR,M,M,M,M,M,M,M,M,M,M,M,M,M,M,51.10,KEKO 280856Z AUTO 08006KT 10SM CLR 11/M04 A3017 RMK AO2 SLP164 T01061044 53003,M
INS,2022-09-28 08:56,-115.6733,36.5872,955.00,71.80,34.00,24.89,0.00,0.00,0.00,30.06,1013.00,10.00,M,OVC,M,M,M,14000.00,M,M,M,M,M,M,M,M,M,M,71.80,KINS 280856Z AUTO 00000KT 10SM OVC140 22/01 A3006 RMK AO2 SLP130 T02210011 51002 $,M
HND,2022-09-28 08:56,-115.1344,35.9729,742.79,80.00,45.00,28.99,200.00,6.00,0.00,30.03,1015.40,10.00,M,CLR,M,M,M,M,M,M,M,M,M,M,M,M,M,M,79.18,KHND 280856Z AUTO 20006KT 10SM CLR 27/07 A3003 RMK AO2 SLP154 T02670072 53001,M
WMC,2022-09-28 08:56,-117.8072,40.9019,1315.00,50.00,28.00,42.33,250.00,4.00,0.00,30.11,1015.30,10.00,M,CLR,M,M,M,M,M,M,M,M,M,M,M,M,M,M,50.00,KWMC 280856Z AUTO 25004KT 10SM CLR 10/M02 A3011 RMK AO2 SLP153 T01001022 51009,M
LAS,2022-09-28 08:56,-115.1634,36.0719,663.00,82.00,42.00,24.38,200.00,3.00,0.00,30.00,1012.90,10.00,M,BKN,M,M,M,17000.00,M,M,M,M,M,M,M,M,M,M,80.09,KLAS 280856Z 20003KT 10SM BKN170 28/06 A3000 RMK AO2 SLP129 T02780056 53001,M
TPH,2022-09-28 08:56,-117.0904,38.0505,1654.00,55.00,24.10,29.96,360.00,8.00,0.00,30.23,1016.80,10.00,M,CLR,M,M,M,M,M,M,M,M,M,M,M,M,M,M,55.00,KTPH 280856Z AUTO 36008KT 10SM CLR 13/M04 A3023 RMK AO2 SLP168 T01281044 53004,M
05U,2022-09-28 09:15,-116.0051,39.6042,1811.23,53.60,23.00,30.11,160.00,5.00,0.00,30.27,M,10.00,M,CLR,M,M,M,M,M,M,M,M,M,M,M,M,M,M,53.60,K05U 280915Z AUTO 16005KT 10SM CLR 12/M05 A3027 RMK A01,M
TMT,2022-09-28 09:15,-117.1971,39.4643,1749.34,42.00,25.00,50.81,110.00,3.00,0.00,30.24,M,10.00,M,CLR,M,M,M,M,M,M,M,M,M,M,M,M,M,M,40.01,KTMT 280915Z AUTO 11003KT 10SM CLR 06/M04 A3024 RMK AO2 T00551039,M
RTS,2022-09-28 09:15,-119.8764,39.6682,1539.00,64.40,24.80,22.06,360.00,4.00,0.00,30.18,M,10.00,13.00,CLR,M,M,M,M,M,M,M,M,M,M,M,M,M,M,64.40,KRTS 280915Z AUTO 36004G13KT 10SM CLR 18/M04 A3018 RMK AO2,M
CXP,2022-09-28 09:15,-119.7326,39.1923,1431.00,60.80,24.80,25.04,0.00,0.00,0.00,30.19,M,10.00,M,CLR,M,M,M,M,M,M,M,M,M,M,M,M,M,M,60.80,KCXP 280915Z AUTO 00000KT 10SM CLR 16/M04 A3019 RMK AO2,M
MEV,2022-09-28 09:15,-119.7500,38.9963,1441.42,51.80,28.40,40.25,M,3.00,0.00,30.18,M,10.00,M,CLR,M,M,M,M,M,M,M,M,M,M,M,M,M,M,51.80,KMEV 280915Z AUTO VRB03KT 10SM CLR 11/M02 A3018 RMK AO2,M
BAM,2022-09-28 09:15,-116.8743,40.5990,1382.36,60.80,30.20,31.28,0.00,0.00,0.00,30.13,M,10.00,M,CLR,M,M,M,M,M,M,M,M,M,M,M,M,M,M,60.80,KBAM 280915Z AUTO 00000KT 10SM CLR 16/M01 A3013 RMK AO1,M
HTH,2022-09-28 09:15,-118.6315,38.5448,1282.89,64.40,28.40,25.60,240.00,6.00,0.00,30.14,M,10.00,M,CLR,M,M,M,M,M,M,M,M,M,M,M,M,M,M,64.40,KHTH 280915Z AUTO 24006KT 10SM CLR 18/M02 A3014 RMK A01,M
BVU,2022-09-28 09:15,-114.8611,35.9475,671.00,77.00,50.00,38.74,70.00,3.00,0.00,30.00,M,M,M,M,M,M,M,M,M,M,M,M,M,M,M,M,M,M,77.00,KBVU 280915Z AUTO 07003KT 25/10 A3000 RMK AO2 TSNO,M
CXP,2022-09-28 09:35,-119.7326,39.1923,1431.00,59.00,26.60,28.77,40.00,3.00,0.00,30.19,M,10.00,M,CLR,M,M,M,M,M,M,M,M,M,M,M,M,M,M,59.00,KCXP 280935Z AUTO 04003KT 10SM CLR 15/M03 A3019 RMK AO2,M
TMT,2022-09-28 09:35,-117.1971,39.4643,1749.34,42.80,26.40,52.02,0.00,0.00,0.00,30.24,M,10.00,M,CLR,M,M,M,M,M,M,M,M,M,M,M,M,M,M,42.80,KTMT 280935Z AUTO 00000KT 10SM CLR 06/M03 A3024 RMK AO2 T00601031,M
HTH,2022-09-28 09:35,-118.6315,38.5448,1282.89,64.40,30.20,27.55,290.00,3.00,0.00,30.14,M,10.00,M,CLR,M,M,M,M,M,M,M,M,M,M,M,M,M,M,64.40,KHTH 280935Z AUTO 29003KT 10SM CLR 18/M01 A3014 RMK A01,M
BAM,2022-09-28 09:35,-116.8743,40.5990,1382.36,55.40,28.40,35.28,80.00,4.00,0.00,30.13,M,10.00,M,CLR,M,M,M,M,M,M,M,M,M,M,M,M,M,M,55.40,KBAM 280935Z AUTO 08004KT 10SM CLR 13/M02 A3013 RMK AO1,M
MEV,2022-09-28 09:35,-119.7500,38.9963,1441.42,51.80,28.40,40.25,0.00,0.00,0.00,30.18,M,10.00,M,CLR,M,M,M,M,M,M,M,M,M,M,M,M,M,M,51.80,KMEV 280935Z AUTO 00000KT 10SM CLR 11/M02 A3018 RMK AO2,M
05U,2022-09-28 09:35,-116.0051,39.6042,1811.23,55.40,23.00,28.20,210.00,3.00,0.00,30.26,M,10.00,M,CLR,M,M,M,M,M,M,M,M,M,M,M,M,M,M,55.40,K05U 280935Z AUTO 21003KT 10SM CLR 13/M05 A3026 RMK A01,M
RTS,2022-09-28 09:35,-119.8764,39.6682,1539.00,57.20,23.00,26.42,M,6.00,0.00,30.19,M,10.00,M,CLR,M,M,M,M,M,M,M,M,M,M,M,M,M,M,57.20,KRTS 280935Z AUTO VRB06KT 10SM CLR 14/M05 A3019 RMK AO2,M
BVU,2022-09-28 09:35,-114.8611,35.9475,671.00,77.00,50.00,38.74,50.00,4.00,0.00,30.00,M,M,M,M,M,M,M,M,M,M,M,M,M,M,M,M,M,M,77.00,KBVU 280935Z AUTO 05004KT 25/10 A3000 RMK AO2 TSNO,M
LOL,2022-09-28 09:53,-118.5701,40.0684,1192.43,53.00,33.00,46.42,0.00,0.00,0.00,30.11,1016.00,10.00,M,CLR,M,M,M,M,M,M,M,M,M,M,M,M,M,M,53.10,KLOL 280953Z AUTO 00000KT 10SM CLR 12/01 A3011 RMK AO2 SLP160 T01170006,M
P68,2022-09-28 09:53,-116.0056,39.6014,1993.00,50.00,25.00,37.39,0.00,0.00,0.00,30.23,1016.10,M,M,M,M,M,M,M,M,M,M,M,M,M,M,M,M,M,50.00,KP68 280953Z AUTO 00000KT 10/M04 A3023 RMK AO1 SLP161 T01001039,M
DRA,2022-09-28 09:53,-116.0278,36.6206,1009.00,72.00,34.00,24.72,0.00,0.00,0.00,30.07,1013.00,10.00,M,CLR,M,M,M,M,M,M,M,M,M,M,M,M,M,M,72.00,KDRA 280953Z AUTO 00000KT 10SM CLR 22/01 A3007 RMK AO2 SLP130 T02220011,M
ELY,2022-09-28 09:53,-114.8453,39.2950,1909.00,50.00,32.00,49.81,0.00,0.00,0.00,30.30,1016.70,10.00,M,CLR,M,M,M,M,M,M,M,M,M,M,M,M,M,M,50.00,KELY 280953Z AUTO 00000KT 10SM CLR 10/00 A3030 RMK AO2 SLP167 T01000000,M
VGT,2022-09-28 09:53,-115.1933,36.2111,667.00,81.00,46.00,29.23,0.00,0.00,0.00,29.99,1014.20,10.00,M,CLR,M,M,M,M,M,M,M,M,M,M,M,M,M,M,79.76,KVGT 280953Z AUTO 00000KT 10SM CLR 27/08 A2999 RMK AO2 SLP142 T02720078,M
LSV,2022-09-28 09:55,-115.0343,36.2362,570.00,77.00,42.80,29.51,10.00,2.00,0.00,29.95,1011.60,10.00,M,BKN,M,M,M,16000.00,M,M,M,M,M,M,M,M,M,M,77.00,KLSV 280955Z 01002KT 10SM BKN160 25/06 A2995 RMK AO2A SLP116 WND DATA ESTMD $,M
BVU,2022-09-28 09:55,-114.8611,35.9475,671.00,77.00,50.00,38.74,40.00,3.00,0.00,30.00,M,M,M,M,M,M,M,M,M,M,M,M,M,M,M,M,M,M,77.00,KBVU 280955Z AUTO 04003KT 25/10 A3000 RMK AO2 TSNO,M
TMT,2022-09-28 09:55,-117.1971,39.4643,1749.34,40.30,25.70,55.65,0.00,0.00,0.00,30.25,M,10.00,M,CLR,M,M,M,M,M,M,M,M,M,M,M,M,M,M,40.30,KTMT 280955Z AUTO 00000KT 10SM CLR 05/M03 A3025 RMK AO2 T00461035,M
HTH,2022-09-28 09:55,-118.6315,38.5448,1282.89,64.40,28.40,25.60,220.00,7.00,0.00,30.14,M,10.00,M,CLR,M,M,M,M,M,M,M,M,M,M,M,M,M,M,64.40,KHTH 280955Z AUTO 22007KT 10SM CLR 18/M02 A3014 RMK A01,M
BAM,2022-09-28 09:55,-116.8743,40.5990,1382.36,53.60,28.40,37.67,0.00,0.00,0.00,30.13,M,10.00,M,CLR,M,M,M,M,M,M,M,M,M,M,M,M,M,M,53.60,KBAM 280955Z AUTO 00000KT 10SM CLR 12/M02 A3013 RMK AO1,M
MEV,2022-09-28 09:55,-119.7500,38.9963,1441.42,46.40,26.60,45.73,0.00,0.00,0.00,30.18,M,10.00,M,CLR,M,M,M,M,M,M,M,M,M,M,M,M,M,M,46.40,KMEV 280955Z AUTO 00000KT 10SM CLR 08/M03 A3018 RMK AO2,M
05U,2022-09-28 09:55,-116.0051,39.6042,1811.23,50.00,24.80,37.08,0.00,0.00,0.00,30.26,M,10.00,M,CLR,M,M,M,M,M,M,M,M,M,M,M,M,M,M,50.00,K05U 280955Z AUTO 00000KT 10SM CLR 10/M04 A3026 RMK A01,M
RTS,2022-09-28 09:55,-119.8764,39.6682,1539.00,59.00,24.80,26.70,0.00,0.00,0.00,30.19,M,10.00,M,CLR,M,M,M,M,M,M,M,M,M,M,M,M,M,M,59.00,KRTS 280955Z AUTO 00000KT 10SM CLR 15/M04 A3019 RMK AO2,M
RNO,2022-09-28 09:55,-119.7711,39.4839,1341.00,56.00,33.00,41.92,170.00,3.00,0.00,30.15,1015.70,10.00,M,FEW,M,M,M,11000.00,M,M,M,M,M,M,M,M,M,M,55.90,KRNO 280955Z 17003KT 10SM FEW110 13/01 A3015 RMK AO2 SLP157 T01330006,M
CXP,2022-09-28 09:55,-119.7326,39.1923,1431.00,57.20,24.80,28.48,M,3.00,0.00,30.19,M,10.00,M,CLR,M,M,M,M,M,M,M,M,M,M,M,M,M,M,57.20,KCXP 280955Z AUTO VRB03KT 10SM CLR 14/M04 A3019 RMK AO2,M
TPH,2022-09-28 09:56,-117.0904,38.0505,1654.00,56.00,24.10,29.00,10.00,11.00,0.00,30.23,1016.70,10.00,M,CLR,M,M,M,M,M,M,M,M,M,M,M,M,M,M,55.90,KTPH 280956Z AUTO 01011KT 10SM CLR 13/M04 A3023 RMK AO2 SLP167 T01331044,M
EKO,2022-09-28 09:56,-115.7860,40.8242,1367.00,50.00,24.10,36.01,70.00,6.00,0.00,30.18,1017.00,10.00,M,CLR,M,M,M,M,M,M,M,M,M,M,M,M,M,M,50.00,KEKO 280956Z AUTO 07006KT 10SM CLR 10/M04 A3018 RMK AO2 SLP170 T01001044,M
NFL,2022-09-28 09:56,-118.7010,39.4166,1199.00,57.00,40.00,52.70,170.00,5.00,0.00,30.12,1016.60,10.00,M,CLR,M,M,M,M,M,M,M,M,M,M,M,M,M,M,57.00,KNFL 280956Z AUTO 17005KT 10SM CLR 14/04 A3012 RMK AO2 SLP166 T01390044,M
HND,2022-09-28 09:56,-115.1344,35.9729,742.79,78.00,46.00,32.15,200.00,8.00,0.00,30.03,1015.50,10.00,M,CLR,M,M,M,M,M,M,M,M,M,M,M,M,M,M,78.10,KHND 280956Z AUTO 20008KT 10SM CLR 26/08 A3003 RMK AO2 SLP155 T02560078,M
WMC,2022-09-28 09:56,-117.8072,40.9019,1315.00,50.00,30.00,45.93,140.00,3.00,0.00,30.12,1015.40,10.00,M,CLR,M,M,M,M,M,M,M,M,M,M,M,M,M,M,50.00,KWMC 280956Z AUTO 14003KT 10SM CLR 10/M01 A3012 RMK AO2 SLP154 T01001011,M
INS,2022-09-28 09:56,-115.6733,36.5872,955.00,70.50,35.00,26.96,0.00,0.00,0.00,30.06,1013.20,10.00,M,BKN,M,M,M,15000.00,M,M,M,M,M,M,M,M,M,M,70.50,KINS 280956Z AUTO 00000KT 10SM BKN150 21/02 A3006 RMK AO2 SLP132 T02140016 $,M
LAS,2022-09-28 09:56,-115.1634,36.0719,663.00,81.00,43.00,26.08,200.00,4.00,0.00,30.00,1012.80,10.00,M,FEW,BKN,M,M,12000.00,15000.00,M,M,M,M,M,M,M,M,M,79.54,KLAS 280956Z 20004KT 10SM FEW120 BKN150 27/06 A3000 RMK AO2 SLP128 T02720061,M
HTH,2022-09-28 10:15,-118.6315,38.5448,1282.89,64.40,28.40,25.60,250.00,6.00,0.00,30.14,M,10.00,M,CLR,M,M,M,M,M,M,M,M,M,M,M,M,M,M,64.40,KHTH 281015Z AUTO 25006KT 10SM CLR 18/M02 A3014 RMK A01,M
BVU,2022-09-28 10:15,-114.8611,35.9475,671.00,77.00,50.00,38.74,10.00,4.00,0.00,30.00,M,M,M,M,M,M,M,M,M,M,M,M,M,M,M,M,M,M,77.00,KBVU 281015Z AUTO 01004KT 25/10 A3000 RMK AO2 TSNO,M
CXP,2022-09-28 10:15,-119.7326,39.1923,1431.00,57.20,26.60,30.69,300.00,3.00,0.00,30.19,M,10.00,M,CLR,M,M,M,M,M,M,M,M,M,M,M,M,M,M,57.20,KCXP 281015Z AUTO 30003KT 10SM CLR 14/M03 A3019 RMK AO2,M
RTS,2022-09-28 10:15,-119.8764,39.6682,1539.00,57.20,26.60,30.69,0.00,0.00,0.00,30.19,M,10.00,M,CLR,M,M,M,M,M,M,M,M,M,M,M,M,M,M,57.20,KRTS 281015Z AUTO 00000KT 10SM CLR 14/M03 A3019 RMK AO2,M
05U,2022-09-28 10:15,-116.0051,39.6042,1811.23,48.20,23.00,36.78,220.00,3.00,0.00,30.26,M,10.00,M,CLR,M,M,M,M,M,M,M,M,M,M,M,M,M,M,47.21,K05U 281015Z AUTO 22003KT 10SM CLR 09/M05 A3026 RMK A01,M
MEV,2022-09-28 10:15,-119.7500,38.9963,1441.42,46.40,26.60,45.73,0.00,0.00,0.00,30.18,M,10.00,M,CLR,M,M,M,M,M,M,M,M,M,M,M,M,M,M,46.40,KMEV 281015Z AUTO 00000KT 10SM CLR 08/M03 A3018 RMK AO2,M
BAM,2022-09-28 10:15,-116.8743,40.5990,1382.36,53.60,28.40,37.67,130.00,4.00,0.00,30.14,M,10.00,M,CLR,M,M,M,M,M,M,M,M,M,M,M,M,M,M,53.60,KBAM 281015Z AUTO 13004KT 10SM CLR 12/M02 A3014 RMK AO1,M
TMT,2022-09-28 10:15,-117.1971,39.4643,1749.34,42.80,23.70,46.49,350.00,5.00,0.00,30.24,M,10.00,M,CLR,M,M,M,M,M,M,M,M,M,M,M,M,M,M,39.22,KTMT 281015Z AUTO 35005KT 10SM CLR 06/M05 A3024 RMK AO2 T00601046,M
BVU,2022-09-28 10:35,-114.8611,35.9475,671.00,77.00,50.00,38.74,10.00,7.00,0.00,30.00,M,M,M,M,M,M,M,M,M,M,M,M,M,M,M,M,M,M,77.00,KBVU 281035Z AUTO 01007KT 25/10 A3000 RMK AO2 TSNO,M
TMT,2022-09-28 10:35,-117.1971,39.4643,1749.34,42.60,23.40,46.26,0.00,0.00,0.00,30.25,M,10.00,M,CLR,M,M,M,M,M,M,M,M,M,M,M,M,M,M,42.60,KTMT 281035Z AUTO 00000KT 10SM CLR 06/M05 A3025 RMK AO2 T00591048,M
HTH,2022-09-28 10:35,-118.6315,38.5448,1282.89,62.60,28.40,27.27,290.00,3.00,0.00,30.15,M,10.00,M,CLR,M,M,M,M,M,M,M,M,M,M,M,M,M,M,62.60,KHTH 281035Z AUTO 29003KT 10SM CLR 17/M02 A3015 RMK A01,M
BAM,2022-09-28 10:35,-116.8743,40.5990,1382.36,51.80,28.40,40.25,140.00,5.00,0.00,30.14,M,10.00,M,CLR,M,M,M,M,M,M,M,M,M,M,M,M,M,M,51.80,KBAM 281035Z AUTO 14005KT 10SM CLR 11/M02 A3014 RMK AO1,M
MEV,2022-09-28 10:35,-119.7500,38.9963,1441.42,44.60,26.60,48.96,70.00,3.00,0.00,30.17,M,10.00,M,CLR,M,M,M,M,M,M,M,M,M,M,M,M,M,M,43.09,KMEV 281035Z AUTO 07003KT 10SM CLR 07/M03 A3017 RMK AO2,M
05U,2022-09-28 10:35,-116.0051,39.6042,1811.23,48.20,23.00,36.78,190.00,6.00,0.00,30.27,M,10.00,M,CLR,M,M,M,M,M,M,M,M,M,M,M,M,M,M,45.04,K05U 281035Z AUTO 19006KT 10SM CLR 09/M05 A3027 RMK A01,M
RTS,2022-09-28 10:35,-119.8764,39.6682,1539.00,55.40,24.80,30.40,30.00,5.00,0.00,30.19,M,10.00,M,CLR,M,M,M,M,M,M,M,M,M,M,M,M,M,M,55.40,KRTS 281035Z AUTO 03005KT 10SM CLR 13/M04 A3019 RMK AO2,M
CXP,2022-09-28 10:35,-119.7326,39.1923,1431.00,57.20,26.60,30.69,320.00,5.00,0.00,30.19,M,10.00,M,CLR,M,M,M,M,M,M,M,M,M,M,M,M,M,M,57.20,KCXP 281035Z AUTO 32005KT 10SM CLR 14/M03 A3019 RMK AO2,M
ELY,2022-09-28 10:53,-114.8453,39.2950,1909.00,47.00,32.00,55.94,150.00,5.00,0.00,30.29,1017.10,10.00,M,FEW,M,M,M,12000.00,M,M,M,M,M,M,M,M,M,M,44.09,KELY 281053Z AUTO 15005KT 10SM FEW120 08/00 A3029 RMK AO2 SLP171 T00830000,M
VGT,2022-09-28 10:53,-115.1933,36.2111,667.00,81.00,45.00,28.15,0.00,0.00,0.00,30.00,1014.40,10.00,M,CLR,M,M,M,M,M,M,M,M,M,M,M,M,M,M,79.68,KVGT 281053Z AUTO 00000KT 10SM CLR 27/07 A3000 RMK AO2 SLP144 T02720072,M
DRA,2022-09-28 10:53,-116.0278,36.6206,1009.00,72.00,36.00,26.77,0.00,0.00,0.00,30.07,1012.90,10.00,M,CLR,M,M,M,M,M,M,M,M,M,M,M,M,M,M,72.00,KDRA 281053Z AUTO 00000KT 10SM CLR 22/02 A3007 RMK AO2 SLP129 T02220022,M
P68,2022-09-28 10:53,-116.0056,39.6014,1993.00,50.00,24.10,36.01,0.00,0.00,0.00,30.24,1016.80,M,M,M,M,M,M,M,M,M,M,M,M,M,M,M,M,M,50.00,KP68 281053Z AUTO 00000KT 10/M04 A3024 RMK AO1 SLP168 T01001044,M
LOL,2022-09-28 10:53,-118.5701,40.0684,1192.43,54.00,28.00,36.52,70.00,6.00,0.00,30.11,1016.00,10.00,M,CLR,M,M,M,M,M,M,M,M,M,M,M,M,M,M,54.00,KLOL 281053Z AUTO 07006KT 10SM CLR 12/M02 A3011 RMK AO2 SLP160 T01221022,M
TMT,2022-09-28 10:55,-117.1971,39.4643,1749.34,39.60,23.40,51.95,0.00,0.00,0.00,30.25,M,10.00,M,CLR,M,M,M,M,M,M,M,M,M,M,M,M,M,M,39.60,KTMT 281055Z AUTO 00000KT 10SM CLR 04/M05 A3025 RMK AO2 T00421048,M
HTH,2022-09-28 10:55,-118.6315,38.5448,1282.89,62.60,28.40,27.27,0.00,0.00,0.00,30.15,M,10.00,M,CLR,M,M,M,M,M,M,M,M,M,M,M,M,M,M,62.60,KHTH 281055Z AUTO 00000KT 10SM CLR 17/M02 A3015 RMK A01,M
BAM,2022-09-28 10:55,-116.8743,40.5990,1382.36,53.60,28.40,37.67,170.00,3.00,0.00,30.14,M,10.00,M,CLR,M,M,M,M,M,M,M,M,M,M,M,M,M,M,53.60,KBAM 281055Z AUTO 17003KT 10SM CLR 12/M02 A3014 RMK AO1,M
MEV,2022-09-28 10:55,-119.7500,38.9963,1441.42,48.20,28.40,46.02,60.00,3.00,0.00,30.17,M,10.00,M,CLR,M,M,M,M,M,M,M,M,M,M,M,M,M,M,47.21,KMEV 281055Z AUTO 06003KT 10SM CLR 09/M02 A3017 RMK AO2,M
05U,2022-09-28 10:55,-116.0051,39.6042,1811.23,48.20,23.00,36.78,0.00,0.00,0.00,30.27,M,10.00,M,CLR,M,M,M,M,M,M,M,M,M,M,M,M,M,M,48.20,K05U 281055Z AUTO 00000KT 10SM CLR 09/M05 A3027 RMK A01,M
RTS,2022-09-28 10:55,-119.8764,39.6682,1539.00,53.60,24.80,32.46,0.00,0.00,0.00,30.19,M,10.00,M,CLR,M,M,M,M,M,M,M,M,M,M,M,M,M,M,53.60,KRTS 281055Z AUTO 00000KT 10SM CLR 12/M04 A3019 RMK AO2,M
LSV,2022-09-28 10:55,-115.0343,36.2362,570.00,75.20,37.40,25.40,30.00,4.00,0.00,29.96,M,10.00,M,BKN,M,M,M,15000.00,M,M,M,M,M,M,M,M,M,M,75.20,KLSV 281055Z 03004KT 10SM BKN150 24/03 A2996 RMK AO2A SLPNO WND DATA ESTMD ALSTG ESTMD $,M
CXP,2022-09-28 10:55,-119.7326,39.1923,1431.00,55.40,24.80,30.40,330.00,5.00,0.00,30.19,M,10.00,M,CLR,M,M,M,M,M,M,M,M,M,M,M,M,M,M,55.40,KCXP 281055Z AUTO 33005KT 10SM CLR 13/M04 A3019 RMK AO2,M
BVU,2022-09-28 10:55,-114.8611,35.9475,671.00,78.80,50.00,36.51,20.00,6.00,0.00,30.00,M,M,M,M,M,M,M,M,M,M,M,M,M,M,M,M,M,M,78.80,KBVU 281055Z AUTO 02006KT 26/10 A3000 RMK AO2 TSNO,M
RNO,2022-09-28 10:55,-119.7711,39.4839,1341.00,55.00,33.00,43.31,200.00,3.00,0.00,30.15,1015.80,10.00,M,FEW,FEW,M,M,12000.00,21000.00,M,M,M,M,M,M,M,M,M,55.00,KRNO 281055Z 20003KT 10SM FEW120 FEW210 13/01 A3015 RMK AO2 SLP158 T01280006,M
NFL,2022-09-28 10:56,-118.7010,39.4166,1199.00,57.00,38.00,48.73,160.00,4.00,0.00,30.12,1016.50,10.00,M,CLR,M,M,M,M,M,M,M,M,M,M,M,M,M,M,57.00,KNFL 281056Z AUTO 16004KT 10SM CLR 14/03 A3012 RMK AO2 SLP165 T01390033,M
EKO,2022-09-28 10:56,-115.7860,40.8242,1367.00,49.00,24.10,37.52,30.00,3.00,0.00,30.18,1017.30,10.00,M,CLR,M,M,M,M,M,M,M,M,M,M,M,M,M,M,48.01,KEKO 281056Z AUTO 03003KT 10SM CLR 09/M04 A3018 RMK AO2 SLP173 T00941044,M
WMC,2022-09-28 10:56,-117.8072,40.9019,1315.00,49.00,30.00,47.85,0.00,0.00,0.00,30.12,1015.60,10.00,M,CLR,M,M,M,M,M,M,M,M,M,M,M,M,M,M,48.90,KWMC 281056Z AUTO 00000KT 10SM CLR 09/M01 A3012 RMK AO2 SLP156 T00941011,M
TPH,2022-09-28 10:56,-117.0904,38.0505,1654.00,54.00,25.00,32.26,360.00,8.00,0.00,30.23,1016.90,10.00,M,CLR,M,M,M,M,M,M,M,M,M,M,M,M,M,M,54.00,KTPH 281056Z AUTO 36008KT 10SM CLR 12/M04 A3023 RMK AO2 SLP169 T01221039,M
LAS,2022-09-28 10:56,-115.1634,36.0719,663.00,80.00,45.00,28.99,0.00,0.00,0.00,30.01,1013.30,10.00,M,OVC,M,M,M,15000.00,M,M,M,M,M,M,M,M,M,M,79.18,KLAS 281056Z 00000KT 10SM OVC150 27/07 A3001 RMK AO2 SLP133 T02670072,M
INS,2022-09-28 10:56,-115.6733,36.5872,955.00,69.60,35.00,28.03,0.00,0.00,0.00,30.06,1013.20,10.00,M,SCT,M,M,M,14000.00,M,M,M,M,M,M,M,M,M,M,69.60,KINS 281056Z AUTO 00000KT 10SM SCT140 21/02 A3006 RMK AO2 SLP132 T02090017 $,M
HND,2022-09-28 10:56,-115.1344,35.9729,742.79,78.00,47.00,33.26,0.00,0.00,0.00,30.04,1015.70,10.00,M,CLR,M,M,M,M,M,M,M,M,M,M,M,M,M,M,78.10,KHND 281056Z AUTO 00000KT 10SM CLR 26/08 A3004 RMK AO2 SLP157 T02560083,M
RTS,2022-09-28 11:15,-119.8764,39.6682,1539.00,55.40,24.80,30.40,360.00,4.00,0.00,30.19,M,10.00,M,CLR,M,M,M,M,M,M,M,M,M,M,M,M,M,M,55.40,KRTS 281115Z AUTO 36004KT 10SM CLR 13/M04 A3019 RMK AO2,M
CXP,2022-09-28 11:15,-119.7326,39.1923,1431.00,59.00,24.80,26.70,M,3.00,0.00,30.18,M,10.00,M,CLR,M,M,M,M,M,M,M,M,M,M,M,M,M,M,59.00,KCXP 281115Z AUTO VRB03KT 10SM CLR 15/M04 A3018 RMK AO2,M
BVU,2022-09-28 11:15,-114.8611,35.9475,671.00,80.60,48.20,32.18,50.00,7.00,0.00,30.00,M,M,M,M,M,M,M,M,M,M,M,M,M,M,M,M,M,M,79.71,KBVU 281115Z AUTO 05007KT 27/09 A3000 RMK AO2 TSNO,M
BAM,2022-09-28 11:15,-116.8743,40.5990,1382.36,53.60,28.40,37.67,150.00,3.00,0.00,30.14,M,10.00,M,CLR,M,M,M,M,M,M,M,M,M,M,M,M,M,M,53.60,KBAM 281115Z AUTO 15003KT 10SM CLR 12/M02 A3014 RMK AO1,M
MEV,2022-09-28 11:15,-119.7500,38.9963,1441.42,42.80,30.20,60.79,0.00,0.00,0.00,30.17,M,10.00,M,CLR,M,M,M,M,M,M,M,M,M,M,M,M,M,M,42.80,KMEV 281115Z AUTO 00000KT 10SM CLR 06/M01 A3017 RMK AO2,M
HTH,2022-09-28 11:15,-118.6315,38.5448,1282.89,62.60,28.40,27.27,0.00,0.00,0.00,30.16,M,10.00,M,CLR,M,M,M,M,M,M,M,M,M,M,M,M,M,M,62.60,KHTH 281115Z AUTO 00000KT 10SM CLR 17/M02 A3016 RMK A01,M
05U,2022-09-28 11:15,-116.0051,39.6042,1811.23,46.40,24.80,42.44,130.00,4.00,0.00,30.27,M,10.00,M,CLR,M,M,M,M,M,M,M,M,M,M,M,M,M,M,44.24,K05U 281115Z AUTO 13004KT 10SM CLR 08/M04 A3027 RMK A01,M
TMT,2022-09-28 11:15,-117.1971,39.4643,1749.34,36.70,23.70,58.95,0.00,0.00,0.00,30.24,M,10.00,M,CLR,M,M,M,M,M,M,M,M,M,M,M,M,M,M,36.70,KTMT 281115Z AUTO 00000KT 10SM CLR 03/M05 A3024 RMK AO2 T00261046,M
CXP,2022-09-28 11:35,-119.7326,39.1923,1431.00,57.20,26.60,30.69,0.00,0.00,0.00,30.18,M,10.00,M,CLR,M,M,M,M,M,M,M,M,M,M,M,M,M,M,57.20,KCXP 281135Z AUTO 00000KT 10SM CLR 14/M03 A3018 RMK AO2,M
TMT,2022-09-28 11:35,-117.1971,39.4643,1749.34,39.20,24.10,54.34,0.00,0.00,0.00,30.25,M,10.00,M,CLR,M,M,M,M,M,M,M,M,M,M,M,M,M,M,39.20,KTMT 281135Z AUTO 00000KT 10SM CLR 04/M04 A3025 RMK AO2 T00401044,M
RTS,2022-09-28 11:35,-119.8764,39.6682,1539.00,48.20,24.80,39.66,0.00,0.00,0.00,30.19,M,10.00,M,CLR,M,M,M,M,M,M,M,M,M,M,M,M,M,M,48.20,KRTS 281135Z AUTO 00000KT 10SM CLR 09/M04 A3019 RMK AO2,M
05U,2022-09-28 11:35,-116.0051,39.6042,1811.23,48.20,24.80,39.66,0.00,0.00,0.00,30.27,M,10.00,M,CLR,M,M,M,M,M,M,M,M,M,M,M,M,M,M,48.20,K05U 281135Z AUTO 00000KT 10SM CLR 09/M04 A3027 RMK A01,M
HTH,2022-09-28 11:35,-118.6315,38.5448,1282.89,62.60,30.20,29.35,240.00,5.00,0.00,30.16,M,10.00,M,CLR,M,M,M,M,M,M,M,M,M,M,M,M,M,M,62.60,KHTH 281135Z AUTO 24005KT 10SM CLR 17/M01 A3016 RMK A01,M
MEV,2022-09-28 11:35,-119.7500,38.9963,1441.42,44.60,26.60,48.96,100.00,5.00,0.00,30.17,M,10.00,M,CLR,M,M,M,M,M,M,M,M,M,M,M,M,M,M,41.36,KMEV 281135Z AUTO 10005KT 10SM CLR 07/M03 A3017 RMK AO2,M
BAM,2022-09-28 11:35,-116.8743,40.5990,1382.36,50.00,26.60,39.95,60.00,4.00,0.00,30.15,M,10.00,M,CLR,M,M,M,M,M,M,M,M,M,M,M,M,M,M,50.00,KBAM 281135Z AUTO 06004KT 10SM CLR 10/M03 A3015 RMK AO1,M
BVU,2022-09-28 11:35,-114.8611,35.9475,671.00,80.60,48.20,32.18,70.00,6.00,0.00,30.01,M,M,M,M,M,M,M,M,M,M,M,M,M,M,M,M,M,M,79.71,KBVU 281135Z AUTO 07006KT 27/09 A3001 RMK AO2 TSNO,M
HND,2022-09-28 11:46,-115.1344,35.9729,742.79,78.80,48.20,34.13,0.00,0.00,0.00,30.04,M,10.00,M,FEW,M,M,M,12000.00,M,M,M,VCTS,M,M,M,M,M,M,78.80,KHND 281146Z AUTO 00000KT 10SM VCTS FEW120 26/09 A3004 RMK AO2 LTG DSNT SE AND S TSB40,M
VGT,2022-09-28 11:53,-115.1933,36.2111,667.00,80.00,45.00,28.99,300.00,5.00,0.00,30.00,1014.60,10.00,M,SCT,M,M,M,11000.00,M,M,M,M,M,M,M,M,M,M,79.18,KVGT 281153Z AUTO 30005KT 10SM SCT110 27/07 A3000 RMK AO2 LTG DSNT SE AND S SLP146 T02670072 10300 20261 51005,M
DRA,2022-09-28 11:53,-116.0278,36.6206,1009.00,70.00,36.00,28.65,60.00,4.00,0.00,30.07,1013.30,10.00,M,CLR,M,M,M,M,M,M,M,M,M,M,M,M,M,M,70.00,KDRA 281153Z AUTO 06004KT 10SM CLR 21/02 A3007 RMK AO2 SLP133 T02110022 10256 20206 53002,M
P68,2022-09-28 11:53,-116.0056,39.6014,1993.00,45.00,25.00,45.12,170.00,4.00,0.00,30.25,1017.30,M,M,M,M,M,M,M,M,M,M,M,M,M,M,M,M,M,42.60,KP68 281153Z AUTO 17004KT 07/M04 A3025 RMK AO1 SLP173 T00721039 10167 20072 53003,M
ELY,2022-09-28 11:53,-114.8453,39.2950,1909.00,43.00,33.00,67.82,190.00,7.00,0.00,30.29,1017.70,10.00,M,CLR,M,M,M,M,M,M,M,M,M,M,M,M,M,M,38.19,KELY 281153Z AUTO 19007KT 10SM CLR 06/01 A3029 RMK AO2 SLP177 T00610006 10133 20061 55000,M
LOL,2022-09-28 11:53,-118.5701,40.0684,1192.43,51.00,32.00,47.81,50.00,5.00,0.00,30.12,1016.30,10.00,M,CLR,M,M,M,M,M,M,M,M,M,M,M,M,M,M,51.10,KLOL 281153Z AUTO 05005KT 10SM CLR 11/00 A3012 RMK AO2 SLP163 T01060000 10178 20106 52005,M
CXP,2022-09-28 11:55,-119.7326,39.1923,1431.00,53.60,28.40,37.67,0.00,0.00,0.00,30.18,M,10.00,M,CLR,M,M,M,M,M,M,M,M,M,M,M,M,M,M,53.60,KCXP 281155Z AUTO 00000KT 10SM CLR 12/M02 A3018 RMK AO2,M
05U,2022-09-28 11:55,-116.0051,39.6042,1811.23,44.60,24.80,45.44,180.00,3.00,0.00,30.27,M,10.00,M,CLR,M,M,M,M,M,M,M,M,M,M,M,M,M,M,43.09,K05U 281155Z AUTO 18003KT 10SM CLR 07/M04 A3027 RMK A01,M
LSV,2022-09-28 11:55,-115.0343,36.2362,570.00,80.00,40.80,24.83,70.00,4.00,0.00,29.96,1011.90,10.00,M,BKN,M,M,M,12000.00,M,M,M,M,M,M,M,M,M,M,79.90,KLSV 281155Z 07004KT 10SM BKN120 27/05 A2996 RMK AO2A LTG DSNT S SLP119 T02660049 10272 20251 $,M
MEV,2022-09-28 11:55,-119.7500,38.9963,1441.42,42.80,26.60,52.45,0.00,0.00,0.00,30.16,M,10.00,M,CLR,M,M,M,M,M,M,M,M,M,M,M,M,M,M,42.80,KMEV 281155Z AUTO 00000KT 10SM CLR 06/M03 A3016 RMK AO2,M
BAM,2022-09-28 11:55,-116.8743,40.5990,1382.36,51.80,28.40,40.25,50.00,6.00,0.00,30.15,M,10.00,M,CLR,M,M,M,M,M,M,M,M,M,M,M,M,M,M,51.80,KBAM 281155Z AUTO 05006KT 10SM CLR 11/M02 A3015 RMK AO1,M
HTH,2022-09-28 11:55,-118.6315,38.5448,1282.89,60.80,32.00,33.64,0.00,0.00,0.00,30.16,M,10.00,M,CLR,M,M,M,M,M,M,M,M,M,M,M,M,M,M,60.80,KHTH 281155Z AUTO 00000KT 10SM CLR 16/M00 A3016 RMK A01,M
TMT,2022-09-28 11:55,-117.1971,39.4643,1749.34,37.80,23.90,56.92,0.00,0.00,0.00,30.25,M,10.00,M,CLR,M,M,M,M,M,M,M,M,M,M,M,M,M,M,37.80,KTMT 281155Z AUTO 00000KT 10SM CLR 03/M04 A3025 RMK AO2 T00321045 10099 20025,M
RTS,2022-09-28 11:55,-119.8764,39.6682,1539.00,48.20,26.60,42.73,340.00,3.00,0.00,30.19,M,10.00,M,CLR,M,M,M,M,M,M,M,M,M,M,M,M,M,M,47.21,KRTS 281155Z AUTO 34003KT 10SM CLR 09/M03 A3019 RMK AO2,M
BVU,2022-09-28 11:55,-114.8611,35.9475,671.00,80.60,50.00,34.41,30.00,5.00,0.00,30.01,M,M,M,M,M,M,M,M,M,M,M,M,M,M,M,M,M,M,79.88,KBVU 281155Z AUTO 03005KT 27/10 A3001 RMK AO2 TSNO,M
RNO,2022-09-28 11:55,-119.7711,39.4839,1341.00,54.00,33.00,44.92,0.00,0.00,0.00,30.15,1016.00,10.00,M,FEW,FEW,M,M,11000.00,21000.00,M,M,M,M,M,M,M,M,M,54.00,KRNO 281155Z 00000KT 10SM FEW110 FEW210 12/01 A3015 RMK AO2 SLP160 T01220006 10211 20117 51001,M
LAS,2022-09-28 11:56,-115.1634,36.0719,663.00,80.00,46.00,30.11,0.00,0.00,0.00,30.01,1013.40,10.00,M,FEW,BKN,M,M,12000.00,15000.00,M,M,VCTS,M,M,M,M,M,M,79.26,KLAS 281156Z 00000KT 10SM VCTS FEW120CB BKN150 27/08 A3001 RMK AO2 LTG DSNT NE-S SLP134 T02670078 10300 20267 53004,M
EKO,2022-09-28 11:56,-115.7860,40.8242,1367.00,45.00,25.00,45.12,0.00,0.00,0.00,30.19,1018.10,9.00,M,CLR,M,M,M,M,M,M,M,M,M,M,M,M,M,M,45.00,KEKO 281156Z AUTO 00000KT 9SM CLR 07/M04 A3019 RMK AO2 SLP181 T00721039 10139 20072 53006,M
INS,2022-09-28 11:56,-115.6733,36.5872,955.00,68.70,36.00,29.96,0.00,0.00,0.00,30.07,1013.50,10.00,M,SCT,M,M,M,15000.00,M,M,M,M,M,M,M,M,M,M,68.70,KINS 281156Z AUTO 00000KT 10SM SCT150 20/02 A3007 RMK AO2 SLP135 T02040022 10252 20197 53001 $,M
NFL,2022-09-28 11:56,-118.7010,39.4166,1199.00,55.00,35.00,46.91,160.00,5.00,0.00,30.12,1016.70,10.00,M,CLR,M,M,M,M,M,M,M,M,M,M,M,M,M,M,55.00,KNFL 281156Z AUTO 16005KT 10SM CLR 13/02 A3012 RMK AO2 SLP167 T01280017 10206 20122 51002,M
HND,2022-09-28 11:56,-115.1344,35.9729,742.79,77.00,48.00,35.95,160.00,5.00,0.00,30.04,1015.90,10.00,M,SCT,M,M,M,12000.00,M,M,M,VCTS,M,M,M,M,M,M,77.00,KHND 281156Z AUTO 16005KT 10SM VCTS SCT120 25/09 A3004 RMK AO2 LTG DSNT N AND SE AND S TSB40 SLP159 T02500089 10278 20250 53003,M
WMC,2022-09-28 11:56,-117.8072,40.9019,1315.00,49.00,30.00,47.85,170.00,6.00,0.00,30.13,1015.90,10.00,M,CLR,M,M,M,M,M,M,M,M,M,M,M,M,M,M,45.88,KWMC 281156Z AUTO 17006KT 10SM CLR 09/M01 A3013 RMK AO2 SLP159 T00941011 10161 20078 51004,M
TPH,2022-09-28 11:56,-117.0904,38.0505,1654.00,54.00,25.00,32.26,360.00,10.00,0.00,30.23,1016.90,10.00,M,CLR,M,M,M,M,M,M,M,M,M,M,M,M,M,M,54.00,KTPH 281156Z AUTO 36010KT 10SM CLR 12/M04 A3023 RMK AO2 SLP169 T01221039 10150 20122 55000,M
LAS,2022-09-28 11:59,-115.1634,36.0719,663.00,80.00,46.00,30.11,0.00,0.00,0.00,30.01,M,10.00,M,FEW,BKN,M,M,12000.00,15000.00,M,M,VCTS,M,M,M,M,M,M,79.26,KLAS 281159Z 00000KT 10SM VCTS FEW120CB BKN150 27/08 A3001 RMK AO2 LTG DSNT NE-S OCNL LTGIC VC E-S TSB55 TS VC E-S T02670078,M
05U,2022-09-28 12:15,-116.0051,39.6042,1811.23,44.60,23.00,42.14,170.00,6.00,0.00,30.27,M,10.00,M,CLR,M,M,M,M,M,M,M,M,M,M,M,M,M,M,40.71,K05U 281215Z AUTO 17006KT 10SM CLR 07/M05 A3027 RMK A01,M
BVU,2022-09-28 12:15,-114.8611,35.9475,671.00,80.60,50.00,34.41,50.00,5.00,0.00,30.02,M,M,M,M,M,M,M,M,M,M,M,M,M,M,M,M,M,M,79.88,KBVU 281215Z AUTO 05005KT 27/10 A3002 RMK AO2 TSNO,M
CXP,2022-09-28 12:15,-119.7326,39.1923,1431.00,51.80,28.40,40.25,0.00,0.00,0.00,30.18,M,10.00,M,CLR,M,M,M,M,M,M,M,M,M,M,M,M,M,M,51.80,KCXP 281215Z AUTO 00000KT 10SM CLR 11/M02 A3018 RMK AO2,M
RTS,2022-09-28 12:15,-119.8764,39.6682,1539.00,46.40,24.80,42.44,0.00,0.00,0.00,30.19,M,10.00,M,CLR,M,M,M,M,M,M,M,M,M,M,M,M,M,M,46.40,KRTS 281215Z AUTO 00000KT 10SM CLR 08/M04 A3019 RMK AO2,M
MEV,2022-09-28 12:15,-119.7500,38.9963,1441.42,42.80,26.60,52.45,260.00,3.00,0.00,30.17,M,10.00,M,CLR,M,M,M,M,M,M,M,M,M,M,M,M,M,M,41.03,KMEV 281215Z AUTO 26003KT 10SM CLR 06/M03 A3017 RMK AO2,M
BAM,2022-09-28 12:15,-116.8743,40.5990,1382.36,50.00,28.40,43.03,80.00,4.00,0.00,30.15,M,10.00,M,CLR,M,M,M,M,M,M,M,M,M,M,M,M,M,M,50.00,KBAM 281215Z AUTO 08004KT 10SM CLR 10/M02 A3015 RMK AO1,M
HTH,2022-09-28 12:15,-118.6315,38.5448,1282.89,60.80,32.00,33.64,220.00,4.00,0.00,30.16,M,10.00,M,CLR,M,M,M,M,M,M,M,M,M,M,M,M,M,M,60.80,KHTH 281215Z AUTO 22004KT 10SM CLR 16/M00 A3016 RMK A01,M
TMT,2022-09-28 12:15,-117.1971,39.4643,1749.34,35.00,22.80,60.47,0.00,0.00,0.00,30.25,M,10.00,M,CLR,M,M,M,M,M,M,M,M,M,M,M,M,M,M,35.10,KTMT 281215Z AUTO 00000KT 10SM CLR 02/M05 A3025 RMK AO2 T00171051,M
LAS,2022-09-28 12:18,-115.1634,36.0719,663.00,80.00,46.00,30.11,0.00,0.00,0.00,30.02,M,10.00,M,FEW,SCT,BKN,M,7500.00,11000.00,15000.00,M,M,M,M,M,M,M,M,79.26,KLAS 281218Z 00000KT 10SM FEW075 SCT110 BKN150 27/08 A3002 RMK AO2 LTG DSNT SE AND S TSE135 TS DSIPTD SHRA DSNT W CB DSNT SE-SW T02670078,M
BVU,2022-09-28 12:35,-114.8611,35.9475,671.00,73.40,51.80,46.71,240.00,7.00,0.00,30.04,M,M,14.00,M,M,M,M,M,M,M,M,-DZ,M,M,M,M,M,M,73.40,KBVU 281235Z AUTO 24007G14KT -DZ 23/11 A3004 RMK AO2 TSNO,M
MEV,2022-09-28 12:35,-119.7500,38.9963,1441.42,42.80,28.40,56.48,0.00,0.00,0.00,30.17,M,10.00,M,CLR,M,M,M,M,M,M,M,M,M,M,M,M,M,M,42.80,KMEV 281235Z AUTO 00000KT 10SM CLR 06/M02 A3017 RMK AO2,M
CXP,2022-09-28 12:35,-119.7326,39.1923,1431.00,50.00,26.60,39.95,0.00,0.00,0.00,30.18,M,10.00,M,CLR,M,M,M,M,M,M,M,M,M,M,M,M,M,M,50.00,KCXP 281235Z AUTO 00000KT 10SM CLR 10/M03 A3018 RMK AO2,M
TMT,2022-09-28 12:35,-117.1971,39.4643,1749.34,34.30,24.60,67.32,120.00,4.00,0.00,30.26,M,10.00,M,CLR,M,M,M,M,M,M,M,M,M,M,M,M,M,M,30.11,KTMT 281235Z AUTO 12004KT 10SM CLR 01/M04 A3026 RMK AO2 T00131041,M
HTH,2022-09-28 12:35,-118.6315,38.5448,1282.89,59.00,30.20,33.35,0.00,0.00,0.00,30.16,M,10.00,M,CLR,M,M,M,M,M,M,M,M,M,M,M,M,M,M,59.00,KHTH 281235Z AUTO 00000KT 10SM CLR 15/M01 A3016 RMK A01,M
05U,2022-09-28 12:35,-116.0051,39.6042,1811.23,46.40,23.00,39.36,210.00,6.00,0.00,30.27,M,10.00,M,CLR,M,M,M,M,M,M,M,M,M,M,M,M,M,M,42.87,K05U 281235Z AUTO 21006KT 10SM CLR 08/M05 A3027 RMK A01,M
LAS,2022-09-28 12:35,-115.1634,36.0719,663.00,80.00,45.00,28.99,290.00,4.00,0.00,30.02,M,10.00,M,FEW,BKN,BKN,M,7500.00,10000.00,15000.00,M,VCTS,M,M,M,M,M,M,79.18,KLAS 281235Z 29004KT 10SM VCTS FEW075 BKN100CB BKN150 27/07 A3002 RMK AO2 LTG DSNT SE AND S OCNL LTGIC VC SE-SW TSE13B31 TS VC SE-SW T02670072,M
BAM,2022-09-28 12:35,-116.8743,40.5990,1382.36,51.80,28.40,40.25,0.00,0.00,0.00,30.16,M,10.00,M,CLR,M,M,M,M,M,M,M,M,M,M,M,M,M,M,51.80,KBAM 281235Z AUTO 00000KT 10SM CLR 11/M02 A3016 RMK AO1,M
RTS,2022-09-28 12:35,-119.8764,39.6682,1539.00,46.40,26.60,45.73,40.00,5.00,0.00,30.18,M,10.00,M,CLR,M,M,M,M,M,M,M,M,M,M,M,M,M,M,43.50,KRTS 281235Z AUTO 04005KT 10SM CLR 08/M03 A3018 RMK AO2,M
VGT,2022-09-28 12:37,-115.1933,36.2111,667.00,81.00,46.00,29.23,230.00,5.00,0.00,30.02,M,10.00,M,OVC,M,M,M,10000.00,M,M,M,TS,M,M,M,M,M,M,79.76,KVGT 281237Z AUTO 23005KT 10SM TS OVC100 27/08 A3002 RMK AO2 LTG DSNT SE AND S TSB31 T02720078,M
LAS,2022-09-28 12:43,-115.1634,36.0719,663.00,80.00,45.00,28.99,0.00,0.00,0.00,30.03,M,10.00,M,FEW,BKN,BKN,M,7500.00,10000.00,15000.00,M,TS,M,M,M,M,M,M,79.18,KLAS 281243Z 00000KT 10SM TS FEW075 BKN100CB BKN150 27/07 A3003 RMK AO2 LTG DSNT E-S TSB43 OCNL LTGICCG E AND W-N TSE13B40 TS E AND W-N T02670072,M
P68,2022-09-28 12:53,-116.0056,39.6014,1993.00,47.00,24.10,40.44,190.00,6.00,0.00,30.25,1017.30,M,M,M,M,M,M,M,M,M,M,M,M,M,M,M,M,M,43.48,KP68 281253Z AUTO 19006KT 08/M04 A3025 RMK AO1 SLP173 T00831044,M
VGT,2022-09-28 12:53,-115.1933,36.2111,667.00,85.00,47.00,26.66,M,5.00,0.00,30.02,1015.40,10.00,M,OVC,M,M,M,10000.00,M,M,M,TS,M,M,M,M,M,M,82.42,KVGT 281253Z AUTO VRB05KT 10SM TS OVC100 29/08 A3002 RMK AO2 LTG DSNT SE AND S TSB31 SLP154 T02940083,M
DRA,2022-09-28 12:53,-116.0278,36.6206,1009.00,68.00,36.00,30.69,30.00,5.00,0.00,30.08,1013.80,10.00,M,CLR,M,M,M,M,M,M,M,M,M,M,M,M,M,M,68.00,KDRA 281253Z AUTO 03005KT 10SM CLR 20/02 A3008 RMK AO2 SLP138 T02000022,M
LOL,2022-09-28 12:53,-118.5701,40.0684,1192.43,47.00,28.90,49.32,0.00,0.00,0.00,30.13,1017.10,10.00,M,CLR,M,M,M,M,M,M,M,M,M,M,M,M,M,M,46.90,KLOL 281253Z AUTO 00000KT 10SM CLR 08/M02 A3013 RMK AO2 SLP171 T00831017,M
ELY,2022-09-28 12:53,-114.8453,39.2950,1909.00,43.00,33.00,67.82,160.00,7.00,0.00,30.30,1018.90,10.00,M,CLR,M,M,M,M,M,M,M,M,M,M,M,M,M,M,38.19,KELY 281253Z AUTO 16007KT 10SM CLR 06/01 A3030 RMK AO2 SLP189 T00610006,M
RNO,2022-09-28 12:55,-119.7711,39.4839,1341.00,55.00,33.00,43.31,270.00,6.00,0.00,30.16,1016.40,10.00,M,FEW,FEW,M,M,10000.00,21000.00,M,M,M,M,M,M,M,M,M,55.00,KRNO 281255Z 27006KT 10SM FEW100 FEW210 13/01 A3016 RMK AO2 SLP164 T01280006,M
MEV,2022-09-28 12:55,-119.7500,38.9963,1441.42,44.60,28.40,52.72,0.00,0.00,0.00,30.18,M,10.00,M,CLR,M,M,M,M,M,M,M,M,M,M,M,M,M,M,44.60,KMEV 281255Z AUTO 00000KT 10SM CLR 07/M02 A3018 RMK AO2,M
HTH,2022-09-28 12:55,-118.6315,38.5448,1282.89,59.00,26.60,28.77,120.00,6.00,0.00,30.16,M,10.00,M,CLR,M,M,M,M,M,M,M,M,M,M,M,M,M,M,59.00,KHTH 281255Z AUTO 12006KT 10SM CLR 15/M03 A3016 RMK A01,M
05U,2022-09-28 12:55,-116.0051,39.6042,1811.23,46.40,23.00,39.36,190.00,6.00,0.00,30.27,M,10.00,M,CLR,M,M,M,M,M,M,M,M,M,M,M,M,M,M,42.87,K05U 281255Z AUTO 19006KT 10SM CLR 08/M05 A3027 RMK A01,M
BAM,2022-09-28 12:55,-116.8743,40.5990,1382.36,51.80,28.40,40.25,0.00,0.00,0.00,30.16,M,10.00,M,CLR,M,M,M,M,M,M,M,M,M,M,M,M,M,M,51.80,KBAM 281255Z AUTO 00000KT 10SM CLR 11/M02 A3016 RMK AO1,M
RTS,2022-09-28 12:55,-119.8764,39.6682,1539.00,46.40,26.60,45.73,340.00,4.00,0.00,30.19,M,10.00,M,CLR,M,M,M,M,M,M,M,M,M,M,M,M,M,M,44.24,KRTS 281255Z AUTO 34004KT 10SM CLR 08/M03 A3019 RMK AO2,M
LSV,2022-09-28 12:55,-115.0343,36.2362,570.00,81.70,45.30,27.83,80.00,10.00,0.00,29.98,1012.60,10.00,M,SCT,BKN,M,M,11000.00,14000.00,M,M,VCTS,M,M,M,M,M,M,80.12,KLSV 281255Z COR AUTO 08010KT 10SM VCTS SCT110 BKN140 28/07 A2998 RMK AO2 SLP126 T02760074 $ COR 1318,M
TMT,2022-09-28 12:55,-117.1971,39.4643,1749.34,35.60,24.40,63.40,120.00,4.00,0.00,30.26,M,10.00,M,CLR,M,M,M,M,M,M,M,M,M,M,M,M,M,M,31.62,KTMT 281255Z AUTO 12004KT 10SM CLR 02/M04 A3026 RMK AO2 T00201042,M
BVU,2022-09-28 12:55,-114.8611,35.9475,671.00,77.00,57.20,50.43,0.00,0.00,0.00,30.05,M,M,11.00,M,M,M,M,M,M,M,M,-RA,M,M,M,M,M,M,77.00,KBVU 281255Z AUTO 00000G11KT -RA 25/14 A3005 RMK AO2 TSNO,M
CXP,2022-09-28 12:55,-119.7326,39.1923,1431.00,48.20,24.80,39.66,300.00,4.00,0.00,30.19,M,10.00,M,CLR,M,M,M,M,M,M,M,M,M,M,M,M,M,M,46.34,KCXP 281255Z AUTO 30004KT 10SM CLR 09/M04 A3019 RMK AO2,M
LAS,2022-09-28 12:56,-115.1634,36.0719,663.00,81.00,46.00,29.23,0.00,0.00,0.00,30.04,1014.30,10.00,M,FEW,BKN,BKN,M,7500.00,10000.00,15000.00,M,TS,M,M,M,M,M,M,79.76,KLAS 281256Z 00000KT 10SM TS FEW075 BKN100CB BKN150 27/08 A3004 RMK AO2 LTG DSNT ALQDS TSB43 SLP143 FRQ LTGICCG E AND W-NW AND DSNT SE-S TSE13B40 TS E AND W-NW MOV N CB DSNT SE-S T02720078,M
INS,2022-09-28 12:56,-115.6733,36.5872,955.00,68.20,35.60,30.00,220.00,4.00,0.00,30.08,1014.00,10.00,M,CLR,M,M,M,M,M,M,M,M,M,M,M,M,M,M,68.20,KINS 281256Z AUTO 22004KT 10SM CLR 20/02 A3008 RMK AO2 LTG DSNT SE SLP140 T02010020 $,M
EKO,2022-09-28 12:56,-115.7860,40.8242,1367.00,43.00,25.00,48.70,130.00,3.00,0.00,30.20,1019.20,10.00,M,CLR,M,M,M,M,M,M,M,M,M,M,M,M,M,M,41.26,KEKO 281256Z AUTO 13003KT 10SM CLR 06/M04 A3020 RMK AO2 SLP192 T00611039,M
WMC,2022-09-28 12:56,-117.8072,40.9019,1315.00,50.00,30.90,47.64,160.00,3.00,0.00,30.14,1016.30,10.00,M,CLR,M,M,M,M,M,M,M,M,M,M,M,M,M,M,50.00,KWMC 281256Z AUTO 16003KT 10SM CLR 10/M01 A3014 RMK AO2 SLP163 T01001006,M
HND,2022-09-28 12:56,-115.1344,35.9729,742.79,78.00,59.00,51.88,130.00,6.00,T,30.06,1016.70,10.00,M,BKN,M,M,M,10000.00,M,M,M,VCTS,M,M,M,M,M,M,78.10,KHND 281256Z 13006KT 10SM VCTS BKN100 26/15 A3006 RMK AO2 LTG DSNT ALQDS RAB25E41 SLP167 P0000 T02560150,M
TPH,2022-09-28 12:56,-117.0904,38.0505,1654.00,53.00,25.00,33.34,360.00,11.00,0.00,30.24,1017.40,10.00,M,CLR,M,M,M,M,M,M,M,M,M,M,M,M,M,M,53.10,KTPH 281256Z AUTO 36011KT 10SM CLR 12/M04 A3024 RMK AO2 SLP174 T01171039,M
NFL,2022-09-28 12:56,-118.7010,39.4166,1199.00,54.00,33.00,44.92,120.00,4.00,0.00,30.12,1016.60,10.00,M,CLR,M,M,M,M,M,M,M,M,M,M,M,M,M,M,54.00,KNFL 281256Z AUTO 12004KT 10SM CLR 12/01 A3012 RMK AO2 SLP166 T01220006,M
05U,2022-09-28 13:15,-116.0051,39.6042,1811.23,44.60,23.00,42.14,190.00,5.00,0.00,30.27,M,10.00,M,CLR,M,M,M,M,M,M,M,M,M,M,M,M,M,M,41.36,K05U 281315Z AUTO 19005KT 10SM CLR 07/M05 A3027 RMK A01,M
TMT,2022-09-28 13:15,-117.1971,39.4643,1749.34,37.00,25.00,61.75,0.00,0.00,0.00,30.27,M,10.00,M,CLR,M,M,M,M,M,M,M,M,M,M,M,M,M,M,36.90,KTMT 281315Z AUTO 00000KT 10SM CLR 03/M04 A3027 RMK AO2 T00271039,M
MEV,2022-09-28 13:15,-119.7500,38.9963,1441.42,41.00,26.60,56.22,130.00,4.00,0.00,30.18,M,10.00,M,CLR,M,M,M,M,M,M,M,M,M,M,M,M,M,M,37.93,KMEV 281315Z AUTO 13004KT 10SM CLR 05/M03 A3018 RMK AO2,M
BVU,2022-09-28 13:15,-114.8611,35.9475,671.00,73.40,59.00,60.67,M,4.00,0.00,30.08,M,M,M,M,M,M,M,M,M,M,M,RA,M,M,M,M,M,M,73.40,KBVU 281315Z AUTO VRB04KT RA 23/15 A3008 RMK AO2 TSNO,M
CXP,2022-09-28 13:15,-119.7326,39.1923,1431.00,51.80,26.60,37.38,0.00,0.00,0.00,30.19,M,10.00,M,CLR,M,M,M,M,M,M,M,M,M,M,M,M,M,M,51.80,KCXP 281315Z AUTO 00000KT 10SM CLR 11/M03 A3019 RMK AO2,M
HTH,2022-09-28 13:15,-118.6315,38.5448,1282.89,60.80,30.20,31.28,210.00,5.00,0.00,30.16,M,10.00,M,CLR,M,M,M,M,M,M,M,M,M,M,M,M,M,M,60.80,KHTH 281315Z AUTO 21005KT 10SM CLR 16/M01 A3016 RMK A01,M
BAM,2022-09-28 13:15,-116.8743,40.5990,1382.36,46.40,26.60,45.73,130.00,4.00,0.00,30.17,M,10.00,M,CLR,M,M,M,M,M,M,M,M,M,M,M,M,M,M,44.24,KBAM 281315Z AUTO 13004KT 10SM CLR 08/M03 A3017 RMK AO1,M
RTS,2022-09-28 13:15,-119.8764,39.6682,1539.00,44.60,26.60,48.96,20.00,3.00,0.00,30.18,M,10.00,M,CLR,M,M,M,M,M,M,M,M,M,M,M,M,M,M,43.09,KRTS 281315Z AUTO 02003KT 10SM CLR 07/M03 A3018 RMK AO2,M
VGT,2022-09-28 13:16,-115.1933,36.2111,667.00,79.00,57.00,46.87,120.00,6.00,0.01,30.03,M,10.00,M,BKN,BKN,M,M,10000.00,12000.00,M,M,-RA,M,M,M,M,M,M,79.00,KVGT 281316Z AUTO 12006KT 10SM -RA BKN100 BKN120 26/14 A3003 RMK AO2 LTG DSNT ALQDS RAB1259 TSE10 P0001 T02610139,M
VGT,2022-09-28 13:21,-115.1933,36.2111,667.00,80.00,55.00,42.05,120.00,9.00,0.01,30.04,M,10.00,M,BKN,BKN,M,M,10000.00,12000.00,M,M,TS,M,M,M,M,M,M,80.17,KVGT 281321Z AUTO 12009KT 10SM TS BKN100 BKN120 27/13 A3004 RMK AO2 LTG DSNT ALQDS RAB1259E18 TSE10B21 P0001 T02670128,M
LSV,2022-09-28 13:21,-115.0343,36.2362,570.00,80.60,48.20,32.18,100.00,6.00,0.00,30.01,1013.70,9.00,M,BKN,M,M,M,10000.00,M,M,M,VCTS -RA,M,M,M,M,M,M,79.71,KLSV 281321Z AUTO 10006KT 9SM VCTS -RA BKN100 27/09 A3001 RMK AO2 RAB21 PRESRR SLP137 $,M
HTH,2022-09-28 13:35,-118.6315,38.5448,1282.89,59.00,28.40,30.98,0.00,0.00,0.00,30.17,M,10.00,M,CLR,M,M,M,M,M,M,M,M,M,M,M,M,M,M,59.00,KHTH 281335Z AUTO 00000KT 10SM CLR 15/M02 A3017 RMK A01,M
TMT,2022-09-28 13:35,-117.1971,39.4643,1749.34,35.60,25.20,65.55,290.00,3.00,0.00,30.28,M,10.00,M,CLR,M,M,M,M,M,M,M,M,M,M,M,M,M,M,32.80,KTMT 281335Z AUTO 29003KT 10SM CLR 02/M04 A3028 RMK AO2 T00201038,M
BAM,2022-09-28 13:35,-116.8743,40.5990,1382.36,46.40,26.60,45.73,40.00,4.00,0.00,30.17,M,10.00,M,CLR,M,M,M,M,M,M,M,M,M,M,M,M,M,M,44.24,KBAM 281335Z AUTO 04004KT 10SM CLR 08/M03 A3017 RMK AO1,M
MEV,2022-09-28 13:35,-119.7500,38.9963,1441.42,39.20,26.60,60.29,240.00,4.00,0.00,30.18,M,10.00,10.00,CLR,M,M,M,M,M,M,M,M,M,M,M,M,M,M,35.83,KMEV 281335Z AUTO 24004G10KT 10SM CLR 04/M03 A3018 RMK AO2,M
05U,2022-09-28 13:35,-116.0051,39.6042,1811.23,44.60,23.00,42.14,190.00,5.00,0.00,30.27,M,10.00,M,CLR,M,M,M,M,M,M,M,M,M,M,M,M,M,M,41.36,K05U 281335Z AUTO 19005KT 10SM CLR 07/M05 A3027 RMK A01,M
RTS,2022-09-28 13:35,-119.8764,39.6682,1539.00,44.60,26.60,48.96,0.00,0.00,0.00,30.19,M,10.00,M,CLR,M,M,M,M,M,M,M,M,M,M,M,M,M,M,44.60,KRTS 281335Z AUTO 00000KT 10SM CLR 07/M03 A3019 RMK AO2,M
CXP,2022-09-28 13:35,-119.7326,39.1923,1431.00,48.20,28.40,46.02,0.00,0.00,0.00,30.19,M,10.00,M,CLR,M,M,M,M,M,M,M,M,M,M,M,M,M,M,48.20,KCXP 281335Z AUTO 00000KT 10SM CLR 09/M02 A3019 RMK AO2,M
BVU,2022-09-28 13:35,-114.8611,35.9475,671.00,71.60,60.80,68.75,300.00,9.00,0.00,30.08,M,M,M,M,M,M,M,M,M,M,M,-RA,M,M,M,M,M,M,71.60,KBVU 281335Z AUTO 30009KT -RA 22/16 A3008 RMK AO2 TSNO,M
LSV,2022-09-28 13:48,-115.0343,36.2362,570.00,75.20,53.60,46.98,0.00,0.00,0.00,30.04,M,10.00,M,FEW,M,M,M,4700.00,M,M,M,-TSRA,M,M,M,M,M,M,75.20,KLSV 281348Z AUTO 00000KT 10SM -TSRA FEW047 24/12 A3004 RMK AO2 RAB21 TSB48 PRESRR SLPNO $,M
P68,2022-09-28 13:53,-116.0056,39.6014,1993.00,48.00,24.10,38.80,200.00,7.00,0.00,30.26,1018.80,M,M,M,M,M,M,M,M,M,M,M,M,M,M,M,M,M,44.28,KP68 281353Z AUTO 20007KT 09/M04 A3026 RMK AO1 SLP188 T00891044,M
DRA,2022-09-28 13:53,-116.0278,36.6206,1009.00,67.00,37.00,33.16,M,3.00,0.00,30.10,1014.70,10.00,M,CLR,M,M,M,M,M,M,M,M,M,M,M,M,M,M,66.90,KDRA 281353Z AUTO VRB03KT 10SM CLR 19/03 A3010 RMK AO2 SLP147 T01940028,M
VGT,2022-09-28 13:53,-115.1933,36.2111,667.00,77.00,57.00,50.07,60.00,14.00,0.01,30.05,1016.60,10.00,M,FEW,BKN,OVC,M,4000.00,10000.00,12000.00,M,TS,M,M,M,M,M,M,77.00,KVGT 281353Z 06014KT 10SM TS FEW040 BKN100 OVC120 25/14 A3005 RMK AO2 LTG DSNT ALQDS RAB1259E18B34E53 TSE10B21 SLP166 P0001 T02500139,M
LOL,2022-09-28 13:53,-118.5701,40.0684,1192.43,44.00,28.90,54.85,160.00,3.00,0.00,30.13,1018.10,10.00,M,CLR,M,M,M,M,M,M,M,M,M,M,M,M,M,M,42.52,KLOL 281353Z AUTO 16003KT 10SM CLR 07/M02 A3013 RMK AO2 SLP181 T00671017,M
LSV,2022-09-28 13:53,-115.0343,36.2362,570.00,75.20,53.60,46.98,0.00,0.00,0.00,30.05,M,10.00,M,FEW,M,M,M,4800.00,M,M,M,TS,M,M,M,M,M,M,75.20,KLSV 281353Z AUTO 00000KT 10SM TS FEW048 24/12 A3005 RMK AO2 RAB21E53 TSB48 SLPNO $,M
ELY,2022-09-28 13:53,-114.8453,39.2950,1909.00,42.00,33.00,70.20,200.00,5.00,0.00,30.31,1020.90,10.00,M,CLR,M,M,M,M,M,M,M,M,M,M,M,M,M,M,38.39,KELY 281353Z AUTO 20005KT 10SM CLR 06/01 A3031 RMK AO2 SLP209 T00560006,M
RTS,2022-09-28 13:55,-119.8764,39.6682,1539.00,44.60,26.60,48.96,20.00,5.00,0.00,30.19,M,10.00,M,CLR,M,M,M,M,M,M,M,M,M,M,M,M,M,M,41.36,KRTS 281355Z AUTO 02005KT 10SM CLR 07/M03 A3019 RMK AO2,M
LSV,2022-09-28 13:55,-115.0343,36.2362,570.00,75.20,53.00,46.13,0.00,0.00,0.03,30.05,M,10.00,M,FEW,M,M,M,4800.00,M,M,M,TS,M,M,M,M,M,M,75.20,KLSV 281355Z AUTO 00000KT 10SM TS FEW048 24/12 A3005 RMK AO2 RAB21E53 TSB48 SLPNO P0003 T02400117 $,M
BVU,2022-09-28 13:55,-114.8611,35.9475,671.00,71.60,60.80,68.75,340.00,12.00,0.00,30.07,M,M,M,M,M,M,M,M,M,M,M,-DZ,M,M,M,M,M,M,71.60,KBVU 281355Z AUTO 34012KT -DZ 22/16 A3007 RMK AO2 TSNO,M
CXP,2022-09-28 13:55,-119.7326,39.1923,1431.00,46.40,26.60,45.73,0.00,0.00,0.00,30.19,M,10.00,M,CLR,M,M,M,M,M,M,M,M,M,M,M,M,M,M,46.40,KCXP 281355Z AUTO 00000KT 10SM CLR 08/M03 A3019 RMK AO2,M
RNO,2022-09-28 13:55,-119.7711,39.4839,1341.00,51.00,34.00,51.81,150.00,3.00,0.00,30.16,1017.00,10.00,M,FEW,FEW,M,M,11000.00,21000.00,M,M,M,M,M,M,M,M,M,51.10,KRNO 281355Z 15003KT 10SM FEW110 FEW210 11/01 A3016 RMK AO2 SLP170 T01060011,M
TMT,2022-09-28 13:55,-117.1971,39.4643,1749.34,36.50,25.50,64.05,300.00,4.00,0.00,30.28,M,10.00,M,CLR,M,M,M,M,M,M,M,M,M,M,M,M,M,M,32.68,KTMT 281355Z AUTO 30004KT 10SM CLR 03/M04 A3028 RMK AO2 T00251036,M
HTH,2022-09-28 13:55,-118.6315,38.5448,1282.89,59.00,28.40,30.98,0.00,0.00,0.00,30.17,M,10.00,M,CLR,M,M,M,M,M,M,M,M,M,M,M,M,M,M,59.00,KHTH 281355Z AUTO 00000KT 10SM CLR 15/M02 A3017 RMK A01,M
BAM,2022-09-28 13:55,-116.8743,40.5990,1382.36,46.40,26.60,45.73,90.00,3.00,0.00,30.18,M,10.00,M,CLR,M,M,M,M,M,M,M,M,M,M,M,M,M,M,45.15,KBAM 281355Z AUTO 09003KT 10SM CLR 08/M03 A3018 RMK AO1,M
MEV,2022-09-28 13:55,-119.7500,38.9963,1441.42,41.00,26.60,56.22,210.00,3.00,0.00,30.18,M,10.00,M,CLR,M,M,M,M,M,M,M,M,M,M,M,M,M,M,38.98,KMEV 281355Z AUTO 21003KT 10SM CLR 05/M03 A3018 RMK AO2,M
05U,2022-09-28 13:55,-116.0051,39.6042,1811.23,46.40,23.00,39.36,210.00,6.00,0.00,30.28,M,10.00,M,CLR,M,M,M,M,M,M,M,M,M,M,M,M,M,M,42.87,K05U 281355Z AUTO 21006KT 10SM CLR 08/M05 A3028 RMK A01,M
TPH,2022-09-28 13:56,-117.0904,38.0505,1654.00,53.00,25.00,33.34,360.00,10.00,0.00,30.25,1018.70,10.00,M,CLR,M,M,M,M,M,M,M,M,M,M,M,M,M,M,53.10,KTPH 281356Z AUTO 36010KT 10SM CLR 12/M04 A3025 RMK AO2 SLP187 T01171039,M
NFL,2022-09-28 13:56,-118.7010,39.4166,1199.00,57.00,33.00,40.28,140.00,5.00,0.00,30.13,1016.80,9.00,M,CLR,M,M,M,M,M,M,M,M,M,M,M,M,M,M,57.00,KNFL 281356Z AUTO 14005KT 9SM CLR 14/01 A3013 RMK AO2 SLP168 T01390006,M
WMC,2022-09-28 13:56,-117.8072,40.9019,1315.00,47.00,28.90,49.32,90.00,3.00,0.00,30.15,1017.70,10.00,M,CLR,M,M,M,M,M,M,M,M,M,M,M,M,M,M,45.72,KWMC 281356Z AUTO 09003KT 10SM CLR 08/M02 A3015 RMK AO2 SLP177 T00831017,M
LAS,2022-09-28 13:56,-115.1634,36.0719,663.00,74.00,61.00,64.07,100.00,7.00,0.09,30.07,1015.60,9.00,M,FEW,BKN,BKN,M,7500.00,10000.00,15000.00,M,-TSRA,M,M,M,M,M,M,73.90,KLAS 281356Z 10007KT 9SM -TSRA FEW075 BKN100CB BKN150 23/16 A3007 RMK AO2 LTG DSNT ALQDS RAB09 SLP156 OCNL LTGICCG OHD-N TSE13B40 TS OHD-NS MOV N P0009 T02330161,M
INS,2022-09-28 13:56,-115.6733,36.5872,955.00,65.00,35.00,32.97,0.00,0.00,0.00,30.10,1015.00,10.00,M,CLR,M,M,M,M,M,M,M,M,M,M,M,M,M,M,64.90,KINS 281356Z AUTO 00000KT 10SM CLR 18/02 A3010 RMK AO2 LTG DSNT NW SLP150 T01830017 $,M
EKO,2022-09-28 13:56,-115.7860,40.8242,1367.00,44.00,24.10,44.98,60.00,4.00,0.00,30.22,1020.20,10.00,M,CLR,M,M,M,M,M,M,M,M,M,M,M,M,M,M,41.55,KEKO 281356Z AUTO 06004KT 10SM CLR 07/M04 A3022 RMK AO2 SLP202 T00671044,M
HND,2022-09-28 13:56,-115.1344,35.9729,742.79,76.00,61.00,59.92,150.00,10.00,0.02,30.10,1018.00,9.00,M,OVC,M,M,M,9500.00,M,M,M,-TSRA,M,M,M,M,M,M,75.90,KHND 281356Z 15010KT 9SM -TSRA OVC095 24/16 A3010 RMK AO2 LTG DSNT N-E RAB12E35B55 SLP180 P0002 T02440161,M
LSV,2022-09-28 14:00,-115.0343,36.2362,570.00,75.20,55.40,50.17,50.00,5.00,0.00,30.05,M,10.00,M,FEW,M,M,M,4800.00,M,M,M,TS -DZ,M,M,M,M,M,M,75.20,KLSV 281400Z AUTO 05005KT 10SM TS -DZ FEW048 24/13 A3005 RMK AO2 DZB00 SLPNO $,M
LSV,2022-09-28 14:03,-115.0343,36.2362,570.00,75.20,53.60,46.98,50.00,7.00,0.00,30.05,M,10.00,M,FEW,M,M,M,4800.00,M,M,M,VCTS -RA,M,M,M,M,M,M,75.20,KLSV 281403Z COR AUTO 05007KT 10SM VCTS -RA FEW048CB 24/12 A3005 RMK AO2 RAB00 TSE03 SLPNO $ COR 1413,M
VGT,2022-09-28 14:08,-115.1933,36.2111,667.00,78.00,54.00,43.30,80.00,12.00,0.00,30.07,M,10.00,19.00,BKN,M,M,M,10000.00,M,M,M,TS,M,M,M,M,M,M,78.10,KVGT 281408Z 08012G19KT 10SM TS BKN100 26/12 A3007 RMK AO2 WSHFT 1348 LTG DSNT N-SE T02560122,M
CXP,2022-09-28 14:15,-119.7326,39.1923,1431.00,48.20,28.40,46.02,0.00,0.00,0.00,30.19,M,10.00,M,CLR,M,M,M,M,M,M,M,M,M,M,M,M,M,M,48.20,KCXP 281415Z AUTO 00000KT 10SM CLR 09/M02 A3019 RMK AO2,M
TMT,2022-09-28 14:15,-117.1971,39.4643,1749.34,39.20,25.70,58.08,290.00,3.00,0.00,30.28,M,10.00,M,CLR,M,M,M,M,M,M,M,M,M,M,M,M,M,M,36.92,KTMT 281415Z AUTO 29003KT 10SM CLR 04/M03 A3028 RMK AO2 T00401035,M
05U,2022-09-28 14:15,-116.0051,39.6042,1811.23,46.40,23.00,39.36,210.00,4.00,0.00,30.28,M,10.00,M,CLR,M,M,M,M,M,M,M,M,M,M,M,M,M,M,44.24,K05U 281415Z AUTO 21004KT 10SM CLR 08/M05 A3028 RMK A01,M
MEV,2022-09-28 14:15,-119.7500,38.9963,1441.42,37.40,26.60,64.70,140.00,5.00,0.00,30.18,M,10.00,M,CLR,M,M,M,M,M,M,M,M,M,M,M,M,M,M,32.81,KMEV 281415Z AUTO 14005KT 10SM CLR 03/M03 A3018 RMK AO2,M
BAM,2022-09-28 14:15,-116.8743,40.5990,1382.36,46.40,24.80,42.44,70.00,3.00,0.00,30.19,M,10.00,M,CLR,M,M,M,M,M,M,M,M,M,M,M,M,M,M,45.15,KBAM 281415Z AUTO 07003KT 10SM CLR 08/M04 A3019 RMK AO1,M
HTH,2022-09-28 14:15,-118.6315,38.5448,1282.89,60.80,26.60,26.98,160.00,7.00,0.00,30.17,M,10.00,M,CLR,M,M,M,M,M,M,M,M,M,M,M,M,M,M,60.80,KHTH 281415Z AUTO 16007KT 10SM CLR 16/M03 A3017 RMK A01,M
LSV,2022-09-28 14:15,-115.0343,36.2362,570.00,75.20,57.20,53.55,50.00,11.00,0.00,30.05,M,10.00,M,CLR,M,M,M,M,M,M,M,VCTS,M,M,M,M,M,M,75.20,KLSV 281415Z AUTO 05011KT 10SM VCTS CLR 24/14 A3005 RMK AO2 DZB00E15 TSE03 SLPNO $,M
BVU,2022-09-28 14:15,-114.8611,35.9475,671.00,75.20,59.00,57.12,340.00,14.00,0.00,30.07,M,M,M,M,M,M,M,M,M,M,M,M,M,M,M,M,M,M,75.20,KBVU 281415Z AUTO 34014KT 24/15 A3007 RMK AO2 TSNO,M
RTS,2022-09-28 14:15,-119.8764,39.6682,1539.00,44.60,26.60,48.96,10.00,3.00,0.00,30.19,M,10.00,M,CLR,M,M,M,M,M,M,M,M,M,M,M,M,M,M,43.09,KRTS 281415Z AUTO 01003KT 10SM CLR 07/M03 A3019 RMK AO2,M
VGT,2022-09-28 14:17,-115.1933,36.2111,667.00,78.00,54.00,43.30,110.00,10.00,0.00,30.08,M,10.00,M,BKN,M,M,M,10000.00,M,M,M,VCTS,M,M,M,M,M,M,78.10,KVGT 281417Z 11010KT 10SM VCTS BKN100 26/12 A3008 RMK AO2 WSHFT 1348 LTG DSNT ALQDS TSE11 T02560122,M
HND,2022-09-28 14:17,-115.1344,35.9729,742.79,71.60,57.20,60.44,110.00,10.00,0.07,30.09,M,10.00,M,FEW,OVC,M,M,2300.00,10000.00,M,M,-TSRA,M,M,M,M,M,M,71.60,KHND 281417Z 11010KT 10SM -TSRA FEW023 OVC100 22/14 A3009 RMK AO2 WSHFT 1357 LTG DSNT N AND NE AND SW P0007,M
LSV,2022-09-28 14:17,-115.0343,36.2362,570.00,75.20,59.00,57.12,50.00,12.00,0.00,30.05,M,10.00,M,CLR,M,M,M,M,M,M,M,VCTS -DZ,M,M,M,M,M,M,75.20,KLSV 281417Z AUTO 05012KT 10SM VCTS -DZ CLR 24/15 A3005 RMK AO2 DZB00E15DZB17 TSE03 SLPNO $,M
LSV,2022-09-28 14:18,-115.0343,36.2362,570.00,75.20,59.00,57.12,60.00,12.00,0.00,30.05,M,10.00,M,CLR,M,M,M,M,M,M,M,M,M,M,M,M,M,M,75.20,KLSV 281418Z AUTO 06012KT 10SM CLR 24/15 A3005 RMK AO2 LTG DSNT NW-NE AND S DZB00E15DZB17E18 TSE03 SLPNO $,M
LSV,2022-09-28 14:19,-115.0343,36.2362,570.00,75.20,59.00,57.12,60.00,12.00,0.00,30.05,M,10.00,M,CLR,M,M,M,M,M,M,M,-DZ,M,M,M,M,M,M,75.20,KLSV 281419Z 06012KT 10SM -DZ CLR 24/15 A3005 RMK AO2A LTG DSNT NW-NE AND S DZB00E15DZB17E18DZB19 TSE03 SLPNO $,M
VGT,2022-09-28 14:27,-115.1933,36.2111,667.00,76.00,58.00,53.64,100.00,4.00,0.00,30.10,M,10.00,M,BKN,BKN,M,M,10000.00,12000.00,M,M,M,M,M,M,M,M,M,75.90,KVGT 281427Z 10004KT 10SM BKN100 BKN120 24/14 A3010 RMK AO2 WSHFT 1348 LTG DSNT ALQDS TSE11 PRESRR T02440144,M
HTH,2022-09-28 14:35,-118.6315,38.5448,1282.89,62.60,26.60,25.32,160.00,6.00,0.00,30.17,M,10.00,M,CLR,M,M,M,M,M,M,M,M,M,M,M,M,M,M,62.60,KHTH 281435Z AUTO 16006KT 10SM CLR 17/M03 A3017 RMK A01,M
BVU,2022-09-28 14:35,-114.8611,35.9475,671.00,77.00,55.40,47.25,360.00,15.00,0.00,30.06,M,M,M,M,M,M,M,M,M,M,M,-RA,M,M,M,M,M,M,77.00,KBVU 281435Z AUTO 36015KT -RA 25/13 A3006 RMK AO2 TSNO,M
CXP,2022-09-28 14:35,-119.7326,39.1923,1431.00,50.00,28.40,43.03,0.00,0.00,0.00,30.19,M,10.00,M,CLR,M,M,M,M,M,M,M,M,M,M,M,M,M,M,50.00,KCXP 281435Z AUTO 00000KT 10SM CLR 10/M02 A3019 RMK AO2,M
RTS,2022-09-28 14:35,-119.8764,39.6682,1539.00,48.20,28.40,46.02,140.00,5.00,0.00,30.20,M,10.00,M,CLR,M,M,M,M,M,M,M,M,M,M,M,M,M,M,45.63,KRTS 281435Z AUTO 14005KT 10SM CLR 09/M02 A3020 RMK AO2,M
05U,2022-09-28 14:35,-116.0051,39.6042,1811.23,51.80,24.80,34.69,0.00,0.00,0.00,30.28,M,10.00,M,CLR,M,M,M,M,M,M,M,M,M,M,M,M,M,M,51.80,K05U 281435Z AUTO 00000KT 10SM CLR 11/M04 A3028 RMK A01,M
MEV,2022-09-28 14:35,-119.7500,38.9963,1441.42,42.80,28.40,56.48,260.00,6.00,0.00,30.19,M,9.00,M,CLR,M,M,M,M,M,M,M,M,M,M,M,M,M,M,38.54,KMEV 281435Z AUTO 26006KT 9SM CLR 06/M02 A3019 RMK AO2,M
BAM,2022-09-28 14:35,-116.8743,40.5990,1382.36,53.60,28.40,37.67,0.00,0.00,0.00,30.19,M,10.00,M,CLR,M,M,M,M,M,M,M,M,M,M,M,M,M,M,53.60,KBAM 281435Z AUTO 00000KT 10SM CLR 12/M02 A3019 RMK AO1,M
TMT,2022-09-28 14:35,-117.1971,39.4643,1749.34,40.30,26.40,57.29,130.00,3.00,0.00,30.28,M,10.00,M,CLR,M,M,M,M,M,M,M,M,M,M,M,M,M,M,38.18,KTMT 281435Z AUTO 13003KT 10SM CLR 05/M03 A3028 RMK AO2 T00461031,M
VGT,2022-09-28 14:38,-115.1933,36.2111,667.00,76.00,60.00,58.04,50.00,9.00,0.00,30.10,M,10.00,M,BKN,M,M,M,10000.00,M,M,M,VCTS,M,M,M,M,M,M,75.90,KVGT 281438Z 05009KT 10SM VCTS BKN100 24/16 A3010 RMK AO2 WSHFT 1348 LTG DSNT ALQDS TSE11 T02440156,M
NFL,2022-09-28 14:39,-118.7010,39.4166,1199.00,59.00,34.00,38.87,140.00,6.00,0.00,30.13,M,9.00,M,SCT,SCT,M,M,10000.00,17000.00,M,M,M,M,M,M,M,M,M,59.00,KNFL 281439Z 14006KT 9SM SCT100 SCT170 15/01 A3013 RMK AO2 T01500011,M
VGT,2022-09-28 14:46,-115.1933,36.2111,667.00,77.00,59.00,53.80,60.00,7.00,0.00,30.10,M,10.00,M,SCT,M,M,M,10000.00,M,M,M,TS,M,M,M,M,M,M,77.00,KVGT 281446Z 06007KT 10SM TS SCT100 25/15 A3010 RMK AO2 WSHFT 1348 LTG DSNT ALQDS TSE11B40 T02500150,M
VGT,2022-09-28 14:53,-115.1933,36.2111,667.00,76.00,60.00,58.04,40.00,6.00,0.00,30.09,1018.20,10.00,M,SCT,M,M,M,10000.00,M,M,M,TS,M,M,M,M,M,M,75.90,KVGT 281453Z 04006KT 10SM TS SCT100 24/16 A3009 RMK AO2 WSHFT 1348 LTG DSNT ALQDS TSE11B40 SLP182 60001 T02440156 53030,M
P68,2022-09-28 14:53,-116.0056,39.6014,1993.00,56.00,26.10,31.51,210.00,5.00,0.00,30.26,1018.60,M,M,M,M,M,M,M,M,M,M,M,M,M,M,M,M,M,55.90,KP68 281453Z AUTO 21005KT 13/M03 A3026 RMK AO1 SLP186 T01331033 53005,M
DRA,2022-09-28 14:53,-116.0278,36.6206,1009.00,71.00,38.00,29.74,10.00,3.00,0.00,30.11,1015.20,10.00,M,CLR,M,M,M,M,M,M,M,M,M,M,M,M,M,M,71.10,KDRA 281453Z AUTO 01003KT 10SM CLR 22/03 A3011 RMK AO2 SLP152 T02170033 53013,M
ELY,2022-09-28 14:53,-114.8453,39.2950,1909.00,54.00,37.00,52.45,200.00,10.00,0.00,30.32,1020.10,10.00,M,CLR,M,M,M,M,M,M,M,M,M,M,M,M,M,M,54.00,KELY 281453Z AUTO 20010KT 10SM CLR 12/03 A3032 RMK AO2 SLP201 T01220028 53008,M
LOL,2022-09-28 14:53,-118.5701,40.0684,1192.43,49.00,30.90,49.63,80.00,5.00,0.00,30.13,1018.10,10.00,M,CLR,M,M,M,M,M,M,M,M,M,M,M,M,M,M,46.47,KLOL 281453Z AUTO 08005KT 10SM CLR 09/M01 A3013 RMK AO2 SLP181 T00941006 51005,M
TMT,2022-09-28 14:55,-117.1971,39.4643,1749.34,44.00,27.90,52.65,130.00,3.00,0.00,30.28,M,10.00,M,CLR,M,M,M,M,M,M,M,M,M,M,M,M,M,M,42.52,KTMT 281455Z AUTO 13003KT 10SM CLR 07/M02 A3028 RMK AO2 T00671023,M
CXP,2022-09-28 14:55,-119.7326,39.1923,1431.00,51.80,32.00,46.59,0.00,0.00,0.00,30.20,M,10.00,M,CLR,M,M,M,M,M,M,M,M,M,M,M,M,M,M,51.80,KCXP 281455Z AUTO 00000KT 10SM CLR 11/M00 A3020 RMK AO2,M
LSV,2022-09-28 14:55,-115.0343,36.2362,570.00,74.00,61.30,64.75,70.00,9.00,0.03,30.07,M,10.00,M,SCT,M,M,M,10000.00,M,M,M,-TSRA,M,M,M,M,M,M,73.90,KLSV 281455Z AUTO 07009KT 10SM -TSRA SCT100 23/16 A3007 RMK AO2 RAB1350E1353DZB00E15DZB17E18DZB19E26RAB26E43DZB43E46RAB46 TSB1353E03TSB55 SLPNO P0003 60006 T02330163 52034 $,M
BVU,2022-09-28 14:55,-114.8611,35.9475,671.00,M,M,M,M,M,0.00,M,M,M,M,M,M,M,M,M,M,M,M,M,M,M,M,M,M,M,M,KBVU 281455Z AUTO RMK AO2 PNO PWINO TSNO,M
RTS,2022-09-28 14:55,-119.8764,39.6682,1539.00,50.00,28.40,43.03,0.00,0.00,0.00,30.19,M,10.00,M,CLR,M,M,M,M,M,M,M,M,M,M,M,M,M,M,50.00,KRTS 281455Z AUTO 00000KT 10SM CLR 10/M02 A3019 RMK AO2,M
RNO,2022-09-28 14:55,-119.7711,39.4839,1341.00,55.00,35.00,46.91,0.00,0.00,0.00,30.16,1016.90,10.00,M,FEW,FEW,M,M,11000.00,21000.00,M,M,M,M,M,M,M,M,M,55.00,KRNO 281455Z 00000KT 10SM FEW110 FEW210 13/02 A3016 RMK AO2 SLP169 ACSL DSNT NW T01280017 52002,M
05U,2022-09-28 14:55,-116.0051,39.6042,1811.23,57.20,24.80,28.48,210.00,5.00,0.00,30.29,M,10.00,M,CLR,M,M,M,M,M,M,M,M,M,M,M,M,M,M,57.20,K05U 281455Z AUTO 21005KT 10SM CLR 14/M04 A3029 RMK A01,M
MEV,2022-09-28 14:55,-119.7500,38.9963,1441.42,50.00,30.20,46.31,0.00,0.00,0.00,30.18,M,8.00,M,CLR,M,M,M,M,M,M,M,M,M,M,M,M,M,M,50.00,KMEV 281455Z AUTO 00000KT 8SM CLR 10/M01 A3018 RMK AO2,M
BAM,2022-09-28 14:55,-116.8743,40.5990,1382.36,59.00,28.40,30.98,70.00,3.00,0.00,30.19,M,10.00,M,CLR,M,M,M,M,M,M,M,M,M,M,M,M,M,M,59.00,KBAM 281455Z AUTO 07003KT 10SM CLR 15/M02 A3019 RMK AO1,M
HTH,2022-09-28 14:55,-118.6315,38.5448,1282.89,62.60,28.40,27.27,190.00,6.00,0.00,30.18,M,10.00,M,CLR,M,M,M,M,M,M,M,M,M,M,M,M,M,M,62.60,KHTH 281455Z AUTO 19006KT 10SM CLR 17/M02 A3018 RMK A01,M
INS,2022-09-28 14:56,-115.6733,36.5872,955.00,66.20,37.00,33.97,40.00,3.00,0.00,30.12,1015.70,10.00,M,SCT,M,M,M,14000.00,M,M,M,VCTS,M,M,M,M,M,M,66.20,KINS 281456Z AUTO 04003KT 10SM VCTS SCT140 19/03 A3012 RMK AO2 SLP157 T01900028 52018 $,M
EKO,2022-09-28 14:56,-115.7860,40.8242,1367.00,50.00,24.10,36.01,80.00,5.00,0.00,30.22,1020.70,10.00,M,CLR,M,M,M,M,M,M,M,M,M,M,M,M,M,M,50.00,KEKO 281456Z AUTO 08005KT 10SM CLR 10/M04 A3022 RMK AO2 SLP207 T01001044 51009,M
WMC,2022-09-28 14:56,-117.8072,40.9019,1315.00,57.00,32.00,38.54,0.00,0.00,0.00,30.15,1017.40,10.00,M,CLR,M,M,M,M,M,M,M,M,M,M,M,M,M,M,57.00,KWMC 281456Z AUTO 00000KT 10SM CLR 14/00 A3015 RMK AO2 SLP174 T01390000 51007,M
NFL,2022-09-28 14:56,-118.7010,39.4166,1199.00,61.00,34.00,36.19,160.00,4.00,0.00,30.13,1016.90,10.00,M,SCT,SCT,M,M,10000.00,17000.00,M,M,M,M,M,M,M,M,M,61.00,KNFL 281456Z 16004KT 10SM SCT100 SCT170 16/01 A3013 RMK AO2 SLP169 T01610011 53002,M
LAS,2022-09-28 14:56,-115.1634,36.0719,663.00,74.00,65.00,73.49,350.00,6.00,0.04,30.10,1016.70,8.00,M,FEW,BKN,BKN,M,7500.00,11000.00,15000.00,M,-TSRA,M,M,M,M,M,M,73.90,KLAS 281456Z 35006KT 8SM -TSRA FEW075 BKN110CB BKN150 23/18 A3010 RMK AO2 LTG DSNT N AND NE AND SW RAE04B37 SLP167 OCNL LTGICCG NE-E AND W TS NE-E AND W MOV N P0004 60013 T02330183 53027,M
HND,2022-09-28 14:56,-115.1344,35.9729,742.79,74.00,61.00,64.07,340.00,6.00,0.07,30.13,1019.20,10.00,M,OVC,M,M,M,10000.00,M,M,M,TS,M,M,M,M,M,M,73.90,KHND 281456Z 34006KT 10SM TS OVC100 23/16 A3013 RMK AO2 WSHFT 1357 LTG DSNT ALQDS RAE27 SLP192 P0007 60009 T02330161 53028,M
TPH,2022-09-28 14:56,-117.0904,38.0505,1654.00,57.00,26.10,30.28,360.00,8.00,0.00,30.26,1019.60,10.00,M,CLR,M,M,M,M,M,M,M,M,M,M,M,M,M,M,57.00,KTPH 281456Z AUTO 36008KT 10SM CLR 14/M03 A3026 RMK AO2 SLP196 T01391033 53009,M
LSV,2022-09-28 14:57,-115.0343,36.2362,570.00,73.40,60.80,64.69,70.00,7.00,0.00,30.07,M,10.00,M,SCT,M,M,M,10000.00,M,M,M,VCTS -RA,M,M,M,M,M,M,73.40,KLSV 281457Z AUTO 07007KT 10SM VCTS -RA SCT100 23/16 A3007 RMK AO2 TSE57 SLPNO $,M
LSV,2022-09-28 15:00,-115.0343,36.2362,570.00,73.40,60.80,64.69,60.00,10.00,0.00,30.07,M,10.00,M,SCT,M,M,M,10000.00,M,M,M,VCTS,M,M,M,M,M,M,73.40,KLSV 281500Z AUTO 06010KT 10SM VCTS SCT100 23/16 A3007 RMK AO2 RAE00 TSE1457 SLPNO $,M
LSV,2022-09-28 15:01,-115.0343,36.2362,570.00,73.40,60.80,64.69,50.00,11.00,0.00,30.07,M,10.00,M,SCT,M,M,M,10000.00,M,M,M,TS,M,M,M,M,M,M,73.40,KLSV 281501Z AUTO 05011KT 10SM TS SCT100 23/16 A3007 RMK AO2 RAE00 TSE1457TSB01 SLPNO $,M
VGT,2022-09-28 15:01,-115.1933,36.2111,667.00,77.00,60.00,55.95,30.00,5.00,0.00,30.10,M,10.00,M,SCT,M,M,M,10000.00,M,M,M,VCTS,M,M,M,M,M,M,77.00,KVGT 281501Z 03005KT 10SM VCTS SCT100 25/16 A3010 RMK AO2 LTG DSNT ALQDS TSE1455 T02500156,M
MEV,2022-09-28 15:15,-119.7500,38.9963,1441.42,51.80,30.20,43.32,0.00,0.00,0.00,30.18,M,8.00,M,CLR,M,M,M,M,M,M,M,M,M,M,M,M,M,M,51.80,KMEV 281515Z AUTO 00000KT 8SM CLR 11/M01 A3018 RMK AO2,M
BVU,2022-09-28 15:15,-114.8611,35.9475,671.00,M,M,M,M,M,0.00,M,M,M,M,M,M,M,M,M,M,M,M,M,M,M,M,M,M,M,M,KBVU 281515Z AUTO RMK AO2 PNO PWINO TSNO,M
CXP,2022-09-28 15:15,-119.7326,39.1923,1431.00,55.40,30.20,37.97,0.00,0.00,0.00,30.20,M,10.00,M,CLR,M,M,M,M,M,M,M,M,M,M,M,M,M,M,55.40,KCXP 281515Z AUTO 00000KT 10SM CLR 13/M01 A3020 RMK AO2,M
RTS,2022-09-28 15:15,-119.8764,39.6682,1539.00,53.60,30.20,40.54,0.00,0.00,0.00,30.20,M,10.00,M,CLR,M,M,M,M,M,M,M,M,M,M,M,M,M,M,53.60,KRTS 281515Z AUTO 00000KT 10SM CLR 12/M01 A3020 RMK AO2,M
05U,2022-09-28 15:15,-116.0051,39.6042,1811.23,59.00,24.80,26.70,230.00,6.00,0.00,30.29,M,10.00,M,CLR,M,M,M,M,M,M,M,M,M,M,M,M,M,M,59.00,K05U 281515Z AUTO 23006KT 10SM CLR 15/M04 A3029 RMK A01,M
BAM,2022-09-28 15:15,-116.8743,40.5990,1382.36,60.80,30.20,31.28,0.00,0.00,0.00,30.19,M,10.00,M,CLR,M,M,M,M,M,M,M,M,M,M,M,M,M,M,60.80,KBAM 281515Z AUTO 00000KT 10SM CLR 16/M01 A3019 RMK AO1,M
HTH,2022-09-28 15:15,-118.6315,38.5448,1282.89,64.40,28.40,25.60,170.00,4.00,0.00,30.18,M,10.00,M,CLR,M,M,M,M,M,M,M,M,M,M,M,M,M,M,64.40,KHTH 281515Z AUTO 17004KT 10SM CLR 18/M02 A3018 RMK A01,M
TMT,2022-09-28 15:15,-117.1971,39.4643,1749.34,48.40,28.20,45.30,0.00,0.00,0.00,30.29,M,10.00,M,CLR,M,M,M,M,M,M,M,M,M,M,M,M,M,M,48.40,KTMT 281515Z AUTO 00000KT 10SM CLR 09/M02 A3029 RMK AO2 T00911021,M
LSV,2022-09-28 15:18,-115.0343,36.2362,570.00,73.40,62.60,68.94,70.00,12.00,0.00,30.07,M,10.00,M,BKN,BKN,M,M,10000.00,13000.00,M,M,VCTS,M,M,M,M,M,M,73.40,KLSV 281518Z AUTO 07012KT 10SM VCTS BKN100 BKN130 23/17 A3007 RMK AO2 RAE00 TSE1457TSB01E18 SLPNO $,M
LSV,2022-09-28 15:22,-115.0343,36.2362,570.00,73.40,62.60,68.94,70.00,13.00,0.00,30.07,M,10.00,M,BKN,BKN,M,M,10000.00,13000.00,M,M,TS,M,M,M,M,M,M,73.40,KLSV 281522Z AUTO 07013KT 10SM TS BKN100 BKN130 23/17 A3007 RMK AO2 RAE00 TSE1457TSB01E18TSB22 SLPNO $,M
LSV,2022-09-28 15:23,-115.0343,36.2362,570.00,73.40,62.60,68.94,70.00,13.00,0.00,30.07,M,10.00,M,BKN,BKN,M,M,10000.00,13000.00,M,M,-TSRA,M,M,M,M,M,M,73.40,KLSV 281523Z AUTO 07013KT 10SM -TSRA BKN100 BKN130 23/17 A3007 RMK AO2 RAE00RAB23 TSE1457TSB01E18TSB22 SLPNO $,M
BAM,2022-09-28 15:35,-116.8743,40.5990,1382.36,66.20,32.00,27.83,0.00,0.00,0.00,30.19,M,10.00,M,CLR,M,M,M,M,M,M,M,M,M,M,M,M,M,M,66.20,KBAM 281535Z AUTO 00000KT 10SM CLR 19/00 A3019 RMK AO1,M
TMT,2022-09-28 15:35,-117.1971,39.4643,1749.34,M,M,M,0.00,0.00,0.00,30.28,M,10.00,M,CLR,M,M,M,M,M,M,M,M,M,M,M,M,M,M,M,KTMT 281535Z AUTO 00000KT 10SM CLR A3028 RMK AO2,M
BVU,2022-09-28 15:35,-114.8611,35.9475,671.00,M,M,M,M,M,0.00,M,M,M,M,M,M,M,M,M,M,M,M,VCTS,M,M,M,M,M,M,M,KBVU 281535Z AUTO VCTS RMK AO2 LTG DSNT W AND NW PWINO,M
05U,2022-09-28 15:35,-116.0051,39.6042,1811.23,62.60,24.80,23.50,220.00,4.00,0.00,30.29,M,10.00,M,CLR,M,M,M,M,M,M,M,M,M,M,M,M,M,M,62.60,K05U 281535Z AUTO 22004KT 10SM CLR 17/M04 A3029 RMK A01,M
MEV,2022-09-28 15:35,-119.7500,38.9963,1441.42,57.20,32.00,38.26,0.00,0.00,0.00,30.18,M,10.00,M,CLR,M,M,M,M,M,M,M,M,M,M,M,M,M,M,57.20,KMEV 281535Z AUTO 00000KT 10SM CLR 14/M00 A3018 RMK AO2,M
CXP,2022-09-28 15:35,-119.7326,39.1923,1431.00,59.00,28.40,30.98,0.00,0.00,0.00,30.20,M,10.00,M,CLR,M,M,M,M,M,M,M,M,M,M,M,M,M,M,59.00,KCXP 281535Z AUTO 00000KT 10SM CLR 15/M02 A3020 RMK AO2,M
HTH,2022-09-28 15:35,-118.6315,38.5448,1282.89,68.00,28.40,22.59,190.00,4.00,0.00,30.18,M,10.00,M,CLR,M,M,M,M,M,M,M,M,M,M,M,M,M,M,68.00,KHTH 281535Z AUTO 19004KT 10SM CLR 20/M02 A3018 RMK A01,M
RTS,2022-09-28 15:35,-119.8764,39.6682,1539.00,59.00,30.20,33.35,0.00,0.00,0.00,30.20,M,10.00,M,CLR,M,M,M,M,M,M,M,M,M,M,M,M,M,M,59.00,KRTS 281535Z AUTO 00000KT 10SM CLR 15/M01 A3020 RMK AO2,M
VGT,2022-09-28 15:45,-115.1933,36.2111,667.00,77.00,61.00,57.77,10.00,3.00,0.00,30.12,M,10.00,M,BKN,M,M,M,11000.00,M,M,M,TS,M,M,M,M,M,M,77.00,KVGT 281545Z 01003KT 10SM TS BKN110 25/16 A3012 RMK AO2 LTG DSNT E AND SW AND W TSE1455B39 T02500161,M
HND,2022-09-28 15:49,-115.1344,35.9729,742.79,75.20,60.80,60.90,340.00,3.00,0.00,30.15,M,10.00,M,FEW,M,M,M,11000.00,M,M,M,M,M,M,M,M,M,M,75.20,KHND 281549Z 34003KT 10SM FEW110 24/16 A3015 RMK AO2 LTG DSNT W-NE TSE43,M
ELY,2022-09-28 15:53,-114.8453,39.2950,1909.00,66.00,40.00,38.32,210.00,12.00,0.00,30.33,1018.60,10.00,M,FEW,M,M,M,12000.00,M,M,M,M,M,M,M,M,M,M,66.00,KELY 281553Z AUTO 21012KT 10SM FEW120 19/04 A3033 RMK AO2 SLP186 T01890044,M
LOL,2022-09-28 15:53,-118.5701,40.0684,1192.43,60.00,30.90,32.99,0.00,0.00,0.00,30.14,1017.30,10.00,M,CLR,M,M,M,M,M,M,M,M,M,M,M,M,M,M,60.10,KLOL 281553Z AUTO 00000KT 10SM CLR 16/M01 A3014 RMK AO2 SLP173 T01561006,M
DRA,2022-09-28 15:53,-116.0278,36.6206,1009.00,74.00,38.00,27.06,310.00,5.00,0.00,30.12,1015.70,10.00,M,SCT,M,M,M,11000.00,M,M,M,M,M,M,M,M,M,M,73.90,KDRA 281553Z AUTO 31005KT 10SM SCT110 23/03 A3012 RMK AO2 SLP157 T02330033,M
P68,2022-09-28 15:53,-116.0056,39.6014,1993.00,65.00,27.00,23.75,260.00,4.00,0.00,30.27,1017.40,M,M,M,M,M,M,M,M,M,M,M,M,M,M,M,M,M,64.90,KP68 281553Z AUTO 26004KT 18/M03 A3027 RMK AO1 SLP174 T01831028,M
VGT,2022-09-28 15:53,-115.1933,36.2111,667.00,77.00,61.00,57.77,340.00,4.00,0.00,30.11,1018.90,10.00,M,BKN,M,M,M,11000.00,M,M,M,TS,M,M,M,M,M,M,77.00,KVGT 281553Z 34004KT 10SM TS BKN110 25/16 A3011 RMK AO2 LTG DSNT ALQDS TSE1455B39 SLP189 T02500161,M
BVU,2022-09-28 15:55,-114.8611,35.9475,671.00,77.00,60.80,57.36,M,5.00,0.00,30.11,M,10.00,13.00,M,M,M,M,M,M,M,M,M,M,M,M,M,M,M,77.00,KBVU 281555Z AUTO VRB05G13KT 10SM 25/16 A3011 RMK AO2 LTG DSNT W-N,M
05U,2022-09-28 15:55,-116.0051,39.6042,1811.23,66.20,26.60,22.33,0.00,0.00,0.00,30.29,M,10.00,M,FEW,M,M,M,11000.00,M,M,M,M,M,M,M,M,M,M,66.20,K05U 281555Z AUTO 00000KT 10SM FEW110 19/M03 A3029 RMK A01,M
MEV,2022-09-28 15:55,-119.7500,38.9963,1441.42,60.80,30.20,31.28,0.00,0.00,0.00,30.18,M,10.00,M,CLR,M,M,M,M,M,M,M,M,M,M,M,M,M,M,60.80,KMEV 281555Z AUTO 00000KT 10SM CLR 16/M01 A3018 RMK AO2,M
CXP,2022-09-28 15:55,-119.7326,39.1923,1431.00,62.60,28.40,27.27,0.00,0.00,0.00,30.19,M,10.00,M,CLR,M,M,M,M,M,M,M,M,M,M,M,M,M,M,62.60,KCXP 281555Z AUTO 00000KT 10SM CLR 17/M02 A3019 RMK AO2,M
RNO,2022-09-28 15:55,-119.7711,39.4839,1341.00,61.00,35.00,37.81,100.00,3.00,0.00,30.16,1016.70,10.00,M,FEW,SCT,M,M,11000.00,21000.00,M,M,M,M,M,M,M,M,M,61.00,KRNO 281555Z 10003KT 10SM FEW110 SCT210 16/02 A3016 RMK AO2 SLP167 ACSL DSNT NW T01610017,M
BAM,2022-09-28 15:55,-116.8743,40.5990,1382.36,68.00,32.00,26.15,0.00,0.00,0.00,30.19,M,10.00,M,CLR,M,M,M,M,M,M,M,M,M,M,M,M,M,M,68.00,KBAM 281555Z AUTO 00000KT 10SM CLR 20/00 A3019 RMK AO1,M
HTH,2022-09-28 15:55,-118.6315,38.5448,1282.89,69.80,28.40,21.24,0.00,0.00,0.00,30.17,M,10.00,M,CLR,M,M,M,M,M,M,M,M,M,M,M,M,M,M,69.80,KHTH 281555Z AUTO 00000KT 10SM CLR 21/M02 A3017 RMK A01,M
TMT,2022-09-28 15:55,-117.1971,39.4643,1749.34,55.20,31.30,39.99,0.00,0.00,0.00,30.28,M,10.00,M,CLR,M,M,M,M,M,M,M,M,M,M,M,M,M,M,55.20,KTMT 281555Z AUTO 00000KT 10SM CLR 13/00 A3028 RMK AO2 T01291004,M
RTS,2022-09-28 15:55,-119.8764,39.6682,1539.00,60.80,33.80,36.16,0.00,0.00,0.00,30.19,M,10.00,M,CLR,M,M,M,M,M,M,M,M,M,M,M,M,M,M,60.80,KRTS 281555Z AUTO 00000KT 10SM CLR 16/01 A3019 RMK AO2,M
TPH,2022-09-28 15:56,-117.0904,38.0505,1654.00,66.00,28.00,23.82,20.00,4.00,0.00,30.27,1019.00,10.00,M,CLR,M,M,M,M,M,M,M,M,M,M,M,M,M,M,66.00,KTPH 281556Z AUTO 02004KT 10SM CLR 19/M02 A3027 RMK AO2 SLP190 T01891022,M
EKO,2022-09-28 15:56,-115.7860,40.8242,1367.00,56.00,26.10,31.51,0.00,0.00,0.00,30.23,1020.10,10.00,M,CLR,M,M,M,M,M,M,M,M,M,M,M,M,M,M,55.90,KEKO 281556Z AUTO 00000KT 10SM CLR 13/M03 A3023 RMK AO2 SLP201 T01331033,M
WMC,2022-09-28 15:56,-117.8072,40.9019,1315.00,71.00,30.90,22.50,180.00,11.00,0.00,30.15,1016.80,10.00,M,CLR,M,M,M,M,M,M,M,M,M,M,M,M,M,M,71.10,KWMC 281556Z AUTO 18011KT 10SM CLR 22/M01 A3015 RMK AO2 SLP168 T02171006,M
LAS,2022-09-28 15:56,-115.1634,36.0719,663.00,74.00,63.00,68.76,280.00,10.00,0.11,30.12,1017.50,10.00,M,FEW,BKN,BKN,M,7500.00,11000.00,15000.00,M,VCTS,M,M,M,M,M,M,73.90,KLAS 281556Z 28010KT 10SM VCTS FEW075 BKN110 BKN150 23/17 A3012 RMK AO2 LTG DSNT ALQDS SLP175 OCNL LTGICCG DSNT NE TSE44 RAE34 CB DSNT NE P0011 T02330172 $,M
HND,2022-09-28 15:56,-115.1344,35.9729,742.79,75.00,61.00,61.75,0.00,0.00,0.00,30.16,1020.30,10.00,M,FEW,M,M,M,11000.00,M,M,M,M,M,M,M,M,M,M,75.00,KHND 281556Z 00000KT 10SM FEW110 24/16 A3016 RMK AO2 LTG DSNT W-NE TSE43 SLP203 T02390161,M
NFL,2022-09-28 15:56,-118.7010,39.4166,1199.00,68.00,34.00,28.34,200.00,3.00,0.00,30.13,1017.00,10.00,M,FEW,SCT,M,M,10000.00,12000.00,M,M,M,M,M,M,M,M,M,68.00,KNFL 281556Z 20003KT 10SM FEW100 SCT120 20/01 A3013 RMK AO2 SLP170 T02000011,M
INS,2022-09-28 15:56,-115.6733,36.5872,955.00,79.20,47.50,32.81,120.00,15.00,0.00,30.12,1015.20,10.00,22.00,FEW,SCT,BKN,M,10000.00,12000.00,15000.00,M,M,M,M,M,27.00,130.00,2022-09-28 15:38,79.20,KINS 281556Z AUTO 12015G22KT 10SM FEW100 SCT120 BKN150 26/09 A3012 RMK AO2 PK WND 13027/38 SLP152 T02620086 $,M
VGT,2022-09-28 16:00,-115.1933,36.2111,667.00,77.00,60.00,55.95,350.00,8.00,0.01,30.10,M,8.00,M,FEW,BKN,M,M,7000.00,11000.00,M,M,VCTS -RA,M,M,M,M,M,M,77.00,KVGT 281600Z 35008KT 8SM VCTS -RA FEW070 BKN110 25/16 A3010 RMK AO2 LTG DSNT ALQDS RAB1554 TSE1554 P0001 T02500156,M
LAS,2022-09-28 16:08,-115.1634,36.0719,663.00,75.00,63.00,66.27,270.00,11.00,0.00,30.13,M,10.00,M,FEW,BKN,M,M,7500.00,12000.00,M,M,M,M,M,M,M,M,M,75.00,KLAS 281608Z 27011KT 10SM FEW075 BKN120 24/17 A3013 RMK AO2 LTG DSNT ALQDS CB DSNT W T02390172 $,M
CXP,2022-09-28 16:10,-119.7326,39.1923,1431.00,62.60,30.20,29.35,0.00,0.00,0.00,30.20,M,10.00,M,CLR,M,M,M,M,M,M,M,M,M,M,M,M,M,M,62.60,KCXP 281610Z AUTO 00000KT 10SM CLR 17/M01 A3020 RMK AO2,M
MEV,2022-09-28 16:15,-119.7500,38.9963,1441.42,64.40,30.20,27.55,40.00,3.00,0.00,30.18,M,10.00,M,CLR,M,M,M,M,M,M,M,M,M,M,M,M,M,M,64.40,KMEV 281615Z AUTO 04003KT 10SM CLR 18/M01 A3018 RMK AO2,M
05U,2022-09-28 16:15,-116.0051,39.6042,1811.23,69.80,32.00,24.59,10.00,3.00,0.00,30.30,M,10.00,M,FEW,M,M,M,12000.00,M,M,M,M,M,M,M,M,M,M,69.80,K05U 281615Z AUTO 01003KT 10SM FEW120 21/M00 A3030 RMK A01,M
RTS,2022-09-28 16:15,-119.8764,39.6682,1539.00,62.60,30.20,29.35,0.00,0.00,0.00,30.19,M,10.00,M,CLR,M,M,M,M,M,M,M,M,M,M,M,M,M,M,62.60,KRTS 281615Z AUTO 00000KT 10SM CLR 17/M01 A3019 RMK AO2,M
BVU,2022-09-28 16:15,-114.8611,35.9475,671.00,80.60,59.00,47.79,M,4.00,0.00,30.12,M,10.00,M,M,M,M,M,M,M,M,M,M,M,M,M,M,M,M,81.11,KBVU 281615Z AUTO VRB04KT 10SM 27/15 A3012 RMK AO2 LTG DSNT W-NE,M
TMT,2022-09-28 16:15,-117.1971,39.4643,1749.34,59.00,34.00,38.87,300.00,3.00,0.00,30.29,M,10.00,M,CLR,M,M,M,M,M,M,M,M,M,M,M,M,M,M,59.00,KTMT 281615Z AUTO 30003KT 10SM CLR 15/01 A3029 RMK AO2 T01500011,M
HTH,2022-09-28 16:15,-118.6315,38.5448,1282.89,71.60,30.20,21.50,0.00,0.00,0.00,30.17,M,10.00,M,CLR,M,M,M,M,M,M,M,M,M,M,M,M,M,M,71.60,KHTH 281615Z AUTO 00000KT 10SM CLR 22/M01 A3017 RMK A01,M
BAM,2022-09-28 16:15,-116.8743,40.5990,1382.36,69.80,32.00,24.59,0.00,0.00,0.00,30.19,M,10.00,M,CLR,M,M,M,M,M,M,M,M,M,M,M,M,M,M,69.80,KBAM 281615Z AUTO 00000KT 10SM CLR 21/00 A3019 RMK AO1,M
LAS,2022-09-28 16:16,-115.1634,36.0719,663.00,76.00,64.00,66.60,290.00,10.00,0.00,30.13,M,10.00,M,FEW,BKN,M,M,7500.00,12000.00,M,M,VCTS,M,M,M,M,M,M,75.90,KLAS 281616Z 29010KT 10SM VCTS FEW075 BKN120 24/18 A3013 RMK AO2 LTG DSNT W-NE CB DSNT W T02440178 $,M
LSV,2022-09-28 16:17,-115.0343,36.2362,570.00,69.80,64.40,82.98,50.00,8.00,0.00,30.07,M,10.00,M,FEW,SCT,M,M,4400.00,6000.00,M,M,M,M,M,M,M,M,M,69.80,KLSV 281617Z AUTO 05008KT 10SM FEW044 SCT060 21/18 A3007 RMK AO2 LTG DSNT NE AND SW-W RAE1500RAB1523E1530DZB1530E1535RAB1535E08DZB08E14RAB14E15 TSE1457TSB1501E1518TSB1522E17 SLPNO $,M
LAS,2022-09-28 16:31,-115.1634,36.0719,663.00,79.00,62.00,56.23,330.00,8.00,0.00,30.13,M,10.00,M,FEW,BKN,M,M,7500.00,12000.00,M,M,M,M,M,M,M,M,M,79.00,KLAS 281631Z 33008KT 10SM FEW075 BKN120 26/17 A3013 RMK AO2 LTG DSNT N AND NW CB DSNT NW T02610167,M
VGT,2022-09-28 16:32,-115.1933,36.2111,667.00,78.00,61.00,55.71,290.00,6.00,0.03,30.13,M,10.00,M,FEW,FEW,BKN,M,8000.00,9000.00,11000.00,M,TS,M,M,M,M,M,M,78.10,KVGT 281632Z 29006KT 10SM TS FEW080 FEW090 BKN110 26/16 A3013 RMK AO2 RAB1554E21 TSE1554B26 P0003 T02560161,M
BVU,2022-09-28 16:35,-114.8611,35.9475,671.00,82.40,57.20,42.25,0.00,0.00,0.00,30.13,M,10.00,M,CLR,M,M,M,M,M,M,M,M,M,M,M,M,M,M,82.08,KBVU 281635Z AUTO 00000KT 10SM CLR 28/14 A3013 RMK AO2 LTG DSNT NW,M
TMT,2022-09-28 16:35,-117.1971,39.4643,1749.34,62.00,33.00,33.82,0.00,0.00,0.00,30.28,M,10.00,M,CLR,M,M,M,M,M,M,M,M,M,M,M,M,M,M,61.90,KTMT 281635Z AUTO 00000KT 10SM CLR 17/01 A3028 RMK AO2 T01660006,M
CXP,2022-09-28 16:35,-119.7326,39.1923,1431.00,66.20,32.00,27.83,0.00,0.00,0.00,30.19,M,10.00,M,CLR,M,M,M,M,M,M,M,M,M,M,M,M,M,M,66.20,KCXP 281635Z AUTO 00000KT 10SM CLR 19/M00 A3019 RMK AO2,M
05U,2022-09-28 16:35,-116.0051,39.6042,1811.23,71.60,28.40,19.98,0.00,0.00,0.00,30.30,M,10.00,M,CLR,M,M,M,M,M,M,M,M,M,M,M,M,M,M,71.60,K05U 281635Z AUTO 00000KT 10SM CLR 22/M02 A3030 RMK A01,M
RTS,2022-09-28 16:35,-119.8764,39.6682,1539.00,68.00,30.20,24.32,0.00,0.00,0.00,30.20,M,10.00,M,CLR,M,M,M,M,M,M,M,M,M,M,M,M,M,M,68.00,KRTS 281635Z AUTO 00000KT 10SM CLR 20/M01 A3020 RMK AO2,M
BAM,2022-09-28 16:35,-116.8743,40.5990,1382.36,71.60,33.80,24.86,0.00,0.00,0.00,30.19,M,10.00,M,CLR,M,M,M,M,M,M,M,M,M,M,M,M,M,M,71.60,KBAM 281635Z AUTO 00000KT 10SM CLR 22/01 A3019 RMK AO1,M
P68,2022-09-28 16:53,-116.0056,39.6014,1993.00,72.00,28.90,20.12,0.00,0.00,0.00,30.27,1016.90,M,M,M,M,M,M,M,M,M,M,M,M,M,M,M,M,M,72.00,KP68 281653Z AUTO 00000KT 22/M02 A3027 RMK AO1 SLP169 T02221017,M
LOL,2022-09-28 16:53,-118.5701,40.0684,1192.43,70.00,27.00,19.92,0.00,0.00,0.00,30.14,1017.50,10.00,M,CLR,M,M,M,M,M,M,M,M,M,M,M,M,M,M,70.00,KLOL 281653Z AUTO 00000KT 10SM CLR 21/M03 A3014 RMK AO2 SLP175 T02111028,M
ELY,2022-09-28 16:53,-114.8453,39.2950,1909.00,73.00,41.00,31.47,170.00,15.00,0.00,30.32,1018.30,10.00,22.00,FEW,M,M,M,12000.00,M,M,M,M,M,M,M,M,M,M,73.00,KELY 281653Z AUTO 17015G22KT 10SM FEW120 23/05 A3032 RMK AO2 SLP183 T02280050,M
DRA,2022-09-28 16:53,-116.0278,36.6206,1009.00,83.00,40.00,21.75,290.00,4.00,0.00,30.14,1015.80,10.00,M,BKN,M,M,M,10000.00,M,M,M,M,M,M,M,M,M,M,80.57,KDRA 281653Z AUTO 29004KT 10SM BKN100 28/04 A3014 RMK AO2 SLP158 T02830044,M
VGT,2022-09-28 16:53,-115.1933,36.2111,667.00,80.00,60.00,50.52,360.00,8.00,0.03,30.12,1019.20,10.00,M,CLR,M,M,M,M,M,M,M,VCTS,M,M,M,M,M,M,80.94,KVGT 281653Z 36008KT 10SM VCTS CLR 27/16 A3012 RMK AO2 RAB1554E21 TSE1554B26E47 SLP192 P0003 T02670156,M
MEV,2022-09-28 16:55,-119.7500,38.9963,1441.42,71.60,30.20,21.50,320.00,3.00,0.00,30.18,M,10.00,M,CLR,M,M,M,M,M,M,M,M,M,M,M,M,M,M,71.60,KMEV 281655Z AUTO 32003KT 10SM CLR 22/M01 A3018 RMK AO2,M
LSV,2022-09-28 16:55,-115.0343,36.2362,570.00,73.00,69.60,89.40,90.00,3.00,0.01,30.10,1017.30,10.00,M,FEW,SCT,M,M,11000.00,21000.00,M,M,VCTS,M,M,M,M,M,M,72.90,KLSV 281655Z AUTO 09003KT 10SM VCTS FEW110 SCT210 23/21 A3010 RMK AO2 RAE1500RAB1523E1530DZB1530E1535RAB1535E08DZB08E14RAB14E15 TSE1457TSB1501E1518TSB1522E17 SLP173 P0001 T02270209 $,M
HTH,2022-09-28 16:55,-118.6315,38.5448,1282.89,73.40,28.40,18.80,0.00,0.00,0.00,30.17,M,10.00,M,CLR,M,M,M,M,M,M,M,M,M,M,M,M,M,M,73.40,KHTH 281655Z AUTO 00000KT 10SM CLR 23/M02 A3017 RMK A01,M
RNO,2022-09-28 16:55,-119.7711,39.4839,1341.00,69.00,35.00,28.51,350.00,4.00,0.00,30.16,1016.40,10.00,M,FEW,SCT,M,M,11000.00,21000.00,M,M,M,M,M,M,M,M,M,69.10,KRNO 281655Z 35004KT 10SM FEW110 SCT210 21/02 A3016 RMK AO2 SLP164 ACSL DSNT N T02060017,M
BVU,2022-09-28 16:55,-114.8611,35.9475,671.00,82.40,57.20,42.25,0.00,0.00,0.00,30.13,M,10.00,M,SCT,M,M,M,11000.00,M,M,M,M,M,M,M,M,M,M,82.08,KBVU 281655Z AUTO 00000KT 10SM SCT110 28/14 A3013 RMK AO2 LTG DSNT NW,M
CXP,2022-09-28 16:55,-119.7326,39.1923,1431.00,69.80,30.20,22.86,0.00,0.00,0.00,30.19,M,10.00,M,CLR,M,M,M,M,M,M,M,M,M,M,M,M,M,M,69.80,KCXP 281655Z AUTO 00000KT 10SM CLR 21/M01 A3019 RMK AO2,M
TMT,2022-09-28 16:55,-117.1971,39.4643,1749.34,65.70,33.80,30.44,0.00,0.00,0.00,30.29,M,10.00,M,CLR,M,M,M,M,M,M,M,M,M,M,M,M,M,M,65.70,KTMT 281655Z AUTO 00000KT 10SM CLR 19/01 A3029 RMK AO2 T01870010,M
RTS,2022-09-28 16:55,-119.8764,39.6682,1539.00,69.80,30.20,22.86,M,4.00,0.00,30.20,M,10.00,M,CLR,M,M,M,M,M,M,M,M,M,M,M,M,M,M,69.80,KRTS 281655Z AUTO VRB04KT 10SM CLR 21/M01 A3020 RMK AO2,M
05U,2022-09-28 16:55,-116.0051,39.6042,1811.23,73.40,28.40,18.80,30.00,3.00,0.00,30.30,M,10.00,M,CLR,M,M,M,M,M,M,M,M,M,M,M,M,M,M,73.40,K05U 281655Z AUTO 03003KT 10SM CLR 23/M02 A3030 RMK A01,M
BAM,2022-09-28 16:55,-116.8743,40.5990,1382.36,73.40,33.80,23.39,0.00,0.00,0.00,30.20,M,10.00,M,CLR,M,M,M,M,M,M,M,M,M,M,M,M,M,M,73.40,KBAM 281655Z AUTO 00000KT 10SM CLR 23/01 A3020 RMK AO1,M
INS,2022-09-28 16:56,-115.6733,36.5872,955.00,81.00,47.70,31.07,110.00,18.00,0.00,30.13,1015.60,10.00,24.00,FEW,BKN,M,M,10000.00,15000.00,M,M,VCTS,M,M,M,30.00,130.00,2022-09-28 16:10,79.95,KINS 281656Z AUTO 11018G24KT 10SM VCTS FEW100 BKN150 27/09 A3013 RMK AO2 PK WND 13030/10 SLP156 T02730087 $,M
HND,2022-09-28 16:56,-115.1344,35.9729,742.79,79.00,60.00,52.38,0.00,0.00,0.00,30.17,1020.80,10.00,M,SCT,M,M,M,11000.00,M,M,M,M,M,M,M,M,M,M,79.00,KHND 281656Z 00000KT 10SM SCT110 26/16 A3017 RMK AO2 LTG DSNT N SLP208 T02610156,M
LAS,2022-09-28 16:56,-115.1634,36.0719,663.00,79.00,60.00,52.38,20.00,6.00,0.00,30.14,1018.20,10.00,M,FEW,BKN,M,M,7500.00,12000.00,M,M,M,M,M,M,M,M,M,79.00,KLAS 281656Z 02006KT 10SM FEW075 BKN120 26/16 A3014 RMK AO2 LTG DSNT N SLP182 OCNL LTGICCG DSNT NW-N CB DSNT NW-N T02610156,M
EKO,2022-09-28 16:56,-115.7860,40.8242,1367.00,64.00,26.10,23.61,0.00,0.00,0.00,30.23,1019.60,10.00,M,CLR,M,M,M,M,M,M,M,M,M,M,M,M,M,M,64.00,KEKO 281656Z AUTO 00000KT 10SM CLR 18/M03 A3023 RMK AO2 SLP196 T01781033,M
WMC,2022-09-28 16:56,-117.8072,40.9019,1315.00,77.00,28.90,17.01,170.00,12.00,0.00,30.16,1016.90,10.00,M,CLR,M,M,M,M,M,M,M,M,M,M,M,M,M,M,77.00,KWMC 281656Z AUTO 17012KT 10SM CLR 25/M02 A3016 RMK AO2 SLP169 T02501017,M
NFL,2022-09-28 16:56,-118.7010,39.4166,1199.00,76.00,34.00,21.69,180.00,8.00,0.00,30.14,1017.00,10.00,M,FEW,SCT,SCT,M,10000.00,12000.00,20000.00,M,M,M,M,M,M,M,M,75.90,KNFL 281656Z 18008KT 10SM FEW100 SCT120 SCT200 24/01 A3014 RMK AO2 SLP170 T02440011,M
TPH,2022-09-28 16:56,-117.0904,38.0505,1654.00,71.00,30.00,21.69,0.00,0.00,0.00,30.27,1018.90,10.00,M,CLR,M,M,M,M,M,M,M,M,M,M,M,M,M,M,71.10,KTPH 281656Z AUTO 00000KT 10SM CLR 22/M01 A3027 RMK AO2 SLP189 T02171011,M
INS,2022-09-28 17:14,-115.6733,36.5872,955.00,80.60,48.20,32.18,120.00,17.00,0.00,30.13,1015.70,10.00,24.00,SCT,BKN,M,M,12000.00,15000.00,M,M,TS,M,M,M,M,M,M,79.71,KINS 281714Z AUTO 12017G24KT 10SM TS SCT120 BKN150 27/09 A3013 RMK AO2 TSB14 SLP157 $,M
BVU,2022-09-28 17:15,-114.8611,35.9475,671.00,82.40,59.00,45.07,320.00,9.00,0.00,30.13,M,10.00,M,FEW,M,M,M,11000.00,M,M,M,M,M,M,M,M,M,M,82.46,KBVU 281715Z AUTO 32009KT 10SM FEW110 28/15 A3013 RMK AO2,M
CXP,2022-09-28 17:15,-119.7326,39.1923,1431.00,73.40,30.20,20.23,0.00,0.00,0.00,30.19,M,10.00,M,CLR,M,M,M,M,M,M,M,M,M,M,M,M,M,M,73.40,KCXP 281715Z AUTO 00000KT 10SM CLR 23/M01 A3019 RMK AO2,M
RTS,2022-09-28 17:15,-119.8764,39.6682,1539.00,73.40,28.40,18.80,290.00,7.00,0.00,30.20,M,10.00,M,CLR,M,M,M,M,M,M,M,M,M,M,M,M,M,M,73.40,KRTS 281715Z AUTO 29007KT 10SM CLR 23/M02 A3020 RMK AO2,M
05U,2022-09-28 17:15,-116.0051,39.6042,1811.23,75.20,28.40,17.70,0.00,0.00,0.00,30.30,M,10.00,M,CLR,M,M,M,M,M,M,M,M,M,M,M,M,M,M,75.20,K05U 281715Z AUTO 00000KT 10SM CLR 24/M02 A3030 RMK A01,M
MEV,2022-09-28 17:15,-119.7500,38.9963,1441.42,73.40,32.00,21.76,0.00,0.00,0.00,30.18,M,10.00,M,CLR,M,M,M,M,M,M,M,M,M,M,M,M,M,M,73.40,KMEV 281715Z AUTO 00000KT 10SM CLR 23/00 A3018 RMK AO2,M
BAM,2022-09-28 17:15,-116.8743,40.5990,1382.36,77.00,32.00,19.30,260.00,3.00,0.00,30.20,M,10.00,M,CLR,M,M,M,M,M,M,M,M,M,M,M,M,M,M,77.00,KBAM 281715Z AUTO 26003KT 10SM CLR 25/00 A3020 RMK AO1,M
HTH,2022-09-28 17:15,-118.6315,38.5448,1282.89,75.20,28.40,17.70,0.00,0.00,0.00,30.17,M,10.00,M,CLR,M,M,M,M,M,M,M,M,M,M,M,M,M,M,75.20,KHTH 281715Z AUTO 00000KT 10SM CLR 24/M02 A3017 RMK A01,M
TMT,2022-09-28 17:15,-117.1971,39.4643,1749.34,M,M,M,0.00,0.00,0.00,30.28,M,10.00,M,CLR,M,M,M,M,M,M,M,M,M,M,M,M,M,M,M,KTMT 281715Z AUTO 00000KT 10SM CLR A3028 RMK AO2,M
VGT,2022-09-28 17:16,-115.1933,36.2111,667.00,82.00,60.00,47.49,70.00,5.00,0.00,30.12,M,10.00,M,CLR,M,M,M,M,M,M,M,M,M,M,M,M,M,M,82.40,KVGT 281716Z 07005KT 10SM CLR 28/16 A3012 RMK AO2 T02780156,M
INS,2022-09-28 17:29,-115.6733,36.5872,955.00,82.40,46.40,28.36,110.00,16.00,0.00,30.14,1015.90,10.00,26.00,BKN,BKN,BKN,M,9500.00,12000.00,20000.00,M,TS,M,M,M,M,M,M,80.64,KINS 281729Z AUTO 11016G26KT 10SM TS BKN095 BKN120 BKN200 28/08 A3014 RMK AO2 TSB14 SLP159 $,M
CXP,2022-09-28 17:35,-119.7326,39.1923,1431.00,77.00,30.20,17.94,160.00,6.00,0.00,30.19,M,10.00,M,CLR,M,M,M,M,M,M,M,M,M,M,M,M,M,M,77.00,KCXP 281735Z AUTO 16006KT 10SM CLR 25/M01 A3019 RMK AO2,M
BVU,2022-09-28 17:35,-114.8611,35.9475,671.00,82.40,59.00,45.07,330.00,11.00,0.00,30.13,M,10.00,M,SCT,M,M,M,11000.00,M,M,M,M,M,M,M,M,M,M,82.46,KBVU 281735Z AUTO 33011KT 10SM SCT110 28/15 A3013 RMK AO2,M
RTS,2022-09-28 17:35,-119.8764,39.6682,1539.00,75.20,28.40,17.70,M,5.00,0.00,30.20,M,10.00,11.00,CLR,M,M,M,M,M,M,M,M,M,M,M,M,M,M,75.20,KRTS 281735Z AUTO VRB05G11KT 10SM CLR 24/M02 A3020 RMK AO2,M
05U,2022-09-28 17:35,-116.0051,39.6042,1811.23,77.00,28.40,16.67,M,4.00,0.00,30.29,M,10.00,M,CLR,M,M,M,M,M,M,M,M,M,M,M,M,M,M,77.00,K05U 281735Z AUTO VRB04KT 10SM CLR 25/M02 A3029 RMK A01,M
MEV,2022-09-28 17:35,-119.7500,38.9963,1441.42,77.00,32.00,19.30,150.00,5.00,0.00,30.18,M,10.00,M,CLR,M,M,M,M,M,M,M,M,M,M,M,M,M,M,77.00,KMEV 281735Z AUTO 15005KT 10SM CLR 25/00 A3018 RMK AO2,M
BAM,2022-09-28 17:35,-116.8743,40.5990,1382.36,78.80,32.00,18.18,240.00,5.00,0.00,30.19,M,10.00,M,CLR,M,M,M,M,M,M,M,M,M,M,M,M,M,M,78.80,KBAM 281735Z AUTO 24005KT 10SM CLR 26/00 A3019 RMK AO1,M
HTH,2022-09-28 17:35,-118.6315,38.5448,1282.89,78.80,26.60,14.59,0.00,0.00,0.00,30.16,M,10.00,M,CLR,M,M,M,M,M,M,M,M,M,M,M,M,M,M,78.80,KHTH 281735Z AUTO 00000KT 10SM CLR 26/M03 A3016 RMK A01,M
TMT,2022-09-28 17:35,-117.1971,39.4643,1749.34,M,M,M,0.00,0.00,0.00,30.28,M,10.00,M,CLR,M,M,M,M,M,M,M,M,M,M,M,M,M,M,M,KTMT 281735Z AUTO 00000KT 10SM CLR A3028 RMK AO2 LTG DSNT S,M
INS,2022-09-28 17:39,-115.6733,36.5872,955.00,84.20,46.40,26.76,100.00,9.00,0.00,30.15,1016.30,10.00,M,BKN,BKN,OVC,M,10000.00,12000.00,20000.00,M,TS,M,M,M,M,M,M,81.87,KINS 281739Z AUTO 10009KT 10SM TS BKN100 BKN120 OVC200 29/08 A3015 RMK AO2 TSB14 SLP163 $,M
LOL,2022-09-28 17:53,-118.5701,40.0684,1192.43,77.00,28.00,16.40,220.00,3.00,0.00,30.14,1017.10,10.00,M,CLR,M,M,M,M,M,M,M,M,M,M,M,M,M,M,77.00,KLOL 281753Z AUTO 22003KT 10SM CLR 25/M02 A3014 RMK AO2 SLP171 T02501022 10250 20056 50000,M
VGT,2022-09-28 17:53,-115.1933,36.2111,667.00,81.00,60.00,49.06,140.00,4.00,0.00,30.12,1019.20,10.00,M,CLR,M,M,M,M,M,M,M,M,M,M,M,M,M,M,81.62,KVGT 281753Z 14004KT 10SM CLR 27/16 A3012 RMK AO2 LTG DSNT NW SLP192 60004 T02720156 10300 20239 51008,M
ELY,2022-09-28 17:53,-114.8453,39.2950,1909.00,75.00,38.00,26.08,140.00,12.00,0.00,30.31,1017.50,10.00,21.00,BKN,BKN,M,M,10000.00,12000.00,M,M,M,M,M,M,M,M,M,75.00,KELY 281753Z AUTO 14012G21KT 10SM BKN100 BKN120 24/03 A3031 RMK AO2 SLP175 T02390033 10250 20056 58004,M
P68,2022-09-28 17:53,-116.0056,39.6014,1993.00,76.00,28.90,17.65,30.00,3.00,0.00,30.26,1016.50,M,M,M,M,M,M,M,M,M,M,M,M,M,M,M,M,M,75.90,KP68 281753Z AUTO 03003KT 24/M02 A3026 RMK AO1 SLP165 T02441017 10244 20061 58001,M
DRA,2022-09-28 17:53,-116.0278,36.6206,1009.00,86.00,45.00,23.95,240.00,3.00,0.00,30.13,1015.40,10.00,M,FEW,M,M,M,11000.00,M,M,M,M,M,M,M,M,M,M,83.10,KDRA 281753Z AUTO 24003KT 10SM FEW110 30/07 A3013 RMK AO2 SLP154 T03000072 10306 20194 50006,M
BVU,2022-09-28 17:55,-114.8611,35.9475,671.00,86.00,57.20,37.62,340.00,8.00,0.00,30.12,M,10.00,M,FEW,M,M,M,11000.00,M,M,M,M,M,M,M,M,M,M,84.97,KBVU 281755Z AUTO 34008KT 10SM FEW110 30/14 A3012 RMK AO2,M
TMT,2022-09-28 17:55,-117.1971,39.4643,1749.34,M,M,M,0.00,0.00,0.00,30.27,M,10.00,M,CLR,M,M,M,M,M,M,M,M,M,M,M,M,M,M,M,KTMT 281755Z AUTO 00000KT 10SM CLR A3027 RMK AO2,M
HTH,2022-09-28 17:55,-118.6315,38.5448,1282.89,80.60,28.40,14.81,0.00,0.00,0.00,30.16,M,10.00,M,CLR,M,M,M,M,M,M,M,M,M,M,M,M,M,M,78.72,KHTH 281755Z AUTO 00000KT 10SM CLR 27/M02 A3016 RMK A01,M
BAM,2022-09-28 17:55,-116.8743,40.5990,1382.36,80.60,32.00,17.14,240.00,7.00,0.00,30.19,M,10.00,M,CLR,M,M,M,M,M,M,M,M,M,M,M,M,M,M,78.82,KBAM 281755Z AUTO 24007KT 10SM CLR 27/00 A3019 RMK AO1,M
MEV,2022-09-28 17:55,-119.7500,38.9963,1441.42,78.80,32.00,18.18,190.00,7.00,0.00,30.17,M,10.00,M,CLR,M,M,M,M,M,M,M,M,M,M,M,M,M,M,78.80,KMEV 281755Z AUTO 19007KT 10SM CLR 26/00 A3017 RMK AO2,M
05U,2022-09-28 17:55,-116.0051,39.6042,1811.23,77.00,28.40,16.67,M,4.00,0.00,30.29,M,10.00,M,CLR,M,M,M,M,M,M,M,M,M,M,M,M,M,M,77.00,K05U 281755Z AUTO VRB04KT 10SM CLR 25/M02 A3029 RMK A01,M
RTS,2022-09-28 17:55,-119.8764,39.6682,1539.00,75.20,28.40,17.70,M,4.00,0.00,30.19,M,10.00,15.00,CLR,M,M,M,M,M,M,M,M,M,M,M,M,M,M,75.20,KRTS 281755Z AUTO VRB04G15KT 10SM CLR 24/M02 A3019 RMK AO2,M
RNO,2022-09-28 17:55,-119.7711,39.4839,1341.00,77.00,34.00,20.91,0.00,0.00,0.00,30.15,1016.00,10.00,M,FEW,FEW,M,M,11000.00,21000.00,M,M,M,M,M,M,M,M,M,77.00,KRNO 281755Z 00000KT 10SM FEW110 FEW210 25/01 A3015 RMK AO2 SLP160 T02500011 10250 20106 58002,M
CXP,2022-09-28 17:55,-119.7326,39.1923,1431.00,80.60,32.00,17.14,160.00,6.00,0.00,30.18,M,10.00,16.00,CLR,M,M,M,M,M,M,M,M,M,M,M,M,M,M,78.82,KCXP 281755Z AUTO 16006G16KT 10SM CLR 27/M00 A3018 RMK AO2,M
LSV,2022-09-28 17:56,-115.0343,36.2362,570.00,82.40,62.60,51.21,50.00,13.00,0.00,30.08,M,10.00,M,SCT,M,M,M,13000.00,M,M,M,M,M,M,M,M,M,M,83.41,KLSV 281756Z 05013KT 10SM SCT130 28/17 A3008 RMK A02A SLPNO $,M
INS,2022-09-28 17:56,-115.6733,36.5872,955.00,82.00,47.50,29.95,90.00,11.00,0.00,30.16,1016.80,10.00,16.00,BKN,BKN,OVC,M,10000.00,12000.00,15000.00,M,TS,M,M,M,28.00,120.00,2022-09-28 17:20,80.48,KINS 281756Z AUTO 09011G16KT 10SM TS BKN100 BKN120 OVC150 28/09 A3016 RMK AO2 PK WND 12028/20 TSB14 SLP168 T02780086 10291 20182 53011 $,M
EKO,2022-09-28 17:56,-115.7860,40.8242,1367.00,73.00,30.00,20.34,0.00,0.00,0.00,30.22,1018.80,10.00,M,CLR,M,M,M,M,M,M,M,M,M,M,M,M,M,M,73.00,KEKO 281756Z AUTO 00000KT 10SM CLR 23/M01 A3022 RMK AO2 SLP188 T02281011 10228 20050 58003,M
HND,2022-09-28 17:56,-115.1344,35.9729,742.79,80.00,60.00,50.52,0.00,0.00,0.00,30.17,1020.50,10.00,M,CLR,M,M,M,M,M,M,M,M,M,M,M,M,M,M,80.94,KHND 281756Z 00000KT 10SM CLR 27/16 A3017 RMK AO2 SLP205 60009 T02670156 10278 20217 50012,M
TPH,2022-09-28 17:56,-117.0904,38.0505,1654.00,76.00,33.00,20.92,170.00,4.00,0.00,30.27,1018.30,10.00,M,CLR,M,M,M,M,M,M,M,M,M,M,M,M,M,M,75.90,KTPH 281756Z AUTO 17004KT 10SM CLR 24/01 A3027 RMK AO2 SLP183 T02440006 10244 20111 50001,M
NFL,2022-09-28 17:56,-118.7010,39.4166,1199.00,80.00,32.00,17.42,180.00,3.00,0.00,30.13,1016.80,10.00,M,FEW,SCT,SCT,M,10000.00,13000.00,20000.00,M,M,M,M,M,M,M,M,78.63,KNFL 281756Z 18003KT 10SM FEW100 SCT130 SCT200 27/00 A3013 RMK AO2 SLP168 T02670000 10267 20122 58000,M
LAS,2022-09-28 17:56,-115.1634,36.0719,663.00,81.00,58.00,45.34,90.00,3.00,0.00,30.14,1018.10,10.00,M,SCT,SCT,M,M,12000.00,25000.00,M,M,M,M,M,M,M,M,M,81.20,KLAS 281756Z 09003KT 10SM SCT120 SCT250 27/14 A3014 RMK AO2 SLP181 CB DSNT NW 60024 T02720144 10278 20222 51014,M
WMC,2022-09-28 17:56,-117.8072,40.9019,1315.00,81.00,28.00,14.38,150.00,9.00,0.00,30.14,1016.40,10.00,M,CLR,M,M,M,M,M,M,M,M,M,M,M,M,M,M,78.98,KWMC 281756Z AUTO 15009KT 10SM CLR 27/M02 A3014 RMK AO2 SLP164 T02721022 10278 20072 58002,M
CXP,2022-09-28 18:15,-119.7326,39.1923,1431.00,80.60,32.00,17.14,220.00,5.00,0.00,30.18,M,10.00,14.00,CLR,M,M,M,M,M,M,M,M,M,M,M,M,M,M,78.82,KCXP 281815Z AUTO 22005G14KT 10SM CLR 27/M00 A3018 RMK AO2,M
BVU,2022-09-28 18:15,-114.8611,35.9475,671.00,86.00,55.40,35.25,30.00,10.00,0.00,30.12,M,10.00,M,CLR,M,M,M,M,M,M,M,M,M,M,M,M,M,M,84.54,KBVU 281815Z AUTO 03010KT 10SM CLR 30/13 A3012 RMK AO2,M
TMT,2022-09-28 18:15,-117.1971,39.4643,1749.34,M,M,M,330.00,3.00,0.00,30.27,M,10.00,M,CLR,M,M,M,M,M,M,M,M,M,M,M,M,M,M,M,KTMT 281815Z AUTO 33003KT 10SM CLR A3027 RMK AO2,M
MEV,2022-09-28 18:15,-119.7500,38.9963,1441.42,80.60,32.00,17.14,M,6.00,0.00,30.17,M,10.00,M,CLR,M,M,M,M,M,M,M,M,M,M,M,M,M,M,78.82,KMEV 281815Z AUTO VRB06KT 10SM CLR 27/M00 A3017 RMK AO2,M
05U,2022-09-28 18:15,-116.0051,39.6042,1811.23,80.60,28.40,14.81,M,4.00,0.00,30.28,M,10.00,M,CLR,M,M,M,M,M,M,M,M,M,M,M,M,M,M,78.72,K05U 281815Z AUTO VRB04KT 10SM CLR 27/M02 A3028 RMK A01,M
RTS,2022-09-28 18:15,-119.8764,39.6682,1539.00,75.20,28.40,17.70,180.00,9.00,0.00,30.19,M,10.00,17.00,CLR,M,M,M,M,M,M,M,M,M,M,M,M,M,M,75.20,KRTS 281815Z AUTO 18009G17KT 10SM CLR 24/M02 A3019 RMK AO2,M
HTH,2022-09-28 18:15,-118.6315,38.5448,1282.89,82.40,26.60,12.97,0.00,0.00,0.00,30.15,M,10.00,M,CLR,M,M,M,M,M,M,M,M,M,M,M,M,M,M,79.92,KHTH 281815Z AUTO 00000KT 10SM CLR 28/M03 A3015 RMK A01,M
BAM,2022-09-28 18:15,-116.8743,40.5990,1382.36,80.60,30.20,15.94,240.00,9.00,0.00,30.19,M,10.00,M,CLR,M,M,M,M,M,M,M,M,M,M,M,M,M,M,78.77,KBAM 281815Z AUTO 24009KT 10SM CLR 27/M01 A3019 RMK AO1,M
INS,2022-09-28 18:24,-115.6733,36.5872,955.00,80.60,48.20,32.18,100.00,16.00,0.00,30.15,1016.40,4.00,M,FEW,FEW,BKN,OVC,900.00,4500.00,10000.00,15000.00,TS,M,M,M,M,M,M,79.71,KINS 281824Z AUTO 10016KT 4SM TS FEW009 FEW045 BKN100 OVC150 27/09 A3015 RMK AO2 SLP164 $,M
INS,2022-09-28 18:29,-115.6733,36.5872,955.00,78.80,53.60,41.69,90.00,15.00,0.00,30.15,1016.60,3.00,M,FEW,FEW,BKN,OVC,300.00,4500.00,9500.00,15000.00,-TSRA,M,M,M,M,M,M,78.80,KINS 281829Z AUTO 09015KT 3SM -TSRA FEW003 FEW045 BKN095 OVC150 26/12 A3015 RMK AO2 RAB29 SLP166 $,M
INS,2022-09-28 18:34,-115.6733,36.5872,955.00,77.00,59.00,53.80,70.00,17.00,0.00,30.14,1016.30,7.00,M,SCT,BKN,OVC,M,200.00,9500.00,15000.00,M,+TSRA,M,M,M,M,M,M,77.00,KINS 281834Z AUTO 07017KT 7SM +TSRA SCT002 BKN095 OVC150 25/15 A3014 RMK AO2 VIS 2 1/2 RWY26 RAB29 SLP163 $,M
BAM,2022-09-28 18:35,-116.8743,40.5990,1382.36,82.40,30.20,15.03,230.00,9.00,0.00,30.17,M,10.00,M,SCT,M,M,M,12000.00,M,M,M,M,M,M,M,M,M,M,79.97,KBAM 281835Z AUTO 23009KT 10SM SCT120 28/M01 A3017 RMK AO1,M
BVU,2022-09-28 18:35,-114.8611,35.9475,671.00,86.00,53.60,33.01,40.00,9.00,0.00,30.12,M,10.00,M,CLR,M,M,M,M,M,M,M,M,M,M,M,M,M,M,84.18,KBVU 281835Z AUTO 04009KT 10SM CLR 30/12 A3012 RMK AO2,M
CXP,2022-09-28 18:35,-119.7326,39.1923,1431.00,80.60,30.20,15.94,230.00,7.00,0.00,30.17,M,10.00,15.00,CLR,M,M,M,M,M,M,M,M,M,M,M,M,M,M,78.77,KCXP 281835Z AUTO 23007G15KT 200V290 10SM CLR 27/M01 A3017 RMK AO2,M
RTS,2022-09-28 18:35,-119.8764,39.6682,1539.00,77.00,28.40,16.67,210.00,7.00,0.00,30.19,M,10.00,18.00,CLR,M,M,M,M,M,M,M,M,M,M,M,M,M,M,77.00,KRTS 281835Z AUTO 21007G18KT 170V300 10SM CLR 25/M02 A3019 RMK AO2,M
05U,2022-09-28 18:35,-116.0051,39.6042,1811.23,80.60,26.60,13.75,M,4.00,0.00,30.27,M,10.00,14.00,CLR,M,M,M,M,M,M,M,M,M,M,M,M,M,M,78.68,K05U 281835Z AUTO VRB04G14KT 10SM CLR 27/M03 A3027 RMK A01,M
MEV,2022-09-28 18:35,-119.7500,38.9963,1441.42,80.60,30.20,15.94,M,6.00,0.00,30.17,M,10.00,12.00,CLR,M,M,M,M,M,M,M,M,M,M,M,M,M,M,78.77,KMEV 281835Z AUTO VRB06G12KT 10SM CLR 27/M01 A3017 RMK AO2,M
HTH,2022-09-28 18:35,-118.6315,38.5448,1282.89,84.20,24.80,11.35,0.00,0.00,0.00,30.14,M,10.00,10.00,CLR,M,M,M,M,M,M,M,M,M,M,M,M,M,M,81.00,KHTH 281835Z AUTO 00000G10KT 10SM CLR 29/M04 A3014 RMK A01,M
TMT,2022-09-28 18:35,-117.1971,39.4643,1749.34,M,M,M,150.00,3.00,0.00,30.26,M,10.00,M,CLR,M,M,M,M,M,M,M,M,M,M,M,M,M,M,M,KTMT 281835Z AUTO 15003KT 10SM CLR A3026 RMK AO2,M
INS,2022-09-28 18:39,-115.6733,36.5872,955.00,73.40,57.20,56.88,60.00,16.00,0.00,30.13,1016.10,10.00,M,SCT,SCT,BKN,BKN,200.00,6500.00,10000.00,15000.00,-TSRA,M,M,M,M,M,M,73.40,KINS 281839Z AUTO 06016KT 10SM -TSRA SCT002 SCT065 BKN100 BKN150 23/14 A3013 RMK AO2 VIS 2 3/4 RWY26 RAB29 SLP161 $,M
INS,2022-09-28 18:44,-115.6733,36.5872,955.00,73.40,55.40,53.29,70.00,12.00,0.00,30.13,1016.10,10.00,M,FEW,SCT,OVC,M,200.00,6500.00,9500.00,M,-TSRA,M,M,M,M,M,M,73.40,KINS 281844Z AUTO 07012KT 10SM -TSRA FEW002 SCT065 OVC095 23/13 A3013 RMK AO2 RAB29 SLP161 $,M
INS,2022-09-28 18:49,-115.6733,36.5872,955.00,73.40,55.40,53.29,100.00,12.00,0.00,30.13,1016.10,10.00,M,FEW,OVC,M,M,200.00,9500.00,M,M,TS,M,M,M,M,M,M,73.40,KINS 281849Z AUTO 10012KT 10SM TS FEW002 OVC095 23/13 A3013 RMK AO2 RAB29E46DZB46E49 SLP161 $,M
VGT,2022-09-28 18:53,-115.1933,36.2111,667.00,86.00,59.00,40.14,90.00,8.00,0.00,30.11,1018.70,10.00,M,CLR,M,M,M,M,M,M,M,M,M,M,M,M,M,M,85.47,KVGT 281853Z 09008KT 10SM CLR 30/15 A3011 RMK AO2 LTG DSNT NW SLP187 T03000150,M
ELY,2022-09-28 18:53,-114.8453,39.2950,1909.00,76.00,33.00,20.92,220.00,9.00,0.00,30.30,1017.40,10.00,M,SCT,SCT,M,M,10000.00,12000.00,M,M,M,M,M,M,M,M,M,75.90,KELY 281853Z AUTO 22009KT 10SM SCT100 SCT120 24/01 A3030 RMK AO2 SLP174 T02440006,M
DRA,2022-09-28 18:53,-116.0278,36.6206,1009.00,88.00,47.00,24.15,120.00,15.00,0.00,30.11,1014.80,10.00,M,CLR,M,M,M,M,M,M,M,M,M,M,M,M,M,M,84.90,KDRA 281853Z AUTO 12015KT 10SM CLR 31/08 A3011 RMK AO2 SLP148 T03110083,M
LOL,2022-09-28 18:53,-118.5701,40.0684,1192.43,82.00,27.00,13.36,160.00,8.00,0.00,30.12,1016.20,10.00,M,CLR,M,M,M,M,M,M,M,M,M,M,M,M,M,M,79.64,KLOL 281853Z AUTO 16008KT 10SM CLR 28/M03 A3012 RMK AO2 SLP162 T02781028,M
P68,2022-09-28 18:53,-116.0056,39.6014,1993.00,78.00,28.00,15.81,180.00,13.00,0.00,30.23,1016.00,M,20.00,M,M,M,M,M,M,M,M,M,M,M,M,M,M,M,78.10,KP68 281853Z AUTO 18013G20KT 26/M02 A3023 RMK AO1 SLP160 T02561022,M
LSV,2022-09-28 18:55,-115.0343,36.2362,570.00,85.50,58.30,39.77,90.00,10.00,0.00,30.07,M,10.00,M,CLR,M,M,M,M,M,M,M,M,M,M,M,M,M,M,84.83,KLSV 281855Z 09010KT 10SM CLR 30/15 A3007 RMK AO2A LTG DSNT NW SLPNO T02970146 $,M
CXP,2022-09-28 18:55,-119.7326,39.1923,1431.00,82.40,28.40,13.96,M,5.00,0.00,30.17,M,10.00,23.00,CLR,M,M,M,M,M,M,M,M,M,M,M,M,M,M,79.94,KCXP 281855Z AUTO VRB05G23KT 10SM CLR 28/M02 A3017 RMK AO2,M
TMT,2022-09-28 18:55,-117.1971,39.4643,1749.34,M,M,M,220.00,3.00,0.00,30.25,M,10.00,M,CLR,M,M,M,M,M,M,M,M,M,M,M,M,M,M,M,KTMT 281855Z AUTO 22003KT 10SM CLR A3025 RMK AO2,M
RNO,2022-09-28 18:55,-119.7711,39.4839,1341.00,83.00,35.00,18.01,200.00,16.00,0.00,30.13,1014.60,10.00,24.00,FEW,BKN,M,M,11000.00,24000.00,M,M,M,M,M,M,28.00,180.00,2022-09-28 18:43,80.41,KRNO 281855Z 20016G24KT 10SM FEW110 BKN240 28/02 A3013 RMK AO2 PK WND 18028/1843 SLP146 T02830017,M
HTH,2022-09-28 18:55,-118.6315,38.5448,1282.89,86.00,24.80,10.72,80.00,9.00,0.00,30.13,M,10.00,M,CLR,M,M,M,M,M,M,M,M,M,M,M,M,M,M,82.26,KHTH 281855Z AUTO 08009KT 10SM CLR 30/M04 A3013 RMK A01,M
BAM,2022-09-28 18:55,-116.8743,40.5990,1382.36,84.20,30.20,14.18,230.00,10.00,0.00,30.17,M,10.00,M,SCT,M,M,M,12000.00,M,M,M,M,M,M,M,M,M,M,81.26,KBAM 281855Z AUTO 23010KT 10SM SCT120 29/M01 A3017 RMK AO1,M
MEV,2022-09-28 18:55,-119.7500,38.9963,1441.42,80.60,30.20,15.94,210.00,18.00,0.00,30.16,M,10.00,27.00,CLR,M,M,M,M,M,M,M,M,M,M,M,M,M,M,78.77,KMEV 281855Z AUTO 21018G27KT 10SM CLR 27/M01 A3016 RMK AO2,M
05U,2022-09-28 18:55,-116.0051,39.6042,1811.23,80.60,28.40,14.81,210.00,12.00,0.00,30.26,M,10.00,17.00,FEW,M,M,M,11000.00,M,M,M,M,M,M,M,M,M,M,78.72,K05U 281855Z AUTO 21012G17KT 10SM FEW110 27/M02 A3026 RMK A01,M
RTS,2022-09-28 18:55,-119.8764,39.6682,1539.00,75.20,28.40,17.70,210.00,15.00,0.00,30.18,M,10.00,22.00,CLR,M,M,M,M,M,M,M,M,M,M,M,M,M,M,75.20,KRTS 281855Z AUTO 21015G22KT 10SM CLR 24/M02 A3018 RMK AO2,M
BVU,2022-09-28 18:55,-114.8611,35.9475,671.00,87.80,53.60,31.17,30.00,11.00,0.00,30.11,M,10.00,M,CLR,M,M,M,M,M,M,M,M,M,M,M,M,M,M,85.72,KBVU 281855Z AUTO 03011KT 10SM CLR 31/12 A3011 RMK AO2,M
INS,2022-09-28 18:56,-115.6733,36.5872,955.00,74.80,57.00,53.88,100.00,15.00,0.10,30.13,1016.10,10.00,M,FEW,OVC,M,M,200.00,9500.00,M,M,TS,M,M,M,M,M,M,74.80,KINS 281856Z AUTO 10015KT 10SM TS FEW002 OVC095 24/14 A3013 RMK AO2 RAB29E46DZB46E49 SLP161 P0010 T02380139 $,M
EKO,2022-09-28 18:56,-115.7860,40.8242,1367.00,79.00,30.00,16.66,M,M,0.00,30.19,1017.30,10.00,M,CLR,M,M,M,M,M,M,M,M,M,M,M,M,M,M,79.00,KEKO 281856Z AUTO 10SM CLR 26/M01 A3019 RMK AO2 SLP173 T02611011,M
WMC,2022-09-28 18:56,-117.8072,40.9019,1315.00,85.00,28.00,12.67,140.00,12.00,0.00,30.12,1015.30,10.00,21.00,CLR,M,M,M,M,M,M,M,M,M,M,M,M,M,M,81.73,KWMC 281856Z AUTO 14012G21KT 10SM CLR 29/M02 A3012 RMK AO2 SLP153 T02941022,M
TPH,2022-09-28 18:56,-117.0904,38.0505,1654.00,79.00,32.00,18.06,190.00,6.00,0.00,30.25,1017.70,10.00,M,CLR,M,M,M,M,M,M,M,M,M,M,M,M,M,M,79.00,KTPH 281856Z AUTO 19006KT 10SM CLR 26/00 A3025 RMK AO2 SLP177 T02610000,M
NFL,2022-09-28 18:56,-118.7010,39.4166,1199.00,86.00,28.00,12.23,180.00,7.00,0.00,30.11,1016.10,10.00,M,CLR,M,M,M,M,M,M,M,M,M,M,M,M,M,M,82.50,KNFL 281856Z 18007KT 10SM CLR 30/M02 A3011 RMK AO2 SLP161 T03001022,M
LAS,2022-09-28 18:56,-115.1634,36.0719,663.00,85.00,58.00,39.97,80.00,10.00,0.00,30.13,1017.50,10.00,M,FEW,SCT,M,M,12000.00,25000.00,M,M,M,M,M,M,M,M,M,84.21,KLAS 281856Z 08010KT 10SM FEW120 SCT250 29/14 A3013 RMK AO2 SLP175 CB DSNT SW AND NW T02940144,M
HND,2022-09-28 18:56,-115.1344,35.9729,742.79,85.00,58.00,39.97,50.00,7.00,0.00,30.15,1019.80,10.00,M,CLR,M,M,M,M,M,M,M,M,M,M,M,M,M,M,84.21,KHND 281856Z 05007KT 10SM CLR 29/14 A3015 RMK AO2 SLP198 T02940144,M
INS,2022-09-28 19:03,-115.6733,36.5872,955.00,75.20,53.60,46.98,90.00,18.00,0.00,30.13,1016.10,10.00,24.00,BKN,BKN,BKN,M,9500.00,14000.00,20000.00,M,VCTS,M,M,M,M,M,M,75.20,KINS 281903Z AUTO 09018G24KT 10SM VCTS BKN095 BKN140 BKN200 24/12 A3013 RMK AO2 TSE03 SLP161 $,M
LSV,2022-09-28 19:07,-115.0343,36.2362,570.00,86.00,60.80,42.80,60.00,16.00,0.00,30.07,M,10.00,M,CLR,M,M,M,M,M,M,M,M,M,M,M,M,M,M,86.05,KLSV 281907Z AUTO 06016KT 10SM CLR 30/16 A3007 RMK AO2 WSHFT 1857 LTG DSNT NW SLPNO $,M
TMT,2022-09-28 19:15,-117.1971,39.4643,1749.34,M,M,M,0.00,0.00,0.00,30.24,M,10.00,M,CLR,M,M,M,M,M,M,M,M,M,M,M,M,M,M,M,KTMT 281915Z AUTO 00000KT 10SM CLR A3024 RMK AO2,M
BVU,2022-09-28 19:15,-114.8611,35.9475,671.00,89.60,53.60,29.45,50.00,9.00,0.00,30.10,M,10.00,M,CLR,M,M,M,M,M,M,M,M,M,M,M,M,M,M,87.36,KBVU 281915Z AUTO 05009KT 10SM CLR 32/12 A3010 RMK AO2,M
CXP,2022-09-28 19:15,-119.7326,39.1923,1431.00,82.40,30.20,15.03,220.00,11.00,0.00,30.17,M,10.00,17.00,CLR,M,M,M,M,M,M,M,M,M,M,M,M,M,M,79.97,KCXP 281915Z AUTO 22011G17KT 10SM CLR 28/M01 A3017 RMK AO2,M
RTS,2022-09-28 19:15,-119.8764,39.6682,1539.00,75.20,30.20,19.05,220.00,9.00,0.00,30.18,M,10.00,19.00,CLR,M,M,M,M,M,M,M,M,M,M,M,M,M,M,75.20,KRTS 281915Z AUTO 22009G19KT 10SM CLR 24/M01 A3018 RMK AO2,M
05U,2022-09-28 19:15,-116.0051,39.6042,1811.23,80.60,30.20,15.94,210.00,15.00,0.00,30.26,M,10.00,M,BKN,M,M,M,10000.00,M,M,M,M,M,M,M,M,M,M,78.77,K05U 281915Z AUTO 21015KT 10SM BKN100 27/M01 A3026 RMK A01,M
MEV,2022-09-28 19:15,-119.7500,38.9963,1441.42,80.60,30.20,15.94,230.00,16.00,0.00,30.16,M,10.00,25.00,CLR,M,M,M,M,M,M,M,M,M,M,M,M,M,M,78.77,KMEV 281915Z AUTO 23016G25KT 10SM CLR 27/M01 A3016 RMK AO2,M
BAM,2022-09-28 19:15,-116.8743,40.5990,1382.36,86.00,32.00,14.40,210.00,12.00,0.00,30.16,M,10.00,17.00,CLR,M,M,M,M,M,M,M,M,M,M,M,M,M,M,82.64,KBAM 281915Z AUTO 21012G17KT 10SM CLR 30/00 A3016 RMK AO1,M
HTH,2022-09-28 19:15,-118.6315,38.5448,1282.89,86.00,24.80,10.72,150.00,4.00,0.00,30.12,M,10.00,M,CLR,M,M,M,M,M,M,M,M,M,M,M,M,M,M,82.26,KHTH 281915Z AUTO 15004KT 10SM CLR 30/M04 A3012 RMK A01,M
INS,2022-09-28 19:23,-115.6733,36.5872,955.00,78.80,51.80,39.02,90.00,17.00,0.00,30.13,1016.10,10.00,M,BKN,BKN,BKN,M,10000.00,12000.00,20000.00,M,M,M,M,M,M,M,M,78.80,KINS 281923Z AUTO 09017KT 10SM BKN100 BKN120 BKN200 26/11 A3013 RMK AO2 TSE03 SLP161 $,M
CXP,2022-09-28 19:35,-119.7326,39.1923,1431.00,78.80,30.20,16.90,220.00,14.00,0.00,30.17,M,10.00,22.00,CLR,M,M,M,M,M,M,M,M,M,M,M,M,M,M,78.80,KCXP 281935Z AUTO 22014G22KT 10SM CLR 26/M01 A3017 RMK AO2,M
BVU,2022-09-28 19:35,-114.8611,35.9475,671.00,87.80,53.60,31.17,40.00,12.00,0.00,30.09,M,10.00,M,CLR,M,M,M,M,M,M,M,M,M,M,M,M,M,M,85.72,KBVU 281935Z AUTO 04012KT 10SM CLR 31/12 A3009 RMK AO2,M
TMT,2022-09-28 19:35,-117.1971,39.4643,1749.34,M,M,M,260.00,5.00,0.00,30.24,M,10.00,M,CLR,M,M,M,M,M,M,M,M,M,M,M,M,M,M,M,KTMT 281935Z AUTO 26005KT 10SM CLR A3024 RMK AO2,M
HTH,2022-09-28 19:35,-118.6315,38.5448,1282.89,86.00,24.80,10.72,0.00,0.00,0.00,30.11,M,10.00,14.00,CLR,M,M,M,M,M,M,M,M,M,M,M,M,M,M,82.26,KHTH 281935Z AUTO 00000G14KT 10SM CLR 30/M04 A3011 RMK A01,M
BAM,2022-09-28 19:35,-116.8743,40.5990,1382.36,86.00,30.20,13.38,220.00,9.00,0.00,30.15,M,10.00,15.00,CLR,M,M,M,M,M,M,M,M,M,M,M,M,M,M,82.64,KBAM 281935Z AUTO 22009G15KT 10SM CLR 30/M01 A3015 RMK AO1,M
MEV,2022-09-28 19:35,-119.7500,38.9963,1441.42,78.80,30.20,16.90,230.00,22.00,0.00,30.15,M,10.00,29.00,CLR,M,M,M,M,M,M,M,M,M,M,M,M,M,M,78.80,KMEV 281935Z AUTO 23022G29KT 10SM CLR 26/M01 A3015 RMK AO2,M
RTS,2022-09-28 19:35,-119.8764,39.6682,1539.00,77.00,30.20,17.94,230.00,18.00,0.00,30.17,M,10.00,24.00,CLR,M,M,M,M,M,M,M,M,M,M,M,M,M,M,77.00,KRTS 281935Z AUTO 23018G24KT 10SM CLR 25/M01 A3017 RMK AO2,M
05U,2022-09-28 19:35,-116.0051,39.6042,1811.23,78.80,30.20,16.90,200.00,12.00,0.00,30.25,M,10.00,19.00,BKN,M,M,M,10000.00,M,M,M,M,M,M,M,M,M,M,78.80,K05U 281935Z AUTO 20012G19KT 10SM BKN100 26/M01 A3025 RMK A01,M
ELY,2022-09-28 19:53,-114.8453,39.2950,1909.00,76.00,38.00,25.31,180.00,10.00,0.00,30.28,1016.70,10.00,20.00,SCT,BKN,M,M,9000.00,12000.00,M,M,M,M,M,M,26.00,170.00,2022-09-28 19:00,75.90,KELY 281953Z AUTO 18010G20KT 10SM SCT090 BKN120 24/03 A3028 RMK AO2 PK WND 17026/1900 LTG DSNT S SLP167 T02440033,M
DRA,2022-09-28 19:53,-116.0278,36.6206,1009.00,87.00,48.00,25.90,110.00,18.00,0.00,30.10,1014.70,10.00,31.00,FEW,FEW,M,M,9500.00,11000.00,M,M,M,M,M,M,31.00,110.00,2022-09-28 19:32,84.27,KDRA 281953Z AUTO 11018G31KT 10SM FEW095 FEW110 31/09 A3010 RMK AO2 PK WND 11031/1932 SLP147 T03060089,M
LOL,2022-09-28 19:53,-118.5701,40.0684,1192.43,85.00,30.00,13.75,240.00,10.00,0.00,30.09,1015.30,10.00,20.00,CLR,M,M,M,M,M,M,M,M,M,M,M,M,M,M,81.79,KLOL 281953Z AUTO 24010G20KT 10SM CLR 29/M01 A3009 RMK AO2 SLP153 T02941011,M
VGT,2022-09-28 19:53,-115.1933,36.2111,667.00,88.00,56.00,33.68,90.00,13.00,0.00,30.09,1018.00,10.00,M,CLR,M,M,M,M,M,M,M,M,M,M,M,M,M,M,86.42,KVGT 281953Z 09013KT 10SM CLR 31/13 A3009 RMK AO2 SLP180 T03110133,M
P68,2022-09-28 19:53,-116.0056,39.6014,1993.00,79.00,30.00,16.66,180.00,14.00,0.00,30.21,1015.50,M,26.00,M,M,M,M,M,M,M,M,M,M,M,M,26.00,190.00,2022-09-28 19:49,79.00,KP68 281953Z AUTO 18014G26KT 26/M01 A3021 RMK AO1 PK WND 19026/1949 SLP155 T02611011,M
RTS,2022-09-28 19:55,-119.8764,39.6682,1539.00,77.00,28.40,16.67,220.00,17.00,0.00,30.17,M,10.00,25.00,CLR,M,M,M,M,M,M,M,M,M,M,M,M,M,M,77.00,KRTS 281955Z AUTO 22017G25KT 180V240 10SM CLR 25/M02 A3017 RMK AO2,M
CXP,2022-09-28 19:55,-119.7326,39.1923,1431.00,80.60,32.00,17.14,220.00,11.00,0.00,30.17,M,10.00,20.00,CLR,M,M,M,M,M,M,M,M,M,M,M,M,M,M,78.82,KCXP 281955Z AUTO 22011G20KT 10SM CLR 27/M00 A3017 RMK AO2,M
BVU,2022-09-28 19:55,-114.8611,35.9475,671.00,89.60,51.80,27.56,40.00,13.00,0.00,30.08,M,10.00,M,CLR,M,M,M,M,M,M,M,M,M,M,M,M,M,M,87.00,KBVU 281955Z AUTO 04013KT 10SM CLR 32/11 A3008 RMK AO2,M
RNO,2022-09-28 19:55,-119.7711,39.4839,1341.00,82.00,33.00,17.12,220.00,20.00,0.00,30.11,1014.50,10.00,32.00,FEW,BKN,BKN,M,9000.00,18000.00,24000.00,M,M,M,M,M,32.00,220.00,2022-09-28 19:53,79.75,KRNO 281955Z 22020G32KT 10SM FEW090 BKN180 BKN240 28/01 A3011 RMK AO2 PK WND 22032/1953 SLP145 ACSL N AND SE THRU S T02780006,M
LSV,2022-09-28 19:55,-115.0343,36.2362,570.00,86.40,58.50,38.92,40.00,17.00,0.00,30.06,M,10.00,M,SCT,M,M,M,10000.00,M,M,M,M,M,M,M,M,M,M,85.68,KLSV 281955Z 04017KT 10SM SCT100 30/15 A3006 RMK AO2A SLPNO T03020147 $,M
TMT,2022-09-28 19:55,-117.1971,39.4643,1749.34,M,M,M,250.00,8.00,0.00,30.23,M,10.00,M,CLR,M,M,M,M,M,M,M,M,M,M,M,M,M,M,M,KTMT 281955Z AUTO 25008KT 10SM CLR A3023 RMK AO2,M
HTH,2022-09-28 19:55,-118.6315,38.5448,1282.89,87.80,24.80,10.12,330.00,8.00,0.00,30.10,M,10.00,M,CLR,M,M,M,M,M,M,M,M,M,M,M,M,M,M,83.56,KHTH 281955Z AUTO 33008KT 10SM CLR 31/M04 A3010 RMK A01,M
BAM,2022-09-28 19:55,-116.8743,40.5990,1382.36,86.00,30.20,13.38,260.00,4.00,0.00,30.15,M,10.00,14.00,CLR,M,M,M,M,M,M,M,M,M,M,M,M,M,M,82.64,KBAM 281955Z AUTO 26004G14KT 10SM CLR 30/M01 A3015 RMK AO1,M
MEV,2022-09-28 19:55,-119.7500,38.9963,1441.42,82.40,30.20,15.03,230.00,16.00,0.00,30.15,M,9.00,30.00,CLR,M,M,M,M,M,M,M,M,M,M,M,M,M,M,79.97,KMEV 281955Z AUTO 23016G30KT 9SM CLR 28/M01 A3015 RMK AO2,M
05U,2022-09-28 19:55,-116.0051,39.6042,1811.23,80.60,30.20,15.94,170.00,14.00,0.00,30.24,M,10.00,22.00,SCT,M,M,M,10000.00,M,M,M,M,M,M,M,M,M,M,78.77,K05U 281955Z AUTO 17014G22KT 10SM SCT100 27/M01 A3024 RMK A01,M
NFL,2022-09-28 19:56,-118.7010,39.4166,1199.00,88.00,28.00,11.48,220.00,13.00,0.00,30.09,1015.60,10.00,18.00,SCT,SCT,SCT,M,10000.00,15000.00,22000.00,M,M,M,M,M,M,M,M,83.95,KNFL 281956Z 22013G18KT 10SM SCT100 SCT150 SCT220 31/M02 A3009 RMK AO2 SLP156 T03111022,M
LAS,2022-09-28 19:56,-115.1634,36.0719,663.00,87.00,57.00,36.07,50.00,9.00,0.00,30.10,1016.50,10.00,M,FEW,FEW,SCT,M,8000.00,12000.00,25000.00,M,M,M,M,M,M,M,M,85.89,KLAS 281956Z 05009KT 10SM FEW080 FEW120 SCT250 31/14 A3010 RMK AO2 SLP165 CB DSNT SW T03060139,M
TPH,2022-09-28 19:56,-117.0904,38.0505,1654.00,82.00,30.90,15.66,170.00,11.00,0.00,30.22,1016.50,10.00,15.00,CLR,M,M,M,M,M,M,M,M,M,M,M,M,M,M,79.70,KTPH 281956Z AUTO 17011G15KT 10SM CLR 28/M01 A3022 RMK AO2 SLP165 T02781006,M
INS,2022-09-28 19:56,-115.6733,36.5872,955.00,80.00,55.40,42.94,80.00,15.00,0.00,30.12,1015.60,10.00,M,FEW,BKN,BKN,M,10000.00,14000.00,17000.00,M,M,M,M,M,M,M,M,79.90,KINS 281956Z AUTO 08015KT 10SM FEW100 BKN140 BKN170 27/13 A3012 RMK AO2 TSE03 SLP156 T02660130 $,M
EKO,2022-09-28 19:56,-115.7860,40.8242,1367.00,80.00,28.90,15.36,M,4.00,0.00,30.17,1016.80,10.00,M,FEW,M,M,M,12000.00,M,M,M,M,M,M,M,M,M,M,78.53,KEKO 281956Z AUTO VRB04KT 10SM FEW120 27/M02 A3017 RMK AO2 SLP168 T02671017,M
HND,2022-09-28 19:56,-115.1344,35.9729,742.79,87.00,56.00,34.66,30.00,9.00,0.00,30.12,1018.90,10.00,M,CLR,M,M,M,M,M,M,M,M,M,M,M,M,M,M,85.61,KHND 281956Z 03009KT 10SM CLR 31/13 A3012 RMK AO2 LTG DSNT W SLP189 T03060133,M
WMC,2022-09-28 19:56,-117.8072,40.9019,1315.00,85.00,28.90,13.15,200.00,6.00,0.00,30.10,1015.20,10.00,19.00,CLR,M,M,M,M,M,M,M,M,M,M,M,M,M,M,81.78,KWMC 281956Z AUTO 20006G19KT 10SM CLR 29/M02 A3010 RMK AO2 SLP152 T02941017,M
HTH,2022-09-28 20:15,-118.6315,38.5448,1282.89,87.80,24.80,10.12,350.00,6.00,0.00,30.10,M,10.00,13.00,CLR,M,M,M,M,M,M,M,M,M,M,M,M,M,M,83.56,KHTH 282015Z AUTO 35006G13KT 10SM CLR 31/M04 A3010 RMK A01,M
BAM,2022-09-28 20:15,-116.8743,40.5990,1382.36,87.80,30.20,12.64,240.00,9.00,0.00,30.14,M,10.00,14.00,CLR,M,M,M,M,M,M,M,M,M,M,M,M,M,M,84.01,KBAM 282015Z AUTO 24009G14KT 10SM CLR 31/M01 A3014 RMK AO1,M
MEV,2022-09-28 20:15,-119.7500,38.9963,1441.42,82.40,30.20,15.03,230.00,19.00,0.00,30.15,M,10.00,31.00,CLR,M,M,M,M,M,M,M,M,M,M,M,M,M,M,79.97,KMEV 282015Z AUTO 23019G31KT 10SM CLR 28/M01 A3015 RMK AO2,M
05U,2022-09-28 20:15,-116.0051,39.6042,1811.23,80.60,30.20,15.94,200.00,15.00,0.00,30.23,M,10.00,21.00,SCT,M,M,M,10000.00,M,M,M,M,M,M,M,M,M,M,78.77,K05U 282015Z AUTO 20015G21KT 10SM SCT100 27/M01 A3023 RMK A01,M
RTS,2022-09-28 20:15,-119.8764,39.6682,1539.00,77.00,28.40,16.67,230.00,14.00,0.00,30.17,M,10.00,20.00,CLR,M,M,M,M,M,M,M,M,M,M,M,M,M,M,77.00,KRTS 282015Z AUTO 23014G20KT 10SM CLR 25/M02 A3017 RMK AO2,M
CXP,2022-09-28 20:15,-119.7326,39.1923,1431.00,80.60,30.20,15.94,210.00,15.00,0.00,30.16,M,10.00,29.00,CLR,M,M,M,M,M,M,M,M,M,M,M,M,M,M,78.77,KCXP 282015Z AUTO 21015G29KT 180V250 10SM CLR 27/M01 A3016 RMK AO2,M
BVU,2022-09-28 20:15,-114.8611,35.9475,671.00,89.60,50.00,25.79,40.00,12.00,0.00,30.07,M,10.00,M,CLR,M,M,M,M,M,M,M,M,M,M,M,M,M,M,86.70,KBVU 282015Z AUTO 04012KT 10SM CLR 32/10 A3007 RMK AO2,M
TMT,2022-09-28 20:15,-117.1971,39.4643,1749.34,M,M,M,290.00,9.00,0.00,30.22,M,10.00,15.00,CLR,M,M,M,M,M,M,M,M,M,M,M,M,M,M,M,KTMT 282015Z AUTO 29009G15KT 10SM CLR A3022 RMK AO2,M
TPH,2022-09-28 20:22,-117.0904,38.0505,1654.00,83.00,30.90,15.21,220.00,11.00,0.00,30.21,M,10.00,22.00,CLR,M,M,M,M,M,M,M,M,M,M,M,27.00,240.00,2022-09-28 20:08,80.33,KTPH 282022Z AUTO 22011G22KT 10SM CLR 28/M01 A3021 RMK AO2 PK WND 24027/2008 WSHFT 2002 T02831006,M
05U,2022-09-28 20:35,-116.0051,39.6042,1811.23,80.60,28.40,14.81,200.00,12.00,0.00,30.23,M,10.00,18.00,CLR,M,M,M,M,M,M,M,M,M,M,M,M,M,M,78.72,K05U 282035Z AUTO 20012G18KT 10SM CLR 27/M02 A3023 RMK A01,M
RTS,2022-09-28 20:35,-119.8764,39.6682,1539.00,78.80,28.40,15.71,220.00,13.00,0.00,30.16,M,10.00,24.00,CLR,M,M,M,M,M,M,M,M,M,M,M,M,M,M,78.80,KRTS 282035Z AUTO 22013G24KT 10SM CLR 26/M02 A3016 RMK AO2,M
BVU,2022-09-28 20:35,-114.8611,35.9475,671.00,89.60,50.00,25.79,30.00,12.00,0.00,30.06,M,10.00,18.00,CLR,M,M,M,M,M,M,M,M,M,M,M,M,M,M,86.70,KBVU 282035Z AUTO 03012G18KT 10SM CLR 32/10 A3006 RMK AO2,M
CXP,2022-09-28 20:35,-119.7326,39.1923,1431.00,82.40,30.20,15.03,240.00,15.00,0.00,30.15,M,10.00,24.00,CLR,M,M,M,M,M,M,M,M,M,M,M,M,M,M,79.97,KCXP 282035Z AUTO 24015G24KT 210V270 10SM CLR 28/M01 A3015 RMK AO2,M
BAM,2022-09-28 20:35,-116.8743,40.5990,1382.36,87.80,30.20,12.64,210.00,10.00,0.00,30.13,M,10.00,19.00,CLR,M,M,M,M,M,M,M,M,M,M,M,M,M,M,84.01,KBAM 282035Z AUTO 21010G19KT 10SM CLR 31/M01 A3013 RMK AO1,M
HTH,2022-09-28 20:35,-118.6315,38.5448,1282.89,87.80,24.80,10.12,M,5.00,0.00,30.09,M,10.00,M,CLR,M,M,M,M,M,M,M,M,M,M,M,M,M,M,83.56,KHTH 282035Z AUTO VRB05KT 10SM CLR 31/M04 A3009 RMK A01,M
TMT,2022-09-28 20:35,-117.1971,39.4643,1749.34,M,M,M,170.00,6.00,0.00,30.21,M,10.00,M,CLR,M,M,M,M,M,M,M,M,M,M,M,M,M,M,M,KTMT 282035Z AUTO 17006KT 10SM CLR A3021 RMK AO2,M
MEV,2022-09-28 20:35,-119.7500,38.9963,1441.42,80.60,30.20,15.94,230.00,24.00,0.00,30.14,M,8.00,34.00,CLR,M,M,M,M,M,M,M,M,M,M,M,M,M,M,78.77,KMEV 282035Z AUTO 23024G34KT 8SM CLR 27/M01 A3014 RMK AO2,M
VGT,2022-09-28 20:53,-115.1933,36.2111,667.00,89.00,53.00,29.37,110.00,10.00,0.00,30.07,1017.20,10.00,M,CLR,M,M,M,M,M,M,M,M,M,M,M,M,M,M,86.79,KVGT 282053Z 11010KT 10SM CLR 32/12 A3007 RMK AO2 SLP172 T03170117 58018,M
ELY,2022-09-28 20:53,-114.8453,39.2950,1909.00,77.00,41.00,27.53,160.00,17.00,0.00,30.26,1015.80,10.00,26.00,BKN,BKN,M,M,9000.00,11000.00,M,M,M,M,M,M,31.00,220.00,2022-09-28 20:14,77.00,KELY 282053Z AUTO 16017G26KT 10SM BKN090 BKN110 25/05 A3026 RMK AO2 PK WND 22031/2014 LTG DSNT SE SLP158 T02500050 58014,M
DRA,2022-09-28 20:53,-116.0278,36.6206,1009.00,85.00,50.00,29.94,90.00,16.00,0.00,30.08,1013.80,10.00,25.00,SCT,SCT,M,M,9500.00,11000.00,M,M,M,M,M,M,30.00,110.00,2022-09-28 20:00,82.76,KDRA 282053Z AUTO 09016G25KT 10SM SCT095 SCT110 29/10 A3008 RMK AO2 PK WND 11030/2000 SLP138 T02940100 58016,M
P68,2022-09-28 20:53,-116.0056,39.6014,1993.00,80.00,30.00,16.07,190.00,18.00,0.00,30.19,1014.60,M,27.00,M,M,M,M,M,M,M,M,M,M,M,M,29.00,200.00,2022-09-28 20:06,78.57,KP68 282053Z AUTO 19018G27KT 27/M01 A3019 RMK AO1 PK WND 20029/2006 SLP146 T02671011 57021,M
LOL,2022-09-28 20:53,-118.5701,40.0684,1192.43,86.00,30.90,13.77,200.00,11.00,0.00,30.07,1014.60,10.00,21.00,CLR,M,M,M,M,M,M,M,M,M,M,M,M,M,M,82.64,KLOL 282053Z AUTO 20011G21KT 10SM CLR 30/M01 A3007 RMK AO2 SLP146 T03001006 58020,M
LSV,2022-09-28 20:55,-115.0343,36.2362,570.00,88.30,54.70,31.94,60.00,20.00,0.00,30.03,M,10.00,M,CLR,M,M,M,M,M,M,M,M,M,M,M,M,M,M,86.40,KLSV 282055Z 06020KT 10SM CLR 31/13 A3003 RMK AO2A SLPNO T03130126 57018 $,M
TMT,2022-09-28 20:55,-117.1971,39.4643,1749.34,M,M,M,280.00,5.00,0.00,30.21,M,5.00,M,SCT,BKN,BKN,M,2400.00,3200.00,11000.00,M,HZ,M,M,M,M,M,M,M,KTMT 282055Z AUTO 28005KT 5SM HZ SCT024 BKN032 BKN110 A3021 RMK AO2 LTG DSNT SE,M
HTH,2022-09-28 20:55,-118.6315,38.5448,1282.89,89.60,24.80,9.56,M,4.00,0.00,30.08,M,10.00,M,CLR,M,M,M,M,M,M,M,M,M,M,M,M,M,M,84.88,KHTH 282055Z AUTO VRB04KT 10SM CLR 32/M04 A3008 RMK A01,M
BAM,2022-09-28 20:55,-116.8743,40.5990,1382.36,87.80,30.20,12.64,270.00,10.00,0.00,30.12,M,10.00,M,CLR,M,M,M,M,M,M,M,M,M,M,M,M,M,M,84.01,KBAM 282055Z AUTO 27010KT 10SM CLR 31/M01 A3012 RMK AO1,M
MEV,2022-09-28 20:55,-119.7500,38.9963,1441.42,82.40,30.20,15.03,240.00,17.00,0.00,30.13,M,10.00,27.00,CLR,M,M,M,M,M,M,M,M,M,M,M,M,M,M,79.97,KMEV 282055Z AUTO 24017G27KT 10SM CLR 28/M01 A3013 RMK AO2,M
05U,2022-09-28 20:55,-116.0051,39.6042,1811.23,80.60,28.40,14.81,190.00,15.00,0.00,30.22,M,10.00,M,FEW,M,M,M,11000.00,M,M,M,M,M,M,M,M,M,M,78.72,K05U 282055Z AUTO 19015KT 10SM FEW110 27/M02 A3022 RMK A01,M
RTS,2022-09-28 20:55,-119.8764,39.6682,1539.00,77.00,28.40,16.67,240.00,17.00,0.00,30.16,M,10.00,22.00,CLR,M,M,M,M,M,M,M,M,M,M,M,M,M,M,77.00,KRTS 282055Z AUTO 24017G22KT 10SM CLR 25/M02 A3016 RMK AO2,M
RNO,2022-09-28 20:55,-119.7711,39.4839,1341.00,82.00,34.00,17.74,190.00,19.00,0.00,30.10,1014.00,10.00,28.00,FEW,BKN,BKN,M,9000.00,20000.00,24000.00,M,M,M,M,M,30.00,240.00,2022-09-28 20:28,79.77,KRNO 282055Z 19019G28KT 10SM FEW090 BKN200 BKN240 28/01 A3010 RMK AO2 PK WND 24030/2028 SLP140 ACSL N AND S T02780011 56017,M
BVU,2022-09-28 20:55,-114.8611,35.9475,671.00,91.40,50.00,24.37,40.00,12.00,0.00,30.05,M,10.00,M,CLR,M,M,M,M,M,M,M,M,M,M,M,M,M,M,88.36,KBVU 282055Z AUTO 04012KT 10SM CLR 33/10 A3005 RMK AO2,M
INS,2022-09-28 20:55,-115.6733,36.5872,955.00,84.20,50.00,30.62,100.00,21.00,0.00,30.08,1014.00,10.00,24.00,BKN,BKN,BKN,M,13000.00,16000.00,18000.00,M,M,M,M,M,M,M,M,82.24,KINS 282055Z AUTO 10021G24KT 10SM BKN130 BKN160 BKN180 29/10 A3008 RMK AO2 SLP140 $,M
CXP,2022-09-28 20:55,-119.7326,39.1923,1431.00,82.40,30.20,15.03,240.00,11.00,0.00,30.14,M,10.00,24.00,CLR,M,M,M,M,M,M,M,M,M,M,M,M,M,M,79.97,KCXP 282055Z AUTO 24011G24KT 10SM CLR 28/M01 A3014 RMK AO2,M
EKO,2022-09-28 20:56,-115.7860,40.8242,1367.00,84.00,30.90,14.68,M,3.00,0.00,30.14,1015.50,10.00,M,FEW,M,M,M,12000.00,M,M,M,M,M,M,M,M,M,M,81.12,KEKO 282056Z AUTO VRB03KT 10SM FEW120 29/M01 A3014 RMK AO2 SLP155 T02891006 58023,M
HND,2022-09-28 20:56,-115.1344,35.9729,742.79,88.00,56.00,33.68,20.00,12.00,0.00,30.09,1017.80,10.00,M,CLR,M,M,M,M,M,M,M,M,M,M,M,M,M,M,86.42,KHND 282056Z 02012KT 10SM CLR 31/13 A3009 RMK AO2 SLP178 T03110133 58023,M
INS,2022-09-28 20:56,-115.6733,36.5872,955.00,84.40,50.40,30.88,100.00,20.00,0.00,30.08,1014.00,10.00,24.00,BKN,BKN,BKN,M,12000.00,16000.00,19000.00,M,M,M,M,M,M,M,M,82.43,KINS 282056Z AUTO 10020G24KT 10SM BKN120 BKN160 BKN190 29/10 A3008 RMK AO2 SLP140 60010 T02910102 57024 $,M
WMC,2022-09-28 20:56,-117.8072,40.9019,1315.00,86.00,28.00,12.23,200.00,11.00,0.00,30.08,1014.60,10.00,23.00,CLR,M,M,M,M,M,M,M,M,M,M,M,M,M,M,82.50,KWMC 282056Z AUTO 20011G23KT 10SM CLR 30/M02 A3008 RMK AO2 SLP146 T03001022 58017,M
TPH,2022-09-28 20:56,-117.0904,38.0505,1654.00,85.00,30.90,14.26,220.00,19.00,0.00,30.19,1015.40,10.00,24.00,SCT,M,M,M,11000.00,M,M,M,M,M,M,M,28.00,210.00,2022-09-28 20:38,81.79,KTPH 282056Z AUTO 22019G24KT 10SM SCT110 29/M01 A3019 RMK AO2 PK WND 21028/2038 WSHFT 2002 SLP154 T02941006 58021,M
LAS,2022-09-28 20:56,-115.1634,36.0719,663.00,86.00,55.00,34.74,30.00,13.00,0.00,30.07,1015.80,10.00,M,FEW,FEW,SCT,M,8000.00,12000.00,25000.00,M,M,M,M,M,M,M,M,84.46,KLAS 282056Z 03013KT 10SM FEW080 FEW120 SCT250 30/13 A3007 RMK AO2 SLP158 CB DSNT W T03000128 58021,M
NFL,2022-09-28 20:56,-118.7010,39.4166,1199.00,86.00,28.00,12.23,210.00,7.00,0.00,30.06,1014.80,10.00,17.00,SCT,SCT,BKN,M,10000.00,15000.00,20000.00,M,M,M,M,M,M,M,M,82.50,KNFL 282056Z 21007G17KT 10SM SCT100 SCT150 BKN200 30/M02 A3006 RMK AO2 WSHFT 2022 SLP148 T03001022 58021,M
HTH,2022-09-28 21:15,-118.6315,38.5448,1282.89,87.80,24.80,10.12,350.00,13.00,0.00,30.07,M,10.00,18.00,CLR,M,M,M,M,M,M,M,M,M,M,M,M,M,M,83.56,KHTH 282115Z AUTO 35013G18KT 330V030 10SM CLR 31/M04 A3007 RMK A01,M
BVU,2022-09-28 21:15,-114.8611,35.9475,671.00,91.40,50.00,24.37,30.00,9.00,0.00,30.04,M,10.00,M,CLR,M,M,M,M,M,M,M,M,M,M,M,M,M,M,88.36,KBVU 282115Z AUTO 03009KT 10SM CLR 33/10 A3004 RMK AO2,M
CXP,2022-09-28 21:15,-119.7326,39.1923,1431.00,84.20,30.20,14.18,220.00,12.00,0.00,30.14,M,10.00,22.00,CLR,M,M,M,M,M,M,M,M,M,M,M,M,M,M,81.26,KCXP 282115Z AUTO 22012G22KT 190V280 10SM CLR 29/M01 A3014 RMK AO2,M
RTS,2022-09-28 21:15,-119.8764,39.6682,1539.00,80.60,28.40,14.81,250.00,22.00,0.00,30.15,M,10.00,M,CLR,M,M,M,M,M,M,M,M,M,M,M,M,M,M,78.72,KRTS 282115Z AUTO 25022KT 10SM CLR 27/M02 A3015 RMK AO2,M
05U,2022-09-28 21:15,-116.0051,39.6042,1811.23,82.40,28.40,13.96,220.00,12.00,0.00,30.21,M,10.00,18.00,CLR,M,M,M,M,M,M,M,M,M,M,M,M,M,M,79.94,K05U 282115Z AUTO 22012G18KT 10SM CLR 28/M02 A3021 RMK A01,M
MEV,2022-09-28 21:15,-119.7500,38.9963,1441.42,84.20,28.40,13.18,230.00,19.00,0.00,30.13,M,10.00,29.00,CLR,M,M,M,M,M,M,M,M,M,M,M,M,M,M,81.25,KMEV 282115Z AUTO 23019G29KT 10SM CLR 29/M02 A3013 RMK AO2,M
BAM,2022-09-28 21:15,-116.8743,40.5990,1382.36,86.00,30.20,13.38,210.00,8.00,0.00,30.11,M,10.00,24.00,CLR,M,M,M,M,M,M,M,M,M,M,M,M,M,M,82.64,KBAM 282115Z AUTO 21008G24KT 10SM CLR 30/M01 A3011 RMK AO1,M
TMT,2022-09-28 21:15,-117.1971,39.4643,1749.34,M,M,M,250.00,5.00,0.00,30.20,M,7.00,M,SCT,SCT,BKN,M,2100.00,2700.00,11000.00,M,M,M,M,M,M,M,M,M,KTMT 282115Z AUTO 25005KT 7SM SCT021 SCT027 BKN110 A3020 RMK AO2,M
TMT,2022-09-28 21:35,-117.1971,39.4643,1749.34,M,M,M,220.00,6.00,0.00,30.18,M,10.00,16.00,SCT,M,M,M,11000.00,M,M,M,M,M,M,M,M,M,M,M,KTMT 282135Z AUTO 22006G16KT 10SM SCT110 A3018 RMK AO2,M
CXP,2022-09-28 21:35,-119.7326,39.1923,1431.00,84.20,30.20,14.18,230.00,14.00,0.00,30.14,M,10.00,24.00,CLR,M,M,M,M,M,M,M,M,M,M,M,M,M,M,81.26,KCXP 282135Z AUTO 23014G24KT 10SM CLR 29/M01 A3014 RMK AO2,M
05U,2022-09-28 21:35,-116.0051,39.6042,1811.23,84.20,28.40,13.18,210.00,9.00,0.00,30.21,M,10.00,17.00,CLR,M,M,M,M,M,M,M,M,M,M,M,M,M,M,81.25,K05U 282135Z AUTO 21009G17KT 10SM CLR 29/M02 A3021 RMK A01,M
MEV,2022-09-28 21:35,-119.7500,38.9963,1441.42,84.20,28.40,13.18,230.00,26.00,0.00,30.12,M,10.00,31.00,CLR,M,M,M,M,M,M,M,M,M,M,M,M,M,M,81.25,KMEV 282135Z AUTO 23026G31KT 10SM CLR 29/M02 A3012 RMK AO2,M
BAM,2022-09-28 21:35,-116.8743,40.5990,1382.36,86.00,30.20,13.38,240.00,13.00,0.00,30.10,M,10.00,M,CLR,M,M,M,M,M,M,M,M,M,M,M,M,M,M,82.64,KBAM 282135Z AUTO 24013KT 10SM CLR 30/M01 A3010 RMK AO1,M
HTH,2022-09-28 21:35,-118.6315,38.5448,1282.89,89.60,24.80,9.56,20.00,7.00,0.00,30.06,M,10.00,M,CLR,M,M,M,M,M,M,M,M,M,M,M,M,M,M,84.88,KHTH 282135Z AUTO 02007KT 10SM CLR 32/M04 A3006 RMK A01,M
ELY,2022-09-28 21:35,-114.8453,39.2950,1909.00,76.00,41.00,28.56,200.00,15.00,0.00,30.27,M,10.00,22.00,SCT,M,M,M,7500.00,M,M,M,M,M,M,M,26.00,150.00,2022-09-28 21:05,75.90,KELY 282135Z AUTO 20015G22KT 10SM SCT075 24/05 A3027 RMK AO2 PK WND 15026/2105 WSHFT 2115 LTG DSNT N AND NW T02440050,M
BVU,2022-09-28 21:35,-114.8611,35.9475,671.00,91.40,50.00,24.37,30.00,11.00,0.00,30.03,M,10.00,M,CLR,M,M,M,M,M,M,M,M,M,M,M,M,M,M,88.36,KBVU 282135Z AUTO 03011KT 10SM CLR 33/10 A3003 RMK AO2,M
RTS,2022-09-28 21:35,-119.8764,39.6682,1539.00,78.80,28.40,15.71,240.00,19.00,0.00,30.15,M,10.00,34.00,CLR,M,M,M,M,M,M,M,M,M,M,M,M,M,M,78.80,KRTS 282135Z AUTO 24019G34KT 10SM CLR 26/M02 A3015 RMK AO2,M
ELY,2022-09-28 21:53,-114.8453,39.2950,1909.00,74.00,41.00,30.54,200.00,13.00,0.00,30.26,1016.40,10.00,24.00,BKN,M,M,M,11000.00,M,M,M,M,M,M,M,26.00,150.00,2022-09-28 21:05,73.90,KELY 282153Z AUTO 20013G24KT 10SM BKN110 23/05 A3026 RMK AO2 PK WND 15026/2105 WSHFT 2115 LTG DSNT N SLP164 T02330050,M
DRA,2022-09-28 21:53,-116.0278,36.6206,1009.00,86.00,48.00,26.82,110.00,14.00,T,30.06,1013.10,10.00,20.00,FEW,SCT,BKN,M,5500.00,7000.00,11000.00,M,M,M,M,M,27.00,90.00,2022-09-28 21:25,83.38,KDRA 282153Z AUTO 11014G20KT 10SM FEW055 SCT070 BKN110 30/09 A3006 RMK AO2 PK WND 09027/2125 RAB14E23 SLP131 P0000 T03000089,M
LOL,2022-09-28 21:53,-118.5701,40.0684,1192.43,87.00,30.00,12.82,200.00,15.00,0.00,30.04,1013.70,10.00,26.00,CLR,M,M,M,M,M,M,M,M,M,M,M,26.00,220.00,2022-09-28 21:48,83.48,KLOL 282153Z AUTO 20015G26KT 10SM CLR 31/M01 A3004 RMK AO2 PK WND 22026/2148 SLP137 T03061011,M
VGT,2022-09-28 21:53,-115.1933,36.2111,667.00,90.00,52.00,27.42,M,M,0.00,30.04,1016.40,10.00,M,CLR,M,M,M,M,M,M,M,M,M,M,M,M,M,M,87.40,KVGT 282153Z 10SM CLR 32/11 A3004 RMK AO2 SLP164 T03220111,M
P68,2022-09-28 21:53,-116.0056,39.6014,1993.00,80.00,28.00,14.81,190.00,12.00,0.00,30.17,1014.30,M,19.00,M,M,M,M,M,M,M,M,M,M,M,M,28.00,170.00,2022-09-28 20:58,78.51,KP68 282153Z AUTO 19012G19KT 27/M02 A3017 RMK AO1 PK WND 17028/2058 SLP143 T02671022,M
LSV,2022-09-28 21:55,-115.0343,36.2362,570.00,89.20,55.40,31.85,50.00,20.00,0.00,30.00,M,10.00,M,CLR,M,M,M,M,M,M,M,M,M,M,M,M,M,M,87.40,KLSV 282155Z 05020KT 10SM CLR 32/13 A3000 RMK AO2A SLPNO T03180130 $,M
RNO,2022-09-28 21:55,-119.7711,39.4839,1341.00,85.00,34.00,16.16,190.00,20.00,0.00,30.09,1013.70,10.00,28.00,FEW,FEW,M,M,9000.00,21000.00,M,M,M,M,M,M,32.00,200.00,2022-09-28 21:20,81.82,KRNO 282155Z 19020G28KT 10SM FEW090 FEW210 29/01 A3009 RMK AO2 PK WND 20032/2120 SLP137 T02940011,M
BVU,2022-09-28 21:55,-114.8611,35.9475,671.00,91.40,48.20,22.78,30.00,10.00,0.00,30.03,M,10.00,M,CLR,M,M,M,M,M,M,M,M,M,M,M,M,M,M,88.09,KBVU 282155Z AUTO 03010KT 10SM CLR 33/09 A3003 RMK AO2,M
CXP,2022-09-28 21:55,-119.7326,39.1923,1431.00,84.20,28.40,13.18,220.00,16.00,0.00,30.13,M,10.00,25.00,CLR,M,M,M,M,M,M,M,M,M,M,M,M,M,M,81.25,KCXP 282155Z AUTO 22016G25KT 10SM CLR 29/M02 A3013 RMK AO2,M
RTS,2022-09-28 21:55,-119.8764,39.6682,1539.00,78.80,28.40,15.71,250.00,21.00,0.00,30.15,M,10.00,30.00,CLR,M,M,M,M,M,M,M,M,M,M,M,M,M,M,78.80,KRTS 282155Z AUTO 25021G30KT 10SM CLR 26/M02 A3015 RMK AO2,M
05U,2022-09-28 21:55,-116.0051,39.6042,1811.23,82.40,28.40,13.96,180.00,12.00,0.00,30.20,M,10.00,M,FEW,M,M,M,11000.00,M,M,M,M,M,M,M,M,M,M,79.94,K05U 282155Z AUTO 18012KT 10SM FEW110 28/M02 A3020 RMK A01,M
MEV,2022-09-28 21:55,-119.7500,38.9963,1441.42,84.20,28.40,13.18,230.00,25.00,0.00,30.12,M,10.00,33.00,CLR,M,M,M,M,M,M,M,M,M,M,M,M,M,M,81.25,KMEV 282155Z AUTO 23025G33KT 10SM CLR 29/M02 A3012 RMK AO2,M
BAM,2022-09-28 21:55,-116.8743,40.5990,1382.36,86.00,30.20,13.38,200.00,6.00,0.00,30.09,M,10.00,14.00,CLR,M,M,M,M,M,M,M,M,M,M,M,M,M,M,82.64,KBAM 282155Z AUTO 20006G14KT 10SM CLR 30/M01 A3009 RMK AO1,M
HTH,2022-09-28 21:55,-118.6315,38.5448,1282.89,87.80,24.80,10.12,320.00,4.00,0.00,30.06,M,10.00,M,CLR,M,M,M,M,M,M,M,M,M,M,M,M,M,M,83.56,KHTH 282155Z AUTO 32004KT 10SM CLR 31/M04 A3006 RMK A01,M
TMT,2022-09-28 21:55,-117.1971,39.4643,1749.34,M,M,M,240.00,14.00,0.00,30.18,M,10.00,19.00,SCT,M,M,M,11000.00,M,M,M,M,M,M,M,M,M,M,M,KTMT 282155Z AUTO 24014G19KT 10SM SCT110 A3018 RMK AO2,M
HND,2022-09-28 21:56,-115.1344,35.9729,742.79,88.00,55.00,32.60,20.00,10.00,0.00,30.08,1017.40,10.00,15.00,CLR,M,M,M,M,M,M,M,M,M,M,M,M,M,M,86.20,KHND 282156Z 02010G15KT 10SM CLR 31/13 A3008 RMK AO2 SLP174 T03110128,M
TPH,2022-09-28 21:56,-117.0904,38.0505,1654.00,85.00,28.00,12.67,220.00,14.00,0.00,30.18,1014.60,10.00,29.00,SCT,M,M,M,12000.00,M,M,M,M,M,M,M,29.00,250.00,2022-09-28 21:22,81.73,KTPH 282156Z AUTO 22014G29KT 10SM SCT120 29/M02 A3018 RMK AO2 PK WND 25029/2122 SLP146 T02941022,M
EKO,2022-09-28 21:56,-115.7860,40.8242,1367.00,83.00,32.00,15.91,230.00,11.00,0.00,30.11,1014.80,10.00,M,FEW,M,M,M,12000.00,M,M,M,M,M,M,M,M,M,M,80.34,KEKO 282156Z AUTO 23011KT 10SM FEW120 28/00 A3011 RMK AO2 SLP148 T02830000,M
WMC,2022-09-28 21:56,-117.8072,40.9019,1315.00,86.00,28.00,12.23,200.00,14.00,0.00,30.05,1013.60,10.00,M,CLR,M,M,M,M,M,M,M,M,M,M,M,29.00,220.00,2022-09-28 21:11,82.50,KWMC 282156Z AUTO 20014KT 10SM CLR 30/M02 A3005 RMK AO2 PK WND 22029/2111 SLP136 T03001022,M
INS,2022-09-28 21:56,-115.6733,36.5872,955.00,85.00,49.30,28.98,110.00,21.00,0.00,30.07,1013.70,10.00,26.00,SCT,M,M,M,14000.00,M,M,M,M,M,M,M,27.00,100.00,2022-09-28 21:51,82.83,KINS 282156Z AUTO 11021G26KT 10SM SCT140 30/10 A3007 RMK AO2 PK WND 10027/51 SLP137 T02950096 $,M
NFL,2022-09-28 21:56,-118.7010,39.4166,1199.00,88.00,27.00,11.02,240.00,12.00,0.00,30.04,1014.10,10.00,M,SCT,SCT,BKN,M,10000.00,15000.00,20000.00,M,M,M,M,M,M,M,M,83.87,KNFL 282156Z 24012KT 10SM SCT100 SCT150 BKN200 31/M03 A3004 RMK AO2 SLP141 T03111028,M
LAS,2022-09-28 21:56,-115.1634,36.0719,663.00,87.00,53.00,31.30,10.00,12.00,0.00,30.05,1015.10,10.00,M,FEW,FEW,SCT,M,8000.00,12000.00,25000.00,M,M,M,M,M,M,M,M,85.01,KLAS 282156Z 01012KT 10SM FEW080 FEW120 SCT250 31/12 A3005 RMK AO2 SLP151 CB DSNT E-SE AND SW-NW T03060117,M
TMT,2022-09-28 22:15,-117.1971,39.4643,1749.34,M,M,M,220.00,11.00,0.00,30.18,M,10.00,18.00,SCT,M,M,M,12000.00,M,M,M,M,M,M,M,M,M,M,M,KTMT 282215Z AUTO 22011G18KT 10SM SCT120 A3018 RMK AO2 LTG DSNT SE,M
BVU,2022-09-28 22:15,-114.8611,35.9475,671.00,91.40,48.20,22.78,20.00,10.00,0.00,30.03,M,10.00,M,CLR,M,M,M,M,M,M,M,M,M,M,M,M,M,M,88.09,KBVU 282215Z AUTO 02010KT 10SM CLR 33/09 A3003 RMK AO2,M
CXP,2022-09-28 22:15,-119.7326,39.1923,1431.00,82.40,30.20,15.03,220.00,12.00,0.00,30.13,M,10.00,22.00,CLR,M,M,M,M,M,M,M,M,M,M,M,M,M,M,79.97,KCXP 282215Z AUTO 22012G22KT 190V250 10SM CLR 28/M01 A3013 RMK AO2,M
RTS,2022-09-28 22:15,-119.8764,39.6682,1539.00,78.80,28.40,15.71,240.00,19.00,0.00,30.15,M,10.00,30.00,CLR,M,M,M,M,M,M,M,M,M,M,M,M,M,M,78.80,KRTS 282215Z AUTO 24019G30KT 10SM CLR 26/M02 A3015 RMK AO2,M
05U,2022-09-28 22:15,-116.0051,39.6042,1811.23,82.40,28.40,13.96,210.00,16.00,0.00,30.20,M,10.00,21.00,SCT,M,M,M,11000.00,M,M,M,M,M,M,M,M,M,M,79.94,K05U 282215Z AUTO 21016G21KT 10SM SCT110 28/M02 A3020 RMK A01,M
MEV,2022-09-28 22:15,-119.7500,38.9963,1441.42,82.40,26.60,12.97,230.00,20.00,0.00,30.12,M,10.00,29.00,CLR,M,M,M,M,M,M,M,M,M,M,M,M,M,M,79.92,KMEV 282215Z AUTO 23020G29KT 10SM CLR 28/M03 A3012 RMK AO2,M
BAM,2022-09-28 22:15,-116.8743,40.5990,1382.36,87.80,30.20,12.64,240.00,9.00,0.00,30.09,M,10.00,18.00,CLR,M,M,M,M,M,M,M,M,M,M,M,M,M,M,84.01,KBAM 282215Z AUTO 24009G18KT 10SM CLR 31/M01 A3009 RMK AO1,M
HTH,2022-09-28 22:15,-118.6315,38.5448,1282.89,89.60,24.80,9.56,250.00,11.00,0.00,30.06,M,10.00,20.00,CLR,M,M,M,M,M,M,M,M,M,M,M,M,M,M,84.88,KHTH 282215Z AUTO 25011G20KT 10SM CLR 32/M04 A3006 RMK A01,M
BAM,2022-09-28 22:35,-116.8743,40.5990,1382.36,87.80,30.20,12.64,240.00,11.00,0.00,30.08,M,10.00,15.00,CLR,M,M,M,M,M,M,M,M,M,M,M,M,M,M,84.01,KBAM 282235Z AUTO 24011G15KT 10SM CLR 31/M01 A3008 RMK AO1,M
BVU,2022-09-28 22:35,-114.8611,35.9475,671.00,93.20,48.20,21.54,30.00,9.00,0.00,30.02,M,10.00,M,CLR,M,M,M,M,M,M,M,M,M,M,M,M,M,M,89.80,KBVU 282235Z AUTO 03009KT 10SM CLR 34/09 A3002 RMK AO2,M
CXP,2022-09-28 22:35,-119.7326,39.1923,1431.00,82.40,30.20,15.03,240.00,10.00,0.00,30.13,M,10.00,21.00,CLR,M,M,M,M,M,M,M,M,M,M,M,M,M,M,79.97,KCXP 282235Z AUTO 24010G21KT 210V270 10SM CLR 28/M01 A3013 RMK AO2,M
TMT,2022-09-28 22:35,-117.1971,39.4643,1749.34,M,M,M,250.00,11.00,0.00,30.18,M,10.00,20.00,CLR,M,M,M,M,M,M,M,M,M,M,M,M,M,M,M,KTMT 282235Z AUTO 25011G20KT 10SM CLR A3018 RMK AO2,M
RTS,2022-09-28 22:35,-119.8764,39.6682,1539.00,78.80,26.60,14.59,250.00,26.00,0.00,30.14,M,10.00,33.00,CLR,M,M,M,M,M,M,M,M,M,M,M,M,M,M,78.80,KRTS 282235Z AUTO 25026G33KT 10SM CLR 26/M03 A3014 RMK AO2,M
05U,2022-09-28 22:35,-116.0051,39.6042,1811.23,80.60,26.60,13.75,210.00,14.00,0.00,30.19,M,10.00,19.00,SCT,M,M,M,11000.00,M,M,M,M,M,M,M,M,M,M,78.68,K05U 282235Z AUTO 21014G19KT 10SM SCT110 27/M03 A3019 RMK A01,M
MEV,2022-09-28 22:35,-119.7500,38.9963,1441.42,82.40,28.40,13.96,220.00,20.00,0.00,30.12,M,10.00,33.00,CLR,M,M,M,M,M,M,M,M,M,M,M,M,M,M,79.94,KMEV 282235Z AUTO 22020G33KT 10SM CLR 28/M02 A3012 RMK AO2,M
HTH,2022-09-28 22:35,-118.6315,38.5448,1282.89,89.60,24.80,9.56,260.00,13.00,0.00,30.06,M,10.00,M,CLR,M,M,M,M,M,M,M,M,M,M,M,M,M,M,84.88,KHTH 282235Z AUTO 26013KT 10SM CLR 32/M04 A3006 RMK A01,M
ELY,2022-09-28 22:53,-114.8453,39.2950,1909.00,72.00,46.00,39.42,160.00,15.00,0.00,30.25,1016.30,10.00,21.00,CLR,M,M,M,M,M,M,M,M,M,M,M,M,M,M,72.00,KELY 282253Z AUTO 16015G21KT 10SM CLR 22/08 A3025 RMK AO2 SLP163 T02220078,M
LOL,2022-09-28 22:53,-118.5701,40.0684,1192.43,88.00,30.90,12.92,260.00,17.00,0.00,30.02,1013.10,10.00,23.00,CLR,M,M,M,M,M,M,M,M,M,M,M,M,M,M,84.22,KLOL 282253Z AUTO 26017G23KT 10SM CLR 31/M01 A3002 RMK AO2 SLP131 T03111006,M
VGT,2022-09-28 22:53,-115.1933,36.2111,667.00,90.00,52.00,27.42,140.00,4.00,0.00,30.02,1015.70,10.00,M,CLR,M,M,M,M,M,M,M,M,M,M,M,M,M,M,87.40,KVGT 282253Z 14004KT 10SM CLR 32/11 A3002 RMK AO2 SLP157 T03220111,M
P68,2022-09-28 22:53,-116.0056,39.6014,1993.00,81.00,28.00,14.38,210.00,12.00,0.00,30.16,1013.70,M,23.00,M,M,M,M,M,M,M,M,M,M,M,M,26.00,200.00,2022-09-28 22:16,78.98,KP68 282253Z AUTO 21012G23KT 27/M02 A3016 RMK AO1 PK WND 20026/2216 SLP137 T02721022,M
DRA,2022-09-28 22:53,-116.0278,36.6206,1009.00,89.00,47.00,23.32,110.00,11.00,0.00,30.04,1012.50,10.00,22.00,SCT,M,M,M,10000.00,M,M,M,M,M,M,M,27.00,110.00,2022-09-28 22:17,85.85,KDRA 282253Z AUTO 11011G22KT 090V160 10SM SCT100 32/08 A3004 RMK AO2 PK WND 11027/2217 SLP125 T03170083,M
CXP,2022-09-28 22:55,-119.7326,39.1923,1431.00,82.40,32.00,16.17,240.00,11.00,0.00,30.13,M,10.00,20.00,CLR,M,M,M,M,M,M,M,M,M,M,M,M,M,M,80.00,KCXP 282255Z AUTO 24011G20KT 10SM CLR 28/M00 A3013 RMK AO2,M
05U,2022-09-28 22:55,-116.0051,39.6042,1811.23,84.20,26.60,12.23,200.00,16.00,0.00,30.19,M,10.00,M,FEW,M,M,M,11000.00,M,M,M,M,M,M,M,M,M,M,81.13,K05U 282255Z AUTO 20016KT 10SM FEW110 29/M03 A3019 RMK A01,M
MEV,2022-09-28 22:55,-119.7500,38.9963,1441.42,82.40,30.20,15.03,230.00,20.00,0.00,30.12,M,10.00,29.00,CLR,M,M,M,M,M,M,M,M,M,M,M,M,M,M,79.97,KMEV 282255Z AUTO 23020G29KT 10SM CLR 28/M01 A3012 RMK AO2,M
BAM,2022-09-28 22:55,-116.8743,40.5990,1382.36,87.80,30.20,12.64,220.00,11.00,0.00,30.08,M,10.00,14.00,CLR,M,M,M,M,M,M,M,M,M,M,M,M,M,M,84.01,KBAM 282255Z AUTO 22011G14KT 10SM CLR 31/M01 A3008 RMK AO1,M
HTH,2022-09-28 22:55,-118.6315,38.5448,1282.89,89.60,24.80,9.56,230.00,15.00,0.00,30.06,M,10.00,20.00,CLR,M,M,M,M,M,M,M,M,M,M,M,M,M,M,84.88,KHTH 282255Z AUTO 23015G20KT 10SM CLR 32/M04 A3006 RMK A01,M
TMT,2022-09-28 22:55,-117.1971,39.4643,1749.34,M,M,M,250.00,11.00,0.00,30.18,M,10.00,15.00,CLR,M,M,M,M,M,M,M,M,M,M,M,M,M,M,M,KTMT 282255Z AUTO 25011G15KT 10SM CLR A3018 RMK AO2,M
BVU,2022-09-28 22:55,-114.8611,35.9475,671.00,91.40,48.20,22.78,40.00,8.00,0.00,30.01,M,10.00,M,CLR,M,M,M,M,M,M,M,M,M,M,M,M,M,M,88.09,KBVU 282255Z AUTO 04008KT 10SM CLR 33/09 A3001 RMK AO2,M
LSV,2022-09-28 22:55,-115.0343,36.2362,570.00,89.60,55.40,31.45,50.00,13.00,0.00,29.98,M,10.00,M,CLR,M,M,M,M,M,M,M,M,M,M,M,M,M,M,87.78,KLSV 282255Z COR 05013KT 10SM CLR 32/13 A2998 RMK SLPNO,M
RNO,2022-09-28 22:55,-119.7711,39.4839,1341.00,84.00,33.00,16.04,230.00,12.00,0.00,30.09,1013.90,10.00,24.00,FEW,FEW,M,M,9000.00,15000.00,M,M,M,M,M,M,35.00,190.00,2022-09-28 21:59,81.14,KRNO 282255Z 23012G24KT 10SM FEW090 FEW150 29/01 A3009 RMK AO2 PK WND 19035/2159 SLP139 T02890006,M
RTS,2022-09-28 22:55,-119.8764,39.6682,1539.00,78.80,28.40,15.71,240.00,24.00,0.00,30.14,M,10.00,34.00,CLR,M,M,M,M,M,M,M,M,M,M,M,M,M,M,78.80,KRTS 282255Z AUTO 24024G34KT 10SM CLR 26/M02 A3014 RMK AO2,M
INS,2022-09-28 22:56,-115.6733,36.5872,955.00,83.80,48.20,29.00,100.00,20.00,0.00,30.05,1013.20,10.00,M,SCT,SCT,M,M,10000.00,12000.00,M,M,M,M,M,M,27.00,110.00,2022-09-28 22:19,81.75,KINS 282256Z AUTO 10020KT 10SM SCT100 SCT120 29/09 A3005 RMK AO2 PK WND 11027/19 SLP132 T02880090 $,M
EKO,2022-09-28 22:56,-115.7860,40.8242,1367.00,85.00,30.90,14.26,230.00,12.00,0.00,30.09,1014.10,10.00,22.00,FEW,M,M,M,12000.00,M,M,M,M,M,M,M,27.00,230.00,2022-09-28 22:09,81.79,KEKO 282256Z AUTO 23012G22KT 10SM FEW120 29/M01 A3009 RMK AO2 PK WND 23027/2209 SLP141 T02941006,M
NFL,2022-09-28 22:56,-118.7010,39.4166,1199.00,89.00,27.00,10.64,230.00,17.00,0.00,30.03,1013.90,10.00,M,FEW,SCT,SCT,SCT,8000.00,10000.00,15000.00,25000.00,M,M,M,M,M,M,M,84.68,KNFL 282256Z 23017KT 10SM FEW080 SCT100 SCT150 SCT250 32/M03 A3003 RMK AO2 SLP139 T03171028,M
HND,2022-09-28 22:56,-115.1344,35.9729,742.79,87.00,55.00,33.55,10.00,8.00,0.00,30.06,1016.80,10.00,M,CLR,M,M,M,M,M,M,M,M,M,M,M,M,M,M,85.40,KHND 282256Z 01008KT 10SM CLR 31/13 A3006 RMK AO2 SLP168 T03060128,M
TPH,2022-09-28 22:56,-117.0904,38.0505,1654.00,84.00,27.00,12.52,250.00,14.00,0.00,30.16,1014.60,10.00,M,FEW,M,M,M,12000.00,M,M,M,M,M,M,M,27.00,200.00,2022-09-28 21:57,81.03,KTPH 282256Z AUTO 25014KT 10SM FEW120 29/M03 A3016 RMK AO2 PK WND 20027/2157 SLP146 T02891028,M
LAS,2022-09-28 22:56,-115.1634,36.0719,663.00,87.00,54.00,32.34,30.00,9.00,0.00,30.03,1014.50,10.00,M,FEW,FEW,SCT,M,8000.00,12000.00,25000.00,M,M,M,M,M,M,M,M,85.19,KLAS 282256Z 03009KT 10SM FEW080 FEW120 SCT250 31/12 A3003 RMK AO2 SLP145 CB DSNT E-SE AND SW T03060122,M
WMC,2022-09-28 22:56,-117.8072,40.9019,1315.00,85.00,28.90,13.15,250.00,15.00,0.00,30.06,1013.80,10.00,27.00,CLR,M,M,M,M,M,M,M,M,M,M,M,29.00,260.00,2022-09-28 22:36,81.78,KWMC 282256Z AUTO 25015G27KT 10SM CLR 29/M02 A3006 RMK AO2 PK WND 26029/2236 SLP138 T02941017,M
CXP,2022-09-28 23:15,-119.7326,39.1923,1431.00,82.40,30.20,15.03,220.00,9.00,0.00,30.13,M,10.00,18.00,CLR,M,M,M,M,M,M,M,M,M,M,M,M,M,M,79.97,KCXP 282315Z AUTO 22009G18KT 10SM CLR 28/M01 A3013 RMK AO2,M
RTS,2022-09-28 23:15,-119.8764,39.6682,1539.00,77.00,28.40,16.67,240.00,21.00,0.00,30.14,M,10.00,33.00,CLR,M,M,M,M,M,M,M,M,M,M,M,M,M,M,77.00,KRTS 282315Z AUTO 24021G33KT 10SM CLR 25/M02 A3014 RMK AO2,M
05U,2022-09-28 23:15,-116.0051,39.6042,1811.23,82.40,28.40,13.96,200.00,11.00,0.00,30.19,M,10.00,M,CLR,M,M,M,M,M,M,M,M,M,M,M,M,M,M,79.94,K05U 282315Z AUTO 20011KT 10SM CLR 28/M02 A3019 RMK A01,M
MEV,2022-09-28 23:15,-119.7500,38.9963,1441.42,82.40,30.20,15.03,220.00,23.00,0.00,30.12,M,10.00,29.00,CLR,M,M,M,M,M,M,M,M,M,M,M,M,M,M,79.97,KMEV 282315Z AUTO 22023G29KT 10SM CLR 28/M01 A3012 RMK AO2,M
BAM,2022-09-28 23:15,-116.8743,40.5990,1382.36,86.00,30.20,13.38,190.00,6.00,0.00,30.07,M,10.00,M,CLR,M,M,M,M,M,M,M,M,M,M,M,M,M,M,82.64,KBAM 282315Z AUTO 19006KT 10SM CLR 30/M01 A3007 RMK AO1,M
HTH,2022-09-28 23:15,-118.6315,38.5448,1282.89,87.80,23.00,9.39,260.00,15.00,0.00,30.06,M,10.00,M,CLR,M,M,M,M,M,M,M,M,M,M,M,M,M,M,83.43,KHTH 282315Z AUTO 26015KT 10SM CLR 31/M05 A3006 RMK A01,M
TMT,2022-09-28 23:15,-117.1971,39.4643,1749.34,M,M,M,250.00,11.00,0.00,30.17,M,10.00,16.00,CLR,M,M,M,M,M,M,M,M,M,M,M,M,M,M,M,KTMT 282315Z AUTO 25011G16KT 10SM CLR A3017 RMK AO2,M
BVU,2022-09-28 23:15,-114.8611,35.9475,671.00,91.40,51.80,26.05,20.00,10.00,0.00,30.00,M,10.00,M,CLR,M,M,M,M,M,M,M,M,M,M,M,M,M,M,88.69,KBVU 282315Z AUTO 02010KT 10SM CLR 33/11 A3000 RMK AO2,M
TMT,2022-09-28 23:35,-117.1971,39.4643,1749.34,M,M,M,260.00,10.00,0.00,30.16,M,10.00,M,CLR,M,M,M,M,M,M,M,M,M,M,M,M,M,M,M,KTMT 282335Z AUTO 26010KT 10SM CLR A3016 RMK AO2 LTG DSNT SE,M
BVU,2022-09-28 23:35,-114.8611,35.9475,671.00,91.40,51.80,26.05,20.00,10.00,0.00,30.00,M,10.00,M,CLR,M,M,M,M,M,M,M,M,M,M,M,M,M,M,88.69,KBVU 282335Z AUTO 02010KT 10SM CLR 33/11 A3000 RMK AO2,M
CXP,2022-09-28 23:35,-119.7326,39.1923,1431.00,82.40,30.20,15.03,210.00,13.00,0.00,30.13,M,10.00,21.00,CLR,M,M,M,M,M,M,M,M,M,M,M,M,M,M,79.97,KCXP 282335Z AUTO 21013G21KT 10SM CLR 28/M01 A3013 RMK AO2,M
RTS,2022-09-28 23:35,-119.8764,39.6682,1539.00,77.00,28.40,16.67,220.00,19.00,0.00,30.14,M,10.00,27.00,CLR,M,M,M,M,M,M,M,M,M,M,M,M,M,M,77.00,KRTS 282335Z AUTO 22019G27KT 10SM CLR 25/M02 A3014 RMK AO2,M
05U,2022-09-28 23:35,-116.0051,39.6042,1811.23,82.40,26.60,12.97,220.00,15.00,0.00,30.18,M,10.00,M,CLR,M,M,M,M,M,M,M,M,M,M,M,M,M,M,79.92,K05U 282335Z AUTO 22015KT 10SM CLR 28/M03 A3018 RMK A01,M
MEV,2022-09-28 23:35,-119.7500,38.9963,1441.42,80.60,30.20,15.94,210.00,17.00,0.00,30.12,M,10.00,28.00,CLR,M,M,M,M,M,M,M,M,M,M,M,M,M,M,78.77,KMEV 282335Z AUTO 21017G28KT 10SM CLR 27/M01 A3012 RMK AO2,M
BAM,2022-09-28 23:35,-116.8743,40.5990,1382.36,86.00,30.20,13.38,240.00,12.00,0.00,30.07,M,10.00,M,CLR,M,M,M,M,M,M,M,M,M,M,M,M,M,M,82.64,KBAM 282335Z AUTO 24012KT 10SM CLR 30/M01 A3007 RMK AO1,M
HTH,2022-09-28 23:35,-118.6315,38.5448,1282.89,87.80,24.80,10.12,260.00,9.00,0.00,30.05,M,10.00,19.00,CLR,M,M,M,M,M,M,M,M,M,M,M,M,M,M,83.56,KHTH 282335Z AUTO 26009G19KT 10SM CLR 31/M04 A3005 RMK A01,M
VGT,2022-09-28 23:53,-115.1933,36.2111,667.00,91.00,52.00,26.57,120.00,7.00,0.00,30.01,1015.20,10.00,M,CLR,M,M,M,M,M,M,M,M,M,M,M,M,M,M,88.35,KVGT 282353Z 12007KT 10SM CLR 33/11 A3001 RMK AO2 SLP152 T03280111 10328 20272 56018,M
ELY,2022-09-28 23:53,-114.8453,39.2950,1909.00,73.00,44.00,35.46,200.00,13.00,0.00,30.24,1016.60,10.00,M,CLR,M,M,M,M,M,M,M,M,M,M,M,M,M,M,73.00,KELY 282353Z AUTO 20013KT 10SM CLR 23/07 A3024 RMK AO2 SLP166 T02280067 10261 20217 58005,M
P68,2022-09-28 23:53,-116.0056,39.6014,1993.00,80.00,28.00,14.81,190.00,17.00,0.00,30.15,1014.00,M,25.00,M,M,M,M,M,M,M,M,M,M,M,M,M,M,M,78.51,KP68 282353Z AUTO 19017G25KT 27/M02 A3015 RMK AO1 SLP140 T02671022 10278 20244 56010,M
DRA,2022-09-28 23:53,-116.0278,36.6206,1009.00,90.00,46.00,21.91,110.00,10.00,0.00,30.03,1012.30,10.00,23.00,CLR,M,M,M,M,M,M,M,M,M,M,M,26.00,100.00,2022-09-28 23:12,86.55,KDRA 282353Z AUTO 11010G23KT 10SM CLR 32/08 A3003 RMK AO2 PK WND 10026/2312 SLP123 60000 T03220078 10322 20294 56014,M
LOL,2022-09-28 23:53,-118.5701,40.0684,1192.43,86.00,30.90,13.77,250.00,18.00,0.00,30.02,1013.10,10.00,M,CLR,M,M,M,M,M,M,M,M,M,M,M,M,M,M,82.64,KLOL 282353Z AUTO 25018KT 10SM CLR 30/M01 A3002 RMK AO2 SLP131 T03001006 10311 20250 56015,M
RNO,2022-09-28 23:55,-119.7711,39.4839,1341.00,82.00,34.00,17.74,230.00,15.00,0.00,30.09,1014.10,10.00,32.00,FEW,FEW,M,M,9000.00,18000.00,M,M,M,M,M,M,32.00,210.00,2022-09-28 23:50,79.77,KRNO 282355Z 23015G32KT 10SM FEW090 FEW180 28/01 A3009 RMK AO2 PK WND 21032/2350 SLP141 T02780011 10294 20256 56003,M
BVU,2022-09-28 23:55,-114.8611,35.9475,671.00,91.40,50.00,24.37,360.00,13.00,0.00,30.00,M,10.00,M,CLR,M,M,M,M,M,M,M,M,M,M,M,M,M,M,88.36,KBVU 282355Z AUTO 36013KT 10SM CLR 33/10 A3000 RMK AO2,M
RTS,2022-09-28 23:55,-119.8764,39.6682,1539.00,77.00,28.40,16.67,240.00,22.00,0.00,30.14,M,10.00,28.00,CLR,M,M,M,M,M,M,M,M,M,M,M,M,M,M,77.00,KRTS 282355Z AUTO 24022G28KT 10SM CLR 25/M02 A3014 RMK AO2,M
05U,2022-09-28 23:55,-116.0051,39.6042,1811.23,82.40,28.40,13.96,190.00,14.00,0.00,30.18,M,10.00,20.00,CLR,M,M,M,M,M,M,M,M,M,M,M,M,M,M,79.94,K05U 282355Z AUTO 19014G20KT 10SM CLR 28/M02 A3018 RMK A01,M
LSV,2022-09-28 23:55,-115.0343,36.2362,570.00,89.60,55.40,31.45,40.00,13.00,0.00,29.97,1012.50,10.00,M,CLR,M,M,M,M,M,M,M,M,M,M,M,M,M,M,87.78,KLSV 282355Z 04013KT 10SM CLR 32/13 A2997 RMK SLP125 5//// $,M
MEV,2022-09-28 23:55,-119.7500,38.9963,1441.42,80.60,30.20,15.94,230.00,22.00,0.00,30.12,M,10.00,29.00,CLR,M,M,M,M,M,M,M,M,M,M,M,M,M,M,78.77,KMEV 282355Z AUTO 23022G29KT 10SM CLR 27/M01 A3012 RMK AO2,M
BAM,2022-09-28 23:55,-116.8743,40.5990,1382.36,86.00,30.20,13.38,250.00,14.00,0.00,30.06,M,10.00,M,CLR,M,M,M,M,M,M,M,M,M,M,M,M,M,M,82.64,KBAM 282355Z AUTO 25014KT 10SM CLR 30/M01 A3006 RMK AO1,M
TMT,2022-09-28 23:55,-117.1971,39.4643,1749.34,M,M,M,260.00,9.00,0.00,30.16,M,10.00,19.00,CLR,M,M,M,M,M,M,M,M,M,M,M,M,M,M,M,KTMT 282355Z AUTO 26009G19KT 10SM CLR A3016 RMK AO2,M
HTH,2022-09-28 23:55,-118.6315,38.5448,1282.89,87.80,24.80,10.12,250.00,14.00,0.00,30.05,M,10.00,21.00,CLR,M,M,M,M,M,M,M,M,M,M,M,M,M,M,83.56,KHTH 282355Z AUTO 25014G21KT 10SM CLR 31/M04 A3005 RMK A01,M
CXP,2022-09-28 23:55,-119.7326,39.1923,1431.00,80.60,32.00,17.14,250.00,15.00,0.00,30.13,M,10.00,22.00,CLR,M,M,M,M,M,M,M,M,M,M,M,M,M,M,78.82,KCXP 282355Z AUTO 25015G22KT 10SM CLR 27/M00 A3013 RMK AO2,M
INS,2022-09-28 23:56,-115.6733,36.5872,955.00,85.00,50.00,29.94,120.00,17.00,0.00,30.05,1012.80,10.00,27.00,FEW,SCT,M,M,11000.00,25000.00,M,M,M,M,M,M,M,M,M,82.76,KINS 282356Z COR AUTO 12017G27KT 10SM FEW110 SCT250 29/11 A3005 RMK AO2 SLP128 60010 T02940100 10297 20228 57015 $ COR 0013,M
EKO,2022-09-28 23:56,-115.7860,40.8242,1367.00,82.00,30.00,15.10,250.00,6.00,0.00,30.08,1014.10,10.00,M,CLR,M,M,M,M,M,M,M,M,M,M,M,M,M,M,79.69,KEKO 282356Z AUTO 25006KT 10SM CLR 28/M01 A3008 RMK AO2 SLP141 T02781011 10300 20228 56017,M
WMC,2022-09-28 23:56,-117.8072,40.9019,1315.00,85.00,30.00,13.75,210.00,15.00,0.00,30.03,1013.00,10.00,22.00,CLR,M,M,M,M,M,M,M,M,M,M,M,26.00,230.00,2022-09-28 23:05,81.79,KWMC 282356Z AUTO 21015G22KT 10SM CLR 29/M01 A3003 RMK AO2 PK WND 23026/2305 SLP130 T02941011 10311 20278 56015,M
HND,2022-09-28 23:56,-115.1344,35.9729,742.79,88.00,54.00,31.43,M,3.00,0.00,30.05,1016.50,10.00,M,CLR,M,M,M,M,M,M,M,M,M,M,M,M,M,M,85.98,KHND 282356Z VRB03KT 10SM CLR 31/12 A3005 RMK AO2 SLP165 T03110122 10317 20267 56013,M
TPH,2022-09-28 23:56,-117.0904,38.0505,1654.00,84.00,28.00,13.04,250.00,9.00,0.00,30.16,1014.30,10.00,21.00,CLR,M,M,M,M,M,M,M,M,M,M,M,M,M,M,81.10,KTPH 282356Z AUTO 25009G21KT 10SM CLR 29/M02 A3016 RMK AO2 SLP143 T02891022 10300 20244 56011,M
LAS,2022-09-28 23:56,-115.1634,36.0719,663.00,89.00,53.00,29.37,10.00,3.00,0.00,30.02,1014.10,10.00,M,FEW,FEW,SCT,M,8000.00,12000.00,25000.00,M,M,M,M,M,M,M,M,86.79,KLAS 282356Z 01003KT 10SM FEW080 FEW120 SCT250 32/12 A3002 RMK AO2 SLP141 CB DSNT SE AND SW T03170117 10317 20272 56016,M
NFL,2022-09-28 23:56,-118.7010,39.4166,1199.00,88.00,27.00,11.02,240.00,18.00,0.00,30.02,1013.50,10.00,25.00,FEW,FEW,FEW,M,8000.00,15000.00,25000.00,M,M,M,M,M,M,M,M,83.87,KNFL 282356Z 24018G25KT 10SM FEW080 FEW150 FEW250 31/M03 A3002 RMK AO2 SLP135 ACSL W-NW T03111028 10317 20267 56013,M
