station,valid,lon,lat,elevation,tmpf,dwpf,relh,drct,sknt,p01i,alti,mslp,vsby,gust,skyc1,skyc2,skyc3,skyc4,skyl1,skyl2,skyl3,skyl4,wxcodes,ice_accretion_1hr,ice_accretion_3hr,ice_accretion_6hr,peak_wind_gust,peak_wind_drct,peak_wind_time,feel,metar,snowdepth
EKO,2022-11-08 00:06,-115.7860,40.8242,1367.00,33.00,27.00,78.03,0.00,0.00,T,29.76,M,9.00,M,SCT,OVC,M,M,3400.00,5500.00,M,M,M,M,M,M,M,M,M,33.10,KEKO 080006Z AUTO 00000KT 9SM SCT034 OVC055 01/M03 A2976 RMK AO2 SNE02 PRESFR P0000 T00061028,M
BVU,2022-11-08 00:15,-114.8611,35.9475,671.00,68.00,42.80,40.00,150.00,22.00,0.00,29.79,M,10.00,M,OVC,M,M,M,8500.00,M,M,M,M,M,M,M,M,M,M,68.00,KBVU 080015Z AUTO 15022KT 10SM OVC085 20/06 A2979 RMK AO2,M
RTS,2022-11-08 00:15,-119.8764,39.6682,1539.00,37.40,14.00,37.84,270.00,11.00,0.00,29.73,M,10.00,M,SCT,SCT,M,M,5000.00,5500.00,M,M,M,M,M,M,M,M,M,29.29,KRTS 080015Z AUTO 27011KT 10SM SCT050 SCT055 03/M10 A2973 RMK AO2,M
MEV,2022-11-08 00:15,-119.7500,38.9963,1441.42,39.20,8.60,27.74,220.00,10.00,0.00,29.74,M,10.00,M,CLR,M,M,M,M,M,M,M,M,M,M,M,M,M,M,32.00,KMEV 080015Z AUTO 22010KT 10SM CLR 04/M13 A2974 RMK AO2,M
CXP,2022-11-08 00:15,-119.7326,39.1923,1431.00,39.20,17.60,41.24,180.00,10.00,0.00,29.76,M,10.00,15.00,CLR,M,M,M,M,M,M,M,M,M,M,M,M,M,M,32.00,KCXP 080015Z AUTO 18010G15KT 10SM CLR 04/M08 A2976 RMK AO2,M
TMT,2022-11-08 00:15,-117.1971,39.4643,1749.34,30.20,29.10,95.62,10.00,8.00,0.00,29.74,M,1.75,M,SCT,BKN,OVC,M,400.00,1200.00,1700.00,M,-SN,M,M,M,M,M,M,21.90,KTMT 080015Z AUTO 01008KT 1 3/4SM -SN SCT004 BKN012 OVC017 M01/M02 A2974 RMK AO2 T10101016,M
BAM,2022-11-08 00:15,-116.8743,40.5990,1382.36,37.40,30.20,74.98,50.00,7.00,0.00,29.79,M,10.00,M,OVC,M,M,M,6500.00,M,M,M,M,M,M,M,M,M,M,31.36,KBAM 080015Z AUTO 05007KT 10SM OVC065 03/M01 A2979 RMK AO1,M
05U,2022-11-08 00:15,-116.0051,39.6042,1811.23,33.80,28.40,80.36,10.00,8.00,0.00,29.75,M,10.00,M,FEW,BKN,OVC,M,1100.00,6500.00,8000.00,M,M,M,M,M,M,M,M,26.33,K05U 080015Z AUTO 01008KT 10SM FEW011 BKN065 OVC080 01/M02 A2975 RMK A01,M
INS,2022-11-08 00:31,-115.6733,36.5872,955.00,64.40,32.00,29.63,250.00,14.00,0.00,29.76,1004.60,10.00,25.00,BKN,M,M,M,8500.00,M,M,M,M,M,M,M,M,M,M,64.40,KINS 080031Z AUTO 25014G25KT 10SM BKN085 18/00 A2976 RMK AO2 WSHFT 28 SLP046 $,M
RTS,2022-11-08 00:35,-119.8764,39.6682,1539.00,35.60,14.00,40.63,280.00,4.00,0.00,29.73,M,10.00,13.00,BKN,BKN,BKN,M,5500.00,6000.00,7500.00,M,M,M,M,M,M,M,M,31.62,KRTS 080035Z AUTO 28004G13KT 10SM BKN055 BKN060 BKN075 02/M10 A2973 RMK AO2,M
BVU,2022-11-08 00:35,-114.8611,35.9475,671.00,68.00,42.80,40.00,150.00,18.00,0.00,29.79,M,10.00,24.00,SCT,OVC,M,M,8000.00,9000.00,M,M,M,M,M,M,M,M,M,68.00,KBVU 080035Z AUTO 15018G24KT 10SM SCT080 OVC090 20/06 A2979 RMK AO2,M
CXP,2022-11-08 00:35,-119.7326,39.1923,1431.00,37.40,19.40,47.80,200.00,9.00,0.00,29.76,M,10.00,M,CLR,M,M,M,M,M,M,M,M,M,M,M,M,M,M,30.23,KCXP 080035Z AUTO 20009KT 10SM CLR 03/M07 A2976 RMK AO2,M
TMT,2022-11-08 00:35,-117.1971,39.4643,1749.34,29.70,28.80,96.39,10.00,8.00,0.00,29.74,M,1.50,M,OVC,M,M,M,1700.00,M,M,M,-SN,M,M,M,M,M,M,21.28,KTMT 080035Z AUTO 01008KT 1 1/2SM -SN OVC017 M01/M02 A2974 RMK AO2 T10131018,M
BAM,2022-11-08 00:35,-116.8743,40.5990,1382.36,37.40,30.20,74.98,80.00,5.00,0.00,29.79,M,10.00,M,SCT,OVC,M,M,5000.00,6500.00,M,M,M,M,M,M,M,M,M,32.81,KBAM 080035Z AUTO 08005KT 10SM SCT050 OVC065 03/M01 A2979 RMK AO1,M
05U,2022-11-08 00:35,-116.0051,39.6042,1811.23,32.00,28.40,86.39,10.00,10.00,0.00,29.75,M,10.00,M,FEW,OVC,M,M,900.00,6500.00,M,M,M,M,M,M,M,M,M,22.97,K05U 080035Z AUTO 01010KT 10SM FEW009 OVC065 00/M02 A2975 RMK A01,M
MEV,2022-11-08 00:35,-119.7500,38.9963,1441.42,35.60,14.00,40.63,160.00,9.00,0.00,29.74,M,10.00,M,CLR,M,M,M,M,M,M,M,M,M,M,M,M,M,M,27.99,KMEV 080035Z AUTO 16009KT 10SM CLR 02/M10 A2974 RMK AO2,M
EKO,2022-11-08 00:37,-115.7860,40.8242,1367.00,33.00,28.00,81.30,30.00,4.00,0.01,29.77,M,2.50,M,FEW,OVC,M,M,1500.00,2900.00,M,M,-SN,M,M,M,M,M,M,28.70,KEKO 080037Z AUTO 03004KT 2 1/2SM -SN FEW015 OVC029 01/M02 A2977 RMK AO2 SNE02B15 P0001 T00061022,M
EKO,2022-11-08 00:47,-115.7860,40.8242,1367.00,32.00,28.00,84.98,30.00,4.00,0.01,29.78,M,1.50,M,OVC,M,M,M,1700.00,M,M,M,-SN BR,M,M,M,M,M,M,27.42,KEKO 080047Z AUTO 03004KT 1 1/2SM -SN BR OVC017 00/M02 A2978 RMK AO2 SNE02B15 P0001 T00001022,M
DRA,2022-11-08 00:53,-116.0278,36.6206,1009.00,61.00,41.00,47.66,210.00,21.00,0.00,29.75,1004.60,10.00,33.00,FEW,FEW,SCT,M,5000.00,6500.00,8000.00,M,M,M,M,M,42.00,180.00,2022-11-07 23:57,61.00,KDRA 080053Z AUTO 21021G33KT 10SM FEW050 FEW065 SCT080 16/05 A2975 RMK AO2 PK WND 18042/2357 SLP046 T01610050,M
LOL,2022-11-08 00:53,-118.5701,40.0684,1192.43,41.00,19.90,42.44,110.00,12.00,0.00,29.74,1007.50,10.00,M,OVC,M,M,M,7000.00,M,M,M,M,M,M,M,M,M,M,33.46,KLOL 080053Z AUTO 11012KT 10SM OVC070 05/M07 A2974 RMK AO2 SLP075 T00501067,M
P68,2022-11-08 00:53,-116.0056,39.6014,1993.00,30.90,27.00,85.26,360.00,12.00,0.00,29.72,1004.30,M,M,M,M,M,M,M,M,M,M,M,M,M,M,M,M,M,20.60,KP68 080053Z AUTO 36012KT M01/M03 A2972 RMK AO1 SLP043 T10061028,M
VGT,2022-11-08 00:53,-115.1933,36.2111,667.00,70.00,41.00,34.85,190.00,8.00,0.00,29.77,1008.30,10.00,M,OVC,M,M,M,10000.00,M,M,M,M,M,M,M,M,M,M,70.00,KVGT 080053Z 19008KT 10SM OVC100 21/05 A2977 RMK AO2 SLP083 T02110050,M
ELY,2022-11-08 00:53,-114.8453,39.2950,1909.00,46.00,30.90,55.36,180.00,14.00,0.00,29.73,1002.40,10.00,25.00,FEW,M,M,M,6000.00,M,M,M,M,M,M,M,37.00,180.00,2022-11-07 23:57,39.21,KELY 080053Z AUTO 18014G25KT 10SM FEW060 08/M01 A2973 RMK AO2 PK WND 18037/2357 SLP024 T00781006,M
EKO,2022-11-08 00:54,-115.7860,40.8242,1367.00,32.00,28.40,86.39,50.00,2.92,M,29.79,M,1.50,M,FEW,OVC,M,M,800.00,1499.00,M,M,-SN BR,M,M,M,M,M,M,28.81,SPECI KEKO 080054Z 05003KT 1 1/2SM -SN BR FEW008 OVC015 00/M02 A2979 RMK AO2 SNE02B15 P0001 FIBI,M
LSV,2022-11-08 00:55,-115.0343,36.2362,570.00,69.60,42.80,37.86,150.00,13.00,0.00,29.74,1005.70,10.00,M,OVC,M,M,M,8000.00,M,M,M,M,M,M,M,M,M,M,69.60,KLSV 080055Z AUTO 15013KT 10SM OVC080 21/06 A2974 RMK AO2 SLP057 T02090060 $,M
INS,2022-11-08 00:55,-115.6733,36.5872,955.00,64.40,35.40,33.95,250.00,12.00,0.00,29.75,1004.40,10.00,23.00,SCT,M,M,M,8000.00,M,M,M,M,M,M,M,27.00,240.00,2022-11-08 00:17,64.40,KINS 080055Z AUTO 25012G23KT 10SM SCT080 18/02 A2975 RMK AO2 PK WND 24027/17 SLP044 T01800019 $,M
TMT,2022-11-08 00:55,-117.1971,39.4643,1749.34,29.10,28.00,95.59,10.00,9.00,0.00,29.74,M,1.50,M,OVC,M,M,M,1000.00,M,M,M,-SN,M,M,M,M,M,M,19.91,KTMT 080055Z AUTO 01009KT 1 1/2SM -SN OVC010 M02/M02 A2974 RMK AO2 LTG DSNT S T10161022,M
BAM,2022-11-08 00:55,-116.8743,40.5990,1382.36,35.60,30.20,80.51,110.00,6.00,0.00,29.79,M,10.00,M,SCT,BKN,OVC,M,4200.00,4800.00,6500.00,M,M,M,M,M,M,M,M,29.87,KBAM 080055Z AUTO 11006KT 10SM SCT042 BKN048 OVC065 02/M01 A2979 RMK AO1,M
MEV,2022-11-08 00:55,-119.7500,38.9963,1441.42,33.80,14.00,43.65,180.00,4.00,0.00,29.74,M,10.00,M,CLR,M,M,M,M,M,M,M,M,M,M,M,M,M,M,29.52,KMEV 080055Z AUTO 18004KT 10SM CLR 01/M10 A2974 RMK AO2,M
05U,2022-11-08 00:55,-116.0051,39.6042,1811.23,32.00,28.40,86.39,10.00,10.00,0.00,29.75,M,10.00,M,SCT,SCT,OVC,M,900.00,5500.00,6500.00,M,M,M,M,M,M,M,M,22.97,K05U 080055Z AUTO 01010KT 10SM SCT009 SCT055 OVC065 00/M02 A2975 RMK A01,M
RTS,2022-11-08 00:55,-119.8764,39.6682,1539.00,35.60,15.80,43.95,0.00,0.00,0.00,29.73,M,10.00,M,BKN,OVC,M,M,6000.00,7000.00,M,M,M,M,M,M,M,M,M,35.60,KRTS 080055Z AUTO 00000KT 10SM BKN060 OVC070 02/M09 A2973 RMK AO2,M
RNO,2022-11-08 00:55,-119.7711,39.4839,1341.00,41.00,10.00,27.55,190.00,13.00,0.00,29.71,1005.80,10.00,21.00,FEW,FEW,M,M,7500.00,11000.00,M,M,M,M,M,M,M,M,M,33.10,KRNO 080055Z 19013G21KT 10SM FEW075 FEW110 05/M12 A2971 RMK AO2 SLP058 VIRGA S ACSL DSNT NW T00501122,M
CXP,2022-11-08 00:55,-119.7326,39.1923,1431.00,37.40,15.80,40.93,M,3.00,0.00,29.75,M,10.00,17.00,CLR,M,M,M,M,M,M,M,M,M,M,M,M,M,M,34.86,KCXP 080055Z AUTO VRB03G17KT 10SM CLR 03/M09 A2975 RMK AO2,M
BVU,2022-11-08 00:55,-114.8611,35.9475,671.00,68.00,42.80,40.00,160.00,22.00,0.00,29.79,M,10.00,28.00,FEW,OVC,M,M,7500.00,9000.00,M,M,M,M,M,M,M,M,M,68.00,KBVU 080055Z AUTO 16022G28KT 10SM FEW075 OVC090 20/06 A2979 RMK AO2,M
EKO,2022-11-08 00:56,-115.7860,40.8242,1367.00,32.00,28.90,88.17,40.00,5.00,0.01,29.78,1009.00,1.50,M,FEW,OVC,M,M,800.00,1500.00,M,M,-SN BR,M,M,M,M,M,M,26.40,KEKO 080056Z AUTO 04005KT 1 1/2SM -SN BR FEW008 OVC015 00/M02 A2978 RMK AO2 SNE02B15 SLP090 P0001 T00001017,M
WMC,2022-11-08 00:56,-117.8072,40.9019,1315.00,38.00,21.90,52.13,120.00,9.00,0.00,29.75,1007.70,10.00,M,OVC,M,M,M,5000.00,M,M,M,M,M,M,M,M,M,M,30.85,KWMC 080056Z AUTO 12009KT 10SM OVC050 03/M06 A2975 RMK AO2 SLP077 T00331056,M
TPH,2022-11-08 00:56,-117.0904,38.0505,1654.00,51.00,38.00,60.46,180.00,20.00,0.00,29.69,1002.60,10.00,29.00,FEW,SCT,M,M,3800.00,8000.00,M,M,M,M,M,M,32.00,180.00,2022-11-08 00:10,51.10,KTPH 080056Z AUTO 18020G29KT 10SM FEW038 SCT080 11/03 A2969 RMK AO2 PK WND 18032/0010 SLP026 T01060033,M
NFL,2022-11-08 00:56,-118.7010,39.4166,1199.00,43.00,21.90,42.77,50.00,9.00,T,29.72,1004.50,10.00,M,SCT,BKN,BKN,M,3000.00,5000.00,8000.00,M,-SN,M,M,M,M,M,M,37.19,KNFL 080056Z 05009KT 10SM -SN SCT030 BKN050 BKN080 06/M06 A2972 RMK AO2 SNE16B53 SLP045 SH VC NW-NE-S P0000 T00611056 $,M
HND,2022-11-08 00:56,-115.1344,35.9729,742.79,69.00,40.00,34.43,200.00,18.00,0.00,29.80,1009.40,10.00,M,OVC,M,M,M,7500.00,M,M,M,M,M,M,M,M,M,M,69.10,KHND 080056Z 20018KT 10SM OVC075 21/04 A2980 RMK AO2 SLP094 T02060044,M
LAS,2022-11-08 00:56,-115.1634,36.0719,663.00,70.00,40.00,33.39,200.00,5.00,0.00,29.78,1006.90,10.00,M,FEW,BKN,OVC,M,8000.00,10000.00,22000.00,M,M,M,M,M,M,M,M,70.00,KLAS 080056Z 20005KT 10SM FEW080 BKN100 OVC220 21/04 A2978 RMK AO2 SLP069 T02110044,M
MEV,2022-11-08 01:15,-119.7500,38.9963,1441.42,33.80,14.00,43.65,160.00,7.00,0.00,29.74,M,10.00,M,CLR,M,M,M,M,M,M,M,M,M,M,M,M,M,M,26.97,KMEV 080115Z AUTO 16007KT 10SM CLR 01/M10 A2974 RMK AO2,M
BAM,2022-11-08 01:15,-116.8743,40.5990,1382.36,33.80,32.00,93.03,140.00,8.00,0.00,29.79,M,3.00,M,SCT,BKN,OVC,M,2100.00,3000.00,4800.00,M,M,M,M,M,M,M,M,26.33,KBAM 080115Z AUTO 14008KT 3SM SCT021 BKN030 OVC048 01/00 A2979 RMK AO1,M
05U,2022-11-08 01:15,-116.0051,39.6042,1811.23,32.00,28.40,86.39,360.00,9.00,0.00,29.74,M,10.00,M,SCT,BKN,OVC,M,900.00,4600.00,6500.00,M,M,M,M,M,M,M,M,23.51,K05U 080115Z AUTO 36009KT 10SM SCT009 BKN046 OVC065 M00/M02 A2974 RMK A01,M
RTS,2022-11-08 01:15,-119.8764,39.6682,1539.00,33.80,17.60,51.04,330.00,6.00,0.00,29.73,M,10.00,M,OVC,M,M,M,5500.00,M,M,M,M,M,M,M,M,M,M,27.70,KRTS 080115Z AUTO 33006KT 10SM OVC055 01/M08 A2973 RMK AO2,M
BVU,2022-11-08 01:15,-114.8611,35.9475,671.00,68.00,42.80,40.00,170.00,17.00,0.00,29.80,M,10.00,26.00,BKN,OVC,M,M,7500.00,9000.00,M,M,M,M,M,M,M,M,M,68.00,KBVU 080115Z AUTO 17017G26KT 10SM BKN075 OVC090 20/06 A2980 RMK AO2,M
CXP,2022-11-08 01:15,-119.7326,39.1923,1431.00,37.40,14.00,37.84,200.00,8.00,0.00,29.76,M,10.00,M,CLR,M,M,M,M,M,M,M,M,M,M,M,M,M,M,30.76,KCXP 080115Z AUTO 20008KT 10SM CLR 03/M10 A2976 RMK AO2,M
EKO,2022-11-08 01:17,-115.7860,40.8242,1367.00,30.90,28.90,92.18,0.00,0.00,0.02,29.78,M,1.00,M,FEW,OVC,M,M,500.00,1300.00,M,M,-SN BR,M,M,M,M,M,M,30.90,KEKO 080117Z AUTO 00000KT 1SM -SN BR FEW005 OVC013 M01/M02 A2978 RMK AO2 P0002 T10061017,M
05U,2022-11-08 01:35,-116.0051,39.6042,1811.23,32.00,28.40,86.39,10.00,8.00,0.00,29.75,M,10.00,M,BKN,BKN,OVC,M,800.00,4000.00,4700.00,M,M,M,M,M,M,M,M,24.11,K05U 080135Z AUTO 01008KT 10SM BKN008 BKN040 OVC047 M00/M02 A2975 RMK A01,M
TMT,2022-11-08 01:35,-117.1971,39.4643,1749.34,28.40,27.50,96.37,40.00,6.00,0.02,29.75,M,0.75,M,OVC,M,M,M,600.00,M,M,M,SN,M,M,M,M,M,M,21.19,KTMT 080135Z AUTO 04006KT 3/4SM SN OVC006 M02/M02 A2975 RMK AO2 P0002 T10201025,M
BAM,2022-11-08 01:35,-116.8743,40.5990,1382.36,33.80,32.00,93.03,130.00,7.00,0.00,29.79,M,1.50,M,BKN,OVC,M,M,1500.00,2100.00,M,M,M,M,M,M,M,M,M,26.97,KBAM 080135Z AUTO 13007KT 1 1/2SM BKN015 OVC021 01/00 A2979 RMK AO1,M
MEV,2022-11-08 01:35,-119.7500,38.9963,1441.42,32.00,14.00,46.92,160.00,9.00,0.00,29.75,M,10.00,M,CLR,M,M,M,M,M,M,M,M,M,M,M,M,M,M,23.51,KMEV 080135Z AUTO 16009KT 10SM CLR 00/M10 A2975 RMK AO2,M
RTS,2022-11-08 01:35,-119.8764,39.6682,1539.00,33.80,15.80,47.22,0.00,0.00,0.00,29.73,M,10.00,M,OVC,M,M,M,5000.00,M,M,M,M,M,M,M,M,M,M,33.80,KRTS 080135Z AUTO 00000KT 10SM OVC050 01/M09 A2973 RMK AO2,M
BVU,2022-11-08 01:35,-114.8611,35.9475,671.00,66.20,42.80,42.57,180.00,14.00,0.00,29.81,M,10.00,22.00,SCT,OVC,M,M,7500.00,9000.00,M,M,M,M,M,M,M,M,M,66.20,KBVU 080135Z AUTO 18014G22KT 10SM SCT075 OVC090 19/06 A2981 RMK AO2,M
CXP,2022-11-08 01:35,-119.7326,39.1923,1431.00,35.60,14.00,40.63,220.00,7.00,0.00,29.77,M,10.00,14.00,CLR,M,M,M,M,M,M,M,M,M,M,M,M,M,M,29.17,KCXP 080135Z AUTO 22007G14KT 10SM CLR 02/M10 A2977 RMK AO2,M
DRA,2022-11-08 01:53,-116.0278,36.6206,1009.00,61.00,40.00,45.67,210.00,17.00,0.00,29.77,1005.30,10.00,34.00,SCT,M,M,M,7500.00,M,M,M,M,M,M,M,36.00,200.00,2022-11-08 01:25,61.00,KDRA 080153Z AUTO 21017G34KT 10SM SCT075 16/04 A2977 RMK AO2 PK WND 20036/0125 SLP053 T01610044,M
LOL,2022-11-08 01:53,-118.5701,40.0684,1192.43,38.00,23.00,54.60,140.00,9.00,0.00,29.73,1007.70,10.00,M,OVC,M,M,M,7000.00,M,M,M,M,M,M,M,M,M,M,30.85,KLOL 080153Z AUTO 14009KT 10SM OVC070 03/M05 A2973 RMK AO2 SLP077 T00331050,M
VGT,2022-11-08 01:53,-115.1933,36.2111,667.00,70.00,40.00,33.39,180.00,10.00,0.00,29.78,1008.80,10.00,M,OVC,M,M,M,9500.00,M,M,M,M,M,M,M,M,M,M,70.00,KVGT 080153Z 18010KT 10SM OVC095 21/04 A2978 RMK AO2 SLP088 T02110044,M
P68,2022-11-08 01:53,-116.0056,39.6014,1993.00,30.00,27.00,88.44,360.00,9.00,0.00,29.71,1004.10,M,M,M,M,M,M,M,M,M,M,M,M,M,M,M,M,M,21.03,KP68 080153Z AUTO 36009KT M01/M03 A2971 RMK AO1 SLP041 T10111028,M
ELY,2022-11-08 01:53,-114.8453,39.2950,1909.00,46.00,32.00,57.87,170.00,20.00,0.00,29.72,1002.20,10.00,34.00,FEW,M,M,M,4700.00,M,M,M,M,M,M,M,36.00,180.00,2022-11-08 01:22,37.73,KELY 080153Z AUTO 17020G34KT 10SM FEW047 08/00 A2972 RMK AO2 PK WND 18036/0122 SLP022 T00780000,M
EKO,2022-11-08 01:54,-115.7860,40.8242,1367.00,30.20,28.40,92.92,100.00,6.00,0.04,29.77,M,2.00,M,FEW,OVC,M,M,800.00,1900.00,M,M,-SN BR,M,M,M,M,M,M,23.36,KEKO 080154Z AUTO 10006KT 2SM -SN BR FEW008 OVC019 M01/M02 A2977 RMK AO2 P0004,M
CXP,2022-11-08 01:55,-119.7326,39.1923,1431.00,35.60,15.80,43.95,200.00,10.00,0.00,29.77,M,10.00,M,CLR,M,M,M,M,M,M,M,M,M,M,M,M,M,M,27.48,KCXP 080155Z AUTO 20010KT 10SM CLR 02/M09 A2977 RMK AO2,M
RNO,2022-11-08 01:55,-119.7711,39.4839,1341.00,40.00,10.90,29.92,180.00,9.00,0.00,29.71,1005.90,10.00,15.00,FEW,FEW,M,M,7000.00,11000.00,M,M,M,M,M,M,M,M,M,33.34,KRNO 080155Z 18009G15KT 10SM FEW070 FEW110 04/M12 A2971 RMK AO2 SLP059 T00441117,M
LSV,2022-11-08 01:55,-115.0343,36.2362,570.00,69.40,40.60,35.02,170.00,20.00,0.00,29.75,1006.10,10.00,24.00,OVC,M,M,M,8000.00,M,M,M,M,M,M,M,M,M,M,69.40,KLSV 080155Z 17020G24KT 10SM OVC080 21/05 A2975 RMK SLP061 T02080048 $,M
RTS,2022-11-08 01:55,-119.8764,39.6682,1539.00,33.80,15.80,47.22,0.00,0.00,0.00,29.74,M,10.00,M,BKN,OVC,M,M,5500.00,6500.00,M,M,M,M,M,M,M,M,M,33.80,KRTS 080155Z AUTO 00000KT 10SM BKN055 OVC065 01/M09 A2974 RMK AO2,M
05U,2022-11-08 01:55,-116.0051,39.6042,1811.23,32.00,28.40,86.39,360.00,7.00,0.00,29.74,M,10.00,M,BKN,OVC,M,M,800.00,3900.00,M,M,M,M,M,M,M,M,M,24.78,K05U 080155Z AUTO 36007KT 10SM BKN008 OVC039 M00/M02 A2974 RMK A01,M
MEV,2022-11-08 01:55,-119.7500,38.9963,1441.42,32.00,14.00,46.92,160.00,12.00,0.00,29.75,M,10.00,20.00,FEW,FEW,FEW,M,4000.00,4800.00,6000.00,M,M,M,M,M,M,M,M,22.00,KMEV 080155Z AUTO 16012G20KT 10SM FEW040 FEW048 FEW060 00/M10 A2975 RMK AO2,M
BAM,2022-11-08 01:55,-116.8743,40.5990,1382.36,33.80,32.00,93.03,140.00,6.00,0.00,29.80,M,3.00,M,SCT,BKN,OVC,M,1500.00,2100.00,2900.00,M,M,M,M,M,M,M,M,27.70,KBAM 080155Z AUTO 14006KT 3SM SCT015 BKN021 OVC029 01/00 A2980 RMK AO1,M
TMT,2022-11-08 01:55,-117.1971,39.4643,1749.34,28.40,27.50,96.37,30.00,7.00,0.02,29.75,M,1.25,M,OVC,M,M,M,600.00,M,M,M,-SN,M,M,M,M,M,M,20.39,KTMT 080155Z AUTO 03007KT 1 1/4SM -SN OVC006 M02/M02 A2975 RMK AO2 P0002 T10201025,M
EKO,2022-11-08 01:55,-115.7860,40.8242,1367.00,30.90,28.00,88.84,100.00,5.00,0.04,29.77,1008.40,2.00,M,FEW,OVC,M,M,800.00,1900.00,M,M,-SN BR,M,M,M,M,M,M,25.09,KEKO 080155Z AUTO 10005KT 2SM -SN BR FEW008 OVC019 M01/M02 A2977 RMK AO2 SLP084 P0004 T10061022,M
EKO,2022-11-08 01:55,-115.7860,40.8242,1367.00,M,M,M,100.00,5.00,0.04,29.77,M,2.00,M,FEW,OVC,M,M,800.00,1900.00,M,M,-SN BR,M,M,M,M,M,M,M,KEKO 080155Z AUTO 10005KT 2SM -SN BR FEW008 OVC019 M01/M02 A2977 RMK P0004 T10101020 MADISHF,M
BVU,2022-11-08 01:55,-114.8611,35.9475,671.00,68.00,41.00,37.32,190.00,11.00,0.00,29.82,M,10.00,21.00,SCT,OVC,M,M,7500.00,9000.00,M,M,M,M,M,M,M,M,M,68.00,KBVU 080155Z AUTO 19011G21KT 10SM SCT075 OVC090 20/05 A2982 RMK AO2,M
NFL,2022-11-08 01:56,-118.7010,39.4166,1199.00,39.00,28.00,64.37,90.00,9.00,T,29.73,1004.90,7.00,M,SCT,BKN,BKN,M,2500.00,4000.00,6000.00,M,-SN,M,M,M,M,M,M,32.22,KNFL 080156Z 09009KT 7SM -SN SCT025 BKN040 BKN060 04/M02 A2973 RMK AO2 SLP049 P0000 T00391022,M
WMC,2022-11-08 01:56,-117.8072,40.9019,1315.00,34.00,28.00,78.43,190.00,16.00,0.00,29.76,1008.50,10.00,22.00,BKN,OVC,M,M,8000.00,9000.00,M,M,M,M,M,M,M,M,M,23.03,KWMC 080156Z AUTO 19016G22KT 10SM BKN080 OVC090 01/M02 A2976 RMK AO2 WSHFT 0135 SLP085 T00111022,M
TPH,2022-11-08 01:56,-117.0904,38.0505,1654.00,49.00,38.00,65.62,180.00,21.00,0.00,29.69,1002.80,10.00,31.00,CLR,M,M,M,M,M,M,M,M,M,M,M,31.00,190.00,2022-11-08 01:19,41.39,KTPH 080156Z AUTO 18021G31KT 10SM CLR 09/03 A2969 RMK AO2 PK WND 19031/0119 SLP028 T00940033,M
HND,2022-11-08 01:56,-115.1344,35.9729,742.79,67.00,40.00,37.14,180.00,19.00,0.00,29.82,1010.20,10.00,22.00,OVC,M,M,M,8000.00,M,M,M,M,M,M,M,M,M,M,66.90,KHND 080156Z 18019G22KT 10SM OVC080 19/04 A2982 RMK AO2 SLP102 T01940044,M
LAS,2022-11-08 01:56,-115.1634,36.0719,663.00,69.00,40.00,34.43,190.00,11.00,0.00,29.79,1007.40,10.00,23.00,BKN,BKN,OVC,M,8000.00,9500.00,22000.00,M,M,M,M,M,27.00,200.00,2022-11-08 01:30,69.10,KLAS 080156Z 19011G23KT 10SM BKN080 BKN095 OVC220 21/04 A2979 RMK AO2 PK WND 20027/0130 SLP074 T02060044,M
BAM,2022-11-08 02:15,-116.8743,40.5990,1382.36,32.00,32.00,100.00,130.00,3.00,0.00,29.81,M,2.50,M,BKN,OVC,M,M,2100.00,2800.00,M,M,M,M,M,M,M,M,M,28.69,KBAM 080215Z AUTO 13003KT 2 1/2SM BKN021 OVC028 00/00 A2981 RMK AO1,M
BVU,2022-11-08 02:15,-114.8611,35.9475,671.00,68.00,39.20,34.80,200.00,12.00,0.00,29.83,M,10.00,17.00,BKN,OVC,M,M,7000.00,9000.00,M,M,M,M,M,M,M,M,M,68.00,KBVU 080215Z AUTO 20012G17KT 10SM BKN070 OVC090 20/04 A2983 RMK AO2,M
RTS,2022-11-08 02:15,-119.8764,39.6682,1539.00,33.80,14.00,43.65,280.00,15.00,0.00,29.72,M,10.00,21.00,SCT,SCT,M,M,5500.00,6500.00,M,M,M,M,M,M,M,M,M,23.11,KRTS 080215Z AUTO 28015G21KT 10SM SCT055 SCT065 01/M10 A2972 RMK AO2,M
05U,2022-11-08 02:15,-116.0051,39.6042,1811.23,32.00,28.40,86.39,10.00,10.00,0.00,29.73,M,5.00,M,BKN,OVC,M,M,800.00,2200.00,M,M,BR,M,M,M,M,M,M,22.97,K05U 080215Z AUTO 01010KT 5SM BR BKN008 OVC022 M00/M02 A2973 RMK A01,M
TMT,2022-11-08 02:15,-117.1971,39.4643,1749.34,28.00,27.10,96.36,20.00,8.00,0.02,29.76,M,1.50,M,OVC,M,M,M,800.00,M,M,M,-SN,M,M,M,M,M,M,19.19,KTMT 080215Z AUTO 02008KT 1 1/2SM -SN OVC008 M02/M03 A2976 RMK AO2 LTG DSNT S P0002 T10221027,M
MEV,2022-11-08 02:15,-119.7500,38.9963,1441.42,32.00,15.80,50.75,140.00,14.00,0.00,29.74,M,10.00,M,FEW,FEW,SCT,M,4000.00,4900.00,7500.00,M,M,M,M,M,M,M,M,21.16,KMEV 080215Z AUTO 14014KT 10SM FEW040 FEW049 SCT075 00/M09 A2974 RMK AO2,M
CXP,2022-11-08 02:15,-119.7326,39.1923,1431.00,35.60,15.80,43.95,190.00,6.00,0.00,29.77,M,10.00,13.00,CLR,M,M,M,M,M,M,M,M,M,M,M,M,M,M,29.87,KCXP 080215Z AUTO 19006G13KT 10SM CLR 02/M09 A2977 RMK AO2,M
EKO,2022-11-08 02:17,-115.7860,40.8242,1367.00,30.90,28.90,92.18,0.00,0.00,0.01,29.78,M,1.25,M,OVC,M,M,M,1800.00,M,M,M,-SN BR,M,M,M,M,M,M,30.90,KEKO 080217Z AUTO 00000KT 1 1/4SM -SN BR OVC018 M01/M02 A2978 RMK AO2 P0001 T10061017,M
EKO,2022-11-08 02:30,-115.7860,40.8242,1367.00,30.90,28.90,92.18,40.00,6.00,0.02,29.76,M,1.00,M,VV ,M,M,M,1200.00,M,M,M,-SN BR,M,M,M,M,M,M,24.21,KEKO 080230Z AUTO 04006KT 1SM -SN BR VV012 M01/M02 A2976 RMK AO2 P0002 T10061017,M
MEV,2022-11-08 02:35,-119.7500,38.9963,1441.42,33.80,14.00,43.65,150.00,16.00,0.00,29.74,M,10.00,M,FEW,FEW,OVC,M,6000.00,8000.00,11000.00,M,M,M,M,M,M,M,M,22.76,KMEV 080235Z AUTO 15016KT 10SM FEW060 FEW080 OVC110 01/M10 A2974 RMK AO2,M
BVU,2022-11-08 02:35,-114.8611,35.9475,671.00,66.20,39.20,37.03,190.00,13.00,0.00,29.83,M,10.00,19.00,BKN,OVC,M,M,7000.00,9000.00,M,M,M,M,M,M,M,M,M,66.20,KBVU 080235Z AUTO 19013G19KT 10SM BKN070 OVC090 19/04 A2983 RMK AO2,M
CXP,2022-11-08 02:35,-119.7326,39.1923,1431.00,33.80,14.00,43.65,210.00,8.00,0.00,29.77,M,10.00,M,CLR,M,M,M,M,M,M,M,M,M,M,M,M,M,M,26.33,KCXP 080235Z AUTO 21008KT 10SM CLR 01/M10 A2977 RMK AO2,M
RTS,2022-11-08 02:35,-119.8764,39.6682,1539.00,33.80,14.00,43.65,220.00,17.00,0.00,29.72,M,10.00,22.00,CLR,M,M,M,M,M,M,M,M,M,M,M,M,M,M,22.43,KRTS 080235Z AUTO 22017G22KT 10SM CLR 01/M10 A2972 RMK AO2,M
05U,2022-11-08 02:35,-116.0051,39.6042,1811.23,30.20,28.40,92.92,10.00,5.00,0.00,29.74,M,4.00,11.00,BKN,OVC,M,M,800.00,2100.00,M,M,BR,M,M,M,M,M,M,24.26,K05U 080235Z AUTO 01005G11KT 4SM BR BKN008 OVC021 M01/M02 A2974 RMK A01,M
BAM,2022-11-08 02:35,-116.8743,40.5990,1382.36,32.00,32.00,100.00,0.00,0.00,0.00,29.80,M,4.00,M,SCT,OVC,M,M,1900.00,3000.00,M,M,M,M,M,M,M,M,M,32.00,KBAM 080235Z AUTO 00000KT 4SM SCT019 OVC030 00/00 A2980 RMK AO1,M
TMT,2022-11-08 02:35,-117.1971,39.4643,1749.34,27.50,27.00,97.96,60.00,5.00,0.03,29.77,M,1.25,M,OVC,M,M,M,800.00,M,M,M,-SN,M,M,M,M,M,M,21.05,KTMT 080235Z AUTO 06005KT 1 1/4SM -SN OVC008 M02/M03 A2977 RMK AO2 P0003 T10251028,M
VGT,2022-11-08 02:53,-115.1933,36.2111,667.00,69.00,42.00,37.50,190.00,10.00,0.00,29.79,1009.20,10.00,19.00,OVC,M,M,M,8000.00,M,M,M,M,M,M,M,M,M,M,69.10,KVGT 080253Z 19010G19KT 10SM OVC080 21/06 A2979 RMK AO2 SLP092 T02060056 53007,M
LOL,2022-11-08 02:53,-118.5701,40.0684,1192.43,36.00,27.00,69.51,110.00,5.00,0.00,29.76,1008.60,10.00,M,SCT,OVC,M,M,7500.00,9000.00,M,M,M,M,M,M,M,M,M,31.15,KLOL 080253Z AUTO 11005KT 10SM SCT075 OVC090 02/M03 A2976 RMK AO2 SLP086 T00221028 53007,M
ELY,2022-11-08 02:53,-114.8453,39.2950,1909.00,45.00,34.00,65.13,170.00,24.00,0.00,29.71,1001.60,10.00,35.00,FEW,M,M,M,5000.00,M,M,M,M,M,M,M,35.00,170.00,2022-11-08 02:52,35.60,KELY 080253Z AUTO 17024G35KT 10SM FEW050 07/01 A2971 RMK AO2 PK WND 17035/0252 SLP016 T00720011 58003,M
P68,2022-11-08 02:53,-116.0056,39.6014,1993.00,30.00,27.00,88.44,10.00,10.00,0.00,29.71,1004.20,M,M,M,M,M,M,M,M,M,M,M,M,M,M,M,M,M,20.46,KP68 080253Z AUTO 01010KT M01/M03 A2971 RMK AO1 SLP042 T10111028 55003,M
DRA,2022-11-08 02:53,-116.0278,36.6206,1009.00,60.00,43.00,53.15,230.00,12.00,0.00,29.79,1006.10,10.00,23.00,SCT,BKN,OVC,M,4800.00,6000.00,7500.00,M,M,M,M,M,28.00,200.00,2022-11-08 01:59,60.10,KDRA 080253Z AUTO 23012G23KT 10SM SCT048 BKN060 OVC075 16/06 A2979 RMK AO2 PK WND 20028/0159 SLP061 T01560061 53014,M
INS,2022-11-08 02:55,-115.6733,36.5872,955.00,64.00,34.30,32.95,260.00,8.00,0.00,29.76,1004.60,10.00,M,BKN,OVC,M,M,9000.00,17000.00,M,M,M,M,M,M,M,M,M,64.00,KINS 080255Z AUTO 26008KT 10SM BKN090 OVC170 18/01 A2976 RMK AO2 SLP046 T01780013 51006 $,M
RTS,2022-11-08 02:55,-119.8764,39.6682,1539.00,35.60,14.00,40.63,240.00,9.00,0.00,29.72,M,10.00,20.00,CLR,M,M,M,M,M,M,M,M,M,M,M,M,M,M,27.99,KRTS 080255Z AUTO 24009G20KT 10SM CLR 02/M10 A2972 RMK AO2,M
LSV,2022-11-08 02:55,-115.0343,36.2362,570.00,68.70,40.60,35.87,190.00,12.00,0.00,29.77,1006.80,10.00,M,OVC,M,M,M,7500.00,M,M,M,M,M,M,M,26.00,170.00,2022-11-08 02:13,68.70,KLSV 080255Z AUTO 19012KT 10SM OVC075 20/05 A2977 RMK AO2 PK WND 17026/13 SLP068 T02040048 53010 $,M
BVU,2022-11-08 02:55,-114.8611,35.9475,671.00,66.20,39.20,37.03,190.00,11.00,0.00,29.83,M,10.00,17.00,OVC,M,M,M,7500.00,M,M,M,M,M,M,M,M,M,M,66.20,KBVU 080255Z AUTO 19011G17KT 10SM OVC075 19/04 A2983 RMK AO2,M
05U,2022-11-08 02:55,-116.0051,39.6042,1811.23,30.20,28.40,92.92,20.00,8.00,0.00,29.74,M,7.00,M,BKN,BKN,OVC,M,700.00,1100.00,2000.00,M,M,M,M,M,M,M,M,21.90,K05U 080255Z AUTO 02008KT 7SM BKN007 BKN011 OVC020 M01/M02 A2974 RMK A01,M
TMT,2022-11-08 02:55,-117.1971,39.4643,1749.34,27.50,27.00,97.96,0.00,0.00,0.03,29.78,M,1.75,M,BKN,OVC,M,M,1000.00,1500.00,M,M,-SN,M,M,M,M,M,M,27.50,KTMT 080255Z AUTO 00000KT 1 3/4SM -SN BKN010 OVC015 M02/M03 A2978 RMK AO2 P0003 60005 T10251028,M
RNO,2022-11-08 02:55,-119.7711,39.4839,1341.00,39.00,14.00,35.54,M,3.00,0.00,29.70,1005.70,10.00,M,FEW,FEW,M,M,7000.00,11000.00,M,M,M,M,M,M,M,M,M,36.69,KRNO 080255Z VRB03KT 10SM FEW070 FEW110 04/M10 A2970 RMK AO2 SLP057 T00391100 50001,M
CXP,2022-11-08 02:55,-119.7326,39.1923,1431.00,33.80,14.00,43.65,200.00,6.00,0.00,29.76,M,10.00,M,CLR,M,M,M,M,M,M,M,M,M,M,M,M,M,M,27.70,KCXP 080255Z AUTO 20006KT 10SM CLR 01/M10 A2976 RMK AO2,M
BAM,2022-11-08 02:55,-116.8743,40.5990,1382.36,32.00,32.00,100.00,90.00,3.00,0.00,29.80,M,2.50,M,SCT,SCT,OVC,M,500.00,900.00,2800.00,M,M,M,M,M,M,M,M,28.69,KBAM 080255Z AUTO 09003KT 2 1/2SM SCT005 SCT009 OVC028 00/00 A2980 RMK AO1,M
MEV,2022-11-08 02:55,-119.7500,38.9963,1441.42,35.60,14.00,40.63,150.00,15.00,0.00,29.75,M,10.00,22.00,FEW,OVC,M,M,6500.00,10000.00,M,M,M,M,M,M,M,M,M,25.45,KMEV 080255Z AUTO 15015G22KT 10SM FEW065 OVC100 02/M10 A2975 RMK AO2,M
LAS,2022-11-08 02:56,-115.1634,36.0719,663.00,68.00,40.00,35.76,180.00,9.00,0.00,29.80,1007.90,10.00,21.00,BKN,BKN,OVC,M,7500.00,9000.00,22000.00,M,M,M,M,M,M,M,M,68.00,KLAS 080256Z 18009G21KT 10SM BKN075 BKN090 OVC220 20/04 A2980 RMK AO2 SLP079 T02000044 53007,M
WMC,2022-11-08 02:56,-117.8072,40.9019,1315.00,33.00,30.00,88.23,170.00,11.00,T,29.76,1008.60,4.00,M,OVC,M,M,M,5500.00,M,M,M,-SN BR,M,M,M,M,M,M,23.86,KWMC 080256Z AUTO 17011KT 4SM -SN BR OVC055 01/M01 A2976 RMK AO2 SNB25 SLP086 P0000 60000 T00061011 51005,M
EKO,2022-11-08 02:56,-115.7860,40.8242,1367.00,30.90,28.90,92.18,40.00,3.00,0.04,29.77,1008.80,1.50,M,SCT,OVC,M,M,600.00,1100.00,M,M,-SN BR,M,M,M,M,M,M,27.43,KEKO 080256Z AUTO 04003KT 1 1/2SM -SN BR SCT006 OVC011 M01/M02 A2977 RMK AO2 SLP088 P0004 60009 T10061017 58001,M
NFL,2022-11-08 02:56,-118.7010,39.4166,1199.00,39.00,28.00,64.37,110.00,6.00,T,29.75,1005.30,10.00,M,SCT,BKN,BKN,M,3500.00,5500.00,8000.00,M,M,M,M,M,M,M,M,33.96,KNFL 080256Z 11006KT 10SM SCT035 BKN055 BKN080 04/M02 A2975 RMK AO2 SNE37 SLP053 SH VC NW-NE-SE P0000 60000 T00391022 53010,M
HND,2022-11-08 02:56,-115.1344,35.9729,742.79,66.00,41.00,39.99,190.00,19.00,0.00,29.83,1010.60,10.00,23.00,BKN,OVC,M,M,7000.00,9000.00,M,M,M,M,M,M,M,M,M,66.00,KHND 080256Z 19019G23KT 10SM BKN070 OVC090 19/05 A2983 RMK AO2 SLP106 T01890050 53009,M
TPH,2022-11-08 02:56,-117.0904,38.0505,1654.00,48.00,39.00,70.85,180.00,20.00,0.00,29.69,1002.70,10.00,31.00,CLR,M,M,M,M,M,M,M,M,M,M,M,34.00,180.00,2022-11-08 02:26,40.39,KTPH 080256Z AUTO 18020G31KT 10SM CLR 09/04 A2969 RMK AO2 PK WND 18034/0226 SLP027 T00890039 50000,M
EKO,2022-11-08 03:13,-115.7860,40.8242,1367.00,30.90,28.00,88.84,40.00,10.00,0.03,29.75,M,0.75,M,VV ,M,M,M,800.00,M,M,M,-SN BR,M,M,M,M,M,M,21.59,KEKO 080313Z AUTO 04010KT 3/4SM -SN BR VV008 M01/M02 A2975 RMK AO2 P0003 T10061022,M
RTS,2022-11-08 03:15,-119.8764,39.6682,1539.00,35.60,12.20,37.53,210.00,5.00,0.00,29.72,M,10.00,17.00,CLR,M,M,M,M,M,M,M,M,M,M,M,M,M,M,30.67,KRTS 080315Z AUTO 21005G17KT 10SM CLR 02/M11 A2972 RMK AO2,M
05U,2022-11-08 03:15,-116.0051,39.6042,1811.23,30.20,28.40,92.92,350.00,11.00,0.00,29.74,M,10.00,M,BKN,BKN,OVC,M,700.00,1100.00,1700.00,M,M,M,M,M,M,M,M,20.19,K05U 080315Z AUTO 35011KT 10SM BKN007 BKN011 OVC017 M01/M02 A2974 RMK A01,M
BAM,2022-11-08 03:15,-116.8743,40.5990,1382.36,32.00,32.00,100.00,0.00,0.00,0.00,29.80,M,2.50,M,SCT,BKN,OVC,M,500.00,1100.00,2600.00,M,M,M,M,M,M,M,M,32.00,KBAM 080315Z AUTO 00000KT 2 1/2SM SCT005 BKN011 OVC026 00/00 A2980 RMK AO1,M
MEV,2022-11-08 03:15,-119.7500,38.9963,1441.42,35.60,14.00,40.63,160.00,19.00,0.00,29.74,M,10.00,M,SCT,SCT,OVC,M,5500.00,6500.00,9500.00,M,M,M,M,M,M,M,M,24.20,KMEV 080315Z AUTO 16019KT 10SM SCT055 SCT065 OVC095 02/M10 A2974 RMK AO2,M
CXP,2022-11-08 03:15,-119.7326,39.1923,1431.00,33.80,15.80,47.22,190.00,3.00,0.00,29.76,M,10.00,M,SCT,M,M,M,11000.00,M,M,M,M,M,M,M,M,M,M,30.75,KCXP 080315Z AUTO 19003KT 10SM SCT110 01/M09 A2976 RMK AO2,M
BVU,2022-11-08 03:15,-114.8611,35.9475,671.00,66.20,41.00,39.72,190.00,14.00,0.00,29.83,M,10.00,M,OVC,M,M,M,8000.00,M,M,M,M,M,M,M,M,M,M,66.20,KBVU 080315Z AUTO 19014KT 10SM OVC080 19/05 A2983 RMK AO2,M
TMT,2022-11-08 03:15,-117.1971,39.4643,1749.34,27.90,27.10,96.76,0.00,0.00,0.01,29.79,M,1.75,M,OVC,M,M,M,1300.00,M,M,M,-SN,M,M,M,M,M,M,27.90,KTMT 080315Z AUTO 00000KT 1 3/4SM -SN OVC013 M02/M03 A2979 RMK AO2 P0001 T10231027,M
EKO,2022-11-08 03:21,-115.7860,40.8242,1367.00,30.90,28.00,88.84,40.00,5.00,0.04,29.78,M,1.00,M,FEW,OVC,M,M,500.00,900.00,M,M,-SN BR,M,M,M,M,M,M,25.09,KEKO 080321Z AUTO 04005KT 1SM -SN BR FEW005 OVC009 M01/M02 A2978 RMK AO2 P0004 T10061022,M
INS,2022-11-08 03:32,-115.6733,36.5872,955.00,62.60,37.40,39.14,240.00,13.00,0.00,29.77,1005.10,10.00,23.00,OVC,M,M,M,8500.00,M,M,M,M,M,M,M,M,M,M,62.60,KINS 080332Z AUTO 24013G23KT 10SM OVC085 17/03 A2977 RMK AO2 WSHFT 23 SLP051 $,M
INS,2022-11-08 03:35,-115.6733,36.5872,955.00,62.60,37.40,39.14,280.00,15.00,0.00,29.77,1005.10,10.00,23.00,OVC,M,M,M,9000.00,M,M,M,M,M,M,M,M,M,M,62.60,KINS 080335Z AUTO 28015G23KT 10SM OVC090 17/03 A2977 RMK AO2 WSHFT 33 SLP051 $,M
BAM,2022-11-08 03:35,-116.8743,40.5990,1382.36,32.00,32.00,100.00,0.00,0.00,0.00,29.81,M,2.50,M,BKN,BKN,OVC,M,300.00,800.00,1500.00,M,M,M,M,M,M,M,M,32.00,KBAM 080335Z AUTO 00000KT 2 1/2SM BKN003 BKN008 OVC015 00/00 A2981 RMK AO1,M
MEV,2022-11-08 03:35,-119.7500,38.9963,1441.42,35.60,14.00,40.63,150.00,15.00,0.00,29.75,M,10.00,24.00,FEW,SCT,BKN,M,5500.00,6500.00,7500.00,M,M,M,M,M,M,M,M,25.45,KMEV 080335Z AUTO 15015G24KT 10SM FEW055 SCT065 BKN075 02/M10 A2975 RMK AO2,M
05U,2022-11-08 03:35,-116.0051,39.6042,1811.23,30.20,28.40,92.92,340.00,9.00,0.00,29.73,M,10.00,M,OVC,M,M,M,600.00,M,M,M,M,M,M,M,M,M,M,21.28,K05U 080335Z AUTO 34009KT 10SM OVC006 M01/M02 A2973 RMK A01,M
RTS,2022-11-08 03:35,-119.8764,39.6682,1539.00,33.80,14.00,43.65,190.00,7.00,0.00,29.72,M,10.00,13.00,CLR,M,M,M,M,M,M,M,M,M,M,M,M,M,M,26.97,KRTS 080335Z AUTO 19007G13KT 10SM CLR 01/M10 A2972 RMK AO2,M
BVU,2022-11-08 03:35,-114.8611,35.9475,671.00,66.20,41.00,39.72,180.00,10.00,0.00,29.82,M,10.00,M,BKN,OVC,M,M,8000.00,9000.00,M,M,M,M,M,M,M,M,M,66.20,KBVU 080335Z AUTO 18010KT 10SM BKN080 OVC090 19/05 A2982 RMK AO2,M
TMT,2022-11-08 03:35,-117.1971,39.4643,1749.34,27.90,27.30,97.56,0.00,0.00,0.02,29.78,M,1.25,M,OVC,M,M,M,1000.00,M,M,M,-SN,M,M,M,M,M,M,27.90,KTMT 080335Z AUTO 00000KT 1 1/4SM -SN OVC010 M02/M03 A2978 RMK AO2 P0002 T10231026,M
CXP,2022-11-08 03:35,-119.7326,39.1923,1431.00,33.80,14.00,43.65,180.00,8.00,0.00,29.76,M,10.00,M,FEW,SCT,OVC,M,6000.00,7500.00,10000.00,M,M,M,M,M,M,M,M,26.33,KCXP 080335Z AUTO 18008KT 10SM FEW060 SCT075 OVC100 01/M10 A2976 RMK AO2,M
EKO,2022-11-08 03:37,-115.7860,40.8242,1367.00,30.00,28.00,92.15,70.00,6.00,0.06,29.77,M,1.00,M,VV ,M,M,M,1100.00,M,M,M,-SN BR,M,M,M,M,M,M,23.12,KEKO 080337Z AUTO 07006KT 1SM -SN BR VV011 M01/M02 A2977 RMK AO2 P0006 T10111022,M
DRA,2022-11-08 03:53,-116.0278,36.6206,1009.00,59.00,44.00,57.66,210.00,16.00,0.00,29.80,1006.30,10.00,25.00,OVC,M,M,M,3700.00,M,M,M,M,M,M,M,28.00,230.00,2022-11-08 03:27,59.00,KDRA 080353Z AUTO 21016G25KT 10SM OVC037 15/07 A2980 RMK AO2 PK WND 23028/0327 SLP063 T01500067,M
VGT,2022-11-08 03:53,-115.1933,36.2111,667.00,67.00,41.00,38.76,180.00,9.00,0.00,29.79,1009.10,10.00,M,FEW,M,M,M,8000.00,M,M,M,M,M,M,M,26.00,180.00,2022-11-08 03:07,66.90,KVGT 080353Z AUTO 18009KT 10SM FEW080 19/05 A2979 RMK AO2 PK WND 18026/0307 SLP091 T01940050,M
ELY,2022-11-08 03:53,-114.8453,39.2950,1909.00,44.00,35.00,70.43,170.00,25.00,T,29.70,1001.40,10.00,34.00,FEW,SCT,BKN,M,4400.00,5000.00,6500.00,M,-RA,M,M,M,36.00,180.00,2022-11-08 03:42,34.19,KELY 080353Z AUTO 17025G34KT 10SM -RA FEW044 SCT050 BKN065 07/02 A2970 RMK AO2 PK WND 18036/0342 RAB45 SLP014 P0000 T00670017,M
P68,2022-11-08 03:53,-116.0056,39.6014,1993.00,28.90,27.00,92.49,360.00,10.00,0.01,29.71,1003.90,M,M,M,M,M,M,M,M,M,M,M,M,M,M,M,M,M,19.08,KP68 080353Z AUTO 36010KT M02/M03 A2971 RMK AO1 SLP039 P0001 T10171028,M
LOL,2022-11-08 03:53,-118.5701,40.0684,1192.43,36.00,26.10,66.97,270.00,3.00,0.00,29.75,1008.30,10.00,M,OVC,M,M,M,10000.00,M,M,M,M,M,M,M,M,M,M,33.26,KLOL 080353Z AUTO 27003KT 10SM OVC100 02/M03 A2975 RMK AO2 SLP083 T00221033,M
CXP,2022-11-08 03:55,-119.7326,39.1923,1431.00,35.60,12.20,37.53,210.00,5.00,0.00,29.76,M,10.00,M,SCT,OVC,M,M,5500.00,7000.00,M,M,M,M,M,M,M,M,M,30.67,KCXP 080355Z AUTO 21005KT 10SM SCT055 OVC070 02/M11 A2976 RMK AO2,M
TMT,2022-11-08 03:55,-117.1971,39.4643,1749.34,27.50,27.10,98.37,0.00,0.00,0.03,29.78,M,2.00,M,SCT,BKN,OVC,M,400.00,800.00,1200.00,M,-SN,M,M,M,M,M,M,27.50,KTMT 080355Z AUTO 00000KT 2SM -SN SCT004 BKN008 OVC012 M02/M03 A2978 RMK AO2 P0003 T10251027,M
MEV,2022-11-08 03:55,-119.7500,38.9963,1441.42,33.80,14.00,43.65,180.00,9.00,0.00,29.75,M,10.00,14.00,BKN,OVC,M,M,7500.00,9000.00,M,M,M,M,M,M,M,M,M,25.75,KMEV 080355Z AUTO 18009G14KT 10SM BKN075 OVC090 01/M10 A2975 RMK AO2,M
LSV,2022-11-08 03:55,-115.0343,36.2362,570.00,67.80,42.00,38.91,180.00,19.00,0.00,29.77,1006.70,10.00,24.00,OVC,M,M,M,7000.00,M,M,M,M,M,M,M,M,M,M,67.80,KLSV 080355Z AUTO 18019G24KT 10SM OVC070 20/06 A2977 RMK AO2 SLP067 T01990055 $,M
05U,2022-11-08 03:55,-116.0051,39.6042,1811.23,30.20,28.40,92.92,10.00,8.00,0.00,29.74,M,10.00,M,BKN,OVC,M,M,600.00,1700.00,M,M,M,M,M,M,M,M,M,21.90,K05U 080355Z AUTO 01008KT 10SM BKN006 OVC017 M01/M02 A2974 RMK A01,M
RTS,2022-11-08 03:55,-119.8764,39.6682,1539.00,33.80,14.00,43.65,0.00,0.00,0.00,29.73,M,10.00,M,FEW,FEW,BKN,M,6000.00,7500.00,9000.00,M,M,M,M,M,M,M,M,33.80,KRTS 080355Z AUTO 00000KT 10SM FEW060 FEW075 BKN090 01/M10 A2973 RMK AO2,M
INS,2022-11-08 03:55,-115.6733,36.5872,955.00,62.20,35.60,36.97,50.00,7.00,0.00,29.77,1005.10,10.00,M,BKN,OVC,M,M,8000.00,9500.00,M,M,M,M,M,M,26.00,270.00,2022-11-08 03:08,62.20,KINS 080355Z AUTO 05007KT 10SM BKN080 OVC095 17/02 A2977 RMK AO2 PK WND 27026/08 SLP051 T01680020 $,M
BVU,2022-11-08 03:55,-114.8611,35.9475,671.00,66.20,41.00,39.72,170.00,12.00,0.00,29.82,M,10.00,M,BKN,M,M,M,7500.00,M,M,M,M,M,M,M,M,M,M,66.20,KBVU 080355Z AUTO 17012KT 10SM BKN075 19/05 A2982 RMK AO2,M
BAM,2022-11-08 03:55,-116.8743,40.5990,1382.36,32.00,32.00,100.00,0.00,0.00,0.00,29.80,M,2.00,M,OVC,M,M,M,500.00,M,M,M,M,M,M,M,M,M,M,32.00,KBAM 080355Z AUTO 00000KT 2SM OVC005 00/00 A2980 RMK AO1 VIS 1 1/2V3,M
RNO,2022-11-08 03:55,-119.7711,39.4839,1341.00,38.00,16.00,40.49,180.00,6.00,0.00,29.72,1005.80,10.00,M,FEW,SCT,M,M,7000.00,11000.00,M,M,M,M,M,M,M,M,M,32.64,KRNO 080355Z 18006KT 10SM FEW070 SCT110 03/M09 A2972 RMK AO2 SLP058 T00331089,M
HND,2022-11-08 03:56,-115.1344,35.9729,742.79,65.00,42.00,43.36,170.00,15.00,0.00,29.82,1010.30,10.00,19.00,FEW,M,M,M,7000.00,M,M,M,M,M,M,M,M,M,M,64.90,KHND 080356Z 17015G19KT 10SM FEW070 18/06 A2982 RMK AO2 SLP103 T01830056,M
EKO,2022-11-08 03:56,-115.7860,40.8242,1367.00,30.00,28.00,92.15,50.00,9.00,0.07,29.76,1008.80,1.50,M,OVC,M,M,M,1400.00,M,M,M,-SN BR,M,M,M,M,M,M,21.03,KEKO 080356Z AUTO 05009KT 1 1/2SM -SN BR OVC014 M01/M02 A2976 RMK AO2 SLP088 P0007 T10111022,M
TPH,2022-11-08 03:56,-117.0904,38.0505,1654.00,47.00,38.00,70.73,180.00,21.00,0.00,29.70,1003.20,10.00,30.00,CLR,M,M,M,M,M,M,M,M,M,M,M,32.00,180.00,2022-11-08 03:05,38.73,KTPH 080356Z AUTO 18021G30KT 10SM CLR 08/03 A2970 RMK AO2 PK WND 18032/0305 SLP032 T00830033,M
WMC,2022-11-08 03:56,-117.8072,40.9019,1315.00,33.00,30.00,88.23,190.00,11.00,T,29.76,1008.20,9.00,M,OVC,M,M,M,6000.00,M,M,M,-SN,M,M,M,M,M,M,23.86,KWMC 080356Z AUTO 19011KT 9SM -SN OVC060 01/M01 A2976 RMK AO2 SLP082 P0000 T00061011,M
NFL,2022-11-08 03:56,-118.7010,39.4166,1199.00,39.00,28.00,64.37,110.00,3.00,T,29.73,1004.80,10.00,M,SCT,BKN,BKN,M,3500.00,5000.00,8000.00,M,-SN,M,M,M,M,M,M,36.69,KNFL 080356Z 11003KT 10SM -SN SCT035 BKN050 BKN080 04/M02 A2973 RMK AO2 SNB20E37B53 SLP048 P0000 T00391022,M
LAS,2022-11-08 03:56,-115.1634,36.0719,663.00,66.00,41.00,39.99,M,6.00,0.00,29.81,1008.00,10.00,M,OVC,M,M,M,22000.00,M,M,M,M,M,M,M,M,M,M,66.00,KLAS 080356Z VRB06KT 10SM OVC220 19/05 A2981 RMK AO2 SLP080 T01890050,M
BAM,2022-11-08 04:15,-116.8743,40.5990,1382.36,32.00,32.00,100.00,0.00,0.00,0.00,29.80,M,2.00,M,SCT,BKN,OVC,M,500.00,800.00,1700.00,M,M,M,M,M,M,M,M,32.00,KBAM 080415Z AUTO 00000KT 2SM SCT005 BKN008 OVC017 00/00 A2980 RMK AO1,M
BVU,2022-11-08 04:15,-114.8611,35.9475,671.00,66.20,41.00,39.72,180.00,16.00,0.00,29.82,M,10.00,M,OVC,M,M,M,7000.00,M,M,M,M,M,M,M,M,M,M,66.20,KBVU 080415Z AUTO 18016KT 10SM OVC070 19/05 A2982 RMK AO2,M
CXP,2022-11-08 04:15,-119.7326,39.1923,1431.00,35.60,14.00,40.63,0.00,0.00,0.00,29.76,M,10.00,M,FEW,SCT,BKN,M,4900.00,6000.00,6500.00,M,M,M,M,M,M,M,M,35.60,KCXP 080415Z AUTO 00000KT 10SM FEW049 SCT060 BKN065 02/M10 A2976 RMK AO2,M
RTS,2022-11-08 04:15,-119.8764,39.6682,1539.00,32.00,17.60,54.87,310.00,6.00,0.00,29.73,M,10.00,16.00,FEW,FEW,OVC,M,6000.00,7500.00,9500.00,M,M,M,M,M,M,M,M,25.53,KRTS 080415Z AUTO 31006G16KT 10SM FEW060 FEW075 OVC095 00/M08 A2973 RMK AO2,M
05U,2022-11-08 04:15,-116.0051,39.6042,1811.23,30.20,26.60,86.28,10.00,11.00,0.00,29.74,M,10.00,M,OVC,M,M,M,600.00,M,M,M,M,M,M,M,M,M,M,20.19,K05U 080415Z AUTO 01011KT 10SM OVC006 M01/M03 A2974 RMK A01,M
MEV,2022-11-08 04:15,-119.7500,38.9963,1441.42,33.80,15.80,47.22,150.00,10.00,0.00,29.75,M,10.00,M,FEW,OVC,M,M,7500.00,10000.00,M,M,M,M,M,M,M,M,M,25.23,KMEV 080415Z AUTO 15010KT 10SM FEW075 OVC100 01/M09 A2975 RMK AO2,M
TMT,2022-11-08 04:15,-117.1971,39.4643,1749.34,27.50,27.00,97.96,0.00,0.00,0.00,29.78,M,4.00,M,SCT,BKN,OVC,M,600.00,1000.00,3300.00,M,-SN,M,M,M,M,M,M,27.50,KTMT 080415Z AUTO 00000KT 4SM -SN SCT006 BKN010 OVC033 M02/M03 A2978 RMK AO2 T10251028,M
EKO,2022-11-08 04:30,-115.7860,40.8242,1367.00,30.00,28.00,92.15,60.00,8.00,0.03,29.78,M,0.75,M,VV ,M,M,M,900.00,M,M,M,-SN BR,M,M,M,M,M,M,21.65,KEKO 080430Z AUTO 06008KT 3/4SM -SN BR VV009 M01/M02 A2978 RMK AO2 P0003 T10111022,M
TMT,2022-11-08 04:35,-117.1971,39.4643,1749.34,27.10,26.40,97.15,0.00,0.00,0.00,29.77,M,7.00,M,SCT,SCT,OVC,M,900.00,1600.00,3500.00,M,-SN,M,M,M,M,M,M,27.10,KTMT 080435Z AUTO 00000KT 7SM -SN SCT009 SCT016 OVC035 M03/M03 A2977 RMK AO2 T10271031,M
BVU,2022-11-08 04:35,-114.8611,35.9475,671.00,64.40,41.00,42.28,190.00,17.00,0.00,29.83,M,10.00,M,OVC,M,M,M,7000.00,M,M,M,M,M,M,M,M,M,M,64.40,KBVU 080435Z AUTO 19017KT 10SM OVC070 18/05 A2983 RMK AO2,M
05U,2022-11-08 04:35,-116.0051,39.6042,1811.23,30.20,26.60,86.28,360.00,10.00,0.00,29.74,M,10.00,M,OVC,M,M,M,600.00,M,M,M,M,M,M,M,M,M,M,20.71,K05U 080435Z AUTO 36010KT 10SM OVC006 M01/M03 A2974 RMK A01,M
MEV,2022-11-08 04:35,-119.7500,38.9963,1441.42,33.80,15.80,47.22,170.00,19.00,0.00,29.76,M,10.00,24.00,FEW,BKN,OVC,M,5000.00,7500.00,9000.00,M,M,M,M,M,M,M,M,21.82,KMEV 080435Z AUTO 17019G24KT 130V200 10SM FEW050 BKN075 OVC090 01/M09 A2976 RMK AO2,M
BAM,2022-11-08 04:35,-116.8743,40.5990,1382.36,32.00,32.00,100.00,0.00,0.00,0.00,29.80,M,3.00,M,SCT,SCT,OVC,M,1600.00,2000.00,3300.00,M,M,M,M,M,M,M,M,32.00,KBAM 080435Z AUTO 00000KT 3SM SCT016 SCT020 OVC033 00/00 A2980 RMK AO1,M
RTS,2022-11-08 04:35,-119.8764,39.6682,1539.00,32.00,19.40,59.27,M,6.00,0.00,29.73,M,10.00,M,OVC,M,M,M,9500.00,M,M,M,M,M,M,M,M,M,M,25.53,KRTS 080435Z AUTO VRB06KT 10SM OVC095 00/M07 A2973 RMK AO2,M
CXP,2022-11-08 04:35,-119.7326,39.1923,1431.00,35.60,15.80,43.95,190.00,4.00,0.00,29.77,M,10.00,M,SCT,BKN,OVC,M,5500.00,6500.00,7500.00,M,M,M,M,M,M,M,M,31.62,KCXP 080435Z AUTO 19004KT 10SM SCT055 BKN065 OVC075 02/M09 A2977 RMK AO2,M
ELY,2022-11-08 04:53,-114.8453,39.2950,1909.00,47.00,30.90,53.50,190.00,25.00,T,29.70,1000.90,10.00,39.00,FEW,BKN,M,M,5000.00,6000.00,M,M,M,M,M,M,40.00,180.00,2022-11-08 03:54,37.99,KELY 080453Z AUTO 19025G39KT 10SM FEW050 BKN060 08/M01 A2970 RMK AO2 PK WND 18040/0354 RAE16 SLP009 P0000 T00831006,M
LOL,2022-11-08 04:53,-118.5701,40.0684,1192.43,35.00,26.10,69.41,320.00,6.00,0.00,29.74,1007.80,10.00,M,OVC,M,M,M,10000.00,M,M,M,M,M,M,M,M,M,M,29.26,KLOL 080453Z AUTO 32006KT 10SM OVC100 02/M03 A2974 RMK AO2 SLP078 T00171033,M
VGT,2022-11-08 04:53,-115.1933,36.2111,667.00,67.00,42.00,40.45,180.00,12.00,0.00,29.79,1009.30,10.00,M,FEW,M,M,M,7500.00,M,M,M,M,M,M,M,M,M,M,66.90,KVGT 080453Z AUTO 18012KT 10SM FEW075 19/06 A2979 RMK AO2 SLP093 T01940056,M
DRA,2022-11-08 04:53,-116.0278,36.6206,1009.00,58.00,44.00,59.98,210.00,10.00,0.00,29.80,1006.20,10.00,M,BKN,OVC,M,M,3600.00,6000.00,M,M,M,M,M,M,29.00,210.00,2022-11-08 04:00,57.90,KDRA 080453Z AUTO 21010KT 10SM BKN036 OVC060 14/07 A2980 RMK AO2 PK WND 21029/0400 SLP062 T01440067,M
P68,2022-11-08 04:53,-116.0056,39.6014,1993.00,28.90,26.10,89.12,10.00,8.00,0.00,29.73,1004.50,M,19.00,M,M,M,M,M,M,M,M,M,M,M,M,M,M,M,20.29,KP68 080453Z AUTO 01008G19KT M02/M03 A2973 RMK AO1 SLP045 T10171033,M
BAM,2022-11-08 04:55,-116.8743,40.5990,1382.36,32.00,32.00,100.00,0.00,0.00,0.00,29.80,M,10.00,M,SCT,SCT,OVC,M,3100.00,3800.00,7000.00,M,M,M,M,M,M,M,M,32.00,KBAM 080455Z AUTO 00000KT 10SM SCT031 SCT038 OVC070 00/00 A2980 RMK AO1,M
LSV,2022-11-08 04:55,-115.0343,36.2362,570.00,66.60,42.80,41.98,170.00,19.00,0.00,29.77,1006.70,10.00,24.00,BKN,BKN,M,M,7000.00,8000.00,M,M,M,M,M,M,26.00,170.00,2022-11-08 04:01,66.60,KLSV 080455Z AUTO 17019G24KT 10SM BKN070 BKN080 19/06 A2977 RMK AO2 PK WND 17026/01 SLP067 T01920060 $,M
BVU,2022-11-08 04:55,-114.8611,35.9475,671.00,64.40,42.80,45.32,190.00,13.00,0.00,29.82,M,10.00,23.00,BKN,M,M,M,7000.00,M,M,M,M,M,M,M,M,M,M,64.40,KBVU 080455Z AUTO 19013G23KT 10SM BKN070 18/06 A2982 RMK AO2,M
CXP,2022-11-08 04:55,-119.7326,39.1923,1431.00,35.60,14.00,40.63,210.00,9.00,0.00,29.77,M,10.00,14.00,FEW,BKN,OVC,M,4700.00,5500.00,7500.00,M,M,M,M,M,M,M,M,27.99,KCXP 080455Z AUTO 21009G14KT 10SM FEW047 BKN055 OVC075 02/M10 A2977 RMK AO2,M
RNO,2022-11-08 04:55,-119.7711,39.4839,1341.00,37.00,24.10,59.24,190.00,17.00,0.00,29.73,1006.40,10.00,M,SCT,BKN,M,M,6500.00,12000.00,M,M,M,M,M,M,M,M,M,26.63,KRNO 080455Z 19017KT 10SM SCT065 BKN120 03/M04 A2973 RMK AO2 SLP064 T00281044,M
RTS,2022-11-08 04:55,-119.8764,39.6682,1539.00,33.80,19.40,55.14,M,5.00,0.00,29.74,M,10.00,M,BKN,OVC,M,M,8500.00,10000.00,M,M,M,M,M,M,M,M,M,28.53,KRTS 080455Z AUTO VRB05KT 10SM BKN085 OVC100 01/M07 A2974 RMK AO2,M
05U,2022-11-08 04:55,-116.0051,39.6042,1811.23,30.20,26.60,86.28,10.00,6.00,0.00,29.76,M,3.00,15.00,BKN,BKN,OVC,M,600.00,1000.00,2200.00,M,BR,M,M,M,M,M,M,23.36,K05U 080455Z AUTO 01006G15KT 3SM BR BKN006 BKN010 OVC022 M01/M03 A2976 RMK A01,M
MEV,2022-11-08 04:55,-119.7500,38.9963,1441.42,33.80,19.40,55.14,160.00,17.00,0.00,29.76,M,10.00,25.00,FEW,BKN,OVC,M,5000.00,6500.00,7500.00,M,M,M,M,M,M,M,M,22.43,KMEV 080455Z AUTO 16017G25KT 10SM FEW050 BKN065 OVC075 01/M07 A2976 RMK AO2,M
TMT,2022-11-08 04:55,-117.1971,39.4643,1749.34,27.00,26.40,97.55,0.00,0.00,0.00,29.79,M,10.00,M,OVC,M,M,M,3500.00,M,M,M,M,M,M,M,M,M,M,27.00,KTMT 080455Z AUTO 00000KT 10SM OVC035 M03/M03 A2979 RMK AO2 LTG DSNT S T10281031,M
INS,2022-11-08 04:55,-115.6733,36.5872,955.00,61.20,38.00,41.94,310.00,8.00,0.00,29.78,1005.70,10.00,M,SCT,OVC,M,M,8500.00,20000.00,M,M,M,M,M,M,M,M,M,61.20,KINS 080455Z AUTO 31008KT 10SM SCT085 OVC200 16/03 A2978 RMK AO2 SLP057 T01620033 $,M
WMC,2022-11-08 04:56,-117.8072,40.9019,1315.00,34.00,28.00,78.43,180.00,8.00,T,29.76,1008.30,10.00,M,BKN,OVC,M,M,6000.00,7500.00,M,M,M,M,M,M,M,M,M,26.58,KWMC 080456Z AUTO 18008KT 10SM BKN060 OVC075 01/M02 A2976 RMK AO2 SNE0359 SLP083 P0000 T00111022,M
NFL,2022-11-08 04:56,-118.7010,39.4166,1199.00,40.00,27.00,59.65,120.00,8.00,T,29.74,1005.10,10.00,M,SCT,OVC,M,M,5000.00,8000.00,M,M,M,M,M,M,M,M,M,33.84,KNFL 080456Z 12008KT 10SM SCT050 OVC080 04/M03 A2974 RMK AO2 SNE48 SLP051 SH VC NW-NE-SE P0000 T00441028,M
HND,2022-11-08 04:56,-115.1344,35.9729,742.79,64.00,42.00,44.74,170.00,12.00,0.00,29.84,1010.60,10.00,M,BKN,M,M,M,6500.00,M,M,M,M,M,M,M,M,M,M,64.00,KHND 080456Z AUTO 17012KT 10SM BKN065 18/06 A2984 RMK AO2 SLP106 T01780056,M
EKO,2022-11-08 04:56,-115.7860,40.8242,1367.00,30.00,28.00,92.15,60.00,6.00,0.07,29.78,1009.80,0.50,M,VV ,M,M,M,500.00,M,M,M,SN FZFG,M,M,M,M,M,M,23.12,KEKO 080456Z AUTO 06006KT 1/2SM SN FZFG VV005 M01/M02 A2978 RMK AO2 SLP098 P0007 T10111022,M
LAS,2022-11-08 04:56,-115.1634,36.0719,663.00,65.00,42.00,43.36,190.00,4.00,0.00,29.81,1008.00,10.00,M,SCT,BKN,BKN,M,7500.00,15000.00,22000.00,M,M,M,M,M,M,M,M,64.90,KLAS 080456Z 19004KT 10SM SCT075 BKN150 BKN220 18/06 A2981 RMK AO2 SLP080 T01830056,M
TPH,2022-11-08 04:56,-117.0904,38.0505,1654.00,46.00,36.00,67.90,180.00,19.00,0.00,29.70,1003.30,10.00,M,CLR,M,M,M,M,M,M,M,M,M,M,M,30.00,180.00,2022-11-08 04:33,37.95,KTPH 080456Z AUTO 18019KT 10SM CLR 08/02 A2970 RMK AO2 PK WND 18030/0433 SLP033 T00780022,M
CXP,2022-11-08 05:15,-119.7326,39.1923,1431.00,35.60,17.60,47.51,200.00,9.00,0.00,29.77,M,10.00,16.00,BKN,BKN,OVC,M,3600.00,4400.00,5500.00,M,M,M,M,M,M,M,M,27.99,KCXP 080515Z AUTO 20009G16KT 10SM BKN036 BKN044 OVC055 02/M08 A2977 RMK AO2,M
BVU,2022-11-08 05:15,-114.8611,35.9475,671.00,64.40,42.80,45.32,190.00,17.00,0.00,29.83,M,10.00,M,SCT,M,M,M,7000.00,M,M,M,M,M,M,M,M,M,M,64.40,KBVU 080515Z AUTO 19017KT 10SM SCT070 18/06 A2983 RMK AO2,M
TMT,2022-11-08 05:15,-117.1971,39.4643,1749.34,27.10,26.60,97.96,0.00,0.00,0.00,29.78,M,2.00,M,BKN,BKN,OVC,M,1000.00,1600.00,3700.00,M,-SN,M,M,M,M,M,M,27.10,KTMT 080515Z AUTO 00000KT 2SM -SN BKN010 BKN016 OVC037 M03/M03 A2978 RMK AO2 T10271030,M
BAM,2022-11-08 05:15,-116.8743,40.5990,1382.36,32.00,32.00,100.00,0.00,0.00,0.00,29.81,M,10.00,M,SCT,BKN,OVC,M,4200.00,6000.00,7000.00,M,M,M,M,M,M,M,M,32.00,KBAM 080515Z AUTO 00000KT 10SM SCT042 BKN060 OVC070 00/00 A2981 RMK AO1,M
MEV,2022-11-08 05:15,-119.7500,38.9963,1441.42,33.80,19.40,55.14,160.00,20.00,0.00,29.76,M,10.00,M,OVC,M,M,M,6000.00,M,M,M,M,M,M,M,M,M,M,21.53,KMEV 080515Z AUTO 16020KT 10SM OVC060 01/M07 A2976 RMK AO2,M
05U,2022-11-08 05:15,-116.0051,39.6042,1811.23,30.20,26.60,86.28,20.00,8.00,0.00,29.76,M,3.00,16.00,FEW,BKN,OVC,M,300.00,600.00,2200.00,M,BR,M,M,M,M,M,M,21.90,K05U 080515Z AUTO 02008G16KT 3SM BR FEW003 BKN006 OVC022 M01/M03 A2976 RMK A01,M
RTS,2022-11-08 05:15,-119.8764,39.6682,1539.00,33.80,19.40,55.14,180.00,8.00,0.00,29.74,M,10.00,M,BKN,OVC,M,M,9000.00,11000.00,M,M,M,M,M,M,M,M,M,26.33,KRTS 080515Z AUTO 18008KT 130V220 10SM BKN090 OVC110 01/M07 A2974 RMK AO2,M
CXP,2022-11-08 05:35,-119.7326,39.1923,1431.00,33.80,17.60,51.04,200.00,9.00,0.00,29.78,M,10.00,17.00,FEW,BKN,OVC,M,2800.00,3600.00,4900.00,M,M,M,M,M,M,M,M,25.75,KCXP 080535Z AUTO 20009G17KT 10SM FEW028 BKN036 OVC049 01/M08 A2978 RMK AO2,M
BVU,2022-11-08 05:35,-114.8611,35.9475,671.00,64.40,42.80,45.32,180.00,21.00,0.00,29.82,M,10.00,M,FEW,M,M,M,7000.00,M,M,M,M,M,M,M,M,M,M,64.40,KBVU 080535Z AUTO 18021KT 10SM FEW070 18/06 A2982 RMK AO2,M
EKO,2022-11-08 05:35,-115.7860,40.8242,1367.00,30.00,28.00,92.15,70.00,6.00,0.07,29.78,M,1.00,M,VV ,M,M,M,900.00,M,M,M,-SN BR,M,M,M,M,M,M,23.12,KEKO 080535Z AUTO 07006KT 1SM -SN BR VV009 M01/M02 A2978 RMK AO2 P0007 T10111022,M
RTS,2022-11-08 05:35,-119.8764,39.6682,1539.00,33.80,21.20,59.53,180.00,14.00,0.00,29.74,M,10.00,19.00,SCT,BKN,OVC,M,7000.00,9000.00,11000.00,M,M,M,M,M,M,M,M,23.48,KRTS 080535Z AUTO 18014G19KT 10SM SCT070 BKN090 OVC110 01/M06 A2974 RMK AO2,M
05U,2022-11-08 05:35,-116.0051,39.6042,1811.23,28.40,26.60,92.86,30.00,8.00,0.00,29.76,M,1.00,14.00,OVC,M,M,M,200.00,M,M,M,BR,M,M,M,M,M,M,19.68,K05U 080535Z AUTO 03008G14KT 1SM BR OVC002 M02/M03 A2976 RMK A01,M
MEV,2022-11-08 05:35,-119.7500,38.9963,1441.42,32.00,23.00,69.04,170.00,19.00,0.00,29.76,M,10.00,30.00,BKN,OVC,M,M,6000.00,7000.00,M,M,M,M,M,M,M,M,M,19.44,KMEV 080535Z AUTO 17019G30KT 10SM BKN060 OVC070 00/M05 A2976 RMK AO2,M
BAM,2022-11-08 05:35,-116.8743,40.5990,1382.36,32.00,32.00,100.00,110.00,3.00,0.00,29.80,M,3.00,M,SCT,BKN,OVC,M,2200.00,3900.00,5000.00,M,M,M,M,M,M,M,M,28.69,KBAM 080535Z AUTO 11003KT 3SM SCT022 BKN039 OVC050 00/00 A2980 RMK AO1,M
TMT,2022-11-08 05:35,-117.1971,39.4643,1749.34,27.00,26.40,97.55,0.00,0.00,0.00,29.79,M,2.50,M,SCT,BKN,OVC,M,900.00,2100.00,3800.00,M,-SN,M,M,M,M,M,M,27.00,KTMT 080535Z AUTO 00000KT 2 1/2SM -SN SCT009 BKN021 OVC038 M03/M03 A2979 RMK AO2 T10281031,M
RNO,2022-11-08 05:46,-119.7711,39.4839,1341.00,36.00,26.10,66.97,200.00,12.00,T,29.75,M,7.00,M,SCT,BKN,OVC,M,4500.00,6500.00,10000.00,M,-SN,M,M,M,26.00,190.00,2022-11-08 05:30,27.09,KRNO 080546Z 20012KT 7SM -SN SCT045 BKN065 OVC100 02/M03 A2975 RMK AO2 PK WND 19026/0530 SNB40 P0000 T00221033,M
EKO,2022-11-08 05:52,-115.7860,40.8242,1367.00,30.20,28.40,92.92,60.00,5.00,0.08,29.78,M,1.00,M,VV ,M,M,M,1000.00,M,M,M,-SN BR,M,M,M,M,M,M,24.26,KEKO 080552Z AUTO 06005KT 1SM -SN BR VV010 M01/M02 A2978 RMK AO2 P0008,M
ELY,2022-11-08 05:53,-114.8453,39.2950,1909.00,46.00,28.90,51.03,180.00,17.00,0.00,29.71,1001.00,10.00,39.00,FEW,SCT,M,M,6000.00,8000.00,M,M,M,M,M,M,46.00,190.00,2022-11-08 05:13,38.42,KELY 080553Z AUTO 18017G39KT 10SM FEW060 SCT080 08/M02 A2971 RMK AO2 PK WND 19046/0513 SLP010 60000 T00781017 10089 20067 55001,M
LOL,2022-11-08 05:53,-118.5701,40.0684,1192.43,36.00,26.10,66.97,0.00,0.00,0.00,29.76,1008.40,10.00,M,FEW,BKN,M,M,8000.00,11000.00,M,M,M,M,M,M,M,M,M,36.00,KLOL 080553Z AUTO 00000KT 10SM FEW080 BKN110 02/M03 A2976 RMK AO2 SLP084 T00221033 10067 20017 53002,M
DRA,2022-11-08 05:53,-116.0278,36.6206,1009.00,57.00,43.00,59.40,190.00,14.00,0.00,29.81,1006.60,10.00,24.00,BKN,OVC,M,M,3500.00,6500.00,M,M,M,M,M,M,26.00,200.00,2022-11-08 05:43,57.00,KDRA 080553Z AUTO 19014G24KT 10SM BKN035 OVC065 14/06 A2981 RMK AO2 PK WND 20026/0543 SLP066 T01390061 10161 20139 53006,M
P68,2022-11-08 05:53,-116.0056,39.6014,1993.00,28.00,26.10,92.46,10.00,8.00,0.02,29.74,1005.00,M,M,M,M,M,M,M,M,M,M,M,M,M,M,M,M,M,19.19,KP68 080553Z AUTO 01008KT M02/M03 A2974 RMK AO1 SLP050 P0002 60003 T10221033 10000 21022 53008,M
LSV,2022-11-08 05:55,-115.0343,36.2362,570.00,66.00,43.50,44.03,170.00,16.00,0.00,29.79,1007.30,10.00,M,OVC,M,M,M,6500.00,M,M,M,M,M,M,M,M,M,M,66.00,KLSV 080555Z AUTO 17016KT 10SM OVC065 19/06 A2979 RMK AO2 SLP073 T01890064 10222 20189 53005 $,M
BVU,2022-11-08 05:55,-114.8611,35.9475,671.00,64.40,42.80,45.32,190.00,22.00,0.00,29.82,M,10.00,28.00,CLR,M,M,M,M,M,M,M,M,M,M,M,M,M,M,64.40,KBVU 080555Z AUTO 19022G28KT 10SM CLR 18/06 A2982 RMK AO2,M
CXP,2022-11-08 05:55,-119.7326,39.1923,1431.00,33.80,19.40,55.14,180.00,6.00,0.00,29.78,M,10.00,14.00,FEW,OVC,M,M,3700.00,5000.00,M,M,M,M,M,M,M,M,M,27.70,KCXP 080555Z AUTO 18006G14KT 10SM FEW037 OVC050 01/M07 A2978 RMK AO2,M
RTS,2022-11-08 05:55,-119.8764,39.6682,1539.00,33.80,23.00,64.23,210.00,10.00,0.00,29.75,M,10.00,17.00,SCT,BKN,OVC,M,4800.00,6000.00,8000.00,M,M,M,M,M,M,M,M,25.23,KRTS 080555Z AUTO 21010G17KT 10SM SCT048 BKN060 OVC080 01/M05 A2975 RMK AO2,M
05U,2022-11-08 05:55,-116.0051,39.6042,1811.23,28.40,26.60,92.86,10.00,7.00,0.00,29.77,M,1.75,M,OVC,M,M,M,200.00,M,M,M,BR,M,M,M,M,M,M,20.39,K05U 080555Z AUTO 01007KT 1 3/4SM BR OVC002 M02/M03 A2977 RMK A01,M
MEV,2022-11-08 05:55,-119.7500,38.9963,1441.42,32.00,24.80,74.44,180.00,19.00,0.00,29.76,M,10.00,26.00,FEW,BKN,OVC,M,3800.00,6000.00,8000.00,M,M,M,M,M,M,M,M,19.44,KMEV 080555Z AUTO 18019G26KT 10SM FEW038 BKN060 OVC080 M00/M04 A2976 RMK AO2,M
BAM,2022-11-08 05:55,-116.8743,40.5990,1382.36,32.00,32.00,100.00,0.00,0.00,0.00,29.80,M,7.00,M,SCT,BKN,OVC,M,1400.00,2900.00,4100.00,M,M,M,M,M,M,M,M,32.00,KBAM 080555Z AUTO 00000KT 7SM SCT014 BKN029 OVC041 00/00 A2980 RMK AO1,M
TMT,2022-11-08 05:55,-117.1971,39.4643,1749.34,27.30,26.60,97.15,0.00,0.00,0.02,29.80,M,1.25,M,OVC,M,M,M,1200.00,M,M,M,-SN,M,M,M,M,M,M,27.30,KTMT 080555Z AUTO 00000KT 1 1/4SM -SN OVC012 M03/M03 A2980 RMK AO2 P0002 60010 T10261030 11008 21028,M
RNO,2022-11-08 05:55,-119.7711,39.4839,1341.00,35.00,27.00,72.04,200.00,14.00,T,29.75,1007.00,8.00,M,BKN,OVC,M,M,3500.00,6000.00,M,M,-SN,M,M,M,26.00,190.00,2022-11-08 05:30,25.16,KRNO 080555Z 20014KT 8SM -SN BKN035 OVC060 02/M03 A2975 RMK AO2 PK WND 19026/0530 SNB40 SLP070 P0000 60000 T00171028 10072 20017 53014,M
INS,2022-11-08 05:55,-115.6733,36.5872,955.00,58.60,38.50,47.10,60.00,4.00,0.00,29.79,1006.00,10.00,M,OVC,M,M,M,19000.00,M,M,M,M,M,M,M,M,M,M,58.60,KINS 080555Z AUTO 06004KT 10SM OVC190 15/04 A2979 RMK AO2 SLP060 T01480036 10186 20148 52008 $,M
TPH,2022-11-08 05:56,-117.0904,38.0505,1654.00,45.00,35.00,68.05,180.00,15.00,0.00,29.72,1004.00,10.00,M,CLR,M,M,M,M,M,M,M,M,M,M,M,M,M,M,37.63,KTPH 080556Z AUTO 18015KT 10SM CLR 07/02 A2972 RMK AO2 SLP040 T00720017 10117 20067 53009,M
HND,2022-11-08 05:56,-115.1344,35.9729,742.79,63.00,42.00,46.34,200.00,13.00,0.00,29.84,1010.70,10.00,M,BKN,OVC,M,M,6000.00,7500.00,M,M,M,M,M,M,M,M,M,63.00,KHND 080556Z AUTO 20013KT 10SM BKN060 OVC075 17/06 A2984 RMK AO2 SLP107 T01720056 10206 20172 53004,M
EKO,2022-11-08 05:56,-115.7860,40.8242,1367.00,30.00,28.00,92.15,60.00,7.00,0.08,29.77,1009.40,1.00,M,VV ,M,M,M,1000.00,M,M,M,-SN BR,M,M,M,M,M,M,22.34,KEKO 080556Z AUTO 06007KT 1SM -SN BR VV010 M01/M02 A2977 RMK AO2 SLP094 P0008 60031 T10111022 10006 21011 50005,M
LAS,2022-11-08 05:56,-115.1634,36.0719,663.00,65.00,42.00,43.36,200.00,10.00,0.00,29.82,1008.40,10.00,16.00,FEW,BKN,BKN,M,7000.00,15000.00,22000.00,M,M,M,M,M,M,M,M,64.90,KLAS 080556Z 20010G16KT 10SM FEW070 BKN150 BKN220 18/06 A2982 RMK AO2 SLP084 T01830056 10211 20183 53007,M
NFL,2022-11-08 05:56,-118.7010,39.4166,1199.00,39.00,27.00,61.78,110.00,6.00,0.00,29.75,1005.40,10.00,M,SCT,BKN,M,M,6000.00,10000.00,M,M,M,M,M,M,M,M,M,33.96,KNFL 080556Z 11006KT 10SM SCT060 BKN100 04/M03 A2975 RMK AO2 SLP054 60000 T00391028 10078 20039 53000,M
WMC,2022-11-08 05:56,-117.8072,40.9019,1315.00,33.00,28.90,84.36,130.00,7.00,0.00,29.76,1008.00,10.00,M,OVC,M,M,M,9000.00,M,M,M,M,M,M,M,M,M,M,26.12,KWMC 080556Z AUTO 13007KT 10SM OVC090 01/M02 A2976 RMK AO2 SLP080 60000 T00061017 10044 20000 58002,M
RNO,2022-11-08 06:05,-119.7711,39.4839,1341.00,35.00,26.10,69.41,190.00,10.00,T,29.75,M,9.00,M,BKN,OVC,M,M,3500.00,6000.00,M,M,M,M,M,M,M,M,M,26.86,KRNO 080605Z 19010KT 9SM BKN035 OVC060 02/M03 A2975 RMK AO2 SNE01 P0000 T00171033,M
RNO,2022-11-08 06:10,-119.7711,39.4839,1341.00,36.00,26.10,66.97,210.00,9.00,T,29.76,M,9.00,M,BKN,OVC,M,M,3500.00,6500.00,M,M,-SN,M,M,M,M,M,M,28.49,KRNO 080610Z 21009KT 9SM -SN BKN035 OVC065 02/M03 A2976 RMK AO2 SNE01B06 P0000 T00221033,M
RTS,2022-11-08 06:15,-119.8764,39.6682,1539.00,30.20,26.60,86.28,M,5.00,0.00,29.75,M,5.00,18.00,SCT,SCT,BKN,M,300.00,1700.00,5500.00,M,-SN,M,M,M,M,M,M,24.26,KRTS 080615Z AUTO VRB05G18KT 5SM -SN SCT003 SCT017 BKN055 M01/M03 A2975 RMK AO2,M
BAM,2022-11-08 06:15,-116.8743,40.5990,1382.36,32.00,32.00,100.00,0.00,0.00,0.00,29.80,M,1.25,M,BKN,OVC,M,M,800.00,1300.00,M,M,M,M,M,M,M,M,M,32.00,KBAM 080615Z AUTO 00000KT 1 1/4SM BKN008 OVC013 00/00 A2980 RMK AO1,M
MEV,2022-11-08 06:15,-119.7500,38.9963,1441.42,32.00,23.00,69.04,160.00,18.00,0.00,29.76,M,10.00,23.00,FEW,SCT,BKN,M,3800.00,4900.00,6000.00,M,M,M,M,M,M,M,M,19.75,KMEV 080615Z AUTO 16018G23KT 10SM FEW038 SCT049 BKN060 M00/M05 A2976 RMK AO2,M
BVU,2022-11-08 06:15,-114.8611,35.9475,671.00,62.60,42.80,48.28,180.00,18.00,0.00,29.83,M,10.00,M,FEW,M,M,M,6500.00,M,M,M,M,M,M,M,M,M,M,62.60,KBVU 080615Z AUTO 18018KT 10SM FEW065 17/06 A2983 RMK AO2,M
CXP,2022-11-08 06:15,-119.7326,39.1923,1431.00,33.80,21.20,59.53,200.00,8.00,0.00,29.78,M,10.00,M,FEW,SCT,SCT,M,3600.00,4800.00,5500.00,M,M,M,M,M,M,M,M,26.33,KCXP 080615Z AUTO 20008KT 10SM FEW036 SCT048 SCT055 01/M06 A2978 RMK AO2,M
05U,2022-11-08 06:15,-116.0051,39.6042,1811.23,28.40,26.60,92.86,0.00,0.00,0.00,29.78,M,2.50,10.00,BKN,BKN,OVC,M,200.00,500.00,2600.00,M,BR,M,M,M,M,M,M,28.40,K05U 080615Z AUTO 00000G10KT 2 1/2SM BR BKN002 BKN005 OVC026 M02/M03 A2978 RMK A01,M
TMT,2022-11-08 06:15,-117.1971,39.4643,1749.34,27.30,26.60,97.15,0.00,0.00,0.00,29.79,M,1.00,M,OVC,M,M,M,1000.00,M,M,M,SN,M,M,M,M,M,M,27.30,KTMT 080615Z AUTO 00000KT 1SM SN OVC010 M03/M03 A2979 RMK AO2 T10261030,M
05U,2022-11-08 06:30,-116.0051,39.6042,1811.23,28.40,26.60,92.86,10.00,5.00,0.00,29.78,M,3.00,11.00,SCT,BKN,OVC,M,300.00,1200.00,2300.00,M,BR,M,M,M,M,M,M,22.12,K05U 080630Z AUTO 01005G11KT 3SM BR SCT003 BKN012 OVC023 M02/M03 A2978 RMK A01,M
BAM,2022-11-08 06:35,-116.8743,40.5990,1382.36,32.00,32.00,100.00,110.00,3.00,0.00,29.80,M,2.00,M,SCT,OVC,M,M,800.00,1300.00,M,M,M,M,M,M,M,M,M,28.69,KBAM 080635Z AUTO 11003KT 2SM SCT008 OVC013 00/00 A2980 RMK AO1,M
BVU,2022-11-08 06:35,-114.8611,35.9475,671.00,62.60,42.80,48.28,180.00,15.00,0.00,29.83,M,10.00,22.00,FEW,M,M,M,7000.00,M,M,M,M,M,M,M,M,M,M,62.60,KBVU 080635Z AUTO 18015G22KT 10SM FEW070 17/06 A2983 RMK AO2,M
CXP,2022-11-08 06:35,-119.7326,39.1923,1431.00,32.00,23.00,69.04,200.00,11.00,0.00,29.78,M,10.00,M,FEW,SCT,BKN,M,2400.00,3500.00,5500.00,M,M,M,M,M,M,M,M,22.47,KCXP 080635Z AUTO 20011KT 10SM FEW024 SCT035 BKN055 00/M05 A2978 RMK AO2,M
RTS,2022-11-08 06:35,-119.8764,39.6682,1539.00,33.80,23.00,64.23,210.00,13.00,0.00,29.76,M,10.00,M,FEW,SCT,BKN,M,300.00,5500.00,6500.00,M,M,M,M,M,M,M,M,23.87,KRTS 080635Z AUTO 21013KT 10SM FEW003 SCT055 BKN065 01/M05 A2976 RMK AO2,M
MEV,2022-11-08 06:35,-119.7500,38.9963,1441.42,30.20,21.20,68.83,140.00,14.00,0.00,29.76,M,10.00,M,FEW,BKN,BKN,M,4400.00,5000.00,6500.00,M,M,M,M,M,M,M,M,18.84,KMEV 080635Z AUTO 14014KT 10SM FEW044 BKN050 BKN065 M01/M06 A2976 RMK AO2,M
TMT,2022-11-08 06:35,-117.1971,39.4643,1749.34,27.30,26.60,97.15,0.00,0.00,0.02,29.80,M,0.75,M,OVC,M,M,M,800.00,M,M,M,SN,M,M,M,M,M,M,27.30,KTMT 080635Z AUTO 00000KT 3/4SM SN OVC008 M03/M03 A2980 RMK AO2 P0002 T10261030,M
EKO,2022-11-08 06:37,-115.7860,40.8242,1367.00,30.00,28.00,92.15,360.00,4.00,0.04,29.79,M,0.50,M,VV ,M,M,M,1000.00,M,M,M,SN FZFG,M,M,M,M,M,M,25.08,KEKO 080637Z AUTO 36004KT 1/2SM SN FZFG VV010 M01/M02 A2979 RMK AO2 P0004 T10111022,M
EKO,2022-11-08 06:44,-115.7860,40.8242,1367.00,30.00,27.00,88.44,0.00,0.00,0.05,29.79,M,0.50,M,VV ,M,M,M,700.00,M,M,M,SN FZFG,M,M,M,M,M,M,30.00,KEKO 080644Z AUTO 00000KT 1/2SM SN FZFG VV007 M01/M03 A2979 RMK AO2 P0005 T10111028,M
ELY,2022-11-08 06:53,-114.8453,39.2950,1909.00,44.00,34.00,67.41,180.00,18.00,0.00,29.72,1001.40,10.00,28.00,SCT,BKN,M,M,7000.00,8000.00,M,M,M,M,M,M,39.00,190.00,2022-11-08 06:29,35.68,KELY 080653Z AUTO 18018G28KT 10SM SCT070 BKN080 07/01 A2972 RMK AO2 PK WND 19039/0629 SLP014 T00670011 401060067,M
LOL,2022-11-08 06:53,-118.5701,40.0684,1192.43,28.00,21.00,74.67,130.00,7.00,0.00,29.76,1008.90,10.00,M,CLR,M,M,M,M,M,M,M,M,M,M,M,M,M,M,19.90,KLOL 080653Z AUTO 13007KT 10SM CLR M02/M06 A2976 RMK AO2 SLP089 T10221061,M
P68,2022-11-08 06:53,-116.0056,39.6014,1993.00,28.00,26.10,92.46,40.00,6.00,0.01,29.76,1005.40,M,M,M,M,M,M,M,M,M,M,M,M,M,M,M,M,M,20.71,KP68 080653Z AUTO 04006KT M02/M03 A2976 RMK AO1 SLP054 P0001 T10221033,M
DRA,2022-11-08 06:53,-116.0278,36.6206,1009.00,55.00,42.00,61.69,190.00,20.00,0.00,29.81,1006.50,10.00,35.00,SCT,BKN,BKN,M,3600.00,4900.00,6000.00,M,M,M,M,M,35.00,190.00,2022-11-08 06:47,55.00,KDRA 080653Z AUTO 19020G35KT 10SM SCT036 BKN049 BKN060 13/06 A2981 RMK AO2 PK WND 19035/0647 SLP065 T01280056,M
05U,2022-11-08 06:55,-116.0051,39.6042,1811.23,28.40,26.60,92.86,60.00,4.00,0.00,29.79,M,3.00,M,FEW,SCT,BKN,M,200.00,800.00,1400.00,M,BR,M,M,M,M,M,M,23.22,K05U 080655Z AUTO 06004KT 3SM BR FEW002 SCT008 BKN014 M02/M03 A2979 RMK A01,M
INS,2022-11-08 06:55,-115.6733,36.5872,955.00,60.80,30.70,31.92,150.00,16.00,0.00,29.77,1005.10,10.00,19.00,CLR,M,M,M,M,M,M,M,M,M,M,M,M,M,M,60.80,KINS 080655Z AUTO 15016G19KT 10SM CLR 16/M01 A2977 RMK AO2 SLP051 T01601007 $,M
BVU,2022-11-08 06:55,-114.8611,35.9475,671.00,62.60,42.80,48.28,180.00,15.00,0.00,29.84,M,10.00,22.00,BKN,BKN,M,M,6500.00,7500.00,M,M,M,M,M,M,M,M,M,62.60,KBVU 080655Z AUTO 18015G22KT 10SM BKN065 BKN075 17/06 A2984 RMK AO2,M
CXP,2022-11-08 06:55,-119.7326,39.1923,1431.00,32.00,23.00,69.04,200.00,6.00,0.00,29.78,M,10.00,12.00,FEW,FEW,SCT,M,2500.00,3600.00,5000.00,M,M,M,M,M,M,M,M,25.53,KCXP 080655Z AUTO 20006G12KT 10SM FEW025 FEW036 SCT050 00/M05 A2978 RMK AO2,M
RNO,2022-11-08 06:55,-119.7711,39.4839,1341.00,35.00,24.10,63.86,0.00,0.00,T,29.75,1006.60,9.00,M,SCT,BKN,M,M,4000.00,6500.00,M,M,-SN,M,M,M,M,M,M,35.10,KRNO 080655Z 00000KT 9SM -SN SCT040 BKN065 02/M04 A2975 RMK AO2 SNE01B06 SLP066 P0000 T00171044,M
RTS,2022-11-08 06:55,-119.8764,39.6682,1539.00,30.20,26.60,86.28,220.00,6.00,0.00,29.75,M,4.00,M,SCT,BKN,OVC,M,300.00,3400.00,6000.00,M,-SN,M,M,M,M,M,M,23.36,KRTS 080655Z AUTO 22006KT 4SM -SN SCT003 BKN034 OVC060 M01/M03 A2975 RMK AO2,M
MEV,2022-11-08 06:55,-119.7500,38.9963,1441.42,33.80,23.00,64.23,180.00,12.00,0.00,29.77,M,10.00,20.00,FEW,SCT,BKN,M,4900.00,5500.00,10000.00,M,M,M,M,M,M,M,M,24.29,KMEV 080655Z AUTO 18012G20KT 10SM FEW049 SCT055 BKN100 01/M05 A2977 RMK AO2,M
BAM,2022-11-08 06:55,-116.8743,40.5990,1382.36,32.00,32.00,100.00,0.00,0.00,0.00,29.81,M,2.00,M,SCT,OVC,M,M,1000.00,1400.00,M,M,M,M,M,M,M,M,M,32.00,KBAM 080655Z AUTO 00000KT 2SM SCT010 OVC014 00/00 A2981 RMK AO1,M
TMT,2022-11-08 06:55,-117.1971,39.4643,1749.34,27.30,26.60,97.15,180.00,3.00,0.04,29.81,M,0.75,M,OVC,M,M,M,800.00,M,M,M,SN,M,M,M,M,M,M,23.32,KTMT 080655Z AUTO 18003KT 3/4SM SN OVC008 M03/M03 A2981 RMK AO2 P0004 T10261030,M
LSV,2022-11-08 06:55,-115.0343,36.2362,570.00,65.00,44.00,46.13,190.00,9.00,0.00,29.80,1007.50,10.00,M,BKN,M,M,M,6000.00,M,M,M,M,M,M,M,M,M,M,65.10,KLSV 080655Z AUTO 19009KT 10SM BKN060 18/07 A2980 RMK AO2 SLP075 T01840066 $,M
LAS,2022-11-08 06:56,-115.1634,36.0719,663.00,63.00,42.00,46.34,190.00,4.00,0.00,29.84,1008.80,10.00,M,FEW,SCT,BKN,M,7000.00,15000.00,22000.00,M,M,M,M,M,M,M,M,63.00,KLAS 080656Z 19004KT 10SM FEW070 SCT150 BKN220 17/06 A2984 RMK AO2 SLP088 T01720056,M
EKO,2022-11-08 06:56,-115.7860,40.8242,1367.00,30.00,28.00,92.15,50.00,3.00,0.07,29.80,1010.20,0.50,M,VV ,M,M,M,500.00,M,M,M,SN FZFG,M,M,M,M,M,M,26.40,KEKO 080656Z AUTO 05003KT 1/2SM SN FZFG VV005 M01/M02 A2980 RMK AO2 SLP102 P0007 T10111022,M
NFL,2022-11-08 06:56,-118.7010,39.4166,1199.00,38.00,23.00,54.60,M,4.00,0.00,29.77,1005.90,10.00,M,FEW,SCT,M,M,7000.00,10000.00,M,M,M,M,M,M,M,M,M,34.31,KNFL 080656Z VRB04KT 10SM FEW070 SCT100 03/M05 A2977 RMK AO2 SLP059 T00331050,M
WMC,2022-11-08 06:56,-117.8072,40.9019,1315.00,33.00,28.90,84.36,130.00,9.00,0.00,29.77,1008.20,10.00,M,OVC,M,M,M,7500.00,M,M,M,M,M,M,M,M,M,M,24.88,KWMC 080656Z AUTO 13009KT 10SM OVC075 01/M02 A2977 RMK AO2 SLP082 T00061017,M
HND,2022-11-08 06:56,-115.1344,35.9729,742.79,62.00,43.00,49.52,190.00,13.00,0.00,29.85,1011.10,10.00,M,BKN,OVC,M,M,5000.00,6500.00,M,M,M,M,M,M,M,M,M,62.10,KHND 080656Z AUTO 19013KT 10SM BKN050 OVC065 17/06 A2985 RMK AO2 SLP111 T01670061 402220139,M
TPH,2022-11-08 06:56,-117.0904,38.0505,1654.00,43.00,34.00,70.30,180.00,17.00,0.00,29.73,1004.00,10.00,M,CLR,M,M,M,M,M,M,M,M,M,M,M,M,M,M,34.49,KTPH 080656Z AUTO 18017KT 10SM CLR 06/01 A2973 RMK AO2 SLP040 T00610011,M
EKO,2022-11-08 07:09,-115.7860,40.8242,1367.00,30.00,28.00,92.15,60.00,7.00,0.02,29.80,M,0.50,M,VV ,M,M,M,400.00,M,M,M,SN FZFG,M,M,M,M,M,M,22.34,KEKO 080709Z AUTO 06007KT 1/2SM SN FZFG VV004 M01/M02 A2980 RMK AO2 P0002 T10111022,M
BAM,2022-11-08 07:15,-116.8743,40.5990,1382.36,32.00,32.00,100.00,80.00,4.00,0.00,29.82,M,4.00,M,SCT,OVC,M,M,1400.00,3300.00,M,M,M,M,M,M,M,M,M,27.42,KBAM 080715Z AUTO 08004KT 4SM SCT014 OVC033 00/00 A2982 RMK AO1,M
RTS,2022-11-08 07:15,-119.8764,39.6682,1539.00,30.20,24.80,80.07,40.00,4.00,0.00,29.76,M,10.00,M,FEW,SCT,BKN,M,300.00,3400.00,4000.00,M,M,M,M,M,M,M,M,25.32,KRTS 080715Z AUTO 04004KT 10SM FEW003 SCT034 BKN040 M01/M04 A2976 RMK AO2,M
05U,2022-11-08 07:15,-116.0051,39.6042,1811.23,28.40,26.60,92.86,20.00,5.00,0.00,29.80,M,2.00,M,BKN,OVC,M,M,200.00,1500.00,M,M,BR,M,M,M,M,M,M,22.12,K05U 080715Z AUTO 02005KT 2SM BR BKN002 OVC015 M02/M03 A2980 RMK A01,M
MEV,2022-11-08 07:15,-119.7500,38.9963,1441.42,32.00,23.00,69.04,200.00,12.00,0.00,29.77,M,10.00,M,FEW,FEW,FEW,M,4000.00,4800.00,5500.00,M,M,M,M,M,M,M,M,22.00,KMEV 080715Z AUTO 20012KT 10SM FEW040 FEW048 FEW055 00/M05 A2977 RMK AO2,M
TMT,2022-11-08 07:15,-117.1971,39.4643,1749.34,27.30,26.60,97.15,0.00,0.00,0.01,29.81,M,0.75,M,OVC,M,M,M,600.00,M,M,M,SN,M,M,M,M,M,M,27.30,KTMT 080715Z AUTO 00000KT 3/4SM SN OVC006 M03/M03 A2981 RMK AO2 P0001 T10261030,M
CXP,2022-11-08 07:15,-119.7326,39.1923,1431.00,32.00,23.00,69.04,200.00,6.00,0.00,29.78,M,10.00,M,FEW,FEW,SCT,M,4000.00,5000.00,9000.00,M,M,M,M,M,M,M,M,25.53,KCXP 080715Z AUTO 20006KT 10SM FEW040 FEW050 SCT090 M00/M05 A2978 RMK AO2,M
BVU,2022-11-08 07:15,-114.8611,35.9475,671.00,62.60,42.80,48.28,180.00,13.00,0.00,29.84,M,10.00,19.00,BKN,OVC,M,M,6000.00,7000.00,M,M,M,M,M,M,M,M,M,62.60,KBVU 080715Z AUTO 18013G19KT 10SM BKN060 OVC070 17/06 A2984 RMK AO2,M
EKO,2022-11-08 07:17,-115.7860,40.8242,1367.00,30.00,28.00,92.15,50.00,4.00,0.03,29.81,M,0.75,M,VV ,M,M,M,500.00,M,M,M,-SN BR,M,M,M,M,M,M,25.08,KEKO 080717Z AUTO 05004KT 3/4SM -SN BR VV005 M01/M02 A2981 RMK AO2 P0003 T10111022,M
RNO,2022-11-08 07:22,-119.7711,39.4839,1341.00,35.00,24.10,63.86,190.00,4.00,T,29.76,M,9.00,M,FEW,SCT,M,M,4000.00,6500.00,M,M,M,M,M,M,M,M,M,31.04,KRNO 080722Z 19004KT 9SM FEW040 SCT065 02/M04 A2976 RMK AO2 SNE22 P0000 T00171044,M
TMT,2022-11-08 07:35,-117.1971,39.4643,1749.34,27.30,26.60,97.15,220.00,3.00,0.02,29.81,M,0.75,M,OVC,M,M,M,900.00,M,M,M,SN,M,M,M,M,M,M,23.32,KTMT 080735Z AUTO 22003KT 3/4SM SN OVC009 M03/M03 A2981 RMK AO2 P0002 T10261030,M
05U,2022-11-08 07:35,-116.0051,39.6042,1811.23,28.40,26.60,92.86,20.00,6.00,0.00,29.81,M,1.25,M,OVC,M,M,M,200.00,M,M,M,BR,M,M,M,M,M,M,21.19,K05U 080735Z AUTO 02006KT 1 1/4SM BR OVC002 M02/M03 A2981 RMK A01,M
RTS,2022-11-08 07:35,-119.8764,39.6682,1539.00,30.20,24.80,80.07,340.00,5.00,0.00,29.76,M,10.00,M,FEW,M,M,M,4000.00,M,M,M,M,M,M,M,M,M,M,24.26,KRTS 080735Z AUTO 34005KT 10SM FEW040 M01/M04 A2976 RMK AO2,M
CXP,2022-11-08 07:35,-119.7326,39.1923,1431.00,32.00,23.00,69.04,M,6.00,0.00,29.78,M,10.00,M,CLR,M,M,M,M,M,M,M,M,M,M,M,M,M,M,25.53,KCXP 080735Z AUTO VRB06KT 10SM CLR M00/M05 A2978 RMK AO2,M
BVU,2022-11-08 07:35,-114.8611,35.9475,671.00,62.60,42.80,48.28,190.00,14.00,0.00,29.84,M,10.00,20.00,BKN,OVC,M,M,6000.00,7000.00,M,M,M,M,M,M,M,M,M,62.60,KBVU 080735Z AUTO 19014G20KT 10SM BKN060 OVC070 17/06 A2984 RMK AO2,M
MEV,2022-11-08 07:35,-119.7500,38.9963,1441.42,32.00,23.00,69.04,190.00,11.00,0.00,29.77,M,10.00,M,CLR,M,M,M,M,M,M,M,M,M,M,M,M,M,M,22.47,KMEV 080735Z AUTO 19011KT 10SM CLR 00/M05 A2977 RMK AO2,M
BAM,2022-11-08 07:35,-116.8743,40.5990,1382.36,32.00,32.00,100.00,80.00,3.00,0.00,29.82,M,2.00,M,BKN,BKN,OVC,M,300.00,2100.00,3000.00,M,M,M,M,M,M,M,M,28.69,KBAM 080735Z AUTO 08003KT 2SM BKN003 BKN021 OVC030 00/00 A2982 RMK AO1,M
ELY,2022-11-08 07:53,-114.8453,39.2950,1909.00,46.00,28.90,51.03,180.00,21.00,0.00,29.72,1001.20,10.00,36.00,SCT,BKN,M,M,7000.00,8500.00,M,M,M,M,M,M,36.00,200.00,2022-11-08 07:45,37.53,KELY 080753Z AUTO 18021G36KT 10SM SCT070 BKN085 08/M02 A2972 RMK AO2 PK WND 20036/0745 SLP012 T00781017,M
P68,2022-11-08 07:53,-116.0056,39.6014,1993.00,28.00,25.00,88.33,20.00,8.00,0.02,29.79,1008.40,M,M,M,M,M,M,M,M,M,M,M,M,M,M,M,M,M,19.19,KP68 080753Z AUTO 02008KT M02/M04 A2979 RMK AO1 SLP084 P0002 T10221039 401061022,M
LOL,2022-11-08 07:53,-118.5701,40.0684,1192.43,26.10,19.90,77.06,0.00,0.00,0.00,29.78,1009.30,10.00,M,CLR,M,M,M,M,M,M,M,M,M,M,M,M,M,M,26.10,KLOL 080753Z AUTO 00000KT 10SM CLR M03/M07 A2978 RMK AO2 SLP093 T10331067 401001039,M
DRA,2022-11-08 07:53,-116.0278,36.6206,1009.00,54.00,38.00,54.34,200.00,20.00,0.00,29.82,1006.90,10.00,28.00,BKN,OVC,M,M,3800.00,6000.00,M,M,M,M,M,M,32.00,190.00,2022-11-08 07:27,54.00,KDRA 080753Z AUTO 20020G28KT 10SM BKN038 OVC060 12/03 A2982 RMK AO2 PK WND 19032/0727 SLP069 T01220033 401830122,M
BAM,2022-11-08 07:55,-116.8743,40.5990,1382.36,32.00,32.00,100.00,70.00,4.00,0.00,29.82,M,1.50,M,BKN,BKN,OVC,M,700.00,1500.00,2600.00,M,M,M,M,M,M,M,M,27.42,KBAM 080755Z AUTO 07004KT 1 1/2SM BKN007 BKN015 OVC026 00/00 A2982 RMK AO1,M
CXP,2022-11-08 07:55,-119.7326,39.1923,1431.00,32.00,23.00,69.04,180.00,7.00,0.00,29.78,M,10.00,M,CLR,M,M,M,M,M,M,M,M,M,M,M,M,M,M,24.78,KCXP 080755Z AUTO 18007KT 10SM CLR 00/M05 A2978 RMK AO2,M
TMT,2022-11-08 07:55,-117.1971,39.4643,1749.34,27.30,26.60,97.15,0.00,0.00,0.03,29.81,M,1.00,M,OVC,M,M,M,900.00,M,M,M,SN,M,M,M,M,M,M,27.30,KTMT 080755Z AUTO 00000KT 1SM SN OVC009 M03/M03 A2981 RMK AO2 P0003 T10261030 400761028,M
BVU,2022-11-08 07:55,-114.8611,35.9475,671.00,62.60,42.80,48.28,190.00,13.00,0.00,29.85,M,10.00,M,BKN,OVC,M,M,6000.00,7000.00,M,M,M,M,M,M,M,M,M,62.60,KBVU 080755Z AUTO 19013KT 10SM BKN060 OVC070 17/06 A2985 RMK AO2,M
INS,2022-11-08 07:55,-115.6733,36.5872,955.00,60.00,31.50,34.04,130.00,5.00,0.00,29.78,1005.10,10.00,21.00,CLR,M,M,M,M,M,M,M,M,M,M,M,28.00,140.00,2022-11-08 07:03,59.90,KINS 080755Z AUTO 13005G21KT 10SM CLR 16/M00 A2978 RMK AO2 PK WND 14028/03 SLP051 T01551003 401990137 $,M
LSV,2022-11-08 07:55,-115.0343,36.2362,570.00,63.70,43.70,48.08,180.00,11.00,0.00,29.81,1007.80,10.00,M,OVC,M,M,M,5500.00,M,M,M,M,M,M,M,M,M,M,63.70,KLSV 080755Z AUTO 18011KT 10SM OVC055 18/07 A2981 RMK AO2 SLP078 T01760065 402380147 $,M
RTS,2022-11-08 07:55,-119.8764,39.6682,1539.00,30.20,24.80,80.07,10.00,8.00,0.00,29.76,M,10.00,M,SCT,M,M,M,3800.00,M,M,M,M,M,M,M,M,M,M,21.90,KRTS 080755Z AUTO 01008KT 10SM SCT038 M01/M04 A2976 RMK AO2,M
05U,2022-11-08 07:55,-116.0051,39.6042,1811.23,28.40,26.60,92.86,20.00,8.00,0.00,29.81,M,1.75,M,OVC,M,M,M,200.00,M,M,M,BR,M,M,M,M,M,M,19.68,K05U 080755Z AUTO 02008KT 1 3/4SM BR OVC002 M02/M03 A2981 RMK A01,M
MEV,2022-11-08 07:55,-119.7500,38.9963,1441.42,32.00,21.20,63.99,190.00,10.00,0.00,29.77,M,10.00,M,FEW,FEW,M,M,7000.00,12000.00,M,M,M,M,M,M,M,M,M,22.97,KMEV 080755Z AUTO 19010KT 10SM FEW070 FEW120 00/M06 A2977 RMK AO2,M
RNO,2022-11-08 07:55,-119.7711,39.4839,1341.00,34.00,26.10,72.52,180.00,11.00,T,29.76,1007.00,9.00,M,FEW,SCT,M,M,4000.00,6500.00,M,M,-SN,M,M,M,M,M,M,24.99,KRNO 080755Z 18011KT 9SM -SN FEW040 SCT065 01/M03 A2976 RMK AO2 SNE22B50 SLP070 P0000 T00111033 401000011,M
EKO,2022-11-08 07:56,-115.7860,40.8242,1367.00,28.90,28.00,96.38,10.00,3.00,0.08,29.82,1010.90,0.50,M,VV ,M,M,M,500.00,M,M,M,SN FZFG,M,M,M,M,M,M,25.14,KEKO 080756Z AUTO 01003KT 1/2SM SN FZFG VV005 M02/M02 A2982 RMK AO2 SLP109 P0008 T10171022 401001017,M
NFL,2022-11-08 07:56,-118.7010,39.4166,1199.00,37.00,19.90,49.61,110.00,7.00,0.00,29.77,1005.90,10.00,M,CLR,M,M,M,M,M,M,M,M,M,M,M,M,M,M,30.87,KNFL 080756Z AUTO 11007KT 10SM CLR 03/M07 A2977 RMK AO2 SLP059 T00281067 401220011,M
LAS,2022-11-08 07:56,-115.1634,36.0719,663.00,62.00,43.00,49.52,210.00,5.00,0.00,29.85,1009.10,10.00,M,FEW,SCT,BKN,M,5500.00,9000.00,22000.00,M,M,M,M,M,M,M,M,62.10,KLAS 080756Z 21005KT 10SM FEW055 SCT090 BKN220 17/06 A2985 RMK AO2 SLP091 T01670061 402280150,M
WMC,2022-11-08 07:56,-117.8072,40.9019,1315.00,33.00,28.00,81.30,140.00,6.00,0.00,29.78,1008.50,10.00,M,SCT,BKN,M,M,7500.00,9000.00,M,M,M,M,M,M,M,M,M,26.86,KWMC 080756Z AUTO 14006KT 10SM SCT075 BKN090 01/M02 A2978 RMK AO2 SLP085 T00061022 401110000,M
TPH,2022-11-08 07:56,-117.0904,38.0505,1654.00,43.00,32.00,64.88,190.00,17.00,0.00,29.74,1004.30,10.00,26.00,CLR,M,M,M,M,M,M,M,M,M,M,M,27.00,170.00,2022-11-08 07:03,34.49,KTPH 080756Z AUTO 19017G26KT 10SM CLR 06/00 A2974 RMK AO2 PK WND 17027/0703 SLP043 T00610000 401330056,M
HND,2022-11-08 07:56,-115.1344,35.9729,742.79,62.00,44.00,51.64,210.00,10.00,0.00,29.87,1011.40,10.00,M,BKN,OVC,M,M,5000.00,6500.00,M,M,M,M,M,M,M,M,M,62.10,KHND 080756Z AUTO 21010KT 10SM BKN050 OVC065 17/07 A2987 RMK AO2 SLP114 T01670067,M
EKO,2022-11-08 08:05,-115.7860,40.8242,1367.00,28.90,28.00,96.38,20.00,5.00,0.01,29.81,M,0.50,M,VV ,M,M,M,400.00,M,M,M,SN FZFG,M,M,M,M,M,M,22.71,KEKO 080805Z AUTO 02005KT 1/2SM SN FZFG VV004 M02/M02 A2981 RMK AO2 P0001 T10171022,M
MEV,2022-11-08 08:15,-119.7500,38.9963,1441.42,33.80,23.00,64.23,220.00,6.00,0.00,29.77,M,10.00,M,BKN,M,M,M,11000.00,M,M,M,M,M,M,M,M,M,M,27.70,KMEV 080815Z AUTO 22006KT 10SM BKN110 01/M05 A2977 RMK AO2,M
BVU,2022-11-08 08:15,-114.8611,35.9475,671.00,62.60,42.80,48.28,180.00,16.00,0.00,29.85,M,10.00,M,BKN,OVC,M,M,6000.00,7000.00,M,M,M,M,M,M,M,M,M,62.60,KBVU 080815Z AUTO 18016KT 10SM BKN060 OVC070 17/06 A2985 RMK AO2,M
BAM,2022-11-08 08:15,-116.8743,40.5990,1382.36,32.00,32.00,100.00,70.00,4.00,0.00,29.83,M,7.00,M,SCT,BKN,OVC,M,2500.00,7500.00,9000.00,M,M,M,M,M,M,M,M,27.42,KBAM 080815Z AUTO 07004KT 7SM SCT025 BKN075 OVC090 00/00 A2983 RMK AO1,M
RTS,2022-11-08 08:15,-119.8764,39.6682,1539.00,30.20,23.00,74.26,10.00,6.00,0.00,29.76,M,10.00,M,SCT,BKN,M,M,4000.00,4700.00,M,M,M,M,M,M,M,M,M,23.36,KRTS 080815Z AUTO 01006KT 10SM SCT040 BKN047 M01/M05 A2976 RMK AO2,M
TMT,2022-11-08 08:15,-117.1971,39.4643,1749.34,27.10,26.60,97.96,0.00,0.00,0.00,29.82,M,1.00,M,OVC,M,M,M,1000.00,M,M,M,SN,M,M,M,M,M,M,27.10,KTMT 080815Z AUTO 00000KT 1SM SN OVC010 M03/M03 A2982 RMK AO2 T10271030,M
CXP,2022-11-08 08:15,-119.7326,39.1923,1431.00,32.00,21.20,63.99,210.00,6.00,0.00,29.78,M,10.00,M,FEW,SCT,M,M,10000.00,12000.00,M,M,M,M,M,M,M,M,M,25.53,KCXP 080815Z AUTO 21006KT 10SM FEW100 SCT120 00/M06 A2978 RMK AO2,M
05U,2022-11-08 08:15,-116.0051,39.6042,1811.23,28.40,26.60,92.86,350.00,7.00,0.00,29.82,M,3.00,M,BKN,OVC,M,M,200.00,1700.00,M,M,BR,M,M,M,M,M,M,20.39,K05U 080815Z AUTO 35007KT 3SM BR BKN002 OVC017 M02/M03 A2982 RMK A01,M
EKO,2022-11-08 08:16,-115.7860,40.8242,1367.00,28.90,28.00,96.38,20.00,5.00,0.02,29.80,M,0.75,M,VV ,M,M,M,500.00,M,M,M,-SN BR,M,M,M,M,M,M,22.71,KEKO 080816Z AUTO 02005KT 3/4SM -SN BR VV005 M02/M02 A2980 RMK AO2 P0002 T10171022,M
RNO,2022-11-08 08:17,-119.7711,39.4839,1341.00,34.00,28.00,78.43,210.00,6.00,T,29.76,M,9.00,M,FEW,SCT,M,M,4000.00,6500.00,M,M,M,M,M,M,M,M,M,27.94,KRNO 080817Z 21006KT 9SM FEW040 SCT065 01/M02 A2976 RMK AO2 SNE17 P0000 T00111022,M
CXP,2022-11-08 08:35,-119.7326,39.1923,1431.00,32.00,21.20,63.99,210.00,3.00,0.00,29.78,M,10.00,M,BKN,M,M,M,11000.00,M,M,M,M,M,M,M,M,M,M,28.69,KCXP 080835Z AUTO 21003KT 10SM BKN110 M00/M06 A2978 RMK AO2,M
RTS,2022-11-08 08:35,-119.8764,39.6682,1539.00,28.40,23.00,79.92,350.00,5.00,0.00,29.76,M,10.00,M,FEW,SCT,BKN,M,4200.00,4700.00,7000.00,M,M,M,M,M,M,M,M,22.12,KRTS 080835Z AUTO 35005KT 10SM FEW042 SCT047 BKN070 M02/M05 A2976 RMK AO2,M
BAM,2022-11-08 08:35,-116.8743,40.5990,1382.36,32.00,32.00,100.00,60.00,3.00,0.00,29.83,M,10.00,M,SCT,SCT,OVC,M,6500.00,7500.00,9000.00,M,M,M,M,M,M,M,M,28.69,KBAM 080835Z AUTO 06003KT 10SM SCT065 SCT075 OVC090 00/00 A2983 RMK AO1,M
MEV,2022-11-08 08:35,-119.7500,38.9963,1441.42,32.00,21.20,63.99,180.00,4.00,0.00,29.76,M,10.00,M,BKN,BKN,M,M,9500.00,12000.00,M,M,M,M,M,M,M,M,M,27.42,KMEV 080835Z AUTO 18004KT 10SM BKN095 BKN120 00/M06 A2976 RMK AO2,M
05U,2022-11-08 08:35,-116.0051,39.6042,1811.23,28.40,26.60,92.86,350.00,6.00,0.00,29.83,M,4.00,M,OVC,M,M,M,1800.00,M,M,M,BR,M,M,M,M,M,M,21.19,K05U 080835Z AUTO 35006KT 4SM BR OVC018 M02/M03 A2983 RMK A01,M
BVU,2022-11-08 08:35,-114.8611,35.9475,671.00,62.60,42.80,48.28,180.00,16.00,0.00,29.85,M,10.00,23.00,SCT,OVC,M,M,6000.00,7000.00,M,M,M,M,M,M,M,M,M,62.60,KBVU 080835Z AUTO 18016G23KT 10SM SCT060 OVC070 17/06 A2985 RMK AO2,M
TMT,2022-11-08 08:35,-117.1971,39.4643,1749.34,27.00,26.40,97.55,0.00,0.00,0.01,29.82,M,2.00,M,BKN,OVC,M,M,1000.00,1900.00,M,M,-SN,M,M,M,M,M,M,27.00,KTMT 080835Z AUTO 00000KT 2SM -SN BKN010 OVC019 M03/M03 A2982 RMK AO2 P0001 T10281031,M
EKO,2022-11-08 08:43,-115.7860,40.8242,1367.00,30.00,28.00,92.15,0.00,0.00,0.05,29.81,M,1.00,M,VV ,M,M,M,1000.00,M,M,M,-SN BR,M,M,M,M,M,M,30.00,KEKO 080843Z AUTO 00000KT 1SM -SN BR VV010 M01/M02 A2981 RMK AO2 P0005 T10111022,M
CXP,2022-11-08 08:50,-119.7326,39.1923,1431.00,32.00,23.00,69.04,0.00,0.00,0.00,29.77,M,10.00,M,BKN,M,M,M,11000.00,M,M,M,M,M,M,M,M,M,M,32.00,KCXP 080850Z AUTO 00000KT 10SM BKN110 00/M05 A2977 RMK AO2,M
ELY,2022-11-08 08:53,-114.8453,39.2950,1909.00,42.00,35.00,76.04,180.00,19.00,T,29.73,1002.10,10.00,29.00,FEW,BKN,OVC,M,5000.00,6000.00,9000.00,M,M,M,M,M,41.00,190.00,2022-11-08 07:54,32.79,KELY 080853Z AUTO 18019G29KT 10SM FEW050 BKN060 OVC090 06/02 A2973 RMK AO2 PK WND 19041/0754 RAB30E46 SLP021 P0000 60000 T00560017 51006,M
P68,2022-11-08 08:53,-116.0056,39.6014,1993.00,27.00,25.00,92.05,330.00,6.00,0.01,29.81,1009.20,M,M,M,M,M,M,M,M,M,M,M,M,M,M,M,M,M,19.51,KP68 080853Z AUTO 33006KT M03/M04 A2981 RMK AO1 SLP092 P0001 60004 T10281039 53019,M
LOL,2022-11-08 08:53,-118.5701,40.0684,1192.43,24.10,18.00,77.21,10.00,4.00,0.00,29.78,1009.50,10.00,M,FEW,M,M,M,7500.00,M,M,M,M,M,M,M,M,M,M,18.19,KLOL 080853Z AUTO 01004KT 10SM FEW075 M04/M08 A2978 RMK AO2 SLP095 T10441078 53004,M
DRA,2022-11-08 08:53,-116.0278,36.6206,1009.00,52.00,33.00,48.34,200.00,23.00,0.00,29.82,1007.20,10.00,38.00,CLR,M,M,M,M,M,M,M,M,M,M,M,40.00,190.00,2022-11-08 08:42,52.00,KDRA 080853Z AUTO 20023G38KT 10SM CLR 11/01 A2982 RMK AO2 PK WND 19040/0842 SLP072 T01110006 53004,M
TMT,2022-11-08 08:55,-117.1971,39.4643,1749.34,26.60,26.20,98.36,0.00,0.00,0.01,29.81,M,2.50,M,SCT,BKN,OVC,M,700.00,2200.00,2900.00,M,-SN,M,M,M,M,M,M,26.60,KTMT 080855Z AUTO 00000KT 2 1/2SM -SN SCT007 BKN022 OVC029 M03/M03 A2981 RMK AO2 P0001 60008 T10301032,M
BAM,2022-11-08 08:55,-116.8743,40.5990,1382.36,32.00,32.00,100.00,60.00,4.00,0.00,29.81,M,10.00,M,SCT,OVC,M,M,8000.00,10000.00,M,M,M,M,M,M,M,M,M,27.42,KBAM 080855Z AUTO 06004KT 10SM SCT080 OVC100 00/00 A2981 RMK AO1,M
MEV,2022-11-08 08:55,-119.7500,38.9963,1441.42,30.20,21.20,68.83,140.00,10.00,0.00,29.75,M,10.00,M,SCT,OVC,M,M,9500.00,11000.00,M,M,M,M,M,M,M,M,M,20.71,KMEV 080855Z AUTO 14010KT 10SM SCT095 OVC110 M01/M06 A2975 RMK AO2,M
05U,2022-11-08 08:55,-116.0051,39.6042,1811.23,28.40,26.60,92.86,330.00,5.00,0.00,29.84,M,7.00,M,OVC,M,M,M,2000.00,M,M,M,M,M,M,M,M,M,M,22.12,K05U 080855Z AUTO 33005KT 7SM OVC020 M02/M03 A2984 RMK A01,M
BVU,2022-11-08 08:55,-114.8611,35.9475,671.00,62.60,42.80,48.28,180.00,19.00,0.00,29.85,M,10.00,25.00,OVC,M,M,M,7000.00,M,M,M,M,M,M,M,M,M,M,62.60,KBVU 080855Z AUTO 18019G25KT 10SM OVC070 17/06 A2985 RMK AO2,M
RTS,2022-11-08 08:55,-119.8764,39.6682,1539.00,30.20,23.00,74.26,50.00,5.00,0.00,29.75,M,10.00,M,SCT,BKN,BKN,M,3300.00,4000.00,7000.00,M,M,M,M,M,M,M,M,24.26,KRTS 080855Z AUTO 05005KT 10SM SCT033 BKN040 BKN070 M01/M05 A2975 RMK AO2,M
RNO,2022-11-08 08:55,-119.7711,39.4839,1341.00,33.00,27.00,78.03,0.00,0.00,T,29.75,1006.40,10.00,M,FEW,SCT,M,M,4000.00,6500.00,M,M,M,M,M,M,M,M,M,33.10,KRNO 080855Z 00000KT 10SM FEW040 SCT065 01/M03 A2975 RMK AO2 SNE17 SLP064 P0000 60000 T00061028 58001,M
LSV,2022-11-08 08:55,-115.0343,36.2362,570.00,63.00,43.20,48.17,230.00,6.00,0.00,29.81,1007.90,10.00,M,BKN,M,M,M,5000.00,M,M,M,M,M,M,M,M,M,M,63.10,KLSV 080855Z AUTO 23006KT 10SM BKN050 17/06 A2981 RMK AO2 SLP079 T01730062 51008 $,M
INS,2022-11-08 08:55,-115.6733,36.5872,955.00,59.00,34.70,39.97,150.00,5.00,0.00,29.80,1006.00,10.00,18.00,FEW,M,M,M,7500.00,M,M,M,M,M,M,M,M,M,M,59.00,KINS 080855Z AUTO 15005G18KT 10SM FEW075 15/02 A2980 RMK AO2 SLP060 T01500015 53003 $,M
TPH,2022-11-08 08:56,-117.0904,38.0505,1654.00,42.00,32.00,67.17,190.00,18.00,0.00,29.75,1004.70,10.00,M,BKN,M,M,M,7000.00,M,M,M,M,M,M,M,27.00,200.00,2022-11-08 08:04,33.04,KTPH 080856Z AUTO 19018KT 10SM BKN070 06/00 A2975 RMK AO2 PK WND 20027/0804 SLP047 T00560000 53008,M
WMC,2022-11-08 08:56,-117.8072,40.9019,1315.00,30.90,28.00,88.84,70.00,6.00,0.00,29.79,1009.10,10.00,M,SCT,M,M,M,7500.00,M,M,M,M,M,M,M,M,M,M,24.21,KWMC 080856Z AUTO 07006KT 10SM SCT075 M01/M02 A2979 RMK AO2 SLP091 T10061022 53009,M
EKO,2022-11-08 08:56,-115.7860,40.8242,1367.00,28.90,27.00,92.49,0.00,0.00,0.05,29.82,1011.30,1.25,M,OVC,M,M,M,1100.00,M,M,M,-SN BR,M,M,M,M,M,M,28.90,KEKO 080856Z AUTO 00000KT 1 1/4SM -SN BR OVC011 M02/M03 A2982 RMK AO2 SLP113 P0005 60020 T10171028 51013,M
HND,2022-11-08 08:56,-115.1344,35.9729,742.79,59.00,44.00,57.66,210.00,10.00,0.00,29.87,1011.90,10.00,M,FEW,M,M,M,4900.00,M,M,M,M,M,M,M,M,M,M,59.00,KHND 080856Z AUTO 21010KT 10SM FEW049 15/07 A2987 RMK AO2 SLP119 T01500067 51010,M
LAS,2022-11-08 08:56,-115.1634,36.0719,663.00,60.00,41.00,49.21,240.00,9.00,0.00,29.86,1009.60,10.00,19.00,FEW,SCT,BKN,M,4700.00,8000.00,20000.00,M,M,M,M,M,M,M,M,60.10,KLAS 080856Z 24009G19KT 10SM FEW047 SCT080 BKN200 16/05 A2986 RMK AO2 SLP096 T01560050 51011,M
INS,2022-11-08 08:56,-115.6733,36.5872,955.00,59.00,33.80,38.56,180.00,13.00,0.00,29.79,1005.60,10.00,21.00,FEW,M,M,M,7000.00,M,M,M,M,M,M,M,M,M,M,59.00,KINS 080856Z AUTO 18013G21KT 10SM FEW070 15/01 A2979 RMK AO2 WSHFT 55 SLP056 $,M
NFL,2022-11-08 08:56,-118.7010,39.4166,1199.00,34.00,27.00,75.26,140.00,6.00,0.00,29.76,1005.80,10.00,M,CLR,M,M,M,M,M,M,M,M,M,M,M,M,M,M,27.94,KNFL 080856Z AUTO 14006KT 10SM CLR 01/M03 A2976 RMK AO2 SLP058 T00111028 50004,M
INS,2022-11-08 08:57,-115.6733,36.5872,955.00,59.00,33.80,38.56,230.00,13.00,0.00,29.79,1005.60,10.00,21.00,FEW,M,M,M,7000.00,M,M,M,M,M,M,M,M,M,M,59.00,KINS 080857Z AUTO 23013G21KT 10SM FEW070 15/01 A2979 RMK AO2 WSHFT 57 SLP056 $,M
INS,2022-11-08 09:06,-115.6733,36.5872,955.00,59.00,32.00,35.87,220.00,12.00,0.00,29.80,1006.00,10.00,18.00,SCT,M,M,M,6500.00,M,M,M,M,M,M,M,M,M,M,59.00,KINS 080906Z AUTO 22012G18KT 10SM SCT065 15/00 A2980 RMK AO2 WSHFT 05 SLP060 $,M
EKO,2022-11-08 09:07,-115.7860,40.8242,1367.00,28.90,28.00,96.38,0.00,0.00,0.01,29.81,M,0.75,M,VV ,M,M,M,900.00,M,M,M,-SN BR,M,M,M,M,M,M,28.90,KEKO 080907Z AUTO 00000KT 3/4SM -SN BR VV009 M02/M02 A2981 RMK AO2 P0001 T10171022,M
INS,2022-11-08 09:07,-115.6733,36.5872,955.00,59.00,32.00,35.87,170.00,10.00,0.00,29.80,1006.00,10.00,18.00,FEW,M,M,M,6500.00,M,M,M,M,M,M,M,M,M,M,59.00,KINS 080907Z AUTO 17010G18KT 10SM FEW065 15/00 A2980 RMK AO2 WSHFT 06 SLP060 $,M
INS,2022-11-08 09:10,-115.6733,36.5872,955.00,59.00,33.80,38.56,140.00,11.00,0.00,29.80,1006.00,10.00,20.00,FEW,M,M,M,6500.00,M,M,M,M,M,M,M,M,M,M,59.00,KINS 080910Z AUTO 14011G20KT 10SM FEW065 15/01 A2980 RMK AO2 WSHFT 09 SLP060 $,M
05U,2022-11-08 09:15,-116.0051,39.6042,1811.23,28.40,26.60,92.86,330.00,5.00,0.00,29.83,M,4.00,M,FEW,OVC,M,M,700.00,2300.00,M,M,BR,M,M,M,M,M,M,22.12,K05U 080915Z AUTO 33005KT 4SM BR FEW007 OVC023 M02/M03 A2983 RMK A01,M
BVU,2022-11-08 09:15,-114.8611,35.9475,671.00,62.60,42.80,48.28,180.00,15.00,0.00,29.85,M,10.00,23.00,OVC,M,M,M,7000.00,M,M,M,M,M,M,M,M,M,M,62.60,KBVU 080915Z AUTO 18015G23KT 10SM OVC070 17/06 A2985 RMK AO2,M
CXP,2022-11-08 09:15,-119.7326,39.1923,1431.00,32.00,21.20,63.99,0.00,0.00,0.00,29.77,M,10.00,M,SCT,BKN,M,M,9500.00,12000.00,M,M,M,M,M,M,M,M,M,32.00,KCXP 080915Z AUTO 00000KT 10SM SCT095 BKN120 00/M06 A2977 RMK AO2,M
RTS,2022-11-08 09:15,-119.8764,39.6682,1539.00,32.00,23.00,69.04,140.00,4.00,0.00,29.75,M,10.00,M,SCT,OVC,M,M,3300.00,4200.00,M,M,M,M,M,M,M,M,M,27.42,KRTS 080915Z AUTO 14004KT 10SM SCT033 OVC042 M00/M05 A2975 RMK AO2,M
MEV,2022-11-08 09:15,-119.7500,38.9963,1441.42,32.00,23.00,69.04,150.00,11.00,0.00,29.75,M,10.00,17.00,OVC,M,M,M,10000.00,M,M,M,M,M,M,M,M,M,M,22.47,KMEV 080915Z AUTO 15011G17KT 10SM OVC100 00/M05 A2975 RMK AO2,M
BAM,2022-11-08 09:15,-116.8743,40.5990,1382.36,32.00,32.00,100.00,60.00,3.00,0.00,29.82,M,10.00,M,SCT,OVC,M,M,8000.00,11000.00,M,M,M,M,M,M,M,M,M,28.69,KBAM 080915Z AUTO 06003KT 10SM SCT080 OVC110 00/00 A2982 RMK AO1,M
TMT,2022-11-08 09:15,-117.1971,39.4643,1749.34,25.50,24.80,97.13,140.00,3.00,0.00,29.80,M,7.00,M,SCT,SCT,OVC,M,3100.00,3900.00,6000.00,M,-SN,M,M,M,M,M,M,21.26,KTMT 080915Z AUTO 14003KT 7SM -SN SCT031 SCT039 OVC060 M04/M04 A2980 RMK AO2 T10361040,M
INS,2022-11-08 09:25,-115.6733,36.5872,955.00,59.00,32.00,35.87,180.00,13.00,0.00,29.80,1006.00,10.00,31.00,FEW,M,M,M,6500.00,M,M,M,M,M,M,M,M,M,M,59.00,KINS 080925Z AUTO 18013G31KT 10SM FEW065 15/M00 A2980 RMK AO2 WSHFT 12 SLP060 $,M
INS,2022-11-08 09:28,-115.6733,36.5872,955.00,59.00,32.00,35.87,130.00,16.00,0.00,29.82,1006.70,10.00,31.00,FEW,M,M,M,6000.00,M,M,M,M,M,M,M,M,M,M,59.00,KINS 080928Z AUTO 13016G31KT 10SM FEW060 15/00 A2982 RMK AO2 WSHFT 25 PRESRR SLP067 $,M
BAM,2022-11-08 09:35,-116.8743,40.5990,1382.36,32.00,32.00,100.00,0.00,0.00,0.00,29.82,M,10.00,M,SCT,OVC,M,M,9500.00,11000.00,M,M,M,M,M,M,M,M,M,32.00,KBAM 080935Z AUTO 00000KT 10SM SCT095 OVC110 00/00 A2982 RMK AO1,M
MEV,2022-11-08 09:35,-119.7500,38.9963,1441.42,32.00,23.00,69.04,140.00,14.00,0.00,29.74,M,10.00,M,BKN,M,M,M,11000.00,M,M,M,M,M,M,M,M,M,M,21.16,KMEV 080935Z AUTO 14014KT 10SM BKN110 00/M05 A2974 RMK AO2,M
05U,2022-11-08 09:35,-116.0051,39.6042,1811.23,28.40,26.60,92.86,330.00,7.00,0.00,29.83,M,3.00,M,OVC,M,M,M,2400.00,M,M,M,BR,M,M,M,M,M,M,20.39,K05U 080935Z AUTO 33007KT 3SM BR OVC024 M02/M03 A2983 RMK A01,M
RTS,2022-11-08 09:35,-119.8764,39.6682,1539.00,30.20,23.00,74.26,230.00,4.00,0.00,29.74,M,10.00,M,BKN,BKN,OVC,M,3400.00,4100.00,4600.00,M,M,M,M,M,M,M,M,25.32,KRTS 080935Z AUTO 23004KT 10SM BKN034 BKN041 OVC046 M01/M05 A2974 RMK AO2,M
BVU,2022-11-08 09:35,-114.8611,35.9475,671.00,62.60,42.80,48.28,180.00,14.00,0.00,29.85,M,10.00,M,OVC,M,M,M,7000.00,M,M,M,M,M,M,M,M,M,M,62.60,KBVU 080935Z AUTO 18014KT 10SM OVC070 17/06 A2985 RMK AO2,M
CXP,2022-11-08 09:35,-119.7326,39.1923,1431.00,33.80,21.20,59.53,200.00,4.00,0.00,29.76,M,10.00,M,FEW,OVC,M,M,8500.00,11000.00,M,M,M,M,M,M,M,M,M,29.52,KCXP 080935Z AUTO 20004KT 10SM FEW085 OVC110 01/M06 A2976 RMK AO2,M
TMT,2022-11-08 09:35,-117.1971,39.4643,1749.34,24.80,24.10,97.12,0.00,0.00,0.00,29.80,M,10.00,M,SCT,SCT,OVC,M,500.00,1800.00,6000.00,M,M,M,M,M,M,M,M,24.80,KTMT 080935Z AUTO 00000KT 10SM SCT005 SCT018 OVC060 M04/M04 A2980 RMK AO2 T10401044,M
EKO,2022-11-08 09:49,-115.7860,40.8242,1367.00,28.90,28.00,96.38,0.00,0.00,0.06,29.82,M,1.00,M,VV ,M,M,M,1000.00,M,M,M,-SN BR,M,M,M,M,M,M,28.90,KEKO 080949Z AUTO 00000KT 1SM -SN BR VV010 M02/M02 A2982 RMK AO2 P0006 T10171022,M
ELY,2022-11-08 09:53,-114.8453,39.2950,1909.00,44.00,28.90,54.85,180.00,18.00,0.00,29.73,1001.80,10.00,32.00,FEW,M,M,M,7000.00,M,M,M,M,M,M,M,32.00,180.00,2022-11-08 09:48,35.68,KELY 080953Z AUTO 18018G32KT 10SM FEW070 07/M02 A2973 RMK AO2 PK WND 18032/0948 SLP018 T00671017,M
LOL,2022-11-08 09:53,-118.5701,40.0684,1192.43,21.00,16.00,80.69,290.00,3.00,0.00,29.77,1009.70,10.00,M,CLR,M,M,M,M,M,M,M,M,M,M,M,M,M,M,16.11,KLOL 080953Z AUTO 29003KT 10SM CLR M06/M09 A2977 RMK AO2 SLP097 T10611089,M
P68,2022-11-08 09:53,-116.0056,39.6014,1993.00,27.00,25.00,92.05,320.00,8.00,0.01,29.81,1009.30,M,M,M,M,M,M,M,M,M,M,M,M,M,M,M,M,M,17.95,KP68 080953Z AUTO 32008KT M03/M04 A2981 RMK AO1 SLP093 P0001 T10281039,M
DRA,2022-11-08 09:53,-116.0278,36.6206,1009.00,52.00,32.00,46.25,200.00,19.00,0.00,29.85,1007.90,10.00,30.00,FEW,M,M,M,5500.00,M,M,M,M,M,M,M,39.00,190.00,2022-11-08 09:17,52.00,KDRA 080953Z AUTO 20019G30KT 10SM FEW055 11/00 A2985 RMK AO2 PK WND 19039/0917 SLP079 T01110000,M
RTS,2022-11-08 09:55,-119.8764,39.6682,1539.00,30.20,21.20,68.83,0.00,0.00,0.00,29.73,M,10.00,M,BKN,BKN,BKN,M,3400.00,4600.00,12000.00,M,M,M,M,M,M,M,M,30.20,KRTS 080955Z AUTO 00000KT 10SM BKN034 BKN046 BKN120 M01/M06 A2973 RMK AO2,M
MEV,2022-11-08 09:55,-119.7500,38.9963,1441.42,32.00,23.00,69.04,150.00,13.00,0.00,29.73,M,10.00,M,FEW,FEW,BKN,M,5000.00,7500.00,12000.00,M,M,M,M,M,M,M,M,21.57,KMEV 080955Z AUTO 15013KT 10SM FEW050 FEW075 BKN120 00/M05 A2973 RMK AO2,M
BAM,2022-11-08 09:55,-116.8743,40.5990,1382.36,32.00,30.20,92.97,60.00,3.00,0.00,29.82,M,10.00,M,SCT,OVC,M,M,10000.00,12000.00,M,M,M,M,M,M,M,M,M,28.69,KBAM 080955Z AUTO 06003KT 10SM SCT100 OVC120 00/M01 A2982 RMK AO1,M
RNO,2022-11-08 09:55,-119.7711,39.4839,1341.00,33.00,26.10,75.18,350.00,3.00,0.00,29.72,1005.70,10.00,M,FEW,M,M,M,6000.00,M,M,M,M,M,M,M,M,M,M,29.95,KRNO 080955Z 35003KT 10SM FEW060 01/M03 A2972 RMK AO2 SLP057 T00061033,M
05U,2022-11-08 09:55,-116.0051,39.6042,1811.23,28.40,26.60,92.86,320.00,7.00,0.00,29.83,M,4.00,M,OVC,M,M,M,3000.00,M,M,M,BR,M,M,M,M,M,M,20.39,K05U 080955Z AUTO 32007KT 4SM BR OVC030 M02/M03 A2983 RMK A01,M
TMT,2022-11-08 09:55,-117.1971,39.4643,1749.34,24.10,23.50,97.52,310.00,3.00,0.00,29.80,M,10.00,M,SCT,SCT,OVC,M,600.00,1800.00,6000.00,M,M,M,M,M,M,M,M,19.66,KTMT 080955Z AUTO 31003KT 10SM SCT006 SCT018 OVC060 M04/M05 A2980 RMK AO2 T10441047,M
INS,2022-11-08 09:55,-115.6733,36.5872,955.00,57.20,26.10,30.07,300.00,8.00,0.03,29.81,1006.50,10.00,M,CLR,M,M,M,M,M,M,M,M,M,M,M,33.00,150.00,2022-11-08 09:30,57.20,KINS 080955Z AUTO 30008KT 10SM CLR 14/M03 A2981 RMK AO2 PK WND 15033/30 SLP065 P0003 T01401033 $,M
LSV,2022-11-08 09:55,-115.0343,36.2362,570.00,61.70,39.00,43.02,210.00,12.00,0.00,29.83,1008.60,10.00,M,BKN,M,M,M,5000.00,M,M,M,M,M,M,M,M,M,M,61.70,KLSV 080955Z AUTO 21012KT 10SM BKN050 17/04 A2983 RMK AO2 SLP086 T01650039 $,M
CXP,2022-11-08 09:55,-119.7326,39.1923,1431.00,32.00,21.20,63.99,0.00,0.00,0.00,29.75,M,10.00,M,BKN,BKN,M,M,9500.00,11000.00,M,M,M,M,M,M,M,M,M,32.00,KCXP 080955Z AUTO 00000KT 10SM BKN095 BKN110 00/M06 A2975 RMK AO2,M
BVU,2022-11-08 09:55,-114.8611,35.9475,671.00,62.60,42.80,48.28,220.00,13.00,0.00,29.86,M,10.00,18.00,SCT,BKN,OVC,M,4700.00,5500.00,7000.00,M,M,M,M,M,M,M,M,62.60,KBVU 080955Z AUTO 22013G18KT 10SM SCT047 BKN055 OVC070 17/06 A2986 RMK AO2,M
TPH,2022-11-08 09:56,-117.0904,38.0505,1654.00,41.00,33.00,73.25,190.00,11.00,0.00,29.77,1005.40,10.00,20.00,OVC,M,M,M,6500.00,M,M,M,M,M,M,M,28.00,200.00,2022-11-08 08:58,33.84,KTPH 080956Z AUTO 19011G20KT 10SM OVC065 05/01 A2977 RMK AO2 PK WND 20028/0858 SLP054 T00500006,M
NFL,2022-11-08 09:56,-118.7010,39.4166,1199.00,34.00,27.00,75.26,130.00,9.00,0.00,29.75,1005.40,10.00,M,CLR,M,M,M,M,M,M,M,M,M,M,M,M,M,M,26.00,KNFL 080956Z AUTO 13009KT 10SM CLR 01/M03 A2975 RMK AO2 SLP054 T00111028,M
LAS,2022-11-08 09:56,-115.1634,36.0719,663.00,60.00,35.00,39.04,200.00,8.00,0.00,29.86,1009.60,10.00,17.00,BKN,BKN,M,M,6000.00,20000.00,M,M,M,M,M,M,M,M,M,60.10,KLAS 080956Z 20008G17KT 10SM BKN060 BKN200 16/02 A2986 RMK AO2 SLP096 T01560017,M
WMC,2022-11-08 09:56,-117.8072,40.9019,1315.00,30.00,27.00,88.44,70.00,5.00,0.00,29.79,1009.40,10.00,M,CLR,M,M,M,M,M,M,M,M,M,M,M,M,M,M,24.02,KWMC 080956Z AUTO 07005KT 10SM CLR M01/M03 A2979 RMK AO2 SLP094 T10111028,M
EKO,2022-11-08 09:56,-115.7860,40.8242,1367.00,28.90,28.00,96.38,0.00,0.00,0.06,29.83,1011.40,1.00,M,VV ,M,M,M,1000.00,M,M,M,-SN BR,M,M,M,M,M,M,28.90,KEKO 080956Z AUTO 00000KT 1SM -SN BR VV010 M02/M02 A2983 RMK AO2 SLP114 P0006 T10171022,M
HND,2022-11-08 09:56,-115.1344,35.9729,742.79,58.00,37.00,45.54,190.00,13.00,0.00,29.88,1012.00,10.00,M,OVC,M,M,M,5500.00,M,M,M,M,M,M,M,M,M,M,57.90,KHND 080956Z AUTO 19013KT 10SM OVC055 14/03 A2988 RMK AO2 SLP120 T01440028,M
EKO,2022-11-08 10:06,-115.7860,40.8242,1367.00,28.90,28.00,96.38,0.00,0.00,0.01,29.83,M,0.75,M,FEW,OVC,M,M,400.00,1000.00,M,M,-SN BR,M,M,M,M,M,M,28.90,KEKO 081006Z AUTO 00000KT 3/4SM -SN BR FEW004 OVC010 M02/M02 A2983 RMK AO2 P0001 T10171022,M
BVU,2022-11-08 10:15,-114.8611,35.9475,671.00,60.80,41.00,48.00,210.00,11.00,0.00,29.87,M,10.00,M,BKN,BKN,OVC,M,4600.00,5500.00,7000.00,M,M,M,M,M,M,M,M,60.80,KBVU 081015Z AUTO 21011KT 10SM BKN046 BKN055 OVC070 16/05 A2987 RMK AO2,M
CXP,2022-11-08 10:15,-119.7326,39.1923,1431.00,32.00,21.20,63.99,0.00,0.00,0.00,29.74,M,10.00,M,FEW,M,M,M,9000.00,M,M,M,M,M,M,M,M,M,M,32.00,KCXP 081015Z AUTO 00000KT 10SM FEW090 00/M06 A2974 RMK AO2,M
RTS,2022-11-08 10:15,-119.8764,39.6682,1539.00,30.20,23.00,74.26,90.00,8.00,0.00,29.71,M,10.00,M,BKN,BKN,BKN,M,3600.00,4100.00,5000.00,M,M,M,M,M,M,M,M,21.90,KRTS 081015Z AUTO 09008KT 10SM BKN036 BKN041 BKN050 M01/M05 A2971 RMK AO2,M
05U,2022-11-08 10:15,-116.0051,39.6042,1811.23,28.40,26.60,92.86,330.00,6.00,0.00,29.83,M,10.00,M,OVC,M,M,M,3200.00,M,M,M,M,M,M,M,M,M,M,21.19,K05U 081015Z AUTO 33006KT 10SM OVC032 M02/M03 A2983 RMK A01,M
MEV,2022-11-08 10:15,-119.7500,38.9963,1441.42,33.80,23.00,64.23,150.00,11.00,0.00,29.72,M,10.00,M,FEW,FEW,FEW,M,4900.00,7500.00,9500.00,M,M,M,M,M,M,M,M,24.74,KMEV 081015Z AUTO 15011KT 10SM FEW049 FEW075 FEW095 01/M05 A2972 RMK AO2,M
BAM,2022-11-08 10:15,-116.8743,40.5990,1382.36,32.00,30.20,92.97,70.00,5.00,0.00,29.82,M,10.00,M,SCT,SCT,SCT,M,7000.00,9000.00,11000.00,M,M,M,M,M,M,M,M,26.40,KBAM 081015Z AUTO 07005KT 10SM SCT070 SCT090 SCT110 00/M01 A2982 RMK AO1,M
TMT,2022-11-08 10:15,-117.1971,39.4643,1749.34,24.80,24.30,97.94,0.00,0.00,0.00,29.81,M,10.00,M,BKN,OVC,M,M,500.00,6000.00,M,M,M,M,M,M,M,M,M,24.80,KTMT 081015Z AUTO 00000KT 10SM BKN005 OVC060 M04/M04 A2981 RMK AO2 T10401043,M
EKO,2022-11-08 10:21,-115.7860,40.8242,1367.00,28.90,28.00,96.38,240.00,3.00,0.03,29.83,M,1.00,M,VV ,M,M,M,900.00,M,M,M,-SN BR,M,M,M,M,M,M,25.14,KEKO 081021Z AUTO 24003KT 1SM -SN BR VV009 M02/M02 A2983 RMK AO2 P0003 T10171022,M
INS,2022-11-08 10:25,-115.6733,36.5872,955.00,55.40,26.60,32.76,190.00,11.00,0.00,29.84,1007.50,10.00,18.00,CLR,M,M,M,M,M,M,M,M,M,M,M,M,M,M,55.40,KINS 081025Z AUTO 19011G18KT 10SM CLR 13/M03 A2984 RMK AO2 WSHFT 23 SLP075 $,M
EKO,2022-11-08 10:28,-115.7860,40.8242,1367.00,28.90,27.00,92.49,280.00,3.00,0.03,29.83,M,1.25,M,OVC,M,M,M,1100.00,M,M,M,-SN BR,M,M,M,M,M,M,25.14,KEKO 081028Z AUTO 28003KT 1 1/4SM -SN BR OVC011 M02/M03 A2983 RMK AO2 P0003 T10171028,M
05U,2022-11-08 10:35,-116.0051,39.6042,1811.23,28.40,26.60,92.86,330.00,5.00,0.00,29.83,M,10.00,M,FEW,OVC,M,M,1700.00,3100.00,M,M,M,M,M,M,M,M,M,22.12,K05U 081035Z AUTO 33005KT 10SM FEW017 OVC031 M02/M03 A2983 RMK A01,M
RTS,2022-11-08 10:35,-119.8764,39.6682,1539.00,30.20,23.00,74.26,0.00,0.00,0.00,29.71,M,10.00,M,SCT,SCT,SCT,M,3800.00,4900.00,6000.00,M,M,M,M,M,M,M,M,30.20,KRTS 081035Z AUTO 00000KT 10SM SCT038 SCT049 SCT060 M01/M05 A2971 RMK AO2,M
CXP,2022-11-08 10:35,-119.7326,39.1923,1431.00,33.80,21.20,59.53,0.00,0.00,0.00,29.73,M,10.00,M,CLR,M,M,M,M,M,M,M,M,M,M,M,M,M,M,33.80,KCXP 081035Z AUTO 00000KT 10SM CLR 01/M06 A2973 RMK AO2,M
BAM,2022-11-08 10:35,-116.8743,40.5990,1382.36,30.20,30.20,100.00,80.00,5.00,0.00,29.83,M,10.00,M,SCT,SCT,M,M,7000.00,9000.00,M,M,M,M,M,M,M,M,M,24.26,KBAM 081035Z AUTO 08005KT 10SM SCT070 SCT090 M01/M01 A2983 RMK AO1,M
BVU,2022-11-08 10:35,-114.8611,35.9475,671.00,60.80,39.20,44.76,220.00,12.00,0.00,29.87,M,10.00,M,OVC,M,M,M,4700.00,M,M,M,M,M,M,M,M,M,M,60.80,KBVU 081035Z AUTO 22012KT 10SM OVC047 16/04 A2987 RMK AO2,M
MEV,2022-11-08 10:35,-119.7500,38.9963,1441.42,33.80,23.00,64.23,160.00,12.00,0.00,29.71,M,10.00,19.00,FEW,FEW,M,M,4800.00,12000.00,M,M,M,M,M,M,M,M,M,24.29,KMEV 081035Z AUTO 16012G19KT 10SM FEW048 FEW120 01/M05 A2971 RMK AO2,M
TMT,2022-11-08 10:35,-117.1971,39.4643,1749.34,25.30,24.60,97.13,0.00,0.00,0.01,29.80,M,1.25,M,OVC,M,M,M,500.00,M,M,M,-SN,M,M,M,M,M,M,25.30,KTMT 081035Z AUTO 00000KT 1 1/4SM -SN OVC005 M04/M04 A2980 RMK AO2 VIS 3/4V4 P0001 T10371041,M
LOL,2022-11-08 10:53,-118.5701,40.0684,1192.43,18.00,12.90,80.09,80.00,5.00,0.00,29.75,1009.10,10.00,M,CLR,M,M,M,M,M,M,M,M,M,M,M,M,M,M,9.77,KLOL 081053Z AUTO 08005KT 10SM CLR M08/M11 A2975 RMK AO2 SLP091 T10781106,M
ELY,2022-11-08 10:53,-114.8453,39.2950,1909.00,45.00,28.00,51.08,200.00,20.00,T,29.74,1002.20,10.00,41.00,BKN,OVC,M,M,6000.00,7500.00,M,M,M,M,M,M,44.00,190.00,2022-11-08 10:07,36.41,KELY 081053Z AUTO 20020G41KT 10SM BKN060 OVC075 07/M02 A2974 RMK AO2 PK WND 19044/1007 RAB40E49 SLP022 P0000 T00721022,M
DRA,2022-11-08 10:53,-116.0278,36.6206,1009.00,52.00,30.90,44.24,180.00,27.00,0.00,29.83,1007.60,10.00,38.00,CLR,M,M,M,M,M,M,M,M,M,M,M,38.00,170.00,2022-11-08 10:53,52.00,KDRA 081053Z AUTO 18027G38KT 10SM CLR 11/M01 A2983 RMK AO2 PK WND 17038/1053 SLP076 T01111006,M
P68,2022-11-08 10:53,-116.0056,39.6014,1993.00,27.00,25.00,92.05,320.00,5.00,0.00,29.80,1009.40,M,M,M,M,M,M,M,M,M,M,M,M,M,M,M,M,M,20.46,KP68 081053Z AUTO 32005KT M03/M04 A2980 RMK AO1 SLP094 T10281039,M
INS,2022-11-08 10:55,-115.6733,36.5872,955.00,55.00,27.70,34.91,240.00,22.00,0.01,29.83,1007.20,10.00,33.00,FEW,M,M,M,8000.00,M,M,M,M,M,M,M,34.00,240.00,2022-11-08 10:39,54.90,KINS 081055Z AUTO 24022G33KT 10SM FEW080 13/M02 A2983 RMK AO2 PK WND 24034/39 SLP072 P0001 T01271024 $,M
BAM,2022-11-08 10:55,-116.8743,40.5990,1382.36,30.20,28.40,92.92,70.00,5.00,0.00,29.81,M,10.00,M,CLR,M,M,M,M,M,M,M,M,M,M,M,M,M,M,24.26,KBAM 081055Z AUTO 07005KT 10SM CLR M01/M02 A2981 RMK AO1,M
MEV,2022-11-08 10:55,-119.7500,38.9963,1441.42,33.80,23.00,64.23,170.00,12.00,0.00,29.70,M,10.00,M,BKN,M,M,M,11000.00,M,M,M,M,M,M,M,M,M,M,24.29,KMEV 081055Z AUTO 17012KT 10SM BKN110 01/M05 A2970 RMK AO2,M
05U,2022-11-08 10:55,-116.0051,39.6042,1811.23,28.40,26.60,92.86,320.00,5.00,0.00,29.83,M,10.00,M,FEW,OVC,M,M,700.00,3000.00,M,M,M,M,M,M,M,M,M,22.12,K05U 081055Z AUTO 32005KT 10SM FEW007 OVC030 M02/M03 A2983 RMK A01,M
RTS,2022-11-08 10:55,-119.8764,39.6682,1539.00,30.20,23.00,74.26,0.00,0.00,0.00,29.70,M,10.00,M,FEW,M,M,M,5500.00,M,M,M,M,M,M,M,M,M,M,30.20,KRTS 081055Z AUTO 00000KT 10SM FEW055 M01/M05 A2970 RMK AO2,M
RNO,2022-11-08 10:55,-119.7711,39.4839,1341.00,30.90,26.10,82.15,360.00,5.00,0.00,29.69,1004.80,10.00,M,FEW,M,M,M,6000.00,M,M,M,M,M,M,M,M,M,M,25.09,KRNO 081055Z 36005KT 10SM FEW060 M01/M03 A2969 RMK AO2 SLP048 T10061033,M
CXP,2022-11-08 10:55,-119.7326,39.1923,1431.00,32.00,21.20,63.99,0.00,0.00,0.00,29.72,M,10.00,M,FEW,M,M,M,12000.00,M,M,M,M,M,M,M,M,M,M,32.00,KCXP 081055Z AUTO 00000KT 10SM FEW120 00/M06 A2972 RMK AO2,M
BVU,2022-11-08 10:55,-114.8611,35.9475,671.00,60.80,37.40,41.71,220.00,11.00,0.00,29.87,M,10.00,M,OVC,M,M,M,4800.00,M,M,M,M,M,M,M,M,M,M,60.80,KBVU 081055Z AUTO 22011KT 10SM OVC048 16/03 A2987 RMK AO2,M
LSV,2022-11-08 10:55,-115.0343,36.2362,570.00,59.40,40.30,49.10,210.00,15.00,0.00,29.82,1008.40,10.00,M,CLR,M,M,M,M,M,M,M,M,M,M,M,M,M,M,59.40,KLSV 081055Z AUTO 21015KT 10SM CLR 15/05 A2982 RMK AO2 SLP084 T01520046 $,M
TMT,2022-11-08 10:55,-117.1971,39.4643,1749.34,23.90,23.00,96.30,0.00,0.00,0.01,29.80,M,7.00,M,BKN,BKN,OVC,M,900.00,1500.00,6000.00,M,-SN,M,M,M,M,M,M,23.90,KTMT 081055Z AUTO 00000KT 7SM -SN BKN009 BKN015 OVC060 M04/M05 A2980 RMK AO2 P0001 T10451050,M
HND,2022-11-08 10:56,-115.1344,35.9729,742.79,58.00,33.00,39.00,210.00,14.00,0.00,29.88,1012.30,10.00,M,OVC,M,M,M,6000.00,M,M,M,M,M,M,M,M,M,M,57.90,KHND 081056Z AUTO 21014KT 10SM OVC060 14/01 A2988 RMK AO2 SLP123 T01440006,M
EKO,2022-11-08 10:56,-115.7860,40.8242,1367.00,28.90,27.00,92.49,20.00,3.00,0.04,29.83,1011.20,1.25,M,OVC,M,M,M,1200.00,M,M,M,-SN BR,M,M,M,M,M,M,25.14,KEKO 081056Z AUTO 02003KT 1 1/4SM -SN BR OVC012 M02/M03 A2983 RMK AO2 SLP112 P0004 T10171028,M
WMC,2022-11-08 10:56,-117.8072,40.9019,1315.00,28.00,26.10,92.46,100.00,5.00,0.00,29.78,1009.10,10.00,M,CLR,M,M,M,M,M,M,M,M,M,M,M,M,M,M,21.64,KWMC 081056Z AUTO 10005KT 10SM CLR M02/M03 A2978 RMK AO2 SLP091 T10221033 $,M
NFL,2022-11-08 10:56,-118.7010,39.4166,1199.00,33.00,26.10,75.18,130.00,10.00,0.00,29.73,1005.00,10.00,M,CLR,M,M,M,M,M,M,M,M,M,M,M,M,M,M,24.35,KNFL 081056Z AUTO 13010KT 10SM CLR 01/M03 A2973 RMK AO2 SLP050 T00061033,M
LAS,2022-11-08 10:56,-115.1634,36.0719,663.00,59.00,33.00,37.49,250.00,7.00,0.00,29.87,1010.00,10.00,M,BKN,M,M,M,7000.00,M,M,M,M,M,M,M,M,M,M,59.00,KLAS 081056Z 25007KT 10SM BKN070 15/01 A2987 RMK AO2 SLP100 T01500006,M
TPH,2022-11-08 10:56,-117.0904,38.0505,1654.00,39.00,33.00,79.17,200.00,14.00,0.00,29.77,1005.60,10.00,M,OVC,M,M,M,6500.00,M,M,M,M,M,M,M,M,M,M,30.19,KTPH 081056Z AUTO 20014KT 10SM OVC065 04/01 A2977 RMK AO2 SLP056 T00390006,M
EKO,2022-11-08 11:07,-115.7860,40.8242,1367.00,28.90,27.00,92.49,360.00,3.00,0.01,29.83,M,2.00,M,OVC,M,M,M,2600.00,M,M,M,-SN BR,M,M,M,M,M,M,25.14,KEKO 081107Z AUTO 36003KT 2SM -SN BR OVC026 M02/M03 A2983 RMK AO2 P0001 T10171028,M
EKO,2022-11-08 11:11,-115.7860,40.8242,1367.00,28.90,27.00,92.49,350.00,3.00,0.01,29.83,M,5.00,M,OVC,M,M,M,3100.00,M,M,M,-SN BR,M,M,M,M,M,M,25.14,KEKO 081111Z AUTO 35003KT 5SM -SN BR OVC031 M02/M03 A2983 RMK AO2 P0001 T10171028,M
TMT,2022-11-08 11:15,-117.1971,39.4643,1749.34,23.90,23.00,96.30,0.00,0.00,0.00,29.81,M,10.00,M,OVC,M,M,M,700.00,M,M,M,M,M,M,M,M,M,M,23.90,KTMT 081115Z AUTO 00000KT 10SM OVC007 M04/M05 A2981 RMK AO2 T10451050,M
BAM,2022-11-08 11:15,-116.8743,40.5990,1382.36,32.00,30.20,92.97,90.00,5.00,0.00,29.83,M,10.00,M,CLR,M,M,M,M,M,M,M,M,M,M,M,M,M,M,26.40,KBAM 081115Z AUTO 09005KT 10SM CLR 00/M01 A2983 RMK AO1,M
CXP,2022-11-08 11:15,-119.7326,39.1923,1431.00,32.00,21.20,63.99,300.00,6.00,0.00,29.71,M,10.00,M,SCT,M,M,M,12000.00,M,M,M,M,M,M,M,M,M,M,25.53,KCXP 081115Z AUTO 30006KT 10SM SCT120 M00/M06 A2971 RMK AO2,M
MEV,2022-11-08 11:15,-119.7500,38.9963,1441.42,32.00,23.00,69.04,150.00,7.00,0.00,29.69,M,10.00,12.00,OVC,M,M,M,11000.00,M,M,M,M,M,M,M,M,M,M,24.78,KMEV 081115Z AUTO 15007G12KT 10SM OVC110 00/M05 A2969 RMK AO2,M
RTS,2022-11-08 11:15,-119.8764,39.6682,1539.00,26.60,21.20,79.77,0.00,0.00,0.00,29.69,M,10.00,M,CLR,M,M,M,M,M,M,M,M,M,M,M,M,M,M,26.60,KRTS 081115Z AUTO 00000KT 10SM CLR M03/M06 A2969 RMK AO2,M
05U,2022-11-08 11:15,-116.0051,39.6042,1811.23,28.40,26.60,92.86,330.00,5.00,0.00,29.84,M,10.00,M,FEW,SCT,OVC,M,800.00,1200.00,3000.00,M,M,M,M,M,M,M,M,22.12,K05U 081115Z AUTO 33005KT 10SM FEW008 SCT012 OVC030 M02/M03 A2984 RMK A01,M
BVU,2022-11-08 11:15,-114.8611,35.9475,671.00,59.00,35.60,41.42,240.00,11.00,0.00,29.87,M,10.00,M,SCT,OVC,M,M,4900.00,5500.00,M,M,M,M,M,M,M,M,M,59.00,KBVU 081115Z AUTO 24011KT 10SM SCT049 OVC055 15/02 A2987 RMK AO2,M
EKO,2022-11-08 11:28,-115.7860,40.8242,1367.00,30.00,27.00,88.44,360.00,3.00,0.01,29.82,M,2.50,M,OVC,M,M,M,2900.00,M,M,M,-SN BR,M,M,M,M,M,M,26.40,KEKO 081128Z AUTO 36003KT 2 1/2SM -SN BR OVC029 M01/M03 A2982 RMK AO2 P0001 T10111028,M
BVU,2022-11-08 11:35,-114.8611,35.9475,671.00,59.00,35.60,41.42,240.00,9.00,0.00,29.88,M,10.00,M,BKN,BKN,M,M,5000.00,6000.00,M,M,M,M,M,M,M,M,M,59.00,KBVU 081135Z AUTO 24009KT 10SM BKN050 BKN060 15/02 A2988 RMK AO2,M
05U,2022-11-08 11:35,-116.0051,39.6042,1811.23,28.40,26.60,92.86,0.00,0.00,0.00,29.84,M,10.00,M,BKN,OVC,M,M,1100.00,3100.00,M,M,M,M,M,M,M,M,M,28.40,K05U 081135Z AUTO 00000KT 10SM BKN011 OVC031 M02/M03 A2984 RMK A01,M
CXP,2022-11-08 11:35,-119.7326,39.1923,1431.00,33.80,23.00,64.23,300.00,6.00,0.00,29.70,M,10.00,M,BKN,M,M,M,11000.00,M,M,M,M,M,M,M,M,M,M,27.70,KCXP 081135Z AUTO 30006KT 10SM BKN110 01/M05 A2970 RMK AO2,M
BAM,2022-11-08 11:35,-116.8743,40.5990,1382.36,32.00,30.20,92.97,100.00,3.00,0.00,29.82,M,10.00,M,SCT,M,M,M,12000.00,M,M,M,M,M,M,M,M,M,M,28.69,KBAM 081135Z AUTO 10003KT 10SM SCT120 00/M01 A2982 RMK AO1,M
RTS,2022-11-08 11:35,-119.8764,39.6682,1539.00,28.40,21.20,74.08,0.00,0.00,0.00,29.69,M,10.00,M,CLR,M,M,M,M,M,M,M,M,M,M,M,M,M,M,28.40,KRTS 081135Z AUTO 00000KT 10SM CLR M02/M06 A2969 RMK AO2,M
TMT,2022-11-08 11:35,-117.1971,39.4643,1749.34,23.70,22.80,96.29,50.00,3.00,0.00,29.80,M,2.00,M,BKN,BKN,OVC,M,700.00,1300.00,2600.00,M,-SN,M,M,M,M,M,M,19.20,KTMT 081135Z AUTO 05003KT 2SM -SN BKN007 BKN013 OVC026 M05/M05 A2980 RMK AO2 T10461051,M
MEV,2022-11-08 11:35,-119.7500,38.9963,1441.42,30.20,23.00,74.26,360.00,6.00,0.00,29.69,M,10.00,M,FEW,SCT,M,M,4900.00,11000.00,M,M,M,M,M,M,M,M,M,23.36,KMEV 081135Z AUTO 36006KT 10SM FEW049 SCT110 M01/M05 A2969 RMK AO2,M
EKO,2022-11-08 11:38,-115.7860,40.8242,1367.00,30.00,27.00,88.44,0.00,0.00,0.02,29.83,M,1.50,M,BKN,OVC,M,M,2300.00,3400.00,M,M,-SN BR,M,M,M,M,M,M,30.00,KEKO 081138Z AUTO 00000KT 1 1/2SM -SN BR BKN023 OVC034 M01/M03 A2983 RMK AO2 P0002 T10111028,M
EKO,2022-11-08 11:47,-115.7860,40.8242,1367.00,30.00,27.00,88.44,20.00,3.00,0.02,29.83,M,3.00,M,FEW,OVC,M,M,1200.00,2100.00,M,M,-SN BR,M,M,M,M,M,M,26.40,KEKO 081147Z AUTO 02003KT 3SM -SN BR FEW012 OVC021 M01/M03 A2983 RMK AO2 P0002 T10111028,M
LOL,2022-11-08 11:53,-118.5701,40.0684,1192.43,17.10,12.90,83.25,80.00,3.00,0.00,29.74,1008.80,10.00,M,CLR,M,M,M,M,M,M,M,M,M,M,M,M,M,M,11.66,KLOL 081153Z AUTO 08003KT 10SM CLR M08/M11 A2974 RMK AO2 SLP088 T10831106 10022 21094 58012,M
DRA,2022-11-08 11:53,-116.0278,36.6206,1009.00,52.00,32.00,46.25,190.00,16.00,0.00,29.84,1007.80,10.00,29.00,BKN,M,M,M,6000.00,M,M,M,M,M,M,M,37.00,180.00,2022-11-08 11:09,52.00,KDRA 081153Z AUTO 19016G29KT 10SM BKN060 11/00 A2984 RMK AO2 PK WND 18037/1109 SLP078 T01110000 10139 20106 51004,M
P68,2022-11-08 11:53,-116.0056,39.6014,1993.00,27.00,25.00,92.05,310.00,3.00,0.00,29.82,1009.90,M,M,M,M,M,M,M,M,M,M,M,M,M,M,M,M,M,22.97,KP68 081153Z AUTO 31003KT M03/M04 A2982 RMK AO1 SLP099 60005 70010 T10281039 11022 21028 53002,M
ELY,2022-11-08 11:53,-114.8453,39.2950,1909.00,43.00,27.00,52.91,210.00,16.00,0.00,29.76,1003.00,10.00,30.00,BKN,M,M,M,6000.00,M,M,M,M,M,M,M,46.00,200.00,2022-11-08 11:26,34.76,KELY 081153Z AUTO 21016G30KT 10SM BKN060 06/M03 A2976 RMK AO2 PK WND 20046/1126 SLP030 60000 T00611028 10083 20050 53008,M
VGT,2022-11-08 11:53,-115.1933,36.2111,667.00,58.00,34.00,40.43,170.00,4.00,0.00,29.86,1011.80,10.00,M,M,M,M,M,M,M,M,M,M,M,M,M,M,M,M,57.90,KVGT 081153Z AUTO 17004KT 10SM 14/01 A2986 RMK AO2 SLP118 6//// 7//// T01440011 10217 20144 $,M
CXP,2022-11-08 11:55,-119.7326,39.1923,1431.00,33.80,23.00,64.23,360.00,4.00,0.00,29.70,M,10.00,M,SCT,M,M,M,11000.00,M,M,M,M,M,M,M,M,M,M,29.52,KCXP 081155Z AUTO 36004KT 10SM SCT110 01/M05 A2970 RMK AO2,M
05U,2022-11-08 11:55,-116.0051,39.6042,1811.23,28.40,26.60,92.86,0.00,0.00,0.00,29.85,M,10.00,M,BKN,OVC,M,M,1200.00,3000.00,M,M,M,M,M,M,M,M,M,28.40,K05U 081155Z AUTO 00000KT 10SM BKN012 OVC030 M02/M03 A2985 RMK A01,M
RTS,2022-11-08 11:55,-119.8764,39.6682,1539.00,26.60,21.20,79.77,0.00,0.00,0.00,29.68,M,10.00,M,CLR,M,M,M,M,M,M,M,M,M,M,M,M,M,M,26.60,KRTS 081155Z AUTO 00000KT 10SM CLR M03/M06 A2968 RMK AO2,M
MEV,2022-11-08 11:55,-119.7500,38.9963,1441.42,32.00,21.20,63.99,0.00,0.00,0.00,29.69,M,10.00,M,FEW,FEW,SCT,M,3500.00,4800.00,12000.00,M,M,M,M,M,M,M,M,32.00,KMEV 081155Z AUTO 00000KT 10SM FEW035 FEW048 SCT120 00/M06 A2969 RMK AO2,M
BAM,2022-11-08 11:55,-116.8743,40.5990,1382.36,30.20,28.40,92.92,100.00,4.00,0.00,29.83,M,10.00,M,SCT,M,M,M,12000.00,M,M,M,M,M,M,M,M,M,M,25.32,KBAM 081155Z AUTO 10004KT 10SM SCT120 M01/M02 A2983 RMK AO1,M
TMT,2022-11-08 11:55,-117.1971,39.4643,1749.34,20.10,19.40,97.06,40.00,4.00,0.00,29.79,M,1.25,M,BKN,BKN,BKN,M,200.00,1300.00,4700.00,M,BR,M,M,M,M,M,M,13.52,KTMT 081155Z AUTO 04004KT 1 1/4SM BR BKN002 BKN013 BKN047 M07/M07 A2979 RMK AO2 VIS 1/2V5 60009 70019 T10661070 11026 21066,M
RNO,2022-11-08 11:55,-119.7711,39.4839,1341.00,32.00,25.00,75.07,330.00,6.00,0.00,29.68,1004.40,10.00,M,FEW,BKN,M,M,6000.00,15000.00,M,M,M,M,M,M,M,M,M,25.53,KRNO 081155Z 33006KT 10SM FEW060 BKN150 00/M04 A2968 RMK AO2 SLP044 60000 T00001039 10022 21011 56021,M
INS,2022-11-08 11:55,-115.6733,36.5872,955.00,55.20,28.00,34.96,210.00,10.00,0.00,29.86,1008.20,10.00,M,FEW,M,M,M,7000.00,M,M,M,M,M,M,M,32.00,250.00,2022-11-08 10:54,55.20,KINS 081155Z AUTO 21010KT 10SM FEW070 13/M02 A2986 RMK AO2 PK WND 25032/1054 SLP082 T01291022 10167 20123 52019 $,M
LSV,2022-11-08 11:55,-115.0343,36.2362,570.00,57.70,34.20,41.05,180.00,6.00,0.00,29.84,1009.20,10.00,M,CLR,M,M,M,M,M,M,M,M,M,M,M,M,M,M,57.70,KLSV 081155Z AUTO 18006KT 10SM CLR 14/01 A2984 RMK AO2 SLP092 T01430012 10189 20143 50010 $,M
BVU,2022-11-08 11:55,-114.8611,35.9475,671.00,57.20,33.80,41.13,230.00,9.00,0.00,29.89,M,10.00,M,FEW,BKN,M,M,5500.00,7500.00,M,M,M,M,M,M,M,M,M,57.20,KBVU 081155Z AUTO 23009KT 10SM FEW055 BKN075 14/01 A2989 RMK AO2,M
HND,2022-11-08 11:56,-115.1344,35.9729,742.79,57.00,35.00,43.63,200.00,12.00,0.00,29.90,1013.00,10.00,M,BKN,M,M,M,6000.00,M,M,M,M,M,M,M,M,M,M,57.00,KHND 081156Z AUTO 20012KT 10SM BKN060 14/02 A2990 RMK AO2 SLP130 T01390017 10172 20139 53008,M
TPH,2022-11-08 11:56,-117.0904,38.0505,1654.00,38.00,33.00,82.66,200.00,12.00,0.00,29.79,1006.40,10.00,M,OVC,M,M,M,6000.00,M,M,M,M,M,M,M,M,M,M,29.51,KTPH 081156Z AUTO 20012KT 10SM OVC060 03/01 A2979 RMK AO2 SLP064 T00330006 10072 20033 51011,M
LAS,2022-11-08 11:56,-115.1634,36.0719,663.00,58.00,34.00,40.43,210.00,4.00,0.00,29.89,1010.70,10.00,M,SCT,M,M,M,7000.00,M,M,M,M,M,M,M,M,M,M,57.90,KLAS 081156Z 21004KT 10SM SCT070 14/01 A2989 RMK AO2 SLP107 T01440011 10183 20144 53009,M
NFL,2022-11-08 11:56,-118.7010,39.4166,1199.00,33.00,26.10,75.18,120.00,14.00,0.00,29.71,1004.30,10.00,M,CLR,M,M,M,M,M,M,M,M,M,M,M,M,M,M,22.58,KNFL 081156Z AUTO 12014KT 10SM CLR 01/M03 A2971 RMK AO2 SLP043 T00061033 10050 20000 58015,M
WMC,2022-11-08 11:56,-117.8072,40.9019,1315.00,28.90,26.10,89.12,90.00,7.00,0.00,29.78,1009.00,10.00,M,CLR,M,M,M,M,M,M,M,M,M,M,M,M,M,M,21.00,KWMC 081156Z AUTO 09007KT 10SM CLR M02/M03 A2978 RMK AO2 SLP090 70003 T10171033 10006 21022 58003 $,M
EKO,2022-11-08 11:56,-115.7860,40.8242,1367.00,30.00,27.00,88.44,340.00,4.00,0.02,29.83,1011.60,3.00,M,FEW,OVC,M,M,1300.00,2800.00,M,M,-SN BR,M,M,M,M,M,M,25.08,KEKO 081156Z AUTO 34004KT 3SM -SN BR FEW013 OVC028 M01/M03 A2983 RMK AO2 SLP116 P0002 60032 70086 T10111028 11011 21017 51003,M
EKO,2022-11-08 12:04,-115.7860,40.8242,1367.00,28.90,27.00,92.49,350.00,4.00,T,29.83,M,5.00,M,FEW,FEW,OVC,M,1300.00,2400.00,3600.00,M,-SN BR,M,M,M,M,M,M,23.80,KEKO 081204Z AUTO 35004KT 5SM -SN BR FEW013 FEW024 OVC036 M02/M03 A2983 RMK AO2 P0000 T10171028,M
RTS,2022-11-08 12:15,-119.8764,39.6682,1539.00,26.60,23.00,86.07,220.00,3.00,0.00,29.68,M,10.00,M,CLR,M,M,M,M,M,M,M,M,M,M,M,M,M,M,22.52,KRTS 081215Z AUTO 22003KT 10SM CLR M03/M05 A2968 RMK AO2,M
BVU,2022-11-08 12:15,-114.8611,35.9475,671.00,57.20,35.60,44.19,230.00,9.00,0.00,29.90,M,10.00,M,OVC,M,M,M,7000.00,M,M,M,M,M,M,M,M,M,M,57.20,KBVU 081215Z AUTO 23009KT 10SM OVC070 14/02 A2990 RMK AO2,M
CXP,2022-11-08 12:15,-119.7326,39.1923,1431.00,32.00,23.00,69.04,100.00,6.00,0.00,29.70,M,10.00,M,BKN,M,M,M,11000.00,M,M,M,M,M,M,M,M,M,M,25.53,KCXP 081215Z AUTO 10006KT 10SM BKN110 00/M05 A2970 RMK AO2,M
05U,2022-11-08 12:15,-116.0051,39.6042,1811.23,28.40,26.60,92.86,0.00,0.00,0.00,29.84,M,10.00,M,SCT,OVC,M,M,1200.00,3000.00,M,M,M,M,M,M,M,M,M,28.40,K05U 081215Z AUTO 00000KT 10SM SCT012 OVC030 M02/M03 A2984 RMK A01,M
MEV,2022-11-08 12:15,-119.7500,38.9963,1441.42,30.20,21.20,68.83,140.00,3.00,0.00,29.68,M,10.00,M,FEW,M,M,M,12000.00,M,M,M,M,M,M,M,M,M,M,26.63,KMEV 081215Z AUTO 14003KT 10SM FEW120 M01/M06 A2968 RMK AO2,M
BAM,2022-11-08 12:15,-116.8743,40.5990,1382.36,32.00,30.20,92.97,70.00,7.00,0.00,29.81,M,10.00,M,SCT,SCT,M,M,6000.00,12000.00,M,M,M,M,M,M,M,M,M,24.78,KBAM 081215Z AUTO 07007KT 10SM SCT060 SCT120 00/M01 A2981 RMK AO1,M
TMT,2022-11-08 12:15,-117.1971,39.4643,1749.34,18.10,17.20,96.20,70.00,3.00,0.00,29.79,M,10.00,M,SCT,SCT,BKN,M,200.00,700.00,5000.00,M,M,M,M,M,M,M,M,12.80,KTMT 081215Z AUTO 07003KT 10SM SCT002 SCT007 BKN050 M08/M08 A2979 RMK AO2 T10771082,M
TPH,2022-11-08 12:30,-117.0904,38.0505,1654.00,38.00,32.00,79.08,180.00,9.00,0.00,29.79,M,10.00,M,BKN,OVC,M,M,2500.00,5500.00,M,M,M,M,M,M,M,M,M,30.85,KTPH 081230Z AUTO 18009KT 10SM BKN025 OVC055 03/00 A2979 RMK AO2 T00330000,M
05U,2022-11-08 12:35,-116.0051,39.6042,1811.23,28.40,26.60,92.86,320.00,4.00,0.00,29.85,M,10.00,M,OVC,M,M,M,3000.00,M,M,M,M,M,M,M,M,M,M,23.22,K05U 081235Z AUTO 32004KT 10SM OVC030 M02/M03 A2985 RMK A01,M
TMT,2022-11-08 12:35,-117.1971,39.4643,1749.34,14.70,12.60,91.19,290.00,3.00,0.00,29.79,M,1.00,M,BKN,BKN,BKN,M,200.00,5000.00,7500.00,M,BR,M,M,M,M,M,M,8.91,KTMT 081235Z AUTO 29003KT 1SM BR BKN002 BKN050 BKN075 M10/M11 A2979 RMK AO2 T10961108,M
MEV,2022-11-08 12:35,-119.7500,38.9963,1441.42,30.20,21.20,68.83,70.00,5.00,0.00,29.69,M,10.00,M,CLR,M,M,M,M,M,M,M,M,M,M,M,M,M,M,24.26,KMEV 081235Z AUTO 07005KT 10SM CLR M01/M06 A2969 RMK AO2,M
BAM,2022-11-08 12:35,-116.8743,40.5990,1382.36,32.00,30.20,92.97,70.00,7.00,0.00,29.81,M,10.00,M,BKN,M,M,M,11000.00,M,M,M,M,M,M,M,M,M,M,24.78,KBAM 081235Z AUTO 07007KT 10SM BKN110 00/M01 A2981 RMK AO1,M
BVU,2022-11-08 12:35,-114.8611,35.9475,671.00,57.20,35.60,44.19,240.00,9.00,0.00,29.90,M,10.00,M,BKN,M,M,M,7000.00,M,M,M,M,M,M,M,M,M,M,57.20,KBVU 081235Z AUTO 24009KT 10SM BKN070 14/02 A2990 RMK AO2,M
CXP,2022-11-08 12:35,-119.7326,39.1923,1431.00,32.00,23.00,69.04,0.00,0.00,0.00,29.71,M,10.00,M,BKN,OVC,M,M,10000.00,12000.00,M,M,M,M,M,M,M,M,M,32.00,KCXP 081235Z AUTO 00000KT 10SM BKN100 OVC120 M00/M05 A2971 RMK AO2,M
RTS,2022-11-08 12:35,-119.8764,39.6682,1539.00,26.60,21.20,79.77,0.00,0.00,0.00,29.69,M,10.00,M,BKN,M,M,M,11000.00,M,M,M,M,M,M,M,M,M,M,26.60,KRTS 081235Z AUTO 00000KT 10SM BKN110 M03/M06 A2969 RMK AO2,M
VGT,2022-11-08 12:53,-115.1933,36.2111,667.00,57.00,33.00,40.28,190.00,3.00,0.00,29.86,1011.90,10.00,M,CLR,M,M,M,M,M,M,M,M,M,M,M,M,M,M,57.00,KVGT 081253Z AUTO 19003KT 10SM CLR 14/01 A2986 RMK AO2 SLP119 T01390006 $,M
LOL,2022-11-08 12:53,-118.5701,40.0684,1192.43,14.00,9.00,80.10,0.00,0.00,0.00,29.74,1009.40,10.00,M,CLR,M,M,M,M,M,M,M,M,M,M,M,M,M,M,14.00,KLOL 081253Z AUTO 00000KT 10SM CLR M10/M13 A2974 RMK AO2 SLP094 T11001128,M
ELY,2022-11-08 12:53,-114.8453,39.2950,1909.00,42.00,28.00,57.08,190.00,17.00,T,29.78,1004.40,10.00,29.00,FEW,OVC,M,M,5000.00,6500.00,M,M,M,M,M,M,35.00,220.00,2022-11-08 12:01,33.31,KELY 081253Z AUTO 19017G29KT 10SM FEW050 OVC065 06/M02 A2978 RMK AO2 PK WND 22035/1201 RAB20E49 SLP044 P0000 T00561022,M
P68,2022-11-08 12:53,-116.0056,39.6014,1993.00,28.00,25.00,88.33,350.00,3.00,0.00,29.82,1010.00,M,M,M,M,M,M,M,M,M,M,M,M,M,M,M,M,M,24.12,KP68 081253Z AUTO 35003KT M02/M04 A2982 RMK AO1 SLP100 T10221039,M
DRA,2022-11-08 12:53,-116.0278,36.6206,1009.00,52.00,34.00,50.12,210.00,14.00,0.00,29.81,1006.80,10.00,23.00,CLR,M,M,M,M,M,M,M,M,M,M,M,38.00,170.00,2022-11-08 12:11,52.00,KDRA 081253Z AUTO 21014G23KT 10SM CLR 11/01 A2981 RMK AO2 PK WND 17038/1211 SLP068 T01110011,M
RNO,2022-11-08 12:55,-119.7711,39.4839,1341.00,34.00,24.10,66.72,270.00,5.00,0.00,29.69,1004.90,10.00,M,OVC,M,M,M,11000.00,M,M,M,M,M,M,M,M,M,M,28.77,KRNO 081255Z 27005KT 10SM OVC110 01/M04 A2969 RMK AO2 SLP049 T00111044,M
TMT,2022-11-08 12:55,-117.1971,39.4643,1749.34,14.00,12.60,94.03,0.00,0.00,0.00,29.78,M,0.25,M,OVC,M,M,M,200.00,M,M,M,FZFG,M,M,M,M,M,M,14.00,KTMT 081255Z AUTO 00000KT 1/4SM FZFG OVC002 M10/M11 A2978 RMK AO2 T11001108,M
BAM,2022-11-08 12:55,-116.8743,40.5990,1382.36,32.00,30.20,92.97,70.00,6.00,0.00,29.82,M,10.00,M,BKN,M,M,M,11000.00,M,M,M,M,M,M,M,M,M,M,25.53,KBAM 081255Z AUTO 07006KT 10SM BKN110 00/M01 A2982 RMK AO1,M
MEV,2022-11-08 12:55,-119.7500,38.9963,1441.42,28.40,21.20,74.08,40.00,4.00,0.00,29.68,M,10.00,M,FEW,M,M,M,6500.00,M,M,M,M,M,M,M,M,M,M,23.22,KMEV 081255Z AUTO 04004KT 10SM FEW065 M02/M06 A2968 RMK AO2,M
05U,2022-11-08 12:55,-116.0051,39.6042,1811.23,28.40,26.60,92.86,0.00,0.00,0.01,29.84,M,10.00,M,OVC,M,M,M,3000.00,M,M,M,M,M,M,M,M,M,M,28.40,K05U 081255Z AUTO 00000KT 10SM OVC030 M02/M03 A2984 RMK A01 P0001,M
RTS,2022-11-08 12:55,-119.8764,39.6682,1539.00,26.60,21.20,79.77,40.00,4.00,0.00,29.69,M,10.00,M,SCT,OVC,M,M,8000.00,10000.00,M,M,M,M,M,M,M,M,M,21.11,KRTS 081255Z AUTO 04004KT 10SM SCT080 OVC100 M03/M06 A2969 RMK AO2,M
INS,2022-11-08 12:55,-115.6733,36.5872,955.00,55.00,26.20,32.81,140.00,7.00,0.00,29.82,1007.10,10.00,M,BKN,M,M,M,8000.00,M,M,M,M,M,M,M,26.00,210.00,2022-11-08 12:08,54.90,KINS 081255Z AUTO 14007KT 10SM BKN080 13/M03 A2982 RMK AO2 PK WND 21026/08 SLP071 T01271032 $,M
LSV,2022-11-08 12:55,-115.0343,36.2362,570.00,56.70,35.00,44.11,180.00,9.00,0.00,29.84,1009.30,10.00,M,CLR,M,M,M,M,M,M,M,M,M,M,M,M,M,M,56.70,KLSV 081255Z AUTO 18009KT 10SM CLR 14/02 A2984 RMK AO2 SLP093 T01370017 $,M
CXP,2022-11-08 12:55,-119.7326,39.1923,1431.00,32.00,23.00,69.04,120.00,3.00,0.00,29.71,M,10.00,M,OVC,M,M,M,11000.00,M,M,M,M,M,M,M,M,M,M,28.69,KCXP 081255Z AUTO 12003KT 10SM OVC110 M00/M05 A2971 RMK AO2,M
BVU,2022-11-08 12:55,-114.8611,35.9475,671.00,55.40,35.60,47.16,240.00,6.00,0.00,29.89,M,10.00,M,SCT,M,M,M,7000.00,M,M,M,M,M,M,M,M,M,M,55.40,KBVU 081255Z AUTO 24006KT 10SM SCT070 13/02 A2989 RMK AO2,M
TPH,2022-11-08 12:56,-117.0904,38.0505,1654.00,38.00,32.00,79.08,170.00,11.00,0.00,29.80,1006.90,10.00,M,SCT,BKN,OVC,M,2100.00,2600.00,5500.00,M,M,M,M,M,M,M,M,29.92,KTPH 081256Z AUTO 17011KT 10SM SCT021 BKN026 OVC055 03/00 A2980 RMK AO2 SLP069 T00330000,M
HND,2022-11-08 12:56,-115.1344,35.9729,742.79,55.00,36.00,48.62,180.00,12.00,0.00,29.89,1012.90,10.00,M,CLR,M,M,M,M,M,M,M,M,M,M,M,M,M,M,55.00,KHND 081256Z AUTO 18012KT 10SM CLR 13/02 A2989 RMK AO2 SLP129 T01280022,M
LAS,2022-11-08 12:56,-115.1634,36.0719,663.00,56.00,35.00,45.40,190.00,6.00,0.00,29.87,1010.20,10.00,M,FEW,M,M,M,7000.00,M,M,M,M,M,M,M,M,M,M,55.90,KLAS 081256Z 19006KT 10SM FEW070 13/02 A2987 RMK AO2 SLP102 T01330017,M
EKO,2022-11-08 12:56,-115.7860,40.8242,1367.00,30.00,27.00,88.44,20.00,4.00,T,29.84,1012.10,7.00,M,BKN,OVC,M,M,4800.00,6500.00,M,M,-SN,M,M,M,M,M,M,25.08,KEKO 081256Z AUTO 02004KT 7SM -SN BKN048 OVC065 M01/M03 A2984 RMK AO2 SLP121 P0000 T10111028,M
WMC,2022-11-08 12:56,-117.8072,40.9019,1315.00,28.90,26.10,89.12,70.00,10.00,0.00,29.77,1008.80,10.00,M,SCT,M,M,M,10000.00,M,M,M,M,M,M,M,M,M,M,19.08,KWMC 081256Z AUTO 07010KT 10SM SCT100 M02/M03 A2977 RMK AO2 SLP088 T10171033 $,M
NFL,2022-11-08 12:56,-118.7010,39.4166,1199.00,32.00,26.10,78.58,130.00,9.00,0.00,29.72,1004.50,10.00,M,CLR,M,M,M,M,M,M,M,M,M,M,M,M,M,M,23.51,KNFL 081256Z AUTO 13009KT 10SM CLR 00/M03 A2972 RMK AO2 SLP045 T00001033,M
TPH,2022-11-08 13:05,-117.0904,38.0505,1654.00,37.00,30.90,78.37,170.00,10.00,0.00,29.79,M,10.00,M,SCT,BKN,M,M,2100.00,5500.00,M,M,M,M,M,M,M,M,M,29.24,KTPH 081305Z AUTO 17010KT 10SM SCT021 BKN055 03/M01 A2979 RMK AO2 T00281006,M
BAM,2022-11-08 13:15,-116.8743,40.5990,1382.36,32.00,30.20,92.97,70.00,8.00,0.00,29.80,M,10.00,M,CLR,M,M,M,M,M,M,M,M,M,M,M,M,M,M,24.11,KBAM 081315Z AUTO 07008KT 10SM CLR 00/M01 A2980 RMK AO1,M
BVU,2022-11-08 13:15,-114.8611,35.9475,671.00,55.40,35.60,47.16,230.00,6.00,0.00,29.88,M,10.00,M,CLR,M,M,M,M,M,M,M,M,M,M,M,M,M,M,55.40,KBVU 081315Z AUTO 23006KT 10SM CLR 13/02 A2988 RMK AO2,M
CXP,2022-11-08 13:15,-119.7326,39.1923,1431.00,32.00,23.00,69.04,100.00,8.00,0.00,29.69,M,10.00,M,BKN,M,M,M,11000.00,M,M,M,M,M,M,M,M,M,M,24.11,KCXP 081315Z AUTO 10008KT 10SM BKN110 M00/M05 A2969 RMK AO2,M
MEV,2022-11-08 13:15,-119.7500,38.9963,1441.42,28.40,21.20,74.08,M,3.00,0.00,29.67,M,10.00,M,FEW,M,M,M,7000.00,M,M,M,M,M,M,M,M,M,M,24.57,KMEV 081315Z AUTO VRB03KT 10SM FEW070 M02/M06 A2967 RMK AO2,M
TMT,2022-11-08 13:15,-117.1971,39.4643,1749.34,14.20,12.90,94.45,240.00,3.00,0.00,29.78,M,0.25,M,OVC,M,M,M,200.00,M,M,M,FZFG,M,M,M,M,M,M,8.34,KTMT 081315Z AUTO 24003KT M1/4SM FZFG OVC002 M10/M11 A2978 RMK AO2 T10991106,M
RTS,2022-11-08 13:15,-119.8764,39.6682,1539.00,26.60,23.00,86.07,10.00,4.00,0.00,29.68,M,10.00,M,BKN,OVC,M,M,7500.00,10000.00,M,M,M,M,M,M,M,M,M,21.11,KRTS 081315Z AUTO 01004KT 10SM BKN075 OVC100 M03/M05 A2968 RMK AO2,M
05U,2022-11-08 13:15,-116.0051,39.6042,1811.23,28.40,26.60,92.86,M,M,0.00,29.84,M,10.00,M,OVC,M,M,M,3000.00,M,M,M,M,M,M,M,M,M,M,M,K05U 081315Z AUTO 10SM OVC030 M02/M03 A2984 RMK A01,M
TMT,2022-11-08 13:35,-117.1971,39.4643,1749.34,15.10,13.60,93.65,240.00,3.00,0.00,29.78,M,0.25,M,OVC,M,M,M,200.00,M,M,M,FZFG,M,M,M,M,M,M,9.37,KTMT 081335Z AUTO 24003KT 1/4SM FZFG OVC002 M09/M10 A2978 RMK AO2 T10941102,M
BVU,2022-11-08 13:35,-114.8611,35.9475,671.00,55.40,35.60,47.16,140.00,5.00,0.00,29.88,M,10.00,M,CLR,M,M,M,M,M,M,M,M,M,M,M,M,M,M,55.40,KBVU 081335Z AUTO 14005KT 10SM CLR 13/02 A2988 RMK AO2,M
CXP,2022-11-08 13:35,-119.7326,39.1923,1431.00,33.80,21.20,59.53,110.00,6.00,0.00,29.68,M,10.00,M,CLR,M,M,M,M,M,M,M,M,M,M,M,M,M,M,27.70,KCXP 081335Z AUTO 11006KT 10SM CLR 01/M06 A2968 RMK AO2,M
RTS,2022-11-08 13:35,-119.8764,39.6682,1539.00,30.20,21.20,68.83,70.00,6.00,0.00,29.67,M,10.00,M,FEW,SCT,BKN,M,5500.00,7000.00,9000.00,M,M,M,M,M,M,M,M,23.36,KRTS 081335Z AUTO 07006KT 10SM FEW055 SCT070 BKN090 M01/M06 A2967 RMK AO2,M
05U,2022-11-08 13:35,-116.0051,39.6042,1811.23,28.40,26.60,92.86,0.00,0.00,0.00,29.84,M,10.00,M,SCT,SCT,OVC,M,600.00,1000.00,3000.00,M,M,M,M,M,M,M,M,28.40,K05U 081335Z AUTO 00000KT 10SM SCT006 SCT010 OVC030 M02/M03 A2984 RMK A01,M
MEV,2022-11-08 13:35,-119.7500,38.9963,1441.42,28.40,23.00,79.92,360.00,4.00,0.00,29.67,M,10.00,M,FEW,FEW,M,M,4600.00,11000.00,M,M,M,M,M,M,M,M,M,23.22,KMEV 081335Z AUTO 36004KT 10SM FEW046 FEW110 M02/M05 A2967 RMK AO2,M
BAM,2022-11-08 13:35,-116.8743,40.5990,1382.36,32.00,30.20,92.97,60.00,9.00,0.00,29.81,M,10.00,M,SCT,M,M,M,8500.00,M,M,M,M,M,M,M,M,M,M,23.51,KBAM 081335Z AUTO 06009KT 10SM SCT085 00/M01 A2981 RMK AO1,M
VGT,2022-11-08 13:53,-115.1933,36.2111,667.00,57.00,35.00,43.63,170.00,4.00,0.00,29.86,1011.60,10.00,M,SCT,M,M,M,8000.00,M,M,M,M,M,M,M,M,M,M,57.00,KVGT 081353Z AUTO 17004KT 10SM SCT080 14/02 A2986 RMK AO2 SLP116 T01390017 $,M
DRA,2022-11-08 13:53,-116.0278,36.6206,1009.00,53.00,33.00,46.42,210.00,12.00,0.00,29.81,1006.80,10.00,M,BKN,M,M,M,9500.00,M,M,M,M,M,M,M,30.00,200.00,2022-11-08 13:02,53.10,KDRA 081353Z AUTO 21012KT 10SM BKN095 12/01 A2981 RMK AO2 PK WND 20030/1302 SLP068 T01170006,M
LOL,2022-11-08 13:53,-118.5701,40.0684,1192.43,14.00,10.90,87.20,0.00,0.00,0.00,29.74,1009.70,10.00,M,CLR,M,M,M,M,M,M,M,M,M,M,M,M,M,M,14.00,KLOL 081353Z AUTO 00000KT 10SM CLR M10/M12 A2974 RMK AO2 SLP097 T11001117,M
P68,2022-11-08 13:53,-116.0056,39.6014,1993.00,27.00,25.00,92.05,170.00,3.00,0.00,29.82,1010.10,M,M,M,M,M,M,M,M,M,M,M,M,M,M,M,M,M,22.97,KP68 081353Z AUTO 17003KT M03/M04 A2982 RMK AO1 SLP101 T10281039,M
ELY,2022-11-08 13:53,-114.8453,39.2950,1909.00,40.00,25.00,54.90,190.00,22.00,T,29.82,1006.10,10.00,40.00,SCT,OVC,M,M,5000.00,6000.00,M,M,M,M,M,M,40.00,190.00,2022-11-08 13:47,29.16,KELY 081353Z AUTO 19022G40KT 10SM SCT050 OVC060 04/M04 A2982 RMK AO2 PK WND 19040/1347 RAB1257E13 SLP061 P0000 T00441039,M
TMT,2022-11-08 13:55,-117.1971,39.4643,1749.34,15.60,14.00,93.25,0.00,0.00,0.00,29.78,M,0.25,M,OVC,M,M,M,200.00,M,M,M,FZFG,M,M,M,M,M,M,15.60,KTMT 081355Z AUTO 00000KT 1/4SM FZFG OVC002 M09/M10 A2978 RMK AO2 T10911100,M
INS,2022-11-08 13:55,-115.6733,36.5872,955.00,52.70,29.10,40.07,80.00,5.00,0.00,29.83,1007.40,10.00,M,BKN,OVC,M,M,7000.00,8500.00,M,M,M,M,M,M,M,M,M,52.70,KINS 081355Z AUTO 08005KT 10SM BKN070 OVC085 12/M02 A2983 RMK AO2 SLP074 T01151016 $,M
LSV,2022-11-08 13:55,-115.0343,36.2362,570.00,55.00,35.20,47.10,190.00,4.00,0.00,29.84,1009.30,10.00,M,FEW,M,M,M,8500.00,M,M,M,M,M,M,M,M,M,M,55.00,KLSV 081355Z AUTO 19004KT 10SM FEW085 13/02 A2984 RMK AO2 SLP093 T01280018 $,M
BVU,2022-11-08 13:55,-114.8611,35.9475,671.00,55.40,35.60,47.16,160.00,5.00,0.00,29.88,M,10.00,M,CLR,M,M,M,M,M,M,M,M,M,M,M,M,M,M,55.40,KBVU 081355Z AUTO 16005KT 10SM CLR 13/02 A2988 RMK AO2,M
CXP,2022-11-08 13:55,-119.7326,39.1923,1431.00,32.00,21.20,63.99,80.00,9.00,0.00,29.69,M,10.00,M,FEW,M,M,M,12000.00,M,M,M,M,M,M,M,M,M,M,23.51,KCXP 081355Z AUTO 08009KT 10SM FEW120 00/M06 A2969 RMK AO2,M
RNO,2022-11-08 13:55,-119.7711,39.4839,1341.00,34.00,25.00,69.28,0.00,0.00,0.00,29.67,1004.30,10.00,M,BKN,BKN,M,M,11000.00,18000.00,M,M,M,M,M,M,M,M,M,34.00,KRNO 081355Z 00000KT 10SM BKN110 BKN180 01/M04 A2967 RMK AO2 SLP043 T00111039,M
RTS,2022-11-08 13:55,-119.8764,39.6682,1539.00,30.20,21.20,68.83,70.00,6.00,0.00,29.66,M,10.00,M,FEW,FEW,M,M,9500.00,12000.00,M,M,M,M,M,M,M,M,M,23.36,KRTS 081355Z AUTO 07006KT 10SM FEW095 FEW120 M01/M06 A2966 RMK AO2,M
05U,2022-11-08 13:55,-116.0051,39.6042,1811.23,28.40,26.60,92.86,0.00,0.00,0.00,29.84,M,10.00,M,OVC,M,M,M,600.00,M,M,M,M,M,M,M,M,M,M,28.40,K05U 081355Z AUTO 00000KT 10SM OVC006 M02/M03 A2984 RMK A01,M
MEV,2022-11-08 13:55,-119.7500,38.9963,1441.42,28.40,23.00,79.92,10.00,3.00,0.00,29.66,M,10.00,M,SCT,M,M,M,11000.00,M,M,M,M,M,M,M,M,M,M,24.57,KMEV 081355Z AUTO 01003KT 10SM SCT110 M02/M05 A2966 RMK AO2,M
BAM,2022-11-08 13:55,-116.8743,40.5990,1382.36,32.00,30.20,92.97,70.00,9.00,0.00,29.81,M,10.00,M,OVC,M,M,M,8500.00,M,M,M,M,M,M,M,M,M,M,23.51,KBAM 081355Z AUTO 07009KT 10SM OVC085 00/M01 A2981 RMK AO1,M
TPH,2022-11-08 13:56,-117.0904,38.0505,1654.00,35.00,28.90,77.88,170.00,10.00,0.00,29.78,1007.10,10.00,M,CLR,M,M,M,M,M,M,M,M,M,M,M,M,M,M,26.86,KTPH 081356Z AUTO 17010KT 10SM CLR 02/M02 A2978 RMK AO2 SLP071 T00171017,M
WMC,2022-11-08 13:56,-117.8072,40.9019,1315.00,28.00,25.00,88.33,60.00,9.00,0.00,29.78,1009.60,10.00,M,SCT,M,M,M,9000.00,M,M,M,M,M,M,M,M,M,M,18.54,KWMC 081356Z AUTO 06009KT 10SM SCT090 M02/M04 A2978 RMK AO2 SLP096 T10221039 $,M
LAS,2022-11-08 13:56,-115.1634,36.0719,663.00,56.00,36.00,47.05,190.00,4.00,0.00,29.87,1010.20,10.00,M,SCT,M,M,M,7000.00,M,M,M,M,M,M,M,M,M,M,55.90,KLAS 081356Z 19004KT 10SM SCT070 13/02 A2987 RMK AO2 SLP102 T01330022,M
EKO,2022-11-08 13:56,-115.7860,40.8242,1367.00,30.00,26.10,85.21,0.00,0.00,T,29.83,1011.80,10.00,M,FEW,BKN,OVC,M,1600.00,7000.00,8500.00,M,M,M,M,M,M,M,M,30.00,KEKO 081356Z AUTO 00000KT 10SM FEW016 BKN070 OVC085 M01/M03 A2983 RMK AO2 SNE06 SLP118 P0000 T10111033,M
NFL,2022-11-08 13:56,-118.7010,39.4166,1199.00,32.00,25.00,75.07,70.00,6.00,0.00,29.72,1004.40,10.00,M,CLR,M,M,M,M,M,M,M,M,M,M,M,M,M,M,25.53,KNFL 081356Z AUTO 07006KT 10SM CLR 00/M04 A2972 RMK AO2 SLP044 T00001039,M
HND,2022-11-08 13:56,-115.1344,35.9729,742.79,53.00,35.00,50.28,180.00,6.00,0.00,29.89,1012.70,10.00,M,FEW,M,M,M,8500.00,M,M,M,M,M,M,M,M,M,M,53.10,KHND 081356Z 18006KT 10SM FEW085 12/02 A2989 RMK AO2 SLP127 T01170017,M
RTS,2022-11-08 14:15,-119.8764,39.6682,1539.00,30.20,21.20,68.83,80.00,7.00,0.00,29.66,M,10.00,M,FEW,M,M,M,6500.00,M,M,M,M,M,M,M,M,M,M,22.59,KRTS 081415Z AUTO 08007KT 10SM FEW065 M01/M06 A2966 RMK AO2,M
TMT,2022-11-08 14:15,-117.1971,39.4643,1749.34,17.40,16.00,94.12,0.00,0.00,0.00,29.77,M,0.25,M,OVC,M,M,M,200.00,M,M,M,FZFG,M,M,M,M,M,M,17.40,KTMT 081415Z AUTO 00000KT 1/4SM FZFG OVC002 M08/M09 A2977 RMK AO2 T10811089,M
BAM,2022-11-08 14:15,-116.8743,40.5990,1382.36,32.00,30.20,92.97,70.00,7.00,0.00,29.81,M,10.00,M,OVC,M,M,M,7500.00,M,M,M,M,M,M,M,M,M,M,24.78,KBAM 081415Z AUTO 07007KT 10SM OVC075 00/M01 A2981 RMK AO1,M
MEV,2022-11-08 14:15,-119.7500,38.9963,1441.42,28.40,23.00,79.92,0.00,0.00,0.00,29.65,M,10.00,M,FEW,M,M,M,11000.00,M,M,M,M,M,M,M,M,M,M,28.40,KMEV 081415Z AUTO 00000KT 10SM FEW110 M02/M05 A2965 RMK AO2,M
05U,2022-11-08 14:15,-116.0051,39.6042,1811.23,28.40,26.60,92.86,10.00,3.00,0.00,29.84,M,10.00,M,OVC,M,M,M,500.00,M,M,M,M,M,M,M,M,M,M,24.57,K05U 081415Z AUTO 01003KT 10SM OVC005 M02/M03 A2984 RMK A01,M
CXP,2022-11-08 14:15,-119.7326,39.1923,1431.00,32.00,21.20,63.99,90.00,9.00,0.00,29.67,M,10.00,M,SCT,M,M,M,11000.00,M,M,M,M,M,M,M,M,M,M,23.51,KCXP 081415Z AUTO 09009KT 10SM SCT110 M00/M06 A2967 RMK AO2,M
BVU,2022-11-08 14:15,-114.8611,35.9475,671.00,55.40,35.60,47.16,90.00,5.00,0.00,29.88,M,10.00,M,CLR,M,M,M,M,M,M,M,M,M,M,M,M,M,M,55.40,KBVU 081415Z AUTO 09005KT 10SM CLR 13/02 A2988 RMK AO2,M
MEV,2022-11-08 14:35,-119.7500,38.9963,1441.42,28.40,23.00,79.92,70.00,4.00,0.00,29.64,M,10.00,M,FEW,SCT,M,M,9000.00,12000.00,M,M,M,M,M,M,M,M,M,23.22,KMEV 081435Z AUTO 07004KT 10SM FEW090 SCT120 M02/M05 A2964 RMK AO2,M
BAM,2022-11-08 14:35,-116.8743,40.5990,1382.36,32.00,30.20,92.97,80.00,7.00,0.00,29.82,M,10.00,M,OVC,M,M,M,7500.00,M,M,M,M,M,M,M,M,M,M,24.78,KBAM 081435Z AUTO 08007KT 10SM OVC075 00/M01 A2982 RMK AO1,M
TMT,2022-11-08 14:35,-117.1971,39.4643,1749.34,18.10,16.70,94.14,0.00,0.00,0.00,29.77,M,0.25,M,OVC,M,M,M,200.00,M,M,M,FZFG,M,M,M,M,M,M,18.10,KTMT 081435Z AUTO 00000KT M1/4SM FZFG OVC002 M08/M08 A2977 RMK AO2 T10771085,M
CXP,2022-11-08 14:35,-119.7326,39.1923,1431.00,32.00,19.40,59.27,100.00,9.00,0.00,29.67,M,10.00,14.00,BKN,M,M,M,12000.00,M,M,M,M,M,M,M,M,M,M,23.51,KCXP 081435Z AUTO 10009G14KT 10SM BKN120 M00/M07 A2967 RMK AO2,M
BVU,2022-11-08 14:35,-114.8611,35.9475,671.00,55.40,37.40,50.64,100.00,5.00,0.00,29.88,M,10.00,M,FEW,M,M,M,5500.00,M,M,M,M,M,M,M,M,M,M,55.40,KBVU 081435Z AUTO 10005KT 10SM FEW055 13/03 A2988 RMK AO2,M
RTS,2022-11-08 14:35,-119.8764,39.6682,1539.00,30.20,19.40,63.75,90.00,6.00,0.00,29.65,M,10.00,M,FEW,M,M,M,6500.00,M,M,M,M,M,M,M,M,M,M,23.36,KRTS 081435Z AUTO 09006KT 10SM FEW065 M01/M07 A2965 RMK AO2,M
05U,2022-11-08 14:35,-116.0051,39.6042,1811.23,28.40,26.60,92.86,M,M,0.00,29.84,M,10.00,M,OVC,M,M,M,500.00,M,M,M,M,M,M,M,M,M,M,M,K05U 081435Z AUTO 10SM OVC005 M02/M03 A2984 RMK A01,M
NFL,2022-11-08 14:38,-118.7010,39.4166,1199.00,30.90,25.00,78.48,70.00,7.00,0.00,29.71,M,10.00,M,SCT,BKN,BKN,M,4000.00,9000.00,15000.00,M,M,M,M,M,M,M,M,23.44,KNFL 081438Z 07007KT 10SM SCT040 BKN090 BKN150 M01/M04 A2971 RMK AO2 T10061039,M
P68,2022-11-08 14:53,-116.0056,39.6014,1993.00,28.00,25.00,88.33,350.00,3.00,0.00,29.81,1009.90,M,M,M,M,M,M,M,M,M,M,M,M,M,M,M,M,M,24.12,KP68 081453Z AUTO 35003KT M02/M04 A2981 RMK AO1 SLP099 T10221039 58002,M
DRA,2022-11-08 14:53,-116.0278,36.6206,1009.00,50.00,40.00,68.10,260.00,5.00,T,29.80,1006.80,10.00,14.00,OVC,M,M,M,5500.00,M,M,M,-RA,M,M,M,M,M,M,50.00,KDRA 081453Z AUTO 26005G14KT 10SM -RA OVC055 10/04 A2980 RMK AO2 RAB14 SLP068 P0000 60000 T01000044 56011,M
VGT,2022-11-08 14:53,-115.1933,36.2111,667.00,56.00,36.00,47.05,0.00,0.00,0.00,29.86,1011.70,10.00,M,BKN,M,M,M,8000.00,M,M,M,M,M,M,M,M,M,M,55.90,KVGT 081453Z 00000KT 10SM BKN080 13/02 A2986 RMK AO2 SLP117 T01330022 53001 $,M
ELY,2022-11-08 14:53,-114.8453,39.2950,1909.00,39.00,24.10,54.77,190.00,19.00,0.00,29.83,1006.70,10.00,31.00,BKN,M,M,M,6000.00,M,M,M,M,M,M,M,35.00,180.00,2022-11-08 13:54,28.69,KELY 081453Z AUTO 19019G31KT 10SM BKN060 04/M04 A2983 RMK AO2 PK WND 18035/1354 SLP067 60000 T00391044 51020,M
LOL,2022-11-08 14:53,-118.5701,40.0684,1192.43,18.00,14.00,84.05,0.00,0.00,0.00,29.72,1008.90,10.00,M,CLR,M,M,M,M,M,M,M,M,M,M,M,M,M,M,18.00,KLOL 081453Z AUTO 00000KT 10SM CLR M08/M10 A2972 RMK AO2 SLP089 T10781100 58005,M
RTS,2022-11-08 14:55,-119.8764,39.6682,1539.00,30.20,19.40,63.75,120.00,7.00,0.00,29.65,M,10.00,M,CLR,M,M,M,M,M,M,M,M,M,M,M,M,M,M,22.59,KRTS 081455Z AUTO 12007KT 10SM CLR M01/M07 A2965 RMK AO2,M
CXP,2022-11-08 14:55,-119.7326,39.1923,1431.00,32.00,19.40,59.27,80.00,9.00,0.00,29.66,M,10.00,15.00,BKN,OVC,M,M,9000.00,12000.00,M,M,M,M,M,M,M,M,M,23.51,KCXP 081455Z AUTO 08009G15KT 10SM BKN090 OVC120 M00/M07 A2966 RMK AO2,M
BVU,2022-11-08 14:55,-114.8611,35.9475,671.00,57.20,39.20,50.91,110.00,9.00,0.00,29.88,M,10.00,M,FEW,FEW,M,M,5000.00,6000.00,M,M,M,M,M,M,M,M,M,57.20,KBVU 081455Z AUTO 11009KT 10SM FEW050 FEW060 14/04 A2988 RMK AO2,M
TMT,2022-11-08 14:55,-117.1971,39.4643,1749.34,18.30,16.90,94.14,0.00,0.00,0.00,29.77,M,0.25,M,OVC,M,M,M,200.00,M,M,M,FZFG,M,M,M,M,M,M,18.30,KTMT 081455Z AUTO 00000KT M1/4SM FZFG OVC002 M08/M08 A2977 RMK AO2 T10761084,M
BAM,2022-11-08 14:55,-116.8743,40.5990,1382.36,32.00,30.20,92.97,90.00,5.00,0.00,29.82,M,10.00,M,OVC,M,M,M,7500.00,M,M,M,M,M,M,M,M,M,M,26.40,KBAM 081455Z AUTO 09005KT 10SM OVC075 00/M01 A2982 RMK AO1,M
MEV,2022-11-08 14:55,-119.7500,38.9963,1441.42,30.20,23.00,74.26,350.00,7.00,0.00,29.62,M,10.00,M,FEW,FEW,M,M,9000.00,12000.00,M,M,M,M,M,M,M,M,M,22.59,KMEV 081455Z AUTO 35007KT 10SM FEW090 FEW120 M01/M05 A2962 RMK AO2,M
INS,2022-11-08 14:55,-115.6733,36.5872,955.00,52.50,31.30,44.14,130.00,12.00,0.00,29.81,1006.90,10.00,M,OVC,M,M,M,6500.00,M,M,M,M,M,M,M,M,M,M,52.50,KINS 081455Z AUTO 13012KT 10SM OVC065 11/M00 A2981 RMK AO2 SLP069 T01141004 55016 $,M
RNO,2022-11-08 14:55,-119.7711,39.4839,1341.00,36.00,19.90,51.61,80.00,9.00,0.00,29.64,1003.20,10.00,M,SCT,SCT,BKN,M,6000.00,10000.00,16000.00,M,M,M,M,M,M,M,M,28.49,KRNO 081455Z 08009KT 10SM SCT060 SCT100 BKN160 02/M07 A2964 RMK AO2 SLP032 MTN TOPS OBSCD DSNT SW T00221067 58012,M
LSV,2022-11-08 14:55,-115.0343,36.2362,570.00,57.20,37.20,47.07,10.00,6.00,0.00,29.84,1009.30,10.00,M,BKN,M,M,M,8500.00,M,M,M,M,M,M,M,M,M,M,57.20,KLSV 081455Z AUTO 01006KT 10SM BKN085 14/03 A2984 RMK AO2 SLP093 T01400029 55000 $,M
05U,2022-11-08 14:55,-116.0051,39.6042,1811.23,28.40,26.60,92.86,0.00,0.00,0.00,29.83,M,10.00,M,OVC,M,M,M,500.00,M,M,M,M,M,M,M,M,M,M,28.40,K05U 081455Z AUTO 00000KT 10SM OVC005 M02/M03 A2983 RMK A01,M
WMC,2022-11-08 14:56,-117.8072,40.9019,1315.00,28.00,25.00,88.33,70.00,9.00,0.00,29.77,1009.40,10.00,M,CLR,M,M,M,M,M,M,M,M,M,M,M,M,M,M,18.54,KWMC 081456Z AUTO 07009KT 10SM CLR M02/M04 A2977 RMK AO2 SLP094 T10221039 56002 $,M
EKO,2022-11-08 14:56,-115.7860,40.8242,1367.00,27.00,25.00,92.05,40.00,3.00,0.00,29.83,1012.40,10.00,M,FEW,M,M,M,3100.00,M,M,M,M,M,M,M,M,M,M,22.97,KEKO 081456Z AUTO 04003KT 10SM FEW031 M03/M04 A2983 RMK AO2 SLP124 60000 T10281039 51001,M
LAS,2022-11-08 14:56,-115.1634,36.0719,663.00,56.00,35.00,45.40,210.00,4.00,0.00,29.86,1010.00,10.00,M,FEW,M,M,M,8000.00,M,M,M,M,M,M,M,M,M,M,55.90,KLAS 081456Z 21004KT 10SM FEW080 13/02 A2986 RMK AO2 SLP100 T01330017 56007,M
HND,2022-11-08 14:56,-115.1344,35.9729,742.79,55.00,36.00,48.62,180.00,7.00,0.00,29.87,1012.10,10.00,M,CLR,M,M,M,M,M,M,M,M,M,M,M,M,M,M,55.00,KHND 081456Z 18007KT 10SM CLR 13/02 A2987 RMK AO2 SLP121 T01280022 58009,M
TPH,2022-11-08 14:56,-117.0904,38.0505,1654.00,36.00,27.00,69.51,130.00,7.00,0.00,29.80,1007.50,10.00,M,BKN,M,M,M,8000.00,M,M,M,M,M,M,M,M,M,M,29.65,KTPH 081456Z AUTO 13007KT 10SM BKN080 02/M03 A2980 RMK AO2 SLP075 T00221028 53001,M
NFL,2022-11-08 14:56,-118.7010,39.4166,1199.00,33.00,26.10,75.18,100.00,7.00,0.00,29.70,1003.80,10.00,M,SCT,BKN,BKN,M,4000.00,9000.00,15000.00,M,M,M,M,M,M,M,M,26.12,KNFL 081456Z 10007KT 10SM SCT040 BKN090 BKN150 01/M03 A2970 RMK AO2 SLP038 T00061033 58004,M
RTS,2022-11-08 15:15,-119.8764,39.6682,1539.00,32.00,19.40,59.27,100.00,10.00,0.00,29.64,M,10.00,M,FEW,M,M,M,6000.00,M,M,M,M,M,M,M,M,M,M,22.97,KRTS 081515Z AUTO 10010KT 10SM FEW060 M00/M07 A2964 RMK AO2,M
BVU,2022-11-08 15:15,-114.8611,35.9475,671.00,57.20,44.60,62.69,110.00,7.00,0.00,29.88,M,10.00,M,FEW,M,M,M,5000.00,M,M,M,M,M,M,M,M,M,M,57.20,KBVU 081515Z AUTO 11007KT 10SM FEW050 14/07 A2988 RMK AO2,M
CXP,2022-11-08 15:15,-119.7326,39.1923,1431.00,32.00,19.40,59.27,70.00,8.00,0.00,29.65,M,10.00,13.00,OVC,M,M,M,8000.00,M,M,M,M,M,M,M,M,M,M,24.11,KCXP 081515Z AUTO 07008G13KT 020V090 10SM OVC080 00/M07 A2965 RMK AO2,M
05U,2022-11-08 15:15,-116.0051,39.6042,1811.23,28.40,26.60,92.86,350.00,4.00,0.00,29.82,M,10.00,M,OVC,M,M,M,500.00,M,M,M,M,M,M,M,M,M,M,23.22,K05U 081515Z AUTO 35004KT 10SM OVC005 M02/M03 A2982 RMK A01,M
MEV,2022-11-08 15:15,-119.7500,38.9963,1441.42,30.20,24.80,80.07,360.00,6.00,0.00,29.62,M,10.00,M,FEW,SCT,SCT,M,5500.00,6500.00,8000.00,M,M,M,M,M,M,M,M,23.36,KMEV 081515Z AUTO 36006KT 10SM FEW055 SCT065 SCT080 M01/M04 A2962 RMK AO2,M
BAM,2022-11-08 15:15,-116.8743,40.5990,1382.36,32.00,30.20,92.97,80.00,7.00,0.00,29.83,M,10.00,M,OVC,M,M,M,7500.00,M,M,M,M,M,M,M,M,M,M,24.78,KBAM 081515Z AUTO 08007KT 10SM OVC075 00/M01 A2983 RMK AO1,M
TMT,2022-11-08 15:15,-117.1971,39.4643,1749.34,15.10,13.30,92.42,0.00,0.00,0.00,29.77,M,0.25,M,OVC,M,M,M,200.00,M,M,M,FZFG,M,M,M,M,M,M,15.10,KTMT 081515Z AUTO 00000KT 1/4SM FZFG OVC002 M09/M10 A2977 RMK AO2 T10941104,M
05U,2022-11-08 15:35,-116.0051,39.6042,1811.23,28.40,26.60,92.86,360.00,3.00,0.00,29.83,M,10.00,M,BKN,OVC,M,M,500.00,2800.00,M,M,M,M,M,M,M,M,M,24.57,K05U 081535Z AUTO 36003KT 10SM BKN005 OVC028 M02/M03 A2983 RMK A01,M
MEV,2022-11-08 15:35,-119.7500,38.9963,1441.42,32.00,21.20,63.99,340.00,10.00,0.00,29.62,M,10.00,M,FEW,BKN,OVC,M,4500.00,5000.00,8000.00,M,M,M,M,M,M,M,M,22.97,KMEV 081535Z AUTO 34010KT 10SM FEW045 BKN050 OVC080 M00/M06 A2962 RMK AO2,M
BAM,2022-11-08 15:35,-116.8743,40.5990,1382.36,32.00,28.40,86.39,80.00,6.00,0.00,29.83,M,10.00,M,SCT,M,M,M,7500.00,M,M,M,M,M,M,M,M,M,M,25.53,KBAM 081535Z AUTO 08006KT 10SM SCT075 00/M02 A2983 RMK AO1,M
TMT,2022-11-08 15:35,-117.1971,39.4643,1749.34,14.40,12.40,91.58,0.00,0.00,0.00,29.77,M,0.25,M,OVC,M,M,M,200.00,M,M,M,FZFG,M,M,M,M,M,M,14.40,KTMT 081535Z AUTO 00000KT 1/4SM FZFG OVC002 M10/M11 A2977 RMK AO2 T10981109,M
BVU,2022-11-08 15:35,-114.8611,35.9475,671.00,59.00,44.60,58.77,130.00,8.00,0.00,29.88,M,10.00,M,CLR,M,M,M,M,M,M,M,M,M,M,M,M,M,M,59.00,KBVU 081535Z AUTO 13008KT 10SM CLR 15/07 A2988 RMK AO2,M
CXP,2022-11-08 15:35,-119.7326,39.1923,1431.00,32.00,19.40,59.27,80.00,10.00,0.00,29.65,M,10.00,M,SCT,BKN,OVC,M,5000.00,6500.00,8500.00,M,M,M,M,M,M,M,M,22.97,KCXP 081535Z AUTO 08010KT 10SM SCT050 BKN065 OVC085 00/M07 A2965 RMK AO2,M
RTS,2022-11-08 15:35,-119.8764,39.6682,1539.00,32.00,19.40,59.27,110.00,10.00,0.00,29.63,M,10.00,M,BKN,M,M,M,6000.00,M,M,M,M,M,M,M,M,M,M,22.97,KRTS 081535Z AUTO 11010KT 10SM BKN060 M00/M07 A2963 RMK AO2,M
LOL,2022-11-08 15:53,-118.5701,40.0684,1192.43,30.90,21.90,68.91,20.00,8.00,0.00,29.70,1007.00,10.00,M,FEW,M,M,M,12000.00,M,M,M,M,M,M,M,M,M,M,22.76,KLOL 081553Z AUTO 02008KT 10SM FEW120 M01/M06 A2970 RMK AO2 SLP070 T10061056,M
ELY,2022-11-08 15:53,-114.8453,39.2950,1909.00,40.00,27.00,59.65,170.00,14.00,0.00,29.83,1006.90,10.00,22.00,BKN,OVC,M,M,4900.00,6000.00,M,M,M,M,M,M,30.00,180.00,2022-11-08 14:56,31.35,KELY 081553Z AUTO 17014G22KT 10SM BKN049 OVC060 04/M03 A2983 RMK AO2 PK WND 18030/1456 SLP069 T00441028,M
P68,2022-11-08 15:53,-116.0056,39.6014,1993.00,30.00,25.00,81.40,40.00,5.00,0.00,29.80,1009.30,M,M,M,M,M,M,M,M,M,M,M,M,M,M,M,M,M,24.02,KP68 081553Z AUTO 04005KT M01/M04 A2980 RMK AO1 SLP093 T10111039,M
VGT,2022-11-08 15:53,-115.1933,36.2111,667.00,60.00,36.00,40.46,120.00,4.00,0.00,29.87,1011.70,10.00,M,BKN,M,M,M,8500.00,M,M,M,M,M,M,M,M,M,M,60.10,KVGT 081553Z 12004KT 10SM BKN085 16/02 A2987 RMK AO2 SLP117 T01560022 $,M
DRA,2022-11-08 15:53,-116.0278,36.6206,1009.00,52.00,38.00,58.48,0.00,0.00,0.01,29.79,1006.40,10.00,M,BKN,M,M,M,5500.00,M,M,M,M,M,M,M,M,M,M,52.00,KDRA 081553Z AUTO 00000KT 10SM BKN055 11/03 A2979 RMK AO2 RAE28 SLP064 P0001 T01110033,M
05U,2022-11-08 15:55,-116.0051,39.6042,1811.23,30.20,26.60,86.28,40.00,5.00,0.00,29.83,M,10.00,M,FEW,SCT,SCT,M,500.00,2800.00,3500.00,M,M,M,M,M,M,M,M,24.26,K05U 081555Z AUTO 04005KT 10SM FEW005 SCT028 SCT035 M01/M03 A2983 RMK A01,M
LSV,2022-11-08 15:55,-115.0343,36.2362,570.00,60.60,37.40,42.01,80.00,6.00,0.00,29.85,1009.60,10.00,M,FEW,SCT,M,M,8500.00,14000.00,M,M,M,M,M,M,M,M,M,60.60,KLSV 081555Z AUTO 08006KT 10SM FEW085 SCT140 16/03 A2985 RMK AO2 SLP096 T01590030 $,M
INS,2022-11-08 15:55,-115.6733,36.5872,955.00,53.40,32.50,44.82,120.00,21.00,0.00,29.79,1006.20,10.00,27.00,OVC,M,M,M,7000.00,M,M,M,M,M,M,M,35.00,120.00,2022-11-08 15:51,53.40,KINS 081555Z AUTO 12021G27KT 10SM OVC070 12/00 A2979 RMK AO2 PK WND 12035/51 SLP062 T01190003 $,M
TMT,2022-11-08 15:55,-117.1971,39.4643,1749.34,14.40,12.40,91.58,0.00,0.00,0.00,29.78,M,0.25,M,OVC,M,M,M,200.00,M,M,M,FZFG,M,M,M,M,M,M,14.40,KTMT 081555Z AUTO 00000KT M1/4SM FZFG OVC002 M10/M11 A2978 RMK AO2 T10981109,M
BAM,2022-11-08 15:55,-116.8743,40.5990,1382.36,32.00,30.20,92.97,70.00,8.00,0.00,29.81,M,10.00,M,CLR,M,M,M,M,M,M,M,M,M,M,M,M,M,M,24.11,KBAM 081555Z AUTO 07008KT 10SM CLR 00/M01 A2981 RMK AO1,M
MEV,2022-11-08 15:55,-119.7500,38.9963,1441.42,32.00,21.20,63.99,350.00,12.00,0.00,29.62,M,10.00,M,BKN,OVC,M,M,4700.00,5500.00,M,M,M,M,M,M,M,M,M,22.00,KMEV 081555Z AUTO 35012KT 10SM BKN047 OVC055 00/M06 A2962 RMK AO2,M
RTS,2022-11-08 15:55,-119.8764,39.6682,1539.00,32.00,21.20,63.99,120.00,8.00,0.00,29.63,M,10.00,M,FEW,BKN,BKN,M,4700.00,6000.00,6500.00,M,M,M,M,M,M,M,M,24.11,KRTS 081555Z AUTO 12008KT 10SM FEW047 BKN060 BKN065 00/M06 A2963 RMK AO2,M
RNO,2022-11-08 15:55,-119.7711,39.4839,1341.00,37.00,21.00,51.99,130.00,7.00,0.00,29.64,1003.20,10.00,M,BKN,OVC,M,M,4500.00,8000.00,M,M,M,M,M,M,M,M,M,30.87,KRNO 081555Z 13007KT 10SM BKN045 OVC080 03/M06 A2964 RMK AO2 SLP032 MTN TOPS OBSCD SW THRU NW T00281061,M
CXP,2022-11-08 15:55,-119.7326,39.1923,1431.00,32.00,21.20,63.99,80.00,8.00,0.00,29.65,M,10.00,M,BKN,OVC,M,M,5000.00,6000.00,M,M,M,M,M,M,M,M,M,24.11,KCXP 081555Z AUTO 08008KT 10SM BKN050 OVC060 00/M06 A2965 RMK AO2,M
BVU,2022-11-08 15:55,-114.8611,35.9475,671.00,59.00,41.00,51.18,230.00,5.00,0.00,29.88,M,10.00,M,CLR,M,M,M,M,M,M,M,M,M,M,M,M,M,M,59.00,KBVU 081555Z AUTO 23005KT 10SM CLR 15/05 A2988 RMK AO2,M
TPH,2022-11-08 15:56,-117.0904,38.0505,1654.00,38.00,28.00,67.20,170.00,9.00,0.00,29.76,1006.20,10.00,M,SCT,BKN,OVC,M,2400.00,5000.00,7000.00,M,M,M,M,M,M,M,M,30.85,KTPH 081556Z AUTO 17009KT 10SM SCT024 BKN050 OVC070 03/M02 A2976 RMK AO2 SLP062 T00331022,M
EKO,2022-11-08 15:56,-115.7860,40.8242,1367.00,28.00,24.10,85.08,90.00,4.00,0.00,29.83,1012.30,10.00,M,OVC,M,M,M,5000.00,M,M,M,M,T,M,M,M,M,M,22.75,KEKO 081556Z AUTO 09004KT 10SM OVC050 M02/M04 A2983 RMK AO2 SLP123 I1000 T10221044,M
NFL,2022-11-08 15:56,-118.7010,39.4166,1199.00,30.90,23.00,72.18,M,4.00,0.00,29.67,1002.90,10.00,M,SCT,BKN,M,M,10000.00,16000.00,M,M,M,M,M,M,M,M,M,26.14,KNFL 081556Z VRB04KT 10SM SCT100 BKN160 M01/M05 A2967 RMK AO2 SLP029 T10061050,M
WMC,2022-11-08 15:56,-117.8072,40.9019,1315.00,33.00,27.00,78.03,50.00,9.00,0.00,29.76,1008.80,10.00,M,CLR,M,M,M,M,M,M,M,M,M,M,M,M,M,M,24.88,KWMC 081556Z AUTO 05009KT 10SM CLR 01/M03 A2976 RMK AO2 SLP088 T00061028 $,M
HND,2022-11-08 15:56,-115.1344,35.9729,742.79,58.00,42.00,55.55,180.00,11.00,0.00,29.89,1012.60,10.00,M,CLR,M,M,M,M,M,M,M,M,M,M,M,M,M,M,57.90,KHND 081556Z 18011KT 10SM CLR 14/06 A2989 RMK AO2 SLP126 T01440056,M
LAS,2022-11-08 15:56,-115.1634,36.0719,663.00,59.00,39.00,47.35,170.00,5.00,0.00,29.88,1010.60,10.00,M,FEW,SCT,M,M,8000.00,13000.00,M,M,M,M,M,M,M,M,M,59.00,KLAS 081556Z 17005KT 10SM FEW080 SCT130 15/04 A2988 RMK AO2 SLP106 T01500039,M
CXP,2022-11-08 16:10,-119.7326,39.1923,1431.00,32.00,21.20,63.99,70.00,11.00,0.00,29.65,M,10.00,M,BKN,OVC,M,M,5000.00,6000.00,M,M,M,M,M,M,M,M,M,22.47,KCXP 081610Z AUTO 07011KT 10SM BKN050 OVC060 00/M06 A2965 RMK AO2,M
TPH,2022-11-08 16:12,-117.0904,38.0505,1654.00,39.00,28.00,64.37,160.00,14.00,0.00,29.77,M,10.00,M,BKN,OVC,M,M,2400.00,5000.00,M,M,M,M,M,M,M,M,M,30.19,KTPH 081612Z AUTO 16014KT 10SM BKN024 OVC050 04/M02 A2977 RMK AO2 T00391022,M
MEV,2022-11-08 16:15,-119.7500,38.9963,1441.42,32.00,21.20,63.99,360.00,9.00,0.00,29.62,M,10.00,M,FEW,FEW,M,M,4300.00,5000.00,M,M,M,M,M,M,M,M,M,23.51,KMEV 081615Z AUTO 36009KT 10SM FEW043 FEW050 00/M06 A2962 RMK AO2 LTG DSNT NW,M
BAM,2022-11-08 16:15,-116.8743,40.5990,1382.36,32.00,30.20,92.97,90.00,7.00,0.00,29.81,M,10.00,M,CLR,M,M,M,M,M,M,M,M,M,M,M,M,M,M,24.78,KBAM 081615Z AUTO 09007KT 10SM CLR 00/M01 A2981 RMK AO1,M
TMT,2022-11-08 16:15,-117.1971,39.4643,1749.34,16.30,14.50,92.46,0.00,0.00,0.00,29.76,M,0.25,M,OVC,M,M,M,200.00,M,M,M,FZFG,M,M,M,M,M,M,16.30,KTMT 081615Z AUTO 00000KT M1/4SM FZFG OVC002 M09/M10 A2976 RMK AO2 T10871097,M
RTS,2022-11-08 16:15,-119.8764,39.6682,1539.00,32.00,21.20,63.99,120.00,7.00,0.00,29.64,M,10.00,M,FEW,BKN,M,M,4600.00,6000.00,M,M,M,M,M,M,M,M,M,24.78,KRTS 081615Z AUTO 12007KT 10SM FEW046 BKN060 00/M06 A2964 RMK AO2,M
05U,2022-11-08 16:15,-116.0051,39.6042,1811.23,33.80,28.40,80.36,40.00,5.00,0.00,29.83,M,10.00,M,CLR,M,M,M,M,M,M,M,M,M,M,M,M,M,M,28.53,K05U 081615Z AUTO 04005KT 10SM CLR 01/M02 A2983 RMK A01,M
BVU,2022-11-08 16:15,-114.8611,35.9475,671.00,60.80,41.00,48.00,M,5.00,0.00,29.88,M,10.00,M,CLR,M,M,M,M,M,M,M,M,M,M,M,M,M,M,60.80,KBVU 081615Z AUTO VRB05KT 10SM CLR 16/05 A2988 RMK AO2,M
INS,2022-11-08 16:32,-115.6733,36.5872,955.00,53.60,33.80,46.88,120.00,19.00,0.00,29.79,1006.20,10.00,24.00,SCT,BKN,OVC,M,5000.00,6000.00,8000.00,M,-DZ,M,M,M,M,M,M,53.60,KINS 081632Z AUTO 12019G24KT 10SM -DZ SCT050 BKN060 OVC080 12/01 A2979 RMK AO2 DZB32 SLP062 $,M
BAM,2022-11-08 16:35,-116.8743,40.5990,1382.36,33.80,30.20,86.49,80.00,6.00,0.00,29.80,M,10.00,M,CLR,M,M,M,M,M,M,M,M,M,M,M,M,M,M,27.70,KBAM 081635Z AUTO 08006KT 10SM CLR 01/M01 A2980 RMK AO1,M
BVU,2022-11-08 16:35,-114.8611,35.9475,671.00,62.60,42.80,48.28,180.00,13.00,0.00,29.88,M,10.00,18.00,FEW,FEW,M,M,4400.00,5000.00,M,M,M,M,M,M,M,M,M,62.60,KBVU 081635Z AUTO 18013G18KT 10SM FEW044 FEW050 17/06 A2988 RMK AO2,M
CXP,2022-11-08 16:35,-119.7326,39.1923,1431.00,32.00,23.00,69.04,70.00,6.00,0.00,29.64,M,10.00,M,FEW,BKN,BKN,M,3900.00,4900.00,6000.00,M,M,M,M,M,M,M,M,25.53,KCXP 081635Z AUTO 07006KT 10SM FEW039 BKN049 BKN060 M00/M05 A2964 RMK AO2,M
RTS,2022-11-08 16:35,-119.8764,39.6682,1539.00,32.00,21.20,63.99,110.00,9.00,0.00,29.62,M,10.00,M,FEW,FEW,SCT,M,1800.00,2500.00,3200.00,M,M,M,M,M,M,M,M,23.51,KRTS 081635Z AUTO 11009KT 10SM FEW018 FEW025 SCT032 00/M06 A2962 RMK AO2,M
05U,2022-11-08 16:35,-116.0051,39.6042,1811.23,33.80,26.60,74.63,330.00,3.00,0.00,29.82,M,10.00,M,FEW,FEW,FEW,M,2800.00,3600.00,4700.00,M,M,M,M,M,M,M,M,30.75,K05U 081635Z AUTO 33003KT 10SM FEW028 FEW036 FEW047 01/M03 A2982 RMK A01,M
MEV,2022-11-08 16:35,-119.7500,38.9963,1441.42,32.00,21.20,63.99,330.00,9.00,0.00,29.61,M,10.00,M,FEW,SCT,BKN,M,2600.00,3100.00,3700.00,M,M,M,M,M,M,M,M,23.51,KMEV 081635Z AUTO 33009KT 10SM FEW026 SCT031 BKN037 00/M06 A2961 RMK AO2,M
TMT,2022-11-08 16:35,-117.1971,39.4643,1749.34,17.40,15.80,93.31,0.00,0.00,0.00,29.75,M,0.25,M,OVC,M,M,M,200.00,M,M,M,FZFG,M,M,M,M,M,M,17.40,KTMT 081635Z AUTO 00000KT M1/4SM FZFG OVC002 M08/M09 A2975 RMK AO2 T10811090,M
EKO,2022-11-08 16:50,-115.7860,40.8242,1367.00,30.20,26.60,86.28,50.00,5.00,T,29.83,M,2.50,M,BKN,OVC,M,M,2900.00,4700.00,M,M,-SN BR,M,M,M,M,M,M,24.26,KEKO 081650Z AUTO 05005KT 2 1/2SM -SN BR BKN029 OVC047 M01/M03 A2983 RMK AO2 SNB18 P0000,M
EKO,2022-11-08 16:51,-115.7860,40.8242,1367.00,30.90,27.00,85.26,60.00,5.00,T,29.83,1011.70,2.50,M,BKN,OVC,M,M,2900.00,4700.00,M,M,-SN BR,M,M,M,M,M,M,25.09,KEKO 081651Z AUTO 06005KT 2 1/2SM -SN BR BKN029 OVC047 M01/M03 A2983 RMK AO2 SNB18 SLP117 P0000 T10061028,M
VGT,2022-11-08 16:53,-115.1933,36.2111,667.00,61.00,38.00,42.24,110.00,6.00,0.00,29.85,1011.10,10.00,M,FEW,OVC,M,M,4300.00,11000.00,M,M,M,M,M,M,M,M,M,61.00,KVGT 081653Z 11006KT 10SM FEW043 OVC110 16/03 A2985 RMK AO2 SLP111 T01610033,M
P68,2022-11-08 16:53,-116.0056,39.6014,1993.00,35.00,28.00,75.06,10.00,4.00,0.00,29.77,1007.90,M,M,M,M,M,M,M,M,M,M,M,M,M,M,M,M,M,31.04,KP68 081653Z AUTO 01004KT 02/M02 A2977 RMK AO1 SLP079 T00171022,M
DRA,2022-11-08 16:53,-116.0278,36.6206,1009.00,49.00,42.00,77.26,230.00,8.00,0.01,29.82,1007.50,8.00,M,BKN,OVC,M,M,4800.00,6000.00,M,M,-RA,M,M,M,M,M,M,44.93,KDRA 081653Z AUTO 23008KT 8SM -RA BKN048 OVC060 09/06 A2982 RMK AO2 RAB18 SLP075 P0001 T00940056,M
LOL,2022-11-08 16:53,-118.5701,40.0684,1192.43,35.00,21.90,58.22,20.00,8.00,0.00,29.66,1005.50,10.00,M,OVC,M,M,M,10000.00,M,M,M,M,M,M,M,M,M,M,27.93,KLOL 081653Z AUTO 02008KT 10SM OVC100 02/M06 A2966 RMK AO2 SLP055 T00171056,M
ELY,2022-11-08 16:53,-114.8453,39.2950,1909.00,41.00,25.00,52.61,190.00,20.00,0.00,29.82,1005.90,10.00,28.00,FEW,BKN,M,M,5500.00,7500.00,M,M,M,M,M,M,32.00,170.00,2022-11-08 16:15,31.09,KELY 081653Z AUTO 19020G28KT 10SM FEW055 BKN075 05/M04 A2982 RMK AO2 PK WND 17032/1615 SLP059 T00501039,M
MEV,2022-11-08 16:55,-119.7500,38.9963,1441.42,33.80,21.20,59.53,310.00,8.00,0.00,29.61,M,10.00,M,BKN,BKN,OVC,M,2500.00,3000.00,3600.00,M,M,M,M,M,M,M,M,26.33,KMEV 081655Z AUTO 31008KT 10SM BKN025 BKN030 OVC036 01/M06 A2961 RMK AO2,M
05U,2022-11-08 16:55,-116.0051,39.6042,1811.23,35.60,28.40,74.80,0.00,0.00,0.02,29.80,M,10.00,M,FEW,FEW,FEW,M,3100.00,3900.00,4700.00,M,M,M,M,M,M,M,M,35.60,K05U 081655Z AUTO 00000KT 10SM FEW031 FEW039 FEW047 02/M02 A2980 RMK A01 P0002,M
CXP,2022-11-08 16:55,-119.7326,39.1923,1431.00,32.00,23.00,69.04,90.00,11.00,0.00,29.64,M,10.00,M,BKN,BKN,OVC,M,3900.00,4600.00,5000.00,M,M,M,M,M,M,M,M,22.47,KCXP 081655Z AUTO 09011KT 10SM BKN039 BKN046 OVC050 00/M05 A2964 RMK AO2,M
TMT,2022-11-08 16:55,-117.1971,39.4643,1749.34,17.60,16.00,93.31,0.00,0.00,0.00,29.74,M,0.25,M,OVC,M,M,M,200.00,M,M,M,FZFG,M,M,M,M,M,M,17.60,KTMT 081655Z AUTO 00000KT M1/4SM FZFG OVC002 M08/M09 A2974 RMK AO2 T10801089,M
BVU,2022-11-08 16:55,-114.8611,35.9475,671.00,62.60,44.60,51.72,160.00,17.00,0.00,29.86,M,10.00,M,BKN,BKN,M,M,4400.00,5000.00,M,M,M,M,M,M,M,M,M,62.60,KBVU 081655Z AUTO 16017KT 10SM BKN044 BKN050 17/07 A2986 RMK AO2,M
RNO,2022-11-08 16:55,-119.7711,39.4839,1341.00,37.00,23.00,56.57,90.00,9.00,0.00,29.61,1002.30,10.00,M,BKN,OVC,M,M,5000.00,8500.00,M,M,M,M,M,M,M,M,M,29.73,KRNO 081655Z 09009KT 10SM BKN050 OVC085 03/M05 A2961 RMK AO2 SLP023 MTN TOPS OBSCD SW THRU NW T00281050,M
INS,2022-11-08 16:55,-115.6733,36.5872,955.00,53.80,37.00,52.84,130.00,17.00,T,29.79,1006.20,10.00,28.00,SCT,OVC,M,M,5000.00,6500.00,M,M,-DZ,M,M,M,35.00,120.00,2022-11-08 15:58,53.80,KINS 081655Z AUTO 13017G28KT 10SM -DZ SCT050 OVC065 12/03 A2979 RMK AO2 PK WND 12035/1558 DZB32E35RAB35E50DZB50 SLP062 P0000 T01210028 $,M
RTS,2022-11-08 16:55,-119.8764,39.6682,1539.00,33.80,21.20,59.53,100.00,8.00,0.00,29.61,M,10.00,M,SCT,BKN,BKN,M,2200.00,2700.00,3200.00,M,M,M,M,M,M,M,M,26.33,KRTS 081655Z AUTO 10008KT 10SM SCT022 BKN027 BKN032 01/M06 A2961 RMK AO2,M
BAM,2022-11-08 16:55,-116.8743,40.5990,1382.36,32.00,30.20,92.97,60.00,7.00,0.00,29.80,M,10.00,M,CLR,M,M,M,M,M,M,M,M,M,M,M,M,M,M,24.78,KBAM 081655Z AUTO 06007KT 10SM CLR 00/M01 A2980 RMK AO1,M
LSV,2022-11-08 16:55,-115.0343,36.2362,570.00,61.70,42.30,48.89,120.00,3.00,0.00,29.83,1008.90,10.00,M,FEW,M,M,M,13000.00,M,M,M,M,M,M,M,M,M,M,61.70,KLSV 081655Z AUTO 12003KT 10SM FEW130 17/06 A2983 RMK AO2 SLP089 T01650057 $,M
TPH,2022-11-08 16:56,-117.0904,38.0505,1654.00,38.00,35.00,89.53,170.00,19.00,T,29.76,1006.10,7.00,26.00,BKN,OVC,M,M,1800.00,2400.00,M,M,-RA,M,M,M,28.00,170.00,2022-11-08 16:44,27.24,KTPH 081656Z AUTO 17019G26KT 7SM -RA BKN018 OVC024 03/02 A2976 RMK AO2 PK WND 17028/1644 RAB38 SLP061 P0000 T00330017,M
WMC,2022-11-08 16:56,-117.8072,40.9019,1315.00,35.00,28.00,75.06,40.00,18.00,0.00,29.73,1007.20,10.00,25.00,CLR,M,M,M,M,M,M,M,M,M,M,M,M,M,M,23.83,KWMC 081656Z AUTO 04018G25KT 10SM CLR 02/M02 A2973 RMK AO2 SLP072 T00171022,M
NFL,2022-11-08 16:56,-118.7010,39.4166,1199.00,40.00,28.00,62.15,120.00,10.00,0.00,29.64,1002.00,10.00,M,SCT,BKN,BKN,M,7000.00,11000.00,15000.00,M,M,M,M,M,M,M,M,32.87,KNFL 081656Z 12010KT 10SM SCT070 BKN110 BKN150 04/M02 A2964 RMK AO2 SLP020 T00441022,M
LAS,2022-11-08 16:56,-115.1634,36.0719,663.00,60.00,42.00,51.35,150.00,11.00,0.00,29.86,1009.90,10.00,15.00,FEW,BKN,M,M,8000.00,11000.00,M,M,M,M,M,M,M,M,M,60.10,KLAS 081656Z 15011G15KT 10SM FEW080 BKN110 16/06 A2986 RMK AO2 SLP099 T01560056,M
HND,2022-11-08 16:56,-115.1344,35.9729,742.79,60.00,44.00,55.44,170.00,15.00,0.00,29.86,1011.80,10.00,20.00,OVC,M,M,M,11000.00,M,M,M,M,M,M,M,M,M,M,60.10,KHND 081656Z 17015G20KT 10SM OVC110 16/07 A2986 RMK AO2 SLP118 T01560067,M
INS,2022-11-08 17:00,-115.6733,36.5872,955.00,53.60,37.40,54.07,130.00,20.00,0.00,29.79,1006.20,10.00,25.00,FEW,OVC,M,M,5000.00,6500.00,M,M,M,M,M,M,M,M,M,53.60,KINS 081700Z AUTO 13020G25KT 10SM FEW050 OVC065 12/03 A2979 RMK AO2 DZE00 SLP062 $,M
EKO,2022-11-08 17:02,-115.7860,40.8242,1367.00,30.90,27.00,85.26,50.00,8.00,T,29.82,M,2.50,M,BKN,BKN,OVC,M,3100.00,4900.00,6000.00,M,-SN BR,M,M,M,M,M,M,22.76,KEKO 081702Z AUTO 05008KT 2 1/2SM -SN BR BKN031 BKN049 OVC060 M01/M03 A2982 RMK AO2 P0000 T10061028,M
TPH,2022-11-08 17:07,-117.0904,38.0505,1654.00,38.00,36.00,92.78,160.00,13.00,T,29.75,M,7.00,M,FEW,BKN,OVC,M,800.00,1500.00,2200.00,M,-RA,M,M,M,M,M,M,29.13,KTPH 081707Z AUTO 16013KT 7SM -RA FEW008 BKN015 OVC022 03/02 A2975 RMK AO2 P0000 T00330022,M
EKO,2022-11-08 17:11,-115.7860,40.8242,1367.00,30.90,27.00,85.26,30.00,6.00,T,29.82,M,6.00,M,SCT,OVC,M,M,3000.00,4900.00,M,M,-SN BR,M,M,M,M,M,M,24.21,KEKO 081711Z AUTO 03006KT 6SM -SN BR SCT030 OVC049 M01/M03 A2982 RMK AO2 P0000 T10061028,M
TMT,2022-11-08 17:15,-117.1971,39.4643,1749.34,18.90,17.40,93.76,0.00,0.00,0.00,29.72,M,0.75,M,OVC,M,M,M,200.00,M,M,M,BR,M,M,M,M,M,M,18.90,KTMT 081715Z AUTO 00000KT 3/4SM BR OVC002 M07/M08 A2972 RMK AO2 T10731081,M
BVU,2022-11-08 17:15,-114.8611,35.9475,671.00,64.40,42.80,45.32,170.00,16.00,0.00,29.86,M,10.00,22.00,SCT,BKN,BKN,M,4400.00,7000.00,9500.00,M,M,M,M,M,M,M,M,64.40,KBVU 081715Z AUTO 17016G22KT 10SM SCT044 BKN070 BKN095 18/06 A2986 RMK AO2,M
CXP,2022-11-08 17:15,-119.7326,39.1923,1431.00,33.80,23.00,64.23,50.00,3.00,0.00,29.64,M,10.00,10.00,BKN,BKN,OVC,M,2200.00,3200.00,4000.00,M,M,M,M,M,M,M,M,30.75,KCXP 081715Z AUTO 05003G10KT 10SM BKN022 BKN032 OVC040 01/M05 A2964 RMK AO2,M
RTS,2022-11-08 17:15,-119.8764,39.6682,1539.00,33.80,21.20,59.53,130.00,12.00,0.00,29.60,M,10.00,M,OVC,M,M,M,2400.00,M,M,M,M,M,M,M,M,M,M,24.29,KRTS 081715Z AUTO 13012KT 10SM OVC024 01/M06 A2960 RMK AO2,M
05U,2022-11-08 17:15,-116.0051,39.6042,1811.23,39.20,28.40,64.93,0.00,0.00,0.00,29.79,M,10.00,M,SCT,M,M,M,3500.00,M,M,M,M,M,M,M,M,M,M,39.20,K05U 081715Z AUTO 00000KT 10SM SCT035 04/M02 A2979 RMK A01,M
MEV,2022-11-08 17:15,-119.7500,38.9963,1441.42,32.00,24.80,74.44,340.00,10.00,0.00,29.62,M,1.25,M,SCT,SCT,BKN,M,300.00,1700.00,2500.00,M,-SN HZ,M,M,M,M,M,M,22.97,KMEV 081715Z AUTO 34010KT 1 1/4SM -SN HZ SCT003 SCT017 BKN025 M00/M04 A2962 RMK AO2,M
BAM,2022-11-08 17:15,-116.8743,40.5990,1382.36,33.80,30.20,86.49,80.00,6.00,0.00,29.79,M,10.00,M,CLR,M,M,M,M,M,M,M,M,M,M,M,M,M,M,27.70,KBAM 081715Z AUTO 08006KT 10SM CLR 01/M01 A2979 RMK AO1,M
TPH,2022-11-08 17:17,-117.0904,38.0505,1654.00,37.00,36.00,96.13,160.00,12.00,T,29.76,M,10.00,M,BKN,BKN,OVC,M,800.00,1300.00,2100.00,M,M,M,M,M,M,M,M,28.37,KTPH 081717Z AUTO 16012KT 10SM BKN008 BKN013 OVC021 03/02 A2976 RMK AO2 RAE16 P0000 T00280022,M
BAM,2022-11-08 17:35,-116.8743,40.5990,1382.36,35.60,32.00,86.59,70.00,6.00,0.00,29.77,M,10.00,M,BKN,BKN,M,M,6000.00,7000.00,M,M,M,M,M,M,M,M,M,29.87,KBAM 081735Z AUTO 07006KT 10SM BKN060 BKN070 02/00 A2977 RMK AO1,M
RNO,2022-11-08 17:35,-119.7711,39.4839,1341.00,37.00,23.00,56.57,0.00,0.00,T,29.60,M,10.00,M,BKN,OVC,M,M,3500.00,5500.00,M,M,-SN,M,M,M,M,M,M,37.00,KRNO 081735Z 00000KT 10SM -SN BKN035 OVC055 03/M05 A2960 RMK AO2 SNB35 P0000 T00281050,M
MEV,2022-11-08 17:35,-119.7500,38.9963,1441.42,30.20,26.60,86.28,330.00,10.00,0.00,29.60,M,0.25,M,OVC,M,M,M,300.00,M,M,M,SN FZFG,M,M,M,M,M,M,20.71,KMEV 081735Z AUTO 33010KT 1/4SM SN FZFG OVC003 M01/M03 A2960 RMK AO2,M
TMT,2022-11-08 17:35,-117.1971,39.4643,1749.34,19.80,18.30,93.78,0.00,0.00,0.00,29.72,M,2.50,M,OVC,M,M,M,200.00,M,M,M,BR,M,M,M,M,M,M,19.80,KTMT 081735Z AUTO 00000KT 2 1/2SM BR OVC002 M07/M08 A2972 RMK AO2 VIS 1 1/2V4 T10681076,M
RTS,2022-11-08 17:35,-119.8764,39.6682,1539.00,33.80,21.20,59.53,120.00,14.00,0.00,29.61,M,10.00,M,FEW,BKN,M,M,1800.00,2500.00,M,M,M,M,M,M,M,M,M,23.48,KRTS 081735Z AUTO 12014KT 10SM FEW018 BKN025 01/M06 A2961 RMK AO2,M
BVU,2022-11-08 17:35,-114.8611,35.9475,671.00,64.40,42.80,45.32,150.00,15.00,0.00,29.85,M,10.00,23.00,FEW,FEW,FEW,M,7000.00,9000.00,11000.00,M,M,M,M,M,M,M,M,64.40,KBVU 081735Z AUTO 15015G23KT 10SM FEW070 FEW090 FEW110 18/06 A2985 RMK AO2,M
CXP,2022-11-08 17:35,-119.7326,39.1923,1431.00,33.80,23.00,64.23,60.00,8.00,0.00,29.63,M,10.00,M,BKN,BKN,BKN,M,1800.00,2400.00,3100.00,M,UP,M,M,M,M,M,M,26.33,KCXP 081735Z AUTO 06008KT 10SM UP BKN018 BKN024 BKN031 01/M05 A2963 RMK AO2,M
05U,2022-11-08 17:35,-116.0051,39.6042,1811.23,39.20,26.60,60.29,M,3.00,0.00,29.78,M,10.00,M,FEW,FEW,M,M,3400.00,4500.00,M,M,M,M,M,M,M,M,M,36.92,K05U 081735Z AUTO VRB03KT 10SM FEW034 FEW045 04/M03 A2978 RMK A01,M
CXP,2022-11-08 17:50,-119.7326,39.1923,1431.00,32.00,26.60,80.22,300.00,6.00,0.00,29.62,M,0.75,M,BKN,BKN,OVC,M,300.00,1000.00,1800.00,M,-SN HZ,M,M,M,M,M,M,25.53,KCXP 081750Z AUTO 30006KT 3/4SM -SN HZ BKN003 BKN010 OVC018 M00/M03 A2962 RMK AO2,M
TPH,2022-11-08 17:52,-117.0904,38.0505,1654.00,37.40,35.60,93.14,150.00,10.00,T,29.73,M,10.00,M,FEW,OVC,M,M,700.00,1400.00,M,M,M,M,M,M,M,M,M,29.74,KTPH 081752Z AUTO 15010KT 10SM FEW007 OVC014 03/02 A2973 RMK AO2 RAE16B22E50 P0000,M
VGT,2022-11-08 17:53,-115.1933,36.2111,667.00,63.00,43.00,47.97,140.00,6.00,0.00,29.82,1010.00,10.00,M,FEW,OVC,M,M,8000.00,10000.00,M,M,M,M,M,M,M,M,M,63.00,KVGT 081753Z 14006KT 10SM FEW080 OVC100 17/06 A2982 RMK AO2 SLP100 T01720061 10172 20128 58014,M
P68,2022-11-08 17:53,-116.0056,39.6014,1993.00,39.00,27.00,61.78,140.00,4.00,0.00,29.75,1006.40,M,M,M,M,M,M,M,M,M,M,M,M,M,M,M,M,M,35.59,KP68 081753Z AUTO 14004KT 04/M03 A2975 RMK AO1 SLP064 T00391028 10039 21028 58018,M
ELY,2022-11-08 17:53,-114.8453,39.2950,1909.00,44.00,28.00,52.86,170.00,19.00,0.00,29.78,1004.00,10.00,26.00,SCT,BKN,M,M,7000.00,9000.00,M,M,M,M,M,M,28.00,160.00,2022-11-08 17:19,35.44,KELY 081753Z AUTO 17019G26KT 10SM SCT070 BKN090 07/M02 A2978 RMK AO2 PK WND 16028/1719 SLP040 60000 T00671022 10072 20033 58014,M
DRA,2022-11-08 17:53,-116.0278,36.6206,1009.00,50.00,43.00,76.76,50.00,6.00,T,29.80,1006.70,10.00,M,SCT,OVC,M,M,4500.00,5500.00,M,M,-RA,M,M,M,M,M,M,50.00,KDRA 081753Z AUTO 05006KT 10SM -RA SCT045 OVC055 10/06 A2980 RMK AO2 RAE10B41 SLP067 P0000 60002 T01000061 10122 20094 58002,M
LOL,2022-11-08 17:53,-118.5701,40.0684,1192.43,39.00,23.00,52.30,20.00,8.00,0.00,29.64,1004.40,10.00,M,BKN,BKN,M,M,8500.00,10000.00,M,M,M,M,M,M,M,M,M,32.74,KLOL 081753Z AUTO 02008KT 10SM BKN085 BKN100 04/M05 A2964 RMK AO2 SLP044 T00391050 10039 21106 56024,M
BVU,2022-11-08 17:55,-114.8611,35.9475,671.00,64.40,44.60,48.55,170.00,15.00,0.00,29.84,M,10.00,22.00,FEW,SCT,M,M,9000.00,11000.00,M,M,M,M,M,M,M,M,M,64.40,KBVU 081755Z AUTO 17015G22KT 10SM FEW090 SCT110 18/07 A2984 RMK AO2,M
05U,2022-11-08 17:55,-116.0051,39.6042,1811.23,41.00,26.60,56.22,130.00,6.00,0.01,29.77,M,10.00,M,FEW,FEW,SCT,M,3700.00,4500.00,7500.00,M,M,M,M,M,M,M,M,36.37,K05U 081755Z AUTO 13006KT 10SM FEW037 FEW045 SCT075 05/M03 A2977 RMK A01 P0001,M
MEV,2022-11-08 17:55,-119.7500,38.9963,1441.42,28.40,28.40,100.00,350.00,12.00,0.01,29.60,M,0.25,M,OVC,M,M,M,300.00,M,M,M,SN FZFG,M,M,M,M,M,M,17.42,KMEV 081755Z AUTO 35012KT 1/4SM SN FZFG OVC003 M02/M02 A2960 RMK AO2 P0001,M
BAM,2022-11-08 17:55,-116.8743,40.5990,1382.36,35.60,32.00,86.59,70.00,5.00,0.00,29.75,M,10.00,M,SCT,M,M,M,6000.00,M,M,M,M,M,M,M,M,M,M,30.67,KBAM 081755Z AUTO 07005KT 10SM SCT060 02/00 A2975 RMK AO1,M
TMT,2022-11-08 17:55,-117.1971,39.4643,1749.34,20.10,18.90,95.00,0.00,0.00,0.00,29.70,M,2.50,M,OVC,M,M,M,200.00,M,M,M,BR,M,M,M,M,M,M,20.10,KTMT 081755Z AUTO 00000KT 2 1/2SM BR OVC002 M07/M07 A2970 RMK AO2 T10661073 11066 21111,M
RTS,2022-11-08 17:55,-119.8764,39.6682,1539.00,30.20,24.80,80.07,120.00,11.00,0.00,29.60,M,1.25,17.00,SCT,SCT,SCT,M,1800.00,2300.00,2700.00,M,-SN,M,M,M,M,M,M,20.19,KRTS 081755Z AUTO 12011G17KT 1 1/4SM -SN SCT018 SCT023 SCT027 M01/M04 A2960 RMK AO2,M
RNO,2022-11-08 17:55,-119.7711,39.4839,1341.00,38.00,23.00,54.60,180.00,9.00,T,29.60,1002.10,6.00,M,SCT,OVC,M,M,2000.00,3300.00,M,M,-SN,M,M,M,M,M,M,30.85,KRNO 081755Z 18009KT 6SM -SN SCT020 OVC033 03/M05 A2960 RMK AO2 SNB35 SLP021 P0000 60000 T00331050 10033 20000 58011,M
LSV,2022-11-08 17:55,-115.0343,36.2362,570.00,63.70,43.70,48.08,170.00,12.00,0.00,29.80,1007.80,10.00,20.00,BKN,M,M,M,10000.00,M,M,M,M,M,M,M,M,M,M,63.70,KLSV 081755Z AUTO 17012G20KT 10SM BKN100 18/07 A2980 RMK AO2 SLP078 T01760065 10176 20128 58014 $,M
INS,2022-11-08 17:55,-115.6733,36.5872,955.00,55.60,37.80,51.07,130.00,22.00,0.02,29.77,1005.50,10.00,29.00,FEW,SCT,BKN,OVC,5000.00,7000.00,8500.00,11000.00,M,M,M,M,33.00,120.00,2022-11-08 17:49,55.60,KINS 081755Z AUTO 13022G29KT 10SM FEW050 SCT070 BKN085 OVC110 13/03 A2977 RMK AO2 PK WND 12033/49 DZE00 SLP055 P0002 60002 T01310032 10141 20108 57011 $,M
LAS,2022-11-08 17:56,-115.1634,36.0719,663.00,63.00,43.00,47.97,150.00,10.00,0.00,29.82,1008.40,10.00,19.00,FEW,BKN,M,M,7500.00,10000.00,M,M,M,M,M,M,M,M,M,63.00,KLAS 081756Z 15010G19KT 10SM FEW075 BKN100 17/06 A2982 RMK AO2 SLP084 T01720061 10172 20128 58015,M
WMC,2022-11-08 17:56,-117.8072,40.9019,1315.00,37.00,26.10,64.38,50.00,10.00,0.00,29.68,1005.70,10.00,24.00,BKN,M,M,M,11000.00,M,M,M,M,M,M,M,29.00,40.00,2022-11-08 17:08,29.24,KWMC 081756Z AUTO 05010G24KT 10SM BKN110 03/M03 A2968 RMK AO2 PK WND 04029/1708 SLP057 T00281033 10028 21028 58026,M
HND,2022-11-08 17:56,-115.1344,35.9729,742.79,64.00,44.00,48.31,170.00,18.00,0.00,29.83,1010.40,10.00,23.00,FEW,BKN,M,M,7000.00,10000.00,M,M,M,M,M,M,M,M,M,64.00,KHND 081756Z 17018G23KT 10SM FEW070 BKN100 18/07 A2983 RMK AO2 SLP104 T01780067 10178 20117 58014,M
EKO,2022-11-08 17:56,-115.7860,40.8242,1367.00,32.00,27.00,81.55,50.00,7.00,0.01,29.80,1010.60,10.00,M,SCT,M,M,M,4800.00,M,M,M,M,0.01,M,0.01,M,M,M,24.78,KEKO 081756Z AUTO 05007KT 10SM SCT048 00/M03 A2980 RMK AO2 SNE16 SLP106 P0001 60001 I1001 I6001 T00001028 10000 21039 58011,M
TPH,2022-11-08 17:56,-117.0904,38.0505,1654.00,38.00,37.00,96.52,140.00,12.00,T,29.73,1005.20,10.00,M,FEW,OVC,M,M,700.00,1400.00,M,M,M,M,M,M,M,M,M,29.51,KTPH 081756Z AUTO 14012KT 10SM FEW007 OVC014 03/03 A2973 RMK AO2 RAE16B22E50 SLP052 P0000 60000 T00330028 10044 20006 56010,M
NFL,2022-11-08 17:56,-118.7010,39.4166,1199.00,38.00,27.00,64.49,350.00,5.00,0.00,29.61,1001.10,10.00,M,FEW,SCT,BKN,BKN,4000.00,7000.00,9000.00,13000.00,M,M,M,M,M,M,M,33.40,KNFL 081756Z 35005KT 10SM FEW040 SCT070 BKN090 BKN130 03/M03 A2961 RMK AO2 SLP011 T00331028 10061 21011 56027,M
INS,2022-11-08 18:01,-115.6733,36.5872,955.00,55.40,39.20,54.34,130.00,18.00,0.00,29.78,1005.90,10.00,27.00,FEW,BKN,OVC,M,5500.00,7000.00,8500.00,M,-DZ,M,M,M,M,M,M,55.40,KINS 081801Z AUTO 13018G27KT 10SM -DZ FEW055 BKN070 OVC085 13/04 A2978 RMK AO2 DZB01 SLP059 $,M
RNO,2022-11-08 18:05,-119.7711,39.4839,1341.00,36.00,27.00,69.51,200.00,6.00,T,29.60,M,3.00,M,BKN,OVC,M,M,2000.00,3300.00,M,M,-SN,M,M,M,M,M,M,30.35,KRNO 081805Z 20006KT 3SM -SN BKN020 OVC033 02/M03 A2960 RMK AO2 P0000 T00221028,M
RNO,2022-11-08 18:10,-119.7711,39.4839,1341.00,36.00,27.00,69.51,180.00,9.00,T,29.60,M,1.00,M,OVC,M,M,M,2400.00,M,M,M,-SN,M,M,M,M,M,M,28.49,KRNO 081810Z 18009KT 1SM -SN OVC024 02/M03 A2960 RMK AO2 SFC VIS 2 P0000 T00221028,M
RTS,2022-11-08 18:15,-119.8764,39.6682,1539.00,30.20,26.60,86.28,120.00,9.00,0.00,29.59,M,1.00,M,CLR,M,M,M,M,M,M,M,-SN,M,M,M,M,M,M,21.28,KRTS 081815Z AUTO 12009KT 1SM -SN CLR M01/M03 A2959 RMK AO2,M
BVU,2022-11-08 18:15,-114.8611,35.9475,671.00,64.40,44.60,48.55,160.00,17.00,0.00,29.84,M,10.00,23.00,BKN,M,M,M,8500.00,M,M,M,M,M,M,M,M,M,M,64.40,KBVU 081815Z AUTO 16017G23KT 10SM BKN085 18/07 A2984 RMK AO2,M
CXP,2022-11-08 18:15,-119.7326,39.1923,1431.00,30.20,26.60,86.28,0.00,0.00,0.00,29.61,M,0.25,M,OVC,M,M,M,300.00,M,M,M,SN FZFG,M,M,M,M,M,M,30.20,KCXP 081815Z AUTO 00000KT 1/4SM SN FZFG OVC003 M01/M03 A2961 RMK AO2,M
BAM,2022-11-08 18:15,-116.8743,40.5990,1382.36,35.60,32.00,86.59,70.00,12.00,0.00,29.74,M,10.00,19.00,CLR,M,M,M,M,M,M,M,M,M,M,M,M,M,M,26.58,KBAM 081815Z AUTO 07012G19KT 10SM CLR 02/00 A2974 RMK AO1,M
TMT,2022-11-08 18:15,-117.1971,39.4643,1749.34,20.10,18.70,94.19,0.00,0.00,0.00,29.69,M,1.75,M,OVC,M,M,M,200.00,M,M,M,BR,M,M,M,M,M,M,20.10,KTMT 081815Z AUTO 00000KT 1 3/4SM BR OVC002 M07/M07 A2969 RMK AO2 VIS 1V5 T10661074,M
RNO,2022-11-08 18:15,-119.7711,39.4839,1341.00,35.00,27.00,72.04,150.00,8.00,T,29.60,M,0.75,M,OVC,M,M,M,1700.00,M,M,M,-SN,M,M,M,M,M,M,27.93,KRNO 081815Z 15008KT 3/4SM -SN OVC017 02/M03 A2960 RMK AO2 P0000 T00171028 RVRNO,M
MEV,2022-11-08 18:15,-119.7500,38.9963,1441.42,28.40,28.40,100.00,350.00,11.00,0.00,29.58,M,0.25,M,OVC,M,M,M,300.00,M,M,M,+SN FZFG,M,M,M,M,M,M,17.92,KMEV 081815Z AUTO 35011KT M1/4SM +SN FZFG OVC003 M02/M02 A2958 RMK AO2,M
05U,2022-11-08 18:15,-116.0051,39.6042,1811.23,41.00,26.60,56.22,160.00,5.00,0.00,29.76,M,10.00,16.00,FEW,SCT,SCT,M,3800.00,6000.00,7000.00,M,M,M,M,M,M,M,M,37.08,K05U 081815Z AUTO 16005G16KT 10SM FEW038 SCT060 SCT070 05/M03 A2976 RMK A01,M
RNO,2022-11-08 18:26,-119.7711,39.4839,1341.00,33.00,28.00,81.30,190.00,8.00,0.01,29.59,M,0.25,M,OVC,M,M,M,1100.00,M,M,M,+SN,M,M,M,M,M,M,25.47,KRNO 081826Z 19008KT 1/4SM +SN OVC011 01/M02 A2959 RMK AO2 P0001 T00061022 RVRNO,M
TMT,2022-11-08 18:35,-117.1971,39.4643,1749.34,21.70,20.50,95.04,0.00,0.00,0.00,29.67,M,5.00,M,OVC,M,M,M,200.00,M,M,M,BR,M,M,M,M,M,M,21.70,KTMT 081835Z AUTO 00000KT 5SM BR OVC002 M06/M06 A2967 RMK AO2 T10571064,M
05U,2022-11-08 18:35,-116.0051,39.6042,1811.23,41.00,30.20,65.16,170.00,17.00,0.00,29.76,M,10.00,M,FEW,FEW,FEW,M,3900.00,6000.00,7000.00,M,M,M,M,M,M,M,M,31.87,K05U 081835Z AUTO 17017KT 10SM FEW039 FEW060 FEW070 05/M01 A2976 RMK A01,M
BAM,2022-11-08 18:35,-116.8743,40.5990,1382.36,35.60,32.00,86.59,80.00,12.00,0.00,29.73,M,10.00,16.00,CLR,M,M,M,M,M,M,M,M,M,M,M,M,M,M,26.58,KBAM 081835Z AUTO 08012G16KT 10SM CLR 02/00 A2973 RMK AO1,M
MEV,2022-11-08 18:35,-119.7500,38.9963,1441.42,28.40,28.40,100.00,350.00,10.00,0.00,29.57,M,0.25,M,OVC,M,M,M,300.00,M,M,M,SN FZFG,M,M,M,M,M,M,18.45,KMEV 081835Z AUTO 35010KT 1/4SM SN FZFG OVC003 M02/M02 A2957 RMK AO2,M
BVU,2022-11-08 18:35,-114.8611,35.9475,671.00,64.40,42.80,45.32,170.00,23.00,0.00,29.82,M,10.00,32.00,FEW,SCT,BKN,M,4900.00,6500.00,7500.00,M,M,M,M,M,M,M,M,64.40,KBVU 081835Z AUTO 17023G32KT 10SM FEW049 SCT065 BKN075 18/06 A2982 RMK AO2,M
CXP,2022-11-08 18:35,-119.7326,39.1923,1431.00,30.20,28.40,92.92,0.00,0.00,0.00,29.59,M,0.25,M,OVC,M,M,M,300.00,M,M,M,SN FZFG,M,M,M,M,M,M,30.20,KCXP 081835Z AUTO 00000KT M1/4SM SN FZFG OVC003 M01/M02 A2959 RMK AO2,M
RTS,2022-11-08 18:35,-119.8764,39.6682,1539.00,30.20,26.60,86.28,110.00,8.00,0.00,29.58,M,0.75,M,VV ,M,M,M,500.00,M,M,M,-SN,M,M,M,M,M,M,21.90,KRTS 081835Z AUTO 11008KT 3/4SM -SN VV005 M01/M03 A2958 RMK AO2,M
RNO,2022-11-08 18:44,-119.7711,39.4839,1341.00,32.00,28.90,88.17,190.00,5.00,0.04,29.57,M,0.75,M,OVC,M,M,M,1300.00,M,M,M,-SN BR,M,M,M,M,M,M,26.40,KRNO 081844Z 19005KT 3/4SM -SN BR OVC013 00/M02 A2957 RMK AO2 P0004 T00001017 RVRNO $,M
LOL,2022-11-08 18:53,-118.5701,40.0684,1192.43,39.00,24.10,54.77,30.00,13.00,0.00,29.60,1003.50,10.00,M,OVC,M,M,M,5500.00,M,M,M,M,M,M,M,M,M,M,30.54,KLOL 081853Z AUTO 03013KT 10SM OVC055 04/M04 A2960 RMK AO2 SLP035 T00391044,M
ELY,2022-11-08 18:53,-114.8453,39.2950,1909.00,40.00,32.00,73.14,180.00,24.00,T,29.79,1005.30,9.00,32.00,BKN,BKN,OVC,M,2900.00,4000.00,4800.00,M,-RA,M,M,M,35.00,180.00,2022-11-08 18:10,28.72,KELY 081853Z AUTO 18024G32KT 9SM -RA BKN029 BKN040 OVC048 04/00 A2979 RMK AO2 PK WND 18035/1810 RAB31 SLP053 P0000 T00440000,M
DRA,2022-11-08 18:53,-116.0278,36.6206,1009.00,50.00,45.00,82.86,M,3.00,0.04,29.77,1005.70,8.00,M,FEW,OVC,M,M,3700.00,5000.00,M,M,-RA,M,M,M,M,M,M,50.00,KDRA 081853Z AUTO VRB03KT 8SM -RA FEW037 OVC050 10/07 A2977 RMK AO2 SLP057 P0004 T01000072,M
VGT,2022-11-08 18:53,-115.1933,36.2111,667.00,65.00,42.00,43.36,160.00,13.00,0.00,29.76,1008.00,10.00,24.00,BKN,OVC,M,M,4800.00,6000.00,M,M,M,M,M,M,M,M,M,64.90,KVGT 081853Z 16013G24KT 10SM BKN048 OVC060 18/06 A2976 RMK AO2 SLP080 T01830056,M
P68,2022-11-08 18:53,-116.0056,39.6014,1993.00,38.00,30.00,72.93,160.00,18.00,0.00,29.70,1005.20,M,27.00,M,M,M,M,M,M,M,M,M,M,M,M,27.00,160.00,2022-11-08 18:49,27.52,KP68 081853Z AUTO 16018G27KT 03/M01 A2970 RMK AO1 PK WND 16027/1849 SLP052 T00331011,M
INS,2022-11-08 18:55,-115.6733,36.5872,955.00,52.00,42.40,69.66,120.00,10.00,0.01,29.75,1004.80,10.00,M,FEW,FEW,SCT,OVC,2500.00,2900.00,4700.00,6500.00,-RA,M,M,M,30.00,120.00,2022-11-08 17:54,52.00,KINS 081855Z AUTO 12010KT 10SM -RA FEW025 FEW029 SCT047 OVC065 11/06 A2975 RMK AO2 PK WND 12030/1754 DZB01E03RAB03E44DZB44E46RAB46 SLP048 P0001 T01110058 $,M
BVU,2022-11-08 18:55,-114.8611,35.9475,671.00,64.40,42.80,45.32,160.00,21.00,0.00,29.80,M,10.00,29.00,BKN,BKN,OVC,M,4800.00,5500.00,7500.00,M,M,M,M,M,M,M,M,64.40,KBVU 081855Z AUTO 16021G29KT 10SM BKN048 BKN055 OVC075 18/06 A2980 RMK AO2,M
CXP,2022-11-08 18:55,-119.7326,39.1923,1431.00,30.20,28.40,92.92,0.00,0.00,0.05,29.59,M,0.25,M,OVC,M,M,M,300.00,M,M,M,SN FZFG,M,M,M,M,M,M,30.20,KCXP 081855Z AUTO 00000KT 1/4SM SN FZFG OVC003 M01/M02 A2959 RMK AO2 P0005,M
LSV,2022-11-08 18:55,-115.0343,36.2362,570.00,64.80,43.50,45.91,150.00,17.00,0.00,29.75,1006.10,10.00,25.00,OVC,M,M,M,6500.00,M,M,M,M,M,M,M,M,M,M,64.80,KLSV 081855Z AUTO 15017G25KT 10SM OVC065 18/06 A2975 RMK AO2 SLP061 T01820064 $,M
RTS,2022-11-08 18:55,-119.8764,39.6682,1539.00,30.20,28.40,92.92,100.00,6.00,0.00,29.56,M,0.50,M,VV ,M,M,M,500.00,M,M,M,-SN,M,M,M,M,M,M,23.36,KRTS 081855Z AUTO 10006KT 1/2SM -SN VV005 M01/M02 A2956 RMK AO2,M
MEV,2022-11-08 18:55,-119.7500,38.9963,1441.42,30.20,28.40,92.92,350.00,9.00,0.02,29.57,M,0.25,M,OVC,M,M,M,300.00,M,M,M,SN FZFG,M,M,M,M,M,M,21.28,KMEV 081855Z AUTO 35009KT 1/4SM SN FZFG OVC003 M01/M02 A2957 RMK AO2 P0002,M
BAM,2022-11-08 18:55,-116.8743,40.5990,1382.36,37.40,32.00,80.65,60.00,9.00,0.00,29.72,M,10.00,M,CLR,M,M,M,M,M,M,M,M,M,M,M,M,M,M,30.23,KBAM 081855Z AUTO 06009KT 10SM CLR 03/00 A2972 RMK AO1,M
RNO,2022-11-08 18:55,-119.7711,39.4839,1341.00,32.00,28.90,88.17,190.00,4.00,0.05,29.57,1001.60,0.75,M,OVC,M,M,M,1300.00,M,M,M,-SN BR,M,M,M,M,M,M,27.42,KRNO 081855Z 19004KT 3/4SM -SN BR OVC013 00/M02 A2957 RMK AO2 SLP016 P0005 T00001017 RVRNO,M
TMT,2022-11-08 18:55,-117.1971,39.4643,1749.34,23.90,23.00,96.30,0.00,0.00,0.00,29.66,M,4.00,M,BKN,OVC,M,M,200.00,5000.00,M,M,BR,M,M,M,M,M,M,23.90,KTMT 081855Z AUTO 00000KT 4SM BR BKN002 OVC050 M04/M05 A2966 RMK AO2 T10451050,M
05U,2022-11-08 18:55,-116.0051,39.6042,1811.23,39.20,30.20,69.88,160.00,15.00,0.01,29.73,M,10.00,23.00,CLR,M,M,M,M,M,M,M,M,M,M,M,M,M,M,30.11,K05U 081855Z AUTO 16015G23KT 10SM CLR 04/M01 A2973 RMK A01 P0001,M
HND,2022-11-08 18:56,-115.1344,35.9729,742.79,63.00,44.00,50.03,160.00,23.00,T,29.79,1009.00,10.00,29.00,OVC,M,M,M,6000.00,M,M,M,M,M,M,M,30.00,150.00,2022-11-08 18:43,63.00,KHND 081856Z 16023G29KT 10SM OVC060 17/07 A2979 RMK AO2 PK WND 15030/1843 RAB22E32 SLP090 P0000 T01720067,M
EKO,2022-11-08 18:56,-115.7860,40.8242,1367.00,34.00,28.00,78.43,40.00,13.00,0.00,29.76,1009.20,10.00,19.00,FEW,M,M,M,12000.00,M,M,M,M,M,M,M,M,M,M,24.13,KEKO 081856Z AUTO 04013G19KT 10SM FEW120 01/M02 A2976 RMK AO2 SLP092 T00111022,M
WMC,2022-11-08 18:56,-117.8072,40.9019,1315.00,39.00,26.10,59.52,80.00,7.00,0.00,29.65,1004.50,10.00,M,BKN,BKN,M,M,9000.00,11000.00,M,M,M,M,M,M,M,M,M,33.31,KWMC 081856Z AUTO 08007KT 10SM BKN090 BKN110 04/M03 A2965 RMK AO2 SLP045 T00391033,M
NFL,2022-11-08 18:56,-118.7010,39.4166,1199.00,42.00,27.00,54.78,30.00,5.00,0.00,29.55,999.50,10.00,M,FEW,BKN,OVC,M,4000.00,5500.00,8000.00,M,M,M,M,M,M,M,M,38.39,KNFL 081856Z 03005KT 10SM FEW040 BKN055 OVC080 06/M03 A2955 RMK AO2 SLP995 T00561028,M
TPH,2022-11-08 18:56,-117.0904,38.0505,1654.00,39.00,37.00,92.45,160.00,22.00,0.01,29.69,1004.10,6.00,30.00,SCT,OVC,M,M,1000.00,1700.00,M,M,-RA BR,M,M,M,38.00,180.00,2022-11-08 18:38,27.95,KTPH 081856Z AUTO 16022G30KT 6SM -RA BR SCT010 OVC017 04/03 A2969 RMK AO2 PK WND 18038/1838 RAB17 SLP041 P0001 T00390028,M
LAS,2022-11-08 18:56,-115.1634,36.0719,663.00,64.00,44.00,48.31,170.00,12.00,T,29.77,1006.80,10.00,25.00,FEW,BKN,BKN,M,5000.00,6000.00,9000.00,M,-RA,M,M,M,M,M,M,64.00,KLAS 081856Z 17012G25KT 10SM -RA FEW050 BKN060 BKN090 18/07 A2977 RMK AO2 RAB55 SLP068 P0000 T01780067,M
RNO,2022-11-08 19:09,-119.7711,39.4839,1341.00,32.00,30.00,92.22,0.00,0.00,0.01,29.57,M,1.00,M,OVC,M,M,M,1400.00,M,M,M,-SN BR,M,M,M,M,M,M,32.00,KRNO 081909Z 00000KT 1SM -SN BR OVC014 00/M01 A2957 RMK AO2 P0001 T00001011 RVRNO,M
05U,2022-11-08 19:15,-116.0051,39.6042,1811.23,41.00,32.00,70.08,160.00,18.00,0.00,29.71,M,10.00,M,CLR,M,M,M,M,M,M,M,M,M,M,M,M,M,M,31.60,K05U 081915Z AUTO 16018KT 10SM CLR 05/M00 A2971 RMK A01,M
MEV,2022-11-08 19:15,-119.7500,38.9963,1441.42,28.40,28.40,100.00,360.00,10.00,0.00,29.55,M,0.25,M,OVC,M,M,M,300.00,M,M,M,+SN FZFG,M,M,M,M,M,M,18.45,KMEV 081915Z AUTO 36010KT M1/4SM +SN FZFG OVC003 M02/M02 A2955 RMK AO2,M
BAM,2022-11-08 19:15,-116.8743,40.5990,1382.36,35.60,32.00,86.59,80.00,9.00,0.00,29.70,M,10.00,M,CLR,M,M,M,M,M,M,M,M,M,M,M,M,M,M,27.99,KBAM 081915Z AUTO 08009KT 10SM CLR 02/00 A2970 RMK AO1,M
BVU,2022-11-08 19:15,-114.8611,35.9475,671.00,66.20,42.80,42.57,180.00,25.00,0.00,29.79,M,2.50,43.00,SCT,BKN,BKN,M,4900.00,8000.00,9500.00,M,HZ,M,M,M,M,M,M,66.20,KBVU 081915Z AUTO 18025G43KT 2 1/2SM HZ SCT049 BKN080 BKN095 19/06 A2979 RMK AO2,M
TMT,2022-11-08 19:15,-117.1971,39.4643,1749.34,26.20,25.70,97.95,0.00,0.00,0.00,29.62,M,5.00,M,SCT,SCT,OVC,M,200.00,3800.00,6000.00,M,BR,M,M,M,M,M,M,26.20,KTMT 081915Z AUTO 00000KT 5SM BR SCT002 SCT038 OVC060 M03/M03 A2962 RMK AO2 T10321035,M
CXP,2022-11-08 19:15,-119.7326,39.1923,1431.00,30.20,28.40,92.92,0.00,0.00,0.00,29.57,M,0.25,M,OVC,M,M,M,300.00,M,M,M,SN FZFG,M,M,M,M,M,M,30.20,KCXP 081915Z AUTO 00000KT 1/4SM SN FZFG OVC003 M01/M02 A2957 RMK AO2,M
RTS,2022-11-08 19:15,-119.8764,39.6682,1539.00,30.20,28.40,92.92,90.00,6.00,0.00,29.56,M,0.50,M,BKN,M,M,M,300.00,M,M,M,-SN,M,M,M,M,M,M,23.36,KRTS 081915Z AUTO 09006KT 1/2SM -SN BKN003 M01/M02 A2956 RMK AO2,M
LSV,2022-11-08 19:27,-115.0343,36.2362,570.00,64.40,46.40,51.98,160.00,25.00,0.00,29.73,1005.40,10.00,32.00,OVC,M,M,M,6000.00,M,M,M,-RA,M,M,M,M,M,M,64.40,KLSV 081927Z AUTO 16025G32KT 10SM -RA OVC060 18/08 A2973 RMK AO2 RAB27 SLP054 $,M
EKO,2022-11-08 19:33,-115.7860,40.8242,1367.00,33.00,27.00,78.03,50.00,10.00,0.00,29.73,M,10.00,M,SCT,OVC,M,M,100.00,10000.00,M,M,M,M,M,M,M,M,M,24.35,KEKO 081933Z AUTO 05010KT 10SM SCT001 OVC100 01/M03 A2973 RMK AO2 T00061028,M
RTS,2022-11-08 19:35,-119.8764,39.6682,1539.00,30.20,28.40,92.92,90.00,5.00,0.00,29.55,M,0.50,M,BKN,M,M,M,200.00,M,M,M,-SN,M,M,M,M,M,M,24.26,KRTS 081935Z AUTO 09005KT 1/2SM -SN BKN002 M01/M02 A2955 RMK AO2,M
LSV,2022-11-08 19:35,-115.0343,36.2362,570.00,64.40,44.60,48.55,160.00,28.00,0.00,29.72,1005.10,10.00,34.00,FEW,OVC,M,M,4900.00,6000.00,M,M,M,M,M,M,M,M,M,64.40,KLSV 081935Z AUTO 16028G34KT 10SM FEW049 OVC060 18/07 A2972 RMK AO2 RAB27E35 SLP051 $,M
BVU,2022-11-08 19:35,-114.8611,35.9475,671.00,66.20,42.80,42.57,170.00,22.00,0.00,29.77,M,4.00,34.00,BKN,M,M,M,8500.00,M,M,M,HZ,M,M,M,M,M,M,66.20,KBVU 081935Z AUTO 17022G34KT 4SM HZ BKN085 19/06 A2977 RMK AO2,M
CXP,2022-11-08 19:35,-119.7326,39.1923,1431.00,30.20,28.40,92.92,0.00,0.00,0.00,29.57,M,0.25,M,OVC,M,M,M,300.00,M,M,M,SN FZFG,M,M,M,M,M,M,30.20,KCXP 081935Z AUTO 00000KT M1/4SM SN FZFG OVC003 M01/M02 A2957 RMK AO2,M
05U,2022-11-08 19:35,-116.0051,39.6042,1811.23,42.80,32.00,65.38,160.00,14.00,0.00,29.69,M,10.00,20.00,FEW,M,M,M,2400.00,M,M,M,M,M,M,M,M,M,M,35.08,K05U 081935Z AUTO 16014G20KT 10SM FEW024 06/00 A2969 RMK A01,M
MEV,2022-11-08 19:35,-119.7500,38.9963,1441.42,30.20,28.40,92.92,360.00,8.00,0.00,29.55,M,0.25,M,OVC,M,M,M,300.00,M,M,M,+SN FZFG,M,M,M,M,M,M,21.90,KMEV 081935Z AUTO 36008KT M1/4SM +SN FZFG OVC003 M01/M02 A2955 RMK AO2,M
BAM,2022-11-08 19:35,-116.8743,40.5990,1382.36,37.40,32.00,80.65,110.00,6.00,0.00,29.68,M,10.00,M,SCT,SCT,M,M,10000.00,12000.00,M,M,M,M,M,M,M,M,M,32.03,KBAM 081935Z AUTO 11006KT 060V120 10SM SCT100 SCT120 03/00 A2968 RMK AO1,M
TMT,2022-11-08 19:35,-117.1971,39.4643,1749.34,32.00,32.00,100.00,70.00,10.00,0.00,29.59,M,10.00,M,SCT,OVC,M,M,4300.00,5000.00,M,M,M,M,M,M,M,M,M,22.97,KTMT 081935Z AUTO 07010KT 10SM SCT043 OVC050 00/00 A2959 RMK AO2 T00000000,M
EKO,2022-11-08 19:42,-115.7860,40.8242,1367.00,34.00,27.00,75.26,40.00,10.00,0.00,29.72,M,10.00,M,BKN,OVC,M,M,100.00,10000.00,M,M,M,M,M,M,M,M,M,25.48,KEKO 081942Z AUTO 04010KT 10SM BKN001 OVC100 01/M03 A2972 RMK AO2 T00111028 $,M
TPH,2022-11-08 19:43,-117.0904,38.0505,1654.00,43.00,40.00,88.71,180.00,20.00,T,29.62,M,10.00,37.00,BKN,BKN,OVC,M,1400.00,1800.00,2300.00,M,-RA,M,M,M,37.00,180.00,2022-11-08 19:43,33.75,KTPH 081943Z AUTO 18020G37KT 10SM -RA BKN014 BKN018 OVC023 06/04 A2962 RMK AO2 PK WND 18037/1943 P0000 T00610044,M
EKO,2022-11-08 19:52,-115.7860,40.8242,1367.00,33.80,26.60,74.63,50.00,10.00,0.00,29.70,M,10.00,M,M,M,M,M,M,M,M,M,M,M,M,M,M,M,M,25.23,KEKO 081952Z AUTO 05010KT 10SM 01/M03 A2970 RMK AO2 PRESFR $,M
VGT,2022-11-08 19:53,-115.1933,36.2111,667.00,66.00,44.00,45.05,170.00,18.00,T,29.74,1007.10,10.00,33.00,BKN,OVC,M,M,5500.00,7500.00,M,M,M,M,M,M,33.00,170.00,2022-11-08 19:53,66.00,KVGT 081953Z 17018G33KT 10SM BKN055 OVC075 19/07 A2974 RMK AO2 PK WND 17033/1953 RAB04E24 SLP071 P0000 T01890067,M
ELY,2022-11-08 19:53,-114.8453,39.2950,1909.00,37.00,36.00,96.13,170.00,12.00,0.05,29.74,1003.60,9.00,21.00,FEW,BKN,OVC,M,1000.00,2500.00,3200.00,M,-RA,M,M,M,30.00,190.00,2022-11-08 18:56,28.37,KELY 081953Z AUTO 17012G21KT 9SM -RA FEW010 BKN025 OVC032 03/02 A2974 RMK AO2 PK WND 19030/1856 SNB03E15 PRESFR SLP036 P0005 T00280022,M
P68,2022-11-08 19:53,-116.0056,39.6014,1993.00,36.00,33.00,89.09,150.00,14.00,0.00,29.66,1003.90,M,30.00,M,M,M,M,M,M,M,M,M,M,M,M,30.00,140.00,2022-11-08 19:44,26.32,KP68 081953Z AUTO 15014G30KT 02/01 A2966 RMK AO1 PK WND 14030/1944 SLP039 T00220006,M
LOL,2022-11-08 19:53,-118.5701,40.0684,1192.43,42.00,23.00,46.37,30.00,16.00,0.00,29.53,1001.30,10.00,20.00,OVC,M,M,M,6000.00,M,M,M,M,M,M,M,M,M,M,33.58,KLOL 081953Z AUTO 03016G20KT 10SM OVC060 06/M05 A2953 RMK AO2 SLP013 T00561050,M
DRA,2022-11-08 19:53,-116.0278,36.6206,1009.00,53.00,47.00,79.40,180.00,18.00,0.03,29.72,1004.10,10.00,25.00,FEW,OVC,M,M,3600.00,5000.00,M,M,M,M,M,M,27.00,200.00,2022-11-08 19:38,53.10,KDRA 081953Z AUTO 18018G25KT 10SM FEW036 OVC050 12/08 A2972 RMK AO2 PK WND 20027/1938 RAE45 SLP041 P0003 T01170083,M
RNO,2022-11-08 19:55,-119.7711,39.4839,1341.00,32.00,30.90,95.65,0.00,0.00,0.04,29.54,1000.60,1.00,M,OVC,M,M,M,1400.00,M,M,M,-SN BR,M,M,M,M,M,M,32.00,KRNO 081955Z 00000KT 1SM -SN BR OVC014 00/M01 A2954 RMK AO2 SLP006 P0004 T00001006 RVRNO,M
RTS,2022-11-08 19:55,-119.8764,39.6682,1539.00,30.20,28.40,92.92,90.00,4.00,0.04,29.53,M,0.50,M,OVC,M,M,M,200.00,M,M,M,-SN,M,M,M,M,M,M,25.32,KRTS 081955Z AUTO 09004KT 1/2SM -SN OVC002 M01/M02 A2953 RMK AO2 P0004,M
05U,2022-11-08 19:55,-116.0051,39.6042,1811.23,37.40,33.80,86.69,150.00,12.00,0.00,29.67,M,3.00,19.00,FEW,FEW,M,M,2200.00,2800.00,M,M,HZ,M,M,M,M,M,M,28.87,K05U 081955Z AUTO 15012G19KT 3SM HZ FEW022 FEW028 03/01 A2967 RMK A01,M
INS,2022-11-08 19:55,-115.6733,36.5872,955.00,52.50,46.20,79.06,140.00,5.00,0.03,29.73,1004.40,9.00,M,FEW,FEW,SCT,OVC,2200.00,3800.00,4500.00,6000.00,-RA,M,M,M,M,M,M,52.50,KINS 081955Z AUTO 14005KT 9SM -RA FEW022 FEW038 SCT045 OVC060 11/08 A2973 RMK AO2 SLP044 P0003 T01140079 $,M
TMT,2022-11-08 19:55,-117.1971,39.4643,1749.34,33.80,33.00,96.46,90.00,11.00,0.00,29.57,M,10.00,M,SCT,BKN,OVC,M,4200.00,6000.00,7000.00,M,M,M,M,M,M,M,M,24.74,KTMT 081955Z AUTO 09011KT 10SM SCT042 BKN060 OVC070 01/01 A2957 RMK AO2 T00100005,M
MEV,2022-11-08 19:55,-119.7500,38.9963,1441.42,30.20,28.40,92.92,10.00,6.00,0.04,29.54,M,0.25,M,OVC,M,M,M,300.00,M,M,M,+SN FZFG,M,M,M,M,M,M,23.36,KMEV 081955Z AUTO 01006KT M1/4SM +SN FZFG OVC003 M01/M02 A2954 RMK AO2 P0004,M
BAM,2022-11-08 19:55,-116.8743,40.5990,1382.36,39.20,32.00,75.16,50.00,9.00,0.00,29.65,M,10.00,M,BKN,M,M,M,11000.00,M,M,M,M,M,M,M,M,M,M,32.47,KBAM 081955Z AUTO 05009KT 020V090 10SM BKN110 04/00 A2965 RMK AO1,M
CXP,2022-11-08 19:55,-119.7326,39.1923,1431.00,30.20,28.40,92.92,0.00,0.00,0.08,29.56,M,0.25,M,OVC,M,M,M,300.00,M,M,M,SN FZFG,M,M,M,M,M,M,30.20,KCXP 081955Z AUTO 00000KT M1/4SM SN FZFG OVC003 M01/M02 A2956 RMK AO2 P0008,M
BVU,2022-11-08 19:55,-114.8611,35.9475,671.00,66.20,42.80,42.57,170.00,17.00,0.00,29.77,M,10.00,31.00,BKN,BKN,BKN,M,5000.00,6500.00,7500.00,M,M,M,M,M,M,M,M,66.20,KBVU 081955Z AUTO 17017G31KT 10SM BKN050 BKN065 BKN075 19/06 A2977 RMK AO2,M
LSV,2022-11-08 19:55,-115.0343,36.2362,570.00,65.00,44.80,48.08,170.00,29.00,T,29.71,1004.80,8.00,35.00,FEW,BKN,M,M,4400.00,6000.00,M,M,M,M,M,M,M,M,M,64.90,KLSV 081955Z AUTO 17029G35KT 8SM FEW044 BKN060 18/07 A2971 RMK AO2 RAB27E35 SLP048 P0000 T01830071 $,M
HND,2022-11-08 19:56,-115.1344,35.9729,742.79,65.00,44.00,46.81,170.00,27.00,T,29.74,1007.20,10.00,32.00,SCT,BKN,M,M,5500.00,7500.00,M,M,M,M,M,M,37.00,160.00,2022-11-08 19:31,64.90,KHND 081956Z 17027G32KT 10SM SCT055 BKN075 18/07 A2974 RMK AO2 PK WND 16037/1931 RAB38E48 SLP072 P0000 T01830067,M
TPH,2022-11-08 19:56,-117.0904,38.0505,1654.00,43.00,40.00,88.71,180.00,23.00,T,29.61,1000.90,10.00,40.00,BKN,OVC,M,M,1400.00,2000.00,M,M,-RA,M,M,M,40.00,160.00,2022-11-08 19:51,33.10,KTPH 081956Z AUTO 18023G40KT 10SM -RA BKN014 OVC020 06/04 A2961 RMK AO2 PK WND 16040/1951 SLP009 P0000 T00610044,M
LAS,2022-11-08 19:56,-115.1634,36.0719,663.00,67.00,44.00,43.67,160.00,14.00,T,29.72,1005.00,10.00,26.00,BKN,OVC,M,M,5500.00,8000.00,M,M,M,M,M,M,33.00,170.00,2022-11-08 19:37,66.90,KLAS 081956Z 16014G26KT 10SM BKN055 OVC080 19/07 A2972 RMK AO2 PK WND 17033/1937 RAE10 SLP050 P0000 T01940067,M
NFL,2022-11-08 19:56,-118.7010,39.4166,1199.00,44.00,32.00,62.21,150.00,6.00,T,29.51,998.30,10.00,M,BKN,OVC,M,M,3900.00,5000.00,M,M,-RA,M,M,M,M,M,M,40.10,KNFL 081956Z 15006KT 10SM -RA BKN039 OVC050 07/00 A2951 RMK AO2 RAB24 SLP983 WR// P0000 T00670000,M
EKO,2022-11-08 19:56,-115.7860,40.8242,1367.00,34.00,27.00,75.26,40.00,9.00,0.00,29.70,1006.90,10.00,M,M,M,M,M,M,M,M,M,M,M,M,M,M,M,M,26.00,KEKO 081956Z AUTO 04009KT 10SM 01/M03 A2970 RMK AO2 SLP069 T00111028 $,M
WMC,2022-11-08 19:56,-117.8072,40.9019,1315.00,40.00,27.00,59.65,30.00,17.00,0.00,29.61,1002.60,10.00,25.00,SCT,OVC,M,M,7000.00,8500.00,M,M,M,M,M,M,M,M,M,30.42,KWMC 081956Z AUTO 03017G25KT 10SM SCT070 OVC085 04/M03 A2961 RMK AO2 SLP026 T00441028,M
ELY,2022-11-08 20:00,-114.8453,39.2950,1909.00,39.00,38.00,95.78,160.00,14.00,0.01,29.73,M,10.00,20.00,FEW,BKN,BKN,M,800.00,3000.00,6500.00,M,-RA,M,M,M,M,M,M,30.19,KELY 082000Z AUTO 16014G20KT 10SM -RA FEW008 BKN030 BKN065 04/03 A2973 RMK AO2 P0001 T00390033,M
TPH,2022-11-08 20:10,-117.0904,38.0505,1654.00,43.00,39.00,85.66,180.00,30.00,T,29.59,M,10.00,43.00,BKN,BKN,OVC,M,1500.00,2000.00,2800.00,M,M,M,M,M,43.00,170.00,2022-11-08 20:05,31.83,KTPH 082010Z AUTO 18030G43KT 10SM BKN015 BKN020 OVC028 06/04 A2959 RMK AO2 PK WND 17043/2005 RAE06 P0000 T00610039,M
INS,2022-11-08 20:13,-115.6733,36.5872,955.00,55.40,46.40,71.64,80.00,3.00,0.00,29.72,1003.80,10.00,M,FEW,BKN,OVC,M,2300.00,6000.00,8500.00,M,M,M,M,M,M,M,M,55.40,KINS 082013Z AUTO 08003KT 10SM FEW023 BKN060 OVC085 13/08 A2972 RMK AO2 RAE01DZB01E13 SLP038 $,M
RTS,2022-11-08 20:15,-119.8764,39.6682,1539.00,30.20,28.40,92.92,110.00,5.00,0.00,29.52,M,0.50,M,BKN,M,M,M,300.00,M,M,M,-SN,M,M,M,M,M,M,24.26,KRTS 082015Z AUTO 11005KT 1/2SM -SN BKN003 M01/M02 A2952 RMK AO2,M
TMT,2022-11-08 20:15,-117.1971,39.4643,1749.34,36.30,33.40,89.10,80.00,3.00,0.00,29.54,M,10.00,M,BKN,BKN,M,M,6000.00,7000.00,M,M,M,M,M,M,M,M,M,33.60,KTMT 082015Z AUTO 08003KT 10SM BKN060 BKN070 02/01 A2954 RMK AO2 T00240008,M
BAM,2022-11-08 20:15,-116.8743,40.5990,1382.36,39.20,32.00,75.16,60.00,10.00,0.00,29.63,M,10.00,15.00,BKN,OVC,M,M,10000.00,12000.00,M,M,M,M,M,M,M,M,M,32.00,KBAM 082015Z AUTO 06010G15KT 10SM BKN100 OVC120 04/00 A2963 RMK AO1,M
MEV,2022-11-08 20:15,-119.7500,38.9963,1441.42,30.20,28.40,92.92,0.00,0.00,0.00,29.53,M,0.25,M,OVC,M,M,M,300.00,M,M,M,+SN FZFG,M,M,M,M,M,M,30.20,KMEV 082015Z AUTO 00000KT M1/4SM +SN FZFG OVC003 M01/M02 A2953 RMK AO2,M
05U,2022-11-08 20:15,-116.0051,39.6042,1811.23,39.20,33.80,80.79,140.00,22.00,0.00,29.65,M,8.00,M,SCT,SCT,SCT,M,1700.00,2200.00,2800.00,M,M,M,M,M,M,M,M,28.22,K05U 082015Z AUTO 14022KT 8SM SCT017 SCT022 SCT028 04/01 A2965 RMK A01,M
CXP,2022-11-08 20:15,-119.7326,39.1923,1431.00,30.20,28.40,92.92,0.00,0.00,0.00,29.55,M,0.25,M,OVC,M,M,M,300.00,M,M,M,SN FZFG,M,M,M,M,M,M,30.20,KCXP 082015Z AUTO 00000KT M1/4SM SN FZFG OVC003 M01/M02 A2955 RMK AO2,M
BVU,2022-11-08 20:15,-114.8611,35.9475,671.00,66.20,42.80,42.57,160.00,27.00,0.00,29.75,M,9.00,32.00,BKN,OVC,M,M,5000.00,6500.00,M,M,M,M,M,M,M,M,M,66.20,KBVU 082015Z AUTO 16027G32KT 9SM BKN050 OVC065 19/06 A2975 RMK AO2,M
RNO,2022-11-08 20:21,-119.7711,39.4839,1341.00,32.00,30.00,92.22,120.00,5.00,0.02,29.52,M,0.75,M,OVC,M,M,M,1200.00,M,M,M,-SN BR,M,M,M,M,M,M,26.40,KRNO 082021Z 12005KT 3/4SM -SN BR OVC012 00/M01 A2952 RMK AO2 P0002 T00001011 RVRNO,M
INS,2022-11-08 20:27,-115.6733,36.5872,955.00,55.40,48.20,76.66,90.00,13.00,0.00,29.69,1002.80,10.00,M,FEW,FEW,BKN,OVC,2400.00,4000.00,6000.00,8500.00,-DZ,M,M,M,M,M,M,55.40,KINS 082027Z AUTO 09013KT 10SM -DZ FEW024 FEW040 BKN060 OVC085 13/09 A2969 RMK AO2 RAE01DZB01E13DZB27 PRESFR SLP028 $,M
NFL,2022-11-08 20:34,-118.7010,39.4166,1199.00,42.00,34.00,72.78,M,3.00,0.02,29.50,M,8.00,M,BKN,OVC,M,M,2500.00,3200.00,M,M,-RA,M,M,M,M,M,M,40.23,KNFL 082034Z VRB03KT 8SM -RA BKN025 OVC032 06/01 A2950 RMK AO2 WR// P0002 T00560011,M
BVU,2022-11-08 20:35,-114.8611,35.9475,671.00,66.20,42.80,42.57,180.00,20.00,0.00,29.74,M,10.00,34.00,SCT,OVC,M,M,5500.00,7000.00,M,M,M,M,M,M,M,M,M,66.20,KBVU 082035Z AUTO 18020G34KT 10SM SCT055 OVC070 19/06 A2974 RMK AO2,M
TMT,2022-11-08 20:35,-117.1971,39.4643,1749.34,37.60,32.40,81.32,90.00,3.00,0.00,29.53,M,10.00,M,SCT,BKN,BKN,M,4400.00,5000.00,6000.00,M,M,M,M,M,M,M,M,35.09,KTMT 082035Z AUTO 09003KT 10SM SCT044 BKN050 BKN060 03/00 A2953 RMK AO2 T00310002,M
BAM,2022-11-08 20:35,-116.8743,40.5990,1382.36,39.20,32.00,75.16,50.00,15.00,0.00,29.60,M,10.00,18.00,BKN,OVC,M,M,8000.00,10000.00,M,M,M,M,M,M,M,M,M,30.11,KBAM 082035Z AUTO 05015G18KT 10SM BKN080 OVC100 04/00 A2960 RMK AO1,M
CXP,2022-11-08 20:35,-119.7326,39.1923,1431.00,30.20,28.40,92.92,0.00,0.00,0.00,29.54,M,0.25,M,OVC,M,M,M,300.00,M,M,M,SN FZFG,M,M,M,M,M,M,30.20,KCXP 082035Z AUTO 00000KT 1/4SM SN FZFG OVC003 M01/M02 A2954 RMK AO2,M
MEV,2022-11-08 20:35,-119.7500,38.9963,1441.42,30.20,30.20,100.00,130.00,3.00,0.00,29.54,M,0.25,M,OVC,M,M,M,300.00,M,M,M,SN FZFG,M,M,M,M,M,M,26.63,KMEV 082035Z AUTO 13003KT 1/4SM SN FZFG OVC003 M01/M01 A2954 RMK AO2,M
RTS,2022-11-08 20:35,-119.8764,39.6682,1539.00,30.20,28.40,92.92,140.00,4.00,0.00,29.52,M,0.25,M,OVC,M,M,M,300.00,M,M,M,-SN,M,M,M,M,M,M,25.32,KRTS 082035Z AUTO 14004KT 1/4SM -SN OVC003 M01/M02 A2952 RMK AO2,M
05U,2022-11-08 20:35,-116.0051,39.6042,1811.23,41.00,35.60,80.93,160.00,17.00,0.00,29.63,M,10.00,M,FEW,FEW,SCT,M,1700.00,2400.00,6000.00,M,M,M,M,M,M,M,M,31.87,K05U 082035Z AUTO 16017KT 10SM FEW017 FEW024 SCT060 05/02 A2963 RMK A01,M
INS,2022-11-08 20:38,-115.6733,36.5872,955.00,55.40,48.20,76.66,70.00,11.00,0.00,29.68,1002.40,10.00,M,FEW,FEW,BKN,BKN,2400.00,4300.00,6000.00,7500.00,M,M,M,M,M,M,M,55.40,KINS 082038Z AUTO 07011KT 10SM FEW024 FEW043 BKN060 BKN075 OVC090 13/09 A2968 RMK AO2 RAE01DZB01E13DZB27E38 SLP024 $,M
INS,2022-11-08 20:47,-115.6733,36.5872,955.00,57.20,46.40,67.12,90.00,7.00,0.00,29.68,1002.20,10.00,17.00,FEW,SCT,BKN,BKN,2400.00,4800.00,6000.00,7000.00,-RA,M,M,M,M,M,M,57.20,KINS 082047Z AUTO 09007G17KT 10SM -RA FEW024 SCT048 BKN060 BKN070 BKN090 14/08 A2968 RMK AO2 RAE01DZB01E13DZB27E38RAB47 SLP022 $,M
DRA,2022-11-08 20:53,-116.0278,36.6206,1009.00,58.00,46.00,64.47,180.00,23.00,0.00,29.67,1002.20,10.00,36.00,FEW,SCT,BKN,M,3500.00,6000.00,7000.00,M,M,M,M,M,36.00,180.00,2022-11-08 20:21,57.90,KDRA 082053Z AUTO 18023G36KT 10SM FEW035 SCT060 BKN070 14/08 A2967 RMK AO2 PK WND 18036/2021 SLP022 60007 T01440078 58039,M
ELY,2022-11-08 20:53,-114.8453,39.2950,1909.00,38.00,36.00,92.78,180.00,15.00,0.01,29.68,1002.10,10.00,M,SCT,BKN,OVC,M,4300.00,5000.00,8500.00,M,M,M,M,M,M,M,M,28.43,KELY 082053Z AUTO 18015KT 10SM SCT043 BKN050 OVC085 03/02 A2968 RMK AO2 RAE48 SLP021 P0001 60006 T00330022 58027,M
LOL,2022-11-08 20:53,-118.5701,40.0684,1192.43,39.00,30.90,72.45,120.00,8.00,T,29.53,1001.20,5.00,M,OVC,M,M,M,2300.00,M,M,M,-RA,M,M,M,M,M,M,32.74,KLOL 082053Z AUTO 12008KT 5SM -RA OVC023 04/M01 A2953 RMK AO2 RAB29 SLP012 P0000 60000 T00391006 56035,M
P68,2022-11-08 20:53,-116.0056,39.6014,1993.00,40.00,34.00,79.25,150.00,21.00,0.01,29.57,1000.20,M,40.00,M,M,M,M,M,M,M,M,M,M,M,M,40.00,130.00,2022-11-08 20:48,29.39,KP68 082053Z AUTO 15021G40KT 04/01 A2957 RMK AO1 PK WND 13040/2048 WSHFT 2011 SLP002 P0001 60001 T00440011 58050,M
VGT,2022-11-08 20:53,-115.1933,36.2111,667.00,65.00,44.00,46.81,170.00,21.00,0.00,29.69,1005.60,10.00,28.00,BKN,OVC,M,M,5000.00,6000.00,M,M,M,M,M,M,37.00,190.00,2022-11-08 20:00,64.90,KVGT 082053Z 17021G28KT 10SM BKN050 OVC060 18/07 A2969 RMK AO2 PK WND 19037/2000 SLP056 60000 T01830067 56040,M
RNO,2022-11-08 20:55,-119.7711,39.4839,1341.00,32.00,30.90,95.65,110.00,5.00,0.05,29.52,999.80,0.75,M,OVC,M,M,M,1200.00,M,M,M,-SN BR,M,M,M,M,M,M,26.40,KRNO 082055Z 11005KT 3/4SM -SN BR OVC012 00/M01 A2952 RMK AO2 TWR VIS 1 SLP998 P0005 60014 T00001006 56025 RVRNO,M
05U,2022-11-08 20:55,-116.0051,39.6042,1811.23,41.00,35.60,80.93,150.00,20.00,0.00,29.60,M,8.00,29.00,FEW,FEW,SCT,M,1800.00,2300.00,3000.00,M,M,M,M,M,M,M,M,31.09,K05U 082055Z AUTO 15020G29KT 8SM FEW018 FEW023 SCT030 05/02 A2960 RMK A01,M
RTS,2022-11-08 20:55,-119.8764,39.6682,1539.00,30.20,28.40,92.92,160.00,5.00,0.05,29.51,M,0.75,M,BKN,M,M,M,300.00,M,M,M,-SN,M,M,M,M,M,M,24.26,KRTS 082055Z AUTO 16005KT 3/4SM -SN BKN003 M01/M02 A2951 RMK AO2 P0005,M
BVU,2022-11-08 20:55,-114.8611,35.9475,671.00,66.20,42.80,42.57,180.00,20.00,0.00,29.73,M,10.00,25.00,BKN,OVC,M,M,5500.00,7000.00,M,M,M,M,M,M,M,M,M,66.20,KBVU 082055Z AUTO 18020G25KT 10SM BKN055 OVC070 19/06 A2973 RMK AO2,M
TMT,2022-11-08 20:55,-117.1971,39.4643,1749.34,37.40,32.50,82.29,100.00,6.00,0.00,29.53,M,10.00,M,SCT,SCT,OVC,M,3300.00,4000.00,4800.00,M,-DZ,M,M,M,M,M,M,32.03,KTMT 082055Z AUTO 10006KT 10SM -DZ SCT033 SCT040 OVC048 03/00 A2953 RMK AO2 T00300003,M
MEV,2022-11-08 20:55,-119.7500,38.9963,1441.42,30.20,30.20,100.00,180.00,3.00,0.05,29.52,M,0.25,M,OVC,M,M,M,300.00,M,M,M,SN FZFG,M,M,M,M,M,M,26.63,KMEV 082055Z AUTO 18003KT 1/4SM SN FZFG OVC003 M01/M01 A2952 RMK AO2 P0005,M
CXP,2022-11-08 20:55,-119.7326,39.1923,1431.00,30.20,30.20,100.00,0.00,0.00,0.06,29.53,M,0.25,M,OVC,M,M,M,400.00,M,M,M,SN FZFG,M,M,M,M,M,M,30.20,KCXP 082055Z AUTO 00000KT 1/4SM SN FZFG OVC004 M01/M01 A2953 RMK AO2 P0006,M
LSV,2022-11-08 20:55,-115.0343,36.2362,570.00,66.40,44.00,44.09,180.00,26.00,0.00,29.67,1003.40,7.00,34.00,FEW,SCT,M,M,6000.00,7500.00,M,M,M,M,M,M,40.00,190.00,2022-11-08 20:24,66.40,KLSV 082055Z AUTO 18026G34KT 7SM FEW060 SCT075 19/07 A2967 RMK AO2 PK WND 19040/24 SLP034 60000 T01910066 57041 $,M
INS,2022-11-08 20:55,-115.6733,36.5872,955.00,56.00,46.80,70.91,70.00,11.00,T,29.68,1002.40,10.00,17.00,FEW,BKN,OVC,M,4800.00,6000.00,7000.00,M,-RA,M,M,M,M,M,M,56.10,KINS 082055Z AUTO 07011G17KT 10SM -RA FEW048 BKN060 OVC070 13/08 A2968 RMK AO2 RAE01DZB01E13DZB27E38RAB47 SLP024 P0000 60004 T01340082 57028 $,M
NFL,2022-11-08 20:56,-118.7010,39.4166,1199.00,41.00,35.00,79.34,250.00,5.00,0.03,29.50,997.90,6.00,M,OVC,M,M,M,2300.00,M,M,M,-RA,M,M,M,M,M,M,37.08,KNFL 082056Z 25005KT 6SM -RA OVC023 05/02 A2950 RMK AO2 SLP979 WR// P0003 60003 T00500017 56033,M
TPH,2022-11-08 20:56,-117.0904,38.0505,1654.00,44.00,38.00,78.66,170.00,25.00,T,29.56,999.00,10.00,36.00,BKN,BKN,OVC,M,1800.00,2800.00,3600.00,M,M,M,M,M,43.00,170.00,2022-11-08 20:05,34.19,KTPH 082056Z AUTO 17025G36KT 10SM BKN018 BKN028 OVC036 07/03 A2956 RMK AO2 PK WND 17043/2005 RAE06 SLP990 P0000 60001 T00670033 58049,M
HND,2022-11-08 20:56,-115.1344,35.9729,742.79,63.00,46.00,53.78,180.00,21.00,T,29.72,1006.90,10.00,31.00,BKN,OVC,M,M,4900.00,6000.00,M,M,-RA,M,M,M,40.00,170.00,2022-11-08 20:00,63.00,KHND 082056Z 18021G31KT 10SM -RA BKN049 OVC060 17/08 A2972 RMK AO2 PK WND 17040/2000 RAB07E17B36 SLP069 P0000 60000 T01720078 56034,M
LAS,2022-11-08 20:56,-115.1634,36.0719,663.00,66.00,44.00,45.05,190.00,14.00,T,29.71,1004.70,10.00,28.00,SCT,OVC,M,M,5000.00,7500.00,M,M,M,M,M,M,39.00,160.00,2022-11-08 20:12,66.00,KLAS 082056Z 19014G28KT 10SM SCT050 OVC075 19/07 A2971 RMK AO2 PK WND 16039/2012 RAB23E33 SLP047 P0000 60000 T01890067 56035,M
WMC,2022-11-08 20:56,-117.8072,40.9019,1315.00,40.00,28.00,62.15,50.00,16.00,0.00,29.55,1000.90,10.00,29.00,BKN,OVC,M,M,6000.00,9000.00,M,M,M,M,M,M,30.00,40.00,2022-11-08 20:40,30.72,KWMC 082056Z AUTO 05016G29KT 10SM BKN060 OVC090 04/M02 A2955 RMK AO2 PK WND 04030/2040 SLP009 T00441022 58040,M
EKO,2022-11-08 20:56,-115.7860,40.8242,1367.00,35.00,28.00,75.06,60.00,14.00,0.00,29.65,1005.40,10.00,20.00,BKN,OVC,M,M,6500.00,8000.00,M,M,M,M,M,M,M,M,M,25.16,KEKO 082056Z AUTO 06014G20KT 10SM BKN065 OVC080 02/M02 A2965 RMK AO2 SLP054 T00171022 56032,M
BAM,2022-11-08 21:00,-116.8743,40.5990,1382.36,39.20,32.00,75.16,90.00,8.00,0.00,29.59,M,10.00,19.00,BKN,OVC,M,M,7000.00,8000.00,M,M,M,M,M,M,M,M,M,32.98,KBAM 082100Z AUTO 09008G19KT 10SM BKN070 OVC080 04/00 A2959 RMK AO1,M
RNO,2022-11-08 21:03,-119.7711,39.4839,1341.00,32.00,30.00,92.22,110.00,6.00,T,29.51,M,1.00,M,OVC,M,M,M,1400.00,M,M,M,-SN BR,M,M,M,M,M,M,25.53,KRNO 082103Z 11006KT 1SM -SN BR OVC014 00/M01 A2951 RMK AO2 P0000 T00001011 RVRNO,M
ELY,2022-11-08 21:14,-114.8453,39.2950,1909.00,37.00,36.00,96.13,180.00,14.00,T,29.68,M,4.00,22.00,BKN,BKN,OVC,M,2600.00,5000.00,7000.00,M,RA BR,M,M,M,M,M,M,27.61,KELY 082114Z AUTO 18014G22KT 4SM RA BR BKN026 BKN050 OVC070 03/02 A2968 RMK AO2 RAB00 P0000 T00280022,M
05U,2022-11-08 21:15,-116.0051,39.6042,1811.23,42.80,33.80,70.28,160.00,26.00,0.00,29.57,M,10.00,31.00,FEW,FEW,M,M,2000.00,2500.00,M,M,M,M,M,M,M,M,M,32.25,K05U 082115Z AUTO 16026G31KT 10SM FEW020 FEW025 06/01 A2957 RMK A01,M
MEV,2022-11-08 21:15,-119.7500,38.9963,1441.42,30.20,30.20,100.00,0.00,0.00,0.00,29.51,M,0.25,M,OVC,M,M,M,300.00,M,M,M,SN FZFG,M,M,M,M,M,M,30.20,KMEV 082115Z AUTO 00000KT 1/4SM SN FZFG OVC003 M01/M01 A2951 RMK AO2,M
BAM,2022-11-08 21:15,-116.8743,40.5990,1382.36,41.00,33.80,75.33,60.00,14.00,0.00,29.57,M,10.00,19.00,SCT,BKN,M,M,7000.00,9000.00,M,M,M,M,M,M,M,M,M,32.76,KBAM 082115Z AUTO 06014G19KT 10SM SCT070 BKN090 05/01 A2957 RMK AO1,M
BVU,2022-11-08 21:15,-114.8611,35.9475,671.00,66.20,44.60,45.60,180.00,26.00,0.00,29.73,M,10.00,34.00,FEW,BKN,OVC,M,4800.00,5500.00,7000.00,M,M,M,M,M,M,M,M,66.20,KBVU 082115Z AUTO 18026G34KT 10SM FEW048 BKN055 OVC070 19/07 A2973 RMK AO2,M
CXP,2022-11-08 21:15,-119.7326,39.1923,1431.00,30.20,28.40,92.92,0.00,0.00,0.00,29.52,M,0.50,M,OVC,M,M,M,400.00,M,M,M,-SN FZFG,M,M,M,M,M,M,30.20,KCXP 082115Z AUTO 00000KT 1/2SM -SN FZFG OVC004 M01/M02 A2952 RMK AO2,M
RTS,2022-11-08 21:15,-119.8764,39.6682,1539.00,30.20,28.40,92.92,0.00,0.00,0.00,29.50,M,0.75,M,VV ,M,M,M,500.00,M,M,M,-SN,M,M,M,M,M,M,30.20,KRTS 082115Z AUTO 00000KT 3/4SM -SN VV005 M01/M02 A2950 RMK AO2,M
TMT,2022-11-08 21:15,-117.1971,39.4643,1749.34,36.30,32.00,84.23,80.00,11.00,0.00,29.51,M,10.00,16.00,SCT,BKN,OVC,M,3300.00,4000.00,4600.00,M,-RA,M,M,M,M,M,M,27.90,KTMT 082115Z AUTO 08011G16KT 10SM -RA SCT033 BKN040 OVC046 02/00 A2951 RMK AO2 T00240000,M
RNO,2022-11-08 21:19,-119.7711,39.4839,1341.00,32.00,30.90,95.65,110.00,3.00,0.02,29.50,M,0.50,M,OVC,M,M,M,1100.00,M,M,M,SN FG,M,M,M,M,M,M,28.69,KRNO 082119Z 11003KT 1/2SM SN FG OVC011 00/M01 A2950 RMK AO2 P0002 T00001006 RVRNO,M
INS,2022-11-08 21:23,-115.6733,36.5872,955.00,57.20,48.20,71.83,150.00,10.00,0.00,29.67,1002.10,10.00,25.00,FEW,FEW,BKN,OVC,4200.00,5000.00,6000.00,9000.00,-RA,M,M,M,M,M,M,57.20,KINS 082123Z AUTO 15010G25KT 10SM -RA FEW042 FEW050 BKN060 OVC090 14/09 A2967 RMK AO2 WSHFT 15 SLP021 $,M
INS,2022-11-08 21:25,-115.6733,36.5872,955.00,57.20,48.20,71.83,140.00,11.00,0.00,29.67,1002.10,10.00,21.00,FEW,BKN,BKN,M,4200.00,6000.00,9000.00,M,M,M,M,M,M,M,M,57.20,KINS 082125Z AUTO 14011G21KT 10SM FEW042 BKN060 BKN090 14/09 A2967 RMK AO2 RAE25 SLP021 $,M
INS,2022-11-08 21:34,-115.6733,36.5872,955.00,57.20,48.20,71.83,180.00,19.00,0.00,29.67,1002.10,10.00,35.00,FEW,SCT,BKN,M,4300.00,5500.00,9000.00,M,M,M,M,M,M,M,M,57.20,KINS 082134Z AUTO 18019G35KT 10SM FEW043 SCT055 BKN090 14/09 A2967 RMK AO2 WSHFT 29 RAE25 SLP021 $,M
RTS,2022-11-08 21:35,-119.8764,39.6682,1539.00,30.20,28.40,92.92,0.00,0.00,0.00,29.50,M,1.00,M,SCT,SCT,M,M,300.00,1500.00,M,M,-SN,M,M,M,M,M,M,30.20,KRTS 082135Z AUTO 00000KT 1SM -SN SCT003 SCT015 M01/M02 A2950 RMK AO2,M
BVU,2022-11-08 21:35,-114.8611,35.9475,671.00,64.40,46.40,51.98,200.00,24.00,0.00,29.74,M,7.00,37.00,SCT,BKN,OVC,M,4500.00,6000.00,7000.00,M,M,M,M,M,M,M,M,64.40,KBVU 082135Z AUTO 20024G37KT 7SM SCT045 BKN060 OVC070 18/08 A2974 RMK AO2,M
CXP,2022-11-08 21:35,-119.7326,39.1923,1431.00,32.00,30.20,92.97,80.00,4.00,0.00,29.51,M,0.50,M,OVC,M,M,M,400.00,M,M,M,-SN BR,M,M,M,M,M,M,27.42,KCXP 082135Z AUTO 08004KT 1/2SM -SN BR OVC004 M00/M01 A2951 RMK AO2,M
05U,2022-11-08 21:35,-116.0051,39.6042,1811.23,42.80,33.80,70.28,160.00,21.00,0.00,29.55,M,10.00,30.00,CLR,M,M,M,M,M,M,M,M,M,M,M,M,M,M,33.26,K05U 082135Z AUTO 16021G30KT 10SM CLR 06/01 A2955 RMK A01,M
BAM,2022-11-08 21:35,-116.8743,40.5990,1382.36,41.00,33.80,75.33,90.00,7.00,0.00,29.56,M,10.00,14.00,BKN,OVC,M,M,7500.00,9000.00,M,M,M,M,M,M,M,M,M,35.75,KBAM 082135Z AUTO 09007G14KT 10SM BKN075 OVC090 05/01 A2956 RMK AO1,M
MEV,2022-11-08 21:35,-119.7500,38.9963,1441.42,30.20,30.20,100.00,0.00,0.00,0.00,29.51,M,0.25,M,OVC,M,M,M,300.00,M,M,M,SN FZFG,M,M,M,M,M,M,30.20,KMEV 082135Z AUTO 00000KT 1/4SM SN FZFG OVC003 M01/M01 A2951 RMK AO2,M
TMT,2022-11-08 21:35,-117.1971,39.4643,1749.34,35.80,32.20,86.60,90.00,5.00,0.00,29.50,M,10.00,M,BKN,OVC,M,M,3800.00,4600.00,M,M,-DZ,M,M,M,M,M,M,30.91,KTMT 082135Z AUTO 09005KT 10SM -DZ BKN038 OVC046 02/00 A2950 RMK AO2 LTG DSNT W T00210001,M
INS,2022-11-08 21:43,-115.6733,36.5872,955.00,57.20,48.20,71.83,140.00,21.00,0.00,29.65,1001.40,10.00,27.00,FEW,SCT,M,M,6000.00,9500.00,M,M,M,M,M,M,M,M,M,57.20,KINS 082143Z AUTO 14021G27KT 10SM FEW060 SCT095 14/09 A2965 RMK AO2 WSHFT 38 RAE25 PRESFR SLP014 $,M
RNO,2022-11-08 21:46,-119.7711,39.4839,1341.00,33.00,30.90,91.51,20.00,4.00,0.04,29.48,M,0.75,M,OVC,M,M,M,1200.00,M,M,M,-SN BR,M,M,M,M,M,M,28.70,KRNO 082146Z 02004KT 3/4SM -SN BR OVC012 01/M01 A2948 RMK AO2 P0004 T00061006 RVRNO,M
VGT,2022-11-08 21:53,-115.1933,36.2111,667.00,64.00,46.00,51.93,180.00,24.00,T,29.69,1005.70,10.00,36.00,SCT,OVC,M,M,4300.00,5500.00,M,M,M,M,M,M,41.00,190.00,2022-11-08 21:34,64.00,KVGT 082153Z 18024G36KT 10SM SCT043 OVC055 18/08 A2969 RMK AO2 PK WND 19041/2134 RAB02E26 SLP057 P0000 T01780078,M
P68,2022-11-08 21:53,-116.0056,39.6014,1993.00,39.00,35.00,85.76,150.00,24.00,0.00,29.52,998.70,M,37.00,M,M,M,M,M,M,M,M,M,M,M,M,43.00,170.00,2022-11-08 21:12,27.50,KP68 082153Z AUTO 15024G37KT 04/02 A2952 RMK AO1 PK WND 17043/2112 SLP987 T00390017,M
LOL,2022-11-08 21:53,-118.5701,40.0684,1192.43,37.00,33.00,85.64,30.00,4.00,0.05,29.50,1000.80,5.00,M,OVC,M,M,M,1900.00,M,M,M,-RA BR,M,M,M,M,M,M,33.26,KLOL 082153Z AUTO 03004KT 5SM -RA BR OVC019 03/01 A2950 RMK AO2 SLP008 P0005 T00280006,M
DRA,2022-11-08 21:53,-116.0278,36.6206,1009.00,58.00,44.00,59.98,180.00,30.00,0.00,29.63,1000.70,10.00,51.00,FEW,BKN,M,M,4400.00,7000.00,M,M,M,M,M,M,51.00,190.00,2022-11-08 21:50,57.90,KDRA 082153Z AUTO 18030G51KT 10SM FEW044 BKN070 14/07 A2963 RMK AO2 PK WND 19051/2150 SLP007 T01440067,M
ELY,2022-11-08 21:53,-114.8453,39.2950,1909.00,35.00,34.00,95.71,190.00,15.00,0.07,29.66,1001.20,4.00,M,OVC,M,M,M,2000.00,M,M,M,RA BR,M,M,M,M,M,M,24.80,KELY 082153Z AUTO 19015KT 4SM RA BR OVC020 02/01 A2966 RMK AO2 RAB00 SLP012 P0007 T00170011,M
INS,2022-11-08 21:54,-115.6733,36.5872,955.00,57.20,50.00,76.82,160.00,11.00,0.00,29.65,1001.40,10.00,25.00,FEW,SCT,M,M,5000.00,10000.00,M,M,M,M,M,M,M,M,M,57.20,KINS 082154Z AUTO 16011G25KT 10SM FEW050 SCT100 14/10 A2965 RMK AO2 WSHFT 52 RAE25 SLP014 $,M
RNO,2022-11-08 21:55,-119.7711,39.4839,1341.00,33.00,30.90,91.51,0.00,0.00,0.04,29.50,999.10,0.75,M,OVC,M,M,M,1200.00,M,M,M,-SN BR,M,M,M,M,M,M,33.10,KRNO 082155Z 00000KT 3/4SM -SN BR OVC012 01/M01 A2950 RMK AO2 SLP991 P0004 T00061006 RVRNO,M
LSV,2022-11-08 21:55,-115.0343,36.2362,570.00,65.00,46.40,51.08,170.00,31.00,0.00,29.67,1003.50,9.00,37.00,OVC,M,M,M,5000.00,M,M,M,M,M,M,M,38.00,180.00,2022-11-08 20:57,64.90,KLSV 082155Z AUTO 17031G37KT 9SM OVC050 18/08 A2967 RMK AO2 PK WND 18038/2057 SLP035 T01830080 $,M
CXP,2022-11-08 21:55,-119.7326,39.1923,1431.00,32.00,30.20,92.97,0.00,0.00,0.03,29.52,M,0.75,M,OVC,M,M,M,400.00,M,M,M,-SN BR,M,M,M,M,M,M,32.00,KCXP 082155Z AUTO 00000KT 3/4SM -SN BR OVC004 M00/M01 A2952 RMK AO2 P0003,M
BVU,2022-11-08 21:55,-114.8611,35.9475,671.00,64.40,46.40,51.98,190.00,23.00,0.00,29.73,M,10.00,33.00,FEW,OVC,M,M,4800.00,6500.00,M,M,M,M,M,M,M,M,M,64.40,KBVU 082155Z AUTO 19023G33KT 10SM FEW048 OVC065 18/08 A2973 RMK AO2,M
RTS,2022-11-08 21:55,-119.8764,39.6682,1539.00,30.20,28.40,92.92,0.00,0.00,0.01,29.48,M,2.00,M,CLR,M,M,M,M,M,M,M,-SN,M,M,M,M,M,M,30.20,KRTS 082155Z AUTO 00000KT 2SM -SN CLR M01/M02 A2948 RMK AO2 P0001,M
05U,2022-11-08 21:55,-116.0051,39.6042,1811.23,41.00,35.60,80.93,150.00,23.00,0.00,29.55,M,3.00,29.00,CLR,M,M,M,M,M,M,M,HZ,M,M,M,M,M,M,30.41,K05U 082155Z AUTO 15023G29KT 3SM HZ CLR 05/02 A2955 RMK A01,M
MEV,2022-11-08 21:55,-119.7500,38.9963,1441.42,30.20,30.20,100.00,210.00,4.00,0.03,29.52,M,0.75,M,BKN,M,M,M,300.00,M,M,M,-SN BR,M,M,M,M,M,M,25.32,KMEV 082155Z AUTO 21004KT 3/4SM -SN BR BKN003 M01/M01 A2952 RMK AO2 P0003,M
BAM,2022-11-08 21:55,-116.8743,40.5990,1382.36,42.80,32.00,65.38,90.00,13.00,0.00,29.54,M,10.00,24.00,BKN,OVC,M,M,7000.00,9000.00,M,M,M,M,M,M,M,M,M,35.40,KBAM 082155Z AUTO 09013G24KT 10SM BKN070 OVC090 06/00 A2954 RMK AO1,M
TMT,2022-11-08 21:55,-117.1971,39.4643,1749.34,38.00,32.70,81.34,0.00,0.00,0.00,29.48,M,10.00,M,BKN,OVC,M,M,4000.00,4800.00,M,M,-DZ,M,M,M,M,M,M,37.90,KTMT 082155Z AUTO 00000KT 10SM -DZ BKN040 OVC048 03/00 A2948 RMK AO2 T00330004,M
INS,2022-11-08 21:55,-115.6733,36.5872,955.00,56.50,49.30,76.76,180.00,8.00,0.02,29.65,1001.40,10.00,25.00,FEW,SCT,M,M,5000.00,10000.00,M,M,M,M,M,M,35.00,220.00,2022-11-08 21:28,56.50,KINS 082155Z AUTO 18008G25KT 10SM FEW050 SCT100 14/10 A2965 RMK AO2 PK WND 22035/28 RAE25 SLP014 P0002 T01360096 $,M
NFL,2022-11-08 21:56,-118.7010,39.4166,1199.00,39.00,36.00,88.87,0.00,0.00,0.03,29.48,997.40,4.00,M,BKN,OVC,M,M,1100.00,3000.00,M,M,-RA BR,M,M,M,M,M,M,39.00,KNFL 082156Z 00000KT 4SM -RA BR BKN011 OVC030 04/02 A2948 RMK AO2 SLP974 WR// P0003 T00390022,M
WMC,2022-11-08 21:56,-117.8072,40.9019,1315.00,40.00,28.90,64.49,40.00,14.00,T,29.51,999.60,10.00,27.00,BKN,BKN,OVC,M,4200.00,4900.00,5500.00,M,M,M,M,M,28.00,60.00,2022-11-08 21:32,31.35,KWMC 082156Z AUTO 04014G27KT 10SM BKN042 BKN049 OVC055 04/M02 A2951 RMK AO2 PK WND 06028/2132 RAB45E54 SLP996 P0000 T00441017,M
LAS,2022-11-08 21:56,-115.1634,36.0719,663.00,64.00,47.00,53.72,170.00,13.00,0.00,29.71,1004.70,10.00,23.00,FEW,SCT,OVC,M,4000.00,5500.00,7000.00,M,M,M,M,M,37.00,200.00,2022-11-08 21:05,64.00,KLAS 082156Z 17013G23KT 10SM FEW040 SCT055 OVC070 18/08 A2971 RMK AO2 PK WND 20037/2105 SLP047 T01780083,M
TPH,2022-11-08 21:56,-117.0904,38.0505,1654.00,43.00,40.00,88.71,170.00,25.00,T,29.52,997.70,9.00,36.00,SCT,BKN,OVC,M,1200.00,1900.00,3500.00,M,-RA,M,M,M,42.00,170.00,2022-11-08 21:21,32.71,KTPH 082156Z AUTO 17025G36KT 9SM -RA SCT012 BKN019 OVC035 06/04 A2952 RMK AO2 PK WND 17042/2121 RAB18 SLP977 P0000 T00610044,M
INS,2022-11-08 21:56,-115.6733,36.5872,955.00,57.20,50.00,76.82,160.00,13.00,0.00,29.66,1001.70,10.00,25.00,FEW,SCT,M,M,5000.00,10000.00,M,M,M,M,M,M,M,M,M,57.20,KINS 082156Z AUTO 16013G25KT 10SM FEW050 SCT100 14/10 A2966 RMK AO2 WSHFT 55 SLP017 $,M
EKO,2022-11-08 21:56,-115.7860,40.8242,1367.00,38.00,28.00,67.20,40.00,15.00,0.00,29.59,1002.90,10.00,20.00,SCT,BKN,OVC,M,3900.00,4600.00,6500.00,M,M,M,M,M,M,M,M,28.43,KEKO 082156Z AUTO 04015G20KT 10SM SCT039 BKN046 OVC065 03/M02 A2959 RMK AO2 SLP029 T00331022,M
HND,2022-11-08 21:56,-115.1344,35.9729,742.79,61.00,49.00,64.37,170.00,22.00,T,29.71,1006.50,10.00,30.00,BKN,OVC,M,M,4600.00,6500.00,M,M,M,M,M,M,36.00,180.00,2022-11-08 21:14,61.00,KHND 082156Z 17022G30KT 10SM BKN046 OVC065 16/09 A2971 RMK AO2 PK WND 18036/2114 RAE34 SLP065 P0000 T01610094,M
RNO,2022-11-08 21:57,-119.7711,39.4839,1341.00,33.00,30.90,91.51,0.00,0.00,T,29.50,M,1.50,M,OVC,M,M,M,1600.00,M,M,M,-SN BR,M,M,M,M,M,M,33.10,KRNO 082157Z 00000KT 1 1/2SM -SN BR OVC016 01/M01 A2950 RMK AO2 P0000 T00061006,M
INS,2022-11-08 21:57,-115.6733,36.5872,955.00,57.20,50.00,76.82,110.00,11.00,0.00,29.66,1001.70,10.00,25.00,FEW,SCT,M,M,5000.00,10000.00,M,M,M,M,M,M,M,M,M,57.20,KINS 082157Z AUTO 11011G25KT 10SM FEW050 SCT100 14/10 A2966 RMK AO2 WSHFT 56 SLP017 $,M
LSV,2022-11-08 22:04,-115.0343,36.2362,570.00,64.40,48.20,55.63,170.00,25.00,0.00,29.67,1003.50,10.00,33.00,OVC,M,M,M,4900.00,M,M,M,M,M,M,M,M,M,M,64.40,KLSV 082204Z AUTO 17025G33KT 10SM OVC049 18/09 A2967 RMK AO2 SLP035 $,M
INS,2022-11-08 22:06,-115.6733,36.5872,955.00,57.20,46.40,67.12,210.00,26.00,0.00,29.66,1001.70,10.00,32.00,SCT,BKN,M,M,8500.00,11000.00,M,M,M,M,M,M,M,M,M,57.20,KINS 082206Z AUTO 21026G32KT 10SM SCT085 BKN110 14/08 A2966 RMK AO2 WSHFT 03 SLP017 $,M
LOL,2022-11-08 22:11,-118.5701,40.0684,1192.43,36.00,33.00,89.09,10.00,6.00,0.02,29.50,M,5.00,M,FEW,OVC,M,M,900.00,1900.00,M,M,RA BR,M,M,M,M,M,M,30.35,KLOL 082211Z AUTO 01006KT 5SM RA BR FEW009 OVC019 02/01 A2950 RMK AO2 P0002 T00220006,M
RNO,2022-11-08 22:12,-119.7711,39.4839,1341.00,33.00,30.90,91.51,0.00,0.00,0.01,29.50,M,3.00,M,BKN,OVC,M,M,1600.00,3000.00,M,M,-SN BR,M,M,M,M,M,M,33.10,KRNO 082212Z 00000KT 3SM -SN BR BKN016 OVC030 01/M01 A2950 RMK AO2 P0001 T00061006,M
CXP,2022-11-08 22:15,-119.7326,39.1923,1431.00,32.00,30.20,92.97,0.00,0.00,0.00,29.52,M,1.00,M,BKN,BKN,M,M,400.00,800.00,M,M,-SN BR,M,M,M,M,M,M,32.00,KCXP 082215Z AUTO 00000KT 1SM -SN BR BKN004 BKN008 M00/M01 A2952 RMK AO2,M
BVU,2022-11-08 22:15,-114.8611,35.9475,671.00,62.60,46.40,55.37,200.00,23.00,0.00,29.72,M,10.00,30.00,FEW,OVC,M,M,3900.00,6500.00,M,M,M,M,M,M,M,M,M,62.60,KBVU 082215Z AUTO 20023G30KT 10SM FEW039 OVC065 17/08 A2972 RMK AO2,M
05U,2022-11-08 22:15,-116.0051,39.6042,1811.23,41.00,35.60,80.93,160.00,23.00,0.00,29.54,M,3.00,31.00,CLR,M,M,M,M,M,M,M,BR,M,M,M,M,M,M,30.41,K05U 082215Z AUTO 16023G31KT 3SM BR CLR 05/02 A2954 RMK A01,M
BAM,2022-11-08 22:15,-116.8743,40.5990,1382.36,41.00,32.00,70.08,80.00,14.00,0.00,29.53,M,10.00,20.00,SCT,SCT,OVC,M,5500.00,7000.00,7500.00,M,M,M,M,M,M,M,M,32.76,KBAM 082215Z AUTO 08014G20KT 10SM SCT055 SCT070 OVC075 05/00 A2953 RMK AO1,M
MEV,2022-11-08 22:15,-119.7500,38.9963,1441.42,30.20,30.20,100.00,0.00,0.00,0.00,29.51,M,0.50,M,BKN,M,M,M,300.00,M,M,M,-SN FZFG,M,M,M,M,M,M,30.20,KMEV 082215Z AUTO 00000KT 1/2SM -SN FZFG BKN003 M01/M01 A2951 RMK AO2,M
RTS,2022-11-08 22:15,-119.8764,39.6682,1539.00,30.20,28.40,92.92,110.00,4.00,0.00,29.50,M,1.25,M,CLR,M,M,M,M,M,M,M,-SN,M,M,M,M,M,M,25.32,KRTS 082215Z AUTO 11004KT 1 1/4SM -SN CLR M01/M02 A2950 RMK AO2,M
TMT,2022-11-08 22:15,-117.1971,39.4643,1749.34,38.30,32.50,79.43,270.00,3.00,0.00,29.48,M,10.00,M,SCT,BKN,OVC,M,3900.00,4800.00,7000.00,M,M,M,M,M,M,M,M,35.89,KTMT 082215Z AUTO 27003KT 10SM SCT039 BKN048 OVC070 04/00 A2948 RMK AO2 LTG DSNT S T00350003,M
TPH,2022-11-08 22:26,-117.0904,38.0505,1654.00,44.00,39.00,82.12,190.00,27.00,T,29.51,M,10.00,45.00,FEW,SCT,BKN,M,1500.00,2200.00,3800.00,M,M,M,M,M,45.00,180.00,2022-11-08 22:17,33.84,KTPH 082226Z AUTO 19027G45KT 10SM FEW015 SCT022 BKN038 07/04 A2951 RMK AO2 PK WND 18045/2217 RAE18 P0000 T00670039,M
CXP,2022-11-08 22:30,-119.7326,39.1923,1431.00,32.00,30.20,92.97,0.00,0.00,0.00,29.52,M,0.75,M,BKN,M,M,M,600.00,M,M,M,-SN BR,M,M,M,M,M,M,32.00,KCXP 082230Z AUTO 00000KT 3/4SM -SN BR BKN006 M00/M01 A2952 RMK AO2,M
RNO,2022-11-08 22:34,-119.7711,39.4839,1341.00,34.00,32.00,93.03,60.00,3.00,0.01,29.49,M,9.00,M,SCT,BKN,OVC,M,1000.00,2200.00,3500.00,M,-SN,M,M,M,M,M,M,30.75,KRNO 082234Z 06003KT 9SM -SN SCT010 BKN022 OVC035 01/00 A2949 RMK AO2 P0001 T00110000,M
MEV,2022-11-08 22:35,-119.7500,38.9963,1441.42,30.20,30.20,100.00,0.00,0.00,0.00,29.50,M,0.50,M,BKN,M,M,M,300.00,M,M,M,-SN FZFG,M,M,M,M,M,M,30.20,KMEV 082235Z AUTO 00000KT 1/2SM -SN FZFG BKN003 M01/M01 A2950 RMK AO2,M
TMT,2022-11-08 22:35,-117.1971,39.4643,1749.34,40.60,31.30,69.19,220.00,8.00,0.00,29.46,M,10.00,15.00,SCT,OVC,M,M,4800.00,6000.00,M,M,M,M,M,M,M,M,M,34.71,KTMT 082235Z AUTO 22008G15KT 10SM SCT048 OVC060 05/00 A2946 RMK AO2 T00481004,M
BVU,2022-11-08 22:35,-114.8611,35.9475,671.00,62.60,48.20,59.26,190.00,26.00,0.00,29.72,M,4.00,36.00,OVC,M,M,M,6500.00,M,M,M,HZ,M,M,M,M,M,M,62.60,KBVU 082235Z AUTO 19026G36KT 4SM HZ OVC065 17/09 A2972 RMK AO2,M
RTS,2022-11-08 22:35,-119.8764,39.6682,1539.00,30.20,28.40,92.92,80.00,6.00,0.00,29.48,M,2.00,M,FEW,M,M,M,300.00,M,M,M,-SN,M,M,M,M,M,M,23.36,KRTS 082235Z AUTO 08006KT 2SM -SN FEW003 M01/M02 A2948 RMK AO2,M
05U,2022-11-08 22:35,-116.0051,39.6042,1811.23,41.00,35.60,80.93,160.00,26.00,0.00,29.53,M,10.00,33.00,CLR,M,M,M,M,M,M,M,M,M,M,M,M,M,M,29.80,K05U 082235Z AUTO 16026G33KT 10SM CLR 05/02 A2953 RMK A01,M
BAM,2022-11-08 22:35,-116.8743,40.5990,1382.36,42.80,33.80,70.28,80.00,14.00,0.00,29.52,M,10.00,17.00,SCT,BKN,OVC,M,3700.00,6500.00,10000.00,M,M,M,M,M,M,M,M,35.08,KBAM 082235Z AUTO 08014G17KT 10SM SCT037 BKN065 OVC100 06/01 A2952 RMK AO1,M
NFL,2022-11-08 22:43,-118.7010,39.4166,1199.00,38.00,35.00,89.53,280.00,10.00,0.01,29.49,M,3.00,M,BKN,BKN,OVC,M,700.00,1200.00,1800.00,M,-RA BR,M,M,M,M,M,M,30.37,KNFL 082243Z COR 28010KT 3SM -RA BR BKN007 BKN012 OVC018 03/02 A2949 RMK AO2 P0001 T00330017,M
LSV,2022-11-08 22:46,-115.0343,36.2362,570.00,64.40,48.20,55.63,170.00,30.00,0.00,29.66,1003.20,10.00,35.00,FEW,OVC,M,M,3100.00,4600.00,M,M,-RA,M,M,M,M,M,M,64.40,KLSV 082246Z AUTO 17030G35KT 10SM -RA FEW031 OVC046 18/09 A2966 RMK AO2 RAB46 SLP032 $,M
ELY,2022-11-08 22:46,-114.8453,39.2950,1909.00,36.00,35.00,96.49,190.00,14.00,0.07,29.63,M,10.00,M,BKN,BKN,OVC,M,3500.00,5000.00,7000.00,M,-RA,M,M,M,M,M,M,26.32,KELY 082246Z AUTO 19014KT 10SM -RA BKN035 BKN050 OVC070 02/02 A2963 RMK AO2 RAE09B27SNB09E27 PRESFR P0007 T00220017,M
RNO,2022-11-08 22:50,-119.7711,39.4839,1341.00,33.80,32.00,93.03,100.00,4.00,0.01,29.49,M,9.00,M,SCT,BKN,OVC,M,1500.00,2400.00,4000.00,M,M,M,M,M,M,M,M,29.52,KRNO 082250Z 10004KT 9SM SCT015 BKN024 OVC040 01/00 A2949 RMK AO2 SNE50 P0001,M
NFL,2022-11-08 22:52,-118.7010,39.4166,1199.00,35.60,33.80,93.08,300.00,12.00,0.02,29.49,M,3.00,M,SCT,BKN,OVC,M,700.00,1000.00,2000.00,M,-RA BR,M,M,M,M,M,M,26.58,KNFL 082252Z 30012KT 3SM -RA BR SCT007 BKN010 OVC020 02/01 A2949 RMK AO2 WR// P0002,M
ELY,2022-11-08 22:53,-114.8453,39.2950,1909.00,36.00,35.00,96.49,180.00,12.00,0.07,29.63,1000.00,10.00,M,BKN,BKN,OVC,M,3700.00,4900.00,8000.00,M,M,M,M,M,M,M,M,27.09,KELY 082253Z AUTO 18012KT 10SM BKN037 BKN049 OVC080 02/02 A2963 RMK AO2 RAE09B27E48SNB09E27 SLP000 P0007 T00220017,M
DRA,2022-11-08 22:53,-116.0278,36.6206,1009.00,57.00,44.00,61.95,180.00,23.00,0.00,29.62,1000.40,10.00,40.00,SCT,M,M,M,10000.00,M,M,M,M,M,M,M,48.00,180.00,2022-11-08 21:54,57.00,KDRA 082253Z AUTO 18023G40KT 10SM SCT100 14/07 A2962 RMK AO2 PK WND 18048/2154 SLP004 T01390067,M
LOL,2022-11-08 22:53,-118.5701,40.0684,1192.43,35.00,34.00,95.71,40.00,6.00,0.05,29.48,1000.40,7.00,M,FEW,OVC,M,M,900.00,2700.00,M,M,-RA,M,M,M,M,M,M,29.26,KLOL 082253Z AUTO 04006KT 7SM -RA FEW009 OVC027 02/01 A2948 RMK AO2 SLP004 P0005 T00170011,M
VGT,2022-11-08 22:53,-115.1933,36.2111,667.00,63.00,49.00,59.98,170.00,12.00,0.01,29.69,1005.80,10.00,20.00,BKN,OVC,M,M,4100.00,4800.00,M,M,-RA,M,M,M,32.00,170.00,2022-11-08 22:00,63.00,KVGT 082253Z 17012G20KT 10SM -RA BKN041 OVC048 17/09 A2969 RMK AO2 PK WND 17032/2200 RAB40 SLP058 P0001 T01720094,M
P68,2022-11-08 22:53,-116.0056,39.6014,1993.00,41.00,34.00,75.94,160.00,27.00,0.00,29.50,997.60,M,38.00,M,M,M,M,M,M,M,M,M,M,M,M,42.00,160.00,2022-11-08 22:32,29.61,KP68 082253Z AUTO 16027G38KT 05/01 A2950 RMK AO1 PK WND 16042/2232 SLP976 T00500011,M
CXP,2022-11-08 22:55,-119.7326,39.1923,1431.00,32.00,30.20,92.97,0.00,0.00,0.01,29.52,M,0.75,M,OVC,M,M,M,500.00,M,M,M,-SN BR,M,M,M,M,M,M,32.00,KCXP 082255Z AUTO 00000KT 3/4SM -SN BR OVC005 M00/M01 A2952 RMK AO2 P0001,M
LSV,2022-11-08 22:55,-115.0343,36.2362,570.00,62.20,51.00,66.95,170.00,26.00,T,29.66,1003.30,7.00,34.00,FEW,BKN,M,M,3100.00,4500.00,M,M,-RA,M,M,M,35.00,160.00,2022-11-08 22:43,62.20,KLSV 082255Z AUTO 17026G34KT 7SM -RA FEW031 BKN045 17/11 A2966 RMK AO2 PK WND 16035/43 RAB46 SLP033 P0000 T01680106 $,M
INS,2022-11-08 22:55,-115.6733,36.5872,955.00,61.00,37.00,40.77,220.00,32.00,0.00,29.65,1001.40,10.00,37.00,BKN,OVC,M,M,7000.00,9000.00,M,M,M,M,M,M,47.00,210.00,2022-11-08 22:28,61.00,KINS 082255Z AUTO 22032G37KT 10SM BKN070 OVC090 16/03 A2965 RMK AO2 PK WND 21047/28 SLP014 T01610028 $,M
TMT,2022-11-08 22:55,-117.1971,39.4643,1749.34,39.00,32.00,75.75,240.00,11.00,0.00,29.46,M,10.00,15.00,SCT,SCT,BKN,M,4800.00,6000.00,7000.00,M,M,M,M,M,M,M,M,31.31,KTMT 082255Z AUTO 24011G15KT 10SM SCT048 SCT060 BKN070 04/00 A2946 RMK AO2 T00390000,M
BAM,2022-11-08 22:55,-116.8743,40.5990,1382.36,42.80,33.80,70.28,80.00,11.00,0.00,29.49,M,10.00,18.00,SCT,SCT,OVC,M,4400.00,6000.00,10000.00,M,M,M,M,M,M,M,M,36.11,KBAM 082255Z AUTO 08011G18KT 10SM SCT044 SCT060 OVC100 06/01 A2949 RMK AO1,M
MEV,2022-11-08 22:55,-119.7500,38.9963,1441.42,30.20,30.20,100.00,0.00,0.00,0.01,29.52,M,1.25,M,BKN,OVC,M,M,400.00,2000.00,M,M,-SN BR,M,M,M,M,M,M,30.20,KMEV 082255Z AUTO 00000KT 1 1/4SM -SN BR BKN004 OVC020 M01/M01 A2952 RMK AO2 P0001,M
05U,2022-11-08 22:55,-116.0051,39.6042,1811.23,42.80,35.60,75.50,170.00,24.00,0.01,29.53,M,8.00,32.00,FEW,M,M,M,3700.00,M,M,M,M,M,M,M,M,M,M,32.63,K05U 082255Z AUTO 17024G32KT 8SM FEW037 06/02 A2953 RMK A01 P0001,M
RTS,2022-11-08 22:55,-119.8764,39.6682,1539.00,30.20,28.40,92.92,70.00,4.00,0.00,29.48,M,0.50,M,BKN,BKN,M,M,200.00,2600.00,M,M,-SN,M,M,M,M,M,M,25.32,KRTS 082255Z AUTO 07004KT 1/2SM -SN BKN002 BKN026 M01/M02 A2948 RMK AO2,M
RNO,2022-11-08 22:55,-119.7711,39.4839,1341.00,34.00,30.90,88.27,80.00,5.00,0.01,29.48,998.40,9.00,M,SCT,BKN,OVC,M,1500.00,2400.00,4000.00,M,M,M,M,M,M,M,M,28.77,KRNO 082255Z 08005KT 9SM SCT015 BKN024 OVC040 01/M01 A2948 RMK AO2 SNE50 SLP984 P0001 T00111006,M
BVU,2022-11-08 22:55,-114.8611,35.9475,671.00,62.60,46.40,55.37,200.00,26.00,0.00,29.71,M,10.00,31.00,OVC,M,M,M,6000.00,M,M,M,M,M,M,M,M,M,M,62.60,KBVU 082255Z AUTO 20026G31KT 10SM OVC060 17/08 A2971 RMK AO2,M
HND,2022-11-08 22:56,-115.1344,35.9729,742.79,60.00,50.00,69.24,170.00,19.00,T,29.71,1006.60,10.00,27.00,SCT,BKN,OVC,M,4200.00,4800.00,6000.00,M,-RA,M,M,M,32.00,160.00,2022-11-08 22:23,60.10,KHND 082256Z 17019G27KT 10SM -RA SCT042 BKN048 OVC060 16/10 A2971 RMK AO2 PK WND 16032/2223 RAB26 SLP066 P0000 T01560100,M
WMC,2022-11-08 22:56,-117.8072,40.9019,1315.00,40.00,30.90,69.96,40.00,12.00,T,29.49,999.00,10.00,25.00,OVC,M,M,M,4300.00,M,M,M,-RA,M,M,M,27.00,20.00,2022-11-08 22:33,32.06,KWMC 082256Z AUTO 04012G25KT 10SM -RA OVC043 04/M01 A2949 RMK AO2 PK WND 02027/2233 RAB52 SLP990 P0000 T00441006,M
TPH,2022-11-08 22:56,-117.0904,38.0505,1654.00,43.00,35.00,73.45,190.00,31.00,T,29.51,997.60,10.00,51.00,FEW,BKN,OVC,M,2900.00,4400.00,11000.00,M,-RA,M,M,M,51.00,180.00,2022-11-08 22:48,31.66,KTPH 082256Z AUTO 19031G51KT 10SM -RA FEW029 BKN044 OVC110 06/02 A2951 RMK AO2 PK WND 18051/2248 RAE18B45 SLP976 P0000 T00610017,M
LAS,2022-11-08 22:56,-115.1634,36.0719,663.00,63.00,47.00,55.64,180.00,14.00,0.00,29.70,1004.50,10.00,37.00,SCT,BKN,OVC,M,4200.00,5500.00,7000.00,M,M,M,M,M,37.00,190.00,2022-11-08 22:49,63.00,KLAS 082256Z 18014G37KT 10SM SCT042 BKN055 OVC070 17/08 A2970 RMK AO2 PK WND 19037/2249 SLP045 VCSH T01720083,M
EKO,2022-11-08 22:56,-115.7860,40.8242,1367.00,38.00,28.90,69.73,30.00,15.00,0.00,29.55,1001.30,10.00,M,FEW,SCT,M,M,6500.00,8500.00,M,M,M,M,M,M,M,M,M,28.43,KEKO 082256Z AUTO 03015KT 10SM FEW065 SCT085 03/M02 A2955 RMK AO2 SLP013 T00331017,M
NFL,2022-11-08 22:56,-118.7010,39.4166,1199.00,35.00,33.00,92.32,310.00,9.00,0.03,29.49,997.50,3.00,M,SCT,BKN,OVC,M,700.00,1000.00,2000.00,M,-RA BR,M,M,M,M,M,M,27.37,KNFL 082256Z 31009KT 3SM -RA BR SCT007 BKN010 OVC020 02/01 A2949 RMK AO2 SLP975 WR// P0003 T00170006,M
LSV,2022-11-08 22:58,-115.0343,36.2362,570.00,62.60,51.80,67.75,170.00,25.00,0.00,29.66,1003.30,9.00,34.00,FEW,BKN,OVC,M,3100.00,4500.00,6000.00,M,M,M,M,M,M,M,M,62.60,KLSV 082258Z AUTO 17025G34KT 9SM FEW031 BKN045 OVC060 17/11 A2966 RMK AO2 RAE58 SLP033 $,M
INS,2022-11-08 23:05,-115.6733,36.5872,955.00,57.20,48.20,71.83,210.00,19.00,0.00,29.65,1001.40,10.00,40.00,BKN,OVC,M,M,7000.00,9000.00,M,M,-DZ,M,M,M,M,M,M,57.20,KINS 082305Z AUTO 21019G40KT 10SM -DZ BKN070 OVC090 14/09 A2965 RMK AO2 DZB05 SLP014 $,M
LOL,2022-11-08 23:09,-118.5701,40.0684,1192.43,35.00,33.00,92.32,30.00,7.00,0.01,29.50,M,7.00,M,BKN,OVC,M,M,1000.00,2700.00,M,M,-RA,M,M,M,M,M,M,28.56,KLOL 082309Z AUTO 03007KT 7SM -RA BKN010 OVC027 02/01 A2950 RMK AO2 P0001 T00170006,M
05U,2022-11-08 23:10,-116.0051,39.6042,1811.23,41.00,35.60,80.93,160.00,20.00,0.00,29.53,M,4.00,26.00,FEW,FEW,M,M,3500.00,4300.00,M,M,HZ,M,M,M,M,M,M,31.09,K05U 082310Z AUTO 16020G26KT 4SM HZ FEW035 FEW043 05/02 A2953 RMK A01,M
LSV,2022-11-08 23:12,-115.0343,36.2362,570.00,60.80,51.80,72.20,170.00,23.00,0.00,29.66,1003.30,10.00,29.00,FEW,SCT,BKN,M,3400.00,4500.00,6000.00,M,M,M,M,M,M,M,M,60.80,KLSV 082312Z AUTO 17023G29KT 10SM FEW034 SCT045 BKN060 16/11 A2966 RMK AO2 RAE2258 SLP033 $,M
INS,2022-11-08 23:14,-115.6733,36.5872,955.00,59.00,44.60,58.77,200.00,21.00,0.00,29.64,1001.00,10.00,30.00,BKN,BKN,M,M,7000.00,9000.00,M,M,M,M,M,M,M,M,M,59.00,KINS 082314Z AUTO 20021G30KT 10SM BKN070 BKN090 15/07 A2964 RMK AO2 DZB05E14 SLP010 $,M
TMT,2022-11-08 23:15,-117.1971,39.4643,1749.34,38.00,32.70,80.70,240.00,7.00,0.00,29.46,M,10.00,M,SCT,BKN,BKN,M,3900.00,4800.00,7000.00,M,-DZ,M,M,M,M,M,M,32.21,KTMT 082315Z AUTO 24007KT 10SM -DZ SCT039 BKN048 BKN070 03/00 A2946 RMK AO2 T00340004,M
BVU,2022-11-08 23:15,-114.8611,35.9475,671.00,60.80,50.00,67.54,200.00,17.00,0.00,29.72,M,10.00,27.00,OVC,M,M,M,6000.00,M,M,M,M,M,M,M,M,M,M,60.80,KBVU 082315Z AUTO 20017G27KT 10SM OVC060 16/10 A2972 RMK AO2,M
CXP,2022-11-08 23:15,-119.7326,39.1923,1431.00,32.00,30.20,92.97,0.00,0.00,0.00,29.52,M,2.00,M,SCT,M,M,M,500.00,M,M,M,-SN BR,M,M,M,M,M,M,32.00,KCXP 082315Z AUTO 00000KT 2SM -SN BR SCT005 00/M01 A2952 RMK AO2,M
MEV,2022-11-08 23:15,-119.7500,38.9963,1441.42,30.20,28.40,92.92,0.00,0.00,0.00,29.51,M,10.00,M,FEW,BKN,BKN,M,400.00,1900.00,3000.00,M,M,M,M,M,M,M,M,30.20,KMEV 082315Z AUTO 00000KT 10SM FEW004 BKN019 BKN030 M01/M02 A2951 RMK AO2,M
BAM,2022-11-08 23:15,-116.8743,40.5990,1382.36,42.80,33.80,70.28,90.00,17.00,0.00,29.49,M,10.00,20.00,SCT,SCT,OVC,M,5500.00,6500.00,10000.00,M,M,M,M,M,M,M,M,34.22,KBAM 082315Z AUTO 09017G20KT 10SM SCT055 SCT065 OVC100 06/01 A2949 RMK AO1,M
RTS,2022-11-08 23:15,-119.8764,39.6682,1539.00,30.20,30.20,100.00,90.00,4.00,0.00,29.49,M,1.00,M,SCT,M,M,M,300.00,M,M,M,-SN,M,M,M,M,M,M,25.32,KRTS 082315Z AUTO 09004KT 1SM -SN SCT003 M01/M01 A2949 RMK AO2,M
LSV,2022-11-08 23:22,-115.0343,36.2362,570.00,60.80,51.80,72.20,180.00,20.00,0.00,29.67,1003.60,10.00,29.00,FEW,BKN,M,M,4800.00,6000.00,M,M,-RA,M,M,M,M,M,M,60.80,KLSV 082322Z AUTO 18020G29KT 10SM -RA FEW048 BKN060 16/11 A2967 RMK AO2 RAE2258RAB22 SLP036 $,M
WMC,2022-11-08 23:29,-117.8072,40.9019,1315.00,38.00,33.00,86.69,70.00,7.00,T,29.50,M,7.00,M,FEW,OVC,M,M,1700.00,2500.00,M,M,-RA,M,M,M,M,M,M,31.36,KWMC 082329Z AUTO 07007KT 7SM -RA FEW017 OVC025 03/01 A2950 RMK AO2 P0000 T00330006,M
CXP,2022-11-08 23:30,-119.7326,39.1923,1431.00,32.00,30.20,92.97,0.00,0.00,0.00,29.51,M,6.00,M,FEW,SCT,M,M,600.00,1900.00,M,M,UP BR,M,M,M,M,M,M,32.00,KCXP 082330Z AUTO 00000KT 6SM UP BR FEW006 SCT019 M00/M01 A2951 RMK AO2,M
LSV,2022-11-08 23:33,-115.0343,36.2362,570.00,60.80,51.80,72.20,180.00,20.00,0.00,29.67,1003.60,10.00,26.00,BKN,M,M,M,5500.00,M,M,M,M,M,M,M,M,M,M,60.80,KLSV 082333Z AUTO 18020G26KT 10SM BKN055 16/11 A2967 RMK AO2 RAE2258RAB22E33 SLP036 $,M
RNO,2022-11-08 23:34,-119.7711,39.4839,1341.00,34.00,30.90,88.27,40.00,4.00,T,29.48,M,8.00,M,SCT,BKN,BKN,M,1500.00,2500.00,10000.00,M,-SN,M,M,M,M,M,M,29.76,KRNO 082334Z 04004KT 8SM -SN SCT015 BKN025 BKN100 01/M01 A2948 RMK AO2 SNB28 P0000 T00111006,M
BAM,2022-11-08 23:35,-116.8743,40.5990,1382.36,42.80,33.80,70.28,100.00,13.00,0.00,29.48,M,10.00,20.00,BKN,BKN,OVC,M,6000.00,8500.00,10000.00,M,M,M,M,M,M,M,M,35.40,KBAM 082335Z AUTO 10013G20KT 10SM BKN060 BKN085 OVC100 06/01 A2948 RMK AO1,M
BVU,2022-11-08 23:35,-114.8611,35.9475,671.00,60.80,48.20,63.15,200.00,21.00,0.00,29.72,M,10.00,28.00,SCT,OVC,M,M,5000.00,6000.00,M,M,M,M,M,M,M,M,M,60.80,KBVU 082335Z AUTO 20021G28KT 10SM SCT050 OVC060 16/09 A2972 RMK AO2,M
RTS,2022-11-08 23:35,-119.8764,39.6682,1539.00,30.20,30.20,100.00,70.00,5.00,0.00,29.49,M,1.25,M,BKN,BKN,M,M,400.00,700.00,M,M,-SN,M,M,M,M,M,M,24.26,KRTS 082335Z AUTO 07005KT 1 1/4SM -SN BKN004 BKN007 M01/M01 A2949 RMK AO2,M
05U,2022-11-08 23:35,-116.0051,39.6042,1811.23,41.00,35.60,80.93,160.00,21.00,0.00,29.51,M,5.00,28.00,FEW,SCT,SCT,M,3000.00,3800.00,4300.00,M,HZ,M,M,M,M,M,M,30.86,K05U 082335Z AUTO 16021G28KT 5SM HZ FEW030 SCT038 SCT043 05/02 A2951 RMK A01,M
MEV,2022-11-08 23:35,-119.7500,38.9963,1441.42,30.20,28.40,92.92,0.00,0.00,0.00,29.51,M,10.00,M,SCT,OVC,M,M,500.00,1800.00,M,M,M,M,M,M,M,M,M,30.20,KMEV 082335Z AUTO 00000KT 10SM SCT005 OVC018 M01/M02 A2951 RMK AO2,M
LSV,2022-11-08 23:40,-115.0343,36.2362,570.00,60.80,51.80,72.20,180.00,17.00,0.00,29.67,1003.60,10.00,24.00,OVC,M,M,M,5500.00,M,M,M,-RA,M,M,M,M,M,M,60.80,KLSV 082340Z AUTO 18017G24KT 10SM -RA OVC055 16/11 A2967 RMK AO2 RAE2258RAB22E33RAB40 SLP036 $,M
INS,2022-11-08 23:44,-115.6733,36.5872,955.00,55.40,46.40,71.64,230.00,14.00,0.00,29.62,1000.60,10.00,36.00,BKN,BKN,M,M,8500.00,11000.00,M,M,M,M,M,M,M,M,M,55.40,KINS 082344Z AUTO 23014G36KT 10SM BKN085 BKN110 13/08 A2962 RMK AO2 WSHFT 41 DZB05E14 SLP006 $,M
CXP,2022-11-08 23:50,-119.7326,39.1923,1431.00,32.00,30.20,92.97,140.00,3.00,0.00,29.52,M,8.00,M,OVC,M,M,M,1700.00,M,M,M,M,M,M,M,M,M,M,28.69,KCXP 082350Z AUTO 14003KT 8SM OVC017 M00/M01 A2952 RMK AO2,M
VGT,2022-11-08 23:53,-115.1933,36.2111,667.00,61.00,50.00,67.06,170.00,14.00,0.01,29.68,1005.80,10.00,23.00,BKN,OVC,M,M,6500.00,8000.00,M,M,-RA,M,M,M,32.00,200.00,2022-11-08 23:11,61.00,KVGT 082353Z 17014G23KT 10SM -RA BKN065 OVC080 16/10 A2968 RMK AO2 PK WND 20032/2311 SLP058 P0001 60002 T01610100 10194 20156 58005,M
DRA,2022-11-08 23:53,-116.0278,36.6206,1009.00,58.00,42.00,55.55,170.00,24.00,0.00,29.60,999.70,10.00,43.00,FEW,BKN,OVC,M,5500.00,9000.00,11000.00,M,M,M,M,M,44.00,190.00,2022-11-08 23:33,57.90,KDRA 082353Z AUTO 17024G43KT 10SM FEW055 BKN090 OVC110 14/06 A2960 RMK AO2 PK WND 19044/2333 SLP997 60007 T01440056 10144 20100 56022,M
ELY,2022-11-08 23:53,-114.8453,39.2950,1909.00,39.00,36.00,88.87,190.00,13.00,T,29.60,999.20,10.00,24.00,BKN,OVC,M,M,5500.00,7000.00,M,M,M,M,M,M,M,M,M,30.54,KELY 082353Z AUTO 19013G24KT 10SM BKN055 OVC070 04/02 A2960 RMK AO2 RAB29E52 SLP992 P0000 60020 T00390022 10072 20006 58022,M
P68,2022-11-08 23:53,-116.0056,39.6014,1993.00,41.00,34.00,75.94,170.00,26.00,0.03,29.46,996.40,M,39.00,M,M,M,M,M,M,M,M,M,M,M,M,39.00,170.00,2022-11-08 23:51,29.80,KP68 082353Z AUTO 17026G39KT 05/01 A2946 RMK AO1 PK WND 17039/2351 SLP964 P0003 60004 T00500011 10061 20022 56030,M
LOL,2022-11-08 23:53,-118.5701,40.0684,1192.43,34.00,33.00,96.46,280.00,7.00,0.02,29.50,1001.30,4.00,M,BKN,OVC,M,M,800.00,1300.00,M,M,-SN BR,M,M,M,M,M,M,27.22,KLOL 082353Z AUTO 28007KT 4SM -SN BR BKN008 OVC013 01/01 A2950 RMK AO2 RAE51SNB51 SLP013 P0002 60012 T00110006 10056 20011 55008,M
TPH,2022-11-08 23:54,-117.0904,38.0505,1654.00,42.80,37.40,81.07,210.00,26.00,T,29.52,M,10.00,35.00,BKN,BKN,OVC,M,2600.00,3400.00,4200.00,M,-RA,M,M,M,46.00,190.00,2022-11-08 23:05,32.25,KTPH 082354Z AUTO 21026G35KT 10SM -RA BKN026 BKN034 OVC042 06/03 A2952 RMK AO2 PK WND 19046/2305 RAE20B45 P0000,M
INS,2022-11-08 23:55,-115.6733,36.5872,955.00,59.70,33.40,37.01,220.00,26.00,0.03,29.64,1001.00,10.00,35.00,BKN,M,M,M,9000.00,M,M,M,M,M,M,M,40.00,210.00,2022-11-08 23:18,59.70,KINS 082355Z AUTO 22026G35KT 10SM BKN090 15/01 A2964 RMK AO2 PK WND 21040/18 DZB05E14 PRESRR SLP010 P0003 60009 T01540008 10171 20108 57014 $,M
LSV,2022-11-08 23:55,-115.0343,36.2362,570.00,60.00,52.30,75.93,180.00,21.00,T,29.66,1003.40,10.00,28.00,BKN,M,M,M,5500.00,M,M,M,-RA,M,M,M,31.00,170.00,2022-11-08 22:55,59.90,KLSV 082355Z AUTO 18021G28KT 10SM -RA BKN055 16/11 A2966 RMK AO2 PK WND 17031/2255 RAE2258RAB22E33RAB40 SLP034 P0000 60000 T01550113 10191 20155 56002 $,M
TMT,2022-11-08 23:55,-117.1971,39.4643,1749.34,36.50,34.00,90.55,220.00,11.00,0.00,29.48,M,7.00,18.00,BKN,BKN,OVC,M,2200.00,3000.00,3500.00,M,-RA,M,M,M,M,M,M,28.15,KTMT 082355Z AUTO 22011G18KT 7SM -RA BKN022 BKN030 OVC035 03/01 A2948 RMK AO2 T00250011 10049 21070,M
BAM,2022-11-08 23:55,-116.8743,40.5990,1382.36,44.60,33.80,65.61,90.00,15.00,0.00,29.47,M,10.00,18.00,OVC,M,M,M,6000.00,M,M,M,M,M,M,M,M,M,M,37.11,KBAM 082355Z AUTO 09015G18KT 10SM OVC060 07/01 A2947 RMK AO1,M
05U,2022-11-08 23:55,-116.0051,39.6042,1811.23,41.00,35.60,80.93,160.00,23.00,0.02,29.49,M,3.00,30.00,FEW,FEW,SCT,M,3000.00,3700.00,4400.00,M,HZ,M,M,M,M,M,M,30.41,K05U 082355Z AUTO 16023G30KT 3SM HZ FEW030 FEW037 SCT044 05/02 A2949 RMK A01 P0002,M
BVU,2022-11-08 23:55,-114.8611,35.9475,671.00,60.80,48.20,63.15,200.00,19.00,0.00,29.72,M,10.00,27.00,BKN,BKN,OVC,M,4700.00,5500.00,6500.00,M,M,M,M,M,M,M,M,60.80,KBVU 082355Z AUTO 20019G27KT 10SM BKN047 BKN055 OVC065 16/09 A2972 RMK AO2,M
RNO,2022-11-08 23:55,-119.7711,39.4839,1341.00,35.00,30.00,81.46,M,3.00,T,29.48,998.50,9.00,M,SCT,BKN,BKN,M,1500.00,2500.00,10000.00,M,-SN,M,M,M,M,M,M,32.23,KRNO 082355Z VRB03KT 9SM -SN SCT015 BKN025 BKN100 02/M01 A2948 RMK AO2 SNB28 SLP985 4/002 P0000 60019 T00171011 10033 20000 55009,2
RTS,2022-11-08 23:55,-119.8764,39.6682,1539.00,30.20,30.20,100.00,130.00,5.00,0.01,29.49,M,8.00,M,BKN,OVC,M,M,500.00,3200.00,M,M,M,M,M,M,M,M,M,24.26,KRTS 082355Z AUTO 13005KT 8SM BKN005 OVC032 M01/M01 A2949 RMK AO2 P0001,M
MEV,2022-11-08 23:55,-119.7500,38.9963,1441.42,30.20,28.40,92.92,0.00,0.00,0.00,29.51,M,10.00,M,SCT,BKN,OVC,M,500.00,800.00,1700.00,M,M,M,M,M,M,M,M,30.20,KMEV 082355Z AUTO 00000KT 10SM SCT005 BKN008 OVC017 M01/M02 A2951 RMK AO2,M
TPH,2022-11-08 23:56,-117.0904,38.0505,1654.00,43.00,36.00,76.12,210.00,27.00,T,29.52,998.10,10.00,38.00,SCT,BKN,OVC,M,2300.00,2800.00,4200.00,M,-RA,M,M,M,46.00,190.00,2022-11-08 23:05,32.34,KTPH 082356Z AUTO 21027G38KT 10SM -RA SCT023 BKN028 OVC042 06/02 A2952 RMK AO2 PK WND 19046/2305 RAE20B45 SLP981 P0000 60001 T00610022 10072 20033 53002,M
LAS,2022-11-08 23:56,-115.1634,36.0719,663.00,61.00,49.00,64.37,180.00,13.00,T,29.69,1004.40,8.00,23.00,SCT,BKN,OVC,M,4200.00,5500.00,7000.00,M,-RA,M,M,M,33.00,210.00,2022-11-08 23:32,61.00,KLAS 082356Z 18013G23KT 8SM -RA SCT042 BKN055 OVC070 16/09 A2969 RMK AO2 PK WND 21033/2332 RAB27 SLP044 P0000 60000 T01610094 10194 20156 58004,M
NFL,2022-11-08 23:56,-118.7010,39.4166,1199.00,34.00,32.00,92.29,80.00,7.00,0.03,29.49,997.50,6.00,M,SCT,BKN,OVC,M,700.00,1000.00,2000.00,M,-RA BR,M,M,M,M,M,M,27.22,KNFL 082356Z 08007KT 6SM -RA BR SCT007 BKN010 OVC020 01/00 A2949 RMK AO2 SLP975 VIS LWR NE WR// P0003 60012 T00110000 10067 20011 51002,M
EKO,2022-11-08 23:56,-115.7860,40.8242,1367.00,37.00,30.00,75.56,30.00,17.00,0.00,29.53,1000.50,10.00,23.00,FEW,BKN,OVC,M,6000.00,7000.00,11000.00,M,M,M,M,M,M,M,M,26.63,KEKO 082356Z AUTO 03017G23KT 10SM FEW060 BKN070 OVC110 03/M01 A2953 RMK AO2 SLP005 T00281011 10039 20000 56037,M
WMC,2022-11-08 23:56,-117.8072,40.9019,1315.00,36.00,33.00,89.09,60.00,9.00,0.04,29.48,999.00,4.00,M,FEW,OVC,M,M,900.00,1400.00,M,M,-SN BR,M,M,M,M,M,M,28.49,KWMC 082356Z AUTO 06009KT 4SM -SN BR FEW009 OVC014 02/01 A2948 RMK AO2 RAE46SNB46 SLP990 P0004 60004 T00220006 10050 20022 56020,M
HND,2022-11-08 23:56,-115.1344,35.9729,742.79,57.00,52.00,83.33,170.00,12.00,0.02,29.72,1007.10,7.00,M,FEW,BKN,BKN,M,3200.00,3900.00,7000.00,M,RA,M,M,M,26.00,170.00,2022-11-08 23:17,57.00,KHND 082356Z 17012KT 7SM RA FEW032 BKN039 BKN070 14/11 A2972 RMK AO2 PK WND 17026/2317 SLP071 P0002 60002 T01390111 10183 20139 55002,M
