station,valid,lon,lat,elevation,tmpf,dwpf,relh,drct,sknt,p01i,alti,mslp,vsby,gust,skyc1,skyc2,skyc3,skyc4,skyl1,skyl2,skyl3,skyl4,wxcodes,ice_accretion_1hr,ice_accretion_3hr,ice_accretion_6hr,peak_wind_gust,peak_wind_drct,peak_wind_time,feel,metar,snowdepth
TMT,2022-06-28 00:15,-117.1971,39.4643,1749.34,M,M,M,260.00,6.00,0.00,30.22,M,10.00,M,CLR,M,M,M,M,M,M,M,M,M,M,M,M,M,M,M,KTMT 280015Z AUTO 26006KT 10SM CLR A3022 RMK AO2,M
RTS,2022-06-28 00:15,-119.8764,39.6682,1539.00,87.80,23.00,9.39,240.00,22.00,0.00,30.22,M,10.00,30.00,CLR,M,M,M,M,M,M,M,M,M,M,M,M,M,M,83.43,KRTS 280015Z AUTO 24022G30KT 10SM CLR 31/M05 A3022 RMK AO2,M
MEV,2022-06-28 00:15,-119.7500,38.9963,1441.42,91.40,26.60,9.74,240.00,15.00,0.00,30.17,M,10.00,21.00,CLR,M,M,M,M,M,M,M,M,M,M,M,M,M,M,86.36,KMEV 280015Z AUTO 24015G21KT 10SM CLR 33/M03 A3017 RMK AO2,M
BAM,2022-06-28 00:15,-116.8743,40.5990,1382.36,M,M,M,210.00,6.00,0.00,30.11,M,10.00,M,CLR,M,M,M,M,M,M,M,M,M,M,M,M,M,M,M,KBAM 280015Z AUTO 21006KT 10SM CLR A3011 RMK AO1,M
HTH,2022-06-28 00:15,-118.6315,38.5448,1282.89,96.80,24.80,7.65,330.00,7.00,0.00,30.07,M,10.00,M,CLR,M,M,M,M,M,M,M,M,M,M,M,M,M,M,90.40,KHTH 280015Z AUTO 33007KT 10SM CLR 36/M04 A3007 RMK A01,M
BVU,2022-06-28 00:15,-114.8611,35.9475,671.00,104.00,35.60,9.54,30.00,5.00,0.00,29.96,M,10.00,12.00,CLR,M,M,M,M,M,M,M,M,M,M,M,M,M,M,97.85,KBVU 280015Z AUTO 03005G12KT 10SM CLR 40/02 A2996 RMK AO2,M
TMT,2022-06-28 00:35,-117.1971,39.4643,1749.34,M,M,M,230.00,8.00,0.00,30.22,M,10.00,M,CLR,M,M,M,M,M,M,M,M,M,M,M,M,M,M,M,KTMT 280035Z AUTO 23008KT 10SM CLR A3022 RMK AO2,M
MEV,2022-06-28 00:35,-119.7500,38.9963,1441.42,91.40,28.40,10.48,250.00,10.00,0.00,30.17,M,10.00,15.00,CLR,M,M,M,M,M,M,M,M,M,M,M,M,M,M,86.53,KMEV 280035Z AUTO 25010G15KT 10SM CLR 33/M02 A3017 RMK AO2,M
BVU,2022-06-28 00:35,-114.8611,35.9475,671.00,104.00,33.80,8.88,20.00,8.00,0.00,29.95,M,10.00,M,CLR,M,M,M,M,M,M,M,M,M,M,M,M,M,M,97.55,KBVU 280035Z AUTO 02008KT 10SM CLR 40/01 A2995 RMK AO2,M
RTS,2022-06-28 00:35,-119.8764,39.6682,1539.00,87.80,23.00,9.39,250.00,20.00,0.00,30.21,M,10.00,28.00,CLR,M,M,M,M,M,M,M,M,M,M,M,M,M,M,83.43,KRTS 280035Z AUTO 25020G28KT 10SM CLR 31/M05 A3021 RMK AO2,M
BAM,2022-06-28 00:35,-116.8743,40.5990,1382.36,M,M,M,260.00,7.00,0.00,30.11,M,10.00,M,CLR,M,M,M,M,M,M,M,M,M,M,M,M,M,M,M,KBAM 280035Z AUTO 26007KT 10SM CLR A3011 RMK AO1,M
HTH,2022-06-28 00:35,-118.6315,38.5448,1282.89,96.80,24.80,7.65,330.00,7.00,0.00,30.07,M,10.00,M,CLR,M,M,M,M,M,M,M,M,M,M,M,M,M,M,90.40,KHTH 280035Z AUTO 33007KT 10SM CLR 36/M04 A3007 RMK A01,M
P68,2022-06-28 00:53,-116.0056,39.6014,1993.00,93.00,21.00,7.33,270.00,9.00,0.00,30.21,1014.40,M,17.00,M,M,M,M,M,M,M,M,M,M,M,M,M,M,M,87.13,KP68 280053Z AUTO 27009G17KT 34/M06 A3021 RMK AO1 SLP144 T03391061,M
ELY,2022-06-28 00:53,-114.8453,39.2950,1909.00,87.00,21.00,8.82,270.00,9.00,0.00,30.26,1014.70,10.00,M,CLR,M,M,M,M,M,M,M,M,M,M,M,M,M,M,82.81,KELY 280053Z AUTO 27009KT 10SM CLR 31/M06 A3026 RMK AO2 SLP147 T03061061,M
VGT,2022-06-28 00:53,-115.1933,36.2111,667.00,106.00,37.00,9.51,100.00,4.00,0.00,29.94,1012.20,10.00,M,CLR,M,M,M,M,M,M,M,M,M,M,M,M,M,M,99.86,KVGT 280053Z 10004KT 10SM CLR 41/03 A2994 RMK AO2 SLP122 T04110028,M
LOL,2022-06-28 00:53,-118.5701,40.0684,1192.43,98.00,24.10,7.14,M,5.00,0.00,30.04,1012.50,10.00,M,CLR,M,M,M,M,M,M,M,M,M,M,M,M,M,M,91.42,KLOL 280053Z AUTO VRB05KT 10SM CLR 37/M04 A3004 RMK AO2 SLP125 T03671044,M
MEV,2022-06-28 00:55,-119.7500,38.9963,1441.42,89.60,28.40,11.09,240.00,8.00,0.00,30.17,M,10.00,M,CLR,M,M,M,M,M,M,M,M,M,M,M,M,M,M,85.17,KMEV 280055Z AUTO 24008KT 10SM CLR 32/M02 A3017 RMK AO2,M
BAM,2022-06-28 00:55,-116.8743,40.5990,1382.36,M,M,M,230.00,7.00,0.00,30.10,M,10.00,M,CLR,M,M,M,M,M,M,M,M,M,M,M,M,M,M,M,KBAM 280055Z AUTO 23007KT 10SM CLR A3010 RMK AO1,M
TMT,2022-06-28 00:55,-117.1971,39.4643,1749.34,89.40,28.40,11.16,210.00,6.00,0.00,30.22,M,10.00,M,CLR,M,M,M,M,M,M,M,M,M,M,M,M,M,M,85.02,KTMT 280055Z AUTO 21006KT 10SM CLR 32/M02 A3022 RMK AO2 T03191020,M
HTH,2022-06-28 00:55,-118.6315,38.5448,1282.89,95.00,26.60,8.71,320.00,10.00,0.00,30.07,M,10.00,M,CLR,M,M,M,M,M,M,M,M,M,M,M,M,M,M,89.08,KHTH 280055Z AUTO 32010KT 10SM CLR 35/M03 A3007 RMK A01,M
RNO,2022-06-28 00:55,-119.7711,39.4839,1341.00,92.00,28.90,10.54,260.00,17.00,0.00,30.13,1014.30,10.00,23.00,FEW,M,M,M,10000.00,M,M,M,M,M,M,M,M,M,M,86.95,KRNO 280055Z 26017G23KT 10SM FEW100 33/M02 A3013 RMK AO2 SLP143 T03331017,M
BVU,2022-06-28 00:55,-114.8611,35.9475,671.00,104.00,33.80,8.88,40.00,8.00,0.00,29.94,M,10.00,M,CLR,M,M,M,M,M,M,M,M,M,M,M,M,M,M,97.55,KBVU 280055Z AUTO 04008KT 10SM CLR 40/01 A2994 RMK AO2,M
RTS,2022-06-28 00:55,-119.8764,39.6682,1539.00,87.80,21.20,8.70,250.00,20.00,0.00,30.21,M,10.00,28.00,CLR,M,M,M,M,M,M,M,M,M,M,M,M,M,M,83.33,KRTS 280055Z AUTO 25020G28KT 10SM CLR 31/M06 A3021 RMK AO2,M
WMC,2022-06-28 00:56,-117.8072,40.9019,1315.00,99.00,27.00,7.83,250.00,12.00,0.00,30.07,1013.10,10.00,20.00,CLR,M,M,M,M,M,M,M,M,M,M,M,M,M,M,92.44,KWMC 280056Z AUTO 25012G20KT 10SM CLR 37/M03 A3007 RMK AO2 SLP131 T03721028,M
LAS,2022-06-28 00:56,-115.1634,36.0719,663.00,105.00,40.00,10.94,50.00,6.00,0.00,29.95,1011.00,10.00,M,FEW,FEW,M,M,12000.00,18000.00,M,M,M,M,M,M,M,M,M,99.68,KLAS 280056Z 05006KT 10SM FEW120 FEW180 41/04 A2995 RMK AO2 SLP110 T04060044,M
EKO,2022-06-28 00:56,-115.7860,40.8242,1367.00,91.00,34.00,13.32,230.00,5.00,0.00,30.14,1014.90,10.00,M,CLR,M,M,M,M,M,M,M,M,M,M,M,M,M,M,86.79,KEKO 280056Z AUTO 23005KT 10SM CLR 33/01 A3014 RMK AO2 SLP149 T03280011,M
NFL,2022-06-28 00:56,-118.7010,39.4166,1199.00,97.00,27.00,8.32,320.00,8.00,0.00,30.05,1014.30,10.00,M,SCT,M,M,M,10000.00,M,M,M,M,M,M,M,M,M,M,90.77,KNFL 280056Z 32008KT 10SM SCT100 36/M03 A3005 RMK AO2 SLP143 T03611028,M
HND,2022-06-28 00:56,-115.1344,35.9729,742.79,103.00,45.00,14.21,30.00,7.00,0.00,29.99,1013.60,10.00,M,CLR,M,M,M,M,M,M,M,M,M,M,M,M,M,M,98.83,KHND 280056Z 03007KT 10SM CLR 39/07 A2999 RMK AO2 SLP136 T03940072,M
LSV,2022-06-28 00:58,-115.0343,36.2362,570.00,106.20,40.60,10.88,230.00,3.00,0.00,29.91,1009.80,10.00,M,CLR,M,M,M,M,M,M,M,M,M,M,M,M,M,M,100.81,KLSV 280058Z AUTO 23003KT 10SM CLR 41/05 A2991 RMK AO2 SLP098 T04120048 $,M
INS,2022-06-28 00:58,-115.6733,36.5872,955.00,99.50,40.00,12.93,0.00,0.00,0.00,30.02,1011.00,10.00,M,FEW,M,M,M,15000.00,M,M,M,M,M,M,M,M,M,M,94.81,KINS 280058Z AUTO 00000KT 10SM FEW150 38/04 A3002 RMK AO2 SLP110 T03750044 $,M
BAM,2022-06-28 01:15,-116.8743,40.5990,1382.36,M,M,M,250.00,9.00,0.00,30.10,M,10.00,M,CLR,M,M,M,M,M,M,M,M,M,M,M,M,M,M,M,KBAM 280115Z AUTO 25009KT 10SM CLR A3010 RMK AO1,M
HTH,2022-06-28 01:15,-118.6315,38.5448,1282.89,95.00,28.40,9.38,320.00,9.00,0.00,30.06,M,10.00,M,CLR,M,M,M,M,M,M,M,M,M,M,M,M,M,M,89.27,KHTH 280115Z AUTO 32009KT 10SM CLR 35/M02 A3006 RMK A01,M
TMT,2022-06-28 01:15,-117.1971,39.4643,1749.34,91.40,28.90,10.70,220.00,7.00,0.00,30.21,M,10.00,M,CLR,M,M,M,M,M,M,M,M,M,M,M,M,M,M,86.57,KTMT 280115Z AUTO 22007KT 10SM CLR 33/M02 A3021 RMK AO2 T03301017,M
RTS,2022-06-28 01:15,-119.8764,39.6682,1539.00,86.00,21.20,9.21,250.00,16.00,0.00,30.21,M,10.00,29.00,CLR,M,M,M,M,M,M,M,M,M,M,M,M,M,M,82.04,KRTS 280115Z AUTO 25016G29KT 10SM CLR 30/M06 A3021 RMK AO2,M
MEV,2022-06-28 01:15,-119.7500,38.9963,1441.42,89.60,26.60,10.30,230.00,8.00,0.00,30.17,M,10.00,M,CLR,M,M,M,M,M,M,M,M,M,M,M,M,M,M,85.02,KMEV 280115Z AUTO 23008KT 210V270 10SM CLR 32/M03 A3017 RMK AO2,M
BVU,2022-06-28 01:15,-114.8611,35.9475,671.00,104.00,33.80,8.88,50.00,7.00,0.00,29.94,M,10.00,M,CLR,M,M,M,M,M,M,M,M,M,M,M,M,M,M,97.55,KBVU 280115Z AUTO 05007KT 10SM CLR 40/01 A2994 RMK AO2,M
BAM,2022-06-28 01:35,-116.8743,40.5990,1382.36,M,M,M,0.00,0.00,0.00,30.09,M,10.00,M,CLR,M,M,M,M,M,M,M,M,M,M,M,M,M,M,M,KBAM 280135Z AUTO 00000KT 10SM CLR A3009 RMK AO1,M
HTH,2022-06-28 01:35,-118.6315,38.5448,1282.89,95.00,32.00,10.85,330.00,8.00,0.00,30.07,M,10.00,M,CLR,M,M,M,M,M,M,M,M,M,M,M,M,M,M,89.71,KHTH 280135Z AUTO 33008KT 10SM CLR 35/00 A3007 RMK A01,M
TMT,2022-06-28 01:35,-117.1971,39.4643,1749.34,91.00,28.80,10.79,200.00,10.00,0.00,30.21,M,10.00,M,SCT,M,M,M,100.00,M,M,M,M,M,M,M,M,M,M,86.26,KTMT 280135Z AUTO 20010KT 10SM SCT001 33/M02 A3021 RMK AO2 T03281018,M
RTS,2022-06-28 01:35,-119.8764,39.6682,1539.00,86.00,21.20,9.21,250.00,20.00,0.00,30.22,M,10.00,29.00,CLR,M,M,M,M,M,M,M,M,M,M,M,M,M,M,82.04,KRTS 280135Z AUTO 25020G29KT 10SM CLR 30/M06 A3022 RMK AO2,M
BVU,2022-06-28 01:35,-114.8611,35.9475,671.00,104.00,35.60,9.54,40.00,6.00,0.00,29.95,M,10.00,M,CLR,M,M,M,M,M,M,M,M,M,M,M,M,M,M,97.85,KBVU 280135Z AUTO 04006KT 10SM CLR 40/02 A2995 RMK AO2,M
MEV,2022-06-28 01:35,-119.7500,38.9963,1441.42,87.80,26.60,10.91,230.00,9.00,0.00,30.18,M,10.00,16.00,CLR,M,M,M,M,M,M,M,M,M,M,M,M,M,M,83.69,KMEV 280135Z AUTO 23009G16KT 10SM CLR 31/M03 A3018 RMK AO2,M
DRA,2022-06-28 01:53,-116.0278,36.6206,1009.00,99.00,35.00,10.87,240.00,8.00,0.00,30.03,1011.00,10.00,M,CLR,M,M,M,M,M,M,M,M,M,M,M,M,M,M,93.48,KDRA 280153Z AUTO 24008KT 10SM CLR 37/02 A3003 RMK AO2 SLP110 T03720017,M
ELY,2022-06-28 01:53,-114.8453,39.2950,1909.00,86.00,21.90,9.49,210.00,3.00,0.00,30.26,1013.80,10.00,M,CLR,M,M,M,M,M,M,M,M,M,M,M,M,M,M,82.08,KELY 280153Z AUTO 21003KT 10SM CLR 30/M06 A3026 RMK AO2 SLP138 T03001056,M
VGT,2022-06-28 01:53,-115.1933,36.2111,667.00,105.00,37.00,9.76,100.00,4.00,0.00,29.94,1012.30,10.00,M,CLR,M,M,M,M,M,M,M,M,M,M,M,M,M,M,99.07,KVGT 280153Z 10004KT 10SM CLR 41/03 A2994 RMK AO2 SLP123 T04060028,M
LOL,2022-06-28 01:53,-118.5701,40.0684,1192.43,96.00,27.00,8.56,280.00,16.00,0.00,30.03,1012.20,10.00,22.00,CLR,M,M,M,M,M,M,M,M,M,M,M,M,M,M,90.03,KLOL 280153Z AUTO 28016G22KT 10SM CLR 36/M03 A3003 RMK AO2 SLP122 T03561028,M
P68,2022-06-28 01:53,-116.0056,39.6014,1993.00,88.00,21.90,8.90,260.00,5.00,0.00,30.21,M,M,M,M,M,M,M,M,M,M,M,M,M,M,M,M,M,M,83.51,KP68 280153Z AUTO 26005KT 31/M06 A3021 RMK AO1 SLPNO T03111056,M
TMT,2022-06-28 01:55,-117.1971,39.4643,1749.34,88.70,29.10,11.75,240.00,5.00,0.00,30.22,M,10.00,M,CLR,M,M,M,M,M,M,M,M,M,M,M,M,M,M,84.57,KTMT 280155Z AUTO 24005KT 10SM CLR 32/M02 A3022 RMK AO2 T03151016,M
BVU,2022-06-28 01:55,-114.8611,35.9475,671.00,102.20,35.60,10.07,20.00,6.00,0.00,29.95,M,10.00,M,CLR,M,M,M,M,M,M,M,M,M,M,M,M,M,M,96.30,KBVU 280155Z AUTO 02006KT 10SM CLR 39/02 A2995 RMK AO2,M
RNO,2022-06-28 01:55,-119.7711,39.4839,1341.00,90.00,27.00,10.34,240.00,13.00,0.00,30.14,1014.70,10.00,19.00,CLR,M,M,M,M,M,M,M,M,M,M,M,M,M,M,85.35,KRNO 280155Z 24013G19KT 10SM CLR 32/M03 A3014 RMK AO2 SLP147 T03221028,M
RTS,2022-06-28 01:55,-119.8764,39.6682,1539.00,84.20,21.20,9.76,240.00,15.00,0.00,30.23,M,10.00,26.00,CLR,M,M,M,M,M,M,M,M,M,M,M,M,M,M,80.77,KRTS 280155Z AUTO 24015G26KT 10SM CLR 29/M06 A3023 RMK AO2,M
MEV,2022-06-28 01:55,-119.7500,38.9963,1441.42,86.00,26.60,11.55,280.00,14.00,0.00,30.18,M,10.00,M,CLR,M,M,M,M,M,M,M,M,M,M,M,M,M,M,82.39,KMEV 280155Z AUTO 28014KT 10SM CLR 30/M03 A3018 RMK AO2,M
BAM,2022-06-28 01:55,-116.8743,40.5990,1382.36,M,M,M,300.00,4.00,0.00,30.09,M,10.00,M,CLR,M,M,M,M,M,M,M,M,M,M,M,M,M,M,M,KBAM 280155Z AUTO 30004KT 10SM CLR A3009 RMK AO1,M
HTH,2022-06-28 01:55,-118.6315,38.5448,1282.89,95.00,32.00,10.85,340.00,8.00,0.00,30.07,M,10.00,M,CLR,M,M,M,M,M,M,M,M,M,M,M,M,M,M,89.71,KHTH 280155Z AUTO 34008KT 10SM CLR 35/M00 A3007 RMK A01,M
HND,2022-06-28 01:56,-115.1344,35.9729,742.79,102.00,44.00,14.10,50.00,6.00,0.00,29.99,1013.70,10.00,M,CLR,M,M,M,M,M,M,M,M,M,M,M,M,M,M,97.79,KHND 280156Z 05006KT 10SM CLR 39/07 A2999 RMK AO2 SLP137 T03890067,M
NFL,2022-06-28 01:56,-118.7010,39.4166,1199.00,95.00,30.00,10.01,270.00,15.00,0.00,30.06,1014.70,10.00,22.00,SCT,M,M,M,10000.00,M,M,M,M,M,M,M,M,M,M,89.45,KNFL 280156Z 27015G22KT 10SM SCT100 35/M01 A3006 RMK AO2 SLP147 T03501011,M
LAS,2022-06-28 01:56,-115.1634,36.0719,663.00,104.00,40.00,11.30,20.00,4.00,0.00,29.95,1011.10,10.00,M,FEW,FEW,M,M,12000.00,18000.00,M,M,M,M,M,M,M,M,M,98.71,KLAS 280156Z 02004KT 10SM FEW120 FEW180 40/04 A2995 RMK AO2 SLP111 T04000044,M
EKO,2022-06-28 01:56,-115.7860,40.8242,1367.00,92.00,28.90,10.54,0.00,0.00,0.00,30.14,1014.30,10.00,M,CLR,M,M,M,M,M,M,M,M,M,M,M,M,M,M,86.95,KEKO 280156Z AUTO 00000KT 10SM CLR 33/M02 A3014 RMK AO2 SLP143 T03331017,M
WMC,2022-06-28 01:56,-117.8072,40.9019,1315.00,95.00,24.10,7.85,250.00,7.00,0.00,30.07,1013.10,10.00,M,CLR,M,M,M,M,M,M,M,M,M,M,M,M,M,M,88.85,KWMC 280156Z AUTO 25007KT 10SM CLR 35/M04 A3007 RMK AO2 SLP131 T03501044,M
LSV,2022-06-28 01:58,-115.0343,36.2362,570.00,104.00,39.00,10.91,0.00,0.00,0.00,29.91,1009.90,10.00,M,CLR,M,M,M,M,M,M,M,M,M,M,M,M,M,M,98.51,KLSV 280158Z AUTO 00000KT 10SM CLR 40/04 A2991 RMK AO2 SLP099 T04000039 $,M
INS,2022-06-28 01:58,-115.6733,36.5872,955.00,98.60,39.20,12.94,0.00,0.00,0.00,30.02,1011.00,10.00,M,CLR,M,M,M,M,M,M,M,M,M,M,M,M,M,M,93.89,KINS 280158Z AUTO 00000KT 10SM CLR 37/04 A3002 RMK AO2 SLP110 T03700040 $,M
LOL,2022-06-28 02:03,-118.5701,40.0684,1192.43,95.00,28.00,9.22,290.00,22.00,0.00,30.04,M,10.00,27.00,CLR,M,M,M,M,M,M,M,M,M,M,M,27.00,290.00,2022-06-28 01:59,89.22,KLOL 280203Z AUTO 29022G27KT 10SM CLR 35/M02 A3004 RMK AO2 PK WND 29027/0159 WSHFT 0143 T03501022,M
TMT,2022-06-28 02:15,-117.1971,39.4643,1749.34,87.30,30.60,13.05,220.00,3.00,0.00,30.22,M,10.00,M,CLR,M,M,M,M,M,M,M,M,M,M,M,M,M,M,83.67,KTMT 280215Z AUTO 22003KT 10SM CLR 31/M01 A3022 RMK AO2 T03071008,M
HTH,2022-06-28 02:15,-118.6315,38.5448,1282.89,93.20,33.80,12.34,320.00,9.00,0.00,30.07,M,10.00,M,CLR,M,M,M,M,M,M,M,M,M,M,M,M,M,M,88.55,KHTH 280215Z AUTO 32009KT 10SM CLR 34/01 A3007 RMK A01,M
BAM,2022-06-28 02:15,-116.8743,40.5990,1382.36,M,M,M,270.00,7.00,0.00,30.10,M,10.00,M,CLR,M,M,M,M,M,M,M,M,M,M,M,M,M,M,M,KBAM 280215Z AUTO 27007KT 10SM CLR A3010 RMK AO1,M
MEV,2022-06-28 02:15,-119.7500,38.9963,1441.42,84.20,26.60,12.23,250.00,11.00,0.00,30.19,M,10.00,28.00,CLR,M,M,M,M,M,M,M,M,M,M,M,M,M,M,81.13,KMEV 280215Z AUTO 25011G28KT 220V280 10SM CLR 29/M03 A3019 RMK AO2,M
RTS,2022-06-28 02:15,-119.8764,39.6682,1539.00,84.20,23.00,10.53,240.00,14.00,0.00,30.23,M,10.00,24.00,CLR,M,M,M,M,M,M,M,M,M,M,M,M,M,M,80.88,KRTS 280215Z AUTO 24014G24KT 10SM CLR 29/M05 A3023 RMK AO2,M
BVU,2022-06-28 02:15,-114.8611,35.9475,671.00,102.20,39.20,11.60,20.00,7.00,0.00,29.95,M,10.00,M,CLR,M,M,M,M,M,M,M,M,M,M,M,M,M,M,96.99,KBVU 280215Z AUTO 02007KT 10SM CLR 39/04 A2995 RMK AO2,M
RTS,2022-06-28 02:35,-119.8764,39.6682,1539.00,82.40,23.00,11.16,260.00,12.00,0.00,30.24,M,10.00,20.00,CLR,M,M,M,M,M,M,M,M,M,M,M,M,M,M,79.67,KRTS 280235Z AUTO 26012G20KT 10SM CLR 28/M05 A3024 RMK AO2,M
BVU,2022-06-28 02:35,-114.8611,35.9475,671.00,100.40,39.20,12.25,40.00,4.00,0.00,29.95,M,10.00,M,CLR,M,M,M,M,M,M,M,M,M,M,M,M,M,M,95.43,KBVU 280235Z AUTO 04004KT 10SM CLR 38/04 A2995 RMK AO2,M
MEV,2022-06-28 02:35,-119.7500,38.9963,1441.42,84.20,26.60,12.23,280.00,16.00,0.00,30.19,M,10.00,M,CLR,M,M,M,M,M,M,M,M,M,M,M,M,M,M,81.13,KMEV 280235Z AUTO 28016KT 10SM CLR 29/M03 A3019 RMK AO2,M
BAM,2022-06-28 02:35,-116.8743,40.5990,1382.36,M,M,M,270.00,7.00,0.00,30.09,M,10.00,M,CLR,M,M,M,M,M,M,M,M,M,M,M,M,M,M,M,KBAM 280235Z AUTO 27007KT 10SM CLR A3009 RMK AO1,M
HTH,2022-06-28 02:35,-118.6315,38.5448,1282.89,93.20,32.00,11.48,340.00,9.00,0.00,30.08,M,10.00,M,CLR,M,M,M,M,M,M,M,M,M,M,M,M,M,M,88.31,KHTH 280235Z AUTO 34009KT 10SM CLR 34/M00 A3008 RMK A01,M
TMT,2022-06-28 02:35,-117.1971,39.4643,1749.34,85.00,32.50,15.12,220.00,4.00,0.00,30.22,M,10.00,M,CLR,M,M,M,M,M,M,M,M,M,M,M,M,M,M,81.96,KTMT 280235Z AUTO 22004KT 10SM CLR 30/00 A3022 RMK AO2 T02950003,M
DRA,2022-06-28 02:53,-116.0278,36.6206,1009.00,96.00,34.00,11.37,240.00,6.00,0.00,30.04,1011.30,10.00,M,CLR,M,M,M,M,M,M,M,M,M,M,M,M,M,M,90.89,KDRA 280253Z AUTO 24006KT 10SM CLR 36/01 A3004 RMK AO2 SLP113 T03560011 55001,M
VGT,2022-06-28 02:53,-115.1933,36.2111,667.00,104.00,37.00,10.09,0.00,0.00,0.00,29.95,1012.50,10.00,M,CLR,M,M,M,M,M,M,M,M,M,M,M,M,M,M,98.11,KVGT 280253Z 00000KT 10SM CLR 40/03 A2995 RMK AO2 SLP125 T04000028 55003,M
LOL,2022-06-28 02:53,-118.5701,40.0684,1192.43,91.00,27.00,10.02,290.00,20.00,0.00,30.06,1013.10,10.00,M,CLR,M,M,M,M,M,M,M,M,M,M,M,28.00,280.00,2022-06-28 02:43,86.10,KLOL 280253Z AUTO 29020KT 10SM CLR 33/M03 A3006 RMK AO2 PK WND 28028/0243 WSHFT 0143 SLP131 T03281028 53001,M
P68,2022-06-28 02:53,-116.0056,39.6014,1993.00,84.00,25.00,11.52,210.00,4.00,0.00,30.22,1013.60,M,M,M,M,M,M,M,M,M,M,M,M,M,M,M,M,M,80.88,KP68 280253Z AUTO 21004KT 29/M04 A3022 RMK AO1 SLP136 T02891039 55001,M
ELY,2022-06-28 02:53,-114.8453,39.2950,1909.00,78.00,24.10,13.45,M,M,0.00,30.27,1013.80,10.00,M,CLR,M,M,M,M,M,M,M,M,M,M,M,M,M,M,78.10,KELY 280253Z AUTO 10SM CLR 26/M04 A3027 RMK AO2 SLP138 T02561044 55001,M
RTS,2022-06-28 02:55,-119.8764,39.6682,1539.00,80.60,21.20,10.97,240.00,12.00,0.00,30.24,M,10.00,18.00,CLR,M,M,M,M,M,M,M,M,M,M,M,M,M,M,78.68,KRTS 280255Z AUTO 24012G18KT 10SM CLR 27/M06 A3024 RMK AO2,M
MEV,2022-06-28 02:55,-119.7500,38.9963,1441.42,82.40,26.60,12.97,280.00,18.00,0.00,30.19,M,10.00,M,CLR,M,M,M,M,M,M,M,M,M,M,M,M,M,M,79.92,KMEV 280255Z AUTO 28018KT 10SM CLR 28/M03 A3019 RMK AO2,M
BAM,2022-06-28 02:55,-116.8743,40.5990,1382.36,M,M,M,260.00,6.00,0.00,30.10,M,10.00,M,CLR,M,M,M,M,M,M,M,M,M,M,M,M,M,M,M,KBAM 280255Z AUTO 26006KT 10SM CLR A3010 RMK AO1,M
HTH,2022-06-28 02:55,-118.6315,38.5448,1282.89,91.40,35.60,14.02,340.00,6.00,0.00,30.08,M,10.00,M,CLR,M,M,M,M,M,M,M,M,M,M,M,M,M,M,87.17,KHTH 280255Z AUTO 34006KT 10SM CLR 33/02 A3008 RMK A01,M
TMT,2022-06-28 02:55,-117.1971,39.4643,1749.34,82.00,36.00,19.28,200.00,5.00,0.00,30.22,M,10.00,M,CLR,M,M,M,M,M,M,M,M,M,M,M,M,M,M,79.77,KTMT 280255Z AUTO 20005KT 10SM CLR 28/02 A3022 RMK AO2 T02770022,M
RNO,2022-06-28 02:55,-119.7711,39.4839,1341.00,87.00,26.10,10.92,270.00,7.00,0.00,30.16,1015.20,10.00,14.00,FEW,M,M,M,10000.00,M,M,M,M,M,M,M,M,M,M,83.14,KRNO 280255Z 27007G14KT 10SM FEW100 31/M03 A3016 RMK AO2 SLP152 T03061033 53007,M
BVU,2022-06-28 02:55,-114.8611,35.9475,671.00,100.40,42.80,14.08,40.00,5.00,0.00,29.96,M,10.00,M,CLR,M,M,M,M,M,M,M,M,M,M,M,M,M,M,96.04,KBVU 280255Z AUTO 04005KT 10SM CLR 38/06 A2996 RMK AO2,M
EKO,2022-06-28 02:56,-115.7860,40.8242,1367.00,89.00,28.90,11.50,0.00,0.00,0.00,30.15,1014.10,10.00,M,CLR,M,M,M,M,M,M,M,M,M,M,M,M,M,M,84.84,KEKO 280256Z AUTO 00000KT 10SM CLR 32/M02 A3015 RMK AO2 SLP141 T03171017 55002,M
LAS,2022-06-28 02:56,-115.1634,36.0719,663.00,102.00,40.00,12.00,0.00,0.00,0.00,29.96,1011.30,10.00,M,FEW,M,M,M,12000.00,M,M,M,M,M,M,M,M,M,M,96.96,KLAS 280256Z 00000KT 10SM FEW120 39/04 A2996 RMK AO2 SLP113 T03890044 55004,M
WMC,2022-06-28 02:56,-117.8072,40.9019,1315.00,89.00,23.00,9.01,280.00,8.00,0.00,30.08,1013.10,10.00,M,CLR,M,M,M,M,M,M,M,M,M,M,M,M,M,M,84.38,KWMC 280256Z AUTO 28008KT 10SM CLR 32/M05 A3008 RMK AO2 SLP131 T03171050 55001,M
NFL,2022-06-28 02:56,-118.7010,39.4166,1199.00,91.00,26.10,9.66,270.00,17.00,0.00,30.08,1015.30,10.00,M,FEW,M,M,M,10000.00,M,M,M,M,M,M,M,M,M,M,86.02,KNFL 280256Z 27017KT 10SM FEW100 33/M03 A3008 RMK AO2 SLP153 T03281033 53007,M
HND,2022-06-28 02:56,-115.1344,35.9729,742.79,100.00,44.00,14.98,M,3.00,0.00,30.00,1013.80,10.00,M,CLR,M,M,M,M,M,M,M,M,M,M,M,M,M,M,95.84,KHND 280256Z VRB03KT 10SM CLR 38/07 A3000 RMK AO2 SLP138 T03780067 55003,M
INS,2022-06-28 02:58,-115.6733,36.5872,955.00,97.20,38.00,12.93,0.00,0.00,0.00,30.03,1011.30,10.00,M,CLR,M,M,M,M,M,M,M,M,M,M,M,M,M,M,92.50,KINS 280258Z AUTO 00000KT 10SM CLR 36/03 A3003 RMK AO2 SLP113 T03620034 55003 $,M
LSV,2022-06-28 02:58,-115.0343,36.2362,570.00,100.40,38.50,11.92,0.00,0.00,0.00,29.92,1010.30,10.00,M,CLR,M,M,M,M,M,M,M,M,M,M,M,M,M,M,95.29,KLSV 280258Z AUTO 00000KT 10SM CLR 38/04 A2992 RMK AO2 SLP103 T03800036 55004 $,M
BVU,2022-06-28 03:15,-114.8611,35.9475,671.00,98.60,44.60,15.93,40.00,5.00,0.00,29.96,M,10.00,M,CLR,M,M,M,M,M,M,M,M,M,M,M,M,M,M,94.55,KBVU 280315Z AUTO 04005KT 10SM CLR 37/07 A2996 RMK AO2,M
MEV,2022-06-28 03:15,-119.7500,38.9963,1441.42,80.60,26.60,13.75,280.00,13.00,0.00,30.20,M,10.00,21.00,CLR,M,M,M,M,M,M,M,M,M,M,M,M,M,M,78.68,KMEV 280315Z AUTO 28013G21KT 10SM CLR 27/M03 A3020 RMK AO2,M
BAM,2022-06-28 03:15,-116.8743,40.5990,1382.36,M,M,M,280.00,4.00,0.00,30.10,M,10.00,M,CLR,M,M,M,M,M,M,M,M,M,M,M,M,M,M,M,KBAM 280315Z AUTO 28004KT 10SM CLR A3010 RMK AO1,M
HTH,2022-06-28 03:15,-118.6315,38.5448,1282.89,89.60,33.80,13.80,0.00,0.00,0.00,30.09,M,10.00,M,CLR,M,M,M,M,M,M,M,M,M,M,M,M,M,M,85.59,KHTH 280315Z AUTO 00000KT 10SM CLR 32/01 A3009 RMK A01,M
RTS,2022-06-28 03:15,-119.8764,39.6682,1539.00,78.80,19.40,10.78,280.00,5.00,0.00,30.24,M,10.00,17.00,CLR,M,M,M,M,M,M,M,M,M,M,M,M,M,M,78.80,KRTS 280315Z AUTO 28005G17KT 10SM CLR 26/M07 A3024 RMK AO2,M
TMT,2022-06-28 03:15,-117.1971,39.4643,1749.34,80.00,30.90,16.77,170.00,6.00,0.00,30.22,M,10.00,M,SCT,M,M,M,11000.00,M,M,M,M,M,M,M,M,M,M,79.90,KTMT 280315Z AUTO 17006KT 10SM SCT110 27/M01 A3022 RMK AO2 T02661006,M
BAM,2022-06-28 03:35,-116.8743,40.5990,1382.36,M,M,M,290.00,5.00,0.00,30.10,M,10.00,M,CLR,M,M,M,M,M,M,M,M,M,M,M,M,M,M,M,KBAM 280335Z AUTO 29005KT 10SM CLR A3010 RMK AO1,M
HTH,2022-06-28 03:35,-118.6315,38.5448,1282.89,89.60,28.40,11.09,310.00,6.00,0.00,30.10,M,10.00,15.00,CLR,M,M,M,M,M,M,M,M,M,M,M,M,M,M,85.17,KHTH 280335Z AUTO 31006G15KT 10SM CLR 32/M02 A3010 RMK A01,M
TMT,2022-06-28 03:35,-117.1971,39.4643,1749.34,77.20,29.80,17.53,180.00,4.00,0.00,30.22,M,10.00,M,CLR,M,M,M,M,M,M,M,M,M,M,M,M,M,M,77.20,KTMT 280335Z AUTO 18004KT 10SM CLR 25/M01 A3022 RMK AO2 T02511012,M
MEV,2022-06-28 03:35,-119.7500,38.9963,1441.42,80.60,23.00,11.83,270.00,15.00,0.00,30.20,M,10.00,20.00,CLR,M,M,M,M,M,M,M,M,M,M,M,M,M,M,78.80,KMEV 280335Z AUTO 27015G20KT 10SM CLR 27/M05 A3020 RMK AO2,M
RTS,2022-06-28 03:35,-119.8764,39.6682,1539.00,77.00,17.60,10.59,260.00,7.00,0.00,30.25,M,10.00,15.00,CLR,M,M,M,M,M,M,M,M,M,M,M,M,M,M,77.00,KRTS 280335Z AUTO 26007G15KT 230V290 10SM CLR 25/M08 A3025 RMK AO2,M
BVU,2022-06-28 03:35,-114.8611,35.9475,671.00,95.00,48.20,20.38,40.00,5.00,0.00,29.96,M,10.00,M,CLR,M,M,M,M,M,M,M,M,M,M,M,M,M,M,91.56,KBVU 280335Z AUTO 04005KT 10SM CLR 35/09 A2996 RMK AO2,M
VGT,2022-06-28 03:53,-115.1933,36.2111,667.00,100.00,39.00,12.30,0.00,0.00,0.00,29.95,1012.60,10.00,M,CLR,M,M,M,M,M,M,M,M,M,M,M,M,M,M,95.05,KVGT 280353Z 00000KT 10SM CLR 38/04 A2995 RMK AO2 SLP126 T03780039,M
DRA,2022-06-28 03:53,-116.0278,36.6206,1009.00,92.00,34.00,12.95,240.00,3.00,0.00,30.05,1011.50,10.00,M,CLR,M,M,M,M,M,M,M,M,M,M,M,M,M,M,87.56,KDRA 280353Z AUTO 24003KT 10SM CLR 33/01 A3005 RMK AO2 SLP115 T03330011,M
ELY,2022-06-28 03:53,-114.8453,39.2950,1909.00,71.00,21.90,15.51,160.00,9.00,0.00,30.28,1013.90,10.00,M,CLR,M,M,M,M,M,M,M,M,M,M,M,M,M,M,71.10,KELY 280353Z AUTO 16009KT 10SM CLR 22/M06 A3028 RMK AO2 SLP139 T02171056,M
P68,2022-06-28 03:53,-116.0056,39.6014,1993.00,86.00,19.90,8.72,210.00,6.00,0.00,30.22,1012.80,M,M,M,M,M,M,M,M,M,M,M,M,M,M,M,M,M,81.97,KP68 280353Z AUTO 21006KT 30/M07 A3022 RMK AO1 SLP128 T03001067,M
LOL,2022-06-28 03:53,-118.5701,40.0684,1192.43,87.00,25.00,10.43,280.00,19.00,0.00,30.08,1013.50,10.00,24.00,CLR,M,M,M,M,M,M,M,M,M,M,M,27.00,290.00,2022-06-28 03:38,83.06,KLOL 280353Z AUTO 28019G24KT 10SM CLR 31/M04 A3008 RMK AO2 PK WND 29027/0338 SLP135 T03061039,M
TMT,2022-06-28 03:55,-117.1971,39.4643,1749.34,77.40,29.50,17.21,200.00,5.00,0.00,30.22,M,10.00,M,CLR,M,M,M,M,M,M,M,M,M,M,M,M,M,M,77.40,KTMT 280355Z AUTO 20005KT 10SM CLR 25/M01 A3022 RMK AO2 T02521014,M
BVU,2022-06-28 03:55,-114.8611,35.9475,671.00,93.20,50.00,23.04,40.00,5.00,0.00,29.96,M,10.00,M,CLR,M,M,M,M,M,M,M,M,M,M,M,M,M,M,90.10,KBVU 280355Z AUTO 04005KT 10SM CLR 34/10 A2996 RMK AO2,M
RNO,2022-06-28 03:55,-119.7711,39.4839,1341.00,84.00,28.00,13.04,M,M,0.00,30.18,1015.60,10.00,M,FEW,M,M,M,10000.00,M,M,M,M,M,M,M,M,M,M,81.10,KRNO 280355Z 10SM FEW100 29/M02 A3018 RMK AO2 SLP156 T02891022,M
RTS,2022-06-28 03:55,-119.8764,39.6682,1539.00,75.20,15.80,10.40,330.00,5.00,0.00,30.25,M,10.00,M,CLR,M,M,M,M,M,M,M,M,M,M,M,M,M,M,75.20,KRTS 280355Z AUTO 33005KT 10SM CLR 24/M09 A3025 RMK AO2,M
MEV,2022-06-28 03:55,-119.7500,38.9963,1441.42,78.80,23.00,12.55,280.00,11.00,0.00,30.21,M,10.00,17.00,CLR,M,M,M,M,M,M,M,M,M,M,M,M,M,M,78.80,KMEV 280355Z AUTO 28011G17KT 10SM CLR 26/M05 A3021 RMK AO2,M
BAM,2022-06-28 03:55,-116.8743,40.5990,1382.36,M,M,M,300.00,5.00,0.00,30.11,M,10.00,M,CLR,M,M,M,M,M,M,M,M,M,M,M,M,M,M,M,KBAM 280355Z AUTO 30005KT 10SM CLR A3011 RMK AO1,M
HTH,2022-06-28 03:55,-118.6315,38.5448,1282.89,89.60,28.40,11.09,M,3.00,0.00,30.10,M,10.00,M,CLR,M,M,M,M,M,M,M,M,M,M,M,M,M,M,85.17,KHTH 280355Z AUTO VRB03KT 10SM CLR 32/M02 A3010 RMK A01,M
EKO,2022-06-28 03:56,-115.7860,40.8242,1367.00,84.00,27.00,12.52,90.00,4.00,0.00,30.15,1014.10,10.00,M,CLR,M,M,M,M,M,M,M,M,M,M,M,M,M,M,81.03,KEKO 280356Z AUTO 09004KT 10SM CLR 29/M03 A3015 RMK AO2 SLP141 T02891028,M
LAS,2022-06-28 03:56,-115.1634,36.0719,663.00,100.00,43.00,14.36,0.00,0.00,0.00,29.96,1011.40,10.00,M,CLR,M,M,M,M,M,M,M,M,M,M,M,M,M,M,95.68,KLAS 280356Z 00000KT 10SM CLR 38/06 A2996 RMK AO2 SLP114 T03780061,M
HND,2022-06-28 03:56,-115.1344,35.9729,742.79,97.00,45.00,16.98,80.00,4.00,0.00,30.00,1014.00,10.00,M,CLR,M,M,M,M,M,M,M,M,M,M,M,M,M,M,93.04,KHND 280356Z AUTO 08004KT 10SM CLR 36/07 A3000 RMK AO2 SLP140 T03610072,M
WMC,2022-06-28 03:56,-117.8072,40.9019,1315.00,78.00,25.00,13.97,240.00,6.00,0.00,30.09,1013.60,10.00,M,CLR,M,M,M,M,M,M,M,M,M,M,M,M,M,M,78.10,KWMC 280356Z AUTO 24006KT 10SM CLR 26/M04 A3009 RMK AO2 SLP136 T02561039,M
NFL,2022-06-28 03:56,-118.7010,39.4166,1199.00,87.00,25.00,10.43,280.00,14.00,0.00,30.10,1015.90,10.00,M,FEW,M,M,M,10000.00,M,M,M,M,M,M,M,M,M,M,83.06,KNFL 280356Z 28014KT 10SM FEW100 31/M04 A3010 RMK AO2 SLP159 T03061039,M
LSV,2022-06-28 03:58,-115.0343,36.2362,570.00,82.40,41.00,23.07,60.00,2.00,0.00,29.95,1008.30,10.00,M,CLR,M,M,M,M,M,M,M,M,M,M,M,M,M,M,80.29,KLSV 280358Z 06002KT 10SM CLR 28/05 A2995 RMK AO2A SLP083 WND DATA ESTMD ALSTG ESTMD $,M
INS,2022-06-28 03:58,-115.6733,36.5872,955.00,94.30,35.80,12.91,220.00,4.00,0.00,30.03,1011.20,10.00,M,CLR,M,M,M,M,M,M,M,M,M,M,M,M,M,M,89.73,KINS 280358Z AUTO 22004KT 10SM CLR 35/02 A3003 RMK AO2 SLP112 T03460021 $,M
BVU,2022-06-28 04:15,-114.8611,35.9475,671.00,91.40,48.20,22.78,20.00,4.00,0.00,29.97,M,10.00,M,CLR,M,M,M,M,M,M,M,M,M,M,M,M,M,M,88.09,KBVU 280415Z AUTO 02004KT 10SM CLR 33/09 A2997 RMK AO2,M
RTS,2022-06-28 04:15,-119.8764,39.6682,1539.00,75.20,12.20,8.88,M,5.00,0.00,30.26,M,10.00,M,CLR,M,M,M,M,M,M,M,M,M,M,M,M,M,M,75.20,KRTS 280415Z AUTO VRB05KT 10SM CLR 24/M11 A3026 RMK AO2,M
BAM,2022-06-28 04:15,-116.8743,40.5990,1382.36,M,M,M,300.00,4.00,0.00,30.11,M,10.00,M,CLR,M,M,M,M,M,M,M,M,M,M,M,M,M,M,M,KBAM 280415Z AUTO 30004KT 10SM CLR A3011 RMK AO1,M
MEV,2022-06-28 04:15,-119.7500,38.9963,1441.42,77.00,23.00,13.32,260.00,10.00,0.00,30.22,M,10.00,18.00,CLR,M,M,M,M,M,M,M,M,M,M,M,M,M,M,77.00,KMEV 280415Z AUTO 26010G18KT 10SM CLR 25/M05 A3022 RMK AO2,M
TMT,2022-06-28 04:15,-117.1971,39.4643,1749.34,73.20,31.80,21.73,300.00,5.00,0.00,30.23,M,10.00,M,CLR,M,M,M,M,M,M,M,M,M,M,M,M,M,M,73.20,KTMT 280415Z AUTO 30005KT 10SM CLR 23/00 A3023 RMK AO2 T02291001,M
HTH,2022-06-28 04:15,-118.6315,38.5448,1282.89,89.60,28.40,11.09,90.00,7.00,0.00,30.11,M,10.00,M,CLR,M,M,M,M,M,M,M,M,M,M,M,M,M,M,85.17,KHTH 280415Z AUTO 09007KT 10SM CLR 32/M02 A3011 RMK A01,M
RTS,2022-06-28 04:30,-119.8764,39.6682,1539.00,75.20,12.20,8.88,340.00,5.00,0.00,30.26,M,10.00,10.00,CLR,M,M,M,M,M,M,M,M,M,M,M,M,M,M,75.20,KRTS 280430Z AUTO 34005G10KT 10SM CLR 24/M11 A3026 RMK AO2,M
TMT,2022-06-28 04:35,-117.1971,39.4643,1749.34,73.20,28.90,19.32,160.00,3.00,0.00,30.24,M,10.00,M,CLR,M,M,M,M,M,M,M,M,M,M,M,M,M,M,73.20,KTMT 280435Z AUTO 16003KT 10SM CLR 23/M02 A3024 RMK AO2 T02291017,M
MEV,2022-06-28 04:35,-119.7500,38.9963,1441.42,75.20,23.00,14.15,250.00,5.00,0.00,30.23,M,10.00,12.00,CLR,M,M,M,M,M,M,M,M,M,M,M,M,M,M,75.20,KMEV 280435Z AUTO 25005G12KT 10SM CLR 24/M05 A3023 RMK AO2,M
BAM,2022-06-28 04:35,-116.8743,40.5990,1382.36,M,M,M,70.00,3.00,0.00,30.12,M,10.00,M,CLR,M,M,M,M,M,M,M,M,M,M,M,M,M,M,M,KBAM 280435Z AUTO 07003KT 10SM CLR A3012 RMK AO1,M
HTH,2022-06-28 04:35,-118.6315,38.5448,1282.89,87.80,28.40,11.74,M,6.00,0.00,30.12,M,10.00,11.00,CLR,M,M,M,M,M,M,M,M,M,M,M,M,M,M,83.84,KHTH 280435Z AUTO VRB06G11KT 10SM CLR 31/M02 A3012 RMK A01,M
BVU,2022-06-28 04:35,-114.8611,35.9475,671.00,91.40,48.20,22.78,30.00,4.00,0.00,29.97,M,10.00,M,CLR,M,M,M,M,M,M,M,M,M,M,M,M,M,M,88.09,KBVU 280435Z AUTO 03004KT 10SM CLR 33/09 A2997 RMK AO2,M
DRA,2022-06-28 04:53,-116.0278,36.6206,1009.00,89.00,34.00,14.14,0.00,0.00,0.00,30.06,1012.00,10.00,M,CLR,M,M,M,M,M,M,M,M,M,M,M,M,M,M,85.17,KDRA 280453Z AUTO 00000KT 10SM CLR 32/01 A3006 RMK AO2 SLP120 T03170011,M
LOL,2022-06-28 04:53,-118.5701,40.0684,1192.43,84.00,24.10,11.10,290.00,15.00,0.00,30.10,1014.20,10.00,20.00,CLR,M,M,M,M,M,M,M,M,M,M,M,M,M,M,80.82,KLOL 280453Z AUTO 29015G20KT 10SM CLR 29/M04 A3010 RMK AO2 SLP142 T02891044,M
P68,2022-06-28 04:53,-116.0056,39.6014,1993.00,78.00,24.10,13.45,M,4.00,0.00,30.24,1013.70,M,M,M,M,M,M,M,M,M,M,M,M,M,M,M,M,M,78.10,KP68 280453Z AUTO VRB04KT 26/M04 A3024 RMK AO1 SLP137 T02561044,M
VGT,2022-06-28 04:53,-115.1933,36.2111,667.00,100.00,40.00,12.74,0.00,0.00,0.00,29.96,1012.90,10.00,M,CLR,M,M,M,M,M,M,M,M,M,M,M,M,M,M,95.23,KVGT 280453Z AUTO 00000KT 10SM CLR 38/04 A2996 RMK AO2 SLP129 T03780044,M
ELY,2022-06-28 04:53,-114.8453,39.2950,1909.00,67.00,24.10,19.64,190.00,11.00,0.00,30.29,1014.50,10.00,M,CLR,M,M,M,M,M,M,M,M,M,M,M,M,M,M,66.90,KELY 280453Z AUTO 19011KT 10SM CLR 19/M04 A3029 RMK AO2 SLP145 T01941044,M
RTS,2022-06-28 04:55,-119.8764,39.6682,1539.00,73.40,10.40,8.71,10.00,8.00,0.00,30.27,M,10.00,M,CLR,M,M,M,M,M,M,M,M,M,M,M,M,M,M,73.40,KRTS 280455Z AUTO 01008KT 10SM CLR 23/M12 A3027 RMK AO2,M
TMT,2022-06-28 04:55,-117.1971,39.4643,1749.34,71.00,28.90,20.88,290.00,3.00,0.00,30.25,M,10.00,M,CLR,M,M,M,M,M,M,M,M,M,M,M,M,M,M,70.90,KTMT 280455Z AUTO 29003KT 10SM CLR 22/M02 A3025 RMK AO2 T02161017,M
MEV,2022-06-28 04:55,-119.7500,38.9963,1441.42,77.00,19.40,11.44,270.00,11.00,0.00,30.23,M,10.00,16.00,CLR,M,M,M,M,M,M,M,M,M,M,M,M,M,M,77.00,KMEV 280455Z AUTO 27011G16KT 10SM CLR 25/M07 A3023 RMK AO2,M
RNO,2022-06-28 04:55,-119.7711,39.4839,1341.00,82.00,23.00,11.31,300.00,6.00,0.00,30.19,1015.90,10.00,M,FEW,M,M,M,10000.00,M,M,M,M,M,M,M,M,M,M,79.40,KRNO 280455Z 30006KT 10SM FEW100 28/M05 A3019 RMK AO2 SLP159 T02781050,M
HTH,2022-06-28 04:55,-118.6315,38.5448,1282.89,87.80,26.60,10.91,160.00,9.00,0.00,30.13,M,10.00,M,CLR,M,M,M,M,M,M,M,M,M,M,M,M,M,M,83.69,KHTH 280455Z AUTO 16009KT 10SM CLR 31/M03 A3013 RMK A01,M
BVU,2022-06-28 04:55,-114.8611,35.9475,671.00,91.40,48.20,22.78,40.00,4.00,0.00,29.98,M,10.00,M,CLR,M,M,M,M,M,M,M,M,M,M,M,M,M,M,88.09,KBVU 280455Z AUTO 04004KT 10SM CLR 33/09 A2998 RMK AO2,M
BAM,2022-06-28 04:55,-116.8743,40.5990,1382.36,M,M,M,120.00,5.00,0.00,30.13,M,10.00,M,CLR,M,M,M,M,M,M,M,M,M,M,M,M,M,M,M,KBAM 280455Z AUTO 12005KT 10SM CLR A3013 RMK AO1,M
NFL,2022-06-28 04:56,-118.7010,39.4166,1199.00,81.00,27.00,13.80,290.00,7.00,0.00,30.12,1016.60,10.00,M,FEW,M,M,M,10000.00,M,M,M,M,M,M,M,M,M,M,78.96,KNFL 280456Z 29007KT 10SM FEW100 27/M03 A3012 RMK AO2 SLP166 T02721028,M
LAS,2022-06-28 04:56,-115.1634,36.0719,663.00,98.00,43.00,15.21,140.00,3.00,0.00,29.98,1011.80,10.00,M,CLR,M,M,M,M,M,M,M,M,M,M,M,M,M,M,93.85,KLAS 280456Z 14003KT 10SM CLR 37/06 A2998 RMK AO2 SLP118 T03670061,M
HND,2022-06-28 04:56,-115.1344,35.9729,742.79,94.00,46.00,19.40,120.00,4.00,0.00,30.02,1014.60,10.00,M,CLR,M,M,M,M,M,M,M,M,M,M,M,M,M,M,90.17,KHND 280456Z AUTO 12004KT 10SM CLR 34/08 A3002 RMK AO2 SLP146 T03440078,M
EKO,2022-06-28 04:56,-115.7860,40.8242,1367.00,77.00,30.90,18.46,0.00,0.00,0.00,30.16,1014.60,10.00,M,CLR,M,M,M,M,M,M,M,M,M,M,M,M,M,M,77.00,KEKO 280456Z AUTO 00000KT 10SM CLR 25/M01 A3016 RMK AO2 SLP146 T02501006,M
WMC,2022-06-28 04:56,-117.8072,40.9019,1315.00,82.00,26.10,12.87,270.00,9.00,0.00,30.12,1014.10,5.00,M,SCT,M,M,M,2100.00,M,M,M,HZ,M,M,M,M,M,M,79.62,KWMC 280456Z AUTO 27009KT 5SM HZ SCT021 28/M03 A3012 RMK AO2 SLP141 T02781033,M
LSV,2022-06-28 04:58,-115.0343,36.2362,570.00,95.00,39.20,14.44,0.00,0.00,0.00,29.93,1010.60,10.00,M,CLR,M,M,M,M,M,M,M,M,M,M,M,M,M,M,90.57,KLSV 280458Z 00000KT 10SM CLR 35/04 A2993 RMK AO2A SLP106 WND DATA ESTMD $,M
INS,2022-06-28 04:58,-115.6733,36.5872,955.00,89.40,35.60,14.92,0.00,0.00,0.00,30.05,1012.00,10.00,M,CLR,M,M,M,M,M,M,M,M,M,M,M,M,M,M,85.45,KINS 280458Z AUTO 00000KT 10SM CLR 32/02 A3005 RMK AO2 SLP120 T03190020 $,M
HTH,2022-06-28 05:15,-118.6315,38.5448,1282.89,86.00,28.40,12.44,M,5.00,0.00,30.14,M,10.00,M,CLR,M,M,M,M,M,M,M,M,M,M,M,M,M,M,82.54,KHTH 280515Z AUTO VRB05KT 10SM CLR 30/M02 A3014 RMK A01,M
TMT,2022-06-28 05:15,-117.1971,39.4643,1749.34,71.40,27.90,19.71,350.00,5.00,0.00,30.26,M,10.00,M,CLR,M,M,M,M,M,M,M,M,M,M,M,M,M,M,71.40,KTMT 280515Z AUTO 35005KT 10SM CLR 22/M02 A3026 RMK AO2 T02191023,M
BAM,2022-06-28 05:15,-116.8743,40.5990,1382.36,M,M,M,150.00,5.00,0.00,30.13,M,10.00,M,CLR,M,M,M,M,M,M,M,M,M,M,M,M,M,M,M,KBAM 280515Z AUTO 15005KT 10SM CLR A3013 RMK AO1,M
BVU,2022-06-28 05:15,-114.8611,35.9475,671.00,91.40,46.40,21.29,50.00,4.00,0.00,29.98,M,10.00,M,CLR,M,M,M,M,M,M,M,M,M,M,M,M,M,M,87.86,KBVU 280515Z AUTO 05004KT 10SM CLR 33/08 A2998 RMK AO2,M
MEV,2022-06-28 05:15,-119.7500,38.9963,1441.42,75.20,19.40,12.14,270.00,12.00,0.00,30.23,M,10.00,M,CLR,M,M,M,M,M,M,M,M,M,M,M,M,M,M,75.20,KMEV 280515Z AUTO 27012KT 10SM CLR 24/M07 A3023 RMK AO2,M
RTS,2022-06-28 05:15,-119.8764,39.6682,1539.00,71.60,12.20,10.02,330.00,9.00,0.00,30.26,M,10.00,M,CLR,M,M,M,M,M,M,M,M,M,M,M,M,M,M,71.60,KRTS 280515Z AUTO 33009KT 10SM CLR 22/M11 A3026 RMK AO2,M
BVU,2022-06-28 05:35,-114.8611,35.9475,671.00,95.00,44.60,17.78,100.00,4.00,0.00,29.98,M,10.00,M,CLR,M,M,M,M,M,M,M,M,M,M,M,M,M,M,91.06,KBVU 280535Z AUTO 10004KT 10SM CLR 35/07 A2998 RMK AO2,M
HTH,2022-06-28 05:35,-118.6315,38.5448,1282.89,84.20,28.40,13.18,90.00,5.00,0.00,30.14,M,10.00,M,CLR,M,M,M,M,M,M,M,M,M,M,M,M,M,M,81.25,KHTH 280535Z AUTO 09005KT 10SM CLR 29/M02 A3014 RMK A01,M
RTS,2022-06-28 05:35,-119.8764,39.6682,1539.00,69.80,12.20,10.66,320.00,5.00,0.00,30.27,M,10.00,M,CLR,M,M,M,M,M,M,M,M,M,M,M,M,M,M,69.80,KRTS 280535Z AUTO 32005KT 10SM CLR 21/M11 A3027 RMK AO2,M
BAM,2022-06-28 05:35,-116.8743,40.5990,1382.36,M,M,M,170.00,5.00,0.00,30.13,M,10.00,M,CLR,M,M,M,M,M,M,M,M,M,M,M,M,M,M,M,KBAM 280535Z AUTO 17005KT 10SM CLR A3013 RMK AO1,M
MEV,2022-06-28 05:35,-119.7500,38.9963,1441.42,75.20,21.20,13.11,240.00,12.00,0.00,30.23,M,10.00,M,CLR,M,M,M,M,M,M,M,M,M,M,M,M,M,M,75.20,KMEV 280535Z AUTO 24012KT 10SM CLR 24/M06 A3023 RMK AO2,M
TMT,2022-06-28 05:35,-117.1971,39.4643,1749.34,69.00,26.60,20.20,150.00,3.00,0.00,30.28,M,10.00,M,CLR,M,M,M,M,M,M,M,M,M,M,M,M,M,M,69.10,KTMT 280535Z AUTO 15003KT 10SM CLR 21/M03 A3028 RMK AO2 T02061030,M
DRA,2022-06-28 05:53,-116.0278,36.6206,1009.00,86.00,34.00,15.60,70.00,3.00,0.00,30.06,1012.10,10.00,M,CLR,M,M,M,M,M,M,M,M,M,M,M,M,M,M,82.66,KDRA 280553Z AUTO 07003KT 10SM CLR 30/01 A3006 RMK AO2 SLP121 T03000011 10389 20294 51008,M
VGT,2022-06-28 05:53,-115.1933,36.2111,667.00,95.00,45.00,18.06,280.00,4.00,0.00,29.97,1013.30,10.00,M,CLR,M,M,M,M,M,M,M,M,M,M,M,M,M,M,91.10,KVGT 280553Z AUTO 28004KT 10SM CLR 35/07 A2997 RMK AO2 SLP133 T03500072 10417 20350 53007,M
LOL,2022-06-28 05:53,-118.5701,40.0684,1192.43,78.00,24.10,13.45,80.00,10.00,0.00,30.13,1015.20,10.00,M,CLR,M,M,M,M,M,M,M,M,M,M,M,M,M,M,78.10,KLOL 280553Z AUTO 08010KT 10SM CLR 26/M04 A3013 RMK AO2 SLP152 T02561044 10378 20233 53020,M
P68,2022-06-28 05:53,-116.0056,39.6014,1993.00,72.00,21.90,15.04,140.00,9.00,0.00,30.24,1014.10,M,M,M,M,M,M,M,M,M,M,M,M,M,M,M,M,M,72.00,KP68 280553Z AUTO 14009KT 22/M06 A3024 RMK AO1 SLP141 T02221056 10339 20206 51006,M
ELY,2022-06-28 05:53,-114.8453,39.2950,1909.00,69.00,23.00,17.39,200.00,11.00,0.00,30.29,1014.00,10.00,M,CLR,M,M,M,M,M,M,M,M,M,M,M,M,M,M,69.10,KELY 280553Z AUTO 20011KT 10SM CLR 21/M05 A3029 RMK AO2 SLP140 T02061050 10322 20189 51008,M
BVU,2022-06-28 05:55,-114.8611,35.9475,671.00,91.40,46.40,21.29,M,3.00,0.00,29.99,M,10.00,M,CLR,M,M,M,M,M,M,M,M,M,M,M,M,M,M,87.86,KBVU 280555Z AUTO VRB03KT 10SM CLR 33/08 A2999 RMK AO2,M
RTS,2022-06-28 05:55,-119.8764,39.6682,1539.00,68.00,12.20,11.34,350.00,4.00,0.00,30.28,M,10.00,M,CLR,M,M,M,M,M,M,M,M,M,M,M,M,M,M,68.00,KRTS 280555Z AUTO 35004KT 10SM CLR 20/M11 A3028 RMK AO2,M
MEV,2022-06-28 05:55,-119.7500,38.9963,1441.42,73.40,19.40,12.90,240.00,8.00,0.00,30.24,M,10.00,M,CLR,M,M,M,M,M,M,M,M,M,M,M,M,M,M,73.40,KMEV 280555Z AUTO 24008KT 10SM CLR 23/M07 A3024 RMK AO2,M
BAM,2022-06-28 05:55,-116.8743,40.5990,1382.36,M,M,M,0.00,0.00,0.00,30.13,M,10.00,M,CLR,M,M,M,M,M,M,M,M,M,M,M,M,M,M,M,KBAM 280555Z AUTO 00000KT 10SM CLR A3013 RMK AO1,M
HTH,2022-06-28 05:55,-118.6315,38.5448,1282.89,80.60,28.40,14.81,130.00,4.00,0.00,30.14,M,10.00,M,CLR,M,M,M,M,M,M,M,M,M,M,M,M,M,M,78.72,KHTH 280555Z AUTO 13004KT 10SM CLR 27/M02 A3014 RMK A01,M
RNO,2022-06-28 05:55,-119.7711,39.4839,1341.00,78.00,24.10,13.45,80.00,4.00,0.00,30.20,1016.10,10.00,M,CLR,M,M,M,M,M,M,M,M,M,M,M,M,M,M,78.10,KRNO 280555Z 08004KT 10SM CLR 26/M04 A3020 RMK AO2 SLP161 T02561044 10350 20250 51011,M
TMT,2022-06-28 05:55,-117.1971,39.4643,1749.34,68.50,26.60,20.62,0.00,0.00,0.00,30.28,M,7.00,M,CLR,M,M,M,M,M,M,M,M,M,M,M,M,M,M,68.50,KTMT 280555Z AUTO 00000KT 7SM CLR 20/M03 A3028 RMK AO2 T02031030 10330 20196,M
WMC,2022-06-28 05:56,-117.8072,40.9019,1315.00,80.00,27.00,14.21,270.00,10.00,0.00,30.14,1014.50,5.00,M,SCT,M,M,M,2100.00,M,M,M,HZ,M,M,M,M,M,M,78.48,KWMC 280556Z AUTO 27010KT 5SM HZ SCT021 27/M03 A3014 RMK AO2 SLP145 T02671028 10383 20250 53018,M
EKO,2022-06-28 05:56,-115.7860,40.8242,1367.00,76.00,30.00,18.46,350.00,7.00,0.00,30.16,1014.20,10.00,M,CLR,M,M,M,M,M,M,M,M,M,M,M,M,M,M,75.90,KEKO 280556Z AUTO 35007KT 10SM CLR 24/M01 A3016 RMK AO2 SLP142 T02441011 10361 20233 50004,M
NFL,2022-06-28 05:56,-118.7010,39.4166,1199.00,74.00,26.10,16.81,0.00,0.00,0.00,30.14,1017.20,10.00,M,CLR,M,M,M,M,M,M,M,M,M,M,M,M,M,M,73.90,KNFL 280556Z 00000KT 10SM CLR 23/M03 A3014 RMK AO2 SLP172 T02331033 10372 20228 51019,M
HND,2022-06-28 05:56,-115.1344,35.9729,742.79,93.00,50.00,23.18,210.00,8.00,0.00,30.03,1014.80,10.00,M,CLR,M,M,M,M,M,M,M,M,M,M,M,M,M,M,89.90,KHND 280556Z AUTO 21008KT 10SM CLR 34/10 A3003 RMK AO2 SLP148 T03390100 10400 20339 53009,M
LAS,2022-06-28 05:56,-115.1634,36.0719,663.00,94.00,38.00,14.20,220.00,5.00,0.00,29.98,1012.10,10.00,M,CLR,M,M,M,M,M,M,M,M,M,M,M,M,M,M,89.48,KLAS 280556Z 22005KT 10SM CLR 34/03 A2998 RMK AO2 SLP121 T03440033 10406 20344 53007,M
INS,2022-06-28 05:58,-115.6733,36.5872,955.00,85.50,35.60,16.89,10.00,3.00,0.00,30.06,1012.40,10.00,M,CLR,M,M,M,M,M,M,M,M,M,M,M,M,M,M,82.30,KINS 280558Z AUTO 01003KT 10SM CLR 30/02 A3006 RMK AO2 SLP124 T02970020 10378 20297 52009 $,M
LSV,2022-06-28 05:58,-115.0343,36.2362,570.00,93.20,39.20,15.27,0.00,0.00,0.00,29.96,1009.00,10.00,M,CLR,M,M,M,M,M,M,M,M,M,M,M,M,M,M,88.92,KLSV 280558Z 00000KT 10SM CLR 34/04 A2996 RMK AO2A SLP090 WND DATA ESTMD ALSTG ESTMD 10418 20345 52006 $,M
RTS,2022-06-28 06:10,-119.8764,39.6682,1539.00,69.80,12.20,10.66,270.00,3.00,0.00,30.28,M,10.00,M,CLR,M,M,M,M,M,M,M,M,M,M,M,M,M,M,69.80,KRTS 280610Z AUTO 27003KT 10SM CLR 21/M11 A3028 RMK AO2,M
BVU,2022-06-28 06:15,-114.8611,35.9475,671.00,95.00,44.60,17.78,0.00,0.00,0.00,29.99,M,10.00,M,CLR,M,M,M,M,M,M,M,M,M,M,M,M,M,M,91.06,KBVU 280615Z AUTO 00000KT 10SM CLR 35/07 A2999 RMK AO2,M
HTH,2022-06-28 06:15,-118.6315,38.5448,1282.89,82.40,28.40,13.96,140.00,4.00,0.00,30.15,M,10.00,M,CLR,M,M,M,M,M,M,M,M,M,M,M,M,M,M,79.94,KHTH 280615Z AUTO 14004KT 10SM CLR 28/M02 A3015 RMK A01,M
MEV,2022-06-28 06:15,-119.7500,38.9963,1441.42,71.60,21.20,14.80,210.00,5.00,0.00,30.24,M,10.00,M,CLR,M,M,M,M,M,M,M,M,M,M,M,M,M,M,71.60,KMEV 280615Z AUTO 21005KT 10SM CLR 22/M06 A3024 RMK AO2,M
TMT,2022-06-28 06:15,-117.1971,39.4643,1749.34,65.00,26.20,22.82,160.00,6.00,0.00,30.28,M,7.00,M,CLR,M,M,M,M,M,M,M,M,M,M,M,M,M,M,65.10,KTMT 280615Z AUTO 16006KT 7SM CLR 18/M03 A3028 RMK AO2 T01841032,M
BAM,2022-06-28 06:15,-116.8743,40.5990,1382.36,M,M,M,0.00,0.00,0.00,30.13,M,10.00,M,CLR,M,M,M,M,M,M,M,M,M,M,M,M,M,M,M,KBAM 280615Z AUTO 00000KT 10SM CLR A3013 RMK AO1,M
HTH,2022-06-28 06:35,-118.6315,38.5448,1282.89,84.20,28.40,13.18,0.00,0.00,0.00,30.16,M,10.00,M,CLR,M,M,M,M,M,M,M,M,M,M,M,M,M,M,81.25,KHTH 280635Z AUTO 00000KT 10SM CLR 29/M02 A3016 RMK A01,M
TMT,2022-06-28 06:35,-117.1971,39.4643,1749.34,62.00,26.60,25.77,160.00,5.00,0.00,30.28,M,5.00,M,CLR,M,M,M,M,M,M,M,HZ,M,M,M,M,M,M,62.10,KTMT 280635Z AUTO 16005KT 5SM HZ CLR 17/M03 A3028 RMK AO2 T01671030,M
RTS,2022-06-28 06:35,-119.8764,39.6682,1539.00,57.20,15.80,19.42,M,5.00,0.00,30.28,M,10.00,M,CLR,M,M,M,M,M,M,M,M,M,M,M,M,M,M,57.20,KRTS 280635Z AUTO VRB05KT 10SM CLR 14/M09 A3028 RMK AO2,M
MEV,2022-06-28 06:35,-119.7500,38.9963,1441.42,66.20,24.80,20.72,0.00,0.00,0.00,30.24,M,10.00,M,CLR,M,M,M,M,M,M,M,M,M,M,M,M,M,M,66.20,KMEV 280635Z AUTO 00000KT 10SM CLR 19/M04 A3024 RMK AO2,M
BAM,2022-06-28 06:35,-116.8743,40.5990,1382.36,M,M,M,330.00,4.00,0.00,30.14,M,10.00,M,CLR,M,M,M,M,M,M,M,M,M,M,M,M,M,M,M,KBAM 280635Z AUTO 33004KT 10SM CLR A3014 RMK AO1,M
CXP,2022-06-28 06:50,-119.7326,39.1923,1431.00,73.40,12.20,9.43,190.00,4.00,0.00,30.24,M,10.00,M,CLR,M,M,M,M,M,M,M,M,M,M,M,M,M,M,73.40,KCXP 280650Z AUTO 19004KT 10SM CLR 23/M11 A3024 RMK AO2,M
P68,2022-06-28 06:53,-116.0056,39.6014,1993.00,65.00,24.10,21.05,180.00,7.00,0.00,30.23,1014.40,M,M,M,M,M,M,M,M,M,M,M,M,M,M,M,M,M,64.90,KP68 280653Z AUTO 18007KT 18/M04 A3023 RMK AO1 SLP144 T01831044,M
LOL,2022-06-28 06:53,-118.5701,40.0684,1192.43,80.00,21.90,11.48,0.00,0.00,0.00,30.14,1015.30,10.00,M,CLR,M,M,M,M,M,M,M,M,M,M,M,M,M,M,78.22,KLOL 280653Z AUTO 00000KT 10SM CLR 27/M06 A3014 RMK AO2 SLP153 T02671056,M
DRA,2022-06-28 06:53,-116.0278,36.6206,1009.00,84.00,35.00,17.38,90.00,3.00,0.00,30.06,1012.00,10.00,M,CLR,M,M,M,M,M,M,M,M,M,M,M,M,M,M,81.18,KDRA 280653Z AUTO 09003KT 10SM CLR 29/02 A3006 RMK AO2 SLP120 T02890017,M
VGT,2022-06-28 06:53,-115.1933,36.2111,667.00,93.00,44.00,18.56,330.00,4.00,0.00,29.97,1013.30,10.00,M,CLR,M,M,M,M,M,M,M,M,M,M,M,M,M,M,89.11,KVGT 280653Z AUTO 33004KT 10SM CLR 34/07 A2997 RMK AO2 SLP133 T03390067,M
ELY,2022-06-28 06:53,-114.8453,39.2950,1909.00,64.00,25.00,22.56,190.00,10.00,0.00,30.29,1014.20,10.00,M,CLR,M,M,M,M,M,M,M,M,M,M,M,M,M,M,64.00,KELY 280653Z AUTO 19010KT 10SM CLR 18/M04 A3029 RMK AO2 SLP142 T01781039,M
RNO,2022-06-28 06:55,-119.7711,39.4839,1341.00,77.00,19.00,11.24,0.00,0.00,0.00,30.21,1016.30,10.00,M,CLR,M,M,M,M,M,M,M,M,M,M,M,M,M,M,77.00,KRNO 280655Z 00000KT 10SM CLR 25/M07 A3021 RMK AO2 SLP163 T02501072,M
MEV,2022-06-28 06:55,-119.7500,38.9963,1441.42,57.20,30.20,35.57,140.00,4.00,0.00,30.24,M,10.00,M,CLR,M,M,M,M,M,M,M,M,M,M,M,M,M,M,57.20,KMEV 280655Z AUTO 14004KT 10SM CLR 14/M01 A3024 RMK AO2,M
RTS,2022-06-28 06:55,-119.8764,39.6682,1539.00,68.00,12.20,11.34,0.00,0.00,0.00,30.28,M,10.00,M,CLR,M,M,M,M,M,M,M,M,M,M,M,M,M,M,68.00,KRTS 280655Z AUTO 00000KT 10SM CLR 20/M11 A3028 RMK AO2,M
TMT,2022-06-28 06:55,-117.1971,39.4643,1749.34,62.40,27.30,26.25,180.00,6.00,0.00,30.28,M,5.00,M,CLR,M,M,M,M,M,M,M,HZ,M,M,M,M,M,M,62.40,KTMT 280655Z AUTO 18006KT 5SM HZ CLR 17/M03 A3028 RMK AO2 T01691026,M
BVU,2022-06-28 06:55,-114.8611,35.9475,671.00,93.20,46.40,20.13,200.00,6.00,0.00,29.99,M,10.00,M,CLR,M,M,M,M,M,M,M,M,M,M,M,M,M,M,89.55,KBVU 280655Z AUTO 20006KT 10SM CLR 34/08 A2999 RMK AO2,M
HTH,2022-06-28 06:55,-118.6315,38.5448,1282.89,78.80,28.40,15.71,250.00,5.00,0.00,30.16,M,10.00,M,CLR,M,M,M,M,M,M,M,M,M,M,M,M,M,M,78.80,KHTH 280655Z AUTO 25005KT 10SM CLR 26/M02 A3016 RMK A01,M
BAM,2022-06-28 06:55,-116.8743,40.5990,1382.36,M,M,M,340.00,3.00,0.00,30.15,M,10.00,M,CLR,M,M,M,M,M,M,M,M,M,M,M,M,M,M,M,KBAM 280655Z AUTO 34003KT 10SM CLR A3015 RMK AO1,M
WMC,2022-06-28 06:56,-117.8072,40.9019,1315.00,75.00,26.10,16.21,0.00,0.00,0.00,30.15,1014.90,5.00,M,CLR,M,M,M,M,M,M,M,HZ,M,M,M,M,M,M,75.00,KWMC 280656Z AUTO 00000KT 5SM HZ CLR 24/M03 A3015 RMK AO2 SLP149 T02391033,M
LAS,2022-06-28 06:56,-115.1634,36.0719,663.00,93.00,46.00,19.95,220.00,5.00,0.00,29.98,1011.90,10.00,M,CLR,M,M,M,M,M,M,M,M,M,M,M,M,M,M,89.31,KLAS 280656Z 22005KT 10SM CLR 34/08 A2998 RMK AO2 SLP119 T03390078,M
NFL,2022-06-28 06:56,-118.7010,39.4166,1199.00,72.00,26.10,17.93,150.00,4.00,0.00,30.15,1017.60,10.00,M,CLR,M,M,M,M,M,M,M,M,M,M,M,M,M,M,72.00,KNFL 280656Z 15004KT 10SM CLR 22/M03 A3015 RMK AO2 SLP176 T02221033,M
HND,2022-06-28 06:56,-115.1344,35.9729,742.79,92.00,51.00,24.99,210.00,10.00,0.00,30.02,1014.60,10.00,M,CLR,M,M,M,M,M,M,M,M,M,M,M,M,M,M,89.04,KHND 280656Z AUTO 21010KT 10SM CLR 33/11 A3002 RMK AO2 SLP146 T03330106 404000278,M
EKO,2022-06-28 06:56,-115.7860,40.8242,1367.00,70.00,33.00,25.53,0.00,0.00,0.00,30.16,1014.60,10.00,M,CLR,M,M,M,M,M,M,M,M,M,M,M,M,M,M,70.00,KEKO 280656Z AUTO 00000KT 10SM CLR 21/01 A3016 RMK AO2 SLP146 T02110006,M
INS,2022-06-28 06:58,-115.6733,36.5872,955.00,86.20,37.80,18.02,0.00,0.00,0.00,30.05,1011.90,10.00,M,CLR,M,M,M,M,M,M,M,M,M,M,M,M,M,M,82.90,KINS 280658Z AUTO 00000KT 10SM CLR 30/03 A3005 RMK AO2 SLP119 T03010032 $,M
LSV,2022-06-28 06:58,-115.0343,36.2362,570.00,89.60,39.20,17.09,0.00,0.00,0.00,29.97,1009.40,10.00,M,CLR,M,M,M,M,M,M,M,M,M,M,M,M,M,M,85.73,KLSV 280658Z 00000KT 10SM CLR 32/04 A2997 RMK AO2A SLP094 WND DATA ESTMD $,M
BVU,2022-06-28 07:15,-114.8611,35.9475,671.00,93.20,48.20,21.54,0.00,0.00,0.00,29.99,M,10.00,M,CLR,M,M,M,M,M,M,M,M,M,M,M,M,M,M,89.80,KBVU 280715Z AUTO 00000KT 10SM CLR 34/09 A2999 RMK AO2,M
CXP,2022-06-28 07:15,-119.7326,39.1923,1431.00,68.00,14.00,12.27,0.00,0.00,0.00,30.24,M,10.00,M,CLR,M,M,M,M,M,M,M,M,M,M,M,M,M,M,68.00,KCXP 280715Z AUTO 00000KT 10SM CLR 20/M10 A3024 RMK AO2,M
RTS,2022-06-28 07:15,-119.8764,39.6682,1539.00,60.80,12.20,14.58,340.00,4.00,0.00,30.28,M,10.00,M,CLR,M,M,M,M,M,M,M,M,M,M,M,M,M,M,60.80,KRTS 280715Z AUTO 34004KT 10SM CLR 16/M11 A3028 RMK AO2,M
MEV,2022-06-28 07:15,-119.7500,38.9963,1441.42,55.40,30.20,37.97,110.00,9.00,0.00,30.24,M,10.00,M,CLR,M,M,M,M,M,M,M,M,M,M,M,M,M,M,55.40,KMEV 280715Z AUTO 11009KT 10SM CLR 13/M01 A3024 RMK AO2,M
BAM,2022-06-28 07:15,-116.8743,40.5990,1382.36,M,M,M,310.00,6.00,0.00,30.15,M,10.00,M,CLR,M,M,M,M,M,M,M,M,M,M,M,M,M,M,M,KBAM 280715Z AUTO 31006KT 10SM CLR A3015 RMK AO1,M
HTH,2022-06-28 07:15,-118.6315,38.5448,1282.89,78.80,28.40,15.71,260.00,6.00,0.00,30.16,M,10.00,M,CLR,M,M,M,M,M,M,M,M,M,M,M,M,M,M,78.80,KHTH 280715Z AUTO 26006KT 10SM CLR 26/M02 A3016 RMK A01,M
TMT,2022-06-28 07:15,-117.1971,39.4643,1749.34,63.00,27.10,25.40,190.00,3.00,0.00,30.29,M,5.00,M,CLR,M,M,M,M,M,M,M,HZ,M,M,M,M,M,M,63.10,KTMT 280715Z AUTO 19003KT 5SM HZ CLR 17/M03 A3029 RMK AO2 T01731027,M
TMT,2022-06-28 07:35,-117.1971,39.4643,1749.34,61.00,27.10,27.35,210.00,4.00,0.00,30.29,M,5.00,M,CLR,M,M,M,M,M,M,M,HZ,M,M,M,M,M,M,61.00,KTMT 280735Z AUTO 21004KT 5SM HZ CLR 16/M03 A3029 RMK AO2 T01611027,M
BVU,2022-06-28 07:35,-114.8611,35.9475,671.00,89.60,51.80,27.56,20.00,4.00,0.00,29.99,M,10.00,M,CLR,M,M,M,M,M,M,M,M,M,M,M,M,M,M,87.00,KBVU 280735Z AUTO 02004KT 10SM CLR 32/11 A2999 RMK AO2,M
CXP,2022-06-28 07:35,-119.7326,39.1923,1431.00,66.20,14.00,13.06,0.00,0.00,0.00,30.24,M,10.00,M,CLR,M,M,M,M,M,M,M,M,M,M,M,M,M,M,66.20,KCXP 280735Z AUTO 00000KT 10SM CLR 19/M10 A3024 RMK AO2,M
RTS,2022-06-28 07:35,-119.8764,39.6682,1539.00,55.40,14.00,19.16,320.00,5.00,0.00,30.28,M,10.00,M,CLR,M,M,M,M,M,M,M,M,M,M,M,M,M,M,55.40,KRTS 280735Z AUTO 32005KT 10SM CLR 13/M10 A3028 RMK AO2,M
MEV,2022-06-28 07:35,-119.7500,38.9963,1441.42,55.40,28.40,35.28,110.00,7.00,0.00,30.24,M,10.00,M,CLR,M,M,M,M,M,M,M,M,M,M,M,M,M,M,55.40,KMEV 280735Z AUTO 11007KT 10SM CLR 13/M02 A3024 RMK AO2,M
BAM,2022-06-28 07:35,-116.8743,40.5990,1382.36,M,M,M,240.00,5.00,0.00,30.16,M,10.00,M,CLR,M,M,M,M,M,M,M,M,M,M,M,M,M,M,M,KBAM 280735Z AUTO 24005KT 10SM CLR A3016 RMK AO1,M
HTH,2022-06-28 07:35,-118.6315,38.5448,1282.89,77.00,28.40,16.67,0.00,0.00,0.00,30.17,M,10.00,M,M,M,M,M,M,M,M,M,M,M,M,M,M,M,M,77.00,KHTH 280735Z AUTO 00000KT 10SM 25/M02 A3017 RMK A01,M
CXP,2022-06-28 07:50,-119.7326,39.1923,1431.00,68.00,14.00,12.27,0.00,0.00,0.00,30.25,M,10.00,M,CLR,M,M,M,M,M,M,M,M,M,M,M,M,M,M,68.00,KCXP 280750Z AUTO 00000KT 10SM CLR 20/M10 A3025 RMK AO2,M
P68,2022-06-28 07:53,-116.0056,39.6014,1993.00,70.00,21.90,16.10,210.00,9.00,0.00,30.23,1013.60,M,M,M,M,M,M,M,M,M,M,M,M,M,M,M,M,M,70.00,KP68 280753Z AUTO 21009KT 21/M06 A3023 RMK AO1 SLP136 T02111056 403440094,M
LOL,2022-06-28 07:53,-118.5701,40.0684,1192.43,70.00,23.00,16.86,80.00,4.00,0.00,30.15,1016.10,10.00,M,CLR,M,M,M,M,M,M,M,M,M,M,M,M,M,M,70.00,KLOL 280753Z AUTO 08004KT 10SM CLR 21/M05 A3015 RMK AO2 SLP161 T02111050 403780150,M
VGT,2022-06-28 07:53,-115.1933,36.2111,667.00,89.00,42.00,19.42,100.00,5.00,0.00,29.97,1013.50,10.00,M,CLR,M,M,M,M,M,M,M,M,M,M,M,M,M,M,85.45,KVGT 280753Z AUTO 10005KT 10SM CLR 32/06 A2997 RMK AO2 SLP135 T03170056 404170294,M
DRA,2022-06-28 07:53,-116.0278,36.6206,1009.00,82.00,35.00,18.54,10.00,5.00,0.00,30.06,1012.10,10.00,M,CLR,M,M,M,M,M,M,M,M,M,M,M,M,M,M,79.80,KDRA 280753Z AUTO 01005KT 10SM CLR 28/02 A3006 RMK AO2 SLP121 T02780017 404000217,M
ELY,2022-06-28 07:53,-114.8453,39.2950,1909.00,66.00,27.00,22.86,240.00,6.00,0.00,30.29,1014.30,10.00,M,CLR,M,M,M,M,M,M,M,M,M,M,M,M,M,M,66.00,KELY 280753Z AUTO 24006KT 10SM CLR 19/M03 A3029 RMK AO2 SLP143 T01891028 403280089,M
MEV,2022-06-28 07:55,-119.7500,38.9963,1441.42,55.40,26.60,32.76,100.00,7.00,0.00,30.24,M,10.00,M,CLR,M,M,M,M,M,M,M,M,M,M,M,M,M,M,55.40,KMEV 280755Z AUTO 10007KT 10SM CLR 13/M03 A3024 RMK AO2,M
RTS,2022-06-28 07:55,-119.8764,39.6682,1539.00,55.40,14.00,19.16,340.00,5.00,0.00,30.28,M,10.00,M,CLR,M,M,M,M,M,M,M,M,M,M,M,M,M,M,55.40,KRTS 280755Z AUTO 34005KT 10SM CLR 13/M10 A3028 RMK AO2,M
RNO,2022-06-28 07:55,-119.7711,39.4839,1341.00,72.00,21.90,15.04,190.00,4.00,0.00,30.21,1016.60,10.00,M,CLR,M,M,M,M,M,M,M,M,M,M,M,M,M,M,72.00,KRNO 280755Z 19004KT 10SM CLR 22/M06 A3021 RMK AO2 SLP166 T02221056 403720167,M
BVU,2022-06-28 07:55,-114.8611,35.9475,671.00,89.60,51.80,27.56,0.00,0.00,0.00,29.99,M,10.00,M,CLR,M,M,M,M,M,M,M,M,M,M,M,M,M,M,87.00,KBVU 280755Z AUTO 00000KT 10SM CLR 32/11 A2999 RMK AO2,M
BAM,2022-06-28 07:55,-116.8743,40.5990,1382.36,M,M,M,270.00,3.00,0.00,30.16,M,10.00,M,CLR,M,M,M,M,M,M,M,M,M,M,M,M,M,M,M,KBAM 280755Z AUTO 27003KT 10SM CLR A3016 RMK AO1,M
TMT,2022-06-28 07:55,-117.1971,39.4643,1749.34,60.40,29.30,30.58,290.00,4.00,0.00,30.29,M,5.00,M,CLR,M,M,M,M,M,M,M,HZ,M,M,M,M,M,M,60.40,KTMT 280755Z AUTO 29004KT 5SM HZ CLR 16/M01 A3029 RMK AO2 T01581015,M
HTH,2022-06-28 07:55,-118.6315,38.5448,1282.89,77.00,28.40,16.67,0.00,0.00,0.00,30.18,M,10.00,M,CLR,M,M,M,M,M,M,M,M,M,M,M,M,M,M,77.00,KHTH 280755Z AUTO 00000KT 10SM CLR 25/M02 A3018 RMK A01,M
HND,2022-06-28 07:56,-115.1344,35.9729,742.79,91.00,52.00,26.57,210.00,10.00,0.00,30.03,1014.70,10.00,M,CLR,M,M,M,M,M,M,M,M,M,M,M,M,M,M,88.35,KHND 280756Z AUTO 21010KT 10SM CLR 33/11 A3003 RMK AO2 SLP147 T03280111,M
LAS,2022-06-28 07:56,-115.1634,36.0719,663.00,92.00,50.00,23.99,190.00,4.00,0.00,29.98,1012.10,10.00,M,CLR,M,M,M,M,M,M,M,M,M,M,M,M,M,M,88.84,KLAS 280756Z 19004KT 10SM CLR 33/10 A2998 RMK AO2 SLP121 T03330100 404060294,M
WMC,2022-06-28 07:56,-117.8072,40.9019,1315.00,75.00,24.10,14.91,360.00,4.00,0.00,30.16,1015.10,7.00,M,CLR,M,M,M,M,M,M,M,M,M,M,M,M,M,M,75.00,KWMC 280756Z AUTO 36004KT 7SM CLR 24/M04 A3016 RMK AO2 SLP151 T02391044 403830111,M
EKO,2022-06-28 07:56,-115.7860,40.8242,1367.00,73.00,30.00,20.34,30.00,8.00,0.00,30.16,1014.10,10.00,M,CLR,M,M,M,M,M,M,M,M,M,M,M,M,M,M,73.00,KEKO 280756Z AUTO 03008KT 10SM CLR 23/M01 A3016 RMK AO2 SLP141 T02281011 403610111,M
NFL,2022-06-28 07:56,-118.7010,39.4166,1199.00,71.00,25.00,17.66,180.00,3.00,0.00,30.16,1017.90,10.00,M,CLR,M,M,M,M,M,M,M,M,M,M,M,M,M,M,71.10,KNFL 280756Z AUTO 18003KT 10SM CLR 22/M04 A3016 RMK AO2 SLP179 T02171039 403830150,M
LSV,2022-06-28 07:58,-115.0343,36.2362,570.00,89.60,39.20,17.09,20.00,4.00,0.00,29.97,1009.40,10.00,M,CLR,M,M,M,M,M,M,M,M,M,M,M,M,M,M,85.73,KLSV 280758Z 02004KT 10SM CLR 32/04 A2997 RMK AO2A SLP094 404270299 RVR WND DATA ESTMD $,M
INS,2022-06-28 07:58,-115.6733,36.5872,955.00,83.00,36.50,18.91,100.00,6.00,0.00,30.05,1012.00,10.00,M,CLR,M,M,M,M,M,M,M,M,M,M,M,M,M,M,80.58,KINS 280758Z AUTO 10006KT 10SM CLR 28/03 A3005 RMK AO2 SLP120 T02840025 403800246 $,M
HTH,2022-06-28 08:15,-118.6315,38.5448,1282.89,77.00,28.40,16.67,220.00,3.00,0.00,30.18,M,10.00,M,CLR,M,M,M,M,M,M,M,M,M,M,M,M,M,M,77.00,KHTH 280815Z AUTO 22003KT 10SM CLR 25/M02 A3018 RMK A01,M
BVU,2022-06-28 08:15,-114.8611,35.9475,671.00,87.80,53.60,31.17,M,3.00,0.00,29.99,M,10.00,M,CLR,M,M,M,M,M,M,M,M,M,M,M,M,M,M,85.72,KBVU 280815Z AUTO VRB03KT 10SM CLR 31/12 A2999 RMK AO2,M
RTS,2022-06-28 08:15,-119.8764,39.6682,1539.00,57.20,12.20,16.58,330.00,5.00,0.00,30.28,M,10.00,M,CLR,M,M,M,M,M,M,M,M,M,M,M,M,M,M,57.20,KRTS 280815Z AUTO 33005KT 10SM CLR 14/M11 A3028 RMK AO2,M
MEV,2022-06-28 08:15,-119.7500,38.9963,1441.42,55.40,28.40,35.28,110.00,8.00,0.00,30.24,M,10.00,M,CLR,M,M,M,M,M,M,M,M,M,M,M,M,M,M,55.40,KMEV 280815Z AUTO 11008KT 10SM CLR 13/M02 A3024 RMK AO2,M
TMT,2022-06-28 08:15,-117.1971,39.4643,1749.34,55.40,25.70,31.56,200.00,5.00,0.00,30.29,M,5.00,M,CLR,M,M,M,M,M,M,M,HZ,M,M,M,M,M,M,55.40,KTMT 280815Z AUTO 20005KT 5SM HZ CLR 13/M03 A3029 RMK AO2 T01301035,M
BAM,2022-06-28 08:15,-116.8743,40.5990,1382.36,M,M,M,330.00,3.00,0.00,30.17,M,10.00,M,CLR,M,M,M,M,M,M,M,M,M,M,M,M,M,M,M,KBAM 280815Z AUTO 33003KT 10SM CLR A3017 RMK AO1,M
TMT,2022-06-28 08:35,-117.1971,39.4643,1749.34,55.80,25.70,31.11,200.00,3.00,0.00,30.30,M,5.00,M,CLR,M,M,M,M,M,M,M,HZ,M,M,M,M,M,M,55.80,KTMT 280835Z AUTO 20003KT 5SM HZ CLR 13/M03 A3030 RMK AO2 T01321035,M
BVU,2022-06-28 08:35,-114.8611,35.9475,671.00,86.00,53.60,33.01,60.00,3.00,0.00,29.99,M,10.00,M,CLR,M,M,M,M,M,M,M,M,M,M,M,M,M,M,84.18,KBVU 280835Z AUTO 06003KT 10SM CLR 30/12 A2999 RMK AO2,M
RTS,2022-06-28 08:35,-119.8764,39.6682,1539.00,55.40,14.00,19.16,320.00,7.00,0.00,30.28,M,10.00,M,CLR,M,M,M,M,M,M,M,M,M,M,M,M,M,M,55.40,KRTS 280835Z AUTO 32007KT 10SM CLR 13/M10 A3028 RMK AO2,M
MEV,2022-06-28 08:35,-119.7500,38.9963,1441.42,55.40,28.40,35.28,100.00,7.00,0.00,30.25,M,10.00,M,CLR,M,M,M,M,M,M,M,M,M,M,M,M,M,M,55.40,KMEV 280835Z AUTO 10007KT 10SM CLR 13/M02 A3025 RMK AO2,M
BAM,2022-06-28 08:35,-116.8743,40.5990,1382.36,M,M,M,200.00,4.00,0.00,30.17,M,10.00,M,CLR,M,M,M,M,M,M,M,M,M,M,M,M,M,M,M,KBAM 280835Z AUTO 20004KT 10SM CLR A3017 RMK AO1,M
HTH,2022-06-28 08:35,-118.6315,38.5448,1282.89,75.20,28.40,17.70,250.00,6.00,0.00,30.18,M,10.00,M,CLR,M,M,M,M,M,M,M,M,M,M,M,M,M,M,75.20,KHTH 280835Z AUTO 25006KT 10SM CLR 24/M02 A3018 RMK A01,M
VGT,2022-06-28 08:53,-115.1933,36.2111,667.00,91.00,42.00,18.30,10.00,4.00,0.00,29.97,1013.30,10.00,M,CLR,M,M,M,M,M,M,M,M,M,M,M,M,M,M,87.11,KVGT 280853Z AUTO 01004KT 10SM CLR 33/06 A2997 RMK AO2 SLP133 T03280056 53001,M
P68,2022-06-28 08:53,-116.0056,39.6014,1993.00,66.00,23.00,19.35,210.00,11.00,0.00,30.25,1014.70,M,M,M,M,M,M,M,M,M,M,M,M,M,M,M,M,M,66.00,KP68 280853Z AUTO 21011KT 19/M05 A3025 RMK AO1 SLP147 T01891050 53003,M
ELY,2022-06-28 08:53,-114.8453,39.2950,1909.00,63.00,30.00,28.70,250.00,5.00,0.00,30.29,1014.30,10.00,M,CLR,M,M,M,M,M,M,M,M,M,M,M,M,M,M,63.00,KELY 280853Z AUTO 25005KT 10SM CLR 17/M01 A3029 RMK AO2 SLP143 T01721011 56000,M
DRA,2022-06-28 08:53,-116.0278,36.6206,1009.00,84.00,37.00,18.74,M,4.00,0.00,30.07,1012.00,10.00,M,CLR,M,M,M,M,M,M,M,M,M,M,M,M,M,M,81.23,KDRA 280853Z AUTO VRB04KT 10SM CLR 29/03 A3007 RMK AO2 SLP120 T02890028 53001,M
LOL,2022-06-28 08:53,-118.5701,40.0684,1192.43,63.00,23.00,21.49,0.00,0.00,0.00,30.16,1016.60,10.00,M,CLR,M,M,M,M,M,M,M,M,M,M,M,M,M,M,63.00,KLOL 280853Z AUTO 00000KT 10SM CLR 17/M05 A3016 RMK AO2 SLP166 T01721050 51009,M
RNO,2022-06-28 08:55,-119.7711,39.4839,1341.00,67.00,27.00,22.15,160.00,6.00,0.00,30.22,1016.80,10.00,M,CLR,M,M,M,M,M,M,M,M,M,M,M,M,M,M,66.90,KRNO 280855Z 16006KT 10SM CLR 19/M03 A3022 RMK AO2 SLP168 T01941028 51007,M
HTH,2022-06-28 08:55,-118.6315,38.5448,1282.89,75.20,30.20,19.05,250.00,4.00,0.00,30.19,M,10.00,M,CLR,M,M,M,M,M,M,M,M,M,M,M,M,M,M,75.20,KHTH 280855Z AUTO 25004KT 10SM CLR 24/M01 A3019 RMK A01,M
BAM,2022-06-28 08:55,-116.8743,40.5990,1382.36,M,M,M,0.00,0.00,0.00,30.17,M,10.00,M,CLR,M,M,M,M,M,M,M,M,M,M,M,M,M,M,M,KBAM 280855Z AUTO 00000KT 10SM CLR A3017 RMK AO1,M
MEV,2022-06-28 08:55,-119.7500,38.9963,1441.42,53.60,32.00,43.61,90.00,8.00,0.00,30.25,M,10.00,M,CLR,M,M,M,M,M,M,M,M,M,M,M,M,M,M,53.60,KMEV 280855Z AUTO 09008KT 10SM CLR 12/M00 A3025 RMK AO2,M
RTS,2022-06-28 08:55,-119.8764,39.6682,1539.00,55.40,10.40,16.34,340.00,8.00,0.00,30.27,M,10.00,M,CLR,M,M,M,M,M,M,M,M,M,M,M,M,M,M,55.40,KRTS 280855Z AUTO 34008KT 10SM CLR 13/M12 A3027 RMK AO2,M
BVU,2022-06-28 08:55,-114.8611,35.9475,671.00,84.20,55.40,37.35,40.00,4.00,0.00,30.00,M,10.00,M,CLR,M,M,M,M,M,M,M,M,M,M,M,M,M,M,83.09,KBVU 280855Z AUTO 04004KT 10SM CLR 29/13 A3000 RMK AO2,M
TMT,2022-06-28 08:55,-117.1971,39.4643,1749.34,54.70,26.20,33.05,220.00,4.00,0.00,30.30,M,5.00,M,CLR,M,M,M,M,M,M,M,HZ,M,M,M,M,M,M,54.70,KTMT 280855Z AUTO 22004KT 5SM HZ CLR 13/M03 A3030 RMK AO2 T01261032,M
NFL,2022-06-28 08:56,-118.7010,39.4166,1199.00,62.00,24.10,23.23,190.00,3.00,0.00,30.17,1018.10,10.00,M,CLR,M,M,M,M,M,M,M,M,M,M,M,M,M,M,62.10,KNFL 280856Z AUTO 19003KT 10SM CLR 17/M04 A3017 RMK AO2 SLP181 T01671044 51009,M
EKO,2022-06-28 08:56,-115.7860,40.8242,1367.00,64.00,28.90,26.50,0.00,0.00,0.00,30.18,1015.40,10.00,M,CLR,M,M,M,M,M,M,M,M,M,M,M,M,M,M,64.00,KEKO 280856Z AUTO 00000KT 10SM CLR 18/M02 A3018 RMK AO2 SLP154 T01781017 53006,M
HND,2022-06-28 08:56,-115.1344,35.9729,742.79,90.00,52.00,27.42,190.00,13.00,0.00,30.03,1014.70,10.00,19.00,CLR,M,M,M,M,M,M,M,M,M,M,M,M,M,M,87.40,KHND 280856Z AUTO 19013G19KT 10SM CLR 32/11 A3003 RMK AO2 SLP147 T03220111 55000,M
WMC,2022-06-28 08:56,-117.8072,40.9019,1315.00,69.00,28.00,21.40,50.00,5.00,0.00,30.17,1015.80,8.00,M,CLR,M,M,M,M,M,M,M,M,M,M,M,M,M,M,69.10,KWMC 280856Z AUTO 05005KT 8SM CLR 21/M02 A3017 RMK AO2 SLP158 T02061022 53008,M
LAS,2022-06-28 08:56,-115.1634,36.0719,663.00,91.00,51.00,25.70,190.00,3.00,0.00,29.98,1011.90,10.00,M,CLR,M,M,M,M,M,M,M,M,M,M,M,M,M,M,88.18,KLAS 280856Z 19003KT 10SM CLR 33/11 A2998 RMK AO2 SLP119 T03280106 56001,M
LSV,2022-06-28 08:58,-115.0343,36.2362,570.00,87.80,42.80,20.79,40.00,6.00,0.00,29.97,1009.50,10.00,M,CLR,M,M,M,M,M,M,M,M,M,M,M,M,M,M,84.40,KLSV 280858Z 04006KT 10SM CLR 31/06 A2997 RMK AO2A SLP095 WND DATA ESTMD $,M
INS,2022-06-28 08:58,-115.6733,36.5872,955.00,78.80,34.30,19.94,0.00,0.00,0.00,30.06,1012.40,10.00,M,CLR,M,M,M,M,M,M,M,M,M,M,M,M,M,M,78.80,KINS 280858Z AUTO 00000KT 10SM CLR 26/01 A3006 RMK AO2 SLP124 T02600013 53000 $,M
TMT,2022-06-28 09:15,-117.1971,39.4643,1749.34,55.80,27.90,34.06,230.00,7.00,0.00,30.31,M,5.00,M,CLR,M,M,M,M,M,M,M,HZ,M,M,M,M,M,M,55.80,KTMT 280915Z AUTO 23007KT 5SM HZ CLR 13/M02 A3031 RMK AO2 T01321023,M
BVU,2022-06-28 09:15,-114.8611,35.9475,671.00,86.00,53.60,33.01,30.00,3.00,0.00,30.00,M,10.00,M,CLR,M,M,M,M,M,M,M,M,M,M,M,M,M,M,84.18,KBVU 280915Z AUTO 03003KT 10SM CLR 30/12 A3000 RMK AO2,M
RTS,2022-06-28 09:15,-119.8764,39.6682,1539.00,55.40,10.40,16.34,340.00,4.00,0.00,30.28,M,10.00,M,CLR,M,M,M,M,M,M,M,M,M,M,M,M,M,M,55.40,KRTS 280915Z AUTO 34004KT 10SM CLR 13/M12 A3028 RMK AO2,M
MEV,2022-06-28 09:15,-119.7500,38.9963,1441.42,51.80,30.20,43.32,100.00,10.00,0.00,30.25,M,10.00,M,CLR,M,M,M,M,M,M,M,M,M,M,M,M,M,M,51.80,KMEV 280915Z AUTO 10010KT 10SM CLR 11/M01 A3025 RMK AO2,M
BAM,2022-06-28 09:15,-116.8743,40.5990,1382.36,M,M,M,210.00,3.00,0.00,30.18,M,10.00,M,CLR,M,M,M,M,M,M,M,M,M,M,M,M,M,M,M,KBAM 280915Z AUTO 21003KT 10SM CLR A3018 RMK AO1,M
HTH,2022-06-28 09:15,-118.6315,38.5448,1282.89,71.60,28.40,19.98,0.00,0.00,0.00,30.19,M,10.00,M,CLR,M,M,M,M,M,M,M,M,M,M,M,M,M,M,71.60,KHTH 280915Z AUTO 00000KT 10SM CLR 22/M02 A3019 RMK A01,M
RTS,2022-06-28 09:30,-119.8764,39.6682,1539.00,53.60,10.40,17.45,340.00,4.00,0.00,30.28,M,10.00,M,CLR,M,M,M,M,M,M,M,M,M,M,M,M,M,M,53.60,KRTS 280930Z AUTO 34004KT 10SM CLR 12/M12 A3028 RMK AO2,M
MEV,2022-06-28 09:35,-119.7500,38.9963,1441.42,55.40,28.40,35.28,100.00,5.00,0.00,30.25,M,10.00,M,CLR,M,M,M,M,M,M,M,M,M,M,M,M,M,M,55.40,KMEV 280935Z AUTO 10005KT 10SM CLR 13/M02 A3025 RMK AO2,M
BVU,2022-06-28 09:35,-114.8611,35.9475,671.00,89.60,50.00,25.79,0.00,0.00,0.00,30.00,M,10.00,M,CLR,M,M,M,M,M,M,M,M,M,M,M,M,M,M,86.70,KBVU 280935Z AUTO 00000KT 10SM CLR 32/10 A3000 RMK AO2,M
HTH,2022-06-28 09:35,-118.6315,38.5448,1282.89,69.80,28.40,21.24,40.00,3.00,0.00,30.19,M,10.00,M,CLR,M,M,M,M,M,M,M,M,M,M,M,M,M,M,69.80,KHTH 280935Z AUTO 04003KT 10SM CLR 21/M02 A3019 RMK A01,M
BAM,2022-06-28 09:35,-116.8743,40.5990,1382.36,M,M,M,160.00,6.00,0.00,30.17,M,10.00,M,CLR,M,M,M,M,M,M,M,M,M,M,M,M,M,M,M,KBAM 280935Z AUTO 16006KT 10SM CLR A3017 RMK AO1,M
TMT,2022-06-28 09:35,-117.1971,39.4643,1749.34,52.30,27.00,37.30,230.00,4.00,0.00,30.31,M,7.00,M,CLR,M,M,M,M,M,M,M,M,M,M,M,M,M,M,52.30,KTMT 280935Z AUTO 23004KT 7SM CLR 11/M03 A3031 RMK AO2 T01131028,M
VGT,2022-06-28 09:53,-115.1933,36.2111,667.00,88.00,41.00,19.28,290.00,5.00,0.00,29.98,1013.50,10.00,M,CLR,M,M,M,M,M,M,M,M,M,M,M,M,M,M,84.46,KVGT 280953Z AUTO 29005KT 10SM CLR 31/05 A2998 RMK AO2 SLP135 T03110050,M
ELY,2022-06-28 09:53,-114.8453,39.2950,1909.00,66.00,32.00,28.03,200.00,11.00,0.00,30.29,1014.00,10.00,M,CLR,M,M,M,M,M,M,M,M,M,M,M,M,M,M,66.00,KELY 280953Z AUTO 20011KT 10SM CLR 19/00 A3029 RMK AO2 SLP140 T01890000,M
P68,2022-06-28 09:53,-116.0056,39.6014,1993.00,64.00,24.10,21.73,230.00,5.00,0.00,30.27,1015.50,M,M,M,M,M,M,M,M,M,M,M,M,M,M,M,M,M,64.00,KP68 280953Z AUTO 23005KT 18/M04 A3027 RMK AO1 SLP155 T01781044,M
DRA,2022-06-28 09:53,-116.0278,36.6206,1009.00,89.00,45.00,21.70,190.00,15.00,0.00,30.06,1011.80,10.00,20.00,CLR,M,M,M,M,M,M,M,M,M,M,M,M,M,M,85.66,KDRA 280953Z AUTO 19015G20KT 10SM CLR 32/07 A3006 RMK AO2 SLP118 T03170072,M
LOL,2022-06-28 09:53,-118.5701,40.0684,1192.43,63.00,21.00,19.75,0.00,0.00,0.00,30.17,1016.80,10.00,M,CLR,M,M,M,M,M,M,M,M,M,M,M,M,M,M,63.00,KLOL 280953Z AUTO 00000KT 10SM CLR 17/M06 A3017 RMK AO2 SLP168 T01721061,M
RTS,2022-06-28 09:55,-119.8764,39.6682,1539.00,53.60,12.20,18.90,340.00,4.00,0.00,30.27,M,10.00,M,CLR,M,M,M,M,M,M,M,M,M,M,M,M,M,M,53.60,KRTS 280955Z AUTO 34004KT 10SM CLR 12/M11 A3027 RMK AO2,M
RNO,2022-06-28 09:55,-119.7711,39.4839,1341.00,67.00,26.10,21.35,220.00,3.00,0.00,30.22,1017.10,10.00,M,FEW,M,M,M,8000.00,M,M,M,M,M,M,M,M,M,M,66.90,KRNO 280955Z 22003KT 10SM FEW080 19/M03 A3022 RMK AO2 SLP171 T01941033,M
MEV,2022-06-28 09:55,-119.7500,38.9963,1441.42,53.60,28.40,37.67,M,4.00,0.00,30.25,M,10.00,M,CLR,M,M,M,M,M,M,M,M,M,M,M,M,M,M,53.60,KMEV 280955Z AUTO VRB04KT 10SM CLR 12/M02 A3025 RMK AO2,M
HTH,2022-06-28 09:55,-118.6315,38.5448,1282.89,71.60,28.40,19.98,0.00,0.00,0.00,30.19,M,10.00,M,CLR,M,M,M,M,M,M,M,M,M,M,M,M,M,M,71.60,KHTH 280955Z AUTO 00000KT 10SM CLR 22/M02 A3019 RMK A01,M
TMT,2022-06-28 09:55,-117.1971,39.4643,1749.34,51.30,28.00,40.33,220.00,4.00,0.00,30.31,M,7.00,M,CLR,M,M,M,M,M,M,M,M,M,M,M,M,M,M,51.30,KTMT 280955Z AUTO 22004KT 7SM CLR 11/M02 A3031 RMK AO2 T01071022,M
BVU,2022-06-28 09:55,-114.8611,35.9475,671.00,87.80,51.80,29.18,M,4.00,0.00,30.00,M,10.00,M,CLR,M,M,M,M,M,M,M,M,M,M,M,M,M,M,85.39,KBVU 280955Z AUTO VRB04KT 10SM CLR 31/11 A3000 RMK AO2,M
BAM,2022-06-28 09:55,-116.8743,40.5990,1382.36,M,M,M,160.00,4.00,0.00,30.18,M,10.00,M,CLR,M,M,M,M,M,M,M,M,M,M,M,M,M,M,M,KBAM 280955Z AUTO 16004KT 10SM CLR A3018 RMK AO1,M
WMC,2022-06-28 09:56,-117.8072,40.9019,1315.00,60.00,26.10,27.10,160.00,3.00,0.00,30.17,1016.10,8.00,M,CLR,M,M,M,M,M,M,M,M,M,M,M,M,M,M,60.10,KWMC 280956Z AUTO 16003KT 8SM CLR 16/M03 A3017 RMK AO2 SLP161 T01561033,M
LAS,2022-06-28 09:56,-115.1634,36.0719,663.00,90.00,52.00,27.42,190.00,6.00,0.00,29.99,1012.20,10.00,M,CLR,M,M,M,M,M,M,M,M,M,M,M,M,M,M,87.40,KLAS 280956Z 19006KT 10SM CLR 32/11 A2999 RMK AO2 SLP122 T03220111,M
NFL,2022-06-28 09:56,-118.7010,39.4166,1199.00,61.00,28.00,28.38,210.00,6.00,0.00,30.18,1018.30,10.00,M,CLR,M,M,M,M,M,M,M,M,M,M,M,M,M,M,61.00,KNFL 280956Z AUTO 21006KT 10SM CLR 16/M02 A3018 RMK AO2 SLP183 T01611022,M
HND,2022-06-28 09:56,-115.1344,35.9729,742.79,89.00,52.00,28.21,170.00,10.00,0.00,30.03,1014.80,10.00,M,CLR,M,M,M,M,M,M,M,M,M,M,M,M,M,M,86.58,KHND 280956Z AUTO 17010KT 10SM CLR 32/11 A3003 RMK AO2 SLP148 T03170111,M
EKO,2022-06-28 09:56,-115.7860,40.8242,1367.00,63.00,28.90,27.44,0.00,0.00,0.00,30.17,1015.10,10.00,M,CLR,M,M,M,M,M,M,M,M,M,M,M,M,M,M,63.00,KEKO 280956Z AUTO 00000KT 10SM CLR 17/M02 A3017 RMK AO2 SLP151 T01721017,M
LSV,2022-06-28 09:58,-115.0343,36.2362,570.00,87.80,48.20,25.52,10.00,5.00,0.00,29.97,1009.50,10.00,M,CLR,M,M,M,M,M,M,M,M,M,M,M,M,M,M,84.87,KLSV 280958Z 01005KT 10SM CLR 31/09 A2997 RMK AO2A SLP095 WND DATA ESTMD $ $,M
INS,2022-06-28 09:58,-115.6733,36.5872,955.00,78.00,33.80,20.00,0.00,0.00,0.00,30.06,1012.40,10.00,M,CLR,M,M,M,M,M,M,M,M,M,M,M,M,M,M,78.10,KINS 280958Z AUTO 00000KT 10SM CLR 26/01 A3006 RMK AO2 SLP124 T02560010 $,M
MEV,2022-06-28 10:15,-119.7500,38.9963,1441.42,51.80,28.40,40.25,0.00,0.00,0.00,30.25,M,10.00,M,CLR,M,M,M,M,M,M,M,M,M,M,M,M,M,M,51.80,KMEV 281015Z AUTO 00000KT 10SM CLR 11/M02 A3025 RMK AO2,M
BVU,2022-06-28 10:15,-114.8611,35.9475,671.00,87.80,51.80,29.18,0.00,0.00,0.00,30.00,M,10.00,M,CLR,M,M,M,M,M,M,M,M,M,M,M,M,M,M,85.39,KBVU 281015Z AUTO 00000KT 10SM CLR 31/11 A3000 RMK AO2,M
RTS,2022-06-28 10:15,-119.8764,39.6682,1539.00,53.60,12.20,18.90,360.00,5.00,0.00,30.27,M,10.00,M,CLR,M,M,M,M,M,M,M,M,M,M,M,M,M,M,53.60,KRTS 281015Z AUTO 36005KT 10SM CLR 12/M11 A3027 RMK AO2,M
BAM,2022-06-28 10:15,-116.8743,40.5990,1382.36,M,M,M,210.00,3.00,0.00,30.19,M,10.00,M,CLR,M,M,M,M,M,M,M,M,M,M,M,M,M,M,M,KBAM 281015Z AUTO 21003KT 10SM CLR A3019 RMK AO1,M
HTH,2022-06-28 10:15,-118.6315,38.5448,1282.89,69.80,28.40,21.24,230.00,5.00,0.00,30.19,M,10.00,M,CLR,M,M,M,M,M,M,M,M,M,M,M,M,M,M,69.80,KHTH 281015Z AUTO 23005KT 10SM CLR 21/M02 A3019 RMK A01,M
TMT,2022-06-28 10:15,-117.1971,39.4643,1749.34,49.80,27.50,41.77,250.00,6.00,0.00,30.31,M,7.00,M,CLR,M,M,M,M,M,M,M,M,M,M,M,M,M,M,46.97,KTMT 281015Z AUTO 25006KT 7SM CLR 10/M02 A3031 RMK AO2 T00991025,M
BVU,2022-06-28 10:35,-114.8611,35.9475,671.00,86.00,50.00,28.90,0.00,0.00,0.00,30.01,M,10.00,M,CLR,M,M,M,M,M,M,M,M,M,M,M,M,M,M,83.62,KBVU 281035Z AUTO 00000KT 10SM CLR 30/10 A3001 RMK AO2,M
MEV,2022-06-28 10:35,-119.7500,38.9963,1441.42,51.80,26.60,37.38,0.00,0.00,0.00,30.24,M,10.00,M,CLR,M,M,M,M,M,M,M,M,M,M,M,M,M,M,51.80,KMEV 281035Z AUTO 00000KT 10SM CLR 11/M03 A3024 RMK AO2,M
TMT,2022-06-28 10:35,-117.1971,39.4643,1749.34,48.60,25.70,40.56,0.00,0.00,0.00,30.31,M,7.00,M,CLR,M,M,M,M,M,M,M,M,M,M,M,M,M,M,48.60,KTMT 281035Z AUTO 00000KT 7SM CLR 09/M03 A3031 RMK AO2 T00921035,M
HTH,2022-06-28 10:35,-118.6315,38.5448,1282.89,73.40,28.40,18.80,0.00,0.00,0.00,30.19,M,10.00,M,CLR,M,M,M,M,M,M,M,M,M,M,M,M,M,M,73.40,KHTH 281035Z AUTO 00000KT 10SM CLR 23/M02 A3019 RMK A01,M
BAM,2022-06-28 10:35,-116.8743,40.5990,1382.36,M,M,M,250.00,4.00,0.00,30.19,M,10.00,M,CLR,M,M,M,M,M,M,M,M,M,M,M,M,M,M,M,KBAM 281035Z AUTO 25004KT 10SM CLR A3019 RMK AO1,M
RTS,2022-06-28 10:35,-119.8764,39.6682,1539.00,60.80,10.40,13.46,360.00,4.00,0.00,30.27,M,10.00,M,CLR,M,M,M,M,M,M,M,M,M,M,M,M,M,M,60.80,KRTS 281035Z AUTO 36004KT 10SM CLR 16/M12 A3027 RMK AO2,M
VGT,2022-06-28 10:53,-115.1933,36.2111,667.00,86.00,43.00,22.19,310.00,3.00,0.00,29.99,1013.90,10.00,M,CLR,M,M,M,M,M,M,M,M,M,M,M,M,M,M,82.97,KVGT 281053Z AUTO 31003KT 10SM CLR 30/06 A2999 RMK AO2 SLP139 T03000061,M
LOL,2022-06-28 10:53,-118.5701,40.0684,1192.43,55.00,23.00,28.61,0.00,0.00,0.00,30.17,1017.50,10.00,M,CLR,M,M,M,M,M,M,M,M,M,M,M,M,M,M,55.00,KLOL 281053Z AUTO 00000KT 10SM CLR 13/M05 A3017 RMK AO2 SLP175 T01281050,M
DRA,2022-06-28 10:53,-116.0278,36.6206,1009.00,84.00,44.00,24.68,40.00,8.00,0.00,30.07,1012.00,10.00,M,CLR,M,M,M,M,M,M,M,M,M,M,M,M,M,M,81.55,KDRA 281053Z AUTO 04008KT 10SM CLR 29/07 A3007 RMK AO2 SLP120 T02890067,M
ELY,2022-06-28 10:53,-114.8453,39.2950,1909.00,65.00,30.00,26.85,270.00,4.00,0.00,30.30,1014.60,10.00,M,CLR,M,M,M,M,M,M,M,M,M,M,M,M,M,M,64.90,KELY 281053Z AUTO 27004KT 10SM CLR 18/M01 A3030 RMK AO2 SLP146 T01831011,M
P68,2022-06-28 10:53,-116.0056,39.6014,1993.00,64.00,24.10,21.73,170.00,10.00,0.00,30.28,1015.60,M,M,M,M,M,M,M,M,M,M,M,M,M,M,M,M,M,64.00,KP68 281053Z AUTO 17010KT 18/M04 A3028 RMK AO1 SLP156 T01781044,M
RNO,2022-06-28 10:55,-119.7711,39.4839,1341.00,63.00,28.90,27.44,180.00,4.00,0.00,30.22,1017.20,10.00,M,CLR,M,M,M,M,M,M,M,M,M,M,M,M,M,M,63.00,KRNO 281055Z 18004KT 10SM CLR 17/M02 A3022 RMK AO2 SLP172 T01721017,M
BVU,2022-06-28 10:55,-114.8611,35.9475,671.00,86.00,51.80,30.90,0.00,0.00,0.00,30.01,M,10.00,M,CLR,M,M,M,M,M,M,M,M,M,M,M,M,M,M,83.87,KBVU 281055Z AUTO 00000KT 10SM CLR 30/11 A3001 RMK AO2,M
RTS,2022-06-28 10:55,-119.8764,39.6682,1539.00,55.40,12.20,17.70,20.00,5.00,0.00,30.27,M,10.00,M,CLR,M,M,M,M,M,M,M,M,M,M,M,M,M,M,55.40,KRTS 281055Z AUTO 02005KT 10SM CLR 13/M11 A3027 RMK AO2,M
MEV,2022-06-28 10:55,-119.7500,38.9963,1441.42,48.20,28.40,46.02,350.00,3.00,0.00,30.24,M,10.00,M,CLR,M,M,M,M,M,M,M,M,M,M,M,M,M,M,47.21,KMEV 281055Z AUTO 35003KT 10SM CLR 09/M02 A3024 RMK AO2,M
BAM,2022-06-28 10:55,-116.8743,40.5990,1382.36,M,M,M,230.00,4.00,0.00,30.19,M,10.00,M,CLR,M,M,M,M,M,M,M,M,M,M,M,M,M,M,M,KBAM 281055Z AUTO 23004KT 10SM CLR A3019 RMK AO1,M
HTH,2022-06-28 10:55,-118.6315,38.5448,1282.89,71.60,28.40,19.98,0.00,0.00,0.00,30.19,M,10.00,M,CLR,M,M,M,M,M,M,M,M,M,M,M,M,M,M,71.60,KHTH 281055Z AUTO 00000KT 10SM CLR 22/M02 A3019 RMK A01,M
TMT,2022-06-28 10:55,-117.1971,39.4643,1749.34,51.30,27.10,38.87,0.00,0.00,0.00,30.31,M,10.00,M,CLR,M,M,M,M,M,M,M,M,M,M,M,M,M,M,51.30,KTMT 281055Z AUTO 00000KT 10SM CLR 11/M03 A3031 RMK AO2 T01071027,M
HND,2022-06-28 10:56,-115.1344,35.9729,742.79,90.00,50.00,25.46,190.00,10.00,0.00,30.03,1014.90,10.00,16.00,CLR,M,M,M,M,M,M,M,M,M,M,M,M,M,M,87.06,KHND 281056Z AUTO 19010G16KT 10SM CLR 32/10 A3003 RMK AO2 SLP149 T03220100,M
NFL,2022-06-28 10:56,-118.7010,39.4166,1199.00,61.00,28.90,29.45,240.00,7.00,0.00,30.17,1018.10,10.00,M,CLR,M,M,M,M,M,M,M,M,M,M,M,M,M,M,61.00,KNFL 281056Z AUTO 24007KT 10SM CLR 16/M02 A3017 RMK AO2 SLP181 T01611017,M
WMC,2022-06-28 10:56,-117.8072,40.9019,1315.00,61.00,27.00,27.24,0.00,0.00,0.00,30.17,1015.80,10.00,M,CLR,M,M,M,M,M,M,M,M,M,M,M,M,M,M,61.00,KWMC 281056Z AUTO 00000KT 10SM CLR 16/M03 A3017 RMK AO2 SLP158 T01611028,M
LAS,2022-06-28 10:56,-115.1634,36.0719,663.00,90.00,50.00,25.46,190.00,6.00,0.00,29.99,1012.30,10.00,M,CLR,M,M,M,M,M,M,M,M,M,M,M,M,M,M,87.06,KLAS 281056Z 19006KT 10SM CLR 32/10 A2999 RMK AO2 SLP123 T03220100,M
EKO,2022-06-28 10:56,-115.7860,40.8242,1367.00,64.00,28.00,25.54,280.00,3.00,0.00,30.18,1015.30,10.00,M,CLR,M,M,M,M,M,M,M,M,M,M,M,M,M,M,64.00,KEKO 281056Z AUTO 28003KT 10SM CLR 18/M02 A3018 RMK AO2 SLP153 T01781022,M
LSV,2022-06-28 10:58,-115.0343,36.2362,570.00,87.80,51.80,29.18,360.00,3.00,0.00,29.98,1009.60,10.00,M,FEW,M,M,M,22000.00,M,M,M,M,M,M,M,M,M,M,85.39,KLSV 281058Z 36003KT 10SM FEW220 31/11 A2998 RMK AO2A SLP096 WND DATA ESTMD $,M
INS,2022-06-28 10:58,-115.6733,36.5872,955.00,76.30,33.40,20.89,0.00,0.00,0.00,30.07,1012.70,10.00,M,CLR,M,M,M,M,M,M,M,M,M,M,M,M,M,M,76.30,KINS 281058Z AUTO 00000KT 10SM CLR 25/01 A3007 RMK AO2 SLP127 T02460008 $,M
BVU,2022-06-28 11:15,-114.8611,35.9475,671.00,84.20,51.80,32.73,0.00,0.00,0.00,30.01,M,10.00,M,CLR,M,M,M,M,M,M,M,M,M,M,M,M,M,M,82.48,KBVU 281115Z AUTO 00000KT 10SM CLR 29/11 A3001 RMK AO2,M
RTS,2022-06-28 11:15,-119.8764,39.6682,1539.00,55.40,12.20,17.70,20.00,5.00,0.00,30.27,M,10.00,M,CLR,M,M,M,M,M,M,M,M,M,M,M,M,M,M,55.40,KRTS 281115Z AUTO 02005KT 10SM CLR 13/M11 A3027 RMK AO2,M
TMT,2022-06-28 11:15,-117.1971,39.4643,1749.34,47.80,25.90,42.14,210.00,4.00,0.00,30.31,M,10.00,M,CLR,M,M,M,M,M,M,M,M,M,M,M,M,M,M,45.87,KTMT 281115Z AUTO 21004KT 10SM CLR 09/M03 A3031 RMK AO2 T00881034,M
HTH,2022-06-28 11:15,-118.6315,38.5448,1282.89,75.20,32.00,20.49,300.00,3.00,0.00,30.20,M,10.00,M,CLR,M,M,M,M,M,M,M,M,M,M,M,M,M,M,75.20,KHTH 281115Z AUTO 30003KT 10SM CLR 24/00 A3020 RMK A01,M
BAM,2022-06-28 11:15,-116.8743,40.5990,1382.36,M,M,M,210.00,4.00,0.00,30.19,M,10.00,M,CLR,M,M,M,M,M,M,M,M,M,M,M,M,M,M,M,KBAM 281115Z AUTO 21004KT 10SM CLR A3019 RMK AO1,M
MEV,2022-06-28 11:15,-119.7500,38.9963,1441.42,44.60,26.60,48.96,0.00,0.00,0.00,30.24,M,10.00,M,CLR,M,M,M,M,M,M,M,M,M,M,M,M,M,M,44.60,KMEV 281115Z AUTO 00000KT 10SM CLR 07/M03 A3024 RMK AO2,M
CXP,2022-06-28 11:15,-119.7326,39.1923,1431.00,57.20,15.80,19.42,0.00,0.00,0.00,30.25,M,10.00,M,CLR,M,M,M,M,M,M,M,M,M,M,M,M,M,M,57.20,KCXP 281115Z AUTO 00000KT 10SM CLR 14/M09 A3025 RMK AO2,M
CXP,2022-06-28 11:30,-119.7326,39.1923,1431.00,57.20,15.80,19.42,0.00,0.00,0.00,30.25,M,10.00,M,CLR,M,M,M,M,M,M,M,M,M,M,M,M,M,M,57.20,KCXP 281130Z AUTO 00000KT 10SM CLR 14/M09 A3025 RMK AO2,M
RTS,2022-06-28 11:35,-119.8764,39.6682,1539.00,53.60,12.20,18.90,350.00,9.00,0.00,30.26,M,10.00,M,CLR,M,M,M,M,M,M,M,M,M,M,M,M,M,M,53.60,KRTS 281135Z AUTO 35009KT 10SM CLR 12/M11 A3026 RMK AO2,M
MEV,2022-06-28 11:35,-119.7500,38.9963,1441.42,51.80,28.40,40.25,0.00,0.00,0.00,30.24,M,10.00,M,CLR,M,M,M,M,M,M,M,M,M,M,M,M,M,M,51.80,KMEV 281135Z AUTO 00000KT 10SM CLR 11/M02 A3024 RMK AO2,M
HTH,2022-06-28 11:35,-118.6315,38.5448,1282.89,69.80,30.20,22.86,0.00,0.00,0.00,30.20,M,10.00,M,CLR,M,M,M,M,M,M,M,M,M,M,M,M,M,M,69.80,KHTH 281135Z AUTO 00000KT 10SM CLR 21/M01 A3020 RMK A01,M
BAM,2022-06-28 11:35,-116.8743,40.5990,1382.36,M,M,M,170.00,6.00,0.00,30.19,M,10.00,M,CLR,M,M,M,M,M,M,M,M,M,M,M,M,M,M,M,KBAM 281135Z AUTO 17006KT 10SM CLR A3019 RMK AO1,M
BVU,2022-06-28 11:35,-114.8611,35.9475,671.00,86.00,51.80,30.90,0.00,0.00,0.00,30.01,M,10.00,M,CLR,M,M,M,M,M,M,M,M,M,M,M,M,M,M,83.87,KBVU 281135Z AUTO 00000KT 10SM CLR 30/11 A3001 RMK AO2,M
DRA,2022-06-28 11:53,-116.0278,36.6206,1009.00,83.00,41.00,22.70,100.00,7.00,0.00,30.07,1012.30,10.00,M,CLR,M,M,M,M,M,M,M,M,M,M,M,M,M,M,80.62,KDRA 281153Z AUTO 10007KT 10SM CLR 28/05 A3007 RMK AO2 SLP123 T02830050 10317 20272 53002,M
LOL,2022-06-28 11:53,-118.5701,40.0684,1192.43,54.00,21.90,28.33,20.00,3.00,0.00,30.17,1017.40,10.00,M,CLR,M,M,M,M,M,M,M,M,M,M,M,M,M,M,54.00,KLOL 281153Z AUTO 02003KT 10SM CLR 12/M06 A3017 RMK AO2 SLP174 T01221056 10294 20106 51003,M
P68,2022-06-28 11:53,-116.0056,39.6014,1993.00,57.00,24.10,27.86,170.00,3.00,0.00,30.28,1016.30,M,M,M,M,M,M,M,M,M,M,M,M,M,M,M,M,M,57.00,KP68 281153Z AUTO 17003KT 14/M04 A3028 RMK AO1 SLP163 T01391044 10228 20139 51009,M
ELY,2022-06-28 11:53,-114.8453,39.2950,1909.00,60.00,30.90,32.99,160.00,8.00,0.00,30.31,1015.00,10.00,M,CLR,M,M,M,M,M,M,M,M,M,M,M,M,M,M,60.10,KELY 281153Z AUTO 16008KT 10SM CLR 16/M01 A3031 RMK AO2 SLP150 T01561006 10200 20156 53004,M
VGT,2022-06-28 11:53,-115.1933,36.2111,667.00,85.00,45.00,24.81,320.00,4.00,0.00,30.00,1014.10,10.00,M,CLR,M,M,M,M,M,M,M,M,M,M,M,M,M,M,82.27,KVGT 281153Z AUTO 32004KT 10SM CLR 29/07 A3000 RMK AO2 SLP141 T02940072 10350 20289 53007,M
BAM,2022-06-28 11:55,-116.8743,40.5990,1382.36,M,M,M,160.00,5.00,0.00,30.19,M,10.00,M,CLR,M,M,M,M,M,M,M,M,M,M,M,M,M,M,M,KBAM 281155Z AUTO 16005KT 10SM CLR A3019 RMK AO1,M
MEV,2022-06-28 11:55,-119.7500,38.9963,1441.42,46.40,30.20,53.00,0.00,0.00,0.00,30.24,M,10.00,M,CLR,M,M,M,M,M,M,M,M,M,M,M,M,M,M,46.40,KMEV 281155Z AUTO 00000KT 10SM CLR 08/M01 A3024 RMK AO2,M
BVU,2022-06-28 11:55,-114.8611,35.9475,671.00,82.40,55.40,39.58,0.00,0.00,0.00,30.02,M,10.00,M,CLR,M,M,M,M,M,M,M,M,M,M,M,M,M,M,81.75,KBVU 281155Z AUTO 00000KT 10SM CLR 28/13 A3002 RMK AO2,M
CXP,2022-06-28 11:55,-119.7326,39.1923,1431.00,59.00,15.80,18.20,0.00,0.00,0.00,30.25,M,10.00,M,CLR,M,M,M,M,M,M,M,M,M,M,M,M,M,M,59.00,KCXP 281155Z AUTO 00000KT 10SM CLR 15/M09 A3025 RMK AO2,M
TMT,2022-06-28 11:55,-117.1971,39.4643,1749.34,45.00,26.20,47.43,0.00,0.00,0.00,30.32,M,7.00,M,CLR,M,M,M,M,M,M,M,M,M,M,M,M,M,M,45.00,KTMT 281155Z AUTO 00000KT 7SM CLR 07/M03 A3032 RMK AO2 T00721032 10198 20060,M
RNO,2022-06-28 11:55,-119.7711,39.4839,1341.00,63.00,26.10,24.46,0.00,0.00,0.00,30.22,1017.30,10.00,M,FEW,M,M,M,6000.00,M,M,M,M,M,M,M,M,M,M,63.00,KRNO 281155Z 00000KT 10SM FEW060 17/M03 A3022 RMK AO2 SLP173 T01721033 10267 20167 58000,M
HTH,2022-06-28 11:55,-118.6315,38.5448,1282.89,69.80,30.20,22.86,M,3.00,0.00,30.20,M,10.00,M,CLR,M,M,M,M,M,M,M,M,M,M,M,M,M,M,69.80,KHTH 281155Z AUTO VRB03KT 10SM CLR 21/M01 A3020 RMK A01,M
RTS,2022-06-28 11:55,-119.8764,39.6682,1539.00,51.80,12.20,20.20,290.00,3.00,0.00,30.26,M,10.00,M,CLR,M,M,M,M,M,M,M,M,M,M,M,M,M,M,51.80,KRTS 281155Z AUTO 29003KT 10SM CLR 11/M11 A3026 RMK AO2,M
LAS,2022-06-28 11:56,-115.1634,36.0719,663.00,87.00,50.00,27.91,290.00,5.00,0.00,30.00,1012.80,10.00,M,FEW,M,M,M,16000.00,M,M,M,M,M,M,M,M,M,M,84.51,KLAS 281156Z 29005KT 10SM FEW160 31/10 A3000 RMK AO2 SLP128 ACC DSNT N-NE T03060100 10350 20306 53008,M
EKO,2022-06-28 11:56,-115.7860,40.8242,1367.00,62.00,28.90,28.33,210.00,3.00,0.00,30.20,1016.30,10.00,M,CLR,M,M,M,M,M,M,M,M,M,M,M,M,M,M,62.10,KEKO 281156Z AUTO 21003KT 10SM CLR 17/M02 A3020 RMK AO2 SLP163 T01671017 10250 20161 53007,M
HND,2022-06-28 11:56,-115.1344,35.9729,742.79,89.00,48.00,24.31,190.00,11.00,0.00,30.04,1015.20,10.00,M,CLR,M,M,M,M,M,M,M,M,M,M,M,M,M,M,85.97,KHND 281156Z AUTO 19011KT 10SM CLR 32/09 A3004 RMK AO2 SLP152 T03170089 10339 20311 53005,M
NFL,2022-06-28 11:56,-118.7010,39.4166,1199.00,56.00,28.00,34.08,180.00,5.00,0.00,30.18,1018.30,10.00,M,CLR,M,M,M,M,M,M,M,M,M,M,M,M,M,M,55.90,KNFL 281156Z AUTO 18005KT 10SM CLR 13/M02 A3018 RMK AO2 SLP183 T01331022 10250 20133 51001,M
WMC,2022-06-28 11:56,-117.8072,40.9019,1315.00,58.00,24.10,26.98,180.00,3.00,0.00,30.17,1016.20,10.00,M,CLR,M,M,M,M,M,M,M,M,M,M,M,M,M,M,57.90,KWMC 281156Z AUTO 18003KT 10SM CLR 14/M04 A3017 RMK AO2 SLP162 T01441044 10278 20144 55001,M
LSV,2022-06-28 11:58,-115.0343,36.2362,570.00,86.00,51.80,30.90,50.00,6.00,0.00,30.00,1010.10,10.00,M,FEW,M,M,M,22000.00,M,M,M,M,M,M,M,M,M,M,83.87,KLSV 281158Z 05006KT 10SM FEW220 30/11 A3000 RMK AO2A SLP101 WND DATA ESTMD 10302 20302 $,M
INS,2022-06-28 11:58,-115.6733,36.5872,955.00,75.20,33.80,22.02,170.00,3.00,0.00,30.08,1013.20,10.00,M,CLR,M,M,M,M,M,M,M,M,M,M,M,M,M,M,75.20,KINS 281158Z AUTO 17003KT 10SM CLR 24/01 A3008 RMK AO2 SLP132 T02400010 10303 20236 52007 $,M
BVU,2022-06-28 12:15,-114.8611,35.9475,671.00,80.60,53.60,39.30,360.00,4.00,0.00,30.02,M,10.00,M,CLR,M,M,M,M,M,M,M,M,M,M,M,M,M,M,80.29,KBVU 281215Z AUTO 36004KT 10SM CLR 27/12 A3002 RMK AO2,M
RTS,2022-06-28 12:15,-119.8764,39.6682,1539.00,50.00,12.20,21.59,360.00,4.00,0.00,30.26,M,10.00,M,CLR,M,M,M,M,M,M,M,M,M,M,M,M,M,M,50.00,KRTS 281215Z AUTO 36004KT 10SM CLR 10/M11 A3026 RMK AO2,M
MEV,2022-06-28 12:15,-119.7500,38.9963,1441.42,44.60,28.40,52.72,60.00,3.00,0.00,30.24,M,10.00,M,CLR,M,M,M,M,M,M,M,M,M,M,M,M,M,M,43.09,KMEV 281215Z AUTO 06003KT 10SM CLR 07/M02 A3024 RMK AO2,M
BAM,2022-06-28 12:15,-116.8743,40.5990,1382.36,M,M,M,180.00,4.00,0.00,30.20,M,10.00,M,CLR,M,M,M,M,M,M,M,M,M,M,M,M,M,M,M,KBAM 281215Z AUTO 18004KT 10SM CLR A3020 RMK AO1,M
HTH,2022-06-28 12:15,-118.6315,38.5448,1282.89,66.20,30.20,25.88,0.00,0.00,0.00,30.21,M,10.00,M,CLR,M,M,M,M,M,M,M,M,M,M,M,M,M,M,66.20,KHTH 281215Z AUTO 00000KT 10SM CLR 19/M01 A3021 RMK A01,M
CXP,2022-06-28 12:15,-119.7326,39.1923,1431.00,57.20,17.60,20.99,0.00,0.00,0.00,30.25,M,10.00,M,CLR,M,M,M,M,M,M,M,M,M,M,M,M,M,M,57.20,KCXP 281215Z AUTO 00000KT 10SM CLR 14/M08 A3025 RMK AO2,M
TMT,2022-06-28 12:15,-117.1971,39.4643,1749.34,46.80,26.40,44.67,0.00,0.00,0.00,30.32,M,7.00,M,CLR,M,M,M,M,M,M,M,M,M,M,M,M,M,M,46.80,KTMT 281215Z AUTO 00000KT 7SM CLR 08/M03 A3032 RMK AO2 T00821031,M
CXP,2022-06-28 12:30,-119.7326,39.1923,1431.00,53.60,19.40,25.85,0.00,0.00,0.00,30.25,M,10.00,M,CLR,M,M,M,M,M,M,M,M,M,M,M,M,M,M,53.60,KCXP 281230Z AUTO 00000KT 10SM CLR 12/M07 A3025 RMK AO2,M
BVU,2022-06-28 12:35,-114.8611,35.9475,671.00,82.40,53.60,37.07,0.00,0.00,0.00,30.03,M,10.00,M,CLR,M,M,M,M,M,M,M,M,M,M,M,M,M,M,81.46,KBVU 281235Z AUTO 00000KT 10SM CLR 28/12 A3003 RMK AO2,M
TMT,2022-06-28 12:35,-117.1971,39.4643,1749.34,45.50,25.70,45.58,0.00,0.00,0.00,30.32,M,5.00,M,CLR,M,M,M,M,M,M,M,HZ,M,M,M,M,M,M,45.50,KTMT 281235Z AUTO 00000KT 5SM HZ CLR 08/M03 A3032 RMK AO2 T00751035,M
RTS,2022-06-28 12:35,-119.8764,39.6682,1539.00,48.20,12.20,23.09,0.00,0.00,0.00,30.27,M,10.00,M,CLR,M,M,M,M,M,M,M,M,M,M,M,M,M,M,48.20,KRTS 281235Z AUTO 00000KT 10SM CLR 09/M11 A3027 RMK AO2,M
MEV,2022-06-28 12:35,-119.7500,38.9963,1441.42,44.60,28.40,52.72,M,4.00,0.00,30.25,M,10.00,10.00,CLR,M,M,M,M,M,M,M,M,M,M,M,M,M,M,42.13,KMEV 281235Z AUTO VRB04G10KT 10SM CLR 07/M02 A3025 RMK AO2,M
BAM,2022-06-28 12:35,-116.8743,40.5990,1382.36,M,M,M,180.00,6.00,0.00,30.20,M,10.00,M,CLR,M,M,M,M,M,M,M,M,M,M,M,M,M,M,M,KBAM 281235Z AUTO 18006KT 10SM CLR A3020 RMK AO1,M
HTH,2022-06-28 12:35,-118.6315,38.5448,1282.89,68.00,30.20,24.32,0.00,0.00,0.00,30.21,M,10.00,M,CLR,M,M,M,M,M,M,M,M,M,M,M,M,M,M,68.00,KHTH 281235Z AUTO 00000KT 10SM CLR 20/M01 A3021 RMK A01,M
P68,2022-06-28 12:53,-116.0056,39.6014,1993.00,54.00,27.00,35.05,160.00,6.00,0.00,30.30,1017.20,M,M,M,M,M,M,M,M,M,M,M,M,M,M,M,M,M,54.00,KP68 281253Z AUTO 16006KT 12/M03 A3030 RMK AO1 SLP172 T01221028,M
LOL,2022-06-28 12:53,-118.5701,40.0684,1192.43,49.00,23.00,35.83,70.00,6.00,0.00,30.18,1018.10,10.00,M,CLR,M,M,M,M,M,M,M,M,M,M,M,M,M,M,45.88,KLOL 281253Z AUTO 07006KT 10SM CLR 09/M05 A3018 RMK AO2 SLP181 T00941050,M
VGT,2022-06-28 12:53,-115.1933,36.2111,667.00,84.00,48.00,28.60,320.00,7.00,0.00,30.01,1014.70,10.00,M,CLR,M,M,M,M,M,M,M,M,M,M,M,M,M,M,81.87,KVGT 281253Z AUTO 32007KT 10SM CLR 29/09 A3001 RMK AO2 SLP147 T02890089,M
ELY,2022-06-28 12:53,-114.8453,39.2950,1909.00,63.00,30.90,29.77,M,4.00,0.00,30.32,1015.30,10.00,M,CLR,M,M,M,M,M,M,M,M,M,M,M,M,M,M,63.00,KELY 281253Z AUTO VRB04KT 10SM CLR 17/M01 A3032 RMK AO2 SLP153 T01721006,M
DRA,2022-06-28 12:53,-116.0278,36.6206,1009.00,81.00,42.00,25.19,M,3.00,0.00,30.09,1013.00,10.00,M,CLR,M,M,M,M,M,M,M,M,M,M,M,M,M,M,79.49,KDRA 281253Z AUTO VRB03KT 10SM CLR 27/06 A3009 RMK AO2 SLP130 T02720056,M
BAM,2022-06-28 12:55,-116.8743,40.5990,1382.36,M,M,M,0.00,0.00,0.00,30.20,M,10.00,M,CLR,M,M,M,M,M,M,M,M,M,M,M,M,M,M,M,KBAM 281255Z AUTO 00000KT 10SM CLR A3020 RMK AO1,M
CXP,2022-06-28 12:55,-119.7326,39.1923,1431.00,53.60,23.00,30.11,0.00,0.00,0.00,30.26,M,10.00,M,CLR,M,M,M,M,M,M,M,M,M,M,M,M,M,M,53.60,KCXP 281255Z AUTO 00000KT 10SM CLR 12/M05 A3026 RMK AO2,M
MEV,2022-06-28 12:55,-119.7500,38.9963,1441.42,46.40,32.00,57.00,0.00,0.00,0.00,30.25,M,10.00,M,CLR,M,M,M,M,M,M,M,M,M,M,M,M,M,M,46.40,KMEV 281255Z AUTO 00000KT 10SM CLR 08/M00 A3025 RMK AO2,M
HTH,2022-06-28 12:55,-118.6315,38.5448,1282.89,68.00,32.00,26.15,240.00,5.00,0.00,30.22,M,10.00,M,CLR,M,M,M,M,M,M,M,M,M,M,M,M,M,M,68.00,KHTH 281255Z AUTO 24005KT 10SM CLR 20/M00 A3022 RMK A01,M
RNO,2022-06-28 12:55,-119.7711,39.4839,1341.00,60.00,28.90,30.41,0.00,0.00,0.00,30.23,1018.00,10.00,M,FEW,M,M,M,6000.00,M,M,M,M,M,M,M,M,M,M,60.10,KRNO 281255Z 00000KT 10SM FEW060 16/M02 A3023 RMK AO2 SLP180 T01561017,M
BVU,2022-06-28 12:55,-114.8611,35.9475,671.00,87.80,50.00,27.29,120.00,5.00,0.00,30.03,M,10.00,M,CLR,M,M,M,M,M,M,M,M,M,M,M,M,M,M,85.11,KBVU 281255Z AUTO 12005KT 10SM CLR 31/10 A3003 RMK AO2,M
TMT,2022-06-28 12:55,-117.1971,39.4643,1749.34,45.70,26.20,46.18,0.00,0.00,0.00,30.33,M,7.00,M,CLR,M,M,M,M,M,M,M,M,M,M,M,M,M,M,45.70,KTMT 281255Z AUTO 00000KT 7SM CLR 08/M03 A3033 RMK AO2 T00761032,M
RTS,2022-06-28 12:55,-119.8764,39.6682,1539.00,48.20,12.20,23.09,M,4.00,0.00,30.27,M,10.00,M,CLR,M,M,M,M,M,M,M,M,M,M,M,M,M,M,46.34,KRTS 281255Z AUTO VRB04KT 10SM CLR 09/M11 A3027 RMK AO2,M
NFL,2022-06-28 12:56,-118.7010,39.4166,1199.00,57.00,23.00,26.61,130.00,6.00,0.00,30.19,1018.50,10.00,M,CLR,M,M,M,M,M,M,M,M,M,M,M,M,M,M,57.00,KNFL 281256Z AUTO 13006KT 10SM CLR 14/M05 A3019 RMK AO2 SLP185 T01391050,M
EKO,2022-06-28 12:56,-115.7860,40.8242,1367.00,69.00,24.10,18.21,170.00,4.00,0.00,30.22,1016.70,10.00,M,CLR,M,M,M,M,M,M,M,M,M,M,M,M,M,M,69.10,KEKO 281256Z AUTO 17004KT 10SM CLR 21/M04 A3022 RMK AO2 SLP167 T02061044,M
WMC,2022-06-28 12:56,-117.8072,40.9019,1315.00,62.00,21.90,21.18,170.00,7.00,0.00,30.18,1016.30,10.00,M,CLR,M,M,M,M,M,M,M,M,M,M,M,M,M,M,62.10,KWMC 281256Z AUTO 17007KT 10SM CLR 17/M06 A3018 RMK AO2 SLP163 T01671056,M
LAS,2022-06-28 12:56,-115.1634,36.0719,663.00,89.00,46.00,22.54,230.00,3.00,0.00,30.02,1013.20,10.00,M,FEW,M,M,M,14000.00,M,M,M,M,M,M,M,M,M,M,85.76,KLAS 281256Z 23003KT 10SM FEW140 32/08 A3002 RMK AO2 SLP132 T03170078,M
HND,2022-06-28 12:56,-115.1344,35.9729,742.79,88.00,47.00,24.15,210.00,10.00,0.00,30.05,1015.60,10.00,M,CLR,M,M,M,M,M,M,M,M,M,M,M,M,M,M,84.90,KHND 281256Z AUTO 21010KT 10SM CLR 31/08 A3005 RMK AO2 SLP156 T03110083,M
LSV,2022-06-28 12:58,-115.0343,36.2362,570.00,83.80,50.70,31.84,0.00,0.00,0.00,29.98,1012.30,10.00,M,CLR,M,M,M,M,M,M,M,M,M,M,M,M,M,M,82.03,KLSV 281258Z AUTO 00000KT 10SM CLR 29/10 A2998 RMK AO2 SLP123 T02880104 $,M
INS,2022-06-28 12:58,-115.6733,36.5872,955.00,75.70,35.20,22.90,0.00,0.00,0.00,30.09,1013.50,10.00,M,CLR,M,M,M,M,M,M,M,M,M,M,M,M,M,M,75.70,KINS 281258Z AUTO 00000KT 10SM CLR 24/02 A3009 RMK AO2 SLP135 T02430018 $,M
RTS,2022-06-28 13:15,-119.8764,39.6682,1539.00,50.00,14.00,23.37,0.00,0.00,0.00,30.27,M,10.00,M,CLR,M,M,M,M,M,M,M,M,M,M,M,M,M,M,50.00,KRTS 281315Z AUTO 00000KT 10SM CLR 10/M10 A3027 RMK AO2,M
CXP,2022-06-28 13:15,-119.7326,39.1923,1431.00,57.20,19.40,22.68,M,3.00,0.00,30.26,M,10.00,M,CLR,M,M,M,M,M,M,M,M,M,M,M,M,M,M,57.20,KCXP 281315Z AUTO VRB03KT 10SM CLR 14/M07 A3026 RMK AO2,M
BVU,2022-06-28 13:15,-114.8611,35.9475,671.00,87.80,50.00,27.29,140.00,4.00,0.00,30.03,M,10.00,M,CLR,M,M,M,M,M,M,M,M,M,M,M,M,M,M,85.11,KBVU 281315Z AUTO 14004KT 10SM CLR 31/10 A3003 RMK AO2,M
MEV,2022-06-28 13:15,-119.7500,38.9963,1441.42,48.20,30.20,49.53,0.00,0.00,0.00,30.25,M,10.00,M,CLR,M,M,M,M,M,M,M,M,M,M,M,M,M,M,48.20,KMEV 281315Z AUTO 00000KT 10SM CLR 09/M01 A3025 RMK AO2,M
BAM,2022-06-28 13:15,-116.8743,40.5990,1382.36,M,M,M,130.00,3.00,0.00,30.20,M,10.00,M,CLR,M,M,M,M,M,M,M,M,M,M,M,M,M,M,M,KBAM 281315Z AUTO 13003KT 10SM CLR A3020 RMK AO1,M
HTH,2022-06-28 13:15,-118.6315,38.5448,1282.89,69.80,32.00,24.59,230.00,4.00,0.00,30.22,M,10.00,M,CLR,M,M,M,M,M,M,M,M,M,M,M,M,M,M,69.80,KHTH 281315Z AUTO 23004KT 10SM CLR 21/00 A3022 RMK A01,M
TMT,2022-06-28 13:15,-117.1971,39.4643,1749.34,45.00,26.10,47.23,160.00,4.00,0.00,30.34,M,7.00,M,CLR,M,M,M,M,M,M,M,M,M,M,M,M,M,M,42.60,KTMT 281315Z AUTO 16004KT 7SM CLR 07/M03 A3034 RMK AO2 T00721033,M
CXP,2022-06-28 13:35,-119.7326,39.1923,1431.00,57.20,23.00,26.42,0.00,0.00,0.00,30.26,M,10.00,M,CLR,M,M,M,M,M,M,M,M,M,M,M,M,M,M,57.20,KCXP 281335Z AUTO 00000KT 10SM CLR 14/M05 A3026 RMK AO2,M
BVU,2022-06-28 13:35,-114.8611,35.9475,671.00,87.80,50.00,27.29,M,3.00,0.00,30.04,M,10.00,M,CLR,M,M,M,M,M,M,M,M,M,M,M,M,M,M,85.11,KBVU 281335Z AUTO VRB03KT 10SM CLR 31/10 A3004 RMK AO2,M
RTS,2022-06-28 13:35,-119.8764,39.6682,1539.00,53.60,15.80,22.13,0.00,0.00,0.00,30.27,M,10.00,M,CLR,M,M,M,M,M,M,M,M,M,M,M,M,M,M,53.60,KRTS 281335Z AUTO 00000KT 10SM CLR 12/M09 A3027 RMK AO2,M
MEV,2022-06-28 13:35,-119.7500,38.9963,1441.42,50.00,32.00,49.81,0.00,0.00,0.00,30.25,M,10.00,M,CLR,M,M,M,M,M,M,M,M,M,M,M,M,M,M,50.00,KMEV 281335Z AUTO 00000KT 10SM CLR 10/M00 A3025 RMK AO2,M
BAM,2022-06-28 13:35,-116.8743,40.5990,1382.36,M,M,M,130.00,4.00,0.00,30.21,M,10.00,M,CLR,M,M,M,M,M,M,M,M,M,M,M,M,M,M,M,KBAM 281335Z AUTO 13004KT 10SM CLR A3021 RMK AO1,M
HTH,2022-06-28 13:35,-118.6315,38.5448,1282.89,69.80,30.20,22.86,0.00,0.00,0.00,30.23,M,10.00,M,CLR,M,M,M,M,M,M,M,M,M,M,M,M,M,M,69.80,KHTH 281335Z AUTO 00000KT 10SM CLR 21/M01 A3023 RMK A01,M
TMT,2022-06-28 13:35,-117.1971,39.4643,1749.34,47.80,27.50,45.02,0.00,0.00,0.00,30.34,M,7.00,M,CLR,M,M,M,M,M,M,M,M,M,M,M,M,M,M,47.80,KTMT 281335Z AUTO 00000KT 7SM CLR 09/M02 A3034 RMK AO2 T00881025,M
P68,2022-06-28 13:53,-116.0056,39.6014,1993.00,64.00,30.00,27.71,200.00,3.00,0.00,30.31,1017.20,M,M,M,M,M,M,M,M,M,M,M,M,M,M,M,M,M,64.00,KP68 281353Z AUTO 20003KT 18/M01 A3031 RMK AO1 SLP172 T01781011,M
DRA,2022-06-28 13:53,-116.0278,36.6206,1009.00,81.00,41.00,24.14,280.00,3.00,0.00,30.11,1013.70,10.00,M,CLR,M,M,M,M,M,M,M,M,M,M,M,M,M,M,79.43,KDRA 281353Z AUTO 28003KT 10SM CLR 27/05 A3011 RMK AO2 SLP137 T02720050,M
VGT,2022-06-28 13:53,-115.1933,36.2111,667.00,87.00,49.00,26.79,330.00,6.00,0.00,30.03,1015.20,10.00,M,CLR,M,M,M,M,M,M,M,M,M,M,M,M,M,M,84.37,KVGT 281353Z 33006KT 10SM CLR 31/09 A3003 RMK AO2 SLP152 T03060094,M
ELY,2022-06-28 13:53,-114.8453,39.2950,1909.00,71.00,35.00,26.63,190.00,4.00,0.00,30.33,1015.00,10.00,M,CLR,M,M,M,M,M,M,M,M,M,M,M,M,M,M,71.10,KELY 281353Z AUTO 19004KT 10SM CLR 22/02 A3033 RMK AO2 SLP150 T02170017,M
LOL,2022-06-28 13:53,-118.5701,40.0684,1192.43,62.00,23.00,22.18,0.00,0.00,0.00,30.19,1017.80,10.00,M,CLR,M,M,M,M,M,M,M,M,M,M,M,M,M,M,62.10,KLOL 281353Z AUTO 00000KT 10SM CLR 17/M05 A3019 RMK AO2 SLP178 T01671050,M
TMT,2022-06-28 13:55,-117.1971,39.4643,1749.34,51.30,28.00,40.33,0.00,0.00,0.00,30.34,M,7.00,M,CLR,M,M,M,M,M,M,M,M,M,M,M,M,M,M,51.30,KTMT 281355Z AUTO 00000KT 7SM CLR 11/M02 A3034 RMK AO2 T01071022,M
BVU,2022-06-28 13:55,-114.8611,35.9475,671.00,87.80,53.60,31.17,360.00,6.00,0.00,30.04,M,10.00,M,CLR,M,M,M,M,M,M,M,M,M,M,M,M,M,M,85.72,KBVU 281355Z AUTO 36006KT 10SM CLR 31/12 A3004 RMK AO2,M
RNO,2022-06-28 13:55,-119.7711,39.4839,1341.00,65.00,27.00,23.75,M,4.00,0.00,30.23,1017.80,10.00,M,FEW,M,M,M,6000.00,M,M,M,M,M,M,M,M,M,M,64.90,KRNO 281355Z VRB04KT 10SM FEW060 18/M03 A3023 RMK AO2 SLP178 T01831028,M
CXP,2022-06-28 13:55,-119.7326,39.1923,1431.00,59.00,24.80,26.70,0.00,0.00,0.00,30.27,M,10.00,M,CLR,M,M,M,M,M,M,M,M,M,M,M,M,M,M,59.00,KCXP 281355Z AUTO 00000KT 10SM CLR 15/M04 A3027 RMK AO2,M
RTS,2022-06-28 13:55,-119.8764,39.6682,1539.00,57.20,23.00,26.42,0.00,0.00,0.00,30.27,M,10.00,M,CLR,M,M,M,M,M,M,M,M,M,M,M,M,M,M,57.20,KRTS 281355Z AUTO 00000KT 10SM CLR 14/M05 A3027 RMK AO2,M
MEV,2022-06-28 13:55,-119.7500,38.9963,1441.42,55.40,32.00,40.84,0.00,0.00,0.00,30.26,M,10.00,M,CLR,M,M,M,M,M,M,M,M,M,M,M,M,M,M,55.40,KMEV 281355Z AUTO 00000KT 10SM CLR 13/M00 A3026 RMK AO2,M
BAM,2022-06-28 13:55,-116.8743,40.5990,1382.36,M,M,M,110.00,3.00,0.00,30.21,M,10.00,M,CLR,M,M,M,M,M,M,M,M,M,M,M,M,M,M,M,KBAM 281355Z AUTO 11003KT 10SM CLR A3021 RMK AO1,M
HTH,2022-06-28 13:55,-118.6315,38.5448,1282.89,71.60,30.20,21.50,0.00,0.00,0.00,30.23,M,10.00,M,CLR,M,M,M,M,M,M,M,M,M,M,M,M,M,M,71.60,KHTH 281355Z AUTO 00000KT 10SM CLR 22/M01 A3023 RMK A01,M
LAS,2022-06-28 13:56,-115.1634,36.0719,663.00,88.00,50.00,27.12,310.00,4.00,0.00,30.04,1014.00,10.00,M,FEW,M,M,M,14000.00,M,M,M,M,M,M,M,M,M,M,85.28,KLAS 281356Z 31004KT 10SM FEW140 31/10 A3004 RMK AO2 SLP140 T03110100,M
EKO,2022-06-28 13:56,-115.7860,40.8242,1367.00,69.00,30.90,24.09,210.00,5.00,0.00,30.23,1017.00,10.00,M,CLR,M,M,M,M,M,M,M,M,M,M,M,M,M,M,69.10,KEKO 281356Z AUTO 21005KT 10SM CLR 21/M01 A3023 RMK AO2 SLP170 T02061006,M
WMC,2022-06-28 13:56,-117.8072,40.9019,1315.00,64.00,25.00,22.56,200.00,3.00,0.00,30.19,1016.80,10.00,M,CLR,M,M,M,M,M,M,M,M,M,M,M,M,M,M,64.00,KWMC 281356Z AUTO 20003KT 10SM CLR 18/M04 A3019 RMK AO2 SLP168 T01781039,M
HND,2022-06-28 13:56,-115.1344,35.9729,742.79,89.00,47.00,23.32,220.00,9.00,0.00,30.07,1016.30,10.00,M,CLR,M,M,M,M,M,M,M,M,M,M,M,M,M,M,85.85,KHND 281356Z AUTO 22009KT 10SM CLR 32/08 A3007 RMK AO2 SLP163 T03170083,M
NFL,2022-06-28 13:56,-118.7010,39.4166,1199.00,67.00,19.90,16.45,150.00,4.00,0.00,30.20,1018.80,10.00,M,CLR,M,M,M,M,M,M,M,M,M,M,M,M,M,M,66.90,KNFL 281356Z AUTO 15004KT 10SM CLR 19/M07 A3020 RMK AO2 SLP188 T01941067,M
INS,2022-06-28 13:58,-115.6733,36.5872,955.00,79.30,36.00,20.99,130.00,5.00,0.00,30.11,1014.10,10.00,M,CLR,M,M,M,M,M,M,M,M,M,M,M,M,M,M,79.30,KINS 281358Z AUTO 13005KT 10SM CLR 26/02 A3011 RMK AO2 SLP141 T02630022 $,M
LSV,2022-06-28 13:58,-115.0343,36.2362,570.00,87.80,48.60,25.91,0.00,0.00,0.00,30.00,1012.90,10.00,M,CLR,M,M,M,M,M,M,M,M,M,M,M,M,M,M,84.92,KLSV 281358Z AUTO 00000KT 10SM CLR 31/09 A3000 RMK AO2 SLP129 T03100092 $,M
TMT,2022-06-28 14:15,-117.1971,39.4643,1749.34,55.40,29.30,36.60,0.00,0.00,0.00,30.34,M,7.00,M,SCT,M,M,M,300.00,M,M,M,M,M,M,M,M,M,M,55.40,KTMT 281415Z AUTO 00000KT 7SM SCT003 13/M01 A3034 RMK AO2 T01301015,M
BVU,2022-06-28 14:15,-114.8611,35.9475,671.00,89.60,51.80,27.56,40.00,3.00,0.00,30.05,M,10.00,M,CLR,M,M,M,M,M,M,M,M,M,M,M,M,M,M,87.00,KBVU 281415Z AUTO 04003KT 10SM CLR 32/11 A3005 RMK AO2,M
CXP,2022-06-28 14:15,-119.7326,39.1923,1431.00,62.60,23.00,21.79,0.00,0.00,0.00,30.27,M,10.00,M,CLR,M,M,M,M,M,M,M,M,M,M,M,M,M,M,62.60,KCXP 281415Z AUTO 00000KT 10SM CLR 17/M05 A3027 RMK AO2,M
RTS,2022-06-28 14:15,-119.8764,39.6682,1539.00,60.80,26.60,26.98,0.00,0.00,0.00,30.27,M,10.00,M,CLR,M,M,M,M,M,M,M,M,M,M,M,M,M,M,60.80,KRTS 281415Z AUTO 00000KT 10SM CLR 16/M03 A3027 RMK AO2,M
MEV,2022-06-28 14:15,-119.7500,38.9963,1441.42,57.20,32.00,38.26,320.00,3.00,0.00,30.26,M,10.00,M,CLR,M,M,M,M,M,M,M,M,M,M,M,M,M,M,57.20,KMEV 281415Z AUTO 32003KT 10SM CLR 14/00 A3026 RMK AO2,M
BAM,2022-06-28 14:15,-116.8743,40.5990,1382.36,M,M,M,130.00,4.00,0.00,30.22,M,10.00,M,CLR,M,M,M,M,M,M,M,M,M,M,M,M,M,M,M,KBAM 281415Z AUTO 13004KT 10SM CLR A3022 RMK AO1,M
HTH,2022-06-28 14:15,-118.6315,38.5448,1282.89,73.40,32.00,21.76,260.00,4.00,0.00,30.24,M,10.00,M,CLR,M,M,M,M,M,M,M,M,M,M,M,M,M,M,73.40,KHTH 281415Z AUTO 26004KT 10SM CLR 23/M00 A3024 RMK A01,M
CXP,2022-06-28 14:30,-119.7326,39.1923,1431.00,64.40,28.40,25.60,0.00,0.00,0.00,30.27,M,10.00,M,CLR,M,M,M,M,M,M,M,M,M,M,M,M,M,M,64.40,KCXP 281430Z AUTO 00000KT 10SM CLR 18/M02 A3027 RMK AO2,M
RTS,2022-06-28 14:35,-119.8764,39.6682,1539.00,62.60,24.80,23.50,0.00,0.00,0.00,30.27,M,10.00,M,CLR,M,M,M,M,M,M,M,M,M,M,M,M,M,M,62.60,KRTS 281435Z AUTO 00000KT 10SM CLR 17/M04 A3027 RMK AO2,M
HTH,2022-06-28 14:35,-118.6315,38.5448,1282.89,75.20,30.20,19.05,260.00,4.00,0.00,30.24,M,10.00,M,CLR,M,M,M,M,M,M,M,M,M,M,M,M,M,M,75.20,KHTH 281435Z AUTO 26004KT 10SM CLR 24/M01 A3024 RMK A01,M
BAM,2022-06-28 14:35,-116.8743,40.5990,1382.36,M,M,M,0.00,0.00,0.00,30.22,M,10.00,M,CLR,M,M,M,M,M,M,M,M,M,M,M,M,M,M,M,KBAM 281435Z AUTO 00000KT 10SM CLR A3022 RMK AO1,M
MEV,2022-06-28 14:35,-119.7500,38.9963,1441.42,60.80,30.20,31.28,0.00,0.00,0.00,30.26,M,10.00,M,CLR,M,M,M,M,M,M,M,M,M,M,M,M,M,M,60.80,KMEV 281435Z AUTO 00000KT 10SM CLR 16/M01 A3026 RMK AO2,M
TMT,2022-06-28 14:35,-117.1971,39.4643,1749.34,59.00,29.80,32.81,0.00,0.00,0.00,30.34,M,7.00,M,CLR,M,M,M,M,M,M,M,M,M,M,M,M,M,M,59.00,KTMT 281435Z AUTO 00000KT 7SM CLR 15/M01 A3034 RMK AO2 T01501012,M
BVU,2022-06-28 14:35,-114.8611,35.9475,671.00,91.40,51.80,26.05,0.00,0.00,0.00,30.05,M,10.00,M,CLR,M,M,M,M,M,M,M,M,M,M,M,M,M,M,88.69,KBVU 281435Z AUTO 00000KT 10SM CLR 33/11 A3005 RMK AO2,M
NFL,2022-06-28 14:40,-118.7010,39.4166,1199.00,74.00,21.00,13.58,160.00,7.00,0.00,30.20,M,10.00,M,FEW,M,M,M,10000.00,M,M,M,M,M,M,M,M,M,M,73.90,KNFL 281440Z 16007KT 10SM FEW100 23/M06 A3020 RMK AO2 T02331061,M
ELY,2022-06-28 14:53,-114.8453,39.2950,1909.00,78.00,32.00,18.61,220.00,9.00,0.00,30.33,1015.20,10.00,M,CLR,M,M,M,M,M,M,M,M,M,M,M,M,M,M,78.10,KELY 281453Z AUTO 22009KT 10SM CLR 26/00 A3033 RMK AO2 SLP152 T02560000 51007,M
P68,2022-06-28 14:53,-116.0056,39.6014,1993.00,75.00,27.00,16.82,180.00,4.00,0.00,30.31,1016.50,M,M,M,M,M,M,M,M,M,M,M,M,M,M,M,M,M,75.00,KP68 281453Z AUTO 18004KT 24/M03 A3031 RMK AO1 SLP165 T02391028 50008,M
VGT,2022-06-28 14:53,-115.1933,36.2111,667.00,92.00,50.00,23.99,30.00,5.00,0.00,30.04,1015.50,10.00,M,CLR,M,M,M,M,M,M,M,M,M,M,M,M,M,M,88.84,KVGT 281453Z 03005KT 10SM CLR 33/10 A3004 RMK AO2 SLP155 T03330100 51014,M
DRA,2022-06-28 14:53,-116.0278,36.6206,1009.00,89.00,42.00,19.42,0.00,0.00,0.00,30.11,1013.70,10.00,M,CLR,M,M,M,M,M,M,M,M,M,M,M,M,M,M,85.45,KDRA 281453Z AUTO 00000KT 10SM CLR 32/06 A3011 RMK AO2 SLP137 T03170056 51013,M
LOL,2022-06-28 14:53,-118.5701,40.0684,1192.43,73.00,21.00,14.00,0.00,0.00,0.00,30.19,1017.50,10.00,M,CLR,M,M,M,M,M,M,M,M,M,M,M,M,M,M,73.00,KLOL 281453Z AUTO 00000KT 10SM CLR 23/M06 A3019 RMK AO2 SLP175 T02281061 51006,M
RTS,2022-06-28 14:55,-119.8764,39.6682,1539.00,64.40,24.80,22.06,0.00,0.00,0.00,30.28,M,10.00,M,CLR,M,M,M,M,M,M,M,M,M,M,M,M,M,M,64.40,KRTS 281455Z AUTO 00000KT 10SM CLR 18/M04 A3028 RMK AO2,M
TMT,2022-06-28 14:55,-117.1971,39.4643,1749.34,63.50,31.50,29.97,220.00,3.00,0.00,30.33,M,10.00,M,CLR,M,M,M,M,M,M,M,M,M,M,M,M,M,M,63.50,KTMT 281455Z AUTO 22003KT 10SM CLR 18/00 A3033 RMK AO2 T01751003,M
HTH,2022-06-28 14:55,-118.6315,38.5448,1282.89,75.20,35.60,23.66,0.00,0.00,0.00,30.24,M,10.00,M,CLR,M,M,M,M,M,M,M,M,M,M,M,M,M,M,75.20,KHTH 281455Z AUTO 00000KT 10SM CLR 24/02 A3024 RMK A01,M
BAM,2022-06-28 14:55,-116.8743,40.5990,1382.36,M,M,M,180.00,3.00,0.00,30.22,M,10.00,M,CLR,M,M,M,M,M,M,M,M,M,M,M,M,M,M,M,KBAM 281455Z AUTO 18003KT 10SM CLR A3022 RMK AO1,M
MEV,2022-06-28 14:55,-119.7500,38.9963,1441.42,64.40,30.20,27.55,0.00,0.00,0.00,30.26,M,10.00,M,CLR,M,M,M,M,M,M,M,M,M,M,M,M,M,M,64.40,KMEV 281455Z AUTO 00000KT 10SM CLR 18/M01 A3026 RMK AO2,M
RNO,2022-06-28 14:55,-119.7711,39.4839,1341.00,69.00,25.00,18.91,0.00,0.00,0.00,30.24,1018.00,10.00,M,CLR,M,M,M,M,M,M,M,M,M,M,M,M,M,M,69.10,KRNO 281455Z 00000KT 10SM CLR 21/M04 A3024 RMK AO2 SLP180 T02061039 51006,M
BVU,2022-06-28 14:55,-114.8611,35.9475,671.00,93.20,50.00,23.04,0.00,0.00,0.00,30.05,M,10.00,M,CLR,M,M,M,M,M,M,M,M,M,M,M,M,M,M,90.10,KBVU 281455Z AUTO 00000KT 10SM CLR 34/10 A3005 RMK AO2,M
CXP,2022-06-28 14:55,-119.7326,39.1923,1431.00,68.00,26.60,20.98,0.00,0.00,0.00,30.27,M,10.00,M,CLR,M,M,M,M,M,M,M,M,M,M,M,M,M,M,68.00,KCXP 281455Z AUTO 00000KT 10SM CLR 20/M03 A3027 RMK AO2,M
LAS,2022-06-28 14:56,-115.1634,36.0719,663.00,91.00,50.00,24.68,310.00,4.00,0.00,30.05,1014.20,10.00,M,FEW,M,M,M,1000.00,M,M,M,M,M,M,M,M,M,M,87.99,KLAS 281456Z 31004KT 10SM FEW010 33/10 A3005 RMK AO2 SLP142 FU FEW010 T03280100 51014,M
HND,2022-06-28 14:56,-115.1344,35.9729,742.79,93.00,45.00,19.21,250.00,8.00,0.00,30.08,1016.50,10.00,M,CLR,M,M,M,M,M,M,M,M,M,M,M,M,M,M,89.20,KHND 281456Z 25008KT 10SM CLR 34/07 A3008 RMK AO2 SLP165 T03390072 52013,M
NFL,2022-06-28 14:56,-118.7010,39.4166,1199.00,75.00,21.00,13.09,160.00,5.00,0.00,30.20,1018.90,10.00,M,FEW,M,M,M,10000.00,M,M,M,M,M,M,M,M,M,M,75.00,KNFL 281456Z 16005KT 10SM FEW100 24/M06 A3020 RMK AO2 SLP189 T02391061 51006,M
WMC,2022-06-28 14:56,-117.8072,40.9019,1315.00,74.00,30.00,19.73,0.00,0.00,0.00,30.20,1016.80,10.00,M,CLR,M,M,M,M,M,M,M,M,M,M,M,M,M,M,73.90,KWMC 281456Z AUTO 00000KT 10SM CLR 23/M01 A3020 RMK AO2 SLP168 T02331011 51009,M
EKO,2022-06-28 14:56,-115.7860,40.8242,1367.00,78.00,30.90,17.80,210.00,5.00,0.00,30.24,1016.90,10.00,M,CLR,M,M,M,M,M,M,M,M,M,M,M,M,M,M,78.10,KEKO 281456Z AUTO 21005KT 10SM CLR 26/M01 A3024 RMK AO2 SLP169 T02561006 51012,M
LSV,2022-06-28 14:58,-115.0343,36.2362,570.00,95.50,51.80,22.94,0.00,0.00,0.00,30.02,1013.60,10.00,M,CLR,M,M,M,M,M,M,M,M,M,M,M,M,M,M,92.78,KLSV 281458Z AUTO 00000KT 10SM CLR 35/11 A3002 RMK AO2 SLP136 T03530110 $,M
INS,2022-06-28 14:58,-115.6733,36.5872,955.00,85.30,35.40,16.87,110.00,6.00,0.00,30.11,1013.90,10.00,M,CLR,M,M,M,M,M,M,M,M,M,M,M,M,M,M,82.15,KINS 281458Z AUTO 11006KT 10SM CLR 30/02 A3011 RMK AO2 SLP139 T02960019 52010 $,M
CXP,2022-06-28 15:10,-119.7326,39.1923,1431.00,69.80,26.60,19.72,0.00,0.00,0.00,30.27,M,10.00,M,CLR,M,M,M,M,M,M,M,M,M,M,M,M,M,M,69.80,KCXP 281510Z AUTO 00000KT 10SM CLR 21/M03 A3027 RMK AO2,M
BVU,2022-06-28 15:15,-114.8611,35.9475,671.00,93.20,48.20,21.54,160.00,5.00,0.00,30.05,M,10.00,M,CLR,M,M,M,M,M,M,M,M,M,M,M,M,M,M,89.80,KBVU 281515Z AUTO 16005KT 10SM CLR 34/09 A3005 RMK AO2,M
RTS,2022-06-28 15:15,-119.8764,39.6682,1539.00,69.80,21.20,15.73,0.00,0.00,0.00,30.27,M,10.00,M,CLR,M,M,M,M,M,M,M,M,M,M,M,M,M,M,69.80,KRTS 281515Z AUTO 00000KT 10SM CLR 21/M06 A3027 RMK AO2,M
HTH,2022-06-28 15:15,-118.6315,38.5448,1282.89,77.00,35.60,22.28,0.00,0.00,0.00,30.24,M,10.00,M,CLR,M,M,M,M,M,M,M,M,M,M,M,M,M,M,77.00,KHTH 281515Z AUTO 00000KT 10SM CLR 25/02 A3024 RMK A01,M
TMT,2022-06-28 15:15,-117.1971,39.4643,1749.34,67.00,30.20,25.26,0.00,0.00,0.00,30.34,M,10.00,M,CLR,M,M,M,M,M,M,M,M,M,M,M,M,M,M,66.90,KTMT 281515Z AUTO 00000KT 10SM CLR 19/M01 A3034 RMK AO2 T01941010,M
BAM,2022-06-28 15:15,-116.8743,40.5990,1382.36,M,M,M,230.00,7.00,0.00,30.22,M,10.00,M,CLR,M,M,M,M,M,M,M,M,M,M,M,M,M,M,M,KBAM 281515Z AUTO 23007KT 10SM CLR A3022 RMK AO1,M
MEV,2022-06-28 15:15,-119.7500,38.9963,1441.42,68.00,28.40,22.59,320.00,4.00,0.00,30.25,M,10.00,M,CLR,M,M,M,M,M,M,M,M,M,M,M,M,M,M,68.00,KMEV 281515Z AUTO 32004KT 10SM CLR 20/M02 A3025 RMK AO2,M
RTS,2022-06-28 15:35,-119.8764,39.6682,1539.00,71.60,14.00,10.85,0.00,0.00,0.00,30.27,M,10.00,M,CLR,M,M,M,M,M,M,M,M,M,M,M,M,M,M,71.60,KRTS 281535Z AUTO 00000KT 10SM CLR 22/M10 A3027 RMK AO2,M
BVU,2022-06-28 15:35,-114.8611,35.9475,671.00,95.00,48.20,20.38,190.00,6.00,0.00,30.05,M,10.00,M,CLR,M,M,M,M,M,M,M,M,M,M,M,M,M,M,91.56,KBVU 281535Z AUTO 19006KT 10SM CLR 35/09 A3005 RMK AO2,M
CXP,2022-06-28 15:35,-119.7326,39.1923,1431.00,73.40,23.00,15.03,0.00,0.00,0.00,30.26,M,10.00,M,CLR,M,M,M,M,M,M,M,M,M,M,M,M,M,M,73.40,KCXP 281535Z AUTO 00000KT 10SM CLR 23/M05 A3026 RMK AO2,M
MEV,2022-06-28 15:35,-119.7500,38.9963,1441.42,71.60,32.00,23.13,0.00,0.00,0.00,30.25,M,10.00,M,CLR,M,M,M,M,M,M,M,M,M,M,M,M,M,M,71.60,KMEV 281535Z AUTO 00000KT 10SM CLR 22/M00 A3025 RMK AO2,M
BAM,2022-06-28 15:35,-116.8743,40.5990,1382.36,M,M,M,240.00,10.00,0.00,30.21,M,10.00,M,CLR,M,M,M,M,M,M,M,M,M,M,M,M,M,M,M,KBAM 281535Z AUTO 24010KT 10SM CLR A3021 RMK AO1,M
HTH,2022-06-28 15:35,-118.6315,38.5448,1282.89,77.00,32.00,19.30,M,3.00,0.00,30.23,M,10.00,M,CLR,M,M,M,M,M,M,M,M,M,M,M,M,M,M,77.00,KHTH 281535Z AUTO VRB03KT 10SM CLR 25/00 A3023 RMK A01,M
TMT,2022-06-28 15:35,-117.1971,39.4643,1749.34,70.70,30.60,22.53,230.00,3.00,0.00,30.34,M,10.00,M,CLR,M,M,M,M,M,M,M,M,M,M,M,M,M,M,70.70,KTMT 281535Z AUTO 23003KT 10SM CLR 22/M01 A3034 RMK AO2 T02151008,M
CXP,2022-06-28 15:50,-119.7326,39.1923,1431.00,75.20,24.80,15.25,0.00,0.00,0.00,30.26,M,10.00,M,CLR,M,M,M,M,M,M,M,M,M,M,M,M,M,M,75.20,KCXP 281550Z AUTO 00000KT 10SM CLR 24/M04 A3026 RMK AO2,M
VGT,2022-06-28 15:53,-115.1933,36.2111,667.00,95.00,47.00,19.40,70.00,4.00,0.00,30.04,1015.50,10.00,M,CLR,M,M,M,M,M,M,M,M,M,M,M,M,M,M,91.36,KVGT 281553Z 07004KT 10SM CLR 35/08 A3004 RMK AO2 SLP155 T03500083,M
P68,2022-06-28 15:53,-116.0056,39.6014,1993.00,80.00,24.10,12.60,M,3.00,0.00,30.30,1015.80,M,M,M,M,M,M,M,M,M,M,M,M,M,M,M,M,M,78.37,KP68 281553Z AUTO VRB03KT 27/M04 A3030 RMK AO1 SLP158 T02671044,M
DRA,2022-06-28 15:53,-116.0278,36.6206,1009.00,93.00,42.00,17.19,0.00,0.00,0.00,30.11,1013.50,10.00,M,CLR,M,M,M,M,M,M,M,M,M,M,M,M,M,M,88.93,KDRA 281553Z AUTO 00000KT 10SM CLR 34/06 A3011 RMK AO2 SLP135 T03390056,M
ELY,2022-06-28 15:53,-114.8453,39.2950,1909.00,82.00,30.90,15.66,0.00,0.00,0.00,30.32,1015.20,10.00,M,CLR,M,M,M,M,M,M,M,M,M,M,M,M,M,M,79.70,KELY 281553Z AUTO 00000KT 10SM CLR 28/M01 A3032 RMK AO2 SLP152 T02781006,M
LOL,2022-06-28 15:53,-118.5701,40.0684,1192.43,79.00,19.90,10.94,160.00,5.00,0.00,30.19,1017.40,10.00,M,CLR,M,M,M,M,M,M,M,M,M,M,M,M,M,M,79.00,KLOL 281553Z AUTO 16005KT 10SM CLR 26/M07 A3019 RMK AO2 SLP174 T02611067,M
BVU,2022-06-28 15:55,-114.8611,35.9475,671.00,96.80,44.60,16.83,200.00,6.00,0.00,30.05,M,10.00,M,CLR,M,M,M,M,M,M,M,M,M,M,M,M,M,M,92.79,KBVU 281555Z AUTO 20006KT 10SM CLR 36/07 A3005 RMK AO2,M
TMT,2022-06-28 15:55,-117.1971,39.4643,1749.34,73.40,32.00,21.76,0.00,0.00,0.00,30.34,M,10.00,M,CLR,M,M,M,M,M,M,M,M,M,M,M,M,M,M,73.40,KTMT 281555Z AUTO 00000KT 10SM CLR 23/00 A3034 RMK AO2 T02300000,M
HTH,2022-06-28 15:55,-118.6315,38.5448,1282.89,78.80,32.00,18.18,M,4.00,0.00,30.23,M,10.00,M,CLR,M,M,M,M,M,M,M,M,M,M,M,M,M,M,78.80,KHTH 281555Z AUTO VRB04KT 10SM CLR 26/M00 A3023 RMK A01,M
BAM,2022-06-28 15:55,-116.8743,40.5990,1382.36,M,M,M,250.00,14.00,0.00,30.21,M,10.00,M,CLR,M,M,M,M,M,M,M,M,M,M,M,M,M,M,M,KBAM 281555Z AUTO 25014KT 10SM CLR A3021 RMK AO1,M
MEV,2022-06-28 15:55,-119.7500,38.9963,1441.42,73.40,30.20,20.23,0.00,0.00,0.00,30.25,M,10.00,M,CLR,M,M,M,M,M,M,M,M,M,M,M,M,M,M,73.40,KMEV 281555Z AUTO 00000KT 10SM CLR 23/M01 A3025 RMK AO2,M
RTS,2022-06-28 15:55,-119.8764,39.6682,1539.00,75.20,15.80,10.40,130.00,5.00,0.00,30.27,M,10.00,M,CLR,M,M,M,M,M,M,M,M,M,M,M,M,M,M,75.20,KRTS 281555Z AUTO 13005KT 10SM CLR 24/M09 A3027 RMK AO2,M
RNO,2022-06-28 15:55,-119.7711,39.4839,1341.00,74.00,27.00,17.45,0.00,0.00,0.00,30.23,1017.50,10.00,M,CLR,M,M,M,M,M,M,M,M,M,M,M,M,M,M,73.90,KRNO 281555Z 00000KT 10SM CLR 23/M03 A3023 RMK AO2 SLP175 T02331028,M
HND,2022-06-28 15:56,-115.1344,35.9729,742.79,97.00,43.00,15.73,250.00,8.00,0.00,30.08,1016.50,10.00,M,CLR,M,M,M,M,M,M,M,M,M,M,M,M,M,M,92.79,KHND 281556Z 25008KT 10SM CLR 36/06 A3008 RMK AO2 SLP165 T03610061,M
WMC,2022-06-28 15:56,-117.8072,40.9019,1315.00,83.00,24.10,11.50,M,3.00,0.00,30.19,1016.70,10.00,M,CLR,M,M,M,M,M,M,M,M,M,M,M,M,M,M,80.07,KWMC 281556Z AUTO VRB03KT 10SM CLR 28/M04 A3019 RMK AO2 SLP167 T02831044,M
LAS,2022-06-28 15:56,-115.1634,36.0719,663.00,94.00,50.00,22.55,0.00,0.00,0.00,30.05,1014.30,10.00,M,FEW,M,M,M,12000.00,M,M,M,M,M,M,M,M,M,M,90.79,KLAS 281556Z 00000KT 10SM FEW120 34/10 A3005 RMK AO2 SLP143 T03440100,M
EKO,2022-06-28 15:56,-115.7860,40.8242,1367.00,83.00,30.00,14.67,220.00,8.00,0.00,30.24,1016.60,10.00,M,CLR,M,M,M,M,M,M,M,M,M,M,M,M,M,M,80.31,KEKO 281556Z AUTO 22008KT 10SM CLR 28/M01 A3024 RMK AO2 SLP166 T02831011,M
NFL,2022-06-28 15:56,-118.7010,39.4166,1199.00,81.00,16.00,8.66,160.00,4.00,0.00,30.19,1018.80,10.00,M,FEW,M,M,M,10000.00,M,M,M,M,M,M,M,M,M,M,78.36,KNFL 281556Z 16004KT 10SM FEW100 27/M09 A3019 RMK AO2 SLP188 T02721089,M
INS,2022-06-28 15:58,-115.6733,36.5872,955.00,90.30,36.30,14.92,30.00,3.00,0.00,30.11,1013.90,10.00,M,CLR,M,M,M,M,M,M,M,M,M,M,M,M,M,M,86.24,KINS 281558Z AUTO 03003KT 10SM CLR 32/02 A3011 RMK AO2 SLP139 T03240024 $,M
LSV,2022-06-28 15:58,-115.0343,36.2362,570.00,100.20,51.80,19.88,180.00,3.00,0.00,30.01,M,10.00,M,CLR,M,M,M,M,M,M,M,M,M,M,M,M,M,M,97.68,KLSV 281558Z AUTO 18003KT 10SM CLR 38/11 A3001 RMK AO2 SLPNO T03790110 $,M
BAM,2022-06-28 16:15,-116.8743,40.5990,1382.36,M,M,M,240.00,12.00,0.00,30.21,M,10.00,16.00,CLR,M,M,M,M,M,M,M,M,M,M,M,M,M,M,M,KBAM 281615Z AUTO 24012G16KT 10SM CLR A3021 RMK AO1,M
BVU,2022-06-28 16:15,-114.8611,35.9475,671.00,96.80,44.60,16.83,150.00,7.00,0.00,30.04,M,10.00,M,CLR,M,M,M,M,M,M,M,M,M,M,M,M,M,M,92.79,KBVU 281615Z AUTO 15007KT 10SM CLR 36/07 A3004 RMK AO2,M
CXP,2022-06-28 16:15,-119.7326,39.1923,1431.00,78.80,24.80,13.54,0.00,0.00,0.00,30.26,M,10.00,M,CLR,M,M,M,M,M,M,M,M,M,M,M,M,M,M,78.80,KCXP 281615Z AUTO 00000KT 10SM CLR 26/M04 A3026 RMK AO2,M
RTS,2022-06-28 16:15,-119.8764,39.6682,1539.00,77.00,15.80,9.79,130.00,4.00,0.00,30.26,M,10.00,M,CLR,M,M,M,M,M,M,M,M,M,M,M,M,M,M,77.00,KRTS 281615Z AUTO 13004KT 10SM CLR 25/M09 A3026 RMK AO2,M
MEV,2022-06-28 16:15,-119.7500,38.9963,1441.42,77.00,24.80,14.37,0.00,0.00,0.00,30.24,M,10.00,M,CLR,M,M,M,M,M,M,M,M,M,M,M,M,M,M,77.00,KMEV 281615Z AUTO 00000KT 10SM CLR 25/M04 A3024 RMK AO2,M
HTH,2022-06-28 16:15,-118.6315,38.5448,1282.89,78.80,30.20,16.90,0.00,0.00,0.00,30.22,M,10.00,M,CLR,M,M,M,M,M,M,M,M,M,M,M,M,M,M,78.80,KHTH 281615Z AUTO 00000KT 10SM CLR 26/M01 A3022 RMK A01,M
TMT,2022-06-28 16:15,-117.1971,39.4643,1749.34,77.20,32.50,19.56,0.00,0.00,0.00,30.33,M,10.00,M,CLR,M,M,M,M,M,M,M,M,M,M,M,M,M,M,77.20,KTMT 281615Z AUTO 00000KT 10SM CLR 25/00 A3033 RMK AO2 T02510003,M
CXP,2022-06-28 16:30,-119.7326,39.1923,1431.00,78.80,23.00,12.55,0.00,0.00,0.00,30.25,M,10.00,M,CLR,M,M,M,M,M,M,M,M,M,M,M,M,M,M,78.80,KCXP 281630Z AUTO 00000KT 10SM CLR 26/M05 A3025 RMK AO2,M
TMT,2022-06-28 16:35,-117.1971,39.4643,1749.34,79.50,28.40,15.35,260.00,5.00,0.00,30.32,M,10.00,M,CLR,M,M,M,M,M,M,M,M,M,M,M,M,M,M,79.50,KTMT 281635Z AUTO 26005KT 10SM CLR 26/M02 A3032 RMK AO2 T02641020,M
RTS,2022-06-28 16:35,-119.8764,39.6682,1539.00,80.60,23.00,11.83,220.00,8.00,0.00,30.25,M,10.00,M,CLR,M,M,M,M,M,M,M,M,M,M,M,M,M,M,78.80,KRTS 281635Z AUTO 22008KT 10SM CLR 27/M05 A3025 RMK AO2,M
BAM,2022-06-28 16:35,-116.8743,40.5990,1382.36,M,M,M,240.00,13.00,0.00,30.21,M,10.00,M,CLR,M,M,M,M,M,M,M,M,M,M,M,M,M,M,M,KBAM 281635Z AUTO 24013KT 10SM CLR A3021 RMK AO1,M
BVU,2022-06-28 16:35,-114.8611,35.9475,671.00,98.60,46.40,17.05,M,5.00,0.00,30.04,M,10.00,M,CLR,M,M,M,M,M,M,M,M,M,M,M,M,M,M,94.84,KBVU 281635Z AUTO VRB05KT 10SM CLR 37/08 A3004 RMK AO2,M
HTH,2022-06-28 16:35,-118.6315,38.5448,1282.89,82.40,28.40,13.96,M,3.00,0.00,30.21,M,10.00,M,CLR,M,M,M,M,M,M,M,M,M,M,M,M,M,M,79.94,KHTH 281635Z AUTO VRB03KT 10SM CLR 28/M02 A3021 RMK A01,M
MEV,2022-06-28 16:35,-119.7500,38.9963,1441.42,78.80,32.00,18.18,0.00,0.00,0.00,30.24,M,10.00,M,CLR,M,M,M,M,M,M,M,M,M,M,M,M,M,M,78.80,KMEV 281635Z AUTO 00000KT 10SM CLR 26/00 A3024 RMK AO2,M
LOL,2022-06-28 16:53,-118.5701,40.0684,1192.43,87.00,10.90,5.69,170.00,6.00,0.00,30.17,1016.50,M,15.00,M,M,M,M,M,M,M,M,M,M,M,M,M,M,M,82.39,KLOL 281653Z AUTO 17006G15KT 31/M12 A3017 RMK AO2 SLP165 T03061117 PWINO PNO $,M
DRA,2022-06-28 16:53,-116.0278,36.6206,1009.00,97.00,41.00,14.57,M,M,0.00,30.10,1013.20,10.00,M,CLR,M,M,M,M,M,M,M,M,M,M,M,M,M,M,92.58,KDRA 281653Z AUTO 10SM CLR 36/05 A3010 RMK AO2 SLP132 T03610050,M
VGT,2022-06-28 16:53,-115.1933,36.2111,667.00,98.00,49.00,19.02,M,3.00,0.00,30.03,1015.20,10.00,M,CLR,M,M,M,M,M,M,M,M,M,M,M,M,M,M,94.81,KVGT 281653Z VRB03KT 10SM CLR 37/09 A3003 RMK AO2 SLP152 T03670094,M
P68,2022-06-28 16:53,-116.0056,39.6014,1993.00,82.00,25.00,12.29,120.00,5.00,0.00,30.29,1015.80,M,M,M,M,M,M,M,M,M,M,M,M,M,M,M,M,M,79.54,KP68 281653Z AUTO 12005KT 28/M04 A3029 RMK AO1 SLP158 T02781039,M
ELY,2022-06-28 16:53,-114.8453,39.2950,1909.00,82.00,30.00,15.10,220.00,11.00,0.00,30.32,1015.40,10.00,24.00,BKN,M,M,M,12000.00,M,M,M,M,M,M,M,M,M,M,79.69,KELY 281653Z AUTO 22011G24KT 10SM BKN120 28/M01 A3032 RMK AO2 SLP154 T02781011,M
RTS,2022-06-28 16:55,-119.8764,39.6682,1539.00,82.40,23.00,11.16,220.00,15.00,0.00,30.25,M,10.00,M,CLR,M,M,M,M,M,M,M,M,M,M,M,M,M,M,79.67,KRTS 281655Z AUTO 22015KT 200V270 10SM CLR 28/M05 A3025 RMK AO2,M
HTH,2022-06-28 16:55,-118.6315,38.5448,1282.89,82.40,26.60,12.97,M,4.00,0.00,30.20,M,10.00,M,CLR,M,M,M,M,M,M,M,M,M,M,M,M,M,M,79.92,KHTH 281655Z AUTO VRB04KT 10SM CLR 28/M03 A3020 RMK A01,M
TMT,2022-06-28 16:55,-117.1971,39.4643,1749.34,81.00,25.30,12.86,340.00,4.00,0.00,30.31,M,10.00,M,CLR,M,M,M,M,M,M,M,M,M,M,M,M,M,M,78.91,KTMT 281655Z AUTO 34004KT 10SM CLR 27/M04 A3031 RMK AO2 T02721037,M
BAM,2022-06-28 16:55,-116.8743,40.5990,1382.36,M,M,M,220.00,10.00,0.00,30.21,M,10.00,M,CLR,M,M,M,M,M,M,M,M,M,M,M,M,M,M,M,KBAM 281655Z AUTO 22010KT 10SM CLR A3021 RMK AO1,M
MEV,2022-06-28 16:55,-119.7500,38.9963,1441.42,82.40,21.20,10.34,0.00,0.00,0.00,30.23,M,10.00,M,CLR,M,M,M,M,M,M,M,M,M,M,M,M,M,M,79.55,KMEV 281655Z AUTO 00000KT 10SM CLR 28/M06 A3023 RMK AO2,M
RNO,2022-06-28 16:55,-119.7711,39.4839,1341.00,81.00,23.00,11.68,M,3.00,0.00,30.21,1016.50,10.00,M,CLR,M,M,M,M,M,M,M,M,M,M,M,M,M,M,78.75,KRNO 281655Z VRB03KT 10SM CLR 27/M05 A3021 RMK AO2 SLP165 T02721050,M
CXP,2022-06-28 16:55,-119.7326,39.1923,1431.00,82.40,23.00,11.16,0.00,0.00,0.00,30.24,M,10.00,M,CLR,M,M,M,M,M,M,M,M,M,M,M,M,M,M,79.67,KCXP 281655Z AUTO 00000KT 10SM CLR 28/M05 A3024 RMK AO2,M
BVU,2022-06-28 16:55,-114.8611,35.9475,671.00,98.60,46.40,17.05,120.00,7.00,0.00,30.04,M,10.00,M,CLR,M,M,M,M,M,M,M,M,M,M,M,M,M,M,94.84,KBVU 281655Z AUTO 12007KT 10SM CLR 37/08 A3004 RMK AO2,M
WMC,2022-06-28 16:56,-117.8072,40.9019,1315.00,88.00,14.00,6.34,260.00,9.00,0.00,30.18,1015.80,10.00,17.00,CLR,M,M,M,M,M,M,M,M,M,M,M,M,M,M,83.14,KWMC 281656Z AUTO 26009G17KT 10SM CLR 31/M10 A3018 RMK AO2 SLP158 T03111100,M
EKO,2022-06-28 16:56,-115.7860,40.8242,1367.00,86.00,26.10,11.31,250.00,12.00,0.00,30.22,1016.50,10.00,M,CLR,M,M,M,M,M,M,M,M,M,M,M,M,M,M,82.35,KEKO 281656Z AUTO 25012KT 10SM CLR 30/M03 A3022 RMK AO2 SLP165 T03001033,M
NFL,2022-06-28 16:56,-118.7010,39.4166,1199.00,86.00,9.00,5.41,140.00,5.00,0.00,30.17,1018.20,10.00,M,CLR,M,M,M,M,M,M,M,M,M,M,M,M,M,M,81.54,KNFL 281656Z 14005KT 10SM CLR 30/M13 A3017 RMK AO2 SLP182 T03001128,M
HND,2022-06-28 16:56,-115.1344,35.9729,742.79,100.00,44.00,14.98,310.00,4.00,0.00,30.07,1016.20,10.00,M,CLR,M,M,M,M,M,M,M,M,M,M,M,M,M,M,95.84,KHND 281656Z 31004KT 10SM CLR 38/07 A3007 RMK AO2 SLP162 T03780067,M
LAS,2022-06-28 16:56,-115.1634,36.0719,663.00,97.00,47.00,18.25,0.00,0.00,0.00,30.04,1013.90,10.00,M,FEW,M,M,M,12000.00,M,M,M,M,M,M,M,M,M,M,93.33,KLAS 281656Z 00000KT 10SM FEW120 36/08 A3004 RMK AO2 SLP139 T03610083,M
INS,2022-06-28 16:58,-115.6733,36.5872,955.00,94.60,39.70,14.91,110.00,5.00,0.00,30.09,1013.20,10.00,M,CLR,M,M,M,M,M,M,M,M,M,M,M,M,M,M,90.23,KINS 281658Z AUTO 11005KT 10SM CLR 35/04 A3009 RMK AO2 SLP132 T03480043 $,M
LSV,2022-06-28 16:58,-115.0343,36.2362,570.00,104.40,49.00,15.86,0.00,0.00,0.00,30.00,M,10.00,M,CLR,M,M,M,M,M,M,M,M,M,M,M,M,M,M,101.29,KLSV 281658Z AUTO 00000KT 10SM CLR 40/10 A3000 RMK AO2 SLPNO T04020095 $,M
CXP,2022-06-28 17:10,-119.7326,39.1923,1431.00,84.20,19.40,9.04,180.00,7.00,0.00,30.24,M,10.00,M,CLR,M,M,M,M,M,M,M,M,M,M,M,M,M,M,80.68,KCXP 281710Z AUTO 18007KT 10SM CLR 29/M07 A3024 RMK AO2,M
RTS,2022-06-28 17:15,-119.8764,39.6682,1539.00,82.40,23.00,11.16,250.00,8.00,0.00,30.25,M,10.00,20.00,CLR,M,M,M,M,M,M,M,M,M,M,M,M,M,M,79.67,KRTS 281715Z AUTO 25008G20KT 10SM CLR 28/M05 A3025 RMK AO2,M
BVU,2022-06-28 17:15,-114.8611,35.9475,671.00,98.60,46.40,17.05,120.00,5.00,0.00,30.04,M,10.00,11.00,CLR,M,M,M,M,M,M,M,M,M,M,M,M,M,M,94.84,KBVU 281715Z AUTO 12005G11KT 10SM CLR 37/08 A3004 RMK AO2,M
TMT,2022-06-28 17:15,-117.1971,39.4643,1749.34,82.20,26.40,12.94,190.00,3.00,0.00,30.31,M,10.00,M,CLR,M,M,M,M,M,M,M,M,M,M,M,M,M,M,79.77,KTMT 281715Z AUTO 19003KT 10SM CLR 28/M03 A3031 RMK AO2 T02791031,M
BAM,2022-06-28 17:15,-116.8743,40.5990,1382.36,M,M,M,220.00,10.00,0.00,30.20,M,10.00,M,CLR,M,M,M,M,M,M,M,M,M,M,M,M,M,M,M,KBAM 281715Z AUTO 22010KT 10SM CLR A3020 RMK AO1,M
HTH,2022-06-28 17:15,-118.6315,38.5448,1282.89,84.20,24.80,11.35,0.00,0.00,0.00,30.20,M,10.00,M,CLR,M,M,M,M,M,M,M,M,M,M,M,M,M,M,81.00,KHTH 281715Z AUTO 00000KT 10SM CLR 29/M04 A3020 RMK A01,M
MEV,2022-06-28 17:15,-119.7500,38.9963,1441.42,84.20,17.60,8.37,110.00,4.00,0.00,30.22,M,10.00,M,CLR,M,M,M,M,M,M,M,M,M,M,M,M,M,M,80.59,KMEV 281715Z AUTO 11004KT 10SM CLR 29/M08 A3022 RMK AO2,M
BVU,2022-06-28 17:35,-114.8611,35.9475,671.00,100.40,46.40,16.15,M,4.00,0.00,30.04,M,10.00,11.00,CLR,M,M,M,M,M,M,M,M,M,M,M,M,M,M,96.63,KBVU 281735Z AUTO VRB04G11KT 10SM CLR 38/08 A3004 RMK AO2,M
RTS,2022-06-28 17:35,-119.8764,39.6682,1539.00,82.40,23.00,11.16,250.00,13.00,0.00,30.25,M,10.00,19.00,CLR,M,M,M,M,M,M,M,M,M,M,M,M,M,M,79.67,KRTS 281735Z AUTO 25013G19KT 10SM CLR 28/M05 A3025 RMK AO2,M
MEV,2022-06-28 17:35,-119.7500,38.9963,1441.42,84.20,19.40,9.04,0.00,0.00,0.00,30.22,M,10.00,M,CLR,M,M,M,M,M,M,M,M,M,M,M,M,M,M,80.68,KMEV 281735Z AUTO 00000KT 10SM CLR 29/M07 A3022 RMK AO2,M
BAM,2022-06-28 17:35,-116.8743,40.5990,1382.36,M,M,M,250.00,9.00,0.00,30.20,M,10.00,15.00,CLR,M,M,M,M,M,M,M,M,M,M,M,M,M,M,M,KBAM 281735Z AUTO 25009G15KT 10SM CLR A3020 RMK AO1,M
HTH,2022-06-28 17:35,-118.6315,38.5448,1282.89,86.00,24.80,10.72,0.00,0.00,0.00,30.19,M,10.00,M,CLR,M,M,M,M,M,M,M,M,M,M,M,M,M,M,82.26,KHTH 281735Z AUTO 00000KT 10SM CLR 30/M04 A3019 RMK A01,M
TMT,2022-06-28 17:35,-117.1971,39.4643,1749.34,84.40,27.70,12.72,260.00,6.00,0.00,30.31,M,10.00,M,CLR,M,M,M,M,M,M,M,M,M,M,M,M,M,M,81.36,KTMT 281735Z AUTO 26006KT 10SM CLR 29/M02 A3031 RMK AO2 T02911024,M
DRA,2022-06-28 17:53,-116.0278,36.6206,1009.00,99.00,40.00,13.13,210.00,11.00,0.00,30.10,1013.10,10.00,19.00,CLR,M,M,M,M,M,M,M,M,M,M,M,M,M,M,94.35,KDRA 281753Z AUTO 21011G19KT 10SM CLR 37/04 A3010 RMK AO2 SLP131 T03720044 10378 20256 56005,M
P68,2022-06-28 17:53,-116.0056,39.6014,1993.00,86.00,25.00,10.81,50.00,5.00,0.00,30.28,1015.50,M,M,M,M,M,M,M,M,M,M,M,M,M,M,M,M,M,82.27,KP68 281753Z AUTO 05005KT 30/M04 A3028 RMK AO1 SLP155 T03001039 10300 20122 58009,M
ELY,2022-06-28 17:53,-114.8453,39.2950,1909.00,86.00,30.90,13.77,230.00,6.00,0.00,30.32,1014.70,10.00,16.00,CLR,M,M,M,M,M,M,M,M,M,M,M,M,M,M,82.64,KELY 281753Z AUTO 23006G16KT 10SM CLR 30/M01 A3032 RMK AO2 SLP147 T03001006 10300 20150 56004,M
LOL,2022-06-28 17:53,-118.5701,40.0684,1192.43,91.00,12.90,5.49,200.00,9.00,0.00,30.16,1016.20,M,M,M,M,M,M,M,M,M,M,M,M,M,M,M,M,M,85.27,KLOL 281753Z AUTO 20009KT 33/M11 A3016 RMK AO2 SLP162 6//// T03281106 10328 20089 58009 PWINO PNO $,M
VGT,2022-06-28 17:53,-115.1933,36.2111,667.00,102.00,47.00,15.69,90.00,8.00,0.00,30.03,1015.00,10.00,M,CLR,M,M,M,M,M,M,M,M,M,M,M,M,M,M,98.33,KVGT 281753Z 09008KT 10SM CLR 39/08 A3003 RMK AO2 SLP150 T03890083 10389 20289 58004,M
RNO,2022-06-28 17:55,-119.7711,39.4839,1341.00,86.00,23.00,9.94,M,4.00,0.00,30.20,1016.10,10.00,M,CLR,M,M,M,M,M,M,M,M,M,M,M,M,M,M,82.14,KRNO 281755Z VRB04KT 10SM CLR 30/M05 A3020 RMK AO2 SLP161 T03001050 10300 20150 58013,M
MEV,2022-06-28 17:55,-119.7500,38.9963,1441.42,86.00,17.60,7.90,M,4.00,0.00,30.21,M,10.00,10.00,CLR,M,M,M,M,M,M,M,M,M,M,M,M,M,M,81.85,KMEV 281755Z AUTO VRB04G10KT 10SM CLR 30/M08 A3021 RMK AO2,M
BAM,2022-06-28 17:55,-116.8743,40.5990,1382.36,M,M,M,240.00,14.00,0.00,30.20,M,10.00,20.00,CLR,M,M,M,M,M,M,M,M,M,M,M,M,M,M,M,KBAM 281755Z AUTO 24014G20KT 10SM CLR A3020 RMK AO1,M
TMT,2022-06-28 17:55,-117.1971,39.4643,1749.34,84.00,25.90,11.96,260.00,6.00,0.00,30.31,M,10.00,M,CLR,M,M,M,M,M,M,M,M,M,M,M,M,M,M,80.94,KTMT 281755Z AUTO 26006KT 10SM CLR 29/M03 A3031 RMK AO2 T02891034 10290 20067,M
BVU,2022-06-28 17:55,-114.8611,35.9475,671.00,100.40,48.20,17.28,130.00,8.00,0.00,30.03,M,10.00,M,CLR,M,M,M,M,M,M,M,M,M,M,M,M,M,M,97.00,KBVU 281755Z AUTO 13008KT 10SM CLR 38/09 A3003 RMK AO2,M
HTH,2022-06-28 17:55,-118.6315,38.5448,1282.89,87.80,23.00,9.39,M,5.00,0.00,30.19,M,10.00,10.00,CLR,M,M,M,M,M,M,M,M,M,M,M,M,M,M,83.43,KHTH 281755Z AUTO VRB05G10KT 10SM CLR 31/M05 A3019 RMK A01,M
RTS,2022-06-28 17:55,-119.8764,39.6682,1539.00,M,M,M,M,M,0.00,M,M,M,M,M,M,M,M,M,M,M,M,M,M,M,M,M,M,M,M,KRTS 281755Z AUTO RMK AO2 PNO PWINO,M
NFL,2022-06-28 17:56,-118.7010,39.4166,1199.00,89.00,9.00,4.90,280.00,4.00,0.00,30.16,1017.90,10.00,M,CLR,M,M,M,M,M,M,M,M,M,M,M,M,M,M,83.77,KNFL 281756Z 28004KT 10SM CLR 32/M13 A3016 RMK AO2 SLP179 T03171128 10322 20122 58010,M
EKO,2022-06-28 17:56,-115.7860,40.8242,1367.00,89.00,26.10,10.25,240.00,12.00,0.00,30.22,1016.20,10.00,17.00,CLR,M,M,M,M,M,M,M,M,M,M,M,M,M,M,84.60,KEKO 281756Z AUTO 24012G17KT 10SM CLR 32/M03 A3022 RMK AO2 SLP162 T03171033 10317 20172 56007,M
HND,2022-06-28 17:56,-115.1344,35.9729,742.79,103.00,46.00,14.76,100.00,6.00,0.00,30.07,1015.80,10.00,M,CLR,M,M,M,M,M,M,M,M,M,M,M,M,M,M,99.04,KHND 281756Z 10006KT 10SM CLR 39/08 A3007 RMK AO2 SLP158 T03940078 10394 20306 58005,M
LAS,2022-06-28 17:56,-115.1634,36.0719,663.00,101.00,46.00,15.67,90.00,8.00,0.00,30.03,1013.70,10.00,M,FEW,M,M,M,12000.00,M,M,M,M,M,M,M,M,M,M,97.06,KLAS 281756Z 09008KT 10SM FEW120 38/08 A3003 RMK AO2 SLP137 T03830078 10389 20306 58004,M
WMC,2022-06-28 17:56,-117.8072,40.9019,1315.00,90.00,21.00,8.05,240.00,14.00,0.00,30.17,1015.50,10.00,21.00,CLR,M,M,M,M,M,M,M,M,M,M,M,27.00,220.00,2022-06-28 17:17,84.92,KWMC 281756Z AUTO 24014G21KT 10SM CLR 32/M06 A3017 RMK AO2 PK WND 22027/1717 SLP155 T03221061 10333 20128 58008,M
INS,2022-06-28 17:58,-115.6733,36.5872,955.00,98.00,38.70,12.96,100.00,3.00,0.00,30.08,1012.90,10.00,M,CLR,M,M,M,M,M,M,M,M,M,M,M,M,M,M,93.20,KINS 281758Z AUTO 10003KT 10SM CLR 37/04 A3008 RMK AO2 SLP129 T03660037 10366 20232 57008 $,M
LSV,2022-06-28 17:58,-115.0343,36.2362,570.00,106.20,50.50,15.84,80.00,7.00,0.00,30.00,M,10.00,M,CLR,M,M,M,M,M,M,M,M,M,M,M,M,M,M,103.55,KLSV 281758Z AUTO 08007KT 10SM CLR 41/10 A3000 RMK AO2 SLPNO T04120103 10412 20287 57006 $,M
RTS,2022-06-28 18:15,-119.8764,39.6682,1539.00,M,M,M,M,M,0.00,M,M,M,M,M,M,M,M,M,M,M,M,M,M,M,M,M,M,M,M,KRTS 281815Z AUTO RMK AO2 PNO PWINO,M
BAM,2022-06-28 18:15,-116.8743,40.5990,1382.36,M,M,M,260.00,10.00,0.00,30.20,M,10.00,15.00,CLR,M,M,M,M,M,M,M,M,M,M,M,M,M,M,M,KBAM 281815Z AUTO 26010G15KT 10SM CLR A3020 RMK AO1,M
HTH,2022-06-28 18:15,-118.6315,38.5448,1282.89,87.80,23.00,9.39,30.00,5.00,0.00,30.18,M,10.00,M,CLR,M,M,M,M,M,M,M,M,M,M,M,M,M,M,83.43,KHTH 281815Z AUTO 03005KT 10SM CLR 31/M05 A3018 RMK A01,M
TMT,2022-06-28 18:15,-117.1971,39.4643,1749.34,M,M,M,210.00,7.00,0.00,30.30,M,10.00,M,CLR,M,M,M,M,M,M,M,M,M,M,M,M,M,M,M,KTMT 281815Z AUTO 21007KT 10SM CLR A3030 RMK AO2,M
MEV,2022-06-28 18:15,-119.7500,38.9963,1441.42,87.80,21.20,8.70,270.00,9.00,0.00,30.21,M,10.00,M,CLR,M,M,M,M,M,M,M,M,M,M,M,M,M,M,83.33,KMEV 281815Z AUTO 27009KT 10SM CLR 31/M06 A3021 RMK AO2,M
BVU,2022-06-28 18:15,-114.8611,35.9475,671.00,100.40,46.40,16.15,0.00,0.00,0.00,30.03,M,10.00,15.00,CLR,M,M,M,M,M,M,M,M,M,M,M,M,M,M,96.63,KBVU 281815Z AUTO 00000G15KT 10SM CLR 38/08 A3003 RMK AO2,M
RTS,2022-06-28 18:35,-119.8764,39.6682,1539.00,M,M,M,M,M,0.00,M,M,M,M,M,M,M,M,M,M,M,M,M,M,M,M,M,M,M,M,KRTS 281835Z AUTO RMK AO2 PNO PWINO,M
BAM,2022-06-28 18:35,-116.8743,40.5990,1382.36,M,M,M,220.00,8.00,0.00,30.20,M,10.00,22.00,CLR,M,M,M,M,M,M,M,M,M,M,M,M,M,M,M,KBAM 281835Z AUTO 22008G22KT 10SM CLR A3020 RMK AO1,M
HTH,2022-06-28 18:35,-118.6315,38.5448,1282.89,89.60,23.00,8.87,M,4.00,0.00,30.17,M,10.00,M,CLR,M,M,M,M,M,M,M,M,M,M,M,M,M,M,84.75,KHTH 281835Z AUTO VRB04KT 10SM CLR 32/M05 A3017 RMK A01,M
TMT,2022-06-28 18:35,-117.1971,39.4643,1749.34,84.20,27.00,12.44,240.00,5.00,0.00,30.30,M,10.00,M,CLR,M,M,M,M,M,M,M,M,M,M,M,M,M,M,81.16,KTMT 281835Z AUTO 24005KT 10SM CLR 29/M03 A3030 RMK AO2 T02901028,M
BVU,2022-06-28 18:35,-114.8611,35.9475,671.00,102.20,46.40,15.30,200.00,8.00,0.00,30.02,M,10.00,14.00,CLR,M,M,M,M,M,M,M,M,M,M,M,M,M,M,98.43,KBVU 281835Z AUTO 20008G14KT 10SM CLR 39/08 A3002 RMK AO2,M
MEV,2022-06-28 18:35,-119.7500,38.9963,1441.42,89.60,23.00,8.87,250.00,8.00,0.00,30.21,M,10.00,13.00,CLR,M,M,M,M,M,M,M,M,M,M,M,M,M,M,84.75,KMEV 281835Z AUTO 25008G13KT 10SM CLR 32/M05 A3021 RMK AO2,M
VGT,2022-06-28 18:53,-115.1933,36.2111,667.00,104.00,46.00,14.28,130.00,4.00,0.00,30.01,1014.40,10.00,M,CLR,M,M,M,M,M,M,M,M,M,M,M,M,M,M,100.12,KVGT 281853Z 13004KT 10SM CLR 40/08 A3001 RMK AO2 SLP144 T04000078,M
ELY,2022-06-28 18:53,-114.8453,39.2950,1909.00,89.00,30.00,12.03,230.00,16.00,0.00,30.29,1014.10,9.00,28.00,CLR,M,M,M,M,M,M,M,M,M,M,M,29.00,220.00,2022-06-28 18:18,84.95,KELY 281853Z AUTO 23016G28KT 9SM CLR 32/M01 A3029 RMK AO2 PK WND 22029/1818 SLP141 T03171011,M
DRA,2022-06-28 18:53,-116.0278,36.6206,1009.00,101.00,38.00,11.47,M,M,0.00,30.08,1012.50,10.00,M,CLR,M,M,M,M,M,M,M,M,M,M,M,M,M,M,95.60,KDRA 281853Z AUTO 10SM CLR 38/03 A3008 RMK AO2 SLP125 T03830033,M
P68,2022-06-28 18:53,-116.0056,39.6014,1993.00,87.00,26.10,10.92,0.00,0.00,0.00,30.26,1015.40,M,M,M,M,M,M,M,M,M,M,M,M,M,M,M,M,M,83.14,KP68 281853Z AUTO 00000KT 31/M03 A3026 RMK AO1 SLP154 T03061033,M
LOL,2022-06-28 18:53,-118.5701,40.0684,1192.43,93.00,12.00,4.96,180.00,17.00,0.00,30.14,1015.30,10.00,24.00,CLR,M,M,M,M,M,M,M,M,M,M,M,M,M,M,86.68,KLOL 281853Z AUTO 18017G24KT 10SM CLR 34/M11 A3014 RMK AO2 SLP153 T03391111,M
TMT,2022-06-28 18:55,-117.1971,39.4643,1749.34,86.20,27.50,11.91,220.00,6.00,0.00,30.29,M,10.00,M,CLR,M,M,M,M,M,M,M,M,M,M,M,M,M,M,82.61,KTMT 281855Z AUTO 22006KT 10SM CLR 30/M02 A3029 RMK AO2 T03011025,M
BVU,2022-06-28 18:55,-114.8611,35.9475,671.00,104.00,46.40,14.50,180.00,7.00,0.00,30.02,M,10.00,12.00,CLR,M,M,M,M,M,M,M,M,M,M,M,M,M,M,100.21,KBVU 281855Z AUTO 18007G12KT 140V200 10SM CLR 40/08 A3002 RMK AO2,M
MEV,2022-06-28 18:55,-119.7500,38.9963,1441.42,89.60,23.00,8.87,230.00,8.00,0.00,30.21,M,10.00,M,CLR,M,M,M,M,M,M,M,M,M,M,M,M,M,M,84.75,KMEV 281855Z AUTO 23008KT 200V280 10SM CLR 32/M05 A3021 RMK AO2,M
RTS,2022-06-28 18:55,-119.8764,39.6682,1539.00,M,M,M,M,M,0.00,M,M,M,M,M,M,M,M,M,M,M,M,M,M,M,M,M,M,M,M,KRTS 281855Z AUTO RMK AO2 PNO PWINO,M
BAM,2022-06-28 18:55,-116.8743,40.5990,1382.36,M,M,M,270.00,11.00,0.00,30.19,M,10.00,16.00,CLR,M,M,M,M,M,M,M,M,M,M,M,M,M,M,M,KBAM 281855Z AUTO 27011G16KT 10SM CLR A3019 RMK AO1,M
HTH,2022-06-28 18:55,-118.6315,38.5448,1282.89,91.40,23.00,8.38,M,4.00,0.00,30.16,M,10.00,M,CLR,M,M,M,M,M,M,M,M,M,M,M,M,M,M,86.08,KHTH 281855Z AUTO VRB04KT 10SM CLR 33/M05 A3016 RMK A01,M
RNO,2022-06-28 18:55,-119.7711,39.4839,1341.00,92.00,24.10,8.64,190.00,9.00,0.00,30.17,1015.00,10.00,M,FEW,M,M,M,9000.00,M,M,M,M,M,M,M,M,M,M,86.53,KRNO 281855Z 19009KT 10SM FEW090 33/M04 A3017 RMK AO2 SLP150 T03331044,M
EKO,2022-06-28 18:56,-115.7860,40.8242,1367.00,91.00,26.10,9.66,250.00,12.00,0.00,30.20,1015.90,10.00,20.00,CLR,M,M,M,M,M,M,M,M,M,M,M,M,M,M,86.02,KEKO 281856Z AUTO 25012G20KT 10SM CLR 33/M03 A3020 RMK AO2 SLP159 T03281033,M
WMC,2022-06-28 18:56,-117.8072,40.9019,1315.00,93.00,19.00,6.73,250.00,14.00,0.00,30.15,1014.80,10.00,26.00,CLR,M,M,M,M,M,M,M,M,M,M,M,26.00,260.00,2022-06-28 18:50,87.01,KWMC 281856Z AUTO 25014G26KT 10SM CLR 34/M07 A3015 RMK AO2 PK WND 26026/1850 SLP148 T03391072,M
NFL,2022-06-28 18:56,-118.7010,39.4166,1199.00,91.00,15.10,6.05,270.00,3.00,0.00,30.15,1017.30,10.00,M,FEW,M,M,M,10000.00,M,M,M,M,M,M,M,M,M,M,85.36,KNFL 281856Z 27003KT 10SM FEW100 33/M09 A3015 RMK AO2 SLP173 T03281094,M
LAS,2022-06-28 18:56,-115.1634,36.0719,663.00,103.00,46.00,14.76,70.00,8.00,0.00,30.02,1013.10,10.00,M,FEW,M,M,M,12000.00,M,M,M,M,M,M,M,M,M,M,99.04,KLAS 281856Z 07008KT 10SM FEW120 39/08 A3002 RMK AO2 SLP131 T03940078,M
HND,2022-06-28 18:56,-115.1344,35.9729,742.79,103.00,47.00,15.27,0.00,0.00,0.00,30.05,1015.30,10.00,M,CLR,M,M,M,M,M,M,M,M,M,M,M,M,M,M,99.23,KHND 281856Z 00000KT 10SM CLR 39/08 A3005 RMK AO2 SLP153 T03940083,M
LSV,2022-06-28 18:58,-115.0343,36.2362,570.00,107.60,48.20,13.95,110.00,4.00,0.00,29.98,M,10.00,M,CLR,M,M,M,M,M,M,M,M,M,M,M,M,M,M,104.23,KLSV 281858Z AUTO 11004KT 10SM CLR 42/09 A2998 RMK AO2 SLPNO T04200090 $,M
INS,2022-06-28 18:58,-115.6733,36.5872,955.00,97.30,38.30,12.99,0.00,0.00,0.00,30.07,1012.50,10.00,M,BKN,OVC,M,M,14000.00,16000.00,M,M,M,M,M,M,M,M,M,92.62,KINS 281858Z AUTO 00000KT 10SM BKN140 OVC160 36/04 A3007 RMK AO2 SLP125 T03630035 $,M
BVU,2022-06-28 19:15,-114.8611,35.9475,671.00,104.00,46.40,14.50,210.00,9.00,0.00,30.01,M,10.00,18.00,CLR,M,M,M,M,M,M,M,M,M,M,M,M,M,M,100.21,KBVU 281915Z AUTO 21009G18KT 10SM CLR 40/08 A3001 RMK AO2,M
TMT,2022-06-28 19:15,-117.1971,39.4643,1749.34,M,M,M,290.00,3.00,0.00,30.28,M,10.00,M,CLR,M,M,M,M,M,M,M,M,M,M,M,M,M,M,M,KTMT 281915Z AUTO 29003KT 10SM CLR A3028 RMK AO2,M
RTS,2022-06-28 19:15,-119.8764,39.6682,1539.00,M,M,M,M,M,0.00,M,M,M,M,M,M,M,M,M,M,M,M,M,M,M,M,M,M,M,M,KRTS 281915Z AUTO RMK AO2 PNO PWINO,M
MEV,2022-06-28 19:15,-119.7500,38.9963,1441.42,89.60,24.80,9.56,250.00,7.00,0.00,30.20,M,10.00,13.00,CLR,M,M,M,M,M,M,M,M,M,M,M,M,M,M,84.88,KMEV 281915Z AUTO 25007G13KT 10SM CLR 32/M04 A3020 RMK AO2,M
BAM,2022-06-28 19:15,-116.8743,40.5990,1382.36,M,M,M,250.00,14.00,0.00,30.19,M,10.00,20.00,CLR,M,M,M,M,M,M,M,M,M,M,M,M,M,M,M,KBAM 281915Z AUTO 25014G20KT 10SM CLR A3019 RMK AO1,M
HTH,2022-06-28 19:15,-118.6315,38.5448,1282.89,91.40,24.80,9.04,10.00,9.00,0.00,30.14,M,10.00,18.00,CLR,M,M,M,M,M,M,M,M,M,M,M,M,M,M,86.21,KHTH 281915Z AUTO 01009G18KT 320V040 10SM CLR 33/M04 A3014 RMK A01,M
RNO,2022-06-28 19:27,-119.7711,39.4839,1341.00,93.00,26.10,9.07,190.00,16.00,0.00,30.17,M,10.00,25.00,FEW,M,M,M,9000.00,M,M,M,M,M,M,M,M,M,M,87.52,KRNO 281927Z 19016G25KT 10SM FEW090 34/M03 A3017 RMK AO2 WSHFT 1911 T03391033,M
TMT,2022-06-28 19:35,-117.1971,39.4643,1749.34,M,M,M,260.00,9.00,0.00,30.27,M,10.00,M,CLR,M,M,M,M,M,M,M,M,M,M,M,M,M,M,M,KTMT 281935Z AUTO 26009KT 10SM CLR A3027 RMK AO2,M
BVU,2022-06-28 19:35,-114.8611,35.9475,671.00,104.00,46.40,14.50,150.00,14.00,0.00,30.00,M,10.00,M,CLR,M,M,M,M,M,M,M,M,M,M,M,M,M,M,100.21,KBVU 281935Z AUTO 15014KT 10SM CLR 40/08 A3000 RMK AO2,M
RTS,2022-06-28 19:35,-119.8764,39.6682,1539.00,M,M,M,M,M,0.00,M,M,M,M,M,M,M,M,M,M,M,M,M,M,M,M,M,M,M,M,KRTS 281935Z AUTO RMK AO2 PNO PWINO,M
MEV,2022-06-28 19:35,-119.7500,38.9963,1441.42,89.60,23.00,8.87,200.00,11.00,0.00,30.19,M,10.00,19.00,CLR,M,M,M,M,M,M,M,M,M,M,M,M,M,M,84.75,KMEV 281935Z AUTO 20011G19KT 10SM CLR 32/M05 A3019 RMK AO2,M
BAM,2022-06-28 19:35,-116.8743,40.5990,1382.36,M,M,M,270.00,15.00,0.00,30.18,M,10.00,22.00,CLR,M,M,M,M,M,M,M,M,M,M,M,M,M,M,M,KBAM 281935Z AUTO 27015G22KT 200V280 10SM CLR A3018 RMK AO1,M
HTH,2022-06-28 19:35,-118.6315,38.5448,1282.89,91.40,24.80,9.04,290.00,6.00,0.00,30.13,M,10.00,M,CLR,M,M,M,M,M,M,M,M,M,M,M,M,M,M,86.21,KHTH 281935Z AUTO 29006KT 10SM CLR 33/M04 A3013 RMK A01,M
VGT,2022-06-28 19:53,-115.1933,36.2111,667.00,107.00,46.00,13.03,140.00,10.00,0.00,29.98,1013.40,10.00,17.00,CLR,M,M,M,M,M,M,M,M,M,M,M,M,M,M,103.13,KVGT 281953Z 14010G17KT 10SM CLR 42/08 A2998 RMK AO2 SLP134 T04170078,M
LOL,2022-06-28 19:53,-118.5701,40.0684,1192.43,95.00,12.00,4.66,220.00,11.00,0.00,30.11,1014.80,10.00,23.00,CLR,M,M,M,M,M,M,M,M,M,M,M,M,M,M,88.11,KLOL 281953Z AUTO 22011G23KT 190V250 10SM CLR 35/M11 A3011 RMK AO2 SLP148 T03501111,M
DRA,2022-06-28 19:53,-116.0278,36.6206,1009.00,104.00,38.00,10.45,240.00,13.00,0.00,30.06,1011.70,10.00,20.00,CLR,M,M,M,M,M,M,M,M,M,M,M,26.00,200.00,2022-06-28 19:29,98.29,KDRA 281953Z AUTO 24013G20KT 10SM CLR 40/03 A3006 RMK AO2 PK WND 20026/1929 SLP117 T04000033,M
ELY,2022-06-28 19:53,-114.8453,39.2950,1909.00,87.00,28.00,11.81,190.00,11.00,0.00,30.27,1013.30,10.00,25.00,FEW,M,M,M,12000.00,M,M,M,M,M,M,M,28.00,220.00,2022-06-28 18:54,83.29,KELY 281953Z AUTO 19011G25KT 10SM FEW120 31/M02 A3027 RMK AO2 PK WND 22028/1854 SLP133 T03061022,M
P68,2022-06-28 19:53,-116.0056,39.6014,1993.00,92.00,25.00,8.97,310.00,12.00,0.00,30.23,1013.30,M,19.00,M,M,M,M,M,M,M,M,M,M,M,M,M,M,M,86.60,KP68 281953Z AUTO 31012G19KT 33/M04 A3023 RMK AO1 SLP133 T03331039,M
TMT,2022-06-28 19:55,-117.1971,39.4643,1749.34,M,M,M,200.00,8.00,0.00,30.25,M,10.00,M,CLR,M,M,M,M,M,M,M,M,M,M,M,M,M,M,M,KTMT 281955Z AUTO 20008KT 10SM CLR A3025 RMK AO2,M
MEV,2022-06-28 19:55,-119.7500,38.9963,1441.42,91.40,23.00,8.38,230.00,19.00,0.00,30.19,M,10.00,26.00,CLR,M,M,M,M,M,M,M,M,M,M,M,M,M,M,86.08,KMEV 281955Z AUTO 23019G26KT 10SM CLR 33/M05 A3019 RMK AO2,M
RTS,2022-06-28 19:55,-119.8764,39.6682,1539.00,M,M,M,M,M,0.00,M,M,M,M,M,M,M,M,M,M,M,M,M,M,M,M,M,M,M,M,KRTS 281955Z AUTO RMK AO2 PNO PWINO,M
HTH,2022-06-28 19:55,-118.6315,38.5448,1282.89,93.20,24.80,8.54,330.00,9.00,0.00,30.12,M,10.00,16.00,CLR,M,M,M,M,M,M,M,M,M,M,M,M,M,M,87.56,KHTH 281955Z AUTO 33009G16KT 10SM CLR 34/M04 A3012 RMK A01,M
BAM,2022-06-28 19:55,-116.8743,40.5990,1382.36,M,M,M,230.00,11.00,0.00,30.17,M,10.00,19.00,CLR,M,M,M,M,M,M,M,M,M,M,M,M,M,M,M,KBAM 281955Z AUTO 23011G19KT 10SM CLR A3017 RMK AO1,M
RNO,2022-06-28 19:55,-119.7711,39.4839,1341.00,94.00,26.10,8.82,220.00,13.00,0.00,30.16,1014.80,10.00,24.00,FEW,M,M,M,9000.00,M,M,M,M,M,M,M,29.00,210.00,2022-06-28 19:44,88.20,KRNO 281955Z 22013G24KT 10SM FEW090 34/M03 A3016 RMK AO2 PK WND 21029/1944 WSHFT 1911 SLP148 T03441033,M
BVU,2022-06-28 19:55,-114.8611,35.9475,671.00,105.80,46.40,13.75,170.00,10.00,0.00,29.99,M,10.00,M,CLR,M,M,M,M,M,M,M,M,M,M,M,M,M,M,101.97,KBVU 281955Z AUTO 17010KT 10SM CLR 41/08 A2999 RMK AO2,M
WMC,2022-06-28 19:56,-117.8072,40.9019,1315.00,94.00,17.10,6.03,230.00,16.00,0.00,30.12,1013.80,10.00,27.00,CLR,M,M,M,M,M,M,M,M,M,M,M,27.00,230.00,2022-06-28 19:29,87.56,KWMC 281956Z AUTO 23016G27KT 10SM CLR 34/M08 A3012 RMK AO2 PK WND 23027/1929 SLP138 T03441083,M
EKO,2022-06-28 19:56,-115.7860,40.8242,1367.00,93.00,25.00,8.67,230.00,11.00,0.00,30.18,1014.80,10.00,24.00,CLR,M,M,M,M,M,M,M,M,M,M,M,M,M,M,87.43,KEKO 281956Z AUTO 23011G24KT 10SM CLR 34/M04 A3018 RMK AO2 SLP148 T03391039,M
HND,2022-06-28 19:56,-115.1344,35.9729,742.79,106.00,49.00,15.01,160.00,8.00,0.00,30.02,1014.20,10.00,M,CLR,M,M,M,M,M,M,M,M,M,M,M,M,M,M,102.85,KHND 281956Z 16008KT 100V190 10SM CLR 41/09 A3002 RMK AO2 SLP142 T04110094,M
LAS,2022-06-28 19:56,-115.1634,36.0719,663.00,105.00,45.00,13.31,80.00,7.00,0.00,29.98,1012.00,10.00,14.00,FEW,M,M,M,12000.00,M,M,M,M,M,M,M,M,M,M,100.97,KLAS 281956Z 08007G14KT 360V130 10SM FEW120 41/07 A2998 RMK AO2 SLP120 CB DSNT NW T04060072,M
NFL,2022-06-28 19:56,-118.7010,39.4166,1199.00,96.00,19.00,6.11,190.00,16.00,0.00,30.10,1016.10,10.00,23.00,SCT,SCT,M,M,8000.00,12000.00,M,M,M,M,M,M,M,M,M,89.38,KNFL 281956Z 19016G23KT 10SM SCT080 SCT120 36/M07 A3010 RMK AO2 SLP161 T03561072,M
INS,2022-06-28 19:58,-115.6733,36.5872,955.00,98.60,37.20,11.96,160.00,9.00,0.00,30.05,1011.90,10.00,M,BKN,OVC,M,M,14000.00,17000.00,M,M,M,M,M,M,M,M,M,93.51,KINS 281958Z AUTO 16009KT 10SM BKN140 OVC170 37/03 A3005 RMK AO2 SLP119 T03700029 $,M
LSV,2022-06-28 19:58,-115.0343,36.2362,570.00,108.50,46.80,12.89,90.00,9.00,0.00,29.95,M,10.00,M,CLR,M,M,M,M,M,M,M,M,M,M,M,M,M,M,104.67,KLSV 281958Z AUTO 09009KT 10SM CLR 43/08 A2995 RMK AO2 SLPNO T04250082 $,M
BVU,2022-06-28 20:15,-114.8611,35.9475,671.00,102.20,46.40,15.30,M,3.00,0.00,29.98,M,10.00,16.00,CLR,M,M,M,M,M,M,M,M,M,M,M,M,M,M,98.43,KBVU 282015Z AUTO VRB03G16KT 10SM CLR 39/08 A2998 RMK AO2,M
HTH,2022-06-28 20:15,-118.6315,38.5448,1282.89,93.20,24.80,8.54,340.00,9.00,0.00,30.11,M,10.00,M,CLR,M,M,M,M,M,M,M,M,M,M,M,M,M,M,87.56,KHTH 282015Z AUTO 34009KT 10SM CLR 34/M04 A3011 RMK A01,M
MEV,2022-06-28 20:15,-119.7500,38.9963,1441.42,91.40,23.00,8.38,220.00,14.00,0.00,30.18,M,10.00,25.00,CLR,M,M,M,M,M,M,M,M,M,M,M,M,M,M,86.08,KMEV 282015Z AUTO 22014G25KT 10SM CLR 33/M05 A3018 RMK AO2,M
TMT,2022-06-28 20:15,-117.1971,39.4643,1749.34,M,M,M,0.00,0.00,0.00,30.24,M,10.00,M,CLR,M,M,M,M,M,M,M,M,M,M,M,M,M,M,M,KTMT 282015Z AUTO 00000KT 10SM CLR A3024 RMK AO2,M
RTS,2022-06-28 20:15,-119.8764,39.6682,1539.00,M,M,M,M,M,0.00,M,M,M,M,M,M,M,M,M,M,M,M,M,M,M,M,M,M,M,M,KRTS 282015Z AUTO RMK AO2 PNO PWINO,M
BAM,2022-06-28 20:15,-116.8743,40.5990,1382.36,M,M,M,220.00,13.00,0.00,30.16,M,10.00,21.00,CLR,M,M,M,M,M,M,M,M,M,M,M,M,M,M,M,KBAM 282015Z AUTO 22013G21KT 10SM CLR A3016 RMK AO1,M
RTS,2022-06-28 20:35,-119.8764,39.6682,1539.00,M,M,M,M,M,0.00,M,M,M,M,M,M,M,M,M,M,M,M,M,M,M,M,M,M,M,M,KRTS 282035Z AUTO RMK AO2 PNO PWINO,M
BVU,2022-06-28 20:35,-114.8611,35.9475,671.00,104.00,46.40,14.50,140.00,6.00,0.00,29.97,M,10.00,15.00,CLR,M,M,M,M,M,M,M,M,M,M,M,M,M,M,100.21,KBVU 282035Z AUTO 14006G15KT 10SM CLR 40/08 A2997 RMK AO2,M
MEV,2022-06-28 20:35,-119.7500,38.9963,1441.42,91.40,23.00,8.38,220.00,12.00,0.00,30.17,M,10.00,18.00,CLR,M,M,M,M,M,M,M,M,M,M,M,M,M,M,86.08,KMEV 282035Z AUTO 22012G18KT 10SM CLR 33/M05 A3017 RMK AO2,M
BAM,2022-06-28 20:35,-116.8743,40.5990,1382.36,M,M,M,230.00,12.00,0.00,30.15,M,10.00,21.00,CLR,M,M,M,M,M,M,M,M,M,M,M,M,M,M,M,KBAM 282035Z AUTO 23012G21KT 10SM CLR A3015 RMK AO1,M
HTH,2022-06-28 20:35,-118.6315,38.5448,1282.89,95.00,24.80,8.08,320.00,8.00,0.00,30.10,M,10.00,M,CLR,M,M,M,M,M,M,M,M,M,M,M,M,M,M,88.91,KHTH 282035Z AUTO 32008KT 10SM CLR 35/M04 A3010 RMK A01,M
TMT,2022-06-28 20:35,-117.1971,39.4643,1749.34,M,M,M,280.00,13.00,0.00,30.22,M,10.00,M,CLR,M,M,M,M,M,M,M,M,M,M,M,M,M,M,M,KTMT 282035Z AUTO 28013KT 10SM CLR A3022 RMK AO2,M
P68,2022-06-28 20:53,-116.0056,39.6014,1993.00,89.00,25.00,9.79,230.00,9.00,0.00,30.20,1013.00,M,18.00,M,M,M,M,M,M,M,M,M,M,M,M,M,M,M,84.52,KP68 282053Z AUTO 23009G18KT 32/M04 A3020 RMK AO1 SLP130 T03171039 58022,M
LOL,2022-06-28 20:53,-118.5701,40.0684,1192.43,96.00,15.10,5.17,210.00,11.00,0.00,30.07,1013.60,10.00,20.00,CLR,M,M,M,M,M,M,M,M,M,M,M,29.00,180.00,2022-06-28 20:10,89.16,KLOL 282053Z AUTO 21011G20KT 170V240 10SM CLR 36/M09 A3007 RMK AO2 PK WND 18029/2010 SLP136 6//// T03561094 58027,M
VGT,2022-06-28 20:53,-115.1933,36.2111,667.00,108.00,45.00,12.22,150.00,14.00,0.00,29.95,1012.30,10.00,21.00,CLR,M,M,M,M,M,M,M,M,M,M,M,M,M,M,103.63,KVGT 282053Z 15014G21KT 10SM CLR 42/07 A2995 RMK AO2 SLP123 T04220072 58025,M
DRA,2022-06-28 20:53,-116.0278,36.6206,1009.00,104.00,37.00,10.09,240.00,15.00,0.00,30.03,1010.70,10.00,24.00,CLR,M,M,M,M,M,M,M,M,M,M,M,M,M,M,98.11,KDRA 282053Z AUTO 24015G24KT 10SM CLR 40/03 A3003 RMK AO2 SLP107 T04000028 58020,M
ELY,2022-06-28 20:53,-114.8453,39.2950,1909.00,90.00,32.00,12.68,210.00,21.00,0.00,30.25,1012.70,6.00,32.00,CLR,M,M,M,M,M,M,M,HZ,M,M,M,32.00,240.00,2022-06-28 20:46,85.84,KELY 282053Z AUTO 21021G32KT 6SM HZ CLR 32/00 A3025 RMK AO2 PK WND 24032/2046 SLP127 T03220000 56018,M
HTH,2022-06-28 20:55,-118.6315,38.5448,1282.89,96.80,24.80,7.65,270.00,7.00,0.00,30.09,M,10.00,18.00,CLR,M,M,M,M,M,M,M,M,M,M,M,M,M,M,90.40,KHTH 282055Z AUTO 27007G18KT 210V300 10SM CLR 36/M04 A3009 RMK A01,M
BVU,2022-06-28 20:55,-114.8611,35.9475,671.00,105.80,44.60,12.84,140.00,9.00,0.00,29.95,M,10.00,14.00,CLR,M,M,M,M,M,M,M,M,M,M,M,M,M,M,101.53,KBVU 282055Z AUTO 14009G14KT 110V170 10SM CLR 41/07 A2995 RMK AO2,M
RNO,2022-06-28 20:55,-119.7711,39.4839,1341.00,93.00,28.90,10.18,270.00,12.00,0.00,30.14,1014.40,10.00,22.00,FEW,M,M,M,9000.00,M,M,M,M,M,M,M,26.00,210.00,2022-06-28 20:01,87.79,KRNO 282055Z 27012G22KT 240V300 10SM FEW090 34/M02 A3014 RMK AO2 PK WND 21026/2001 SLP144 T03391017 56016,M
TMT,2022-06-28 20:55,-117.1971,39.4643,1749.34,90.50,29.80,11.42,240.00,15.00,0.00,30.22,M,10.00,23.00,CLR,M,M,M,M,M,M,M,M,M,M,M,M,M,M,85.98,KTMT 282055Z AUTO 24015G23KT 10SM CLR 33/M01 A3022 RMK AO2 T03251012,M
RTS,2022-06-28 20:55,-119.8764,39.6682,1539.00,M,M,M,M,M,0.00,M,M,M,M,M,M,M,M,M,M,M,M,M,M,M,M,M,M,M,M,KRTS 282055Z AUTO RMK AO2 PNO PWINO,M
MEV,2022-06-28 20:55,-119.7500,38.9963,1441.42,91.40,24.80,9.04,220.00,13.00,0.00,30.17,M,10.00,24.00,CLR,M,M,M,M,M,M,M,M,M,M,M,M,M,M,86.21,KMEV 282055Z AUTO 22013G24KT 10SM CLR 33/M04 A3017 RMK AO2,M
BAM,2022-06-28 20:55,-116.8743,40.5990,1382.36,M,M,M,220.00,14.00,0.00,30.14,M,10.00,24.00,CLR,M,M,M,M,M,M,M,M,M,M,M,M,M,M,M,KBAM 282055Z AUTO 22014G24KT 10SM CLR A3014 RMK AO1,M
LAS,2022-06-28 20:56,-115.1634,36.0719,663.00,108.00,46.00,12.69,60.00,7.00,0.00,29.95,1010.70,10.00,15.00,SCT,SCT,M,M,12000.00,25000.00,M,M,M,M,M,M,M,M,M,103.95,KLAS 282056Z 06007G15KT 10SM SCT120 SCT250 42/08 A2995 RMK AO2 LTG DSNT SW SLP107 VIRGA DSNT S TCU DSNT SE-S T04220078 58026,M
EKO,2022-06-28 20:56,-115.7860,40.8242,1367.00,94.00,25.00,8.43,230.00,15.00,0.00,30.15,1014.30,10.00,27.00,CLR,M,M,M,M,M,M,M,M,M,M,M,27.00,240.00,2022-06-28 20:49,88.10,KEKO 282056Z AUTO 23015G27KT 10SM CLR 34/M04 A3015 RMK AO2 PK WND 24027/2049 SLP143 T03441039 58020,M
HND,2022-06-28 20:56,-115.1344,35.9729,742.79,105.00,50.00,16.06,M,3.00,0.00,29.99,1013.30,10.00,15.00,CLR,M,M,M,M,M,M,M,VCTS,M,M,M,M,M,M,102.27,KHND 282056Z VRB03G15KT 10SM VCTS CLR 41/10 A2999 RMK AO2 TSB55 SLP133 T04060100 58023,M
WMC,2022-06-28 20:56,-117.8072,40.9019,1315.00,94.00,14.00,5.27,250.00,13.00,0.00,30.10,1013.50,10.00,21.00,CLR,M,M,M,M,M,M,M,M,M,M,M,32.00,250.00,2022-06-28 20:03,87.41,KWMC 282056Z AUTO 25013G21KT 10SM CLR 34/M10 A3010 RMK AO2 PK WND 25032/2003 SLP135 T03441100 56020,M
NFL,2022-06-28 20:56,-118.7010,39.4166,1199.00,98.00,21.90,6.51,300.00,15.00,0.00,30.07,1015.10,10.00,24.00,CLR,M,M,M,M,M,M,M,M,M,M,M,M,M,M,91.25,KNFL 282056Z 30015G24KT 10SM CLR 37/M06 A3007 RMK AO2 SLP151 T03671056 58028,M
LSV,2022-06-28 20:58,-115.0343,36.2362,570.00,112.50,45.50,10.93,90.00,5.00,0.00,29.91,M,10.00,M,FEW,FEW,FEW,M,15000.00,18000.00,21000.00,M,M,M,M,M,M,M,M,107.97,KLSV 282058Z AUTO 09005KT 10SM FEW150 FEW180 FEW210 45/08 A2991 RMK AO2 SLPNO T04470075 57027 $,M
INS,2022-06-28 20:58,-115.6733,36.5872,955.00,98.80,37.20,11.89,120.00,13.00,0.00,30.03,1011.30,10.00,17.00,OVC,M,M,M,15000.00,M,M,M,M,M,M,M,29.00,130.00,2022-06-28 20:27,93.68,KINS 282058Z AUTO 12013G17KT 10SM OVC150 37/03 A3003 RMK AO2 PK WND 13029/27 SLP113 T03710029 57018 $,M
HTH,2022-06-28 21:15,-118.6315,38.5448,1282.89,96.80,24.80,7.65,310.00,9.00,0.00,30.07,M,10.00,M,CLR,M,M,M,M,M,M,M,M,M,M,M,M,M,M,90.40,KHTH 282115Z AUTO 31009KT 10SM CLR 36/M04 A3007 RMK A01,M
MEV,2022-06-28 21:15,-119.7500,38.9963,1441.42,91.40,26.60,9.74,260.00,16.00,0.00,30.17,M,10.00,23.00,CLR,M,M,M,M,M,M,M,M,M,M,M,M,M,M,86.36,KMEV 282115Z AUTO 26016G23KT 10SM CLR 33/M03 A3017 RMK AO2,M
RTS,2022-06-28 21:15,-119.8764,39.6682,1539.00,87.80,26.60,10.91,260.00,16.00,0.00,30.21,M,10.00,24.00,M,M,M,M,M,M,M,M,M,M,M,M,M,M,M,83.69,KRTS 282115Z AUTO 26016G24KT 10SM 31/M03 A3021 RMK AO2,M
HND,2022-06-28 21:15,-115.1344,35.9729,742.79,100.40,51.80,19.76,250.00,21.00,0.00,29.99,M,10.00,25.00,FEW,M,M,M,12000.00,M,M,M,M,M,M,M,M,M,M,97.90,KHND 282115Z 25021G25KT 10SM FEW120 38/11 A2999 RMK AO2 WSHFT 2101 TSE10,M
BVU,2022-06-28 21:15,-114.8611,35.9475,671.00,105.80,44.60,12.84,160.00,10.00,0.00,29.95,M,10.00,15.00,CLR,M,M,M,M,M,M,M,M,M,M,M,M,M,M,101.53,KBVU 282115Z AUTO 16010G15KT 130V190 10SM CLR 41/07 A2995 RMK AO2,M
TMT,2022-06-28 21:15,-117.1971,39.4643,1749.34,92.00,30.90,11.43,270.00,15.00,0.00,30.21,M,10.00,23.00,CLR,M,M,M,M,M,M,M,M,M,M,M,M,M,M,87.17,KTMT 282115Z AUTO 27015G23KT 10SM CLR 33/M01 A3021 RMK AO2 T03331006,M
BAM,2022-06-28 21:15,-116.8743,40.5990,1382.36,M,M,M,250.00,15.00,0.00,30.13,M,10.00,24.00,CLR,M,M,M,M,M,M,M,M,M,M,M,M,M,M,M,KBAM 282115Z AUTO 25015G24KT 10SM CLR A3013 RMK AO1,M
LAS,2022-06-28 21:20,-115.1634,36.0719,663.00,104.00,48.00,15.40,M,M,0.00,29.95,M,10.00,M,SCT,SCT,M,M,12000.00,25000.00,M,M,TS,M,M,M,M,M,M,100.60,KLAS 282120Z 10SM TS SCT120CB SCT250 40/09 A2995 RMK AO2 TSB20 OCNL LTGICCG S-SW TS S-SW MOV N T04000089,M
LAS,2022-06-28 21:22,-115.1634,36.0719,663.00,103.00,49.00,16.46,140.00,5.00,0.00,29.95,M,10.00,M,SCT,SCT,M,M,12000.00,25000.00,M,M,TS,M,M,M,29.00,180.00,2022-06-28 21:22,99.71,KLAS 282122Z 14005KT 10SM TS SCT120CB SCT250 39/09 A2995 RMK AO2 PK WND 18029/2122 TSB20 OCNL LTGICCG S-SW TS S-SW MOV N T03940094,M
HND,2022-06-28 21:23,-115.1344,35.9729,742.79,98.60,53.60,22.29,240.00,13.00,0.00,29.99,M,10.00,M,FEW,M,M,M,12000.00,M,M,M,VCTS,M,M,M,M,M,M,96.51,KHND 282123Z 24013KT 10SM VCTS FEW120 37/12 A2999 RMK AO2 WSHFT 2101 TSE10B17,M
BVU,2022-06-28 21:35,-114.8611,35.9475,671.00,105.80,41.00,11.18,130.00,10.00,0.00,29.94,M,10.00,16.00,CLR,M,M,M,M,M,M,M,M,M,M,M,M,M,M,100.56,KBVU 282135Z AUTO 13010G16KT 10SM CLR 41/05 A2994 RMK AO2,M
MEV,2022-06-28 21:35,-119.7500,38.9963,1441.42,93.20,26.60,9.21,240.00,12.00,0.00,30.17,M,10.00,21.00,CLR,M,M,M,M,M,M,M,M,M,M,M,M,M,M,87.72,KMEV 282135Z AUTO 24012G21KT 210V270 10SM CLR 34/M03 A3017 RMK AO2,M
TMT,2022-06-28 21:35,-117.1971,39.4643,1749.34,91.60,30.90,11.54,270.00,14.00,0.00,30.21,M,10.00,25.00,CLR,M,M,M,M,M,M,M,M,M,M,M,M,M,M,86.94,KTMT 282135Z AUTO 27014G25KT 10SM CLR 33/M01 A3021 RMK AO2 LTG DSNT SE T03311006,M
RTS,2022-06-28 21:35,-119.8764,39.6682,1539.00,87.80,24.80,10.12,270.00,20.00,0.00,30.21,M,10.00,29.00,CLR,M,M,M,M,M,M,M,M,M,M,M,M,M,M,83.56,KRTS 282135Z AUTO 27020G29KT 10SM CLR 31/M04 A3021 RMK AO2,M
HTH,2022-06-28 21:35,-118.6315,38.5448,1282.89,98.60,24.80,7.24,300.00,10.00,0.00,30.07,M,10.00,18.00,CLR,M,M,M,M,M,M,M,M,M,M,M,M,M,M,91.90,KHTH 282135Z AUTO 30010G18KT 10SM CLR 37/M04 A3007 RMK A01,M
BAM,2022-06-28 21:35,-116.8743,40.5990,1382.36,M,M,M,240.00,20.00,0.00,30.13,M,10.00,26.00,CLR,M,M,M,M,M,M,M,M,M,M,M,M,M,M,M,KBAM 282135Z AUTO 24020G26KT 10SM CLR A3013 RMK AO1,M
HND,2022-06-28 21:38,-115.1344,35.9729,742.79,98.60,53.60,22.29,260.00,11.00,0.00,29.99,M,10.00,M,CLR,M,M,M,M,M,M,M,M,M,M,M,M,M,M,96.51,KHND 282138Z 26011KT 10SM CLR 37/12 A2999 RMK AO2 WSHFT 2101 TSE10B17E32,M
LAS,2022-06-28 21:46,-115.1634,36.0719,663.00,105.00,49.00,15.42,220.00,15.00,0.00,29.94,M,10.00,24.00,SCT,SCT,M,M,12000.00,25000.00,M,M,M,M,M,M,37.00,190.00,2022-06-28 21:23,101.94,KLAS 282146Z 22015G24KT 10SM SCT120CB SCT250 41/09 A2994 RMK AO2 PK WND 19037/2123 TSB20E46 CBMAM OHD-S TS DSIPTD T04060094,M
ELY,2022-06-28 21:53,-114.8453,39.2950,1909.00,90.00,30.00,11.70,200.00,12.00,0.00,30.23,1011.80,10.00,21.00,CLR,M,M,M,M,M,M,M,M,M,M,M,27.00,170.00,2022-06-28 21:16,85.63,KELY 282153Z AUTO 20012G21KT 170V230 10SM CLR 32/M01 A3023 RMK AO2 PK WND 17027/2116 SLP118 T03221011,M
VGT,2022-06-28 21:53,-115.1933,36.2111,667.00,108.00,47.00,13.13,200.00,9.00,0.00,29.92,1011.40,10.00,18.00,CLR,M,M,M,M,M,M,M,M,M,M,M,M,M,M,104.23,KVGT 282153Z 20009G18KT 10SM CLR 42/08 A2992 RMK AO2 SLP114 T04220083,M
DRA,2022-06-28 21:53,-116.0278,36.6206,1009.00,106.00,35.00,8.82,220.00,14.00,0.00,30.02,1009.90,10.00,25.00,CLR,M,M,M,M,M,M,M,M,M,M,M,28.00,230.00,2022-06-28 21:18,99.50,KDRA 282153Z AUTO 22014G25KT 10SM CLR 41/02 A3002 RMK AO2 PK WND 23028/2118 SLP099 T04110017,M
P68,2022-06-28 21:53,-116.0056,39.6014,1993.00,90.00,25.00,9.52,290.00,5.00,0.00,30.18,1012.30,M,M,M,M,M,M,M,M,M,M,M,M,M,M,M,M,M,85.19,KP68 282153Z AUTO 29005KT 32/M04 A3018 RMK AO1 SLP123 T03221039,M
LOL,2022-06-28 21:53,-118.5701,40.0684,1192.43,98.00,18.00,5.51,200.00,14.00,0.00,30.05,1012.70,10.00,24.00,CLR,M,M,M,M,M,M,M,M,M,M,M,30.00,220.00,2022-06-28 21:30,90.98,KLOL 282153Z AUTO 20014G24KT 10SM CLR 37/M08 A3005 RMK AO2 PK WND 22030/2130 SLP127 T03671078,M
TMT,2022-06-28 21:55,-117.1971,39.4643,1749.34,91.40,30.90,11.61,270.00,12.00,0.00,30.20,M,10.00,22.00,CLR,M,M,M,M,M,M,M,M,M,M,M,M,M,M,86.79,KTMT 282155Z AUTO 27012G22KT 10SM CLR 33/M01 A3020 RMK AO2 T03301006,M
RTS,2022-06-28 21:55,-119.8764,39.6682,1539.00,86.00,26.60,11.55,250.00,14.00,0.00,30.21,M,10.00,24.00,CLR,M,M,M,M,M,M,M,M,M,M,M,M,M,M,82.39,KRTS 282155Z AUTO 25014G24KT 10SM CLR 30/M03 A3021 RMK AO2,M
MEV,2022-06-28 21:55,-119.7500,38.9963,1441.42,91.40,28.40,10.48,240.00,12.00,0.00,30.16,M,10.00,20.00,CLR,M,M,M,M,M,M,M,M,M,M,M,M,M,M,86.53,KMEV 282155Z AUTO 24012G20KT 10SM CLR 33/M02 A3016 RMK AO2,M
BAM,2022-06-28 21:55,-116.8743,40.5990,1382.36,M,M,M,250.00,16.00,0.00,30.12,M,10.00,24.00,CLR,M,M,M,M,M,M,M,M,M,M,M,M,M,M,M,KBAM 282155Z AUTO 25016G24KT 10SM CLR A3012 RMK AO1,M
RNO,2022-06-28 21:55,-119.7711,39.4839,1341.00,93.00,30.90,11.04,230.00,11.00,0.00,30.13,1014.10,10.00,23.00,FEW,M,M,M,9000.00,M,M,M,M,M,M,M,28.00,270.00,2022-06-28 21:28,88.02,KRNO 282155Z 23011G23KT 10SM FEW090 34/M01 A3013 RMK AO2 PK WND 27028/2128 SLP141 T03391006,M
BVU,2022-06-28 21:55,-114.8611,35.9475,671.00,105.80,42.80,11.98,150.00,11.00,0.00,29.94,M,10.00,16.00,CLR,M,M,M,M,M,M,M,M,M,M,M,M,M,M,101.02,KBVU 282155Z AUTO 15011G16KT 10SM CLR 41/06 A2994 RMK AO2,M
HTH,2022-06-28 21:55,-118.6315,38.5448,1282.89,98.60,24.80,7.24,230.00,12.00,0.00,30.06,M,10.00,18.00,CLR,M,M,M,M,M,M,M,M,M,M,M,M,M,M,91.90,KHTH 282155Z AUTO 23012G18KT 10SM CLR 37/M04 A3006 RMK A01,M
LAS,2022-06-28 21:56,-115.1634,36.0719,663.00,105.00,47.00,14.30,230.00,12.00,0.00,29.94,1010.60,10.00,20.00,SCT,SCT,M,M,12000.00,25000.00,M,M,M,M,M,M,37.00,190.00,2022-06-28 21:23,101.41,KLAS 282156Z 23012G20KT 10SM SCT120CB SCT250 41/08 A2994 RMK AO2 PK WND 19037/2123 TSB20E46 SLP106 CBMAM OHD-S TS DSIPTD T04060083,M
WMC,2022-06-28 21:56,-117.8072,40.9019,1315.00,95.00,10.90,4.44,250.00,11.00,0.00,30.08,1013.40,10.00,M,CLR,M,M,M,M,M,M,M,M,M,M,M,37.00,230.00,2022-06-28 21:38,88.06,KWMC 282156Z AUTO 25011KT 10SM CLR 35/M12 A3008 RMK AO2 PK WND 23037/2138 SLP134 T03501117,M
HND,2022-06-28 21:56,-115.1344,35.9729,742.79,97.00,55.00,24.63,260.00,10.00,0.00,29.99,1013.70,10.00,M,CLR,M,M,M,M,M,M,M,M,M,M,M,M,M,M,95.23,KHND 282156Z 26010KT 10SM CLR 36/13 A2999 RMK AO2 WSHFT 2101 TSE10B17E32 SLP137 T03610128,M
EKO,2022-06-28 21:56,-115.7860,40.8242,1367.00,95.00,26.10,8.53,240.00,20.00,0.00,30.13,1013.50,10.00,31.00,CLR,M,M,M,M,M,M,M,M,M,M,M,31.00,260.00,2022-06-28 21:07,89.03,KEKO 282156Z AUTO 24020G31KT 10SM CLR 35/M03 A3013 RMK AO2 PK WND 26031/2107 SLP135 T03501033,M
NFL,2022-06-28 21:56,-118.7010,39.4166,1199.00,101.00,25.00,6.81,240.00,19.00,0.00,30.05,1014.40,10.00,24.00,SCT,SCT,M,M,8000.00,12000.00,M,M,M,M,M,M,26.00,250.00,2022-06-28 21:42,93.84,KNFL 282156Z 24019G24KT 10SM SCT080 SCT120 38/M04 A3005 RMK AO2 PK WND 25026/2142 WSHFT 2044 SLP144 T03831039,M
LSV,2022-06-28 21:58,-115.0343,36.2362,570.00,109.80,47.80,12.89,130.00,11.00,0.00,29.89,M,10.00,M,SCT,M,M,M,13000.00,M,M,M,M,M,M,M,M,M,M,106.21,KLSV 282158Z AUTO 13011KT 10SM SCT130 43/09 A2989 RMK AO2 SLPNO T04320088 $,M
INS,2022-06-28 21:58,-115.6733,36.5872,955.00,101.30,37.00,10.94,130.00,8.00,0.00,30.01,1010.60,10.00,M,FEW,M,M,M,17000.00,M,M,M,M,M,M,M,M,M,M,95.77,KINS 282158Z AUTO 13008KT 10SM FEW170 39/03 A3001 RMK AO2 SLP106 T03850028 $,M
LSV,2022-06-28 22:04,-115.0343,36.2362,570.00,109.40,44.60,11.55,170.00,16.00,0.00,29.88,M,10.00,23.00,SCT,M,M,M,13000.00,M,M,M,M,M,M,M,M,M,M,104.78,KLSV 282204Z AUTO 17016G23KT 10SM SCT130 43/07 A2988 RMK AO2 WSHFT 2157 SLPNO $,M
LSV,2022-06-28 22:13,-115.0343,36.2362,570.00,109.40,46.40,12.37,210.00,19.00,0.00,29.88,M,10.00,23.00,FEW,M,M,M,13000.00,M,M,M,M,M,M,M,M,M,M,105.36,KLSV 282213Z AUTO 21019G23KT 10SM FEW130 43/08 A2988 RMK AO2 WSHFT 04 SLPNO $,M
RTS,2022-06-28 22:15,-119.8764,39.6682,1539.00,87.80,26.60,10.91,260.00,17.00,0.00,30.21,M,10.00,24.00,CLR,M,M,M,M,M,M,M,M,M,M,M,M,M,M,83.69,KRTS 282215Z AUTO 26017G24KT 10SM CLR 31/M03 A3021 RMK AO2,M
MEV,2022-06-28 22:15,-119.7500,38.9963,1441.42,91.40,28.40,10.48,220.00,11.00,0.00,30.16,M,10.00,17.00,CLR,M,M,M,M,M,M,M,M,M,M,M,M,M,M,86.53,KMEV 282215Z AUTO 22011G17KT 10SM CLR 33/M02 A3016 RMK AO2,M
BAM,2022-06-28 22:15,-116.8743,40.5990,1382.36,M,M,M,260.00,13.00,0.00,30.11,M,10.00,32.00,CLR,M,M,M,M,M,M,M,M,M,M,M,M,M,M,M,KBAM 282215Z AUTO 26013G32KT 10SM CLR A3011 RMK AO1,M
HTH,2022-06-28 22:15,-118.6315,38.5448,1282.89,100.40,23.00,6.36,210.00,18.00,0.00,30.05,M,10.00,24.00,CLR,M,M,M,M,M,M,M,M,M,M,M,M,M,M,93.25,KHTH 282215Z AUTO 21018G24KT 10SM CLR 38/M05 A3005 RMK A01,M
TMT,2022-06-28 22:15,-117.1971,39.4643,1749.34,92.50,31.10,11.31,260.00,18.00,0.00,30.19,M,10.00,24.00,CLR,M,M,M,M,M,M,M,M,M,M,M,M,M,M,87.65,KTMT 282215Z AUTO 26018G24KT 10SM CLR 34/00 A3019 RMK AO2 T03361005,M
BVU,2022-06-28 22:15,-114.8611,35.9475,671.00,105.80,42.80,11.98,140.00,13.00,0.00,29.93,M,10.00,M,CLR,M,M,M,M,M,M,M,M,M,M,M,M,M,M,101.02,KBVU 282215Z AUTO 14013KT 10SM CLR 41/06 A2993 RMK AO2,M
BVU,2022-06-28 22:35,-114.8611,35.9475,671.00,105.80,42.80,11.98,160.00,7.00,0.00,29.92,M,10.00,16.00,CLR,M,M,M,M,M,M,M,M,M,M,M,M,M,M,101.02,KBVU 282235Z AUTO 16007G16KT 10SM CLR 41/06 A2992 RMK AO2,M
RTS,2022-06-28 22:35,-119.8764,39.6682,1539.00,86.00,24.80,10.72,250.00,20.00,0.00,30.21,M,10.00,29.00,CLR,M,M,M,M,M,M,M,M,M,M,M,M,M,M,82.26,KRTS 282235Z AUTO 25020G29KT 10SM CLR 30/M04 A3021 RMK AO2,M
MEV,2022-06-28 22:35,-119.7500,38.9963,1441.42,91.40,30.20,11.28,260.00,19.00,0.00,30.15,M,10.00,M,CLR,M,M,M,M,M,M,M,M,M,M,M,M,M,M,86.71,KMEV 282235Z AUTO 26019KT 10SM CLR 33/M01 A3015 RMK AO2,M
BAM,2022-06-28 22:35,-116.8743,40.5990,1382.36,M,M,M,250.00,18.00,0.00,30.10,M,10.00,25.00,CLR,M,M,M,M,M,M,M,M,M,M,M,M,M,M,M,KBAM 282235Z AUTO 25018G25KT 10SM CLR A3010 RMK AO1,M
HTH,2022-06-28 22:35,-118.6315,38.5448,1282.89,100.40,24.80,6.85,230.00,17.00,0.00,30.04,M,10.00,24.00,CLR,M,M,M,M,M,M,M,M,M,M,M,M,M,M,93.40,KHTH 282235Z AUTO 23017G24KT 10SM CLR 38/M04 A3004 RMK A01,M
TMT,2022-06-28 22:35,-117.1971,39.4643,1749.34,92.00,30.20,11.11,230.00,11.00,0.00,30.18,M,10.00,22.00,CLR,M,M,M,M,M,M,M,M,M,M,M,M,M,M,87.09,KTMT 282235Z AUTO 23011G22KT 10SM CLR 33/M01 A3018 RMK AO2 T03331010,M
DRA,2022-06-28 22:48,-116.0278,36.6206,1009.00,105.00,32.00,8.00,220.00,13.00,0.00,30.00,M,10.00,26.00,CLR,M,M,M,M,M,M,M,M,M,M,M,27.00,220.00,2022-06-28 22:38,98.22,KDRA 282248Z AUTO 22013G26KT 10SM CLR 41/00 A3000 RMK AO2 PK WND 22027/2238 WSHFT 2231 T04060000,M
P68,2022-06-28 22:53,-116.0056,39.6014,1993.00,89.00,24.10,9.43,200.00,11.00,0.00,30.16,1011.60,M,16.00,M,M,M,M,M,M,M,M,M,M,M,M,M,M,M,84.46,KP68 282253Z AUTO 20011G16KT 32/M04 A3016 RMK AO1 SLP116 T03171044,M
VGT,2022-06-28 22:53,-115.1933,36.2111,667.00,108.00,46.00,12.69,190.00,13.00,0.00,29.90,1010.60,10.00,21.00,CLR,M,M,M,M,M,M,M,M,M,M,M,26.00,210.00,2022-06-28 22:04,103.95,KVGT 282253Z 19013G21KT 10SM CLR 42/08 A2990 RMK AO2 PK WND 21026/2204 SLP106 T04220078,M
LOL,2022-06-28 22:53,-118.5701,40.0684,1192.43,99.00,23.00,6.63,250.00,25.00,0.00,30.03,1012.40,10.00,34.00,CLR,M,M,M,M,M,M,M,M,M,M,M,37.00,260.00,2022-06-28 22:21,92.08,KLOL 282253Z AUTO 25025G34KT 10SM CLR 37/M05 A3003 RMK AO2 PK WND 26037/2221 SLP124 T03721050,M
ELY,2022-06-28 22:53,-114.8453,39.2950,1909.00,87.00,33.00,14.53,170.00,10.00,T,30.21,1011.60,10.00,M,CLR,M,M,M,M,M,M,M,M,M,M,M,33.00,190.00,2022-06-28 22:30,83.52,KELY 282253Z AUTO 17010KT 10SM CLR 31/01 A3021 RMK AO2 PK WND 19033/2230 RAB40E50 SLP116 P0000 T03060006,M
DRA,2022-06-28 22:53,-116.0278,36.6206,1009.00,105.00,33.00,8.36,190.00,16.00,0.00,29.99,1009.40,10.00,22.00,CLR,M,M,M,M,M,M,M,M,M,M,M,27.00,220.00,2022-06-28 22:38,98.39,KDRA 282253Z AUTO 19016G22KT 10SM CLR 41/01 A2999 RMK AO2 PK WND 22027/2238 WSHFT 2231 SLP094 T04060006,M
TMT,2022-06-28 22:55,-117.1971,39.4643,1749.34,91.60,31.30,11.73,230.00,14.00,0.00,30.18,M,10.00,23.00,CLR,M,M,M,M,M,M,M,M,M,M,M,M,M,M,86.98,KTMT 282255Z AUTO 23014G23KT 10SM CLR 33/00 A3018 RMK AO2 T03311004,M
RNO,2022-06-28 22:55,-119.7711,39.4839,1341.00,92.00,30.00,11.02,260.00,11.00,0.00,30.12,1014.10,10.00,26.00,FEW,M,M,M,9000.00,M,M,M,M,M,M,M,27.00,220.00,2022-06-28 22:31,87.07,KRNO 282255Z 26011G26KT 10SM FEW090 33/M01 A3012 RMK AO2 PK WND 22027/2231 SLP141 T03331011,M
BVU,2022-06-28 22:55,-114.8611,35.9475,671.00,105.80,42.80,11.98,150.00,7.00,0.00,29.90,M,10.00,20.00,CLR,M,M,M,M,M,M,M,M,M,M,M,M,M,M,101.02,KBVU 282255Z AUTO 15007G20KT 10SM CLR 41/06 A2990 RMK AO2,M
RTS,2022-06-28 22:55,-119.8764,39.6682,1539.00,86.00,26.60,11.55,260.00,18.00,0.00,30.20,M,10.00,27.00,CLR,M,M,M,M,M,M,M,M,M,M,M,M,M,M,82.39,KRTS 282255Z AUTO 26018G27KT 10SM CLR 30/M03 A3020 RMK AO2,M
MEV,2022-06-28 22:55,-119.7500,38.9963,1441.42,91.40,32.00,12.14,260.00,14.00,0.00,30.15,M,10.00,22.00,CLR,M,M,M,M,M,M,M,M,M,M,M,M,M,M,86.91,KMEV 282255Z AUTO 26014G22KT 10SM CLR 33/M00 A3015 RMK AO2,M
BAM,2022-06-28 22:55,-116.8743,40.5990,1382.36,M,M,M,230.00,10.00,0.00,30.09,M,10.00,22.00,CLR,M,M,M,M,M,M,M,M,M,M,M,M,M,M,M,KBAM 282255Z AUTO 23010G22KT 10SM CLR A3009 RMK AO1,M
HTH,2022-06-28 22:55,-118.6315,38.5448,1282.89,100.40,23.00,6.36,220.00,17.00,0.00,30.03,M,10.00,M,CLR,M,M,M,M,M,M,M,M,M,M,M,M,M,M,93.25,KHTH 282255Z AUTO 22017KT 10SM CLR 38/M05 A3003 RMK A01,M
WMC,2022-06-28 22:56,-117.8072,40.9019,1315.00,97.00,15.10,5.03,230.00,14.00,0.00,30.06,1012.40,10.00,34.00,CLR,M,M,M,M,M,M,M,M,M,M,M,34.00,250.00,2022-06-28 22:52,89.91,KWMC 282256Z AUTO 23014G34KT 10SM CLR 36/M09 A3006 RMK AO2 PK WND 25034/2252 SLP124 T03611094,M
HND,2022-06-28 22:56,-115.1344,35.9729,742.79,105.00,48.00,14.91,190.00,6.00,0.00,29.96,1012.00,10.00,M,CLR,M,M,M,M,M,M,M,M,M,M,M,M,M,M,101.70,KHND 282256Z 19006KT 10SM CLR 41/09 A2996 RMK AO2 SLP120 T04060089,M
LAS,2022-06-28 22:56,-115.1634,36.0719,663.00,104.00,45.00,13.75,250.00,5.00,0.00,29.92,1009.70,10.00,M,SCT,SCT,M,M,12000.00,25000.00,M,M,M,M,M,M,M,M,M,99.90,KLAS 282256Z 25005KT 10SM SCT120 SCT250 40/07 A2992 RMK AO2 SLP097 T04000072,M
EKO,2022-06-28 22:56,-115.7860,40.8242,1367.00,94.00,25.00,8.43,260.00,14.00,0.00,30.10,1012.60,10.00,26.00,CLR,M,M,M,M,M,M,M,M,M,M,M,37.00,250.00,2022-06-28 22:17,88.10,KEKO 282256Z AUTO 26014G26KT 10SM CLR 34/M04 A3010 RMK AO2 PK WND 25037/2217 SLP126 T03441039,M
NFL,2022-06-28 22:56,-118.7010,39.4166,1199.00,100.00,25.00,6.99,270.00,15.00,0.00,30.02,1013.60,10.00,26.00,SCT,SCT,M,M,8000.00,12000.00,M,M,M,M,M,M,26.00,280.00,2022-06-28 22:50,93.09,KNFL 282256Z 27015G26KT 10SM SCT080 SCT120 38/M04 A3002 RMK AO2 PK WND 28026/2250 SLP136 BLDU DSNT NE-E T03781039,M
LSV,2022-06-28 22:58,-115.0343,36.2362,570.00,110.70,46.40,11.91,220.00,9.00,0.00,29.86,1008.10,10.00,M,FEW,M,M,M,14000.00,M,M,M,M,M,M,M,M,M,M,106.55,KLSV 282258Z AUTO 22009KT 10SM FEW140 44/08 A2986 RMK AO2 SLP081 T04370080 $,M
INS,2022-06-28 22:58,-115.6733,36.5872,955.00,101.30,37.00,10.94,0.00,0.00,0.00,29.98,1009.60,10.00,M,CLR,M,M,M,M,M,M,M,M,M,M,M,M,M,M,95.77,KINS 282258Z AUTO 00000KT 10SM CLR 39/03 A2998 RMK AO2 SLP096 T03850028 $,M
HTH,2022-06-28 23:15,-118.6315,38.5448,1282.89,100.40,24.80,6.85,230.00,13.00,0.00,30.03,M,10.00,23.00,CLR,M,M,M,M,M,M,M,M,M,M,M,M,M,M,93.40,KHTH 282315Z AUTO 23013G23KT 190V250 10SM CLR 38/M04 A3003 RMK A01,M
TMT,2022-06-28 23:15,-117.1971,39.4643,1749.34,89.00,30.40,12.31,250.00,12.00,0.00,30.18,M,10.00,19.00,CLR,M,M,M,M,M,M,M,M,M,M,M,M,M,M,84.84,KTMT 282315Z AUTO 25012G19KT 10SM CLR 32/M01 A3018 RMK AO2 T03161009,M
BAM,2022-06-28 23:15,-116.8743,40.5990,1382.36,M,M,M,270.00,12.00,0.00,30.09,M,10.00,31.00,CLR,M,M,M,M,M,M,M,M,M,M,M,M,M,M,M,KBAM 282315Z AUTO 27012G31KT 10SM CLR A3009 RMK AO1,M
MEV,2022-06-28 23:15,-119.7500,38.9963,1441.42,89.60,32.00,12.84,270.00,18.00,0.00,30.15,M,10.00,23.00,CLR,M,M,M,M,M,M,M,M,M,M,M,M,M,M,85.54,KMEV 282315Z AUTO 27018G23KT 10SM CLR 32/M00 A3015 RMK AO2,M
RTS,2022-06-28 23:15,-119.8764,39.6682,1539.00,86.00,26.60,11.55,250.00,18.00,0.00,30.20,M,10.00,M,CLR,M,M,M,M,M,M,M,M,M,M,M,M,M,M,82.39,KRTS 282315Z AUTO 25018KT 10SM CLR 30/M03 A3020 RMK AO2,M
BVU,2022-06-28 23:15,-114.8611,35.9475,671.00,107.60,42.80,11.37,180.00,11.00,0.00,29.90,M,10.00,16.00,CLR,M,M,M,M,M,M,M,M,M,M,M,M,M,M,102.63,KBVU 282315Z AUTO 18011G16KT 10SM CLR 42/06 A2990 RMK AO2,M
MEV,2022-06-28 23:35,-119.7500,38.9963,1441.42,89.60,30.20,11.94,260.00,15.00,0.00,30.15,M,10.00,22.00,CLR,M,M,M,M,M,M,M,M,M,M,M,M,M,M,85.34,KMEV 282335Z AUTO 26015G22KT 230V290 10SM CLR 32/M01 A3015 RMK AO2,M
DRA,2022-06-28 23:35,-116.0278,36.6206,1009.00,105.00,35.00,9.06,190.00,15.00,0.00,29.98,M,10.00,27.00,CLR,M,M,M,M,M,M,M,M,M,M,M,27.00,230.00,2022-06-28 23:26,98.72,KDRA 282335Z AUTO 19015G27KT 10SM CLR 41/02 A2998 RMK AO2 PK WND 23027/2326 WSHFT 2318 T04060017,M
BAM,2022-06-28 23:35,-116.8743,40.5990,1382.36,M,M,M,290.00,11.00,0.00,30.08,M,10.00,25.00,CLR,M,M,M,M,M,M,M,M,M,M,M,M,M,M,M,KBAM 282335Z AUTO 29011G25KT 10SM CLR A3008 RMK AO1,M
HTH,2022-06-28 23:35,-118.6315,38.5448,1282.89,100.40,24.80,6.85,200.00,21.00,0.00,30.02,M,10.00,28.00,CLR,M,M,M,M,M,M,M,M,M,M,M,M,M,M,93.40,KHTH 282335Z AUTO 20021G28KT 10SM CLR 38/M04 A3002 RMK A01,M
TMT,2022-06-28 23:35,-117.1971,39.4643,1749.34,92.00,31.50,11.64,250.00,16.00,0.00,30.16,M,10.00,21.00,CLR,M,M,M,M,M,M,M,M,M,M,M,M,M,M,87.39,KTMT 282335Z AUTO 25016G21KT 10SM CLR 33/00 A3016 RMK AO2 T03341003,M
BVU,2022-06-28 23:35,-114.8611,35.9475,671.00,107.60,42.80,11.37,240.00,13.00,0.00,29.89,M,10.00,21.00,CLR,M,M,M,M,M,M,M,M,M,M,M,M,M,M,102.63,KBVU 282335Z AUTO 24013G21KT 10SM CLR 42/06 A2989 RMK AO2,M
RTS,2022-06-28 23:35,-119.8764,39.6682,1539.00,86.00,24.80,10.72,240.00,19.00,0.00,30.20,M,10.00,28.00,CLR,M,M,M,M,M,M,M,M,M,M,M,M,M,M,82.26,KRTS 282335Z AUTO 24019G28KT 10SM CLR 30/M04 A3020 RMK AO2,M
P68,2022-06-28 23:45,-116.0056,39.6014,1993.00,93.00,24.10,8.35,260.00,19.00,0.00,30.14,M,M,26.00,M,M,M,M,M,M,M,M,M,M,M,M,26.00,260.00,2022-06-28 23:42,87.36,KP68 282345Z AUTO 26019G26KT 34/M04 A3014 RMK AO1 PK WND 26026/2342 WSHFT 2328 T03391044,M
P68,2022-06-28 23:53,-116.0056,39.6014,1993.00,92.00,24.10,8.64,230.00,12.00,0.00,30.14,1011.20,M,25.00,M,M,M,M,M,M,M,M,M,M,M,M,26.00,260.00,2022-06-28 23:42,86.53,KP68 282353Z AUTO 23012G25KT 33/M04 A3014 RMK AO1 PK WND 26026/2342 WSHFT 2328 SLP112 T03331044 10344 20289 56019,M
VGT,2022-06-28 23:53,-115.1933,36.2111,667.00,107.00,44.00,12.12,210.00,9.00,0.00,29.88,1010.20,10.00,M,CLR,M,M,M,M,M,M,M,M,M,M,M,M,M,M,102.55,KVGT 282353Z 21009KT 10SM CLR 42/07 A2988 RMK AO2 SLP102 T04170067 10428 20378 56020,M
ELY,2022-06-28 23:53,-114.8453,39.2950,1909.00,89.00,33.00,13.64,220.00,29.00,0.00,30.20,1011.10,2.00,40.00,FEW,M,M,M,300.00,M,M,M,HZ,M,M,M,40.00,220.00,2022-06-28 23:52,85.16,KELY 282353Z AUTO 22029G40KT 2SM HZ FEW003 32/01 A3020 RMK AO2 PK WND 22040/2352 VIS 1/2V5 SLP111 60000 T03170006 10333 20294 56016,M
DRA,2022-06-28 23:53,-116.0278,36.6206,1009.00,104.00,34.00,8.96,230.00,17.00,0.00,29.97,1008.60,10.00,26.00,CLR,M,M,M,M,M,M,M,M,M,M,M,27.00,230.00,2022-06-28 23:26,97.58,KDRA 282353Z AUTO 23017G26KT 10SM CLR 40/01 A2997 RMK AO2 PK WND 23027/2326 WSHFT 2318 SLP086 T04000011 10417 20378 58019,M
LOL,2022-06-28 23:53,-118.5701,40.0684,1192.43,97.00,24.10,7.38,270.00,24.00,0.00,30.01,1012.10,10.00,33.00,CLR,M,M,M,M,M,M,M,M,M,M,M,41.00,260.00,2022-06-28 23:08,90.50,KLOL 282353Z AUTO 27024G33KT 10SM CLR 36/M04 A3001 RMK AO2 PK WND 26041/2308 SLP121 6//// T03611044 10378 20317 56018,M
MEV,2022-06-28 23:55,-119.7500,38.9963,1441.42,87.80,32.00,13.59,270.00,17.00,0.00,30.14,M,10.00,23.00,CLR,M,M,M,M,M,M,M,M,M,M,M,M,M,M,84.08,KMEV 282355Z AUTO 27017G23KT 10SM CLR 31/M00 A3014 RMK AO2,M
TMT,2022-06-28 23:55,-117.1971,39.4643,1749.34,92.30,32.00,11.80,270.00,12.00,0.00,30.16,M,10.00,21.00,CLR,M,M,M,M,M,M,M,M,M,M,M,M,M,M,87.61,KTMT 282355Z AUTO 27012G21KT 10SM CLR 34/00 A3016 RMK AO2 T03350000,M
BAM,2022-06-28 23:55,-116.8743,40.5990,1382.36,M,M,M,270.00,14.00,0.00,30.08,M,10.00,26.00,CLR,M,M,M,M,M,M,M,M,M,M,M,M,M,M,M,KBAM 282355Z AUTO 27014G26KT 10SM CLR A3008 RMK AO1,M
HTH,2022-06-28 23:55,-118.6315,38.5448,1282.89,98.60,24.80,7.24,250.00,16.00,0.00,30.02,M,10.00,22.00,CLR,M,M,M,M,M,M,M,M,M,M,M,M,M,M,91.90,KHTH 282355Z AUTO 25016G22KT 10SM CLR 37/M04 A3002 RMK A01,M
ELY,2022-06-28 23:55,-114.8453,39.2950,1909.00,88.00,34.00,14.64,220.00,24.00,0.00,30.20,M,0.75,40.00,VV ,M,M,M,200.00,M,M,M,HZ,M,M,M,33.00,220.00,2022-06-28 23:54,84.26,KELY 282355Z AUTO 22024G40KT 3/4SM HZ VV002 31/01 A3020 RMK AO2 PK WND 22033/2354 T03110011,M
BVU,2022-06-28 23:55,-114.8611,35.9475,671.00,107.60,42.80,11.37,250.00,16.00,0.00,29.89,M,10.00,M,CLR,M,M,M,M,M,M,M,M,M,M,M,M,M,M,102.63,KBVU 282355Z AUTO 25016KT 10SM CLR 42/06 A2989 RMK AO2,M
RTS,2022-06-28 23:55,-119.8764,39.6682,1539.00,86.00,26.60,11.55,240.00,17.00,0.00,30.19,M,10.00,23.00,CLR,M,M,M,M,M,M,M,M,M,M,M,M,M,M,82.39,KRTS 282355Z AUTO 24017G23KT 10SM CLR 30/M03 A3019 RMK AO2,M
RNO,2022-06-28 23:55,-119.7711,39.4839,1341.00,90.00,35.00,14.36,270.00,12.00,0.00,30.12,1014.00,10.00,22.00,FEW,M,M,M,9000.00,M,M,M,M,M,M,M,M,M,M,85.95,KRNO 282355Z 27012G22KT 10SM FEW090 32/02 A3012 RMK AO2 SLP140 T03220017 10344 20300 56007,M
EKO,2022-06-28 23:56,-115.7860,40.8242,1367.00,95.00,25.00,8.15,260.00,22.00,0.00,30.08,1011.90,10.00,32.00,CLR,M,M,M,M,M,M,M,M,M,M,M,32.00,270.00,2022-06-28 23:54,88.93,KEKO 282356Z AUTO 26022G32KT 10SM CLR 35/M04 A3008 RMK AO2 PK WND 27032/2354 SLP119 T03501039 10356 20317 56020,M
LAS,2022-06-28 23:56,-115.1634,36.0719,663.00,104.00,46.00,14.28,170.00,13.00,0.00,29.90,1009.00,10.00,22.00,SCT,SCT,M,M,12000.00,25000.00,M,M,M,M,M,M,M,M,M,100.12,KLAS 282356Z 17013G22KT 10SM SCT120 SCT250 40/08 A2990 RMK AO2 SLP090 TCU DSNT N AND S T04000078 10422 20383 58017,M
WMC,2022-06-28 23:56,-117.8072,40.9019,1315.00,96.00,19.00,6.11,260.00,19.00,0.00,30.04,1012.00,8.00,35.00,CLR,M,M,M,M,M,M,M,M,M,M,M,35.00,270.00,2022-06-28 23:50,89.38,KWMC 282356Z AUTO 26019G35KT 8SM CLR 36/M07 A3004 RMK AO2 PK WND 27035/2350 SLP120 T03561072 10367 20317 58018,M
HND,2022-06-28 23:56,-115.1344,35.9729,742.79,101.00,46.00,15.67,270.00,14.00,0.00,29.95,1012.10,10.00,21.00,FEW,M,M,M,5500.00,M,M,M,M,M,M,M,33.00,230.00,2022-06-28 23:30,97.06,KHND 282356Z AUTO 27014G21KT 10SM FEW055 38/08 A2995 RMK AO2 PK WND 23033/2330 SLP121 T03830078 10417 20361 58014,M
NFL,2022-06-28 23:56,-118.7010,39.4166,1199.00,97.00,27.00,8.32,280.00,21.00,0.00,30.01,1013.40,10.00,28.00,SCT,SCT,M,M,8000.00,12000.00,M,M,M,M,M,M,29.00,260.00,2022-06-28 23:10,90.77,KNFL 282356Z 28021G28KT 10SM SCT080 SCT120 36/M03 A3001 RMK AO2 PK WND 26029/2310 SLP134 BLDU DSNT NE-E T03611028 10383 20317 56017,M
INS,2022-06-28 23:58,-115.6733,36.5872,955.00,101.30,37.00,10.94,140.00,13.00,0.00,29.95,1008.60,10.00,M,BKN,OVC,M,M,16000.00,18000.00,M,M,M,M,M,M,M,M,M,95.77,KINS 282358Z AUTO 14013KT 10SM BKN160 OVC180 39/03 A2995 RMK AO2 SLP086 T03850028 10393 20362 57022 $,M
LSV,2022-06-28 23:58,-115.0343,36.2362,570.00,110.50,44.00,10.89,190.00,9.00,0.00,29.85,M,10.00,17.00,CLR,M,M,M,M,M,M,M,M,M,M,M,M,M,M,105.57,KLSV 282358Z AUTO 19009G17KT 10SM CLR 44/07 A2985 RMK AO2 SLPNO T04360066 10448 20412 57021 $,M
