station,valid,lon,lat,elevation,tmpf,dwpf,relh,drct,sknt,p01i,alti,mslp,vsby,gust,skyc1,skyc2,skyc3,skyc4,skyl1,skyl2,skyl3,skyl4,wxcodes,ice_accretion_1hr,ice_accretion_3hr,ice_accretion_6hr,peak_wind_gust,peak_wind_drct,peak_wind_time,feel,metar,snowdepth
BVU,2023-08-17 00:15,-114.8611,35.9475,671.00,100.40,48.20,17.28,290.00,10.00,0.00,29.87,M,10.00,M,CLR,M,M,M,M,M,M,M,M,M,M,M,M,M,M,97.00,KBVU 170015Z AUTO 29010KT 250V310 10SM CLR 38/09 A2987 RMK AO2,M
CXP,2023-08-17 00:15,-119.7326,39.1923,1431.00,86.00,44.60,23.59,M,4.00,0.00,30.14,M,10.00,M,FEW,M,M,M,11000.00,M,M,M,M,M,M,M,M,M,M,83.07,KCXP 170015Z AUTO VRB04KT 10SM FEW110 30/07 A3014 RMK AO2,M
RTS,2023-08-17 00:15,-119.8764,39.6682,1539.00,87.80,37.40,16.86,30.00,5.00,0.00,30.16,M,10.00,11.00,CLR,M,M,M,M,M,M,M,M,M,M,M,M,M,M,84.16,KRTS 170015Z AUTO 03005G11KT 10SM CLR 31/03 A3016 RMK AO2,M
05U,2023-08-17 00:15,-116.0051,39.6042,1811.23,86.00,46.40,25.26,M,M,0.00,30.21,M,10.00,M,M,M,M,M,M,M,M,M,M,M,M,M,M,M,M,83.22,K05U 170015Z AUTO 10SM 30/08 A3021 RMK A01,M
MEV,2023-08-17 00:15,-119.7500,38.9963,1441.42,84.20,44.60,24.99,250.00,12.00,0.00,30.15,M,10.00,18.00,BKN,M,M,M,11000.00,M,M,M,M,M,M,M,M,M,M,81.73,KMEV 170015Z AUTO 25012G18KT 10SM BKN110 29/07 A3015 RMK AO2,M
HTH,2023-08-17 00:15,-118.6315,38.5448,1282.89,93.20,42.80,17.55,50.00,8.00,0.00,30.06,M,10.00,13.00,FEW,M,M,M,12000.00,M,M,M,M,M,M,M,M,M,M,89.17,KHTH 170015Z AUTO 05008G13KT 10SM FEW120 34/06 A3006 RMK A01,M
10U,2023-08-17 00:15,-116.1876,41.9532,1637.00,93.20,35.60,13.25,20.00,7.00,0.00,30.14,M,10.00,12.00,CLR,M,M,M,M,M,M,M,M,M,M,M,M,M,M,88.76,K10U 170015Z AUTO 02007G12KT 10SM CLR 34/02 A3014 RMK AO2,M
BAM,2023-08-17 00:15,-116.8743,40.5990,1382.36,87.80,44.60,22.27,260.00,4.00,0.00,30.12,M,10.00,M,CLR,M,M,M,M,M,M,M,M,M,M,M,M,M,M,84.53,KBAM 170015Z AUTO 26004KT 10SM CLR 31/07 A3012 RMK AO1,M
TMT,2023-08-17 00:15,-117.1971,39.4643,1749.34,82.40,45.70,27.62,20.00,7.00,0.00,30.21,M,M,M,CLR,M,M,M,M,M,M,M,M,M,M,M,M,M,M,80.59,KTMT 170015Z AUTO 02007KT CLR 28/08 A3021 RMK AO2 T02800076 PWINO,M
ELY,2023-08-17 00:16,-114.8453,39.2950,1909.00,71.00,54.00,54.92,70.00,21.00,T,30.24,M,2.00,36.00,OVC,M,M,M,9000.00,M,M,M,-TSRA,M,M,M,38.00,110.00,2023-08-17 00:00,71.00,KELY 170016Z AUTO 07021G36KT 2SM -TSRA OVC090 22/12 A3024 RMK AO2 PK WND 11038/0000 VIS 1/2V5 LTG DSNT S AND W RAB02 P0000 T02170122,M
ELY,2023-08-17 00:30,-114.8453,39.2950,1909.00,67.00,57.00,70.24,360.00,6.00,0.09,30.24,M,1.75,M,FEW,OVC,M,M,5000.00,8500.00,M,M,TSRA,M,M,M,38.00,110.00,2023-08-17 00:00,67.00,KELY 170030Z AUTO 36006KT 1 3/4SM TSRA FEW050 OVC085 19/14 A3024 RMK AO2 PK WND 11038/0000 LTG DSNT S RAB02 P0009 T01940139,M
ELY,2023-08-17 00:33,-114.8453,39.2950,1909.00,68.00,56.00,65.45,350.00,6.00,0.11,30.24,M,3.00,M,FEW,SCT,OVC,M,5000.00,8000.00,10000.00,M,-TSRA,M,M,M,38.00,110.00,2023-08-17 00:00,68.00,KELY 170033Z AUTO 35006KT 3SM -TSRA FEW050 SCT080 OVC100 20/13 A3024 RMK AO2 PK WND 11038/0000 LTG DSNT S RAB02 P0011 T02000133,M
BVU,2023-08-17 00:35,-114.8611,35.9475,671.00,100.40,50.00,18.48,300.00,11.00,0.00,29.86,M,10.00,M,CLR,M,M,M,M,M,M,M,M,M,M,M,M,M,M,97.42,KBVU 170035Z AUTO 30011KT 10SM CLR 38/10 A2986 RMK AO2,M
CXP,2023-08-17 00:35,-119.7326,39.1923,1431.00,84.20,46.40,26.76,250.00,8.00,0.00,30.15,M,10.00,M,FEW,M,M,M,11000.00,M,M,M,M,M,M,M,M,M,M,81.87,KCXP 170035Z AUTO 25008KT 10SM FEW110 29/08 A3015 RMK AO2,M
RTS,2023-08-17 00:35,-119.8764,39.6682,1539.00,87.80,37.40,16.86,80.00,5.00,0.00,30.16,M,10.00,M,CLR,M,M,M,M,M,M,M,M,M,M,M,M,M,M,84.16,KRTS 170035Z AUTO 08005KT 10SM CLR 31/03 A3016 RMK AO2,M
05U,2023-08-17 00:35,-116.0051,39.6042,1811.23,86.00,46.40,25.26,M,M,0.00,30.20,M,10.00,M,M,M,M,M,M,M,M,M,M,M,M,M,M,M,M,83.22,K05U 170035Z AUTO 10SM 30/08 A3020 RMK A01,M
MEV,2023-08-17 00:35,-119.7500,38.9963,1441.42,80.60,50.00,34.41,M,6.00,0.00,30.15,M,10.00,12.00,SCT,M,M,M,11000.00,M,M,M,M,M,M,M,M,M,M,79.88,KMEV 170035Z AUTO VRB06G12KT 10SM SCT110 27/10 A3015 RMK AO2,M
HTH,2023-08-17 00:35,-118.6315,38.5448,1282.89,89.60,48.20,24.11,100.00,14.00,0.00,30.06,M,10.00,20.00,BKN,M,M,M,11000.00,M,M,M,M,M,M,M,M,M,M,86.44,KHTH 170035Z AUTO 10014G20KT 10SM BKN110 32/09 A3006 RMK A01,M
10U,2023-08-17 00:35,-116.1876,41.9532,1637.00,93.20,35.60,13.25,20.00,8.00,0.00,30.14,M,10.00,15.00,CLR,M,M,M,M,M,M,M,M,M,M,M,M,M,M,88.76,K10U 170035Z AUTO 02008G15KT 10SM CLR 34/02 A3014 RMK AO2,M
BAM,2023-08-17 00:35,-116.8743,40.5990,1382.36,87.80,44.60,22.27,320.00,3.00,0.00,30.12,M,10.00,M,CLR,M,M,M,M,M,M,M,M,M,M,M,M,M,M,84.53,KBAM 170035Z AUTO 32003KT 10SM CLR 31/07 A3012 RMK AO1,M
TMT,2023-08-17 00:35,-117.1971,39.4643,1749.34,82.00,45.30,27.56,10.00,7.00,0.00,30.21,M,M,M,CLR,M,M,M,M,M,M,M,M,M,M,M,M,M,M,80.30,KTMT 170035Z AUTO 01007KT CLR 28/07 A3021 RMK AO2 T02770074 PWINO,M
RNO,2023-08-17 00:38,-119.7711,39.4839,1341.00,90.00,46.00,21.91,280.00,20.00,T,30.08,M,10.00,30.00,SCT,BKN,BKN,M,6000.00,12000.00,23000.00,M,M,M,M,M,30.00,290.00,2023-08-17 00:34,86.55,KRNO 170038Z COR 28020G30KT 10SM SCT060 BKN120 BKN230 32/08 A3008 RMK AO2 PK WND 29030/0034 WSHFT 0023 RAE04 P0000 T03220078,M
RNO,2023-08-17 00:45,-119.7711,39.4839,1341.00,89.00,46.00,22.61,280.00,16.00,T,30.08,M,10.00,27.00,SCT,BKN,BKN,M,6000.00,10000.00,23000.00,M,TS,M,M,M,30.00,290.00,2023-08-17 00:34,85.67,KRNO 170045Z COR 28016G27KT 10SM TS SCT060 BKN100CB BKN230 32/08 A3008 RMK AO2 PK WND 29030/0034 WSHFT 0023 RAE04 TSB44 OCNL LTGIC SE TS SE MOV NW P0000 T03170078,M
P68,2023-08-17 00:53,-116.0056,39.6014,1993.00,88.00,47.00,24.24,360.00,10.00,0.00,30.17,1012.20,M,M,M,M,M,M,M,M,M,M,M,M,M,M,M,M,M,84.91,KP68 170053Z AUTO 36010KT 31/08 A3017 RMK AO1 SLP122 T03110083,M
DRA,2023-08-17 00:53,-116.0278,36.6206,1009.00,96.00,46.00,18.19,150.00,3.00,0.00,29.96,1008.70,10.00,M,CLR,M,M,M,M,M,M,M,M,M,M,M,M,M,M,92.21,KDRA 170053Z AUTO 15003KT 10SM CLR 36/08 A2996 RMK AO2 SLP087 T03560078,M
ELY,2023-08-17 00:53,-114.8453,39.2950,1909.00,70.00,56.00,61.11,250.00,7.00,0.12,30.22,1013.90,10.00,M,FEW,SCT,BKN,M,7000.00,9000.00,11000.00,M,TS,M,M,M,38.00,110.00,2023-08-17 00:00,70.00,KELY 170053Z AUTO 25007KT 10SM TS FEW070 SCT090 BKN110 21/13 A3022 RMK AO2 PK WND 11038/0000 LTG DSNT ALQDS RAB02E50 TSE44B46 SLP139 P0012 T02110133,M
VGT,2023-08-17 00:53,-115.1933,36.2111,667.00,101.00,52.00,19.55,230.00,9.00,0.00,29.86,1009.70,10.00,M,CLR,M,M,M,M,M,M,M,M,M,M,M,M,M,M,98.59,KVGT 170053Z 23009KT 10SM CLR 38/11 A2986 RMK AO2 SLP097 T03830111,M
LOL,2023-08-17 00:53,-118.5701,40.0684,1192.43,89.00,49.00,25.32,30.00,14.00,0.00,30.05,1013.30,10.00,M,CLR,M,M,M,M,M,M,M,M,M,M,M,M,M,M,86.01,KLOL 170053Z AUTO 03014KT 10SM CLR 32/09 A3005 RMK AO2 SLP133 T03170094,M
BVU,2023-08-17 00:55,-114.8611,35.9475,671.00,100.40,50.00,18.48,300.00,10.00,0.00,29.86,M,10.00,M,CLR,M,M,M,M,M,M,M,M,M,M,M,M,M,M,97.42,KBVU 170055Z AUTO 30010KT 10SM CLR 38/10 A2986 RMK AO2,M
CXP,2023-08-17 00:55,-119.7326,39.1923,1431.00,78.80,55.40,44.52,210.00,8.00,0.01,30.15,M,4.00,M,FEW,FEW,SCT,M,4100.00,5000.00,6000.00,M,-RA HZ,M,M,M,M,M,M,78.80,KCXP 170055Z AUTO 21008KT 4SM -RA HZ FEW041 FEW050 SCT060 26/13 A3015 RMK AO2 P0001,M
INS,2023-08-17 00:55,-115.6733,36.5872,955.00,95.00,45.00,18.06,0.00,0.00,0.00,29.95,1008.70,10.00,M,FEW,SCT,M,M,14000.00,16000.00,M,M,M,M,M,M,M,M,M,91.10,KINS 170055Z AUTO 00000KT 10SM FEW140 SCT160 35/07 A2995 RMK AO2 SLP087 T03510072 $,M
RNO,2023-08-17 00:55,-119.7711,39.4839,1341.00,89.00,45.00,21.77,250.00,12.00,T,30.10,1013.10,10.00,24.00,SCT,BKN,BKN,M,6000.00,10000.00,23000.00,M,TS,M,M,M,30.00,290.00,2023-08-17 00:34,85.58,KRNO 170055Z COR 25012G24KT 10SM TS SCT060 BKN100CB BKN230 32/07 A3010 RMK AO2 PK WND 29030/0034 WSHFT 0023 RAE04 TSB44 SLP131 OCNL LTGIC SE TS SE MOV NW P0000 T03170072,M
LSV,2023-08-17 00:55,-115.0343,36.2362,570.00,103.00,52.70,18.89,220.00,10.00,0.00,29.81,1006.50,10.00,M,CLR,M,M,M,M,M,M,M,M,M,M,M,M,M,M,100.93,KLSV 170055Z AUTO 22010KT 10SM CLR 40/12 A2981 RMK AO2 SLP065 T03950115 $,M
RTS,2023-08-17 00:55,-119.8764,39.6682,1539.00,86.00,42.80,22.02,270.00,18.00,0.00,30.16,M,10.00,M,SCT,M,M,M,11000.00,M,M,M,M,M,M,M,M,M,M,82.95,KRTS 170055Z AUTO 27018KT 10SM SCT110 30/06 A3016 RMK AO2,M
05U,2023-08-17 00:55,-116.0051,39.6042,1811.23,87.80,46.40,23.85,M,M,0.00,30.20,M,10.00,M,M,M,M,M,M,M,M,M,M,M,M,M,M,M,M,84.68,K05U 170055Z AUTO 10SM 31/08 A3020 RMK A01,M
MEV,2023-08-17 00:55,-119.7500,38.9963,1441.42,84.20,50.00,30.62,160.00,6.00,0.00,30.16,M,10.00,M,FEW,M,M,M,11000.00,M,M,M,M,M,M,M,M,M,M,82.24,KMEV 170055Z AUTO 16006KT 10SM FEW110 29/10 A3016 RMK AO2,M
BAM,2023-08-17 00:55,-116.8743,40.5990,1382.36,86.00,46.40,25.26,340.00,6.00,0.00,30.12,M,10.00,M,CLR,M,M,M,M,M,M,M,M,M,M,M,M,M,M,83.22,KBAM 170055Z AUTO 34006KT 10SM CLR 30/08 A3012 RMK AO1,M
HTH,2023-08-17 00:55,-118.6315,38.5448,1282.89,80.60,55.40,41.97,110.00,11.00,0.00,30.07,M,5.00,23.00,FEW,BKN,OVC,M,2800.00,3700.00,11000.00,M,HZ,M,M,M,M,M,M,80.53,KHTH 170055Z AUTO 11011G23KT 5SM HZ FEW028 BKN037 OVC110 27/13 A3007 RMK A01,M
TMT,2023-08-17 00:55,-117.1971,39.4643,1749.34,81.50,46.00,28.76,350.00,6.00,0.00,30.21,M,M,M,CLR,M,M,M,M,M,M,M,M,M,M,M,M,M,M,80.05,KTMT 170055Z AUTO 35006KT CLR 28/08 A3021 RMK AO2 T02750078 PWINO,M
10U,2023-08-17 00:55,-116.1876,41.9532,1637.00,93.20,37.40,14.23,30.00,7.00,0.00,30.14,M,10.00,M,CLR,M,M,M,M,M,M,M,M,M,M,M,M,M,M,88.83,K10U 170055Z AUTO 03007KT 10SM CLR 34/03 A3014 RMK AO2,M
EKO,2023-08-17 00:56,-115.7860,40.8242,1367.00,85.00,50.00,29.85,230.00,4.00,0.00,30.12,1013.70,10.00,M,BKN,M,M,M,12000.00,M,M,M,M,M,M,M,M,M,M,82.83,KEKO 170056Z AUTO 23004KT 10SM BKN120 29/10 A3012 RMK AO2 SLP137 T02940100,M
WMC,2023-08-17 00:56,-117.8072,40.9019,1315.00,89.00,44.00,20.96,270.00,14.00,0.00,30.10,1013.60,10.00,18.00,CLR,M,M,M,M,M,M,M,M,M,M,M,M,M,M,85.50,KWMC 170056Z AUTO 27014G18KT 10SM CLR 32/07 A3010 RMK AO2 SLP136 T03170067,M
HND,2023-08-17 00:56,-115.1344,35.9729,742.79,100.00,54.00,21.68,310.00,10.00,0.00,29.92,1011.30,10.00,M,CLR,M,M,M,M,M,M,M,M,M,M,M,M,M,M,98.14,KHND 170056Z 31010KT 10SM CLR 38/12 A2992 RMK AO2 SLP113 T03780122,M
TPH,2023-08-17 00:56,-117.0904,38.0505,1654.00,80.00,54.00,40.67,360.00,18.00,0.00,30.16,1014.10,10.00,24.00,CLR,M,M,M,M,M,M,M,M,M,M,M,26.00,10.00,2023-08-17 00:37,79.98,KTPH 170056Z AUTO 36018G24KT 10SM CLR 27/12 A3016 RMK AO2 PK WND 01026/0037 SLP141 T02670122,M
LAS,2023-08-17 00:56,-115.1634,36.0719,663.00,99.00,52.00,20.77,230.00,7.00,0.00,29.88,1008.50,10.00,M,FEW,FEW,BKN,M,12000.00,16000.00,20000.00,M,M,M,M,M,M,M,M,96.47,KLAS 170056Z 23007KT 10SM FEW120 FEW160 BKN200 37/11 A2988 RMK AO2 SLP085 T03720111,M
NFL,2023-08-17 00:56,-118.7010,39.4166,1199.00,93.00,47.00,20.72,30.00,12.00,0.00,30.04,1014.10,10.00,M,SCT,BKN,BKN,BKN,7000.00,12000.00,18000.00,25000.00,M,M,M,M,M,M,M,89.44,KNFL 170056Z 03012KT 10SM SCT070 BKN120 BKN180 BKN250 34/08 A3004 RMK AO2 SLP141 CB DSNT S T03390083,M
RNO,2023-08-17 01:04,-119.7711,39.4839,1341.00,88.00,46.00,23.34,190.00,17.00,0.00,30.10,M,10.00,24.00,SCT,BKN,BKN,M,6000.00,11000.00,21000.00,M,TS,M,M,M,M,M,M,84.81,KRNO 170104Z COR 19017G24KT 10SM TS SCT060 BKN110CB BKN210 31/08 A3010 RMK AO2 WSHFT 0049 OCNL LTGIC SE TS SE MOV NW T03110078,M
ELY,2023-08-17 01:07,-114.8453,39.2950,1909.00,70.00,59.00,68.09,120.00,10.00,0.00,30.22,M,10.00,M,FEW,BKN,M,M,9000.00,11000.00,M,M,VCTS,M,M,M,M,M,M,70.00,KELY 170107Z AUTO 12010KT 10SM VCTS FEW090 BKN110 21/15 A3022 RMK AO2 LTG DSNT ALQDS TSE01 T02110150,M
BVU,2023-08-17 01:15,-114.8611,35.9475,671.00,100.40,50.00,18.48,280.00,8.00,0.00,29.86,M,10.00,M,CLR,M,M,M,M,M,M,M,M,M,M,M,M,M,M,97.42,KBVU 170115Z AUTO 28008KT 10SM CLR 38/10 A2986 RMK AO2,M
CXP,2023-08-17 01:15,-119.7326,39.1923,1431.00,80.60,46.40,30.07,0.00,0.00,0.00,30.17,M,10.00,M,FEW,FEW,BKN,M,3500.00,4700.00,6000.00,M,M,M,M,M,M,M,M,79.56,KCXP 170115Z AUTO 00000KT 10SM FEW035 FEW047 BKN060 27/08 A3017 RMK AO2,M
RTS,2023-08-17 01:15,-119.8764,39.6682,1539.00,82.40,44.60,26.49,280.00,19.00,0.00,30.17,M,10.00,25.00,BKN,M,M,M,11000.00,M,M,M,M,M,M,M,M,M,M,80.50,KRTS 170115Z AUTO 28019G25KT 10SM BKN110 28/07 A3017 RMK AO2,M
05U,2023-08-17 01:15,-116.0051,39.6042,1811.23,87.80,46.40,23.85,M,M,0.00,30.20,M,10.00,M,M,M,M,M,M,M,M,M,M,M,M,M,M,M,M,84.68,K05U 170115Z AUTO 10SM 31/08 A3020 RMK A01,M
MEV,2023-08-17 01:15,-119.7500,38.9963,1441.42,82.40,46.40,28.36,M,3.00,0.00,30.16,M,10.00,M,SCT,M,M,M,11000.00,M,M,M,M,M,M,M,M,M,M,80.64,KMEV 170115Z AUTO VRB03KT 10SM SCT110 28/08 A3016 RMK AO2,M
BAM,2023-08-17 01:15,-116.8743,40.5990,1382.36,84.20,48.20,28.63,350.00,6.00,0.00,30.11,M,10.00,M,CLR,M,M,M,M,M,M,M,M,M,M,M,M,M,M,82.04,KBAM 170115Z AUTO 35006KT 10SM CLR 29/09 A3011 RMK AO1,M
HTH,2023-08-17 01:15,-118.6315,38.5448,1282.89,84.20,50.00,30.62,190.00,10.00,0.00,30.08,M,10.00,M,FEW,SCT,BKN,M,2900.00,6000.00,10000.00,M,M,M,M,M,M,M,M,82.24,KHTH 170115Z AUTO 19010KT 10SM FEW029 SCT060 BKN100 29/10 A3008 RMK A01,M
10U,2023-08-17 01:15,-116.1876,41.9532,1637.00,93.20,35.60,13.25,40.00,8.00,0.00,30.14,M,10.00,M,CLR,M,M,M,M,M,M,M,M,M,M,M,M,M,M,88.76,K10U 170115Z AUTO 04008KT 10SM CLR 34/02 A3014 RMK AO2,M
TMT,2023-08-17 01:15,-117.1971,39.4643,1749.34,80.60,46.40,30.07,350.00,5.00,0.00,30.21,M,M,M,CLR,M,M,M,M,M,M,M,M,M,M,M,M,M,M,79.56,KTMT 170115Z AUTO 35005KT CLR 27/08 A3021 RMK AO2 LTG DSNT E T02700080 PWINO,M
BVU,2023-08-17 01:35,-114.8611,35.9475,671.00,98.60,50.00,19.52,270.00,6.00,0.00,29.86,M,10.00,M,CLR,M,M,M,M,M,M,M,M,M,M,M,M,M,M,95.56,KBVU 170135Z AUTO 27006KT 10SM CLR 37/10 A2986 RMK AO2,M
CXP,2023-08-17 01:35,-119.7326,39.1923,1431.00,80.60,53.60,39.30,320.00,11.00,0.00,30.17,M,10.00,M,FEW,SCT,BKN,M,4600.00,6500.00,8000.00,M,M,M,M,M,M,M,M,80.29,KCXP 170135Z AUTO 32011KT 10SM FEW046 SCT065 BKN080 27/12 A3017 RMK AO2,M
RNO,2023-08-17 01:35,-119.7711,39.4839,1341.00,80.00,57.00,45.36,280.00,14.00,T,30.10,M,10.00,35.00,SCT,BKN,BKN,M,7000.00,11000.00,20000.00,M,-TSRA,M,M,M,35.00,270.00,2023-08-17 01:28,80.38,KRNO 170135Z 28014G35KT 10SM -TSRA SCT070 BKN110CB BKN200 27/14 A3010 RMK AO2 PK WND 27035/0128 WSHFT 0119 RAB17 OCNL LTGIC SE TS SE MOV NW P0000 T02670139,M
RTS,2023-08-17 01:35,-119.8764,39.6682,1539.00,80.60,46.40,30.07,280.00,16.00,0.00,30.17,M,10.00,25.00,SCT,M,M,M,11000.00,M,M,M,M,M,M,M,M,M,M,79.56,KRTS 170135Z AUTO 28016G25KT 10SM SCT110 27/08 A3017 RMK AO2,M
05U,2023-08-17 01:35,-116.0051,39.6042,1811.23,86.00,46.40,25.26,M,M,0.00,30.20,M,10.00,M,M,M,M,M,M,M,M,M,M,M,M,M,M,M,M,83.22,K05U 170135Z AUTO 10SM 30/08 A3020 RMK A01,M
MEV,2023-08-17 01:35,-119.7500,38.9963,1441.42,82.40,46.40,28.36,140.00,3.00,0.00,30.17,M,10.00,M,SCT,M,M,M,11000.00,M,M,M,M,M,M,M,M,M,M,80.64,KMEV 170135Z AUTO 14003KT 10SM SCT110 28/08 A3017 RMK AO2,M
HTH,2023-08-17 01:35,-118.6315,38.5448,1282.89,80.60,51.80,36.79,150.00,8.00,0.00,30.11,M,10.00,20.00,FEW,BKN,OVC,M,7000.00,9500.00,11000.00,M,M,M,M,M,M,M,M,80.08,KHTH 170135Z AUTO 15008G20KT 10SM FEW070 BKN095 OVC110 27/11 A3011 RMK A01,M
10U,2023-08-17 01:35,-116.1876,41.9532,1637.00,91.40,37.40,15.05,40.00,6.00,0.00,30.14,M,10.00,M,CLR,M,M,M,M,M,M,M,M,M,M,M,M,M,M,87.23,K10U 170135Z AUTO 04006KT 10SM CLR 33/03 A3014 RMK AO2,M
BAM,2023-08-17 01:35,-116.8743,40.5990,1382.36,82.40,48.20,30.35,350.00,7.00,0.00,30.11,M,10.00,M,CLR,M,M,M,M,M,M,M,M,M,M,M,M,M,M,80.80,KBAM 170135Z AUTO 35007KT 10SM CLR 28/09 A3011 RMK AO1,M
TMT,2023-08-17 01:35,-117.1971,39.4643,1749.34,78.60,47.30,33.22,330.00,6.00,0.00,30.21,M,M,M,CLR,M,M,M,M,M,M,M,M,M,M,M,M,M,M,78.60,KTMT 170135Z AUTO 33006KT CLR 26/09 A3021 RMK AO2 LTG DSNT SE T02590085 PWINO,M
DRA,2023-08-17 01:53,-116.0278,36.6206,1009.00,94.00,45.00,18.62,220.00,8.00,0.00,29.96,1008.80,10.00,M,CLR,M,M,M,M,M,M,M,M,M,M,M,M,M,M,90.15,KDRA 170153Z AUTO 22008KT 10SM CLR 34/07 A2996 RMK AO2 SLP088 T03440072,M
ELY,2023-08-17 01:53,-114.8453,39.2950,1909.00,70.00,55.00,58.94,140.00,11.00,0.00,30.23,1014.30,10.00,17.00,BKN,M,M,M,11000.00,M,M,M,M,M,M,M,M,M,M,70.00,KELY 170153Z AUTO 14011G17KT 10SM BKN110 21/13 A3023 RMK AO2 TSE01 SLP143 T02110128,M
VGT,2023-08-17 01:53,-115.1933,36.2111,667.00,100.00,51.00,19.42,220.00,6.00,0.00,29.86,1009.70,10.00,M,CLR,M,M,M,M,M,M,M,M,M,M,M,M,M,M,97.26,KVGT 170153Z 22006KT 10SM CLR 38/11 A2986 RMK AO2 SLP097 T03780106,M
LOL,2023-08-17 01:53,-118.5701,40.0684,1192.43,89.00,48.00,24.39,40.00,12.00,0.00,30.04,1012.90,10.00,M,CLR,M,M,M,M,M,M,M,M,M,M,M,M,M,M,85.89,KLOL 170153Z AUTO 04012KT 10SM CLR 32/09 A3004 RMK AO2 SLP129 T03170089,M
BVU,2023-08-17 01:55,-114.8611,35.9475,671.00,98.60,50.00,19.52,300.00,6.00,0.00,29.86,M,10.00,M,CLR,M,M,M,M,M,M,M,M,M,M,M,M,M,M,95.56,KBVU 170155Z AUTO 30006KT 10SM CLR 37/10 A2986 RMK AO2,M
CXP,2023-08-17 01:55,-119.7326,39.1923,1431.00,78.80,51.80,39.02,300.00,11.00,0.00,30.18,M,10.00,M,FEW,SCT,OVC,M,4400.00,6000.00,9500.00,M,M,M,M,M,M,M,M,78.80,KCXP 170155Z AUTO 30011KT 10SM FEW044 SCT060 OVC095 26/11 A3018 RMK AO2,M
INS,2023-08-17 01:55,-115.6733,36.5872,955.00,94.00,42.60,16.99,0.00,0.00,0.00,29.94,1008.40,10.00,M,OVC,M,M,M,15000.00,M,M,M,M,M,M,M,M,M,M,89.90,KINS 170155Z AUTO 00000KT 10SM OVC150 35/06 A2994 RMK AO2 SLP084 T03450059 $,M
RNO,2023-08-17 01:55,-119.7711,39.4839,1341.00,79.00,56.00,45.20,150.00,7.00,T,30.11,1014.40,10.00,M,BKN,BKN,BKN,M,6500.00,10000.00,20000.00,M,-TSRA,M,M,M,35.00,270.00,2023-08-17 01:28,79.00,KRNO 170155Z 15007KT 10SM -TSRA BKN065 BKN100CB BKN200 26/13 A3011 RMK AO2 PK WND 27035/0128 WSHFT 0119 RAB17 SLP144 OCNL LTGIC S TS S MOV W P0000 T02610133,M
RTS,2023-08-17 01:55,-119.8764,39.6682,1539.00,78.80,46.40,31.90,280.00,17.00,0.00,30.17,M,10.00,M,FEW,M,M,M,11000.00,M,M,M,M,M,M,M,M,M,M,78.80,KRTS 170155Z AUTO 28017KT 10SM FEW110 26/08 A3017 RMK AO2,M
05U,2023-08-17 01:55,-116.0051,39.6042,1811.23,84.20,46.40,26.76,M,M,0.00,30.20,M,10.00,M,M,M,M,M,M,M,M,M,M,M,M,M,M,M,M,81.87,K05U 170155Z AUTO 10SM 29/08 A3020 RMK A01,M
MEV,2023-08-17 01:55,-119.7500,38.9963,1441.42,77.00,50.00,38.74,160.00,10.00,0.00,30.17,M,10.00,16.00,SCT,M,M,M,11000.00,M,M,M,M,M,M,M,M,M,M,77.00,KMEV 170155Z AUTO 16010G16KT 10SM SCT110 25/10 A3017 RMK AO2,M
BAM,2023-08-17 01:55,-116.8743,40.5990,1382.36,82.40,48.20,30.35,340.00,4.00,0.00,30.11,M,10.00,M,SCT,M,M,M,11000.00,M,M,M,M,M,M,M,M,M,M,80.80,KBAM 170155Z AUTO 34004KT 10SM SCT110 28/09 A3011 RMK AO1,M
HTH,2023-08-17 01:55,-118.6315,38.5448,1282.89,75.20,57.20,53.55,210.00,14.00,0.00,30.12,M,8.00,20.00,FEW,SCT,BKN,M,3700.00,6500.00,8000.00,M,M,M,M,M,M,M,M,75.20,KHTH 170155Z AUTO 21014G20KT 8SM FEW037 SCT065 BKN080 24/14 A3012 RMK A01,M
TMT,2023-08-17 01:55,-117.1971,39.4643,1749.34,76.00,47.30,36.20,330.00,4.00,0.00,30.21,M,M,M,CLR,M,M,M,M,M,M,M,M,M,M,M,M,M,M,76.00,KTMT 170155Z AUTO 33004KT CLR 25/09 A3021 RMK AO2 LTG DSNT E T02450085 PWINO,M
10U,2023-08-17 01:55,-116.1876,41.9532,1637.00,87.80,39.20,18.09,50.00,6.00,0.00,30.14,M,10.00,M,CLR,M,M,M,M,M,M,M,M,M,M,M,M,M,M,84.22,K10U 170155Z AUTO 05006KT 10SM CLR 31/04 A3014 RMK AO2,M
LSV,2023-08-17 01:55,-115.0343,36.2362,570.00,100.60,52.00,19.79,210.00,7.00,0.00,29.81,1006.60,10.00,M,FEW,M,M,M,16000.00,M,M,M,M,M,M,M,M,M,M,98.16,KLSV 170155Z AUTO 21007KT 10SM FEW160 38/11 A2981 RMK AO2 SLP066 T03810112 $,M
EKO,2023-08-17 01:56,-115.7860,40.8242,1367.00,81.00,50.00,33.97,210.00,6.00,0.00,30.11,1013.90,10.00,M,SCT,M,M,M,11000.00,M,M,M,M,M,M,M,M,M,M,80.12,KEKO 170156Z AUTO 21006KT 10SM SCT110 27/10 A3011 RMK AO2 SLP139 T02720100,M
WMC,2023-08-17 01:56,-117.8072,40.9019,1315.00,86.00,45.00,23.95,290.00,7.00,0.00,30.09,1013.20,10.00,M,CLR,M,M,M,M,M,M,M,M,M,M,M,M,M,M,83.10,KWMC 170156Z AUTO 29007KT 10SM CLR 30/07 A3009 RMK AO2 SLP132 T03000072,M
NFL,2023-08-17 01:56,-118.7010,39.4166,1199.00,91.00,48.00,22.90,30.00,8.00,0.00,30.04,1014.00,10.00,M,SCT,BKN,BKN,BKN,7000.00,12000.00,18000.00,25000.00,M,M,M,M,M,M,M,87.69,KNFL 170156Z 03008KT 10SM SCT070 BKN120 BKN180 BKN250 33/09 A3004 RMK AO2 SLP140 T03280089,M
HND,2023-08-17 01:56,-115.1344,35.9729,742.79,97.00,54.00,23.75,240.00,5.00,0.00,29.92,1011.30,10.00,M,CLR,M,M,M,M,M,M,M,M,M,M,M,M,M,M,94.92,KHND 170156Z 24005KT 10SM CLR 36/12 A2992 RMK AO2 SLP113 T03610122,M
TPH,2023-08-17 01:56,-117.0904,38.0505,1654.00,80.00,52.00,37.79,360.00,18.00,0.00,30.16,1013.80,10.00,M,FEW,M,M,M,11000.00,M,M,M,M,M,M,M,M,M,M,79.75,KTPH 170156Z AUTO 36018KT 10SM FEW110 27/11 A3016 RMK AO2 SLP138 T02670111,M
LAS,2023-08-17 01:56,-115.1634,36.0719,663.00,98.00,52.00,21.41,210.00,4.00,0.00,29.87,1008.40,10.00,M,FEW,FEW,SCT,M,12000.00,16000.00,22000.00,M,M,M,M,M,M,M,M,95.42,KLAS 170156Z 21004KT 10SM FEW120 FEW160 SCT220 37/11 A2987 RMK AO2 SLP084 T03670111,M
BVU,2023-08-17 02:15,-114.8611,35.9475,671.00,98.60,50.00,19.52,0.00,0.00,0.00,29.87,M,10.00,M,CLR,M,M,M,M,M,M,M,M,M,M,M,M,M,M,95.56,KBVU 170215Z AUTO 00000KT 10SM CLR 37/10 A2987 RMK AO2,M
CXP,2023-08-17 02:15,-119.7326,39.1923,1431.00,77.00,51.80,41.42,300.00,8.00,0.00,30.18,M,10.00,M,FEW,FEW,OVC,M,4700.00,6500.00,10000.00,M,M,M,M,M,M,M,M,77.00,KCXP 170215Z AUTO 30008KT 10SM FEW047 FEW065 OVC100 25/11 A3018 RMK AO2,M
RTS,2023-08-17 02:15,-119.8764,39.6682,1539.00,80.60,46.40,30.07,280.00,15.00,0.00,30.17,M,10.00,M,FEW,FEW,SCT,M,6000.00,7000.00,11000.00,M,M,M,M,M,M,M,M,79.56,KRTS 170215Z AUTO 28015KT 10SM FEW060 FEW070 SCT110 27/08 A3017 RMK AO2,M
05U,2023-08-17 02:15,-116.0051,39.6042,1811.23,84.20,50.00,30.62,M,M,0.00,30.20,M,10.00,M,M,M,M,M,M,M,M,M,M,M,M,M,M,M,M,82.24,K05U 170215Z AUTO 10SM 29/10 A3020 RMK A01,M
MEV,2023-08-17 02:15,-119.7500,38.9963,1441.42,77.00,48.20,36.22,200.00,12.00,0.00,30.16,M,10.00,M,FEW,SCT,BKN,M,4100.00,7000.00,8500.00,M,M,M,M,M,M,M,M,77.00,KMEV 170215Z AUTO 20012KT 10SM FEW041 SCT070 BKN085 25/09 A3016 RMK AO2,M
HTH,2023-08-17 02:15,-118.6315,38.5448,1282.89,77.00,55.40,47.25,300.00,11.00,0.00,30.12,M,10.00,M,FEW,SCT,BKN,M,3100.00,5000.00,6500.00,M,M,M,M,M,M,M,M,77.00,KHTH 170215Z AUTO 30011KT 10SM FEW031 SCT050 BKN065 25/13 A3012 RMK A01,M
10U,2023-08-17 02:15,-116.1876,41.9532,1637.00,84.20,39.20,20.29,40.00,6.00,0.00,30.14,M,10.00,M,CLR,M,M,M,M,M,M,M,M,M,M,M,M,M,M,81.44,K10U 170215Z AUTO 04006KT 10SM CLR 29/04 A3014 RMK AO2,M
BAM,2023-08-17 02:15,-116.8743,40.5990,1382.36,82.40,48.20,30.35,360.00,4.00,0.00,30.11,M,10.00,M,SCT,SCT,M,M,9500.00,11000.00,M,M,M,M,M,M,M,M,M,80.80,KBAM 170215Z AUTO 36004KT 10SM SCT095 SCT110 28/09 A3011 RMK AO1,M
TMT,2023-08-17 02:15,-117.1971,39.4643,1749.34,74.00,47.30,38.71,330.00,4.00,0.00,30.20,M,M,M,CLR,M,M,M,M,M,M,M,M,M,M,M,M,M,M,74.00,KTMT 170215Z AUTO 33004KT CLR 23/09 A3020 RMK AO2 T02330085 PWINO,M
RNO,2023-08-17 02:19,-119.7711,39.4839,1341.00,76.00,58.00,53.66,150.00,12.00,T,30.13,M,10.00,M,SCT,BKN,BKN,M,5500.00,11000.00,16000.00,M,M,M,M,M,M,M,M,76.00,KRNO 170219Z 15012KT 10SM SCT055 BKN110 BKN160 24/14 A3013 RMK AO2 RAE06 TSE18 CB DSNT SE P0000 T02440144,M
BVU,2023-08-17 02:35,-114.8611,35.9475,671.00,96.80,50.00,20.62,220.00,3.00,0.00,29.87,M,10.00,M,CLR,M,M,M,M,M,M,M,M,M,M,M,M,M,M,93.71,KBVU 170235Z AUTO 22003KT 10SM CLR 36/10 A2987 RMK AO2,M
CXP,2023-08-17 02:35,-119.7326,39.1923,1431.00,77.00,50.00,38.74,0.00,0.00,0.00,30.18,M,10.00,M,FEW,BKN,OVC,M,4800.00,10000.00,12000.00,M,M,M,M,M,M,M,M,77.00,KCXP 170235Z AUTO 00000KT 10SM FEW048 BKN100 OVC120 25/10 A3018 RMK AO2,M
RTS,2023-08-17 02:35,-119.8764,39.6682,1539.00,80.60,44.60,28.08,260.00,4.00,0.00,30.17,M,10.00,13.00,FEW,FEW,SCT,M,6500.00,7000.00,11000.00,M,M,M,M,M,M,M,M,79.42,KRTS 170235Z AUTO 26004G13KT 10SM FEW065 FEW070 SCT110 27/07 A3017 RMK AO2,M
05U,2023-08-17 02:35,-116.0051,39.6042,1811.23,78.80,51.80,39.02,M,M,0.00,30.21,M,10.00,M,M,M,M,M,M,M,M,M,M,M,M,M,M,M,M,78.80,K05U 170235Z AUTO 10SM 26/11 A3021 RMK A01,M
MEV,2023-08-17 02:35,-119.7500,38.9963,1441.42,75.20,50.00,41.14,170.00,5.00,0.00,30.17,M,10.00,M,FEW,SCT,OVC,M,5500.00,7000.00,11000.00,M,M,M,M,M,M,M,M,75.20,KMEV 170235Z AUTO 17005KT 10SM FEW055 SCT070 OVC110 24/10 A3017 RMK AO2,M
HTH,2023-08-17 02:35,-118.6315,38.5448,1282.89,77.00,55.40,47.25,280.00,8.00,0.00,30.11,M,10.00,15.00,FEW,SCT,OVC,M,4200.00,5500.00,11000.00,M,M,M,M,M,M,M,M,77.00,KHTH 170235Z AUTO 28008G15KT 10SM FEW042 SCT055 OVC110 25/13 A3011 RMK A01,M
10U,2023-08-17 02:35,-116.1876,41.9532,1637.00,80.60,39.20,22.81,40.00,6.00,0.00,30.14,M,10.00,M,CLR,M,M,M,M,M,M,M,M,M,M,M,M,M,M,79.10,K10U 170235Z AUTO 04006KT 10SM CLR 27/04 A3014 RMK AO2,M
BAM,2023-08-17 02:35,-116.8743,40.5990,1382.36,80.60,48.20,32.18,0.00,0.00,0.00,30.11,M,10.00,M,SCT,SCT,SCT,M,6500.00,7000.00,9000.00,M,M,M,M,M,M,M,M,79.71,KBAM 170235Z AUTO 00000KT 10SM SCT065 SCT070 SCT090 27/09 A3011 RMK AO1,M
TMT,2023-08-17 02:35,-117.1971,39.4643,1749.34,72.50,48.70,42.91,190.00,12.00,0.00,30.21,M,M,M,CLR,M,M,M,M,M,M,M,M,M,M,M,M,M,M,72.50,KTMT 170235Z AUTO 19012KT CLR 23/09 A3021 RMK AO2 T02250093 PWINO,M
P68,2023-08-17 02:39,-116.0056,39.6014,1993.00,77.00,51.00,40.21,130.00,19.00,0.00,30.19,M,M,31.00,M,M,M,M,M,M,M,M,M,M,M,M,32.00,140.00,2023-08-17 02:29,77.00,KP68 170239Z AUTO 13019G31KT 25/11 A3019 RMK AO1 PK WND 14032/0229 WSHFT 0222 T02500106,M
P68,2023-08-17 02:53,-116.0056,39.6014,1993.00,77.00,51.00,40.21,120.00,15.00,0.00,30.19,1013.80,M,29.00,M,M,M,M,M,M,M,M,M,M,M,M,32.00,140.00,2023-08-17 02:29,77.00,KP68 170253Z AUTO 12015G29KT 25/11 A3019 RMK AO1 PK WND 14032/0229 WSHFT 0222 SLP138 T02500106 53003,M
DRA,2023-08-17 02:53,-116.0278,36.6206,1009.00,93.00,46.00,19.95,200.00,9.00,0.00,29.97,1008.90,10.00,M,CLR,M,M,M,M,M,M,M,M,M,M,M,M,M,M,89.31,KDRA 170253Z AUTO 20009KT 10SM CLR 34/08 A2997 RMK AO2 SLP089 T03390078 55003,M
ELY,2023-08-17 02:53,-114.8453,39.2950,1909.00,67.00,55.00,65.33,180.00,8.00,T,30.23,1014.30,10.00,M,SCT,M,M,M,11000.00,M,M,M,M,M,M,M,M,M,M,67.00,KELY 170253Z AUTO 18008KT 10SM SCT110 19/13 A3023 RMK AO2 RAB03E16 SLP143 P0000 60012 T01940128 51004,M
VGT,2023-08-17 02:53,-115.1933,36.2111,667.00,99.00,52.00,20.77,200.00,6.00,0.00,29.87,1010.00,10.00,M,CLR,M,M,M,M,M,M,M,M,M,M,M,M,M,M,96.47,KVGT 170253Z 20006KT 10SM CLR 37/11 A2987 RMK AO2 SLP100 T03720111 55001,M
LOL,2023-08-17 02:53,-118.5701,40.0684,1192.43,85.00,49.00,28.75,40.00,8.00,0.00,30.05,1012.90,10.00,M,CLR,M,M,M,M,M,M,M,M,M,M,M,M,M,M,82.71,KLOL 170253Z AUTO 04008KT 10SM CLR 29/09 A3005 RMK AO2 SLP129 T02940094 55009,M
BVU,2023-08-17 02:55,-114.8611,35.9475,671.00,96.80,50.00,20.62,0.00,0.00,0.00,29.88,M,10.00,M,CLR,M,M,M,M,M,M,M,M,M,M,M,M,M,M,93.71,KBVU 170255Z AUTO 00000KT 10SM CLR 36/10 A2988 RMK AO2,M
CXP,2023-08-17 02:55,-119.7326,39.1923,1431.00,77.00,50.00,38.74,0.00,0.00,0.00,30.18,M,10.00,M,OVC,M,M,M,10000.00,M,M,M,M,M,M,M,M,M,M,77.00,KCXP 170255Z AUTO 00000KT 10SM OVC100 25/10 A3018 RMK AO2,M
INS,2023-08-17 02:55,-115.6733,36.5872,955.00,92.00,43.70,18.86,170.00,3.00,0.00,29.95,1008.70,10.00,M,SCT,BKN,M,M,15000.00,18000.00,M,M,M,M,M,M,M,M,M,88.14,KINS 170255Z AUTO 17003KT 10SM SCT150 BKN180 33/07 A2995 RMK AO2 SLP087 T03330065 55003 $,M
RNO,2023-08-17 02:55,-119.7711,39.4839,1341.00,75.00,60.00,59.59,200.00,7.00,T,30.13,1015.00,10.00,M,SCT,BKN,BKN,M,6500.00,10000.00,15000.00,M,-RA,M,M,M,M,M,M,75.00,KRNO 170255Z 20007KT 10SM -RA SCT065 BKN100 BKN150 24/16 A3013 RMK AO2 RAE06B27 TSE18 SLP150 CB DSNT SE P0000 60000 T02390156 51013,M
LSV,2023-08-17 02:55,-115.0343,36.2362,570.00,96.80,53.00,23.04,180.00,6.00,0.00,29.82,1006.90,10.00,M,CLR,M,M,M,M,M,M,M,M,M,M,M,M,M,M,94.43,KLSV 170255Z AUTO 18006KT 10SM CLR 36/12 A2982 RMK AO2 SLP069 T03600116 55001 $,M
RTS,2023-08-17 02:55,-119.8764,39.6682,1539.00,80.60,44.60,28.08,230.00,7.00,0.00,30.17,M,10.00,M,SCT,BKN,BKN,M,6500.00,8000.00,11000.00,M,M,M,M,M,M,M,M,79.42,KRTS 170255Z AUTO 23007KT 10SM SCT065 BKN080 BKN110 27/07 A3017 RMK AO2,M
05U,2023-08-17 02:55,-116.0051,39.6042,1811.23,77.00,51.80,41.42,M,M,0.00,30.22,M,10.00,M,M,M,M,M,M,M,M,M,M,M,M,M,M,M,M,77.00,K05U 170255Z AUTO 10SM 25/11 A3022 RMK A01,M
MEV,2023-08-17 02:55,-119.7500,38.9963,1441.42,73.40,51.80,46.71,50.00,6.00,0.00,30.16,M,10.00,M,FEW,FEW,BKN,M,4500.00,5500.00,11000.00,M,M,M,M,M,M,M,M,73.40,KMEV 170255Z AUTO 05006KT 10SM FEW045 FEW055 BKN110 23/11 A3016 RMK AO2,M
HTH,2023-08-17 02:55,-118.6315,38.5448,1282.89,77.00,55.40,47.25,0.00,0.00,0.00,30.11,M,10.00,M,M,M,M,M,M,M,M,M,M,M,M,M,M,M,M,77.00,KHTH 170255Z AUTO 00000KT 10SM 25/13 A3011 RMK A01,M
BAM,2023-08-17 02:55,-116.8743,40.5990,1382.36,80.60,50.00,34.41,20.00,4.00,0.00,30.11,M,10.00,M,SCT,SCT,SCT,M,5500.00,6500.00,9000.00,M,M,M,M,M,M,M,M,79.88,KBAM 170255Z AUTO 02004KT 10SM SCT055 SCT065 SCT090 27/10 A3011 RMK AO1,M
TMT,2023-08-17 02:55,-117.1971,39.4643,1749.34,72.00,52.50,50.25,220.00,10.00,0.00,30.22,M,M,M,CLR,M,M,M,M,M,M,M,M,M,M,M,M,M,M,72.00,KTMT 170255Z AUTO 22010KT CLR 22/11 A3022 RMK AO2 T02220114 PWINO,M
10U,2023-08-17 02:55,-116.1876,41.9532,1637.00,78.80,37.40,22.54,40.00,6.00,0.00,30.15,M,10.00,M,CLR,M,M,M,M,M,M,M,M,M,M,M,M,M,M,78.80,K10U 170255Z AUTO 04006KT 10SM CLR 26/03 A3015 RMK AO2,M
EKO,2023-08-17 02:56,-115.7860,40.8242,1367.00,81.00,47.00,30.36,220.00,6.00,0.00,30.12,1013.60,10.00,M,CLR,M,M,M,M,M,M,M,M,M,M,M,M,M,M,79.84,KEKO 170256Z AUTO 22006KT 10SM CLR 27/08 A3012 RMK AO2 SLP136 T02720083 55002,M
WMC,2023-08-17 02:56,-117.8072,40.9019,1315.00,82.00,45.00,27.24,270.00,4.00,0.00,30.09,1013.10,10.00,M,CLR,M,M,M,M,M,M,M,M,M,M,M,M,M,M,80.28,KWMC 170256Z AUTO 27004KT 10SM CLR 28/07 A3009 RMK AO2 SLP131 T02780072 56009,M
NFL,2023-08-17 02:56,-118.7010,39.4166,1199.00,87.00,49.00,26.97,360.00,5.00,0.00,30.04,1014.30,10.00,M,SCT,BKN,BKN,BKN,7000.00,12000.00,18000.00,25000.00,M,M,M,M,M,M,M,84.30,KNFL 170256Z 36005KT 10SM SCT070 BKN120 BKN180 BKN250 31/09 A3004 RMK AO2 SLP143 T03060094 55001,M
HND,2023-08-17 02:56,-115.1344,35.9729,742.79,95.00,53.00,24.35,200.00,8.00,0.00,29.93,1011.60,10.00,M,CLR,M,M,M,M,M,M,M,M,M,M,M,M,M,M,92.55,KHND 170256Z AUTO 20008KT 10SM CLR 35/12 A2993 RMK AO2 SLP116 T03500117 55001,M
TPH,2023-08-17 02:56,-117.0904,38.0505,1654.00,79.00,53.00,40.52,10.00,11.00,0.00,30.17,1013.50,10.00,M,OVC,M,M,M,11000.00,M,M,M,M,M,M,M,M,M,M,79.00,KTPH 170256Z AUTO 01011KT 10SM OVC110 26/12 A3017 RMK AO2 SLP135 T02610117 53001,M
LAS,2023-08-17 02:56,-115.1634,36.0719,663.00,98.00,49.00,19.15,210.00,4.00,0.00,29.88,1008.80,10.00,M,FEW,FEW,SCT,M,12000.00,16000.00,22000.00,M,M,M,M,M,M,M,M,94.72,KLAS 170256Z 21004KT 10SM FEW120 FEW160 SCT220 37/09 A2988 RMK AO2 SLP088 T03670094 55003,M
BVU,2023-08-17 03:15,-114.8611,35.9475,671.00,95.00,50.00,21.79,240.00,3.00,0.00,29.88,M,10.00,M,CLR,M,M,M,M,M,M,M,M,M,M,M,M,M,M,91.89,KBVU 170315Z AUTO 24003KT 10SM CLR 35/10 A2988 RMK AO2,M
CXP,2023-08-17 03:15,-119.7326,39.1923,1431.00,77.00,51.80,41.42,190.00,6.00,0.00,30.18,M,10.00,M,BKN,BKN,M,M,10000.00,12000.00,M,M,M,M,M,M,M,M,M,77.00,KCXP 170315Z AUTO 19006KT 10SM BKN100 BKN120 25/11 A3018 RMK AO2,M
RTS,2023-08-17 03:15,-119.8764,39.6682,1539.00,78.80,44.60,29.79,M,5.00,0.00,30.18,M,10.00,11.00,FEW,FEW,OVC,M,6500.00,8000.00,10000.00,M,M,M,M,M,M,M,M,78.80,KRTS 170315Z AUTO VRB05G11KT 10SM FEW065 FEW080 OVC100 26/07 A3018 RMK AO2,M
05U,2023-08-17 03:15,-116.0051,39.6042,1811.23,75.20,50.00,41.14,M,M,0.00,30.22,M,10.00,M,M,M,M,M,M,M,M,M,M,M,M,M,M,M,M,75.20,K05U 170315Z AUTO 10SM 24/10 A3022 RMK A01,M
MEV,2023-08-17 03:15,-119.7500,38.9963,1441.42,73.40,50.00,43.69,90.00,7.00,0.00,30.17,M,10.00,M,FEW,M,M,M,11000.00,M,M,M,M,M,M,M,M,M,M,73.40,KMEV 170315Z AUTO 09007KT 10SM FEW110 23/10 A3017 RMK AO2,M
BAM,2023-08-17 03:15,-116.8743,40.5990,1382.36,80.60,48.20,32.18,360.00,6.00,0.00,30.11,M,10.00,M,CLR,M,M,M,M,M,M,M,M,M,M,M,M,M,M,79.71,KBAM 170315Z AUTO 36006KT 10SM CLR 27/09 A3011 RMK AO1,M
HTH,2023-08-17 03:15,-118.6315,38.5448,1282.89,75.20,59.00,57.12,60.00,9.00,0.00,30.11,M,10.00,M,M,M,M,M,M,M,M,M,M,M,M,M,M,M,M,75.20,KHTH 170315Z AUTO 06009KT 10SM 24/15 A3011 RMK A01,M
TMT,2023-08-17 03:15,-117.1971,39.4643,1749.34,71.40,52.00,50.34,230.00,7.00,0.00,30.22,M,M,M,SCT,M,M,M,11000.00,M,M,M,M,M,M,M,M,M,M,71.40,KTMT 170315Z AUTO 23007KT SCT110 22/11 A3022 RMK AO2 LTG DSNT SE T02190111 PWINO,M
10U,2023-08-17 03:15,-116.1876,41.9532,1637.00,77.00,37.40,23.93,40.00,5.00,0.00,30.15,M,10.00,M,CLR,M,M,M,M,M,M,M,M,M,M,M,M,M,M,77.00,K10U 170315Z AUTO 04005KT 10SM CLR 25/03 A3015 RMK AO2,M
BVU,2023-08-17 03:35,-114.8611,35.9475,671.00,95.00,50.00,21.79,0.00,0.00,0.00,29.88,M,10.00,M,CLR,M,M,M,M,M,M,M,M,M,M,M,M,M,M,91.89,KBVU 170335Z AUTO 00000KT 10SM CLR 35/10 A2988 RMK AO2,M
BAM,2023-08-17 03:35,-116.8743,40.5990,1382.36,80.60,46.40,30.07,350.00,5.00,0.00,30.11,M,10.00,M,SCT,M,M,M,12000.00,M,M,M,M,M,M,M,M,M,M,79.56,KBAM 170335Z AUTO 35005KT 10SM SCT120 27/08 A3011 RMK AO1,M
TMT,2023-08-17 03:35,-117.1971,39.4643,1749.34,70.00,53.00,54.78,250.00,6.00,0.00,30.22,M,M,M,OVC,M,M,M,11000.00,M,M,M,M,M,M,M,M,M,M,70.00,KTMT 170335Z AUTO 25006KT OVC110 21/12 A3022 RMK AO2 LTG DSNT E T02110116 PWINO,M
CXP,2023-08-17 03:35,-119.7326,39.1923,1431.00,75.20,51.80,43.97,220.00,3.00,0.00,30.18,M,10.00,M,SCT,SCT,M,M,10000.00,12000.00,M,M,M,M,M,M,M,M,M,75.20,KCXP 170335Z AUTO 22003KT 10SM SCT100 SCT120 24/11 A3018 RMK AO2,M
RTS,2023-08-17 03:35,-119.8764,39.6682,1539.00,78.80,46.40,31.90,280.00,5.00,0.00,30.19,M,10.00,M,SCT,M,M,M,10000.00,M,M,M,M,M,M,M,M,M,M,78.80,KRTS 170335Z AUTO 28005KT 10SM SCT100 26/08 A3019 RMK AO2,M
05U,2023-08-17 03:35,-116.0051,39.6042,1811.23,69.80,55.40,60.21,M,M,0.00,30.24,M,10.00,M,M,M,M,M,M,M,M,M,M,M,M,M,M,M,M,69.80,K05U 170335Z AUTO 10SM 21/13 A3024 RMK A01,M
MEV,2023-08-17 03:35,-119.7500,38.9963,1441.42,75.20,50.00,41.14,0.00,0.00,0.00,30.17,M,10.00,M,SCT,M,M,M,11000.00,M,M,M,M,M,M,M,M,M,M,75.20,KMEV 170335Z AUTO 00000KT 10SM SCT110 24/10 A3017 RMK AO2,M
HTH,2023-08-17 03:35,-118.6315,38.5448,1282.89,75.20,55.40,50.17,100.00,6.00,0.00,30.12,M,10.00,M,SCT,SCT,M,M,10000.00,12000.00,M,M,M,M,M,M,M,M,M,75.20,KHTH 170335Z AUTO 10006KT 10SM SCT100 SCT120 24/13 A3012 RMK A01,M
10U,2023-08-17 03:35,-116.1876,41.9532,1637.00,75.20,39.20,27.26,30.00,6.00,0.00,30.16,M,10.00,M,CLR,M,M,M,M,M,M,M,M,M,M,M,M,M,M,75.20,K10U 170335Z AUTO 03006KT 10SM CLR 24/04 A3016 RMK AO2,M
P68,2023-08-17 03:53,-116.0056,39.6014,1993.00,69.00,58.00,67.97,50.00,6.00,0.00,30.21,1014.90,M,M,M,M,M,M,M,M,M,M,M,M,M,M,33.00,130.00,2023-08-17 02:56,69.00,KP68 170353Z AUTO 05006KT 21/14 A3021 RMK AO1 PK WND 13033/0256 SLP149 T02060144,M
DRA,2023-08-17 03:53,-116.0278,36.6206,1009.00,91.00,46.00,21.24,200.00,5.00,0.00,29.98,1009.50,10.00,M,CLR,M,M,M,M,M,M,M,M,M,M,M,M,M,M,87.45,KDRA 170353Z AUTO 20005KT 10SM CLR 33/08 A2998 RMK AO2 SLP095 T03280078,M
ELY,2023-08-17 03:53,-114.8453,39.2950,1909.00,66.00,54.00,65.21,170.00,6.00,0.00,30.25,1014.70,10.00,M,FEW,M,M,M,10000.00,M,M,M,M,M,M,M,M,M,M,66.00,KELY 170353Z AUTO 17006KT 10SM FEW100 19/12 A3025 RMK AO2 LTG DSNT E SLP147 T01890122,M
VGT,2023-08-17 03:53,-115.1933,36.2111,667.00,98.00,51.00,20.63,210.00,4.00,0.00,29.89,1010.50,10.00,M,CLR,M,M,M,M,M,M,M,M,M,M,M,M,M,M,95.17,KVGT 170353Z 21004KT 10SM CLR 37/11 A2989 RMK AO2 SLP105 T03670106,M
LOL,2023-08-17 03:53,-118.5701,40.0684,1192.43,82.00,49.00,31.68,40.00,8.00,0.00,30.06,1013.50,10.00,M,CLR,M,M,M,M,M,M,M,M,M,M,M,M,M,M,80.62,KLOL 170353Z AUTO 04008KT 10SM CLR 28/09 A3006 RMK AO2 SLP135 T02780094,M
BVU,2023-08-17 03:55,-114.8611,35.9475,671.00,93.20,51.80,24.63,0.00,0.00,0.00,29.89,M,10.00,M,CLR,M,M,M,M,M,M,M,M,M,M,M,M,M,M,90.45,KBVU 170355Z AUTO 00000KT 10SM CLR 34/11 A2989 RMK AO2,M
INS,2023-08-17 03:55,-115.6733,36.5872,955.00,88.50,44.80,21.95,220.00,4.00,0.00,29.97,1009.60,10.00,M,CLR,M,M,M,M,M,M,M,M,M,M,M,M,M,M,85.13,KINS 170355Z AUTO 22004KT 10SM CLR 31/07 A2997 RMK AO2 SLP096 T03140071 $,M
RNO,2023-08-17 03:55,-119.7711,39.4839,1341.00,75.00,56.00,51.62,170.00,7.00,T,30.13,1014.90,10.00,M,BKN,M,M,M,11000.00,M,M,M,M,M,M,M,M,M,M,75.00,KRNO 170355Z 17007KT 10SM BKN110 24/13 A3013 RMK AO2 RAE0256 SLP149 P0000 T02390133,M
CXP,2023-08-17 03:55,-119.7326,39.1923,1431.00,75.20,51.80,43.97,0.00,0.00,0.00,30.18,M,10.00,M,SCT,M,M,M,10000.00,M,M,M,M,M,M,M,M,M,M,75.20,KCXP 170355Z AUTO 00000KT 10SM SCT100 24/11 A3018 RMK AO2,M
RTS,2023-08-17 03:55,-119.8764,39.6682,1539.00,77.00,46.40,33.85,310.00,6.00,0.00,30.19,M,10.00,M,SCT,M,M,M,10000.00,M,M,M,M,M,M,M,M,M,M,77.00,KRTS 170355Z AUTO 31006KT 10SM SCT100 25/08 A3019 RMK AO2,M
05U,2023-08-17 03:55,-116.0051,39.6042,1811.23,69.80,57.20,64.26,M,M,0.00,30.24,M,10.00,M,M,M,M,M,M,M,M,M,M,M,M,M,M,M,M,69.80,K05U 170355Z AUTO 10SM 21/14 A3024 RMK A01,M
MEV,2023-08-17 03:55,-119.7500,38.9963,1441.42,73.40,50.00,43.69,160.00,5.00,0.00,30.17,M,10.00,10.00,FEW,SCT,BKN,M,4900.00,5500.00,7000.00,M,M,M,M,M,M,M,M,73.40,KMEV 170355Z AUTO 16005G10KT 10SM FEW049 SCT055 BKN070 23/10 A3017 RMK AO2,M
BAM,2023-08-17 03:55,-116.8743,40.5990,1382.36,78.80,46.40,31.90,0.00,0.00,0.00,30.12,M,10.00,M,CLR,M,M,M,M,M,M,M,M,M,M,M,M,M,M,78.80,KBAM 170355Z AUTO 00000KT 10SM CLR 26/08 A3012 RMK AO1,M
HTH,2023-08-17 03:55,-118.6315,38.5448,1282.89,77.00,53.60,44.25,130.00,5.00,0.00,30.12,M,10.00,M,FEW,BKN,BKN,M,7000.00,10000.00,12000.00,M,M,M,M,M,M,M,M,77.00,KHTH 170355Z AUTO 13005KT 10SM FEW070 BKN100 BKN120 25/12 A3012 RMK A01,M
TMT,2023-08-17 03:55,-117.1971,39.4643,1749.34,69.00,53.60,57.95,200.00,6.00,0.00,30.22,M,M,M,OVC,M,M,M,11000.00,M,M,M,M,M,M,M,M,M,M,69.00,KTMT 170355Z AUTO 20006KT OVC110 21/12 A3022 RMK AO2 LTG DSNT E T02050120 PWINO,M
10U,2023-08-17 03:55,-116.1876,41.9532,1637.00,73.40,39.20,28.96,30.00,7.00,0.00,30.16,M,10.00,M,CLR,M,M,M,M,M,M,M,M,M,M,M,M,M,M,73.40,K10U 170355Z AUTO 03007KT 10SM CLR 23/04 A3016 RMK AO2,M
LSV,2023-08-17 03:55,-115.0343,36.2362,570.00,95.00,52.50,23.90,170.00,5.00,0.00,29.84,1007.60,10.00,M,CLR,M,M,M,M,M,M,M,M,M,M,M,M,M,M,92.43,KLSV 170355Z AUTO 17005KT 10SM CLR 35/11 A2984 RMK AO2 SLP076 T03500114 $,M
EKO,2023-08-17 03:56,-115.7860,40.8242,1367.00,78.00,46.00,32.26,210.00,5.00,0.00,30.13,1013.90,10.00,M,CLR,M,M,M,M,M,M,M,M,M,M,M,M,M,M,78.00,KEKO 170356Z AUTO 21005KT 10SM CLR 26/08 A3013 RMK AO2 SLP139 T02560078,M
WMC,2023-08-17 03:56,-117.8072,40.9019,1315.00,82.00,45.00,27.24,340.00,3.00,0.00,30.10,1013.40,10.00,M,CLR,M,M,M,M,M,M,M,M,M,M,M,M,M,M,80.28,KWMC 170356Z AUTO 34003KT 10SM CLR 28/07 A3010 RMK AO2 SLP134 T02780072,M
NFL,2023-08-17 03:56,-118.7010,39.4166,1199.00,85.00,48.00,27.70,230.00,11.00,0.00,30.07,1015.00,10.00,M,SCT,BKN,BKN,BKN,7000.00,12000.00,18000.00,25000.00,M,M,M,M,M,M,M,82.61,KNFL 170356Z 23011KT 10SM SCT070 BKN120 BKN180 BKN250 29/09 A3007 RMK AO2 SLP150 T02940089,M
HND,2023-08-17 03:56,-115.1344,35.9729,742.79,93.00,52.00,24.97,180.00,7.00,0.00,29.95,1012.10,10.00,M,CLR,M,M,M,M,M,M,M,M,M,M,M,M,M,M,90.29,KHND 170356Z AUTO 18007KT 10SM CLR 34/11 A2995 RMK AO2 SLP121 T03390111,M
TPH,2023-08-17 03:56,-117.0904,38.0505,1654.00,78.00,51.00,38.90,10.00,7.00,0.00,30.18,1013.30,10.00,M,BKN,M,M,M,11000.00,M,M,M,M,M,M,M,M,M,M,78.00,KTPH 170356Z AUTO 01007KT 10SM BKN110 26/11 A3018 RMK AO2 SLP133 T02560106,M
LAS,2023-08-17 03:56,-115.1634,36.0719,663.00,95.00,52.00,23.47,200.00,5.00,0.00,29.90,1009.30,10.00,M,FEW,FEW,SCT,M,12000.00,16000.00,22000.00,M,M,M,M,M,M,M,M,92.31,KLAS 170356Z 20005KT 10SM FEW120 FEW160 SCT220 35/11 A2990 RMK AO2 SLP093 T03500111,M
BVU,2023-08-17 04:15,-114.8611,35.9475,671.00,89.60,55.40,31.45,0.00,0.00,0.00,29.89,M,10.00,M,CLR,M,M,M,M,M,M,M,M,M,M,M,M,M,M,87.78,KBVU 170415Z AUTO 00000KT 10SM CLR 32/13 A2989 RMK AO2,M
CXP,2023-08-17 04:15,-119.7326,39.1923,1431.00,75.20,53.60,46.98,0.00,0.00,0.00,30.18,M,10.00,M,CLR,M,M,M,M,M,M,M,M,M,M,M,M,M,M,75.20,KCXP 170415Z AUTO 00000KT 10SM CLR 24/12 A3018 RMK AO2,M
RTS,2023-08-17 04:15,-119.8764,39.6682,1539.00,77.00,46.40,33.85,290.00,7.00,0.00,30.20,M,10.00,15.00,FEW,M,M,M,10000.00,M,M,M,M,M,M,M,M,M,M,77.00,KRTS 170415Z AUTO 29007G15KT 10SM FEW100 25/08 A3020 RMK AO2,M
05U,2023-08-17 04:15,-116.0051,39.6042,1811.23,69.80,57.20,64.26,M,M,0.00,30.25,M,10.00,M,M,M,M,M,M,M,M,M,M,M,M,M,M,M,M,69.80,K05U 170415Z AUTO 10SM 21/14 A3025 RMK A01,M
MEV,2023-08-17 04:15,-119.7500,38.9963,1441.42,71.60,51.80,49.64,140.00,5.00,0.00,30.17,M,10.00,M,FEW,SCT,BKN,M,3900.00,5000.00,7500.00,M,M,M,M,M,M,M,M,71.60,KMEV 170415Z AUTO 14005KT 10SM FEW039 SCT050 BKN075 22/11 A3017 RMK AO2,M
BAM,2023-08-17 04:15,-116.8743,40.5990,1382.36,78.80,46.40,31.90,330.00,4.00,0.00,30.12,M,10.00,M,CLR,M,M,M,M,M,M,M,M,M,M,M,M,M,M,78.80,KBAM 170415Z AUTO 33004KT 10SM CLR 26/08 A3012 RMK AO1,M
HTH,2023-08-17 04:15,-118.6315,38.5448,1282.89,77.00,53.60,44.25,200.00,6.00,0.00,30.12,M,10.00,M,FEW,SCT,BKN,M,5000.00,7000.00,9000.00,M,M,M,M,M,M,M,M,77.00,KHTH 170415Z AUTO 20006KT 10SM FEW050 SCT070 BKN090 25/12 A3012 RMK A01,M
TMT,2023-08-17 04:15,-117.1971,39.4643,1749.34,70.00,53.00,54.78,140.00,10.00,0.00,30.25,M,M,M,OVC,M,M,M,11000.00,M,M,M,M,M,M,M,M,M,M,70.00,KTMT 170415Z AUTO 14010KT OVC110 21/12 A3025 RMK AO2 T02120116 PWINO,M
10U,2023-08-17 04:15,-116.1876,41.9532,1637.00,71.60,37.40,28.68,240.00,6.00,0.00,30.17,M,10.00,M,CLR,M,M,M,M,M,M,M,M,M,M,M,M,M,M,71.60,K10U 170415Z AUTO 24006KT 10SM CLR 22/03 A3017 RMK AO2,M
BVU,2023-08-17 04:35,-114.8611,35.9475,671.00,87.80,55.40,33.29,0.00,0.00,0.00,29.90,M,10.00,M,CLR,M,M,M,M,M,M,M,M,M,M,M,M,M,M,86.11,KBVU 170435Z AUTO 00000KT 10SM CLR 31/13 A2990 RMK AO2,M
BAM,2023-08-17 04:35,-116.8743,40.5990,1382.36,78.80,46.40,31.90,0.00,0.00,0.00,30.11,M,10.00,M,CLR,M,M,M,M,M,M,M,M,M,M,M,M,M,M,78.80,KBAM 170435Z AUTO 00000KT 10SM CLR 26/08 A3011 RMK AO1,M
TMT,2023-08-17 04:35,-117.1971,39.4643,1749.34,68.00,55.00,63.12,150.00,7.00,0.00,30.26,M,M,M,SCT,OVC,M,M,7000.00,10000.00,M,M,M,M,M,M,M,M,M,68.00,KTMT 170435Z AUTO 15007KT SCT070 OVC100 20/13 A3026 RMK AO2 T02010128 PWINO,M
CXP,2023-08-17 04:35,-119.7326,39.1923,1431.00,75.20,55.40,50.17,0.00,0.00,0.00,30.17,M,10.00,M,FEW,M,M,M,7000.00,M,M,M,M,M,M,M,M,M,M,75.20,KCXP 170435Z AUTO 00000KT 10SM FEW070 24/13 A3017 RMK AO2,M
RTS,2023-08-17 04:35,-119.8764,39.6682,1539.00,77.00,46.40,33.85,280.00,7.00,0.00,30.19,M,10.00,12.00,FEW,M,M,M,10000.00,M,M,M,M,M,M,M,M,M,M,77.00,KRTS 170435Z AUTO 28007G12KT 10SM FEW100 25/08 A3019 RMK AO2,M
05U,2023-08-17 04:35,-116.0051,39.6042,1811.23,69.80,55.40,60.21,M,M,0.00,30.25,M,10.00,M,M,M,M,M,M,M,M,M,M,M,M,M,M,M,M,69.80,K05U 170435Z AUTO 10SM 21/13 A3025 RMK A01,M
MEV,2023-08-17 04:35,-119.7500,38.9963,1441.42,71.60,53.60,53.03,200.00,6.00,0.00,30.18,M,10.00,M,FEW,SCT,BKN,M,3900.00,7500.00,8500.00,M,M,M,M,M,M,M,M,71.60,KMEV 170435Z AUTO 20006KT 10SM FEW039 SCT075 BKN085 22/12 A3018 RMK AO2,M
HTH,2023-08-17 04:35,-118.6315,38.5448,1282.89,77.00,53.60,44.25,190.00,6.00,0.00,30.12,M,10.00,M,FEW,SCT,BKN,M,4100.00,5000.00,7000.00,M,M,M,M,M,M,M,M,77.00,KHTH 170435Z AUTO 19006KT 10SM FEW041 SCT050 BKN070 25/12 A3012 RMK A01,M
10U,2023-08-17 04:35,-116.1876,41.9532,1637.00,77.00,37.40,23.93,0.00,0.00,0.00,30.17,M,10.00,M,CLR,M,M,M,M,M,M,M,M,M,M,M,M,M,M,77.00,K10U 170435Z AUTO 00000KT 10SM CLR 25/03 A3017 RMK AO2,M
P68,2023-08-17 04:53,-116.0056,39.6014,1993.00,70.00,55.00,58.94,220.00,6.00,0.00,30.23,1015.10,M,M,M,M,M,M,M,M,M,M,M,M,M,M,M,M,M,70.00,KP68 170453Z AUTO 22006KT 21/13 A3023 RMK AO1 SLP151 T02110128,M
DRA,2023-08-17 04:53,-116.0278,36.6206,1009.00,88.00,45.00,22.47,50.00,5.00,0.00,29.99,1009.70,10.00,M,CLR,M,M,M,M,M,M,M,M,M,M,M,M,M,M,84.72,KDRA 170453Z AUTO 05005KT 10SM CLR 31/07 A2999 RMK AO2 SLP097 T03110072,M
ELY,2023-08-17 04:53,-114.8453,39.2950,1909.00,61.00,56.00,83.59,160.00,9.00,0.00,30.26,1015.00,10.00,M,SCT,M,M,M,11000.00,M,M,M,M,M,M,M,M,M,M,61.00,KELY 170453Z AUTO 16009KT 10SM SCT110 16/13 A3026 RMK AO2 SLP150 T01610133,M
VGT,2023-08-17 04:53,-115.1933,36.2111,667.00,97.00,50.00,20.49,210.00,4.00,0.00,29.90,1010.70,10.00,M,CLR,M,M,M,M,M,M,M,M,M,M,M,M,M,M,93.91,KVGT 170453Z AUTO 21004KT 10SM CLR 36/10 A2990 RMK AO2 SLP107 T03610100,M
LOL,2023-08-17 04:53,-118.5701,40.0684,1192.43,80.00,48.00,32.57,30.00,3.00,0.00,30.06,1013.40,10.00,M,CLR,M,M,M,M,M,M,M,M,M,M,M,M,M,M,79.37,KLOL 170453Z AUTO 03003KT 10SM CLR 27/09 A3006 RMK AO2 SLP134 T02670089,M
BVU,2023-08-17 04:55,-114.8611,35.9475,671.00,87.80,57.20,35.53,0.00,0.00,0.00,29.90,M,10.00,M,CLR,M,M,M,M,M,M,M,M,M,M,M,M,M,M,86.58,KBVU 170455Z AUTO 00000KT 10SM CLR 31/14 A2990 RMK AO2,M
INS,2023-08-17 04:55,-115.6733,36.5872,955.00,84.60,43.70,23.84,250.00,6.00,0.00,29.98,1009.90,10.00,M,SCT,M,M,M,13000.00,M,M,M,M,M,M,M,M,M,M,81.96,KINS 170455Z AUTO 25006KT 10SM SCT130 29/07 A2998 RMK AO2 SLP099 T02920065 $,M
RNO,2023-08-17 04:55,-119.7711,39.4839,1341.00,76.00,55.00,48.14,130.00,5.00,0.00,30.13,1014.40,10.00,M,SCT,BKN,M,M,10000.00,21000.00,M,M,M,M,M,M,M,M,M,76.00,KRNO 170455Z 13005KT 10SM SCT100 BKN210 24/13 A3013 RMK AO2 SLP144 T02440128,M
CXP,2023-08-17 04:55,-119.7326,39.1923,1431.00,75.20,51.80,43.97,0.00,0.00,0.00,30.18,M,10.00,M,FEW,M,M,M,11000.00,M,M,M,M,M,M,M,M,M,M,75.20,KCXP 170455Z AUTO 00000KT 10SM FEW110 24/11 A3018 RMK AO2,M
RTS,2023-08-17 04:55,-119.8764,39.6682,1539.00,77.00,46.40,33.85,280.00,10.00,0.00,30.19,M,10.00,M,FEW,M,M,M,10000.00,M,M,M,M,M,M,M,M,M,M,77.00,KRTS 170455Z AUTO 28010KT 10SM FEW100 25/08 A3019 RMK AO2,M
05U,2023-08-17 04:55,-116.0051,39.6042,1811.23,69.80,55.40,60.21,M,M,0.00,30.26,M,10.00,M,M,M,M,M,M,M,M,M,M,M,M,M,M,M,M,69.80,K05U 170455Z AUTO 10SM 21/13 A3026 RMK A01,M
MEV,2023-08-17 04:55,-119.7500,38.9963,1441.42,69.80,53.60,56.38,170.00,6.00,0.00,30.18,M,10.00,M,FEW,SCT,BKN,M,6500.00,8500.00,11000.00,M,M,M,M,M,M,M,M,69.80,KMEV 170455Z AUTO 17006KT 10SM FEW065 SCT085 BKN110 21/12 A3018 RMK AO2,M
BAM,2023-08-17 04:55,-116.8743,40.5990,1382.36,80.60,46.40,30.07,360.00,3.00,0.00,30.12,M,10.00,M,CLR,M,M,M,M,M,M,M,M,M,M,M,M,M,M,79.56,KBAM 170455Z AUTO 36003KT 10SM CLR 27/08 A3012 RMK AO1,M
HTH,2023-08-17 04:55,-118.6315,38.5448,1282.89,77.00,53.60,44.25,190.00,5.00,0.00,30.12,M,10.00,M,FEW,SCT,BKN,M,3400.00,4300.00,5500.00,M,M,M,M,M,M,M,M,77.00,KHTH 170455Z AUTO 19005KT 10SM FEW034 SCT043 BKN055 25/12 A3012 RMK A01,M
TMT,2023-08-17 04:55,-117.1971,39.4643,1749.34,66.60,56.70,70.46,170.00,6.00,0.00,30.27,M,M,M,SCT,OVC,M,M,6500.00,9000.00,M,M,M,M,M,M,M,M,M,66.60,KTMT 170455Z AUTO 17006KT SCT065 OVC090 19/14 A3027 RMK AO2 T01920137 PWINO,M
10U,2023-08-17 04:55,-116.1876,41.9532,1637.00,73.40,37.40,26.98,0.00,0.00,0.00,30.17,M,10.00,M,CLR,M,M,M,M,M,M,M,M,M,M,M,M,M,M,73.40,K10U 170455Z AUTO 00000KT 10SM CLR 23/03 A3017 RMK AO2,M
LSV,2023-08-17 04:55,-115.0343,36.2362,570.00,93.70,51.40,23.89,170.00,7.00,0.00,29.85,1007.90,10.00,M,CLR,M,M,M,M,M,M,M,M,M,M,M,M,M,M,90.87,KLSV 170455Z AUTO 17007KT 10SM CLR 34/11 A2985 RMK AO2 SLP079 T03430108 $,M
EKO,2023-08-17 04:56,-115.7860,40.8242,1367.00,74.00,45.00,35.48,0.00,0.00,0.00,30.13,1014.20,10.00,M,CLR,M,M,M,M,M,M,M,M,M,M,M,M,M,M,74.00,KEKO 170456Z AUTO 00000KT 10SM CLR 23/07 A3013 RMK AO2 SLP142 T02330072,M
WMC,2023-08-17 04:56,-117.8072,40.9019,1315.00,80.00,44.00,27.99,240.00,3.00,0.00,30.10,1013.50,10.00,M,CLR,M,M,M,M,M,M,M,M,M,M,M,M,M,M,79.06,KWMC 170456Z AUTO 24003KT 10SM CLR 27/07 A3010 RMK AO2 SLP135 T02670067,M
HND,2023-08-17 04:56,-115.1344,35.9729,742.79,91.00,53.00,27.57,200.00,7.00,0.00,29.95,M,10.00,M,CLR,M,M,M,M,M,M,M,M,M,M,M,M,M,M,88.55,KHND 170456Z AUTO 20007KT 10SM CLR 33/12 A2995 RMK AO2 SLPNO T03280117,M
TPH,2023-08-17 04:56,-117.0904,38.0505,1654.00,75.00,53.00,46.27,360.00,15.00,0.00,30.19,1013.60,10.00,M,OVC,M,M,M,10000.00,M,M,M,M,M,M,M,M,M,M,75.00,KTPH 170456Z AUTO 36015KT 10SM OVC100 24/12 A3019 RMK AO2 SLP136 T02390117,M
LAS,2023-08-17 04:56,-115.1634,36.0719,663.00,94.00,52.00,24.20,190.00,4.00,0.00,29.90,1009.50,10.00,M,FEW,SCT,M,M,12000.00,22000.00,M,M,M,M,M,M,M,M,M,91.30,KLAS 170456Z 19004KT 10SM FEW120 SCT220 34/11 A2990 RMK AO2 SLP095 T03440111,M
NFL,2023-08-17 04:56,-118.7010,39.4166,1199.00,83.00,49.00,30.67,230.00,10.00,0.00,30.07,1015.00,10.00,M,SCT,BKN,BKN,M,7000.00,12000.00,25000.00,M,M,M,M,M,M,M,M,81.28,KNFL 170456Z 23010KT 10SM SCT070 BKN120 BKN250 28/09 A3007 RMK AO2 SLP150 T02830094,M
BVU,2023-08-17 05:15,-114.8611,35.9475,671.00,87.80,57.20,35.53,0.00,0.00,0.00,29.90,M,10.00,M,CLR,M,M,M,M,M,M,M,M,M,M,M,M,M,M,86.58,KBVU 170515Z AUTO 00000KT 10SM CLR 31/14 A2990 RMK AO2,M
BAM,2023-08-17 05:15,-116.8743,40.5990,1382.36,80.60,46.40,30.07,0.00,0.00,0.00,30.12,M,10.00,M,CLR,M,M,M,M,M,M,M,M,M,M,M,M,M,M,79.56,KBAM 170515Z AUTO 00000KT 10SM CLR 27/08 A3012 RMK AO1,M
TMT,2023-08-17 05:15,-117.1971,39.4643,1749.34,64.00,59.00,83.78,210.00,6.00,0.01,30.28,M,M,M,SCT,OVC,M,M,6500.00,9000.00,M,M,M,M,M,M,M,M,M,64.00,KTMT 170515Z AUTO 21006KT SCT065 OVC090 18/15 A3028 RMK AO2 P0001 T01770149 PWINO,M
CXP,2023-08-17 05:15,-119.7326,39.1923,1431.00,73.40,51.80,46.71,0.00,0.00,0.00,30.19,M,10.00,M,FEW,BKN,M,M,7000.00,11000.00,M,M,M,M,M,M,M,M,M,73.40,KCXP 170515Z AUTO 00000KT 10SM FEW070 BKN110 23/11 A3019 RMK AO2,M
RTS,2023-08-17 05:15,-119.8764,39.6682,1539.00,77.00,46.40,33.85,280.00,10.00,0.00,30.19,M,10.00,M,FEW,M,M,M,10000.00,M,M,M,M,M,M,M,M,M,M,77.00,KRTS 170515Z AUTO 28010KT 10SM FEW100 25/08 A3019 RMK AO2,M
05U,2023-08-17 05:15,-116.0051,39.6042,1811.23,69.80,55.40,60.21,M,M,0.00,30.26,M,10.00,M,M,M,M,M,M,M,M,M,M,M,M,M,M,M,M,69.80,K05U 170515Z AUTO 10SM 21/13 A3026 RMK A01,M
MEV,2023-08-17 05:15,-119.7500,38.9963,1441.42,69.80,51.80,52.77,190.00,4.00,0.00,30.18,M,10.00,M,BKN,OVC,M,M,8000.00,11000.00,M,M,M,M,M,M,M,M,M,69.80,KMEV 170515Z AUTO 19004KT 10SM BKN080 OVC110 21/11 A3018 RMK AO2,M
HTH,2023-08-17 05:15,-118.6315,38.5448,1282.89,77.00,57.20,50.43,0.00,0.00,0.00,30.12,M,10.00,M,FEW,BKN,OVC,M,3800.00,4500.00,7500.00,M,M,M,M,M,M,M,M,77.00,KHTH 170515Z AUTO 00000KT 10SM FEW038 BKN045 OVC075 25/14 A3012 RMK A01,M
10U,2023-08-17 05:15,-116.1876,41.9532,1637.00,69.80,35.60,28.39,240.00,7.00,0.00,30.17,M,10.00,M,CLR,M,M,M,M,M,M,M,M,M,M,M,M,M,M,69.80,K10U 170515Z AUTO 24007KT 10SM CLR 21/02 A3017 RMK AO2,M
05U,2023-08-17 05:30,-116.0051,39.6042,1811.23,71.60,53.60,53.03,M,M,0.00,30.26,M,10.00,M,M,M,M,M,M,M,M,M,M,M,M,M,M,M,M,71.60,K05U 170530Z AUTO 10SM 22/12 A3026 RMK A01,M
BVU,2023-08-17 05:35,-114.8611,35.9475,671.00,86.00,57.20,37.62,0.00,0.00,0.00,29.90,M,10.00,M,CLR,M,M,M,M,M,M,M,M,M,M,M,M,M,M,84.97,KBVU 170535Z AUTO 00000KT 10SM CLR 30/14 A2990 RMK AO2,M
CXP,2023-08-17 05:35,-119.7326,39.1923,1431.00,73.40,51.80,46.71,190.00,6.00,0.00,30.19,M,10.00,M,FEW,FEW,BKN,M,4400.00,6000.00,11000.00,M,M,M,M,M,M,M,M,73.40,KCXP 170535Z AUTO 19006KT 10SM FEW044 FEW060 BKN110 23/11 A3019 RMK AO2,M
RTS,2023-08-17 05:35,-119.8764,39.6682,1539.00,75.20,46.40,35.94,280.00,7.00,0.00,30.19,M,10.00,12.00,CLR,M,M,M,M,M,M,M,M,M,M,M,M,M,M,75.20,KRTS 170535Z AUTO 28007G12KT 10SM CLR 24/08 A3019 RMK AO2,M
MEV,2023-08-17 05:35,-119.7500,38.9963,1441.42,69.80,51.80,52.77,200.00,6.00,0.00,30.18,M,10.00,M,FEW,SCT,OVC,M,4400.00,5500.00,7500.00,M,M,M,M,M,M,M,M,69.80,KMEV 170535Z AUTO 20006KT 10SM FEW044 SCT055 OVC075 21/11 A3018 RMK AO2,M
BAM,2023-08-17 05:35,-116.8743,40.5990,1382.36,78.80,46.40,31.90,350.00,6.00,0.00,30.11,M,10.00,M,SCT,BKN,M,M,6500.00,12000.00,M,M,M,M,M,M,M,M,M,78.80,KBAM 170535Z AUTO 35006KT 10SM SCT065 BKN120 26/08 A3011 RMK AO1,M
HTH,2023-08-17 05:35,-118.6315,38.5448,1282.89,77.00,57.20,50.43,0.00,0.00,0.00,30.13,M,10.00,M,M,M,M,M,M,M,M,M,M,M,M,M,M,M,M,77.00,KHTH 170535Z AUTO 00000KT 10SM 25/14 A3013 RMK A01,M
TMT,2023-08-17 05:35,-117.1971,39.4643,1749.34,64.40,59.00,82.62,230.00,5.00,0.01,30.28,M,M,M,OVC,M,M,M,10000.00,M,M,M,VCTS,M,M,M,M,M,M,64.40,KTMT 170535Z AUTO 23005KT VCTS OVC100 18/15 A3028 RMK AO2 P0001 T01800151,M
10U,2023-08-17 05:35,-116.1876,41.9532,1637.00,68.00,35.60,30.20,230.00,7.00,0.00,30.17,M,10.00,M,CLR,M,M,M,M,M,M,M,M,M,M,M,M,M,M,68.00,K10U 170535Z AUTO 23007KT 10SM CLR 20/02 A3017 RMK AO2,M
P68,2023-08-17 05:53,-116.0056,39.6014,1993.00,71.00,54.00,54.92,260.00,13.00,0.00,30.23,1014.50,M,19.00,M,M,M,M,M,M,M,M,M,M,M,M,M,M,M,71.00,KP68 170553Z AUTO 26013G19KT 22/12 A3023 RMK AO1 SLP145 T02170122 10317 20206 50009,M
DRA,2023-08-17 05:53,-116.0278,36.6206,1009.00,85.00,44.00,23.80,80.00,5.00,0.00,29.99,1009.60,10.00,M,CLR,M,M,M,M,M,M,M,M,M,M,M,M,M,M,82.27,KDRA 170553Z AUTO 08005KT 10SM CLR 29/07 A2999 RMK AO2 SLP096 T02940067 10356 20294 50006,M
ELY,2023-08-17 05:53,-114.8453,39.2950,1909.00,61.00,55.00,80.61,230.00,5.00,0.00,30.25,1013.90,10.00,M,CLR,M,M,M,M,M,M,M,M,M,M,M,M,M,M,61.00,KELY 170553Z AUTO 23005KT 10SM CLR 16/13 A3025 RMK AO2 SLP139 60012 T01610128 10294 20161 50006,M
VGT,2023-08-17 05:53,-115.1933,36.2111,667.00,93.00,52.00,24.97,270.00,5.00,0.00,29.90,1010.80,10.00,M,CLR,M,M,M,M,M,M,M,M,M,M,M,M,M,M,90.29,KVGT 170553Z AUTO 27005KT 10SM CLR 34/11 A2990 RMK AO2 SLP108 T03390111 10389 20339 51008,M
LOL,2023-08-17 05:53,-118.5701,40.0684,1192.43,79.00,48.00,33.66,30.00,5.00,0.00,30.06,1013.30,10.00,M,FEW,M,M,M,12000.00,M,M,M,M,M,M,M,M,M,M,79.00,KLOL 170553Z AUTO 03005KT 10SM FEW120 26/09 A3006 RMK AO2 SLP133 T02610089 10328 20261 51004,M
BVU,2023-08-17 05:55,-114.8611,35.9475,671.00,86.00,55.40,35.25,0.00,0.00,0.00,29.90,M,10.00,M,CLR,M,M,M,M,M,M,M,M,M,M,M,M,M,M,84.54,KBVU 170555Z AUTO 00000KT 10SM CLR 30/13 A2990 RMK AO2,M
INS,2023-08-17 05:55,-115.6733,36.5872,955.00,82.40,44.00,25.89,0.00,0.00,0.00,29.98,1009.90,10.00,M,SCT,M,M,M,16000.00,M,M,M,M,M,M,M,M,M,M,80.46,KINS 170555Z AUTO 00000KT 10SM SCT160 28/07 A2998 RMK AO2 SLP099 T02800067 10356 20280 51009 $,M
RNO,2023-08-17 05:55,-119.7711,39.4839,1341.00,74.00,57.00,55.34,180.00,7.00,0.00,30.13,1014.20,10.00,M,SCT,BKN,M,M,10000.00,18000.00,M,M,M,M,M,M,M,M,M,74.00,KRNO 170555Z 18007KT 10SM SCT100 BKN180 23/14 A3013 RMK AO2 SLP142 60000 T02330139 10339 20228 51002,M
BAM,2023-08-17 05:55,-116.8743,40.5990,1382.36,78.80,46.40,31.90,170.00,10.00,0.00,30.13,M,10.00,M,SCT,SCT,M,M,6500.00,11000.00,M,M,M,M,M,M,M,M,M,78.80,KBAM 170555Z AUTO 17010KT 10SM SCT065 SCT110 26/08 A3013 RMK AO1,M
CXP,2023-08-17 05:55,-119.7326,39.1923,1431.00,73.40,51.80,46.71,180.00,3.00,0.00,30.19,M,10.00,M,FEW,SCT,BKN,M,5500.00,10000.00,12000.00,M,M,M,M,M,M,M,M,73.40,KCXP 170555Z AUTO 18003KT 10SM FEW055 SCT100 BKN120 23/11 A3019 RMK AO2,M
RTS,2023-08-17 05:55,-119.8764,39.6682,1539.00,75.20,46.40,35.94,280.00,7.00,0.00,30.18,M,10.00,12.00,CLR,M,M,M,M,M,M,M,M,M,M,M,M,M,M,75.20,KRTS 170555Z AUTO 28007G12KT 10SM CLR 24/08 A3018 RMK AO2,M
05U,2023-08-17 05:55,-116.0051,39.6042,1811.23,71.60,53.60,53.03,M,M,0.00,30.25,M,10.00,M,M,M,M,M,M,M,M,M,M,M,M,M,M,M,M,71.60,K05U 170555Z AUTO 10SM 22/12 A3025 RMK A01,M
MEV,2023-08-17 05:55,-119.7500,38.9963,1441.42,69.80,51.80,52.77,0.00,0.00,0.00,30.18,M,10.00,M,SCT,BKN,OVC,M,5000.00,6000.00,7500.00,M,M,M,M,M,M,M,M,69.80,KMEV 170555Z AUTO 00000KT 10SM SCT050 BKN060 OVC075 21/11 A3018 RMK AO2,M
HTH,2023-08-17 05:55,-118.6315,38.5448,1282.89,77.00,60.80,57.36,0.00,0.00,0.00,30.12,M,10.00,M,M,M,M,M,M,M,M,M,M,M,M,M,M,M,M,77.00,KHTH 170555Z AUTO 00000KT 10SM 25/16 A3012 RMK A01,M
TMT,2023-08-17 05:55,-117.1971,39.4643,1749.34,63.70,58.00,81.69,180.00,5.00,0.01,30.29,M,M,M,SCT,OVC,M,M,7500.00,9000.00,M,M,M,M,M,M,M,M,M,63.70,KTMT 170555Z AUTO 18005KT SCT075 OVC090 18/15 A3029 RMK AO2 P0001 60001 T01760145 10282 20175 PWINO,M
10U,2023-08-17 05:55,-116.1876,41.9532,1637.00,68.00,37.40,32.43,230.00,7.00,0.00,30.17,M,10.00,M,CLR,M,M,M,M,M,M,M,M,M,M,M,M,M,M,68.00,K10U 170555Z AUTO 23007KT 10SM CLR 20/03 A3017 RMK AO2,M
LSV,2023-08-17 05:55,-115.0343,36.2362,570.00,91.40,51.60,25.86,180.00,5.00,0.00,29.85,1007.90,10.00,M,CLR,M,M,M,M,M,M,M,M,M,M,M,M,M,M,88.65,KLSV 170555Z AUTO 18005KT 10SM CLR 33/11 A2985 RMK AO2 SLP079 T03300109 10401 20330 51008 $,M
EKO,2023-08-17 05:56,-115.7860,40.8242,1367.00,72.00,45.00,37.96,270.00,3.00,0.00,30.14,1014.20,10.00,M,CLR,M,M,M,M,M,M,M,M,M,M,M,M,M,M,72.00,KEKO 170556Z AUTO 27003KT 10SM CLR 22/07 A3014 RMK AO2 SLP142 T02220072 10322 20217 51006,M
WMC,2023-08-17 05:56,-117.8072,40.9019,1315.00,80.00,45.00,29.08,300.00,4.00,0.00,30.10,1013.30,10.00,M,SCT,M,M,M,12000.00,M,M,M,M,M,M,M,M,M,M,79.13,KWMC 170556Z AUTO 30004KT 10SM SCT120 27/07 A3010 RMK AO2 SLP133 T02670072 10333 20250 51005,M
NFL,2023-08-17 05:56,-118.7010,39.4166,1199.00,82.00,49.00,31.68,220.00,9.00,0.00,30.09,1015.60,10.00,M,SCT,BKN,BKN,M,7000.00,12000.00,25000.00,M,M,M,M,M,M,M,M,80.62,KNFL 170556Z 22009KT 10SM SCT070 BKN120 BKN250 28/09 A3009 RMK AO2 SLP156 T02780094 10350 20278 51014,M
HND,2023-08-17 05:56,-115.1344,35.9729,742.79,90.00,52.00,27.42,170.00,7.00,0.00,29.95,1012.30,10.00,M,CLR,M,M,M,M,M,M,M,M,M,M,M,M,M,M,87.40,KHND 170556Z AUTO 17007KT 10SM CLR 32/11 A2995 RMK AO2 SLP123 T03220111 10378 20322 50006,M
TPH,2023-08-17 05:56,-117.0904,38.0505,1654.00,74.00,53.00,47.84,360.00,8.00,0.00,30.20,1013.70,10.00,M,BKN,M,M,M,10000.00,M,M,M,M,M,M,M,M,M,M,74.00,KTPH 170556Z AUTO 36008KT 10SM BKN100 23/12 A3020 RMK AO2 SLP137 T02330117 10283 20233 53006,M
LAS,2023-08-17 05:56,-115.1634,36.0719,663.00,92.00,52.00,25.76,200.00,3.00,0.00,29.90,1009.50,10.00,M,FEW,FEW,M,M,12000.00,22000.00,M,M,M,M,M,M,M,M,M,89.31,KLAS 170556Z 20003KT 10SM FEW120 FEW220 33/11 A2990 RMK AO2 SLP095 T03330111 10378 20333 51006,M
BVU,2023-08-17 06:15,-114.8611,35.9475,671.00,86.00,55.40,35.25,0.00,0.00,0.00,29.90,M,10.00,M,CLR,M,M,M,M,M,M,M,M,M,M,M,M,M,M,84.54,KBVU 170615Z AUTO 00000KT 10SM CLR 30/13 A2990 RMK AO2,M
RTS,2023-08-17 06:15,-119.8764,39.6682,1539.00,75.20,46.40,35.94,270.00,6.00,0.00,30.18,M,10.00,M,FEW,M,M,M,12000.00,M,M,M,M,M,M,M,M,M,M,75.20,KRTS 170615Z AUTO 27006KT 10SM FEW120 24/08 A3018 RMK AO2,M
MEV,2023-08-17 06:15,-119.7500,38.9963,1441.42,69.80,53.60,56.38,0.00,0.00,0.00,30.17,M,10.00,M,FEW,SCT,BKN,M,4600.00,6000.00,7500.00,M,M,M,M,M,M,M,M,69.80,KMEV 170615Z AUTO 00000KT 10SM FEW046 SCT060 BKN075 21/12 A3017 RMK AO2,M
BAM,2023-08-17 06:15,-116.8743,40.5990,1382.36,82.40,44.60,26.49,0.00,0.00,0.00,30.13,M,10.00,M,SCT,M,M,M,11000.00,M,M,M,M,M,M,M,M,M,M,80.50,KBAM 170615Z AUTO 00000KT 10SM SCT110 28/07 A3013 RMK AO1,M
HTH,2023-08-17 06:15,-118.6315,38.5448,1282.89,75.20,59.00,57.12,0.00,0.00,0.00,30.12,M,10.00,M,FEW,SCT,BKN,M,7000.00,9500.00,12000.00,M,M,M,M,M,M,M,M,75.20,KHTH 170615Z AUTO 00000KT 10SM FEW070 SCT095 BKN120 24/15 A3012 RMK A01,M
TMT,2023-08-17 06:15,-117.1971,39.4643,1749.34,62.00,59.40,91.18,200.00,6.00,0.01,30.28,M,M,M,M,M,M,M,M,M,M,M,TS,M,M,M,M,M,M,62.00,KTMT 170615Z AUTO 20006KT TS 17/15 A3028 RMK AO2 P0001 T01660152,M
CXP,2023-08-17 06:15,-119.7326,39.1923,1431.00,73.40,51.80,46.71,0.00,0.00,0.00,30.19,M,10.00,M,BKN,M,M,M,11000.00,M,M,M,M,M,M,M,M,M,M,73.40,KCXP 170615Z AUTO 00000KT 10SM BKN110 23/11 A3019 RMK AO2,M
05U,2023-08-17 06:15,-116.0051,39.6042,1811.23,69.80,55.40,60.21,M,M,0.00,30.26,M,10.00,M,M,M,M,M,M,M,M,M,M,M,M,M,M,M,M,69.80,K05U 170615Z AUTO 10SM 21/13 A3026 RMK A01,M
10U,2023-08-17 06:15,-116.1876,41.9532,1637.00,68.00,37.40,32.43,250.00,5.00,0.00,30.17,M,10.00,M,CLR,M,M,M,M,M,M,M,M,M,M,M,M,M,M,68.00,K10U 170615Z AUTO 25005KT 10SM CLR 20/03 A3017 RMK AO2,M
BVU,2023-08-17 06:35,-114.8611,35.9475,671.00,84.20,55.40,37.35,0.00,0.00,0.00,29.89,M,10.00,M,CLR,M,M,M,M,M,M,M,M,M,M,M,M,M,M,83.09,KBVU 170635Z AUTO 00000KT 10SM CLR 29/13 A2989 RMK AO2,M
CXP,2023-08-17 06:35,-119.7326,39.1923,1431.00,71.60,51.80,49.64,0.00,0.00,0.00,30.18,M,10.00,M,FEW,BKN,M,M,7000.00,11000.00,M,M,M,M,M,M,M,M,M,71.60,KCXP 170635Z AUTO 00000KT 10SM FEW070 BKN110 22/11 A3018 RMK AO2,M
RTS,2023-08-17 06:35,-119.8764,39.6682,1539.00,75.20,46.40,35.94,260.00,4.00,0.00,30.18,M,10.00,10.00,BKN,M,M,M,11000.00,M,M,M,M,M,M,M,M,M,M,75.20,KRTS 170635Z AUTO 26004G10KT 10SM BKN110 24/08 A3018 RMK AO2,M
05U,2023-08-17 06:35,-116.0051,39.6042,1811.23,68.00,55.40,64.04,M,M,0.00,30.26,M,10.00,M,M,M,M,M,M,M,M,M,M,M,M,M,M,M,M,68.00,K05U 170635Z AUTO 10SM 20/13 A3026 RMK A01,M
MEV,2023-08-17 06:35,-119.7500,38.9963,1441.42,69.80,53.60,56.38,0.00,0.00,0.00,30.17,M,10.00,M,BKN,BKN,OVC,M,6500.00,7500.00,11000.00,M,M,M,M,M,M,M,M,69.80,KMEV 170635Z AUTO 00000KT 10SM BKN065 BKN075 OVC110 21/12 A3017 RMK AO2,M
BAM,2023-08-17 06:35,-116.8743,40.5990,1382.36,78.80,46.40,31.90,210.00,4.00,0.00,30.13,M,10.00,M,SCT,M,M,M,12000.00,M,M,M,M,M,M,M,M,M,M,78.80,KBAM 170635Z AUTO 21004KT 10SM SCT120 26/08 A3013 RMK AO1,M
HTH,2023-08-17 06:35,-118.6315,38.5448,1282.89,75.20,57.20,53.55,0.00,0.00,0.00,30.12,M,10.00,M,FEW,SCT,BKN,M,4600.00,6500.00,9000.00,M,M,M,M,M,M,M,M,75.20,KHTH 170635Z AUTO 00000KT 10SM FEW046 SCT065 BKN090 24/14 A3012 RMK A01,M
TMT,2023-08-17 06:35,-117.1971,39.4643,1749.34,64.60,57.20,76.91,0.00,0.00,0.01,30.27,M,M,M,SCT,OVC,M,M,7000.00,10000.00,M,M,M,M,M,M,M,M,M,64.60,KTMT 170635Z AUTO 00000KT SCT070 OVC100 18/14 A3027 RMK AO2 P0001 T01810140 PWINO,M
10U,2023-08-17 06:35,-116.1876,41.9532,1637.00,66.20,37.40,34.51,220.00,4.00,0.00,30.17,M,10.00,M,CLR,M,M,M,M,M,M,M,M,M,M,M,M,M,M,66.20,K10U 170635Z AUTO 22004KT 10SM CLR 19/03 A3017 RMK AO2,M
P68,2023-08-17 06:53,-116.0056,39.6014,1993.00,66.00,56.00,70.14,0.00,0.00,0.00,30.23,1014.80,M,M,M,M,M,M,M,M,M,M,M,M,M,M,M,M,M,66.00,KP68 170653Z AUTO 00000KT 19/13 A3023 RMK AO1 SLP148 T01890133,M
DRA,2023-08-17 06:53,-116.0278,36.6206,1009.00,84.00,44.00,24.58,20.00,3.00,0.00,29.99,1009.70,10.00,M,FEW,M,M,M,11000.00,M,M,M,M,M,M,M,M,M,M,81.54,KDRA 170653Z AUTO 02003KT 10SM FEW110 29/07 A2999 RMK AO2 SLP097 T02890067,M
ELY,2023-08-17 06:53,-114.8453,39.2950,1909.00,60.00,54.00,80.53,170.00,10.00,0.00,30.25,1013.80,10.00,M,CLR,M,M,M,M,M,M,M,M,M,M,M,M,M,M,60.00,KELY 170653Z AUTO 17010KT 10SM CLR 16/12 A3025 RMK AO2 SLP138 T01560122,M
VGT,2023-08-17 06:53,-115.1933,36.2111,667.00,91.00,52.00,26.57,320.00,4.00,0.00,29.89,1010.60,10.00,M,CLR,M,M,M,M,M,M,M,M,M,M,M,M,M,M,88.35,KVGT 170653Z AUTO 32004KT 10SM CLR 33/11 A2989 RMK AO2 SLP106 T03280111,M
LOL,2023-08-17 06:53,-118.5701,40.0684,1192.43,76.00,49.00,38.59,0.00,0.00,0.00,30.07,1013.40,10.00,M,OVC,M,M,M,11000.00,M,M,M,M,M,M,M,M,M,M,76.00,KLOL 170653Z AUTO 00000KT 10SM OVC110 24/09 A3007 RMK AO2 SLP134 T02440094,M
BVU,2023-08-17 06:55,-114.8611,35.9475,671.00,89.60,50.00,25.79,270.00,3.00,0.00,29.89,M,10.00,M,CLR,M,M,M,M,M,M,M,M,M,M,M,M,M,M,86.70,KBVU 170655Z AUTO 27003KT 10SM CLR 32/10 A2989 RMK AO2,M
INS,2023-08-17 06:55,-115.6733,36.5872,955.00,81.00,45.00,28.15,0.00,0.00,0.00,29.98,1009.90,10.00,M,SCT,M,M,M,16000.00,M,M,M,M,M,M,M,M,M,M,79.68,KINS 170655Z AUTO 00000KT 10SM SCT160 27/07 A2998 RMK AO2 SLP099 T02730072 $,M
RNO,2023-08-17 06:55,-119.7711,39.4839,1341.00,75.00,54.00,47.99,160.00,9.00,0.00,30.14,1014.20,10.00,M,BKN,OVC,M,M,10000.00,18000.00,M,M,M,M,M,M,M,M,M,75.00,KRNO 170655Z 16009KT 10SM BKN100 OVC180 24/12 A3014 RMK AO2 SLP142 T02390122,M
CXP,2023-08-17 06:55,-119.7326,39.1923,1431.00,71.60,51.80,49.64,150.00,4.00,0.00,30.18,M,10.00,M,BKN,M,M,M,12000.00,M,M,M,M,M,M,M,M,M,M,71.60,KCXP 170655Z AUTO 15004KT 10SM BKN120 22/11 A3018 RMK AO2,M
RTS,2023-08-17 06:55,-119.8764,39.6682,1539.00,75.20,46.40,35.94,0.00,0.00,0.00,30.19,M,10.00,M,BKN,M,M,M,11000.00,M,M,M,M,M,M,M,M,M,M,75.20,KRTS 170655Z AUTO 00000KT 10SM BKN110 24/08 A3019 RMK AO2,M
05U,2023-08-17 06:55,-116.0051,39.6042,1811.23,66.20,55.40,68.15,M,M,0.00,30.26,M,10.00,M,M,M,M,M,M,M,M,M,M,M,M,M,M,M,M,66.20,K05U 170655Z AUTO 10SM 19/13 A3026 RMK A01,M
MEV,2023-08-17 06:55,-119.7500,38.9963,1441.42,69.80,51.80,52.77,90.00,5.00,0.00,30.16,M,10.00,M,BKN,BKN,OVC,M,6000.00,8500.00,11000.00,M,M,M,M,M,M,M,M,69.80,KMEV 170655Z AUTO 09005KT 10SM BKN060 BKN085 OVC110 21/11 A3016 RMK AO2,M
BAM,2023-08-17 06:55,-116.8743,40.5990,1382.36,78.80,46.40,31.90,250.00,9.00,0.00,30.14,M,10.00,14.00,SCT,M,M,M,12000.00,M,M,M,M,M,M,M,M,M,M,78.80,KBAM 170655Z AUTO 25009G14KT 10SM SCT120 26/08 A3014 RMK AO1,M
HTH,2023-08-17 06:55,-118.6315,38.5448,1282.89,75.20,59.00,57.12,0.00,0.00,0.00,30.13,M,10.00,M,FEW,FEW,BKN,M,4600.00,7000.00,9000.00,M,M,M,M,M,M,M,M,75.20,KHTH 170655Z AUTO 00000KT 10SM FEW046 FEW070 BKN090 24/15 A3013 RMK A01,M
TMT,2023-08-17 06:55,-117.1971,39.4643,1749.34,62.80,59.00,87.39,0.00,0.00,0.01,30.26,M,M,M,M,M,M,M,M,M,M,M,M,M,M,M,M,M,M,62.80,KTMT 170655Z AUTO 00000KT 17/15 A3026 RMK AO2 P0001 T01710149 PWINO,M
10U,2023-08-17 06:55,-116.1876,41.9532,1637.00,62.60,37.40,39.14,0.00,0.00,0.00,30.17,M,10.00,M,CLR,M,M,M,M,M,M,M,M,M,M,M,M,M,M,62.60,K10U 170655Z AUTO 00000KT 10SM CLR 17/03 A3017 RMK AO2,M
LSV,2023-08-17 06:55,-115.0343,36.2362,570.00,88.70,49.30,25.84,0.00,0.00,0.00,29.84,1007.40,10.00,M,CLR,M,M,M,M,M,M,M,M,M,M,M,M,M,M,85.79,KLSV 170655Z AUTO 00000KT 10SM CLR 32/10 A2984 RMK AO2 SLP074 T03150096 $,M
EKO,2023-08-17 06:56,-115.7860,40.8242,1367.00,71.00,45.00,39.27,0.00,0.00,0.00,30.14,1014.20,10.00,M,CLR,M,M,M,M,M,M,M,M,M,M,M,M,M,M,71.00,KEKO 170656Z AUTO 00000KT 10SM CLR 22/07 A3014 RMK AO2 SLP142 T02170072,M
WMC,2023-08-17 06:56,-117.8072,40.9019,1315.00,75.00,49.00,39.90,290.00,8.00,T,30.09,1013.20,10.00,M,FEW,BKN,M,M,5500.00,12000.00,M,M,-RA,M,M,M,M,M,M,75.00,KWMC 170656Z AUTO 29008KT 10SM -RA FEW055 BKN120 24/09 A3009 RMK AO2 LTG DSNT S RAB47 SLP132 P0000 T02390094,M
NFL,2023-08-17 06:56,-118.7010,39.4166,1199.00,80.00,50.00,35.10,180.00,7.00,0.00,30.09,1015.70,10.00,M,FEW,OVC,M,M,8000.00,11000.00,M,M,M,M,M,M,M,M,M,79.55,KNFL 170656Z AUTO 18007KT 10SM FEW080 OVC110 27/10 A3009 RMK AO2 SLP157 T02670100,M
HND,2023-08-17 06:56,-115.1344,35.9729,742.79,88.00,52.00,29.21,210.00,8.00,0.00,29.94,1012.00,10.00,M,CLR,M,M,M,M,M,M,M,M,M,M,M,M,M,M,85.60,KHND 170656Z AUTO 21008KT 10SM CLR 31/11 A2994 RMK AO2 SLP120 T03110111 403940283,M
TPH,2023-08-17 06:56,-117.0904,38.0505,1654.00,73.00,53.00,49.48,340.00,6.00,0.00,30.20,1013.50,10.00,M,CLR,M,M,M,M,M,M,M,M,M,M,M,M,M,M,73.00,KTPH 170656Z AUTO 34006KT 10SM CLR 23/12 A3020 RMK AO2 SLP135 T02280117,M
LAS,2023-08-17 06:56,-115.1634,36.0719,663.00,90.00,52.00,27.42,0.00,0.00,0.00,29.90,1009.30,10.00,M,FEW,M,M,M,20000.00,M,M,M,M,M,M,M,M,M,M,87.40,KLAS 170656Z 00000KT 10SM FEW200 32/11 A2990 RMK AO2 SLP093 T03220111,M
BVU,2023-08-17 07:15,-114.8611,35.9475,671.00,87.80,50.00,27.29,310.00,3.00,0.00,29.89,M,10.00,M,CLR,M,M,M,M,M,M,M,M,M,M,M,M,M,M,85.11,KBVU 170715Z AUTO 31003KT 10SM CLR 31/10 A2989 RMK AO2,M
CXP,2023-08-17 07:15,-119.7326,39.1923,1431.00,73.40,51.80,46.71,0.00,0.00,0.00,30.18,M,10.00,M,BKN,OVC,M,M,10000.00,12000.00,M,M,M,M,M,M,M,M,M,73.40,KCXP 170715Z AUTO 00000KT 10SM BKN100 OVC120 23/11 A3018 RMK AO2,M
RTS,2023-08-17 07:15,-119.8764,39.6682,1539.00,75.20,46.40,35.94,260.00,4.00,0.00,30.19,M,10.00,M,BKN,OVC,M,M,9500.00,11000.00,M,M,M,M,M,M,M,M,M,75.20,KRTS 170715Z AUTO 26004KT 10SM BKN095 OVC110 24/08 A3019 RMK AO2,M
05U,2023-08-17 07:15,-116.0051,39.6042,1811.23,68.00,55.40,64.04,M,M,0.00,30.26,M,10.00,M,M,M,M,M,M,M,M,M,M,M,M,M,M,M,M,68.00,K05U 170715Z AUTO 10SM 20/13 A3026 RMK A01,M
MEV,2023-08-17 07:15,-119.7500,38.9963,1441.42,69.80,51.80,52.77,130.00,6.00,0.00,30.16,M,10.00,M,FEW,SCT,BKN,M,6500.00,9000.00,11000.00,M,M,M,M,M,M,M,M,69.80,KMEV 170715Z AUTO 13006KT 10SM FEW065 SCT090 BKN110 21/11 A3016 RMK AO2,M
BAM,2023-08-17 07:15,-116.8743,40.5990,1382.36,77.00,53.60,44.25,250.00,15.00,0.00,30.14,M,10.00,19.00,SCT,BKN,M,M,10000.00,12000.00,M,M,M,M,M,M,M,M,M,77.00,KBAM 170715Z AUTO 25015G19KT 10SM SCT100 BKN120 25/12 A3014 RMK AO1,M
HTH,2023-08-17 07:15,-118.6315,38.5448,1282.89,75.20,59.00,57.12,210.00,4.00,0.00,30.13,M,10.00,M,SCT,BKN,OVC,M,6500.00,7500.00,12000.00,M,M,M,M,M,M,M,M,75.20,KHTH 170715Z AUTO 21004KT 10SM SCT065 BKN075 OVC120 24/15 A3013 RMK A01,M
TMT,2023-08-17 07:15,-117.1971,39.4643,1749.34,61.00,59.40,94.46,90.00,4.00,0.00,30.26,M,M,M,M,M,M,M,M,M,M,M,M,M,M,M,M,M,M,61.00,KTMT 170715Z AUTO 09004KT 16/15 A3026 RMK AO2 T01610152 PWINO,M
10U,2023-08-17 07:15,-116.1876,41.9532,1637.00,60.80,37.40,41.71,140.00,4.00,0.00,30.17,M,10.00,M,CLR,M,M,M,M,M,M,M,M,M,M,M,M,M,M,60.80,K10U 170715Z AUTO 14004KT 10SM CLR 16/03 A3017 RMK AO2,M
BVU,2023-08-17 07:35,-114.8611,35.9475,671.00,86.00,50.00,28.90,310.00,4.00,0.00,29.89,M,10.00,M,CLR,M,M,M,M,M,M,M,M,M,M,M,M,M,M,83.62,KBVU 170735Z AUTO 31004KT 10SM CLR 30/10 A2989 RMK AO2,M
CXP,2023-08-17 07:35,-119.7326,39.1923,1431.00,73.40,51.80,46.71,340.00,6.00,0.00,30.18,M,10.00,M,OVC,M,M,M,10000.00,M,M,M,M,M,M,M,M,M,M,73.40,KCXP 170735Z AUTO 34006KT 10SM OVC100 23/11 A3018 RMK AO2,M
RTS,2023-08-17 07:35,-119.8764,39.6682,1539.00,75.20,48.20,38.46,200.00,8.00,0.00,30.20,M,10.00,M,FEW,SCT,BKN,M,4700.00,5500.00,6500.00,M,-DZ,M,M,M,M,M,M,75.20,KRTS 170735Z AUTO 20008KT 150V260 10SM -DZ FEW047 SCT055 BKN065 24/09 A3020 RMK AO2,M
05U,2023-08-17 07:35,-116.0051,39.6042,1811.23,68.00,55.40,64.04,M,M,0.00,30.26,M,10.00,M,M,M,M,M,M,M,M,M,M,M,M,M,M,M,M,68.00,K05U 170735Z AUTO 10SM 20/13 A3026 RMK A01,M
MEV,2023-08-17 07:35,-119.7500,38.9963,1441.42,71.60,51.80,49.64,210.00,3.00,0.00,30.16,M,10.00,M,FEW,OVC,M,M,6000.00,10000.00,M,M,M,M,M,M,M,M,M,71.60,KMEV 170735Z AUTO 21003KT 10SM FEW060 OVC100 22/11 A3016 RMK AO2,M
BAM,2023-08-17 07:35,-116.8743,40.5990,1382.36,77.00,55.40,47.25,250.00,13.00,0.00,30.14,M,10.00,19.00,SCT,SCT,M,M,10000.00,12000.00,M,M,M,M,M,M,M,M,M,77.00,KBAM 170735Z AUTO 25013G19KT 10SM SCT100 SCT120 25/13 A3014 RMK AO1,M
HTH,2023-08-17 07:35,-118.6315,38.5448,1282.89,75.20,57.20,53.55,160.00,3.00,0.00,30.13,M,10.00,M,SCT,BKN,OVC,M,6000.00,7500.00,11000.00,M,M,M,M,M,M,M,M,75.20,KHTH 170735Z AUTO 16003KT 10SM SCT060 BKN075 OVC110 24/14 A3013 RMK A01,M
TMT,2023-08-17 07:35,-117.1971,39.4643,1749.34,60.80,59.40,95.14,0.00,0.00,0.00,30.25,M,M,M,M,M,M,M,M,M,M,M,M,M,M,M,M,M,M,60.80,KTMT 170735Z AUTO 00000KT 16/15 A3025 RMK AO2 T01600152 PWINO,M
10U,2023-08-17 07:35,-116.1876,41.9532,1637.00,62.60,37.40,39.14,140.00,6.00,0.00,30.17,M,10.00,M,CLR,M,M,M,M,M,M,M,M,M,M,M,M,M,M,62.60,K10U 170735Z AUTO 14006KT 10SM CLR 17/03 A3017 RMK AO2,M
P68,2023-08-17 07:53,-116.0056,39.6014,1993.00,66.00,57.00,72.72,360.00,8.00,0.00,30.22,1014.20,M,M,M,M,M,M,M,M,M,M,M,M,M,M,M,M,M,66.00,KP68 170753Z AUTO 36008KT 19/14 A3022 RMK AO1 SLP142 T01890139 403170156,M
DRA,2023-08-17 07:53,-116.0278,36.6206,1009.00,84.00,46.00,26.52,60.00,5.00,0.00,29.99,1009.60,10.00,M,CLR,M,M,M,M,M,M,M,M,M,M,M,M,M,M,81.69,KDRA 170753Z AUTO 06005KT 10SM CLR 29/08 A2999 RMK AO2 SLP096 T02890078 403720267,M
ELY,2023-08-17 07:53,-114.8453,39.2950,1909.00,59.00,54.00,83.46,150.00,6.00,0.00,30.25,1014.00,10.00,M,CLR,M,M,M,M,M,M,M,M,M,M,M,M,M,M,59.00,KELY 170753Z AUTO 15006KT 10SM CLR 15/12 A3025 RMK AO2 SLP140 T01500122 403060144,M
LOL,2023-08-17 07:53,-118.5701,40.0684,1192.43,77.00,51.00,40.21,70.00,6.00,T,30.10,1014.70,7.00,M,BKN,M,M,M,11000.00,M,M,M,M,M,M,M,M,M,M,77.00,KLOL 170753Z AUTO 07006KT 7SM BKN110 25/11 A3010 RMK AO2 RAB18E32 SLP147 P0000 T02500106 403280183,M
BVU,2023-08-17 07:55,-114.8611,35.9475,671.00,84.20,53.60,34.97,0.00,0.00,0.00,29.89,M,10.00,M,CLR,M,M,M,M,M,M,M,M,M,M,M,M,M,M,82.76,KBVU 170755Z AUTO 00000KT 10SM CLR 29/12 A2989 RMK AO2,M
INS,2023-08-17 07:55,-115.6733,36.5872,955.00,80.80,45.50,28.87,0.00,0.00,0.00,29.98,1009.80,10.00,M,BKN,M,M,M,16000.00,M,M,M,M,M,M,M,M,M,M,79.60,KINS 170755Z AUTO 00000KT 10SM BKN160 27/08 A2998 RMK AO2 SLP098 T02710075 403560262 $,M
RNO,2023-08-17 07:55,-119.7711,39.4839,1341.00,74.00,58.00,57.37,270.00,3.00,T,30.14,1014.00,10.00,M,BKN,OVC,M,M,10000.00,18000.00,M,M,M,M,M,M,M,M,M,74.00,KRNO 170755Z 27003KT 10SM BKN100 OVC180 23/14 A3014 RMK AO2 RAB16E51 SLP140 P0000 T02330144 403670178,M
LSV,2023-08-17 07:55,-115.0343,36.2362,570.00,88.00,50.70,27.84,170.00,3.00,0.00,29.84,1007.40,10.00,M,M,M,M,M,M,M,M,M,M,M,M,M,M,M,M,85.38,KLSV 170755Z AUTO 17003KT 10SM M 31/10 A2984 RMK AO2 SLP074 T03110104 404240291 $,M
CXP,2023-08-17 07:55,-119.7326,39.1923,1431.00,73.40,53.60,49.90,320.00,3.00,0.00,30.17,M,10.00,M,OVC,M,M,M,10000.00,M,M,M,M,M,M,M,M,M,M,73.40,KCXP 170755Z AUTO 32003KT 10SM OVC100 23/12 A3017 RMK AO2,M
RTS,2023-08-17 07:55,-119.8764,39.6682,1539.00,73.40,51.80,46.71,160.00,4.00,0.00,30.21,M,10.00,M,FEW,SCT,BKN,M,4000.00,4700.00,5500.00,M,-DZ,M,M,M,M,M,M,73.40,KRTS 170755Z AUTO 16004KT 10SM -DZ FEW040 SCT047 BKN055 23/11 A3021 RMK AO2,M
05U,2023-08-17 07:55,-116.0051,39.6042,1811.23,66.20,57.20,72.74,M,M,0.00,30.25,M,10.00,M,M,M,M,M,M,M,M,M,M,M,M,M,M,M,M,66.20,K05U 170755Z AUTO 10SM 19/14 A3025 RMK A01,M
MEV,2023-08-17 07:55,-119.7500,38.9963,1441.42,71.60,51.80,49.64,0.00,0.00,0.00,30.16,M,10.00,M,FEW,SCT,OVC,M,5500.00,8000.00,11000.00,M,M,M,M,M,M,M,M,71.60,KMEV 170755Z AUTO 00000KT 10SM FEW055 SCT080 OVC110 22/11 A3016 RMK AO2,M
BAM,2023-08-17 07:55,-116.8743,40.5990,1382.36,75.20,55.40,50.17,240.00,13.00,0.00,30.13,M,10.00,M,SCT,M,M,M,12000.00,M,M,M,M,M,M,M,M,M,M,75.20,KBAM 170755Z AUTO 24013KT 10SM SCT120 24/13 A3013 RMK AO1,M
HTH,2023-08-17 07:55,-118.6315,38.5448,1282.89,75.20,55.40,50.17,150.00,4.00,0.00,30.13,M,10.00,M,BKN,OVC,M,M,7000.00,10000.00,M,M,M,M,M,M,M,M,M,75.20,KHTH 170755Z AUTO 15004KT 10SM BKN070 OVC100 24/13 A3013 RMK A01,M
TMT,2023-08-17 07:55,-117.1971,39.4643,1749.34,61.00,60.00,96.51,250.00,3.00,0.00,30.24,M,M,M,M,M,M,M,M,M,M,M,M,M,M,M,M,M,M,61.00,KTMT 170755Z AUTO 25003KT 16/16 A3024 RMK AO2 T01620155 402950135 PWINO,M
10U,2023-08-17 07:55,-116.1876,41.9532,1637.00,64.40,37.40,36.74,170.00,6.00,0.00,30.17,M,10.00,M,CLR,M,M,M,M,M,M,M,M,M,M,M,M,M,M,64.40,K10U 170755Z AUTO 17006KT 10SM CLR 18/03 A3017 RMK AO2,M
EKO,2023-08-17 07:56,-115.7860,40.8242,1367.00,69.00,48.00,47.09,0.00,0.00,0.00,30.15,1014.30,10.00,M,CLR,M,M,M,M,M,M,M,M,M,M,M,M,M,M,69.00,KEKO 170756Z AUTO 00000KT 10SM CLR 21/09 A3015 RMK AO2 SLP143 T02060089 403280167,M
WMC,2023-08-17 07:56,-117.8072,40.9019,1315.00,76.00,51.00,41.57,150.00,14.00,0.01,30.14,1014.80,10.00,22.00,OVC,M,M,M,11000.00,M,M,M,M,M,M,M,M,M,M,76.00,KWMC 170756Z AUTO 15014G22KT 10SM OVC110 24/11 A3014 RMK AO2 RAE43 SLP148 P0001 T02440106 403330228,M
NFL,2023-08-17 07:56,-118.7010,39.4166,1199.00,78.00,54.00,43.44,100.00,7.00,0.00,30.09,1015.70,10.00,M,FEW,SCT,M,M,9000.00,11000.00,M,M,M,M,M,M,M,M,M,78.00,KNFL 170756Z AUTO 10007KT 10SM FEW090 SCT110 26/12 A3009 RMK AO2 SLP157 T02560122 403610167,M
HND,2023-08-17 07:56,-115.1344,35.9729,742.79,89.00,53.00,29.36,190.00,10.00,0.00,29.94,1011.90,10.00,M,CLR,M,M,M,M,M,M,M,M,M,M,M,M,M,M,86.68,KHND 170756Z AUTO 19010KT 10SM CLR 32/12 A2994 RMK AO2 SLP119 T03170117,M
TPH,2023-08-17 07:56,-117.0904,38.0505,1654.00,71.00,54.00,54.92,10.00,9.00,0.00,30.19,1013.10,10.00,M,CLR,M,M,M,M,M,M,M,M,M,M,M,M,M,M,71.00,KTPH 170756Z AUTO 01009KT 10SM CLR 22/12 A3019 RMK AO2 SLP131 T02170122 403330167,M
LAS,2023-08-17 07:56,-115.1634,36.0719,663.00,89.00,50.00,26.28,230.00,3.00,0.00,29.90,1009.10,10.00,M,FEW,M,M,M,20000.00,M,M,M,M,M,M,M,M,M,M,86.16,KLAS 170756Z 23003KT 10SM FEW200 32/10 A2990 RMK AO2 SLP091 T03170100 403890306,M
BVU,2023-08-17 08:15,-114.8611,35.9475,671.00,84.20,51.80,32.73,320.00,4.00,0.00,29.89,M,10.00,M,CLR,M,M,M,M,M,M,M,M,M,M,M,M,M,M,82.48,KBVU 170815Z AUTO 32004KT 10SM CLR 29/11 A2989 RMK AO2,M
CXP,2023-08-17 08:15,-119.7326,39.1923,1431.00,71.60,53.60,53.03,0.00,0.00,0.00,30.17,M,10.00,M,OVC,M,M,M,10000.00,M,M,M,M,M,M,M,M,M,M,71.60,KCXP 170815Z AUTO 00000KT 10SM OVC100 22/12 A3017 RMK AO2,M
RTS,2023-08-17 08:15,-119.8764,39.6682,1539.00,71.60,53.60,53.03,0.00,0.00,0.00,30.20,M,10.00,M,FEW,SCT,BKN,M,3800.00,4900.00,6000.00,M,M,M,M,M,M,M,M,71.60,KRTS 170815Z AUTO 00000KT 10SM FEW038 SCT049 BKN060 22/12 A3020 RMK AO2,M
05U,2023-08-17 08:15,-116.0051,39.6042,1811.23,64.40,57.20,77.45,M,M,0.00,30.25,M,10.00,M,M,M,M,M,M,M,M,M,M,M,M,M,M,M,M,64.40,K05U 170815Z AUTO 10SM 18/14 A3025 RMK A01,M
MEV,2023-08-17 08:15,-119.7500,38.9963,1441.42,68.00,51.80,56.13,0.00,0.00,0.00,30.16,M,10.00,M,FEW,BKN,OVC,M,4700.00,7500.00,9500.00,M,M,M,M,M,M,M,M,68.00,KMEV 170815Z AUTO 00000KT 10SM FEW047 BKN075 OVC095 20/11 A3016 RMK AO2,M
BAM,2023-08-17 08:15,-116.8743,40.5990,1382.36,77.00,55.40,47.25,240.00,17.00,0.00,30.13,M,10.00,21.00,SCT,M,M,M,11000.00,M,M,M,M,M,M,M,M,M,M,77.00,KBAM 170815Z AUTO 24017G21KT 10SM SCT110 25/13 A3013 RMK AO1,M
HTH,2023-08-17 08:15,-118.6315,38.5448,1282.89,75.20,57.20,53.55,130.00,4.00,0.00,30.12,M,10.00,M,FEW,BKN,OVC,M,6000.00,7500.00,10000.00,M,M,M,M,M,M,M,M,75.20,KHTH 170815Z AUTO 13004KT 10SM FEW060 BKN075 OVC100 24/14 A3012 RMK A01,M
TMT,2023-08-17 08:15,-117.1971,39.4643,1749.34,61.00,59.70,95.48,0.00,0.00,0.00,30.24,M,M,M,OVC,M,M,M,12000.00,M,M,M,M,M,M,M,M,M,M,61.00,KTMT 170815Z AUTO 00000KT OVC120 16/15 A3024 RMK AO2 T01610154 PWINO,M
10U,2023-08-17 08:15,-116.1876,41.9532,1637.00,62.60,37.40,39.14,130.00,7.00,0.00,30.16,M,10.00,M,CLR,M,M,M,M,M,M,M,M,M,M,M,M,M,M,62.60,K10U 170815Z AUTO 13007KT 10SM CLR 17/03 A3016 RMK AO2,M
BVU,2023-08-17 08:35,-114.8611,35.9475,671.00,84.20,53.60,34.97,330.00,3.00,0.00,29.89,M,10.00,M,CLR,M,M,M,M,M,M,M,M,M,M,M,M,M,M,82.76,KBVU 170835Z AUTO 33003KT 10SM CLR 29/12 A2989 RMK AO2,M
CXP,2023-08-17 08:35,-119.7326,39.1923,1431.00,71.60,55.40,56.63,0.00,0.00,0.00,30.16,M,10.00,M,BKN,BKN,M,M,10000.00,12000.00,M,M,M,M,M,M,M,M,M,71.60,KCXP 170835Z AUTO 00000KT 10SM BKN100 BKN120 22/13 A3016 RMK AO2,M
RTS,2023-08-17 08:35,-119.8764,39.6682,1539.00,69.80,57.20,64.26,340.00,7.00,0.00,30.19,M,10.00,M,FEW,BKN,M,M,6500.00,11000.00,M,M,M,M,M,M,M,M,M,69.80,KRTS 170835Z AUTO 34007KT 10SM FEW065 BKN110 21/14 A3019 RMK AO2,M
05U,2023-08-17 08:35,-116.0051,39.6042,1811.23,62.60,55.40,77.29,M,M,0.00,30.25,M,10.00,M,M,M,M,M,M,M,M,M,M,M,M,M,M,M,M,62.60,K05U 170835Z AUTO 10SM 17/13 A3025 RMK A01,M
MEV,2023-08-17 08:35,-119.7500,38.9963,1441.42,66.20,53.60,63.82,200.00,5.00,0.00,30.15,M,10.00,M,SCT,BKN,BKN,M,7500.00,10000.00,12000.00,M,M,M,M,M,M,M,M,66.20,KMEV 170835Z AUTO 20005KT 10SM SCT075 BKN100 BKN120 19/12 A3015 RMK AO2,M
BAM,2023-08-17 08:35,-116.8743,40.5990,1382.36,75.20,53.60,46.98,240.00,13.00,0.00,30.13,M,10.00,M,BKN,M,M,M,11000.00,M,M,M,M,M,M,M,M,M,M,75.20,KBAM 170835Z AUTO 24013KT 10SM BKN110 24/12 A3013 RMK AO1,M
HTH,2023-08-17 08:35,-118.6315,38.5448,1282.89,73.40,59.00,60.67,140.00,6.00,0.00,30.12,M,10.00,M,SCT,BKN,OVC,M,6000.00,7500.00,12000.00,M,M,M,M,M,M,M,M,73.40,KHTH 170835Z AUTO 14006KT 10SM SCT060 BKN075 OVC120 23/15 A3012 RMK A01,M
TMT,2023-08-17 08:35,-117.1971,39.4643,1749.34,61.30,60.00,95.49,0.00,0.00,0.00,30.24,M,M,M,M,M,M,M,M,M,M,M,M,M,M,M,M,M,M,61.30,KTMT 170835Z AUTO 00000KT 16/16 A3024 RMK AO2 T01630155 PWINO,M
10U,2023-08-17 08:35,-116.1876,41.9532,1637.00,62.60,37.40,39.14,150.00,5.00,0.00,30.16,M,10.00,M,CLR,M,M,M,M,M,M,M,M,M,M,M,M,M,M,62.60,K10U 170835Z AUTO 15005KT 10SM CLR 17/03 A3016 RMK AO2,M
HTH,2023-08-17 08:50,-118.6315,38.5448,1282.89,73.40,57.20,56.88,150.00,6.00,0.00,30.12,M,10.00,M,FEW,SCT,BKN,M,5500.00,7500.00,9500.00,M,M,M,M,M,M,M,M,73.40,KHTH 170850Z AUTO 15006KT 10SM FEW055 SCT075 BKN095 23/14 A3012 RMK A01,M
P68,2023-08-17 08:53,-116.0056,39.6014,1993.00,62.00,56.00,80.68,280.00,3.00,0.00,30.22,1014.10,M,M,M,M,M,M,M,M,M,M,M,M,M,M,M,M,M,62.00,KP68 170853Z AUTO 28003KT 17/13 A3022 RMK AO1 SLP141 T01670133 58003,M
DRA,2023-08-17 08:53,-116.0278,36.6206,1009.00,81.00,46.00,29.23,90.00,6.00,0.00,29.98,1009.20,10.00,M,CLR,M,M,M,M,M,M,M,M,M,M,M,M,M,M,79.76,KDRA 170853Z AUTO 09006KT 10SM CLR 27/08 A2998 RMK AO2 SLP092 T02720078 58003,M
ELY,2023-08-17 08:53,-114.8453,39.2950,1909.00,59.00,54.00,83.46,190.00,5.00,0.00,30.24,1013.20,10.00,M,OVC,M,M,M,12000.00,M,M,M,M,M,M,M,M,M,M,59.00,KELY 170853Z AUTO 19005KT 10SM OVC120 15/12 A3024 RMK AO2 SLP132 T01500122 58004,M
LOL,2023-08-17 08:53,-118.5701,40.0684,1192.43,74.00,56.00,53.37,60.00,6.00,T,30.09,1014.20,10.00,M,SCT,BKN,M,M,9000.00,11000.00,M,M,-RA,M,M,M,M,M,M,74.00,KLOL 170853Z AUTO 06006KT 10SM -RA SCT090 BKN110 23/13 A3009 RMK AO2 RAB43 SLP142 P0000 60000 T02330133 50007,M
BVU,2023-08-17 08:55,-114.8611,35.9475,671.00,82.40,53.60,37.07,340.00,3.00,0.00,29.88,M,10.00,M,CLR,M,M,M,M,M,M,M,M,M,M,M,M,M,M,81.46,KBVU 170855Z AUTO 34003KT 10SM CLR 28/12 A2988 RMK AO2,M
INS,2023-08-17 08:55,-115.6733,36.5872,955.00,77.70,44.60,30.89,0.00,0.00,0.00,29.97,1009.60,10.00,M,CLR,M,M,M,M,M,M,M,M,M,M,M,M,M,M,77.70,KINS 170855Z AUTO 00000KT 10SM CLR 25/07 A2997 RMK AO2 SLP096 T02540070 55002 $,M
RNO,2023-08-17 08:55,-119.7711,39.4839,1341.00,71.00,60.00,68.20,80.00,3.00,0.00,30.12,1013.20,10.00,M,BKN,OVC,M,M,10000.00,18000.00,M,M,M,M,M,M,M,M,M,71.00,KRNO 170855Z 08003KT 10SM BKN100 OVC180 22/16 A3012 RMK AO2 SLP132 60000 T02170156 58004,M
BAM,2023-08-17 08:55,-116.8743,40.5990,1382.36,75.20,53.60,46.98,240.00,14.00,0.00,30.12,M,10.00,18.00,SCT,M,M,M,12000.00,M,M,M,M,M,M,M,M,M,M,75.20,KBAM 170855Z AUTO 24014G18KT 10SM SCT120 24/12 A3012 RMK AO1,M
CXP,2023-08-17 08:55,-119.7326,39.1923,1431.00,71.60,53.60,53.03,0.00,0.00,0.00,30.15,M,10.00,M,FEW,SCT,OVC,M,3400.00,7000.00,10000.00,M,M,M,M,M,M,M,M,71.60,KCXP 170855Z AUTO 00000KT 10SM FEW034 SCT070 OVC100 22/12 A3015 RMK AO2,M
RTS,2023-08-17 08:55,-119.8764,39.6682,1539.00,68.00,53.60,59.97,300.00,7.00,0.00,30.18,M,10.00,M,FEW,BKN,M,M,8500.00,11000.00,M,M,M,M,M,M,M,M,M,68.00,KRTS 170855Z AUTO 30007KT 10SM FEW085 BKN110 20/12 A3018 RMK AO2,M
05U,2023-08-17 08:55,-116.0051,39.6042,1811.23,62.60,55.40,77.29,M,M,0.00,30.24,M,10.00,M,M,M,M,M,M,M,M,M,M,M,M,M,M,M,M,62.60,K05U 170855Z AUTO 10SM 17/13 A3024 RMK A01,M
MEV,2023-08-17 08:55,-119.7500,38.9963,1441.42,64.40,59.00,82.62,0.00,0.00,0.00,30.15,M,9.00,M,FEW,SCT,BKN,M,3600.00,7000.00,10000.00,M,-RA,M,M,M,M,M,M,64.40,KMEV 170855Z AUTO 00000KT 9SM -RA FEW036 SCT070 BKN100 18/15 A3015 RMK AO2,M
TMT,2023-08-17 08:55,-117.1971,39.4643,1749.34,60.80,60.00,97.20,0.00,0.00,0.00,30.24,M,M,M,M,M,M,M,M,M,M,M,M,M,M,M,M,M,M,60.80,KTMT 170855Z AUTO 00000KT 16/16 A3024 RMK AO2 60001 T01600155 PWINO,M
10U,2023-08-17 08:55,-116.1876,41.9532,1637.00,60.80,37.40,41.71,310.00,6.00,0.00,30.16,M,10.00,M,CLR,M,M,M,M,M,M,M,M,M,M,M,M,M,M,60.80,K10U 170855Z AUTO 31006KT 10SM CLR 16/03 A3016 RMK AO2,M
LSV,2023-08-17 08:55,-115.0343,36.2362,570.00,88.00,51.60,28.78,200.00,5.00,0.00,29.84,1007.50,10.00,M,CLR,M,M,M,M,M,M,M,M,M,M,M,M,M,M,85.53,KLSV 170855Z AUTO 20005KT 10SM CLR 31/11 A2984 RMK AO2 SLP075 T03110109 56004 $,M
EKO,2023-08-17 08:56,-115.7860,40.8242,1367.00,66.00,46.00,48.43,50.00,3.00,0.00,30.14,1014.20,10.00,M,FEW,M,M,M,11000.00,M,M,M,M,M,M,M,M,M,M,66.00,KEKO 170856Z AUTO 05003KT 10SM FEW110 19/08 A3014 RMK AO2 SLP142 T01890078 50000,M
WMC,2023-08-17 08:56,-117.8072,40.9019,1315.00,73.00,55.00,53.23,210.00,6.00,T,30.13,1014.70,10.00,M,FEW,BKN,OVC,M,6000.00,10000.00,12000.00,M,-RA,M,M,M,M,M,M,73.00,KWMC 170856Z AUTO 21006KT 10SM -RA FEW060 BKN100 OVC120 23/13 A3013 RMK AO2 RAB0758E11B38 SLP147 P0000 60001 T02280128 53008,M
NFL,2023-08-17 08:56,-118.7010,39.4166,1199.00,76.00,54.00,46.42,170.00,5.00,0.00,30.08,1015.20,10.00,M,BKN,M,M,M,12000.00,M,M,M,M,M,M,M,M,M,M,76.00,KNFL 170856Z AUTO 17005KT 10SM BKN120 24/12 A3008 RMK AO2 SLP152 T02440122 58003,M
HND,2023-08-17 08:56,-115.1344,35.9729,742.79,86.00,53.00,32.29,190.00,10.00,0.00,29.93,1011.70,10.00,M,CLR,M,M,M,M,M,M,M,M,M,M,M,M,M,M,84.07,KHND 170856Z AUTO 19010KT 10SM CLR 30/12 A2993 RMK AO2 SLP117 T03000117 57005,M
TPH,2023-08-17 08:56,-117.0904,38.0505,1654.00,71.00,55.00,56.96,10.00,13.00,0.00,30.18,1012.80,10.00,M,FEW,OVC,M,M,10000.00,12000.00,M,M,M,M,M,M,M,M,M,71.00,KTPH 170856Z AUTO 01013KT 10SM FEW100 OVC120 22/13 A3018 RMK AO2 SLP128 T02170128 58005,M
LAS,2023-08-17 08:56,-115.1634,36.0719,663.00,88.00,52.00,29.21,210.00,3.00,0.00,29.89,1009.00,10.00,M,FEW,M,M,M,20000.00,M,M,M,M,M,M,M,M,M,M,85.60,KLAS 170856Z 21003KT 10SM FEW200 31/11 A2989 RMK AO2 SLP090 T03110111 57004,M
BVU,2023-08-17 09:15,-114.8611,35.9475,671.00,82.40,53.60,37.07,320.00,3.00,0.00,29.89,M,10.00,M,CLR,M,M,M,M,M,M,M,M,M,M,M,M,M,M,81.46,KBVU 170915Z AUTO 32003KT 10SM CLR 28/12 A2989 RMK AO2,M
CXP,2023-08-17 09:15,-119.7326,39.1923,1431.00,68.00,57.20,68.35,0.00,0.00,0.00,30.15,M,10.00,M,FEW,FEW,SCT,M,7000.00,9500.00,12000.00,M,M,M,M,M,M,M,M,68.00,KCXP 170915Z AUTO 00000KT 10SM FEW070 FEW095 SCT120 20/14 A3015 RMK AO2,M
05U,2023-08-17 09:15,-116.0051,39.6042,1811.23,62.60,55.40,77.29,M,M,0.00,30.24,M,10.00,M,M,M,M,M,M,M,M,M,M,M,M,M,M,M,M,62.60,K05U 170915Z AUTO 10SM 17/13 A3024 RMK A01,M
RTS,2023-08-17 09:15,-119.8764,39.6682,1539.00,68.00,53.60,59.97,340.00,7.00,0.00,30.17,M,10.00,M,BKN,M,M,M,11000.00,M,M,M,M,M,M,M,M,M,M,68.00,KRTS 170915Z AUTO 34007KT 10SM BKN110 20/12 A3017 RMK AO2,M
MEV,2023-08-17 09:15,-119.7500,38.9963,1441.42,62.60,57.20,82.50,200.00,5.00,0.00,30.15,M,10.00,M,FEW,SCT,BKN,M,5500.00,10000.00,12000.00,M,M,M,M,M,M,M,M,62.60,KMEV 170915Z AUTO 20005KT 10SM FEW055 SCT100 BKN120 17/14 A3015 RMK AO2,M
BAM,2023-08-17 09:15,-116.8743,40.5990,1382.36,73.40,55.40,53.29,230.00,10.00,0.00,30.12,M,10.00,M,CLR,M,M,M,M,M,M,M,M,M,M,M,M,M,M,73.40,KBAM 170915Z AUTO 23010KT 10SM CLR 23/13 A3012 RMK AO1,M
HTH,2023-08-17 09:15,-118.6315,38.5448,1282.89,73.40,55.40,53.29,170.00,3.00,0.00,30.11,M,10.00,M,FEW,FEW,OVC,M,6000.00,7500.00,11000.00,M,M,M,M,M,M,M,M,73.40,KHTH 170915Z AUTO 17003KT 10SM FEW060 FEW075 OVC110 23/13 A3011 RMK A01,M
TMT,2023-08-17 09:15,-117.1971,39.4643,1749.34,59.00,58.00,96.48,110.00,3.00,0.00,30.22,M,M,M,M,M,M,M,M,M,M,M,M,M,M,M,M,M,M,59.00,KTMT 170915Z AUTO 11003KT 15/15 A3022 RMK AO2 T01490145 PWINO,M
10U,2023-08-17 09:15,-116.1876,41.9532,1637.00,60.80,37.40,41.71,0.00,0.00,0.00,30.16,M,10.00,M,CLR,M,M,M,M,M,M,M,M,M,M,M,M,M,M,60.80,K10U 170915Z AUTO 00000KT 10SM CLR 16/03 A3016 RMK AO2,M
05U,2023-08-17 09:30,-116.0051,39.6042,1811.23,62.60,55.40,77.29,M,M,0.00,30.24,M,10.00,M,M,M,M,M,M,M,M,M,M,M,M,M,M,M,M,62.60,K05U 170930Z AUTO 10SM 17/13 A3024 RMK A01,M
BVU,2023-08-17 09:35,-114.8611,35.9475,671.00,82.40,53.60,37.07,0.00,0.00,0.00,29.88,M,10.00,M,CLR,M,M,M,M,M,M,M,M,M,M,M,M,M,M,81.46,KBVU 170935Z AUTO 00000KT 10SM CLR 28/12 A2988 RMK AO2,M
CXP,2023-08-17 09:35,-119.7326,39.1923,1431.00,68.00,57.20,68.35,0.00,0.00,0.00,30.15,M,7.00,M,CLR,M,M,M,M,M,M,M,M,M,M,M,M,M,M,68.00,KCXP 170935Z AUTO 00000KT 7SM CLR 20/14 A3015 RMK AO2,M
RTS,2023-08-17 09:35,-119.8764,39.6682,1539.00,69.80,50.00,49.37,290.00,5.00,0.00,30.17,M,10.00,M,FEW,M,M,M,10000.00,M,M,M,M,M,M,M,M,M,M,69.80,KRTS 170935Z AUTO 29005KT 10SM FEW100 21/10 A3017 RMK AO2,M
MEV,2023-08-17 09:35,-119.7500,38.9963,1441.42,62.60,57.20,82.50,130.00,8.00,0.00,30.15,M,10.00,M,BKN,M,M,M,10000.00,M,M,M,M,M,M,M,M,M,M,62.60,KMEV 170935Z AUTO 13008KT 10SM BKN100 17/14 A3015 RMK AO2,M
BAM,2023-08-17 09:35,-116.8743,40.5990,1382.36,73.40,55.40,53.29,230.00,10.00,0.00,30.12,M,10.00,M,CLR,M,M,M,M,M,M,M,M,M,M,M,M,M,M,73.40,KBAM 170935Z AUTO 23010KT 10SM CLR 23/13 A3012 RMK AO1,M
HTH,2023-08-17 09:35,-118.6315,38.5448,1282.89,73.40,55.40,53.29,0.00,0.00,0.00,30.11,M,10.00,M,BKN,M,M,M,11000.00,M,M,M,M,M,M,M,M,M,M,73.40,KHTH 170935Z AUTO 00000KT 10SM BKN110 23/13 A3011 RMK A01,M
TMT,2023-08-17 09:35,-117.1971,39.4643,1749.34,58.00,57.60,98.57,200.00,4.00,0.00,30.22,M,M,M,M,M,M,M,M,M,M,M,M,M,M,M,M,M,M,58.00,KTMT 170935Z AUTO 20004KT 15/14 A3022 RMK AO2 T01450142 PWINO,M
10U,2023-08-17 09:35,-116.1876,41.9532,1637.00,57.20,37.40,47.44,70.00,5.00,0.00,30.16,M,10.00,M,CLR,M,M,M,M,M,M,M,M,M,M,M,M,M,M,57.20,K10U 170935Z AUTO 07005KT 10SM CLR 14/03 A3016 RMK AO2,M
P68,2023-08-17 09:53,-116.0056,39.6014,1993.00,63.00,54.00,72.42,190.00,4.00,0.00,30.21,1013.70,M,M,M,M,M,M,M,M,M,M,M,M,M,M,M,M,M,63.00,KP68 170953Z AUTO 19004KT 17/12 A3021 RMK AO1 SLP137 T01720122,M
DRA,2023-08-17 09:53,-116.0278,36.6206,1009.00,77.00,45.00,32.10,100.00,5.00,0.00,29.97,1009.40,10.00,M,CLR,M,M,M,M,M,M,M,M,M,M,M,M,M,M,77.00,KDRA 170953Z AUTO 10005KT 10SM CLR 25/07 A2997 RMK AO2 SLP094 T02500072,M
ELY,2023-08-17 09:53,-114.8453,39.2950,1909.00,60.00,54.00,80.53,180.00,6.00,0.00,30.23,1012.60,10.00,M,OVC,M,M,M,12000.00,M,M,M,M,M,M,M,M,M,M,60.00,KELY 170953Z AUTO 18006KT 10SM OVC120 16/12 A3023 RMK AO2 SLP126 T01560122,M
LOL,2023-08-17 09:53,-118.5701,40.0684,1192.43,72.00,56.00,57.10,290.00,4.00,T,30.06,1013.60,10.00,M,CLR,M,M,M,M,M,M,M,M,M,M,M,M,M,M,72.00,KLOL 170953Z AUTO 29004KT 10SM CLR 22/13 A3006 RMK AO2 RAE0858 SLP136 P0000 T02220133,M
BVU,2023-08-17 09:55,-114.8611,35.9475,671.00,80.60,53.60,39.30,0.00,0.00,0.00,29.88,M,10.00,M,CLR,M,M,M,M,M,M,M,M,M,M,M,M,M,M,80.29,KBVU 170955Z AUTO 00000KT 10SM CLR 27/12 A2988 RMK AO2,M
CXP,2023-08-17 09:55,-119.7326,39.1923,1431.00,68.00,55.40,64.04,0.00,0.00,0.00,30.16,M,10.00,M,FEW,SCT,M,M,9000.00,11000.00,M,M,M,M,M,M,M,M,M,68.00,KCXP 170955Z AUTO 00000KT 10SM FEW090 SCT110 20/13 A3016 RMK AO2,M
INS,2023-08-17 09:55,-115.6733,36.5872,955.00,75.60,44.40,32.87,0.00,0.00,0.00,29.97,1009.60,10.00,M,CLR,M,M,M,M,M,M,M,M,M,M,M,M,M,M,75.60,KINS 170955Z AUTO 00000KT 10SM CLR 24/07 A2997 RMK AO2 SLP096 T02420069 $,M
RNO,2023-08-17 09:55,-119.7711,39.4839,1341.00,72.00,59.00,63.61,130.00,3.00,0.00,30.11,1012.80,10.00,M,BKN,BKN,M,M,11000.00,18000.00,M,M,M,M,M,M,M,M,M,72.00,KRNO 170955Z 13003KT 10SM BKN110 BKN180 22/15 A3011 RMK AO2 SLP128 T02220150,M
RTS,2023-08-17 09:55,-119.8764,39.6682,1539.00,69.80,50.00,49.37,270.00,5.00,0.00,30.16,M,10.00,M,BKN,M,M,M,10000.00,M,M,M,M,M,M,M,M,M,M,69.80,KRTS 170955Z AUTO 27005KT 10SM BKN100 21/10 A3016 RMK AO2,M
05U,2023-08-17 09:55,-116.0051,39.6042,1811.23,62.60,53.60,72.38,M,M,0.00,30.23,M,10.00,M,M,M,M,M,M,M,M,M,M,M,M,M,M,M,M,62.60,K05U 170955Z AUTO 10SM 17/12 A3023 RMK A01,M
MEV,2023-08-17 09:55,-119.7500,38.9963,1441.42,64.40,55.40,72.56,110.00,3.00,0.00,30.15,M,10.00,M,FEW,BKN,OVC,M,4900.00,7500.00,9500.00,M,M,M,M,M,M,M,M,64.40,KMEV 170955Z AUTO 11003KT 10SM FEW049 BKN075 OVC095 18/13 A3015 RMK AO2,M
HTH,2023-08-17 09:55,-118.6315,38.5448,1282.89,71.60,57.20,60.44,360.00,5.00,0.00,30.10,M,10.00,M,FEW,BKN,M,M,3800.00,11000.00,M,M,M,M,M,M,M,M,M,71.60,KHTH 170955Z AUTO 36005KT 10SM FEW038 BKN110 22/14 A3010 RMK A01,M
BAM,2023-08-17 09:55,-116.8743,40.5990,1382.36,73.40,55.40,53.29,190.00,7.00,0.00,30.12,M,10.00,M,CLR,M,M,M,M,M,M,M,M,M,M,M,M,M,M,73.40,KBAM 170955Z AUTO 19007KT 10SM CLR 23/13 A3012 RMK AO1,M
TMT,2023-08-17 09:55,-117.1971,39.4643,1749.34,58.00,57.40,97.86,270.00,3.00,0.00,30.22,M,M,M,M,M,M,M,M,M,M,M,M,M,M,M,M,M,M,58.00,KTMT 170955Z AUTO 27003KT 15/14 A3022 RMK AO2 T01450141 PWINO,M
10U,2023-08-17 09:55,-116.1876,41.9532,1637.00,57.20,39.20,50.91,110.00,4.00,0.00,30.15,M,10.00,M,CLR,M,M,M,M,M,M,M,M,M,M,M,M,M,M,57.20,K10U 170955Z AUTO 11004KT 10SM CLR 14/04 A3015 RMK AO2,M
LSV,2023-08-17 09:55,-115.0343,36.2362,570.00,86.00,50.00,28.90,160.00,3.00,0.00,29.84,1007.50,10.00,M,CLR,M,M,M,M,M,M,M,M,M,M,M,M,M,M,83.62,KLSV 170955Z AUTO 16003KT 10SM CLR 30/10 A2984 RMK AO2 SLP075 T03010101 $,M
EKO,2023-08-17 09:56,-115.7860,40.8242,1367.00,65.00,47.00,52.07,0.00,0.00,0.00,30.13,1014.00,10.00,M,CLR,M,M,M,M,M,M,M,M,M,M,M,M,M,M,65.00,KEKO 170956Z AUTO 00000KT 10SM CLR 18/08 A3013 RMK AO2 SLP140 T01830083,M
WMC,2023-08-17 09:56,-117.8072,40.9019,1315.00,71.00,55.00,56.96,280.00,5.00,T,30.11,1013.90,10.00,M,BKN,M,M,M,11000.00,M,M,M,-RA,M,M,M,M,M,M,71.00,KWMC 170956Z AUTO 28005KT 10SM -RA BKN110 22/13 A3011 RMK AO2 RAE02B50 SLP139 P0000 T02170128,M
NFL,2023-08-17 09:56,-118.7010,39.4166,1199.00,73.00,53.00,49.48,150.00,3.00,0.00,30.07,1015.00,10.00,M,CLR,M,M,M,M,M,M,M,M,M,M,M,M,M,M,73.00,KNFL 170956Z AUTO 15003KT 10SM CLR 23/12 A3007 RMK AO2 SLP150 T02280117,M
HND,2023-08-17 09:56,-115.1344,35.9729,742.79,87.00,53.00,31.28,210.00,8.00,0.00,29.93,1011.70,10.00,M,CLR,M,M,M,M,M,M,M,M,M,M,M,M,M,M,84.91,KHND 170956Z AUTO 21008KT 10SM CLR 31/12 A2993 RMK AO2 SLP117 T03060117,M
TPH,2023-08-17 09:56,-117.0904,38.0505,1654.00,68.00,56.00,65.45,360.00,11.00,0.00,30.17,1013.10,10.00,M,CLR,M,M,M,M,M,M,M,M,M,M,M,M,M,M,68.00,KTPH 170956Z AUTO 36011KT 10SM CLR 20/13 A3017 RMK AO2 SLP131 T02000133,M
LAS,2023-08-17 09:56,-115.1634,36.0719,663.00,88.00,50.00,27.12,220.00,6.00,0.00,29.89,1009.10,10.00,M,CLR,M,M,M,M,M,M,M,M,M,M,M,M,M,M,85.28,KLAS 170956Z 22006KT 10SM CLR 31/10 A2989 RMK AO2 SLP091 T03110100,M
BVU,2023-08-17 10:15,-114.8611,35.9475,671.00,82.40,55.40,39.58,0.00,0.00,0.00,29.88,M,10.00,M,CLR,M,M,M,M,M,M,M,M,M,M,M,M,M,M,81.75,KBVU 171015Z AUTO 00000KT 10SM CLR 28/13 A2988 RMK AO2,M
CXP,2023-08-17 10:15,-119.7326,39.1923,1431.00,69.80,53.60,56.38,0.00,0.00,0.00,30.16,M,10.00,M,BKN,OVC,M,M,9000.00,11000.00,M,M,M,M,M,M,M,M,M,69.80,KCXP 171015Z AUTO 00000KT 10SM BKN090 OVC110 21/12 A3016 RMK AO2,M
RTS,2023-08-17 10:15,-119.8764,39.6682,1539.00,68.00,51.80,56.13,300.00,3.00,0.00,30.16,M,10.00,M,OVC,M,M,M,10000.00,M,M,M,M,M,M,M,M,M,M,68.00,KRTS 171015Z AUTO 30003KT 10SM OVC100 20/11 A3016 RMK AO2,M
05U,2023-08-17 10:15,-116.0051,39.6042,1811.23,62.60,55.40,77.29,M,M,0.00,30.23,M,10.00,M,M,M,M,M,M,M,M,M,M,M,M,M,M,M,M,62.60,K05U 171015Z AUTO 10SM 17/13 A3023 RMK A01,M
MEV,2023-08-17 10:15,-119.7500,38.9963,1441.42,64.40,55.40,72.56,60.00,5.00,0.00,30.14,M,10.00,M,FEW,BKN,OVC,M,3900.00,5500.00,8500.00,M,M,M,M,M,M,M,M,64.40,KMEV 171015Z AUTO 06005KT 10SM FEW039 BKN055 OVC085 18/13 A3014 RMK AO2,M
BAM,2023-08-17 10:15,-116.8743,40.5990,1382.36,71.60,55.40,56.63,160.00,4.00,0.00,30.11,M,10.00,M,CLR,M,M,M,M,M,M,M,M,M,M,M,M,M,M,71.60,KBAM 171015Z AUTO 16004KT 10SM CLR 22/13 A3011 RMK AO1,M
HTH,2023-08-17 10:15,-118.6315,38.5448,1282.89,71.60,57.20,60.44,70.00,5.00,0.00,30.10,M,10.00,M,BKN,M,M,M,12000.00,M,M,M,M,M,M,M,M,M,M,71.60,KHTH 171015Z AUTO 07005KT 10SM BKN120 22/14 A3010 RMK A01,M
10U,2023-08-17 10:15,-116.1876,41.9532,1637.00,55.40,39.20,54.34,130.00,7.00,0.00,30.15,M,10.00,M,CLR,M,M,M,M,M,M,M,M,M,M,M,M,M,M,55.40,K10U 171015Z AUTO 13007KT 10SM CLR 13/04 A3015 RMK AO2,M
TMT,2023-08-17 10:15,-117.1971,39.4643,1749.34,58.00,57.40,97.86,300.00,3.00,0.00,30.22,M,M,M,M,M,M,M,M,M,M,M,M,M,M,M,M,M,M,58.00,KTMT 171015Z AUTO 30003KT 14/14 A3022 RMK AO2 T01440141 PWINO,M
BVU,2023-08-17 10:35,-114.8611,35.9475,671.00,80.60,55.40,41.97,0.00,0.00,0.00,29.88,M,10.00,M,CLR,M,M,M,M,M,M,M,M,M,M,M,M,M,M,80.53,KBVU 171035Z AUTO 00000KT 10SM CLR 27/13 A2988 RMK AO2,M
CXP,2023-08-17 10:35,-119.7326,39.1923,1431.00,69.80,53.60,56.38,180.00,4.00,0.00,30.16,M,10.00,M,OVC,M,M,M,9000.00,M,M,M,M,M,M,M,M,M,M,69.80,KCXP 171035Z AUTO 18004KT 10SM OVC090 21/12 A3016 RMK AO2,M
RTS,2023-08-17 10:35,-119.8764,39.6682,1539.00,69.80,50.00,49.37,0.00,0.00,0.00,30.16,M,10.00,M,BKN,OVC,M,M,10000.00,12000.00,M,M,M,M,M,M,M,M,M,69.80,KRTS 171035Z AUTO 00000KT 10SM BKN100 OVC120 21/10 A3016 RMK AO2,M
05U,2023-08-17 10:35,-116.0051,39.6042,1811.23,62.60,55.40,77.29,M,M,0.00,30.22,M,10.00,M,M,M,M,M,M,M,M,M,M,M,M,M,M,M,M,62.60,K05U 171035Z AUTO 10SM 17/13 A3022 RMK A01,M
MEV,2023-08-17 10:35,-119.7500,38.9963,1441.42,64.40,55.40,72.56,120.00,4.00,0.00,30.14,M,10.00,M,FEW,SCT,BKN,M,4000.00,6000.00,8000.00,M,M,M,M,M,M,M,M,64.40,KMEV 171035Z AUTO 12004KT 10SM FEW040 SCT060 BKN080 18/13 A3014 RMK AO2,M
BAM,2023-08-17 10:35,-116.8743,40.5990,1382.36,69.80,55.40,60.21,160.00,4.00,0.00,30.11,M,10.00,M,CLR,M,M,M,M,M,M,M,M,M,M,M,M,M,M,69.80,KBAM 171035Z AUTO 16004KT 10SM CLR 21/13 A3011 RMK AO1,M
HTH,2023-08-17 10:35,-118.6315,38.5448,1282.89,71.60,59.00,64.48,320.00,4.00,0.00,30.09,M,10.00,M,FEW,SCT,BKN,M,4600.00,5500.00,7000.00,M,M,M,M,M,M,M,M,71.60,KHTH 171035Z AUTO 32004KT 10SM FEW046 SCT055 BKN070 22/15 A3009 RMK A01,M
10U,2023-08-17 10:35,-116.1876,41.9532,1637.00,57.20,37.40,47.44,160.00,9.00,0.00,30.15,M,10.00,M,CLR,M,M,M,M,M,M,M,M,M,M,M,M,M,M,57.20,K10U 171035Z AUTO 16009KT 10SM CLR 14/03 A3015 RMK AO2,M
TMT,2023-08-17 10:35,-117.1971,39.4643,1749.34,57.70,57.40,98.93,0.00,0.00,0.00,30.22,M,M,M,M,M,M,M,M,M,M,M,M,M,M,M,M,M,M,57.70,KTMT 171035Z AUTO 00000KT 14/14 A3022 RMK AO2 T01430141 PWINO,M
05U,2023-08-17 10:50,-116.0051,39.6042,1811.23,62.60,55.40,77.29,M,M,0.00,30.22,M,10.00,M,M,M,M,M,M,M,M,M,M,M,M,M,M,M,M,62.60,K05U 171050Z AUTO 10SM 17/13 A3022 RMK A01,M
P68,2023-08-17 10:53,-116.0056,39.6014,1993.00,63.00,55.00,75.11,200.00,4.00,0.00,30.19,1013.10,M,M,M,M,M,M,M,M,M,M,M,M,M,M,M,M,M,63.00,KP68 171053Z AUTO 20004KT 17/13 A3019 RMK AO1 SLP131 T01720128,M
DRA,2023-08-17 10:53,-116.0278,36.6206,1009.00,77.00,46.00,33.34,0.00,0.00,0.00,29.97,1009.30,10.00,M,CLR,M,M,M,M,M,M,M,M,M,M,M,M,M,M,77.00,KDRA 171053Z AUTO 00000KT 10SM CLR 25/08 A2997 RMK AO2 SLP093 T02500078,M
ELY,2023-08-17 10:53,-114.8453,39.2950,1909.00,58.00,53.00,83.39,180.00,7.00,0.00,30.22,1012.60,10.00,M,SCT,M,M,M,9000.00,M,M,M,M,M,M,M,M,M,M,58.00,KELY 171053Z AUTO 18007KT 10SM SCT090 14/12 A3022 RMK AO2 SLP126 T01440117,M
LOL,2023-08-17 10:53,-118.5701,40.0684,1192.43,71.00,54.00,54.92,40.00,6.00,0.00,30.06,1013.30,10.00,M,CLR,M,M,M,M,M,M,M,M,M,M,M,M,M,M,71.00,KLOL 171053Z AUTO 04006KT 10SM CLR 22/12 A3006 RMK AO2 SLP133 T02170122,M
BVU,2023-08-17 10:55,-114.8611,35.9475,671.00,80.60,55.40,41.97,0.00,0.00,0.00,29.88,M,10.00,M,CLR,M,M,M,M,M,M,M,M,M,M,M,M,M,M,80.53,KBVU 171055Z AUTO 00000KT 10SM CLR 27/13 A2988 RMK AO2,M
CXP,2023-08-17 10:55,-119.7326,39.1923,1431.00,69.80,53.60,56.38,360.00,5.00,0.00,30.15,M,10.00,M,FEW,BKN,OVC,M,4700.00,7500.00,8500.00,M,M,M,M,M,M,M,M,69.80,KCXP 171055Z AUTO 36005KT 10SM FEW047 BKN075 OVC085 21/12 A3015 RMK AO2,M
INS,2023-08-17 10:55,-115.6733,36.5872,955.00,74.70,45.00,34.66,0.00,0.00,0.00,29.96,1009.40,10.00,M,CLR,M,M,M,M,M,M,M,M,M,M,M,M,M,M,74.70,KINS 171055Z AUTO 00000KT 10SM CLR 24/07 A2996 RMK AO2 SLP094 T02370073 $,M
RNO,2023-08-17 10:55,-119.7711,39.4839,1341.00,72.00,56.00,57.10,220.00,4.00,0.00,30.10,1012.60,10.00,M,BKN,BKN,M,M,10000.00,18000.00,M,M,M,M,M,M,M,M,M,72.00,KRNO 171055Z 22004KT 10SM BKN100 BKN180 22/13 A3010 RMK AO2 LTG DSNT SW SLP126 T02220133,M
LSV,2023-08-17 10:55,-115.0343,36.2362,570.00,84.40,50.40,30.88,200.00,4.00,0.00,29.83,1007.20,10.00,M,CLR,M,M,M,M,M,M,M,M,M,M,M,M,M,M,82.43,KLSV 171055Z AUTO 20004KT 10SM CLR 29/10 A2983 RMK AO2 SLP072 T02910102 $,M
RTS,2023-08-17 10:55,-119.8764,39.6682,1539.00,69.80,50.00,49.37,0.00,0.00,0.00,30.15,M,10.00,M,BKN,OVC,M,M,9500.00,12000.00,M,M,M,M,M,M,M,M,M,69.80,KRTS 171055Z AUTO 00000KT 10SM BKN095 OVC120 21/10 A3015 RMK AO2,M
MEV,2023-08-17 10:55,-119.7500,38.9963,1441.42,64.40,55.40,72.56,80.00,5.00,0.00,30.14,M,10.00,M,FEW,SCT,BKN,M,3400.00,5500.00,7500.00,M,M,M,M,M,M,M,M,64.40,KMEV 171055Z AUTO 08005KT 10SM FEW034 SCT055 BKN075 18/13 A3014 RMK AO2,M
HTH,2023-08-17 10:55,-118.6315,38.5448,1282.89,71.60,59.00,64.48,0.00,0.00,0.00,30.10,M,10.00,M,FEW,FEW,SCT,M,4700.00,5500.00,7000.00,M,M,M,M,M,M,M,M,71.60,KHTH 171055Z AUTO 00000KT 10SM FEW047 FEW055 SCT070 22/15 A3010 RMK A01,M
BAM,2023-08-17 10:55,-116.8743,40.5990,1382.36,71.60,55.40,56.63,190.00,4.00,0.00,30.11,M,10.00,M,CLR,M,M,M,M,M,M,M,M,M,M,M,M,M,M,71.60,KBAM 171055Z AUTO 19004KT 10SM CLR 22/13 A3011 RMK AO1,M
TMT,2023-08-17 10:55,-117.1971,39.4643,1749.34,55.00,54.70,98.91,180.00,3.00,0.00,30.22,M,M,M,M,M,M,M,M,M,M,M,M,M,M,M,M,M,M,55.00,KTMT 171055Z AUTO 18003KT 13/13 A3022 RMK AO2 T01280126 PWINO,M
10U,2023-08-17 10:55,-116.1876,41.9532,1637.00,59.00,39.20,47.72,130.00,8.00,0.00,30.15,M,10.00,M,CLR,M,M,M,M,M,M,M,M,M,M,M,M,M,M,59.00,K10U 171055Z AUTO 13008KT 10SM CLR 15/04 A3015 RMK AO2,M
EKO,2023-08-17 10:56,-115.7860,40.8242,1367.00,61.00,46.00,57.72,0.00,0.00,0.00,30.12,1013.90,10.00,M,CLR,M,M,M,M,M,M,M,M,M,M,M,M,M,M,61.00,KEKO 171056Z AUTO 00000KT 10SM CLR 16/08 A3012 RMK AO2 SLP139 T01610078,M
WMC,2023-08-17 10:56,-117.8072,40.9019,1315.00,68.00,59.00,72.92,160.00,9.00,T,30.11,1014.10,10.00,M,FEW,BKN,M,M,7000.00,11000.00,M,M,M,M,M,M,M,M,M,68.00,KWMC 171056Z AUTO 16009KT 10SM FEW070 BKN110 20/15 A3011 RMK AO2 RAE42 SLP141 P0000 T02000150,M
NFL,2023-08-17 10:56,-118.7010,39.4166,1199.00,73.00,54.00,51.33,0.00,0.00,0.00,30.05,1014.60,10.00,M,FEW,BKN,M,M,9500.00,12000.00,M,M,M,M,M,M,M,M,M,73.00,KNFL 171056Z AUTO 00000KT 10SM FEW095 BKN120 23/12 A3005 RMK AO2 SLP146 T02280122,M
HND,2023-08-17 10:56,-115.1344,35.9729,742.79,84.00,53.00,34.43,230.00,9.00,0.00,29.92,1011.30,10.00,M,CLR,M,M,M,M,M,M,M,M,M,M,M,M,M,M,82.51,KHND 171056Z AUTO 23009KT 10SM CLR 29/12 A2992 RMK AO2 SLP113 T02890117,M
TPH,2023-08-17 10:56,-117.0904,38.0505,1654.00,67.00,55.00,65.33,20.00,8.00,0.00,30.16,1013.10,10.00,M,FEW,M,M,M,12000.00,M,M,M,M,M,M,M,M,M,M,67.00,KTPH 171056Z AUTO 02008KT 10SM FEW120 19/13 A3016 RMK AO2 SLP131 T01940128,M
LAS,2023-08-17 10:56,-115.1634,36.0719,663.00,86.00,50.00,28.90,200.00,3.00,0.00,29.88,1008.70,10.00,M,FEW,M,M,M,20000.00,M,M,M,M,M,M,M,M,M,M,83.62,KLAS 171056Z 20003KT 10SM FEW200 30/10 A2988 RMK AO2 SLP087 T03000100,M
WMC,2023-08-17 11:09,-117.8072,40.9019,1315.00,67.00,60.00,78.22,M,5.00,0.02,30.09,M,7.00,M,FEW,OVC,M,M,6000.00,10000.00,M,M,-TSRA,M,M,M,M,M,M,67.00,KWMC 171109Z AUTO VRB05KT 7SM -TSRA FEW060 OVC100 19/16 A3009 RMK AO2 LTG DSNT E AND SE RAB02 TSB03 P0002 T01940156,M
05U,2023-08-17 11:10,-116.0051,39.6042,1811.23,62.60,55.40,77.29,M,M,0.00,30.22,M,10.00,M,M,M,M,M,M,M,M,M,M,M,M,M,M,M,M,62.60,K05U 171110Z AUTO 10SM 17/13 A3022 RMK A01,M
BVU,2023-08-17 11:15,-114.8611,35.9475,671.00,80.60,53.60,39.30,340.00,3.00,0.00,29.88,M,10.00,M,CLR,M,M,M,M,M,M,M,M,M,M,M,M,M,M,80.29,KBVU 171115Z AUTO 34003KT 10SM CLR 27/12 A2988 RMK AO2,M
CXP,2023-08-17 11:15,-119.7326,39.1923,1431.00,66.20,59.00,77.60,0.00,0.00,0.00,30.15,M,9.00,M,SCT,BKN,OVC,M,3700.00,5500.00,12000.00,M,-RA,M,M,M,M,M,M,66.20,KCXP 171115Z AUTO 00000KT 9SM -RA SCT037 BKN055 OVC120 19/15 A3015 RMK AO2,M
RTS,2023-08-17 11:15,-119.8764,39.6682,1539.00,69.80,50.00,49.37,0.00,0.00,0.00,30.15,M,10.00,M,SCT,BKN,M,M,9500.00,12000.00,M,M,M,M,M,M,M,M,M,69.80,KRTS 171115Z AUTO 00000KT 10SM SCT095 BKN120 21/10 A3015 RMK AO2,M
MEV,2023-08-17 11:15,-119.7500,38.9963,1441.42,62.60,55.40,77.29,190.00,4.00,0.00,30.14,M,10.00,M,FEW,FEW,OVC,M,3100.00,3800.00,11000.00,M,M,M,M,M,M,M,M,62.60,KMEV 171115Z AUTO 19004KT 10SM FEW031 FEW038 OVC110 17/13 A3014 RMK AO2,M
HTH,2023-08-17 11:15,-118.6315,38.5448,1282.89,71.60,59.00,64.48,0.00,0.00,0.00,30.10,M,10.00,M,FEW,M,M,M,12000.00,M,M,M,M,M,M,M,M,M,M,71.60,KHTH 171115Z AUTO 00000KT 10SM FEW120 22/15 A3010 RMK A01,M
10U,2023-08-17 11:15,-116.1876,41.9532,1637.00,59.00,39.20,47.72,140.00,6.00,0.00,30.15,M,10.00,M,CLR,M,M,M,M,M,M,M,M,M,M,M,M,M,M,59.00,K10U 171115Z AUTO 14006KT 10SM CLR 15/04 A3015 RMK AO2,M
BAM,2023-08-17 11:15,-116.8743,40.5990,1382.36,69.80,55.40,60.21,0.00,0.00,0.00,30.11,M,10.00,M,CLR,M,M,M,M,M,M,M,M,M,M,M,M,M,M,69.80,KBAM 171115Z AUTO 00000KT 10SM CLR 21/13 A3011 RMK AO1,M
TMT,2023-08-17 11:15,-117.1971,39.4643,1749.34,55.00,54.00,96.42,160.00,3.00,0.00,30.22,M,M,M,M,M,M,M,M,M,M,M,M,M,M,M,M,M,M,55.00,KTMT 171115Z AUTO 16003KT 13/12 A3022 RMK AO2 T01270123 PWINO,M
WMC,2023-08-17 11:29,-117.8072,40.9019,1315.00,67.00,62.00,83.97,0.00,0.00,0.03,30.09,M,10.00,M,SCT,OVC,M,M,9000.00,11000.00,M,M,-RA,M,M,M,M,M,M,67.00,KWMC 171129Z AUTO 00000KT 10SM -RA SCT090 OVC110 19/17 A3009 RMK AO2 LTG DSNT E AND SE AND NW RAB02 TSB03E23 P0003 T01940167,M
BVU,2023-08-17 11:35,-114.8611,35.9475,671.00,80.60,53.60,39.30,0.00,0.00,0.00,29.88,M,10.00,M,CLR,M,M,M,M,M,M,M,M,M,M,M,M,M,M,80.29,KBVU 171135Z AUTO 00000KT 10SM CLR 27/12 A2988 RMK AO2,M
CXP,2023-08-17 11:35,-119.7326,39.1923,1431.00,64.40,60.80,88.09,220.00,3.00,0.00,30.15,M,10.00,M,FEW,FEW,SCT,M,4300.00,7500.00,12000.00,M,M,M,M,M,M,M,M,64.40,KCXP 171135Z AUTO 22003KT 10SM FEW043 FEW075 SCT120 18/16 A3015 RMK AO2,M
RTS,2023-08-17 11:35,-119.8764,39.6682,1539.00,68.00,50.00,52.51,0.00,0.00,0.00,30.15,M,10.00,M,FEW,SCT,BKN,M,6000.00,7500.00,9500.00,M,M,M,M,M,M,M,M,68.00,KRTS 171135Z AUTO 00000KT 10SM FEW060 SCT075 BKN095 20/10 A3015 RMK AO2,M
05U,2023-08-17 11:35,-116.0051,39.6042,1811.23,62.60,55.40,77.29,M,M,0.00,30.22,M,10.00,M,M,M,M,M,M,M,M,M,M,M,M,M,M,M,M,62.60,K05U 171135Z AUTO 10SM 17/13 A3022 RMK A01,M
MEV,2023-08-17 11:35,-119.7500,38.9963,1441.42,60.80,55.40,82.37,210.00,3.00,0.00,30.14,M,10.00,M,BKN,M,M,M,11000.00,M,M,M,M,M,M,M,M,M,M,60.80,KMEV 171135Z AUTO 21003KT 10SM BKN110 16/13 A3014 RMK AO2,M
HTH,2023-08-17 11:35,-118.6315,38.5448,1282.89,71.60,59.00,64.48,230.00,5.00,0.00,30.09,M,10.00,M,SCT,M,M,M,11000.00,M,M,M,M,M,M,M,M,M,M,71.60,KHTH 171135Z AUTO 23005KT 10SM SCT110 22/15 A3009 RMK A01,M
10U,2023-08-17 11:35,-116.1876,41.9532,1637.00,57.20,39.20,50.91,180.00,4.00,0.00,30.15,M,10.00,M,CLR,M,M,M,M,M,M,M,M,M,M,M,M,M,M,57.20,K10U 171135Z AUTO 18004KT 10SM CLR 14/04 A3015 RMK AO2,M
BAM,2023-08-17 11:35,-116.8743,40.5990,1382.36,71.60,55.40,56.63,210.00,5.00,0.00,30.11,M,10.00,M,CLR,M,M,M,M,M,M,M,M,M,M,M,M,M,M,71.60,KBAM 171135Z AUTO 21005KT 10SM CLR 22/13 A3011 RMK AO1,M
TMT,2023-08-17 11:35,-117.1971,39.4643,1749.34,54.50,54.00,98.19,0.00,0.00,0.00,30.22,M,M,M,M,M,M,M,M,M,M,M,M,M,M,M,M,M,M,54.50,KTMT 171135Z AUTO 00000KT 13/12 A3022 RMK AO2 T01250122 PWINO,M
P68,2023-08-17 11:53,-116.0056,39.6014,1993.00,63.00,55.00,75.11,210.00,4.00,0.00,30.19,1013.00,M,M,M,M,M,M,M,M,M,M,M,M,M,M,M,M,M,63.00,KP68 171153Z AUTO 21004KT 17/13 A3019 RMK AO1 SLP130 T01720128 10217 20161 57008,M
DRA,2023-08-17 11:53,-116.0278,36.6206,1009.00,75.00,46.00,35.64,0.00,0.00,0.00,29.97,1009.60,10.00,M,CLR,M,M,M,M,M,M,M,M,M,M,M,M,M,M,75.00,KDRA 171153Z AUTO 00000KT 10SM CLR 24/08 A2997 RMK AO2 SLP096 T02390078 10306 20228 55002,M
ELY,2023-08-17 11:53,-114.8453,39.2950,1909.00,55.00,52.00,89.59,180.00,8.00,0.00,30.22,1012.80,10.00,M,CLR,M,M,M,M,M,M,M,M,M,M,M,M,M,M,55.00,KELY 171153Z AUTO 18008KT 10SM CLR 13/11 A3022 RMK AO2 SLP128 70012 T01280111 10161 20128 56006,M
LOL,2023-08-17 11:53,-118.5701,40.0684,1192.43,69.00,55.00,60.99,40.00,7.00,0.00,30.06,1013.30,10.00,M,CLR,M,M,M,M,M,M,M,M,M,M,M,M,M,M,69.00,KLOL 171153Z AUTO 04007KT 10SM CLR 21/13 A3006 RMK AO2 SLP133 60000 T02060128 10261 20200 56009,M
BVU,2023-08-17 11:55,-114.8611,35.9475,671.00,80.60,55.40,41.97,0.00,0.00,0.00,29.88,M,10.00,M,CLR,M,M,M,M,M,M,M,M,M,M,M,M,M,M,80.53,KBVU 171155Z AUTO 00000KT 10SM CLR 27/13 A2988 RMK AO2,M
CXP,2023-08-17 11:55,-119.7326,39.1923,1431.00,64.40,59.00,82.62,0.00,0.00,0.01,30.15,M,10.00,M,CLR,M,M,M,M,M,M,M,M,M,M,M,M,M,M,64.40,KCXP 171155Z AUTO 00000KT 10SM CLR 18/15 A3015 RMK AO2 P0001,M
INS,2023-08-17 11:55,-115.6733,36.5872,955.00,75.00,47.00,37.01,0.00,0.00,0.00,29.96,1009.40,10.00,M,CLR,M,M,M,M,M,M,M,M,M,M,M,M,M,M,75.00,KINS 171155Z AUTO 00000KT 10SM CLR 24/08 A2996 RMK AO2 SLP094 T02390083 10280 20231 55003 $,M
RNO,2023-08-17 11:55,-119.7711,39.4839,1341.00,72.00,56.00,57.10,0.00,0.00,0.00,30.11,1013.10,10.00,M,OVC,M,M,M,10000.00,M,M,M,M,M,M,M,M,M,M,72.00,KRNO 171155Z 00000KT 10SM OVC100 22/13 A3011 RMK AO2 SLP131 60000 T02220133 10244 20211 55003,M
RTS,2023-08-17 11:55,-119.8764,39.6682,1539.00,68.00,51.80,56.13,0.00,0.00,0.00,30.16,M,10.00,M,FEW,SCT,OVC,M,6500.00,7500.00,9000.00,M,M,M,M,M,M,M,M,68.00,KRTS 171155Z AUTO 00000KT 10SM FEW065 SCT075 OVC090 20/11 A3016 RMK AO2,M
05U,2023-08-17 11:55,-116.0051,39.6042,1811.23,62.60,55.40,77.29,M,M,0.00,30.21,M,10.00,M,M,M,M,M,M,M,M,M,M,M,M,M,M,M,M,62.60,K05U 171155Z AUTO 10SM 17/13 A3021 RMK A01,M
MEV,2023-08-17 11:55,-119.7500,38.9963,1441.42,60.80,55.40,82.37,90.00,3.00,0.00,30.13,M,10.00,M,FEW,BKN,M,M,5000.00,10000.00,M,M,M,M,M,M,M,M,M,60.80,KMEV 171155Z AUTO 09003KT 10SM FEW050 BKN100 16/13 A3013 RMK AO2,M
HTH,2023-08-17 11:55,-118.6315,38.5448,1282.89,71.60,59.00,64.48,0.00,0.00,0.00,30.09,M,10.00,M,FEW,M,M,M,11000.00,M,M,M,M,M,M,M,M,M,M,71.60,KHTH 171155Z AUTO 00000KT 10SM FEW110 22/15 A3009 RMK A01,M
BAM,2023-08-17 11:55,-116.8743,40.5990,1382.36,71.60,55.40,56.63,200.00,4.00,0.00,30.11,M,10.00,M,SCT,M,M,M,10000.00,M,M,M,M,M,M,M,M,M,M,71.60,KBAM 171155Z AUTO 20004KT 10SM SCT100 22/13 A3011 RMK AO1,M
TMT,2023-08-17 11:55,-117.1971,39.4643,1749.34,55.60,54.70,96.78,280.00,3.00,0.00,30.21,M,M,M,M,M,M,M,M,M,M,M,M,M,M,M,M,M,M,55.60,KTMT 171155Z AUTO 28003KT 13/13 A3021 RMK AO2 60001 70002 T01310126 10181 20123 PWINO,M
10U,2023-08-17 11:55,-116.1876,41.9532,1637.00,55.40,39.20,54.34,160.00,6.00,0.00,30.14,M,10.00,M,CLR,M,M,M,M,M,M,M,M,M,M,M,M,M,M,55.40,K10U 171155Z AUTO 16006KT 10SM CLR 13/04 A3014 RMK AO2,M
EKO,2023-08-17 11:56,-115.7860,40.8242,1367.00,61.00,47.00,59.94,100.00,6.00,0.00,30.13,1014.00,10.00,M,CLR,M,M,M,M,M,M,M,M,M,M,M,M,M,M,61.00,KEKO 171156Z AUTO 10006KT 10SM CLR 16/08 A3013 RMK AO2 SLP140 T01610083 10228 20156 55003,M
WMC,2023-08-17 11:56,-117.8072,40.9019,1315.00,65.00,62.00,90.01,310.00,3.00,0.08,30.08,1013.10,5.00,M,FEW,SCT,OVC,M,3600.00,8000.00,10000.00,M,-TSRA BR,M,M,M,M,M,M,65.00,KWMC 171156Z AUTO 31003KT 5SM -TSRA BR FEW036 SCT080 OVC100 18/17 A3008 RMK AO2 RAB02 TSB03E23B46 SLP131 P0008 60009 70009 T01830167 10267 20183 58010,M
NFL,2023-08-17 11:56,-118.7010,39.4166,1199.00,75.00,55.00,49.78,180.00,4.00,0.00,30.06,1014.60,10.00,M,OVC,M,M,M,10000.00,M,M,M,M,M,M,M,M,M,M,75.00,KNFL 171156Z AUTO 18004KT 10SM OVC100 24/13 A3006 RMK AO2 SLP146 T02390128 10278 20222 55006,M
HND,2023-08-17 11:56,-115.1344,35.9729,742.79,84.00,53.00,34.43,220.00,9.00,0.00,29.92,1011.50,10.00,M,CLR,M,M,M,M,M,M,M,M,M,M,M,M,M,M,82.51,KHND 171156Z AUTO 22009KT 10SM CLR 29/12 A2992 RMK AO2 SLP115 7//// T02890117 10322 20283 55002,M
TPH,2023-08-17 11:56,-117.0904,38.0505,1654.00,66.00,55.00,67.64,360.00,9.00,0.00,30.16,1013.40,10.00,M,OVC,M,M,M,10000.00,M,M,M,M,M,M,M,M,M,M,66.00,KTPH 171156Z AUTO 36009KT 10SM OVC100 19/13 A3016 RMK AO2 SLP134 T01890128 10233 20189 56005,M
LAS,2023-08-17 11:56,-115.1634,36.0719,663.00,85.00,50.00,29.85,0.00,0.00,0.00,29.89,1009.00,10.00,M,FEW,M,M,M,20000.00,M,M,M,M,M,M,M,M,M,M,82.83,KLAS 171156Z 00000KT 10SM FEW200 29/10 A2989 RMK AO2 SLP090 T02940100 10333 20294 55001,M
WMC,2023-08-17 12:07,-117.8072,40.9019,1315.00,65.00,62.00,90.01,300.00,4.00,T,30.08,M,10.00,M,FEW,OVC,M,M,4000.00,10000.00,M,M,VCTS -RA,M,M,M,M,M,M,65.00,KWMC 171207Z AUTO 30004KT 10SM VCTS -RA FEW040 OVC100 18/17 A3008 RMK AO2 TSE01 P0000 T01830167,M
HTH,2023-08-17 12:10,-118.6315,38.5448,1282.89,69.80,57.20,64.26,70.00,3.00,0.00,30.09,M,10.00,M,FEW,M,M,M,11000.00,M,M,M,M,M,M,M,M,M,M,69.80,KHTH 171210Z AUTO 07003KT 10SM FEW110 21/14 A3009 RMK A01,M
BVU,2023-08-17 12:15,-114.8611,35.9475,671.00,78.80,57.20,47.52,0.00,0.00,0.00,29.88,M,10.00,M,CLR,M,M,M,M,M,M,M,M,M,M,M,M,M,M,78.80,KBVU 171215Z AUTO 00000KT 10SM CLR 26/14 A2988 RMK AO2,M
CXP,2023-08-17 12:15,-119.7326,39.1923,1431.00,64.40,59.00,82.62,0.00,0.00,0.00,30.15,M,10.00,M,CLR,M,M,M,M,M,M,M,M,M,M,M,M,M,M,64.40,KCXP 171215Z AUTO 00000KT 10SM CLR 18/15 A3015 RMK AO2,M
RTS,2023-08-17 12:15,-119.8764,39.6682,1539.00,68.00,50.00,52.51,50.00,3.00,0.00,30.16,M,10.00,M,FEW,FEW,BKN,M,6000.00,7500.00,11000.00,M,M,M,M,M,M,M,M,68.00,KRTS 171215Z AUTO 05003KT 10SM FEW060 FEW075 BKN110 20/10 A3016 RMK AO2,M
05U,2023-08-17 12:15,-116.0051,39.6042,1811.23,60.80,55.40,82.37,M,M,0.00,30.21,M,10.00,M,M,M,M,M,M,M,M,M,M,M,M,M,M,M,M,60.80,K05U 171215Z AUTO 10SM 16/13 A3021 RMK A01,M
MEV,2023-08-17 12:15,-119.7500,38.9963,1441.42,59.00,55.40,87.83,0.00,0.00,0.00,30.14,M,10.00,M,OVC,M,M,M,10000.00,M,M,M,M,M,M,M,M,M,M,59.00,KMEV 171215Z AUTO 00000KT 10SM OVC100 15/13 A3014 RMK AO2,M
10U,2023-08-17 12:15,-116.1876,41.9532,1637.00,57.20,39.20,50.91,150.00,7.00,0.00,30.14,M,10.00,M,CLR,M,M,M,M,M,M,M,M,M,M,M,M,M,M,57.20,K10U 171215Z AUTO 15007KT 10SM CLR 14/04 A3014 RMK AO2,M
BAM,2023-08-17 12:15,-116.8743,40.5990,1382.36,69.80,55.40,60.21,240.00,5.00,0.00,30.11,M,10.00,M,BKN,M,M,M,10000.00,M,M,M,M,M,M,M,M,M,M,69.80,KBAM 171215Z AUTO 24005KT 10SM BKN100 21/13 A3011 RMK AO1,M
TMT,2023-08-17 12:15,-117.1971,39.4643,1749.34,56.00,55.20,97.14,240.00,6.00,0.00,30.21,M,M,M,M,M,M,M,M,M,M,M,M,M,M,M,M,M,M,56.00,KTMT 171215Z AUTO 24006KT 13/13 A3021 RMK AO2 T01330129 PWINO,M
WMC,2023-08-17 12:22,-117.8072,40.9019,1315.00,65.00,63.00,93.24,290.00,3.00,T,30.08,M,10.00,M,FEW,BKN,OVC,M,6500.00,10000.00,12000.00,M,M,M,M,M,M,M,M,65.00,KWMC 171222Z AUTO 29003KT 10SM FEW065 BKN100 OVC120 18/17 A3008 RMK AO2 LTG DSNT N AND NW RAE22 TSE01 P0000 T01830172,M
BVU,2023-08-17 12:35,-114.8611,35.9475,671.00,78.80,55.40,44.52,0.00,0.00,0.00,29.88,M,10.00,M,CLR,M,M,M,M,M,M,M,M,M,M,M,M,M,M,78.80,KBVU 171235Z AUTO 00000KT 10SM CLR 26/13 A2988 RMK AO2,M
CXP,2023-08-17 12:35,-119.7326,39.1923,1431.00,64.40,59.00,82.62,0.00,0.00,0.00,30.15,M,10.00,M,FEW,M,M,M,10000.00,M,M,M,M,M,M,M,M,M,M,64.40,KCXP 171235Z AUTO 00000KT 10SM FEW100 18/15 A3015 RMK AO2,M
RTS,2023-08-17 12:35,-119.8764,39.6682,1539.00,68.00,50.00,52.51,20.00,6.00,0.00,30.15,M,10.00,M,FEW,SCT,OVC,M,4200.00,7000.00,10000.00,M,M,M,M,M,M,M,M,68.00,KRTS 171235Z AUTO 02006KT 10SM FEW042 SCT070 OVC100 20/10 A3015 RMK AO2,M
05U,2023-08-17 12:35,-116.0051,39.6042,1811.23,60.80,53.60,77.14,M,M,0.00,30.21,M,10.00,M,M,M,M,M,M,M,M,M,M,M,M,M,M,M,M,60.80,K05U 171235Z AUTO 10SM 16/12 A3021 RMK A01,M
MEV,2023-08-17 12:35,-119.7500,38.9963,1441.42,60.80,55.40,82.37,0.00,0.00,0.00,30.13,M,10.00,M,FEW,FEW,SCT,M,4300.00,5000.00,10000.00,M,M,M,M,M,M,M,M,60.80,KMEV 171235Z AUTO 00000KT 10SM FEW043 FEW050 SCT100 16/13 A3013 RMK AO2,M
HTH,2023-08-17 12:35,-118.6315,38.5448,1282.89,68.00,59.00,72.92,130.00,3.00,0.00,30.09,M,10.00,M,FEW,M,M,M,11000.00,M,M,M,M,M,M,M,M,M,M,68.00,KHTH 171235Z AUTO 13003KT 10SM FEW110 20/15 A3009 RMK A01,M
10U,2023-08-17 12:35,-116.1876,41.9532,1637.00,55.40,39.20,54.34,170.00,4.00,0.00,30.14,M,10.00,M,CLR,M,M,M,M,M,M,M,M,M,M,M,M,M,M,55.40,K10U 171235Z AUTO 17004KT 10SM CLR 13/04 A3014 RMK AO2,M
BAM,2023-08-17 12:35,-116.8743,40.5990,1382.36,71.60,57.20,60.44,230.00,5.00,0.00,30.11,M,10.00,M,SCT,BKN,M,M,10000.00,12000.00,M,M,M,M,M,M,M,M,M,71.60,KBAM 171235Z AUTO 23005KT 10SM SCT100 BKN120 22/14 A3011 RMK AO1,M
TMT,2023-08-17 12:35,-117.1971,39.4643,1749.34,55.20,54.50,97.48,210.00,4.00,0.00,30.21,M,M,M,M,M,M,M,M,M,M,M,M,M,M,M,M,M,M,55.20,KTMT 171235Z AUTO 21004KT 13/13 A3021 RMK AO2 LTG DSNT SW T01290125 PWINO,M
WMC,2023-08-17 12:37,-117.8072,40.9019,1315.00,65.00,63.00,93.24,260.00,5.00,T,30.08,M,10.00,M,BKN,M,M,M,11000.00,M,M,M,VCTS,M,M,M,M,M,M,65.00,KWMC 171237Z AUTO 26005KT 10SM VCTS BKN110 18/17 A3008 RMK AO2 LTG DSNT N RAE22 TSE01 P0000 T01830172,M
WMC,2023-08-17 12:52,-117.8072,40.9019,1315.00,64.40,62.60,93.88,0.00,0.00,T,30.08,M,10.00,M,BKN,M,M,M,11000.00,M,M,M,M,M,M,M,M,M,M,64.40,KWMC 171252Z AUTO 00000KT 10SM BKN110 18/17 A3008 RMK AO2 RAE22 TSE01 P0000,M
P68,2023-08-17 12:53,-116.0056,39.6014,1993.00,60.00,55.00,83.53,230.00,4.00,0.00,30.19,1013.20,M,M,M,M,M,M,M,M,M,M,M,M,M,M,M,M,M,60.00,KP68 171253Z AUTO 23004KT 16/13 A3019 RMK AO1 SLP132 T01560128,M
DRA,2023-08-17 12:53,-116.0278,36.6206,1009.00,76.00,46.00,34.47,360.00,3.00,0.00,29.98,1009.70,10.00,M,CLR,M,M,M,M,M,M,M,M,M,M,M,M,M,M,76.00,KDRA 171253Z AUTO 36003KT 10SM CLR 24/08 A2998 RMK AO2 SLP097 T02440078,M
ELY,2023-08-17 12:53,-114.8453,39.2950,1909.00,56.00,51.00,83.26,180.00,11.00,0.00,30.22,1014.60,10.00,M,FEW,M,M,M,8500.00,M,M,M,M,M,M,M,M,M,M,56.00,KELY 171253Z AUTO 18011KT 10SM FEW085 13/11 A3022 RMK AO2 SLP146 T01330106,M
LOL,2023-08-17 12:53,-118.5701,40.0684,1192.43,69.00,54.00,58.80,230.00,3.00,0.00,30.06,1013.40,10.00,M,FEW,M,M,M,12000.00,M,M,M,M,M,M,M,M,M,M,69.00,KLOL 171253Z AUTO 23003KT 10SM FEW120 21/12 A3006 RMK AO2 SLP134 T02060122,M
BVU,2023-08-17 12:55,-114.8611,35.9475,671.00,78.80,53.60,41.69,0.00,0.00,0.00,29.89,M,10.00,M,CLR,M,M,M,M,M,M,M,M,M,M,M,M,M,M,78.80,KBVU 171255Z AUTO 00000KT 10SM CLR 26/12 A2989 RMK AO2,M
CXP,2023-08-17 12:55,-119.7326,39.1923,1431.00,66.20,59.00,77.60,0.00,0.00,0.00,30.14,M,10.00,M,FEW,FEW,M,M,9000.00,12000.00,M,M,M,M,M,M,M,M,M,66.20,KCXP 171255Z AUTO 00000KT 10SM FEW090 FEW120 19/15 A3014 RMK AO2,M
INS,2023-08-17 12:55,-115.6733,36.5872,955.00,74.00,46.20,37.13,0.00,0.00,0.00,29.98,1010.10,10.00,M,CLR,M,M,M,M,M,M,M,M,M,M,M,M,M,M,74.00,KINS 171255Z AUTO 00000KT 10SM CLR 23/08 A2998 RMK AO2 SLP101 T02340079 $,M
RNO,2023-08-17 12:55,-119.7711,39.4839,1341.00,71.00,58.00,63.49,M,3.00,T,30.10,1013.10,10.00,M,FEW,BKN,BKN,M,3600.00,11000.00,15000.00,M,M,M,M,M,M,M,M,71.00,KRNO 171255Z VRB03KT 10SM FEW036 BKN110 BKN150 22/14 A3010 RMK AO2 RAB05E42 SLP131 P0000 T02170144,M
RTS,2023-08-17 12:55,-119.8764,39.6682,1539.00,68.00,50.00,52.51,350.00,5.00,0.00,30.16,M,10.00,M,FEW,SCT,BKN,M,4300.00,6000.00,7500.00,M,-DZ,M,M,M,M,M,M,68.00,KRTS 171255Z AUTO 35005KT 10SM -DZ FEW043 SCT060 BKN075 20/10 A3016 RMK AO2,M
05U,2023-08-17 12:55,-116.0051,39.6042,1811.23,59.00,53.60,82.25,M,M,0.00,30.22,M,10.00,M,M,M,M,M,M,M,M,M,M,M,M,M,M,M,M,59.00,K05U 171255Z AUTO 10SM 15/12 A3022 RMK A01,M
MEV,2023-08-17 12:55,-119.7500,38.9963,1441.42,59.00,55.40,87.83,0.00,0.00,0.00,30.14,M,10.00,M,CLR,M,M,M,M,M,M,M,M,M,M,M,M,M,M,59.00,KMEV 171255Z AUTO 00000KT 10SM CLR 15/13 A3014 RMK AO2,M
HTH,2023-08-17 12:55,-118.6315,38.5448,1282.89,68.00,57.20,68.35,0.00,0.00,0.00,30.09,M,10.00,M,CLR,M,M,M,M,M,M,M,M,M,M,M,M,M,M,68.00,KHTH 171255Z AUTO 00000KT 10SM CLR 20/14 A3009 RMK A01,M
10U,2023-08-17 12:55,-116.1876,41.9532,1637.00,57.20,39.20,50.91,160.00,6.00,0.00,30.14,M,10.00,M,CLR,M,M,M,M,M,M,M,M,M,M,M,M,M,M,57.20,K10U 171255Z AUTO 16006KT 10SM CLR 14/04 A3014 RMK AO2,M
BAM,2023-08-17 12:55,-116.8743,40.5990,1382.36,69.80,57.20,64.26,190.00,5.00,0.00,30.11,M,10.00,M,BKN,M,M,M,12000.00,M,M,M,M,M,M,M,M,M,M,69.80,KBAM 171255Z AUTO 19005KT 10SM BKN120 21/14 A3011 RMK AO1,M
TMT,2023-08-17 12:55,-117.1971,39.4643,1749.34,52.70,52.00,97.46,150.00,4.00,0.00,30.21,M,M,M,M,M,M,M,M,M,M,M,M,M,M,M,M,M,M,52.70,KTMT 171255Z AUTO 15004KT 12/11 A3021 RMK AO2 T01150112 PWINO,M
LSV,2023-08-17 12:55,-115.0343,36.2362,570.00,79.50,50.00,35.68,40.00,7.00,0.00,29.85,1008.00,10.00,M,CLR,M,M,M,M,M,M,M,M,M,M,M,M,M,M,79.50,KLSV 171255Z AUTO 04007KT 10SM CLR 26/10 A2985 RMK AO2 SLP080 T02640101 $,M
EKO,2023-08-17 12:56,-115.7860,40.8242,1367.00,62.00,47.00,57.85,20.00,3.00,0.00,30.13,1014.60,10.00,M,SCT,M,M,M,10000.00,M,M,M,M,M,M,M,M,M,M,62.00,KEKO 171256Z AUTO 02003KT 10SM SCT100 17/08 A3013 RMK AO2 LTG DSNT S AND SW SLP146 T01670083,M
WMC,2023-08-17 12:56,-117.8072,40.9019,1315.00,65.00,62.00,90.01,0.00,0.00,T,30.08,1013.50,10.00,M,SCT,M,M,M,11000.00,M,M,M,M,M,M,M,M,M,M,65.00,KWMC 171256Z AUTO 00000KT 10SM SCT110 18/17 A3008 RMK AO2 RAE22 TSE01 SLP135 P0000 T01830167,M
NFL,2023-08-17 12:56,-118.7010,39.4166,1199.00,74.00,55.00,51.47,0.00,0.00,0.00,30.05,1014.60,10.00,M,SCT,M,M,M,11000.00,M,M,M,M,M,M,M,M,M,M,74.00,KNFL 171256Z AUTO 00000KT 10SM SCT110 23/13 A3005 RMK AO2 SLP146 T02330128,M
HND,2023-08-17 12:56,-115.1344,35.9729,742.79,83.00,53.00,35.56,220.00,9.00,0.00,29.94,1011.90,10.00,M,CLR,M,M,M,M,M,M,M,M,M,M,M,M,M,M,81.78,KHND 171256Z 22009KT 10SM CLR 28/12 A2994 RMK AO2 SLP119 T02830117,M
TPH,2023-08-17 12:56,-117.0904,38.0505,1654.00,66.00,55.00,67.64,10.00,12.00,0.00,30.17,1013.70,10.00,M,OVC,M,M,M,10000.00,M,M,M,M,M,M,M,M,M,M,66.00,KTPH 171256Z AUTO 01012KT 10SM OVC100 19/13 A3017 RMK AO2 SLP137 T01890128,M
LAS,2023-08-17 12:56,-115.1634,36.0719,663.00,85.00,51.00,30.97,210.00,3.00,0.00,29.90,1009.40,10.00,M,FEW,FEW,M,M,15000.00,20000.00,M,M,M,M,M,M,M,M,M,82.97,KLAS 171256Z 21003KT 10SM FEW150 FEW200 29/11 A2990 RMK AO2 SLP094 ACC DSNT NE T02940106,M
BVU,2023-08-17 13:15,-114.8611,35.9475,671.00,80.60,53.60,39.30,320.00,3.00,0.00,29.90,M,10.00,M,CLR,M,M,M,M,M,M,M,M,M,M,M,M,M,M,80.29,KBVU 171315Z AUTO 32003KT 10SM CLR 27/12 A2990 RMK AO2,M
RTS,2023-08-17 13:15,-119.8764,39.6682,1539.00,64.40,53.60,67.95,340.00,6.00,0.00,30.16,M,10.00,M,FEW,FEW,SCT,M,4600.00,7000.00,10000.00,M,M,M,M,M,M,M,M,64.40,KRTS 171315Z AUTO 34006KT 10SM FEW046 FEW070 SCT100 18/12 A3016 RMK AO2,M
05U,2023-08-17 13:15,-116.0051,39.6042,1811.23,59.00,55.40,87.83,M,M,0.00,30.22,M,10.00,M,M,M,M,M,M,M,M,M,M,M,M,M,M,M,M,59.00,K05U 171315Z AUTO 10SM 15/13 A3022 RMK A01,M
MEV,2023-08-17 13:15,-119.7500,38.9963,1441.42,60.80,55.40,82.37,150.00,5.00,0.00,30.14,M,10.00,M,CLR,M,M,M,M,M,M,M,M,M,M,M,M,M,M,60.80,KMEV 171315Z AUTO 15005KT 10SM CLR 16/13 A3014 RMK AO2,M
HTH,2023-08-17 13:15,-118.6315,38.5448,1282.89,66.20,55.40,68.15,140.00,4.00,0.00,30.10,M,10.00,M,BKN,M,M,M,11000.00,M,M,M,M,M,M,M,M,M,M,66.20,KHTH 171315Z AUTO 14004KT 10SM BKN110 19/13 A3010 RMK A01,M
10U,2023-08-17 13:15,-116.1876,41.9532,1637.00,57.20,39.20,50.91,140.00,6.00,0.00,30.14,M,10.00,M,CLR,M,M,M,M,M,M,M,M,M,M,M,M,M,M,57.20,K10U 171315Z AUTO 14006KT 10SM CLR 14/04 A3014 RMK AO2,M
CXP,2023-08-17 13:15,-119.7326,39.1923,1431.00,64.40,60.80,88.09,190.00,4.00,0.00,30.15,M,10.00,M,FEW,FEW,M,M,9000.00,12000.00,M,M,M,M,M,M,M,M,M,64.40,KCXP 171315Z AUTO 19004KT 10SM FEW090 FEW120 18/16 A3015 RMK AO2,M
BAM,2023-08-17 13:15,-116.8743,40.5990,1382.36,69.80,57.20,64.26,200.00,4.00,0.00,30.11,M,10.00,M,BKN,M,M,M,11000.00,M,M,M,M,M,M,M,M,M,M,69.80,KBAM 171315Z AUTO 20004KT 10SM BKN110 21/14 A3011 RMK AO1,M
TMT,2023-08-17 13:15,-117.1971,39.4643,1749.34,52.30,52.00,98.90,130.00,4.00,0.00,30.21,M,M,M,M,M,M,M,M,M,M,M,M,M,M,M,M,M,M,52.30,KTMT 171315Z AUTO 13004KT 11/11 A3021 RMK AO2 T01130111 PWINO,M
BVU,2023-08-17 13:35,-114.8611,35.9475,671.00,78.80,53.60,41.69,0.00,0.00,0.00,29.90,M,10.00,M,CLR,M,M,M,M,M,M,M,M,M,M,M,M,M,M,78.80,KBVU 171335Z AUTO 00000KT 10SM CLR 26/12 A2990 RMK AO2,M
CXP,2023-08-17 13:35,-119.7326,39.1923,1431.00,64.40,57.20,77.45,0.00,0.00,0.00,30.15,M,10.00,M,CLR,M,M,M,M,M,M,M,M,M,M,M,M,M,M,64.40,KCXP 171335Z AUTO 00000KT 10SM CLR 18/14 A3015 RMK AO2,M
RTS,2023-08-17 13:35,-119.8764,39.6682,1539.00,64.40,51.80,63.60,310.00,6.00,0.00,30.15,M,10.00,M,SCT,M,M,M,10000.00,M,M,M,M,M,M,M,M,M,M,64.40,KRTS 171335Z AUTO 31006KT 10SM SCT100 18/11 A3015 RMK AO2,M
05U,2023-08-17 13:35,-116.0051,39.6042,1811.23,62.60,55.40,77.29,M,M,0.00,30.23,M,10.00,M,M,M,M,M,M,M,M,M,M,M,M,M,M,M,M,62.60,K05U 171335Z AUTO 10SM 17/13 A3023 RMK A01,M
MEV,2023-08-17 13:35,-119.7500,38.9963,1441.42,59.00,57.20,93.74,140.00,3.00,0.00,30.14,M,10.00,M,CLR,M,M,M,M,M,M,M,M,M,M,M,M,M,M,59.00,KMEV 171335Z AUTO 14003KT 10SM CLR 15/14 A3014 RMK AO2,M
HTH,2023-08-17 13:35,-118.6315,38.5448,1282.89,69.80,55.40,60.21,130.00,3.00,0.00,30.10,M,10.00,M,SCT,M,M,M,11000.00,M,M,M,M,M,M,M,M,M,M,69.80,KHTH 171335Z AUTO 13003KT 10SM SCT110 21/13 A3010 RMK A01,M
10U,2023-08-17 13:35,-116.1876,41.9532,1637.00,59.00,41.00,51.18,150.00,4.00,0.00,30.14,M,10.00,M,CLR,M,M,M,M,M,M,M,M,M,M,M,M,M,M,59.00,K10U 171335Z AUTO 15004KT 10SM CLR 15/05 A3014 RMK AO2,M
BAM,2023-08-17 13:35,-116.8743,40.5990,1382.36,69.80,57.20,64.26,170.00,3.00,0.00,30.12,M,10.00,M,SCT,M,M,M,11000.00,M,M,M,M,M,M,M,M,M,M,69.80,KBAM 171335Z AUTO 17003KT 10SM SCT110 21/14 A3012 RMK AO1,M
TMT,2023-08-17 13:35,-117.1971,39.4643,1749.34,53.80,53.60,99.27,0.00,0.00,0.00,30.21,M,M,M,M,M,M,M,M,M,M,M,M,M,M,M,M,M,M,53.80,KTMT 171335Z AUTO 00000KT 12/12 A3021 RMK AO2 LTG DSNT SW T01210120 PWINO,M
NFL,2023-08-17 13:45,-118.7010,39.4166,1199.00,73.00,55.00,53.23,200.00,5.00,0.00,30.07,M,10.00,M,FEW,SCT,BKN,M,8000.00,10000.00,17000.00,M,M,M,M,M,M,M,M,73.00,KNFL 171345Z 20005KT 10SM FEW080 SCT100 BKN170 23/13 A3007 RMK AO2 T02280128,M
P68,2023-08-17 13:53,-116.0056,39.6014,1993.00,63.00,56.00,77.89,190.00,3.00,0.00,30.20,1013.60,M,M,M,M,M,M,M,M,M,M,M,M,M,M,M,M,M,63.00,KP68 171353Z AUTO 19003KT 17/13 A3020 RMK AO1 SLP136 T01720133,M
DRA,2023-08-17 13:53,-116.0278,36.6206,1009.00,76.00,46.00,34.47,120.00,3.00,0.00,30.00,1010.40,10.00,M,CLR,M,M,M,M,M,M,M,M,M,M,M,M,M,M,76.00,KDRA 171353Z AUTO 12003KT 10SM CLR 24/08 A3000 RMK AO2 SLP104 T02440078,M
ELY,2023-08-17 13:53,-114.8453,39.2950,1909.00,57.00,52.00,83.33,190.00,7.00,0.00,30.23,1014.80,10.00,M,CLR,M,M,M,M,M,M,M,M,M,M,M,M,M,M,57.00,KELY 171353Z AUTO 19007KT 10SM CLR 14/11 A3023 RMK AO2 SLP148 T01390111,M
LOL,2023-08-17 13:53,-118.5701,40.0684,1192.43,67.00,55.00,65.33,80.00,3.00,0.00,30.06,1013.70,10.00,M,CLR,M,M,M,M,M,M,M,M,M,M,M,M,M,M,67.00,KLOL 171353Z AUTO 08003KT 10SM CLR 19/13 A3006 RMK AO2 SLP137 T01940128,M
BVU,2023-08-17 13:55,-114.8611,35.9475,671.00,80.60,53.60,39.30,0.00,0.00,0.00,29.91,M,10.00,M,CLR,M,M,M,M,M,M,M,M,M,M,M,M,M,M,80.29,KBVU 171355Z AUTO 00000KT 10SM CLR 27/12 A2991 RMK AO2,M
CXP,2023-08-17 13:55,-119.7326,39.1923,1431.00,66.20,59.00,77.60,0.00,0.00,0.00,30.15,M,10.00,M,CLR,M,M,M,M,M,M,M,M,M,M,M,M,M,M,66.20,KCXP 171355Z AUTO 00000KT 10SM CLR 19/15 A3015 RMK AO2,M
RNO,2023-08-17 13:55,-119.7711,39.4839,1341.00,68.00,58.00,70.35,220.00,4.00,0.00,30.10,1014.00,10.00,M,BKN,BKN,M,M,11000.00,15000.00,M,M,M,M,M,M,M,M,M,68.00,KRNO 171355Z 22004KT 10SM BKN110 BKN150 20/14 A3010 RMK AO2 SLP140 T02000144,M
LSV,2023-08-17 13:55,-115.0343,36.2362,570.00,81.00,50.70,34.86,0.00,0.00,0.00,29.87,1008.70,10.00,M,CLR,M,M,M,M,M,M,M,M,M,M,M,M,M,M,80.19,KLSV 171355Z AUTO 00000KT 10SM CLR 27/10 A2987 RMK AO2 SLP087 T02720104 $,M
RTS,2023-08-17 13:55,-119.8764,39.6682,1539.00,64.40,51.80,63.60,350.00,6.00,0.00,30.15,M,10.00,M,FEW,FEW,M,M,10000.00,12000.00,M,M,M,M,M,M,M,M,M,64.40,KRTS 171355Z AUTO 35006KT 10SM FEW100 FEW120 18/11 A3015 RMK AO2,M
05U,2023-08-17 13:55,-116.0051,39.6042,1811.23,64.40,55.40,72.56,M,M,0.00,30.23,M,10.00,M,M,M,M,M,M,M,M,M,M,M,M,M,M,M,M,64.40,K05U 171355Z AUTO 10SM 18/13 A3023 RMK A01,M
MEV,2023-08-17 13:55,-119.7500,38.9963,1441.42,62.60,57.20,82.50,0.00,0.00,0.00,30.13,M,10.00,M,FEW,M,M,M,12000.00,M,M,M,M,M,M,M,M,M,M,62.60,KMEV 171355Z AUTO 00000KT 10SM FEW120 17/14 A3013 RMK AO2,M
HTH,2023-08-17 13:55,-118.6315,38.5448,1282.89,69.80,55.40,60.21,0.00,0.00,0.00,30.10,M,10.00,M,BKN,M,M,M,11000.00,M,M,M,M,M,M,M,M,M,M,69.80,KHTH 171355Z AUTO 00000KT 10SM BKN110 21/13 A3010 RMK A01,M
INS,2023-08-17 13:55,-115.6733,36.5872,955.00,74.00,45.30,35.89,0.00,0.00,0.00,29.99,1010.40,10.00,M,CLR,M,M,M,M,M,M,M,M,M,M,M,M,M,M,74.00,KINS 171355Z AUTO 00000KT 10SM CLR 23/07 A2999 RMK AO2 SLP104 T02330074 $,M
BAM,2023-08-17 13:55,-116.8743,40.5990,1382.36,69.80,57.20,64.26,180.00,3.00,0.00,30.12,M,10.00,M,CLR,M,M,M,M,M,M,M,M,M,M,M,M,M,M,69.80,KBAM 171355Z AUTO 18003KT 10SM CLR 21/14 A3012 RMK AO1,M
10U,2023-08-17 13:55,-116.1876,41.9532,1637.00,60.80,41.00,48.00,150.00,5.00,0.00,30.14,M,10.00,M,CLR,M,M,M,M,M,M,M,M,M,M,M,M,M,M,60.80,K10U 171355Z AUTO 15005KT 10SM CLR 16/05 A3014 RMK AO2,M
TMT,2023-08-17 13:55,-117.1971,39.4643,1749.34,56.30,55.40,96.79,0.00,0.00,0.00,30.22,M,M,M,M,M,M,M,M,M,M,M,M,M,M,M,M,M,M,56.30,KTMT 171355Z AUTO 00000KT 14/13 A3022 RMK AO2 T01350130 PWINO,M
EKO,2023-08-17 13:56,-115.7860,40.8242,1367.00,64.00,48.00,55.99,50.00,5.00,0.00,30.13,1014.60,10.00,M,SCT,M,M,M,10000.00,M,M,M,M,M,M,M,M,M,M,64.00,KEKO 171356Z AUTO 05005KT 10SM SCT100 18/09 A3013 RMK AO2 LTG DSNT S SLP146 T01780089,M
WMC,2023-08-17 13:56,-117.8072,40.9019,1315.00,65.00,62.00,90.01,150.00,4.00,0.00,30.09,1013.90,10.00,M,BKN,BKN,M,M,10000.00,12000.00,M,M,M,M,M,M,M,M,M,65.00,KWMC 171356Z AUTO 15004KT 10SM BKN100 BKN120 18/17 A3009 RMK AO2 LTG DSNT N SLP139 T01830167,M
NFL,2023-08-17 13:56,-118.7010,39.4166,1199.00,73.00,55.00,53.23,200.00,5.00,0.00,30.07,1015.00,10.00,M,FEW,SCT,BKN,M,8000.00,10000.00,17000.00,M,M,M,M,M,M,M,M,73.00,KNFL 171356Z 20005KT 10SM FEW080 SCT100 BKN170 23/13 A3007 RMK AO2 SLP150 T02280128,M
HND,2023-08-17 13:56,-115.1344,35.9729,742.79,83.00,53.00,35.56,240.00,6.00,0.00,29.95,1012.60,10.00,M,CLR,M,M,M,M,M,M,M,M,M,M,M,M,M,M,81.78,KHND 171356Z 24006KT 10SM CLR 28/12 A2995 RMK AO2 SLP126 T02830117,M
TPH,2023-08-17 13:56,-117.0904,38.0505,1654.00,67.00,55.00,65.33,330.00,6.00,0.00,30.18,1014.20,10.00,M,OVC,M,M,M,10000.00,M,M,M,M,M,M,M,M,M,M,67.00,KTPH 171356Z AUTO 33006KT 10SM OVC100 19/13 A3018 RMK AO2 SLP142 T01940128,M
LAS,2023-08-17 13:56,-115.1634,36.0719,663.00,86.00,51.00,30.00,250.00,3.00,0.00,29.91,1009.70,10.00,M,FEW,FEW,M,M,15000.00,20000.00,M,M,M,M,M,M,M,M,M,83.75,KLAS 171356Z 25003KT 10SM FEW150 FEW200 30/11 A2991 RMK AO2 SLP097 T03000106,M
BVU,2023-08-17 14:15,-114.8611,35.9475,671.00,82.40,53.60,37.07,0.00,0.00,0.00,29.91,M,10.00,M,CLR,M,M,M,M,M,M,M,M,M,M,M,M,M,M,81.46,KBVU 171415Z AUTO 00000KT 10SM CLR 28/12 A2991 RMK AO2,M
CXP,2023-08-17 14:15,-119.7326,39.1923,1431.00,66.20,57.20,72.74,0.00,0.00,0.00,30.14,M,10.00,M,SCT,M,M,M,10000.00,M,M,M,M,M,M,M,M,M,M,66.20,KCXP 171415Z AUTO 00000KT 10SM SCT100 19/14 A3014 RMK AO2,M
RTS,2023-08-17 14:15,-119.8764,39.6682,1539.00,64.40,51.80,63.60,0.00,0.00,0.00,30.15,M,10.00,M,CLR,M,M,M,M,M,M,M,M,M,M,M,M,M,M,64.40,KRTS 171415Z AUTO 00000KT 10SM CLR 18/11 A3015 RMK AO2,M
05U,2023-08-17 14:15,-116.0051,39.6042,1811.23,64.40,55.40,72.56,M,M,0.00,30.23,M,10.00,M,M,M,M,M,M,M,M,M,M,M,M,M,M,M,M,64.40,K05U 171415Z AUTO 10SM 18/13 A3023 RMK A01,M
MEV,2023-08-17 14:15,-119.7500,38.9963,1441.42,64.40,57.20,77.45,0.00,0.00,0.00,30.13,M,10.00,M,FEW,M,M,M,12000.00,M,M,M,M,M,M,M,M,M,M,64.40,KMEV 171415Z AUTO 00000KT 10SM FEW120 18/14 A3013 RMK AO2,M
HTH,2023-08-17 14:15,-118.6315,38.5448,1282.89,71.60,53.60,53.03,150.00,4.00,0.00,30.11,M,10.00,M,BKN,M,M,M,11000.00,M,M,M,M,M,M,M,M,M,M,71.60,KHTH 171415Z AUTO 15004KT 10SM BKN110 22/12 A3011 RMK A01,M
BAM,2023-08-17 14:15,-116.8743,40.5990,1382.36,69.80,57.20,64.26,170.00,3.00,0.00,30.12,M,10.00,M,SCT,SCT,M,M,9500.00,11000.00,M,M,M,M,M,M,M,M,M,69.80,KBAM 171415Z AUTO 17003KT 10SM SCT095 SCT110 21/14 A3012 RMK AO1,M
TMT,2023-08-17 14:15,-117.1971,39.4643,1749.34,58.30,56.00,92.04,0.00,0.00,0.00,30.22,M,M,M,M,M,M,M,M,M,M,M,M,M,M,M,M,M,M,58.30,KTMT 171415Z AUTO 00000KT 15/13 A3022 RMK AO2 LTG DSNT NE T01460134 PWINO,M
10U,2023-08-17 14:15,-116.1876,41.9532,1637.00,66.20,41.00,39.72,160.00,5.00,0.00,30.15,M,10.00,M,CLR,M,M,M,M,M,M,M,M,M,M,M,M,M,M,66.20,K10U 171415Z AUTO 16005KT 10SM CLR 19/05 A3015 RMK AO2,M
BVU,2023-08-17 14:35,-114.8611,35.9475,671.00,86.00,53.60,33.01,0.00,0.00,0.00,29.91,M,10.00,M,CLR,M,M,M,M,M,M,M,M,M,M,M,M,M,M,84.18,KBVU 171435Z AUTO 00000KT 10SM CLR 30/12 A2991 RMK AO2,M
CXP,2023-08-17 14:35,-119.7326,39.1923,1431.00,66.20,55.40,68.15,0.00,0.00,0.00,30.14,M,10.00,M,SCT,M,M,M,11000.00,M,M,M,M,M,M,M,M,M,M,66.20,KCXP 171435Z AUTO 00000KT 10SM SCT110 19/13 A3014 RMK AO2,M
RTS,2023-08-17 14:35,-119.8764,39.6682,1539.00,64.40,51.80,63.60,340.00,3.00,0.00,30.15,M,10.00,M,CLR,M,M,M,M,M,M,M,M,M,M,M,M,M,M,64.40,KRTS 171435Z AUTO 34003KT 10SM CLR 18/11 A3015 RMK AO2,M
05U,2023-08-17 14:35,-116.0051,39.6042,1811.23,68.00,55.40,64.04,M,M,0.00,30.23,M,10.00,M,M,M,M,M,M,M,M,M,M,M,M,M,M,M,M,68.00,K05U 171435Z AUTO 10SM 20/13 A3023 RMK A01,M
MEV,2023-08-17 14:35,-119.7500,38.9963,1441.42,64.40,57.20,77.45,130.00,6.00,0.00,30.14,M,10.00,M,CLR,M,M,M,M,M,M,M,M,M,M,M,M,M,M,64.40,KMEV 171435Z AUTO 13006KT 10SM CLR 18/14 A3014 RMK AO2,M
HTH,2023-08-17 14:35,-118.6315,38.5448,1282.89,71.60,53.60,53.03,170.00,11.00,0.00,30.14,M,10.00,M,BKN,M,M,M,11000.00,M,M,M,M,M,M,M,M,M,M,71.60,KHTH 171435Z AUTO 17011KT 10SM BKN110 22/12 A3014 RMK A01,M
BAM,2023-08-17 14:35,-116.8743,40.5990,1382.36,71.60,59.00,64.48,210.00,7.00,0.00,30.12,M,10.00,M,SCT,M,M,M,12000.00,M,M,M,M,M,M,M,M,M,M,71.60,KBAM 171435Z AUTO 21007KT 10SM SCT120 22/15 A3012 RMK AO1,M
TMT,2023-08-17 14:35,-117.1971,39.4643,1749.34,58.00,56.30,94.05,0.00,0.00,0.00,30.22,M,M,M,M,M,M,M,M,M,M,M,M,M,M,M,M,M,M,58.00,KTMT 171435Z AUTO 00000KT 15/14 A3022 RMK AO2 T01450135 PWINO,M
10U,2023-08-17 14:35,-116.1876,41.9532,1637.00,69.80,41.00,35.09,150.00,4.00,0.00,30.15,M,10.00,M,CLR,M,M,M,M,M,M,M,M,M,M,M,M,M,M,69.80,K10U 171435Z AUTO 15004KT 10SM CLR 21/05 A3015 RMK AO2,M
P68,2023-08-17 14:53,-116.0056,39.6014,1993.00,68.00,55.00,63.12,320.00,3.00,0.00,30.21,1014.00,M,M,M,M,M,M,M,M,M,M,M,M,M,M,M,M,M,68.00,KP68 171453Z AUTO 32003KT 20/13 A3021 RMK AO1 SLP140 T02000128 53006,M
DRA,2023-08-17 14:53,-116.0278,36.6206,1009.00,83.00,47.00,28.45,0.00,0.00,0.00,30.00,1010.40,10.00,M,CLR,M,M,M,M,M,M,M,M,M,M,M,M,M,M,81.09,KDRA 171453Z AUTO 00000KT 10SM CLR 28/08 A3000 RMK AO2 SLP104 T02830083 53010,M
ELY,2023-08-17 14:53,-114.8453,39.2950,1909.00,65.00,54.00,67.52,170.00,8.00,0.00,30.23,1014.30,10.00,M,CLR,M,M,M,M,M,M,M,M,M,M,M,M,M,M,65.00,KELY 171453Z AUTO 17008KT 10SM CLR 18/12 A3023 RMK AO2 SLP143 T01830122 50004,M
LOL,2023-08-17 14:53,-118.5701,40.0684,1192.43,70.00,56.00,61.11,170.00,3.00,0.00,30.07,1013.90,10.00,M,CLR,M,M,M,M,M,M,M,M,M,M,M,M,M,M,70.00,KLOL 171453Z AUTO 17003KT 10SM CLR 21/13 A3007 RMK AO2 SLP139 T02110133 53004,M
BVU,2023-08-17 14:55,-114.8611,35.9475,671.00,86.00,53.60,33.01,0.00,0.00,0.00,29.92,M,10.00,M,CLR,M,M,M,M,M,M,M,M,M,M,M,M,M,M,84.18,KBVU 171455Z AUTO 00000KT 10SM CLR 30/12 A2992 RMK AO2,M
CXP,2023-08-17 14:55,-119.7326,39.1923,1431.00,68.00,57.20,68.35,190.00,5.00,0.00,30.15,M,10.00,M,CLR,M,M,M,M,M,M,M,M,M,M,M,M,M,M,68.00,KCXP 171455Z AUTO 19005KT 10SM CLR 20/14 A3015 RMK AO2,M
INS,2023-08-17 14:55,-115.6733,36.5872,955.00,79.00,45.70,30.86,0.00,0.00,0.00,30.00,1010.60,10.00,M,CLR,M,M,M,M,M,M,M,M,M,M,M,M,M,M,79.00,KINS 171455Z AUTO 00000KT 10SM CLR 26/08 A3000 RMK AO2 SLP106 T02610076 52011 $,M
RNO,2023-08-17 14:55,-119.7711,39.4839,1341.00,71.00,58.00,63.49,0.00,0.00,0.00,30.11,1014.10,10.00,M,FEW,BKN,M,M,11000.00,15000.00,M,M,M,M,M,M,M,M,M,71.00,KRNO 171455Z 00000KT 10SM FEW110 BKN150 22/14 A3011 RMK AO2 SLP141 VIRGA 60000 T02170144 55001,M
RTS,2023-08-17 14:55,-119.8764,39.6682,1539.00,68.00,51.80,56.13,360.00,4.00,0.00,30.16,M,10.00,M,CLR,M,M,M,M,M,M,M,M,M,M,M,M,M,M,68.00,KRTS 171455Z AUTO 36004KT 10SM CLR 20/11 A3016 RMK AO2,M
05U,2023-08-17 14:55,-116.0051,39.6042,1811.23,69.80,55.40,60.21,M,M,0.00,30.24,M,10.00,M,M,M,M,M,M,M,M,M,M,M,M,M,M,M,M,69.80,K05U 171455Z AUTO 10SM 21/13 A3024 RMK A01,M
MEV,2023-08-17 14:55,-119.7500,38.9963,1441.42,68.00,57.20,68.35,150.00,4.00,0.00,30.14,M,10.00,M,CLR,M,M,M,M,M,M,M,M,M,M,M,M,M,M,68.00,KMEV 171455Z AUTO 15004KT 10SM CLR 20/14 A3014 RMK AO2,M
HTH,2023-08-17 14:55,-118.6315,38.5448,1282.89,68.00,59.00,72.92,200.00,19.00,0.01,30.15,M,3.00,28.00,FEW,SCT,BKN,M,3800.00,6500.00,7500.00,M,HZ,M,M,M,M,M,M,68.00,KHTH 171455Z AUTO 20019G28KT 3SM HZ FEW038 SCT065 BKN075 20/15 A3015 RMK A01 P0001,M
10U,2023-08-17 14:55,-116.1876,41.9532,1637.00,73.40,42.80,33.29,190.00,5.00,0.00,30.15,M,10.00,M,CLR,M,M,M,M,M,M,M,M,M,M,M,M,M,M,73.40,K10U 171455Z AUTO 19005KT 10SM CLR 23/06 A3015 RMK AO2,M
BAM,2023-08-17 14:55,-116.8743,40.5990,1382.36,73.40,59.00,60.67,210.00,5.00,0.00,30.12,M,10.00,M,SCT,M,M,M,12000.00,M,M,M,M,M,M,M,M,M,M,73.40,KBAM 171455Z AUTO 21005KT 10SM SCT120 23/15 A3012 RMK AO1,M
TMT,2023-08-17 14:55,-117.1971,39.4643,1749.34,60.00,57.00,89.80,250.00,3.00,0.00,30.22,M,M,M,M,M,M,M,M,M,M,M,M,M,M,M,M,M,M,60.00,KTMT 171455Z AUTO 25003KT 16/14 A3022 RMK AO2 T01560139 PWINO,M
LSV,2023-08-17 14:55,-115.0343,36.2362,570.00,87.00,53.60,31.98,0.00,0.00,0.00,29.87,1008.60,8.00,M,CLR,M,M,M,M,M,M,M,M,M,M,M,M,M,M,85.02,KLSV 171455Z AUTO 00000KT 8SM CLR 31/12 A2987 RMK AO2 SLP086 T03060120 52013 $,M
EKO,2023-08-17 14:56,-115.7860,40.8242,1367.00,69.00,50.00,50.74,0.00,0.00,0.00,30.15,1014.90,10.00,M,SCT,M,M,M,9000.00,M,M,M,M,M,M,M,M,M,M,69.00,KEKO 171456Z AUTO 00000KT 10SM SCT090 21/10 A3015 RMK AO2 SLP149 T02060100 53007,M
WMC,2023-08-17 14:56,-117.8072,40.9019,1315.00,68.00,63.00,84.03,0.00,0.00,0.00,30.10,1014.10,10.00,M,BKN,M,M,M,11000.00,M,M,M,M,M,M,M,M,M,M,68.00,KWMC 171456Z AUTO 00000KT 10SM BKN110 20/17 A3010 RMK AO2 SLP141 60000 T02000172 53005,M
HND,2023-08-17 14:56,-115.1344,35.9729,742.79,89.00,52.00,28.30,260.00,6.00,0.00,29.96,1012.70,10.00,M,CLR,M,M,M,M,M,M,M,M,M,M,M,M,M,M,86.49,KHND 171456Z 26006KT 10SM CLR 32/11 A2996 RMK AO2 SLP127 T03170111 51012,M
TPH,2023-08-17 14:56,-117.0904,38.0505,1654.00,71.00,55.00,56.96,20.00,5.00,0.00,30.19,1014.20,10.00,M,FEW,M,M,M,9000.00,M,M,M,M,M,M,M,M,M,M,71.00,KTPH 171456Z AUTO 02005KT 10SM FEW090 22/13 A3019 RMK AO2 SLP142 T02170128 53008,M
LAS,2023-08-17 14:56,-115.1634,36.0719,663.00,90.00,51.00,26.43,0.00,0.00,0.00,29.93,1010.10,10.00,M,FEW,FEW,M,M,15000.00,20000.00,M,M,M,M,M,M,M,M,M,87.22,KLAS 171456Z 00000KT 10SM FEW150 FEW200 32/11 A2993 RMK AO2 SLP101 T03220106 53012,M
NFL,2023-08-17 14:56,-118.7010,39.4166,1199.00,76.00,58.00,53.66,180.00,3.00,0.00,30.07,1015.20,10.00,M,SCT,SCT,SCT,M,7000.00,12000.00,17000.00,M,M,M,M,M,M,M,M,76.00,KNFL 171456Z 18003KT 10SM SCT070 SCT120 SCT170 24/14 A3007 RMK AO2 SLP152 CB DSNT S AND W T02440144 53006,M
BVU,2023-08-17 15:15,-114.8611,35.9475,671.00,91.40,50.00,24.37,0.00,0.00,0.00,29.92,M,10.00,M,CLR,M,M,M,M,M,M,M,M,M,M,M,M,M,M,88.36,KBVU 171515Z AUTO 00000KT 10SM CLR 33/10 A2992 RMK AO2,M
CXP,2023-08-17 15:15,-119.7326,39.1923,1431.00,69.80,57.20,64.26,170.00,3.00,0.00,30.15,M,10.00,M,FEW,M,M,M,11000.00,M,M,M,M,M,M,M,M,M,M,69.80,KCXP 171515Z AUTO 17003KT 10SM FEW110 21/14 A3015 RMK AO2,M
RTS,2023-08-17 15:15,-119.8764,39.6682,1539.00,69.80,50.00,49.37,0.00,0.00,0.00,30.16,M,10.00,M,CLR,M,M,M,M,M,M,M,M,M,M,M,M,M,M,69.80,KRTS 171515Z AUTO 00000KT 10SM CLR 21/10 A3016 RMK AO2,M
05U,2023-08-17 15:15,-116.0051,39.6042,1811.23,71.60,55.40,56.63,M,M,0.00,30.23,M,10.00,M,M,M,M,M,M,M,M,M,M,M,M,M,M,M,M,71.60,K05U 171515Z AUTO 10SM 22/13 A3023 RMK A01,M
MEV,2023-08-17 15:15,-119.7500,38.9963,1441.42,68.00,57.20,68.35,0.00,0.00,0.00,30.14,M,10.00,M,CLR,M,M,M,M,M,M,M,M,M,M,M,M,M,M,68.00,KMEV 171515Z AUTO 00000KT 10SM CLR 20/14 A3014 RMK AO2,M
HTH,2023-08-17 15:15,-118.6315,38.5448,1282.89,66.20,59.00,77.60,240.00,17.00,0.00,30.16,M,3.00,23.00,SCT,BKN,OVC,M,3500.00,4600.00,7500.00,M,HZ,M,M,M,M,M,M,66.20,KHTH 171515Z AUTO 24017G23KT 3SM HZ SCT035 BKN046 OVC075 19/15 A3016 RMK A01,M
BAM,2023-08-17 15:15,-116.8743,40.5990,1382.36,75.20,57.20,53.55,170.00,3.00,0.00,30.12,M,10.00,M,SCT,M,M,M,12000.00,M,M,M,M,M,M,M,M,M,M,75.20,KBAM 171515Z AUTO 17003KT 10SM SCT120 24/14 A3012 RMK AO1,M
TMT,2023-08-17 15:15,-117.1971,39.4643,1749.34,61.30,57.40,87.00,0.00,0.00,0.00,30.22,M,M,M,M,M,M,M,M,M,M,M,M,M,M,M,M,M,M,61.30,KTMT 171515Z AUTO 00000KT 16/14 A3022 RMK AO2 LTG DSNT NE T01630141 PWINO,M
10U,2023-08-17 15:15,-116.1876,41.9532,1637.00,75.20,44.60,33.57,200.00,6.00,0.00,30.15,M,10.00,M,CLR,M,M,M,M,M,M,M,M,M,M,M,M,M,M,75.20,K10U 171515Z AUTO 20006KT 10SM CLR 24/07 A3015 RMK AO2,M
BVU,2023-08-17 15:35,-114.8611,35.9475,671.00,91.40,50.00,24.37,0.00,0.00,0.00,29.92,M,10.00,M,CLR,M,M,M,M,M,M,M,M,M,M,M,M,M,M,88.36,KBVU 171535Z AUTO 00000KT 10SM CLR 33/10 A2992 RMK AO2,M
CXP,2023-08-17 15:35,-119.7326,39.1923,1431.00,71.60,57.20,60.44,200.00,6.00,0.00,30.15,M,10.00,M,CLR,M,M,M,M,M,M,M,M,M,M,M,M,M,M,71.60,KCXP 171535Z AUTO 20006KT 10SM CLR 22/14 A3015 RMK AO2,M
RTS,2023-08-17 15:35,-119.8764,39.6682,1539.00,71.60,50.00,46.43,0.00,0.00,0.00,30.16,M,10.00,M,CLR,M,M,M,M,M,M,M,M,M,M,M,M,M,M,71.60,KRTS 171535Z AUTO 00000KT 10SM CLR 22/10 A3016 RMK AO2,M
05U,2023-08-17 15:35,-116.0051,39.6042,1811.23,73.40,55.40,53.29,M,M,0.00,30.23,M,10.00,M,M,M,M,M,M,M,M,M,M,M,M,M,M,M,M,73.40,K05U 171535Z AUTO 10SM 23/13 A3023 RMK A01,M
MEV,2023-08-17 15:35,-119.7500,38.9963,1441.42,68.00,57.20,68.35,0.00,0.00,0.00,30.15,M,9.00,M,CLR,M,M,M,M,M,M,M,M,M,M,M,M,M,M,68.00,KMEV 171535Z AUTO 00000KT 9SM CLR 20/14 A3015 RMK AO2,M
HTH,2023-08-17 15:35,-118.6315,38.5448,1282.89,66.20,59.00,77.60,280.00,10.00,0.00,30.15,M,7.00,M,FEW,SCT,BKN,M,3400.00,4400.00,11000.00,M,M,M,M,M,M,M,M,66.20,KHTH 171535Z AUTO 28010KT 7SM FEW034 SCT044 BKN110 19/15 A3015 RMK A01,M
BAM,2023-08-17 15:35,-116.8743,40.5990,1382.36,77.00,55.40,47.25,0.00,0.00,0.00,30.12,M,10.00,M,CLR,M,M,M,M,M,M,M,M,M,M,M,M,M,M,77.00,KBAM 171535Z AUTO 00000KT 10SM CLR 25/13 A3012 RMK AO1,M
TMT,2023-08-17 15:35,-117.1971,39.4643,1749.34,62.80,57.40,82.51,0.00,0.00,0.00,30.22,M,M,M,SCT,M,M,M,11000.00,M,M,M,M,M,M,M,M,M,M,62.80,KTMT 171535Z AUTO 00000KT SCT110 17/14 A3022 RMK AO2 T01710141 PWINO,M
10U,2023-08-17 15:35,-116.1876,41.9532,1637.00,77.00,44.60,31.62,M,6.00,0.00,30.15,M,10.00,11.00,CLR,M,M,M,M,M,M,M,M,M,M,M,M,M,M,77.00,K10U 171535Z AUTO VRB06G11KT 10SM CLR 25/07 A3015 RMK AO2,M
P68,2023-08-17 15:53,-116.0056,39.6014,1993.00,72.00,55.00,55.06,330.00,5.00,0.00,30.20,1014.20,M,M,M,M,M,M,M,M,M,M,M,M,M,M,M,M,M,72.00,KP68 171553Z AUTO 33005KT 22/13 A3020 RMK AO1 SLP142 T02220128,M
ELY,2023-08-17 15:53,-114.8453,39.2950,1909.00,75.00,53.00,46.27,190.00,8.00,0.00,30.23,1013.00,10.00,M,CLR,M,M,M,M,M,M,M,M,M,M,M,M,M,M,75.00,KELY 171553Z AUTO 19008KT 10SM CLR 24/12 A3023 RMK AO2 SLP130 T02390117,M
LOL,2023-08-17 15:53,-118.5701,40.0684,1192.43,74.00,57.00,55.34,0.00,0.00,0.00,30.08,1014.10,10.00,M,CLR,M,M,M,M,M,M,M,M,M,M,M,M,M,M,74.00,KLOL 171553Z AUTO 00000KT 10SM CLR 23/14 A3008 RMK AO2 SLP141 T02330139,M
BVU,2023-08-17 15:55,-114.8611,35.9475,671.00,91.40,50.00,24.37,0.00,0.00,0.00,29.92,M,10.00,M,CLR,M,M,M,M,M,M,M,M,M,M,M,M,M,M,88.36,KBVU 171555Z AUTO 00000KT 10SM CLR 33/10 A2992 RMK AO2,M
CXP,2023-08-17 15:55,-119.7326,39.1923,1431.00,73.40,55.40,53.29,200.00,5.00,0.00,30.15,M,10.00,M,CLR,M,M,M,M,M,M,M,M,M,M,M,M,M,M,73.40,KCXP 171555Z AUTO 20005KT 10SM CLR 23/13 A3015 RMK AO2,M
INS,2023-08-17 15:55,-115.6733,36.5872,955.00,85.00,45.00,24.73,0.00,0.00,0.00,30.00,1010.60,10.00,M,CLR,M,M,M,M,M,M,M,M,M,M,M,M,M,M,82.34,KINS 171555Z AUTO 00000KT 10SM CLR 29/07 A3000 RMK AO2 SLP106 T02940073 $,M
RNO,2023-08-17 15:55,-119.7711,39.4839,1341.00,75.00,56.00,51.62,0.00,0.00,0.00,30.11,1013.90,10.00,M,BKN,M,M,M,11000.00,M,M,M,M,M,M,M,M,M,M,75.00,KRNO 171555Z 00000KT 10SM BKN110 24/13 A3011 RMK AO2 SLP139 T02390133,M
RTS,2023-08-17 15:55,-119.8764,39.6682,1539.00,71.60,50.00,46.43,0.00,0.00,0.00,30.16,M,10.00,M,CLR,M,M,M,M,M,M,M,M,M,M,M,M,M,M,71.60,KRTS 171555Z AUTO 00000KT 10SM CLR 22/10 A3016 RMK AO2,M
05U,2023-08-17 15:55,-116.0051,39.6042,1811.23,73.40,53.60,49.90,M,M,0.00,30.23,M,10.00,M,M,M,M,M,M,M,M,M,M,M,M,M,M,M,M,73.40,K05U 171555Z AUTO 10SM 23/12 A3023 RMK A01,M
MEV,2023-08-17 15:55,-119.7500,38.9963,1441.42,71.60,55.40,56.63,0.00,0.00,0.00,30.14,M,7.00,M,CLR,M,M,M,M,M,M,M,M,M,M,M,M,M,M,71.60,KMEV 171555Z AUTO 00000KT 7SM CLR 22/13 A3014 RMK AO2,M
HTH,2023-08-17 15:55,-118.6315,38.5448,1282.89,69.80,59.00,68.55,M,6.00,0.04,30.15,M,10.00,M,FEW,FEW,FEW,M,4100.00,6000.00,7500.00,M,M,M,M,M,M,M,M,69.80,KHTH 171555Z AUTO VRB06KT 10SM FEW041 FEW060 FEW075 21/15 A3015 RMK A01 P0004,M
10U,2023-08-17 15:55,-116.1876,41.9532,1637.00,78.80,42.80,27.81,190.00,9.00,0.00,30.14,M,10.00,M,CLR,M,M,M,M,M,M,M,M,M,M,M,M,M,M,78.80,K10U 171555Z AUTO 19009KT 10SM CLR 26/06 A3014 RMK AO2,M
LSV,2023-08-17 15:55,-115.0343,36.2362,570.00,95.00,51.30,22.87,0.00,0.00,0.00,29.88,1008.90,10.00,M,FEW,M,M,M,14000.00,M,M,M,M,M,M,M,M,M,M,92.15,KLSV 171555Z AUTO 00000KT 10SM FEW140 35/11 A2988 RMK AO2 SLP089 T03500107 $,M
BAM,2023-08-17 15:55,-116.8743,40.5990,1382.36,78.80,55.40,44.52,0.00,0.00,0.00,30.12,M,10.00,M,CLR,M,M,M,M,M,M,M,M,M,M,M,M,M,M,78.80,KBAM 171555Z AUTO 00000KT 10SM CLR 26/13 A3012 RMK AO1,M
TMT,2023-08-17 15:55,-117.1971,39.4643,1749.34,63.70,58.00,81.69,210.00,3.00,0.00,30.22,M,M,M,BKN,M,M,M,11000.00,M,M,M,M,M,M,M,M,M,M,63.70,KTMT 171555Z AUTO 21003KT BKN110 18/14 A3022 RMK AO2 T01760144 PWINO,M
EKO,2023-08-17 15:56,-115.7860,40.8242,1367.00,76.00,55.00,48.14,180.00,5.00,0.00,30.14,1014.20,10.00,M,BKN,M,M,M,10000.00,M,M,M,M,M,M,M,M,M,M,76.00,KEKO 171556Z AUTO 18005KT 10SM BKN100 24/13 A3014 RMK AO2 SLP142 T02440128,M
WMC,2023-08-17 15:56,-117.8072,40.9019,1315.00,73.00,63.00,70.87,210.00,4.00,0.00,30.10,1013.70,10.00,M,FEW,M,M,M,11000.00,M,M,M,M,M,M,M,M,M,M,73.00,KWMC 171556Z AUTO 21004KT 10SM FEW110 23/17 A3010 RMK AO2 SLP137 T02280172,M
HND,2023-08-17 15:56,-115.1344,35.9729,742.79,93.00,52.00,24.97,0.00,0.00,0.00,29.97,1013.00,10.00,M,CLR,M,M,M,M,M,M,M,M,M,M,M,M,M,M,90.29,KHND 171556Z 00000KT 10SM CLR 34/11 A2997 RMK AO2 SLP130 T03390111,M
TPH,2023-08-17 15:56,-117.0904,38.0505,1654.00,78.00,52.00,40.36,300.00,7.00,0.00,30.19,1013.50,10.00,M,CLR,M,M,M,M,M,M,M,M,M,M,M,M,M,M,78.00,KTPH 171556Z AUTO 30007KT 10SM CLR 26/11 A3019 RMK AO2 SLP135 T02560111,M
LAS,2023-08-17 15:56,-115.1634,36.0719,663.00,92.00,50.00,23.92,70.00,3.00,0.00,29.93,1010.40,10.00,M,FEW,FEW,M,M,12000.00,20000.00,M,M,M,M,M,M,M,M,M,88.94,KLAS 171556Z 07003KT 10SM FEW120 FEW200 33/10 A2993 RMK AO2 SLP104 T03330100,M
NFL,2023-08-17 15:56,-118.7010,39.4166,1199.00,80.00,54.00,40.67,170.00,5.00,0.00,30.08,1015.40,10.00,M,SCT,BKN,BKN,M,7000.00,14000.00,18000.00,M,M,M,M,M,M,M,M,79.98,KNFL 171556Z COR 17005KT 10SM SCT070 BKN140 BKN180 27/12 A3008 RMK AO2 SLP154 CB DSNT S MOV N T02670122,M
BVU,2023-08-17 16:15,-114.8611,35.9475,671.00,93.20,50.00,23.04,0.00,0.00,0.00,29.92,M,10.00,M,CLR,M,M,M,M,M,M,M,M,M,M,M,M,M,M,90.10,KBVU 171615Z AUTO 00000KT 10SM CLR 34/10 A2992 RMK AO2,M
CXP,2023-08-17 16:15,-119.7326,39.1923,1431.00,73.40,55.40,53.29,M,3.00,0.00,30.15,M,10.00,M,CLR,M,M,M,M,M,M,M,M,M,M,M,M,M,M,73.40,KCXP 171615Z AUTO VRB03KT 10SM CLR 23/13 A3015 RMK AO2,M
RTS,2023-08-17 16:15,-119.8764,39.6682,1539.00,73.40,50.00,43.69,M,4.00,0.00,30.16,M,10.00,M,FEW,M,M,M,11000.00,M,M,M,M,M,M,M,M,M,M,73.40,KRTS 171615Z AUTO VRB04KT 10SM FEW110 23/10 A3016 RMK AO2,M
05U,2023-08-17 16:15,-116.0051,39.6042,1811.23,77.00,55.40,47.25,M,M,0.00,30.23,M,10.00,M,M,M,M,M,M,M,M,M,M,M,M,M,M,M,M,77.00,K05U 171615Z AUTO 10SM 25/13 A3023 RMK A01,M
MEV,2023-08-17 16:15,-119.7500,38.9963,1441.42,71.60,55.40,56.63,0.00,0.00,0.00,30.14,M,9.00,M,CLR,M,M,M,M,M,M,M,M,M,M,M,M,M,M,71.60,KMEV 171615Z AUTO 00000KT 9SM CLR 22/13 A3014 RMK AO2,M
HTH,2023-08-17 16:15,-118.6315,38.5448,1282.89,68.00,60.80,77.75,110.00,9.00,0.00,30.14,M,10.00,M,BKN,M,M,M,10000.00,M,M,M,M,M,M,M,M,M,M,68.00,KHTH 171615Z AUTO 11009KT 10SM BKN100 20/16 A3014 RMK A01,M
10U,2023-08-17 16:15,-116.1876,41.9532,1637.00,80.60,44.60,28.08,200.00,8.00,0.00,30.14,M,10.00,M,CLR,M,M,M,M,M,M,M,M,M,M,M,M,M,M,79.42,K10U 171615Z AUTO 20008KT 160V230 10SM CLR 27/07 A3014 RMK AO2,M
BAM,2023-08-17 16:15,-116.8743,40.5990,1382.36,80.60,55.40,41.97,210.00,4.00,0.00,30.11,M,10.00,M,CLR,M,M,M,M,M,M,M,M,M,M,M,M,M,M,80.53,KBAM 171615Z AUTO 21004KT 10SM CLR 27/13 A3011 RMK AO1,M
TMT,2023-08-17 16:15,-117.1971,39.4643,1749.34,65.30,57.70,76.42,210.00,3.00,0.00,30.22,M,M,M,BKN,M,M,M,11000.00,M,M,M,M,M,M,M,M,M,M,65.30,KTMT 171615Z AUTO 21003KT BKN110 19/14 A3022 RMK AO2 T01850143 PWINO,M
BVU,2023-08-17 16:35,-114.8611,35.9475,671.00,95.00,50.00,21.79,0.00,0.00,0.00,29.92,M,10.00,M,CLR,M,M,M,M,M,M,M,M,M,M,M,M,M,M,91.89,KBVU 171635Z AUTO 00000KT 10SM CLR 35/10 A2992 RMK AO2,M
CXP,2023-08-17 16:35,-119.7326,39.1923,1431.00,75.20,55.40,50.17,0.00,0.00,0.00,30.15,M,10.00,M,CLR,M,M,M,M,M,M,M,M,M,M,M,M,M,M,75.20,KCXP 171635Z AUTO 00000KT 10SM CLR 24/13 A3015 RMK AO2,M
RTS,2023-08-17 16:35,-119.8764,39.6682,1539.00,73.40,48.20,40.85,0.00,0.00,0.00,30.16,M,10.00,M,CLR,M,M,M,M,M,M,M,M,M,M,M,M,M,M,73.40,KRTS 171635Z AUTO 00000KT 10SM CLR 23/09 A3016 RMK AO2,M
05U,2023-08-17 16:35,-116.0051,39.6042,1811.23,77.00,55.40,47.25,M,M,0.00,30.22,M,10.00,M,M,M,M,M,M,M,M,M,M,M,M,M,M,M,M,77.00,K05U 171635Z AUTO 10SM 25/13 A3022 RMK A01,M
MEV,2023-08-17 16:35,-119.7500,38.9963,1441.42,71.60,55.40,56.63,0.00,0.00,0.00,30.14,M,9.00,M,CLR,M,M,M,M,M,M,M,M,M,M,M,M,M,M,71.60,KMEV 171635Z AUTO 00000KT 9SM CLR 22/13 A3014 RMK AO2,M
HTH,2023-08-17 16:35,-118.6315,38.5448,1282.89,69.80,59.00,68.55,160.00,6.00,0.00,30.14,M,10.00,M,FEW,M,M,M,11000.00,M,M,M,M,M,M,M,M,M,M,69.80,KHTH 171635Z AUTO 16006KT 10SM FEW110 21/15 A3014 RMK A01,M
BAM,2023-08-17 16:35,-116.8743,40.5990,1382.36,80.60,55.40,41.97,210.00,4.00,0.00,30.11,M,10.00,M,CLR,M,M,M,M,M,M,M,M,M,M,M,M,M,M,80.53,KBAM 171635Z AUTO 21004KT 10SM CLR 27/13 A3011 RMK AO1,M
TMT,2023-08-17 16:35,-117.1971,39.4643,1749.34,67.60,58.00,71.33,0.00,0.00,0.00,30.22,M,M,M,CLR,M,M,M,M,M,M,M,M,M,M,M,M,M,M,67.60,KTMT 171635Z AUTO 00000KT CLR 20/15 A3022 RMK AO2 T01980145 PWINO,M
10U,2023-08-17 16:35,-116.1876,41.9532,1637.00,80.60,44.60,28.08,190.00,9.00,0.00,30.14,M,10.00,M,CLR,M,M,M,M,M,M,M,M,M,M,M,M,M,M,79.42,K10U 171635Z AUTO 19009KT 10SM CLR 27/07 A3014 RMK AO2,M
05U,2023-08-17 16:50,-116.0051,39.6042,1811.23,77.00,55.40,47.25,M,M,0.00,30.22,M,10.00,M,M,M,M,M,M,M,M,M,M,M,M,M,M,M,M,77.00,K05U 171650Z AUTO 10SM 25/13 A3022 RMK A01,M
P68,2023-08-17 16:53,-116.0056,39.6014,1993.00,75.00,55.00,49.78,M,3.00,0.00,30.19,1013.50,M,M,M,M,M,M,M,M,M,M,M,M,M,M,M,M,M,75.00,KP68 171653Z AUTO VRB03KT 24/13 A3019 RMK AO1 SLP135 T02390128,M
DRA,2023-08-17 16:53,-116.0278,36.6206,1009.00,95.00,48.00,20.22,210.00,8.00,0.00,30.01,1010.10,10.00,M,CLR,M,M,M,M,M,M,M,M,M,M,M,M,M,M,91.53,KDRA 171653Z AUTO 21008KT 170V260 10SM CLR 35/09 A3001 RMK AO2 SLP101 T03500089,M
ELY,2023-08-17 16:53,-114.8453,39.2950,1909.00,80.00,54.00,40.67,190.00,8.00,0.00,30.22,1012.80,10.00,M,CLR,M,M,M,M,M,M,M,M,M,M,M,M,M,M,79.98,KELY 171653Z AUTO 19008KT 10SM CLR 27/12 A3022 RMK AO2 SLP128 T02670122,M
LOL,2023-08-17 16:53,-118.5701,40.0684,1192.43,80.00,56.00,43.75,0.00,0.00,0.00,30.07,1013.50,10.00,M,CLR,M,M,M,M,M,M,M,M,M,M,M,M,M,M,80.24,KLOL 171653Z AUTO 00000KT 10SM CLR 27/13 A3007 RMK AO2 SLP135 T02670133,M
BVU,2023-08-17 16:55,-114.8611,35.9475,671.00,95.00,50.00,21.79,70.00,4.00,0.00,29.92,M,10.00,M,CLR,M,M,M,M,M,M,M,M,M,M,M,M,M,M,91.89,KBVU 171655Z AUTO 07004KT 10SM CLR 35/10 A2992 RMK AO2,M
CXP,2023-08-17 16:55,-119.7326,39.1923,1431.00,75.20,55.40,50.17,0.00,0.00,0.00,30.15,M,10.00,M,CLR,M,M,M,M,M,M,M,M,M,M,M,M,M,M,75.20,KCXP 171655Z AUTO 00000KT 10SM CLR 24/13 A3015 RMK AO2,M
RNO,2023-08-17 16:55,-119.7711,39.4839,1341.00,80.00,53.00,39.21,0.00,0.00,0.00,30.10,1013.30,10.00,M,FEW,BKN,M,M,9500.00,21000.00,M,M,M,M,M,M,M,M,M,79.87,KRNO 171655Z 00000KT 10SM FEW095 BKN210 27/12 A3010 RMK AO2 SLP133 T02670117,M
RTS,2023-08-17 16:55,-119.8764,39.6682,1539.00,75.20,50.00,41.14,0.00,0.00,0.00,30.16,M,10.00,M,CLR,M,M,M,M,M,M,M,M,M,M,M,M,M,M,75.20,KRTS 171655Z AUTO 00000KT 10SM CLR 24/10 A3016 RMK AO2,M
MEV,2023-08-17 16:55,-119.7500,38.9963,1441.42,73.40,55.40,53.29,0.00,0.00,0.00,30.14,M,10.00,M,FEW,M,M,M,11000.00,M,M,M,M,M,M,M,M,M,M,73.40,KMEV 171655Z AUTO 00000KT 10SM FEW110 23/13 A3014 RMK AO2,M
HTH,2023-08-17 16:55,-118.6315,38.5448,1282.89,69.80,59.00,68.55,M,M,0.00,30.14,M,10.00,M,CLR,M,M,M,M,M,M,M,M,M,M,M,M,M,M,69.80,KHTH 171655Z AUTO 4.50000005KT 10SM CLR 21/15 A3014 RMK A01,M
LSV,2023-08-17 16:55,-115.0343,36.2362,570.00,99.00,53.40,21.86,0.00,0.00,0.00,29.88,1008.80,10.00,M,FEW,SCT,M,M,15000.00,19000.00,M,M,M,M,M,M,M,M,M,96.88,KLSV 171655Z AUTO 00000KT 10SM FEW150 SCT190 37/12 A2988 RMK AO2 SLP088 T03720119 $,M
BAM,2023-08-17 16:55,-116.8743,40.5990,1382.36,82.40,55.40,39.58,0.00,0.00,0.00,30.11,M,10.00,M,CLR,M,M,M,M,M,M,M,M,M,M,M,M,M,M,81.75,KBAM 171655Z AUTO 00000KT 10SM CLR 28/13 A3011 RMK AO1,M
TMT,2023-08-17 16:55,-117.1971,39.4643,1749.34,70.30,57.00,62.72,0.00,0.00,0.00,30.22,M,M,M,CLR,M,M,M,M,M,M,M,M,M,M,M,M,M,M,70.30,KTMT 171655Z AUTO 00000KT CLR 21/14 A3022 RMK AO2 T02130138 PWINO,M
EKO,2023-08-17 16:56,-115.7860,40.8242,1367.00,79.00,53.00,40.52,240.00,4.00,0.00,30.13,1013.80,10.00,M,CLR,M,M,M,M,M,M,M,M,M,M,M,M,M,M,79.00,KEKO 171656Z AUTO 24004KT 10SM CLR 26/12 A3013 RMK AO2 SLP138 T02610117,M
WMC,2023-08-17 16:56,-117.8072,40.9019,1315.00,79.00,59.00,50.36,280.00,4.00,0.00,30.09,1013.20,10.00,M,CLR,M,M,M,M,M,M,M,M,M,M,M,M,M,M,79.00,KWMC 171656Z AUTO 28004KT 10SM CLR 26/15 A3009 RMK AO2 SLP132 T02610150,M
NFL,2023-08-17 16:56,-118.7010,39.4166,1199.00,78.00,58.00,50.22,190.00,12.00,T,30.09,1015.70,10.00,M,SCT,BKN,BKN,M,7000.00,13000.00,18000.00,M,-RA,M,M,M,M,M,M,78.00,KNFL 171656Z 19012KT 10SM -RA SCT070 BKN130 BKN180 26/14 A3009 RMK AO2 RAB54 SLP157 CB VC S MOV N P0000 T02560144,M
HND,2023-08-17 16:56,-115.1344,35.9729,742.79,95.00,51.00,22.62,0.00,0.00,0.00,29.97,1012.90,10.00,M,CLR,M,M,M,M,M,M,M,M,M,M,M,M,M,M,92.09,KHND 171656Z 00000KT 10SM CLR 35/11 A2997 RMK AO2 SLP129 T03500106,M
TPH,2023-08-17 16:56,-117.0904,38.0505,1654.00,78.00,51.00,38.90,0.00,0.00,0.00,30.19,1013.70,10.00,M,FEW,M,M,M,10000.00,M,M,M,M,M,M,M,M,M,M,78.00,KTPH 171656Z AUTO 00000KT 10SM FEW100 26/11 A3019 RMK AO2 SLP137 T02560106,M
LAS,2023-08-17 16:56,-115.1634,36.0719,663.00,95.00,51.00,22.62,0.00,0.00,0.00,29.94,1010.50,10.00,M,FEW,SCT,M,M,12000.00,20000.00,M,M,M,M,M,M,M,M,M,92.09,KLAS 171656Z 00000KT 10SM FEW120 SCT200 35/11 A2994 RMK AO2 SLP105 T03500106,M
BVU,2023-08-17 17:15,-114.8611,35.9475,671.00,96.80,50.00,20.62,60.00,7.00,0.00,29.92,M,10.00,M,CLR,M,M,M,M,M,M,M,M,M,M,M,M,M,M,93.71,KBVU 171715Z AUTO 06007KT 10SM CLR 36/10 A2992 RMK AO2,M
CXP,2023-08-17 17:15,-119.7326,39.1923,1431.00,75.20,53.60,46.98,190.00,3.00,0.00,30.15,M,10.00,M,FEW,M,M,M,11000.00,M,M,M,M,M,M,M,M,M,M,75.20,KCXP 171715Z AUTO 19003KT 10SM FEW110 24/12 A3015 RMK AO2,M
RTS,2023-08-17 17:15,-119.8764,39.6682,1539.00,77.00,50.00,38.74,0.00,0.00,0.00,30.16,M,10.00,M,CLR,M,M,M,M,M,M,M,M,M,M,M,M,M,M,77.00,KRTS 171715Z AUTO 00000KT 10SM CLR 25/10 A3016 RMK AO2,M
05U,2023-08-17 17:15,-116.0051,39.6042,1811.23,78.80,55.40,44.52,M,M,0.00,30.22,M,10.00,M,M,M,M,M,M,M,M,M,M,M,M,M,M,M,M,78.80,K05U 171715Z AUTO 10SM 26/13 A3022 RMK A01,M
MEV,2023-08-17 17:15,-119.7500,38.9963,1441.42,73.40,55.40,53.29,0.00,0.00,0.00,30.14,M,10.00,M,FEW,M,M,M,11000.00,M,M,M,M,M,M,M,M,M,M,73.40,KMEV 171715Z AUTO 00000KT 10SM FEW110 23/13 A3014 RMK AO2,M
BAM,2023-08-17 17:15,-116.8743,40.5990,1382.36,82.40,55.40,39.58,200.00,3.00,0.00,30.11,M,10.00,M,CLR,M,M,M,M,M,M,M,M,M,M,M,M,M,M,81.75,KBAM 171715Z AUTO 20003KT 10SM CLR 28/13 A3011 RMK AO1,M
HTH,2023-08-17 17:15,-118.6315,38.5448,1282.89,73.40,57.20,56.88,120.00,6.00,0.00,30.14,M,10.00,M,CLR,M,M,M,M,M,M,M,M,M,M,M,M,M,M,73.40,KHTH 171715Z AUTO 12006KT 10SM CLR 23/14 A3014 RMK A01,M
TMT,2023-08-17 17:15,-117.1971,39.4643,1749.34,71.60,55.60,57.04,0.00,0.00,0.00,30.22,M,M,M,CLR,M,M,M,M,M,M,M,M,M,M,M,M,M,M,71.60,KTMT 171715Z AUTO 00000KT CLR 22/13 A3022 RMK AO2 T02200131 PWINO,M
10U,2023-08-17 17:15,-116.1876,41.9532,1637.00,82.40,44.60,26.49,210.00,11.00,0.00,30.15,M,10.00,17.00,CLR,M,M,M,M,M,M,M,M,M,M,M,M,M,M,80.50,K10U 171715Z AUTO 21011G17KT 10SM CLR 28/07 A3015 RMK AO2,M
BVU,2023-08-17 17:35,-114.8611,35.9475,671.00,96.80,50.00,20.62,M,4.00,0.00,29.92,M,10.00,M,CLR,M,M,M,M,M,M,M,M,M,M,M,M,M,M,93.71,KBVU 171735Z AUTO VRB04KT 10SM CLR 36/10 A2992 RMK AO2,M
CXP,2023-08-17 17:35,-119.7326,39.1923,1431.00,77.00,53.60,44.25,0.00,0.00,0.00,30.15,M,10.00,M,CLR,M,M,M,M,M,M,M,M,M,M,M,M,M,M,77.00,KCXP 171735Z AUTO 00000KT 10SM CLR 25/12 A3015 RMK AO2,M
RTS,2023-08-17 17:35,-119.8764,39.6682,1539.00,77.00,50.00,38.74,100.00,7.00,0.00,30.16,M,10.00,M,CLR,M,M,M,M,M,M,M,M,M,M,M,M,M,M,77.00,KRTS 171735Z AUTO 10007KT 10SM CLR 25/10 A3016 RMK AO2,M
05U,2023-08-17 17:35,-116.0051,39.6042,1811.23,82.40,55.40,39.58,M,M,0.00,30.22,M,10.00,M,M,M,M,M,M,M,M,M,M,M,M,M,M,M,M,81.75,K05U 171735Z AUTO 10SM 28/13 A3022 RMK A01,M
MEV,2023-08-17 17:35,-119.7500,38.9963,1441.42,77.00,53.60,44.25,M,M,0.00,30.13,M,10.00,M,CLR,M,M,M,M,M,M,M,M,M,M,M,M,M,M,77.00,KMEV 171735Z AUTO 10SM CLR 25/12 A3013 RMK AO2,M
HTH,2023-08-17 17:35,-118.6315,38.5448,1282.89,75.20,57.20,53.55,M,3.00,0.00,30.13,M,10.00,M,CLR,M,M,M,M,M,M,M,M,M,M,M,M,M,M,75.20,KHTH 171735Z AUTO VRB03KT 10SM CLR 24/14 A3013 RMK A01,M
BAM,2023-08-17 17:35,-116.8743,40.5990,1382.36,86.00,53.60,33.01,170.00,3.00,0.00,30.10,M,10.00,M,CLR,M,M,M,M,M,M,M,M,M,M,M,M,M,M,84.18,KBAM 171735Z AUTO 17003KT 10SM CLR 30/12 A3010 RMK AO1,M
TMT,2023-08-17 17:35,-117.1971,39.4643,1749.34,74.30,55.00,50.96,0.00,0.00,0.00,30.22,M,M,M,CLR,M,M,M,M,M,M,M,M,M,M,M,M,M,M,74.30,KTMT 171735Z AUTO 00000KT CLR 24/13 A3022 RMK AO2 T02350128 PWINO,M
LSV,2023-08-17 17:38,-115.0343,36.2362,570.00,102.20,53.60,20.00,0.00,0.00,0.00,29.88,1008.80,2.75,M,CLR,M,M,M,M,M,M,M,HZ,M,M,M,M,M,M,100.38,KLSV 171738Z AUTO 00000KT 2 3/4SM HZ CLR 39/12 A2988 RMK AO2 VIS 2 3/4V10 SLP088 $,M
LSV,2023-08-17 17:39,-115.0343,36.2362,570.00,102.20,53.60,20.00,0.00,0.00,0.00,29.88,1008.80,1.75,M,CLR,M,M,M,M,M,M,M,HZ,M,M,M,M,M,M,100.38,KLSV 171739Z AUTO 00000KT 1 3/4SM HZ CLR 39/12 A2988 RMK AO2 VIS 1 3/4V10 SLP088 $,M
LSV,2023-08-17 17:40,-115.0343,36.2362,570.00,102.20,53.60,20.00,0.00,0.00,0.00,29.88,1008.80,0.88,M,CLR,M,M,M,M,M,M,M,HZ,M,M,M,M,M,M,100.38,KLSV 171740Z AUTO 00000KT 7/8SM R21L/2000VP6000FT HZ CLR 39/12 A2988 RMK AO2 VIS 7/8V9 SLP088 $,M
LSV,2023-08-17 17:41,-115.0343,36.2362,570.00,102.20,53.60,20.00,170.00,3.00,0.00,29.88,1008.80,1.00,M,CLR,M,M,M,M,M,M,M,HZ,M,M,M,M,M,M,100.38,KLSV 171741Z AUTO 17003KT 1SM R21L/2000VP6000FT HZ CLR 39/12 A2988 RMK AO2 VIS 7/8V8 SLP088 $,M
LSV,2023-08-17 17:42,-115.0343,36.2362,570.00,102.20,51.80,18.72,170.00,3.00,0.00,29.88,1008.80,1.50,M,CLR,M,M,M,M,M,M,M,HZ,M,M,M,M,M,M,99.80,KLSV 171742Z AUTO 17003KT 1 1/2SM HZ CLR 39/11 A2988 RMK AO2 VIS 7/8V7 SLP088 $,M
LSV,2023-08-17 17:43,-115.0343,36.2362,570.00,102.20,51.80,18.72,170.00,3.00,0.00,29.88,1008.80,2.50,M,CLR,M,M,M,M,M,M,M,HZ,M,M,M,M,M,M,99.80,KLSV 171743Z AUTO 17003KT 2 1/2SM HZ CLR 39/11 A2988 RMK AO2 VIS 7/8V6 SLP088 $,M
LSV,2023-08-17 17:44,-115.0343,36.2362,570.00,102.20,51.80,18.72,0.00,0.00,0.00,29.88,1008.80,3.00,M,CLR,M,M,M,M,M,M,M,HZ,M,M,M,M,M,M,99.80,KLSV 171744Z AUTO 00000KT 3SM HZ CLR 39/11 A2988 RMK AO2 SLP088 $,M
LSV,2023-08-17 17:45,-115.0343,36.2362,570.00,102.20,51.80,18.72,160.00,3.00,0.00,29.88,1008.80,4.00,M,CLR,M,M,M,M,M,M,M,HZ,M,M,M,M,M,M,99.80,KLSV 171745Z AUTO 16003KT 4SM HZ CLR 39/11 A2988 RMK AO2 SLP088 $,M
P68,2023-08-17 17:53,-116.0056,39.6014,1993.00,83.00,54.00,36.89,M,3.00,0.00,30.18,1012.50,M,M,M,M,M,M,M,M,M,M,M,M,M,M,M,M,M,81.94,KP68 171753Z AUTO VRB03KT 28/12 A3018 RMK AO1 SLP125 T02830122 10283 20150 58007,M
DRA,2023-08-17 17:53,-116.0278,36.6206,1009.00,96.00,48.00,19.61,220.00,9.00,0.00,30.01,1010.10,10.00,18.00,CLR,M,M,M,M,M,M,M,M,M,M,M,M,M,M,92.52,KDRA 171753Z AUTO 22009G18KT 10SM CLR 36/09 A3001 RMK AO2 SLP101 T03560089 10361 20222 51001,M
ELY,2023-08-17 17:53,-114.8453,39.2950,1909.00,80.00,50.00,35.10,250.00,6.00,0.00,30.22,1012.70,10.00,M,BKN,BKN,BKN,M,8000.00,9000.00,11000.00,M,M,M,M,M,M,M,M,79.55,KELY 171753Z AUTO 25006KT 10SM BKN080 BKN090 BKN110 27/10 A3022 RMK AO2 SLP127 T02670100 10278 20128 58003,M
LOL,2023-08-17 17:53,-118.5701,40.0684,1192.43,84.00,52.00,33.19,200.00,8.00,0.00,30.07,1013.40,10.00,M,CLR,M,M,M,M,M,M,M,M,M,M,M,M,M,M,82.36,KLOL 171753Z AUTO 20008KT 10SM CLR 29/11 A3007 RMK AO2 SLP134 T02890111 10289 20183 58001,M
BVU,2023-08-17 17:55,-114.8611,35.9475,671.00,98.60,50.00,19.52,M,3.00,0.00,29.92,M,10.00,10.00,CLR,M,M,M,M,M,M,M,M,M,M,M,M,M,M,95.56,KBVU 171755Z AUTO VRB03G10KT 10SM CLR 37/10 A2992 RMK AO2,M
CXP,2023-08-17 17:55,-119.7326,39.1923,1431.00,77.00,51.80,41.42,0.00,0.00,0.00,30.14,M,10.00,M,CLR,M,M,M,M,M,M,M,M,M,M,M,M,M,M,77.00,KCXP 171755Z AUTO 00000KT 10SM CLR 25/11 A3014 RMK AO2,M
INS,2023-08-17 17:55,-115.6733,36.5872,955.00,92.50,45.50,19.88,90.00,3.00,0.00,29.99,1010.10,10.00,M,SCT,BKN,M,M,11000.00,14000.00,M,M,M,M,M,M,M,M,M,88.79,KINS 171755Z AUTO 09003KT 10SM SCT110 BKN140 34/08 A2999 RMK AO2 SLP101 T03360075 10345 20218 58002 $,M
RNO,2023-08-17 17:55,-119.7711,39.4839,1341.00,82.00,53.00,36.74,M,3.00,0.00,30.09,1013.00,10.00,M,FEW,BKN,M,M,9500.00,18000.00,M,M,M,M,M,M,M,M,M,81.10,KRNO 171755Z VRB03KT 10SM FEW095 BKN180 28/12 A3009 RMK AO2 SLP130 60000 T02780117 10283 20194 58004,M
RTS,2023-08-17 17:55,-119.8764,39.6682,1539.00,78.80,48.20,34.13,120.00,7.00,0.00,30.15,M,10.00,M,CLR,M,M,M,M,M,M,M,M,M,M,M,M,M,M,78.80,KRTS 171755Z AUTO 12007KT 10SM CLR 26/09 A3015 RMK AO2,M
05U,2023-08-17 17:55,-116.0051,39.6042,1811.23,84.20,53.60,34.97,M,M,0.00,30.21,M,10.00,M,M,M,M,M,M,M,M,M,M,M,M,M,M,M,M,82.76,K05U 171755Z AUTO 10SM 29/12 A3021 RMK A01,M
MEV,2023-08-17 17:55,-119.7500,38.9963,1441.42,77.00,51.80,41.42,0.00,0.00,0.00,30.13,M,10.00,M,CLR,M,M,M,M,M,M,M,M,M,M,M,M,M,M,77.00,KMEV 171755Z AUTO 00000KT 10SM CLR 25/11 A3013 RMK AO2,M
HTH,2023-08-17 17:55,-118.6315,38.5448,1282.89,77.00,53.60,44.25,M,4.00,0.00,30.13,M,10.00,M,CLR,M,M,M,M,M,M,M,M,M,M,M,M,M,M,77.00,KHTH 171755Z AUTO VRB04KT 10SM CLR 25/12 A3013 RMK A01,M
BAM,2023-08-17 17:55,-116.8743,40.5990,1382.36,86.00,53.60,33.01,230.00,4.00,0.00,30.10,M,10.00,M,CLR,M,M,M,M,M,M,M,M,M,M,M,M,M,M,84.18,KBAM 171755Z AUTO 23004KT 10SM CLR 30/12 A3010 RMK AO1,M
TMT,2023-08-17 17:55,-117.1971,39.4643,1749.34,76.30,55.00,47.66,200.00,4.00,0.00,30.21,M,M,M,CLR,M,M,M,M,M,M,M,M,M,M,M,M,M,M,76.30,KTMT 171755Z AUTO 20004KT CLR 25/13 A3021 RMK AO2 LTG DSNT NE T02460127 10246 20112 PWINO,M
10U,2023-08-17 17:55,-116.1876,41.9532,1637.00,78.80,44.60,29.79,210.00,12.00,0.00,30.16,M,10.00,M,CLR,M,M,M,M,M,M,M,M,M,M,M,M,M,M,78.80,K10U 171755Z AUTO 21012KT 10SM CLR 26/07 A3016 RMK AO2 LTG DSNT SE AND S,M
LSV,2023-08-17 17:55,-115.0343,36.2362,570.00,103.00,51.00,17.74,0.00,0.00,0.00,29.88,1008.80,8.00,M,CLR,M,M,M,M,M,M,M,M,M,M,M,M,M,M,100.40,KLSV 171755Z AUTO 00000KT 8SM CLR 39/11 A2988 RMK AO2 SLP088 T03940106 10394 20262 50001 $,M
EKO,2023-08-17 17:56,-115.7860,40.8242,1367.00,83.00,55.00,38.26,M,M,0.00,30.13,1013.50,10.00,M,CLR,M,M,M,M,M,M,M,M,M,M,M,M,M,M,82.11,KEKO 171756Z AUTO 10SM CLR 28/13 A3013 RMK AO2 SLP135 T02830128 10283 20161 56008,M
HND,2023-08-17 17:56,-115.1344,35.9729,742.79,M,M,M,M,M,0.00,M,M,M,M,M,M,M,M,M,M,M,M,M,M,M,M,M,M,M,M,KHND 171756Z RMK AO2 SLPNO 6//// 10367 20278 $,M
WMC,2023-08-17 17:56,-117.8072,40.9019,1315.00,84.00,54.00,35.72,M,4.00,0.00,30.08,1012.90,10.00,M,CLR,M,M,M,M,M,M,M,M,M,M,M,M,M,M,82.67,KWMC 171756Z AUTO VRB04KT 10SM CLR 29/12 A3008 RMK AO2 SLP129 60000 T02890122 10289 20183 58004,M
NFL,2023-08-17 17:56,-118.7010,39.4166,1199.00,76.00,58.00,53.66,140.00,4.00,T,30.08,1015.40,10.00,M,SCT,BKN,BKN,BKN,7000.00,11000.00,14000.00,18000.00,M,M,M,M,M,M,M,76.00,KNFL 171756Z 14004KT 10SM SCT070 BKN110 BKN140 BKN180 24/14 A3008 RMK AO2 RAE10 SLP154 CB DSNT N AND VC E-SE P0000 60000 T02440144 10267 20222 50002,M
TPH,2023-08-17 17:56,-117.0904,38.0505,1654.00,82.00,50.00,32.88,M,5.00,0.00,30.18,1013.30,10.00,M,CLR,M,M,M,M,M,M,M,M,M,M,M,M,M,M,80.73,KTPH 171756Z AUTO VRB05KT 10SM CLR 28/10 A3018 RMK AO2 SLP133 T02780100 10289 20189 58003,M
LAS,2023-08-17 17:56,-115.1634,36.0719,663.00,98.00,50.00,19.88,70.00,5.00,0.00,29.93,1010.20,10.00,M,FEW,FEW,SCT,M,12000.00,15000.00,20000.00,M,M,M,M,M,M,M,M,94.94,KLAS 171756Z 07005KT 10SM FEW120 FEW150 SCT200 37/10 A2993 RMK AO2 SLP102 T03670100 10372 20289 50000,M
05U,2023-08-17 18:10,-116.0051,39.6042,1811.23,84.20,51.80,32.73,M,M,0.00,30.21,M,10.00,M,M,M,M,M,M,M,M,M,M,M,M,M,M,M,M,82.48,K05U 171810Z AUTO 10SM 29/11 A3021 RMK A01,M
BVU,2023-08-17 18:15,-114.8611,35.9475,671.00,100.40,50.00,18.48,60.00,6.00,0.00,29.91,M,10.00,M,CLR,M,M,M,M,M,M,M,M,M,M,M,M,M,M,97.42,KBVU 171815Z AUTO 06006KT 10SM CLR 38/10 A2991 RMK AO2,M
CXP,2023-08-17 18:15,-119.7326,39.1923,1431.00,78.80,51.80,39.02,0.00,0.00,0.00,30.14,M,10.00,M,CLR,M,M,M,M,M,M,M,M,M,M,M,M,M,M,78.80,KCXP 171815Z AUTO 00000KT 10SM CLR 26/11 A3014 RMK AO2,M
RTS,2023-08-17 18:15,-119.8764,39.6682,1539.00,78.80,48.20,34.13,160.00,6.00,0.00,30.15,M,10.00,13.00,CLR,M,M,M,M,M,M,M,M,M,M,M,M,M,M,78.80,KRTS 171815Z AUTO 16006G13KT 10SM CLR 26/09 A3015 RMK AO2,M
MEV,2023-08-17 18:15,-119.7500,38.9963,1441.42,78.80,51.80,39.02,0.00,0.00,0.00,30.12,M,10.00,M,CLR,M,M,M,M,M,M,M,M,M,M,M,M,M,M,78.80,KMEV 171815Z AUTO 00000KT 10SM CLR 26/11 A3012 RMK AO2,M
HTH,2023-08-17 18:15,-118.6315,38.5448,1282.89,78.80,51.80,39.02,M,5.00,0.00,30.12,M,10.00,M,CLR,M,M,M,M,M,M,M,M,M,M,M,M,M,M,78.80,KHTH 171815Z AUTO VRB05KT 10SM CLR 26/11 A3012 RMK A01,M
10U,2023-08-17 18:15,-116.1876,41.9532,1637.00,77.00,44.60,31.62,190.00,11.00,0.00,30.18,M,10.00,M,CLR,M,M,M,M,M,M,M,M,M,M,M,M,M,M,77.00,K10U 171815Z AUTO 19011KT 10SM CLR 25/07 A3018 RMK AO2,M
BAM,2023-08-17 18:15,-116.8743,40.5990,1382.36,87.80,53.60,31.17,0.00,0.00,0.00,30.09,M,10.00,M,CLR,M,M,M,M,M,M,M,M,M,M,M,M,M,M,85.72,KBAM 171815Z AUTO 00000KT 10SM CLR 31/12 A3009 RMK AO1,M
TMT,2023-08-17 18:15,-117.1971,39.4643,1749.34,77.50,54.70,45.31,250.00,4.00,0.00,30.21,M,M,M,CLR,M,M,M,M,M,M,M,M,M,M,M,M,M,M,77.50,KTMT 171815Z AUTO 25004KT CLR 25/13 A3021 RMK AO2 T02530126 PWINO,M
BVU,2023-08-17 18:35,-114.8611,35.9475,671.00,100.40,50.00,18.48,100.00,7.00,0.00,29.91,M,10.00,M,CLR,M,M,M,M,M,M,M,M,M,M,M,M,M,M,97.42,KBVU 171835Z AUTO 10007KT 10SM CLR 38/10 A2991 RMK AO2,M
CXP,2023-08-17 18:35,-119.7326,39.1923,1431.00,78.80,51.80,39.02,0.00,0.00,0.00,30.13,M,10.00,M,CLR,M,M,M,M,M,M,M,M,M,M,M,M,M,M,78.80,KCXP 171835Z AUTO 00000KT 10SM CLR 26/11 A3013 RMK AO2,M
RTS,2023-08-17 18:35,-119.8764,39.6682,1539.00,78.80,50.00,36.51,160.00,9.00,0.00,30.14,M,10.00,M,CLR,M,M,M,M,M,M,M,M,M,M,M,M,M,M,78.80,KRTS 171835Z AUTO 16009KT 10SM CLR 26/10 A3014 RMK AO2,M
05U,2023-08-17 18:35,-116.0051,39.6042,1811.23,87.80,51.80,29.18,M,M,0.00,30.19,M,10.00,M,M,M,M,M,M,M,M,M,M,M,M,M,M,M,M,85.39,K05U 171835Z AUTO 10SM 31/11 A3019 RMK A01,M
MEV,2023-08-17 18:35,-119.7500,38.9963,1441.42,80.60,51.80,36.79,0.00,0.00,0.00,30.11,M,10.00,M,CLR,M,M,M,M,M,M,M,M,M,M,M,M,M,M,80.08,KMEV 171835Z AUTO 00000KT 10SM CLR 27/11 A3011 RMK AO2,M
HTH,2023-08-17 18:35,-118.6315,38.5448,1282.89,80.60,51.80,36.79,110.00,5.00,0.00,30.11,M,10.00,M,CLR,M,M,M,M,M,M,M,M,M,M,M,M,M,M,80.08,KHTH 171835Z AUTO 11005KT 10SM CLR 27/11 A3011 RMK A01,M
10U,2023-08-17 18:35,-116.1876,41.9532,1637.00,73.40,51.80,46.71,160.00,3.00,0.00,30.17,M,9.00,12.00,FEW,SCT,SCT,M,7000.00,8000.00,10000.00,M,-RA,M,M,M,M,M,M,73.40,K10U 171835Z AUTO 16003G12KT 9SM -RA FEW070 SCT080 SCT100 23/11 A3017 RMK AO2,M
BAM,2023-08-17 18:35,-116.8743,40.5990,1382.36,87.80,51.80,29.18,170.00,3.00,0.00,30.08,M,10.00,M,CLR,M,M,M,M,M,M,M,M,M,M,M,M,M,M,85.39,KBAM 171835Z AUTO 17003KT 10SM CLR 31/11 A3008 RMK AO1,M
TMT,2023-08-17 18:35,-117.1971,39.4643,1749.34,77.00,55.00,46.57,240.00,6.00,0.00,30.21,M,M,M,CLR,M,M,M,M,M,M,M,M,M,M,M,M,M,M,77.00,KTMT 171835Z AUTO 24006KT CLR 25/13 A3021 RMK AO2 T02490127 PWINO,M
P68,2023-08-17 18:53,-116.0056,39.6014,1993.00,87.00,51.00,29.06,300.00,7.00,0.00,30.16,1011.60,M,M,M,M,M,M,M,M,M,M,M,M,M,M,M,M,M,84.58,KP68 171853Z AUTO 30007KT 31/11 A3016 RMK AO1 SLP116 T03060106,M
DRA,2023-08-17 18:53,-116.0278,36.6206,1009.00,99.00,47.00,17.23,220.00,8.00,0.00,29.99,1009.40,10.00,17.00,CLR,M,M,M,M,M,M,M,M,M,M,M,M,M,M,95.35,KDRA 171853Z AUTO 22008G17KT 190V260 10SM CLR 37/08 A2999 RMK AO2 SLP094 T03720083,M
ELY,2023-08-17 18:53,-114.8453,39.2950,1909.00,81.00,49.00,32.73,210.00,7.00,0.00,30.20,1012.10,10.00,M,SCT,BKN,M,M,8000.00,11000.00,M,M,M,M,M,M,M,M,M,80.02,KELY 171853Z AUTO 21007KT 10SM SCT080 BKN110 27/09 A3020 RMK AO2 LTG DSNT E AND NW SLP121 T02720094,M
VGT,2023-08-17 18:53,-115.1933,36.2111,667.00,101.00,52.00,19.55,130.00,7.00,0.00,29.90,1010.90,10.00,M,CLR,M,M,M,M,M,M,M,M,M,M,M,M,M,M,98.59,KVGT 171853Z AUTO 13007KT 10SM CLR 38/11 A2990 RMK AO2 SLP109 T03830111 $,M
LOL,2023-08-17 18:53,-118.5701,40.0684,1192.43,85.00,53.00,33.34,220.00,14.00,0.00,30.06,1013.20,10.00,M,CLR,M,M,M,M,M,M,M,M,M,M,M,M,M,M,83.27,KLOL 171853Z AUTO 22014KT 10SM CLR 29/12 A3006 RMK AO2 LTG DSNT S SLP132 T02940117,M
BVU,2023-08-17 18:55,-114.8611,35.9475,671.00,100.40,48.20,17.28,100.00,8.00,0.00,29.90,M,10.00,13.00,CLR,M,M,M,M,M,M,M,M,M,M,M,M,M,M,97.00,KBVU 171855Z AUTO 10008G13KT 10SM CLR 38/09 A2990 RMK AO2,M
CXP,2023-08-17 18:55,-119.7326,39.1923,1431.00,78.80,51.80,39.02,M,5.00,0.00,30.12,M,10.00,M,CLR,M,M,M,M,M,M,M,M,M,M,M,M,M,M,78.80,KCXP 171855Z AUTO VRB05KT 10SM CLR 26/11 A3012 RMK AO2,M
INS,2023-08-17 18:55,-115.6733,36.5872,955.00,95.00,44.80,17.92,0.00,0.00,0.00,29.97,1009.40,10.00,M,SCT,BKN,M,M,11000.00,13000.00,M,M,M,M,M,M,M,M,M,91.08,KINS 171855Z AUTO 00000KT 10SM SCT110 BKN130 35/07 A2997 RMK AO2 SLP094 T03500071 $,M
RNO,2023-08-17 18:55,-119.7711,39.4839,1341.00,84.00,53.00,34.43,120.00,7.00,0.00,30.08,1012.40,10.00,M,SCT,BKN,M,M,10000.00,21000.00,M,M,M,M,M,M,M,M,M,82.51,KRNO 171855Z 12007KT 10SM SCT100 BKN210 29/12 A3008 RMK AO2 SLP124 T02890117,M
RTS,2023-08-17 18:55,-119.8764,39.6682,1539.00,78.80,50.00,36.51,150.00,10.00,0.00,30.14,M,10.00,M,CLR,M,M,M,M,M,M,M,M,M,M,M,M,M,M,78.80,KRTS 171855Z AUTO 15010KT 10SM CLR 26/10 A3014 RMK AO2,M
05U,2023-08-17 18:55,-116.0051,39.6042,1811.23,87.80,50.00,27.29,M,M,0.00,30.19,M,10.00,M,M,M,M,M,M,M,M,M,M,M,M,M,M,M,M,85.11,K05U 171855Z AUTO 10SM 31/10 A3019 RMK A01,M
MEV,2023-08-17 18:55,-119.7500,38.9963,1441.42,80.60,51.80,36.79,M,4.00,0.00,30.10,M,10.00,M,CLR,M,M,M,M,M,M,M,M,M,M,M,M,M,M,80.08,KMEV 171855Z AUTO VRB04KT 10SM CLR 27/11 A3010 RMK AO2,M
HTH,2023-08-17 18:55,-118.6315,38.5448,1282.89,82.40,51.80,34.69,M,4.00,0.00,30.10,M,10.00,M,CLR,M,M,M,M,M,M,M,M,M,M,M,M,M,M,81.20,KHTH 171855Z AUTO VRB04KT 10SM CLR 28/11 A3010 RMK A01,M
BAM,2023-08-17 18:55,-116.8743,40.5990,1382.36,89.60,51.80,27.56,200.00,6.00,0.00,30.08,M,10.00,M,CLR,M,M,M,M,M,M,M,M,M,M,M,M,M,M,87.00,KBAM 171855Z AUTO 20006KT 10SM CLR 32/11 A3008 RMK AO1,M
TMT,2023-08-17 18:55,-117.1971,39.4643,1749.34,78.30,54.70,44.12,210.00,6.00,0.00,30.20,M,M,M,CLR,M,M,M,M,M,M,M,M,M,M,M,M,M,M,78.30,KTMT 171855Z AUTO 21006KT CLR 26/13 A3020 RMK AO2 T02570126 PWINO,M
10U,2023-08-17 18:55,-116.1876,41.9532,1637.00,75.20,50.00,41.14,0.00,0.00,0.00,30.16,M,10.00,M,FEW,FEW,SCT,M,7000.00,7500.00,12000.00,M,-RA,M,M,M,M,M,M,75.20,K10U 171855Z AUTO 00000KT 10SM -RA FEW070 FEW075 SCT120 24/10 A3016 RMK AO2,M
LSV,2023-08-17 18:55,-115.0343,36.2362,570.00,106.00,50.40,15.87,0.00,0.00,0.00,29.85,1007.80,10.00,M,CLR,M,M,M,M,M,M,M,M,M,M,M,M,M,M,103.31,KLSV 171855Z AUTO 00000KT 10SM CLR 41/10 A2985 RMK AO2 SLP078 T04110102 $,M
EKO,2023-08-17 18:56,-115.7860,40.8242,1367.00,87.00,55.00,33.65,M,5.00,0.00,30.10,1012.50,10.00,M,CLR,M,M,M,M,M,M,M,M,M,M,M,M,M,M,85.31,KEKO 171856Z AUTO VRB05KT 10SM CLR 31/13 A3010 RMK AO2 SLP125 T03060128,M
WMC,2023-08-17 18:56,-117.8072,40.9019,1315.00,86.00,53.00,32.29,330.00,3.00,0.00,30.06,1012.30,10.00,M,CLR,M,M,M,M,M,M,M,M,M,M,M,M,M,M,84.07,KWMC 171856Z AUTO 33003KT 10SM CLR 30/12 A3006 RMK AO2 SLP123 T03000117,M
HND,2023-08-17 18:56,-115.1344,35.9729,742.79,M,M,M,M,M,0.00,M,M,M,M,M,M,M,M,M,M,M,M,M,M,M,M,M,M,M,M,KHND 171856Z RMK AO2 LTG DSNT SE AND S SLPNO $,M
TPH,2023-08-17 18:56,-117.0904,38.0505,1654.00,86.00,49.00,27.85,200.00,7.00,0.00,30.16,1012.10,10.00,17.00,FEW,M,M,M,8000.00,M,M,M,M,M,M,M,M,M,M,83.49,KTPH 171856Z AUTO 20007G17KT 170V230 10SM FEW080 30/09 A3016 RMK AO2 SLP121 T03000094,M
LAS,2023-08-17 18:56,-115.1634,36.0719,663.00,103.00,51.00,17.74,70.00,9.00,0.00,29.90,1009.10,10.00,M,FEW,FEW,SCT,M,12000.00,15000.00,20000.00,M,M,M,M,M,M,M,M,100.40,KLAS 171856Z 07009KT 10SM FEW120 FEW150 SCT200 39/11 A2990 RMK AO2 LTG DSNT S SLP091 TCU DSNT SE T03940106,M
NFL,2023-08-17 18:56,-118.7010,39.4166,1199.00,83.00,54.00,36.89,160.00,5.00,0.00,30.06,1014.90,10.00,M,SCT,SCT,SCT,SCT,7000.00,12000.00,17000.00,22000.00,M,M,M,M,M,M,M,81.94,KNFL 171856Z COR 16005KT 10SM SCT070 SCT120 SCT170 SCT220 28/12 A3006 RMK AO2 SLP149 OCNL LTGICCG DSNT NE TS DSNT NE MOV N T02830122,M
HTH,2023-08-17 19:10,-118.6315,38.5448,1282.89,82.40,50.00,32.46,0.00,0.00,0.00,30.09,M,10.00,M,CLR,M,M,M,M,M,M,M,M,M,M,M,M,M,M,80.99,KHTH 171910Z AUTO 00000KT 10SM CLR 28/10 A3009 RMK A01,M
BVU,2023-08-17 19:15,-114.8611,35.9475,671.00,100.40,48.20,17.28,0.00,0.00,0.00,29.89,M,10.00,M,CLR,M,M,M,M,M,M,M,M,M,M,M,M,M,M,97.00,KBVU 171915Z AUTO 00000KT 10SM CLR 38/09 A2989 RMK AO2,M
CXP,2023-08-17 19:15,-119.7326,39.1923,1431.00,80.60,51.80,36.79,0.00,0.00,0.00,30.12,M,10.00,M,CLR,M,M,M,M,M,M,M,M,M,M,M,M,M,M,80.08,KCXP 171915Z AUTO 00000KT 10SM CLR 27/11 A3012 RMK AO2,M
RTS,2023-08-17 19:15,-119.8764,39.6682,1539.00,80.60,50.00,34.41,140.00,12.00,0.00,30.13,M,10.00,M,CLR,M,M,M,M,M,M,M,M,M,M,M,M,M,M,79.88,KRTS 171915Z AUTO 14012KT 10SM CLR 27/10 A3013 RMK AO2,M
05U,2023-08-17 19:15,-116.0051,39.6042,1811.23,87.80,50.00,27.29,M,M,0.00,30.18,M,10.00,M,M,M,M,M,M,M,M,M,M,M,M,M,M,M,M,85.11,K05U 171915Z AUTO 10SM 31/10 A3018 RMK A01,M
MEV,2023-08-17 19:15,-119.7500,38.9963,1441.42,82.40,51.80,34.69,M,4.00,0.00,30.10,M,10.00,M,CLR,M,M,M,M,M,M,M,M,M,M,M,M,M,M,81.20,KMEV 171915Z AUTO VRB04KT 10SM CLR 28/11 A3010 RMK AO2,M
10U,2023-08-17 19:15,-116.1876,41.9532,1637.00,80.60,44.60,28.08,M,3.00,0.00,30.15,M,10.00,11.00,FEW,M,M,M,12000.00,M,M,M,M,M,M,M,M,M,M,79.42,K10U 171915Z AUTO VRB03G11KT 10SM FEW120 27/07 A3015 RMK AO2,M
BAM,2023-08-17 19:15,-116.8743,40.5990,1382.36,89.60,51.80,27.56,160.00,7.00,0.00,30.07,M,10.00,M,SCT,M,M,M,12000.00,M,M,M,M,M,M,M,M,M,M,87.00,KBAM 171915Z AUTO 16007KT 10SM SCT120 32/11 A3007 RMK AO1,M
TMT,2023-08-17 19:15,-117.1971,39.4643,1749.34,79.00,52.30,39.49,190.00,4.00,0.00,30.18,M,M,M,CLR,M,M,M,M,M,M,M,M,M,M,M,M,M,M,79.00,KTMT 171915Z AUTO 19004KT CLR 26/11 A3018 RMK AO2 T02610113 PWINO,M
INS,2023-08-17 19:30,-115.6733,36.5872,955.00,96.80,44.60,16.83,200.00,3.00,0.00,29.96,1009.10,10.00,M,SCT,M,M,M,13000.00,M,M,M,M,M,M,M,M,M,M,92.79,KINS 171930Z COR AUTO 20003KT 10SM SCT130 36/07 A2996 RMK AO2 RAB30 SLP091 $ COR 1935,M
ELY,2023-08-17 19:33,-114.8453,39.2950,1909.00,83.00,49.00,30.67,180.00,7.00,0.00,30.18,M,10.00,M,SCT,M,M,M,9500.00,M,M,M,VCTS,M,M,M,M,M,M,81.28,KELY 171933Z AUTO 18007KT 10SM VCTS SCT095 28/09 A3018 RMK AO2 LTG DSNT E T02830094,M
BVU,2023-08-17 19:35,-114.8611,35.9475,671.00,102.20,48.20,16.37,120.00,7.00,0.00,29.88,M,10.00,M,CLR,M,M,M,M,M,M,M,M,M,M,M,M,M,M,98.83,KBVU 171935Z AUTO 12007KT 10SM CLR 39/09 A2988 RMK AO2,M
CXP,2023-08-17 19:35,-119.7326,39.1923,1431.00,82.40,50.00,32.46,0.00,0.00,0.00,30.10,M,10.00,M,CLR,M,M,M,M,M,M,M,M,M,M,M,M,M,M,80.99,KCXP 171935Z AUTO 00000KT 10SM CLR 28/10 A3010 RMK AO2,M
INS,2023-08-17 19:35,-115.6733,36.5872,955.00,96.80,44.60,16.83,0.00,0.00,0.00,29.95,1008.60,7.00,M,FEW,M,M,M,13000.00,M,M,M,-RA,M,M,M,M,M,M,92.79,KINS 171935Z AUTO 00000KT 7SM -RA FEW130 36/07 A2995 RMK AO2 RAB30 SLP086 $,M
RTS,2023-08-17 19:35,-119.8764,39.6682,1539.00,82.40,48.20,30.35,130.00,10.00,0.00,30.13,M,10.00,M,CLR,M,M,M,M,M,M,M,M,M,M,M,M,M,M,80.80,KRTS 171935Z AUTO 13010KT 10SM CLR 28/09 A3013 RMK AO2,M
05U,2023-08-17 19:35,-116.0051,39.6042,1811.23,86.00,50.00,28.90,M,M,0.00,30.18,M,10.00,M,M,M,M,M,M,M,M,M,M,M,M,M,M,M,M,83.62,K05U 171935Z AUTO 10SM 30/10 A3018 RMK A01,M
MEV,2023-08-17 19:35,-119.7500,38.9963,1441.42,84.20,50.00,30.62,M,5.00,0.00,30.09,M,9.00,M,CLR,M,M,M,M,M,M,M,M,M,M,M,M,M,M,82.24,KMEV 171935Z AUTO VRB05KT 9SM CLR 29/10 A3009 RMK AO2,M
HTH,2023-08-17 19:35,-118.6315,38.5448,1282.89,84.20,51.80,32.73,360.00,6.00,0.00,30.08,M,10.00,M,CLR,M,M,M,M,M,M,M,M,M,M,M,M,M,M,82.48,KHTH 171935Z AUTO 36006KT 10SM CLR 29/11 A3008 RMK A01,M
10U,2023-08-17 19:35,-116.1876,41.9532,1637.00,82.40,46.40,28.36,M,3.00,0.00,30.14,M,10.00,M,CLR,M,M,M,M,M,M,M,M,M,M,M,M,M,M,80.64,K10U 171935Z AUTO VRB03KT 10SM CLR 28/08 A3014 RMK AO2,M
BAM,2023-08-17 19:35,-116.8743,40.5990,1382.36,91.40,51.80,26.05,200.00,8.00,0.00,30.06,M,10.00,14.00,SCT,M,M,M,11000.00,M,M,M,M,M,M,M,M,M,M,88.69,KBAM 171935Z AUTO 20008G14KT 140V210 10SM SCT110 33/11 A3006 RMK AO1,M
TMT,2023-08-17 19:35,-117.1971,39.4643,1749.34,80.20,51.60,37.00,0.00,0.00,0.00,30.18,M,M,M,CLR,M,M,M,M,M,M,M,M,M,M,M,M,M,M,79.82,KTMT 171935Z AUTO 00000KT CLR 27/11 A3018 RMK AO2 T02680109 PWINO,M
INS,2023-08-17 19:37,-115.6733,36.5872,955.00,96.80,44.60,16.83,0.00,0.00,0.00,29.95,1008.60,9.00,M,FEW,M,M,M,12000.00,M,M,M,M,M,M,M,M,M,M,92.79,KINS 171937Z AUTO 00000KT 9SM FEW120 36/07 A2995 RMK AO2 RAB30E37 SLP086 $,M
ELY,2023-08-17 19:48,-114.8453,39.2950,1909.00,84.20,46.40,26.76,210.00,7.00,0.00,30.18,M,10.00,M,BKN,BKN,M,M,9000.00,11000.00,M,M,M,M,M,M,M,M,M,81.87,KELY 171948Z AUTO 21007KT 10SM BKN090 BKN110 29/08 A3018 RMK AO2 LTG DSNT NE AND E,M
05U,2023-08-17 19:50,-116.0051,39.6042,1811.23,86.00,48.20,27.03,M,M,0.00,30.17,M,10.00,M,M,M,M,M,M,M,M,M,M,M,M,M,M,M,M,83.40,K05U 171950Z AUTO 10SM 30/09 A3017 RMK A01,M
EKO,2023-08-17 19:52,-115.7860,40.8242,1367.00,87.80,55.40,33.29,240.00,10.00,0.00,30.07,M,10.00,M,FEW,M,M,M,11000.00,M,M,M,TS,M,M,M,M,M,M,86.11,KEKO 171952Z AUTO 24010KT 10SM TS FEW110 31/13 A3007 RMK AO2 LTG DSNT E AND SE TSB46,M
P68,2023-08-17 19:53,-116.0056,39.6014,1993.00,84.00,48.00,28.60,270.00,9.00,0.00,30.14,1011.40,M,15.00,M,M,M,M,M,M,M,M,M,M,M,M,M,M,M,81.87,KP68 171953Z AUTO 27009G15KT 29/09 A3014 RMK AO1 SLP114 T02890089,M
DRA,2023-08-17 19:53,-116.0278,36.6206,1009.00,101.00,45.00,15.04,220.00,20.00,0.00,29.96,1008.50,10.00,26.00,CLR,M,M,M,M,M,M,M,M,M,M,M,28.00,230.00,2023-08-17 19:27,96.97,KDRA 171953Z AUTO 22020G26KT 10SM CLR 38/07 A2996 RMK AO2 PK WND 23028/1927 SLP085 T03830072,M
ELY,2023-08-17 19:53,-114.8453,39.2950,1909.00,85.00,48.00,27.70,180.00,7.00,0.00,30.18,1011.10,10.00,M,BKN,M,M,M,9000.00,M,M,M,M,M,M,M,M,M,M,82.61,KELY 171953Z AUTO 18007KT 10SM BKN090 29/09 A3018 RMK AO2 LTG DSNT NW-E SLP111 T02940089,M
VGT,2023-08-17 19:53,-115.1933,36.2111,667.00,102.00,51.00,18.28,160.00,6.00,0.00,29.87,1009.90,10.00,M,CLR,M,M,M,M,M,M,M,M,M,M,M,M,M,M,99.35,KVGT 171953Z AUTO 16006KT 10SM CLR 39/11 A2987 RMK AO2 LTG DSNT SE SLP099 T03890106 $,M
LOL,2023-08-17 19:53,-118.5701,40.0684,1192.43,81.00,51.00,35.25,210.00,17.00,T,30.05,1013.30,10.00,22.00,BKN,M,M,M,11000.00,M,M,M,VCTS -RA,M,M,M,M,M,M,80.22,KLOL 171953Z AUTO 21017G22KT 10SM VCTS -RA BKN110 27/11 A3005 RMK AO2 RAB48 SLP133 P0000 T02720106,M
BVU,2023-08-17 19:55,-114.8611,35.9475,671.00,100.40,53.60,21.11,260.00,18.00,0.00,29.90,M,10.00,26.00,BKN,M,M,M,11000.00,M,M,M,VCTS,M,M,M,M,M,M,98.44,KBVU 171955Z AUTO 26018G26KT 10SM VCTS BKN110 38/12 A2990 RMK AO2 LTG DSNT S AND SW,M
CXP,2023-08-17 19:55,-119.7326,39.1923,1431.00,84.20,50.00,30.62,0.00,0.00,0.00,30.10,M,10.00,M,CLR,M,M,M,M,M,M,M,M,M,M,M,M,M,M,82.24,KCXP 171955Z AUTO 00000KT 10SM CLR 29/10 A3010 RMK AO2,M
INS,2023-08-17 19:55,-115.6733,36.5872,955.00,96.80,43.00,15.83,0.00,0.00,T,29.95,1008.60,10.00,M,CLR,M,M,M,M,M,M,M,M,M,M,M,M,M,M,92.60,KINS 171955Z AUTO 00000KT 10SM CLR 36/06 A2995 RMK AO2 RAB30E37 SLP086 P0000 T03600062 $,M
RNO,2023-08-17 19:55,-119.7711,39.4839,1341.00,85.00,53.00,33.34,M,3.00,0.00,30.06,1011.40,10.00,M,SCT,SCT,M,M,10000.00,21000.00,M,M,M,M,M,M,M,M,M,83.27,KRNO 171955Z VRB03KT 10SM SCT100 SCT210 29/12 A3006 RMK AO2 SLP114 T02940117,M
RTS,2023-08-17 19:55,-119.8764,39.6682,1539.00,82.40,48.20,30.35,180.00,9.00,0.00,30.12,M,10.00,14.00,CLR,M,M,M,M,M,M,M,M,M,M,M,M,M,M,80.80,KRTS 171955Z AUTO 18009G14KT 10SM CLR 28/09 A3012 RMK AO2,M
MEV,2023-08-17 19:55,-119.7500,38.9963,1441.42,84.20,48.20,28.63,170.00,5.00,0.00,30.08,M,9.00,M,CLR,M,M,M,M,M,M,M,M,M,M,M,M,M,M,82.04,KMEV 171955Z AUTO 17005KT 9SM CLR 29/09 A3008 RMK AO2,M
HTH,2023-08-17 19:55,-118.6315,38.5448,1282.89,84.20,50.00,30.62,M,4.00,0.00,30.07,M,10.00,M,CLR,M,M,M,M,M,M,M,M,M,M,M,M,M,M,82.24,KHTH 171955Z AUTO VRB04KT 10SM CLR 29/10 A3007 RMK A01,M
10U,2023-08-17 19:55,-116.1876,41.9532,1637.00,84.20,44.60,24.99,0.00,0.00,0.00,30.13,M,10.00,M,CLR,M,M,M,M,M,M,M,M,M,M,M,M,M,M,81.73,K10U 171955Z AUTO 00000KT 10SM CLR 29/07 A3013 RMK AO2,M
BAM,2023-08-17 19:55,-116.8743,40.5990,1382.36,91.40,51.80,26.05,240.00,8.00,0.00,30.05,M,10.00,M,SCT,M,M,M,11000.00,M,M,M,M,M,M,M,M,M,M,88.69,KBAM 171955Z AUTO 24008KT 190V270 10SM SCT110 33/11 A3005 RMK AO1,M
TMT,2023-08-17 19:55,-117.1971,39.4643,1749.34,81.70,52.70,36.69,120.00,4.00,0.00,30.17,M,M,M,SCT,M,M,M,10000.00,M,M,M,M,M,M,M,M,M,M,80.86,KTMT 171955Z AUTO 12004KT SCT100 28/12 A3017 RMK AO2 T02760115 PWINO,M
LSV,2023-08-17 19:55,-115.0343,36.2362,570.00,105.60,50.00,15.83,0.00,0.00,0.00,29.82,1006.80,10.00,M,CLR,M,M,M,M,M,M,M,M,M,M,M,M,M,M,102.78,KLSV 171955Z AUTO 00000KT 10SM CLR 41/10 A2982 RMK AO2 SLP068 T04090101 $,M
EKO,2023-08-17 19:56,-115.7860,40.8242,1367.00,86.00,55.00,34.74,230.00,11.00,0.00,30.07,1011.70,10.00,M,FEW,M,M,M,9500.00,M,M,M,TS,M,M,M,M,M,M,84.46,KEKO 171956Z AUTO 23011KT 10SM TS FEW095 30/13 A3007 RMK AO2 LTG DSNT E AND SE TSB46 SLP117 T03000128,M
WMC,2023-08-17 19:56,-117.8072,40.9019,1315.00,89.00,52.00,28.30,M,4.00,0.00,30.05,1011.50,10.00,M,CLR,M,M,M,M,M,M,M,M,M,M,M,M,M,M,86.49,KWMC 171956Z AUTO VRB04KT 10SM CLR 32/11 A3005 RMK AO2 SLP115 T03170111,M
NFL,2023-08-17 19:56,-118.7010,39.4166,1199.00,87.00,49.00,26.97,170.00,6.00,0.00,30.04,1014.20,10.00,M,SCT,SCT,SCT,M,7000.00,12000.00,17000.00,M,M,M,M,M,M,M,M,84.30,KNFL 171956Z 17006KT 10SM SCT070 SCT120 SCT170 31/09 A3004 RMK AO2 SLP142 CB DSNT ALQDS T03060094,M
HND,2023-08-17 19:56,-115.1344,35.9729,742.79,M,M,M,M,M,0.00,M,M,M,M,M,M,M,M,M,M,M,M,M,M,M,M,M,M,M,M,KHND 171956Z RMK AO2 LTG DSNT E AND SE SLPNO $,M
TPH,2023-08-17 19:56,-117.0904,38.0505,1654.00,85.00,47.00,26.67,M,5.00,0.00,30.14,1011.90,10.00,M,CLR,M,M,M,M,M,M,M,M,M,M,M,M,M,M,82.51,KTPH 171956Z AUTO VRB05KT 10SM CLR 29/08 A3014 RMK AO2 SLP119 T02940083,M
LAS,2023-08-17 19:56,-115.1634,36.0719,663.00,103.00,50.00,17.10,150.00,7.00,0.00,29.87,1008.20,10.00,M,SCT,SCT,M,M,12000.00,20000.00,M,M,M,M,M,M,M,M,M,100.11,KLAS 171956Z 15007KT 10SM SCT120 SCT200 39/10 A2987 RMK AO2 LTG DSNT E AND SE SLP082 VIRGA DSNT SE CB DSNT SE T03940100,M
LOL,2023-08-17 20:02,-118.5701,40.0684,1192.43,79.00,55.00,43.59,250.00,11.00,T,30.04,M,10.00,M,FEW,SCT,BKN,M,3700.00,7000.00,9500.00,M,-RA,M,M,M,M,M,M,79.00,KLOL 172002Z AUTO 25011KT 10SM -RA FEW037 SCT070 BKN095 26/13 A3004 RMK AO2 P0000 T02610128,M
HND,2023-08-17 20:04,-115.1344,35.9729,742.79,M,M,M,M,M,0.00,M,M,M,M,M,M,M,M,M,M,M,M,VCTS,M,M,M,M,M,M,M,KHND 172004Z VCTS RMK AO2 LTG DSNT E AND SE TSB1958 $,M
LOL,2023-08-17 20:06,-118.5701,40.0684,1192.43,81.00,56.00,42.34,280.00,10.00,T,30.03,M,10.00,M,FEW,SCT,BKN,M,3700.00,6500.00,11000.00,M,-TSRA,M,M,M,M,M,M,80.88,KLOL 172006Z AUTO 28010KT 10SM -TSRA FEW037 SCT065 BKN110 27/13 A3003 RMK AO2 WSHFT 1952 TSB03 PRESFR P0000 T02720133,M
EKO,2023-08-17 20:07,-115.7860,40.8242,1367.00,79.00,62.00,56.03,290.00,6.00,T,30.08,M,5.00,22.00,FEW,SCT,BKN,M,5000.00,7000.00,9500.00,M,RA,M,M,M,M,M,M,79.00,KEKO 172007Z AUTO 29006G22KT 5SM RA FEW050 SCT070 BKN095 26/17 A3008 RMK AO2 LTG DSNT E RAB03 TSE01 P0000 T02610167,M
BVU,2023-08-17 20:15,-114.8611,35.9475,671.00,91.40,55.40,29.72,350.00,7.00,0.00,29.88,M,9.00,21.00,BKN,M,M,M,11000.00,M,M,M,M,M,M,M,M,M,M,89.53,KBVU 172015Z AUTO 35007G21KT 9SM BKN110 33/13 A2988 RMK AO2 LTG DSNT N AND NE,M
CXP,2023-08-17 20:15,-119.7326,39.1923,1431.00,84.20,48.20,28.63,M,4.00,0.00,30.09,M,10.00,M,CLR,M,M,M,M,M,M,M,M,M,M,M,M,M,M,82.04,KCXP 172015Z AUTO VRB04KT 10SM CLR 29/09 A3009 RMK AO2,M
RTS,2023-08-17 20:15,-119.8764,39.6682,1539.00,84.20,48.20,28.63,80.00,5.00,0.00,30.11,M,9.00,12.00,CLR,M,M,M,M,M,M,M,M,M,M,M,M,M,M,82.04,KRTS 172015Z AUTO 08005G12KT 9SM CLR 29/09 A3011 RMK AO2,M
05U,2023-08-17 20:15,-116.0051,39.6042,1811.23,82.40,50.00,32.46,M,M,0.00,30.17,M,10.00,M,M,M,M,M,M,M,M,M,M,M,M,M,M,M,M,80.99,K05U 172015Z AUTO 10SM 28/10 A3017 RMK A01,M
MEV,2023-08-17 20:15,-119.7500,38.9963,1441.42,86.00,48.20,27.03,210.00,4.00,0.00,30.08,M,10.00,M,CLR,M,M,M,M,M,M,M,M,M,M,M,M,M,M,83.40,KMEV 172015Z AUTO 21004KT 10SM CLR 30/09 A3008 RMK AO2,M
HTH,2023-08-17 20:15,-118.6315,38.5448,1282.89,84.20,51.80,32.73,300.00,7.00,0.00,30.06,M,10.00,M,CLR,M,M,M,M,M,M,M,M,M,M,M,M,M,M,82.48,KHTH 172015Z AUTO 30007KT 10SM CLR 29/11 A3006 RMK A01,M
10U,2023-08-17 20:15,-116.1876,41.9532,1637.00,84.20,44.60,24.99,0.00,0.00,0.00,30.12,M,10.00,M,CLR,M,M,M,M,M,M,M,M,M,M,M,M,M,M,81.73,K10U 172015Z AUTO 00000KT 10SM CLR 29/07 A3012 RMK AO2,M
BAM,2023-08-17 20:15,-116.8743,40.5990,1382.36,89.60,51.80,27.56,240.00,10.00,0.00,30.05,M,10.00,15.00,SCT,SCT,SCT,M,5000.00,10000.00,12000.00,M,M,M,M,M,M,M,M,87.00,KBAM 172015Z AUTO 24010G15KT 10SM SCT050 SCT100 SCT120 32/11 A3005 RMK AO1,M
TMT,2023-08-17 20:15,-117.1971,39.4643,1749.34,78.00,45.50,31.65,240.00,34.00,0.00,30.18,M,M,41.00,SCT,BKN,BKN,M,7000.00,9000.00,10000.00,M,TS,M,M,M,M,M,M,78.00,KTMT 172015Z AUTO 24034G41KT TS SCT070 BKN090 BKN100 26/08 A3018 RMK AO2 LTG DSNT S THRU NW T02560075,M
LOL,2023-08-17 20:26,-118.5701,40.0684,1192.43,85.00,51.00,30.97,290.00,6.00,T,30.02,M,10.00,M,FEW,M,M,M,5000.00,M,M,M,M,M,M,M,M,M,M,82.97,KLOL 172026Z AUTO 29006KT 10SM FEW050 29/11 A3002 RMK AO2 WSHFT 1952 RAE12 TSB03E20 P0000 T02940106,M
HND,2023-08-17 20:29,-115.1344,35.9729,742.79,M,M,M,M,M,0.00,M,M,M,M,M,M,M,M,M,M,M,M,M,M,M,M,M,M,M,M,KHND 172029Z RMK AO2 LTG DSNT NE TSB1958E23 $,M
BVU,2023-08-17 20:35,-114.8611,35.9475,671.00,100.40,48.20,17.28,280.00,4.00,0.00,29.87,M,10.00,M,FEW,M,M,M,12000.00,M,M,M,M,M,M,M,M,M,M,97.00,KBVU 172035Z AUTO 28004KT 10SM FEW120 38/09 A2987 RMK AO2,M
CXP,2023-08-17 20:35,-119.7326,39.1923,1431.00,87.80,48.20,25.52,M,4.00,0.00,30.08,M,10.00,10.00,CLR,M,M,M,M,M,M,M,M,M,M,M,M,M,M,84.87,KCXP 172035Z AUTO VRB04G10KT 10SM CLR 31/09 A3008 RMK AO2,M
RTS,2023-08-17 20:35,-119.8764,39.6682,1539.00,84.20,46.40,26.76,80.00,6.00,0.00,30.10,M,10.00,M,CLR,M,M,M,M,M,M,M,M,M,M,M,M,M,M,81.87,KRTS 172035Z AUTO 08006KT 10SM CLR 29/08 A3010 RMK AO2,M
05U,2023-08-17 20:35,-116.0051,39.6042,1811.23,86.00,50.00,28.90,M,M,0.00,30.16,M,10.00,M,M,M,M,M,M,M,M,M,M,M,M,M,M,M,M,83.62,K05U 172035Z AUTO 10SM 30/10 A3016 RMK A01,M
MEV,2023-08-17 20:35,-119.7500,38.9963,1441.42,86.00,48.20,27.03,M,4.00,0.00,30.07,M,8.00,M,CLR,M,M,M,M,M,M,M,M,M,M,M,M,M,M,83.40,KMEV 172035Z AUTO VRB04KT 8SM CLR 30/09 A3007 RMK AO2,M
HTH,2023-08-17 20:35,-118.6315,38.5448,1282.89,84.20,51.80,32.73,M,3.00,0.00,30.05,M,10.00,M,CLR,M,M,M,M,M,M,M,M,M,M,M,M,M,M,82.48,KHTH 172035Z AUTO VRB03KT 10SM CLR 29/11 A3005 RMK A01,M
10U,2023-08-17 20:35,-116.1876,41.9532,1637.00,86.00,46.40,25.26,M,6.00,0.00,30.10,M,10.00,M,CLR,M,M,M,M,M,M,M,M,M,M,M,M,M,M,83.22,K10U 172035Z AUTO VRB06KT 10SM CLR 30/08 A3010 RMK AO2,M
BAM,2023-08-17 20:35,-116.8743,40.5990,1382.36,91.40,51.80,26.05,200.00,9.00,0.00,30.04,M,10.00,17.00,SCT,SCT,SCT,M,5000.00,8000.00,12000.00,M,M,M,M,M,M,M,M,88.69,KBAM 172035Z AUTO 20009G17KT 10SM SCT050 SCT080 SCT120 33/11 A3004 RMK AO1,M
TMT,2023-08-17 20:35,-117.1971,39.4643,1749.34,72.00,51.30,48.07,280.00,4.00,0.00,30.18,M,M,M,SCT,BKN,BKN,M,7000.00,9000.00,12000.00,M,M,M,M,M,M,M,M,72.00,KTMT 172035Z AUTO 28004KT SCT070 BKN090 BKN120 22/11 A3018 RMK AO2 LTG DSNT ALQS T02220107 PWINO,M
EKO,2023-08-17 20:39,-115.7860,40.8242,1367.00,86.00,57.00,37.35,20.00,7.00,0.04,30.06,M,10.00,M,FEW,M,M,M,5000.00,M,M,M,VCTS,M,M,M,M,M,M,84.92,KEKO 172039Z AUTO 02007KT 10SM VCTS FEW050 30/14 A3006 RMK AO2 LTG DSNT N-E RAB03E25 TSE01 P0004 T03000139,M
LSV,2023-08-17 20:45,-115.0343,36.2362,570.00,100.40,51.80,19.76,100.00,20.00,0.00,29.81,1006.50,10.00,25.00,SCT,BKN,M,M,12000.00,20000.00,M,M,M,M,M,M,M,M,M,97.90,KLSV 172045Z 10020G25KT 10SM SCT120CB BKN200 38/11 A2981 RMK SLP065 $,M
P68,2023-08-17 20:53,-116.0056,39.6014,1993.00,84.00,48.00,28.60,280.00,7.00,0.00,30.13,1011.10,M,M,M,M,M,M,M,M,M,M,M,M,M,M,M,M,M,81.87,KP68 172053Z AUTO 28007KT 250V320 29/09 A3013 RMK AO1 SLP111 T02890089 56016,M
DRA,2023-08-17 20:53,-116.0278,36.6206,1009.00,101.00,43.00,13.94,220.00,20.00,0.00,29.95,1008.00,10.00,28.00,CLR,M,M,M,M,M,M,M,M,M,M,M,28.00,220.00,2023-08-17 20:52,96.64,KDRA 172053Z AUTO 22020G28KT 10SM CLR 38/06 A2995 RMK AO2 PK WND 22028/2052 SLP080 T03830061 57019,M
ELY,2023-08-17 20:53,-114.8453,39.2950,1909.00,87.00,44.00,22.33,240.00,15.00,0.00,30.16,1010.20,10.00,20.00,FEW,M,M,M,11000.00,M,M,M,M,M,M,M,M,M,M,83.82,KELY 172053Z AUTO 24015G20KT 10SM FEW110 31/07 A3016 RMK AO2 SLP102 T03060067 57012,M
VGT,2023-08-17 20:53,-115.1933,36.2111,667.00,101.00,53.00,20.28,120.00,18.00,0.00,29.86,1009.40,10.00,24.00,BKN,M,M,M,12000.00,M,M,M,M,M,M,M,M,M,M,98.89,KVGT 172053Z 12018G24KT 10SM BKN120 38/12 A2986 RMK AO2 SLP094 T03830117,M
LOL,2023-08-17 20:53,-118.5701,40.0684,1192.43,89.00,48.00,24.39,210.00,9.00,T,30.01,1011.50,10.00,M,CLR,M,M,M,M,M,M,M,M,M,M,M,M,M,M,85.89,KLOL 172053Z AUTO 21009KT 10SM CLR 32/09 A3001 RMK AO2 WSHFT 1952 RAE12 TSB03E20 SLP115 P0000 60000 T03170089 58017,M
EKO,2023-08-17 20:54,-115.7860,40.8242,1367.00,86.00,55.40,35.25,0.00,0.00,M,30.06,M,10.00,M,FEW,M,M,M,12001.00,M,M,M,M,M,M,M,M,M,M,84.54,SPECI KEKO 172054Z 00000KT 10SM FEW120 30/13 A3006 RMK AO2 LTG DSNT N AND NE AND SW RAB03E25 TSE01 P0004 FIBI,M
BVU,2023-08-17 20:55,-114.8611,35.9475,671.00,104.00,48.20,15.52,M,4.00,0.00,29.86,M,10.00,M,CLR,M,M,M,M,M,M,M,M,M,M,M,M,M,M,100.65,KBVU 172055Z AUTO VRB04KT 10SM CLR 40/09 A2986 RMK AO2,M
CXP,2023-08-17 20:55,-119.7326,39.1923,1431.00,86.00,46.40,25.26,M,3.00,0.00,30.07,M,10.00,M,CLR,M,M,M,M,M,M,M,M,M,M,M,M,M,M,83.22,KCXP 172055Z AUTO VRB03KT 10SM CLR 30/08 A3007 RMK AO2,M
INS,2023-08-17 20:55,-115.6733,36.5872,955.00,97.30,42.00,15.00,220.00,4.00,0.00,29.92,1007.70,10.00,M,FEW,SCT,M,M,11000.00,15000.00,M,M,M,M,M,M,M,M,M,92.96,KINS 172055Z AUTO 22004KT 10SM FEW110 SCT150 36/06 A2992 RMK AO2 SLP077 60000 T03630055 57021 $,M
RNO,2023-08-17 20:55,-119.7711,39.4839,1341.00,88.00,48.00,25.17,0.00,0.00,0.00,30.03,1010.40,10.00,M,SCT,SCT,M,M,10000.00,21000.00,M,M,M,M,M,M,M,M,M,85.02,KRNO 172055Z 00000KT 10SM SCT100 SCT210 31/09 A3003 RMK AO2 LTG DSNT NW SLP104 CB DSNT SE AND NW TCU DSNT S T03110089 58020,M
RTS,2023-08-17 20:55,-119.8764,39.6682,1539.00,84.20,44.60,24.99,90.00,8.00,0.00,30.09,M,10.00,M,CLR,M,M,M,M,M,M,M,M,M,M,M,M,M,M,81.73,KRTS 172055Z AUTO 09008KT 10SM CLR 29/07 A3009 RMK AO2,M
05U,2023-08-17 20:55,-116.0051,39.6042,1811.23,84.20,48.20,28.63,M,M,0.00,30.16,M,10.00,M,M,M,M,M,M,M,M,M,M,M,M,M,M,M,M,82.04,K05U 172055Z AUTO 10SM 29/09 A3016 RMK A01,M
MEV,2023-08-17 20:55,-119.7500,38.9963,1441.42,87.80,48.20,25.52,M,5.00,0.00,30.06,M,10.00,M,CLR,M,M,M,M,M,M,M,M,M,M,M,M,M,M,84.87,KMEV 172055Z AUTO VRB05KT 10SM CLR 31/09 A3006 RMK AO2,M
HTH,2023-08-17 20:55,-118.6315,38.5448,1282.89,87.80,51.80,29.18,350.00,7.00,0.00,30.03,M,10.00,M,CLR,M,M,M,M,M,M,M,M,M,M,M,M,M,M,85.39,KHTH 172055Z AUTO 35007KT 310V020 10SM CLR 31/11 A3003 RMK A01,M
BAM,2023-08-17 20:55,-116.8743,40.5990,1382.36,91.40,53.60,27.83,240.00,11.00,0.00,30.04,M,10.00,18.00,CLR,M,M,M,M,M,M,M,M,M,M,M,M,M,M,89.08,KBAM 172055Z AUTO 24011G18KT 10SM CLR 33/12 A3004 RMK AO1,M
TMT,2023-08-17 20:55,-117.1971,39.4643,1749.34,77.40,51.40,40.27,350.00,9.00,0.00,30.18,M,M,M,SCT,M,M,M,12000.00,M,M,M,M,M,M,M,M,M,M,77.40,KTMT 172055Z AUTO 35009KT SCT120 25/11 A3018 RMK AO2 LTG DSNT NW THRU NE T02520108 PWINO,M
10U,2023-08-17 20:55,-116.1876,41.9532,1637.00,86.00,46.40,25.26,0.00,0.00,0.00,30.10,M,10.00,M,CLR,M,M,M,M,M,M,M,M,M,M,M,M,M,M,83.22,K10U 172055Z AUTO 00000KT 10SM CLR 30/08 A3010 RMK AO2,M
LSV,2023-08-17 20:55,-115.0343,36.2362,570.00,100.00,53.00,20.90,80.00,15.00,0.00,29.81,1006.50,10.00,M,FEW,M,M,M,20000.00,M,M,M,M,M,M,M,M,M,M,97.82,KLSV 172055Z AUTO 08015KT 10SM FEW200 38/12 A2981 RMK AO2 SLP065 T03770116 57022 $,M
EKO,2023-08-17 20:56,-115.7860,40.8242,1367.00,87.00,56.00,34.90,0.00,0.00,0.04,30.05,1011.20,10.00,M,FEW,M,M,M,12000.00,M,M,M,M,M,M,M,M,M,M,85.54,KEKO 172056Z AUTO 00000KT 10SM FEW120 31/13 A3005 RMK AO2 LTG DSNT N AND NE AND SW RAB03E25 TSE01 SLP112 P0004 60004 T03060133 56013,M
WMC,2023-08-17 20:56,-117.8072,40.9019,1315.00,89.00,52.00,28.30,220.00,7.00,0.00,30.02,1010.90,10.00,M,FEW,M,M,M,9000.00,M,M,M,M,M,M,M,M,M,M,86.49,KWMC 172056Z AUTO 22007KT 10SM FEW090 32/11 A3002 RMK AO2 SLP109 T03170111 58018,M
HND,2023-08-17 20:56,-115.1344,35.9729,742.79,M,M,M,M,M,0.00,M,M,M,M,M,M,M,M,M,M,M,M,M,M,M,M,M,M,M,M,KHND 172056Z RMK AO2 TSB1958E23 SLPNO 6//// $,M
TPH,2023-08-17 20:56,-117.0904,38.0505,1654.00,89.00,46.00,22.61,210.00,13.00,0.00,30.11,1010.50,10.00,24.00,SCT,BKN,M,M,9500.00,11000.00,M,M,M,M,M,M,M,M,M,85.67,KTPH 172056Z AUTO 21013G24KT 170V270 10SM SCT095 BKN110 32/08 A3011 RMK AO2 SLP105 T03170078 58019,M
LAS,2023-08-17 20:56,-115.1634,36.0719,663.00,102.00,53.00,19.68,80.00,20.00,0.00,29.86,1007.80,10.00,28.00,SCT,SCT,M,M,12000.00,20000.00,M,M,M,M,M,M,28.00,70.00,2023-08-17 20:56,99.96,KLAS 172056Z 08020G28KT 10SM SCT120 SCT200 39/12 A2986 RMK AO2 PK WND 07028/2056 SLP078 VIRGA DSNT NE CB DSNT NE T03890117 56022,M
NFL,2023-08-17 20:56,-118.7010,39.4166,1199.00,91.00,49.00,23.77,210.00,9.00,0.00,30.01,1013.30,10.00,16.00,SCT,SCT,SCT,M,7000.00,12000.00,17000.00,M,M,M,M,M,M,M,M,87.83,KNFL 172056Z 21009G16KT 10SM SCT070 SCT120 SCT170 33/09 A3001 RMK AO2 SLP133 CB DSNT ALQDS T03280094 58022,M
DRA,2023-08-17 21:05,-116.0278,36.6206,1009.00,101.00,44.00,14.48,210.00,7.00,0.00,29.95,M,10.00,22.00,CLR,M,M,M,M,M,M,M,M,M,M,M,M,M,M,96.80,KDRA 172105Z AUTO 21007G22KT 10SM CLR 38/07 A2995 RMK AO2 WSHFT 2048 T03830067,M
05U,2023-08-17 21:10,-116.0051,39.6042,1811.23,84.20,48.20,28.63,M,M,0.00,30.16,M,10.00,M,M,M,M,M,M,M,M,M,M,M,M,M,M,M,M,82.04,K05U 172110Z AUTO 10SM 29/09 A3016 RMK A01,M
BVU,2023-08-17 21:15,-114.8611,35.9475,671.00,104.00,48.20,15.52,270.00,7.00,0.00,29.85,M,10.00,M,CLR,M,M,M,M,M,M,M,M,M,M,M,M,M,M,100.65,KBVU 172115Z AUTO 27007KT 10SM CLR 40/09 A2985 RMK AO2 LTG DSNT NE,M
CXP,2023-08-17 21:15,-119.7326,39.1923,1431.00,89.60,48.20,24.11,300.00,6.00,0.00,30.06,M,10.00,12.00,CLR,M,M,M,M,M,M,M,M,M,M,M,M,M,M,86.44,KCXP 172115Z AUTO 30006G12KT 10SM CLR 32/09 A3006 RMK AO2,M
RTS,2023-08-17 21:15,-119.8764,39.6682,1539.00,82.40,46.40,28.36,180.00,6.00,0.00,30.09,M,10.00,16.00,FEW,M,M,M,11000.00,M,M,M,M,M,M,M,M,M,M,80.64,KRTS 172115Z AUTO 18006G16KT 10SM FEW110 28/08 A3009 RMK AO2,M
MEV,2023-08-17 21:15,-119.7500,38.9963,1441.42,87.80,46.40,23.85,230.00,7.00,0.00,30.05,M,8.00,M,CLR,M,M,M,M,M,M,M,M,M,M,M,M,M,M,84.68,KMEV 172115Z AUTO 23007KT 8SM CLR 31/08 A3005 RMK AO2,M
BAM,2023-08-17 21:15,-116.8743,40.5990,1382.36,93.20,51.80,24.63,250.00,8.00,0.00,30.03,M,10.00,18.00,CLR,M,M,M,M,M,M,M,M,M,M,M,M,M,M,90.45,KBAM 172115Z AUTO 25008G18KT 190V280 10SM CLR 34/11 A3003 RMK AO1,M
HTH,2023-08-17 21:15,-118.6315,38.5448,1282.89,87.80,51.80,29.18,M,5.00,0.00,30.02,M,10.00,M,CLR,M,M,M,M,M,M,M,M,M,M,M,M,M,M,85.39,KHTH 172115Z AUTO VRB05KT 10SM CLR 31/11 A3002 RMK A01,M
10U,2023-08-17 21:15,-116.1876,41.9532,1637.00,87.80,44.60,22.27,M,5.00,0.00,30.09,M,10.00,M,CLR,M,M,M,M,M,M,M,M,M,M,M,M,M,M,84.53,K10U 172115Z AUTO VRB05KT 10SM CLR 31/07 A3009 RMK AO2,M
TMT,2023-08-17 21:15,-117.1971,39.4643,1749.34,79.00,53.00,40.52,50.00,3.00,0.00,30.16,M,M,M,CLR,M,M,M,M,M,M,M,M,M,M,M,M,M,M,79.00,KTMT 172115Z AUTO 05003KT CLR 26/12 A3016 RMK AO2 LTG DSNT N SE AND S T02620116 PWINO,M
EKO,2023-08-17 21:23,-115.7860,40.8242,1367.00,90.00,55.00,30.61,230.00,5.00,0.00,30.04,M,10.00,M,CLR,M,M,M,M,M,M,M,VCTS,M,M,M,M,M,M,88.06,KEKO 172123Z AUTO 23005KT 10SM VCTS CLR 32/13 A3004 RMK AO2 LTG DSNT W-NE T03220128,M
BVU,2023-08-17 21:35,-114.8611,35.9475,671.00,104.00,48.20,15.52,270.00,7.00,0.00,29.84,M,10.00,M,FEW,M,M,M,12000.00,M,M,M,M,M,M,M,M,M,M,100.65,KBVU 172135Z AUTO 27007KT 10SM FEW120 40/09 A2984 RMK AO2,M
CXP,2023-08-17 21:35,-119.7326,39.1923,1431.00,87.80,46.40,23.85,M,4.00,0.00,30.06,M,10.00,M,CLR,M,M,M,M,M,M,M,M,M,M,M,M,M,M,84.68,KCXP 172135Z AUTO VRB04KT 10SM CLR 31/08 A3006 RMK AO2,M
RTS,2023-08-17 21:35,-119.8764,39.6682,1539.00,84.20,44.60,24.99,190.00,11.00,0.00,30.08,M,10.00,19.00,SCT,SCT,M,M,8000.00,11000.00,M,M,M,M,M,M,M,M,M,81.73,KRTS 172135Z AUTO 19011G19KT 150V220 10SM SCT080 SCT110 29/07 A3008 RMK AO2,M
05U,2023-08-17 21:35,-116.0051,39.6042,1811.23,84.20,50.00,30.62,M,M,0.00,30.15,M,10.00,M,M,M,M,M,M,M,M,M,M,M,M,M,M,M,M,82.24,K05U 172135Z AUTO 10SM 29/10 A3015 RMK A01,M
MEV,2023-08-17 21:35,-119.7500,38.9963,1441.42,87.80,46.40,23.85,M,5.00,0.00,30.04,M,10.00,16.00,CLR,M,M,M,M,M,M,M,M,M,M,M,M,M,M,84.68,KMEV 172135Z AUTO VRB05G16KT 10SM CLR 31/08 A3004 RMK AO2,M
HTH,2023-08-17 21:35,-118.6315,38.5448,1282.89,86.00,51.80,30.90,290.00,15.00,0.00,30.02,M,10.00,M,CLR,M,M,M,M,M,M,M,M,M,M,M,M,M,M,83.87,KHTH 172135Z AUTO 29015KT 10SM CLR 30/11 A3002 RMK A01,M
10U,2023-08-17 21:35,-116.1876,41.9532,1637.00,89.60,46.40,22.53,220.00,7.00,0.00,30.08,M,10.00,14.00,CLR,M,M,M,M,M,M,M,M,M,M,M,M,M,M,86.24,K10U 172135Z AUTO 22007G14KT 10SM CLR 32/08 A3008 RMK AO2,M
BAM,2023-08-17 21:35,-116.8743,40.5990,1382.36,93.20,51.80,24.63,230.00,12.00,0.00,30.03,M,10.00,16.00,CLR,M,M,M,M,M,M,M,M,M,M,M,M,M,M,90.45,KBAM 172135Z AUTO 23012G16KT 10SM CLR 34/11 A3003 RMK AO1,M
TMT,2023-08-17 21:35,-117.1971,39.4643,1749.34,77.70,52.70,41.83,40.00,3.00,0.00,30.15,M,M,M,SCT,M,M,M,11000.00,M,M,M,VCTS,M,M,M,M,M,M,77.70,KTMT 172135Z AUTO 04003KT VCTS SCT110 25/12 A3015 RMK AO2 LTG DSNT ALQS T02540115,M
EKO,2023-08-17 21:39,-115.7860,40.8242,1367.00,87.00,53.00,31.28,220.00,3.00,0.00,30.03,M,10.00,M,FEW,M,M,M,10000.00,M,M,M,TS,M,M,M,M,M,M,84.91,KEKO 172139Z AUTO 22003KT 10SM TS FEW100 31/12 A3003 RMK AO2 LTG DSNT N AND NE AND S TSB33 T03060117,M
HTH,2023-08-17 21:50,-118.6315,38.5448,1282.89,84.20,42.80,23.33,260.00,12.00,0.00,30.01,M,10.00,28.00,FEW,M,M,M,11000.00,M,M,M,M,M,M,M,M,M,M,81.61,KHTH 172150Z AUTO 26012G28KT 10SM FEW110 29/06 A3001 RMK A01,M
P68,2023-08-17 21:53,-116.0056,39.6014,1993.00,81.00,51.00,35.25,250.00,14.00,0.00,30.13,1011.50,M,21.00,M,M,M,M,M,M,M,M,M,M,M,M,M,M,M,80.22,KP68 172153Z AUTO 25014G21KT 27/11 A3013 RMK AO1 SLP115 T02720106,M
DRA,2023-08-17 21:53,-116.0278,36.6206,1009.00,100.00,40.00,12.79,M,4.00,0.00,29.92,1007.40,10.00,15.00,CLR,M,M,M,M,M,M,M,M,M,M,M,M,M,M,95.26,KDRA 172153Z AUTO VRB04G15KT 10SM CLR 38/04 A2992 RMK AO2 WSHFT 2048 SLP074 T03780044,M
ELY,2023-08-17 21:53,-114.8453,39.2950,1909.00,87.00,44.00,22.33,200.00,10.00,0.00,30.13,1009.20,10.00,M,SCT,M,M,M,10000.00,M,M,M,M,M,M,M,M,M,M,83.82,KELY 172153Z AUTO 20010KT 10SM SCT100 31/07 A3013 RMK AO2 SLP092 T03060067,M
VGT,2023-08-17 21:53,-115.1933,36.2111,667.00,104.00,51.00,17.22,120.00,9.00,0.00,29.82,1008.30,10.00,17.00,CLR,M,M,M,M,M,M,M,M,M,M,M,M,M,M,101.44,KVGT 172153Z 12009G17KT 10SM CLR 40/11 A2982 RMK AO2 SLP083 T04000106,M
LOL,2023-08-17 21:53,-118.5701,40.0684,1192.43,89.00,48.00,24.39,M,5.00,0.00,29.98,1010.50,10.00,M,CLR,M,M,M,M,M,M,M,M,M,M,M,M,M,M,85.89,KLOL 172153Z AUTO VRB05KT 10SM CLR 32/09 A2998 RMK AO2 SLP105 T03170089,M
BVU,2023-08-17 21:55,-114.8611,35.9475,671.00,104.00,46.40,14.50,250.00,7.00,0.00,29.82,M,10.00,M,CLR,M,M,M,M,M,M,M,M,M,M,M,M,M,M,100.21,KBVU 172155Z AUTO 25007KT 10SM CLR 40/08 A2982 RMK AO2,M
CXP,2023-08-17 21:55,-119.7326,39.1923,1431.00,87.80,42.80,20.79,M,5.00,0.00,30.04,M,10.00,12.00,FEW,FEW,M,M,9000.00,12000.00,M,M,M,M,M,M,M,M,M,84.40,KCXP 172155Z AUTO VRB05G12KT 10SM FEW090 FEW120 31/06 A3004 RMK AO2,M
INS,2023-08-17 21:55,-115.6733,36.5872,955.00,97.30,40.00,13.88,0.00,0.00,0.00,29.89,1006.80,10.00,M,SCT,M,M,M,15000.00,M,M,M,M,M,M,M,M,M,M,92.77,KINS 172155Z AUTO 00000KT 10SM SCT150 36/05 A2989 RMK AO2 SLP068 T03630045 $,M
RNO,2023-08-17 21:55,-119.7711,39.4839,1341.00,93.00,48.00,21.51,M,3.00,0.00,29.99,1008.90,10.00,M,SCT,SCT,M,M,9500.00,21000.00,M,M,M,M,M,M,M,M,M,89.58,KRNO 172155Z VRB03KT 10SM SCT095 SCT210 34/09 A2999 RMK AO2 LTG DSNT NW SLP089 CB DSNT SE AND NW T03390089,M
RTS,2023-08-17 21:55,-119.8764,39.6682,1539.00,84.20,44.60,24.99,220.00,8.00,0.00,30.07,M,10.00,M,FEW,FEW,M,M,8000.00,11000.00,M,M,M,M,M,M,M,M,M,81.73,KRTS 172155Z AUTO 22008KT 10SM FEW080 FEW110 29/07 A3007 RMK AO2,M
05U,2023-08-17 21:55,-116.0051,39.6042,1811.23,82.40,51.80,34.69,M,M,0.00,30.16,M,10.00,M,M,M,M,M,M,M,M,M,M,M,M,M,M,M,M,81.20,K05U 172155Z AUTO 10SM 28/11 A3016 RMK A01,M
MEV,2023-08-17 21:55,-119.7500,38.9963,1441.42,89.60,44.60,21.04,290.00,8.00,0.00,30.03,M,10.00,M,CLR,M,M,M,M,M,M,M,M,M,M,M,M,M,M,86.07,KMEV 172155Z AUTO 29008KT 240V320 10SM CLR 32/07 A3003 RMK AO2 LTG DSNT SE,M
BAM,2023-08-17 21:55,-116.8743,40.5990,1382.36,91.40,51.80,26.05,240.00,8.00,0.00,30.01,M,10.00,M,CLR,M,M,M,M,M,M,M,M,M,M,M,M,M,M,88.69,KBAM 172155Z AUTO 24008KT 10SM CLR 33/11 A3001 RMK AO1,M
TMT,2023-08-17 21:55,-117.1971,39.4643,1749.34,75.70,56.00,50.42,150.00,10.00,0.01,30.15,M,M,15.00,SCT,SCT,BKN,M,4900.00,7000.00,11000.00,M,VCTS,M,M,M,M,M,M,75.70,KTMT 172155Z AUTO 15010G15KT VCTS SCT049 SCT070 BKN110 24/13 A3015 RMK AO2 LTG DSNT E P0001 T02430133,M
10U,2023-08-17 21:55,-116.1876,41.9532,1637.00,87.80,46.40,23.85,300.00,7.00,0.00,30.06,M,10.00,M,CLR,M,M,M,M,M,M,M,M,M,M,M,M,M,M,84.68,K10U 172155Z AUTO 30007KT 250V330 10SM CLR 31/08 A3006 RMK AO2,M
LSV,2023-08-17 21:55,-115.0343,36.2362,570.00,104.50,47.50,14.89,110.00,9.00,0.00,29.78,1005.50,10.00,M,CLR,M,M,M,M,M,M,M,M,M,M,M,M,M,M,100.97,KLSV 172155Z AUTO 11009KT 10SM CLR 40/09 A2978 RMK AO2 SLP055 T04030086 $,M
EKO,2023-08-17 21:56,-115.7860,40.8242,1367.00,81.00,52.00,36.58,290.00,14.00,0.00,30.04,1011.20,10.00,34.00,FEW,M,M,M,10000.00,M,M,M,TS,M,M,M,34.00,240.00,2023-08-17 21:47,80.34,KEKO 172156Z AUTO 29014G34KT 10SM TS FEW100 27/11 A3004 RMK AO2 PK WND 24034/2147 LTG DSNT ALQDS TSB33 SLP112 T02720111,M
WMC,2023-08-17 21:56,-117.8072,40.9019,1315.00,93.00,51.00,24.06,260.00,11.00,0.00,29.99,1009.70,10.00,20.00,CLR,M,M,M,M,M,M,M,M,M,M,M,29.00,270.00,2023-08-17 21:00,90.09,KWMC 172156Z AUTO 26011G20KT 10SM CLR 34/11 A2999 RMK AO2 PK WND 27029/2100 SLP097 T03390106,M
NFL,2023-08-17 21:56,-118.7010,39.4166,1199.00,92.00,47.00,21.38,170.00,7.00,0.00,29.97,1012.10,10.00,M,FEW,FEW,SCT,SCT,7000.00,12000.00,18000.00,25000.00,M,M,M,M,M,M,M,88.49,KNFL 172156Z 17007KT 10SM FEW070 FEW120 SCT180 SCT250 33/08 A2997 RMK AO2 SLP121 CB DSNT ALQDS T03330083,M
HND,2023-08-17 21:56,-115.1344,35.9729,742.79,M,M,M,M,M,0.00,M,M,M,M,M,M,M,M,M,M,M,M,M,M,M,M,M,M,M,M,KHND 172156Z RMK AO2 SLPNO $,M
TPH,2023-08-17 21:56,-117.0904,38.0505,1654.00,91.00,48.00,22.90,190.00,17.00,0.00,30.08,1009.40,10.00,23.00,FEW,M,M,M,11000.00,M,M,M,M,M,M,M,26.00,160.00,2023-08-17 21:04,87.69,KTPH 172156Z AUTO 19017G23KT 10SM FEW110 33/09 A3008 RMK AO2 PK WND 16026/2104 LTG DSNT N SLP094 T03280089,M
LAS,2023-08-17 21:56,-115.1634,36.0719,663.00,103.00,50.00,17.10,90.00,14.00,0.00,29.83,1006.60,10.00,20.00,SCT,SCT,M,M,12000.00,20000.00,M,M,M,M,M,M,28.00,70.00,2023-08-17 20:57,100.11,KLAS 172156Z 09014G20KT 10SM SCT120 SCT200 39/10 A2983 RMK AO2 PK WND 07028/2057 SLP066 T03940100,M
EKO,2023-08-17 22:06,-115.7860,40.8242,1367.00,83.00,52.00,34.28,310.00,7.00,0.00,30.03,M,10.00,M,FEW,SCT,M,M,10000.00,12000.00,M,M,TS,M,M,M,M,M,M,81.64,KEKO 172206Z AUTO 31007KT 10SM TS FEW100 SCT120 28/11 A3003 RMK AO2 WSHFT 2146 LTG DSNT SE-W T02830111,M
BVU,2023-08-17 22:15,-114.8611,35.9475,671.00,105.80,48.20,14.71,M,6.00,0.00,29.81,M,10.00,15.00,CLR,M,M,M,M,M,M,M,M,M,M,M,M,M,M,102.45,KBVU 172215Z AUTO VRB06G15KT 210V270 10SM CLR 41/09 A2981 RMK AO2,M
CXP,2023-08-17 22:15,-119.7326,39.1923,1431.00,89.60,42.80,19.64,230.00,10.00,0.00,30.03,M,10.00,M,CLR,M,M,M,M,M,M,M,M,M,M,M,M,M,M,85.93,KCXP 172215Z AUTO 23010KT 180V280 10SM CLR 32/06 A3003 RMK AO2,M
RTS,2023-08-17 22:15,-119.8764,39.6682,1539.00,87.80,41.00,19.40,190.00,12.00,0.00,30.05,M,10.00,19.00,CLR,M,M,M,M,M,M,M,M,M,M,M,M,M,M,84.30,KRTS 172215Z AUTO 19012G19KT 10SM CLR 31/05 A3005 RMK AO2,M
05U,2023-08-17 22:15,-116.0051,39.6042,1811.23,77.00,55.40,47.25,M,M,0.00,30.15,M,10.00,M,M,M,M,M,M,M,M,M,M,M,M,M,M,M,M,77.00,K05U 172215Z AUTO 10SM 25/13 A3015 RMK A01,M
MEV,2023-08-17 22:15,-119.7500,38.9963,1441.42,87.80,44.60,22.27,260.00,8.00,0.00,30.03,M,10.00,14.00,FEW,M,M,M,11000.00,M,M,M,TS,M,M,M,M,M,M,84.53,KMEV 172215Z AUTO 26008G14KT 10SM TS FEW110 31/07 A3003 RMK AO2 LTG DSNT E AND SE,M
BAM,2023-08-17 22:15,-116.8743,40.5990,1382.36,91.40,50.00,24.37,270.00,10.00,0.00,30.01,M,10.00,17.00,CLR,M,M,M,M,M,M,M,M,M,M,M,M,M,M,88.36,KBAM 172215Z AUTO 27010G17KT 10SM CLR 33/10 A3001 RMK AO1,M
HTH,2023-08-17 22:15,-118.6315,38.5448,1282.89,82.40,48.20,30.35,270.00,18.00,0.00,30.00,M,10.00,28.00,CLR,M,M,M,M,M,M,M,M,M,M,M,M,M,M,80.80,KHTH 172215Z AUTO 27018G28KT 10SM CLR 28/09 A3000 RMK A01,M
10U,2023-08-17 22:15,-116.1876,41.9532,1637.00,87.80,46.40,23.85,M,4.00,0.00,30.05,M,10.00,10.00,FEW,M,M,M,8500.00,M,M,M,M,M,M,M,M,M,M,84.68,K10U 172215Z AUTO VRB04G10KT 10SM FEW085 31/08 A3005 RMK AO2,M
TMT,2023-08-17 22:15,-117.1971,39.4643,1749.34,70.00,59.00,68.09,0.00,0.00,0.00,30.13,M,M,M,SCT,SCT,OVC,M,5000.00,7000.00,9500.00,M,TS,M,M,M,M,M,M,70.00,KTMT 172215Z AUTO 00000KT TS SCT050 SCT070 OVC095 21/15 A3013 RMK AO2 LTG DSNT S T02120150,M
05U,2023-08-17 22:30,-116.0051,39.6042,1811.23,82.40,50.00,32.46,M,M,0.00,30.14,M,10.00,M,M,M,M,M,M,M,M,M,M,M,M,M,M,M,M,80.99,K05U 172230Z AUTO 10SM 28/10 A3014 RMK A01,M
BVU,2023-08-17 22:35,-114.8611,35.9475,671.00,104.00,48.20,15.52,M,5.00,0.00,29.81,M,10.00,12.00,CLR,M,M,M,M,M,M,M,M,M,M,M,M,M,M,100.65,KBVU 172235Z AUTO VRB05G12KT 10SM CLR 40/09 A2981 RMK AO2,M
CXP,2023-08-17 22:35,-119.7326,39.1923,1431.00,86.00,44.60,23.59,260.00,12.00,0.00,30.03,M,10.00,18.00,CLR,M,M,M,M,M,M,M,M,M,M,M,M,M,M,83.07,KCXP 172235Z AUTO 26012G18KT 10SM CLR 30/07 A3003 RMK AO2,M
RTS,2023-08-17 22:35,-119.8764,39.6682,1539.00,86.00,44.60,23.59,310.00,13.00,0.00,30.05,M,10.00,M,SCT,M,M,M,9500.00,M,M,M,M,M,M,M,M,M,M,83.07,KRTS 172235Z AUTO 31013KT 10SM SCT095 30/07 A3005 RMK AO2,M
MEV,2023-08-17 22:35,-119.7500,38.9963,1441.42,86.00,44.60,23.59,160.00,8.00,0.00,30.05,M,9.00,16.00,BKN,BKN,M,M,9500.00,11000.00,M,M,M,M,M,M,M,M,M,83.07,KMEV 172235Z AUTO 16008G16KT 080V240 9SM BKN095 BKN110 30/07 A3005 RMK AO2 LTG DSNT E AND SE,M
HTH,2023-08-17 22:35,-118.6315,38.5448,1282.89,87.80,41.00,19.40,280.00,18.00,0.00,29.99,M,10.00,M,CLR,M,M,M,M,M,M,M,M,M,M,M,M,M,M,84.30,KHTH 172235Z AUTO 28018KT 10SM CLR 31/05 A2999 RMK A01,M
10U,2023-08-17 22:35,-116.1876,41.9532,1637.00,89.60,46.40,22.53,270.00,7.00,0.00,30.05,M,10.00,15.00,CLR,M,M,M,M,M,M,M,M,M,M,M,M,M,M,86.24,K10U 172235Z AUTO 27007G15KT 10SM CLR 32/08 A3005 RMK AO2,M
BAM,2023-08-17 22:35,-116.8743,40.5990,1382.36,86.00,53.60,33.01,220.00,23.00,0.00,30.04,M,5.00,36.00,SCT,BKN,M,M,5000.00,10000.00,M,M,M,M,M,M,M,M,M,84.18,KBAM 172235Z AUTO 22023G36KT 5SM SCT050 BKN100 30/12 A3004 RMK AO1,M
TMT,2023-08-17 22:35,-117.1971,39.4643,1749.34,68.00,60.00,75.57,0.00,0.00,0.00,30.13,M,M,M,SCT,SCT,OVC,M,4200.00,7000.00,9500.00,M,VCTS,M,M,M,M,M,M,68.00,KTMT 172235Z AUTO 00000KT VCTS SCT042 SCT070 OVC095 20/16 A3013 RMK AO2 LTG DSNT NW THRU E T01990156,M
EKO,2023-08-17 22:52,-115.7860,40.8242,1367.00,69.80,59.00,68.55,M,6.00,0.01,30.10,M,1.75,43.00,FEW,SCT,OVC,M,2200.00,7500.00,9000.00,M,+TSRA,M,M,M,43.00,160.00,2023-08-17 22:48,69.80,KEKO 172252Z AUTO VRB06G43KT 1 3/4SM +TSRA FEW022 SCT075 OVC090 21/15 A3010 RMK AO2 PK WND 16043/2248 WSHFT 2146 VIS 3/4V5 LTG DSNT ALQDS RAB44 TSE11B17E32B35 PRESRR P0001,M
P68,2023-08-17 22:53,-116.0056,39.6014,1993.00,85.00,52.00,32.14,60.00,7.00,0.00,30.09,1009.80,M,M,M,M,M,M,M,M,M,M,M,M,M,M,M,M,M,83.11,KP68 172253Z AUTO 06007KT 29/11 A3009 RMK AO1 SLP098 T02940111,M
DRA,2023-08-17 22:53,-116.0278,36.6206,1009.00,101.00,40.00,12.41,210.00,15.00,0.00,29.90,1006.70,10.00,22.00,CLR,M,M,M,M,M,M,M,M,M,M,M,35.00,230.00,2023-08-17 22:16,96.12,KDRA 172253Z AUTO 21015G22KT 10SM CLR 38/04 A2990 RMK AO2 PK WND 23035/2216 SLP067 T03830044,M
ELY,2023-08-17 22:53,-114.8453,39.2950,1909.00,88.00,46.00,23.34,220.00,16.00,0.00,30.12,1008.80,10.00,23.00,BKN,OVC,M,M,10000.00,12000.00,M,M,M,M,M,M,M,M,M,84.81,KELY 172253Z AUTO 22016G23KT 10SM BKN100 OVC120 31/08 A3012 RMK AO2 LTG DSNT N AND SE SLP088 T03110078,M
VGT,2023-08-17 22:53,-115.1933,36.2111,667.00,106.00,50.00,15.64,M,M,0.00,29.80,1007.40,10.00,M,CLR,M,M,M,M,M,M,M,M,M,M,M,M,M,M,103.18,KVGT 172253Z 10SM CLR 41/10 A2980 RMK AO2 SLP074 T04110100,M
LOL,2023-08-17 22:53,-118.5701,40.0684,1192.43,90.00,47.00,22.76,160.00,6.00,0.00,29.95,1009.40,10.00,M,CLR,M,M,M,M,M,M,M,M,M,M,M,M,M,M,86.66,KLOL 172253Z AUTO 16006KT 10SM CLR 32/08 A2995 RMK AO2 SLP094 T03220083,M
BVU,2023-08-17 22:55,-114.8611,35.9475,671.00,104.00,46.40,14.50,M,6.00,0.00,29.80,M,10.00,16.00,FEW,M,M,M,12000.00,M,M,M,M,M,M,M,M,M,M,100.21,KBVU 172255Z AUTO VRB06G16KT 10SM FEW120 40/08 A2980 RMK AO2,M
CXP,2023-08-17 22:55,-119.7326,39.1923,1431.00,86.00,44.60,23.59,230.00,8.00,0.00,30.05,M,10.00,M,FEW,SCT,M,M,7500.00,10000.00,M,M,VCTS,M,M,M,M,M,M,83.07,KCXP 172255Z AUTO 23008KT 200V260 10SM VCTS FEW075 SCT100 30/07 A3005 RMK AO2 LTG DSNT ALQDS,M
INS,2023-08-17 22:55,-115.6733,36.5872,955.00,100.20,38.50,11.99,0.00,0.00,0.00,29.87,1006.00,10.00,M,OVC,M,M,M,13000.00,M,M,M,M,M,M,M,M,M,M,95.12,KINS 172255Z AUTO 00000KT 10SM OVC130 38/04 A2987 RMK AO2 SLP060 T03790036 $,M
RNO,2023-08-17 22:55,-119.7711,39.4839,1341.00,90.00,43.00,19.55,340.00,4.00,0.00,29.97,1008.50,10.00,17.00,SCT,BKN,M,M,11000.00,20000.00,M,M,M,M,M,M,M,M,M,86.29,KRNO 172255Z 34004G17KT 10SM SCT110 BKN200 32/06 A2997 RMK AO2 LTG DSNT S SLP085 CB DSNT SE T03220061,M
RTS,2023-08-17 22:55,-119.8764,39.6682,1539.00,87.80,42.80,20.79,310.00,10.00,0.00,30.04,M,10.00,15.00,FEW,M,M,M,10000.00,M,M,M,M,M,M,M,M,M,M,84.40,KRTS 172255Z AUTO 31010G15KT 280V340 10SM FEW100 31/06 A3004 RMK AO2,M
05U,2023-08-17 22:55,-116.0051,39.6042,1811.23,87.80,50.00,27.29,M,M,0.00,30.12,M,10.00,M,M,M,M,M,M,M,M,M,M,M,M,M,M,M,M,85.11,K05U 172255Z AUTO 10SM 31/10 A3012 RMK A01,M
MEV,2023-08-17 22:55,-119.7500,38.9963,1441.42,69.80,59.00,68.55,70.00,16.00,0.00,30.06,M,4.00,22.00,FEW,BKN,M,M,5500.00,9000.00,M,M,-RA HZ,M,M,M,M,M,M,69.80,KMEV 172255Z AUTO 07016G22KT 4SM -RA HZ FEW055 BKN090 21/15 A3006 RMK AO2 LTG DSNT ALQDS,M
HTH,2023-08-17 22:55,-118.6315,38.5448,1282.89,89.60,42.80,19.64,300.00,6.00,0.00,29.98,M,10.00,11.00,CLR,M,M,M,M,M,M,M,M,M,M,M,M,M,M,85.93,KHTH 172255Z AUTO 30006G11KT 10SM CLR 32/06 A2998 RMK A01,M
BAM,2023-08-17 22:55,-116.8743,40.5990,1382.36,68.00,62.60,82.86,200.00,17.00,0.00,30.07,M,4.00,40.00,SCT,SCT,OVC,M,6000.00,7500.00,11000.00,M,M,M,M,M,M,M,M,68.00,KBAM 172255Z AUTO 20017G40KT 4SM SCT060 SCT075 OVC110 20/17 A3007 RMK AO1,M
TMT,2023-08-17 22:55,-117.1971,39.4643,1749.34,71.00,55.00,56.96,0.00,0.00,0.01,30.13,M,M,M,SCT,BKN,OVC,M,5000.00,8000.00,9500.00,M,VCTS,M,M,M,M,M,M,71.00,KTMT 172255Z AUTO 00000KT VCTS SCT050 BKN080 OVC095 22/13 A3013 RMK AO2 LTG DSNT N AND NW P0001 T02170128,M
10U,2023-08-17 22:55,-116.1876,41.9532,1637.00,89.60,46.40,22.53,210.00,7.00,0.00,30.04,M,10.00,M,FEW,M,M,M,8500.00,M,M,M,M,M,M,M,M,M,M,86.24,K10U 172255Z AUTO 21007KT 180V240 10SM FEW085 32/08 A3004 RMK AO2,M
LSV,2023-08-17 22:55,-115.0343,36.2362,570.00,105.80,48.60,14.93,40.00,3.00,0.00,29.75,1004.40,10.00,M,CLR,M,M,M,M,M,M,M,M,M,M,M,M,M,M,102.56,KLSV 172255Z AUTO 04003KT 10SM CLR 41/09 A2975 RMK AO2 SLP044 T04100092 $,M
EKO,2023-08-17 22:56,-115.7860,40.8242,1367.00,70.00,59.00,68.09,180.00,7.00,0.09,30.08,1013.80,1.25,43.00,FEW,BKN,OVC,M,3000.00,9000.00,11000.00,M,+TSRA,M,M,M,43.00,160.00,2023-08-17 22:48,70.00,KEKO 172256Z AUTO 18007G43KT 130V230 1 1/4SM +TSRA FEW030 BKN090 OVC110 21/15 A3008 RMK AO2 PK WND 16043/2248 WSHFT 2146 LTG DSNT ALQDS RAB44 TSE11B17E32B35 SLP138 P0009 T02110150,M
WMC,2023-08-17 22:56,-117.8072,40.9019,1315.00,91.00,49.00,23.77,M,M,0.00,29.96,1008.80,10.00,M,OVC,M,M,M,9500.00,M,M,M,M,M,M,M,M,M,M,87.83,KWMC 172256Z AUTO 10SM OVC095 33/09 A2996 RMK AO2 LTG DSNT NE AND SE SLP088 T03280094,M
NFL,2023-08-17 22:56,-118.7010,39.4166,1199.00,93.00,45.00,19.21,M,5.00,0.00,29.94,1011.30,10.00,M,FEW,FEW,FEW,SCT,7000.00,12000.00,18000.00,25000.00,M,M,M,M,M,M,M,89.20,KNFL 172256Z VRB05KT 10SM FEW070 FEW120 FEW180 SCT250 34/07 A2994 RMK AO2 SLP113 CB DSNT NE AND S-SW T03390072,M
HND,2023-08-17 22:56,-115.1344,35.9729,742.79,M,M,M,M,M,0.00,M,M,M,M,M,M,M,M,M,M,M,M,M,M,M,M,M,M,M,M,KHND 172256Z RMK AO2 SLPNO $,M
TPH,2023-08-17 22:56,-117.0904,38.0505,1654.00,91.00,47.00,22.05,200.00,9.00,0.00,30.06,1009.00,10.00,22.00,FEW,M,M,M,12000.00,M,M,M,M,M,M,M,M,M,M,87.57,KTPH 172256Z AUTO 20009G22KT 10SM FEW120 33/08 A3006 RMK AO2 SLP090 T03280083,M
LAS,2023-08-17 22:56,-115.1634,36.0719,663.00,104.00,48.00,15.40,180.00,8.00,0.00,29.80,1005.90,10.00,15.00,SCT,SCT,M,M,12000.00,20000.00,M,M,M,M,M,M,M,M,M,100.60,KLAS 172256Z 18008G15KT 10SM SCT120 SCT200 40/09 A2980 RMK AO2 SLP059 T04000089,M
EKO,2023-08-17 23:03,-115.7860,40.8242,1367.00,70.00,59.00,68.09,300.00,10.00,0.06,30.07,M,3.00,16.00,FEW,BKN,OVC,M,3200.00,9000.00,11000.00,M,-TSRA,M,M,M,M,M,M,70.00,KEKO 172303Z AUTO 30010G16KT 3SM -TSRA FEW032 BKN090 OVC110 21/15 A3007 RMK AO2 LTG DSNT ALQDS P0006 T02110150,M
BVU,2023-08-17 23:15,-114.8611,35.9475,671.00,104.00,48.20,15.52,150.00,16.00,0.00,29.80,M,10.00,21.00,BKN,M,M,M,12000.00,M,M,M,M,M,M,M,M,M,M,100.65,KBVU 172315Z AUTO 15016G21KT 10SM BKN120 40/09 A2980 RMK AO2,M
CXP,2023-08-17 23:15,-119.7326,39.1923,1431.00,69.80,57.20,64.26,120.00,8.00,0.00,30.07,M,3.00,24.00,SCT,SCT,BKN,M,5500.00,6500.00,8000.00,M,VCTS RA HZ,M,M,M,M,M,M,69.80,KCXP 172315Z AUTO 12008G24KT 3SM VCTS RA HZ SCT055 SCT065 BKN080 21/14 A3007 RMK AO2 LTG DSNT ALQDS,M
RTS,2023-08-17 23:15,-119.8764,39.6682,1539.00,84.20,44.60,24.99,300.00,10.00,0.00,30.04,M,10.00,M,CLR,M,M,M,M,M,M,M,M,M,M,M,M,M,M,81.73,KRTS 172315Z AUTO 30010KT 10SM CLR 29/07 A3004 RMK AO2,M
05U,2023-08-17 23:15,-116.0051,39.6042,1811.23,84.20,50.00,30.62,M,M,0.00,30.12,M,10.00,M,M,M,M,M,M,M,M,M,M,M,M,M,M,M,M,82.24,K05U 172315Z AUTO 10SM 29/10 A3012 RMK A01,M
MEV,2023-08-17 23:15,-119.7500,38.9963,1441.42,75.20,59.00,57.12,50.00,9.00,0.00,30.04,M,10.00,14.00,CLR,M,M,M,M,M,M,M,M,M,M,M,M,M,M,75.20,KMEV 172315Z AUTO 05009G14KT 10SM CLR 24/15 A3004 RMK AO2,M
HTH,2023-08-17 23:15,-118.6315,38.5448,1282.89,89.60,46.40,22.53,250.00,6.00,0.00,29.97,M,10.00,15.00,FEW,M,M,M,10000.00,M,M,M,M,M,M,M,M,M,M,86.24,KHTH 172315Z AUTO 25006G15KT 220V280 10SM FEW100 32/08 A2997 RMK A01,M
10U,2023-08-17 23:15,-116.1876,41.9532,1637.00,89.60,46.40,22.53,240.00,11.00,0.00,30.02,M,10.00,16.00,CLR,M,M,M,M,M,M,M,M,M,M,M,M,M,M,86.24,K10U 172315Z AUTO 24011G16KT 220V280 10SM CLR 32/08 A3002 RMK AO2,M
BAM,2023-08-17 23:15,-116.8743,40.5990,1382.36,71.60,59.00,64.48,240.00,13.00,0.00,30.04,M,10.00,20.00,SCT,SCT,OVC,M,3500.00,5500.00,10000.00,M,M,M,M,M,M,M,M,71.60,KBAM 172315Z AUTO 24013G20KT 10SM SCT035 SCT055 OVC100 22/15 A3004 RMK AO1,M
TMT,2023-08-17 23:15,-117.1971,39.4643,1749.34,71.20,59.50,66.54,0.00,0.00,0.00,30.12,M,M,M,SCT,SCT,BKN,M,3600.00,6000.00,9500.00,M,M,M,M,M,M,M,M,71.20,KTMT 172315Z AUTO 00000KT SCT036 SCT060 BKN095 22/15 A3012 RMK AO2 LTG DSNT N AND SW T02180153 PWINO,M
ELY,2023-08-17 23:19,-114.8453,39.2950,1909.00,87.00,47.00,25.02,230.00,12.00,T,30.12,M,10.00,24.00,SCT,SCT,M,M,10000.00,12000.00,M,M,VCTS,M,M,M,M,M,M,84.08,KELY 172319Z AUTO 23012G24KT 10SM VCTS SCT100 SCT120 31/08 A3012 RMK AO2 LTG DSNT SE RAB06E15 P0000 T03060083,M
EKO,2023-08-17 23:22,-115.7860,40.8242,1367.00,74.00,61.00,63.85,320.00,10.00,0.06,30.05,M,10.00,20.00,FEW,FEW,BKN,M,3800.00,9000.00,11000.00,M,VCTS,M,M,M,M,M,M,74.00,KEKO 172322Z AUTO 32010G20KT 10SM VCTS FEW038 FEW090 BKN110 23/16 A3005 RMK AO2 LTG DSNT NW-E RAE14 TSE16 P0006 T02330161,M
EKO,2023-08-17 23:31,-115.7860,40.8242,1367.00,75.00,60.00,59.59,340.00,12.00,0.06,30.04,M,10.00,23.00,SCT,M,M,M,11000.00,M,M,M,M,M,M,M,M,M,M,75.00,KEKO 172331Z AUTO 34012G23KT 10SM SCT110 24/16 A3004 RMK AO2 LTG DSNT NW-E RAE14 TSE16 P0006 T02390156,M
BVU,2023-08-17 23:35,-114.8611,35.9475,671.00,104.00,46.40,14.50,120.00,9.00,0.00,29.79,M,10.00,M,FEW,M,M,M,12000.00,M,M,M,M,M,M,M,M,M,M,100.21,KBVU 172335Z AUTO 12009KT 10SM FEW120 40/08 A2979 RMK AO2,M
CXP,2023-08-17 23:35,-119.7326,39.1923,1431.00,75.20,59.00,57.12,310.00,6.00,0.00,30.06,M,10.00,M,FEW,FEW,SCT,M,5500.00,6500.00,12000.00,M,M,M,M,M,M,M,M,75.20,KCXP 172335Z AUTO 31006KT 10SM FEW055 FEW065 SCT120 24/15 A3006 RMK AO2,M
RTS,2023-08-17 23:35,-119.8764,39.6682,1539.00,86.00,44.60,23.59,310.00,7.00,0.00,30.04,M,10.00,14.00,SCT,SCT,M,M,9000.00,11000.00,M,M,M,M,M,M,M,M,M,83.07,KRTS 172335Z AUTO 31007G14KT 280V350 10SM SCT090 SCT110 30/07 A3004 RMK AO2,M
05U,2023-08-17 23:35,-116.0051,39.6042,1811.23,84.20,50.00,30.62,M,M,0.00,30.12,M,10.00,M,M,M,M,M,M,M,M,M,M,M,M,M,M,M,M,82.24,K05U 172335Z AUTO 10SM 29/10 A3012 RMK A01,M
MEV,2023-08-17 23:35,-119.7500,38.9963,1441.42,78.80,57.20,47.52,40.00,11.00,0.00,30.04,M,10.00,M,CLR,M,M,M,M,M,M,M,M,M,M,M,M,M,M,78.80,KMEV 172335Z AUTO 04011KT 10SM CLR 26/14 A3004 RMK AO2,M
HTH,2023-08-17 23:35,-118.6315,38.5448,1282.89,91.40,39.20,16.15,290.00,9.00,0.00,29.96,M,10.00,M,CLR,M,M,M,M,M,M,M,M,M,M,M,M,M,M,87.30,KHTH 172335Z AUTO 29009KT 10SM CLR 33/04 A2996 RMK A01,M
10U,2023-08-17 23:35,-116.1876,41.9532,1637.00,89.60,46.40,22.53,240.00,10.00,0.00,30.02,M,10.00,M,CLR,M,M,M,M,M,M,M,M,M,M,M,M,M,M,86.24,K10U 172335Z AUTO 24010KT 10SM CLR 32/08 A3002 RMK AO2,M
BAM,2023-08-17 23:35,-116.8743,40.5990,1382.36,77.00,62.60,61.13,220.00,4.00,0.00,30.01,M,10.00,M,SCT,SCT,SCT,M,3500.00,5000.00,6000.00,M,M,M,M,M,M,M,M,77.00,KBAM 172335Z AUTO 22004KT 10SM SCT035 SCT050 SCT060 25/17 A3001 RMK AO1,M
TMT,2023-08-17 23:35,-117.1971,39.4643,1749.34,71.00,59.00,65.81,40.00,5.00,0.00,30.12,M,M,M,SCT,SCT,BKN,M,5000.00,6000.00,9500.00,M,M,M,M,M,M,M,M,71.00,KTMT 172335Z AUTO 04005KT SCT050 SCT060 BKN095 22/15 A3012 RMK AO2 T02160151 PWINO,M
RNO,2023-08-17 23:44,-119.7711,39.4839,1341.00,89.00,44.00,20.96,230.00,13.00,0.00,29.97,M,10.00,20.00,BKN,BKN,M,M,10000.00,20000.00,M,M,TS,M,M,M,M,M,M,85.50,KRNO 172344Z 23013G20KT 10SM TS BKN100CB BKN200 32/07 A2997 RMK AO2 LTG DSNT E AND SE TSB40 OCNL LTGIC SE TS SE MOV N T03170067,M
HTH,2023-08-17 23:50,-118.6315,38.5448,1282.89,91.40,39.20,16.15,290.00,10.00,0.00,29.95,M,10.00,M,CLR,M,M,M,M,M,M,M,M,M,M,M,M,M,M,87.30,KHTH 172350Z AUTO 29010KT 10SM CLR 33/04 A2995 RMK A01,M
DRA,2023-08-17 23:53,-116.0278,36.6206,1009.00,101.00,37.00,11.04,240.00,14.00,0.00,29.89,1006.40,10.00,19.00,CLR,M,M,M,M,M,M,M,M,M,M,M,33.00,180.00,2023-08-17 23:34,95.52,KDRA 172353Z AUTO 24014G19KT 10SM CLR 38/03 A2989 RMK AO2 PK WND 18033/2334 SLP064 T03830028 10394 20350 56017,M
ELY,2023-08-17 23:53,-114.8453,39.2950,1909.00,82.00,47.00,29.39,160.00,12.00,T,30.12,1009.60,10.00,18.00,BKN,BKN,M,M,10000.00,11000.00,M,M,M,M,M,M,M,M,M,80.44,KELY 172353Z AUTO 16012G18KT 10SM BKN100 BKN110 28/08 A3012 RMK AO2 LTG DSNT N RAB06E15 SLP096 P0000 60000 T02780083 10317 20267 56012,M
VGT,2023-08-17 23:53,-115.1933,36.2111,667.00,106.00,49.00,15.07,80.00,7.00,0.00,29.78,1006.60,10.00,M,CLR,M,M,M,M,M,M,M,M,M,M,M,M,M,M,102.88,KVGT 172353Z 08007KT 10SM CLR 41/09 A2978 RMK AO2 SLP066 T04110094 10417 20372 56025,M
LOL,2023-08-17 23:53,-118.5701,40.0684,1192.43,92.00,46.00,20.58,180.00,12.00,0.00,29.92,1008.50,10.00,M,CLR,M,M,M,M,M,M,M,M,M,M,M,M,M,M,88.38,KLOL 172353Z AUTO 18012KT 10SM CLR 33/08 A2992 RMK AO2 SLP085 60000 T03330078 10333 20261 56027,M
BVU,2023-08-17 23:55,-114.8611,35.9475,671.00,104.00,46.40,14.50,130.00,10.00,0.00,29.78,M,10.00,M,CLR,M,M,M,M,M,M,M,M,M,M,M,M,M,M,100.21,KBVU 172355Z AUTO 13010KT 10SM CLR 40/08 A2978 RMK AO2,M
CXP,2023-08-17 23:55,-119.7326,39.1923,1431.00,80.60,55.40,41.97,M,3.00,0.05,30.05,M,10.00,M,CLR,M,M,M,M,M,M,M,M,M,M,M,M,M,M,80.53,KCXP 172355Z AUTO VRB03KT 10SM CLR 27/13 A3005 RMK AO2 LTG DSNT N-E P0005,M
INS,2023-08-17 23:55,-115.6733,36.5872,955.00,102.00,29.50,7.93,180.00,13.00,0.00,29.85,1005.30,10.00,17.00,BKN,M,M,M,12000.00,M,M,M,M,M,M,M,33.00,250.00,2023-08-17 23:05,95.24,KINS 172355Z AUTO 18013G17KT 10SM BKN120 39/M01 A2985 RMK AO2 PK WND 25033/05 SLP053 60000 T03881014 10388 20334 57022 $,M
RNO,2023-08-17 23:55,-119.7711,39.4839,1341.00,86.00,45.00,23.95,280.00,15.00,T,29.98,1008.80,10.00,38.00,BKN,BKN,M,M,10000.00,20000.00,M,M,-TSRA,M,M,M,38.00,210.00,2023-08-17 23:46,83.10,KRNO 172355Z 28015G38KT 10SM -TSRA BKN100CB BKN200 30/07 A2998 RMK AO2 PK WND 21038/2346 RAB47 TSB40 SLP088 OCNL LTGIC SE TS SE MOV N P0000 60000 T03000072 10344 20278 55015,M
RTS,2023-08-17 23:55,-119.8764,39.6682,1539.00,86.00,39.20,19.15,230.00,13.00,0.00,30.03,M,10.00,M,SCT,M,M,M,9500.00,M,M,M,M,M,M,M,M,M,M,82.79,KRTS 172355Z AUTO 23013KT 10SM SCT095 30/04 A3003 RMK AO2,M
05U,2023-08-17 23:55,-116.0051,39.6042,1811.23,84.20,50.00,30.62,M,M,0.00,30.12,M,10.00,M,M,M,M,M,M,M,M,M,M,M,M,M,M,M,M,82.24,K05U 172355Z AUTO 10SM 29/10 A3012 RMK A01,M
MEV,2023-08-17 23:55,-119.7500,38.9963,1441.42,80.60,51.80,36.79,40.00,8.00,0.00,30.03,M,10.00,M,CLR,M,M,M,M,M,M,M,M,M,M,M,M,M,M,80.08,KMEV 172355Z AUTO 04008KT 10SM CLR 27/11 A3003 RMK AO2,M
LSV,2023-08-17 23:55,-115.0343,36.2362,570.00,106.50,45.30,12.92,140.00,7.00,0.00,29.73,1003.80,10.00,M,CLR,M,M,M,M,M,M,M,M,M,M,M,M,M,M,102.37,KLSV 172355Z AUTO 14007KT 10SM CLR 41/07 A2973 RMK AO2 SLP038 T04140074 10419 20376 57025 $,M
BAM,2023-08-17 23:55,-116.8743,40.5990,1382.36,78.80,62.60,57.60,110.00,6.00,0.00,30.02,M,10.00,M,CLR,M,M,M,M,M,M,M,M,M,M,M,M,M,M,78.80,KBAM 172355Z AUTO 11006KT 10SM CLR 26/17 A3002 RMK AO1,M
TMT,2023-08-17 23:55,-117.1971,39.4643,1749.34,71.00,58.60,64.87,50.00,8.00,0.01,30.11,M,M,M,SCT,BKN,OVC,M,3600.00,7500.00,11000.00,M,M,M,M,M,M,M,M,71.00,KTMT 172355Z AUTO 05008KT SCT036 BKN075 OVC110 22/15 A3011 RMK AO2 LTG DSNT S P0001 60006 T02160148 10287 20198 PWINO,M
10U,2023-08-17 23:55,-116.1876,41.9532,1637.00,89.60,46.40,22.53,230.00,10.00,0.00,30.02,M,10.00,M,FEW,M,M,M,9000.00,M,M,M,M,M,M,M,M,M,M,86.24,K10U 172355Z AUTO 23010KT 10SM FEW090 32/08 A3002 RMK AO2,M
EKO,2023-08-17 23:56,-115.7860,40.8242,1367.00,74.00,61.00,63.85,130.00,5.00,0.06,30.04,1012.20,10.00,M,SCT,M,M,M,10000.00,M,M,M,M,M,M,M,M,M,M,74.00,KEKO 172356Z AUTO 13005KT 10SM SCT100 23/16 A3004 RMK AO2 LTG DSNT N AND NW RAE14 TSE16 SLP122 P0006 60019 T02330161 10328 20206 58003,M
WMC,2023-08-17 23:56,-117.8072,40.9019,1315.00,92.00,50.00,23.92,140.00,9.00,0.00,29.95,1008.60,10.00,M,OVC,M,M,M,9500.00,M,M,M,M,M,M,M,M,M,M,88.94,KWMC 172356Z AUTO 14009KT 10SM OVC095 33/10 A2995 RMK AO2 LTG DSNT NE SLP086 T03330100 10339 20289 56022,M
NFL,2023-08-17 23:56,-118.7010,39.4166,1199.00,92.00,44.00,19.08,190.00,8.00,0.00,29.92,1010.60,10.00,M,SCT,SCT,BKN,BKN,7000.00,12000.00,18000.00,25000.00,M,M,M,M,M,M,M,88.17,KNFL 172356Z 19008KT 10SM SCT070 SCT120 BKN180 BKN250 33/07 A2992 RMK AO2 SLP106 CB DSNT SE-S T03330067 10344 20244 56026,M
HND,2023-08-17 23:56,-115.1344,35.9729,742.79,M,M,M,M,M,0.00,M,M,M,M,M,M,M,M,M,M,M,M,M,M,M,M,M,M,M,M,KHND 172356Z RMK AO2 SLPNO 6//// $,M
TPH,2023-08-17 23:56,-117.0904,38.0505,1654.00,91.00,48.00,22.90,190.00,14.00,0.00,30.05,1008.40,10.00,20.00,FEW,M,M,M,12000.00,M,M,M,M,M,M,M,M,M,M,87.69,KTPH 172356Z AUTO 19014G20KT 10SM FEW120 33/09 A3005 RMK AO2 SLP084 T03280089 10333 20278 56019,M
LAS,2023-08-17 23:56,-115.1634,36.0719,663.00,104.00,45.00,13.75,180.00,6.00,0.00,29.78,1005.30,10.00,M,SCT,SCT,M,M,12000.00,20000.00,M,M,M,M,M,M,M,M,M,99.90,KLAS 172356Z 18006KT 10SM SCT120 SCT200 40/07 A2978 RMK AO2 SLP053 CB DSNT NE-SE T04000072 10406 20367 56023,M
