station,valid,lon,lat,elevation,tmpf,dwpf,relh,drct,sknt,p01i,alti,mslp,vsby,gust,skyc1,skyc2,skyc3,skyc4,skyl1,skyl2,skyl3,skyl4,wxcodes,ice_accretion_1hr,ice_accretion_3hr,ice_accretion_6hr,peak_wind_gust,peak_wind_drct,peak_wind_time,feel,metar,snowdepth
P68,2023-09-12 00:02,-116.0056,39.6014,1993.00,67.00,44.00,43.35,250.00,10.00,0.00,30.21,M,M,20.00,M,M,M,M,M,M,M,M,M,M,M,M,M,M,M,67.00,KP68 120002Z AUTO 25010G20KT 19/07 A3021 RMK AO1 WSHFT 2345 T01940067,M
ELY,2023-09-12 00:10,-114.8453,39.2950,1909.00,60.00,48.00,64.49,150.00,9.00,0.01,30.21,M,9.00,M,FEW,BKN,OVC,M,1100.00,7500.00,9000.00,M,-RA,M,M,M,M,M,M,60.00,KELY 120010Z AUTO 15009KT 9SM -RA FEW011 BKN075 OVC090 16/09 A3021 RMK AO2 WSHFT 2350 LTG DSNT S P0001 T01560089,M
05U,2023-09-12 00:10,-116.0051,39.6042,1811.23,68.00,44.60,42.85,30.00,12.00,0.00,30.23,M,10.00,M,BKN,M,M,M,9000.00,M,M,M,M,M,M,M,M,M,M,68.00,K05U 120010Z AUTO 03012KT 10SM BKN090 20/07 A3023 RMK A01,M
BAM,2023-09-12 00:15,-116.8743,40.5990,1382.36,62.60,55.40,77.29,270.00,17.00,0.00,30.13,M,10.00,20.00,SCT,SCT,OVC,M,2000.00,3100.00,9000.00,M,M,M,M,M,M,M,M,62.60,KBAM 120015Z AUTO 27017G20KT 10SM SCT020 SCT031 OVC090 17/13 A3013 RMK AO1,M
TMT,2023-09-12 00:15,-117.1971,39.4643,1749.34,68.40,50.70,53.16,90.00,11.00,0.00,30.18,M,M,M,BKN,BKN,M,M,9000.00,11000.00,M,M,M,M,M,M,M,M,M,68.40,KTMT 120015Z AUTO 09011KT BKN090 BKN110 20/10 A3018 RMK AO2 LTG DSNT E SE AND NW T02020104 PWINO,M
BVU,2023-09-12 00:15,-114.8611,35.9475,671.00,93.20,46.40,20.13,130.00,5.00,0.00,29.89,M,10.00,M,CLR,M,M,M,M,M,M,M,M,M,M,M,M,M,M,89.55,KBVU 120015Z AUTO 13005KT 10SM CLR 34/08 A2989 RMK AO2,M
CXP,2023-09-12 00:15,-119.7326,39.1923,1431.00,80.60,41.00,24.46,260.00,8.00,0.00,30.08,M,10.00,19.00,CLR,M,M,M,M,M,M,M,M,M,M,M,M,M,M,79.20,KCXP 120015Z AUTO 26008G19KT 230V290 10SM CLR 27/05 A3008 RMK AO2,M
RTS,2023-09-12 00:15,-119.8764,39.6682,1539.00,80.60,30.20,15.94,330.00,13.00,0.00,30.10,M,10.00,21.00,CLR,M,M,M,M,M,M,M,M,M,M,M,M,M,M,78.77,KRTS 120015Z AUTO 33013G21KT 10SM CLR 27/M01 A3010 RMK AO2,M
MEV,2023-09-12 00:15,-119.7500,38.9963,1441.42,80.60,42.80,26.22,280.00,7.00,0.00,30.07,M,10.00,18.00,CLR,M,M,M,M,M,M,M,M,M,M,M,M,M,M,79.30,KMEV 120015Z AUTO 28007G18KT 250V310 10SM CLR 27/06 A3007 RMK AO2,M
HTH,2023-09-12 00:15,-118.6315,38.5448,1282.89,82.40,42.80,24.72,140.00,9.00,0.00,30.02,M,10.00,M,CLR,M,M,M,M,M,M,M,M,M,M,M,M,M,M,80.39,KHTH 120015Z AUTO 14009KT 10SM CLR 28/06 A3002 RMK A01,M
05U,2023-09-12 00:30,-116.0051,39.6042,1811.23,66.20,44.60,45.60,10.00,6.00,0.00,30.23,M,10.00,11.00,SCT,M,M,M,10000.00,M,M,M,M,M,M,M,M,M,M,66.20,K05U 120030Z AUTO 01006G11KT 10SM SCT100 19/07 A3023 RMK A01,M
BVU,2023-09-12 00:35,-114.8611,35.9475,671.00,93.20,48.20,21.54,180.00,7.00,0.00,29.88,M,10.00,M,CLR,M,M,M,M,M,M,M,M,M,M,M,M,M,M,89.80,KBVU 120035Z AUTO 18007KT 10SM CLR 34/09 A2988 RMK AO2,M
CXP,2023-09-12 00:35,-119.7326,39.1923,1431.00,80.60,41.00,24.46,250.00,9.00,0.00,30.08,M,10.00,M,CLR,M,M,M,M,M,M,M,M,M,M,M,M,M,M,79.20,KCXP 120035Z AUTO 25009KT 10SM CLR 27/05 A3008 RMK AO2,M
RTS,2023-09-12 00:35,-119.8764,39.6682,1539.00,78.80,30.20,16.90,310.00,15.00,0.00,30.10,M,10.00,22.00,CLR,M,M,M,M,M,M,M,M,M,M,M,M,M,M,78.80,KRTS 120035Z AUTO 31015G22KT 10SM CLR 26/M01 A3010 RMK AO2,M
MEV,2023-09-12 00:35,-119.7500,38.9963,1441.42,78.80,42.80,27.81,290.00,13.00,0.00,30.08,M,10.00,M,CLR,M,M,M,M,M,M,M,M,M,M,M,M,M,M,78.80,KMEV 120035Z AUTO 29013KT 10SM CLR 26/06 A3008 RMK AO2,M
HTH,2023-09-12 00:35,-118.6315,38.5448,1282.89,82.40,42.80,24.72,180.00,9.00,0.00,30.01,M,10.00,16.00,CLR,M,M,M,M,M,M,M,M,M,M,M,M,M,M,80.39,KHTH 120035Z AUTO 18009G16KT 130V200 10SM CLR 28/06 A3001 RMK A01,M
BAM,2023-09-12 00:35,-116.8743,40.5990,1382.36,64.40,55.40,72.56,290.00,17.00,0.00,30.16,M,10.00,27.00,OVC,M,M,M,9000.00,M,M,M,M,M,M,M,M,M,M,64.40,KBAM 120035Z AUTO 29017G27KT 10SM OVC090 18/13 A3016 RMK AO1,M
TMT,2023-09-12 00:35,-117.1971,39.4643,1749.34,66.20,49.60,55.06,80.00,10.00,0.00,30.18,M,M,M,SCT,M,M,M,9000.00,M,M,M,M,M,M,M,M,M,M,66.20,KTMT 120035Z AUTO 08010KT SCT090 19/10 A3018 RMK AO2 LTG DSNT E AND SE T01900098 PWINO,M
05U,2023-09-12 00:50,-116.0051,39.6042,1811.23,66.20,42.80,42.57,40.00,9.00,0.00,30.23,M,10.00,14.00,SCT,SCT,M,M,10000.00,12000.00,M,M,M,M,M,M,M,M,M,66.20,K05U 120050Z AUTO 04009G14KT 10SM SCT100 SCT120 19/06 A3023 RMK A01,M
P68,2023-09-12 00:53,-116.0056,39.6014,1993.00,65.00,43.00,44.73,240.00,7.00,0.00,30.21,1017.30,M,14.00,M,M,M,M,M,M,M,M,M,M,M,M,M,M,M,65.00,KP68 120053Z AUTO 24007G14KT 18/06 A3021 RMK AO1 WSHFT 2345 SLP173 T01830061,M
DRA,2023-09-12 00:53,-116.0278,36.6206,1009.00,88.00,47.00,24.24,250.00,11.00,0.00,29.96,1010.10,10.00,M,CLR,M,M,M,M,M,M,M,M,M,M,M,M,M,M,84.91,KDRA 120053Z AUTO 25011KT 10SM CLR 31/08 A2996 RMK AO2 SLP101 T03110083,M
ELY,2023-09-12 00:53,-114.8453,39.2950,1909.00,60.00,48.00,64.49,180.00,11.00,0.01,30.22,1017.30,10.00,M,BKN,M,M,M,10000.00,M,M,M,M,M,M,M,M,M,M,60.00,KELY 120053Z AUTO 18011KT 10SM BKN100 16/09 A3022 RMK AO2 WSHFT 2350 LTG DSNT S RAE22 SLP173 P0001 T01560089,M
VGT,2023-09-12 00:53,-115.1933,36.2111,667.00,94.00,50.00,22.48,M,5.00,0.00,29.88,1010.80,10.00,M,CLR,M,M,M,M,M,M,M,M,M,M,M,M,M,M,90.89,KVGT 120053Z VRB05KT 10SM CLR 34/10 A2988 RMK AO2 SLP108 T03440100,M
LOL,2023-09-12 00:53,-118.5701,40.0684,1192.43,84.00,38.00,19.49,0.00,0.00,0.00,29.98,1012.00,10.00,M,CLR,M,M,M,M,M,M,M,M,M,M,M,M,M,M,81.26,KLOL 120053Z AUTO 00000KT 10SM CLR 29/03 A2998 RMK AO2 LTG DSNT NE SLP120 T02890033,M
BVU,2023-09-12 00:55,-114.8611,35.9475,671.00,91.40,48.20,22.78,0.00,0.00,0.00,29.88,M,10.00,M,CLR,M,M,M,M,M,M,M,M,M,M,M,M,M,M,88.09,KBVU 120055Z AUTO 00000KT 10SM CLR 33/09 A2988 RMK AO2,M
CXP,2023-09-12 00:55,-119.7326,39.1923,1431.00,78.80,39.20,24.19,280.00,9.00,0.00,30.08,M,10.00,16.00,CLR,M,M,M,M,M,M,M,M,M,M,M,M,M,M,78.80,KCXP 120055Z AUTO 28009G16KT 250V310 10SM CLR 26/04 A3008 RMK AO2,M
HTH,2023-09-12 00:55,-118.6315,38.5448,1282.89,78.80,48.20,34.13,200.00,25.00,0.00,30.03,M,10.00,34.00,BKN,M,M,M,9500.00,M,M,M,M,M,M,M,M,M,M,78.80,KHTH 120055Z AUTO 20025G34KT 10SM BKN095 26/09 A3003 RMK A01,M
RNO,2023-09-12 00:55,-119.7711,39.4839,1341.00,84.00,39.00,20.27,300.00,13.00,0.00,30.04,1011.90,10.00,27.00,FEW,FEW,M,M,10000.00,25000.00,M,M,M,M,M,M,27.00,300.00,2023-09-12 00:48,81.29,KRNO 120055Z 30013G27KT 10SM FEW100 FEW250 29/04 A3004 RMK AO2 PK WND 30027/0048 SLP119 T02890039,M
RTS,2023-09-12 00:55,-119.8764,39.6682,1539.00,M,M,M,310.00,14.00,0.00,30.10,M,M,19.00,M,M,M,M,M,M,M,M,M,M,M,M,M,M,M,M,KRTS 120055Z AUTO 31014G19KT A3010 RMK AO2 PWINO,M
MEV,2023-09-12 00:55,-119.7500,38.9963,1441.42,78.80,42.80,27.81,280.00,9.00,0.00,30.07,M,10.00,17.00,CLR,M,M,M,M,M,M,M,M,M,M,M,M,M,M,78.80,KMEV 120055Z AUTO 28009G17KT 10SM CLR 26/06 A3007 RMK AO2,M
BAM,2023-09-12 00:55,-116.8743,40.5990,1382.36,62.60,57.20,82.50,280.00,12.00,0.00,30.18,M,10.00,16.00,OVC,M,M,M,8000.00,M,M,M,M,M,M,M,M,M,M,62.60,KBAM 120055Z AUTO 28012G16KT 10SM OVC080 17/14 A3018 RMK AO1,M
TMT,2023-09-12 00:55,-117.1971,39.4643,1749.34,65.70,50.00,56.86,80.00,9.00,0.00,30.18,M,M,M,BKN,BKN,M,M,9000.00,11000.00,M,M,TS,M,M,M,M,M,M,65.70,KTMT 120055Z AUTO 08009KT TS BKN090 BKN110 19/10 A3018 RMK AO2 LTG DSNT SE AND S T01870101,M
INS,2023-09-12 00:55,-115.6733,36.5872,955.00,88.00,48.70,25.84,110.00,6.00,0.00,29.95,1009.90,10.00,M,SCT,M,M,M,9500.00,M,M,M,M,M,M,M,M,M,M,85.11,KINS 120055Z AUTO 11006KT 10SM SCT095 31/09 A2995 RMK AO2 SLP099 T03110093 $,M
LSV,2023-09-12 00:55,-115.0343,36.2362,570.00,93.60,51.30,23.88,120.00,3.00,0.00,29.83,1007.90,10.00,M,CLR,M,M,M,M,M,M,M,M,M,M,M,M,M,M,90.74,KLSV 120055Z AUTO 12003KT 10SM CLR 34/11 A2983 RMK AO2 SLP079 T03420107 $,M
EKO,2023-09-12 00:56,-115.7860,40.8242,1367.00,78.00,39.00,24.65,200.00,7.00,0.00,30.09,1014.60,10.00,M,CLR,M,M,M,M,M,M,M,M,M,M,M,M,M,M,78.00,KEKO 120056Z AUTO 20007KT 10SM CLR 26/04 A3009 RMK AO2 SLP146 T02560039,M
WMC,2023-09-12 00:56,-117.8072,40.9019,1315.00,85.00,37.00,18.14,0.00,0.00,0.00,30.03,1012.90,10.00,M,CLR,M,M,M,M,M,M,M,M,M,M,M,M,M,M,81.96,KWMC 120056Z AUTO 00000KT 10SM CLR 29/03 A3003 RMK AO2 SLP129 T02940028,M
NFL,2023-09-12 00:56,-118.7010,39.4166,1199.00,87.00,38.00,17.70,20.00,5.00,0.00,29.99,1012.70,10.00,M,FEW,SCT,SCT,M,7000.00,12000.00,25000.00,M,M,M,M,M,M,M,M,83.53,KNFL 120056Z 02005KT 10SM FEW070 SCT120 SCT250 31/03 A2999 RMK AO2 SLP127 CB DSNT SW-W T03060033,M
HND,2023-09-12 00:56,-115.1344,35.9729,742.79,92.00,51.00,24.82,230.00,10.00,0.00,29.92,1012.20,10.00,M,CLR,M,M,M,M,M,M,M,M,M,M,M,M,M,M,89.11,KHND 120056Z 23010KT 10SM CLR 33/11 A2992 RMK AO2 SLP122 T03330106,M
LAS,2023-09-12 00:56,-115.1634,36.0719,663.00,93.00,49.00,22.34,290.00,3.00,0.00,29.88,1009.40,10.00,M,FEW,SCT,BKN,M,10000.00,15000.00,22000.00,M,M,M,M,M,M,M,M,89.73,KLAS 120056Z 29003KT 10SM FEW100 SCT150 BKN220 34/09 A2988 RMK AO2 SLP094 T03390094,M
05U,2023-09-12 01:10,-116.0051,39.6042,1811.23,66.20,42.80,42.57,50.00,12.00,0.00,30.24,M,10.00,18.00,FEW,BKN,BKN,M,7500.00,9000.00,12000.00,M,M,M,M,M,M,M,M,66.20,K05U 120110Z AUTO 05012G18KT 10SM FEW075 BKN090 BKN120 19/06 A3024 RMK A01,M
BVU,2023-09-12 01:15,-114.8611,35.9475,671.00,91.40,48.20,22.78,M,4.00,0.00,29.88,M,10.00,M,CLR,M,M,M,M,M,M,M,M,M,M,M,M,M,M,88.09,KBVU 120115Z AUTO VRB04KT 10SM CLR 33/09 A2988 RMK AO2,M
CXP,2023-09-12 01:15,-119.7326,39.1923,1431.00,78.80,41.00,25.95,270.00,9.00,0.00,30.08,M,10.00,17.00,CLR,M,M,M,M,M,M,M,M,M,M,M,M,M,M,78.80,KCXP 120115Z AUTO 27009G17KT 10SM CLR 26/05 A3008 RMK AO2,M
RTS,2023-09-12 01:15,-119.8764,39.6682,1539.00,77.00,30.20,17.94,300.00,15.00,0.00,30.11,M,10.00,M,M,M,M,M,M,M,M,M,M,M,M,M,M,M,M,77.00,KRTS 120115Z AUTO 30015KT 10SM 25/M01 A3011 RMK AO2,M
MEV,2023-09-12 01:15,-119.7500,38.9963,1441.42,77.00,42.80,29.51,300.00,11.00,0.00,30.08,M,10.00,M,CLR,M,M,M,M,M,M,M,M,M,M,M,M,M,M,77.00,KMEV 120115Z AUTO 30011KT 10SM CLR 25/06 A3008 RMK AO2,M
HTH,2023-09-12 01:15,-118.6315,38.5448,1282.89,69.80,53.60,56.38,180.00,16.00,0.00,30.07,M,M,23.00,FEW,SCT,OVC,M,300.00,5000.00,9000.00,M,M,M,M,M,M,M,M,69.80,KHTH 120115Z AUTO 18016G23KT FEW003 SCT050 OVC090 21/12 A3007 RMK A01,M
BAM,2023-09-12 01:15,-116.8743,40.5990,1382.36,60.80,57.20,87.92,260.00,5.00,0.00,30.19,M,4.00,M,SCT,SCT,OVC,M,4700.00,6000.00,8000.00,M,M,M,M,M,M,M,M,60.80,KBAM 120115Z AUTO 26005KT 4SM SCT047 SCT060 OVC080 16/14 A3019 RMK AO1,M
TMT,2023-09-12 01:15,-117.1971,39.4643,1749.34,66.00,49.30,54.82,80.00,13.00,0.00,30.16,M,M,M,SCT,OVC,M,M,5000.00,10000.00,M,M,M,M,M,M,M,M,M,66.00,KTMT 120115Z AUTO 08013KT SCT050 OVC100 19/10 A3016 RMK AO2 LTG DSNT S T01880096 PWINO,M
EKO,2023-09-12 01:26,-115.7860,40.8242,1367.00,71.00,47.00,42.35,240.00,13.00,0.00,30.12,M,10.00,M,BKN,M,M,M,12000.00,M,M,M,M,M,M,M,31.00,240.00,2023-09-12 01:08,71.00,KEKO 120126Z AUTO 24013KT 10SM BKN120 22/08 A3012 RMK AO2 PK WND 24031/0108 WSHFT 0106 T02170083,M
05U,2023-09-12 01:30,-116.0051,39.6042,1811.23,64.40,44.60,48.55,30.00,8.00,0.00,30.25,M,9.00,M,SCT,BKN,OVC,M,5000.00,7500.00,9000.00,M,M,M,M,M,M,M,M,64.40,K05U 120130Z AUTO 03008KT 9SM SCT050 BKN075 OVC090 18/07 A3025 RMK A01,M
RTS,2023-09-12 01:35,-119.8764,39.6682,1539.00,77.00,30.20,17.94,290.00,13.00,0.00,30.11,M,10.00,M,CLR,M,M,M,M,M,M,M,M,M,M,M,M,M,M,77.00,KRTS 120135Z AUTO 29013KT 10SM CLR 25/M01 A3011 RMK AO2,M
BVU,2023-09-12 01:35,-114.8611,35.9475,671.00,91.40,48.20,22.78,130.00,5.00,0.00,29.88,M,10.00,M,CLR,M,M,M,M,M,M,M,M,M,M,M,M,M,M,88.09,KBVU 120135Z AUTO 13005KT 10SM CLR 33/09 A2988 RMK AO2,M
CXP,2023-09-12 01:35,-119.7326,39.1923,1431.00,77.00,41.00,27.53,280.00,8.00,0.00,30.08,M,10.00,13.00,FEW,M,M,M,1200.00,M,M,M,M,M,M,M,M,M,M,77.00,KCXP 120135Z AUTO 28008G13KT 10SM FEW012 25/05 A3008 RMK AO2,M
BAM,2023-09-12 01:35,-116.8743,40.5990,1382.36,60.80,57.20,87.92,300.00,8.00,0.00,30.18,M,10.00,M,SCT,OVC,M,M,4900.00,8000.00,M,M,M,M,M,M,M,M,M,60.80,KBAM 120135Z AUTO 30008KT 10SM SCT049 OVC080 16/14 A3018 RMK AO1,M
TMT,2023-09-12 01:35,-117.1971,39.4643,1749.34,65.00,48.00,54.07,110.00,8.00,0.00,30.16,M,M,M,OVC,M,M,M,10000.00,M,M,M,M,M,M,M,M,M,M,65.00,KTMT 120135Z AUTO 11008KT OVC100 18/09 A3016 RMK AO2 LTG DSNT S T01830088 PWINO,M
MEV,2023-09-12 01:35,-119.7500,38.9963,1441.42,75.20,41.00,29.23,280.00,9.00,0.00,30.08,M,10.00,16.00,CLR,M,M,M,M,M,M,M,M,M,M,M,M,M,M,75.20,KMEV 120135Z AUTO 28009G16KT 10SM CLR 24/05 A3008 RMK AO2,M
HTH,2023-09-12 01:35,-118.6315,38.5448,1282.89,66.20,57.20,72.74,160.00,5.00,0.00,30.07,M,4.00,12.00,FEW,SCT,BKN,M,300.00,3100.00,4200.00,M,HZ,M,M,M,M,M,M,66.20,KHTH 120135Z AUTO 16005G12KT 4SM HZ FEW003 SCT031 BKN042 19/14 A3007 RMK A01,M
WMC,2023-09-12 01:41,-117.8072,40.9019,1315.00,76.00,44.00,31.95,160.00,15.00,0.00,30.05,M,10.00,23.00,SCT,M,M,M,11000.00,M,M,M,M,M,M,M,28.00,160.00,2023-09-12 01:26,76.00,KWMC 120141Z AUTO 16015G23KT 10SM SCT110 24/07 A3005 RMK AO2 PK WND 16028/0126 WSHFT 0121 LTG DSNT S AND SW T02440067,M
05U,2023-09-12 01:50,-116.0051,39.6042,1811.23,60.80,48.20,63.15,250.00,4.00,0.00,30.24,M,7.00,M,FEW,BKN,OVC,M,4900.00,5500.00,9500.00,M,M,M,M,M,M,M,M,60.80,K05U 120150Z AUTO 25004KT 7SM FEW049 BKN055 OVC095 16/09 A3024 RMK A01,M
P68,2023-09-12 01:53,-116.0056,39.6014,1993.00,62.00,47.00,57.85,130.00,6.00,0.00,30.21,1017.90,M,M,M,M,M,M,M,M,M,M,M,M,M,M,M,M,M,62.00,KP68 120153Z AUTO 13006KT 17/08 A3021 RMK AO1 SLP179 T01670083,M
DRA,2023-09-12 01:53,-116.0278,36.6206,1009.00,84.00,48.00,28.60,280.00,4.00,0.00,29.96,1010.20,10.00,M,CLR,M,M,M,M,M,M,M,M,M,M,M,M,M,M,81.87,KDRA 120153Z AUTO 28004KT 10SM CLR 29/09 A2996 RMK AO2 SLP102 T02890089,M
ELY,2023-09-12 01:53,-114.8453,39.2950,1909.00,58.00,49.00,71.91,170.00,18.00,0.00,30.23,1017.80,10.00,27.00,OVC,M,M,M,11000.00,M,M,M,M,M,M,M,27.00,180.00,2023-09-12 01:49,58.00,KELY 120153Z AUTO 17018G27KT 10SM OVC110 14/09 A3023 RMK AO2 PK WND 18027/0149 LTG DSNT S SLP178 T01440094,M
VGT,2023-09-12 01:53,-115.1933,36.2111,667.00,93.00,50.00,23.18,210.00,6.00,0.00,29.87,1010.60,10.00,M,CLR,M,M,M,M,M,M,M,M,M,M,M,M,M,M,89.90,KVGT 120153Z 21006KT 10SM CLR 34/10 A2987 RMK AO2 SLP106 T03390100,M
LOL,2023-09-12 01:53,-118.5701,40.0684,1192.43,78.00,45.00,31.06,150.00,6.00,0.00,29.98,1012.10,10.00,M,CLR,M,M,M,M,M,M,M,M,M,M,M,M,M,M,78.00,KLOL 120153Z AUTO 15006KT 10SM CLR 26/07 A2998 RMK AO2 SLP121 T02560072,M
BVU,2023-09-12 01:55,-114.8611,35.9475,671.00,91.40,50.00,24.37,120.00,4.00,0.00,29.88,M,10.00,M,CLR,M,M,M,M,M,M,M,M,M,M,M,M,M,M,88.36,KBVU 120155Z AUTO 12004KT 10SM CLR 33/10 A2988 RMK AO2,M
CXP,2023-09-12 01:55,-119.7326,39.1923,1431.00,75.20,41.00,29.23,280.00,9.00,0.00,30.08,M,10.00,14.00,SCT,M,M,M,11000.00,M,M,M,M,M,M,M,M,M,M,75.20,KCXP 120155Z AUTO 28009G14KT 10SM SCT110 24/05 A3008 RMK AO2,M
RNO,2023-09-12 01:55,-119.7711,39.4839,1341.00,80.00,39.00,23.08,290.00,14.00,0.00,30.04,1012.30,10.00,M,FEW,M,M,M,10000.00,M,M,M,M,M,M,M,M,M,M,78.78,KRNO 120155Z 29014KT 10SM FEW100 27/04 A3004 RMK AO2 LTG DSNT SE SLP123 T02670039,M
RTS,2023-09-12 01:55,-119.8764,39.6682,1539.00,75.20,30.20,19.05,290.00,11.00,0.00,30.11,M,10.00,M,CLR,M,M,M,M,M,M,M,M,M,M,M,M,M,M,75.20,KRTS 120155Z AUTO 29011KT 10SM CLR 24/M01 A3011 RMK AO2,M
MEV,2023-09-12 01:55,-119.7500,38.9963,1441.42,73.40,41.00,31.05,260.00,9.00,0.00,30.08,M,10.00,M,CLR,M,M,M,M,M,M,M,M,M,M,M,M,M,M,73.40,KMEV 120155Z AUTO 26009KT 10SM CLR 23/05 A3008 RMK AO2,M
HTH,2023-09-12 01:55,-118.6315,38.5448,1282.89,66.20,57.20,72.74,140.00,10.00,0.16,30.06,M,4.00,M,FEW,BKN,OVC,M,3100.00,4000.00,11000.00,M,HZ,M,M,M,M,M,M,66.20,KHTH 120155Z AUTO 14010KT 4SM HZ FEW031 BKN040 OVC110 19/14 A3006 RMK A01 P0016,M
BAM,2023-09-12 01:55,-116.8743,40.5990,1382.36,62.60,57.20,82.50,320.00,9.00,0.00,30.18,M,10.00,M,OVC,M,M,M,8000.00,M,M,M,M,M,M,M,M,M,M,62.60,KBAM 120155Z AUTO 32009KT 10SM OVC080 17/14 A3018 RMK AO1,M
TMT,2023-09-12 01:55,-117.1971,39.4643,1749.34,64.20,46.40,52.35,80.00,7.00,0.00,30.16,M,M,M,BKN,M,M,M,9000.00,M,M,M,M,M,M,M,M,M,M,64.20,KTMT 120155Z AUTO 08007KT BKN090 18/08 A3016 RMK AO2 T01790080 PWINO,M
INS,2023-09-12 01:55,-115.6733,36.5872,955.00,86.00,50.00,28.90,100.00,5.00,0.00,29.95,1009.90,10.00,M,FEW,M,M,M,9000.00,M,M,M,M,M,M,M,M,M,M,83.62,KINS 120155Z AUTO 10005KT 10SM FEW090 30/10 A2995 RMK AO2 SLP099 T03010101 $,M
LSV,2023-09-12 01:55,-115.0343,36.2362,570.00,91.00,50.00,24.68,80.00,7.00,0.00,29.83,1007.90,10.00,M,FEW,M,M,M,23000.00,M,M,M,M,M,M,M,M,M,M,87.99,KLSV 120155Z AUTO 08007KT 10SM FEW230 33/10 A2983 RMK AO2 SLP079 T03270101 $,M
EKO,2023-09-12 01:56,-115.7860,40.8242,1367.00,69.00,47.00,45.35,260.00,15.00,0.00,30.13,1016.90,10.00,25.00,FEW,M,M,M,12000.00,M,M,M,M,M,M,M,31.00,240.00,2023-09-12 01:08,69.00,KEKO 120156Z AUTO 26015G25KT 10SM FEW120 21/08 A3013 RMK AO2 PK WND 24031/0108 WSHFT 0106 SLP169 T02060083,M
WMC,2023-09-12 01:56,-117.8072,40.9019,1315.00,73.00,47.00,39.58,180.00,16.00,0.00,30.05,1014.70,10.00,23.00,FEW,M,M,M,11000.00,M,M,M,M,M,M,M,28.00,160.00,2023-09-12 01:26,73.00,KWMC 120156Z AUTO 18016G23KT 10SM FEW110 23/08 A3005 RMK AO2 PK WND 16028/0126 WSHFT 0121 LTG DSNT S SLP147 T02280083,M
NFL,2023-09-12 01:56,-118.7010,39.4166,1199.00,81.00,41.00,24.14,10.00,5.00,0.00,29.99,1012.50,10.00,M,FEW,SCT,SCT,M,7000.00,12000.00,25000.00,M,M,M,M,M,M,M,M,79.43,KNFL 120156Z 01005KT 10SM FEW070 SCT120 SCT250 27/05 A2999 RMK AO2 SLP125 CB DSNT W T02720050,M
HND,2023-09-12 01:56,-115.1344,35.9729,742.79,91.00,52.00,26.57,240.00,6.00,0.00,29.92,1012.10,10.00,M,CLR,M,M,M,M,M,M,M,M,M,M,M,M,M,M,88.35,KHND 120156Z 24006KT 10SM CLR 33/11 A2992 RMK AO2 SLP121 T03280111,M
LAS,2023-09-12 01:56,-115.1634,36.0719,663.00,92.00,51.00,24.82,290.00,5.00,0.00,29.88,1009.30,10.00,M,FEW,SCT,BKN,M,10000.00,15000.00,22000.00,M,M,M,M,M,M,M,M,89.11,KLAS 120156Z 29005KT 10SM FEW100 SCT150 BKN220 33/11 A2988 RMK AO2 SLP093 T03330106,M
05U,2023-09-12 02:10,-116.0051,39.6042,1811.23,60.80,48.20,63.15,320.00,7.00,0.00,30.24,M,10.00,M,FEW,BKN,OVC,M,4700.00,5500.00,7000.00,M,M,M,M,M,M,M,M,60.80,K05U 120210Z AUTO 32007KT 10SM FEW047 BKN055 OVC070 16/09 A3024 RMK A01,M
BVU,2023-09-12 02:15,-114.8611,35.9475,671.00,91.40,50.00,24.37,140.00,9.00,0.00,29.88,M,10.00,M,CLR,M,M,M,M,M,M,M,M,M,M,M,M,M,M,88.36,KBVU 120215Z AUTO 14009KT 10SM CLR 33/10 A2988 RMK AO2,M
CXP,2023-09-12 02:15,-119.7326,39.1923,1431.00,75.20,41.00,29.23,290.00,7.00,0.00,30.08,M,10.00,M,FEW,M,M,M,11000.00,M,M,M,M,M,M,M,M,M,M,75.20,KCXP 120215Z AUTO 29007KT 10SM FEW110 24/05 A3008 RMK AO2,M
RTS,2023-09-12 02:15,-119.8764,39.6682,1539.00,71.60,32.00,23.13,290.00,10.00,0.00,30.11,M,10.00,M,CLR,M,M,M,M,M,M,M,M,M,M,M,M,M,M,71.60,KRTS 120215Z AUTO 29010KT 10SM CLR 22/00 A3011 RMK AO2,M
MEV,2023-09-12 02:15,-119.7500,38.9963,1441.42,71.60,41.00,33.00,240.00,5.00,0.00,30.08,M,10.00,M,CLR,M,M,M,M,M,M,M,M,M,M,M,M,M,M,71.60,KMEV 120215Z AUTO 24005KT 10SM CLR 22/05 A3008 RMK AO2,M
HTH,2023-09-12 02:15,-118.6315,38.5448,1282.89,66.20,55.40,68.15,220.00,8.00,0.00,30.05,M,10.00,M,FEW,SCT,OVC,M,3600.00,6500.00,11000.00,M,M,M,M,M,M,M,M,66.20,KHTH 120215Z AUTO 22008KT 10SM FEW036 SCT065 OVC110 19/13 A3005 RMK A01,M
BAM,2023-09-12 02:15,-116.8743,40.5990,1382.36,60.80,55.40,82.37,300.00,12.00,0.00,30.16,M,10.00,M,OVC,M,M,M,8000.00,M,M,M,M,M,M,M,M,M,M,60.80,KBAM 120215Z AUTO 30012KT 10SM OVC080 16/13 A3016 RMK AO1,M
TMT,2023-09-12 02:15,-117.1971,39.4643,1749.34,63.00,45.30,52.37,120.00,6.00,0.00,30.16,M,M,M,SCT,M,M,M,9000.00,M,M,M,M,M,M,M,M,M,M,63.00,KTMT 120215Z AUTO 12006KT SCT090 17/07 A3016 RMK AO2 LTG DSNT SE THRU SW T01720074 PWINO,M
05U,2023-09-12 02:30,-116.0051,39.6042,1811.23,60.80,46.40,59.01,320.00,6.00,0.00,30.23,M,10.00,13.00,FEW,SCT,BKN,M,3600.00,5500.00,7500.00,M,M,M,M,M,M,M,M,60.80,K05U 120230Z AUTO 32006G13KT 10SM FEW036 SCT055 BKN075 16/08 A3023 RMK A01,M
BVU,2023-09-12 02:35,-114.8611,35.9475,671.00,89.60,50.00,25.79,160.00,5.00,0.00,29.88,M,10.00,M,CLR,M,M,M,M,M,M,M,M,M,M,M,M,M,M,86.70,KBVU 120235Z AUTO 16005KT 10SM CLR 32/10 A2988 RMK AO2,M
CXP,2023-09-12 02:35,-119.7326,39.1923,1431.00,73.40,41.00,31.05,280.00,4.00,0.00,30.09,M,10.00,M,SCT,M,M,M,11000.00,M,M,M,M,M,M,M,M,M,M,73.40,KCXP 120235Z AUTO 28004KT 10SM SCT110 23/05 A3009 RMK AO2,M
RTS,2023-09-12 02:35,-119.8764,39.6682,1539.00,69.80,33.80,26.43,280.00,9.00,0.00,30.12,M,10.00,M,CLR,M,M,M,M,M,M,M,M,M,M,M,M,M,M,69.80,KRTS 120235Z AUTO 28009KT 10SM CLR 21/01 A3012 RMK AO2,M
MEV,2023-09-12 02:35,-119.7500,38.9963,1441.42,71.60,41.00,33.00,280.00,9.00,0.00,30.08,M,10.00,M,CLR,M,M,M,M,M,M,M,M,M,M,M,M,M,M,71.60,KMEV 120235Z AUTO 28009KT 10SM CLR 22/05 A3008 RMK AO2,M
BAM,2023-09-12 02:35,-116.8743,40.5990,1382.36,62.60,55.40,77.29,280.00,11.00,0.00,30.13,M,10.00,M,OVC,M,M,M,9000.00,M,M,M,M,M,M,M,M,M,M,62.60,KBAM 120235Z AUTO 28011KT 10SM OVC090 17/13 A3013 RMK AO1,M
HTH,2023-09-12 02:35,-118.6315,38.5448,1282.89,68.00,57.20,68.35,180.00,8.00,0.00,30.06,M,10.00,13.00,FEW,BKN,OVC,M,7000.00,10000.00,12000.00,M,M,M,M,M,M,M,M,68.00,KHTH 120235Z AUTO 18008G13KT 10SM FEW070 BKN100 OVC120 20/14 A3006 RMK A01,M
TMT,2023-09-12 02:35,-117.1971,39.4643,1749.34,62.60,45.00,52.51,120.00,5.00,0.00,30.16,M,M,M,BKN,M,M,M,10000.00,M,M,M,M,M,M,M,M,M,M,62.60,KTMT 120235Z AUTO 12005KT BKN100 17/07 A3016 RMK AO2 LTG DSNT SE AND S T01700073 PWINO,M
05U,2023-09-12 02:50,-116.0051,39.6042,1811.23,59.00,46.40,62.92,0.00,0.00,0.00,30.22,M,10.00,M,FEW,SCT,SCT,M,7500.00,10000.00,12000.00,M,M,M,M,M,M,M,M,59.00,K05U 120250Z AUTO 00000KT 10SM FEW075 SCT100 SCT120 15/08 A3022 RMK A01,M
P68,2023-09-12 02:53,-116.0056,39.6014,1993.00,60.00,46.00,59.80,100.00,4.00,0.00,30.19,1016.80,M,M,M,M,M,M,M,M,M,M,M,M,M,M,M,M,M,60.00,KP68 120253Z AUTO 10004KT 16/08 A3019 RMK AO1 SLP168 T01560078 58002,M
DRA,2023-09-12 02:53,-116.0278,36.6206,1009.00,82.00,49.00,31.68,30.00,5.00,0.00,29.96,1010.00,10.00,M,CLR,M,M,M,M,M,M,M,M,M,M,M,M,M,M,80.62,KDRA 120253Z AUTO 03005KT 10SM CLR 28/09 A2996 RMK AO2 SLP100 T02780094 56004,M
ELY,2023-09-12 02:53,-114.8453,39.2950,1909.00,57.00,48.00,71.81,180.00,16.00,0.00,30.24,1017.50,10.00,26.00,BKN,BKN,M,M,8000.00,10000.00,M,M,M,M,M,M,33.00,180.00,2023-09-12 01:57,57.00,KELY 120253Z AUTO 18016G26KT 10SM BKN080 BKN100 14/09 A3024 RMK AO2 PK WND 18033/0157 SLP175 60001 T01390089 53006,M
VGT,2023-09-12 02:53,-115.1933,36.2111,667.00,92.00,51.00,24.82,240.00,6.00,0.00,29.87,1010.70,10.00,M,CLR,M,M,M,M,M,M,M,M,M,M,M,M,M,M,89.11,KVGT 120253Z 24006KT 10SM CLR 33/11 A2987 RMK AO2 SLP107 T03330106 55004,M
LOL,2023-09-12 02:53,-118.5701,40.0684,1192.43,73.00,47.00,39.58,80.00,10.00,0.00,30.00,1012.60,10.00,M,FEW,M,M,M,12000.00,M,M,M,M,M,M,M,M,M,M,73.00,KLOL 120253Z AUTO 08010KT 10SM FEW120 23/08 A3000 RMK AO2 SLP126 T02280083 53002,M
BVU,2023-09-12 02:55,-114.8611,35.9475,671.00,89.60,50.00,25.79,140.00,4.00,0.00,29.88,M,10.00,M,CLR,M,M,M,M,M,M,M,M,M,M,M,M,M,M,86.70,KBVU 120255Z AUTO 14004KT 10SM CLR 32/10 A2988 RMK AO2,M
CXP,2023-09-12 02:55,-119.7326,39.1923,1431.00,73.40,41.00,31.05,0.00,0.00,0.00,30.10,M,10.00,M,FEW,M,M,M,11000.00,M,M,M,M,M,M,M,M,M,M,73.40,KCXP 120255Z AUTO 00000KT 10SM FEW110 23/05 A3010 RMK AO2,M
RNO,2023-09-12 02:55,-119.7711,39.4839,1341.00,77.00,39.00,25.47,290.00,14.00,0.00,30.06,1012.90,10.00,M,FEW,M,M,M,10000.00,M,M,M,M,M,M,M,M,M,M,77.00,KRNO 120255Z 29014KT 10SM FEW100 25/04 A3006 RMK AO2 SLP129 T02500039 53008,M
RTS,2023-09-12 02:55,-119.8764,39.6682,1539.00,68.00,33.80,28.11,290.00,10.00,0.00,30.12,M,10.00,M,CLR,M,M,M,M,M,M,M,M,M,M,M,M,M,M,68.00,KRTS 120255Z AUTO 29010KT 10SM CLR 20/01 A3012 RMK AO2,M
MEV,2023-09-12 02:55,-119.7500,38.9963,1441.42,71.60,41.00,33.00,260.00,8.00,0.00,30.09,M,10.00,M,CLR,M,M,M,M,M,M,M,M,M,M,M,M,M,M,71.60,KMEV 120255Z AUTO 26008KT 10SM CLR 22/05 A3009 RMK AO2,M
HTH,2023-09-12 02:55,-118.6315,38.5448,1282.89,69.80,53.60,56.38,150.00,13.00,0.00,30.07,M,10.00,M,FEW,FEW,OVC,M,4600.00,6000.00,9500.00,M,M,M,M,M,M,M,M,69.80,KHTH 120255Z AUTO 15013KT 10SM FEW046 FEW060 OVC095 21/12 A3007 RMK A01,M
BAM,2023-09-12 02:55,-116.8743,40.5990,1382.36,64.40,53.60,67.95,340.00,4.00,0.00,30.12,M,7.00,16.00,SCT,SCT,OVC,M,5500.00,7500.00,10000.00,M,M,M,M,M,M,M,M,64.40,KBAM 120255Z AUTO 34004G16KT 7SM SCT055 SCT075 OVC100 18/12 A3012 RMK AO1,M
TMT,2023-09-12 02:55,-117.1971,39.4643,1749.34,61.50,45.70,56.06,0.00,0.00,0.00,30.17,M,M,M,BKN,M,M,M,9000.00,M,M,M,M,M,M,M,M,M,M,61.50,KTMT 120255Z AUTO 00000KT BKN090 16/08 A3017 RMK AO2 T01640076 PWINO,M
INS,2023-09-12 02:55,-115.6733,36.5872,955.00,84.20,47.50,27.89,220.00,6.00,0.00,29.95,1009.90,10.00,M,SCT,OVC,M,M,19000.00,21000.00,M,M,M,M,M,M,M,M,M,81.97,KINS 120255Z AUTO 22006KT 10SM SCT190 OVC210 29/09 A2995 RMK AO2 SLP099 T02900086 55000 $,M
LSV,2023-09-12 02:55,-115.0343,36.2362,570.00,89.60,49.00,24.84,100.00,9.00,0.00,29.83,1007.80,10.00,M,CLR,M,M,M,M,M,M,M,M,M,M,M,M,M,M,86.55,KLSV 120255Z COR AUTO 10009KT 10SM CLR 32/10 A2983 RMK AO2 SLP078 T03200095 55005 $ COR 0303,M
EKO,2023-09-12 02:56,-115.7860,40.8242,1367.00,67.00,45.00,45.04,270.00,9.00,0.00,30.15,1017.50,10.00,21.00,CLR,M,M,M,M,M,M,M,M,M,M,M,M,M,M,67.00,KEKO 120256Z AUTO 27009G21KT 10SM CLR 19/07 A3015 RMK AO2 SLP175 T01940072 53019,M
WMC,2023-09-12 02:56,-117.8072,40.9019,1315.00,71.00,46.00,40.78,180.00,21.00,0.00,30.06,1014.60,10.00,31.00,BKN,M,M,M,10000.00,M,M,M,M,M,M,M,31.00,180.00,2023-09-12 02:48,71.00,KWMC 120256Z AUTO 18021G31KT 10SM BKN100 22/08 A3006 RMK AO2 PK WND 18031/0248 SLP146 T02170078 53009,M
NFL,2023-09-12 02:56,-118.7010,39.4166,1199.00,75.00,42.00,30.59,M,5.00,0.00,30.00,1013.00,10.00,M,FEW,SCT,SCT,M,7000.00,12000.00,25000.00,M,M,M,M,M,M,M,M,75.00,KNFL 120256Z VRB05KT 10SM FEW070 SCT120 SCT250 24/06 A3000 RMK AO2 SLP130 CB DSNT W T02390056 53002,M
HND,2023-09-12 02:56,-115.1344,35.9729,742.79,89.00,52.00,28.30,210.00,4.00,0.00,29.93,1012.30,10.00,M,CLR,M,M,M,M,M,M,M,M,M,M,M,M,M,M,86.49,KHND 120256Z 21004KT 10SM CLR 32/11 A2993 RMK AO2 SLP123 T03170111 55001,M
LAS,2023-09-12 02:56,-115.1634,36.0719,663.00,91.00,52.00,26.57,250.00,6.00,0.00,29.89,1009.50,10.00,M,FEW,SCT,BKN,M,10000.00,15000.00,22000.00,M,M,M,M,M,M,M,M,88.35,KLAS 120256Z 25006KT 10SM FEW100 SCT150 BKN220 33/11 A2989 RMK AO2 SLP095 T03280111 55002,M
05U,2023-09-12 03:10,-116.0051,39.6042,1811.23,59.00,48.20,67.33,180.00,3.00,0.00,30.22,M,10.00,M,SCT,M,M,M,11000.00,M,M,M,M,M,M,M,M,M,M,59.00,K05U 120310Z AUTO 18003KT 10SM SCT110 15/09 A3022 RMK A01,M
BVU,2023-09-12 03:15,-114.8611,35.9475,671.00,86.00,53.60,33.01,60.00,3.00,0.00,29.89,M,10.00,M,CLR,M,M,M,M,M,M,M,M,M,M,M,M,M,M,84.18,KBVU 120315Z AUTO 06003KT 10SM CLR 30/12 A2989 RMK AO2,M
CXP,2023-09-12 03:15,-119.7326,39.1923,1431.00,71.60,41.00,33.00,0.00,0.00,0.00,30.11,M,10.00,M,CLR,M,M,M,M,M,M,M,M,M,M,M,M,M,M,71.60,KCXP 120315Z AUTO 00000KT 10SM CLR 22/05 A3011 RMK AO2,M
RTS,2023-09-12 03:15,-119.8764,39.6682,1539.00,68.00,33.80,28.11,290.00,8.00,0.00,30.13,M,10.00,14.00,CLR,M,M,M,M,M,M,M,M,M,M,M,M,M,M,68.00,KRTS 120315Z AUTO 29008G14KT 10SM CLR 20/01 A3013 RMK AO2,M
MEV,2023-09-12 03:15,-119.7500,38.9963,1441.42,68.00,42.80,40.00,0.00,0.00,0.00,30.10,M,10.00,M,CLR,M,M,M,M,M,M,M,M,M,M,M,M,M,M,68.00,KMEV 120315Z AUTO 00000KT 10SM CLR 20/06 A3010 RMK AO2,M
HTH,2023-09-12 03:15,-118.6315,38.5448,1282.89,68.00,53.60,59.97,140.00,9.00,0.00,30.08,M,10.00,M,FEW,SCT,BKN,M,1800.00,4000.00,5000.00,M,M,M,M,M,M,M,M,68.00,KHTH 120315Z AUTO 14009KT 10SM FEW018 SCT040 BKN050 20/12 A3008 RMK A01,M
BAM,2023-09-12 03:15,-116.8743,40.5990,1382.36,60.80,55.40,82.37,240.00,8.00,0.00,30.12,M,10.00,M,OVC,M,M,M,11000.00,M,M,M,M,M,M,M,M,M,M,60.80,KBAM 120315Z AUTO 24008KT 10SM OVC110 16/13 A3012 RMK AO1,M
TMT,2023-09-12 03:15,-117.1971,39.4643,1749.34,62.20,45.00,53.26,350.00,7.00,0.00,30.19,M,M,M,BKN,BKN,M,M,9000.00,11000.00,M,M,M,M,M,M,M,M,M,62.20,KTMT 120315Z AUTO 35007KT BKN090 BKN110 17/07 A3019 RMK AO2 T01680073 PWINO,M
05U,2023-09-12 03:30,-116.0051,39.6042,1811.23,57.20,46.40,67.12,0.00,0.00,0.00,30.22,M,10.00,M,FEW,FEW,BKN,M,5500.00,7500.00,11000.00,M,M,M,M,M,M,M,M,57.20,K05U 120330Z AUTO 00000KT 10SM FEW055 FEW075 BKN110 14/08 A3022 RMK A01,M
BVU,2023-09-12 03:35,-114.8611,35.9475,671.00,87.80,51.80,29.18,120.00,5.00,0.00,29.89,M,10.00,M,CLR,M,M,M,M,M,M,M,M,M,M,M,M,M,M,85.39,KBVU 120335Z AUTO 12005KT 10SM CLR 31/11 A2989 RMK AO2,M
CXP,2023-09-12 03:35,-119.7326,39.1923,1431.00,69.80,42.80,37.61,0.00,0.00,0.00,30.12,M,10.00,M,CLR,M,M,M,M,M,M,M,M,M,M,M,M,M,M,69.80,KCXP 120335Z AUTO 00000KT 10SM CLR 21/06 A3012 RMK AO2,M
RTS,2023-09-12 03:35,-119.8764,39.6682,1539.00,66.20,33.80,29.92,290.00,6.00,0.00,30.14,M,10.00,M,CLR,M,M,M,M,M,M,M,M,M,M,M,M,M,M,66.20,KRTS 120335Z AUTO 29006KT 10SM CLR 19/01 A3014 RMK AO2,M
MEV,2023-09-12 03:35,-119.7500,38.9963,1441.42,68.00,41.00,37.32,230.00,5.00,0.00,30.11,M,10.00,M,CLR,M,M,M,M,M,M,M,M,M,M,M,M,M,M,68.00,KMEV 120335Z AUTO 23005KT 10SM CLR 20/05 A3011 RMK AO2,M
HTH,2023-09-12 03:35,-118.6315,38.5448,1282.89,68.00,55.40,64.04,170.00,5.00,0.00,30.09,M,10.00,M,FEW,BKN,OVC,M,1700.00,7000.00,12000.00,M,M,M,M,M,M,M,M,68.00,KHTH 120335Z AUTO 17005KT 10SM FEW017 BKN070 OVC120 20/13 A3009 RMK A01,M
BAM,2023-09-12 03:35,-116.8743,40.5990,1382.36,60.80,57.20,87.92,300.00,3.00,0.00,30.12,M,10.00,M,OVC,M,M,M,11000.00,M,M,M,M,M,M,M,M,M,M,60.80,KBAM 120335Z AUTO 30003KT 10SM OVC110 16/14 A3012 RMK AO1,M
TMT,2023-09-12 03:35,-117.1971,39.4643,1749.34,58.00,50.00,74.64,50.00,6.00,0.08,30.19,M,M,M,SCT,SCT,OVC,M,2400.00,3700.00,9000.00,M,M,M,M,M,M,M,M,58.00,KTMT 120335Z AUTO 05006KT SCT024 SCT037 OVC090 15/10 A3019 RMK AO2 LTG DSNT SW P0008 T01450099 PWINO,M
05U,2023-09-12 03:50,-116.0051,39.6042,1811.23,55.40,46.40,71.64,10.00,3.00,0.00,30.23,M,10.00,M,SCT,M,M,M,12000.00,M,M,M,M,M,M,M,M,M,M,55.40,K05U 120350Z AUTO 01003KT 10SM SCT120 13/08 A3023 RMK A01,M
P68,2023-09-12 03:53,-116.0056,39.6014,1993.00,56.00,47.00,71.70,220.00,4.00,0.00,30.20,1016.70,M,M,M,M,M,M,M,M,M,M,M,M,M,M,M,M,M,56.00,KP68 120353Z AUTO 22004KT 13/08 A3020 RMK AO1 SLP167 T01330083,M
DRA,2023-09-12 03:53,-116.0278,36.6206,1009.00,81.00,50.00,33.97,90.00,4.00,0.00,29.97,1010.10,10.00,M,CLR,M,M,M,M,M,M,M,M,M,M,M,M,M,M,80.12,KDRA 120353Z AUTO 09004KT 10SM CLR 27/10 A2997 RMK AO2 SLP101 T02720100,M
ELY,2023-09-12 03:53,-114.8453,39.2950,1909.00,56.00,48.00,74.45,180.00,16.00,0.00,30.25,1016.70,10.00,22.00,BKN,M,M,M,11000.00,M,M,M,M,M,M,M,M,M,M,56.00,KELY 120353Z AUTO 18016G22KT 10SM BKN110 13/09 A3025 RMK AO2 SLP167 T01330089,M
VGT,2023-09-12 03:53,-115.1933,36.2111,667.00,91.00,52.00,26.57,0.00,0.00,0.00,29.88,1010.90,10.00,M,CLR,M,M,M,M,M,M,M,M,M,M,M,M,M,M,88.35,KVGT 120353Z 00000KT 10SM CLR 33/11 A2988 RMK AO2 SLP109 T03280111,M
LOL,2023-09-12 03:53,-118.5701,40.0684,1192.43,71.00,48.00,43.98,0.00,0.00,T,30.03,1013.80,10.00,M,FEW,BKN,OVC,M,6000.00,10000.00,12000.00,M,M,M,M,M,M,M,M,71.00,KLOL 120353Z AUTO 00000KT 10SM FEW060 BKN100 OVC120 22/09 A3003 RMK AO2 RAB38E47 SLP138 P0000 T02170089,M
BVU,2023-09-12 03:55,-114.8611,35.9475,671.00,87.80,51.80,29.18,0.00,0.00,0.00,29.89,M,10.00,M,CLR,M,M,M,M,M,M,M,M,M,M,M,M,M,M,85.39,KBVU 120355Z AUTO 00000KT 10SM CLR 31/11 A2989 RMK AO2,M
CXP,2023-09-12 03:55,-119.7326,39.1923,1431.00,68.00,42.80,40.00,M,3.00,0.00,30.12,M,10.00,M,CLR,M,M,M,M,M,M,M,M,M,M,M,M,M,M,68.00,KCXP 120355Z AUTO VRB03KT 10SM CLR 20/06 A3012 RMK AO2,M
RNO,2023-09-12 03:55,-119.7711,39.4839,1341.00,75.00,38.00,26.18,280.00,10.00,0.00,30.08,1013.70,10.00,17.00,CLR,M,M,M,M,M,M,M,M,M,M,M,M,M,M,75.00,KRNO 120355Z 28010G17KT 10SM CLR 24/03 A3008 RMK AO2 SLP137 T02390033,M
RTS,2023-09-12 03:55,-119.8764,39.6682,1539.00,64.40,33.80,31.85,300.00,8.00,0.00,30.14,M,10.00,M,CLR,M,M,M,M,M,M,M,M,M,M,M,M,M,M,64.40,KRTS 120355Z AUTO 30008KT 10SM CLR 18/01 A3014 RMK AO2,M
MEV,2023-09-12 03:55,-119.7500,38.9963,1441.42,68.00,41.00,37.32,280.00,5.00,0.00,30.11,M,10.00,M,CLR,M,M,M,M,M,M,M,M,M,M,M,M,M,M,68.00,KMEV 120355Z AUTO 28005KT 10SM CLR 20/05 A3011 RMK AO2,M
HTH,2023-09-12 03:55,-118.6315,38.5448,1282.89,68.00,50.00,52.51,0.00,0.00,0.00,30.09,M,10.00,M,FEW,BKN,M,M,9000.00,12000.00,M,M,M,M,M,M,M,M,M,68.00,KHTH 120355Z AUTO 00000KT 10SM FEW090 BKN120 20/10 A3009 RMK A01,M
BAM,2023-09-12 03:55,-116.8743,40.5990,1382.36,60.80,55.40,82.37,90.00,4.00,0.00,30.13,M,10.00,M,BKN,M,M,M,11000.00,M,M,M,M,M,M,M,M,M,M,60.80,KBAM 120355Z AUTO 09004KT 10SM BKN110 16/13 A3013 RMK AO1,M
TMT,2023-09-12 03:55,-117.1971,39.4643,1749.34,57.60,52.00,81.55,10.00,7.00,0.08,30.19,M,M,M,SCT,SCT,BKN,M,3000.00,5500.00,9000.00,M,M,M,M,M,M,M,M,57.60,KTMT 120355Z AUTO 01007KT SCT030 SCT055 BKN090 14/11 A3019 RMK AO2 LTG DSNT SE THRU SW P0008 T01420112 PWINO,M
INS,2023-09-12 03:55,-115.6733,36.5872,955.00,82.40,48.00,30.12,220.00,4.00,0.00,29.95,1009.70,10.00,M,BKN,OVC,M,M,18000.00,20000.00,M,M,M,M,M,M,M,M,M,80.78,KINS 120355Z AUTO 22004KT 10SM BKN180 OVC200 28/09 A2995 RMK AO2 SLP097 T02800088 $,M
LSV,2023-09-12 03:55,-115.0343,36.2362,570.00,89.00,48.60,24.94,80.00,12.00,0.00,M,M,10.00,M,CLR,M,M,M,M,M,M,M,M,M,M,M,M,M,M,85.96,KLSV 120355Z 08012KT 10SM CLR 32/09 A29/83 RMK AO2A SLPNO WND DATA ESTMD ALSTG ESTMD T03170092 $,M
EKO,2023-09-12 03:56,-115.7860,40.8242,1367.00,63.00,47.00,55.85,180.00,4.00,0.00,30.16,1017.10,10.00,M,FEW,M,M,M,12000.00,M,M,M,M,M,M,M,M,M,M,63.00,KEKO 120356Z AUTO 18004KT 10SM FEW120 17/08 A3016 RMK AO2 SLP171 T01720083,M
WMC,2023-09-12 03:56,-117.8072,40.9019,1315.00,67.00,46.00,46.78,170.00,12.00,0.00,30.07,1014.50,10.00,M,CLR,M,M,M,M,M,M,M,M,M,M,M,29.00,170.00,2023-09-12 03:11,67.00,KWMC 120356Z AUTO 17012KT 10SM CLR 19/08 A3007 RMK AO2 PK WND 17029/0311 SLP145 T01940078,M
NFL,2023-09-12 03:56,-118.7010,39.4166,1199.00,77.00,42.00,28.62,280.00,10.00,0.00,30.02,1013.40,10.00,M,FEW,FEW,M,M,7000.00,25000.00,M,M,M,M,M,M,M,M,M,77.00,KNFL 120356Z 28010KT 10SM FEW070 FEW250 25/06 A3002 RMK AO2 SLP134 T02500056,M
HND,2023-09-12 03:56,-115.1344,35.9729,742.79,87.00,53.00,31.28,210.00,4.00,0.00,29.94,1012.40,10.00,M,CLR,M,M,M,M,M,M,M,M,M,M,M,M,M,M,84.91,KHND 120356Z AUTO 21004KT 10SM CLR 31/12 A2994 RMK AO2 SLP124 T03060117,M
LAS,2023-09-12 03:56,-115.1634,36.0719,663.00,90.00,52.00,27.42,230.00,5.00,0.00,29.89,1009.60,10.00,M,FEW,SCT,BKN,M,10000.00,15000.00,22000.00,M,M,M,M,M,M,M,M,87.40,KLAS 120356Z 23005KT 10SM FEW100 SCT150 BKN220 32/11 A2989 RMK AO2 SLP096 T03220111,M
05U,2023-09-12 04:10,-116.0051,39.6042,1811.23,55.40,46.40,71.64,20.00,5.00,0.00,30.23,M,10.00,M,CLR,M,M,M,M,M,M,M,M,M,M,M,M,M,M,55.40,K05U 120410Z AUTO 02005KT 10SM CLR 13/08 A3023 RMK A01,M
BVU,2023-09-12 04:15,-114.8611,35.9475,671.00,84.20,53.60,34.97,310.00,3.00,0.00,29.90,M,10.00,M,CLR,M,M,M,M,M,M,M,M,M,M,M,M,M,M,82.76,KBVU 120415Z AUTO 31003KT 10SM CLR 29/12 A2990 RMK AO2,M
CXP,2023-09-12 04:15,-119.7326,39.1923,1431.00,68.00,42.80,40.00,100.00,3.00,0.00,30.13,M,10.00,M,CLR,M,M,M,M,M,M,M,M,M,M,M,M,M,M,68.00,KCXP 120415Z AUTO 10003KT 10SM CLR 20/06 A3013 RMK AO2,M
BAM,2023-09-12 04:15,-116.8743,40.5990,1382.36,60.80,55.40,82.37,100.00,8.00,0.00,30.13,M,10.00,M,SCT,M,M,M,11000.00,M,M,M,M,M,M,M,M,M,M,60.80,KBAM 120415Z AUTO 10008KT 10SM SCT110 16/13 A3013 RMK AO1,M
TMT,2023-09-12 04:15,-117.1971,39.4643,1749.34,57.00,50.50,78.83,0.00,0.00,0.00,30.20,M,M,M,SCT,M,M,M,9000.00,M,M,M,M,M,M,M,M,M,M,57.00,KTMT 120415Z AUTO 00000KT SCT090 14/10 A3020 RMK AO2 LTG DSNT S T01380103 PWINO,M
RTS,2023-09-12 04:15,-119.8764,39.6682,1539.00,66.20,33.80,29.92,290.00,10.00,0.00,30.15,M,10.00,M,CLR,M,M,M,M,M,M,M,M,M,M,M,M,M,M,66.20,KRTS 120415Z AUTO 29010KT 10SM CLR 19/01 A3015 RMK AO2,M
MEV,2023-09-12 04:15,-119.7500,38.9963,1441.42,68.00,39.20,34.80,230.00,5.00,0.00,30.12,M,10.00,M,CLR,M,M,M,M,M,M,M,M,M,M,M,M,M,M,68.00,KMEV 120415Z AUTO 23005KT 10SM CLR 20/04 A3012 RMK AO2,M
HTH,2023-09-12 04:15,-118.6315,38.5448,1282.89,69.80,50.00,49.37,0.00,0.00,0.00,30.09,M,10.00,M,FEW,M,M,M,12000.00,M,M,M,M,M,M,M,M,M,M,69.80,KHTH 120415Z AUTO 00000KT 10SM FEW120 21/10 A3009 RMK A01,M
05U,2023-09-12 04:30,-116.0051,39.6042,1811.23,55.40,46.40,71.64,10.00,9.00,0.00,30.24,M,10.00,M,SCT,M,M,M,11000.00,M,M,M,M,M,M,M,M,M,M,55.40,K05U 120430Z AUTO 01009KT 10SM SCT110 13/08 A3024 RMK A01,M
BVU,2023-09-12 04:35,-114.8611,35.9475,671.00,86.00,51.80,30.90,0.00,0.00,0.00,29.89,M,10.00,M,CLR,M,M,M,M,M,M,M,M,M,M,M,M,M,M,83.87,KBVU 120435Z AUTO 00000KT 10SM CLR 30/11 A2989 RMK AO2,M
CXP,2023-09-12 04:35,-119.7326,39.1923,1431.00,68.00,41.00,37.32,0.00,0.00,0.00,30.13,M,10.00,M,CLR,M,M,M,M,M,M,M,M,M,M,M,M,M,M,68.00,KCXP 120435Z AUTO 00000KT 10SM CLR 20/05 A3013 RMK AO2,M
RTS,2023-09-12 04:35,-119.8764,39.6682,1539.00,64.40,33.80,31.85,290.00,7.00,0.00,30.15,M,10.00,M,CLR,M,M,M,M,M,M,M,M,M,M,M,M,M,M,64.40,KRTS 120435Z AUTO 29007KT 10SM CLR 18/01 A3015 RMK AO2,M
MEV,2023-09-12 04:35,-119.7500,38.9963,1441.42,64.40,41.00,42.28,0.00,0.00,0.00,30.12,M,10.00,M,FEW,M,M,M,10000.00,M,M,M,M,M,M,M,M,M,M,64.40,KMEV 120435Z AUTO 00000KT 10SM FEW100 18/05 A3012 RMK AO2,M
HTH,2023-09-12 04:35,-118.6315,38.5448,1282.89,64.40,57.20,77.45,210.00,6.00,0.00,30.09,M,10.00,M,FEW,M,M,M,12000.00,M,M,M,M,M,M,M,M,M,M,64.40,KHTH 120435Z AUTO 21006KT 10SM FEW120 18/14 A3009 RMK A01,M
BAM,2023-09-12 04:35,-116.8743,40.5990,1382.36,60.80,55.40,82.37,70.00,8.00,0.00,30.13,M,10.00,M,CLR,M,M,M,M,M,M,M,M,M,M,M,M,M,M,60.80,KBAM 120435Z AUTO 07008KT 10SM CLR 16/13 A3013 RMK AO1,M
TMT,2023-09-12 04:35,-117.1971,39.4643,1749.34,55.00,51.80,88.93,0.00,0.00,0.00,30.19,M,M,M,M,M,M,M,M,M,M,M,M,M,M,M,M,M,M,55.00,KTMT 120435Z AUTO 00000KT 13/11 A3019 RMK AO2 LTG DSNT E T01280110 PWINO,M
05U,2023-09-12 04:50,-116.0051,39.6042,1811.23,55.40,48.20,76.66,0.00,0.00,0.00,30.24,M,10.00,M,FEW,M,M,M,11000.00,M,M,M,M,M,M,M,M,M,M,55.40,K05U 120450Z AUTO 00000KT 10SM FEW110 13/09 A3024 RMK A01,M
P68,2023-09-12 04:53,-116.0056,39.6014,1993.00,56.00,48.00,74.45,220.00,5.00,0.00,30.21,1016.10,M,M,M,M,M,M,M,M,M,M,M,M,M,M,M,M,M,56.00,KP68 120453Z AUTO 22005KT 13/09 A3021 RMK AO1 SLP161 T01330089,M
DRA,2023-09-12 04:53,-116.0278,36.6206,1009.00,76.00,52.00,43.13,0.00,0.00,0.00,29.98,1010.30,10.00,M,CLR,M,M,M,M,M,M,M,M,M,M,M,M,M,M,76.00,KDRA 120453Z AUTO 00000KT 10SM CLR 24/11 A2998 RMK AO2 SLP103 T02440111,M
ELY,2023-09-12 04:53,-114.8453,39.2950,1909.00,57.00,46.00,66.59,200.00,10.00,0.00,30.23,1015.20,10.00,M,SCT,BKN,M,M,10000.00,12000.00,M,M,M,M,M,M,M,M,M,57.00,KELY 120453Z AUTO 20010KT 10SM SCT100 BKN120 14/08 A3023 RMK AO2 SLP152 T01390078,M
VGT,2023-09-12 04:53,-115.1933,36.2111,667.00,89.00,52.00,28.30,140.00,3.00,0.00,29.88,1010.80,10.00,M,CLR,M,M,M,M,M,M,M,M,M,M,M,M,M,M,86.49,KVGT 120453Z AUTO 14003KT 10SM CLR 32/11 A2988 RMK AO2 SLP108 T03170111,M
LOL,2023-09-12 04:53,-118.5701,40.0684,1192.43,73.00,45.00,36.70,360.00,7.00,0.00,30.05,1014.40,10.00,M,FEW,M,M,M,12000.00,M,M,M,M,M,M,M,M,M,M,73.00,KLOL 120453Z AUTO 36007KT 10SM FEW120 23/07 A3005 RMK AO2 SLP144 T02280072,M
RTS,2023-09-12 04:55,-119.8764,39.6682,1539.00,64.40,33.80,31.85,290.00,7.00,0.00,30.16,M,10.00,M,CLR,M,M,M,M,M,M,M,M,M,M,M,M,M,M,64.40,KRTS 120455Z AUTO 29007KT 10SM CLR 18/01 A3016 RMK AO2,M
MEV,2023-09-12 04:55,-119.7500,38.9963,1441.42,59.00,41.00,51.18,140.00,9.00,0.00,30.12,M,10.00,M,FEW,M,M,M,10000.00,M,M,M,M,M,M,M,M,M,M,59.00,KMEV 120455Z AUTO 14009KT 10SM FEW100 15/05 A3012 RMK AO2,M
HTH,2023-09-12 04:55,-118.6315,38.5448,1282.89,64.40,55.40,72.56,160.00,4.00,0.00,30.09,M,10.00,M,SCT,M,M,M,11000.00,M,M,M,M,M,M,M,M,M,M,64.40,KHTH 120455Z AUTO 16004KT 10SM SCT110 18/13 A3009 RMK A01,M
BVU,2023-09-12 04:55,-114.8611,35.9475,671.00,87.80,50.00,27.29,120.00,5.00,0.00,29.89,M,10.00,M,CLR,M,M,M,M,M,M,M,M,M,M,M,M,M,M,85.11,KBVU 120455Z AUTO 12005KT 10SM CLR 31/10 A2989 RMK AO2,M
CXP,2023-09-12 04:55,-119.7326,39.1923,1431.00,66.20,42.80,42.57,80.00,3.00,0.00,30.13,M,10.00,M,CLR,M,M,M,M,M,M,M,M,M,M,M,M,M,M,66.20,KCXP 120455Z AUTO 08003KT 10SM CLR 19/06 A3013 RMK AO2,M
RNO,2023-09-12 04:55,-119.7711,39.4839,1341.00,72.00,39.00,30.12,0.00,0.00,0.00,30.10,1014.20,10.00,M,CLR,M,M,M,M,M,M,M,M,M,M,M,M,M,M,72.00,KRNO 120455Z 00000KT 10SM CLR 22/04 A3010 RMK AO2 SLP142 T02220039,M
LSV,2023-09-12 04:55,-115.0343,36.2362,570.00,87.80,48.20,25.52,90.00,9.00,0.00,29.84,M,10.00,M,CLR,M,M,M,M,M,M,M,M,M,M,M,M,M,M,84.87,KLSV 120455Z 09009KT 10SM CLR 31/09 A2984 RMK AO2A SLPNO WND DATA ESTMD ALSTG ESTMD $,M
BAM,2023-09-12 04:55,-116.8743,40.5990,1382.36,62.60,53.60,72.38,150.00,5.00,0.00,30.14,M,10.00,M,CLR,M,M,M,M,M,M,M,M,M,M,M,M,M,M,62.60,KBAM 120455Z AUTO 15005KT 10SM CLR 17/12 A3014 RMK AO1,M
TMT,2023-09-12 04:55,-117.1971,39.4643,1749.34,53.20,50.00,88.85,320.00,3.00,0.00,30.20,M,M,M,M,M,M,M,M,M,M,M,M,M,M,M,M,M,M,53.20,KTMT 120455Z AUTO 32003KT 12/10 A3020 RMK AO2 T01180100 PWINO,M
INS,2023-09-12 04:55,-115.6733,36.5872,955.00,82.00,46.40,28.73,0.00,0.00,0.00,29.96,1009.70,10.00,M,FEW,BKN,M,M,17000.00,20000.00,M,M,M,M,M,M,M,M,M,80.39,KINS 120455Z AUTO 00000KT 10SM FEW170 BKN200 28/08 A2996 RMK AO2 SLP097 T02770080 $,M
LAS,2023-09-12 04:56,-115.1634,36.0719,663.00,88.00,53.00,30.30,210.00,3.00,0.00,29.89,1009.40,10.00,M,FEW,SCT,BKN,M,10000.00,15000.00,21000.00,M,M,M,M,M,M,M,M,85.78,KLAS 120456Z 21003KT 10SM FEW100 SCT150 BKN210 31/12 A2989 RMK AO2 SLP094 T03110117,M
EKO,2023-09-12 04:56,-115.7860,40.8242,1367.00,64.00,47.00,53.92,0.00,0.00,0.00,30.15,1016.30,10.00,M,BKN,M,M,M,11000.00,M,M,M,M,M,M,M,M,M,M,64.00,KEKO 120456Z AUTO 00000KT 10SM BKN110 18/08 A3015 RMK AO2 SLP163 T01780083,M
WMC,2023-09-12 04:56,-117.8072,40.9019,1315.00,68.00,43.00,40.31,160.00,5.00,0.00,30.07,1014.00,10.00,M,CLR,M,M,M,M,M,M,M,M,M,M,M,M,M,M,68.00,KWMC 120456Z AUTO 16005KT 10SM CLR 20/06 A3007 RMK AO2 SLP140 T02000061,M
NFL,2023-09-12 04:56,-118.7010,39.4166,1199.00,74.00,44.00,34.15,200.00,9.00,0.00,30.05,1014.40,10.00,M,FEW,FEW,M,M,7000.00,25000.00,M,M,M,M,M,M,M,M,M,74.00,KNFL 120456Z 20009KT 10SM FEW070 FEW250 23/07 A3005 RMK AO2 SLP144 T02330067,M
HND,2023-09-12 04:56,-115.1344,35.9729,742.79,85.00,54.00,34.59,150.00,4.00,0.00,29.93,1012.20,10.00,M,CLR,M,M,M,M,M,M,M,M,M,M,M,M,M,M,83.45,KHND 120456Z AUTO 15004KT 10SM CLR 29/12 A2993 RMK AO2 SLP122 T02940122,M
05U,2023-09-12 05:10,-116.0051,39.6042,1811.23,55.40,48.20,76.66,270.00,6.00,0.00,30.23,M,10.00,M,BKN,M,M,M,11000.00,M,M,M,M,M,M,M,M,M,M,55.40,K05U 120510Z AUTO 27006KT 10SM BKN110 13/09 A3023 RMK A01,M
HTH,2023-09-12 05:10,-118.6315,38.5448,1282.89,64.40,55.40,72.56,120.00,7.00,0.00,30.09,M,10.00,M,FEW,M,M,M,12000.00,M,M,M,M,M,M,M,M,M,M,64.40,KHTH 120510Z AUTO 12007KT 10SM FEW120 18/13 A3009 RMK A01,M
BVU,2023-09-12 05:15,-114.8611,35.9475,671.00,82.40,55.40,39.58,0.00,0.00,0.00,29.89,M,10.00,M,CLR,M,M,M,M,M,M,M,M,M,M,M,M,M,M,81.75,KBVU 120515Z AUTO 00000KT 10SM CLR 28/13 A2989 RMK AO2,M
CXP,2023-09-12 05:15,-119.7326,39.1923,1431.00,66.20,41.00,39.72,0.00,0.00,0.00,30.13,M,10.00,M,CLR,M,M,M,M,M,M,M,M,M,M,M,M,M,M,66.20,KCXP 120515Z AUTO 00000KT 10SM CLR 19/05 A3013 RMK AO2,M
RTS,2023-09-12 05:15,-119.8764,39.6682,1539.00,62.60,33.80,33.93,310.00,7.00,0.00,30.16,M,10.00,M,CLR,M,M,M,M,M,M,M,M,M,M,M,M,M,M,62.60,KRTS 120515Z AUTO 31007KT 10SM CLR 17/01 A3016 RMK AO2,M
MEV,2023-09-12 05:15,-119.7500,38.9963,1441.42,60.80,41.00,48.00,130.00,7.00,0.00,30.13,M,10.00,M,CLR,M,M,M,M,M,M,M,M,M,M,M,M,M,M,60.80,KMEV 120515Z AUTO 13007KT 10SM CLR 16/05 A3013 RMK AO2,M
BAM,2023-09-12 05:15,-116.8743,40.5990,1382.36,60.80,53.60,77.14,130.00,6.00,0.00,30.13,M,10.00,M,CLR,M,M,M,M,M,M,M,M,M,M,M,M,M,M,60.80,KBAM 120515Z AUTO 13006KT 10SM CLR 16/12 A3013 RMK AO1,M
TMT,2023-09-12 05:15,-117.1971,39.4643,1749.34,53.00,49.30,87.20,90.00,3.00,0.00,30.20,M,M,M,M,M,M,M,M,M,M,M,M,M,M,M,M,M,M,53.00,KTMT 120515Z AUTO 09003KT 12/10 A3020 RMK AO2 T01170096 PWINO,M
05U,2023-09-12 05:30,-116.0051,39.6042,1811.23,53.60,48.20,81.87,0.00,0.00,0.00,30.23,M,10.00,M,BKN,M,M,M,11000.00,M,M,M,M,M,M,M,M,M,M,53.60,K05U 120530Z AUTO 00000KT 10SM BKN110 12/09 A3023 RMK A01,M
TMT,2023-09-12 05:35,-117.1971,39.4643,1749.34,51.40,49.50,93.19,230.00,4.00,0.00,30.21,M,M,M,M,M,M,M,M,M,M,M,M,M,M,M,M,M,M,51.40,KTMT 120535Z AUTO 23004KT 11/10 A3021 RMK AO2 T01080097 PWINO,M
BVU,2023-09-12 05:35,-114.8611,35.9475,671.00,84.20,53.60,34.97,0.00,0.00,0.00,29.89,M,10.00,M,CLR,M,M,M,M,M,M,M,M,M,M,M,M,M,M,82.76,KBVU 120535Z AUTO 00000KT 10SM CLR 29/12 A2989 RMK AO2,M
CXP,2023-09-12 05:35,-119.7326,39.1923,1431.00,64.40,41.00,42.28,0.00,0.00,0.00,30.13,M,10.00,M,CLR,M,M,M,M,M,M,M,M,M,M,M,M,M,M,64.40,KCXP 120535Z AUTO 00000KT 10SM CLR 18/05 A3013 RMK AO2,M
RTS,2023-09-12 05:35,-119.8764,39.6682,1539.00,62.60,33.80,33.93,310.00,6.00,0.00,30.16,M,10.00,M,CLR,M,M,M,M,M,M,M,M,M,M,M,M,M,M,62.60,KRTS 120535Z AUTO 31006KT 10SM CLR 17/01 A3016 RMK AO2,M
MEV,2023-09-12 05:35,-119.7500,38.9963,1441.42,59.00,41.00,51.18,100.00,6.00,0.00,30.12,M,10.00,M,FEW,FEW,FEW,M,3900.00,5500.00,10000.00,M,M,M,M,M,M,M,M,59.00,KMEV 120535Z AUTO 10006KT 10SM FEW039 FEW055 FEW100 15/05 A3012 RMK AO2,M
BAM,2023-09-12 05:35,-116.8743,40.5990,1382.36,62.60,51.80,67.75,130.00,6.00,0.00,30.12,M,10.00,M,CLR,M,M,M,M,M,M,M,M,M,M,M,M,M,M,62.60,KBAM 120535Z AUTO 13006KT 10SM CLR 17/11 A3012 RMK AO1,M
HTH,2023-09-12 05:35,-118.6315,38.5448,1282.89,64.40,55.40,72.56,180.00,9.00,0.00,30.09,M,10.00,M,CLR,M,M,M,M,M,M,M,M,M,M,M,M,M,M,64.40,KHTH 120535Z AUTO 18009KT 10SM CLR 18/13 A3009 RMK A01,M
05U,2023-09-12 05:50,-116.0051,39.6042,1811.23,51.80,46.40,81.74,0.00,0.00,0.00,30.23,M,10.00,M,FEW,M,M,M,12000.00,M,M,M,M,M,M,M,M,M,M,51.80,K05U 120550Z AUTO 00000KT 10SM FEW120 11/08 A3023 RMK A01,M
CXP,2023-09-12 05:50,-119.7326,39.1923,1431.00,64.40,42.80,45.32,0.00,0.00,0.00,30.13,M,10.00,M,CLR,M,M,M,M,M,M,M,M,M,M,M,M,M,M,64.40,KCXP 120550Z AUTO 00000KT 10SM CLR 18/06 A3013 RMK AO2,M
P68,2023-09-12 05:53,-116.0056,39.6014,1993.00,51.00,46.00,82.93,290.00,5.00,0.00,30.20,1015.80,M,M,M,M,M,M,M,M,M,M,M,M,M,M,M,M,M,51.00,KP68 120553Z AUTO 29005KT 11/08 A3020 RMK AO1 SLP158 T01060078 10200 20106 50002,M
DRA,2023-09-12 05:53,-116.0278,36.6206,1009.00,76.00,51.00,41.57,0.00,0.00,0.00,29.97,1010.20,10.00,M,CLR,M,M,M,M,M,M,M,M,M,M,M,M,M,M,76.00,KDRA 120553Z AUTO 00000KT 10SM CLR 24/11 A2997 RMK AO2 SLP102 T02440106 10322 20239 50005,M
ELY,2023-09-12 05:53,-114.8453,39.2950,1909.00,53.00,46.00,77.03,0.00,0.00,0.00,30.23,1014.90,10.00,M,CLR,M,M,M,M,M,M,M,M,M,M,M,M,M,M,53.00,KELY 120553Z AUTO 00000KT 10SM CLR 12/08 A3023 RMK AO2 SLP149 60001 T01170078 10172 20117 58004,M
VGT,2023-09-12 05:53,-115.1933,36.2111,667.00,88.00,52.00,29.21,90.00,5.00,0.00,29.89,1010.90,10.00,M,CLR,M,M,M,M,M,M,M,M,M,M,M,M,M,M,85.60,KVGT 120553Z AUTO 09005KT 10SM CLR 31/11 A2989 RMK AO2 SLP109 T03110111 10350 20311 51004,M
LOL,2023-09-12 05:53,-118.5701,40.0684,1192.43,69.00,46.00,43.67,80.00,5.00,0.00,30.05,1014.10,10.00,M,CLR,M,M,M,M,M,M,M,M,M,M,M,M,M,M,69.00,KLOL 120553Z AUTO 08005KT 10SM CLR 21/08 A3005 RMK AO2 SLP141 60000 T02060078 10300 20206 51016,M
BVU,2023-09-12 05:55,-114.8611,35.9475,671.00,82.40,53.60,37.07,0.00,0.00,0.00,29.90,M,10.00,M,CLR,M,M,M,M,M,M,M,M,M,M,M,M,M,M,81.46,KBVU 120555Z AUTO 00000KT 10SM CLR 28/12 A2990 RMK AO2,M
RNO,2023-09-12 05:55,-119.7711,39.4839,1341.00,70.00,37.00,29.81,20.00,5.00,0.00,30.10,1013.90,10.00,M,CLR,M,M,M,M,M,M,M,M,M,M,M,M,M,M,70.00,KRNO 120555Z 02005KT 10SM CLR 21/03 A3010 RMK AO2 SLP139 T02110028 10300 20211 50014,M
LSV,2023-09-12 05:55,-115.0343,36.2362,570.00,87.40,52.00,29.77,100.00,9.00,0.00,29.84,1007.80,10.00,M,FEW,M,M,M,19000.00,M,M,M,M,M,M,M,M,M,M,85.08,KLSV 120555Z 10009KT 10SM FEW190 31/11 A2984 RMK AO2A SLP078 T03080112 10360 20308 $,M
RTS,2023-09-12 05:55,-119.8764,39.6682,1539.00,59.00,32.00,35.87,310.00,7.00,0.00,30.15,M,10.00,M,CLR,M,M,M,M,M,M,M,M,M,M,M,M,M,M,59.00,KRTS 120555Z AUTO 31007KT 10SM CLR 15/00 A3015 RMK AO2,M
MEV,2023-09-12 05:55,-119.7500,38.9963,1441.42,60.80,41.00,48.00,0.00,0.00,0.00,30.12,M,10.00,M,FEW,FEW,M,M,4100.00,5500.00,M,M,M,M,M,M,M,M,M,60.80,KMEV 120555Z AUTO 00000KT 10SM FEW041 FEW055 16/05 A3012 RMK AO2,M
HTH,2023-09-12 05:55,-118.6315,38.5448,1282.89,64.40,55.40,72.56,210.00,7.00,0.00,30.10,M,10.00,M,CLR,M,M,M,M,M,M,M,M,M,M,M,M,M,M,64.40,KHTH 120555Z AUTO 21007KT 10SM CLR 18/13 A3010 RMK A01,M
BAM,2023-09-12 05:55,-116.8743,40.5990,1382.36,59.00,53.60,82.25,150.00,4.00,0.00,30.12,M,10.00,M,CLR,M,M,M,M,M,M,M,M,M,M,M,M,M,M,59.00,KBAM 120555Z AUTO 15004KT 10SM CLR 15/12 A3012 RMK AO1,M
TMT,2023-09-12 05:55,-117.1971,39.4643,1749.34,50.50,49.00,94.57,190.00,6.00,0.00,30.21,M,M,M,M,M,M,M,M,M,M,M,M,M,M,M,M,M,M,50.50,KTMT 120555Z AUTO 19006KT 10/10 A3021 RMK AO2 60008 T01030095 10208 20103 PWINO,M
INS,2023-09-12 05:55,-115.6733,36.5872,955.00,78.40,49.30,36.04,0.00,0.00,0.00,29.96,1009.90,10.00,M,SCT,M,M,M,21000.00,M,M,M,M,M,M,M,M,M,M,78.40,KINS 120555Z AUTO 00000KT 10SM SCT210 26/10 A2996 RMK AO2 SLP099 T02580096 10314 20258 52004 $,M
EKO,2023-09-12 05:56,-115.7860,40.8242,1367.00,60.00,47.00,62.11,170.00,4.00,0.00,30.15,1016.10,10.00,M,FEW,M,M,M,12000.00,M,M,M,M,M,M,M,M,M,M,60.00,KEKO 120556Z AUTO 17004KT 10SM FEW120 16/08 A3015 RMK AO2 SLP161 T01560083 10272 20150 50000,M
WMC,2023-09-12 05:56,-117.8072,40.9019,1315.00,61.00,44.00,53.49,120.00,5.00,0.00,30.07,1014.10,10.00,M,CLR,M,M,M,M,M,M,M,M,M,M,M,M,M,M,61.00,KWMC 120556Z AUTO 12005KT 10SM CLR 16/07 A3007 RMK AO2 SLP141 T01610067 10300 20161 50002,M
NFL,2023-09-12 05:56,-118.7010,39.4166,1199.00,75.00,46.00,35.64,190.00,9.00,0.00,30.06,1014.70,10.00,18.00,SCT,SCT,M,M,7000.00,25000.00,M,M,M,M,M,M,M,M,M,75.00,KNFL 120556Z 19009G18KT 10SM SCT070 SCT250 24/08 A3006 RMK AO2 SLP147 T02390078 10306 20211 51017,M
HND,2023-09-12 05:56,-115.1344,35.9729,742.79,84.00,54.00,35.72,160.00,6.00,0.00,29.93,1012.20,10.00,M,CLR,M,M,M,M,M,M,M,M,M,M,M,M,M,M,82.67,KHND 120556Z AUTO 16006KT 10SM CLR 29/12 A2993 RMK AO2 SLP122 T02890122 10339 20289 51001,M
LAS,2023-09-12 05:56,-115.1634,36.0719,663.00,88.00,53.00,30.30,210.00,4.00,0.00,29.89,1009.40,10.00,M,FEW,BKN,M,M,15000.00,20000.00,M,M,M,M,M,M,M,M,M,85.78,KLAS 120556Z 21004KT 10SM FEW150 BKN200 31/12 A2989 RMK AO2 SLP094 T03110117 10350 20311 51001,M
05U,2023-09-12 06:10,-116.0051,39.6042,1811.23,51.80,46.40,81.74,40.00,4.00,0.00,30.23,M,10.00,M,CLR,M,M,M,M,M,M,M,M,M,M,M,M,M,M,51.80,K05U 120610Z AUTO 04004KT 10SM CLR 11/08 A3023 RMK A01,M
BVU,2023-09-12 06:15,-114.8611,35.9475,671.00,82.40,53.60,37.07,0.00,0.00,0.00,29.90,M,10.00,M,CLR,M,M,M,M,M,M,M,M,M,M,M,M,M,M,81.46,KBVU 120615Z AUTO 00000KT 10SM CLR 28/12 A2990 RMK AO2,M
CXP,2023-09-12 06:15,-119.7326,39.1923,1431.00,60.80,42.80,51.45,0.00,0.00,0.00,30.13,M,10.00,M,CLR,M,M,M,M,M,M,M,M,M,M,M,M,M,M,60.80,KCXP 120615Z AUTO 00000KT 10SM CLR 16/06 A3013 RMK AO2,M
RTS,2023-09-12 06:15,-119.8764,39.6682,1539.00,59.00,32.00,35.87,320.00,6.00,0.00,30.16,M,10.00,M,CLR,M,M,M,M,M,M,M,M,M,M,M,M,M,M,59.00,KRTS 120615Z AUTO 32006KT 10SM CLR 15/00 A3016 RMK AO2,M
MEV,2023-09-12 06:15,-119.7500,38.9963,1441.42,59.00,41.00,51.18,110.00,6.00,0.00,30.12,M,10.00,M,CLR,M,M,M,M,M,M,M,M,M,M,M,M,M,M,59.00,KMEV 120615Z AUTO 11006KT 10SM CLR 15/05 A3012 RMK AO2,M
HTH,2023-09-12 06:15,-118.6315,38.5448,1282.89,62.60,55.40,77.29,210.00,6.00,0.00,30.10,M,10.00,M,CLR,M,M,M,M,M,M,M,M,M,M,M,M,M,M,62.60,KHTH 120615Z AUTO 21006KT 10SM CLR 17/13 A3010 RMK A01,M
BAM,2023-09-12 06:15,-116.8743,40.5990,1382.36,57.20,53.60,87.74,0.00,0.00,0.00,30.12,M,10.00,M,CLR,M,M,M,M,M,M,M,M,M,M,M,M,M,M,57.20,KBAM 120615Z AUTO 00000KT 10SM CLR 14/12 A3012 RMK AO1,M
TMT,2023-09-12 06:15,-117.1971,39.4643,1749.34,52.00,50.50,94.60,190.00,7.00,0.00,30.21,M,M,M,M,M,M,M,M,M,M,M,M,M,M,M,M,M,M,52.00,KTMT 120615Z AUTO 19007KT 11/10 A3021 RMK AO2 T01110103 PWINO,M
05U,2023-09-12 06:30,-116.0051,39.6042,1811.23,53.60,46.40,76.50,30.00,7.00,0.00,30.22,M,10.00,M,CLR,M,M,M,M,M,M,M,M,M,M,M,M,M,M,53.60,K05U 120630Z AUTO 03007KT 10SM CLR 12/08 A3022 RMK A01,M
MEV,2023-09-12 06:35,-119.7500,38.9963,1441.42,55.40,39.20,54.34,120.00,6.00,0.00,30.12,M,10.00,M,CLR,M,M,M,M,M,M,M,M,M,M,M,M,M,M,55.40,KMEV 120635Z AUTO 12006KT 10SM CLR 13/04 A3012 RMK AO2,M
HTH,2023-09-12 06:35,-118.6315,38.5448,1282.89,62.60,53.60,72.38,210.00,6.00,0.00,30.09,M,10.00,M,CLR,M,M,M,M,M,M,M,M,M,M,M,M,M,M,62.60,KHTH 120635Z AUTO 21006KT 10SM CLR 17/12 A3009 RMK A01,M
BVU,2023-09-12 06:35,-114.8611,35.9475,671.00,80.60,55.40,41.97,0.00,0.00,0.00,29.90,M,10.00,M,CLR,M,M,M,M,M,M,M,M,M,M,M,M,M,M,80.53,KBVU 120635Z AUTO 00000KT 10SM CLR 27/13 A2990 RMK AO2,M
CXP,2023-09-12 06:35,-119.7326,39.1923,1431.00,60.80,42.80,51.45,0.00,0.00,0.00,30.14,M,10.00,M,CLR,M,M,M,M,M,M,M,M,M,M,M,M,M,M,60.80,KCXP 120635Z AUTO 00000KT 10SM CLR 16/06 A3014 RMK AO2,M
RTS,2023-09-12 06:35,-119.8764,39.6682,1539.00,59.00,33.80,38.56,300.00,7.00,0.00,30.16,M,10.00,M,CLR,M,M,M,M,M,M,M,M,M,M,M,M,M,M,59.00,KRTS 120635Z AUTO 30007KT 10SM CLR 15/01 A3016 RMK AO2,M
BAM,2023-09-12 06:35,-116.8743,40.5990,1382.36,57.20,53.60,87.74,330.00,4.00,0.00,30.12,M,10.00,M,CLR,M,M,M,M,M,M,M,M,M,M,M,M,M,M,57.20,KBAM 120635Z AUTO 33004KT 10SM CLR 14/12 A3012 RMK AO1,M
TMT,2023-09-12 06:35,-117.1971,39.4643,1749.34,51.40,50.00,94.94,180.00,5.00,0.00,30.21,M,M,M,M,M,M,M,M,M,M,M,M,M,M,M,M,M,M,51.40,KTMT 120635Z AUTO 18005KT 11/10 A3021 RMK AO2 T01080100 PWINO,M
05U,2023-09-12 06:50,-116.0051,39.6042,1811.23,53.60,46.40,76.50,300.00,4.00,0.00,30.22,M,10.00,M,CLR,M,M,M,M,M,M,M,M,M,M,M,M,M,M,53.60,K05U 120650Z AUTO 30004KT 10SM CLR 12/08 A3022 RMK A01,M
P68,2023-09-12 06:53,-116.0056,39.6014,1993.00,52.00,46.00,79.92,160.00,4.00,0.00,30.20,1015.40,M,M,M,M,M,M,M,M,M,M,M,M,M,M,M,M,M,52.00,KP68 120653Z AUTO 16004KT 11/08 A3020 RMK AO1 SLP154 T01110078,M
DRA,2023-09-12 06:53,-116.0278,36.6206,1009.00,76.00,51.00,41.57,80.00,3.00,0.00,29.98,1010.20,10.00,M,CLR,M,M,M,M,M,M,M,M,M,M,M,M,M,M,76.00,KDRA 120653Z AUTO 08003KT 10SM CLR 24/11 A2998 RMK AO2 SLP102 T02440106,M
ELY,2023-09-12 06:53,-114.8453,39.2950,1909.00,50.00,46.00,86.06,200.00,7.00,0.00,30.22,1014.60,10.00,M,SCT,M,M,M,11000.00,M,M,M,M,M,M,M,M,M,M,50.00,KELY 120653Z AUTO 20007KT 10SM SCT110 10/08 A3022 RMK AO2 SLP146 T01000078,M
VGT,2023-09-12 06:53,-115.1933,36.2111,667.00,87.00,53.00,31.28,360.00,4.00,0.00,29.89,1011.00,10.00,M,CLR,M,M,M,M,M,M,M,M,M,M,M,M,M,M,84.91,KVGT 120653Z AUTO 36004KT 10SM CLR 31/12 A2989 RMK AO2 SLP110 T03060117,M
LOL,2023-09-12 06:53,-118.5701,40.0684,1192.43,64.00,45.00,49.99,270.00,4.00,0.00,30.05,1014.10,10.00,M,CLR,M,M,M,M,M,M,M,M,M,M,M,M,M,M,64.00,KLOL 120653Z AUTO 27004KT 10SM CLR 18/07 A3005 RMK AO2 SLP141 T01780072,M
BVU,2023-09-12 06:55,-114.8611,35.9475,671.00,78.80,55.40,44.52,10.00,3.00,0.00,29.90,M,10.00,M,CLR,M,M,M,M,M,M,M,M,M,M,M,M,M,M,78.80,KBVU 120655Z AUTO 01003KT 10SM CLR 26/13 A2990 RMK AO2,M
CXP,2023-09-12 06:55,-119.7326,39.1923,1431.00,60.80,41.00,48.00,0.00,0.00,0.00,30.14,M,10.00,M,CLR,M,M,M,M,M,M,M,M,M,M,M,M,M,M,60.80,KCXP 120655Z AUTO 00000KT 10SM CLR 16/05 A3014 RMK AO2,M
RNO,2023-09-12 06:55,-119.7711,39.4839,1341.00,67.00,40.00,37.16,200.00,3.00,0.00,30.11,1014.20,10.00,M,FEW,M,M,M,8000.00,M,M,M,M,M,M,M,M,M,M,67.00,KRNO 120655Z 20003KT 10SM FEW080 19/04 A3011 RMK AO2 SLP142 T01940044,M
RTS,2023-09-12 06:55,-119.8764,39.6682,1539.00,57.20,33.80,41.13,300.00,4.00,0.00,30.16,M,10.00,M,CLR,M,M,M,M,M,M,M,M,M,M,M,M,M,M,57.20,KRTS 120655Z AUTO 30004KT 10SM CLR 14/01 A3016 RMK AO2,M
MEV,2023-09-12 06:55,-119.7500,38.9963,1441.42,53.60,39.20,58.02,100.00,5.00,0.00,30.13,M,10.00,M,CLR,M,M,M,M,M,M,M,M,M,M,M,M,M,M,53.60,KMEV 120655Z AUTO 10005KT 10SM CLR 12/04 A3013 RMK AO2,M
BAM,2023-09-12 06:55,-116.8743,40.5990,1382.36,57.20,53.60,87.74,0.00,0.00,0.00,30.12,M,10.00,M,CLR,M,M,M,M,M,M,M,M,M,M,M,M,M,M,57.20,KBAM 120655Z AUTO 00000KT 10SM CLR 14/12 A3012 RMK AO1,M
HTH,2023-09-12 06:55,-118.6315,38.5448,1282.89,62.60,53.60,72.38,150.00,4.00,0.00,30.09,M,10.00,M,CLR,M,M,M,M,M,M,M,M,M,M,M,M,M,M,62.60,KHTH 120655Z AUTO 15004KT 10SM CLR 17/12 A3009 RMK A01,M
TMT,2023-09-12 06:55,-117.1971,39.4643,1749.34,52.00,50.00,92.86,200.00,6.00,0.00,30.21,M,M,M,M,M,M,M,M,M,M,M,M,M,M,M,M,M,M,52.00,KTMT 120655Z AUTO 20006KT 11/10 A3021 RMK AO2 T01120099 PWINO,M
INS,2023-09-12 06:55,-115.6733,36.5872,955.00,76.00,49.30,39.02,0.00,0.00,0.00,29.97,1010.10,10.00,M,OVC,M,M,M,18000.00,M,M,M,M,M,M,M,M,M,M,76.00,KINS 120655Z AUTO 00000KT 10SM OVC180 25/10 A2997 RMK AO2 SLP101 T02450096 $,M
LSV,2023-09-12 06:55,-115.0343,36.2362,570.00,87.00,52.50,30.71,100.00,8.00,0.00,29.84,1007.70,10.00,M,FEW,M,M,M,19000.00,M,M,M,M,M,M,M,M,M,M,84.82,KLSV 120655Z AUTO 10008KT 10SM FEW190 31/11 A2984 RMK AO2 SLP077 T03050114 $,M
EKO,2023-09-12 06:56,-115.7860,40.8242,1367.00,63.00,47.00,55.85,80.00,4.00,0.00,30.14,1015.10,10.00,M,FEW,M,M,M,11000.00,M,M,M,M,M,M,M,M,M,M,63.00,KEKO 120656Z AUTO 08004KT 10SM FEW110 17/08 A3014 RMK AO2 SLP151 T01720083,M
WMC,2023-09-12 06:56,-117.8072,40.9019,1315.00,62.00,44.00,51.63,90.00,3.00,0.00,30.08,1014.10,10.00,M,CLR,M,M,M,M,M,M,M,M,M,M,M,M,M,M,62.00,KWMC 120656Z AUTO 09003KT 10SM CLR 17/07 A3008 RMK AO2 SLP141 T01670067,M
NFL,2023-09-12 06:56,-118.7010,39.4166,1199.00,71.00,46.00,40.78,150.00,10.00,0.00,30.06,1014.70,10.00,M,CLR,M,M,M,M,M,M,M,M,M,M,M,M,M,M,71.00,KNFL 120656Z AUTO 15010KT 10SM CLR 22/08 A3006 RMK AO2 SLP147 T02170078,M
HND,2023-09-12 06:56,-115.1344,35.9729,742.79,83.00,53.00,35.56,210.00,9.00,0.00,29.94,1012.40,10.00,M,CLR,M,M,M,M,M,M,M,M,M,M,M,M,M,M,81.78,KHND 120656Z AUTO 21009KT 10SM CLR 28/12 A2994 RMK AO2 SLP124 T02830117 403500194,M
LAS,2023-09-12 06:56,-115.1634,36.0719,663.00,86.00,53.00,32.29,210.00,4.00,0.00,29.90,1009.60,10.00,M,FEW,BKN,M,M,15000.00,22000.00,M,M,M,M,M,M,M,M,M,84.07,KLAS 120656Z 21004KT 10SM FEW150 BKN220 30/12 A2990 RMK AO2 SLP096 T03000117,M
05U,2023-09-12 07:10,-116.0051,39.6042,1811.23,50.00,46.40,87.37,290.00,6.00,0.00,30.22,M,10.00,M,CLR,M,M,M,M,M,M,M,M,M,M,M,M,M,M,50.00,K05U 120710Z AUTO 29006KT 10SM CLR 10/08 A3022 RMK A01,M
BVU,2023-09-12 07:15,-114.8611,35.9475,671.00,78.80,55.40,44.52,50.00,5.00,0.00,29.90,M,10.00,M,CLR,M,M,M,M,M,M,M,M,M,M,M,M,M,M,78.80,KBVU 120715Z AUTO 05005KT 10SM CLR 26/13 A2990 RMK AO2,M
CXP,2023-09-12 07:15,-119.7326,39.1923,1431.00,60.80,41.00,48.00,0.00,0.00,0.00,30.14,M,10.00,M,CLR,M,M,M,M,M,M,M,M,M,M,M,M,M,M,60.80,KCXP 120715Z AUTO 00000KT 10SM CLR 16/05 A3014 RMK AO2,M
RTS,2023-09-12 07:15,-119.8764,39.6682,1539.00,57.20,33.80,41.13,280.00,6.00,0.00,30.16,M,10.00,M,CLR,M,M,M,M,M,M,M,M,M,M,M,M,M,M,57.20,KRTS 120715Z AUTO 28006KT 10SM CLR 14/01 A3016 RMK AO2,M
MEV,2023-09-12 07:15,-119.7500,38.9963,1441.42,53.60,39.20,58.02,120.00,7.00,0.00,30.12,M,10.00,M,CLR,M,M,M,M,M,M,M,M,M,M,M,M,M,M,53.60,KMEV 120715Z AUTO 12007KT 10SM CLR 12/04 A3012 RMK AO2,M
BAM,2023-09-12 07:15,-116.8743,40.5990,1382.36,59.00,53.60,82.25,0.00,0.00,0.00,30.11,M,10.00,M,SCT,M,M,M,12000.00,M,M,M,M,M,M,M,M,M,M,59.00,KBAM 120715Z AUTO 00000KT 10SM SCT120 15/12 A3011 RMK AO1,M
HTH,2023-09-12 07:15,-118.6315,38.5448,1282.89,60.80,55.40,82.37,130.00,8.00,0.00,30.10,M,10.00,M,BKN,M,M,M,11000.00,M,M,M,M,M,M,M,M,M,M,60.80,KHTH 120715Z AUTO 13008KT 10SM BKN110 16/13 A3010 RMK A01,M
TMT,2023-09-12 07:15,-117.1971,39.4643,1749.34,55.00,49.00,80.15,230.00,5.00,0.00,30.21,M,M,M,CLR,M,M,M,M,M,M,M,M,M,M,M,M,M,M,55.00,KTMT 120715Z AUTO 23005KT CLR 13/10 A3021 RMK AO2 T01270095 PWINO,M
05U,2023-09-12 07:30,-116.0051,39.6042,1811.23,51.80,46.40,81.74,290.00,7.00,0.00,30.21,M,10.00,M,CLR,M,M,M,M,M,M,M,M,M,M,M,M,M,M,51.80,K05U 120730Z AUTO 29007KT 10SM CLR 11/08 A3021 RMK A01,M
BVU,2023-09-12 07:35,-114.8611,35.9475,671.00,78.80,55.40,44.52,0.00,0.00,0.00,29.91,M,10.00,M,FEW,M,M,M,9500.00,M,M,M,M,M,M,M,M,M,M,78.80,KBVU 120735Z AUTO 00000KT 10SM FEW095 26/13 A2991 RMK AO2,M
CXP,2023-09-12 07:35,-119.7326,39.1923,1431.00,59.00,42.80,54.86,0.00,0.00,0.00,30.14,M,10.00,M,SCT,M,M,M,10000.00,M,M,M,M,M,M,M,M,M,M,59.00,KCXP 120735Z AUTO 00000KT 10SM SCT100 15/06 A3014 RMK AO2,M
RTS,2023-09-12 07:35,-119.8764,39.6682,1539.00,57.20,33.80,41.13,290.00,7.00,0.00,30.16,M,10.00,M,CLR,M,M,M,M,M,M,M,M,M,M,M,M,M,M,57.20,KRTS 120735Z AUTO 29007KT 10SM CLR 14/01 A3016 RMK AO2,M
BAM,2023-09-12 07:35,-116.8743,40.5990,1382.36,57.20,53.60,87.74,200.00,3.00,0.00,30.11,M,10.00,M,BKN,M,M,M,12000.00,M,M,M,M,M,M,M,M,M,M,57.20,KBAM 120735Z AUTO 20003KT 10SM BKN120 14/12 A3011 RMK AO1,M
MEV,2023-09-12 07:35,-119.7500,38.9963,1441.42,53.60,39.20,58.02,120.00,4.00,0.00,30.13,M,10.00,M,SCT,M,M,M,10000.00,M,M,M,M,M,M,M,M,M,M,53.60,KMEV 120735Z AUTO 12004KT 10SM SCT100 12/04 A3013 RMK AO2,M
HTH,2023-09-12 07:35,-118.6315,38.5448,1282.89,62.60,55.40,77.29,150.00,6.00,0.00,30.10,M,10.00,M,BKN,M,M,M,11000.00,M,M,M,M,M,M,M,M,M,M,62.60,KHTH 120735Z AUTO 15006KT 10SM BKN110 17/13 A3010 RMK A01,M
TMT,2023-09-12 07:35,-117.1971,39.4643,1749.34,52.00,48.60,88.13,240.00,4.00,0.00,30.20,M,M,M,M,M,M,M,M,M,M,M,M,M,M,M,M,M,M,52.00,KTMT 120735Z AUTO 24004KT 11/09 A3020 RMK AO2 T01120092 PWINO,M
05U,2023-09-12 07:50,-116.0051,39.6042,1811.23,50.00,44.60,81.61,60.00,5.00,0.00,30.21,M,10.00,M,CLR,M,M,M,M,M,M,M,M,M,M,M,M,M,M,50.00,K05U 120750Z AUTO 06005KT 10SM CLR 10/07 A3021 RMK A01,M
P68,2023-09-12 07:53,-116.0056,39.6014,1993.00,49.00,44.00,82.79,250.00,4.00,0.00,30.19,1015.60,M,M,M,M,M,M,M,M,M,M,M,M,M,M,M,M,M,47.27,KP68 120753Z AUTO 25004KT 09/07 A3019 RMK AO1 SLP156 T00940067 402560083,M
DRA,2023-09-12 07:53,-116.0278,36.6206,1009.00,74.00,52.00,46.11,0.00,0.00,0.00,29.98,1010.20,10.00,M,CLR,M,M,M,M,M,M,M,M,M,M,M,M,M,M,74.00,KDRA 120753Z AUTO 00000KT 10SM CLR 23/11 A2998 RMK AO2 SLP102 T02330111 403220172,M
ELY,2023-09-12 07:53,-114.8453,39.2950,1909.00,50.00,46.00,86.06,180.00,5.00,0.00,30.21,1014.30,10.00,M,FEW,M,M,M,12000.00,M,M,M,M,M,M,M,M,M,M,50.00,KELY 120753Z AUTO 18005KT 10SM FEW120 10/08 A3021 RMK AO2 SLP143 T01000078 402560067,M
VGT,2023-09-12 07:53,-115.1933,36.2111,667.00,86.00,54.00,33.50,20.00,4.00,0.00,29.90,1011.10,10.00,M,CLR,M,M,M,M,M,M,M,M,M,M,M,M,M,M,84.26,KVGT 120753Z AUTO 02004KT 10SM CLR 30/12 A2990 RMK AO2 SLP111 T03000122 403500228,M
LOL,2023-09-12 07:53,-118.5701,40.0684,1192.43,58.00,43.00,57.30,130.00,3.00,0.00,30.05,1014.40,10.00,M,CLR,M,M,M,M,M,M,M,M,M,M,M,M,M,M,58.00,KLOL 120753Z AUTO 13003KT 10SM CLR 14/06 A3005 RMK AO2 SLP144 T01440061 403000111,M
BAM,2023-09-12 07:55,-116.8743,40.5990,1382.36,55.40,53.60,93.65,220.00,3.00,0.00,30.11,M,10.00,M,BKN,M,M,M,12000.00,M,M,M,M,M,M,M,M,M,M,55.40,KBAM 120755Z AUTO 22003KT 10SM BKN120 13/12 A3011 RMK AO1,M
HTH,2023-09-12 07:55,-118.6315,38.5448,1282.89,60.80,55.40,82.37,110.00,4.00,0.00,30.10,M,10.00,M,SCT,M,M,M,11000.00,M,M,M,M,M,M,M,M,M,M,60.80,KHTH 120755Z AUTO 11004KT 10SM SCT110 16/13 A3010 RMK A01,M
BVU,2023-09-12 07:55,-114.8611,35.9475,671.00,82.40,53.60,37.07,M,3.00,0.00,29.90,M,10.00,M,FEW,M,M,M,9500.00,M,M,M,M,M,M,M,M,M,M,81.46,KBVU 120755Z AUTO VRB03KT 10SM FEW095 28/12 A2990 RMK AO2,M
CXP,2023-09-12 07:55,-119.7326,39.1923,1431.00,60.80,42.80,51.45,0.00,0.00,0.00,30.15,M,10.00,M,OVC,M,M,M,9500.00,M,M,M,M,M,M,M,M,M,M,60.80,KCXP 120755Z AUTO 00000KT 10SM OVC095 16/06 A3015 RMK AO2,M
RNO,2023-09-12 07:55,-119.7711,39.4839,1341.00,65.00,42.00,43.04,220.00,3.00,0.00,30.12,1014.40,10.00,M,BKN,M,M,M,10000.00,M,M,M,M,M,M,M,M,M,M,65.00,KRNO 120755Z 22003KT 10SM BKN100 18/06 A3012 RMK AO2 SLP144 T01830056 403170139,M
RTS,2023-09-12 07:55,-119.8764,39.6682,1539.00,55.40,33.80,43.90,300.00,5.00,0.00,30.16,M,10.00,M,CLR,M,M,M,M,M,M,M,M,M,M,M,M,M,M,55.40,KRTS 120755Z AUTO 30005KT 10SM CLR 13/01 A3016 RMK AO2,M
MEV,2023-09-12 07:55,-119.7500,38.9963,1441.42,55.40,39.20,54.34,0.00,0.00,0.00,30.13,M,10.00,M,SCT,M,M,M,10000.00,M,M,M,M,M,M,M,M,M,M,55.40,KMEV 120755Z AUTO 00000KT 10SM SCT100 13/04 A3013 RMK AO2,M
INS,2023-09-12 07:55,-115.6733,36.5872,955.00,75.20,49.30,40.08,0.00,0.00,0.00,29.97,1010.10,10.00,M,OVC,M,M,M,18000.00,M,M,M,M,M,M,M,M,M,M,75.20,KINS 120755Z AUTO 00000KT 10SM OVC180 24/10 A2997 RMK AO2 SLP101 T02400096 403190163 $,M
LSV,2023-09-12 07:55,-115.0343,36.2362,570.00,85.00,53.40,33.84,0.00,0.00,0.00,29.85,1008.10,10.00,M,SCT,M,M,M,19000.00,M,M,M,M,M,M,M,M,M,M,83.34,KLSV 120755Z AUTO 00000KT 10SM SCT190 29/12 A2985 RMK AO2 SLP081 T02940119 403740205 $,M
EKO,2023-09-12 07:56,-115.7860,40.8242,1367.00,57.00,47.00,69.16,0.00,0.00,0.00,30.14,1015.30,10.00,M,FEW,M,M,M,11000.00,M,M,M,M,M,M,M,M,M,M,57.00,KEKO 120756Z AUTO 00000KT 10SM FEW110 14/08 A3014 RMK AO2 SLP153 T01390083 403060072,M
WMC,2023-09-12 07:56,-117.8072,40.9019,1315.00,59.00,46.00,61.98,110.00,4.00,0.00,30.08,1013.90,10.00,M,CLR,M,M,M,M,M,M,M,M,M,M,M,M,M,M,59.00,KWMC 120756Z AUTO 11004KT 10SM CLR 15/08 A3008 RMK AO2 SLP139 T01500078 403060061,M
NFL,2023-09-12 07:56,-118.7010,39.4166,1199.00,69.00,47.00,45.35,150.00,10.00,0.00,30.06,1014.60,10.00,M,CLR,M,M,M,M,M,M,M,M,M,M,M,M,M,M,69.00,KNFL 120756Z AUTO 15010KT 10SM CLR 21/08 A3006 RMK AO2 SLP146 T02060083 403110128,M
HND,2023-09-12 07:56,-115.1344,35.9729,742.79,83.00,53.00,35.56,200.00,10.00,0.00,29.95,1012.60,10.00,M,CLR,M,M,M,M,M,M,M,M,M,M,M,M,M,M,81.78,KHND 120756Z AUTO 20010KT 10SM CLR 28/12 A2995 RMK AO2 SLP126 T02830117,M
LAS,2023-09-12 07:56,-115.1634,36.0719,663.00,86.00,53.00,32.29,230.00,5.00,0.00,29.90,1009.80,10.00,M,FEW,BKN,M,M,11000.00,19000.00,M,M,M,M,M,M,M,M,M,84.07,KLAS 120756Z 23005KT 10SM FEW110 BKN190 30/12 A2990 RMK AO2 SLP098 ACC SW-NW T03000117 403500222,M
05U,2023-09-12 08:10,-116.0051,39.6042,1811.23,48.20,44.60,87.28,0.00,0.00,0.00,30.21,M,10.00,M,CLR,M,M,M,M,M,M,M,M,M,M,M,M,M,M,48.20,K05U 120810Z AUTO 00000KT 10SM CLR 09/07 A3021 RMK A01,M
BVU,2023-09-12 08:15,-114.8611,35.9475,671.00,82.40,51.80,34.69,130.00,4.00,0.00,29.91,M,10.00,M,CLR,M,M,M,M,M,M,M,M,M,M,M,M,M,M,81.20,KBVU 120815Z AUTO 13004KT 10SM CLR 28/11 A2991 RMK AO2,M
CXP,2023-09-12 08:15,-119.7326,39.1923,1431.00,60.80,42.80,51.45,0.00,0.00,0.00,30.15,M,10.00,M,BKN,M,M,M,9500.00,M,M,M,M,M,M,M,M,M,M,60.80,KCXP 120815Z AUTO 00000KT 10SM BKN095 16/06 A3015 RMK AO2,M
RTS,2023-09-12 08:15,-119.8764,39.6682,1539.00,55.40,33.80,43.90,360.00,5.00,0.00,30.16,M,10.00,M,CLR,M,M,M,M,M,M,M,M,M,M,M,M,M,M,55.40,KRTS 120815Z AUTO 36005KT 10SM CLR 13/01 A3016 RMK AO2,M
MEV,2023-09-12 08:15,-119.7500,38.9963,1441.42,53.60,39.20,58.02,100.00,3.00,0.00,30.13,M,10.00,M,SCT,M,M,M,9000.00,M,M,M,M,M,M,M,M,M,M,53.60,KMEV 120815Z AUTO 10003KT 10SM SCT090 12/04 A3013 RMK AO2,M
HTH,2023-09-12 08:15,-118.6315,38.5448,1282.89,62.60,53.60,72.38,130.00,7.00,0.00,30.10,M,10.00,M,CLR,M,M,M,M,M,M,M,M,M,M,M,M,M,M,62.60,KHTH 120815Z AUTO 13007KT 10SM CLR 17/12 A3010 RMK A01,M
BAM,2023-09-12 08:15,-116.8743,40.5990,1382.36,55.40,53.60,93.65,240.00,3.00,0.00,30.12,M,10.00,M,BKN,M,M,M,12000.00,M,M,M,M,M,M,M,M,M,M,55.40,KBAM 120815Z AUTO 24003KT 10SM BKN120 13/12 A3012 RMK AO1,M
TMT,2023-09-12 08:15,-117.1971,39.4643,1749.34,48.60,46.80,93.46,40.00,3.00,0.00,30.18,M,M,M,M,M,M,M,M,M,M,M,M,M,M,M,M,M,M,47.67,KTMT 120815Z AUTO 04003KT 09/08 A3018 RMK AO2 T00920082 PWINO,M
05U,2023-09-12 08:30,-116.0051,39.6042,1811.23,48.20,44.60,87.28,0.00,0.00,0.00,30.21,M,10.00,M,CLR,M,M,M,M,M,M,M,M,M,M,M,M,M,M,48.20,K05U 120830Z AUTO 00000KT 10SM CLR 09/07 A3021 RMK A01,M
BVU,2023-09-12 08:35,-114.8611,35.9475,671.00,82.40,51.80,34.69,130.00,3.00,0.00,29.91,M,10.00,M,CLR,M,M,M,M,M,M,M,M,M,M,M,M,M,M,81.20,KBVU 120835Z AUTO 13003KT 10SM CLR 28/11 A2991 RMK AO2,M
CXP,2023-09-12 08:35,-119.7326,39.1923,1431.00,57.20,42.80,58.52,0.00,0.00,0.00,30.14,M,10.00,M,FEW,FEW,M,M,9000.00,11000.00,M,M,M,M,M,M,M,M,M,57.20,KCXP 120835Z AUTO 00000KT 10SM FEW090 FEW110 14/06 A3014 RMK AO2,M
RTS,2023-09-12 08:35,-119.8764,39.6682,1539.00,57.20,33.80,41.13,M,4.00,0.00,30.16,M,10.00,M,CLR,M,M,M,M,M,M,M,M,M,M,M,M,M,M,57.20,KRTS 120835Z AUTO VRB04KT 10SM CLR 14/01 A3016 RMK AO2,M
MEV,2023-09-12 08:35,-119.7500,38.9963,1441.42,53.60,41.00,62.23,0.00,0.00,0.00,30.13,M,10.00,M,BKN,BKN,M,M,9000.00,11000.00,M,M,M,M,M,M,M,M,M,53.60,KMEV 120835Z AUTO 00000KT 10SM BKN090 BKN110 12/05 A3013 RMK AO2,M
BAM,2023-09-12 08:35,-116.8743,40.5990,1382.36,55.40,51.80,87.65,0.00,0.00,0.00,30.12,M,10.00,M,BKN,M,M,M,12000.00,M,M,M,M,M,M,M,M,M,M,55.40,KBAM 120835Z AUTO 00000KT 10SM BKN120 13/11 A3012 RMK AO1,M
HTH,2023-09-12 08:35,-118.6315,38.5448,1282.89,60.80,55.40,82.37,190.00,6.00,0.00,30.10,M,10.00,M,FEW,M,M,M,11000.00,M,M,M,M,M,M,M,M,M,M,60.80,KHTH 120835Z AUTO 19006KT 10SM FEW110 16/13 A3010 RMK A01,M
TMT,2023-09-12 08:35,-117.1971,39.4643,1749.34,49.00,47.50,94.53,310.00,6.00,0.00,30.18,M,M,M,M,M,M,M,M,M,M,M,M,M,M,M,M,M,M,46.00,KTMT 120835Z AUTO 31006KT 10/09 A3018 RMK AO2 T00950086 PWINO,M
05U,2023-09-12 08:50,-116.0051,39.6042,1811.23,46.40,42.80,87.19,0.00,0.00,0.00,30.20,M,10.00,M,CLR,M,M,M,M,M,M,M,M,M,M,M,M,M,M,46.40,K05U 120850Z AUTO 00000KT 10SM CLR 08/06 A3020 RMK A01,M
P68,2023-09-12 08:53,-116.0056,39.6014,1993.00,45.00,42.00,89.15,0.00,0.00,0.00,30.18,1015.90,M,M,M,M,M,M,M,M,M,M,M,M,M,M,M,M,M,45.00,KP68 120853Z AUTO 00000KT 07/06 A3018 RMK AO1 SLP159 T00720056 58006,M
DRA,2023-09-12 08:53,-116.0278,36.6206,1009.00,75.00,52.00,44.59,M,4.00,0.00,29.98,1010.00,10.00,M,FEW,M,M,M,9000.00,M,M,M,M,M,M,M,M,M,M,75.00,KDRA 120853Z AUTO VRB04KT 10SM FEW090 24/11 A2998 RMK AO2 SLP100 T02390111 50000,M
ELY,2023-09-12 08:53,-114.8453,39.2950,1909.00,52.00,47.00,82.99,220.00,6.00,0.00,30.20,1014.00,10.00,M,FEW,M,M,M,12000.00,M,M,M,M,M,M,M,M,M,M,52.00,KELY 120853Z AUTO 22006KT 10SM FEW120 11/08 A3020 RMK AO2 SLP140 T01110083 58007,M
VGT,2023-09-12 08:53,-115.1933,36.2111,667.00,86.00,54.00,33.50,360.00,4.00,0.00,29.89,1011.00,10.00,M,SCT,M,M,M,10000.00,M,M,M,M,M,M,M,M,M,M,84.26,KVGT 120853Z AUTO 36004KT 10SM SCT100 30/12 A2989 RMK AO2 SLP110 T03000122 50002,M
LOL,2023-09-12 08:53,-118.5701,40.0684,1192.43,59.00,48.00,66.83,40.00,4.00,0.00,30.05,1014.00,10.00,M,CLR,M,M,M,M,M,M,M,M,M,M,M,M,M,M,59.00,KLOL 120853Z AUTO 04004KT 10SM CLR 15/09 A3005 RMK AO2 SLP140 T01500089 50001,M
BVU,2023-09-12 08:55,-114.8611,35.9475,671.00,82.40,51.80,34.69,0.00,0.00,0.00,29.90,M,10.00,M,CLR,M,M,M,M,M,M,M,M,M,M,M,M,M,M,81.20,KBVU 120855Z AUTO 00000KT 10SM CLR 28/11 A2990 RMK AO2,M
CXP,2023-09-12 08:55,-119.7326,39.1923,1431.00,57.20,42.80,58.52,0.00,0.00,0.00,30.14,M,10.00,M,CLR,M,M,M,M,M,M,M,M,M,M,M,M,M,M,57.20,KCXP 120855Z AUTO 00000KT 10SM CLR 14/06 A3014 RMK AO2,M
RNO,2023-09-12 08:55,-119.7711,39.4839,1341.00,65.00,41.00,41.41,0.00,0.00,0.00,30.12,1014.30,10.00,M,FEW,M,M,M,10000.00,M,M,M,M,M,M,M,M,M,M,65.00,KRNO 120855Z 00000KT 10SM FEW100 18/05 A3012 RMK AO2 SLP143 T01830050 51004,M
RTS,2023-09-12 08:55,-119.8764,39.6682,1539.00,59.00,32.00,35.87,340.00,4.00,0.00,30.16,M,10.00,M,CLR,M,M,M,M,M,M,M,M,M,M,M,M,M,M,59.00,KRTS 120855Z AUTO 34004KT 10SM CLR 15/00 A3016 RMK AO2,M
MEV,2023-09-12 08:55,-119.7500,38.9963,1441.42,51.80,39.20,61.99,0.00,0.00,0.00,30.13,M,10.00,M,BKN,M,M,M,9000.00,M,M,M,M,M,M,M,M,M,M,51.80,KMEV 120855Z AUTO 00000KT 10SM BKN090 11/04 A3013 RMK AO2,M
HTH,2023-09-12 08:55,-118.6315,38.5448,1282.89,60.80,55.40,82.37,170.00,5.00,0.00,30.10,M,10.00,M,FEW,M,M,M,11000.00,M,M,M,M,M,M,M,M,M,M,60.80,KHTH 120855Z AUTO 17005KT 10SM FEW110 16/13 A3010 RMK A01,M
BAM,2023-09-12 08:55,-116.8743,40.5990,1382.36,53.60,51.80,93.60,100.00,3.00,0.00,30.12,M,10.00,M,SCT,M,M,M,12000.00,M,M,M,M,M,M,M,M,M,M,53.60,KBAM 120855Z AUTO 10003KT 10SM SCT120 12/11 A3012 RMK AO1,M
TMT,2023-09-12 08:55,-117.1971,39.4643,1749.34,48.40,46.80,94.16,340.00,7.00,0.00,30.18,M,M,M,M,M,M,M,M,M,M,M,M,M,M,M,M,M,M,44.77,KTMT 120855Z AUTO 34007KT 09/08 A3018 RMK AO2 T00910082 PWINO,M
INS,2023-09-12 08:55,-115.6733,36.5872,955.00,75.00,46.00,35.64,0.00,0.00,0.00,29.97,1009.90,10.00,M,FEW,OVC,M,M,9500.00,17000.00,M,M,M,M,M,M,M,M,M,75.00,KINS 120855Z AUTO 00000KT 10SM FEW095 OVC170 24/08 A2997 RMK AO2 SLP099 T02380078 50002 $,M
LSV,2023-09-12 08:55,-115.0343,36.2362,570.00,83.50,52.00,33.73,0.00,0.00,0.00,29.85,1008.10,10.00,M,SCT,M,M,M,18000.00,M,M,M,M,M,M,M,M,M,M,81.99,KLSV 120855Z AUTO 00000KT 10SM SCT180 29/11 A2985 RMK AO2 SLP081 T02860112 50004 $,M
EKO,2023-09-12 08:56,-115.7860,40.8242,1367.00,56.00,47.00,71.70,0.00,0.00,0.00,30.13,1015.00,10.00,M,BKN,M,M,M,10000.00,M,M,M,M,M,M,M,M,M,M,56.00,KEKO 120856Z AUTO 00000KT 10SM BKN100 13/08 A3013 RMK AO2 SLP150 T01330083 56005,M
WMC,2023-09-12 08:56,-117.8072,40.9019,1315.00,57.00,46.00,66.59,140.00,3.00,0.00,30.08,1013.90,10.00,M,CLR,M,M,M,M,M,M,M,M,M,M,M,M,M,M,57.00,KWMC 120856Z AUTO 14003KT 10SM CLR 14/08 A3008 RMK AO2 SLP139 T01390078 50002,M
NFL,2023-09-12 08:56,-118.7010,39.4166,1199.00,65.00,47.00,52.07,190.00,5.00,0.00,30.06,1014.60,10.00,M,CLR,M,M,M,M,M,M,M,M,M,M,M,M,M,M,65.00,KNFL 120856Z AUTO 19005KT 10SM CLR 18/08 A3006 RMK AO2 SLP146 T01830083 57000,M
HND,2023-09-12 08:56,-115.1344,35.9729,742.79,83.00,53.00,35.56,200.00,8.00,0.00,29.94,1012.30,10.00,M,CLR,M,M,M,M,M,M,M,M,M,M,M,M,M,M,81.78,KHND 120856Z AUTO 20008KT 10SM CLR 28/12 A2994 RMK AO2 SLP123 T02830117 50001,M
LAS,2023-09-12 08:56,-115.1634,36.0719,663.00,85.00,52.00,32.14,260.00,5.00,0.00,29.90,1009.50,10.00,M,FEW,BKN,M,M,12000.00,19000.00,M,M,M,M,M,M,M,M,M,83.11,KLAS 120856Z 26005KT 10SM FEW120 BKN190 29/11 A2990 RMK AO2 SLP095 ACC NE T02940111 50001,M
05U,2023-09-12 09:10,-116.0051,39.6042,1811.23,46.40,44.60,93.40,330.00,4.00,0.00,30.21,M,10.00,M,CLR,M,M,M,M,M,M,M,M,M,M,M,M,M,M,44.24,K05U 120910Z AUTO 33004KT 10SM CLR 08/07 A3021 RMK A01,M
BVU,2023-09-12 09:15,-114.8611,35.9475,671.00,80.60,53.60,39.30,0.00,0.00,0.00,29.90,M,10.00,M,CLR,M,M,M,M,M,M,M,M,M,M,M,M,M,M,80.29,KBVU 120915Z AUTO 00000KT 10SM CLR 27/12 A2990 RMK AO2,M
CXP,2023-09-12 09:15,-119.7326,39.1923,1431.00,57.20,42.80,58.52,0.00,0.00,0.00,30.14,M,10.00,M,CLR,M,M,M,M,M,M,M,M,M,M,M,M,M,M,57.20,KCXP 120915Z AUTO 00000KT 10SM CLR 14/06 A3014 RMK AO2,M
RTS,2023-09-12 09:15,-119.8764,39.6682,1539.00,51.80,32.00,46.59,0.00,0.00,0.00,30.16,M,10.00,M,CLR,M,M,M,M,M,M,M,M,M,M,M,M,M,M,51.80,KRTS 120915Z AUTO 00000KT 10SM CLR 11/M00 A3016 RMK AO2,M
MEV,2023-09-12 09:15,-119.7500,38.9963,1441.42,48.20,39.20,70.88,0.00,0.00,0.00,30.13,M,10.00,M,BKN,BKN,M,M,8500.00,10000.00,M,M,M,M,M,M,M,M,M,48.20,KMEV 120915Z AUTO 00000KT 10SM BKN085 BKN100 09/04 A3013 RMK AO2,M
HTH,2023-09-12 09:15,-118.6315,38.5448,1282.89,60.80,53.60,77.14,180.00,6.00,0.00,30.09,M,10.00,M,CLR,M,M,M,M,M,M,M,M,M,M,M,M,M,M,60.80,KHTH 120915Z AUTO 18006KT 10SM CLR 16/12 A3009 RMK A01,M
BAM,2023-09-12 09:15,-116.8743,40.5990,1382.36,53.60,51.80,93.60,0.00,0.00,0.00,30.11,M,10.00,M,CLR,M,M,M,M,M,M,M,M,M,M,M,M,M,M,53.60,KBAM 120915Z AUTO 00000KT 10SM CLR 12/11 A3011 RMK AO1,M
TMT,2023-09-12 09:15,-117.1971,39.4643,1749.34,48.70,47.00,93.82,0.00,0.00,0.00,30.18,M,M,M,M,M,M,M,M,M,M,M,M,M,M,M,M,M,M,48.70,KTMT 120915Z AUTO 00000KT 09/08 A3018 RMK AO2 T00930084 PWINO,M
05U,2023-09-12 09:30,-116.0051,39.6042,1811.23,48.20,44.60,87.28,320.00,3.00,0.00,30.21,M,10.00,M,CLR,M,M,M,M,M,M,M,M,M,M,M,M,M,M,47.21,K05U 120930Z AUTO 32003KT 10SM CLR 09/07 A3021 RMK A01,M
BVU,2023-09-12 09:35,-114.8611,35.9475,671.00,78.80,57.20,47.52,40.00,6.00,0.00,29.90,M,10.00,M,CLR,M,M,M,M,M,M,M,M,M,M,M,M,M,M,78.80,KBVU 120935Z AUTO 04006KT 10SM CLR 26/14 A2990 RMK AO2,M
CXP,2023-09-12 09:35,-119.7326,39.1923,1431.00,57.20,42.80,58.52,0.00,0.00,0.00,30.14,M,10.00,M,CLR,M,M,M,M,M,M,M,M,M,M,M,M,M,M,57.20,KCXP 120935Z AUTO 00000KT 10SM CLR 14/06 A3014 RMK AO2,M
RTS,2023-09-12 09:35,-119.8764,39.6682,1539.00,51.80,32.00,46.59,350.00,7.00,0.00,30.16,M,10.00,M,CLR,M,M,M,M,M,M,M,M,M,M,M,M,M,M,51.80,KRTS 120935Z AUTO 35007KT 10SM CLR 11/M00 A3016 RMK AO2,M
MEV,2023-09-12 09:35,-119.7500,38.9963,1441.42,48.20,41.00,76.01,100.00,7.00,0.00,30.13,M,10.00,M,BKN,M,M,M,9000.00,M,M,M,M,M,M,M,M,M,M,44.53,KMEV 120935Z AUTO 10007KT 10SM BKN090 09/05 A3013 RMK AO2,M
BAM,2023-09-12 09:35,-116.8743,40.5990,1382.36,51.80,51.80,100.00,140.00,4.00,0.00,30.11,M,10.00,M,CLR,M,M,M,M,M,M,M,M,M,M,M,M,M,M,51.80,KBAM 120935Z AUTO 14004KT 10SM CLR 11/11 A3011 RMK AO1,M
HTH,2023-09-12 09:35,-118.6315,38.5448,1282.89,60.80,53.60,77.14,0.00,0.00,0.00,30.09,M,10.00,M,FEW,M,M,M,11000.00,M,M,M,M,M,M,M,M,M,M,60.80,KHTH 120935Z AUTO 00000KT 10SM FEW110 16/12 A3009 RMK A01,M
TMT,2023-09-12 09:35,-117.1971,39.4643,1749.34,48.00,46.60,94.87,160.00,4.00,0.00,30.19,M,M,M,M,M,M,M,M,M,M,M,M,M,M,M,M,M,M,46.10,KTMT 120935Z AUTO 16004KT 09/08 A3019 RMK AO2 T00880081 PWINO,M
05U,2023-09-12 09:50,-116.0051,39.6042,1811.23,46.40,44.60,93.40,280.00,4.00,0.00,30.20,M,10.00,M,CLR,M,M,M,M,M,M,M,M,M,M,M,M,M,M,44.24,K05U 120950Z AUTO 28004KT 10SM CLR 08/07 A3020 RMK A01,M
DRA,2023-09-12 09:53,-116.0278,36.6206,1009.00,76.00,50.00,40.05,40.00,9.00,0.00,29.97,1009.70,10.00,M,FEW,M,M,M,10000.00,M,M,M,M,M,M,M,M,M,M,76.00,KDRA 120953Z AUTO 04009KT 10SM FEW100 24/10 A2997 RMK AO2 SLP097 T02440100,M
ELY,2023-09-12 09:53,-114.8453,39.2950,1909.00,48.00,46.00,92.74,180.00,7.00,0.00,30.19,1014.40,9.00,M,CLR,M,M,M,M,M,M,M,M,M,M,M,M,M,M,44.28,KELY 120953Z AUTO 18007KT 9SM CLR 09/08 A3019 RMK AO2 SLP144 T00890078,M
VGT,2023-09-12 09:53,-115.1933,36.2111,667.00,84.00,54.00,35.72,360.00,4.00,0.00,29.89,1010.80,10.00,M,CLR,M,M,M,M,M,M,M,M,M,M,M,M,M,M,82.67,KVGT 120953Z AUTO 36004KT 10SM CLR 29/12 A2989 RMK AO2 SLP108 T02890122,M
LOL,2023-09-12 09:53,-118.5701,40.0684,1192.43,55.00,45.00,68.93,0.00,0.00,0.00,30.05,1014.20,10.00,M,CLR,M,M,M,M,M,M,M,M,M,M,M,M,M,M,55.00,KLOL 120953Z AUTO 00000KT 10SM CLR 13/07 A3005 RMK AO2 SLP142 T01280072,M
P68,2023-09-12 09:53,-116.0056,39.6014,1993.00,47.00,44.00,89.24,140.00,5.00,0.00,30.18,1015.90,M,M,M,M,M,M,M,M,M,M,M,M,M,M,M,M,M,44.21,KP68 120953Z AUTO 14005KT 08/07 A3018 RMK AO1 SLP159 T00830067,M
RNO,2023-09-12 09:55,-119.7711,39.4839,1341.00,62.00,40.00,44.25,270.00,5.00,0.00,30.11,1014.30,10.00,M,FEW,M,M,M,10000.00,M,M,M,M,M,M,M,M,M,M,62.00,KRNO 120955Z 27005KT 10SM FEW100 17/04 A3011 RMK AO2 SLP143 T01670044,M
LSV,2023-09-12 09:55,-115.0343,36.2362,570.00,82.40,55.00,39.01,60.00,4.00,0.00,29.85,1008.10,10.00,M,SCT,BKN,M,M,18000.00,21000.00,M,M,M,M,M,M,M,M,M,81.68,KLSV 120955Z AUTO 06004KT 10SM SCT180 BKN210 28/13 A2985 RMK AO2 SLP081 T02800127 $,M
RTS,2023-09-12 09:55,-119.8764,39.6682,1539.00,55.40,32.00,40.84,340.00,4.00,0.00,30.16,M,10.00,M,FEW,M,M,M,9500.00,M,M,M,M,M,M,M,M,M,M,55.40,KRTS 120955Z AUTO 34004KT 10SM FEW095 13/M00 A3016 RMK AO2,M
MEV,2023-09-12 09:55,-119.7500,38.9963,1441.42,50.00,41.00,71.07,0.00,0.00,0.00,30.13,M,10.00,M,FEW,SCT,M,M,4400.00,9000.00,M,M,M,M,M,M,M,M,M,50.00,KMEV 120955Z AUTO 00000KT 10SM FEW044 SCT090 10/05 A3013 RMK AO2,M
HTH,2023-09-12 09:55,-118.6315,38.5448,1282.89,59.00,53.60,82.25,0.00,0.00,0.00,30.09,M,10.00,M,SCT,M,M,M,10000.00,M,M,M,M,M,M,M,M,M,M,59.00,KHTH 120955Z AUTO 00000KT 10SM SCT100 15/12 A3009 RMK A01,M
BVU,2023-09-12 09:55,-114.8611,35.9475,671.00,80.60,53.60,39.30,80.00,4.00,0.00,29.89,M,10.00,M,CLR,M,M,M,M,M,M,M,M,M,M,M,M,M,M,80.29,KBVU 120955Z AUTO 08004KT 10SM CLR 27/12 A2989 RMK AO2,M
CXP,2023-09-12 09:55,-119.7326,39.1923,1431.00,55.40,42.80,62.46,0.00,0.00,0.00,30.14,M,10.00,M,CLR,M,M,M,M,M,M,M,M,M,M,M,M,M,M,55.40,KCXP 120955Z AUTO 00000KT 10SM CLR 13/06 A3014 RMK AO2,M
BAM,2023-09-12 09:55,-116.8743,40.5990,1382.36,51.80,51.80,100.00,140.00,6.00,0.00,30.11,M,10.00,M,CLR,M,M,M,M,M,M,M,M,M,M,M,M,M,M,51.80,KBAM 120955Z AUTO 14006KT 10SM CLR 11/11 A3011 RMK AO1,M
TMT,2023-09-12 09:55,-117.1971,39.4643,1749.34,48.20,46.60,94.16,120.00,3.00,0.00,30.18,M,M,M,M,M,M,M,M,M,M,M,M,M,M,M,M,M,M,47.21,KTMT 120955Z AUTO 12003KT 09/08 A3018 RMK AO2 T00900081 PWINO,M
INS,2023-09-12 09:55,-115.6733,36.5872,955.00,75.00,48.20,38.72,300.00,4.00,0.00,29.97,1009.90,10.00,M,BKN,BKN,OVC,M,9000.00,16000.00,20000.00,M,M,M,M,M,M,M,M,75.00,KINS 120955Z AUTO 30004KT 10SM BKN090 BKN160 OVC200 24/09 A2997 RMK AO2 SLP099 T02380090 $,M
WMC,2023-09-12 09:56,-117.8072,40.9019,1315.00,55.00,45.00,68.93,110.00,8.00,0.00,30.07,1013.90,10.00,M,CLR,M,M,M,M,M,M,M,M,M,M,M,M,M,M,55.00,KWMC 120956Z AUTO 11008KT 10SM CLR 13/07 A3007 RMK AO2 SLP139 T01280072,M
NFL,2023-09-12 09:56,-118.7010,39.4166,1199.00,61.00,44.00,53.49,220.00,4.00,0.00,30.05,1014.50,10.00,M,CLR,M,M,M,M,M,M,M,M,M,M,M,M,M,M,61.00,KNFL 120956Z AUTO 22004KT 10SM CLR 16/07 A3005 RMK AO2 SLP145 T01610067,M
HND,2023-09-12 09:56,-115.1344,35.9729,742.79,82.00,54.00,38.11,220.00,7.00,0.00,29.93,1012.00,10.00,M,CLR,M,M,M,M,M,M,M,M,M,M,M,M,M,M,81.24,KHND 120956Z AUTO 22007KT 10SM CLR 28/12 A2993 RMK AO2 SLP120 T02780122,M
LAS,2023-09-12 09:56,-115.1634,36.0719,663.00,85.00,53.00,33.34,0.00,0.00,0.00,29.90,1009.40,10.00,M,FEW,BKN,M,M,12000.00,18000.00,M,M,M,M,M,M,M,M,M,83.27,KLAS 120956Z 00000KT 10SM FEW120 BKN180 29/12 A2990 RMK AO2 SLP094 ACC N-NE T02940117,M
EKO,2023-09-12 09:56,-115.7860,40.8242,1367.00,56.00,47.00,71.70,80.00,4.00,0.00,30.13,1014.70,10.00,M,BKN,M,M,M,10000.00,M,M,M,M,M,M,M,M,M,M,56.00,KEKO 120956Z AUTO 08004KT 10SM BKN100 13/08 A3013 RMK AO2 SLP147 T01330083,M
05U,2023-09-12 10:10,-116.0051,39.6042,1811.23,48.20,44.60,87.28,320.00,3.00,0.00,30.20,M,10.00,M,SCT,M,M,M,12000.00,M,M,M,M,M,M,M,M,M,M,47.21,K05U 121010Z AUTO 32003KT 10SM SCT120 09/07 A3020 RMK A01,M
BVU,2023-09-12 10:15,-114.8611,35.9475,671.00,78.80,55.40,44.52,70.00,5.00,0.00,29.89,M,10.00,M,CLR,M,M,M,M,M,M,M,M,M,M,M,M,M,M,78.80,KBVU 121015Z AUTO 07005KT 10SM CLR 26/13 A2989 RMK AO2,M
CXP,2023-09-12 10:15,-119.7326,39.1923,1431.00,53.60,42.80,66.70,0.00,0.00,0.00,30.14,M,10.00,M,CLR,M,M,M,M,M,M,M,M,M,M,M,M,M,M,53.60,KCXP 121015Z AUTO 00000KT 10SM CLR 12/06 A3014 RMK AO2,M
RTS,2023-09-12 10:15,-119.8764,39.6682,1539.00,51.80,32.00,46.59,350.00,5.00,0.00,30.15,M,10.00,M,CLR,M,M,M,M,M,M,M,M,M,M,M,M,M,M,51.80,KRTS 121015Z AUTO 35005KT 10SM CLR 11/M00 A3015 RMK AO2,M
MEV,2023-09-12 10:15,-119.7500,38.9963,1441.42,48.20,41.00,76.01,0.00,0.00,0.00,30.13,M,10.00,M,FEW,FEW,M,M,4400.00,8000.00,M,M,M,M,M,M,M,M,M,48.20,KMEV 121015Z AUTO 00000KT 10SM FEW044 FEW080 09/05 A3013 RMK AO2,M
HTH,2023-09-12 10:15,-118.6315,38.5448,1282.89,59.00,55.40,87.83,0.00,0.00,0.00,30.09,M,10.00,M,CLR,M,M,M,M,M,M,M,M,M,M,M,M,M,M,59.00,KHTH 121015Z AUTO 00000KT 10SM CLR 15/13 A3009 RMK A01,M
BAM,2023-09-12 10:15,-116.8743,40.5990,1382.36,51.80,50.00,93.55,140.00,3.00,0.00,30.11,M,10.00,M,CLR,M,M,M,M,M,M,M,M,M,M,M,M,M,M,51.80,KBAM 121015Z AUTO 14003KT 10SM CLR 11/10 A3011 RMK AO1,M
TMT,2023-09-12 10:15,-117.1971,39.4643,1749.34,50.00,47.30,90.39,100.00,3.00,0.00,30.18,M,M,M,M,M,M,M,M,M,M,M,M,M,M,M,M,M,M,50.00,KTMT 121015Z AUTO 10003KT 10/09 A3018 RMK AO2 T01010085 PWINO,M
05U,2023-09-12 10:30,-116.0051,39.6042,1811.23,46.40,44.60,93.40,0.00,0.00,0.00,30.20,M,10.00,M,BKN,M,M,M,12000.00,M,M,M,M,M,M,M,M,M,M,46.40,K05U 121030Z AUTO 00000KT 10SM BKN120 08/07 A3020 RMK A01,M
BVU,2023-09-12 10:35,-114.8611,35.9475,671.00,78.80,55.40,44.52,50.00,5.00,0.00,29.89,M,10.00,M,CLR,M,M,M,M,M,M,M,M,M,M,M,M,M,M,78.80,KBVU 121035Z AUTO 05005KT 10SM CLR 26/13 A2989 RMK AO2,M
CXP,2023-09-12 10:35,-119.7326,39.1923,1431.00,53.60,42.80,66.70,0.00,0.00,0.00,30.14,M,10.00,M,CLR,M,M,M,M,M,M,M,M,M,M,M,M,M,M,53.60,KCXP 121035Z AUTO 00000KT 10SM CLR 12/06 A3014 RMK AO2,M
RTS,2023-09-12 10:35,-119.8764,39.6682,1539.00,50.00,30.20,46.31,350.00,7.00,0.00,30.15,M,10.00,M,CLR,M,M,M,M,M,M,M,M,M,M,M,M,M,M,50.00,KRTS 121035Z AUTO 35007KT 10SM CLR 10/M01 A3015 RMK AO2,M
MEV,2023-09-12 10:35,-119.7500,38.9963,1441.42,46.40,41.00,81.34,M,3.00,0.00,30.13,M,10.00,M,BKN,M,M,M,8500.00,M,M,M,M,M,M,M,M,M,M,45.15,KMEV 121035Z AUTO VRB03KT 10SM BKN085 08/05 A3013 RMK AO2,M
HTH,2023-09-12 10:35,-118.6315,38.5448,1282.89,59.00,53.60,82.25,0.00,0.00,0.00,30.09,M,10.00,M,CLR,M,M,M,M,M,M,M,M,M,M,M,M,M,M,59.00,KHTH 121035Z AUTO 00000KT 10SM CLR 15/12 A3009 RMK A01,M
BAM,2023-09-12 10:35,-116.8743,40.5990,1382.36,51.80,50.00,93.55,120.00,6.00,0.00,30.11,M,10.00,M,CLR,M,M,M,M,M,M,M,M,M,M,M,M,M,M,51.80,KBAM 121035Z AUTO 12006KT 10SM CLR 11/10 A3011 RMK AO1,M
TMT,2023-09-12 10:35,-117.1971,39.4643,1749.34,50.00,48.00,92.80,0.00,0.00,0.00,30.18,M,M,M,M,M,M,M,M,M,M,M,M,M,M,M,M,M,M,50.00,KTMT 121035Z AUTO 00000KT 10/09 A3018 RMK AO2 T01010088 PWINO,M
05U,2023-09-12 10:50,-116.0051,39.6042,1811.23,48.20,44.60,87.28,40.00,3.00,0.00,30.20,M,10.00,M,BKN,M,M,M,12000.00,M,M,M,M,M,M,M,M,M,M,47.21,K05U 121050Z AUTO 04003KT 10SM BKN120 09/07 A3020 RMK A01,M
P68,2023-09-12 10:53,-116.0056,39.6014,1993.00,48.00,45.00,89.29,230.00,4.00,0.00,30.17,1015.70,M,M,M,M,M,M,M,M,M,M,M,M,M,M,M,M,M,46.10,KP68 121053Z AUTO 23004KT 09/07 A3017 RMK AO1 SLP157 T00890072,M
DRA,2023-09-12 10:53,-116.0278,36.6206,1009.00,70.00,57.00,63.37,10.00,13.00,T,29.98,1010.40,8.00,M,FEW,BKN,BKN,M,6500.00,10000.00,11000.00,M,RA,M,M,M,M,M,M,70.00,KDRA 121053Z AUTO 01013KT 8SM RA FEW065 BKN100 BKN110 21/14 A2998 RMK AO2 RAB46 SLP104 P0000 T02110139,M
ELY,2023-09-12 10:53,-114.8453,39.2950,1909.00,48.00,44.00,85.95,180.00,7.00,0.00,30.19,1015.00,10.00,M,CLR,M,M,M,M,M,M,M,M,M,M,M,M,M,M,44.28,KELY 121053Z AUTO 18007KT 10SM CLR 09/07 A3019 RMK AO2 SLP150 T00890067,M
VGT,2023-09-12 10:53,-115.1933,36.2111,667.00,83.00,55.00,38.26,30.00,5.00,0.00,29.88,1010.60,10.00,M,CLR,M,M,M,M,M,M,M,M,M,M,M,M,M,M,82.11,KVGT 121053Z AUTO 03005KT 10SM CLR 28/13 A2988 RMK AO2 SLP106 T02830128,M
LOL,2023-09-12 10:53,-118.5701,40.0684,1192.43,51.00,44.00,76.85,230.00,3.00,0.00,30.04,1014.20,10.00,M,CLR,M,M,M,M,M,M,M,M,M,M,M,M,M,M,51.00,KLOL 121053Z AUTO 23003KT 10SM CLR 11/07 A3004 RMK AO2 SLP142 T01060067,M
BVU,2023-09-12 10:55,-114.8611,35.9475,671.00,78.80,55.40,44.52,80.00,4.00,0.00,29.89,M,10.00,M,SCT,M,M,M,11000.00,M,M,M,M,M,M,M,M,M,M,78.80,KBVU 121055Z AUTO 08004KT 10SM SCT110 26/13 A2989 RMK AO2,M
CXP,2023-09-12 10:55,-119.7326,39.1923,1431.00,53.60,42.80,66.70,0.00,0.00,0.00,30.14,M,10.00,M,FEW,M,M,M,9000.00,M,M,M,M,M,M,M,M,M,M,53.60,KCXP 121055Z AUTO 00000KT 10SM FEW090 12/06 A3014 RMK AO2,M
INS,2023-09-12 10:55,-115.6733,36.5872,955.00,75.40,47.30,36.93,0.00,0.00,0.00,29.96,1009.60,10.00,M,BKN,OVC,M,M,10000.00,15000.00,M,M,M,M,M,M,M,M,M,75.40,KINS 121055Z AUTO 00000KT 10SM BKN100 OVC150 24/09 A2996 RMK AO2 LTG DSNT W SLP096 T02410085 $,M
RNO,2023-09-12 10:55,-119.7711,39.4839,1341.00,61.00,39.00,44.10,M,3.00,0.00,30.11,1014.10,10.00,M,CLR,M,M,M,M,M,M,M,M,M,M,M,M,M,M,61.00,KRNO 121055Z VRB03KT 10SM CLR 16/04 A3011 RMK AO2 SLP141 T01610039,M
RTS,2023-09-12 10:55,-119.8764,39.6682,1539.00,50.00,30.20,46.31,350.00,7.00,0.00,30.15,M,10.00,M,CLR,M,M,M,M,M,M,M,M,M,M,M,M,M,M,50.00,KRTS 121055Z AUTO 35007KT 10SM CLR 10/M01 A3015 RMK AO2,M
MEV,2023-09-12 10:55,-119.7500,38.9963,1441.42,46.40,39.20,75.84,140.00,7.00,0.00,30.12,M,10.00,M,SCT,M,M,M,8000.00,M,M,M,M,M,M,M,M,M,M,42.33,KMEV 121055Z AUTO 14007KT 10SM SCT080 08/04 A3012 RMK AO2,M
HTH,2023-09-12 10:55,-118.6315,38.5448,1282.89,59.00,53.60,82.25,0.00,0.00,0.00,30.09,M,10.00,M,CLR,M,M,M,M,M,M,M,M,M,M,M,M,M,M,59.00,KHTH 121055Z AUTO 00000KT 10SM CLR 15/12 A3009 RMK A01,M
BAM,2023-09-12 10:55,-116.8743,40.5990,1382.36,51.80,50.00,93.55,160.00,3.00,0.00,30.11,M,10.00,M,CLR,M,M,M,M,M,M,M,M,M,M,M,M,M,M,51.80,KBAM 121055Z AUTO 16003KT 10SM CLR 11/10 A3011 RMK AO1,M
TMT,2023-09-12 10:55,-117.1971,39.4643,1749.34,49.60,47.70,93.14,310.00,4.00,0.00,30.18,M,M,M,M,M,M,M,M,M,M,M,M,M,M,M,M,M,M,47.97,KTMT 121055Z AUTO 31004KT 10/09 A3018 RMK AO2 T00980087 PWINO,M
LSV,2023-09-12 10:55,-115.0343,36.2362,570.00,81.30,55.40,41.02,20.00,6.00,0.00,29.84,1007.80,10.00,M,FEW,BKN,M,M,17000.00,22000.00,M,M,M,M,M,M,M,M,M,80.99,KLSV 121055Z AUTO 02006KT 10SM FEW170 BKN220 27/13 A2984 RMK AO2 SLP078 T02740130 $,M
EKO,2023-09-12 10:56,-115.7860,40.8242,1367.00,54.00,46.00,74.26,0.00,0.00,0.00,30.12,1015.10,10.00,M,CLR,M,M,M,M,M,M,M,M,M,M,M,M,M,M,54.00,KEKO 121056Z AUTO 00000KT 10SM CLR 12/08 A3012 RMK AO2 SLP151 T01220078,M
WMC,2023-09-12 10:56,-117.8072,40.9019,1315.00,53.00,44.00,71.39,140.00,4.00,0.00,30.07,1013.80,10.00,M,CLR,M,M,M,M,M,M,M,M,M,M,M,M,M,M,53.00,KWMC 121056Z AUTO 14004KT 10SM CLR 12/07 A3007 RMK AO2 SLP138 T01170067,M
NFL,2023-09-12 10:56,-118.7010,39.4166,1199.00,59.00,43.00,55.28,130.00,4.00,0.00,30.05,1014.40,10.00,M,CLR,M,M,M,M,M,M,M,M,M,M,M,M,M,M,59.00,KNFL 121056Z AUTO 13004KT 10SM CLR 15/06 A3005 RMK AO2 SLP144 T01500061,M
HND,2023-09-12 10:56,-115.1344,35.9729,742.79,82.00,55.00,39.52,200.00,10.00,0.00,29.93,1011.90,10.00,M,CLR,M,M,M,M,M,M,M,M,M,M,M,M,M,M,81.40,KHND 121056Z AUTO 20010KT 10SM CLR 28/13 A2993 RMK AO2 SLP119 T02780128,M
LAS,2023-09-12 10:56,-115.1634,36.0719,663.00,84.00,53.00,34.43,0.00,0.00,0.00,29.89,1009.20,10.00,M,FEW,BKN,M,M,12000.00,18000.00,M,M,M,M,M,M,M,M,M,82.51,KLAS 121056Z 00000KT 10SM FEW120 BKN180 29/12 A2989 RMK AO2 SLP092 ACC N-NE T02890117,M
INS,2023-09-12 10:58,-115.6733,36.5872,955.00,75.20,48.20,38.46,240.00,11.00,0.00,29.97,1009.90,10.00,M,SCT,BKN,OVC,M,10000.00,11000.00,14000.00,M,TS,M,M,M,M,M,M,75.20,KINS 121058Z AUTO 24011KT 10SM TS SCT100 BKN110 OVC140 24/09 A2997 RMK AO2 TSB58 SLP099 $,M
INS,2023-09-12 11:04,-115.6733,36.5872,955.00,75.20,50.00,41.14,250.00,10.00,0.00,29.97,1009.90,10.00,18.00,BKN,BKN,OVC,M,9500.00,11000.00,14000.00,M,TS -DZ,M,M,M,M,M,M,75.20,KINS 121104Z AUTO 25010G18KT 10SM TS -DZ BKN095 BKN110 OVC140 24/10 A2997 RMK AO2 DZB04 TSB1058 SLP099 $,M
05U,2023-09-12 11:10,-116.0051,39.6042,1811.23,48.20,44.60,87.28,360.00,3.00,0.00,30.20,M,10.00,M,SCT,M,M,M,12000.00,M,M,M,M,M,M,M,M,M,M,47.21,K05U 121110Z AUTO 36003KT 10SM SCT120 09/07 A3020 RMK A01,M
INS,2023-09-12 11:13,-115.6733,36.5872,955.00,71.60,60.80,68.75,210.00,12.00,0.00,29.98,1010.40,10.00,20.00,BKN,OVC,M,M,5000.00,9500.00,M,M,-TSRA,M,M,M,M,M,M,71.60,KINS 121113Z AUTO 21012G20KT 10SM -TSRA BKN050 OVC095 22/16 A2998 RMK AO2 WSHFT 02 DZB04E08RAB08 TSB1058 SLP104 $,M
BVU,2023-09-12 11:15,-114.8611,35.9475,671.00,78.80,57.20,47.52,50.00,4.00,0.00,29.89,M,10.00,M,BKN,M,M,M,11000.00,M,M,M,M,M,M,M,M,M,M,78.80,KBVU 121115Z AUTO 05004KT 10SM BKN110 26/14 A2989 RMK AO2,M
CXP,2023-09-12 11:15,-119.7326,39.1923,1431.00,53.60,42.80,66.70,0.00,0.00,0.00,30.13,M,10.00,M,SCT,M,M,M,8500.00,M,M,M,M,M,M,M,M,M,M,53.60,KCXP 121115Z AUTO 00000KT 10SM SCT085 12/06 A3013 RMK AO2,M
RTS,2023-09-12 11:15,-119.8764,39.6682,1539.00,50.00,30.20,46.31,340.00,6.00,0.00,30.15,M,10.00,M,CLR,M,M,M,M,M,M,M,M,M,M,M,M,M,M,50.00,KRTS 121115Z AUTO 34006KT 10SM CLR 10/M01 A3015 RMK AO2,M
MEV,2023-09-12 11:15,-119.7500,38.9963,1441.42,48.20,39.20,70.88,110.00,6.00,0.00,30.12,M,10.00,M,CLR,M,M,M,M,M,M,M,M,M,M,M,M,M,M,45.04,KMEV 121115Z AUTO 11006KT 10SM CLR 09/04 A3012 RMK AO2,M
BAM,2023-09-12 11:15,-116.8743,40.5990,1382.36,51.80,50.00,93.55,200.00,3.00,0.00,30.11,M,10.00,M,BKN,M,M,M,11000.00,M,M,M,M,M,M,M,M,M,M,51.80,KBAM 121115Z AUTO 20003KT 10SM BKN110 11/10 A3011 RMK AO1,M
HTH,2023-09-12 11:15,-118.6315,38.5448,1282.89,57.20,53.60,87.74,150.00,4.00,0.00,30.09,M,10.00,M,CLR,M,M,M,M,M,M,M,M,M,M,M,M,M,M,57.20,KHTH 121115Z AUTO 15004KT 10SM CLR 14/12 A3009 RMK A01,M
TMT,2023-09-12 11:15,-117.1971,39.4643,1749.34,50.00,47.70,91.76,0.00,0.00,0.00,30.18,M,M,M,M,M,M,M,M,M,M,M,M,M,M,M,M,M,M,50.00,KTMT 121115Z AUTO 00000KT 10/09 A3018 RMK AO2 T01000087 PWINO,M
INS,2023-09-12 11:25,-115.6733,36.5872,955.00,69.80,59.00,68.55,240.00,10.00,0.00,29.98,1010.60,8.00,M,FEW,BKN,OVC,M,300.00,7000.00,10000.00,M,VCTS +RA,M,M,M,M,M,M,69.80,KINS 121125Z AUTO 24010KT 8SM VCTS +RA FEW003 BKN070 OVC100 21/15 A2998 RMK AO2 DZB04E08RAB08 TSB1058E25 SLP106 $,M
CXP,2023-09-12 11:30,-119.7326,39.1923,1431.00,53.60,42.80,66.70,0.00,0.00,0.00,30.13,M,10.00,M,CLR,M,M,M,M,M,M,M,M,M,M,M,M,M,M,53.60,KCXP 121130Z AUTO 00000KT 10SM CLR 12/06 A3013 RMK AO2,M
05U,2023-09-12 11:30,-116.0051,39.6042,1811.23,48.20,44.60,87.28,330.00,4.00,0.00,30.19,M,10.00,M,FEW,M,M,M,12000.00,M,M,M,M,M,M,M,M,M,M,46.34,K05U 121130Z AUTO 33004KT 10SM FEW120 09/07 A3019 RMK A01,M
BVU,2023-09-12 11:35,-114.8611,35.9475,671.00,80.60,55.40,41.97,0.00,0.00,0.00,29.89,M,10.00,M,BKN,M,M,M,12000.00,M,M,M,M,M,M,M,M,M,M,80.53,KBVU 121135Z AUTO 00000KT 10SM BKN120 27/13 A2989 RMK AO2,M
RTS,2023-09-12 11:35,-119.8764,39.6682,1539.00,48.20,32.00,53.27,350.00,8.00,0.00,30.14,M,10.00,M,CLR,M,M,M,M,M,M,M,M,M,M,M,M,M,M,44.07,KRTS 121135Z AUTO 35008KT 10SM CLR 09/M00 A3014 RMK AO2,M
MEV,2023-09-12 11:35,-119.7500,38.9963,1441.42,46.40,39.20,75.84,0.00,0.00,0.00,30.12,M,10.00,M,FEW,M,M,M,8000.00,M,M,M,M,M,M,M,M,M,M,46.40,KMEV 121135Z AUTO 00000KT 10SM FEW080 08/04 A3012 RMK AO2,M
BAM,2023-09-12 11:35,-116.8743,40.5990,1382.36,51.80,50.00,93.55,0.00,0.00,0.00,30.11,M,10.00,M,OVC,M,M,M,11000.00,M,M,M,M,M,M,M,M,M,M,51.80,KBAM 121135Z AUTO 00000KT 10SM OVC110 11/10 A3011 RMK AO1,M
HTH,2023-09-12 11:35,-118.6315,38.5448,1282.89,57.20,51.80,82.12,0.00,0.00,0.00,30.08,M,10.00,M,CLR,M,M,M,M,M,M,M,M,M,M,M,M,M,M,57.20,KHTH 121135Z AUTO 00000KT 10SM CLR 14/11 A3008 RMK A01,M
TMT,2023-09-12 11:35,-117.1971,39.4643,1749.34,49.30,47.30,92.78,340.00,3.00,0.00,30.18,M,M,M,M,M,M,M,M,M,M,M,M,M,M,M,M,M,M,48.47,KTMT 121135Z AUTO 34003KT 10/09 A3018 RMK AO2 T00960085 PWINO,M
INS,2023-09-12 11:38,-115.6733,36.5872,955.00,69.80,57.20,64.26,230.00,7.00,0.00,29.98,1010.60,10.00,M,SCT,OVC,M,M,7500.00,10000.00,M,M,VCTS,M,M,M,M,M,M,69.80,KINS 121138Z AUTO 23007KT 10SM VCTS SCT075 OVC100 21/14 A2998 RMK AO2 DZB04E08RAB08E38 TSB1058E25 SLP106 $,M
05U,2023-09-12 11:50,-116.0051,39.6042,1811.23,46.40,44.60,93.40,340.00,4.00,0.00,30.19,M,10.00,M,CLR,M,M,M,M,M,M,M,M,M,M,M,M,M,M,44.24,K05U 121150Z AUTO 34004KT 10SM CLR 08/07 A3019 RMK A01,M
P68,2023-09-12 11:53,-116.0056,39.6014,1993.00,48.00,44.00,85.95,180.00,5.00,0.00,30.17,1015.80,M,M,M,M,M,M,M,M,M,M,M,M,M,M,M,M,M,45.40,KP68 121153Z AUTO 18005KT 09/07 A3017 RMK AO1 SLP158 T00890067 10128 20072 58003,M
DRA,2023-09-12 11:53,-116.0278,36.6206,1009.00,72.00,56.00,57.10,70.00,4.00,0.07,29.98,1010.20,10.00,M,SCT,M,M,M,10000.00,M,M,M,M,M,M,M,M,M,M,72.00,KDRA 121153Z AUTO 07004KT 10SM SCT100 22/13 A2998 RMK AO2 RAE08 SLP102 P0007 60007 70007 T02220133 10250 20194 53000,M
ELY,2023-09-12 11:53,-114.8453,39.2950,1909.00,45.00,43.00,92.65,170.00,8.00,0.00,30.19,1016.70,10.00,M,CLR,M,M,M,M,M,M,M,M,M,M,M,M,M,M,40.13,KELY 121153Z AUTO 17008KT 10SM CLR 07/06 A3019 RMK AO2 SLP167 70001 T00720061 10122 20072 55002,M
VGT,2023-09-12 11:53,-115.1933,36.2111,667.00,83.00,56.00,39.68,30.00,6.00,0.00,29.89,1010.80,10.00,M,CLR,M,M,M,M,M,M,M,M,M,M,M,M,M,M,82.29,KVGT 121153Z AUTO 03006KT 10SM CLR 28/13 A2989 RMK AO2 LTG DSNT NW SLP108 T02830133 10311 20283 55002,M
LOL,2023-09-12 11:53,-118.5701,40.0684,1192.43,52.00,42.00,68.59,0.00,0.00,0.00,30.05,1014.10,10.00,M,CLR,M,M,M,M,M,M,M,M,M,M,M,M,M,M,52.00,KLOL 121153Z AUTO 00000KT 10SM CLR 11/06 A3005 RMK AO2 SLP141 T01110056 10206 20100 57002,M
BVU,2023-09-12 11:55,-114.8611,35.9475,671.00,78.80,57.20,47.52,70.00,4.00,0.00,29.89,M,10.00,M,OVC,M,M,M,11000.00,M,M,M,M,M,M,M,M,M,M,78.80,KBVU 121155Z AUTO 07004KT 10SM OVC110 26/14 A2989 RMK AO2,M
CXP,2023-09-12 11:55,-119.7326,39.1923,1431.00,53.60,42.80,66.70,0.00,0.00,0.00,30.13,M,10.00,M,CLR,M,M,M,M,M,M,M,M,M,M,M,M,M,M,53.60,KCXP 121155Z AUTO 00000KT 10SM CLR 12/06 A3013 RMK AO2,M
RNO,2023-09-12 11:55,-119.7711,39.4839,1341.00,59.00,38.00,45.53,280.00,4.00,0.00,30.11,1014.30,10.00,M,CLR,M,M,M,M,M,M,M,M,M,M,M,M,M,M,59.00,KRNO 121155Z 28004KT 10SM CLR 15/03 A3011 RMK AO2 SLP143 T01500033 10211 20150 57002,M
RTS,2023-09-12 11:55,-119.8764,39.6682,1539.00,48.20,30.20,49.53,340.00,4.00,0.00,30.14,M,10.00,M,CLR,M,M,M,M,M,M,M,M,M,M,M,M,M,M,46.34,KRTS 121155Z AUTO 34004KT 10SM CLR 09/M01 A3014 RMK AO2,M
MEV,2023-09-12 11:55,-119.7500,38.9963,1441.42,50.00,41.00,71.07,0.00,0.00,0.00,30.12,M,10.00,M,FEW,M,M,M,8500.00,M,M,M,M,M,M,M,M,M,M,50.00,KMEV 121155Z AUTO 00000KT 10SM FEW085 10/05 A3012 RMK AO2,M
HTH,2023-09-12 11:55,-118.6315,38.5448,1282.89,55.40,51.80,87.65,130.00,6.00,0.00,30.09,M,10.00,M,CLR,M,M,M,M,M,M,M,M,M,M,M,M,M,M,55.40,KHTH 121155Z AUTO 13006KT 10SM CLR 13/11 A3009 RMK A01,M
BAM,2023-09-12 11:55,-116.8743,40.5990,1382.36,51.80,50.00,93.55,190.00,3.00,0.00,30.10,M,10.00,M,OVC,M,M,M,11000.00,M,M,M,M,M,M,M,M,M,M,51.80,KBAM 121155Z AUTO 19003KT 10SM OVC110 11/10 A3010 RMK AO1,M
TMT,2023-09-12 11:55,-117.1971,39.4643,1749.34,46.40,45.70,97.39,120.00,4.00,0.00,30.18,M,M,M,M,M,M,M,M,M,M,M,M,M,M,M,M,M,M,44.24,KTMT 121155Z AUTO 12004KT 08/08 A3018 RMK AO2 7//// T00800076 10127 20080 PWINO,M
INS,2023-09-12 11:55,-115.6733,36.5872,955.00,71.20,60.00,67.73,0.00,0.00,0.06,29.98,1010.60,10.00,M,BKN,OVC,M,M,10000.00,12000.00,M,M,VCTS,M,M,M,M,M,M,71.20,KINS 121155Z AUTO 00000KT 10SM VCTS BKN100 OVC120 22/16 A2998 RMK AO2 DZB04E08RAB08E38 TSB1058E25 SLP106 P0006 60006 70006 T02180156 10262 20205 53004 $,M
LSV,2023-09-12 11:55,-115.0343,36.2362,570.00,81.30,55.40,41.02,30.00,10.00,0.00,29.85,1008.20,10.00,M,FEW,FEW,M,M,15000.00,20000.00,M,M,M,M,M,M,M,M,M,80.99,KLSV 121155Z AUTO 03010KT 10SM FEW150 FEW200 27/13 A2985 RMK AO2 SLP082 T02740130 10308 20271 55001 $,M
EKO,2023-09-12 11:56,-115.7860,40.8242,1367.00,51.00,44.00,76.85,0.00,0.00,0.00,30.12,1015.50,10.00,M,CLR,M,M,M,M,M,M,M,M,M,M,M,M,M,M,51.00,KEKO 121156Z AUTO 00000KT 10SM CLR 11/07 A3012 RMK AO2 SLP155 T01060067 10172 20100 56004,M
WMC,2023-09-12 11:56,-117.8072,40.9019,1315.00,50.00,43.00,76.76,50.00,3.00,0.00,30.07,1014.10,10.00,M,CLR,M,M,M,M,M,M,M,M,M,M,M,M,M,M,50.00,KWMC 121156Z AUTO 05003KT 10SM CLR 10/06 A3007 RMK AO2 SLP141 T01000061 10172 20094 55002,M
NFL,2023-09-12 11:56,-118.7010,39.4166,1199.00,59.00,44.00,57.44,180.00,4.00,0.00,30.05,1014.60,10.00,M,CLR,M,M,M,M,M,M,M,M,M,M,M,M,M,M,59.00,KNFL 121156Z AUTO 18004KT 10SM CLR 15/07 A3005 RMK AO2 SLP146 T01500067 10239 20139 55001,M
HND,2023-09-12 11:56,-115.1344,35.9729,742.79,81.00,55.00,40.83,200.00,7.00,0.00,29.93,1011.90,10.00,M,FEW,M,M,M,11000.00,M,M,M,M,M,M,M,M,M,M,80.73,KHND 121156Z AUTO 20007KT 10SM FEW110 27/13 A2993 RMK AO2 SLP119 T02720128 10289 20272 58002,M
LAS,2023-09-12 11:56,-115.1634,36.0719,663.00,82.00,54.00,38.11,300.00,5.00,0.00,29.89,1009.30,10.00,M,FEW,BKN,M,M,18000.00,21000.00,M,M,M,M,M,M,M,M,M,81.24,KLAS 121156Z 30005KT 10SM FEW180 BKN210 28/12 A2989 RMK AO2 SLP093 T02780122 10311 20278 55001,M
INS,2023-09-12 12:07,-115.6733,36.5872,955.00,71.60,53.60,53.03,0.00,0.00,0.00,29.99,1010.80,10.00,M,FEW,BKN,OVC,M,7000.00,9500.00,12000.00,M,VCTS -DZ,M,M,M,M,M,M,71.60,KINS 121207Z AUTO 00000KT 10SM VCTS -DZ FEW070 BKN095 OVC120 22/12 A2999 RMK AO2 DZB07 SLP108 $,M
05U,2023-09-12 12:10,-116.0051,39.6042,1811.23,48.20,42.80,81.47,340.00,6.00,0.00,30.20,M,10.00,M,FEW,SCT,M,M,9000.00,12000.00,M,M,M,M,M,M,M,M,M,45.04,K05U 121210Z AUTO 34006KT 10SM FEW090 SCT120 09/06 A3020 RMK A01,M
BVU,2023-09-12 12:15,-114.8611,35.9475,671.00,80.60,53.60,39.30,70.00,5.00,0.00,29.89,M,10.00,M,SCT,M,M,M,11000.00,M,M,M,M,M,M,M,M,M,M,80.29,KBVU 121215Z AUTO 07005KT 10SM SCT110 27/12 A2989 RMK AO2,M
CXP,2023-09-12 12:15,-119.7326,39.1923,1431.00,53.60,42.80,66.70,0.00,0.00,0.00,30.13,M,10.00,M,CLR,M,M,M,M,M,M,M,M,M,M,M,M,M,M,53.60,KCXP 121215Z AUTO 00000KT 10SM CLR 12/06 A3013 RMK AO2,M
RTS,2023-09-12 12:15,-119.8764,39.6682,1539.00,48.20,32.00,53.27,350.00,6.00,0.00,30.14,M,10.00,M,CLR,M,M,M,M,M,M,M,M,M,M,M,M,M,M,45.04,KRTS 121215Z AUTO 35006KT 10SM CLR 09/M00 A3014 RMK AO2,M
MEV,2023-09-12 12:15,-119.7500,38.9963,1441.42,50.00,39.20,66.27,0.00,0.00,0.00,30.12,M,10.00,M,FEW,FEW,M,M,4800.00,5500.00,M,M,M,M,M,M,M,M,M,50.00,KMEV 121215Z AUTO 00000KT 10SM FEW048 FEW055 10/04 A3012 RMK AO2,M
HTH,2023-09-12 12:15,-118.6315,38.5448,1282.89,57.20,53.60,87.74,200.00,3.00,0.00,30.08,M,10.00,M,CLR,M,M,M,M,M,M,M,M,M,M,M,M,M,M,57.20,KHTH 121215Z AUTO 20003KT 10SM CLR 14/12 A3008 RMK A01,M
BAM,2023-09-12 12:15,-116.8743,40.5990,1382.36,53.60,51.80,93.60,250.00,3.00,0.00,30.10,M,10.00,M,OVC,M,M,M,12000.00,M,M,M,M,M,M,M,M,M,M,53.60,KBAM 121215Z AUTO 25003KT 10SM OVC120 12/11 A3010 RMK AO1,M
TMT,2023-09-12 12:15,-117.1971,39.4643,1749.34,45.70,45.00,97.38,0.00,0.00,0.00,30.18,M,M,M,M,M,M,M,M,M,M,M,M,M,M,M,M,M,M,45.70,KTMT 121215Z AUTO 00000KT 08/07 A3018 RMK AO2 T00760072 PWINO,M
05U,2023-09-12 12:30,-116.0051,39.6042,1811.23,46.40,42.80,87.19,360.00,5.00,0.00,30.19,M,10.00,M,SCT,BKN,M,M,9000.00,12000.00,M,M,M,M,M,M,M,M,M,43.50,K05U 121230Z AUTO 36005KT 10SM SCT090 BKN120 08/06 A3019 RMK A01,M
BVU,2023-09-12 12:35,-114.8611,35.9475,671.00,80.60,53.60,39.30,190.00,5.00,0.00,29.90,M,10.00,M,FEW,FEW,BKN,M,4900.00,7000.00,9000.00,M,VCTS,M,M,M,M,M,M,80.29,KBVU 121235Z AUTO 19005KT 10SM VCTS FEW049 FEW070 BKN090 27/12 A2990 RMK AO2 LTG DSNT S,M
CXP,2023-09-12 12:35,-119.7326,39.1923,1431.00,53.60,42.80,66.70,0.00,0.00,0.00,30.13,M,10.00,M,CLR,M,M,M,M,M,M,M,M,M,M,M,M,M,M,53.60,KCXP 121235Z AUTO 00000KT 10SM CLR 12/06 A3013 RMK AO2,M
RTS,2023-09-12 12:35,-119.8764,39.6682,1539.00,48.20,32.00,53.27,360.00,5.00,0.00,30.15,M,10.00,M,CLR,M,M,M,M,M,M,M,M,M,M,M,M,M,M,45.63,KRTS 121235Z AUTO 36005KT 10SM CLR 09/M00 A3015 RMK AO2,M
MEV,2023-09-12 12:35,-119.7500,38.9963,1441.42,48.20,37.40,66.05,0.00,0.00,0.00,30.12,M,10.00,M,FEW,SCT,SCT,M,4700.00,5500.00,7000.00,M,M,M,M,M,M,M,M,48.20,KMEV 121235Z AUTO 00000KT 10SM FEW047 SCT055 SCT070 09/03 A3012 RMK AO2,M
HTH,2023-09-12 12:35,-118.6315,38.5448,1282.89,57.20,53.60,87.74,190.00,3.00,0.00,30.08,M,10.00,M,CLR,M,M,M,M,M,M,M,M,M,M,M,M,M,M,57.20,KHTH 121235Z AUTO 19003KT 10SM CLR 14/12 A3008 RMK A01,M
BAM,2023-09-12 12:35,-116.8743,40.5990,1382.36,53.60,51.80,93.60,120.00,3.00,0.00,30.10,M,10.00,M,OVC,M,M,M,12000.00,M,M,M,M,M,M,M,M,M,M,53.60,KBAM 121235Z AUTO 12003KT 10SM OVC120 12/11 A3010 RMK AO1,M
TMT,2023-09-12 12:35,-117.1971,39.4643,1749.34,46.40,45.30,95.92,0.00,0.00,0.00,30.18,M,M,M,M,M,M,M,M,M,M,M,M,M,M,M,M,M,M,46.40,KTMT 121235Z AUTO 00000KT 08/07 A3018 RMK AO2 T00800074 PWINO,M
05U,2023-09-12 12:50,-116.0051,39.6042,1811.23,46.40,44.60,93.40,330.00,4.00,0.00,30.19,M,10.00,M,OVC,M,M,M,9000.00,M,M,M,M,M,M,M,M,M,M,44.24,K05U 121250Z AUTO 33004KT 10SM OVC090 08/07 A3019 RMK A01,M
P68,2023-09-12 12:53,-116.0056,39.6014,1993.00,47.00,43.00,85.89,180.00,4.00,0.00,30.17,1016.20,M,M,M,M,M,M,M,M,M,M,M,M,M,M,M,M,M,44.94,KP68 121253Z AUTO 18004KT 08/06 A3017 RMK AO1 SLP162 T00830061,M
DRA,2023-09-12 12:53,-116.0278,36.6206,1009.00,71.00,55.00,56.96,110.00,9.00,0.00,29.98,1010.40,10.00,M,FEW,M,M,M,10000.00,M,M,M,M,M,M,M,M,M,M,71.00,KDRA 121253Z AUTO 11009KT 10SM FEW100 22/13 A2998 RMK AO2 SLP104 T02170128,M
ELY,2023-09-12 12:53,-114.8453,39.2950,1909.00,44.00,42.00,92.61,170.00,9.00,0.00,30.19,1016.60,10.00,M,CLR,M,M,M,M,M,M,M,M,M,M,M,M,M,M,38.44,KELY 121253Z AUTO 17009KT 10SM CLR 07/06 A3019 RMK AO2 SLP166 T00670056,M
VGT,2023-09-12 12:53,-115.1933,36.2111,667.00,82.00,55.00,39.52,20.00,6.00,0.00,29.89,1011.10,10.00,M,CLR,M,M,M,M,M,M,M,M,M,M,M,M,M,M,81.40,KVGT 121253Z 02006KT 10SM CLR 28/13 A2989 RMK AO2 LTG DSNT SE SLP111 T02780128,M
LOL,2023-09-12 12:53,-118.5701,40.0684,1192.43,50.00,44.00,79.76,0.00,0.00,0.00,30.05,1014.50,10.00,M,CLR,M,M,M,M,M,M,M,M,M,M,M,M,M,M,50.00,KLOL 121253Z AUTO 00000KT 10SM CLR 10/07 A3005 RMK AO2 SLP145 T01000067,M
BVU,2023-09-12 12:55,-114.8611,35.9475,671.00,77.00,59.00,53.80,150.00,11.00,0.00,29.91,M,10.00,18.00,FEW,FEW,OVC,M,5000.00,7000.00,9000.00,M,TS,M,M,M,M,M,M,77.00,KBVU 121255Z AUTO 15011G18KT 10SM TS FEW050 FEW070 OVC090 25/15 A2991 RMK AO2 LTG DSNT SE AND S,M
CXP,2023-09-12 12:55,-119.7326,39.1923,1431.00,51.80,42.80,71.26,0.00,0.00,0.00,30.13,M,10.00,M,CLR,M,M,M,M,M,M,M,M,M,M,M,M,M,M,51.80,KCXP 121255Z AUTO 00000KT 10SM CLR 11/06 A3013 RMK AO2,M
INS,2023-09-12 12:55,-115.6733,36.5872,955.00,69.40,59.00,69.50,220.00,7.00,0.03,29.98,1010.60,10.00,M,FEW,BKN,BKN,OVC,6500.00,9500.00,14000.00,17000.00,-RA,M,M,M,M,M,M,69.40,KINS 121255Z AUTO 22007KT 10SM -RA FEW065 BKN095 BKN140 OVC170 21/15 A2998 RMK AO2 DZB07E09RAB09E28DZB28E45RAB45 SLP106 P0003 T02080151 $,M
RNO,2023-09-12 12:55,-119.7711,39.4839,1341.00,58.00,38.00,47.20,270.00,4.00,0.00,30.11,1014.50,10.00,M,CLR,M,M,M,M,M,M,M,M,M,M,M,M,M,M,58.00,KRNO 121255Z 27004KT 10SM CLR 14/03 A3011 RMK AO2 SLP145 T01440033,M
RTS,2023-09-12 12:55,-119.8764,39.6682,1539.00,46.40,30.20,53.00,350.00,6.00,0.00,30.15,M,10.00,M,CLR,M,M,M,M,M,M,M,M,M,M,M,M,M,M,42.87,KRTS 121255Z AUTO 35006KT 10SM CLR 08/M01 A3015 RMK AO2,M
MEV,2023-09-12 12:55,-119.7500,38.9963,1441.42,44.60,37.40,75.68,80.00,5.00,0.00,30.12,M,10.00,M,CLR,M,M,M,M,M,M,M,M,M,M,M,M,M,M,41.36,KMEV 121255Z AUTO 08005KT 10SM CLR 07/03 A3012 RMK AO2,M
HTH,2023-09-12 12:55,-118.6315,38.5448,1282.89,55.40,53.60,93.65,180.00,4.00,0.00,30.09,M,10.00,M,CLR,M,M,M,M,M,M,M,M,M,M,M,M,M,M,55.40,KHTH 121255Z AUTO 18004KT 10SM CLR 13/12 A3009 RMK A01,M
BAM,2023-09-12 12:55,-116.8743,40.5990,1382.36,51.80,50.00,93.55,160.00,4.00,0.00,30.11,M,10.00,M,SCT,M,M,M,12000.00,M,M,M,M,M,M,M,M,M,M,51.80,KBAM 121255Z AUTO 16004KT 10SM SCT120 11/10 A3011 RMK AO1,M
TMT,2023-09-12 12:55,-117.1971,39.4643,1749.34,44.80,44.00,97.00,100.00,4.00,0.00,30.18,M,M,M,M,M,M,M,M,M,M,M,M,M,M,M,M,M,M,42.37,KTMT 121255Z AUTO 10004KT 07/07 A3018 RMK AO2 T00710067 PWINO,M
LSV,2023-09-12 12:55,-115.0343,36.2362,570.00,M,M,M,M,M,0.00,29.85,M,10.00,M,M,M,M,M,M,M,M,M,M,M,M,M,M,M,M,M,KLSV 121255Z AUTO M 10SM M M A2985 RMK AO2 LTG DSNT SE SLPNO ALSTG ESTMD $,M
EKO,2023-09-12 12:56,-115.7860,40.8242,1367.00,49.00,44.00,82.79,0.00,0.00,0.00,30.13,1016.00,10.00,M,CLR,M,M,M,M,M,M,M,M,M,M,M,M,M,M,49.00,KEKO 121256Z AUTO 00000KT 10SM CLR 09/07 A3013 RMK AO2 SLP160 T00940067,M
WMC,2023-09-12 12:56,-117.8072,40.9019,1315.00,50.00,44.00,79.76,150.00,6.00,0.00,30.08,1014.30,10.00,M,CLR,M,M,M,M,M,M,M,M,M,M,M,M,M,M,50.00,KWMC 121256Z AUTO 15006KT 10SM CLR 10/07 A3008 RMK AO2 SLP143 T01000067,M
NFL,2023-09-12 12:56,-118.7010,39.4166,1199.00,58.00,46.00,64.24,150.00,6.00,0.00,30.05,1014.50,10.00,M,CLR,M,M,M,M,M,M,M,M,M,M,M,M,M,M,58.00,KNFL 121256Z AUTO 15006KT 10SM CLR 14/08 A3005 RMK AO2 SLP145 T01440078,M
HND,2023-09-12 12:56,-115.1344,35.9729,742.79,79.00,56.00,45.20,200.00,6.00,0.00,29.94,1012.40,10.00,M,CLR,M,M,M,M,M,M,M,M,M,M,M,M,M,M,79.00,KHND 121256Z AUTO 20006KT 10SM CLR 26/13 A2994 RMK AO2 LTG DSNT E AND SE SLP124 T02610133,M
LAS,2023-09-12 12:56,-115.1634,36.0719,663.00,81.00,55.00,40.83,310.00,5.00,0.00,29.90,1009.70,10.00,M,FEW,BKN,BKN,M,12000.00,17000.00,25000.00,M,M,M,M,M,M,M,M,80.73,KLAS 121256Z 31005KT 10SM FEW120 BKN170 BKN250 27/13 A2990 RMK AO2 LTG DSNT SE SLP097 T02720128,M
INS,2023-09-12 12:59,-115.6733,36.5872,955.00,69.80,59.00,68.55,250.00,4.00,0.00,29.99,1010.90,10.00,M,SCT,BKN,OVC,M,10000.00,14000.00,17000.00,M,M,M,M,M,M,M,M,69.80,KINS 121259Z AUTO 25004KT 10SM SCT100 BKN140 OVC170 21/15 A2999 RMK AO2 LTG DSNT NW RAE55DZB55E59 SLP109 $,M
LSV,2023-09-12 13:03,-115.0343,36.2362,570.00,78.80,53.60,41.69,40.00,9.00,0.00,29.86,1008.60,10.00,M,BKN,M,M,M,15000.00,M,M,M,M,M,M,M,M,M,M,78.80,KLSV 121303Z 04009KT 10SM BKN150 26/12 A2986 RMK LTG DSNT SE SLP086 $,M
05U,2023-09-12 13:10,-116.0051,39.6042,1811.23,48.20,44.60,87.28,340.00,3.00,0.00,30.19,M,10.00,M,BKN,M,M,M,9000.00,M,M,M,M,M,M,M,M,M,M,47.21,K05U 121310Z AUTO 34003KT 10SM BKN090 09/07 A3019 RMK A01,M
BVU,2023-09-12 13:15,-114.8611,35.9475,671.00,77.00,57.20,50.43,70.00,4.00,0.00,29.91,M,10.00,M,FEW,M,M,M,9000.00,M,M,M,M,M,M,M,M,M,M,77.00,KBVU 121315Z AUTO 07004KT 10SM FEW090 25/14 A2991 RMK AO2,M
CXP,2023-09-12 13:15,-119.7326,39.1923,1431.00,51.80,42.80,71.26,0.00,0.00,0.00,30.14,M,10.00,M,CLR,M,M,M,M,M,M,M,M,M,M,M,M,M,M,51.80,KCXP 121315Z AUTO 00000KT 10SM CLR 11/06 A3014 RMK AO2,M
BAM,2023-09-12 13:15,-116.8743,40.5990,1382.36,51.80,50.00,93.55,0.00,0.00,0.00,30.11,M,10.00,M,CLR,M,M,M,M,M,M,M,M,M,M,M,M,M,M,51.80,KBAM 121315Z AUTO 00000KT 10SM CLR 11/10 A3011 RMK AO1,M
TMT,2023-09-12 13:15,-117.1971,39.4643,1749.34,45.30,44.20,95.90,170.00,4.00,0.00,30.18,M,M,M,M,M,M,M,M,M,M,M,M,M,M,M,M,M,M,42.95,KTMT 121315Z AUTO 17004KT 07/07 A3018 RMK AO2 LTG DSNT S T00740068 PWINO,M
RTS,2023-09-12 13:15,-119.8764,39.6682,1539.00,46.40,30.20,53.00,340.00,4.00,0.00,30.14,M,10.00,M,CLR,M,M,M,M,M,M,M,M,M,M,M,M,M,M,44.24,KRTS 121315Z AUTO 34004KT 10SM CLR 08/M01 A3014 RMK AO2,M
MEV,2023-09-12 13:15,-119.7500,38.9963,1441.42,44.60,37.40,75.68,0.00,0.00,0.00,30.12,M,10.00,M,CLR,M,M,M,M,M,M,M,M,M,M,M,M,M,M,44.60,KMEV 121315Z AUTO 00000KT 10SM CLR 07/03 A3012 RMK AO2,M
HTH,2023-09-12 13:15,-118.6315,38.5448,1282.89,57.20,51.80,82.12,0.00,0.00,0.00,30.09,M,10.00,M,CLR,M,M,M,M,M,M,M,M,M,M,M,M,M,M,57.20,KHTH 121315Z AUTO 00000KT 10SM CLR 14/11 A3009 RMK A01,M
05U,2023-09-12 13:30,-116.0051,39.6042,1811.23,48.20,44.60,87.28,0.00,0.00,0.00,30.20,M,10.00,M,BKN,M,M,M,9000.00,M,M,M,M,M,M,M,M,M,M,48.20,K05U 121330Z AUTO 00000KT 10SM BKN090 09/07 A3020 RMK A01,M
BVU,2023-09-12 13:35,-114.8611,35.9475,671.00,78.80,57.20,47.52,170.00,5.00,0.00,29.92,M,10.00,M,BKN,M,M,M,9000.00,M,M,M,M,M,M,M,M,M,M,78.80,KBVU 121335Z AUTO 17005KT 10SM BKN090 26/14 A2992 RMK AO2,M
CXP,2023-09-12 13:35,-119.7326,39.1923,1431.00,51.80,42.80,71.26,0.00,0.00,0.00,30.14,M,10.00,M,CLR,M,M,M,M,M,M,M,M,M,M,M,M,M,M,51.80,KCXP 121335Z AUTO 00000KT 10SM CLR 11/06 A3014 RMK AO2,M
RTS,2023-09-12 13:35,-119.8764,39.6682,1539.00,46.40,30.20,53.00,350.00,6.00,0.00,30.14,M,10.00,M,CLR,M,M,M,M,M,M,M,M,M,M,M,M,M,M,42.87,KRTS 121335Z AUTO 35006KT 10SM CLR 08/M01 A3014 RMK AO2,M
MEV,2023-09-12 13:35,-119.7500,38.9963,1441.42,44.60,37.40,75.68,0.00,0.00,0.00,30.12,M,10.00,M,CLR,M,M,M,M,M,M,M,M,M,M,M,M,M,M,44.60,KMEV 121335Z AUTO 00000KT 10SM CLR 07/03 A3012 RMK AO2,M
HTH,2023-09-12 13:35,-118.6315,38.5448,1282.89,57.20,51.80,82.12,240.00,4.00,0.00,30.09,M,10.00,M,CLR,M,M,M,M,M,M,M,M,M,M,M,M,M,M,57.20,KHTH 121335Z AUTO 24004KT 10SM CLR 14/11 A3009 RMK A01,M
BAM,2023-09-12 13:35,-116.8743,40.5990,1382.36,51.80,50.00,93.55,0.00,0.00,0.00,30.11,M,10.00,M,CLR,M,M,M,M,M,M,M,M,M,M,M,M,M,M,51.80,KBAM 121335Z AUTO 00000KT 10SM CLR 11/10 A3011 RMK AO1,M
TMT,2023-09-12 13:35,-117.1971,39.4643,1749.34,44.40,43.00,94.79,300.00,4.00,0.00,30.18,M,M,M,M,M,M,M,M,M,M,M,M,M,M,M,M,M,M,41.90,KTMT 121335Z AUTO 30004KT 07/06 A3018 RMK AO2 T00690061 PWINO,M
05U,2023-09-12 13:50,-116.0051,39.6042,1811.23,50.00,44.60,81.61,0.00,0.00,0.00,30.20,M,10.00,M,BKN,BKN,BKN,M,8500.00,10000.00,12000.00,M,M,M,M,M,M,M,M,50.00,K05U 121350Z AUTO 00000KT 10SM BKN085 BKN100 BKN120 10/07 A3020 RMK A01,M
P68,2023-09-12 13:53,-116.0056,39.6014,1993.00,49.00,45.00,86.00,0.00,0.00,0.00,30.18,1016.50,M,M,M,M,M,M,M,M,M,M,M,M,M,M,M,M,M,49.00,KP68 121353Z AUTO 00000KT 09/07 A3018 RMK AO1 SLP165 T00940072,M
DRA,2023-09-12 13:53,-116.0278,36.6206,1009.00,70.00,56.00,61.11,30.00,6.00,0.00,29.99,1011.20,10.00,M,SCT,M,M,M,9000.00,M,M,M,M,M,M,M,M,M,M,70.00,KDRA 121353Z AUTO 03006KT 10SM SCT090 21/13 A2999 RMK AO2 SLP112 T02110133,M
ELY,2023-09-12 13:53,-114.8453,39.2950,1909.00,44.00,42.00,92.61,190.00,7.00,0.00,30.20,1017.00,10.00,M,CLR,M,M,M,M,M,M,M,M,M,M,M,M,M,M,39.41,KELY 121353Z AUTO 19007KT 10SM CLR 07/06 A3020 RMK AO2 SLP170 T00670056,M
VGT,2023-09-12 13:53,-115.1933,36.2111,667.00,81.00,54.00,39.37,40.00,6.00,0.00,29.92,1012.20,10.00,M,FEW,M,M,M,11000.00,M,M,M,M,M,M,M,M,M,M,80.59,KVGT 121353Z 04006KT 10SM FEW110 27/12 A2992 RMK AO2 SLP122 T02720122,M
LOL,2023-09-12 13:53,-118.5701,40.0684,1192.43,50.00,44.00,79.76,80.00,4.00,0.00,30.06,1015.20,10.00,M,CLR,M,M,M,M,M,M,M,M,M,M,M,M,M,M,50.00,KLOL 121353Z AUTO 08004KT 10SM CLR 10/07 A3006 RMK AO2 SLP152 T01000067,M
BVU,2023-09-12 13:55,-114.8611,35.9475,671.00,78.80,57.20,47.52,M,6.00,0.00,29.94,M,10.00,M,SCT,OVC,M,M,9500.00,11000.00,M,M,M,M,M,M,M,M,M,78.80,KBVU 121355Z AUTO VRB06KT 10SM SCT095 OVC110 26/14 A2994 RMK AO2,M
CXP,2023-09-12 13:55,-119.7326,39.1923,1431.00,51.80,42.80,71.26,0.00,0.00,0.00,30.14,M,10.00,M,CLR,M,M,M,M,M,M,M,M,M,M,M,M,M,M,51.80,KCXP 121355Z AUTO 00000KT 10SM CLR 11/06 A3014 RMK AO2,M
RNO,2023-09-12 13:55,-119.7711,39.4839,1341.00,57.00,38.00,48.93,280.00,4.00,0.00,30.11,1014.90,10.00,M,FEW,M,M,M,10000.00,M,M,M,M,M,M,M,M,M,M,57.00,KRNO 121355Z 28004KT 10SM FEW100 14/03 A3011 RMK AO2 SLP149 T01390033,M
RTS,2023-09-12 13:55,-119.8764,39.6682,1539.00,44.60,30.20,56.74,350.00,5.00,0.00,30.15,M,10.00,M,CLR,M,M,M,M,M,M,M,M,M,M,M,M,M,M,41.36,KRTS 121355Z AUTO 35005KT 10SM CLR 07/M01 A3015 RMK AO2,M
MEV,2023-09-12 13:55,-119.7500,38.9963,1441.42,42.80,37.40,81.07,0.00,0.00,0.00,30.13,M,10.00,M,CLR,M,M,M,M,M,M,M,M,M,M,M,M,M,M,42.80,KMEV 121355Z AUTO 00000KT 10SM CLR 06/03 A3013 RMK AO2,M
HTH,2023-09-12 13:55,-118.6315,38.5448,1282.89,57.20,53.60,87.74,0.00,0.00,0.00,30.10,M,10.00,M,CLR,M,M,M,M,M,M,M,M,M,M,M,M,M,M,57.20,KHTH 121355Z AUTO 00000KT 10SM CLR 14/12 A3010 RMK A01,M
BAM,2023-09-12 13:55,-116.8743,40.5990,1382.36,53.60,51.80,93.60,260.00,3.00,0.00,30.11,M,10.00,M,CLR,M,M,M,M,M,M,M,M,M,M,M,M,M,M,53.60,KBAM 121355Z AUTO 26003KT 10SM CLR 12/11 A3011 RMK AO1,M
TMT,2023-09-12 13:55,-117.1971,39.4643,1749.34,44.80,43.70,95.89,0.00,0.00,0.00,30.18,M,M,M,M,M,M,M,M,M,M,M,M,M,M,M,M,M,M,44.80,KTMT 121355Z AUTO 00000KT 07/07 A3018 RMK AO2 T00710065 PWINO,M
INS,2023-09-12 13:55,-115.6733,36.5872,955.00,70.30,60.40,70.84,0.00,0.00,T,30.00,1011.30,10.00,M,SCT,BKN,BKN,OVC,10000.00,12000.00,14000.00,17000.00,M,M,M,M,M,M,M,70.30,KINS 121355Z AUTO 00000KT 10SM SCT100 BKN120 BKN140 OVC170 21/16 A3000 RMK AO2 RAE1255DZB1255E1259 SLP113 P0000 T02130158 $,M
LSV,2023-09-12 13:55,-115.0343,36.2362,570.00,77.70,54.00,43.87,10.00,8.00,0.00,29.88,1009.40,10.00,M,CLR,M,M,M,M,M,M,M,M,M,M,M,M,M,M,77.70,KLSV 121355Z AUTO 01008KT 10SM CLR 25/12 A2988 RMK AO2 SLP094 T02540122 $,M
EKO,2023-09-12 13:56,-115.7860,40.8242,1367.00,51.00,45.00,79.84,0.00,0.00,0.00,30.13,1016.90,10.00,M,CLR,M,M,M,M,M,M,M,M,M,M,M,M,M,M,51.00,KEKO 121356Z AUTO 00000KT 10SM CLR 11/07 A3013 RMK AO2 SLP169 T01060072,M
WMC,2023-09-12 13:56,-117.8072,40.9019,1315.00,48.00,42.00,79.60,0.00,0.00,0.00,30.08,1015.60,10.00,M,CLR,M,M,M,M,M,M,M,M,M,M,M,M,M,M,48.00,KWMC 121356Z AUTO 00000KT 10SM CLR 09/06 A3008 RMK AO2 SLP156 T00890056,M
NFL,2023-09-12 13:56,-118.7010,39.4166,1199.00,57.00,46.00,66.59,160.00,5.00,0.00,30.06,1014.80,10.00,M,SCT,M,M,M,12000.00,M,M,M,M,M,M,M,M,M,M,57.00,KNFL 121356Z 16005KT 10SM SCT120 14/08 A3006 RMK AO2 SLP148 T01390078,M
HND,2023-09-12 13:56,-115.1344,35.9729,742.79,80.00,55.00,42.19,220.00,8.00,0.00,29.96,1013.30,10.00,M,BKN,M,M,M,10000.00,M,M,M,M,M,M,M,M,M,M,80.11,KHND 121356Z AUTO 22008KT 10SM BKN100 27/13 A2996 RMK AO2 SLP133 T02670128,M
LAS,2023-09-12 13:56,-115.1634,36.0719,663.00,81.00,56.00,42.34,350.00,7.00,0.00,29.93,1010.70,10.00,M,SCT,BKN,BKN,M,11000.00,17000.00,25000.00,M,M,M,M,M,M,M,M,80.88,KLAS 121356Z 35007KT 10SM SCT110 BKN170 BKN250 27/13 A2993 RMK AO2 SLP107 T02720133,M
05U,2023-09-12 14:10,-116.0051,39.6042,1811.23,51.80,46.40,81.74,0.00,0.00,0.00,30.21,M,10.00,M,BKN,OVC,M,M,8500.00,11000.00,M,M,M,M,M,M,M,M,M,51.80,K05U 121410Z AUTO 00000KT 10SM BKN085 OVC110 11/08 A3021 RMK A01,M
BVU,2023-09-12 14:15,-114.8611,35.9475,671.00,78.80,55.40,44.52,150.00,10.00,0.00,29.95,M,10.00,M,BKN,M,M,M,11000.00,M,M,M,M,M,M,M,M,M,M,78.80,KBVU 121415Z AUTO 15010KT 10SM BKN110 26/13 A2995 RMK AO2,M
CXP,2023-09-12 14:15,-119.7326,39.1923,1431.00,51.80,42.80,71.26,0.00,0.00,0.00,30.15,M,10.00,M,CLR,M,M,M,M,M,M,M,M,M,M,M,M,M,M,51.80,KCXP 121415Z AUTO 00000KT 10SM CLR 11/06 A3015 RMK AO2,M
LOL,2023-09-12 14:15,-118.5701,40.0684,1192.43,51.00,43.00,73.97,0.00,0.00,0.00,30.06,M,2.00,M,CLR,M,M,M,M,M,M,M,HZ,M,M,M,M,M,M,51.00,KLOL 121415Z AUTO 00000KT 2SM HZ CLR 11/06 A3006 RMK AO2 T01060061,M
RTS,2023-09-12 14:15,-119.8764,39.6682,1539.00,48.20,32.00,53.27,0.00,0.00,0.00,30.15,M,10.00,M,CLR,M,M,M,M,M,M,M,M,M,M,M,M,M,M,48.20,KRTS 121415Z AUTO 00000KT 10SM CLR 09/M00 A3015 RMK AO2,M
MEV,2023-09-12 14:15,-119.7500,38.9963,1441.42,44.60,39.20,81.20,0.00,0.00,0.00,30.13,M,10.00,M,CLR,M,M,M,M,M,M,M,M,M,M,M,M,M,M,44.60,KMEV 121415Z AUTO 00000KT 10SM CLR 07/04 A3013 RMK AO2,M
HTH,2023-09-12 14:15,-118.6315,38.5448,1282.89,57.20,53.60,87.74,0.00,0.00,0.00,30.10,M,10.00,M,CLR,M,M,M,M,M,M,M,M,M,M,M,M,M,M,57.20,KHTH 121415Z AUTO 00000KT 10SM CLR 14/12 A3010 RMK A01,M
BAM,2023-09-12 14:15,-116.8743,40.5990,1382.36,55.40,51.80,87.65,0.00,0.00,0.00,30.12,M,10.00,M,CLR,M,M,M,M,M,M,M,M,M,M,M,M,M,M,55.40,KBAM 121415Z AUTO 00000KT 10SM CLR 13/11 A3012 RMK AO1,M
TMT,2023-09-12 14:15,-117.1971,39.4643,1749.34,45.70,45.00,97.38,0.00,0.00,0.00,30.19,M,M,M,M,M,M,M,M,M,M,M,M,M,M,M,M,M,M,45.70,KTMT 121415Z AUTO 00000KT 08/07 A3019 RMK AO2 T00760073 PWINO,M
LOL,2023-09-12 14:25,-118.5701,40.0684,1192.43,52.00,44.00,74.07,50.00,3.00,0.00,30.06,M,10.00,M,CLR,M,M,M,M,M,M,M,M,M,M,M,M,M,M,52.00,KLOL 121425Z AUTO 05003KT 10SM CLR 11/07 A3006 RMK AO2 T01110067,M
05U,2023-09-12 14:30,-116.0051,39.6042,1811.23,51.80,46.40,81.74,0.00,0.00,0.00,30.22,M,10.00,M,OVC,M,M,M,9000.00,M,M,M,M,M,M,M,M,M,M,51.80,K05U 121430Z AUTO 00000KT 10SM OVC090 11/08 A3022 RMK A01,M
BVU,2023-09-12 14:35,-114.8611,35.9475,671.00,77.00,57.20,50.43,110.00,8.00,0.00,29.94,M,10.00,M,FEW,FEW,M,M,10000.00,12000.00,M,M,M,M,M,M,M,M,M,77.00,KBVU 121435Z AUTO 11008KT 10SM FEW100 FEW120 25/14 A2994 RMK AO2 LTG DSNT NE,M
CXP,2023-09-12 14:35,-119.7326,39.1923,1431.00,53.60,44.60,71.45,0.00,0.00,0.00,30.15,M,10.00,M,CLR,M,M,M,M,M,M,M,M,M,M,M,M,M,M,53.60,KCXP 121435Z AUTO 00000KT 10SM CLR 12/07 A3015 RMK AO2,M
RTS,2023-09-12 14:35,-119.8764,39.6682,1539.00,51.80,35.60,53.81,0.00,0.00,0.00,30.16,M,9.00,M,CLR,M,M,M,M,M,M,M,M,M,M,M,M,M,M,51.80,KRTS 121435Z AUTO 00000KT 9SM CLR 11/02 A3016 RMK AO2,M
MEV,2023-09-12 14:35,-119.7500,38.9963,1441.42,48.20,39.20,70.88,0.00,0.00,0.00,30.14,M,10.00,M,CLR,M,M,M,M,M,M,M,M,M,M,M,M,M,M,48.20,KMEV 121435Z AUTO 00000KT 10SM CLR 09/04 A3014 RMK AO2,M
HTH,2023-09-12 14:35,-118.6315,38.5448,1282.89,59.00,55.40,87.83,0.00,0.00,0.00,30.11,M,10.00,M,FEW,M,M,M,11000.00,M,M,M,M,M,M,M,M,M,M,59.00,KHTH 121435Z AUTO 00000KT 10SM FEW110 15/13 A3011 RMK A01,M
BAM,2023-09-12 14:35,-116.8743,40.5990,1382.36,55.40,53.60,93.65,0.00,0.00,0.00,30.12,M,10.00,M,SCT,M,M,M,10000.00,M,M,M,M,M,M,M,M,M,M,55.40,KBAM 121435Z AUTO 00000KT 10SM SCT100 13/12 A3012 RMK AO1,M
TMT,2023-09-12 14:35,-117.1971,39.4643,1749.34,50.00,47.00,89.37,200.00,4.00,0.00,30.19,M,M,M,M,M,M,M,M,M,M,M,M,M,M,M,M,M,M,50.00,KTMT 121435Z AUTO 20004KT 10/08 A3019 RMK AO2 T01010084 PWINO,M
05U,2023-09-12 14:50,-116.0051,39.6042,1811.23,51.80,46.40,81.74,0.00,0.00,0.00,30.22,M,10.00,M,BKN,M,M,M,9500.00,M,M,M,M,M,M,M,M,M,M,51.80,K05U 121450Z AUTO 00000KT 10SM BKN095 11/08 A3022 RMK A01,M
P68,2023-09-12 14:53,-116.0056,39.6014,1993.00,51.00,46.00,82.93,0.00,0.00,0.00,30.19,1016.90,M,M,M,M,M,M,M,M,M,M,M,M,M,M,M,M,M,51.00,KP68 121453Z AUTO 00000KT 11/08 A3019 RMK AO1 SLP169 T01060078 53006,M
DRA,2023-09-12 14:53,-116.0278,36.6206,1009.00,74.00,54.00,49.63,100.00,5.00,0.00,30.01,1011.50,10.00,M,BKN,BKN,M,M,8000.00,10000.00,M,M,M,M,M,M,M,M,M,74.00,KDRA 121453Z AUTO 10005KT 10SM BKN080 BKN100 23/12 A3001 RMK AO2 SLP115 T02330122 53009,M
ELY,2023-09-12 14:53,-114.8453,39.2950,1909.00,50.00,45.00,82.86,170.00,6.00,0.00,30.20,1016.20,10.00,M,FEW,M,M,M,11000.00,M,M,M,M,M,M,M,M,M,M,50.00,KELY 121453Z AUTO 17006KT 10SM FEW110 10/07 A3020 RMK AO2 SLP162 T01000072 52000,M
VGT,2023-09-12 14:53,-115.1933,36.2111,667.00,84.00,55.00,37.05,360.00,9.00,0.00,29.93,1012.50,10.00,M,CLR,M,M,M,M,M,M,M,M,M,M,M,M,M,M,82.85,KVGT 121453Z 36009KT 10SM CLR 29/13 A2993 RMK AO2 SLP125 T02890128 53015,M
LOL,2023-09-12 14:53,-118.5701,40.0684,1192.43,56.00,44.00,63.99,330.00,3.00,0.00,30.07,1015.30,10.00,M,CLR,M,M,M,M,M,M,M,M,M,M,M,M,M,M,56.00,KLOL 121453Z AUTO 33003KT 10SM CLR 13/07 A3007 RMK AO2 SLP153 T01330067 53006,M
BVU,2023-09-12 14:55,-114.8611,35.9475,671.00,77.00,57.20,50.43,280.00,6.00,0.00,29.95,M,10.00,M,CLR,M,M,M,M,M,M,M,M,M,M,M,M,M,M,77.00,KBVU 121455Z AUTO 28006KT 10SM CLR 25/14 A2995 RMK AO2 LTG DSNT SE,M
CXP,2023-09-12 14:55,-119.7326,39.1923,1431.00,57.20,42.80,58.52,0.00,0.00,0.00,30.15,M,10.00,M,CLR,M,M,M,M,M,M,M,M,M,M,M,M,M,M,57.20,KCXP 121455Z AUTO 00000KT 10SM CLR 14/06 A3015 RMK AO2,M
RNO,2023-09-12 14:55,-119.7711,39.4839,1341.00,61.00,39.00,44.10,230.00,4.00,0.00,30.13,1015.40,10.00,M,CLR,M,M,M,M,M,M,M,M,M,M,M,M,M,M,61.00,KRNO 121455Z 23004KT 10SM CLR 16/04 A3013 RMK AO2 SLP154 T01610039 53005,M
RTS,2023-09-12 14:55,-119.8764,39.6682,1539.00,53.60,37.40,54.07,0.00,0.00,0.00,30.16,M,9.00,M,CLR,M,M,M,M,M,M,M,M,M,M,M,M,M,M,53.60,KRTS 121455Z AUTO 00000KT 9SM CLR 12/03 A3016 RMK AO2,M
MEV,2023-09-12 14:55,-119.7500,38.9963,1441.42,53.60,41.00,62.23,0.00,0.00,0.00,30.14,M,10.00,M,CLR,M,M,M,M,M,M,M,M,M,M,M,M,M,M,53.60,KMEV 121455Z AUTO 00000KT 10SM CLR 12/05 A3014 RMK AO2,M
BAM,2023-09-12 14:55,-116.8743,40.5990,1382.36,59.00,51.80,76.98,0.00,0.00,0.00,30.12,M,10.00,M,BKN,M,M,M,10000.00,M,M,M,M,M,M,M,M,M,M,59.00,KBAM 121455Z AUTO 00000KT 10SM BKN100 15/11 A3012 RMK AO1,M
HTH,2023-09-12 14:55,-118.6315,38.5448,1282.89,60.80,51.80,72.20,0.00,0.00,0.00,30.11,M,10.00,M,CLR,M,M,M,M,M,M,M,M,M,M,M,M,M,M,60.80,KHTH 121455Z AUTO 00000KT 10SM CLR 16/11 A3011 RMK A01,M
TMT,2023-09-12 14:55,-117.1971,39.4643,1749.34,51.00,47.70,88.42,210.00,3.00,0.00,30.19,M,M,M,M,M,M,M,M,M,M,M,M,M,M,M,M,M,M,51.00,KTMT 121455Z AUTO 21003KT 11/09 A3019 RMK AO2 LTG DSNT SE T01060087 PWINO,M
INS,2023-09-12 14:55,-115.6733,36.5872,955.00,73.40,57.70,57.91,350.00,3.00,0.00,30.00,1011.30,10.00,M,FEW,BKN,OVC,M,9000.00,13000.00,17000.00,M,M,M,M,M,M,M,M,73.40,KINS 121455Z AUTO 35003KT 10SM FEW090 BKN130 OVC170 23/14 A3000 RMK AO2 SLP113 60003 T02300143 52006 $,M
LSV,2023-09-12 14:55,-115.0343,36.2362,570.00,84.00,56.00,38.42,110.00,5.00,0.00,29.90,1009.90,10.00,M,CLR,M,M,M,M,M,M,M,M,M,M,M,M,M,M,83.05,KLSV 121455Z AUTO 11005KT 10SM CLR 29/13 A2990 RMK AO2 SLP099 T02880134 52018 $,M
EKO,2023-09-12 14:56,-115.7860,40.8242,1367.00,55.00,47.00,74.36,0.00,0.00,0.00,30.14,1017.00,10.00,M,CLR,M,M,M,M,M,M,M,M,M,M,M,M,M,M,55.00,KEKO 121456Z AUTO 00000KT 10SM CLR 13/08 A3014 RMK AO2 SLP170 T01280083 51006,M
WMC,2023-09-12 14:56,-117.8072,40.9019,1315.00,56.00,45.00,66.48,0.00,0.00,0.00,30.09,1015.50,10.00,M,CLR,M,M,M,M,M,M,M,M,M,M,M,M,M,M,56.00,KWMC 121456Z AUTO 00000KT 10SM CLR 13/07 A3009 RMK AO2 SLP155 T01330072 53007,M
NFL,2023-09-12 14:56,-118.7010,39.4166,1199.00,64.00,48.00,55.99,180.00,3.00,0.00,30.07,1015.00,10.00,M,SCT,M,M,M,12000.00,M,M,M,M,M,M,M,M,M,M,64.00,KNFL 121456Z 18003KT 10SM SCT120 18/09 A3007 RMK AO2 SLP150 T01780089 53004,M
HND,2023-09-12 14:56,-115.1344,35.9729,742.79,81.00,55.00,40.83,240.00,4.00,0.00,29.98,1013.90,10.00,M,BKN,M,M,M,9500.00,M,M,M,M,M,M,M,M,M,M,80.73,KHND 121456Z 24004KT 10SM BKN095 27/13 A2998 RMK AO2 SLP139 T02720128 53018,M
LAS,2023-09-12 14:56,-115.1634,36.0719,663.00,83.00,54.00,36.89,M,6.00,0.00,29.95,1011.30,10.00,M,SCT,BKN,BKN,M,10000.00,17000.00,25000.00,M,M,M,M,M,M,M,M,81.94,KLAS 121456Z VRB06KT 10SM SCT100 BKN170 BKN250 28/12 A2995 RMK AO2 SLP113 T02830122 53017,M
05U,2023-09-12 15:10,-116.0051,39.6042,1811.23,53.60,46.40,76.50,320.00,4.00,0.00,30.22,M,10.00,M,OVC,M,M,M,11000.00,M,M,M,M,M,M,M,M,M,M,53.60,K05U 121510Z AUTO 32004KT 10SM OVC110 12/08 A3022 RMK A01,M
BVU,2023-09-12 15:15,-114.8611,35.9475,671.00,78.80,55.40,44.52,0.00,0.00,0.00,29.95,M,10.00,M,FEW,SCT,M,M,9000.00,12000.00,M,M,VCTS,M,M,M,M,M,M,78.80,KBVU 121515Z AUTO 00000KT 10SM VCTS FEW090 SCT120 26/13 A2995 RMK AO2 LTG DSNT NE-S,M
CXP,2023-09-12 15:15,-119.7326,39.1923,1431.00,59.00,42.80,54.86,0.00,0.00,0.00,30.15,M,10.00,M,CLR,M,M,M,M,M,M,M,M,M,M,M,M,M,M,59.00,KCXP 121515Z AUTO 00000KT 10SM CLR 15/06 A3015 RMK AO2,M
RTS,2023-09-12 15:15,-119.8764,39.6682,1539.00,57.20,33.80,41.13,0.00,0.00,0.00,30.16,M,10.00,M,CLR,M,M,M,M,M,M,M,M,M,M,M,M,M,M,57.20,KRTS 121515Z AUTO 00000KT 10SM CLR 14/01 A3016 RMK AO2,M
MEV,2023-09-12 15:15,-119.7500,38.9963,1441.42,57.20,42.80,58.52,0.00,0.00,0.00,30.14,M,10.00,M,CLR,M,M,M,M,M,M,M,M,M,M,M,M,M,M,57.20,KMEV 121515Z AUTO 00000KT 10SM CLR 14/06 A3014 RMK AO2,M
BAM,2023-09-12 15:15,-116.8743,40.5990,1382.36,60.80,51.80,72.20,0.00,0.00,0.00,30.12,M,10.00,M,BKN,M,M,M,11000.00,M,M,M,M,M,M,M,M,M,M,60.80,KBAM 121515Z AUTO 00000KT 10SM BKN110 16/11 A3012 RMK AO1,M
HTH,2023-09-12 15:15,-118.6315,38.5448,1282.89,60.80,53.60,77.14,0.00,0.00,0.00,30.11,M,10.00,M,CLR,M,M,M,M,M,M,M,M,M,M,M,M,M,M,60.80,KHTH 121515Z AUTO 00000KT 10SM CLR 16/12 A3011 RMK A01,M
TMT,2023-09-12 15:15,-117.1971,39.4643,1749.34,53.20,48.20,83.08,190.00,4.00,0.00,30.19,M,M,M,CLR,M,M,M,M,M,M,M,M,M,M,M,M,M,M,53.20,KTMT 121515Z AUTO 19004KT CLR 12/09 A3019 RMK AO2 LTG DSNT SE T01180090 PWINO,M
05U,2023-09-12 15:30,-116.0051,39.6042,1811.23,55.40,46.40,71.64,20.00,3.00,0.00,30.22,M,10.00,M,BKN,M,M,M,11000.00,M,M,M,M,M,M,M,M,M,M,55.40,K05U 121530Z AUTO 02003KT 10SM BKN110 13/08 A3022 RMK A01,M
RTS,2023-09-12 15:35,-119.8764,39.6682,1539.00,59.00,33.80,38.56,0.00,0.00,0.00,30.16,M,10.00,M,CLR,M,M,M,M,M,M,M,M,M,M,M,M,M,M,59.00,KRTS 121535Z AUTO 00000KT 10SM CLR 15/01 A3016 RMK AO2,M
MEV,2023-09-12 15:35,-119.7500,38.9963,1441.42,59.00,41.00,51.18,0.00,0.00,0.00,30.13,M,10.00,M,CLR,M,M,M,M,M,M,M,M,M,M,M,M,M,M,59.00,KMEV 121535Z AUTO 00000KT 10SM CLR 15/05 A3013 RMK AO2,M
HTH,2023-09-12 15:35,-118.6315,38.5448,1282.89,62.60,51.80,67.75,0.00,0.00,0.00,30.10,M,10.00,M,FEW,M,M,M,11000.00,M,M,M,M,M,M,M,M,M,M,62.60,KHTH 121535Z AUTO 00000KT 10SM FEW110 17/11 A3010 RMK A01,M
BVU,2023-09-12 15:35,-114.8611,35.9475,671.00,78.80,55.40,44.52,0.00,0.00,0.00,29.96,M,10.00,M,FEW,M,M,M,12000.00,M,M,M,M,M,M,M,M,M,M,78.80,KBVU 121535Z AUTO 00000KT 10SM FEW120 26/13 A2996 RMK AO2 LTG DSNT SE AND S,M
CXP,2023-09-12 15:35,-119.7326,39.1923,1431.00,60.80,42.80,51.45,0.00,0.00,0.00,30.15,M,10.00,M,CLR,M,M,M,M,M,M,M,M,M,M,M,M,M,M,60.80,KCXP 121535Z AUTO 00000KT 10SM CLR 16/06 A3015 RMK AO2,M
BAM,2023-09-12 15:35,-116.8743,40.5990,1382.36,60.80,53.60,77.14,230.00,3.00,0.00,30.12,M,10.00,M,SCT,M,M,M,11000.00,M,M,M,M,M,M,M,M,M,M,60.80,KBAM 121535Z AUTO 23003KT 10SM SCT110 16/12 A3012 RMK AO1,M
TMT,2023-09-12 15:35,-117.1971,39.4643,1749.34,56.70,48.60,74.24,190.00,3.00,0.00,30.19,M,M,M,CLR,M,M,M,M,M,M,M,M,M,M,M,M,M,M,56.70,KTMT 121535Z AUTO 19003KT CLR 14/09 A3019 RMK AO2 T01370092 PWINO,M
05U,2023-09-12 15:50,-116.0051,39.6042,1811.23,55.40,48.20,76.66,0.00,0.00,0.00,30.22,M,10.00,M,BKN,M,M,M,10000.00,M,M,M,M,M,M,M,M,M,M,55.40,K05U 121550Z AUTO 00000KT 10SM BKN100 13/09 A3022 RMK A01,M
P68,2023-09-12 15:53,-116.0056,39.6014,1993.00,55.00,48.00,77.21,350.00,3.00,0.00,30.19,1017.10,M,M,M,M,M,M,M,M,M,M,M,M,M,M,M,M,M,55.00,KP68 121553Z AUTO 35003KT 13/09 A3019 RMK AO1 SLP171 T01280089,M
DRA,2023-09-12 15:53,-116.0278,36.6206,1009.00,78.00,54.00,43.44,120.00,7.00,0.00,30.00,1011.20,10.00,M,FEW,M,M,M,9000.00,M,M,M,M,M,M,M,M,M,M,78.00,KDRA 121553Z AUTO 12007KT 10SM FEW090 26/12 A3000 RMK AO2 SLP112 T02560122,M
ELY,2023-09-12 15:53,-114.8453,39.2950,1909.00,61.00,48.00,62.23,150.00,3.00,0.00,30.20,1014.80,10.00,M,CLR,M,M,M,M,M,M,M,M,M,M,M,M,M,M,61.00,KELY 121553Z AUTO 15003KT 10SM CLR 16/09 A3020 RMK AO2 SLP148 T01610089,M
VGT,2023-09-12 15:53,-115.1933,36.2111,667.00,84.00,58.00,41.29,90.00,10.00,0.00,29.95,1012.90,10.00,M,FEW,M,M,M,10000.00,M,M,M,M,M,M,M,M,M,M,83.50,KVGT 121553Z 09010KT 10SM FEW100 29/14 A2995 RMK AO2 SLP129 T02890144,M
LOL,2023-09-12 15:53,-118.5701,40.0684,1192.43,64.00,45.00,49.99,0.00,0.00,0.00,30.07,1015.00,10.00,M,CLR,M,M,M,M,M,M,M,M,M,M,M,M,M,M,64.00,KLOL 121553Z AUTO 00000KT 10SM CLR 18/07 A3007 RMK AO2 SLP150 T01780072,M
MEV,2023-09-12 15:55,-119.7500,38.9963,1441.42,62.60,41.00,45.04,M,4.00,0.00,30.14,M,10.00,M,CLR,M,M,M,M,M,M,M,M,M,M,M,M,M,M,62.60,KMEV 121555Z AUTO VRB04KT 10SM CLR 17/05 A3014 RMK AO2,M
BAM,2023-09-12 15:55,-116.8743,40.5990,1382.36,62.60,53.60,72.38,0.00,0.00,0.00,30.13,M,10.00,M,SCT,M,M,M,10000.00,M,M,M,M,M,M,M,M,M,M,62.60,KBAM 121555Z AUTO 00000KT 10SM SCT100 17/12 A3013 RMK AO1,M
HTH,2023-09-12 15:55,-118.6315,38.5448,1282.89,64.40,51.80,63.60,0.00,0.00,0.00,30.11,M,10.00,M,FEW,M,M,M,11000.00,M,M,M,M,M,M,M,M,M,M,64.40,KHTH 121555Z AUTO 00000KT 10SM FEW110 18/11 A3011 RMK A01,M
BVU,2023-09-12 15:55,-114.8611,35.9475,671.00,80.60,53.60,39.30,120.00,4.00,0.00,29.96,M,10.00,M,SCT,M,M,M,12000.00,M,M,M,M,M,M,M,M,M,M,80.29,KBVU 121555Z AUTO 12004KT 10SM SCT120 27/12 A2996 RMK AO2 LTG DSNT NE AND S,M
CXP,2023-09-12 15:55,-119.7326,39.1923,1431.00,62.60,41.00,45.04,0.00,0.00,0.00,30.15,M,10.00,M,CLR,M,M,M,M,M,M,M,M,M,M,M,M,M,M,62.60,KCXP 121555Z AUTO 00000KT 10SM CLR 17/05 A3015 RMK AO2,M
RNO,2023-09-12 15:55,-119.7711,39.4839,1341.00,63.00,40.00,42.72,170.00,4.00,0.00,30.13,1015.40,10.00,M,CLR,M,M,M,M,M,M,M,M,M,M,M,M,M,M,63.00,KRNO 121555Z 17004KT 10SM CLR 17/04 A3013 RMK AO2 SLP154 T01720044,M
RTS,2023-09-12 15:55,-119.8764,39.6682,1539.00,62.60,35.60,36.45,0.00,0.00,0.00,30.16,M,10.00,M,CLR,M,M,M,M,M,M,M,M,M,M,M,M,M,M,62.60,KRTS 121555Z AUTO 00000KT 10SM CLR 17/02 A3016 RMK AO2,M
TMT,2023-09-12 15:55,-117.1971,39.4643,1749.34,58.50,48.00,68.04,200.00,3.00,0.00,30.19,M,M,M,CLR,M,M,M,M,M,M,M,M,M,M,M,M,M,M,58.50,KTMT 121555Z AUTO 20003KT CLR 15/09 A3019 RMK AO2 T01470089 PWINO,M
INS,2023-09-12 15:55,-115.6733,36.5872,955.00,73.80,56.00,53.73,40.00,3.00,0.00,30.00,1011.30,10.00,M,BKN,M,M,M,11000.00,M,M,M,M,M,M,M,M,M,M,73.80,KINS 121555Z AUTO 04003KT 10SM BKN110 23/13 A3000 RMK AO2 SLP113 T02320134 $,M
LSV,2023-09-12 15:55,-115.0343,36.2362,570.00,84.60,58.30,40.94,20.00,8.00,0.00,29.92,1010.70,10.00,M,CLR,M,M,M,M,M,M,M,M,M,M,M,M,M,M,84.07,KLSV 121555Z AUTO 02008KT 10SM CLR 29/15 A2992 RMK AO2 SLP107 T02920146 $,M
EKO,2023-09-12 15:56,-115.7860,40.8242,1367.00,63.00,47.00,55.85,0.00,0.00,0.00,30.14,1016.50,10.00,M,CLR,M,M,M,M,M,M,M,M,M,M,M,M,M,M,63.00,KEKO 121556Z AUTO 00000KT 10SM CLR 17/08 A3014 RMK AO2 SLP165 T01720083,M
WMC,2023-09-12 15:56,-117.8072,40.9019,1315.00,65.00,46.00,50.14,0.00,0.00,0.00,30.09,1015.10,10.00,M,CLR,M,M,M,M,M,M,M,M,M,M,M,M,M,M,65.00,KWMC 121556Z AUTO 00000KT 10SM CLR 18/08 A3009 RMK AO2 SLP151 T01830078,M
NFL,2023-09-12 15:56,-118.7010,39.4166,1199.00,71.00,46.00,40.78,210.00,3.00,0.00,30.07,1015.10,10.00,M,FEW,M,M,M,15000.00,M,M,M,M,M,M,M,M,M,M,71.00,KNFL 121556Z 21003KT 10SM FEW150 22/08 A3007 RMK AO2 SLP151 T02170078,M
HND,2023-09-12 15:56,-115.1344,35.9729,742.79,83.00,57.00,41.14,220.00,4.00,0.00,29.99,1014.20,10.00,M,CLR,M,M,M,M,M,M,M,M,M,M,M,M,M,M,82.49,KHND 121556Z 22004KT 10SM CLR 28/14 A2999 RMK AO2 LTG DSNT SE SLP142 T02830139,M
LAS,2023-09-12 15:56,-115.1634,36.0719,663.00,84.00,56.00,38.42,160.00,3.00,0.00,29.96,1011.60,10.00,M,SCT,BKN,BKN,M,10000.00,17000.00,25000.00,M,M,M,M,M,M,M,M,83.05,KLAS 121556Z 16003KT 10SM SCT100 BKN170 BKN250 29/13 A2996 RMK AO2 LTG DSNT SE SLP116 T02890133,M
05U,2023-09-12 16:10,-116.0051,39.6042,1811.23,57.20,48.20,71.83,0.00,0.00,0.00,30.22,M,10.00,M,SCT,M,M,M,10000.00,M,M,M,M,M,M,M,M,M,M,57.20,K05U 121610Z AUTO 00000KT 10SM SCT100 14/09 A3022 RMK A01,M
BVU,2023-09-12 16:15,-114.8611,35.9475,671.00,80.60,55.40,41.97,150.00,7.00,0.00,29.96,M,10.00,M,BKN,OVC,M,M,8500.00,12000.00,M,M,M,M,M,M,M,M,M,80.53,KBVU 121615Z AUTO 15007KT 10SM BKN085 OVC120 27/13 A2996 RMK AO2,M
CXP,2023-09-12 16:15,-119.7326,39.1923,1431.00,64.40,42.80,45.32,0.00,0.00,0.00,30.15,M,10.00,M,CLR,M,M,M,M,M,M,M,M,M,M,M,M,M,M,64.40,KCXP 121615Z AUTO 00000KT 10SM CLR 18/06 A3015 RMK AO2,M
RTS,2023-09-12 16:15,-119.8764,39.6682,1539.00,64.40,33.80,31.85,0.00,0.00,0.00,30.16,M,10.00,M,CLR,M,M,M,M,M,M,M,M,M,M,M,M,M,M,64.40,KRTS 121615Z AUTO 00000KT 10SM CLR 18/01 A3016 RMK AO2,M
MEV,2023-09-12 16:15,-119.7500,38.9963,1441.42,62.60,42.80,48.28,220.00,3.00,0.00,30.13,M,10.00,M,CLR,M,M,M,M,M,M,M,M,M,M,M,M,M,M,62.60,KMEV 121615Z AUTO 22003KT 10SM CLR 17/06 A3013 RMK AO2,M
HTH,2023-09-12 16:15,-118.6315,38.5448,1282.89,66.20,51.80,59.74,0.00,0.00,0.00,30.11,M,10.00,M,CLR,M,M,M,M,M,M,M,M,M,M,M,M,M,M,66.20,KHTH 121615Z AUTO 00000KT 10SM CLR 19/11 A3011 RMK A01,M
BAM,2023-09-12 16:15,-116.8743,40.5990,1382.36,62.60,53.60,72.38,0.00,0.00,0.00,30.13,M,10.00,M,BKN,M,M,M,11000.00,M,M,M,M,M,M,M,M,M,M,62.60,KBAM 121615Z AUTO 00000KT 10SM BKN110 17/12 A3013 RMK AO1,M
TMT,2023-09-12 16:15,-117.1971,39.4643,1749.34,60.40,48.70,65.26,220.00,4.00,0.00,30.19,M,M,M,CLR,M,M,M,M,M,M,M,M,M,M,M,M,M,M,60.40,KTMT 121615Z AUTO 22004KT CLR 16/09 A3019 RMK AO2 T01580093 PWINO,M
05U,2023-09-12 16:30,-116.0051,39.6042,1811.23,57.20,48.20,71.83,60.00,3.00,0.00,30.22,M,10.00,M,FEW,M,M,M,10000.00,M,M,M,M,M,M,M,M,M,M,57.20,K05U 121630Z AUTO 06003KT 10SM FEW100 14/09 A3022 RMK A01,M
RTS,2023-09-12 16:35,-119.8764,39.6682,1539.00,66.20,33.80,29.92,0.00,0.00,0.00,30.16,M,10.00,M,CLR,M,M,M,M,M,M,M,M,M,M,M,M,M,M,66.20,KRTS 121635Z AUTO 00000KT 10SM CLR 19/01 A3016 RMK AO2,M
BVU,2023-09-12 16:35,-114.8611,35.9475,671.00,80.60,59.00,47.79,180.00,7.00,0.00,29.97,M,10.00,M,BKN,BKN,M,M,8500.00,12000.00,M,M,M,M,M,M,M,M,M,81.11,KBVU 121635Z AUTO 18007KT 10SM BKN085 BKN120 27/15 A2997 RMK AO2,M
CXP,2023-09-12 16:35,-119.7326,39.1923,1431.00,66.20,42.80,42.57,170.00,3.00,0.00,30.14,M,10.00,M,CLR,M,M,M,M,M,M,M,M,M,M,M,M,M,M,66.20,KCXP 121635Z AUTO 17003KT 10SM CLR 19/06 A3014 RMK AO2,M
BAM,2023-09-12 16:35,-116.8743,40.5990,1382.36,62.60,53.60,72.38,0.00,0.00,0.00,30.12,M,10.00,M,OVC,M,M,M,11000.00,M,M,M,M,M,M,M,M,M,M,62.60,KBAM 121635Z AUTO 00000KT 10SM OVC110 17/12 A3012 RMK AO1,M
TMT,2023-09-12 16:35,-117.1971,39.4643,1749.34,62.40,49.00,61.49,210.00,4.00,0.00,30.18,M,M,M,CLR,M,M,M,M,M,M,M,M,M,M,M,M,M,M,62.40,KTMT 121635Z AUTO 21004KT CLR 17/10 A3018 RMK AO2 T01690095 PWINO,M
MEV,2023-09-12 16:35,-119.7500,38.9963,1441.42,64.40,42.80,45.32,M,4.00,0.00,30.13,M,10.00,M,CLR,M,M,M,M,M,M,M,M,M,M,M,M,M,M,64.40,KMEV 121635Z AUTO VRB04KT 10SM CLR 18/06 A3013 RMK AO2,M
HTH,2023-09-12 16:35,-118.6315,38.5448,1282.89,68.00,50.00,52.51,0.00,0.00,0.00,30.11,M,10.00,M,CLR,M,M,M,M,M,M,M,M,M,M,M,M,M,M,68.00,KHTH 121635Z AUTO 00000KT 10SM CLR 20/10 A3011 RMK A01,M
10U,2023-09-12 16:40,-116.1876,41.9532,1637.00,66.20,44.60,45.60,0.00,0.00,0.00,30.14,M,10.00,M,BKN,M,M,M,12000.00,M,M,M,M,M,M,M,M,M,M,66.20,K10U 121640Z AUTO 00000KT 10SM BKN120 19/07 A3014 RMK AO2,M
05U,2023-09-12 16:50,-116.0051,39.6042,1811.23,59.00,46.40,62.92,0.00,0.00,0.00,30.22,M,10.00,M,SCT,M,M,M,10000.00,M,M,M,M,M,M,M,M,M,M,59.00,K05U 121650Z AUTO 00000KT 10SM SCT100 15/08 A3022 RMK A01,M
P68,2023-09-12 16:53,-116.0056,39.6014,1993.00,58.00,47.00,66.71,270.00,3.00,0.00,30.19,1016.70,M,M,M,M,M,M,M,M,M,M,M,M,M,M,M,M,M,58.00,KP68 121653Z AUTO 27003KT 14/08 A3019 RMK AO1 SLP167 T01440083,M
DRA,2023-09-12 16:53,-116.0278,36.6206,1009.00,81.00,52.00,36.58,110.00,5.00,0.00,30.01,1011.50,10.00,M,FEW,M,M,M,9000.00,M,M,M,M,M,M,M,M,M,M,80.34,KDRA 121653Z AUTO 11005KT 10SM FEW090 27/11 A3001 RMK AO2 SLP115 T02720111,M
ELY,2023-09-12 16:53,-114.8453,39.2950,1909.00,67.00,47.00,48.58,0.00,0.00,0.00,30.19,1013.80,10.00,M,CLR,M,M,M,M,M,M,M,M,M,M,M,M,M,M,67.00,KELY 121653Z AUTO 00000KT 10SM CLR 19/08 A3019 RMK AO2 SLP138 T01940083,M
VGT,2023-09-12 16:53,-115.1933,36.2111,667.00,87.00,57.00,36.18,80.00,5.00,0.00,29.95,1013.10,10.00,M,BKN,M,M,M,10000.00,M,M,M,M,M,M,M,M,M,M,85.80,KVGT 121653Z 08005KT 10SM BKN100 31/14 A2995 RMK AO2 SLP131 T03060139,M
LOL,2023-09-12 16:53,-118.5701,40.0684,1192.43,72.00,45.00,37.96,M,3.00,0.00,30.07,1014.40,10.00,M,CLR,M,M,M,M,M,M,M,M,M,M,M,M,M,M,72.00,KLOL 121653Z AUTO VRB03KT 10SM CLR 22/07 A3007 RMK AO2 SLP144 T02220072,M
BVU,2023-09-12 16:55,-114.8611,35.9475,671.00,80.60,55.40,41.97,190.00,7.00,0.00,29.97,M,10.00,M,SCT,BKN,M,M,9000.00,12000.00,M,M,M,M,M,M,M,M,M,80.53,KBVU 121655Z AUTO 19007KT 10SM SCT090 BKN120 27/13 A2997 RMK AO2,M
CXP,2023-09-12 16:55,-119.7326,39.1923,1431.00,68.00,41.00,37.32,0.00,0.00,0.00,30.14,M,10.00,M,CLR,M,M,M,M,M,M,M,M,M,M,M,M,M,M,68.00,KCXP 121655Z AUTO 00000KT 10SM CLR 20/05 A3014 RMK AO2,M
RNO,2023-09-12 16:55,-119.7711,39.4839,1341.00,68.00,40.00,35.90,0.00,0.00,0.00,30.12,1015.00,10.00,M,CLR,M,M,M,M,M,M,M,M,M,M,M,M,M,M,68.00,KRNO 121655Z 00000KT 10SM CLR 20/04 A3012 RMK AO2 SLP150 T02000044,M
LSV,2023-09-12 16:55,-115.0343,36.2362,570.00,87.40,55.60,33.96,40.00,10.00,0.00,29.92,M,10.00,M,CLR,M,M,M,M,M,M,M,M,M,M,M,M,M,M,85.80,KLSV 121655Z AUTO 04010KT 10SM CLR 31/13 A2992 RMK AO2 SLPNO T03080131 $,M
RTS,2023-09-12 16:55,-119.8764,39.6682,1539.00,68.00,30.20,24.32,0.00,0.00,0.00,30.16,M,10.00,M,CLR,M,M,M,M,M,M,M,M,M,M,M,M,M,M,68.00,KRTS 121655Z AUTO 00000KT 10SM CLR 20/M01 A3016 RMK AO2,M
MEV,2023-09-12 16:55,-119.7500,38.9963,1441.42,66.20,44.60,45.60,0.00,0.00,0.00,30.13,M,10.00,M,CLR,M,M,M,M,M,M,M,M,M,M,M,M,M,M,66.20,KMEV 121655Z AUTO 00000KT 10SM CLR 19/07 A3013 RMK AO2,M
HTH,2023-09-12 16:55,-118.6315,38.5448,1282.89,68.00,51.80,56.13,0.00,0.00,0.00,30.11,M,10.00,M,CLR,M,M,M,M,M,M,M,M,M,M,M,M,M,M,68.00,KHTH 121655Z AUTO 00000KT 10SM CLR 20/11 A3011 RMK A01,M
BAM,2023-09-12 16:55,-116.8743,40.5990,1382.36,64.40,53.60,67.95,0.00,0.00,0.00,30.12,M,10.00,M,BKN,M,M,M,12000.00,M,M,M,M,M,M,M,M,M,M,64.40,KBAM 121655Z AUTO 00000KT 10SM BKN120 18/12 A3012 RMK AO1,M
TMT,2023-09-12 16:55,-117.1971,39.4643,1749.34,64.60,49.30,57.56,0.00,0.00,0.00,30.18,M,M,M,CLR,M,M,M,M,M,M,M,M,M,M,M,M,M,M,64.60,KTMT 121655Z AUTO 00000KT CLR 18/10 A3018 RMK AO2 T01810096 PWINO,M
INS,2023-09-12 16:55,-115.6733,36.5872,955.00,78.40,54.70,43.98,20.00,4.00,0.00,30.00,1011.10,10.00,M,FEW,M,M,M,9000.00,M,M,M,M,M,M,M,M,M,M,78.40,KINS 121655Z AUTO 02004KT 10SM FEW090 26/13 A3000 RMK AO2 SLP111 T02580126 $,M
EKO,2023-09-12 16:56,-115.7860,40.8242,1367.00,68.00,47.00,46.93,0.00,0.00,0.00,30.13,1015.70,10.00,M,CLR,M,M,M,M,M,M,M,M,M,M,M,M,M,M,68.00,KEKO 121656Z AUTO 00000KT 10SM CLR 20/08 A3013 RMK AO2 SLP157 T02000083,M
WMC,2023-09-12 16:56,-117.8072,40.9019,1315.00,71.00,46.00,40.78,0.00,0.00,0.00,30.09,1014.60,10.00,M,CLR,M,M,M,M,M,M,M,M,M,M,M,M,M,M,71.00,KWMC 121656Z AUTO 00000KT 10SM CLR 22/08 A3009 RMK AO2 SLP146 T02170078,M
NFL,2023-09-12 16:56,-118.7010,39.4166,1199.00,75.00,40.00,28.31,240.00,3.00,0.00,30.07,1015.20,10.00,M,FEW,M,M,M,15000.00,M,M,M,M,M,M,M,M,M,M,75.00,KNFL 121656Z 24003KT 10SM FEW150 24/04 A3007 RMK AO2 SLP152 T02390044,M
HND,2023-09-12 16:56,-115.1344,35.9729,742.79,83.00,56.00,39.68,210.00,5.00,0.00,30.00,1014.60,10.00,M,BKN,BKN,M,M,9000.00,10000.00,M,M,M,M,M,M,M,M,M,82.29,KHND 121656Z 21005KT 10SM BKN090 BKN100 28/13 A3000 RMK AO2 SLP146 T02830133,M
LAS,2023-09-12 16:56,-115.1634,36.0719,663.00,85.00,54.00,34.59,0.00,0.00,0.00,29.97,1012.00,10.00,M,SCT,BKN,BKN,M,10000.00,17000.00,25000.00,M,M,M,M,M,M,M,M,83.45,KLAS 121656Z 00000KT 10SM SCT100 BKN170 BKN250 29/12 A2997 RMK AO2 SLP120 T02940122,M
10U,2023-09-12 17:00,-116.1876,41.9532,1637.00,66.20,46.40,48.83,0.00,0.00,0.00,30.15,M,10.00,M,BKN,BKN,M,M,9000.00,12000.00,M,M,M,M,M,M,M,M,M,66.20,K10U 121700Z AUTO 00000KT 10SM BKN090 BKN120 19/08 A3015 RMK AO2,M
05U,2023-09-12 17:10,-116.0051,39.6042,1811.23,59.00,46.40,62.92,0.00,0.00,0.00,30.21,M,10.00,M,SCT,M,M,M,10000.00,M,M,M,M,M,M,M,M,M,M,59.00,K05U 121710Z AUTO 00000KT 10SM SCT100 15/08 A3021 RMK A01,M
BVU,2023-09-12 17:15,-114.8611,35.9475,671.00,78.80,57.20,47.52,180.00,3.00,0.00,29.98,M,10.00,M,BKN,BKN,M,M,9000.00,11000.00,M,M,M,M,M,M,M,M,M,78.80,KBVU 121715Z AUTO 18003KT 10SM BKN090 BKN110 26/14 A2998 RMK AO2,M
CXP,2023-09-12 17:15,-119.7326,39.1923,1431.00,69.80,41.00,35.09,0.00,0.00,0.00,30.14,M,10.00,M,CLR,M,M,M,M,M,M,M,M,M,M,M,M,M,M,69.80,KCXP 121715Z AUTO 00000KT 10SM CLR 21/05 A3014 RMK AO2,M
RTS,2023-09-12 17:15,-119.8764,39.6682,1539.00,69.80,30.20,22.86,0.00,0.00,0.00,30.16,M,10.00,M,CLR,M,M,M,M,M,M,M,M,M,M,M,M,M,M,69.80,KRTS 121715Z AUTO 00000KT 10SM CLR 21/M01 A3016 RMK AO2,M
MEV,2023-09-12 17:15,-119.7500,38.9963,1441.42,68.00,42.80,40.00,0.00,0.00,0.00,30.13,M,10.00,M,CLR,M,M,M,M,M,M,M,M,M,M,M,M,M,M,68.00,KMEV 121715Z AUTO 00000KT 10SM CLR 20/06 A3013 RMK AO2,M
HTH,2023-09-12 17:15,-118.6315,38.5448,1282.89,69.80,51.80,52.77,M,3.00,0.00,30.11,M,10.00,M,CLR,M,M,M,M,M,M,M,M,M,M,M,M,M,M,69.80,KHTH 121715Z AUTO VRB03KT 10SM CLR 21/11 A3011 RMK A01,M
BAM,2023-09-12 17:15,-116.8743,40.5990,1382.36,68.00,53.60,59.97,0.00,0.00,0.00,30.12,M,10.00,M,SCT,M,M,M,12000.00,M,M,M,M,M,M,M,M,M,M,68.00,KBAM 121715Z AUTO 00000KT 10SM SCT120 20/12 A3012 RMK AO1,M
TMT,2023-09-12 17:15,-117.1971,39.4643,1749.34,66.00,48.70,53.61,250.00,3.00,0.00,30.18,M,M,M,CLR,M,M,M,M,M,M,M,M,M,M,M,M,M,M,66.00,KTMT 121715Z AUTO 25003KT CLR 19/09 A3018 RMK AO2 T01880093 PWINO,M
10U,2023-09-12 17:20,-116.1876,41.9532,1637.00,66.20,46.40,48.83,0.00,0.00,0.00,30.15,M,10.00,M,OVC,M,M,M,9000.00,M,M,M,M,M,M,M,M,M,M,66.20,K10U 121720Z AUTO 00000KT 10SM OVC090 19/08 A3015 RMK AO2,M
05U,2023-09-12 17:30,-116.0051,39.6042,1811.23,60.80,46.40,59.01,0.00,0.00,0.00,30.21,M,10.00,M,SCT,M,M,M,11000.00,M,M,M,M,M,M,M,M,M,M,60.80,K05U 121730Z AUTO 00000KT 10SM SCT110 16/08 A3021 RMK A01,M
BVU,2023-09-12 17:35,-114.8611,35.9475,671.00,77.00,57.20,50.43,0.00,0.00,0.00,29.98,M,10.00,M,FEW,FEW,BKN,M,6500.00,8000.00,9500.00,M,M,M,M,M,M,M,M,77.00,KBVU 121735Z AUTO 00000KT 10SM FEW065 FEW080 BKN095 25/14 A2998 RMK AO2,M
CXP,2023-09-12 17:35,-119.7326,39.1923,1431.00,71.60,41.00,33.00,0.00,0.00,0.00,30.13,M,10.00,M,CLR,M,M,M,M,M,M,M,M,M,M,M,M,M,M,71.60,KCXP 121735Z AUTO 00000KT 10SM CLR 22/05 A3013 RMK AO2,M
RTS,2023-09-12 17:35,-119.8764,39.6682,1539.00,69.80,28.40,21.24,0.00,0.00,0.00,30.15,M,10.00,M,CLR,M,M,M,M,M,M,M,M,M,M,M,M,M,M,69.80,KRTS 121735Z AUTO 00000KT 10SM CLR 21/M02 A3015 RMK AO2,M
MEV,2023-09-12 17:35,-119.7500,38.9963,1441.42,69.80,44.60,40.29,0.00,0.00,0.00,30.12,M,10.00,M,CLR,M,M,M,M,M,M,M,M,M,M,M,M,M,M,69.80,KMEV 121735Z AUTO 00000KT 10SM CLR 21/07 A3012 RMK AO2,M
HTH,2023-09-12 17:35,-118.6315,38.5448,1282.89,71.60,50.00,46.43,M,4.00,0.00,30.10,M,10.00,M,CLR,M,M,M,M,M,M,M,M,M,M,M,M,M,M,71.60,KHTH 121735Z AUTO VRB04KT 10SM CLR 22/10 A3010 RMK A01,M
10U,2023-09-12 17:35,-116.1876,41.9532,1637.00,66.20,46.40,48.83,160.00,4.00,0.00,30.15,M,10.00,M,OVC,M,M,M,9000.00,M,M,M,M,M,M,M,M,M,M,66.20,K10U 121735Z AUTO 16004KT 10SM OVC090 19/08 A3015 RMK AO2,M
BAM,2023-09-12 17:35,-116.8743,40.5990,1382.36,69.80,53.60,56.38,0.00,0.00,0.00,30.12,M,10.00,M,CLR,M,M,M,M,M,M,M,M,M,M,M,M,M,M,69.80,KBAM 121735Z AUTO 00000KT 10SM CLR 21/12 A3012 RMK AO1,M
TMT,2023-09-12 17:35,-117.1971,39.4643,1749.34,67.50,47.00,47.75,0.00,0.00,0.00,30.18,M,M,M,CLR,M,M,M,M,M,M,M,M,M,M,M,M,M,M,67.50,KTMT 121735Z AUTO 00000KT CLR 20/08 A3018 RMK AO2 T01970084 PWINO,M
05U,2023-09-12 17:50,-116.0051,39.6042,1811.23,62.60,46.40,55.37,0.00,0.00,0.00,30.20,M,10.00,M,FEW,M,M,M,12000.00,M,M,M,M,M,M,M,M,M,M,62.60,K05U 121750Z AUTO 00000KT 10SM FEW120 17/08 A3020 RMK A01,M
P68,2023-09-12 17:53,-116.0056,39.6014,1993.00,64.00,47.00,53.92,0.00,0.00,0.00,30.17,1016.00,M,M,M,M,M,M,M,M,M,M,M,M,M,M,M,M,M,64.00,KP68 121753Z AUTO 00000KT 18/08 A3017 RMK AO1 SLP160 T01780083 10178 20083 58005,M
DRA,2023-09-12 17:53,-116.0278,36.6206,1009.00,84.00,53.00,34.43,200.00,8.00,0.00,30.01,1011.30,10.00,M,BKN,BKN,M,M,8500.00,12000.00,M,M,M,M,M,M,M,M,M,82.51,KDRA 121753Z AUTO 20008KT 10SM BKN085 BKN120 29/12 A3001 RMK AO2 SLP113 T02890117 10300 20206 50000,M
ELY,2023-09-12 17:53,-114.8453,39.2950,1909.00,69.00,44.00,40.47,0.00,0.00,0.00,30.18,1013.50,10.00,M,SCT,M,M,M,8000.00,M,M,M,M,M,M,M,M,M,M,69.00,KELY 121753Z AUTO 00000KT 10SM SCT080 21/07 A3018 RMK AO2 LTG DSNT NE-S SLP135 T02060067 10222 20061 58006,M
VGT,2023-09-12 17:53,-115.1933,36.2111,667.00,87.00,56.00,34.90,120.00,7.00,0.00,29.95,1013.10,10.00,M,CLR,M,M,M,M,M,M,M,M,M,M,M,M,M,M,85.54,KVGT 121753Z 12007KT 10SM CLR 31/13 A2995 RMK AO2 SLP131 T03060133 10306 20272 50005,M
LOL,2023-09-12 17:53,-118.5701,40.0684,1192.43,76.00,42.00,29.59,150.00,3.00,0.00,30.06,1014.20,10.00,M,CLR,M,M,M,M,M,M,M,M,M,M,M,M,M,M,76.00,KLOL 121753Z AUTO 15003KT 10SM CLR 24/06 A3006 RMK AO2 SLP142 T02440056 10244 20089 58001,M
BVU,2023-09-12 17:55,-114.8611,35.9475,671.00,78.80,59.00,50.69,0.00,0.00,0.00,29.97,M,10.00,M,FEW,FEW,SCT,M,5000.00,6500.00,10000.00,M,M,M,M,M,M,M,M,78.80,KBVU 121755Z AUTO 00000KT 10SM FEW050 FEW065 SCT100 26/15 A2997 RMK AO2,M
CXP,2023-09-12 17:55,-119.7326,39.1923,1431.00,75.20,37.40,25.40,M,5.00,0.00,30.13,M,10.00,M,CLR,M,M,M,M,M,M,M,M,M,M,M,M,M,M,75.20,KCXP 121755Z AUTO VRB05KT 10SM CLR 24/03 A3013 RMK AO2,M
RNO,2023-09-12 17:55,-119.7711,39.4839,1341.00,75.00,37.00,25.17,0.00,0.00,0.00,30.11,1014.30,10.00,M,FEW,M,M,M,7500.00,M,M,M,M,M,M,M,M,M,M,75.00,KRNO 121755Z 00000KT 10SM FEW075 24/03 A3011 RMK AO2 SLP143 T02390028 10239 20128 58005,M
RTS,2023-09-12 17:55,-119.8764,39.6682,1539.00,71.60,28.40,19.98,M,3.00,0.00,30.15,M,10.00,M,CLR,M,M,M,M,M,M,M,M,M,M,M,M,M,M,71.60,KRTS 121755Z AUTO VRB03KT 10SM CLR 22/M02 A3015 RMK AO2,M
MEV,2023-09-12 17:55,-119.7500,38.9963,1441.42,71.60,42.80,35.37,0.00,0.00,0.00,30.12,M,10.00,M,CLR,M,M,M,M,M,M,M,M,M,M,M,M,M,M,71.60,KMEV 121755Z AUTO 00000KT 10SM CLR 22/06 A3012 RMK AO2,M
HTH,2023-09-12 17:55,-118.6315,38.5448,1282.89,73.40,48.20,40.85,0.00,0.00,0.00,30.10,M,10.00,M,CLR,M,M,M,M,M,M,M,M,M,M,M,M,M,M,73.40,KHTH 121755Z AUTO 00000KT 10SM CLR 23/09 A3010 RMK A01,M
BAM,2023-09-12 17:55,-116.8743,40.5990,1382.36,71.60,53.60,53.03,0.00,0.00,0.00,30.12,M,10.00,M,CLR,M,M,M,M,M,M,M,M,M,M,M,M,M,M,71.60,KBAM 121755Z AUTO 00000KT 10SM CLR 22/12 A3012 RMK AO1,M
TMT,2023-09-12 17:55,-117.1971,39.4643,1749.34,68.70,45.30,42.96,0.00,0.00,0.00,30.18,M,M,M,CLR,M,M,M,M,M,M,M,M,M,M,M,M,M,M,68.70,KTMT 121755Z AUTO 00000KT CLR 20/07 A3018 RMK AO2 T02040074 10204 20064 PWINO,M
10U,2023-09-12 17:55,-116.1876,41.9532,1637.00,68.00,46.40,45.88,0.00,0.00,0.00,30.15,M,10.00,M,OVC,M,M,M,9000.00,M,M,M,M,M,M,M,M,M,M,68.00,K10U 121755Z AUTO 00000KT 10SM OVC090 20/08 A3015 RMK AO2,M
INS,2023-09-12 17:55,-115.6733,36.5872,955.00,82.40,54.00,37.61,340.00,4.00,0.00,30.00,1011.10,10.00,M,FEW,M,M,M,14000.00,M,M,M,M,M,M,M,M,M,M,81.52,KINS 121755Z AUTO 34004KT 10SM FEW140 28/12 A3000 RMK AO2 SLP111 60003 T02800123 10280 20205 58002 $,M
LSV,2023-09-12 17:55,-115.0343,36.2362,570.00,87.80,51.60,28.96,90.00,12.00,0.00,29.92,1010.60,10.00,M,FEW,FEW,M,M,10000.00,18000.00,M,M,M,M,M,M,M,M,M,85.35,KLSV 121755Z AUTO 09012KT 10SM FEW100 FEW180 31/11 A2992 RMK AO2 SLP106 T03100109 10315 20254 50004 $,M
EKO,2023-09-12 17:56,-115.7860,40.8242,1367.00,74.00,47.00,38.27,240.00,7.00,0.00,30.12,1015.10,10.00,M,CLR,M,M,M,M,M,M,M,M,M,M,M,M,M,M,74.00,KEKO 121756Z AUTO 24007KT 10SM CLR 23/08 A3012 RMK AO2 SLP151 T02330083 10233 20094 58006,M
WMC,2023-09-12 17:56,-117.8072,40.9019,1315.00,77.00,37.00,23.55,320.00,4.00,0.00,30.08,1014.40,10.00,M,CLR,M,M,M,M,M,M,M,M,M,M,M,M,M,M,77.00,KWMC 121756Z AUTO 32004KT 10SM CLR 25/03 A3008 RMK AO2 SLP144 T02500028 10250 20078 58003,M
NFL,2023-09-12 17:56,-118.7010,39.4166,1199.00,78.00,39.00,24.65,230.00,4.00,0.00,30.07,1015.00,10.00,M,FEW,M,M,M,15000.00,M,M,M,M,M,M,M,M,M,M,78.00,KNFL 121756Z 23004KT 10SM FEW150 26/04 A3007 RMK AO2 SLP150 T02560039 10256 20133 50000,M
HND,2023-09-12 17:56,-115.1344,35.9729,742.79,85.00,53.00,33.34,140.00,5.00,0.00,30.00,1014.40,10.00,M,BKN,M,M,M,9000.00,M,M,M,M,M,M,M,M,M,M,83.27,KHND 121756Z 14005KT 10SM BKN090 29/12 A3000 RMK AO2 SLP144 T02940117 10294 20261 50004,M
LAS,2023-09-12 17:56,-115.1634,36.0719,663.00,87.00,54.00,32.45,160.00,6.00,0.00,29.96,1011.80,10.00,M,FEW,BKN,BKN,M,10000.00,17000.00,25000.00,M,M,M,M,M,M,M,M,85.10,KLAS 121756Z 16006KT 10SM FEW100 BKN170 BKN250 31/12 A2996 RMK AO2 SLP118 T03060122 10311 20267 50006,M
05U,2023-09-12 18:10,-116.0051,39.6042,1811.23,69.80,44.60,40.29,280.00,4.00,0.00,30.20,M,10.00,M,CLR,M,M,M,M,M,M,M,M,M,M,M,M,M,M,69.80,K05U 121810Z AUTO 28004KT 10SM CLR 21/07 A3020 RMK A01,M
BAM,2023-09-12 18:15,-116.8743,40.5990,1382.36,71.60,53.60,53.03,250.00,3.00,0.00,30.12,M,10.00,M,CLR,M,M,M,M,M,M,M,M,M,M,M,M,M,M,71.60,KBAM 121815Z AUTO 25003KT 10SM CLR 22/12 A3012 RMK AO1,M
TMT,2023-09-12 18:15,-117.1971,39.4643,1749.34,70.70,46.00,41.20,0.00,0.00,0.00,30.17,M,M,M,CLR,M,M,M,M,M,M,M,M,M,M,M,M,M,M,70.70,KTMT 121815Z AUTO 00000KT CLR 22/08 A3017 RMK AO2 LTG DSNT SE T02150077 PWINO,M
BVU,2023-09-12 18:15,-114.8611,35.9475,671.00,80.60,57.20,44.80,190.00,5.00,0.00,29.96,M,10.00,M,FEW,M,M,M,5000.00,M,M,M,M,M,M,M,M,M,M,80.81,KBVU 121815Z AUTO 19005KT 10SM FEW050 27/14 A2996 RMK AO2,M
CXP,2023-09-12 18:15,-119.7326,39.1923,1431.00,75.20,37.40,25.40,0.00,0.00,0.00,30.13,M,10.00,M,CLR,M,M,M,M,M,M,M,M,M,M,M,M,M,M,75.20,KCXP 121815Z AUTO 00000KT 10SM CLR 24/03 A3013 RMK AO2,M
RTS,2023-09-12 18:15,-119.8764,39.6682,1539.00,73.40,28.40,18.80,120.00,5.00,0.00,30.15,M,10.00,M,CLR,M,M,M,M,M,M,M,M,M,M,M,M,M,M,73.40,KRTS 121815Z AUTO 12005KT 10SM CLR 23/M02 A3015 RMK AO2,M
MEV,2023-09-12 18:15,-119.7500,38.9963,1441.42,73.40,41.00,31.05,M,3.00,0.00,30.12,M,10.00,M,CLR,M,M,M,M,M,M,M,M,M,M,M,M,M,M,73.40,KMEV 121815Z AUTO VRB03KT 10SM CLR 23/05 A3012 RMK AO2,M
HTH,2023-09-12 18:15,-118.6315,38.5448,1282.89,73.40,50.00,43.69,0.00,0.00,0.00,30.09,M,10.00,M,CLR,M,M,M,M,M,M,M,M,M,M,M,M,M,M,73.40,KHTH 121815Z AUTO 00000KT 10SM CLR 23/10 A3009 RMK A01,M
10U,2023-09-12 18:15,-116.1876,41.9532,1637.00,69.80,44.60,40.29,190.00,5.00,0.00,30.14,M,10.00,10.00,BKN,BKN,M,M,9000.00,11000.00,M,M,M,M,M,M,M,M,M,69.80,K10U 121815Z AUTO 19005G10KT 10SM BKN090 BKN110 21/07 A3014 RMK AO2,M
05U,2023-09-12 18:30,-116.0051,39.6042,1811.23,71.60,44.60,37.89,240.00,4.00,0.00,30.19,M,10.00,M,CLR,M,M,M,M,M,M,M,M,M,M,M,M,M,M,71.60,K05U 121830Z AUTO 24004KT 10SM CLR 22/07 A3019 RMK A01,M
BVU,2023-09-12 18:35,-114.8611,35.9475,671.00,82.40,57.20,42.25,M,3.00,0.00,29.96,M,10.00,M,CLR,M,M,M,M,M,M,M,M,M,M,M,M,M,M,82.08,KBVU 121835Z AUTO VRB03KT 10SM CLR 28/14 A2996 RMK AO2,M
CXP,2023-09-12 18:35,-119.7326,39.1923,1431.00,77.00,37.40,23.93,0.00,0.00,0.00,30.12,M,10.00,M,CLR,M,M,M,M,M,M,M,M,M,M,M,M,M,M,77.00,KCXP 121835Z AUTO 00000KT 10SM CLR 25/03 A3012 RMK AO2,M
RTS,2023-09-12 18:35,-119.8764,39.6682,1539.00,73.40,30.20,20.23,0.00,0.00,0.00,30.14,M,10.00,M,CLR,M,M,M,M,M,M,M,M,M,M,M,M,M,M,73.40,KRTS 121835Z AUTO 00000KT 10SM CLR 23/M01 A3014 RMK AO2,M
MEV,2023-09-12 18:35,-119.7500,38.9963,1441.42,75.20,39.20,27.26,0.00,0.00,0.00,30.11,M,10.00,M,CLR,M,M,M,M,M,M,M,M,M,M,M,M,M,M,75.20,KMEV 121835Z AUTO 00000KT 10SM CLR 24/04 A3011 RMK AO2,M
HTH,2023-09-12 18:35,-118.6315,38.5448,1282.89,75.20,48.20,38.46,0.00,0.00,0.00,30.09,M,10.00,M,CLR,M,M,M,M,M,M,M,M,M,M,M,M,M,M,75.20,KHTH 121835Z AUTO 00000KT 10SM CLR 24/09 A3009 RMK A01,M
BAM,2023-09-12 18:35,-116.8743,40.5990,1382.36,71.60,53.60,53.03,0.00,0.00,0.00,30.11,M,10.00,M,CLR,M,M,M,M,M,M,M,M,M,M,M,M,M,M,71.60,KBAM 121835Z AUTO 00000KT 10SM CLR 22/12 A3011 RMK AO1,M
TMT,2023-09-12 18:35,-117.1971,39.4643,1749.34,71.60,46.40,40.57,0.00,0.00,0.00,30.16,M,M,M,CLR,M,M,M,M,M,M,M,M,M,M,M,M,M,M,71.60,KTMT 121835Z AUTO 00000KT CLR 22/08 A3016 RMK AO2 LTG DSNT NE AND SE T02200080 PWINO,M
ELY,2023-09-12 18:40,-114.8453,39.2950,1909.00,74.00,45.00,35.48,170.00,7.00,0.00,30.16,M,10.00,M,BKN,M,M,M,9000.00,M,M,M,VCTS,M,M,M,M,M,M,74.00,KELY 121840Z AUTO 17007KT 10SM VCTS BKN090 23/07 A3016 RMK AO2 LTG DSNT E AND SE T02330072,M
10U,2023-09-12 18:40,-116.1876,41.9532,1637.00,71.60,42.80,35.37,220.00,5.00,0.00,30.14,M,10.00,M,BKN,M,M,M,8500.00,M,M,M,M,M,M,M,M,M,M,71.60,K10U 121840Z AUTO 22005KT 10SM BKN085 22/06 A3014 RMK AO2,M
05U,2023-09-12 18:50,-116.0051,39.6042,1811.23,73.40,42.80,33.29,230.00,5.00,0.00,30.19,M,10.00,M,CLR,M,M,M,M,M,M,M,M,M,M,M,M,M,M,73.40,K05U 121850Z AUTO 23005KT 10SM CLR 23/06 A3019 RMK A01,M
P68,2023-09-12 18:53,-116.0056,39.6014,1993.00,71.00,42.00,35.01,M,4.00,0.00,30.15,1014.30,M,M,M,M,M,M,M,M,M,M,M,M,M,M,M,M,M,71.00,KP68 121853Z AUTO VRB04KT 22/06 A3015 RMK AO1 SLP143 T02170056,M
DRA,2023-09-12 18:53,-116.0278,36.6206,1009.00,84.00,54.00,35.72,M,4.00,0.00,30.00,1011.00,10.00,M,SCT,M,M,M,8000.00,M,M,M,M,M,M,M,M,M,M,82.67,KDRA 121853Z AUTO VRB04KT 10SM SCT080 29/12 A3000 RMK AO2 SLP110 T02890122,M
ELY,2023-09-12 18:53,-114.8453,39.2950,1909.00,74.00,45.00,35.48,180.00,6.00,0.00,30.16,1012.80,10.00,M,SCT,BKN,M,M,9000.00,11000.00,M,M,M,M,M,M,M,M,M,74.00,KELY 121853Z AUTO 18006KT 10SM SCT090 BKN110 23/07 A3016 RMK AO2 LTG DSNT E AND SE SLP128 T02330072,M
VGT,2023-09-12 18:53,-115.1933,36.2111,667.00,88.00,55.00,32.60,120.00,5.00,0.00,29.94,1012.80,10.00,M,FEW,M,M,M,11000.00,M,M,M,M,M,M,M,M,M,M,86.20,KVGT 121853Z 12005KT 10SM FEW110 31/13 A2994 RMK AO2 LTG DSNT NW SLP128 T03110128,M
LOL,2023-09-12 18:53,-118.5701,40.0684,1192.43,79.00,36.00,21.19,120.00,7.00,0.00,30.05,1013.90,10.00,M,CLR,M,M,M,M,M,M,M,M,M,M,M,M,M,M,79.00,KLOL 121853Z AUTO 12007KT 10SM CLR 26/02 A3005 RMK AO2 SLP139 T02610022,M
BVU,2023-09-12 18:55,-114.8611,35.9475,671.00,82.40,53.60,37.07,0.00,0.00,0.00,29.95,M,10.00,M,CLR,M,M,M,M,M,M,M,M,M,M,M,M,M,M,81.46,KBVU 121855Z AUTO 00000KT 10SM CLR 28/12 A2995 RMK AO2,M
CXP,2023-09-12 18:55,-119.7326,39.1923,1431.00,77.00,37.40,23.93,M,3.00,0.00,30.11,M,10.00,M,CLR,M,M,M,M,M,M,M,M,M,M,M,M,M,M,77.00,KCXP 121855Z AUTO VRB03KT 10SM CLR 25/03 A3011 RMK AO2,M
RNO,2023-09-12 18:55,-119.7711,39.4839,1341.00,78.00,33.00,19.43,M,3.00,0.00,30.09,1013.60,10.00,M,FEW,M,M,M,8000.00,M,M,M,M,M,M,M,M,M,M,78.00,KRNO 121855Z VRB03KT 10SM FEW080 26/01 A3009 RMK AO2 SLP136 T02560006,M
RTS,2023-09-12 18:55,-119.8764,39.6682,1539.00,73.40,32.00,21.76,130.00,6.00,0.00,30.14,M,10.00,M,CLR,M,M,M,M,M,M,M,M,M,M,M,M,M,M,73.40,KRTS 121855Z AUTO 13006KT 10SM CLR 23/M00 A3014 RMK AO2,M
MEV,2023-09-12 18:55,-119.7500,38.9963,1441.42,75.20,39.20,27.26,0.00,0.00,0.00,30.10,M,10.00,M,CLR,M,M,M,M,M,M,M,M,M,M,M,M,M,M,75.20,KMEV 121855Z AUTO 00000KT 10SM CLR 24/04 A3010 RMK AO2,M
HTH,2023-09-12 18:55,-118.6315,38.5448,1282.89,77.00,48.20,36.22,340.00,6.00,0.00,30.08,M,10.00,M,CLR,M,M,M,M,M,M,M,M,M,M,M,M,M,M,77.00,KHTH 121855Z AUTO 34006KT 10SM CLR 25/09 A3008 RMK A01,M
BAM,2023-09-12 18:55,-116.8743,40.5990,1382.36,73.40,53.60,49.90,210.00,4.00,0.00,30.11,M,10.00,M,CLR,M,M,M,M,M,M,M,M,M,M,M,M,M,M,73.40,KBAM 121855Z AUTO 21004KT 10SM CLR 23/12 A3011 RMK AO1,M
TMT,2023-09-12 18:55,-117.1971,39.4643,1749.34,73.00,44.80,36.42,0.00,0.00,0.00,30.16,M,M,M,CLR,M,M,M,M,M,M,M,M,M,M,M,M,M,M,73.00,KTMT 121855Z AUTO 00000KT CLR 23/07 A3016 RMK AO2 T02270071 PWINO,M
INS,2023-09-12 18:55,-115.6733,36.5872,955.00,85.30,51.30,31.02,0.00,0.00,0.00,29.98,1010.40,10.00,M,FEW,M,M,M,8500.00,M,M,M,VCTS,M,M,M,M,M,M,83.24,KINS 121855Z AUTO 00000KT 10SM VCTS FEW085 30/11 A2998 RMK AO2 SLP104 T02960107 $,M
LSV,2023-09-12 18:55,-115.0343,36.2362,570.00,90.00,53.40,28.87,70.00,6.00,0.00,29.91,1010.30,10.00,M,FEW,M,M,M,18000.00,M,M,M,M,M,M,M,M,M,M,87.69,KLSV 121855Z AUTO 07006KT 10SM FEW180 32/12 A2991 RMK AO2 SLP103 T03220119 $,M
EKO,2023-09-12 18:56,-115.7860,40.8242,1367.00,76.00,47.00,35.80,220.00,8.00,0.00,30.10,1014.00,10.00,M,CLR,M,M,M,M,M,M,M,M,M,M,M,M,M,M,76.00,KEKO 121856Z AUTO 22008KT 10SM CLR 24/08 A3010 RMK AO2 SLP140 T02440083,M
WMC,2023-09-12 18:56,-117.8072,40.9019,1315.00,80.00,40.00,23.99,330.00,4.00,0.00,30.07,1013.70,10.00,M,CLR,M,M,M,M,M,M,M,M,M,M,M,M,M,M,78.83,KWMC 121856Z AUTO 33004KT 10SM CLR 27/04 A3007 RMK AO2 SLP137 T02670044,M
NFL,2023-09-12 18:56,-118.7010,39.4166,1199.00,80.00,36.00,20.51,0.00,0.00,0.00,30.05,1014.50,10.00,M,FEW,FEW,M,M,7000.00,10000.00,M,M,M,M,M,M,M,M,M,78.66,KNFL 121856Z 00000KT 10SM FEW070 FEW100 27/02 A3005 RMK AO2 SLP145 T02670022,M
HND,2023-09-12 18:56,-115.1344,35.9729,742.79,87.00,54.00,32.45,M,4.00,0.00,29.98,1013.90,10.00,M,CLR,M,M,M,M,M,M,M,M,M,M,M,M,M,M,85.10,KHND 121856Z VRB04KT 10SM CLR 31/12 A2998 RMK AO2 SLP139 T03060122,M
LAS,2023-09-12 18:56,-115.1634,36.0719,663.00,89.00,52.00,28.30,150.00,5.00,0.00,29.95,1011.50,10.00,M,FEW,BKN,BKN,M,10000.00,17000.00,25000.00,M,M,M,M,M,M,M,M,86.49,KLAS 121856Z 15005KT 10SM FEW100 BKN170 BKN250 32/11 A2995 RMK AO2 LTG DSNT NW SLP115 CB DSNT N AND NW T03170111,M
10U,2023-09-12 19:00,-116.1876,41.9532,1637.00,73.40,42.80,33.29,M,4.00,0.00,30.13,M,10.00,11.00,FEW,M,M,M,9500.00,M,M,M,M,M,M,M,M,M,M,73.40,K10U 121900Z AUTO VRB04G11KT 10SM FEW095 23/06 A3013 RMK AO2 LTG DSNT S,M
05U,2023-09-12 19:10,-116.0051,39.6042,1811.23,73.40,41.00,31.05,M,4.00,0.00,30.18,M,10.00,M,CLR,M,M,M,M,M,M,M,M,M,M,M,M,M,M,73.40,K05U 121910Z AUTO VRB04KT 10SM CLR 23/05 A3018 RMK A01,M
BAM,2023-09-12 19:15,-116.8743,40.5990,1382.36,75.20,48.20,38.46,0.00,0.00,0.00,30.10,M,10.00,M,CLR,M,M,M,M,M,M,M,M,M,M,M,M,M,M,75.20,KBAM 121915Z AUTO 00000KT 10SM CLR 24/09 A3010 RMK AO1,M
BVU,2023-09-12 19:15,-114.8611,35.9475,671.00,84.20,53.60,34.97,0.00,0.00,0.00,29.95,M,10.00,M,CLR,M,M,M,M,M,M,M,M,M,M,M,M,M,M,82.76,KBVU 121915Z AUTO 00000KT 10SM CLR 29/12 A2995 RMK AO2,M
CXP,2023-09-12 19:15,-119.7326,39.1923,1431.00,78.80,39.20,24.19,M,3.00,0.00,30.10,M,10.00,M,CLR,M,M,M,M,M,M,M,M,M,M,M,M,M,M,78.80,KCXP 121915Z AUTO VRB03KT 10SM CLR 26/04 A3010 RMK AO2,M
RTS,2023-09-12 19:15,-119.8764,39.6682,1539.00,75.20,32.00,20.49,M,4.00,0.00,30.13,M,10.00,M,CLR,M,M,M,M,M,M,M,M,M,M,M,M,M,M,75.20,KRTS 121915Z AUTO VRB04KT 10SM CLR 24/00 A3013 RMK AO2,M
MEV,2023-09-12 19:15,-119.7500,38.9963,1441.42,77.00,39.20,25.67,M,4.00,0.00,30.09,M,10.00,M,CLR,M,M,M,M,M,M,M,M,M,M,M,M,M,M,77.00,KMEV 121915Z AUTO VRB04KT 10SM CLR 25/04 A3009 RMK AO2,M
HTH,2023-09-12 19:15,-118.6315,38.5448,1282.89,77.00,48.20,36.22,320.00,5.00,0.00,30.08,M,10.00,M,CLR,M,M,M,M,M,M,M,M,M,M,M,M,M,M,77.00,KHTH 121915Z AUTO 32005KT 10SM CLR 25/09 A3008 RMK A01,M
05U,2023-09-12 19:30,-116.0051,39.6042,1811.23,75.20,41.00,29.23,M,4.00,0.00,30.17,M,10.00,M,CLR,M,M,M,M,M,M,M,M,M,M,M,M,M,M,75.20,K05U 121930Z AUTO VRB04KT 10SM CLR 24/05 A3017 RMK A01,M
BVU,2023-09-12 19:35,-114.8611,35.9475,671.00,86.00,53.60,33.01,40.00,4.00,0.00,29.94,M,10.00,M,CLR,M,M,M,M,M,M,M,M,M,M,M,M,M,M,84.18,KBVU 121935Z AUTO 04004KT 10SM CLR 30/12 A2994 RMK AO2,M
CXP,2023-09-12 19:35,-119.7326,39.1923,1431.00,78.80,37.40,22.54,M,4.00,0.00,30.10,M,10.00,M,CLR,M,M,M,M,M,M,M,M,M,M,M,M,M,M,78.80,KCXP 121935Z AUTO VRB04KT 10SM CLR 26/03 A3010 RMK AO2,M
RTS,2023-09-12 19:35,-119.8764,39.6682,1539.00,75.20,32.00,20.49,M,4.00,0.00,30.12,M,10.00,M,CLR,M,M,M,M,M,M,M,M,M,M,M,M,M,M,75.20,KRTS 121935Z AUTO VRB04KT 10SM CLR 24/00 A3012 RMK AO2,M
MEV,2023-09-12 19:35,-119.7500,38.9963,1441.42,77.00,39.20,25.67,0.00,0.00,0.00,30.08,M,8.00,M,CLR,M,M,M,M,M,M,M,M,M,M,M,M,M,M,77.00,KMEV 121935Z AUTO 00000KT 8SM CLR 25/04 A3008 RMK AO2,M
BAM,2023-09-12 19:35,-116.8743,40.5990,1382.36,75.20,51.80,43.97,0.00,0.00,0.00,30.09,M,10.00,M,CLR,M,M,M,M,M,M,M,M,M,M,M,M,M,M,75.20,KBAM 121935Z AUTO 00000KT 10SM CLR 24/11 A3009 RMK AO1,M
HTH,2023-09-12 19:35,-118.6315,38.5448,1282.89,77.00,44.60,31.62,300.00,6.00,0.00,30.07,M,10.00,M,CLR,M,M,M,M,M,M,M,M,M,M,M,M,M,M,77.00,KHTH 121935Z AUTO 30006KT 10SM CLR 25/07 A3007 RMK A01,M
TMT,2023-09-12 19:35,-117.1971,39.4643,1749.34,75.00,42.60,31.30,280.00,3.00,0.00,30.15,M,M,M,CLR,M,M,M,M,M,M,M,M,M,M,M,M,M,M,75.00,KTMT 121935Z AUTO 28003KT CLR 24/06 A3015 RMK AO2 LTG DSNT S T02390059 PWINO,M
ELY,2023-09-12 19:36,-114.8453,39.2950,1909.00,71.00,43.00,36.38,320.00,13.00,0.00,30.16,M,10.00,18.00,OVC,M,M,M,7000.00,M,M,M,VCTS,M,M,M,M,M,M,71.00,KELY 121936Z AUTO 32013G18KT 10SM VCTS OVC070 22/06 A3016 RMK AO2 LTG DSNT NE AND SW T02170061,M
10U,2023-09-12 19:40,-116.1876,41.9532,1637.00,75.20,42.80,31.34,230.00,5.00,0.00,30.12,M,10.00,11.00,BKN,M,M,M,10000.00,M,M,M,M,M,M,M,M,M,M,75.20,K10U 121940Z AUTO 23005G11KT 10SM BKN100 24/06 A3012 RMK AO2,M
05U,2023-09-12 19:50,-116.0051,39.6042,1811.23,77.00,39.20,25.67,260.00,5.00,0.00,30.16,M,10.00,M,CLR,M,M,M,M,M,M,M,M,M,M,M,M,M,M,77.00,K05U 121950Z AUTO 26005KT 10SM CLR 25/04 A3016 RMK A01,M
P68,2023-09-12 19:53,-116.0056,39.6014,1993.00,74.00,38.00,27.08,M,3.00,0.00,30.13,1013.60,M,M,M,M,M,M,M,M,M,M,M,M,M,M,M,M,M,74.00,KP68 121953Z AUTO VRB03KT 23/03 A3013 RMK AO1 SLP136 T02330033,M
DRA,2023-09-12 19:53,-116.0278,36.6206,1009.00,87.00,53.00,31.28,M,3.00,0.00,29.97,1010.00,10.00,M,CLR,M,M,M,M,M,M,M,M,M,M,M,M,M,M,84.91,KDRA 121953Z AUTO VRB03KT 10SM CLR 31/12 A2997 RMK AO2 SLP100 T03060117,M
ELY,2023-09-12 19:53,-114.8453,39.2950,1909.00,68.00,45.00,43.51,270.00,6.00,0.00,30.17,1013.80,10.00,15.00,BKN,OVC,M,M,7000.00,8000.00,M,M,VCTS,M,M,M,M,M,M,68.00,KELY 121953Z AUTO 27006G15KT 10SM VCTS BKN070 OVC080 20/07 A3017 RMK AO2 LTG DSNT NE AND SE SLP138 T02000072,M
VGT,2023-09-12 19:53,-115.1933,36.2111,667.00,91.00,54.00,28.60,130.00,11.00,0.00,29.92,1011.80,10.00,M,CLR,M,M,M,M,M,M,M,M,M,M,M,M,M,M,88.78,KVGT 121953Z 13011KT 10SM CLR 33/12 A2992 RMK AO2 LTG DSNT N AND W SLP118 T03280122,M
LOL,2023-09-12 19:53,-118.5701,40.0684,1192.43,81.00,35.00,19.08,80.00,3.00,0.00,30.03,1013.40,10.00,M,CLR,M,M,M,M,M,M,M,M,M,M,M,M,M,M,79.16,KLOL 121953Z AUTO 08003KT 10SM CLR 27/02 A3003 RMK AO2 SLP134 T02720017,M
BVU,2023-09-12 19:55,-114.8611,35.9475,671.00,86.00,50.00,28.90,60.00,3.00,0.00,29.93,M,10.00,11.00,FEW,M,M,M,11000.00,M,M,M,M,M,M,M,M,M,M,83.62,KBVU 121955Z AUTO 06003G11KT 10SM FEW110 30/10 A2993 RMK AO2,M
CXP,2023-09-12 19:55,-119.7326,39.1923,1431.00,78.80,37.40,22.54,0.00,0.00,0.00,30.09,M,9.00,M,CLR,M,M,M,M,M,M,M,M,M,M,M,M,M,M,78.80,KCXP 121955Z AUTO 00000KT 9SM CLR 26/03 A3009 RMK AO2,M
RNO,2023-09-12 19:55,-119.7711,39.4839,1341.00,81.00,35.00,19.08,0.00,0.00,0.00,30.07,1012.90,10.00,M,FEW,M,M,M,8000.00,M,M,M,M,M,M,M,M,M,M,79.16,KRNO 121955Z 00000KT 10SM FEW080 27/02 A3007 RMK AO2 SLP129 T02720017,M
LSV,2023-09-12 19:55,-115.0343,36.2362,570.00,95.00,54.70,25.91,120.00,5.00,0.00,29.89,1009.50,10.00,M,FEW,M,M,M,19000.00,M,M,M,M,M,M,M,M,M,M,93.01,KLSV 121955Z AUTO 12005KT 10SM FEW190 35/13 A2989 RMK AO2 SLP095 T03500126 $,M
RTS,2023-09-12 19:55,-119.8764,39.6682,1539.00,77.00,33.80,20.74,150.00,4.00,0.00,30.12,M,10.00,M,CLR,M,M,M,M,M,M,M,M,M,M,M,M,M,M,77.00,KRTS 121955Z AUTO 15004KT 10SM CLR 25/01 A3012 RMK AO2,M
MEV,2023-09-12 19:55,-119.7500,38.9963,1441.42,78.80,39.20,24.19,350.00,6.00,0.00,30.07,M,9.00,M,CLR,M,M,M,M,M,M,M,M,M,M,M,M,M,M,78.80,KMEV 121955Z AUTO 35006KT 9SM CLR 26/04 A3007 RMK AO2,M
HTH,2023-09-12 19:55,-118.6315,38.5448,1282.89,77.00,41.00,27.53,M,4.00,0.00,30.06,M,10.00,M,CLR,M,M,M,M,M,M,M,M,M,M,M,M,M,M,77.00,KHTH 121955Z AUTO VRB04KT 10SM CLR 25/05 A3006 RMK A01,M
BAM,2023-09-12 19:55,-116.8743,40.5990,1382.36,77.00,50.00,38.74,0.00,0.00,0.00,30.08,M,10.00,M,CLR,M,M,M,M,M,M,M,M,M,M,M,M,M,M,77.00,KBAM 121955Z AUTO 00000KT 10SM CLR 25/10 A3008 RMK AO1,M
TMT,2023-09-12 19:55,-117.1971,39.4643,1749.34,74.70,39.60,28.15,290.00,3.00,0.00,30.14,M,M,M,CLR,M,M,M,M,M,M,M,M,M,M,M,M,M,M,74.70,KTMT 121955Z AUTO 29003KT CLR 24/04 A3014 RMK AO2 T02370042 PWINO,M
10U,2023-09-12 19:55,-116.1876,41.9532,1637.00,75.20,42.80,31.34,M,5.00,0.00,30.11,M,10.00,11.00,BKN,M,M,M,10000.00,M,M,M,M,M,M,M,M,M,M,75.20,K10U 121955Z AUTO VRB05G11KT 10SM BKN100 24/06 A3011 RMK AO2,M
INS,2023-09-12 19:55,-115.6733,36.5872,955.00,85.00,52.70,32.98,130.00,11.00,0.00,29.96,1009.70,10.00,M,CLR,M,M,M,M,M,M,M,M,M,M,M,M,M,M,83.22,KINS 121955Z AUTO 13011KT 10SM CLR 30/12 A2996 RMK AO2 LTG DSNT N SLP097 T02950115 $,M
EKO,2023-09-12 19:56,-115.7860,40.8242,1367.00,79.00,45.00,30.05,210.00,7.00,0.00,30.08,1013.60,10.00,M,CLR,M,M,M,M,M,M,M,M,M,M,M,M,M,M,79.00,KEKO 121956Z AUTO 21007KT 180V250 10SM CLR 26/07 A3008 RMK AO2 SLP136 T02610072,M
WMC,2023-09-12 19:56,-117.8072,40.9019,1315.00,84.00,35.00,17.31,10.00,5.00,0.00,30.05,1012.90,10.00,M,CLR,M,M,M,M,M,M,M,M,M,M,M,M,M,M,81.18,KWMC 121956Z AUTO 01005KT 10SM CLR 29/02 A3005 RMK AO2 SLP129 T02890017,M
NFL,2023-09-12 19:56,-118.7010,39.4166,1199.00,82.00,34.00,17.74,180.00,5.00,0.00,30.03,1013.90,10.00,M,CLR,M,M,M,M,M,M,M,M,M,M,M,M,M,M,79.77,KNFL 121956Z 18005KT 10SM CLR 28/01 A3003 RMK AO2 SLP139 T02780011,M
HND,2023-09-12 19:56,-115.1344,35.9729,742.79,92.00,54.00,27.72,150.00,10.00,0.00,29.96,1012.80,10.00,M,CLR,M,M,M,M,M,M,M,M,M,M,M,M,M,M,89.76,KHND 121956Z 15010KT 100V180 10SM CLR 33/12 A2996 RMK AO2 LTG DSNT NW SLP128 T03330122,M
LAS,2023-09-12 19:56,-115.1634,36.0719,663.00,90.00,52.00,27.42,150.00,6.00,0.00,29.93,1010.60,10.00,M,FEW,SCT,BKN,M,10000.00,17000.00,25000.00,M,M,M,M,M,M,M,M,87.40,KLAS 121956Z 15006KT 10SM FEW100 SCT170 BKN250 32/11 A2993 RMK AO2 LTG DSNT N AND NW SLP106 CB DSNT N AND NW ACC DSNT W T03220111,M
ELY,2023-09-12 20:03,-114.8453,39.2950,1909.00,66.00,47.00,50.29,140.00,9.00,T,30.17,M,10.00,M,BKN,OVC,M,M,6500.00,10000.00,M,M,-TSRA,M,M,M,M,M,M,66.00,KELY 122003Z AUTO 14009KT 10SM -TSRA BKN065 OVC100 19/08 A3017 RMK AO2 LTG DSNT SE AND S RAB1957 TSB1958 P0000 T01890083,M
05U,2023-09-12 20:10,-116.0051,39.6042,1811.23,77.00,39.20,25.67,M,3.00,0.00,30.15,M,10.00,M,CLR,M,M,M,M,M,M,M,M,M,M,M,M,M,M,77.00,K05U 122010Z AUTO VRB03KT 10SM CLR 25/04 A3015 RMK A01,M
WMC,2023-09-12 20:12,-117.8072,40.9019,1315.00,83.00,32.00,15.85,0.00,0.00,0.00,30.04,M,10.00,M,FEW,M,M,M,200.00,M,M,M,M,M,M,M,M,M,M,80.41,KWMC 122012Z AUTO 00000KT 10SM FEW002 28/00 A3004 RMK AO2 T02830000,M
RTS,2023-09-12 20:15,-119.8764,39.6682,1539.00,78.80,33.80,19.55,200.00,5.00,0.00,30.11,M,10.00,10.00,CLR,M,M,M,M,M,M,M,M,M,M,M,M,M,M,78.80,KRTS 122015Z AUTO 20005G10KT 10SM CLR 26/01 A3011 RMK AO2,M
MEV,2023-09-12 20:15,-119.7500,38.9963,1441.42,80.60,41.00,24.46,310.00,5.00,0.00,30.07,M,7.00,M,CLR,M,M,M,M,M,M,M,M,M,M,M,M,M,M,79.20,KMEV 122015Z AUTO 31005KT 7SM CLR 27/05 A3007 RMK AO2,M
HTH,2023-09-12 20:15,-118.6315,38.5448,1282.89,78.80,39.20,24.19,0.00,0.00,0.00,30.05,M,10.00,M,CLR,M,M,M,M,M,M,M,M,M,M,M,M,M,M,78.80,KHTH 122015Z AUTO 00000KT 10SM CLR 26/04 A3005 RMK A01,M
10U,2023-09-12 20:15,-116.1876,41.9532,1637.00,77.00,42.80,29.51,230.00,7.00,0.00,30.11,M,10.00,12.00,SCT,M,M,M,11000.00,M,M,M,M,M,M,M,M,M,M,77.00,K10U 122015Z AUTO 23007G12KT 200V260 10SM SCT110 25/06 A3011 RMK AO2,M
BAM,2023-09-12 20:15,-116.8743,40.5990,1382.36,77.00,50.00,38.74,330.00,4.00,0.00,30.08,M,10.00,M,CLR,M,M,M,M,M,M,M,M,M,M,M,M,M,M,77.00,KBAM 122015Z AUTO 33004KT 10SM CLR 25/10 A3008 RMK AO1,M
TMT,2023-09-12 20:15,-117.1971,39.4643,1749.34,75.00,38.50,26.70,0.00,0.00,0.00,30.13,M,M,M,CLR,M,M,M,M,M,M,M,M,M,M,M,M,M,M,75.00,KTMT 122015Z AUTO 00000KT CLR 24/04 A3013 RMK AO2 LTG DSNT S T02390036 PWINO,M
BVU,2023-09-12 20:15,-114.8611,35.9475,671.00,89.60,50.00,25.79,130.00,8.00,0.00,29.92,M,10.00,M,SCT,M,M,M,10000.00,M,M,M,M,M,M,M,M,M,M,86.70,KBVU 122015Z AUTO 13008KT 10SM SCT100 32/10 A2992 RMK AO2,M
CXP,2023-09-12 20:15,-119.7326,39.1923,1431.00,80.60,39.20,22.81,0.00,0.00,0.00,30.08,M,10.00,M,CLR,M,M,M,M,M,M,M,M,M,M,M,M,M,M,79.10,KCXP 122015Z AUTO 00000KT 10SM CLR 27/04 A3008 RMK AO2,M
ELY,2023-09-12 20:16,-114.8453,39.2950,1909.00,66.00,44.00,44.88,120.00,14.00,T,30.16,M,M,M,M,M,M,M,M,M,M,M,TS,M,M,M,M,M,M,66.00,KELY 122016Z AUTO 12014KT TS 19/07 A3016 RMK AO2 LTG DSNT S RAB1957E09 TSB1958 P0000 T01890067 $,M
VGT,2023-09-12 20:25,-115.1933,36.2111,667.00,93.00,53.00,25.90,M,3.00,0.00,29.91,M,10.00,M,CLR,M,M,M,M,M,M,M,VCTS,M,M,M,M,M,M,90.52,KVGT 122025Z VRB03KT 10SM VCTS CLR 34/12 A2991 RMK AO2 LTG DSNT N AND W T03390117,M
05U,2023-09-12 20:30,-116.0051,39.6042,1811.23,77.00,39.20,25.67,190.00,6.00,0.00,30.15,M,10.00,M,CLR,M,M,M,M,M,M,M,M,M,M,M,M,M,M,77.00,K05U 122030Z AUTO 19006KT 10SM CLR 25/04 A3015 RMK A01,M
BVU,2023-09-12 20:35,-114.8611,35.9475,671.00,89.60,50.00,25.79,150.00,6.00,0.00,29.91,M,10.00,12.00,FEW,M,M,M,10000.00,M,M,M,M,M,M,M,M,M,M,86.70,KBVU 122035Z AUTO 15006G12KT 10SM FEW100 32/10 A2991 RMK AO2,M
CXP,2023-09-12 20:35,-119.7326,39.1923,1431.00,82.40,37.40,20.04,190.00,5.00,0.00,30.07,M,10.00,M,CLR,M,M,M,M,M,M,M,M,M,M,M,M,M,M,80.14,KCXP 122035Z AUTO 19005KT 10SM CLR 28/03 A3007 RMK AO2,M
RTS,2023-09-12 20:35,-119.8764,39.6682,1539.00,78.80,33.80,19.55,140.00,6.00,0.00,30.10,M,10.00,M,CLR,M,M,M,M,M,M,M,M,M,M,M,M,M,M,78.80,KRTS 122035Z AUTO 14006KT 10SM CLR 26/01 A3010 RMK AO2,M
MEV,2023-09-12 20:35,-119.7500,38.9963,1441.42,80.60,41.00,24.46,310.00,6.00,0.00,30.06,M,8.00,M,CLR,M,M,M,M,M,M,M,M,M,M,M,M,M,M,79.20,KMEV 122035Z AUTO 31006KT 8SM CLR 27/05 A3006 RMK AO2,M
HTH,2023-09-12 20:35,-118.6315,38.5448,1282.89,78.80,39.20,24.19,M,4.00,0.00,30.04,M,10.00,M,CLR,M,M,M,M,M,M,M,M,M,M,M,M,M,M,78.80,KHTH 122035Z AUTO VRB04KT 10SM CLR 26/04 A3004 RMK A01,M
BAM,2023-09-12 20:35,-116.8743,40.5990,1382.36,77.00,50.00,38.74,0.00,0.00,0.00,30.07,M,10.00,M,CLR,M,M,M,M,M,M,M,M,M,M,M,M,M,M,77.00,KBAM 122035Z AUTO 00000KT 10SM CLR 25/10 A3007 RMK AO1,M
TMT,2023-09-12 20:35,-117.1971,39.4643,1749.34,75.60,39.60,27.32,0.00,0.00,0.00,30.12,M,M,M,SCT,M,M,M,11000.00,M,M,M,M,M,M,M,M,M,M,75.60,KTMT 122035Z AUTO 00000KT SCT110 24/04 A3012 RMK AO2 T02420042 PWINO,M
10U,2023-09-12 20:40,-116.1876,41.9532,1637.00,77.00,41.00,27.53,220.00,8.00,0.00,30.10,M,10.00,M,FEW,M,M,M,12000.00,M,M,M,M,M,M,M,M,M,M,77.00,K10U 122040Z AUTO 22008KT 10SM FEW120 25/05 A3010 RMK AO2,M
VGT,2023-09-12 20:40,-115.1933,36.2111,667.00,92.00,52.00,25.76,M,4.00,0.00,29.90,M,10.00,M,CLR,M,M,M,M,M,M,M,M,M,M,M,M,M,M,89.31,KVGT 122040Z VRB04KT 10SM CLR 33/11 A2990 RMK AO2 LTG DSNT N AND NE T03330111,M
ELY,2023-09-12 20:48,-114.8453,39.2950,1909.00,69.80,42.80,37.61,130.00,7.00,T,30.15,M,10.00,M,BKN,M,M,M,11000.00,M,M,M,M,M,M,M,M,M,M,69.80,KELY 122048Z AUTO 13007KT 10SM BKN110 21/06 A3015 RMK AO2 RAB1957E09 TSB1958E42 P0000,M
05U,2023-09-12 20:50,-116.0051,39.6042,1811.23,77.00,39.20,25.67,0.00,0.00,0.00,30.14,M,10.00,M,CLR,M,M,M,M,M,M,M,M,M,M,M,M,M,M,77.00,K05U 122050Z AUTO 00000KT 10SM CLR 25/04 A3014 RMK A01,M
P68,2023-09-12 20:53,-116.0056,39.6014,1993.00,75.00,39.00,27.23,110.00,5.00,0.00,30.11,1013.10,M,M,M,M,M,M,M,M,M,M,M,M,M,M,M,M,M,75.00,KP68 122053Z AUTO 11005KT 24/04 A3011 RMK AO1 SLP131 T02390039 58019,M
DRA,2023-09-12 20:53,-116.0278,36.6206,1009.00,89.00,50.00,26.28,240.00,10.00,0.00,29.95,1009.10,10.00,21.00,FEW,M,M,M,8500.00,M,M,M,M,M,M,M,26.00,210.00,2023-09-12 20:31,86.16,KDRA 122053Z AUTO 24010G21KT 10SM FEW085 32/10 A2995 RMK AO2 PK WND 21026/2031 SLP091 T03170100 58017,M
ELY,2023-09-12 20:53,-114.8453,39.2950,1909.00,70.00,43.00,37.64,140.00,6.00,T,30.14,1012.40,10.00,M,BKN,M,M,M,11000.00,M,M,M,M,M,M,M,M,M,M,70.00,KELY 122053Z AUTO 14006KT 10SM BKN110 21/06 A3014 RMK AO2 RAB1957E09 TSB1958E42 SLP124 P0000 60000 T02110061,M
VGT,2023-09-12 20:53,-115.1933,36.2111,667.00,93.00,53.00,25.90,130.00,9.00,0.00,29.90,1011.00,10.00,M,CLR,M,M,M,M,M,M,M,M,M,M,M,M,M,M,90.52,KVGT 122053Z 13009KT 10SM CLR 34/12 A2990 RMK AO2 SLP110 T03390117 58017,M
LOL,2023-09-12 20:53,-118.5701,40.0684,1192.43,83.00,34.00,17.18,210.00,4.00,0.00,30.01,1012.50,10.00,M,CLR,M,M,M,M,M,M,M,M,M,M,M,M,M,M,80.45,KLOL 122053Z AUTO 21004KT 10SM CLR 28/01 A3001 RMK AO2 SLP125 T02830011 58017,M
BVU,2023-09-12 20:55,-114.8611,35.9475,671.00,89.60,50.00,25.79,150.00,4.00,0.00,29.91,M,10.00,13.00,FEW,M,M,M,10000.00,M,M,M,M,M,M,M,M,M,M,86.70,KBVU 122055Z AUTO 15004G13KT 10SM FEW100 32/10 A2991 RMK AO2,M
CXP,2023-09-12 20:55,-119.7326,39.1923,1431.00,82.40,37.40,20.04,M,4.00,0.00,30.07,M,10.00,M,CLR,M,M,M,M,M,M,M,M,M,M,M,M,M,M,80.14,KCXP 122055Z AUTO VRB04KT 10SM CLR 28/03 A3007 RMK AO2,M
RNO,2023-09-12 20:55,-119.7711,39.4839,1341.00,84.00,36.00,18.01,M,3.00,0.00,30.05,1011.80,10.00,M,FEW,M,M,M,9000.00,M,M,M,M,M,M,M,M,M,M,81.20,KRNO 122055Z VRB03KT 10SM FEW090 29/02 A3005 RMK AO2 SLP118 T02890022 58019,M
RTS,2023-09-12 20:55,-119.8764,39.6682,1539.00,78.80,33.80,19.55,M,5.00,0.00,30.10,M,10.00,10.00,CLR,M,M,M,M,M,M,M,M,M,M,M,M,M,M,78.80,KRTS 122055Z AUTO VRB05G10KT 10SM CLR 26/01 A3010 RMK AO2,M
MEV,2023-09-12 20:55,-119.7500,38.9963,1441.42,80.60,33.80,18.42,60.00,4.00,0.00,30.05,M,10.00,M,CLR,M,M,M,M,M,M,M,M,M,M,M,M,M,M,78.88,KMEV 122055Z AUTO 06004KT 10SM CLR 27/01 A3005 RMK AO2,M
HTH,2023-09-12 20:55,-118.6315,38.5448,1282.89,80.60,41.00,24.46,290.00,5.00,0.00,30.04,M,10.00,M,CLR,M,M,M,M,M,M,M,M,M,M,M,M,M,M,79.20,KHTH 122055Z AUTO 29005KT 10SM CLR 27/05 A3004 RMK A01,M
BAM,2023-09-12 20:55,-116.8743,40.5990,1382.36,78.80,50.00,36.51,0.00,0.00,0.00,30.07,M,10.00,M,CLR,M,M,M,M,M,M,M,M,M,M,M,M,M,M,78.80,KBAM 122055Z AUTO 00000KT 10SM CLR 26/10 A3007 RMK AO1,M
TMT,2023-09-12 20:55,-117.1971,39.4643,1749.34,77.40,40.50,26.65,350.00,5.00,0.00,30.12,M,M,M,CLR,M,M,M,M,M,M,M,M,M,M,M,M,M,M,77.40,KTMT 122055Z AUTO 35005KT CLR 25/05 A3012 RMK AO2 T02520047 PWINO,M
10U,2023-09-12 20:55,-116.1876,41.9532,1637.00,77.00,41.00,27.53,260.00,8.00,0.00,30.10,M,10.00,M,FEW,M,M,M,12000.00,M,M,M,M,M,M,M,M,M,M,77.00,K10U 122055Z AUTO 26008KT 230V290 10SM FEW120 25/05 A3010 RMK AO2,M
INS,2023-09-12 20:55,-115.6733,36.5872,955.00,87.30,51.00,28.78,90.00,7.00,0.00,29.94,1009.00,10.00,M,SCT,M,M,M,13000.00,M,M,M,M,M,M,M,M,M,M,84.83,KINS 122055Z AUTO 09007KT 10SM SCT130 31/11 A2994 RMK AO2 SLP090 T03070106 57018 $,M
LSV,2023-09-12 20:55,-115.0343,36.2362,570.00,96.00,52.00,22.76,160.00,3.00,0.00,29.86,1008.50,10.00,M,CLR,M,M,M,M,M,M,M,M,M,M,M,M,M,M,93.34,KLSV 122055Z AUTO 16003KT 10SM CLR 36/11 A2986 RMK AO2 SLP085 T03550112 57017 $,M
EKO,2023-09-12 20:56,-115.7860,40.8242,1367.00,80.00,43.00,26.94,310.00,5.00,0.00,30.06,1012.70,10.00,M,CLR,M,M,M,M,M,M,M,M,M,M,M,M,M,M,78.97,KEKO 122056Z AUTO 31005KT 10SM CLR 27/06 A3006 RMK AO2 SLP127 T02670061 58018,M
WMC,2023-09-12 20:56,-117.8072,40.9019,1315.00,85.00,33.00,15.47,210.00,6.00,0.00,30.03,1012.20,10.00,M,CLR,M,M,M,M,M,M,M,M,M,M,M,M,M,M,81.88,KWMC 122056Z AUTO 21006KT 10SM CLR 29/01 A3003 RMK AO2 SLP122 T02940006 58017,M
NFL,2023-09-12 20:56,-118.7010,39.4166,1199.00,85.00,34.00,16.11,60.00,5.00,0.00,30.01,1013.30,10.00,M,SCT,M,M,M,7000.00,M,M,M,M,M,M,M,M,M,M,81.90,KNFL 122056Z 06005KT 10SM SCT070 29/01 A3001 RMK AO2 SLP133 T02940011 58017,M
HND,2023-09-12 20:56,-115.1344,35.9729,742.79,92.00,54.00,27.72,160.00,10.00,0.00,29.94,1012.10,10.00,14.00,FEW,M,M,M,8500.00,M,M,M,M,M,M,M,M,M,M,89.76,KHND 122056Z 16010G14KT 10SM FEW085 33/12 A2994 RMK AO2 SLP121 T03330122 58020,M
LAS,2023-09-12 20:56,-115.1634,36.0719,663.00,92.00,51.00,24.82,40.00,7.00,0.00,29.91,1009.80,10.00,M,FEW,SCT,BKN,M,10000.00,17000.00,25000.00,M,M,M,M,M,M,M,M,89.11,KLAS 122056Z 04007KT 10SM FEW100 SCT170 BKN250 33/11 A2991 RMK AO2 SLP098 ACSL E ACC W CB DSNT NW-N T03330106 58018 $,M
05U,2023-09-12 21:10,-116.0051,39.6042,1811.23,78.80,37.40,22.54,M,4.00,0.00,30.13,M,10.00,M,FEW,M,M,M,9500.00,M,M,M,M,M,M,M,M,M,M,78.80,K05U 122110Z AUTO VRB04KT 10SM FEW095 26/03 A3013 RMK A01,M
BVU,2023-09-12 21:15,-114.8611,35.9475,671.00,91.40,50.00,24.37,150.00,10.00,0.00,29.90,M,10.00,M,CLR,M,M,M,M,M,M,M,M,M,M,M,M,M,M,88.36,KBVU 122115Z AUTO 15010KT 10SM CLR 33/10 A2990 RMK AO2,M
CXP,2023-09-12 21:15,-119.7326,39.1923,1431.00,82.40,37.40,20.04,0.00,0.00,0.00,30.06,M,9.00,M,CLR,M,M,M,M,M,M,M,M,M,M,M,M,M,M,80.14,KCXP 122115Z AUTO 00000KT 9SM CLR 28/03 A3006 RMK AO2,M
RTS,2023-09-12 21:15,-119.8764,39.6682,1539.00,80.60,33.80,18.42,M,3.00,0.00,30.09,M,10.00,10.00,CLR,M,M,M,M,M,M,M,M,M,M,M,M,M,M,78.88,KRTS 122115Z AUTO VRB03G10KT 10SM CLR 27/01 A3009 RMK AO2,M
MEV,2023-09-12 21:15,-119.7500,38.9963,1441.42,82.40,37.40,20.04,M,3.00,0.00,30.05,M,9.00,M,CLR,M,M,M,M,M,M,M,M,M,M,M,M,M,M,80.14,KMEV 122115Z AUTO VRB03KT 9SM CLR 28/03 A3005 RMK AO2,M
HTH,2023-09-12 21:15,-118.6315,38.5448,1282.89,80.60,39.20,22.81,0.00,0.00,0.00,30.03,M,10.00,M,CLR,M,M,M,M,M,M,M,M,M,M,M,M,M,M,79.10,KHTH 122115Z AUTO 00000KT 10SM CLR 27/04 A3003 RMK A01,M
BAM,2023-09-12 21:15,-116.8743,40.5990,1382.36,78.80,50.00,36.51,320.00,4.00,0.00,30.05,M,10.00,M,CLR,M,M,M,M,M,M,M,M,M,M,M,M,M,M,78.80,KBAM 122115Z AUTO 32004KT 10SM CLR 26/10 A3005 RMK AO1,M
TMT,2023-09-12 21:15,-117.1971,39.4643,1749.34,75.20,41.70,30.04,360.00,11.00,0.00,30.12,M,M,M,CLR,M,M,M,M,M,M,M,M,M,M,M,M,M,M,75.20,KTMT 122115Z AUTO 36011KT CLR 24/05 A3012 RMK AO2 LTG DSNT S T02400054 PWINO,M
10U,2023-09-12 21:20,-116.1876,41.9532,1637.00,77.00,41.00,27.53,M,4.00,0.00,30.09,M,10.00,M,FEW,M,M,M,7500.00,M,M,M,M,M,M,M,M,M,M,77.00,K10U 122120Z AUTO VRB04KT 10SM FEW075 25/05 A3009 RMK AO2,M
05U,2023-09-12 21:30,-116.0051,39.6042,1811.23,77.00,42.80,29.51,160.00,11.00,0.00,30.13,M,10.00,M,BKN,BKN,M,M,9000.00,11000.00,M,M,M,M,M,M,M,M,M,77.00,K05U 122130Z AUTO 16011KT 10SM BKN090 BKN110 25/06 A3013 RMK A01,M
BVU,2023-09-12 21:35,-114.8611,35.9475,671.00,91.40,51.80,26.05,70.00,5.00,0.00,29.88,M,10.00,M,CLR,M,M,M,M,M,M,M,M,M,M,M,M,M,M,88.69,KBVU 122135Z AUTO 07005KT 10SM CLR 33/11 A2988 RMK AO2,M
CXP,2023-09-12 21:35,-119.7326,39.1923,1431.00,82.40,35.60,18.67,M,6.00,0.00,30.05,M,10.00,M,CLR,M,M,M,M,M,M,M,M,M,M,M,M,M,M,80.08,KCXP 122135Z AUTO VRB06KT 10SM CLR 28/02 A3005 RMK AO2,M
RTS,2023-09-12 21:35,-119.8764,39.6682,1539.00,80.60,32.00,17.14,150.00,7.00,0.00,30.08,M,9.00,M,CLR,M,M,M,M,M,M,M,M,M,M,M,M,M,M,78.82,KRTS 122135Z AUTO 15007KT 9SM CLR 27/M00 A3008 RMK AO2,M
MEV,2023-09-12 21:35,-119.7500,38.9963,1441.42,82.40,35.60,18.67,M,6.00,0.00,30.04,M,6.00,M,CLR,M,M,M,M,M,M,M,HZ,M,M,M,M,M,M,80.08,KMEV 122135Z AUTO VRB06KT 6SM HZ CLR 28/02 A3004 RMK AO2,M
HTH,2023-09-12 21:35,-118.6315,38.5448,1282.89,80.60,39.20,22.81,320.00,5.00,0.00,30.02,M,10.00,M,CLR,M,M,M,M,M,M,M,M,M,M,M,M,M,M,79.10,KHTH 122135Z AUTO 32005KT 10SM CLR 27/04 A3002 RMK A01,M
BAM,2023-09-12 21:35,-116.8743,40.5990,1382.36,80.60,44.60,28.08,320.00,5.00,0.00,30.05,M,10.00,M,CLR,M,M,M,M,M,M,M,M,M,M,M,M,M,M,79.42,KBAM 122135Z AUTO 32005KT 10SM CLR 27/07 A3005 RMK AO1,M
TMT,2023-09-12 21:35,-117.1971,39.4643,1749.34,76.30,39.40,26.48,20.00,3.00,0.00,30.11,M,M,M,CLR,M,M,M,M,M,M,M,M,M,M,M,M,M,M,76.30,KTMT 122135Z AUTO 02003KT CLR 25/04 A3011 RMK AO2 LTG DSNT SE AND S T02460041 PWINO,M
10U,2023-09-12 21:40,-116.1876,41.9532,1637.00,78.80,39.20,24.19,M,4.00,0.00,30.08,M,10.00,10.00,FEW,M,M,M,8000.00,M,M,M,M,M,M,M,M,M,M,78.80,K10U 122140Z AUTO VRB04G10KT 10SM FEW080 26/04 A3008 RMK AO2,M
WMC,2023-09-12 21:44,-117.8072,40.9019,1315.00,86.00,28.00,12.23,320.00,9.00,0.00,30.01,M,10.00,14.00,FEW,M,M,M,200.00,M,M,M,M,M,M,M,M,M,M,82.50,KWMC 122144Z AUTO 32009G14KT 10SM FEW002 30/M02 A3001 RMK AO2 T03001022,M
05U,2023-09-12 21:50,-116.0051,39.6042,1811.23,78.80,41.00,25.95,160.00,10.00,0.00,30.12,M,10.00,M,SCT,M,M,M,9000.00,M,M,M,M,M,M,M,M,M,M,78.80,K05U 122150Z AUTO 16010KT 10SM SCT090 26/05 A3012 RMK A01,M
P68,2023-09-12 21:53,-116.0056,39.6014,1993.00,77.00,41.00,27.53,350.00,11.00,0.00,30.09,1012.20,M,M,M,M,M,M,M,M,M,M,M,M,M,M,M,M,M,77.00,KP68 122153Z AUTO 35011KT 25/05 A3009 RMK AO1 SLP122 T02500050,M
DRA,2023-09-12 21:53,-116.0278,36.6206,1009.00,90.00,50.00,25.46,220.00,10.00,0.00,29.93,1008.40,10.00,M,CLR,M,M,M,M,M,M,M,M,M,M,M,27.00,210.00,2023-09-12 20:54,87.06,KDRA 122153Z AUTO 22010KT 10SM CLR 32/10 A2993 RMK AO2 PK WND 21027/2054 SLP084 T03220100,M
ELY,2023-09-12 21:53,-114.8453,39.2950,1909.00,72.00,44.00,36.54,140.00,4.00,0.00,30.12,1011.80,10.00,M,CLR,M,M,M,M,M,M,M,M,M,M,M,M,M,M,72.00,KELY 122153Z AUTO 14004KT 10SM CLR 22/07 A3012 RMK AO2 SLP118 T02220067,M
VGT,2023-09-12 21:53,-115.1933,36.2111,667.00,94.00,53.00,25.11,160.00,13.00,0.00,29.87,1010.10,10.00,21.00,CLR,M,M,M,M,M,M,M,M,M,M,M,M,M,M,91.53,KVGT 122153Z 16013G21KT 10SM CLR 34/12 A2987 RMK AO2 SLP101 T03440117,M
LOL,2023-09-12 21:53,-118.5701,40.0684,1192.43,84.00,34.00,16.63,130.00,6.00,0.00,29.98,1011.80,10.00,M,CLR,M,M,M,M,M,M,M,M,M,M,M,M,M,M,81.16,KLOL 122153Z AUTO 13006KT 10SM CLR 29/01 A2998 RMK AO2 SLP118 T02890011,M
BVU,2023-09-12 21:55,-114.8611,35.9475,671.00,91.40,51.80,26.05,80.00,8.00,0.00,29.87,M,10.00,M,CLR,M,M,M,M,M,M,M,M,M,M,M,M,M,M,88.69,KBVU 122155Z AUTO 08008KT 10SM CLR 33/11 A2987 RMK AO2 LTG DSNT SW,M
CXP,2023-09-12 21:55,-119.7326,39.1923,1431.00,82.40,26.60,12.97,M,3.00,0.00,30.05,M,10.00,10.00,CLR,M,M,M,M,M,M,M,M,M,M,M,M,M,M,79.92,KCXP 122155Z AUTO VRB03G10KT 10SM CLR 28/M03 A3005 RMK AO2,M
RNO,2023-09-12 21:55,-119.7711,39.4839,1341.00,84.00,35.00,17.31,M,5.00,0.00,30.01,1010.90,10.00,M,FEW,M,M,M,10000.00,M,M,M,M,M,M,M,M,M,M,81.18,KRNO 122155Z VRB05KT 10SM FEW100 29/02 A3001 RMK AO2 SLP109 T02890017,M
RTS,2023-09-12 21:55,-119.8764,39.6682,1539.00,80.60,33.80,18.42,140.00,6.00,0.00,30.07,M,10.00,M,CLR,M,M,M,M,M,M,M,M,M,M,M,M,M,M,78.88,KRTS 122155Z AUTO 14006KT 10SM CLR 27/01 A3007 RMK AO2,M
MEV,2023-09-12 21:55,-119.7500,38.9963,1441.42,82.40,37.40,20.04,M,4.00,0.00,30.03,M,10.00,M,CLR,M,M,M,M,M,M,M,M,M,M,M,M,M,M,80.14,KMEV 122155Z AUTO VRB04KT 10SM CLR 28/03 A3003 RMK AO2,M
HTH,2023-09-12 21:55,-118.6315,38.5448,1282.89,80.60,41.00,24.46,0.00,0.00,0.00,30.01,M,10.00,M,CLR,M,M,M,M,M,M,M,M,M,M,M,M,M,M,79.20,KHTH 122155Z AUTO 00000KT 10SM CLR 27/05 A3001 RMK A01,M
BAM,2023-09-12 21:55,-116.8743,40.5990,1382.36,80.60,44.60,28.08,320.00,3.00,0.00,30.05,M,10.00,M,CLR,M,M,M,M,M,M,M,M,M,M,M,M,M,M,79.42,KBAM 122155Z AUTO 32003KT 10SM CLR 27/07 A3005 RMK AO1,M
TMT,2023-09-12 21:55,-117.1971,39.4643,1749.34,75.20,38.30,26.32,360.00,4.00,0.00,30.10,M,M,M,CLR,M,M,M,M,M,M,M,M,M,M,M,M,M,M,75.20,KTMT 122155Z AUTO 36004KT CLR 24/04 A3010 RMK AO2 LTG DSNT SE AND S T02400035 PWINO,M
10U,2023-09-12 21:55,-116.1876,41.9532,1637.00,77.00,35.60,22.28,M,5.00,0.00,30.08,M,10.00,M,CLR,M,M,M,M,M,M,M,M,M,M,M,M,M,M,77.00,K10U 122155Z AUTO VRB05KT 10SM CLR 25/02 A3008 RMK AO2,M
INS,2023-09-12 21:55,-115.6733,36.5872,955.00,88.00,48.70,25.84,110.00,14.00,0.00,29.93,1008.70,10.00,M,CLR,M,M,M,M,M,M,M,M,M,M,M,M,M,M,85.11,KINS 122155Z AUTO 11014KT 10SM CLR 31/09 A2993 RMK AO2 SLP087 T03110093 $,M
LSV,2023-09-12 21:55,-115.0343,36.2362,570.00,96.60,51.40,21.85,90.00,5.00,0.00,29.83,1007.40,10.00,M,CLR,M,M,M,M,M,M,M,M,M,M,M,M,M,M,93.82,KLSV 122155Z AUTO 09005KT 10SM CLR 36/11 A2983 RMK AO2 SLP074 T03590108 $,M
EKO,2023-09-12 21:56,-115.7860,40.8242,1367.00,83.00,42.00,23.51,320.00,13.00,0.00,30.04,1011.90,10.00,M,SCT,M,M,M,8000.00,M,M,M,M,M,M,M,M,M,M,80.74,KEKO 122156Z AUTO 32013KT 10SM SCT080 28/06 A3004 RMK AO2 SLP119 T02830056,M
WMC,2023-09-12 21:56,-117.8072,40.9019,1315.00,86.00,28.00,12.23,310.00,9.00,0.00,30.01,1011.60,10.00,M,CLR,M,M,M,M,M,M,M,M,M,M,M,M,M,M,82.50,KWMC 122156Z AUTO 31009KT 10SM CLR 30/M02 A3001 RMK AO2 SLP116 T03001022,M
HND,2023-09-12 21:56,-115.1344,35.9729,742.79,93.00,54.00,26.87,M,6.00,0.00,29.91,1011.20,10.00,15.00,FEW,SCT,M,M,9000.00,12000.00,M,M,M,M,M,M,M,M,M,90.76,KHND 122156Z VRB06G15KT 10SM FEW090 SCT120 34/12 A2991 RMK AO2 LTG DSNT S SLP112 T03390122,M
LAS,2023-09-12 21:56,-115.1634,36.0719,663.00,92.00,52.00,25.76,M,3.00,0.00,29.88,1008.80,10.00,M,FEW,SCT,BKN,M,10000.00,17000.00,25000.00,M,M,M,M,M,M,M,M,89.31,KLAS 122156Z VRB03KT 10SM FEW100 SCT170 BKN250 33/11 A2988 RMK AO2 LTG DSNT S SLP088 CB DSNT S AND NW-N T03330111 $,M
NFL,2023-09-12 21:56,-118.7010,39.4166,1199.00,84.00,35.00,17.31,M,5.00,0.00,29.99,1012.60,10.00,M,FEW,M,M,M,7000.00,M,M,M,M,M,M,M,M,M,M,81.18,KNFL 122156Z VRB05KT 10SM FEW070 29/02 A2999 RMK AO2 SLP126 T02890017,M
05U,2023-09-12 22:10,-116.0051,39.6042,1811.23,78.80,41.00,25.95,M,5.00,0.00,30.12,M,10.00,12.00,CLR,M,M,M,M,M,M,M,M,M,M,M,M,M,M,78.80,K05U 122210Z AUTO VRB05G12KT 10SM CLR 26/05 A3012 RMK A01,M
BVU,2023-09-12 22:15,-114.8611,35.9475,671.00,91.40,51.80,26.05,110.00,9.00,0.00,29.87,M,10.00,14.00,CLR,M,M,M,M,M,M,M,M,M,M,M,M,M,M,88.69,KBVU 122215Z AUTO 11009G14KT 10SM CLR 33/11 A2987 RMK AO2 LTG DSNT SW,M
CXP,2023-09-12 22:15,-119.7326,39.1923,1431.00,82.40,32.00,16.17,0.00,0.00,0.00,30.04,M,10.00,M,CLR,M,M,M,M,M,M,M,M,M,M,M,M,M,M,80.00,KCXP 122215Z AUTO 00000KT 10SM CLR 28/M00 A3004 RMK AO2,M
RTS,2023-09-12 22:15,-119.8764,39.6682,1539.00,78.80,33.80,19.55,M,4.00,0.00,30.07,M,10.00,M,CLR,M,M,M,M,M,M,M,M,M,M,M,M,M,M,78.80,KRTS 122215Z AUTO VRB04KT 10SM CLR 26/01 A3007 RMK AO2,M
MEV,2023-09-12 22:15,-119.7500,38.9963,1441.42,82.40,37.40,20.04,M,6.00,0.00,30.03,M,10.00,11.00,CLR,M,M,M,M,M,M,M,M,M,M,M,M,M,M,80.14,KMEV 122215Z AUTO VRB06G11KT 10SM CLR 28/03 A3003 RMK AO2,M
HTH,2023-09-12 22:15,-118.6315,38.5448,1282.89,82.40,41.00,23.07,280.00,6.00,0.00,30.00,M,10.00,M,CLR,M,M,M,M,M,M,M,M,M,M,M,M,M,M,80.29,KHTH 122215Z AUTO 28006KT 10SM CLR 28/05 A3000 RMK A01,M
10U,2023-09-12 22:15,-116.1876,41.9532,1637.00,78.80,37.40,22.54,330.00,8.00,0.00,30.07,M,10.00,M,CLR,M,M,M,M,M,M,M,M,M,M,M,M,M,M,78.80,K10U 122215Z AUTO 33008KT 10SM CLR 26/03 A3007 RMK AO2,M
BAM,2023-09-12 22:15,-116.8743,40.5990,1382.36,80.60,44.60,28.08,300.00,4.00,0.00,30.04,M,10.00,M,CLR,M,M,M,M,M,M,M,M,M,M,M,M,M,M,79.42,KBAM 122215Z AUTO 30004KT 10SM CLR 27/07 A3004 RMK AO1,M
TMT,2023-09-12 22:15,-117.1971,39.4643,1749.34,76.50,38.00,24.91,300.00,5.00,0.00,30.10,M,M,M,CLR,M,M,M,M,M,M,M,M,M,M,M,M,M,M,76.50,KTMT 122215Z AUTO 30005KT CLR 25/03 A3010 RMK AO2 LTG DSNT S T02470033 PWINO,M
05U,2023-09-12 22:30,-116.0051,39.6042,1811.23,77.00,39.20,25.67,180.00,7.00,0.00,30.12,M,10.00,M,SCT,M,M,M,12000.00,M,M,M,M,M,M,M,M,M,M,77.00,K05U 122230Z AUTO 18007KT 10SM SCT120 25/04 A3012 RMK A01,M
BVU,2023-09-12 22:35,-114.8611,35.9475,671.00,93.20,51.80,24.63,150.00,11.00,0.00,29.86,M,10.00,17.00,CLR,M,M,M,M,M,M,M,M,M,M,M,M,M,M,90.45,KBVU 122235Z AUTO 15011G17KT 120V180 10SM CLR 34/11 A2986 RMK AO2,M
CXP,2023-09-12 22:35,-119.7326,39.1923,1431.00,82.40,32.00,16.17,320.00,4.00,0.00,30.04,M,10.00,M,CLR,M,M,M,M,M,M,M,M,M,M,M,M,M,M,80.00,KCXP 122235Z AUTO 32004KT 10SM CLR 28/M00 A3004 RMK AO2,M
RTS,2023-09-12 22:35,-119.8764,39.6682,1539.00,80.60,33.80,18.42,M,5.00,0.00,30.06,M,10.00,M,CLR,M,M,M,M,M,M,M,M,M,M,M,M,M,M,78.88,KRTS 122235Z AUTO VRB05KT 10SM CLR 27/01 A3006 RMK AO2,M
MEV,2023-09-12 22:35,-119.7500,38.9963,1441.42,84.20,39.20,20.29,250.00,10.00,0.00,30.02,M,9.00,M,CLR,M,M,M,M,M,M,M,M,M,M,M,M,M,M,81.44,KMEV 122235Z AUTO 25010KT 9SM CLR 29/04 A3002 RMK AO2,M
HTH,2023-09-12 22:35,-118.6315,38.5448,1282.89,82.40,41.00,23.07,270.00,4.00,0.00,29.99,M,10.00,M,CLR,M,M,M,M,M,M,M,M,M,M,M,M,M,M,80.29,KHTH 122235Z AUTO 27004KT 10SM CLR 28/05 A2999 RMK A01,M
BAM,2023-09-12 22:35,-116.8743,40.5990,1382.36,80.60,44.60,28.08,360.00,3.00,0.00,30.04,M,10.00,M,CLR,M,M,M,M,M,M,M,M,M,M,M,M,M,M,79.42,KBAM 122235Z AUTO 36003KT 10SM CLR 27/07 A3004 RMK AO1,M
TMT,2023-09-12 22:35,-117.1971,39.4643,1749.34,76.50,37.80,24.71,290.00,5.00,0.00,30.10,M,M,M,CLR,M,M,M,M,M,M,M,M,M,M,M,M,M,M,76.50,KTMT 122235Z AUTO 29005KT CLR 25/03 A3010 RMK AO2 LTG DSNT SE AND S T02470032 PWINO,M
10U,2023-09-12 22:35,-116.1876,41.9532,1637.00,78.80,33.80,19.55,330.00,7.00,0.00,30.07,M,10.00,13.00,CLR,M,M,M,M,M,M,M,M,M,M,M,M,M,M,78.80,K10U 122235Z AUTO 33007G13KT 270V040 10SM CLR 26/01 A3007 RMK AO2,M
ELY,2023-09-12 22:36,-114.8453,39.2950,1909.00,72.00,42.00,33.84,0.00,0.00,0.00,30.11,M,10.00,M,FEW,M,M,M,12000.00,M,M,M,VCTS,M,M,M,M,M,M,72.00,KELY 122236Z AUTO 00000KT 10SM VCTS FEW120 22/06 A3011 RMK AO2 LTG DSNT NW T02220056,M
05U,2023-09-12 22:50,-116.0051,39.6042,1811.23,75.20,39.20,27.26,160.00,7.00,0.00,30.11,M,10.00,M,BKN,M,M,M,12000.00,M,M,M,M,M,M,M,M,M,M,75.20,K05U 122250Z AUTO 16007KT 10SM BKN120 24/04 A3011 RMK A01,M
P68,2023-09-12 22:53,-116.0056,39.6014,1993.00,74.00,40.00,29.28,360.00,8.00,0.00,30.09,1012.30,M,M,M,M,M,M,M,M,M,M,M,M,M,M,M,M,M,74.00,KP68 122253Z AUTO 36008KT 23/04 A3009 RMK AO1 SLP123 T02330044,M
DRA,2023-09-12 22:53,-116.0278,36.6206,1009.00,90.00,48.00,23.63,190.00,11.00,0.00,29.91,1008.10,10.00,19.00,CLR,M,M,M,M,M,M,M,M,M,M,M,M,M,M,86.78,KDRA 122253Z AUTO 19011G19KT 10SM CLR 32/09 A2991 RMK AO2 SLP081 T03220089,M
ELY,2023-09-12 22:53,-114.8453,39.2950,1909.00,71.00,43.00,36.38,0.00,0.00,0.00,30.12,1011.70,10.00,M,BKN,BKN,BKN,M,7500.00,9000.00,12000.00,M,M,M,M,M,M,M,M,71.00,KELY 122253Z AUTO 00000KT 10SM BKN075 BKN090 BKN120 22/06 A3012 RMK AO2 LTG DSNT SW SLP117 T02170061,M
VGT,2023-09-12 22:53,-115.1933,36.2111,667.00,95.00,52.00,23.47,110.00,10.00,0.00,29.84,1009.30,10.00,15.00,CLR,M,M,M,M,M,M,M,M,M,M,M,M,M,M,92.31,KVGT 122253Z 11010G15KT 10SM CLR 35/11 A2984 RMK AO2 SLP093 T03500111,M
LOL,2023-09-12 22:53,-118.5701,40.0684,1192.43,85.00,36.00,17.44,140.00,6.00,0.00,29.97,1011.50,10.00,M,CLR,M,M,M,M,M,M,M,M,M,M,M,M,M,M,81.93,KLOL 122253Z AUTO 14006KT 10SM CLR 29/02 A2997 RMK AO2 SLP115 T02940022,M
BVU,2023-09-12 22:55,-114.8611,35.9475,671.00,91.40,51.80,26.05,160.00,9.00,0.00,29.85,M,10.00,15.00,CLR,M,M,M,M,M,M,M,M,M,M,M,M,M,M,88.69,KBVU 122255Z AUTO 16009G15KT 10SM CLR 33/11 A2985 RMK AO2 LTG DSNT N AND SW,M
CXP,2023-09-12 22:55,-119.7326,39.1923,1431.00,84.20,32.00,15.25,90.00,4.00,0.00,30.03,M,10.00,M,CLR,M,M,M,M,M,M,M,M,M,M,M,M,M,M,81.28,KCXP 122255Z AUTO 09004KT 10SM CLR 29/M00 A3003 RMK AO2,M
RNO,2023-09-12 22:55,-119.7711,39.4839,1341.00,86.00,37.00,17.57,190.00,6.00,0.00,30.00,1010.20,10.00,M,FEW,M,M,M,11000.00,M,M,M,M,M,M,M,M,M,M,82.72,KRNO 122255Z 19006KT 10SM FEW110 30/03 A3000 RMK AO2 SLP102 T03000028,M
RTS,2023-09-12 22:55,-119.8764,39.6682,1539.00,82.40,33.80,17.38,150.00,8.00,0.00,30.05,M,10.00,M,CLR,M,M,M,M,M,M,M,M,M,M,M,M,M,M,80.03,KRTS 122255Z AUTO 15008KT 10SM CLR 28/01 A3005 RMK AO2,M
MEV,2023-09-12 22:55,-119.7500,38.9963,1441.42,84.20,39.20,20.29,250.00,11.00,0.00,30.02,M,10.00,M,BKN,M,M,M,10000.00,M,M,M,M,M,M,M,M,M,M,81.44,KMEV 122255Z AUTO 25011KT 10SM BKN100 29/04 A3002 RMK AO2,M
HTH,2023-09-12 22:55,-118.6315,38.5448,1282.89,82.40,41.00,23.07,M,3.00,0.00,29.99,M,10.00,M,FEW,M,M,M,11000.00,M,M,M,M,M,M,M,M,M,M,80.29,KHTH 122255Z AUTO VRB03KT 10SM FEW110 28/05 A2999 RMK A01,M
BAM,2023-09-12 22:55,-116.8743,40.5990,1382.36,80.60,44.60,28.08,360.00,4.00,0.00,30.03,M,10.00,M,CLR,M,M,M,M,M,M,M,M,M,M,M,M,M,M,79.42,KBAM 122255Z AUTO 36004KT 10SM CLR 27/07 A3003 RMK AO1,M
TMT,2023-09-12 22:55,-117.1971,39.4643,1749.34,77.00,37.60,24.11,260.00,4.00,0.00,30.09,M,M,M,CLR,M,M,M,M,M,M,M,M,M,M,M,M,M,M,77.00,KTMT 122255Z AUTO 26004KT CLR 25/03 A3009 RMK AO2 LTG DSNT S T02500031 PWINO,M
INS,2023-09-12 22:55,-115.6733,36.5872,955.00,86.00,50.00,28.90,110.00,12.00,0.00,29.90,1007.70,10.00,M,CLR,M,M,M,M,M,M,M,M,M,M,M,M,M,M,83.62,KINS 122255Z AUTO 11012KT 10SM CLR 30/10 A2990 RMK AO2 SLP077 T03000100 $,M
LSV,2023-09-12 22:55,-115.0343,36.2362,570.00,97.50,52.00,21.74,90.00,10.00,0.00,29.80,1006.40,10.00,16.00,FEW,M,M,M,17000.00,M,M,M,M,M,M,M,M,M,M,94.90,KLSV 122255Z AUTO 09010G16KT 10SM FEW170 36/11 A2980 RMK AO2 SLP064 T03640112 $,M
EKO,2023-09-12 22:56,-115.7860,40.8242,1367.00,77.00,43.00,29.74,10.00,9.00,0.00,30.04,1012.40,10.00,M,BKN,BKN,M,M,10000.00,12000.00,M,M,M,M,M,M,M,M,M,77.00,KEKO 122256Z AUTO 01009KT 10SM BKN100 BKN120 25/06 A3004 RMK AO2 SLP124 T02500061,M
WMC,2023-09-12 22:56,-117.8072,40.9019,1315.00,86.00,29.00,12.75,300.00,7.00,0.00,29.99,1011.30,10.00,M,CLR,M,M,M,M,M,M,M,M,M,M,M,M,M,M,82.59,KWMC 122256Z AUTO 30007KT 250V320 10SM CLR 30/M02 A2999 RMK AO2 SLP113 T03001017,M
NFL,2023-09-12 22:56,-118.7010,39.4166,1199.00,87.00,38.00,17.70,M,5.00,0.00,29.97,1012.10,10.00,M,FEW,M,M,M,7000.00,M,M,M,M,M,M,M,M,M,M,83.53,KNFL 122256Z VRB05KT 10SM FEW070 31/03 A2997 RMK AO2 SLP121 T03060033,M
HND,2023-09-12 22:56,-115.1344,35.9729,742.79,91.00,54.00,28.60,120.00,8.00,0.00,29.89,1010.60,10.00,M,CLR,M,M,M,M,M,M,M,M,M,M,M,M,M,M,88.78,KHND 122256Z AUTO 12008KT 10SM CLR 33/12 A2989 RMK AO2 LTG DSNT S SLP106 T03280122,M
LAS,2023-09-12 22:56,-115.1634,36.0719,663.00,93.00,52.00,24.97,M,5.00,0.00,29.85,1007.90,10.00,M,FEW,FEW,SCT,M,10000.00,17000.00,25000.00,M,M,M,M,M,M,M,M,90.29,KLAS 122256Z VRB05KT 10SM FEW100 FEW170 SCT250 34/11 A2985 RMK AO2 LTG DSNT S SLP079 CB DSNT SE-SW AND NW-NE T03390111,M
10U,2023-09-12 23:00,-116.1876,41.9532,1637.00,77.00,35.60,22.28,M,4.00,0.00,30.06,M,10.00,M,FEW,M,M,M,9500.00,M,M,M,M,M,M,M,M,M,M,77.00,K10U 122300Z AUTO VRB04KT 10SM FEW095 25/02 A3006 RMK AO2,M
ELY,2023-09-12 23:10,-114.8453,39.2950,1909.00,67.00,42.00,40.15,330.00,14.00,0.00,30.12,M,10.00,21.00,BKN,OVC,M,M,7000.00,8500.00,M,M,TS,M,M,M,M,M,M,67.00,KELY 122310Z AUTO 33014G21KT 10SM TS BKN070 OVC085 19/06 A3012 RMK AO2 LTG DSNT SW TSB10 T01940056,M
05U,2023-09-12 23:10,-116.0051,39.6042,1811.23,75.20,39.20,27.26,190.00,5.00,0.00,30.11,M,10.00,M,BKN,M,M,M,11000.00,M,M,M,M,M,M,M,M,M,M,75.20,K05U 122310Z AUTO 19005KT 10SM BKN110 24/04 A3011 RMK A01,M
BAM,2023-09-12 23:15,-116.8743,40.5990,1382.36,80.60,42.80,26.22,20.00,3.00,0.00,30.03,M,10.00,M,CLR,M,M,M,M,M,M,M,M,M,M,M,M,M,M,79.30,KBAM 122315Z AUTO 02003KT 10SM CLR 27/06 A3003 RMK AO1,M
TMT,2023-09-12 23:15,-117.1971,39.4643,1749.34,76.30,39.00,26.07,310.00,5.00,0.00,30.09,M,M,M,SCT,M,M,M,10000.00,M,M,M,M,M,M,M,M,M,M,76.30,KTMT 122315Z AUTO 31005KT SCT100 25/04 A3009 RMK AO2 LTG DSNT SE T02460039 PWINO,M
BVU,2023-09-12 23:15,-114.8611,35.9475,671.00,91.40,51.80,26.05,170.00,10.00,0.00,29.86,M,10.00,M,CLR,M,M,M,M,M,M,M,VCTS,M,M,M,M,M,M,88.69,KBVU 122315Z AUTO 17010KT 10SM VCTS CLR 33/11 A2986 RMK AO2 LTG DSNT S AND SW,M
CXP,2023-09-12 23:15,-119.7326,39.1923,1431.00,84.20,33.80,16.39,280.00,7.00,0.00,30.02,M,10.00,M,CLR,M,M,M,M,M,M,M,M,M,M,M,M,M,M,81.30,KCXP 122315Z AUTO 28007KT 10SM CLR 29/01 A3002 RMK AO2,M
RTS,2023-09-12 23:15,-119.8764,39.6682,1539.00,80.60,33.80,18.42,0.00,0.00,0.00,30.05,M,10.00,13.00,FEW,M,M,M,11000.00,M,M,M,M,M,M,M,M,M,M,78.88,KRTS 122315Z AUTO 00000G13KT 10SM FEW110 27/01 A3005 RMK AO2,M
MEV,2023-09-12 23:15,-119.7500,38.9963,1441.42,82.40,41.00,23.07,260.00,13.00,0.00,30.02,M,10.00,M,FEW,M,M,M,10000.00,M,M,M,M,M,M,M,M,M,M,80.29,KMEV 122315Z AUTO 26013KT 10SM FEW100 28/05 A3002 RMK AO2,M
HTH,2023-09-12 23:15,-118.6315,38.5448,1282.89,84.20,39.20,20.29,280.00,4.00,0.00,29.98,M,10.00,M,FEW,M,M,M,11000.00,M,M,M,M,M,M,M,M,M,M,81.44,KHTH 122315Z AUTO 28004KT 10SM FEW110 29/04 A2998 RMK A01,M
10U,2023-09-12 23:20,-116.1876,41.9532,1637.00,78.80,35.60,21.00,330.00,8.00,0.00,30.06,M,10.00,M,SCT,M,M,M,9000.00,M,M,M,M,M,M,M,M,M,M,78.80,K10U 122320Z AUTO 33008KT 10SM SCT090 26/02 A3006 RMK AO2,M
HND,2023-09-12 23:23,-115.1344,35.9729,742.79,89.60,55.40,31.45,150.00,15.00,0.00,29.89,M,10.00,M,CLR,M,M,M,M,M,M,M,M,M,M,M,M,M,M,87.78,KHND 122323Z AUTO 15015KT 10SM CLR 32/13 A2989 RMK AO2 WSHFT 2303 LTG DSNT S,M
05U,2023-09-12 23:30,-116.0051,39.6042,1811.23,77.00,39.20,25.67,0.00,0.00,0.00,30.11,M,10.00,M,BKN,M,M,M,12000.00,M,M,M,M,M,M,M,M,M,M,77.00,K05U 122330Z AUTO 00000KT 10SM BKN120 25/04 A3011 RMK A01,M
ELY,2023-09-12 23:31,-114.8453,39.2950,1909.00,66.00,46.00,48.43,320.00,7.00,T,30.12,M,10.00,M,FEW,BKN,OVC,M,6500.00,9000.00,11000.00,M,VCTS -RA,M,M,M,M,M,M,66.00,KELY 122331Z AUTO 32007KT 10SM VCTS -RA FEW065 BKN090 OVC110 19/08 A3012 RMK AO2 LTG DSNT SW RAB12 TSB10E25 P0000 T01890078,M
BVU,2023-09-12 23:35,-114.8611,35.9475,671.00,87.80,55.40,33.29,230.00,16.00,0.00,29.86,M,10.00,M,CLR,M,M,M,M,M,M,M,M,M,M,M,M,M,M,86.11,KBVU 122335Z AUTO 23016KT 10SM CLR 31/13 A2986 RMK AO2,M
CXP,2023-09-12 23:35,-119.7326,39.1923,1431.00,84.20,35.60,17.61,190.00,4.00,0.00,30.02,M,10.00,M,CLR,M,M,M,M,M,M,M,M,M,M,M,M,M,M,81.34,KCXP 122335Z AUTO 19004KT 10SM CLR 29/02 A3002 RMK AO2,M
RTS,2023-09-12 23:35,-119.8764,39.6682,1539.00,80.60,35.60,19.79,250.00,13.00,0.00,30.05,M,10.00,M,FEW,M,M,M,11000.00,M,M,M,M,M,M,M,M,M,M,78.94,KRTS 122335Z AUTO 25013KT 10SM FEW110 27/02 A3005 RMK AO2,M
MEV,2023-09-12 23:35,-119.7500,38.9963,1441.42,82.40,41.00,23.07,260.00,16.00,0.00,30.02,M,10.00,M,CLR,M,M,M,M,M,M,M,M,M,M,M,M,M,M,80.29,KMEV 122335Z AUTO 26016KT 10SM CLR 28/05 A3002 RMK AO2,M
HTH,2023-09-12 23:35,-118.6315,38.5448,1282.89,84.20,39.20,20.29,350.00,7.00,0.00,29.98,M,10.00,M,CLR,M,M,M,M,M,M,M,M,M,M,M,M,M,M,81.44,KHTH 122335Z AUTO 35007KT 10SM CLR 29/04 A2998 RMK A01,M
BAM,2023-09-12 23:35,-116.8743,40.5990,1382.36,80.60,42.80,26.22,330.00,4.00,0.00,30.03,M,10.00,M,CLR,M,M,M,M,M,M,M,M,M,M,M,M,M,M,79.30,KBAM 122335Z AUTO 33004KT 10SM CLR 27/06 A3003 RMK AO1,M
TMT,2023-09-12 23:35,-117.1971,39.4643,1749.34,77.00,40.50,27.01,320.00,6.00,0.00,30.09,M,M,M,SCT,M,M,M,11000.00,M,M,M,M,M,M,M,M,M,M,77.00,KTMT 122335Z AUTO 32006KT SCT110 25/05 A3009 RMK AO2 T02490047 PWINO,M
10U,2023-09-12 23:35,-116.1876,41.9532,1637.00,78.80,33.80,19.55,M,6.00,0.00,30.05,M,10.00,11.00,BKN,M,M,M,9000.00,M,M,M,M,M,M,M,M,M,M,78.80,K10U 122335Z AUTO VRB06G11KT 10SM BKN090 26/01 A3005 RMK AO2,M
05U,2023-09-12 23:50,-116.0051,39.6042,1811.23,77.00,37.40,23.93,140.00,4.00,0.00,30.11,M,10.00,M,BKN,M,M,M,11000.00,M,M,M,M,M,M,M,M,M,M,77.00,K05U 122350Z AUTO 14004KT 10SM BKN110 25/03 A3011 RMK A01,M
LOL,2023-09-12 23:53,-118.5701,40.0684,1192.43,85.00,35.00,16.76,M,3.00,0.00,29.95,1010.90,10.00,M,CLR,M,M,M,M,M,M,M,M,M,M,M,M,M,M,81.91,KLOL 122353Z AUTO VRB03KT 10SM CLR 29/02 A2995 RMK AO2 SLP109 T02940017 10300 20244 56016,M
P68,2023-09-12 23:53,-116.0056,39.6014,1993.00,76.00,38.00,25.32,M,3.00,0.00,30.08,1011.70,M,M,M,M,M,M,M,M,M,M,M,M,M,M,M,M,M,76.00,KP68 122353Z AUTO VRB03KT 24/03 A3008 RMK AO1 SLP117 T02440033 10256 20178 56008,M
DRA,2023-09-12 23:53,-116.0278,36.6206,1009.00,90.00,44.00,20.31,190.00,10.00,0.00,29.90,1007.70,10.00,M,CLR,M,M,M,M,M,M,M,M,M,M,M,M,M,M,86.37,KDRA 122353Z AUTO 19010KT 10SM CLR 32/07 A2990 RMK AO2 SLP077 T03220067 10328 20283 56014,M
ELY,2023-09-12 23:53,-114.8453,39.2950,1909.00,70.00,43.00,37.64,70.00,7.00,T,30.11,1012.20,10.00,M,SCT,BKN,M,M,9000.00,11000.00,M,M,VCTS,M,M,M,M,M,M,70.00,KELY 122353Z AUTO 07007KT 10SM VCTS SCT090 BKN110 21/06 A3011 RMK AO2 LTG DSNT E AND SW RAB12E34 TSB10E25 SLP122 P0000 60000 T02110061 10239 20183 56008,M
VGT,2023-09-12 23:53,-115.1933,36.2111,667.00,94.00,53.00,25.11,100.00,6.00,0.00,29.84,1009.10,10.00,M,CLR,M,M,M,M,M,M,M,M,M,M,M,M,M,M,91.53,KVGT 122353Z 10006KT 10SM CLR 34/12 A2984 RMK AO2 SLP091 T03440117 10350 20300 56019,M
RNO,2023-09-12 23:55,-119.7711,39.4839,1341.00,84.00,37.00,18.74,350.00,7.00,0.00,29.99,1010.20,10.00,M,SCT,M,M,M,11000.00,M,M,M,M,M,M,M,M,M,M,81.23,KRNO 122355Z 35007KT 10SM SCT110 29/03 A2999 RMK AO2 SLP102 CB DSNT SE T02890028 10306 20233 56017,M
RTS,2023-09-12 23:55,-119.8764,39.6682,1539.00,80.60,35.60,19.79,300.00,12.00,0.00,30.05,M,10.00,M,FEW,M,M,M,11000.00,M,M,M,M,M,M,M,M,M,M,78.94,KRTS 122355Z AUTO 30012KT 10SM FEW110 27/02 A3005 RMK AO2,M
MEV,2023-09-12 23:55,-119.7500,38.9963,1441.42,82.40,41.00,23.07,270.00,11.00,0.00,30.02,M,10.00,18.00,CLR,M,M,M,M,M,M,M,M,M,M,M,M,M,M,80.29,KMEV 122355Z AUTO 27011G18KT 10SM CLR 28/05 A3002 RMK AO2,M
HTH,2023-09-12 23:55,-118.6315,38.5448,1282.89,84.20,39.20,20.29,310.00,4.00,0.00,29.98,M,10.00,M,CLR,M,M,M,M,M,M,M,M,M,M,M,M,M,M,81.44,KHTH 122355Z AUTO 31004KT 10SM CLR 29/04 A2998 RMK A01,M
BVU,2023-09-12 23:55,-114.8611,35.9475,671.00,86.00,55.40,35.25,230.00,13.00,0.00,29.86,M,10.00,20.00,CLR,M,M,M,M,M,M,M,M,M,M,M,M,M,M,84.54,KBVU 122355Z AUTO 23013G20KT 10SM CLR 30/13 A2986 RMK AO2 LTG DSNT S AND SW,M
CXP,2023-09-12 23:55,-119.7326,39.1923,1431.00,82.40,37.40,20.04,250.00,10.00,0.00,30.02,M,10.00,M,CLR,M,M,M,M,M,M,M,M,M,M,M,M,M,M,80.14,KCXP 122355Z AUTO 25010KT 10SM CLR 28/03 A3002 RMK AO2,M
BAM,2023-09-12 23:55,-116.8743,40.5990,1382.36,80.60,42.80,26.22,340.00,4.00,0.00,30.03,M,10.00,M,CLR,M,M,M,M,M,M,M,M,M,M,M,M,M,M,79.30,KBAM 122355Z AUTO 34004KT 10SM CLR 27/06 A3003 RMK AO1,M
TMT,2023-09-12 23:55,-117.1971,39.4643,1749.34,74.70,39.20,27.72,330.00,4.00,0.00,30.09,M,M,M,SCT,M,M,M,11000.00,M,M,M,M,M,M,M,M,M,M,74.70,KTMT 122355Z AUTO 33004KT SCT110 24/04 A3009 RMK AO2 T02370040 10252 20205 PWINO,M
10U,2023-09-12 23:55,-116.1876,41.9532,1637.00,78.80,33.80,19.55,260.00,6.00,0.00,30.05,M,10.00,15.00,BKN,M,M,M,10000.00,M,M,M,M,M,M,M,M,M,M,78.80,K10U 122355Z AUTO 26006G15KT 10SM BKN100 26/01 A3005 RMK AO2,M
INS,2023-09-12 23:55,-115.6733,36.5872,955.00,87.80,50.50,27.81,120.00,9.00,0.00,29.90,1007.80,10.00,M,BKN,M,M,M,14000.00,M,M,M,M,M,M,M,M,M,M,85.18,KINS 122355Z AUTO 12009KT 10SM BKN140 31/10 A2990 RMK AO2 SLP078 T03100103 10313 20281 56013 $,M
LSV,2023-09-12 23:55,-115.0343,36.2362,570.00,95.00,51.40,22.95,60.00,8.00,0.00,29.80,1006.50,10.00,M,CLR,M,M,M,M,M,M,M,M,M,M,M,M,M,M,92.18,KLSV 122355Z AUTO 06008KT 10SM CLR 35/11 A2980 RMK AO2 SLP065 T03510108 10370 20310 56020 $,M
WMC,2023-09-12 23:56,-117.8072,40.9019,1315.00,86.00,28.00,12.23,310.00,8.00,0.00,29.99,1011.30,10.00,M,CLR,M,M,M,M,M,M,M,M,M,M,M,M,M,M,82.50,KWMC 122356Z AUTO 31008KT 10SM CLR 30/M02 A2999 RMK AO2 SLP113 T03001022 10311 20250 56012,M
NFL,2023-09-12 23:56,-118.7010,39.4166,1199.00,87.00,38.00,17.70,M,5.00,0.00,29.96,1011.70,10.00,M,FEW,M,M,M,7000.00,M,M,M,M,M,M,M,M,M,M,83.53,KNFL 122356Z VRB05KT 10SM FEW070 31/03 A2996 RMK AO2 SLP117 T03060033 10311 20256 56016,M
HND,2023-09-12 23:56,-115.1344,35.9729,742.79,87.00,59.00,38.88,190.00,14.00,0.00,29.90,1011.00,10.00,21.00,FEW,M,M,M,11000.00,M,M,M,M,M,M,M,M,M,M,86.37,KHND 122356Z AUTO 19014G21KT 10SM FEW110 31/15 A2990 RMK AO2 WSHFT 2303 SLP110 T03060150 10344 20294 55012,M
LAS,2023-09-12 23:56,-115.1634,36.0719,663.00,91.00,54.00,28.60,180.00,12.00,0.00,29.85,1007.90,10.00,M,SCT,SCT,BKN,M,10000.00,17000.00,22000.00,M,M,M,M,M,M,M,M,88.78,KLAS 122356Z 18012KT 10SM SCT100 SCT170 BKN220 33/12 A2985 RMK AO2 SLP079 CB DSNT SE-SW AND NW-NE T03280122 10344 20300 56019,M
EKO,2023-09-12 23:56,-115.7860,40.8242,1367.00,77.00,42.00,28.62,310.00,12.00,0.00,30.03,1012.60,10.00,19.00,BKN,OVC,M,M,10000.00,12000.00,M,M,M,M,M,M,M,M,M,77.00,KEKO 122356Z AUTO 31012G19KT 10SM BKN100 OVC120 25/06 A3003 RMK AO2 SLP126 T02500056 10283 20228 56007,M
